####018000127####
SICA30 KWBC 092100
AAXX 09211
80001 21468 80803 10268 20251 30095 40096 81976 333 56300 57911
59003 60067 81915 87458=
####018000450####
SIVD15 KWNB 092100 RRS
BBXX
42369 09211 99272 70903 46/// /1001 10286 92040 22200 10501 70005=
42370 09211 99273 70905 46/// ///02 10291 92040 22200 10501 70006=
42374 09211 99289 70881 46/// ///02 10299 40143 92040=
42376 09211 99291 70879 46/// /2503 10286 40134 92040 22200 10201
70005=
42392 09211 99272 70900 46/// ///// 1//// 92040 22200 10401 70005=
42887 09211 99282 70885 46/// /2301 10294 20234 92040 22200 10601
70007=
####018000089####
SIAA17 LFVW 092100 RRC
AAXX 09214
89016 46/18 /1211 11297 29052 39483 4//// 5////=
####018000073####
SIAA11 LFVW 092100
AAXX 09214
89253 46/// /0000 11130 49677 5////=
####018000185####
SNAA19 LFVW 092200 RRA
AAXX 09224
89661 46/// /2453 11197 38982 4//// 5////=
89659 46/// /3120 11512 29044 37582 4//// 5////=
89662 46/// /2733 11161 29030 39672 4//// 5////=
####018000118####
SNAA17 LFVW 092200
AAXX 09224
89577 46/// /3000 11731 4//// 5////=
89578 46/// /05// 11547 36776 4//// 5////=
####018001657####
SIKO22 RKSL 092100
AAXX 09211
47003 41260 80000 10167 20144 30115 40119 52009 75155 886//=
47005 42580 80000 10130 20124 38553 52003 883//=
47008 41560 80000 10176 20166 30070 40121 53009 71042 885//=
47014 41540 80000 10177 20146 39717 40094 53013 71044 886//=
47016 41540 80501 10144 20127 39306 40137 52014 71041 885//=
47020 42565 70000 10173 20161 39736 40094 52005 87500=
47022 42275 82901 10131 20125 38824 52011 87602=
47025 42564 80000 10190 20187 30067 40095 58003 885//=
47028 41657 80000 10193 20188 39990 40079 53008 71020 885//=
47031 41/05 90000 10142 20139 38895 53004 74542=
47035 41960 80000 10223 20206 30072 40080 52007 71022 8802/=
47037 41942 80000 10213 20210 39970 40086 53005 71021 8802/=
47039 41560 80000 10185 20174 39921 40101 52011 71022 885//=
47041 42565 80000 10207 20197 30060 40086 53008 885//=
47046 41550 80504 10196 20188 30072 40093 52008 76066 885//=
47050 41556 30000 10205 20192 30054 40086 52005 71044 83500=
47052 41/08 90000 10192 20187 39790 40087 52036 74542=
47055 41565 80000 10216 20205 30053 40096 52008 70262 885//=
47058 41920 80701 10206 20197 30043 40087 53005 71022 81037=
47060 41/00 90000 10209 20208 30034 40088 53009 74744=
47061 41660 81401 10200 20198 30049 40090 54000 71022 885//=
47065 41560 81401 10209 20206 30027 40088 53006 71022 85502=
47067 41550 81401 10210 20201 39985 40098 57003 71022 885//=
47068 41/01 90000 10207 20201 30043 40076 54000 74542=
47069 41539 80000 10218 20210 39987 40080 53010 71020 885//=
47070 41910 80000 10210 20206 30017 40099 53006 74242 80002=
47075 42570 80000 10189 20179 39541 49939 52010 885//=
####018000072####
SALY31 HLLT 092200
METAR HLLT 092150Z 00000KT 8000 SKC 24/20 Q1018=
####018000164####
SIAG01 SABM 092100 RRD
AAXX 09214
87692 00000 10076 20034 30212 40237 51007 71000=
87750 42965 63206 10088 21055 30128 40232 56003 80006 333 56006
86270=
####018000093####
SIVX81 EDZW 092100
BBXX
66024 09211 99547 10127 46/// /0904 10207 30180
22200 00174=
####018000093####
SIVX81 EDZW 092100
BBXX
66022 09211 99541 10142 46/// /1006 10238 30190
22200 00216=
####018000523####
SICH01 SCSC 092100
AAXX 09214
85406 42960 02106 10154 20094 40151 57001 =
85418 42560 82406 10151 20092 40156 53001 885//
  333 56099 88620=
85432 42970 02414 10198 21146 37753 48435 56001=
85442 41556 21807 10140 20087 40148 57006 70511 82500
  333 56400 82627=
85467 43460 53414 10132 20091 40163 56002 85500
  333 56600 85613=
85469 11565 53208 10219 20181 40157 57028 69901 70282 85200
  333 56200 85820=
85488 42960 02410 10135 20111 40135 53002=
85564 42997 01910 10145 20117 40194 57014=
####018000125####
SIVD20 KWNB 092100 RRQ
BBXX
44039 09211 99411 70727 46/// /1505 10262 20225 40121 92130 22200
1//00 70002 333 91206=
####018000095####
SIKZ20 UAAA 092100 CCA
AAXX 09211
28867 42498 60000 10133 20043 39862 40118 52010 86500=
####018000095####
SIKZ20 UAAA 092100 CCB
AAXX 09211
28952 429// 20000 10176 20070 39937 40115 52005 80001=
####018000510####
SICH01 SCSC 092100
AAXX 09214
85406 42960 02106 10154 20094 40151 57001 =
85418 42560 82406 10151 20092 40156 53001 885//
  333 56099 88620=
85432 42970 02414 10198 21146 37753 48435 56001=
85442 41556 21807 10140 20087 40148 57006 70511 82500
  333 56400 82627=
85467 43460 53414 10132 20091 40163 56002 85500
  333 56600 85613=
85469 11565 53208 10219 20181 40157 57028 69901 70282 85200
  333 56200 85820=
85488 42960 02410 10135 20111 40135 53002=
85564 42997 01910 10145 20117 40194 57014=
####018000074####
SALY31 HLLT 092200
METAR HLLT 092150Z 
00000KT 8000 SKC 24/20 Q1018=
####018000089####
SIKZ30 UAAA 092100 CCA
AAXX 09211
35358 429// 00201 10198 20078 39945 40102 54000=
####018000095####
SIKZ20 UAAA 092100 CCD
AAXX 09211
28952 429// 20000 10176 20070 39937 40115 52005 80001=
####018000095####
SIKZ20 UAAA 092100 CCC
AAXX 09211
28867 42498 60000 10133 20043 39862 40118 52010 86500=
####018000089####
SIKZ30 UAAA 092100 CCB
AAXX 09211
35358 429// 00201 10198 20078 39945 40102 54000=
####018000095####
SIUR21 UKMS 092100 RRB
AAXX 09211
33429 42997 53303 10179 20159 39801 40207 52003 80001=
