####018000131####
SIPF80 KWBC 100300
AAXX 10034
91925 26/// /0914 10254 20215 30069 40130 53008 333 60027 90710
91137 555 60025 1//37 58008=
####018000514####
SIBC20 FBSK 100300
AAXX 10034
68024 43960 03603 10079 20022 48528 5////=
68026 NIL=
68029 NIL=
68030 43960 00000 10051 20017 48527 51001=
68032 NIL=
68038 NIL=
68040 42960 01502 10070 20042 48532 56012=
68054 43960 00202 10032 20005 48531 57028=
68070 NIL=
68148 43960 03204 10065 20040 48522 56010=
68226 NIL=
68234 43960 00000 10035 20013 48535 56011=
68240 NIL=
68244 NIL=
68320 43960 00000 10070 20025 48532 51001=
68325 NIL=
68328 42960 00205 10100 20030 48517 57014=

####018000122####
SIAC01 KWNB 100300 RRA
OOXX
ACSAMS01 10031 99808 70664 90706 01741 46/// /1612 10061 20003 39826
90303 333 91217=
####018000889####
SIVD20 KWNB 100300 RRE
BBXX
44097 10031 99410 70711 46/// ///// 1//// 90301 22200 00239 10802
20802 70011=
44039 10031 99411 70727 46/// /1704 10247 20230 40121 52004 90300
22200 1//00 70001 333 91204=
44060 10031 99413 70721 46/// /1103 10204 40122 54000 90300 22200
00190 333 91203 555 11031 22036=
44027 10031 99443 70673 46/// /1708 10164 20164 40131 58003 90250
22200 00138 10802 20501 300// 40801 70009 333 91209 555 11083
22094 30244 41709 60249 170075 174067 174064 175060 176061 173066=
44008 10031 99405 70692 46/// /2104 10208 20208 40140 53013 90250
22200 00187 10903 20401 315// 40903 70015 333 91204 555 11043
22051 30209 41907 60249 208038 219039 216052 195061 187053 172042=
41033 10031 99323 70804 46/// /2208 10294 40111 52018 90300 555
11107 22129=
44070 10031 99414 70710 46/// ///// 1//// 90306 22200 10801 20501
317// 40801 70007=
####018000425####
SIVD17 KWNB 100300 RRC
BBXX
46076 10031 99595 71480 46/// /0806 10105 20102 40111 56008 90250
22200 00101 333 91207 555 11063 22068=
46083 10031 99582 71380 46/// /1305 10121 20118 40126 57010 90250
22200 00120 11401 20301 300// 41401 70006 333 91205 555 11051
22055 30227 41206 60249 126047 125050 124050 120043 113042 114037
81305 90224=
23020 10031 99222 10385 46/// ///// 1//// 90250 22200 10703 70016=
####018000247####
SIVD15 KWNB 100300 RRH
BBXX
41041 10031 99144 70460 46/// /0907 10275 20234 40159 51004 90250
22200 00276 10804 20603 300// 40803 70018 333 91208 555 11075
22079 30225 40809 60249 089070 084076 082072 079067 082072 081076
80808 90155=
####018000027####
SIVJ10 EHDB 100300
NIL
####018000221####
SIVD45 KWNB 100300 RRE
BBXX
45007 10031 99427 70870 46/// /2303 10229 20208 39941 40150 53009
90250 22200 00235 1//00 70001 333 91203 555 11029 22030 30150
43103 60249 228027 228025 226025 221025 225024 233028=
####018000127####
SIVE15 KWNB 100300 RRC
BBXX
52200 10031 99134 11448 46/// ///// 1//// 90252 22200 00299 10903
20903 310// 41101 70015=
####018000806####
SIVD22 KWNB 100300 RRF
BBXX
46014 10031 99392 71240 46/// /3202 10119 40132 57012 90250 22200
00117 11302 20401 300// 41302 70010 333 91202 555 11023 22023
30236 43103 60249 319020 317021 259016 216010 140003 114002=
46050 10031 99446 71245 46/// /3508 10165 40168 50000 90250 22200
00151 10603 20603 331// 40901 70014 333 91210 555 11088 22097
30246 43510 60249 351082 353077 355077 355075 358074 358074=
46047 10031 99324 71195 46/// /3107 10144 40131 54000 90250 22200
11302 20401 320// 41302 70011 333 91209 555 11070 22075 30248
43109 60249 307064 304065 297068 293064 293067 295066=
46027 10031 99419 71244 46/// /2001 10118 40109 55000 90250 22200
00106 10704 20401 332// 40704 70020 333 91203 555 11017 22020
30248 41803 60249 201013 165010 156011 142009 164006 148006=
####018001470####
SITH40 VTBB 100300
AAXX 10034
48310 32562 60000 10295 20245 39623 40064 82806
  333 58005=
48325 32662 80000 10282 20243 39848 40088 83576
  333 58005=
48329 32562 40000 10302 20242 39751 40083 82508
  333 58014=
48352 32565 80000 10299 20249 39888 40083 8687/
  333 58008=
48357 32561 61804 10300 20243 39923 40089 83106
  333 58012=
48380 32662 62902 10312 20253 39999 40091 81102
  333 58007=
48383 32563 62701 10325 20231 39928 40083 84206
  333 58014=
48403 32562 31703 10298 20236 39884 40091 82105
  333 58016=
48405 32560 62105 10310 20243 39928 40088 84206
  333 58009=
48420 32562 32404 10310 20230 30086 40091 82205
  333 58006=
48421 32560 40000 10310 20246 39987 40099 82205
  333 59004=
48425 32562 40000 10314 20243 30081 40091 82145
  333 58006=
48426 32562 61305 10312 20240 30067 40080 81106
  333 58007=
48429 32560 42206 10321 20220 30087 40094 82235
  333 58006=
48430 32562 51903 10310 20246 30087 40094 83246
  333 58013=
48450 32562 22004 10331 20236 30059 40091 81501
  333 58024=
48459 32563 20000 10325 20242 30086 40088 82101
  333 58001=
48465 32561 31702 10321 20241 30090 40094 81205
  333 58005=
48550 31559 60000 10307 20239 30095 40102 71022 82126
  333 58000=
48552 32460 70000 10289 20241 30093 40100 82236
  333 59005=
48566 32560 52806 10303 20241 30100 40108 82145
  333 59007=
48568 32461 20000 10316 20237 30102 40110 82201
  333 58005=
####018001157####
SITH20 VTBB 100300
AAXX 10034
48300 32560 40000 10296 20252 39775 40081 83635
  333 58003=
48327 32562 60000 10295 20232 39747 40096 83806
  333 58020=
48331 32560 20000 10315 20254 39852 40077 82241
  333 58010=
48353 32668 41404 10291 20241 39798 40082 84200
  333 58016=
48356 32562 21702 10305 20248 39892 40085 81101
  333 58011=
48375 21558 80000 10280 20236 39860 40083 71062 85857
  333 59002 69927=
48378 32562 51202 10306 20249 30034 40086 81546
  333 58013=
48381 32560 42006 10307 20233 39874 40091 82545
  333 58017=
48407 32560 61904 10317 20240 39953 40091 83101
  333 58012=
48431 32562 30000 10311 20247 39876 40085 81105
  333 58012=
48456 32560 42509 10308 20211 30078 40092 82105
  333 58005=
48480 31558 72405 10297 20236 30093 40097 71022 85846
  333 58010=
48500 32562 40000 10330 20224 30091 40098 82845
  333 58008=
48551 32560 62503 10298 20250 30099 40107 82246
  333 58000=
48565 32460 60000 10290 20262 30072 40082 82246
  333 59005=
48569 32560 42003 10306 20245 30073 40113 81101
  333 59002=
48583 32560 62507 10290 20235 30102 40108 82106
  333 59003=
####018001145####
SITH21 VTBB 100300
AAXX 10034
48303 32565 81503 10292 20242 39636 40071 82107
  333 58005=
48328 32560 40000 10303 20233 39809 40081 82205
  333 58008=
48330 32465 82506 10301 20241 39898 40081 81146
  333 58010=
48351 32564 80000 10303 20241 30013 40086 86836
  333 58011=
48354 32565 22103 10313 20248 39879 40078 82800
  333 58009=
48376 32562 62807 10307 20223 39948 40091 82276
  333 58006=
48377 32562 50000 10313 20240 39920 40082 82206
  333 58008=
48379 32562 30000 10303 20249 39944 40075 82205
  333 58014=
48400 32562 40000 10309 20252 30044 40084 81106
  333 58003=
48432 32560 31506 10312 20248 39924 40089 82105
  333 58008=
48455 32560 62806 10319 20245 30090 40094 81146
  333 58004=
48462 31557 51204 10313 20258 30044 40100 71011 82545
  333 58010=
48475 32562 22803 10330 20220 30086 40093 81105
  333 58007=
48477 32562 61804 10306 20251 30073 40097 82946
  333 58010=
48517 32560 33005 10310 20233 30099 40105 83105
  333 58002=
48532 32560 50601 10295 20237 30105 40114 85506
  333 58005=
48567 32560 60000 10305 20248 30089 40107 83246
  333 59002=
####018001385####
SITH43 VTBB 100300
AAXX 10034
48307 32562 50000 10283 20250 39707 40081 82256
  333 58002=
48324 32562 71505 10307 20243 39873 40088 82146
  333 58005=
48333 32562 60000 10300 20249 39782 40078 83813
  333 58006=
48350 NIL=
48355 32560 50000 10301 20245 39868 40084 82105
  333 58026=
48358 32560 62102 10300 20253 39917 40090 82106
  333 58010=
48384 32561 50000 10311 20256 39895 40081 81506
  333 58015=
48401 NIL=
48404 32561 52302 10304 20262 39911 40086 82101
  333 58011=
48409 32560 21902 10312 20243 39951 40096 82101
  333 58015=
48419 32560 62709 10305 20270 30082 40090 82845
  333 58004=
48427 32560 62302 10320 20228 30078 40085 82506
  333 59002=
48435 32565 22609 10305 20208 39658 40086 81105
  333 58010=
48453 32560 42102 10320 20228 30085 40088 82245
  333 58004=
48458 32560 52702 10309 20242 30027 40107 84105
  333 58006=
48474 32965 30000 10308 20236 39978 40100 80005
  333 58012=
48481 NIL=
48555 31557 62602 10296 20219 30086 40128 71722 83876
  333 59003=
48556 31558 70000 10280 20246 30088 40105 71022 82507
  333 59009=
48557 32560 60000 10285 20242 30070 40105 82106
  333 59006=
48560 32560 33505 10316 20229 30098 40103 81102
  333 59004=
48574 32562 51803 10298 20240 30081 40110 82106
  333 58001=
48581 32560 60000 10306 20235 30070 40110 81144
  333 59001=
####018001352####
SITH41 VTBB 100300
AAXX 10034
48315 32560 70000 10302 20257 39810 40074 84576
  333 59002=
48374 32562 30000 10296 20237 39928 40091 82205
  333 58018=
48382 32562 22203 10315 20274 39908 40080 82201
  333 58012=
48385 32561 80000 10274 20224 39584 40094 83576
  333 58001=
48390 31458 21506 10295 20252 39934 40093 71020 82500
  333 58017=
48402 32962 20000 10324 20231 30061 40080 80005
  333 58001=
48413 32562 30000 10304 20249 30011 40089 82101
  333 58011=
48416 32563 32102 10315 20244 39946 40091 83200
  333 58012=
48418 32562 62202 10310 20238 30027 40085 82146
  333 58007=
48434 32562 42405 10320 20241 39868 40083 84501
  333 58002=
48436 32562 60000 10307 20250 39883 40087 85206
  333 58013=
48439 32560 40000 10318 20245 30081 40095 82345
  333 58007=
48460 32963 20000 10318 20245 30062 40093 80005
  333 58004=
48461 32565 42405 10305 20243 30027 40096 83106
  333 58007=
48478 21558 60000 10292 20270 30095 40100 71096 82576
  333 58010 69917=
48501 32560 23002 10317 20264 30091 40096 81901
  333 58001=
48561 32560 50000 10300 20243 30098 40106 82246
  333 59003=
48564 32560 72603 10315 20251 30101 40106 82146
  333 59004=
48570 32561 60000 10305 20242 30103 40110 82246
  333 59007=
48580 32560 60000 10307 20239 30098 40105 81246
  333 58003=
####018001391####
SITH42 VTBB 100300
AAXX 10034
48302 31/02 92803 10207 20188 38461 40063 74542
  333 58010=
48304 32562 80000 10285 20240 39621 40065 81127
  333 58007=
48334 32560 60000 10296 20252 39725 40079 82146
  333 58009=
48360 NIL=
48372 32560 80000 10312 20245 30026 40082 84856
  333 58011=
48373 32560 80000 10313 20257 30023 40084 82107
  333 58012=
48386 32560 60000 10320 20241 30040 40083 81136
  333 58007=
48387 21450 82705 10232 20209 39147 40095 75022 8677/
  333 58001 69905=
48408 32560 71604 10315 20236 39948 40094 86506
  333 58012=
48415 32560 32305 10310 20250 30070 40081 81105
  333 58002=
48433 NIL=
48437 32562 21803 10314 20241 39887 40092 81101
  333 58009=
48440 32560 62704 10310 20255 30043 40092 86100
  333 58009=
48451 32565 32704 10313 20238 30086 40097 81105
  333 58008=
48454 32560 51804 10322 20232 30086 40093 82106
  333 59005=
48457 32562 20000 10300 20228 30079 40095 81201
  333 58004=
48463 32562 62005 10307 20247 30005 40097 83846
  333 58004=
48464 32564 43004 10312 20237 30076 40087 81304
  333 58001=
48479 NIL=
48520 31559 50000 10320 20220 30090 40105 70511 82506
  333 58007=
48554 32560 62202 10286 20241 30097 40100 82246
  333 59005=
48563 32560 60000 10295 20251 30067 40103 82246
  333 59008=
48571 32562 40000 10312 20232 30099 40110 82232
  333 58001=
####018000135####
SINI20 DNMM 100300
AAXX 10034
65201 42460 62509 10250 20240 30083 40138 83538
  333 56500 57632 59002 83610 86280 91111 94463=
####018000085####
SILJ20 LJLM 100300
AAXX 10031
14014 42982 03001 10146 20139 39775 40225 56004=
####018000172####
SIYE10 OYAA 100300
AAXX 10034
41480 41957 50103 10300 20208 30034 40037 70544 85030 333 59002
  85360=
41494 42460 22032 10280 20222 40082 82800 333 58004 82818=
####018000360####
SIRH21 LDZM 100300
AAXX 10031
14241 42980 12402 10145 20123 30085 40213 58005 80002=
14284 42965 23201 10164 20151 30105 40211 55003 80001=
14307 42981 00803 10216 20134 30122 40196 57007 333=
14431 42975 01302 10208 20104 30103 40193 58004=
14444 42980 00402 10220 20085 30163 40191 57005 333=
14474 42980 00605 10228 20054 39994 40177 55007=
####018000678####
SIPL30 SOWR 100300
AAXX 10031
12105 42982 01502 10198 20139 30169 40210 53001 =
12195 42972 00000 10134 20129 30013 40237 53001 =
12235 42967 11802 10170 20143 30018 40223 55003 81030=
12270 42982 00602 10170 20143 30055 40232 55001 =
12280 42961 00000 10165 20160 30081 40234 55000 =
12300 42980 11401 10188 20114 30120 40207 55003 81030=
12400 42981 11403 10198 20094 39981 40208 56005 81031=
12435 42968 01602 10171 20134 30060 40227 53001 =
12495 42965 03401 10137 20117 39945 40233 55002 =
12530 42965 10801 10131 20126 30032 40229 52003 80001=
12570 42962 00000 10120 20115 39923 40238 55002 =
12580 42970 00000 10124 20119 39974 40231 55000 =
####018000319####
SILJ21 LJLM 100300
AAXX 10031
14008 42999 13206 10112 20001 37611 47209 58009 80001 333
95100=
14015 42982 10000 10173 20142 39874 40222 57003 81030=
14026 42998 00000 10139 20125 39905 40220 57005=
14031 42997 12801 10139 20125 39995 40219 57005 80001=
14121 42998 02101 10147 20137 39954 40215 57004=
####018000570####
SIPL20 SOWR 100300
AAXX 10031
12120 42983 11201 10187 20142 30205 40212 55004 81030=
12160 42980 01403 10195 20137 30174 40225 55003 =
12205 42970 00102 10170 20152 30193 40201 56001 =
12250 42965 00701 10145 20125 30138 40225 56003 =
12295 41959 00000 10146 20144 30050 40231 53001 71100 =
12330 42970 10000 10176 20123 30113 40218 57002 80009=
12375 42970 00000 10160 20135 30101 40229 56004 =
12424 42999 01103 10145 20125 30073 40223 51001 =
12465 42965 01001 10147 20131 30002 40230 57002 =
12566 42970 02401 10121 20112 39945 40237 55001 =
####018000219####
SIRH20 LDZM 100300
AAXX 10031
14240 42970 10000 10149 20128 30062 40214 58004 80001=
14258 42970 00000 10132 20125 30030 40215 57003=
14445 42975 20604 10234 20086 30034 40182 55007 80001
  333 82099 92312=
####018000135####
SICS01 MROC 100300
AAXX 10034
78762 32670 70104 10220 20220 39092 40092 58013 71056
333 8377/ 0000/ 31/// 5903 81702 85362=
####018001425####
SINZ20 NZKL 100300
AAXX 10034
93004 46/// /1109 10120 20031 40260 57003=
93023 46/// /1108 10118 20041 40268 57009=
93069 46/// /1309 10117 20052 40268 57010=
93110 46/98 /1507 10112 20030 40273 57010=
93186 45/98 /1904 10132 20014 40274 57004=
93196 46/// /1611 10116 20036 40263 52006=
93245 45698 /2907 10094 20012 40275 57011=
93292 NIL=
93305 46/// /1420=
93309 45/98 /1513 10108 20037 40288 57007=
93334 46/// /1404 10030 21013 39306 57007=
93373 45698 /2209 10097 20038 40286 57004=
93404 45698 /2104 10091 20037 40293 57007=
93420 45698 /1707 10097 20032 40294 57008=
93439 45598 /1810 10087 20035 40297 57008=
93498 46/// /2117 10073 20043 40287 57002=
93515 45/98 /3204 10125 20052 40295 57010=
93527 46/// /0104 10123 20043 40295 57012=
93546 45/98 /0206 10099 20022 40293 57015=
93597 46/// /1810 10086 20032 40297 57009=
93615 45/98 /2804 10109 20006 40299 57011=
93678 46/98 /1909 10068 20019 40297 57010=
93709 46/// /0000 10121 20040 40295 57010=
93773 45/98 /0102 10087 20007 40298 57013=
93781 45/98 /1501 10087 20011 40297 57015=
93800 NIL=
93805 NIL=
93831 45/98 /0101 10062 21023 40304 57026=
93845 45598 /3504 10063 20037 40304 57011=
93891 45/98 /2008 10057 20020 40299 57017=
93909 46/// /2413 10070 20052 40292 57011=
93929 46/// /2716 10078 20059 40253 57005=
93947 NIL=
93987 46/// ///// 10082 20056 40187 52006=
93994 NIL=
####018001135####
SNCN19 CWAO 100212
OOXX
MRP43 10001 99181 70159 ///// ////1
     26/// /2906 10249 29080 30134 90010 333 60000=
MRP43 10001 99181 70159 ///// ////1
     26/// /2907 10249 29080 30132 90020 333 60000=
MRP43 10001 99181 70159 ///// ////1
     26/// /2907 10248 29079 30130 90030 333 60000=
MRP43 10001 99181 70159 ///// ////1
     26/// /2807 10247 29079 30128 90040 333 60000=
MRP43 10001 99181 70159 ///// ////1
     26/// /2807 10247 29080 30125 90050 333 60000=
MRP43 10011 99181 70159 ///// ////1
     26/// /2806 10246 29080 30124 90100 333 60000=
MRP43 10011 99181 70159 ///// ////1
     26/// /2806 10246 29080 30122 90110 333 60000=
MRP43 10011 99181 70159 ///// ////1
     26/// /2806 10245 29080 30120 90120 333 60000=
MRP43 10011 99181 70159 ///// ////1
     26/// /2806 10245 29080 30117 90130 333 60000=
MRP43 10011 99181 70159 ///// ////1
     26/// /2706 10244 29080 30114 90140 333 60000=
MRP43 10011 99181 70159 ///// ////1
     26/// /2706 10244 29080 30113 90150 333 60000=
MRP43 10021 99181 70159 ///// ////1
     26/// /2705 10244 29081 30112 90200 333 60000=

####018001135####
SNCN19 CWAO 100227
OOXX
AUP09 10001 99124 31309 ///// ////1
     26/// /1007 10275 29055 30115 90035 333 60000=
AUP09 10001 99124 31309 ///// ////1
     26/// /0907 10278 29052 30114 90045 333 60000=
AUP09 10001 99124 31309 ///// ////1
     26/// /0907 10283 29052 30113 90055 333 60000=
AUP09 10011 99124 31309 ///// ////1
     26/// /0907 10285 29048 30112 90105 333 60000=
AUP09 10011 99124 31309 ///// ////1
     26/// /0908 10289 29046 30110 90115 333 60000=
AUP09 10011 99124 31309 ///// ////1
     26/// /0907 10293 29047 30110 90125 333 60000=
AUP09 10011 99124 31309 ///// ////1
     26/// /0908 10291 29047 30110 90135 333 60000=
AUP09 10011 99124 31309 ///// ////1
     26/// /0807 10291 29047 30108 90145 333 60000=
AUP09 10011 99124 31309 ///// ////1
     26/// /0806 10294 29046 30107 90155 333 60000=
AUP09 10021 99124 31309 ///// ////1
     26/// /0907 10300 29046 30105 90205 333 60000=
AUP09 10021 99124 31309 ///// ////1
     26/// /0707 10302 29045 30103 90215 333 60000=
AUP09 10021 99124 31309 ///// ////1
     26/// /0807 10301 29044 30102 90225 333 60000=

####018001135####
SNCN19 CWAO 100216
OOXX
MYP42 10001 99045 11014 ///// ////1
     26/// /0601 10176 29092 38438 90023 333 60000=
MYP42 10001 99045 11014 ///// ////1
     26/// /1401 10186 29089 38444 90033 333 60000=
MYP42 10001 99045 11014 ///// ////1
     26/// /1101 10193 29086 38444 90043 333 60000=
MYP42 10001 99045 11014 ///// ////1
     26/// /1901 10198 29086 38438 90053 333 60000=
MYP42 10011 99045 11014 ///// ////1
     26/// /1201 10206 29082 38444 90103 333 60000=
MYP42 10011 99045 11014 ///// ////1
     26/// /1901 10217 29075 38442 90113 333 60000=
MYP42 10011 99045 11014 ///// ////1
     26/// /3001 10222 29074 38442 90123 333 60000=
MYP42 10011 99045 11014 ///// ////1
     26/// /3301 10218 29076 38447 90133 333 60000=
MYP42 10011 99045 11014 ///// ////1
     26/// /3101 10217 29077 38447 90143 333 60000=
MYP42 10011 99045 11014 ///// ////1
     26/// /2401 10226 29074 38449 90153 333 60000=
MYP42 10021 99045 11014 ///// ////1
     26/// /3301 10215 29079 38445 90203 333 60000=
MYP42 10021 99045 11014 ///// ////1
     26/// /3003 10207 29082 38442 90213 333 60000=

####018001135####
SNCN19 CWAO 100203
OOXX
NOP49 10001 99782 10154 ///// 04551
     26/// /0501 10049 29094 39547 90010 333 6///0=
NOP49 10001 99782 10154 ///// 04551
     26/// /1202 10050 29096 39547 90020 333 6///0=
NOP49 10001 99782 10154 ///// 04551
     26/// /1003 10052 29095 39547 90030 333 6///0=
NOP49 10001 99782 10154 ///// 04551
     26/// /1104 10052 29095 39547 90040 333 6///0=
NOP49 10001 99782 10154 ///// 04551
     26/// /1104 10050 29094 39547 90050 333 6///0=
NOP49 10011 99782 10154 ///// 04551
     26/// /1104 10050 29094 39547 90100 333 6///0=
NOP49 10011 99782 10154 ///// 04551
     26/// /1104 10052 29093 39546 90110 333 6///0=
NOP49 10011 99782 10154 ///// 04551
     26/// /1104 10052 29093 39546 90120 333 6///0=
NOP49 10011 99782 10154 ///// 04551
     26/// /1203 10046 29093 39546 90130 333 6///0=
NOP49 10011 99782 10154 ///// 04551
     26/// /1202 10044 29094 39546 90140 333 6///0=
NOP49 10011 99782 10154 ///// 04551
     26/// /1003 10048 29094 39545 90150 333 6///0=
NOP49 10021 99782 10154 ///// 04551
     26/// /0802 10049 29094 39545 90200 333 6///0=

####018001135####
SNCN19 CWAO 100249
OOXX
FRP31 10001 99052 70527 ///// ////1
     26/// /0402 10248 29079 39831 90047 333 60000=
FRP31 10001 99052 70527 ///// ////1
     26/// /0502 10250 29078 39834 90057 333 60000=
FRP31 10011 99052 70527 ///// ////1
     26/// /0503 10251 29078 39833 90107 333 60000=
FRP31 10011 99052 70527 ///// ////1
     26/// /0802 10251 29077 39833 90117 333 60000=
FRP31 10011 99052 70527 ///// ////1
     26/// /0902 10246 29080 39834 90127 333 60000=
FRP31 10011 99052 70527 ///// ////1
     26/// /0902 10244 29080 39834 90137 333 60000=
FRP31 10011 99052 70527 ///// ////1
     26/// /0903 10242 29081 39826 90147 333 60000=
FRP31 10011 99052 70527 ///// ////1
     26/// /1002 10240 29083 39835 90157 333 60000=
FRP31 10021 99052 70527 ///// ////1
     26/// /1001 10238 29084 39833 90207 333 60000=
FRP31 10021 99052 70527 ///// ////1
     26/// /1202 10236 29085 39834 90217 333 60000=
FRP31 10021 99052 70527 ///// ////1
     26/// /1001 10234 29085 39833 90227 333 60000=
FRP31 10021 99052 70527 ///// ////1
     26/// /0801 10233 29086 39835 90237 333 60000=

####018001135####
SNCN19 CWAO 100246
OOXX
PHP52 10001 99146 11214 ///// ////1
     26/// /0000 10000 29000 3//// 90040 333 60000=
PHP52 10001 99146 11214 ///// ////1
     26/// /0000 10000 29000 3//// 90050 333 60000=
PHP52 10011 99146 11214 ///// ////1
     26/// /0000 10000 29000 3//// 90100 333 60000=
PHP52 10011 99146 11214 ///// ////1
     26/// /0000 10000 29000 3//// 90110 333 60000=
PHP52 10011 99146 11214 ///// ////1
     26/// /0000 10000 29000 3//// 90120 333 60000=
PHP52 10011 99146 11214 ///// ////1
     26/// /0000 10000 29000 3//// 90130 333 60000=
PHP52 10011 99146 11214 ///// ////1
     26/// /0000 10000 29000 3//// 90140 333 60000=
PHP52 10011 99146 11214 ///// ////1
     26/// /0000 10000 29000 3//// 90150 333 60000=
PHP52 10021 99146 11214 ///// ////1
     26/// /0000 10000 29000 3//// 90200 333 60000=
PHP52 10021 99146 11214 ///// ////1
     26/// /0000 10000 29000 3//// 90210 333 60000=
PHP52 10021 99146 11214 ///// ////1
     26/// /0000 10000 29000 3//// 90220 333 60000=
PHP52 10021 99146 11214 ///// ////1
     26/// /0000 10000 29000 3//// 90230 333 60000=

####018001135####
SNCN19 CWAO 100204
OOXX
AUP10 10001 99319 31160 ///// 00201
     26/// /3603 10095 29097 30144 90011 333 60000=
AUP10 10001 99319 31160 ///// 00201
     26/// /0303 10096 29097 30144 90021 333 60000=
AUP10 10001 99319 31160 ///// 00201
     26/// /0103 10099 29097 30145 90031 333 60000=
AUP10 10001 99319 31160 ///// 00201
     26/// /0504 10100 29097 30146 90041 333 60000=
AUP10 10001 99319 31160 ///// 00201
     26/// /0703 10102 29096 30148 90051 333 60000=
AUP10 10011 99319 31160 ///// 00201
     26/// /0403 10106 29097 30148 90101 333 60000=
AUP10 10011 99319 31160 ///// 00201
     26/// /0603 10112 29094 30150 90111 333 60000=
AUP10 10011 99319 31160 ///// 00201
     26/// /0204 10111 29094 30153 90121 333 60000=
AUP10 10011 99319 31160 ///// 00201
     26/// /3504 10111 29095 30156 90131 333 60000=
AUP10 10011 99319 31160 ///// 00201
     26/// /3604 10109 29096 30155 90141 333 69920=
AUP10 10011 99319 31160 ///// 00201
     26/// /0204 10110 29096 30155 90151 333 69920=
AUP10 10021 99319 31160 ///// 00201
     26/// /0204 10113 29096 30156 90201 333 60000=

####018001135####
SNCN19 CWAO 100217
OOXX
CAP17 10001 99476 70527 ///// ////1
     26/// /2924 10186 29081 39998 90020 333 60000=
CAP17 10001 99476 70527 ///// ////1
     26/// /2925 10184 29082 30000 90030 333 60000=
CAP17 10001 99476 70527 ///// ////1
     26/// /2925 10183 29082 30000 90040 333 60000=
CAP17 10001 99476 70527 ///// ////1
     26/// /2927 10184 29081 39999 90050 333 60000=
CAP17 10011 99476 70527 ///// ////1
     26/// /2924 10183 29082 30000 90100 333 60000=
CAP17 10011 99476 70527 ///// ////1
     26/// /2926 10183 29081 30000 90110 333 60000=
CAP17 10011 99476 70527 ///// ////1
     26/// /2925 10183 29082 39998 90120 333 60000=
CAP17 10011 99476 70527 ///// ////1
     26/// /2927 10181 29082 30000 90130 333 60000=
CAP17 10011 99476 70527 ///// ////1
     26/// /2924 10180 29083 39998 90140 333 60000=
CAP17 10011 99476 70527 ///// ////1
     26/// /2926 10180 29083 39999 90150 333 60000=
CAP17 10021 99476 70527 ///// ////1
     26/// /2926 10180 29083 39999 90200 333 60000=
CAP17 10021 99476 70527 ///// ////1
     26/// /2917 10182 29083 39998 90210 333 60000=

####018001135####
SNCN19 CWAO 100207
OOXX
ARP01 10001 99345 50585 ///// 00681
     26/// /0000 10057 29032 30228 90010 333 60000=
ARP01 10001 99345 50585 ///// 00681
     26/// /0000 10056 29032 30228 90020 333 60000=
ARP01 10001 99345 50585 ///// 00681
     26/// /0000 10056 29033 30229 90030 333 60000=
ARP01 10001 99345 50585 ///// 00681
     26/// /0000 10055 29033 30230 90040 333 60000=
ARP01 10001 99345 50585 ///// 00681
     26/// /0000 10055 29033 30232 90050 333 60000=
ARP01 10011 99345 50585 ///// 00681
     26/// /0000 10055 29033 30233 90100 333 60000=
ARP01 10011 99345 50585 ///// 00681
     26/// /0000 10055 29032 30232 90110 333 60000=
ARP01 10011 99345 50585 ///// 00681
     26/// /0000 10055 29033 30233 90120 333 60000=
ARP01 10011 99345 50585 ///// 00681
     26/// /0000 10053 29033 30232 90130 333 60000=
ARP01 10011 99345 50585 ///// 00681
     26/// /0000 10052 29033 30233 90140 333 60000=
ARP01 10011 99345 50585 ///// 00681
     26/// /0000 10052 29033 30232 90150 333 60000=
ARP01 10021 99345 50585 ///// 00681
     26/// /0000 10051 29033 30232 90200 333 60000=

####018001135####
SNCN19 CWAO 100238
OOXX
CAP16 10001 99624 71145 ///// 02051
     26/// /0305 10162 29042 39860 90030 333 60000=
CAP16 10001 99624 71145 ///// 02051
     26/// /0305 10159 29045 39861 90040 333 60000=
CAP16 10001 99624 71145 ///// 02051
     26/// /0304 10168 29042 39858 90050 333 60000=
CAP16 10011 99624 71145 ///// 02051
     26/// /0306 10156 29046 39859 90100 333 60000=
CAP16 10011 99624 71145 ///// 02051
     26/// /0305 10156 29046 39859 90110 333 60000=
CAP16 10011 99624 71145 ///// 02051
     26/// /0205 10156 29046 39860 90120 333 60000=
CAP16 10011 99624 71145 ///// 02051
     26/// /0205 10156 29045 39859 90130 333 60000=
CAP16 10011 99624 71145 ///// 02051
     26/// /0105 10157 29046 39859 90140 333 60000=
CAP16 10011 99624 71145 ///// 02051
     26/// /3605 10160 29044 39858 90150 333 60000=
CAP16 10021 99624 71145 ///// 02051
     26/// /0104 10164 29041 39857 90200 333 60000=
CAP16 10021 99624 71145 ///// 02051
     26/// /0206 10161 29043 39857 90210 333 60000=
CAP16 10021 99624 71145 ///// 02051
     26/// /0305 10160 29045 39857 90220 333 60000=

####018001135####
SNCN19 CWAO 100240
OOXX
KIP39 10001 99020 51574 ///// ////1
     26/// /1305 10287 29068 30100 90030 333 60000=
KIP39 10001 99020 51574 ///// ////1
     26/// /1405 10284 29069 30098 90040 333 60000=
KIP39 10001 99020 51574 ///// ////1
     26/// /1305 10291 29064 30099 90050 333 60000=
KIP39 10011 99020 51574 ///// ////1
     26/// /1304 10292 29065 30099 90100 333 60000=
KIP39 10011 99020 51574 ///// ////1
     26/// /1305 10292 29065 30100 90110 333 60000=
KIP39 10011 99020 51574 ///// ////1
     26/// /1204 10292 29063 30100 90120 333 60000=
KIP39 10011 99020 51574 ///// ////1
     26/// /1205 10288 29067 30101 90130 333 60000=
KIP39 10011 99020 51574 ///// ////1
     26/// /1204 10289 29067 30102 90140 333 60000=
KIP39 10011 99020 51574 ///// ////1
     26/// /1205 10280 29069 30100 90150 333 60000=
KIP39 10021 99020 51574 ///// ////1
     26/// /1304 10283 29070 30100 90200 333 60000=
KIP39 10021 99020 51574 ///// ////1
     26/// /1305 10280 29068 30099 90210 333 60000=
KIP39 10021 99020 51574 ///// ////1
     26/// /1205 10278 29070 30099 90220 333 60000=

####018001135####
SNCN19 CWAO 100256
OOXX
RUP58 10001 99441 11320 ///// /1121
     26/// /2003 10191 29078 39961 90048 333 60000=
RUP58 10001 99441 11320 ///// /1121
     26/// /2003 10194 29078 39961 90058 333 60000=
RUP58 10011 99441 11320 ///// /1121
     26/// /1703 10195 29077 39961 90108 333 60000=
RUP58 10011 99441 11320 ///// /1121
     26/// /1803 10196 29078 39960 90118 333 60000=
RUP58 10011 99441 11320 ///// /1121
     26/// /2103 10199 29076 39960 90128 333 60000=
RUP58 10011 99441 11320 ///// /1121
     26/// /2003 10200 29075 39960 90138 333 60000=
RUP58 10011 99441 11320 ///// /1121
     26/// /1803 10202 29075 39960 90148 333 60000=
RUP58 10011 99441 11320 ///// /1121
     26/// /1903 10206 29073 39960 90158 333 60000=
RUP58 10021 99441 11320 ///// /1121
     26/// /1802 10211 29072 39960 90208 333 60000=
RUP58 10021 99441 11320 ///// /1121
     26/// /2103 10213 29070 39959 90218 333 60000=
RUP58 10021 99441 11320 ///// /1121
     26/// /2203 10217 29071 39959 90228 333 60000=
RUP58 10021 99441 11320 ///// /1121
     26/// /1603 10219 29070 39959 90238 333 60000=

####018001135####
SNCN19 CWAO 100237
OOXX
CAP16 09221 99624 71145 ///// 02051
     26/// /0106 10153 29036 39861 92230 333 60000=
CAP16 09221 99624 71145 ///// 02051
     26/// /0105 10156 29035 39861 92240 333 60000=
CAP16 09221 99624 71145 ///// 02051
     26/// /3605 10162 29035 39860 92250 333 60000=
CAP16 09231 99624 71145 ///// 02051
     26/// /0105 10173 29034 39859 92300 333 60000=
CAP16 09231 99624 71145 ///// 02051
     26/// /0205 10163 29034 39859 92310 333 60000=
CAP16 09231 99624 71145 ///// 02051
     26/// /0305 10161 29036 39860 92320 333 60000=
CAP16 09231 99624 71145 ///// 02051
     26/// /0305 10166 29036 39858 92330 333 60000=
CAP16 09231 99624 71145 ///// 02051
     26/// /0105 10162 29037 39859 92340 333 60000=
CAP16 09231 99624 71145 ///// 02051
     26/// /0204 10164 29038 39858 92350 333 60000=
CAP16 10001 99624 71145 ///// 02051
     26/// /0305 10160 29040 39859 90000 333 60000=
CAP16 10001 99624 71145 ///// 02051
     26/// /0204 10165 29040 39858 90010 333 60000=
CAP16 10001 99624 71145 ///// 02051
     26/// /0406 10161 29042 39859 90020 333 60000=

####018001135####
SNCN19 CWAO 100232
OOXX
TZP64 10001 99068 30392 ///// ////1
     26/// /1501 10214 29089 30038 90030 333 60000=
TZP64 10001 99068 30392 ///// ////1
     26/// /1501 10214 29089 30038 90040 333 60000=
TZP64 10001 99068 30392 ///// ////1
     26/// /1501 10215 29090 30038 90050 333 60000=
TZP64 10011 99068 30392 ///// ////1
     26/// /1501 10216 29090 30037 90100 333 60000=
TZP64 10011 99068 30392 ///// ////1
     26/// /1401 10216 29090 30037 90110 333 60000=
TZP64 10011 99068 30392 ///// ////1
     26/// /1301 10217 29090 30039 90120 333 60000=
TZP64 10011 99068 30392 ///// ////1
     26/// /1401 10217 29090 30038 90130 333 60000=
TZP64 10011 99068 30392 ///// ////1
     26/// /1401 10218 29090 30039 90140 333 60000=
TZP64 10011 99068 30392 ///// ////1
     26/// /1501 10218 29090 30039 90150 333 60000=
TZP64 10021 99068 30392 ///// ////1
     26/// /1601 10218 29090 30041 90200 333 60000=
TZP64 10021 99068 30392 ///// ////1
     26/// /1401 10217 29090 30041 90210 333 60000=
TZP64 10021 99068 30392 ///// ////1
     26/// /0901 10218 29090 30042 90220 333 60000=

####018000060####
SIMC23 GMMC 100300
AAXX 10034
60285 NIL=
60340 NIL=
####018000142####
SICS01 MROC 100300
AAXX 10034
78762 32670 70104 10220 20220 39092 40092 58013 71056
333 8377/ 0000/ 31/// 5903 81702 85362=



####018002467####
SIKO21 RKSL 100300
AAXX 10034
47090 32660 60204 10249 20214 30080 40106 54000 82501=
47095 32662 42902 10273 20191 39918 40092 57005 82502=
47097 32960 70502 10284 20204 30006 40107 57007 80002=
47098 32962 52303 10278 20170 39966 40092 57005 80001=
47099 32660 72702 10281 20203 30059 40093 58002 84520=
47100 32470 62909 10247 20153 39241 40080 57023 82201=
47102 31506 91109 10210 20203 39920 40087 58001 74544=
47104 31650 63605 10244 20194 30009 40099 50002 70511 82501=
47106 31658 60503 10245 20204 30054 40099 54000 71011 81501=
47112 32661 82705 10257 20195 30017 40095 50001 8551/=
47114 32665 62902 10293 20174 39923 40090 57010 81502=
47119 32968 81804 10280 20189 30056 40095 54000 8801/=
47121 32565 63202 10286 20158 39824 40090 57013 81531=
47127 32963 60905 10294 20162 39963 40090 57008 80002=
47129 32963 82502 10265 20180 30061 40090 56002 8801/=
47130 31958 81106 10229 20211 30046 40100 55001 71022 8802/=
47131 32962 60904 10290 20175 30026 40089 58003 80002=
47135 32662 81107 10274 20199 39821 40089 55003 8151/=
47136 32962 63402 10295 20200 39937 40093 57012 80001=
47137 31959 63403 10275 20215 39989 40099 57004 70522 80002=
47140 32961 61104 10274 20221 30061 40091 58005 80006=
47143 31956 63203 10298 20194 30031 40095 57005 70522 80002=
47145 32965 71802 10282 20202 30064 40088 57002 80002=
47146 32963 60704 10289 20192 30026 40094 57006 80002=
47150 32965 60203 10286 20213 30069 40089 58003 80002=
47152 31957 61108 10250 20213 30064 40104 50001 71022 80002=
47154 31958 61103 10296 20186 30042 40095 56004 70522 80002=
47155 31958 61606 10271 20216 30061 40103 51001 70522 80002=
47156 32962 62008 10293 20196 30005 40088 57009 80002=
47157 31658 60703 10278 20213 39846 40092 58005 70522 81502=
47162 31558 51806 10258 20216 30064 40099 57004 71011 81501=
47169 31920 71408 10230 20203 39987 40065 58004 71022 80002=
47170 31657 80911 10256 20222 30046 40078 58005 71022 8552/=
47171 32962 60904 10308 20174 30032 40076 57009 80002=
47172 32962 60905 10293 20212 30015 40075 58010 80002=
47173 32961 52302 10283 20186 39987 40092 57007 80001=
47174 32962 61110 10282 20191 30007 40090 57008 80002=
47175 31530 61612 10229 20211 39545 40073 58005 71022 83502=
47185 41562 81116 10243 20206 39978 40058 58012 76062 8572/=
47189 41556 80505 10241 20223 30027 40084 58001 76066 8572/=
47192 31658 62704 10284 20190 30066 40096 57005 70522 81502=
####018000616####
SIKO20 RKSL 100300
AAXX 10034
47101 32562 62503 10278 20184 30008 40094 57009 82502=
47105 369// /0704 10257 20200 30069 40099 50001=
47108 32663 61802 10276 20174 39995 40091 57003 82502=
47115 32462 61403 10234 20209 39858 40106 56002 86500=
47133 32662 73402 10286 20186 30016 40086 54000 81502=
47138 31658 80906 10283 20222 30096 40097 58003 70522 8251/=
47159 31950 61803 10256 20218 30029 40108 50003 71022 80002=
47165 32663 61407 10264 20222 30035 40077 58008 81502=
47168 31658 51107 10251 20199 30027 40111 50002 71022 82502=
47184 32665 80909 10267 20198 30046 40069 57007 8452/=
####018001257####
SIUR21 UKMS 100300
AAXX 10031
33088 42597 50000 10180 20172 30023 40206 57001 82530=
33177 42581 22701 10156 20134 39995 40226 53003 82500=
33261 42997 23602 10197 20177 39986 40160 57004 82031 333
55072=
33275 42597 33502 10199 20183 39930 40141 57007 82501=
33301 42597 73203 10177 20164 39938 40209 57002 87500 333
87632=
33325 41396 50000 10162 20159 39936 40195 58005 71022 82601=
33377 42997 23602 10197 20171 39960 40144 57009 80001=
33415 42997 63204 10162 20145 39826 40211 57003 86030=
33429 42997 33403 10152 20147 39797 40207 53002 83030=
33466 41559 33503 10189 20166 39984 40163 57004 71011 81309=
33526 42697 73103 10171 20145 39889 40217 57001 85530 333
85633=
33562 42997 53603 10164 20152 39838 40186 56003 83031 333
55146=
33614 42497 83202 10215 20193 30032 40129 57009 886// 33333
55039 88712=
33761 41440 83602 10184 20181 39937 40150 57008 78182 889//=
33902 40595 83603 10196 20191 30054 40117 57004 71022 885//
333 55078=
33983 42697 50503 10235 20219 30043 40100 53003 81130 333
55012=
34415 42970 80000 10219 20199 30040 40130 54000 8807/=
34523 41596 83203 10209 20204 30070 40142 52020 79598 889//
333 55057=
34712 41463 70208 10225 20189 30023 40103 53001 70292 85930=
####018000109####
SIDL49 EDZW 100300 RRB
AAXX 10031
10837 42970 22401 10177 20155 39577 40208 55000 81031
  333 81364=
####018000579####
SIAJ21 UBBB 100300
AAXX 10031
37575 32999 03602 10244 20145 39539 40085 54000 333 55130 555 20241 
7000/=
37675 32999 02303 10230 20166 39487 40102 52009 333 55134 555 20208 
30019 53005 7000/=
33735 32999 02701 10256 20162 39730 40079 52002 333 55129 555 20256 
30024 50293 53003 7000/=
37749 32998 03602 10254 20163 39995 40103 58001 555 20251 53005 7000/
37756 32999 00000 10217 20186 39309 40149 52013 555 20205 7000/=
37864 32997 03404 10254 20238 40082 58003 555 20243 7000/-
37985 32999 02501 10226 20190 30097 40083 52008 333 55123 555 20224 
50288 7000/=
####018000125####
SIVD02 CWAO 100300
BBXX
LAJV4 10034 99/// ///// 46/// /3020 10070 20069 40224 53008 7//// 8//// 22200 0//// 2//// =

####018000683####
SITU11 LTAA 100300
AAXX 10034
17026 42670 53203 10213 20194 30088 40125 53006 83230
 333 83833 85359 91107 92428=
17034 NIL=
17070 42565 41601 10133 20131 39301 40141 52003 84200
 333 84830 91102=
17084 NIL=
17090 NIL=
17098 42960 00101 10103 20044 38228 48515 52007=
17150 42660 50000 10177 20155 30027 40146 56002 83250
 333 83835 85360=
17160 42670 23507 10190 20155 38989 48496 53005 82100
 333 82840 91118=
17184 NIL=
17189 42970 13302 10120 20105 39018 48509 53002 81030
 333 81360=
17210 NIL=
17234 NIL=
17260 42960 00000 10160 20110 39304 40072 53004=
17290 42970 00402 10221 20152 30070 40101 57003
 333 91109 92408=
17370 NIL=
####018000738####
SITU12 LTAA 100300
AAXX 10034
17024 42670 62008 10203 20190 30049 40123 53002 83250
 333 83835 86360 91112 92438=
17056 42970 02704 10195 20171 30149 40153 58003
 333 91111 92428=
17067 41670 62805 10211 20181 30114 40135 51001 70282 86200
 333 86840 91117 92408=
17092 42960 00000 10126 20060 38843 48497 52009=
17112 41558 70210 10208 20165 30159 40161 53002 78022 85270
 333 85830 87359 91118 92426=
17115 42660 63602 10191 20171 30091 40140 55004 84230
 333 84835 86360=
17116 NIL=
17188 NIL=
17202 42970 02304 10161 20052 39119 40069 52008=
17248 42975 03602 10180 20134 38959 48500 51008=
17292 NIL=
17300 42560 33402 10230 20202 30020 40093 56004 83100
 333 83830=
17310 NIL=
17330 NIL=
####018000551####
SITU13 LTAA 100300
AAXX 10034
17042 NIL=
17074 NIL=
17086 42670 41103 10203 20155 39410 40079 55000 84200
 333 84835=
17088 42670 61103 10187 20168 38784 48504 54000 84250
 333 84840 86360=
17140 42665 70701 10170 20163 38690 48489 53001 87200
333 87840=
17155 NIL=
17203 42970 00000 10174  20046 38850 48530 54000=
17237 NIL=
17250 NIL=
17270 42970 00000 10226 20147 39463 40063 53004=
17295 42960 00304 10187 20159 30087 40094 53003=
17320 NIL=
17375 42970 03301 10232 20185 30090 40092 56003
 333 91105 92408=
####018000689####
SITU14 LTAA 100300
AAXX 10034
17500 NIL=
17501 42960 01606 10225 20161 30079 40097 55002
333 92427=
17505 42960 00000 10211 20188 39996 40106 55003=
17507 NIL=
17510 42560 00000 10233 20194 30104 50114 54001 333 92417=
17515 42960 00000 10214 20182 39945 40115 55001=
17521 42960 00000 10200 20180 39963 40095 55000=
17530 42960 02904 10210 20191 30049 40104 55000=
17535 42960 00000 10199 20162 30062 40097 55000=
17540 42960 02204 10233 20202 30091 40114 53001
333 92427=
17547 42960 02907 10232 20215 39863 40097 53001
333 92427=
17550 42960 02807 10239 20213 39954 40093 55001
333 92427=
17572 42560 02004 10228 20191 30083 40107 56002 333 92417=
####018001079####
SITU10 LTAA 100300
AAXX 10034
17022 42662 41906 10198 20160 39970 40129 52002 84200
 333 84834 91108 92427=
17031 42670 73107 10233 20201 30109 40115 53002 84250
 333 84836 87360=
17038 42670 69903 10245 20191 30065 40113 58002 84250
 333 84835 85360 92428=
17050 41670 53101 10188 20182 30094 40154 50000 70182 83230
 333 83835 85360 91104=
17060 42660 42804 10197 20179 30098 40136 58002 84200
 333 84835=
17096 42970 00000 10087 20033 38257 48509 53004=
17124 42660 32503 10159 20130 39252 40127 55000 83100
 333 83835=
17128 42970 /1805 10164 20125 39067 40104 52004=
17170 42965 03502 10172 20035 38334 48494 56002=
17195 42970 00000 10161 20141 38942 48495 52007=
17199 42970 00902 10216 20066 39041 40049 53006=
17219 42965 00111 10210 20147 39981 40120 57003 333 91120=
17240 42970 02801 10137 20112 39011 40104 56003
 333 91106=
17244 42670 53210 10195 20103 38973 48504 54000 83150
 333 83840 85360=
17280 42970 03104 10201 20054 39328 40057 52006=
17350 42660 33605 10210 20209 30019 40094 55000 83100
 333 83835=
####018000103####
SITH42 VTBB 100300 RRA
AAXX 10034
48433 32560 21804 10321 20259 39932 40094 82105
  333 58007=
####018000089####
SNPS40 AMMC 100200 RRA
AAXX 10024
91559 46/// /2502 10277 40112 22200 00271=


####018000332####
SILV20 UMRR 100300
AAXX 10031
26313 33/// /2402 10176 20092 40209 57005=
26346 32997 32901 10158 20146 40224 52007 80001 333 55122=
26406 42964 31601 10144 20109 40223 57001 80001 333 55132=
26422 42950 /9900 10151 20140 30209 40221 52001=
26544 31959 20000 10164 20143 40229 52005 71000 80001 333 55127=
26416 NIL=
####018001284####
SIBU20 LZSO 100300
AAXX 10031
15502 42970 22301 10160 20150 30135 40173 53001 80005 333 10242 20160
555 594//=
15525 42570 81802 10176 20166 39916 40172 58005 8457/ 333 10227 20176
555 594//=
15528 42570 80000 10186 20157 39975 40157 54000 8653/ 333 10236 20184
555 583//=
15535 42568 72301 10191 20180 30112 40157 54000 87900 333 10209 20191
555 593//=
15549 42568 63402 10170 20168 39767 40168 54000 86400 333 10183 20166
555 599//=
15552 41460 83605 10194 20181 30083 40130 54000 76186 8802/ 333 10204
20188 555 59201 61844 92024 92426=
15614 42665 70000 10174 20127 39500 40179 57003 87300 333 10218 20174
555 574//=
15615 41/00 90508 10024 20024 37185 47135 57004 74544 333 10028 20010
555 500//=
15626 42670 62702 10200 20160 39984 40164 54000 83820 333 10245 20192
555 578//=
15627 41/00 90514 10061 20061 37654 47116 54000 74544 333 10064 20056
555 500//=
15640 42675 83407 10208 20147 39851 40149 53012 885// 333 10210 20196
555 568//=
15655 41570 82303 10194 20178 30106 40138 57004 70262 885// 333 10201
20190 555 59000 61199 92022 92428=
15712 42675 63601 10184 20115 39929 40171 58002 82544 333 10266 20183
555 564//=
15730 41670 83406 10188 20151 39782 40158 57004 70282 8697/ 333 10220
20166 555 57900 61862=
####018000047####
SIAA21 EFKL 100300
AAXX 1003/
89014 NIL=
####018000483####
SIYG22 LYBM 100300
AAXX 10031
13168 32998 12502 10156 20143 30108 40213 56003 81030=
13174 32697 32901 10153 20138 30108 40205 55002 82531=
13269 32699 42502 10163 20128 30006 40214 56004 84500=
13274 32997 02901 10167 20138 30045 40201 58003=
13278 32998 00000 10130 20119 39986 40208 56003=
13378 32998 00403 10075 20072 38342 48568 58006=
13397 32998 00000 10117 20112 39675 40205 54000=
13457 32970 00303 10238 20084 30169 40176 57007 333 91108=
13481 NIL=
####018000307####
SIYG21 LYBM 100300
AAXX 10031
13067 32997 03403 10176 20143 30084 40208 58006=
13183 42960 00000 10142 20128 30101 40202 53001=
13279 32998 13301 10148 20128 30056 40200 56004 81040=
13295 32998 21301 10179 20145 30129 40182 55000 82030=
13367 32598 52301 10124 20098 39055 48557 56004 85500=
####018000542####
SIYG20 LYBM 100300
AAXX 10031
13160 32997 03201 10164 20152 30115 40221 51002=
13262 32998 02501 10148 20130 30069 40213 54000=
13272 32965 42402 10157 20140 30093 40210 58002 80001=
13285 32998 10701 10140 20130 30096 40197 55001 81040=
13289 32899 23107 10128 20106 39019 48534 57006 81045=
13376 32999 02102 10138 20120 39959 40217 54000=
13388 32698 70000 10182 20128 39956 40196 56002 87500=
13462 32970 00103 10224 20096 30147 40185 55002=
13473 NIL=
13489 31696 40000 10132 20126 39695 40206 56004 71011 84500=
####018000635####
SILT20 EYHM 100300
AAXX 10031
26509 42997 01601 10156 20140 30215 40224 58004 333
55140 91002 91102 555 20145=
26518 42997 02301 10142 20125 40229 58002 333
91002 91103 555 20132=
26524 42997 30000 10160 20148 30101 40229 51001 80001 333
91000 91101 555 20156=
26531 41996 20301 10156 20152 40227 52005 71100 80001 333
55121 91001 91102 555 20147=
26629 42998 09901 10165 20157 30137 40229 54000 333
55143 91001 91102 555 20165=
26633 42997 20000 10148 20130 30100 40227 52004 80002 333
55129 91000 91100 555 20142=
26730 41995 00201 10172 20167 30041 40226 52002 71000 333
55105 91002 91103 555 20171=
####018000434####
SIYG23 LYBM 100300
AAXX 10031
13173 32998 22901 10152 20145 30101 40199 56003 80001=
13180 32998 03201 10160 20156 30090 40198 56004=
13266 32998 30000 10144 20137 30112 40210 55000 82031=
13369 32998 00000 10069 20060 39049 48529 57005=
13383 32698 41401 10145 20134 30002 40202 58003 84500=
13384 32997 31101 10123 20112 30054 40206 55002 83030=
13389 32598 30000 10141 20131 39923 40199 55000 83800=
13477 NIL=
####018001006####
SIPR20 SPIM 100300
AAXX 10034
84628 34558 61903 10161 20136 30144 40160 71044 865//
333   564// 58003 86623=
84686 31960 00000 10115 20036 36887 70200
333   59002=
84452 31960 41710 10166 20131 30138 40170 70300 84010
333   56000 58013 84460=
84377 31560 8//// 10250 20236 30014 40120 70222 84520
333   5600/ 58010 84617 86460=
84370 31560 5//// 10240 20226 30099 40131 70122 85500
333   56000 58007 85630=
84501 31350 11506 10160 20135 30132 40149 71044 81600
333   560// 58005 81710=
84782 31360 82303 10120 20090 39661 40182 70222 886//
333   569// 58017 83709 88713=
84691 31457 81910 10173 20131 30157 40164 71044 886//
333   560// 58018 82712 88715=
84752 32960 00106 10108 21065 37549 70200
333   58016=
84401 31960 31806 10191 20158 30130 40200 70202 83030
333   56000 58011 83360=
84455 31560 60000 10252 20228 39820 40172 70222 83530
333   56000 58010 83625 86358=
84515 31460 10000 10248 20234 39949 40126 70122 81700
333   56900 58009 81712=
####018000081####
SINO23 ENMI 100300 RRB
AAXX 10031
01450 26/// /2105 10105 20079 333 60005=
####018000089####
SINO24 ENMI 100300 RRB
AAXX 10031
01199 46/// /1202 10127 20104 39694 40144 54001=
####018000671####
SIKY20 UAFF 100300
AAXX 10031
36911 /1999 70904 10224 20124 39150 40042 53010 72592 87030 555
20204 30014 60012 7001/ 10260=
36974 /1697 80901 10140 20086 37991 48517 53006 78082 889// 555
20121 30011 69902 7990/ 10177=
36982 /1596 82402 10026 20018 36583 47178 54000 72277 8802/ 555
20011 60032 7003/=
38345 /2798 81101 10178 20124 38757 48474 57008 889// 555 20160
31014 60012 7001/=
38353 /1597 80000 10231 20147 39220 40051 52006 72582 889// 333
55112 555 20183 60022 7004/=
38613 32997 73602 10218 20119 40082 53021 86042 555 20197 30017
7000/ 10269=
38616 32598 73603 10239 20111 39122 40061 53017 86301 555 20185
30/// 7000/ 10262=
####018000492####
SAYE20 OYSC 100300 RRA
METAR OYAA 100300Z 01003KT 7000 NSC 30/21 Q1003 NOSIG=
METAR OYAG 100300Z 16012KT 8000 SCT025 BKN070 26/24 Q1003=
METAR OYDM 100300Z 00000KT BKN030 14/12 Q////=
METAR OYHD 103000Z 24006KT 6000 SCT030 30/26 Q////=
METAR OYRN 100300Z 13006KT 6000 SCT025 27/25 Q1004=
METAR OYSN 103000Z VRB02KT 6000 SCT030 SCT060 18/14 Q1021=
METAR OYSQ 100300Z 20032G42KT 9999 FEW018 28/22 Q1008=
METAR OYSY 100300Z VRB02KT CAVOK 29/19 Q1006=
METAR OYTZ 100300Z NIL=
####018000260####
SIMK10 LYPG 100300
AAXX 10031
13463 42970 00203 10227 20096 30125 40185 53003=
13459 42970 00203 10168 20096 39471 40210 50000=
13461 42970 00505 10242 20095 30167 40174 57007 333 92323 92438=
13363 42970 32301 10090 20090 39328 48552 54000 83030=
####018000834####
SICN01 CWAO 100300
AAXX 10034
71043 NIL=
71045 36/// /1504 10249 20029 39285 40112 56011 333 60001=
71050 36/// /2807 10257 20004 39100 40140 58006 333 60001=
71051 NIL=
71052 45/// /3504 10198 39801 40119=
71058 45/// /2631 10095 39657 40063=
71066 NIL=
71068 NIL=
71069 35964 03005 10196 20154 39441 40125 53009 333 60001=
71076 36/// /3209 10147 20010 39715 40094 51005 333 60001=
71077 36/// /3503 10178 20121 39586 40107 58003 333 60001=
71079 NIL=
71081 NIL=
71082 NIL=
71083 NIL=
71090 45964 00307 10029 20019 30020 40054 55000=
71091 45/// /3010 10139 39847 40045=
71092 45964 02504 10133 39437 40069 57003=
71093 45/// /1810 10130 39587 40061=
71094 45/64 /1703 10108 58005=
71095 45964 02205 10091 20048 39963 40040 56005=
71104 NIL=
71107 NIL=
71108 NIL=
71109 NIL=

####018000637####
SICN04 CWAO 100300
AAXX 10034
71603 NIL=
71607 NIL=
71609 NIL=
71610 17656 30705 10210 20205 39805 40090 58007 60051 781//
333 1//// 2//// 70048=
71621 35159 82405 10215 20177 30009 40111 51008 333 60001=
71623 NIL=
71624 NIL=
71625 35964 30000 10202 20195 39945 40100 53005 333 60001=
71627 NIL=
71628 NIL=
71630 NIL=
71631 NIL=
71633 NIL=
71705 NIL=
71706 NIL=
71707 NIL=
71709 NIL=
71711 NIL=
71714 26/// /2605 10214 20208 30002 40090 50005 333 69921=
71715 36/// /2002 10190 20187 39905 40078 58002 333 60001=
71718 NIL=
71719 26/// /1604 10202 20195 30092 40098 58004 333 69911=

####018000838####
SICN07 CWAO 100300
AAXX 10034
71864 NIL=
71865 36/// /2003 10200 20166 39440 40095 57016 333 60001=
71866 NIL=
71867 NIL=
71868 36/// /2205 10204 20135 39648 40070 58013 333 60001=
71869 NIL=
71870 45964 01908 10222 20155 39160 40090 56016=
71871 15966 03104 10210 20154 39318 40087 55004 60001
333 1//// 2//// 70000=
71872 45964 02404 10248 20145 39265 40083 56012=
71874 35964 01908 10216 20150 39038 40088 58011 333 60001=
71877 NIL=
71878 NIL=
71879 25964 00000 10183 20128 39331 40106 53011 333 69911=
71880 NIL=
71881 35959 03202 10215 20090 39068 40124 51013 333 60001=
71882 35938 01703 10248 20165 39564 40081 55004 333 60001=
71883 36/// /2404 10260 20071 39321 40108 53005 333 60001=
71887 NIL=
71889 NIL=
71891 35964 02107 10309 20078 39826 40088 53008 333 60001=
71892 NIL=

####018000714####
SICN09 CWAO 100300
AAXX 10034
71930 NIL=
71931 36/// /2612 10229 20191 30072 40084 50002 333 60001=
71932 35764 31803 10163 20116 39662 40103 58015 333 60001=
71933 35764 63406 10162 20079 39822 40111 53001 333 60001=
71934 NIL=
71935 NIL=
71936 NIL=
71937 NIL=
71938 NIL=
71940 NIL=
71943 NIL=
71944 35864 30302 10233 20085 39329 40130 55002 333 60001=
71945 NIL=
71946 NIL=
71948 45/02 02918 10042 39959 40068=
71949 36/// /0803 10250 20032 39271 40106 58012 333 60001=
71951 NIL=
71953 NIL=
71957 NIL=
71958 42/// /2308 10209 20075 39214 40126 55001=
71964 NIL=
71966 36/// /1002 10251 20061 39645 40085 56017 333 60001=
71968 45964 00711 10170 30038 40099=

####018000922####
SICN03 CWAO 100300
AAXX 10034
71397 NIL=
71398 NIL=
71400 NIL=
71403 46/// /2017 10157 20155 30155 40174 58004=
71410 NIL=
71411 26/// /2208 10170 30155 40167 50001 333 69911=
71412 36/// /2110 10202 20193 30129 40138 50003 333 60001=
71421 NIL=
71430 NIL=
71431 36/// /2901 10202 20202 30013 40106 53005 333 60001=
71432 NIL=
71433 NIL=
71435 36/// /2602 10156 20126 39559 40134 53008 333 60001=
71436 NIL=
71441 46/// /2006 10229 20151 39815 40111 55000 333 6///1=
71443 36/// /2004 10201 20163 39683 40078 58012 333 60001=
71444 36/// /2201 10192 20158 39391 40120 56009 333 60001=
71447 NIL=
71467 36/// /3212 10019 20012 39943 40054 52008 333 60001=
71472 NIL=
71474 25964 03504 10237 20067 38938 40126 51005 333 69901=
71510 26/// /0216 10203 20160 39398 40077 56018 333 69901=
71538 NIL=
71600 35304 82012 10176 20176 30196 40202 50002 333 60001=
71601 NIL=

####018000570####
SICN05 CWAO 100300
AAXX 10034
71725 35864 32305 10209 20173 39696 40095 53009 333 60001=
71726 36/// /0401 10182 39581 40102 51005 333 60001=
71727 NIL=
71728 NIL=
71730 NIL=
71731 NIL=
71733 NIL=
71735 NIL=
71738 NIL=
71739 NIL=
71749 NIL=
71799 NIL=
71800 36/64 /2622 10129 20129 30126 40158 50000 333 60001=
71801 NIL=
71803 NIL=
71807 NIL=
71808 NIL=
71809 NIL=
71810 NIL=
71811 NIL=
71813 35964 02505 10160 20136 30073 40086 51008 333 60001=
71814 36/// /2210 10112 20100 30073 40082 53013 333 60001=
71815 NIL=

####018000544####
SICN08 CWAO 100300
AAXX 10034
71893 NIL=
71894 36/// /2918 10143 20124 30162 40171 56004 333 60001=
71896 15966 83306 10240 20065 39333 40134 50000 60001
333 1//// 2//// 70000=
71897 NIL=
71899 NIL=
71902 NIL=
71905 NIL=
71906 NIL=
71907 25002 /2013 10069 20068 39982 40013 56003 333 69901=
71909 NIL=
71910 45016 81306 10051 20051 39982 40045 58002=
71911 45964 3//// 10125 30000 40054 58005=
71912 NIL=
71913 NIL=
71915 NIL=
71917 NIL=
71922 NIL=
71924 NIL=
71925 NIL=
71926 NIL=
71928 NIL=

####018000637####
SICN06 CWAO 100300
AAXX 10034
71816 NIL=
71817 NIL=
71818 NIL=
71821 35864 32302 10178 20132 39746 40078 51006 333 60001=
71822 NIL=
71825 NIL=
71827 NIL=
71828 35964 00000 10138 20109 39465 40081 51012 333 60001=
71831 NIL=
71832 NIL=
71834 NIL=
71836 35964 02305 10183 20128 30062 40073 53008 333 60001=
71841 NIL=
71842 NIL=
71844 35864 33104 10135 20108 39829 40099 52006 333 60001=
71845 NIL=
71850 NIL=
71852 NIL=
71854 NIL=
71855 35964 01805 10187 20164 39734 40095 56011 333 60001=
71858 26/// /2007 10169 20156 39804 40075 58013 333 69921=
71861 NIL=
71862 NIL=
71863 NIL=

####018000790####
SICN02 CWAO 100300
AAXX 10034
71114 35964 33008 10275 20159 30071 40117 53004 333 60001=
71120 NIL=
71122 36/// /3402 10218 20025 38574 40108 55008 333 60001=
71123 NIL=
71125 NIL=
71129 NIL=
71131 36/// /1204 10226 20057 38902 40106 57011 333 60001=
71135 36/// /1103 10225 20043 39080 40123 57009 333 60001=
71137 36/// /1205 10222 20128 39202 40111 56010 333 60001=
71138 35764 32004 10229 20162 39517 40101 56011 333 60001=
71140 NIL=
71141 35964 01906 10179 20124 39808 40077 58016 333 60001=
71145 NIL=
71148 NIL=
71182 45964 02102 10159 20147 39566 40087 51003 333 6///1=
71185 NIL=
71187 35459 80102 10191 20182 30050 40076 58013 333 60001=
71188 NIL=
71200 NIL=
71207 36/// /1302 10247 20128 30056 40118 56003 333 60001=
71260 NIL=

####018000460####
SIER20 OMAA 100300
AAXX 10034
41184 42960 21510 10350 20269 40003 82030 333 59006 82362=
41194 41945 31810 10334 20218 30015 40020 70600 80001 333 59003
      83075=
41196 41958 21810 10334 20237 39983 40020 70600 80001 333 59004
      82075=
41198 42560 21205 10324 20250 40023 82500 333 59008 82620=
41217 41958 01510 10313 20211 39988 40016 70600 333 58001=
41218 41957 51707 10287 20249 39736 40032 70600 84031 333 58003
      84365=
####018000586####
SIAJ21 UBBB 100300
AAXX 10031
37575 32999 03602 10244 20145 39539 40085 54000 333 55130 555 20241
7000/=
37675 32999 02303 10230 20166 39487 40102 52009 333 55134 555 20208
30019 53005 7000/=
33735 32999 02701 10256 20162 39730 40079 52002 333 55129 555 20256
30024 50293 53003 7000/=
37749 32998 03602 10254 20163 39995 40103 58001 555 20251 53005 7000/
37756 32999 00000 10217 20186 39309 40149 52013 555 20205 7000/=
37864 32997 03404 10254 20238 40082 58003 555 20243 7000/-
37985 32999 02501 10226 20190 30097 40083 52008 333 55123 555 20224
50288 7000/=
####018000124####
SIVD02 CWAO 100300
BBXX
VOKJ 10034 99/// ///// 46/// /1603 10215 20203 40076 58011 7//// 8//// 22200 0//// 2//// =

####018000083####
SNSE01 LFVW 100200 RRB
AAXX 1002/
95997 46/// ///// 10011 39980 49984 5////=
####018000083####
SNSE01 LFVW 100100 RRA
AAXX 1001/
95997 46/// ///// 10008 39967 49971 5////=
####018000113####
SIBX20 EBBR 100300 RRA
AAXX 10031
06447 42996 /3202 10215 20137 30071 40191 53003 80001 333 91105
91203=
####018000105####
SIBX22 EBBR 100300 RRA
AAXX 10031
06431 46/// /2402 10199 20139 30177 40188 57003 333 91103 91202=
####018000972####
SIBY20 UMMN 100300
AAXX 10031
26554 31956 23401 10164 20152 30069 40226 52007 71000 80001 333
55063 555 20160 31015 52014 7998/=
26666 31926 63501 10168 20163 30007 40214 52006 71011 80006 555
20167 31017 52015 7000/=
26850 32965 10000 10169 20160 39953 40214 53004 80001 333 55014 555
20169 31016 52014 7993/=
26863 32960 63603 10167 20146 39979 40206 51008 80002 555 20160
31015 52014 7000/=
26941 32960 03402 10154 20147 39992 40222 53004 555 20154 31015
52013 7000/=
26951 31915 33402 10154 20154 30017 40209 53002 71040 80004 555 20150
31015 52015 7003/=
33008 32960 03301 10172 20144 30057 40230 52002 333 55117 555 20170
30016 52014 7000/=
33019 31959 53002 10178 20159 30046 40214 53002 71022 85030 333
55072 555 20178 31018 52016 7000/=
33036 31957 00000 10148 20143 39976 40200 54000 71000 555 20146
31015 52012 7000/=
33041 31957 23301 10166 20152 30040 40190 54000 71000 82030 333
55145 555 20166 30016 52015 7000/=
####018000584####
SNAA01 KARS 100200 RRE
AAXX 1002/
89377 46/// ///// 11348 39719 4//// 5////=
89869 46/// ///// 11291 39695 4//// 5////=
89834 46/// ///// 11480 37459 4//// 5////=
89834 46/// ///// 11476 37469 4//// 5//// 90210=
89866 46/// ///// 11206 39645 4//// 5////=
89864 46/// ///// 11239 39699 4//// 5////=
89324 46/// ///// 11273 37873 4//// 5////=
89329 46/// ///// 11309 38510 4//// 5////=
89828 46/// ///// 11696 36513 4//// 5////=
89332 46/// ///// 11339 38934 4//// 5////=
89769 46/// ///// 11304 39727 4//// 5////=
89314 46/// ///// 11321 38023 4//// 5////=
####018000089####
SILJ21 LJLM 100300 RRA
AAXX 10031
14024 46/// /1201 10182 20076 39155 48572 57005=
####018000637####
SILY20 HLMC 100300
AAXX 10034
62002 42960 01106 10230 20132 39468 48554 56009
  333 0////=
62053 46558 10000 10196 20161 39998 40155 57006 81500
  333 0//// 81620=
62055 43/// /3604 10209 20167 30146 40157 56006=
62124 32960 00512 10265 20106 39642 40120 57008 Q1015.3 =
62131 42960 01407 10225 20161 39850 40155 55005
  333 0////=
62271 43/// /0410 10288 20074 39649 40133 56003=
62007 NIL=
62008 NIL=
62010 NIL=
62012 NIL=
62014 NIL=
62016 NIL=
62018 NIL=
62019 NIL=
62056 NIL=
62059 NIL=
62062 NIL=
62103 NIL=
62120 NIL=
62161 NIL=
62176 NIL=
62200 NIL=
62212 NIL=
62259 NIL=
####018000067####
SIAL54 EUMS 100300
AAXX 10034
60621 36/// /0518 10305 21018=
####018000071####
SIAL51 EUMS 100300 RRB
AAXX 10034
60664 36/// /3303 10240 20006=
####018000067####
SIAL51 EUMS 100300
AAXX 10034
60663 36/// /1104 10300 21023=
####018000071####
SIAL51 EUMS 100300 RRA
AAXX 10034
60612 36/// /0809 10261 21031=
####018000067####
SIAL53 EUMS 100300
AAXX 10034
60619 36/// /0410 10250 21006=
####018000371####
SISN22 ESWI 100300
AAXX 10031
02464 45981 /2101 10157 20136 30170 40188 52004 8////=
02500 25/82 /1405 10160 20101 30118 40160 57014
  333 60005 90710 91107=
02513 25/82 /0402 10156 20110 30170 40174 57012
  333 60005 90710 91102=
02616 42971 21105 10198 20179 30178 40184 57007 82081 333 82399=
02635 25/80 /1502 10212 20166
  333 60005 90710 91106=
####018000994####
SIVS20 VNNN 100300
AAXX 10031
48820 32998 72302 10328 20264 30040 40048 50009 84038 333 58011
84399 86299=
48826 32760 71802 10328 20282 39925 40055 51002 82508 333 58005
82697 87299=
48839 32998 62010 10325 20279 39999 40062 52007 80008 333 58014
86299=
48845 32798 31803 10350 20220 30056 40063 52008 83500 333 58011
83697=
48870 32598 61102 10308 20247 30085 40092 51009 81908 333 58008
81995 86299=
48877 32598 60702 10312 20236 30097 40102 50015 82208 333 58009
82895 86299=
48887 32570 71102 10307 20249 30102 40108 51012 82208 333 58007
82895 86299=
48900 32497 52405 10304 20250 30096 40106 52015 85200 333 58007
85894=
48914 32598 72002 10317 20243 30107 40109 51013 82208 333 58008
82895 87299=
48917 32598 72704 10293 20262 30102 40108 52018 8221/ 333 58004
82895 86299=
48918 32570 71803 10306 20243 30100 40111 50011 84808 333 58006
81895 83696 86299=
48920 41598 32002 10304 20247 30113 40116 50013 72581 83200 333
58008 83895=
####018000433####
SIVS21 VNNN 100300
AAXX 10031
48803 32560 70000 10310 20261 39934 40043 51004 878// 333 58005
81895 86696=
48808 32570 71103 10290 20259 39785 40057 50006 86801 333 58010
82895 86696=
48823 32998 71803 10333 20273 30048 40051 51010 81048 333 58007
81399 86299=
48830 32570 71404 10322 20244 39762 40053 50005 83248 333 58009
83895 85299=
48840 32998 62502 10339 20252 30042 40048 50005 80008 333 58007
86299=
####018000547####
SITS20 DTTA 100300
AAXX 10034
60715 32660 20803 10230 20187 30176 40179 57010 81102
  333 59009 81833=
60723 NIL=
60725 32960 00302 10226 20179 30017 40182 58008=
60735 32956 03602 10226 20216 30109 40188 58005=
60745 32960 00408 10231 20180 39818 40174 57011=
60748 NIL=
60750 32558 33604 10240 20217 30158 40180 56008 82580
  333 82626=
60760 32960 01110 10265 20225 30066 40165 58010=
60765 NIL=
60767 32960 00704 10219 20195 30039 40179 57004=
60769 32550 21104 10241 20235 30171 40174 56001 82200
  333 82820=
####018000760####
SIBY21 UMMN 100300
AAXX 10031
26645 32964 10000 10152 20143 39980 40232 52006 80001 555 20149
32014 52012 7000/=
26659 /2960 13601 10178 20171 30012 40217 52006 81030 555 20175
31017 52015 69908 7990/=
26763 31956 50000 10159 20152 39989 40208 52004 71011 80001 555
20148 30015 52012 7000/=
26825 32960 33302 10162 20143 30050 40227 52002 80001   555 20155
31015 52014 7000/=
26832 31959 03501 10175 20159 30044 40229 53016 71000 555 20168
31017 52014 7000/=
26887 32997 53502 10179 20160 39991 40188 58001 80002 333 55104 555
20170 31016 52015 7000/=
26961 32560 20102 10169 20158 30019 40204 52005 81501 555 20155
31017 52015 7991/=
33027 31696 63501 10180 20175 30041 40202 58002 71022 82530 555
20179 30017 52017 7990/=
####018000497####
SITS21 DTTA 100300
AAXX 10034
60710 32960 00708 10226 20190 30097 40174 58009=
60714 32960 01206 10202 20172 30188 40194 53005=
60720 NIL=
60728 NIL=
60729 NIL=
60731 26/// /3304 10215 20194 30177 40189 58008
  333 59002 60007 91006 91106=
60732 NIL=
60734 NIL=
60738 32960 00000 10194 20166 38986 48565 56012=
60739 NIL=
60740 32456 30902 10239 20212 30184 40186 58006 83200
  333 83815=
60742 NIL=
60764 NIL=
60770 NIL=
60772 NIL=
60775 NIL=
60780 NIL=
####018000526####
SIMA20 FIMP 100300
AAXX 10034
61974 22475 31511 10252 20208 40126 82802
  333 59004 60007 82819 83075=
61986 21462 61210 10220 20189 40153 71582 86800
  333 59011 69907 84816 83650=
61988 21468 61508 10200 20169 40168 71582 86800
  333 59022 60017 84818 83650 91122=
61989 21468 61210 10200 20178 40178 71582 86800
  333 59021 60027 84817 83650=
61990 22475 51009 10212 20152 40179 85800
  333 59032 60007 82817 84650=
61995 22470 71105 10182 20148 39688 87840
  333 59019 60007 82818 86650 91120=
####018000089####
SNPS40 AMMC 100200 RRB
AAXX 10024
91531 46/// /3507 10289 40096 22200 00271=


####018000158####
SIUR20 UKMS 100300 RRA
AAXX 10031
33345 42598 53402 10189 20174 39980 40175 57005 82549=
33924 41596 61001 10208 20200 30105 40116 57004 71022 86200=
####018000102####
SIKB20 NGTT 100300
AAXX 10034
91610 41599 21006 10300 20232 40102 57018 70111 81101 333 562// =
####018000478####
SIYE10 OYSC 100300
AAXX 10034
41372 NIL=
41390 NIL=
41396 42865 62402 10294 20194 39319 48460 86070 333 59001 86458=
41398 41558 61612 10264 20244 39988 48451 70522 86130 333 59008
83825 85357=
41399 NIL=
41404 NIL=
41407 NIL=
41431 NIL=
41434 NIL=
41437 NIL=
41438 NIL=
41443 41556 41306 10274 20247 30031 40048 70544 84500 333 58002
84625=
41450 NIL=
41452 NIL=
41466 NIL=
41477 NIL=
41480 NIL=
41481 NIL=
41482 NIL=
41494 NIL=
####018000083####
SILV20 UMRR 100300 RRA
AAXX 10031
26416 33/// /2201 10162 20104 40228 57002=
####018000086####
SIBC20 FBSK 100300 RRA
AAXX 10034
68325 43960 03607 10052 20027 48535 56005=

####018000914####
SIPF80 KWBC 100300 RRA
AAXX 10034
91925 26/// /0914 10254 20215 30069 40130 53008 333 60027 90710
91137 555 60025 1//37 58008=
91929 24976 /1111 10268 20222 30153 40156 55001 700// 333 60007
90710 91122 555 60005 11122 58012=
91938 22570 12406 10284 20204 30164 40166 53002 81800 333 56900
60007 81823 90710 91111 555 60005 12012 58016=
91944 26/// /1118 10257 20193 30180 40183 53008 333 60007 90710
91124 555 60005=
91948 26/// ///// 10205 20146 30122 40227 52007 333 60007 555
60005 58014=
91958 26/// /0508 10206 20185 30242 40244 53005 333 60007 90710
91116 555 60005 1//19 59002=
91945 26/// /0912 10245 20204 30192 40197 53006 333 60007 90710
91119 555 60005 1//23 58012=
91930 36/// ///// 10271=
91958 26/// /0508 10206 20185 30242 40244 53005 333 60007 90710
91116 555 60005 1//19 59002=
91954 26/// /1106 10229 20202 30213 40216 53008 333 60027 555
1//14 58013=
####018000393####
SICH03 SCSC 100300
AAXX 10034
85874 41/11 90000 10000 21007 39428 40067 58016 7717/=
85934 42480 69902 11008 21021 49997 54000 84531
  333 56777 84616 83070=
89056 41220 83016 11032 21037 49750 52022 71022 885//
  333 77799 88605=
89057 41450 82115 11025 21031 49744 52014 71072 887//
  333 56099 88710=
89059 42450 80810 11070 21089 49724 52017 886//
  333 73299 88717=
####018001484####
SIAU24 AMMC 100300
AAXX 10034
94893 46/// /0313 10112 20071 30049 40167=
94907 46/// /3202 10093 20069 30171 40181=
94910 46/// /0209 10160 20062 39976 40236=
94926 46/// /2606 10110 20057 39571 40267=
94935 46/// /0109 10145 20087 30204 40232=
94954 NIL=
94956 46/// /3614 10133 20066 30111 40137=
94975 46/// /0313 10123 20076 30152 40186=
94983 46/// /0327 10141 20114 30180 40205=
94995 46/// /0912 10174 20064 30258 40266=
94996 46/// /1311 10150 20102 30072 40204=
94997 NIL=
94998 46/// /2626 10051 20039 30184 40195=
95111 46/// /0508 10309 20172 30102 40138=
95205 46/// /2004 10250 20231 30145 40153=
95322 NIL=
95448 46/// /2207 10110 20057 39618 40205=
95458 46/// /2718 10172 20042 39898 40168=
95480 46/// /3313 10168 20109 30108 40170=
95481 46/// /0107 10138 20120 30150 40196=
95482 46/// /3108 10187 20113 30133 40190=
95485 46/// /3316 10173 20079 39985 40199=
95492 46/// /3615 10212 20107 30036 40195=
95527 46/// /0314 10204 20065 39973 40237=
95634 46/// /2911 10112 20082 39777 40195=
95637 46/// /2709 10114 20052 39826 40169=
95646 46/// /2722 10122 20063 39970 40162=
95666 NIL=
95719 46/// /0212 10179 20076 39893 40237=
95762 46/// /3504 10184 20056 39766 40242=
95839 46/// /3623 10110 20098 39956 40120=
95864 NIL=
95966 46/// /0113 10127 20078 39987 40194=
96995 46/// /1312 10237 20228 39837 40133=
96996 11470 61109 10255 20228 30141 40145 51016 72582 86801
  333 20235=

####018001465####
SIAU23 AMMC 100300
AAXX 10034
94500 NIL=
94510 46/// /0413 10212 20091 39844 40206=
94515 46/// /0312 10211 20109 39861 40225=
94552 46/// /0815 10190 20098 39763 40249=
94578 46/// /1309 10200 20116 30237 40249=
94584 46/// /1117 10216 20119 30116 40229=
94601 46/// /2816 10160 20083 30123 40140=
94610 46/// /0309 10132 20119 30153 40177=
94637 46/// /2710 10109 20036 39747 40188=
94638 46/// /2913 10126 20065 30106 40138=
94642 NIL=
94643 NIL=
94647 46/// /2916 10133 20033 30024 40147=
94651 46/// /2821 10134 20060 30069 40148=
94653 46/// /3017 10152 20055 30112 40131=
94659 46/// /2915 10164 20056 39948 40148=
94672 46/// /3523 10150 20096 30090 40100=
94691 46/// /3515 10128 20087 39829 40167=
94693 46/// /3521 10143 20096 30079 40143=
94700 NIL=
94703 46/// /0214 10215 20081 30074 40205=
94710 46/// /0109 10173 20090 39958 40222=
94729 46/// /0110 10133 20059 39378 40260=
94750 46/// /3604 10148 20098 30125 40253=
94767 46/// /3206 10175 20110 30251 40257=
94776 46/// /0510 10175 20109 30236 40246=
94791 NIL=
94802 46/// /3112 10133 20069 30051 40134=
94804 46/// /3325 10148 20104 30008 40046=
94821 46/// /3620 10124 20107 39977 40060=
94842 46/// /0315 10118 20092 39996 40096=
94847 NIL=
94850 46/// /0328 10122 20090 30056 40102=
94865 46/// /0122 10144 20081 30118 40143=
94866 46/// /0125 10127 20074 30002 40146=
94875 46/// /0314 10124 20079 30047 40187=

####018001163####
SIAU22 AMMC 100300
AAXX 10034
94299 46/// /1321 10269 20202 30155 40166=
94300 46/// /1109 10187 20044 30208 40218=
94302 46/// /1211 10179 20077 30205 40212=
94312 46/// /1315 10205 20053 30174 40184=
94313 NIL=
94317 46/// /1408 10149 20037 39598 40212=
94319 46/// /1315 10178 20057 39844 40187=
94324 NIL=
94326 46/// /2009 10193 20135 39544 40185=
94327 46/// /3208 10218 20083 39791 40180=
94332 46/// /0604 10239 20094 39770 40168=
94333 NIL=
94341 46/// /3407 10298 20113 39922 40163=
94346 46/// /0315 10242 20120 39961 40189=
94363 46/// /0711 10210 20132 39993 40218=
94366 NIL=
94367 46/// /1613 10213 20169 30160 40203=
94374 46/// /1114 10229 20136 30199 40216=
94388 46/// /1216 10231 20132 30214 40219=
94393 46/// /1327 10227 30166 40178 58018=
94394 35/// /1220 10224 30195 40203 57012=
94403 46/// /0208 10138 20107 30168 40210=
94429 46/// /2905 10119 20066 39739 40223=
94430 46/// /1505 10114 20026 39610 40219=
94449 46/// /2510 10107 20046 39659 40207=
94451 NIL=
94461 46/// /1709 10148 20027 39492 40188=
94462 46/// /0704 10170 20057 39609 40186=
94477 NIL=
94488 NIL=

####018000964####
SIAU21 AMMC 100300
AAXX 10034
94102 46/// /0807 10279 20241 30135 40145=
94103 NIL=
94120 46/// /0712 10303 20162 30096 40136=
94122 46/// /1009 10293 20199 30127 40136=
94131 46/// /1010 10306 20146 39987 40143=
94132 NIL=
94147 NIL=
94150 46/// /1214 10271 20212 30084 40146=
94151 NIL=
94170 46/// /1012 10315 20177 30116 40138=
94200 NIL=
94203 46/// /1507 10251 20213 30143 40154=
94206 46/// /2508 10291 20218 30017 40150=
94207 46/// /1415 10251 30139 40148 58001=
94211 NIL=
94212 46/// /3105 10287 20169 39670 40157=
94216 46/// /0104 10313 20163 30092 40143=
94236 NIL=
94238 46/// /0306 10248 20105 39734 40170=
94248 NIL=
94255 46/// /1506 10271 20060 39897 40169=
94268 46/// /0609 10299 20189 30136 40149=
94287 46/// /1314 10241 20177 30174 40183=
94290 NIL=
94294 46/// /0511 10257 20150 30182 40193=
94296 35/// /1514 10245 30150 40160 57018=
94298 46/// /1316 10242 30164 40170 58019=

####018000259####
SIAA01 SCEF 100300
AAXX 10034
89056 41220 83016 11032 21037 49750 52022 71022 885//
  333 77799 88605=
89057 41450 82115 11025 21031 49744 52014 71072 887//
  333 56099 88710=
89059 42450 80810 11070 21089 49724 52017 886//
  333 73299 88717=
####018000040####
SIAA01 SAWB 100300
AAXX 1003/
NIL
####018000296####
SICH02 SCSC 100300
AAXX 10034
85585 439// 91606 10120 20087 30212 40249 51006=
85682 41911 02004 10043 20033 40226 54001 71000=
85743 41940 31002 10027 20024 40235 58007 71000 80001
  333 56005 83075=
85799 41420 80116 10076 20066 40191 58009 75065 885//
  333 56899 85715 88623=
####018000463####
SICH01 SCSC 100300
AAXX 10034
85406 42560 81401 10152 20090 40186 51010 885//
  333 56099 88623=
85432 42970 00821 10004 21257 37784 48509 52013=
85442 42458 70305 10122 20082 40173 52011 87500
  333 56400 87618=
85469 12560 53211 10200 20180 40148 54002 60001 85200
  333 10225 56700 85820=
85488 32960 01003 10090 20084 40164 51014=
85574 41956 00405 10069 20036 40198 54000 70500=
85577 41957 00000 10059 20045 39577 40149 54001 70500=
####018000412####
SIAU40 AMMC 100300
AAXX 10034
94127 35/// /0610 10307 20184 30135 40137 58019=
94307 45/// /1118 10207 20093 30153 40188 51013=
94310 46/// /1319 10216 20072 30160 40171 52007=
94974 35/// /0133 10138 30097 40120 57045=
95283 46/// /1313 10245 20208 30160 40167=
95288 46/// /1424 10238 30145 40160 58015=
95675 46/// /3324=
95756 46/// /2706=
95961 35/// /0207 10123 30096 40137 57041=

####018000306####
SIAA21 AMMC 100300
AAXX 10034
89564 41980 11527 11174 21260 39812 49833 58015 6///0 70200 80001
  333 21205 7////=
89571 31675 70825 11093 21160 39727 49757 51015 70222 87500
  333 21138=
89573 NIL=
89611 11900 80856 11105 21119 39789 49844 56014 73932 84072
  333 21223=
89615 NIL=

####018001311####
SIAU01 AMMC 100300
AAXX 10034
94102 46/// /0807 10279 20241 30135 40145=
94103 NIL=
94200 NIL=
94203 46/// /1507 10251 20213 30143 40154=
94206 46/// /2508 10291 20218 30017 40150=
94207 46/// /1415 10251 30139 40148 58001=
94211 NIL=
94212 46/// /3105 10287 20169 39670 40157=
94216 46/// /0104 10313 20163 30092 40143=
94300 46/// /1109 10187 20044 30208 40218=
94302 46/// /1211 10179 20077 30205 40212=
94312 46/// /1315 10205 20053 30174 40184=
94313 NIL=
94317 46/// /1408 10149 20037 39598 40212=
94319 46/// /1315 10178 20057 39844 40187=
94403 46/// /0208 10138 20107 30168 40210=
94429 46/// /2905 10119 20066 39739 40223=
94430 46/// /1505 10114 20026 39610 40219=
94449 46/// /2510 10107 20046 39659 40207=
94451 NIL=
94601 46/// /2816 10160 20083 30123 40140=
94610 46/// /0309 10132 20119 30153 40177=
94637 46/// /2710 10109 20036 39747 40188=
94638 46/// /2913 10126 20065 30106 40138=
94642 NIL=
94643 NIL=
94647 46/// /2916 10133 20033 30024 40147=
94802 46/// /3112 10133 20069 30051 40134=
95205 46/// /2004 10250 20231 30145 40153=
95448 46/// /2207 10110 20057 39618 40205=
95634 46/// /2911 10112 20082 39777 40195=
95637 46/// /2709 10114 20052 39826 40169=
95641 NIL=
95646 46/// /2722 10122 20063 39970 40162=

####018001886####
SIKW20 OKBK 100300
AAXX 10034
40550 37/01 /1602 10280 20271 40002 52006 73331
  333 55300 00001 10097 20096 30020 41541 51709 60116 55407 40076
90014 90400 91003 91107 91203 91301=
40551 36/// /2208 10299 20167
  333 90401 91009 91111 91209 91307=
40552 37/50 /2710 10294 20227 40000 53002 71063
  333 55300 90069 90400 91011 91111 91209 91305=
40568 36/// /1504 10290 20273
  333 90400 91007 91111 91207 91303=
40569 NIL=
40570 37/57 /2906 10300 20024 40011 52004 70400
  333 55300 90069 90401 91007 91113 91209 91307=
40571 NIL=
40572 NIL=
40573 36/// /3009 10305 20028
  333 90400 91011 91111 91209 91307=
40580 36/// /1603 10295 20272
  333 553// 00000 10200 20102 30027 41442 51715 60129 55407 40076
90401 91005 91107 91203 91301=
40581 36/// /1803 10315 20283
  333 90400 91009 91109 91203 91301=
40582 31905 02006 10282 20272 40003 53003 74640
  333 55300 00002 10043 20079 30027 41650 51740 60106 55407 40053
90401 91005 91109 91207 91305=
40583 NIL=
40585 36/// /1906 10300 20284 222// 1//// 3//// 4//// 70///
  333 90401 91007 91113 91211 91307=
40586 36/// /2303 10305 20235
  333 90400 91005 91107 91205 91301=
40587 36/// /1706 10283 20275
  333 553// 00000 10175 20075 30025 41466 51688 60100 55407 40050
90401 91009 91109 91205 91303=
40588 37/02 /2803 10294 20280 40005 53005 73431
  333 55300 90006 90401 91005 91109 91207 91303=
40589 NIL=
40590 36/// /1807 10285 20207
  333 90400 91009 91111 91207 91305=
40591 NIL=
40592 37/04 /1702 10279 20269 40003 53001 73431
  333 55302 00000 10158 20139 30031 41424 51686 60170 55407 40108
90003 90400 91003 91105 91203 91301=
40593 36/// /2006 10293 20278
  333 90401 91009 91109 91207 91303=
40594 36/// /0802 10293 20284
  333 90401 91003 91107 91203 91301=
40596 36/// /1705 10309 20292
  333 90400 91005 91109 91207 91305=
####018001080####
SICI21 BABJ 100300
AAXX 10031
50468 42570 72501 10263 20199 40089 57009 84202=
50953 42670 61102 10256 20200 40088 57003 86200=
51076 NIL=
51243 NIL=
51288 42680 62502 10219 20040 38281 57004 81162=
51463 NIL=
51573 NIL=
51709 NIL=
52533 NIL=
52652 NIL=
52866 42570 41402 10198 20094 37704 57006 81102=
52983 NIL=
53463 42570 71102 10212 20146 40036 57006 87102=
53513 42980 00202 10278 20122 40010 54000=
53588 42465 72504 10149 20146 37770 52003 87100=
53772 41940 72701 10243 20185 40047 57012 71000 80002=
53915 NIL=
54218 42665 61102 10249 20158 40044 57008 86200=
54337 41958 80703 10215 20198 40071 57001 76066 8802/=
54342 42660 82202 10253 20206 40080 57002 885//=
54401 42665 71102 10216 20166 40049 52001 874//=
54471 41760 83403 10245 20206 40083 52004 70060 885//=
54497 41557 72204 10241 20202 40095 52001 71000 875//=
54511 41657 80901 10226 20207 40053 57002 76060 885//=
54823 41920 80402 10236 20213 40054 52003 76060 8802/=
56080 NIL=
56096 NIL=
57083 41430 80701 10241 20208 40044 57003 76066 8572/=
####018001420####
SICI22 BABJ 100300
AAXX 10031
56187 42965 71802 10249 20204 40048 52004 8704/=
56778 42570 72202 10227 20170 38083 52011 874//=
57265 41758 82902 10232 20218 40052 52016 76066 885//=
57461 41415 83601 10251 20251 40030 52006 76066 8672/=
57494 42965 81602 10282 20256 40022 57002 8807/=
57516 41460 82202 10215 20200 40049 52016 76066 887//=
57687 42575 72005 10326 20238 40035 52001 82142=
57816 41564 81803 10232 20213 40024 52010 76060 885//=
58040 42661 70906 10249 20224 40044 57009 875//=
58102 41358 83604 10230 20215 40031 52004 76166 8672/=
58150 41562 81105 10260 20240 40036 57012 76060 885//=
58221 41930 81602 10279 20237 40019 57006 71000 8807/=
58238 42461 72004 10290 20248 40029 57005 878//=
58251 41562 80703 10282 20244 40030 57011 70060 8357/=
58362 42570 82203 10300 20232 40037 57002 8517/=
58457 42768 72003 10293 20240 40041 57001 874//=
58606 42960 62905 10322 20245 40046 52004 84042=
58752 41950 71103 10316 20268 40067 52001 71000 82032=
58847 42662 62004 10339 20253 40070 57004 81102=
59117 42580 32204 10324 20203 40094 52001 83100=
59134 42578 22503 10327 20228 40097 52001 81102=
59287 42578 72203 10327 20225 40091 57001 86102=
59316 41472 72503 10320 20248 40097 52004 78000 872//=
59431 42680 61604 10327 20236 40063 52005 83132=
59644 42570 72004 10335 20255 40073 52006 82902=
59758 42980 71603 10343 20224 40072 52001 80002=
####018000089####
SNPS40 AMMC 100200 RRC
AAXX 10024
91519 46/// /0509 10295 40118 22200 00293=


####018000115####
SNVD20 KWNB 100200 RRV
BBXX
44056 10021 99362 70757 46/// ///// 1//// 90215 22200 00264 10702
20702 70009=
####018000586####
SIYE10 OYSC 100300 RRA
AAXX 10034
41396 42865 62402 10294 20194 39319 48460 86070 333 59001 86458=
41398 41558 61612 10264 20244 39988 48451 70522 86130 333 59008
41443 41556 41306 10274 20247 30031 40048 70544 84500 333 58002
84625=
41480 41957 50103 10300 20208 30034 40037 70544 85030 333 59002
85360=
41494 42460 22032 10280 20222 40082 333 58004 82818=
41431 41556 32406 10300 20256 40/// 70544 83100 333 3//// 83830=
41404 41556 71502  10175 20136 37835 48474 70644 87230 333 59012
83830 84356=
41434 42560 50000 10140 20117 37580 85620 333 31/// 85630=
