####018005155####
SNSW23 LSSW 102000
AAXX 10204
06717 33/// /0906 10106 20054 37641 47213 53001
  333 91111 91207=
06621 33/// /2411 10249 20163 39684 40181 52032
  333 91129 91215=
06798 33/// /2605 10199 20110 38779 48583 52014
  333 91113 91208=
06659 33/// /0000 10158 20070 37996 48581 52009
  333 91126 91216=
06702 43/// ///// 10163 20127 38407 48577 52002=
06639 33/// /1809 10201 20084 38671 48577 52004
  333 91127 91220=
06628 33/// /1605 10164 20138 39042 48567 53005
  333 91122 91211=
06626 23/// /1401 10219 20198 39757 40194 52031
  333 69975 91118 91211=
06636 33/// /0701 10193 20180 39651 40203 52016
  333 91108 91205=
06670 NIL=
06643 23/// /1301 10206 20192 39708 40193 52020
  333 69935 91111 91206=
06610 33/// /1202 10219 20164 39631 40187 52005
  333 91115 91207=
06780 33/// /1704 10108 20056 37482 47226 52012
  333 91128 91211=
06748 33/// /2402 10158 20119 38447 48587 52///
  333 91113 91206=
06751 23/// /0201 10167 20147 38197 48586 52008
  333 69915 91108 91203=
06620 33/// /2007 10241 20162 39688 40185 52030
  333 91135 91217=
06750 33/// /0515 10121 20099 37831 48596 52011
  333 91121 91215=
06646 23/// /2104 10218 20212 39820 40196 52036
  333 60015 91126 91208=
06711 33/// /0102 10238 20163 39672 40188 52013
  333 91112 91205=
06792 33/// /0401 10138 20113 38384 48594 52007
  333 91110 91205=
06664 23/// /1102 10190 20170 39692 40204 52039
  333 60445 91146 91224=
06770 33/// /1005 10275 20188 39836 40175 52008
  333 91118 91209=
06650 33/// /1701 10201 20188 39679 40201 52034
  333 91118 91204=
06700 NIL=
06601 23/// /1102 10244 20214 39815 40176 52013
  333 69925 91110 91205=
06679 33/// /2014 10230 20151 39578 40185 52030
  333 91136 91220=
06735 33/// /1201 10146 20130 38756 48577 58002
  333 91112 91204=
06645 23/// /1611 10210 20181 39493 48559 52012
  333 69945 91121 91212=
06673 23/// /1007 10204 20180 39656 40213 52047
  333 69925 91160 91235=
06672 33/// /2502 10214 20177 39709 40212 52047
  333 91136 91220=
06786 23/// /1805 10215 20175 39586 40218 53062
  333 69915 91127 91213=
06727 33/// /0701 10188 20165 39485 48573 52021
  333 91119 91210=
06619 23/// /2603 10184 20109 38872 48573 50004
  333 69915 91116 91206=
06609 33/// /2511 10168 20052 38109 48572 55002
  333 91121 91216=
06794 23/// /0702 10161 20148 39016 48578 58005
  333 69915 91106 91204=
06760 33/// /0203 10275 20185 39757 40176 52011
  333 91108 91203=
06685 23/// /1901 10190 20180 39638 40233 52069
  333 69965 91114 91209=
06712 33/// /1606 10209 20176 39758 40197 57004
  333 91111 91208=
06689 23/// /1917 10170 20134 38955 48577 52025
  333 60095 91139 91222=
06604 33/// /0203 10228 20210 39638 40187 52009
  333 91108 91204=
06787 23/// /1502 10176 20160 39128 48594 52058
  333 60025 91126 91215=
06724 33/// /0201 10156 20114 38658 48580 55002
  333 91103 91202=
06759 33/// /0504 10174 20166 38419 48580 52006
  333 91119 91214=
06783 23/// /3302 10140 20119 38447 48587 50014
  333 69915 91117 91209=
06680 23/// /2312 10095 20084 37635 47210 52006
  333 60185 91131 91219=
06720 33/// /2702 10199 20183 39655 40208 52004
  333 91107 91204=
06782 23/// /3102 10167 20145 38908 48596 52048
  333 69975 91130 91213=
06660 23/// /0605 10187 20169 39569 40207 52038
  333 60035 91147 91223=
06734 33/// /2004 10183 20174 39553 40215 58002
  333 91109 91206=
06612 33/// /2202 10202 20176 39066 48572 52008
  333 91111 91206=
06730 43/// /1609 10035 20035 36701 47220 58000
  333 91120 91216=
06704 23/// /3503 10179 20173 39425 52009
  333 69915 91129 91215=
06631 33/// /1905 10200 20159 39569 40200 52010
  333 91116 91208=
06669 43/// /1803 10219 20113 39244 48566 52020
  333 91151 91231=
06771 33/// /0403 10259 20178 39780 40178 52///
  333 91109 91204=
06605 33/// /1817 10159 20141 38478 48574 52003
  333 91122 91218=
06722 33/// /0703 10147 20096 38260 48586 55001
  333 91107 91204=
06990 23/// /1607 10210 20171 39678 40202 52053
  333 60015 91121 91211=
06784 33/// /2105 10204 20067 38495 48591 52021
  333 91109 91206=
06788 23/// /0000 10138 20120 38478 48597 52027
  333 69965 91125 91212=
06747 43/// /0201 10097 20075 37284 47217 52003
  333 91106 91203=
06762 33/// /1106 10268 20152 39944 40176 52014
  333 91114 91208=
06633 NIL=
06744 33/// /2608 10134 20092 38140 48595 50007
  333 91113 91208=
06616 33/// /2604 10241 20175 39508 40175 52008
  333 91110 91206=
06705 33/// /0202 10210 20169 39673 40198 52012
  333 91126 91215=
06745 33/// /0202 10161 20139 38742 48586 50019
  333 91114 91206=
06756 33/// /3001 10243 20188 39541 40186 52021
  333 91124 91211=
06791 23/// /2311 10060 20011 36936 47227 52002
  333 69965 91125 91218=
06666 23/// /1804 10218 20196 39800 40193 52036
  333 69965 91129 91217=
06753 33/// /2701 10205 20192 39103 48579 52016
  333 91104 91202=
06681 33/// /2705 10233 20140 39325 48579 52030
  333 91122 91210=
06655 33/// /0000 10188 20133 39056 48578 52020
  333 91111 91204=
####018000901####
SNRH82 LDZM 102000
AAXX 10201
14216 42975 10503 10260 20144 30035 40178 53/// 80002=
14219 42970 02301 10188 20127 39229 48566 51///=
14232 42984 10901 10208 20174 30062 40192 52/// 80001=
14234 42980 00502 10210 20163 39959 40194 54///=
14236 42970 00701 10252 20145 30000 40186 53///=
14244 42983 00000 10229 20189 30070 40193 54///=
14248 42980 00201 10212 20170 30025 40192 54///=
14253 42960 00000 10244 20173 30028 40192 53///=
14256 42970 01002 10244 20138 39886 40187 52002=
14308 42970 23202 10221 20193 39840 40175 53/// 80004=
14321 42980 00701 10245 20154 30155 40178 56///=
14370 42960 00000 10214 20185 30076 40180 54///=
14428 42970 13502 10231 20197 30167 40174 51/// 80002
  333 92301=
14441 42982 03401 10252 20104 30144 40167 54///=
14454 42981 01501 10241 20171 30111 40169 52///=
14462 42980 03402 10244 20150 30168 40172 52///=
14472 NIL=
####018000746####
SNRH81 LDZM 102000
AAXX 10201
14235 42960 0//// 10182 20124 39093 48568 54000=
14240 42970 03501 10221 20159 30044 40192 52009=
14246 42980 01901 10205 20163 39997 40192 53///=
14258 42970 00000 10205 20184 30010 40189 53///=
14314 42965 23002 10249 20165 30116 40177 55/// 80002=
14323 42980 23502 10276 20141 30143 40175 54/// 80002=
14324 42980 20907 10138 20115 38470 48568 56/// 80002=
14328 42970 13001 10192 20149 39815 40194 52/// 80002=
14330 42960 00501 10200 20127 39548 40186 51///=
14382 42970 23001 10224 20165 30068 40182 55002 82030=
14438 42980 10101 10248 20160 30081 40168 53/// 80002=
14445 42970 01901 10254 20162 30022 40169 52006=
14447 42984 03301 10237 20192 30144 40173 54///=
14452 NIL=
####018000099####
SNRE15 FMEE 102000
AAXX 10204
61997 26/// /3243 10119 20108 40043
  333 59172 69945 91166=
####018000095####
SNAU59 AMMC 102000 CCA
AAXX 10204
94949 45/// /3320 10127 20084 39993 40134 55003=


####018000125####
SMNO24 ENMI 101800 CCB
AAXX 10181
01373 11689 41501 10244 20042 39962 40151 52006 60002 70300 83801
      333 91107=
####018000101####
SNAU06 AMMC 102000 CCA
AAXX 10204
94998 41/03 92911 10047 20041 30218 40228 55000 74522=


####018000107####
SNAU54 AMMC 102000 CCA
AAXX 10204
94711 41880 82903 10134 20100 39890 40207 53007 70222 8252/=


####018001394####
SNAA01 KARS 101900 RRD
AAXX 1019/
89768 46/// ///// 11300 38631 4//// 5////=
89768 46/// ///// 11303 38643 4//// 5//// 91910=
89872 46/// ///// 11244 39687 4//// 5//// 91910=
89377 46/// ///// 11233 39653 4//// 5////=
89377 46/// ///// 11235 39651 4//// 5//// 91910=
89869 46/// ///// 11273 39696 4//// 5//// 91910=
89834 46/// ///// 11435 37247 4//// 5//// 91910=
89866 46/// ///// 11204 39641 4//// 5////=
89866 46/// ///// 11204 39642 4//// 5//// 91910=
89864 46/// ///// 11236 39699 4//// 5//// 91910=
89376 46/// ///// 11271 39566 4//// 5////=
89376 46/// ///// 11266 39567 4//// 5//// 91910=
89324 46/// ///// 11329 37827 4//// 5////=
89324 46/// ///// 11326 37826 4//// 5//// 91910=
89329 46/// ///// 11304 38478 4//// 5//// 91910=
89799 46/// ///// 11600 4//// 5////=
89799 46/// ///// 11601 4//// 5//// 91910=
89868 46/// ///// 11309 39678 4//// 5//// 91910=
89828 46/// ///// 11639 36556 4//// 5////=
89828 46/// ///// 11639 36556 4//// 5//// 91910=
89108 46/// ///// 11613 36952 4//// 5////=
89108 46/// ///// 11611 36953 4//// 5//// 91910=
89879 46/// ///// 11208 39643 4//// 5//// 91910=
89332 46/// ///// 11266 38928 4//// 5////=
89332 46/// ///// 11266 38928 4//// 5//// 91910=
89769 46/// ///// 11250 39710 4//// 5//// 91910=
89314 46/// ///// 11304 38000 4//// 5////=
89314 46/// ///// 11306 37998 4//// 5//// 91910=
####018000122####
SMCN35 CWAO 101800 RRF
AAXX 10184
71569 16/// /3309 10212 20151 39409 40086 52008 60001 333 10221
20119 70000=

####018000122####
SMCN32 CWAO 101800 RRI
AAXX 10184
71281 46/// /2002 10281 20223 30015 40112 51005 6///1 333 10281
20195 7////=

####018000350####
SMVD15 KWNB 101800 RRX
BBXX
42043 10181 99290 70949 46/// /3201 1//// 91830 22200 00296 333
91201=
42043 10181 99290 70949 46/// /0000 1//// 91800 22200 00296 333
91201=
42047 10181 99279 70936 46/// /0000 1//// 40178 91830 22200 00292
333 91201=
42047 10181 99279 70936 46/// /3001 1//// 40180 50000 91800 22200
00292 333 91201=
####018000113####
SNVD15 KWNB 102000 RRK
BBXX
42021 10201 99283 70833 46/// /2504 10284 40151 91940 22200 00298
333 91205=
####018000147####
SNVD20 KWNB 101900 RRX
BBXX
44024 10191 99423 70659 46/30 /1906 10199 40143 57003 91904 22200
00176 10804 70021 333 91206 555 11075 22086=
####018000095####
SNVD20 KWNB 102000 RRI
BBXX
42085 10201 99179 70665 46/// ///// 1//// 92000 22200 00296=
