####018000147####
SNVD20 KWNB 092300 RRH
BBXX
44032 09231 99437 70694 46/08 /1606 10185 40116 56015 92304 22200
00167 10602 70010 333 91207 555 11080 22089=
####018000083####
SNVD20 KWNB 092300 RRI
BBXX
41029 09231 99328 70796 46/// ///// 10283 92300=
####018000147####
SNVD20 KWNB 092200 RRR
BBXX
44037 09221 99435 70679 46/08 /1706 10193 40139 56022 92204 22200
00180 10802 70009 333 91207 555 11083 22092=
####018000109####
SNDL49 EDZW 092300 RRB
AAXX 09231
10837 42980 20901 10211 20160 39575 40198 52005 80001
  333 82078=
####018000105####
SNIY21 LIIB 092300 RRA
AAXX 09234
16344 42962 03004 10120 20120 38377 48555 54000 333 95000 95100=
####018000103####
SNIY21 LIIB 092300 RRA
AAXX 09234
16344 42962 03004 10120 20120 38377 48555 54000 333 95000 95100=
####018000166####
SNVD20 KWNB 092200 RRT
BBXX
42085 09221 99179 70665 46/// /1008 10298 40141 92150 333 91210=
42085 09221 99179 70665 46/// /1108 10299 40141 92140 333 91210=
####018000246####
SNVD20 KWNB 092200 RRS
BBXX
44024 09221 99423 70659 46/10 /1804 10196 40169 56017 92204 22200
00188 10803 70013 333 91205 555 11055 22062=
42085 09221 99179 70665 46/// /1008 10297 40142 56003 92200 22200
00296 10603 70014 333 91210=
####018000089####
SNPS40 AMMC 092200 RRD
AAXX 09224
91642 46/// /2704 10268 40126 22200 00290=


####018000113####
SNVD15 KWNB 092300 RRJ
BBXX
42021 09231 99283 70833 46/// /3102 10300 40135 92240 22200 00305
333 91202=
####018000127####
SNAU51 AMMC 092300 CCA
AAXX 09234
95283 11470 81308 10224 20210 30173 40180 53019 60034 70282 85590
  333 70028=


####018000241####
SNHK22 VHHH 092315
AAXX 09231
45032 36/// /2901 10288 20250 30076 40092 54000=
45035 36/// /2203 10285 20256 30049 40089 52001=
45039 36/// /2301 10300 20252 30072 40087 52001=
45044 36/// /2303 10271 20257 30001 40092 57001=

####018000238####
SNHK22 VHHH 092315
AAXX 09231
45032 36/// /2901 10288 20250 30076 40092 54000=
45035 36/// /2203 10285 20256 30049 40089 52001=
45039 36/// /2301 10300 20252 30072 40087 52001=
45044 36/// /2303 10271 20257 30001 40092 57001=
####018000125####
SNPF80 KWBC 092300 RRB
AAXX 09234
91948 22580 71904 10212 20164 30118 40222 58017 878// 333 60005
56399 83820 87633=
####018000200####
SNVD15 KWNB 092200 RRX
BBXX
42021 09221 99283 70833 46/// /3102 10302 40133 92220 22200 00307
333 91202=
42021 09221 99283 70833 46/// /2802 10302 40134 56019 92200 22200
00307 333 91202=
####018000253####
SIVD20 KWNB 092100 RRX
BBXX
42085 09211 99179 70665 46/// /1008 10298 40141 92130 22200 10603
70014 333 91210=
42085 09211 99179 70665 46/// /1008 10300 40141 92120 333 91210=
42085 09211 99179 70665 46/// /1009 10299 40140 92110 333 91210=
