####018000215####
SNVD45 KWNB 092000 RRC
BBXX
45006 09201 99473 70898 46/// /2104 10170 39929 40149 58011 91950
22200 00147 1//00 70001 333 91205 555 11051 22060 31932 42305
61949 213044 219043 224044 229045 227043 229043=
####018000103####
SMTU13 LTAA 091800 CCA
AAXX 09184
17203
32970 03600 10280 20075 38836 48519 53014
333 10366=
####018000115####
SMTU12 LTAA 091800 CCA
AAXX 09184
17188
32970 03004 10217 20088 39088 40099 52012
333 10253 90760 91114=
####018000162####
SMTU12 LTAA 091800 RRA
AAXX 09184
17188
3/9// /3004 10213 20088 39088 40100 52012
333 10253=
17248
3/9// /2403 10274 20085 38925 40020
333 10341=
####018000744####
SMTU13 LTAA 091800
AAXX 09184
17086
32970 01106 10248 20174 39389 40060 52018
333 10304=
17088
32970 00205 10230 20172 38768 48488 52028
333 10344=
17140
11965 03600 10214 20158 38670 48468 52015 6992/ 70281
333 10280=
17155
32970 03105 10185 20113 39045 40114 52019
333 10263 90760 91117=
17203
32970 03600 10280 20075 38836 48519 53014
333 10362=
17237
32970 02604 10250 20098 39622 40101 52015
333 10294 90760 91113=
17250
32675 22905 10270 20114 38762 48475 52012 82100
333 10326 82840=
17270
32970 03008 10313 20161 39447 40045 52015
333 10370=
17295
32960 01106 10267 20172 30074 40081 52011
333 10301=
17375
32970 00501 10266 20182 30084 40086 52010
333 10312 90760 91108=
####018000115####
SMTU12 LTAA 091800 CCB
AAXX 09184
17248
32675 22707 10278 20128 38925 48467 52015 82100
333 10330 82840=
####018001078####
SMTU12 LTAA 091800
AAXX 09184
17024
11570 72005 10217 20204 30045 40119 52009 6994/ 72582 84250
333 10243 84832 87360 90760 91129=
17056
12670 53106 10218 20170 30149 40153 52009 6990/ 83230
333 10256 83835 85360 90760 91118=
17067
12670 52706 10229 20172 30102 40123 52008 6992/ 85200
333 10245 85840 90760 91125=
17092
32960 00802 10251 20029 38818 48476 52014
333 10353=
17112
32670 60308 10225 20155 30157 40159 52010 84250
333 10240 84835 86360 90760 91120=
17115
11660 63508 10211 20165 30088 40137 52011 6001/ 70282 84230
333 10240 84835 86360=
17116
11560 72106 10197 20189 30022 40139 52013 6002/ 72582 84250
333 10246 84830 86359 90760 91116=
17202
32970 02604 10275 20008 39096 40031 52015
333 10373=
17292
32970 03104 10233 20096 39371 40091 52011
333 10286 90760 91118=
17300
32560 41202 10260 20221 30017 40089 52011 84100
333 10302 84830=
17310
32570 52002 10278 20229 30087 40094 52010 82250
333 10312 82830 85359 90760 91108=
17330
32970 03600 10277 20216 30074 40091 52010
333 10322=
####018000227####
SMTU13 LTAA 091800 RRA
AAXX 09184
17042
3/9// /0903 10245 20211 30075 40115
333 10285=
17074
1/9// /0403 10194 20173 39220 40110 52019 6005/
333 10259=
17320
3/9// /3600 10265 20221 30089 40095
333 10304=
####018001225####
SMTU10 LTAA 091800
AAXX 09184
17022
12662 63601 10212 20175 39966 40125 51005 6003/ 82130
333 10225 82834 86360 90760 91107=
17031
32670 53213 10242 20213 30104 40110 52014 83250
333 10285 83836 85360=
17038
32670 53600 10257 20207 30058 40106 52010 84230
333 10271 83835 85360=
17050
11670 53403 10211 20160 30098 40158 52008 6992/ 70182 83230
333 10227 83835 85360 90760 91121=
17096
32960 00902 10179 20051 38243 48492 52015
333 10305=
17124
32960 02811 10188 20124 39237 40116 52019
333 10246=
17128
32670 32604 10232 20143 39044 40078 52016 81130
333 10284 81840 83360=
17170
32965 03600 10196 20077 38337 48497 52010
333 10291=
17195
32670 22807 10262 20141 38913 48467 52014 82100
333 10337 82840=
17199
32970 01807 10300 20004 39020 40018 52010
333 10360=
17219
32565 10115 10240 20140 39979 40116 53007 81100
333 10277 81830 90760 91134=
17240
32570 30602 10212 20168 39002 40086 52016 83200
333 10268 83830 90760 91114=
17244
32670 43215 10261 20141 38947 48478 52020 84200
333 10318 84840=
17280
32970 02305 10291 20003 39314 40038 52016
333 10386=
17350
32660 31707 10257 20211 30019 40093 52014 83100
333 10315 83835=
####018000133####
SMTU10 LTAA 091800 RRA
AAXX 09184
17060
11560 63112 10207 20172 30093 40132 52018 6012/ 70282 86300
333 10236 81930 85835=
####018000645####
SMGR01 LGAT 091800
AAXX 09184
16622
32560 13410 10264 20153 30147 40154 54000 81100
333 10284 4/000 90730 91120=
16641
32970 02705 10264 20110 30145 40149 53002
333 10302 4/000 90730 91117=
16682
32560 13600 10248 20185 30145 40162 52005 81140
333 10288 4/000 90730 91110=
16716
32565 10608 10264 20128 30131 40149 52008 81100
333 10310 4/000=
16734
32570 52708 10238 20195 30079 40141 54000 82206
333 10278 4/000 82895 85070 90730 91112=
16749
32960 02408 10252 20186 30069 40082 53002
333 10266 4/000 90730 91122=
16754
32570 33112 10246 20180 30090 40135 54000 83200
333 10268 4/000 90730 91117=
####018000503####
SMGR20 LGAT 091800
AAXX 09184
16643
32565 22508 10240 20154 30158 40162 58002 82130
333 10296 4/000 90730 91117=
16648
32560 53600 10272 20112 30066 40150 56008 83130
333 10324 4/000 83830 83358 90730 91108=
16650
32560 30407 10238 20160 30145 40149 52011 82150
333 10268 4/000 82825 83358 90730 91121=
16684
32860 23603 10240 20173 30113 40139 52002 82040
333 10266 4/000 90730 91109=
16732
32570 13623 10238 20174 30122 40134 53004 81200
333 10256 4/000 90730 91134=
####018000121####
SMGR21 LGAT 091800 RRA
AAXX 09184
16738
42960 00114 10232 20174 39949 40138 57001
333 10274 4/000 90730 91119=
####018000669####
SMGR21 LGAT 091800
AAXX 09184
16614
32570 10207 10218 20101 39415 40165 53002 81100
333 10252 4/000 90730 91114=
16627
32565 33600 10226 20153 30151 40155 51012 82150
333 10256 4/000 82825 83358 90730 91123=
16667
32565 23413 10240 20183 30135 40140 51002 81140
333 10260 4/000 90730 91124=
16675
32565 10704 10274 20154 30128 40149 52008 81100
333 10326 4/000 90730 91109=
16710
32560 73600 10236 20112 39416 40150 52009 86530
333 10272 4/000 90730 91117=
16723
32565 13411 10238 20167 30099 40114 53003 81100
333 10270 4/000 90730 91130=
16746
32560 13600 10234 20159 39969 40145 53002 81200
333 10270 4/000 90730 91116=
####018000233####
SNVD15 KWNB 092000 RRC
BBXX
42057 09201 99168 70815 46/// /0709 10299 20249 40130 56007 91950
22200 00293 10602 20602 70012 333 91210 555 11091 22097 31850
40710 61949 074085 073085 070080 075080 077081 082084 80709 91950=
####018000091####
SNAA14 EGRR 091800
AAXX 09184
89266 46/// /1715 11247 21272 39749 49899 57004 91800=
####018000095####
SMAA14 EGRR 091800 RRC
AAXX 09184
89065 46/// /9902 11174 21189 39714 49796 57007 91800=
####018000091####
SNAA14 EGRR 091800
AAXX 09184
89272 46/// /0407 11199 21222 37979 49654 57004 91800=
####018000091####
SNAA14 EGRR 091810
AAXX 09184
89257 46/// /1803 11334 21368 39861 49940 5//// 91810=
####018000095####
SNAA01 KARS 091900 RRE
AAXX 09194
89667 46/// /1822 11198 29085 39797 4//// 5//// 91940=
####018000848####
SNAA01 KARS 091900 RRD
AAXX 0919/
89667 46/// ///// 11192 39793 4//// 5//// 91930=
89768 46/// ///// 11330 38642 4//// 5//// 91940=
89872 46/// ///// 11281 39711 4//// 5//// 91940=
89869 46/// ///// 11314 39743 4//// 5//// 91930=
89869 46/// ///// 11314 39742 4//// 5//// 91940=
89834 46/// ///// 11486 37321 4//// 5//// 91930=
89834 46/// ///// 11486 37323 4//// 5//// 91940=
89864 46/// ///// 11268 39692 4//// 5//// 91940=
89376 46/// ///// 11378 39699 4//// 5//// 91940=
89324 46/// ///// 11379 37927 4//// 5//// 91940=
89329 46/// ///// 11351 38558 4//// 5//// 91940=
89799 46/// ///// 11620 4//// 5//// 91940=
89868 46/// ///// 11309 39729 4//// 5//// 91940=
89332 46/// ///// 11388 39024 4//// 5//// 91940=
89828 46/// ///// 11703 36482 4//// 5//// 91940=
89108 46/// ///// 11623 36890 4//// 5//// 91930=
####018000118####
SNAA01 KARS 092000
AAXX 0920/
89768 46/// ///// 11334 38646 4//// 5////=
89799 46/// ///// 11618 4//// 5////=
####018000091####
SNAA14 EGRR 091800
AAXX 09184
89257 46/// /1803 11334 21368 39861 49940 52004 91800=
####018000139####
SMDL01 EDZW 091200 CCA
AAXX 09121
10200 12984 11405 10305 20145 30169 40167 58015 60001 80001
  333 30/// 55310 23047 30542 81075=
####018001471####
SNDL47 EDZW 092000
AAXX 09201
10454 45970 01802 10256 20140 39913 40186 53011
  333 55300=
10458 45980 01401 10234 20147 39716 40175 53007
  333 55300 20036 30035=
10460 45981 21203 10263 20164 39989 40178 53004
  333 55300 20051 30047 82/80=
10466 46/61 /1001 10260 20156 30078 40188 53005
  333 55300 20023 30023=
10471 42984 11301 10245 20170 30028 40187 53002 81042
  333 55300 20014 30010 41371 81363=
10474 45980 01202 10270 20140 30064 40185 53004
  333 55300 20015 30015=
10476 42980 11302 10248 20139 30072 40189 53004 81042
  333 81365=
10480 45958 01701 10238 20189 30019 40192 53002
  333 55300 20015 30015=
10490 45975 21501 10237 20151 30076 40189 53005
  333 55300 20016 30015 82/71=
10495 45984 01302 10261 20134 30062 40195 53004
  333 55301=
10500 NIL=
10502 NIL=
10515 46859 70603 10270 20165 30029 40175 53006
  333 55300 87/57=
10516 NIL=
10519 45980 32002 10262 20164 39992 40175 53006
  333 55300 81/62 83/81=
10526 469// 30000 10247 20151 39560 40181 53006
  333 55301 83/59=
10534 45982 72203 10239 20106 39355 40179 53006
  333 55300 84/60 87/68 87/81=
10540 45979 72601 10271 20137 39826 40178 53006
  333 55300 20015 30015 85/65 87/68=
10542 45981 82901 10258 20131 39875 40183 53008
  333 55300 20017 30017 88/65=
10552 45981 01503 10232 20112 39152 48579 53003
  333 55300=
10557 42989 31703 10219 20109 39247 48577 53004 82041
  333 55300 20015 30015 82363=
####018001743####
SNDL48 EDZW 092000
AAXX 09201
10564 45982 01603 10252 20114 39621 40184 53004
  333 55300=
10565 45960 61303 10246 20160 39893 40173 53004
  333 55301 81/75 86/77=
10569 47922 02002 10234 20147 39748 40190 53004 70400
  333 55300 20014 30014=
10574 45987 02102 10195 20110 39201 48577 53003
  333 55300=
10577 45980 01102 10247 20157 39713 40186 53002
  333 55300 20022 30018=
10579 47/// /1403 10232 20132 39478 40194 53004 7////
  333 55300=
10582 45978 01505 10196 20119 39221 48578 53005
  333 55300 20010 30010=
10591 45984 01103 10247 20125 39828 40190 53004
  333 55300=
10613 NIL=
10615 45985 32203 10246 20145 39642 40183 51008
  333 55300 20033 30032 81/80 83/81=
10618 NIL=
10628 45979 03503 10255 20179 30054 40181 53008
  333 55300=
10635 45977 01802 10221 20140 39269 48574 53006
  333 55300=
10646 45969 72101 10239 20174 39799 40186 53009
  333 55300 82/65 87/68 87/71=
10648 45961 52803 10264 20120 39672 40182 52006
  333 55301 20062 30057 85/71=
10658 45/80 /0201 10269 20160 39862 40180 53009
  333 55300=
10671 45977 00303 10227 20154 39792 40186 53005
  333 55300 20016 30016=
10686 45980 62802 10236 20115 39493 40190 53004
  333 55300 86/80=
10704 45981 52702 10266 20132 39771 40180 52005
  333 55300 20075 30073 83/63 85/81=
10706 45985 12802 10257 20156 39748 40184 53005
  333 55300 81/75=
10724 45960 62403 10250 20137 39561 40182 51006
  333 55300 20045 30040 86/64=
10733 45983 52601 10269 20141 39910 40182 53006
  333 55300 20030 30027 82/80 84/81 85/81=
10736 45977 10000 10210 20167 39908 40189 53006
  333 55300 81/77=
10739 45981 03003 10279 20143 39820 40177 53006
  333 55300 20026 30023 41404=
10743 NIL=
####018002287####
SNDL21 EDZW 092000
AAXX 09201
10004 NIL=
10015 42965 71107 10225 20195 30153 40162 56001 86032
  333 55302 20112 30095 86363=
10020 47980 01206 10234 20196 30135 40166 55005 72140
  333 55302 20108 30086=
10035 42980 30802 10221 20161 30120 40176 56002 82031
  333 55300 20084 30063 41332 82363=
10055 45968 00905 10217 20184 30171 40181 58001
  333 55300 20063 30059=
10147 42975 40302 10255 20188 30153 40170 53004 83031
  333 55300 20066 30058 41395 83363 84078=
10162 45972 21402 10288 20122 30100 40177 53004
  333 55300 82/69=
10184 42964 10903 10236 20184 30189 40196 53007 80008
  333 55300 20023 30021 81276=
10200 42980 51501 10249 20170 30162 40160 53006 84031
  333 55300 20039 30034 84363=
10224 42972 31602 10289 20149 30158 40164 53004 83031
  333 55302 20104 30076 83360=
10270 46960 01002 10242 20156 30129 40181 53006
  222// 06252
  333 55300=
10338 42984 31302 10298 20133 30102 40169 53004 82071
  333 55300 20052 30050 82360=
10361 45961 01501 10256 20163 30083 40181 53003
  333 55300 20033 30031=
10393 42982 01204 10280 20117 30073 40192 53004
  333 55302 20030 30021=
10400 42981 52204 10290 20134 30121 40167 53011 83531
  333 55300 20063 30060 83659 83365=
10438 45980 82002 10260 20146 39914 40177 53006
  333 55300 86/64 87/67 88/70=
10469 42986 31103 10249 20159 30030 40186 53004 81032
  333 55300 81360 83080=
10488 42981 11403 10264 20146 39929 40193 53005 80001
  333 55300 20018 30013 41380 81076=
10506 42983 32102 10254 20142 39631 40178 53009 81031
  333 55301 81365 83080=
10548 42980 42001 10269 20113 39672 40178 53007 83032
  333 55300 20024 30023 83364=
10637 42982 31901 10290 20158 30051 40179 53007 81032
  333 55301 81365 83080=
10685 45983 81601 10240 20126 39547 40182 53003
  333 55300 20027 30027 87/78 88/80=
10738 42982 32901 10261 20151 39742 40182 53006 81032
  333 55300 81364 83080=
10763 42982 21102 10257 20129 39824 40184 53007 81031
  333 55300 20019 30017 81366=
10788 45977 01302 10210 20156 39789 40197 55000
  333 55300 20008 30007=
10852 42984 51701 10225 20145 39650 40190 53004 83032
  333 55300 20009 30008 83364 84075=
10946 45980 81001 10225 20173 39401 40186 53002
  333 55300 20005 30005 87/65 88/70=
####018001407####
SNDL49 EDZW 092000
AAXX 09201
10756 45982 80000 10240 20150 39650 40187 53008
  333 55300 20017 30016 82/65 84/67 88/81=
10761 45961 13401 10245 20148 39707 40185 53005
  333 55300 20023 81/64=
10765 NIL=
10771 NIL=
10777 45980 01101 10239 20127 39587 40191 53004
  333 55300=
10782 45976 02501 10200 20157 39630 40200 53004
  333 55300 20009 30009=
10796 45972 03601 10207 20157 39506 40202 53006
  333 55300=
10803 45976 83501 10250 20194 39912 40182 53009
  333 55300 20028 30028 85/65 88/69=
10818 45980 81103 10207 20131 39118 48578 53004
  333 55300 20012 30012 82/62 88/71 88/80=
10827 NIL=
10837 NIL=
10838 469// 80301 10261 20151 39547 40181 51010
  333 55300 88/69=
10850 45983 71102 10261 20128 39625 40187 53004
  333 55300 87/67=
10853 NIL=
10856 NIL=
10857 NIL=
10860 NIL=
10863 45981 02701 10203 20146 39649 40195 53004
  333 55300 20009 30008 41266=
10865 42986 21102 10247 20117 39601 40191 53004 81032
  333 55300 81366=
10872 45979 03301 10198 20165 39795 40200 53001
  333 55300=
10875 45973 00601 10194 20155 39730 40202 53001
  333 55300 20004 30004=
10945 45975 81201 10221 20170 39433 40186 53002
  333 55300 88/62=
10954 NIL=
10963 45982 72301 10209 20158 39389 40196 53006
  333 55300 20003 30003 82/63 87/65 87/68=
10982 45983 51002 10228 20134 39572 40194 53002
  333 55300 20002 30002 85/65=
####018001979####
SNDL23 EDZW 092000
AAXX 09201
10609 42982 41802 10262 20159 39873 40182 51009 81032
  333 55300 20044 30034 81362 84076=
10616 42984 22402 10249 20137 39618 40182 51008 81031
  333 55300 81363=
10641 45977 01501 10245 20173 30044 40183 52008
  333 55300=
10655 42981 72401 10283 20138 39871 40177 53008 85032
  333 55300 20038 30036 85366 85080=
10675 45981 00000 10221 20172 39908 40185 53009
  333 55300 20023 30021=
10688 45982 01302 10261 20108 39694 40184 53002
  333 55300 20012 30012=
10708 42882 71101 10231 20183 39823 40188 53006 81532
  333 55300 20067 30054 81657 87080=
10729 45981 23002 10257 20185 30068 40183 53007
  333 55300 20057 30046 82/80=
10731 45980 71401 10240 20182 30050 40186 53008
  333 55300 20023 30023 87/81=
10742 45970 21402 10262 20183 39871 40181 53009
  333 55300 20020 30019 81/69=
10776 45982 01401 10247 20134 39771 40190 53001
  333 55300 20007 30007=
10791 42989 11004 10178 20101 38637 48582 55000 80001
  333 55301 81074=
10805 42983 53601 10243 20179 30005 40185 53008 81081
  333 55300 20022 30022 81362 84082=
10815 45980 00202 10236 20143 39304 48582 53004
  333 55300 20028 30027=
10836 45982 01702 10250 20133 39368 40183 51009
  333 55300 20020 30019=
10870 42980 21001 10241 20142 39689 40191 53003 81032
  333 55300 81365=
10895 45983 11203 10240 20119 39658 40197 53001
  333 55300 20007 30005 81/82=
10908 42986 71603 10205 20108 38585 48576 53003 8703/
  333 55300 20037 30036 87360=
10929 42972 70303 10247 20172 39680 40180 55001 84082
  333 55300 20010 30008 81360 84363 86078 98485=
10948 45983 81503 10211 20145 39295 48576 52004
  333 55300 20006 30006 86/63 87/67 88/70=
10961 42588 32507 10107 21009 37229 47228 53002 83042
  333 55300 20007 41009 81330 94236=
10962 42984 50803 10236 20123 39107 48584 55000 84051
  333 55300 20020 30019 84361=
10980 42989 02904 10177 20088 38256 48585 55001
  333 55300 20005 30005=
####018001413####
SNDL44 EDZW 092000
AAXX 09201
10022 45974 11105 10235 20166 30160 40169 57001
  333 55303 20118 30093 81/69=
10028 42970 61005 10243 20188 30154 40167 55001 85032
  333 55301 20096 30069 85363 83080=
10033 42975 21204 10219 20172 30137 40176 56003 82031
  333 82361=
10037 42980 40703 10224 20153 30146 40175 56003 84031
  333 84364 83070=
10038 42965 10802 10227 20168 30154 40175 55002 81031
  333 81366=
10042 45564 41003 10211 20185 30178 40182 56004
  333 55300 81/28 84/62=
10067 NIL=
10093 45984 01302 10226 20171 30149 40196 53005
  333 55300=
10097 47977 01004 10226 20188 30184 40198 53004 75150
  222// 06215
  333 55300=
10126 42970 51002 10261 20184 30148 40162 53004 84031
  333 84363=
10129 45960 60703 10283 20177 30147 40159 55000
  333 55300 20051 30051 86/65=
10130 45964 00803 10237 20198 30151 40156 53001
  333 55300=
10136 42965 60603 10266 20201 30128 40164 54000 83031
  333 83363 86075=
10139 45977 71401 10267 20166 30139 40152 53004
  333 55300 20058 30057 86/65 87/68=
10142 46978 00702 10251 20178 30143 40172 52006
  333 55300=
10146 45973 00602 10246 20175 30154 40170 53006
  333 55301=
10150 45969 00602 10230 20165 30143 40175 55001
  333 55300 20034 30031=
10152 45967 70506 10235 20186 30173 40175 58001
  333 55300 87/64=
10156 45965 00602 10225 20180 30156 40176 53002
  333 55300 20077 30073=
####018000984####
SNDL40 EDZW 092000
AAXX 09201
10015 42965 71107 10225 20195 30153 40162 56001 86032
  333 55302 20112 30095 86363=
10020 47980 01206 10234 20196 30135 40166 55005 72140
  333 55302 20108 30086=
10035 42980 30802 10221 20161 30120 40176 56002 82031
  333 55300 20084 30063 41332 82363=
10113 45972 81303 10262 20189 30142 40160 53004
  333 55303 20130 30100 88/61=
10129 45960 60703 10283 20177 30147 40159 55000
  333 55300 20051 30051 86/65=
10131 45971 80803 10248 20204 30146 40160 56001
  333 55300 20077 30077 88/65=
10147 42975 40302 10255 20188 30153 40170 53004 83031
  333 55300 20066 30058 41395 83363 84078=
10156 45965 00602 10225 20180 30156 40176 53002
  333 55300 20077 30073=
10200 42980 51501 10249 20170 30162 40160 53006 84031
  333 55300 20039 30034 84363=
10224 42972 31602 10289 20149 30158 40164 53004 83031
  333 55302 20104 30076 83360=
10235 NIL=
10253 45972 01502 10280 20133 30149 40170 53007
  333 55300=
####018001871####
SNDL46 EDZW 092000
AAXX 09201
10321 45974 81301 10286 20196 30116 40165 53006
  333 55300 20032 30032 87/58 88/61=
10325 45982 40000 10271 20144 30016 40172 53007
  333 55300 81/65 84/68=
10334 42980 71203 10296 20148 30089 40168 53005 86071
  333 83364 86368=
10335 NIL=
10343 42980 61402 10291 20130 30113 40172 53006 84031
  333 84367 83070=
10348 47950 31102 10265 20149 30076 40176 53005 70400
  333 55300 20030 30000 41395 83/70=
10356 45980 01402 10253 20161 39987 40173 53004
  333 55300=
10359 45974 00000 10237 20157 30127 40183 53005
  333 55300 20017 30016=
10365 45978 11301 10241 20141 30137 40181 53006
  333 55300 20017 30017 81/68=
10368 45980 11401 10250 20150 39971 40186 53004
  333 55300 20026 30024 81/79=
10376 45980 01202 10256 20139 30115 40182 53004
  333 55301=
10381 42980 11303 10248 20144 30104 40187 53003 81041
  333 55301 81362=
10385 42982 11201 10275 20110 30132 40190 53003 81041
  333 55300 20018 30018 81363=
10389 46/// /1407 10299 20101 30094 40188 53003=
10396 45981 01102 10247 20146 30183 40198 53005
  333 553//=
10404 NIL=
10410 45983 82102 10284 20142 39997 40167 53011
  333 55300 88/67=
10418 45984 82402 10268 20127 39738 40178 53011
  333 55301 20077 30071 81/60 88/65=
10424 45980 82002 10281 20147 30069 40167 53012
  333 55300 20088 30083 88/61=
10433 45981 71403 10254 20138 39873 40167 53006
  333 55300 20029 30027 85/65 87/68=
10435 45968 72002 10272 20136 39909 40177 53007
  333 55300 85/62 87/66=
10442 45980 72401 10239 20156 30008 40179 53005
  333 55300 20016 30015 87/65=
10444 45975 81003 10230 20165 39981 40178 53006
  333 55300 20027 30025 88/69=
10449 45977 80401 10236 20165 39784 40186 53007
  333 55300 20023 30023 86/69 88/73=
10452 45978 00201 10222 20129 39503 40187 53007
  333 55300 20026 30026=
####018001470####
SNDL45 EDZW 092000
AAXX 09201
10161 45963 00602 10224 20191 30158 40178 51001
  333 55300 20067 30064=
10168 45963 01201 10250 20183 30115 40183 53006
  333 55300=
10172 42980 21103 10261 20159 30117 40185 52007 81032
  333 81363=
10180 45971 41203 10225 20189 30186 40191 53003
  333 55300 83/81 84/82=
10193 45982 01202 10250 20141 30185 40188 53005
  333 55302 20027 30019=
10215 45977 62901 10273 20156 30150 40164 53003
  333 55302 81/64 86/68=
10235 NIL=
10238 42960 41301 10265 20145 30083 40172 52005 84030
  333 84366=
10246 42980 51403 10281 20114 30073 40173 52005 83031
  333 83366=
10249 45977 01402 10272 20120 30119 40172 53002
  333 55300 20064 30060=
10253 45972 01502 10280 20133 30149 40170 53007
  333 55300=
10261 42985 11601 10262 20138 30154 40181 53005 80001
  333 55300 20044 30034 81080=
10267 45975 03401 10257 20149 30138 40187 53006
  333 55300=
10268 46/// /1002 10268 20155 30106 40187 53005
  333 55300=
10281 42981 11202 10243 20149 30086 40194 53005 81030
  333 81368=
10282 47906 00702 10212 20159 30058 40193 53007 70500
  333 55301=
10289 45970 81004 10240 20151 30128 40195 53005
  333 55300 88/66=
10304 NIL=
10305 469// 53301 10288 20132 30132 40162 53005
  333 55302 85/59=
10306 NIL=
10309 45974 41301 10257 20182 30111 40165 53006
  333 55300 20053 30048 84/59=
10317 46960 71601 10267 20142 30056 40166 53006
  333 55300 86/60 87/77 87/79=
####018002146####
SNDL22 EDZW 092000
AAXX 09201
10006 NIL=
10007 NIL=
10008 NIL=
10043 NIL=
10044 NIL=
10046 42980 20803 10225 20176 30141 40178 58001 81031
  333 81365=
10091 45980 01306 10230 20168 30147 40196 53002
  333 55300 20046 30040=
10113 45972 81303 10262 20189 30142 40160 53004
  333 55303 20130 30100 88/61=
10124 NIL=
10131 45971 80803 10248 20204 30146 40160 56001
  333 55300 20077 30077 88/65=
10170 42970 41203 10258 20190 30169 40184 53004 81032
  333 55300 20059 30048 81363 84076=
10264 45964 01502 10259 20144 30080 40180 53005
  333 55300 20047 30044=
10291 42981 11002 10246 20154 30130 40194 53004 81040
  333 55300 20015 30012 81366=
10315 42975 51501 10265 20129 30105 40165 52007 82081
  333 55300 20042 30042 81359 84075=
10379 42983 11303 10270 20119 30069 40183 53005 81031
  333 55300 20025 30015 41375 81366=
10382 42983 11202 10285 20101 30145 40187 53004 81041
  333 55300 81364=
10384 46/// /1102 10283 20098 30130 40186 53002
  333 55300 20018 30016=
10427 41986 72305 10228 20120 39231 48572 51008 71422 87071
  333 55300 20006 30005 85362 83364=
10430 45981 81602 10283 20132 39990 40169 53008
  333 55300 20041 30040 82/65 88/67=
10439 42880 79901 10260 20162 39973 40180 52009 81571
  333 81657 86364=
10453 42984 21805 10209 20111 38929 48577 53001 82041
  333 55300 82363=
10496 45983 01502 10253 20141 30109 40189 53004
  333 55300 20011 30010=
10499 42981 11203 10243 20138 39929 40204 53006 81030
  333 55300 20009 30009 81361=
10501 42984 52602 10276 20163 39941 40173 52012 84081
  333 55300 84363=
10513 42984 41002 10278 20157 30059 40172 53005 82032
  333 55300 20047 30047 82362 83080=
10532 45980 83002 10259 20145 39940 40173 53009
  333 55300 20036 30035 88/62=
10544 42986 42503 10220 20128 39167 48577 53005 83031
  333 55300 83366=
10554 42984 31501 10268 20153 39815 40178 53005 81031
  333 55300 20033 30033 81363 83080=
10567 42989 21205 10223 20166 39830 40187 53005 80001
  333 55300 20013 30012 82076=
10578 42988 11204 10191 20116 38873 48583 53003 80001
  333 55300 20017 30016 81070=
####018000091####
SNAA14 EGRR 091810
AAXX 09184
89266 46/// /1716 11248 21273 39749 49899 5//// 91810=
####018000091####
SNAA14 EGRR 091810
AAXX 09184
89065 46/// /9901 11177 21195 39714 49796 5//// 91810=
####018000071####
SALY31 HLLT 092000
METAR HLLT 091950Z 
06005KT CAVOK 25/20 Q1018=
####018000091####
SNAA14 EGRR 091810
AAXX 09184
89272 46/// /0407 11200 21223 37979 49654 5//// 91810=
####018000090####
SMCN25 CWAO 091800 RRH
AAXX 09184
71544 46/// ///// 10269 20122 6///1 333 7////=

####018000130####
SNAA19 LFVW 092000
AAXX 09204
89661 46/// /2453 11197 38982 4//// 5////=
89666 46/// /1819 11181 29046 39592 4//// 5////=
####018000087####
SMCN25 CWAO 091800 RRH
AAXX 09184
71544 46/// ///// 10269 20122 6///1 333 7////=
####018000185####
SNAA17 LFVW 091900 RRA
AAXX 09194
89586 46/// /04// 11312 37456 4//// 5////=
89003 46/18 /1711 11295 29041 39038 4//// 5////=
89507 46/// /1505 11644 29031 36666 4//// 5////=
####018000079####
SNAA17 LFVW 092000
AAXX 09204
89578 46/// /08// 11547 36770 4//// 5////=
####018001624####
SNSQ51 LZIB 092000
AAXX 09201
11812 46/// /0202 10216 20071 39552 42863=
11813 42970 20301 10226 20091 39885 40217 80001
  333 82070=
11816 42970 30000 10216 20127 30059 40215 80001
  333 83070=
11819 42985 29902 10183 20144 30006 40215 80001
  333 82073=
11826 42970 19901 10199 20141 30025 40217 80001
  333 81070=
11841 42981 19901 10178 20109 39859 40223 80001
  333 81070=
11855 42981 30000 10195 20137 30054 40214 80001
  333 83072=
11856 42976 19901 10208 20120 39909 40213 80001
  333 81070=
11858 42984 11502 10205 20135 30066 40211 80001
  333 81070=
11867 42975 29901 10201 20128 39911 40214 80001
  333 82073=
11880 42970 30801 10196 20170 30052 40217 80001
  333 83070=
11900 46/// /0501 10199 20132 39896 40217=
11903 42981 10000 10190 20138 39851 40217 80001
  333 81070=
11916 42384 13501 10105 21028 38080 48574 81401
  333 81606=
11918 42984 40803 10140 20092 39440 42866 80001
  333 84070=
11927 42884 29901 10192 20164 39970 40222 81501
  333 81657=
11930 42989 33406 10068 21206 37490 47202 80001
  333 83060=
11933 42984 30000 10118 20077 38765 48584 80001
  333 83068=
11934 42984 40000 10135 20098 39439 42867 80001
  333 84070=
11938 42984 20804 10138 20090 39202 42862 80002
  333 82073=
11952 46/// /9901 10172 20099 39431 42870=
11958 46/// /0207 10130 20085 38843 48582=
11968 42982 13402 10191 20126 39955 40226 80001
  333 81070=
11976 42984 10000 10176 20135 39976 40231 80001
  333 81070=
11978 42980 13401 10196 20140 30094 40219 80001
  333 81070=
11993 42970 09901 10179 20148 30018 40227=
####018000139####
SIID22 WIIX 091500 RRA
AAXX 09154
97796 31457 63404 10244 20235 30074 40125 57015 70522 84932
  333 56000 57900 81913 84614 80980=
####018000111####
SNLY40 EUMS 092000
AAXX 09194
62140 46/// /1912 10309 20118 39767 40118 53011=
62210 NIL=
62271 NIL=
####018000111####
SNRE20 FMEE 092000
AAXX 09204
61980 24986 /1414 10206 20160 40194 700//
  333 59030 69905 90710 91124=
####018000275####
SNDL22 EDZW 092000 RRA
AAXX 09201
10007 46/60 /1106 10228 20189 30158 40158 55002
222// 00198
  333 55301=
10044 46/// /1007 10219 20185 30148 40178 58003
222// 00202
  333 55300=
10124 46/// /0908 10263 20210 30126 40161 55000
222// 00120
  333 55300=
####018000115####
SNDL47 EDZW 092000 RRA
AAXX 09201
10502 42981 62402 10276 20130 30021 40174 52010 83031
  333 83365 85075=
####018000117####
SNDL21 EDZW 092000 RRA
AAXX 09201
10004 46/60 /1605 10202 20164 30159 40159 53006
222// 00169
  333 55300=
####018000263####
SNDL48 EDZW 092000 RRA
AAXX 09201
10613 42982 32502 10253 20142 39636 40180 52008 82031
  333 82363=
10618 42982 42202 10244 20162 39758 40186 53006 81032
  333 81364 84080=
10743 42982 53301 10251 20162 39653 40184 52008 82031
  333 82366 84080=
####018000559####
SNDL49 EDZW 092000 RRA
AAXX 09201
10765 42982 31402 10248 20132 39741 40187 53006 81032
  333 81365 83080=
10771 42982 31301 10251 20121 39720 40193 53005 82031
  333 82362 83080=
10827 42984 70000 10215 20134 39163 48580 51006 83032
  333 83362 87078=
10837 42980 51002 10254 20156 39570 40183 53005 82031
  333 82366 85078=
10853 42980 20000 10238 20160 39751 40190 53004 81031
  333 81367=
10856 42982 40802 10228 20141 39558 40191 53003 83031
  333 83366=
10857 42984 31102 10243 20137 39490 40187 53002 83030
  333 83367=
####018000152####
SMAA01 KWBC 091800 RRB
AAXX 09184
89065 46/// /9901 11177 21195 39714 49796 5//// 91810=
89065 46/// /9902 11174 21189 39714 49796 57007 91800=
####018000080####
SAKN64 HKMO 092000
METAR HKMO 092000Z 19005KT 9999 FEW022 23/21 Q1017 NOSIG=
####018000905####
SNVD15 KWNB 092000 RRD
BBXX
41035 09201 99345 70773 46/// /1906 10277 20245 40107 58017 91950
22200 00276 10801 312// 40801 70004 333 91207 555 11065 22070
31949 41907 61949 188061 185055 181052 188054 187047 182045=
41040 09201 99145 70530 46/// /0807 10288 40142 57008 91950 22200
00290 10804 20502 300// 40803 70018 333 91208 555 11071 22076
31939 40709 61949 075069 074073 073072 074072 075072 075072 80708
91928=
42001 09201 99259 70897 46/// /0601 10293 20236 40156 58019 91950
22200 00307 10601 3//// 40601 70004 333 91202 555 11014 22014
31855 43604 61949 065015 064016 052010 029012 013018 013023=
41010 09201 99289 70785 46/// /2405 10288 20222 40151 56010 91950
22200 00290 10801 20401 300// 40801 70007 333 91206 555 11057
22060=
41009 09201 99285 70802 46/// /1803 10280 20241 40155 58015 91950
22200 00287 10801 300// 40801 70003 333 91204 555 11035 22037=
####018000118####
SNAC01 KWNB 092000
OOXX
ACSAMS02 09201 99784 70729 26082 01301 46/// /1908 10007 20004 39921
92001 333 91212=
####018001299####
SNVD17 KWNB 092000 RRA
BBXX
46066 09201 99527 71550 46/// ///// 10082 40030 52032 91950 22200
00081 10605 70025 555 83600 91859=
46001 09201 99563 71480 46/// /0905 10094 40073 50000 91950 22200
00093 10604 20402 300// 40604 70020 333 91209 555 11048 22051
31855 40909 61949 088046 088046 088049 091048 090048 091052=
46082 09201 99597 71434 46/// /0604 10105 40139 57005 91950 22200
00118 10902 20301 300// 40902 70012 333 91204 555 11040 22041
31915 41005 61949 064038 080038 088039 093038 093039 085032 80904
91916=
46081 09201 99608 71483 46/// /2101 10086 40139 56009 91950 22200
00107 1//00 70001 333 91201 555 11006 22006 31922 43302 61949
221005 008002 345010 295006 287008 278008=
46035 09201 99571 71778 46/// /0212 10075 40061 51005 91950 22200
10906 20905 300// 41203 70032 333 91214 555 11115 22123 31908
40414 61949 021115 027111 034105 033108 034110 034109 80212 91949=
51101 09201 99243 71621 46/// /0908 10248 40208 51008 91950 22200
00258 10703 20703 311// 41101 70016 555 11087 22092 31926 40811
61949 092083 087084 082092 079089 086088 086087=
46061 09201 99602 71468 46/// /3505 10104 40135 56008 91950 22200
00123 10902 20501 300// 40902 70011 333 91206 555 11057 22059
31900 43507 61949 351054 348053 346054 343056 344057 346054=
