####018001541####
SMBM01 VBRR 100000 RRA
AAXX 10004
48001 NIL=
48004 31110 70000 10256 20256 71022 87900 333 20249 56500=
48008 21456 80000 10248 20248 40036 75055 8497/ 333 20242 56459
 59021=
48010 32550 60000 10270 20263 40033 83830 333 20230 56560 59009=
48018 21340 80000 10265 20256 40040 70295 8497/ 333 20178 56599
 58007=
48019 21458 80000 10250 20250 40051 75166 8577/ 333 20242 56459
 59016=
48020 NIL=
48025 NIL=
48035 31560 80000 10240 20226 40049 70522 8597/ 333 20224 56449
 58000=
48037 32558 61801 10278 20250 40030 83830 333 20260 56650 59008=
48042 32558 61802 10275 20250 40038 84850 333 20270 56440 59008=
48045 NIL=
48048 NIL=
48053 22450 71803 10250 20233 40054 84551 333 20244 56499 59003=
48057 22339 72201 10189 20175 85870 333 20183 56690=
48060 32420 70000 10249 20219 40057 84930 333 20242 56560 59005=
48062 21348 80904 10260 20260 40058 76366 8692/ 333 20225 56490
 59020=
48071 NIL=
48077 21557 70000 10260 20229 40044 70262 85930 333 20230 56990
 59010=
48078 22430 72301 10257 20247 40079 8477/ 333 20245 56499 59003=
48080 21560 60000 10250 20233 40083 70155 84870 333 20240 56590
 58001=
48094 32456 70000 10255 20250 40071 70365 85970 333 20248 56990
 59011=
48097 32456 82701 10260 20253 40082 86339 333 20260 56699 58004=
48108 22495 80000 10240 20240 40091 84877 333 20230 56189 59003=
48109 NIL=
48110 21591 81302 10240 20240 40094 74055 81307 333 20235 56909
 59003=
48112 21597 62701 10264 20246 40093 70152 82816 333 20220 56699
 59013=
####018000071####
SNAL53 EUMS 100200 RRB
AAXX 10024
60660 46/// /3507 10371 21022=
####018000071####
SNAL53 EUMS 100200 RRA
AAXX 10024
60662 46/// /0000 10272 21012=
####018000067####
SNAL55 EUMS 100200
AAXX 10024
60617 46/// /0223 10311 21046=
####018000071####
SNAL52 EUMS 100200 RRB
AAXX 10024
60661 46/// /3613 10270 21038=
####018000071####
SNAL51 EUMS 100200 RRB
AAXX 10024
60664 46/// /0306 10257 20002=
####018000071####
SNAL54 EUMS 100200 RRA
AAXX 10024
60676 46/// /0809 10290 20014=
####018000071####
SNAL52 EUMS 100200 RRA
AAXX 10024
60633 46/// /1207 10322 21036=
####018000071####
SNAL51 EUMS 100200 RRC
AAXX 10024
60672 46/// /1406 10279 21026=
####018000067####
SNAL57 EUMS 100200
AAXX 10024
60691 46/// /0111 10295 21009=
####018000071####
SNAL54 EUMS 100200 RRB
AAXX 10024
60677 46/// /0000 10289 20007=
####018000067####
SNAL52 EUMS 100200
AAXX 10024
60667 46/// /0000 10288 21003=
####018000140####
SNLY40 EUMS 100200 RRA
AAXX 10024
62140 46/// /0000 10210 20153 39772 40134 56010=
62210 46/// /0405 10265 20049 39596 40115 56008=
####018000067####
SNAL56 EUMS 100200
AAXX 10024
60692 46/// /0514 10349 21004=
####018000079####
SNSE01 LFVW 100200
AAXX 1002/
94997 46/// ///// 10024 39963 49978 5////=
####018000079####
SNSE01 LFVW 100100
AAXX 1001/
94997 46/// ///// 10015 39952 49967 5////=
####018000071####
SNAL51 DAMM 100200 RRA
AAXX 10024
60595 46/// /0000 11451 21610=
####018000191####
SMCN25 CWAO 100000 RRJ
AAXX 10004
71520 16/// ///// 10196 20166 39452 40096 55003 60001 333 10222
7////=
71523 16/// ///// 10206 20199 39718 40077 57007 60001 333 10227
7////=

####018000071####
SMAA14 KARS 100000 RRA
AAXX 10004
89049 46/// /1810 4//// 5////=
####018000083####
SNAA17 LFVW 100100 RRA
AAXX 10014
89586 46/// /04// 11312 37468 4//// 5////=
####018000067####
SNTP01 LFVW 100200
AAXX 1002/
61932 46/// ///// 4//// 5////=
####018000072####
SALY31 HLLT 100230
METAR HLLT 100220Z 09006KT 6000 SKC 22/19 Q1017=
####018000073####
SNTP01 LFVW 100100
AAXX 10014
61932 46/// /1509 10240 40153 5////=
####018000130####
SNAA19 LFVW 100200
AAXX 10024
89661 46/// /2348 11180 39077 4//// 5////=
89666 46/// /2618 11204 29053 39584 4//// 5////=
####018000169####
SNAA17 LFVW 100200
AAXX 10024
89586 46/// /04// 11331 37468 4//// 5////=
89578 46/// /04// 11544 36796 4//// 5////=
89577 46/// /3003 11718 38136 4//// 5////=
####018000105####
SNIY21 LIIB 100200 RRA
AAXX 10024
16344 42962 00206 10110 20102 38377 48555 54000 333 95000 95100=
####018001063####
SMTU10 LTAA 100000
AAXX 10004
17031
32670 52906 10233 20204 30107 40113 57004 83250
333 83836 85360=
17038
32560 62304 10247 20207 30067 40115 58004 84650
333 83795 84835 86360=
17050
11560 73202 10186 20158 30098 40158 50008 6001/ 78022 85270
333 85830 87458=
17060
11660 43205 10193 20176 30100 40139 56001 6992/ 70281 84200
333 84835=
17096
32970 02202 10087 20031 38253 48504 58001
333=
17124
32960 02707 10162 20128 39252 40125 58001
333=
17128
32970 22401 10176 20143 39063 40097 50002 82030
333 82360=
17170
32970 00602 10151 20027 38336 48497 58003
333=
17195
32970 03600 10198 20146 38935 48491 52006
333=
17199
32970 01706 10247 20052 39035 40035 51004
333=
17219
32965 03616 10217 20156 39981 40119 58008
333 90760 91124=
17240
32970 03201 10159 20109 39014 40100 54000
333 90760 91108=
17244
32970 03018 10203 20105 38973 48505 52006
333=
17280
32970 01801 10210 20028 39322 40048 53001
333=
17350
32560 33403 10230 20224 30095 40169 58004 83100
333 83830=
####018000333####
SMTU12 LTAA 100000 RRA
AAXX 10004
17116
1/9// /2304 10201 20190 30029 40145 57004 6996/
333=
17188
3/9// /3502 10164 20106 39100 40110 58001
333=
17292
3/9// /3104 10184 20125 39374 40090 57008
333=
17310
3/9// /0502 10257 20214 30087 40095 57006
333=
17330
3/9// /3600 10235 20191 30075 40095
333=
####018000514####
SMGR01 LGAT 100000
AAXX 10004
16622
32560 33603 10228 20151 30162 40169 51002 82130
333 4/000 82830 83358 90730 91109=
16641
32560 13600 10198 20151 30150 40155 50000 81100
333 4/000 90730 91105=
16682
32960 03600 10188 20161 30151 40169 58002
333 4/000 90730 91103=
16716
32960 03600 10232 20145 30138 40155 54000
333 4/000=
16749
32960 02408 10236 20186 30073 40086 58007
333 4/000 90730 91115=
16754
32565 23112 10242 20175 30094 40139 56005 82200
333 4/000 90730 91120=
####018000374####
SMTU13 LTAA 100000 RRA
AAXX 10004
17042
3/9// /1001 10237 20213 30080 40120
333=
17074
3/9// /3600 10180 20174 39220 40104 57005
333=
17155
3/9// /3102 10158 20130 39057 40117 57005
333=
17237
3/9// /2405 10202 20135 39638 40115 58000
333=
17250
3/9// /2402 10203 20094 38782 40057
333=
17320
3/9// /3600 10233 20203 30089 40095
333=
####018000489####
SMTU13 LTAA 100000
AAXX 10004
17086
32670 41102 10220 20153 39410 40077 54000 84200
333 84835=
17088
32670 62502 10189 20167 38784 48507 51004 84250
333 84840 86360=
17140
32965 03600 10176 20166 38689 48488 53002
333=
17203
32970 02502 10200 20049 38850 48532 54000
333=
17270
32970 00601 10241 20147 39459 40056 58001
333=
17295
32960 03501 10226 20181 30084 40091 57003
333=
17375
32970 03501 10239 20181 30093 40095 57003
333 90760 91104=
####018000374####
SMTU11 LTAA 100000 RRA
AAXX 10004
17034
3/9// /3600 10243 20186 30072 40117
333=
17084
3/9// /3102 10184 20169 39241 40087 57002
333=
17184
3/9// /3303 10209 20158 30027 40134 57005
333=
17210
3/9// /3600 10254 20027 39099 40045
333=
17234
3/9// /0401 10198 20148 30047 40110 58002
333=
17370
3/9// /3600 10251 20208 30090 40095
333=
####018000691####
SMTU12 LTAA 100000
AAXX 10004
17024
32670 52009 10196 20185 30047 40121 51001 83250
333 83835 85360 90760 91113=
17056
32970 03004 10190 20160 30152 40156 50000
333 90760 91112=
17067
32670 62907 10217 20184 30112 40133 58001 86200
333 86840 90760 91116=
17092
32960 03600 10161 20054 38834 48491 51004
333=
17112
32670 50301 10207 20153 30157 40159 57010 83230
333 83835 85360 90760 91113=
17115
32660 52802 10187 20164 30095 40144 57005 83130
333 83835 85360=
17202
32970 02104 10160 20041 39111 40058 52004
333=
17248
32975 02803 10210 20117 38951 48495 52007
333=
17300
32560 33202 10241 20209 30024 40096 57005 83100
333 83830=
####018000378####
SMGR20 LGAT 100000
AAXX 10004
16643
32560 23600 10202 20166 30160 40166 58003 81130
333 4/000 90730 91105=
16648
32560 43600 10260 20163 30070 40155 52001 82130
333 4/000 82830 83358 90730 91104=
16650
32560 23600 10200 20153 30146 40150 57005 82100
333 4/000 90730 91105=
16684
32560 20904 10220 20172 30122 40149 57007 82100
333 4/000 90730 91108=
####018000384####
SMGR21 LGAT 100000
AAXX 10004
16627
32560 53600 10204 20171 30150 40154 57006 83150
333 4/000 83825 85358 90730 91107=
16667
32568 12703 10216 20167 30139 40145 58008 81100
333 4/000 90730 91116=
16723
31560 13310 10228 20177 30102 40116 58004 702// 81100
333 4/000 90730 91128=
16746
32560 13600 10212 20170 39974 40150 57006 81200
333 4/000 90730 91105=
####018000495####
SNVD22 KWNB 100200 RRI
BBXX
46245 10021 99343 71193 46/// ///// 1//// 90206 22200 00164 11301
21001 319// 41301 70007=
46243 10021 99462 71241 46/// ///// 1//// 90204 22200 00134 10803
20802 321// 41301 70013=
46241 10021 99330 71173 46/// ///// 1//// 90208 22200 00184 11201
20901 322// 41201 70006=
46240 10021 99366 71219 46/// ///// 1//// 90215 22200 00130 10401
20401 70004=
46237 10021 99378 71226 46/// ///// 1//// 90206 22200 00138 11301
20501 322// 41301 70007=
####018000317####
SNVE15 KWNB 100200 RRD
BBXX
51200 10021 99211 71583 46/// ///// 1//// 90213 22200 00259 10603
20603 315// 41101 70015=
51203 10021 99208 71570 46/// ///// 1//// 90215 22200 00260 11701
21001 320// 41701 70006=
51201 10021 99217 71581 46/// ///// 1//// 90212 22200 00256 10602
20602 305// 41101 70012=
####018000127####
SNVD22 KWNB 100200 RRK
BBXX
46218 10021 99345 71208 46/// ///// 1//// 90213 22200 00146 11302
20402 319// 41301 70012=
####018000590####
SNVD22 KWNB 100200 RRJ
BBXX
46229 10021 99438 71246 46/// ///// 1//// 90138 22200 00126 11402
20702 320// 41401 70011=
46216 10021 99343 71198 46/// ///// 1//// 90154 22200 00169 10402
20402 70008=
46225 10021 99329 71174 46/// ///// 1//// 90155 22200 00179 11302
21001 320// 41301 70008=
46223 10021 99335 71178 46/// ///// 1//// 90156 22200 00185 11301
21001 318// 41301 70007=
46222 10021 99336 71183 46/// ///// 1//// 90148 22200 00182 11201
20301 316// 41201 70006=
46215 10021 99352 71209 46/// ///// 1//// 90139 22200 00127 11302
20901 320// 41301 70008=
####018000103####
SNIY21 LIIB 100200 RRA
AAXX 10024
16344 42962 00206 10110 20102 38377 48555 54000 333 95000 95100=
####018000074####
SALY31 HLLT 100230
METAR HLLT 100220Z 
09006KT 6000 SKC 22/19 Q1017=
####018000127####
SNVD22 KWNB 100200 RRL
BBXX
46242 10021 99332 71174 46/// ///// 1//// 90157 22200 00176 11301
21001 321// 41301 70007=
####018000222####
SNVD22 KWNB 100200 RRM
BBXX
46211 10021 99469 71242 46/// ///// 1//// 90206 22200 00132 10703
20702 323// 41301 70013=
46214 10021 99379 71235 46/// ///// 1//// 90204 22200 00099 11302
20802 318// 41301 70011=
####018000137####
SNAL51 DAMM 100200 RRB
AAXX 10024
60639 46/// /0211 10300 20025=
60381 46/// /3201 10219 20196=
60393 46/// /0000 10231 20202=
####018000127####
SNVD22 KWNB 100200 RRN
BBXX
46221 10021 99339 71186 46/// ///// 1//// 90147 22200 00173 11302
21001 320// 41301 70008=
####018000638####
SNVD20 KWNB 100200 RRL
BBXX
44098 10021 99428 70702 46/// ///// 1//// 90207 22200 00197 10802
20802 70011=
44033 10021 99441 70690 46/03 /2602 10161 40119 55000 90204 22200
00145 10401 70007 333 91203 555 11033 22039=
44034 10021 99441 70681 46/03 /1706 10152 40130 55000 90204 22200
00126 10602 70010 333 91206 555 11076 22087=
44039 10021 99411 70727 46/// /1504 10251 20231 40121 90215 22200
1//00 70001 333 91205=
44060 10021 99413 70721 46/// /1001 10207 40124 90215 22200 00189
333 91201 555 11005 22010=
44022 10021 99409 70737 46/// /1903 10251 20213 40117 90215 22200
00242 333 91205 555 11036 22041=
####018000127####
SNVE15 KWNB 100200 RRE
BBXX
51202 10021 99214 71577 46/// ///// 1//// 90140 22200 00256 10503
20503 306// 41101 70016=
####018000209####
SNVD22 KWNB 100200 RRO
BBXX
46088 10021 99483 71232 46/// /2506 10148 40132 90220 22200 00119
10301 20301 70004 333 91208 555 11067 22071 30137 42209 60219
246064 241071 229075 223077 218076 222079=
####018000241####
SNVD15 KWNB 100200 RRI
BBXX
41114 10021 99276 70802 46/// ///// 1//// 90212 22200 00282 10301
20301 70005=
42362 10021 99278 70907 46/// /1201 10289 20206 40173 90215=
42364 10021 99291 70881 46/// /0000 10278 20217 40166 90215=
####018000125####
SNVD45 KWNB 100200 RRG
BBXX
45022 10021 99454 70851 46/// /2801 10211 40170 90220 22200 00201
1//00 70002 333 91201=
####018000918####
SNAL50 DAMM 100200
AAXX 10024
60612 46/// /0710 10271 21040=
60617 46/// /0223 10311 21046=
60619 46/// /0311 10260 21006=
60621 46/// /0516 10311 21023=
60633 46/// /1207 10322 21036=
60650 46/// /0820 10353 20000=
60660 46/// /3507 10371 21022=
60661 46/// /3613 10270 21038=
60662 46/// /0000 10272 21012=
60663 46/// /1208 10300 21023=
60664 46/// /0306 10257 20002=
60667 46/// /0000 10288 21003=
60672 46/// /1406 10279 21026=
60673 46/// /0703 10281 21035=
60674 NIL=
60675 46/// /1808 10330 20002=
60676 46/// /0809 10290 20014=
60677 46/// /0000 10289 20007=
60679 46/// /0000 10164 21044=
60681 46/// /0610 10275 21033=
60682 46/// /0000 10235 21023=
60683 NIL=
60685 NIL=
60688 NIL=
60689 46/// /1406 10307=
60691 46/// /0111 10295 21009=
60692 46/// /0514 10349 21004=
60693 46/// /0914 10316 21009=
60694 46/// /0910 10282 21023=
60695 NIL=
####018000095####
SIYE70 OYRN 092100
AAXX 09214
41443 41957 00206 10292 20227 30023 40040 70544 333 58005=
