####018000127####
SNVD22 KWNB 092200 RRT
BBXX
46224 09221 99332 71175 46/// ///// 1//// 92216 22200 00178 11302
21001 319// 41301 70008=
####018000685####
SNVD22 KWNB 092300 RRF
BBXX
46232 09231 99325 71174 46/// ///// 1//// 92254 22200 00186 11302
21001 319// 41301 70008=
46244 09231 99409 71244 46/// ///// 1//// 92250 22200 00107 10702
20702 323// 41201 70011=
46236 09231 99368 71219 46/// ///// 1//// 92250 22200 00131 11302
20701 321// 41301 70008=
46212 09231 99408 71243 46/// ///// 1//// 92251 22200 00108 10702
20702 70010=
46217 09231 99342 71194 46/// ///// 1//// 92251 22200 00172 11301
21001 319// 41301 70006=
46213 09231 99403 71247 46/// ///// 1//// 92250 22200 00122 11402
20702 316// 41401 70012=
46231 09231 99327 71174 46/// ///// 1//// 92242 22200 00186 11202
21001 321// 41201 70008=
####018000127####
SNVD22 KWNB 092300 RRG
BBXX
46211 09231 99469 71242 46/// ///// 1//// 92236 22200 00154 10702
20702 322// 41301 70011=
####018000089####
SIPS40 AMMC 092100 RRG
AAXX 09214
91375 46/// /0503 10279 40118 22200 00282=


####018000222####
SNVD17 KWNB 092300 RRB
BBXX
52201 09231 99071 11714 46/// ///// 1//// 92255 22200 00287 11102
20902 316// 41101 70012=
46239 09231 99363 71221 46/// ///// 1//// 92253 22200 00141 11302
20802 318// 41301 70010=
####018000404####
SNIY21 LIIB 092300
AAXX 09234
16022 42970 00205 10156 20122 37980 48592 53004=
16052 42962 02103 10080 21048 36794 47242 58001=
16061 42965 01503 10240 20195 39394 42844 51006=
16098 42960 00000 10230 20207 30157 40206 51006=
16179 42982 01803 10230 20087 39550 42850 51001=
16224 42962 00000 10240 20219 39879 40184 51001=
16258 42960 03310 10166 20081 39240 42838 5////=
16344 NIL=
####018000753####
SNIY20 LIIB 092300
AAXX 09234
16008 NIL=
16088 NIL=
16110 42997 00402 10232 20196 30199 40203 51002 555 0////=
16134 42984 00103 10162 20089 37940 48593 54000=
16153 42998 03606 10268 20235 39950 40202 54000 555 0////=
16206 42970 00106 10254 20217 30174 40182 51007=
16219 NIL=
16280 NIL=
16310 42998 03201 10216 20159 39970 40185 54001 555 0////=
16360 42998 03614 10210 20176 30045 40176 51004 555 0////=
16400 NIL=
16420 42998 00000 10252 20207 30121 40184 51001 555 0////=
16429 42962 00000 10264 20250 30180 40191 54000=
16470 NIL=
16480 42997 03003 10254 20245 30119 40178 52007 555 0////=
16522 42997 00307 10252 20189 39958 40192 51002 555 0////=
16550 42998 02805 10258 20258 30010 40182 51007 555 0////=
####018000690####
SNVD15 KWNB 092300 RRF
BBXX
41141 09231 99177 70646 46/// ///// 1//// 92251 22200 00296 10603
20603 70015=
41140 09231 99178 70647 46/// ///// 1//// 92252 22200 00293 10702
20702 70008=
44100 09231 99363 70756 46/// ///// 1//// 92252 22200 00266 10702
20702 70012=
44235 09231 99473 70573 46/// ///// 1//// 92254 22200 00125 10602
20602 70012=
41110 09231 99341 70777 46/// ///// 1//// 92257 22200 00272 10302
20301 70008=
42099 09231 99273 70842 46/// ///// 1//// 92249 22200 00310 1//00
70002=
41113 09231 99284 70805 46/// ///// 1//// 92251 22200 00281 10801
20801 70003=
41112 09231 99307 70813 46/// ///// 1//// 92251 22200 00284 10901
20901 70006=
####018001913####
SNRO41 YRBK 092300
AAXX 09231
15015 22997 11601 10145 20126 39633 42845 57003 81040 333 60005 91004
91104=
15020 22597 63103 10192 20148 30007 40198 50000 86500 333 60005 91005
91107=
15090 22597 83102 10200 20159 30058 40179 50000 8657/ 333 55300 10086
2////
3//// 60005 91006 91107=
15108 NIL=
15120 22997 02202 10153 20153 39728 40213 50001 333 55300 10187 2////
3////
60005 91003 91103=
15150 22997 53305 10202 20151 39968 40186 54001 85030 333 60005 91008
91108=
15170 23/// /2101 10121 20118 39436 42828 57003 333 60005 91001
91102=
15200 22998 00401 10177 20146 30061 40201 58004 333 60005 91002
91104=
15230 22997 01701 10164 20161 39922 40208 54001 333 55300 10159 2////
3////
60005 91002 91102=
15260 22998 52602 10164 20144 39681 40202 57004 85070 333 60005 91004
91106=
15280 21/90 90216 10049 20049 37570 47129 58002 74544 333 60005
91024=
15292 22998 20601 10174 20157 39918 40204 50000 82030 333 60005 91002
91103=
15310 23/// /3602 10193 20176 30072 40155 50000 333 55300 10065 2////
3////
60005 91005 91106=
15335 22997 73302 10204 20190 30143 40149 57004 87070 333 60005 91004
91107=
15346 22997 32500 10176 20143 39900 40181 50001 83070 333 60005 91001
91101=
15350 22597 80202 10223 20154 30052 40166 55004 8437/ 333 60005 91006
91108=
15360 22997 73404 10210 20204 30119 40133 54001 87070 333 60005 91008
91108=
15410 22997 00500 10190 20153 30089 40182 52002 333 60005 91001
91102=
15420 22997 63101 10173 20164 30069 40176 57008 86070 333 60005 91001
91102=
15450 23/// /0402 10198 20146 39946 40172 54001 333 55300 10176 2////
3////
60005 91004 91104=
15460 22597 83201 10184 20177 30138 40162 55006 8657/ 333 60005 91003
91104=
15470 23/// /1302 10190 20176 30050 40172 50006 333 60005 91003
91105=
15480 21597 83502 10207 20192 30127 40143 54001 72582 889// 333 69905
91007
91108=
####018000247####
SNVD15 KWNB 092300 RRG
BBXX
42003 09231 99260 70856 46/// /0000 10295 20229 40150 56014 92250
22200 00306 10401 20401 3//// 40601 70004 333 91201 555 11005
22005 32221 43502 62249 089005 042004 355006 048010 080007 108007
83601 92221=
####018000085####
SNPS40 AMMC 092200
AAXX 09224
91844 46/// /0708 10257 40194 22200 00251=


####018000124####
SNVD02 CWAO 092300
BBXX
CGDX 09234 99624 70699 46/// /1205 10052 20046 40052 56004 7//// 8//// 22242 00051 2//// =

####018000126####
SNVD02 CWAO 092300
BBXX
CG2965 09234 99491 71235 46/// /3115 10231 20158 40139 56010 7//// 8//// 22251 00198 2//// =

####018000124####
SNVD02 CWAO 092300
BBXX
CGDG 09234 99439 70589 46/// /2217 10180 20179 40205 55002 7//// 8//// 22221 0//// 2//// =

####018000124####
SNVD02 CWAO 092300
BBXX
CGTF 09234 99637 70685 46/// /1415 10075 20061 40061 55004 7//// 8//// 22200 0//// 2//// =

####018000124####
SNVD02 CWAO 092300
BBXX
VOPP 09234 99452 70741 46/// /2501 10231 20216 40006 56009 7//// 8//// 22200 0//// 2//// =

####018000124####
SNVD02 CWAO 092300
BBXX
CGBN 09234 99476 70527 46/// /2414 10216 20157 40119 53001 7//// 8//// 22200 0//// 2//// =

####018000126####
SNVD02 CWAO 092300
BBXX
CG2958 09234 99487 71235 46/// /0907 10279 20128 40146 58009 7//// 8//// 22200 0//// 2//// =

####018000124####
SNVD02 CWAO 092300
BBXX
CGDP 09234 99507 71275 46/// /0408 10171 20110 40188 5//// 7//// 8//// 22200 0//// 2//// =

####018000125####
SNVD02 CWAO 092300
BBXX
VRYO3 09234 99514 10035 46/// /2514 10209 20146 40179 53005 7//// 8//// 22262 00208 2//// =

####018000121####
SNVD02 CWAO 092300
BBXX
V 09234 99476 70527 46/// /2313 10224 20179 40120 53003 7//// 8//// 22200 0//// 2//// =

####018000124####
SNVD02 CWAO 092300
BBXX
CGJK 09234 99526 71409 46/// /2423 10105 20101 40117 54000 7//// 8//// 22263 00105 2//// =

####018000124####
SNVD02 CWAO 092300
BBXX
CGHL 09234 99618 70659 46/// /0318 10026 20021 40052 53002 7//// 8//// 22222 0//// 2//// =

####018000093####
SNRE15 FMEE 092300
AAXX 09234
61998 26/// /2714 10045 21001 40109
  333 58121 60005=
####018000093####
SNRE15 FMEE 092300
AAXX 09234
61996 26/// /2712 10118 20109 40236
  333 59016 60005=
####018000126####
SNVD02 CWAO 092300
BBXX
CG2350 09234 99421 70831 46/// /3508 10283 20094 49920 56005 7//// 8//// 22200 0//// 2//// =

####018000126####
SNVD02 CWAO 092300
BBXX
CG2992 09234 99694 71338 46/// /3017 10177 20066 40106 53007 7//// 8//// 22251 0//// 2//// =

####018000124####
SNVD02 CWAO 092300
BBXX
VCLM 09234 99467 70715 46/// /1207 10231 20209 40078 50008 7//// 8//// 22251 00246 2//// =

####018000126####
SNVD02 CWAO 092300
BBXX
CG2522 09234 99619 71137 46/// /3017 10110 20064 49927 50001 7//// 8//// 22211 00086 2//// =

####018000126####
SNVD02 CWAO 092300
BBXX
VC6750 09234 99609 71157 46/// /0609 10162 20094 49947 56004 7//// 8//// 22200 0//// 2//// =

####018000109####
SNVD15 KWNB 092200 RRX
BBXX
44055 09221 99391 70753 46/// ///// 1//// 92230 22200 00250 10301
70004=
####018000089####
SNNC22 NWBB 092200 RRA
AAXX 09224
91598 46/// /3312 10230 20190 30123 40154 51019=
####018000115####
SNDL23 EDZW 092300 CCB
AAXX 09231
10791 42989 11202 10178 20123 38641 48587 50004 80001
  333 55300 81074=
####018000124####
SNVD02 CWAO 092300
BBXX
CGDT 09234 99639 70798 46/// /1311 10057 20055 40038 57008 7//// 8//// 22233 00033 2//// =

####018000124####
SNVD02 CWAO 092300
BBXX
CGBR 09234 99527 71290 46/// /1206 10164 20124 40187 53007 7//// 8//// 22271 00134 2//// =

####018000326####
SAYE20 OYSC 092300
METAR OYSN 092300Z VRB02KT 8000 SCT030 17/14 Q1021=
METAR OYTZ 092300Z 00000KT 9999 SCT030 27/15 Q1009=
METAR OYHD 092300Z 04006KT 7000 SCT030 SCT060 30/27 Q////=
METAR OYDM 092300Z 14006KT 9999 SCT020 12/10 Q////=
METAR OYRN 092300Z NIL=
METAR OYSY 092300Z 18003KT 140V260 CAVOK 30/20 Q1006=
####018000127####
SNVD02 CWAO 092300
BBXX
CFN3031 09234 99462 70728 46/// /1103 10220 20201 40082 56005 7//// 8//// 22213 00244 2//// =

####018000124####
SNVD02 CWAO 092300
BBXX
VOLG 09234 99445 70635 46/// /2217 10201 20200 40163 56007 7//// 8//// 22241 0//// 2//// =

####018000071####
SINO23 ENMI 092100 RRC
AAXX 09211
01015 46/// /1003 10126 20088=
####018000499####
SNAU06 AMMC 092300
AAXX 09234
94850 11662 80419 10121 20082 30120 40166 55006 69904 76066 8462/
  333 79999=
94954 15/// /0624 10118 20102 30071 40183 56014 69924
  333 70002=
94956 15/// /0204 10107 20065 30162 40189 56010 69924
  333 70002=
94975 11680 72906 10033 20020 30202 40236 58018 60004 70511 82501
  333 70000=
94983 15/// /0426 10136 20100 30220 40246 58017 69944
  333 70004=
94998 11256 82721 10055 20045 30182 40192 53008 69904 71052 886//
  333 79999=

####018000149####
SNPF80 KWBC 092300
AAXX 09234
91925 22475 70914 10268 20218 30065 40125 58021 878// 333 60005
56299 84816 84820 90710 91129 555 60005 1//29=
####018000247####
SNVD15 KWNB 092300 RRH
BBXX
41041 09231 99144 70460 46/// /0807 10276 20243 40149 53013 92250
22200 00276 10704 20503 300// 40702 70018 333 91209 555 11078
22083 32153 40710 62249 077073 077074 078077 075079 072074 073077
80809 92215=
####018000122####
SNAC01 KWNB 092300 RRA
OOXX
ACSAMS01 09231 99808 70664 90706 01741 46/// /2008 10044 20004 39839
92303 333 91210=
####018000027####
SNVE20 EHDB 092300
NIL
####018000027####
SNVJ20 EHDB 092300
NIL
####018000709####
SNVD20 KWNB 092300 RRF
BBXX
44097 09231 99410 70711 46/// ///// 1//// 92301 22200 00241 10702
20702 70010=
44027 09231 99443 70673 46/// /1605 10150 20150 40140 56017 92250
22200 00128 10702 20501 300// 40701 70008 333 91206 555 11060
22070 32234 41606 62249 157053 156057 157046 161047 160049 159047=
44060 09231 99413 70721 46/// /1104 10217 40117 57016 92300 22200
00197 333 91204 555 11046 22057=
44008 09231 99405 70692 46/// /1605 10210 20209 40128 56019 92250
22200 00190 10703 20401 317// 40702 70013 333 91206 555 11057
22066 32200 41507 62249 159050 156057 161046 167043 160056 150054=
44070 09231 99414 70710 46/// ///// 1//// 92306 22200 10801 20401
318// 40801 70007=
####018000476####
SNVD17 KWNB 092300 RRC
BBXX
46076 09231 99595 71480 46/// /0906 10106 20103 40121 57005 92250
333 91208 555 11067 22071=
46083 09231 99582 71380 46/// /1502 10125 20111 40131 58007 92250
22200 00119 11502 300// 41502 70010 333 91203 555 11027 22032
32235 41403 62249 151024 138025 129024 128024 128021 136016 81403
92235=
23020 09231 99222 10385 46/// ///// 1//// 92250 22200 10703 70015=
32012 09231 99196 50854 46/// ///// 1//// 92250 22200 11507 70034=
####018000806####
SNVD22 KWNB 092300 RRH
BBXX
46014 09231 99392 71240 46/// /2502 10119 40145 54000 92250 22200
00110 11302 20301 300// 41302 70010 333 91202 555 11020 22020
32247 42402 62249 244016 256009 257008 237009 239012 266016=
46050 09231 99446 71245 46/// /3505 10160 40167 54000 92250 22200
00152 10702 20501 332// 40702 70010 333 91206 555 11058 22064
32232 43506 62249 348053 350053 346049 343049 348045 350045=
46047 09231 99324 71195 46/// /3006 10144 40138 56012 92250 22200
11302 20401 320// 41302 70011 333 91208 555 11067 22071 32248
43008 62249 304063 308063 308062 313059 314060 316061=
46027 09231 99419 71244 46/// /3304 10112 40116 58004 92250 22200
00117 10602 20301 332// 40602 70011 333 91204 555 11038 22039
32152 43407 62249 328037 335039 340041 340048 339059 338061=
####018000127####
SNVE15 KWNB 092300 RRC
BBXX
52200 09231 99134 11448 46/// ///// 1//// 92252 22200 00298 10803
20803 310// 41101 70016=
