####018000119####
SNPF80 KWBC 091900 RRB
AAXX 09194
91948 22580 31906 10217 20173 30136 40240 51010 83100 333 60005
56300 83820=
####018000483####
SMVD20 KWNB 091800 RRU
BBXX
42085 09181 99179 70665 46/// /1008 10298 40147 91830 22200 10603
70014 333 91209=
42085 09181 99179 70665 46/// /1007 10294 40148 91820 333 91208=
42085 09181 99179 70665 46/// /0907 10292 40149 91810 333 91209=
44037 09181 99435 70679 46/16 /1805 10187 40169 58005 91804 22200
00180 10802 70009 333 91206 555 11058 22065=
44024 09181 99423 70659 46/30 /1703 10208 40190 57010 91804 22200
00191 10802 70012 333 91204 555 11050 22059=
####018000113####
SIVD15 KWNB 091500 RRX
BBXX
42047 09151 99279 70936 46/// /1304 1//// 40171 91530 22200 00288
333 91205=
####018000407####
SNAL51 DAMM 091900
AAXX 09194
AAXX 09191
60370 46/// /0102 10238 20209=
60371 46/// /3101 10248 20203=
60372 46/// /1004 10244 20128=
60373 NIL=
60374 NIL=
60376 NIL=
60379 NIL=
60380 NIL=
60381 NIL=
60393 NIL=
60394 NIL=
60593 NIL=
60595 NIL=
60605 NIL=
60613 NIL=
60623 NIL=
AAXX 09194
60624 46/// /0618 10424 21009=
60639 NIL=
60645 46/// /0511 10417 21087=
####018000113####
SMBZ06 SBBR 091800 RRC
AAXX 09184
82993 21565 41106 10266 20203 30011 40148 70561 83130
333 58004 60031=
####018000117####
SMBZ04 SBBR 091200 CCA
AAXX 09124
83936 21496 81803 10126 20115 30080 40207 51008 71096 8337/ 333 20087 60114=
####018000071####
SNAL51 DAMM 091900 RRA
AAXX 09194
60595 46/// /0000 11451 21652=
####018000389####
SMAA01 KARS 091800 RRB
AAXX 0918/
89377 46/// ///// 11358 39786 4//// 5//// 91810=
89376 46/// ///// 11364 39698 4//// 5//// 91810=
89324 46/// ///// 11386 37939 4//// 5//// 91810=
89799 46/// ///// 11629 4//// 5//// 91810=
89868 46/// ///// 11310 39716 4//// 5//// 91810=
89108 46/// ///// 11620 36889 4//// 5//// 91810=
89314 46/// ///// 11320 38044 4//// 5//// 91810=
####018000067####
SNAL55 EUMS 091900
AAXX 09194
60617 46/// /0216 10392 21086=
####018000071####
SNAL54 EUMS 091900 RRB
AAXX 09194
60676 46/// /0511 10329 21031=
####018000071####
SNAL52 EUMS 091900 RRB
AAXX 09194
60661 46/// /0108 10363 21045=
####018000067####
SNAL56 EUMS 091900
AAXX 09194
60692 46/// /0313 10388 20000=
####018000071####
SNAL54 EUMS 091900 RRC
AAXX 09194
60677 46/// /0000 10334 21010=
####018000071####
SNAL51 EUMS 091900 RRB
AAXX 09194
60664 46/// /0000 10331 21010=
####018000067####
SNAL57 EUMS 091900
AAXX 09194
60691 46/// /0609 10376 21043=
####018000071####
SNAL53 EUMS 091900 RRA
AAXX 09194
60660 46/// /3506 10410 21029=
####018000067####
SNAL52 EUMS 091900
AAXX 09194
60667 46/// /0000 10354 21016=
####018000071####
SNAL52 EUMS 091900 RRA
AAXX 09194
60633 46/// /1105 10407 21032=
####018000071####
SNAL51 EUMS 091900 RRC
AAXX 09194
60672 46/// /0506 10335 21036=
####018000241####
SNHK22 VHHH 091915
AAXX 09191
45032 36/// /9901 10265 20247 30073 40088 52003=
45035 36/// /1902 10264 20252 30043 40083 54000=
45039 36/// /1402 10285 20243 30067 40082 52002=
45044 36/// /2007 10266 20258 39997 40088 54000=

####018000238####
SNHK22 VHHH 091915
AAXX 09191
45032 36/// /9901 10265 20247 30073 40088 52003=
45035 36/// /1902 10264 20252 30043 40083 54000=
45039 36/// /1402 10285 20243 30067 40082 52002=
45044 36/// /2007 10266 20258 39997 40088 54000=
####018000267####
SMTD01 TTPP 091800 CCB
AAXX 09184
78970 11358 8//07 10276 20242 30110 40135 60011 76082 87972
333 06299 10320 20251 58018 81705 83908 85635 90915=
78962 11320 61015 10302 20256 30127 40135 69971 78082 83962
333 06299 10302 20246 58012 82908 83812 90915=
 
 
####018000274####
SMTD01 TTPP 091800 CCB
AAXX 09184
78970 11358 8//07 10276 20242 30110 40135 60011 76082 87972
333 06299 10320 20251 58018 81705 83908 85635 90915=
78962 11320 61015 10302 20256 30127 40135 69971 78082 83962
333 06299 10302 20246 58012 82908 83812 90915=
 
 
####018000266####
SMTD01 TTPP 091800 CCB
AAXX 09184
78970 11358 8//07 10276 20242 30110 40135 60011 76082 87972
333 06299 10320 20251 58018 81705 83908 85635 90915=
78962 11320 61015 10302 20256 30127 40135 69971 78082 83962
333 06299 10302 20246 58012 82908 83812 90915=
####018000095####
SNVD22 KWNB 091900 RRH
BBXX
46094 09191 99446 71243 46/// /3505 10142 40162 52004 91900=
####018000108####
SMCN33 CWAO 091800 RRJ
AAXX 09184
71383 17/// ///// 10209 20143 39539 58006 69921 7//4/ 333 7////=

####018000096####
SMCN25 CWAO 091800 RRG
AAXX 09184
71521 47/// ///// 10208 20153 6///1 7//4/ 333 7////=

####018000146####
SNVD22 KWNB 091900 RRI
BBXX
46094 09191 99446 71243 46/// /3504 10141 40162 91850=
46094 09191 99446 71243 46/// /3504 10141 40161 91840=
####018000266####
SMVD22 KWNB 091800 RRX
BBXX
46094 09181 99446 71243 46/// /3604 10140 40161 91830=
46094 09181 99446 71243 46/// /3504 10139 40160 91820=
46094 09181 99446 71243 46/// /3505 10138 40159 91810=
46094 09181 99446 71243 46/// /3405 10138 40159 57003 91800=
####018000146####
SMVD22 KWNB 091800 RRX
BBXX
46094 09181 99446 71243 46/// /3404 10137 40159 91750=
46094 09181 99446 71243 46/// /3404 10136 40159 91740=
####018000266####
SNVD22 KWNB 091700 RRX
BBXX
46094 09171 99446 71243 46/// /3405 10134 40160 91730=
46094 09171 99446 71243 46/// /3504 10134 40160 91720=
46094 09171 99446 71243 46/// /3404 10131 40160 91710=
46094 09171 99446 71243 46/// /3503 10128 40162 54000 91700=
####018000105####
SMCN33 CWAO 091800 RRJ
AAXX 09184
71383 17/// ///// 10209 20143 39539 58006 69921 7//4/ 333 7////=
####018000093####
SMCN25 CWAO 091800 RRG
AAXX 09184
71521 47/// ///// 10208 20153 6///1 7//4/ 333 7////=
####018000203####
SNVD22 KWNB 091600 RRX
BBXX
46094 09161 99446 71243 46/// /3503 10127 40161 91630=
46094 09161 99446 71243 46/// /0102 10126 40161 91620=
46094 09161 99446 71243 46/// /0302 10125 40160 91610=
####018000146####
SNVD22 KWNB 091700 RRX
BBXX
46094 09171 99446 71243 46/// /3603 10127 40162 91650=
46094 09171 99446 71243 46/// /3603 10127 40161 91640=
####018000317####
SNVD22 KWNB 091900 RRJ
BBXX
46243 09191 99462 71241 46/// ///// 1//// 91904 22200 00165 10602
20602 319// 41401 70008=
46241 09191 99330 71173 46/// ///// 1//// 91908 22200 00184 11301
21001 323// 41301 70006=
46237 09191 99378 71226 46/// ///// 1//// 91906 22200 00138 11301
21001 322// 41301 70007=
####018000071####
SNAL51 DAMM 091900 RRB
AAXX 09191
60381 46/// /3502 10245 20208=
####018000317####
SNVE15 KWNB 091900 RRD
BBXX
51200 09191 99211 71583 46/// ///// 1//// 91913 22200 00256 11703
20602 322// 41701 70014=
51203 09191 99208 71570 46/// ///// 1//// 91915 22200 00258 11801
20301 321// 41801 70007=
51201 09191 99217 71581 46/// ///// 1//// 91912 22200 00255 10603
20603 304// 41101 70014=
####018000590####
SNVD22 KWNB 091900 RRK
BBXX
46229 09191 99438 71246 46/// ///// 1//// 91838 22200 00120 10802
20802 321// 41401 70010=
46216 09191 99343 71198 46/// ///// 1//// 91854 22200 00163 10401
20401 70004=
46225 09191 99329 71174 46/// ///// 1//// 91855 22200 00179 11301
20901 319// 41301 70007=
46223 09191 99335 71178 46/// ///// 1//// 91856 22200 00180 11301
21001 319// 41301 70007=
46222 09191 99336 71183 46/// ///// 1//// 91848 22200 00179 11401
20501 318// 41401 70006=
46215 09191 99352 71209 46/// ///// 1//// 91839 22200 00133 11302
20801 321// 41301 70008=
####018000127####
SNVD22 KWNB 091900 RRM
BBXX
46242 09191 99332 71174 46/// ///// 1//// 91857 22200 00182 11301
21001 321// 41301 70007=
####018000127####
SNVD22 KWNB 091900 RRL
BBXX
46218 09191 99345 71208 46/// ///// 1//// 91913 22200 00145 10802
20802 320// 41301 70012=
####018000304####
SNAA01 KARS 091900
AAXX 0919/
89869 46/// ///// 11305 39739 4//// 5////=
89834 46/// ///// 11486 37316 4//// 5////=
89864 46/// ///// 11268 39687 4//// 5////=
89376 46/// ///// 11368 39699 4//// 5////=
89868 46/// ///// 11305 39723 4//// 5////=
89879 46/// ///// 11179 39660 4//// 5////=
####018000222####
SNVD22 KWNB 091900 RRN
BBXX
46211 09191 99469 71242 46/// ///// 1//// 91906 22200 00151 10702
20702 327// 41101 70011=
46214 09191 99379 71235 46/// ///// 1//// 91904 22200 00092 11202
20802 318// 41201 70012=
####018000109####
SNVD15 KWNB 091900 RRH
BBXX
41114 09191 99276 70802 46/// ///// 1//// 91912 22200 00298 11201
70003=
####018000113####
SNVD15 KWNB 091900 RRI
BBXX
42021 09191 99283 70833 46/// /3101 10295 40154 91840 22200 00297
333 91201=
####018000200####
SMVD15 KWNB 091800 RRT
BBXX
42021 09181 99283 70833 46/// /3101 10293 40155 91820 22200 00297
333 91202=
42021 09181 99283 70833 46/// /3601 10292 40157 54000 91800 22200
00297 333 91201=
####018000127####
SNVD22 KWNB 091900 RRO
BBXX
46221 09191 99339 71186 46/// ///// 1//// 91847 22200 00170 11301
21001 320// 41301 70007=
####018000912####
SMUY01 SUMU 091800
AAXX 09184
86330 32998 20000 10220 20113 40192 58007 81066=
86360 32998 11813 10194 20039 40205 56008 80001=
86460 32998 01704 10180 20048 40202 58008=
86490 32997 01910 10180 20083 40215 54004=
86530 32998 02104 10186 20059 40203 57014=
86545 32997 01808 10172 20133 40219 57003=
86565 32598 22108 10148 20094 40200 55001 82206=
86580 32997 02006 10130 20091 40220 54000=
86315 32998 10000 10200 20078 40203 57006 80005=
86350 32997 11706 10174 20120 40192 58010 80005=
86370 NIL=
86430 32998 11610 10180 20045 40220 58007 80006=
86440 32998 11605 10192 20047 4//// 5//// 80005=
86450 NIL=
86500 32998 02005 10180 20062 40204 57013=
86532 NIL=
86550 NIL=
86560 32998 01610 10132 20054 40230 50001=
86575 32997 01810 10132 20088 40226 54000=
86585 32998 02708 10126 20082 40221 53002=
86586 32597 32010 10140 20080 40209 54001 83400=
86595 NIL=
####018000071####
SNAL51 DAMM 091900 RRC
AAXX 09191
60393 46/// /3202 10250 20200=
####018000412####
SNVD20 KWNB 091900 RRK
BBXX
44033 09191 99441 70690 46/10 /2103 10166 40142 58013 91904 22200
00152 10501 70007 333 91204 555 11043 22051=
44098 09191 99428 70702 46/// ///// 1//// 91907 22200 00197 10702
20702 70008=
44099 09191 99369 70758 46/// ///// 1//// 91908 22200 00255 10702
20702 70012=
44039 09191 99411 70727 46/// /1506 10264 20230 40146 57018 91900
22200 10201 70003 333 91208=
####018000158####
SNVD15 KWNB 091900 RRJ
BBXX
42362 09191 99278 70907 46/// /0801 10294 20222 40176 91915=
42364 09191 99291 70881 46/// /0000 10283 20217 40173 91915=
####018000127####
SNVD17 KWNB 091900 RRE
BBXX
46238 09191 99334 71195 46/// ///// 1//// 91856 22200 00151 11302
20501 316// 41301 70008=
####018000950####
SNAA01 KARS 091700 RRG
AAXX 0917/
89768 46/// ///// 11286 38618 4//// 5//// 91740=
89872 46/// ///// 11216 39693 4//// 5//// 91730=
89377 46/// ///// 11356 39788 4//// 5//// 91730=
89377 46/// ///// 11358 39789 4//// 5//// 91740=
89869 46/// ///// 11286 39736 4//// 5//// 91740=
89866 46/// ///// 11179 39651 4//// 5//// 91740=
89864 46/// ///// 11264 39687 4//// 5//// 91740=
89376 46/// ///// 11349 39697 4//// 5//// 91740=
89324 46/// ///// 11379 37944 4//// 5//// 91730=
89324 46/// ///// 11383 37943 4//// 5//// 91740=
89329 46/// ///// 11375 38575 4//// 5//// 91740=
89799 46/// ///// 11629 4//// 5//// 91740=
89868 46/// ///// 11309 39712 4//// 5//// 91740=
89108 46/// ///// 11615 36888 4//// 5//// 91740=
89879 46/// ///// 11176 39657 4//// 5//// 91740=
89332 46/// ///// 11389 39049 4//// 5//// 91740=
89769 46/// ///// 11213 39707 4//// 5//// 91730=
89314 46/// ///// 11316 38043 4//// 5//// 91740=
####018000083####
SNAA01 KARS 091800 RRD
AAXX 0918/
89332 46/// ///// 11390 39046 4//// 5////=
####018000095####
SNRH81 LDZM 091900 RRA
AAXX 09191
14324 42980 10905 10150 21081 38480 48578 54/// 80001=
####018000127####
SNVE15 KWNB 091900 RRE
BBXX
51202 09191 99214 71577 46/// ///// 1//// 91840 22200 00254 10603
20603 308// 41101 70015=
####018000125####
SNVD45 KWNB 091900 RRG
BBXX
45022 09191 99454 70851 46/// /2604 10198 40170 91920 22200 00197
10201 70004 333 91205=
####018000215####
SNVD22 KWNB 091900 RRP
BBXX
46088 09191 99483 71232 46/// /2202 10143 40149 91920 22200 00131
10601 327// 40601 70003 333 91202 555 11020 22021 31907 42202
61919 219019 211019 200016 219016 227013 213007=
####018000898####
SNAL50 DAMM 091900
AAXX 09194
60612 46/// /0806 10342 21037=
60617 46/// /0216 10392 21086=
60619 46/// /0219 10360 21059=
60621 46/// /0414 10402 21046=
60633 46/// /1105 10407 21032=
60650 46/// /0415 10394 21027=
60660 46/// /3506 10410 21029=
60661 46/// /0108 10363 21045=
60662 NIL=
60663 46/// /0509 10374 21028=
60664 46/// /0000 10331 21010=
60667 46/// /0000 10354 21016=
60672 46/// /0506 10335 21036=
60673 46/// /0408 10329 21018=
60674 NIL=
60675 46/// /0000 10420 20014=
60676 46/// /0511 10329 21031=
60677 46/// /0000 10334 21010=
60679 46/// /0000 10208 21048=
60681 46/// /0810 10354 21033=
60682 46/// /1010 10347 21017=
60683 NIL=
60685 NIL=
60688 NIL=
60689 NIL=
60691 46/// /0609 10376 21043=
60692 46/// /0313 10388 20000=
60693 46/// /0612 10375=
60694 46/// /0412 10363 21008=
60695 46/// /0512 10372 21010=
####018000089####
SMPS40 AMMC 091800 RRE
AAXX 09184
93713 46/// /2210 10071 40275 22200 00110=


