####018000215####
SMVD45 KWNB 100000 RRC
BBXX
45006 10001 99473 70898 46/// /2105 10176 39914 40133 56010 92350
22200 00147 1//00 70001 333 91206 555 11059 22069 32338 42106
62349 212051 210051 211049 206049 208048 210051=
####018000160####
SMCS01 MROC 100000
AAXX 10004
78774 01670 82405 10281 20253 39990 40069 52003 60011 71566 83220
333 02240 10327 20225 31/// 59009 70008 83835 86464=
####018000167####
SMCS01 MROC 100000
AAXX 10004
78774 01670 82405 10281 20253 39990 40069 52003 60011 71566 83220
333 02240 10327 20225 31/// 59009 70008 83835 86464=



####018000149####
SMFG01 SOCA 100000
AAXX 10004
81405 01207 71306 10251 20241 30125 40134 60131 76286 8683/
  333 10318 60137 58004 82704 85816
  555 60135=
####018000148####
SNAA17 LFVW 092200 RRB
AAXX 09224
89610 46/// /1442 11154 39722 4//// 5////
  333 90700 91152=
89811 46/// /0000 11276 38276 4//// 5////=
####018000181####
SMJD50 OJAM 100000
AAXX 10004
40250 32960 03407 10252 21021 39302 40029 52004=
40260 32960 00000 10270 20003 40032 54002=
40265 32960 00000 10202 20167 39337 40087 54002=
####018000095####
SNAA14 EGRR 092200 RRA
AAXX 09224
89065 46/// /9902 11190 21208 39711 49793 57001 92240=
####018000233####
SMVD15 KWNB 100000 RRC
BBXX
42057 10001 99168 70815 46/// /0709 10294 20252 40119 56006 92350
22200 00293 10603 20603 70014 333 91210 555 11093 22099 32324
40711 62349 066088 067084 070091 071084 066088 067087 80710 92324=
####018000095####
SNAA14 EGRR 092200 RRB
AAXX 09224
89266 46/// /1619 11250 21274 39750 49900 57001 92240=
####018000095####
SNAA14 EGRR 092200 RRC
AAXX 09224
89257 46/// /1605 11318 21350 39875 49953 52012 92230=
####018000147####
SMFG01 SOCA 100000
AAXX 10004
81405 01207 71306 10251 20241 30125 40134 60131 76286 8683/
 333 10318 60137 58004 82704 85816
 555 60135=
####018000095####
SNAA14 EGRR 092200 RRE
AAXX 09224
89272 46/// /3002 11220 21245 37978 49667 57001 92240=
####018000091####
SNAA14 EGRR 092240
AAXX 09224
89257 46/// /1705 11316 21348 39876 49954 52013 92240=
####018000095####
SNAA14 EGRR 092200 RRD
AAXX 09224
89013 46/// /0613 1//// 2//// 37606 4//// 52014 92230=
####018000135####
SNAU05 AMMC 092200 RRA
AAXX 09224
94995 11680 20913 10166 20052 30275 40283 53014 60004 70200 82200
92230
  333 70000=


####018002827####
SMDL01 EDZW 100000
AAXX 10001
10004 NIL=
10015 11950 01904 10211 20193 30155 40164 52001 69901 71061
  333 30/// 55/// 2//// 3//// 55300 20000 30000=
10020 17967 01505 10216 20178 30131 40162 58004 69901 70040
  333 55/// 22277 31064 55300 20000 30000=
10035 12965 51002 10203 20165 30111 40167 56009 60001 85030
  333 30/// 55/// 22694 30630 43169 55300 20000 30000 41305 85363=
10055 15969 11606 10222 20178 30162 40172 57007 60001
  333 55/// 22610 30828 55300 20000 30000 81/63=
10147 12981 11502 10242 20172 30153 40170 58001 60001 81030
  333 30/// 55/// 22484 30681 43332 55300 20000 30000 41390 81364=
10162 15973 81402 10258 20136 30104 40182 51003 60001
  333 55300 84/65 88/68=
10184 12973 01102 10209 20159 30189 40196 57001 60001
  333 30/// 55/// 22590 30802 55300 20000 30000=
10200 12960 22802 10199 20181 30175 40173 51009 60001 81031
  333 30/// 55/// 22629 30756 55300 20000 30000 81363=
10224 12975 71501 10231 20169 30165 40171 53006 60001 80001
  333 30/// 55/// 22658 30615 55300 20000 30000 87080=
10270 16960 01102 10222 20139 30131 40184 51001 60001
  222// 06250
  333 55300=
10338 12982 41702 10258 20154 30106 40174 51003 60001 84030
  333 30/// 55/// 22477 30703 55300 20000 30000 84359=
10361 15979 81301 10223 20159 30086 40185 53001 60001
  333 55/// 22933 30518 55300 20000 30000 87/69 88/71=
10393 12980 01303 10230 20122 30079 40200 50003 60001
  333 30/// 55/// 22947 30355 55300 20000 30000=
10400 12981 52101 10247 20169 30132 40179 51007 60001 84031
  333 30/// 55/// 22406 30898 55300 20000 30000 84365=
10438 15977 81702 10221 20155 39920 40187 50003 60001
  333 55300 88/61=
10469 12984 31303 10219 20169 30032 40189 51001 60001 83080
  333 30/// 55300 83360=
10488 12981 01404 10236 20125 39932 40199 51003 60001
  333 30/// 55/// 22905 30363 43151 55300 20000 30000 41306=
10506 12983 32002 10226 20149 39638 40190 50003 60001 80001
  333 30/// 55300 83080=
10548 12980 00000 10217 20135 39677 40192 51003 60001
  333 30/// 55/// 22802 30576 55300 20000 30000=
10637 12981 20000 10221 20176 30058 40189 51003 60001 80001
  333 30/// 55300 82080=
10685 15971 50901 10181 20133 39553 40202 52004 60001
  333 55/// 22483 30419 55300 20000 30000 85/67=
10738 12975 32601 10208 20148 39751 40200 51004 60001 80001
  333 30/// 55300 83080=
10763 12970 41003 10217 20138 39833 40198 51005 60001 84030
  333 30/// 55/// 22833 30430 55300 20000 30000 84365=
10788 15970 01101 10174 20135 39799 40213 51006 60001
  333 55/// 23244 30393 55300 20000 30000=
10852 12980 11001 10168 20131 39655 40206 50002 60001 81030
  333 30/// 55/// 22804 30480 55300 20000 30000 81363=
10946 15970 81201 10182 20165 39408 40206 53005 60001
  333 55/// 22745 30598 55300 20000 30000 87/66 88/69=
####018000105####
SMCH01 SCSC 100000
AAXX 10004
85577 12960 00000 10082 20059 39576 40143 53006 60001
  333 10195=
####018000135####
SNAU05 AMMC 092200 CCA
AAXX 09224
94995 11680 20913 10166 20052 30275 40283 53014 60004 70200 82100
92230
  333 70000=


####018000135####
SNAU05 AMMC 092200 CCB
AAXX 09224
94995 11680 20913 10166 20052 30275 40283 53014 60004 70200 82100
92230
  333 70000=


####018002526####
SMDL22 EDZW 100000
AAXX 10001
10006 NIL=
10007 NIL=
10008 NIL=
10043 NIL=
10044 NIL=
10046 42975 21503 10217 20173 30131 40168 57009 81031
  333 81365=
10091 15983 01406 10239 20154 30144 40192 57002 60001
  333 55/// 22601 30745 55300 20000 30000=
10113 17950 63204 10202 20174 30154 40172 51009 60001 71000
  333 55/// 22563 30711 55300 20000 30000 86/66=
10124 NIL=
10131 15966 41603 10231 20180 30147 40161 57001 60001
  333 55/// 23030 30915 55300 20000 30000 84/61=
10170 12981 01504 10240 20145 30168 40183 50000 60001
  333 30/// 55/// 22681 30663 55300 20000 30000=
10264 15973 61101 10229 20129 30083 40184 52002 60001
  333 55/// 22881 30729 55300 20000 30000 86/68=
10291 12980 51403 10218 20136 30132 40197 58001 60001 83041
  333 30/// 55/// 22618 30474 55300 20000 30000 83366 83076=
10315 12980 12801 10212 20143 30115 40176 50006 60001 80001
  333 30/// 55/// 22301 30868 55300 20000 30000 81077=
10379 12983 01204 10222 20131 30073 40189 52002 60001
  333 30/// 55/// 22812 30380 43220 55300 20000 30000 41328=
10382 12983 01303 10234 20135 30151 40194 52003 60001
  333 30/// 55300=
10384 16/// /1203 10233 20128 30138 40195 52005 60001
  333 55/// 22805 30432 55300 20000 30000=
10427 11982 32505 10217 20133 39233 48571 50000 69901 70161 83030
  333 30/// 55/// 22625 30669 55300 20000 30000 83366 96460 96414=
10430 17977 30401 10202 20154 39999 40183 51005 69901 70060
  333 55/// 22303 30707 55300 20000 30000 83/62=
10439 42965 62801 10210 20169 39980 40191 51004 86070
  333 86361=
10453 NIL=
10496 17983 01102 10217 20136 30117 40198 51003 60001 700//
  333 55/// 22851 30453 55300 20000 30000=
10499 12975 01701 10190 20155 39932 40212 51001 60001
  333 30/// 55/// 22923 30327 55300 20000 30000=
10501 12982 12102 10238 20169 39951 40186 51005 60001 81031
  333 30/// 55300 81362=
10513 12984 21102 10214 20165 30071 40187 51006 60001 81031
  333 30/// 55/// 22388 30932 55300 20000 30000 81360=
10532 15966 00501 10191 20147 39946 40185 51003 60001
  333 55/// 2//// 3//// 55300 20000 30000=
10544 12985 02603 10211 20115 39167 48575 58001 60001
  333 30/// 55300=
10554 12982 32303 10217 20146 39820 40189 51002 60001 81031
  333 39/// 55/// 22799 30506 55300 20000 30000 81363=
10567 12982 01705 10210 20146 39833 40192 51002 60001
  333 39/// 55/// 22663 30478 55300 20000 30000=
10578 12986 01707 10187 20094 38876 48585 50001 60001
  333 30/// 55/// 23012 30412 55300 20000 30000=
####018002037####
SMDL48 EDZW 100000
AAXX 10001
10564 15980 81705 10225 20121 39626 40194 51003 60001
  333 55300 88/65=
10565 15960 82001 10219 20159 39898 40181 51003 60001
  333 55300 88/67=
10569 15968 31802 10167 20144 39755 40207 51005 60001
  333 55/// 22624 30417 55300 20000 30000 83/68=
10574 15985 11703 10203 20103 39206 48583 52003 60001
  333 55300 81/73=
10577 15983 01602 10235 20123 39719 40195 52004 60001
  333 55/// 22913 30405 55300 20000 30000=
10579 17/// /1602 10219 20117 39484 40205 51002 60001 7////
  333 55300=
10582 15982 01705 10188 20104 39224 48579 51002 60001
  333 55/// 22881 30575 55300 20000 30000=
10591 15981 01103 10218 20121 39834 40200 51003 60001
  333 55300=
10613 NIL=
10615 15985 31502 10212 20149 39648 40196 50002 60001
  333 55/// 21818 31006 55300 20000 30000 83/81=
10618 NIL=
10628 15980 02901 10210 20170 30062 40192 50003 60001
  333 55300=
10635 15982 33102 10214 20140 39270 48573 58001 60001
  333 55300 83/65=
10646 15963 00000 10184 20160 39805 40199 52002 60001
  333 55300=
10648 15974 72602 10248 20141 39676 40188 54000 60001
  333 55/// 22527 30885 55300 20000 30000 85/62 87/79=
10658 17967 03601 10202 20166 39868 40194 51004 69901 70040
  333 55300=
10671 15976 80303 10186 20144 39800 40200 51006 60001
  333 55/// 22664 30541 55300 20000 30000 86/65 88/69=
10686 15980 02403 10210 20114 39499 40203 51004 60001
  333 55300=
10704 15980 10302 10231 20174 39775 40188 50001 60001
  333 55/// 21831 31123 55300 20000 30000 81/80=
10706 15985 00701 10232 20149 39753 40193 52001 60001
  333 55300=
10724 15960 03004 10236 20125 39565 40190 51001 60001
  333 55/// 22336 31009 55300 20000 30000=
10733 15969 60801 10198 20170 39916 40194 51001 60001
  333 55/// 22243 30897 55300 20000 30000 86/81=
10736 15966 10801 10170 20152 39914 40199 50001 60001
  333 55300 81/81=
10739 15965 01602 10237 20165 39827 40189 51002 60001
  333 55/// 22510 30897 43279 55300 20000 30000 41347=
10743 NIL=
####018001566####
SMDL45 EDZW 100000
AAXX 10001
10161 15968 81803 10215 20160 30159 40179 53001 60001
  333 55/// 22637 30823 55300 20000 30000 88/64=
10168 15968 11602 10218 20164 30118 40187 51002 60001
  333 55300 81/65=
10172 42970 10702 10204 20147 30117 40186 50000 80001
  333 81070=
10180 15970 01801 10198 20161 30186 40191 50000 60001
  333 55300=
10193 15982 01704 10233 20129 30188 40191 51001 60001
  333 55/// 22799 30468 55300 20000 30000=
10215 15965 12601 10223 20171 30157 40171 51006 60001
  333 55300 81/82=
10235 NIL=
10238 NIL=
10246 42980 39901 10229 20132 30076 40178 51001 83031
  333 83365=
10249 15968 01402 10235 20146 30124 40177 51001 60001
  333 55/// 22652 30795 55300 20000 30000=
10253 15965 53501 10189 20157 30155 40176 51005 60001
  333 55300 85/68=
10261 12984 31602 10214 20148 30157 40184 53001 60001 81031
  333 37/// 55/// 22803 30563 55300 20000 30000 81366 83080=
10267 15973 21102 10212 20138 30140 40190 51001 60001
  333 55300 82/81=
10268 16/// /1402 10241 20135 30106 40188 58002 60001
  333 55300=
10281 42975 01203 10217 20141 30086 40195 57002=
10282 15972 00801 10180 20141 30057 40194 58001 60001
  333 55300=
10289 15982 01203 10216 20141 30130 40198 50000 60001
  333 55300=
10304 NIL=
10305 169// 03101 10229 20157 30145 40175 51009 60001
  333 55300=
10306 NIL=
10309 15962 7//01 10203 20169 30123 40178 51006 60001
  333 55/// 22119 30872 55300 20000 30000 86/60 87/67=
10317 16960 73002 10220 20160 30063 40175 51005 60001
  333 55300 87/77=
####018001659####
SMDL44 EDZW 100000
AAXX 10001
10022 15961 00903 10202 20163 30154 40163 56008 60001
  333 55/// 22672 30884 55300 20000 30000=
10028 12970 21404 10223 20182 30151 40164 56003 60001 82030
  333 30/// 55/// 22567 30686 55300 20000 30000 82363=
10033 42975 21103 10181 20168 30128 40167 57009 82031
  333 82365=
10037 42970 30702 10195 20154 30137 40167 57009 82031
  333 82364 83070=
10038 42960 11302 10189 20158 30146 40167 57007 80001
  333 81072=
10042 17918 71302 10201 20186 30165 40169 58012 60001 71000
  333 55300 87/62 87/82=
10067 NIL=
10093 15981 01302 10222 20175 30148 40195 57003 60001
  333 55300=
10097 17970 01204 10221 20190 30182 40196 58003 69901 70050
  222// 06220
  333 55300=
10126 42975 12602 10213 20164 30156 40170 53006 81030
  333 81363=
10129 15959 41903 10247 20168 30153 40165 52003 60001
  333 55/// 22578 30777 55300 20000 30000 84/61=
10130 15961 51403 10215 20176 30150 40155 55002 60001
  333 55300 83/61 85/82=
10136 42962 31802 10221 20183 30130 40167 55001 81031
  333 81362 83075=
10139 15965 82201 10223 20172 30150 40163 51004 60001
  333 55/// 22685 30811 55300 20000 30000 88/59 88/60=
10142 06965 01101 10213 20174 30139 40169 57003 69901
  333 55300 69907=
10146 15958 02501 10189 20169 30155 40172 51001 60001
  333 55300=
10150 15961 41302 10219 20186 30138 40171 56004 60001
  333 55/// 22259 30694 55300 20000 30000 82/66 84/82=
10152 17932 82001 10188 20181 30172 40174 57002 60001 71000
  333 55300 86/60 88/66 88/82=
10156 15965 71603 10214 20185 30156 40176 57002 60001
  333 55/// 22502 30785 55300 20000 30000 85/65 87/68=
####018001765####
SMDL47 EDZW 100000
AAXX 10001
10454 15975 81904 10270 20136 39913 40185 50000 60001
  333 55300 87/65 88/68=
10458 15964 82402 10178 20155 39718 40186 51001 60001
  333 55/// 22830 30504 55300 20000 30000 88/65 88/69=
10460 15966 82601 10218 20176 39993 40184 52001 60001
  333 55/// 22807 30532 55300 20000 30000 86/66 88/68=
10466 16/60 /1001 10216 20160 30079 40191 58001 60001
  333 55/// 22945 30514 55300 20000 30000=
10471 12982 21501 10188 20169 30031 40193 51002 60001 81082
  333 39/// 55/// 22792 30404 43216 55300 20000 30000 41307 81363=
10474 15974 00903 10227 20141 30068 40191 51002 60001
  333 55/// 22945 30507 55300 20000 30000=
10476 42980 41402 10197 20136 30076 40195 51001 80001
  333 84073=
10480 15963 01501 10197 20166 30022 40198 52001 60001
  333 55/// 22573 30440 55300 20000 30000=
10490 15966 00701 10184 20154 30081 40196 51003 60001
  333 55/// 22552 30449 55300 20000 30000=
10495 15974 01101 10193 20152 30067 40203 52002 60001
  333 55300=
10500 NIL=
10502 NIL=
10515 16959 10702 10236 20167 30039 40187 51004 60001
  333 55300 81/77=
10516 NIL=
10519 15981 02101 10233 20163 30002 40187 51005 60001
  333 55300=
10526 169// 00901 10227 20154 39562 40187 58001 60001
  333 55300=
10534 15974 02203 10229 20136 39357 40183 57001 60001
  333 55300=
10540 15979 82801 10224 20143 39832 40190 51002 60001
  333 55/// 22518 30499 55300 20000 30000 88/62 88/66=
10542 15972 80000 10210 20151 39882 40195 52003 60001
  333 55/// 22025 30399 55300 20000 30000 88/60=
10552 15982 72302 10215 20110 39154 48577 58001 60001
  333 55300 87/61=
10557 12989 71803 10209 20105 39248 48575 50001 60001 8707/
  333 30/// 55/// 22449 30666 55300 20000 30000 87363=
####018002429####
SMDL23 EDZW 100000
AAXX 10001
10609 02982 02101 10209 20164 39882 40197 52004 69901
  333 30/// 55/// 22024 30892 55300 20000 30000 69907=
10616 12984 02602 10229 20141 39623 40191 50000 60001
  333 30/// 55300=
10641 15965 01401 10208 20183 30051 40191 52005 60001
  333 55300=
10655 12970 51302 10221 20169 39877 40189 51003 60001 80002
  333 30/// 55/// 22687 30590 55300 20000 30000 85080=
10675 15969 41301 10180 20158 39917 40198 51006 60001
  333 55/// 22976 30567 55300 20000 30000 83/65 84/69=
10688 15973 03601 10187 20133 39706 40209 52006 60001
  333 55/// 22890 30400 55300 20000 30000=
10708 12980 30000 10192 20155 39826 40197 50001 60001 80001
  333 30/// 55/// 22029 31042 55300 20000 30000 83080=
10729 15976 00801 10203 20169 30075 40192 51002 60001
  333 55/// 22258 30861 55300 20000 30000=
10731 15965 33602 10196 20178 30054 40192 58001 60001
  333 55/// 22225 31267 55300 20000 30000 83/81=
10742 15960 00901 10214 20174 39878 40194 51002 60001
  333 55/// 22298 30813 55300 20000 30000=
10776 15972 60501 10190 20145 39781 40208 51005 60001
  333 55/// 22972 30375 55300 20000 30000 86/67=
10791 12986 01303 10177 20113 38640 48585 50001 60001
  333 31/// 55300=
10805 12981 72302 10211 20181 30011 40193 53004 60001 80008
  333 30/// 55/// 22077 31107 55300 20000 30000 87280=
10815 15980 00501 10206 20139 39309 48579 50000 60001
  333 55/// 21869 30910 55300 20000 30000=
10836 15984 01502 10236 20119 39373 40193 52001 60001
  333 55/// 22692 30798 55300 20000 30000=
10870 12975 03001 10177 20147 39696 40210 53003 60001
  333 30/// 55300=
10895 15968 00402 10186 20145 39665 40214 50003 60001
  333 55/// 22971 30317 55300 20000 30000=
10908 12986 10803 10200 20111 38589 48579 51001 60001 81030
  333 31/// 55/// 22385 31142 55300 20000 30000 81360=
10929 12963 30202 10209 20177 39687 40193 50003 60001 81031
  333 30/// 55/// 22574 30770 55300 20000 30000 81363 83080=
10948 15981 61602 10158 20131 39302 48568 51006 60001
  333 55/// 23056 30526 55300 20000 30000 82/62 86/67=
10961 13/// /3604 10094 21014 37229 47226 57002 6///1 8////
  333 55/// 23090 42361 55300 20000 41069=
10962 12983 70803 10240 20109 39110 48588 52002 60001 8703/
  333 30/// 55/// 22919 30467 55300 20000 30000 87364=
10980 12989 03304 10169 20081 38259 48589 53001 60001
  333 30/// 55/// 23049 30375 55300 20000 30000=
####018001629####
SMDL49 EDZW 100000
AAXX 10001
10756 15970 80000 10181 20158 39658 40206 51005 60001
  333 55/// 22806 30661 55300 20000 30000 87/74 87/78 88/79=
10761 15960 02601 10197 20139 39714 40201 51003 60001
  333 55/// 22904 55300 20000=
10765 NIL=
10771 NIL=
10777 15982 71002 10204 20131 39593 40205 52002 60001
  333 55300 87/65=
10782 15960 00601 10148 20135 39639 40220 51005 60001
  333 55/// 22954 30434 55300 20000 30000=
10796 15967 03001 10157 20138 39515 40224 50005 60001
  333 55300=
10803 15975 03201 10190 20167 39920 40197 53005 60001
  333 55/// 22368 31092 55300 20000 30000=
10818 15983 00804 10220 20119 39122 48584 58001 60001
  333 55/// 22322 31064 55300 20000 30000=
10827 NIL=
10837 NIL=
10838 169// 03102 10225 20154 39554 40196 53004 60001
  333 55300=
10850 15984 01002 10227 20127 39631 40200 50003 60001
  333 55300=
10853 NIL=
10856 NIL=
10857 NIL=
10860 NIL=
10863 15970 00000 10173 20147 39656 40208 53003 60001
  333 55/// 22959 30302 42981 55300 20000 30000 41241=
10865 12982 11001 10198 20132 39605 40205 53002 60001 80001
  333 30/// 55300 81073=
10872 15564 10901 10156 20141 39805 40217 51005 60001
  333 55300 81/30=
10875 15967 02701 10144 20131 39738 40219 53004 60001
  333 55/// 23127 30389 55300 20000 30000=
10945 15964 61001 10166 20144 39440 40209 53004 60001
  333 55300 83/62 86/66 86/71=
10954 NIL=
10963 15981 82102 10169 20148 39397 40216 52005 60001
  333 55/// 22713 30502 55300 20000 30000 88/65=
10982 15980 00802 10176 20145 39576 40210 53001 60001
  333 55/// 22973 30366 55300 20000 30000=
####018002219####
SMDL46 EDZW 100000
AAXX 10001
10321 15963 13301 10240 20170 30122 40172 51004 60001
  333 55/// 22417 30733 55300 20000 30000 81/59=
10325 15980 02201 10234 20154 30022 40179 51004 60001
  333 55300=
10334 42980 51402 10254 20154 30093 40173 51002 85070
  333 82359 84362=
10335 NIL=
10343 42975 11101 10248 20151 30116 40176 51002 80001
  333 81070=
10348 15979 81703 10231 20161 30079 40180 52003 60001
  333 55/// 22820 30302 43288 55300 20000 30000 41374 88/67=
10356 15975 81702 10231 20154 39992 40180 52002 60001
  333 55300 88/69=
10359 15965 22501 10183 20150 30129 40186 53001 60001
  333 55/// 22507 30521 55300 20000 30000 82/69=
10365 15966 71401 10181 20145 30143 40188 52004 60001
  333 55/// 22589 30524 55300 20000 30000 87/73=
10368 15974 01402 10216 20142 39974 40192 52001 60001
  333 55/// 22744 30540 55300 20000 30000=
10376 07967 01103 10202 20148 30124 40192 51006 69901 70040
  333 55300 69907=
10381 NIL=
10385 12981 01202 10214 20136 30139 40198 51004 60001
  333 30/// 55/// 22879 30478 55300 20000 30000=
10389 16/// /1809 10247 20132 30100 40195 51003 60001=
10396 15981 01101 10211 20125 30190 40205 50002 60001
  333 553//=
10404 42975 69901 10237 20160 30130 40180 51004 86070
  333 86363=
10410 15979 82702 10257 20164 30008 40179 51006 60001
  333 55300 87/60 88/65=
10418 15980 82801 10243 20148 39742 40186 50002 60001
  333 55/// 22525 30750 55300 20000 30000 88/63=
10424 15974 82102 10232 20161 30075 40175 50003 60001
  333 55/// 22564 30890 55300 20000 30000 88/65=
10433 15980 01503 10222 20142 39879 40177 50004 60001
  333 55/// 22644 30671 55300 20000 30000=
10435 15968 82601 10213 20157 39914 40187 50003 60001
  333 55300 82/63 88/65 88/81=
10442 15979 71401 10225 20161 30015 40187 51006 60001
  333 55/// 22591 30592 55300 20000 30000 81/61 87/65=
10444 15966 81501 10194 20162 39988 40188 50005 60001
  333 55/// 22888 30580 55300 20000 30000 81/62 88/65=
10449 15976 82201 10245 20150 39787 40188 50001 60001
  333 55/// 22718 30543 55300 20000 30000 88/63=
10452 15972 83201 10203 20142 39506 40194 51001 69901
  333 55/// 22744 30524 55300 20000 30000 83/65 88/69=
####018000142####
SMKA01 PTYA 100000
AAXX 10004
91413 11448 81110 10258 20240 30098 40123 52012 60384 79798 8696/
333 20248 5629/ 58016 70376 555 91000=
####018000143####
SMKA01 PTYA 100000
AAXX 10004
91413 11448 81110 10258 20240 30098 40123 52012 60384 79798 8696/
333 20248 5629/ 58016 70376 555 91000=
####018000103####
SITH41 VTBB 092100 RRB
AAXX 09214
48580 32560 70000 10243 20230 30079 40086 81246
  333 59005=
####018000146####
SMBD01 WBSB 100000
AAXX 10004
96315 31470 71802 10258 20229 40120 60784 70296 81968
333 20226 55086 81815 81916 83364 85080=
96323 NIL=
####018000134####
SMSR01 WSSS 100000
AAXX 10004
48698 01460 73602 10262 20254 30085 40104 60004 71022 81238 
333 20247 59011 60007 81818 86080=
####018000141####
SMMR01 TFFF 100000
AAXX 10004
78925 12570 60204 10262 20241 40142 52001 60001 82232
  333 10312 20252 59005 70085 82823 83360 85080=
####018000357####
SMBO01 SLLP 100000
AAXX 1004
85201 32470 20908 10052 20000 36397 52010 81401
333 10148 56000 58010 81815=
85244 31570 61712 10202 20185 39719 40156 53023 70421 85530
333 10260 56790 58017 85625 86357=
85223 31970 01607 10165 20026 37500 47129 52021 70400
333 10269 58022=
85364 32970 01314 10124 20079 38183 48176 52022
333 10242 58057=
####018001436####
SMPY01 SGAS 100000
AAXX 10004
86011 NIL=
86033 31670 10000 10266 20196 40138 53004 71321 81900 333 10325 81940=
86065 NIL=
86068 NIL=
86086 32870 31810 10220 20133 40180 52030 83070 333 10290 83457=
86097 21870 71612 10180 20166 40161 52010 72162 87070 333 10276 69937 87457=
86128 32570 81806 10200 20181 40170 53010 885// 333 10256 88625=
86134 32870 71408 10192 20172 40182 52018 87070 333 10255 87457=
86170 21202 82004 10180 20179 40173 52010 75352 886// 333 10198 69907 88705=
86185 32470 50904 10180 20165 40183 52006 84570 333 10216 83620 82457=
86192 21270 80000 10170 20166 40131 51003 70266 885// 333 10226 60057=
86210 21360 81812 10172 20154 40155 53016 76022 885// 333 10270 69967 88610=
86218 31470 81802 10180 20177 40188 53013 70299 8557/ 333 10235 85613 88457=
86221 32370 80000 10172 20169 40211 52020 885// 333 10190 88610=
86233 31930 01802 10168 20168 40176 51015 71000 333 10202=
86234 22570 51502 10168 20157 4//// 5//// 85500 333 10198 60151 85622=
86246 21570 70000 10166 20158 40190 53010 70266 82570 333 10216 60061 82625 87457=
86255 32370 81802 10170 20153 40196 52025 886// 333 10180 88710=
86260 32470 80902 10192 20187 40170 52006 885// 333 10214 88613=
86268 32870 30000 10170 20167 40192 52005 83060 333 10190 83357=
86285 31250 81405 10176 20167 40200 53009 71022 886// 333 10196 88705=
86297 32470 60000 10190 20173 40182 52008 86700 333 10220 86715=
####018000421####
SMHU01 HABP 100000
AAXX 10001
12772 31980 03003 10186 20119 39946 40222 57006 70100=
12822 36/// /0000 10148 20140 30083 40224 51001=
12843 31983 00201 10183 20136 30058 40224 50000 70200=
12882 31980 00104 10193 20141 30077 40205 57010 70200=
12925 36/// /0000 10137 20132 30055 40224 58001=
12942 31984 03501 10195 20125 39985 40222 58002 70200=
12982 31960 03002 10150 20142 30113 40213 57007 70200=
####018000497####
SMCH01 SCSC 100000
AAXX 10004
85406 12560 81704 10149 20097 40176 53023 60001 885//
  333 10169  56099 88626=
85418 11559 80306 10148 20090 40174 52018 60001 70522 885//
  333 10183 56099 88620=
85432 12970 01906 10108 21194 37771 48480 52018 60001
  333 10220=
85467 13460 83511 10122 20085 40174 51011 60001 885//
  333 10147 56699 88615=
85469 42565 53211 10208 20186 40146 57011 85200
  333 56200 85820=
85488 12960 00801 10108 20092 40150 53012 60001
  333 10158=
####018000091####
SMLY40 EUMS 100000
AAXX 10004
62271 13/// /0210 10308 20037 39652 40134 58013 60021=
####018000091####
SMCY01 LCPH 100000
AAXX 10004
17600 15960 /0105 10217 20194 30088 40097 57006 60001=
####018000123####
SMMF01 TFFR 100000
AAXX 10004
78897 14981 60703 10252 20219 40159 50013 60031 700//
  333 10322 20248 58003 70032=
####018000121####
SIIN24 DEMS 092100 RRA
AAXX 09214
43128 31596 60000 10248 20234 39471 40073 70522 83530
  333 59001 83620 84360=
####018001537####
SMNO01 ENMI 100000
AAXX 10001
01001 11012 81702 10072 20062 39964 49975 52006 69901 74052 886//
      333 91106=
01008 11487 72704 10078 20056 30073 40106 54001 6//// 70262 875//
      333 91109=
01010 11588 51504 10103 20082 30118 40134 58007 6//// 72162 82571
      333 91107=
01026 11589 62002 10121 20088 30004 40141 57004 6//// 71582 8236/
      333 91105=
01055 46/// /0000 10073 20066 30134 40151 58002 333 91106=
01062 NIL=
01098 11X02 93206 10073 20067 30128 40146 53002 6//// 74554 333
      91111=
01115 11884 51806 10122 20087 30107 40127 57012 6//// 70222 81074
      333 91109=
01152 11689 11005 10118 20095 30123 40138 57012 60001 70111 81105
      333 91107=
01205 46/// /1204 10122 20109 30029 40074 58037 333 91113=
01212 16/// /0708 10126 20112 30072 40088 58039 6//// 333 91110=
01271 17984 61203 10132 20093 30093 40113 56024 6//// 700// 333
      91108=
01288 16/// /1107 10126 20041 39403 40126 56012 6//// 333 91109=
01300 NIL=
01317 16/// /1505 10135 20116 30108 40122 58001 6//// 333 91110=
01367 11685 81102 10165 20074 39707 40130 58006 6//// 70322 885//
      333 91105=
01384 41789 51704 10151 20115 39921 40162 58001 70222 84508 333
      91109=
01403 16/// /1911 10139 20126 30063 40129 55001 60021 333 91120=
01415 11580 71808 10182 20115 30129 40140 54001 6//// 76062 878//
      333 91114=
01482 46/// /1907 10173 20142 30164 40171 58005 333 91111=
01492 11587 71704 10167 20127 30050 40163 58001 6//// 70320 82576
      333 91109=
####018001215####
SMNO02 ENMI 100000
AAXX 10001
01003 11380 80906 10028 20020 30099 40111 57003 60001 70222 885//=
01007 16/// /0801 10079 20034 30096 40105 57002 60001 333 91105=
01028 11/06 91805 10076 20070 30094 40114 58009 60001 74542 333
      91109=
01047 11688 50000 10104 20088 39773 40140 52005 6//// 70222 83440=
01049 16/// /1903 10115 20080 30145 40148 54000 6//// 333 91107=
01078 16/// /3004 10071 20061 30144 40157 52002 6//// 333 91109=
01102 46/// /1306 10125 20097 30104 40123 58023 333 91108=
01160 41789 5//// 10115 20085 30119 40136 58005 70222 85800=
01218 NIL=
01238 46/// /1808 10110 20051 39009 40110 56017 333 91117=
01241 11584 81305 10148 20108 30093 40104 56029 69901 76062 83572
      333 91107=
01281 16/// /0303 10106 20067 39969 40141 58017 60001 333 91107=
01338 16/// /1102 10128 20115 30056 40121 58018 60081 333 91105=
01359 16/// /2204 10138 20078 39247 40127 58014 60001 333 91108=
01397 16/// /1301 10097 20076 39735 40164 58003 60001 333 91104=
01400 NIL=
01427 16/// /1206 10174 20117 30139 40154 57006 60001 333 91110=
01447 16/// /1403 10140 20080 39508 40157 57008 60001 333 91106=
01448 46/// /0602 10149 20129 30152 40162 58012 333 91104=
####018000115####
SMTV01 NGFU 100000
AAXX 10004
91636 11498 70000 10301 20258 4//// 60021 71482 8327/ 333
20248 5629/ 70255=
####018001679####
SMXX16 KAWN 100000
BBXX
3FQO4 10004 99428 71477 41/93 92125 00/// 10165 20160 40270 52020
 70244 89/// 22234 00130 20302 32427 40604 50503 6//// 80160 ICE
 /////=
46005 10001 99461 71310 46/// /2704 10139 40240 58007 92350 22200
 00135 11502 20401 300// 41502 70010 333 91205 555 11047 22051
 32256 42806 62349 275043 275042 281047 281046 282047 282050=
46012 10001 99374 71229 46/// /3004 10127 40148 56010 92350 22200
 00131 11302 20401 318// 41302 70010 333 91205 555 11044 22046
 32342 43005 62349 298043 296037 304031 300031 293033 299032=
46013 10001 99382 71233 46/// /2602 10117 40139 58010 92350 22200
 00114 11402 20301 319// 41402 70010 333 91203 555 32347 42503
 62349 261020 270019 262017 263016 261019 261018=
46028 10001 99357 71219 46/// /3207 10137 20124 30142 40142 57011
 92350 22200 00138 11302 20401 317// 41302 70011 333 91209 555
 11079 22084 32349 43109 62349 316072 318073 321068 321072 321067
 325067=
46029 10001 99461 71245 46/// /3308 10163 20163 40169 54000 92350
 22200 00162 10702 20502 331// 40702 70012 333 91209 555 11075
 22075 32339 43309 62349 331075 332078 332072 333066 333065
 334066=
46054 10001 99343 71205 46/// ///11 10146 40121 58013 92350 22200
 00153 10503 20502 300// 40801 70013 333 91213 555 11115 22123=
A8ER9 10001 99312 71226 41498 73304 10190 20133 40145 58010 70322
 86778 22235 00178 20701 3//// 4//// 5//// 80155=
WACW 10004 99579 71432 41398 80816 10120 20100 40120 54000 75052
 887// 22273 00100 20503 312// 4//// 5//// 6//// 80110 ICE /////=
ZCDF4 10004 99506 71275 41598 73405 10150 20123 40189 57004 70222
 82574 22234 00100 20000 300// 40000 5//// 80135=
####018000232####
SMZM01 NSAP 100000
AAXX 10004

 

91762 11598 60912 10306 20241 40133 58013 60001 70522 83802 333 20/// 562/9
70000 83820 85078=

 

91759 11598 30620 10323 20239 40135 58014 60001 70810 82102 333 20234 562/9
70000 82822 83079=
####018000252####
SMZM01 NSAP 100000
AAXX 10004

 

91762 11598 60912 10306 20241 40133 58013 60001 70522 83802 333 20/// 562/9
70000 83820 85078=

 

91759 11598 30620 10323 20239 40135 58014 60001 70810 82102 333 20234 562/9
70000 82822 83079=
####018000268####
SMZM01 NSAP 100000
AAXX 10004

 

91762 11598 60912 10306 20241 40133 58013 60001 70522 83802 333 20/// 562/9
70000 83820 85078=

 

91759 11598 30620 10323 20239 40135 58014 60001 70810 82102 333 20234 562/9
70000 82822 83079=

 



####018000136####
SMVD02 CWAO 100000
BBXX
CGDT 10004 99637 70799 41/// /1213 10063 20061 40037 50006 7//// 8//// 22243 00057 20301 336// 40200 =

####018000124####
SMVD02 CWAO 100000
BBXX
CGJK 10004 99526 71412 41295 82422 10102 20100 40124 53007 70254 886// 22263 00105 20404 =

####018000626####
SMCE01 FEFF 100000
AAXX 10004
64600 33960 50000 10215 20207 39473 40095 82072
  333 58007 82365 85080=
64601 31958 8//// 10210 20198 39009 48522 70099 8807/
  333 59003 88365=
64605 NIL=
64610 33960 7//// 10210 20207 3//// 4//// 8707/
  333 5//// 87365=
64654 NIL=
64655 33960 4//// 10230 20223 39470 40106 84030
  333 59005 84365=
64656 31960 1//// 10225 20212 39565 40111 7009/ 80002
  333 58004 81080=
64658 NIL=
64659 NIL=
64660 33960 5//// 10223 20213 39583 40102 85030
  333 59003 85365=
64661 NIL=
64665 11960 8//// 10217 20206 3//// 4//// 60051 72996 8807/
  333 5//// 88365=
####018000095####
SMRS10 RUMS 090000 CCA
AAXX 09001
34123 42997 30302 10222 20146 39980 40152 52001 83030=
####018000134####
SMGE01 FAGE 100000
AAXX 10004
68906 32698 60211 10058 20005 30207 40274 58012 81510
      333 10066 20024 91018 555 91027=

####018000091####
SMQB10 LQSM 100000
AAXX 10001
14654 12965 01001 10132 20108 39502 40234 57016 60001=
####018000137####
SMRE15 FMEE 100000
AAXX 10004
61998 11665 22717 10046 20006 40110 60001 700// 82500
  333 58101 82633 90710 91121
  555 60005=
####018000127####
SNAU45 AMMC 092300 RRC
AAXX 09234
95805 11505 73231 10139 20103 39844 40032 60094 71688 87500 92330
  333 70086=


####018000131####
SMGE01 FAGE 100000
AAXX 10004
68906 32698 60211 10058 20005 30207 40274 58012 81510
      333 10066 20024 91018 555 91027=
####018000123####
SMCH02 SCSC 100000
AAXX 10004
85766 12560 83104 10082 20062 40236 51001 60001 8552/
  333 10118 56779 85625 88457=
####018000105####
SMCH01 SCSC 100000
AAXX 10004
85586 11956 00000 10134 20088 40186 53007 60001 70500
  333 10188=
####018000101####
SNKI01 AMMC 092300 RRA
AAXX 09234
96995 474// 81312 10234 20214 39820 40117 53005 7//44=


####018000129####
SMCH02 SCSC 100000
AAXX 10004
85743 11325 41001 10044 20038 40243 52002 60001 71000 81601
  333 10108 56600 81709 83075=
####018000554####
SMAA01 SCEF 100000
AAXX 10004
89054 81005 11048 21061 49719 52033 69984 72273 887//
  333 10007 21060 72299 88607=
89056 11260 81210 11059 21069 49729 52104 69924 70522 885//
  333 11008 21066 73399 88605=
89057 11340 80707 11054 21056 49730 52050 69944 77072 887//
  333 11026 21057 56099 88708 93100=
89058 11570 81111 11059 21067 39700 49721 52032 69951 77073 885//=
89059 32460 81723 11070 21050 49707 50035 60004 886//
  333 11050 21170 73399 88717=
89251 32562 40913 11061 21069 49712 52020 69904 72272 84500
  333 10009=
####018000305####
SMHK22 VHHH 100000
AAXX 10001
45032 16/// /2501 10296 20246 30079 40094 52002 60000 333 70000=
45035 16/// /2203 10296 20260 30053 40093 52002 60000 333 70005=
45039 16/// /2104 10296 20250 30075 40090 54000 60000 333 70000=
45044 16/// /2502 10278 20265 30005 40095 54000 60000 333 70000=

####018000135####
SMGD01 TGPY 100000
AAXX 10004
78958 11462 81108 10275 20249 30119 40129 69971 70682 84802
333 0/209 10301 20227 59004 84818 87076####018000302####
SMHK22 VHHH 100000
AAXX 10001
45032 16/// /2501 10296 20246 30079 40094 52002 60000 333 70000=
45035 16/// /2203 10296 20260 30053 40093 52002 60000 333 70005=
45039 16/// /2104 10296 20250 30075 40090 54000 60000 333 70000=
45044 16/// /2502 10278 20265 30005 40095 54000 60000 333 70000=
####018000101####
SMST01 EGRR 100000
AAXX 10004
61902 32582 61316 10252 20195 40164 868// 333 58003 83823 84632=
####018000138####
SMGD01 TGPY 100000
AAXX 10004
78958 11462 81108 10275 20249 30119 40129 69971 70682 84802
333 0/209 10301 20227 59004 84818 87076
####018000484####
SMCH01 SCSC 100000
AAXX 10004
85406 12560 81704 10149 20097 40176 53023 60001 885//
  333 10169  56099 88626=
85418 11559 80306 10148 20090 40174 52018 60001 70522 885//
  333 10183 56099 88620=
85432 12970 01906 10108 21194 37771 48480 52018 60001
  333 10220=
85467 13460 83511 10122 20085 40174 51011 60001 885//
  333 10147 56699 88615=
85469 42565 53211 10208 20186 40146 57011 85200
  333 56200 85820=
85488 12960 00801 10108 20092 40150 53012 60001
  333 10158=
####018000357####
SMKA02 PTTP 100000
AAXX 10004
91350 NIL
91353 32474 40304 10317 20261 30104 40111 5//// 82101
  333 20256 561/9 59005 82819
  555 91000
91425 32474 50403 10283 20272 30117 40118 5//// 82205
  333 20256 561/9 59015 82819
  555 91000
91434 32574 50605 10306 20249 30150 40153 5//// 82230
  333 20244 5611/ 58000 82820 83362
  555 91000
####018004450####
SMFR01 LFPW 100000
AAXX 10004
07005 06/// /2803 10155 20145 30113 40201 52001 60001
  333 60007 90710 91106
  555 60005=
07015 02984 33007 10200 20125 30136 40191 51009 60001 83080
  333 60007 83363 90710 91111 93100
  555 60005=
07020 06/// /2207 10159 20153 30197 40204 50000 60001
  333 60007 90710 91110
  555 60005=
07027 04962 /2202 10147 20136 30129 40209 51003 60001 700//
  333 60007 90710 91102
  555 60005=
07037 04986 /3305 10167 20118 30023 40203 52003 60001 700//
  333 60007 90710 91112
  555 60005=
07070 04983 /0201 10204 20172 30078 40184 50000 60001 700//
  333 60007 90710 91102
  555 60005=
07110 02270 62004 10173 20167 30099 40211 50004 60001 86100
  333 60007 82705 85809 90710 91106 93100
  555 60005=
07117 02570 22106 10165 20150 30141 40210 51001 60001 82200
  333 60007 90710 91108 92428
  555 60005=
07130 04966 /3405 10168 20150 30158 40209 51007 60001 700//
  333 60007 90710 91109
  555 60005=
07139 06/// /0705 10185 20120 30032 40201 51006 60001
  333 60007 90710 91109
  555 60005=
07149 02978 03306 10249 20195 30080 40183 52004 60001
  333 60007 90710 91110 93100
  555 60005=
07168 06/// /1902 10192 20175 30045 40176 50002 60001
  333 60007 90710 91105
  555 60005=
07181 04985 /1203 10215 20169 39800 40193 50002 60001 700//
  333 60007 90710 91106
  555 60005=
07190 04974 /2702 10209 20175 30018 40194 53002 60001 700//
  333 60007 90710 91104
  555 60005=
07207 02970 13210 10179 20164 30166 40217 51007 60001 80001
  333 60007 81071 90710 91116
  555 60005=
07222 04964 /0102 10175 20164 30169 40200 50003 60001 700//
  333 60007 90710 91103
  555 60005=
07240 02980 63305 10236 20203 30054 40182 53006 60001 86030
  333 60007 86366 90710 91111 93100
  555 60005=
07255 06/// /2306 10249 20202 39994 40184 51005 60001
  333 60007 90710 91110
  555 60005=
07280 04970 /0102 10210 20170 39927 40189 51003 60001 700//
  333 60007 90710 91103
  555 60005=
07299 02/70 30000 10207 20183 39882 40197 52008 60001 80001
  333 60007 83075 90710 91103 93100
  555 60005=
07314 02970 02609 10193 20183 30190 40217 51004 60001
  333 60007 90710 91111 92438
  555 60005=
07335 04982 /2307 10208 20168 30060 40200 51014 60001 700//
  333 60007 90710 91113
  555 60005=
07434 04683 /2909 10191 20156 39745 40209 50003 69901 700//
  333 60007 90710 91114
  555 60005=
07460 01680 71102 10246 20201 39819 40188 51004 60001 71322 8698/
  333 60007 81946 85850 90710 91106 93100
  555 60005=
07471 04969 /0402 10184 20141 39276 48857 55002 60001 700//
  333 60007 90710 91108
  555 60005=
07481 02980 41707 10257 20157 39917 40190 51006 60001 82051
  333 60007 82363 83076 90710 91112 93100
  555 60005=
07510 04469 /2104 10197 20182 30158 40222 50004 60001 700//
  333 60007 90710 91107
  555 60005=
07535 06/// /2603 10206 20187 39916 40218 51003 60001
  333 60007 90710 91107
  555 60005=
07558 06/// /2208 10199 20161 39410 40216 55000 60001
  333 60007 90710 91110
  555 60005=
07577 06/// /0302 10225 20172 30120 40206 58002 60001
  333 60007 90710 91103
  555 60005=
07591 04/// /3403 10211 20165 39240 4//// 51007 60001 700//
  333 60007 90710 91105
  555 60005=
07607 04969 /2705 10183 20166 30158 40228 58002 60001 700//
  333 60007 90710 91108
  555 60005=
07621 04585 82905 10190 20143 39806 40228 58003 60001 700//
  333 60007 90710 91110
  555 60005=
07627 06/// /0000 10190 20178 39750 40224 58001 60001
  333 60007 90710 91102
  555 60005=
07630 04676 /3004 10200 20168 30046 40221 58001 60021 700//
  333 60007 90710 91107
  555 60005=
07643 01256 72703 10225 20215 30198 40207 58005 69961 70198 83282
  333 69967 81705 83830 86075 90710 91106
  555 60005=
07650 04975 /0202 10223 20191 30169 40206 58005 60001 700//
  333 60007 90710 91106
  555 60005=
07661 02960 03209 10229 20210 30047 40204 58006 60001
  333 60007 90710 91114
  555 60005=
07690 02970 33205 10254 20211 30166 40198 58006 60001 80001
  333 60007 83073 90710 91106 93100
  555 60005=
07747 04966 /2502 10231 20208 30157 40208 58006 60001 700//
  333 60007 90710 91104
  555 60005=
07761 02470 20701 10233 20199 30187 40197 55002 60001 81501
  333 60007 81610 90710 91105
  555 60005=
07790 04968 /2103 10230 20205 30182 40196 57002 60001 700//
  333 60007 90710 91104
  555 60005=
####018000234####
SMQB15 LQSM 100000
AAXX 10001
14542 12970 02901 10154 20130 30044 40230 50000 60001 333 95900=
14648 12970 03404 10235 20110 30088 40203 51002 60001=
14652 11000 93610 10060 20055 38011 48565 56002 60001 74544 333 89/00
=
####018000114####
SMFI01 EFKL 091800 RRA
AAXX 09181
02952 47982 02203 10209 20115 30154 40169 700// 91800 
333 10222 20189=
####018000101####
SIRA28 RUHB 092100 CCB
AAXX 09211
31969 /1597 80803 10155 20151 30073 40120 52005 72162 885//=
####018000114####
SMFI02 EFKL 091800 RRC
AAXX 09181
02911 47982 02103 10201 20133 30142 40149 700// 91800 
333 10212 20185=
####018000120####
SMFI02 EFKL 091800 RRB
AAXX 09181
02958 47799 72103 10242 20162 30032 40155 700// 87/// 91800 
333 10277 20191=
####018000114####
SMFI02 EFKL 091800 RRA
AAXX 09181
02972 47983 02105 10216 20105 30121 40179 700// 91800 
333 10246 20210=
####018000114####
SMFI01 EFKL 091800 RRB
AAXX 09181
02944 47983 02405 10208 20081 30029 40169 700// 91800 
333 10239 20208=
####018000120####
SMFI01 EFKL 091800 RRE
AAXX 09181
02897 47699 72803 10207 20155 39961 40133 700// 87/// 91800 
333 1//// 2////=
####018000095####
SMFI02 EFKL 091200 RRB
AAXX 09121
02972 47999 02607 10242 20098 30111 40168 700// 91200=
####018000101####
SMFI01 EFKL 091200 RRC
AAXX 09121
02944 47699 32505 10222 20136 30016 40155 700// 83/// 91200=
####018000120####
SMFI01 EFKL 091800 RRF
AAXX 09181
02807 47499 70105 10154 20129 39953 40128 700// 87/// 91800 
333 10187 20153=
####018000114####
SMFI01 EFKL 091800 RRC
AAXX 09181
02913 47682 32104 10202 20127 30095 40144 700// 83/// 
333 10227 20183=
####018000101####
SMFI01 EFKL 091200 RRB
AAXX 09121
02952 47581 32505 10204 20127 30149 40164 700// 83/// 91200=
####018000120####
SMFI01 EFKL 091800 RRD
AAXX 09181
02917 47781 70000 10205 20155 30025 40141 700// 86/// 91800 
333 10261 20197=
####018000089####
SMQT10 OTBD 100000
AAXX 10004
41170 32960 00504 10324 20278 39988 40001 333 59004=
####018000358####
SMKA02 PTTP 100000
AAXX 10004
91350 NIL
91353 32474 40304 10317 20261 30104 40111 5//// 82101
  333 20256 561/9 59005 82819
  555 91000
91425 32474 50403 10283 20272 30117 40118 5//// 82205
  333 20256 561/9 59015 82819
  555 91000
91434 32574 50605 10306 20249 30150 40153 5//// 82230
  333 20244 5611/ 58000 82820 83362
  555 91000
####018000125####
SMCH01 SCSC 100000
AAXX 10004
85442 11557 30000 10120 20085 40159 52013 60001 70511 835002
  333 10171 56000 83627 =
####018001552####
SMHO01 MHTG 100000
AAXX 10004
78700 32978 70000 10292 20263 30113 40118 51001 87070
 333  00000 10325 20235 30/// 58001 70002 87358=
78703 31562 70816 10291 20235 30112 40114 52004 71544 83973
 333  06200 10330 20264 30/// 58020 70000 81916 82816 86458=
78704 11560 81103 10270 20230 30106 40111 51006 69941 71595 8592/
 333   06399 10337 20224 31/// 58001 70004 85922 88457=
78705 01560 70612 10257 20214 30089 40107 56001 60041 79596 83963
 333  06200 10316 20228 31/// 58005 60040 70044 82928 81828 84358
86070=
78706 31565 60312 10302 20241 30105 40110 55005 71744 85904
 333   06400 10320 20224 30/// 59016 70019 82926 83826 85075=
78707 31560 71205 10258 20205 39383 40123 71544 85960
 333  06200 10318 20210 30/// 58007 70000 81925 84825 87358=
78708 01560 83612 10277 20269 30078 40109 55000 60011 79596 8592/
 333  06199 10329 20231 31/// 58003 60015 70099 83928 82628 88458=
78711 01560 80000 10254 20240 30101 40116 56009 60061 71596 83907
 333  06209 10310 20247 32/// 58008 60017 70079 81925 82825 88275=
78714 NIL=
78717 11560 70000 10230 20195 38934 40105 54000 69911 70544 84963
 333  10272 20184 30/// 56200 58004 70002 81925 83825 84360 85075=
78718 11658 70000 10206 60031 71796 86963
 333  06000 10282 20208 31/// 70025 83935 83835=
78719 NIL=
78720 31560 70604 10240 20189 39019 40094 53003 71544 86971
 333  06120 10273 20189 30/// 58003 70041 81926 85828 86358=
78724 32578 60000 10302 20200 30027 40084 53003 83170
 333  01100 10318 20230 30/// 59011 70002 83830 83358=
####018000122####
SMMF01 TFFR 100000
AAXX 10004
78897 14981 60703 10252 20219 40159 50013 60031 700//
 333 10322 20248 58003 70032=
####018000140####
SMMR01 TFFF 100000
AAXX 10004
78925 12570 60204 10262 20241 40142 52001 60001 82232
 333 10312 20252 59005 70085 82823 83360 85080=
####018000119####
SMFI02 EFKL 091800 RRB
AAXX 09181
02958 47799 72103 10242 20162 30032 40155 700// 87/// 91800
333 10277 20191=
####018000101####
SMFI01 EFKL 091200 RRG
AAXX 09121
02807 47599 70000 10160 20137 39948 40122 700// 87/// 91200=
####018000101####
SMFI01 EFKL 091200 RRF
AAXX 09121
02897 47881 32905 10230 20151 39958 40128 700// 83/// 91200=
####018000095####
SMFI01 EFKL 091200 RRD
AAXX 09121
02913 47580 72003 10210 20158 30083 40132 700// 87///=
####018000113####
SMFI01 EFKL 091800 RRA
AAXX 09181
02952 47982 02203 10209 20115 30154 40169 700// 91800
333 10222 20189=
####018000119####
SMFI01 EFKL 091800 RRF
AAXX 09181
02807 47499 70105 10154 20129 39953 40128 700// 87/// 91800
333 10187 20153=
####018000113####
SMFI02 EFKL 091800 RRC
AAXX 09181
02911 47982 02103 10201 20133 30142 40149 700// 91800
333 10212 20185=
####018000113####
SMFI01 EFKL 091800 RRC
AAXX 09181
02913 47682 32104 10202 20127 30095 40144 700// 83///
333 10227 20183=
####018000401####
SMSQ10 LZIB 100000
AAXX 10001
11816 12970 00000 10169 20112 30060 40219 58001 60001
  333 55149=
11826 15/64 /0202 10149 20124 30031 40226 52003 60001
  333 55003=
11903 12980 00000 10148 20128 39863 40235 51006 60001
  333 55147=
11934 12984 12902 10115 20087 39436 42863 58006 60001 80001
  333 55137 81070=
11968 12982 03602 10176 20119 39949 40221 57006 60001
  333 55150=
####018000101####
SMFI02 EFKL 091200 RRD
AAXX 09121
02911 47583 72006 10210 20116 30130 40137 700// 83/// 91200=
####018000113####
SMFI02 EFKL 091800 RRA
AAXX 09181
02972 47983 02105 10216 20105 30121 40179 700// 91800
333 10246 20210=
####018000119####
SMFI01 EFKL 091800 RRE
AAXX 09181
02897 47699 72803 10207 20155 39961 40133 700// 87/// 91800
333 1//// 2////=
####018000119####
SMFI01 EFKL 091800 RRD
AAXX 09181
02917 47781 70000 10205 20155 30025 40141 700// 86/// 91800
333 10261 20197=
####018000113####
SMFI01 EFKL 091800 RRB
AAXX 09181
02944 47983 02405 10208 20081 30029 40169 700// 91800
333 10239 20208=
####018000095####
SMFI02 EFKL 091200 RRC
AAXX 09121
02958 47981 02003 10264 20193 30020 40142 700// 91200=
####018000101####
SMFI01 EFKL 091200 RRE
AAXX 09121
02917 47181 12504 10256 20125 30017 40131 700// 81/// 91200=
####018000028####
SMCG01 FCBB 100000
NIL=
####018000115####
SMDL47 EDZW 100000 RRA
AAXX 10001
10502 42981 42102 10244 20146 30031 40185 51005 82031
  333 82362 84075=
####018000127####
SMDL22 EDZW 100000 RRA
AAXX 10001
10453 12984 71806 10203 20112 38932 48579 53001 60001 8705/
  333 30/// 55300 87361=
####018000115####
SMDL46 EDZW 100000 RRA
AAXX 10001
10381 12981 01404 10195 20149 30111 40195 52005 60001
  333 30/// 55300=
####018000257####
SMDL48 EDZW 100000 RRA
AAXX 10001
10613 42980 42702 10222 20149 39643 40194 50002 83031
  333 83361 83075=
10618 42980 32001 10195 20155 39766 40202 51002 82031
  333 82363=
10743 42984 11801 10205 20153 39659 40199 52003 80001
  333 81080=
####018000393####
SMDL49 EDZW 100000 RRA
AAXX 10001
10765 42982 51501 10211 20136 39749 40202 51004 85030
  333 85366=
10771 42980 21002 10200 20128 39729 40211 52006 80001
  333 82080=
10827 42984 50601 10199 20133 39168 48581 55000 80001
  333 85068=
10837 42980 22401 10201 20161 39577 40203 53003 80001
  333 82078=
10853 42980 10000 10194 20149 39759 40206 52004 80001
  333 81076=
