####018000103####
SIAA17 LFVW 092100 RRE
AAXX 09214
89610 46/// /0441 11152 39728 4//// 5////
  333 90700 91151=
####018000095####
SIAA14 EGRR 092100 RRF
AAXX 09214
89266 46/// /1819 11251 21276 39750 49900 52001 92110=
####018000091####
SNAA14 EGRR 092110
AAXX 09214
89257 46/// /1703 11336 21369 39870 49949 52009 92110=
####018000095####
SIAA14 EGRR 092100 RRE
AAXX 09214
89257 46/// /1603 11338 21371 39869 49948 52008 92100=
####018000074####
SAYE20 OYSC 092200
METAR OYTZ 092200Z 00000KT 9999SCT030 27/16 Q1009=
####018000128####
SMXX19 KAWN 091800 RRD
BBXX
DGOH2 09184 99325 11339 41/98 62014 10260 20232 40065 54000 70282
 22264 00270 2//02 80240=
####018000131####
SNAU01 AMMC 092200 RRA
AAXX 09224
94200 41/70 61615 10180 70211 8607/=
94451 41960 00000 10049 20037 39659 40185 70200=

####018000155####
SNAU40 AMMC 092200 RRA
AAXX 09224
94213 41/70 10000 10180 20163 39911 40148 70100 81050=
94401 41684 83404 10103 20097 30183 40191 75022 88200=

####018000143####
SNAU41 AMMC 092200 RRA
AAXX 09224
94633 41980 02903 10044 20035 39799 40152 52019 70200=
94635 417// 20000 10037 20032 70181 82400=

