####018000113####
SNAU03 AMMC 091700 RRK
AAXX 09174
94804 17/// /3644 10119 20117 39951 49989 55025 60083 7//44 91730=


####018000107####
SNAU03 AMMC 092000 RRK
AAXX 09204
94804 47/// /3538 10129 20108 39955 49993 53004 7//44 92030=


####018000852####
SNVD15 KWNB 092300 RRB
BBXX
42040 09231 99292 70882 46/// /2504 10292 20215 40139 58018 92250
22200 00309 10701 317// 40701 70005 333 91205 555 11043 22044
32226 42606 62249 250043 245044 260043 255043 260041 263041=
44011 09231 99411 70666 46/// /1506 10204 40158 56016 92250 22200
00178 10803 20402 316// 40803 70016 333 91206 555 11063 22073
32216 43507 62249 153055 157057 158057 160056 158050 162051=
41043 09231 99211 70650 46/// /0906 10285 20235 40178 55000 92250
22200 00291 10704 20602 300// 40703 70018 333 91208 555 11068
22071 32153 41008 62249 093064 094068 095065 094069 092064 092066
81007 92153=
42055 09231 99220 70940 46/// /0906 10284 20256 40122 56005 92250
22200 00281 10602 20401 308// 40602 70010 333 91207 555 11060
22065 32247 40907 62249 088055 087040 090038 097032 114034 115037
80906 92247=
####018001434####
SNVD20 KWNB 092300 RRC
BBXX
41008 09231 99314 70809 46/// /1807 10293 40114 56016 92250 22200
10901 20301 300// 40901 70007 333 91208 555 11077 22082 32153
41809 62249 179072 180074 179074 179074 180077 180076=
41004 09231 99325 70791 46/// /1803 10279 20253 40120 58008 92250
22200 00277 10801 20401 3//// 40801 70006 333 91204 555 11032
22035 32152 41804 62249 176029 177027 176025 177028 176032 180034=
44009 09231 99385 70747 46/// /1404 10251 20232 40098 56021 92250
22200 00252 10702 20401 300// 40702 70011 333 91205 555 11041
22043 32152 41306 62249 141040 139046 139048 138048 137050 134053=
41013 09231 99334 70777 46/// /2107 10289 20222 40109 56011 92250
22200 00298 333 91209 555 11079 22083=
44018 09231 99413 70693 46/// /1405 10185 20185 40129 56018 92250
22200 10703 20401 316// 40703 70014 333 91206 555 11053 22057
32218 41507 62249 144051 147054 151054 149058 142054 145051=
44065 09231 99404 70737 46/// /1605 10249 20238 40104 56019 92250
22200 00247 10802 20501 316// 40802 70012 333 91206 555 11058
22062 32245 41606 62249 163053 155053 154046 154052 150048 148047
83406 92244=
44040 09231 99410 70736 46/// /1905 10266 20212 40114 92245 22200
1//00 70002 333 91206 555 11067 22077=
44020 09231 99414 70702 46/// /1503 10233 20233 40126 56019 92250
22200 00234 10301 70003 333 91204 555 11036 22038 32220 41505
62249 155034 157036 153041 151039 130035 126044=
####018001697####
SNVD22 KWNB 092300 RRD
BBXX
46053 09231 99342 71198 46/// /2706 10154 40124 58013 92250 22200
00173 10501 20501 328// 40501 70006 333 91206 555 11058 22060
32241 42606 62249 264055 254052 249051 248052 245050 249050=
46028 09231 99357 71219 46/// /3206 10136 20122 30145 40145 58010
92250 22200 00140 11202 20501 318// 41202 70011 333 91207 555
11068 22072 32244 43207 62249 321065 323063 330058 325058 325056
325055=
46088 09231 99483 71232 46/// /2406 10139 40140 92250 22200 00125
1//00 70002 333 91207 555 11060 22063 32239 42507 62249 243057
245057 243053 238050 241051 240046=
46012 09231 99374 71229 46/// /3004 10126 40150 58009 92250 22200
00129 11402 20401 316// 41402 70010 333 91204 555 11037 22038
32219 43005 62249 298035 297035 296039 304037 307028 311024=
46013 09231 99382 71233 46/// /2702 10117 40143 58007 92250 22200
00111 11302 20401 320// 41302 70010 333 91202 555 32244 42702
62249 265017 263015 257012 266014 270015 269014=
46029 09231 99461 71245 46/// /3407 10162 20162 40170 52004 92250
22200 00162 10702 20401 331// 40702 70011 333 91208 555 11066
22066 32150 43308 62249 335065 336061 336058 335058 336057 335055=
46054 09231 99343 71205 46/// ///10 10145 40126 58012 92250 22200
00154 10402 20402 300// 40801 70012 333 91212 555 11110 22117=
46015 09231 99427 71248 46/// /0109 10123 40151 52003 92250 22200
10802 20502 332// 40801 70011 333 91211 555 11098 22105 32214
40111 62249 011092 010089 009093 008095 007093 007092=
46025 09231 99337 71191 46/// /2804 10157 40127 58016 92250 22200
00179 11301 319// 41301 70006 333 91205 555 11043 22044 32249
42805 62249 280040 287036 269036 281038 275038 277040=
####018003668####
SNVD15 KWNB 092300 RRA
BBXX
41012 09231 99300 70805 46/// /1806 10285 20250 40125 56013 92250
22200 00283 10801 20301 309// 40801 70004 333 91207 555 11062
22067 32221 41807 62249 175058 178055 178056 177050 176045 176049=
41046 09231 99238 70709 46/// /1107 10281 20244 40169 56015 92250
22200 00293 10802 20602 309// 40802 70011 333 91208 555 11073
22077 32248 41008 62249 106069 104063 103058 098055 100053 099055
82808 92248=
41001 09231 99347 70727 46/// /1907 10269 20229 40118 56010 92250
22200 00271 10802 20602 3//// 40802 70012 333 91208 555 11074
22078 32244 41908 62249 194070 193068 187064 185062 183062 185061=
41049 09231 99275 70630 46/// /1106 10272 20241 40215 55000 92250
22200 00275 10803 20501 300// 40802 70013 333 91207 555 11058
22061 32245 41107 62249 107055 104054 102049 098050 097053 104053
81106 92246=
42036 09231 99285 70845 46/// /2503 10294 40145 56013 92250 22200
00304 10701 70003 333 91204 555 11028 22029 32232 42604 62249
247028 252032 254030 243027 244028 224026=
41048 09231 99320 70696 46/// /1809 10272 20238 40165 57005 92250
22200 00272 10804 20804 70018 333 91210 555 11095 22102 32200
41910 62249 177088 176076 184084 187084 191087 191085 81909 92201=
41044 09231 99217 70587 46/// /0906 10281 20252 40185 53004 92250
22200 00282 10703 20502 300// 40702 70014 333 91207 555 11063
22066 32212 40907 62249 090059 090058 090058 092057 091059 090056
80906 92151=
44005 09231 99432 70691 46/// /1606 10207 92250 22200 00198 10602
20401 3//// 40601 70010 333 91207 555 11070 22077 32156 41608
62249 158065 160062 160058 158061 156062 156066=
42039 09231 99288 70860 46/// /2402 10287 20221 40149 56014 92250
22200 00303 10701 300// 40701 70004 333 91203 555 11017 22018
32151 42503 62249 243018 252018 250014 251013 255016 258019 80602
92151=
42035 09231 99292 70944 46/// /1302 10288 40149 58014 92250 22200
00306 10602 20301 317// 40601 70008 333 91203 555 11020 22020
32235 41403 62249 133019 139022 125017 132021 132017 138020=
42060 09231 99165 70635 46/// /0909 10294 20235 40145 53003 92250
22200 00294 10604 20604 70019 333 91211 555 11094 22100 32153
40911 62249 085089 083089 080084 083087 088088 090091 80910 92153=
42019 09231 99279 70954 46/// /1304 10292 20257 40147 56013 92250
22200 00294 10602 20401 314// 40602 70012 333 91205 555 11041
22044 32154 41305 62249 127040 129036 127037 127038 128045 130045=
42059 09231 99151 70675 46/// /1009 10286 20247 40129 55000 92250
22200 00295 10705 20603 300// 40703 70023 333 91211 555 11097
22102 32222 41112 62249 104090 106092 109104 105103 096095 093096
81111 92219=
42020 09231 99270 70967 46/// /1107 10285 40125 57013 92250 22200
00297 10703 20603 311// 40702 70017 333 91208 555 11069 22072
32158 41208 62249 112064 113065 115065 117065 119064 121067=
42056 09231 99199 70851 46/// /1307 10270 20244 40136 53006 92250
22200 00291 10602 20602 70008 333 91209 555 11075 22078 32236
42413 62249 132072 143103 121062 122058 121058 123065 81512 92236=
44066 09231 99396 70726 46/// /1904 10256 20247 40110 56015 92250
22200 10802 20301 300// 40802 70012 333 91205 555 11047 22050
32242 42005 62249 193044 194041 187036 181034 188034 183039=
41047 09231 99275 70715 46/// /1905 10275 20242 40173 56007 92250
22200 00286 10802 20401 310// 40801 70008 333 91205 555 11049
22051 32157 42006 62249 194047 195044 200041 200041 199046 201052
82106 92157=
42012 09231 99301 70876 46/// /2406 10288 20252 40137 58019 92250
22200 00296 10701 20301 318// 40701 70006 333 91207 555 11060
22063 32248 42407 62249 243057 250055 257051 251051 251053 252053=
####018001112####
SNVD17 KWNB 092300
BBXX
46084 09231 99566 71361 46/// /1310 10122 20122 40131 57009 92250
22200 00119 10503 20503 300// 40801 70015 333 91213 555 11111
22118 32247 41313 62249 132103 132099 134095 138097 136098 135094=
46075 09231 99539 71608 46/// /1808 10091 20078 49974 51008 92250
22200 00092 10805 20604 300// 40804 70027 333 91210 555 11088
22093 32233 41911 62249 181081 186085 186082 185078 189077 191073
81910 92233=
46005 09231 99461 71310 46/// /2906 10140 40247 54000 92250 22200
00135 11302 20601 300// 41302 70009 333 91207 555 11064 22069
32240 42907 62249 286059 287056 282052 285047 286047 291046=
46005 09231 99461 71310 46/// /2906 10140 40247 92250 22200 00135
11302 20601 300// 41302 70009 333 91207 555 11064 22069 32240
42907 62249 286059 287056 282052 285047 286047 291046=
46080 09231 99580 71500 46/// ///// 10097 40086 56012 92250 22200
10705 70023=
46085 09231 99559 71426 46/// /1403 10109 20109 40075 55000 92250
22200 00105 10603 20301 3//// 40603 70016 333 91204 555 11032
22036 32154 41305 62249 138029 135031 139033 128033 118033 120037=
####018000593####
SNVD45 KWNB 092300 RRB
BBXX
45004 09231 99476 70866 46/// /2804 10150 39908 40129 58010 92250
22200 00133 10401 20401 70004 333 91205 555 11044 22052 32150
42705 62249 276038 273036 268038 265037 259035 267037=
45005 09231 99417 70824 46/// /0107 10258 39910 40112 56008 92250
22200 00258 10401 20401 70006 333 91208 555 11073 22077 32247
40108 62249 007068 005063 006066 007066 004066 002070=
45003 09231 99454 70828 46/// /3205 10204 39916 40128 57007 92250
22200 00174 1//00 70001 333 91206 555 11062 22073 32241 43206
62249 319054 317051 315043 309042 308033 320035=
####018000428####
SNVE15 KWNB 092300 RRA
BBXX
51000 09231 99235 71541 46/// /0808 10245 20165 40198 58011 92250
22200 00249 11104 20603 310// 41103 70021 333 91210 555 11089
22094 32224 40911 62249 081083 082086 084091 083087 085083 077087=
51003 09231 99191 71607 46/// /0707 10254 40162 58007 92250 22200
00267 10604 20603 300// 40802 70018 333 91208 555 11077 22081
32151 40609 62249 071074 069074 068070 070071 066070 058074=
####018000215####
SNVD45 KWNB 092300 RRC
BBXX
45006 09231 99473 70898 46/// /2105 10176 39914 40134 57015 92250
22200 00146 1//00 70001 333 91206 555 11059 22070 32248 42106
62249 209051 209050 206045 204044 207045 209046=
####018000091####
SNAA14 EGRR 092120
AAXX 09214
89266 46/// /1719 11251 21276 39750 49900 52001 92120=
####018000091####
SNAA14 EGRR 092120
AAXX 09214
89257 46/// /1703 11334 21367 39871 49950 52010 92120=
####018000233####
SNVD15 KWNB 092300 RRC
BBXX
42057 09231 99168 70815 46/// /0708 10298 20249 40119 56011 92250
22200 00293 10603 20603 70015 333 91210 555 11090 22096 32226
40811 62249 073083 072084 071091 073089 073089 068088 80710 92226=
####018000091####
SNAA14 EGRR 092120
AAXX 09214
89065 46/// /9902 11168 21183 39710 49792 57004 92120=
####018000091####
SNAA14 EGRR 092120
AAXX 09214
89272 46/// /3003 11211 21235 37978 49660 57001 92120=
####018000095####
SIAA14 EGRR 092100 RRG
AAXX 09214
89013 46/// /0716 1//// 2//// 37600 4//// 52019 92120=
####018001321####
SNDL44 EDZW 092300
AAXX 09231
10022 NIL=
10028 42975 61204 10217 20177 30152 40165 57002 85032
  333 55300 20000 30000 85365=
10033 42975 21103 10192 20175 30131 40170 57006 82031
  333 82365=
10037 NIL=
10038 42960 31102 10197 20161 30147 40168 57007 82031
  333 82364 83075=
10042 47957 71202 10208 20185 30170 40174 58008 71000
  333 55300 87/62 87/71 87/82=
10067 NIL=
10093 45981 11302 10221 20178 30149 40196 50000
  333 55300 81/63=
10097 45975 01105 10221 20191 30184 40198 50000
  222// 06221
  333 55300=
10126 42975 32503 10222 20176 30154 40168 53006 83030
  333 83363=
10129 45960 71502 10258 20177 30152 40164 51005
  333 55300 20000 30000 87/62=
10130 45961 41203 10215 20182 30149 40154 58002
  333 55300 84/61=
10136 42962 21203 10231 20181 30129 40166 50001 82030
  333 82362=
10139 45964 81001 10219 20177 30149 40162 51010
  333 55300 20000 30000 87/59 88/62=
10142 46969 01001 10222 20173 30140 40170 57003
  333 55300=
10146 45966 01201 10216 20177 30155 40171 52001
  333 55300=
10150 45963 11302 10217 20178 30139 40172 57004
  333 55300 20000 30000 81/64=
10152 47937 80601 10194 20182 30173 40175 50000 71000
  333 55300 81/66 88/81=
10156 45958 70801 10197 20183 30157 40178 51001
  333 55300 20000 30000 87/66 87/68=
####018001371####
SNDL49 EDZW 092300
AAXX 09231
10756 45981 51201 10207 20152 39657 40200 51007
  333 55300 20000 30000 81/75 83/80 85/81=
10761 45961 03201 10203 20140 39714 40199 51007
  333 55300 20000=
10765 NIL=
10771 NIL=
10777 45979 00000 10214 20128 39592 40202 51005
  333 55300=
10782 45959 00901 10158 20142 39639 40218 51009
  333 55300 20000 30000=
10796 45968 01001 10167 20141 39516 40223 51010
  333 55300=
10803 45974 03501 10199 20177 39918 40193 51006
  333 55300 20000 30000=
10818 45984 50703 10218 20113 39124 48585 51006
  333 55300 20000 30000 81/61 85/69 85/81=
10827 NIL=
10837 NIL=
10838 469// 03002 10230 20158 39552 40193 51005
  333 55300=
10850 45985 01002 10233 20128 39632 40200 51007
  333 55300=
10853 NIL=
10856 NIL=
10857 NIL=
10860 NIL=
10863 45974 22901 10174 20145 39654 40206 51005
  333 55300 20000 30000 41246 82/69=
10865 45982 51302 10216 20131 39604 40200 51003
  333 55300 85/71=
10872 45659 21201 10154 20141 39804 40216 51009
  333 55300 82/39=
10875 45963 12801 10150 20135 39736 40216 51006
  333 55300 20000 30000 81/78=
10945 45964 71301 10169 20150 39439 40207 52006
  333 55300 87/66=
10954 NIL=
10963 45981 72401 10174 20147 39396 40214 52007
  333 55300 20000 30000 87/65=
10982 45981 01002 10189 20145 39575 40206 51003
  333 55300 20000 30000=
####018002275####
SNDL21 EDZW 092300
AAXX 09231
10004 46/45 /3004 10179 20166 30172 40172 51012
222// 00172
  333 55300=
10015 42958 11306 10209 20192 30154 40163 50001 81032
  333 55300 2//// 3//// 81364=
10020 45968 01305 10217 20183 30134 40165 58001
  333 55300 20000 30000=
10035 42970 70803 10206 20164 30112 40168 58008 85031
  333 55300 20000 30000 41331 85363 83076=
10055 47956 01204 10196 20182 30164 40174 58007 71000
  333 55300 20000 30000=
10147 42981 10702 10227 20191 30154 40171 51001 81030
  333 55300 20000 30000 41363 81364=
10162 45973 21602 10266 20132 30103 40181 50003
  333 55300 81/68=
10184 42967 00902 10196 20163 30190 40197 52001
  333 55300 20000 30000=
10200 42966 22804 10216 20180 30172 40170 51010 81031
  333 55300 20000 30000 81363=
10224 42975 72801 10251 20162 30162 40168 53004 8703/
  333 55300 20000 30000 87360=
10270 46960 00902 10225 20137 30131 40183 51002
  222// 06252
  333 55300=
10338 42982 21502 10264 20153 30106 40174 52004 82031
  333 55300 20000 30000 82359=
10361 45980 21702 10231 20151 30085 40184 51002
  333 55300 20000 30000 82/69=
10393 42980 01303 10237 20123 30080 40200 51007
  333 55300 20000 30000=
10400 42981 62302 10264 20159 30132 40179 51011 82531
  333 55300 20000 30000 82659 86365=
10438 45979 81802 10228 20148 39921 40187 51007
  333 55300 88/64=
10469 42984 01203 10224 20163 30032 40189 51002
  333 55300=
10488 42981 01403 10234 20136 39932 40199 52003
  333 55300 20000 30000 41314=
10506 42983 52102 10237 20148 39639 40189 51008 84031
  333 55300 84362 83080=
10548 42980 41701 10231 20129 39677 40190 51005 84030
  333 55300 20000 30000 84363=
10637 42981 20000 10236 20174 30057 40187 51006 80001
  333 55300 82080=
10685 45972 01502 10194 20137 39552 40198 52005
  333 55300 20000 30000=
10738 42980 41601 10219 20158 39750 40197 51008 80001
  333 55300 84080=
10763 42981 11103 10230 20139 39833 40196 51009 81030
  333 55300 20000 30000 81365=
10788 45980 01001 10185 20136 39799 40212 51010
  333 55300 20000 30000=
10852 42980 13601 10185 20133 39656 40204 51006 81030
  333 55300 20000 30000 81363=
10946 45971 81101 10189 20168 39406 40202 53005
  333 55300 20000 30000 87/66 88/68=
####018001877####
SNDL46 EDZW 092300
AAXX 09231
10321 45963 62701 10235 20183 30122 40172 52006
  333 55300 20000 30000 86/60=
10325 45980 02102 10256 20145 30022 40178 52006
  333 55300=
10334 42980 31502 10258 20153 30093 40173 52004 83030
  333 83359=
10335 NIL=
10343 42975 11302 10257 20146 30116 40176 52003 80009
  333 81170=
10348 45980 61503 10239 20162 30078 40179 53002
  333 55300 20000 30000 41362 82/66 86/68=
10356 45972 61901 10228 20156 39992 40180 51005
  333 55300 86/70=
10359 45966 32901 10183 20142 30129 40186 53002
  333 55300 20000 30000 83/67=
10365 45964 01301 10184 20145 30141 40186 51004
  333 55300 20000 30000=
10368 45970 01402 10213 20143 39973 40191 50002
  333 55300 20000 30000=
10376 45968 01102 10203 20146 30123 40191 52008
  333 55300=
10381 NIL=
10385 42981 11203 10221 20138 30138 40197 51006 81031
  333 55300 20000 30000 81363=
10389 46/// /1708 10258 20130 30099 40194 51005=
10396 45982 01302 10207 20132 30192 40207 51009
  333 553//=
10404 42975 60000 10247 20159 30130 40180 52011 86070
  333 82360 85366=
10410 45981 82302 10260 20162 30007 40178 51010
  333 55300 84/61 88/63 88/67=
10418 45980 82302 10243 20141 39744 40188 52006
  333 55300 20000 30000 88/65=
10424 45973 72202 10228 20154 30077 40177 52008
  333 55300 20000 30000 83/62 87/67=
10433 45980 81702 10239 20137 39880 40176 52007
  333 55300 20000 30000 88/66=
10435 45973 71901 10237 20145 39915 40186 53006
  333 55300 82/61 86/63 87/66=
10442 45975 70701 10219 20165 30015 40188 53007
  333 55300 20000 30000 81/59 86/63 87/66=
10444 45970 71901 10213 20166 39989 40188 53008
  333 55300 20000 30000 87/64=
10449 45976 81401 10245 20150 39788 40189 52004
  333 55300 20000 30000 85/65 88/67=
10452 45974 83201 10206 20141 39506 40194 51003
  333 55300 20000 30000 87/65 88/67=
####018001901####
SNDL23 EDZW 092300
AAXX 09231
10609 42982 01901 10218 20158 39881 40195 51008
  333 55300 20000 30000=
10616 42984 02502 10229 20141 39624 40192 51006
  333 55300=
10641 45972 03401 10218 20174 30049 40189 51005
  333 55300=
10655 42975 51402 10233 20162 39877 40188 51006 82032
  333 55300 20000 30000 82366 85080=
10675 45972 71401 10187 20160 39917 40198 52009
  333 55300 20000 30000 86/65 87/67=
10688 45980 03301 10202 20121 39704 40205 51010
  333 55300 20000 30000=
10708 42980 53301 10200 20153 39827 40197 51004 81031
  333 55300 20000 30000 81360 85080=
10729 45978 01701 10204 20177 30075 40192 51007
  333 55300 20000 30000=
10731 45964 82201 10201 20182 30055 40193 51005
  333 55300 20000 30000 88/80=
10742 45968 01302 10215 20174 39878 40194 51007
  333 55300 20000 30000=
10776 45976 00101 10197 20144 39781 40207 51010
  333 55300 20000 30000=
10791 43/// ///02 10178 20123 38641 48587 50004 8////
  333 55300=
10805 42981 70000 10212 20183 30008 40190 50003 80004
  333 55300 20000 30000 87081=
10815 45980 00401 10213 20146 39310 48582 51006
  333 55300 20000 30000=
10836 45984 01602 10239 20116 39372 40191 50004
  333 55300 20000 30000=
10870 42975 00801 10184 20151 39694 40206 51005
  333 55300=
10895 45973 10502 10195 20144 39667 40214 51009
  333 55300 20000 30000 81/81=
10908 42986 10604 10202 20114 38589 48580 51004 81030
  333 55300 20000 30000 81360=
10929 42965 52101 10215 20171 39688 40194 51008 83031
  333 55300 20000 30000 83363 84080=
10948 45981 81602 10178 20144 39302 48574 53007
  333 55300 20000 30000 83/63 87/66 88/70=
10961 43/// /0104 10097 21015 37230 47228 51001 8////
  333 55300 20000 41099=
10962 42983 70703 10240 20111 39110 48588 53003 8703/
  333 55300 20000 30000 87363=
10980 42989 03203 10176 20081 38258 48587 51002
  333 55300 20000 30000=
####018002266####
SNDL22 EDZW 092300
AAXX 09231
10006 46/// /3003 10182 20168 30163 40169 51012
222// 00173
  333 553//=
10007 NIL=
10008 NIL=
10043 NIL=
10044 46/// /1207 10215 20182 30139 40170 58009
222// 00203
  333 55300=
10046 42980 41002 10214 20165 30133 40170 57008 82031
  333 82365 83072=
10091 45984 01405 10235 20152 30144 40192 58003
  333 55300 20000 30000=
10113 45958 63006 10209 20178 30152 40170 52010
  333 55300 20000 30000 84/66 86/68=
10124 46/// /1406 10244 20204 30128 40163 52002
222// 00121
  333 55300=
10131 45967 71503 10237 20174 30147 40161 50001
  333 55300 20000 30000 87/61=
10170 42980 01404 10241 20155 30169 40184 55000
  333 55300 20000 30000=
10264 45980 01402 10236 20122 30082 40183 51002
  333 55300 20000 30000=
10291 42980 41402 10226 20138 30134 40199 51004 81034
  333 55300 20000 30000 81366 84076=
10315 42980 33001 10214 20149 30116 40177 52011 81031
  333 55300 20000 30000 81360 83077=
10379 42983 01605 10249 20120 30073 40188 52004
  333 55300 20000 30000 41348=
10382 42983 11202 10242 20131 30150 40193 51005 81040
  333 55300 81364=
10384 46/// /1203 10243 20129 30136 40193 51006
  333 55300 20000 30000=
10427 42982 42405 10220 20129 39235 48574 51004 84070
  333 55300 20000 30000 83360=
10430 45976 61201 10219 20162 39999 40182 51009
  333 55300 20000 30000 86/65=
10439 42965 72801 10219 20163 39980 40190 52007 8707/
  333 87362=
10453 42986 51806 10204 20114 38932 48579 53003 85030
  333 55300 85363=
10496 45983 01202 10233 20131 30116 40197 51007
  333 55300 20000 30000=
10499 42978 01602 10200 20153 39932 40211 50003
  333 55300 20000 30000=
10501 42982 11802 10243 20169 39951 40186 51010 81030
  333 55300 81362=
10513 42984 31202 10232 20170 30069 40184 51010 81031
  333 55300 20000 30000 81365 83080=
10532 45972 0//01 10207 20159 39946 40183 51006
  333 55300 20000 30000=
10544 42985 12403 10209 20117 39169 48577 52002 80001
  333 55300 81077=
10554 42982 32103 10228 20143 39820 40188 51005 81031
  333 55300 20000 30000 81363 83080=
10567 42984 01803 10209 20157 39833 40192 52003
  333 55300 20000 30000=
10578 42987 01704 10193 20089 38877 48586 51004
  333 55300 20000 30000=
####018001689####
SNDL48 EDZW 092300
AAXX 09231
10564 45980 71704 10227 20120 39626 40194 52005
  333 55300 87/66=
10565 45960 72201 10224 20162 39897 40179 51004
  333 55300 87/77=
10569 45977 02102 10199 20135 39754 40201 52006
  333 55300 20000 30000=
10574 45984 01803 10203 20105 39205 48582 51004
  333 55300=
10577 45982 01402 10234 20129 39718 40194 52005
  333 55300 20000 30000=
10579 47/// /1503 10223 20116 39484 40204 51006 7////
  333 55300=
10582 45981 01605 10184 20106 39224 48578 50003
  333 55300 20000 30000=
10591 45982 01303 10227 20127 39834 40198 51006
  333 55300=
10613 NIL=
10615 45985 11101 10215 20146 39649 40196 51007
  333 55300 20000 30000 81/71=
10618 NIL=
10628 45980 03101 10215 20166 30063 40192 51009
  333 55300=
10635 45983 03002 10215 20139 39271 48574 50002
  333 55300=
10646 45965 00301 10193 20165 39805 40198 51006
  333 55300=
10648 45974 02603 10251 20129 39676 40188 51004
  333 55300 20000 30000=
10658 45968 03601 10216 20169 39868 40192 52006
  333 55300=
10671 45969 60203 10189 20146 39799 40199 52007
  333 55300 20000 30000 82/65 86/69=
10686 45980 02503 10220 20116 39498 40199 51005
  333 55300=
10704 45983 23501 10259 20141 39778 40188 53007
  333 55300 20000 30000 82/81=
10706 45986 02801 10253 20146 39754 40191 51006
  333 55300=
10724 45960 02705 10242 20122 39564 40188 50003
  333 55300 20000 30000=
10733 45974 33301 10211 20166 39916 40193 51006
  333 55300 20000 30000 82/74 83/77=
10736 45972 30000 10178 20154 39915 40200 51007
  333 55300 83/71=
10739 45980 02301 10250 20138 39827 40188 51007
  333 55300 20000 30000 41357=
10743 NIL=
####018001436####
SNDL45 EDZW 092300
AAXX 09231
10161 45965 11704 10218 20170 30158 40178 54000
  333 55300 20000 30000 81/67=
10168 45968 41601 10220 20174 30118 40187 51003
  333 55300 84/72=
10172 42970 00802 10220 20149 30118 40187 52001=
10180 45977 01402 10211 20168 30186 40191 50000
  333 55300=
10193 45983 01603 10239 20133 30188 40191 50003
  333 55300 20000 30000=
10215 45969 70000 10235 20164 30157 40171 53007
  333 55300 87/62=
10235 NIL=
10238 42960 41001 10229 20161 30087 40177 52004 84030
  333 84367=
10246 42980 31303 10261 20118 30076 40177 52003 82031
  333 82367=
10249 45968 81402 10246 20150 30124 40177 51005
  333 55300 20000 30000 88/66=
10253 45967 41901 10202 20170 30153 40174 51004
  333 55300 84/66 84/69=
10261 42984 21501 10211 20145 30156 40183 51002 80001
  333 55300 20000 30000 82080=
10267 45975 11002 10218 20139 30140 40190 51002
  333 55300 81/65=
10268 46/// /1403 10251 20134 30108 40190 51002
  333 55300=
10281 42975 01203 10221 20136 30088 40197 52002=
10282 45968 00501 10188 20146 30058 40195 54000
  333 55300=
10289 45983 21204 10232 20138 30130 40197 50002
  333 55300 82/67=
10304 NIL=
10305 469// 03101 10245 20148 30144 40174 51012
  333 55300=
10306 NIL=
10309 45965 82701 10211 20161 30123 40178 51012
  333 55300 20000 30000 88/67=
10317 46960 71802 10224 20153 30063 40175 52007
  333 55300 81/76 86/78 87/80=
####018001453####
SNDL47 EDZW 092300
AAXX 09231
10454 45976 81802 10251 20145 39913 40186 50000
  333 55300 87/67 88/71=
10458 45965 72502 10183 20156 39718 40185 51002
  333 55300 20000 30000 87/63=
10460 45975 81501 10228 20169 39993 40184 51004
  333 55300 20000 30000 88/66=
10466 46/61 /1101 10214 20162 30079 40191 50001
  333 55300 20000 30000=
10471 45966 10000 10198 20170 30031 40192 52003
  333 55300 20000 30000 41323 81/70=
10474 45976 00902 10238 20141 30068 40190 51004
  333 55300 20000 30000=
10476 42980 41002 10202 20134 30076 40195 51004 80004
  333 84073=
10480 45963 01601 10203 20173 30022 40197 51003
  333 55300 20000 30000=
10490 45969 13501 10189 20158 30081 40196 51005
  333 55300 20000 30000 81/73=
10495 45980 01202 10208 20150 30066 40202 51004
  333 55300=
10500 NIL=
10502 NIL=
10515 46959 70502 10243 20165 30038 40186 51009
  333 55300 87/63=
10516 NIL=
10519 45983 42202 10253 20159 30000 40184 51008
  333 55300 84/64=
10526 469// 01301 10227 20152 39565 40191 51005
  333 55300=
10534 45975 02303 10234 20135 39358 40183 51003
  333 55300=
10540 45980 80801 10230 20143 39832 40189 51006
  333 55300 20000 30000 88/63=
10542 45972 82701 10218 20149 39882 40194 51007
  333 55300 20000 30000 88/61=
10552 45983 32003 10226 20102 39155 48580 51003
  333 55300 83/63=
10557 42989 11703 10205 20095 39249 48575 53002 80001
  333 55300 20000 30000 81076=
####018001008####
SNDL40 EDZW 092300
AAXX 09231
10015 42958 11306 10209 20192 30154 40163 50001 81032
  333 55300 2//// 3//// 81364=
10020 45968 01305 10217 20183 30134 40165 58001
  333 55300 20000 30000=
10035 42970 70803 10206 20164 30112 40168 58008 85031
  333 55300 20000 30000 41331 85363 83076=
10113 45958 63006 10209 20178 30152 40170 52010
  333 55300 20000 30000 84/66 86/68=
10129 45960 71502 10258 20177 30152 40164 51005
  333 55300 20000 30000 87/62=
10131 45967 71503 10237 20174 30147 40161 50001
  333 55300 20000 30000 87/61=
10147 42981 10702 10227 20191 30154 40171 51001 81030
  333 55300 20000 30000 41363 81364=
10156 45958 70801 10197 20183 30157 40178 51001
  333 55300 20000 30000 87/66 87/68=
10200 42966 22804 10216 20180 30172 40170 51010 81031
  333 55300 20000 30000 81363=
10224 42975 72801 10251 20162 30162 40168 53004 8703/
  333 55300 20000 30000 87360=
10235 NIL=
10253 45967 41901 10202 20170 30153 40174 51004
  333 55300 84/66 84/69=
####018000233####
SNVD15 KWNB 092300 RRD
BBXX
41035 09231 99345 70773 46/// /2108 10274 20243 40099 56008 92250
22200 00270 10801 20301 314// 40801 70005 333 91210 555 11090
22097 32216 42111 62249 206085 207087 207083 207092 206088 205071=
####018000071####
SNAA14 KARS 091900 RRA
AAXX 09194
89049 46/// /1710 4//// 5////=
####018001224####
SNSQ51 LZIB 092300
AAXX 09231
11812 46/// /0201 10217 20074 39554 42865=
11813 46/// /2701 10199 20089 39886 40221=
11816 42970 00101 10171 20114 30063 40222=
11819 46/// /0103 10144 20126 30011 40223=
11826 45/68 /0202 10156 20127 30031 40226=
11841 46/// /1002 10135 20099 39867 40236=
11855 45/68 /3301 10160 20133 30060 40222=
11856 46/// /1003 10159 20132 39916 40226=
11858 46/// /1502 10176 20143 30071 40218=
11867 45/80 /0202 10152 20118 39922 40231=
11880 46/// /9901 10156 20153 30060 40227=
11900 46/// /0301 10159 20123 39908 40234=
11903 42980 00000 10160 20126 39864 40234=
11916 46/// /3604 10100 20019 38078 48572=
11918 46/// /0000 10113 20090 39443 42867=
11927 46/// /0101 10165 20150 39975 40229=
11930 46/// /3507 10062 21017 37488 47200=
11933 46/// /9901 10105 20070 38765 48583=
11934 42984 12803 10119 20089 39439 42866 80001
  333 81070=
11938 46/// /0804 10118 20086 39203 42863=
11952 46/// /3103 10121 20095 39431 42867=
11958 46/// /0206 10122 20086 38838 48577=
11968 42982 09902 10169 20122 39950 40222=
11976 46/// /0000 10142 20124 39974 40232=
11978 46/// /9901 10168 20137 30088 40214=
11993 46/// /0000 10141 20136 30015 40227=
####018000104####
SIKB20 NGTT 092100
AAXX 09213
91610 41599 10204 10290 20232 40124 53015 70200 81101 333
568/9 =
####018000101####
SMRS11 RUMS 091800 CCA
AAXX 09181
27402 41997 63401 10179 20169 30014 40185 54000 71222 80001=
####018000099####
SNRE20 FMEE 092300
AAXX 09234
61980 24886 /1613 10189 20165 40182 760//
  333 59031 60015=
####018000099####
SNMA20 FIMP 092300
AAXX 09234
61990 42470 41010 10220 20157 40178 84800
  333 59029 83818=
####018000131####
SNVD15 KWNB 092200 RRV
BBXX
42360 09221 99267 70905 46/// /0303 10286 40152 57020 92200 22200
00309 10401 70006 333 91204=
####018000399####
SNDL49 EDZW 092300 RRA
AAXX 09231
10765 42982 21501 10206 20135 39749 40203 52008 80001
  333 82080=
10771 42980 21401 10195 20134 39727 40210 52007 81031
  333 81365=
10827 42984 50102 10191 20125 39168 48579 51005 82031
  333 82363 85068=
10853 42980 13501 10201 20153 39758 40204 52007 80001
  333 81076=
10857 42980 41301 10213 20130 39495 40200 52005 84030
  333 84368=
####018000115####
SNDL47 EDZW 092300 RRA
AAXX 09231
10502 42981 62603 10254 20144 30031 40185 52010 83031
  333 83362 84075=
####018000103####
SNDL46 EDZW 092300 RRA
AAXX 09231
10381 42981 01204 10204 20146 30109 40193 52005
  333 55300=
####018000251####
SNDL48 EDZW 092300 RRA
AAXX 09231
10613 42980 32702 10228 20149 39644 40194 52008 82031
  333 82360=
10618 42982 41602 10209 20156 39766 40199 51008 83031
  333 83363=
10743 42982 20701 10212 20157 39658 40197 51005 80001
  333 82080=
####018000204####
SNDL44 EDZW 092300 RRA
AAXX 09231
10022 45966 81004 10212 20163 30156 40165 58004
  333 55300 20000 30000 87/65 88/71=
10037 42970 50603 10206 20158 30139 40168 58007 85031
  333 85364 83070=
####018000109####
SNDL23 EDZW 092300 CCA
AAXX 09231
10791 42/// /1202 10178 20123 38641 48587 50004 8////
  333 55300=
####018000095####
SIAA01 KWBC 092100 RRC
AAXX 09214
89065 46/// /9902 11168 21183 39710 49792 57004 92120=
####018000118####
SNAC01 KWNB 092300
OOXX
ACSAMS02 09231 99784 70729 26082 01301 46/// /2002 10015 20006 39920
92301 333 91211=
####018000710####
SNVD15 KWNB 092300 RRE
BBXX
41040 09231 99145 70530 46/// /0809 10284 40149 53007 92250 22200
00290 10804 20503 300// 40802 70019 333 91211 555 11092 22097
32235 40811 62249 082086 078093 065070 068066 068069 077076 80810
92235=
42001 09231 99259 70897 46/// /1004 10289 20243 40130 58026 92250
22200 00300 10601 3//// 40601 70004 333 91205 555 11036 22037
32244 41105 62249 095036 098038 090035 093034 077036 072037=
41010 09231 99289 70785 46/// /2405 10287 20229 40143 56008 92250
22200 00290 10801 20401 300// 40801 70007 333 91206 555 11049
22051=
41009 09231 99285 70802 46/// /1502 10288 20208 40143 56012 92250
22200 00287 10801 300// 40801 70004 333 91203 555 11025 22027=
####018000350####
SNVE15 KWNB 092300 RRB
BBXX
51002 09231 99171 71578 46/// /0708 10250 40155 58009 92250 22200
00254 10803 20602 3//// 40802 70016 333 91209 555 11084 22089
32249 40709 62249 068079 073075 072079 073078 072077 080074=
51100 09231 99236 71539 46/// ///08 10245 40198 58010 92250 22200
00248 11104 20603 309// 41102 70019 555 11090 22095=
####018001281####
SNVD17 KWNB 092300 RRA
BBXX
46001 09231 99563 71480 46/// /0903 10095 40070 58003 92250 22200
00094 10704 20402 300// 40704 70020 333 91207 555 11033 22036
32154 41008 62249 092032 095029 096035 098032 096030 096039=
46066 09231 99527 71550 46/// ///// 10084 40049 52019 92250 22200
00081 10605 70025 555 83600 92159=
46082 09231 99597 71434 46/// /0905 10110 40136 58003 92250 22200
00120 10902 20401 300// 40902 70011 333 91206 555 11056 22058
32241 40807 62249 089053 085050 088048 093046 096042 101037 80806
92241=
46081 09231 99608 71483 46/// /0000 10111 40135 57004 92250 22200
00119 1//00 70000 333 91200 555 32153 40901 62249 180000 082006
090007 102007 129006 114007=
46035 09231 99571 71778 46/// /3611 10076 40056 58005 92250 22200
11306 20704 300// 41305 70032 333 91213 555 11113 22121 32240
43614 62249 000113 003113 359103 001106 001109 000110 80112 92235=
51101 09231 99243 71621 46/// /0807 10252 40205 57003 92250 22200
00259 10704 20703 310// 40902 70018 555 11079 22083 32157 40711
62249 078075 076079 081081 079076 082081 079085=
46061 09231 99602 71468 46/// /0202 10096 40135 54000 92250 22200
00130 11601 300// 41601 70007 333 91203 555 11024 22024 32159
40105 62249 015024 008032 009033 002034 006037 012037=
####018000925####
SNVD20 KWNB 092300 RRD
BBXX
44007 09231 99435 70701 46/// /1608 10201 20201 40110 56021 92250
22200 00174 10402 20402 3//// 40701 70010 333 91209 555 11084
22095 32247 41609 62249 159076 156069 157068 157064 157065 158062=
44014 09231 99366 70748 46/// ///// 10254 40102 57013 92250 22200
00253 10702 70012=
44013 09231 99423 70707 46/// /1507 10225 20211 40120 56014 92250
22200 00201 10401 20401 300// 40801 70007 333 91208 555 11077
22087 32233 41608 62249 154069 155072 153070 154068 154065 155070=
44017 09231 99407 70720 46/// /1104 10244 20240 40114 56020 92250
22200 00244 10802 20401 300// 40802 70012 333 91205 555 11044
22046 32241 41105 62249 110041 108035 106022 102020 098021 102024=
44025 09231 99403 70732 46/// /1404 10252 20228 40109 56019 92250
22200 00252 10803 20301 316// 40802 70013 333 91204 555 11039
22042 32200 41305 62249 135037 131039 130041 131040 132041 131044=
####018001411####
SNVD22 KWNB 092300 RRE
BBXX
46026 09231 99378 71228 46/// /2804 10120 40149 58010 92250 22200
00122 11302 20401 318// 41302 70008 333 91204 555 11040 22042
32158 42805 62249 281038 275039 273035 272037 273039 274039=
46086 09231 99325 71180 46/// /2906 10157 40133 58010 92250 22200
00174 11302 20401 320// 41302 70011 333 91207 555 11066 22069
32230 42808 62249 287062 286064 286066 287064 285059 291063=
46089 09231 99459 71258 46/// /3308 10169 40186 53009 92250 22200
00161 10804 20703 3//// 40802 70018 333 91209 555 11085 22093
32212 43410 62249 333080 334081 337082 337081 338081 337078 83409
92212=
46041 09231 99474 71247 46/// /3206 10153 40170 54000 92250 22200
00136 10703 20501 3//// 40703 70014 333 91207 555 11064 22072
32245 43207 62249 319057 319056 317054 318052 320048 318044=
46041 09231 99474 71247 46/// /3206 10153 40170 92250 22200 00136
10703 20501 3//// 40703 70014 333 91207 555 11064 22072 32245
43207 62249 319057 319056 317054 318052 320048 318044=
46011 09231 99349 71209 46/// /3106 10133 40138 56010 92250 22200
00129 11202 20401 321// 41202 70010 333 91208 555 11068 22073
32246 43108 62249 307063 305058 306063 308065 309061 312050=
46042 09231 99368 71224 46/// /3106 10133 30147 40147 56009 92250
22200 00128 11402 20501 319// 41402 70010 333 91208 555 11069
22075 32222 43208 62249 314063 314057 312062 318060 314058 313060=
####018000875####
SNVD45 KWNB 092300 RRD
BBXX
45008 09231 99443 70824 46/// /1701 10200 39913 40123 56011 92250
22200 00199 1//00 70002 333 91201 555 11014 22016 32210 41902
62249 174012 153014 163015 181015 184013 180010=
45012 09231 99436 70774 46/// /3402 10214 30009 40097 54000 92250
22200 00220 10301 70003 333 91203 555 11021 22021 32249 43503
62249 337020 308017 255010 296005 042002 334005=
45022 09231 99454 70851 46/// /3202 10211 40160 57010 92300 22200
00198 10201 70003 333 91202=
45002 09231 99453 70864 46/// /2003 10216 20200 39920 40129 57014
92250 22200 00210 1//00 70001 333 91203 555 11032 22037 32225
42105 62249 198029 198032 207039 206038 205041 205038=
45001 09231 99481 70878 46/// /2403 10145 39915 40136 54000 92250
22200 00114 10301 20301 70004 333 91203 555 11031 22037 32155
42905 62249 244026 244025 254024 262022 274038 284039=
####018000238####
SNHK22 VHHH 092300
AAXX 09231
45032 36/// /9901 10277 20249 30076 40092 52003=
45035 36/// /2103 10280 20250 30048 40088 54000=
45039 36/// /1701 10294 20244 30071 40086 52001=
45044 36/// /2503 10274 20264 30002 40092 52002=
####018000241####
SNHK22 VHHH 092300
AAXX 09231
45032 36/// /9901 10277 20249 30076 40092 52003=
45035 36/// /2103 10280 20250 30048 40088 54000=
45039 36/// /1701 10294 20244 30071 40086 52001=
45044 36/// /2503 10274 20264 30002 40092 52002=

####018000462####
SNVD15 KWNB 092200 RRW
BBXX
42369 09221 99272 70903 46/// /0802 10290 92200 22200 10501 70005=
42370 09221 99273 70905 46/// ///02 10293 92200 22200 10501 70005=
42374 09221 99289 70881 46/// ///03 10323 40137 56017 92200=
42376 09221 99291 70879 46/// /2403 10289 40130 56015 92200 22200
10201 70005=
42392 09221 99272 70900 46/// ///// 1//// 92200 22200 10401 70004=
42887 09221 99282 70885 46/// /0000 10312 20251 92200 22200 10601
70007=
####018000127####
SNVD17 KWNB 092200 RRE
BBXX
46238 09221 99334 71195 46/// ///// 1//// 92226 22200 00147 11202
20802 319// 41201 70010=
####018001135####
SNCN19 CWAO 092202
OOXX
SEP63 09201 99592 10176 ///// 00401
     26/// /0701 10242 29048 30130 92010 333 60000=
SEP63 09201 99592 10176 ///// 00401
     26/// /1001 10237 29053 30130 92020 333 60000=
SEP63 09201 99592 10176 ///// 00401
     26/// /1001 10233 29053 30130 92030 333 60000=
SEP63 09201 99592 10176 ///// 00401
     26/// /0000 10232 29055 30130 92040 333 60000=
SEP63 09201 99592 10176 ///// 00401
     26/// /0701 10231 29056 30130 92050 333 60000=
SEP63 09211 99592 10176 ///// 00401
     26/// /0902 10229 29058 30130 92100 333 60000=
SEP63 09211 99592 10176 ///// 00401
     26/// /0402 10227 29059 30130 92110 333 60000=
SEP63 09211 99592 10176 ///// 00401
     26/// /0602 10225 29060 30130 92120 333 60000=
SEP63 09211 99592 10176 ///// 00401
     26/// /0601 10222 29061 30130 92130 333 60000=
SEP63 09211 99592 10176 ///// 00401
     26/// /0701 10220 29062 30140 92140 333 60000=
SEP63 09211 99592 10176 ///// 00401
     26/// /0201 10218 29063 30140 92150 333 60000=
SEP63 09221 99592 10176 ///// 00401
     26/// /0701 10217 29064 30140 92200 333 60000=

####018000125####
SNVD20 KWNB 092300 RRE
BBXX
44039 09231 99411 70727 46/// /1605 10260 20230 40117 92245 22200
10201 70003 333 91207=
