####018000109####
SMXX19 KAWN 091800 RRC
BBXX
UEYO 09181 99444 11375 41/98 11160 40109 54000 70000 22253 01200
 20201=
####018000027####
SMVS10 BABJ 091800
NIL
####018000181####
SNAA19 LFVW 091900
AAXX 09194
89661 46/// /2453 11197 38982 4//// 5////=
89659 46/// /3018 11488 29047 37555 4//// 5////=
89666 46/// /2424 11167 29059 39587 4//// 5////=
####018000093####
SNRE15 FMEE 091900
AAXX 09194
61997 26/// /3119 10089 20070 40218
  333 58024 60005=
####018000028####
SMVS10 BABJ 091800
NIL=
####018000203####
SNAL51 DAMM 091900 RRD
AAXX 09191
60380 46/// /1103 10275 20161=
60379 46/// /0604 10225 20225=
60613 46/// /0607 10363 20024=
60394 46/// /3403 10245 20206=
60374 46/// /2602 10269 20177=
####018000089####
SMPS40 AMMC 091800 RRF
AAXX 09184
91689 46/// /0802 10243 40141 22200 00263=


####018000069####
SALY31 HLLT 091930
METAR HLLT 091920Z 06005KT CAVOK 26/19 Q1018=
####018000214####
SNVX20 RJTD 091900
BBXX
JPBN    09194 99040 11650
46/// /0112 10276 20234 40104 53002 8////
22243 00288 1////=
JPBN    09194 99040 11650
46/// /0112 10276 20234 40104 53002 8////
22243 00288 1////=
####018000071####
SALY31 HLLT 091930
METAR HLLT 091920Z 
06005KT CAVOK 26/19 Q1018=
####018000098####
SNAL51 DAMM 091900 RRE
AAXX 09194
60593 46/// /0710 10394=
60376 46/// /0403 10229 20207=
