####018000107####
SNVD20 KWNB 092200 RRF
BBXX
41033 09221 99323 70804 46/// /1907 10298 40094 92200 555 11097
22117=
####018000332####
SNPF80 KWBC 092200 RRA
AAXX 09224
91945 26/// /1010 10252 20221 30199 40204 58011 333 60005 90710
91125 555 1//25=
91930 36/// ///// 10289=
91958 22582 60510 10223 20195 30247 40249 58013 85801 333 60005
56209 84820 83646 90710 91117 555 1//17=
91954 26/// /0710 10258 20192 30215 40218 58015 333 60005 555
1//16=
####018001021####
SNAU41 AMMC 092200
AAXX 09224
94440 41960 00000 10035 20035 39612 40186 70100=
94444 41985 00000 10035 20023 39662 40179 70200=
94448 41960 03102 10052 20050 39726 40174 70200=
94457 45/// /2605 10084 20042 39641 40180 53021=
94600 47/// /2417 10115 20076 30004 40135 53010 7//44=
94602 47/// /2515 10134 20074 30096 40147 53013 7//44=
94603 46/// /3105 10083 20072=
94604 45/// /1104 10063 20045 30134 40140 53013=
94605 45/// /1907 10131 20073 30141 40145 53015=
94608 45/// /0302 10088 20084 30120 40150 53014=
94609 476// 80501 10091 20085 30117 40153 53013 7//44=
94612 477// 80306 10090 20082 30088 40153 53014 7//44=
94614 45/// /2617 10134 20087=
94615 46/// /0202 10085 20084=
94617 47/// /0000 10056 20055 39783 40125 53015 7//44=
94620 45/// ///// 10039 20033 39826 40146 53016=
94622 41960 03102 10070 20066 39822 40159 70065=
94628 45/// /2908 10036 20016 39749 40130 53020=
94631 45/// /3106 10050 20041=
94632 41682 52902 10064 20064 39746 40171 70222 85500=

####018000610####
SNAU40 AMMC 092200
AAXX 09224
94100 45/// /0000 10183 20166 30110 40138 53005=
94204 45/// /0000 10222 20219 30046 40136 53001=
94217 45/// /1204 10191 20164 39959 40149 53008=
94303 45/// /1620 10156 20099 30170 40176 53010=
94306 45/// /1806 10088 20052 30153 40169 53009=
94308 45/// /0000 10123 20068 30156 40169 53016=
94309 41970 00000 10132 20132 30147 40162 52014 70200=
94316 /5/// /1903 10058 20041 39685 40177 53010=
94318 41980 0//// 10085 20081 30050 40182 51011 70200=
94404 41/82 32903 10052 20052 39773 40176 70200=
94417 46/// /3104 10068 20067 39860 40183 51014=

####018001690####
SNAU01 AMMC 092200
AAXX 09224
94102 45/// /1106 10243 20224 30128 40137 53004=
94103 NIL=
94200 NIL=
94203 41675 71902 10229 20225 30128 40138 53008 71522 8753/=
94206 45/// /0505 10215 20225 30007 40141 52010=
94207 46/// /1813 10247 30122 40131 52008=
94211 41960 00000 10158 20153 39530 40154 70211=
94212 41982 13301 10186 20171 39662 40149 53007 70200 81030=
94216 45/// /1901 10187 20181 30092 40143 53008=
94300 41775 71003 10091 20081 30185 40194 53010 70522 875//=
94302 45/// /2206 10097 20073 30182 40188 53012=
94312 45/// /1407 10141 20113 30152 40161 53017=
94313 41970 00000 10104 20037 39630 40164 52063 70200=
94317 45/// /2403 10044 20038 39569 40177 51011=
94319 45/// /1607 10119 20080 39831 40172 53021=
94403 41780 50405 10087 20074 30136 40179 51005 70222 85500=
94429 45/// /3006 10054 20047 39710 40192 53020=
94430 45/// /2603 10047 20044 39583 40190 53015=
94449 45/// /2909 10049 20042 39628 40174 53016=
94451 NIL=
94601 45/// /2520 10137 20076 30109 40126 53012=
94610 41565 70404 10085 20079 30130 40154 53013 70282 878//=
94637 45/// /3004 10051 20031 39714 40153 53020=
94638 41565 62813 10073 20038 30063 40095 51031 78088 83830=
94642 NIL=
94643 NIL=
94647 45/// /3114 10085 20045 39984 40106 53026=
94802 41680 33109 10071 20058 30022 40105 53019 702// 83800=
95205 47/// /0000 10224 20221 30128 40136 53002 7//44=
95448 45/// /3006 10045 20042 39588 40173 53013=
95634 45/// /2810 10047 20044 39746 40160 53020=
95637 45/// /3205 10040 20028 39797 40138 53019=
95641 47/// /2504 10099 20075 30036 40133 52010 7//44=
95646 45/// /3017 10075 20051 39936 40128 53024=
96995 NIL=

####018000058####
SNAU44 AMMC 092200
AAXX 09224
94666 46/// /3632=

####018000058####
SNAU55 AMMC 092200
AAXX 09224
94780 46/// /3006=

####018000058####
SNAU57 AMMC 092200
AAXX 09224
95756 46/// /3206=

####018000198####
SNVD20 KWNB 092200 RRG
BBXX
44029 09221 99425 70706 46/30 /1607 10235 40110 56024 92204 22200
00214 10402 70008 333 91208 555 11097 22108=
41029 09221 99328 70796 46/// ///// 10285 92200=
####018000115####
SIVD20 KWNB 092100 RRR
BBXX
44056 09211 99362 70757 46/// ///// 1//// 92115 22200 00269 10702
20702 70012=
####018000058####
SNAU45 AMMC 092200
AAXX 09224
95675 46/// /3629=

####018000030####
SNAU03 AMMC 092200
NIL

####018000030####
SNAU06 AMMC 092200
NIL

####018001150####
SNAU42 AMMC 092200
AAXX 09224
94641 46/// /2808 10050 20033 39747 40128 51018=
94644 45/// /3108 10082 20044 30096 40100 53029=
94645 41970 02930 10082 20038 30102 40109 52028 70211=
95204 47/// /0000 10225 7//44=
95214 45/// /0000 10195 20162 30136 40141 53007=
95303 45/// /1621 10174 20091 30135 40163 53006=
95304 45/// /1520 10171 20102 30158 40166 53008=
95305 45/// /1712 10121 20078 30167 40180 53008=
95307 45/// /1706 10116 20071 30154 40161 53010=
95317 45/// /1505 10128 20073 39959 40173 53020=
95402 45/// /0505 10121 20100 30149 40190 53009=
95602 /6/// /1601=
95606 41460 52920 10150 20113 30150 40156 52008 70111 85500=
95607 47/// /2511 10132 20087 30143 40151 52016 7//44=
95610 47/// /2607 10079 20068 7//44=
95611 47/// /0203 10037 20024 30117 40137 53009 7//44=
95612 47/// /1005 10077 20068 30071 40161 53013 7//44=
95617 47/// /3004 10068 20064 7//44=
95621 45/// /0000 10009 20000=
95625 45/// /3004 10064 20055 39903 40163 53015=
95628 41/81 32802 10042 20032 39783 40125 70261 83070=
95629 47/// /3106 10069 20069 39785 40172 53015 7//44=
95630 45/// ///// 10064 20061=

####018000523####
SNAU43 AMMC 092200
AAXX 09224
95101 45/// /1203 10204 20185 30076 40135 53006=
95632 45/// /0000 10022 20019 39917 40132 53015=
95635 46/// /2912 10076 20036 30072 40104 53025=
95636 47/// /2909 10041 20040 39753 40115 53023 7//44=
95638 456// 12917 10059 20036 39925 40095 51023=
95639 45/// /3012 10048 20027=
95640 45/// /3303 10020 20011=
95642 45/// /2808 10048 20030 39819 40132 53023=
95644 46/// /3010 10052 20026 39846 40108 53022=
95647 47/// /2904 10097 20062 30020 40108 52016 7//44=

####018000393####
SNAU05 AMMC 092200
AAXX 09224
94691 NIL=
94693 NIL=
94700 NIL=
94703 NIL=
94710 NIL=
94729 NIL=
94750 NIL=
94767 NIL=
94776 NIL=
94791 NIL=
94842 NIL=
94865 NIL=
94875 NIL=
94893 NIL=
94907 NIL=
94910 NIL=
94926 NIL=
94935 NIL=
94995 NIL=
95485 NIL=
95527 15/// /0909 10090 20055 30002 40267 52010 69924=
95719 NIL=
95762 NIL=
95839 NIL=

####018000058####
SNAU60 AMMC 092200
AAXX 09224
95872 46/// /0119=

####018005191####
SNSW23 LSSW 092200
AAXX 09224
06717 33/// /2606 10147 20071 37655 47239 52004
  333 91109 91207=
06621 33/// /2204 10209 20181 39690 40194 51010
  333 91105 91204=
06798 33/// /2604 10192 20083 38784 48587 51016
  333 91107 91204=
06659 33/// /3105 10183 20052 38006 48587 51006
  333 91108 91206=
06702 43/// ///// 10175 20114 38423 48593 51009=
06639 33/// /2804 10222 20106 38679 48586 51007
  333 91107 91204=
06628 33/// /1506 10208 20118 39047 48580 52010
  333 91111 91206=
06626 33/// /0000 10206 20182 39754 40193 51011
  333 91100 91200=
06636 33/// /0301 10208 20170 39648 40197 51013
  333 91103 91202=
06670 33/// /2803 10201 20172 39704 40195 51010
  333 91106 91204=
06643 33/// /0000 10213 20186 39709 40193 52011
  333 91103 91202=
06610 33/// /1902 10209 20171 39636 40195 51011
  333 91106 91205=
06780 33/// /3412 10141 21046 37488 47240 50002
  333 91124 91213=
06748 33/// /2201 10181 20065 38453 48592 52010
  333 91103 91202=
06751 33/// /3601 10170 20110 38205 48594 52004
  333 91105 91202=
06620 33/// /0506 10231 20160 39694 40193 52009
  333 91109 91207=
06750 33/// /0710 10154 20068 37840 48597 52004
  333 91114 91212=
06646 33/// /0000 10213 20213 39820 40196 51013
  333 91102 91200=
06711 33/// /0304 10253 20158 39674 40187 53016
  333 91106 91204=
06792 33/// /1802 10123 20099 38384 48595 51010
  333 91106 91204=
06664 33/// /0000 10215 20176 39688 40195 52011
  333 91102 91201=
06770 33/// /3601 10247 20198 39860 40203 51009
  333 91105 91203=
06650 33/// /2802 10226 20158 39672 40189 52009
  333 91107 91204=
06700 33/// /2406 10259 20177 39726 40190 51018
  333 91108 91206=
06601 33/// /2304 10240 20178 39829 40191 52014
  333 91105 91204=
06679 33/// /2101 10186 20164 39582 40200 52011
  333 91104 91202=
06735 33/// /2201 10178 20113 38761 48585 51006
  333 91103 91202=
06645 33/// /2302 10239 20143 39502 48577 52009
  333 91103 91202=
06673 33/// /2401 10227 20151 39641 40192 51010
  333 91103 91202=
06672 33/// /0000 10227 20160 39693 40192 52006
  333 91110 91206=
06786 33/// /2204 10234 20148 39572 40199 51014
  333 91106 91204=
06727 33/// /0701 10213 20155 39473 48571 51021
  333 91104 91203=
06619 33/// /3103 10197 20093 38884 48586 52009
  333 91105 91204=
06609 33/// /2909 10184 20023 38126 48588 52007
  333 91113 91209=
06794 33/// /0404 10171 20150 39026 48589 51011
  333 91106 91204=
06760 33/// /3602 10249 20198 39778 40202 52008
  333 91104 91202=
06685 33/// /1201 10225 20146 39609 40195 52006
  333 91104 91202=
06712 33/// /0902 10220 20159 39757 40194 51016
  333 91105 91203=
06689 33/// /0805 10217 20145 38953 48583 52006
  333 91109 91205=
06604 33/// /3002 10248 20131 39638 40183 51010
  333 91106 91204=
06787 33/// /1701 10188 20121 39116 48585 51016
  333 91102 91201=
06724 33/// /0502 10187 20110 38663 48587 51013
  333 91104 91202=
06759 33/// /3404 10168 20161 38430 48592 52004
  333 91106 91204=
06783 33/// /0000 10133 20096 38455 48595 50004
  333 91102 91201=
06680 33/// /3302 10158 21103 37650 47243 51005
  333 91111 91210=
06720 33/// /1701 10225 20155 39644 40191 51023
  333 91103 91202=
06782 33/// /3201 10202 20117 38899 48593 52011
  333 91103 91202=
06660 33/// /0503 10217 20165 39562 40192 52009
  333 91108 91207=
06734 33/// /2503 10219 20159 39541 40194 52012
  333 91108 91205=
06612 33/// /2401 10182 20119 39078 48579 51012
  333 91103 91202=
06730 43/// /3206 10060 21004 36723 47244 52003
  333 91117 91210=
06704 33/// /2401 10222 20155 39431 51015
  333 91105 91204=
06631 33/// /0000 10218 20158 39565 40192 51011
  333 91103 91202=
06669 43/// /0410 10244 20146 39247 48576 52006
  333 91114 91211=
06771 33/// /2001 10213 20198 39801 40207 51007
  333 91102 91201=
06605 33/// /2912 10210 20027 38492 48588 51009
  333 91114 91212=
06722 33/// /0603 10175 20062 38268 48592 51008
  333 91110 91206=
06990 33/// /1503 10248 20150 39671 40187 52006
  333 91107 91204=
06784 33/// /2102 10158 20096 38497 48593 50004
  333 91105 91203=
06788 33/// /0000 10129 20087 38479 48598 52008
  333 91103 91202=
06747 43/// /3601 10133 20024 37302 47242 50004
  333 91108 91204=
06762 33/// /0000 10224 20213 39967 40204 51010
  333 91102 91201=
06633 33/// /1701 10216 20169 39748 40192 51011
  333 91105 91202=
06744 33/// /2408 10157 20025 38147 48600 52007
  333 91113 91209=
06616 33/// /0805 10234 20158 39522 40192 52013
  333 91108 91206=
06705 33/// /2207 10246 20162 39676 40194 52018
  333 91110 91207=
06745 33/// /0702 10140 20108 38744 48586 51015
  333 91104 91203=
06756 33/// /3201 10211 20188 39557 40210 52009
  333 91105 91203=
06791 33/// /3405 10088 21015 36946 47238 52003
  333 91111 91206=
06666 33/// /2301 10213 20184 39800 40194 52012
  333 91103 91201=
06753 33/// /3001 10192 20162 39117 48590 52008
  333 91103 91202=
06681 33/// /1102 10236 20110 39328 48582 51006
  333 91104 91203=
06655 33/// /1002 10176 20117 39054 48574 52002
  333 91104 91203=
####018000143####
SICS01 MROC 092100
AAXX 09214
78762 11157 82411 10240 20240 39074 40093 53015 76022 829//
333   065// 31/// 59009 82901 83810 88630
####018000109####
SIVD15 KWNB 092100 RRV
BBXX
44055 09211 99391 70753 46/// ///// 1//// 92130 22200 00260 10301
70004=
####018000150####
SICS01 MROC 092100
AAXX 09214
78762 11157 82411 10240 20240 39074 40093 53015 76022 829//
333   065// 31/// 59009 82901 83810 88630



####018000147####
SIVD20 KWNB 092100 RRS
BBXX
44037 09211 99435 70679 46/14 /1604 10189 40145 58024 92104 22200
00181 10802 70009 333 91205 555 11055 22062=
####018000125####
SNVD45 KWNB 092200 RRF
BBXX
45022 09221 99454 70851 46/// /3302 10207 40160 92210 22200 00197
10201 70003 333 91203=
####018000227####
SNVD22 KWNB 092200 RRD
BBXX
46023 09221 99347 71210 46/// /3406 10133 40143 58012 92150 22200
00141 11402 20401 3//// 41402 70011 333 91207 555 11057 22060
32123 43407 62149 339056 339059 337064 335062 342055 339055=
####018000089####
SIPS40 AMMC 092100 RRD
AAXX 09214
91642 46/// /2804 10257 40128 22200 00291=


####018000084####
SICN03 CWAO 092100 RRF
AAXX 09214
71400 36/// /2513 10243 20190 333 60001=

####018001521####
SISU21 HSSS 092100
AAXX 09214
62600 42970 00208 10340 20095 39889 40089
  333 59008=
62640 41930 73615 10350 20100 39696 40072 70722 80007
  333 56009 58001 87275=
62641 41965 00909 10330 20230 39973 40021 70600
  333 59021=
62650 42970 73309 10335 20055 39812 40073 80007
  333 56009 59002 87275=
62660 42970 73607 10345 20040 39778 40065 80007
  333 56009 58000 87275=
62680 41958 73412 10370 20110 39652 40028 70722 80007
  333 56009 58007 87275=
62721 42970 73106 10360 20060 39621 40042 80007
  333 56009 58010 87275=
62730 41968 01812 10320 20170 39590 40088 70700
  333 59005=
62733 32970 72005 10325 20145 39551 40043 80007
  333 56009 58002 87275=
62750 32970 71806 10320 20160 39672 40043 80007
  333 56009 58002 87275=
62751 32970 72707 10314 40178 39616 40062 82047
  333 56099 58001 82365 87275=
62752 42970 72503 10260 20165 39403 30069 80007
  333 56009 59001 87275=
62762 42970 72210 10300 20210 39591 40052 80007
  333 56009 58004 87275=
62771 42970 72405 10290 20180 39453 40080 80007
  333 56009 58007 87275=
62772 42970 72204 10290 20200 39687 40070 80007
  333 56009 58001 87275=
62781 42970 72305 10315 20185 39467 40080 80007
  333 56009 58000 87275=
62790 42970 72206 10276 20174 39476 40086 80007
  333 56009 59023 87275=
62795 41970 72313 10280 20210 39588 40081 71322 83970
  333 56190 57913 58006 81956 82656 87365=
62805 41770 71311 10265 20195 39573 40098 71322 84970
  333 56390 57931 58017 81950 83650 87365=
####018000095####
SIAA14 EGRR 092100 RRB
AAXX 09214
89020 46/// /9901 11421 21465 39939 49980 52008 92120=
####018000067####
SNAL56 EUMS 092200
AAXX 09224
60692 46/// /0309 10360 21002=
####018000123####
SNFP20 LFVP 092200
AAXX 09224
71805 21/02 92608 10143 20143 30149 40157 56007 74744
  333 60005 90710 91119 93100=
####018000067####
SNAL54 EUMS 092200
AAXX 09224
60621 46/// /0415 10345 21032=
####018000071####
SNAL53 EUMS 092200 RRA
AAXX 09224
60662 46/// /0000 10297 21043=
####018000071####
SNAL51 EUMS 092200 RRA
AAXX 09224
60612 46/// /0508 10300 21047=
####018000071####
SNAL53 EUMS 092200 RRB
AAXX 09224
60660 46/// /3513 10393 21031=
####018000067####
SNAL57 EUMS 092200
AAXX 09224
60691 46/// /0511 10333 21022=
####018000071####
SNAL52 EUMS 092200 RRA
AAXX 09224
60633 46/// /1203 10362 21030=
####018000071####
SNAL54 EUMS 092200 RRA
AAXX 09224
60676 46/// /0511 10313 21009=
####018000071####
SNAL51 EUMS 092200 RRB
AAXX 09224
60664 46/// /0607 10291 20000=
####018000067####
SNAL55 EUMS 092200
AAXX 09224
60617 46/// /0220 10349 21045=
####018000067####
SNAL52 EUMS 092200
AAXX 09224
60667 46/// /0000 10337 21015=
####018000071####
SNAL51 EUMS 092200 RRC
AAXX 09224
60672 46/// /0804 10315 21027=
####018000028####
SIPA20 RJTD 092100
NIL=
####018000246####
SIVD20 KWNB 092100 RRT
BBXX
44024 09211 99423 70659 46/30 /2108 10213 40170 58020 92104 22200
00195 10803 70014 333 91210 555 11099 22109=
42085 09211 99179 70665 46/// /1009 10300 40140 56011 92100 22200
00296 10603 70014 333 91211=
####018000095####
SNVD22 KWNB 092200 RRE
BBXX
46094 09221 99446 71243 46/// /3505 10157 40165 52003 92200=
####018000166####
SIVD20 KWNB 092100 RRU
BBXX
42085 09211 99179 70665 46/// /1009 10299 40139 92050 333 91210=
42085 09211 99179 70665 46/// /1009 10298 40140 92040 333 91211=
####018000146####
SNVD22 KWNB 092200 RRF
BBXX
46094 09221 99446 71243 46/// /3505 10156 40165 92150=
46094 09221 99446 71243 46/// /3505 10155 40165 92140=
####018000266####
SIVD22 KWNB 092100 RRH
BBXX
46094 09211 99446 71243 46/// /3505 10153 40165 92130=
46094 09211 99446 71243 46/// /3405 10153 40164 92120=
46094 09211 99446 71243 46/// /3505 10152 40164 92110=
46094 09211 99446 71243 46/// /3504 10151 40165 52006 92100=
####018000146####
SIVD22 KWNB 092100 RRI
BBXX
46094 09211 99446 71243 46/// /3505 10149 40166 92050=
46094 09211 99446 71243 46/// /3505 10149 40165 92040=
