####018000115####
SNVD20 KWNB 100200 RRS
BBXX
44056 10021 99362 70757 46/// ///// 1//// 90145 22200 00264 10802
20802 70009=
####018000450####
SNVD15 KWNB 100200 RRS
BBXX
42369 10021 99272 70903 46/// /1002 10288 90140 22200 10501 70005=
42370 10021 99273 70905 46/// ///01 10293 90140 22200 10501 70005=
42374 10021 99289 70881 46/// ///04 10283 40144 90140=
42376 10021 99291 70879 46/// /2604 10288 40132 90140 22200 10201
70005=
42392 10021 99272 70900 46/// ///// 1//// 90140 22200 10301 70004=
42887 10021 99282 70885 46/// /2301 10290 20230 90140 22200 10601
70007=
####018000116####
SMAL03 DAMM 100000 RRA
AAXX 10004
60444 12960 00000 10231  20078 39127 48583 58002 60001
  333 0//00 95990=
####018000067####
SNAA14 KARS 100200
AAXX 10024
89528 46/// /0154 4//// 5////=
####018000085####
SIJD50 OJAM 100300
AAXX 10034
40255 42960 00000 10204 20176 39411 40092 51002=
####018000089####
SNIY21 LIIB 100200 RRC
AAXX 10024
16052 42962 02305 10076 21069 36790 47237 57004=
####018000099####
SNIY20 LIIB 100200 RRC
AAXX 10024
16110 42998 00000 10222 20201 30195 40199 58004 555 0////=
####018000238####
SNHK22 VHHH 100245
AAXX 10021
45032 36/// /1903 10302 20234 30086 40102 52002=
45035 36/// /2405 10311 20248 30060 40100 54000=
45039 36/// /2303 10302 20253 30084 40098 54000=
45044 36/// /2403 10275 20270 30013 40102 52001=
####018000241####
SNHK22 VHHH 100245
AAXX 10021
45032 36/// /1903 10302 20234 30086 40102 52002=
45035 36/// /2405 10311 20248 30060 40100 54000=
45039 36/// /2303 10302 20253 30084 40098 54000=
45044 36/// /2403 10275 20270 30013 40102 52001=

