####018000095####
SNVD15 KWNB 100100 RRR
BBXX
42361 10011 99276 70925 46/// ///// 1//// 40152 53006 90130=
####018000083####
SMAA19 LFVW 100000 RRA
AAXX 10004
89661 46/// /2453 11197 38982 4//// 5////=
####018000077####
SMAA17 LFVW 100000 RRE
AAXX 10004
89577 46/// /3003 11726 4//// 5////=
####018000083####
SMAA01 LIIB 100000 RRD
AAXX 10004
89661 46/// /2453 11197 38982 4//// 5////=
####018001246####
SMCO01 SKBO 100000
AAXX 10001
80001 01468 81404 10252 20243 30095 40096 60151 75296 8287/
  333 10304 5630/ 59003 60107 82611 88457=
80009 11560 70000 10256 20238 30079 40084 60011 70595 82994
  333 10312 56000 57921 59010 82920 86358=
80022 31464 60402 10292 20250 30084 40086 70592 83421
  333 10320 56190 59018 84815=
80028 21460 70102 10274 20261 30052 40087 70522 83120
  333 10332 5611/ 59016 60077 83815 84457=
80036 31568 40403 10300 20231 70511 82202
  333 10340 560/0 82820=
80063 31468 80000 10262 20240 70522 8242/
  333 10332 5600/ 82620 87459=
80094 01464 80000 10209 20197 38806 60011 72065 8257/
  333 10249 5609/ 59001 60017 82610 86458=
80099 31566 50000 10270 20251 39902 40048 70510 84636
  333 10311 56999 58005 84720=
80112 01465 70000 10161 20145 37894 60021 70565 83973
  333 10225 56000 57992 59007 69917 83915 85070=
80222 31459 80303 10143 20110 37516 76065 85875
  333 10208 56999 59006 85817=
80259 31560 60103 10250 20186 70521 82936
  333 10306 56539 57992 82925 84359 85270=
80315 32665 61601 10296 20199 39561 40053 81855
  333 10342 56339 59023 81840 83360=
80398 31470 10000 10274 20259 30004 40099 71300 81300
  333 10330 562// 57942 59015 81915=
NNNN
####018000673####
SNVD22 KWNB 100100 RRT
BBXX
46232 10011 99325 71174 46/// ///// 1//// 90124 22200 00185 11302
21001 319// 41301 70008=
46244 10011 99409 71244 46/// ///// 1//// 90120 22200 00107 10602
20602 70011=
46236 10011 99368 71219 46/// ///// 1//// 90120 22200 00131 11302
20402 321// 41301 70009=
46212 10011 99408 71243 46/// ///// 1//// 90121 22200 00107 10702
20702 70012=
46217 10011 99342 71194 46/// ///// 1//// 90121 22200 00170 11302
20402 319// 41301 70009=
46213 10011 99403 71247 46/// ///// 1//// 90120 22200 00124 10703
20703 318// 41301 70014=
46231 10011 99327 71174 46/// ///// 1//// 90112 22200 00185 11302
21001 320// 41301 70008=
####018001239####
SMCO01 SKBO 100000
AAXX 10001
80001 01468 81404 10252 20243 30095 40096 60151 75296 8287/
  333 10304 5630/ 59003 60107 82611 88457=
80009 11560 70000 10256 20238 30079 40084 60011 70595 82994
  333 10312 56000 57921 59010 82920 86358=
80022 31464 60402 10292 20250 30084 40086 70592 83421
  333 10320 56190 59018 84815=
80028 21460 70102 10274 20261 30052 40087 70522 83120
  333 10332 5611/ 59016 60077 83815 84457=
80036 31568 40403 10300 20231 70511 82202
  333 10340 560/0 82820=
80063 31468 80000 10262 20240 70522 8242/
  333 10332 5600/ 82620 87459=
80094 01464 80000 10209 20197 38806 60011 72065 8257/
  333 10249 5609/ 59001 60017 82610 86458=
80099 31566 50000 10270 20251 39902 40048 70510 84636
  333 10311 56999 58005 84720=
80112 01465 70000 10161 20145 37894 60021 70565 83973
  333 10225 56000 57992 59007 69917 83915 85070=
80222 31459 80303 10143 20110 37516 76065 85875
  333 10208 56999 59006 85817=
80259 31560 60103 10250 20186 70521 82936
  333 10306 56539 57992 82925 84359 85270=
80315 32665 61601 10296 20199 39561 40053 81855
  333 10342 56339 59023 81840 83360=
80398 31470 10000 10274 20259 30004 40099 71300 81300
  333 10330 562// 57942 59015 81915=
####018000081####
SMAA01 LIIB 100000 RRD
AAXX 10004
89661 46/// /2453 11197 38982 4//// 5////=
####018000690####
SNVD15 KWNB 100100 RRS
BBXX
41141 10011 99177 70646 46/// ///// 1//// 90121 22200 00295 10603
20603 70015=
41140 10011 99178 70647 46/// ///// 1//// 90122 22200 00292 10602
20602 70009=
44100 10011 99363 70756 46/// ///// 1//// 90122 22200 00264 10702
20702 70011=
44235 10011 99473 70573 46/// ///// 1//// 90124 22200 00125 10703
20702 70013=
41110 10011 99341 70777 46/// ///// 1//// 90127 22200 00270 10301
20301 70007=
42099 10011 99273 70842 46/// ///// 1//// 90119 22200 00303 1//00
70002=
41113 10011 99284 70805 46/// ///// 1//// 90121 22200 00279 10801
20801 70004=
41112 10011 99307 70813 46/// ///// 1//// 90121 22200 00286 10401
20401 70006=
####018000111####
SNVD20 KWNB 100200
BBXX
44097 10021 99410 70711 46/// ///// 1//// 90131 22200 00239 10702
20702 70010=
####018000315####
SNVD20 KWNB 100100 RRR
BBXX
44039 10011 99411 70727 46/// /1603 10256 20228 40120 90123 22200
1//00 70002 333 91204=
44060 10011 99413 70721 46/// /0000 10203 40122 90130 22200 00189
333 91201=
44040 10011 99410 70736 46/// /2103 10248 20227 40122 90119 22200
1//00 70001 333 91204 555 11031 22036=
####018000101####
SNVD15 KWNB 100100 RRT
BBXX
42013 10011 99272 70829 46/// ///// 1//// 40152 90040 22200 00299=
####018000293####
SNAA01 KARS 092300 RRH
AAXX 0923/
89667 46/// ///// 11277 39794 4//// 5//// 92320=
89869 46/// ///// 11281 39725 4//// 5//// 92340=
89834 46/// ///// 11495 37402 4//// 5//// 92340=
89866 46/// ///// 11228 39670 4//// 5//// 92340=
89864 46/// ///// 11251 39701 4//// 5//// 92340=
####018000128####
SMAA01 KARS 100000 RRF
AAXX 1000/
89868 46/// ///// 11313 39722 4//// 5////=
89769 46/// ///// 11283 39737 4//// 5////=
####018000089####
SNAA01 KARS 092300 RRI
AAXX 09234
89667 46/// /0621 11278 39792 4//// 5//// 92330=
####018000797####
SNAA01 KARS 100000 RRA
AAXX 1000/
89768 46/// ///// 11284 38675 4//// 5////=
89872 46/// ///// 11284 39739 4//// 5////=
89377 46/// ///// 11315 39736 4//// 5////=
89869 46/// ///// 11283 39726 4//// 5////=
89834 46/// ///// 11494 37409 4//// 5////=
89866 46/// ///// 11226 39666 4//// 5////=
89864 46/// ///// 11256 39712 4//// 5////=
89376 46/// ///// 11399 39693 4//// 5////=
89329 46/// ///// 11315 38522 4//// 5////=
89799 46/// ///// 11623 4//// 5////=
89868 46/// ///// 11314 39724 4//// 5////=
89332 46/// ///// 11341 38958 4//// 5////=
89769 46/// ///// 11281 39743 4//// 5////=
89314 46/// ///// 11334 38034 4//// 5////=
89828 46/// ///// 11686 36507 4//// 5////=
89108 46/// ///// 11625 36901 4//// 5////=
89879 46/// ///// 11175 39672 4//// 5////=
####018000119####
SMRA15 RUNW 100000 CCA
AAXX 10001
29282 31593 80601 10159 20152 39925 40082 58007 74441 889// 333 20132
55070=
####018000101####
SMAA01 AMMC 091800 RRA
AAXX 09184
89573 35965 80922 11122 21207 39753 49776 57008 8807/=


####018000095####
SMAA01 AMMC 091800 RRA
AAXX 09184
89573 35965 80922 11122 21207 39753 49776 57008 8807/=
####018000101####
SMAA01 AMMC 100000 RRA
AAXX 10004
89573 35960 80928 11099 21172 39753 49776 57009 8802/=


####018000095####
SMAA01 AMMC 100000 RRA
AAXX 10004
89573 35960 80928 11099 21172 39753 49776 57009 8802/=
####018000178####
SMVD15 KWNB 100000 RRX
BBXX
42013 10001 99272 70829 46/// ///// 1//// 40152 90020 22200 00300=
42013 10001 99272 70829 46/// ///// 1//// 40149 55000 90000 22200
00300=
####018001247####
SMCO01 SKBO 100000
AAXX 10001
80001 01468 81404 10252 20243 30095 40096 60151 75296 8287/
  333 10304 5630/ 59003 60107 82611 88457=
80009 11560 70000 10256 20238 30079 40084 60011 70595 82994
  333 10312 56000 57921 59010 82920 86358=
80022 31464 60402 10292 20250 30084 40086 70592 83421
  333 10320 56190 59018 84815=
80028 21460 70102 10274 20261 30052 40087 70522 83120
  333 10332 5611/ 59016 60077 83815 84457=
80036 31568 40403 10300 20231 70511 82202
  333 10340 560/0 82820=
80063 31468 80000 10262 20240 70522 8242/
  333 10332 5600/ 82620 87459=
80094 01464 80000 10209 20197 38806 60011 72065 8257/
  333 10249 5609/ 59001 60017 82610 86458=
80099 31566 50000 10270 20251 39902 40048 70510 84636
  333 10311 56999 58005 84720=
80112 01465 70000 10161 20145 37894 60021 70565 83973
  333 10225 56000 57992 59007 69917 83915 85070=
80222 31459 80303 10143 20110 37516 76065 85875
  333 10208 56999 59006 85817=
80259 31560 60103 10250 20186 70521 82936
  333 10306 56539 57992 82925 84359 85270=
80315 32665 61601 10296 20199 39561 40053 81855
  333 10342 56339 59023 81840 83360=
80398 31470 10000 10274 20259 30004 40099 71300 81300
  333 10330 562// 57942 59015 81915=
NNNN=
####018000139####
SMCA30 KWBC 100000
AAXX 10001
80001 01468 81404 10252 20243 30095 40096 60151 75296 8287/ 333
10304 5630/ 59003 60107 82611 88457=
####018000295####
SNAU42 AMMC 100100 RRA
AAXX 10014
95608 11465 70000 10116 20104 60144 70288 84320
  333 70142=
95614 11/50 81301 10100 20100 60174 75055
  333 70166=
95622 11780 60000 10055 20043 60024 70352 86500
  333 70024=
95624 11608 72701 10079 20073 60054 74222 84030
  333 70047=

####018000124####
SNAU05 AMMC 100100 RRA
AAXX 10014
94995 41680 20914 10175 20062 30267 40275 58008 70200 82100 90130
  333 20151=

####018000396####
SNAU40 AMMC 100100 RRA
AAXX 10014
94213 11975 03602 10275 20181 39923 40160 60004 70000
  333 70000=
94214 11982 00000 10277 20176 30136 40154 60004 70200
  333 70000=
94215 11970 00501 10269 20180 39711 40153 52010 60004 70200
  333 70000=
94320 11675 80000 10222 20211 39684 40168 60054 70322 885//
  333 70046=
94415 11/70 23605 10089 20081 60034 70181
  333 70032=

####018000195####
SNAU41 AMMC 100100 RRA
AAXX 10014
94623 11380 73102 10090 20090 39942 40181 60214 70262 87600
  333 70209=
94632 41682 72902 10085 20075 39761 40187 6///0 70311 87500
  333 7////=

####018000278####
SNAU01 AMMC 100100 RRA
AAXX 10014
94200 11/70 41418 10198 60004 70111 83071
  333 70000=
94403 11675 60207 10119 20089 30165 40208 51029 60014 78022 86800
  333 20087 70012=
94610 11460 60505 10106 20102 30148 40172 52018 60194 70482 86800
  333 20068 70188=

####018000127####
SNVD22 KWNB 100100 RRU
BBXX
46224 10011 99332 71175 46/// ///// 1//// 90046 22200 00178 11302
21001 320// 41302 70009=
####018000127####
SNVD17 KWNB 100100 RRF
BBXX
46239 10011 99363 71221 46/// ///// 1//// 90123 22200 00140 11302
20802 319// 41301 70010=
####018000332####
SNVD15 KWNB 100100 RRU
BBXX
41037 10011 99340 70775 46/// /2308 10284 40114 53010 90100 333
91209=
42360 10011 99267 70905 46/// /0902 10286 40163 53011 90100 22200
00305 10501 70005 333 91203=
42362 10011 99278 70907 46/// /0000 10289 20217 40166 90130=
42364 10011 99291 70881 46/// /0000 10278 20217 40163 90130=
####018000115####
SNVD20 KWNB 100100 RRS
BBXX
44056 10011 99362 70757 46/// ///// 1//// 90045 22200 00273 10702
20702 70011=
####018000127####
SNVE15 KWNB 100100 RRG
BBXX
52200 10011 99134 11448 46/// ///// 1//// 90122 22200 00299 10903
20903 311// 41101 70015=
####018000121####
SNVD45 KWNB 100200
BBXX
45022 10021 99454 70851 46/// /0000 10209 40160 90140 22200 00202
1//00 70002 333 91200=
