####018000094####
SNNG21 AMMC 092000
AAXX 09204
92044 47/// /3407 10249 20233 30107 40112 51004 74144=

####018005191####
SNSW23 LSSW 092000
AAXX 09204
06717 33/// /2707 10149 20065 37654 47239 53006
  333 91108 91207=
06621 33/// /2902 10222 20175 39684 40185 55001
  333 91105 91203=
06798 33/// /3301 10202 20083 38777 48581 53017
  333 91106 91203=
06659 33/// /2906 10184 20059 38002 48583 52003
  333 91108 91206=
06702 43/// ///// 10187 20110 38418 48588 52009=
06639 33/// /1207 10223 20120 38675 48582 55000
  333 91114 91211=
06628 33/// /1607 10224 20125 39040 48577 53003
  333 91111 91207=
06626 33/// /0000 10240 20194 39748 40181 53003
  333 91103 91202=
06636 33/// /0702 10235 20190 39638 40181 53004
  333 91104 91202=
06670 33/// /3304 10235 20163 39697 40181 53000
  333 91106 91204=
06643 33/// /2201 10231 20183 39703 40184 53003
  333 91103 91203=
06610 33/// /2402 10244 20173 39629 40180 52007
  333 91113 91208=
06780 33/// /3408 10144 21056 37488 47240 52005
  333 91121 91214=
06748 33/// /2502 10192 20059 38448 48587 52016
  333 91104 91202=
06751 33/// /3301 10169 20123 38204 48593 53007
  333 91103 91201=
06620 33/// /0306 10247 20173 39689 40185 53003
  333 91107 91206=
06750 33/// /0711 10153 20070 37837 48594 52003
  333 91112 91211=
06646 33/// /0000 10240 20218 39812 40184 53005
  333 91102 91201=
06711 33/// /0404 10270 20160 39661 40170 52007
  333 91107 91204=
06792 33/// /2402 10172 20133 38380 48588 53014
  333 91111 91209=
06664 33/// /3201 10239 20190 39680 40183 53000
  333 91102 91201=
06770 33/// /0301 10262 20212 39854 40195 52009
  333 91104 91202=
06650 33/// /2702 10247 20154 39666 40179 53000
  333 91105 91203=
06700 33/// /2505 10272 20163 39714 40175 52012
  333 91109 91205=
06601 33/// /2702 10273 20174 39822 40179 52006
  333 91104 91203=
06679 33/// /2302 10209 20173 39576 40188 55001
  333 91103 91202=
06735 33/// /0000 10200 20124 38756 48582 52003
  333 91104 91203=
06645 33/// /0701 10257 20153 39497 48579 53002
  333 91104 91203=
06673 33/// /3001 10248 20146 39635 40181 55000
  333 91106 91205=
06672 33/// /1803 10248 20163 39688 40183 52004
  333 91107 91204=
06786 33/// /0401 10255 20149 39565 40186 53012
  333 91112 91207=
06727 33/// /0000 10228 20162 39462 48566 53023
  333 91107 91204=
06619 33/// /0101 10200 20126 38878 48581 52006
  333 91107 91204=
06609 33/// /2907 10185 20060 38123 48585 53004
  333 91110 91208=
06794 33/// /0602 10180 20158 39022 48587 51018
  333 91104 91203=
06760 33/// /3302 10264 20198 39773 40194 53009
  333 91110 91204=
06685 33/// /0801 10244 20144 39605 40186 52005
  333 91103 91202=
06712 33/// /1401 10231 20186 39748 40183 52010
  333 91103 91202=
06689 33/// /1304 10233 20142 38950 48582 57003
  333 91110 91208=
06604 33/// /0401 10274 20135 39631 40170 52005
  333 91112 91206=
06787 33/// /1401 10207 20127 39108 48582 52018
  333 91104 91202=
06724 33/// /2502 10216 20113 38656 48582 52009
  333 91108 91202=
06759 33/// /3301 10174 20162 38428 48589 51005
  333 91104 91203=
06783 33/// /0000 10151 20113 38454 48594 52008
  333 91103 91201=
06680 33/// /2201 10159 21066 37647 47240 53001
  333 91112 91209=
06720 33/// /2101 10249 20156 39630 40172 53018
  333 91118 91210=
06782 33/// /0000 10215 20124 38894 48590 53015
  333 91106 91203=
06660 33/// /0201 10251 20159 39556 40178 55001
  333 91105 91204=
06734 33/// /2103 10242 20168 39535 40182 52009
  333 91106 91204=
06612 33/// /0000 10199 20133 39070 48575 52005
  333 91106 91203=
06730 43/// /3310 10072 21014 36721 47240 52003
  333 91119 91211=
06704 33/// /3101 10248 20149 39420 52008
  333 91105 91203=
06631 33/// /0401 10232 20171 39558 40181 53001
  333 91107 91205=
06669 43/// /0704 10263 20122 39245 48579 53002
  333 91109 91206=
06771 33/// /2101 10227 20203 39798 40201 52010
  333 91106 91204=
06605 33/// /1506 10209 20038 38486 48581 53003
  333 91113 91211=
06722 33/// /0403 10196 20065 38263 48585 52008
  333 91109 91206=
06990 33/// /1901 10244 20178 39668 40185 53002
  333 91103 91202=
06784 33/// /1401 10179 20092 38497 48593 53011
  333 91110 91207=
06788 33/// /2701 10165 20092 38474 48593 52010
  333 91117 91211=
06747 43/// /1605 10142 20015 37300 47241 51004
  333 91108 91205=
06762 33/// /0000 10238 20219 39961 40196 53011
  333 91109 91206=
06633 33/// /1801 10242 20188 39741 40180 53003
  333 91104 91202=
06744 33/// /2408 10178 20030 38142 48592 52003
  333 91112 91208=
06616 33/// /0803 10245 20153 39513 40180 52004
  333 91110 91206=
06705 33/// /3203 10266 20145 39663 40176 52010
  333 91106 91204=
06745 33/// /2101 10179 20115 38735 48580 53012
  333 91110 91208=
06756 33/// /3103 10221 20196 39554 40205 52016
  333 91104 91203=
06791 33/// /0205 10093 21006 36946 47238 53006
  333 91111 91206=
06666 33/// /0602 10235 20200 39792 40182 53005
  333 91103 91202=
06753 33/// /2701 10209 20174 39113 48590 51015
  333 91107 91203=
06681 33/// /2301 10238 20128 39322 48577 57004
  333 91106 91205=
06655 33/// /1001 10203 20146 39052 48577 50001
  333 91106 91204=
####018000722####
SNRH81 LDZM 092000
AAXX 09201
14235 42960 0//// 10165 20089 39107 48576 53003=
14240 42970 03401 10201 20134 30064 40214 52006=
14246 42980 11501 10186 20149 30018 40215 52/// 80001=
14258 42970 00000 10189 20167 30032 40213 53///=
14314 42972 12801 10250 20157 30137 40198 52/// 80001=
14323 42981 00302 10261 20131 30168 40200 53///=
14324 42980 00905 10144 21025 38480 48578 54///=
14328 42965 03101 10185 20141 39834 40215 53///=
14330 42960 00202 10193 20091 39567 40209 52///=
14382 42982 00000 10218 20141 30095 40210 53006=
14438 42975 00104 10259 20120 30096 40183 53///=
14445 42970 01003 10252 20156 30040 40187 52011=
14447 42984 03301 10234 20174 30160 40189 53///=
14452 NIL=
####018000075####
SAYE20 OYSC 092000
METAR OYRN 092000Z 02007KT 7000 FEW020 30/23 Q1004=
####018000925####
SNRH82 LDZM 092000
AAXX 09201
14216 42975 00302 10252 20160 30053 40197 53///=
14219 41958 02001 10178 20135 39242 48576 53/// 71000=
14232 42984 01801 10192 20160 30084 40215 53///=
14234 42980 10201 10197 20137 39978 40215 53/// 80001=
14236 42785 30101 10236 20131 30019 40207 53/// 82830=
14244 42981 10000 10205 20164 30093 40217 52/// 80001=
14248 42970 00501 10201 20150 30046 40213 53///=
14253 NIL=
14256 42970 10000 10241 20106 39906 40208 53004 80001=
14308 42982 00000 10210 20172 39863 40200 53///=
14321 42980 03302 10273 20116 30174 40197 53///=
14370 42960 10000 10186 20152 30105 40210 52/// 80002=
14428 42970 03002 10232 20210 30184 40191 56///
  333 92311=
14441 42982 03402 10222 20149 30165 40188 55///=
14454 42975 10700 10234 20175 30128 40185 52/// 80001=
14462 42980 00000 10238 20172 30187 40191 52///=
14472 42670 33401 10257 20205 30039 40100 56/// 83200=
####018000107####
SNAU62 AMMC 092000 CCA
AAXX 09204
95981 41075 50301 10072 20071 30205 40265 58015 70211 84830=


####018000125####
SNVD45 KWNB 092000 RRF
BBXX
45022 09201 99454 70851 46/// /2803 10200 40170 92010 22200 00196
10201 70003 333 91204=
####018000170####
SNVD15 KWNB 092000 RRH
BBXX
42362 09201 99278 70907 46/// /0000 10306 20217 40169 58014 92000=
42364 09201 99291 70881 46/// /0000 10283 20217 40166 58014 92000=
####018000115####
SNVD20 KWNB 091900 RRX
BBXX
44056 09191 99362 70757 46/// ///// 1//// 91915 22200 00270 10702
20702 70012=
####018000221####
SNVD22 KWNB 092000 RRI
BBXX
46023 09201 99347 71210 46/// /3506 10133 40150 91950 22200 00141
10802 20401 3//// 40802 70011 333 91207 555 11057 22060 31924
43508 61949 346057 349061 346063 350060 347057 350059=
####018000122####
SMCN35 CWAO 091800 RRE
AAXX 09184
71589 16/// /2514 10300 20172 39979 40106 56012 60001 333 10304
20146 70020=

####018000238####
SAYE20 OYSC 092000 RRA
METAR OYRN 090700Z 11006KT 7000 NSC 31/24 Q1004=
METAR OYRN 091600Z 07005KT 7000 FEW020 30/23 Q1002=
METAR OYRN 091700Z 05007KT 7000 FEW020 30/23 Q1003=
METAR OYRN 091800Z 07012KT 7000 SCT020 30/24 Q1004=
####018000119####
SMUR10 UKMS 091800 CCA
AAXX 09181
33837 11556 83302 10195 20190 30092 40141 51003 60402 71098
8348/ 333 10307=
####018000125####
SNPF80 KWBC 092000 RRB
AAXX 09204
91948 22580 71804 10214 20172 30135 40239 50004 87800 333 60005
56300 84820 84633=
