####018000811####
SMNI01 DNMM 092100
AAXX 09214
65201 42460 62509 10264 20241 30092 40147 82538
  333 56500 57632 58004 82610 86280 91114 94463=
65082 42960 70000 10231 20225 3//// 40115 83038
  333 59005 83360 87280=
65019 41460 71210 10220 20205 39437 40158 79595 85948
  333 59000 85601 81923 94959=
65215 41460 72605 10240 20231 3//// 4//// 76096 8657/
  333 5//// 86610=
65101 41460 71905 10235 20231 39704 40095 79599 85908
  333 58011 85610 81920 94959 95799=
65213 42958 72404 10260 20246 3//// 4//// 8007/
  333 5//// 87460=
65112 41470 70903 10276 20257 3//// 4//// 71799 8397/
  333 5//// 83611 81920 87460 94959=
65210 41464 70000 10255 20243 3//// 4//// 71022 86508
  333 5//// 86610=
65257 41458 72605 10240 20233 3//// 40125 71322 83930
  333 58005 83610 81920 86360 94959=
####018000530####
SIRA31 RUNW 092100
AAXX 09211
23929 42979 22702 10102 20081 30052 40115 52001 82030=
28383 42597 82903 10108 20100 39993 40073 52004 8317/=
28465 42998 53401 10130 20113 30036 40109 52002 85030=
28586 42597 83303 10124 20109 39934 40074 52001 885// 333 88627=
28588 42598 73303 10107 20090 39930 40081 53002 87500 333 87628=
28688 42598 63304 10118 20090 39933 40085 52002 82330=
28696 42597 82903 10120 20109 39927 40058 53002 889// 333 86721=
28791 42599 83104 10121 20102 39932 40069 57001 885// 333 88625=
####018000073####
SITP01 LFVW 092100
AAXX 09214
61932 46/// /1507 10237 40163 5////=
####018000073####
SNTP01 LFVW 092000
AAXX 09204
61932 46/// /1808 10233 40163 5////=
####018000067####
SNTC01 LFVW 092000
AAXX 0920/
68902 46/// ///// 40236 52006=
####018000090####
SICN02 CWAO 092100 RRD
AAXX 09214
71207 46/// /1405 10288 20100 92145 333 6///1=

####018003865####
SIPH20 RPMM 092100
AAXX 09211
98132 31465 70000 10260 20247 40133 58001 74144 83208
333 56999 83817 86275=
98133 NIL=
98134 31465 41802 10273 20244 39905 40092 56007 70544
83370 333 56999 82918 81819=
98222 31575 10000 10242 20228 40097 56002 70544 81101
333 56999 81822=
98223 32562 60903 10240 20240 40094 56004 81106 333
56999 81820 86279=
98232 31565 10000 10256 20240 40103 58018 70544 81200
333 56999 81820=
98233 31570 50000 10240 20212 40093 56004 70544 85500
333 56999 85625=
98324 31462 40901 10250 20239 30098 40104 54000 70544
81261 333 56999 81816 83358=
98325 32458 41801 10250 20236 40093 56011 82271 333
56999 82817=
98327 31660 71401 10229 20219 39940 40116 56002 70544
81108 333 56999 81842 87277=
98328 31461 30000 10164 20158 38518 40101 56004 70544
81201 333 56999 81814=
98330 32470 30000 10240 20238 30075 40107 55005 81201
333 56999 81818=
98334 NIL=
98336 32470 70000 10249 20241 30095 40100 55004 81271
333 56999 81815 86077=
98425 NIL=
98426 31462 41101 10242 20225 40107 55006 70544 81101
333 56999 81818 84080=
98427 32475 40000 10230 20213 39925 40104 56013 82968
333 56999 82918 83357=
98428 32458 33603 10283 20250 40102 56006 82471 333
56999 82618=
98429 31559 62402 10263 20253 40101 57011 70544 83830
333 56999 83823 86360=
98430 31558 20401 10243 20235 40098 56007 70544 81100
333 56999 81820=
98431 31458 82701 10242 20236 30060 40107 55004 70321
8387/ 333 56999 83616 88459=
98432 NIL=
98433 32464 32901 10224 20199 39382 40099 55008 82901
333 56999 82912=
98434 32470 30000 10241 20234 30083 40091 56012 82301
333 56999 82917=
98435 NIL=
98440 31470 80000 10247 20239 30094 40099 56010 70544
8427/ 333 56999 84815 88358=
98442 NIL=
98444 32465 33001 10260 20247 30080 40099 56005 82302
333 56999 82918 83070=
98446 32470 52901 10266 20235 30053 40099 56003 83201
333 56999 83818 85070=
98447 NIL=
98526 NIL=
98531 NIL=
98536 32465 60000 10266 20243 30039 40093 56008 83271
333 56999 83818 83357=
98538 31466 60000 10260 20247 30098 40103 55004 71544
83908 333 56999 83911 86272=
98543 32468 60000 10262 20246 30096 40107 56004 82208
333 56999 82818 85272=
98546 32575 51602 10254 20241 30082 40090 55002 82208
333 56999 82820 85275=
98548 32470 20000 10265 20256 30082 40088 56001 81101
333 56999 81816=
98550 31460 30000 10264 20254 40089 55005 82332 333
56999 82915=
98553 NIL=
98558 31466 52802 10270 20257 40108 56003 71522 82978
333 56999 82915 84272=
98618 31470 52701 10250 20231 40111 55001 71322 84901
333 56999 81917 83820 85075=
98630 NIL=
98637 32465 60000 10250 20224 40097 56013 81908 333
56999 81912 86272=
98642 11456 80000 10258 20239 30085 40094 55001 79522
8292/ 333 56999 82915 88459=
98644 31465 70000 10260 20247 30092 40101 55005 71322
82968 333 56999 81916 83358 86272=
98646 21560 82702 10270 20252 30090 40118 56002 72186
8327/ 333 56999 60017 83820 88459=
98648 31475 31402 10250 20236 30013 40085 56008 70544
82202 333 56999 82817=
98653 31468 71802 10260 20245 30048 40093 56009 70544
81270 333 56999 81818 87358=
98741 21468 70000 10257 20246 40099 53002 79582 82978
333 56999 69907 82917 83358 87275=
98746 NIL=
98747 31460 72201 10236 20225 39887 40093 55002 71344
82970 333 56999 82917 81818 86358=
98751 32465 80000 10210 20204 39425 40095 55005 8491/
333 56999 84915 88456=
98752 31460 80000 10254 20245 40112 53001 71521 8297/
333 56999 82916 88358=
98753 21465 70000 10240 20233 40106 56003 70564 82278
333 56999 60017 82816 86359 86279=
98755 32575 80000 10250 20236 40097 55006 8127/ 333
56999 81820 88360=
98836 21458 80000 10250 20242 40112 53002 76086 8252/
333 56999 60027 82618 88460=
98851 21470 82701 10233 20215 39954 40102 55011 70282
8197/ 333 56999 60117 81918 88358=
####018000238####
SNHK22 VHHH 092145
AAXX 09211
45032 36/// /9901 10263 20242 30073 40088 52003=
45035 36/// /2004 10271 20236 30043 40083 54000=
45039 36/// /2402 10289 20244 30067 40082 52001=
45044 36/// /2303 10265 20257 39995 40086 52002=
####018000241####
SNHK22 VHHH 092145
AAXX 09211
45032 36/// /9901 10263 20242 30073 40088 52003=
45035 36/// /2004 10271 20236 30043 40083 54000=
45039 36/// /2402 10289 20244 30067 40082 52001=
45044 36/// /2303 10265 20257 39995 40086 52002=

####018000071####
SNAA01 KARS 092100 RRB
AAXX 0921/
89667 46/// ///// 4//// 5////=
####018000575####
SIAA01 KARS 092100 RRB
AAXX 0921/
89108 46/// ///// 11624 36900 4//// 5//// 92130=
89667 46/// ///// 4//// 5////=
89768 46/// ///// 11346 38656 4//// 5//// 92130=
89872 46/// ///// 11281 39730 4//// 5//// 92130=
89377 46/// ///// 11336 39756 4//// 5//// 92130=
89376 46/// ///// 11379 39698 4//// 5//// 92130=
89329 46/// ///// 11334 38538 4//// 5//// 92130=
89799 46/// ///// 11615 4//// 5//// 92130=
89868 46/// ///// 11333 39732 4//// 5//// 92130=
89769 46/// ///// 11290 39741 4//// 5//// 92130=
89314 46/// ///// 11326 38036 4//// 5//// 92130=
####018000197####
SIAA01 KARS 092100 RRC
AAXX 09214
89667 46/// /1225 11244 29080 39792 4//// 5//// 92130=
89667 46/// /1221 11242 39802 4//// 5//// 92120=
89667 46/// /1420 11237 39806 4//// 5//// 92110=
