####018000450####
SNVD15 KWNB 100200 RRW
BBXX
42369 10021 99272 70903 46/// /1002 10288 90200 22200 10501 70005=
42370 10021 99273 70905 46/// ///02 10292 90200 22200 10501 70005=
42374 10021 99289 70881 46/// ///04 10282 40145 90200=
42376 10021 99291 70879 46/// /2604 10288 40134 90200 22200 10101
70004=
42392 10021 99272 70900 46/// ///// 1//// 90200 22200 10301 70005=
42887 10021 99282 70885 46/// /2501 10294 20234 90200 22200 10601
70007=
####018000241####
SNHK22 VHHH 100300
AAXX 10031
45032 36/// /1702 10301 20237 30086 40102 54000=
45035 36/// /2505 10309 20251 30059 40098 57001=
45039 36/// /1602 10305 20247 30084 40098 54000=
45044 36/// /2504 10276 20270 30013 40102 54000=

####018000089####
SNPS40 AMMC 100100 RRG
AAXX 10014
91375 46/// /0106 10294 40110 22200 00283=


####018000238####
SNHK22 VHHH 100300
AAXX 10031
45032 36/// /1702 10301 20237 30086 40102 54000=
45035 36/// /2505 10309 20251 30059 40098 57001=
45039 36/// /1602 10305 20247 30084 40098 54000=
45044 36/// /2504 10276 20270 30013 40102 54000=
####018000127####
SNVD17 KWNB 100200 RRG
BBXX
46238 10021 99334 71195 46/// ///// 1//// 90226 22200 00146 10502
20502 316// 41301 70012=
####018000109####
SIBH21 MZBZ 100300
AAXX 10034
78583 42570 61006 10285 20258 40132 83838 333
01234 58017 83822 86876=
####018000119####
SMRA15 RUHB 100000 CCA
AAXX 10001
25428 32684 22501 10239 20157 39811 40107 58009 82100 333 20166 55087
91105=
####018000118####
SIGD01 TGPY 100300
AAXX 10034
78958 41462 70910 10281 20253 30136 40146 70622 85802
333 0/209 59003 85819 86076=####018000607####
SIVD15 KWNB 100300 RRF
BBXX
41141 10031 99177 70646 46/// ///// 1//// 90251 22200 00295 10603
20603 70017=
41140 10031 99178 70647 46/// ///// 1//// 90252 22200 00293 10602
20602 70009=
44100 10031 99363 70756 46/// ///// 1//// 90252 22200 00263 10802
20802 70009=
44235 10031 99473 70573 46/// ///// 1//// 90254 22200 00124 10703
20703 70013=
41110 10031 99341 70777 46/// ///// 1//// 90257 22200 00269 10801
20801 70007=
42099 10031 99273 70842 46/// ///// 1//// 90249 22200 00297 1//00
70002=
41113 10031 99284 70805 46/// ///// 1//// 90251 22200 00278 10801
20801 70004=
####018000685####
SIVD22 KWNB 100300 RRE
BBXX
46232 10031 99325 71174 46/// ///// 1//// 90254 22200 00184 11302
21001 320// 41301 70008=
46244 10031 99409 71244 46/// ///// 1//// 90250 22200 00109 10702
20702 322// 41401 70012=
46236 10031 99368 71219 46/// ///// 1//// 90250 22200 00131 11102
20402 323// 41101 70010=
46212 10031 99408 71243 46/// ///// 1//// 90251 22200 00111 10702
20702 70012=
46217 10031 99342 71194 46/// ///// 1//// 90251 22200 00169 10502
20502 320// 41301 70010=
46213 10031 99403 71247 46/// ///// 1//// 90250 22200 00124 11303
20702 317// 41301 70014=
46231 10031 99327 71174 46/// ///// 1//// 90242 22200 00185 11302
21001 320// 41301 70008=
####018000914####
SIIY22 LIIB 100300
AAXX 10034
16020 46/// /2002 10212 20191 39934 40213 53000=
16045 NIL=
16059 42965 03103 10228 20195 39870 40204 53006=
16066 41957 00904 10227 20197 39955 40207
57003 71000=
16090 42960 53305 10240 20237 30122 40201 58004 85030 333 85365=
16105 42970 00000 10234 20220 30193 40199 55006=
16149 42970 02002 10208 20208 30186 40202 58003=
16170 42965 02101 10218 20185 30141 40193 57004=
16191 16/// /1905 10175 20145 30187 40199 57006 60002 ////=
16242 42960 00403 10203 20186 30181 40186 55003=
16261 NIL=
16289 42960 03203 10199 20076 30096 40180 58009=
16362 42960 00805 10165 20141 30162 40180 58011=
16405 42970 02202 10231 20203 30175 40188
57005 333=
16453 NIL=
16460 42960 02404 10186 20147 30160 40180 56007=
16490 NIL=
16520 41905 03102 10215 20215 30164 40196 57003 74011=
16560 42162 13305 10216 20159 30180 40186 56007 81600 333 81702=
####018000085####
SICY20 LCLK 100300
AAXX 10034
17609 42962 02901 10217 20209 30094 40097 53004=
####018001099####
SIIY21 LIIB 100300
AAXX 10034
16021 42965 03600 10152 20136 38101 48599 54000=
16022 42770 43409 10148 20114 37974 48587 58006 83031 333 83356=
16033 NIL=
16040 NIL=
16052 42962 02103 10070 21054 36786 47233 58006=
16061 42965 01204 10228 20184 39390 42840 56003=
16098 42960 00000 10216 20197 30149 40199 57005=
16138 NIL=
16148 NIL=
16168 42970 00710 10236 20157 39479 42843 57003=
16172 NIL=
16179 42982 00000 10210 20037 39549 42847 58001=
16224 42960 00603 10222 20196 39871 40177 57008=
16232 42998 02404 10234 20118 30131 40183 57011 555 0216/=
16245 42960 00301 10246 20223 30157 40182 56005=
16253 42970 00504 10188 20171 30181 40193 58001=
16258 42960 03310 10170 20018 39228 42827 5////=
16263 NIL=
16294 NIL=
16337 NIL=
16344 42962 00206 10110 20102 38376 48554 56001 333 95000 95100=
16434 NIL=
16450 NIL=
16459 42965 02906 10208 20205 30146 40180 56005=
16531 42970 02204 10197 20172 30180 40190 56010=
16546 42165 20000 10212 20186 30156 40184 56005 82600 333 82702=
16564 42997 00403 10240 20205 30052 40188 58002 555 0////=
####018002032####
SIRO21 YRBK 100300
AAXX 10031
15015 22598 31802 10135 20119 39627 42839 57002 81540 333 60007 91003
91103=
15020 22597 63103 10182 20150 30003 40195 54001 83370 333 60007 91005
91106=
15090 22597 83003 10184 20162 30055 40177 54001 85537 333 55300 10087
2//// 3//// 60007 91007 91107=
15108 21/91 90000 10072 20072 38161 48565 57005 74544 333 60007=
15120 22997 52501 10155 20151 39722 40206 57007 85070 333 55300 10089
2//// 3//// 60007 91003 91104=
15150 22597 83305 10198 20152 39965 40182 57006 8557/ 333 60007 91008
91109=
15170 23/// /2702 10129 20127 39432 42825 57004 333 60007 91003 91103
=
15200 22998 23601 10153 20143 30058 40199 54001 81041 333 60007 91002
91102=
15230 21496 12201 10146 20145 39920 40208 54000 71011 81600 333 55300
10148 2//// 3//// 60007 91002 91102=
15260 22998 62001 10149 20140 39680 40204 54001 86070 333 60007 91002
91102 95000=
15280 21/90 90718 10040 20040 37562 47118 57008 74544 333 60007 91024
=
15292 22998 21201 10136 20136 39911 40201 56005 80002 333 60007 91002
91102 95000=
15310 21597 83603 10192 20176 30070 40153 54001 76166 8557/ 333 55300
10126 2//// 3//// 60027 91007 91107=
15335 21597 73403 10198 20186 30138 40144 57006 70282 87900 333 69947
91005 91106=
15346 22997 32101 10164 20143 39900 40182 54001 83070 333 60007 91002
91102 95090=
15350 22597 83603 10221 20141 30049 40163 57002 8457/ 333 60007 91008
91109=
15360 22997 73603 10204 20196 30111 40125 57006 87070 333 60007 91009
91111 92427=
15410 23/// /3400 10163 20142 30089 40182 54001 333 60007 91001 91101
=
15420 22597 82802 10185 20163 30067 40174 57002 883// 333 60007 91003
91103=
15450 22997 60502 10176 20160 39946 40174 54000 82046 333 55300 10156
2//// 3//// 60007 91004 91104=
15460 23/// /3401 10187 20176 30134 40158 57005 333 60007 91004 91104
=
15470 23/// /3401 10176 20174 30049 40171 54001 333 60007 91003 91103
=
15480 21597 83403 10199 20186 30121 40137 57004 72582 889// 333 60047
91006 91108 92427=
####018000127####
SNSN21 ESWI 100200 RRA
AAXX 10021
02095 27104 /2101 10102 20099 39941 40141 51008 73233
  333 60005 89/01 90710 91102=
####018000222####
SIVD17 KWNB 100300 RRB
BBXX
52201 10031 99071 11714 46/// ///// 1//// 90255 22200 00286 11303
20902 318// 41301 70013=
46239 10031 99363 71221 46/// ///// 1//// 90253 22200 00140 11302
21002 318// 41301 70011=
####018000087####
SIVX81 EDZW 100300
BBXX
BSH05 10031 99550 10079 46/// /////
22200 11100 70002=
####018000093####
SIVX81 EDZW 100300
BBXX
BSH02 10031 99542 10079 46/// /////
22200 00190 10301 70003=
####018000131####
SMRA13 RUNW 100000 CCA
AAXX 10001
20674 31398 80206 10031 20023 30116 40174 52006 70242 886// 333 20020
55100 88707 91108=
####018001135####
SNCN19 CWAO 100202
OOXX
SEP63 10001 99592 10176 ///// 00401
     26/// /0801 10200 29063 30140 90010 333 60000=
SEP63 10001 99592 10176 ///// 00401
     26/// /1101 10199 29062 30140 90020 333 60000=
SEP63 10001 99592 10176 ///// 00401
     26/// /1101 10199 29062 30140 90030 333 60000=
SEP63 10001 99592 10176 ///// 00401
     26/// /0901 10198 29062 30140 90040 333 60000=
SEP63 10001 99592 10176 ///// 00401
     26/// /0501 10197 29065 30140 90050 333 60000=
SEP63 10011 99592 10176 ///// 00401
     26/// /0801 10193 29067 30140 90100 333 60000=
SEP63 10011 99592 10176 ///// 00401
     26/// /0601 10190 29068 30140 90110 333 60000=
SEP63 10011 99592 10176 ///// 00401
     26/// /0401 10188 29069 30140 90120 333 60000=
SEP63 10011 99592 10176 ///// 00401
     26/// /0701 10187 29068 30140 90130 333 60000=
SEP63 10011 99592 10176 ///// 00401
     26/// /1001 10187 29066 30140 90140 333 60000=
SEP63 10011 99592 10176 ///// 00401
     26/// /1001 10186 29065 30140 90150 333 60000=
SEP63 10021 99592 10176 ///// 00401
     26/// /1001 10186 29065 30140 90200 333 60000=

####018000128####
SIHK20 VHHH 100300
AAXX  10031
45007 41580 62406 10326 20230 30092 40100 51006 70182
82231  333  58011 81820 84080 =

####018000117####
SISC20 FSIA 100300
AAXX 10034
63980 41470 71603 10262 20217 40111 85832
  333 59002 85817 87075 94313 91116=
####018000089####
SIIY21 LIIB 100300 RRA
AAXX 10034
16450 42964 01503 10200 20200 39110 48594 57010=
####018000328####
SIVD15 KWNB 100300 RRG
BBXX
41038 10031 99341 70777 46/// /2206 10278 40110 52010 90300 22200
00270 333 91209=
42003 10031 99260 70856 46/// /0000 10284 20226 40175 52017 90250
22200 00299 10601 3//// 40601 70004 333 91201 555 11003 22003
30229 41701 60249 126004 163005 148005 149005 144001 136005 81501
90217=
####018000147####
SIFR11 LFPW 100300 CCA
AAXX 10034
07510 22462 12003 10183 20175 30152 40216 56006 81501
  333 60007 81613 90710 91104 93100
  555 60005=
####018000373####
SIBX20 EBBR 100300
AAXX 10031
06407 42875 52401 10159 20129 30185 40191 55001 85531
333 85657 91104 91203=
06408 NIL=
06447 NIL=
06451 42960 12902 10202 20162 30127 40192 53004 81030
333 81365 91104 91203=
06456 NIL=
06476 45982 01102 10218 20128 39562 40192 56004
333 91103 91202=
06590 42980 00502 10219 20155 39760 40192 56003
333 91102 91201=
####018000472####
SIBX22 EBBR 100300
AAXX 10031
06431 NIL=
06432 NIL=
06449 42980 12502 10205 20165 39974 40193 54000 81031
333 81362 91103 91203=
06450 45982 02903 10219 20134 30173 40188 54001
333 91104 91203=
06452 NIL=
06458 45077 /9901 10222 20158 30040 40187 55000
  333 91102 91202=
06463 NIL=
06465 NIL=
06470 NIL=
06473 NIL=
06478 42962 41503 10226 20162 39980 40189 54000 82031
333 82362 84070 91108 91203=
06480 NIL=
06481 NIL=
06496 NIL=
####018000087####
SIIY21 LIIB 100300 RRA
AAXX 10034
16450 42964 01503 10200 20200 39110 48594 57010=
####018000142####
SIBX21 EBBR 100300
AAXX 10031
06400 NIL=
06428 NIL=
06479 NIL=
06490 45981 01604 10193 20150 39653 40200 57003
333 91105 91205=
####018000912####
SIIY22 LIIB 100300
AAXX 10034
16020 46/// /2002 10212 20191 39934 40213 53000=
16045 NIL=
16059 42965 03103 10228 20195 39870 40204 53006=
16066 41957 00904 10227 20197 39955 40207
57003 71000=
16090 42960 53305 10240 20237 30122 40201 58004 85030 333 85365=
16105 42970 00000 10234 20220 30193 40199 55006=
16149 42970 02002 10208 20208 30186 40202 58003=
16170 42965 02101 10218 20185 30141 40193 57004=
16191 16/// /1905 10175 20145 30187 40199 57006 60002 ////=
16242 42960 00403 10203 20186 30181 40186 55003=
16261 NIL=
16289 42960 03203 10199 20076 30096 40180 58009=
16362 42960 00805 10165 20141 30162 40180 58011=
16405 42970 02202 10231 20203 30175 40188
57005 333=
16453 NIL=
16460 42960 02404 10186 20147 30160 40180 56007=
16490 NIL=
16520 41905 03102 10215 20215 30164 40196 57003 74011=
16560 42162 13305 10216 20159 30180 40186 56007 81600 333 81702=
####018000085####
SNPS40 AMMC 100200
AAXX 10024
91844 46/// /0806 10258 40175 22200 00253=


####018000126####
SIVD02 CWAO 100300
BBXX
CG2522 10034 99619 71135 46/// /2607 10125 20078 49920 58006 7//// 8//// 22221 00084 2//// =

####018000124####
SIVD02 CWAO 100300
BBXX
CGDX 10034 99621 70715 46/// /1109 10042 20040 40051 55002 7//// 8//// 22253 00054 2//// =

####018000121####
SIVD02 CWAO 100300
BBXX
V 10034 99474 70526 46/// /2412 10180 20167 40115 58010 7//// 8//// 22231 0//// 2//// =

####018000126####
SIVD02 CWAO 100300
BBXX
CG2958 10034 99487 71235 46/// /1006 10227 20137 40138 56007 7//// 8//// 22200 0//// 2//// =

####018000124####
SIVD02 CWAO 100300
BBXX
CGTF 10034 99637 70685 46/// /1410 10057 20053 40071 53006 7//// 8//// 22200 0//// 2//// =

####018000124####
SIVD02 CWAO 100300
BBXX
CGBN 10034 99476 70527 46/// /2411 10187 20161 40128 50004 7//// 8//// 22200 0//// 2//// =

####018000124####
SIVD02 CWAO 100300
BBXX
CGJK 10034 99527 71421 46/// /2522 10098 20096 40129 53005 7//// 8//// 22263 00103 2//// =

####018000124####
SIVD02 CWAO 100300
BBXX
CGDP 10034 99509 71277 46/// /3306 10172 20127 40179 55008 7//// 8//// 22271 00129 2//// =

####018000127####
SIVD02 CWAO 100300
BBXX
CFN3031 10034 99467 70715 46/// /2808 10226 20212 40086 52002 7//// 8//// 22213 00250 2//// =

####018000125####
SIVD02 CWAO 100300
BBXX
VRYO3 10034 99523 10036 46/// /2413 10172 20149 40175 58003 7//// 8//// 22214 00171 2//// =

####018000126####
SIVD02 CWAO 100300
BBXX
VC6750 10034 99609 71157 46/// /0301 10166 20096 49940 58007 7//// 8//// 22200 0//// 2//// =

####018000124####
SIVD02 CWAO 100300
BBXX
CGDG 10034 99442 70578 46/// /2217 10190 20189 40214 51006 7//// 8//// 22223 0//// 2//// =

####018000126####
SIVD02 CWAO 100300
BBXX
CG2965 10034 99489 71235 46/// /3213 10251 20126 40128 56007 7//// 8//// 22241 00200 2//// =

####018000124####
SIVD02 CWAO 100300
BBXX
CGHL 10034 99623 70655 46/// /0410 10010 20008 40069 51011 7//// 8//// 22282 0//// 2//// =

####018000124####
SIVD02 CWAO 100300
BBXX
CGDS 10034 99440 70820 46/// /2606 10202 20178 49936 51012 7//// 8//// 22272 00200 2//// =

####018000124####
SIVD02 CWAO 100300
BBXX
CGDT 10034 99631 70802 46/// /1312 10072 20070 40029 56008 7//// 8//// 22243 00073 2//// =

####018000124####
SIVD02 CWAO 100300
BBXX
VOLG 10034 99446 70622 46/// /2017 10186 20186 40179 53009 7//// 8//// 22223 0//// 2//// =

####018000126####
SIVD02 CWAO 100300
BBXX
CG2350 10034 99421 70831 46/// /0802 10235 20158 49939 51018 7//// 8//// 22200 0//// 2//// =

####018000124####
SIVD02 CWAO 100300
BBXX
VOPP 10034 99452 70741 46/// /3601 10216 20214 40018 53009 7//// 8//// 22200 0//// 2//// =

####018000124####
SIVD02 CWAO 100300
BBXX
CGBR 10034 99529 71295 46/// /1404 10133 20132 40176 58005 7//// 8//// 22271 00126 2//// =

####018000126####
SIVD02 CWAO 100300
BBXX
CG2992 10034 99693 71339 46/// /3006 10193 20067 40097 58009 7//// 8//// 22251 0//// 2//// =

####018000109####
SNVD15 KWNB 100200 RRX
BBXX
44055 10021 99391 70753 46/// ///// 1//// 90230 22200 00250 1//00
70002=
####018000176####
SICY20 LCLK 100300
AAXX 10034
17600 42970 00207 10190 20155 30089 40098 55000
  333 92428=
17601 NIL=
17607 NIL=
17609 42962 02901 10217 20209 30094 40097 53004=
####018000233####
SIQB21 LQSM 100300
AAXX 10031
14542 42975 41401 10140 20125 30041 40228 57003 81044 333 81360 84080
95900=
14648 42970 03401 10215 20094 30089 40205 54000=
14652 41/00 93606 10055 20050 38006 48560 57005 74544 333 89///=
####018000101####
SIQB20 LQSM 100300
AAXX 10031
14654 42970 41003 10118 20094 39497 40233 57005 80001 333 84070=
####018000109####
SIQT20 OTBD 100300
AAXX 10034
41170 41958 10905 10331 20274 39994 40007 70500 80001 333 59008
81072=
####018000110####
SIBD20 WBSB 100300
AAXX 10034
96315 43470 71603 10305 20230 40119 81848
333 81816 86080=
96323 NIL=
####018000119####
SIRE15 FMEE 100300
AAXX 10034
61996 26/// /2510 10123 20093 40261
  333 58014 60007 90710 91123
  555 60005=
####018000133####
SISO21 AMMC 100300 CCA
AAXX 10034
91503 31480 60903 10303 20256 40110 58016 70522 82936
  333 56299 82817 81918 85280=


####018000274####
SIVS21 VNNN 100300
AAXX 10031
48803 32560 70000 10310 20261 39934 40043 51004 878// 333 58005 
81895 86696=
48823 32998 71803 10333 20273 30048 40051 51010 81048 333 58007 
81399 86299=
48840 32998 62502 10339 20252 30042 40048 50005 80008 333 58007 
86299=
####018000132####
SINO23 ENMI 100300 RRA
AAXX 10031
01015 46/// /1609 10125 20085=
01180 26/// /1502 10130 20087 30071 40126 57014 333 60005=
####018000147####
SINO24 ENMI 100300 RRA
AAXX 10031
01262 46/// /1310 10134 20100=
01436 46/// /0502 10166 20133=
01471 26/// /1201 10154 20077 333 60005=
####018000175####
SINO26 ENMI 100300 RRA
AAXX 10031
01277 26/// /1501 10139 20095 333 69935=
01476 46/// /1902 10166 20144 30150 40156 57013=
01488 26/// /0000 10140 20116 333 60005=
####018000127####
SISO21 AMMC 100300 CCB
AAXX 10034
91517 31465 30512 10305 20248 40123 52004 70500 81208
  333 56200 81818 83280=


####018000405####
SISO22 AMMC 100300
AAXX 10033
91502 21460 80000 10252 20240 40112 56013 72582 889//
  333 56199 60157 83815 81916 87628=
91507 21475 80902 10288 20243 40118 57014 78082 8592/
  333 56999 60027 83816 81917 83628 85460=
91520 31570 60510 10302 20241 40113 57015 70522 82806
  333 56909 82820 86280=
91541 21475 80905 10288 20250 40112 57018 70582 84936
  333 56299 83820 81921 86280=

####018000192####
SIVS20 VNNN 100300
AAXX 10031
48820 32998 72302 10328 20264 30040 40048 50009 84038 333 58011 
84399 86299=
48845 32798 31803 10350 20220 30056 40063 52008 83500 333 58011 
83697=
####018000283####
SIBO20 SLLP 100300
AAXX 10034
85201 42470 20906 10014 21007 36312 52015 81501
333 56200 58004 81613=
85223 31970 01504 10151 20036 37527 47159 52027 70400
333 58027=
85244 41440 81815 10190 20181 39742 40181 52023 79196 8792/
333 56499 58046 86612 81927 88457 91026=
####018000099####
SIAA21 RJTD 100300
AAXX 10034
89532 41/05 80731 11162 21193 39675 49703 56042
77132 885//=
####018000993####
SIOS20 LOWM 100300
AAXX 10031
11010 32975 09901 10153 20146 39849 40219 58001=
11012 36/// /2302 10159 20136 39763 40218=
11022 36/// /0102 10199 20111 39842 40216=
11035 32982 00801 10160 20121 39970 40216 55000=
11036 32980 19901 10141 20110 30002 40222 58001 333 81365=
11101 36/// /1201 10201 20175 39699 40202=
11120 32982 19901 10172 20158 39540 40224 51004 333 81365=
11126 46/// /3503 10142 20061 37863 48588=
11130 36/// /0000 10165 20154 39646 40216=
11146 NIL=
11150 32982 19901 10157 20144 39690 40217 56002 333 81366=
11155 36/// /3502 10160 20048 38463 48583=
11157 41904 09901 10120 20118 39485 40242 52001 74140=
11172 NIL=
11190 32970 03503 10171 20134 39987 40214=
11204 36/// /0000 10152 20139 39462 40228=
11212 NIL=
11231 32982 19901 10160 20145 39672 40228 52001 333 81080=
11240 31982 10000 10159 20147 39798 40226 57002 71100 333 81080=
11244 36/// /3401 10138 20127 39901 40236=
11389 32970 01801 10145 20132 39903 40211=
####018000271####
SIVS21 VNNN 100300
AAXX 10031
48803 32560 70000 10310 20261 39934 40043 51004 878// 333 58005
81895 86696=
48823 32998 71803 10333 20273 30048 40051 51010 81048 333 58007
81399 86299=
48840 32998 62502 10339 20252 30042 40048 50005 80008 333 58007
86299=
####018000190####
SIVS20 VNNN 100300
AAXX 10031
48820 32998 72302 10328 20264 30040 40048 50009 84038 333 58011
84399 86299=
48845 32798 31803 10350 20220 30056 40063 52008 83500 333 58011
83697=
####018000177####
SICY20 LCLK 100300
AAXX 10034 
17600 42970 00207 10190 20155 30089 40098 55000
  333 92428=
17601 NIL=
17607 NIL=
17609 42962 02901 10217 20209 30094 40097 53004=
####018000577####
SIMC21 GMMC 100300
AAXX 10034
60101 469// /0809 10227 20183 40167 58014=
60115 32962 40101 10234 20185 40162 58005 80002
  333 84073=
60135 45350 51702 10198 20186 40167 56012 85600
  333 83706 83615=
60150 32956 30000 10225 20174 39536 40165 57012 83080
  333 83360=
60155 32456 10602 10226 20203 40160 57012 81600
  333 81710=
60156 47457 50403 10210 20195 40168 58014 70010 85600
  333 83710 83616=
60230 45960 43203 10286 20152 40134 56015 84080
  333 84360=
60252 32960 22904 10220 20180 40122 56014 82030
  333 82360 95800=
60096 NIL=
####018000243####
SIJD50 OJAM 100300
AAXX 10034
40250 42960 03605 10232 20029 39302 40035 54000=
40255 42960 00000 10204 20176 39411 40092 51002=
40260 42960 03612 10260 20104 39319 40040 54002=
40265 41956 0000 10186 20173 39340 40094 54003 71000=
####018000242####
SIJD50 OJAM 100300
AAXX 10034
40250 42960 03605 10232 20029 39302 40035 54000=
40255 42960 00000 10204 20176 39411 40092 51002=
40260 42960 03612 10260 20104 39319 40040 54002=
40265 41956 000 10186 20173 39340 40094 54003 71000=
####018000145####
SISO22 AMMC 100300 CCB
AAXX 10033
91507 21475 80902 10288 20243 40118 57014 78082 8592/
  333 56999 60027 83816 81917 83628 85460=


####018000445####
SISO22 AGGG 100300
AAXX 10033

91502 21460 80000 10252 20240 40112 56013 72582 889//

333      56199 60157 83815 81916 87628=

91507 21475 80902 10288 20243 40118 57014 78082 8592/

333       56999 60027 83816 81917 83628 85460=

91520 31570 60510 10302 20241 40113 57015 70522 82806

333      56909 82820 86280=

91541 21475 80905 10288 20250 40112 57018 70582 84936

333      56299 83820 81921 86280=


####018000133####
SISO22 AMMC 100300 CCD
AAXX 10033
91541 21475 80905 10288 20250 40112 57018 70582 84936
  333 56299 83820 81921 86280=


####018000127####
SISO22 AMMC 100300 CCC
AAXX 10033
91520 31570 60510 10302 20241 40113 57015 70522 82806
  333 56909 82820 86280=


####018000139####
SISO22 AMMC 100300 CCA
AAXX 10033
91502 21460 80000 10252 20240 40112 56013 72582 889//
  333 56199 60157 83815 81916 87628=


####018001056####
SIUR20 UKMS 100300
AAXX 10031
33135 42997 15103 10178 20152 30007 40178 57004 80001 333
55145=
33317 NIL=
33345 NIL=
33393 42997 50000 10146 20132 39846 40227 57001 85030 333
55091=
33506 42960 63603 10218 20180 39945 40130 57004 83039=
33587 41596 80502 10182 20169 39919 40170 53003 78181 883//
333 88923=
33631 42998 03201 10135 20122 30078 40219 53002 333 55131=
33663 NIL=
33658 42797 63003 10180 20155 39918 40206 57003 86500 333
55038 86650=
33711 41597 83104 10184 20182 39940 40140 58008 79598 8697/
333 55000 86925=
33791 41597 83002 10198 20195 39987 40130 53001 72582 8535/
333 55046 85929=
33837 41440 83302 10190 20188 30079 40128 58012 78388 887//
333 55071=
33924 NIL=
33946 41/06 90902 10204 20204 39904 40112 53001 74542 333
55069=
34300 42997 70802 10223 20182 39953 40132 53002 86031 333
55094=
34504 42997 60000 10208 20200 39955 40123 57004 86030 333
55038=
34519 41960 60604 10201 20175 39867 40128 58014 70198 86063=
34601 42660 60603 10212 20205 39993 40121 57002 83530=
####018000241####
SIBX23 EBUM 100300
AAXX 10031
06414 46/// /2302 10174 20125 30162 40194 58002 333   91103 91202=
06459 46/// /1901 10186 20183 30004 40190 54001 333   91102 91202=
06494 46/// /1601 10169 20150 39435 40205 57001 333   91102 91202=
####018000171####
SIEO20 EEMH 100300 RRA
AAXX 10031
26231 21/68 21902 10184 20172 30197 40211 52001 70200 80001
 333  10251 20156 55146 60007 80///
 555  1/016 20156 3/014 50211=
####018000967####
SIEO20 EEMH 100300
AAXX 10031
26038 21/66 41902 10161 20145 30163 40203 52002 70200 80001
 333  10226 20151 55164 60007 80///
 555  1/018 20151 3/014 50201 52012=
26045 27/75 /2002 10162 20136 30203 40205 52005 70000
 333  10242 20126 60007
 555  1/017 20126 3/013 50201=
26058 27/74 02502 10195 20161 30196 40204 52006 70000 80///
 333  10236 20182 60007 80///
 555  1/020 20182 3/017 50215 52016=
26115 27/72 02001 10187 20178 30188 40196 54001 70000 80///
 333  10213 20183 60007 80///
 555  1/018 20183 3/017 50199=
26135 27/70 /2601 10166 20151 30140 40212 52005 70000
 333  10259 20151 60007
 555  1/016 20151 3/015 50214 52012=
26141 21/65 12101 10150 20139 30067 40211 52005 70200 81030
 333  10255 20134 60007 81///
 555  1/016 20134 3/014 50200 52011=
26242 21/71 22001 10163 20141 30134 40218 52005 70200 80001
 333  10258 20159 55112 60007 80///
 555  1/017 20159 3/016 50210 52014=
26231 NIL=
26247 NIL=
####018000153####
SIEO20 EEMH 100300 RRB
AAXX 10031
26247 27/65 /2101 10154 20142 30143 40221 52002 70011
 333  10256 20141 60007
 555  1/016 20141 3/015 50206=
####018000274####
SIMC22 GMMC 100300
AAXX 10034
60265 32660 33104 10307 20020 38926 48576 58013 82280
  333 82840=
60060 NIL=
60105 NIL=
60106 NIL=
60107 NIL=
60127 NIL=
60141 NIL=
60185 NIL=
60190 NIL=
60191 NIL=
60195 NIL=
60210 NIL=
60220 NIL=
60318 NIL=
