####018001112####
SNVD17 KWNB 100200
BBXX
46084 10021 99566 71361 46/// /1409 10121 20121 40130 50000 90150
22200 00118 10603 20603 300// 40801 70015 333 91210 555 11094
22101 30058 41411 60149 139087 137088 135085 134088 135089 136087=
46075 10021 99539 71608 46/// /1610 10090 20084 49961 58013 90150
22200 00091 10805 20805 300// 41402 70026 333 91212 555 11104
22111 30125 41712 60149 164097 166093 171093 170099 168091 170090
81711 90120=
46005 10021 99461 71310 46/// /3007 10139 40235 56012 90150 22200
00135 11502 20501 300// 41502 70009 333 91208 555 11075 22081
30130 43009 60149 301069 299076 295071 291066 286054 284050=
46005 10021 99461 71310 46/// /3007 10139 40235 90150 22200 00135
11502 20501 300// 41502 70009 333 91208 555 11075 22081 30130
43009 60149 301069 299076 295071 291066 286054 284050=
46080 10021 99580 71500 46/// ///// 10099 40078 57008 90150 22200
10805 70023=
46085 10021 99559 71426 46/// /2005 10104 20104 40078 53003 90150
22200 00106 10603 20401 3//// 40603 70016 333 91206 555 11048
22050 30123 41906 60149 194045 190044 190047 183043 182035 185032=
####018001484####
SNVD20 KWNB 100200 RRC
BBXX
41008 10021 99314 70809 46/// /2107 10279 40129 53015 90150 22200
10402 20401 300// 40901 70008 333 91209 555 11078 22083 30058
41910 60149 204075 200075 195079 195082 193084 193084=
41004 10021 99325 70791 46/// /1904 10278 20259 40125 52005 90150
22200 00275 10901 20401 3//// 40901 70006 333 91205 555 11041
22045 30115 42005 60149 189038 188036 192040 192037 187033 180031=
41013 10021 99334 70777 46/// /2007 10291 20230 40117 52008 90150
22200 00296 10801 20301 308// 40801 70006 333 91208 555 11072
22076=
44009 10021 99385 70747 46/// /1503 10248 20242 40111 52013 90150
22200 00248 10702 20301 300// 40702 70011 333 91204 555 11032
22034 30057 41404 60149 152030 157029 154026 153026 150030 144032=
44018 10021 99413 70693 46/// /1505 10173 20173 40132 52003 90150
22200 10702 20401 314// 40702 70011 333 91205 555 11052 22055
30100 41506 60149 153049 149048 145046 145047 152049 148051=
44065 10021 99404 70737 46/// /1704 10246 20238 40112 53008 90150
22200 00249 10802 20401 316// 40802 70010 333 91204 555 11038
22039 30120 41605 60149 173036 171039 164041 164041 164037 164038
83404 90127=
44040 10021 99410 70736 46/// /2103 10247 20230 40122 90145 22200
1//00 70001 333 91204 555 11036 22036=
44020 10021 99414 70702 46/// /1707 10229 20229 40124 54000 90150
22200 00230 10701 20301 309// 40701 70005 333 91208 555 11075
22079 30142 41708 60149 167070 169070 169066 169066 171062 171059=
####018003694####
SNVD15 KWNB 100200 RRA
BBXX
41012 10021 99300 70805 46/// /2007 10285 20243 40142 53017 90150
22200 00279 10801 20301 309// 40801 70005 333 91209 555 11077
22083 30143 42009 60149 199070 200065 198060 194062 194060 194059=
41046 10021 99238 70709 46/// /1106 10281 20238 40183 53014 90150
22200 00292 10802 20501 310// 40802 70011 333 91207 555 11058
22060 30055 41107 60149 111055 111057 114057 110059 106061 106062
82807 90057=
41049 10021 99275 70630 46/// /1106 10271 20240 40225 53010 90150
22200 00273 10603 20502 300// 40602 70013 333 91207 555 11065
22069 30114 41108 60149 108062 106062 102062 106060 107062 104059
81107 90104=
42036 10021 99285 70845 46/// /2403 10286 40158 53013 90150 22200
00291 10701 323// 40701 70003 333 91204 555 11029 22030 30149
42504 60149 239029 223026 210024 224019 236019 228021=
41001 10021 99347 70727 46/// /2009 10269 20231 40129 53011 90150
22200 00267 10803 20402 3//// 40802 70015 333 91211 555 11101
22108 30146 42011 60149 195094 191085 191088 188089 190087 187087=
41044 10021 99217 70587 46/// /1008 10282 20254 40200 51015 90150
22200 00282 10803 20602 300// 40802 70015 333 91209 555 11080
22085 30124 40909 60149 095074 098077 095079 095075 095076 096071
80909 90125=
41048 10021 99320 70696 46/// /1808 10272 20241 40179 53014 90150
22200 00271 10703 20703 70017 333 91209 555 11084 22089 30137
41709 60149 175078 174077 176073 176068 176074 177079 81808 90137=
44005 10021 99432 70691 46/// /1606 10206 90150 22200 00198 10802
20402 3//// 40801 70010 333 91207 555 11063 22070 30054 41808
60149 163058 165063 166063 164062 162070 166068=
42039 10021 99288 70860 46/// /2702 10281 20221 40162 53013 90150
22200 00294 10701 300// 40701 70003 333 91202 555 11017 22018
30107 42504 60149 270017 261019 266023 261026 252027 236024 80703
90107=
42035 10021 99292 70944 46/// /1501 10286 40156 53007 90150 22200
00305 10702 20301 317// 40701 70008 333 91201 555 11006 22006
30105 41502 60149 148006 206003 208006 167006 157011 156009=
42060 10021 99165 70635 46/// /0709 10287 20248 40152 50007 90150
22200 00293 10704 20704 70021 333 91210 555 11093 22098 30059
40813 60149 065087 067081 070084 065091 062100 084101 80711 90059=
42059 10021 99151 70675 46/// /0909 10295 20249 40142 51013 90150
22200 00295 10805 20704 300// 40803 70023 333 91211 555 11100
22106 30107 40813 60149 092095 093092 095095 091098 092099 091101
80911 90055=
42019 10021 99279 70954 46/// /1206 10288 20257 40153 53006 90150
22200 00293 10602 20501 315// 40602 70011 333 91206 555 11059
22062 30149 41106 60149 115055 113051 113051 118050 115045 114046=
42020 10021 99270 70967 46/// /1107 10284 40135 53010 90150 22200
00297 10703 20603 312// 40702 70017 333 91209 555 11076 22080
30138 41109 60149 113072 112072 113071 112067 112067 116065=
44066 10021 99396 70726 46/// /1903 10251 20244 40121 53011 90150
22200 10702 20401 300// 40702 70011 333 91204 555 11034 22036
30052 41904 60149 187032 188033 195032 193034 193034 192037=
42056 10021 99199 70851 46/// /1005 10286 20251 40145 53009 90150
22200 00290 10602 20401 312// 40602 70011 333 91205 555 11047
22050 30050 41105 60149 100045 095041 100042 094040 097039 086040
81005 90143=
41047 10021 99275 70715 46/// /2407 10263 20247 40187 53014 90150
22200 00286 10802 20601 310// 40801 70009 333 91208 555 11069
22072 30142 42508 60149 243065 195053 187059 192058 196054 199042
82508 90143=
42012 10021 99301 70876 46/// /2706 10296 20244 40153 51016 90150
22200 00295 10301 20301 319// 40601 70006 333 91207 555 11060
22064 30132 42807 60149 271057 278061 277057 268053 276051 272053=
####018000927####
SNVD15 KWNB 100200 RRB
BBXX
44011 10021 99411 70666 46/// /1707 10210 40162 53004 90150 22200
00173 10803 20502 317// 40803 70017 333 91207 555 11077 22089
30121 43509 60149 173068 169073 167073 167074 165069 164063=
42040 10021 99292 70882 46/// /2605 10294 20229 40152 52013 90150
22200 00306 10701 316// 40701 70004 333 91206 555 11045 22047
30147 42706 60149 262045 259045 258043 259042 256046 260045=
42002 10021 99258 70937 46/// ///06 10286 40138 90150 555 11055
22058=
41043 10021 99211 70650 46/// /1006 10284 20232 40193 51015 90150
22200 00290 10703 20602 300// 40703 70017 333 91208 555 11068
22071 30103 41009 60149 103066 103070 110068 105069 106069 103069
81108 90103=
42055 10021 99220 70940 46/// /0907 10280 20255 40124 55000 90150
22200 00278 10702 20402 307// 40701 70011 333 91208 555 11072
22077 30119 40908 60149 089067 090069 089071 087069 088067 091071
80908 90127=
####018001703####
SNVD22 KWNB 100200 RRC
BBXX
46053 10021 99342 71198 46/// /2507 10152 40110 56014 90150 22200
00170 10502 20502 328// 40801 70011 333 91209 555 11078 22082
30102 42609 60149 254074 256073 260072 260076 260078 263075=
46028 10021 99357 71219 46/// /3208 10134 20117 30134 40134 57011
90150 22200 00139 11302 20502 318// 41302 70012 333 91210 555
11086 22091 30112 43310 60149 322081 323080 324078 319078 320072
317077=
46088 10021 99483 71232 46/// /2308 10134 40130 90150 22200 00119
10301 20301 70004 333 91209 555 11080 22085 30106 42209 60149
223077 218076 222079 223079 225081 230072=
46012 10021 99374 71229 46/// /3005 10128 40141 57009 90150 22200
00126 11402 20401 319// 41402 70010 333 91206 555 11049 22053
30137 43106 60149 303045 305046 303042 302034 304037 305036=
46013 10021 99382 71233 46/// /3103 10117 40134 56009 90150 22200
00110 11402 20401 317// 41402 70010 333 91204 555 30050 43004
60149 304032 296030 287030 281026 274026 273024=
46029 10021 99461 71245 46/// /3306 10160 20160 40171 54000 90150
22200 00162 10803 20502 331// 40803 70015 333 91207 555 11062
22062 30057 43309 60149 327063 328069 326074 327078 328080 328081=
46054 10021 99343 71205 46/// ///12 10137 40111 56015 90150 22200
00148 10403 20403 300// 40901 70015 333 91215 555 11127 22135=
46015 10021 99427 71248 46/// /0108 10115 40155 53004 90150 22200
10602 20602 326// 41401 70011 333 91209 555 11081 22087 30105
40111 60149 008076 010075 013076 011083 008086 010077=
46025 10021 99337 71191 46/// /2603 10159 40121 56006 90150 22200
00178 11302 320// 41302 70008 333 91205 555 11032 22033 30103
42905 60149 263032 275032 290033 296037 298038 293039=
####018000593####
SNVD45 KWNB 100200 RRB
BBXX
45004 10021 99476 70866 46/// /2804 10147 39913 40133 53004 90150
22200 00127 10401 20401 70004 333 91204 555 11043 22051 30051
42805 60149 283037 279034 279038 282036 282038 281040=
45005 10021 99417 70824 46/// /0206 10246 39924 40127 53015 90150
22200 00253 10401 20401 70007 333 91207 555 11061 22064 30115
40208 60149 016059 015066 010068 013066 014069 017064=
45003 10021 99454 70828 46/// /3303 10185 39928 40140 53012 90150
22200 00169 1//00 70002 333 91204 555 11036 22043 30051 43305
60149 333031 325031 318030 324032 319033 329042=
####018000398####
SNVE15 KWNB 100200 RRA
BBXX
51000 10021 99235 71541 46/// /0809 10243 20174 40188 58010 90150
22200 00249 333 91211 555 11098 22104 30052 40612 60149 075092
074097 071103 070101 070103 068103=
51003 10021 99191 71607 46/// /0907 10241 40149 56013 90150 22200
00267 10604 20603 300// 41102 70018 333 91209 555 11078 22082
30116 40813 60149 088074 093083 084093 078109 071073 075076=
####018000215####
SNVD45 KWNB 100200 RRC
BBXX
45006 10021 99473 70898 46/// /2105 10176 39911 40131 57003 90150
22200 00146 1//00 70002 333 91205 555 11056 22066 30138 42106
60149 207048 210048 211046 208038 209036 212038=
####018000153####
SMPH20 RPMM 100000 RRA
AAXX 10001
98553 11470 40000 10299 20256 30121 40125 53029 69974
71584 83901 333 20254 56399 58007 70007 82915 555 20003=
####018000247####
SNVD15 KWNB 100200 RRC
BBXX
42057 10021 99168 70815 46/// /0709 10294 20256 40133 53014 90150
22200 00292 10603 20603 3//// 40701 70015 333 91210 555 11095
22101 30121 40811 60149 068090 069093 071096 069089 071089 074091
80710 90100=
####018000148####
SNAA17 LFVW 092300 RRB
AAXX 09234
89811 46/// /0000 11268 38278 4//// 5////=
89610 46/// /1440 11154 39724 4//// 5////
  333 90700 91150=
####018000085####
SNAA14 EGRR 100000
AAXX 10004
89799 46/// /3210 11622 36628 4//// 52005 90040=
####018000091####
SNAA14 EGRR 100040
AAXX 10004
89065 46/// /9901 11178 21195 39714 49796 52004 90040=
####018000095####
SMAA14 EGRR 100000 RRD
AAXX 10004
89272 46/// /9902 11217 21242 37977 49663 57002 90030=
####018000095####
SMAA14 EGRR 100000 RRE
AAXX 10004
89065 46/// /3205 11178 21194 39714 49796 52005 90030=
####018000095####
SMAA14 EGRR 100000 RRA
AAXX 10004
89257 46/// /2005 11309 21340 39877 49955 52007 90030=
####018000095####
SMAA14 EGRR 100000 RRB
AAXX 10004
89013 46/// /0820 1//// 2//// 37605 4//// 52006 90020=
####018000095####
SMAA14 EGRR 100000 RRC
AAXX 10004
89266 46/// /1721 11251 21276 39746 49896 57004 90030=
####018000085####
SNAA14 EGRR 100000
AAXX 10004
89744 46/// /0305 11539 36286 4//// 57009 90040=
####018001863####
SNDL46 EDZW 100200
AAXX 10021
10321 45964 23202 10227 20152 30122 40172 54000
  333 55300 20000 30000 82/70=
10325 45975 03401 10207 20160 30023 40182 52001
  333 55300=
10334 42980 42101 10238 20153 30093 40173 54000 84030
  333 84359=
10335 NIL=
10343 42972 60901 10224 20159 30114 40175 57002 86070
  333 82359 85365=
10348 45980 31604 10233 20155 30075 40176 58003
  333 55300 20000 30000 41375 81/65 83/68=
10356 47972 82101 10230 20158 39990 40178 58002 72140
  333 55300 87/67 88/70=
10359 45964 51001 10177 20146 30128 40185 58001
  333 55300 20000 30000 85/68=
10365 45964 70701 10171 20141 30140 40185 58001
  333 55300 20000 30000 81/63 87/67=
10368 45971 71303 10208 20148 39969 40187 58004
  333 55300 20000 30000 87/71=
10376 45965 01102 10188 20147 30123 40191 50000
  333 55300=
10381 NIL=
10385 42980 11102 10201 20141 30137 40196 58001 81030
  333 55300 20000 30000 81363=
10389 46/// /1908 10234 20136 30098 40194 58001=
10396 45981 01202 10191 20121 30189 40205 56003
  333 553//=
10404 42975 01901 10212 20158 30133 40183 53003=
10410 45976 02602 10241 20169 30010 40182 53003
  333 55300=
10418 45979 02702 10229 20152 39742 40188 56002
  333 55300 20000 30000=
10424 45968 82202 10225 20164 30076 40176 56001
  333 55300 20000 30000 88/60 88/65=
10433 45977 81702 10215 20144 39879 40178 57001
  333 55300 20000 30000 88/65=
10435 45966 72102 10204 20152 39914 40188 56001
  333 55300 86/61 87/63 87/66=
10442 45972 72102 10198 20160 30013 40187 58002
  333 55300 20000 30000 85/61 87/65 87/68=
10444 45967 80000 10197 20169 39987 40187 57002
  333 55300 20000 30000 86/61 88/63=
10449 45969 80701 10213 20159 39785 40190 58003
  333 55300 20000 30000 88/60 88/63=
10452 45975 83102 10209 20139 39502 40189 58004
  333 55300 20000 30000 88/60=
####018002329####
SNDL21 EDZW 100200
AAXX 10021
10004 46/49 /3501 10180 20164 30172 40172 54000
222// 00169
  333 55300=
10015 41957 13208 10205 20168 30160 40169 52006 70500 81030
  333 55300 20000 30000 81360=
10020 45962 02303 10205 20177 30135 40166 53001
  333 55300 20000 30000=
10035 42965 41903 10206 20166 30110 40166 56002 83031
  333 55300 20000 30000 41308 83363=
10055 45968 51605 10214 20174 30161 40171 56003
  333 55300 20000 30000 85/65=
10147 42981 62801 10232 20168 30154 40171 55000 86030
  333 55300 20000 30000 41441 86359=
10162 45975 81502 10252 20128 30102 40180 58001
  333 55300 85/61 88/65 88/68=
10184 42976 11502 10216 20142 30186 40193 56004 81030
  333 55300 20000 30000 81365=
10200 41930 12802 10185 20172 30178 40176 51006 71000 80001
  333 55300 20000 30000 81081=
10224 42975 22702 10192 20163 30165 40171 51003 80001
  333 55300 20000 30000 82080=
10270 46960 01101 10200 20151 30131 40184 54000
  222// 06249
  333 55300=
10338 42982 21801 10242 20153 30105 40174 55001 82030
  333 55300 20000 30000 82359=
10361 45974 81001 10216 20162 30083 40182 58002
  333 55300 20000 30000 88/65=
10393 42980 11303 10220 20121 30077 40198 58003 80004
  333 55300 20000 30000 81076=
10400 42981 00901 10217 20172 30134 40181 52002
  333 55300 20000 30000=
10438 45973 81902 10212 20156 39920 40188 56001
  333 55300 87/63 88/67=
10469 42984 51704 10220 20171 30028 40185 58004 85050
  333 55300 85360=
10488 42981 01404 10225 20123 39925 40193 58007
  333 55300 20000 30000 41301=
10506 42983 30000 10204 20151 39638 40194 56001 82031
  333 55300 82361 83080=
10548 42978 41701 10199 20137 39676 40194 58001 83032
  333 55300 20000 30000 83363=
10637 42980 31701 10204 20172 30058 40190 50001 81041
  333 55300 81365 83080=
10685 45972 81401 10181 20132 39551 40200 58001
  333 55300 20000 30000 88/63=
10738 42975 12901 10193 20153 39749 40200 58001 80001
  333 55300 81080=
10763 42975 11103 10206 20137 39832 40198 58001 81030
  333 55300 20000 30000 81366=
10788 45963 00601 10168 20140 39797 40212 58002
  333 55300 20000 30000=
10852 42981 50901 10166 20126 39655 40207 57001 81032
  333 55300 20000 30000 81362 85080=
10946 45970 81202 10171 20154 39406 40207 50000
  333 55300 20000 30000 88/63=
####018001360####
SNDL45 EDZW 100200
AAXX 10021
10161 45970 71803 10221 20158 30156 40176 58002
  333 55300 20000 30000 82/62 87/65 87/67=
10168 45968 51302 10207 20162 30115 40184 58003
  333 55300 85/66=
10172 42970 31202 10212 20136 30115 40184 58003 83082
  333 82365=
10180 45978 71602 10202 20153 30182 40187 58004
  333 55300 87/68=
10193 45982 01904 10216 20126 30187 40190 55001
  333 55300 20000 30000=
10215 45959 02901 10199 20154 30160 40175 53003
  333 55300=
10235 NIL=
10238 NIL=
10246 42980 40901 10199 20137 30074 40177 58002 83031
  333 83366=
10249 45965 81303 10221 20147 30122 40176 58002
  333 55300 20000 30000 88/65=
10253 45962 62001 10183 20162 30153 40174 50000
  333 55300 86/67=
10261 42983 51302 10194 20147 30157 40184 50001 84051
  333 55300 20000 30000 84366=
10267 45972 71201 10194 20143 30140 40190 50000
  333 55300 87/65=
10268 46/// /1602 10221 20143 30105 40188 57003
  333 55300=
10281 NIL=
10282 45964 01301 10162 20137 30056 40194 57002
  333 55300=
10289 45982 01304 10197 20134 30129 40197 57001
  333 55300=
10304 NIL=
10305 469// 12801 10213 20162 30146 40177 53002
  333 55300 81/61=
10306 NIL=
10309 47957 02201 10189 20165 30127 40182 53004 71000
  333 55300 20000 30000=
10317 46960 70301 10203 20147 30063 40176 54000
  333 55300 87/77 87/79=
####018001407####
SNDL47 EDZW 100200
AAXX 10021
10454 45977 81701 10233 20156 39912 40187 58001
  333 55300 88/62=
10458 45964 62403 10173 20149 39713 40182 58005
  333 55300 20000 30000 86/64=
10460 45963 82201 10206 20174 39990 40182 58003
  333 55300 20000 30000 83/65 88/67=
10466 46/60 /0000 10212 20163 30076 40188 58003
  333 55300 20000 30000=
10471 45977 81702 10209 20160 30028 40189 58003
  333 55300 20000 30000 41397 88/65=
10474 45964 30903 10214 20151 30065 40188 58003
  333 55300 20000 30000 83/69=
10476 42980 30902 10178 20138 30074 40194 58002 82041
  333 82365=
10480 45960 21501 10179 20158 30019 40196 58003
  333 55300 20000 30000 82/68=
10490 45964 11801 10175 20151 30079 40195 58002
  333 55300 20000 30000 81/71=
10495 45973 01202 10198 20154 30061 40197 58005
  333 55300=
10500 NIL=
10502 NIL=
10515 46959 30502 10216 20167 30042 40191 52004
  333 55300 81/74 83/77=
10516 NIL=
10519 45981 02101 10216 20166 30003 40189 51003
  333 55300=
10526 469// 01801 10217 20149 39563 40191 56002
  333 55300=
10534 NIL=
10540 45973 83601 10212 20151 39831 40190 57001
  333 55300 20000 30000 88/60=
10542 45968 03401 10192 20150 39882 40197 54000
  333 55300 20000 30000=
10552 45981 82302 10204 20121 39152 48573 58003
  333 55300 88/61=
10557 42989 51902 10198 20111 39246 48570 57003 84084
  333 55300 20000 30000 84361=
####018001359####
SNDL49 EDZW 100200
AAXX 10021
10756 45969 12001 10178 20158 39656 40204 58001
  333 55300 20000 30000 81/78=
10761 45961 03001 10181 20138 39714 40203 50000
  333 55300 20000=
10765 NIL=
10771 NIL=
10777 45983 81402 10215 20123 39591 40200 58001
  333 55300 88/66=
10782 47950 00902 10137 20127 39636 40220 58003 71000
  333 55300 20000 30000=
10796 45960 01001 10143 20137 39513 40226 58003
  333 55300=
10803 45970 03401 10184 20159 39920 40197 50002
  333 55300 20000 30000=
10818 45981 30904 10209 20135 39121 48581 56003
  333 55300 20000 30000 82/61 83/68=
10827 NIL=
10837 NIL=
10838 469// 03202 10206 20151 39552 40199 50000
  333 55300=
10850 45981 01101 10216 20124 39631 40202 58001
  333 55300=
10853 NIL=
10856 NIL=
10857 NIL=
10860 NIL=
10863 45967 52701 10161 20139 39654 40209 50000
  333 55300 20000 30000 41265 85/65=
10865 45980 01501 10185 20138 39602 40204 58002
  333 55300=
10872 45962 62901 10132 20122 39803 40219 58001
  333 55300 86/81=
10875 45964 02801 10132 20124 39735 40218 58001
  333 55300 20000 30000=
10945 45969 81501 10165 20147 39437 40206 58002
  333 55300 88/62=
10954 NIL=
10963 45980 82501 10155 20137 39396 40219 50000
  333 55300 20000 30000 88/70=
10982 45980 41002 10160 20136 39574 40212 58001
  333 55300 20000 30000 84/65=
####018001479####
SNDL44 EDZW 100200
AAXX 10021
10022 47956 01002 10187 20158 30155 40164 55001 71000
  333 55300 20000 30000=
10028 42963 22105 10222 20191 30153 40166 53001 81032
  333 55300 20000 30000 81363=
10033 41950 11602 10176 20167 30127 40167 55004 71000 81030
  333 81365=
10037 42960 21001 10190 20158 30137 40167 56002 82030
  333 82365=
10038 42960 31101 10183 20162 30146 40167 58001 83031
  333 83366=
10042 47923 82402 10178 20169 30164 40168 56006 72030
  333 55300 87/81 88/82=
10067 NIL=
10093 45972 81602 10201 20176 30145 40193 58004
  333 55300 88/81=
10097 47967 01403 10219 20187 30181 40195 56003 72250
  222// 06219
  333 55300=
10126 41957 13202 10191 20157 30159 40173 52005 71000 81030
  333 81365=
10129 45960 22703 10231 20181 30157 40169 53005
  333 55300 20000 30000 82/81=
10130 47950 21702 10201 20178 30152 40157 52003 71000
  333 55300 82/82=
10136 42960 22604 10224 20181 30133 40170 52004 81031
  333 81362=
10139 45960 01701 10203 20167 30151 40164 53002
  333 55300 20000 30000=
10142 46961 80601 10200 20169 30139 40169 56001
  333 55300 88/61=
10146 45958 81101 10189 20177 30156 40173 53001
  333 55300 88/59 88/62=
10150 45958 81401 10199 20178 30139 40172 55000
  333 55300 20000 30000 88/60 88/81=
10152 47957 82301 10196 20178 30170 40172 57003 71000
  333 55300 87/59 88/64 88/67=
10156 45971 71503 10226 20170 30154 40174 57003
  333 55300 20000 30000 83/59 87/65=
####018001847####
SNDL23 EDZW 100200
AAXX 10021
10609 42980 00201 10198 20162 39878 40194 58003
  333 55300 20000 30000=
10616 42984 12602 10229 20147 39621 40189 58003 81030
  333 55300 81361=
10641 45963 01401 10197 20176 30051 40192 51002
  333 55300=
10655 42965 33301 10208 20165 39878 40192 52001 80002
  333 55300 20000 30000 83080=
10675 45966 01201 10164 20148 39916 40199 58001
  333 55300 20000 30000=
10688 45966 00601 10162 20128 39703 40210 58001
  333 55300 20000 30000=
10708 42980 30701 10188 20150 39824 40195 58003 80001
  333 55300 20000 30000 83080=
10729 45970 01201 10181 20163 30076 40194 50001
  333 55300 20000 30000=
10731 45958 02001 10179 20169 30056 40195 53001
  333 55300 20000 30000=
10742 45960 00202 10200 20161 39876 40194 58002
  333 55300 20000 30000=
10776 45967 80301 10179 20145 39780 40209 58001
  333 55300 20000 30000 88/66=
10791 46/// ///02 10172 20119 38637 48582 58004
  333 55300=
10805 42980 73601 10186 20170 30010 40194 50002 80008
  333 55300 20000 30000 87280=
10815 45980 00702 10210 20133 39308 48578 57002
  333 55300 20000 30000=
10836 45982 01302 10218 20124 39371 40196 58001
  333 55300 20000 30000=
10870 42975 00501 10163 20144 39694 40210 50000
  333 55300=
10895 45964 10402 10173 20144 39662 40213 57005
  333 55300 20000 30000 81/81=
10908 46960 01103 10203 20103 38588 48579 58001
  333 55300 20000 30000=
10929 42962 23002 10197 20178 39690 40199 53002 82031
  333 55300 20000 30000 82363=
10948 45984 81502 10160 20130 39301 48567 58001
  333 55300 20000 30000 88/62=
10961 46/// /0105 10090 21069 37224 47220 58006
  333 55300 20000 40980=
10962 42983 61502 10224 20111 39108 48583 58002 86030
  333 55300 20000 30000 86365=
10980 46/// /3305 10164 20085 38254 48584 58004
  333 55300 20000 30000=
####018002248####
SNDL22 EDZW 100200
AAXX 10021
10006 NIL=
10007 46/50 /3303 10197 20177 30171 40171 53007
222// 00196
  333 55300=
10008 NIL=
10043 NIL=
10044 46/// /1808 10236 20167 30135 40165 56004
222// 00204
  333 55300=
10046 42775 41602 10227 20165 30131 40168 56002 81531
  333 81650 83365=
10091 45981 01705 10227 20162 30140 40189 58004
  333 55300 20000 30000=
10113 47950 63403 10196 20167 30156 40174 51004 71000
  333 55300 20000 30000 86/66=
10124 46/// /3108 10203 20174 30132 40168 52004
222// 00129
  333 55300=
10131 45960 02304 10230 20180 30149 40163 53002
  333 55300 20000 30000=
10170 42980 31502 10227 20140 30165 40180 58004 83030
  333 55300 20000 30000 83365=
10264 45978 61401 10210 20132 30081 40183 58001
  333 55300 20000 30000 86/67=
10291 439// 01502 10207 20130 30132 40197 56002
  333 55300 20000 30000=
10315 42970 71501 10198 20152 30115 40177 55001 8703/
  333 55300 20000 30000 87362=
10379 42982 11204 10203 20136 30071 40188 58002 81030
  333 55300 20000 30000 41298 81366=
10382 42983 11303 10218 20138 30149 40192 58001 81031
  333 55300 81363=
10384 46/// /1102 10214 20130 30135 40192 58001
  333 55300 20000 30000=
10427 42981 32904 10211 20136 39232 48569 56003 82041
  333 55300 20000 30000 82359=
10430 45975 30301 10192 20151 39998 40183 58001
  333 55300 20000 30000 83/66=
10439 42965 32801 10182 20160 39981 40194 53001 83070
  333 83364=
10453 42984 72105 10215 20101 38930 48578 58002 8707/
  333 55300 87360=
10496 45981 01101 10188 20137 30113 40195 58003
  333 55300 20000 30000=
10499 42970 01501 10178 20156 39930 40211 57002
  333 55300 20000 30000=
10501 42982 01902 10224 20167 39949 40185 58002
  333 55300=
10513 42984 11102 10212 20166 30073 40189 51004 80001
  333 55300 20000 30000 81080=
10532 45962 62801 10178 20152 39948 40188 53002
  333 55300 20000 30000 86/80=
10544 42984 02702 10204 20131 39167 48574 56002
  333 55300=
10554 42982 62204 10209 20138 39818 40188 58002 86050
  333 55300 20000 30000 86363=
10567 42980 21905 10197 20143 39832 40192 58001 80001
  333 55300 20000 30000 82076=
10578 42986 02007 10190 20103 38873 48582 58004
  333 55300 20000 30000=
####018001725####
SNDL48 EDZW 100200
AAXX 10021
10564 45980 81703 10223 20119 39623 40191 58003
  333 55300 88/64=
10565 45960 82202 10217 20149 39896 40179 58001
  333 55300 88/66=
10569 45972 32103 10178 20136 39753 40204 58001
  333 55300 20000 30000 82/67 83/73=
10574 45984 21903 10196 20107 39202 48578 58003
  333 55300 82/69=
10577 45983 21702 10229 20121 39715 40192 58003
  333 55300 20000 30000 82/68=
10579 47/// /2202 10217 20115 39481 40202 58003 7////
  333 55300=
10582 45983 01705 10184 20096 39220 48574 58004
  333 55300 20000 30000=
10591 45982 01302 10216 20117 39832 40198 58002
  333 55300=
10613 NIL=
10615 45984 21402 10207 20152 39645 40194 58004
  333 55300 20000 30000 82/81=
10618 NIL=
10628 45974 02601 10201 20175 30062 40192 58001
  333 55300=
10635 45983 13102 10215 20145 39270 48573 57001
  333 55300 81/60=
10646 45960 02801 10168 20153 39805 40202 50000
  333 55300=
10648 45980 02401 10226 20142 39675 40191 58001
  333 55300 20000 30000=
10658 45966 03402 10184 20153 39870 40198 52002
  333 55300=
10671 45987 20304 10184 20135 39799 40199 50000
  333 55300 20000 30000 82/62=
10686 45971 60502 10179 20125 39497 40208 58001
  333 55300 86/63=
10704 45976 10502 10213 20166 39773 40188 56005
  333 55300 20000 30000 81/81=
10706 45985 00702 10212 20153 39750 40193 58004
  333 55300=
10724 45960 03303 10246 20125 39564 40187 50000
  333 55300 20000 30000=
10733 45968 70801 10185 20163 39917 40197 50001
  333 55300 20000 30000 86/81 87/81=
10736 45960 30000 10157 20143 39914 40201 57001
  333 55300 81/69 83/73=
10739 45961 01603 10214 20180 39826 40190 58001
  333 55300 20000 30000 41319=
10743 NIL=
####018001002####
SNDL40 EDZW 100200
AAXX 10021
10015 41957 13208 10205 20168 30160 40169 52006 70500 81030
  333 55300 20000 30000 81360=
10020 45962 02303 10205 20177 30135 40166 53001
  333 55300 20000 30000=
10035 42965 41903 10206 20166 30110 40166 56002 83031
  333 55300 20000 30000 41308 83363=
10113 47950 63403 10196 20167 30156 40174 51004 71000
  333 55300 20000 30000 86/66=
10129 45960 22703 10231 20181 30157 40169 53005
  333 55300 20000 30000 82/81=
10131 45960 02304 10230 20180 30149 40163 53002
  333 55300 20000 30000=
10147 42981 62801 10232 20168 30154 40171 55000 86030
  333 55300 20000 30000 41441 86359=
10156 45971 71503 10226 20170 30154 40174 57003
  333 55300 20000 30000 83/59 87/65=
10200 41930 12802 10185 20172 30178 40176 51006 71000 80001
  333 55300 20000 30000 81081=
10224 42975 22702 10192 20163 30165 40171 51003 80001
  333 55300 20000 30000 82080=
10235 NIL=
10253 45962 62001 10183 20162 30153 40174 50000
  333 55300 86/67=
####018001258####
SNSQ51 LZIB 100200
AAXX 10021
11812 46/// /9902 10197 20067 39547 42857=
11813 46/// /9901 10188 20085 39881 40217=
11816 42970 00000 10157 20107 30060 40220=
11819 46/// /3402 10126 20110 30009 40222=
11826 45/62 /9901 10141 20120 30028 40224=
11841 42980 11102 10122 20099 39864 40235 80001
  333 81070=
11855 45/68 /9901 10139 20120 30057 40220=
11856 46/// /0702 10161 20128 39911 40220=
11858 46/// /0502 10147 20131 30068 40216=
11867 45/83 /9902 10148 20096 39915 40224=
11880 46/// /0000 10135 20135 30055 40224=
11900 46/// /0000 10130 20109 39905 40235=
11903 42975 09901 10135 20119 39859 40233=
11916 46/// /0803 10099 20015 38071 48565
  333 91008=
11918 46/// /0701 10092 20084 39439 42862=
11927 46/// /2301 10144 20138 39968 40224=
11930 46/// /3308 10068 20029 37485 47198=
11933 46/// /9901 10096 20065 38756 48573=
11934 42984 13202 10098 20070 39431 42858 80001
  333 81070=
11938 46/// /9901 10104 20073 39194 42855=
11952 46/// /3503 10105 20084 39422 42858=
11958 46/// /0206 10121 20080 38833 48572=
11968 42982 09901 10144 20123 39948 40223=
11976 46/// /9901 10121 20112 39969 40229=
11978 46/// /3302 10157 20135 30086 40213=
11993 46/// /0000 10122 20119 30011 40225=
####018000097####
SNIY20 LIIB 100100 RRA
AAXX 10014
16310 42998 02503 10210 20130 39968 40184 58002 555 0////=
####018000398####
SNAA01 KARS 100100 RRB
AAXX 1001/
89769 46/// ///// 11293 39744 4//// 5////=
89314 46/// ///// 11321 38027 4//// 5////=
89872 46/// ///// 11281 39732 4//// 5////=
89869 46/// ///// 11288 39711 4//// 5////=
89834 46/// ///// 11486 37439 4//// 5////=
89864 46/// ///// 11248 39696 4//// 5////=
89324 46/// ///// 11279 37884 4//// 5////=
89868 46/// ///// 11304 39716 4//// 5////=
####018000167####
SMAA01 KARS 100100 RRB
AAXX 1001/
89799 46/// ///// 11624 4//// 5////=
89828 46/// ///// 11684 36513 4//// 5////=
89108 46/// ///// 11625 36903 4//// 5////=
####018000129####
SNRE20 FMEE 100200
AAXX 10024
61980 22560 31313 10200 20148 40174 83800
  333 59037 60005 82820 83656 90710 91118 924/7=
####018000340####
SAYE20 OYSC 100200 RRA
METAR OYAA 06004KT 7000 FEW030 BKN100 31/24 Q1003=
METAR OYSN 101000Z 20003KT 8000 SCT030 18/15 Q1021=
METAR OYTZ 101000Z NIL=
METAR OYHD 101000Z 25006KT 8000 SCT030 32/30 Q////=
METAR OYDM 101000Z NIL=
METAR OYRN 101000Z 02004KT 7000 FEW025 29/24 Q1003=
METAR OYSY 100200Z 23003KT CAVOK 29/20 Q1006=
####018000238####
SNHK22 VHHH 100200
AAXX 10021
45032 36/// /2602 10311 20249 30084 40099 52003=
45035 36/// /2506 10296 20257 30060 40101 52002=
45039 36/// /2204 10318 20245 30080 40095 52001=
45044 36/// /2504 10265 20261 30012 40103 52002=
####018000092####
SIMZ20 FQMA 092100
AAXX 09214
67283 42580 70000 10200 20186 40214 8327/ 333 59021=

####018000241####
SNHK22 VHHH 100200
AAXX 10021
45032 36/// /2602 10311 20249 30084 40099 52003=
45035 36/// /2506 10296 20257 30060 40101 52002=
45039 36/// /2204 10318 20245 30080 40095 52001=
45044 36/// /2504 10265 20261 30012 40103 52002=

####018000095####
SNAU41 AMMC 090700 CCC
AAXX 09074
94629 11584 62705 10115 20063 69921 70252 86700=


####018000257####
SNDL48 EDZW 100200 RRA
AAXX 10021
10613 42970 73002 10216 20148 39641 40193 57003 87031
  333 83361=
10618 42980 32302 10175 20152 39764 40203 58002 81031
  333 81364 83080=
10743 42984 21502 10205 20143 39656 40196 58002 81031
  333 81365=
####018000180####
SNDL47 EDZW 100200 RRA
AAXX 10021
10502 42981 32801 10224 20148 30032 40188 53001 81031
  333 81362 83075=
10534 45981 02402 10231 20134 39355 40181 58003
  333 55300=
####018000251####
SNDL49 EDZW 100200 RRA
AAXX 10021
10765 42982 11301 10192 20138 39747 40203 58002 81030
  333 81366=
10827 42984 30901 10194 20134 39166 48578 58002 80001
  333 83072=
10853 42980 30000 10176 20149 39758 40208 50000 82031
  333 82366=
####018000103####
SNAU41 AMMC 100100 CCB
AAXX 10014
94629 11984 00000 10070 20048 69924 70200
  333 70002=


####018000152####
SMAA01 KWBC 100000 RRB
AAXX 10004
89065 46/// /9901 11178 21195 39714 49796 52004 90040=
89065 46/// /9901 11178 21195 39714 49796 52004 90040=
####018000080####
SAKN64 HKMO 100100
METAR HKMO 100100Z 00000KT 9999 FEW019 21/20 Q1014 NOSIG=
####018000911####
SNVD15 KWNB 100200 RRD
BBXX
41035 10021 99345 70773 46/// /2108 10274 20244 40110 51011 90150
22200 00267 10402 20402 312// 40801 70008 333 91210 555 11090
22097 30110 42110 60149 210083 210084 209085 207080 209082 209084=
41040 10021 99145 70530 46/// /0707 10286 40165 51016 90150 22200
00290 10804 20603 300// 40802 70018 333 91209 555 11078 22082
30103 40709 60149 072073 073063 074066 070069 070072 076072 80708
90103=
42001 10021 99259 70897 46/// /1103 10288 20240 40143 53013 90150
22200 00296 10601 3//// 40601 70004 333 91204 555 11030 22031
30056 41004 60149 108030 108032 112029 103026 111027 112032=
41010 10021 99289 70785 46/// /2204 10285 20240 40157 53014 90150
22200 00289 10701 20401 300// 40701 70007 333 91205 555 11041
22043=
41009 10021 99285 70802 46/// /1705 10285 20247 40160 53017 90150
22200 00282 10801 300// 40801 70004 333 91205 555 11051 22055=
####018000080####
SAKN64 HKMO 100200
METAR HKMO 100200Z 20007KT 9999 FEW019 21/20 Q1015 NOSIG=
####018000875####
SNVD45 KWNB 100200 RRD
BBXX
45008 10021 99443 70824 46/// /2402 10196 39924 40134 53011 90150
22200 00195 1//00 70002 333 91202 555 11022 22024 30127 42403
60149 240020 240023 239024 242021 243019 236020=
45012 10021 99436 70774 46/// /2604 10217 30021 40109 52012 90150
22200 00220 1//00 70002 333 91204 555 11039 22041 30110 42506
60149 259038 260040 239036 242039 245042 245041=
45022 10021 99454 70851 46/// /2101 10208 40170 53010 90200 22200
00202 1//00 70002 333 91202=
45002 10021 99453 70864 46/// /1301 10213 20194 39926 40135 53006
90150 22200 00201 1//00 70001 333 91201 555 11008 22010 30056
42105 60149 134008 159016 184018 199023 203033 211039=
45001 10021 99481 70878 46/// /2205 10133 39910 40131 56005 90150
22200 00118 10401 20401 70004 333 91206 555 11056 22064 30144
42206 60149 218049 222045 223043 220041 224042 227044=
####018000925####
SNVD20 KWNB 100200 RRD
BBXX
44007 10021 99435 70701 46/// /1708 10197 20197 40112 55000 90150
22200 00177 10502 20502 3//// 40801 70012 333 91209 555 11090
22100 30128 41710 60149 170081 169084 169087 167083 167083 166076=
44014 10021 99366 70748 46/// ///// 10249 40117 51015 90150 22200
00251 10702 70008=
44013 10021 99423 70707 46/// /1605 10212 20212 40124 53004 90150
22200 00199 10701 20301 300// 40701 70006 333 91206 555 11060
22068 30053 41607 60149 156054 157058 156061 155060 155058 157065=
44017 10021 99407 70720 46/// /1906 10245 20234 40120 53006 90150
22200 00241 10702 20501 300// 40702 70011 333 91207 555 11064
22069 30146 41807 60149 188059 188055 182046 172038 163036 159039=
44025 10021 99403 70732 46/// /1904 10249 20230 40118 53009 90150
22200 00250 10802 20401 316// 40802 70011 333 91204 555 11037
22039 30148 41804 60149 185035 186033 183034 187032 185033 174033=
####018000350####
SNVE15 KWNB 100200 RRB
BBXX
51002 10021 99171 71578 46/// /0708 10253 40144 57011 90150 22200
00255 11103 20602 3//// 41102 70016 333 91209 555 11084 22090
30134 40610 60149 070079 068081 071081 066082 072079 067080=
51100 10021 99236 71539 46/// ///09 10238 40189 57009 90150 22200
00248 10704 20703 310// 41102 70020 555 11100 22106=
####018001411####
SNVD22 KWNB 100200 RRD
BBXX
46026 10021 99378 71228 46/// /2804 10122 40140 58009 90150 22200
00122 11102 20401 320// 41102 70008 333 91205 555 11043 22045
30146 42905 60149 284039 286040 285039 287038 286038 281037=
46086 10021 99325 71180 46/// /2805 10157 40128 57005 90150 22200
00173 11302 20401 319// 41302 70011 333 91207 555 11052 22054
30109 42907 60149 282050 285051 290050 286051 284054 281051=
46089 10021 99459 71258 46/// /3409 10168 40184 54000 90150 22200
00161 10803 20603 3//// 40802 70017 333 91210 555 11092 22099
30108 43411 60149 337084 339082 339084 338088 338090 338088 83410
90108=
46041 10021 99474 71247 46/// /3306 10147 40169 54000 90150 22200
00132 10803 20502 3//// 40802 70014 333 91206 555 11061 22069
30137 43207 60149 326056 323058 321054 320050 318050 320049=
46041 10021 99474 71247 46/// /3306 10147 40169 90150 22200 00132
10803 20502 3//// 40802 70014 333 91206 555 11061 22069 30137
43207 60149 326056 323058 321054 320050 318050 320049=
46011 10021 99349 71209 46/// /3207 10132 40129 56009 90150 22200
00130 11302 20402 322// 41301 70011 333 91209 555 11077 22083
30057 43209 60149 321072 321077 311070 319077 313071 319077=
46042 10021 99368 71224 46/// /3206 10133 30136 40136 56011 90150
22200 00129 11402 20601 317// 41402 70012 333 91207 555 11064
22069 30133 43308 60149 323059 323062 327062 317062 316064 310065=
####018001293####
SNVD17 KWNB 100200 RRA
BBXX
46001 10021 99563 71480 46/// /1201 10094 40069 54000 90150 22200
00094 10704 20401 300// 40704 70020 333 91204 555 11015 22016
30121 41104 60149 115014 116012 112012 106016 104014 102014=
46066 10021 99527 71550 46/// ///// 10084 40053 51004 90150 22200
00082 10805 70026 555 83600 90059=
46082 10021 99597 71434 46/// /0905 10113 40126 58010 90150 22200
00119 10802 20501 300// 40802 70011 333 91206 555 11053 22055
30120 41006 60149 094050 094042 096045 096048 097043 101046 81006
90120=
46081 10021 99608 71483 46/// /3001 10131 40121 58014 90150 22200
00127 1//00 70002 333 91201 555 11007 22009 30055 40701 60149
302006 013005 180001 073004 040004 061009=
46035 10021 99571 71778 46/// /3413 10082 40051 57005 90150 22200
11106 20604 300// 41104 70028 333 91216 555 11129 22138 30146
43316 60149 343128 342130 327132 334128 328124 340121 83314 90122=
51101 10021 99243 71621 46/// /0807 10254 40192 58013 90150 22200
00259 10703 20702 310// 40802 70016 555 11079 22083 30130 40609
60149 077074 077073 078078 079075 074072 083073=
46061 10021 99602 71468 46/// /2002 10114 40122 58013 90150 22200
00124 10901 300// 40901 70007 333 91203 555 11019 22019 30124
41803 60149 206018 214014 191020 218009 254004 319007=
####018000348####
SAYE20 OYSC 100200 RRB
METAR OYAA 100200Z 06004KT 7000 FEW030 BKN100 31/24 Q1003=
METAR OYSN 101000Z 20003KT 8000 SCT030 18/15 Q1021=
METAR OYTZ 101000Z NIL=
METAR OYHD 101000Z 25006KT 8000 SCT030 32/30 Q////=
METAR OYDM 101000Z NIL=
METAR OYRN 101000Z 02004KT 7000 FEW025 29/24 Q1003=
METAR OYSY 100200Z 23003KT CAVOK 29/20 Q1006=
