####018000085####
SMJD50 OJAM 100000
AAXX 10004
40310 32960 03404 10236 20087 38909 48476 57008=
####018000135####
SNAU03 AMMC 092300 RRI
AAXX 09234
94672 11475 83519 10128 20097 30087 40097 53006 60084 71562 8753/
92330
  333 70084=


####018000236####
SNAA17 LFVW 092200 RRA
AAXX 09224
89016 46/18 /1211 11295 29055 39478 4//// 5////=
89586 46/// /04// 11312 37462 4//// 5////=
89507 46/// /1505 11642 29031 36681 4//// 5////=
89003 46/// /1914 11297 29040 39028 4//// 5////=
####018000073####
SNAA11 LFVW 092200
AAXX 09224
89253 46/// /0000 11129 49712 5////=
####018000128####
SNSE01 LFVW 092200 RRA
AAXX 0922/
94997 46/// ///// 10009 39931 49946 5////=
95997 46/// ///// 10011 39925 49929 5////=
####018000115####
SNVD20 KWNB 092300 RRR
BBXX
44056 09231 99362 70757 46/// ///// 1//// 92245 22200 00268 10702
20702 70011=
####018000109####
SNAU02 AMMC 092300 RRL
AAXX 09234
94132 11970 01102 10240 20160 60004 70200 92330
  333 70000=


####018000138####
SMPO01 LPMG 091200 CCA
AAXX 09121
08512 32480 52304 10225 20182 30144 40234 52007 82802
222// 00200 333  81812 85070 91006 91107=
####018000156####
SMPO60 LPMG 091200 CCC
AAXX 09121
08512 32480 52304 10225 20182 30144 40234 52007 82802
222// 00200 333  81812 85070 91006 91107
555 50004 60005=
####018000145####
SNRO41 YRBK 092300 CCB
AAXX 09231
15310 22597 73602 10193 20176 30072 40155 50000 84570 333 55300 10065
2////
3//// 60005 91005 91106=
####018000151####
SMPO01 LPMG 090600 CCC
AAXX 09061
08512 32375 62305 10198 20179 30129 40220 57005 86800
333   20197 30018 55044 21258 82709 84815 91008 91109=
####018000165####
SMPO60 LPMG 090600 CCD
AAXX 09061
08512 32375 62305 10198 20179 30129 40220 57005 86800
333   20197 30018 55044 21258 82709 84815 91008 91109
555   60005=
####018000073####
SNTP01 LFVW 091700
AAXX 09174
61932 46/// /1509 10240 40153 5////=
####018000078####
SAYE20 OYSC 100000 CCA
METAR COR OYSY 092000Z =19007KT CAVOK 31/19 Q1007=
####018000332####
SNVD15 KWNB 092300 RRT
BBXX
41037 09231 99340 70775 46/// /2308 10285 40104 56008 92300 333
91210=
42360 09231 99267 70905 46/// /0503 10286 40152 56012 92300 22200
00309 10501 70005 333 91204=
42362 09231 99278 70907 46/// /0702 10300 20222 40156 92330=
42364 09231 99291 70881 46/// /2303 10278 20217 40153 92330=
####018000141####
SNVD20 KWNB 092300 RRS
BBXX
44040 09231 99410 70736 46/// /1905 10262 20217 40115 92319 22200
1//00 70002 333 91206 555 11057 22067=
####018002800####
SNAU45 AMMC 092300 RRA
AAXX 09234
94806 11/82 83624 10109 20081 60144 78122 92330
  333 70140=
94808 06/// /3518 10127 20093 60074 92330
  333 70074=
94809 17/// /3428 10126 20097 30061 40069 51025 60074 7//44 92330
  333 70070=
94811 06/// /3214 10101 20098 39658 40062 53015 60104 92330
  333 70102=
94812 11256 83640 10120 20105 30054 40059 57021 60044 76166 887//
92330
  333 70040=
94813 17/// /0229 10118 20102 30037 40059 55019 60064 7//44 92330
  333 70056=
94814 17/// /3323 10131 20086 30011 40081 53005 60054 7//44 92330
  333 70046=
94816 11684 80212 10120 20110 30054 40091 50003 60074 70262 88300
92330
  333 70072=
94817 17/// /0220 10104 20090 30023 40092 58004 60080 7//44 92330
  333 7////=
94820 17/// /0222 10107 20090 30033 40094 50006 60074 7//44 92330
  333 70066=
94822 17/// /3550 10127 20102 39968 40039 51016 60084 7//44 92330
  333 70078=
95654 15/// /3420 10122 20109 39995 40100 51025 60084 92330
  333 70078=
95655 11/84 63402 10100 20079 60094 70111 86060 92330
  333 70090=
95658 17/// /3509 10116 20108 30039 40159 53012 69984 7//44 92330
  333 70008=
95659 17/// /3523 10125 20117 30039 40078 53024 60064 7//44 92330
  333 70058=
95660 11/84 73405 10121 20100 60024 70362 87070 92330
  333 70022=
95661 174// 83320 10124 20121 30049 40059 51036 60104 7//44 92330
  333 70096=
95662 47/// /3417 10114 20077 39910 40108 51026 6///4 7//44 92330
  333 7////=
95663 17/// /3422 10118 20097 39998 40071 51036 60094 7//44 92330
  333 70094=
95664 174// 63520 10120 20099 30106 40114 53006 60024 7//44 92330
  333 70020=
95667 17/// /3416 10104 20080 39645 40116 54000 60044 7//44 92330
  333 70042=
95668 11/84 83606 10138 20100 60034 70322 92330
  333 70028=
95670 17/// /3432 10119 20089 39976 40108 55002 60054 7//44 92330
  333 70046=
95671 17/// /3425 10125 20091 30020 40099 55000 60034 7//44 92330
  333 70028=
95674 11/83 83425 10130 20091 60034 70282 92330
  333 70034=
95676 176// 83523 10124 20096 30084 40104 53006 60054 7//44 92330
  333 70054=
95677 176// 83521 10126 20091 30091 40103 53005 60074 7//44 92330
  333 70070=
95678 06/// /3220 10075 20075 60114 92330
  333 70114=
95687 17/// /0114 10123 20097 30104 40142 51036 60024 7//44 92330
  333 70016=
95806 06/// /3325 10134 20111 39993 40045 51026 60064 92330
  333 70056=
95807 175// 83322 10143 20097 30038 40045 51023 60104 7//44 92330
  333 70096=
95813 11/81 63618 10124 20111 60044 70162 92330
  333 70036=
95815 17/// /0222 10119 20119 30056 40089 50003 60054 7//44 92330
  333 70054=
95816 17/// /0226 10117 20099 30055 40059 56024 60074 7//44 92330
  333 70072=
95818 17/// /3620 10133 20098 30042 40097 53005 60024 7//44 92330
  333 70020=

####018000451####
SNAU49 AMMC 092300 RRA
AAXX 09234
94186 11570 5//10 10258 20219 30138 53017 60004 70311 84830
  333 70000=
94269 11984 00703 10250 20170 30034 40171 52015 60004 70200
  333 70000=
94285 31461 71519 10237 20211 30186 40190 53019 71522 878// 92317=
94334 11970 00204 10125 20096 30087 40198 53017 69914 70000
  333 70001=
94345 11984 01309 10134 20111 60004 70200
  333 70000=
94371 46/// /1417 10234 30194 40201 51015 92320=

####018000501####
SNAU48 AMMC 092300
AAXX 09234
94466 11680 81604 10128 20102 39584 40182 52020 60034 70222 88300
92330
  333 70032=
95100 45/// /0917 10289 20228 30105 40148 52013=
95121 06/// /1206 10247 20198 30139 40157 53023 60004 92330
  333 70000=
95142 15/// /1308 10252 20184 30119 40152 53017 60004 92330
  333 70000=
95146 15/// /1310 10248 20229 30141 40151 53015 60004 92330
  333 70000=
95323 11/80 73405 10152 20081 39430 40203 52025 60004 70222 87050
92330
  333 70000=

####018002619####
SNAU47 AMMC 092300 RRA
AAXX 09234
94116 06/// /1403 10253 20210 30141 40146 53017 60004 92330
  333 70000=
94117 11981 00000 10230 20207 30135 40153 52018 60004 70222 92330
  333 70000=
94118 11980 00000 10232 20174 39916 40153 52013 60004 70200 92330
  333 70000=
94119 06/// /0904 10255 20226 30129 40151 53026 60004 92330
  333 70000=
94121 11/75 31304 10240 20210 30144 40148 52016 60004 70200 80001
92330
  333 70000=
94125 06/// /1105 10256 20185 30034 40155 53020 60004 92330
  333 70000=
94128 15/// /0000 10232 20196 30105 40156 52018 60004 92330
  333 70000=
94129 15/// /1007 10262 20201 30129 40152 52026 60004 92330
  333 70000=
94130 15/// /0201 10255 20172 30076 40165 53020 60004 92330
  333 70000=
94134 11/70 10000 10256 20201 30139 40150 52023 60004 70200 80008
92330
  333 70000=
94137 15/// /1007 10264 20160 30121 40154 53016 60004 92330
  333 70000=
94139 15/// /1211 10253 20192 30137 40159 53021 60004 92330
  333 70000=
94140 15/// /1209 10258 20199 30137 40156 53016 60004 92330
  333 70000=
94141 15/// /0910 10238 20136 39690 40164 53016 60004 92330
  333 70000=
94143 15/// /1405 10221 20185 30047 40169 53021 60004 92330
  333 70000=
94148 11468 30000 10225 20194 30126 40165 52016 60004 70100 83200
92330
  333 70000=
94149 11980 01803 10232 20201 30139 40164 52018 60004 70200 92330
  333 70000=
94152 15/// /1208 10211 30159 40179 53018 60004 92330
  333 70000=
94153 15/// /1505 10251 20212 30145 40161 53016 60004 92330
  333 70000=
94220 11980 01602 10234 20183 30130 40156 52019 60004 70200 92330
  333 70000=
94225 15/// /0708 10227 20150 39906 40164 53021 60004 92330
  333 70000=
94229 11/82 10902 10210 20151 39935 40165 52016 60004 70200 80001
92330
  333 70000=
94230 11/80 10502 10226 20098 60004 70000 80008 92330
  333 70000=
94231 15/// /0410 10207 20119 39798 40166 51013 60004 92330
  333 70000=
94232 13982 10000 10224 20157 30058 40164 52019 60004 800/8 92330
  333 70000=
94234 15/// /0507 10224 20137 39929 40174 53017 60004 92330
  333 70000=
94237 11984 00000 10205 20145 39955 40170 52018 60004 70200 92330
  333 70000=
94239 15/// /0000 10218 20154 30132 40181 52021 60004 92330
  333 70000=
94321 17/// /1510 10154 20120 39641 40176 52021 60094 7//44 92330
  333 70094=
94323 11260 80000 10125 20125 39481 40189 52038 60014 71455 88600
92330
  333 70010=
94328 06/// /0501 10161 20117 39527 40185 53013 60004 92330
  333 70000=
94463 11/82 70000 10135 20099 39606 40182 51025 60040 70122 8702/
92330
  333 7////=

####018002081####
SNAU44 AMMC 092300 RRA
AAXX 09234
94474 17/// /2418 10121 20064 39358 40176 51019 60044 7//44 92330
  333 70038=
94476 17/// /0507 10153 20097 30025 40165 51012 69924 7//44 92330
  333 70002=
94654 11/82 13125 10122 20095 30080 40096 52027 60044 70166 80002
92330
  333 70042=
94655 17/// /3111 10130 20083 30003 40152 51024 60044 7//44 92330
  333 70042=
94656 11660 62918 10125 20110 30077 40087 52034 60124 76262 83720
92330
  333 70120=
94657 11581 13418 10124 20086 30027 40096 52028 60064 70300 81200
92330
  333 70062=
94658 17/// /3324 10143 20093 30028 40061 51034 60104 7//44 92330
  333 70100=
94661 11684 13420 10114 20086 39856 40086 52029 60074 70211 81100
92330
  333 70068=
94662 17/// /3421 10116 20077 39879 40089 51030 60054 7//44 92330
  333 70052=
94663 11470 62920 10136 20095 30005 40069 53029 60084 70222 86600
92330
  333 70084=
94668 11584 33608 10110 20090 60054 70111 83200 92330
  333 70054=
94673 11/84 73428 10113 20093 39767 40144 57003 60034 70162 87200
92330
  333 70032=
94674 17/// /3512 10101 20093 39865 40177 51021 60064 7//44 92330
  333 70062=
94675 17/// /3521 10124 20094 30042 40100 53003 60094 7//44 92330
  333 70092=
94677 11562 73323 10128 20093 30058 40069 53003 60054 71562 87300
92330
  333 70046=
94678 17/// /3225 10096 20075 39476 40093 55001 60084 7//44 92330
  333 70082=
94679 11582 83415 10092 20082 60034 70222 886// 92330
  333 70028=
94680 11/82 73420 10110 20078 39616 40108 57003 60044 70222 8707/
92330
  333 70044=
94681 11482 73513 10118 20078 39779 40109 55006 60024 70266 82770
92330
  333 70024=
94683 17/// /3322 10097 20086 39637 40069 53010 60124 7//44 92330
  333 70116=
94684 17/// /3523 10108 20084 39778 40137 50022 60014 7//44 92330
  333 70012=
94685 17/// /3527 10121 20097 30052 40102 53022 60024 7//44 92330
  333 70024=
94688 11270 83614 10115 20113 30001 40121 60034 76066 86720 92330
  333 70032=
94690 17/// /0122 10114 20114 39977 40111 50018 60034 7//44 92330
  333 70028=

####018000244####
SNAU46 AMMC 092300
AAXX 09234
95812 11560 63624 10135 20098 60034 70352 86500 92330
  333 70030=
95814 11465 53111 10122 20101 60074 70182 85400 92330
  333 70068=
95823 17/// /0219 10112 20110 60094 7//44 92330
  333 70090=

####018000193####
SNAU05 AMMC 092300 RRA
AAXX 09234
94691 17/// /3521 10121 20102 39842 40180 51031 69944 72144 92330=
94926 11065 72801 10057 20050 39595 40292 54000 60004 70222 81654
  333 70000=

####018000092####
SNAU04 AMMC 092300 RRA
AAXX 09234
94290 46/// /1419 10243 30182 40191 51017 92324=

####018000207####
SNAU50 AMMC 092300 RRA
AAXX 09234
94369 11/67 41803 10189 20139 30206 40227 51012 60004 70111 84010
  333 70000=
94384 11484 41120 10180 20149 30184 40240 51015 60004 70200 82206
  333 70000=

####018000236####
SNAU53 AMMC 092300 RRA
AAXX 09234
94497 11/84 30509 10142 20075 60004 70200 80001
  333 70000=
94586 11270 81803 10130 20124 60034 7168/ 8422/
  333 70028=
94587 11260 71605 10116 20097 60034 7408/ 876//
  333 70030=

####018000165####
SNAU55 AMMC 092300 RRA
AAXX 09234
94773 11282 10904 10074 20066 60004 72841 81601
  333 70000=
94781 11/02 80000 10088 20086 60154 74442
  333 70154=

####018000413####
SNAU56 AMMC 092300 RRA
AAXX 09234
94918 11/84 80205 10060 20032 69924 70252 88090
  333 70002=
94939 ///// ///// 10123 20107 30208 40272 58004 6///0
  333 7////=
95692 11/84 83111 10144 20076 60004 70311
  333 70000=
95720 11/85 80502 10120 20071 69904 70222
  333 79999=
95723 11/81 80901 10065 20065 69904 70222
  333 79999=
95725 11/84 80501 10083 20073 69904 70311
  333 79999=

####018000224####
SNAU59 AMMC 092300 RRA
AAXX 09234
95750 11/60 60000 10093 20085 69924 70222
  333 70002=
95834 11680 83623 10112 20077 60014 76062 885//
  333 70014=
95838 11/82 41307 10116 20042 60004 70211
  333 70000=

####018000159####
SNAU62 AMMC 092300 RRA
AAXX 09234
95975 11/70 73310 10094 20055 60004 70211
  333 70000=
95983 11/68 82905 10090 20084 60034 75062
  333 70030=

####018000100####
SNAU61 AMMC 092300 RRA
AAXX 09234
94976 11/60 83414 10078 20030 69904 70311
  333 79999=

####018000236####
SNAU57 AMMC 092300 RRA
AAXX 09234
95744 11566 70000 10105 20095 69924 70282 84820
  333 70002=
95746 11/84 20000 10106 20073 60004 70200 80002
  333 70000=
95908 11584 80210 10060 20060 69904 70322 86770
  333 79999=

####018000189####
SNAU51 AMMC 092300 RRA
AAXX 09234
95291 11384 60901 10218 20164 30199 40213 52021 60001 70111 86800
  333 7////=
95362 11/84 40904 10169 20107 60004 70300 84030
  333 70000=

####018000484####
SNAU54 AMMC 092300 RRA
AAXX 09234
94723 11/84 70000 10134 20085 60004 70122 87070
  333 70000=
94732 11584 80503 10104 20084 60004 70222 88500
  333 70000=
94733 11/60 83602 10091 20089 60044 70222
  333 70042=
94735 11165 70507 10070 20064 69904 70211 81658
  333 79999=
94736 11/65 72002 10095 20085 69964 70322
  333 70006=
94741 11565 80903 10079 20049 60014 70252 88500
  333 70010=
94744 11/84 73602 10068 20055 60034 70222 87030
  333 70030=

####018000121####
SMVD45 KWNB 100000
BBXX
45022 10001 99454 70851 46/// /3302 10212 40160 92340 22200 00197
1//00 70002 333 91202=
