####018001502####
SNVD22 KWNB 100100 RRD
BBXX
46028 10011 99357 71219 46/// /3208 10135 20121 30137 40137 57013
90050 22200 00138 11302 20502 317// 41302 70012 333 91210 555
11082 22087 32350 43210 60049 317078 317073 321073 322076 323078
317076=
46088 10011 99483 71232 46/// /2307 10140 40136 90050 22200 00121
10301 20301 70003 333 91209 555 11075 22080 32356 42510 60049
233067 239067 242072 244074 246074 246080=
46012 10011 99374 71229 46/// /3104 10128 40143 58011 90050 22200
00128 11202 319// 41202 70011 333 91205 555 11041 22044 32356
43006 60049 308038 310038 300045 291040 306038 299044=
46013 10011 99382 71233 46/// /2802 10117 40136 56011 90050 22200
00111 11402 20401 317// 41402 70009 333 91202 555 30016 42703
60049 278021 276022 286022 279022 267022 265020=
46029 10011 99461 71245 46/// /3308 10164 20164 40170 54000 90050
22200 00162 10703 20402 332// 40702 70013 333 91209 555 11079
22079 30036 43310 60049 327079 327079 328079 328077 328075 330075=
46054 10011 99343 71205 46/// ///12 10142 40114 58018 90050 22200
00150 10503 20502 300// 40801 70013 333 91214 555 11123 22131=
46015 10011 99427 71248 46/// /0108 10112 40151 54000 90050 22200
11402 20602 331// 41401 70010 333 91209 555 11083 22089 32350
40210 60049 012078 013077 012081 013080 015081 014086=
46025 10011 99337 71191 46/// /2904 10157 40120 56013 90050 22200
00178 11301 321// 41301 70007 333 91205 555 11042 22043 30014
42706 60049 292040 287037 282038 281042 274038 265042=
####018000404####
SNVD45 KWNB 100100 RRB
BBXX
45005 10011 99417 70824 46/// /0107 10252 39917 40120 52008 90050
22200 00254 10401 20401 70006 333 91208 555 11069 22073 30019
40108 60049 013065 010068 012065 011070 011067 018062=
45003 10011 99454 70828 46/// /3304 10194 39923 40135 53004 90050
22200 00171 1//00 70002 333 91205 555 11049 22058 32350 43305
60049 331042 333039 337036 334029 340030 345031=
####018001283####
SNVD20 KWNB 100100 RRC
BBXX
41004 10011 99325 70791 46/// /1803 10277 20260 40124 55000 90050
22200 00276 10901 20401 3//// 40901 70006 333 91204 555 11034
22037 30048 41804 60049 175032 171028 164025 164025 171023 178023=
44009 10011 99385 70747 46/// /1503 10249 20242 40107 53008 90050
22200 00248 10702 20401 300// 40702 70011 333 91204 555 11032
22035 30038 41404 60049 145030 143032 144027 144032 149029 151026=
41013 10011 99334 70777 46/// /2106 10290 20227 40116 53005 90050
22200 00297 10901 20301 314// 40901 70006 333 91207 555 11066
22069=
44018 10011 99413 70693 46/// /1505 10180 20180 40130 55000 90050
22200 10702 20401 315// 40702 70012 333 91206 555 11051 22054
32352 41506 60049 148047 144046 145047 145049 145048 150052=
44065 10011 99404 70737 46/// /1704 10246 20236 40108 52003 90050
22200 00249 10802 20401 316// 40802 70011 333 91204 555 11037
22038 30010 41705 60049 167035 171028 168032 169037 174040 181036
83504 90009=
44040 10011 99410 70736 46/// /2104 10253 20220 40117 90045 22200
1//00 70001 333 91205 555 11046 22057=
44020 10011 99414 70702 46/// /1706 10227 20227 40125 57003 90050
22200 00231 10701 20301 70004 333 91208 555 11061 22065 30045
41708 60049 170057 170056 167051 165050 167045 168051=
####018001112####
SNVD17 KWNB 100100
BBXX
46084 10011 99566 71361 46/// /1409 10122 20122 40134 55000 90050
22200 00118 10503 20503 300// 41501 70015 333 91210 555 11096
22103 30007 41312 60049 136089 137092 135093 134091 131097 132097=
46075 10011 99539 71608 46/// /1709 10091 20084 49968 58006 90050
22200 00092 10805 20604 300// 40803 70025 333 91211 555 11093
22099 30046 41711 60049 169087 166083 164078 167076 167077 167076
81709 90050=
46005 10011 99461 71310 46/// /2805 10138 40237 58012 90050 22200
00135 11402 20401 300// 41402 70009 333 91206 555 11051 22055
30003 42906 60049 279047 277047 275047 280053 284055 275043=
46005 10011 99461 71310 46/// /2805 10138 40237 90050 22200 00135
11402 20401 300// 41402 70009 333 91206 555 11051 22055 30003
42906 60049 279047 277047 275047 280053 284055 275043=
46080 10011 99580 71500 46/// ///// 10098 40079 58009 90050 22200
10705 70024=
46085 10011 99559 71426 46/// /1804 10109 20109 40073 50000 90050
22200 00106 10803 20401 3//// 40803 70017 333 91204 555 11039
22043 30045 41804 60049 185036 185034 187034 188034 182034 184032=
####018003507####
SNVD15 KWNB 100100 RRA
BBXX
41048 10011 99320 70696 46/// /1808 10272 20238 40172 53007 90050
22200 00271 10703 20703 3//// 41102 70017 333 91209 555 11082
22088 30000 41909 60049 179078 181080 182079 182079 184081 180080
81809 90038=
41044 10011 99217 70587 46/// /0906 10279 20257 40195 51014 90050
22200 00282 10703 20602 300// 40702 70016 333 91207 555 11064
22067 30034 41009 60049 091061 098071 088061 090064 091067 089069
81009 90034=
44005 10011 99432 70691 46/// /1607 10206 90050 22200 00198 10702
20602 3//// 40701 70010 333 91208 555 11071 22077 30038 41608
60049 163065 162069 160065 159064 160062 157063=
42039 10011 99288 70860 46/// /2603 10281 20224 40155 55000 90050
22200 00296 10701 300// 40701 70003 333 91203 555 11026 22026
30043 42503 60049 252024 241021 250017 232017 228021 230021 80803
90043=
42035 10011 99292 70944 46/// /1701 10287 40152 55004 90050 22200
00305 10601 20401 318// 40601 70007 333 91201 555 11006 22006
30036 41402 60049 159005 125009 145007 148008 130004 133006=
42060 10011 99165 70635 46/// /0809 10292 20247 40156 52015 90050
22200 00293 10704 20704 70021 333 91212 555 11098 22105 32350
40913 60049 084093 078087 071083 072086 074087 076082 80911 90050=
42059 10011 99151 70675 46/// /0910 10294 20250 40138 51013 90050
22200 00295 10804 20604 300// 40802 70021 333 91211 555 11102
22108 30015 40912 60049 092096 091096 088097 090103 092093 094088
80911 90012=
42019 10011 99279 70954 46/// /1205 10291 20256 40147 55004 90050
22200 00294 10602 20401 314// 40602 70010 333 91206 555 11050
22053 30027 41206 60049 116046 115047 115048 116045 116040 125042=
42020 10011 99270 70967 46/// /1107 10284 40127 55000 90050 22200
00292 10703 20402 312// 40702 70014 333 91208 555 11071 22075
30022 41209 60049 113068 116066 116069 117068 117065 116064=
44066 10011 99396 70726 46/// /1903 10250 20240 40114 53004 90050
22200 10702 20301 300// 40702 70011 333 91204 555 11035 22037
32354 41905 60049 192033 194038 192037 188037 188043 187042=
42056 10011 99199 70851 46/// /0904 10283 20254 40142 51012 90050
22200 00291 10602 20401 312// 40602 70010 333 91204 555 11036
22038 30045 40904 60049 089035 091027 105026 109022 128023 136032
80904 90045=
41047 10011 99275 70715 46/// /2004 10278 20237 40179 52008 90050
22200 00286 10802 20401 310// 40802 70009 333 91205 555 11042
22043 30035 42005 60049 196039 198042 196041 200040 198041 202043
82005 90035=
42012 10011 99301 70876 46/// /2805 10293 20246 40154 55000 90050
22200 00296 10701 20301 319// 40701 70006 333 91207 555 11057
22060 30039 42707 60049 278055 270054 263051 262048 263049 253055=
44011 10011 99411 70666 46/// /1606 10208 40157 56005 90050 22200
00173 10804 20502 317// 40803 70018 333 91207 555 11072 22084
30004 43407 60049 163063 163059 163063 164063 163067 163062=
42040 10011 99292 70882 46/// /2605 10293 20227 40148 55000 90050
22200 00308 10701 317// 40701 70004 333 91205 555 11045 22047
30039 42606 60049 256045 254046 260043 259043 260046 259046=
41043 10011 99211 70650 46/// /1007 10285 20231 40189 53015 90050
22200 00290 10703 20603 300// 40702 70017 333 91208 555 11074
22079 32358 41010 60049 103070 105074 101073 103076 102077 097079
81008 92351=
42055 10011 99220 70940 46/// /0907 10282 20256 40119 57003 90050
22200 00278 10702 20402 308// 40702 70011 333 91208 555 11070
22076 32352 40909 60049 093066 097068 096063 101069 105071 098075
80908 92351=
####018000227####
SNVE15 KWNB 100100 RRB
BBXX
51003 10011 99191 71607 46/// /0808 10249 40153 57012 90050 22200
00267 10704 20703 300// 41102 70020 333 91209 555 11083 22087
30019 40712 60049 076078 080087 079096 067087 065077 065077=
####018000099####
SIRS24 RUMS 092100 CCA
AAXX 09211
23803 32999 00201 10134 20110 39993 40165 54000 333 55135=
####018000215####
SNVD45 KWNB 100100 RRC
BBXX
45006 10011 99473 70898 46/// /2104 10174 39913 40132 56008 90050
22200 00147 1//00 70001 333 91204 555 11048 22057 32353 42105
60049 209041 206038 207038 207044 209047 213049=
####018000280####
SMKU01 NCRG 100000
AAXX 10003
91802 36/// ///// 10306 20247 40115 57017 333 20306=
91809 NIL=
91831 NIL=
91841 36/// ///// 10272 20252 40180 57017 333 20243=
91843 31499 30607 10274 20232 40201 58016 60001 70310 83201 333
20216 561/9 333 70000 83816=
91848 NIL=
####018000089####
SMAA17 LFVW 100000 RRC
AAXX 10004
89507 46/// /1505 11634 29031 36686 4//// 5////=
####018000077####
SMUK42 EGRR 100000 RRB
AAXX 10004
03041 46/// /2308 10053 20037 92350=
####018000096####
SMMZ01 FQMA 100000 RRA
AAXX 10003
67295 32980 00000 10132 20126 39420 48567 333 59047=

####018000091####
SNAA14 EGRR 092310
AAXX 09234
89065 46/// /9901 11185 21202 39712 49794 54000 92310=
####018000093####
SMMZ01 FQMA 100000 RRA
AAXX 10003
67295 32980 00000 10132 20126 39420 48567 333 59047=
####018000091####
SNAA14 EGRR 092310
AAXX 09234
89272 46/// /3002 11224 21249 37978 49669 57001 92310=
####018000247####
SNVD15 KWNB 100100 RRB
BBXX
42057 10011 99168 70815 46/// /0709 10294 20250 40124 55000 90050
22200 00293 10703 20503 3//// 40701 70015 333 91211 555 11099
22106 30049 40711 60049 069092 068086 069090 066092 064089 067087
80710 90048=
####018000095####
SNAA14 EGRR 092300 RRB
AAXX 09234
89257 46/// /1704 11314 21346 39875 49953 52010 92300=
####018000091####
SNAA14 EGRR 092310
AAXX 09234
89257 46/// /1704 11313 21345 39876 49954 52011 92310=
####018000091####
SNAA14 EGRR 092310
AAXX 09234
89266 46/// /1819 11250 21275 39750 49900 57002 92310=
####018000095####
SNAA14 EGRR 092300 RRC
AAXX 09234
89272 46/// /3002 11224 21249 37978 49669 57001 92300=
####018000095####
SNAA14 EGRR 092300 RRD
AAXX 09234
89013 46/// /0718 1//// 2//// 37604 4//// 52012 92300=
####018000091####
SNAA14 EGRR 092300
AAXX 09234
89266 46/// /1718 11249 21274 39750 49900 57002 92300=
####018001398####
SNDL45 EDZW 100100
AAXX 10011
10161 45970 81604 10223 20159 30157 40177 58001
  333 55300 20000 30000 88/63 88/67=
10168 45970 01501 10210 20151 30118 40187 54000
  333 55300=
10172 42970 11002 10205 20144 30117 40186 56002 81032
  333 81366=
10180 45975 11502 10200 20159 30184 40189 58003
  333 55300 81/81=
10193 45981 01903 10222 20129 30186 40189 58003
  333 55300 20000 30000=
10215 45959 12701 10224 20155 30159 40173 51005
  333 55300 81/82=
10235 NIL=
10238 NIL=
10246 42980 41201 10216 20136 30075 40178 50000 82031
  333 82365 83075=
10249 45967 21303 10224 20148 30123 40176 58001
  333 55300 20000 30000 82/67=
10253 45964 83501 10188 20165 30155 40176 52002
  333 55300 88/67=
10261 42984 41403 10212 20149 30158 40185 52003 82031
  333 55300 20000 30000 82366 83080=
10267 45970 01101 10204 20140 30141 40191 53001
  333 55300=
10268 46/// /1501 10232 20137 30107 40189 55001
  333 55300=
10281 42975 01303 10208 20139 30085 40194 57002=
10282 45968 00801 10178 20143 30057 40194 57001
  333 55300=
10289 45983 01304 10208 20134 30129 40197 57002
  333 55300=
10304 NIL=
10305 469// 03201 10220 20158 30144 40174 50002
  333 55300=
10306 NIL=
10309 45958 72401 10196 20169 30123 40178 51001
  333 55300 20000 30000 86/61 87/68=
10317 46960 81801 10215 20138 30063 40175 51002
  333 55300 87/77 88/80=
####018001859####
SNDL23 EDZW 100100
AAXX 10011
10609 42982 01401 10205 20161 39881 40197 50002
  333 55300 20000 30000=
10616 42984 62603 10234 20145 39625 40192 53002 8707/
  333 55300 87361=
10641 45963 01201 10197 20178 30051 40192 51003
  333 55300=
10655 42970 31401 10210 20166 39878 40192 52002 80002
  333 55300 20000 30000 83080=
10675 45968 00901 10171 20153 39918 40200 51004
  333 55300 20000 30000=
10688 45969 03501 10174 20132 39706 40211 51004
  333 55300 20000 30000=
10708 42980 30802 10192 20150 39827 40198 52001 80001
  333 55300 20000 30000 83080=
10729 45969 01101 10187 20166 30077 40195 53003
  333 55300 20000 30000=
10731 45964 81101 10187 20170 30056 40195 53001
  333 55300 20000 30000 88/81 88/81=
10742 45961 01201 10201 20169 39877 40194 50000
  333 55300 20000 30000=
10776 45971 51301 10179 20145 39782 40211 51004
  333 55300 20000 30000 85/66=
10791 46/// /0000 10177 20118 38639 48585 57003
  333 55300=
10805 42981 71501 10202 20173 30012 40195 53003 80008
  333 55300 20000 30000 87280=
10815 45981 00702 10213 20130 39309 48580 50000
  333 55300 20000 30000=
10836 45984 01502 10229 20121 39372 40194 57001
  333 55300 20000 30000=
10870 42975 01101 10166 20146 39695 40211 50002
  333 55300=
10895 45966 10502 10184 20142 39664 40213 58001
  333 55300 20000 30000 81/81=
10908 46960 01202 10201 20107 38590 48581 53001
  333 55300 20000 30000=
10929 42962 33201 10210 20178 39690 40196 53004 80001
  333 55300 20000 30000 83080=
10948 45983 11301 10150 20125 39302 48566 51005
  333 55300 20000 30000 81/70=
10961 46/// /0104 10094 21041 37228 47225 58002
  333 55300 20000 40987=
10962 42983 61201 10229 20122 39110 48586 51002 86030
  333 55300 20000 30000 86366=
10980 46/// /3403 10167 20085 38256 48586 58001
  333 55300 20000 30000=
####018000163####
SMDL23 EDZW 100000 CCC
AAXX 10001
10961 12688 53604 10094 21014 37229 47226 57002 60001 85040
  333 49125 55/// 23090 42361 55300 20000 41069 85336 98889=
####018001713####
SNDL48 EDZW 100100
AAXX 10011
10564 45980 81803 10227 20117 39625 40193 50001
  333 55300 88/64=
10565 45960 81901 10221 20156 39898 40181 52001
  333 55300 88/67=
10569 45974 21902 10179 20134 39753 40203 50001
  333 55300 20000 30000 81/68=
10574 45983 01803 10198 20106 39206 48582 51002
  333 55300=
10577 45982 01803 10223 20125 39718 40196 50002
  333 55300 20000 30000=
10579 47/// /1502 10219 20119 39483 40203 50000 7////
  333 55300=
10582 45983 01705 10184 20098 39223 48577 57002
  333 55300 20000 30000=
10591 45981 01204 10215 20122 39834 40200 54000
  333 55300=
10613 NIL=
10615 45985 61402 10205 20151 39648 40197 51001
  333 55300 20000 30000 86/81=
10618 NIL=
10628 45974 02602 10209 20178 30064 40194 52003
  333 55300=
10635 45982 03002 10213 20142 39271 48573 55001
  333 55300=
10646 45961 01901 10174 20155 39806 40202 51003
  333 55300=
10648 45977 82703 10244 20140 39676 40189 54000
  333 55300 20000 30000 88/63=
10658 45968 00101 10192 20157 39870 40197 52004
  333 55300=
10671 45980 10304 10195 20137 39801 40200 51004
  333 55300 20000 30000 81/66=
10686 45967 60401 10178 20135 39499 40210 51002
  333 55300 85/65 86/67=
10704 45966 10302 10220 20175 39775 40189 51001
  333 55300 20000 30000 81/81=
10706 45986 03601 10225 20148 39752 40193 50001
  333 55300=
10724 45960 03103 10243 20122 39566 40189 55000
  333 55300 20000 30000=
10733 45968 70201 10190 20165 39918 40197 53002
  333 55300 20000 30000 87/80 87/81=
10736 45963 40000 10165 20151 39915 40201 52001
  333 55300 82/69 83/73=
10739 45967 01503 10216 20171 39827 40191 51001
  333 55300 20000 30000 41331=
10743 NIL=
####018001471####
SNDL47 EDZW 100100
AAXX 10011
10454 45979 83102 10253 20141 39913 40186 56001
  333 55300 87/66 88/70=
10458 45965 82502 10180 20153 39716 40184 58002
  333 55300 20000 30000 83/62 88/65=
10460 45962 82301 10213 20178 39993 40185 51001
  333 55300 20000 30000 88/66=
10466 46/61 /3301 10214 20164 30078 40190 56004
  333 55300 20000 30000=
10471 45973 81702 10207 20163 30030 40191 50000
  333 55300 20000 30000 41344 88/66=
10474 45969 70903 10220 20146 30067 40190 58001
  333 55300 20000 30000 87/70 87/72=
10476 42980 41302 10191 20138 30076 40195 54000 80001
  333 84073=
10480 45960 01901 10181 20162 30020 40197 58001
  333 55300 20000 30000=
10490 45963 22301 10175 20155 30080 40196 50000
  333 55300 20000 30000 81/71=
10495 45974 01102 10201 20155 30064 40200 58002
  333 55300=
10500 NIL=
10502 NIL=
10515 46959 30502 10225 20165 30041 40190 53004
  333 55300 83/62=
10516 NIL=
10519 45981 02001 10227 20164 30003 40188 53003
  333 55300=
10526 469// 12201 10229 20154 39564 40189 55000
  333 55300 81/80=
10534 45973 02202 10225 20138 39357 40185 50000
  333 55300=
10540 45975 82902 10226 20143 39831 40189 58001
  333 55300 20000 30000 88/61=
10542 45969 62101 10202 20154 39882 40195 51003
  333 55300 20000 30000 86/60=
10552 45981 72202 10207 20118 39154 48576 57001
  333 55300 87/61=
10557 42989 32003 10206 20108 39247 48573 58001 83041
  333 55300 20000 30000 83362=
####018000133####
SNDL23 EDZW 092300 CCC
AAXX 09231
10961 42688 50104 10097 21015 37230 47228 51001 85040
  333 55300 20000 41099 85336 98889=
####018001395####
SNDL49 EDZW 100100
AAXX 10011
10756 45977 71101 10186 20151 39657 40204 50001
  333 55300 20000 30000 85/77 86/80 87/81=
10761 45961 02402 10189 20137 39715 40203 52002
  333 55300 20000=
10765 NIL=
10771 NIL=
10777 45982 81101 10209 20126 39592 40203 50000
  333 55300 88/65=
10782 47957 02701 10141 20129 39639 40222 51003 71000
  333 55300 20000 30000=
10796 45965 02301 10149 20136 39515 40226 51001
  333 55300=
10803 45976 00000 10189 20164 39922 40199 52006
  333 55300 20000 30000=
10818 45982 20804 10216 20118 39122 48583 50000
  333 55300 20000 30000 81/61=
10827 NIL=
10837 NIL=
10838 469// 53102 10219 20152 39553 40197 50002
  333 55300 85/72=
10850 45982 01201 10224 20123 39633 40203 52003
  333 55300=
10853 NIL=
10856 NIL=
10857 NIL=
10860 NIL=
10863 45969 03101 10162 20143 39656 40211 51003
  333 55300 20000 30000 41233=
10865 45980 01302 10195 20135 39604 40204 50001
  333 55300=
10872 45667 60901 10146 20133 39804 40217 50001
  333 55300 81/35 86/81=
10875 45963 10501 10140 20130 39738 40219 51003
  333 55300 20000 30000 81/73=
10945 45965 71901 10162 20145 39439 40209 50003
  333 55300 87/62 87/65=
10954 NIL=
10963 45976 42202 10152 20138 39398 40223 51005
  333 55300 20000 30000 81/66 83/71=
10982 45980 30801 10170 20140 39577 40212 53002
  333 55300 20000 30000 81/65 83/68=
####018001795####
SNDL46 EDZW 100100
AAXX 10011
10321 45960 02701 10209 20166 30122 40172 51002
  333 55300 20000 30000=
10325 45980 02201 10236 20149 30023 40180 51003
  333 55300=
10334 42980 61702 10244 20155 30093 40173 51001 86070
  333 83359 84362=
10335 NIL=
10343 42974 21001 10232 20156 30114 40175 58001 82030
  333 82362=
10348 45979 21603 10231 20156 30078 40179 50001
  333 55300 20000 30000 41358 82/68=
10356 45976 81601 10231 20151 39991 40179 50001
  333 55300 84/67 87/69 88/71=
10359 45964 83001 10194 20153 30129 40186 51002
  333 55300 20000 30000 83/68 88/70=
10365 45962 70501 10173 20143 30142 40187 50001
  333 55300 20000 30000 87/69 87/81=
10368 45974 81602 10222 20149 39972 40189 58002
  333 55300 20000 30000 88/70=
10376 45967 01002 10196 20148 30125 40193 51005
  333 55300=
10381 NIL=
10385 42981 11202 10206 20136 30138 40197 50001 81030
  333 55300 20000 30000 81363=
10389 46/// /1909 10240 20133 30100 40196 52001=
10396 45982 01202 10200 20124 30190 40205 58001
  333 553//=
10404 NIL=
10410 45977 52101 10240 20164 30008 40180 51002
  333 55300 85/62=
10418 45978 42601 10225 20151 39742 40189 50000
  333 55300 20000 30000 84/62=
10424 45966 82401 10224 20166 30076 40176 51002
  333 55300 20000 30000 88/65=
10433 45976 01802 10210 20142 39880 40179 51002
  333 55300 20000 30000=
10435 45967 50801 10208 20150 39914 40188 51002
  333 55300 81/63 85/66=
10442 45976 01801 10213 20157 30014 40187 50001
  333 55300 20000 30000=
10444 45968 81701 10208 20163 39988 40187 51002
  333 55300 20000 30000 88/61=
10449 45974 80201 10223 20162 39787 40191 51001
  333 55300 20000 30000 84/60 88/62=
10452 45973 82801 10204 20140 39505 40193 58001
  333 55300 20000 30000 87/61 88/69=
####018001224####
SNSQ51 LZIB 100100
AAXX 10011
11812 46/// /0201 10207 20073 39548 42859=
11813 46/// /9901 10201 20088 39881 40216=
11816 42970 00000 10158 20104 30059 40219=
11819 46/// /3603 10134 20116 30010 40223=
11826 45/68 /0402 10145 20120 30029 40225=
11841 46/// /9901 10125 20099 39866 40237=
11855 45/70 /9901 10147 20124 30060 40222=
11856 46/// /9901 10160 20128 39914 40224=
11858 46/// /0201 10152 20134 30072 40220=
11867 45/83 /9902 10151 20101 39918 40227=
11880 46/// /9901 10145 20145 30056 40224=
11900 46/// /0000 10142 20114 39907 40235=
11903 42980 09901 10143 20116 39862 40235=
11916 46/// /0505 10101 21125 38073 48567=
11918 46/// /0802 10094 20082 39439 42862=
11927 46/// /0000 10151 20141 39970 40226=
11930 46/// /3508 10069 20022 37487 47200=
11933 46/// /9901 10098 20063 38759 48576=
11934 42984 12903 10098 20076 39433 42860 80001
  333 81070=
11938 46/// /9901 10108 20071 39196 42857=
11952 46/// /3104 10110 20088 39423 42859=
11958 46/// /0106 10122 20081 38833 48572=
11968 42980 01802 10143 20115 39947 40222=
11976 46/// /9901 10127 20116 39969 40229=
11978 46/// /3301 10155 20135 30086 40213=
11993 46/// /0000 10124 20121 30012 40226=
####018002176####
SNDL22 EDZW 100100
AAXX 10011
10006 NIL=
10007 NIL=
10008 NIL=
10043 NIL=
10044 46/// /1807 10233 20170 30136 40166 56007
222// 00204
  333 55300=
10046 42975 21502 10221 20173 30131 40168 56005 81031
  333 81365=
10091 45982 01604 10224 20157 30141 40190 58005
  333 55300 20000 30000=
10113 47950 73404 10197 20167 30155 40173 51006 71000
  333 55300 20000 30000 87/65 87/68=
10124 46/// /2808 10202 20178 30130 40167 53003
222// 00127
  333 55300=
10131 45965 02103 10239 20177 30147 40161 56001
  333 55300 20000 30000=
10170 42980 21503 10229 20143 30168 40183 57001 82030
  333 55300 20000 30000 82365=
10264 45980 21701 10213 20129 30083 40185 52001
  333 55300 20000 30000 82/67=
10291 42975 21503 10214 20132 30133 40198 55001 81031
  333 55300 20000 30000 81366=
10315 42975 13101 10199 20151 30114 40176 50002 80001
  333 55300 20000 30000 81077=
10379 42983 01205 10211 20135 30073 40189 51002
  333 55300 20000 30000 41307=
10382 42983 01402 10225 20134 30151 40194 51002
  333 55300=
10384 46/// /1201 10222 20128 30137 40194 50002
  333 55300 20000 30000=
10427 42982 22605 10212 20136 39232 48569 58002 82030
  333 55300 20000 30000 82365=
10430 45977 11001 10199 20157 39999 40183 51003
  333 55300 20000 30000 81/62=
10439 42965 32801 10199 20165 39980 40191 51003 83070
  333 83361=
10453 42984 72006 10211 20105 38934 48582 51005 8707/
  333 55300 87361=
10496 45982 01101 10191 20137 30115 40197 58001
  333 55300 20000 30000=
10499 42970 01802 10188 20163 39930 40210 58003
  333 55300 20000 30000=
10501 42982 12202 10229 20170 39951 40187 51003 81031
  333 55300 81362=
10513 42984 01202 10225 20174 30072 40187 53003
  333 55300 20000 30000=
10532 45967 40501 10192 20153 39947 40185 51003
  333 55300 20000 30000 84/80 84/81=
10544 42984 02703 10208 20128 39167 48575 58001
  333 55300=
10554 42982 32304 10207 20141 39820 40191 54000 81031
  333 55300 20000 30000 81363=
10567 42981 21804 10204 20143 39834 40194 52002 80001
  333 55300 20000 30000 82076=
10578 42986 01908 10188 20099 38876 48585 50000
  333 55300 20000 30000=
####018001447####
SNDL44 EDZW 100100
AAXX 10011
10022 45959 01102 10197 20161 30153 40162 56006
  333 55300 20000 30000=
10028 42965 11704 10224 20191 30151 40164 57001 80002
  333 55300 20000 30000 81080=
10033 42975 11103 10178 20168 30126 40166 57009 81030
  333 81365=
10037 42970 01301 10202 20159 30137 40167 56006=
10038 42960 31602 10187 20160 30146 40167 56004 81031
  333 81362 83075=
10042 47516 21701 10190 20181 30164 40168 56010 72030
  333 55300 82/26=
10067 NIL=
10093 45974 11401 10205 20180 30147 40195 57003
  333 55300 81/82=
10097 45970 01304 10220 20188 30181 40195 57004
  222// 06219
  333 55300=
10126 42964 13103 10205 20163 30158 40172 52008 81030
  333 81364=
10129 45960 72002 10246 20174 30154 40166 52003
  333 55300 20000 30000 84/81 87/82=
10130 47957 51603 10208 20178 30151 40156 55000 71000
  333 55300 85/61=
10136 42960 32203 10235 20172 30130 40167 54000 81031
  333 81362 83075=
10139 45961 42301 10219 20166 30149 40162 50000
  333 55300 20000 30000 84/62=
10142 46964 41401 10222 20177 30139 40169 56002
  333 55300 84/60=
10146 45958 33201 10183 20172 30155 40172 54000
  333 55300 81/59 83/61=
10150 45962 51401 10207 20178 30137 40170 57003
  333 55300 20000 30000 85/62=
10152 47956 70000 10192 20180 30171 40173 58002 71000
  333 55300 81/61 87/63 87/67=
10156 45969 81603 10227 20171 30155 40175 58002
  333 55300 20000 30000 81/59 88/66=
####018002221####
SNDL21 EDZW 100100
AAXX 10011
10004 NIL=
10015 41945 02905 10199 20179 30159 40168 53004 71000
  333 55300 20000 30000=
10020 47962 02004 10212 20179 30137 40168 53002 72140
  333 55300 20000 30000=
10035 42965 31702 10204 20166 30110 40166 56006 83030
  333 55300 20000 30000 41293 83363=
10055 45969 81606 10222 20178 30161 40171 56006
  333 55300 20000 30000 86/63 88/66=
10147 42981 21302 10232 20164 30153 40170 57001 82030
  333 55300 20000 30000 41406 82359=
10162 45973 81502 10256 20120 30102 40180 58002
  333 55300 88/66=
10184 42976 01302 10223 20153 30186 40193 58003
  333 55300 20000 30000=
10200 41940 13101 10187 20174 30176 40174 51006 71000 80001
  333 55300 20000 30000 81081=
10224 42975 70000 10231 20169 30164 40170 50004 80001
  333 55300 20000 30000 87080=
10270 46960 01001 10204 20154 30131 40184 54000
  222// 06249
  333 55300=
10338 42982 41803 10250 20153 30104 40172 58001 84030
  333 55300 20000 30000 84359=
10361 45975 81101 10217 20161 30085 40184 50000
  333 55300 20000 30000 84/68 88/71=
10393 42980 01203 10227 20121 30079 40200 57001
  333 55300 20000 30000=
10400 42981 02402 10228 20173 30134 40181 52004
  333 55300 20000 30000=
10438 45975 51502 10215 20156 39920 40187 51001
  333 55300 85/61=
10469 43/// /1503 10224 20172 30031 40188 58001 8////
  333 55300=
10488 42981 01404 10231 20122 39929 40196 58003
  333 55300 20000 30000 41307=
10506 42983 52101 10222 20149 39638 40191 51002 84031
  333 55300 84361 83080=
10548 42980 01702 10201 20139 39677 40195 51001
  333 55300 20000 30000=
10637 42980 20501 10206 20175 30059 40191 53002 80001
  333 55300 82080=
10685 45972 71502 10185 20133 39551 40199 50001
  333 55300 20000 30000 81/63 86/64 87/69=
10738 42975 23101 10199 20150 39751 40201 51002 80001
  333 55300 82080=
10763 42975 11103 10217 20136 39834 40199 51003 81030
  333 55300 20000 30000 81366=
10788 45965 01302 10168 20130 39799 40214 51002
  333 55300 20000 30000=
10852 42980 51002 10158 20128 39656 40209 51002 81032
  333 55300 20000 30000 81363 85075=
10946 45970 71102 10176 20159 39407 40207 50004
  333 55300 20000 30000 87/63 87/68=
####018000096####
SMCN23 CWAO 100000 RRE
AAXX 10004
71346 16/// /2402 10316 20083 60001 333 10318 7////=

####018000250####
SMCN34 CWAO 100000 RRH
AAXX 10004
71481 17/// ///// 10228 20076 60021 7//4/ 333 10292 20133 70017=
71490 16/// /0710 10149 20063 39761 40061 53004 60001 333 10181
20060 70000=
71498 16/// /2303 10299 20093 60001 333 10300 20106 70000=

####018000102####
SMCN33 CWAO 100000 RRH
AAXX 10004
71360 16/// ///// 10242 20137 60001 333 10286 20106 70000=

####018000212####
SMCN25 CWAO 100000 RRG
AAXX 10004
71540 16/// /1602 10270 20080 60001 333 10273 20074 70000=
71544 46/// ///// 10238 20142 6///1 333 7////=
71548 16/// ///// 10251 20148 60001 333 10269 20132 70000=

####018000183####
SMCN30 CWAO 100000 RRD
AAXX 10004
71055 46/// /3008 10226 20085 39790 40105 56009 6///1 333 10233
20096 7////=
71065 16/// ///// 10255 20130 60001 333 10277 20087 70000=

####018000163####
SMCN22 CWAO 100000 RRF
AAXX 10004
71233 16/// /1203 10276 20122 60001 333 10284 20136 70000=
71249 16/// /0117 10276 20132 60001 333 10296 20136 7////=

####018000102####
SMCN38 CWAO 100000 RRC
AAXX 10004
71857 16/// ///// 10252 20125 60001 333 10271 20095 70000=

####018000102####
SMCN37 CWAO 100000 RRG
AAXX 10004
71797 16/// ///// 10253 20116 60001 333 10266 20110 70000=

####018000102####
SMCN20 CWAO 100000 RRG
AAXX 10004
71014 16/// ///// 10245 20130 60001 333 10276 20129 70000=

####018000122####
SMCN31 CWAO 100000 RRG
AAXX 10004
71164 46/// /3206 10251 20081 30054 40131 58008 6///1 333 10261
20090 7////=

####018000224####
SMCN24 CWAO 100000 RRH
AAXX 10004
71413 16/// ///// 10297 20102 60001 333 10301 20110 70000=
71414 16/// ///// 10241 20146 60001 333 10273 20095 70000=
71440 16/// ///// 10295 20087 60001 333 10301 20134 70000=

####018000102####
SMCN29 CWAO 100000 RRE
AAXX 10004
71904 16/// ///// 10242 20142 60001 333 10286 20076 70000=

####018001008####
SNDL40 EDZW 100100
AAXX 10011
10015 41945 02905 10199 20179 30159 40168 53004 71000
  333 55300 20000 30000=
10020 47962 02004 10212 20179 30137 40168 53002 72140
  333 55300 20000 30000=
10035 42965 31702 10204 20166 30110 40166 56006 83030
  333 55300 20000 30000 41293 83363=
10113 47950 73404 10197 20167 30155 40173 51006 71000
  333 55300 20000 30000 87/65 87/68=
10129 45960 72002 10246 20174 30154 40166 52003
  333 55300 20000 30000 84/81 87/82=
10131 45965 02103 10239 20177 30147 40161 56001
  333 55300 20000 30000=
10147 42981 21302 10232 20164 30153 40170 57001 82030
  333 55300 20000 30000 41406 82359=
10156 45969 81603 10227 20171 30155 40175 58002
  333 55300 20000 30000 81/59 88/66=
10200 41940 13101 10187 20174 30176 40174 51006 71000 80001
  333 55300 20000 30000 81081=
10224 42975 70000 10231 20169 30164 40170 50004 80001
  333 55300 20000 30000 87080=
10235 NIL=
10253 45964 83501 10188 20165 30155 40176 52002
  333 55300 88/67=
####018000095####
SIRA23 RUHB 092100 CCA
AAXX 09211
30741 42998 30000 10137 20114 38691 48474 52011 80001=
####018000129####
SNRE20 FMEE 100100
AAXX 10014
61980 22560 41312 10199 20153 40173 84830
  333 59031 60005 82820 83656 90710 91122 924/7=
####018000105####
SMAG01 SABM 100000 RRC
AAXX 10004
87593 32960 01805 10054 20017 30220 40249 51008 333 10140 20054=
####018000103####
SNDL46 EDZW 100100 RRA
AAXX 10011
10381 42981 01403 10191 20147 30109 40193 50001
  333 55300=
####018000115####
SNDL47 EDZW 100100 RRA
AAXX 10011
10502 42981 42302 10235 20151 30031 40186 51003 82031
  333 82362 84075=
####018000251####
SNDL48 EDZW 100100 RRA
AAXX 10011
10613 42970 72802 10224 20151 39643 40194 50001 8703/
  333 87361=
10618 42980 42201 10189 20154 39766 40203 51001 83031
  333 83363=
10743 42984 11202 10198 20149 39658 40200 50000 80001
  333 81080=
####018000322####
SNDL49 EDZW 100100 RRA
AAXX 10011
10765 42982 22401 10196 20134 39750 40205 52003 82030
  333 82366=
10771 42980 31002 10194 20134 39729 40212 51004 82031
  333 82365=
10827 42984 40801 10197 20143 39167 48580 50000 80001
  333 84072=
10837 42980 20501 10190 20156 39576 40204 53002 80001
  333 82078=
####018000152####
SNAA01 KWBC 092300 RRA
AAXX 09234
89065 46/// /9901 11185 21202 39712 49794 54000 92310=
89065 46/// /9901 11185 21202 39712 49794 54000 92310=
####018000118####
SNAC01 KWNB 100100
OOXX
ACSAMS02 10011 99784 70729 26082 01301 46/// /2002 10010 20007 39916
90101 333 91215=
####018001104####
SNVD17 KWNB 100100 RRA
BBXX
46001 10011 99563 71480 46/// /1001 10095 40069 57004 90050 22200
00094 10704 20401 300// 40703 70018 333 91203 555 11014 22016
32355 41104 60049 101013 102014 101015 099016 103014 101020=
46066 10011 99527 71550 46/// ///// 10084 40055 51010 90050 22200
00082 10705 70025 555 83600 92359=
46082 10011 99597 71434 46/// /1005 10112 40130 57012 90050 22200
00119 10902 20301 300// 40902 70012 333 91206 555 11053 22055
32357 41007 60049 103049 105052 100053 089056 087057 097050 80906
90012=
46081 10011 99608 71483 46/// /0601 10129 40126 58011 90050 22200
00133 1//00 70001 333 91202 555 11014 22015 30032 40402 60049
058014 039019 024015 011014 000016 341012=
46035 10011 99571 71778 46/// /3312 10080 40052 57007 90050 22200
11206 20804 300// 41204 70029 333 91214 555 11116 22124 30048
43214 60049 327117 346116 342115 331119 346116 333109 83113 90047=
51101 10011 99243 71621 46/// /0807 10254 40196 58011 90050 22200
00259 10603 20603 308// 40802 70017 555 11075 22080 30005 40810
60049 078070 079072 080074 074071 077079 079077=
####018000625####
SNVD15 KWNB 100100 RRC
BBXX
41035 10011 99345 70773 46/// /2108 10276 20239 40107 53007 90050
22200 00267 10401 20401 70007 333 91210 555 11090 22098 30032
42110 60049 210083 210081 208079 201074 201072 204072=
41040 10011 99145 70530 46/// /0807 10287 40161 52017 90050 22200
00290 10804 20603 300// 40803 70018 333 91209 555 11077 22081
32351 40809 60049 081070 083065 082068 079067 080068 083074 80908
92351=
42001 10011 99259 70897 46/// /1103 10287 20242 40132 56009 90050
22200 00296 10601 3//// 40601 70004 333 91204 555 11028 22029
32350 41204 60049 105028 105029 096028 096026 097028 102028=
####018000875####
SNVD45 KWNB 100100 RRD
BBXX
45008 10011 99443 70824 46/// /2302 10198 39920 40130 53004 90050
22200 00198 1//00 70002 333 91202 555 11022 22023 30048 42402
60049 232020 234017 251017 263016 265018 272017=
45012 10011 99436 70774 46/// /2404 10215 30015 40104 52009 90050
22200 00225 1//00 70002 333 91205 555 11044 22046 30002 42806
60049 242043 253045 259035 268038 270045 270049=
45002 10011 99453 70864 46/// /2104 10217 20193 39919 40129 56005
90050 22200 00203 1//00 70001 333 91204 555 11042 22050 32353
42105 60049 214036 217036 211036 210037 211040 213042=
45001 10011 99481 70878 46/// /2305 10139 39909 40130 57007 90050
22200 00118 10401 20401 70004 333 91205 555 11054 22063 30048
42305 60049 231046 229041 223039 220037 218037 211033=
45022 10011 99454 70851 46/// /2401 10211 40160 54000 90100 22200
00199 1//00 70002 333 91202=
####018000925####
SNVD20 KWNB 100100 RRD
BBXX
44007 10011 99435 70701 46/// /1708 10197 20197 40107 56006 90050
22200 00176 10402 20402 3//// 40701 70011 333 91209 555 11084
22094 30034 41710 60049 166077 165083 164080 166082 163080 161081=
44014 10011 99366 70748 46/// ///// 10251 40114 53010 90050 22200
00251 10602 70011=
44013 10011 99423 70707 46/// /1607 10216 20211 40119 57003 90050
22200 00199 10801 20301 300// 40801 70006 333 91208 555 11072
22081 30001 41608 60049 157065 157063 159062 159065 159070 157069=
44017 10011 99407 70720 46/// /1605 10244 20235 40115 56004 90050
22200 00242 10802 20301 300// 40802 70010 333 91206 555 11049
22053 30039 41606 60049 164046 164044 164042 155040 142037 131032=
44025 10011 99403 70732 46/// /1703 10250 20229 40112 54000 90050
22200 00251 10802 20401 316// 40802 70010 333 91204 555 11036
22038 30049 41704 60049 166034 163032 159030 161028 157028 154030=
####018001210####
SNVD22 KWNB 100100 RRE
BBXX
46026 10011 99378 71228 46/// /2804 10123 40143 56011 90050 22200
00122 11302 20401 318// 41302 70008 333 91204 555 11040 22042
30035 42805 60049 281037 277037 274035 279035 280034 281033=
46086 10011 99325 71180 46/// /2905 10158 40128 57009 90050 22200
00174 11302 20501 318// 41302 70011 333 91206 555 11057 22059
32355 42807 60049 288054 286057 284053 286054 281055 279062=
46089 10011 99459 71258 46/// /3409 10170 40186 51004 90050 22200
00161 10803 20503 3//// 40802 70017 333 91210 555 11093 22101
30049 43410 60049 340085 339084 337082 337081 336078 335081 83409
90046=
46041 10011 99474 71247 46/// /3206 10148 40170 54000 90050 22200
00133 10703 20502 3//// 40702 70013 333 91206 555 11061 22069
30012 43208 60049 317056 317065 321066 323067 322064 319065=
46041 10011 99474 71247 46/// /3206 10148 40170 90050 22200 00133
10703 20502 3//// 40702 70013 333 91206 555 11061 22069 30012
43208 60049 317056 317065 321066 323067 322064 319065=
46011 10011 99349 71209 46/// /3207 10132 40130 58011 90050 22200
00130 11302 20402 321// 41301 70011 333 91209 555 11078 22084
30017 43109 60049 319074 314071 311072 314077 312071 315070=
####018000350####
SNVE15 KWNB 100100 RRC
BBXX
51002 10011 99171 71578 46/// /0708 10252 40148 56012 90050 22200
00255 11103 20502 3//// 41102 70017 333 91210 555 11088 22093
30018 40710 60049 066083 069083 068081 065082 065080 069084=
51100 10011 99236 71539 46/// ///11 10240 40191 58011 90050 22200
00248 10704 20603 307// 40703 70020 555 11112 22119=
####018000089####
SNPS40 AMMC 092300 RRG
AAXX 09234
91375 46/// /3603 10292 40116 22200 00283=


####018000107####
SMBZ06 SBBR 100000 RRC
AAXX 10004
83362 32570 11202 10271 20133 39917 40133 81100 333
10347 58015=
####018000133####
SMID21 WIIX 100000 RRB
AAXX 10004
97008 32560 20000 10290 20253 30095 40106 82131
  333 20240 5//// 55105 56000 58004 82820=
####018000107####
SNAU47 AMMC 092000 CCA
AAXX 09204
94258 41984 00501 10104 20096 30099 40170 51006 70200 92030=


####018001135####
SNCN19 CWAO 100002
OOXX
SEP63 09221 99592 10176 ///// 00401
     26/// /0601 10214 29066 30140 92210 333 60000=
SEP63 09221 99592 10176 ///// 00401
     26/// /0701 10213 29066 30140 92220 333 60000=
SEP63 09221 99592 10176 ///// 00401
     26/// /1001 10211 29067 30140 92230 333 60000=
SEP63 09221 99592 10176 ///// 00401
     26/// /0901 10209 29067 30140 92240 333 60000=
SEP63 09221 99592 10176 ///// 00401
     26/// /0701 10207 29067 30140 92250 333 60000=
SEP63 09231 99592 10176 ///// 00401
     26/// /0701 10207 29065 30140 92300 333 60000=
SEP63 09231 99592 10176 ///// 00401
     26/// /1001 10206 29065 30140 92310 333 60000=
SEP63 09231 99592 10176 ///// 00401
     26/// /1001 10205 29065 30140 92320 333 60000=
SEP63 09231 99592 10176 ///// 00401
     26/// /1101 10203 29064 30140 92330 333 60000=
SEP63 09231 99592 10176 ///// 00401
     26/// /0901 10203 29064 30140 92340 333 60000=
SEP63 09231 99592 10176 ///// 00401
     26/// /1101 10203 29062 30140 92350 333 60000=
SEP63 10001 99592 10176 ///// 00401
     26/// /0901 10203 29063 30140 90000 333 60000=

####018000109####
SITH43 VTBB 092100 RRG
AAXX 09214
48427 31559 60000 10278 20230 30050 40058 71022 82507
  333 58000=
