####018001135####
SNCN19 CWAO 101908
OOXX
FRP29 10171 99210 30556 ///// ////1
     26/// /2508 10179 29088 30039 91706 333 69920=
FRP29 10171 99210 30556 ///// ////1
     26/// /2506 10184 29085 30038 91716 333 69920=
FRP29 10171 99210 30556 ///// ////1
     26/// /2506 10186 29084 30038 91726 333 60000=
FRP29 10171 99210 30556 ///// ////1
     26/// /2406 10184 29085 30035 91736 333 60000=
FRP29 10171 99210 30556 ///// ////1
     26/// /2307 10183 29084 30036 91746 333 60000=
FRP29 10171 99210 30556 ///// ////1
     26/// /2208 10182 29087 30040 91756 333 69920=
FRP29 10181 99210 30556 ///// ////1
     26/// /2307 10177 29089 30039 91806 333 69980=
FRP29 10181 99210 30556 ///// ////1
     26/// /2407 10180 29088 30043 91816 333 60000=
FRP29 10181 99210 30556 ///// ////1
     26/// /2406 10180 29088 30038 91826 333 60000=
FRP29 10181 99210 30556 ///// ////1
     26/// /2305 10178 29087 30033 91836 333 69920=
FRP29 10181 99210 30556 ///// ////1
     26/// /2406 10169 29087 30014 91846 333 60000=
FRP29 10181 99210 30556 ///// ////1
     26/// /2406 10154 29084 39983 91856 333 60000=

####018001135####
SNCN19 CWAO 101917
OOXX
USP80 10171 99136 11449 ///// ////1
     26/// /0803 10283 29081 39911 91706 333 60000=
USP80 10171 99136 11449 ///// ////1
     26/// /0803 10285 29080 39912 91716 333 60000=
USP80 10171 99136 11449 ///// ////1
     26/// /0903 10289 29081 39910 91726 333 60000=
USP80 10171 99136 11449 ///// ////1
     26/// /1104 10286 29081 39908 91736 333 60000=
USP80 10171 99136 11449 ///// ////1
     26/// /1204 10282 29083 39908 91746 333 60000=
USP80 10171 99136 11449 ///// ////1
     26/// /1003 10281 29084 39905 91756 333 60000=
USP80 10181 99136 11449 ///// ////1
     26/// /0903 10281 29083 39904 91806 333 60000=
USP80 10181 99136 11449 ///// ////1
     26/// /1103 10280 29082 39904 91816 333 60000=
USP80 10181 99136 11449 ///// ////1
     26/// /1003 10282 29082 39904 91826 333 60000=
USP80 10181 99136 11449 ///// ////1
     26/// /1003 10283 29083 39905 91836 333 60000=
USP80 10181 99136 11449 ///// ////1
     26/// /0804 10280 29081 39906 91846 333 60000=
USP80 10181 99136 11449 ///// ////1
     26/// /0803 10281 29079 39903 91856 333 60000=

####018001135####
SNCN19 CWAO 101940
OOXX
CKP23 10171 99212 51598 ///// ////1
     26/// /1104 10240 29086 30187 91740 333 60000=
CKP23 10171 99212 51598 ///// ////1
     26/// /1104 10241 29086 30188 91750 333 60000=
CKP23 10181 99212 51598 ///// ////1
     26/// /1104 10243 29085 30189 91800 333 60000=
CKP23 10181 99212 51598 ///// ////1
     26/// /1104 10245 29085 30191 91810 333 60000=
CKP23 10181 99212 51598 ///// ////1
     26/// /1104 10244 29085 30193 91820 333 60000=
CKP23 10181 99212 51598 ///// ////1
     26/// /1104 10244 29085 30193 91830 333 60000=
CKP23 10181 99212 51598 ///// ////1
     26/// /1105 10245 29084 30194 91840 333 60000=
CKP23 10181 99212 51598 ///// ////1
     26/// /1105 10247 29084 30195 91850 333 60000=
CKP23 10191 99212 51598 ///// ////1
     26/// /1005 10251 29081 30196 91900 333 60000=
CKP23 10191 99212 51598 ///// ////1
     26/// /1005 10253 29081 30197 91910 333 60000=
CKP23 10191 99212 51598 ///// ////1
     26/// /1004 10255 29080 30197 91920 333 60000=
CKP23 10191 99212 51598 ///// ////1
     26/// /1005 10254 29081 30197 91930 333 60000=

####018001135####
SNCN19 CWAO 101935
OOXX
ARP03 10171 99411 50712 ///// ////1
     26/// /2503 10092 29060 39106 91730 333 60000=
ARP03 10171 99411 50712 ///// ////1
     26/// /2603 10091 29061 39103 91740 333 60000=
ARP03 10171 99411 50712 ///// ////1
     26/// /2503 10093 29063 39101 91750 333 60000=
ARP03 10181 99411 50712 ///// ////1
     26/// /2403 10090 29064 39098 91800 333 60000=
ARP03 10181 99411 50712 ///// ////1
     26/// /2504 10092 29061 39095 91810 333 60000=
ARP03 10181 99411 50712 ///// ////1
     26/// /2403 10092 29061 39094 91820 333 60000=
ARP03 10181 99411 50712 ///// ////1
     26/// /2404 10091 29060 39095 91830 333 60000=
ARP03 10181 99411 50712 ///// ////1
     26/// /2404 10090 29062 39094 91840 333 60000=
ARP03 10181 99411 50712 ///// ////1
     26/// /2503 10084 29062 39091 91850 333 60000=
ARP03 10191 99411 50712 ///// ////1
     26/// /2403 10086 29061 39088 91900 333 60000=
ARP03 10191 99411 50712 ///// ////1
     26/// /2403 10084 29062 39086 91910 333 60000=
ARP03 10191 99411 50712 ///// ////1
     26/// /2403 10084 29062 39086 91920 333 60000=

####018001135####
SNCN19 CWAO 101920
OOXX
USP71 10171 99553 71605 ///// ////1
     26/// /2801 10090 29047 39893 91710 333 60000=
USP71 10171 99553 71605 ///// ////1
     26/// /2701 10091 29045 39891 91720 333 60000=
USP71 10171 99553 71605 ///// ////1
     26/// /2601 10092 29043 39894 91730 333 60000=
USP71 10171 99553 71605 ///// ////1
     26/// /2601 10092 29044 39895 91740 333 60000=
USP71 10171 99553 71605 ///// ////1
     26/// /2702 10091 29047 39895 91750 333 60000=
USP71 10181 99553 71605 ///// ////1
     26/// /2802 10092 29048 39897 91800 333 60000=
USP71 10181 99553 71605 ///// ////1
     26/// /2702 10094 29049 39901 91810 333 60000=
USP71 10181 99553 71605 ///// ////1
     26/// /2802 10096 29051 39908 91820 333 60000=
USP71 10181 99553 71605 ///// ////1
     26/// /2702 10099 29055 39920 91830 333 60000=
USP71 10181 99553 71605 ///// ////1
     26/// /2601 10102 29061 39935 91840 333 60000=
USP71 10181 99553 71605 ///// ////1
     26/// /2702 10102 29069 39941 91850 333 60000=
USP71 10191 99553 71605 ///// ////1
     26/// /2701 10105 29073 39945 91900 333 60000=

####018001135####
SNCN19 CWAO 101936
OOXX
GBP67 10171 99159 50057 ///// ////1
     26/// /1309 10169 29079 39699 91730 333 60000=
GBP67 10171 99159 50057 ///// ////1
     26/// /1309 10168 29078 39699 91740 333 60000=
GBP67 10171 99159 50057 ///// ////1
     26/// /1209 10168 29078 39698 91750 333 60000=
GBP67 10181 99159 50057 ///// ////1
     26/// /1209 10166 29074 39699 91800 333 60000=
GBP67 10181 99159 50057 ///// ////1
     26/// /1309 10166 29073 39699 91810 333 60000=
GBP67 10181 99159 50057 ///// ////1
     26/// /1308 10166 29074 39700 91820 333 60000=
GBP67 10181 99159 50057 ///// ////1
     26/// /1309 10167 29076 39700 91830 333 60000=
GBP67 10181 99159 50057 ///// ////1
     26/// /1309 10167 29076 39701 91840 333 60000=
GBP67 10181 99159 50057 ///// ////1
     26/// /1309 10167 29075 39701 91850 333 60000=
GBP67 10191 99159 50057 ///// ////1
     26/// /1309 10167 29072 39701 91900 333 60000=
GBP67 10191 99159 50057 ///// ////1
     26/// /1209 10167 29074 39702 91910 333 60000=
GBP67 10191 99159 50057 ///// ////1
     26/// /1209 10167 29072 39703 91920 333 60000=

####018001135####
SNCN19 CWAO 101918
OOXX
USP77 10171 99193 11666 ///// ////1
     26/// /0504 10272 29071 30135 91709 333 60000=
USP77 10171 99193 11666 ///// ////1
     26/// /0504 10273 29071 30135 91719 333 60000=
USP77 10171 99193 11666 ///// ////1
     26/// /0605 10275 29068 30135 91729 333 60000=
USP77 10171 99193 11666 ///// ////1
     26/// /0606 10277 29066 30134 91739 333 60000=
USP77 10171 99193 11666 ///// ////1
     26/// /0605 10278 29066 30135 91749 333 60000=
USP77 10171 99193 11666 ///// ////1
     26/// /0605 10278 29066 30134 91759 333 60000=
USP77 10181 99193 11666 ///// ////1
     26/// /0605 10276 29067 30135 91809 333 60000=
USP77 10181 99193 11666 ///// ////1
     26/// /0606 10276 29068 30135 91819 333 60000=
USP77 10181 99193 11666 ///// ////1
     26/// /0606 10276 29067 30136 91829 333 60000=
USP77 10181 99193 11666 ///// ////1
     26/// /0606 10278 29066 30136 91839 333 60000=
USP77 10181 99193 11666 ///// ////1
     26/// /0805 10273 29068 30138 91849 333 60000=
USP77 10181 99193 11666 ///// ////1
     26/// /0706 10269 29071 30139 91859 333 60000=

####018001595####
SNCN19 CWAO 101919
OOXX
USP78 10171 99282 71774 ///// ////1
     26/// /0601 10272 29100 30207 91704 333 60000=
USP78 10171 99282 71774 ///// ////1
     26/// /0601 10272 29100 30207 91714 333 60000=
USP78 10171 99282 71774 ///// ////1
     26/// /0601 10273 29100 30208 91724 333 60000=
USP78 10171 99282 71774 ///// ////1
     26/// /0501 10274 29100 30209 91734 333 60000=
USP78 10171 99282 71774 ///// ////1
     26/// /0601 10276 29100 30211 91744 333 60000=
USP78 10171 99282 71774 ///// ////1
     26/// /0901 10282 29100 30212 91754 333 60000=
USP78 10181 99282 71774 ///// ////1
     26/// /0701 10284 29100 30215 91804 333 60000=
USP78 10181 99282 71774 ///// ////1
     26/// /0702 10287 29100 30219 91814 333 60000=
USP78 10181 99282 71774 ///// ////1
     26/// /0702 10287 29100 30223 91824 333 60000=
USP78 10181 99282 71774 ///// ////1
     26/// /0701 10290 29100 30223 91834 333 60000=
USP78 10181 99282 71774 ///// ////1
     26/// /0602 10286 29100 30224 91839 333 60000=
USP78 10181 99282 71774 ///// ////1
     26/// /0801 10291 29100 30224 91844 333 60000=
USP78 10181 99282 71774 ///// ////1
     26/// /0701 10292 29100 30225 91844 333 60000=
USP78 10181 99282 71774 ///// ////1
     26/// /0801 10293 29100 30225 91854 333 60000=
USP78 10181 99282 71774 ///// ////1
     26/// /0801 10297 29100 30227 91854 333 60000=
USP78 10181 99282 71774 ///// ////1
     26/// /0801 10297 29100 30226 91855 333 60000=
USP78 10181 99282 71774 ///// ////1
     26/// /0801 10295 29100 30225 91857 333 60000=

####018001135####
SNCN19 CWAO 101938
OOXX
CMP13 10171 99038 10102 ///// ////1
     26/// /2301 10247 29088 39978 91730 333 60000=
CMP13 10171 99038 10102 ///// ////1
     26/// /2301 10246 29088 39976 91740 333 60000=
CMP13 10171 99038 10102 ///// ////1
     26/// /2201 10244 29089 39978 91750 333 60000=
CMP13 10181 99038 10102 ///// ////1
     26/// /2001 10242 29089 39978 91800 333 60000=
CMP13 10181 99038 10102 ///// ////1
     26/// /1801 10240 29090 39980 91810 333 60000=
CMP13 10181 99038 10102 ///// ////1
     26/// /1801 10240 29091 39982 91820 333 60000=
CMP13 10181 99038 10102 ///// ////1
     26/// /2001 10240 29092 39985 91830 333 60000=
CMP13 10181 99038 10102 ///// ////1
     26/// /2001 10240 29092 39987 91840 333 60000=
CMP13 10181 99038 10102 ///// ////1
     26/// /2101 10240 29092 39989 91850 333 60000=
CMP13 10191 99038 10102 ///// ////1
     26/// /2301 10239 29093 39989 91900 333 60000=
CMP13 10191 99038 10102 ///// ////1
     26/// /2201 10238 29093 39991 91910 333 60000=
CMP13 10191 99038 10102 ///// ////1
     26/// /0000 10237 29093 39990 91920 333 60000=

####018001135####
SNCN19 CWAO 101922
OOXX
RUP61 10171 99567 10372 ///// /1181
     26/// /1302 10200 29089 30046 91720 333 60000=
RUP61 10171 99567 10372 ///// /1181
     26/// /1101 10196 29089 30043 91730 333 60000=
RUP61 10171 99567 10372 ///// /1181
     26/// /0000 10199 29091 30040 91740 333 60000=
RUP61 10171 99567 10372 ///// /1181
     26/// /0000 10197 29091 30037 91750 333 60000=
RUP61 10181 99567 10372 ///// /1181
     26/// /0301 10197 29091 30036 91800 333 60000=
RUP61 10181 99567 10372 ///// /1181
     26/// /3601 10201 29091 30036 91810 333 60000=
RUP61 10181 99567 10372 ///// /1181
     26/// /0201 10192 29092 30035 91820 333 60000=
RUP61 10181 99567 10372 ///// /1181
     26/// /0601 10195 29092 30036 91830 333 60000=
RUP61 10181 99567 10372 ///// /1181
     26/// /3601 10195 29091 30037 91840 333 60000=
RUP61 10181 99567 10372 ///// /1181
     26/// /3501 10190 29091 30037 91850 333 60000=
RUP61 10191 99567 10372 ///// /1181
     26/// /0701 10190 29092 30039 91900 333 60000=
RUP61 10191 99567 10372 ///// /1181
     26/// /0000 10191 29091 30040 91910 333 60000=

####018001135####
SNCN19 CWAO 101955
OOXX
FJP26 10171 99178 31774 ///// ////1
     26/// /0106 10262 29082 30072 91740 333 60000=
FJP26 10171 99178 31774 ///// ////1
     26/// /3605 10262 29083 30076 91750 333 60000=
FJP26 10181 99178 31774 ///// ////1
     26/// /0106 10261 29083 30074 91800 333 60000=
FJP26 10181 99178 31774 ///// ////1
     26/// /0206 10255 29087 30079 91810 333 60000=
FJP26 10181 99178 31774 ///// ////1
     26/// /0206 10257 29086 30079 91820 333 60000=
FJP26 10181 99178 31774 ///// ////1
     26/// /3606 10254 29088 30085 91830 333 60000=
FJP26 10181 99178 31774 ///// ////1
     26/// /3404 10247 29094 30082 91840 333 60000=
FJP26 10181 99178 31774 ///// ////1
     26/// /2503 10245 29097 30092 91850 333 60000=
FJP26 10191 99178 31774 ///// ////1
     26/// /2705 10235 29092 30095 91900 333 60000=
FJP26 10191 99178 31774 ///// ////1
     26/// /2604 10235 29093 30101 91910 333 60000=
FJP26 10191 99178 31774 ///// ////1
     26/// /2805 10236 29097 30100 91920 333 60000=
FJP26 10191 99178 31774 ///// ////1
     26/// /3304 10237 29098 30095 91930 333 60000=

####018001135####
SNCN19 CWAO 101953
OOXX
GBP68 10171 99370 50123 ///// ////1
     26/// /3608 10157 29067 30153 91750 333 60000=
GBP68 10181 99370 50123 ///// ////1
     26/// /0108 10159 29070 30149 91800 333 60000=
GBP68 10181 99370 50123 ///// ////1
     26/// /0107 10159 29070 30147 91810 333 60000=
GBP68 10181 99370 50123 ///// ////1
     26/// /0106 10162 29070 30152 91820 333 60000=
GBP68 10181 99370 50123 ///// ////1
     26/// /0206 10160 29070 30153 91830 333 60000=
GBP68 10181 99370 50123 ///// ////1
     26/// /0106 10160 29071 30151 91840 333 60000=
GBP68 10181 99370 50123 ///// ////1
     26/// /3606 10158 29072 30150 91850 333 60000=
GBP68 10191 99370 50123 ///// ////1
     26/// /0206 10161 29071 30150 91900 333 60000=
GBP68 10191 99370 50123 ///// ////1
     26/// /0306 10150 29073 30154 91910 333 60000=
GBP68 10191 99370 50123 ///// ////1
     26/// /0206 10137 29077 30158 91920 333 60000=
GBP68 10191 99370 50123 ///// ////1
     26/// /0306 10136 29080 30158 91930 333 60000=
GBP68 10191 99370 50123 ///// ////1
     26/// /0305 10136 29080 30156 91940 333 60000=

####018001135####
SNCN19 CWAO 101924
OOXX
AUP06 10171 99192 31468 ///// ////1
     26/// /1603 10179 29090 30181 91728 333 60000=
AUP06 10171 99192 31468 ///// ////1
     26/// /1502 10166 29091 30180 91738 333 60000=
AUP06 10171 99192 31468 ///// ////1
     26/// /0000 10157 29093 30180 91748 333 60000=
AUP06 10171 99192 31468 ///// ////1
     26/// /0000 10162 29094 30180 91758 333 60000=
AUP06 10181 99192 31468 ///// ////1
     26/// /0000 10161 29094 30179 91808 333 60000=
AUP06 10181 99192 31468 ///// ////1
     26/// /0000 10160 29094 30180 91818 333 60000=
AUP06 10181 99192 31468 ///// ////1
     26/// /2802 10161 29094 30180 91828 333 60000=
AUP06 10181 99192 31468 ///// ////1
     26/// /2702 10163 29094 30180 91838 333 60000=
AUP06 10181 99192 31468 ///// ////1
     26/// /0000 10164 29093 30181 91848 333 60000=
AUP06 10181 99192 31468 ///// ////1
     26/// /2501 10162 29094 30181 91858 333 60000=
AUP06 10191 99192 31468 ///// ////1
     26/// /2401 10168 29094 30181 91908 333 60000=
AUP06 10191 99192 31468 ///// ////1
     26/// /1201 10167 29093 30181 91918 333 60000=

####018001135####
SNCN19 CWAO 101916
OOXX
NZP46 10171 99438 51765 ///// ////1
     26/// /2306 10075 29094 30220 91710 333 60000=
NZP46 10171 99438 51765 ///// ////1
     26/// /2207 10075 29093 30220 91720 333 60000=
NZP46 10171 99438 51765 ///// ////1
     26/// /2208 10076 29091 30220 91730 333 60000=
NZP46 10171 99438 51765 ///// ////1
     26/// /2206 10077 29090 30222 91740 333 60000=
NZP46 10171 99438 51765 ///// ////1
     26/// /2307 10078 29087 30223 91750 333 60000=
NZP46 10181 99438 51765 ///// ////1
     26/// /2207 10079 29084 30225 91800 333 60000=
NZP46 10181 99438 51765 ///// ////1
     26/// /2306 10078 29082 30226 91810 333 60000=
NZP46 10181 99438 51765 ///// ////1
     26/// /2407 10078 29082 30228 91820 333 60000=
NZP46 10181 99438 51765 ///// ////1
     26/// /2306 10077 29082 30229 91830 333 60000=
NZP46 10181 99438 51765 ///// ////1
     26/// /2306 10077 29082 30229 91840 333 60000=
NZP46 10181 99438 51765 ///// ////1
     26/// /2305 10078 29082 30230 91850 333 60000=
NZP46 10191 99438 51765 ///// ////1
     26/// /2305 10078 29082 30230 91900 333 60000=

####018001135####
SNCN19 CWAO 101912
OOXX
CLP19 10171 99271 51083 ///// ////1
     26/// /2802 10160 29097 39987 91701 333 60000=
CLP19 10171 99271 51083 ///// ////1
     26/// /2802 10162 29096 39986 91711 333 60000=
CLP19 10171 99271 51083 ///// ////1
     26/// /2802 10165 29094 39986 91721 333 60000=
CLP19 10171 99271 51083 ///// ////1
     26/// /2702 10167 29093 39988 91731 333 60000=
CLP19 10171 99271 51083 ///// ////1
     26/// /2702 10170 29093 39989 91741 333 60000=
CLP19 10171 99271 51083 ///// ////1
     26/// /2901 10173 29092 39989 91751 333 60000=
CLP19 10181 99271 51083 ///// ////1
     26/// /2802 10172 29092 39991 91801 333 60000=
CLP19 10181 99271 51083 ///// ////1
     26/// /2702 10173 29093 39990 91811 333 60000=
CLP19 10181 99271 51083 ///// ////1
     26/// /2602 10171 29094 39990 91821 333 60000=
CLP19 10181 99271 51083 ///// ////1
     26/// /2701 10171 29095 39989 91831 333 60000=
CLP19 10181 99271 51083 ///// ////1
     26/// /2701 10169 29095 39990 91841 333 60000=
CLP19 10181 99271 51083 ///// ////1
     26/// /2701 10165 29095 39991 91851 333 60000=

####018001135####
SNCN19 CWAO 101945
OOXX
AUP04 10171 99377 31451 ///// 00401
     26/// /3604 10121 29081 30064 91752 333 60000=
AUP04 10181 99377 31451 ///// 00401
     26/// /3605 10122 29081 30065 91802 333 60000=
AUP04 10181 99377 31451 ///// 00401
     26/// /3605 10122 29081 30065 91812 333 60000=
AUP04 10181 99377 31451 ///// 00401
     26/// /3605 10123 29080 30065 91822 333 60000=
AUP04 10181 99377 31451 ///// 00401
     26/// /0105 10122 29080 30065 91832 333 60000=
AUP04 10181 99377 31451 ///// 00401
     26/// /3605 10122 29079 30066 91842 333 60000=
AUP04 10181 99377 31451 ///// 00401
     26/// /3604 10118 29079 30067 91852 333 60000=
AUP04 10191 99377 31451 ///// 00401
     26/// /0104 10116 29079 30067 91902 333 60000=
AUP04 10191 99377 31451 ///// 00401
     26/// /0104 10116 29079 30067 91912 333 60000=
AUP04 10191 99377 31451 ///// 00401
     26/// /0104 10113 29081 30067 91922 333 60000=
AUP04 10191 99377 31451 ///// 00401
     26/// /0104 10113 29082 30067 91932 333 60000=
AUP04 10191 99377 31451 ///// 00401
     26/// /0104 10111 29083 30067 91942 333 60000=

####018001135####
SNCN19 CWAO 101914
OOXX
FRP30 10171 99493 30703 ///// ////1
     26/// /2716 10109 29062 30124 91713 333 60000=
FRP30 10171 99493 30703 ///// ////1
     26/// /2714 10104 29065 30126 91723 333 60000=
FRP30 10171 99493 30703 ///// ////1
     26/// /2715 10106 29063 30126 91733 333 60000=
FRP30 10171 99493 30703 ///// ////1
     26/// /2714 10107 29062 30127 91743 333 60000=
FRP30 10171 99493 30703 ///// ////1
     26/// /2713 10107 29062 30129 91753 333 60000=
FRP30 10181 99493 30703 ///// ////1
     26/// /2713 10105 29064 30129 91803 333 60000=
FRP30 10181 99493 30703 ///// ////1
     26/// /2813 10104 29065 30127 91813 333 60000=
FRP30 10181 99493 30703 ///// ////1
     26/// /2814 10105 29064 30127 91823 333 60000=
FRP30 10181 99493 30703 ///// ////1
     26/// /2713 10103 29066 30128 91833 333 60000=
FRP30 10181 99493 30703 ///// ////1
     26/// /2713 10103 29066 30127 91843 333 60000=
FRP30 10181 99493 30703 ///// ////1
     26/// /2713 10102 29067 30128 91853 333 60000=
FRP30 10191 99493 30703 ///// ////1
     26/// /2713 10102 29067 30128 91903 333 60000=

####018001135####
SNCN19 CWAO 101949
OOXX
RUP59 10171 99539 10848 ///// ////1
     26/// /0000 10126 29096 39760 91740 333 60000=
RUP59 10171 99539 10848 ///// ////1
     26/// /0000 10125 29096 39760 91750 333 60000=
RUP59 10181 99539 10848 ///// ////1
     26/// /0000 10123 29096 39760 91800 333 60000=
RUP59 10181 99539 10848 ///// ////1
     26/// /0000 10125 29096 39759 91810 333 60000=
RUP59 10181 99539 10848 ///// ////1
     26/// /0000 10124 29096 39759 91820 333 60000=
RUP59 10181 99539 10848 ///// ////1
     26/// /0000 10125 29096 39760 91830 333 60000=
RUP59 10181 99539 10848 ///// ////1
     26/// /0000 10124 29096 39760 91840 333 60000=
RUP59 10181 99539 10848 ///// ////1
     26/// /0000 10126 29096 39760 91850 333 60000=
RUP59 10191 99539 10848 ///// ////1
     26/// /0000 10125 29096 39760 91900 333 60000=
RUP59 10191 99539 10848 ///// ////1
     26/// /0000 10126 29096 39760 91910 333 60000=
RUP59 10191 99539 10848 ///// ////1
     26/// /3401 10126 29096 39760 91920 333 60000=
RUP59 10191 99539 10848 ///// ////1
     26/// /0000 10126 29096 39761 91930 333 60000=

####018000313####
SNSP20 LEMM 102000
AAXX 10204
08045 46/// /2707 10179 20144 39906 40208 55000
  555 60005=
08181 NIL=
08221 42980 21806 10313 20058 39495 40129 53002 82200
  555 60005=
08284 46/// /0906 10246 20190 30103 40175 53001
  555 60005=
08314 46/// /0608 10233 20216 30079 40178 53001
  555 60005=
####018000089####
SMAA19 LFVW 101800 RRB
AAXX 10184
89662 46/// /2552 11188 29030 39614 4//// 5////=
####018000087####
SAKN64 HKMO 102000
METAR HKJK 102000Z 04005KT 9999 SCT022 BKN090 18/11 Q1022 NOSIG=
####018000109####
SNDL46 EDZW 102000 RRA
AAXX 10201
10334 42980 10101 10291 20158 30081 40160 57005 80001
  333 81075=
####018000125####
SNVD02 CWAO 102000
BBXX
LAJV4 10204 99/// ///// 46/// /1923 10075 20070 40231 56008 7//// 8//// 22200 0//// 2//// =

####018000619####
SNSP21 LEMM 102000
AAXX 10204
08084 46/// /0000 10262 20183 39739 40146 53001
  555 60005=
08184 46/// /0000 10245 20154 30035 40183 53009
  555 60005=
08202 46/// /2905 10254 20097 39279 42822 53005
  555 60005=
08360 46/// /1801 10259 20198 30135 40170 53008
  555 60005=
08373 46/// /0608 10255 20218 30148 40169 53004
  555 60005=
08410 46/// /2604 10336 20107 30029 40131 53004
  555 60005=
08419 45/80 /1506 10287 20107 39512 40139 53010
  555 60005=
08451 46/// /1806 10270 20175 30124 40155 53005
  555 60005=
08487 46/// /2606 10246 20213 30152 40176 53012
  555 60005=
####018000089####
SMAA01 LIIB 101800 RRA
AAXX 10184
89662 46/// /2552 11188 29030 39614 4//// 5////=
####018001225####
SMTU10 LTAA 101800
AAXX 10184
17022
32565 32402 10224 20194 39984 40142 51007 82230
333 10251 82832 83360 90760 91114=
17031
32670 73109 10242 20216 30125 40131 53007 84250
333 10260 84833 87360=
17038
32670 73603 10256 20201 30079 40127 53004 84230
333 10282 84835 85360=
17050
32670 73402 10228 20178 30105 40165 53002 85270
333 10251 85835 87360 90760 91113=
17060
12660 63410 10219 20178 30115 40153 52004 6002/ 83130
333 10254 83835 85360=
17096
32960 02105 10225 21004 38255 48503 52014
333 10315=
17124
32660 22909 10206 20139 39251 40127 53012 82100
333 10258 82840 90760 91120=
17128
32670 12804 10251 20124 39062 40096 53014 81100
333 10296 81840=
17195
32970 02704 10259 20108 38934 48488 52013
333 10342=
17199
32970 02006 10324 21032 39038 40036 53010
333 10378=
17219
32565 23417 10262 20157 39976 40112 51008 82100
333 10303 82830 90760 91129=
17240
32570 11304 10222 20150 39015 40098 52012 81100
333 10281 81830 90760 91116=
17244
32970 03305 10267 20091 38964 48495 52008
333 10313=
17280
32970 02406 10312 21034 39325 40046 52016
333 10405=
17350
32660 32207 10271 20199 30095 40169 55007 83100
333 10338 83835=
####018000103####
SMTU10 LTAA 101800 RRA
AAXX 10184
17170
32961 03600 10181 20062 38347 48508 52009
333 10270=
####018001208####
SMTU12 LTAA 101800
AAXX 10184
17024
32670 62304 10232 20204 30065 40139 53006 83250
333 10260 83835 86360 90760 91108=
17056
11670 52602 10224 20207 30161 40165 53003 6002/ 70182 83230
333 10277 83835 85360 90760 91112=
17067
32670 62803 10234 20189 30129 40150 52011 86200
333 10264 86840 90760 91117=
17092
32970 01007 10268 20018 38835 48493 52013
333 10366=
17112
32670 40406 10242 20182 30159 40161 53008 82230
333 10268 82835 84360 90760 91118=
17115
11660 53606 10222 20185 30102 40151 52009 6990/ 70282 83230
333 10250 83835 85360=
17116
32670 33002 10223 20187 30034 40150 52011 83100
333 10259 83835 90760 91114=
17188
32670 43104 10256 20100 39094 40093 52008 82240
333 10285 82837 84360 90760 91114=
17202
32970 02907 10278 20007 39111 40052 52014
333 10379=
17248
32675 52702 10290 20111 38950 48493 52012 85200
333 10332 85840=
17292
32970 00804 10237 20148 39390 40109 52012
333 10315 90760 91113=
17300
32960 01701 10249 20189 30033 40105 52006
333 10297=
17310
32670 32803 10275 20196 30094 40101 56001 81101
333 10314 81835 83070 90760 91109=
17330
32970 02402 10279 20218 30077 40094 53007
333 10330=
####018000097####
SMTU13 LTAA 101800 RRB
AAXX 10184
17320
3/9// /3501 10268 20186 30089 40095
333 10301=
####018000103####
SMTU11 LTAA 101800 RRA
AAXX 10184
17184
3/9// /3506 10252 20158 30022 40127 52018
333 10310=
####018000174####
SMTU13 LTAA 101800 RRA
AAXX 10184
17074
1/9// /0102 10207 20171 39237 40124 52021 6992/
333 10263=
17155
3/9// /0103 10195 20141 39061 40129 52016
333 10270=
####018000762####
SMTU13 LTAA 101800
AAXX 10184
17042
32670 70905 10242 20221 30094 40131 52007 84250
333 10296 84835 87360=
17086
32670 41112 10246 20175 39413 40083 52019 84200
333 10321 84835=
17088
32970 03403 10230 20162 38786 48505 52026
333 10354=
17140
32965 00603 10230 20156 38691 48490 53011
333 10286=
17203
32970 03600 10286 20091 38852 48533 53002
333 10372=
17237
32670 22502 10275 20142 39623 40098 53015 82100
333 10323 82835 90760 91109=
17250
32675 12703 10270 20106 38782 48494 52012 81100
333 10325 81840=
17270
32970 02304 10332 20056 39458 40051 53004
333 10400=
17295
32960 02003 10259 20180 30104 40111 51006
333 10289=
17375
32970 00301 10266 20205 30102 40104 52004
333 10308 90760 91110=
####018000633####
SMGR01 LGAT 101800
AAXX 10184
16622
32560 31810 10274 20119 30149 40155 56004 82140
333 10306 4/000 90730 91113=
16641
32970 03600 10264 20161 30143 40147 56002
333 10310 4/000 90730 91108=
16682
32560 13600 10256 20184 30142 40159 53002 81101
333 10298 4/000 90730 91114=
16716
32565 13609 10276 20131 30123 40140 51001 81100
333 10324 4/000=
16734
32570 32912 10246 20193 30077 40138 53003 82201
333 10274 4/000 90730 91116=
16749
32960 02309 10256 20194 30087 40100 52004
333 10290 4/000 90730 91118=
16754
32570 13208 10250 20184 30095 40140 56001 81200
333 10276 4/000 90730 91115=
####018000491####
SMGR20 LGAT 101800
AAXX 10184
16643
32560 22609 10240 20200 30160 40165 54000 82400
333 10294 4/000 90730 91116=
16648
32560 40807 10272 20112 30071 40155 53005 81150
333 10326 4/000 81830 84359 90730 91116=
16650
32560 30310 10240 20193 30145 40149 50007 82130
333 10264 4/000 90730 91115=
16684
32560 10107 10246 20183 30115 40142 57001 81100
333 10270 4/000 90730 91114=
16732
32565 13620 10240 20190 30123 40136 53012 81200
333 10262 4/000 90730 91131=
####018000121####
SMGR21 LGAT 101800 RRA
AAXX 10184
16738
32960 00111 10236 20182 39947 40137 57003
333 10284 4/000 90730 91121=
####018000675####
SMGR21 LGAT 101800
AAXX 10184
16614
32570 40306 10236 20133 39410 40154 53005 84500
333 10276 4/000 90730 91109=
16627
32560 63603 10244 20147 30154 40158 52004 84550
333 10270 4/000 84625 85358 90730 91124=
16667
32565 23106 10266 20174 30127 40133 53008 82100
333 10290 4/000 90730 91124=
16675
32565 10907 10270 20160 30134 40154 53007 81100
333 10326 4/000 90730 91120=
16710
32560 43600 10234 20147 39415 40149 54000 82150
333 10272 4/000 82825 84358 90730 91104=
16723
32560 13412 10240 20138 30100 40115 53007 81100
333 10284 4/000 90730 91126=
16746
32960 03600 10256 20147 39967 40142 57003
333 10280 4/000 90730 91113=
####018000270####
SNMK10 LYPG 102000
AAXX 10201
13463 42670 20202 10278 20121 30101 40161 52010 82200=
13459 42970 00203 10217 20123 39451 40176 53005=
13461 42770 10901 10225 20158 30157 40164 55002 81200 333 81850 92322 92428=
13363 42670 62901 10170 20134 39314 48561 52004 84831=
####018000087####
SMAA01 LIIB 101800 RRA
AAXX 10184
89662 46/// /2552 11188 29030 39614 4//// 5////=
####018000485####
SAYE20 OYSC 102000
METAR OYAA 102000Z 11005KT 7000 FEW018 SCT090 31/23 Q1002=
METAR OYDM 102000Z 32007KT 9999 SCT030 17/12 Q////=
METAR OYHD 102000Z 29004KT 9999 FEW030 SCT060 33/28 Q////=
METAR OYRN 102000Z 05006KT CAVOK 29/25 Q1005=
METAR OYSN 102000Z 13008KT 8000 TSRA BK030 15/14 Q1022=
METAR OYSQ 102000Z 19032KT 9999 FEW018 28/22 Q1007=
METAR OYSY 102000Z VRB02KT 9999 FEW040 FEW045CB SCT080 27/22 Q1007
RETS=
METAR OYTZ 102000Z 00000KT 6000 NSC 23/16 Q1008=
####018000164####
SNCR20 GCLP 102000
AAXX 10204
60030 46/// /3620 10254 20173 30065 40118 56001
  555 60005=
60040 46/// /3623 10244 20181 30104 40128 55001
  555 60005=
####018000083####
SNAA17 LFVW 101900 RRB
AAXX 10194
89811 46/// /0000 11225 38252 4//// 5////=
####018000395####
SMAA01 KARS 101800 RRD
AAXX 1018/
89872 46/// ///// 11245 39680 4//// 5//// 91820=
89377 46/// ///// 11229 39654 4//// 5//// 91820=
89869 46/// ///// 11275 39697 4//// 5//// 91820=
89864 46/// ///// 11234 39696 4//// 5//// 91830=
89376 46/// ///// 11284 39563 4//// 5//// 91820=
89324 46/// ///// 11330 37822 4//// 5//// 91820=
89332 46/// ///// 11263 38928 4//// 5//// 91820=
####018000134####
SMAA01 KARS 101800 RRE
AAXX 10184
89667 46/// /1801 11310 39777 4//// 5//// 91810=
89667 46/// /2105 11309 39775 4//// 5////=
####018000098####
SNLY40 EUMS 102000
AAXX 10204
62140 46/// /2116 10276 20142 39770 40124 53016=
62210 NIL=
####018000067####
SNAL51 EUMS 102000
AAXX 10204
60663 46/// /0903 10365 21048=
####018000071####
SNAL51 EUMS 102000 RRA
AAXX 10204
60612 46/// /0411 10337 21023=
####018000071####
SNAL51 EUMS 102000 RRB
AAXX 10204
60664 46/// /1505 10305 21024=
####018000067####
SNAL53 EUMS 102000
AAXX 10204
60619 46/// /0216 10334 21053=
####018000067####
SNAL54 EUMS 102000
AAXX 10204
60621 46/// /0415 10372 21032=
####018000124####
SNVD02 CWAO 102000
BBXX
VOKJ 10204 99/// ///// 46/// /2523 10275 20201 40079 55000 7//// 8//// 22200 0//// 2//// =

####018000117####
SNDL22 EDZW 102000 RRB
AAXX 10201
10043 46/// /0503 10235 20221 30175 40178 56003
222// 0////
  333 553//=
####018002186####
SNSN21 ESWI 102000
AAXX 10201
02019 27/57 /2804 10095 20012 39529 40139 52022 78286
  333 69945 90710 91106=
02081 25/99 /2302 10142 20117 39722 40110 53009
  333 60005 90710 91103=
02095 NIL=
02101 45684 /3005 10102 20065 39635 40185 53022 8//// 333 88/34=
02119 25/99 /2703 10143 20083 39764 40136 53020
  333 60005 90710 91110=
02124 25799 /2902 10136 20076 39643 40151 53020
  333 60005 87/50 88/57 90710 91108=
02126 25/99 /2704 10146 20092 39835 40162 53020
  333 60005 90710 91109=
02186 45982 /2101 10159 20142 30108 40133 53011 333 87/62=
02197 25/80 /1801 10150 20137 30112 40130 58001
  333 60005 90710 91104=
02207 25/83 /2601 10093 20064 39520 40211 51010
  333 60005 90710 91103=
02219 27/99 /3003 10081 20074 39543 40205 53018 70086
  333 60005 90710 91107=
02226 45684 /3104 10130 20059 39757 40200 52017 8//// 333 81/34
83/41 88/58=
02243 25/83 /2702 10150 20091 39920 40179 53017
  333 60005 90710 91105=
02287 25967 /2503 10165 20150 30143 40152 53013
  333 60005 88/60 90710 91109=
02308 27599 /2601 10091 20073 39355 40207 52020 70060
  333 60005 87/31 90710 91102=
02327 25/99 /0102 10142 20084 39770 40193 51037
  333 60005 90710 91108=
02355 25982 /3302 10190 20149 30153 40165 53015
  333 60005 87/59 90710 91103=
02407 25/83 /2401 10170 2//// 39818 40172 53012
  333 60005 90710 91102=
02432 45984 /2402 10230 20143 30114 40181 52010 8////=
02440 25782 /0000 10193 2////
  333 60005 82/50 85/58 90710 91102=
02456 25/// /0000 10236 20152 30124 40164 53014
  333 60005 90710 91104=
02469 25/81 /2301 10210 20160
  333 60005 90710 91103=
02498 26/73 /1806 10199 20179 30160 40176 54000
  333 60005 90710 91107=
02500 25/80 /1806 10184 20154 30138 40179 54001
  333 60005 90710 91108=
02518 46/// /0202 10202 20173
  333 90710 91104=
02520 45984 /2201 10198 20155 30129 40195 52009=
02565 25/71 /1602 10236 20138 30072 40185 52011
  333 60005 90710 91105=
02618 25/83 /2802 10217 20162 30033 40189 52003
  333 60005 90710 91103=
02664 45983 /1401 10208 20161 30130 40199 52002=
02679 25/80 /1903 10194 20166 30159 40202 54001
  333 60005 90710 91105=
####018000147####
SNVD20 KWNB 102000 RRG
BBXX
44029 10201 99425 70706 46/26 /3409 10205 40099 53010 92004 22200
00204 10802 70009 333 91210 555 11108 22115=
####018000085####
SNNC22 NWBB 102000
AAXX 10204
91574 46/// ///// 10218 20147 39995 40001 56018=
####018000113####
SNVD15 KWNB 101900 RRX
BBXX
41038 10191 99341 70777 46/// /2108 10278 40097 91900 22200 00272
333 91211=
####018000115####
SNVD20 KWNB 101900 RRW
BBXX
44056 10191 99362 70757 46/// ///// 1//// 91915 22200 00270 10802
20802 70011=
####018000083####
SNVD20 KWNB 102000 RRH
BBXX
41029 10201 99328 70796 46/// ///// 10287 92000=
####018000167####
SMXX16 KAWN 101800 RRE
BBXX
WCHF 10183 99330 71202 41398 83322 10144 20116 40162 52015 70222
 886// 22254 00122 20201 302// 40605 5//// 6//// 80128 ICE /////=
####018000230####
SNAA17 LFVW 101900 RRC
AAXX 10194
89577 46/// /3003 11635 35720 4//// 5////=
89003 46/18 /1512 11273 29012 39023 4//// 5////=
89016 46/37 /3307 11379 29047 39463 4//// 5////=
89578 46/// /05// 11530 36816 4//// 5////=
####018000067####
SNTC01 LFVW 101700
AAXX 1017/
68902 46/// ///// 40147 52001=
####018000350####
SNPF80 KWBC 102000 RRA
AAXX 10204
91945 26/// /1014 10259 20205 30209 40214 50000 333 60005 90710
91123 555 1//23=
91930 36/// ///// 10283=
91958 22481 70106 10213 20177 30244 40246 58006 84208 333 60005
56806 84818 87273 90710 91112 555 1//12=
91954 22580 30710 10252 20196 30230 40233 51005 83200 333 60005
56200 83820 555 1//16=
####018000311####
SNAU06 AMMC 102000
AAXX 10204
94850 455// 83327 10130 20093 30044 40089 53005=
94954 475// 83218 10116 20088 39969 40080 53003 7//44=
94956 457// 23614 10111 20081 30033 40060 56006=
94975 NIL=
94983 45/// /3420 10125 20109 30087 40112 56005=
94998 45/// /2911 10047 20041 30218 40228 55000=

####018001251####
SNAU05 AMMC 102000
AAXX 10204
94691 NIL=
94693 41982 03304 10065 20061 30120 40185 52007 70200=
94700 41/84 82702 10120 20110 30052 40198 70262 8802/=
94703 46/// /36// 30074 40205 53009=
94710 45/// /3104 10132 20098 39947 40211 53009=
94729 455// 83608 10104 20076 39343 40226 55003=
94750 458// 80000 10110 20102 30066 40193 56007=
94767 41775 70105 10142 20116 30203 40209 55002 70251 8657/=
94776 41870 73504 10100 20099 30212 40223 52004 76011 8357/=
94791 41582 73503 10124 20109 30237 40245 53007 702// 8127/=
94842 45/// /3217 10115 20074 30005 40105 53003=
94865 456// 10204 10096 20069 30118 40143 53008=
94875 45/// /3604 10069 20068 30038 40179 53002=
94893 45/// /3414 10130 20070 30006 40123 55001=
94907 45/// /2808 10086 20053 30137 40147 53003=
94910 41240 83403 10108 20104 39933 40193 55001 76166 8572/=
94926 41460 83313 10102 20090 39507 40197 56009 76062 88700=
94935 45/// /3407 10125 20080 30126 40153 55008=
94995 NIL=
95485 45/// /3105 10080 20063 39995 40208 51007=
95527 457// 80310 10137 20091 39972 40235 53002=
95719 458// 73511 10142 20096 39872 40217 55000=
95762 457// 81404 10096 20070 39766 40242 51008=
95839 47/// /3212 10072 20057 39994 40157 53006 7//44=

####018000030####
SNAU02 AMMC 102000
NIL

####018000030####
SNAU03 AMMC 102000
NIL

####018001459####
SNAU04 AMMC 102000
AAXX 10204
94170 NIL=
94255 45/// /1902 10141 20107 39899 40171 56007=
94268 45/// /0704 10209 20193 30152 40164 53002=
94287 41580 13304 10176 20154 30173 40182 53004 70200 81800=
94290 NIL=
94294 41665 70000 10175 20161 30185 40196 53003 70222 875//=
94296 35/// /1110 10240 30157 40167 52006=
94298 46/// /1415 10223 30180 40186 53010=
94299 41580 11212 10240 20167 30161 40171 53006 70200 81800=
94332 41982 00000 10099 20087 39778 40176 57004 70200=
94333 41/84 11602 10151 20135 39995 40183 54000 70200 80001=
94341 45/// /1107 10134 20108 39937 40180 53011=
94346 41982 00608 10127 20120 39971 40199 53004 70200=
94363 45/// /1104 10124 20119 30000 40227 53004=
94366 NIL=
94367 41580 41710 10180 20175 30167 40211 53005 70282 84200=
94374 41982 00904 10146 20118 30208 40226 53003 70200=
94388 45/// /1213 10204 20119 30220 40225 53002=
94393 46/// /1417 10221 30184 40196 53008=
94394 35/// /1016 10210 30205 40213 52003=
94488 41/60 80901 10160 20133 30041 40194 57004 75052 8807/=
94500 41/84 60502 10157 20122 39974 40202 54000 70262 86070=
94510 41970 70405 10140 20115 39861 40224 53002 702// 87030=
94515 45/// /0106 10143 20101 39874 40237 53009=
94552 45/// /1007 10104 20083 39760 40246 55001=
94578 41570 62005 10121 20103 30229 40240 58008 70522 82872=
94584 45/// /1217 10160 20131 30127 40240 53012=
95482 41982 02003 10144 20124 30140 40197 53003 70200=

####018001471####
SNAU56 AMMC 102000
AAXX 10204
94915 46/// /2713 10035 20032=
94919 47/// /3509 10117 20114 39773 40185 55001 7//44=
94921 456// 80108 10084 20067 39092 40182 55004=
94925 45/// /3608 10101 20090 39491 40191 56008=
94927 45/// /3409 10089 20072 39407 40197 56005=
94929 45/// /3508 10092 20061 39278 40176 53003=
94937 41/70 13610 10134 20097 30153 40173 57008 70111 81070=
94938 46/// /3607 10147 20105 30140 40184 56007=
94939 45/// /3625 10164 20122 30099 40163 58014=
95541 41684 83601 10079 20073 70251 885//=
95570 45/28 /1302 10081 20078 30221 40252 53002=
95571 45/// /0000 10090 20076=
95695 47/// /2907 10083 20072 30086 40201 53007 7//44=
95697 45/// /3106 10108 20097 30072 40194 52008=
95699 45/// /2608 10116 20081 30007 40199 51007=
95705 47/// /3104 10115 2//// 7//44=
95706 47/// /3406 10115 20109 30020 40196 53004 7//44=
95708 45/// /2606 10128 20093 39967 40202 53009=
95709 47/// /2905 10114 20114 39892 40204 53003 7//44=
95710 45/// /3606 10139 20105 39952 40214 53003=
95715 459// 80210 10159 20111 30051 40214 55001=
95716 45/// /3411 10112 20086 39443 40205 56008=
95717 47/// /3408 10127 20108 39820 40210 53003 72144=
95718 45/// /0311 10147 20103 39992 40212 56001=
95721 47/// /2806 10110 20096 39849 40209 53001 7//44=
95722 47/// /3103 10107 20098 39865 40205 53004 7//44=
95726 473// 83512 10088 20080 39119 40229 55002 7//44=
95827 45/// /3308 10082 20070 39916 40145 53006=

####018000907####
SNAU55 AMMC 102000
AAXX 10204
94755 45733 80000 10086 20083 30120 40211 56004=
94756 41582 62302 10126 20076 70311 86200=
94759 46/// /3506 10131 20105=
94760 45/// /0105 10122 20106=
94762 45/// /1103 10107 20103=
94763 45/// /0000 10100 20099=
94765 457// 80000 10110 20101 30201 40210 57004=
94766 47/// /0601 10118 20115 7//44=
94768 47/// ///// 10141 20117 30161 40210 56002 7//44=
94774 45/// /3308 10125 20116=
94775 45/// /0000 10098 20098=
94777 45/// /0000 10103 20101=
94780 46/// /0000=
94785 45/// /2804 10093 20085 30224 40241 53001=
94786 45/// /0000 10089 20081 30233 40239 53001=
94790 41582 20212 10160 20108 30106 40249 52006 70200 82500=
94838 47/// /3408 10054 20045 30072 40167 53008 7//44=
94839 45/// /3507 10073 20073 30005 40166 53006=
94886 45/// /3311 10118 20085 30129 40133 53005=
94908 45/// /3204 10090 20076 39351 40168 53007=

####018000058####
SNAU45 AMMC 102000
AAXX 10204
95675 46/// /3116=

####018001426####
SNAU57 AMMC 102000
AAXX 10204
94826 47/// /3318 10108 20105 30050 40106 53010 7//44=
94827 45/// /3310 10065 20048 39987 40157 53006=
94828 474// 83214 10102 20088 30015 40114 53011 7//44=
95734 45/// /0116 10159 20066 39952 40229 53005=
95740 45/// /1604 10107 20081 39918 40235 51009=
95747 456// 83214 10103 20065 39376 40233 51010=
95748 45/// /1801 10119 20117 30193 40204 56007=
95749 45/// /3108 10138 20133=
95753 45811 10000 10094 20093 30188 40212 56005=
95754 457// 80000 10063 20060 39778 40231 53004=
95756 46/// /0103=
95758 45/// /0101 10071 20065 39954 40223 52004=
95765 45/// ///// 10124 20118=
95767 46/// /0000 10097 20092 30212 40220 51001=
95770 46/// /3607 10137 20124 30192 40216 51001=
95771 45/// /0000 10089 20078 30142 40217 52002=
95773 459// 40704 10058 20049 39006 40253 53003=
95774 46/// /0204 10138 20088=
95784 45/// /0000 10085 20082 30222 40233 52002=
95822 47/// /3512 10100 20095 30059 40121 53011 7//44=
95825 47/// /3308 10097 20086 39969 40129 53011 7//44=
95832 45/// /3409 10077 20066=
95869 45/// /3507 10075 20075 30064 40180 53005=
95896 474// 80000 10105 20103 39986 40187 53004 7//44=
95909 47/// /3224 10019 20018 38609 40199 55000 7//44=
95916 47/// /3019 10051 20050 7//44=
95925 47/// /3020 10037 20034 7//44=
95929 45/// /0000 10075 20064 30162 40164 56005=
95931 45/// /2005 10071 20070 30115 40167 55007=

####018001507####
SNAU49 AMMC 102000
AAXX 10204
94171 45/// /1405 10216 20206 30099 40145 53001=
94174 455// 71414 10260 20217 30128 40134 53002=
94182 47/// /1408 10249 30123 40128 53003 7//44=
94183 41484 21804 10209 20169 39969 40153 55003 70211 815/8=
94186 41560 41412 10246 20215 30131 40151 53001 70222 82540=
94187 41482 30000 10189 20183 30069 40166 54000 70111 83500=
94188 45/// /1514 10233 20201 30148 40170 55001=
94256 45/// /0000 10169 20149 30149 40159 55000=
94260 45/// /2208 10161 20128 30155 40162 53003=
94261 45/// /2003 10131 20097 30019 40168 53001=
94266 45/// /2204 10178 20131 30140 40161 51002=
94274 45/// /2105 10158 20138 39830 40180 53009=
94276 45/// /1501 10163 20152 39930 40166 53002=
94291 41220 80000 10180 20175 75255 888//=
94292 41384 12002 10171 20163 30176 40185 70111 81601=
94295 45/// /1810 10217 20181 30177 40189 53001=
94334 41250 80000 10154 20147 30082 40193 53004 75052 880//=
94335 45/// /1906 10127 20099 39955 40174 53004=
94336 45/// /0405 10123 20095 39840 40178 56006=
94337 45/// /1606 10124 20106 30028 40173 53006=
94338 45/// /3207 10124 20105 39867 40181 57004=
94339 41981 01101 10128 20119 39967 40183 53003 70200=
94342 45/// /0908 10119 20110 39959 40187 53003=
94343 45/// /0807 10167 20127 39817 40188 53010=
94350 41984 00000 10144 20144 70200=
94359 41984 00000 10110 20106 39904 40221 53006 70211=
94360 41984 00000 10120 20105 70100=
94365 476// 81705 10181 20163 30183 40207 53003 7//44=

####018001495####
SNAU51 AMMC 102000
AAXX 10204
94568 45/// /0000 10085 20081 30210 40248 58008=
94569 456// 12205 10133 20119 30240 40245 53004=
94570 45/// /2003 10138 20124 30238 40246 53005=
94575 45/// /0000 10104 20093 30223 40238 58009=
94576 46/// /2301 10119 20098 30228 40238 58009=
94580 45/// /2804 10145 20120 30237 40242 58001=
94581 46/// /2308=
94592 45/// /0000 10131 20118 30241 40247 55000=
94593 41/75 61805 10165 20142 70322 86040=
94594 45/// /1412 10172 20137 30121 40241 53004=
95286 45/// /1510 10164 20135 39643 40186 55000=
95292 45/// /2401 10175 20165 30172 40194 53006=
95293 45/// /1206 10155 20145 39558 40203 53002=
95295 45/// /1805 10162 20151=
95296 45/// /1905 10168 20153 30183 40192 53001=
95351 45/// /0805 10109 20103 39878 40212 51007=
95367 473// 81708 10182 20165 30206 40213 53006 7//44=
95369 45/// /1707 10148 20130 30210 40222 53003=
95370 45/// /0000 10117 20106 30187 40221 53004=
95487 45/// /2406 10145 20122 30065 40203 52010=
95492 41/82 82105 10150 20129 30050 40210 53015 70222 8807/=
95529 45/// /0000 10117 20100 39881 40247 53002=
95543 46/// /0000 10092 20080 30110 40244 55000=
95551 41280 70911 10112 20093 39503 40255 55001 70322 876//=
95565 47/// /2206 10141 20134 30222 40237 53005 7//44=
95566 45/// /0000 10128 20115=
95572 46/// /0000 10129 20118 30180 40245 53002=
95573 45/// /0106 10128 20093=
95575 45/// /1604 10092 20084 30182 40241 56010=
95591 45/// /2404 10125 20097=

####018000706####
SNAU54 AMMC 102000
AAXX 10204
94711 457// 82903 10134 20100 39890 40207 53007=
94712 47/// /3605 10103 20087 39743 40201 55001 7//44=
94714 41/70 83602 10102 20098 70262 8807/=
94715 45/// /3412 10132 20096 39924 40205 53002=
94717 41584 73609 10132 20106 70282 87300=
94727 45/// /0000 10083 20080 39663 40228 55002=
94728 41684 73413 10130 20092 70211 83520=
94743 454// 83010 10091 20065=
94744 41/70 73105 10098 20064 70222 87030=
94746 456// 80213 10091 20071 39409 40215 55006=
94747 41260 80502 10087 20075 70322 886//=
94749 459// 70509 10156 20108=
94752 45/// /0000 10091 20091 30113 40212 56004=
94754 46/// /3210 10082 20071=
94757 45/// /0000 10096 20085=

####018001234####
SNAU58 AMMC 102000
AAXX 10204
94830 45/// /3314 10109 20085 30103 40115 53008=
94833 47/// /2825 10037 20036 7//44=
94834 41584 43109 10075 20062 39795 40151 52039 70151 84500=
94835 45/// /3208 10045 20044=
94836 45/// /3206 10075 20061 39876 40153 53005=
94837 45/// /3514 10096 20079 30034 40120 53010=
94840 45/// /3317 10105 20083 39969 40129 53006=
94843 45/// /3308 10075 20069 30089 40176 51008=
94846 45/// /0209 10093 20073=
94847 46/// /0115=
94852 41475 33515 10076 20070 39630 40151 53004 70111 83600=
94854 45/// /0310 10103 20068 30123 40136 51007=
94855 41784 73308 10085 20081 39917 40170 53006 702// 87500=
94857 45/// /3411 10102 20073 30091 40133 51007=
94859 46/// /0106 10083 20083=
94860 451// 73520 10071 20070 39529 40159 51001=
94863 46/// /3510 10097 20068 39852 40138 53010=
94864 45/// /0108 10108 20080 30053 40156 53007=
94866 41680 13607 10098 20064 30005 40149 53006 70200 81500=
94868 41980 0//// 10114 20077 30107 40146 52007 70200=
94870 45/// /3613 10115 20080 30127 40142 52006=
94871 46/// /3612 10122 20090=
94872 45/// /3416 10076 20065=
94874 41565 50305 10088 20079 30002 40175 53005 70111 855//=
94878 47/// /2809 10071 20070 7//44=

####018000481####
SNAU60 AMMC 102000
AAXX 10204
95872 46/// /3614=
95874 45/// /0108 10111 20083 30069 40150 53005=
95881 41960 03618 10118 20082 30086 40137 52003 70162=
95890 45/// /3407 10122 20073 30116 40138 55002=
95901 45/// /3511 10009 20008=
95904 41986 00000 10070 20050 70100=
95913 45/// /0104 10097 20066=
95918 47/// /0504 10107 20102 30081 40158 53016 7//44=
95937 45/// /3305 10090 20084 30173 40179 56006=
95940 45/// /3613 10153 20109 30092 40194 56009=

####018000628####
SNAU61 AMMC 102000
AAXX 10204
94950 41660 33120 10108 20092 39948 40078 52001 72581 83200=
94955 46/// /3114 10103 20081 39738 40091 53002=
94957 47/// /1804 10033 20032 39959 40070 56005 7//44=
94959 47/// /3105 10073 20034 7//44=
94964 47/// /2703 10041 20039 7//44=
94969 46/// /3212 10101 20087=
94977 47/// /3216 10046 20037 7//44=
94980 45/// /3412 10132 20093 30117 40129 55004=
94985 41/80 43611 10105 20089 70162=
94987 46/// /0305 10103 20077 30020 40088 55003=
95952 46/// /3524 10036 20035 38785 40072 50005=
95956 47/// /3211 10076 20067 7//44=
95958 47/// /3424 10073 20066 7//44=

####018001366####
SNAU59 AMMC 102000
AAXX 10204
94881 47/// /3412 10077 20063 7//44=
94884 41/75 80000 10102 20098 39970 40179 52002 71122 88500=
94889 45/// /3506 10105 20105 39995 40182=
94891 45/06 /3004 10037 20031 30080 40149 53003=
94892 46/// /3414 10113 20089 30117 40134 53007=
94894 47/// /3423 10000 21001 7//44=
94898 46/// /3608 10118 20079 30118 40135 53007=
94903 47/// /3423 10012 20011 38192 40174 53011 7//44=
94905 41/// /3411 10053 20033 38692 40195 53003=
94906 47/// /3533 10004 20001 7//44=
94912 478// 83604 10104 20088 30091 40152 53009 7//44=
94913 47/// /0207 10080 20077 39275 40165 53005 7//44=
94914 45/// /0201 10101 20061 39413 40167 53003=
94930 45/// /1507 10112 20084=
94932 41575 70203 10139 20083 75052 87600=
94933 45/// /0115 10143 20078 30133 40151 56011=
94949 45/// /3320 10127 20084 39993 40134 55003=
95704 457// 83107 10117 20117 30032 40197 53008=
95728 45/// /3608 10117 20089 39469 40235 51003=
95831 45/// /3009 10082 20048=
95833 45/// /3405 10065 20055=
95834 41680 80000 10020 21002 70222 885//=
95835 45/// /3211 10064 20052=
95836 47/// /3604 10061 20051 7//44=
95837 47/// /0000 10105 20103 7//44=
95840 45/// /3413 10101 20075 39863 40136 53007=
95845 45/// /0000 10075 20061 39806 40119 55000=
95864 46/// /0210=
95866 45/// /0110 10104 20073 30053 40149 53007=

####018000076####
SNAU47 AMMC 102000
AAXX 10204
94284 46/// /1619 30167 40177 53006=

####018000058####
SNAU44 AMMC 102000
AAXX 10204
94666 46/// /3118=

####018001210####
SNAU50 AMMC 102000
AAXX 10204
94368 47/// /1518 10195 20169 30135 40205 53005 7//44=
94369 41968 01803 10145 20131 30199 40220 53004 70200=
94370 45/// /1705 10158 20153 30184 40222 53004=
94373 45/// /2105 10148 20132 30219 40226 53005=
94376 41982 00000 10064 20054 30005 40237 53004 70200=
94378 46/// /1718 10178 30198 40222 53005=
94380 45/// /1609 10160 20120 30140 40229 53003=
94381 45/// /2205 10137 20116 30210 40230 53004=
94386 45/// /1112=
94387 43684 11906 10135 20129 30196 40234 53002 81500=
94390 41575 10909 10170 20125 30108 40227 54000 70111 81600=
94511 41784 52301 10094 20086 39774 40239 53006 70311 85200=
94517 45/// /0211 10153 20109 39983 40223 55003=
94530 41/84 60902 10122 20111 39979 40242 52005 70222 86090=
94542 41/70 22007 10105 20089 39829 40240 55002 70300 82060=
94549 47/// /0602 10062 20061 39727 40243 58011 7//44=
94553 46/// /0102 10070 20068 39238 40256 53002=
94555 45/// /0000 10093 20091 39683 40249 53003=
94557 45/// /1504 10071 20070=
94558 45/// /1405 10138 20132=
94562 45/// /0000 10085 20076=
94566 46/// /0000 10101 20087 30167 40245 55000=
94567 41575 42107 10134 20125 30227 40240 53007 71581 84200=

####018000682####
SNAU53 AMMC 102000
AAXX 10204
94485 41984 00000 10087 20072 70211=
94541 45/// /0000 10096 20069 39468 40255 53004=
94572 45/// /3302 10097 20089 30239 40250 53002=
94573 45/// /2202 10096 20085 30226 40253 53004=
94588 45/// /0905 10034 20030 39051 40263 53003=
94589 41480 42807 10116 20116 30217 40251 53006 70222 81230=
94596 45/// /0000 10120 20115 30247 40250 53003=
94598 45/// /2607 10124 20121 30175 40251 53006=
94599 45/// /2803 10150 20112 30131 40249 55000=
94686 45/// /3003 10074 20054 39984 40204 53009=
94689 41984 03110 10088 20086 70211=
94702 45/// /3208 10079 20078 30075 40188 53006=
94709 41/84 82903 10115 20091 70266 8807/=

####018000595####
SNAU62 AMMC 102000
AAXX 10204
95959 47/// /3315 10040 20019 38869 40091 56005 7//44=
95960 475// 83315 10123 20095 30087 40099 55003 7//44=
95962 47/// /3405 10067 20042 7//44=
95966 47215 83323 10088 20066 39896 40101 55000 7//44=
95967 45/// /3608 10110 20073 39977 40050 56010=
95969 47/// /3415 10106 20085 7//44=
95972 45/// /3610 10115 20062=
95977 45/// /3508 10114 20051=
95979 46/// /3233 10017 20017=
95981 47/// /3309 10129 20095 30043 40102 56005 7//44=
95985 45/// /3325 10129 20104 30096 40114 55006=
95988 45/// /3318 10128 20089 30040 40074 55002=

####018000088####
SNNG21 AMMC 102000
AAXX 10204
92044 45/// /0000 10250 20225 30101 40106 56001=

####018000227####
SNVD22 KWNB 102000 RRI
BBXX
46023 10201 99347 71210 46/// /3403 10134 40158 51008 91950 22200
00141 11302 20301 3//// 41302 70011 333 91204 555 11028 22029
31855 43405 61949 338027 342026 348031 352033 342034 336040=
####018000125####
SNVD45 KWNB 102000 RRF
BBXX
45022 10201 99454 70851 46/// /3303 10219 40160 92010 22200 00206
1//00 70002 333 91204=
####018000147####
SNVD20 KWNB 101900 RRX
BBXX
44037 10191 99435 70679 46/22 /2203 10187 40111 52003 91904 22200
00173 10803 70017 333 91204 555 11043 22051=
####018000113####
SNVD15 KWNB 102000 RRJ
BBXX
41038 10201 99341 70777 46/// /2209 10281 40092 92000 22200 00273
333 91213=
