####018000096####
SIPS21 NZKL 091500 RRA
AAXX 09154
91723 NIL=
91964 46/// /1714 10170 20118 40237 52009=
####018000181####
SNAA20 LIIB 092000
AAXX 09204
89659 46/// /3017 11500 29045 37564 4//// 5////=
89661 46/// /2453 11197 38982 4//// 5////=
89666 46/// /1819 11181 29046 39592 4//// 5////=
####018000086####
SIZB20 FLLS 092100
AAXX 09214
67665 42980 01404 10100 20100 48555 333 59024=

####018000353####
SNAA01 KARS 091900 RRH
AAXX 0919/
89872 46/// ///// 11263 39706 4//// 5////=
89377 46/// ///// 11358 39782 4//// 5////=
89329 46/// ///// 11359 38561 4//// 5////=
89828 46/// ///// 11701 36478 4//// 5////=
89108 46/// ///// 11623 36889 4//// 5////=
89332 46/// ///// 11388 39032 4//// 5////=
89769 46/// ///// 11261 39726 4//// 5////=
####018000190####
SIZM20 NSAP 092100
AAXX 09214

 

91762 41598 60907 10296 20239 40146 51016 70520 83802 333 562/9 83820 84078=

 

91759 41598 11009 10296 20237 40149 51016 70501 81101 333 562/9 81824=
####018000071####
SALY31 HLLS 092100
METAR HLLS 092050Z O9O1OKT  CAVOK 31/O9  Q1O16=
####018000073####
SALY31 HLLS 092100
METAR HLLS 092050Z 
O9O1OKT  CAVOK 31/O9  Q1O16=
