####018000089####
SNPS40 AMMC 100100 RRC
AAXX 10014
91519 46/// /0509 10295 40124 22200 00291=


####018000308####
SNPF80 KWBC 100200 RRA
AAXX 10024
91945 26/// /0912 10254 20204 30188 40193 55002 333 60005 90710
91121 555 1//21=
91930 36/// ///// 10287=
91958 26/// /0510 10209 20183 30240 40242 53001 333 60005 90710
91119 555 1//19=
91954 26/// /0906 10252 20198 30209 40212 55000 333 60005 555
1//14=
####018000076####
SNAU47 AMMC 100200
AAXX 10024
94284 46/// /1322 30173 40183 58004=

####018001742####
SNAU56 AMMC 100200
AAXX 10024
94915 46/// /2713 10034 21019
  333 21040=
94919 45/// /2601 10058 20041 39850 40265 50003
  333 21013=
94921 45/// /0215 10095 20045 39159 40258 56015
  333 20006=
94925 45/// /2903 10103 20059 39564 40270 56018
  333 20039=
94927 45/// /3406 10080 20068 39476 40272 57016
  333 20001=
94929 45/// /3610 10086 20042 39342 40246 58022
  333 20012=
94937 41584 73602 10129 20100 30231 40251 57024 70222 8172/=
94938 46/// /3508 10144 20108 30209 40254 58024
  333 20086=
94939 45/// /3411 10135 20112 30186 40250 58022
  333 20117=
95570 455// 81204 10190 20127 30239 40270 58016
  333 20064=
95571 45/// /0703 10189 20117
  333 20099=
95695 45/// /0111 10150 20098 30087 40202 51022
  333 20084=
95697 45/// /0106 10144 20084 30085 40207 51021
  333 20088=
95699 45/// /3320 10186 20102 30007 40199 51018
  333 20101=
95705 45/// /0216 10138 20080
  333 20085=
95706 45/// /0213 10141 20085 30060 40237 51012
  333 20064=
95708 45/// /0215 10158 20078 39999 40235 56005
  333 20040=
95709 45/// /0111 10139 20091 39934 40247 50012
  333 20049=
95710 45/// /0212 10176 20071 39977 40239 56022
  333 20077=
95715 45/// /0315 10194 20075 30078 40241 58022
  333 20051=
95716 45/// /0310 10113 20058 39503 40270 56019
  333 20029=
95717 45/// /0415 10159 20089 39850 40241 56012
  333 20059=
95718 45/// /0213 10188 20066 30016 40236 58028
  333 20060=
95721 45/// /2906 10144 20077 39894 40256 56010
  333 20019=
95722 45/// /0311 10140 20078 39910 40252 50006
  333 20070=
95726 45/// /0317 10100 20060 39148 40261 56019
  333 20043=
95827 47/// /3624 10103 20101 39879 40107 56024 7//44
  333 20063=

####018001818####
SNAU57 AMMC 100200
AAXX 10024
94826 47/// /3619 10120 20117 30014 40070 56024 7//44
  333 20095=
94827 47/// /3616 10115 20096 39951 40120 56020 7//44
  333 20043=
94828 41470 80119 10115 20095 39974 40073 56019 70566 884//
  333 20055=
95734 45/// /3304 10181 20063 39971 40248 58019
  333 20064=
95740 45/// /0906 10168 20072 39934 40252 58025
  333 20040=
95747 45/// /1304 10132 20091 39400 40259 58022
  333 20062=
95748 45/// /0402 10155 20109 30248 40259 58025
  333 20042=
95749 45/// /3608 10157 20135
  333 20102=
95753 45/// /0000 10136 20106 30236 40261 58030
  333 20058=
95754 454// 11106 10137 20092 39813 40267 58019
  333 20055=
95756 46/// /0000=
95758 45/// /2006 10139 20097 39986 40256 58029
  333 20095=
95765 45/// ///// 10151 20097
  333 20071=
95767 46/// /0107 10182 20106 30252 40260 58028
  333 20069=
95770 46/// /0103 10176 20119 30238 40262 58021
  333 20115=
95771 45/// /0709 10169 20093 30177 40252 58032
  333 20045=
95773 45/// /0513 10122 20063 39020 40269 58017
  333 20028=
95774 46/// /0606 10148 20102
  333 20057=
95784 47/// /0804 10184 20122 30251 40262 58025 7//44
  333 20097=
95822 47/// /0117 10111 20106 30013 40075 58012 7//44
  333 20068=
95825 47/// /3615 10109 20100 39923 40082 58015 7//44
  333 20056=
95832 47/// /3618 10110 20104 7//44
  333 20044=
95869 45/// /0315 10127 20092 30083 40199 58009
  333 20063=
95896 458// 40509 10139 20070 30037 40239 58002
  333 20015=
95909 45/// /3329 10011 21011 38676 40278 55005
  333 21058=
95916 45/// /3310 10047 20022
  333 20004=
95925 45/// /3414 10015 20012
  333 21001=
95929 45/// /3605 10140 20088 30244 40246 58023
  333 20047=
95931 45/// /1001 10106 20106 30196 40248 58026
  333 20046=

####018001465####
SNAU49 AMMC 100200
AAXX 10024
94171 456// 10909 10311 20216 30101 40147 58007
  333 20195=
94174 45/// /1317 10291 20218 30136 40142 58006
  333 20241=
94182 47/// /1406 10313 30133 40138 58003 7//44
  333 20245=
94183 45/// /1309 10284 20188 39973 40157 58006
  333 20195=
94186 45/// /1314 10277 20224 30135 40155 58003
  333 20206=
94188 47/// /1518 10257 20220 30153 40175 58004 7//44
  333 20222=
94256 45/// /1704 10238 20166 30161 40171 58005
  333 20155=
94260 45/// /0507 10264 20117 30162 40169 58011
  333 20119=
94261 45/// /1204 10249 20088 30025 40174 58005
  333 20089=
94266 45/// /3605 10282 20165 30143 40164 58008
  333 20151=
94274 41784 30607 10278 20155 39823 40173 58009 70300 83200
  333 20197=
94276 45/// /0204 10287 20176 39924 40160 58011
  333 20180=
94285 45/// /1622 10238 20210 30180 40184=
94295 45/// /1808 10214 20148 30190 40202 58007
  333 20206=
94335 45/// /2503 10233 20140 39960 40179 58006
  333 20092=
94336 45/// /0209 10217 20105 39844 40183 58005
  333 20059=
94337 45/// /3502 10260 20154 30030 40175 58008
  333 20088=
94338 45/// /0304 10208 20137 39872 40186 58009
  333 20062=
94342 45/// /0310 10236 20143 39961 40189 58010
  333 20088=
94343 45/// /0711 10265 20133 39812 40183 58009
  333 20140=
94365 455// 81013 10241 20151 30185 40209 58011
  333 20131=
94372 45/// /1515 10215 20196 39966 40210 58010
  333 20166=

####018000058####
SNAU44 AMMC 100200
AAXX 10024
94666 46/// /3522=

####018000711####
SNAU53 AMMC 100200
AAXX 10024
94541 45/// /0506 10172 20061 39480 40268 58015
  333 20061=
94572 474// 82503 10177 20134 30253 40264 58020 7//44
  333 20072=
94573 45/// /1001 10185 20125 30237 40264 58019
  333 20089=
94588 45/// /0409 10129 20060 39063 40276 58014
  333 20013=
94589 47/// /2705 10171 20153 30232 40266 58014 7//44
  333 20110=
94596 457// 41302 10193 20135 30261 40264 58017
  333 20106=
94598 47/// /1906 10175 20155 30188 40264 58014 7//44
  333 20111=
94599 45/// /1908 10172 20129 30146 40264 58015
  333 20119=
94686 47/// /3415 10131 20101 39973 40192 50004 7//44
  333 20104=
94702 45/// /0313 10135 20081 30091 40204 58003
  333 20074=

####018000615####
SNAU54 AMMC 100200
AAXX 10024
94711 45/// /0213 10169 20082 39895 40213 58016
  333 20085=
94712 45/// /0113 10140 20066 39786 40246 56008
  333 20013=
94715 45/// /0315 10169 20064 39962 40244 56005
  333 20036=
94727 45/// /0412 10143 20076 39691 40258 58027
  333 20050=
94743 453// 80505 10080 20060
  333 20049=
94746 454// 30112 10106 20066 39462 40273 56017
  333 20026=
94749 45/// /0211 10158 20108
  333 20096=
94752 45/// /0000 10143 20099 30165 40265 58025
  333 20046=
94754 46/// /0404 10081 20062
  333 20049=
94757 45/// /3404 10148 20106
  333 20048=

####018000108####
SNNG21 AMMC 100200
AAXX 10024
92044 47/// /3005 10263 20232 30123 40128 58011 72144
  333 20239=

####018001657####
SNAU04 AMMC 100200
AAXX 10024
94170 456// 71212 10286 20189 30126 40148 58007
  333 20198=
94255 45/// /1602 10253 20065 39905 40177 58010
  333 20090=
94268 45/// /0611 10283 20186 30146 40158 58009
  333 20202=
94287 41470 71417 10240 20177 30180 40189 58004 70222 875//
  333 20214=
94290 NIL=
94294 41684 10712 10252 20129 30189 40200 58011 70200 81100
  333 20178=
94296 35/// /1514 10248 30159 40169 57011=
94298 46/// /1214 10238 30173 40179 58011=
94299 41575 31421 10261 20201 30164 40174 58007 70211 83230
  333 20231=
94332 45/// /0305 10221 20117 39784 40182 58006
  333 20056=
94333 NIL=
94341 45/// /3305 10284 20119 39931 40174 58011
  333 20125=
94346 41582 10415 10226 20120 39977 40205 58010 70200 81100
  333 20049=
94363 455// 80707 10197 20132 30002 40229 58009
  333 20095=
94366 NIL=
94367 41580 21612 10209 20164 30167 40211 58011 70200 82200
  333 20146=
94374 41682 70911 10229 20136 30202 40220 58015 70322 878//
  333 20127=
94388 47/// /1217 10230 20139 30218 40223 58008 7//44
  333 20182=
94393 46/// /1327 10226 30173 40185 58010=
94394 35/// /1219 10224 30200 40208 57007=
94488 41/84 10207 10198 20113 30051 40205 57005 70200 81030=
94500 NIL=
94510 45/// /0411 10202 20096 39861 40224 58009
  333 20065=
94515 45/// /0510 10199 20106 39874 40237 58015
  333 20050=
94552 455// 40818 10183 20102 39768 40254 58012
  333 20066=
94578 41562 71206 10190 20127 30242 40253 58020 71585 878//
  333 20108=
94584 45/// /1120 10210 20124 30124 40237 58009
  333 20155=
95482 45/// /0116 10175 20109 30125 40182 58006
  333 20066=

####018001180####
SNAU50 AMMC 100200
AAXX 10024
94368 45/// /1520 10206 20156 30136 40206 58011
  333 20173=
94370 47456 81309 10196 20174 30182 40220 58010 7//44
  333 20138=
94373 45/// /1410 10211 20161 30215 40222 58011
  333 20142=
94376 456// 80913 10243 20113 39993 40225 58015
  333 20066=
94378 46/// /1423 10200 30193 40217 58011
  333 20173=
94380 45/// /1116 10225 20146 30136 40225 58011
  333 20158=
94381 45/// /1218 10225 20129 30206 40226 58010
  333 20164=
94386 45/// /1215=
94387 456// 11318 10229 20119 30195 40233 58014
  333 20138=
94517 45/// /0411 10207 20096 39996 40236 58020
  333 20059=
94542 45/// /0719 10183 20107 39839 40250 58012
  333 20038=
94549 45/// /1410 10152 20118 39745 40261 58007
  333 20067=
94553 46/// /0806 10125 20089 39256 40276 58007
  333 20073=
94555 45/// /1409 10164 20087 39695 40262 58012
  333 20092=
94557 47/// /0709 10136 20122 7//44
  333 20104=
94558 45/// /1110 10207 20127
  333 20130=
94562 45/// /0308 10199 20103
  333 20060=
94566 46/// /1608 10194 20119 30167 40245 58015
  333 20127=
94567 457// 51313 10214 20128 30223 40236 58016
  333 20134=

####018000030####
SNAU03 AMMC 100200
NIL

####018000030####
SNAU02 AMMC 100200
NIL

####018001523####
SNAU58 AMMC 100200
AAXX 10024
94830 47/// /0116 10113 20100 30074 40086 56043 7//44
  333 20062=
94833 47/// /0136 10042 20041 7//44
  333 20014=
94835 47/// /0122 10058 20055 7//44
  333 20037=
94836 47/// /0114 10096 20088 39854 40130 58030 7//44
  333 20079=
94837 47/// /0121 10113 20094 30008 40094 56040 7//44
  333 20057=
94840 47/// /0125 10115 20096 39940 40099 58055 7//44
  333 20056=
94843 47/// /0115 10125 20080 30086 40173 58005 7//44
  333 20065=
94846 47/// /0123 10119 20078 7//44
  333 20081=
94847 46/// /0133=
94852 47357 80128 10085 20082 39625 40146 58028 7//44
  333 20039=
94854 456// 80223 10133 20075 30141 40154 58006
  333 20039=
94855 47458 80413 10094 20082 39925 40178 58020 7//44
  333 20027=
94857 45/// /0120 10127 20078 30107 40149 58020
  333 20066=
94859 46/// /0312 10088 20088
  333 20028=
94860 472// 80130 10075 20071 39530 40160 58036 7//44
  333 20060=
94863 46/// /0118 10125 20074 39854 40140 58025
  333 20033=
94864 45/// /0117 10137 20083 30075 40178 58012
  333 20001=
94866 41575 70125 10131 20081 30022 40166 58020 78082 8687/
  333 20044=
94868 41575 7//// 10146 20065 30130 40170 58017 78022 82270
  333 20076=
94870 457// 10118 10150 20075 30147 40162 58020
  333 20024=
94871 46/// /0315 10151 20067
  333 20076=
94872 45/// /3622 10103 20059
  333 20076=
94874 47/// /0417 10108 20080 30026 40199 58011 7//44
  333 20017=
94878 45/// /0307 10072 21351
  333 20032=

####018001049####
SNAU55 AMMC 100200
AAXX 10024
94755 45/// /0000 10142 20092 30171 40263 58028
  333 20028=
94759 46/// /0503 10154 20112
  333 20083=
94760 45/// /0000 10142 20100
  333 20054=
94762 45/// /3003 10146 20102
  333 20051=
94763 45/// /3602 10148 20106
  333 20064=
94765 45/// /0000 10144 20098 30250 40259 58031
  333 20050=
94766 45/// /0000 10151 20099
  333 20040=
94768 41665 7//// 10142 20110 30207 40256 58033 70522 81816
  333 20086=
94774 45/// /3606 10174 20121
  333 20089=
94775 47/// /1704 10159 20128 7//44
  333 20062=
94777 45/// /0604 10170 20117
  333 20049=
94780 46/// /0204=
94785 45/// /3404 10192 20102 30249 40266 58021
  333 20078=
94786 45/// /0104 10191 20114 30259 40265 58021
  333 20092=
94838 47/// /0221 10114 20105 30040 40134 58036 7//44
  333 20056=
94839 47/// /0213 10100 20100 30000 40161 58021 7//44
  333 20076=
94886 45/// /0410 10126 20071 30170 40174 58019
  333 20054=
94908 45/// /0113 10101 20038 39422 40245 53006
  333 21029=

####018000058####
SNAU45 AMMC 100200
AAXX 10024
95675 46/// /3327=

####018001513####
SNAU05 AMMC 100200
AAXX 10024
94691 NIL=
94693 41481 73619 10131 20106 30090 40155 58022 76062 874//
  333 20072=
94700 NIL=
94703 45/// /0216 10200 20077 30082 40213 58016
  333 20087=
94710 45/// /0316 10170 20089 39951 40215 58014
  333 20085=
94729 45/// /0311 10130 20059 39380 40266 58019
  333 20044=
94750 45/// /0000 10140 20094 30129 40257 58023
  333 20059=
94767 41672 80402 10162 20101 30251 40257 58032 70522 81107
  333 20083=
94776 455// 10105 10176 20122 30250 40261 58029
  333 20061=
94791 41582 21806 10191 20114 30259 40267 58016 70200 82831
  333 20094=
94842 47/// /0413 10118 20088 30021 40121 58028 7//44
  333 20087=
94865 457// 40224 10135 20075 30134 40159 58012
  333 20057=
94875 45/// /0215 10120 20075 30068 40209 58009
  333 20038=
94893 45/// /0215 10111 20072 30064 40182 58013
  333 20098=
94907 459// 30406 10108 20063 30190 40200 58004
  333 21004=
94910 41780 60308 10158 20064 39990 40252 51009 70222 81536
  333 20072=
94926 41570 72802 10107 20061 39576 40271 56019 70222 8265/
  333 20024=
94935 45/// /0111 10149 20088 30211 40239 56021
  333 20066=
94995 NIL=
95485 45/// /3416 10175 20094 39994 40207 51015
  333 20085=
95527 45/// /0415 10195 20063 39983 40247 58023
  333 20059=
95719 45/// /0314 10173 20068 39901 40247 56023
  333 20084=
95762 45/// /0205 10181 20063 39777 40253 58028
  333 20020=
95839 47/// /0129 10106 20094 39960 40122 56032 7//44
  333 20066=

####018001907####
SNAU51 AMMC 100200
AAXX 10024
94568 456// 81312 10203 20093 30220 40258 58022
  333 20057=
94569 457// 81712 10193 20148 30245 40250 58015
  333 20137=
94570 45/// /1907 10189 20142 30242 40250 58012
  333 20141=
94575 456// 81112 10207 20099 30235 40250 58021
  333 20092=
94576 46/// /1206 10202 20109 30241 40251 58022
  333 20128=
94580 45/// /1617 10210 20134 30249 40254 58013
  333 20149=
94581 46/// /1809=
94592 455// 11711 10202 20127 30254 40260 58012
  333 20141=
94594 47/// /1121 10195 20113 30126 40246 58013 7//44
  333 20152=
95283 475// 81310 10244 20207 30169 40176 58004 7//44
  333 20218=
95286 45/// /1412 10219 20168 39646 40189 58005
  333 20185=
95292 47/// /1708 10221 20188 30177 40199 58006 7//44
  333 20203=
95293 45/// /0906 10205 20125 39563 40209 58007
  333 20143=
95295 45/// /0708 10247 20148
  333 20160=
95296 45/// /1110 10237 20162 30190 40199 58010
  333 20169=
95351 47/// /0314 10210 20113 39882 40216 58007 7//44
  333 20072=
95367 456// 11414 10223 20163 30205 40212 58012
  333 20127=
95369 45/// /0807 10224 20155 30204 40216 58012
  333 20125=
95370 45/// /1208 10237 20160 30181 40215 58010
  333 20111=
95487 45/// /3517 10200 20110 30058 40196 50003
  333 20067=
95492 45/// /0117 10201 20108 30045 40205 58015
  333 20087=
95529 45/// /0709 10196 20098 39884 40250 58011
  333 20065=
95543 46/// /0914 10215 20118 30106 40240 58016
  333 20087=
95551 45/// /0923 10151 20103 39508 40260 58008
  333 20089=
95565 47/// /1214 10221 20108 30222 40237 58011 7//44
  333 20142=
95566 47/// /1204 10184 20133 7//44
  333 20121=
95572 46/// /2901 10190 20149 30186 40251 58015
  333 20145=
95573 45/// /0110 10190 20081
  333 20058=
95575 45/// /1108 10205 20103 30196 40255 58018
  333 20070=
95591 45/// /1810 10189 20129
  333 20136=

####018000399####
SNAU06 AMMC 100200
AAXX 10024
94850 455// 80426 10127 20080 30066 40111 58054
  333 20075=
94954 NIL=
94956 45/// /0216 10134 20063 30118 40145 56044
  333 20019=
94975 41680 80000 10112 20058 30171 40205 58031 70522 86831
  333 21008=
94983 45/// /0423 10145 20113 30195 40220 58025
  333 20111=
94998 41215 82528 10048 20038 30186 40196 50004 75152 886//
  333 20043=

####018001551####
SNAU59 AMMC 100200
AAXX 10024
94881 45/// /0319 10090 20048
  333 20044=
94889 45/// /0211 10129 20071 30040 40228 58006
  333 20015=
94891 41984 80704 10075 20055 30123 40192 58016 70322 8807/
  333 20012=
94892 46/// /0315 10127 20078 30146 40163 58027
  333 20084=
94894 45/// /0134 10007 20006
  333 21008=
94898 46/// /0210 10141 20067 30146 40163 58027
  333 20057=
94903 45/// /3521 10004 20003 38250 40246 50009
  333 21006=
94905 45/// /3322 10058 20013 38755 40269 53005
  333 21025=
94906 45/// /3634 10000 21003
  333 21014=
94912 459// 10808 10118 20054 30144 40205 58004
  333 20004=
94913 45/// /0410 10073 20020 39329 40225 56010
  333 20028=
94914 45/// /0308 10098 20044 39469 40227 56018
  333 20059=
94930 45/// /0606 10106 20041
  333 20072=
94933 45/// /0218 10147 20101 30220 40238 56020
  333 20097=
94949 45/// /0326 10140 20096 30048 40190 58015
  333 20107=
95704 459// 30113 10136 20082 30063 40228 51014
  333 20068=
95728 45/// /0310 10144 20067 39487 40254 58022
  333 20060=
95833 45/// /0311 10116 20075
  333 20054=
95835 47/// /0120 10104 20090 7//44
  333 20067=
95836 45/// /0314 10119 20070
  333 20045=
95837 45/// /0410 10141 20081
  333 20021=
95840 47/// /3630 10108 20102 39838 40111 56041 7//44
  333 20061=
95845 47/// /0000 10109 20070 39815 40128 56043 7//44
  333 20059=
95864 46/// /0121=
95866 455// 70126 10131 20078 30068 40164 58017
  333 20055=
95867 45/// /0218 10144 20070
  333 20028=

####018001044####
SNAU61 AMMC 100200
AAXX 10024
94953 45/// /0619 10125 20099 30147 40158 58038
  333 20105=
94955 46/// /0412 10105 20088 39845 40202 56033
  333 20063=
94957 45/// /3201 10056 20042 30082 40195 58041
  333 21021=
94959 45/// /0806 10093 20035
  333 21001=
94962 45/// /0305 10125 20025 39991 40170 58031
  333 20087=
94964 45/// /0709 10123 20060
  333 20004=
94967 41580 70218 10115 20050 30119 40187 58026 71522 8252/=
94969 46/// /3606 10140 20088
  333 20048=
94970 41580 73508 10128 20047 30140 40203 58029 71522 8683/
  333 20035=
94972 45/// /0516 10122 20092 39971 40213 58030
  333 20083=
94977 45/// /0315 10061 20039
  333 20022=
94980 455// 30326 10144 20104 30195 40207 58017
  333 20041=
94987 46/// /0215 10126 20094 30144 40213 58031
  333 20062=
95952 46/// /0341 10040 20033 38851 40148 58035
  333 20019=
95956 45/// /0528 10099 20083
  333 20077=
95957 455// 80416 10134 20097 30172 40187 58025
  333 20105=
95958 45/// /0108 10104 20052
  333 20025=

####018000928####
SNAU62 AMMC 100200
AAXX 10024
95959 47/// /0219 10050 20041 38969 40205 56016 7//44
  333 20028=
95960 45459 80417 10128 20113 30192 40204 56030
  333 20086=
95962 45/// /0311 10088 20048
  333 20017=
95964 45/// /0522 10131 20114 30197 40201 56030
  333 20065=
95966 455// 73512 10121 20084 30003 40210 58031
  333 20033=
95967 45/// /0518 10111 20058 30114 40188 58027
  333 20054=
95969 45/// /1104 10100 20088
  333 20018=
95972 45/// /1701 10092 20092
  333 21021=
95974 47/// /0310 10112 20095 7//44
  333 20033=
95977 45/// /1012 10132 20045
  333 21017=
95979 46/// /3628 10021 20021
  333 20007=
95981 47/// /0312 10125 20114 30166 40226 58024 7//44
  333 20062=
95985 45/// /0521 10137 20109 30193 40211 58028
  333 20113=
95986 47/// /0225 10098 20097 39917 40209 58028 7//44
  333 20088=
95988 45/// /0221 10131 20094 30168 40203 58035
  333 20090=

####018000477####
SNAU60 AMMC 100200
AAXX 10024
95872 46/// /3623=
95874 45/// /0214 10137 20079 30088 40169 58016
  333 20050=
95890 45/// /0608 10112 20071 30172 40194 58007
  333 20006=
95901 45/// /0313 10016 20009
  333 20001=
95913 45/// /3505 10116 20013
  333 20054=
95918 45/// /3404 10137 20077 30143 40220 55003
  333 20028=
95937 45/// /3604 10131 20103 30248 40254 58023
  333 20056=
95940 45/// /0205 10142 20115 30159 40262 58022
  333 20092=

####018000125####
SNVD45 KWNB 100200 RRF
BBXX
45022 10021 99454 70851 46/// /2301 10209 40170 90210 22200 00201
1//00 70001 333 91202=
####018000227####
SNVD22 KWNB 100200 RRH
BBXX
46023 10021 99347 71210 46/// /3208 10135 40133 56009 90150 22200
00141 11302 20401 3//// 41301 70010 333 91210 555 11084 22089
30119 43311 60149 321085 329086 337086 328085 329084 322082=
####018000109####
SNDL49 EDZW 100100 RRD
AAXX 10011
10857 42980 31702 10200 20134 39496 40205 51002 80001
  333 83075=
####018000109####
SNDL49 EDZW 100200 RRB
AAXX 10021
10837 42980 20000 10183 20157 39575 40205 50000 80001
  333 82078=
####018000094####
SMXX16 KAWN 100000 RRE
BBXX
SHIP 10004 99306 71298 41/98 80306 10195 40158 70222 22263=
####018000131####
SNVD20 KWNB 100200 RRH
BBXX
42085 10021 99179 70665 46/// /0607 10292 40160 52015 90200 22200
00295 10603 70013 333 91209=
####018000166####
SNVD20 KWNB 100200 RRI
BBXX
42085 10021 99179 70665 46/// /0607 10293 40159 90150 333 91209=
42085 10021 99179 70665 46/// /0607 10293 40157 90140 333 91209=
####018000253####
SNVD20 KWNB 100100 RRV
BBXX
42085 10011 99179 70665 46/// /0607 10293 40157 90130 22200 10602
70012 333 91209=
42085 10011 99179 70665 46/// /0607 10293 40157 90120 333 91208=
42085 10011 99179 70665 46/// /0606 10294 40158 90110 333 91207=
####018000147####
SNVD20 KWNB 100200 RRJ
BBXX
44029 10021 99425 70706 46/30 /1605 10220 40113 53005 90204 22200
00208 10802 70008 333 91206 555 11063 22071=
####018000568####
SNAA01 KARS 100200
AAXX 1002/
89332 46/// ///// 11341 38933 4//// 5////=
89828 46/// ///// 11694 36514 4//// 5////=
89108 46/// ///// 11626 36906 4//// 5////=
89768 46/// ///// 11294 38662 4//// 5////=
89872 46/// ///// 11296 39726 4//// 5////=
89377 46/// ///// 11345 39721 4//// 5////=
89869 46/// ///// 11288 39695 4//// 5////=
89376 46/// ///// 11384 39675 4//// 5////=
89324 46/// ///// 11274 37877 4//// 5////=
89329 46/// ///// 11309 38509 4//// 5////=
89799 46/// ///// 11626 4//// 5////=
89868 46/// ///// 11299 39709 4//// 5////=
####018000113####
SNVD15 KWNB 100200 RRH
BBXX
42021 10021 99283 70833 46/// /2703 10293 40146 90140 22200 00299
333 91203=
####018000089####
SNPS40 AMMC 100100 RRD
AAXX 10014
91642 46/// /2402 10281 40112 22200 00292=


####018005075####
SNSW23 LSSW 100200
AAXX 10024
06717 33/// /0905 10131 20066 37648 47227 58007
  333 91110 91207=
06621 33/// /1801 10190 20179 39694 40202 52002
  333 91105 91204=
06798 33/// /2703 10162 20092 38787 48587 50000
  333 91109 91205=
06659 33/// /2407 10161 20088 38002 48587 58003
  333 91110 91209=
06702 43/// ///// 10167 20131 38413 48583 57011=
06639 33/// /2404 10199 20111 38681 48587 50001
  333 91108 91206=
06628 33/// /1604 10202 20114 39050 48582 58000
  333 91109 91206=
06626 33/// /0000 10174 20160 39763 40207 52005
  333 91100 91200=
06636 33/// /0101 10183 20171 39657 40211 50005
  333 91103 91202=
06670 NIL=
06643 33/// /2302 10181 20169 39718 40208 52006
  333 91104 91203=
06610 33/// /1103 10190 20159 39643 40206 58000
  333 91109 91206=
06780 33/// /3203 10129 21008 37481 47230 58007
  333 91127 91215=
06748 33/// /2202 10153 20056 38453 48593 55001
  333 91105 91202=
06751 33/// /0101 10171 20063 38197 48585 58005
  333 91106 91202=
06620 33/// /0802 10184 20153 39699 40207 52003
  333 91103 91202=
06750 33/// /0106 10156 20033 37834 48590 57004
  333 91112 91207=
06646 33/// /0000 10181 20181 39828 40209 52006
  333 91102 91201=
06711 33/// /0303 10234 20175 39674 40191 58005
  333 91107 91204=
06792 33/// /2001 10094 20076 38383 48595 57003
  333 91103 91203=
06664 33/// /3401 10171 20161 39692 40208 50003
  333 91101 91201=
06770 33/// /3602 10235 20198 39857 40202 58001
  333 91103 91202=
06650 33/// /2502 10198 20157 39680 40203 52005
  333 91104 91202=
06700 NIL=
06601 33/// /1101 10203 20167 39834 40201 50002
  333 91106 91204=
06679 33/// /0000 10165 20152 39585 40208 52001
  333 91102 91201=
06735 33/// /3101 10173 20109 38763 48586 52001
  333 91104 91202=
06645 33/// /1502 10229 20141 39505 48577 58001
  333 91104 91203=
06673 33/// /2104 10204 20153 39646 40202 52004
  333 91105 91204=
06672 33/// /1802 10187 20143 39703 40210 51008
  333 91104 91202=
06786 33/// /0000 10195 20144 39575 40211 52003
  333 91106 91204=
06727 33/// /1101 10155 20141 39483 48560 52007
  333 91103 91202=
06619 33/// /3302 10185 20136 38881 48581 57005
  333 91104 91203=
06609 33/// /1201 10177 20062 38122 48585 58006
  333 91104 91202=
06794 33/// /0602 10165 20128 39016 48579 58011
  333 91106 91204=
06760 33/// /0302 10234 20197 39774 40200 58003
  333 91103 91203=
06685 33/// /1001 10198 20133 39615 40207 52002
  333 91104 91202=
06712 33/// /1702 10187 20160 39763 40206 58001
  333 91106 91204=
06689 33/// /0905 10214 20103 38954 48583 52000
  333 91111 91208=
06604 33/// /0701 10222 20153 39646 40197 50002
  333 91105 91203=
06787 33/// /0000 10145 20108 39114 48574 58002
  333 91103 91201=
06724 33/// /0402 10151 20107 38664 48586 58000
  333 91103 91203=
06759 33/// /3602 10160 20160 38422 48584 57005
  333 91106 91206=
06783 33/// /0000 10125 20064 38448 48589 57006
  333 91102 91201=
06680 33/// /0702 10143 21069 37645 47234 57005
  333 91107 91206=
06720 33/// /3401 10189 20146 39655 40210 52006
  333 91104 91203=
06782 33/// /2902 10181 20107 38893 48584 57005
  333 91104 91202=
06660 33/// /3001 10205 20162 39566 40199 50003
  333 91102 91202=
06734 33/// /2101 10194 20133 39549 40208 52007
  333 91104 91203=
06612 33/// /0801 10171 20138 39076 48575 58006
  333 91102 91201=
06730 43/// /1605 10056 21023 36713 47232 58008
  333 91109 91207=
06704 33/// /3202 10184 20155 39428 57006
  333 91110 91206=
06631 33/// /2002 10176 20156 39574 40211 50005
  333 91104 91203=
06669 43/// /0303 10230 20141 39249 48574 50001
  333 91109 91208=
06771 33/// /2201 10200 20188 39799 40207 58002
  333 91103 91202=
06605 33/// /2806 10179 20137 38490 48586 57004
  333 91117 91214=
06722 33/// /0504 10158 20069 38265 48590 57004
  333 91109 91205=
06990 33/// /0000 10185 20161 39677 40205 52003
  333 91104 91202=
06784 33/// /0000 10134 20055 38493 48589 58006
  333 91103 91202=
06788 33/// /0000 10094 20062 38474 48593 57004
  333 91102 91202=
06747 43/// /1602 10119 21005 37294 47231 58008
  333 91106 91203=
06762 33/// /0000 10210 20205 39965 40203 50000
  333 91102 91202=
06633 33/// /0000 10172 20159 39757 40209 52006
  333 91104 91203=
06744 33/// /2508 10153 20023 38143 48596 58003
  333 91111 91210=
06616 33/// /1301 10212 20138 39522 40198 57002
  333 91107 91205=
06705 33/// /3203 10214 20160 39675 40199 57005
  333 91108 91205=
06745 33/// /1001 10111 20096 38743 48582 50000
  333 91104 91203=
06756 33/// /3203 10193 20176 39553 40210 57002
  333 91105 91203=
06791 33/// /3304 10089 21011 36940 47231 56006
  333 91108 91207=
06666 33/// /1701 10174 20167 39807 40206 52005
  333 91102 91201=
06753 33/// /2601 10175 20147 39110 48580 57003
  333 91105 91202=
06681 33/// /1803 10212 20125 39328 48575 57001
  333 91103 91203=
06655 33/// /1003 10174 20098 39059 48578 50003
  333 91104 91203=
####018000071####
SNAA14 KARS 100100 RRA
AAXX 10014
89528 46/// /0249 4//// 5////=
####018000262####
SNVD20 KWNB 100100 RRW
BBXX
44037 10011 99435 70679 46/14 /1604 10189 40136 57003 90104 22200
00179 10802 70010 333 91205 555 11049 22057=
44024 10011 99423 70659 46/26 /1606 10197 40165 57004 90104 22200
00169 10802 70011 333 91207 555 11085 22097=
####018001514####
SMBM01 VBRR 100000 RRA
AAXX 10024
48001 NIL=
48004 31110 70000 10256 20256 71022 87900 333 20249 56500=
48008 21456 80000 10248 20248 40036 75055 8497/ 333 20242 56459 59021=
48010 32550 60000 10270 20263 40033 83830 333 20230 56560 59009=
48018 21340 80000 10265 20256 40040 70295 8497/ 333 20178 56599 58007=
48019 21458 80000 10250 20250 40051 75166 8577/ 333 20242 56459 59016=
48020 NIL=
48025 NIL=
48035 31560 80000 10240 20226 40049 70522 8597/ 333 20224 56449 58000=
48037 32558 61801 10278 20250 40030 83830 333 20260 56650 59008=
48042 32558 61802 10275 20250 40038 84850 333 20270 56440 59008=
48045 NIL=
48048 NIL=
48053 22450 71803 10250 20233 40054 84551 333 20244 56499 59003=
48057 22339 72201 10189 20175 85870 333 20183 56690=
48060 32420 70000 10249 20219 40057 84930 333 20242 56560 59005=
48062 21348 80904 10260 20260 40058 76366 8692/ 333 20225 56490 59020=
48071 NIL=
48077 21557 70000 10260 20229 40044 70262 85930 333 20230 56990 59010=
48078 22430 72301 10257 20247 40079 8477/ 333 20245 56499 59003=
48080 21560 60000 10250 20233 40083 70155 84870 333 20240 56590 58001=
48094 32456 70000 10255 20250 40071 70365 85970 333 20248 56990 59011=
48097 32456 82701 10260 20253 40082 86339 333 20260 56699 58004=
48108 22495 80000 10240 20240 40091 84877 333 20230 56189 59003=
48109 NIL=
48110 21591 81302 10240 20240 40094 74055 81307 333 20235 56909 59003=
48112 21597 62701 10264 20246 40093 70152 82816 333 20220 56699 59013=

####018001511####
SMBM01 VBRR 100000 RRA
AAXX 10024
48001 NIL=
48004 31110 70000 10256 20256 71022 87900 333 20249 56500=
48008 21456 80000 10248 20248 40036 75055 8497/ 333 20242 56459 59021=
48010 32550 60000 10270 20263 40033 83830 333 20230 56560 59009=
48018 21340 80000 10265 20256 40040 70295 8497/ 333 20178 56599 58007=
48019 21458 80000 10250 20250 40051 75166 8577/ 333 20242 56459 59016=
48020 NIL=
48025 NIL=
48035 31560 80000 10240 20226 40049 70522 8597/ 333 20224 56449 58000=
48037 32558 61801 10278 20250 40030 83830 333 20260 56650 59008=
48042 32558 61802 10275 20250 40038 84850 333 20270 56440 59008=
48045 NIL=
48048 NIL=
48053 22450 71803 10250 20233 40054 84551 333 20244 56499 59003=
48057 22339 72201 10189 20175 85870 333 20183 56690=
48060 32420 70000 10249 20219 40057 84930 333 20242 56560 59005=
48062 21348 80904 10260 20260 40058 76366 8692/ 333 20225 56490 59020=
48071 NIL=
48077 21557 70000 10260 20229 40044 70262 85930 333 20230 56990 59010=
48078 22430 72301 10257 20247 40079 8477/ 333 20245 56499 59003=
48080 21560 60000 10250 20233 40083 70155 84870 333 20240 56590 58001=
48094 32456 70000 10255 20250 40071 70365 85970 333 20248 56990 59011=
48097 32456 82701 10260 20253 40082 86339 333 20260 56699 58004=
48108 22495 80000 10240 20240 40091 84877 333 20230 56189 59003=
48109 NIL=
48110 21591 81302 10240 20240 40094 74055 81307 333 20235 56909 59003=
48112 21597 62701 10264 20246 40093 70152 82816 333 20220 56699 59013=
####018000095####
SMLJ21 LJLM 100000 CCA
AAXX 10001
14015 12982 00000 10197 29092 39877 40224 52005 60001=
####018000109####
SNDL49 EDZW 100200 RRC
AAXX 10021
10857 42980 41902 10191 20137 39493 40204 58002 80001
  333 84074=
####018000089####
SILJ21 LJLM 092100 RRB
AAXX 09211
14015 42981 00000 10227 29056 39875 40216 52016=
####018000238####
SNHK22 VHHH 100215
AAXX 10021
45032 36/// /2502 10306 20251 30085 40101 52001=
45035 36/// /2205 10304 20244 30060 40101 54000=
45039 36/// /2105 10309 20244 30083 40097 52003=
45044 36/// /2503 10269 20267 30012 40103 54000=
####018000241####
SNHK22 VHHH 100215
AAXX 10021
45032 36/// /2502 10306 20251 30085 40101 52001=
45035 36/// /2205 10304 20244 30060 40101 54000=
45039 36/// /2105 10309 20244 30083 40097 52003=
45044 36/// /2503 10269 20267 30012 40103 54000=

####018000099####
SNPF80 KWBC 100200 RRB
AAXX 10024
91948 26/// ///// 10204 20145 30118 40223 55000 333 60005=
####018000262####
SNVD20 KWNB 100200 RRK
BBXX
44030 10021 99432 70704 46/// /1707 10191 40117 53005 90204 22200
00171 10502 70011 333 91208 555 11088 22099=
44032 10021 99437 70694 46/03 /1707 10185 40114 55000 90204 22200
00167 10401 70007 333 91208 555 11095 22105=
####018000200####
SNVD15 KWNB 100100 RRX
BBXX
42021 10011 99283 70833 46/// /2903 10293 40144 90120 22200 00300
333 91203=
42021 10011 99283 70833 46/// /2803 10294 40143 53009 90100 22200
00301 333 91203=
####018000387####
SNAL51 DAMM 100200
AAXX 10024
AAXX 10021
60370 46/// /3602 10235 20205=
60371 46/// /0000 10235 20201=
60372 46/// /2803 10258 20141=
60373 NIL=
60374 NIL=
60376 NIL=
60379 NIL=
60380 NIL=
60381 NIL=
60393 NIL=
60394 NIL=
60593 NIL=
60595 NIL=
60605 NIL=
60613 NIL=
60623 NIL=
AAXX 10024
60624 46/// /0909 10338 21025=
60639 NIL=
60645 NIL=
####018001531####
SMBM01 VBRR 100000 RRA
AAXX 10024
48001 NIL=
48004 31110 70000 10256 20256 71022 87900 333 20249 56500=
48008 21456 80000 10248 20248 40036 75055 8497/ 333 20242 56459
59021=
48010 32550 60000 10270 20263 40033 83830 333 20230 56560 59009=
48018 21340 80000 10265 20256 40040 70295 8497/ 333 20178 56599
58007=
48019 21458 80000 10250 20250 40051 75166 8577/ 333 20242 56459
59016=
48020 NIL=
48025 NIL=
48035 31560 80000 10240 20226 40049 70522 8597/ 333 20224 56449
58000=
48037 32558 61801 10278 20250 40030 83830 333 20260 56650 59008=
48042 32558 61802 10275 20250 40038 84850 333 20270 56440 59008=
48045 NIL=
48048 NIL=
48053 22450 71803 10250 20233 40054 84551 333 20244 56499 59003=
48057 22339 72201 10189 20175 85870 333 20183 56690=
48060 32420 70000 10249 20219 40057 84930 333 20242 56560 59005=
48062 21348 80904 10260 20260 40058 76366 8692/ 333 20225 56490
59020=
48071 NIL=
48077 21557 70000 10260 20229 40044 70262 85930 333 20230 56990
59010=
48078 22430 72301 10257 20247 40079 8477/ 333 20245 56499 59003=
48080 21560 60000 10250 20233 40083 70155 84870 333 20240 56590
58001=
48094 32456 70000 10255 20250 40071 70365 85970 333 20248 56990
59011=
48097 32456 82701 10260 20253 40082 86339 333 20260 56699 58004=
48108 22495 80000 10240 20240 40091 84877 333 20230 56189 59003=
48109 NIL=
48110 21591 81302 10240 20240 40094 74055 81307 333 20235 56909
59003=
48112 21597 62701 10264 20246 40093 70152 82816 333 20220 56699
59013=
