####018000101####
SNAU03 AMMC 092000 CCA
AAXX 09204
94651 45/// /3017 10097 20064 30021 40097 53028 92030=


####018000107####
SNAU03 AMMC 092000 RRC
AAXX 09204
94659 473// 83316 10102 20094 39937 40139 53034 7//44 92030=


####018000101####
SNAU02 AMMC 092000 RRB
AAXX 09204
94131 45/// /1605 10188 20161 39987 40144 55000 92030=


####018000101####
SNAU03 AMMC 092000 CCB
AAXX 09204
94651 45/// /3017 10097 20064 30021 40097 53028 92030=


####018000071####
SALY31 HLLT 092030
METAR HLLT 092020Z 
06004KT CAVOK 24/21 Q1018=
####018000101####
SNAU03 AMMC 092000 RRD
AAXX 09204
95481 45/// /0310 10088 20073 30119 40166 56020 92030=


####018000107####
SNAU03 AMMC 092000 RRE
AAXX 09204
95666 47/// /3514 10116 20107 30114 40130 51033 7//44 92030=


####018000101####
SNAU02 AMMC 092000 RRC
AAXX 09204
94248 45/// /1315 10198 20152 30144 40159 52004 92030=


####018000157####
SMDL44 EDZW 091800 CCA
AAXX 09181
10028 12680 41004 10273 20198 30153 40166 56008 60002 81532
  333 10321 20191 30020 55301 20465 30389 81645 83360=
####018000095####
SNAA14 EGRR 091900 RRC
AAXX 09194
89257 46/// /1403 11340 21375 39863 49942 52004 91930=
####018000095####
SNAA14 EGRR 091900 RRD
AAXX 09194
89272 46/// /0406 11198 21221 37979 49653 57002 91930=
####018000095####
SNAA14 EGRR 091900 RRB
AAXX 09194
89266 46/// /1616 11247 21271 39751 49901 52001 91930=
####018000108####
SNAA01 SBBR 092000
AAXX 09204
89252 26/// /0805 11060 21062 39689 49711 52017 7//// 8//// 333  69935=
####018000101####
SNAU03 AMMC 092000 CCC
AAXX 09204
94651 45/// /3017 10097 20064 30021 40097 53028 92030=


####018000113####
SNAU02 AMMC 092000 RRD
AAXX 09204
94150 41480 11507 10227 20221 30076 40137 52002 70200 81800 92030=


####018000113####
SNAU03 AMMC 092000 RRF
AAXX 09204
94461 41482 62106 10117 20057 39470 40164 51011 70222 81672 92030=


####018000101####
SNAU02 AMMC 092000 RRE
AAXX 09204
95111 45/// /0000 10190 20178 30098 40131 56006 92030=


####018000107####
SNAU03 AMMC 092000 RRG
AAXX 09204
95458 47/// /0000 10112 20103 39872 40141 51012 7//44 92030=


####018000107####
SNAU02 AMMC 092000 RRF
AAXX 09204
94462 475// 82007 10133 20100 39578 40154 51016 7//44 92030=


####018000107####
SNAU02 AMMC 092000 RRG
AAXX 09204
94238 41982 00807 10143 20085 39726 40163 56006 70200 92030=


####018000119####
SMRA16 RUHB 091800 CCA
AAXX 09181
25913 12398 82905 10118 20110 30031 40171 52004 69930 886// 333 10129
91111=
####018000113####
SIRA26 RUHB 091500 CCA
AAXX 09151
25913 /2398 82905 10119 20111 30027 40167 53004 886// 333 10129
91111=
####018000113####
SNAU02 AMMC 092000 RRH
AAXX 09204
94120 41980 31406 10224 20199 30090 40130 56002 70200 80001 92030=


####018000085####
SNAA01 KWBC 092000
AAXX 09201
89062 46/// /2804 11060 21125 39710 49751 57007=
####018000142####
SNAA14 EGRR 092000
AAXX 09204
89020 46/// /9901 11412 21455 39934 49975 52003 91940=
89087 46/// /0000 11433 21465 38002 49945 52001=
####018000221####
SNVD15 KWNB 092000 RRK
BBXX
41035 09201 99345 70773 46/// /1907 10277 20246 40106 92020 22200
00275 10801 312// 40801 70004 333 91208 555 11073 22078 32014
41908 62019 187068 187066 189067 188061 185055 181052=
