####018000152####
SNAA01 KWBC 092000 RRA
AAXX 09204
89065 46/// /2002 11178 21193 39712 49794 57004 91950=
89065 46/// /2002 11178 21193 39712 49794 57004 91950=
####018000752####
SIAA14 EGRR 092100 RRA
AAXX 09214
89108 46/// /0118 11622 36828 4//// 5//// 92110=
89269 46/// /2216 11076 39703 49713 5//// 92130=
89314 46/// /1031 11326 38030 4//// 5//// 92120=
89324 46/// /1821 11350 37902 4//// 5//// 92110=
89329 46/// /0419 11338 38537 49688 5//// 92110=
89332 46/// /1115 11376 38996 49673 5//// 92110=
89376 46/// /13// 11378 39701 49777 5//// 92110=
89667 46/// /1221 11242 39802 49813 5//// 92120=
89744 46/// /0205 11544 36295 4//// 5//// 92120=
89769 46/// /2022 11291 39741 49798 5//// 92110=
89868 46/// /2010 11330 39728 49803 5//// 92110=
89869 46/// /3008 11304 39739 49825 5//// 92110=
89872 46/// /1923 11281 39726 49787 5//// 92120=
89873 46/// /2206 11303 39714 49799 5//// 92120=
####018000118####
SNAC01 KWNB 092200
OOXX
ACSAMS02 09221 99784 70729 26082 01301 46/// /1907 10019 20008 39919
92201 333 91214=
####018001293####
SNVD17 KWNB 092200 RRA
BBXX
46066 09221 99527 71550 46/// ///// 10079 40045 52026 92150 22200
00081 10605 70025 555 83600 92059=
46001 09221 99563 71480 46/// /0904 10095 40073 56003 92150 22200
00094 10704 20402 300// 40704 70020 333 91207 555 11046 22049
32104 40909 62149 092044 094041 095043 090046 088055 088052=
46082 09221 99597 71434 46/// /1004 10109 40142 52003 92150 22200
00120 10902 20401 300// 40902 70011 333 91205 555 11041 22042
32059 41005 62149 100039 101040 108039 104038 097039 106040 81004
92131=
46081 09221 99608 71483 46/// /0000 10095 40137 57004 92150 22200
00114 1//00 70000 333 91201 555 11005 22005 32149 41101 62149
096004 180001 180001 180001 180000 180000=
46035 09221 99571 71778 46/// /3611 10075 40059 54000 92150 22200
10906 20604 300// 40905 70032 333 91213 555 11113 22121 32145
43613 62149 004112 007106 005102 003099 007098 013101 80112 92148=
51101 09221 99243 71621 46/// /0808 10253 40207 54000 92150 22200
00258 10703 20703 309// 41202 70016 555 11090 22095 32127 40911
62149 081084 081084 078081 078073 072067 075072=
46061 09221 99602 71468 46/// /0104 10098 40136 54000 92150 22200
00130 10902 300// 40902 70008 333 91204 555 11037 22038 32057
40105 62149 013036 009037 013034 009038 012040 013041=
####018000710####
SNVD15 KWNB 092200 RRE
BBXX
41040 09221 99145 70530 46/// /0808 10286 40144 55000 92150 22200
00290 10704 20703 300// 41102 70021 333 91209 555 11081 22086
32103 40710 62149 077075 076073 080080 077079 077079 075076 80809
92103=
42001 09221 99259 70897 46/// /0804 10289 20242 40141 56025 92150
22200 00303 10601 3//// 40601 70003 333 91204 555 11036 22037
32117 40605 62149 078036 057033 058035 066040 066039 071037=
41010 09221 99289 70785 46/// /2405 10288 20216 40143 58009 92150
22200 00290 10401 20401 300// 40801 70007 333 91206 555 11053
22056=
41009 09221 99285 70802 46/// /1902 10291 20185 40146 56015 92150
22200 00287 10801 300// 40801 70004 333 91203 555 11025 22029=
####018000434####
SNVD20 KWNB 092200 RRD
BBXX
44017 09221 99407 70720 46/// /1003 10245 20239 40119 57023 92150
22200 00245 10802 20301 300// 40802 70012 333 91203 555 11026
22028 32126 41104 62149 104026 106031 104035 109032 114035 115032=
44025 09221 99403 70732 46/// /1304 10251 20231 40111 57025 92150
22200 00253 10802 20401 316// 40802 70012 333 91205 555 11043
22045 32058 41405 62149 132041 136041 138039 142044 135046 134043=
####018001411####
SNVD22 KWNB 092200 RRB
BBXX
46026 09221 99378 71228 46/// /2804 10118 40154 58004 92150 22200
00121 11302 20401 319// 41302 70009 333 91205 555 11041 22043
32122 42805 62149 275039 277041 277043 274040 273039 272036=
46086 09221 99325 71180 46/// /2906 10157 40137 58008 92150 22200
00174 11302 20401 320// 41302 70011 333 91207 555 11063 22066
32130 42908 62149 288060 288059 295064 290060 286058 285064=
46089 09221 99459 71258 46/// /3408 10169 40182 53006 92150 22200
00161 10703 20703 3//// 41402 70016 333 91210 555 11085 22093
32117 43411 62149 341079 339083 336088 338091 339089 342084 83410
92116=
46041 09221 99474 71247 46/// /3204 10153 40170 53004 92150 22200
00141 10703 20301 3//// 40703 70013 333 91205 555 11048 22056
32143 43205 62149 318043 317045 316043 318041 315041 314040=
46041 09221 99474 71247 46/// /3204 10153 40170 92150 22200 00141
10703 20301 3//// 40703 70013 333 91205 555 11048 22056 32143
43205 62149 318043 317045 316043 318041 315041 314040=
46011 09221 99349 71209 46/// /3105 10133 40141 57010 92150 22200
00129 10802 20501 329// 40802 70009 333 91206 555 11052 22057
32055 43307 62149 314048 320053 321055 322054 324055 325058=
46042 09221 99368 71224 46/// /3106 10132 30149 40149 58007 92150
22200 00129 11402 20501 319// 41402 70011 333 91207 555 11061
22066 32146 43107 62149 314057 317053 319053 318052 320048 319049=
####018000881####
SNVD45 KWNB 092200 RRD
BBXX
45008 09221 99443 70824 46/// /1801 10200 39916 40126 58010 92150
22200 00189 1//00 70002 333 91201 555 11013 22016 32144 41901
62149 183011 192010 195008 195004 198005 264010=
45012 09221 99436 70774 46/// /0101 10213 30006 40095 58004 92150
22200 00225 10301 20301 70003 333 91202 555 11011 22012 32100
43006 62149 002011 350021 331032 319044 326037 272043=
45022 09221 99454 70851 46/// /3302 10207 40160 58010 92200 22200
00197 1//00 70002 333 91203=
45002 09221 99453 70864 46/// /2103 10217 20191 39924 40134 56014
92150 22200 00210 1//00 70001 333 91204 555 11037 22043 32050
42004 62149 209034 213036 212036 214036 210038 204036=
45001 09221 99481 70878 46/// /2905 10158 39917 40137 57007 92150
22200 00113 10301 20301 70003 333 91205 555 11056 22067 32125
43311 62149 287048 291066 308062 242046 238048 235047=
####018000350####
SNVE15 KWNB 092200 RRA
BBXX
51002 09221 99171 71578 46/// /0708 10249 40160 58004 92150 22200
00254 10803 20602 3//// 40803 70017 333 91209 555 11084 22089
32139 40709 62149 070079 073077 073074 071074 071074 071074=
51100 09221 99236 71539 46/// ///09 10245 40202 58005 92150 22200
00248 10704 20703 308// 41102 70018 555 11093 22099=
####018000093####
SAYE20 OYSC 092100 CCA
METAR OYDM 092100Z 27008KT 9999 TSRA FEW020CB SCT030 14/11 Q////=
####018000241####
SNHK22 VHHH 092200
AAXX 09221
45032 36/// /2301 10264 20245 30072 40088 57001=
45035 36/// /1903 10271 20239 30047 40088 52004=
45039 36/// /2701 10289 20244 30068 40082 52001=
45044 36/// /2202 10267 20258 39997 40088 52002=

####018000238####
SNHK22 VHHH 092200
AAXX 09221
45032 36/// /2301 10264 20245 30072 40088 57001=
45035 36/// /1903 10271 20239 30047 40088 52004=
45039 36/// /2701 10289 20244 30068 40082 52001=
45044 36/// /2202 10267 20258 39997 40088 52002=
####018000089####
SNPS40 AMMC 092000 RRG
AAXX 09204
91375 46/// /0305 10273 40117 22200 00282=


####018001135####
SNCN19 CWAO 092101
OOXX
CAP14 09181 99486 71234 ///// //201
     26/// /0903 10278 29038 30133 91850 333 60000=
CAP14 09191 99486 71234 ///// //201
     26/// /1003 10278 29042 30134 91900 333 60000=
CAP14 09191 99486 71234 ///// //201
     26/// /1203 10278 29040 30133 91910 333 60000=
CAP14 09191 99486 71234 ///// //201
     26/// /1103 10279 29037 30134 91920 333 60000=
CAP14 09191 99486 71234 ///// //201
     26/// /1003 10281 29035 30133 91930 333 60000=
CAP14 09191 99486 71234 ///// //201
     26/// /1004 10279 29035 30133 91940 333 60000=
CAP14 09191 99486 71234 ///// //201
     26/// /0903 10282 29037 30131 91950 333 60000=
CAP14 09201 99486 71234 ///// //201
     26/// /1003 10279 29035 30132 92000 333 60000=
CAP14 09201 99486 71234 ///// //201
     26/// /1103 10283 29039 30131 92010 333 60000=
CAP14 09201 99486 71234 ///// //201
     26/// /1103 10279 29037 30131 92020 333 60000=
CAP14 09201 99486 71234 ///// //201
     26/// /1203 10278 29037 30131 92030 333 60000=
CAP14 09201 99486 71234 ///// //201
     26/// /1103 10281 29037 30130 92040 333 60000=

####018000087####
SIVX81 EDZW 092100
BBXX
BSH03 09211 99540 10081 46/// /////
22200 10701 70003=
####018000452####
SIVD15 KWNB 092100 RRT
BBXX
42369 09211 99272 70903 46/// /0701 10287 92100 22200 10501 70005=
42370 09211 99273 70905 46/// ///02 10290 92100 22200 10401 70005=
42374 09211 99289 70881 46/// ///02 10306 40142 58016 92100=
42376 09211 99291 70879 46/// /2404 10287 40132 58017 92100 22200
10201 70005=
42392 09211 99272 70900 46/// ///// 1//// 92100 22200 10401 70005=
41037 09211 99340 70775 46/// /2206 10283 40107 92100 333 91208=
####018000093####
SNRE15 FMEE 092200
AAXX 09224
61998 26/// /2616 10040 21004 40100
  333 58121 60005=
####018000458####
SNIY21 LIIB 092200
AAXX 09224
16022 42970 00304 10160 20116 37979 48591 53004=
16052 42962 02403 10080 21032 36796 47244 52005=
16061 42965 01303 10242 20188 39393 42843 51003=
16098 42960 00000 10234 20203 30157 40206 52010=
16179 42982 01803 10234 20067 39550 42850 51008=
16224 42962 02304 10238 20221 39879 40184 51007=
16258 42960 03209 10164 20079 39240 42838 5////=
16344 42962 03004 10120 20120 38377 48555 54000 333 95000 95100=
####018000845####
SNIY20 LIIB 092200
AAXX 09224
16008 42965 00000 10182 20133 38621 48581 52011=
16088 NIL=
16110 42997 00601 10236 20193 30199 40203 51005 555 0////=
16134 42984 03203 10156 20074 37940 48594 54000=
16153 42998 00000 10278 20211 39950 40202 54000 555 0////=
16206 42970 00407 10264 20205 30174 40182 51010=
16219 NIL=
16280 41996 03105 10238 20230 39978 40191 53005 71000 555 0////=
16310 42998 00000 10226 20159 39970 40184 54000 555 0////=
16360 42998 03614 10214 20168 30045 40176 51006 555 0////=
16400 NIL=
16420 42998 00000 10254 20209 30121 40184 51002 555 0////=
16429 42962 00203 10272 20252 30180 40191 51007=
16470 NIL=
16480 42997 03003 10256 20247 30117 40176 52007 555 0////=
16522 42997 00209 10252 20184 39958 40192 51002 555 0////=
16550 42998 02102 10264 20261 30010 40182 52007 555 0////=
####018000124####
SNVD02 CWAO 092200
BBXX
VOPP 09224 99452 70741 46/// /0801 10233 20218 40006 58005 7//// 8//// 22200 0//// 2//// =

####018000124####
SNVD02 CWAO 092200
BBXX
CGBR 09224 99526 71288 46/// /1908 10159 20128 40186 51009 7//// 8//// 22271 00162 2//// =

####018000126####
SNVD02 CWAO 092200
BBXX
CG2965 09224 99492 71235 46/// /2909 10221 20176 40142 56012 7//// 8//// 22271 00184 2//// =

####018000124####
SNVD02 CWAO 092200
BBXX
CGDX 09224 99626 70697 46/// /2003 10055 20047 40054 56003 7//// 8//// 22241 00033 2//// =

####018000126####
SNVD02 CWAO 092200
BBXX
CG2522 09224 99619 71135 46/// /2410 10098 20068 49928 50001 7//// 8//// 22282 00089 2//// =

####018000126####
SNVD02 CWAO 092200
BBXX
CG2992 09224 99694 71337 46/// /2917 10175 20081 40106 53004 7//// 8//// 22251 0//// 2//// =

####018000124####
SNVD02 CWAO 092200
BBXX
CGHL 09224 99618 70662 46/// /1016 10036 20028 40051 55002 7//// 8//// 22222 0//// 2//// =

####018000124####
SNVD02 CWAO 092200
BBXX
CGDT 09224 99641 70799 46/// /0710 10034 20032 40042 58003 7//// 8//// 22232 00032 2//// =

####018000126####
SNVD02 CWAO 092200
BBXX
VC6750 09224 99609 71157 46/// /0707 10165 20091 49946 58003 7//// 8//// 22200 0//// 2//// =

####018000124####
SNVD02 CWAO 092200
BBXX
CGBN 09224 99476 70527 46/// /2415 10238 20163 40119 55003 7//// 8//// 22200 0//// 2//// =

####018000124####
SNVD02 CWAO 092200
BBXX
CGTF 09224 99637 70685 46/// /1413 10065 20057 40061 56005 7//// 8//// 22200 0//// 2//// =

####018000121####
SNVD02 CWAO 092200
BBXX
V 09224 99476 70527 46/// /2511 10247 20188 40118 55002 7//// 8//// 22200 0//// 2//// =

####018000124####
SNVD02 CWAO 092200
BBXX
CGDG 09224 99439 70590 46/// /2218 10185 20184 40202 58005 7//// 8//// 22200 0//// 2//// =

####018000124####
SNVD02 CWAO 092200
BBXX
CGDP 09224 99507 71275 46/// /0704 10182 20114 40189 5//// 7//// 8//// 22200 0//// 2//// =

####018000127####
SNVD02 CWAO 092200
BBXX
CFN3031 09224 99461 70731 46/// /0808 10216 20203 40078 58008 7//// 8//// 22213 00246 2//// =

####018000126####
SNVD02 CWAO 092200
BBXX
CG2350 09224 99421 70831 46/// /3508 10277 20120 49922 56003 7//// 8//// 22200 0//// 2//// =

####018001973####
SNRO41 YRBK 092200
AAXX 09221
15015 22997 22701 10157 20130 39633 42847 50004 82040 333 60005 91001
91103=
15020 22997 43103 10190 20147 30007 40199 50000 80008 333 60005 91006
91106=
15090 22597 83303 10206 20159 30058 40179 50001 85507 333 55300 10114
2////
3//// 60005 91006 91107=
15108 21/91 92902 10078 20078 38167 48569 53004 74544 333 60005=
15120 22997 02402 10164 20162 39730 40213 52005 333 55300 10187 2////
3////
60005 91003 91103=
15150 22997 53305 10201 20156 39969 40186 55002 85030 333 60005 91008
91109=
15170 23/// /0000 10131 20126 39438 42830 50004 333 60005 91001
91102=
15200 22998 03302 10201 20145 30062 40201 50002 333 60005 91003
91103=
15230 22997 02402 10165 20161 39920 40207 50005 333 55300 10161 2////
3////
60005 91002 91102=
15260 22998 32504 10166 20145 39682 40203 50001 83070 333 60005 91005
91106=
15280 21/90 90216 10049 20049 37572 47129 51003 74544 333 60005
91024=
15292 22998 33402 10190 20157 39918 40203 50005 83030 333 60005 91003
91103=
15310 22597 73604 10191 20176 30072 40155 57002 84570 333 55300 10077
20001
3//// 60005 91007 91107=
15335 22997 83603 10205 20194 30145 40151 50000 8807/ 333 60005 91005
91106=
15346 22997 00400 10182 20146 39903 40183 51010 333 60005 91002
91102=
15350 22597 61002 10212 20164 30052 40166 55011 86300 333 60005 91007
91107=
15360 22997 73505 10213 20200 30120 40134 50003 87070 333 60005 91007
91111=
15410 22997 00701 10213 20156 30090 40182 52006 333 60005 91001
91104=
15420 22997 52902 10172 20167 30072 40179 52003 85030 333 60005 91002
91102=
15450 22997 50303 10210 20149 39948 40174 51009 82041 333 55300 10174
2////
3//// 60005 91004 91104=
15460 22597 82901 10183 20177 30134 40157 58003 8657/ 333 60005 91003
91103=
15470 23/// /1003 10213 20177 30053 40174 51014 333 60005 91004
91104=
15480 21597 83603 10211 20190 30124 40140 50004 78022 889// 333 69905
91008
91108=
####018000085####
SIPS40 AMMC 092100
AAXX 09214
91844 46/// /0608 10256 40197 22200 00250=


####018000093####
SNRE15 FMEE 092200
AAXX 09224
61996 26/// /2712 10109 20098 40233
  333 59024 60005=
####018000124####
SNVD02 CWAO 092200
BBXX
CGJK 09224 99525 71406 46/// /2320 10105 20102 40117 54000 7//// 8//// 22263 00105 2//// =

####018000126####
SNVD02 CWAO 092200
BBXX
CG2958 09224 99487 71235 46/// /1007 10269 20137 40150 56008 7//// 8//// 22200 0//// 2//// =

####018000125####
SNVD02 CWAO 092200
BBXX
VRYO3 09224 99514 10037 46/// /2806 10239 20116 40179 53003 7//// 8//// 22262 00216 2//// =

####018000124####
SNVD02 CWAO 092200
BBXX
VOLG 09224 99446 70636 46/// /1908 10251 20249 40164 56010 7//// 8//// 22200 0//// 2//// =

####018000067####
SNAL53 EUMS 092200
AAXX 09224
60619 46/// /0317 10312 21026=
####018000067####
SNAL51 EUMS 092200
AAXX 09224
60663 46/// /0904 10348 21027=
