####018000343####
SILY40 EUMS 092100
AAXX 09214
62140 46/// /2317 10262 20159 39782 40138 52021=
62210 46/// /0206 10312 20048 39609 40120 53018=

62176 43/// /0411 10279 20131 30127 40126 51013=
62225 46/// /0409 10320 20030 39655 40170 53018=
62121 46/// ///10 10284 20059 39473 48578 53017=
62145 46/// /2908 10248 20185 30121 40164 51016=
####018000195####
SIZM20 NSAP 092100
AAXX 09214
91723 NIL=
91759 41598 11009 10296 20237 40149 51016 70501 81101
  333 81824=
91762 41598 60907 10296 20239 40146 51016 70520 83802
  333 83820 84078=
####018000238####
SNHK22 VHHH 092130
AAXX 09211
45032 36/// /2301 10264 20241 30070 40086 57001=
45035 36/// /1904 10269 20234 30043 40083 54000=
45039 36/// /2302 10289 20247 30066 40081 52001=
45044 36/// /2104 10264 20256 39993 40083 57001=
####018000241####
SNHK22 VHHH 092130
AAXX 09211
45032 36/// /2301 10264 20241 30070 40086 57001=
45035 36/// /1904 10269 20234 30043 40083 54000=
45039 36/// /2302 10289 20247 30066 40081 52001=
45044 36/// /2104 10264 20256 39993 40083 57001=

####018000856####
SIRA30 RUHB 092100
AAXX 09211
21908 42699 2140110092 20059 30086 40131 57016 81501=
24856 42699 22502 10098 20092 39983 40129 52010 82500=
30679 NIL=
30686 41/06 93601 10107 20107 39774 40124 52007 74741=
30961 41899 80301 10176 20147 39356 40076 58006 70262 8801/=
30971 42599 81901 10099 20093 39189 40115 52003 83982=
30978 42599 80402 10182 20126 39468 40091 53015 8632/=
31054 42699 70000 10154 20107 39867 40116 52003 87500=
31123 41998 81901 10141 20142 39815 40126 53013 72582 889//=
31152 32999 83602 10124 20112 39741 40116 52002 86036=
31174 /1/93 90000 10079 20077 30140 40152 57002 74546=
31489 32699 80000 10142 20120 30022 40131 54000 885//=
31513 42599 80000 10188 20169 39882 40088 53006 85531=
31624 /1/93 90000 10166 20163 39886 40115 54000 74542=
31832 32998 70000 10155 20143 30034 40114 53006 87030=
####018000345####
SIRA31 RUHB 092100
AAXX 09211
25378 42998 31803 10125 20082 30088 40119 58012 82031 333 91104=
25538 32699 70000 10179 20105 39740 40117 52003 82531=
31913 32699 50000 10180 20175 30000 40103 53005 85200=
31939 /1420 80000 10177 20170 39809 40109 52006 71085 886//=
32128 32599 70000 10160 20139 30085 40134 54000 82503 333 91102=
####018000195####
SINV20 NVVV 092100
AAXX 09214 CCA

91557 41598 30303 10225 20218 40142 52017 70122 83130
        333 83820=
91565 41598 10903 10220 20205 40143 53016 70111 81200
        333 81825=
####018000102####
SICN07 CWAO 092100 RRB
AAXX 09214
71883 36/// /2404 10319 20055 39331 40118 56029 333 60001=

####018000102####
SICN03 CWAO 092100 RRD
AAXX 09214
71467 36/// /3115 10029 20021 39917 40028 51011 333 60001=

####018001462####
SICI34 BABJ 092100
AAXX 09211
56671 41680 80000 10199 20186 38143 57005 78088 884// 333
05151 70237=
57378 41958 81802 10265 20249 40015 57001 76000 8807/ 333
79999=
57426 41756 80000 10236 20226 40000 57006 71000 885// 333
00151 70168=
57476 41760 83202 10241 20220 40015 57005 76160 8802/ 333
70135=
57584 42965 51402 10268 20243 40019 57006 85040 333 70139=
57598 41758 80000 10241 20232 40033 57003 71000 885// 333
70290=
57655 42960 80401 10253 20237 40012 57007 8807/ 333 70062=
57713 NIL=
57776 42980 12019 10208 20200 40030 57005 81040=
58321 41957 70701 10255 20246 40020 57003 71000 8704/ 333
70014=
58437 41/00 92506 10181 20179 38123 52003 76064 333 70512=
58445 NIL=
58556 42975 72201 10244 20228 40047 57002 8704/ 333 70010=
58569 41440 82206 10248 20236 40054 57001 71060 888// 333
70092=
58646 41640 80000 10243 20236 40057 57002 76000 885// 333
70203=
58653 NIL=
58660 NIL=
58715 42778 81604 10282 20227 40047 52004 8357/ 333 70009=
58730 42760 80000 10252 20240 40061 57001 8757/ 333 70133=
58731 42961 81101 10233 20233 40066 57003 8807/ 333 70112=
58754 41556 82501 10263 20245 40064 52003 71000 885// 333
70015=
58911 42661 62901 10244 20237 40079 52004 85530=
58931 41/00 92211 10177 20177 38339 52002 74544=
59254 42663 73401 10268 20246 40061 57003 878// 333 70005=
59632 42568 71602 10289 20267 40054 57001 81102=
59855 42970 21802 10280 20254 40068 57005 80002=
####018001903####
SICI36 BABJ 092100
AAXX 09211
56144 42780 82001 10122 20092 36883 57005 884// 333 00151
70057=
56152 42680 20201 10037 20021 36368 57005 82400 333 00257
70093=
56167 42780 70000 10122 20098 37109 57010 874// 333 00253
70069=
56182 42480 13601 10069 20055 37233 57003 81600 333 00357
70089=
56357 41680 70000 10099 20083 36472 57007 70080 87400 333
05151 70152=
56586 41460 80205 10159 20151 38002 54000 78088 884// 333
00053 70133=
56748 42580 41401 10200 20172 38298 57012 84400 333 05100
79999=
56763 42680 71604 10281 20161 49955 57007 86402 333 05100
79999=
56768 42680 72203 10217 20151 38126 57007 874// 333 05101
79999=
56838 41668 71802 10231 20214 40042 57006 78000 879// 333
05100 70011=
56886 42780 82005 10207 20169 38238 57007 884// 333 00001
79999=
56946 42570 72201 10226 20209 40035 57008 874// 333// 05101
79999=
56959 42770 70901 10266 20227 40024 57006 879// 333 05101=
56969 42560 80901 10240 20230 40047 57002 889// 333 05101
70103=
57503 41462 82702 10214 20200 40032 57004 76000 885// 333
00455 70038=
57731 42768 82501 10265 20236 49991 57005 885//=
57766 42962 00000 10252 20233 40030 52001 333 70099=
57845 42962 22003 10274 20217 40030 57002 82040=
57853 42970 00000 10257 20218 40025 57002=
57916 42766 80000 10265 20256 40003 57004 885// 333 70009=
57922 42668 81405 10237 20225 40013 57006 885// 333 70041=
57932 41350 80000 10256 20247 40026 52003 79198 889// 333
70207=
58338 42662 71601 10251 20242 40021 57005 875// 333 70029=
59007 42970 61602 10229 20187 40008 57004 86030 333 70011=
59046 42573 41802 10287 20245 40049 52001 83140=
59058 42570 71401 10273 20231 40060 57005 87100 333 79999=
59072 42668 61604 10283 20232 40065 52002 84440=
59087 41560 72202 10276 20240 40081 52004 78000 874// 333
79999=
59209 41460 82204 10240 20217 40031 52003 79598 889// 333
70010=
####018000095####
SIVD15 KWNB 092100 RRO
BBXX
42361 09211 99276 70925 46/// ///// 1//// 40149 57017 92130=
####018000101####
SIVD15 KWNB 092100 RRP
BBXX
42013 09211 99272 70829 46/// ///// 1//// 40153 92040 22200 00302=
####018000135####
SIAU24 AMMC 092100 CCA
AAXX 09214
94996 11575 71313 10151 20088 30078 40217 51012 69924 71582 84832
92130
  333 70002=


####018000089####
SIUR21 UKMS 092100 RRA
AAXX 09211
33325 42997 00000 10184 20168 39941 40197 52003=
####018000097####
SIMU20 VMMC 092100
AAXX 09214
45011 47372 /2104 10270 20245 40083 57004 70010
333 58009=
####018000100####
SIMU20 VMMC 092100
AAXX 09214
45011 47372 /2104 10270 20245 40083 57004 70010
333 58009=

####018000114####
SIPO21 LPMG 092100 CCA
AAXX 09211
08512 42375 52405 10204 20188 30140 40231 52004 84832
333  81707 83811=
####018000079####
SIAA17 LFVW 092100
AAXX 09214
89811 46/// /0000 11273 38282 4//// 5////=
####018000107####
SNAU47 AMMC 092000 RRC
AAXX 09204
94117 41980 00000 10195 20187 30122 40140 52006 70222 92030=


####018001353####
SIMI20 GABS 092100
AAXX 09214
61202 NIL=
61214 NIL=
61223 41560 81217 10295 20215 39801 40092 79596 8397/
  333 58028 82630 81940 88463 94945 95875=
61226 42960 71808 10320 20196 39794 40079 70196 87070
  333 58016 87465=
61230 42960 02608 10330 20215 39801 40063
  333 59010=
61233 42960 72206 10330 20197 3//// 4//// 80002
  333 5//// 87075=
61235 42960 42204 10320 20222 3//// 4//// 80002
  333 5//// 84075=
61240 42960 62808 10348 20205 39758 40072 83042
  333 59007 83365 84075=
61250 41640 81416 10292 20218 3//// 4//// 71793 8497/
  333 5//// 83640 86365 82950 94953 95833=
61257 42560 42604 10310 20242 30042 40134 81502
  333 59013 81630 83075=
61265 42970 62206 10330 20205 39778 40075 83042
  333 59003 83365 83075=
61270 42560 60000 10280 20237 3//// 4//// 82540
  333 5//// 82630 85365=
61272 42960 00000 10295 20243 39768 40088
  333 59012=
61277 42960 30000 10322 20218 39771 40083 80002
  333 59005 83075=
61285 42960 40000 10282 20247 39957 40106 82072
  333 59023 82365 84075=
61291 41560 30000 10265 20251 39686 40094 71300 81902
  333 59014 81940 83080 94943 95833=
61293 41560 62206 10265 20226 3//// 4//// 71322 81940
  333 5//// 81940 86365 94947 95877=
61296 NIL=
61297 41660 70000 10235 20220 3//// 4//// 71396 81972
  333 5//// 81933 85463 94943 95833=
