####018001382####
SIRA25 RUHB 092100
AAXX 09211
21432 41396 82207 11002 21008 30155 40174 57009 71022 886//=
21824 41497 80202 10042 20037 30167 40176 57001 76162 8675/ 333
84612=
21921 42599 80404 10070 20040 30120 40162 53005 885//=
21931 42498 80503 10095 20065 30125 40155 57004 885//=
21946 41998 81105 10070 20019 30099 40174 57014 76162 8807/=
21982 42980 60205 10067 20012 30146 40152 52026 84031 333 91109=
25062 41496 83203 10016 20013 30167 40171 52011 76161 8372/ 333
91108=
25123 42598 80101 10071 20064 30139 40170 52003 885// 333 88614=
25138 41498 73003 10075 20064 30049 40165 52004 70282 87630 333
91106=
25173 42398 83309 10051 20029 30145 40149 52019 83631 333 91114=
25248 41597 83102 10146 20139 39719 40133 52004 76062 8802/ 333
91104=
25282 41359 13210 10033 20018 30111 40117 52012 72840 81600 333
91114=
25325 42999 20402 10158 20107 30011 40163 58004 80001 333 91107=
25356 31998 60000 10186 20100 30028 40120 57003 70422 81031 333 20049
55181 91000=
25399 42999 60903 10033 20046 30094 40103 57019 80001 333 91104=
25428 42984 02902 10197 20151 39820 40120 52004 333 91106=
25551 42999 20901 10175 20112 30094 40122 54000 80001 333 91102=
25563 42999 00000 10163 20098 30063 40135 57010 333 911//=
25594 42998 01805 10156 20036 30067 40115 57015 333 91108=
25677 42998 02503 10147 20062 30137 40143 57009 333 91105=
####018000173####
SINZ20 NZKL 092100 RRA
AAXX 09214
93800 46/// /1505 10061 20025 40298 52013=
93805 46/// /1108 10045 20019 40312 52011=
93994 46/// /1403 10168 20114 40225 52015=
####018000406####
SIUY20 SUMU 092100
AAXX 09214
86330 42998 00000 10180 20106 40200 53006=
86360 42997 01807 10158 20074 40212 52006=
86460 42998 00000 10162 20079 40209 53006=
86490 42997 01808 10138 20078 40227 53011=
86530 42998 02206 10136 20084 40217 52011=
86545 42997 00000 10130 20111 40231 52011=
86565 42497 30000 10110 20085 40213 52012 83400=
86580 42897 12003 10104 20083 40227 52007 81055=
####018000470####
SIUY21 SUMU 092100
AAXX 09214
86315 NIL=
86350 42997 11615 10156 20111 40199 53006 80005=
86370 NIL=
86430 NIL=
86440 42997 11504 10148 20052 4//// 5//// 80002=
86450 42998 01104 10150 20092 40217 53006=
86500 NIL=
86532 NIL=
86550 NIL=
86560 42998 099// 10120 20051 40232 53002=
86575 41996 199// 10086 20073 40233 58006 71002 80005=
86585 42997 02306 10106 20079 40228 52007=
86586 42497 22206 10114 20106 40221 52012 82400=
86595 NIL=
####018000074####
SALY31 HLLT 092130
METAR HLLT 092120Z 
00000KT 8000 SKC 24/20 Q1018=
####018000030####
SIZW21 FVHA 092100
NIL

####018000104####
SIAL51 DAMM 092100 RRC
AAXX 09211
60380 36/// /1301 10231 20171=
60379 36/// /0000 10205 20205=
####018000095####
SITA20 UTDD 092100 RRA
AAXX 09211
38847 ///// /2802 10255 20103 39320 40020 777   92038=
####018001066####
SITR20 UTAA 092100
AAXX 09211
38388 42998 03604 10302 20040 30006 40072 52007=
38392 42997 03303 10273 20181 39983 40077 52014=
38507 42996 03402 10278 20250 39979 40073 52005=
38511 42998 00000 10311 20102 39930 40059 52005=
38545 42998 03603 10303 20159 39874 40033 52005=
38647 42997 02904 10322 20221 30005 40043 52003=
38656 42998 03602 10327 20099 39951 40047 52003=
38687 42996 02902 10308 20142 39807 40020 57008=
38750 42997 00000 10298 20244 30100 40074 58005=
38763 42997 00000 10325 20155 39958 40053 52001=
38774 42995 03302 10356 20129 39882 40057 57005=
38799 42997 22903 10349 20084 39821 40029 58003 80003=
38806 42997 01802 10284 20151 39790 40028 57004=
38880 42997 01802 10319 20151 39821 40052 57005=
38886 42997 02402 10306 20160 39841 40048 52001=
38895 42996 22902 10323 20155 39777 40039 57006 82030=
38911 42997 00000 10284 20145 39759 40029 57001=
38915 42997 03203 10334 20074 39725 40017 58007=
38974 42998 02902 10316 20099 39735 40039 58003=
38987 42996 01201 10276 20078 39350 40033 58009=
####018000227####
SIME20 OEJD 092100
AAXX 09211
40007 42960 02807 10255 20132 40080 50004=
40022 42965 02101 10254 20218 40091 51002=
40080 42965 02202 10246 20138 39400 40066 50010=
40100 NIL=
40270 NIL=
40272 NIL=
40340 NIL=
####018000071####
SIAL54 EUMS 092100 RRA
AAXX 09214
60676 36/// /0511 10319 21013=
####018000071####
SIAL52 EUMS 092100 RRB
AAXX 09214
60661 36/// /0511 10325 21059=
####018000071####
SIAL52 EUMS 092100 RRA
AAXX 09214
60633 36/// /1106 10377 21030=
####018000071####
SIAL51 EUMS 092100 RRC
AAXX 09214
60672 36/// /0909 10323 21029=
####018000071####
SIAL53 EUMS 092100 RRB
AAXX 09214
60660 36/// /3607 10392 21019=
####018001107####
SINR20 DRRN 092100
AAXX 09214
61017 42960 51804 10353 20174 39689 40075 80002
  333 58009 85080=
61024 NIL=
61036 42962 72004 10324 20213 39844 40076 80008
  333 59005 87280=
61043 42960 82404 10270 20211 39660 40091 70096 8807/
  333 58004 88464=
61045 42960 70000 10270 20195 39/// 40/// 80006
  333 5//// 87280=
61049 42960 70000 10268 20206 39779 40098 80006
  333 58006 87280=
61052 42960 32006 10312 20227 39838 40089 80002
  333 59005 83080=
61053 41760 51806 10291 20224 39/// 40/// 7132/ 81902
  333 5//// 81950 85080 94941 95831=
61075 42960 72202 10256 20230 39784 40089 70096 80008
  333 59004 87280=
61080 42960 72202 10298 20211 39663 40073 80008
  333 59007 87280=
61085 42965 50000 10246 20223 39/// 40/// 80002
  333 5//// 85080=
61090 41660 61404 10300 20221 39589 40085 71322 81932
  333 59007 81950 85080 94943 95833=
61091 42960 70000 10298 20224 39649 40092 80008
  333 58005 87280=
61096 42968 71802 10245 20220 39721 40096 81048
  333 58009 81365 87280=
61099 42960 72204 10268 20235 39834 40060 80008
  333 58001 87280=
####018000071####
SIAL54 EUMS 092100 RRB
AAXX 09214
60677 36/// /0000 10317 20006=
####018000071####
SIAL53 EUMS 092100 RRC
AAXX 09214
60650 36/// /0519 10378 21017=
####018001633####
SICI32 BABJ 092100
AAXX 09211
56193 NIL=
56196 42966 52901 10214 20166 40036 57004 85040 333 00356
79999=
56287 41465 82502 10199 20194 40071 57004 76060 8272/ 333
00455 70194=
56684 41560 82202 10185 20172 37846 57006 78080 884// 333
05151 70004=
56751 42780 73202 10193 20158 37966 57006 86402 333 05100
79999=
56786 42575 81802 10204 20170 38051 57010 884// 333 05100=
56977 41465 80000 10214 20207 40042 57008 78098 884// 333
00000 70428=
57259 41462 82502 10229 20227 40025 57002 76166 8377/ 333
70043=
57279 41761 80000 10263 20245 40015 57004 76060 8257/ 333
70010=
57348 42860 80202 10245 20243 40007 57005 885//=
57399 42765 80701 10267 20249 40019 57007 885// 333 79999=
57554 41430 80000 10240 20233 40014 57005 76060 887// 333
70411=
57793 41956 62701 10259 20241 40038 52003 71000 86040=
58345 41658 82202 10254 20231 40027 57004 71080 8557/ 333//
70156=
58506 41/00 91807 10213 20201 40045 57007 74744 333 71207=
58813 42970 72001 10274 20238 40057 52003 8704/=
58834 42960 81101 10254 20245 40078 52004 8807/=
58926 42763 72001 10250 20223 40079 52002 875//=
58944 42465 72505 10267 20245 40083 52002 875// 333 79999=
59096 42563 71601 10261 20232 40082 54000 874// 333 70022=
59102 42562 72201 10245 20222 40083 52003 878//=
59278 42575 61602 10278 20250 40076 57001 81402=
59456 42968 01802 10282 20254 40068 57007=
59493 41580 22202 10273 20240 40085 57005 70098 82800 333
70097=
59658 42480 11603 10286 20258 40060 57006 81100=
59673 42570 12003 10280 20264 40081 57003 81100 333 70002=
59845 42970 71602 10275 20225 40058 57007 80002=
####018001858####
SICI27 BABJ 092100
AAXX 09211
50434 42580 70702 10140 20134 40096 52003 85902 333 70072=
50527 42970 30902 10159 20121 40078 52006 80002 333 70024=
50603 42680 60901 10198 20121 40060 52003 84202 333 79999=
50632 42980 72902 10122 20113 40107 52005 80002=
50727 42580 72201 10099 20091 40092 52001 81102=
50915 41580 81103 10172 20135 40039 57004 78080 889// 333
70090=
51716 42968 00000 10193 20116 49984 52001 333 05455=
51765 42980 01101 10212 20078 49990 57007 333 05453 79999=
51777 42870 60701 10257 20099 49969 57016 81502 333 05307=
51811 41962 42702 10243 20041 49995 54000 72580 82062 333
05351 79999=
51828 42965 02203 10245 20072 49978 54000 333 05302=
52267 42980 02701 10187 21047 49976 52003 333 05255=
52323 42980 02703 10171 20041 38186 57001 333 05302=
52495 42980 00000 10165 20058 49999 52003 333 05153=
53149 42980 02705 10165 20112 49992 52004 333 05251 70006=
53192 42680 61604 10159 20136 40002 57003 82402 333 70011=
53231 42980 01104 10144 20104 38420 54000 333 05152 70199=
53336 42980 02501 10174 20108 40002 52001 333 05100 70002=
53391 42970 72003 10135 20130 40034 57001 80002 333 05255
70184=
53529 42980 10000 10160 20116 40010 57007 80002 333 05352
70001=
53543 42980 21104 10158 20140 40017 57004 80002 333 70013=
53723 42970 52201 10185 20113 40009 57003 83032 333 05401
70008=
54012 41580 71103 10154 20127 40047 57004 70080 86902 333
70023=
54026 42980 73401 10200 20150 40067 52003 80002=
54027 41670 71601 10183 20163 40058 57003 70080 86902 333
70029=
54208 42980 01801 10128 20117 40049 52001 333 70030=
54776 41/01 92003 10203 20203 40075 52005 74544=
56004 42680 60701 10046 20011 35880 57011 84502 333 05303=
56033 42680 70000 10046 20004 36085 57002 875// 333 00001=
56046 42780 70701 10071 20035 36309 57007 875// 333 00051
70101=
####018001351####
SIRA26 RUHB 092100
AAXX 09211
25703 32699 73502 10210 20157 39868 40110 52002 83331=
25745 32699 52506 10142 20092 30116 40164 58004 85100=
25913 32398 73004 10121 20115 30040 40180 52007 87600=
25954 32599 82302 10116 20077 30192 40196 57004 885// 333 88620=
25956 NIL=
31088 32598 81403 10150 20111 30164 40171 54000 883// 333 85626=
31829 32198 80503 10126 20124 30109 40140 56002 886//=
31873 32497 82101 10184 20181 39985 40107 53005 8367/=
31909 /2499 80000 10145 20136 30058 40132 53006 886//=
31960 /2198 81603 10144 20142 39902 40124 53008 886//=
31961 32599 82402 10169 20160 30072 40115 53010 86531=
32053 /1297 80000 10093 20090 30108 40155 53004 78084 889// 333 87704
91101=
32061 32498 81402 10118 20112 30107 40144 54000 85542 333 91004
91104=
32098 31396 81603 10135 20127 30147 40157 52006 71022 86903 333 86707
91005 91106=
32150 32599 81901 10145 20136 30109 40137 53003 82374 333 91002
91105=
32165 /1/91 90305 10118 20118 30077 40136 54000 75254 333 91007 91107
96045=
32215 /1361 80000 10054 20037 30200 40229 51004 70252 886// 333 91002
91102=
32389 32699 71003 10125 20089 30160 40195 52002 82531=
32477 32497 81702 10092 20081 30179 40210 52007 886//=
32583 /1499 71402 10108 20090 30184 40213 52010 71222 85530=
32618 /2598 60902 10095 20058 30191 40215 52009 86500=
####018000109####
SITH41 VTBB 092100 RRA
AAXX 09214
48385 31556 60000 10230 20222 39560 40077 71022 82556
  333 59018=
####018000115####
SITH43 VTBB 092100 RRB
AAXX 09214
48481 21558 80000 10250 20247 30051 40078 76196 85826
  333 59001 60067=
####018001970####
SICU20 MUHV 092100
AAXX 09211
78310 32570 61005 10310 20244 30138 40148 57013 83202 333 01909
30/// 83820 85074 92014 99311=
78315 31573 51501 10311 20242 30078 40142 57016 70522 84902 333
06909 31/// 57991 82820 84074 839//=
78318 31564 53004 10317 20235 30138 40141 57015 72992 84942 333
06999 30/// 57961 82820 829//=
78322 31559 61701 10309 20245 30134 40151 58015 70522 83242 333
02999 30/// 57884 83820 84080=
78324 31410 81403 10296 20249 30144 40155 56016 70522 82247 333
01399 30/// 82816 88270 555 11302=
78325 21563 70601 10249 20243 30088 40146 57015 72996 82973 333
07999 32/// 57980 60227 82820 85356 86080 819//=
78328 21460 60402 10294 20245 30148 40/// 56009 79598 85920 333
08100 30/// 57931 69907 84818 86558 819// 555 10501=
78333 31/10 41804 10311 20250 30144 40150 58020 70511 82963 333
06990 31/// 57971 818// 83071 829//=
78344 31564 41903 10320 20238 30098 40146 56019 70590 83902 333
06909 30/// 57912 81820 839//=
78348 21456 71402 10273 20250 30108 40160 57014 71796 87963 333
09299 31/// 57921 69947 81818 879// 555 10902=
78349 31560 73501 10292 20249 30048 40156 56013 72992 85903 333
09009 31/// 57911 82820 84923=
78351 32550 71403 10333 20221 30145 40147 57016 81202 333 03909
30/// 57882 81826 87080=
78353 32570 30903 10322 20225 30134 40156 56018 82902 333 06909
30/// 57952 81823 819//=
78355 32570 50806 10322 20221 3//// 4//// 5//// 84902 333 06909
31/// 57941 82823 819//=
78358 31560 30607 10317 20233 30135 40150 57013 70511 82902 333
06909 30/// 57942 82823 819//=
78360 31568 81901 10317 20242 30139 40150 56017 70522 82807 333
01909 30/// 81820 882//=
78363 31560 30503 10343 20180 30011 40123 57019 70500 83900 333
06900 30/// 57970 82820 819//=
78365 31/62 30705 10310 20264 30157 40162 58016 70500 83903 333
06909 30/// 57946 828// 819//=
78369 31568 10706 10314 20247 30141 40150 56009 70500 81200 333
01900 30/// 81820 92034=
78345 NIL=
####018000102####
SICN02 CWAO 092100 RRB
AAXX 09214
71185 35008 82025 10157 20144 30055 40078 56009 333 60001=

####018000084####
SICN01 CWAO 092100 RRA
AAXX 09214
71107 46/// /2316 30074 58003 333 6///1=

####018000099####
SIRE15 FMEE 092100
AAXX 09214
61997 26/// /3121 10095 20069 40212
  333 58011 60007 91133=
####018000089####
SNPS40 AMMC 092000 RRF
AAXX 09204
91689 46/// /0804 10245 40153 22200 00264=


####018001443####
SIAR20 OEJD 092100
AAXX 09214
40582 31945 01105 10309 20282 40006 50012 71000
  333 00308 10468 20302 51560 55110 01039 10377 22795 43689 54854
63763 55300 00000 10262 20000 30000 41494 51755 60000 55407 40000
55507 51827 90401 91007 91117 91209 91305=
41150 NIL=
41168 NIL=
41170 42964 11504 10335 20267 39987 40000 81030 333 59004 81364=
41176 NIL=
41184 NIL=
41194 NIL=
41196 NIL=
41198 NIL=
41210 NIL=
41216 NIL=
41217 NIL=
41218 NIL=
41240 NIL=
41244 36/// /1610 10319 20202 39676 47029
333 0E033 59009=
41246 32660 21008 10313 20257 30010 40014 81501
  333 59007 81630=
41254 36/// /0614 10226 20122 37996 48001
333 0E020 59001=
41256 32960 22803 10299 20263 39998 40007 80001
  333 59008 82075=
41258 36/// /3605 10299 20232 39999 40064
333 0E/// 59011=
41268 31958 32223 10280 20220 30001 40018 70600 80001
  333 59010 83070=
41312 36/// /1503 10255 20241 30004 40043
333 0E/// 58004=
41314 32960 11722 10255 20212 39523 40024 810
0
  3
3 59005 81360=
41316 22457 81206 10264 20233 30019 40044 886//
  333 58003 79999 83710 88620=
41404 41558 51904 10180 20126 37851 48491 70644 85800 333 58011
85800=
41407 NIL=
41431 41556 80000 10305 20267 40/// 70544 85550 333 5//// 84630
84356=
41466 42556 63408 10228 20154 38518 48420 83550 333 59001 83630
83356=
41477 NIL=
41480 41957 21108 10304 20221 30030 40033 70544 82030 333 58007
82360=
####018000457####
SINV20 NVVV 092100
AAXX 09213 RRB

91551 41598 30000 10258 20247 40138 52013 70222 82200
        333 569// 83820=
91553 41598 59902 10252 20244 40147 25006 70222 85200
        333 563/9 85820=
91554 41598 42203 10241 20221 40142 52020 70122 84200
        333 565// 84825=
91555 41598 20000 10243 20231 40146 52020 70112 82230
        333 5699/ 82820=
91568 41598 40000 10230 10230 20209 40155 52013 70118 81130
        3333 81825=
####018000113####
SIAG01 SABM 092100 RRC
AAXX 09214
87645 42970 32704 10046 21020 30030 40247 53007 80001 333 56006
83070=
####018000109####
SISD21 OEJD 092100 RRA
AAXX 09214
41112 42960 00000 10250 21040 37918 48459 333 59014 555 04410 50014=
####018000095####
SIMO40 MNUB 092100 RRA
AAXX 09210
44348 32997 83607 10146 20159 38588 40009 51001 84080=
####018001215####
SINT50 KAWN 092100
AAXX 09214
04005 42489 61804 10095 20058 40063 52003 83550 555 3/209=
AAXX 09213
04013 42689 20213 10105 20048 40043 52004 81210 555 3//18=
AAXX 09214
04018 42684 70506 10139 20092 40009 52004 83439 555 3//17 83647
 85357 87266=
04030 41588 71403 10128 20097 40016 51017 76082 82877 555 3//10
 81830 84356 86459=
04048 41065 71215 10107 20105 40016 52013 71022 876// 555 3/319=
04063 42586 63311 10083 20049 40047 52003 83720 555 3//11=
04082 41365 72005 10113 20101 40037 52007 71122 8326/ 555 3//09
 83706 84358=
04097 41330 89908 10072 20063 40049 52010 75152 886// 555 3/309=
04220 47/84 02706 10060 20044 30033 40083 54000 70086 333 55300
 21699=
04231 42989 22412 10155 20040 39990 40059 57001 822// 333 82850=
04250 25/84 02906 10091 20055 39977 40078 57003 333 55300 21645
 6///7=
04260 47/02 93005 10028 20023 30045 40088 52002 73484 333 89/02=
04270 45/81 /2514 10131 20033 30035 40072 57002=
04272 26/83 02304 10055 20034 30019 40089 52001 333 6///7=
04330 46/// /0210 10095 21041 30029 40047 52001=
04360 25/80 03205 10084 20025 39983 40051 57004 333 55300 21267
 6///7=
04390 25/81 02311 10082 20050 39984 40075 57008 333 6///7=
####018001215####
SINT04 KAWN 092100
AAXX 09214
04005 42489 61804 10095 20058 40063 52003 83550 555 3/209=
AAXX 09213
04013 42689 20213 10105 20048 40043 52004 81210 555 3//18=
AAXX 09214
04018 42684 70506 10139 20092 40009 52004 83439 555 3//17 83647
 85357 87266=
04030 41588 71403 10128 20097 40016 51017 76082 82877 555 3//10
 81830 84356 86459=
04048 41065 71215 10107 20105 40016 52013 71022 876// 555 3/319=
04063 42586 63311 10083 20049 40047 52003 83720 555 3//11=
04082 41365 72005 10113 20101 40037 52007 71122 8326/ 555 3//09
 83706 84358=
04097 41330 89908 10072 20063 40049 52010 75152 886// 555 3/309=
04220 47/84 02706 10060 20044 30033 40083 54000 70086 333 55300
 21699=
04231 42989 22412 10155 20040 39990 40059 57001 822// 333 82850=
04250 25/84 02906 10091 20055 39977 40078 57003 333 55300 21645
 6///7=
04260 47/02 93005 10028 20023 30045 40088 52002 73484 333 89/02=
04270 45/81 /2514 10131 20033 30035 40072 57002=
04272 26/83 02304 10055 20034 30019 40089 52001 333 6///7=
04330 46/// /0210 10095 21041 30029 40047 52001=
04360 25/80 03205 10084 20025 39983 40051 57004 333 55300 21267
 6///7=
04390 25/81 02311 10082 20050 39984 40075 57008 333 6///7=
####018000197####
SIAL51 DAMM 092100 RRD
AAXX 09214
60613 36/// /0806 10334 20024=
60374 36/// /0000 10235 20186=
60394 36/// /2501 10230 20205=
60593 36/// /0605 10361=
60376 36/// /0501 10214 20196=
####018000262####
SIVD20 KWNB 092100 RRH
BBXX
44032 09211 99437 70694 46/10 /1706 10183 40124 56026 92104 22200
00163 10802 70010 333 91207 555 11084 22094=
44033 09211 99441 70690 46/05 /2001 10169 40128 56021 92104 22200
00152 10801 70006 333 91202 555 11023 22027=
####018000113####
SIRS21 RUMS 092100 RRA
AAXX 09211
22113 41559 80202 10159 20152 30058 40118 54002 78082 8795/ 333
91002=
####018000115####
SNVD20 KWNB 092000 RRU
BBXX
44056 09201 99362 70757 46/// ///// 1//// 92015 22200 00269 10702
20702 70012=
