####018000262####
SNVD20 KWNB 092300 RRT
BBXX
44037 09231 99435 70679 46/12 /1705 10191 40137 56017 92304 22200
00180 10802 70010 333 91206 555 11067 22075=
44024 09231 99423 70659 46/30 /1504 10197 40166 56010 92304 22200
00186 10802 70011 333 91205 555 11055 22063=
####018000450####
SNVD15 KWNB 092300 RRU
BBXX
42369 09231 99272 70903 46/// /0502 10291 92240 22200 10501 70005=
42370 09231 99273 70905 46/// ///02 10293 92240 22200 10501 70005=
42374 09231 99289 70881 46/// ///03 10319 40133 92240=
42376 09231 99291 70879 46/// /2604 10290 40127 92240 22200 10201
70005=
42392 09231 99272 70900 46/// ///// 1//// 92240 22200 10301 70004=
42887 09231 99282 70885 46/// /0000 10312 20252 92240 22200 10601
70007=
####018000109####
SNAU55 AMMC 092300 RRB
AAXX 09234
94764 11/65 82702 10107 20099 69924 70252 88090
  333 70002=


####018000097####
SMGI01 EGRR 100000
AAXX 10004
08495 12962 00603 10231 20194 30170 40178 50002 60001 92350=
####018000096####
SMPS02 NZKL 091800 RRA
AAXX 09184
91723 NIL=
91964 36/// /1511 10180 20119 40254 52019=
####018000073####
SALY31 HLLS 100000
METAR HLLS 100000Z 
O8O1OKT  CAVOK  26/11 Q1O16=
####018000121####
SNAU58 AMMC 092300 RRA
AAXX 09234
94861 11560 80212 10118 20058 30088 40206 69904 70222 8367/
  333 79999=


####018000109####
SNAU58 AMMC 092300 CCB
AAXX 09234
94831 11584 83404 10120 20088 69984 76362 88700
  333 70008=


####018000099####
SMCH01 SCSC 100000
AAXX 10004
85488 12960 00801 10108 20092 40150 53012 60001
  333 10158=
####018000232####
SNAA20 LIIB 092300
AAXX 09234
89659 46/// /3122 11507 29045 37585 4//// 5////=
89661 46/// /2453 11197 38982 4//// 5////=
89662 46/// /2826 11177 29035 39674 4//// 5////=
89666 46/// /1712 11186 29061 39612 4//// 5////=
####018000105####
SNIY20 LIIB 092300 RRA
AAXX 09234
16280 41996 03405 10238 20226 39977 40191 51002 71000 555 0////=
####018000103####
SNIY20 LIIB 092300 RRA
AAXX 09234
16280 41996 03405 10238 20226 39977 40191 51002 71000 555 0////=
####018000082####
SMMZ01 FQMA 100000
AAXX 10004
67341 32980 09901 10157 20149 40196 57009=

####018000079####
SMMZ01 FQMA 100000
AAXX 10004
67341 32980 09901 10157 20149 40196 57009=
####018000301####
SMVD22 KWNB 100000
BBXX
46243 10001 99462 71241 46/// ///// 1//// 92334 22200 00160 10602
20602 321// 41301 70010=
46240 10001 99366 71219 46/// ///// 1//// 92345 22200 00133 10801
20801 70004=
46237 10001 99378 71226 46/// ///// 1//// 92336 22200 00139 11301
20601 323// 41301 70007=
####018000085####
SMJD50 OJAM 100001
AAXX 10014
40255 32960 00000 10206 20181 39413 40092 52005=
####018000123####
SMVE15 KWNB 100000
BBXX
51203 10001 99208 71570 46/// ///// 1//// 92345 22200 00261 11701
21001 320// 41701 70006=
####018000685####
SNVD22 KWNB 092300 RRU
BBXX
46229 09231 99438 71246 46/// ///// 1//// 92308 22200 00128 10602
20602 321// 41301 70010=
46216 09231 99343 71198 46/// ///// 1//// 92324 22200 00169 10501
20501 70006=
46225 09231 99329 71174 46/// ///// 1//// 92325 22200 00180 11302
21001 320// 41301 70008=
46223 09231 99335 71178 46/// ///// 1//// 92326 22200 00182 11401
21001 318// 41401 70007=
46222 09231 99336 71183 46/// ///// 1//// 92318 22200 00182 11401
21001 318// 41401 70006=
46215 09231 99352 71209 46/// ///// 1//// 92309 22200 00138 11302
20801 321// 41301 70008=
46242 09231 99332 71174 46/// ///// 1//// 92327 22200 00171 11301
21001 321// 41301 70007=
####018000198####
SMVD20 KWNB 100000 RRA
BBXX
44098 10001 99428 70702 46/// ///// 1//// 92337 22200 00194 10702
20702 70009=
44099 10001 99369 70758 46/// ///// 1//// 92338 22200 00259 10702
20702 70011=
####018000222####
SMVD22 KWNB 100000 RRA
BBXX
46211 10001 99469 71242 46/// ///// 1//// 92336 22200 00156 10702
20702 322// 41501 70011=
46214 10001 99379 71235 46/// ///// 1//// 92334 22200 00099 11302
20802 318// 41302 70012=
####018000125####
SNVD20 KWNB 092300 RRU
BBXX
44039 09231 99411 70727 46/// /1604 10258 20233 40118 92330 22200
10201 70003 333 91205=
####018000135####
SNAU44 AMMC 092300 RRD
AAXX 09234
94480 11/84 50502 10134 20107 30125 40187 52025 60034 70111 80004
92330
  333 70026=


####018000091####
SMJD50 OJAM 100000
AAXX 10004
40270 31956 00903 10225 20115 39228 40073 54001 70500=
####018000089####
SITA20 UTDD 092100 CCA
AAXX 09211
38847 429// 12702 10233 20111 40055 58002 81030=
####018000127####
SNAU02 AMMC 092300 RRM
AAXX 09234
94324 11980 00510 10181 20137 39408 40176 52022 60004 70200 92330
  333 70000=


####018000118####
SMCH01 SCSC 100000
AAXX 10004
85406 12560 81704 10149 20097 40176 53023 60001 885//
  333 10169  56099 88626=
####018000117####
SMCH01 SCSC 100000
AAXX 10004
85585 12597 61910 10119 20084 40244 53003 60001 86500
  333 10155 56400 86620=
####018000117####
SMCH01 SCSC 100000
AAXX 10004
85467 13460 83511 10122 20085 40174 51011 60001 885//
  333 10147 56699 88615=
####018000077####
SAYE20 OYSC 100000 CCB
METAR COR OYSY 092000Z 19007KT CAVOK 31/19 Q1007=
####018000112####
SNAA14 KARS 092300
AAXX 09234
89528 46/// /0161 36694 4//// 5////=
89049 46/// /1712 37729 4//// 5////=
####018000123####
SMCH01 SCSC 100000
AAXX 10004
85418 11559 80306 10148 20090 40174 52018 60001 70522 885//
  333 10183 56099 88620=
####018000103####
SNAU53 AMMC 092300 RRB
AAXX 09234
94498 11/82 10906 10125 20074 60004 70200
  333 70000=


####018000136####
SMKA01 PTTP 100000
AAXX 10004
91348 12474 40604 10300 20241 30076 40128 58002 60054 82101 333
20216 561/2 59002 70048 555 91000=
####018000136####
SMKA01 PTKK 100000
AAXX 10004
91334 12474 80312 10304 20250 30107 40110 57002 60324 82171 333
20244 56199 59012 70318 555 91000=
####018000137####
SMKA01 PTKK 100000
AAXX 10004
91334 12474 80312 10304 20250 30107 40110 57002 60324 82171 333
20244 56199 59012 70318 555 91000=
####018000137####
SMKA01 PTTP 100000
AAXX 10004
91348 12474 40604 10300 20241 30076 40128 58002 60054 82101 333
20216 561/2 59002 70048 555 91000=
####018000103####
SNAU60 AMMC 092300 RRA
AAXX 09234
95873 11/70 80524 10135 20049 60004 70222
  333 70000=


####018000164####
SMCS01 MRLM 100000 RRA
AAXX 10004
78767 11565 82805 10292 20241 30080 40090 5/000 70522 81146
333
    05000 10310 20229 30/// 59020 70033 81820 86075=
####018000110####
SMAA01 NZSP 100000
AAXX 10004
89009 41832 30414 11634 36727 52003 77672 80005 
333 11631 21681 83257=
####018000103####
SITH21 VTBB 092100 RRB
AAXX 09214
48377 32562 40000 10280 20229 39894 40057 82505
  333 58001=
