####018000611####
SNVD22 KWNB 100100 RRH
BBXX
46050 10011 99446 71245 46/// /3607 10165 40169 55000 90050 22200
00152 10602 20602 330// 40801 70012 333 91209 555 11080 22088
30043 43609 60049 356072 358068 000063 000065 359066 356066=
46047 10011 99324 71195 46/// /3007 10145 40132 56009 90050 22200
11302 20401 322// 41302 70011 333 91209 555 11072 22076 30032
43109 60049 301066 301068 308067 303063 306064 307070=
46027 10011 99419 71244 46/// /3202 10118 40107 56013 90050 22200
00107 10703 20401 332// 40703 70015 333 91202 555 11019 22023
32353 43207 60049 322016 334021 335031 329041 326048 321057=
####018000523####
SNVD20 KWNB 100100 RRH
BBXX
44027 10011 99443 70673 46/// /1806 10158 20158 40134 57008 90050
22200 00134 10802 20301 300// 40801 70008 333 91207 555 11069
22079 30002 41708 60049 175061 173063 173065 173065 172068 173070=
44008 10011 99405 70692 46/// /1603 10207 20207 40130 55000 90050
22200 00184 10803 20401 315// 40803 70014 333 91204 555 11037
22044 30022 41605 60049 155032 157043 160048 161044 159042 160045=
44070 10011 99414 70710 46/// ///// 1//// 90106 22200 10801 20401
316// 40801 70007=
####018000221####
SNVD45 KWNB 100100 RRE
BBXX
45007 10011 99427 70870 46/// /2302 10234 20197 39933 40142 54000
90050 22200 00237 1//00 70001 333 91202 555 11018 22018 30042
42202 60049 226017 215013 215012 215007 180000 180000=
####018000127####
SNVE15 KWNB 100100 RRD
BBXX
52200 10011 99134 11448 46/// ///// 1//// 90052 22200 00298 10803
20803 310// 41101 70016=
####018000127####
SIID21 WIIX 092100 RRC
AAXX 09214
96207 32550 70000 10199 20182 39239 40161 57001 82232
  333 56000 57800 81820 83080=
####018000027####
SNVJ20 EHDB 100100
NIL
####018000027####
SNVE20 EHDB 100100
NIL
####018001135####
SNCN19 CWAO 100018
OOXX
MYP42 09221 99045 11014 ///// ////1
     26/// /1003 10170 29094 38431 92223 333 60000=
MYP42 09221 99045 11014 ///// ////1
     26/// /1202 10168 29093 38432 92233 333 60000=
MYP42 09221 99045 11014 ///// ////1
     26/// /1305 10165 29092 38427 92243 333 60000=
MYP42 09221 99045 11014 ///// ////1
     26/// /1503 10171 29089 38421 92253 333 60000=
MYP42 09231 99045 11014 ///// ////1
     26/// /1703 10172 29088 38425 92303 333 60000=
MYP42 09231 99045 11014 ///// ////1
     26/// /1601 10168 29090 38427 92313 333 60000=
MYP42 09231 99045 11014 ///// ////1
     26/// /1702 10172 29089 38434 92323 333 60000=
MYP42 09231 99045 11014 ///// ////1
     26/// /3501 10169 29090 38434 92333 333 60000=
MYP42 09231 99045 11014 ///// ////1
     26/// /1203 10173 29089 38432 92343 333 60000=
MYP42 09231 99045 11014 ///// ////1
     26/// /1701 10164 29093 38434 92353 333 60000=
MYP42 10001 99045 11014 ///// ////1
     26/// /1404 10170 29093 38436 90003 333 60000=
MYP42 10001 99045 11014 ///// ////1
     26/// /1201 10175 29092 38436 90013 333 60000=

####018001135####
SNCN19 CWAO 100015
OOXX
MRP43 09221 99181 70159 ///// ////1
     26/// /2908 10253 29078 30128 92210 333 60000=
MRP43 09221 99181 70159 ///// ////1
     26/// /2908 10253 29079 30130 92220 333 60000=
MRP43 09221 99181 70159 ///// ////1
     26/// /2807 10252 29078 30130 92230 333 60000=
MRP43 09221 99181 70159 ///// ////1
     26/// /2907 10252 29079 30130 92240 333 60000=
MRP43 09221 99181 70159 ///// ////1
     26/// /2907 10251 29079 30132 92250 333 60000=
MRP43 09231 99181 70159 ///// ////1
     26/// /2806 10250 29079 30132 92300 333 60000=
MRP43 09231 99181 70159 ///// ////1
     26/// /2907 10250 29080 30131 92310 333 60000=
MRP43 09231 99181 70159 ///// ////1
     26/// /2907 10249 29080 30134 92320 333 60000=
MRP43 09231 99181 70159 ///// ////1
     26/// /2907 10249 29080 30133 92330 333 60000=
MRP43 09231 99181 70159 ///// ////1
     26/// /2907 10249 29080 30134 92340 333 60000=
MRP43 09231 99181 70159 ///// ////1
     26/// /2907 10248 29080 30133 92350 333 60000=
MRP43 10001 99181 70159 ///// ////1
     26/// /2906 10248 29080 30133 90000 333 60000=

####018001135####
SNCN19 CWAO 100025
OOXX
PAP50 09221 99090 70795 ///// ////1
     26/// /3604 10297 29061 39973 92210 333 60000=
PAP50 09221 99090 70795 ///// ////1
     26/// /3403 10295 29063 39973 92220 333 60000=
PAP50 09221 99090 70795 ///// ////1
     26/// /3504 10294 29064 39975 92230 333 60000=
PAP50 09221 99090 70795 ///// ////1
     26/// /3404 10288 29067 39975 92240 333 60000=
PAP50 09221 99090 70795 ///// ////1
     26/// /3403 10289 29066 39978 92250 333 60000=
PAP50 09231 99090 70795 ///// ////1
     26/// /3503 10288 29067 39979 92300 333 60000=
PAP50 09231 99090 70795 ///// ////1
     26/// /3403 10285 29067 39979 92310 333 60000=
PAP50 09231 99090 70795 ///// ////1
     26/// /3403 10285 29067 39980 92320 333 60000=
PAP50 09231 99090 70795 ///// ////1
     26/// /3404 10281 29070 39979 92330 333 60000=
PAP50 09231 99090 70795 ///// ////1
     26/// /3402 10281 29070 39983 92340 333 60000=
PAP50 09231 99090 70795 ///// ////1
     26/// /3303 10279 29071 39985 92350 333 60000=
PAP50 10001 99090 70795 ///// ////1
     26/// /3303 10276 29073 39983 90000 333 60000=

####018001135####
SNCN19 CWAO 100026
OOXX
AUP09 09221 99124 31309 ///// ////1
     26/// /1404 10231 29081 30103 92235 333 60000=
AUP09 09221 99124 31309 ///// ////1
     26/// /1404 10235 29080 30105 92245 333 60000=
AUP09 09221 99124 31309 ///// ////1
     26/// /1404 10238 29078 30107 92255 333 60000=
AUP09 09231 99124 31309 ///// ////1
     26/// /1304 10239 29077 30108 92305 333 60000=
AUP09 09231 99124 31309 ///// ////1
     26/// /1205 10244 29076 30109 92315 333 60000=
AUP09 09231 99124 31309 ///// ////1
     26/// /1205 10248 29074 30111 92325 333 60000=
AUP09 09231 99124 31309 ///// ////1
     26/// /1206 10252 29072 30112 92335 333 60000=
AUP09 09231 99124 31309 ///// ////1
     26/// /1106 10254 29071 30114 92345 333 60000=
AUP09 09231 99124 31309 ///// ////1
     26/// /1206 10261 29067 30113 92355 333 60000=
AUP09 10001 99124 31309 ///// ////1
     26/// /1206 10263 29065 30114 90005 333 60000=
AUP09 10001 99124 31309 ///// ////1
     26/// /1107 10267 29062 30113 90015 333 60000=
AUP09 10001 99124 31309 ///// ////1
     26/// /1007 10270 29059 30114 90025 333 60000=

####018001135####
SNCN19 CWAO 100004
OOXX
AUP10 09221 99319 31160 ///// 00201
     26/// /0103 10085 29097 30131 92211 333 60000=
AUP10 09221 99319 31160 ///// 00201
     26/// /0603 10086 29097 30132 92221 333 69920=
AUP10 09221 99319 31160 ///// 00201
     26/// /0803 10087 29097 30134 92231 333 60000=
AUP10 09221 99319 31160 ///// 00201
     26/// /0801 10087 29097 30136 92241 333 69920=
AUP10 09221 99319 31160 ///// 00201
     26/// /0803 10087 29099 30137 92251 333 69960=
AUP10 09231 99319 31160 ///// 00201
     26/// /0304 10087 29099 30136 92301 333 69920=
AUP10 09231 99319 31160 ///// 00201
     26/// /0303 10086 29099 30136 92311 333 60000=
AUP10 09231 99319 31160 ///// 00201
     26/// /0303 10087 29097 30138 92321 333 60000=
AUP10 09231 99319 31160 ///// 00201
     26/// /0202 10088 29097 30138 92331 333 60000=
AUP10 09231 99319 31160 ///// 00201
     26/// /0403 10089 29099 30139 92341 333 69920=
AUP10 09231 99319 31160 ///// 00201
     26/// /0402 10087 29099 30141 92351 333 60000=
AUP10 10001 99319 31160 ///// 00201
     26/// /0103 10087 29097 30142 90001 333 60000=

####018001135####
SNCN19 CWAO 100041
OOXX
RUP60 09221 99531 11588 ///// ////1
     26/// /1202 10107 29082 30128 92246 333 60000=
RUP60 09221 99531 11588 ///// ////1
     26/// /0902 10109 29080 30128 92256 333 60000=
RUP60 09231 99531 11588 ///// ////1
     26/// /1803 10111 29081 30128 92306 333 60000=
RUP60 09231 99531 11588 ///// ////1
     26/// /1404 10113 29081 30128 92316 333 60000=
RUP60 09231 99531 11588 ///// ////1
     26/// /0904 10110 29081 30128 92326 333 60000=
RUP60 09231 99531 11588 ///// ////1
     26/// /1003 10109 29082 30128 92336 333 60000=
RUP60 09231 99531 11588 ///// ////1
     26/// /2304 10111 29080 30129 92346 333 60000=
RUP60 09231 99531 11588 ///// ////1
     26/// /1104 10116 29080 30129 92356 333 60000=
RUP60 10001 99531 11588 ///// ////1
     26/// /1103 10112 29080 30130 90006 333 60000=
RUP60 10001 99531 11588 ///// ////1
     26/// /1001 10111 29079 30130 90016 333 60000=
RUP60 10001 99531 11588 ///// ////1
     26/// /1302 10104 29081 30130 90026 333 60000=
RUP60 10001 99531 11588 ///// ////1
     26/// /0803 10109 29080 30130 90036 333 60000=

####018001135####
SNCN19 CWAO 100003
OOXX
NOP49 09221 99782 10154 ///// 04551
     26/// /0702 10067 29087 39548 92210 333 6///0=
NOP49 09221 99782 10154 ///// 04551
     26/// /0502 10055 29093 39548 92220 333 6///0=
NOP49 09221 99782 10154 ///// 04551
     26/// /0802 10056 29094 39548 92230 333 6///0=
NOP49 09221 99782 10154 ///// 04551
     26/// /1103 10059 29093 39548 92240 333 6///0=
NOP49 09221 99782 10154 ///// 04551
     26/// /1002 10059 29092 39548 92250 333 6///0=
NOP49 09231 99782 10154 ///// 04551
     26/// /1102 10056 29092 39548 92300 333 6///0=
NOP49 09231 99782 10154 ///// 04551
     26/// /1102 10052 29093 39548 92310 333 6///0=
NOP49 09231 99782 10154 ///// 04551
     26/// /0901 10055 29093 39548 92320 333 6///0=
NOP49 09231 99782 10154 ///// 04551
     26/// /1102 10051 29093 39549 92330 333 6///0=
NOP49 09231 99782 10154 ///// 04551
     26/// /1102 10052 29094 39548 92340 333 6///0=
NOP49 09231 99782 10154 ///// 04551
     26/// /1202 10055 29094 39548 92350 333 6///0=
NOP49 10001 99782 10154 ///// 04551
     26/// /0902 10052 29093 39548 90000 333 6///0=

####018001135####
SNCN19 CWAO 100056
OOXX
RUP58 09221 99441 11320 ///// /1121
     26/// /1904 10176 29083 39960 92248 333 60000=
RUP58 09221 99441 11320 ///// /1121
     26/// /2104 10175 29083 39960 92258 333 60000=
RUP58 09231 99441 11320 ///// /1121
     26/// /2205 10176 29083 39959 92308 333 60000=
RUP58 09231 99441 11320 ///// /1121
     26/// /2004 10175 29083 39959 92318 333 60000=
RUP58 09231 99441 11320 ///// /1121
     26/// /2104 10177 29084 39959 92328 333 60000=
RUP58 09231 99441 11320 ///// /1121
     26/// /2103 10178 29083 39959 92338 333 60000=
RUP58 09231 99441 11320 ///// /1121
     26/// /2103 10180 29083 39959 92348 333 60000=
RUP58 09231 99441 11320 ///// /1121
     26/// /2004 10183 29081 39959 92358 333 60000=
RUP58 10001 99441 11320 ///// /1121
     26/// /2204 10186 29081 39960 90008 333 60000=
RUP58 10001 99441 11320 ///// /1121
     26/// /2103 10185 29081 39960 90018 333 60000=
RUP58 10001 99441 11320 ///// /1121
     26/// /2003 10189 29080 39961 90028 333 60000=
RUP58 10001 99441 11320 ///// /1121
     26/// /1902 10190 29079 39961 90038 333 60000=

####018001135####
SNCN19 CWAO 100042
OOXX
KIP39 09221 99020 51574 ///// ////1
     26/// /1005 10290 29067 30113 92230 333 60000=
KIP39 09221 99020 51574 ///// ////1
     26/// /1105 10289 29067 30112 92240 333 60000=
KIP39 09221 99020 51574 ///// ////1
     26/// /1005 10294 29066 30110 92250 333 60000=
KIP39 09231 99020 51574 ///// ////1
     26/// /1005 10293 29066 30109 92300 333 60000=
KIP39 09231 99020 51574 ///// ////1
     26/// /1005 10293 29065 30107 92310 333 60000=
KIP39 09231 99020 51574 ///// ////1
     26/// /1105 10296 29064 30106 92320 333 60000=
KIP39 09231 99020 51574 ///// ////1
     26/// /1105 10297 29064 30106 92330 333 60000=
KIP39 09231 99020 51574 ///// ////1
     26/// /1105 10292 29066 30105 92340 333 60000=
KIP39 09231 99020 51574 ///// ////1
     26/// /1105 10289 29068 30104 92350 333 60000=
KIP39 10001 99020 51574 ///// ////1
     26/// /1205 10290 29067 30104 90000 333 60000=
KIP39 10001 99020 51574 ///// ////1
     26/// /1305 10289 29066 30101 90010 333 60000=
KIP39 10001 99020 51574 ///// ////1
     26/// /1305 10290 29067 30099 90020 333 60000=

####018001135####
SNCN19 CWAO 100008
OOXX
ARP01 09221 99345 50585 ///// 00681
     26/// /0000 10063 29029 30221 92210 333 60000=
ARP01 09221 99345 50585 ///// 00681
     26/// /0000 10062 29030 30220 92220 333 60000=
ARP01 09221 99345 50585 ///// 00681
     26/// /0000 10061 29030 30221 92230 333 60000=
ARP01 09221 99345 50585 ///// 00681
     26/// /0000 10060 29030 30222 92240 333 60000=
ARP01 09221 99345 50585 ///// 00681
     26/// /0000 10059 29031 30222 92250 333 60000=
ARP01 09231 99345 50585 ///// 00681
     26/// /0000 10059 29031 30223 92300 333 60000=
ARP01 09231 99345 50585 ///// 00681
     26/// /0000 10058 29031 30223 92310 333 60000=
ARP01 09231 99345 50585 ///// 00681
     26/// /0000 10058 29031 30225 92320 333 60000=
ARP01 09231 99345 50585 ///// 00681
     26/// /0000 10057 29032 30225 92330 333 60000=
ARP01 09231 99345 50585 ///// 00681
     26/// /0000 10057 29032 30227 92340 333 60000=
ARP01 09231 99345 50585 ///// 00681
     26/// /0000 10057 29032 30227 92350 333 60000=
ARP01 10001 99345 50585 ///// 00681
     26/// /0000 10057 29032 30227 90000 333 60000=

####018001135####
SNCN19 CWAO 100030
OOXX
TZP64 09221 99068 30392 ///// ////1
     26/// /0301 10215 29087 30048 92230 333 60000=
TZP64 09221 99068 30392 ///// ////1
     26/// /1201 10215 29087 30047 92240 333 60000=
TZP64 09221 99068 30392 ///// ////1
     26/// /1101 10214 29087 30046 92250 333 60000=
TZP64 09231 99068 30392 ///// ////1
     26/// /1201 10215 29088 30045 92300 333 60000=
TZP64 09231 99068 30392 ///// ////1
     26/// /1301 10214 29088 30045 92310 333 60000=
TZP64 09231 99068 30392 ///// ////1
     26/// /1201 10214 29088 30044 92320 333 60000=
TZP64 09231 99068 30392 ///// ////1
     26/// /1301 10214 29088 30042 92330 333 60000=
TZP64 09231 99068 30392 ///// ////1
     26/// /1301 10214 29089 30041 92340 333 60000=
TZP64 09231 99068 30392 ///// ////1
     26/// /1201 10214 29089 30040 92350 333 60000=
TZP64 10001 99068 30392 ///// ////1
     26/// /1201 10214 29089 30040 90000 333 60000=
TZP64 10001 99068 30392 ///// ////1
     26/// /1301 10214 29089 30039 90010 333 60000=
TZP64 10001 99068 30392 ///// ////1
     26/// /1501 10214 29089 30039 90020 333 60000=

####018001135####
SNCN19 CWAO 100007
OOXX
ISP34 09221 99641 70218 ///// ////1
     26/// /1903 10135 29080 39944 92210 333 6///0=
ISP34 09221 99641 70218 ///// ////1
     26/// /1903 10134 29080 39945 92220 333 6///0=
ISP34 09221 99641 70218 ///// ////1
     26/// /1903 10133 29081 39945 92230 333 6///0=
ISP34 09221 99641 70218 ///// ////1
     26/// /2203 10132 29080 39946 92240 333 6///0=
ISP34 09221 99641 70218 ///// ////1
     26/// /2103 10131 29080 39947 92250 333 6///0=
ISP34 09231 99641 70218 ///// ////1
     26/// /2102 10129 29081 39947 92300 333 6///0=
ISP34 09231 99641 70218 ///// ////1
     26/// /2102 10129 29082 39948 92310 333 6///0=
ISP34 09231 99641 70218 ///// ////1
     26/// /2102 10129 29081 39949 92320 333 6///0=
ISP34 09231 99641 70218 ///// ////1
     26/// /1902 10129 29082 39950 92330 333 6///0=
ISP34 09231 99641 70218 ///// ////1
     26/// /1601 10129 29083 39951 92340 333 6///0=
ISP34 09231 99641 70218 ///// ////1
     26/// /1702 10129 29082 39951 92350 333 6///0=
ISP34 10001 99641 70218 ///// ////1
     26/// /1501 10129 29082 39952 90000 333 6///0=

####018001135####
SNCN19 CWAO 100052
OOXX
FRP31 09221 99052 70527 ///// ////1
     26/// /0502 10254 29077 39815 92247 333 60000=
FRP31 09221 99052 70527 ///// ////1
     26/// /0402 10252 29078 39816 92257 333 60000=
FRP31 09231 99052 70527 ///// ////1
     26/// /0402 10253 29077 39818 92307 333 60000=
FRP31 09231 99052 70527 ///// ////1
     26/// /0403 10253 29076 39821 92317 333 60000=
FRP31 09231 99052 70527 ///// ////1
     26/// /0502 10255 29076 39827 92327 333 60000=
FRP31 09231 99052 70527 ///// ////1
     26/// /0502 10255 29076 39823 92337 333 60000=
FRP31 09231 99052 70527 ///// ////1
     26/// /0502 10254 29077 39822 92347 333 60000=
FRP31 09231 99052 70527 ///// ////1
     26/// /0501 10253 29076 39826 92357 333 60000=
FRP31 10001 99052 70527 ///// ////1
     26/// /0502 10253 29076 39827 90007 333 60000=
FRP31 10001 99052 70527 ///// ////1
     26/// /0501 10253 29076 39827 90017 333 60000=
FRP31 10001 99052 70527 ///// ////1
     26/// /0801 10254 29076 39830 90027 333 60000=
FRP31 10001 99052 70527 ///// ////1
     26/// /0601 10251 29077 39826 90037 333 60000=

####018001135####
SNCN19 CWAO 100046
OOXX
PHP52 09221 99146 11214 ///// ////1
     26/// /0000 10000 29000 3//// 92240 333 60000=
PHP52 09221 99146 11214 ///// ////1
     26/// /0000 10000 29000 3//// 92250 333 60000=
PHP52 09231 99146 11214 ///// ////1
     26/// /0000 10000 29000 3//// 92300 333 60000=
PHP52 09231 99146 11214 ///// ////1
     26/// /0000 10000 29000 3//// 92310 333 60000=
PHP52 09231 99146 11214 ///// ////1
     26/// /0000 10000 29000 3//// 92320 333 60000=
PHP52 09231 99146 11214 ///// ////1
     26/// /0000 10000 29000 3//// 92330 333 60000=
PHP52 09231 99146 11214 ///// ////1
     26/// /0000 10000 29000 3//// 92340 333 60000=
PHP52 09231 99146 11214 ///// ////1
     26/// /0000 10000 29000 3//// 92350 333 60000=
PHP52 10001 99146 11214 ///// ////1
     26/// /0000 10000 29000 3//// 90000 333 60000=
PHP52 10001 99146 11214 ///// ////1
     26/// /0000 10000 29000 3//// 90010 333 60000=
PHP52 10001 99146 11214 ///// ////1
     26/// /0000 10000 29000 3//// 90020 333 60000=
PHP52 10001 99146 11214 ///// ////1
     26/// /0000 10000 29000 3//// 90029 333 60000=

####018000307####
SNSP20 LEMM 100100
AAXX 10014
08045 46/// /3104 10163 20148 39911 40215 58007
  555 60005=
08181 NIL=
08221 42980 03503 10227 20130 39518 40171 50001
  555 60005=
08284 46/// /0903 10242 20199 30117 40189 50000
  555 60005=
08314 46/// /0705 10208 20195 30093 40193 58005
  555 60005=
####018000121####
SNAU50 AMMC 092300 CCA
AAXX 09234
94494 11984 00000 10100 20090 39987 40224 52013 60004 70200
  333 70000=


####018000119####
SMRA12 RUNW 100000 CCA
AAXX 10001
36038 32598 71401 10117 20111 39629 40044 54000 86530 333 20111 55040
86623=
####018000109####
SNDL46 EDZW 100100 RRB
AAXX 10011
10404 42975 22001 10219 20163 30132 40182 52004 82070
  333 82362=
####018000125####
SNVD02 CWAO 100100
BBXX
LAJV4 10014 99/// ///// 46/// /2913 10081 20072 40219 51013 7//// 8//// 22200 0//// 2//// =

####018000619####
SNSP21 LEMM 100100
AAXX 10014
08084 46/// /0000 10192 20142 39798 40218 52001
  555 60005=
08184 46/// /0000 10220 20195 30055 40205 58008
  555 60005=
08202 46/// /2605 10184 20149 39299 42840 50002
  555 60005=
08360 46/// /0201 10220 20154 30140 40176 58005
  555 60005=
08373 46/// /3404 10226 20209 30161 40182 58007
  555 60005=
08410 46/// /2504 10258 20164 30061 40166 51007
  555 60005=
08419 45/80 /0000 10206 20088 39535 40182 51003
  555 60005=
08451 46/// /0000 10219 20189 30140 40172 58005
  555 60005=
08487 46/// /0000 10234 20201 30151 40175 58007
  555 60005=
####018000089####
SMPS40 AMMC 100000 RRA
AAXX 10004
91559 46/// /9901 10271 40126 22200 00271=


####018000725####
SAYE20 OYSC 100100 RRA
METAR OYAA 100100Z 17008KT 7000 SCT020 BKN100 32/18 Q1002=
METAR OYAG 100100Z NIL=
METAR OYAM 100100Z NIL=
METAR OYAR 100100Z NIL=
METAR OYAS 100100Z NIL=
METAR OYAT 100100Z NIL=
METAR OYDM 101000Z NIL=
METAR OYHD 101000Z 25006KT 8000 SCT030 32/30 Q////=
METAR OYIB 100100Z NIL=
METAR OYKD 100100Z NIL=
METAR OYMB 100100Z NIL=
METAR OYMK 100100Z NIL=
METAR OYMT 100100Z NIL=
METAR OYRN 101000Z 02004KT 7000 FEW025 29/24 Q1003=
METAR OYSD 100100Z NIL=
METAR OYSH 100100Z NIL=
METAR OYSN 101000Z 20003KT 8000 SCT030 18/15 Q1021=
METAR OYSQ 100100Z 22032G42KT 9999 FEW018 26/21 Q1007=
METAR OYSY 100100Z 23003KT 190V260 CAVOK 29/20 Q1005=
METAR OYTZ 101000Z NIL=
####018000246####
SNMK10 LYPG 100100
AAXX 10011
13463 42970 00203 10238 20106 30128 40185 58001=
13459 42970 00204 10182 20100 39477 40214 53006=
13461 42970 00502 10248 20100 30169 40176 57011 333 92323 92438=
13363 42965 02501 10102 20099 39327 48554 57006=
####018000102####
SMCN28 CWAO 100000 RRC
AAXX 10004
71824 16/// /0302 10200 20170 60001 333 10244 20148 70000=

####018000140####
SMCN04 CWAO 100000 RRB
AAXX 10004
71628 11566 83206 10216 20211 39964 40099 55003 60031 76186
8157/ 333 10275 20212 70172 90936=

####018000122####
SMCN31 CWAO 100000 RRH
AAXX 10004
71165 46/// /0401 10146 20081 39851 40125 58003 6///1 333 10146
20077 7////=

####018000164####
SNCR20 GCLP 100100
AAXX 10014
60030 46/// /0127 10211 20181 30093 40148 58004
  555 60005=
60040 46/// /3522 10214 20178 30130 40155 58009
  555 60005=
####018000137####
SMCN04 CWAO 100000 RRB
AAXX 10004
71628 11566 83206 10216 20211 39964 40099 55003 60031 76186
8157/ 333 10275 20212 70172 90936=
####018000115####
SMXX18 KAWN 100000 RRC
BBXX
UFLT 10001 99497 11553 42/97 91101 10022 40211 54000 893// 22213
 00080 31100=
####018000117####
SNFP20 LFVP 100100
AAXX 10014
71805 24/02 92512 10141 20141 30156 40164 53007 745//
  333 60005 90710 91118=
####018000089####
SNNC22 NWBB 092300 RRA
AAXX 09234
91598 46/// /0104 10230 20196 30119 40150 50008=
####018000124####
SNVD02 CWAO 100100
BBXX
VOKJ 10014 99/// ///// 46/// /1905 10219 20209 40092 51008 7//// 8//// 22200 0//// 2//// =

####018000380####
SMCI09 BABJ 100000 RRA
AAXX 10001
58968 32565 51901 10307 20248 30088 40095 51012 82438=
58974 32565 21402 10293 20276 39982 40101 53011 82100=
59358 32570 61802 10304 20250 30080 40110 52010 81140=
59559 32565 62903 10301 20260 30075 40102 51012 83220=
59792 32562 41903 10312 20270 30095 40100 52008 83860=
59997 32460 52902 10292 20257 30096 40104 52012 82210=
####018000209####
SMCI39 BABJ 100000 RRA
AAXX 10001
59158 32560 42602 10300 20248 30008 40105 53009 84200=
59562 32570 60302 10307 20261 30081 40092 51015 81106=
59567 32465 62510 10267 20243 39740 40108 52015 82401=
####018000109####
SMDL45 EDZW 100000 RRA
AAXX 10001
10238 42960 40901 10219 20155 30086 40176 55000 84030
  333 84367=
####018000109####
SNDL45 EDZW 100100 RRA
AAXX 10011
10238 42960 43401 10206 20158 30086 40177 55000 84030
  333 84367=
####018000518####
SMNV01 NVVV 100000 RRB
AAXX 10003

91551 31598 30000 10290 20248 40133 58003 70222 83200
       333 20221 563// 59001 83820 =
91553 31598 61206 10275 20239 40141 58006 70222 85201
        333 20235 563/9 59004 85820 =
91554 31598 11804 10285 20221 40136 58006 70221 81100
        333 20195 564// 59013 81828=
91555 31698 49902 10285 40146 5//// 70111 82100
        333 20/// 596// 82820 =
91568 11598 40000 10260 20215 40143 58012 69914 70282 84100
        333 20155 566// 59022 69914 82825=
####018000355####
SMTO01 NFTF 100000

AAXX 10004

91779 31398 60910 10274 20241 40166 58010 60001 70222 867// 333 20222
562//
70021 82709 86820=

91784 31498 81012 10253 20224 40172 58009 60001 70322 888// 333 20201
562//
70004 84817 88640=

91792 11398 81107 10243 20218 40188 58009 69901 72522 8477/ 333 20191
5629/
79999 82709 84815 88362=
####018000145####
SMTV01 NGFU 100000
AAXX 10004
91643 11498 89903 10283 20242 40124 58009 60121 71488 83278 333
20240 50044 56499 70353 83818 85460 88280=
####018002212####
SNSN21 ESWI 100100
AAXX 10011
02019 25/83 /2102 10067 21046 39538 40155 57009
  333 60005 90710 91105=
02081 27/48 /2002 10115 20111 39753 40147 53004 76366
  333 60045 90710 91106=
02095 27001 /3101 10117 20114 39940 40138 55000 73133
  333 60005 89/01 90710 91103=
02101 45979 /0000 10045 20036 39615 40176 56007 8////=
02119 25/99 /3102 10052 20045 39777 40163 58003
  333 60005 90710 91104=
02124 25/99 /1601 10072 20021 39647 40169 58005
  333 60005 90710 91101=
02126 25/82 /1001 10072 2//// 39834 40170 53003
  333 60005 90710 91101=
02186 45984 /2701 10124 20117 30119 40144 52007=
02197 27/43 /2901 10135 20134 30122 40140 52002 71031
  333 60005 90710 91103=
02207 25/99 /2801 10091 20070 39441 40127 58017
  333 60005 90710 91102=
02219 25/83 /1103 10118 20045 39493 40143 58012
  333 60005 90710 91106=
02226 45984 /1703 10144 20068 39695 40134 58007 8////=
02243 25/62 /0601 10087 20077 39889 40154 57005
  333 60005 90710 91102=
02287 25/63 /0901 10131 20131 30140 40150 53003
  333 60005 90710 91102=
02308 25899 /1601 10110 20061 39303 40143 58012
  333 60005 81/58 86/59 87/62 88/// 90710 91105=
02327 25/81 /3101 10059 20052 39730 40165 57003
  333 60005 90710 91102=
02355 25983 /2303 10185 20096 30142 40153 57002
  333 60005 81/59 90710 91105=
02407 25/99 /1701 10117 2//// 39810 40171 54000
  333 60005 90710 91105=
02432 45984 /1801 10115 20089 30117 40187 58003 8////=
02440 25/73 /0000 10093 2////
  333 60005 90710 91101=
02456 26/// /0000 10125 20094 30133 40175 57002
  333 60005 90710 91102=
02469 27/01 /0000 10119 20113 73433
  333 60005 90710 91101=
02498 26/63 /2404 10179 20169 30166 40182 57003
  333 60005 90710 91106=
02500 25/79 /1404 10153 20129 30128 40169 58010
  333 60005 90710 91106=
02518 469// /1205 10183 20138
  333 81/59 90710 91106=
02520 45984 /1302 10106 20086 30119 40187 58007=
02565 25/65 /3100 10109 20086 30084 40203 54000
  333 60005 90710 91101=
02618 25/81 /0401 10126 20115 30030 40191 57009
  333 60005 90710 91102=
02664 45965 /0801 10143 20135 30136 40206 57002=
02679 25/82 /2404 10182 20161 30162 40205 52002
  333 60005 90710 91107=
####018000089####
SITU12 LTAA 092100 RRB
AAXX 09214
17092 42960 00000 10181 20053 38830 48487 52012=
####018000085####
SNNC22 NWBB 100100
AAXX 10014
91574 46/// ///// 10239 20190 30219 40225 51126=
####018000089####
SMPS40 AMMC 100000 RRB
AAXX 10004
91531 46/// /3507 10292 40104 22200 00260=


####018000107####
SMTV01 NGFU 100000 RRA
AAXX 09184
91631 11498 81007 10250 20231 40092 69941 78008 8327/ 333
5629/=
####018005075####
SNSW23 LSSW 100100
AAXX 10014
06717 33/// /0907 10130 20060 37652 47231 57003
  333 91110 91207=
06621 33/// /2204 10195 20176 39694 40201 52004
  333 91105 91204=
06798 33/// /2705 10169 20087 38788 48589 52004
  333 91109 91205=
06659 33/// /2507 10166 20072 38005 48589 57001
  333 91109 91207=
06702 43/// ///// 10172 20131 38415 48585 57008=
06639 33/// /2905 10200 20115 38683 48589 51004
  333 91110 91207=
06628 33/// /1903 10202 20112 39053 48585 51006
  333 91111 91206=
06626 33/// /0000 10178 20164 39763 40207 51009
  333 91102 91201=
06636 33/// /0201 10188 20169 39658 40211 51010
  333 91103 91202=
06670 NIL=
06643 33/// /2302 10177 20167 39718 40209 52009
  333 91103 91202=
06610 33/// /2204 10203 20162 39645 40205 52009
  333 91109 91206=
06780 33/// /3409 10129 21018 37484 47233 57004
  333 91124 91216=
06748 33/// /0201 10169 20056 38453 48592 55000
  333 91105 91202=
06751 33/// /3501 10158 20083 38200 48590 56005
  333 91106 91202=
06620 33/// /0000 10188 20153 39700 40207 53006
  333 91107 91206=
06750 33/// /3504 10158 20035 37837 48593 57003
  333 91106 91205=
06646 33/// /0000 10189 20189 39827 40207 52007
  333 91102 91201=
06711 33/// /0203 10240 20178 39679 40195 50005
  333 91108 91203=
06792 33/// /1902 10098 20071 38385 48597 50001
  333 91103 91203=
06664 33/// /0000 10179 20168 39693 40207 52005
  333 91101 91200=
06770 33/// /3501 10236 20198 39859 40204 55001
  333 91103 91202=
06650 33/// /0202 10205 20156 39681 40202 52009
  333 91104 91202=
06700 NIL=
06601 33/// /2003 10207 20171 39834 40201 52005
  333 91106 91204=
06679 33/// /0000 10177 20158 39586 40206 53004
  333 91102 91202=
06735 33/// /0000 10189 20108 38763 48588 52002
  333 91104 91202=
06645 33/// /1301 10223 20143 39507 48576 52005
  333 91103 91202=
06673 33/// /2702 10213 20156 39648 40202 52007
  333 91103 91202=
06672 33/// /2102 10210 20140 39702 40205 52009
  333 91103 91203=
06786 33/// /0000 10205 20147 39574 40207 51002
  333 91109 91205=
06727 33/// /3201 10176 20148 39483 48567 53010
  333 91103 91202=
06619 33/// /3203 10188 20133 38884 48585 58000
  333 91108 91203=
06609 33/// /2302 10178 20058 38125 48588 58001
  333 91111 91209=
06794 33/// /0403 10161 20140 39020 48582 57006
  333 91105 91203=
06760 33/// /3202 10238 20196 39777 40203 55001
  333 91104 91202=
06685 33/// /1001 10197 20140 39615 40207 52006
  333 91103 91201=
06712 33/// /1102 10182 20161 39767 40211 52010
  333 91103 91202=
06689 33/// /0906 10211 20098 38956 48585 52003
  333 91111 91208=
06604 33/// /2503 10230 20145 39648 40197 52010
  333 91105 91203=
06787 33/// /1001 10152 20113 39116 48578 50000
  333 91103 91201=
06724 33/// /3602 10155 20110 38666 48588 51003
  333 91103 91203=
06759 33/// /3003 10168 20164 38425 48587 57005
  333 91108 91207=
06783 33/// /2801 10126 20079 38450 48591 57005
  333 91102 91201=
06680 33/// /0706 10148 21051 37647 47237 57003
  333 91107 91206=
06720 33/// /0301 10207 20156 39655 40206 52011
  333 91103 91202=
06782 33/// /3101 10181 20111 38897 48588 57002
  333 91104 91202=
06660 33/// /0501 10208 20164 39568 40201 52006
  333 91104 91202=
06734 33/// /1801 10203 20141 39549 40206 52008
  333 91104 91203=
06612 33/// /0000 10171 20137 39080 48578 50002
  333 91103 91201=
06730 43/// /3206 10055 21019 36717 47237 56006
  333 91108 91207=
06704 33/// /2903 10197 20157 39430 58001
  333 91110 91207=
06631 33/// /1801 10194 20160 39575 40208 51010
  333 91104 91203=
06669 43/// /0506 10237 20138 39251 48578 52004
  333 91112 91210=
06771 33/// /2101 10204 20191 39801 40208 50000
  333 91102 91202=
06605 33/// /2810 10181 20133 38493 48589 52001
  333 91117 91214=
06722 33/// /0205 10162 20069 38268 48593 50000
  333 91109 91205=
06990 33/// /2401 10200 20163 39676 40202 52005
  333 91104 91202=
06784 33/// /1702 10141 20059 38495 48591 57002
  333 91103 91203=
06788 33/// /2501 10109 20070 38476 48595 57003
  333 91102 91202=
06747 43/// /0301 10121 20010 37297 47234 57005
  333 91106 91202=
06762 33/// /0302 10212 20207 39966 40204 57001
  333 91102 91202=
06633 33/// /1901 10186 20168 39756 40205 52008
  333 91104 91203=
06744 33/// /2610 10157 20019 38145 48598 57002
  333 91111 91210=
06616 33/// /1103 10207 20148 39523 40200 50001
  333 91108 91206=
06705 33/// /3304 10211 20161 39677 40202 58001
  333 91109 91205=
06745 33/// /0501 10116 20097 38744 48584 55000
  333 91104 91203=
06756 33/// /3001 10201 20180 39554 40210 55003
  333 91106 91204=
06791 33/// /3606 10089 21022 36942 47234 58004
  333 91110 91208=
06666 33/// /0000 10183 20174 39806 40204 52006
  333 91102 91201=
06753 33/// /2601 10172 20145 39111 48580 57006
  333 91105 91202=
06681 33/// /1702 10211 20125 39328 48575 50000
  333 91103 91202=
06655 33/// /1103 10176 20098 39059 48579 52005
  333 91104 91203=
####018000344####
SNPF80 KWBC 100100 RRA
AAXX 10014
91945 26/// /0914 10259 20207 30187 40192 55012 333 60005 90710
91123 555 1//23=
91930 36/// ///// 10290=
91958 22482 60510 10210 20188 30238 40240 55009 86800 333 60005
56100 86816 90710 91117 555 1//17=
91954 22565 30710 10257 20196 30206 40209 55009 83200 333 60005
56200 83820 555 1//14=
####018000089####
SMPS40 AMMC 100000 RRC
AAXX 10004
91519 46/// /0507 10297 40131 22200 00290=


####018000030####
SNAU03 AMMC 100100
NIL

####018000401####
SNAU05 AMMC 100100
AAXX 10014
94691 NIL=
94693 NIL=
94700 NIL=
94703 NIL=
94710 NIL=
94729 NIL=
94750 NIL=
94767 NIL=
94776 NIL=
94791 NIL=
94842 NIL=
94865 NIL=
94875 NIL=
94893 NIL=
94907 NIL=
94910 NIL=
94926 NIL=
94935 NIL=
94995 NIL=
95485 NIL=
95527 45/// /0610 10169 20072 30000 40264 57003
  333 20059=
95719 NIL=
95762 NIL=
95839 NIL=

####018002330####
SNAU01 AMMC 100100
AAXX 10014
94102 15/// /0807 10268 20233 30142 40151 51014 60004
  333 20242 70000=
94103 NIL=
94200 NIL=
94203 11275 61205 10238 20226 30148 40158 51020 60324 70322 85520
  333 20219 70324=
94206 17/// /3607 10271 20229 30025 40159 51018 69924 7//44
  333 20211 70002=
94207 46/// /1610 10254 30145 40154 51023=
94211 NIL=
94212 11982 53004 10263 20173 39679 40167 51017 60004 70311 85051
  333 20185 70000=
94216 15/// /1504 10275 20179 30104 40155 51012 60004
  333 20178 70000=
94300 11775 40710 10148 20084 30205 40214 51020 69924 70511 83530
  333 20082 70002=
94302 15/// /1311 10158 20085 30209 40215 52027 60004
  333 20085 70000=
94312 15/// /1318 10183 20057 30171 40180 53019 69924
  333 70002=
94313 11965 01304 10137 20035 39662 40198 52032 60004 70200
  333 70000=
94317 15/// /1509 10117 20058 39603 40213 52034 60004
  333 20042 70000=
94319 15/// /1415 10152 20062 39849 40191 52018 69924
  333 20117 70002=
94403 NIL=
94429 15/// /3104 10088 20064 39727 40209 53017 60054
  333 20051 70052=
94430 15/// /2004 10086 20057 39603 40211 53020 60014
  333 20030 70010=
94449 15/// /2711 10079 20057 39658 40206 51030 60044
  333 20043 70036=
94451 11980 01805 10112 20042 39683 40210 60014 70200
  333 70013=
94601 15/// /2715 10143 20085 30125 40142 51016 60054
  333 20094 70052=
94610 NIL=
94637 15/// /3009 10074 20037 39744 40184 51030 60024
  333 20048 70020=
94638 11562 53013 10089 20046 30096 40128 52033 60164 78088 85830
  333 20072 70164=
94642 11/75 12717 10085 20049 39966 40148 60074 70311 81500
  333 70072=
94643 NIL=
94647 11882 12917 10114 20040 30019 40141 51035 60154 7016/ 81200
  333 20083 70152=
94802 11680 23110 10091 20063 30047 40130 51025 60094 70111 82800
  333 20061 70088=
95205 17/// /1706 10238 20229 30153 40161 52025 60674 7//44
  333 20224 70668=
95448 15/// /2408 10080 20063 39615 40201 51027 60014
  333 20042 70014=
95634 15/// /3208 10077 20073 39770 40185 51024 60034
  333 20046 70028=
95637 15/// /3007 10064 20043 39823 40165 51026 60034
  333 20023 70026=
95641 17/// /2301 10109 20093 30055 40153 51019 60244 7//44
  333 20066 70244=
95646 15/// /2821 10105 20065 39969 40161 51033 60094
  333 20073 70088=
96995 NIL=

####018000030####
SNAU06 AMMC 100100
NIL

####018000058####
SNAU45 AMMC 100100
AAXX 10014
95675 46/// /3426=

####018001310####
SNAU40 AMMC 100100
AAXX 10014
94100 15/// /0803 10291 20188 30120 40148 51010 60004
  333 20181 70000=
94201 11/75 80000 10255 20248 30145 40155 52020 60193 70396
  333 7////=
94202 11/70 31806 10210 20178 30151 40165 60174 70180
  333 70168=
94204 15/// /0000 10242 20228 30072 40163 51026 60214
  333 20216 70206=
94208 11970 00000 10276 20275 30136 40155 51006 60004 70200
  333 70000=
94217 15/// /1504 10270 20168 39973 40163 51014 60004
  333 20190 70000=
94303 15/// /1418 10169 20096 30201 40207 51031 69924
  333 20154 70002=
94305 11980 01317 10157 20102 60004 70200
  333 70000=
94306 15/// /1712 10163 20056 30176 40192 51023 69924
  333 20085 70002=
94308 15/// /1608 10184 20063 30182 40195 53026 60004
  333 20099 70000=
94309 11970 00000 10180 20178 30174 40189 52026 60004 70200
  333 70000=
94311 11970 01314 10195 20061 30165 40176 69934 70200
  333 70003=
94316 /5/// /1010 10131 20058 39712 40205 51027 60004
  333 20053 70000=
94318 11980 0//// 10138 20102 30080 40212 52032 60004 70200
  333 70000=
94401 11782 80000 10125 20114 30205 40213 60034 70222 88500
  333 70032=
94404 11/82 13003 10093 20072 39794 40197 60014 70100
  333 70010=
94417 06/// /3404 10102 20099 39885 40209 53025 60084
  333 20041 70076=

####018000058####
SNAU44 AMMC 100100
AAXX 10014
94666 46/// /3524=

####018002498####
SNAU42 AMMC 100100
AAXX 10014
94636 11970 02910 10078 20072 39868 40147 69954 70000
  333 70005=
94640 11570 62508 10138 20100 30126 40129 52017 60054 70222 86200
  333 70049=
94641 06/// /3009 10072 20049 39772 40154 51025 60004
  333 20042 70000=
94644 15/// /2914 10115 20040 30130 40134 51034 60084
  333 20079 70076=
94645 11/70 13125 10110 20044 30136 40143 52033 60054 70200 81040
  333 70050=
94801 11/65 32908 10096 20066 60134 71500
  333 70132=
95204 17/// /0000 10244 60354 7//44
  333 20221 70348=
95214 15/// /2205 10275 20174 30149 40154 51013 60004
  333 20189 70000=
95303 15/// ///// 10186 20074 30163 40191 51028 60004
  333 70000=
95304 15/// /1518 10181 20084 30185 40193 51027 60004
  333 20169 70000=
95305 15/// /1312 10165 20082 30197 40210 51030 60004
  333 20111 70000=
95307 15/// /1807 10173 20065 30185 40192 53031 60004
  333 20109 70000=
95316 11/// ///// 10108 20051 60004
  333 70000=
95317 15/// /1509 10164 20060 39976 40190 51017 60004
  333 20122 70000=
95402 15/// /0506 10150 20096 30173 40214 53024 69924
  333 20109 70002=
95600 11/80 52608 10154 20088 30181 40192 52021 60054 70322
  333 70050=
95602 /6/// /0000 6///0
  333 7////=
95604 11/68 /3201 10105 20105 60224
  333 70220=
95606 11470 52702 10150 20113 30175 40181 52025 60120 70222 85800
  333 7////=
95607 17/// /2312 10150 20094 30161 40169 52018 60164 7//44
  333 20101 70160=
95610 17/// /2404 10096 20077 60214 7//44
  333 20055 70210=
95611 17/// /0604 10080 20071 30134 40154 51017 60074 7//44
  333 20033 70066=
95612 17/// /0205 10104 20093 30094 40184 53023 60224 7//44
  333 20062 70216=
95613 11/75 63603 10085 20083 39933 40142 51019 60104 70366 86200
  333 70100=
95615 11460 60000 10072 20068 60074 70285 86600
  333 70074=
95616 11/01 90000 10050 20050 69984 74754
  333 70008=
95617 17/// /3407 10088 20085 60064 7//44
  333 20047 70064=
95618 11980 02702 10074 20052 60014 70200
  333 70010=
95621 15/// /3602 10064 20058 60034
  333 20005 70026=
95623 11/65 32702 10073 20066 60054 70165
  333 70048=
95625 17/// /2906 10094 20082 39925 40185 52022 60054 7//44
  333 20046 70054=
95626 41980 00000 10080 20078 6///0 70100
  333 7////=
95627 11982 00000 10070 20059 60034 70251
  333 70026=
95629 17/// /3310 10085 20085 39806 40193 53021 60054 7//44
  333 20054 70050=
95630 17/// ///// 10091 20088 60064 7//44
  333 20062 70064=

####018001972####
SNAU41 AMMC 100100
AAXX 10014
94439 11/75 10206 10080 20070 39605 40213 52025 60054 70211
  333 70047=
94440 11981 02304 10090 20069 39637 40213 60180 70200
  333 7////=
94444 11984 00000 10065 20058 39689 40208 60054 70000
  333 70050=
94448 11984 02702 10082 20061 39754 40204 60034 70200
  333 70032=
94450 15/// /2709 10080 20049 39761 40200 51027 60024
  333 20047 70024=
94457 15/// /2110 10113 20052 39663 40203 51022 69964
  333 20081 70006=
94600 17/// /2515 10139 20077 30021 40152 51017 60104 7//44
  333 20075 70096=
94602 17/// /2213 10141 20105 30117 40169 53021 60174 7//44
  333 20079 70170=
94603 06/// /2704 10112 20096 60094
  333 20053 70092=
94604 15/// /0702 10087 20079 30153 40159 51019 60044
  333 20044 70036=
94605 17/// /1709 10119 20087 30164 40168 53023 60164 7//44
  333 20090 70164=
94608 17/// /1304 10104 20100 30140 40170 53020 60184 7//44
  333 20077 70176=
94609 17459 70407 10109 20101 30136 40172 51019 60194 7//44
  333 20060 70188=
94612 17456 80405 10108 20097 30109 40174 51021 60204 7//44
  333 20077 70200=
94614 17/// /1306 10126 20103 60164 7//44
  333 20083 70158=
94615 46/// /0502 10101 20099 6///0
  333 20068 7////=
94616 11980 00000 10049 20049 60104 70211
  333 70096=
94617 17/// /3105 10067 20067 39803 40146 51020 60124 7//44
  333 20043 70116=
94620 17/// ///// 10062 20056 39847 40168 53021 60114 7//44
  333 20033 70108=
94621 11/75 63405 10086 20080 60144 70362
  333 70136=
94622 11570 33602 10085 20075 39843 40181 60044 70300 82408
  333 70036=
94625 11/00 90000 10046 20046 60044 74544
  333 70036=
94627 11984 03101 10075 20053 60014 70281
  333 70010=
94628 15/// /2910 10067 20040 39776 40158 51027 60004
  333 20033 70000=
94629 11984 00000 10070 20048 69924 70200
  333 70002=
94631 15/// /3107 10075 20063 60094
  333 20044 70092=
94635 119// 02905 10062 20053 60034 70200
  333 70026=

####018000848####
SNAU43 AMMC 100100
AAXX 10014
95101 15/// /0507 10278 20193 30088 40148 51012 60004
  333 20202 70000=
95632 15/// /0000 10058 20057 39937 40153 51020 60104
  333 20011 70104=
95635 06/// /2911 10103 20051 30101 40133 53029 69944
  333 20071 70004=
95636 17/// /2909 10072 20063 39781 40144 51028 69964 7//44
  333 20037 70006=
95638 156// 12920 10085 20051 39959 40129 51034 60104
  333 20058 70096=
95639 15/// /2914 10074 20037 60024
  333 20046 70016=
95640 17/// /3605 10070 20063 60084 7//44
  333 20017 70080=
95642 15/// /2714 10076 20042 39849 40163 51030 60024
  333 20043 70016=
95643 11/30 80201 10088 20060 60124 71662
  333 70124=
95644 06/// /2912 10081 20039 39877 40140 53031 69984
  333 20045 70008=
95647 17/// /3007 10111 20070 30041 40129 51021 60074 7//44
  333 20073 70070=

####018000058####
SNAU55 AMMC 100100
AAXX 10014
94780 46/// /2904=

####018000058####
SNAU57 AMMC 100100
AAXX 10014
95756 46/// /3006=

####018000227####
SNVD22 KWNB 100100 RRI
BBXX
46023 10011 99347 71210 46/// /3308 10134 40134 58009 90050 22200
00141 11302 20401 3//// 41302 70011 333 91210 555 11080 22084
30049 43310 60049 330080 329082 328080 329080 325076 327069=
####018000137####
SMCN08 CWAO 100000 CCA
AAXX 10004
71922 11508 82718 10171 20139 39643 40095 53014 60101 79598 883//
333 10278 20092 70100 90917=
####018000089####
SMNC02 NWBB 100000 RRA
AAXX 10004
91598 46/// /2308 10224 20188 30112 40143 58009=
