####018000312####
SIVD15 KWNB 100300
BBXX
41114 10031 99276 70802 46/// ///// 1//// 90242 22200 00281 10301
20301 70005=
41025 10031 99350 70754 46/// /2603 10259 20240 40116 53010 90250
22200 00259 10802 20401 300// 40802 70009 333 91204 555 11031
22032 30155 42705 60249 257029 258030 263032 267035 262038 268042=
####018000127####
SNVD17 KWNB 100200 RRF
BBXX
52201 10021 99071 11714 46/// ///// 1//// 90225 22200 00287 11303
21002 318// 41301 70013=
####018000229####
SIVD19 KWNB 100300
BBXX
46073 10031 99550 71720 46/// /0310 10067 20066 49942 53004 90250
22200 00061 10905 20704 300// 40904 70025 333 91212 555 11102
22110 30206 40412 60249 030101 030099 032099 033094 035102 035101=
####018000232####
SIVD20 KWNB 100300 RRB
BBXX
44060 10031 99413 70721 46/// /1002 10201 40124 90245 22200 00190
333 91203 555 11021 22026=
44022 10031 99409 70737 46/// /2002 10245 20213 40117 90245 22200
00241 333 91203 555 11026 22031=
####018000125####
SIVD45 KWNB 100300 RRA
BBXX
45022 10031 99454 70851 46/// /3001 10207 40170 90250 22200 00200
1//00 70001 333 91201=
####018000127####
SNVD22 KWNB 100200 RRV
BBXX
46221 10021 99339 71186 46/// ///// 1//// 90217 22200 00172 11101
21001 321// 41101 70007=
####018000148####
SIGE01 FAGE 100300
AAXX 10034
68906 46/// /0109 10070 20027 30187 40254 57016
      222// 00000
      333 10072 20024 91027 555 91025=

####018000127####
SNVE15 KWNB 100200 RRG
BBXX
51202 10021 99214 71577 46/// ///// 1//// 90210 22200 00256 10603
20603 307// 41101 70017=
####018000085####
SIML20 LMMM 100300
AAXX 10034
16597 42960 02702 10217 20197 30099 40184 56009 =
####018000146####
SIME01 FAME 100300
AAXX 10034
68994 41394 83116 10073 20070 39898 49926 57016 74544 886//
      333 10094 20072 91023 555 20088 90992=

####018000113####
SIPS20 NZKL 100300
AAXX 10034
91824 41499 51112 10271 20240 40162 57010
70322 85832 333 56299 555 1////=
####018000101####
SMFI01 EFKL 100000 RRB
AAXX 10001
02974 42999 12403 10155 20118 30131 40195 52007 70200 81031=
####018000097####
SIBD20 WBSB 100300
AAXX 10034
96315 43470 71603 10305 20230 40119 81848
333 81816 86080=
####018000101####
SIYE70 OYSY 100300
AAXX 10034
41396 42865 62402 10294 20194 39319 48460 86070 333 59001 86458=
####018000109####
SIYE70 OYRN 100300
AAXX 10034
41443 41556 41306 10274 20247 30031 40048 70544 84500 333 58002
84625=
####018000357####
SIPY01 SGAS 100300
AAXX 10034
86134 32870 21406 10188 20160 40185 51003 82030 333 82357=
86218 32470 81504 10180 20177 40196 52008 8557/ 333 85613 88457=
86233 31905 30000 10156 20156 40186 51009 74600 83040 333 83357=
86246 32570 51305 10162 20159 40199 53006 81570 333 81627 85358=
86297 32470 81602 10178 20164 40192 52010 887// 333 88715=
####018000069####
SALY31 HLLS 100300
METAR HLLS 100250Z 05012KT CAVOK 27/10 Q1015=
####018000106####
SIBH21 MZBZ 100300
AAXX 10034
78583 42570 61006 10285 20258 40132 83838 333
01234 58017 83822 86276=
####018000128####
SISE01 FASE 100300
AAXX 10034
89004 46/// /0932 11335 21369 38791 49910 52018
      333 11241 21345 91039 555 9////=

####018000125####
SISE01 FASE 100300
AAXX 10034
89004 46/// /0932 11335 21369 38791 49910 52018
      333 11241 21345 91039 555 9////=
####018000099####
SNIY20 LIIB 100200 RRG
AAXX 10024
16480 42997 03002 10240 20223 30110 40169 56009 555 0////=
####018000089####
SNIY20 LIIB 100200 RRF
AAXX 10024
16206 42970 00405 10220 20188 30179 40187 51005=
####018000101####
SICV20 GVAC 100300
AAXX 10034
08594 41459 33608 10240 20220 40141 70610 83500 333 58001 83615=
####018000344####
SNAA01 KARS 100200 RRD
AAXX 1002/
89872 46/// ///// 11303 39727 4//// 5//// 90230=
89869 46/// ///// 11281 39694 4//// 5//// 90230=
89866 46/// ///// 11214 39644 4//// 5//// 90230=
89864 46/// ///// 11236 39699 4//// 5//// 90230=
89376 46/// ///// 11389 39669 4//// 5//// 90230=
89879 46/// ///// 11168 39677 4//// 5//// 90230=
####018000121####
SITV20 NGFU 100300
AAXX 10034
91643 11498 89903 10278 20248 40108 57017 71428 83278 333
56299 83818 85360 88280=
####018000109####
SIKU20 NCRG 100300
AAXX 10033
91843 41498 40706 10265 20229 40199 55002 70300 84200 333
561// 84816=
####018000092####
SIMZ20 FQMA 100300
AAXX 10033
67295 42980 00000 10128 20118 39414 48559 333 59038=

####018000087####
SNIY20 LIIB 100200 RRF
AAXX 10024
16206 42970 00405 10220 20188 30179 40187 51005=
####018000072####
SALY31 HLLS 100300
METAR HLLS 100250Z 
05012KT CAVOK 27/10 Q1015 =
####018000097####
SNIY20 LIIB 100200 RRG
AAXX 10024
16480 42997 03002 10240 20223 30110 40169 56009 555 0////=
####018000287####
SITO20 NFTF 100300
AAXX 10034
91779 41398 60912 10270 20241 40154 56012 70222 868// 333 562// 83709 86820=
91784 41498 81413 10242 20230 40158 56014 78028 887// 333 563// 82710 85817
88640=
91792 41398 81306 10235 20223 40174 58013 70228 8577/ 333 5639/ 82708 84816
88462=
####018000112####
SMBR01 TBPB 100300
AAXX 10034
78954 42574 60914 10288 20240 30087 40152 70122 84802 333
58001 82820 83638=####018000115####
SMBR01 TBPB 100300
AAXX 10034
78954 42574 60914 10288 20240 30087 40152 70122 84802 333
58001 82820 83638=
####018000086####
SIVX81 EDZW 100300
BBXX
DK7210 10031 99540 10066 46/// /3201 10212 20174 30155=
####018000107####
SICY20 EGRR 100300
AAXX 10034
17601 42461 12802 10225 20175 30063 40093 53002 81500 90250 333 81618=
####018000176####
SMTU14 LTAA 100000 RRB
AAXX 10004
17540 12960 02608 10244 20212 30088 40111 58004 60001
333 92427=
17547 42960 02908 10236 20216 39862 40095 58005 60001
333 92427=
