####018000089####
SNIY20 LIIB 091900 RRB
AAXX 09194
16219 42970 00515 10180 20118 38202 48570 54000=
####018000087####
SNIY20 LIIB 091900 RRB
AAXX 09194
16219 42970 00515 10180 20118 38202 48570 54000=
####018000083####
SNSE01 LFVW 091900 RRA
AAXX 0919/
94997 46/// ///// 10006 39891 49906 5////=
####018002245####
SMPH20 RPMM 091800
AAXX  09181
98132 31465 70000 10274 20253 40134 58023 74144 83208
333 56999 83817 86275=
98133 NIL=
98222 11575 11601 10245 20231 40099 58016 69921 70544
81100 333 56999 81822 =
98233 31570 30000 10250 20222 40097 58008 70544 83500
333 56999 83625=
98324 31462 41101 10256 20240 30098 40104 58014 70594
81261 333 56999 81816 83358 =
98327 11659 72701 10236 20222 39943 40118 57018 60021
70594 82208 333 56999 82836 87277=
98334 31465 22901 10256 20241 39906 40108 57015 71311
82300 333 56999 82917=
98425 31557 53202 10278 20238 40116 56006 70122 83108
333 56999 83820 85280=
98426 11462 60701 10255 20232 40113 57012 60021 70596
82160 333 56999 82818 85358=
98427 32475 50000 10240 20223 39938 40117 58019 82260
333 56999 82818 85357=
98428 32458 53601 10285 20252 40108 58007 82971 333
56999 81917 83359=
98432 31468 50000 10262 20227 30100 40112 58002 71344
81972 333 56999 81918=
98433 32462 30202 10223 20205 39390 40105 57013 81201
333 56999 81812=
98434 32475 30000 10257 20248 30095 40113 58020 82201
333 56999 82818 =
98435 32470 70402 10248 20229 40106 58011 84270 333
56999 84818 87358=
98442 NIL=
98446 NIL=
98447 31470 70402 10260 20247 39849 40112 5//// 71522
83208 333 56999 83818 87270=
98538 31462 83202 10265 20231 30102 40107 58016 71792
83967 333 56999 83811 83357 88272=
98546 32575 61601 10260 20244 30084 40092 57021 82208
333 56999 82820 86275=
98548 32466 10000 10284 20256 30083 40089 58017 81100
333 56999 81816=
98553 NIL=
98558 11465 51202 10275 20262 40111 58009 60051 71382
82971 333 56999 82915 83357=
98642 31462 70000 10260 20238 30086 40095 58019 71322
81908 333 56999 81915 87272=
98644 31465 70000 10270 20250 30097 40106 58019 71322
83960 333 56999 81916 86358=
98648 31475 10000 10257 20242 30020 40103 57013 70544
81200 333 56999 81817=
98746 11460 81802 10241 20218 40074 58028 60331 79596
8597/ 333 56999 85918 88358=
98751 12465 80000 10220 20213 39430 40096 57020 60081
70298 8491/ 333 56999 84915 88456 =
98752 31460 40000 10262 20254 40111 58014 71311 82970
333 56999 82916=
98851 11470 82702 10245 20230 39965 40113 58008 60301
78086 8362/ 333 56999 83618 88458=
