####018000350####
SIMJ20 MJSK 092100
AAXX 09211
13586 32770 23504 10216 20118 39923 40201 51019 83500 333 83660=
13493 42998 00403 10140 20106 39417 40213 52018=
13577 NIL=
13578 NIL=
13579 32970 03602 10157 20101 39394 40206 52015=
13583 42898 23403 10192 20083 39516 40184 52020 81031=
13591 42998 03404 10205 20128 39804 40180 52017=
13592 NIL=
####018000067####
SIAL57 EUMS 092100
AAXX 09214
60691 36/// /0513 10347 21023=
####018000067####
SIAL51 EUMS 092100
AAXX 09214
60663 36/// /0401 10354 21024=
####018000071####
SIAL51 EUMS 092100 RRA
AAXX 09214
60612 36/// /0508 10306 21059=
####018000067####
SIAL53 EUMS 092100
AAXX 09214
60619 36/// /0216 10324 21025=
####018000071####
SIAL53 EUMS 092100 RRA
AAXX 09214
60662 36/// /0000 10303 21035=
####018000067####
SIAL52 EUMS 092100
AAXX 09214
60667 36/// /1001 10340 21024=
####018000067####
SIAL56 EUMS 092100
AAXX 09214
60692 36/// /0310 10364 20003=
####018000071####
SIAL51 EUMS 092100 RRB
AAXX 09214
60664 36/// /0506 10299 20002=
####018000204####
SIRE19 FMEE 092100
AAXX 09214
61996 26/// /2708 10110 20104 40238
  333 59024 69967 90710 91121
  555 69965=
61998 26/// /2616 10038 21004 40090
  333 58117 60007 90710 91129
  555 60005=
####018000067####
SIAL54 EUMS 092100
AAXX 09214
60621 36/// /0417 10362 21061=
####018000147####
SNVD20 KWNB 092000 RRT
BBXX
44037 09201 99435 70679 46/05 /1705 10191 40154 58018 92004 22200
00183 10602 70009 333 91206 555 11062 22069=
####018000125####
SIVD45 KWNB 092100 RRF
BBXX
45022 09211 99454 70851 46/// /3003 10204 40170 92110 22200 00196
10201 70003 333 91204=
####018000227####
SIVD22 KWNB 092100 RRD
BBXX
46023 09211 99347 71210 46/// /3405 10133 40149 57008 92050 22200
00141 10802 20401 3//// 40802 70010 333 91207 555 11054 22056
32002 43507 62049 344054 345056 345057 349056 345061 345060=
####018000270####
SIGB20 GBYD 092100
AAXX 09214

61701 41460 50000 10275 20251 40128 71399 84902
  333 58000 83611 81918 84071 95703=
61705 NIL=

61707 NIL=

61711 NIL=

61712 NIL=

61717 NIL=

61720 NIL=

61721 NIL=


61731 NIL=

61733 NIL=
####018000267####
SMTD01 TTPP 091800 CCC
AAXX 09184
78970 11258 8//07 10276 20242 30110 40135 60011 76082 87972
333 06299 10320 20251 58018 81705 83908 85635 90915=
78962 11320 61015 10302 20256 30127 40135 69971 78082 83962
333 06299 10302 20246 58012 82908 83812 90915=
 
 
####018000095####
SMRA16 RUHB 091800 RRA
AAXX 09181
25745 42699 32506 10109 20071 30120 40169 53001 83500=
####018000095####
SIUR20 UKMS 092100 RRB
AAXX 09211
33317 42597 63001 10184 20178 39884 40207 52003 86500=
####018000384####
SIGG20 UGGG 092100
AAXX 09211
37395 42797 80000 10240 20211 39978 40109 52005 8452/=
37432 42997 00000 10175 20119 38950 48511 52012=
37484 42597 71202 10248 20221 30101 40110 52014 86370 91103=
37514 42996 00000 10200 20176 39005 40089 52014=
37545 429// 00000 10251 20169 39608 40085 52006=
37621 429// 02705 10261 20177 39487 40078 52003=
37404 NIL=
37409 NIL=
####018000395####
SITU11 LTAA 092100 RRA
AAXX 09214
17034 4//// /2201 10245 20207 30077 40122 5////=
17084 4//// /0407 10206 20174 39243 40092 52014=
17090 4//// /0000 10211 20155 38699 40035 5////=
17184 4//// /3404 10214 20165 30032 40139 51011=
17210 4//// /1000 10267 20047 39100 40037 5////=
17234 4//// /1101 10219 20147 30049 40112 52016=
17370 4//// /2400 10259 20212 30095 40102 5////=
####018000344####
SITU13 LTAA 092100 RRA
AAXX 09214
17042 4//// /9901 10233 20214 30084 40122 5////=
17074 4//// /1202 10181 20173 39225 40110 52005=
17155 4//// /3204 10159 20126 39061 40129 52016=
17237 4//// /2103 10221 20130 39639 40117 52016=
17250 4//// /2202 10230 20118 38777 40042 5////=
17320 4//// /3400 10247 20208 30095 40100 5////=
####018000293####
SITU12 LTAA 092100 RRA
AAXX 09214
17116 4//// /2003 10198 20189 30032 40149 50010=
17188 4//// /0003 10179 20100 39101 40112 52013=
17292 4//// /3004 10203 20123 39382 40100 52010=
17310 4//// /1703 10270 20230 30094 40100 51007=
17330 4//// /2700 10251 20201 30077 40097 5////=
####018000028####
SIVC21 ESWI 092100
NIL=
####018001092####
SIGL21 EKMI 092100
AAXX 09214
04211 47/01 /3107 10032 20020 39928 40084 52001 73433 =
04220 47/84 02706 10060 20044 30033 40083 54000 70086
  333 55300 21699 =
04221 45/78 /2904 10100 20056 30039 40078 52001
  333 91116 =
04231 42989 22412 10155 20040 39990 40059 57001 822//
  333 82850 =
04234 45/80 /2811 10058 20056 30071 40081 57004 =
04241 47/04 92811 10059 20054 30040 40078 57005 73431
  333 89/02 =
04250 25/84 02906 10091 20055 39977 40078 57003
  333 55300 21645 6///7 =
04254 45/81 /2803 10106 20029 39974 40084 57002 =
04260 47/02 93005 10028 20023 30045 40088 52002 73484
  333 89/02 =
04270 45/81 /2514 10131 20033 30035 40072 57002 =
04272 26/83 02304 10055 20034 30019 40089 52001
  333 6///7 =
04312 46/// /1912 10106 20008 39997 40040 52006 =
04320 NIL =
04339 25/84 /2703 10046 20025 39959 40047 54000
  333 55300 20637 6///7 =
04360 25/80 03205 10084 20025 39983 40051 57004
  333 55300 21267 6///7 =
04361 46/// /2412 10077 20040 30010 40061 57006 =
04390 25/81 02311 10082 20050 39984 40075 57008
  333 6///7 =
####018000028####
SIVE21 ESWI 092100
NIL=
####018000028####
SIVJ21 ESWI 092100
NIL=
####018000083####
SAKN64 HKMO 092100
METAR HKMO 092100Z 20005KT 9999 SCT021TCU 23/21 Q1016 NOSIG=
####018000095####
SIUR20 UKMS 092100 RRC
AAXX 09211
33135 42997 23303 10204 20152 30016 40186 53012 80001=
####018000270####
SIGG40 UGGG 092100
AAXX 09211
37279 42494 70000 10251 20238 39970 40103 53009 87900=
37308 429// 00000 10251 20148 39479 40082 52004=
37531 429// 03208 10228 20205 39427 40102 52011=
37553 429// 00901 10240 20152 39479 40081 52006=
37492 NIL=
37651 NIL=
####018000102####
SICN05 CWAO 092100 RRA
AAXX 09214
71807 36/// /2016 10135 20131 30136 40154 58006 333 60001=

####018000102####
SICN03 CWAO 092100 RRA
AAXX 09214
71435 36/// /2710 10227 20121 39557 40135 56008 333 60001=

####018000102####
SICN07 CWAO 092100 RRA
AAXX 09214
71868 36/// /2507 10266 20101 39679 40103 58017 333 60001=

####018000163####
SICN04 CWAO 092100 RRA
AAXX 09214
71607 36/// /2008 10274 20193 30104 40135 56008 333 60001=
71631 36/// /3509 10229 20142 39641 40124 55005 333 60001=

####018000102####
SICN06 CWAO 092100 RRA
AAXX 09214
71861 36/// /2906 10251 20126 39435 40138 56015 333 60001=

####018000081####
SILY20 HLLT 092100
62124 32960 00910 10316 20093 39649 40122 52018 Q1016.0 =
####018000258####
SIFW20 NWBB 092100
AAXX 09214
91753 21465 71010 10279 20245 30111 40141 51019 78086 84906
  333 69907 81915 83815 86273 90710 91123
  555 69905=
91754 22475 80606 10271 20247 30107 40147 53019 889//
  333 60007 82810 82916 84819
  555 60005=
####018009517####
SIMX01 MXBA 092100
AAXX 09211
76040 32960 00901 10438 20210 30056 40070 57014 92042 333   
30/// 59001 98660=
76055 32980 00907 10366 20186 30047 40066 57003 92035 333   
30/// 58005=
76056 26/// /0908 10357 20161 30047 41/// 58010 7//// 8//// 
92050 333   0//// 30/// 4//// 54/// 56/// 57/// 58005 60007 
8//// 8//// 8//// 9//// 9//// 9//// 444 ///// 555 30343=
76061 32981 01401 10340 20146 30030 40101 56010 92040 333   
30/// 58004 90801=
76122 32570 40903 10336 20209 38538 40060 5//// 83240 92150 
333   30/// 56990 58012 82830=
76220 21558 81503 10206 20171 38164 40105 57007 75152 886// 
92040 333   32/// 563// 58018 69957 88627=
76225 21560 80703 10268 20167 38629 40077 57016 70352 88400 
92045 333   30/// 56500 58003 69927 88627=
76243 22272 80805 10274 20252 39848 4//// 57009 75052 887// 
92030 333   30/// 563// 58004 60107 88708=
76256 32980 00000 10348 20207 30083 40102 57002 92050 333   
30/// 58026=
76258 32970 02009 10372 20228 30042 40085 57020 92050 333   
0/000 30/// 58017=
76305 32970 21602 10354 20136 30072 40079 57014 82030 92037 
333   0/010 30/// 58000 82358=
76323 32570 83603 10238 20160 38279 40142 57016 887// 92055 
333   30/// 561// 58002 88630=
76342 21562 70502 10296 20223 39433 40118 57020 70152 87250 
92055 333   31/// 56350 59012 60017 83820 84357=
76382 32480 70501 10298 20212 38878 40075 57022 85204 92045 
333   30/// 56607 59001 85814 82076=
76383 26/// /0301 10303 20163 38877 40055 57023 7//// 8//// 
92050 333   0//// 30/// 4//// 54/// 56/// 57/// 59001 60007 
8//// 8//// 8//// 9//// 9//// 9//// 444 ///// 555 30289=
76390 21430 80603 10165 20165 38233 40101 57002 75554 887// 
92030 333   31/// 568// 58010 60187 88714=
76393 21650 71107 10306 20224 39546 40101 57018 70522 85231 
92055 333   04355 31/// 58011 69947 85834=
76402 31858 53202 10331 20168 30045 40100 57007 70544 85030 
92042 333   0/020 30/// 58009 85358=
76413 26/// /2210 10314 20205 30067 40110 56014 7//// 8//// 
92050 333   0//// 30/// 4//// 54/// 56/// 57/// 58009 60007 
8//// 8//// 8//// 9//// 9//// 9//// 444 ///// 555 30291=
76423 32582 60402 10262 20151 38134 40055 57020 83450 92040 
333   30/// 56990 59002 83630 82830 81357=
76458 32570 51803 10296 20236 30096 40100 57011 82230 92038 
333   0/350 30/// 57832 58010 81825 81625 83358=
76490 26/// /1304 10295 20227 39737 40111 57019 7//// 8//// 
92050 333   0//// 30/// 4//// 54/// 56/// 57/// 58030 60007 
8//// 8//// 8//// 9//// 9//// 9//// 444 ///// 555 30275=
76491 32560 70903 10296 20255 39753 40130 57020 875// 92050 
333   0/9// 30/// 58031 87625=
76525 21580 60904 10184 20121 37457 40068 57025 70161 84230 
92040 333   31/// 5622/ 59006 69937 84825=
76538 26/// /0804 10205 20154 38155 40087 57005 7//// 8//// 
92050 333   0//// 56/// 57/// 58025 69927 8//// 8//// 8//// 
8//// 9//// 9//// 9//// 444 ///// 555 30215=
76539 21560 80901 10205 20173 38158 40118 57003 75055 88600 
92055 333   31/// 56200 59035 69917 88723=
76544 26/// /3202 10274 20244 30084 40110 57014 7//// 8//// 
92050 333   0//// 30/// 4//// 54/// 56/// 57/// 58030 60007 
8//// 8//// 8//// 9//// 9//// 9//// 444 ///// 555 30287=
76556 32470 82504 10240 20229 39089 40094 57006 8582/ 92031 
333   0233/ 31/// 58012 85814 83458=
76571 32680 60502 10260 20092 38131 40046 57021 85530 92100 
333   31/// 56110 58002 85650=
76577 32570 83604 10244 20156 38019 40066 57019 88600 92040 
333   30/// 56100 58011 88628=
76578 26/// /0503 10251 20137 38018 40028 57016 7//// 8//// 
92050 333   0//// 30/// 4//// 54/// 56/// 57/// 58012 60007 
8//// 8//// 8//// 9//// 9//// 9//// 444 ///// 555 30207=
76585 21680 63001 10285 20253 39959 40111 57013 76066 86200 
92040 333   022// 31/// 58021 69907 86833=
76592 26/// /1507 10242 21106 30147 40147 53009 7//// 8//// 
92050 333   0//// 30/// 4//// 54/// 56/// 57/// 58040 60167 
8//// 8//// 8//// 8//// 9//// 9//// 9//// 444 ///// 555=
76612 32562 71401 10250 20173 38440 40076 57012 85430 92056 
333   31/// 56330 58013 82628 83830=
76625 32550 70507 10248 20145 38116 40056 57015 87700 92040 
333   31/// 56700 58010 87832=
76632 32572 70706 10195 20145 37606 40049 57025 87700 92040 
333   30/// 56100 58039 87733=
76634 31470 80508 10188 20148 37838 40106 57012 70522 85520 
92050 333   30/// 5630/ 58010 85615 83457=
76644 05660 81103 10247 20232 30128 40141 58002 75056 88740 
92050 333   0733/ 31/// 58033 60067 84520 84432 91008 91511 
=
76647 21865 80501 10265 20244 30103 40133 55008 72196 8802/ 
92050 333   0/0// 31/// 58029 69927 88458=
76654 31456 51404 10316 20250 30111 40115 57012 70544 83130 
92050 333   0099/ 30/// 57899 58015 81820=
76658 31560 61604 10278 20215 39613 40112 56017 70542 82470 
92047 333   0/110 30/// 58018 82624 84356 94011 98914=
76665 31564 70801 10238 20151 38096 40072 57012 70320 57200 
92045 333   30/// 56500 57851 58011 87823=
76666 36/65 /0501 10236 20156 38098 40075 57018 7//// 8//// 
92050 333   30/// 56/// 57/// 58010 8//// 8//// 8////=
76680 21556 82502 10162 20149 37737 40062 57011 70554 86820 
92100 333   31/// 56440 58017 60107 83625 83827=
76682 26/65 /2303 10164 20161 37734 4//// 57010 7//// 8//// 
92050 333   31/// 56/// 57/// 58016 60117 8//// 8//// 8//// 
=
76683 32660 81201 10194 20152 37803 40109 56017 88310 92045 
3333 31/// 56440 58010 83940 85360=
76684 02/// ///// 1//// 2//// 3//// 4//// 5//// 6//// 7//// 
8//// 333   0//// 30/// 4//// 54/// 56/// 57/// 5//// 6//// 
8//// 8//// 8//// 8//// 9//// 9//// 9//// 555 3////=
76685 32570 71602 10200 20147 37849 40088 57020 85530 92050 
333   31/// 5699/ 58014 85627 82357=
76687 31562 70701 10229 20180 38665 40121 57009 70222 874// 
92040 333   30/// 563// 58015 82828 85626=
76692 31556 71201 10291 20255 30098 40117 57007 70544 8191/ 
92045 333   0635/ 30/// 57930 59022 81925 81820 84740=
76695 22260 70601 10250 20232 30100 40106 57009 81120 92045 
333   0000/ 31/// 58017 60117 81806 86460=
76699 26/06 /2802 10245 20245 30154 4//// 57009 7//// 8//// 
92050 333   31/// 56/// 57/// 58025 60137 8//// 8//// 8//// 
=
76727 26/// /0000 10198 20159 38381 40083 57013 7//// 8//// 
92050 333   0//// 30/// 4//// 54/// 56/// 57/// 58019 60007 
8//// 8//// 8//// 9//// 9//// 9//// 444 ///// 555 30195=
76743 31557 70901 10314 20260 30094 40102 57018 70222 8326/ 
92045 333   0200/ 30/// 58024 83822 84357=
76750 32560 60501 10282 20250 30017 40027 57013 82220 92050 
333   04220 31/// 58023 82820 84557=
76762 31904 83301 10230 20167 38745 40094 51015 74122 8801/ 
92040 333   31/// 56029 58031 88660=
76773 21566 81801 10212 20156 38405 40104 57013 71522 8237/ 
92043 333   32/// 5629/ 58015 69927 82820 86458=
76775 31360 82401 10240 20155 38492 40098 57011 75165 83720 
92050 333   31/// 56880 58026 69907 85458 82615 81708=
76776 26/// /2501 10236 20162 38490 40079 58010 7//// 8//// 
92050 333   0//// 30/// 4//// 54/// 56/// 57/// 58024 60007 
8//// 8//// 8//// 9//// 9//// 9//// 444 ///// 555 30244=
76805 31570 71902 10331 20269 30102 40107 57020 82265 92045 
333   053// 30/// 57880 58012 82826 81358 82267 82068 99020 
=
76839 36/65 /1001 10269 20238 30071 40125 52024 7//// 8//// 
92050 333   30/// 56/// 57/// 58018 8//// 8//// 8////=
76840 32550 50000 10312 20245 30042 40098 57013 82281 92030 
333   0/919 30/// 58004 82827 82358 81070=
76843 32565 60702 10299 20231 39459 40091 57018 84230 90245 
333   037// 30/// 58017 84824=
76848 32970 80501 10210 20163 38362 40053 57018 8805/ 92050 
333   31/// 5609/ 58013 88360=
76113 32980 01001 10410 20324 39611 40032 57004 92040 333   
30/// 58009=
76160 32962 02301 10420 20159 39837 40068 57023 80009 92034 
333   0/009 30/// 58004 81170=
76311 32580 42601 10400 20207 39795 40058 57027 84100 92050 
333   04200 30/// 59006 84820=
76405 32880 23206 10362 20192 30064 40085 57013 82030 92050 
333   0/050 30/// 58005 82354=
76412 31766 72305 10314 20220 30066 40110 57017 70544 87060 
92051 333   30/// 56050 58016 87356=
76471 32580 61202 10210 20138 37685 40046 57018 86500 92050 
333   30/// 56500 59004 86635=
76543 21575 83202 10275 20255 30082 40115 57015 8472/ 92045 
333   0/33/ 32/// 58030 69907 84734 84458=
76548 32370 60501 10280 20253 30110 40120 57007 8227/ 92045 
333   01250 32/// 58031 82806 84357=
76581 21570 80000 10231 20208 39037 40119 57003 71666 84720 
92057 333   08330 32/// 58023 60167 84729 90911=
76593 21470 81802 10244 20232 30142 40144 53002 72552 83570 
92050 333   08440 32/// 58037 60177 83624 83330 82440=
76640 31458 40402 10304 20268 30125 40137 57009 70111 842// 
92040 333   012// 31/// 58025 84815=
76656 32575 70000 10257 20151 38484 40088 58018 83410 92050 
333   30/// 56350 58012 83620 84458=
76662 32670 73602 10234 20167 38433 40082 57022 87400 92035 
333   31/// 56/00 58006 87633=
76737 21370 81102 10217 20192 38750 40103 57012 79522 889// 
92035 333   31/// 569// 57960 58010 69987 87707 81927 91101 
91511=
76741 31575 62301 10304 20252 30080 40099 57014 70542 83220 
92035 333   0133/ 30/// 58034 83822 83398=
76833 31870 52001 10320 20239 30151 40151 52097 70122 85010 
92030 333   0/090 30/// 58027 85458=
76845 32356 70000 10171 20152 37926 40116 56011 83220 92043 
333   31/// 56390 58010 81708 82827 84458=
76855 32580 52102 10306 20238 30055 40104 57012 82220 92030 
333   02990 30/// 58016 82820 83458 92000=
####018000089####
SNPS40 AMMC 092000 RRD
AAXX 09204
91642 46/// /0000 10249 40131 22200 00291=


####018001102####
SISD20 OEJD 092100
AAXX 09214
40356 42960 03106 10300 20030 39128 48484 333 58005 555 04410 50022=
40357 42960 01206 10342 20070 39431 40009 333 58001=
40360 42960 03020 10284 20140 39497 40038 333 59001=
40361 42960 33509 10364 21010 39311 40010 83030 333 58007 83360=
40362 42960 00409 10365 20080 39538 40006 333 58000=
40373 42960 03504 10354 20030 39609 49995 333 59005=
40375 42960 03205 10345 20030 39217 40025 333 58000=
40377 41940 00316 10368 20100 39559 49995 70700 333 59011=
40394 42960 00000 10316 20020 38983 48500 333 58001 555 04410 50016=
40400 42960 03307 10300 20220 30005 40032 333 58000=
40405 42960 03605 10350 20070 39326 40003 333 59005=
40410 NIL=
40416 41958 01407 10340 20260 39959 49978 70500 333 59008=
40417 41940 01412 10342 20240 39976 49990 70500 333 59010=
40420 42960 60000 10365 20220 39801 49992 86030 333 59007 86360=
40430 42660 40806 10397 21030 39327 49985 81530 333 58007 81645
83360=
40435 NIL=
40437 42960 02802 10333 21020 39347 49994 333 59021=
40438 NIL=
40439 42960 02406 10334 20200 39981 49991 333 58001=
####018001784####
SIOM20 OOMS 092100
AAXX 09214
41241 36/// /3504 10359 20245 39970 40010
333 0E042 59000=
41242 36/// /3606 10324 20263 30006 40029
333 0E037 59004=
41244 36/// /1610 10319 20202 39676 47029
333 0E033 59009=
41246 32660 21008 10313 20257 30010 40014 81501
  333 59007 81630=
41252 36/// /1410 10296 20214 39653 40035
333 0E032 59003=
41253 36/// /3604 10301 20247 39655 40034
333 0E031 59004=
41254 36/// /0614 10226 20122 37996 48001
333 0E020 59001=
41255 36/// /3507 10259 20214 39523 40059
333 0E032 58016=
41256 32960 22803 10299 20263 39998 40007 80001
  333 59008 82075=
41257 36/// /2110 10290 20238 39562 40046
333 0E030 5////=
41258 36/// /3605 10299 20232 39999 40064
333 0E/// 59011=
41259 36/// /0000 11/// 20/// 37083 4////
333 0E/// 58002 7////=
41262 NIL=
41263 36/// /1606 10263 20211 39382 40068
333 0E028 58009=
41264 26/64 /1113 10264 20218 39666 49977
333 0E029 58010 70402=
41265 36/// /1506 10247 20240 39521 40069
333 0E033 58015=
41267 35/64 /3404 10309 20216 39995 40011
333 0E030 59016=
41268 31958 32223 10280 20220 30001 40018 70600 80001
  333 59010 83070=
41270 26/// /2118 10267 20247 39980 40041
333 0E030 58001 70000=
41275 NIL=
41287 36/// /1715 10264 20231 39989 40055
333 0E028 58006=
41288 36/// /0000 10271 20233 30021 40045
333 0E027 58010=
41290 36/// /2021 10262 20221 39998 40053
333 0E032 59005=
41304 36/// /2107 10307 20186 39708 49999
333 0E030 58001=
41312 36/// /1503 10255 20241 30004 40043
333 0E/// 58004=
41314 32960 11722 10255 20212 39523 40024 810
0
  3
3 59005 81360=
41315 26/// /1616 10208 20206 39074 42715
333 0E/// 58000 70134=
41316 22457 81206 10264 20233 30019 40044 886//
  333 58003 79999 83710 88620=
####018001288####
SICI23 BABJ 092100
AAXX 09211
50136 41/02 90901 10114 20114 40112 52009 74540 333 70007=
50745 42964 70000 10193 20183 40092 52005 80008=
50774 41956 00000 10127 20125 40116 52009 71040 333 70001=
50788 42970 00201 10191 20174 40110 52007=
51133 NIL=
51431 NIL=
51747 NIL=
52203 NIL=
52418 NIL=
52681 NIL=
53564 42775 70000 10192 20175 40041 54000 874// 333 00053
70035=
53614 42980 51801 10173 20144 40006 52005 84032 333 05352=
53646 42970 71403 10161 20159 40033 54000 80002 333 05254
70021=
53798 NIL=
53845 42965 02502 10170 20146 40057 54000 333 05153 70002=
53959 NIL=
54094 42766 50000 10179 20164 40104 52008 85500 333 79999=
54102 41680 71405 10158 20131 40016 54000 70080 85402 333
70011=
54161 41420 71601 10186 20178 40075 52008 71000 87600 333
70016=
54292 42675 70702 10163 20150 40109 52006 875//=
54374 42560 70000 10171 20160 40095 52011 876// 333// 70003=
54423 41562 71602 10194 20184 40057 52001 78000 86902 333
70003=
54618 NIL=
54843 42663 80000 10231 20202 40062 52006 884//=
54909 41561 83602 10253 20241 40033 52005 76060 8557/ 333
70003=
56029 41680 82001 10116 20046 36521 52006 76060 885// 333
05101 79999=
57127 NIL=
57131 41958 82003 10185 20175 40064 57010 76066 8807/ 333
70244=
####018000175####
SIMJ40 MJSK 092100
AAXX 09211
13492 NIL=
13584 NIL=
13585 42698 50506 10192 20092 39422 40183 52017 85500=
13597 NIL=
13598 42998 00000 10150 20130 48536 52013=
####018000702####
SISY20 OSDI 092100
AAXX 09211
40001 42970 03407 10239 21002 40068 52008=
40007 42960 02807 10255 20132 40080 50004=
40009 42965 02801 10237 20143 40036 51009=
40016 NIL=
40022 42965 02101 10254 20218 40091 51002=
40025 42960 00402 10228 20200 40090 50003=
40030 42970 00000 10244 20138 40072 51005=
40039 42970 00000 10261 20091 40057 51009=
40045 42970 03304 10294 20124 40059 51001=
40061 42970 02602 10286 20168 40051 50010=
40066 42970 00000 10226 20192 40087 56003=
40072 42970 02702 10327 20122 40052 53008=
40080 42965 02202 10246 20138 39400 40066 50010=
40083 42970 00000 10196 20107 48477 51007=
40087 NIL=
40095 42970 00000 10228 20180 39484 40083 51005=
####018000644####
SISD21 OEJD 092100
AAXX 09214
41024 42960 23506 10310 20270 39997 40016 82030 333 59004 82360=
41030 42960 00000 10350 20260 39736 49992 333 59004=
41036 41957 00506 10318 20000 38526 48477 70600 333 59004 555 04410
59985=
41055 42960 00107 10296 21010 38327 48464 333 59006 555 04410 59991=
41061 NIL=
41084 42960 00404 10302 20040 38790 48462 333 59010 555 04410 59977=
41112 NIL=
41114 NIL=
41128 41/25 92106 10300 20120 38748 48470 70600  333 58002 89/20 555
04410 59993=
41136 41657 50000 10300 20190 39228 49991 70500 83430 333 58027
83640=
41140 42960 52903 10299 20230 30006 40012 85030 333 58013 85360=
####018000439####
SIIQ20 ORBI 092100
AAXX 09211
40650 42960 03202 10353 20057 40036 58002=
40608 42960 02802 10326 20122 40055 52012=
40621 42960 00000 10360 20156 40055 52003=
40631 42960 03002 10356 20121 40050 51006=
40670 42960 03603 10380 20102 40021 58002=
40676 42960 03005 10370 20070 40006 54001=
40629 42960 00000 10300 20154 40060 52004=
40642 42960 00000 10314 20084 40022 52008=
40680 42960 01002 10358 20132 49997 51003=
####018000204####
SILB20 OLBA 092100
AAXX 09214
40100 41550 50000 10258 20225 30067 40097 58001 71042 85200 921// 333
85826 92426=
40101 42960 00000 10217 20099 39066 48494 50003 921//=
40102 NIL=
40103 NIL=
####018000079####
SISE01 LFVW 092100
AAXX 0921/
95997 46/// ///// 10009 39907 49911 5////=
####018000079####
SNSE01 LFVW 092000
AAXX 0920/
95997 46/// ///// 10005 39886 49890 5////=
####018000113####
SIVD15 KWNB 092100 RRG
BBXX
42021 09211 99283 70833 46/// /3301 10299 40143 92040 22200 00307
333 91201=
####018000107####
SILT20 EYHM 092100 RRA
AAXX 09211
26629 42997 03001 10202 20162 30134 40226 52013 333
91001 91103=
####018001230####
SIJP20 RJTD 092100
AAXX 09214
47401 42265 70808 10152 20144 30100 40114 53005 876//=
47412 41/40 81303 10212 20188 30053 40083 54000 78022 882//=
47420 41/03 91209 10159 20156 30074 40120 58001 74552=
47426 47/72 /1109 10206 20184 30021 40066 55008 76165=
47582 41/40 82810 10220 20203 30029 40054 53015 78198 882//=
47590 41/80 42808 10229 20189 39994 40044 53015 72522 82232=
47600 41/65 71702 10211 20194 30073 40090 53007 78082 872/1=
47648 42/75 42115 10223 20202 30042 40074 51015 81272=
47662 42/82 62004 10247 20195 30034 40076 53018 81132=
47678 45/60 /2207 10246 20234 39942 40120 53012=
47740 47/40 /1801 10209 20196 30068 40105 53011 71000=
47778 45/66 /2605 10217 20193 30022 40109 53010=
47807 41/50 62401 10234 20204 30083 40100 51011 71011 81102=
47827 41365 72302 10238 20226 30062 40098 53009 70282 86230=
47843 47/00 /2601 10212 20205 30067 40098 50013 73430=
47909 42/70 72003 10253 20243 30105 40114 52009 81333=
47918 41475 71914 10293 20259 30078 40095 53001 70282 82232=
47936 42/75 71907 10281 20257 30056 40113 53004 84272=
47945 42/70 61807 10273 20255 30106 40130 53003 81332=
47971 42/70 21702 10273 20246 30159 40168 53005 82200=
47893 NIL=
47991 NIL=
####018001646####
SIJP21 RJTD 092100
AAXX 09214
47407 42/60 83604 10180 20156 39934 40098 50000 886//=
47409 42/60 81701 10166 20151 30060 40111 56003 83572=
47418 41/40 80509 10160 20152 30062 40109 56005 71022 886//=
47421 47/68 /1807 10207 20194 30036 40077 50001 78186=
47430 41/40 82803 10193 20181 30017 40068 58001 78188 887//=
47570 41/68 43205 10207 20179 39829 40077 53021 70182 83231=
47575 41/58 80309 10195 20183 30050 40055 51007 78088 882//=
47584 41/60 83309 10201 20186 39854 40032 55005 78082 882//=
47604 42/60 72105 10224 20203 30077 40085 51022 86201=
47605 41/65 82305 10222 20188 30057 40096 51018 70298 8727/=
47624 42/80 23205 10220 20178 39944 40075 51017 81231=
47636 42/60 23303 10214 20192 30041 40106 53009 81831=
47655 42/60 72611 10228 20209 30045 40099 53013 81232=
47675 45/71 /1811 10226 20203 30002 40089 50013=
47741 41/58 71801 10233 20214 30082 40108 53014 71022 872//=
47746 41/60 81002 10231 20206 30087 40105 51014 72582 882//=
47750 42/65 62304 10219 20197 30084 40110 51018 85202=
47765 42/60 73605 10237 20203 30045 40107 53014 872//=
47772 41/58 70902 10217 20193 30016 40112 51014 71022 872//=
47800 47/50 /3403 10210 20200 30094 40099 53007 71000=
47815 41/58 71903 10223 20199 30087 40103 53010 71011 871//=
47817 41950 61202 10221 20206 30062 40103 53014 71000 82031=
47830 41/58 22903 10222 20217 30080 40097 53001 71081 82230=
47887 42/60 71001 10231 20189 30067 40106 51014 87200=
47891 41/58 71102 10226 20205 30094 40110 53015 71011 872//=
47927 41/75 71810 10283 20259 30056 40103 53002 70282 82372=
47610 NIL=
47629 NIL=
47651 NIL=
47895 NIL=
####018000087####
SIIY21 LIIB 092100 RRB
AAXX 09214
16459 42963 00000 10230 20227 30150 40184 51009=
####018000686####
SISY20 OSDI 092100
AAXX 09211
40001 42970 03407 10239 21002 40068 52008=
40007 42960 02807 10255 20132 40080 50004=
40009 42965 02801 10237 20143 40036 51009=
40016 NIL=
40022 42965 02101 10254 20218 40091 51002=
40025 42960 00402 10228 20200 40090 50003=
40030 42970 00000 10244 20138 40072 51005=
40039 42970 00000 10261 20091 40057 51009=
40045 42970 03304 10294 20124 40059 51001=
40061 42970 02602 10286 20168 40051 50010=
40066 42970 00000 10226 20192 40087 56003=
40072 42970 02702 10327 20122 40052 53008=
40080 42965 02202 10246 20138 39400 40066 50010=
40083 42970 00000 10196 20107 48477 51007=
40087 NIL=
40095 42970 00000 10228 20180 39484 40083 51005=
####018000199####
SILB20 OLBA 092100
AAXX 09214
40100 41550 50000 10258 20225 30067 40097 58001 71042 85200 921// 333
85826 92426=
40101 42960 00000 10217 20099 39066 48494 50003 921//=
40102 NIL=
40103 NIL=
####018000565####
SIMO20 MNUB 092100
AAXX 09210
44214 32698 63605 10143 21012 38202 40043 58010 83548=
44231 32699 40804 10155 20110 38659 40066 58005 81844=
44259 41597 80602 10166 20124 39214 40050 53006 72162
885//=
44277 326// 82902 10144 20034 37776 40071 57003 8557/=
44288 32999 00000 10120 20091 38143 40116 53003=
44292 32699 70301 10147 20124 38642 40062 53001 87500=
44304 41599 70504 10156 20127 38888 40044 53006 72162
84570=
44354 31596 83604 10179 20133 38950 49956 53008 71092
885//=
44373 32999 33202 10157 20098 38480 40051 51004 82031=
####018001902####
SIMO21 MNUB 092100
AAXX 09210
44203 32699 20000 10094 20076 38360 40099 58001 81561=
44207 41696 60202 10070 20055 38290 40124 56003 74141
82588=
44212 32999 41902 10142 20054 38981 40042 57001 83084=
44213 32999 30000 10166 20043 38676 40033 52004 80009=
44215 32698 70000 10155 20058 38320 40006 54000 82509=
44218 329// 72003 10162 21005 38510 40014 57001 80006=
44225 32998 60000 10095 20080 38235 40110 53009 84041=
44230 32698 33604 10116 20090 38741 40139 58005 81504=
44232 32999 70804 10126 20114 39030 40097 54001 87050=
44237 32999 02701 10087 21078 38440 40133 58002=
44239 32699 73403 10133 20114 38745 40074 53001 87500
555 99601 99902=
44241 32699 83101 10158 20156 39167 40079 52004 885//=
44256 32599 70503 10161 20121 39259 40063 51001 85570=
44265 329// 30000 10133 20085 38743 40052 57005 80004=
44272 32698 81801 10131 20051 38163 40025 57008 8471/=
44275 325// 63604 10091 20061 37721 40084 54000 84541=
44282 32999 20000 10107 20085 38259 40096 54000 82040=
44284 32899 22302 10096 20041 37840 40131 53003 81044=
44285 325// 80000 10095 20089 38295 40124 52005 885//=
44287 32999 00504 10129 20067 38089 40097 54000=
44294 32998 20105 10113 20090 38501 40093 52001 82070=
44298 32599 80707 10148 20121 38619 40018 52002 885//=
44302 32599 70503 10162 20124 39038 40073 54000 85370=
44305 41598 80911 10152 20139 38926 49999 56003 76082
8852/ 333 91116=
44313 32999 40000 10140 20115 39299 40088 51002 82049=
44314 41698 81405 10165 20148 39047 40064 57002 70282
888//=
44317 41596 81607 10150 20135 38840 40032 57005 76062
8852/=
44336 32999 03003 10129 20114 38635 40108 52012=
44341 32999 13507 10128 20109 38531 40076 50000 81070=
44347 32999 00000 10133 20112 38641 40067 52008=
44352 41599 60000 10136 20097 38782 49981 51003 70298
85200=
44358 32598 42705 10178 20156 38919 49986 52001 82304=
####018000089####
SIIY21 LIIB 092100 RRC
AAXX 09214
16245 42960 00203 10234 20209 30170 40195 51009=
####018000089####
SIIY21 LIIB 092100 RRB
AAXX 09214
16459 42963 00000 10230 20227 30150 40184 51009=
####018000362####
SIVS21 VNNN 092100
AAXX 09211
48806 32498 70000 10246 20231 39302 40054 53003 878// 333 58000 
82894 87697=
48808 31498 41402 10256 20235 39775 40051 53005 71311 84900 333 
58006 82894 82995=
48830 32598 70000 10270 20253 39750 40045 53003 878// 333 58006 
82895 86697=
48852 32998 70000 10256 20230 30047 40057 57002 80008 333 58005 
87299=
####018000238####
SNHK22 VHHH 092115
AAXX 09211
45032 36/// /0101 10265 20242 30071 40087 52001=
45035 36/// /2004 10269 20235 30043 40083 54000=
45039 36/// /2402 10290 20249 30065 40080 54000=
45044 36/// /2006 10264 20254 39994 40084 54000=
####018000085####
SILY20 HLLT 092100
AAXX 09214
62124 32960 00910 10316 20093 39649 40122 52018=
####018000241####
SNHK22 VHHH 092115
AAXX 09211
45032 36/// /0101 10265 20242 30071 40087 52001=
45035 36/// /2004 10269 20235 30043 40083 54000=
45039 36/// /2402 10290 20249 30065 40080 54000=
45044 36/// /2006 10264 20254 39994 40084 54000=

####018001316####
SIRA20 RUHB 092100
AAXX 09211
30372 42799 10000 10091 20081 39311 40137 52004 81400=
30433 42999 02902 10126 20094 39546 40104 52001=
30554 42598 10000 10065 20056 39092 40138 52006 81500=
30635 42899 70801 10108 20098 39567 40107 58001 83032=
30673 42699 23601 10082 20082 39400 40133 52012 82200=
30692 41993 00502 10106 20106 39657 40126 52005 74440=
30758 42699 80000 10136 20121 39338 40105 52007 83531=
30823 42999 51401 10151 20135 39494 40084 58003 85070=
30879 42999 20000 10140 21121 39388 40096 53006 80003=
30935 41/93 90000 10124 20120 39218 40095 52004 74742=
30949 42699 72901 10140 20106 39063 40080 52005 83930=
30965 42599 71202 10158 20127 39325 40090 54000 81342=
31168 /2498 80301 10117 20110 30144 40155 54000 885// 333 95070=
31300 42599 60000 10155 20147 39833 40103 55000 82530=
31329 42999 70000 10101 20090 39489 40123 51002 84930=
31369 /1396 80401 10116 20109 30059 40139 57002 75152 886// 333 88709
95080=
31416 32597 83102 10102 20098 30052 40138 54000 83518=
31484 /1698 80000 10134 20128 39818 40135 58013 70282 885//=
31512 425// 80000 10204 20177 39936 40089 53004 8745/=
31707 32999 53201 10165 20162 30030 40115 53006 80001=
31735 32997 00203 10151 20141 30035 40118 51005=
31770 32497 80000 10124 20119 30111 40140 54000 884//=
####018000538####
SIVS20 VNNN 092100
AAXX 09211
48848 32598 72304 10328 20234 30042 40050 56005 82108 333 58000 
82895 87299=
48855 32798 71801 10261 20230 30049 40057 56009 81508 333 59004 
81697 87299=
48900 32497 40902 10242 20240 30071 40081 57010 84800 333 59001 
81894 83696=
48914 41597 82001 10270 20250 30081 40083 57014 78082 888// 333 
59004 83895 85696 96160=
48917 32598 30701 10262 20253 30071 40077 57017 83200 333 58001 
83895=
48918 41498 70000 10272 20253 30082 40093 57009 72582 879// 333 
58001 82894 86995=
####018000135####
SIPF80 KWBC 092100 RRB
AAXX 09214
91948 22580 31904 10220 20163 30132 40236 58002 83800 333 56300
60007 83820 555 60005 58019=
####018000113####
SIAG01 SABM 092100 RRA
AAXX 09213
87289 42962 21804 10178 20148 30117 40200 53001 82070 333 56070
82360=
####018001562####
SIAG01 SABM 092100
AAXX 09214
87078 NIL=
87097 41612 80707 10170 20170 39878 40193 56007 76066 8252/ 333
56009 82640 88550 96010=
87148 42970 81805 10180 20123 30086 40199 56001 8807/ 333 56009
88360=
87155 NIL=
87162 41113 82005 10183 20180 30109 40179 53006 75552 886// 333
56299 88703=
87166 41257 81603 10155 20150 30124 40198 53005 72052 8662/ 333
56379 83706 83612 88560 96010=
87178 42470 80000 10207 20173 30044 40191 52007 8557/ 333 56469
85615 88360=
87374 42965 01607 10158 20102 30134 40224 52004=
87393 42970 00000 10172 20097 30148 40213 53009=
87395 42965 01802 10156 20072 30173 40220 52008=
87480 42965 00904 10147 20045 30201 40232 52004=
87497 42965 01603 10131 20092 30201 40229 51007=
87534 42960 01402 10140 21037 30069 40237 57009=
87548 42965 01402 10116 21011 30150 40251 54000=
87563 NIL=
87576 42960 01804 10098 20015 30220 40244 53004=
87582 42960 02004 10135 21001 30233 40240 53004=
87593 42960 01805 10093 20019 30212 40241 53007=
87623 42980 13608 10106 21039 30004 40239 57012 80002 333 56005
81070=
87640 42965 20000 10083 20000 30125 4//// 58003 80001 333 56006
82070=
87641 42970 20000 10082 21008 30064 40247 53003 80006 333 56006 82270=
87645 NIL=
87648 42960 00000 10070 20027 30234 40246 54000=
87688 42965 73205 10075 21025 30093 40235 56003 80006 333 56000 87270=
87692 NIL=
87715 42975 52706 10124 21008 39870 40201 57020 80006
333 56006
85270=
87750 NIL=
87765 41460 53220 10058 20011 39189 48467 57015 71522 85774 333
56777 82710 83625=
####018000358####
SIVS21 VNNN 092100
AAXX 09211
48806 32498 70000 10246 20231 39302 40054 53003 878// 333 58000
82894 87697=
48808 31498 41402 10256 20235 39775 40051 53005 71311 84900 333
58006 82894 82995=
48830 32598 70000 10270 20253 39750 40045 53003 878// 333 58006
82895 86697=
48852 32998 70000 10256 20230 30047 40057 57002 80008 333 58005
87299=
####018000200####
SNVD15 KWNB 092000 RRW
BBXX
42021 09201 99283 70833 46/// /3501 10298 40145 92020 22200 00309
333 91202=
42021 09201 99283 70833 46/// /3001 10298 40147 58010 92000 22200
00306 333 91202=
####018000090####
SIRH75 LDZM 092100
AAXX 09211
14444 42980 03501 10213 20144 30168 40196 52015 333 =
####018001060####
SIAL20 DAMM 092100
AAXX 09214
60360 42960 03509 10250 20220 40183 53009
  333 95990=
60390 42958 02704 10225 20199 40172 53006
  333 95990=
60402 42960 00000 10223 20206 40173 52003
  333 95990=
60419 42970 00804 10255 20151 40170 52012
  333 95990=
60475 42970 01212 10278 20107 39274 48584 53018
  333 95990=
60490 42960 03604 10238 20232 40168 51014
  333 95990=
60525 42960 00000 10332 20120 40136 52015
  333 95990=
60531 42965 00000 10242 20212 40176 52016
  333 95990=
60566 42960 01608 10345 20104 40140 53011=
60571 42662 42004 10370 21014 39258 48576 53010 82201
  333 82840 95990=
60580 42960 00810 10359 20158 40139 53009=
60590 42960 00506 10335 20098 40146 53010=
60611 42960 01008 10314 20065 40123 51015=
60620 42960 03619 10368 2//// 40098 53015=
60630 42960 30413 10375 20024 40094 52018 80002 333 83075=
60656 42960 02812 10382 20056 40090 53013=
60670 42970 00610 10308 20023 39065 48545 51017
333 95990=
60680 42770 31808 10314 20017 38652 48535 53013 82230
  333 82856 95990=
####018000300####
SIAL22 DAMM 092100
AAXX 09214
60395 42965 00000 10301 20134 40149 53010
  333 95990=
60444 42965 00000 10267 20092 39129 48584 51015
  333 95990=
60452 42958 02206 10256 20219 40163 52017 222// 20000
  333 91826=
60457 42560 72603 10223 20219 40163 53010 871//
  333 87816 95990=
####018000773####
SIAL21 DAMM 092100
AAXX 09214
60351 42965 00000 10232 20217 40167 51006
333   95990=
60355 42965 02104 10257 20206 40177 52014
  333 95990=
60445 42965 00404 10249 20044 39072 48584 52016
  333 95990=
60468 42970 00706 10266 20126 39263 48577 53016
  333 95990=
60507 42960 03206 10280 20189 40154 52020
  333 95990=
60511 42965 03206 10287 20160 39099 48579 53017
  333 95990=
60536 42960 00000 10300 20149 39336 48587 53018
  333 95990=
60550 42960 70903 10328 21002 38723 48578 53011 8705/
  333 87363 95990=
60555 42970 01404 10330 20104 40152 53010=
60559 42960 00000 10334 20118 40159 53017=
60581 42960 00806 10338 20151 40143 51012=
60607 42960 0//11 10355 20058 40116 52015=
60640 42960 00610 10345 20074 40107 52017=
####018000165####
SIAL23 DAMM 092100
AAXX 09214
60369 42958 00000 10240 20181 40161 53001
  333 91826=
60403 NIL=
60425 42965 00000 10324 20184 40141 53016
  333 95990=
####018000387####
SIAL51 DAMM 092100
AAXX 09214
AAXX 09211
60370 36/// /0102 10228 20207=
60371 36/// /0000 10236 20188=
60372 36/// /0804 10301 20000=
60373 NIL=
60374 NIL=
60376 NIL=
60379 NIL=
60380 NIL=
60381 NIL=
60393 NIL=
60394 NIL=
60593 NIL=
60595 NIL=
60605 NIL=
60613 NIL=
60623 NIL=
AAXX 09214
60624 36/// /0514 10387 21012=
60639 NIL=
60645 NIL=
####018000477####
SICI23 BABJ 092100 RRA
AAXX 09211
51747 42975 00000 10171 20122 40010 57006 333 05251 70025=
52203 42980 21101 10206 20136 49981 52003 81032 333 05401=
52418 42980 02501 10175 20099 49981 57003 333 05651=
52681 42980 02002 10175 20094 40017 57002 333 05351=
53798 41960 81401 10217 20205 40048 57005 76066 8802/ 333
70097=
54618 41961 80201 10213 20203 40057 52001 76066 8802/ 333
70211=
57127 41965 83401 10198 20198 40064 57006 70060 8807/ 333
70334=
####018000646####
SICI21 BABJ 092100 RRA
AAXX 09211
51076 42680 23201 10154 20072 40013 57007 82402 333 05552=
51463 42980 01402 10209 20092 40022 57007 333 05552=
51573 42980 00000 10249 20108 49990 57004 333 05452 79999=
52533 42980 00000 10159 20096 40012 57002 333 05401=
52652 42980 01603 10169 20107 40022 57007 333 05300=
52983 42980 02203 10089 20075 38087 57006 333 05258 70058=
53915 42980 02902 10124 20113 40082 57002 333 05157 70023=
54511 41750 71403 10220 20199 40047 57002 71080 874// 333
70174=
56080 42980 72501 10040 20040 37183 57006 80002 333 00157
70165=
56096 42980 00203 10176 20137 40076 57007 333 00358 70029=
####018000532####
SIVS20 VNNN 092100
AAXX 09211
48848 32598 72304 10328 20234 30042 40050 56005 82108 333 58000
82895 87299=
48855 32798 71801 10261 20230 30049 40057 56009 81508 333 59004
81697 87299=
48900 32497 40902 10242 20240 30071 40081 57010 84800 333 59001
81894 83696=
48914 41597 82001 10270 20250 30081 40083 57014 78082 888// 333
59004 83895 85696 96160=
48917 32598 30701 10262 20253 30071 40077 57017 83200 333 58001
83895=
48918 41498 70000 10272 20253 30082 40093 57009 72582 879// 333
58001 82894 86995=
