####018000127####
SIMN20 TNCM 100300
AAXX 10034
78866 22582 61013 10285 20234 
30176 40181 52007 86800 333
58007 60007 83820 84638=
####018000216####
SIRE19 FMEE 100300
AAXX 10034
61996 26/// /2510 10123 20093 40261
  333 58014 60007 90710 91123
  555 60005=
61998 22565 62617 10050 20013 40132 86500
  333 58127 60007 86630 90710 91123
  555 60005=
####018000633####
SICO20 SKBO 100300
AAXX 10031
80001 21462 80603 10252 20243 30108 40109 79596 8397/
  333 5620/ 57921 59011 60287 83910 88457=
80022 31464 51402 10286 20225 30097 40099 70522 83421
  333 56190 59010 83815=
80028 31460 10102 10272 20260 30068 40103 70510 81600
  333 561// 59002 81712=
80112 21458 80000 10157 20150 37915 70596 8657/
  333 56009 58000 60017 86610 83458=
80222 31466 80302 10129 20116 37532 70522 84576
  333 56999 59008 84617 84270=
80259 21560 72802 10235 20176 70552 83970
  333 5669/ 57972 69907 83920 87458=
80315 32665 20000 10275 20196 39585 40082 81850
  333 5604/ 59020 81840=
####018000217####
SIKB20 NGTT 100300
AAXX 10034
91610 41599 21006 10300 20232 40102 57018 70111 81101 333 562// =

--00163683314a528098048affe376



html code found in mail
The rest of this message has been deleted
####018000284####
SIGG20 UGGG 100300
AAXX 10031
37484 32598 71203 10236 20215 30101 40110 54000 86370
  555 20235 30022 50263 53004 7000/ 91104=
37545 /6/// /3601 10237 20197 39618 40103 52007
  555 60002 7000/=
37395 NIL=
37404 NIL=
37409 NIL=
37432 NIL=
37514 NIL=
37621 NIL=
####018000131####
SIDL44 EDZW 100300 RRA
AAXX 10031
10097 27965 01403 10216 20187 30179 40193 58003 70050
  222// 06218
  333 55300 69907=
####018000099####
SINO26 ENMI 100300 RRB
AAXX 10031
01257 26/// /1901 10135 20099 39926 40082 58027 333 60005=
####018000117####
SIDL22 EDZW 100300 RRB
AAXX 10031
10043 46/// /1806 10222 20185 30167 40169 57002
222// 0////
  333 553//=
####018000108####
SITU10 LTAA 100300 CCA
AAXX 10034
17350 42660 33605 10210 20209 30019 40093 55000 83100
 333 83835=
####018000089####
SITU12 LTAA 100300 RRB
AAXX 10034
17330 4//// /2800 10228 20175 30079 40097 5////=
####018000191####
SITU13 LTAA 100300 RRA
AAXX 10034
17074 4//// /2001 10179 20168 39227 40117 52007=
17155 4//// /1901 10145 20131 39056 40122 5/001=
17237 4//// /2304 10186 20140 39639 40117 52001=
####018000191####
SITU11 LTAA 100300 RRA
AAXX 10034
17084 4//// /1102 10164 20163 39244 40097 52003=
17184 4//// /3502 10201 20157 30027 40132 56001=
17234 4//// /0801 10193 20143 30047 40112 53001=
####018000191####
SITU13 LTAA 100300 RRB
AAXX 10034
17042 4//// /1001 10243 20210 30082 40122 5////=
17250 4//// /2503 10177 20124 38787 40077 5////=
17320 4//// /3401 10230 20190 30089 40095 5////=
####018000242####
SITU12 LTAA 100300 RRA
AAXX 10034
17116 4//// /2304 10200 20185 30027 40142 55002=
17188 4//// /1201 10152 20107 39100 40112 53000=
17292 4//// /3103 10175 20123 39376 40092 52001=
17310 4//// /0502 10248 20212 30087 40094 55001=
####018000242####
SITU11 LTAA 100300 RRB
AAXX 10034
17034 4//// /0000 10242 20175 30070 40115 5////=
17090 4//// /0000 10181 20147 38707 40074 5////=
17210 4//// /0200 10243 20059 39105 40062 5////=
17370 4//// /1400 10253 20211 30090 40095 5////=
####018000103####
SITH43 VTBB 100300 RRA
AAXX 10034
48401 32560 41404 10310 20246 39989 40095 82105
  333 58006=
####018000103####
SITH42 VTBB 100300 RRB
AAXX 10034
48479 32560 60000 10300 20258 30044 40095 82246
  333 58006=
####018000083####
SIVD20 KWNB 100300 RRF
BBXX
41029 10031 99328 70796 46/// ///// 10282 90300=
####018000170####
SIVD15 KWNB 100300 RRI
BBXX
42362 10031 99278 70907 46/// /1202 10283 20222 40176 52020 90300=
42364 10031 99291 70881 46/// /0000 10278 20222 40169 53013 90300=
####018000227####
SIVD22 KWNB 100300 RRG
BBXX
46023 10031 99347 71210 46/// /3308 10134 40133 56006 90250 22200
00141 11302 20502 3//// 41301 70011 333 91210 555 11083 22088
30230 43411 60249 335084 337087 339087 337082 330083 332082=
####018000101####
SIVD17 KWNB 100300 RRD
BBXX
32012 10031 99196 50854 46/// ///// 1//// 90250 22200 11406 70031=
####018000125####
SIVD45 KWNB 100300 RRF
BBXX
45022 10031 99454 70851 46/// /2101 10206 40170 90310 22200 00200
1//00 70001 333 91201=
####018000127####
SMMA01 FIMP 100000 RRA
AAXX 10004
61986 11465 61109 10228 20196 40149 69951 71581 86800
  333 0//15 59011 84817 83650=
####018000028####
SIVE21 ESWI 100300
NIL=
####018000028####
SIVC21 ESWI 100300
NIL=
####018000028####
SIVJ21 ESWI 100300
NIL=
####018000102####
SICN05 CWAO 100300 RRA
AAXX 10034
71807 36/// /2011 10124 20124 30148 40166 50002 333 60001=

####018000128####
SMCN28 CWAO 100000 RRD
AAXX 10004
71846 17/// /3206 10193 20098 39788 40092 53009 60021 7//4/ 333
10219 20116 70026=

####018000163####
SICN03 CWAO 100300 RRA
AAXX 10034
71430 36/// /2807 10213 20202 30016 40109 50009 333 60001=
71447 36/// /2606 10213 20139 39590 40113 55003 333 60001=

####018000102####
SICN06 CWAO 100300 RRA
AAXX 10034
71832 36/// /2605 10143 20111 39792 40107 53011 333 60001=

####018000163####
SICN04 CWAO 100300 RRA
AAXX 10034
71607 36/// /1805 10202 20197 30102 40133 51004 333 60001=
71631 36/// /2601 10172 20150 39658 40143 53012 333 60001=

####018000102####
SICN02 CWAO 100300 RRA
AAXX 10034
71148 36/// /1506 10181 20154 39575 40136 56004 333 60001=

####018000089####
SNPS40 AMMC 100200 RRD
AAXX 10024
91642 46/// /0702 10281 40103 22200 00293=


####018000166####
SIVD20 KWNB 100300 RRH
BBXX
42085 10031 99179 70665 46/// /0708 10292 40157 90250 333 91211=
42085 10031 99179 70665 46/// /0708 10291 40157 90240 333 91211=
####018000125####
SIVD20 KWNB 100300 RRG
BBXX
42085 10031 99179 70665 46/// /0709 10293 40157 90300 22200 00295
10603 70013 333 91210=
####018000228####
SIFW20 NWBB 100300
AAXX 10034
91753 22470 81009 10286 20244 30090 40119 57015 8392/
  333 60007 82918 82818 86461 90710 91115
  555 60005=
91754 26/// /0706 10280 20246 30082 40122 56020
  333 60007
  555 60005=
####018000113####
SIVD15 KWNB 100300 RRJ
BBXX
42021 10031 99283 70833 46/// /2703 10292 40156 90240 22200 00297
333 91203=
####018000128####
SMCN27 CWAO 090000 RRZ
AAXX 09004
71746 17/// /0603 10227 20215 39926 40139 58009 60051 7//4/ 333
10352 20220 70049=

####018000147####
SIVD20 KWNB 100300 RRI
BBXX
44029 10031 99425 70706 46/30 /1606 10219 40110 50003 90304 22200
00204 10802 70008 333 91207 555 11075 22084=
####018000253####
SNVD20 KWNB 100200 RRW
BBXX
42085 10021 99179 70665 46/// /0708 10292 40157 90230 22200 10603
70014 333 91209=
42085 10021 99179 70665 46/// /0707 10292 40158 90220 333 91209=
42085 10021 99179 70665 46/// /0606 10291 40160 90210 333 91209=
####018000640####
SICO20 SKBO 100300
AAXX 10031
80001 21462 80603 10252 20243 30108 40109 79596 8397/
  333 5620/ 57921 59011 60287 83910 88457=
80022 31464 51402 10286 20225 30097 40099 70522 83421
  333 56190 59010 83815=
80028 31460 10102 10272 20260 30068 40103 70510 81600
  333 561// 59002 81712=
80112 21458 80000 10157 20150 37915 70596 8657/
  333 56009 58000 60017 86610 83458=
80222 31466 80302 10129 20116 37532 70522 84576
  333 56999 59008 84617 84270=
80259 21560 72802 10235 20176 70552 83970
  333 5669/ 57972 69907 83920 87458=
80315 32665 20000 10275 20196 39585 40082 81850
  333 5604/ 59020 81840=
NNNN
####018000083####
SAYE20 OYSC 100300 CCA
METAR COR OYDM 100300Z 00000KT 9999 BKN030 14/12 Q////=
####018001190####
SIGL21 EKMI 100300
AAXX 10034
04211 47/01 /3007 10015 20015 39921 40079 57006 77777 =
04220 47/84 02404 10031 20025 30029 40080 57003 70010
  333 55300 20065 =
04221 45184 53501 10078 20065 30036 40076 57002
  333 83/02 85/04 =
04231 45/83 /0406 10074 20017 30000 40071 52002 =
04234 45/58 /2805 10042 20042 30063 40074 57006 =
04241 45282 13006 10060 20053 30031 40069 57006
  333 81/04 =
04250 27004 52906 10037 39970 40074 57004 73384
  333 55300 20004 69907 85/01 =
04254 45984 10204 10051 20032 39967 40079 57004
  333 81/70 =
04260 47/01 93104 10040 20035 30038 40081 57005 73388
  333 89/02 =
04270 45984 12604 10072 20039 30041 40078 54000
  333 81/61 91213 =
04272 26/04 /2304 10020 20020 30011 40082 57006
  333 6///7 =
04312 46/// /2903 10019 20001 39999 40042 57001 =
04320 45482 70803 10023 21009 30057 40072 54000
  333 55300 81/12 87/49 =
04339 25/84 /3501 10057 20023 39958 40045 57002
  333 55300 20040 6///7 =
04360 25/84 02101 10032 20026 39979 40048 57001
  333 55300 20007 6///7 =
04361 462// 82603 10044 20044 30003 40054 57004
  333 88/04 =
04390 25/83 02708 10071 20042 39960 40051 57012
  333 6///7 =
####018000187####
SAYE20 OYSC 100200 RRA
METAR OYDM 100000Z VRB02KT 9999 BKN030 13/09 Q////=
METAR OYDM 101000Z 00000KT 9999 SCT030 13/11 Q////=
METAR OYDM 100200Z 00000KT 9999 SCT030 13/11 Q////=
####018000123####
SMFG01 SOCA 100000
AAXX 10004
81401 06/// ///// 10258 20237 30119 40124 60001
 333 10328 60007 59002
 555 60005=
####018000887####
SISD21 OEJD 100300
AAXX 10034
41024 42960 10304 10290 20260 39987 40006 81030 333 59002 81360=
41030 42960 22702 10332 20240 39726 49983 82030 333 59001 82360=
41036 41957 12105 10254 20040 38514 48464 70600 80001 333 59013 81070
555 04410 59986=
41055 41957 03006 10250 21020 38320 48458 70500 333 59011 555 04410
59997=
41061 41558 51104 10330 20170 39328 49981 70600 82130 333 59008 82830
84358=
41084 42960 50000 10300 20070 38788 48461 82032 333 59013 82360 83070
555 04410 59974=
41112 42960 00000 10250 21040 37918 48459 333 59014 555 04410 50014=
41114 41920 00000 10220 20090 37944 48452 70644 333 59012 555 04410
50015=
41128 41945 01204 10280 20100 38738 48455 70600 333 59003 555 04410
50001=
41136 41659 70000 10285 20160 39227 40002 70500 84430 333 58015 84635
83358=
41140 42960 50000 10305 20240 30003 40012 85010 333 58015 85460=
####018001226####
SISD20 OEJD 100300
AAXX 10034
40356 42960 00614 10280 20060 39124 48483 333 59002 555 04410 50018=
40357 42960 00207 10288 20070 39446 40028 333 58018=
40360 42960 03016 10232 20140 39501 40044 333 59004=
40361 42660 52407 10302 20000 39313 40014 81530 333 58003 81640
84360=
40362 42960 00105 10300 20080 39535 40007 333 58003=
40373 42960 03404 10292 20030 39610 40001 333 59010=
40375 42960 03307 10270 20090 39224 40036 83030 333 59003 83360=
40377 42960 00109 10308 20090 39566 40007 333 59005=
40394 42960 00604 10276 20020 38980 48494 333 59002 555 04410 50021=
40400 42960 33104 10282 20260 39992 40019 80001 333 59002 83070=
40405 42960 03609 10330 20080 39324 40003 333 59009=
40410 NIL=
40416 42960 31207 10330 20280 39967 49986 80001 333 59007 83070=
40417 41957 21102 10320 20240 39986 40000 70500 82030 333 59002
82360=
40420 42960 31504 10340 20200 39806 49997 83030 333 59005 83360=
40430 42660 30000 10325 21020 39328 49993 81530 333 58000 81645=
40435 NIL=
40437 42960 30000 10282 21030 39343 49994 83030 333 59020 83360=
40438 41950 60000 10330 20020 39342 49994 70600 80001 333 59008
86300=
40439 42960 32404 10322 20190 39979 49989 83040 333 59001 83360=
####018000085####
SIMJ20 MJSK 100300
AAXX 10031
13579 32970 03203 10124 20091 39387 40209 55004=
####018000145####
SMID20 WIIX 100000 RRD
AAXX 10004
96505 11310 80000 10202 20194 39115 4//// 5//// 60184 71022 886//
  333 20183 55063 56099 58026 88708=
####018000086####
SIML20 LMMM 100300
AAXX 10034
16597 42960 02702 10217 20197 30099 40184 56009 =
####018000199####
SILB20 OLBA 100300
AAXX 10034
40100 41550 20502 10251 20209 30065 40095 55001 71044 82200 903// 333
82826 92426=
40101 42956 00000 10179 20116 39064 48485 55000 903//=
40102 NIL=
40103 NIL=
####018000204####
SILB20 OLBA 100300
AAXX 10034
40100 41550 20502 10251 20209 30065 40095 55001 71044 82200 903// 333
82826 92426=
40101 42956 00000 10179 20116 39064 48485 55000 903//=
40102 NIL=
40103 NIL=
####018000702####
SISY20 OSDI 100300
AAXX 10031
40001 42970 00106 10242 20053 40066 53005=
40007 42960 02802 10196 20141 40093 53003=
40009 NIL=
40016 42970 03003 10203 20166 40092 53004=
40022 42965 00000 10218 20193 40087 56002=
40025 42960 00502 10198 20165 40090 57004=
40030 42970 00000 10202 10158 40076 53002=
40039 42970 01701 10222 20099 40063 57001=
40045 42970 03403 10259 20111 40068 52010=
40061 42970 02501 10232 20168 40053 53004=
40066 42970 00000 10208 20186 40089 51000=
40072 42970 02702 10270 20143 40073 52008=
40080 42965 02403 10175 20113 39406 40072 52007=
40083 42970 00000 10168 20023 48475 56002=
40087 NIL=
40095 42970 30000 10196 20177 39486 40086 55001 80001 333 83070=
####018000112####
SIGG40 UGGG 100300
AAXX 10031
37279 NIL=
37308 NIL=
37492 NIL=
37531 NIL=
37553 NIL=
37651 NIL=
####018001006####
SIVS20 VNNN 100300
AAXX 10031
48826 32760 71802 10328 20282 39925 40055 51002 82508 333 58005 
82697 87299=
48839 32998 62010 10325 20279 39999 40062 52007 80008 333 58014 
86299=
48848 32998 52303 10346 20238 30063 40071 50007 80008 333 58007 
85299=
48855 32570 71101 10340 20227 30074 40082 50009 82808 333 58013 
81895 87299=
48870 32598 61102 10308 20247 30085 40092 51009 81908 333 58008 
81995 86299=
48877 32598 60702 10312 20236 30097 40102 50015 82208 333 58009 
82895 86299=
48887 32570 71102 10307 20249 30102 40108 51012 82208 333 58007 
82895 86299=
48900 32497 52405 10304 20250 30096 40106 52015 85200 333 58007 
85894=
48914 32598 72002 10317 20243 30107 40109 51013 82208 333 58008 
82895 87299=
48917 32598 72704 10293 20262 30102 40108 52018 8221/ 333 58004 
82895 86299=
48918 32570 71803 10306 20243 30100 40111 50011 84808 333 58006 
81895 83696 86299=
48920 41598 32002 10304 20247 30113 40116 50013 72581 83200 333 
58008 83895=
####018000274####
SIVS21 VNNN 100300
AAXX 10031
48808 32570 71103 10290 20259 39785 40057 50006 86801 333 58010 
82895 86696=
48830 32570 71404 10322 20244 39762 40053 50005 83248 333 58009 
83895 85299=
48852 32998 72501 10347 20225 30066 40076 50009 80008 333 58012 
87299=
####018000718####
SISY20 OSDI 100300
AAXX 10031
40001 42970 00106 10242 20053 40066 53005=
40007 42960 02802 10196 20141 40093 53003=
40009 NIL=
40016 42970 03003 10203 20166 40092 53004=
40022 42965 00000 10218 20193 40087 56002=
40025 42960 00502 10198 20165 40090 57004=
40030 42970 00000 10202 10158 40076 53002=
40039 42970 01701 10222 20099 40063 57001=
40045 42970 03403 10259 20111 40068 52010=
40061 42970 02501 10232 20168 40053 53004=
40066 42970 00000 10208 20186 40089 51000=
40072 42970 02702 10270 20143 40073 52008=
40080 42965 02403 10175 20113 39406 40072 52007=
40083 42970 00000 10168 20023 48475 56002=
40087 NIL=
40095 42970 30000 10196 20177 39486 40086 55001 80001 333 83070=
####018000271####
SIVS21 VNNN 100300
AAXX 10031
48808 32570 71103 10290 20259 39785 40057 50006 86801 333 58010
82895 86696=
48830 32570 71404 10322 20244 39762 40053 50005 83248 333 58009
83895 85299=
48852 32998 72501 10347 20225 30066 40076 50009 80008 333 58012
87299=
####018000994####
SIVS20 VNNN 100300
AAXX 10031
48826 32760 71802 10328 20282 39925 40055 51002 82508 333 58005
82697 87299=
48839 32998 62010 10325 20279 39999 40062 52007 80008 333 58014
86299=
48848 32998 52303 10346 20238 30063 40071 50007 80008 333 58007
85299=
48855 32570 71101 10340 20227 30074 40082 50009 82808 333 58013
81895 87299=
48870 32598 61102 10308 20247 30085 40092 51009 81908 333 58008
81995 86299=
48877 32598 60702 10312 20236 30097 40102 50015 82208 333 58009
82895 86299=
48887 32570 71102 10307 20249 30102 40108 51012 82208 333 58007
82895 86299=
48900 32497 52405 10304 20250 30096 40106 52015 85200 333 58007
85894=
48914 32598 72002 10317 20243 30107 40109 51013 82208 333 58008
82895 87299=
48917 32598 72704 10293 20262 30102 40108 52018 8221/ 333 58004
82895 86299=
48918 32570 71803 10306 20243 30100 40111 50011 84808 333 58006
81895 83696 86299=
48920 41598 32002 10304 20247 30113 40116 50013 72581 83200 333
58008 83895=
####018001246####
SICI23 BABJ 100300
AAXX 10031
50136 41670 41401 10234 20157 40107 57015 70040 84100=
50745 42665 70402 10265 20173 40094 57004 83102=
50774 42666 61402 10250 20162 40107 57007 84202=
50788 42570 60201 10243 20166 40111 57006 86200=
51133 NIL=
51431 NIL=
51747 NIL=
52203 NIL=
52418 NIL=
52681 NIL=
53564 42670 52203 10251 20178 40031 57005 85100=
53614 42780 11601 10278 20155 40006 52001 81100=
53646 42670 51802 10220 20176 40029 57007 81502=
53798 42960 70902 10262 20205 40046 57010 8703/=
53845 42975 02201 10261 20149 40034 57010=
53959 42960 82502 10224 20192 40067 57006 8802/=
54094 42672 61601 10239 20169 40103 57005 86200=
54102 42680 72006 10255 20137 49992 57009 85102=
54161 42562 71803 10239 20183 40080 57001 86902=
54292 42580 70704 10209 20169 40111 57001 8613/=
54374 42670 70000 10232 20181 40094 57006 875//=
54423 42565 71801 10219 20183 40058 57005 879//=
54618 42962 61103 10256 20202 40054 57010 80002=
54843 42670 70902 10262 20201 40065 52003 874//=
54909 41560 80402 10233 20225 40043 57002 76066 8357/=
56029 41680 80000 10118 20057 36531 52002 76066 885//=
57127 42570 20201 10248 20201 40070 52002 82100=
57131 42570 23603 10253 20185 40059 57009 81101=
####018000119####
SIUR20 UKMS 100300 RRB
AAXX 10031
33317 41496 83001 10164 20161 39880 40205 54000 71011 885//
333 55092 88614=
####018000147####
SNVD20 KWNB 100200 RRX
BBXX
44037 10021 99435 70679 46/12 /1704 10190 40135 55000 90204 22200
00177 10802 70011 333 91206 555 11059 22068=
####018001224####
SIJP20 RJTD 100300
AAXX 10034
47401 41215 80713 10149 20143 30092 40106 58009 75122 886//=
47412 41/60 83411 10225 20191 30035 40065 57011 78088 882//=
47420 41/18 80711 10152 20149 30019 40065 58030 78084 887//=
47426 47/50 /3603 10199 20194 39981 40026 58017 76265=
47582 41/60 83009 10241 20198 30056 40081 51012 70282 8727/=
47590 42/84 32715 10295 20163 30023 40072 51012 82232=
47600 41/65 22808 10266 20195 30092 40109 51007 70281 82200=
47648 42/70 62120 10261 20209 30061 40093 50002 81132=
47662 42/80 71609 10293 20187 30049 40090 52001 81202=
47678 45/66 /2109 10256 20229 39951 40128 50000=
47740 47/58 /0906 10262 20216 30078 40114 50004 71000=
47778 45/76 /2406 10256 20208 30034 40120 51003=
47807 41/58 70108 10285 20220 30083 40100 58008 70522 83232=
47827 42480 71604 10278 20238 30078 40114 51006 8327/=
47843 47/50 /1104 10242 20226 30072 40103 50000 76165=
47909 42/75 71604 10306 20252 30114 40123 55001 82232=
47918 42/75 71813 10319 20262 30095 40112 51005 82232=
47936 42/80 71814 10307 20253 30066 40122 58004 8427/=
47945 42/70 52008 10306 20261 30119 40142 50006 82201=
47971 42/75 31409 10285 20232 30164 40173 58004 83201=
47893 NIL=
47991 NIL=
####018001610####
SIJP21 RJTD 100300
AAXX 10034
47407 41/65 83507 10199 20169 39909 40071 58016 78082 8277/=
47409 41/60 83607 10181 20159 30029 40080 58019 78022 8527/=
47418 41/57 80318 10177 20166 39999 40046 58034 78088 887//=
47421 47/64 /3507 10220 20198 30037 40078 58002 70065=
47430 41/65 83208 10225 20191 30008 40059 57009 78088 8627/=
47570 41/68 53207 10262 20176 39849 40093 50004 72522 83232=
47575 41/58 82901 10209 20196 30067 40072 51010 78088 882//=
47584 41/70 72505 10229 20180 39887 40064 51014 78082 872//=
47604 42/65 72409 10269 20205 30093 40101 50004 86332=
47605 42/60 62711 10264 20200 30077 40115 51005 86200=
47624 42/80 43203 10324 20175 39947 40073 58005 82202=
47636 42/60 73503 10282 20186 30046 40110 58006 82132=
47655 42/68 72511 10259 20216 30055 40109 51002 81232=
47675 45/76 /2014 10259 20218 30020 40106 50003=
47741 42/60 72705 10281 20221 30081 40106 58003 83202=
47746 42/60 73508 10284 20207 30090 40108 58004 81202=
47750 42/65 72404 10278 20204 30089 40115 56002 84232=
47765 42/60 72107 10277 20205 30052 40113 53001 83232=
47772 42/65 73202 10294 20194 30017 40110 58006 82232=
47800 47/57 /1102 10253 20222 30103 40108 50003 71000=
47815 41/58 70105 10274 20214 30095 40110 58003 70522 82102=
47817 42970 73103 10287 20210 30063 40103 57003 86032=
47830 42/65 71108 10278 20230 30095 40112 51002 82202=
47887 42/60 73106 10274 20190 30073 40112 55000 81132=
47891 42/62 73505 10275 20208 30099 40115 58002 82232=
47927 42/80 61912 10322 20263 30071 40117 52003 82232=
47610 NIL=
47629 NIL=
47651 NIL=
47895 NIL=
####018000133####
SIDL23 EDZW 100300 CCA
AAXX 10031
10655 32963 31302 10192 20165 39879 40195 52002 81032
  333 55300 20000 30000 81366 83080=
####018001908####
SIMO21 MNUB 100300
AAXX 10030
44203 32699 60000 10177 20071 38355 40040 58010 83232=
44207 32699 70502 10157 20092 38286 40067 57004 86882=
44212 32699 47002 10257 20037 38967 49984 57010 84200=
44213 32699 50502 10246 20009 38668 49984 57010 83840=
44215 32698 20000 10210 20099 38315 49973 57005 81241=
44218 32698 62401 10244 20007 38500 49958 58013 82206=
44225 32998 21603 10192 20106 38218 40023 58017 81041=
44230 32698 61302 10198 20112 38739 40094 58006 85201=
44232 32699 61004 10213 20114 39027 40060 57006 86200=
44237 32699 62001 10187 20116 38437 40066 58006 82141=
44239 32699 51802 10197 20122 38743 40040 58002 83540=
44241 32999 63005 10191 20164 39175 40080 58003 86040=
44256 32599 70907 10258 20160 39267 40044 54000 86317=
44265 32999 30000 10227 20130 38746 40016 58003 80004=
44272 32998 10000 10214 20060 38150 49957 57010 81030=
44275 32898 61403 10163 20109 37712 40007 56007 83039=
44282 32699 71403 10181 20109 38259 40047 58006 82108=
44284 32899 73603 10176 20055 37841 40062 58001 87070=
44285 32999 20000 10190 20092 38292 40055 57006 82081=
44287 32699 71402 10199 20078 38091 40048 54000 83234=
44294 32698 60509 10191 20091 38520 40069 51005 86500=
44298 31699 70209 10178 20130 38642 40025 52007 70262
87900=
44302 41598 72704 10162 20146 39060 40096 53019 78182
87900=
44305 41598 80910 10169 20146 38926 40005 51007 76062
8852/ 333 91114=
44313 32599 61104 10248 20102 39306 40069 52003 85204=
44314 32598 80907 10206 20128 39050 40046 58004 889//=
44317 41596 81406 10168 20132 38850 40032 52002 71062
8872/=
44336 32999 20504 10204 20101 38633 40065 56003 82100=
44341 32599 60208 10193 20100 38545 40054 55001 86200=
44347 32699 23405 10217 20082 38645 40021 58002 82101=
44352 41699 63605 10181 20137 38794 40982 51011 70262
86200=
44358 32598 62807 10235 20142 38930 49976 54000 86300=
####018000541####
SIMO20 MNUB 100300
AAXX 10030
44214 NIL=
44231 32699 70806 10221 20122 38655 40035 58009 81108=
44259 32697 71508 10257 20095 39217 40035 57003 86202
333 91112=
44277 32999 42705 10197 20000 37772 40019 58005 82054=
44288 32699 30000 10175 20099 38146 40079 58003 83100=
44292 32699 51303 10230 20063 38649 40031 58003 84201=
44304 41599 80507 10171 20142 38908 40061 52014 76362
887// 333 91113=
44354 31596 80204 10198 20154 38968 49970 51004 71062
8832/=
44373 32699 23404 10224 20078 38481 40016 58003 81203=
####018000101####
SIMJ40 MJSK 100300
AAXX 10031
13586 32770 20303 10152 20121 39916 40200 54000 82030 333 82359=
####018000238####
SNHK22 VHHH 100315
AAXX 10031
45032 36/// /1702 10305 20237 30085 40101 57001=
45035 36/// /2304 10322 20253 30059 40098 54000=
45039 36/// /1903 10308 20247 30083 40097 57001=
45044 36/// /2403 10285 20275 30013 40102 54000=
####018001320####
SIRA20 RUHB 100300
AAXX 10031
30372 42799 30602 10202 20086 39305 40098 58007 81201=
30433 42699 21702 10171 20133 39546 40095 54000 81101=
30554 42698 21702 10253 20131 39087 40061 57008 82200=
30635 42799 83101 10204 20111 39566 40088 58005 82101=
30673 42699 20301 10232 20140 39397 40090 58008 822//=
30692 42599 32004 10240 20144 39648 40094 57009 82201=
30758 42699 70000 10255 20138 39334 40070 57006 85231=
30823 42999 50803 10249 20137 39494 40064 58008 81032=
30879 42699 30702 10272 20088 39387 40064 58003 82201=
30935 41699 61101 10222 20106 39219 40067 58010 70142 81101=
30949 41699 71801 10204 20132 39074 40069 52004 72522 83930=
30965 42699 71305 10261 20109 39328 40067 58002 82342=
31168 42398 80203 10123 20112 30140 40151 57003 885// 333 95070=
31300 42599 50000 10245 20158 39834 40094 58004 85300=
31329 42699 82401 10206 20119 39480 40090 58010 82239=
31369 42498 81502 10153 20122 30058 40138 58006 8693/ 333 86918=
31416 42599 83401 10180 20102 30041 40124 57010 884//=
31484 42599 71801 10170 20130 39805 40118 58010 875//=
31512 426// 53301 10262 20180 39942 40092 57005 82101=
31707 42599 60000 10253 20123 30028 40112 58009 84901=
31735 42597 40103 10244 20158 30030 40110 58009 81131=
31770 42598 83602 10174 20131 30104 40133 58009 86139=
####018000241####
SNHK22 VHHH 100315
AAXX 10031
45032 36/// /1702 10305 20237 30085 40101 57001=
45035 36/// /2304 10322 20253 30059 40098 54000=
45039 36/// /1903 10308 20247 30083 40097 57001=
45044 36/// /2403 10285 20275 30013 40102 54000=

####018000117####
SIPF80 KWBC 100300 RRB
AAXX 10034
91948 26/// ///// 10205 20146 30122 40227 52007 333 60007 555
60005 58014=
####018000133####
SICA30 KWBC 100300
AAXX 10031
80001 21462 80603 10252 20243 30108 40109 79596 8397/ 333 5620/
57921 59011 60287 83910 88457=
####018001354####
SIAG01 SABM 100300
AAXX 10034
87078 NIL=
87097 41550 50904 10151 20151 39894 40209 52008 71022 83570 333
56990 83620 84360=
87148 42970 81805 10160 20120 30114 40226 51007 8807/ 333 56009
88360=
87155 41360 81603 10165 20153 30150 40212 51004 70422 886// 333 56599
 84708 88615=
87162 NIL=
87166 41260 81605 10163 20156 30141 40215 51004 70252 886// 333
56499 83704 85707=
87178 42970 70503 10190 20174 30061 40209 52008 87070 333 56050
87360=
87289 NIL=
87374 42965 00000 10086 20065 30156 40246 52008=
87393 NIL=
87395 42965 00000 10094 20064 30196 40242 52008=
87480 42960 01603 10052 20025 30217 40248 51003=
87497 NIL=
87534 42960 00000 10033 21027 30080 40249 54000=
87548 42962 00000 10016 20005 30156 40257 58003=
87563 NIL=
87576 42960 00000 10043 20010 30234 40259
52003=
87582 42960 01406 10085 20018 30252 40258 51005=
87593 42960 00000 10027 20014 30230 40259 52011=
87623 42980 03605 10021 21032 39998 40234 58001=
87640 NIL=
87641 42965 00000 10018 21036 30069 40251 53001=
87645 42965 00000 11022 21035 30034 40252 54000=
87648 42960 00000 10020 20017 30244 40255 52001=
87688 NIL=
87692 42960 00000 10008 21015 30224 40249 51004=
87715 42965 00901 10010 21019 39858 40191 57005=
87750 NIL=
87765 42560 13228 10065 20019 39166 48451 57012 81500 333 56600
81630=
####018000044####
SIAG01 SABM 100300 RRA
AAXX 10033
NIL
####018000147####
SIVD20 KWNB 100300 RRJ
BBXX
44030 10031 99432 70704 46/// /1805 10187 40116 51006 90304 22200
00166 10502 70010 333 91205 555 11068 22078=
####018000200####
SNVD15 KWNB 100200 RRX
BBXX
42021 10021 99283 70833 46/// /2602 10292 40150 90220 22200 00298
333 91202=
42021 10021 99283 70833 46/// /2702 10293 40148 53012 90200 22200
00299 333 91203=
####018000090####
SIRH75 LDZM 100300
AAXX 10031
14444 42980 00402 10220 20085 30163 40191 57005 333 =
####018000121####
SIID21 WIIX 090900 RRA
AAXX 09094
96015 32563 52306 10306 20244 30081 40088 56016 83231
  333 56000 83820 80860=
####018000201####
SITD20 TTPP 100300
AAXX 10034
78970 41457 70000 10259 20249 30110 40135 78022 872// 
333 05299 59003 87818=
78962 41466 51012 10272 20234 30135 40143 70282 82872
333 01299 59004 82818 85459=
 
####018000168####
SMXX17 KAWN 100000 RRB
BBXX
V7NV4 10004 99448 71799 41898 80322 10130 20112 40135 51010 7////
 87242 22223 0//// 20308 303// 40308 5//// 6//// 80120 ICE /////=
