####018000185####
SMNP01 VNKT 100000 RRA
AAXX 10004
44416 41450 70000 10255 20250 39251 49980 720// 8464/ 333 59039=
44438 41450 81203 10260 20258 39882 40004 750// 8587/ 333 59021=
44477 NIL=
####018000127####
SNVD22 KWNB 100100 RRW
BBXX
46221 10011 99339 71186 46/// ///// 1//// 90117 22200 00172 11301
21001 320// 41301 70007=
####018000355####
SNVD15 KWNB 100200
BBXX
42362 10021 99278 70907 46/// /0000 10289 20217 40169 90145=
42364 10021 99291 70881 46/// /0000 10278 20222 40163 90145=
41025 10021 99350 70754 46/// /2704 10258 20236 40112 51015 90150
22200 00260 10802 20401 300// 40801 70008 333 91205 555 11047
22050 30053 42606 60149 271044 270043 268047 267045 263042 259049=
####018000125####
SNVD45 KWNB 100200 RRA
BBXX
45022 10021 99454 70851 46/// /0000 10207 40160 90150 22200 00202
1//00 70002 333 91200=
####018000222####
SNVD17 KWNB 100100 RRG
BBXX
46238 10011 99334 71195 46/// ///// 1//// 90126 22200 00147 11302
20502 317// 41301 70011=
52201 10011 99071 11714 46/// ///// 1//// 90125 22200 00287 11302
20802 319// 41301 70012=
####018000229####
SNVD19 KWNB 100200
BBXX
46073 10021 99550 71720 46/// /0409 10066 20066 49939 54000 90150
22200 00061 10805 20805 300// 40902 70027 333 91211 555 11094
22101 30121 40412 60149 037095 036101 033100 034096 034095 037099=
####018000216####
SNVD20 KWNB 100200 RRB
BBXX
44060 10021 99413 70721 46/// /0000 10206 40123 90145 22200 00191
333 91201=
44022 10021 99409 70737 46/// /1903 10252 20217 40117 90145 22200
00242 333 91205 555 11041 22046=
####018000215####
SNVD22 KWNB 100200 RRB
BBXX
46088 10021 99483 71232 46/// /2308 10134 40130 58010 90150 22200
00119 10301 20301 70004 333 91209 555 11080 22085 30106 42209
60149 223077 218076 222079 223079 225081 230072=
####018000127####
SNVE15 KWNB 100100 RRH
BBXX
51202 10011 99214 71577 46/// ///// 1//// 90110 22200 00256 10503
20503 306// 41101 70016=
####018000121####
SNAU41 AMMC 100100 CCA
AAXX 10014
94623 11380 73102 10090 20090 39942 40181 60214 70262 87600
  333 70209=


####018000105####
SNMA20 FIMP 100200
AAXX 10024
61990 42470 61008 10217 20161 40175 86800
  333 59029 82818 86650=
####018000073####
SMAA14 KARS 100000
AAXX 10004
89528 46/// /0150 36718 4//// 5////=
