####018000229####
SIVD19 KWNB 092100
BBXX
46073 09211 99550 71720 46/// /0411 10068 20067 49935 52004 92050
22200 00060 10806 20806 300// 41102 70032 333 91214 555 11114
22123 32002 40416 62049 043113 043112 044115 043121 042124 044118=
####018001238####
SIVD15 KWNB 092100
BBXX
41025 09211 99350 70754 46/// /2709 10276 20232 40094 55014 92050
22200 00270 10402 20402 300// 40801 70011 333 91210 555 11094
22100 32000 42812 62049 274088 280089 278085 277088 277099 274100=
41012 09211 99300 70805 46/// /1904 10284 20246 40132 57020 92050
22200 00283 10901 20301 312// 40901 70004 333 91205 555 11045
22048 32045 41905 62049 188042 190036 197034 199035 203038 205037=
41046 09211 99238 70709 46/// /1005 10275 20233 40172 58014 92050
22200 00292 10802 20401 311// 40802 70012 333 91206 555 11050
22052 32036 41006 62049 101048 105049 109041 100043 099039 091023
82806 92039=
41001 09211 99347 70727 46/// /1906 10268 20232 40122 58010 92050
22200 00273 10802 20501 3//// 40802 70011 333 91207 555 11060
22063 32031 41907 62049 192057 190059 191054 196049 201050 206055=
41049 09211 99275 70630 46/// /1105 10274 20242 40211 56009 92050
22200 00274 10603 20502 300// 40602 70014 333 91206 555 11056
22060 32010 41107 62049 107054 102055 104057 109062 104061 106058
81107 92013=
42036 09211 99285 70845 46/// /2002 10295 40150 58017 92050 22200
00310 10801 70003 333 91203 555 11024 22024 32029 42004 62049
199023 204023 207019 199018 197014 193014=
####018000217####
SIVD20 KWNB 092100
BBXX
41008 09211 99314 70809 46/// /1707 10294 40121 58022 92050 22200
10801 20401 300// 40801 70005 333 91209 555 11078 22083 32046
41809 62049 173073 171073 169065 169064 169065 165064=
####018000410####
SIVD45 KWNB 092100 RRA
BBXX
45004 09211 99476 70866 46/// /2704 10146 39915 40136 58004 92050
22200 00132 10401 20401 70004 333 91205 555 11047 22054 32001
42806 62049 274042 276043 277042 275042 275045 272041=
45005 09211 99417 70824 46/// /3608 10250 39909 40112 58007 92050
22200 00259 10401 20401 70004 333 91209 555 11084 22089 32043
43509 62049 356078 005055 006039 005015 030007 041010=
####018000229####
SIVE15 KWNB 092100
BBXX
51000 09211 99235 71541 46/// /0809 10243 20179 40207 52003 92050
22200 00248 10704 20703 311// 41202 70019 333 91210 555 11095
22101 32016 40811 62049 079091 079089 080089 080091 077083 087077=
####018000400####
SIVD22 KWNB 092100
BBXX
46088 09211 99483 71232 46/// /2304 10138 40145 58006 92050 22200
00126 1//00 70002 333 91205 555 11040 22043 32031 42305 62049
233039 232041 229037 222032 213025 225028=
46053 09211 99342 71198 46/// /2402 10154 40136 57005 92050 22200
00171 10501 20401 328// 40501 70005 333 91203 555 11025 22025
32036 42604 62049 244024 252025 241026 230024 260024 257027=
####018000072####
SALY31 HLLT 092100
METAR HLLT 092050Z 07001KT 8000 SKC 25/21 Q1018=
####018000170####
SIYE10 OYAA 092100
AAXX 09214
41480 41957 21108 10304 20221 30030 40033 70544 82030 333 58007
82360=
41494 42460 21833 10275 20222 40094 82500 333 58004 82618=
####018000146####
SIME01 FAME 092100
AAXX 09214
68994 41497 83221 10080 20075 39941 49970 57013 75085 886//
      333 10094 20074 91034 555 20086 90996=

####018000125####
SNVD20 KWNB 092000 RRS
BBXX
44039 09201 99411 70727 46/// /1504 10261 20232 40132 92015 22200
1//00 70002 333 91205=
####018000233####
SIVD20 KWNB 092100 RRA
BBXX
41004 09211 99325 70791 46/// /1603 10279 20249 40127 56005 92050
22200 00274 10801 20401 3//// 40801 70006 333 91203 555 11032
22037 31957 41907 62049 162030 178041 178044 179049 186055 190059=
####018000074####
SALY31 HLLT 092100
METAR HLLT 092050Z 
07001KT 8000 SKC 25/21 Q1018=
####018000128####
SIBA20 MYNN 092056
AAXX 09214
78073 41463 71806 10310 20269 40156 71592 84933 333 0/999 83912
83815 86072=


NNNN
####018000101####
SIYE70 OYSY 092100
AAXX 09214
41396 42865 42105 10303 20197 39318 48461 84030 333 58008 84358=
####018000089####
SNAU54 AMMC 092000 RRB
AAXX 09204
94728 41/84 10000 11018 21026 70200 80001=


####018000128####
SISE01 FASE 092100
AAXX 09214
89004 46/// /1036 11322 21348 38758 49866 57027
      333 11241 21324 91045 555 9////=

####018000101####
SIMJ41 LWSK 092100
AAXX 09211
13586 32770 23504 10216 20118 39923 40201 51019 82500 333 82660=
####018000113####
SIPS20 NZKL 092100
AAXX 09214
91824 41499 51009 10260 20249 40181 52010
70322 8583/ 333 5629/ 555 1////=
####018000125####
SISE01 FASE 092100
AAXX 09214
89004 46/// /1036 11322 21348 38758 49866 57027
      333 11241 21324 91045 555 9////=
####018000109####
SNNC22 NWBB 092000 RRA
AAXX 09204
91598 46/// /3412 10227 20189 30111 40142 53005
  555 10244 20213=
####018000085####
SIML20 LMMM 092100
AAXX 09214
16597 42965 02503 10235 20192 30110 40194 53008 =
####018000257####
SIKU20 NCRG 092100
AAXX 09213
91802 46/// ///// 10297 20252 40133 52007=
91809 46/// ///// 10315 20255 40130 52010=
91831 NIL=
91841 46/// ///// 10272 20255 40197 52010=
91843 41499 20308 10266 20228 40217 51013 70121 82200
333 561// 82816=
####018000085####
SIMJ01 LWOH 092100
AAXX 09211
13579 32970 03602 10157 20101 39394 40206 52015=
####018000089####
SNAU51 AMMC 092000 RRA
AAXX 09204
94593 41575 41315 10190 20151 70311 82620=


####018000086####
SIVX81 EDZW 092100
BBXX
DK7210 09211 99540 10066 46/// /2507 10227 20208 30148=
####018000107####
SICY20 EGRR 092100
AAXX 09214
17601 42465 12709 10247 20207 30063 40093 51010 81400 92050 333 81712=
####018000130####
SICS01 MROC 092100
AAXX 09214
78774 32670 82508 10316 20253 39987 40076 57026 83204
333 02204 31/// 59021 83835 87075=
