####018000166####
SNVD20 KWNB 091900 RRJ
BBXX
42085 09191 99179 70665 46/// /1008 10298 40147 91850 333 91209=
42085 09191 99179 70665 46/// /1108 10298 40147 91840 333 91210=
####018000150####
SMCS01 MROC 091906
AAXX 09184
78762 32570 62407 10270 20220 39089 40093 57006 81290
333   0550/ 10290 20187 30/// 59012 81920 87835



####018000963####
SNRH82 LDZM 091900
AAXX 09191
14216 42975 00101 10253 20171 30049 40192 55///=
14219 42970 01601 10200 20133 39239 48580 53///=
14232 42984 01801 10231 20165 30075 40204 54///=
14234 42980 10101 10222 20142 39971 40206 53/// 80001=
14236 42786 21101 10250 20131 30015 40202 54/// 82530=
14244 42981 12101 10247 20135 30085 40207 55/// 80001=
14248 42970 03402 10223 20161 30040 40205 56///=
14253 42960 01401 10249 20143 30041 40205 56///=
14256 42970 10000 10242 20113 39902 40203 55001 80001=
14308 42982 03601 10242 20179 39862 40195 53///=
14321 42980 13302 10292 20101 30170 40193 55/// 80001=
14370 42680 20000 10214 20171 30101 40205 55/// 81402=
14428 42970 03303 10239 20211 30177 40184 56///
  333 92312=
14441 42982 03402 10240 20157 30160 40183 56///=
14454 42970 11400 10244 20153 30123 40180 53/// 81041=
14462 42980 13203 10242 20182 30179 40183 52/// 80002=
14472 42970 00000 10243 20191 30106 40167 56///=
####018000702####
SNRH81 LDZM 091900
AAXX 09191
14235 42960 0//// 10168 20093 39103 48573 55001=
14240 42970 13401 10223 20145 30058 40206 53001 80001=
14246 42982 12101 10214 20156 30014 40209 55/// 80001=
14258 42970 00000 10215 20164 30026 40205 53///=
14314 42972 13103 10255 20170 30132 40193 53/// 80001=
14323 42981 03002 10276 20095 30159 40191 54///=
14324 NIL=
14328 42965 03101 10218 20117 39825 40202 55///=
14330 42982 00302 10204 20103 39560 40199 53///=
14382 42982 02501 10224 20146 30093 40208 51004=
14438 42975 13505 10275 20110 30092 40178 53/// 81040=
14445 42970 11501 10256 20161 30032 40179 51001 80002=
14447 42984 03001 10240 20178 30157 40186 56///=
14452 NIL=
####018000089####
SMPS40 AMMC 091800 RRD
AAXX 09184
91642 46/// /1808 10247 40118 22200 00291=


####018000096####
SMCN20 CWAO 091800 RRI
AAXX 09184
71016 16/// ///// 10257 60001 333 10260 20098 70000=

####018000115####
SMTH01 VTBB 091800 RRA
AAXX 09184
48356 12560 60000 10270 20245 39870 40064 60053 83531
  333 59007 70047=
####018000274####
SNMK10 LYPG 091900
AAXX 09191
13463 32670 10204 10272 20111 30116 40176 52012 81100=
13459 42670 20703 10208 20114 39461 40189 53002 81230 333 81896=
13461 42970 00703 10227 20147 30174 40181 52003 333 92333 92438=
13363 42670 12302 10179 20110 39323 48571 53010 81100=
####018000095####
SMAA14 EGRR 091800 RRB
AAXX 09184
89020 46/// /9901 11402 21443 39932 49973 52008 91800=
####018000083####
SMNT50 KAWN 091800 RRB
AAXX 09184
04203 46/// /1914 10061 30050 40063 57001=
####018000083####
SMNT04 KAWN 091800 RRB
AAXX 09184
04203 46/// /1914 10061 30050 40063 57001=
