####018000127####
SNAU47 AMMC 092300 CCA
AAXX 09234
94258 11984 01102 10205 20117 30114 40185 51015 60004 70200 92330
  333 70000=


####018000093####
SMVX81 EDZW 100000
BBXX
BSH03 10001 99540 10081 46/// /////
22200 00191 10600 70002=
####018000306####
SNVD15 KWNB 100100 RRD
BBXX
41010 10011 99289 70785 46/// /2305 10284 20241 40150 53007 90050
22200 00289 10401 20401 300// 40801 70007 333 91206 555 11047
22049=
41009 10011 99285 70802 46/// /1603 10283 20240 40151 53005 90050
22200 00284 10801 300// 40801 70004 333 91204 555 11036 22038=
####018000125####
SNVD20 KWNB 100100 RRE
BBXX
44039 10011 99411 70727 46/// /1602 10256 20231 40118 90045 22200
1//00 70002 333 91203=
####018000450####
SMVD15 KWNB 100000 RRX
BBXX
42369 10001 99272 70903 46/// /0803 10289 90000 22200 10501 70005=
42370 10001 99273 70905 46/// ///02 10292 90000 22200 10501 70005=
42374 10001 99289 70881 46/// ///03 10302 40133 90000=
42376 10001 99291 70879 46/// /2503 10289 40124 90000 22200 10201
70004=
42392 10001 99272 70900 46/// ///// 1//// 90000 22200 10301 70004=
42887 10001 99282 70885 46/// /0000 10300 20240 90000 22200 10601
70007=
####018000221####
SNVD17 KWNB 100100 RRB
BBXX
46061 10011 99602 71468 46/// /3301 10111 40127 58009 90050 22200
00129 11501 300// 41501 70007 333 91201 555 11007 22007 32357
43503 60049 326007 343006 009006 351015 001016 012019=
####018000428####
SNVD22 KWNB 100100 RRF
BBXX
46042 10011 99368 71224 46/// /3107 10133 30137 40137 58012 90050
22200 00129 11402 20501 318// 41402 70011 333 91208 555 11073
22079 30031 43209 60049 313068 318069 312065 311065 309065 315060=
46014 10011 99392 71240 46/// /0000 10123 40140 58006 90050 22200
00117 11302 20401 300// 41302 70011 333 91201 555 11001 22001
30009 42002 60049 356001 261002 209006 203010 200013 196012=
####018000127####
SMVD17 KWNB 100000 RRG
BBXX
46238 10001 99334 71195 46/// ///// 1//// 90026 22200 00146 11302
20502 319// 41301 70012=
####018000105####
SNRE15 FMEE 100100
AAXX 10014
61998 26/// /2714 10042 20004 40113
  333 58098 60005 90710 91129=
####018001975####
SNRO41 YRBK 100100
AAXX 10011
15015 22997 22202 10143 20124 39629 42841 57004 82040 333 60005 91002
91104=
15020 22997 03003 10185 20146 30002 40194 57005 333 60005 91005
91106=
15090 22597 83203 10193 20161 30054 40175 57004 8657/ 333 55300 10061
2////
3//// 60005 91007 91109=
15108 21/91 92904 10075 20075 38164 48569 58003 74544 333 60005=
15120 22997 52202 10158 20154 39727 40212 57003 85070 333 55300 10109
2////
3//// 60005 91003 91103=
15150 22997 53304 10200 20149 39967 40184 50001 85030 333 60005 91006
91109=
15170 23/// /2301 10133 20125 39436 42829 57003 333 60005 91002
91103=
15200 22998 01500 10147 20136 30058 40200 57003 333 60005 91001
91102=
15230 22997 02801 10152 20150 39922 40209 54001 333 55300 10147 2////
3////
60005 91001 91102=
15260 22998 53101 10157 20146 39682 40204 54000 85070 333 60005 91002
91104=
15280 21/90 90518 10045 20045 37566 47129 57006 74544 333 60005
91024=
15292 22998 03300 10153 20153 39912 40201 58006 333 60005 91002
91102=
15310 22597 63403 10193 20175 30069 40152 57003 84570 333 55300 10089
2////
3//// 60005 91005 91106=
15335 21597 83302 10196 20190 30141 40147 58004 78022 889// 333 69945
91004
91105=
15346 22997 72100 10175 20147 39902 40183 55001 87070 333 60005 91001
91102=
15350 22597 70502 10224 20141 30051 40165 54001 83570 333 60005 91010
91110=
15360 22997 73503 10207 20198 30115 40129 57005 87070 333 60005 91009
91110=
15410 22997 00000 10171 20147 30085 40179 57004 333 60005 91001
91102=
15420 22597 62802 10178 20169 30069 40176 57003 83370 333 60005 91003
91103=
15450 22997 50703 10187 20157 39944 40172 57004 81046 333 55300 10173
2////
3//// 60005 91005 91107=
15460 23/// /3200 10184 20179 30135 40159 50002 333 60005 91002
91102=
15470 23/// /2700 10183 20179 30049 40172 57003 333 60005 91001
91101=
15480 21597 83404 10195 20195 30122 40139 58002 78088 889// 333 60045
91007
91108=
####018000218####
SNVD20 KWNB 100100 RRF
BBXX
44060 10011 99413 70721 46/// /1303 10210 40119 55000 90100 22200
00189 333 91204 555 11031 22041=
44097 10011 99410 70711 46/// ///// 1//// 90101 22200 00240 10802
20802 70010=
####018000685####
SNVD22 KWNB 100100 RRG
BBXX
46232 10011 99325 71174 46/// ///// 1//// 90054 22200 00186 11302
21001 319// 41301 70009=
46244 10011 99409 71244 46/// ///// 1//// 90050 22200 00106 10703
20702 327// 41101 70013=
46236 10011 99368 71219 46/// ///// 1//// 90050 22200 00131 11302
21002 321// 41301 70009=
46212 10011 99408 71243 46/// ///// 1//// 90051 22200 00107 10702
20702 70011=
46217 10011 99342 71194 46/// ///// 1//// 90051 22200 00171 11302
20501 319// 41301 70008=
46213 10011 99403 71247 46/// ///// 1//// 90050 22200 00124 10603
20602 318// 41301 70014=
46231 10011 99327 71174 46/// ///// 1//// 90042 22200 00185 11202
21001 321// 41201 70008=
####018000115####
SNVD20 KWNB 100100 RRG
BBXX
44099 10011 99369 70758 46/// ///// 1//// 90038 22200 00263 10702
20702 70011=
####018000639####
SMBZ83 KAWN 100000 RRC
AAXX 10004
83362 32570 11202 10271 20133 39917 40133 81100 333 10347 58015=
83844 32597 81802 10196 20184 30199 40206 52015 8572/ 333 10244
 29087 55///=
83887 21597 82302 10144 20138 39160 40218 51010 72021 886// 333
 10187 29091 55018 69901=
83907 21/92 90903 10164 20159 39919 40209 5//// 74265 333 10175
 29096 55000 60011=
83914 21596 80000 10134 20125 39434 40222 55000 71062 8572/ 333
 10156 29095 55000 60061=
83936 21496 81401 10142 20139 30107 40233 52010 71052 885// 333
 10146 29097 55000 69921=
83964 31/90 91802 10116 20113 39722 40233 52010 74740 333 10130
 29096 55000=
####018000145####
SMID20 WIIX 100000 RRB
AAXX 10004
96207 32558 60000 10195 20181 39241 40163 52002 82232
  333 20194 55077 56000 57800 59005 81820 83080=
####018000222####
SNVD17 KWNB 100100 RRC
BBXX
52201 10011 99071 11714 46/// ///// 1//// 90055 22200 00287 11303
20902 318// 41302 70013=
46239 10011 99363 71221 46/// ///// 1//// 90053 22200 00140 11302
20802 318// 41301 70010=
####018000607####
SNVD15 KWNB 100100 RRE
BBXX
41141 10011 99177 70646 46/// ///// 1//// 90051 22200 00296 10603
20603 70015=
41140 10011 99178 70647 46/// ///// 1//// 90052 22200 00292 10702
20702 70008=
44100 10011 99363 70756 46/// ///// 1//// 90052 22200 00264 10702
20702 70011=
44235 10011 99473 70573 46/// ///// 1//// 90054 22200 00125 10602
20602 70012=
41110 10011 99341 70777 46/// ///// 1//// 90057 22200 00270 11101
20301 70007=
42099 10011 99273 70842 46/// ///// 1//// 90049 22200 00302 1//00
70002=
41112 10011 99307 70813 46/// ///// 1//// 90051 22200 00282 10401
20401 70006=
####018000238####
SNHK22 VHHH 100100
AAXX 10011
45032 36/// /1702 10307 20238 30082 40098 54000=
45035 36/// /2404 10292 20261 30058 40098 52003=
45039 36/// /2004 10310 20245 30081 40096 52001=
45044 36/// /2302 10291 20268 30009 40098 52001=
####018000127####
SMVD22 KWNB 100000 RRX
BBXX
46224 10001 99332 71175 46/// ///// 1//// 90016 22200 00178 11201
21001 321// 41201 70007=
####018000241####
SNHK22 VHHH 100100
AAXX 10011
45032 36/// /1702 10307 20238 30082 40098 54000=
45035 36/// /2404 10292 20261 30058 40098 52003=
45039 36/// /2004 10310 20245 30081 40096 52001=
45044 36/// /2302 10291 20268 30009 40098 52001=

####018000113####
SMRA14 RUHB 100000 CCA
AAXX 10001
24639 32599 80000 10117 20107 30032 40176 52005 8355/ 333 20036
55034=
####018000126####
SNVD02 CWAO 100100
BBXX
CG2992 10014 99694 71338 46/// /3010 10182 20087 40104 58002 7//// 8//// 22200 0//// 2//// =

####018000124####
SNVD02 CWAO 100100
BBXX
CGJK 10014 99526 71415 46/// /2423 10102 20098 40125 51008 7//// 8//// 22263 00103 2//// =

####018000126####
SNVD02 CWAO 100100
BBXX
CG2965 10014 99489 71235 46/// /3112 10244 20137 40132 57010 7//// 8//// 22241 00198 2//// =

####018000124####
SNVD02 CWAO 100100
BBXX
CGTF 10014 99637 70685 46/// /1411 10071 20060 40068 51007 7//// 8//// 22200 0//// 2//// =

####018000124####
SNVD02 CWAO 100100
BBXX
CGDX 10014 99622 70707 46/// /1114 10051 20046 40051 56003 7//// 8//// 22253 00054 2//// =

####018000124####
SNVD02 CWAO 100100
BBXX
CGDG 10014 99441 70584 46/// /2217 10180 20179 40213 51011 7//// 8//// 22222 0//// 2//// =

####018000127####
SNVD02 CWAO 100100
BBXX
CFN3031 10014 99465 70722 46/// /3106 10217 20210 40084 53006 7//// 8//// 22213 00251 2//// =

####018000124####
SNVD02 CWAO 100100
BBXX
CGBR 10014 99529 71294 46/// /1810 10133 20129 40179 58007 7//// 8//// 22272 00139 2//// =

####018000126####
SNVD02 CWAO 100100
BBXX
CG2350 10014 99421 70831 46/// /0402 10262 20149 49926 53004 7//// 8//// 22200 0//// 2//// =

####018000126####
SNVD02 CWAO 100100
BBXX
CG2522 10014 99619 71141 46/// /3010 10120 20077 49928 55000 7//// 8//// 22261 00082 2//// =

####018000124####
SNVD02 CWAO 100100
BBXX
CGDP 10014 99507 71275 46/// /0811 10161 20115 40179 58010 7//// 8//// 22200 0//// 2//// =

####018000125####
SNVD02 CWAO 100100
BBXX
VRYO3 10014 99517 10032 46/// /2415 10192 20149 40181 53002 7//// 8//// 22272 00189 2//// =

####018000126####
SNVD02 CWAO 100100
BBXX
CG2958 10014 99487 71235 46/// /1305 10270 20128 40142 56008 7//// 8//// 22200 0//// 2//// =

####018000121####
SNVD02 CWAO 100100
BBXX
V 10014 99476 70527 46/// /2312 10202 20178 40132 51014 7//// 8//// 22200 0//// 2//// =

####018000126####
SNVD02 CWAO 100100
BBXX
VC6750 10014 99609 71157 46/// /0706 10169 20085 49946 50000 7//// 8//// 22200 0//// 2//// =

####018000124####
SNVD02 CWAO 100100
BBXX
CGDT 10014 99635 70799 46/// /1114 10060 20058 40033 56009 7//// 8//// 22243 00067 2//// =

####018000124####
SNVD02 CWAO 100100
BBXX
CGHL 10014 99620 70654 46/// /0410 10023 20022 40061 51010 7//// 8//// 22212 0//// 2//// =

####018000124####
SNVD02 CWAO 100100
BBXX
CGDS 10014 99437 70818 46/// /3406 10219 20178 49925 52002 7//// 8//// 22261 00225 2//// =

####018000124####
SNVD02 CWAO 100100
BBXX
VOPP 10014 99452 70741 46/// /3304 10225 20220 40014 51008 7//// 8//// 22200 0//// 2//// =

####018000124####
SNVD02 CWAO 100100
BBXX
VOLG 10014 99445 70629 46/// /2013 10188 20188 40177 51013 7//// 8//// 22222 0//// 2//// =

####018000124####
SNVD02 CWAO 100100
BBXX
CGBN 10014 99476 70527 46/// /2411 10194 20158 40133 51014 7//// 8//// 22200 0//// 2//// =

####018000241####
SNVD15 KWNB 100100 RRF
BBXX
42003 10011 99260 70856 46/// /0000 10285 20227 40163 53010 90050
22200 00302 10601 3//// 40601 70004 333 91201 555 11003 22003
30031 40701 60049 353003 061004 010004 042005 053005 031005 80601
90031=
####018000122####
SMCN30 CWAO 100000 RRE
AAXX 10004
71099 43/// /3307 10125 20106 30043 40062 53014 6///1 333 10154
20111 7////=

####018000122####
SMCN20 CWAO 100000 RRH
AAXX 10004
71049 46/// /1404 10131 20058 30032 40055 56005 6///1 333 10152
20085 7////=

####018000807####
SNIY20 LIIB 100100
AAXX 10014
16008 42962 00000 10166 20141 38630 48589 52009=
16088 NIL=
16110 42998 00000 10224 20210 30196 40200 58003 555 0////=
16134 42984 03502 10154 20072 37941 48595 54000=
16153 42998 00504 10266 20224 39950 40203 54000 555 0////=
16206 42970 00103 10226 20198 30180 40188 51006=
16219 NIL=
16280 41996 03603 10238 20224 39978 40192 54000 71000 555 0////=
16310 NIL=
16360 42998 03618 10210 20182 30038 40169 58007 333 91028 555 0////=
16400 NIL=
16420 42998 00000 10250 20225 30116 40179 58005 555 0////=
16429 42962 00000 10258 20249 30179 40190 56001=
16470 NIL=
16480 42997 02704 10240 20226 30119 40179 51002 555 0////=
16522 42997 00406 10248 20199 39958 40192 54000 555 0////=
16550 42998 03107 10250 20196 30010 40183 54000 555 0////=
####018000458####
SNIY21 LIIB 100100
AAXX 10014
16022 42970 00506 10152 20110 37980 48593 51001=
16052 42962 02003 10076 21058 36792 47240 58004=
16061 42965 01304 10230 20188 39392 42842 58001=
16098 42960 00000 10226 20203 30154 40203 54003=
16179 42982 00000 10220 20067 39550 42849 54000=
16224 42960 00403 10226 20205 39878 40184 58001=
16258 42960 03408 10174 21003 39240 42838 5////=
16344 42962 00204 10110 20110 38377 48555 54000 333 95000 95100=
####018000085####
SMPS40 AMMC 100000
AAXX 10004
91844 46/// /0807 10259 40180 22200 00252=


####018000109####
SMVD15 KWNB 100000 RRX
BBXX
44055 10001 99391 70753 46/// ///// 1//// 90030 22200 00250 10301
70004=
####018000109####
SNAU51 AMMC 092300 CCB
AAXX 09234
94593 11575 31610 10200 20151 60044 70211 82640
  333 70042=


####018000117####
SNDL21 EDZW 100100 RRA
AAXX 10011
10004 46/50 /3203 10181 20165 30172 40172 51002
222// 00170
  333 55300=
####018000105####
SNRE15 FMEE 100100
AAXX 10014
61996 26/// /2412 10117 20094 40245
  333 59003 60005 90710 91125=
####018000275####
SNDL22 EDZW 100100 RRA
AAXX 10011
10006 46/// /3202 10176 20166 30164 40169 50002
222// 00176
  333 553//=
10007 46/56 /3305 10199 20178 30170 40170 53008
222// 00195
  333 55300=
10043 46/// /1705 10221 20196 30168 40170 56005
222// 0////
  333 553//=
####018000127####
SMID20 WIIX 091800 RRD
AAXX 09184
96207 32550 70000 10213 20180 39240 40162 57025 82232
  333 56000 57800 81820 83080=
####018000124####
SNVD02 CWAO 100100
BBXX
VCLM 10014 99466 70719 46/// /2905 10220 20213 40079 53001 7//// 8//// 22262 00255 2//// =

####018000137####
SNPF80 KWBC 100100
AAXX 10014
91925 22575 71012 10265 20213 30061 40121 56013 85242 333 60005
56206 85821 90710 91127 555 1//27=
####018000122####
SNAC01 KWNB 100100 RRA
OOXX
ACSAMS01 10011 99808 70664 90706 01741 46/// /1907 10039 20000 39838
90103 333 91210=
####018000462####
SNVD17 KWNB 100100 RRD
BBXX
46076 10011 99595 71480 46/// ///// 10106 20103 40115 58009 90050
22200 00103=
46083 10011 99582 71380 46/// /1503 10123 20112 40137 55000 90050
22200 00120 11402 300// 41402 70008 333 91204 555 11030 22033
30004 41604 60049 155027 163021 159022 153024 155030 149027 81503
90004=
23020 10011 99222 10385 46/// ///// 1//// 90050 22200 10703 70014=
32012 10011 99196 50854 46/// ///// 1//// 90050 22200 11507 70034=
####018000385####
SNVD15 KWNB 100100 RRG
BBXX
41041 10011 99144 70460 46/// /0809 10273 20237 40160 52016 90050
22200 00276 10804 20603 300// 40802 70018 333 91211 555 11099
22106 30048 40911 60049 082091 073079 078075 078072 074082 075076
80810 90043=
42362 10011 99278 70907 46/// /0000 10289 20217 40163 53004 90100=
42364 10011 99291 70881 46/// /2502 10278 20217 40159 55000 90100=
