####018001357####
SNVD20 KWNB 092200 RRA
BBXX
41008 09221 99314 70809 46/// /1808 10293 40116 56021 92150 22200
10901 20301 300// 40901 70006 333 91209 555 11082 22088 32111
41709 62149 180077 179074 178074 175076 173076 172076=
41004 09221 99325 70791 46/// /1803 10280 20250 40124 50000 92150
22200 00276 10801 20301 3//// 40801 70006 333 91204 555 11036
22041 32110 41805 62149 178033 175032 180035 181037 171035 161029=
44009 09221 99385 70747 46/// /1306 10251 20231 40099 58027 92150
22200 00252 10703 20501 300// 40702 70013 333 91206 555 11058
22062 32115 41406 62149 131054 132047 130053 132050 136051 135050=
41013 09221 99334 70777 46/// /2207 10288 20214 40111 58010 92150
22200 00299 10801 20401 310// 40801 70006 333 91208 555 11069
22072=
44018 09221 99413 70693 46/// /1505 10195 20195 40130 56027 92150
22200 10703 20401 316// 40702 70013 333 91205 555 11050 22053
32123 41507 62149 153047 157049 152058 147055 142057 138055=
44065 09221 99404 70737 46/// /1504 10252 20232 40105 57026 92150
22200 00248 10802 20401 317// 40802 70012 333 91205 555 11043
22047 32101 41406 62149 146039 148041 144042 140045 139047 139044
83205 92103=
44020 09221 99414 70702 46/// /1305 10225 20225 40128 56028 92150
22200 00237 10801 70003 333 91206 555 11050 22052 32117 41207
62149 129049 135050 125049 124055 119046 133033=
####018001502####
SNVD22 KWNB 092200 RRA
BBXX
46028 09221 99357 71219 46/// /3305 10136 20120 30150 40150 58006
92150 22200 00139 11302 20401 317// 41302 70011 333 91206 555
11055 22058 32051 43307 62149 328053 327052 328051 326046 332058
332059=
46088 09221 99483 71232 46/// /2504 10140 40143 92150 22200 00124
1//00 70002 333 91205 555 11047 22050 32148 42405 62149 244044
240042 241040 244039 240037 234034=
46012 09221 99374 71229 46/// /3102 10127 40154 58005 92150 22200
00127 11302 20301 318// 41302 70010 333 91203 555 11022 22023
32120 43203 62149 313021 318022 313023 327018 337015 334015=
46013 09221 99382 71233 46/// /2601 10116 40147 54000 92150 22200
00108 11402 20401 319// 41402 70010 333 91202 555 32104 42702
62149 257014 255013 252012 257014 253014 258011=
46029 09221 99461 71245 46/// /3305 10160 20160 40170 52005 92150
22200 00162 10702 20401 329// 40702 70010 333 91206 555 11054
22054 32134 43406 62149 332054 333053 334052 331049 331048 328046=
46054 09221 99343 71205 46/// ///09 10143 40132 57008 92150 22200
00156 10402 20402 300// 40801 70012 333 91212 555 11100 22106=
46015 09221 99427 71248 46/// /0109 10125 40152 52006 92150 22200
11402 20602 316// 41401 70011 333 91211 555 11101 22107 32143
43611 62149 005094 006093 005093 007091 007092 005092=
46025 09221 99337 71191 46/// /2804 10156 40133 58011 92150 22200
00177 11302 321// 41301 70008 333 91205 555 11045 22046 32149
42705 62149 280043 282033 300027 299029 312028 322030=
####018003674####
SNVD15 KWNB 092200 RRA
BBXX
41046 09221 99238 70709 46/// /1105 10278 20240 40169 58017 92150
22200 00292 10802 20501 310// 40802 70012 333 91207 555 11057
22059 32128 41007 62149 104054 103053 103051 122045 112049 103048
82806 92129=
41049 09221 99275 70630 46/// /1105 10273 20239 40210 57005 92150
22200 00274 10703 20501 300// 40702 70014 333 91206 555 11055
22058 32121 41107 62149 107053 104054 106056 109055 109055 106053
81106 92121=
41001 09221 99347 70727 46/// /1906 10268 20225 40118 58012 92150
22200 00272 10802 20501 3//// 40802 70011 333 91208 555 11066
22069 32130 41908 62149 190061 193067 196063 197055 194055 192059=
42036 09221 99285 70845 46/// /2102 10294 40145 58017 92150 22200
00302 10701 323// 40701 70003 333 91203 555 11025 22026 32139
42304 62149 212024 220026 228026 216021 207024 209022=
41048 09221 99320 70696 46/// /2009 10276 20229 40165 56009 92150
22200 00272 10704 20704 70018 333 91211 555 11097 22104 32112
41912 62149 195090 192091 188096 189096 190094 189093 81910 92113=
41044 09221 99217 70587 46/// /0906 10283 20246 40181 56003 92150
22200 00283 10803 20402 300// 40802 70014 333 91207 555 11063
22067 32052 40808 62149 090059 091059 088060 086058 095061 089062
80807 92121=
44005 09221 99432 70691 46/// /1606 10212 92150 22200 00199 10602
20401 3//// 40601 70010 333 91207 555 11067 22075 32056 41508
62149 157061 157061 157057 158059 158065 159071=
42039 09221 99288 70860 46/// /2502 10287 20223 40154 56014 92150
22200 00302 10701 300// 40701 70004 333 91203 555 11017 22018
32109 42104 62149 243016 219016 212021 211021 199020 203022 80103
92110=
42035 09221 99292 70944 46/// /1302 10288 40156 56013 92150 22200
00305 10602 20401 317// 40601 70008 333 91203 555 11023 22023
32059 41004 62149 131022 117027 117030 119030 117033 110034=
42060 09221 99165 70635 46/// /0909 10295 20230 40141 56006 92150
22200 00294 10704 20704 70020 333 91211 555 11099 22105 32148
40911 62149 086091 087087 089082 092089 091089 091089 80910 92148=
42059 09221 99151 70675 46/// /0910 10295 20241 40125 56008 92150
22200 00295 10805 20603 300// 40803 70023 333 91212 555 11105
22112 32131 40913 62149 093099 096106 098103 096099 095097 092093
80911 92132=
42019 09221 99279 70954 46/// /1304 10291 20260 40151 58012 92150
22200 00294 10602 20401 316// 40602 70012 333 91205 555 11044
22046 32120 41306 62149 130042 134047 136052 134050 135049 138049=
42020 09221 99270 70967 46/// /1207 10284 40128 58015 92150 22200
00292 10704 20603 311// 40702 70018 333 91208 555 11071 22075
32120 41309 62149 116068 119072 123073 126078 127077 124076=
44066 09221 99396 70726 46/// /1704 10257 20241 40110 56023 92150
22200 10702 20401 300// 40702 70011 333 91204 555 11038 22040
32147 41704 62149 170036 169033 167029 161029 132033 121024=
42056 09221 99199 70851 46/// /1207 10286 20247 40130 56020 92150
22200 00291 10602 20602 70008 333 91208 555 11078 22082 32147
41208 62149 123072 114057 119052 117050 104045 093037 81308 92145=
42012 09221 99301 70876 46/// /2605 10288 20254 40152 55012 92150
22200 00297 10701 20301 318// 40701 70006 333 91206 555 11053
22055 32057 42508 62149 256051 255052 253056 253058 253062 247065=
41047 09221 99275 70715 46/// /2005 10275 20245 40171 57012 92150
22200 00286 10802 20401 311// 40801 70008 333 91206 555 11054
22056 32050 42006 62149 200052 196051 193050 192045 187039 190041
82006 92150=
42040 09221 99292 70882 46/// /2604 10294 20210 40148 56015 92150
22200 00310 10701 316// 40701 70005 333 91205 555 11043 22044
32127 42606 62149 258043 256042 256043 248042 244039 245038=
####018000657####
SNVD15 KWNB 092200 RRB
BBXX
44011 09221 99411 70666 46/// /1706 10207 40162 57019 92150 22200
00179 10803 20502 317// 40802 70015 333 91207 555 11066 22077
32115 43508 62149 172058 177067 167062 169064 165062 156052=
41043 09221 99211 70650 46/// /0907 10287 20235 40174 56007 92150
22200 00291 10704 20602 300// 40703 70019 333 91208 555 11070
22074 32052 41008 62149 090066 089063 096062 094065 095064 095066
81007 92053=
42055 09221 99220 70940 46/// /1304 10282 20245 40122 56010 92150
22200 00281 10602 20401 308// 40602 70011 333 91205 555 11047
22050 32103 41513 62149 123043 120044 129049 154049 142088 097062
81412 92104=
####018001112####
SNVD17 KWNB 092200
BBXX
46084 09221 99566 71361 46/// /1309 10123 20122 40135 50000 92150
22200 00119 10503 20503 300// 40801 70014 333 91211 555 11098
22105 32137 41412 62149 134092 131090 131091 131086 131082 131079=
46075 09221 99539 71608 46/// /1907 10091 20075 49974 51017 92150
22200 00090 10806 20603 300// 40805 70029 333 91209 555 11076
22081 32124 41911 62149 189071 192074 195080 199081 201077 203078
82009 92119=
46005 09221 99461 71310 46/// /2904 10140 40249 52006 92150 22200
00135 11302 20401 300// 41302 70010 333 91205 555 11046 22051
32149 42905 62149 289042 288039 289041 291037 296034 297037=
46005 09221 99461 71310 46/// /2904 10140 40249 92150 22200 00135
11302 20401 300// 41302 70010 333 91205 555 11046 22051 32149
42905 62149 289042 288039 289041 291037 296034 297037=
46080 09221 99580 71500 46/// ///// 10097 40088 58013 92150 22200
10604 70022=
46085 09221 99559 71426 46/// /1204 10113 20113 40073 51007 92150
22200 00103 10603 20301 3//// 40603 70016 333 91205 555 11043
22049 32059 41005 62149 119037 115035 113036 111036 105038 096038=
####018000424####
SNVE15 KWNB 092200
BBXX
51000 09221 99235 71541 46/// /0809 10244 20168 40202 58003 92150
22200 00248 11004 20603 307// 41002 70019 333 91210 555 11094
22100 32125 40811 62149 082089 080086 082089 082089 085088 085088=
51003 09221 99191 71607 46/// /0608 10253 40165 58003 92150 22200
00267 10703 20703 300// 41101 70016 333 91210 555 11084 22088
32116 40710 62149 064079 065081 068084 071081 076075 077072=
####018000593####
SNVD45 KWNB 092200 RRB
BBXX
45004 09221 99476 70866 46/// /2704 10147 39913 40133 58007 92150
22200 00133 10401 20401 70004 333 91204 555 11042 22050 32129
42705 62149 267037 268042 272043 271040 271038 272040=
45005 09221 99417 70824 46/// /3607 10253 39909 40112 57006 92150
22200 00258 10401 20401 70006 333 91208 555 11074 22079 32055
43609 62149 000069 000068 358069 358075 356074 356079=
45003 09221 99454 70828 46/// /3003 10205 39920 40131 56010 92150
22200 00183 1//00 70001 333 91204 555 11037 22044 32123 42904
62149 302031 302034 288028 265029 240029 279015=
####018000073####
SALY31 HLLS 092200
METAR HLLS 092150Z 
O8O11KT  CAVOK  29/1O Q1O16=
####018000095####
SICI39 BABJ 092100 RRA
AAXX 09211
59158 32662 72202 10284 20247 39999 40096 58002 875//=
####018000215####
SNVD45 KWNB 092200 RRC
BBXX
45006 09221 99473 70898 46/// /2104 10173 39920 40140 56014 92150
22200 00146 1//00 70001 333 91205 555 11051 22061 32116 42205
62149 208044 207043 207047 212049 214047 214049=
####018000209####
SICI29 BABJ 092100 RRA
AAXX 09211
58968 32662 71502 10281 20233 30076 40083 53002 87500=
58974 32962 62202 10262 20247 39971 40091 53002 86030=
59358 32570 61601 10286 20243 30070 40101 54000 82530=
####018000095####
SNAA14 EGRR 092000 RRA
AAXX 09204
89065 46/// /2002 11178 21193 39712 49794 57004 91950=
####018001222####
SILY20 HLLT 092100
AAXX 09214
62002 32960 00610 10245 20157 39483 48573 53008=
62007 32960 00810 10255 20226 40185 52006=
62008 32960 00608 10240 20178 39398 48562 53014=
62010 31957 00704 10240 20207 40186 52008 70500=
62012 32560 20304 10255 20233 30156 40185 52007 82200
  333 82830=
62016 32560 53608 10254 20234 40176 53005 85500
  333 85625=
62019 32560 50608 10256 20240 40163 53006 85700
  333 85723=
62053 32560 23618 10244 20201 40162 55006 82500
  333 82620=
62055 31958 03308 10250 20220 30146 40153 54000 71000=
62056 32960 43009 10202 20175 39429 48550 52004 84500
  333 84620=
62059 32960 03314 10253 20225 40156 56005=
62103 32970 03609 10341 20056 39755 40137 52011=
62120 32960 00808 10294 20172 39611 48581 53005=
62124 32960 00609 10303 20087 39646 40121 52011=
62131 32966 00608 10305 20106 39855 40152 52013=
62161 31956 03015 10308 20170 40125 53015 70700=
62176 32960 00615 10305 20141 40122 52015=
62200 32960 00905 10310 20131 39617 40127 52013=
62212 32970 20308 10336 20074 39354 48556 53027 80002
  333 82070=
62259 32960 00000 10315 20082 40122 51010=
62271 32960 03508 10333 20026 40114 54000=
62014 NIL=
62018 NIL=
62062 NIL=
####018000233####
SNVD15 KWNB 092200 RRC
BBXX
42057 09221 99168 70815 46/// /0709 10299 20248 40122 58008 92150
22200 00294 10503 20503 70013 333 91211 555 11100 22106 32140
40711 62149 069093 067091 072087 071091 071091 070084 80710 92148=
####018000095####
SNAA14 EGRR 092000 RRC
AAXX 09204
89013 46/// /0825 1//// 2//// 37423 4//// 5//// 91950=
####018000095####
SNAA14 EGRR 092000 RRB
AAXX 09204
89266 46/// /1616 11248 21272 39752 49902 52002 91950=
####018000095####
SNAA14 EGRR 092000 RRD
AAXX 09204
89272 46/// /0406 11198 21221 37979 49653 57002 91950=
####018000095####
SNAA14 EGRR 092000 RRE
AAXX 09204
89257 46/// /1403 11341 21376 39865 49944 52006 91950=
####018000095####
SNAU40 AMMC 091600 RRA
AAXX 09164
94316 /5/// /1708 10126 20035 39674 40165 51008=


####018000095####
SNAU40 AMMC 091600 CCB
AAXX 09164
94316 /5/// /1708 10126 20035 39674 40165 51008=


####018001008####
SNDL40 EDZW 092200
AAXX 09221
10015 42962 21207 10217 20192 30155 40164 53002 81032
  333 55300 20000 30000 81365=
10020 45969 71306 10221 20183 30135 40166 51002
  333 55300 20000 30000 85/69 87/71=
10035 42970 70702 10210 20169 30116 40172 58004 85031
  333 55300 20000 30000 41372 85363 83076=
10113 45970 72403 10252 20182 30149 40167 53009
  333 55300 20000 30000 87/66=
10129 45960 70903 10266 20182 30151 40163 52005
  333 55300 20000 30000 87/61=
10131 45975 71304 10243 20175 30148 40162 52002
  333 55300 20000 30000 87/62 87/65=
10147 42981 20602 10241 20193 30154 40171 51004 82031
  333 55300 20000 30000 41452 82364=
10156 45959 41801 10197 20180 30157 40178 50003
  333 55300 20000 30000 84/68=
10200 42970 22603 10236 20168 30170 40168 53011 81031
  333 55300 20000 30000 81363=
10224 42975 71702 10266 20160 30160 40166 51006 8703/
  333 55300 20000 30000 87360=
10235 NIL=
10253 45971 72101 10218 20160 30153 40174 51008
  333 55300 87/67=
####018001707####
SNDL48 EDZW 092200
AAXX 09221
10564 45981 01803 10220 20122 39624 40193 51007
  333 55300=
10565 45960 61801 10236 20157 39897 40178 51009
  333 55300 86/77=
10569 45976 02801 10200 20147 39752 40199 51010
  333 55300 20000 30000=
10574 45984 11803 10204 20108 39204 48582 51008
  333 55300 81/78=
10577 45981 01502 10241 20132 39716 40191 51006
  333 55300 20000 30000=
10579 47/// /1503 10226 20116 39483 40202 51008 7////
  333 55300=
10582 45982 01505 10187 20109 39225 48580 51009
  333 55300 20000 30000=
10591 45982 01003 10222 20133 39834 40199 52009
  333 55300=
10613 NIL=
10615 45985 21301 10231 20141 39647 40191 51007
  333 55300 20000 30000 82/63=
10618 NIL=
10628 45978 03402 10226 20171 30061 40190 51011
  333 55300=
10635 45981 02602 10217 20139 39272 48575 51006
  333 55300=
10646 45968 00000 10206 20167 39803 40194 51008
  333 55300=
10648 45982 12402 10253 20120 39676 40188 51007
  333 55300 20000 30000 81/78=
10658 45978 13301 10230 20166 39866 40188 51009
  333 55300 81/63=
10671 45976 00203 10204 20146 39797 40194 52008
  333 55300 20000 30000=
10686 45980 32801 10213 20116 39497 40200 51009
  333 55300 83/80=
10704 45984 50201 10259 20131 39774 40184 51004
  333 55300 20000 30000 85/81=
10706 45984 00601 10246 20155 39751 40189 50005
  333 55300=
10724 45960 02503 10247 20120 39566 40189 52007
  333 55300 20000 30000=
10733 45978 80701 10225 20161 39916 40192 51010
  333 55300 20000 30000 86/63 88/78 88/81=
10736 45972 20000 10184 20155 39914 40198 51011
  333 55300 81/65=
10739 45978 22703 10247 20161 39826 40186 51011
  333 55300 20000 30000 41365 82/65=
10743 NIL=
####018001935####
SNDL46 EDZW 092200
AAXX 09221
10321 45972 42501 10258 20186 30120 40169 51007
  333 55300 20000 30000 82/59 84/60=
10325 45980 02001 10251 20144 30020 40177 51009
  333 55300=
10334 42980 41203 10273 20150 30092 40171 52005 84030
  333 84366=
10335 NIL=
10343 42980 51402 10270 20144 30115 40175 51006 84039
  333 84367=
10348 45981 71503 10252 20157 30077 40178 51004
  333 55300 20000 30000 41400 87/70=
10356 45978 51802 10237 20154 39990 40177 51008
  333 55300 85/71=
10359 45968 03001 10198 20154 30127 40183 50003
  333 55300 20000 30000=
10365 45970 01301 10197 20151 30141 40186 51009
  333 55300 20000 30000=
10368 45980 21602 10232 20136 39974 40191 51007
  333 55300 20000 30000 82/77=
10376 47973 01102 10218 20146 30120 40188 51010 72140
  333 55300=
10381 42981 01203 10212 20138 30108 40192 52008
  333 55300 99327=
10385 42981 11003 10222 20143 30137 40196 51009 80001
  333 55300 20000 30000 81080=
10389 46/// /1606 10270 20124 30099 40194 51009=
10396 45981 01402 10226 20130 30191 40206 51012
  333 553//=
10404 42975 62601 10253 20165 30128 40177 52015 86030
  333 86368=
10410 45981 82002 10259 20156 30006 40177 51014
  333 55300 88/65=
10418 45979 22202 10244 20132 39742 40186 51009
  333 55300 20000 30000 82/65=
10424 45975 82202 10247 20152 30074 40173 51010
  333 55300 20000 30000 87/62 88/69=
10433 45981 81801 10245 20137 39878 40174 52008
  333 55300 20000 30000 88/62 88/65=
10435 45973 81802 10249 20141 39912 40182 51007
  333 55300 83/61 87/65 88/81=
10442 45975 71201 10225 20160 30013 40185 53008
  333 55300 20000 30000 87/64 87/70=
10444 45978 81103 10230 20156 39986 40183 51009
  333 55300 20000 30000 87/65 88/67=
10449 45974 80301 10240 20155 39786 40187 51008
  333 55300 20000 30000 87/65 88/68=
10452 45972 82901 10205 20139 39506 40194 51008
  333 55300 20000 30000 82/63 84/66 88/69=
####018001440####
SNDL45 EDZW 092200
AAXX 09221
10161 45964 01303 10226 20185 30158 40178 54000
  333 55300 20000 30000=
10168 45970 01201 10223 20167 30118 40187 51007
  333 55300=
10172 42970 11103 10240 20147 30119 40188 52007 81031
  333 81366=
10180 45980 01203 10220 20169 30187 40192 51004
  333 55300=
10193 45981 01302 10233 20149 30189 40192 51008
  333 55300 20000 30000=
10215 45975 80000 10246 20158 30154 40168 51008
  333 55300 88/60=
10235 NIL=
10238 42960 41201 10258 20145 30086 40175 51005 84030
  333 84366=
10246 42980 31403 10270 20119 30075 40176 51005 82031
  333 82367=
10249 45969 81402 10251 20150 30124 40177 51007
  333 55300 20000 30000 88/66=
10253 45971 72101 10218 20160 30153 40174 51008
  333 55300 87/67=
10261 42984 21402 10226 20147 30155 40182 50004 81031
  333 55300 20000 30000 81366=
10267 45974 11102 10219 20148 30140 40190 51008
  333 55300 81/66=
10268 46/// /1404 10260 20132 30108 40190 51007
  333 55300=
10281 42980 11203 10227 20139 30087 40195 50004 80001
  333 81075=
10282 45971 00501 10199 20153 30058 40194 51005
  333 55300=
10289 45983 01104 10229 20142 30131 40199 51007
  333 55300=
10304 NIL=
10305 469// 02701 10255 20145 30142 40172 53012
  333 55300=
10306 NIL=
10309 45969 03201 10238 20154 30122 40176 53014
  333 55300 20000 30000=
10317 46960 72001 10233 20145 30061 40173 52008
  333 55300 84/58 87/78=
####018001453####
SNDL47 EDZW 092200
AAXX 09221
10454 45969 31903 10259 20141 39914 40187 51007
  333 55300 83/68=
10458 45965 52401 10182 20153 39718 40185 51007
  333 55300 20000 30000 85/67=
10460 45976 00602 10236 20166 39992 40182 51006
  333 55300 20000 30000=
10466 46/61 /3001 10224 20159 30082 40193 51009
  333 55300 20000 30000=
10471 45969 11101 10215 20171 30030 40190 51006
  333 55300 20000 30000 41340 81/79=
10474 45978 01002 10243 20138 30068 40190 51008
  333 55300 20000 30000=
10476 42980 11002 10209 20133 30076 40195 51008 80002
  333 81073=
10480 45967 02001 10206 20178 30021 40196 51005
  333 55300 20000 30000=
10490 45973 13301 10195 20152 30080 40195 51010
  333 55300 20000 30000 81/71=
10495 45981 01202 10230 20146 30066 40201 51007
  333 55300=
10500 NIL=
10502 NIL=
10515 46959 80502 10255 20166 30037 40184 51011
  333 55300 88/63=
10516 NIL=
10519 45982 82201 10253 20161 30000 40184 51012
  333 55300 88/64=
10526 469// 31301 10230 20149 39564 40189 51007
  333 55300 83/64=
10534 45976 32403 10233 20129 39357 40183 50004
  333 55300 83/60=
10540 45980 62101 10233 20138 39832 40189 51009
  333 55300 20000 30000 86/65=
10542 45976 83601 10228 20144 39879 40190 51010
  333 55300 20000 30000 88/62=
10552 45983 71803 10232 20100 39155 48582 51006
  333 55300 87/65=
10557 42985 21703 10207 20094 39248 48574 51005 82041
  333 55300 20000 30000 82364=
####018001437####
SNDL44 EDZW 092200
AAXX 09221
10022 45972 61005 10218 20163 30159 40168 58001
  333 55300 20000 30000 86/65 86/71=
10028 42975 61105 10217 20180 30152 40165 50000 85032
  333 55300 20000 30000 85365=
10033 42975 51204 10212 20169 30135 40174 57003 85031
  333 85365=
10037 42980 40502 10208 20158 30143 40172 58003 84031
  333 84364 83070=
10038 42960 31002 10206 20161 30150 40171 58003 82031
  333 82364 83075=
10042 47957 81202 10211 20187 30174 40178 58004 71000
  333 55300 88/62 88/81=
10067 NIL=
10093 45982 21202 10224 20176 30150 40197 50003
  333 55300 82/80=
10097 45976 01104 10222 20188 30185 40199 51004
  222// 06221
  333 55300=
10126 42970 52001 10241 20181 30150 40164 51005 85030
  333 85363=
10129 45960 70903 10266 20182 30151 40163 52005
  333 55300 20000 30000 87/61=
10130 45962 51102 10217 20185 30151 40156 50001
  333 55300 85/63=
10136 42962 41002 10245 20180 30130 40167 50003 84030
  333 84366=
10139 45965 70101 10220 20176 30149 40162 51014
  333 55300 20000 30000 87/59=
10142 46971 30902 10234 20175 30141 40171 50002
  333 55300 83/65=
10146 45967 50501 10220 20178 30155 40171 51006
  333 55300 85/67=
10150 45959 61001 10184 20166 30140 40173 58001
  333 55300 20000 30000 86/81=
10152 45958 00503 10218 20196 30173 40175 57001
  333 55300=
10156 45959 41801 10197 20180 30157 40178 50003
  333 55300 20000 30000 84/68=
####018001365####
SNDL49 EDZW 092200
AAXX 09221
10756 45980 40000 10201 20155 39656 40200 51010
  333 55300 20000 30000 83/64 83/66=
10761 45961 03401 10214 20142 39713 40197 51011
  333 55300 20000=
10765 NIL=
10771 NIL=
10777 45981 01101 10218 20128 39592 40201 51011
  333 55300=
10782 45963 00802 10164 20143 39636 40214 51011
  333 55300 20000 30000=
10796 45968 00601 10178 20139 39514 40218 51013
  333 55300=
10803 45971 00101 10213 20185 39916 40190 51010
  333 55300 20000 30000=
10818 45983 80502 10209 20116 39122 48582 50006
  333 55300 20000 30000 86/61 86/65 88/81=
10827 NIL=
10837 NIL=
10838 469// 03102 10239 20159 39551 40190 51007
  333 55300=
10850 45984 01002 10238 20128 39630 40197 51009
  333 55300=
10853 NIL=
10856 NIL=
10857 NIL=
10860 NIL=
10863 45977 03201 10184 20148 39653 40203 51010
  333 55300 20000 30000 41242=
10865 45982 01202 10216 20137 39603 40199 51007
  333 55300=
10872 45667 10000 10164 20146 39803 40213 53010
  333 55300 81/33=
10875 45969 10201 10163 20145 39735 40212 51007
  333 55300 20000 30000 81/77=
10945 45966 71401 10182 20159 39436 40200 51007
  333 55300 87/64 87/70=
10954 NIL=
10963 45980 82601 10179 20149 39393 40209 51008
  333 55300 20000 30000 88/65=
10982 45975 10902 10182 20148 39575 40207 51005
  333 55300 20000 30000 81/66=
####018002299####
SNDL21 EDZW 092200
AAXX 09221
10004 46/56 /3004 10181 20166 30170 40170 51015
222// 00171
  333 55300=
10015 42962 21207 10217 20192 30155 40164 53002 81032
  333 55300 20000 30000 81365=
10020 45969 71306 10221 20183 30135 40166 51002
  333 55300 20000 30000 85/69 87/71=
10035 42970 70702 10210 20169 30116 40172 58004 85031
  333 55300 20000 30000 41372 85363 83076=
10055 45959 01103 10204 20182 30167 40177 58004
  333 55300 20000 30000=
10147 42981 20602 10241 20193 30154 40171 51004 82031
  333 55300 20000 30000 41452 82364=
10162 45973 01603 10270 20134 30104 40182 53006
  333 55300=
10184 42965 10903 10205 20167 30189 40196 50002 80001
  333 55300 20000 30000 81080=
10200 42970 22603 10236 20168 30170 40168 53011 81031
  333 55300 20000 30000 81363=
10224 42975 71702 10266 20160 30160 40166 51006 8703/
  333 55300 20000 30000 87360=
10270 46960 01103 10236 20137 30131 40183 51009
  222// 06253
  333 55300=
10338 42982 21402 10272 20150 30105 40173 51006 81031
  333 55300 20000 30000 81362=
10361 45982 31502 10242 20153 30085 40183 51006
  333 55300 20000 30000 82/65 83/76=
10393 42982 01203 10251 20114 30080 40200 53010
  333 55300 20000 30000=
10400 42981 62203 10269 20156 30130 40177 52014 83531
  333 55300 20000 30000 83659 85365=
10438 45979 81802 10240 20157 39919 40184 51008
  333 55300 88/63=
10469 42984 01003 10236 20159 30032 40188 51006
  333 55300=
10488 42981 01502 10239 20148 39932 40199 51008
  333 55300 20000 30000 41337=
10506 42983 32003 10237 20150 39636 40186 51009 81031
  333 55300 81362 83080=
10548 42980 20000 10242 20125 39676 40187 51009 82030
  333 55300 20000 30000 82364=
10637 42980 21601 10246 20172 30057 40187 51009 81032
  333 55300 81362=
10685 45979 01502 10207 20136 39550 40193 51007
  333 55300 20000 30000=
10738 42980 52301 10227 20163 39749 40195 51011 81031
  333 55300 81362 85080=
10763 42981 11003 10239 20140 39831 40193 51013 81030
  333 55300 20000 30000 81366=
10788 45977 01001 10189 20141 39797 40209 53010
  333 55300 20000 30000=
10852 42986 21402 10221 20128 39654 40195 51009 81031
  333 55300 20000 30000 81364=
10946 45976 81102 10203 20170 39403 40194 51007
  333 55300 20000 30000 87/66 88/69=
####018001943####
SNDL23 EDZW 092200
AAXX 09221
10609 42982 22001 10238 20157 39879 40191 51008 80001
  333 55300 20000 30000 82080=
10616 42984 02402 10234 20138 39623 40190 51007
  333 55300=
10641 45972 01801 10226 20178 30048 40187 51008
  333 55300=
10655 42980 72802 10256 20152 39876 40185 51009 85032
  333 55300 20000 30000 85366 85080=
10675 45973 71101 10193 20165 39914 40194 51012
  333 55300 20000 30000 83/65 87/67 87/69=
10688 45980 03501 10216 20121 39702 40200 51012
  333 55300 20000 30000=
10708 42981 50702 10212 20158 39826 40194 51006 80001
  333 55300 20000 30000 85080=
10729 45978 21201 10217 20183 30074 40190 51009
  333 55300 20000 30000 82/75=
10731 45968 82901 10211 20188 30055 40192 51009
  333 55300 20000 30000 81/76 87/81 88/81=
10742 45972 01402 10227 20175 39877 40191 51011
  333 55300 20000 30000=
10776 45981 00301 10212 20139 39778 40202 51011
  333 55300 20000 30000=
10791 42989 11202 10179 20130 38642 48588 53007 80001
  333 55300 81074=
10805 42982 40000 10219 20185 30009 40191 51010 80001
  333 55300 20000 30000 84081=
10815 45981 03502 10205 20145 39309 48578 51008
  333 55300 20000 30000=
10836 45983 01802 10249 20121 39373 40189 51008
  333 55300 20000 30000=
10870 42975 00101 10197 20156 39693 40203 51008
  333 55300=
10895 45981 01003 10222 20128 39665 40207 53009
  333 55300 20000 30000=
10908 42986 13502 10203 20103 38589 48580 51008 81030
  333 55300 20000 30000 81360=
10929 42967 63601 10227 20175 39686 40189 51010 84031
  333 55300 20000 30000 84363 85079=
10948 45981 81601 10175 20144 39297 48568 51004
  333 55300 20000 30000 81/62 87/63 88/70=
10961 42688 53605 10099 21010 37230 47228 50006 85040
  333 55300 20000 41088 85336 98889=
10962 42983 60804 10233 20122 39108 48585 51004 85031
  333 55300 20000 30000 85363=
10980 42989 03004 10178 20081 38257 48586 50002
  333 55300 20000 30000=
####018002224####
SNDL22 EDZW 092200
AAXX 09221
10006 NIL=
10007 NIL=
10008 NIL=
10043 NIL=
10044 46/// /1008 10219 20180 30143 40173 58006
222// 00203
  333 55300=
10046 42980 40903 10221 20160 30136 40173 58005 82031
  333 82365 83072=
10091 45984 01505 10230 20154 30146 40195 51002
  333 55300 20000 30000=
10113 45970 72403 10252 20182 30149 40167 53009
  333 55300 20000 30000 87/66=
10124 46/// /1206 10250 20201 30127 40163 51004
222// 00122
  333 55300=
10131 45975 71304 10243 20175 30148 40162 52002
  333 55300 20000 30000 87/62 87/65=
10170 42980 21405 10254 20154 30169 40184 51003 80002
  333 55300 20000 30000 82076=
10264 45981 01502 10250 20125 30082 40183 51005
  333 55300 20000 30000=
10291 42980 11202 10213 20151 30134 40199 51007 80001
  333 55300 20000 30000 81080=
10315 42980 31401 10227 20142 30112 40173 53009 81031
  333 55300 20000 30000 81360 83075=
10379 42983 11404 10249 20121 30071 40186 51007 81031
  333 55300 20000 30000 41354 81366=
10382 42983 00901 10258 20131 30149 40191 51009
  333 55300=
10384 46/// /1003 10246 20126 30135 40192 51009
  333 55300 20000 30000=
10427 42983 62405 10221 20121 39234 48573 51005 85071
  333 55300 20000 30000 84359=
10430 45979 81201 10243 20155 39996 40178 51010
  333 55300 20000 30000 88/65=
10439 42970 73001 10214 20176 39977 40187 51009 8707/
  333 87362=
10453 42986 51807 10203 20115 38929 48576 50001 85030
  333 55300 85363=
10496 45984 01403 10244 20130 30116 40196 51010
  333 55300 20000 30000=
10499 42980 01502 10209 20146 39933 40211 51008
  333 55300 20000 30000=
10501 42982 32402 10257 20166 39948 40182 51011 82071
  333 55300 82363=
10513 42984 41202 10239 20164 30069 40184 53013 81032
  333 55300 20000 30000 81365 84080=
10532 45972 2//01 10215 20157 39944 40180 51009
  333 55300 20000 30000 82/60=
10544 42986 52403 10214 20099 39168 48576 51005 84031
  333 55300 84363=
10554 42982 32303 10230 20145 39820 40188 51008 81031
  333 55300 20000 30000 81363 83080=
10567 42986 11903 10211 20158 39832 40190 51007 80001
  333 55300 20000 30000 81076=
10578 42987 01806 10192 20092 38876 48585 51006
  333 55300 20000 30000=
####018001224####
SNSQ51 LZIB 092200
AAXX 09221
11812 46/// /0201 10217 20065 39553 42864=
11813 46/// /0000 10204 20094 39885 40219=
11816 42970 00801 10187 20113 30062 40220=
11819 46/// /3602 10157 20132 30012 40223=
11826 45/72 /3202 10158 20135 30032 40227=
11841 46/// /9902 10151 20101 39867 40234=
11855 45/64 /0000 10165 20132 30059 40220=
11856 46/// /1202 10177 20132 39915 40223=
11858 46/// /1502 10179 20140 30072 40219=
11867 45/77 /9901 10164 20128 39921 40229=
11880 46/// /9901 10164 20159 30060 40227=
11900 46/// /0000 10170 20116 39907 40232=
11903 42981 09902 10167 20134 39862 40231=
11916 46/// /3302 10099 20018 38081 48575=
11918 46/// /1002 10114 20086 39445 42869=
11927 46/// /3302 10171 20153 39976 40230=
11930 46/// /3406 10064 21041 37489 47201=
11933 46/// /9901 10106 20073 38767 48585=
11934 42984 22703 10118 20092 39442 42869 80001
  333 82070=
11938 46/// /0705 10119 20086 39203 42863=
11952 46/// /3103 10121 20095 39433 42868=
11958 46/// /0206 10124 20086 38841 48580=
11968 42982 09902 10189 20138 39952 40222=
11976 46/// /9902 10150 20130 39975 40233=
11978 46/// /3402 10177 20136 30090 40216=
11993 46/// /9901 10156 20140 30017 40228=
####018000523####
SNVD20 KWNB 092200 RRB
BBXX
44007 09221 99435 70701 46/// /1607 10199 20199 40113 58023 92150
22200 00173 10802 20402 3//// 40801 70010 333 91208 555 11073
22083 32108 41708 62149 161065 160070 163073 164073 164073 164071=
44014 09221 99366 70748 46/// ///// 10256 40104 58016 92150 22200
00256 10702 70011=
44013 09221 99423 70707 46/// /1507 10228 20208 40122 56022 92150
22200 00204 10301 20301 300// 40601 70007 333 91208 555 11076
22086 32140 41510 62149 151070 154066 151066 149064 148066 150068=
####018000494####
SIGH20 DGAA 092100
AAXX 09214

65420 42462 32301 10262 20219 40132 82502 333 59003 82610 83075=

65439 NIL=

65450 41460 72307 10220 20213 40130 79596 8593/ 333 59003 85612
87460 81930 94635 95704=

65459 41460 72305 10245 20231 40149 72996 875// 333 58009 87611=

65460 NIL=

65462 42462 62305 10250 20239 40117 86500 333 58002 86611=

65465 41464 72304 10257 20239 40138 71322 8593/ 333 58004 85611
87361 81930 94624 95703=

65469 NIL=

65473 NIL=
####018000141####
SNVD20 KWNB 092200 RRC
BBXX
44040 09221 99410 70736 46/// /1905 10272 20211 40114 92145 22200
1//00 70002 333 91206 555 11057 22067=
####018001198####
SILY20 HLLT 092100
AAXX 09214
62002 32960 00610 10245 20157 39483 48573 53008=
62007 32960 00810 10255 20226 40185 52006=
62008 32960 00608 10240 20178 39398 48562 53014=
62010 31957 00704 10240 20207 40186 52008 70500=
62012 32560 20304 10255 20233 30156 40185 52007 82200 333 82830=
62016 32560 53608 10254 20234 40176 53005 85500 333 85625=
62019 32560 50608 10256 20240 40163 53006 85700 333 85723=
62053 32560 23618 10244 20201 40162 55006 82500 333 82620=
62055 31958 03308 10250 20220 30146 40153 54000 71000=
62056 32960 43009 10202 20175 39429 48550 52004 84500 333 84620=
62059 32960 03314 10253 20225 40156 56005=
62103 32970 03609 10341 20056 39755 40137 52011=
62120 32960 00808 10294 20172 39611 48581 53005=
62124 32960 00609 10303 20087 39646 40121 52011=
62131 32966 00608 10305 20106 39855 40152 52013=
62161 31956 03015 10308 20170 40125 53015 70700=
62176 32960 00615 10305 20141 40122 52015=
62200 32960 00905 10310 20131 39617 40127 52013=
62212 32970 20308 10336 20074 39354 48556 53027 80002 333 82070=
62259 32960 00000 10315 20082 40122 51010=
62271 32960 03508 10333 20026 40114 54000=
62014 NIL=
62018 NIL=
62062 NIL=
####018000101####
SNAU40 AMMC 091900 RRA
AAXX 09194
94316 /5/// /1605 10102 20044 39675 40166 50001 60003=


####018000099####
SNRE20 FMEE 092200
AAXX 09224
61980 24879 /1412 10190 20168 40188 760//
  333 59030 69945=
####018000101####
SNAU40 AMMC 091900 CCA
AAXX 09194
94316 /5/// /1605 10102 20044 39675 40166 50001 60003=


####018000089####
SIAU24 AMMC 092100 RRA
AAXX 09214
96995 46/// /1408 10221 20220 39814 40110=


####018000233####
SNVD15 KWNB 092200 RRD
BBXX
41035 09221 99345 70773 46/// /2108 10276 20249 40100 56015 92150
22200 00269 10901 20301 313// 40901 70005 333 91209 555 11081
22088 32143 42009 62149 206074 204066 197067 198064 199062 199061=
####018000099####
SNVD15 KWNB 092000 RRX
BBXX
41037 09201 99340 70775 46/// /2104 10288 40112 92000 333 91204=
####018000251####
SNDL48 EDZW 092200 RRA
AAXX 09221
10613 42982 12403 10238 20146 39642 40190 52008 81031
  333 81363=
10618 42982 51501 10219 20157 39765 40197 51010 84031
  333 84363=
10743 42982 21201 10217 20152 39658 40196 52009 80001
  333 82080=
####018000476####
SNDL49 EDZW 092200 RRA
AAXX 09221
10765 42982 31801 10217 20140 39747 40199 52013 83031
  333 81365 83080=
10771 42980 20902 10219 20125 39724 40202 52011 81031
  333 81362=
10827 42984 73401 10204 20129 39167 48581 50007 83032
  333 83363 85074=
10853 42980 23501 10206 20164 39756 40201 52011 81031
  333 81367=
10856 42982 11301 10209 20134 39562 40199 51009 80001
  333 81080=
10857 42980 31301 10229 20129 39494 40195 51009 83030
  333 83367=
####018000115####
SNDL47 EDZW 092200 RRA
AAXX 09221
10502 42981 62502 10260 20138 30028 40182 52011 83031
  333 83362 85075=
