####018000152####
SNAA01 KWBC 092200 RRA
AAXX 09224
89065 46/// /9902 11190 21208 39711 49793 57001 92240=
89065 46/// /9902 11190 21208 39711 49793 57001 92240=
####018000148####
SMKA02 PTYA 100000
AAXX 10004
91203 11474 81406 10283 20261 30135 40140 52012 60554 71592 82977 
333 56399 70546 58015 82916 88278 555 91000
####018000121####
SIIN20 DEMS 092100 RRB
AAXX 09214
42348 21595 62706 10298 20267 40007 70522 83530
  333 59018 6006/ 83630 84359=
####018000113####
SMBE01 TXKF 100000
AAXX 10004
78016 32464 51513 10265 20236 30221 40225 53005 81131 333
10287 20250 70011 =
####018002941####
SMUK01 EGRR 100000
AAXX 10004
03005 11482 22910 10095 20079 30016 40115 51039 60031 70165 82800
 92350 333 55/// 21432 81818=
03017 15976 /2508 10094 20091 30099 40131 51015 69921 92350 333 55///
 20924 81/74=
03023 NIL=
03026 15671 /2006 10096 20090 30115 40134 51013 60001 92350 333 55///
 21077 82/30=
03063 15983 /2502 10089 20075 39878 40154 51013 60001 92350 333 55///
 20917 88/64=
03066 NIL=
03075 15/75 /2406 10084 20067 3//// 4//// 5//// 60001 92350=
03091 15982 /1703 10111 20086 30074 40153 51021 60001 92350 333 55///
 21181 87/63 87/73=
03100 15970 /1703 10113 20107 30125 40142 51006 60001 92352 333
55/// 21783 88/66=
03111 16981 /1306 10109 20098 30133 40145 50001 69961 92352 333
84/60=
03134 17861 /2602 10114 20098 30081 40152 50008 69901 782// 92350 333
 55/// 21315 88/57=
03136 17768 /1002 10119 20111 30117 40150 50004 60021 761// 92350 333
 55/// 21016 88/56=
03162 NIL=
03166 17862 /2303 10119 20104 30087 40156 53011 69961 762// 92350 333
 55/// 21456 88/57=
03171 12680 72704 10128 20089 30142 40154 53014 60001 8157/ 92350 333
 55/// 21236 81640 83358 87360=
03204 11230 80812 10136 20132 30108 40134 58009 60101 76362 887//
92350 333 55/// 21244 81703 86707 88712=
03240 17550 /3603 10136 20115 30128 40156 53006 60031 782// 92350 333
 55/// 21455 81/23 85/28 85/37=
03257 NIL=
03292 169// /1304 10161 20153 30143 40160 51007 60001 92350 333 81/60=
03302 NIL=
03354 15972 /2305 10178 20143 30033 40172 51007 60001 92350 333 55///
 22289 8//99=
03377 12983 12407 10189 20140 30087 40167 51007 60001 81030 92350 333
 55/// 22402 81362=
03414 NIL=
03462 NIL=
03482 NIL=
03502 NIL=
03535 15972 /1705 10164 20141 30061 40175 51007 60001 92350 333 55///
 22122 8//99=
03590 NIL=
03649 12682 11701 10172 20146 30086 40184 51009 60001 81531 92350 333
 81640=
03716 15678 /2305 10183 20157 30115 40185 51004 60001 92350 333
55/// 22491 87/32=
03740 12680 11804 10162 20146 30014 40188 50005 60001 81500 92350
 333 81632=
03746 NIL=
03772 15971 /2408 10200 20162 30156 40185 51013 60001 92350 333 55///
 22622 8//99=
03796 46/// /2710 10178 20143 30046 40185 51008 92350=
03803 16261 /2113 10174 20170 30145 40182 52001 60001 92350 333 83/05
 87/13=
03808 12265 72009 10174 20166 30084 40187 50004 60001 876// 92350 333
 55/// 21031 87704=
03809 11258 82109 10174 20165 30098 40188 50004 60001 71011 886//
 92350 333 88704=
03827 15162 /2011 10173 20171 30134 40195 51002 60001 92350 333
82/02 85/09 86/25=
03840 15578 /2106 10161 20150 39893 40192 51004 60001 92350 333 82/20=
03853 NIL=
03874 46/// /2712 10179 20169 30181 40192 51010 92350=
03882 15967 /2606 10166 20157 30128 40190 51005 60001 92350 333 55///
 22678 8//99=
03894 32160 12104 10162 20159 40208 50000 81500 333 81702=
03917 17660 /0809 10106 20093 30061 40138 58004 60051 761// 92350 333
 55/// 20984 88/48=
####018000925####
SMVD20 KWNB 100000 RRD
BBXX
44007 10001 99435 70701 46/// /1608 10198 20198 40107 56012 92350
22200 00176 10402 20402 3//// 40701 70010 333 91209 555 11088
22098 32338 41609 62349 160081 158080 160076 159075 160078 159076=
44014 10001 99366 70748 46/// ///// 10252 40110 55003 92350 22200
00252 10602 70011=
44013 10001 99423 70707 46/// /1507 10221 20213 40119 56007 92350
22200 00200 10301 20301 300// 40801 70007 333 91207 555 11072
22082 32312 41508 62349 152065 154068 155065 154069 153068 156068=
44017 10001 99407 70720 46/// /1303 10244 20237 40116 56011 92350
22200 00242 10802 20401 300// 40802 70011 333 91204 555 11037
22040 32250 41205 62349 129034 119032 121029 119032 115035 114034=
44025 10001 99403 70732 46/// /1603 10252 20227 40111 56008 92350
22200 00252 10802 20401 315// 40802 70012 333 91204 555 11036
22038 32331 41604 62349 160033 159036 154035 148032 149035 141033=
####018000897####
SMVD15 KWNB 100000 RRD
BBXX
41035 10001 99345 70773 46/// /2108 10275 20243 40104 55000 92350
22200 00268 10301 20301 312// 40901 70006 333 91210 555 11087
22095 32253 42110 62349 207081 207073 206074 207080 207083 207083=
41040 10001 99145 70530 46/// /0807 10286 40156 53014 92350 22200
00290 10704 20704 70019 333 91209 555 11079 22083 32254 40911
62349 080075 082085 083083 080084 077089 078089 80810 92257=
42001 10001 99259 70897 46/// /1003 10290 20237 40134 55013 92350
22200 00296 10601 3//// 40601 70004 333 91204 555 11026 22027
32256 41005 62349 097026 098029 104030 104036 098036 100038=
41010 10001 99289 70785 46/// /2404 10284 20238 40146 55000 92350
22200 00290 10801 20401 300// 40801 70007 333 91205 555 11043
22045=
41009 10001 99285 70802 46/// /1504 10285 20225 40145 56005 92350
22200 00287 10801 300// 40801 70004 333 91204 555 11037 22038=
####018001092####
SMVD17 KWNB 100000 RRA
BBXX
46001 10001 99563 71480 46/// /1002 10095 40072 54000 92350 22200
00094 10704 20401 300// 40703 70019 333 91204 555 11020 22022
32314 41006 62349 100019 102019 102019 100025 097027 093024=
46066 10001 99527 71550 46/// ///// 10085 40054 51020 92350 22200
00081 10705 70025 555 83600 92259=
46082 10001 99597 71434 46/// /1005 10107 40136 57005 92350 22200
00119 10802 20401 300// 40802 70011 333 91206 555 11050 22052
32258 41006 62349 095046 103052 094049 101049 095049 096055 81106
92259=
46081 10001 99608 71483 46/// /0101 10122 40133 57006 92350 22200
00126 1//00 70001 333 91201 555 11008 22008 32336 40301 62349
008008 027006 358002 024002 180000 180000=
51101 10001 99243 71621 46/// /0807 10254 40202 58007 92350 22200
00258 10703 20503 308// 40702 70017 555 11079 22083 32332 40810
62349 079075 080083 077077 076083 076075 074074=
46061 10001 99602 71468 46/// /0202 10102 40133 57004 92350 22200
00127 10902 300// 40901 70008 333 91203 555 11022 22022 32316
40204 62349 023021 022024 020027 020029 012030 014025=
####018000660####
SMCU31 MUHA 100002
SINOP
100000Z AAXX 10001
78221  NIL=
78224 31970 69902 10281 20224 30083 40156 53011 70249 84900 
      333 10329 82920 84830=
78229 11457 61601 10233 20215 30097 40171 52002 60031 76169 
      83963 333 81915 82818 86070=
78239 41559 40703 10286 20234 30151 40156 54000 70500 84900 
      333 10318 82918 82825=
78244  NIL=
78243  NIL=
78255 42459 50405 10288 20227 30003 40162 52050 85800 333 
      10324 81818 84620=
78264 31558 20000 10300 20232 30074 40166 52002 70500 82200 
      333 82820=
78265 41559 21302 10292 20218 30030 40165 52007 70544 82200 
      333 10340 82820=
78256  NIL=
78259  NIL=
78268  NIL=
####018000114####
SMBE01 TXKF 100000
AAXX 10004
78016 32464 51513 10265 20236 30221 40225 53005 81131 333
10287 20250 70011 =
####018001411####
SMVD22 KWNB 100000 RRD
BBXX
46026 10001 99378 71228 46/// /2804 10122 40147 56010 92350 22200
00122 11402 20401 320// 41402 70008 333 91205 555 11041 22044
32344 42905 62349 282040 285035 286036 286035 285032 285038=
46086 10001 99325 71180 46/// /2806 10159 40132 56008 92350 22200
00174 11302 20501 320// 41302 70010 333 91207 555 11062 22065
32333 42807 62349 283059 286061 284060 285059 282058 282058=
46089 10001 99459 71258 46/// /3408 10169 40186 51007 92350 22200
00161 10703 20703 3//// 41202 70016 333 91210 555 11090 22097
32334 43410 62349 336083 336083 334084 333084 334082 333081 83409
92335=
46041 10001 99474 71247 46/// /3206 10155 40171 51004 92350 22200
00136 10803 20502 3//// 40802 70014 333 91207 555 11071 22080
32344 43207 62349 320064 322057 319058 321055 320059 320057=
46041 10001 99474 71247 46/// /3206 10155 40171 92350 22200 00136
10803 20502 3//// 40802 70014 333 91207 555 11071 22080 32344
43207 62349 320064 322057 319058 321055 320059 320057=
46011 10001 99349 71209 46/// /3107 10133 40134 58010 92350 22200
00131 11202 20601 321// 41201 70010 333 91208 555 11077 22083
32329 43208 62349 315071 315067 308070 311066 310066 307066=
46042 10001 99368 71224 46/// /3106 10134 30142 40142 58011 92350
22200 00129 11402 20601 317// 41402 70011 333 91208 555 11068
22074 32342 43208 62349 314063 317064 311066 314060 313059 308061=
####018000350####
SMVE15 KWNB 100000 RRB
BBXX
51002 10001 99171 71578 46/// /0708 10251 40151 57013 92350 22200
00254 11103 20502 3//// 41102 70017 333 91210 555 11090 22095
32341 40710 62349 073083 071085 070084 068080 066084 068080=
51100 10001 99236 71539 46/// ///09 10245 40196 56011 92350 22200
00248 11104 20703 311// 41102 70018 555 11094 22100=
####018000869####
SMVD45 KWNB 100000 RRD
BBXX
45008 10001 99443 70824 46/// /2701 10201 39917 40126 55004 92350
22200 00198 1//00 70002 333 91202 555 11016 22019 32344 42602
62349 271014 265014 245012 206009 181013 176013=
45012 10001 99436 70774 46/// /2806 10215 30013 40102 53003 92350
22200 00218 1//00 70002 333 91207 555 11062 22065 32345 42707
62349 275057 273052 285042 318026 337018 356018=
45022 10001 99454 70851 46/// /2402 10213 40160 56010 90000 22200
00197 1//00 70002 333 91203=
45002 10001 99453 70864 46/// /2104 10215 20208 39918 40127 56011
92350 22200 00208 1//00 70001 333 91205 555 11047 22053 32332
42206 62349 213043 213048 211045 203040 209041 196029=
45001 10001 99481 70878 46/// /2203 10142 39909 40130 92350 22200
00118 10401 20401 70004 333 91203 555 11036 22043 32347 42203
62349 217029 224027 237026 245024 248021 252025=
####018000110####
SMRM11 LUKK 100000
AAXX 10001
33815 41598 83202 10183 20173 39958 40156 58002 78098 883//  555   11019=
####018000116####
SMBE01 TXKF 100000
AAXX 10004
78016 32464 51513 10265 20236 30221 40225 53005 81131 333
10287 20250 70011 =
####018001381####
SMFI01 EFKL 100000
AAXX 10001
02807 47499 83602 10134 20113 39962 40138 700// 88/// 90000=
02897 47781 42401 10151 20145 39981 40156 700// 84/// 90000=
02913 47960 00000 10127 20114 30108 40159 700//=
02917 47999 02703 10173 20138 30047 40165 700// 90000=
02944 47999 00000 10112 20090 30042 40187 700// 90000=
02952 47982 01702 10145 20124 30160 40176 700// 90000=
02963 46/// /2203 10142 20127 40188=
02741 47757 12102 10147 20141 30165 40180 54001 71010 81/// 92339=
02755 47907 01702 10116 20113 30062 40155 54000 73331 92339=
02805 47999 13602 10103 20086 30020 40149 52003 70000 80/// 92339=
02836 47566 53401 10140 20139 39920 40134 52008 70086 81/// 92339=
02845 47047 72501 10150 20147 39897 40136 52006 71010 87/// 92339=
02849 47167 72502 10149 20146 39865 40128 52002 72286 87/// 92339=
02866 47778 32102 10142 20131 30002 40146 52004 70086 83/// 92339=
02924 47960 00000 10109 20104 39983 40177 52003 70000 92339=
02926 47983 01602 10148 20131 700//=
02935 47981 02501 10137 20115 30008 40177 52006 70000 92339=
02939 47983 02602 10182 20160 39972 40157 52009 70000 92339=
02947 47/83 /0000 10115 20107 40181
52007 70000 8//// 92351=
02976 46/// /2702 10191 20180 30173 40188 52011 92339=
02981 47966 02104 10186 20176 30178 40187 54000 70000 92339=
02982 46/// /2306 10185 20179 30185 40192 54001 92339=
02974 NIL=
####018000095####
SMFI01 EFKL 100000 RRA
AAXX 10001
02947 47/83 /0000 10115 20107 40181 52007 70000 92351=
####018000149####
SMKA02 PTYA 100000
AAXX 10004
91203 11474 81406 10283 20261 30135 40140 52012 60554 71592 82977 
333 56399 70546 58015 82916 88278 555 91000
####018000113####
SMAA41 KPAL 100000
AAXX 10001 
89061 17964 02409  21158 39728 49735 52010 60034 70070
333   91011 91112=
####018000105####
SMNO02 ENMI 100000 RRA
AAXX 10001
01218 16/// /0501 10131 20126 30079 40092 58019 60011 333 91103=
####018000113####
SIRA27 RUHB 092100 CCA
AAXX 09211
25705 32699 70301 10227 20146 39808 40104 58002 82231 333 20153
55105=
####018000121####
SMID20 WIIX 091800 RRC
AAXX 09184
96171 31450 60000 10250 20234 30077 40101 51005 70522 83522
  333 56000 83616=
####018001340####
SMNO24 ENMI 100000
AAXX 10001
01037 16/// /0301 10121 20113 30144 40149 57003 60051 333 91106=
01046 11889 81801 10119 20103 30142 40149 50003 6//// 70321 84048
      333 91103=
01058 16/// /0000 10075 20061 39698 40155 54000 69951 333 91105=
01065 16/// /2102 10081 20072 39993 40152 52001 69921 333 91104=
01092 46/// /3004 10069 20062 333 91108=
01107 16/// /1905 10105 20091 30121 40125 57007 60001 333 91110=
01114 16/// /0502 10094 20063 30123 40133 57013 60001 333 91110=
01144 46/// /1404 10110 20086 333 91107=
01199 NIL=
01245 NIL=
01259 16/// /0106 10143 20097 30082 40104 58039 60001 333 91108=
01262 NIL=
01278 NIL=
01293 16/// /1901 10113 20070 39922 40125 57014 69931 333 91106=
01329 16/// /3601 10136 20136 30073 40133 58007 60151 333 91107=
01337 16/// /1101 10134 20120 30064 40128 56013 60041 333 91105=
01344 16/// ///// 10121 20091 6////=
01373 16/// /1101 10172 20081 39941 40135 58003 60001 333 91105=
01374 NIL=
01380 16/// /1802 10108 20049 6//// 333 91109=
01389 NIL=
01393 16/// /1102 10123 20061 39367 40143 57009 6//// 333 91108=
01424 16/// ///// 10142 20119 30148 40151 55001 60011=
01431 16/// /2202 10137 20088 39513 40155 58007 60001 333 91107=
01436 NIL=
01465 16/// /0402 10151 20135 30157 40171 58009 60001 333 91108=
01471 NIL=
01483 NIL=
####018001499####
SMNO23 ENMI 100000
AAXX 10001
01015 46/// /1606 10122 20078 333 91108=
01023 11388 23501 10106 20084 30055 40148 58003 6//// 70120 81878
      333 91105=
01033 46/// /1502 10129 20101 30107 40137 58007 333 91106=
01059 16/// /3604 10099 20085 30144 40153 50003 6//// 333 91105=
01089 16/// /3602 10107 20096 30037 40142 50000 6//// 333 91106=
01167 11689 22103 10135 20081 30126 40130 57006 6//// 70160 82600
      333 91107=
01180 NIL=
01210 16/// /0605 10132 20109 30054 40080 58039 6//// 333 91113=
01228 46/// /1003 10132 20089 30100 40107 58025 333 91106=
01240 16/// /0506 10139 20096 30086 40105 58031 6//// 333 91108=
01304 46/// /1716 10131 20118 30047 40077 56030 333 91121=
01311 11140 81609 10130 20119 30062 40122 58005 6//// 76365 887//
      333 91114=
01340 16/// /3301 10135 20079 39289 40128 56010 60001 333 91110=
01355 16/// ///// 10137 20122 30118 40123 50003 69961=
01360 11560 80000 10100 20097 6//// 76162 8472/=
01392 16/// /1804 10159 20091 39945 40163 57003 60001 333 91106=
01406 NIL=
01411 11670 81711 10164 20131 30106 40131 58001 60001 76082 8257/
      333 91119=
01425 16/// /3501 10142 20114 30079 40157 57009 60001 333 91106=
01433 46/// /1405 10101 20079 38920 40139 57012 333 91111=
01442 NIL=
01450 NIL=
01452 16/// /0603 10136 20111 30145 40166 58010 60001 333 91103=
01473 16/// /1802 10169 20076 39959 40160 57002 6//// 333 91106=
01494 16/// /1604 10155 20119 30110 40174 50000 60001 333 91110=
####018001713####
SMNO25 ENMI 100000
AAXX 10001
01025 17880 60102 10122 20090 30133 40144 57003 6//// 700// 333
      91105=
01052 16/// /0202 10118 20069 30048 40146 57003 60001 333 91104=
01122 16/// /2001 10096 20063 30054 40142 58011 60001 333 91107=
01132 16/// /0601 10071 20057 39768 40153 57013 69921 333 91104=
01156 16/// /1907 10122 20094 30117 40126 57007 60001 333 91111=
01203 46/// /1713 10140 20110 30024 40071 58037 333 91119=
01233 16/// /1506 10144 20058 60001 333 91111=
01265 16/// /2203 10149 20054 39563 40121 56014 60001 333 91107=
01273 16/// /1701 10117 20086 39926 40117 56019 60001 333 91104=
01307 46/// /1815 10129 20113 30071 40098 56015 333 91122=
01321 16/// /1801 10112 20104 39851 40098 58025 60061 333 91104=
01327 16/// /1003 10113 20096 60161 333 91113=
01350 16/// /1807 10097 20083 38770 40121 58011 60021 333 91113=
01361 16/// /0703 10103 20073 39110 40106 58015 60021 333 91108=
01375 16/// /1607 10099 20061 6//// 333 91113=
01378 16/// /1203 10167 20101 39853 40132 58003 60001 333 91108=
01385 16/// /0701 10145 20106 39890 40153 58004 60001 333 91107=
01412 16/// /1610 10162 20126 30111 40142 50003 60001 333 91118=
01422 16/// /1903 10192 20102 60001 333 91112=
01441 16/// /1905 10115 20076 39181 40137 58015 69941 333 91109=
01467 46/// /3401 10156 2//// 30162 40169 58007 333 91110=
01469 16/// /1503 10175 20102 39988 40153 58002 60001 333 91108=
01477 16/// /1403 10160 20088 60001 333 91107=
01480 16/// /0202 10181 20078 60001 333 91108=
01484 16/// /1603 10146 20104 30019 40173 58001 60001 333 91108=
01490 16/// /1702 10123 20112 60001 333 91107=
01495 16/// /1807 10172 20144 30161 40173 58004 6//// 333 91112=
####018001291####
SMNO26 ENMI 100000
AAXX 10001
01121 46/// /1804 10134 20076 30124 40136 57012 333 91107=
01143 16/// /3301 10112 20098 69941 333 91103=
01150 16/// /1102 10072 20055 60001 333 91104=
01225 46/// /0405 10134 20106 30094 40098 58029 333 91107=
01230 16/// /1202 10124 20074 69931 333 91105=
01232 16/// /0501 10126 20116 30015 40092 58021 60011 333 91106=
01234 16/// /2004 10130 20102 60001 333 91106=
01253 16/// /2001 10111 20088 60001 333 91103=
01254 16/// /1301 10124 20098 69931 333 91103=
01257 NIL=
01277 16/// /0901 10134 20087 60001 333 91105=
01291 16/// /2301 10093 20078 60001 333 4/006 91106=
01332 16/// /3602 10120 20106 60101 333 91103=
01366 46/// /1505 10068 20064 38543 40121 58008 333 91111=
01376 16/// /0501 10187 20094 60001 333 91107=
01383 46/// /1504 10155 20103 39841 40144 58006 333 91108=
01386 16/// ///// 10160 20108 60001=
01416 16/// ///// 10181 20108 60001=
01419 16/// /2103 10168 20119 60001 333 91110=
01430 16/// ///// 10154 20107 60001=
01434 16/// /0701 10113 20085 39205 40146 56014 69941 333 91107=
01455 NIL=
01468 16/// /1903 10150 20096 60001 333 91109=
01470 16/// /1503 10170 20075 30053 40163 54001 60001 333 91107=
01476 NIL=
01481 16/// /2002 10156 20112 69931 333 91106=
01488 NIL=
####018000227####
SMVD22 KWNB 100000 RRE
BBXX
46014 10001 99392 71240 46/// /1901 10120 40144 57003 92350 22200
00116 10802 20401 300// 40802 70010 333 91201 555 11014 22014
32255 42503 62349 193012 210013 214017 240016 249014 256019=
####018000462####
SNVD15 KWNB 092300 RRV
BBXX
42369 09231 99272 70903 46/// /0502 10290 92300 22200 10501 70005=
42370 09231 99273 70905 46/// ///02 10292 92300 22200 10501 70005=
42374 09231 99289 70881 46/// ///03 10314 40131 56018 92300=
42376 09231 99291 70879 46/// /2603 10290 40122 58016 92300 22200
10201 70005=
42392 09231 99272 70900 46/// ///// 1//// 92300 22200 10401 70005=
42887 09231 99282 70885 46/// /0000 10308 20247 92300 22200 10601
70007=
####018000396####
SMMC02 GMMC 100000
AAXX 10004
60107 32960 00000 10222 20203 40185 51008=
60141 32558 32904 10251 20185 39535 40169 57002 82230
  333 82330=
60191 32965 03206 10306 20149 40142 53002=
60265 32660 30504 10334 20023 38939 48592 50008 82280
  333 82840=
60060 NIL=
60105 NIL=
60106 NIL=
60127 NIL=
60185 NIL=
60190 NIL=
60195 NIL=
60210 NIL=
60220 NIL=
60318 NIL=
####018000357####
SMMC01 GMMC 100000
AAXX 10004
60115 32962 01902 10250 20142 40166 56012=
60150 32556 40000 10243 20175 39548 40174 58001 82280
  333 82826 83360=
60155 32456 70204 10228 20211 40172 55002 576//
  333 87710=
60252 32960 20804 10230 20181 40137 58005 82030
  333 82360 95800=
60096 NIL=
60101 NIL=
60135 NIL=
60156 NIL=
60230 NIL=
####018000092####
SMMC23 GMMC 100000
AAXX 10004
60340 32956 00000 10237 20216 40200 53002=
60285 NIL=
####018000127####
SNVD17 KWNB 092300 RRG
BBXX
46238 09231 99334 71195 46/// ///// 1//// 92326 22200 00147 11302
20502 318// 41301 70011=
####018001592####
SMMS01 WMKK 100000
AAXX 10004
48601 11558 60103 10256 20243 30097 40101 60034 70522 81132
  333 20249 50300 59005 70030 81820 86077=
48615 11559 72105 10246 20224 30100 40106 69964 70562 81542
  333 20241 50230 59002 70006 81620 83364 87074=
48620 11462 70102 10243 20236 30091 40100 69904 71022 83932
  333 20241 50400 59006 79999 81917 84365 87078=
48647 11457 70000 10253 20240 30079 40104 69924 70522 82932
  333 20248 50390 59006 70002 81917 87078=
48657 11004 70000 10235 20234 30088 40106 60164 74464 83642
  333 20233 50600 59009 70158 83700 86078=
48665 11250 70303 10239 20231 30100 40110 60004 71022 82941
  333 20234 50340 59005 70000 81705 81917 83364 86078=
96413 12180 71902 10242 20227 30092 40119 69984 83531
  333 20230 50370 59001 70008 81703 83365 85080=
96421 11375 72102 10236 20229 30084 40120 60094 72842 85531
  333 20226 50480 55064 59004 70088 81707 84618 86365=
96441 11170 71003 10233 20225 30080 40107 60314 71062 84631
  333 20226 50360 55065 59009 70310 81702 83614 86365=
96449 12480 71907 10255 20224 30094 40113 60034 82131
  333 20232 50480 59001 70034 82814 83365 85080=
96465 12478 71501 10266 20252 30087 40120 60204 81842
  333 20242 50600 55088 58011 70202 81812 87079=
96471 12478 71003 10270 20237 30122 40125 60134 82842
  333 20236 50300 58015 70130 81815 83364 87078=
96481 11462 60502 10256 20236 30105 40124 60074 70162 82841
  333 20234 50360 55068 58010 70070 81818 85080=
96491 11467 62603 10274 20240 30112 40124 69944 70522 83842
  333 20242 50360 55066 58013 70004 82816 86080=
####018000091####
SMCY01 LCLK 100000
AAXX 10004
17609 12962 03208 10239 20220 30090 40093 56003 60001=
####018000125####
SMFG01 SOCA 100000
AAXX 10004
81415 06/// /0000 10243 20234 30014 40135 60001
  333 10331 60007 58004
  555 60005=
####018001135####
SNCN19 CWAO 092301
OOXX
CAP14 09201 99486 71234 ///// //201
     26/// /1303 10275 29037 30129 92050 333 60000=
CAP14 09211 99486 71234 ///// //201
     26/// /1303 10274 29040 30129 92100 333 60000=
CAP14 09211 99486 71234 ///// //201
     26/// /1303 10277 29038 30128 92110 333 60000=
CAP14 09211 99486 71234 ///// //201
     26/// /1303 10280 29038 30128 92120 333 60000=
CAP14 09211 99486 71234 ///// //201
     26/// /1103 10281 29037 30129 92130 333 60000=
CAP14 09211 99486 71234 ///// //201
     26/// /1103 10282 29035 30128 92140 333 60000=
CAP14 09211 99486 71234 ///// //201
     26/// /1103 10287 29035 30127 92150 333 60000=
CAP14 09221 99486 71234 ///// //201
     26/// /1103 10290 29034 30126 92200 333 60000=
CAP14 09221 99486 71234 ///// //201
     26/// /1203 10286 29035 30126 92210 333 60000=
CAP14 09221 99486 71234 ///// //201
     26/// /1203 10291 29033 30127 92220 333 60000=
CAP14 09221 99486 71234 ///// //201
     26/// /1103 10296 29032 30126 92230 333 60000=
CAP14 09221 99486 71234 ///// //201
     26/// /1003 10294 29034 30126 92240 333 60000=

####018000089####
SNPS40 AMMC 092200 RRG
AAXX 09224
91375 46/// /0103 10286 40118 22200 00283=


####018000621####
SMCZ10 OKPR 100000
AAXX 10001
11423 07/70 /2502 10214 20121 39370 42860 52003 60001 70011
  333 55151 60005=
11487 07/68 /0602 10167 20145 39615 40218 50003 60001 70011
  333 55150 60005=
11518 02984 01602 10189 20131 39789 40212 50003 60001
  333 55152 60005=
11603 07/70 /1303 10182 20117 39752 40218 50001 60001 70010
  333 55140 60005=
11659 07/70 /1104 10167 20143 39604 40223 50001 60001 70011
  333 55148 60005=
11723 02965 10101 10182 20122 39932 40220 58002 60001 80001
  333 55150 60005 81070=
11782 02970 19901 10134 20109 39935 40236 52004 60001 80001
  333 55151 60005 81070=
####018000357####
SMPM01 MPTO 100000
78792 32460 83106 10288 20240 30063 40076 52003 84901 333
      066// 10325 20240 30/// 59016 81918 83818 86080=
78793 32460 82204 10280 20242 30044 56005 81107 333
      01/// 10312 20234 30/// 59014 81815 88280=
78795 32370 80000 10266 20247 39978 40078 57007 83460 333
      0080/ 10316 20226 30/// 59013 83610 85359=
####018001030####
SMPR01 SPIM 100000
AAXX 10004
84452 31960 01716 10170 20137 30112 40144 70200
333   10240 59002=
84515 31460 70000 10255 20241 39925 40101 70222 8322/
333   10335 5699/ 58009 83820 85457=
84686 31960 03508 10148 20037 36870 70120
333   10212 58001=
84752 32960 00205 10136 21060 37541 70200
333   10207 58015=
84782 31460 82207 10123 20085 39651 40171 70220 885//
333   10190 58014 88615=
84628 34458 82902 10160 20135 30134 40150 71022 82601
333   10198 56609 58009 82710 86070=
84401 31960 41914 10221 20177 30094 40163 70200 84030
333   10283 56000 59002 84363=
84735 31960 01906 10098 21060 36442 70111
333   10178 58003=
84370 31560 8//// 10240 20211 30088 40120 70322 885//
333   10301 560// 58006 88625=
84691 31457 82206 10175 20133 30145 40152 71044 886//
333   10218 560// 58021 82712 88715=
84501 31356 11508 10165 20136 30111 40128 71044 81600
333   10196 560// 58002 81708=
84455 31460 60000 10270 20228 39800 40152 70222 83130
333   10335 56000 58020 83820 83357=
####018000113####
SMAA41 KPAL 100000
AAXX 10001 
89061 17964 02409  21158 39728 49735 52010 60034 70070
333   91011 91112=
####018000104####
SMCG01 FCBB 100000 RRA
AAXX 10004
64450 32957 03004 10214 20192 39767 40122
   333 0//00 59006=
####018000364####
SMPM01 MPTO 100000
78792 32460 83106 10288 20240 30063 40076 52003 84901 333
      066// 10325 20240 30/// 59016 81918 83818 86080=
78793 32460 82204 10280 20242 30044 56005 81107 333
      01/// 10312 20234 30/// 59014 81815 88280=
78795 32370 80000 10266 20247 39978 40078 57007 83460 333
      0080/ 10316 20226 30/// 59013 83610 85359=



####018000360####
SMPM01 MPTO 100000
78792 32460 83106 10288 20240 30063 40076 52003 84901 333
      066// 10325 20240 30/// 59016 81918 83818 86080=
78793 32460 82204 10280 20242 30044 56005 81107 333
      01/// 10312 20234 30/// 59014 81815 88280=
78795 32370 80000 10266 20247 39978 40078 57007 83460 333
      0080/ 10316 20226 30/// 59013 83610 85359=

####018000136####
SMBR01 TBPB 100000
AAXX 10004
78954 11470 81212 10280 20268 30080 40144 69901 71582 8892/ 333
10308 20249 58006 81910 87458 90934=####018000118####
SMAC01 KWNB 100000
OOXX
ACSAMS02 10001 99784 70729 26082 01301 46/// /2002 10013 20009 39912
90001 333 91214=
####018000875####
SMVD22 KWNB 100000 RRF
BBXX
46232 10001 99325 71174 46/// ///// 1//// 92354 22200 00186 11102
21001 320// 41101 70008=
46244 10001 99409 71244 46/// ///// 1//// 92350 22200 00108 10602
20602 323// 41201 70012=
46241 10001 99330 71173 46/// ///// 1//// 92338 22200 00185 11301
21001 323// 41301 70006=
46236 10001 99368 71219 46/// ///// 1//// 92350 22200 00131 11102
20701 322// 41101 70008=
46212 10001 99408 71243 46/// ///// 1//// 92351 22200 00107 10602
20602 70011=
46217 10001 99342 71194 46/// ///// 1//// 92351 22200 00172 11301
20401 319// 41301 70006=
46213 10001 99403 71247 46/// ///// 1//// 92350 22200 00124 10703
20702 317// 41401 70013=
46231 10001 99327 71174 46/// ///// 1//// 92342 22200 00186 11202
20901 319// 41201 70008=
46218 10001 99345 71208 46/// ///// 1//// 92343 22200 00146 11302
20802 317// 41301 70011=
####018000119####
SNVD15 KWNB 092300 RRW
BBXX
41038 09231 99341 70777 46/// /2208 10281 40095 56007 92300 22200
00273 333 91211=
####018000524####
SMVD15 KWNB 100000 RRE
BBXX
41141 10001 99177 70646 46/// ///// 1//// 92351 22200 00296 10603
20603 70014=
41140 10001 99178 70647 46/// ///// 1//// 92352 22200 00292 10602
20602 70008=
44235 10001 99473 70573 46/// ///// 1//// 92354 22200 00126 10603
20602 70013=
41110 10001 99341 70777 46/// ///// 1//// 92357 22200 00271 10302
20302 70008=
42099 10001 99273 70842 46/// ///// 1//// 92349 22200 00306 1//00
70002=
41113 10001 99284 70805 46/// ///// 1//// 92351 22200 00280 11101
20901 70003=
####018000244####
SMMH02 PKMR 100000
AAXX  10004
91369 32474 31705 10306 20272 30113 40116 83210 333 20261 5644/ 
58000 83815
82160 555 91000
91378 12474 60112 10317 20261 30114 30117 60044 82406 333 20300 
561/9 58009
84815 82680 70013 555 91000
####018000119####
SNVD15 KWNB 092200 RRX
BBXX
41038 09221 99341 70777 46/// /2108 10280 40094 56012 92200 22200
00274 333 91212=
####018000142####
SMVG01 TVSV 100000
AAXX 10004
78951 11470 70905 10261 20241 30126 40141 69931 70282 87842
333 01299 10305 20243 59005 70189 83818 85635=
####018000139####
SMBR01 TBPB 100000
AAXX 10004
78954 11470 81212 10280 20268 30080 40144 69901 71582 8892/ 333
10308 20249 58006 81910 87458 90934=
####018000244####
SMGY01 SYCJ 100000
AAXX 10000 
81001 NIL=
81002 11460 50901 10266 20245 40123 60001 71322 84903 10324 333 30///
59005 84819 85280 81921 CB SSW-WSW LTG SSW-SW=
81005 NIL=
81006 NIL=
81010 NIL=
81058 NIL=
81080 NIL=
81100 NIL=####018000158####
SMBA01 MYNN 100005
AAXX 10004
78073 11463 60000 10297 20277 40162 69951 71596 84933 333 0/999
10344 20250 58012 83915 83818 86075 90931=


NNNN
####018000247####
SMGY01 SYCJ 100000
AAXX 10000 
81001 NIL=
81002 11460 50901 10266 20245 40123 60001 71322 84903 10324 333 30///
59005 84819 85280 81921 CB SSW-WSW LTG SSW-SW=
81005 NIL=
81006 NIL=
81010 NIL=
81058 NIL=
81080 NIL=
81100 NIL=
####018000145####
SMVG01 TVSV 100000
AAXX 10004
78951 11470 70905 10261 20241 30126 40141 69931 70282 87842
333 01299 10305 20243 59005 70189 83818 85635=
####018000143####
SMVG01 TVSV 100000
AAXX 10004
78951 11470 70905 10261 20241 30126 40141 69931 70282 87842
333 01299 10305 20243 59005 70189 83818 85635=
####018000124####
SMVD02 CWAO 100000
BBXX
VOFG 10004 99692 70511 41/97 /2102 10099 20070 40080 50001 70200 80/// 22280 0//// 2//// =

####018000222####
SMVD17 KWNB 100000 RRB
BBXX
52201 10001 99071 11714 46/// ///// 1//// 92355 22200 00288 11302
20902 318// 41301 70012=
46239 10001 99363 71221 46/// ///// 1//// 92353 22200 00140 11302
20802 318// 41301 70010=
####018002469####
SMRO01 YRBK 100000
AAXX 10001
15015 02997 21601 10143 20125 39629 42842 57005 60001 82040 333 55106
60007
91002 91102=
15020 02597 23104 10191 20147 30004 40195 58004 60001 82500 333 55117
60007
91006 91107=
15090 02597 83003 10195 20160 30056 40178 50000 60001 8657/ 333 55300
10061
2//// 3//// 55106 01554 22638 30924 60007 91006 91108=
15108 01/91 92904 10076 20076 38166 48569 55000 60001 74544 333 55000
60007=
15120 02997 42302 10156 20156 39728 40213 54000 60001 84070 333 55300
10101
2//// 3//// 55067 01142 22070 30954 60007 91004 91104=
15150 02997 53404 10199 20151 39971 40188 52003 60001 85030 333 55083
60007
91007 91108=
15170 03/// /2601 10117 20117 39436 42828 57005 60001 333 4//// 55///
60007
91002 91102=
15200 02998 03601 10166 20148 30058 40199 56008 60001 333 55145 60007
91003
91103=
15230 02997 03101 10159 20156 39920 40207 54001 60001 333 55300 10157
2////
3//// 55064 01027 22028 30877 60007 91001 91102=
15260 02998 52603 10161 20144 39681 40203 57002 60001 85070 333 55061
60007
91005 91105=
15280 01/90 90218 10048 20048 37570 47129 56002 60021 74584 333 41998
55000
60007 91024=
15292 02998 01401 10158 20157 39916 40204 57003 60001 333 55119 60007
91001
91102=
15310 01597 73503 10194 20175 30072 40154 57003 60011 70292 84570 333
55300
10050 2//// 3//// 55039 00707 21414 31338 60007 91005 91106=
15335 01997 73302 10200 20187 30144 40151 57002 69961 70282 87070 333
55000
60007 91004 91105=
15346 02997 52100 10173 20149 39901 40182 54001 60001 85070 333 55129
60007
91001 91101=
15350 01597 70102 10225 20151 30051 40164 52002 60011 70282 83570 333
55020
60007 91008 91108=
15360 02997 73505 10209 20202 30118 40131 57004 60001 87070 222//
0//// 2////
333 55027 60007 91011 91111 92427=
15410 02997 00000 10179 20155 30087 40180 57002 60001 333 55112 60007
91001
91102=
15420 02997 32801 10169 20162 30069 40176 57005 60001 83040 333 55012
60007
91001 91102=
15450 02997 50402 10184 20147 39946 40174 57002 60001 82046 333 55300
10170
2//// 3//// 55110 01473 22681 30612 60007 91004 91105=
15460 01597 83301 10185 20178 30139 40163 55000 60061 70282 8657/ 333
55000
60007 91002 91105=
15470 03/// /2601 10177 20175 30050 40173 50000 60001 333 4//// 55///
60007
91002 91102=
15480 01597 83504 10202 20192 30125 40142 54001 69961 78098 889//
222// 0////
2//// 333 55005 69907 91007 91108 92437=
####018000158####
SMBA01 MYNN 100005
AAXX 10004
78073 11463 60000 10297 20277 40162 69951 71596 84933 333 0/999
10344 20250 58012 83915 83818 86075 90931=


NNNN
####018000245####
SMMH02 PKMR 100000
AAXX  10004
91369 32474 31705 10306 20272 30113 40116 83210 333 20261 5644/ 
58000 83815
82160 555 91000
91378 12474 60112 10317 20261 30114 30117 60044 82406 333 20300 
561/9 58009
84815 82680 70013 555 91000
####018001361####
SMFI02 EFKL 100000
AAXX 10001
02911 47982 01701 10140 20122 30150 40157 700// 90000=
02958 47999 02802 10170 20099 30057 40183 700// 90000=
02972 47970 01702 10173 20160 30125 40184 700// 90000=
02773 47968 01602 10170 20164 30173 40184 54000 70000 92339=
02790 47976 02202 10183 20167 30152 40179 54000 70000 92339=
02823 41560 81201 10131 20128 40137 52008 78182 889//=
02862 47162 71802 10148 20144 30135 40138 52003 70010 87/// 92339=
02873 47164 12204 10151 20147 30137 40146 54002 70000 81/// 92339=
02889 47581 72702 10152 20140 39884 40151 52008 70086 83/// 92339=
02907 46/// /2405 10157 20149 30142 40148 52005 92339=
02920 46/// /2305 10173 20149 30128 40151 54000 92339=
02957 47982 01904 10154 20129 30145 40156 54001 700//=
02964 47960 01804 10175 20171 30172 40177 54000 70000 92339=
02965 47973 00000 10117 20096 30092 40188 52007 70000 92339=
02967 47978 02704 10193 20177 30177 40183 52011 70000 92339=
02980 469// 02105 10180 20167 30169 40182 54002 92339=
02984 47134 12504 10174 20170 30182 40196 52004 71010 81/// 92339=
02987 46/// /2606 10175 20165 30166 40194 52007 92339=
02991 46/// /2605 10188 20159 30160 40192 52008 92339=
02992 46/// /2704 10192 20150 30185 40189 52009 92339=
02993 46/// /2206 10186 20146 30154 40172 54000 92339=
02863 NIL=
02910 NIL=
02979 NIL=
02988 NIL=
####018000117####
SMDL01 EDZW 100000 RRA
AAXX 10001
10004 46/50 /3103 10179 20165 30172 40172 51005
222// 00171
  333 55300=
####018002425####
SMRO01 YRBK 100000
AAXX 10001
15015 02997 21601 10143 20125 39629 42842 57005 60001 82040 333 55106
60007 91002 91102=
15020 02597 23104 10191 20147 30004 40195 58004 60001 82500 333 55117
60007 91006 91107=
15090 02597 83003 10195 20160 30056 40178 50000 60001 8657/ 333 55300
10061 2//// 3//// 55106 01554 22638 30924 60007 91006 91108=
15108 01/91 92904 10076 20076 38166 48569 55000 60001 74544 333 55000
60007=
15120 02997 42302 10156 20156 39728 40213 54000 60001 84070 333 55300
10101 2//// 3//// 55067 01142 22070 30954 60007 91004 91104=
15150 02997 53404 10199 20151 39971 40188 52003 60001 85030 333 55083
60007 91007 91108=
15170 03/// /2601 10117 20117 39436 42828 57005 60001 333 4//// 55///
60007 91002 91102=
15200 02998 03601 10166 20148 30058 40199 56008 60001 333 55145 60007
91003 91103=
15230 02997 03101 10159 20156 39920 40207 54001 60001 333 55300 10157
2//// 3//// 55064 01027 22028 30877 60007 91001 91102=
15260 02998 52603 10161 20144 39681 40203 57002 60001 85070 333 55061
60007 91005 91105=
15280 01/90 90218 10048 20048 37570 47129 56002 60021 74584 333 41998
55000 60007 91024=
15292 02998 01401 10158 20157 39916 40204 57003 60001 333 55119 60007
91001 91102=
15310 01597 73503 10194 20175 30072 40154 57003 60011 70292 84570 333
55300 10050 2//// 3//// 55039 00707 21414 31338 60007 91005 91106=
15335 01997 73302 10200 20187 30144 40151 57002 69961 70282 87070 333
55000 60007 91004 91105=
15346 02997 52100 10173 20149 39901 40182 54001 60001 85070 333 55129
60007 91001 91101=
15350 01597 70102 10225 20151 30051 40164 52002 60011 70282 83570 333
55020 60007 91008 91108=
15360 02997 73505 10209 20202 30118 40131 57004 60001 87070 222//
0//// 2//// 333 55027 60007 91011 91111 92427=
15410 02997 00000 10179 20155 30087 40180 57002 60001 333 55112 60007
91001 91102=
15420 02997 32801 10169 20162 30069 40176 57005 60001 83040 333 55012
60007 91001 91102=
15450 02997 50402 10184 20147 39946 40174 57002 60001 82046 333 55300
10170 2//// 3//// 55110 01473 22681 30612 60007 91004 91105=
15460 01597 83301 10185 20178 30139 40163 55000 60061 70282 8657/ 333
55000 60007 91002 91105=
15470 03/// /2601 10177 20175 30050 40173 50000 60001 333 4//// 55///
60007 91002 91102=
15480 01597 83504 10202 20192 30125 40142 54001 69961 78098 889//
222// 0//// 2//// 333 55005 69907 91007 91108 92437=
####018000115####
SMMC01 GMMC 100000 CCA
AAXX 10004
60230 12958 40506 10322 20148 40145 50002 60001 84080 92347
  333 84360=
####018000121####
SMMC01 GMMC 100000 CCB
AAXX 10004
60156 17250 60108 10216 20197 40181 57001 60001 71010 86600
  333 84605 83706=
####018000093####
SMVX81 EDZW 100000
BBXX
BSH02 10001 99542 10079 46/// /////
22200 00198 10301 70003=
####018000087####
SMVX81 EDZW 100000
BBXX
BSH05 10001 99550 10079 46/// /////
22200 11301 70003=
####018000197####
SMAY01 UGEE 100000
AAXX 10001
37682 32997 03602 10168 20156 38163 48526 52006=
37717 329// 00000 10162 20139 38109 48514 52002 555 10014=
37788 42999 00000 10244 20136 39134 40059 52002=
####018000244####
SMMH02 PKMR 100000
AAXX  10004
91369 32474 31705 10306 20272 30113 40116 83210 333 20261 5644/
58000 83815
82160 555 91000
91378 12474 60112 10317 20261 30114 30117 60044 82406 333 20300
561/9 58009
84815 82680 70013 555 91000=
####018000238####
SNHK22 VHHH 100000
AAXX 10001
45032 36/// /2501 10296 20246 30079 40094 52002=
45035 36/// /2203 10296 20260 30053 40093 52002=
45039 36/// /2104 10296 20250 30075 40090 54000=
45044 36/// /2502 10278 20265 30005 40095 54000=
####018000111####
SMBJ20 DBBB 100000
AAXX 10004
65338 33460 72204 10248 20241 39937 40126 875//
  333 0//00 58001 87611=
####018000157####
SMCS01 MROC 100000
AAXX 10004
78774 01670 82405 10281 20253 39990 40069 52003 60011 71566 83220
333 02240 10327 20225 31/// 59009 70008 83835 86464=
####018000241####
SNHK22 VHHH 100000
AAXX 10001
45032 36/// /2501 10296 20246 30079 40094 52002=
45035 36/// /2203 10296 20260 30053 40093 52002=
45039 36/// /2104 10296 20250 30075 40090 54000=
45044 36/// /2502 10278 20265 30005 40095 54000=

####018000127####
SNVD22 KWNB 092300 RRW
BBXX
46224 09231 99332 71175 46/// ///// 1//// 92316 22200 00178 11302
21001 320// 41301 70008=
####018000135####
SNAU45 AMMC 092300 CCA
AAXX 09234
94816 11684 80212 10120 20110 30054 40091 50003 60074 70262 88300
92330
  333 70072=


####018000115####
SIIN20 DEMS 092100 RRC
AAXX 09214
42071 31696 53607 10300 20240 49992 70522 83430
  333 59024 83640 84360=
####018000103####
SMMC01 GMMC 100000 CCC
AAXX 10004
60135 32450 31502 10201 20186 40179 50001 83500
  333 83615=
####018000354####
SMPM01 MPTO 100000
78792 32460 83106 10288 20240 30063 40076 52003 84901 333
      066// 10325 20240 30/// 59016 81918 83818 86080=
78793 32460 82204 10280 20242 30044 56005 81107 333
      01/// 10312 20234 30/// 59014 81815 88280=
78795 32370 80000 10266 20247 39978 40078 57007 83460 333
      0080/ 10316 20226 30/// 59013 83610 85359=
####018000328####
SMVD15 KWNB 100000 RRF
BBXX
41038 10001 99341 70777 46/// /2208 10280 40100 53003 90000 22200
00272 333 91211=
42003 10001 99260 70856 46/// /0000 10302 20227 40158 55000 92350
22200 00305 10501 3//// 40501 70004 333 91201 555 11003 22003
32317 40601 62349 033003 015003 059005 023006 006005 062003 80601
92317=
####018000124####
SMVD02 CWAO 100000
BBXX
CGTF 10004 99637 70685 46/// /1314 10075 20060 40065 51005 7//// 8//// 22200 0//// 2//// =

####018000124####
SMVD02 CWAO 100000
BBXX
CGDS 10004 99437 70817 46/// /3404 10219 20176 49924 55002 7//// 8//// 22200 0//// 2//// =

####018000121####
SMVD02 CWAO 100000
BBXX
V 10004 99476 70527 46/// /2314 10210 20181 40125 51010 7//// 8//// 22200 0//// 2//// =

####018000124####
SMVD02 CWAO 100000
BBXX
CGBR 10004 99529 71292 46/// /0603 10154 20119 40181 58001 7//// 8//// 22272 00139 2//// =

####018000126####
SMVD02 CWAO 100000
BBXX
CG2958 10004 99487 71235 46/// /1106 10269 20136 40145 56007 7//// 8//// 22200 0//// 2//// =

####018000126####
SMVD02 CWAO 100000
BBXX
VC6750 10004 99609 71157 46/// /0609 10164 20089 49947 55002 7//// 8//// 22200 0//// 2//// =

####018000124####
SMVD02 CWAO 100000
BBXX
CGHL 10004 99619 70657 46/// /3512 10010 20008 40058 51010 7//// 8//// 22222 0//// 2//// =

####018000126####
SMVD02 CWAO 100000
BBXX
CG2965 10004 99491 71235 46/// /3115 10246 20134 40135 58009 7//// 8//// 22241 00183 2//// =

####018000124####
SMVD02 CWAO 100000
BBXX
CGDP 10004 99507 71275 46/// /0908 10164 20110 40187 50196 7//// 8//// 22200 0//// 2//// =

####018000124####
SMVD02 CWAO 100000
BBXX
VOPP 10004 99452 70741 46/// /2804 10226 20217 40009 55001 7//// 8//// 22200 0//// 2//// =

####018000126####
SMVD02 CWAO 100000
BBXX
CG2992 10004 99694 71338 46/// /3114 10182 20079 40106 51003 7//// 8//// 22251 0//// 2//// =

####018000126####
SMVD02 CWAO 100000
BBXX
CG2350 10004 99421 70831 46/// /3603 10278 20113 49921 56001 7//// 8//// 22200 0//// 2//// =

####018000126####
SMVD02 CWAO 100000
BBXX
CG2522 10004 99619 71139 46/// /3115 10114 20067 49926 56007 7//// 8//// 22261 00088 2//// =

####018000125####
SMVD02 CWAO 100000
BBXX
VRYO3 10004 99514 10030 46/// /2217 10206 20149 40178 50000 7//// 8//// 22263 00202 2//// =

####018000127####
SMVD02 CWAO 100000
BBXX
CFN3031 10004 99463 70725 46/// /2205 10219 20204 40084 55003 7//// 8//// 22213 00252 2//// =

####018000124####
SMVD02 CWAO 100000
BBXX
CGDX 10004 99623 70703 46/// /1110 10052 20047 40053 54000 7//// 8//// 22252 00058 2//// =

####018000150####
SMBD01 WBSB 100000 CCA
AAXX 10004
96315 11470 71802 10258 20229 40120 60784 70296 81968
333 20226 55086 81815 81916 83364 85080=
96323 NIL=
####018000103####
SNAU56 AMMC 092300 RRB
AAXX 09234
94942 11/80 73601 10080 20080 69904 70322
  333 79999=


####018000101####
SIRA23 RUHB 092100 RRA
AAXX 09211
30741 09211 42998 30000 10137 20114 38691 48474 52011 80001=
####018000085####
SNPS40 AMMC 092300
AAXX 09234
91844 46/// /0808 10257 40186 22200 00252=


####018000103####
SITH43 VTBB 092100 RRD
AAXX 09214
48574 32560 60000 10248 20239 30056 40086 82136
  333 59007=
####018000103####
SITH42 VTBB 092100 RRB
AAXX 09214
48360 32962 50000 10260 20246 39801 40059 80006
  333 59005=
####018000119####
SMRE15 FMEE 100000
AAXX 10004
61996 16/// /2512 10121 20108 40241 69961
  333 59008 90710 91125
  555 60005=
####018000449####
SMRE01 FMEE 100000
AAXX 10004
61968 16/// /1004 10242 20213 40142 60021
  333 59011 90710 91113
  555 60005=
61970 16/// /1910 10246 20209 40167 6///1
  555 6///5=
61972 16/// /2304 10212 20184 40176 6///1
  555 6///5=
61980 12560 61413 10193 20160 40180 60021 85830
  333 59027 83820 84656 90710 91121 924/7
  555 69925=
67005 04/// /1807 10235 20210 30146 40154 56013 60001 700//
  333 60007 90710 91109
  555 60005=
####018001401####
SMIY02 LIIB 100000
AAXX 10004
16021 12965 03600 10156 20136 38101 48598 51001 60001=
16022 12970 00607 10154 20116 37980 48593 51002 60001=
16033 NIL=
16040 NIL=
16052 12962 02204 10078 21056 36792 47239 58005 60001=
16061 12965 01405 10236 20195 39393 42843 50002 60001=
16098 12960 00000 10226 20203 30154 40203 54002 60001=
16138 NIL=
16148 12970 02404 10211 20211 30187 40199 58004 60001=
16168 12967 00315 10248 20180 39481 42846 51001 60001=
16172 12962 00000 10204 20174 39912 40202 51006 60001=
16179 12982 00000 10226 20083 39550 42849 54000 60001=
16224 12960 00302 10228 20214 39879 40185 54000 60001=
16232 12998 02401 10238 20131 30143 40194 57005 60001 555 0////=
16245 12960 00403 10220 20196 30162 40187 58008 60001=
16253 12970 00503 10200 20187 30182 40194 52001 60001=
16258 12960 03308 10170 20030 39240 42838 5//// 60001=
16263 12970 00410 10162 20009 38982 48558 58001 60001=
16294 NIL=
16337 NIL=
16344 12962 00203 10120 20120 38377 48555 54000 60001 333 95000
      95100=
16434 NIL=
16450 12462 11704 10200 20200 39120 48603 50000 60001 81200 333
      81810=
16459 12963 02904 10214 20206 30150 40185 50001 60001=
16531 12970 02204 10209 20179 30190 40200 54000 60001=
16546 12162 20302 10238 20191 30161 40189 58003 60001 82600 333
      82703=
16564 12997 00906 10248 20217 30053 40190 58005 60001 555 0////=
####018000306####
SMCG01 FCBB 100000
AAXX 10004
64400 NIL=
AAXX 10003
64401 32460 61806 10213 20177 39761 40135 86500
  333 0//00 59005 86616=
AAXX 10004
64450 32957 03004 10214 20192 39767 40122
  333 0//00 59006=
AAXX 10003
64458 32960 00000 10222 20216 39722 40110
  333 0//00 58001=
64459 NIL=
####018000180####
SMCG01 FCBB 100000 RRB
AAXX 10003
64401 32460 61806 10213 20177 39761 40135 86500
  333 0//00 59005 86616=
64458 32960 00000 10222 20216 39722 40110
  333 0//00 58001=
####018001489####
SMIY01 LIIB 100000
AAXX 10004
16008 12962 00000 10170 20141 38630 48589 51008 60001=
16080 12960 00201 10255 30083 40202 51007 60001=
16084 11958 02505 10214 20214 30041 40203 54000 60001 71000=
16088 NIL=
16110 12997 00302 10234 20172 30198 40202 51000 60001 555 0////=
16120 16/// /0607 10264 20222 30193 40196 58003 60001=
16134 12984 00105 10160 20087 37941 48594 54000 60001=
16153 12998 00000 10262 20257 39950 40203 54000 60001 555 0////=
16158 12960 00000 10220 20217 30190 40197 54000 60001=
16206 12970 00206 10240 20211 30180 40188 51005 60001=
16219 NIL=
16230 12970 02102 10177 20149 30191 40204 56001 60001=
16252 12965 00000 10194 20058 39298 42851 54000 60001=
16270 32965 02306 10192 20158 30131 40195 57005=
16280 11996 03603 10236 20222 39978 40192 51001 60001 71000 555
      0////=
16310 12998 03002 10216 20159 39970 40185 54000 60001 555 0////=
16320 12960 03600 10238 20233 30170 40182 54000 60001 555 0////=
16325 12998 02706 10210 20184 30162 40175 52009 60001 333 98070 555
      0////=
16360 12998 03516 10210 20189 30043 40174 50000 60001 555 0////=
16400 NIL=
16420 12998 00000 10250 20211 30120 40183 50000 60001 555 0////=
16429 12962 00000 10266 20250 30180 40191 56001 60001=
16470 NIL=
16480 12997 02704 10240 20223 30119 40179 51003 60001 555 0////=
16522 12997 00505 10252 20202 39958 40192 54000 60001 555 0////=
16539 NIL=
16550 12998 02905 10246 20229 30010 40183 51006 60001 555 0////=
####018000899####
SMIY22 LIIB 100000
AAXX 10004
16020 36/// /0501 10227 20194 39933 40211 53010=
16045 NIL=
16059 NIL=
16066 12960 01001 10221 20202 39959 40211
52004 60001=
16090 12962 00504 10244 20241 30126 40205 51008 60001=
16105 12970 03102 10234 20189 30199 40205 50004 60001=
16149 12970 02002 10228 20228 30189 40205 51005 60001=
16170 32965 00702 10238 20191 30146 40197 53001=
16191 16/// /1803 10187 20150 30193 40205 52001 60001 ////=
16242 12960 00905 10221 20196 30185 40190 58004 60001=
16261 NIL=
16289 12960 00000 10216 20095 30105 40188 58003 60001=
16362 12960 00804 10178 20148 30173 40191 53006 60001=
16405 12970 00605 10251 20204 30180 40193
57002 60001 333=
16453 NIL=
16460 12960 02702 10215 20166 30167 40187 58001 60001=
16490 NIL=
16520 12970 01603 10222 20194 30168 40200 55000 60001=
16560 12965 01001 10238 20168 30186 40193 58004 60001 =
####018000433####
SMDL22 EDZW 100000 RRB
AAXX 10001
10006 46/// /3003 10179 20167 30164 40170 51007
222// 00176
  333 553//=
10007 46/58 /3007 10200 20178 30165 40165 51006
222// 00194
  333 55300=
10043 46/// /1506 10218 20207 30169 40171 56007
222// 0////
  333 553//=
10044 46/// /1604 10215 20176 30138 40168 56008
222// 00203
  333 55300=
10124 46/// /2107 10265 20174 30129 40165 52003
222// 00126
  333 55300=
####018000151####
SMDL23 EDZW 100000 CCA
AAXX 10001
10609 02982 02101 10209 20164 39882 40197 52004 60001
  333 30/// 55/// 22024 30892 55300 20000 30000 69907=
####018000109####
SNVD15 KWNB 092300 RRX
BBXX
44055 09231 99391 70753 46/// ///// 1//// 92330 22200 00250 10301
70004=
####018000452####
SMRE01 FMEE 100000
AAXX 10004
61968 16/// /1004 10242 20213 40142 60021
  333 59011 90710 91113
  555 60005=
61970 16/// /1910 10246 20209 40167 6///1
  555 6///5=
61972 16/// /2304 10212 20184 40176 6///1
  555 6///5=
61980 12560 61413 10193 20160 40180 60021 85830
  333 59027 83820 84656 90710 91121 924/7
  555 69925=
67005 04/// /1807 10235 20210 30146 40154 56013 60001 700//
  333 60007 90710 91109
  555 60005=

####018000123####
SMAA01 LFPW 100000
AAXX 10004
89642 42980 71902 11146 21176 39955 40012 51035 80002
  333 11145 21200 87069 91131=
####018000117####
SMSC01 FSIA 100000
AAXX 10004
63980 41480 31510 10258 20219 40099 70281 83200
  333 59009 83817 943// 91116=
####018003355####
SMUK42 EGRR 100000
AAXX 10004
03002 16478 /3013 10101 20080 30086 40104 51034 60071 92350 333 84/12=
03006 46/// /3011 92350=
03014 46/// /2715 10116 20097 40118 51027 92350 333 8////=
03031 16580 /2107 10104 20076 39824 40148 52013 60001 92350 333 55///
 21030 81/27 87/44=
03034 16676 /2008 10115 20101 30130 40143 51013 60001 92350 333 82/48
 86/71=
03037 15975 /2006 10114 20102 30124 40146 52008 60001 92350 333 88/69=
03039 46/// /2116 10067 20067 92350=
03044 15584 /2106 10101 20072 30042 40141 51017 60001 92350 333 55///
 20918 83/29=
03047 15981 /2201 10083 20076 39861 40163 52011 60001 92350 333 55///
 21115 87/61=
03065 46/// /3018 10031 20031 92350 333 90710 91126=
03068 12682 52304 10091 20073 30137 40146 52014 60001 81520 92350 333
 81645 85468=
03072 46/// /3008 10064 20039 92350=
03080 16969 /3401 10087 20075 39984 40155 52018 60001 92350 333 88/64=
03088 16680 /1208 10117 20110 39991 40152 51017 60001 92350 333 55///
 21268 81/37 88/63=
03092 46/// /2303 92350=
03094 15983 /1805 10093 20075 30140 40145 51021 60001 92350 333 88/66=
03105 17977 /1503 10113 20102 30110 40145 58001 69901 723// 92352
333 88/60=
03132 16440 /0303 10118 20118 30132 40145 50002 60051 92350 333 81/10
 87/47=
03144 15983 /2502 10115 20097 30116 40159 52013 60001 92350 333 55///
 20940 88/61=
03148 46/// /3202 10081 20064 92350=
03153 17259 /0207 10110 20110 30006 40143 58001 60081 762// 92350 333
 55/// 21003 81/03 86/26=
03155 16870 /1302 10105 20097 39862 40157 50007 60011 92350 333 88/57=
03158 17777 /2803 10121 20106 30021 40156 51010 69901 761// 92350 333
 55/// 21399 88/50=
03210 16345 /0406 10123 20123 39995 40144 58005 60061 92350 333 87/07=
03212 16432 /3301 10129 20129 30049 40147 58007 60041 92350 333 87/13=
03214 17261 /1609 10160 20160 30126 40144 56004 60051 723// 92350 333
 84/03 87/11=
03220 16250 ///// 10127 20123 30117 40151 57001 60071 92350 333 87/03
 86/09=
03224 17340 /0000 10116 20116 39811 40153 54000 60031 762// 92350
333 82/07=
03225 16324 /1705 10142 20139 39848 40147 58006 60051 92350 333 55///
 21521 87/07=
03226 17260 /1608 10150 20149 39876 40145 58006 60021 723// 92350 333
 88/05=
03227 46/// /2129 10123 20123 92350 333 90710 91134=
03230 16432 /3603 10120 20120 39904 40157 51004 60041 92350 333 86/15=
03238 17458 /0502 10136 20133 39979 40149 58002 69981 762// 92350 333
 88/18=
03261 16975 /1506 10155 20143 30118 40157 58001 60001 92350 333 87/61=
03265 16670 /1306 10159 20141 30116 40157 58001 60001 92352 333
83/42=
03266 16983 /1405 10161 20142 30141 40158 50001 60001 92350 333 81/62=
03275 15977 /1805 10157 20142 39966 40154 50000 69901 92350 333 88/60=
03281 16/// /2006 10149 20138 60001 92350=
03903 16865 /0701 10124 20115 30074 40131 56008 60041 92350 333 55///
 21241 88/57=
03904 17568 /0302 10126 20121 30074 40133 56004 69981 723// 92350 333
 81/21 87/58=
03908 16979 /1202 10122 20106 30135 40140 55001 69941 92350 333 88/59=
03911 16274 /1205 10105 20102 39870 40141 58003 60001 92350 333 82/03
 87/12=
03915 16682 /0805 10107 20094 30056 40134 58003 60031 92350 333 83/35
 87/56=
03916 16965 /1606 10102 20092 39957 40145 50000 60021 92350 333 55///
 21055 88/60=
03923 16113 /0706 10109 20107 39935 40129 58004 60101 92350 333 88/02=
####018004438####
SMUK43 EGRR 100000
AAXX 10004
03301 16361 /2022 10166 20163 30074 40145 58001 60081 92350 333 88/06
 90710 91129=
03305 17475 /2330 10171 20161 39896 40150 57002 60101 723// 92350 333
 83/10 83/17 90710 91140=
03313 16672 /1807 10185 20155 30059 40150 58001 60001 92350 333 83/44
 85/62 85/69=
03316 15684 /1816 10194 20163 30141 40152 54000 69901 92350 333 82/31
 86/50=
03318 16/// /1912 10181 20167 69961 92350=
03321 16572 /1509 10188 20159 30146 40158 52003 60001 92350 333 55///
 21398 86/26 83/33=
03330 15482 /2107 10158 20158 39820 40172 52004 60001 92350 333 84/14=
03344 15575 /1704 10163 20146 39849 40158 58001 69901 92350 333 81/29
 86/61=
03348 15981 /1909 10178 20151 30059 40163 52006 60001 92350 333 55///
 21613 82/62 84/73=
03355 15973 /1505 10158 20144 30149 40159 51003 60001 92350 333 55///
 21688 85/59=
03373 16977 /2208 10175 20144 30090 40169 51007 60001 92350 333
8//99=
03379 16981 /2506 10170 20144 30096 40171 51008 60001 92350 333 8//99=
03382 15966 /1305 10156 20156 30154 40162 51008 60001 92350 333 55///
 22297 8//99=
03385 16969 /2304 30157 51010 6///1 92350 333 8//99=
03391 12980 12506 10175 20140 30163 40170 51011 60001 80001 92350 333
 81080=
03392 16965 /2106 10158 20141 30167 40170 51012 60001 92350 333 8//99=
03405 16257 /1922 10152 20152 30042 40156 51001 69961 92350 333 55///
 20806 88/03 90710 91131=
03410 16574 /2112 10154 20149 39738 40162 51002 69961 92350 333 55///
 21177 81/20 87/28=
03453 16976 /2405 10169 20137 30011 40173 51010 60001 92350 333 8//99=
03469 15983 /2207 10155 20147 30169 40173 51012 69901 92350 333 55///
 22621 8//99=
03488 15982 /2208 10174 20150 30147 40172 51012 60001 92350 333 8//99=
03503 17480 /1606 10176 20163 30091 40166 50001 69901 723// 92350 333
 84/16 85/23=
03507 17371 /2113 10158 20155 39813 40175 51001 69941 723// 92350 333
 83/07 85/20=
03520 16567 /2305 10182 20160 30058 40175 52004 60001 92350 333 55///
 21760 88/23=
03522 15575 /2701 10186 20157 30088 40178 51003 60001 92350 333 88/24=
03529 15979 /1804 10166 20138 30141 40183 51007 60001 92350 333 8//99=
03544 15981 /2103 10170 20139 30051 40178 51010 60001 92350 333 55///
 22683 8//99=
03560 15984 /2505 10179 20148 30079 40180 51012 60001 92350 333 55///
 22756 8//99=
03604 16364 /1913 10169 20165 30113 40166 50000 60001 92350 333 87/07=
03605 16459 /2019 10175 20173 30160 40174 51002 60001 92350 333
84/13 87/47=
03609 16/// /2116 10175 20168 30132 40183 50001 60001 92350=
03628 15682 /2403 10186 20158 30114 40184 51005 60001 92350 333 55///
 22658 87/33=
03658 16580 /2203 10183 20150 30118 40186 51012 60001 92350 333 87/27=
03660 15984 /3004 10174 20148 39945 40187 51011 60001 92350 333 8//99=
03672 12780 12405 10198 20161 30145 40184 51013 60001 81501 92350 333
 81650=
03684 15980 /3006 10186 20147 30075 40178 51013 60001 92350 333 8//99=
03693 16978 /2506 10201 20161 30176 40178 51011 60001 92350 333 8//99=
03707 15481 /1909 10181 20158 30178 40186 51005 60001 92350 333 87/18=
03710 16468 /2305 10155 20155 39779 40190 51004 60001 92350 333 55///
 21468 84/19 83/30=
03743 16983 /2502 10167 20148 30031 40188 51006 60001 92350 333 8//99=
03749 16966 /1803 10165 20154 30082 40187 51009 60001 92350 333 8//99=
03761 15971 /2307 10170 20157 30048 40188 51010 60001 92350 333 55///
 22627 8//99=
03768 16967 /2502 10171 20151 30111 40189 51012 60001 92350 333 8//99=
03769 15969 /2701 10158 20143 30108 40188 51010 60001 92350 333 55///
 22649 8//99=
03770 16/// ///// 10205 20160 60001 92350=
03781 15982 /2306 10178 20148 39987 40188 51009 60001 92350 333 55///
 22701 8//99=
03784 46/// /2406 10196 20152 30176 40180 51013 92350=
03797 15984 /2107 10180 20136 30124 40182 52008 60001 92350 333 55///
 22634 8//99=
03823 16259 /1905 10162 20162 39952 40189 51005 60001 92350 333 55///
 20743 87/04=
03839 16/// ///// 10171 20165 60001 92350 333 55/// 22590=
03857 16963 /2512 10164 20164 30134 40196 51006 60001 92350 333 8//99=
03862 15974 /2503 10169 20159 30180 40192 51006 60001 92350 333 55///
 22649 8//99=
03866 16/// /2608 10168 20166 30171 40195 51004 60001 92350=
03872 16969 /2707 10174 20165 30188 40193 51008 60001 92350 333 55///
 22826 8//99=
03876 16/// /3003 10164 20157 30188 40191 51006 60001 92350=
03895 41257 30000 10154 20154 40209 50002 71011 83600 333 83703=
####018001097####
SNAA01 KARS 092200 RRD
AAXX 0922/
89768 46/// ///// 11306 38676 4//// 5//// 92210=
89768 46/// ///// 11306 38676 4//// 5//// 92220=
89377 46/// ///// 11330 39750 4//// 5//// 92220=
89869 46/// ///// 11291 39737 4//// 5//// 92210=
89866 46/// ///// 11221 39675 4//// 5//// 92210=
89864 46/// ///// 11253 39692 4//// 5//// 92210=
89376 46/// ///// 11394 39699 4//// 5//// 92220=
89324 46/// ///// 11330 37908 4//// 5//// 92210=
89324 46/// ///// 11326 37904 4//// 5//// 92220=
89329 46/// ///// 11328 38533 4//// 5//// 92210=
89329 46/// ///// 11326 38531 4//// 5//// 92220=
89799 46/// ///// 11616 4//// 5//// 92210=
89799 46/// ///// 11619 4//// 5//// 92220=
89868 46/// ///// 11330 39730 4//// 5//// 92210=
89332 46/// ///// 11358 38982 4//// 5//// 92220=
89769 46/// ///// 11286 39748 4//// 5//// 92210=
89314 46/// ///// 11324 38037 4//// 5//// 92210=
89314 46/// ///// 11326 38035 4//// 5//// 92220=
89828 46/// ///// 11679 36501 4//// 5//// 92220=
89108 46/// ///// 11624 36896 4//// 5//// 92210=
89108 46/// ///// 11624 36898 4//// 5//// 92220=
####018000140####
SMBX01 EBBR 100000
AAXX 10001
06407 12875 42303 10169 20132 30186 40192 51005 60001 84531
333 70000 84657 91106 91205=
06447 NIL=
####018000678####
SMNL10 EHDB 100000
AAXX 10001
06206 45983 82105 10190 20139 30121 40173 50003 8//// 
333 84/70 88/82 91005 91106 91205=
06207 45960 42503 10189 20160 30124 40176 53003 8//// 
333 84/69 91003 91107 91206=
06239 45977 22706 10179 20148 30124 40182 52005 8//// 
333 82/69 91007 91109 91208=
06252 46/// /2007 10175 20135 30136 40172 50000 222// 00154 10401
333 91008 91108 91207=
06260 15964 11301 10186 20165 30177 40179 50004 60001 8//// 
333 81/80 91001 91104 91203=
06270 17912 12601 10173 20165 30178 40178 52004 60001 71011 8//// 
333 81/62 91001 91106 91204=
06290 15971 70000 10193 20166 30138 40176 50004 60001 8//// 
333 87/61 91000 91105 91202=
####018000153####
SMMF01 TFFR 100000
AAXX 10004
78897 11570 70703 10252 20219 40159 50013 60031 70186 8587/
  333 023// 10322 20248 58003 70032 83823 85656 85361=
####018000139####
SMGD01 TGPY 100000
AAXX 10004
78958 11462 81108 10275 20249 30119 40129 69971 70682 84802
333 0/209 10301 20227 59004 84818 87076=
####018000514####
SMBX21 EBBR 100000
AAXX 10001
06431 NIL=
06432 NIL=
06449 12980 32201 10235 20171 39973 40189 52002 60001 81032
333 70000 81360 83070 91106 91204=
06450 15969 02501 10210 20169 30172 40187 52006 60001
333 79999 91106 91204=
06452 NIL=
06458 35977 /0000 10243 20163 30040 40185 51004
  333 91107 91205=
06463 NIL=
06465 NIL=
06470 NIL=
06473 NIL=
06478 12980 51901 10247 20167 39980 40187 51004 60001 84031
333 79999 84362 84070 91106 91203=
06480 NIL=
06481 NIL=
06496 NIL=
####018000435####
SMBX20 EBBR 100000
AAXX 10001
06400 NIL=
06408 NIL=
06428 NIL=
06451 12968 21601 10203 20180 30123 40188 51002 60001 82030
333 70000 82366 91108 91204=
06456 NIL=
06476 15982 01501 10189 20137 39566 40202 54001 60001
333 70000 91105 91203=
06479 NIL=
06490 15982 01902 10213 20155 39656 40199 51003 60001
333 7//// 87/60 91105 91203=
06590 12980 03102 10223 20152 39763 40194 50002 60001
333 91105 91203=
####018000685####
SMNL10 EHDB 100000
AAXX 10001
06206 45983 82105 10190 20139 30121 40173 50003 8//// 
333 84/70 88/82 91005 91106 91205=
06207 45960 42503 10189 20160 30124 40176 53003 8//// 
333 84/69 91003 91107 91206=
06239 45977 22706 10179 20148 30124 40182 52005 8//// 
333 82/69 91007 91109 91208=
06252 46/// /2007 10175 20135 30136 40172 50000 222// 00154 10401
333 91008 91108 91207=
06260 15964 11301 10186 20165 30177 40179 50004 60001 8//// 
333 81/80 91001 91104 91203=
06270 17912 12601 10173 20165 30178 40178 52004 60001 71011 8//// 
333 81/62 91001 91106 91204=
06290 15971 70000 10193 20166 30138 40176 50004 60001 8//// 
333 87/61 91000 91105 91202=
####018000126####
SMVD02 CWAO 100000
BBXX
CG2960 10004 99432 70792 46/// /2403 10234 20217 40010 53001 7//// 8//// 22200 0//// 2//// =

####018000124####
SMVD02 CWAO 100000
BBXX
VCLM 10004 99467 70718 46/// /1402 10229 20214 40073 56012 7//// 8//// 22262 00252 2//// =

####018000897####
SMIY22 LIIB 100000
AAXX 10004
16020 36/// /0501 10227 20194 39933 40211 53010=
16045 NIL=
16059 NIL=
16066 12960 01001 10221 20202 39959 40211
52004 60001=
16090 12962 00504 10244 20241 30126 40205 51008 60001=
16105 12970 03102 10234 20189 30199 40205 50004 60001=
16149 12970 02002 10228 20228 30189 40205 51005 60001=
16170 32965 00702 10238 20191 30146 40197 53001=
16191 16/// /1803 10187 20150 30193 40205 52001 60001 ////=
16242 12960 00905 10221 20196 30185 40190 58004 60001=
16261 NIL=
16289 12960 00000 10216 20095 30105 40188 58003 60001=
16362 12960 00804 10178 20148 30173 40191 53006 60001=
16405 12970 00605 10251 20204 30180 40193
57002 60001 333=
16453 NIL=
16460 12960 02702 10215 20166 30167 40187 58001 60001=
16490 NIL=
16520 12970 01603 10222 20194 30168 40200 55000 60001=
16560 12965 01001 10238 20168 30186 40193 58004 60001 =
####018001398####
SMIY02 LIIB 100000
AAXX 10004
16021 12965 03600 10156 20136 38101 48598 51001 60001=
16022 12970 00607 10154 20116 37980 48593 51002 60001=
16033 NIL=
16040 NIL=
16052 12962 02204 10078 21056 36792 47239 58005 60001=
16061 12965 01405 10236 20195 39393 42843 50002 60001=
16098 12960 00000 10226 20203 30154 40203 54002 60001=
16138 NIL=
16148 12970 02404 10211 20211 30187 40199 58004 60001=
16168 12967 00315 10248 20180 39481 42846 51001 60001=
16172 12962 00000 10204 20174 39912 40202 51006 60001=
16179 12982 00000 10226 20083 39550 42849 54000 60001=
16224 12960 00302 10228 20214 39879 40185 54000 60001=
16232 12998 02401 10238 20131 30143 40194 57005 60001 555 0////=
16245 12960 00403 10220 20196 30162 40187 58008 60001=
16253 12970 00503 10200 20187 30182 40194 52001 60001=
16258 12960 03308 10170 20030 39240 42838 5//// 60001=
16263 12970 00410 10162 20009 38982 48558 58001 60001=
16294 NIL=
16337 NIL=
16344 12962 00203 10120 20120 38377 48555 54000 60001 333 95000
      95100=
16434 NIL=
16450 12462 11704 10200 20200 39120 48603 50000 60001 81200 333
      81810=
16459 12963 02904 10214 20206 30150 40185 50001 60001=
16531 12970 02204 10209 20179 30190 40200 54000 60001=
16546 12162 20302 10238 20191 30161 40189 58003 60001 82600 333
      82703=
16564 12997 00906 10248 20217 30053 40190 58005 60001 555 0////=
####018001487####
SMIY01 LIIB 100000
AAXX 10004
16008 12962 00000 10170 20141 38630 48589 51008 60001=
16080 12960 00201 10255 30083 40202 51007 60001=
16084 11958 02505 10214 20214 30041 40203 54000 60001 71000=
16088 NIL=
16110 12997 00302 10234 20172 30198 40202 51000 60001 555 0////=
16120 16/// /0607 10264 20222 30193 40196 58003 60001=
16134 12984 00105 10160 20087 37941 48594 54000 60001=
16153 12998 00000 10262 20257 39950 40203 54000 60001 555 0////=
16158 12960 00000 10220 20217 30190 40197 54000 60001=
16206 12970 00206 10240 20211 30180 40188 51005 60001=
16219 NIL=
16230 12970 02102 10177 20149 30191 40204 56001 60001=
16252 12965 00000 10194 20058 39298 42851 54000 60001=
16270 32965 02306 10192 20158 30131 40195 57005=
16280 11996 03603 10236 20222 39978 40192 51001 60001 71000 555
      0////=
16310 12998 03002 10216 20159 39970 40185 54000 60001 555 0////=
16320 12960 03600 10238 20233 30170 40182 54000 60001 555 0////=
16325 12998 02706 10210 20184 30162 40175 52009 60001 333 98070 555
      0////=
16360 12998 03516 10210 20189 30043 40174 50000 60001 555 0////=
16400 NIL=
16420 12998 00000 10250 20211 30120 40183 50000 60001 555 0////=
16429 12962 00000 10266 20250 30180 40191 56001 60001=
16470 NIL=
16480 12997 02704 10240 20223 30119 40179 51003 60001 555 0////=
16522 12997 00505 10252 20202 39958 40192 54000 60001 555 0////=
16539 NIL=
16550 12998 02905 10246 20229 30010 40183 51006 60001 555 0////=
####018000152####
SMHK01 VHHH 100000
AAXX  10001
45007 11477 72404 10301 20256 30086 40095 53010 60022
70382 84231  333  20278 58006 70015 81815 83825 85080 =

####018000149####
SMHK01 VHHH 100000
AAXX  10001
45007 11477 72404 10301 20256 30086 40095 53010 60022
70382 84231  333  20278 58006 70015 81815 83825 85080 =
####018000123####
SMFG01 SOCA 100000
AAXX 10004
81415 06/// /0000 10243 20234 30014 40135 60001
 333 10331 60007 58004
 555 60005=
####018000109####
SNAU44 AMMC 092300 CCC
AAXX 09234
94669 11/70 /0508 10110 20100 60034 70322 92330
  333 70034=


####018000849####
SMNC01 NWBB 100000
AAXX 10004
91573 06/// /1806 10248 20205 30071 40169 50002 60041
  333 10248 58003 60007=
91577 06/// /2008 10251 20190 30143 40164 50003 69984
  333 20191 58005 69987
  555 60005=
91579 06/// /2808 10265 20186 30141 40149 58004 60001
  333 10269 59014 60007=
91582 04570 /3006 10261 20180 30115 40147 58005 69921 700//
  333 60007 90710 91114
  555 60005=
91583 06/// /2702 10234 20193 30142 40157 50000 60011
  333 10253 59008 60007=
91587 06/// /3408 10263 20194 30100 40145 58004 60001
  333 10263 59020 60007=
91590 04486 80303 10196 20184 30119 40162 50006 60074 700//
  333 20180 58003 60077
  555 60025=
91592 06/// /3310 10199 20186 30072 40153 50001 60114
  333 20180 59005 60117
  555 60005=
91596 06/// /2712 10221 20166 30033 40142 58011 60001
  333 10223 59024 60007=
####018000131####
SMNC02 NWBB 100000
AAXX 10004
91574 46/// ///// 10238 20191 30187 40193 51142
  333 20227 59037=
91570 NIL=
91598 NIL=
####018000119####
SMIE01 EIDB 100000 CCA
AAXX 10001
03955 11116 92108 10158 20158 39932 40124 51008 60041 75165
333 89/02 96028=
####018001012####
SMIE01 EIDB 100000
AAXX 10001
03951 17221 /2107 10145 20145 30096 40121 52006 60031 71086 88///
333 81/04 88/16=
03953 11365 80402 10148 20145 30079 40115 51013 60011 70262 886//
333 88706 92427=
03955 11116 92108 10158 20158 39932 40124 51008 60041 75065
333 89/02 96028=
03956 17220 /2106 10167 20162 30072 40135 57002 69921 75285 88///
333 88/03=
03962 11156 83302 10131 20128 30092 40115 52007 60011 75165 886//
333 81702 86704 87710=
03963 17967 /0301 10125 20117 30099 40127 50004 60051 72265=
03966 17258 /0402 10130 20129 30024 40115 50001 60101 78186 88///
333 88/03=
03967 11456 82106 10174 20166 30003 40113 56007 60101 75865 885//
333 85711 87630=
03969 11264 82205 10172 20166 30014 40115 56012 60091 72065 886//
333 82705 83709 87715=
03973 16/// /3602 10102 20101 39881 40133 52003 60061=
03976 32482 70301 10129 20116 30126 40138 55000 8653/
333 83718 85640 85359=
03980 17682 /1204 10135 20110 30116 40141 58001 69901 7225/ 87///
333 81/31 87/40=
####018000127####
SMAA01 RJTD 100000
AAXX 10004
89532 41/05 80826 11164 21195 39717 49745 55008
73831 885// 333 00740 11162 21194 92951=
####018000264####
SMLC01 TLPL 100000
AAXX 10004
78948 11474 70607 10266 20228 30134 40142 60001 71522 8483/
333 0229 10305 20254 59001 70205 81918 84640 85358=
78947 11580 61205 10271 20229 30146 40149 69901 70182 84472
333 02339 10314 20247 58002 70104 83824 83078 90934=####018000267####
SMLC01 TLPL 100000
AAXX 10004
78948 11474 70607 10266 20228 30134 40142 60001 71522 8483/
333 0229 10305 20254 59001 70205 81918 84640 85358=
78947 11580 61205 10271 20229 30146 40149 69901 70182 84472
333 02339 10314 20247 58002 70104 83824 83078 90934=
####018000991####
SMOS01 LOWM 100000
AAXX 10001
11010 36/82 /9901 10195 20132 39850 40212 52002 333 55///=
11012 36/// /2502 10176 20143 39763 40215=
11022 36/// /0303 10207 20119 39842 40215=
11035 32970 00501 10180 20128 39970 40214 58001=
11036 32982 01703 10154 20127 30003 40222 50001 333 55154=
11101 36/// /1801 10210 20168 39697 40198=
11120 36/83 /9901 10205 20167 39536 40212 52007 333 55129=
11126 46/// /3403 10149 20070 37868 48591=
11130 36/// /2301 10188 20163 39646 40212=
11146 NIL=
11150 36/82 /9901 10176 20148 39692 40215 52003 333 55///=
11155 36/// /0000 10180 20031 38468 48588=
11157 32975 02401 10147 20131 39484 40233 51007=
11172 NIL=
11190 32970 03403 10174 20135 39991 40217=
11204 36/// /3501 10185 20154 39463 40220=
11212 NIL=
11231 36/80 /3002 10190 20156 39671 40221 52007 333 55139=
11240 36/81 /0000 10186 20142 39800 40224 52002 333 55///=
11244 36/// /3601 10156 20138 39905 40238=
11389 36/// /1701 10161 20144 39903 40209=
####018000509####
SMKA02 PTKK 100000
AAXX 10004
91336 32474 80808 10294 20239 30159 40132 82101 333 562/9 58007 
82818 88075 555 91000 
91324 32474 80906 10289 20243 30119 40121 82231 333 56299 59006 
82818 86363 555 91000 
91339 11474 80805 10300 20289 30105 40115 60024 70282 84202 333 
562/9 58007 84818 88075 555 91000 90/75
91320 32474 80508 10311 20267 30132 40137 83101 333 561/9 59010 
83814 85075 555 91000 
91329 32474 80408 10289 20261 30159 40162 8911/ 333 56199 59004 
85818 88462 555 91000
####018000137####
SMBH01 MZBZ 100000
AAXX 10004
78583 32570 70808 10299 20260 40119 60001 85838 333
01234 10310 20222 58024 70730 83822 83359 87276=
####018000115####
SIIN20 DEMS 092100 RRD
AAXX 09214
42182 31695 40000 10324 20286 49990 71022 82530
  333 59030 82640 83360=
####018000302####
SMMJ01 MJSK 100000
AAXX 10001
13586 32870 20000 10169 20127 39916 40198 58007 82030 82359=
13493 NIL=
13577 NIL=
13578 NIL=
13579 32970 02802 10132 20098 39391 40212 57003=
13583 42998 00000 10146 20123 39513 40188 58003=
13591 42998 03401 10180 20127 39804 40182 50000=
13592 NIL=
####018000679####
SMNL10 EHDB 100000
AAXX 10001
06206 45983 82105 10190 20139 30121 40173 50003 8////
333 84/70 88/82 91005 91106 91205=
06207 45960 42503 10189 20160 30124 40176 53003 8////
333 84/69 91003 91107 91206=
06239 45977 22706 10179 20148 30124 40182 52005 8////
333 82/69 91007 91109 91208=
06252 46/// /2007 10175 20135 30136 40172 50000 222// 00154 10401
333 91008 91108 91207=
06260 15964 11301 10186 20165 30177 40179 50004 60001 8////
333 81/80 91001 91104 91203=
06270 17912 12601 10173 20165 30178 40178 52004 60001 71011 8////
333 81/62 91001 91106 91204=
06290 15971 70000 10193 20166 30138 40176 50004 60001 8////
333 87/61 91000 91105 91202=
####018000944####
SMUR10 UKMS 100000
AAXX 10001
33135 32997 13504 10184 20148 30011 40182 58005 80001=
33317 NIL=
33345 32998 03203 10200 20174 39985 40180 58007=
33393 32960 23101 10138 20129 39847 40229 58002 80001=
33506 32997 73603 10235 20188 39949 40134 58009 87030=
33587 32961 00202 10192 20164 39916 40166 58003=
33631 32997 03601 10150 20132 30076 40217 58006=
33663 NIL=
33658 32697 63103 10185 20149 39921 40208 57005 83330 333
83933=
33711 /1596 83203 10189 20184 39948 40148 53002 79598 8697/
333 86930 555 60211=
33791 /1997 80000 10199 20194 39986 40129 57011 70298 8805/
555 60171=
33837 NIL=
33924 NIL=
33946 31250 80703 10204 20197 39903 40111 58004 71022 886//
333 88704=
34300 32997 53503 10236 20184 39951 40130 57008 85030=
34504 /1997 61502 10208 20197 39959 40127 57008 70282 86030
555 69931=
34519 /1260 73501 10200 20186 39881 40142 52010 78082 87900
333 85706 555 60021=
34601 NIL=
####018000139####
SMBH01 MZBZ 100000
AAXX 10004
78583 32570 70808 10299 20260 40119 60001 85838 333
01234 10310 20222 58024 70730 83822 83359 87276=
####018000250####
SMSO01 AGGG 100000
AAXX 10004

91503 31480 60906 10300 20257 40127 51009 70522 82956

333      20226 56999 58012 82818 81919 86279 =

91517  11470 30507 10309 20238 40119 52005 69924 70500 81208

333     20238 56200 81818 83280 =
####018000154####
SMNO26 ENMI 100000 RRA
AAXX 10001
01476 16/// /0000 10156 20140 30163 40169 58005 6//// 333 91110=
01488 16/// /1401 10150 20117 60001 333 91107=
####018000154####
SMNO23 ENMI 100000 RRA
AAXX 10001
01180 16/// /1901 10120 20077 30084 40140 58006 69931 333 91106=
01450 16/// /2008 10105 20066 60021 333 91112=
####018000179####
SMNO24 ENMI 100000 RRA
AAXX 10001
01262 46/// /1008 10138 20092 333 91109=
01436 16/// /0605 10170 20127 6//// 333 91109=
01471 16/// /1002 10171 20090 60001 333 91105=
####018000233####
SMSO01 AMMC 100000
AAXX 10004
91503 31480 60906 10300 20257 40127 51009 70522 82956
  333 20226 56999 58012 82818 81919 86279=
91517 11470 30507 10309 20238 40119 52005 69924 70500 81208
  333 20238 56200 81818 83280=

####018000124####
SMVD02 CWAO 100000
BBXX
VOLG 10004 99444 70633 46/// /2120 10188 20188 40170 53006 7//// 8//// 22231 0//// 2//// =

####018000234####
SMSO01 AGGG 100000
AAXX 10004

91503 31480 60906 10300 20257 40127 51009 70522 82956

333      20226 56999 58012 82818 81919 86279 =

91517  11470 30507 10309 20238 40119 52005 69924 70500 81208

333     20238 56200 81818 83280 =
####018000510####
SMKA02 PTKK 100000
AAXX 10004
91336 32474 80808 10294 20239 30159 40132 82101 333 562/9 58007 
82818 88075 555 91000 
91324 32474 80906 10289 20243 30119 40121 82231 333 56299 59006 
82818 86363 555 91000 
91339 11474 80805 10300 20289 30105 40115 60024 70282 84202 333 
562/9 58007 84818 88075 555 91000 90/75
91320 32474 80508 10311 20267 30132 40137 83101 333 561/9 59010 
83814 85075 555 91000 
91329 32474 80408 10289 20261 30159 40162 8911/ 333 56199 59004 
85818 88462 555 91000
####018000230####
SMSO01 AMMC 100000
AAXX 10004
91503 31480 60906 10300 20257 40127 51009 70522 82956
  333 20226 56999 58012 82818 81919 86279=
91517 11470 30507 10309 20238 40119 52005 69924 70500 81208
  333 20238 56200 81818 83280=
####018000258####
SMGB01 GBYD 100000
AAXX 10003

61701 32460 42904 10273 20247 40132 83502 333 59010 83611=

61705 NIL=

61707 NIL=

61711 NIL=

61712 NIL=

61717 NIL=

61720 NIL=

61721 NIL=

61722 NIL=

61731 NIL=

61733 NIL=
####018000099####
SMMJ40 MJSK 100000
AAXX 10001
13492 NIL=
13584 NIL=
13585 NIL=
13597 NIL=
13598 NIL=
####018000835####
SMEO10 EEMH 100000
AAXX 10001
26038 21/62 11801 10154 20141 30161 40201 50002 70200 80001
 333  10237 20153 60007 80///
 555  1/014 20153 3/014 50203 52012=
26045 27/79 /2102 10142 20124 30198 40200 52005 70000
 333  10247 20138 60007
 555  1/014 20138 3/014 50207=
26058 27/83 02603 10198 20149 30191 40198 51006 70000 80///
 333  10247 20194 60007 80/// 91109
 555  1/018 20194 3/017 50215 52017=
26115 27980 12102 10187 20173 30189 40197 54000 70000 81///
 333  10224 20186 60007 81/72
 555  1/018 20186 3/018 50197=
26135 27/72 /2301 10154 20139 30134 40207 54001 70000
 333  10272 20151 60007
 555  1/015 20151 3/015 50214 52012=
26242 21/71 02301 10169 20150 30129 40213 52006 70200
 333  10272 20167 60007 80///
 555  1/017 20167 3/017 50211 52014=
26141 NIL=
26231 NIL=
26247 NIL=
####018000165####
SMEO10 EEMH 100000 RRA
AAXX 10001
26141 21/81 02602 10148 20129 30061 40206 52006 70200
 333  10259 20146 60007 80///
 555  1/014 20146 3/014 50203 52012=
####018000159####
SMEO10 EEMH 100000 RRA
AAXX 10001
26231 21/64 02202 10160 20152 30196 40210 54001 70200
 333  10256 20157 60007 80///
 555  1/014 20157 3/014 50210=
####018000148####
SMNR01 DRRN 100000
AAXX 10004
61052 11625 80620 10228 20216 39876 40130  60081 79596 8297/
  333 0//21 58031 82940 88463  94952 95870=
?=
####018000153####
SMEO10 EEMH 100000 RRA
AAXX 10001
26247 27/62 /2600 10150 20140 30140 40219 52006 70000
 333  10268 20150 60007
 555  1/016 20150 3/016 50207=
####018000175####
SMPF80 KWBC 100000
AAXX 10004
91925 01475 70916 10264 20218 30061 40121 56018 60204 70182 86802
333 20230 56206 58007 60007 82816 85821 90710 91129 555 60005
10729=
####018000109####
SMAA01 KWBC 100000
AAXX 10001
89061 17964 02409 21158 39728 49735 52010 60034 70070 333 91011
91112=
####018000095####
SMKA02 PTKR 100000
SSMK2
KAYNGEL KAYP4 CLOUDY 7SM NORTHEAST 04KT 02FT 10SEC T0272 TID2.6=
####018000268####
SMTD01 TTPP 100000
AAXX 10004
78970 11272 70000 10257 20247 30097 40122 69941 70562 82878
333 02299 10320 20251 59001 81705 85359 87075 90935=
78962 11466 71114 10275 20236 30124 40132 60021 70286 82833
333 01299 10305 20247 59004 82818 83359 85076 90924=
####018001109####
SMUK01 EGRR 100000 RRA
AAXX 10004
03023 15979 /2408 10120 20101 30130 40135 51009 60001 92350 333 8//99=
03066 15987 /2205 10108 20077 30140 40146 52015 60001 92350 333 55///
 20775 87/67=
03162 17545 /3504 10111 20108 39873 40156 50001 60031 762// 92350 333
 55/// 21005 82/20 86/32=
03257 15668 /1506 10174 20148 30115 40154 58001 69901 92350 333 55///
 21784 87/37 83/61=
03302 17359 /1823 10163 20157 30128 40140 58001 60081 710// 92350 333
 55/// 21132 87/07 86/11 90710 91128=
03414 15581 /1908 10185 20149 30082 40167 53004 60001 92350 333 55///
 21765 87/28=
03462 15983 /2306 10172 20140 30089 40176 51011 60001 92350 333 55///
 22637 8//99=
03482 15974 /2001 10182 20149 30151 40176 51013 60001 92350 333 8//99=
03502 17363 /1923 10170 20155 30000 40158 58001 69901 751// 92350 333
 55/// 21033 86/09 90710 91130=
03590 15983 /3105 10185 20147 30070 40176 51012 60001 92350 333 55///
 22749 8//99=
03746 15961 /2004 10162 20154 30039 40190 51007 69901 92350 333 8//99=
03853 15674 /1405 10157 20150 30166 40190 51006 60001 92350 333 55///
 22547 82/31=
####018000246####
SMGC01 MWCR 100000
AAXX 10004
78384 11460 71210 10297 20257 40145 69901 70282 81132
  333 0/399 10313 20255 58007 79999 81818 87070 90960=

AAXX 10004
78383 12560 20804 10286 20251 40149 60001 81202
  333 0/609 10320 20282 58004 818120=
####018000503####
SMKA02 PTKK 100000
AAXX 10004
91336 32474 80808 10294 20239 30159 40132 82101 333 562/9 58007
82818 88075 555 91000
91324 32474 80906 10289 20243 30119 40121 82231 333 56299 59006
82818 86363 555 91000
91339 11474 80805 10300 20289 30105 40115 60024 70282 84202 333
562/9 58007 84818 88075 555 91000 90/75
91320 32474 80508 10311 20267 30132 40137 83101 333 561/9 59010
83814 85075 555 91000
91329 32474 80408 10289 20261 30159 40162 8911/ 333 56199 59004
85818 88462 555 91000=
####018000281####
SMAK01 KWBC 100000
AAXX 10004
70026 NIL=
70133 NIL=
70174 NIL=
70200 NIL=
70219 NIL=
70231 NIL=
70261 NIL=
70267 NIL=
70271 NIL=
70273 NIL=
70308 NIL=
70316 NIL=
70326 NIL=
70340 NIL=
70350 NIL=
70361 NIL=
70381 NIL=
70398 NIL=
70414 NIL=
####018000073####
SMAK20 KWBC 100000
AAXX 10004
70251 NIL=
70264 NIL=
70341 NIL=
####018000290####
SMBC01 FBSK 100000
AAXX 10004
68024 NIL=
68026 NIL=
68029 NIL=
68030 NIL=
68032 NIL=
68038 NIL=
68040 42960 01305 10092 20027 48545 50007=
68054 NIL=
68070 NIL=
68148 NIL=
68226 NIL=
68234 NIL=
68240 NIL=
68244 NIL=
68320 NIL=
68325 NIL=
68328 NIL=

####018000265####
SMBX22 EBUM 100000
AAXX 10001
06414 36/// /2602 10199 20126 30164 40195 50008 60001 333   91106
91204=
06459 36/// /1401 10199 20191 30003 40188 52003 60001 333   91105
91203=
06494 36/// /2401 10175 20154 39436 40204 50003 60001 333   91106
91204=
####018000164####
SMAK31 KWBC 100000
AAXX 10004
70179 NIL=
70194 NIL=
70232 NIL=
70264 NIL=
70267 NIL=
70271 NIL=
70321 NIL=
70333 NIL=
70340 NIL=
70343 NIL=
####018000060####
SMCA01 KWBC 100000
AAXX 10004
78526 NIL=
78543 NIL=
####018000258####
SMCA02 KWBC 100000
AAXX 10004
78255 42459 50405 10288 20227 30003 40162 52050 85800 333 10324
81818 84620=
78317 NIL=
78318 NIL=
78325 NIL=
78333 NIL=
78338 NIL=
78348 NIL=
78349 NIL=
78353 NIL=
78360 NIL=
78367 NIL=
78369 NIL=
####018000122####
SMAC01 KWNB 100000 RRA
OOXX
ACSAMS01 10001 99808 70664 90706 01741 46/// /1908 10039 20000 39838
90003 333 91209=
####018000556####
SMVD17 KWNB 100000 RRC
BBXX
46076 10001 99595 71480 46/// /0906 10108 20106 40119 92350 22200
00104 333 91208 555 11067 22072 32329 40808 62349 086062 080066
082067 081066 081064 086063 80807 92314=
46083 10001 99582 71380 46/// /1102 10128 20108 40136 55000 92350
22200 00121 11502 300// 41502 70009 333 91203 555 11020 22024
32349 41303 62349 109017 086017 064020 105014 078022 090020 80703
92305=
23020 10001 99222 10385 46/// ///// 1//// 92350 22200 10803 70015=
32012 10001 99196 50854 46/// ///// 1//// 92350 22200 11406 70028=
####018000385####
SMVD15 KWNB 100000 RRG
BBXX
41041 10001 99144 70460 46/// /0808 10276 20240 40155 53016 92350
22200 00276 10704 20703 300// 40802 70018 333 91210 555 11083
22089 32349 40810 62349 078078 077075 075075 073073 075070 078070
80708 92349=
42362 10001 99278 70907 46/// /0802 10294 20217 40156 56007 90000=
42364 10001 99291 70881 46/// /2403 10278 20217 40156 55003 90000=
####018000877####
SMVD20 KWNB 100000 RRE
BBXX
44027 10001 99443 70673 46/// /1707 10159 20159 40134 56015 92350
22200 00127 10701 20401 300// 40701 70007 333 91208 555 11076
22087 32348 41708 62349 173066 171065 169063 167062 163054 161055=
44097 10001 99410 70711 46/// ///// 1//// 90001 22200 00240 10802
20802 70010=
44039 10001 99411 70727 46/// /1604 10256 20234 40117 90000 22200
10201 70003 333 91205=
44060 10001 99413 70721 46/// /1103 10215 40120 55009 90000 22200
00189 333 91203 555 11031 22036=
44008 10001 99405 70692 46/// /1705 10209 20208 40127 56010 92350
22200 00187 10702 20501 316// 40702 70012 333 91206 555 11061
22071 32324 41708 62349 166054 166063 168069 170055 163044 159050=
41033 10001 99323 70804 46/// /2007 10292 40093 55007 90000 555
11101 22122=
44070 10001 99414 70710 46/// ///// 1//// 90006 22200 10801 316//
40801 70006=
####018001205####
SMPA01 KWBC 100000
AAXX 10004
91165 NIL=
91182 NIL=
91190 NIL=
91212 NIL=
91217 NIL=
91285 NIL=
91317 NIL=
91334 12474 80312 10304 20250 30107 40110 57002 60324 82171 333
20244 56199 59012 70318 555 91000=
91348 12474 40604 10300 20241 30076 40128 58002 60054 82101 333
20216 561/2 59002 70048 555 91000=
91356 NIL=
91366 NIL=
91369 32474 31705 10306 20272 30113 40116 83210 333 20261 5644/
58000 83815 82160 555 91000 91378 12474 60112 10317 20261 30114
30117 60044 82406 333 20300 561/9 58009 84815 82680 70013 555
91000=
91371 NIL=
91376 12474 80503 10304 20241 30115 40119 58003 60234 84871 333
20248 56121 58009 70226 555 91000=
91408 11473 83605 10294 20247 30090 40128 52015 69984 70282 82271
333 20244 56831 58017 70008 555 91000=
91413 11448 81110 10258 20240 30098 40123 52012 60384 79798 8696/
333 20248 5629/ 58016 70376 555 91000=
91425 32474 50403 10283 20272 30117 40118 5//// 82205 333 20256
561/9 59015 82819 555 91000=
91434 32574 50605 10306 20249 30150 40153 5//// 82230 333 20244
5611/ 58000 82820 83362 555 91000=
91765 11469 61115 10291 20252 30134 40137 57012 69934 70282 84401
333 20267 562/2 58010 70003 555 91000=
####018000162####
SMIL02 BIRK 100000
AAXX 10003
04013 42689 21402 10078 20051 40055 52012 82800 555 3//18=
04064 41565 70902 10114 20102 40032 52015 78022 8352/ 555 3//05=
####018000764####
SMGR01 LGAT 100000
AAXX 10004
16622 12560 39903 10228 20151 30162 40169 51002 60001 82130 333
      82830 83358 90730 91109 555 40000 47658 44265 50000 50182=
16641 12560 10000 10198 20151 30150 40155 50000 60001 81100 333
      90730 91105 555 40000 47650 44265 50000 50170=
16682 12960 00000 10188 20161 30151 40169 58002 60001 333 90730
      91103 555 40000 47652 44265 50000 50172=
16716 12960 00000 10232 20145 30138 40155 54000 60001 555 40000
      47645 44290 50000 50180=
16734 NIL=
16743 NIL=
16749 12960 02408 10236 20186 30073 40086 58007 60001 333 90730
      91115 555 40000 47591 44250 50000 50204=
16754 12565 23112 10242 20175 30094 40139 56005 60001 82200 333
      90730 91120 555 40000 47610 44270 50000 50200=
####018000546####
SMIL01 BIRK 100000
AAXX 10004
04005 42489 62001 10064 20050 40069 52005 86050 555 3/204=
04018 41480 79901 10117 20097 40030 52020 76162 8552/ 555 3//12 81715 85637 87556=
04030 41580 70802 10118 20094 40028 52012 75022 86872 555 3//05 82828 85632=
04048 41501 61110 10105 20101 40023 52007 74622 82832 555 3/315=
04063 42586 73005 10070 20037 40049 52001 83720 555 3//11=
04077 NIL=
04082 41365 81405 10104 20096 40043 52006 71122 8366/ 555 3//05 83706 85358=
04097 41380 89906 10079 20055 40055 52006 75055 886// 555 3/308=
####018000209####
SMPA20 KWBC 100000
AAXX 10004
91222 NIL=
91245 NIL=
91323 NIL=
91339 NIL=
91343 NIL=
91353 32474 40304 10317 20261 30104 40111 5//// 82101 333 20256
561/9 59005 82819 555 91000=
91442 NIL=
####018000027####
SMVJ10 EHDB 100000
NIL
####018000580####
SMUS01 KWBC 100000
AAXX 10004
72201 NIL=
72202 NIL=
72203 NIL=
72205 NIL=
72206 NIL=
72207 NIL=
72208 NIL=
72211 NIL=
72212 NIL=
72214 NIL=
72217 NIL=
72218 NIL=
72219 NIL=
72220 NIL=
72223 NIL=
72226 NIL=
72231 NIL=
72234 NIL=
72235 NIL=
72240 NIL=
72243 NIL=
72248 NIL=
72250 NIL=
72251 NIL=
72253 NIL=
72254 NIL=
72255 NIL=
72256 NIL=
72259 NIL=
72261 NIL=
72263 NIL=
72265 NIL=
72266 NIL=
72267 NIL=
72268 NIL=
72270 NIL=
72271 NIL=
72274 NIL=
72278 NIL=
72280 NIL=
72290 NIL=
72295 NIL=
####018000424####
SMUS02 KWBC 100000
AAXX 10004
72302 NIL=
72304 NIL=
72308 NIL=
72310 NIL=
72311 NIL=
72312 NIL=
72314 NIL=
72317 NIL=
72323 NIL=
72324 NIL=
72326 NIL=
72327 NIL=
72334 NIL=
72340 NIL=
72344 NIL=
72351 NIL=
72353 NIL=
72356 NIL=
72360 NIL=
72363 NIL=
72365 NIL=
72370 NIL=
72371 NIL=
72374 NIL=
72376 NIL=
72384 NIL=
72386 NIL=
72387 NIL=
72389 NIL=
72394 NIL=
####018000317####
SMVE15 KWNB 100000 RRC
BBXX
51200 10001 99211 71583 46/// ///// 1//// 92343 22200 00259 11103
21003 316// 41101 70016=
52200 10001 99134 11448 46/// ///// 1//// 92352 22200 00298 10903
20903 311// 41101 70015=
51201 10001 99217 71581 46/// ///// 1//// 92342 22200 00256 10602
20602 305// 41101 70012=
####018000209####
SMVD45 KWNB 100000 RRE
BBXX
45007 10001 99427 70870 46/// /0000 10241 20184 39932 40141 57007
92350 22200 00237 1//00 70001 333 91200 555 32250 40301 62349
043005 025005 024006 019005 021008 016010=
####018000450####
SMUS03 KWBC 100000
AAXX 10004
72401 NIL=
72403 NIL=
72407 NIL=
72408 NIL=
72411 NIL=
72412 NIL=
72414 NIL=
72417 NIL=
72421 NIL=
72422 NIL=
72428 NIL=
72432 NIL=
72434 NIL=
72435 NIL=
72438 NIL=
72440 NIL=
72445 NIL=
72446 NIL=
72450 NIL=
72451 NIL=
72456 NIL=
72458 NIL=
72462 NIL=
72464 NIL=
72465 NIL=
72475 NIL=
72476 NIL=
72480 NIL=
72486 NIL=
72488 NIL=
72492 NIL=
72494 NIL=
####018000611####
SMVD22 KWNB 100000 RRG
BBXX
46050 10001 99446 71245 46/// /3606 10161 40166 54000 92350 22200
00152 10602 20602 331// 40801 70010 333 91208 555 11068 22074
32326 43508 62349 355062 352063 348066 349061 350054 350050=
46047 10001 99324 71195 46/// /3007 10145 40133 58012 92350 22200
11302 20301 320// 41302 70011 333 91208 555 11074 22078 32320
43009 62349 304069 306064 308071 305072 302068 300063=
46027 10001 99419 71244 46/// /3206 10116 40109 58013 92350 22200
00108 10602 20402 333// 40602 70012 333 91207 555 11063 22070
32338 43207 62349 317059 315056 317045 321041 319036 321037=
####018000496####
SMSO02 AGGG 100000
AAXX 10003

91502 01465 80000 10272 20246 40126 51008 60114 75085 889// 

333      20243 56199 58016 60067 84815 81916 86629 =

91507 01470 80902 10280 20252 40132 52005 69984 78082 8592/

333     20245 56909 58015 69987 83815 81916 83628 86460 =

91520 11575 50000 10302 20240 40128 50001 699114 70522 82238

333     20225 56999 58011 81820 83280 =

91541 32580 60902 01295 20250 40130 52002 83266 

333     20245 56299 58018 83820 86280 =
####018000253####
SMGC01 MWCR 100000
AAXX 10004
78384 11460 71210 10297 20257 40145 69901 70282 81132
  333 0/399 10313 20255 58007 79999 81818 87070 90960=

AAXX 10004
78383 12560 20804 10286 20251 40149 60001 81202
  333 0/609 10320 20282 58004 818120=
####018000287####
SMBC01 FBSK 100000
AAXX 10004
68024 NIL=
68026 NIL=
68029 NIL=
68030 NIL=
68032 NIL=
68038 NIL=
68040 42960 01305 10092 20027 48545 50007=
68054 NIL=
68070 NIL=
68148 NIL=
68226 NIL=
68234 NIL=
68240 NIL=
68244 NIL=
68320 NIL=
68325 NIL=
68328 NIL=
####018000463####
SMUS04 KWBC 100000
AAXX 10004
72503 NIL=
72508 NIL=
72509 NIL=
72514 NIL=
72515 NIL=
72518 NIL=
72519 NIL=
72520 NIL=
72524 NIL=
72526 NIL=
72528 NIL=
72530 NIL=
72532 NIL=
72533 NIL=
72537 NIL=
72546 NIL=
72547 NIL=
72552 NIL=
72556 NIL=
72557 NIL=
72562 NIL=
72564 NIL=
72565 NIL=
72567 NIL=
72569 NIL=
72570 NIL=
72572 NIL=
72576 NIL=
72578 NIL=
72583 NIL=
72591 NIL=
72594 NIL=
72597 NIL=
####018000247####
SMGC01 MWCR 100000
AAXX 10004
78384 11460 71210 10297 20257 40145 69901 70282 81132
  333 0/399 10313 20255 58007 79999 81818 87070 90960=

AAXX 10004
78383 12560 20804 10286 20251 40149 60001 81202
  333 0/609 10320 20282 58004 818120=
####018000124####
SMVD02 CWAO 100000
BBXX
CGDG 10004 99440 70586 46/// /2216 10174 20173 40208 53004 7//// 8//// 22221 0//// 2//// =

####018000464####
SMSO02 AGGG 100000
AAXX 10003

91502 01465 80000 10272 20246 40126 51008 60114 75085 889// 

333      20243 56199 58016 60067 84815 81916 86629 =

91507 01470 80902 10280 20252 40132 52005 69984 78082 8592/

333     20245 56909 58015 69987 83815 81916 83628 86460 =

91520 11575 50000 10302 20240 40128 50001 699114 70522 82238

333     20225 56999 58011 81820 83280 =

91541 32580 60902 01295 20250 40130 52002 83266 

333     20245 56299 58018 83820 86280 =
####018000372####
SMUS05 KWBC 100000
AAXX 10004
72606 NIL=
72608 NIL=
72617 NIL=
72635 NIL=
72636 NIL=
72637 NIL=
72638 NIL=
72639 NIL=
72640 NIL=
72641 NIL=
72644 NIL=
72645 NIL=
72651 NIL=
72654 NIL=
72655 NIL=
72658 NIL=
72659 NIL=
72662 NIL=
72666 NIL=
72677 NIL=
72681 NIL=
72683 NIL=
72688 NIL=
72693 NIL=
72694 NIL=
72698 NIL=
####018000242####
SMUS06 KWBC 100000
AAXX 10004
72712 NIL=
72745 NIL=
72747 NIL=
72753 NIL=
72764 NIL=
72767 NIL=
72768 NIL=
72772 NIL=
72773 NIL=
72776 NIL=
72777 NIL=
72779 NIL=
72781 NIL=
72786 NIL=
72793 NIL=
72797 NIL=
####018000060####
SMUS22 KWBC 100000
AAXX 10004
72241 NIL=
72297 NIL=
####018000112####
SMUS23 KWBC 100000
AAXX 10004
72306 NIL=
72315 NIL=
72320 NIL=
72332 NIL=
72375 NIL=
72383 NIL=
####018000151####
SMUS24 KWBC 100000
AAXX 10004
72402 NIL=
72405 NIL=
72406 NIL=
72423 NIL=
72425 NIL=
72429 NIL=
72439 NIL=
72486 NIL=
72487 NIL=
####018000229####
SMUS25 KWBC 100000
AAXX 10004
72502 NIL=
72504 NIL=
72507 NIL=
72513 NIL=
72521 NIL=
72529 NIL=
72535 NIL=
72536 NIL=
72539 NIL=
72543 NIL=
72544 NIL=
72548 NIL=
72551 NIL=
72566 NIL=
72592 NIL=
####018000086####
SMUS26 KWBC 100000
AAXX 10004
72605 NIL=
72618 NIL=
72647 NIL=
72656 NIL=
####018000112####
SMUS27 KWBC 100000
AAXX 10004
72740 NIL=
72783 NIL=
72784 NIL=
72785 NIL=
72791 NIL=
72792 NIL=
####018000096####
SMKA02 PTKR 100000
SSMK2
KAYNGEL KAYP4 CLOUDY 7SM NORTHEAST 04KT 02FT 10SEC T0272 TID2.6=
####018000155####
SMDO01 TDPD 100000
AAXX 10004
78906 11474 61304 10238 20207 30147 40152 60051 72598 85441
 333 10321 20250 58005 70072 83816 85632 85358 90916=
####018000159####
SMCS01 MROC 100007
AAXX10004
78762 31057 80000 10220 20220 39079 40095 51004 60131 875//
333 000// 10290 20187 32/// 59010 70127 81701 83708 85630=
####018000876####
SMSP01 LEMM 100000
AAXX 10004
08001 12465 53602 10172 20162 30144 40224 50000 60001 85600
  333 924/7=
08015 12560 80703 10182 20162 39835 40229 58001 60001 886//=
08023 12570 11504 10187 20154 30163 40233 58001 60001 81500=
08027 NIL=
08045 06/// /3506 10164 20149 39913 40217 58003 60001
  333 60007=
08141 12960 03604 10217 20175 39357 40175 52007 60001=
08160 12970 03314 10238 20171 39901 40196 52016 60001=
08181 NIL=
08221 02970 03403 10244 20124 39519 40168 51005 60001
  333 60007=
08231 NIL=
08261 NIL=
08284 02965 00904 10243 20202 30118 40190 50004 60001
  333 60007=
08306 12565 10408 10218 20180 30188 40194 51002 60001 81108=
08314 01256 10707 10210 20198 30097 40197 50001 60001 71000 81600
  333 60007=
08430 12970 00000 10232 20174 30111 40183 58001 60001=
08482 12965 01202 10242 20209 30175 40183 50003 60001=
