####018000067####
SMAL52 EUMS 100000
AAXX 10004
60667 36/// /0000 10298 21010=
####018000067####
SMAL57 EUMS 100000
AAXX 10004
60691 36/// /0309 10308 21008=
####018000071####
SMAL53 EUMS 100000 RRA
AAXX 10004
60662 36/// /0000 10283 21018=
####018000067####
SMAL56 EUMS 100000
AAXX 10004
60692 36/// /0310 10341 21002=
####018000067####
SMAL51 EUMS 100000
AAXX 10004
60663 36/// /1103 10316 21031=
####018000071####
SMAL51 EUMS 100000 RRB
AAXX 10004
60664 36/// /0109 10265 21001=
####018000071####
SMAL51 EUMS 100000 RRA
AAXX 10004
60612 36/// /0306 10284 21047=
####018000067####
SMAL53 EUMS 100000
AAXX 10004
60619 36/// /0315 10288 21016=
####018000125####
SMRE41 EUMS 100000
AAXX 10004
61976 12962 01212 10218 20194 40155 60001
  333 59013 90710 91119 92447
  555 60005=
####018000085####
SMMR41 EUMS 100000
AAXX 10004
78922 46/// /0404 10269 20225 30101 40131 53002=
####018000108####
SMTV01 NGFU 100000 RRA
AAXX 09184+
91631 11498 81007 10250 20231 40092 69941 78008 8327/ 333
5629/=
####018000113####
SMTV01 NGFU 100000 RRA
AAXX 09124
91631 11599 10000 10252 20230 40103 60001 70120 81100 333
10309 564//=
####018000115####
SMTV01 NGFU 100000
AAXX 10004
91631 11599 30907 10269 20245 40112 60051 70181 81108 333
20231 562/9 70166=
####018000152####
SMDO01 TDPD 100000
AAXX 10004
78906 11474 61304 10238 20207 30147 40152 60051 72598 85441
 333 10321 20250 58005 70072 83816 85632 85358 90916=
####018000137####
SMJM01 MKJS 100000
AAXX 10004
78388 111570 71108 10292 20239 30125 40134 60001 70511 81803
333 00009 10340 20241 59003 81824 86070=
####018000136####
SMJM01 MKJP 100000
AAXX 10004
78397 11560 71109 10286 20204 30112 40128 60001 70522 81108 333 00909
10341 20256 59007 81822 87274=
####018000138####
SMJM01 MKJS 100000
AAXX 10004
78388 111570 71108 10292 20239 30125 40134 60001 70511 81803
333 00009 10340 20241 59003 81824 86070=
####018000140####
SMJM01 MKJS 100000
AAXX 10004
78388 111570 71108 10292 20239 30125 40134 60001 70511 81803
333 00009 10340 20241 59003 81824 86070=
####018000105####
SMNO26 ENMI 100000 RRB
AAXX 10001
01257 16/// /2101 10140 20096 39954 40110 56024 60001 333 91105=
####018000139####
SMJM01 MKJP 100000
AAXX 10004
78397 11560 71109 10286 20204 30112 40128 60001 70522 81108 333 00909
10341 20256 59007 81822 87274=
####018000099####
SMUZ10 UTTW 100000 RRA
AAXX 10001
38262 429// 03404 10208 20119 30028 40104 52018 555 10019=
####018000137####
SMJM01 MKJP 100000
AAXX 10004
78397 11560 71109 10286 20204 30112 40128 60001 70522 81108 333 00909
10341 20256 59007 81822 87274=
####018000127####
SNAU61 AMMC 092300 CCC
AAXX 09234
94970 11582 70106 10091 20051 30169 40232 58015 60004 70311 83536
  333 70000=


####018000089####
SMUR10 UKMS 100000 RRB
AAXX 10001
33663 32997 00000 10175 20167 30089 40181 58003=
####018000380####
SMTU13 LTAA 100000 RRA
AAXX 10004
17042 3//// /1001 10237 20213 30080 40120 5//// 60001=
17074 3//// /2400 10180 20174 39220 40104 57005 60001=
17155 3//// /3102 10158 20130 39057 40117 57005 60001=
17237 3//// /2405 10202 20135 39638 40115 58000 60001=
17250 3//// /2402 10203 20094 38782 40057 5//// 60001=
17320 3//// /3300 10233 20203 30089 40095 5//// 60001=
####018000109####
SMTH40 VTBB 100000 RRB
AAXX 10004
48566 32560 50000 10260 20238 30086 40094 82145
  333 20250 59007=
####018000380####
SMTU11 LTAA 100000 RRA
AAXX 10004
17034 3//// /2200 10243 20186 30072 40117 5//// 60001=
17084 3//// /3102 10184 20169 39241 40087 57002 60001=
17184 3//// /3303 10209 20158 30027 40134 57005 60001=
17210 3//// /0400 10254 20027 39099 40045 5//// 60001=
17234 3//// /0401 10198 20148 30047 40110 58002 60001=
17370 3//// /1500 10251 20208 30090 40095 5//// 60001=
####018000852####
SMBW01 VGDC 100000
AAXX 10004
41859 11340 82302 10281 20270 39980 40017 69986 71762
8632/ 333 56699 59036 70008 84708 85615 88456 81930=
41883 32356 81802 10282 20260 30002 40023 8662/ 333
56499 59030 70000 84709 83615 88458=
41891 31340 81304 10273 20250 30002 40041 70522 8632/
333 56699 59015 70030 83708 84613 81930 88459=
41907 32456 61804 10276 20270 39999 40013 86800 333
56400 59018 70000 83618 83825=
41923 32356 40000 10283 20260 30013 40022 82601 333
56409 59023 70000 81709 84080=
41936 NIL=
41943 11450 51802 10266 20260 30045 40053 60035 70262
83520 333 56490 59019 70198 83618 85458=
41950 NIL=
41978 11350 61006 10268 20260 30041 40047 69904 72162
84620 333 56490 59016 79999 83708 85459=
41992 11320 80000 10257 20255 30045 40047 60133 76166
8692/ 333 56999 59024 70490 82708 84612 81925 88458=
####018000323####
SMTU12 LTAA 100000 RRA
AAXX 10004
17116 1//// /2304 10201 20190 30029 40145 57004 69961=
17188 3//// /3502 10164 20106 39100 40110 58001 60001=
17292 3//// /3104 10184 20125 39374 40090 57008 60001=
17310 3//// /0502 10257 20214 30087 40095 57006 60001=
17330 3//// /0000 10235 20191 30075 40095 5//// 60001=
####018000432####
SMUY01 SUMU 100000
AAXX 10004
86330 32997 01105 10135 20102 40222 52020 333 10221 20110=
86360 NIL=
86460 32997 00000 10110 20085 40228 52018 333 10186 20055=
86490 NIL=
86530 32997 01906 10080 20071 40233 52015 333 10186 20046=
86545 32997 00000 10064 20055 40245 52010 333 10174 20034=
86565 32497 51204 10100 20079 40235 52022 85400 333 10168 20076=
86580 32997 01604 10088 20071 40241 52016 333 10136 20066=
####018000414####
SMUY20 SUMU 100000
AAXX 10004
86315 NIL=
86350 32997 01404 10118 20094 40222 52018 333 10180 20088=
86370 NIL=
86430 NIL=
86440 32997 00000 10067 20056 4//// 5//// 333 10200 20048=
86450 32997 01406 10116 20088 40234 52016 333 10181 20064=
86500 NIL=
86532 NIL=
86550 NIL=
86560 NIL=
86575 NIL=
86585 NIL=
86586 32497 21303 10094 20086 40233 52011 82800 333 1//// 20080=
86595 NIL=
####018000028####
SMVJ01 ESWI 100000
NIL=
####018000028####
SMVC01 ESWI 100000
NIL=
####018000103####
SNAU58 AMMC 092300 RRC
AAXX 09234
94879 11/81 83410 10136 20061 69904 70322
  333 79999=


####018000093####
SMAA10 DEMS 100000
AAXX 10004
89514 32996 00000 11208 49839 52003 333 11186 21267=
 
####018001466####
SMTU17 KAWN 100000 RRA
AAXX 10004
17026 12970 23203 10216 20196 30082 40119 57004 60001 82030 333
 82359 91114 92428=
17038 12560 62304 10247 20207 30067 40115 58004 60001 84650 333
 83720 84835 86360 92427=
17050 11560 73202 10186 20158 30098 40158 50008 60011 78022 85270
 333 85830 87458=
17056 12970 03004 10190 20160 30152 40156 50000 60001 333 91112
 92428=
17070 12565 52002 10151 20143 39298 40137 55002 60001 85200 333
 85830=
17090 12965 00000 10202 20157 38700 48488 52010 60001=
17092 12960 00000 10161 20054 38834 48491 51004 60001=
17096 12970 02202 10087 20031 38253 48504 58001 60001=
17112 12670 50301 10207 20153 30157 40159 57010 60001 83230 333
 83835 85360 91113 92408=
17115 12660 52802 10187 20164 30095 40144 57005 60001 83130 333
 83835 85360=
17150 12660 63503 10192 20162 30029 40147 57007 60001 84250 333
 84835 85360=
17160 12970 03612 10206 20152 38984 48492 52005 60001 333 91118=
17170 12970 00602 10151 20027 38336 48497 58003 60001=
17203 12970 02502 10200 20049 38850 48532 54000 60001=
17219 12965 03616 10217 20156 39981 40119 58008 60001 333 91124=
17248 12975 02803 10210 20117 38951 48495 52007 60001=
17260 12960 00000 10176 20138 39300 40064 56002 60001=
17280 12970 01801 10210 20028 39322 40048 53001 60001=
17375 12970 03501 10239 20181 30093 40095 57003 60001 333 91104
 92408=
17510 12560 20000 10245 20000 30105 40115 54000 60001 82100 333
 82830 92417=
####018001466####
SMTU17 KAWN 100000
AAXX 10004
17024 12670 52009 10196 20185 30047 40121 51001 60001 83250 333
 83835 85360 91113 92438=
17031 12670 52906 10233 20204 30107 40113 57004 60001 83250 333
 83836 85360=
17067 12670 62907 10217 20184 30112 40133 58001 60001 86200 333
 86840 91116 92418=
17086 12670 41102 10220 20153 39410 40077 54000 60001 84200 333
 84835=
17088 12670 62502 10189 20167 38784 48507 51004 60001 84250 333
 84840 86360=
17098 12960 02703 10094 20039 38221 48508 50002 60001=
17124 12960 02707 10162 20128 39252 40125 58001 60001=
17128 12970 22401 10176 20143 39063 40097 50002 60001 82030 333
 82360=
17140 12965 00000 10176 20166 38689 48488 53002 60001=
17189 12970 03109 10146 20111 39016 48508 58003 60001=
17195 12970 00000 10198 20146 38935 48491 52006 60001=
17202 12970 02104 10160 20041 39111 40058 52004 60001=
17244 12970 03018 10203 20105 38973 48505 52006 60001=
17270 12970 00601 10241 20147 39459 40056 58001 60001=
17290 12970 00105 10231 20151 30073 40104 57008 60001 333 92428=
17300 12560 33202 10241 20209 30024 40096 57005 60001 83100 333
 83830=
17350 12560 33403 10230 20224 30095 40169 58004 60001 83100 333
 83830=
17572 12560 20000 10242 20201 30085 40109 54000 60001 82100 333
 82830 92417=
17600 15960 /0105 10217 20194 30088 40097 57006 60001=
17601 12968 02705 10240 20195 30061 40091 57002 60001 92350=
17609 12962 03208 10239 20220 30090 40093 56003 60001=
####018000089####
SMAA10 DEMS 100000
AAXX 10004
89514 32996 00000 11208 49839 52003 333 11186 21267=
####018000729####
SMAA01 SAWB 100000 RRB
AAXX 10004
88968 11205 83230 10000 21005 39861 49876 57011 60021 77172 8772/ 333 10000
21006 56559 87704 88530 90065 90090 90266 90296 90507 90973 92730 92804 92962
93002 93101 94070 95090 96010=
89034 32975 01820 11308 21509 39642 49994 52004 333 11264 21318 92840=
89053 11462 60708 11058 21080 39724 49738 52021 69901 70173 83710 333 10005
21064 56110 83710 84450 90111 90106 90923 92427 92800 93105 94072 94042 94477
95012=
89055 31/00 92339 11176 21196 39448 49699  50003 73933  333 11130 21184  90067
90090 92760 92866 92952 95190  555 19675 52354 64117 65203=
89066 32970 80000 11055 21076 39756 49765 57004 8807/ 333 11045 21059 56099
88360 92407 92733 92801 94040 95090=
####018000164####
SMOM10 OOMS 100000 RRA
AAXX 10004
41241 36/// /1306 10356 20242 39965 40005
333 0E040 59009=
41258 36/// /3601 10286 20242 39998 40064
333 0E/// 59012=
####018000089####
SNPS40 AMMC 092300 RRD
AAXX 09234
91642 46/// /2202 10273 40122 22200 00291=


####018000096####
SMCN38 CWAO 100000 RRA
AAXX 10004
71885 16/// ///// 10289 60001 333 10296 20108 70000=

####018000210####
SMCN01 CWAO 100000 RRA
AAXX 10004
71076 16/// /3211 10180 20015 39710 40089 57009 60001 333 10188
20129 70012=
71079 12674 70000 10208 20087 39808 40078 58019 60001 82170 
333 10222 20108 70003=

####018000221####
SMCN05 CWAO 100000 RRA
AAXX 10004
71739 41774 70000 10190 20163 39744 40095 50002 6//// 72982 84973
333 10263 20146 7//// 90926=
71807 16/// /2013 10123 20123 30146 40164 53010 60001 333 10142
20114 70000=

####018000122####
SMCN06 CWAO 100000 RRA
AAXX 10004
71858 16/// /1902 10253 20078 39817 40086 58021 60001 333 10268
20122 70000=

####018000446####
SMCN24 CWAO 100000 RRA
AAXX 10004
71402 46/// /2416 10191 20164 39981 40092 53008 6///1 333 10252
20159 7////=
71407 16/// /2603 10183 20054 30036 40056 56003 60001 333 10193
20076 70000=
71427 16/// /2708 10188 30077 40084 55000 60001 333 10209 20122
70000=
71434 17/// /3307 10140 20127 39983 40047 53018 60051 7//4/ 333
10200 20120 70052=
71449 16/// /2907 10255 20132 39733 40122 56011 60001 333 10267
20106 70000=

####018000102####
SMCN02 CWAO 100000 RRA
AAXX 10004
71200 16/// /2307 10185 20114 60001 333 10238 20127 70000=

####018000278####
SMCN37 CWAO 100000 RRA
AAXX 10004
71752 46/// /2301 10220 20205 39906 40115 52003 6///1 333 10235
20209 7////=
71758 16/// /2109 10232 20194 30078 40152 53011 60001 333 10312
20182 70000=
71780 16/// ///18 10164 30121 40148 55006 60001 333 10198 20126
70000=

####018000507####
SMCN20 CWAO 100000 RRA
AAXX 10004
71015 16/// ///// 10267 60001 333 10275 20142 7////=
71018 16/// /2703 10046 20017 39970 40055 58009 60001 333 10049
20007 70000=
71019 17/// /1605 10239 20221 39803 40092 56014 60231 7//4/ 333
10306 20201 70232=
71021 16/// /1405 10247 20086 39795 40132 56012 60001 333 10247
20129 70028=
71028 16/// /1601 10256 20031 39157 40168 53000 60001 333 10285
20046 70000=
71040 46/// /3003 10208 20190 39896 40087 55000 6///1 333 10255
20208 7////=

####018000402####
SMCN21 CWAO 100000 RRA
AAXX 10004
71110 16/// /2913 10146 20144 30099 40158 53008 60001 333 10205
20122 70000=
71112 16/// ///// 60001 333 70000=
71113 16/// /2803 10303 20165 30099 40122 56008 60001 333 10315
20155 70002=
71139 16/// /1907 10253 20066 38720 40125 56015 60001 333 10262
20136 70000=
71144 16/// /1705 10246 20113 39816 40112 58016 60001 333 10254
20193 70000=

####018000533####
SMCN33 CWAO 100000 RRA
AAXX 10004
71357 16/// /1913 10075 20046 30064 40072 57003 60001 333 10103
20033 70000=
71361 16/// /3409 10172 20080 39934 40135 57001 60001 333 10181
20107 70000=
71362 16/// /3310 10168 20029 39864 40111 54000 60001 333 10191
20118 70004=
71365 16/// /0205 10227 20087 39935 40140 56008 60001 333 10228
20119 70000=
71376 17/// /0000 10205 20196 39819 40091 55003 60021 7//4/ 333
10260 20187 70245=
71387 16/// /1902 10200 20185 39731 40077 51002 60001 333 10246
20200 70000=

####018000227####
SMCN08 CWAO 100000 RRA
AAXX 10004
71917 12686 21617 10091 20014 39974 49987 58009 60001 81161
333 10106 20043 70000=
71924 11174 12504 10045 20023 39971 40057 58009 69901 70151
81601 333 10048 20008 79999 90926=

####018000203####
SMCN25 CWAO 100000 RRA
AAXX 10004
71503 46/// ///// 10237 20097 39867 40127 58006 6///1 333 10237
20077 7////=
71539 16/// /2710 10297 20079 39450 40118 57014 60001 333 10305
20169 70000=

####018000716####
SMCN31 CWAO 100000 RRA
AAXX 10004
71150 46/// /2304 10242 20152 39464 40119 57016 6///1 333 7////=
71151 16/// /3305 10242 20107 39637 40123 56009 60001 333 10261
20140 70000=
71155 16/// ///// 10267 20183 60001 333 10278 20121 70030=
71156 16/// ///// 10236 20083 60001 333 10286 20104 70000=
71158 16/// /2602 10226 20079 39839 40104 57017 60001 333 10233
20122 70012=
71159 16/// /2403 10173 20158 30056 40126 53004 60001 333 10182
20161 70000=
71168 16/// /2203 10263 20159 39599 40142 56012 60001 333 10300
20148 70000=
71172 16/// /2305 10220 20169 39889 40098 52004 60001 333 10255
20209 70024=
71180 16/// /1608 10221 20176 30104 40142 53003 60001 333 10225
20193 70000=

####018000777####
SMCN35 CWAO 100000 RRA
AAXX 10004
71551 16/// /2506 10262 20152 39471 40076 58017 60001 333 10283
20139 70017=
71563 16/// /2103 10272 20132 60001 333 10280 20147 70000=
71564 16/// /2805 10268 20135 39765 40104 57015 60001 333 10279
20139 70000=
71572 16/// /2603 10204 20097 60001 333 10217 20118 70000=
71576 16/// /0605 10161 20049 39963 40044 57004 60001 333 10170
20084 70000=
71577 46/// /2805 10269 20136 6///1 333 10273 20166 7////=
71579 16/// /3103 10284 20099 39842 40114 58013 60001 333 10288
20173 70000=
71581 17/// /0000 10215 20203 39641 40105 53003 69971 7//4/ 333
10232 20187 70196=
71585 16/// ///// 10171 20118 60001 333 10207 20106 70000=
71599 16/// /2402 10237 20210 39968 40164 58005 60001 333 10301
20195 70000=

####018000345####
SMCN27 CWAO 100000 RRA
AAXX 10004
71721 16/// /1702 10205 20205 39861 40098 56003 60001 333 10217
20197 70230=
71732 16/// /2001 10226 20170 60001 333 10265 20203 70002=
71734 16/// /2405 10244 20139 39710 40085 55004 60001 333 10264
20173 70000=
71748 16/// /2806 10257 20122 39839 40102 57010 60001 333 10264
20147 70000=

####018000122####
SMCN09 CWAO 100000 RRA
AAXX 10004
71949 16/// /0503 10254 20024 39283 40121 58014 60001 333 10260
20080 70000=

####018000203####
SMCN32 CWAO 100000 RRA
AAXX 10004
71264 16/// /2107 10212 20204 30134 40163 50005 60001 333 10276
20178 70000=
71288 16/// /2406 10125 20072 30035 40059 57002 60001 333 10167
20088 70000=

####018000209####
SMCN04 CWAO 100000 RRA
AAXX 10004
71607 16/// /1705 10234 20194 30098 40129 56006 60001 333 10300
20212 70000=
71715 17/// /1502 10194 20191 39907 40081 58009 60181 7//4/ 333
10270 20146 70179=

####018000209####
SMCN03 CWAO 100000 RRA
AAXX 10004
71430 17/// /3205 10212 20204 30007 40100 53004 60141 7//4/ 333
10294 20197 70140=
71435 16/// /2608 10221 20114 39551 40125 56006 60001 333 10236
20078 70003=

####018000284####
SMCN34 CWAO 100000 RRA
AAXX 10004
71451 16/// /2905 10236 20094 39651 40063 56009 60001 333 10253
20055 70000=
71455 16/// /2206 10273 20159 39349 40116 58020 60001 333 10278
20141 70092=
71475 16/// /1405 10276 20101 30048 40139 50000 60001 333 10324
20123 70000=

####018000203####
SMCN36 CWAO 100000 RRA
AAXX 10004
71667 16/// /2909 10248 20108 39881 40118 55002 60001 333 10270
20101 70000=
71669 16/// /2702 10275 21016 38560 40127 58012 60001 333 10299
20049 70000=

####018000203####
SMCN22 CWAO 100000 RRA
AAXX 10004
71243 16/// /2407 10307 20079 39070 40071 58017 60001 333 10313
20126 70000=
71246 46/// /3604 10204 20119 39489 40134 55001 6///1 333 10214
20094 7////=

####018000122####
SMCN30 CWAO 100000 RRA
AAXX 10004
71087 46/// /3107 10204 20073 39938 40135 58009 6///1 333 10205
20123 7////=

####018000203####
SMCN07 CWAO 100000 RRA
AAXX 10004
71868 16/// /2607 10265 20115 39661 40083 58018 60001 333 10272
20114 70000=
71883 16/// ///// 10313 20040 39316 40104 56015 60001 333 10329
20079 70000=

####018000533####
SMCN23 CWAO 100000 RRA
AAXX 10004
71301 16/// ///// 10229 20141 39708 40090 55003 60001 333 10265
20164 70000=
71307 16/// /3506 10232 20151 39892 40134 53003 60001 333 10264
20212 70174=
71312 16/// /2511 10257 20143 39641 40080 57019 60001 333 10268
20120 70000=
71315 17/// /1005 10220 20210 30043 40094 56001 60261 7//4/ 333
10312 20161 70259=
71317 16/// /2506 10212 20180 30106 40151 52006 60001 333 10299
20142 70006=
71332 16/// /2311 10165 20090 30035 40063 58012 60001 333 10166
20032 70000=

####018000212####
SMCN28 CWAO 100000 RRA
AAXX 10004
71837 16/// ///// 10285 60001 333 10293 20121 70000=
71839 16/// ///// 10284 60001 333 10302 20101 70000=
71840 16/// /2706 10256 20165 60001 333 10268 20143 70002=

####018000288####
SMFW01 NWBB 100000
AAXX 10004
91753 01475 71010 10305 20246 30105 40134 58006 6///1 70186 83906
  333 6///7 81918 82818 87273 90710 91118
  555 60005=
91754 01470 80604 10269 20251 30102 40142 58005 60184 72582 889//
  333 20234 58019 60087 82810 81916 85819
  555 60065=
####018000284####
SMCN39 CWAO 100000 RRA
AAXX 10004
71954 46/// /2010 10248 20128 39710 40070 56023 6///1 333 10259
20099 7////=
71956 16/// /3012 10229 20120 39895 40119 53003 60001 333 10273
20179 70000=
71970 16/// /2907 10234 20142 39522 40088 57014 60001 333 10269
20098 70000=

####018000135####
SMGO01 FOOL 100000
AAXX 10004
64500 11357 81806 10240 20226 30116 40130 69911 75155 885// 92359
  333 0//53 59002 84606 88630=
####018000206####
SMCN03 CWAO 100000 RRA
AAXX 10004
71430 17/// /3205 10212 20204 30007 40100 53004 60141 7//4/ 333
10294 20197 70140=
71435 16/// /2608 10221 20114 39551 40125 56006 60001 333 10236
20078 70003=
####018000200####
SMCN07 CWAO 100000 RRA
AAXX 10004
71868 16/// /2607 10265 20115 39661 40083 58018 60001 333 10272
20114 70000=
71883 16/// ///// 10313 20040 39316 40104 56015 60001 333 10329
20079 70000=
####018000206####
SMCN04 CWAO 100000 RRA
AAXX 10004
71607 16/// /1705 10234 20194 30098 40129 56006 60001 333 10300
20212 70000=
71715 17/// /1502 10194 20191 39907 40081 58009 60181 7//4/ 333
10270 20146 70179=
####018000119####
SMCN06 CWAO 100000 RRA
AAXX 10004
71858 16/// /1902 10253 20078 39817 40086 58021 60001 333 10268
20122 70000=
####018000119####
SMCN09 CWAO 100000 RRA
AAXX 10004
71949 16/// /0503 10254 20024 39283 40121 58014 60001 333 10260
20080 70000=
####018000218####
SMCN05 CWAO 100000 RRA
AAXX 10004
71739 41774 70000 10190 20163 39744 40095 50002 6//// 72982 84973
333 10263 20146 7//// 90926=
71807 16/// /2013 10123 20123 30146 40164 53010 60001 333 10142
20114 70000=
####018000224####
SMCN08 CWAO 100000 RRA
AAXX 10004
71917 12686 21617 10091 20014 39974 49987 58009 60001 81161
333 10106 20043 70000=
71924 11174 12504 10045 20023 39971 40057 58009 69901 70151
81601 333 10048 20008 79999 90926=
####018000099####
SMCN02 CWAO 100000 RRA
AAXX 10004
71200 16/// /2307 10185 20114 60001 333 10238 20127 70000=
####018000207####
SMCN01 CWAO 100000 RRA
AAXX 10004
71076 16/// /3211 10180 20015 39710 40089 57009 60001 333 10188
20129 70012=
71079 12674 70000 10208 20087 39808 40078 58019 60001 82170 
333 10222 20108 70003=
####018000093####
SMCN38 CWAO 100000 RRA
AAXX 10004
71885 16/// ///// 10289 60001 333 10296 20108 70000=
####018000399####
SMCN21 CWAO 100000 RRA
AAXX 10004
71110 16/// /2913 10146 20144 30099 40158 53008 60001 333 10205
20122 70000=
71112 16/// ///// 60001 333 70000=
71113 16/// /2803 10303 20165 30099 40122 56008 60001 333 10315
20155 70002=
71139 16/// /1907 10253 20066 38720 40125 56015 60001 333 10262
20136 70000=
71144 16/// /1705 10246 20113 39816 40112 58016 60001 333 10254
20193 70000=
####018000530####
SMCN33 CWAO 100000 RRA
AAXX 10004
71357 16/// /1913 10075 20046 30064 40072 57003 60001 333 10103
20033 70000=
71361 16/// /3409 10172 20080 39934 40135 57001 60001 333 10181
20107 70000=
71362 16/// /3310 10168 20029 39864 40111 54000 60001 333 10191
20118 70004=
71365 16/// /0205 10227 20087 39935 40140 56008 60001 333 10228
20119 70000=
71376 17/// /0000 10205 20196 39819 40091 55003 60021 7//4/ 333
10260 20187 70245=
71387 16/// /1902 10200 20185 39731 40077 51002 60001 333 10246
20200 70000=
####018000119####
SMCN30 CWAO 100000 RRA
AAXX 10004
71087 46/// /3107 10204 20073 39938 40135 58009 6///1 333 10205
20123 7////=
####018000200####
SMCN32 CWAO 100000 RRA
AAXX 10004
71264 16/// /2107 10212 20204 30134 40163 50005 60001 333 10276
20178 70000=
71288 16/// /2406 10125 20072 30035 40059 57002 60001 333 10167
20088 70000=
####018000530####
SMCN23 CWAO 100000 RRA
AAXX 10004
71301 16/// ///// 10229 20141 39708 40090 55003 60001 333 10265
20164 70000=
71307 16/// /3506 10232 20151 39892 40134 53003 60001 333 10264
20212 70174=
71312 16/// /2511 10257 20143 39641 40080 57019 60001 333 10268
20120 70000=
71315 17/// /1005 10220 20210 30043 40094 56001 60261 7//4/ 333
10312 20161 70259=
71317 16/// /2506 10212 20180 30106 40151 52006 60001 333 10299
20142 70006=
71332 16/// /2311 10165 20090 30035 40063 58012 60001 333 10166
20032 70000=
####018000275####
SMCN37 CWAO 100000 RRA
AAXX 10004
71752 46/// /2301 10220 20205 39906 40115 52003 6///1 333 10235
20209 7////=
71758 16/// /2109 10232 20194 30078 40152 53011 60001 333 10312
20182 70000=
71780 16/// ///18 10164 30121 40148 55006 60001 333 10198 20126
70000=
####018000443####
SMCN24 CWAO 100000 RRA
AAXX 10004
71402 46/// /2416 10191 20164 39981 40092 53008 6///1 333 10252
20159 7////=
71407 16/// /2603 10183 20054 30036 40056 56003 60001 333 10193
20076 70000=
71427 16/// /2708 10188 30077 40084 55000 60001 333 10209 20122
70000=
71434 17/// /3307 10140 20127 39983 40047 53018 60051 7//4/ 333
10200 20120 70052=
71449 16/// /2907 10255 20132 39733 40122 56011 60001 333 10267
20106 70000=
####018000342####
SMCN27 CWAO 100000 RRA
AAXX 10004
71721 16/// /1702 10205 20205 39861 40098 56003 60001 333 10217
20197 70230=
71732 16/// /2001 10226 20170 60001 333 10265 20203 70002=
71734 16/// /2405 10244 20139 39710 40085 55004 60001 333 10264
20173 70000=
71748 16/// /2806 10257 20122 39839 40102 57010 60001 333 10264
20147 70000=
####018000504####
SMCN20 CWAO 100000 RRA
AAXX 10004
71015 16/// ///// 10267 60001 333 10275 20142 7////=
71018 16/// /2703 10046 20017 39970 40055 58009 60001 333 10049
20007 70000=
71019 17/// /1605 10239 20221 39803 40092 56014 60231 7//4/ 333
10306 20201 70232=
71021 16/// /1405 10247 20086 39795 40132 56012 60001 333 10247
20129 70028=
71028 16/// /1601 10256 20031 39157 40168 53000 60001 333 10285
20046 70000=
71040 46/// /3003 10208 20190 39896 40087 55000 6///1 333 10255
20208 7////=
####018000200####
SMCN25 CWAO 100000 RRA
AAXX 10004
71503 46/// ///// 10237 20097 39867 40127 58006 6///1 333 10237
20077 7////=
71539 16/// /2710 10297 20079 39450 40118 57014 60001 333 10305
20169 70000=
####018000713####
SMCN31 CWAO 100000 RRA
AAXX 10004
71150 46/// /2304 10242 20152 39464 40119 57016 6///1 333 7////=
71151 16/// /3305 10242 20107 39637 40123 56009 60001 333 10261
20140 70000=
71155 16/// ///// 10267 20183 60001 333 10278 20121 70030=
71156 16/// ///// 10236 20083 60001 333 10286 20104 70000=
71158 16/// /2602 10226 20079 39839 40104 57017 60001 333 10233
20122 70012=
71159 16/// /2403 10173 20158 30056 40126 53004 60001 333 10182
20161 70000=
71168 16/// /2203 10263 20159 39599 40142 56012 60001 333 10300
20148 70000=
71172 16/// /2305 10220 20169 39889 40098 52004 60001 333 10255
20209 70024=
71180 16/// /1608 10221 20176 30104 40142 53003 60001 333 10225
20193 70000=
####018000774####
SMCN35 CWAO 100000 RRA
AAXX 10004
71551 16/// /2506 10262 20152 39471 40076 58017 60001 333 10283
20139 70017=
71563 16/// /2103 10272 20132 60001 333 10280 20147 70000=
71564 16/// /2805 10268 20135 39765 40104 57015 60001 333 10279
20139 70000=
71572 16/// /2603 10204 20097 60001 333 10217 20118 70000=
71576 16/// /0605 10161 20049 39963 40044 57004 60001 333 10170
20084 70000=
71577 46/// /2805 10269 20136 6///1 333 10273 20166 7////=
71579 16/// /3103 10284 20099 39842 40114 58013 60001 333 10288
20173 70000=
71581 17/// /0000 10215 20203 39641 40105 53003 69971 7//4/ 333
10232 20187 70196=
71585 16/// ///// 10171 20118 60001 333 10207 20106 70000=
71599 16/// /2402 10237 20210 39968 40164 58005 60001 333 10301
20195 70000=
####018000281####
SMCN34 CWAO 100000 RRA
AAXX 10004
71451 16/// /2905 10236 20094 39651 40063 56009 60001 333 10253
20055 70000=
71455 16/// /2206 10273 20159 39349 40116 58020 60001 333 10278
20141 70092=
71475 16/// /1405 10276 20101 30048 40139 50000 60001 333 10324
20123 70000=
####018000200####
SMCN22 CWAO 100000 RRA
AAXX 10004
71243 16/// /2407 10307 20079 39070 40071 58017 60001 333 10313
20126 70000=
71246 46/// /3604 10204 20119 39489 40134 55001 6///1 333 10214
20094 7////=
####018000209####
SMCN28 CWAO 100000 RRA
AAXX 10004
71837 16/// ///// 10285 60001 333 10293 20121 70000=
71839 16/// ///// 10284 60001 333 10302 20101 70000=
71840 16/// /2706 10256 20165 60001 333 10268 20143 70002=
####018000174####
SMCY01 LCLK 100000
AAXX 10004
17600 15960 /0105 10217 20194 30088 40097 57006 60001=
17601 NIL=
17607 NIL=
17609 12962 03208 10239 20220 30090 40093 56003 60001=
####018000287####
SMBX20 EBBR 100000 RRA
AAXX 10001
06400 32882 32403 10190 20115 30182 40193 51007 83501
  333 83656 91105 91204=
06456 32980 30000 10210 20162 39841 40191 50000 80002
  333 83074 91106 91205=
06479 32964 29901 10208 20172 30113 40190 53005 80001
  333 82075 91107 91205=
####018000374####
SMSY01 OSDI 100000
AAXX 10001
40001 32970 03505 10223 20021 40065 58005=
40007 32960 02804 10232 20151 40086 52001=
40025 32965 00502 10214 20176 40094 51004=
40045 32970 03307 10285 20120 40060 56001=
40061 32970 02502 10242 20148 40049 50002=
40080 32965 02202 10216 20140 39399 40062 58001=
40087 NIL=
40095 32970 00000 10206 20172 39487 40085 51003=
####018001218####
SMGL01 EKMI 100000
AAXX 10004
04211 47/01 /3108 10017 20017 39927 40084 57001 77777 =
04220 47784 12505 10044 20034 30032 40083 57001 70086
  333 55300 20551 81/57 =
04221 45/84 /2804 10089 20063 30038 40078 57001
  333 91116 =
04231 12989 20606 10114 20025 39998 40068 52008 6///1 824//
  333 82650 =
04234 47/22 /2910 10045 20045 30069 40079 57002 71011 =
04241 47008 52808 10054 20049 30037 40076 57003 71011
  333 85/01 =
04250 05/84 03006 10064 20055 39974 40076 57003 6///1
  333 55300 20349 6///7 =
04254 45/81 /0205 10087 20025 39971 40082 57003 =
04260 47201 73202 10036 20031 30043 40086 57002 78183
  333 83/04 87/57 =
04270 45/83 /2413 10095 20044 30041 40078 52006 =
04272 06105 72407 10022 20022 30017 40088 57002 6///1
  333 6///7 87/02 =
04312 46/// /2209 10079 20013 30000 40043 52003 =
04320 45783 80910 10022 21008 30057 40072 52001
  333 88/50 =
04339 05/84 /3201 10055 20026 39960 40048 52001 6///1
  333 55300 20137 6///7 =
04360 05/80 03102 10060 20028 39980 40048 57003 6///1
  333 55300 20144 6///7 =
04361 461// 72408 10049 20047 30007 40058 57003
  333 87/03 =
04390 05/83 02412 10068 20044 39972 40063 57012 6///1
  333 6///7 =
####018000848####
SMAT01 TAPA 100000
AAXX 10004
78862 11474 71518 10277 20231 30146 40169 60001 78011 87802
333 10310 20272 58011 82818 86636=BKN034
PROB40 TEMPO 1000/1016 3000 TSRA SCT012CB BKN270=
TAF TRPG 092200Z 1000/1024 09016KT 9999 SCT018 BKN034 BKN270
TEMPO 1000/1024 09018G28KT 5000 SHRA BKN013 BKN032
PROB40 TEMPO 1000/1016 3000 TSRA SCT012CB BKN260=
TAF TKPN 092200Z 1000/1024 09016KT 9999 SCT018 BKN036 BKN280
TEMPO 1000/1024 09018G28KT 5000 SHRA BKN014 BKN035
PROB40 TEMPO 1000/1016 3000 TSRA SCT012CB BKN270=
TAF TQPF 092200Z 1000/1024 09016KT 9999 SCT018 BKN036 BKN280
TEMPO 1000/1024 09018G28KT 5000 SHRA BKN013 BKN034
PROB40 TEMPO 1000/1016 3000 TSRA SCT012CB BKN270=
TAF TUPJ 092200Z 1000/1024 10014KT 9999 SCT020 BKN038
TEMPO 1006/1024 10014G24KT 5000 SHRA BKN013 BKN036
 TEMPO 1010/1022 2000 TSRA BKN010 BKN260=
####018000216####
SMLB01 OLBA 100000
AAXX 10004
40100 11550 20000 10248 20220 30066 40096 56001 60001 71044 82200
900// 333 82826 92426=
40101 12958 00000 10196 20133 39064 48489 56002 60001 900//=
40102 NIL=
40103 NIL=
####018003705####
SMUS70 KWBC 100000
AAXX 10004
72594 35966 02607 10139 20111 30117 40142 50001 92353 333 10150
20106 555 91000=
72791 35966 02708 10206 20150 30158 40163 53000 92355 555 91000=
72384 32966 03010 10367 20128 39908 40081 56016 92354 333 10367
20222 555 91000=
72677 32966 21007 10317 20044 38903 40114 56021 92353 333 10322
20150 555 91000=
72683 35966 03007 10317 20006 38739 40133 58012 92353 333 10328
20083 555 91000=
72681 32966 02811 10339 20017 39124 40100 56018 92353 333 10356
20183 555 91000=
72570 35966 22114 10256 20050 38146 40177 55007 92353 333 10300
20050 91027 555 91000=
72314 31758 80000 10311 20189 39847 40098 55003 795// 92352 333
10361 20244 96005 555 91000=
72605 35966 01808 10294 20178 39982 40101 56008 92351 333 10333
20194 555 91000=
72405 32666 61507 10300 20189 30073 40095 53001 92352 333 10339
20244 555 91000=
72387 35966 02309 10361 20006 38983 40081 56011 92355 333 10389
20239 91022 555 91000=
72486 35966 01813 10300 21006 38113 40108 56008 92353 333 10311
20106 91017 555 91000=
72693 32866 20210 10344 20122 39992 40127 56009 92354 333 10350
20156 555 91000=
72389 32866 22906 10367 20122 39967 40087 57017 92353 333 10372
20200 555 91000=
72779 NIL=
72375 12966 0//03 10233 20089 37922 40155 69931 92356 333 10278
20139 555 91000=
72376 32966 03613 10289 20061 38333 40156 55005 92353 333 10328
20167 91024 555 91000=
72785 32866 23405 10328 20039 39283 40114 58015 92353 333 10333
20167 555 91000=
72768 35966 02803 10328 20044 39320 40111 56019 92353 333 10328
20122 555 91000=
72776 32966 00911 10311 20083 38858 40103 56021 92353 333 10317
20094 555 91000=
72772 32966 01407 10311 20050 38788 40115 56021 92353 333 10322
20106 555 91000=
72777 35966 01103 10317 20044 39212 40107 58022 92353 333 10322
20083 555 91000=
72370 15966 03006 10378 20056 38958 40060 58014 69901 92348 333
10389 20206 555 91000=
72302 35966 02105 10283 20211 3//// 40108 53003 92353 333 10344
20233 555 91000=
72374 15966 01705 10283 20100 38524 40121 58017 69931 92356 333
10339 20206 555 91000=
72767 32966 02206 10311 20100 39458 40124 56015 92352 333 10322
20106 555 91000=
72386 12966 41909 10406 20039 39346 40050 56019 69901 92356 333
10411 20294 91019 555 91000=
72295 32466 82711 10172 20128 30066 40120 56012 92353 333 10194
20156 555 91000=
72297 32466 22807 10233 20139 30103 40112 56012 92353 333 10244
20161 555 91000=
0 32566 83008 10278 20217 30061 40155 56004 92353 333 10322 20256
555 91000=
72783 32966 03305 10361 20039 39594 40095 56020 92356 333 10372
20161 555 91000=
72334 11466 82105 10250 20233 30045 40144 51005 60011 795// 92353
333 10333 20250 555 91000=
72597 32966 02810 10378 20117 39649 40100 56017 92353 555 91000=
072773 32966 02914 10333 20006 39017 40110 56016 92353 333 10344
20111 555 91000=
72792 12966 03404 10339 20144 30062 40132 58013 69931 92354 333
10339 20133 555 91000=
72487 NIL=
72688 32966 03214 10367 20056 39571 40087 58018 92353 333 10372
20167 91019 555 91000=
72698 32866 23210 10344 20106 30113 40120 56011 92353 333 10344
20178 555 91000=
72371 15966 01010 10311 20078 38693 40100 56014 69901 92353 333
10350 20250 555 91000=
72408 12666 62006 10289 20200 30083 40104 55002 69901 92354 333
10328 20233 555 91000=
72278 32966 62504 10422 20100 39666 40036 56019 92351 333 10444
20339 555 91000=
72578 12866 42421 10267 20061 38653 40151 55014 69901 92353 333
10306 20089 91024 555 91000=
72591 35966 01613 10339 20178 39967 40086 56011 92354 333 10356
20211 555 91000=
72488 32966 42816 10322 20000 38656 40112 58003 92355 333 10333
20178 91022 555 91000=
####018003590####
SMUS70 KWBC 100000 RRA
AAXX 10004
72290 32466 82905 10183 20139 30117 40130 56007 92351 333 10183
20161 555 91000=
72492 32966 02907 10333 20139 30082 40094 56019 92355 333 10333
20144 555 91000=
72383 35966 02114 10300 21011 38631 40125 58006 92352 333 10328
20172 91019 555 91000=
72793 32966 43307 10333 20094 39976 40142 57009 92353 333 10339
20172 555 91000=
72494 32466 22921 10178 20106 30100 40132 56011 92356 333 10194
20128 555 91000=
72572 12866 4//04 10322 20039 38718 40118 56024 69901 92353 333
10328 20200 555 91000=
72694 32866 23408 10350 20111 30051 40120 56010 92356 333 10356
20167 555 91000=
72394 32966 03012 10167 20111 30043 40135 56007 92351 333 10194
20117 555 91000=
72274 32966 02813 10372 20117 39207 40055 56012 92353 333 10406
20306 91018 555 91000=
72797 NIL=
72583 35966 02908 10339 21039 38681 40102 56013 92356 333 10344
20183 555 91000=
72781 32866 2//03 10372 20050 39716 40088 58018 92353 333 10383
20139 555 91000=
72280 NIL=
70219 32666 80614 10183 20050 39975 40030 56027 92353 333 10194
20089 91018 555 91000=
70267 11766 42803 10233 20094 39628 40083 56015 69901 761// 92353
333 10272 20139 555 91000=
70174 32866 21311 10283 20056 39845 40081 56022 92353 333 10289
20111 91015 555 91000=
70316 12566 41628 10128 20067 39898 49933 51005 60011 92353 333
10128 20089 91033 555 91000=
70454 32112 83615 10080 20070 39964 52034 92356 333 10080 20070
91020 555 91000=
70321 31766 80515 10110 20080 39995 761// 92345 555 91000=
70350 11232 80713 10100 20089 30037 40076 56015 60191 761// 92353
333 10100 20089 96010 555 91000=
70261 32866 40907 10289 20094 39898 40067 58024 92353 333 10289
20144 555 91000=
70271 NIL=
0 32866 82204 10122 20072 31357 40101 57013 92353 333 10122 20039
555 91000=
70340 11866 61411 10106 20078 30019 40078 58013 69901 761// 92353
333 10128 20094 91017 555 91000=
70381 32766 82203 10189 20111 30122 40131 56009 92353 333 10222
20106 555 91000=
70326 11666 60920 10100 20000 30001 40013 56013 60041 761// 92354
333 10133 20067 91032 555 91000=
70231 32666 40000 10239 20067 39938 40061 58026 92353 333 10256
20156 555 91000=
70343 35366 80713 10110 20080 30111 57007 92356 333 10120 20090
555 91000=
70273 32766 40000 10211 20044 30037 40096 56016 92353 333 10217
20094 555 91000=
70232 35766 41208 10190 20060 30019 57027 92356 333 10190 20110
555 91000=
70260 11432 81308 10156 20139 31431 40171 53001 69901 761// 92353
333 10172 20150 96010 555 91000=
70200 32966 22410 10217 20044 30049 40053 58022 92353 333 10233
20144 555 91000=
70133 32966 43008 10167 20106 30071 40079 58018 92353 333 10167
20139 555 91000=
70333 35566 41423 39918 57027 92356 333 91032 555 91000=
70414 12266 83618 10071 20070 30082 40122 51007 69951 92356 333
70008 91025 555 91000=
70251 32966 02005 10228 20083 39958 40091 57020 92353 333 10233
20072 555 91000=
70361 32966 60000 10178 20100 30128 40139 50002 92353 333 10189
20111 555 91000=
70194 32966 21304 10290 20000 39921 92350 555 91000=
91217 NIL=
91212 31566 81110 10300 20250 31398 761// 90009 555 91000=
91165 12566 20514 10289 20183 30152 40184 58013 69901 92353 555
91000=
91182 12566 40511 10294 20178 30167 40172 56015 69901 92353 333
10294 20228 91019 555 91000=
91190 32666 40520 10300 20167 30151 40172 56018 92354 333 10300
20217 91028 555 91000=
91285 12566 60608 10272 20183 30161 40174 58013 69931 92353 333
10278 20206 555 91000=
91376 NIL=
91245 31566 40715 10320 20240 30167 716// 92357 555 91000=
####018003715####
SMUS71 KWBC 100000
AAXX 10004
72659 35966 01807 10294 20139 39670 40136 56019 92353 333 10311
20144 555 91000=
72548 32966 02504 10278 20178 39848 40159 56010 92354 333 10294
20156 555 91000=
72462 35966 02418 10228 20061 37761 40183 58009 92352 333 10278
20061 91026 555 91000=
72639 35966 0//03 10267 20122 39879 40127 55000 92354 333 10294
20172 555 91000=
72566 35966 01207 10289 20089 38825 40155 56013 92353 333 10294
20133 555 91000=
72480 35966 03206 10372 21039 38724 40088 58015 92356 333 10378
20122 555 91000=
72764 32966 02906 10300 20094 39555 40139 56017 92352 333 10311
20111 555 91000=
72428 12466 63606 10239 20222 39835 40122 53007 60151 92351 333
10272 20211 555 91000=
72458 35966 00000 10289 20133 39661 40175 58014 92355 333 10294
20167 555 91000=
72445 32966 00404 10272 20178 39850 40165 55004 92354 333 10289
20222 555 91000=
72569 32966 02208 10294 20017 38385 40141 56016 92353 333 10306
20056 555 91000=
72421 32566 63308 10278 20206 39813 40121 53002 92352 333 10289
20228 555 91000=
72564 12966 21809 10194 20083 38182 40191 58002 60281 92353 333
10244 20078 555 91000=
72429 32666 60705 10256 20211 39777 40130 53006 92356 333 10289
20222 555 91000=
72547 32966 03004 10272 20161 39782 40161 56009 92353 333 10289
20172 555 91000=
72451 35766 21206 10283 20167 39276 40165 56014 92352 333 10294
20161 555 91000=
72565 32866 60607 10272 20078 38395 40162 55005 92353 333 10278
20117 555 91000=
72745 32766 22809 10244 20106 39633 40143 56010 92355 333 10267
20139 555 91000=
72546 32766 23403 10300 20139 39822 40164 56009 92354 333 10311
20194 555 91000=
72537 32966 60103 10261 20122 39900 40128 55002 92353 333 10283
20228 555 91000=
72432 12966 00000 10283 20211 39999 40136 55003 69931 92354 333
10306 20239 555 91000=
72753 32866 42706 10300 20122 39807 40131 56018 92353 333 10306
20133 555 91000=
72637 35966 02903 10278 20133 39858 40128 55004 92353 333 10289
20222 555 91000=
72651 32866 42205 10283 20139 39654 40159 56012 92356 333 10294
20150 555 91000=
72533 32766 63505 10272 20194 39844 40133 53003 92354 333 10300
20222 555 91000=
72476 32966 03006 10322 20050 38555 40118 56016 92353 333 10333
20150 555 91000=
72465 35966 02110 10283 20133 38927 40163 56016 92353 333 10289
20150 555 91000=
72645 32966 02606 10267 20156 39891 40132 56010 92353 555 91000=
72552 32966 01604 10272 20117 39533 40181 56015 92353 333 10289
20139 555 91000=
72635 32766 23308 10278 20139 39858 40136 55000 92353 333 10294
20222 555 91000=
72654 35966 22406 10289 20117 39688 40141 56015 92355 333 10317
20167 555 91000=
72638 35966 03307 10261 20139 39727 40137 55003 92353 333 10289
20189 555 91000=
72425 12466 60000 10250 20211 39824 40116 55002 69951 92351 333
10272 20222 555 91000=
72450 32766 20204 10294 20172 39700 40169 56011 92353 333 10300
20206 555 91000=
0 35866 23407 10267 20144 39726 40133 55002 92354 333 10283 20144
555 91000=
72438 32666 60107 10278 20189 39848 40128 55000 92354 333 10300
20233 555 91000=
72747 35766 42506 10250 20139 39707 40132 56011 92355 333 10267
20083 555 91000=
72539 12666 62903 10267 20172 39825 40132 55003 69901 92353 333
10289 20211 555 91000=
72562 35966 01506 10267 20161 39211 40172 56015 92353 333 10278
20122 555 91000=
72422 11666 60000 10222 20189 39786 40132 53007 60021 761// 92354
333 10272 20217 555 91000=
72551 32966 02504 10272 20150 39754 40176 56012 92354 333 10294
20150 555 91000=
72446 32766 40204 10289 20161 39802 40171 56010 92353 333 10294
20189 555 91000=
72640 32766 43305 10283 20122 39900 40140 56007 92352 333 10289
20217 555 91000=
####018002240####
SMUS71 KWBC 100000 RRA
AAXX 10004
72636 32766 23107 10278 20139 39914 40139 55003 92355 333 10300
20217 555 91000=
72544 32966 03605 10283 20144 39939 40155 55006 92352 333 10306
20200 555 91000=
72641 32766 23105 10278 20156 39839 40144 56010 92353 333 10289
20172 555 91000=
72658 32766 23008 10289 20139 39834 40142 56009 92353 333 10306
20194 555 91000=
72556 35966 01906 10278 20133 39631 40174 56013 92356 333 10289
20139 555 91000=
72550 32766 41205 10289 20139 39808 40172 56012 92352 333 10306
20178 555 91000=
72530 32866 40606 10283 20128 39907 40141 55005 92351 333 10311
20233 555 91000=
72435 12566 80505 10283 20222 39994 40130 55006 69901 92353 333
10300 20228 555 91000=
72532 32966 03504 10283 20161 39914 40155 55003 92354 333 10294
20217 555 91000=
72464 32966 01408 10283 20111 38609 40158 58009 92353 333 10289
20111 555 91000=
72662 32966 01610 10283 20111 39056 40143 56014 92352 333 10300
20100 555 91000=
72592 32966 01716 10361 20167 39897 40074 55005 92353 333 10394
20200 555 91000=
72543 32866 23307 10278 20144 39895 40153 55006 92354 333 10300
20194 555 91000=
72672 35966 00704 10289 20000 38338 40131 56015 92353 333 10300
20089 555 91000=
72644 32966 02607 10272 20156 39686 40157 56012 92354 333 10283
20156 555 91000=
72535 32966 03609 10256 20156 39867 40144 53001 92354 333 10289
20206 555 91000=
72423 12666 63408 10289 20206 39961 40129 53006 69901 92356 333
10306 20244 555 91000=
72440 35666 43410 10278 20194 39709 40157 55003 92352 333 10294
20217 555 91000=
72666 35966 00403 10300 20100 38802 40138 56018 92353 333 10300
20083 555 91000=
0 32966 03608 10283 20156 39943 40153 56004 92352 333 10300 20233
555 91000=
0 32966 03309 10278 20111 31409 40154 56009 92353 333 10300 20133
555 91000=
72434 32666 43609 10283 20194 39955 40148 53001 92351 333 10306
20228 555 91000=
72557 32966 02204 10283 20150 39771 40167 56013 92352 333 10300
20133 555 91000=
72536 12966 00206 10272 20128 39882 40128 53001 69901 92352 333
10300 20228 555 91000=
72456 32966 00404 10289 20172 39863 40173 56009 92353 555 91000=
72567 35966 22307 10294 20122 39261 40157 56016 92352 333 10306
20150 555 91000=
####018000129####
SMUS72 KWBC 100000 CCA
AAXX 10004
72401 12666 61306 10289 20194 30035 40098 55000 69901 92354 333
10339 20222 555 91000=
####018003664####
SMUS72 KWBC 100000
AAXX 10004
72517 15966 61603 10278 20211 39965 40097 56008 69951 92351 333
10328 20228 555 91000=
72407 32466 21505 10261 20217 30073 40113 55004 92354 333 10311
20217 555 91000=
72311 32964 03103 10283 20183 39839 40121 53011 92351 333 10378
20228 555 91000=
72518 32766 61709 10300 20189 39981 40086 56004 92351 333 10328
20228 91017 555 91000=
72315 11964 23505 10228 20200 39381 40135 53010 69901 761// 92354
333 10317 20189 555 91000=
72513 32766 82005 10272 20183 39761 40091 53004 92354 333 10322
20222 555 91000=
72508 12666 41709 10272 20206 30036 40108 53002 69901 92351 333
10328 20222 555 91000=
72504 32966 01707 10267 20211 30103 40112 55005 92352 333 10294
20233 555 91000=
72515 32764 62304 10267 20183 39535 40099 55002 92353 333 10289
20211 555 91000=
72412 17556 42504 10239 20194 39260 40108 55007 69901 704// 92351
333 10283 20178 555 91000=
72509 32766 61811 10278 20200 30107 40115 55002 92354 333 10328
20228 555 91000=
72617 12966 81504 10278 20217 39952 40075 56007 69901 92354 333
10317 20244 555 91000=
72528 12366 60000 10217 20200 39848 40111 51008 60091 92354 333
10272 20211 555 91000=
72406 32766 61406 10289 20200 30024 40093 55004 92354 333 10339
20228 555 91000=
72310 11959 61304 10311 20239 30011 40094 55002 69951 705// 92356
333 10378 20239 555 91000=
72521 12466 60105 10228 20200 39687 40123 53006 60121 8/530 92351
333 10256 20222 555 91000=
72712 35966 01907 10261 20200 39864 40090 55014 92354 333 10306
20206 91014 555 91000=
72524 12566 60109 10239 20178 39855 40130 53004 69931 8/570 92351
333 10261 20228 555 91000=
72414 11359 63106 10233 20211 39756 40112 55001 60091 710// 92354
333 10294 20211 555 91000=
72417 17216 8//03 10217 20206 39431 40126 50004 60041 763// 92351
333 10317 20161 96010 555 91000=
72526 12666 20000 10233 20200 39858 40118 53004 60021 92351 333
10261 20222 555 91000=
72502 32466 61512 10267 20239 30099 40109 55004 92351 333 10306
20239 555 91000=
72317 11759 23106 10294 20217 39796 40108 53008 69901 705// 92354
333 10344 20228 555 91000=
72312 12666 82807 10283 20189 39786 40112 69901 92353 333 10372
20250 91021 555 91000=
0 35566 42303 10250 20222 30104 40107 53009 92351 333 10272 20228
555 91000=
72323 11766 60000 10250 20222 39921 40140 50012 69901 761// 92353
333 10356 20233 555 91000=
72403 32766 61609 10289 20206 39983 40091 53001 92352 333 10328
20233 555 91000=
72514 32866 62510 10294 20178 39893 40084 53002 92354 333 10328
20244 555 91000=
74486 32466 41810 10261 20217 30100 40113 55005 92351 333 10306
20233 555 91000=
72503 32566 61612 10278 20211 30095 40108 55003 92351 333 10322
20250 91019 555 91000=
72308 32566 40805 10272 20217 30084 40102 53001 92351 333 10311
20244 555 91000=
72520 11261 83204 10211 20200 39697 40116 55002 60411 761// 92351
333 10306 20206 555 91000=
72507 32566 61507 10261 20228 30102 40121 55007 92351 333 10300
20222 555 91000=
72606 32966 21812 10228 20206 30097 40115 56008 92351 333 10278
20194 91020 555 91000=
72306 32762 62604 10306 20206 39950 40099 55001 92351 333 10350
20222 555 91000=
72411 11858 60000 10244 20217 39701 40115 55007 60481 705// 92354
333 20217 555 91000=
72529 11266 82604 10217 20206 39903 40110 53005 60251 761// 92354
333 10294 20206 555 91000=
72519 11240 82906 10211 20206 39953 40098 51022 60101 795// 92354
333 10322 20211 96010 555 91000=
72402 35466 41605 10250 20222 30091 40104 55002 92354 333 10300
20239 555 91000=
72525 12366 80205 10217 20194 39703 40119 50003 60101 8/879 92351
333 10267 20206 555 91000=
####018003669####
SMUS73 KWBC 100000
AAXX 10004
72220 35966 02407 10294 20233 30132 40138 55002 92353 555 91000=
72266 12566 21604 10283 20211 39532 40150 56011 69901 92352 333
10283 20222 555 91000=
72365 32966 41313 10317 20083 38403 40118 58018 92356 333 10317
20183 91018 555 91000=
72256 12966 60000 10261 20228 39982 40155 57001 69901 92351 333
10322 20244 555 91000=
72218 32964 02704 10344 20167 30045 40094 53001 92353 333 10394
20217 555 91000=
72363 32666 60909 10261 20161 38959 40166 56014 92353 333 10267
20178 555 91000=
72219 12666 82603 10311 20217 39759 40118 55003 69981 92352 333
10356 20244 555 91000=
72254 15566 21107 10289 20233 39930 40141 58010 69951 92351 333
10317 20239 555 91000=
72327 12666 63309 10272 20211 39892 40135 53006 69901 92353 333
10322 20250 555 91000=
72241 35966 01805 10306 20211 30139 40146 56010 92353 333 10322
20244 555 91000=
72250 32566 41212 10300 20244 30115 40122 55005 92353 333 10317
20261 555 91000=
72360 35966 01308 10267 20139 38525 40168 56015 92355 333 10267
20161 91016 555 91000=
72324 12566 62803 10256 20222 39895 40136 53008 60021 92353 333
10361 20239 555 91000=
72208 32962 01806 10300 20222 30089 40105 55002 92356 333 10339
20233 555 91000=
72251 12466 61312 10300 20244 30109 40127 55011 69901 92351 333
10322 20256 91016 555 91000=
72212 35/// /2305 10289 20217 30131 40143 53003 92353 333 10339
20233 555 91000=
72259 11456 83005 10239 20228 39964 40165 51009 60081 763// 92353
333 10300 20239 555 91000=
72261 15966 01209 10278 20228 39765 40120 56005 60041 92353 333
10278 20239 91017 555 91000=
72270 12866 63204 10300 20144 38813 40102 56019 69901 92351 333
10311 20211 555 91000=
72201 32966 02105 10300 20239 30149 40154 53006 92353 333 10311
20250 555 91000=
72344 12966 62304 10278 20233 39995 40155 56010 69901 92353 333
10283 20239 555 91000=
72243 32666 41209 10317 20217 30102 40144 56012 92353 333 10328
20244 555 91000=
72235 12866 23307 10300 20217 30042 40144 53005 69901 92354 333
10356 20233 555 91000=
72206 32966 22208 10328 20200 30116 40126 53005 92356 333 10378
20228 555 91000=
74740 15566 60906 10256 20222 39554 40133 55002 69901 92351 333
10300 20228 555 91000=
72267 32566 60412 10244 20189 39060 40159 56006 92353 333 10272
20194 555 91000=
72240 32966 02004 10322 20217 30141 40153 55005 92353 333 10339
20250 555 91000=
72265 12966 60808 10261 20206 39177 40142 56011 60021 92353 333
10267 20211 555 91000=
72217 12966 02203 10317 20233 39988 40111 53001 60051 92353 333
10378 20217 555 91000=
72205 32566 60109 10294 20211 30107 40140 53003 92353 333 10350
20217 555 91000=
72234 12866 42003 10311 20256 30032 40136 53004 69951 92358 333
10356 20222 555 91000=
72226 11766 6//05 10289 20206 30063 40137 53019 69901 795// 92353
333 10378 20239 91020 555 91000=
72202 32566 61306 10300 20250 30139 40149 53006 92353 333 10333
20256 555 91000=
72223 12866 62904 10278 20228 30072 40148 53012 60111 92356 333
10344 20239 555 91000=
72231 32666 62007 10306 20233 30139 40148 53003 92353 333 10333
20244 555 91000=
72353 32566 61704 10250 20222 39714 40162 58005 92352 333 10306
20228 555 91000=
72203 32566 41409 10294 20248 30138 40145 53003 92353 333 10322
20239 555 91000=
72320 15966 00507 10261 20217 39909 40129 51024 69901 92353 333
10367 20217 555 91000=
72268 32766 61209 10283 20167 38923 40134 57014 92351 333 10294
20206 555 91000=
72253 11566 60904 10267 20228 39863 40133 55007 69901 761// 92353
333 10317 20239 555 91000=
72207 32962 42207 10339 20206 30088 40104 53002 92353 333 10378
20250 555 91000=
####018001124####
SMUS73 KWBC 100000 RRA
AAXX 10004
72248 11640 80218 10267 20233 30063 40155 53011 60051 92356 333
10344 20250 91024 555 91000=
72263 11466 80000 10256 20233 39495 40154 53003 60021 761// 92351
333 10306 20233 555 91000=
72351 11566 81903 10250 20217 39810 40162 58006 69901 761// 92352
333 10256 20228 555 91000=
72271 35866 20000 10317 20111 38534 40096 57020 92353 333 10322
20194 555 91000=
72214 32866 21906 10311 20233 30112 40131 53008 92353 333 10378
20217 555 91000=
72211 32766 22807 10306 20206 30129 40142 55003 92353 333 10333
20244 555 91000=
72356 32566 40000 10278 20222 39915 40155 58008 92353 333 10294
20228 555 91000=
72332 15966 00105 10283 20244 30016 40139 55009 60051 92353 333
10356 20244 555 91000=
72326 11458 80603 10244 20228 39781 40126 50000 60041 761// 92353
333 10333 20228 96010 555 91000=
72255 12962 01210 10294 20256 30101 40138 58011 60141 92351 333
10317 20244 555 91000=
78543 32966 00906 10283 20239 30082 40163 53010 92353 333 10317
20267 555 91000=
78526 32566 41009 10289 20233 30143 40164 53017 92356 333 10322
20261 555 91000=
####018000312####
SMGG40 UGGG 100000
AAXX 10001
37279 42494 71201 10244 20230 39970 40104 54000 87900=
37308 429// 00000 10236 20155 39488 40095 52009
  555 10023=
37531 429// 03203 10205 20197 39427 40108 54000=
37553 429// 00000 10217 20153 39480 40087 52001
  333 55///
  555 10020=
37492 NIL=
37651 NIL=
####018000366####
SMSY01 OSDI 100000
AAXX 10001
40001 32970 03505 10223 20021 40065 58005=
40007 32960 02804 10232 20151 40086 52001=
40025 32965 00502 10214 20176 40094 51004=
40045 32970 03307 10285 20120 40060 56001=
40061 32970 02502 10242 20148 40049 50002=
40080 32965 02202 10216 20140 39399 40062 58001=
40087 NIL=
40095 32970 00000 10206 20172 39487 40085 51003=
####018000095####
SNAA14 EGRR 092300 RRA
AAXX 09234
89020 46/// /9901 11395 21435 39935 49976 52001 92310=
####018001036####
SMPO01 LPMG 100000
AAXX 10001
08501 32/// /3202 10192 20156 30200 40235 52015 
333  91106=
08505 11470 79901 10209 20190 30172 40222 52011 69901 70282 878//
333 82812 85650=
08509 11460 83103 10208 20196 30166 40229 52013 60011 70282 888//
      333 84818 86630=
08512 32370 52702 10202 20190 30147 40238 52007 85800
333  82708 83812=
08515 11275 32402 10204 20188 30130 40243 52005 69921 70181 82801
333  82706=
08533 32/// /0108 10193 20161 30160 40189 54000 
333  91112=
08541 32/// /3505 10174 20150 30084 40201 54000=
08545 31965 00000 10159 20145 30130 40213 57002  70200=
08548 NIL=
08554 32965 03503 10280 20115 30165 40174 54000 
333  91107=
08558 32/// /3303 10189 20138 39903 40190 52002 
333  91109=
08560 32/// /0000 10177 20154 39473 40212 54000=
08567 32/// /0000 10184 20174 39564 40210 52005=
08570 31970 02702 10239 20153 39740 40179 52004  70200=
08575 32/// /3102 10199 20149 39414 40197 52003=
08579 32/// /3405 10187 20131 30080 40203 57001 
333  91008 91109=
####018001040####
SMPO01 LPMG 100000
AAXX 10001
08501 32/// /3202 10192 20156 30200 40235 52015 
333  91106=
08505 11470 79901 10209 20190 30172 40222 52011 69901 70282 878//
333 82812 85650=
08509 11460 83103 10208 20196 30166 40229 52013 60011 70282 888//
      333 84818 86630=
08512 32370 52702 10202 20190 30147 40238 52007 85800
333  82708 83812=
08515 11275 32402 10204 20188 30130 40243 52005 69921 70181 82801
333  82706=
08533 32/// /0108 10193 20161 30160 40189 54000 
333  91112=
08541 32/// /3505 10174 20150 30084 40201 54000=
08545 31965 00000 10159 20145 30130 40213 57002  70200=
08548 NIL=
08554 32965 03503 10280 20115 30165 40174 54000 
333  91107=
08558 32/// /3303 10189 20138 39903 40190 52002 
333  91109=
08560 32/// /0000 10177 20154 39473 40212 54000=
08567 32/// /0000 10184 20174 39564 40210 52005=
08570 31970 02702 10239 20153 39740 40179 52004  70200=
08575 32/// /3102 10199 20149 39414 40197 52003=
08579 32/// /3405 10187 20131 30080 40203 57001 
333  91008 91109=
####018001031####
SMPO01 LPMG 100000
AAXX 10001
08501 32/// /3202 10192 20156 30200 40235 52015
333  91106=
08505 11470 79901 10209 20190 30172 40222 52011 69901 70282 878//
333 82812 85650=
08509 11460 83103 10208 20196 30166 40229 52013 60011 70282 888//
      333 84818 86630=
08512 32370 52702 10202 20190 30147 40238 52007 85800
333  82708 83812=
08515 11275 32402 10204 20188 30130 40243 52005 69921 70181 82801
333  82706=
08533 32/// /0108 10193 20161 30160 40189 54000
333  91112=
08541 32/// /3505 10174 20150 30084 40201 54000=
08545 31965 00000 10159 20145 30130 40213 57002  70200=
08548 NIL=
08554 32965 03503 10280 20115 30165 40174 54000
333  91107=
08558 32/// /3303 10189 20138 39903 40190 52002
333  91109=
08560 32/// /0000 10177 20154 39473 40212 54000=
08567 32/// /0000 10184 20174 39564 40210 52005=
08570 31970 02702 10239 20153 39740 40179 52004  70200=
08575 32/// /3102 10199 20149 39414 40197 52003=
08579 32/// /3405 10187 20131 30080 40203 57001
333  91008 91109=
####018001444####
SMCI03 BABJ 100000
AAXX 10001
50136 31/08 92901 10138 20138 39621 40123 52009 74340 333
00353=
50745 32963 70201 10238 20191 39928 40098 52007 82032 333
00100=
50774 31662 20402 10210 20176 39829 40114 57001 70040 81102
333 00102 70001=
50788 32570 20202 10233 20175 30037 40117 52007 81102 333
00005=
51133 NIL=
51431 NIL=
51747 NIL=
52203 NIL=
52418 NIL=
52681 NIL=
53564 32965 70901 10217 20179 39092 40039 57001 80002 333
05102 70009=
53614 32980 21602 10209 20154 38820 40012 52004 82032 333
05301=
53646 NIL=
53798 11957 80701 10229 20208 39966 40056 52008 60011 71060
8807/ 333 00054 70097=
53845 NIL=
53959 NIL=
54094 32668 62201 10206 20168 39828 40109 52005 86200 333
00201 79999=
54102 11675 71606 10204 20143 38912 40011 52003 69961 70080
82402 333 05300 70011=
54161 31457 71401 10214 20191 39808 40082 52007 72840 876//
333 00103 70010=
54292 32580 70403 10189 20160 39811 40113 52004 8713/ 333
00202=
54374 31559 72701 10197 20165 39662 40101 52005 71000 876//
333 00201 70001=
54423 11562 71801 10203 20186 39622 40062 52004 69901 70080
879// 333 05253 70003=
54618 NIL=
54843 11665 81102 10244 20211 30036 40062 54000 69901 70080
8547/ 333 05100 79999=
54909 11509 80702 10234 20227 39986 40045 52012 60101 76060
8557/ 333 05153 70100=
56029 11680 80000 10097 20053 36529 52008 69931 76060 885//
333 00052 70003=
57127 NIL=
57131 NIL=
####018000107####
SMPH20 RPMM 091800 RRB
AAXX 09181
98133 32480 10000 10/// 20/// 40094 5//// 81202 333
56999 81818=
####018000123####
SMLT10 EYHM 100000 RRA
AAXX 10001
26531 31996 10000 10165 20157 30148 40221 51001 80001 333
91004 91105 555 1017/=
####018000200####
SMCD01 FTTJ 100000
AAXX 10004
64700 32960 70000 10250 20242 39778 40113 87072 92355
  333 0//00 58008 87365=
64750 32960 70000 10255 20227 39703 40110 87072 90005
  333 0//00 58000 87365=
####018000109####
SIIN22 DEMS 092100 RRB
AAXX 09214
42559 32996 60000 10258 20232 40018 83032
  333 59005 83360 86075=
####018000135####
SMNI01 DNMM 100000
AAXX 10004
65201 32460 62412 10260 20239 30097 40152 83538
  333 56500 57632 58016 83610 86280 91114 94463=
####018002566####
SMJP02 RJTD 100000
AAXX 10004
47407 11/60 83403 10180 20158 39925 40088 58009 69902 72582 886//
  333 20176 79999=
47409 12/60 83503 10177 20153 30048 40099 58012 60002 8757/
  333 20153 70000=
47418 11/30 80413 10171 20163 30033 40080 58029 60012 78022 887//
  333 20158 70010=
47421 17/59 /1001 10210 20195 30039 40080 53003 69902 76186
  333 20190=
47430 11/50 82706 10198 20188 30017 40068 55000 60302 78188 887//
  333 20192 70300=
47570 11/65 62905 10241 20181 39845 40091 51016 60052 70381 85231
  333 20203 70110=
47575 11/50 82805 10196 20190 30057 40062 53007 60312 78188 882//
  333 20193 70305=
47584 11/65 83502 10211 20185 39873 40051 51019 60152 78082 8527/
  333 20196 70145=
47604 12/65 72207 10256 20200 30089 40097 51012 60092 81231
  333 20216 70115=
47605 11/60 72411 10258 20208 30072 40111 51015 60132 70298 87200
  333 20212 70215=
47610 12/80 61602 10247 20174 39625 40093 51009 69902 85231
  333 20195 70040=
47624 12/82 23308 10286 20172 39952 40080 50008 60082 81202
  333 20207 70120=
47629 12/80 62403 10272 20196 30048 40083 51016 60042 81232
  333 20215 70120=
47636 12/60 60104 10248 20192 30052 40117 51011 60002 82132
  333 20202 70185=
47651 12/65 70706 10250 20196 30094 40115 51005 60002 81132
  333 20204 70295=
47655 12/75 62413 10248 20211 30053 40107 53008 60002 81238
  333 20223 70270=
47675 15/79 /2013 10254 20209 30017 40103 51015 60012
  333 20224=
47741 12/60 73002 10261 20220 30084 40110 50002 69902 83232
  333 20231 79999=
47746 11/60 72803 10260 20203 30094 40112 51007 69902 70282 87230
  333 20228 79999=
47750 12/65 72703 10252 20205 30091 40117 51007 60002 86202
  333 20210 79999=
47765 12/60 70105 10259 20205 30051 40113 51006 60002 8327/
  333 20236 70005=
47772 12/62 70102 10250 20201 30023 40118 51007 60002 86231
  333 20210 70085=
47800 17/57 /1203 10250 20225 30100 40105 50006 60002 71000
  333 20204=
47815 11/58 83503 10249 20216 30098 40113 53011 60002 71011 8687/
  333 20219 79999=
47817 12/60 71203 10258 20213 30066 40107 53004 60002 81132
  333 20216 70000=
47830 11/75 60501 10261 20222 30093 40110 52013 60052 70281 81231
  333 20221 70050=
47887 12/60 72804 10263 20199 30073 40112 51006 60002 81131
  333 20219 79999=
47891 12/60 70103 10253 20212 30101 40117 51007 60002 872//
  333 20220 79999=
47895 12/62 71406 10247 20202 30110 40117 52006 60002 81202
  333 20209 70110=
47927 11/80 71810 10298 20262 30068 40115 51012 69902 70282 82232
  333 20281 79999=
####018001872####
SMJP01 RJTD 100000
AAXX 10004
47401 11258 80710 10149 20143 30101 40115 51001 69902 72022 886//
  333 20147 79999=
47412 11/60 71302 10223 20187 30046 40076 56007 69952 72522 876//
  333 20207 70005=
47420 11/20 81013 10176 20173 30049 40095 58025 69952 78085 887//
  333 20127 70005=
47426 17/80 /0209 10208 20187 39998 40042 58023 60072 76165
  333 20176=
47582 11/57 82912 10231 20212 30044 40069 53015 60392 78098 882//
  333 20216 70390=
47590 11/84 22709 10274 20179 30011 40061 51017 60112 70281 81232
  333 20212 70155=
47600 11470 62305 10252 20207 30085 40102 51012 60032 70382 86200
  333 20204 70230=
47648 12970 72211 10259 20200 30059 40091 53017 60162 81032
  333 20218 70275=
47662 12982 62802 10291 20176 30048 40089 51014 60002 81032
  333 20236 70240=
47678 17/59 /2110 10246 20236 39951 40129 51009 60052 71000
  333 20239=
47740 17/58 /1404 10257 20214 30074 40111 50006 60002 71000
  333 20203=
47778 15/78 /2306 10252 20207 30031 40117 53009 60002
  333 20209=
47807 11/40 73503 10259 20211 30091 40108 52008 60002 71011 83202
  333 20233 70000=
47827 11475 50602 10268 20233 30072 40108 51010 60202 70282 82232
  333 20235 70195=
47843 17/56 /0707 10255 20226 30072 40103 53005 60002 71030
  333 20210=
47893 12/75 71902 10266 20205 30108 40114 53005 60002 82202
  333 20225 70170=
47909 12/70 71804 10292 20252 30115 40124 53010 69902 8227/
  333 20241 70645=
47918 11470 71913 10302 20262 30090 40107 51012 69902 70282 82232
  333 20292 70010=
47936 12/80 71909 10297 20255 30070 40126 53014 60002 8327/
  333 20280 79999=
47945 12/70 61810 10300 20264 30113 40136 52007 69902 81201
  333 20270 79999=
47971 12/75 41406 10283 20237 30168 40177 51009 60002 84200
  333 20259 70000=
47991 16/// /1310 10268 20239 30186 40196 50002 60022
  333 20259 70025=
####018000146####
SMVS01 VNNN 100000
AAXX 10001
48820 11598 51402 10306 20266 30031 40039 50006 69932 70382 82840 
333 01031 20299 3/028 59003 81895 84299=
####018000366####
SMSY20 OSDI 100000
AAXX 10001
40009 32965 00000 10203 20148 40033 58002=
40016 NIL=
40022 32965 00000 10230 20204 40089 56002 222// 20000=
40030 32970 00000 10222 20135 40071 55000=
40039 32970 00000 10242 20115 40061 51004=
40066 32970 00000 10218 20190 40086 56001=
40072 32970 00000 10293 20129 40065 52013=
40083 32970 00000 10182 20047 48476 56002=
####018000211####
SMLB01 OLBA 100000
AAXX 10004
40100 11550 20000 10248 20220 30066 40096 56001 60001 71044 82200
900// 333 82826 92426=
40101 12958 00000 10196 20133 39064 48489 56002 60001 900//=
40102 NIL=
40103 NIL=
####018000428####
SMVS02 VNNN 100000
AAXX 10001
48823 32698 71602 10302 20275 30038 40041 53003 82508 333 00033 
20295 3/029 59004 82696 86299=
48892 32598 82305 10280 20260 30103 40108 53018 888// 333 20273 
58010 83895 85697=
48916 32598 72902 10276 20246 30046 40093 53009 82208 333 00/// 
20266 3//// 59003 82895 87299=
48919 32598 72006 10281 20236 30089 40111 52016 879// 22200 02292 
2//03 333 20278 58007 83895 85995=
####018000805####
SMMO01 MNUB 100000
AAXX 10000
44214 32698 63102 10151 20006 38198 40032 57004 82450
333 20138 555 30110=
44231 32699 70804 10177 20113 38664 40055 52005 82848
333 20152 55101 555 30129=
44259 11697 81405 10207 20126 39220 40049 53006 60022
70262 885// 333 20163 555 30150=
44277 32699 60903 10171 20000 37777 40048 53001 82550
333 20135 555 30194=
44288 32699 33505 10134 20090 38149 40113 52006 83500
333 20111 555 30094=
44292 32699 71501 10166 20124 38652 40064 53010 87500
333 20146 55002 555 30119=
44304 11599 70208 10173 20122 38894 40044 52006 60022
70262 84550 333 20153 91112 555 30139=
44354 11596 80207 10167 20129 38964 49970 52014 69952
76162 8802/ 333 20166 555 30174=
44373 32699 33404 10179 20108 38484 40043 51004 82284
333 20155 55134 555 30115=
####018002460####
SMMO02 MNUB 100000
AAXX 10000
44203 32699 70000 10111 20082 38365 40086 53005 82550
333 20059 555 30055=
44207 11699 53602 10112 20080 38290 40096 54000 69912
70242 83549 333 20058 55/// 555 30056=
44212 32699 63604 10180 20075 38977 40024 57004 83270
333 20117 55078 555 30118=
44213 32999 60000 10178 20052 38678 40029 52002 84039
333 20133 555 30121=
44215 32698 70000 10153 20055 38320 40012 54000 82546
333 20114 555 30105=
44218 NIL=
44225 32698 70000 10105 20072 38235 40110 54000 82188
333 20088 555 30078=
44230 32698 50000 10159 20106 38745 40121 53004 82104
333 20107 555 30098=
44232 32999 41002 10167 20130 39033 40084 52003 84030
333 20125 555 30117=
44237 32999 20000 10134 20104 38445 40108 53005 82044
333 20087 555 30085=
44239 32699 23601 10162 20114 38745 40060 55000 81104
333 20119 555 30087=
44241 32699 82802 10167 20160 39178 40087 52011 885//
333 20158 555 30156=
44256 32699 60907 10216 20156 39267 40057 53008 82582
333 20152 555 30132=
44265 NIL=
44272 32698 60000 10145 20050 38160 40018 57003 85540
333 20127 55134 555 30094=
44275 NIL=
44282 32999 60000 10142 20093 38265 40075 53006 83074
333 20097 555 30084=
44284 32699 70000 10119 20068 37842 40113 51002 82154
333 20076 555 30079=
44285 32699 20601 10150 20100 38298 40089 53003 82100
333 20083 555 30095=
44287 32699 40802 10154 20066 38091 40082 53002 81104
333 20121 555 30118=
44294 32698 60104 10160 20098 38515 40081 52014 86500
333 20111 555 30098=
44298 11598 80507 10152 20125 38635 40041 52016 69902
72162 8654/ 333 20145 555 30140=
44302 31598 70505 10177 20146 39049 40079 52011 71522
87700 333 20155 555 30130=
44305 11599 80910 10157 20138 38929 40000 53003 60052
70266 8852/ 333 20152 91118 555 30154=
44313 32999 21405 10217 20123 39303 40066 53004 80004
333 20138 555 30123=
44314 11698 80905 10175 20144 39054 40056 53007 69932
70282 885// 333 20155 555 30144=
44317 11596 81806 10161 20140 38848 40036 52008 60032
71062 8872/ 333 20148 555 30136=
44336 32699 23605 10165 20111 38636 40090 51001 82100
333 20127 555 30119=
44341 32599 63608 10155 20106 38544 40075 52013 86500
333 20127 555 30110=
44347 32999 03204 10161 20114 38647 40063 52006 333
20128 555 30106=
44352 11596 81403 10161 20125 38783 49979 53002 69982
76096 8802/ 333 20136 555 30136=
44358 32598 62908 10207 20146 38930 49985 51011 83340
333 20170 555 30163=
####018000175####
SMCY01 LCLK 100000
AAXX 10004 
17600 15960 /0105 10217 20194 30088 40097 57006 60001=
17601 NIL=
17607 NIL=
17609 12962 03208 10239 20220 30090 40093 56003 60001=
####018000194####
SMMD01 LPMG 100000
AAXX 10001
08521 32470 23402 10195 20166 30148 40219 50006 82800
333   81815=
08524 32465 60304 10194 20168 30127 40223 52002  86800
333  84815 84630 91006 91107=
####018000195####
SMMD01 LPMG 100000
AAXX 10001
08521 32470 23402 10195 20166 30148 40219 50006 82800
333   81815=
08524 32465 60304 10194 20168 30127 40223 52002  86800
333  84815 84630 91006 91107=
####018000333####
SMCG01 FCBB 100000
AAXX 10003
64400 NIL=
64401 32460 61806 10213 20177 39761 40135 86500
  333 0//00 59005 86616=
AAXX 10004
64450 32957 03004 10214 20192 39767 40122
   333 0//00 59006=
64453 NIL=
64456 NIL=
AAXX 10003
64458 32960 00000 10222 20216 39722 40110
  333 0//00 58001=
64459 NIL=
64460 NIL=
####018000145####
SMVS01 VNNN 100000
AAXX 10001
48820 11598 51402 10306 20266 30031 40039 50006 69932 70382 82840
333 01031 20299 3/028 59003 81895 84299=
####018000424####
SMVS02 VNNN 100000
AAXX 10001
48823 32698 71602 10302 20275 30038 40041 53003 82508 333 00033
20295 3/029 59004 82696 86299=
48892 32598 82305 10280 20260 30103 40108 53018 888// 333 20273
58010 83895 85697=
48916 32598 72902 10276 20246 30046 40093 53009 82208 333 00///
20266 3//// 59003 82895 87299=
48919 32598 72006 10281 20236 30089 40111 52016 879// 22200 02292
2//03 333 20278 58007 83895 85995=
####018000095####
SIRA21 RUHB 091500 RRA
AAXX 09151
31478 42699 50905 10129 20102 39086 40104 52006 84902=
####018001842####
SMRA10 RUHB 100000
AAXX 10001
30372 32799 30000 10159 20100 39312 40118 51001 81201 333 20085
55151=
30433 32699 21802 10149 20129 39546 40099 54000 81501 333 20119
55147=
30554 32998 00000 10146 20095 39095 40110 51003 333 20063 55117=
30635 32899 80000 10153 20115 39571 40102 53004 82032 333 20105=
30673 32999 02202 10165 20136 39405 40116 51005 333 20079 55136=
30692 31599 43602 10149 20136 39657 40119 54000 70240 82031 20107
55072=
30758 32699 10051 10182 20144 39340 40091 52002 81131 333 20126
55101=
30802 12697 80000 10136 20121 38658 48461 58005 69932 84531 333 20117
55044 95750=
30823 32999 80501 10179 20140 39502 40087 53008 85072 333 20145
55010=
30879 32999 20301 10212 20138 39390 40081 52002 80001 333 20140
55082=
30935 11/93 90601 10133 20125 39229 40104 52011 69902 74542 333 20116
55030=
30949 32699 62901 10179 20106 39070 40074 52007 83533 333 20136
55035=
30965 32999 71104 10206 20130 39330 40082 52005 83042 333 20158
55032=
31168 12498 80402 10122 20109 30143 40154 58001 60010 885// 333 20108
55000 95070=
31300 32599 20401 10215 20147 39838 40102 52005 82200 333 20144=
31329 32699 80000 10144 20112 39490 40110 52001 8355/ 333 20084
55149=
31369 11398 80801 10128 20117 30064 40144 53005 69942 72052 886// 333
20106 88706 95080=
31416 32599 83201 10145 20105 30051 40136 58001 884// 333 20099
55030=
31484 11599 71401 10150 20121 39815 40130 57003 60010 70282 875// 333
20130=
31512 116// 63401 10219 20184 39947 40099 51011 69902 70282 82940 333
20196=
31538 31999 60000 10188 20178 39715 40114 52006 71122 86030 333
20140=
31707 32599 60000 10221 20160 30037 40121 52007 82901 333 20158=
31735 32997 00303 10201 20161 30039 40120 50004 333 20135=
31770 32597 83202 10145 20121 30113 40142 53002 8643/ 333 21120
55007=
