####018000095####
SIRA25 RUNW 092100 CCA
AAXX 09211
23074 42998 70802 10171 20137 30069 40092 53007 8703/=
####018000109####
SIGG20 UGGG 092100 RRA
AAXX 09211
37409 41/91 92704 10166 20166 38756 48497 52006 74544
  333 95090=
####018000103####
SNAU62 AMMC 092300 RRB
AAXX 09234
95984 11/80 81305 10061 20038 69944 70322
  333 70004=


####018000089####
SNIY20 LIIB 092300 RRB
AAXX 09234
16008 42962 00000 10180 20139 38627 48587 52017=
####018000109####
SMAA01 NZSP 100000
AAXX 10004
89009 41832 30414 11634 36727 52003 77672 80005
333 11631 21681 83257=
####018000135####
SNAU03 AMMC 092300 CCC
AAXX 09234
94659 11882 73512 10108 20096 39947 40149 53010 60024 70222 87310
92330
  333 70018=


####018000111####
SMCH01 SCSC 100000
AAXX 10004
85574 11958 09902 10108 20046 39627 40188 51006 60001 70500
  333 10184=
####018000105####
SMCH01 SCSC 100000
AAXX 10004
85469 42565 53211 10208 20186 40146 57011 85200
  333 56200 85820=
####018000152####
SMME01 FAME 100000
AAXX 10004
68994 11396 83117 10076 20073 39918 49947 58014 60093 74054 886//
      333 10094 20074 91028 555 20088 90994=

####018000131####
SMPS01 NZKL 100000
AAXX 10004
91824 11499 51214 10273 20243 40172 57009 60001 70222 85832 333 20204
56399 70000 555 1////=
####018000149####
SMME01 FAME 100000
AAXX 10004
68994 11396 83117 10076 20073 39918 49947 58014 60093 74054 886//
      333 10094 20074 91028 555 20088 90994=
####018000087####
SNIY20 LIIB 092300 RRB
AAXX 09234
16008 42962 00000 10180 20139 38627 48587 52017=
####018000143####
SMZS01 NSTU 100000
AAXX 10004
91765 11469 61115 10291 20252 30134 40137 57012 69934 70282 84401 
333 20267 562/2 58010 70003 555 91000=
####018000135####
SNAU03 AMMC 092300 RRJ
AAXX 09234
94821 11456 80331 10107 20093 39991 40074 58015 60044 76266 888//
92330
  333 70040=


####018000077####
SIAA01 KARS 092100 RRG
AAXX 0921/
89667 46/// ///// 4//// 5//// 92140=
####018000794####
SNAA01 KARS 092200 RRC
AAXX 0922/
89768 46/// ///// 11320 38663 4//// 5////=
89872 46/// ///// 11280 39737 4//// 5////=
89872 46/// ///// 11280 39736 4//// 5//// 92210=
89377 46/// ///// 11341 39751 4//// 5//// 92210=
89869 46/// ///// 11293 39739 4//// 5////=
89834 46/// ///// 11494 37374 4//// 5////=
89834 46/// ///// 11496 37381 4//// 5//// 92210=
89866 46/// ///// 11219 39675 4//// 5////=
89864 46/// ///// 11256 39700 4//// 5////=
89376 46/// ///// 11390 39700 4//// 5//// 92210=
89799 46/// ///// 11616 4//// 5////=
89868 46/// ///// 11330 39732 4//// 5////=
89332 46/// ///// 11363 38986 4//// 5//// 92210=
89828 46/// ///// 11683 36500 4//// 5//// 92210=
89879 46/// ///// 11168 39669 4//// 5////=
89879 46/// ///// 11168 39669 4//// 5//// 92210=
####018000103####
SMUS41 KGYX 092356
SSMMWN
72613 31/01 91919 10139 20139 38095 56007 74742 
333 10175 20138 

####018000101####
SMBN31 OBBI 100000
AAXX 10003
41150 31957 21406 10343 20256 49991 70500 82030 333 59004 82366=
####018000085####
SMMJ01 LWOH 100000
AAXX 10001
13579 32970 02802 10132 20098 39391 40211 57003=
####018000109####
SNAU44 AMMC 092300 RRE
AAXX 09234
94676 11/60 63110 10107 20083 60024 70165 92330
  333 70023=


####018000142####
SMKA01 PTKR 100000
AAXX 10004
91408 11473 83605 10294 20247 30090 40128 52015 69984 70282 82271
333 20244 56831 58017 70008 555 91000=
####018000135####
SMMH01 PKMR 100000
AAXX 10004
91376 12474 80503 10304 20241 30115 40119 58003 60234 84871 333
20248 56121 58009 70226 555 91000
####018000136####
SMMH01 PKMR 100000
AAXX 10004
91376 12474 80503 10304 20241 30115 40119 58003 60234 84871 333
20248 56121 58009 70226 555 91000
####018000143####
SMKA01 PTKR 100000
AAXX 10004
91408 11473 83605 10294 20247 30090 40128 52015 69984 70282 82271
333 20244 56831 58017 70008 555 91000=
####018000127####
SNVD22 KWNB 092300 RRV
BBXX
46221 09231 99339 71186 46/// ///// 1//// 92317 22200 00174 11301
21001 320// 41301 70006=
####018000105####
SMCH01 SCSC 100000
AAXX 10004
85432 12970 01906 10108 21194 37771 48480 52018 60001
  333 10220=
####018000639####
SMVD15 KWNB 100000
BBXX
41114 10001 99276 70802 46/// ///// 1//// 92342 22200 00289 11001
21001 70004=
42362 10001 99278 70907 46/// /0602 10300 20222 40153 92345=
42364 10001 99291 70881 46/// /2402 10278 20217 40153 92345=
41025 10001 99350 70754 46/// /2605 10276 20229 40106 53012 92350
22200 00261 10802 20401 300// 40801 70009 333 91205 555 11048
22051 32256 43106 62349 257044 278033 288036 300038 304045 308048=
41012 10001 99300 70805 46/// /1805 10285 20251 40129 55003 92350
22200 00282 10801 20301 308// 40801 70005 333 91206 555 11057
22062 32300 41707 62349 184053 181049 178050 177054 175054 174055=
####018000217####
SMVD19 KWNB 100000
BBXX
46073 10001 99550 71720 46/// /0310 10065 20065 49938 52003 92350
22200 00060 10806 20806 70028 333 91211 555 11095 22102 32254
40412 62349 031095 033095 035100 036095 036096 037099=
####018000398####
SMVD22 KWNB 100000 RRB
BBXX
46088 10001 99483 71232 46/// /2507 10138 40138 57007 92350 22200
00122 10201 20201 70003 333 91209 555 11077 22082 32346 42409
62349 245070 248067 245064 244060 242057 240054=
46053 10001 99342 71198 46/// /2607 10153 40118 58018 92350 22200
00172 10502 20501 70008 333 91208 555 11075 22078 32343 42708
62349 264072 263070 265065 263062 264058 262057=
####018000232####
SMVD20 KWNB 100000 RRB
BBXX
44060 10001 99413 70721 46/// /1103 10217 40120 92345 22200 00191
333 91203 555 11036 22046=
44022 10001 99409 70737 46/// /1605 10264 20208 40111 92345 22200
00225 333 91207 555 11057 22072=
####018000125####
SMVD45 KWNB 100000 RRA
BBXX
45022 10001 99454 70851 46/// /3302 10212 40160 92350 22200 00197
10201 70003 333 91203=
####018000127####
SNVD17 KWNB 092300 RRF
BBXX
46239 09231 99363 71221 46/// ///// 1//// 92323 22200 00140 11302
20802 317// 41301 70010=
####018000127####
SNVE15 KWNB 092300 RRG
BBXX
51202 09231 99214 71577 46/// ///// 1//// 92310 22200 00255 10603
20603 307// 41101 70017=
####018000111####
SMCH02 SCSC 100000
AAXX 10004
85874 11/12 90100 10000 21009 39444 40084 56022 60061 7717/
  333 10014=
####018000072####
SALY31 HLLT 100000
METAR HLLT 092350Z 00000KT 7000 SKC 23/20 Q1018=
####018000137####
SMMH01 PKMR 100000
AAXX 10004
91376 12474 80503 10304 20241 30115 40119 58003 60234 84871 333
20248 56121 58009 70226 555 91000=
####018000128####
SMSE01 FASE 100000
AAXX 10004
89004 46/// /0941 11337 21367 38771 49888 53010
      333 11241 21338 91050 555 9////=

####018000125####
SMSE01 FASE 100000
AAXX 10004
89004 46/// /0941 11337 21367 38771 49888 53010
      333 11241 21338 91050 555 9////=
####018000101####
SMCV01 GVNP 100000
AAXX 10004
08589 31459 23606 10256 20217 40155 70600 82500 333 58000 82615=
####018000086####
SMML01 LMMM 100000
AAXX 10004
16597 32962 02501 10225 20193 30108 40193 58002 =
####018000109####
SNAU58 AMMC 092300 RRB
AAXX 09234
94849 11560 80205 10099 20063 69944 76062 83720
  333 70004=


####018000111####
SMCH01 SCSC 100000
AAXX 10004
85682 12960 21804 10083 20059 40227 54000 80001
  333 10127 56005 82070=
####018000101####
SMMJ41 LWSK 100000
AAXX 10031
13586 32870 20000 10169 20127 39916 40198 58007 82030 333 82359=
####018000146####
SMTV01 NGFU 100000
AAXX 10004
916433 11498 89903 10283 20242 40124 58009 60121 71488 83278 333
20240 50044 56499 70353 83818 85460 88280=
####018000085####
SMML01 LMMM 100000
AAXX 10004
16597 32962 02501 10225 20193 30108 40193 58002 =
####018000074####
SALY31 HLLT 100000
METAR HLLT 092350Z 
00000KT 7000 SKC 23/20 Q1018=
####018000129####
SMCH02 SCSC 100000
AAXX 10004
85799 11430 83616 10072 20065 40201 54001 69981 75866 886//
  333 10081 56899 85710 88620=
####018000129####
SMCH02 SCSC 100000
AAXX 10004
85864 11210 80000 10002 20000 40073 57011 60141 77377 8802/
  333 10027 56019 88505 93114=
####018000121####
SMCH01 SCSC 100000 CCA
AAXX 10004
85682 12960 21804 10083 20059 40227 54000 60001 80001
  333 10127 56005 82070=
####018000230####
SMCV01 GVAC 100000
AAXX 10004
08594 31459 40106 10248 20219 40158 70621 84501 333 58006 84615=
08589 31459 23606 10256 20217 40155 70600 82500 333 58000 82615=
08583 32560 30507 10242 20211 40170  83500 333 58006 83616=
####018000309####
SMNP01 VNKT 100000
AAXX 10004
44416 NIL=
44438 NIL=
44454 41320 80000 10212 20203 38594 48433 76165 9572/ 333 59021=
44477 NIL=


NNNN
SMNP20 VNKT 100000
AAXX 10004
44404 NIL=
44424 NIL=
44434 NIL=
44449 NIL=
44461 NIL=
44462 NIL=
44474 NIL=
44478 NIL=



NNNN  
####018000307####
SMNP01 VNKT 100000
AAXX 10004
44416 NIL=
44438 NIL=
44454 41320 80000 10212 20203 38594 48433 76165 9572/ 333 59021=
44477 NIL=


NNNN
SMNP20 VNKT 100000
AAXX 10004
44404 NIL=
44424 NIL=
44434 NIL=
44449 NIL=
44461 NIL=
44462 NIL=
44474 NIL=
44478 NIL=



NNNN
####018000123####
SMCH02 SCSC 100000
AAXX 10004
85934 12470 42915 10008 21021 49997 54002 60001 82431
  333 10027 56777 82615 83070=
####018000097####
SMCY01 EGRR 100000
AAXX 10004
17601 12968 02705 10240 20195 30061 40091 57002 60001 92350=
####018003688####
SMVD15 KWNB 100000 RRA
BBXX
41046 10001 99238 70709 46/// /1105 10278 20242 40173 55000 92350
22200 00293 10802 20401 311// 40802 70012 333 91206 555 11050
22052 32302 41209 62349 109049 100059 105064 109070 115076 107069
83008 92303=
41001 10001 99347 70727 46/// /1908 10269 20224 40121 55000 92350
22200 00270 10803 20602 3//// 40802 70013 333 91209 555 11082
22087 32322 41909 62349 190076 188076 188073 194073 195076 195074=
42036 10001 99285 70845 46/// /2503 10292 40147 56003 92350 22200
00299 10701 322// 40701 70003 333 91203 555 11027 22028 32310
42504 62349 250026 251031 251028 259029 250032 254028=
41049 10001 99275 70630 46/// /1106 10272 20242 40218 53007 92350
22200 00274 10603 20501 300// 40602 70014 333 91207 555 11058
22062 32317 41107 62349 105056 108060 102061 101059 100056 105057
81006 92322=
41044 10001 99217 70587 46/// /0907 10280 20253 40192 53013 92350
22200 00282 10703 20402 300// 40702 70015 333 91208 555 11071
22076 32326 40909 62349 087067 091069 091068 091068 089065 089065
81008 92328=
41048 10001 99320 70696 46/// /1809 10270 20241 40167 55000 92350
22200 00271 10704 20704 70018 333 91210 555 11091 22097 32252
41711 62349 180084 179084 186088 183084 179084 179090 81810 92252=
42039 10001 99288 70860 46/// /2602 10284 20223 40146 58009 92350
22200 00300 10701 300// 40701 70003 333 91203 555 11020 22020
32256 42403 62349 256019 241012 271015 265019 256018 251018 80703
92256=
44005 10001 99432 70691 46/// /1606 10207 92350 22200 00198 10602
20401 3//// 40602 70011 333 91207 555 11062 22069 32319 41608
62349 158058 159064 159065 158064 160062 163059=
42035 10001 99292 70944 46/// /1301 10288 40148 56012 92350 22200
00304 10702 20401 316// 40701 70008 333 91202 555 11012 22013
32257 41603 62349 130012 126013 145014 140016 128017 134019=
42060 10001 99165 70635 46/// /0708 10291 20249 40152 53013 92350
22200 00294 10704 20704 70019 333 91211 555 11090 22095 32303
40811 62349 070084 076082 081081 086088 082089 085089 80710 92345=
42019 10001 99279 70954 46/// /1204 10293 20254 40142 58013 92350
22200 00294 10702 20401 313// 40702 70012 333 91205 555 11043
22045 32341 41205 62349 123041 121041 119037 130038 131040 127038=
42059 10001 99151 70675 46/// /1008 10292 20253 40135 53012 92350
22200 00295 10805 20603 300// 40803 70023 333 91209 555 11089
22094 32329 40911 62349 096083 096085 093090 102079 103074 106083
80910 92322=
42020 10001 99270 70967 46/// /1206 10284 40125 56010 92350 22200
00297 10703 20402 312// 40702 70017 333 91208 555 11068 22071
32331 41109 62349 120063 114069 117066 117068 115065 111068=
42056 10001 99199 70851 46/// /1404 10284 20248 40137 52006 92350
22200 00291 10602 20401 313// 40602 70010 333 91204 555 11037
22038 32252 41306 62349 133034 112022 115023 121026 094036 114048
81305 92252=
44066 10001 99396 70726 46/// /1904 10252 20244 40108 56009 92350
22200 10802 20401 300// 40802 70011 333 91205 555 11043 22045
32257 41906 62349 187041 192040 190038 187045 193047 190046=
42012 10001 99301 70876 46/// /2506 10291 20248 40148 55000 92350
22200 00296 10301 20301 319// 40601 70006 333 91207 555 11062
22066 32325 42408 62349 250059 251058 247066 249065 245064 246064=
41047 10001 99275 70715 46/// /2004 10277 20240 40177 53003 92350
22200 00286 10802 20401 310// 40801 70008 333 91205 555 11045
22047 32322 42106 62349 200043 200043 201046 203045 202047 204047
82005 92301=
44011 10001 99411 70666 46/// /1606 10208 40156 56013 92350 22200
00177 10803 20602 317// 40802 70016 333 91207 555 11071 22083
32319 43508 62349 163063 162063 165069 165073 162067 155060=
####018001112####
SMVD17 KWNB 100000
BBXX
46084 10001 99566 71361 46/// /1309 10121 20121 40133 57003 92350
22200 00118 10503 20503 300// 40901 70016 333 91211 555 11097
22104 32256 41312 62349 129091 130089 133089 134092 134099 134098=
46075 10001 99539 71608 46/// /1707 10091 20082 49974 54000 92350
22200 00092 10905 20503 300// 40904 70025 333 91209 555 11079
22084 32256 41911 62349 170074 171078 171074 172071 180078 184087
81910 92256=
46005 10001 99461 71310 46/// /2704 10139 40240 58007 92350 22200
00135 11502 20401 300// 41502 70010 333 91205 555 11047 22051
32256 42806 62349 275043 275042 281047 281046 282047 282050=
46005 10001 99461 71310 46/// /2704 10139 40240 92350 22200 00135
11502 20401 300// 41502 70010 333 91205 555 11047 22051 32256
42806 62349 275043 275042 281047 281046 282047 282050=
46080 10001 99580 71500 46/// ///// 10098 40085 56008 92350 22200
10805 70024=
46085 10001 99559 71426 46/// /1803 10110 20110 40079 53006 92350
22200 00105 10603 20401 3//// 40603 70017 333 91204 555 11038
22042 32327 41704 62349 178033 174030 170028 172031 157026 150026=
####018000643####
SMVD15 KWNB 100000 RRB
BBXX
42040 10001 99292 70882 46/// /2604 10292 20227 40143 55006 92350
22200 00309 10701 317// 40701 70004 333 91205 555 11043 22044
32327 42605 62349 262041 265037 262041 255044 252040 255039=
41043 10001 99211 70650 46/// /1008 10285 20233 40184 53010 92350
22200 00290 10604 20603 300// 40801 70018 333 91209 555 11081
22086 32337 40909 62349 103077 092071 087064 092064 095066 095069
80908 92337=
42055 10001 99220 70940 46/// /0907 10285 20256 40119 58004 92350
22200 00280 10602 20602 70012 333 91209 555 11078 22084 32333
40909 62349 090072 090076 098066 099060 097060 095062 80908 92333=
####018000140####
SMNP01 VNKT 100000
AAXX 10004
44416 NIL=
44438 NIL=
44454 41320 80000 10212 20203 38594 48433 76165 9572/ 333 59021=
44477 NIL=
####018000428####
SMVE15 KWNB 100000 RRA
BBXX
51000 10001 99235 71541 46/// /0809 10245 20163 40196 56011 92350
22200 00249 11104 20703 309// 41103 70020 333 91211 555 11096
22102 32334 40811 62349 079090 081090 081090 081085 079084 082087=
51003 10001 99191 71607 46/// /0607 10252 40156 58012 92350 22200
00267 10604 20603 300// 40802 70019 333 91209 555 11078 22082
32315 40611 62349 063072 059067 059068 061085 065083 075079=
####018001508####
SMVD22 KWNB 100000 RRC
BBXX
46028 10001 99357 71219 46/// /3207 10137 20124 30142 40142 57011
92350 22200 00138 11302 20401 317// 41302 70011 333 91209 555
11079 22084 32349 43109 62349 316072 318073 321068 321072 321067
325067=
46088 10001 99483 71232 46/// /2507 10138 40138 92350 22200 00122
10201 20201 70003 333 91209 555 11077 22082 32346 42409 62349
245070 248067 245064 244060 242057 240054=
46012 10001 99374 71229 46/// /3004 10127 40148 56010 92350 22200
00131 11302 20401 318// 41302 70010 333 91205 555 11044 22046
32342 43005 62349 298043 296037 304031 300031 293033 299032=
46013 10001 99382 71233 46/// /2602 10117 40139 58010 92350 22200
00114 11402 20301 319// 41402 70010 333 91203 555 32347 42503
62349 261020 270019 262017 263016 261019 261018=
46029 10001 99461 71245 46/// /3308 10163 20163 40169 54000 92350
22200 00162 10702 20502 331// 40702 70012 333 91209 555 11075
22075 32339 43309 62349 331075 332078 332072 333066 333065 334066=
46054 10001 99343 71205 46/// ///11 10146 40121 58013 92350 22200
00153 10503 20502 300// 40801 70013 333 91213 555 11115 22123=
46015 10001 99427 71248 46/// /0109 10117 40149 54000 92350 22200
10502 20502 320// 41301 70010 333 91211 555 11091 22097 32255
40111 62349 012085 015085 014088 013091 013089 010091=
46025 10001 99337 71191 46/// /2704 10157 40123 56016 92350 22200
00179 11301 321// 41301 70007 333 91206 555 11046 22047 32344
42706 62349 269043 257040 265042 282038 275037 286040=
####018000593####
SMVD45 KWNB 100000 RRB
BBXX
45004 10001 99476 70866 46/// /2804 10146 39909 40129 56007 92350
22200 00133 10401 20401 70004 333 91205 555 11047 22055 32349
42805 62349 275042 275039 275038 279038 280041 269041=
45005 10001 99417 70824 46/// /0206 10258 39915 40118 53006 92350
22200 00258 10401 20401 70006 333 91207 555 11064 22068 32310
40109 62349 020059 014063 008070 008077 003073 005070=
45003 10001 99454 70828 46/// /3404 10193 39918 40130 54000 92350
22200 00173 1//00 70001 333 91204 555 11042 22050 32308 43306
62349 337036 331040 332044 334045 333046 337045=
####018001428####
SMVD20 KWNB 100000 RRC
BBXX
41008 10001 99314 70809 46/// /1907 10286 40118 55003 92350 22200
10401 20401 70007 333 91208 555 11077 22082 32309 41809 62349
187073 187072 185073 181076 180078 178072=
41004 10001 99325 70791 46/// /1803 10278 20258 40122 56005 92350
22200 00277 10801 20401 3//// 40801 70006 333 91203 555 11028
22030 32309 41803 62349 177027 186029 188028 182029 177029 178029=
44009 10001 99385 70747 46/// /1403 10250 20235 40102 55005 92350
22200 00250 10702 20401 300// 40702 70010 333 91204 555 11034
22036 32256 41405 62349 140032 140035 140033 143037 146036 140042=
41013 10001 99334 70777 46/// /2208 10286 20229 40111 56004 92350
22200 00298 333 91209 555 11079 22084=
44018 10001 99413 70693 46/// /1505 10190 20190 40127 56012 92350
22200 10803 20401 315// 40803 70013 333 91206 555 11052 22055
32319 41507 62349 153049 156049 152053 153055 153055 150051=
44065 10001 99404 70737 46/// /1804 10247 20238 40106 56007 92350
22200 00247 10802 20401 316// 40802 70012 333 91205 555 11039
22042 32252 41606 62349 175037 168037 171038 170040 169046 166050
83406 92252=
44040 10001 99410 70736 46/// /1805 10260 20216 40116 92345 22200
1//00 70002 333 91207 555 11067 22077=
44020 10001 99414 70702 46/// /1706 10231 20231 40125 56009 92350
22200 00232 10601 20301 70004 333 91207 555 11058 22062 32310
41508 62349 164054 159050 151054 150067 148049 148036=
####018000372####
SMTO01 NFTF 100000

AAXX 10004

91772 =

91779 31398 60910 10274 20241 40166 58010 60001 70222 867// 333 20222 562//
70021 82709 86820= 

91784 31498 81012 10253 20224 40172 58009 60001 70322 888// 333 20201 562//
70004 84817 88640=

91792 11398 81107 10243 20218 40188 58009 69901 72522 8477/ 333 20191 5629/
79999 82709 84815 88362=



####018000252####
SMZM01 NSAP 100000
AAXX 10004

 

91762 11598 60912 10306 20241 40133 58013 60001 70522 83802 333 10/// 562/9
70000 83820 8507=

 

91759 11598 90620 10323 20239 40135 58014 600001 70510 82102 333 20234 562/9
70000 82822 83079=
####018000268####
SMZM01 NSAP 100000
AAXX 10004

 

91762 11598 60912 10306 20241 40133 58013 60001 70522 83802 333 10/// 562/9
70000 83820 8507=

 

91759 11598 90620 10323 20239 40135 58014 600001 70510 82102 333 20234 562/9
70000 82822 83079=

 



####018000363####
SMTO01 NFTF 100000

AAXX 10004

91772 =

91779 31398 60910 10274 20241 40166 58010 60001 70222 867// 333 20222 562//
70021 82709 86820= 

91784 31498 81012 10253 20224 40172 58009 60001 70322 888// 333 20201 562//
70004 84817 88640=

91792 11398 81107 10243 20218 40188 58009 69901 72522 8477/ 333 20191 5629/
79999 82709 84815 88362=
####018000232####
SMZM01 NSAP 100000
AAXX 10004

 

91762 11598 60912 10306 20241 40133 58013 60001 70522 83802 333 10/// 562/9
70000 83820 8507=

 

91759 11598 90620 10323 20239 40135 58014 600001 70510 82102 333 20234 562/9
70000 82822 83079=
