####018002079####
SIRA24 RUHB 092100
AAXX 09211
21802 42999 31305 10097 20083 30132 40155 57011 80002=
24125 42999 60000 10112 20051 39902 40166 57002 86030=
24136 42999 23001 10075 20050 30087 40181 52001 80001=
24143 42699 83602 10081 20056 30108 40155 53007 885//=
24266 41599 83601 10109 20068 39974 40140 52001 70262 885// 333
88620=
24329 41599 60000 10032 20032 39901 40193 52004 74142 86500=
24343 42299 83303 10094 20055 30034 40146 52004 886// 333 84706
84625=
24382 41598 81901 10115 20107 39892 40126 58007 78082 889// 333
84720=
24639 42599 80000 10078 20076 30027 40173 52005 8355/=
24641 42599 80101 10129 20100 30027 40160 53013 8657/=
24652 41398 83105 10138 20130 39998 40112 52005 72582 883// 333
85920=
24656 41499 70000 10116 20114 30022 40118 52009 71222 87900=
24671 42498 80301 10120 20104 39637 40110 52001 885//=
24688 42699 70000 10164 20112 39262 40098 52006 86930=
24724 42999 21602 10121 20056 39672 40170 53003 80001=
24738 41996 80000 10095 20095 39998 40165 52006 71022 83031=
24768 42599 72001 10124 20118 39910 40128 52016 83501=
24923 41194 80000 10068 20061 39878 40172 52005 71011 886// 333
88702=
24944 42499 80702 10125 20113 39878 40153 52008 889// 333 88712=
24951 42999 72801 10115 20105 39984 40142 52009 87030=
24661 42699 70000 10123 20115 39861 40108 52009 84530=
24959 42599 32702 10118 20100 30000 40122 52007 82930=
24962 41998 82401 10105 20102 39951 40127 52006 71122 84031=
24966 41296 80000 10160 20160 39912 40111 52002 78184 889// 333
86918=
24967 42999 60000 10092 20086 39936 40143 52009 82031=
25206 42499 70704 10090 20064 30145 40171 57001 875//=
25400 42398 83603 10127 20121 30090 40142 52004 886// 333 88707=
30054 42998 13603 10129 20104 39910 40136 52002 80001=
30089 42599 72501 10080 20074 39938 40152 58002 87500=
30393 42699 23301 10111 20078 39151 40132 52004 82900=
30493 42699 20000 10072 20070 39144 40141 53005 82500=
31004 41599 62201 10110 20103 39352 40137 53006 70282 83930=
31137 41693 80000 10102 20098 39142 40114 57002 74442 885//=
####018000116####
SIVS21 VNNN 092100
AAXX 09211
48803 32497 80000 10282 20265 39917 40027 58005 888// 333 59005 
83894 88696=
####018000629####
SIFJ20 NFFN 092100
AAXX 09214
91650 41498 80806 10266 2024/ 40131 52007 70222 889//
  333 569// 83820 86648=
91652 NIL=
91656 NIL=
91659 41598 80909 10238 2022/ 40156 52017 72528 8587/
  333 5699/ 83823 84650 87461=
91660 NIL=
91669 46/// /1414 10249 20238 40164 52020=
91670 NIL=
91676 NIL=
91680 41698 70000 10239 20210 40152 51017 76022 8587/
  333 5699/ 83830 84650 87465=
91682 NIL=
91683 41598 70000 10235 20232 40165 52018 76012 878//
  333 569// 84822 85645=
91691 NIL=
91693 41599 71207 10249 2022/ 40160 51012 70222 8587/
  333 5639/ 83823 85645 87461=
91697 NIL=
91699 NIL=
####018000148####
SIAA21 EGRR 092100
AAXX 09214
89022 46/// /2304 11396 21436 39947 49991 52006=
89062 41989 03202 11059 21130 39710 49751 57004 70100 80000=
####018001113####
SICI26 BABJ 092100
AAXX 09211
55299 42880 60401 10075 20045 35892 57005 86400 333 05251
70066=
55591 41578 81103 10107 20083 36549 52017 79198 889// 333
05152 70096=
56739 41575 62002 10185 20168 38306 57012 70080 85902 333
05101 70020=
56951 42670 70000 10205 20188 38451 57007 874// 333 05100
70004=
56964 42568 72001 10223 20191 40031 57006 874// 333 05102
79999=
57328 42870 80901 10235 20212 40008 57009 885// 333 70472=
57411 42880 73602 10235 20170 40019 57003 875// 333 70083=
57447 41466 83602 10239 20227 40006 57008 76066 8272/ 333
70331=
57662 41856 70000 10269 20244 40014 57003 71000 875// 333
70095=
57745 42962 80000 10266 20235 40013 57005 8807/=
57972 42966 02203 10296 20213 40046 54000=
58203 42960 80901 10265 20238 40017 57005 8807/=
58314 42970 61101 10245 20245 40015 57006 86030 333 70002=
58424 42662 81102 10258 20237 40023 57004 885// 333 70083=
59023 42570 81402 10289 20229 40029 52001 888// 333 79999=
59417 41460 80402 10254 20223 40052 52011 79580 889// 333
70023=
59985 42570 51801 10292 20267 40073 57010 82202 333// 70002=
####018000030####
SING21 AMMC 092100
NIL

####018000115####
SIVS21 VNNN 092100
AAXX 09211
48803 32497 80000 10282 20265 39917 40027 58005 888// 333 59005
83894 88696=
####018000450####
SNVD15 KWNB 092000 RRX
BBXX
42369 09201 99272 70903 46/// /1001 10285 92020 22200 10501 70005=
42370 09201 99273 70905 46/// ///02 10290 92020 22200 10501 70006=
42374 09201 99289 70881 46/// ///02 10303 40146 92020=
42376 09201 99291 70879 46/// /2502 10285 40138 92020 22200 10201
70005=
42392 09201 99272 70900 46/// ///// 1//// 92020 22200 10401 70005=
42887 09201 99282 70885 46/// /1901 10294 20234 92020 22200 10601
70007=
####018000262####
SIVD20 KWNB 092100 RRI
BBXX
44034 09211 99441 70681 46/04 /1604 10153 40140 58021 92104 22200
00136 10602 70008 333 91205 555 11057 22067=
44040 09211 99410 70736 46/// /1704 10271 20210 40117 58029 92115
22200 1//00 70001 333 91205 555 11051 22057=
####018000203####
SIVD22 KWNB 092100 RRF
BBXX
46088 09211 99483 71232 46/// /2404 10143 40144 92120 22200 00130
1//00 70002 333 91205 555 11041 22044 32031 42305 62119 244039
240037 234034 233039 232041 229037=
####018001756####
SIUS20 KWBC 092100
AAXX 09214
72327 12666 63409 10306 20211 39889 40129 58009 69907 92053 555
90921=
72208 32961 01909 10333 20239 30092 40108 56019 92056 555 90921=
72259 11466 81206 10289 20222 39958 40157 56018 69907 761// 92053
555 90921=
72270 12766 83103 10283 20144 38834 40126 58016 69907 92051 555
90921=
72201 32566 2//04 10306 20239 30142 40148 58015 92053 555 90921=
72376 32966 0//03 10306 20067 38338 40153 56026 92053 555 90921=
72344 12866 42805 10272 20222 30005 40166 58015 69907 92053 555
90921=
72317 31658 40000 10322 20200 39789 40100 56024 705// 92054 555
90921=
72312 11961 02805 10311 20206 39776 40101 56016 69907 761// 92053
555 90921=
0 35466 2//05 10272 20233 30094 40097 51018 92051 555 90921=
72235 12766 23504 10350 20233 30039 40138 56023 69907 92054 555
90921=
72206 32766 22210 10372 20183 30113 40121 58020 92056 555 90921=
74486 32566 41612 10289 20206 30107 40118 58028 92051 555 90921=
72240 32866 2//06 10333 20239 30148 40158 58020 92053 555 90921=
72217 11559 23005 10294 20239 39985 40111 55016 60057 761// 92053
555 90921=
72334 32666 82711 10322 20211 30042 40140 56017 92053 333 91018
555 90921=
72226 12766 63406 10356 20206 30046 40117 58023 69907 92053 555
90921=
72202 32666 61309 10322 20244 30132 40143 56014 92053 555 90921=
72308 32566 40508 10294 20217 30084 40101 56018 92051 555 90921=
72222 32966 02508 10311 20217 30103 40149 55007 92053 555 90921=
72253 32566 61411 10300 20233 39870 40139 56015 92053 555 90921=
72248 12666 40103 10333 20239 30053 40144 58022 60057 92056 555
90921=
72211 32766 22609 10322 20217 30132 40144 58015 92053 555 90921=
72326 11766 63407 10256 20228 39781 40125 53001 69907 92053 555
90921=
####018001712####
SIUS21 KWBC 092100
AAXX 09214
72365 32866 42804 10294 20106 38420 40139 58022 92056 555 90921=
72506 31032 61311 10233 20211 30116 40135 58027 710// 92053 555
90921=
72518 32766 61814 10322 20183 39988 40090 58029 92051 333 91021
555 90921=
72363 32566 60607 10250 20172 38974 40183 58011 92053 555 90921=
72513 32766 21609 10306 20178 39754 40085 56031 92054 333 91014
555 90921=
72509 32766 61912 10306 20189 30111 40117 56027 92054 555 90921=
72570 35966 02407 10283 20028 38151 40171 58020 92053 555 90921=
72314 31758 22306 10339 20189 39850 40102 56020 705// 92052 555
90921=
72605 35766 41810 10317 20172 39988 40109 58024 92051 555 90921=
72445 32966 00207 10283 20172 39856 40169 58009 92054 555 90921=
72414 11248 60000 10244 20217 39756 40114 56013 60027 92054 555
90921=
72429 32566 63312 10272 20206 39771 40124 56012 92056 555 90921=
72405 32666 41510 10333 20200 30073 40094 58026 92052 555 90921=
72451 35666 21403 10283 20167 39288 40180 57017 92052 555 90921=
72565 32866 41008 10272 20083 38400 40169 56018 92053 555 90921=
72376 32966 0//03 10306 20067 38338 40153 56026 92053 555 90921=
72425 11464 82708 10239 20217 39824 40118 56010 69957 761// 92051
555 90921=
72302 35766 2//03 10328 20206 3//// 40105 56012 92053 555 90921=
72438 32666 63311 10294 20200 39848 40127 56012 92054 555 90921=
72503 32566 61912 10306 20206 30098 40111 56026 92051 555 90921=
72410 32666 61405 10322 20211 39759 40098 56029 92054 555 90921=
72446 32766 60705 10289 20161 39812 40181 56013 92053 555 90921=
72353 32566 60609 10294 20211 39721 40165 56014 92052 555 90921=
72423 12566 63209 10289 20217 39954 40123 58014 69907 92056 555
90921=
####018000473####
SIGO20 FOOL 092100
AAXX 09214
64500 42460 81806  10250 20225 30119 40133 885//
  333 58000 83610 88630=
64501 42358 81810 10240 20218 30145 40155 885//
  333 58003 82608 88630=
64503 NIL=
64504 NIL=
64507 NIL=
64510 NIL=
64545 NIL=
64550 NIL=
64551 42360 80000 10235 20224 30115 40144 885//
  333 59010 84608 88623=
64552 NIL=
64556 NIL=
64560 NIL=
64565 NIL=
64570 42458 8//// 10214 20206 39640 40152 885//
  333 58008 83612 88629=
####018000817####
SIIN20 DEMS 092100
AAXX 09214
42101 32996 00000 10306 20290 49999
  333 59024=
42111 21495 80501 10262 20248 39256 49995 70522 8682/
  333 59031 6015/ 85618 83825 88454=
42131 22996 02002 10312 20259 49987
  333 59034 6002/=
42165 31995 02006 10330 20229 49988 70600
  333 59023=
42328 32996 22310 10318 20238 49996 80001
  333 59014 82075=
42339 31995 22302 10314 20233 40010 70500 80001
  333 59007 82070=
42369 31596 50904 10310 20268 49985 70522 83530
  333 59031 83620 84360=
42379 31595 70502 10290 20253 49986 70522 85520
  333 59022 85620 87458=
42452 32596 52703 10310 20251 40015 82530
  333 59010=
42475 21595 20000 10320 20264 49989 70521 82500
  333 59023 6003/ 82630=
42027 NIL=
42071 NIL=
42182 NIL=
42189 NIL=
42260 NIL=
42348 NIL=
42361 NIL=
####018001816####
SIUS22 KWBC 092100
AAXX 09214
72734 35966 03009 10239 20117 39875 40131 58004 92055 333 91017
555 90921=
72677 32866 20000 10306 20028 38925 40138 58021 92053 555 90921=
72617 32766 61912 10306 20189 39959 40082 56024 92054 555 90921=
72528 11364 80304 10217 20206 39841 40104 58005 60087 761// 92054
555 90921=
72712 35966 0//03 10244 20206 39878 40105 58003 92054 555 90921=
72524 11566 80206 10239 20200 39851 40126 58004 69937 761// 8/5//
92051 555 90921=
72537 32666 83608 10272 20133 39903 40130 58000 92053 555 90921=
72753 32966 02511 10294 20128 39826 40151 56012 92053 333 91014
555 90921=
72533 32566 43509 10289 20194 39841 40130 58010 92054 555 90921=
72785 32866 22608 10322 20033 39298 40130 56013 92053 333 91016
555 90921=
72645 32966 02909 10289 20139 39901 40143 58011 92053 555 90921=
72635 32766 62909 10283 20178 39858 40136 56012 92053 555 90921=
72654 35866 22804 10311 20122 39704 40156 56016 92055 555 90921=
72747 35766 62709 10261 20133 39716 40144 56009 92055 555 90921=
72562 35966 01606 10272 20150 39223 40187 58018 92053 555 90921=
72534 32766 60610 10283 20133 39924 40136 58007 92051 555 90921=
72597 32966 03006 10344 20128 39665 40118 58017 92053 555 90921=
72532 32966 00106 10283 20150 39918 40157 58011 92054 333 91014
555 90921=
72520 11116 83007 10217 20200 39700 40120 53003 60307 765// 92051
333 96010 555 90921=
72606 32966 02114 10256 20211 30103 40122 58023 92051 333 91017
555 90921=
72662 32966 02013 10300 20100 39068 40157 56018 92052 333 91018
555 90921=
72572 11766 6//05 10272 20044 38742 40150 53005 69907 761// 92053
333 91038 555 90921=
0 32966 02911 10294 20106 31420 40164 58012 92053 333 91018 555
90921=
72519 32564 62010 10306 20211 39930 40075 55016 92054 333 91020
555 90921=
####018000105####
SIUS22 KWBC 092100 CCA
AAXX 09214
72639 35766 63205 10283 20144 39879 40127 56008 92054 555 90921=
####018000115####
SMID02 WIIX 091800 RRF
AAXX 09184
97372 32458 20906 10250 20227 39995 40116 57014 82101
  333 56000 82818=
####018000906####
SIIN23 DEMS 092100
AAXX 09214
42634 32596 62302 10278 20261 40022 85530
  333 59007 85620=
42647 21595 32704 10272 20255 40046 70500 83800
  333 59003 6003/ 82620=
42737 22596 22303 10270 20256 40044 82500
  333 59004 6003/ 82620=
42840 21496 42702 10276 20262 40062 70266 83730
  333 59002 6017/ 82710 83625=
42909 21495 82914 10288 20269 40051 75165 8462/
  333 58000 6015/ 82712 83825 85458=
42921 32496 72704 10232 20217 40066 85630
  333 59004 83710 84620 86360=
43003 21495 80000 10260 20246 40075 76152 8672/
  333 59001 6009/ 83710 84618 88458=
43063 22596 72704 10234 20210 39452 40072 85730
  333 56690 59005 6990/ 84722 86358=
43110 21496 81402 10246 20237 40082 70252 8577/
  333 59007 6039/ 83710 83618 85458=
43117 22596 60000 10250 20215 40068 84430
  333 59009 6003/=
43192 22496 30906 10250 20247 40081 83400
  333 59008 6006/=
43014 NIL=
####018000292####
SIIN22 DEMS 092100
AAXX 09214
42867 21596 62703 10262 20253 40034 70522 83530
  333 59006 6002/ 83620 85360=
42933 32596 63201 10264 20238 40042 83530
  333 59004 83625 85360=
42559 NIL=
42571 NIL=
42667 NIL=
42675 NIL=
42754 NIL=
42779 NIL=
42874 NIL=
43041 NIL=
####018000283####
SIIN24 DEMS 092100
AAXX 09213
43213 22996 30000 10260 20240 39756 40071 82032
  333 59012 6002/=
43344 21496 61605 10280 20257 39988 40087 75052 83530
  333 59010 6003/ 83615 85360=
43353 22496 50000 10246 20241 40100 82831
  333 56699 59004 6003/ 82616 84358 85070=
####018000930####
SIIN21 DEMS 092100
AAXX 09214
42314 21395 80000 10254 20242 40031 76066 8432/
  333 57950 59029 6010/ 92708 84618 81925 88458=
42410 21495 60903 10274 20266 40057 70522 83330
  333 58007 6996/ 82620 81925 84360=
42415 21496 80000 10276 20270 40052 76162 8532/
  333 59016 6003/ 82710 84618 81928 87458=
42492 21496 60906 10276 20262 49992 71396 83330
  333 59040 6017/ 83618 81930 86360=
42587 32996 20000 10320 20230 49993 82030
  333 59020 82360=
42623 21495 70000 10236 20200 39197 40047 75122 84330
  333 59006 6994/ 83616 81920 87360=
42701 31495 42302 10258 20238 39307 40016 83530
  333 59024 83618=
42798 31595 30000 10294 20245 40014 70500 82530
  333 59027 82620 83360=
42809 31995 20000 10290 20268 40022 70500 82030
  333 59033 82360=
42309 NIL=
42398 NIL=
42591 NIL=
42706 NIL=
42724 NIL=
42886 NIL=
42895 NIL=
42971 NIL=
42977 NIL=
43333 NIL=
43368 NIL=
####018001644####
SIIN24 DEMS 092100
AAXX 09214
43086 31596 60000 10276 20238 39876 40052 70522 83531
  333 59010=
43150 31596 72310 10286 20261 39982 40056 70522 83532
  333 59019 83620 83360=
43185 22596 22302 10274 20254 30052 40055 82500
  333 59018 6008/ 82620=
43189 22596 70000 10280 20269 30054 40063 84570
  333 59017 6008/=
43198 32396 60000 10214 20208 39258 40081 84631
  333 56699 59010 83708 83615=
43201 32996 03203 10220 20211 39352 40071
  333 59016=
43226 22496 30000 10250 20241 30063 40092 83500
  333 56600 59007 6008/=
43233 32396 62303 10234 20213 39281 40084 85630
  333 56590 59001=
43237 22596 30000 10258 20216 39683 40073 82501
  333 59011 6995/ 82620 83075=
43245 22596 31802 10270 20256 30039 40065 83500
  333 59010 6005/=
43279 22596 30000 10264 20250 30066 40083 81530
  333 59007 6995/ 81620 83358=
43284 22496 50000 10252 20237 39972 40087 82532
  333 56699 59008 6998/ 82612 83359 85075=
43295 22496 50000 10224 20203 39084 48495 84501
  333 56609 58004 6994/ 84615=
43311 22596 62704 10274 20260 40088 82530
  333 59008 6005/ 83620 84360=
43314 32596 60000 10254 20239 40090 81432
  333 59008=
43321 21495 52004 10242 20230 39645 40091 71721 83901
  333 57912 59007 6990/ 82615 81925 83070=
43329 32596 60000 10278 20261 30063 40076 85501
  333 59009=
43346 22596 21608 10280 20260 30071 40078 81501
  333 58001 6993/ 81620=
43369 22596 43205 10274 20248 40089 82501
  333 56609 59016 6993/ 82620 83070=
43371 21596 70000 10248 20233 30011 40084 70252 83470
  333 59014 6990/ 83620 85360=
43128 NIL=
43213 NIL=
43344 NIL=
43353 NIL=
####018000103####
SIRE19 FMEE 092100 RRA
AAXX 09214
61997 26/// /3121 10095 20069 40212
  333 58011 60007 91133=
####018000209####
SIKZ20 UAAA 092100 RRA
AAXX 09211
28867 42498 60000 10133 20043 39862 40118 52010 86500=
28952 429// 20000 10176 20070 39937 40115 52005 80001=
36864 428// 52504 10230 20098 39205 40016 57012 85080=
####018001116####
SIRA27 RUHB 092100
AAXX 09211
24790 32984 32201 10160 20122 39378 40124 54000 82031=
24988 NIL=
25503 32999 02901 10192 20155 30016 40132 58005=
25705 32699 72401 10169 20143 39810 40112 52006 84331=
25927 32599 80402 10140 20131 30161 40168 52006 889//=
25932 31295 80000 10055 20038 30145 40183 52005 71022 886//=
31866 11/92 90603 10138 20138 30122 40127 57001 74744=
31959 11498 80601 10152 20143 30080 40120 53004 70262 8662/ 333
86719=
31989 /2599 40000 10147 20140 30072 40123 53009 82509=
32027 /1598 81101 10112 20106 30141 40148 53001 70252 889// 333 91001
91102=
32076 32598 80000 10095 20095 30145 40155 53004 885//=
32099 32597 81103 10100 20098 30154 40162 52005 885// 333 91004
91105=
32121 /1598 80805 10150 20137 30112 40133 57002 78082 85932 333 91006
91106=
32213 /1/93 92705 10048 20048 30168 40231 52015 75154 333 96045=
32287 32999 61602 10120 20117 30195 40205 52007 83071=
32408 32598 81805 10111 20087 30170 40207 52003 8655/=
32509 /1599 80000 10103 20090 30177 40210 53011 70282 885//=
32594 31/93 90000 10053 20053 30177 40213 52003 74542=
####018000030####
SIZW40 FVHA 092100
NIL

####018000030####
SIZW41 FVHA 092100
NIL

####018002377####
SIZA01 FAPR 092100
AAXX 09214
68174 41960 00000 10072 20041 38853 48561 50000 70400
      333 10194 20072 91001=
68183 46/// /2303 10099 20086 39507 48556 58002
      333 10219 20092 91006=
68191 46/// /3205 10153 20103 39717 48583 51001
      333 10259 20152 91006=
68242 46/// /0407 10090 20016 38788 48557 51000
      333 10195 20086 91008=
68263 42980 02202 10102 20045 38541 48565 58002
      333 10185 20101 91005=
68267 46/// /3310 10055 20033 38297 48577 58000
      333 10150 20054 91011=
68289 46/// /0211 10123 20078 39221 48571 51003
      333 10219 20122 91022=
68345 46/// /0404 10086 20015 38724 48558 51001
      333 10195 20086 91005=
68350 46/// /3408 10071 21102 38778 48614 53000
      333 10186 20071 91010=
68368 41960 23104 10092 20034 38373 48563 58003 70500 80002=
68372 NIL=
68385 NIL=
68424 46/// /0110 10174 20023 39213 48528 58003
      333 10252 20154 91015=
68438 46/// /0107 10092 20009 38866 48546 53001
      333 10171 20092 91008=
68442 42770 70103 10092 20023 38710 48555 51001 8257/
      333 10170 20090 91004=
68461 46/// /2303 10061 21001 38372 48563 58000
      333 10155 20061 91004=
68496 NIL=
68512 46/// /3005 10142 20031 39025 48514 58002
      333 10243 20142 91007=
68538 46/// /0107 10146 20005 38742 48523 58001
      333 10198 20146 91011=
68587 46/// /3203 10156 20093 30141 40154 58003
      333 10229 20152 91010=
68588 NIL=
68592 46/// ///// 1//// 2//// 3//// 4//// 5////
      333 1//// 2//// 555=
68618 46/// /3007 10142 20028 39041 48500 58002
      333 10247 20128 91011=
68668 46/// /3203 10121 20028 39322 48528 58003
      333 10254 20113 91005=
68714 46/// /3506 10122 20101 30095 40132 58001
      333 10175 20114 91008=
68727 46/// /3425 10196 20012 39121 48509 58006
      333 10243 20191 91035=
68752 46/// /3111 10176 20020 39460 48514 58002
      333 10264 20170 91015=
68814 46/// /3410 1//// 2//// 30115 4//// 58002
      333 1//// 2//// 91014=
68816 42570 50107 10113 20083 30070 40125 55003 85500=
68828 NIL=
68842 NIL=
68858 NIL=
68916 46/// /3418 10117 20082 39847 40119 58003
      333 10138 20110 91025=
68920 46/// /2606 10133 20095 30093 40106 57005
      333 10164 20133 91013=
68928 46/// /1903 10135 20114 39935 40097 58006
      333 10254 20135 91006=
68938 NIL=

####018000085####
SIAA21 EDZW 092100
AAXX 09214
89002 42999 02106 11382 21416 39867 49921 51015=
####018000681####
SIRA30 RUNW 092100
AAXX 09211
28216 42899 32701 10188 20178 39875 40137 54000 83080=
28428 42998 22701 10168 20164 39965 40139 57001 80001=
28451 42596 70000 10164 20099 39963 40112 53005 87500=
28541 42984 70000 10195 20128 39660 40117 53003 87030=
28655 32598 73601 10185 20152 39907 40114 52007 87900=
28756 42597 80501 10172 20133 39974 40111 52003 8457/=
29557 42698 81001 10121 20111 39782 40030 57013 8655/=
29625 42598 60000 10104 20098 39863 40031 57008 83530=
29813 42799 72701 10117 20102 39840 40032 58014 83355=
29822 42597 71401 10125 20120 39883 40036 58006 87500 333 87625=
29915 42498 82902 10131 20122 39886 40035 58008 889// 333 88914=
####018000275####
SIVS21 VNNN 092100 RRA
AAXX 09211
48803 32497 80000 10282 20265 39917 40027 58005 888// 333 59005
83894 88696=
48806 32498 70000 10246 20231 39302 40054 53003 878// 333 58000
82894 87697=
48852 32998 70000 10256 20230 30047 40057 57002 80008 333 58005
87299=
####018000536####
SIVS20 VNNN 092100 RRA
AAXX 09211
48848 32598 72304 10328 20234 30042 40050 56005 82108 333 58000
82895 87299=
48855 32798 71801 10261 20230 30049 40057 56009 81508 333 59004
81697 87299=
48900 32497 40902 10242 20240 30071 40081 57010 84800 333 59001
81894 83696=
48914 41597 82001 10270 20250 30081 40083 57014 78082 888// 333
59004 83895 85696 96160=
48917 32598 30701 10262 20253 30071 40077 57017 83200 333 58001
83895=
48918 41498 70000 10272 20253 30082 40093 57009 72582 879// 333
58001 82894 86995=
####018000103####
SMMO02 MNUB 091800 CCA
AAXX 09180
44207 416// 30000 10097 20074 38293 40102 52010 70191
82840=
####018000125####
SIMG20 FMMD 092100
AAXX 09214
67020 NIL=
67022 NIL=
67023 NIL=
67037 NIL=
67067 NIL=
67107 NIL=
67131 NIL=
####018000125####
SIMG21 FMMD 092100
AAXX 09214
67020 NIL=
67022 NIL=
67023 NIL=
67037 NIL=
67067 NIL=
67107 NIL=
67131 NIL=
####018001381####
SICI33 BABJ 092100
AAXX 09211
51711 42980 52502 10179 20022 37981 57003 80002 333 05302
79999=
51730 42970 00703 10212 20101 49995 57002 333 05302=
52112 42980 62502 10272 20081 49995 57002 82032 333 05403=
52737 42680 51101 10100 20042 37102 57003 82902 333 05301
70045=
52787 42780 23401 10092 20040 37056 57005 82400 333 05201=
53352 42980 02203 10161 20123 40003 52001 333 70006=
53593 42760 73601 10163 20163 40054 52002 874// 333 70065=
53705 42970 00000 10170 20145 40027 52003 333 05353=
53863 41658 81602 10182 20177 40067 52001 71000 885// 333
70108=
53975 41950 82902 10196 20177 40057 52003 76066 8802/ 333
70147=
54273 42670 70703 10173 20165 40087 52010 82502 333// 70018=
54324 41757 81803 10204 20204 40068 52009 76060 885// 333
70151=
54405 41656 83401 10181 20170 40055 54000 71000 884// 333
70087=
54436 41750 80701 10208 20189 40071 52001 76066 885// 333
70030=
54808 41661 80202 10223 20223 40044 52006 76166 8572/ 333
70154=
54826 41280 81805 10152 20091 38417 57005 76064 8372/ 333
70003=
54836 42662 81101 10225 20172 40056 52002 885//=
54863 42560 70000 10239 20218 40064 57003 875//=
56018 42680 81401 10078 20046 36226 57007 885// 333 00053
70121=
56021 41980 83603 10049 20012 36141 52001 76086 8802/ 333
05151 70029=
57071 41540 80203 10219 20205 40046 54000 76166 8172/ 333
70110=
####018000160####
SIVD20 KWNB 092100 RRJ
BBXX
44061 09211 99388 70770 46/// /1304 1//// 92050 333 91207=
44061 09211 99388 70770 46/// /1403 1//// 40091 92040 333 91205=
####018000108####
SIAA01 SBBR 092100
AAXX 09214
89252 26/// /0912 11059 21065 39697 49719 52018 7//// 8//// 333  69915=
####018000160####
SIVD15 KWNB 092100 RRJ
BBXX
44063 09211 99390 70764 46/// /1305 1//// 92050 333 91207=
44063 09211 99390 70764 46/// /1505 1//// 40104 92040 333 91207=
####018000221####
SIVD15 KWNB 092100 RRI
BBXX
41035 09211 99345 70773 46/// /2006 10276 20249 40102 92120 22200
00272 10901 313// 40901 70004 333 91208 555 11069 22075 32117
42008 62119 198064 199062 199061 196062 193065 189062=
####018000078####
SICN03 CWAO 092100 RRC
AAXX 09214
71472 36/// /1718 10125 333 60001=

####018000090####
SICN02 CWAO 092100 RRC
AAXX 09214
71207 46/// /1709 10299 20103 92130 333 6///1=

####018000276####
SNVD20 KWNB 092000 RRW
BBXX
44059 09201 99368 70763 46/// /0602 1//// 92030 333 91205=
44059 09201 99368 70763 46/// /0602 1//// 92020 333 91206=
44059 09201 99368 70763 46/// /0803 1//// 92010 333 91205=
44059 09201 99368 70763 46/// /0804 10287 92000 333 91206=
####018000320####
SNVD20 KWNB 092000 RRV
BBXX
44061 09201 99388 70770 46/// /1403 1//// 40093 92030 333 91205=
44061 09201 99388 70770 46/// /1704 1//// 40095 92020 333 91207=
44061 09201 99388 70770 46/// /1705 1//// 40097 92010 333 91207=
44061 09201 99388 70770 46/// /1305 10308 40098 56028 92000 22200
00315 333 91207=
####018000160####
SIVD20 KWNB 092100 RRL
BBXX
44057 09211 99395 70761 46/// /1807 1//// 92050 333 91208=
44057 09211 99395 70761 46/// /1807 1//// 40100 92040 333 91209=
####018000154####
SIVD20 KWNB 092100 RRK
BBXX
44059 09211 99368 70763 46/// /0603 1//// 92050 333 91207=
44059 09211 99368 70763 46/// /0603 1//// 92040 333 91205=
####018000160####
SIVD20 KWNB 092100 RRM
BBXX
44058 09211 99376 70763 46/// /1406 1//// 92050 333 91207=
44058 09211 99376 70763 46/// /1305 1//// 40102 92040 333 91205=
####018000160####
SIVD15 KWNB 092100 RRK
BBXX
44041 09211 99372 70768 46/// /1203 1//// 92050 333 91205=
44041 09211 99372 70768 46/// /1404 1//// 40094 92040 333 91206=
####018000332####
SNVD15 KWNB 092000 RRX
BBXX
44041 09201 99372 70768 46/// /1304 1//// 40097 92030 333 91206=
44041 09201 99372 70768 46/// /1103 1//// 40099 92020 333 91205=
44041 09201 99372 70768 46/// /1003 1//// 40100 92010 333 91204=
44041 09201 99372 70768 46/// /1003 10286 40102 56019 92000 22200
00304 1//00 70001 333 91205=
####018000320####
SNVD20 KWNB 092000 RRX
BBXX
44057 09201 99395 70761 46/// /1807 1//// 40101 92030 333 91209=
44057 09201 99395 70761 46/// /2005 1//// 40103 92020 333 91206=
44057 09201 99395 70761 46/// /2004 1//// 40104 92010 333 91205=
44057 09201 99395 70761 46/// /1903 10274 40105 58022 92000 22200
00302 333 91205=
####018000332####
SNVD15 KWNB 092000 RRX
BBXX
44063 09201 99390 70764 46/// /1605 1//// 40105 92030 333 91206=
44063 09201 99390 70764 46/// /1604 1//// 40109 92020 333 91205=
44063 09201 99390 70764 46/// /1605 1//// 40110 92010 333 91205=
44063 09201 99390 70764 46/// /1603 10268 40112 56027 92000 22200
00294 10201 70003 333 91204=
####018000127####
SMID02 WIIX 091800 RRG
AAXX 09184
97192 32440 50000 10236 20233 30073 40130 57006 83220
  333 56200 57824 83616 80857=
####018000154####
SIVD15 KWNB 092100 RRM
BBXX
44043 09211 99392 70764 46/// /1507 1//// 92050 333 91208=
44043 09211 99392 70764 46/// /1507 1//// 92040 333 91208=
####018000154####
SIVD15 KWNB 092100 RRL
BBXX
44042 09211 99380 70763 46/// /1403 1//// 92050 333 91204=
44042 09211 99380 70763 46/// /1402 1//// 92040 333 91203=
####018000302####
SNVD15 KWNB 092000 RRX
BBXX
44042 09201 99380 70763 46/// /1402 1//// 92030 333 91203=
44042 09201 99380 70763 46/// /1402 1//// 92020 333 91203=
44042 09201 99380 70763 46/// /1402 1//// 92010 333 91203=
44042 09201 99380 70763 46/// /1403 10266 92000 22200 00283 1//00
70002 333 91203=
####018001432####
SICI35 BABJ 092100
AAXX 09211
50548 41959 60000 10152 20142 40099 52005 71000 82032 333
70027=
50564 42970 02501 10161 20161 40096 52003=
51334 42980 62002 10215 20134 40026 52005 80002 333 05400
79999=
51818 42965 22701 10232 20069 49989 54000 80002 333 05351=
52378 42980 11805 10212 21056 49984 52003 80002 333// 05254=
53487 41557 71802 10172 20154 40041 57008 78000 87902 333
70383=
53502 42980 00000 10197 20090 49994 52004 333 05352 79999=
53923 42980 02202 10140 20129 40079 57006 333 70085=
54049 42970 20701 10187 20177 40073 52006 80002=
54115 41670 80701 10169 20156 40047 52001 70080 8252/ 333
70022=
54157 42962 60000 10180 20178 40076 52007 80002 333// 70035=
54186 42670 81101 10156 20133 40101 52005 885// 333// 70001=
54311 42960 81602 10178 20143 40048 57004 8802/ 333 79999=
54346 42662 50902 10187 20180 40082 52008 85500 333 79999=
54377 41458 81601 10183 20165 40091 52009 71000 886// 333
79999=
54386 42465 70403 10136 20127 40097 52008 876//=
54493 42664 72701 10179 20179 40087 52007 875//=
54587 NIL=
54715 41462 83602 10225 20218 40050 52002 76066 8672/ 333
70184=
54929 41640 80902 10230 20216 40046 57003 71000 885//=
54945 41557 70901 10228 20226 40055 57004 71000 875//=
56065 42680 70000 10025 20010 36673 57005 82508 333 00156
70115=
57193 42960 80201 10264 20233 40021 54000 8807/=
57290 42960 80000 10259 20238 40015 57007 8807/=
####018000109####
SICH03 SCSC 092100 RRA
AAXX 09214
85930 42597 42708 10040 20008 40013 54002 84700
  333 56600 84725=
####018000103####
SICH02 SCSC 092100 RRA
AAXX 09214
85558 42997 02316 10156 20110 40158 57010
  333 91130 91523=
####018001657####
SIKR21 DKPY 092100
AAXX 09211
47003 41260 80000 10167 20144 30115 40119 52009 75155 886//=
47005 42580 80000 10130 20124 38553 52003 883//=
47008 41560 80000 10176 20166 30070 40121 53009 71042 885//=
47014 41540 80000 10177 20146 39717 40094 53013 71044 886//=
47016 41540 80501 10144 20127 39306 40137 52014 71041 885//=
47020 42565 70000 10173 20161 39736 40094 52005 87500=
47022 42275 82901 10131 20125 38824 52011 87602=
47025 42564 80000 10190 20187 30067 40095 58003 885//=
47028 41657 80000 10193 20188 39990 40079 53008 71020 885//=
47031 41/05 90000 10142 20139 38895 53004 74542=
47035 41960 80000 10223 20206 30072 40080 52007 71022 8802/=
47037 41942 80000 10213 20210 39970 40086 53005 71021 8802/=
47039 41560 80000 10185 20174 39921 40101 52011 71022 885//=
47041 42565 80000 10207 20197 30060 40086 53008 885//=
47046 41550 80504 10196 20188 30072 40093 52008 76066 885//=
47050 41556 30000 10205 20192 30054 40086 52005 71044 83500=
47052 41/08 90000 10192 20187 39790 40087 52036 74542=
47055 41565 80000 10216 20205 30053 40096 52008 70262 885//=
47058 41920 80701 10206 20197 30043 40087 53005 71022 81037=
47060 41/00 90000 10209 20208 30034 40088 53009 74744=
47061 41660 81401 10200 20198 30049 40090 54000 71022 885//=
47065 41560 81401 10209 20206 30027 40088 53006 71022 85502=
47067 41550 81401 10210 20201 39985 40098 57003 71022 885//=
47068 41/01 90000 10207 20201 30043 40076 54000 74542=
47069 41539 80000 10218 20210 39987 40080 53010 71020 885//=
47070 41910 80000 10210 20206 30017 40099 53006 74242 80002=
47075 42570 80000 10189 20179 39541 49939 52010 885//=
####018000341####
SIAJ21 UBBB 092100
AAXX 09211
37575 42998 00202 10275 20158 39520 40056 57005=
37675 42995 02502 10234 20188 39478 40091 52001=
37735 42998 03201 10285 20155 39728 40073 53003= 
37749 NIL=
37756 42997 00000 10235 20135 39292 40120 51003=
37864 32997 03403 10246 20231 40079 52004=
37985 42996 02301 10247 20200 30091 40078 52010=
####018000119####
SMPH20 RPMM 091800 RRA
AAXX 09181
98446 32470 63002 10270 20243 30056 40102 57020 83202
333 56999 83818 86070=
####018000120####
SIAG03 SABM 092100 RRB
AAXX 09214
87896 42980 83212 10034 21051 39974 40075 57011 85076 333 56066 85360
 84270=
####018001050####
SICI37 BABJ 092100
AAXX 09211
50658 42980 20000 10184 20160 40101 52010 80002=
50888 42980 52901 10168 20166 40108 52006 85030=
50983 42765 60000 10194 20192 40109 52004 84530 333 79999=
51053 42680 70000 10184 20089 40022 57010 83462 333 05501=
51542 42680 32503 10070 20055 37567 57010 81402 333 05300
70035=
52436 42980 02201 10133 20090 38416 40022 57002 333 05552=
52908 42680 70000 10020 20007 35830 57013 875// 333 05202=
52996 42980 13205 10130 20066 37568 57005 80002 333 05101
70090=
53083 41580 71404 10159 20156 49990 57003 78000 879// 333
05552 70130=
53764 42965 72901 10170 20155 40064 52004 80002 333 70096=
53787 41959 83601 10177 20167 40055 57002 76066 8802/ 333
70238=
54096 41/01 92702 10146 20143 40114 52006 74544=
54226 41670 80000 10182 20167 40072 52005 78198 889// 333
70164=
54259 41656 72201 10174 20169 40085 52009 71000 875// 333
70009=
54527 41757 81401 10223 20211 40059 52005 78088 884// 333
70390=
54534 41660 81105 10206 20191 40059 57006 78088 884// 333
70117=
####018000089####
SIIY22 LIIB 092100 RRA
AAXX 09214
16066 42970 03601 10249 20204 39956 40208 52006=
####018000097####
SIIY22 LIIB 092100 RRE
AAXX 09214
16405 42970 00707 10260 20211 30184 40197 53006
  333=
####018000089####
SIIY22 LIIB 092100 RRD
AAXX 09214
16289 42962 03302 10237 20157 30108 40190 52013=
####018000089####
SIIY22 LIIB 092100 RRC
AAXX 09214
16242 42960 02603 10255 20207 30190 40194 51006=
####018000089####
SIIY22 LIIB 092100 RRB
AAXX 09214
16105 42965 02004 10268 20215 30195 40201 50006=
####018000302####
SNVD15 KWNB 092000 RRX
BBXX
44043 09201 99392 70764 46/// /1607 1//// 92030 333 91208=
44043 09201 99392 70764 46/// /1706 1//// 92020 333 91207=
44043 09201 99392 70764 46/// /1706 1//// 92010 333 91207=
44043 09201 99392 70764 46/// /1706 10259 92000 22200 00284 10201
70004 333 91207=
####018000589####
SIRA28 RUHB 092100
AAXX 09211
31825 32599 70000 10140 20132 39937 40132 53003 875//=
31845 31/92 90000 10146 20142 39950 40103 52005 74541=
31878 /1498 81801 10179 20164 39998 40113 53008 886//=
31915 31996 80000 10162 20160 39859 40105 53007 71042 86031=
31921 32499 72002 10163 20154 30020 40111 53007 86530=
31969 /1597 80803 10155 20151 30073 40120 52005 72162 885//=
31981 /1496 80000 10169 20164 39891 40110 53009 78082 889//=
31987 31395 80000 10156 20149 39873 40116 58004 71022 886//=
32069 32998 81203 10125 20110 30130 40135 53002 8804/ 333 91004
91105=
####018001216####
SIRA22 RUHB 092100
AAXX 09211
30499 41/04 92503 10102 20100 39505 40124 52003 74542=
30683 41599 60000 10119 20107 39519 40126 52004 71211 85984=
31253 42599 80702 10134 20125 39691 40118 52001 87901=
31295 41697 40501 10160 20150 39686 40106 52004 72840 83331=
31348 32599 80000 10107 20102 39964 40148 57003 889//=
31418 32598 80000 10113 20089 39904 40144 57002 889//=
31439 32599 83602 10127 20106 30101 40143 53001 885//=
31442 42399 83601 10161 20161 39774 40099 52008 8265/=
31445 41599 81001 10174 20164 39855 40087 54000 70298 82332=
30695 41/93 90201 10126 20126 39806 40121 51007 74541=
31474 32599 70000 10146 20135 39659 40107 52006 87900=
31521 41556 70901 10161 20161 39826 40094 54000 71022 87500=
31527 41994 40000 10166 20164 39816 40094 51001 71000 82031=
31534 32599 70000 10158 20155 39794 40114 52004 82581=
31587 42699 00000 10156 20149 39965 40100 52004 81201=
31632 /1599 80000 10152 20152 39794 40125 52013 72162 885//=
31702 /1998 53401 10152 20149 39805 40118 52004 74182 85030=
31713 32999 51402 10164 20154 30028 40119 52005 84071=
31725 32999 00502 10156 20140 30055 40118 53009=
31801 31595 40000 10146 20142 39898 40110 52004 74000 84500=
####018000692####
SIRA23 RUHB 092100
AAXX 09211
30455 42699 30000 10098 20085 38893 48470 53008 83500=
30731 41597 71001 10129 20125 39532 40102 58004 74022 8455/=
30741 NIL=
30745 42599 81901 10105 20090 39034 40113 52005 82361=
30764 41902 20000 10090 20088 39365 40119 52006 74440 80003=
30829 42999 42501 10149 20138 39450 40086 54000 82061=
30838 42998 20000 10101 20093 39187 40113 52004 82030=
30846 42699 60000 10150 20128 39254 40093 52004 82551=
30859 42699 82201 10160 20137 39316 40087 52005 83551=
30862 42999 62602 10153 20120 39406 40087 52004 80001=
30957 42999 60602 10128 20094 39263 40098 52008 86040=
30975 41599 71801 10164 20147 39492 40086 52004 70291 86930=
####018000292####
SIVD15 KWNB 092100 RRN
BBXX
41010 09211 99289 70785 46/// /2305 10289 20211 40145 92120 22200
00290 10801 20401 300// 40801 70007 333 91206 555 11054 22057=
41009 09211 99285 70802 46/// /1802 10293 20181 40148 92120 22200
00287 10901 300// 40901 70004 333 91203 555 11023 22028=
####018000101####
SIAA01 KWBC 092100 RRA
AAXX 09211
89062 41989 03202 11059 21130 39710 49751 57004 70100 80000=
####018000085####
SIAA14 EGRR 092100
AAXX 09214
89087 46/// /0000 11432 21462 38005 49948 52003=
####018000347####
SIAJ21 UBBB 092100
AAXX 09211
37575 42998 00202 10275 20158 39520 40056 57005=
37675 42995 02502 10234 20188 39478 40091 52001=
37735 42998 03201 10285 20155 39728 40073 53003=
37749 NIL=
37756 42997 00000 10235 20135 39292 40120 51003=
37864 32997 03403 10246 20231 40079 52004=
37985 42996 02301 10247 20200 30091 40078 52010=
####018000332####
SNVD20 KWNB 092000 RRX
BBXX
44058 09201 99376 70763 46/// /1504 1//// 40104 92030 333 91206=
44058 09201 99376 70763 46/// /1604 1//// 40105 92020 333 91205=
44058 09201 99376 70763 46/// /1504 1//// 40107 92010 333 91205=
44058 09201 99376 70763 46/// /1404 10281 40108 56020 92000 22200
00289 10201 70003 333 91205=
####018000125####
SIVD45 KWNB 092100 RRH
BBXX
45022 09211 99454 70851 46/// /3202 10205 40160 92130 22200 00196
10201 70003 333 91203=
####018000109####
SIVD22 KWNB 092100 RRG
BBXX
46093 09211 99367 71224 46/// ///05 1//// 40145 57005 92104 22200
00123=
####018000091####
SIRA32 RUNW 092100
AAXX 09211
30157 42998 20000 10089 20085 39861 40131 51009 80001=
####018001263####
SIRA25 RUNW 092100
AAXX 09211
23074 42998 70802 10181 20137 30069 40092 53007 8703/=
23274 42498 71402 10157 20141 30063 4//// 52009 85530 333 85616=
23383 42899 80000 10112 20090 39792 40123 52002 8807/=
23472 42599 50902 10140 20132 30056 40101 52007 82531=
23678 42998 20602 10112 20098 30039 40093 52003 81041=
23884 42570 60000 10126 20114 30018 40087 53001 86500=
23891 41593 80000 10136 20134 39803 58004 74442 889// 333 95090=
24507 42698 71601 10142 20078 39908 40128 52002 87500=
24817 42999 00000 10068 20655 39815 40168 52006=
24908 42681 81001 10170 20089 39809 40113 52001 84531=
29263 42598 80501 10143 20117 39971 40065 57004 8495/=
29282 41596 60301 10141 20132 39932 40090 53002 71011 85901=
29379 42999 70000 10130 20123 39885 40084 57005 87050=
29570 41597 81402 10149 20138 39732 40053 57003 78182 889//=
29698 42597 81701 10146 20142 39593 40068 57018 86902=
30230 42999 83504 10138 20084 39805 40110 52003 80001=
30252 42499 20000 10081 20075 39834 40134 51011 82600=
30309 41/92 90301 10147 20145 39606 40087 57007 74541=
30328 42998 60000 10116 20104 39709 40108 52008 80001=
30521 41/93 90000 10171 20168 39605 40085 53003 74742=
30710 41597 71302 10151 20144 39551 40091 57010 74022 83930=
####018001889####
SIRA26 RUNW 092100
AAXX 09211
23973 42599 50000 10113 20109 30027 40085 57003 82502=
23975 42999 30000 10090 20081 39971 40074 54000 80001=
23986 42999 40701 10110 20073 39493 40090 57001 84030=
23987 41599 52501 10092 20086 30004 40074 57004 71111 83901=
24606 42699 30000 10068 20061 39896 40153 52005 82501=
29253 42998 70000 10106 20102 39896 40057 57004 80001=
29471 41498 80000 10149 20140 39844 40055 57012 70282 889// 333
88919=
29481 42599 62001 10117 20113 39850 40074 57007 82330=
29553 42574 50000 10131 20098 39697 40037 57010 85900=
29562 42598 60000 10141 20109 39656 40042 57014 86900=
29581 42998 60000 10130 20126 39819 40058 57013 80001=
29594 41996 31001 10126 20121 39714 40075 57008 71011 82031=
29653 42597 70000 10122 20111 39588 40038 57009 85208=
29675 41598 80000 10118 20110 39516 40071 54000 70282 889//=
29676 42598 80000 10125 20125 39651 40046 57005 889//=
29752 42599 82401 10099 20059 38710 48385 57012 885//=
29759 42599 80000 10080 20067 39088 40060 58011 8295/=
29766 41699 31201 10121 20119 39728 40060 58010 70281 83500=
29789 41695 82301 10099 20095 38963 40074 57006 74022 85901=
29864 42684 70000 10080 20070 39443 40060 58009 84541=
29866 42699 60501 10120 20109 39754 40054 57011 82501=
29869 41697 20000 10122 20120 39706 40056 57011 70181 82501 333
95030=
29956 41/92 92302 10096 20096 39536 40064 57002 74541=
30337 42998 23101 10093 20090 39680 40103 52005 80001=
30504 41596 70000 10123 20121 39460 40064 57011 71022 82332=
30603 41696 20000 10140 20138 39552 40082 57004 71011 82500=
30612 42499 80000 10169 20165 39598 40087 57002 8662/ 333 85714=
30622 42698 80000 10155 20151 39496 40090 51005 82933=
30627 42699 80301 10140 20125 39227 40090 54000 86401=
30703 41/92 90000 10133 20133 39460 40086 57005 74544=
36307 42999 50903 10158 20056 38822 48418 57003 80002=
####018000057####
SMBZ06 SBBR 091800 RRE
AAXX 09184
83566 ///// NIL=
####018000112####
SIMN20 TNCM 092100
AAXX 09214
78866 22582 50912 10304 20229 30151 40156 57006 82200 333
58004 82822=
####018000095####
SIIY22 LIIB 092100 RRE
AAXX 09214
16405 42970 00707 10260 20211 30184 40197 53006
  333=
####018000087####
SIIY22 LIIB 092100 RRD
AAXX 09214
16289 42962 03302 10237 20157 30108 40190 52013=
####018000087####
SIIY22 LIIB 092100 RRB
AAXX 09214
16105 42965 02004 10268 20215 30195 40201 50006=
####018000087####
SIIY22 LIIB 092100 RRA
AAXX 09214
16066 42970 03601 10249 20204 39956 40208 52006=
####018000087####
SIIY22 LIIB 092100 RRC
AAXX 09214
16242 42960 02603 10255 20207 30190 40194 51006=
