####018001135####
SNCN19 CWAO 092355
OOXX
FJP26 09211 99178 31774 ///// ////1
     26/// /1301 10259 29076 30120 92140 333 60000=
FJP26 09211 99178 31774 ///// ////1
     26/// /1201 10263 29074 30121 92150 333 60000=
FJP26 09221 99178 31774 ///// ////1
     26/// /0902 10267 29074 30122 92200 333 60000=
FJP26 09221 99178 31774 ///// ////1
     26/// /0902 10273 29072 30122 92210 333 60000=
FJP26 09221 99178 31774 ///// ////1
     26/// /0102 10272 29069 30123 92220 333 60000=
FJP26 09221 99178 31774 ///// ////1
     26/// /3402 10274 29069 30122 92230 333 60000=
FJP26 09221 99178 31774 ///// ////1
     26/// /3003 10274 29067 30120 92240 333 60000=
FJP26 09221 99178 31774 ///// ////1
     26/// /3002 10272 29068 30120 92250 333 60000=
FJP26 09231 99178 31774 ///// ////1
     26/// /3102 10275 29067 30118 92300 333 60000=
FJP26 09231 99178 31774 ///// ////1
     26/// /3002 10276 29067 30117 92310 333 60000=
FJP26 09231 99178 31774 ///// ////1
     26/// /3002 10276 29067 30118 92320 333 60000=
FJP26 09231 99178 31774 ///// ////1
     26/// /3002 10273 29069 30118 92330 333 60000=

####018001135####
SNCN19 CWAO 092310
OOXX
FRP29 09211 99210 30556 ///// ////1
     26/// /2408 10179 29078 30023 92106 333 60000=
FRP29 09211 99210 30556 ///// ////1
     26/// /2409 10165 29081 30007 92116 333 60000=
FRP29 09211 99210 30556 ///// ////1
     26/// /2609 10158 29079 39986 92126 333 69920=
FRP29 09211 99210 30556 ///// ////1
     26/// /2608 10165 29079 39999 92136 333 69940=
FRP29 09211 99210 30556 ///// ////1
     26/// /2606 10160 29081 39990 92146 333 69940=
FRP29 09211 99210 30556 ///// ////1
     26/// /2408 10165 29082 30003 92156 333 60010=
FRP29 09221 99210 30556 ///// ////1
     26/// /2507 10151 29087 39994 92206 333 69960=
FRP29 09221 99210 30556 ///// ////1
     26/// /2508 10156 29085 39988 92216 333 69920=
FRP29 09221 99210 30556 ///// ////1
     26/// /2608 10158 29082 39988 92226 333 60000=
FRP29 09221 99210 30556 ///// ////1
     26/// /2607 10158 29080 39985 92236 333 60000=
FRP29 09221 99210 30556 ///// ////1
     26/// /2607 10165 29077 39987 92246 333 69920=
FRP29 09221 99210 30556 ///// ////1
     26/// /2508 10164 29079 39988 92256 333 69940=

####018001135####
SNCN19 CWAO 092320
OOXX
RUP61 09211 99567 10372 ///// /1181
     26/// /0000 10203 29093 30037 92120 333 60000=
RUP61 09211 99567 10372 ///// /1181
     26/// /0000 10203 29093 30035 92130 333 60000=
RUP61 09211 99567 10372 ///// /1181
     26/// /0000 10201 29093 30035 92140 333 60000=
RUP61 09211 99567 10372 ///// /1181
     26/// /0000 10201 29093 30036 92150 333 60000=
RUP61 09221 99567 10372 ///// /1181
     26/// /0000 10201 29093 30034 92200 333 60000=
RUP61 09221 99567 10372 ///// /1181
     26/// /0000 10198 29093 30035 92210 333 60000=
RUP61 09221 99567 10372 ///// /1181
     26/// /0000 10199 29093 30034 92220 333 60000=
RUP61 09221 99567 10372 ///// /1181
     26/// /0000 10200 29093 30034 92230 333 60000=
RUP61 09221 99567 10372 ///// /1181
     26/// /0901 10198 29093 30035 92240 333 60000=
RUP61 09221 99567 10372 ///// /1181
     26/// /0000 10196 29094 30034 92250 333 60000=
RUP61 09231 99567 10372 ///// /1181
     26/// /0000 10197 29094 30035 92300 333 60000=
RUP61 09231 99567 10372 ///// /1181
     26/// /0000 10195 29094 30034 92310 333 60000=

####018001135####
SNCN19 CWAO 092345
OOXX
AUP04 09211 99377 31451 ///// 00401
     26/// /0306 10133 29060 30098 92152 333 60000=
AUP04 09221 99377 31451 ///// 00401
     26/// /0307 10137 29058 30098 92202 333 60000=
AUP04 09221 99377 31451 ///// 00401
     26/// /0305 10135 29059 30103 92212 333 60000=
AUP04 09221 99377 31451 ///// 00401
     26/// /0306 10137 29059 30105 92222 333 60000=
AUP04 09221 99377 31451 ///// 00401
     26/// /0207 10136 29059 30105 92232 333 60000=
AUP04 09221 99377 31451 ///// 00401
     26/// /0307 10135 29059 30102 92242 333 60000=
AUP04 09221 99377 31451 ///// 00401
     26/// /0306 10134 29060 30104 92252 333 60000=
AUP04 09231 99377 31451 ///// 00401
     26/// /0206 10136 29060 30104 92302 333 60000=
AUP04 09231 99377 31451 ///// 00401
     26/// /0308 10135 29060 30100 92312 333 60000=
AUP04 09231 99377 31451 ///// 00401
     26/// /0307 10134 29061 30095 92322 333 60000=
AUP04 09231 99377 31451 ///// 00401
     26/// /0306 10134 29061 30099 92332 333 60000=
AUP04 09231 99377 31451 ///// 00401
     26/// /0206 10137 29060 30110 92342 333 60000=

####018001135####
SNCN19 CWAO 092335
OOXX
CKP23 09211 99212 51598 ///// ////1
     26/// /0804 10270 29082 30192 92140 333 60000=
CKP23 09211 99212 51598 ///// ////1
     26/// /0804 10269 29082 30192 92150 333 60000=
CKP23 09221 99212 51598 ///// ////1
     26/// /0705 10268 29082 30191 92200 333 60000=
CKP23 09221 99212 51598 ///// ////1
     26/// /0805 10267 29082 30190 92210 333 60000=
CKP23 09221 99212 51598 ///// ////1
     26/// /0805 10268 29082 30189 92220 333 60000=
CKP23 09221 99212 51598 ///// ////1
     26/// /0805 10269 29081 30188 92230 333 60000=
CKP23 09221 99212 51598 ///// ////1
     26/// /0705 10269 29082 30187 92240 333 60000=
CKP23 09221 99212 51598 ///// ////1
     26/// /0805 10269 29082 30186 92250 333 60000=
CKP23 09231 99212 51598 ///// ////1
     26/// /0705 10268 29082 30184 92300 333 60000=
CKP23 09231 99212 51598 ///// ////1
     26/// /0805 10268 29082 30183 92310 333 60000=
CKP23 09231 99212 51598 ///// ////1
     26/// /0805 10268 29082 30181 92320 333 60000=
CKP23 09231 99212 51598 ///// ////1
     26/// /0805 10269 29082 30181 92330 333 60000=

####018001135####
SNCN19 CWAO 092319
OOXX
USP73 09211 99648 50640 ///// ////1
     26/// /2307 11021 29087 39682 92102 333 60000=
USP73 09211 99648 50640 ///// ////1
     26/// /2307 11021 29088 39683 92112 333 60000=
USP73 09211 99648 50640 ///// ////1
     26/// /2407 11021 29089 39685 92122 333 60000=
USP73 09211 99648 50640 ///// ////1
     26/// /2407 11022 29088 39684 92132 333 60000=
USP73 09211 99648 50640 ///// ////1
     26/// /2407 11022 29088 39685 92142 333 60000=
USP73 09211 99648 50640 ///// ////1
     26/// /2407 11023 29087 39685 92152 333 60000=
USP73 09221 99648 50640 ///// ////1
     26/// /2407 11024 29087 39684 92202 333 60000=
USP73 09221 99648 50640 ///// ////1
     26/// /2408 11024 29087 39685 92212 333 60000=
USP73 09221 99648 50640 ///// ////1
     26/// /2508 11024 29087 39684 92222 333 60000=
USP73 09221 99648 50640 ///// ////1
     26/// /2508 11023 29087 39685 92232 333 60000=
USP73 09221 99648 50640 ///// ////1
     26/// /2508 11023 29088 39686 92242 333 60000=
USP73 09221 99648 50640 ///// ////1
     26/// /2508 11024 29089 39687 92252 333 60000=

####018001135####
SNCN19 CWAO 092352
OOXX
GBP68 09211 99370 50123 ///// ////1
     26/// /3505 10095 29064 30238 92140 333 60000=
GBP68 09211 99370 50123 ///// ////1
     26/// /3505 10095 29066 30237 92150 333 60000=
GBP68 09221 99370 50123 ///// ////1
     26/// /3505 10095 29066 30240 92200 333 60000=
GBP68 09221 99370 50123 ///// ////1
     26/// /3505 10094 29067 30240 92210 333 60000=
GBP68 09221 99370 50123 ///// ////1
     26/// /3506 10093 29068 30238 92220 333 60000=
GBP68 09221 99370 50123 ///// ////1
     26/// /3506 10094 29067 30235 92230 333 60000=
GBP68 09221 99370 50123 ///// ////1
     26/// /3505 10095 29067 30235 92240 333 60000=
GBP68 09221 99370 50123 ///// ////1
     26/// /3506 10097 29067 30235 92250 333 60000=
GBP68 09231 99370 50123 ///// ////1
     26/// /3506 10097 29068 30232 92300 333 60000=
GBP68 09231 99370 50123 ///// ////1
     26/// /3506 10097 29070 30232 92310 333 60000=
GBP68 09231 99370 50123 ///// ////1
     26/// /3505 10099 29070 30234 92320 333 60000=
GBP68 09231 99370 50123 ///// ////1
     26/// /3506 10100 29070 30234 92330 333 60000=

####018001135####
SNCN19 CWAO 092338
OOXX
CMP13 09211 99038 10102 ///// ////1
     26/// /2501 10238 29095 30006 92130 333 60000=
CMP13 09211 99038 10102 ///// ////1
     26/// /2501 10238 29095 30006 92140 333 60000=
CMP13 09211 99038 10102 ///// ////1
     26/// /0000 10238 29095 30007 92150 333 60000=
CMP13 09221 99038 10102 ///// ////1
     26/// /0000 10238 29095 30008 92200 333 60000=
CMP13 09221 99038 10102 ///// ////1
     26/// /2501 10238 29095 30009 92210 333 60000=
CMP13 09221 99038 10102 ///// ////1
     26/// /2501 10237 29095 30008 92220 333 60000=
CMP13 09221 99038 10102 ///// ////1
     26/// /2601 10237 29095 30007 92230 333 60000=
CMP13 09221 99038 10102 ///// ////1
     26/// /2501 10237 29095 30006 92240 333 60000=
CMP13 09221 99038 10102 ///// ////1
     26/// /2401 10237 29095 30004 92250 333 60000=
CMP13 09231 99038 10102 ///// ////1
     26/// /2301 10236 29095 30004 92300 333 60000=
CMP13 09231 99038 10102 ///// ////1
     26/// /2401 10235 29095 30003 92310 333 60000=
CMP13 09231 99038 10102 ///// ////1
     26/// /2402 10236 29095 30002 92320 333 60000=

####018001135####
SNCN19 CWAO 092317
OOXX
JPP38 09211 99363 11390 ///// ////1
     26/// /0601 10246 29073 39976 92106 333 60000=
JPP38 09211 99363 11390 ///// ////1
     26/// /0901 10248 29072 39978 92116 333 60000=
JPP38 09211 99363 11390 ///// ////1
     26/// /0801 10248 29073 39981 92126 333 60000=
JPP38 09211 99363 11390 ///// ////1
     26/// /0601 10250 29073 39982 92136 333 60000=
JPP38 09211 99363 11390 ///// ////1
     26/// /0501 10252 29073 39982 92146 333 60000=
JPP38 09211 99363 11390 ///// ////1
     26/// /0401 10256 29071 39983 92156 333 60000=
JPP38 09221 99363 11390 ///// ////1
     26/// /0401 10263 29068 39982 92206 333 60000=
JPP38 09221 99363 11390 ///// ////1
     26/// /1501 10272 29064 39982 92216 333 60000=
JPP38 09221 99363 11390 ///// ////1
     26/// /0401 10278 29062 39982 92226 333 60000=
JPP38 09221 99363 11390 ///// ////1
     26/// /0601 10283 29060 39983 92236 333 60000=
JPP38 09221 99363 11390 ///// ////1
     26/// /1601 10289 29058 39983 92246 333 60000=
JPP38 09221 99363 11390 ///// ////1
     26/// /1601 10293 29056 39983 92256 333 60000=

####018001135####
SNCN19 CWAO 092334
OOXX
ARP03 09211 99411 50712 ///// ////1
     26/// /2802 10059 29072 39203 92130 333 60000=
ARP03 09211 99411 50712 ///// ////1
     26/// /2802 10058 29072 39203 92140 333 60000=
ARP03 09211 99411 50712 ///// ////1
     26/// /2702 10059 29072 39200 92150 333 60000=
ARP03 09221 99411 50712 ///// ////1
     26/// /2802 10059 29074 39203 92200 333 60000=
ARP03 09221 99411 50712 ///// ////1
     26/// /2702 10059 29074 39202 92210 333 60000=
ARP03 09221 99411 50712 ///// ////1
     26/// /2802 10059 29073 39203 92220 333 60000=
ARP03 09221 99411 50712 ///// ////1
     26/// /2802 10061 29072 39203 92230 333 60000=
ARP03 09221 99411 50712 ///// ////1
     26/// /2702 10061 29072 39202 92240 333 60000=
ARP03 09221 99411 50712 ///// ////1
     26/// /2702 10062 29071 39202 92250 333 60000=
ARP03 09231 99411 50712 ///// ////1
     26/// /2702 10062 29072 39203 92300 333 60000=
ARP03 09231 99411 50712 ///// ////1
     26/// /2702 10063 29071 39204 92310 333 60000=
ARP03 09231 99411 50712 ///// ////1
     26/// /2702 10064 29071 39199 92320 333 60000=

####018001135####
SNCN19 CWAO 092313
OOXX
CLP19 09211 99271 51083 ///// ////1
     26/// /3403 10225 29084 30004 92103 333 60000=
CLP19 09211 99271 51083 ///// ////1
     26/// /3403 10224 29082 30004 92113 333 60000=
CLP19 09211 99271 51083 ///// ////1
     26/// /3403 10225 29081 30003 92123 333 60000=
CLP19 09211 99271 51083 ///// ////1
     26/// /3303 10226 29081 30001 92133 333 60000=
CLP19 09211 99271 51083 ///// ////1
     26/// /3303 10228 29079 30001 92143 333 60000=
CLP19 09211 99271 51083 ///// ////1
     26/// /3303 10231 29078 30001 92153 333 60000=
CLP19 09221 99271 51083 ///// ////1
     26/// /3303 10231 29078 30001 92203 333 60000=
CLP19 09221 99271 51083 ///// ////1
     26/// /3303 10230 29078 30001 92213 333 60000=
CLP19 09221 99271 51083 ///// ////1
     26/// /3402 10226 29078 30000 92223 333 60000=
CLP19 09221 99271 51083 ///// ////1
     26/// /3403 10219 29082 39998 92233 333 60000=
CLP19 09221 99271 51083 ///// ////1
     26/// /3303 10217 29083 39997 92243 333 60000=
CLP19 09221 99271 51083 ///// ////1
     26/// /3404 10220 29083 39996 92253 333 60000=

####018001135####
SNCN19 CWAO 092323
OOXX
RUP54 09211 99586 10494 ///// ////1
     26/// /0000 10167 29056 30021 92121 333 66510=
RUP54 09211 99586 10494 ///// ////1
     26/// /0000 10166 29056 30021 92131 333 66510=
RUP54 09211 99586 10494 ///// ////1
     26/// /0000 10164 29056 30021 92141 333 66510=
RUP54 09211 99586 10494 ///// ////1
     26/// /0000 10164 29056 30021 92151 333 66510=
RUP54 09221 99586 10494 ///// ////1
     26/// /0000 10162 29057 30020 92201 333 66510=
RUP54 09221 99586 10494 ///// ////1
     26/// /0000 10161 29057 30021 92211 333 66510=
RUP54 09221 99586 10494 ///// ////1
     26/// /0000 10159 29057 30021 92221 333 66510=
RUP54 09221 99586 10494 ///// ////1
     26/// /0000 10158 29057 30020 92231 333 66510=
RUP54 09221 99586 10494 ///// ////1
     26/// /0000 10157 29057 30020 92241 333 66510=
RUP54 09221 99586 10494 ///// ////1
     26/// /0000 10155 29057 30020 92251 333 66510=
RUP54 09231 99586 10494 ///// ////1
     26/// /0000 10154 29057 30020 92301 333 66510=
RUP54 09231 99586 10494 ///// ////1
     26/// /0000 10154 29057 30020 92311 333 66510=

####018001135####
SNCN19 CWAO 092322
OOXX
DEP33 09211 99479 10079 ///// 12001
     26/// /2301 10217 29040 38869 92109 333 60000=
DEP33 09211 99479 10079 ///// 12001
     26/// /0000 10215 29041 38869 92119 333 60000=
DEP33 09211 99479 10079 ///// 12001
     26/// /2101 10211 29042 38869 92129 333 60000=
DEP33 09211 99479 10079 ///// 12001
     26/// /2101 10211 29042 38868 92139 333 60000=
DEP33 09211 99479 10079 ///// 12001
     26/// /2001 10211 29042 38868 92149 333 60000=
DEP33 09211 99479 10079 ///// 12001
     26/// /2201 10211 29042 38868 92159 333 60000=
DEP33 09221 99479 10079 ///// 12001
     26/// /2101 10209 29043 38868 92209 333 60000=
DEP33 09221 99479 10079 ///// 12001
     26/// /2101 10209 29042 38868 92219 333 60000=
DEP33 09221 99479 10079 ///// 12001
     26/// /2101 10210 29042 38868 92229 333 60000=
DEP33 09221 99479 10079 ///// 12001
     26/// /2201 10209 29042 38868 92239 333 60000=
DEP33 09221 99479 10079 ///// 12001
     26/// /2201 10209 29042 38868 92249 333 60000=
DEP33 09221 99479 10079 ///// 12001
     26/// /2101 10208 29042 38868 92259 333 60000=

####018001319####
SNCN19 CWAO 092337
OOXX
USP79 09211 99215 71580 ///// ////1
     26/// /0401 10237 29100 39671 92109 333 60000=
USP79 09211 99215 71580 ///// ////1
     26/// /0401 10237 29100 39672 92119 333 60000=
USP79 09211 99215 71580 ///// ////1
     26/// /0401 10239 29100 39670 92129 333 60000=
USP79 09211 99215 71580 ///// ////1
     26/// /0401 10245 29100 39670 92139 333 60000=
USP79 09211 99215 71580 ///// ////1
     26/// /0501 10246 29100 39671 92149 333 60000=
USP79 09211 99215 71580 ///// ////1
     26/// /0501 10244 29100 39670 92159 333 60000=
USP79 09221 99215 71580 ///// ////1
     26/// /0401 10238 29100 39670 92209 333 60000=
USP79 09221 99215 71580 ///// ////1
     26/// /0401 10247 29100 39668 92219 333 60000=
USP79 09221 99215 71580 ///// ////1
     26/// /0401 10253 29100 39668 92222 333 60000=
USP79 09221 99215 71580 ///// ////1
     26/// /0401 10254 29100 39668 92225 333 60000=
USP79 09221 99215 71580 ///// ////1
     26/// /0301 10250 29099 39668 92229 333 60000=
USP79 09221 99215 71580 ///// ////1
     26/// /0701 10252 29099 39668 92239 333 60000=
USP79 09221 99215 71580 ///// ////1
     26/// /0401 10250 29099 39667 92249 333 60000=
USP79 09221 99215 71580 ///// ////1
     26/// /0402 10251 29099 39666 92259 333 60000=

####018004289####
SNCN19 CWAO 092311
OOXX
BRP11 09211 99230 50434 ///// ////1
     26/// /2401 10219 29086 30166 92108 333 60000=
BRP11 09211 99230 50434 ///// ////1
     26/// /2601 10218 29087 30169 92111 333 60000=
BRP11 09211 99230 50434 ///// ////1
     26/// ///// 1//// 29/// 3//// 92111 333 6///0=
BRP11 09211 99230 50434 ///// ////1
     26/// /2301 10219 29087 30167 92118 333 60000=
BRP11 09211 99230 50434 ///// ////1
     26/// /2201 10219 29087 30166 92118 333 60000=
BRP11 09211 99230 50434 ///// ////1
     26/// /2201 10219 29087 30166 92118 333 60000=
BRP11 09211 99230 50434 ///// ////1
     26/// /2301 10219 29087 30167 92124 333 60000=
BRP11 09211 99230 50434 ///// ////1
     26/// ///// 1//// 29/// 3//// 92124 333 6///0=
BRP11 09211 99230 50434 ///// ////1
     26/// /2401 10218 29088 30169 92128 333 60000=
BRP11 09211 99230 50434 ///// ////1
     26/// /2501 10218 29088 30170 92138 333 60000=
BRP11 09211 99230 50434 ///// ////1
     26/// /2401 10218 29088 30170 92143 333 60000=
BRP11 09211 99230 50434 ///// ////1
     26/// ///// 1//// 29/// 3//// 92143 333 6///0=
BRP11 09211 99230 50434 ///// ////1
     26/// /2202 10218 29088 30172 92148 333 60000=
BRP11 09211 99230 50434 ///// ////1
     26/// /2202 10218 29088 30173 92152 333 60000=
BRP11 09211 99230 50434 ///// ////1
     26/// ///// 1//// 29/// 3//// 92152 333 6///0=
BRP11 09211 99230 50434 ///// ////1
     26/// /2102 10218 29088 30173 92158 333 60000=
BRP11 09221 99230 50434 ///// ////1
     26/// /2401 10218 29088 30173 92205 333 60000=
BRP11 09221 99230 50434 ///// ////1
     26/// ///// 1//// 29/// 3//// 92205 333 6///0=
BRP11 09221 99230 50434 ///// ////1
     26/// /2401 10218 29088 30175 92208 333 60000=
BRP11 09221 99230 50434 ///// ////1
     26/// /2301 10218 29088 30174 92208 333 60000=
BRP11 09221 99230 50434 ///// ////1
     26/// ///// 1//// 29/// 3//// 92208 333 6///0=
BRP11 09221 99230 50434 ///// ////1
     26/// /2301 10219 29088 30173 92209 333 60000=
BRP11 09221 99230 50434 ///// ////1
     26/// /2301 10219 29088 30174 92209 333 60000=
BRP11 09221 99230 50434 ///// ////1
     26/// /2301 10219 29088 30173 92209 333 60000=
BRP11 09221 99230 50434 ///// ////1
     26/// ///// 1//// 29/// 3//// 92209 333 6///0=
BRP11 09221 99230 50434 ///// ////1
     26/// ///// 1//// 29/// 3//// 92209 333 6///0=
BRP11 09221 99230 50434 ///// ////1
     26/// /2301 10219 29088 30172 92209 333 60000=
BRP11 09221 99230 50434 ///// ////1
     26/// /2301 10218 29088 30174 92212 333 60000=
BRP11 09221 99230 50434 ///// ////1
     26/// /2202 10219 29088 30175 92212 333 60000=
BRP11 09221 99230 50434 ///// ////1
     26/// /2102 10218 29088 30175 92216 333 60000=
BRP11 09221 99230 50434 ///// ////1
     26/// ///// 1//// 29/// 3//// 92216 333 6///0=
BRP11 09221 99230 50434 ///// ////1
     26/// /2202 10218 29088 30175 92218 333 60000=
BRP11 09221 99230 50434 ///// ////1
     26/// /2301 10218 29088 30175 92220 333 60000=
BRP11 09221 99230 50434 ///// ////1
     26/// /2301 10219 29088 30175 92220 333 60000=
BRP11 09221 99230 50434 ///// ////1
     26/// /2202 10218 29088 30175 92222 333 60000=
BRP11 09221 99230 50434 ///// ////1
     26/// /2202 10219 29088 30175 92222 333 60000=
BRP11 09221 99230 50434 ///// ////1
     26/// /2102 10218 29088 30175 92225 333 60000=
BRP11 09221 99230 50434 ///// ////1
     26/// ///// 1//// 29/// 3//// 92225 333 6///0=
BRP11 09221 99230 50434 ///// ////1
     26/// /2202 10218 29088 30174 92227 333 60000=
BRP11 09221 99230 50434 ///// ////1
     26/// /2301 10219 29088 30174 92227 333 60000=
BRP11 09221 99230 50434 ///// ////1
     26/// /2401 10219 29088 30175 92228 333 60000=
BRP11 09221 99230 50434 ///// ////1
     26/// /2401 10219 29088 30174 92235 333 60000=
BRP11 09221 99230 50434 ///// ////1
     26/// /2401 10219 29088 30174 92235 333 60000=
BRP11 09221 99230 50434 ///// ////1
     26/// /2401 10218 29088 30175 92238 333 60000=
BRP11 09221 99230 50434 ///// ////1
     26/// /2501 10218 29088 30176 92242 333 60000=
BRP11 09221 99230 50434 ///// ////1
     26/// /2401 10219 29088 30176 92242 333 60000=
BRP11 09221 99230 50434

####018001135####
SNCN19 CWAO 092349
OOXX
RUP59 09211 99539 10848 ///// ////1
     26/// /0000 10092 29096 39754 92140 333 60000=
RUP59 09211 99539 10848 ///// ////1
     26/// /0000 10095 29096 39754 92150 333 60000=
RUP59 09221 99539 10848 ///// ////1
     26/// /0000 10097 29096 39754 92200 333 60000=
RUP59 09221 99539 10848 ///// ////1
     26/// /0000 10100 29096 39755 92210 333 69920=
RUP59 09221 99539 10848 ///// ////1
     26/// /0000 10105 29096 39756 92220 333 60000=
RUP59 09221 99539 10848 ///// ////1
     26/// /0000 10110 29096 39755 92230 333 60000=
RUP59 09221 99539 10848 ///// ////1
     26/// /0000 10111 29096 39756 92240 333 60000=
RUP59 09221 99539 10848 ///// ////1
     26/// /0000 10114 29096 39758 92250 333 60000=
RUP59 09231 99539 10848 ///// ////1
     26/// /0000 10116 29096 39758 92300 333 60000=
RUP59 09231 99539 10848 ///// ////1
     26/// /0000 10117 29096 39757 92310 333 60000=
RUP59 09231 99539 10848 ///// ////1
     26/// /1001 10119 29096 39758 92320 333 60000=
RUP59 09231 99539 10848 ///// ////1
     26/// /1101 10120 29096 39757 92330 333 60000=

####018001135####
SNCN19 CWAO 092316
OOXX
MNP45 09211 99479 11063 ///// ////1
     26/// /3303 10130 29099 38424 92120 333 60000=
MNP45 09211 99479 11063 ///// ////1
     26/// /3202 10131 29098 38423 92130 333 60000=
MNP45 09211 99479 11063 ///// ////1
     26/// /2803 10132 29095 38423 92140 333 60000=
MNP45 09211 99479 11063 ///// ////1
     26/// /2503 10136 29089 38422 92150 333 60000=
MNP45 09221 99479 11063 ///// ////1
     26/// /3403 10134 29091 38423 92200 333 60000=
MNP45 09221 99479 11063 ///// ////1
     26/// /3402 10134 29090 38424 92210 333 60000=
MNP45 09221 99479 11063 ///// ////1
     26/// /3102 10137 29087 38425 92220 333 60000=
MNP45 09221 99479 11063 ///// ////1
     26/// /3302 10135 29089 38424 92230 333 60000=
MNP45 09221 99479 11063 ///// ////1
     26/// /2603 10135 29088 38426 92240 333 60000=
MNP45 09221 99479 11063 ///// ////1
     26/// /3403 10135 29089 38426 92250 333 60000=
MNP45 09231 99479 11063 ///// ////1
     26/// /3404 10135 29088 38426 92300 333 60000=
MNP45 09231 99479 11063 ///// ////1
     26/// /3103 10138 29087 38427 92310 333 60000=

####018000091####
SMLJ10 LJLM 100000
AAXX 10001
14014 12982 00000 10163 20148 39779 40226 51004 60001=
####018000142####
SMLJ21 LJLM 100000
AAXX 10001
14026 12998 00000 10153 20132 39910 40223 52001 60001=
14121 36/// /1601 10166 20139 39958 40217 52001=
####018000318####
SMPL20 SOWR 100000
AAXX 10001
12160 12980 01202 10208 20140 30177 40228 52003 60001
  333 93000=
12205 12981 00902 10199 20151 30194 40202 50001 60001
  333 93000=
12465 12967 00000 10155 20124 30004 40232 50001 60001
  333 93000=
12566 12980 00000 10130 20116 39946 40237 50000 60001
  333 93000=
####018000886####
SMPL30 SOWR 100000
AAXX 10001
12105 12972 01403 10214 20155 30168 40209 58002 60001
  333 93000=
12195 12967 00000 10142 20136 30012 40236 54000 60001
  333 93000=
12235 12963 00000 10189 20154 30021 40224 52003 60001
  333 93000=
12270 12984 00802 10183 20138 30056 40233 53002 60001
  333 93000=
12280 12970 00000 10175 20165 30081 40233 52003 60001
  333 93000=
12300 12982 01602 10214 20111 30123 40209 50004 60001
  333 93000=
12400 12982 01403 10217 20082 39986 40211 51001 60001
  333 93000=
12435 12973 01002 10199 20126 30059 40225 58001 60001
  333 93000=
12495 12981 03401 10148 20116 39947 40234 50000 60001
  333 93000=
12530 12975 01101 10148 20135 30029 40225 50000 60001
  333 93000=
12570 12960 03601 10128 20117 39925 40239 50001 60001
  333 93000=
12580 12970 02502 10136 20128 39974 40230 57002 60001
  333 93000=
####018000472####
SMPL01 SOWR 100000
AAXX 10001
12120 12984 11302 10194 20146 30209 40216 50001 60001 80001
  333 93000=
12250 12973 00000 10164 20124 30141 40228 51006 60001
  333 93000=
12295 11958 00000 10151 20148 30049 40229 50001 60001 71111
  333 93000=
12330 12970 01201 10194 20133 30115 40220 51002 60001
  333 93000=
12375 12970 00000 10177 20144 30105 40232 51006 60001
  333 93000=
12424 12999 01002 10179 20136 30072 40220 50001 60001
  333 93000=
####018000588####
SMGR21 LGAT 100000
AAXX 10004
16614 NIL=
16627 12560 50000 10204 20171 30150 40154 57006 60001 83150 333
      83825 85358 90730 91107 555 40000 47647 44250 50000 50184=
16667 12568 12703 10216 20167 30139 40145 58008 60001 81100 333
      90730 91116 555 40000 47640 44250 50000 50186=
16675 NIL=
16710 NIL=
16723 11560 13310 10228 20177 30102 40116 58004 60001 702// 81100
      333 90730 91128 555 40000 47615 44270 50000 50196=
16738 NIL=
16746 12560 10000 10212 20170 39974 40150 57006 60001 81200 333
      90730 91105 555 40000 47519 44265 50000 50186=
####018000543####
SMGR20 LGAT 100000
AAXX 10004
16643 12560 20000 10202 20166 30160 40166 58003 60001 81130 333
      90730 91105 555 40000 47658 44260 50000 50180=
16648 12560 40000 10260 20163 30070 40155 52001 60001 82130 333
      82830 83358 90730 91104 555 40000 47589 44260 50000 50200=
16650 12560 20000 10200 20153 30146 40150 57005 60001 82100 333
      90730 91105 555 40000 47643 44245 50000 50172=
16684 12560 20904 10220 20172 30122 40149 57007 60001 82100 333
      90730 91108 555 40000 47629 44270 50000 50190=
16732 NIL=
####018000166####
SMCS01 MROC 100007
AAXX10004
78762 31057 80000 10220 20220 39079 40095 51004 60131 875//
333 000// 10290 20187 32/// 59010 70127 81701 83708 85630=



####018000874####
SMKO01 RKSL 100000
AAXX 10004
47101 12560 63202 10232 20187 30015 40103 52006 69902 85501 333
20204 30028=
47105 169// /1402 10232 20199 30068 40098 50005 60022 333 20199
3/026=
47108 11958 20703 10250 20181 39997 40094 52006 69902 70511 80001
333 20217 31029=
47115 12462 61803 10219 20207 39858 40108 52007 69902 86500 333
20198 31028 92021=
47133 12961 52901 10252 20183 30015 40086 54000 69902 80005 333
20210 30030=
47138 11958 61801 10259 20200 30099 40100 50003 69902 71022 80001
333 20216 30034 92022=
47159 31950 61605 10252 20210 30026 40105 50009 71022 80002 333
20226 30029 92022=
47165 32961 61407 10241 20216 30043 40085 58003 80001 333 20218
30028 92023=
47168 31656 60504 10238 20201 30026 40109 50004 71022 81502 333
20221 30030 92022=
47184 32668 60001 10245 20169 30053 40076 57011 82501 333 20211
30029 92022=
####018000219####
SMRH10 LDZM 100000
AAXX 10001
14240 12970 03001 10170 20133 30066 40217 51002 60001=
14258 12970 00000 10147 20138 30033 40218 57002 60001=
14445 12970 00608 10239 20111 30041 40189 58001 60001
  333 92312=
####018000162####
SMDO01 TDPD 100000
AAXX 10004
78906 11474 61304 10238 20207 30147 40152 60051 72598 85441
 333 10321 20250 58005 70072 83816 85632 85358 90916=



####018000158####
SMDO01 TDPD 100000
AAXX 10004
78906 11474 61304 10238 20207 30147 40152 60051 72598 85441
 333 10321 20250 58005 70072 83816 85632 85358 90916=

####018000162####
SMCS01 MROC 100007
AAXX10004
78762 31057 80000 10220 20220 39079 40095 51004 60131 875//
333 000// 10290 20187 32/// 59010 70127 81701 83708 85630=

####018000372####
SMRH21 LDZM 100000
AAXX 10001
14241 12980 02101 10157 20132 30090 40217 50000 60001=
14284 12970 02701 10179 20155 30108 40213 58003 60001=
14307 32981 00602 10217 20165 30129 40203 50000 333=
14431 12975 00705 10238 20104 30107 40196 57003 60001=
14444 32980 00401 10240 20095 30168 40196 54000 333=
14474 12980 00308 10243 20070 30001 40183 56004 60001=
####018000213####
SMKB01 NGTT 100000
AAXX 10004
91487 NIL=
91490 NIL=
91533 NIL=
91601 NIL=
91610 11599 19903 10304 20229 40121 58003 60001 70200 81100 333
20274 569// 70000 =
91623 NIL=
91629 NIL=
91701 NIL=
####018000139####
SMBH01 MZBZ 010000
AAXX 10004
78583 32570 70808 10299 20260 40119 60001 85838 333
01234 10310 20222 58024 70730 83822 83359 87276=
####018003403####
SMKO03 RKSL 100000
AAXX 10004
47090 11658 60205 10231 20204 30080 40106 52008 69902 71022 83501
333 20198 31028 92012=
47095 12960 43601 10231 20186 39921 40097 50001 69902 80001 333
20182 31028=
47097 12960 40001 10251 20196 30011 40114 50006 69902 81031 333
20190 31030=
47098 32962 22302 10236 20189 39969 40097 52003 80001 333 20190
30031=
47099 31656 22002 10251 20207 30061 40095 51002 71000 81501 333
20197 30032=
47100 12462 63202 10188 20164 39243 40103 50002 60312 82501 333
20156 31024=
47102 11403 91107 10216 20207 39922 40088 52009 69902 74544 333
20205 31027=
47104 11657 63602 10243 20197 30007 40097 50004 60032 71022 81501
333 20192 31030=
47106 11658 63602 10233 20206 30054 40099 50006 60022 71011 81501
333 20196 31026=
47112 31650 63401 10237 20212 30016 40094 50005 71022 84501 333
20221 30026 92000=
47114 12665 50501 10247 20188 39929 40100 51002 69902 81501 333
20203 31026=
47119 32961 51604 10268 20210 30056 40095 50004 80001 333 20217
31031=
47121 11556 52902 10221 20186 39831 40103 50004 69902 71000 81501
333 20187 30026=
47127 11958 53202 10251 20194 39969 40098 50001 69902 71001 82031
333 20198 30027=
47129 31958 60203 10254 20197 30063 40092 50003 71022 80002 333
20203 30029=
47130 12961 61103 10226 20201 30047 40101 52007 69902 80002 333
20188 31028 92022=
47131 12961 63202 10260 20186 30028 40092 54000 69902 80001 333
20213 31033=
47135 12961 31603 10252 20200 39821 40092 56001 69902 80001 333
20186 30029=
47136 12962 42901 10245 20195 39946 40105 51007 69902 80001 333
20199 31027=
47137 12961 53603 10239 20196 39992 40103 50004 69902 80001 333
20202 30030=
47140 11958 61403 10248 20219 30066 40096 51004 69902 71022 80002
333 20217 31030 92011=
47143 11950 51103 10262 20198 30035 40100 50004 69902 70521 80001
333 20230 30034=
47145 32964 51102 10265 20191 30066 40090 50002 80001 333 20208
31037=
47146 12962 61604 10256 20199 30031 40100 51003 69902 80001 333
20211 30029=
47150 12965 60202 10261 20192 30072 40092 50001 69902 80002 333
20213 31031=
47152 31958 51403 10256 20212 30064 40103 50005 71022 80001 333
20209 30030=
47154 11958 50904 10271 20201 30045 40099 50003 69902 70522 80001
333 20214 30037=
47155 31950 61103 10254 20208 30060 40102 52003 71022 80001 333
20218 31033=
47156 32961 60202 10254 20206 30012 40097 50001 80002 333 20227
30029=
47157 31956 61602 10242 20203 39849 40097 58002 71011 80001 333
20189 31032=
47162 31930 60000 10235 20217 30068 40103 52005 71011 80002 333
20204 30027 92020=
47169 31508 91413 10225 20207 39991 40069 57006 74344 333 20202
30029 92024=
47170 31658 60906 10240 20220 30052 40083 55003 71022 83502 333
20202 30029 92022=
47171 32962 62702 10270 20203 30040 40085 52001 80001 333 20217
30032=
47172 32961 60903 10263 20212 30024 40085 50002 80002 333 20210
30028=
47173 31958 61401 10236 20195 39993 40099 54000 71022 80001 333
20189 31027=
47174 31958 61102 10251 20201 30013 40098 50003 71022 80001 333
20209 30027=
47175 31506 91613 10206 20201 39543 40078 58009 74544 333 20186
30024 92024=
47185 32662 51112 10264 20190 39990 40070 57009 81501 333 20211
30034 92023=
47189 31658 60906 10257 20213 30028 40085 55004 71022 81501 333
20225 30029=
47192 31650 63203 10241 20195 30070 40101 51005 71022 81502 333
20203 30027=
####018001416####
SMBU01 LZSO 100000
AAXX 10001
15502 12970 00000 10184 20160 30134 40172 58003 60001 333 10242 20184
555 586//=
15525 11565 82302 10185 20167 39921 40176 52006 60011 70362 8657/ 333
10227 20185 555 589// 63199 70058=
15528 12970 62302 10196 20161 39975 40157 52006 60001 86050 333 10236
20195 555 580//=
15535 11570 61101 10191 20180 30112 40157 54000 69921 70182 86500 333
10209 20191 555 593//=
15549 11559 63601 10169 20166 39767 40169 58001 60051 72582 86400 333
10183 20166 555 59801 61622 70054=
15552 11460 83406 10190 20174 30083 40130 54000 60041 78182 883// 333
10204 20190 555 59003 62499 70052 92025 92427=
15614 12668 62702 10180 20143 39503 40181 58004 60001 86800 333 10218
20180 555 579//=
15615 11/00 90206 10012 20012 37189 47140 58004 60001 74144 333 10028
20010 555 500//=
15626 12670 80000 10212 20159 39984 40164 58001 60001 8686/ 333 10245
20205 555 572//=
15627 11/00 93214 10062 20062 37654 47116 54000 60001 74544 333 10062
20056 555 500//=
15640 11670 83205 10199 20150 39839 40138 56014 60011 70262 885// 333
10206 20196 555 57401 60199 70052=
15655 12570 82302 10198 20173 30110 40142 58002 60001 885// 222//
309// 4//01 333 10201 20193 555 586// 92023 92428=
15712 12975 03202 10208 20117 39931 40171 51003 60001 333 10266 20207
555 556//=
15730 12670 83408 10180 20160 39786 40163 54000 60001 8692/ 333 10220
20177 555 588//=
####018000152####
SMMF01 TFFR 100000
AAXX 10004
78897 11570 70703 10252 20219 40159 50013 60031 70186 8587/
 333 023// 10322 20248 58003 70032 83823 85656 85361=
####018000119####
SMPY01 SGAS 100000 RRA
AAXX 10004
86068 21256 82012 10188 20176 40176 52020 76061 886// 333 10232
60027 88706=
####018000139####
SMBH01 MZBZ 010000
AAXX 10004
78583 32570 70808 10299 20260 40119 60001 85838 333
01234 10310 20222 58024 70730 83822 83359 87276=
####018000092####
SMMZ01 FQMA 100001
AAXX 10004
67297 32408 2//// 10178 20168 40198 82200 333 59031=

####018000931####
SMPF01 NTAA 100000
AAXX 10004
91925 01475 70916 10264 20218 30061 40121 56018 60204 70182 86802
  333 20230 56206 58007 60007 82816 85821 90710 91129
  555 60005 10729=
91929 04966 /0913 10278 20223 30154 40157 56019 60054 700//
  333 20248 58014 60007 90710 91122
  555 60005 10823=
91938 01565 62310 10295 20220 30162 40164 56019 69904 71586 86800
  333 20230 56900 58014 60007 82820 85650 90710 91117
  555 60005 12717=
91944 06/// /1119 10276 20197 30172 40175 56017 60001
  333 60007 90710 91126
  555 60005=
91948 02580 31804 10208 20158 30115 40219 56017 69904 83800
  333 20199 56300 58017 60007 82823
  555 60005=
91954 02565 20610 10254 20198 30205 40208 56018 60004 82200
  333 20231 56200 58006 60007 82820
  555 1//16=
91958 02482 60510 10213 20187 30237 40239 56015 60074 86800
  333 20189 56100 59008 60007 86816 90710 91121
  555 60005 1//21=
91943 NIL=
91945 NIL=
####018000089####
SMMZ01 FQMA 100001
AAXX 10004
67297 32408 2//// 10178 20168 40198 82200 333 59031=
####018000145####
SMDL23 EDZW 100000 CCB
AAXX 10001
10609 12982 02101 10209 20164 39882 40197 52004 60001
  333 30/// 55/// 22024 30892 55300 20000 30000=
####018000133####
SIDL23 EDZW 092100 CCB
AAXX 09211
10609 32982 32202 10248 20160 39878 40189 53010 81031
  333 55300 20000 30000 81362 83080=
####018000127####
SIIN21 DEMS 092100 RRC
AAXX 09214
43333 21496 52302 10254 20245 40099 70252 84401
  333 56509 59010 6015/ 82616 83822=
####018000550####
SMSM01 SMJP 100000
AAXX 10004
81200 12570 40000 10272 20230 40119 60001 70191 82542
  333 1//// 56999 58000 70131 82630 83080=
81202 11470 60612 10284 20250 40122 60001 70291 2832
  333 10300 56299 59005 79999 82812 83360 85080=
81209 11470 60000 10264 20251 40130 60041 70198 85832
  333 10322 56299 59001 70043 83815 84625=
81225 11470 50000 10250 20244 40130 60091 70198 82832
  333 10324 56299 59002 70089 82810 84075=
81251 11465 70000 10232 20226 40135 60161 71398 85963
  333 10307 56299 58008 70159 84812 82915 86080=
####018000398####
SMMA01 FIMP 100000
AAXX 10004
61974 12470 11311 10254 20206 40120 60001 81800
  333 59003 81819=
61986 NIL=
61988 11460 70913 10200 20178 40165 69971 72582 87800
  333 0//11 59023 86817 91126=
61989 NIL=
61990 12470 71010 10222 20141 40173 60001 87800
  333 59035 82818 86650 91121=
61995 11462 71208 10185 20147 39678 69931 71582 87800
  333 0//15 59031 84817 84650 91123=
####018000574####
SMTU13 LTAA 100000
AAXX 10004
17042 NIL=
17074 NIL=
17086 12670 41102 10220 20153 39410 40077 54000 60001 84200
 333 84835=
17088 12670 62502 10189 20167 38784 48507 51004 60001 84250
 333 84840 86360=
17140 12965 00000 10176 20166 38689 48488 53002 60001=
17155 NIL=
17203 12970 02502 10200 20049 38850 48532 54000 60001=
17237 NIL=
17250 NIL=
17270 12970 00601 10241 20147 39459 40056 58001 60001=
17295 12960 03501 10226 20181 30084 40091 57003 60001=
17320 NIL=
17375 12970 03501 10239 20181 30093 40095 57003 60001
 333 91104 92408=
####018002161####
SMNZ01 NZKL 100000
AAXX 10004
93004 16/// /1113 10121 20048 40263 52008 60004
  333 20077 70000=
93023 16/// /0000 10122 20030 40277 52013 60004
  333 20047 70000=
93069 16/// /1310 10117 20050 40278 52008 6///4
  333 20094=
93110 16/98 /2105 10093 20048 40283 52002 60004
  333 20036 70000=
93186 15/98 /1608 10112 20010 40278 57002 60004
  333 20028 70000=
93196 16/// /1815 10117 20032 40257 52001 60004
  333 20081 70000=
93245 15/98 /2406 10074 20006 40286 57008 60004
  333 21039 70000=
93292 NIL=
93305 16/// /1325 6///4=
93309 15/97 /1413 10102 20051 40295 52002 60004
  333 20038 70000=
93334 16/// /1405 10018 21001 39313 52004 60014
  333 21008 70012=
93373 15598 /2213 10092 20033 40290 52002 60004
  333 20057 70000=
93404 15/98 /3303 10091 20049 40300 57004 69924
  333 20005 70002=
93420 15598 /2108 10085 20044 40302 57002 60024
  333 20033 70016=
93439 15597 /2016 10084 20042 40305 52001 6///4
  333 20055=
93498 16/// /2314 10073 20046 40289 52002 60104
  333 20052 70100=
93515 15698 /1607 10108 20023 40305 52005 60004
  333 20025 70000=
93527 16/// /1306 10106 20030 40307 52003 60004
  333 20041 70000=
93546 15/98 /2802 10087 21004 40308 52003 60004
  333 21016 70000=
93597 16/// /1811 10090 20024 40306 52003 60004
  333 20066 70000=
93615 15/98 /0807 10092 21031 40310 52005 60004
  333 21010 70000=
93678 16/98 /1915 10065 20016 40307 57004 69924
  333 20046 70002=
93709 16/// /1506 10103 20007 40305 52002 60004
  333 20043 70000=
93773 15/98 /3104 10069 21004 40311 57002 60004
  333 21043 70000=
93781 15/98 /2903 10075 20022 40312 57003 60034
  333 21007 70032=
93800 NIL=
93805 NIL=
93831 15/98 /0503 10019 21032 40330 57014 60004
  333 21053 70000=
93845 15598 /3606 10039 20018 40315 52001 69984
  333 20002 70008=
93891 15/98 /3501 10032 20025 40316 54000 69944
  333 21053 70004=
93909 16/// /2911 10067 20053 40303 52001 69964
  333 70006=
93929 16/// /2824 10072 20045 40258 57004 60004
  333 70000=
93947 NIL=
93987 16/// /1911 10078 20057 40181 52009 60024
  333 20043 70024=
93994 NIL=
####018000722####
SMTU11 LTAA 100000
AAXX 10004
17026 12970 23203 10216 20196 30082 40119 57004 60001 82030 333 82359
91114 92428=
17034 NIL=
17070 12565 52002 10151 20143 39298 40137 55002 60001 85200
 333 85830=
17084 NIL=
17090 12965 00000 10202 20157 38700 48488 52010 60001=
17098 12960 02703 10094 20039 38221 48508 50002 60001=
17150 12660 63503 10192 20162 30029 40147 57007 60001 84250 333 84835
85360=
17160 12970 03612 10206 20152 38984 48492 52005 60001
 333 91118=
17184 NIL=
17189 12970 03109 10146 20111 39016 48508 58003 60001=
17210 NIL=
17234 NIL=
17260 12960 00000 10176 20138 39300 40064 56002 60001=
17290 12970 00105 10231 20151 30073 40104 57008 60001  333 92428=
17370 NIL=
####018001080####
SMTU10 LTAA 100000
AAXX 10004
17022 NIL=
17031 12670 52906 10233 20204 30107 40113 57004 60001 83250
 333 83836 85360=
17038 12560 62304 10247 20207 30067 40115 58004 60001 84650
 333 83720 84835 86360 92427=
17050 11560 73202 10186 20158 30098 40158 50008 60011 78022 85270 333
85830 87458=
17060 11660 43205 10193 20176 30100 40139 56001 69921 70281 84200
 333 84835=
17096 12970 02202 10087 20031 38253 48504 58001 60001=
17124 12960 02707 10162 20128 39252 40125 58001 60001=
17128 12970 22401 10176 20143 39063 40097 50002 60001 82030
 333 82360=
17170 12970 00602 10151 20027 38336 48497 58003 60001=
17195 12970 00000 10198 20146 38935 48491 52006 60001=
17199 12970 01706 10247 20052 39035 40035 51004 60001=
17219 12965 03616 10217 20156 39981 40119 58008 60001 333 91124=
17240 12970 03201 10159 20109 39014 40100 54000 60001
 333 91108=
17244 12970 03018 10203 20105 38973 48505 52006 60001=
17280 12970 01801 10210 20028 39322 40048 53001 60001=
17350 12560 33403 10230 20224 30095 40169 58004 60001 83100
 333 83830=
####018000383####
SMTU14 LTAA 100000
AAXX 10004
17500 NIL=
17501 NIL=
17505 NIL=
17507 NIL=
17510 12560 20000 10245 20000 30105 40115 54000 60001 82100
333 82830 92417=
17515 NIL=
17521 12960 02907 10226 20196 39963 40094 57003 60001=
17530 NIL=
17535 NIL=
17540 NIL=
17547 NIL=
17550 NIL=
17572 12560 20000 10242 20201 30085 40109 54000 60001 82100
333 82830 92417=
####018000780####
SMTU12 LTAA 100000
AAXX 10004
17024 12670 52009 10196 20185 30047 40121 51001 60001 83250
 333 83835 85360 91113 92438=
17056 12970 03004 10190 20160 30152 40156 50000 60001
 333 91112 92428=
17067 12670 62907 10217 20184 30112 40133 58001 60001 86200
 333 86840 91116 92418=
17092 12960 00000 10161 20054 38834 48491 51004 60001=
17112 12670 50301 10207 20153 30157 40159 57010 60001 83230
 333 83835 85360 91113 92408=
17115 12660 52802 10187 20164 30095 40144 57005 60001 83130
 333 83835 85360=
17116 NIL=
17188 NIL=
17202 12970 02104 10160 20041 39111 40058 52004 60001=
17248 12975 02803 10210 20117 38951 48495 52007 60001=
17292 NIL=
17300 12560 33202 10241 20209 30024 40096 57005 60001 83100
 333 83830=
17310 NIL=
17330 NIL=
####018000266####
SMTD01 TTPP 100000
AAXX 10004
78970 11272 70000 10257 20247 30097 40122 69941 70562 82878
333 02299 10320 20251 59001 81705 85359 87075 90935=
78962 11466 71114 10275 20236 30124 40132 60021 70286 82833
333 01299 10305 20247 59004 82818 83359 85076 90924=
 
####018001562####
SMXX16 KAWN 100000 RRA
BBXX
46001 10001 99563 71480 46/// /1002 10095 40072 54000 92350 22200
 00094 10704 20401 300// 40703 70019 333 91204 555 11020 22022
 32314 41006 62349 100019 102019 102019 100025 097027 093024=
46014 10001 99392 71240 46/// /1901 10120 40144 57003 92350 22200
 00116 10802 20401 300// 40802 70010 333 91201 555 11014 22014
 32255 42503 62349 193012 210013 214017 240016 249014 256019=
46026 10001 99378 71228 46/// /2804 10122 40147 56010 92350 22200
 00122 11402 20401 320// 41402 70008 333 91205 555 11041 22044
 32344 42905 62349 282040 285035 286036 286035 285032 285038=
46042 10001 99368 71224 46/// /3106 10134 30142 40142 58011 92350
 22200 00129 11402 20601 317// 41402 70011 333 91208 555 11068
 22074 32342 43208 62349 314063 317064 311066 314060 313059
 308061=
CG2958 10004 99487 71235 46/// /1106 10269 20136 40145 56007
 7//// 8//// 22200 0//// 2////=
CG2965 10004 99491 71235 46/// /3115 10246 20134 40135 58009
 7//// 8//// 22241 00183 2////=
CGBR 10004 99529 71292 46/// /0603 10154 20119 40181 58001 7////
 8//// 22272 00139 2////=
CGDP 10004 99507 71275 46/// /0908 10164 20110 40187 50196 7////
 8//// 22200 0//// 2////=
CGJK 10004 99526 71412 41295 82422 10102 20100 40124 53007 70254
 886// 22263 00105 20404=
PCHM 10004 99582 71344 41298 82004 10200 20149 40132 54000 70222
 8776/ 22200 2//// 3//// 4//// 5//// 80170=
WDB9948 10004 99396 71260 41/93 93516 10135 20130 40158 51005
 74944 89/// 22275 00130 20202 328// 40403 5//// 6//// 80130 ICE
 /////=
####018000864####
SMSP02 LEMM 100000
AAXX 10004
08055 NIL=
08075 NIL=
08084 02970 10000 10199 20147 39798 40217 51006 60001 81020
  333 60007=
08184 06/// /0000 10227 20197 30060 40210 50003 60001
  333 60007=
08202 02970 00000 10192 20138 39302 42843 51010 60001
  333 60007=
08235 NIL=
08238 NIL=
08280 12980 00000 10235 20006 39401 40187 50000 60001=
08330 12980 02608 10228 20181 39962 40183 52011 60001=
08348 NIL=
08360 02970 00000 10225 20156 30142 40178 58004 60001
  333 60007=
08373 02362 20305 10235 20216 30164 40185 50000 60001 8260/
  333 60007=
08410 06/// /2504 10271 20164 30059 40164 51009 60001
  333 60007=
08419 05/69 /3301 10213 20107 39535 40180 51006 60001
  333 60007=
08451 02970 02001 10229 20191 30143 40175 50002 60001
  333 60007=
08487 06/// /2401 10236 20201 30156 40180 50000 60001
  333 60007=
####018001451####
SMTH01 VTBB 100000
AAXX 10004
48300 11458 60000 10252 20239 39762 40072 60434 71022 85656
  333 20229 59004 70433=
48327 12662 80000 10258 20239 39734 40087 60034 82577
  333 20253 58014 70034=
48331 32562 70000 10264 20253 39837 40065 82806
  333 20234 59005=
48353 12563 80000 10253 20235 39785 40073 69904 83806
  333 20245 58010 79999=
48356 12562 30000 10265 20236 39886 40082 60054 81131
  333 20255 58004 70047=
48375 01558 80000 10247 20237 39848 40072 69934 76022 8652/
  333 20243 59004 69935 70003=
48378 11560 60000 10260 20247 30020 40072 60024 70262 82576
  333 20255 58004 70016=
48381 31958 41202 10265 20243 39861 40080 71011 80006
  333 20250 58009=
48407 32560 61703 10268 20242 39956 40096 82106
  333 20258 58015=
48431 12960 40000 10260 20240 39865 40078 60044 80006
  333 20246 58008 70036=
48456 12560 42003 10276 20216 30070 40084 60164 81135
  333 20265 58006 70159=
48480 11558 60000 10260 20250 30078 40082 60034 71096 84846
  333 20249 59002 70026=
48500 12562 50000 10260 20231 30083 40089 60074 82846
  333 20253 58004 70072=
48551 11557 60000 10242 20236 30090 40098 69944 71022 82256
  333 20238 58000 70004=
48565 01457 70000 10240 20233 30082 40092 60024 70262 84847
  333 20240 59002 60027 70021=
48569 31558 60000 10247 20229 30061 40101 71022 82236
  333 20238 59004=
48583 31559 60000 10245 20221 30088 40094 71022 82136
  333 20240 59003=
####018001403####
SMTH02 VTBB 100000
AAXX 10004
48303 12462 70000 10246 20234 39629 40070 60274 86576
  333 20240 58002 70266=
48328 32560 40000 10258 20246 39792 40068 82505
  333 20253 59005=
48330 12562 70000 10259 20244 39882 40067 60044 81136
  333 20252 59002 70042=
48351 12562 80000 10267 20242 39998 40071 60014 84836
  333 20267 58003 70011=
48354 32962 61304 10265 20243 39871 40073 81046
  333 20255 58006=
48376 31562 72604 10280 20216 39929 40073 71022 81576
  333 20270 58001=
48377 32562 60000 10267 20235 39902 40066 83556
  333 20261 59004=
48379 12560 50000 10243 20230 39932 40065 69934 82536
  333 20233 58007 70003=
48400 12560 80000 10266 20252 30033 40073 69974 82247
  333 20260 58006 70007=
48432 11958 20000 10265 20243 39917 40084 60014 71010 81041
  333 20252 58006 70011=
48455 12560 62005 10275 20229 30079 40084 60034 81146
  333 20268 58002 70025=
48462 11957 20000 10260 20246 30033 40089 60014 71000 80005
  333 20250 58008 70014=
48475 32562 40000 10273 20216 30071 40078 81505
  333 20260 58003=
48477 11559 60000 10260 20251 30060 40085 60024 71011 81146
  333 20252 58006 70018=
48517 32560 20000 10251 20232 30091 40098 81141
  333 20248 58003=
48532 01560 50601 10250 20229 30085 40094 69914 70262 82306
  333 20240 59005 69917 70001=
48567 31459 60000 10246 20240 30078 40096 71021 81906
  333 20230 59002=
####018000119####
SMNO01 ENMI 100000 RRA
AAXX 10001
01062 11/04 92803 10045 20041 30109 40123 57001 60001 74544 333
      91107=
####018000098####
SMMZ01 FQMA 100001
AAXX 10004
67297 32408 2//// 10178 20168 40198 74240 82200 333 59031=

####018001078####
SMTU10 LTAA 100000
AAXX 10004
17022 NIL=
17031 12670 52906 10233 20204 30107 40113 57004 60001 83250
 333 83836 85360=
17038 12560 62304 10247 20207 30067 40115 58004 60001 84650
 333 83720 84835 86360 92427=
17050 11560 73202 10186 20158 30098 40158 50008 60011 78022 85270 333 85830 87458=
17060 11660 43205 10193 20176 30100 40139 56001 69921 70281 84200
 333 84835=
17096 12970 02202 10087 20031 38253 48504 58001 60001=
17124 12960 02707 10162 20128 39252 40125 58001 60001=
17128 12970 22401 10176 20143 39063 40097 50002 60001 82030
 333 82360=
17170 12970 00602 10151 20027 38336 48497 58003 60001=
17195 12970 00000 10198 20146 38935 48491 52006 60001=
17199 12970 01706 10247 20052 39035 40035 51004 60001=
17219 12965 03616 10217 20156 39981 40119 58008 60001 333 91124=
17240 12970 03201 10159 20109 39014 40100 54000 60001
 333 91108=
17244 12970 03018 10203 20105 38973 48505 52006 60001=
17280 12970 01801 10210 20028 39322 40048 53001 60001=
17350 12560 33403 10230 20224 30095 40169 58004 60001 83100
 333 83830=
####018000718####
SMTU11 LTAA 100000
AAXX 10004
17026 12970 23203 10216 20196 30082 40119 57004 60001 82030 333 82359 91114 92428=
17034 NIL=
17070 12565 52002 10151 20143 39298 40137 55002 60001 85200
 333 85830=
17084 NIL=
17090 12965 00000 10202 20157 38700 48488 52010 60001=
17098 12960 02703 10094 20039 38221 48508 50002 60001=
17150 12660 63503 10192 20162 30029 40147 57007 60001 84250 333 84835 85360=
17160 12970 03612 10206 20152 38984 48492 52005 60001
 333 91118=
17184 NIL=
17189 12970 03109 10146 20111 39016 48508 58003 60001=
17210 NIL=
17234 NIL=
17260 12960 00000 10176 20138 39300 40064 56002 60001=
17290 12970 00105 10231 20151 30073 40104 57008 60001  333 92428=
17370 NIL=
####018001588####
SMTH41 VTBB 100000
AAXX 10004
48315 31556 80000 10265 20254 39806 40073 71022 8457/
  333 20256 58001=
48374 12560 60000 10245 20223 39915 40081 60024 82575
  333 20235 58007 70018=
48382 12560 60000 10262 20259 39902 40077 60104 82506
  333 20248 58011 70104=
48385 01556 80000 10232 20223 39570 40087 69984 71066 83576
  333 20225 59006 69967 70008=
48390 01950 81106 10254 20241 39923 40084 60024 71092 84067
  333 20245 58009 69907 70020=
48402 32962 20000 10269 20255 30052 40071 81045
  333 20257 58006=
48413 11556 60000 10250 20244 39991 40071 60454 71062 82535
  333 20243 59001 70453=
48416 32560 20000 10276 20243 39935 40081 82100
  333 20263 58000=
48418 11558 60000 10253 20241 30014 40073 60024 71022 81546
  333 20239 58005 70015=
48434 32960 20000 10255 20233 39858 40078 80001
  333 20250 58003=
48436 11958 60000 10250 20243 39872 40079 69914 71020 81036
  333 20240 58007 70001=
48439 NIL=
48460 32962 20000 10265 20254 30049 40080 80005
  333 20254 58005=
48461 32565 51004 10277 20245 30013 40083 83106
  333 20270 58001=
48478 11558 50000 10270 20267 30083 40088 69984 71011 81906
  333 20260 58011 70008=
48501 01558 30703 10260 20246 30082 40086 60084 71061 82301
  333 20243 59002 69927 70076=
48561 11460 60000 10243 20239 30090 40099 60094 70262 83846
  333 20238 58001 70090=
48564 32560 80000 10258 20242 30091 40096 82857
  333 20255 59001=
48570 32560 60000 10250 20240 30091 40098 82246
  333 20243 59006=
48580 32560 70000 10244 20232 30083 40090 81246
  333 20238 59008=
####018001652####
SMTH40 VTBB 100000
AAXX 10004
48310 32562 60000 10255 20245 39610 40055 82506
  333 20248 59005=
48325 12460 80000 10250 20243 39835 40077 60314 83546
  333 20234 59002 70313=
48329 32562 80000 10260 20250 39729 40064 82506
  333 20257 59004=
48352 NIL=
48357 11560 51203 10265 20254 39920 40088 60494 70196 81136
  333 20254 58011 70487=
48380 12560 60000 10266 20250 39984 40078 69994 81602
  333 20254 58006 70009=
48383 32960 50000 10285 20229 39920 40078 80006
  333 20267 58008=
48403 12960 62702 10258 20236 39873 40083 60034 81046
  333 20251 58010 70026=
48405 32560 61703 10265 20243 39921 40083 82106
  333 20257 58008=
48420 32560 50000 10285 20252 30074 40078 81246
  333 20269 58003=
48421 31550 80000 10245 20235 39974 40088 71022 83546
  333 20243 59005=
48425 12960 60000 10270 20241 30067 40077 60124 84036
  333 20252 58004 70116=
48426 31958 61702 10265 20243 30057 40070 71021 81046
  333 20256 58008=
48429 32560 61802 10282 20235 30076 40083 81846
  333 20263 58005=
48430 11558 70000 10260 20246 30064 40071 60184 71022 82556
  333 20250 59005 70181=
48450 32960 22103 10278 20230 30045 40078 80001
  333 20255 58002=
48459 32562 30000 10282 20258 30078 40081 82101
  333 20269 58009=
48465 32961 60000 10272 20225 30077 40081 80006
  333 20256 58004=
48550 31558 60000 10273 20244 30083 40090 71022 82146
  333 20264 59001=
48552 32460 70000 10242 20229 30085 40091 81246
  333 20233 58002=
48566 32560 50000 10263 20244 30086 40094 82145
  333 20250 59007=
48568 12460 50000 10263 20244 30087 40094 60144 82206
  333 20259 59004 70138=
####018000264####
SMMK10 LYPG 100000
AAXX 10001
13463 32970 03603 10243 20106 30128 40188 51002=
13459 32970 00205 10187 20105 39471 40205 54000 333 91112=
13461 32970 00705 10253 20103 30171 40178 58008 333 92323 92438=
13363 32965 03201 10107 20102 39328 48556 58004=
####018000125####
SMVD02 CWAO 100000
BBXX
LAJV4 10004 99/// ///// 46/// /3111 10075 20066 40216 51013 7//// 8//// 22200 0//// 2//// =

####018000102####
SMMZ01 FQMA 100001 CCA
AAXX 10004
67297 32408 2//// 10178 20168 40198 74240 82200 333 59031=

####018000079####
SAYE20 OYSC 100000 RRA
METAR OYRN 092300Z 02005KT 7000 SCT025 29/27 Q1003=
####018000095####
SMMZ01 FQMA 100001
AAXX 10004
67297 32408 2//// 10178 20168 40198 74240 82200 333 59031=
####018000099####
SMMZ01 FQMA 100001 CCA
AAXX 10004
67297 32408 2//// 10178 20168 40198 74240 82200 333 59031=
####018000326####
SMLV10 UMRR 100000
AAXX 10001
26313 43/// /2002 10170 20110 30207 40214 57004=
26346 42997 23102 10155 20143 39981 40217 52003 80001=
26406 42997 11602 10157 20136 30218 40224 57001 80001=
26422 42960 /2000 10146 20137 30208 40220 52002=
26544 41996 10000 10144 20139 30076 40225 52005 71000 80001=
26416 NIL=
####018000372####
SMTG01 DXXX 100000
AAXX 10004
65352 32960 80000 10240 20233 39949 40126 8807/
  333 59002 88362=
65361 31460 70000 10232 20229 3//// 4//// 71799 81902
  333 5//// 81916 87076 94943 95833=
65376 11420 72804 10222 20219 39669 40130 60021 71094 875//
  333 58002 87613=
65387 11458 72204 10260 20244 30102 40130 69911 72166 878//
  333 58003 86610 83813=
####018000449####
SMKY10 UAFF 100000
AAXX 10001
36911 42698 80902 10220 20114 39140 40032 58022 889// 555 10018=
36974 42798 70901 10124 20058 37985 48520 57008 83930 555 10012=
36982 41597 80000 10013 20002 36583 47189 57009 76362 8802/=
38345 41798 82603 10161 20138 38765 48482 58002 70298 889// 555
11014=
38353 41597 81701 10186 20147 39214 40058 53004 72992 889//=
38613 42999 20202 10200 20111 39219 40064 57012 80002 555 10017=
38616 NIL=
####018000089####
SNPS40 AMMC 092300 RRA
AAXX 09234
91559 46/// /0000 10268 40133 22200 00271=


####018000103####
SNAU62 AMMC 092300 CCA
AAXX 09234
95983 11/68 82905 10090 20084 60034 75062
  333 70030=


####018000740####
SMBY01 UMMN 100000
AAXX 10001
26554 41950 33301 10169 20159 30062 40219 52006 71000 82031 555
11016=
26666 41956 40000 10177 20167 30001 40207 52003 71011 82031 555
11018=
26850 42660 60000 10185 20174 39949 40209 54000 83530 333 83640 555
11017=
26863 42960 63403 10162 20141 39971 40198 53007 80002 555 11016=
26941 42960 03502 10158 20148 39988 40217 58003 555 11016=
26951 41531 60101 10182 20177 30015 40205 54000 71022 86500 333 86623
555 11018=
33008 42960 03301 10182 20150 30055 40227 52001 555 10017=
33019 41959 52901 10189 20168 30044 40212 58006 71022 85030 555
11020=
33036 41957 00000 10159 20151 39976 40199 58006 71000 555 11016=
33041 42960 03402 10181 20159 30040 40189 57008 555 10017=
####018000512####
SMYG10 LYBM 100000
AAXX 10001
13160 32997 03601 10159 20144 30113 40219 55001=
13262 32998 02501 10167 20139 30069 40215 57008=
13272 32965 02901 10166 20129 30095 40212 57008=
13285 32998 02702 10177 20148 30097 40196 58003=
13289 32998 03107 10130 20104 39025 48539 57007=
13376 32999 02202 10157 20124 39959 40215 56004=
13388 32698 73601 10198 20130 39958 40197 54000 87500=
13462 32970 00103 10228 20103 30149 40187 50003=
13473 NIL=
13489 31996 00501 10147 20136 39701 40208 58002=
####018000539####
SMLT10 EYHM 100000
AAXX 10001
26509 32997 01401 10146 20128 30219 40228 52001 333
91002 91102 555 1/015=
26518 32997 20000 10146 20128 30032 40231 52002 80002 333
91000 91102 555 1/015=
26524 32998 20000 10179 20146 30100 40227 52006 80001 333
91000 91104 555 1/016=
26629 32997 02901 10172 20155 30137 40229 52003 333
91001 91104 555 1/017=
26633 32997 00000 10160 20142 30096 40222 51005 333
91000 91102 555 1/016=
26730 31996 03201 10184 20165 30039 40223 52005 71000 333
91002 91103 555 1/017=
26531 NIL=
####018000416####
SMYG23 LYBM 100000
AAXX 10001
13173 32998 03201 10162 20145 30104 40202 58006=
13180 32998 02902 10176 20152 30094 40201 57009=
13266 32998 02802 10152 20139 30112 40211 58007=
13369 32998 02902 10096 20083 39054 48539 58003=
13383 32998 01701 10163 20127 30005 40203 54000=
13384 32998 40901 10138 20117 30056 40205 58002 84030=
13389 32598 70000 10161 20145 39923 40196 58003 87800=
13477 NIL=
####018000289####
SMYG21 LYBM 100000
AAXX 10001
13067 32997 03403 10182 20148 30090 40215 58008=
13183 32960 00000 10150 20123 30100 40200 57009=
13279 32998 03101 10145 20133 30060 40205 56003=
13295 32998 00901 10199 20149 30129 40181 50000=
13367 32998 02301 10124 20097 39059 48560 58010=
####018001749####
SMBU40 LZSO 100000
AAXX 10001
15501 12970 82302 10188 20159 30129 40171 58002 60001 80007 333 10245
20188 555 583//=
15505 12975 02902 10206 20139 39817 40173 56001 60001 333 10228 20206
555 566//=
15511 12970 02303 10206 20172 30141 40179 58004 60001 333 10252 20206
555 581//=
15514 12568 72703 10210 20171 30135 40169 52007 60001 87500 333 10262
20210 555 578//=
15530 11565 60000 10184 20171 39944 40173 58004 60031 70182 85360 333
10206 20184 555 592// 69399 70065=
15533 11570 70000 10203 20179 30091 40121 58003 69931 70282 87900 333
10232 20203 555 58600 69199=
15550 11565 82502 10186 20176 30133 40152 54000 60051 70262 885// 333
10191 20186 555 594//=
15561 11465 83206 10196 20186 30117 40124 58002 60231 70298 8632/
222// 2//01 333 10206 20186 555 59412 69699 70046 92025 92428 93023=
15562 11474 83205 10188 20182 30067 40137 54000 60401 72998 885//
222// 2//01 333 10206 20184 555 59636 69799 70063 93040 92023 92428=
15600 11/03 93612 10091 20091 38350 48545 54000 60001 74144 333 10103
20090 555 500//=
15601 12980 20000 10150 20121 39580 40182 58005 60001 82030 333 10226
20148 555 583//=
15605 12970 23203 10154 20114 39371 40188 58003 60001 80001 333 10188
20152 555 577//=
15613 11/00 92912 10065 20065 37783 47164 57003 60001 74544 333 10077
20062 555 500//=
15628 12970 62703 10196 20149 39922 40168 58004 60001 83032 333 10232
20195 555 574//=
15642 11580 60000 10172 20169 39992 40154 58001 69971 70282 86900 333
10180 20170 555 598// 70042=
15661 11570 83204 10202 20169 30091 40125 54000 60001 70222 885//
222// 2//02 333 10206 20198 555 581// 92033 92438=
15726 11475 83203 10092 20086 38300 48553 58007 60001 70222 885// 333
10099 20090 555 596//=
####018000455####
SMYG22 LYBM 100000
AAXX 10001
13168 32998 02501 10159 20146 30111 40216 58002=
13174 32997 03202 10160 20140 30110 40207 57007=
13269 32998 02402 10171 20135 30010 40218 58004=
13274 32998 03202 10179 20136 30048 40203 57007=
13278 32998 02201 10146 20125 39989 40209 58010=
13378 32998 00603 10080 20077 38348 48574 54000=
13397 32998 00000 10128 20127 39678 40202 51002=
13457 32970 00203 10244 20098 30178 40185 56003=
13481 NIL=
####018000097####
SNAU58 AMMC 092300 CCC
AAXX 09234
94878 15/// /0405 10048 21006 60004
  333 70000=


####018000121####
SNAU49 AMMC 092300 CCA
AAXX 09234
94339 11981 00703 10150 20130 39980 40197 53012 69924 70200
  333 70002=


####018000517####
SMNV01 NVVV 100000 RRB
AAXX 10003

91551 31598 30000 10290 20248 40133 58003 70222 83200
       333 20221 563// 59001 83820 =
91553 31598 61206 10275 20239 40141 58006 70222 85201
        333 20235 563/9 59004 85820 =
91554 31598 11804 10285 20221 40136 58006 70221 81100
        333 20195 564// 59013 81828=
91555 31698 49902 10285 40146 5/// 70111 82100
        333 20/// 596// 82820 =
91568 11598 40000 10260 20215 40143 58012 69914 70282 84100
        333 20155 566// 59022 69914 82825=
####018000506####
SMNV01 NVVV 100000 RRB
AAXX 10003

91551 31598 30000 10290 20248 40133 58003 70222 83200
       333 20221 563// 59001 83820 =
91553 31598 61206 10275 20239 40141 58006 70222 85201
        333 20235 563/9 59004 85820 =
91554 31598 11804 10285 20221 40136 58006 70221 81100
        333 20195 564// 59013 81828=
91555 31698 49902 10285 40146 5/// 70111 82100
        333 20/// 596// 82820 =
91568 11598 40000 10260 20215 40143 58012 69914 70282 84100
        333 20155 566// 59022 69914 82825=
####018000166####
SIJM20 MKJS 050300
AAXX 05034
78388 41565 71004 10283 20238 30139 40148 70522 85872
333 00999 59001 81824 85632 86072=
DUPE
DUPE
DUPE
DUPE
DUPE
DUPE
DUPE
####018000155####
SMJM01 MKJP 090000
AAXX 09004
78397 11465 71009 10286 20202 30119 40135 60011 70522 83968 
333 06999 10323 20264 58007 81814 82922 87272 90936=
DUPE
####018000087####
SAKN64 HKMO 100000
METAR HKJK 100000Z 24005KT 9999 FEW018 BKN080 12/10 Q1021 NOSIG=
####018000539####
SMSM01 SMJP 100000
AAXX 10004
81200 12570 40000 10272 20230 40119 60001 70191 82542
  333 1//// 56999 58000 70131 82630 83080=
81202 11470 60612 10284 20250 40122 60001 70291 2832
  333 10300 56299 59005 79999 82812 83360 85080=
81209 11470 60000 10264 20251 40130 60041 70198 85832
  333 10322 56299 59001 70043 83815 84625=
81225 11470 50000 10250 20244 40130 60091 70198 82832
  333 10324 56299 59002 70089 82810 84075=
81251 11465 70000 10232 20226 40135 60161 71398 85963
  333 10307 56299 58008 70159 84812 82915 86080=
####018000724####
SMLY01 HLMC 100000
AAXX 10004
62002 32960 00706 10221 20126 39478 48560 50002
  333 0//// 91134=
62016 12960 01003 10245 20184 30146 40184 58004 60001
  333 0////=
62053 36558 10000 10202 20158 30004 40161 58006 81500
  333 0//// 82620=
62055 13/// /3403 10230 20179 30152 40162 57007 60001=
62124 32960 00806 10269 20063 39654 40137 50003
  333 0////=
62131 12960 01405 10256 20153 39855 40157 58002 60001
  333 0////=
62271 13/// /0210 10308 20037 39652 40134 58013 60021=
62007 NIL=
62008 NIL=
62010 NIL=
62012 NIL=
62014 NIL=
62018 NIL=
62019 NIL=
62056 NIL=
62059 NIL=
62062 NIL=
62103 NIL=
62120 NIL=
62161 NIL=
62176 NIL=
62200 NIL=
62212 NIL=
62259 NIL=
####018001185####
SMUR11 UKMS 100000
AAXX 10001
33088 32997 60000 10183 20169 30024 40207 58005 86030=
33177 32997 02801 10169 20137 39992 40221 58002=
33261 32997 23402 10185 20168 39990 40164 58004 80001=
33275 32997 03603 10207 20183 39937 40148 58006=
33301 32997 43601 10174 20157 39940 40211 58002 84030=
33325 31996 60000 10166 20159 39941 40199 54000 71011 80004=
33377 32997 03602 10201 20168 39969 40153 58004=
33415 32997 53204 10166 20141 39829 40213 53002 85030=
33429 32997 03303 10160 20144 39795 40204 58006=
33466 32663 83602 10205 20178 39988 40166 58007 885// 333
88645=
33526 32697 70000 10170 20153 39890 40218 58003 86530 333
86633=
33562 32997 03304 10172 20157 39841 40187 58001=
33614 32461 83501 10225 20199 30041 40138 58004 886// 33333
88713=
33761 31496 83604 10192 20177 39945 40157 57001 71022 883//=
33902 /1596 83603 10199 20192 30058 40121 58010 71082 885//
555 60011=
33983 32997 00104 10231 20213 30040 40097 58006=
34415 32697 80000 10221 20202 30040 40130 57001 885//=
34523 /1596 70501 10215 20206 30050 40121 52001 78086 87900
555 60021=
34712 /1497 63008 10217 20200 30022 40102 58006 71798 86930
555 60021=
####018000066####
SMLY01 HLLT 100000
32960 00810 10264 20107 39650 40130 57001=
####018000102####
SMCN29 CWAO 100000 CCA
AAXX 10004
71914 46/// /2801 10255 20086 39936 6///1 333 20212 7////=

####018001230####
SMCN27 CWAO 100000
AAXX 10004
71700 15966 01809 10240 20190 30097 40122 50001 60001
333 10310 20215 70000=
71701 16064 /1910 10238 20185 30063 40123 58002 60001 333 10300
20212 70000=
71702 16/// /2314 10242 20166 30113 40128 53003 60001 333 10267
20190 70000=
71703 NIL=
71704 15966 00306 10220 20159 39917 40131 55003 60001
333 10240 20211 70016=
71710 16/// /2317 10234 20170 30105 40114 51001 60001 333 10266
20187 70000=
71712 17/// /3103 10232 20229 30030 40086 55000 60151 7//4/ 333
10308 20212 70227=
71713 17/// /0503 10214 20207 60161 7//4/ 333 10306 20185 70160=
71716 NIL=
71717 NIL=
71720 46/// /2710 10230 20113 39999 40148 5/003 6///1 333 7////=
71721 NIL=
71723 17/// /1902 10213 20201 30076 40086 56008 60251 7//4/ 333
10311 20202 70248=
71724 17/// /2204 10217 20199 30079 40086 55006 60311 7//4/ 333
10298 20204 70312=
71732 NIL=
71734 NIL=
71737 NIL=
71741 16/// /2907 10340 39670 40070 58020 60001 333 10367 20150
70000=
71742 16/// ///// 10227 20183 39929 40108 51015 60001 333 10310
20167 70004=
71743 NIL=
71744 NIL=
71745 NIL=
71746 NIL=
71747 16/// /2607 10245 20106 39667 40128 56008 60001 333 10251
20092 70000=
71748 NIL=

####018001542####
SMCN31 CWAO 100000
AAXX 10004
71150 NIL=
71151 NIL=
71152 17/// /0902 10148 20141 30132 40145 52002 69921 7//4/ 333
10178 20112 70002=
71153 NIL=
71154 16/// /2209 10279 20071 60001 333 10289 20124 70000=
71155 NIL=
71156 NIL=
71157 17/// ///// 10274 20160 69921 7//4/ 333 10279 20163 70012=
71158 NIL=
71159 NIL=
71160 NIL=
71161 17/// /0602 10210 20198 39949 40092 50004 60091 7//4/ 333
10305 20210 70226=
71162 NIL=
71163 NIL=
71164 NIL=
71165 NIL=
71166 NIL=
71167 NIL=
71168 NIL=
71170 NIL=
71171 17/// /2503 10232 20209 30010 40100 55000 60021 7//4/ 333
10234 20214 70182=
71172 NIL=
71176 460// /1211 10080 39399 40061 58005 6///1 333 10113 20079
7////=
71177 NIL=
71178 16/// /2321 10212 20164 30072 40103 53012 60001 333 10258
20144 70027=
71179 460// /2805 10112 39290 40092 52012 6///1 333 7////=
71180 NIL=
71181 46264 82714 10180 20169 30100 40135 53009 6///1 333 10242
20135 7////=
71183 17/// /3605 10226 20210 30043 40081 55000 60141 7//4/ 333
10306 20225 70337=
71184 46/// /0304 10217 20208 6///1 333 10309 20209 7////=
71186 NIL=
71189 NIL=
71190 NIL=
71191 16/// ///// 10243 20182 60001 333 10260 20194 70000=
71192 15966 02604 10290 20067 39488 40123 58009 60001
333 10294 20100 70000=
71193 17/// /3503 10185 20166 39743 40093 53002 60141 7//4/ 333
10268 20134 70136=
71197 NIL=
71198 46/// /0901 10222 20201 6///1 333 10273 20207 7////=
71199 16/// /1405 10262 20008 39321 40126 58012 60001 333 10271
20083 70000=

####018001820####
SMCN06 CWAO 100000
AAXX 10004
71816 11266 81002 10156 20148 30027 40086 53016 69901 75185
887// 333 10179 20155 70028 90947=
71817 NIL=
71818 11/10 90000 10098 20098 30063 40081 53021 69981 72154
333 10134 20086 70032 90973=
71821 17764 30000 10248 20150 39740 40071 55008 60021 7//44 333
10263 20149 70020=
71822 12574 71502 10207 20173 39629 40084 58006 60001 82272
333 10233 20152 70000=
71825 12774 72005 10205 20130 39446 40091 50003 60001 84228 
333 10232 20159 70030=
71827 12774 22407 10222 20086 39823 40057 55004 60001 81271 
333 10239 20130 70000=
71828 16764 32609 10209 20104 39453 40065 53004 60001 333 10224
20126 70155=
71831 12674 22804 10232 20118 39821 40091 55000 60001 81531
333 10261 20144 70000=
71832 16/// /2403 10204 20129 39781 40095 53003 60001 333 10250
20116 70000=
71834 NIL=
71836 16864 32817 10228 20118 30054 40065 53006 60001 333 10272
20149 70010=
71841 NIL=
71842 11760 62807 10236 20114 39668 40123 55001 69901 70411 81201
333 10251 20131 70002=
71844 16764 63108 10179 20104 39823 40092 52010 60001 333 10212
20134 70015=
71845 11774 53308 10227 20099 39643 40101 52007 69981 70298
85100 333 10234 20134 70010 90960=
71850 12774 43005 10245 20114 39644 40126 57009 60001 81101 
333 10260 20148 70004=
71852 16964 03105 10265 20134 39834 40118 58013 60001 333 10274
20161 70000=
71854 12669 83007 10238 20123 39660 40116 57005 60001 84101
333 10246 20139 70016=
71855 16764 32407 10262 20159 39745 40105 56014 60001 333 10280
20143 70005=
71858 NIL=
71861 16/// /2203 10258 20117 39419 40118 58016 60001 333 10265
20122 70003=
71862 12774 42308 10271 20162 39448 40126 57017 60001 84901
333 10287 20117 70000=
71863 46964 33010 10278 20132 39443 40117 56013 6///1 333 10289
20110 7////=

####018002203####
SMCN34 CWAO 100000
AAXX 10004
71450 16/// /2105 10269 20127 39418 40109 58017 60001 333 10278
20139 70027=
71451 NIL=
71452 16/// /3005 10292 20106 39436 40120 56013 60001 333 10299
20120 70000=
71453 16/// /1807 10293 20086 39230 40108 57017 60001 333 10302
20117 70000=
71454 NIL=
71455 NIL=
71456 16/// /2411 10249 20137 39525 40102 56016 60001 333 10266
20119 70000=
71457 16/// /2909 10315 20093 39241 40097 58014 60001 333 10320
20103 70000=
71458 17/// /3103 10261 20151 39357 40094 56014 69921 7//4/ 333
10274 20088 70002=
71459 16/// /2212 10301 20090 39318 40094 56022 60001 333 10305
20126 70000=
71460 16/// /2718 10234 20108 39882 40115 55002 60001 333 10254
20195 70002=
71461 NIL=
71462 NIL=
71463 46/// /2603 10217 20179 6///1 333 10235 20211 7////=
71464 NIL=
71465 46/// /3404 10242 20130 39913 40122 53005 6///1 333 10266
20215 7////=
71466 NIL=
71468 NIL=
71470 NIL=
71471 15966 00108 10250 20099 39369 40130 58005 60001
333 10258 20126 70000=
71473 16/// /3003 10249 20118 30108 40137 58008 60001 333 10273
20175 70000=
71475 NIL=
71476 17/// /2009 10137 30146 40156 58005 69921 7//4/ 333 10141
20119 70010=
71477 NIL=
71478 NIL=
71479 NIL=
71480 16/// /2708 10260 20072 30006 40122 58012 60001 333 10261
20064 70006=
71481 NIL=
71482 NIL=
71483 NIL=
71484 NIL=
71485 16/// /3109 10148 20114 30168 40188 58007 60001 333 10161
20129 70000=
71486 16/// /2604 10303 21016 38950 40103 57011 60001 333 10316
20072 70000=
71487 16/// /2705 10298 20059 39289 40126 58017 60001 333 10301
20120 70000=
71488 17564 63207 10186 20091 39483 40092 58003 69951 743// 333
10234 20052 70010=
71489 17/// /3605 10240 20117 39334 40075 58019 69921 7//4/ 333
10261 20115 70002=
71490 NIL=
71491 NIL=
71492 NIL=
71493 16/// /2703 10179 20160 30112 40149 51002 60001 333 10267
20152 70000=
71494 17/// /2306 10212 20207 39603 40103 53003 60041 7//4/ 333
10306 20209 70036=
71495 NIL=
71496 16/// /2606 10266 20150 39508 40096 57018 60001 333 10270
20131 70035=
71497 16/// /0000 10243 20111 39887 40142 57012 60001 333 10246
20135 70010=
71498 NIL=
71499 NIL=

####018001700####
SMCN05 CWAO 100000
AAXX 10004
71725 16964 02504 10234 20176 39687 40086 57007 60001 333 10256
20160 70000=
71726 17/// /0303 10199 39576 40096 58011 60011 7//4/ 333 10201
20189 70088=
71727 11480 70000 10212 20190 39904 40093 55000 60011 72522
82880 333 10264 20212 70014 90952=
71728 11682 82803 10207 20177 39885 40098 55004 69921 78082
8257/ 333 10239 20206 70006 90917=
71730 12674 22310 10255 20151 39690 40097 57006 60001 81101 
333 10286 20180 70000=
71731 12574 32504 10230 20155 39671 40105 55003 60001 81101
333 10260 20200 70154=
71733 160// ///// 10230 60001 333 10275 20178 70000=
71735 NIL=
71738 12674 12208 10171 20122 39784 40128 55001 60001 81508
333 10205 20128 70000=
71739 NIL=
71749 16964 02908 10249 20122 39883 40120 55003 60001 333 10274
20102 70000=
71799 12983 71306 10268 20134 30117 40140 56006 60001 80007
333 10296 20145 70000=
71800 16/48 /2720 10129 20129 30126 40158 53008 60001 333 10189
20107 70000=
71801 12974 12623 10191 20157 39962 40130 53006 60001 81070
333 10273 20145 70000=
71803 12569 22411 10222 20183 39930 40110 51015 60001 81440
333 10307 20170 79999=
71807 NIL=
71808 11/02 91905 10106 20104 30028 40073 53003 69901 75154
333 10115 20090 70002 90983=
71809 12469 82312 10203 20175 30085 40111 52002 60001 885// 
333 10237 20190 79999=
71810 16/// /2206 10202 20170 30016 40080 55001 60001 333 10257
20162 70000=
71811 NIL=
71813 16964 02809 10193 20152 30065 40078 53005 60001 333 10223
20129 70000=
71814 16/// /2210 10108 20093 30060 40069 53014 60001 333 10144
20088 70000=
71815 12469 70000 10183 20166 30102 40132 52004 60001 87500
333 10192 20170 70000=

####018001528####
SMCN04 CWAO 100000
AAXX 10004
71603 11/04 91711 10188 20188 30110 40162 56010 60001 74742
333 10255 20166 70000=
71607 NIL=
71609 11/04 92006 10181 20172 30023 40154 57004 60001 74722 
333 10233 20155 70000=
71610 15466 63405 10230 20206 39812 40097 53003 60001
333 10313 20214 70000=
71621 11474 80000 10218 20178 30001 40103 53005 60101 70288
8257/ 333 10282 20200 70134 90923=
71623 NIL=
71624 12674 73510 10232 20175 39912 40117 53003 60001 82272
333 10250 20200 70198=
71625 16964 31602 10229 20196 39940 40094 55004 60001 333 10239
20207 70190=
71627 11469 83605 10227 20207 30043 40086 53001 60161 70296
886// 333 10306 20226 70346 90927=
71628 NIL=
71630 NIL=
71631 16/// /3204 10203 20144 39646 40130 53005 60001 333 10241
20186 70282=
71633 12574 62705 10234 20150 39858 40120 58003 60001 83501
333 10252 20195 70034=
71705 12974 22012 10244 20160 30049 40133 55000 60001 82072
333 10304 20198 70000=
71706 12774 22511 10248 20192 30081 40139 53003 60001 81501 
333 10281 20202 70000=
71707 12974 12209 10233 20191 30078 40152 52013 60001 81030
333 10310 20182 70000=
71709 12980 42318 10234 20166 30103 40116 54000 60001 81071 
333 10267 20187 70000=
71711 NIL=
71714 17/// /0901 10221 20208 39997 40085 56012 60141 7//4/ 333
10310 20218 70142=
71715 NIL=
71718 11240 81805 10222 20211 30028 40091 53004 60101 78192 882//
333 10281 20131 70102 90931=
71719 17/// /3008 10219 20206 30096 40102 53007 60101 7//4/ 333
10297 20210 70099=

####018001350####
SMCN39 CWAO 100000
AAXX 10004
71950 15866 80402 10230 20061 39536 40146 58007 60001
333 10235 20105 70000=
71952 16/// /3005 10229 20053 39323 40157 58003 60001 333 10252
20040 70000=
71954 NIL=
71956 NIL=
71959 16/// ///// 10261 20195 60001 333 10299 20222 70000=
71960 NIL=
71962 16/// /2609 10258 20124 39724 40132 56013 60001 333 10266
20098 70000=
71963 17/// /0510 10146 20102 39658 40043 51001 69921 7//4/ 333
10155 20085 70026=
71967 17/// /1506 10214 20209 39997 40098 58007 60191 7//4/ 333
10313 20210 70193=
71970 NIL=
71971 16/// /2202 10032 20017 30006 40050 56006 60001 333 10062
21002 70000=
71972 NIL=
71973 16/// /2106 10193 20176 39944 40125 53003 60001 333 10201
20184 70000=
71974 NIL=
71975 NIL=
71976 NIL=
71977 NIL=
71978 NIL=
71979 NIL=
71980 16/// /2902 10277 20023 60001 333 10278 20088 70000=
71981 NIL=
71982 NIL=
71983 NIL=
71984 17/// /3006 10129 20081 30060 40068 54000 69941 7//4/ 333
10169 20085 70008=
71985 NIL=
71986 NIL=
71987 16/// /2216 10252 20170 30105 40114 53003 60001 333 10276
20203 70000=
71988 16/// /1712 10177 20173 30134 40153 56009 60001 333 10204
20141 70000=
71989 17/// /3119 10030 20003 39961 49977 51027 69931 7//4/ 333
10034 20015 70003=
71990 NIL=
71999 16/// ///// 10343 60001 333 10360 20171 70000=

####018001805####
SMCN23 CWAO 100000
AAXX 10004
71300 NIL=
71301 NIL=
71302 16/// /3109 10258 20019 39341 40131 56007 60001 333 10289
20124 70000=
71303 46/// ///// 10246 20137 6///1 333 10275 20226 7////=
71304 NIL=
71305 NIL=
71306 NIL=
71307 NIL=
71308 16/// /2013 10247 20196 30076 40157 51007 60001 333 10318
20194 70000=
71309 16/// /2912 10231 20101 30054 40065 53006 60001 333 10275
20147 70000=
71310 16/// /2106 10236 20197 30093 40128 53006 60001 333 10292
20195 70000=
71311 NIL=
71312 NIL=
71313 16964 02505 10181 20141 30028 40074 56002 60001 333 10214
20139 70000=
71314 16/// /2906 10212 20174 39776 40116 53003 60001 333 10236
20190 70513=
71315 NIL=
71316 16/// /2901 10218 20131 39439 40102 58009 60001 333 10255
20119 70000=
71317 NIL=
71318 16/// /2910 10279 20093 39185 40095 56012 60001 333 10291
20107 70000=
71319 17/// /0301 10180 20174 39272 40099 56018 60151 7//4/ 333
10277 20176 70152=
71320 NIL=
71321 16/// /1612 10091 20074 30037 40079 53005 60001 333 10099
20056 70000=
71322 16/// /1806 10072 20067 30031 40043 57001 60001 333 10128
20064 70016=
71323 17/// /1903 10222 20217 39823 40093 56008 60371 7//4/ 333
10315 20215 70366=
71331 17/// /1903 10201 20137 39703 40058 56015 60041 7//4/ 333
10258 20058 70037=
71332 NIL=
71334 NIL=
71335 NIL=
71336 46/// /2331 10210 20156 30072 40093 51006 6///1 333 10242
20142 7////=
71337 46/// /2414 10213 20190 39856 40083 53003 6///1 333 10291
20185 7////=
71338 469// 01914 10078 20047 30055 40063 57003 6///1 333 10102
20038 7////=
71339 16464 8//// 10111 20104 30045 40059 53034 60001 333 10262
20107 70000=
71340 NIL=
71341 NIL=
71342 NIL=
71343 NIL=
71344 NIL=
71345 NIL=
71346 NIL=
71347 NIL=
71348 NIL=
71349 NIL=

####018001353####
SMCN20 CWAO 100000
AAXX 10004
71001 NIL=
71002 NIL=
71003 NIL=
71004 NIL=
71005 NIL=
71006 NIL=
71007 NIL=
71008 NIL=
71009 NIL=
71010 NIL=
71011 NIL=
71012 NIL=
71013 NIL=
71014 NIL=
71015 NIL=
71016 NIL=
71017 NIL=
71018 NIL=
71019 NIL=
71020 NIL=
71021 NIL=
71022 17666 61605 10170 20139 30123 40166 58009 60001 721//
333 10174 20129 70008=
71023 16964 00906 10202 20137 39363 40110 56010 60001 333 10269
20122 70005=
71024 16/// /3207 10220 20108 60001 333 10233 20111 70000=
71026 16/// ///// 10308 20047 39273 40093 57019 60001 333 10316
20121 70000=
71027 16/// /2102 10265 20190 30123 40133 51008 60001 333 10313
20213 70000=
71028 NIL=
71029 16/// /2408 10064 20048 39991 40029 58008 60001 333 10081
20045 70000=
71030 16/00 /2007 10170 30054 40141 58008 60001 333 10245 20170
70000=
71032 46/// /2609 10323 39312 40107 55006 6///1 333 10345 20120
7////=
71035 NIL=
71036 NIL=
71039 46/// /1208 10280 6///1 333 10281 20044 7////=
71040 NIL=
71041 15966 01904 10240 20192 30023 40160 53011 60001
333 10313 20195 70000=
71044 16/// /0803 10271 20076 39804 40108 58019 60001 333 10275
20081 70000=
71046 NIL=
71047 NIL=
71048 NIL=
71049 NIL=
71060 NIL=
71063 17/// /0702 10219 20210 39994 40084 55004 60021 7//4/ 333
10279 20217 70070=

####018001288####
SMCN36 CWAO 100000
AAXX 10004
71665 46/// /2905 10184 20147 30042 40051 53005 6///1 333 10239
20113 7////=
71666 NIL=
71667 NIL=
71668 16/// /1811 10240 20185 30080 40122 50001 60001 333 10303
20215 70000=
71669 NIL=
71670 16/// ///// 10256 20161 60001 333 10314 20210 70000=
71671 NIL=
71672 16/// /2802 10229 20195 39847 40101 52001 60001 333 10236
20197 70187=
71673 NIL=
71674 NIL=
71679 NIL=
71680 NIL=
71681 46/// /2306 10358 20034 6///1 333 10388 20175 7////=
71682 NIL=
71683 NIL=
71684 NIL=
71685 46/// /2509 10180 20046 6///1 333 7////=
71686 16/// /2501 10264 20084 39101 40150 58002 60001 333 10293
7////=
71687 16/// /1903 10284 20080 39383 40139 58001 60001 333 10317
20108 70000=
71688 16/// /3003 10256 20046 39146 40147 50000 60001 333 10290
20104 70000=
71689 NIL=
71690 NIL=
71692 NIL=
71693 NIL=
71694 16/// /2605 10230 20179 39776 40126 53003 60001 333 10245
20189 70121=
71695 16/// /2912 10218 20122 39761 40082 55008 60001 333 10266
20109 70000=
71696 16/// /1704 10184 20109 30003 40038 57008 60001 333 10194
20051 70008=
71697 15466 33107 10230 20200 39944 40109 53001 60001
333 10252 20208 70334=
71699 16/// /2205 10147 20143 30139 40146 57007 60001 333 10190
20131 70000=

####018001671####
SMCN09 CWAO 100000
AAXX 10004
71930 12874 83211 10269 20080 39205 40104 58002 60001 82261 
333 10294 20128 70045=
71931 16/// /2505 10256 20192 30070 40082 52020 60001 333 10318
20164 70000=
71932 16864 33603 10174 20119 39677 40120 58009 60001 333 10212
20107 70000=
71933 17664 83008 10169 20091 39821 40110 56008 60001 743// 333
10192 20113 70005=
71934 12774 23208 10165 20025 39868 40117 55000 60001 82101
333 10185 20113 70020=
71935 12574 63211 10169 20095 39938 40140 58001 60001 86500
333 10182 20109 70002=
71936 12774 63115 10164 20040 39869 40121 57006 60001 86500 
333 10177 20104 79999=
71937 NIL=
71938 11466 72211 10163 20083 30039 40067 58014 69901 72162
86870 333 10168 20032 79999 90911=
71940 11982 80205 10235 20115 39352 40133 50004 69901 78082 84903
333 10279 20133 79999 90921=
71943 12774 83405 10227 20090 39334 40145 55004 60001 81130 
333 10241 20144 70000=
71944 16664 33503 10236 20102 39331 40136 55000 60001 333 10259
20123 70005=
71945 11583 60000 10222 20104 39690 40145 56005 69901 72982 86300
333 10236 20153 79999 90910=
71946 12774 63504 10231 20080 39936 40142 57008 60001 86101
333 10231 20120 70006=
71948 NIL=
71949 NIL=
71951 11780 81508 10204 20107 39911 40171 58002 69901 70282 8357/
333 10213 20161 79999 90961=
71957 46964 02805 10248 20088 30031 40115 58008 6///1 333 10253
20100 7////=
71958 43/// /2407 10233 20079 39215 40127 58008 6///1 333 10243
20071 7////=
71964 12786 21810 10248 20008 39300 40130 57013 60001 81170 
333 10254 20069 70000=
71966 16/// /0507 10270 20045 39661 40104 58019 60001 333 10278
20064 70000=
71968 NIL=

####018001267####
SMCN03 CWAO 100000
AAXX 10004
71397 12674 32108 10273 20200 30114 40147 50000 60001 81171
333 10322 20180 70000=
71400 16/// /2203 10223 20193 60001 333 10293 20169 70000=
71403 46/// /2212 10152 20150 30159 40179 50002 6///1 333 10182
20143 7////=
71411 17/// /2306 10176 30154 40166 56006 69981 7//4/ 333 10195
20139 70008=
71412 17/// /2007 10211 20192 30126 40135 52007 69971 7//4/ 333
10290 20180 70022=
71421 NIL=
71430 NIL=
71431 16/// /2703 10207 20207 30008 40100 51011 60001 333 10251
20202 70004=
71432 NIL=
71433 NIL=
71435 NIL=
71441 46/// /2708 10269 20140 39815 40112 58015 6///1 333 10281
20132 7////=
71443 16/// /2208 10256 20150 39695 40091 58020 60001 333 10265
20128 70000=
71444 16/// /2407 10242 20131 39400 40131 58011 60001 333 10254
20084 70000=
71447 16/// /2604 10270 20144 39593 40117 58017 60001 333 10278
20126 70000=
71467 NIL=
71472 NIL=
71474 16964 32505 10287 20019 38933 40123 56009 60001 333 10310
20107 70010=
71510 16/// /1707 10277 20198 39416 40096 58025 60001 333 10289
20118 70002=
71538 12974 30608 10254 20151 39907 40129 53001 60001 80001
333 10286 20229 70068=
71600 16004 82113 10170 20170 30194 40200 53001 60001 333 20166
7////=
71601 NIL=

####018001394####
SMCN01 CWAO 100000
AAXX 10004
71043 12786 12808 10260 20090 30032 40121 57016 60001 81101 
333 10262 20102 70000=
71045 16/// /1703 10250 20042 39296 40130 58017 60001 333 10256
20052 70000=
71050 16/// /3208 10273 20014 39106 40151 58000 60001 333 10288
20060 70000=
71051 NIL=
71052 NIL=
71066 12774 33510 10204 20101 39730 40137 57005 60001 83100 
333 10218 20102 70004=
71068 12774 70110 10202 20098 39472 40145 52010 60001 82271 
333 10238 20125 70008=
71069 17964 33006 10213 20155 39432 40116 50002 69951 7//44 333
10243 20099 70005=
71076 NIL=
71077 17/// /0208 10184 20138 39589 40111 50001 60021 7//4/ 333
10249 20133 70015=
71079 NIL=
71081 NIL=
71082 NIL=
71083 11112 61706 10057 20051 30014 40055 53002 60001 71041 86600
333 10081 20046 70017=
71090 46964 01008 10034 20021 30020 40054 58004 6///1 333 10127
20027 7////=
71091 NIL=
71092 46964 0//// 10154 39440 40073 55000 6///1 333 10169 20103
7////=
71093 NIL=
71094 46064 /2003 10106 58002 6///1 333 7////=
71095 46964 00504 10164 20053 39968 40044 56005 6///1 333 10168
20086 7////=
71104 12774 80803 10269 20081 39061 40134 58010 60001 82271 
333 10282 20114 70000=
71108 12883 62411 10285 20162 30063 40133 57009 60001 81150
333 10318 20153 70000=
71109 11880 73603 10194 20118 30159 40185 58008 69901 72582 87070
333 10196 20100 79999 90920=

####018001362####
SMCN25 CWAO 100000
AAXX 10004
71500 NIL=
71501 NIL=
71502 NIL=
71503 NIL=
71504 NIL=
71505 16/// /2508 10244 21010 39416 40122 56017 60001 333 10245
20021 70000=
71506 NIL=
71507 NIL=
71508 16/// ///// 10236 20182 39981 40114 53004 60001 333 10256
20220 70346=
71509 NIL=
71511 16/// /2706 10275 20153 39488 40102 58014 60001 333 10281
20130 70000=
71512 NIL=
71514 16/// /3110 10276 20105 39444 40116 57013 60001 333 10289
20108 70000=
71515 16/// /2807 10266 20135 39440 40115 57016 60001 333 10275
20122 70000=
71516 16/// /2806 10297 20069 60001 333 10307 20095 70000=
71517 NIL=
71518 NIL=
71519 NIL=
71520 NIL=
71521 NIL=
71522 NIL=
71523 NIL=
71524 17/// /0203 10215 20207 30067 40091 56006 60151 7//4/ 333
10314 20208 70380=
71525 NIL=
71526 NIL=
71527 NIL=
71528 NIL=
71529 17/// /2807 10125 20062 39883 40103 55000 60011 7//4/ 333
10142 20090 70022=
71532 15466 12706 10230 20184 39781 40113 53006 60001
333 10245 20194 70211=
71533 16664 62905 10223 20165 39801 40080 53001 60001 333 10268
20164 70000=
71534 46964 03404 10223 20158 39857 40119 51003 6///1 333 10244
20193 7////=
71535 NIL=
71536 NIL=
71537 NIL=
71539 NIL=
71540 NIL=
71541 NIL=
71542 NIL=
71543 NIL=
71544 NIL=
71545 NIL=
71546 NIL=
71547 NIL=
71548 NIL=
71549 NIL=

####018001070####
SMCN24 CWAO 100000
AAXX 10004
71401 16/// /1905 10346 20048 39438 40094 56018 60001 333 10354
20120 70000=
71402 NIL=
71404 NIL=
71405 NIL=
71406 NIL=
71407 NIL=
71408 NIL=
71409 NIL=
71413 NIL=
71414 NIL=
71415 16/// /2207 10256 20195 30137 40140 51007 60001 333 10318
20196 70000=
71417 NIL=
71418 NIL=
71419 46/// /2116 10183 20179 30158 40168 53010 6///1 333 10229
20159 7////=
71423 NIL=
71424 46/// /3403 6///1 333 7////=
71425 16/// /1603 10208 20176 30049 40084 58004 60001 333 10221
20120 70000=
71426 NIL=
71427 NIL=
71428 16/// /2305 10197 20171 30085 40091 55000 60001 333 10235
20110 70040=
71429 16/// /0204 10182 30076 40095 52003 60001 333 10232 20166
70000=
71434 NIL=
71437 NIL=
71438 NIL=
71439 NIL=
71440 NIL=
71442 16/// /2305 10255 20132 39809 40111 58012 60001 333 10266
20140 70000=
71445 NIL=
71446 16/// /2406 10276 20112 39171 40123 56016 60001 333 10281
20122 70008=
71448 16/// /2906 10250 20094 39800 40118 57010 60001 333 10263
20139 70006=
71449 NIL=

####018001605####
SMCN02 CWAO 100000
AAXX 10004
71114 16964 03010 10302 20148 30067 40113 58004 60001 333 10319
20168 70000=
71120 NIL=
71122 16/// /3305 10258 20005 38581 40128 58003 60001 333 10287
20060 70000=
71123 12774 82303 10264 20168 39266 40098 57011 60001 81207
333 10280 20124 70032=
71125 11674 82810 10250 20138 39523 40089 58017 60001 71722
83983 333 70000=
71129 12774 32012 10292 20125 39295 40091 58028 60001 81271
333 10297 20126 70006=
71131 16/// /1903 10270 20042 38913 40121 58017 60001 333 10276
20113 70000=
71135 16/// /3104 10271 20057 39089 40136 58016 60001 333 10278
20120 70006=
71137 16/// /1905 10298 20069 39212 40125 58017 60001 333 10313
20095 70000=
71138 17664 32708 10257 20153 39528 40114 56016 60011 7//44 333
10267 20135 70015=
71140 11774 2604 10234 20167 39642 40127 56013 60011 70281 82302
333 10273 20129 70010 90920=
71141 17964 02007 10230 20112 39824 40093 58014 69951 7//44 333
10240 20124 70015=
71145 12774 33305 10198 20111 39820 40104 58007 60001 81570
333 10202 20141 79999=
71148 16/// /2904 10245 20149 39579 40141 56015 60001 333 10267
20083 70000=
71182 46664 31402 10182 20171 39563 40083 50003 6///1 333 10202
20135 7////=
71185 NIL=
71187 17561 82204 10211 20191 30063 40089 53005 60001 743// 333
10288 20136 70015=
71188 11574 60808 10197 20178 30045 40086 58005 69981 72581
83480 333 10287 20151 70008 90920=
71200 NIL=
71207 16/// /1804 10278 20116 30059 40121 56003 60001 333 10312
20142 70000=
71260 13/// ///// 10206 20110 39909 40138 55001 60001 333 10258 20124
70000=

####018000134####
SMCN06 CWAO 100000 CCA
AAXX 10004
71818 11/10 90000 10098 20098 30063 40081 53021 69981
72054 333 10134 20086 70032 90973=

####018002123####
SMCN22 CWAO 100000
AAXX 10004
71201 NIL=
71202 16/// ///// 10272 20141 60001 333 10276 20110 70027=
71203 15966 02006 10360 20048 39585 40075 56021 60001
333 10361 20118 70000=
71209 46/// /3118 10227 6///1 333 10229 20181 7////=
71211 16/// /3202 10224 20165 30113 40124 56009 60001 333 10261
20193 70000=
71212 17/// /2901 10185 20179 39325 40095 56020 60351 7//4/ 333
10275 20178 70467=
71213 16/// /2905 10223 20158 39800 40088 53002 60001 333 10267
20163 70013=
71214 NIL=
71215 46/// /1605 10366 20063 39758 40087 58015 6///1 333 10368
20144 7////=
71216 16/// /3402 10299 20144 39495 40086 58018 60001 333 10314
20142 70000=
71217 NIL=
71218 16/// /0201 10297 20173 39674 40087 56023 60001 333 10323
20120 70000=
71219 17/// /1609 10152 30154 40160 58006 60021 7//4/ 333 10156
20129 70034=
71220 46/// /1608 10146 6///1 333 10153 20134 7////=
71221 NIL=
71222 16/// /2407 10231 20060 39204 40143 58008 60001 333 10241
20069 70000=
71223 NIL=
71224 NIL=
71225 NIL=
71226 NIL=
71227 NIL=
71228 NIL=
71229 NIL=
71230 16/// /2812 10226 20074 39268 40134 53007 60001 333 10256
20135 70000=
71231 NIL=
71232 16/// /2609 10288 21005 38674 40110 56009 60001 333 10300
20065 70000=
71233 NIL=
71234 16/// /1109 10296 20083 38966 40106 58014 60001 333 10309
20078 70000=
71235 46/// /1307 10261 20052 6///1 333 10291 20122 7////=
71236 16/// /3007 10267 20071 60001 333 10292 20040 7////=
71237 16/// /3605 10311 20085 39302 40085 56013 60001 333 10330
20111 70000=
71238 16/// /1202 10260 20118 60001 333 10272 20099 70000=
71239 16/// /2604 10241 20166 39681 40107 56013 60001 333 10268
20114 70000=
71240 16/// /2613 10280 20123 39277 40089 56022 60001 333 10303
20112 70000=
71241 NIL=
71242 16/// /2504 10256 20148 60001 333 10276 20098 70000=
71243 NIL=
71244 16/// /3204 10300 20046 38933 40112 57016 60001 333 10308
20072 70000=
71245 46/// /2414 10158 21022 6///1 333 10189 20112 7////=
71246 NIL=
71248 17/// /0101 10210 20086 38866 40137 58002 69921 7//4/ 333
10296 20056 70002=
71249 NIL=

####018001354####
SMCN08 CWAO 100000
AAXX 10004
71893 12980 83410 10231 20104 30119 40150 58002 60001 85075
333 10269 20169 70000=
71894 NIL=
71896 15966 33110 10260 20016 39333 40133 56006 60001
333 10289 20128 70000=
71897 11474 21805 10155 20145 3//// 4//// 51004 69941 78062 82879
333
10170 20145 70004 90999=
71899 11016 82406 10134 20134 3//// 4//// 54000 60021 76162 887XX 333
10145 20112 70052 90967=
71902 NIL=
71905 NIL=
71906 11574 70607 10135 20105 39994 40042 50006 60021 70262 81570
333 10209 20134 70022 90921=
71907 16008 91916 10069 20068 39985 40016 52006 69951 333 10148
20069 70015=
71909 46664 31513 10090 20070 30022 40064 53005 6///1 333 10097
20058 7////=
71910 46164 81006 10053 20053 39984 40047 51003 6///1 333 10061
20031 7////=
71911 46964 0//// 10145 30005 40059 56003 6///1 333 10163 20077
7////=
71912 12574 62606 10205 20088 39900 40070 57008 60001 86800
333 10211 20129 70024=
71913 46964 31904 10186 20115 30010 40045 58009 6///1 333 10196
20052 7////=
71915 NIL=
71917 NIL=
71922 11508 82718 10171 20139 39643 40095 53014 60101 79522 883//
333 10278 20092 70100 90910=
71924 NIL=
71925 12274 12505 10126 20068 30032 40067 58001 60001 81260
333 10170 20088 70000=
71926 12580 61103 10103 20051 30014 40036 55001 60001 81271
333 10178 20095 70000=
71928 NIL=

####018001995####
SMCN35 CWAO 100000
AAXX 10004
71550 16/// ///// 10261 60001 333 10279 20142 70000=
71551 NIL=
71552 46/// /2207 10250 20149 6///1 333 10251 20194 7////=
71553 16/// /2507 10243 20136 60001 333 10257 20088 70000=
71554 17/// /3004 10166 20156 30083 40089 50002 60101 7//4/ 333
10269 20111 70098=
71555 16/// /1109 10257 20089 38616 40117 58013 60001 333 10274
20149 70000=
71556 16/// /2906 10271 20145 39523 40106 58015 60001 333 10275
20120 70000=
71558 16/// ///// 10161 20146 30010 40045 53008 60001 333 10185
20127 70000=
71560 16/// /2906 10245 20158 39829 40096 57015 60001 333 10273
20107 70000=
71562 46/// ///// 10214 20078 6///1 333 10372 7////=
71563 NIL=
71564 NIL=
71565 NIL=
71566 NIL=
71567 NIL=
71568 16/// /3120 10167 20098 30154 40166 50001 60001 333 10175
20137 70000=
71569 NIL=
71570 16/// /2604 10253 20103 39823 40124 56010 60001 333 10261
20145 70000=
71571 16/// ///// 10213 20093 38983 40138 56002 60001 333 10223
20163 70000=
71572 NIL=
71573 16/// /3405 10237 20160 39843 40104 53005 60001 333 10251
20209 70268=
71574 11466 70000 10222 20212 30033 40103 52006 69961 72998
86960 333 10314 20199 70006 90960=
71575 NIL=
71576 NIL=
71577 NIL=
71578 17/// /0803 10229 20218 60111 7//4/ 333 10329 20217 70114=
71579 NIL=
71580 12574 71802 10100 20050 30024 40060 56003 60001 81132
333 10139 20030 70000=
71581 NIL=
71582 16964 03106 10246 20116 39635 40123 56007 60001 333 10260
20125 70005=
71583 NIL=
71585 NIL=
71586 17/// /3013 10161 20137 39643 40093 53015 60081 7//4/ 333
10276 20093 70084=
71587 NIL=
71588 16/// /2002 10202 20186 60001 333 10204 20184 70021=
71589 16/// /2507 10233 20181 39993 40121 53014 60001 333 10304
20146 70008=
71590 16/// /1703 10239 20214 39902 40084 57008 60001 333 10305
20206 70000=
71592 NIL=
71593 NIL=
71596 NIL=
71598 17/// /2603 10222 20209 30093 40099 51006 60011 7//4/ 333
10290 20208 70010=
71599 NIL=

####018001893####
SMCN32 CWAO 100000
AAXX 10004
71251 16/// /2306 10314 20095 60001 333 10318 20112 70000=
71252 16/// /3506 10214 20029 60001 333 10267 20058 70000=
71253 16/// /1202 10207 20141 60001 333 10218 20097 70000=
71254 16/// /0708 10260 20168 39245 40086 58014 60001 333 10289
20116 70030=
71255 17/// ///// 10173 20122 69981 7//4/ 333 10193 20139 70057=
71256 16/// /3209 10267 20093 39197 40098 58001 60001 333 10293
20132 70046=
71257 NIL=
71258 NIL=
71259 NIL=
71261 16/// /0203 10227 20151 39872 40124 55002 60001 333 10232
20202 70074=
71263 11366 62104 10224 20213 39841 40120 53004 60051 72582
86270 333 10240 20206 70556 90927=
71264 NIL=
71265 15866 33309 10240 20146 30019 40110 53002 60001
333 10245 20198 70304=
71266 NIL=
71268 NIL=
71269 NIL=
71270 16/// /3205 10230 20143 39903 40108 55001 60001 333 10240
20198 70186=
71271 NIL=
71272 NIL=
71273 16/// /2806 10238 20104 39449 40084 56016 60001 333 10273
20088 70005=
71274 NIL=
71275 NIL=
71276 NIL=
71277 NIL=
71278 NIL=
71279 16/// /3301 10210 20180 30015 40079 58002 60001 333 10247
20137 70000=
71281 46/// /0303 10204 20204 39995 40092 51008 6///1 333 10304
20204 7////=
71282 46/// /3210 10222 20194 39857 40118 51006 6///1 333 10234
20203 7////=
71283 NIL=
71284 NIL=
71285 NIL=
71286 NIL=
71287 NIL=
71288 NIL=
71289 NIL=
71290 NIL=
71291 16/// /2503 10244 20127 39834 40111 56006 60001 333 10250
20116 70000=
71293 NIL=
71294 16/// /0000 10219 20204 39718 40105 55000 60001 333 10229
20194 70432=
71295 16/// /2806 10231 20099 39685 40115 56005 60001 333 10241
20120 70005=
71296 16/// /3501 10209 20170 39823 40119 52004 60001 333 10232
20191 70449=
71297 16/// /2601 10237 20217 60001 333 10248 20212 70555=
71298 16/// /0404 10261 20138 39902 40116 53001 60001 333 10289
20227 70018=
71299 NIL=

####018001146####
SMCN26 CWAO 100000
AAXX 10004
71604 16/// /2611 10225 20172 60001 333 10251 20180 70000=
71605 16/// /1301 10263 20153 39983 40128 58009 60001 333 10292
20194 7////=
71611 16/// /3308 10238 20217 60001 333 10315 20229 70000=
71612 17/// /0204 10225 20209 30002 40088 55004 60251 7//4/ 333
10298 20212 70529=
71614 46/// /1702 10232 20221 6///1 333 10297 20224 7////=
71616 17/// /1905 10216 20212 39981 40096 55004 60231 7//4/ 333
10313 20210 70230=
71617 17/// /0202 10213 20206 39939 40095 53003 69921 7//4/ 333
10258 20213 70002=
71619 17/// /2903 10209 20200 30050 40104 53003 60371 7//4/ 333
10297 20193 70370=
71622 16/// ///// 10236 20149 39802 40128 53002 60001 333 10261
20206 70084=
71629 16864 3//// 10232 20214 39880 40105 53004 69951 333 10243
20198 70130=
71632 NIL=
71634 16/// /1301 10239 20204 39956 40103 50004 60001 333 10322
20204 70000=
71638 46/// /3205 10253 20122 30027 40129 5/009 6///1 333 7////=
71639 12474 73307 10222 20175 39883 40116 53005 60001 81102
333 10248 20212 70142=
71642 12674 22708 10216 20111 39592 40119 52009 60001 82930
333 10258 20139 70000=

####018000965####
SMCN30 CWAO 100000
AAXX 10004
71051 NIL=
71055 NIL=
71057 NIL=
71059 NIL=
71061 16/// /0903 10259 20133 39342 40074 56011 60001 333 10292
20115 70000=
71062 16/// /3513 10244 20095 39068 40085 55003 60001 333 10294
20123 70000=
71064 460// /2612 10136 39868 40074 58001 6///1 333 10155 20079
7////=
71065 NIL=
71067 NIL=
71070 NIL=
71073 NIL=
71074 16/// /1834 10030 20021 39860 49933 56024 60001 333 10062
20018 70000=
71075 16/// /3012 10193 20032 39482 40066 55003 60001 333 10215
20080 70000=
71078 15966 02707 10230 20096 39632 40056 56025 60001
333 10229 20089 70000=
71084 460// /0105 10109 30029 40075 55000 6///1 333 10118 20035
7////=
71087 NIL=
71088 460// /2807 10129 55001 6///1 333 10150 20061 7////=
71089 NIL=
71096 NIL=
71097 46608 8//// 10039 39634 40098 50001 6///1 333 10068 20020
7////=
71098 43/// /3605 10203 20106 39754 40101 58004 6///1 333 10212
20121 7////=
71099 NIL=

####018000530####
SMCN29 CWAO 100000
AAXX 10004
71900 46/// /1603 10156 20122 30055 40067 53007 6///1 333 10170
20127 7////=
71903 NIL=
71904 NIL=
71914 16/// /2801 10255 20086 39936 40145 58001 60001 333 10270
20212 70000=
71916 NIL=
71918 460// ///// 10166 6///1 333 7////=
71920 NIL=
71921 NIL=
71923 17/// ///16 10128 20108 39607 40034 56005 60011 7//4/ 333
10152 20083 70018=
71927 16/// /0303 10292 20064 30074 40145 58004 60001 333 10320
20142 7////=
71947 16/// /3204 10166 60001 333 10185 20156 70000=

####018002053####
SMCN33 CWAO 100000
AAXX 10004
71350 16/// /2210 10235 20190 30075 40138 53002 60001 333 10278
20196 70000=
71351 NIL=
71352 16/// /3603 10220 20162 39691 40130 52007 60001 333 10249
20195 70196=
71353 NIL=
71354 NIL=
71355 16/// ///26 10131 20035 39917 40000 58030 60001 333 10132
20005 70000=
71356 16/// ///// 10162 20073 39978 40041 55001 60001 333 10183
20097 70000=
71357 NIL=
71358 46/// /1008 10032 20014 30018 40052 58005 6///1 333 10121
20026 7////=
71359 NIL=
71360 NIL=
71361 NIL=
71362 NIL=
71363 NIL=
71364 NIL=
71365 NIL=
71366 NIL=
71368 15966 03305 10230 20173 39749 40125 53010 60001
333 10256 20198 70234=
71369 NIL=
71370 17/// /3103 10205 20196 39957 40088 55001 60181 7//4/ 333
10306 20193 70178=
71371 15362 30403 10220 20212 30051 40084 55006 60231
333 10306 20220 70256=
71372 17/// /0501 10230 20224 60101 7//4/ 333 10297 20227 70100=
71373 16/// /0602 10227 20212 60001 333 10303 20227 70142=
71374 NIL=
71375 NIL=
71376 NIL=
71377 17/// /3504 10221 20214 60131 7//4/ 333 10306 20217 70230=
71378 46/// /3201 10216 20195 39894 40094 58006 6///1 333 10295
20193 7////=
71379 17/// /1504 10197 39917 40081 55001 60021 7//4/ 333 10224
20192 70030=
71380 NIL=
71381 NIL=
71382 17/// /0201 10184 20178 39199 40062 55020 60211 7//4/ 333
10264 20176 70210=
71383 NIL=
71384 17/// /3501 10217 20212 30071 40078 58012 60271 7//4/ 333
10306 20174 70270=
71385 NIL=
71386 17/// /2102 10199 20191 39896 40093 50003 60271 7//4/ 333
10281 20199 70280=
71387 NIL=
71388 17/// /2002 10205 20199 39908 40089 55001 60021 7//4/ 333
10266 20205 70016=
71389 46/// /3102 10210 20208 6///1 333 10308 20195 7////=
71390 NIL=
71391 16/// ///// 10203 20199 60001 333 10248 20202 70000=
71392 17/// /1303 10223 20210 60151 7//4/ 333 10325 20217 70148=
71393 16/// ///// 10283 20088 38884 40105 56012 60001 333 10291
20102 70000=
71395 12366 62117 10223 20208 39996 40169 51004 60001 86600 
333 10297 20182 70000=
71399 NIL=

####018000820####
SMCN28 CWAO 100000
AAXX 10004
71812 46030 61806 10073 20069 30031 40043 57002 6///1 333 10130
20066 7////=
71819 15366 62720 10160 20147 30012 40052 53008 60001
333 10186 20131 70000=
71820 17/// /0203 10205 20194 39989 40099 53004 60081 7//4/ 333
10288 20204 70075=
71823 17964 02905 10214 20102 39705 40070 51003 69951 7//44 333
10237 20154 70015=
71824 NIL=
71826 16/// /2509 10127 21002 30024 40052 53001 60001 333 10142
20074 70000=
71829 16/// /1503 10214 20187 39938 40093 53006 60001 333 10290
20138 70012=
71830 NIL=
71833 NIL=
71835 17/// /3405 10225 20086 39635 40097 53007 69941 7//4/ 333
10232 20132 70006=
71837 NIL=
71839 NIL=
71840 NIL=
71846 NIL=
71847 NIL=
71848 NIL=
71849 16/// /3104 10262 20111 39834 40107 57013 60001 333 10270
20159 70000=

####018002199####
SMCN37 CWAO 100000
AAXX 10004
71744 NIL=
71750 16/// /2902 10173 20124 39869 40119 55001 60001 333 10198
20134 70000=
71751 NIL=
71752 NIL=
71753 16/// /1908 10245 20204 30118 40146 53008 60001 333 10308
20144 70000=
71754 16/// /2704 10270 20114 39459 40097 58018 60001 333 10272
20094 70016=
71755 43/// /2808 10192 20103 39768 40101 53004 6///1 333 10208
20121 7////=
71756 16/// /3002 10259 20056 39093 40147 50000 60001 333 10278
20146 7////=
71757 16764 63407 10187 20133 30130 40182 50000 60001 333 10216
20114 70000=
71758 NIL=
71760 NIL=
71761 NIL=
71762 NIL=
71763 NIL=
71765 NIL=
71766 46/// /3308 10253 20080 30076 40145 58001 6///1 333 10299
20162 7////=
71767 16/// /2908 10201 20148 39873 40127 55003 60001 333 10237
20167 70000=
71768 16/// /1507 10340 20063 39565 40086 56019 60001 333 10348
20165 70000=
71769 16/// /2917 10219 20134 30124 40139 57002 60001 333 10234
20197 70000=
71770 16/// /1904 10325 39365 40105 58020 60001 333 10326 20153
70000=
71771 16/// /1415 10138 20120 30132 40152 55005 60001 333 10175
20132 70000=
71772 16/// /3018 10224 20142 60001 333 10239 20201 70000=
71773 16/// /1605 10249 21003 39296 40126 58014 60001 333 10252
20078 70000=
71774 46/// ///// 10249 6///1 333 10280 20208 7////=
71775 16/// /2004 10268 20145 30126 40132 56007 60001 333 10301
20135 70000=
71776 16/// ///// 10331 20140 39472 40087 58017 60001 333 10337
20126 70000=
71777 NIL=
71778 46/// ///24 6///1 333 7////=
71779 16/// /2504 10290 20070 39488 40127 58009 60001 333 10298
20096 70000=
71780 NIL=
71781 46/// /3117 10214 20123 30115 40139 57003 6///1 333 10241
20205 7////=
71782 46/// /3302 10266 20098 38838 40120 58012 6///1 333 10300
20063 7////=
71783 16/// /2103 10264 20135 60001 333 10298 20138 70000=
71784 16/// /1601 10228 20153 39930 40128 58007 60001 333 10288
20187 70000=
71785 16/// /2103 10227 20181 30128 40144 58007 60001 333 10254
20163 70000=
71786 16/// /2505 10226 20060 60001 333 10264 20040 70000=
71787 NIL=
71788 NIL=
71789 NIL=
71791 NIL=
71792 NIL=
71793 NIL=
71794 NIL=
71795 NIL=
71796 NIL=
71797 NIL=

####018000868####
SMCN21 CWAO 100000
AAXX 10004
71102 NIL=
71105 NIL=
71107 NIL=
71110 NIL=
71111 15566 81106 10170 20147 30150 40158 55002 60001
333 10178 20143 70008=
71112 NIL=
71113 NIL=
71115 16/// /3301 10316 20117 39527 40081 56020 60001 333 10353
20151 70000=
71116 NIL=
71118 NIL=
71121 16864 30605 10253 20149 39304 40098 56011 60001 333 10275
20129 70000=
71127 16/// /0902 10260 20161 60001 333 10276 20164 70000=
71130 NIL=
71132 15866 62909 10180 20036 39772 40069 55000 60001
333 10206 20088 70010=
71133 16/// /2408 10242 20165 39405 40089 58016 60001 333 10269
20078 70000=
71134 NIL=
71139 NIL=
71143 46/// /1309 10238 20181 39787 40091 57020 6///1 333 10239
20173 7////=
71144 NIL=
71147 16/// /2804 10267 20168 60001 333 10277 20116 70000=
71149 17/// /2103 10217 20187 60051 7//4/ 333 10264 20159 70050=

####018000425####
SMCN38 CWAO 100000
AAXX 10004
71851 16/// /2003 10269 20156 39794 40116 56016 60001 333 10280
20157 70000=
71857 NIL=
71860 11783 71905 10253 20102 38771 40127 57010 60001 71511
87270 333 10284 20073 70000=
71875 16964 02411 10280 20071 38782 40116 58015 60001 333 10286
20072 70005=
71876 15966 02404 10270 20143 39464 40102 58018 60001
333 10272 20097 70018=
71885 NIL=
71888 NIL=
71895 NIL=

####018000102####
SMCN25 CWAO 100000 CCA
AAXX 10004
71515 46/// /2807 10266 20135 39440 6///1 333 20122 7////=

####018001633####
SMCN07 CWAO 100000
AAXX 10004
71864 NIL=
71865 16/// /2904 10260 20136 39456 40111 56015 60001 333 10260
20134 70144=
71866 46964 02506 10272 20153 39511 40102 58018 6///1 333 10273
20132 7////=
71867 11574 83114 10219 20137 39767 40090 55008 69901 79511
88960 333 10268 20111 79999 90910=
71868 NIL=
71869 12774 72512 10273 20148 39587 40091 57016 60001 81171 
333 10283 20130 70000=
71870 46964 02506 10275 20148 39176 40110 56022 6///1 333 10283
20121 7////=
71871 15966 12205 10250 20137 39322 40090 58026 60001
333 10263 20115 70000=
71872 46964 02108 10306 20081 39277 40099 56019 6///1 333 10315
20121 7////=
71874 16964 02205 10291 20125 39049 40103 58017 60001 333 10300
20100 70000=
71877 11883 60812 10281 20089 38891 40117 57012 60001 71511
82371 333 10288 20113 70000=
71878 11774 70000 10257 20105 39083 40123 58003 69901 70291 83271
333 10278 20094 79999 90920=
71879 16864 30503 10275 20142 39320 40089 56014 60001 333 10282
20164 70005=
71880 11982 61811 10302 20062 39045 40104 57014 60001 71511 84370
333 10325 20120 70000=
71881 16764 30504 10237 20091 39055 40116 58003 60021 333 10283
20104 70020=
71882 17940 00000 10286 20151 39568 40085 57025 69951 7//44 333
10307 20123 70005=
71883 NIL=
71887 12986 73107 10352 20099 39673 40073 57023 60001 82101 
333 10371 20153 70000=
71889 12974 41708 10325 20146 39682 40081 56020 60001 82171 
333 10366 20139 70000=
71891 17564 31920 10344 20066 39818 40080 56010 69951 7//44 333
10369 20171 70005=
71892 12983 72706 10238 20148 30131 40136 57006 60001 82076
333 10271 20166 70000=

####018000214####
SMCR01 GCLP 100000
AAXX 10004
60020 NIL=
60030 02560 10126 10215 20179 30094 40149 50001 60001 81500
  333 60007 924/6=
60040 06/// /3520 10217 20181 30139 40164 50001 60001
  333 60007=
60338 NIL=
####018000105####
SMNO24 ENMI 100000 RRB
AAXX 10001
01199 16/// /0602 10108 20091 39692 40145 53003 6//// 333 91107=
####018000124####
SMVD02 CWAO 100000
BBXX
CGBN 10004 99476 70527 46/// /2413 10203 20159 40124 51008 7//// 8//// 22200 0//// 2//// =

####018000830####
SMAT01 TAPA 100000
AAXX 10004
78862 11474 71518 10277 20231 30146 40169 60001 78011 87802 
333 10310 20272 58011 82818 86636=BKN034 
PROB40 TEMPO 1000/1016 3000 TSRA SCT012CB BKN270=

TAF TRPG 092200Z 1000/1024 09016KT 9999 SCT018 BKN034 BKN270 
TEMPO 1000/1024 09018G28KT 5000 SHRA BKN013 BKN032 
PROB40 TEMPO 1000/1016 3000 TSRA SCT012CB BKN260=

TAF TKPN 092200Z 1000/1024 09016KT 9999 SCT018 BKN036 BKN280 
TEMPO 1000/1024 09018G28KT 5000 SHRA BKN014 BKN035 
PROB40 TEMPO 1000/1016 3000 TSRA SCT012CB BKN270=

TAF TQPF 092200Z 1000/1024 09016KT 9999 SCT018 BKN036 BKN280 
TEMPO 1000/1024 09018G28KT 5000 SHRA BKN013 BKN034 
PROB40 TEMPO 1000/1016 3000 TSRA SCT012CB BKN270=

TAF TUPJ 092200Z 1000/1024 10014KT 9999 SCT020 BKN038  
TEMPO 1006/1024 10014G24KT 5000 SHRA BKN013 BKN036 
 TEMPO 1010/1022 2000 TSRA BKN010 BKN260=####018000128####
SMCH01 SCSC 100000
AAXX 10004 CCA
85442 11557 30000 10120 20085 40159 52013 60001 70511 83500
  333 10171 56000 83627 =
####018000131####
SMCN06 CWAO 100000 CCA
AAXX 10004
71818 11/10 90000 10098 20098 30063 40081 53021 69981
72054 333 10134 20086 70032 90973=
####018000159####
SMJM01 MKJP 090000
AAXX 09004
78397 11465 71009 10286 20202 30119 40135 60011 70522 83968 
333 06999 10323 20264 58007 81814 82922 87272 90936=
DUPE
####018001525####
SMCN04 CWAO 100000
AAXX 10004
71603 11/04 91711 10188 20188 30110 40162 56010 60001 74742
333 10255 20166 70000=
71607 NIL=
71609 11/04 92006 10181 20172 30023 40154 57004 60001 74722 
333 10233 20155 70000=
71610 15466 63405 10230 20206 39812 40097 53003 60001
333 10313 20214 70000=
71621 11474 80000 10218 20178 30001 40103 53005 60101 70288
8257/ 333 10282 20200 70134 90923=
71623 NIL=
71624 12674 73510 10232 20175 39912 40117 53003 60001 82272
333 10250 20200 70198=
71625 16964 31602 10229 20196 39940 40094 55004 60001 333 10239
20207 70190=
71627 11469 83605 10227 20207 30043 40086 53001 60161 70296
886// 333 10306 20226 70346 90927=
71628 NIL=
71630 NIL=
71631 16/// /3204 10203 20144 39646 40130 53005 60001 333 10241
20186 70282=
71633 12574 62705 10234 20150 39858 40120 58003 60001 83501
333 10252 20195 70034=
71705 12974 22012 10244 20160 30049 40133 55000 60001 82072
333 10304 20198 70000=
71706 12774 22511 10248 20192 30081 40139 53003 60001 81501 
333 10281 20202 70000=
71707 12974 12209 10233 20191 30078 40152 52013 60001 81030
333 10310 20182 70000=
71709 12980 42318 10234 20166 30103 40116 54000 60001 81071 
333 10267 20187 70000=
71711 NIL=
71714 17/// /0901 10221 20208 39997 40085 56012 60141 7//4/ 333
10310 20218 70142=
71715 NIL=
71718 11240 81805 10222 20211 30028 40091 53004 60101 78192 882//
333 10281 20131 70102 90931=
71719 17/// /3008 10219 20206 30096 40102 53007 60101 7//4/ 333
10297 20210 70099=
####018001668####
SMCN09 CWAO 100000
AAXX 10004
71930 12874 83211 10269 20080 39205 40104 58002 60001 82261 
333 10294 20128 70045=
71931 16/// /2505 10256 20192 30070 40082 52020 60001 333 10318
20164 70000=
71932 16864 33603 10174 20119 39677 40120 58009 60001 333 10212
20107 70000=
71933 17664 83008 10169 20091 39821 40110 56008 60001 743// 333
10192 20113 70005=
71934 12774 23208 10165 20025 39868 40117 55000 60001 82101
333 10185 20113 70020=
71935 12574 63211 10169 20095 39938 40140 58001 60001 86500
333 10182 20109 70002=
71936 12774 63115 10164 20040 39869 40121 57006 60001 86500 
333 10177 20104 79999=
71937 NIL=
71938 11466 72211 10163 20083 30039 40067 58014 69901 72162
86870 333 10168 20032 79999 90911=
71940 11982 80205 10235 20115 39352 40133 50004 69901 78082 84903
333 10279 20133 79999 90921=
71943 12774 83405 10227 20090 39334 40145 55004 60001 81130 
333 10241 20144 70000=
71944 16664 33503 10236 20102 39331 40136 55000 60001 333 10259
20123 70005=
71945 11583 60000 10222 20104 39690 40145 56005 69901 72982 86300
333 10236 20153 79999 90910=
71946 12774 63504 10231 20080 39936 40142 57008 60001 86101
333 10231 20120 70006=
71948 NIL=
71949 NIL=
71951 11780 81508 10204 20107 39911 40171 58002 69901 70282 8357/
333 10213 20161 79999 90961=
71957 46964 02805 10248 20088 30031 40115 58008 6///1 333 10253
20100 7////=
71958 43/// /2407 10233 20079 39215 40127 58008 6///1 333 10243
20071 7////=
71964 12786 21810 10248 20008 39300 40130 57013 60001 81170 
333 10254 20069 70000=
71966 16/// /0507 10270 20045 39661 40104 58019 60001 333 10278
20064 70000=
71968 NIL=
####018001697####
SMCN05 CWAO 100000
AAXX 10004
71725 16964 02504 10234 20176 39687 40086 57007 60001 333 10256
20160 70000=
71726 17/// /0303 10199 39576 40096 58011 60011 7//4/ 333 10201
20189 70088=
71727 11480 70000 10212 20190 39904 40093 55000 60011 72522
82880 333 10264 20212 70014 90952=
71728 11682 82803 10207 20177 39885 40098 55004 69921 78082
8257/ 333 10239 20206 70006 90917=
71730 12674 22310 10255 20151 39690 40097 57006 60001 81101 
333 10286 20180 70000=
71731 12574 32504 10230 20155 39671 40105 55003 60001 81101
333 10260 20200 70154=
71733 160// ///// 10230 60001 333 10275 20178 70000=
71735 NIL=
71738 12674 12208 10171 20122 39784 40128 55001 60001 81508
333 10205 20128 70000=
71739 NIL=
71749 16964 02908 10249 20122 39883 40120 55003 60001 333 10274
20102 70000=
71799 12983 71306 10268 20134 30117 40140 56006 60001 80007
333 10296 20145 70000=
71800 16/48 /2720 10129 20129 30126 40158 53008 60001 333 10189
20107 70000=
71801 12974 12623 10191 20157 39962 40130 53006 60001 81070
333 10273 20145 70000=
71803 12569 22411 10222 20183 39930 40110 51015 60001 81440
333 10307 20170 79999=
71807 NIL=
71808 11/02 91905 10106 20104 30028 40073 53003 69901 75154
333 10115 20090 70002 90983=
71809 12469 82312 10203 20175 30085 40111 52002 60001 885// 
333 10237 20190 79999=
71810 16/// /2206 10202 20170 30016 40080 55001 60001 333 10257
20162 70000=
71811 NIL=
71813 16964 02809 10193 20152 30065 40078 53005 60001 333 10223
20129 70000=
71814 16/// /2210 10108 20093 30060 40069 53014 60001 333 10144
20088 70000=
71815 12469 70000 10183 20166 30102 40132 52004 60001 87500
333 10192 20170 70000=
####018001817####
SMCN06 CWAO 100000
AAXX 10004
71816 11266 81002 10156 20148 30027 40086 53016 69901 75185
887// 333 10179 20155 70028 90947=
71817 NIL=
71818 11/10 90000 10098 20098 30063 40081 53021 69981 72154
333 10134 20086 70032 90973=
71821 17764 30000 10248 20150 39740 40071 55008 60021 7//44 333
10263 20149 70020=
71822 12574 71502 10207 20173 39629 40084 58006 60001 82272
333 10233 20152 70000=
71825 12774 72005 10205 20130 39446 40091 50003 60001 84228 
333 10232 20159 70030=
71827 12774 22407 10222 20086 39823 40057 55004 60001 81271 
333 10239 20130 70000=
71828 16764 32609 10209 20104 39453 40065 53004 60001 333 10224
20126 70155=
71831 12674 22804 10232 20118 39821 40091 55000 60001 81531
333 10261 20144 70000=
71832 16/// /2403 10204 20129 39781 40095 53003 60001 333 10250
20116 70000=
71834 NIL=
71836 16864 32817 10228 20118 30054 40065 53006 60001 333 10272
20149 70010=
71841 NIL=
71842 11760 62807 10236 20114 39668 40123 55001 69901 70411 81201
333 10251 20131 70002=
71844 16764 63108 10179 20104 39823 40092 52010 60001 333 10212
20134 70015=
71845 11774 53308 10227 20099 39643 40101 52007 69981 70298
85100 333 10234 20134 70010 90960=
71850 12774 43005 10245 20114 39644 40126 57009 60001 81101 
333 10260 20148 70004=
71852 16964 03105 10265 20134 39834 40118 58013 60001 333 10274
20161 70000=
71854 12669 83007 10238 20123 39660 40116 57005 60001 84101
333 10246 20139 70016=
71855 16764 32407 10262 20159 39745 40105 56014 60001 333 10280
20143 70005=
71858 NIL=
71861 16/// /2203 10258 20117 39419 40118 58016 60001 333 10265
20122 70003=
71862 12774 42308 10271 20162 39448 40126 57017 60001 84901
333 10287 20117 70000=
71863 46964 33010 10278 20132 39443 40117 56013 6///1 333 10289
20110 7////=
####018001264####
SMCN03 CWAO 100000
AAXX 10004
71397 12674 32108 10273 20200 30114 40147 50000 60001 81171
333 10322 20180 70000=
71400 16/// /2203 10223 20193 60001 333 10293 20169 70000=
71403 46/// /2212 10152 20150 30159 40179 50002 6///1 333 10182
20143 7////=
71411 17/// /2306 10176 30154 40166 56006 69981 7//4/ 333 10195
20139 70008=
71412 17/// /2007 10211 20192 30126 40135 52007 69971 7//4/ 333
10290 20180 70022=
71421 NIL=
71430 NIL=
71431 16/// /2703 10207 20207 30008 40100 51011 60001 333 10251
20202 70004=
71432 NIL=
71433 NIL=
71435 NIL=
71441 46/// /2708 10269 20140 39815 40112 58015 6///1 333 10281
20132 7////=
71443 16/// /2208 10256 20150 39695 40091 58020 60001 333 10265
20128 70000=
71444 16/// /2407 10242 20131 39400 40131 58011 60001 333 10254
20084 70000=
71447 16/// /2604 10270 20144 39593 40117 58017 60001 333 10278
20126 70000=
71467 NIL=
71472 NIL=
71474 16964 32505 10287 20019 38933 40123 56009 60001 333 10310
20107 70010=
71510 16/// /1707 10277 20198 39416 40096 58025 60001 333 10289
20118 70002=
71538 12974 30608 10254 20151 39907 40129 53001 60001 80001
333 10286 20229 70068=
71600 16004 82113 10170 20170 30194 40200 53001 60001 333 20166
7////=
71601 NIL=
####018001391####
SMCN01 CWAO 100000
AAXX 10004
71043 12786 12808 10260 20090 30032 40121 57016 60001 81101 
333 10262 20102 70000=
71045 16/// /1703 10250 20042 39296 40130 58017 60001 333 10256
20052 70000=
71050 16/// /3208 10273 20014 39106 40151 58000 60001 333 10288
20060 70000=
71051 NIL=
71052 NIL=
71066 12774 33510 10204 20101 39730 40137 57005 60001 83100 
333 10218 20102 70004=
71068 12774 70110 10202 20098 39472 40145 52010 60001 82271 
333 10238 20125 70008=
71069 17964 33006 10213 20155 39432 40116 50002 69951 7//44 333
10243 20099 70005=
71076 NIL=
71077 17/// /0208 10184 20138 39589 40111 50001 60021 7//4/ 333
10249 20133 70015=
71079 NIL=
71081 NIL=
71082 NIL=
71083 11112 61706 10057 20051 30014 40055 53002 60001 71041 86600
333 10081 20046 70017=
71090 46964 01008 10034 20021 30020 40054 58004 6///1 333 10127
20027 7////=
71091 NIL=
71092 46964 0//// 10154 39440 40073 55000 6///1 333 10169 20103
7////=
71093 NIL=
71094 46064 /2003 10106 58002 6///1 333 7////=
71095 46964 00504 10164 20053 39968 40044 56005 6///1 333 10168
20086 7////=
71104 12774 80803 10269 20081 39061 40134 58010 60001 82271 
333 10282 20114 70000=
71108 12883 62411 10285 20162 30063 40133 57009 60001 81150
333 10318 20153 70000=
71109 11880 73603 10194 20118 30159 40185 58008 69901 72582 87070
333 10196 20100 79999 90920=
####018000099####
SMCN29 CWAO 100000 CCA
AAXX 10004
71914 46/// /2801 10255 20086 39936 6///1 333 20212 7////=
####018001539####
SMCN31 CWAO 100000
AAXX 10004
71150 NIL=
71151 NIL=
71152 17/// /0902 10148 20141 30132 40145 52002 69921 7//4/ 333
10178 20112 70002=
71153 NIL=
71154 16/// /2209 10279 20071 60001 333 10289 20124 70000=
71155 NIL=
71156 NIL=
71157 17/// ///// 10274 20160 69921 7//4/ 333 10279 20163 70012=
71158 NIL=
71159 NIL=
71160 NIL=
71161 17/// /0602 10210 20198 39949 40092 50004 60091 7//4/ 333
10305 20210 70226=
71162 NIL=
71163 NIL=
71164 NIL=
71165 NIL=
71166 NIL=
71167 NIL=
71168 NIL=
71170 NIL=
71171 17/// /2503 10232 20209 30010 40100 55000 60021 7//4/ 333
10234 20214 70182=
71172 NIL=
71176 460// /1211 10080 39399 40061 58005 6///1 333 10113 20079
7////=
71177 NIL=
71178 16/// /2321 10212 20164 30072 40103 53012 60001 333 10258
20144 70027=
71179 460// /2805 10112 39290 40092 52012 6///1 333 7////=
71180 NIL=
71181 46264 82714 10180 20169 30100 40135 53009 6///1 333 10242
20135 7////=
71183 17/// /3605 10226 20210 30043 40081 55000 60141 7//4/ 333
10306 20225 70337=
71184 46/// /0304 10217 20208 6///1 333 10309 20209 7////=
71186 NIL=
71189 NIL=
71190 NIL=
71191 16/// ///// 10243 20182 60001 333 10260 20194 70000=
71192 15966 02604 10290 20067 39488 40123 58009 60001
333 10294 20100 70000=
71193 17/// /3503 10185 20166 39743 40093 53002 60141 7//4/ 333
10268 20134 70136=
71197 NIL=
71198 46/// /0901 10222 20201 6///1 333 10273 20207 7////=
71199 16/// /1405 10262 20008 39321 40126 58012 60001 333 10271
20083 70000=
####018001347####
SMCN39 CWAO 100000
AAXX 10004
71950 15866 80402 10230 20061 39536 40146 58007 60001
333 10235 20105 70000=
71952 16/// /3005 10229 20053 39323 40157 58003 60001 333 10252
20040 70000=
71954 NIL=
71956 NIL=
71959 16/// ///// 10261 20195 60001 333 10299 20222 70000=
71960 NIL=
71962 16/// /2609 10258 20124 39724 40132 56013 60001 333 10266
20098 70000=
71963 17/// /0510 10146 20102 39658 40043 51001 69921 7//4/ 333
10155 20085 70026=
71967 17/// /1506 10214 20209 39997 40098 58007 60191 7//4/ 333
10313 20210 70193=
71970 NIL=
71971 16/// /2202 10032 20017 30006 40050 56006 60001 333 10062
21002 70000=
71972 NIL=
71973 16/// /2106 10193 20176 39944 40125 53003 60001 333 10201
20184 70000=
71974 NIL=
71975 NIL=
71976 NIL=
71977 NIL=
71978 NIL=
71979 NIL=
71980 16/// /2902 10277 20023 60001 333 10278 20088 70000=
71981 NIL=
71982 NIL=
71983 NIL=
71984 17/// /3006 10129 20081 30060 40068 54000 69941 7//4/ 333
10169 20085 70008=
71985 NIL=
71986 NIL=
71987 16/// /2216 10252 20170 30105 40114 53003 60001 333 10276
20203 70000=
71988 16/// /1712 10177 20173 30134 40153 56009 60001 333 10204
20141 70000=
71989 17/// /3119 10030 20003 39961 49977 51027 69931 7//4/ 333
10034 20015 70003=
71990 NIL=
71999 16/// ///// 10343 60001 333 10360 20171 70000=
####018002120####
SMCN22 CWAO 100000
AAXX 10004
71201 NIL=
71202 16/// ///// 10272 20141 60001 333 10276 20110 70027=
71203 15966 02006 10360 20048 39585 40075 56021 60001
333 10361 20118 70000=
71209 46/// /3118 10227 6///1 333 10229 20181 7////=
71211 16/// /3202 10224 20165 30113 40124 56009 60001 333 10261
20193 70000=
71212 17/// /2901 10185 20179 39325 40095 56020 60351 7//4/ 333
10275 20178 70467=
71213 16/// /2905 10223 20158 39800 40088 53002 60001 333 10267
20163 70013=
71214 NIL=
71215 46/// /1605 10366 20063 39758 40087 58015 6///1 333 10368
20144 7////=
71216 16/// /3402 10299 20144 39495 40086 58018 60001 333 10314
20142 70000=
71217 NIL=
71218 16/// /0201 10297 20173 39674 40087 56023 60001 333 10323
20120 70000=
71219 17/// /1609 10152 30154 40160 58006 60021 7//4/ 333 10156
20129 70034=
71220 46/// /1608 10146 6///1 333 10153 20134 7////=
71221 NIL=
71222 16/// /2407 10231 20060 39204 40143 58008 60001 333 10241
20069 70000=
71223 NIL=
71224 NIL=
71225 NIL=
71226 NIL=
71227 NIL=
71228 NIL=
71229 NIL=
71230 16/// /2812 10226 20074 39268 40134 53007 60001 333 10256
20135 70000=
71231 NIL=
71232 16/// /2609 10288 21005 38674 40110 56009 60001 333 10300
20065 70000=
71233 NIL=
71234 16/// /1109 10296 20083 38966 40106 58014 60001 333 10309
20078 70000=
71235 46/// /1307 10261 20052 6///1 333 10291 20122 7////=
71236 16/// /3007 10267 20071 60001 333 10292 20040 7////=
71237 16/// /3605 10311 20085 39302 40085 56013 60001 333 10330
20111 70000=
71238 16/// /1202 10260 20118 60001 333 10272 20099 70000=
71239 16/// /2604 10241 20166 39681 40107 56013 60001 333 10268
20114 70000=
71240 16/// /2613 10280 20123 39277 40089 56022 60001 333 10303
20112 70000=
71241 NIL=
71242 16/// /2504 10256 20148 60001 333 10276 20098 70000=
71243 NIL=
71244 16/// /3204 10300 20046 38933 40112 57016 60001 333 10308
20072 70000=
71245 46/// /2414 10158 21022 6///1 333 10189 20112 7////=
71246 NIL=
71248 17/// /0101 10210 20086 38866 40137 58002 69921 7//4/ 333
10296 20056 70002=
71249 NIL=
####018001227####
SMCN27 CWAO 100000
AAXX 10004
71700 15966 01809 10240 20190 30097 40122 50001 60001
333 10310 20215 70000=
71701 16064 /1910 10238 20185 30063 40123 58002 60001 333 10300
20212 70000=
71702 16/// /2314 10242 20166 30113 40128 53003 60001 333 10267
20190 70000=
71703 NIL=
71704 15966 00306 10220 20159 39917 40131 55003 60001
333 10240 20211 70016=
71710 16/// /2317 10234 20170 30105 40114 51001 60001 333 10266
20187 70000=
71712 17/// /3103 10232 20229 30030 40086 55000 60151 7//4/ 333
10308 20212 70227=
71713 17/// /0503 10214 20207 60161 7//4/ 333 10306 20185 70160=
71716 NIL=
71717 NIL=
71720 46/// /2710 10230 20113 39999 40148 5/003 6///1 333 7////=
71721 NIL=
71723 17/// /1902 10213 20201 30076 40086 56008 60251 7//4/ 333
10311 20202 70248=
71724 17/// /2204 10217 20199 30079 40086 55006 60311 7//4/ 333
10298 20204 70312=
71732 NIL=
71734 NIL=
71737 NIL=
71741 16/// /2907 10340 39670 40070 58020 60001 333 10367 20150
70000=
71742 16/// ///// 10227 20183 39929 40108 51015 60001 333 10310
20167 70004=
71743 NIL=
71744 NIL=
71745 NIL=
71746 NIL=
71747 16/// /2607 10245 20106 39667 40128 56008 60001 333 10251
20092 70000=
71748 NIL=
####018001351####
SMCN08 CWAO 100000
AAXX 10004
71893 12980 83410 10231 20104 30119 40150 58002 60001 85075
333 10269 20169 70000=
71894 NIL=
71896 15966 33110 10260 20016 39333 40133 56006 60001
333 10289 20128 70000=
71897 11474 21805 10155 20145 3//// 4//// 51004 69941 78062 82879
333
10170 20145 70004 90999=
71899 11016 82406 10134 20134 3//// 4//// 54000 60021 76162 887XX 333
10145 20112 70052 90967=
71902 NIL=
71905 NIL=
71906 11574 70607 10135 20105 39994 40042 50006 60021 70262 81570
333 10209 20134 70022 90921=
71907 16008 91916 10069 20068 39985 40016 52006 69951 333 10148
20069 70015=
71909 46664 31513 10090 20070 30022 40064 53005 6///1 333 10097
20058 7////=
71910 46164 81006 10053 20053 39984 40047 51003 6///1 333 10061
20031 7////=
71911 46964 0//// 10145 30005 40059 56003 6///1 333 10163 20077
7////=
71912 12574 62606 10205 20088 39900 40070 57008 60001 86800
333 10211 20129 70024=
71913 46964 31904 10186 20115 30010 40045 58009 6///1 333 10196
20052 7////=
71915 NIL=
71917 NIL=
71922 11508 82718 10171 20139 39643 40095 53014 60101 79522 883//
333 10278 20092 70100 90910=
71924 NIL=
71925 12274 12505 10126 20068 30032 40067 58001 60001 81260
333 10170 20088 70000=
71926 12580 61103 10103 20051 30014 40036 55001 60001 81271
333 10178 20095 70000=
71928 NIL=
####018001802####
SMCN23 CWAO 100000
AAXX 10004
71300 NIL=
71301 NIL=
71302 16/// /3109 10258 20019 39341 40131 56007 60001 333 10289
20124 70000=
71303 46/// ///// 10246 20137 6///1 333 10275 20226 7////=
71304 NIL=
71305 NIL=
71306 NIL=
71307 NIL=
71308 16/// /2013 10247 20196 30076 40157 51007 60001 333 10318
20194 70000=
71309 16/// /2912 10231 20101 30054 40065 53006 60001 333 10275
20147 70000=
71310 16/// /2106 10236 20197 30093 40128 53006 60001 333 10292
20195 70000=
71311 NIL=
71312 NIL=
71313 16964 02505 10181 20141 30028 40074 56002 60001 333 10214
20139 70000=
71314 16/// /2906 10212 20174 39776 40116 53003 60001 333 10236
20190 70513=
71315 NIL=
71316 16/// /2901 10218 20131 39439 40102 58009 60001 333 10255
20119 70000=
71317 NIL=
71318 16/// /2910 10279 20093 39185 40095 56012 60001 333 10291
20107 70000=
71319 17/// /0301 10180 20174 39272 40099 56018 60151 7//4/ 333
10277 20176 70152=
71320 NIL=
71321 16/// /1612 10091 20074 30037 40079 53005 60001 333 10099
20056 70000=
71322 16/// /1806 10072 20067 30031 40043 57001 60001 333 10128
20064 70016=
71323 17/// /1903 10222 20217 39823 40093 56008 60371 7//4/ 333
10315 20215 70366=
71331 17/// /1903 10201 20137 39703 40058 56015 60041 7//4/ 333
10258 20058 70037=
71332 NIL=
71334 NIL=
71335 NIL=
71336 46/// /2331 10210 20156 30072 40093 51006 6///1 333 10242
20142 7////=
71337 46/// /2414 10213 20190 39856 40083 53003 6///1 333 10291
20185 7////=
71338 469// 01914 10078 20047 30055 40063 57003 6///1 333 10102
20038 7////=
71339 16464 8//// 10111 20104 30045 40059 53034 60001 333 10262
20107 70000=
71340 NIL=
71341 NIL=
71342 NIL=
71343 NIL=
71344 NIL=
71345 NIL=
71346 NIL=
71347 NIL=
71348 NIL=
71349 NIL=
####018002200####
SMCN34 CWAO 100000
AAXX 10004
71450 16/// /2105 10269 20127 39418 40109 58017 60001 333 10278
20139 70027=
71451 NIL=
71452 16/// /3005 10292 20106 39436 40120 56013 60001 333 10299
20120 70000=
71453 16/// /1807 10293 20086 39230 40108 57017 60001 333 10302
20117 70000=
71454 NIL=
71455 NIL=
71456 16/// /2411 10249 20137 39525 40102 56016 60001 333 10266
20119 70000=
71457 16/// /2909 10315 20093 39241 40097 58014 60001 333 10320
20103 70000=
71458 17/// /3103 10261 20151 39357 40094 56014 69921 7//4/ 333
10274 20088 70002=
71459 16/// /2212 10301 20090 39318 40094 56022 60001 333 10305
20126 70000=
71460 16/// /2718 10234 20108 39882 40115 55002 60001 333 10254
20195 70002=
71461 NIL=
71462 NIL=
71463 46/// /2603 10217 20179 6///1 333 10235 20211 7////=
71464 NIL=
71465 46/// /3404 10242 20130 39913 40122 53005 6///1 333 10266
20215 7////=
71466 NIL=
71468 NIL=
71470 NIL=
71471 15966 00108 10250 20099 39369 40130 58005 60001
333 10258 20126 70000=
71473 16/// /3003 10249 20118 30108 40137 58008 60001 333 10273
20175 70000=
71475 NIL=
71476 17/// /2009 10137 30146 40156 58005 69921 7//4/ 333 10141
20119 70010=
71477 NIL=
71478 NIL=
71479 NIL=
71480 16/// /2708 10260 20072 30006 40122 58012 60001 333 10261
20064 70006=
71481 NIL=
71482 NIL=
71483 NIL=
71484 NIL=
71485 16/// /3109 10148 20114 30168 40188 58007 60001 333 10161
20129 70000=
71486 16/// /2604 10303 21016 38950 40103 57011 60001 333 10316
20072 70000=
71487 16/// /2705 10298 20059 39289 40126 58017 60001 333 10301
20120 70000=
71488 17564 63207 10186 20091 39483 40092 58003 69951 743// 333
10234 20052 70010=
71489 17/// /3605 10240 20117 39334 40075 58019 69921 7//4/ 333
10261 20115 70002=
71490 NIL=
71491 NIL=
71492 NIL=
71493 16/// /2703 10179 20160 30112 40149 51002 60001 333 10267
20152 70000=
71494 17/// /2306 10212 20207 39603 40103 53003 60041 7//4/ 333
10306 20209 70036=
71495 NIL=
71496 16/// /2606 10266 20150 39508 40096 57018 60001 333 10270
20131 70035=
71497 16/// /0000 10243 20111 39887 40142 57012 60001 333 10246
20135 70010=
71498 NIL=
71499 NIL=
####018001359####
SMCN25 CWAO 100000
AAXX 10004
71500 NIL=
71501 NIL=
71502 NIL=
71503 NIL=
71504 NIL=
71505 16/// /2508 10244 21010 39416 40122 56017 60001 333 10245
20021 70000=
71506 NIL=
71507 NIL=
71508 16/// ///// 10236 20182 39981 40114 53004 60001 333 10256
20220 70346=
71509 NIL=
71511 16/// /2706 10275 20153 39488 40102 58014 60001 333 10281
20130 70000=
71512 NIL=
71514 16/// /3110 10276 20105 39444 40116 57013 60001 333 10289
20108 70000=
71515 16/// /2807 10266 20135 39440 40115 57016 60001 333 10275
20122 70000=
71516 16/// /2806 10297 20069 60001 333 10307 20095 70000=
71517 NIL=
71518 NIL=
71519 NIL=
71520 NIL=
71521 NIL=
71522 NIL=
71523 NIL=
71524 17/// /0203 10215 20207 30067 40091 56006 60151 7//4/ 333
10314 20208 70380=
71525 NIL=
71526 NIL=
71527 NIL=
71528 NIL=
71529 17/// /2807 10125 20062 39883 40103 55000 60011 7//4/ 333
10142 20090 70022=
71532 15466 12706 10230 20184 39781 40113 53006 60001
333 10245 20194 70211=
71533 16664 62905 10223 20165 39801 40080 53001 60001 333 10268
20164 70000=
71534 46964 03404 10223 20158 39857 40119 51003 6///1 333 10244
20193 7////=
71535 NIL=
71536 NIL=
71537 NIL=
71539 NIL=
71540 NIL=
71541 NIL=
71542 NIL=
71543 NIL=
71544 NIL=
71545 NIL=
71546 NIL=
71547 NIL=
71548 NIL=
71549 NIL=
####018001602####
SMCN02 CWAO 100000
AAXX 10004
71114 16964 03010 10302 20148 30067 40113 58004 60001 333 10319
20168 70000=
71120 NIL=
71122 16/// /3305 10258 20005 38581 40128 58003 60001 333 10287
20060 70000=
71123 12774 82303 10264 20168 39266 40098 57011 60001 81207
333 10280 20124 70032=
71125 11674 82810 10250 20138 39523 40089 58017 60001 71722
83983 333 70000=
71129 12774 32012 10292 20125 39295 40091 58028 60001 81271
333 10297 20126 70006=
71131 16/// /1903 10270 20042 38913 40121 58017 60001 333 10276
20113 70000=
71135 16/// /3104 10271 20057 39089 40136 58016 60001 333 10278
20120 70006=
71137 16/// /1905 10298 20069 39212 40125 58017 60001 333 10313
20095 70000=
71138 17664 32708 10257 20153 39528 40114 56016 60011 7//44 333
10267 20135 70015=
71140 11774 2604 10234 20167 39642 40127 56013 60011 70281 82302
333 10273 20129 70010 90920=
71141 17964 02007 10230 20112 39824 40093 58014 69951 7//44 333
10240 20124 70015=
71145 12774 33305 10198 20111 39820 40104 58007 60001 81570
333 10202 20141 79999=
71148 16/// /2904 10245 20149 39579 40141 56015 60001 333 10267
20083 70000=
71182 46664 31402 10182 20171 39563 40083 50003 6///1 333 10202
20135 7////=
71185 NIL=
71187 17561 82204 10211 20191 30063 40089 53005 60001 743// 333
10288 20136 70015=
71188 11574 60808 10197 20178 30045 40086 58005 69981 72581
83480 333 10287 20151 70008 90920=
71200 NIL=
71207 16/// /1804 10278 20116 30059 40121 56003 60001 333 10312
20142 70000=
71260 13/// ///// 10206 20110 39909 40138 55001 60001 333 10258 20124
70000=
####018001067####
SMCN24 CWAO 100000
AAXX 10004
71401 16/// /1905 10346 20048 39438 40094 56018 60001 333 10354
20120 70000=
71402 NIL=
71404 NIL=
71405 NIL=
71406 NIL=
71407 NIL=
71408 NIL=
71409 NIL=
71413 NIL=
71414 NIL=
71415 16/// /2207 10256 20195 30137 40140 51007 60001 333 10318
20196 70000=
71417 NIL=
71418 NIL=
71419 46/// /2116 10183 20179 30158 40168 53010 6///1 333 10229
20159 7////=
71423 NIL=
71424 46/// /3403 6///1 333 7////=
71425 16/// /1603 10208 20176 30049 40084 58004 60001 333 10221
20120 70000=
71426 NIL=
71427 NIL=
71428 16/// /2305 10197 20171 30085 40091 55000 60001 333 10235
20110 70040=
71429 16/// /0204 10182 30076 40095 52003 60001 333 10232 20166
70000=
71434 NIL=
71437 NIL=
71438 NIL=
71439 NIL=
71440 NIL=
71442 16/// /2305 10255 20132 39809 40111 58012 60001 333 10266
20140 70000=
71445 NIL=
71446 16/// /2406 10276 20112 39171 40123 56016 60001 333 10281
20122 70008=
71448 16/// /2906 10250 20094 39800 40118 57010 60001 333 10263
20139 70006=
71449 NIL=
####018001350####
SMCN20 CWAO 100000
AAXX 10004
71001 NIL=
71002 NIL=
71003 NIL=
71004 NIL=
71005 NIL=
71006 NIL=
71007 NIL=
71008 NIL=
71009 NIL=
71010 NIL=
71011 NIL=
71012 NIL=
71013 NIL=
71014 NIL=
71015 NIL=
71016 NIL=
71017 NIL=
71018 NIL=
71019 NIL=
71020 NIL=
71021 NIL=
71022 17666 61605 10170 20139 30123 40166 58009 60001 721//
333 10174 20129 70008=
71023 16964 00906 10202 20137 39363 40110 56010 60001 333 10269
20122 70005=
71024 16/// /3207 10220 20108 60001 333 10233 20111 70000=
71026 16/// ///// 10308 20047 39273 40093 57019 60001 333 10316
20121 70000=
71027 16/// /2102 10265 20190 30123 40133 51008 60001 333 10313
20213 70000=
71028 NIL=
71029 16/// /2408 10064 20048 39991 40029 58008 60001 333 10081
20045 70000=
71030 16/00 /2007 10170 30054 40141 58008 60001 333 10245 20170
70000=
71032 46/// /2609 10323 39312 40107 55006 6///1 333 10345 20120
7////=
71035 NIL=
71036 NIL=
71039 46/// /1208 10280 6///1 333 10281 20044 7////=
71040 NIL=
71041 15966 01904 10240 20192 30023 40160 53011 60001
333 10313 20195 70000=
71044 16/// /0803 10271 20076 39804 40108 58019 60001 333 10275
20081 70000=
71046 NIL=
71047 NIL=
71048 NIL=
71049 NIL=
71060 NIL=
71063 17/// /0702 10219 20210 39994 40084 55004 60021 7//4/ 333
10279 20217 70070=
####018000871####
SMAT01 TAPA 100000
AAXX 10004
78862 11474 71518 10277 20231 30146 40169 60001 78011 87802 
333 10310 20272 58011 82818 86636=BKN034 
PROB40 TEMPO 1000/1016 3000 TSRA SCT012CB BKN270=

TAF TRPG 092200Z 1000/1024 09016KT 9999 SCT018 BKN034 BKN270 
TEMPO 1000/1024 09018G28KT 5000 SHRA BKN013 BKN032 
PROB40 TEMPO 1000/1016 3000 TSRA SCT012CB BKN260=

TAF TKPN 092200Z 1000/1024 09016KT 9999 SCT018 BKN036 BKN280 
TEMPO 1000/1024 09018G28KT 5000 SHRA BKN014 BKN035 
PROB40 TEMPO 1000/1016 3000 TSRA SCT012CB BKN270=

TAF TQPF 092200Z 1000/1024 09016KT 9999 SCT018 BKN036 BKN280 
TEMPO 1000/1024 09018G28KT 5000 SHRA BKN013 BKN034 
PROB40 TEMPO 1000/1016 3000 TSRA SCT012CB BKN270=

TAF TUPJ 092200Z 1000/1024 10014KT 9999 SCT020 BKN038  
TEMPO 1006/1024 10014G24KT 5000 SHRA BKN013 BKN036 
 TEMPO 1010/1022 2000 TSRA BKN010 BKN260=
####018001630####
SMCN07 CWAO 100000
AAXX 10004
71864 NIL=
71865 16/// /2904 10260 20136 39456 40111 56015 60001 333 10260
20134 70144=
71866 46964 02506 10272 20153 39511 40102 58018 6///1 333 10273
20132 7////=
71867 11574 83114 10219 20137 39767 40090 55008 69901 79511
88960 333 10268 20111 79999 90910=
71868 NIL=
71869 12774 72512 10273 20148 39587 40091 57016 60001 81171 
333 10283 20130 70000=
71870 46964 02506 10275 20148 39176 40110 56022 6///1 333 10283
20121 7////=
71871 15966 12205 10250 20137 39322 40090 58026 60001
333 10263 20115 70000=
71872 46964 02108 10306 20081 39277 40099 56019 6///1 333 10315
20121 7////=
71874 16964 02205 10291 20125 39049 40103 58017 60001 333 10300
20100 70000=
71877 11883 60812 10281 20089 38891 40117 57012 60001 71511
82371 333 10288 20113 70000=
71878 11774 70000 10257 20105 39083 40123 58003 69901 70291 83271
333 10278 20094 79999 90920=
71879 16864 30503 10275 20142 39320 40089 56014 60001 333 10282
20164 70005=
71880 11982 61811 10302 20062 39045 40104 57014 60001 71511 84370
333 10325 20120 70000=
71881 16764 30504 10237 20091 39055 40116 58003 60021 333 10283
20104 70020=
71882 17940 00000 10286 20151 39568 40085 57025 69951 7//44 333
10307 20123 70005=
71883 NIL=
71887 12986 73107 10352 20099 39673 40073 57023 60001 82101 
333 10371 20153 70000=
71889 12974 41708 10325 20146 39682 40081 56020 60001 82171 
333 10366 20139 70000=
71891 17564 31920 10344 20066 39818 40080 56010 69951 7//44 333
10369 20171 70005=
71892 12983 72706 10238 20148 30131 40136 57006 60001 82076
333 10271 20166 70000=
####018002050####
SMCN33 CWAO 100000
AAXX 10004
71350 16/// /2210 10235 20190 30075 40138 53002 60001 333 10278
20196 70000=
71351 NIL=
71352 16/// /3603 10220 20162 39691 40130 52007 60001 333 10249
20195 70196=
71353 NIL=
71354 NIL=
71355 16/// ///26 10131 20035 39917 40000 58030 60001 333 10132
20005 70000=
71356 16/// ///// 10162 20073 39978 40041 55001 60001 333 10183
20097 70000=
71357 NIL=
71358 46/// /1008 10032 20014 30018 40052 58005 6///1 333 10121
20026 7////=
71359 NIL=
71360 NIL=
71361 NIL=
71362 NIL=
71363 NIL=
71364 NIL=
71365 NIL=
71366 NIL=
71368 15966 03305 10230 20173 39749 40125 53010 60001
333 10256 20198 70234=
71369 NIL=
71370 17/// /3103 10205 20196 39957 40088 55001 60181 7//4/ 333
10306 20193 70178=
71371 15362 30403 10220 20212 30051 40084 55006 60231
333 10306 20220 70256=
71372 17/// /0501 10230 20224 60101 7//4/ 333 10297 20227 70100=
71373 16/// /0602 10227 20212 60001 333 10303 20227 70142=
71374 NIL=
71375 NIL=
71376 NIL=
71377 17/// /3504 10221 20214 60131 7//4/ 333 10306 20217 70230=
71378 46/// /3201 10216 20195 39894 40094 58006 6///1 333 10295
20193 7////=
71379 17/// /1504 10197 39917 40081 55001 60021 7//4/ 333 10224
20192 70030=
71380 NIL=
71381 NIL=
71382 17/// /0201 10184 20178 39199 40062 55020 60211 7//4/ 333
10264 20176 70210=
71383 NIL=
71384 17/// /3501 10217 20212 30071 40078 58012 60271 7//4/ 333
10306 20174 70270=
71385 NIL=
71386 17/// /2102 10199 20191 39896 40093 50003 60271 7//4/ 333
10281 20199 70280=
71387 NIL=
71388 17/// /2002 10205 20199 39908 40089 55001 60021 7//4/ 333
10266 20205 70016=
71389 46/// /3102 10210 20208 6///1 333 10308 20195 7////=
71390 NIL=
71391 16/// ///// 10203 20199 60001 333 10248 20202 70000=
71392 17/// /1303 10223 20210 60151 7//4/ 333 10325 20217 70148=
71393 16/// ///// 10283 20088 38884 40105 56012 60001 333 10291
20102 70000=
71395 12366 62117 10223 20208 39996 40169 51004 60001 86600 
333 10297 20182 70000=
71399 NIL=
####018001992####
SMCN35 CWAO 100000
AAXX 10004
71550 16/// ///// 10261 60001 333 10279 20142 70000=
71551 NIL=
71552 46/// /2207 10250 20149 6///1 333 10251 20194 7////=
71553 16/// /2507 10243 20136 60001 333 10257 20088 70000=
71554 17/// /3004 10166 20156 30083 40089 50002 60101 7//4/ 333
10269 20111 70098=
71555 16/// /1109 10257 20089 38616 40117 58013 60001 333 10274
20149 70000=
71556 16/// /2906 10271 20145 39523 40106 58015 60001 333 10275
20120 70000=
71558 16/// ///// 10161 20146 30010 40045 53008 60001 333 10185
20127 70000=
71560 16/// /2906 10245 20158 39829 40096 57015 60001 333 10273
20107 70000=
71562 46/// ///// 10214 20078 6///1 333 10372 7////=
71563 NIL=
71564 NIL=
71565 NIL=
71566 NIL=
71567 NIL=
71568 16/// /3120 10167 20098 30154 40166 50001 60001 333 10175
20137 70000=
71569 NIL=
71570 16/// /2604 10253 20103 39823 40124 56010 60001 333 10261
20145 70000=
71571 16/// ///// 10213 20093 38983 40138 56002 60001 333 10223
20163 70000=
71572 NIL=
71573 16/// /3405 10237 20160 39843 40104 53005 60001 333 10251
20209 70268=
71574 11466 70000 10222 20212 30033 40103 52006 69961 72998
86960 333 10314 20199 70006 90960=
71575 NIL=
71576 NIL=
71577 NIL=
71578 17/// /0803 10229 20218 60111 7//4/ 333 10329 20217 70114=
71579 NIL=
71580 12574 71802 10100 20050 30024 40060 56003 60001 81132
333 10139 20030 70000=
71581 NIL=
71582 16964 03106 10246 20116 39635 40123 56007 60001 333 10260
20125 70005=
71583 NIL=
71585 NIL=
71586 17/// /3013 10161 20137 39643 40093 53015 60081 7//4/ 333
10276 20093 70084=
71587 NIL=
71588 16/// /2002 10202 20186 60001 333 10204 20184 70021=
71589 16/// /2507 10233 20181 39993 40121 53014 60001 333 10304
20146 70008=
71590 16/// /1703 10239 20214 39902 40084 57008 60001 333 10305
20206 70000=
71592 NIL=
71593 NIL=
71596 NIL=
71598 17/// /2603 10222 20209 30093 40099 51006 60011 7//4/ 333
10290 20208 70010=
71599 NIL=
####018001143####
SMCN26 CWAO 100000
AAXX 10004
71604 16/// /2611 10225 20172 60001 333 10251 20180 70000=
71605 16/// /1301 10263 20153 39983 40128 58009 60001 333 10292
20194 7////=
71611 16/// /3308 10238 20217 60001 333 10315 20229 70000=
71612 17/// /0204 10225 20209 30002 40088 55004 60251 7//4/ 333
10298 20212 70529=
71614 46/// /1702 10232 20221 6///1 333 10297 20224 7////=
71616 17/// /1905 10216 20212 39981 40096 55004 60231 7//4/ 333
10313 20210 70230=
71617 17/// /0202 10213 20206 39939 40095 53003 69921 7//4/ 333
10258 20213 70002=
71619 17/// /2903 10209 20200 30050 40104 53003 60371 7//4/ 333
10297 20193 70370=
71622 16/// ///// 10236 20149 39802 40128 53002 60001 333 10261
20206 70084=
71629 16864 3//// 10232 20214 39880 40105 53004 69951 333 10243
20198 70130=
71632 NIL=
71634 16/// /1301 10239 20204 39956 40103 50004 60001 333 10322
20204 70000=
71638 46/// /3205 10253 20122 30027 40129 5/009 6///1 333 7////=
71639 12474 73307 10222 20175 39883 40116 53005 60001 81102
333 10248 20212 70142=
71642 12674 22708 10216 20111 39592 40119 52009 60001 82930
333 10258 20139 70000=
####018000422####
SMCN38 CWAO 100000
AAXX 10004
71851 16/// /2003 10269 20156 39794 40116 56016 60001 333 10280
20157 70000=
71857 NIL=
71860 11783 71905 10253 20102 38771 40127 57010 60001 71511
87270 333 10284 20073 70000=
71875 16964 02411 10280 20071 38782 40116 58015 60001 333 10286
20072 70005=
71876 15966 02404 10270 20143 39464 40102 58018 60001
333 10272 20097 70018=
71885 NIL=
71888 NIL=
71895 NIL=
####018000962####
SMCN30 CWAO 100000
AAXX 10004
71051 NIL=
71055 NIL=
71057 NIL=
71059 NIL=
71061 16/// /0903 10259 20133 39342 40074 56011 60001 333 10292
20115 70000=
71062 16/// /3513 10244 20095 39068 40085 55003 60001 333 10294
20123 70000=
71064 460// /2612 10136 39868 40074 58001 6///1 333 10155 20079
7////=
71065 NIL=
71067 NIL=
71070 NIL=
71073 NIL=
71074 16/// /1834 10030 20021 39860 49933 56024 60001 333 10062
20018 70000=
71075 16/// /3012 10193 20032 39482 40066 55003 60001 333 10215
20080 70000=
71078 15966 02707 10230 20096 39632 40056 56025 60001
333 10229 20089 70000=
71084 460// /0105 10109 30029 40075 55000 6///1 333 10118 20035
7////=
71087 NIL=
71088 460// /2807 10129 55001 6///1 333 10150 20061 7////=
71089 NIL=
71096 NIL=
71097 46608 8//// 10039 39634 40098 50001 6///1 333 10068 20020
7////=
71098 43/// /3605 10203 20106 39754 40101 58004 6///1 333 10212
20121 7////=
71099 NIL=
####018000817####
SMCN28 CWAO 100000
AAXX 10004
71812 46030 61806 10073 20069 30031 40043 57002 6///1 333 10130
20066 7////=
71819 15366 62720 10160 20147 30012 40052 53008 60001
333 10186 20131 70000=
71820 17/// /0203 10205 20194 39989 40099 53004 60081 7//4/ 333
10288 20204 70075=
71823 17964 02905 10214 20102 39705 40070 51003 69951 7//44 333
10237 20154 70015=
71824 NIL=
71826 16/// /2509 10127 21002 30024 40052 53001 60001 333 10142
20074 70000=
71829 16/// /1503 10214 20187 39938 40093 53006 60001 333 10290
20138 70012=
71830 NIL=
71833 NIL=
71835 17/// /3405 10225 20086 39635 40097 53007 69941 7//4/ 333
10232 20132 70006=
71837 NIL=
71839 NIL=
71840 NIL=
71846 NIL=
71847 NIL=
71848 NIL=
71849 16/// /3104 10262 20111 39834 40107 57013 60001 333 10270
20159 70000=
####018002196####
SMCN37 CWAO 100000
AAXX 10004
71744 NIL=
71750 16/// /2902 10173 20124 39869 40119 55001 60001 333 10198
20134 70000=
71751 NIL=
71752 NIL=
71753 16/// /1908 10245 20204 30118 40146 53008 60001 333 10308
20144 70000=
71754 16/// /2704 10270 20114 39459 40097 58018 60001 333 10272
20094 70016=
71755 43/// /2808 10192 20103 39768 40101 53004 6///1 333 10208
20121 7////=
71756 16/// /3002 10259 20056 39093 40147 50000 60001 333 10278
20146 7////=
71757 16764 63407 10187 20133 30130 40182 50000 60001 333 10216
20114 70000=
71758 NIL=
71760 NIL=
71761 NIL=
71762 NIL=
71763 NIL=
71765 NIL=
71766 46/// /3308 10253 20080 30076 40145 58001 6///1 333 10299
20162 7////=
71767 16/// /2908 10201 20148 39873 40127 55003 60001 333 10237
20167 70000=
71768 16/// /1507 10340 20063 39565 40086 56019 60001 333 10348
20165 70000=
71769 16/// /2917 10219 20134 30124 40139 57002 60001 333 10234
20197 70000=
71770 16/// /1904 10325 39365 40105 58020 60001 333 10326 20153
70000=
71771 16/// /1415 10138 20120 30132 40152 55005 60001 333 10175
20132 70000=
71772 16/// /3018 10224 20142 60001 333 10239 20201 70000=
71773 16/// /1605 10249 21003 39296 40126 58014 60001 333 10252
20078 70000=
71774 46/// ///// 10249 6///1 333 10280 20208 7////=
71775 16/// /2004 10268 20145 30126 40132 56007 60001 333 10301
20135 70000=
71776 16/// ///// 10331 20140 39472 40087 58017 60001 333 10337
20126 70000=
71777 NIL=
71778 46/// ///24 6///1 333 7////=
71779 16/// /2504 10290 20070 39488 40127 58009 60001 333 10298
20096 70000=
71780 NIL=
71781 46/// /3117 10214 20123 30115 40139 57003 6///1 333 10241
20205 7////=
71782 46/// /3302 10266 20098 38838 40120 58012 6///1 333 10300
20063 7////=
71783 16/// /2103 10264 20135 60001 333 10298 20138 70000=
71784 16/// /1601 10228 20153 39930 40128 58007 60001 333 10288
20187 70000=
71785 16/// /2103 10227 20181 30128 40144 58007 60001 333 10254
20163 70000=
71786 16/// /2505 10226 20060 60001 333 10264 20040 70000=
71787 NIL=
71788 NIL=
71789 NIL=
71791 NIL=
71792 NIL=
71793 NIL=
71794 NIL=
71795 NIL=
71796 NIL=
71797 NIL=
####018001890####
SMCN32 CWAO 100000
AAXX 10004
71251 16/// /2306 10314 20095 60001 333 10318 20112 70000=
71252 16/// /3506 10214 20029 60001 333 10267 20058 70000=
71253 16/// /1202 10207 20141 60001 333 10218 20097 70000=
71254 16/// /0708 10260 20168 39245 40086 58014 60001 333 10289
20116 70030=
71255 17/// ///// 10173 20122 69981 7//4/ 333 10193 20139 70057=
71256 16/// /3209 10267 20093 39197 40098 58001 60001 333 10293
20132 70046=
71257 NIL=
71258 NIL=
71259 NIL=
71261 16/// /0203 10227 20151 39872 40124 55002 60001 333 10232
20202 70074=
71263 11366 62104 10224 20213 39841 40120 53004 60051 72582
86270 333 10240 20206 70556 90927=
71264 NIL=
71265 15866 33309 10240 20146 30019 40110 53002 60001
333 10245 20198 70304=
71266 NIL=
71268 NIL=
71269 NIL=
71270 16/// /3205 10230 20143 39903 40108 55001 60001 333 10240
20198 70186=
71271 NIL=
71272 NIL=
71273 16/// /2806 10238 20104 39449 40084 56016 60001 333 10273
20088 70005=
71274 NIL=
71275 NIL=
71276 NIL=
71277 NIL=
71278 NIL=
71279 16/// /3301 10210 20180 30015 40079 58002 60001 333 10247
20137 70000=
71281 46/// /0303 10204 20204 39995 40092 51008 6///1 333 10304
20204 7////=
71282 46/// /3210 10222 20194 39857 40118 51006 6///1 333 10234
20203 7////=
71283 NIL=
71284 NIL=
71285 NIL=
71286 NIL=
71287 NIL=
71288 NIL=
71289 NIL=
71290 NIL=
71291 16/// /2503 10244 20127 39834 40111 56006 60001 333 10250
20116 70000=
71293 NIL=
71294 16/// /0000 10219 20204 39718 40105 55000 60001 333 10229
20194 70432=
71295 16/// /2806 10231 20099 39685 40115 56005 60001 333 10241
20120 70005=
71296 16/// /3501 10209 20170 39823 40119 52004 60001 333 10232
20191 70449=
71297 16/// /2601 10237 20217 60001 333 10248 20212 70555=
71298 16/// /0404 10261 20138 39902 40116 53001 60001 333 10289
20227 70018=
71299 NIL=
####018000865####
SMCN21 CWAO 100000
AAXX 10004
71102 NIL=
71105 NIL=
71107 NIL=
71110 NIL=
71111 15566 81106 10170 20147 30150 40158 55002 60001
333 10178 20143 70008=
71112 NIL=
71113 NIL=
71115 16/// /3301 10316 20117 39527 40081 56020 60001 333 10353
20151 70000=
71116 NIL=
71118 NIL=
71121 16864 30605 10253 20149 39304 40098 56011 60001 333 10275
20129 70000=
71127 16/// /0902 10260 20161 60001 333 10276 20164 70000=
71130 NIL=
71132 15866 62909 10180 20036 39772 40069 55000 60001
333 10206 20088 70010=
71133 16/// /2408 10242 20165 39405 40089 58016 60001 333 10269
20078 70000=
71134 NIL=
71139 NIL=
71143 46/// /1309 10238 20181 39787 40091 57020 6///1 333 10239
20173 7////=
71144 NIL=
71147 16/// /2804 10267 20168 60001 333 10277 20116 70000=
71149 17/// /2103 10217 20187 60051 7//4/ 333 10264 20159 70050=
####018000527####
SMCN29 CWAO 100000
AAXX 10004
71900 46/// /1603 10156 20122 30055 40067 53007 6///1 333 10170
20127 7////=
71903 NIL=
71904 NIL=
71914 16/// /2801 10255 20086 39936 40145 58001 60001 333 10270
20212 70000=
71916 NIL=
71918 460// ///// 10166 6///1 333 7////=
71920 NIL=
71921 NIL=
71923 17/// ///16 10128 20108 39607 40034 56005 60011 7//4/ 333
10152 20083 70018=
71927 16/// /0303 10292 20064 30074 40145 58004 60001 333 10320
20142 7////=
71947 16/// /3204 10166 60001 333 10185 20156 70000=
####018000099####
SMCN25 CWAO 100000 CCA
AAXX 10004
71515 46/// /2807 10266 20135 39440 6///1 333 20122 7////=
####018000512####
SMDN01 EKMI 100000
AAXX 10004
06030 02970 71408 10186 20139 30157 40172 57007 6///1 87032
  333 6///7 87359 =
06060 02970 41201 10172 20150 30103 40166 56005 6///1 81032
  333 6///7 81360 83072 =
06070 05974 11404 10184 20156 30149 40178 57011 6///1
  333 6///7 81/59 =
06120 36/68 01104 10185 20169 30148 40173 57012 =
06180 02965 51410 10215 20172 30184 40190 57006 6///1 81031
  333 6///7 81360 85070 =
06193 06/// /1205 10203 20125 30192 40203 57003 6///1
  333 55300 20000 6///7 =
####018000103####
SMTH41 VTBB 091800 RRD
AAXX 09184
48580 32560 70000 10251 20233 30095 40102 82246
  333 59001=
####018000124####
SMFA01 EKMI 100000
AAXX 10004
06011 05868 72512 10106 20101 30016 40084 52010 6///1
  333 55300 20000 6///7 87/58 =
####018000047####
SMAA01 EFKL 100000
AAXX 1000/
89014 NIL=
####018000504####
SMBY20 UMMN 100000
AAXX 10001
26645 42997 00000 10155 20144 39974 40225 52002 555 12015=
26659 41960 03501 10182 20172 30006 40211 51003 70298 555 11018=
26763 42960 20000 10169 20155 39985 40204 52004 82010 555 10016=
26825 NIL=
26832 41958 03501 10172 20160 30038 40223 54000 555 11017=
26887 42997 33402 10174 20150 39992 40190 52005 80002 555 11017=
26961 42560 60202 10180 20163 30014 40198 54000 83502 555 11///=
33027 42997 73101 10190 20172 30043 40203 54000 87030 555 10019=
####018000113####
SNVD15 KWNB 092300 RRX
BBXX
41038 09231 99341 70777 46/// /2208 10281 40095 92300 22200 00273
333 91211=
####018000113####
SNVD15 KWNB 092200 RRX
BBXX
41038 09221 99341 70777 46/// /2108 10280 40094 92200 22200 00274
333 91212=
####018000115####
SIIN21 DEMS 092100 RRD
AAXX 09214
42591 31496 70000 10318 20244 49992 70522 85530
  333 59030 85618 86360=
####018000095####
SMKY10 UAFF 100000 RRA
AAXX 10001
38616 42598 20000 10206 20100 39105 40055 58023 82500=
####018000137####
SMFP01 LFVP 100000
AAXX 10004
71805 04/02 92512 10140 20140 30152 40160 53003 69921 745//
  333 60007 90710 91120
  555 60005=
####018000137####
SMNO02 ENMI 100000 RRB
AAXX 10001
01400 41797 72806 10158 20139 40156 52008 70222 8707/ 22200 06146
      10401 70007 333 91111=
####018000137####
SMNO01 ENMI 100000 RRB
AAXX 10001
01300 41397 72309 10125 20123 40074 52015 70222 87/// 22200 02007
      10606 70029 333 91115=
####018000102####
SMCN03 CWAO 100000 CCA
AAXX 10004
71435 46/// /2608 10221 20114 39551 6///1 333 20078 7////=

####018000028####
SMLB01 OLBA 100000
NIL=
####018000138####
SMZR01 FZAA 100000
AAXX 10004
64005 NIL=
64040 NIL=
64210 32957 00000 10218 20188 29083 39769 40120
  333 59007=
64360 NIL=
####018000099####
SMCN03 CWAO 100000 CCA
AAXX 10004
71435 46/// /2608 10221 20114 39551 6///1 333 20078 7////=
####018000298####
SAYE20 OYSC 100000
METAR OYSY 100000Z 21006KT 180V250 CAVOK 29/20 Q1005=
METAR OYSN 100000Z VRB01KT 8000 SCT030 17/15 Q1021=
METAR OYTZ 100000Z NIL=
METAR OYHD 100000Z 27008KT 8000 SCT030 SCT060 31/27 Q////=
METAR OYDM 100000Z NIL=
METAR OYRN 100000Z 04002KT 7000 SCT025 29/24 Q1003=
####018000105####
SMBY20 UMMN 100000 RRA
AAXX 10001
26825 42962 53302 10179 20151 30048 40223 52004 80001 555 11016=
####018000113####
SMBX01 EBBR 100000 RRA
AAXX 10001
06447 36/// /1702 10229 20174 30068 40187 51004 60001 333 91106
91204=
####018000346####
SILY20 HLMC 100000
AAXX 10004
62002 NIL=
62007 NIL=
62008 NIL=
62010 NIL=
62012 NIL=
62014 NIL=
62016 NIL=
62018 NIL=
62019 NIL=
62053 NIL=
62055 NIL=
62056 NIL=
62059 NIL=
62062 NIL=
62103 NIL=
62120 NIL=
62124 NIL=
62131 NIL=
62161 NIL=
62176 NIL=
62200 NIL=
62212 NIL=
62259 NIL=
62271 NIL=
####018000113####
SMBX21 EBBR 100000 RRA
AAXX 10001
06431 36/// /3302 10207 20144 30180 40191 51009 60001 333 91104
91203=
####018000491####
SMXX18 KAWN 100000
BBXX
DGDD 10001 99420 11613 41298 80311 10135 20090 40210 51018 70222
 8/778 22255 00130 2//// 309// 4//06 5////=
UHCU 10001 99532 11599 42498 60202 10143 40226 52010 22200 00103=
WCZ5238 10004 99451 11527 41297 81421 10120 20102 40205 58009
 74022 8864/ 22253 04097 20302 30814 40906 50503 6//// 80110 ICE
 /////=
WDD6040 10003 99398 11524 41397 81319 10256 20250 40168 52012
 71055 886// 22215 00198 20304 32513 40606 50404 6//// 80250 ICE
 /////=
####018000121####
SMTH40 VTBB 100000 RRA
AAXX 10004
48352 12561 60000 10266 20249 39882 40079 69944 81156
  333 20259 58006 70004=
####018000126####
SMAT01 TKPK 100000
AAXX 10004
78858 12478 20812 10283 20238 30114 40170 60001 81200 333
10311 20256 58009 7054 81818=
####018001185####
SMUR10 UKMS 100000
AAXX 10001
33088 32997 60000 10183 20169 30024 40207 58005 86030=
33177 32997 02801 10169 20137 39992 40221 58002=
33261 32997 23402 10185 20168 39990 40164 58004 80001=
33275 32997 03603 10207 20183 39937 40148 58006=
33301 32997 43601 10174 20157 39940 40211 58002 84030=
33325 31996 60000 10166 20159 39941 40199 54000 71011 80004=
33377 32997 03602 10201 20168 39969 40153 58004=
33415 32997 53204 10166 20141 39829 40213 53002 85030=
33429 32997 03303 10160 20144 39795 40204 58006=
33466 32663 83602 10205 20178 39988 40166 58007 885// 333
88645=
33526 32697 70000 10170 20153 39890 40218 58003 86530 333
86633=
33562 32997 03304 10172 20157 39841 40187 58001=
33614 32461 83501 10225 20199 30041 40138 58004 886// 33333
88713=
33761 31496 83604 10192 20177 39945 40157 57001 71022 883//=
33902 /1596 83603 10199 20192 30058 40121 58010 71082 885//
555 60011=
33983 32997 00104 10231 20213 30040 40097 58006=
34415 32697 80000 10221 20202 30040 40130 57001 885//=
34523 /1596 70501 10215 20206 30050 40121 52001 78086 87900
555 60021=
34712 /1497 63008 10217 20200 30022 40102 58006 71798 86930
555 60021=
####018000603####
SMTS01 DTTA 100000
AAXX 10004
60715 12660 20503 10234 20191 30187 40190 57002 60003 81102
  333 59003 55117 22853 81833=
60723 NIL=
60725 NIL=
60735 12958 03604 10241 20220 30114 40193 50000 60004
  333 55128 22727=
60745 NIL=
60748 NIL=
60750 NIL=
60760 12960 00814 10284 20196 30076 40175 50002 60003
  333 55127 23026=
60765 12960 00508 10228 20190 30043 40183 50001 60003
  333 55135 23036=
60767 12560 30702 10248 20224 30164 40188 56003 60003 82800
  333 55131 22879 82826=
60769 12550 31004 10246 20243 30177 40180 55001 60003 83200
  333 55132 22960 83820=
####018002982####
SMSN01 ESWI 100000
AAXX 10001
02019 07/81 /2201 10061 21041 39541 40160 58007 69981 70086
  333 60005 90710 91103=
02081 07/77 /1501 10123 20112 39747 40139 50001 69901 76160
  333 69905 90710 91103=
02095 07911 /2801 10089 20085 39937 40138 55003 60021 73163
  333 60005 90710 91103=
02101 45977 /0000 10043 20033 39616 40178 58005 8////=
02119 05/99 /3202 10045 20039 39778 40166 50003 60001
  333 60005 90710 91103=
02124 05/99 /0000 10074 20021 39649 40170 50000 60001
  333 60005 90710 91101=
02126 05/80 /2901 10080 2//// 39832 40167 50004 60001
  333 60005 90710 91102=
02151 45984 /2902 10108 20087 39821 40151 52005=
02186 45984 /3101 10133 20121 30117 40142 52007=
02197 07/03 /0001 10116 20113 30122 40140 52004 60001 73331
  333 60005 90710 91101=
02207 05/99 /2801 10069 20057 39450 40142 57012 60001
  333 60005 90710 91102=
02219 05/83 /0702 10110 20059 39501 40153 57009 60001
  333 60005 90710 91104=
02226 45984 /0802 10118 20056 39697 40140 58008 8////=
02243 07/62 /1100 10084 20073 39892 40157 54000 60001 70010
  333 60005 90710 91102=
02269 05/99 /3401 10150 2//// 60001
  333 60005 90710 91102=
02287 05/65 /2201 10144 20144 30138 40147 52003 60001
  333 60005 90710 91103=
02297 07/99 /3103 10147 20129 30104 40148 52008 69901 70086
  333 60005 90710 91105=
02308 05999 /2501 10097 20051 39308 40154 58003 60001
  333 60005 81/66 90710 91105=
02327 05/83 /0401 10083 20068 39732 40162 57002 60001
  333 60005 90710 91103=
02355 07983 /2303 10194 20094 30142 40154 57001 60001 70010
  333 60005 81/59 90710 91105=
02366 45982 /3301 10135 20104 30143 40149 54000 8////=
02407 05/82 /2003 10132 2//// 39810 40170 54000 60001
  333 60005 90710 91105=
02418 47923 /2002 10114 20084 30056 40185 50000 710// 8////=
02435 45982 /2201 10150 20090 39991 40173 54000 8////=
02440 05/80 /0000 10097 2//// 60001
  333 60005 90710 91101=
02452 05/99 /2602 10135 20092 60001
  333 60005 90710 91104=
02456 05/// /0000 10129 20106 30135 40177 52002 60001
  333 60005 90710 91102=
02469 07/02 /0000 10135 20129 60001 73431
  333 60005 90710 91101=
02498 06/67 /2205 10184 20170 30167 40183 50001 60001
  333 60005 90710 91107=
02518 469// /1305 10183 20138
  333 87/59 90710 91105=
02520 45984 /1402 10109 20085 30125 40192 58005=
02550 45984 /2001 10102 20083 39929 40202 58002 8////=
02562 45981 /1801 10135 20113 30085 40198 52005=
02563 05/99 /2803 10189 20136 30170 40191 52004 60001
  333 60005 90710 91104=
02565 05/70 /2700 10114 20090 30084 40202 50002 60001
  333 60005 90710 91101=
02589 05/79 /2104 10182 20163 30168 40189 57002 60001
  333 60005 90710 91105=
02590 45975 /2003 10163 20139 30136 40196 52004 8////=
02618 05/82 /0401 10128 20117 30032 40193 58008 60001
  333 60005 90710 91101=
02664 45961 /0201 10145 20133 30137 40207 57001=
02679 05/80 /2205 10183 20161 30163 40205 52003 60001
  333 60005 90710 91107=
####018000395####
SMSN02 ESWI 100000
AAXX 10001
02464 45982 /0000 10156 20147 30166 40183 50001 8////=
02500 05/74 /1504 10162 20133 30132 40173 58008 60001
  333 60005 90710 91109=
02513 05/82 /0301 10150 20112 30182 40186 58006 60001
  333 60005 90710 91102=
02616 42981 11106 10202 20174 30185 40191 58008 80001 333 81099=
02635 07/77 /1404 10211 20157 60001 70010
  333 60005 90710 91106=
####018000523####
SMTS20 DTTA 100000
AAXX 10004
60710 NIL=
60714 12960 00602 10230 20165 30197 40203 51006 60003
  333 55130 23082=
60720 12958 02702 10228 20219 30161 40194 56001 60003
  333 55132 23107=
60728 NIL=
60729 NIL=
60731 NIL=
60732 NIL=
60734 NIL=
60738 12960 01610 10196 20159 38998 48577 58001 60003
  333 55131 23036=
60739 NIL=
60740 12456 30603 10242 20217 30190 40192 50003 60004 83200
  333 55/// 22003 83815=
60742 NIL=
60764 NIL=
60770 NIL=
60772 NIL=
60775 NIL=
60780 NIL=
####018000089####
SMLJ21 LJLM 100000 RRA
AAXX 10001
14024 36/// /0000 10184 20084 39160 48577 57003=
####018000129####
SMFG01 SOCA 100000 RRA
AAXX 10004
81401 06/// ///// 10258 20237 30119 40124 60001
  333 10328 60007 59002
  555 60005=
####018000604####
SMTS01 DTTA 100000
AAXX 10004
60715 12660 20503 10234 20191 30187 40190 57002 60003 81102
  333 59003 55117 22853 81833=
60723 NIL=
60725 NIL=
60735 12958 03604 10241 20220 30114 40193 50000 60004
  333 55128 22727=
60745 NIL=
60748 NIL=
60750 NIL=
60760 12960 00814 10284 20196 30076 40175 50002 60003 
  333 55127 23026=
60765 12960 00508 10228 20190 30043 40183 50001 60003
  333 55135 23036=
60767 12560 30702 10248 20224 30164 40188 56003 60003 82800
  333 55131 22879 82826=
60769 12550 31004 10246 20243 30177 40180 55001 60003 83200
  333 55132 22960 83820=
####018000298####
SMUR10 UKMS 100000 RRA
AAXX 10001
33317 31996 03201 10170 20165 39880 40204 58004 71011=
33837 /1556 83502 10193 20185 30091 40140 54000 69902 78088
886//=
33924 32597 70901 10210 20190 30109 40120 57002 87900=
34601 /1637 53503 10206 20201 39995 40124 57010 71082 83501
555 60021=
####018000166####
SMAA01 NZCM 100000
AAXX 10004
89664 11404 10724 11253 21304 39741 49784 58031 60014 
73873 81500 333 00535 11146 21258 56400 58049 81610 
90922 91520 93105=
####018000079####
SMLY01 HLLT 100000
AAXX 10004
32960 00810 10264 20107 39650 40130 57001=
####018000140####
SMCN35 CWAO 100000 CCA
AAXX 10004
71574 11466 70000 10222 20212 30033 40103 52006 69961
72998 86970 333 10314 20199 70006 90960=

####018000089####
SNPS40 AMMC 092300 RRB
AAXX 09234
91531 46/// /3504 10291 40108 22200 00271=


####018000153####
SMFR01 LFPW 100000 CCA
AAXX 10004
07621 02565 82905 10190 20143 39806 40228 58003 60001 885//
  333 60007 88620 90710 91110 93100
  555 60005=
####018000124####
SMVD02 CWAO 100000
BBXX
VOKJ 10004 99/// ///// 46/// /2007 10222 20203 40087 53001 7//// 8//// 22200 0//// 2//// =

####018000167####
SMAA01 NZCM 100000
AAXX 10004
89664 11404 10724 11253 21304 39741 49784 58031 60014 
73873 81500 333 00535 11146 21258 56400 58049 81610 
90922 91520 93105=
####018000137####
SMCN35 CWAO 100000 CCA
AAXX 10004
71574 11466 70000 10222 20212 30033 40103 52006 69961
72998 86970 333 10314 20199 70006 90960=
####018000165####
SMAA01 NZCM 100000
AAXX 10004
89664 11404 10724 11253 21304 39741 49784 58031 60014
73873 81500 333 00535 11146 21258 56400 58049 81610
90922 91520 93105=
####018000577####
SMXX19 KAWN 100000
BBXX
DCPI2 10003 99350 11290 41996 60803 10225 20205 40091 52001 71022
 80002 22200 04200 20101 322// 40903 80211=
DEBB 10004 99363 11327 41596 43204 10234 20208 40110 51025 70511
 82369 22254 00260 20000 30000 80216=
SHIP 10003 99354 11410 41598 72220 10250 20207 40095 53015 70222
 86454 22254 00230 20404 321// 40506 80204=
VNVS 10003 99302 11273 41497 81916 10268 20265 40113 52004 70322
 85770 22284 00262 20301 80266=
VRAR6 10004 99384 11496 41/98 /1914 10240 20211 40155 54000 70222
 8//// 22215 00190 2//// 318// 40502 80220=
####018000168####
SITH42 VTBB 092100 RRC
AAXX 09214
48440 31958 00000 10250 20247 30019 40069 71000
  333 59009=
48563 32560 30000 10240 20233 30058 40094 82145
  333 58002=
####018000109####
SITH43 VTBB 092100 RRE
AAXX 09214
48350 31658 20000 10248 20241 39766 40064 71000 82500
  333 58003=
####018000103####
SITH21 VTBB 092100 RRC
AAXX 09214
48455 32560 60000 10270 20253 30068 40073 81246
  333 59003=
####018000109####
SITH20 VTBB 092100 RRB
AAXX 09214
48569 31558 50000 10250 20231 30058 40098 71011 82206
  333 58001=
####018000095####
SMFI01 EFKL 100000 CCA
AAXX 10001
02947 47/83 /0000 10115 20107 40181 52007 70000 92351=
####018000117####
SMSW01 LSSW 100000
AAXX 10004
06610 32972 51906 10210 20165 39645 40204 52011 80008
  333 85275 91114 91209=
####018000472####
SMSW11 LSSW 100000
AAXX 10004
06670 42975 2//// 1//// 2//// 3//// 5//// 82030
  333 82365=
06700 42968 3//// 1//// 2//// 3//// 5//// 80001
  333 83080=
06760 33/// /0301 10241 20196 39777 40202 57000
  333 91114 91208=
06680 33/// /0905 10148 21025 37647 47237 57002
  333 91112 91210=
06720 31970 11101 10196 20151 39652 40205 51014 700// 80004
  333 81062 91121 91214=
06990 31960 00000 10198 20161 39675 40201 52005 705//
  333 91119 91210=
####018000226####
SMJD50 OJAM 100000
AAXX 10004
40250 32960 03407 10252 21021 39302 40029 52004=
40260 32960 00000 10270 20003 40032 54002=
40265 32960 00000 10202 20167 39337 40087 54002=
40296 32960 00000 10310 20213 40085 52010=
####018000089####
SNPS40 AMMC 092300 RRC
AAXX 09234
91519 46/// /0805 10295 40131 22200 00289=


####018001888####
SMCI02 BABJ 100000
AAXX 10001
56187 11960 72501 10222 20201 39431 40046 52006 69901 70080
8704/ 333 00353 70022=
56778 32570 72504 10207 20169 38072 52009 87442 333 05100
79999=
57265 11758 83404 10240 20223 39932 40036 52013 60021 76066
885// 333 05251 70019=
57461 11430 80701 10244 20244 39872 40024 52007 60121 76066
8372/ 333 05251 70140=
57494 11462 82001 10265 20251 39996 40024 52009 60031 72160
8777/ 333 00001 70125=
57516 11460 82701 10212 20200 39738 40032 52024 60111 76060
887// 333 00356 70398=
57687 32975 71803 10298 20244 39956 40034 52012 85042 333
00002 70258=
57816 11561 72003 10227 20217 38707 40009 52006 60101 70086
878// 333 05151 70097=
58040 11758 80902 10243 20224 30041 40053 52009 69901 76000
885// 333 05200 79999=
58102 11968 80902 10258 20225 39982 40027 52004 69901 76060
8802/ 333 05300 79999=
58150 11560 80903 10259 20238 30044 40048 52012 69901 70060
885// 333 05251 79999=
58221 31930 81402 10267 20236 39999 40025 52001 71000 8807/
333 05201 79999=
58238 11460 82001 10269 20249 39993 40034 52013 60021 70086
888// 333 05100 70019=
58251 32562 80903 10265 20240 30036 40041 52011 8557/ 333
05200=
58362 NIL=
58457 11765 72003 10276 20232 39993 40042 52013 69901 70080
874// 333 05102 70005=
58606 31958 62902 10283 20253 39988 40043 52010 71000 86040
333 00002 70256=
58752 NIL=
58847 32561 51801 10300 20249 39979 40075 52006 81142 333
00001=
59117 32580 22702 10287 20222 39993 40094 52007 81102 333
00100=
59134 32577 72703 10285 20234 39937 40096 52009 81142 333
00100=
59287 NIL=
59316 32472 72503 10301 20247 30089 40093 52010 8124/ 333
00100=
59431 32572 71102 10291 20247 39920 40058 52005 81942 333
00000=
59644 32565 71603 10310 20274 30051 40067 52010 86302 333
00000=
59758 32475 71804 10288 20241 39999 40072 52013 81102 333
00000=
####018001350####
SMCI01 BABJ 100000
AAXX 10001
50468 32570 73401 10221 20196 39905 40099 52013 85202 333
00051=
50953 32975 61102 10236 20195 39925 40091 52003 80002 333
00103=
51076 NIL=
51243 NIL=
51288 32980 31404 10163 20064 38285 54000 80002 333 05451
79999=
51463 NIL=
51573 NIL=
51709 NIL=
52533 NIL=
52652 NIL=
52866 NIL=
52983 NIL=
53463 11980 01602 10194 20131 38883 40046 52008 60011 70080
333 00051 70214=
53513 32970 00702 10223 20139 38892 40009 52008 333 00000=
53588 31480 52504 10145 20089 37767 57003 70040 82130 333
05202 70090=
53772 31920 81402 10203 20184 39198 40066 52005 71000 8801/
333 00053 70133=
53915 NIL=
54218 32670 71401 10217 20173 39414 40051 54000 87900 333
05400 70019=
54337 11520 82204 10223 20208 39991 40072 52010 69901 76060
8572/ 333 05153 79999=
54342 31757 80701 10224 20209 30025 40083 52009 71000 885//
333 00000=
54401 NIL=
54471 32760 82003 10241 20214 30074 40079 52012 885// 333
05100=
54497 31557 81802 10234 20207 30079 40094 52014 71000 885//
333 00251=
54511 11750 80902 10219 20200 30017 40055 52007 69921 71080
885// 333 05154 70174=
54823 11520 80203 10239 20212 39856 40050 52012 69911 72186
8372/ 333 05153 70001=
56080 NIL=
56096 NIL=
57083 11430 83401 10232 20209 39920 40047 52006 60171 76066
8672/ 333 00055 70168=
####018000044####
SMAA01 SAWB 100000 RRA
AAXX 10003
NIL
####018000151####
SMDO01 KWBC 100000
AAXX 10001
78906 11474 61304 10238 20207 30147 40152 60051 72598 85441 333
10321 20250 58005 70072 83816 85632 85358 90916=
####018001291####
SMPF80 KWBC 100000 RRA
AAXX 10004
91945 01465 60914 10262 20210 30186 40191 56019 69984 71582 86800
333 20237 56200 58006 69987 84816 83640 90710 91123 555 60005
10925=
91925 01475 70916 10264 20218 30061 40121 56018 60204 70182 86802
333 20230 56206 58007 60007 82816 85821 90710 91129 555 60005
10729=
91929 04966 /0913 10278 20223 30154 40157 56019 60054 700// 333
20248 58014 60007 90710 91122 555 60005 10823=
91938 01565 62310 10295 20220 30162 40164 56019 69904 71586 86800
333 20230 56900 58014 60007 82820 85650 90710 91117 555 60005
12717=
91944 06/// /1119 10276 20197 30172 40175 56017 60001 333 60007
90710 91126 555 60005=
91948 02580 31804 10208 20158 30115 40219 56017 69904 83800 333
20199 56300 58017 60007 82823 555 60005=
91954 02565 20610 10254 20198 30205 40208 56018 60004 82200 333
20231 56200 58006 60007 82820 555 1//16=
91958 02482 60510 10213 20187 30237 40239 56015 60074 86800 333
20189 56100 59008 60007 86816 90710 91121 555 60005 1//21=
91930 16/// ///// 10283 69944 333 20260=
91958 02482 60510 10213 20187 30237 40239 56015 60074 86800 333
20189 56100 59008 60007 86816 90710 91121 555 60005 1//21=
91954 02565 20610 10254 20198 30205 40208 56018 60004 82200 333
20231 56200 58006 60007 82820 555 1//16=
####018000645####
SMCH01 SCSC 100000
AAXX 10004
85406 12560 81704 10149 20097 40176 53023 60001 885//
  333 10169  56099 88626=
85418 11559 80306 10148 20090 40174 52018 60001 70522 885//
  333 10183 56099 88620=
85432 12970 01906 10108 21194 37771 48480 52018 60001
  333 10220=
85467 13460 83511 10122 20085 40174 51011 60001 885//
  333 10147 56699 88615=
85469 42565 53211 10208 20186 40146 57011 85200
  333 56200 85820=
85488 12960 00801 10108 20092 40150 53012 60001
  333 10158=
85574 11958 09902 10108 20046 39627 40188 51006 60001 70500
  333 10184=
85577 12960 00000 10082 20059 39576 40143 53006 60001
  333 10195=
####018000550####
SMCH02 SCSC 100000
AAXX 10004
85585 12597 61910 10119 20084 40244 53003 60001 86500
  333 10155 56400 86620=
85586 11956 00000 10134 20088 40186 53007 60001 70500
  333 10188=
85682 12960 21804 10083 20059 40227 54000 60001 80001
  333 10127 56005 82070=
85743 11325 41001 10044 20038 40243 52002 60001 71000 81601
  333 10108 56600 81709 83075=
85766 12560 83104 10082 20062 40236 51001 60001 8552/
  333 10118 56779 85625 88457=
85799 11430 83616 10072 20065 40201 54001 69981 75866 886//
  333 10081 56899 85710 88620=
####018000040####
SMAA01 SAWB 100000
AAXX 10004
NIL
####018000083####
SMST01 EGRR 100000 RRA
AAXX 10004
88878 46/// /2619 10033 20017 49983 52006=
####018000977####
SMAU01 AMMC 100000
AAXX 10004
94102 46/// /1108 10263 20234 30143 40153=
94103 NIL=
94120 46/// /1111 10264 20191 30114 40154=
94122 46/// /0906 10263 20219 30145 40154=
94131 46/// /0907 10260 20159 30005 40162=
94132 NIL=
94147 NIL=
94150 46/// /1112 10269 20215 30094 40156=
94151 NIL=
94170 46/// /1209 10274 20203 30133 40155=
94200 NIL=
94203 46/// /1403 10232 20225 30146 40157=
94206 46/// /0103 10247 20240 30023 40156=
94207 46/// /1610 10251 30140 40149 53020=
94211 NIL=
94212 46/// /2501 10242 20181 39678 40165=
94216 46/// /1803 10246 20183 30103 40154=
94236 NIL=
94238 46/// /0513 10188 20076 39746 40183=
94248 NIL=
94255 46/// /0905 10197 20112 39917 40189=
94268 46/// /0708 10262 20190 30157 40170=
94287 46/// /1709 10237 20188 30187 40196=
94290 NIL=
94294 46/// /2004 10235 20133 30204 40215=
94296 35/// /1415 10245 30168 40178 52008=
94298 46/// /1311 10236 30183 40189 51009=
95641 NIL=

####018001163####
SMAU02 AMMC 100000
AAXX 10004
94299 46/// /1322 10260 20207 30172 40183=
94300 46/// /0907 10106 20088 30201 40211=
94302 46/// /2605 10110 20087 30202 40209=
94312 46/// /1305 10157 20097 30165 40175=
94313 NIL=
94317 46/// /1705 10086 20062 39593 40206=
94319 46/// /1410 10138 20080 39841 40184=
94324 NIL=
94326 46/// /3511 10190 20103 39538 40179=
94327 46/// /3509 10167 20072 39804 40193=
94332 46/// /0304 10174 20128 39788 40187=
94333 NIL=
94341 46/// /0607 10234 20144 39943 40184=
94346 46/// /0414 10168 20119 39986 40215=
94363 46/// /1204 10154 20132 30014 40239=
94366 NIL=
94367 46/// /1613 10200 20156 30179 40222=
94374 46/// /1109 10197 20136 30218 40235=
94388 46/// /1219 10222 20141 30230 40235=
94393 46/// /1326 10227 30184 40196 51014=
94394 35/// /1221 10219 30207 40215 52011=
94403 46/// /0308 10104 20081 30158 40200=
94429 46/// /3004 10066 20059 39721 40203=
94430 46/// /2302 10056 20051 39596 40203=
94449 46/// /2909 10061 20052 39654 40202=
94451 NIL=
94461 46/// /2011 10121 20025 39494 40190=
94462 46/// /1707 10140 20073 39608 40185=
94477 NIL=
94488 NIL=

####018001785####
SMOM10 OOMS 100000
AAXX 10004
41241 NIL=
41242 36/// /0102 10312 20266 30000 40024
333 0E036 59009=
41244 36/// /1506 10290 20211 39678 47011
333 0E030 59001=
41246 32560 31105 10309 20257 30010 40014 83501
  333 59002 83625=
41252 36/// /1312 10280 20212 39652 40034
333 0E030 58001=
41253 36/// /0106 10285 20241 39657 40036
333 0E029 59003=
41254 36/// /0710 10216 20123 37993 47997
333 0E019 58004=
41255 36/// /3404 10258 20212 39518 40053
333 0E031 58012=
41256 32960 23303 10288 20264 39998 40007 80001
  333 59007 82070=
41257 36/// /2208 10279 20235 39560 40044
333 0E028 5////=
41258 NIL=
41259 06/// /0000 11/// 20/// 37081 4//// 68634
333 0E/// 58031 78628=
41262 NIL=
41263 36/// /1706 10253 20210 39378 40063
333 0E026 58011=
41264 06/64 /1409 10254 20220 39662 49974 60404
333 0E029 58012 70402=
41265 36/// /1504 10248 20244 39515 40063
333 0E032 58009=
41267 35/63 /0604 10304 20215 39990 40005
333 0E029 59019=
41268 31958 32227 10276 20219 39992 40008 70600 80001
  333 59017 83070 91037=
41270 26/// /2117 10267 20238 39974 40036
333 0E029 58000 70000=
41275 NIL=
41287 36/// /1818 10261 20227 39984 40050
333 0E027 58005=
41288 36/// /0000 10268 20231 30016 40040
333 0E027 58009=
41290 36/// /2023 10260 20218 39994 40049
333 0E032 58001=
41295 36/// /1516 10245 20225 39839 40010
333 0E028 58004=
41304 36/// /2109 10304 20195 39701 49991
333 0E030 58003=
41312 26/// /1504 10251 20240 39995 40033
333 0E/// 59001 70004=
41314 32960 11821 10257 20212 39515 40015 81030
  333 59003 81360=
41315 06/// /1521 10212 20209 39065 42705 60144
333 0E/// 59005 70142=
41316 01350 81406 10254 20238 30009 40034 69924 75055 887//
  333 59002 70002 85706 88620=
####018001510####
SMAU04 AMMC 100000
AAXX 10004
94893 46/// /0215 10110 20067 30081 40199=
94907 46/// /0603 10076 20049 30196 40206=
94910 46/// /0610 10118 20061 39982 40242=
94926 46/// /2003 10082 20065 39578 40275=
94935 46/// /0110 10137 20090 30226 40254=
94954 46/// /0520 10120 20103 30067 40179=
94956 46/// /3605 10117 20074 30146 40172=
94975 46/// /3107 10049 20034 30201 40235=
94983 46/// /0326 10139 20107 30220 40245=
94995 46/// /0914 10175 20043 30277 40286=
94996 46/// /1314 10162 20090 30088 40220=
94997 NIL=
94998 46/// /2620 10054 20045 30184 40195=
95111 46/// /1505 10265 20184 30115 40151=
95205 46/// /0000 10236 20230 30147 40155=
95322 NIL=
95448 46/// /2806 10056 20053 39610 40196=
95458 46/// /2710 10143 20097 39898 40168=
95480 46/// /0310 10125 20120 30124 40186=
95481 46/// /3310 10130 20087 30157 40203=
95482 46/// /3613 10142 20096 30137 40194=
95485 46/// /0215 10134 20104 39981 40195=
95492 46/// /0111 10161 20108 30059 40218=
95527 46/// /0710 10159 20065 30007 40272=
95634 46/// /3405 10054 20051 39763 40179=
95637 46/// /3405 10038 20028 39817 40160=
95646 46/// /2918 10092 20059 39959 40151=
95666 NIL=
95719 46/// /0710 10122 20089 39919 40264=
95762 46/// /1409 10141 20065 39798 40275=
95839 46/// /0224 10101 20084 39978 40142=
95864 46/// /0117=
95966 46/// /3610 10102 20080 30030 40237=
96995 46/// /1410 10232 20222 39827 40123=
96996 41465 61215 10246 20223 30125 40129 53011 71522 86801=

####018001433####
SMAU03 AMMC 100000
AAXX 10004
94500 NIL=
94510 46/// /0410 10172 20100 39872 40235=
94515 46/// /0711 10165 20106 39885 40249=
94552 46/// /0815 10164 20103 39783 40269=
94578 46/// /2107 10171 20122 30255 40267=
94584 46/// /1021 10196 20135 30134 40248=
94601 46/// /2616 10136 20079 30122 40139=
94610 NIL=
94637 46/// /3009 10059 20035 39738 40178=
94638 46/// /2913 10079 20040 30085 40117=
94642 NIL=
94643 NIL=
94647 46/// /3018 10099 20045 30009 40132=
94651 46/// /3019 10105 20059 30058 40137=
94653 46/// /3315 10124 20068 30100 40119=
94659 46/// /3511 10115 20099 39950 40150=
94672 46/// /3526 10129 20096 30089 40099=
94691 46/// /3416 10117 20104 39850 40188=
94693 46/// /3613 10116 20108 30116 40180=
94700 NIL=
94703 46/// /0315 10159 20077 30100 40231=
94710 46/// /0318 10145 20080 39964 40228=
94729 46/// /0313 10111 20054 39396 40280=
94750 46/// /2903 10121 20103 30147 40275=
94767 46/// /3306 10133 20093 30276 40282=
94776 46/// /3005 10127 20115 30274 40284=
94791 NIL=
94802 46/// /3109 10076 20061 30042 40125=
94804 46/// /3129 10146 20106 39997 40035=
94821 46/// /0230 10104 20094 39987 40070=
94842 46/// /0214 10109 20082 30051 40151=
94847 NIL=
94850 46/// /0420 10127 20076 30105 40152=
94865 46/// /3616 10133 20066 30167 40192=
94866 46/// /0127 10130 20053 30051 40196=
94875 46/// /0314 10110 20067 30083 40224=

####018001132####
SMCH01 SCSC 100000
AAXX 10004
85406 12560 81704 10149 20097 40176 53023 60001 885//
  333 10169  56099 88626=
85418 11559 80306 10148 20090 40174 52018 60001 70522 885//
  333 10183 56099 88620=
85467 13460 83511 10122 20085 40174 51011 60001 885//
  333 10147 56699 88615=
85469 42565 53211 10208 20186 40146 57011 85200
  333 56200 85820=
85488 12960 00801 10108 20092 40150 53012 60001
  333 10158=
85574 11958 09902 10108 20046 39627 40188 51006 60001 70500
  333 10184=
85585 12597 61910 10119 20084 40244 53003 60001 86500
  333 10155 56400 86620=
85682 12960 21804 10083 20059 40227 54000 60001 80001
  333 10127 56005 82070=
85743 11325 41001 10044 20038 40243 52002 60001 71000 81601
  333 10108 56600 81709 83075=
85799 11430 83616 10072 20065 40201 54001 69981 75866 886//
  333 10081 56899 85710 88620=
85934 12470 42915 10008 21021 49997 54002 60001 82431
  333 10027 56777 82615 83070=
89056 11260 81210 11059 21069 49729 52104 69924 70522 885//
  333 11008 21066 73399 88605=
89059 32460 81723 11070 21050 49707 50035 60004 886//
  333 11050 21170 73399 88717=
####018000726####
SMCH03 SCSC 100000
AAXX 10004
85864 11210 80000 10002 20000 40073 57011 60141 77377 8802/
  333 10027 56019 88505 93114=
85874 11/12 90100 10000 21009 39444 40084 56022 60061 7717/
  333 10014=
85934 12470 42915 10008 21021 49997 54002 60001 82431
  333 10027 56777 82615 83070=
89056 11260 81210 11059 21069 49729 52104 69924 70522 885//
  333 11008 21066 73399 88605=
89057 11340 80707 11054 21056 49730 52050 69944 77072 887//
  333 11026 21057 56099 88708 93100=
89058 11570 81111 11059 21067 39700 49721 52032 69951 77073 885//=
89059 32460 81723 11070 21050 49707 50035 60004 886//
  333 11050 21170 73399 88717=
89251 32562 40913 11061 21069 49712 52020 69904 72272 84500
  333 10009=
####018000234####
SMAA01 AMMC 100000
AAXX 10004
89564 45/// /1625 11194 21257 39827 49848 58007=
89571 41675 80829 11094 21167 39712 49742 58013 70222 88500=
89573 NIL=
89611 41/00 /0857 11113 21127 39803 49858 55015 73932=
89615 NIL=

####018000791####
SMSD12 OEJD 100000
AAXX 10004
41024 32960 23604 10298 20260 39989 40008 82030 333 58003 82360=
41030 32960 20000 10344 20240 39721 49976 82030 333 59007 82360=
41036 31958 00805 10290 20010 38515 48465 70600 333 59006 555 04410 59975=
41055 32960 03506 10267 21020 38320 48457 333 59007 555 04410 59987=
41061 31550 41106 10330 20170 39325 49975 70600 82130 333 59001 82830 83358=
41084 32960 00000 10288 20060 38782 48454 333 59013 555 04410 59968=
41112 42960 00000 10250 21040 37918 48459 333 59014 555 04410 50014=
41114 NIL=
41128 31540 52604 10300 20110 38733 48454 70600 83530 333 58000 83630 83359 555 04410 59973=
41136 31659 50000 10290 20160 39216 49986 70500 83430 333 58019 83640=
41140 32660 62903 10320 20250 39995 40007 82430 333 58017 82640 85360=
####018001430####
SMAU03 AMMC 100000
AAXX 10004
94500 NIL=
94510 46/// /0410 10172 20100 39872 40235=
94515 46/// /0711 10165 20106 39885 40249=
94552 46/// /0815 10164 20103 39783 40269=
94578 46/// /2107 10171 20122 30255 40267=
94584 46/// /1021 10196 20135 30134 40248=
94601 46/// /2616 10136 20079 30122 40139=
94610 NIL=
94637 46/// /3009 10059 20035 39738 40178=
94638 46/// /2913 10079 20040 30085 40117=
94642 NIL=
94643 NIL=
94647 46/// /3018 10099 20045 30009 40132=
94651 46/// /3019 10105 20059 30058 40137=
94653 46/// /3315 10124 20068 30100 40119=
94659 46/// /3511 10115 20099 39950 40150=
94672 46/// /3526 10129 20096 30089 40099=
94691 46/// /3416 10117 20104 39850 40188=
94693 46/// /3613 10116 20108 30116 40180=
94700 NIL=
94703 46/// /0315 10159 20077 30100 40231=
94710 46/// /0318 10145 20080 39964 40228=
94729 46/// /0313 10111 20054 39396 40280=
94750 46/// /2903 10121 20103 30147 40275=
94767 46/// /3306 10133 20093 30276 40282=
94776 46/// /3005 10127 20115 30274 40284=
94791 NIL=
94802 46/// /3109 10076 20061 30042 40125=
94804 46/// /3129 10146 20106 39997 40035=
94821 46/// /0230 10104 20094 39987 40070=
94842 46/// /0214 10109 20082 30051 40151=
94847 NIL=
94850 46/// /0420 10127 20076 30105 40152=
94865 46/// /3616 10133 20066 30167 40192=
94866 46/// /0127 10130 20053 30051 40196=
94875 46/// /0314 10110 20067 30083 40224=
####018000027####
SMNG01 AMMC 100000
NIL
####018000368####
SMSO02 AMMC 100000
AAXX 10003
91502 01465 80000 10272 20246 40126 51008 60114 75085 889//
  333 20243 56199 58016 60067 84815 81916 86629=
91507 01470 80902 10280 20252 40132 52005 69984 78082 8592/
  333 20245 56909 58015 69987 83815 81916 83628 86460=
91520 NIL=
91541 32580 60902 01295 20250 40130 52002 83266
  333 20245 56299 58018 83820 86280=
####018001160####
SMAU02 AMMC 100000
AAXX 10004
94299 46/// /1322 10260 20207 30172 40183=
94300 46/// /0907 10106 20088 30201 40211=
94302 46/// /2605 10110 20087 30202 40209=
94312 46/// /1305 10157 20097 30165 40175=
94313 NIL=
94317 46/// /1705 10086 20062 39593 40206=
94319 46/// /1410 10138 20080 39841 40184=
94324 NIL=
94326 46/// /3511 10190 20103 39538 40179=
94327 46/// /3509 10167 20072 39804 40193=
94332 46/// /0304 10174 20128 39788 40187=
94333 NIL=
94341 46/// /0607 10234 20144 39943 40184=
94346 46/// /0414 10168 20119 39986 40215=
94363 46/// /1204 10154 20132 30014 40239=
94366 NIL=
94367 46/// /1613 10200 20156 30179 40222=
94374 46/// /1109 10197 20136 30218 40235=
94388 46/// /1219 10222 20141 30230 40235=
94393 46/// /1326 10227 30184 40196 51014=
94394 35/// /1221 10219 30207 40215 52011=
94403 46/// /0308 10104 20081 30158 40200=
94429 46/// /3004 10066 20059 39721 40203=
94430 46/// /2302 10056 20051 39596 40203=
94449 46/// /2909 10061 20052 39654 40202=
94451 NIL=
94461 46/// /2011 10121 20025 39494 40190=
94462 46/// /1707 10140 20073 39608 40185=
94477 NIL=
94488 NIL=
####018000231####
SMAA01 AMMC 100000
AAXX 10004
89564 45/// /1625 11194 21257 39827 49848 58007=
89571 41675 80829 11094 21167 39712 49742 58013 70222 88500=
89573 NIL=
89611 41/00 /0857 11113 21127 39803 49858 55015 73932=
89615 NIL=
####018001507####
SMAU04 AMMC 100000
AAXX 10004
94893 46/// /0215 10110 20067 30081 40199=
94907 46/// /0603 10076 20049 30196 40206=
94910 46/// /0610 10118 20061 39982 40242=
94926 46/// /2003 10082 20065 39578 40275=
94935 46/// /0110 10137 20090 30226 40254=
94954 46/// /0520 10120 20103 30067 40179=
94956 46/// /3605 10117 20074 30146 40172=
94975 46/// /3107 10049 20034 30201 40235=
94983 46/// /0326 10139 20107 30220 40245=
94995 46/// /0914 10175 20043 30277 40286=
94996 46/// /1314 10162 20090 30088 40220=
94997 NIL=
94998 46/// /2620 10054 20045 30184 40195=
95111 46/// /1505 10265 20184 30115 40151=
95205 46/// /0000 10236 20230 30147 40155=
95322 NIL=
95448 46/// /2806 10056 20053 39610 40196=
95458 46/// /2710 10143 20097 39898 40168=
95480 46/// /0310 10125 20120 30124 40186=
95481 46/// /3310 10130 20087 30157 40203=
95482 46/// /3613 10142 20096 30137 40194=
95485 46/// /0215 10134 20104 39981 40195=
95492 46/// /0111 10161 20108 30059 40218=
95527 46/// /0710 10159 20065 30007 40272=
95634 46/// /3405 10054 20051 39763 40179=
95637 46/// /3405 10038 20028 39817 40160=
95646 46/// /2918 10092 20059 39959 40151=
95666 NIL=
95719 46/// /0710 10122 20089 39919 40264=
95762 46/// /1409 10141 20065 39798 40275=
95839 46/// /0224 10101 20084 39978 40142=
95864 46/// /0117=
95966 46/// /3610 10102 20080 30030 40237=
96995 46/// /1410 10232 20222 39827 40123=
96996 41465 61215 10246 20223 30125 40129 53011 71522 86801=
####018001994####
SMKW10 OKBK 100000
AAXX 10004
40550 37/23 /2504 10296 20275 49996 58008 71011
  333 0/029 55300 00000 10277 20000 30000 41441 51718 60000 55407
40000 90069 90467 91007 91115 91207 91303=
40551 36/// /1609 10300 20262
  333 0//// 90467 91009 91117 91213 91305=
40552 37/00 /1902 10278 20270 49998 56007 76165
  333 0/028 55300 90007 90467 91003 91119 91213 91305=
40568 36/// /1906 10295 20277
  333 0//// 90467 91007 91117 91213 91309=
40569 NIL=
40570 37/57 /3207 10303 20004 40007 55001 70411
  333 0/030 55300 90069 90467 91007 91119 91211 91307=
40571 NIL=
40572 NIL=
40573 36/// /2206 10306 20092
  333 0//// 90467 91007 91113 91209 91305=
40580 36/// /1403 10310 20276
  333 0/031 553// 00000 10250 20000 30000 41490 51740 60000 55407
40000 90467 91005 91113 91205 91301=
40581 36/// /1003 10311 20287
  333 0//// 90467 91003 91113 91207 91303=
40582 31920 02303 10297 20278 40001 56004 71000
  333 01029 55300 00000 10219 20000 30000 41498 51717 60000 55407
40000 90467 91003 91117 91209 91303=
40583 NIL=
40585 36/// /1806 10296 20282 222// 1//// 3//// 4//// 70///
  333 0//// 90467 91007 91117 91213 91307=
40586 36/// /2203 10306 20269
  333 0//// 90467 91005 91117 91211 91303=
40587 36/// /1605 10299 20264
  333 0/029 553// 00000 10245 20000 30000 41463 51707 60000 55407
40000 90467 91007 91111 91205 91303=
40588 37/28 /2004 10295 20277 40000 56005 71011
  333 0/029 55300 90069 90467 91007 91117 91213 91305=
40589 NIL=
40590 36/// /2303 10281 20219
  333 0//// 90467 91003 91121 91213 91303=
40591 NIL=
40592 37/20 /2803 10295 20279 40002 55001 71011
  333 0/030 55300 00000 10188 20000 30000 41545 51736 60000 55407
40000 90069 90467 91005 91115 91205 91301=
40593 36/// /2906 10307 20285
  333 0//// 90467 91007 91119 91215 91309=
40594 36/// /2903 10301 20277
  333 0//// 90467 91005 91115 91209 91305=
40596 36/// /2007 10308 20291
  333 0//// 90467 91007 91113 91209 91307=
####018001053####
SMSD10 OEJD 100000
AAXX 10004
40356 32960 03406 10270 20030 39124 48491 333 58007 555 04410 50006=
40357 32960 03507 10305 20060 39434 40014 333 58011=
40360 32960 03018 10252 20140 39499 40039 333 59001=
40361 32960 20505 10334 20000 39304 40002 82030 333 58002 82360=
40362 NIL=
40373 32960 03106 10320 20040 39608 49998 333 59013=
40375 32960 03210 10310 20010 39217 40022 82030 333 58006 823060=
40377 32960 00613 10345 20100 39559 49996 333 59007=
40394 32960 02402 10294 20020 38974 48491 333 59002 555 04410 50007=
40400 32960 03212 10288 20260 39996 40023 333 58003=
40405 32960 03608 10350 20070 39319 49993 333 59004=
40410 NIL=
40416 32960 01605 10320 20250 39956 49975 333 59004=
40417 31958 01608 10328 20240 39971 49984 70500 333 59005=
40420 32960 01603 10349 20210 39795 49986 333 59007=
40430 32660 20000 10365 21020 39327 49987 82500 333 58007 82645=
40435 NIL=
40437 32960 03004 10311 21030 39338 49985 333 59019=
40438 NIL=
40439 32960 22604 10346 20080 39976 49986 82030 333 58001 82360=
####018000974####
SMAU01 AMMC 100000
AAXX 10004
94102 46/// /1108 10263 20234 30143 40153=
94103 NIL=
94120 46/// /1111 10264 20191 30114 40154=
94122 46/// /0906 10263 20219 30145 40154=
94131 46/// /0907 10260 20159 30005 40162=
94132 NIL=
94147 NIL=
94150 46/// /1112 10269 20215 30094 40156=
94151 NIL=
94170 46/// /1209 10274 20203 30133 40155=
94200 NIL=
94203 46/// /1403 10232 20225 30146 40157=
94206 46/// /0103 10247 20240 30023 40156=
94207 46/// /1610 10251 30140 40149 53020=
94211 NIL=
94212 46/// /2501 10242 20181 39678 40165=
94216 46/// /1803 10246 20183 30103 40154=
94236 NIL=
94238 46/// /0513 10188 20076 39746 40183=
94248 NIL=
94255 46/// /0905 10197 20112 39917 40189=
94268 46/// /0708 10262 20190 30157 40170=
94287 46/// /1709 10237 20188 30187 40196=
94290 NIL=
94294 46/// /2004 10235 20133 30204 40215=
94296 35/// /1415 10245 30168 40178 52008=
94298 46/// /1311 10236 30183 40189 51009=
95641 NIL=
####018000426####
SMAU40 AMMC 100000
AAXX 10004
94127 35/// /1111 10260 20165 30154 40156 53022=
94307 45/// /1213 10184 20092 30140 40174 53018
  333 20151=
94310 46/// /1325 10201 20108 30152 40164 52024=
94974 35/// /0122 10133 30142 40165 57017=
95283 46/// /1307 10237 20214 30174 40181=
95288 46/// /1426 10246 30160 40175 51017=
95756 46/// /3305=
95872 46/// /3621=
95961 35/// /0509 10098 30137 40179 57020=

####018000030####
SMNG01 AMMC 100000
NIL

####018001311####
SMUZ10 UTTW 100000
AAXX 10001
38141 42998 00301 10208 20043 39965 40114 52008 555 10018=
38149 42998 00202 10220 20127 30030 40101 52010 555 10019=
38178 42998 03604 10227 20045 39797 40063 52005 555 10021=
38262 NIL=
38264 42998 00104 10230 20030 30005 40092 52014 333 00019 555 10020=
38396 42997 03604 10241 20076 39955 40071 52009 333 00022 555 10021=
38403 429// 00204 10299 20133 39923 40033 52013 555 10028=
38413 429// 03602 10349 20093 39776 40035 53013 555 10030=
38457 41597 70703 10271 20111 39470 40006 57008 70282 87300 555
10019=
38462 42699 50000 10136 20080 38732 48477 53011 83950 555 30010=
38565 326// 30000 10263 20119 39494 40031 53012 82100 555 10023=
38579 32598 43403 10313 20110 39622 49998 57005 84900 333 00027 555
10027=
38583 32597 60903 10287 20148 39713 40005 57005 86900 333 00024 555
10024=
38611 42797 60508 10250 20149 39529 40055 52006 84960 333 00021 85049
555 10021=
38618 42599 72801 10206 20158 39394 40036 56005 84941 333 00019 555
10019=
38683 42997 20000 10264 20113 39757 40010 57002 82030 333 00023 555
10024=
38696 32999 20000 10252 20120 39232 40019 57005 82040 333 00019 555
10019=
38812 42997 00000 10241 20120 39603 40022 53001 555 10020=
38927 32960 00203 10228 20164 39678 40028 51002 555 10021 52020=
####018000518####
SMGG10 UGGG 100000
AAXX 10001
37395 42797 80000 10244 20226 39980 40111 52002 8452/
  555 10023=
37409 41/91 92702 10155 20155 38758 48496 52002 74544
  333 95090
  555 10015=
37432 42697 20000 10165 20123 38951 48509 52001 82500
  555 10014=
37484 42597 81202 10243 20217 30101 40110 54000 883//
  555 10022 91103=
37514 42996 00000 10174 20162 39005 40100 54000=
37545 429// 00000 10233 20169 39611 40091 52003=
37621 429// 02705 10251 20171 39487 40080 54000
  555 10023=
37404 NIL=
####018000905####
SMBY40 UMMN 100000
AAXX 10001
26643 42962 00000 10168 20154 30059 40215 51005 555 11017=
26653 41912 20000 10167 20164 30055 40212 52003 71011 80001 555
12017=
26657 42970 03401 10158 20151 39987 40216 51002 555 11015=
26668 41950 02701 10180 20172 30002 40208 52005 71000 555 10018=
26759 42568 33502 10184 20174 39986 40207 54000 83500 555 11017=
26774 41958 23601 10167 20161 39962 40199 52002 71000 80001 555
11018=
26853 42960 03501 10174 20171 30022 40203 54000 555 11016=
26855 41956 00000 10176 20168 30001 40209 54000 71011 555 10015=
26864 41556 30000 10161 20152 30018 40202 52003 71011 83500 555
11016=
26878 41996 03201 10153 20148 39993 40192 54000 71000 555 11016=
26966 42967 00000 10168 20158 30030 40198 52001 555 11015=
33038 41934 02801 10144 20140 30027 40197 58009 71011 555 10014=
33124 41956 03001 10140 20132 30059 40198 58007 71200 555 10016=
####018000115####
SNVD20 KWNB 092300 RRV
BBXX
44056 09231 99362 70757 46/// ///// 1//// 92315 22200 00269 10702
20702 70011=
####018000227####
SMVD22 KWNB 100000 RRH
BBXX
46023 10001 99347 71210 46/// /3207 10136 40139 56010 92350 22200
00141 11302 20401 3//// 41302 70011 333 91209 555 11073 22077
32317 43209 62349 321074 327075 324073 324074 328070 330065=
####018000125####
SMVD45 KWNB 100000 RRF
BBXX
45022 10001 99454 70851 46/// /2702 10214 40160 90010 22200 00196
1//00 70002 333 91204=
####018000113####
SMVD15 KWNB 100000 RRH
BBXX
41038 10001 99341 70777 46/// /2208 10280 40100 90000 22200 00272
333 91211=
####018000089####
SMLV10 UMRR 100000 RRA
AAXX 10001
26416 43/// /2201 10154 20145 30094 40230 54000=
