####018000147####
SMVD20 KWNB 100000 RRP
BBXX
44030 10001 99432 70704 46/// /1607 10195 40110 56011 90004 22200
00179 10502 70011 333 91208 555 11096 22106=
####018000450####
SMVD15 KWNB 100000 RRW
BBXX
42369 10001 99272 70903 46/// /0502 10290 92340 22200 10501 70005=
42370 10001 99273 70905 46/// ///02 10291 92340 22200 10501 70005=
42374 10001 99289 70881 46/// ///04 10307 40130 92340=
42376 10001 99291 70879 46/// /2603 10290 40122 92340 22200 10201
70005=
42392 10001 99272 70900 46/// ///// 1//// 92340 22200 10301 70004=
42887 10001 99282 70885 46/// /0000 10300 20240 92340 22200 10601
70007=
####018000719####
SMBZ05 SBBR 100000 RRA
AAXX 10004
82863 32996 10000 10254 20215 39906 40118 80001 333 10364 29064 55095 59004=
83214 31791 21404 10253 20173 39792 40112 70544 82400 333 10353 29058 55108 59009=
83228 32996 00000 10220 20167 39839 40115 333 10344 29058 55102 59007=
83309 31992 00000 10224 20175 39823 40149 71040 333 10354 29066 55/// 58013=
83319 32991 00000 10202 20148 39794 40169 333 10343 29064 55096 58009=
83368 32996 00000 10236 20185 39770 40141 333 10340 29060 55097 58009=
83374 32995 02304 10230 20148 39572 40145 333 10350 29/// 55091 58012=
83405 32992 0//// 10260 20177 39950 40083 333 10342 29061 55080 58000=
83526 32997 01401 10203 20127 39220 40161 333 10291 29052 55/// 58010=
####018001102####
SMBZ03 SBBR 100000 RRB
AAXX 10004
83384 329// 01803 10226 20122 39562 40142 333 10319 29050 55/// 59006=
83386 32995 02702 10185 20139 39616 40151 333 10322 29060 55100 59003=
83388 32497 1//// 10246 20141 39458 40125 81100 333 10312 29048 55103 59002=
83393 329// 01401 10198 20159 39451 40180 333 10268 29071 55044 59005=
83442 32595 20000 10236 20176 39808 40155 82200 333 1//// 29061 55/// 59004=
83479 32998 00000 10208 20151 39368 40168 333 10289 29064 55071 58001=
83483 32996 02303 10207 20146 39593 40166 333 10310 29062 55073 58002=
83531 329// 00901 10176 20121 39131 40181 333 10263 29065 55031 58004=
83538 32995 01401 10157 20142 38751 40156 333 10236 29079 55066 58001=
83574 327// 50000 10224 20118 39635 40249 5//// 85100 333 10329 29041 55093=
83582 325// 30901 10152 20141 39406 40186 53011 83200 333 10262 29082 55050=
83595 325// 60902 10240 20199 30099 40184 83250 333 10310 29074 55048 58000=
83687 32696 23201 10182 20117 39159 40173 53010 82100 333 10248 29062 55047=
83692 32697 70504 10194 20136 39138 40175 53005 87200 333 10254 29066 55097=
####018000129####
SMBZ06 SBBR 100000 RRB
AAXX 10004
83970 41595 82903 10150 20116 40213 52001 7032/ 882// 222// 02155 20501 80130 333 10115=
####018001046####
SMBZ04 SBBR 100000 RRA
AAXX 10004
83783 32797 81805 10194 20177 39504 40180 53010 8802/ 333 10262 29085 55081=
83811 32597 60502 10156 20122 39285 40205 53005 83440 333 10256 29076 55070=
83844 32597 81802 10196 20184 30199 40206 52015 8572/ 333 10244 29087 55///=
83887 21597 82302 10144 20138 39160 40218 51010 72021 886// 333 10187 29091 55018 69901=
83907 21/92 90903 10164 20159 39919 40209 5//// 74265 333 10175 29096 55000 60011=
83914 21596 80000 10134 20125 39434 40222 55000 71062 8572/ 333 10156 29095 55000 60061=
83919 21396 80502 10120 20112 39028 40221 58002 75265 887// 333 10142 29094 55000 60051=
83927 32597 81802 10150 20112 30111 40186 52015 885// 333 10210 29081 55017=
83936 21496 81401 10142 20139 30107 40233 52010 71052 885// 333 10146 29097 55000 69921=
83948 21595 80000 10156 20154 30199 40206 5//// 72065 889// 333 10165 29098 55000 60041=
83964 31/90 91802 10116 20113 39722 40233 52010 74740 333 10130 29096 55000=
83995 32497 21802 10172 20117 30196 40199 51020 82100 333 10184 29078=
####018000293####
SMIN03 DEMS 100000 RRB
AAXX 10004
42779 32596 80000 10248 20237 39348 40031 8451/
  333 59008 84620 88458=
42874 22495 82002 10254 20242 40037 8561/
  333 5669/ 59005 6992/ 83712 84620 88459=
43041 32496 81802 10236 20227 39451 40062 8562/
  333 5649/ 59009 83715 85620 88458=
####018000131####
SMVS02 VNNN 100000 RRB
AAXX 10001
48806 32470 70000 10249 20236 39313 40065 52011 333 00028 20242
3/026 59001 81894 87696=
####018000224####
SNAA01 KARS 092300 RRE
AAXX 0923/
89872 46/// ///// 11281 39738 4//// 5////=
89329 46/// ///// 11318 38524 4//// 5////=
89108 46/// ///// 11625 36898 4//// 5////=
89879 46/// ///// 11169 39720 4//// 5//// 92310=
####018000109####
SMXX18 KAWN 091800 RRB
BBXX
UFLT 09181 99499 11539 42/94 92005 10031 40193 51034 22213 00110
 20401=
####018000114####
SMPO01 LPMG 100000 CCA
AAXX 10001
08512 32370 52702 10202 20190 30147 40238 52007 85800
333  82708 83812=
####018000124####
SMPO60 LPMG 100000 CCA
AAXX 10001
08512 32370 52702 10202 20190 30147 40238 52007 85800
333  82708 83812 555 60005=
####018000109####
SMAL01 DAMM 100000 RRA
AAXX 10004
60475 12965 01214 10244 20122 39278 48585 51004 60001
  333 95990=
####018001257####
SMKO04 RKSL 100000
AAXX 10001
47003 11260 80000 10175 20151 30122 40126 52007 60022 75155 886// 333
20165=
47005 32580 81801 10140 20127 38553 54000 885// 333 20117=
47022 12275 80000 10150 20143 38838 52014 69912 8667/ 333 20126=
47028 32461 80000 10221 20207 30003 40091 52013 886// 333 20193=
47031 11570 80000 10154 20147 38904 52009 69932 72162 885// 333 20134=
47037 31567 80000 10226 20211 39980 40094 52010 70142 8753/ 333 20205=
47039 31560 80000 10204 20188 39926 40106 52005 71022 885// 333 20185=
47046 11569 80501 10199 20190 30086 40107 52014 60012 76066 885// 333
20194=
47050 32565 60000 10240 20206 30064 40095 52009 86500 333 20202=
47052 32565 80000 10220 20204 39784 40101 52014 885// 333 20192=
47060 31540 80902 10231 20220 30034 40088 54000 71022 885// 333 20204=
47061 11960 80000 10235 20228 30052 40093 52003 69912 71022 8807/ 333
20192=
47065 31940 81404 10239 20225 30032 40093 52005 71022 80001 333 20209=
47067 31560 80000 10226 20204 39996 40108 52011 71022 885// 333 20200=
47068 31940 80903 10228 20212 30053 40086 52010 71042 8802/ 333 20201=
47070 31950 80000 10217 20214 30023 40105 52006 71042 80002 333 20208=
47075 32580 80000 10225 20194 39544 49937 52003 885// 333 20181=
####018000766####
SMKO02 RKSL 100000
AAXX 10001
47008 31560 80000 10190 20175 30072 40123 52002 71022 8667/ 333 20173=
47014 31540 80000 10190 20152 39727 40103 52010 71044 886// 333 20170=
47016 32570 60000 10178 20147 39309 40130 58007 86500 333 20144=
47020 31560 80000 10203 20185 39754 40103 52013 71044 885// 333 20170=
47025 12575 81401 10193 20185 30086 40114 53019 69962 885// 333 20186=
47035 31960 80000 10237 20210 30084 40092 52012 71022 8801/ 333 20219=
47041 12565 80000 10213 20197 30081 40107 52021 69902 885// 333 20201=
47055 11565 80502 10213 20210 30062 40105 52009 60232 76066 8802/ 333
20209=
47058 31958 80901 10231 20213 30050 40094 52007 71022 86032 333 20200=
47069 31539 81402 10229 20215 39996 40089 52009 71022 885// 333 20210=
####018000127####
SMJP02 RJTD 100000 CCA
AAXX 10004
47741 11/60 73002 10261 20220 30084 40110 50002 69902 70282 83232
  333 20231 79999=
####018000127####
SMJP01 RJTD 100000 CCA
AAXX 10004
47412 11/60 71302 10223 20187 30046 40076 56007 69952 72522 872//
  333 20207 70005=
####018001268####
SMBZ83 KAWN 100000 RRB
AAXX 10004
83309 31992 00000 10224 20175 39823 40149 71040 333 10354 29066
 55/// 58013=
83386 32995 02702 10185 20139 39616 40151 333 10322 29060 55100
 59003=
83393 329// 01401 10198 20159 39451 40180 333 10268 29071 55044
 59005=
83442 32595 20000 10236 20176 39808 40155 82200 333 1//// 29061
 55/// 59004=
83531 329// 00901 10176 20121 39131 40181 333 10263 29065 55031
 58004=
83582 325// 30901 10152 20141 39406 40186 53011 83200 333 10262
 29082 55050=
83595 325// 60902 10240 20199 30099 40184 83250 333 10310 29074
 55048 58000=
83687 32696 23201 10182 20117 39159 40173 53010 82100 333 10248
 29062 55047=
83692 32697 70504 10194 20136 39138 40175 53005 87200 333 10254
 29066 55097=
83783 32797 81805 10194 20177 39504 40180 53010 8802/ 333 10262
 29085 55081=
83811 32597 60502 10156 20122 39285 40205 53005 83440 333 10256
 29076 55070=
83919 21396 80502 10120 20112 39028 40221 58002 75265 887// 333
 10142 29094 55000 60051=
83927 32597 81802 10150 20112 30111 40186 52015 885// 333 10210
 29081 55017=
83948 21595 80000 10156 20154 30199 40206 5//// 72065 889// 333
 10165 29098 55000 60041=
83995 32497 21802 10172 20117 30196 40199 51020 82100 333 10184
 29078=
####018001208####
SMBZ83 KAWN 100000 RRA
AAXX 10004
83179 32994 01401 10273 20137 39669 40116 333 10349 29044 55107
 59007=
83214 31791 21404 10253 20173 39792 40112 70544 82400 333 10353
 29058 55108 59009=
83228 32996 00000 10220 20167 39839 40115 333 10344 29058 55102
 59007=
83319 32991 00000 10202 20148 39794 40169 333 10343 29064 55096
 58009=
83368 32996 00000 10236 20185 39770 40141 333 10340 29060 55097
 58009=
83374 32995 02304 10230 20148 39572 40145 333 10350 29/// 55091
 58012=
83384 329// 01803 10226 20122 39562 40142 333 10319 29050 55///
 59006=
83388 32497 1//// 10246 20141 39458 40125 81100 333 10312 29048
 55103 59002=
83405 32992 0//// 10260 20177 39950 40083 333 10342 29061 55080
 58000=
83479 32998 00000 10208 20151 39368 40168 333 10289 29064 55071
 58001=
83483 32996 02303 10207 20146 39593 40166 333 10310 29062 55073
 58002=
83526 32997 01401 10203 20127 39220 40161 333 10291 29052 55///
 58010=
83538 32995 01401 10157 20142 38751 40156 333 10236 29079 55066
 58001=
83574 327// 50000 10224 20118 39635 40249 5//// 85100 333 10329
 29041 55093=
83718 325// 80000 10190 20171 30962 40208 52028 888// 333 10274
 29076 55087=
####018000238####
SNHK22 VHHH 100045
AAXX 10001
45032 36/// /1601 10302 20243 30082 40098 52002=
45035 36/// /2505 10289 20256 30055 40096 52001=
45039 36/// /2004 10307 20251 30080 40095 52002=
45044 36/// /2602 10287 20269 30008 40097 52002=
####018000241####
SNHK22 VHHH 100045
AAXX 10001
45032 36/// /1601 10302 20243 30082 40098 52002=
45035 36/// /2505 10289 20256 30055 40096 52001=
45039 36/// /2004 10307 20251 30080 40095 52002=
45044 36/// /2602 10287 20269 30008 40097 52002=

####018000091####
SMAA01 LIIB 100000
AAXX 10004
89625 46/// /2605 11685 29028 36452 4//// 5//// 90000=
####018000158####
SMXX18 KAWN 100000 RRB
BBXX
LAXS2 10004 99531 11718 41596 83527 10100 20080 40165 57000 70222
 8875/ 22213 0//// 20604 304// 40604 5//// 6//// 80080=
####018000028####
SMVE13 RUMS 100000
NIL=
####018000069####
SALY31 HLLS 100100
METAR HLLS 100050Z 08013KT CAVOK 26/10 Q1016=
####018000102####
SMCN34 CWAO 100000 RRG
AAXX 10004
71495 16/// /1006 10226 20133 60001 333 10297 20082 70000=

####018000122####
SMCN36 CWAO 100000 RRE
AAXX 10004
71682 16/// /2403 10241 20105 39924 40144 57012 60001 333 10247
20115 70021=

####018000102####
SMCN28 CWAO 100000 RRB
AAXX 10004
71848 16/// ///// 10309 20099 60001 333 10319 20123 70000=

####018000116####
SMCN24 CWAO 100000 RRF
AAXX 10004
71408 46/// /2315 10129 30061 40139 53004 6///1 333 10136 20116
7////=

####018000096####
SMCN29 CWAO 100000 RRD
AAXX 10004
71947 46/// /3106 10164 6///1 333 10184 20159 7////=

####018000102####
SMCN20 CWAO 100000 RRE
AAXX 10004
71013 16/// ///// 10287 20106 60001 333 10306 20114 70000=

####018000224####
SMCN35 CWAO 100000 RRC
AAXX 10004
71565 16/// /1506 10242 20145 60001 333 10281 20067 70012=
71566 16/// /3018 10186 20115 60001 333 10291 20143 70033=
71567 16/// /2906 10258 20119 60001 333 10267 20086 70000=

####018000122####
SMCN39 CWAO 100000 RRF
AAXX 10004
71974 16/// /3119 10035 20013 39963 40004 51018 60001 333 10083
20027 70003=

####018000102####
SMCN37 CWAO 100000 RRE
AAXX 10004
71793 16/// ///// 10289 20079 60001 333 10295 20120 70000=

####018000108####
SMCN25 CWAO 100000 RRE
AAXX 10004
71522 46/// /3203 10188 20178 39644 53004 6///1 333 10218 7////=

####018000102####
SMCN33 CWAO 100000 RRG
AAXX 10004
71399 16/// ///// 10294 20109 60001 333 10301 20106 70000=

####018000728####
SMAA01 KARS 100000 RRB
AAXX 1000/
89667 46/// ///// 4//// 5////=
89768 46/// ///// 11294 38671 4//// 5//// 90030=
89377 46/// ///// 11320 39730 4//// 5//// 90030=
89869 46/// ///// 11281 39718 4//// 5//// 90030=
89866 46/// ///// 11228 39659 4//// 5//// 90030=
89376 46/// ///// 11396 39687 4//// 5//// 90030=
89324 46/// ///// 11283 37886 4//// 5//// 90030=
89329 46/// ///// 11314 38519 4//// 5//// 90030=
89799 46/// ///// 11620 4//// 5//// 90030=
89868 46/// ///// 11309 39715 4//// 5//// 90040=
89332 46/// ///// 11346 38948 4//// 5//// 90030=
89314 46/// ///// 11334 38031 4//// 5//// 90030=
89828 46/// ///// 11690 36511 4//// 5//// 90030=
89108 46/// ///// 11625 36900 4//// 5//// 90030=
####018000197####
SMAA01 KARS 100000 RRA
AAXX 10004
89667 46/// /0820 11287 29076 39786 4//// 5//// 90030=
89667 46/// /0920 11285 39786 4//// 5//// 90020=
89667 46/// /0821 11284 39787 4//// 5//// 90010=
####018000067####
SNAA01 KARS 100000
AAXX 1000/
89667 46/// ///// 4//// 5////=
####018000491####
SNVD22 KWNB 100100
BBXX
46245 10011 99343 71193 46/// ///// 1//// 90036 22200 00167 11301
21001 318// 41301 70007=
46243 10011 99462 71241 46/// ///// 1//// 90034 22200 00141 10702
20702 319// 41301 70011=
46241 10011 99330 71173 46/// ///// 1//// 90038 22200 00185 11101
21001 323// 41101 70006=
46240 10011 99366 71219 46/// ///// 1//// 90045 22200 00133 11101
20801 70004=
46237 10011 99378 71226 46/// ///// 1//// 90036 22200 00146 11301
21001 322// 41301 70007=
####018000218####
SNVE15 KWNB 100100
BBXX
51200 10011 99211 71583 46/// ///// 1//// 90043 22200 00259 10603
20603 316// 41101 70015=
51203 10011 99208 71570 46/// ///// 1//// 90045 22200 00260 11701
20801 320// 41701 70006=
####018000590####
SMVD22 KWNB 100000 RRV
BBXX
46229 10001 99438 71246 46/// ///// 1//// 90008 22200 00129 10702
20702 320// 41401 70010=
46216 10001 99343 71198 46/// ///// 1//// 90024 22200 00169 10501
20501 70007=
46225 10001 99329 71174 46/// ///// 1//// 90025 22200 00179 11202
21001 320// 41201 70008=
46223 10001 99335 71178 46/// ///// 1//// 90026 22200 00183 11201
21001 319// 41201 70007=
46222 10001 99336 71183 46/// ///// 1//// 90018 22200 00182 11301
20501 318// 41301 70006=
46215 10001 99352 71209 46/// ///// 1//// 90009 22200 00121 11302
20801 321// 41301 70008=
####018000127####
SMVD22 KWNB 100000 RRW
BBXX
46242 10001 99332 71174 46/// ///// 1//// 90027 22200 00177 11301
21001 320// 41301 70007=
####018000127####
SNVD22 KWNB 100100 RRA
BBXX
46218 10011 99345 71208 46/// ///// 1//// 90043 22200 00146 11302
20802 318// 41301 70011=
####018000083####
SMSE01 LFVW 100000 RRA
AAXX 1000/
95997 46/// ///// 10012 39960 49964 5////=
####018000142####
SMAA17 LFVW 100000 RRA
AAXX 1000/
89610 46/// ///// 39718 4//// 5////
  333 90700 91150=
89767 46/// ///// 11271 39750 4//// 5////=
####018000175####
SMAA17 LFVW 100000
AAXX 10004
89811 46/// /0000 11265 38272 4//// 5////=
89016 46/18 /1211 11297 29057 39478 4//// 5////=
89586 46/// /04// 11312 37464 4//// 5////=
####018000222####
SNVD22 KWNB 100100 RRB
BBXX
46211 10011 99469 71242 46/// ///// 1//// 90036 22200 00150 10702
20702 321// 41301 70012=
46214 10011 99379 71235 46/// ///// 1//// 90034 22200 00100 11302
20802 318// 41301 70011=
####018000115####
SNVD20 KWNB 100100 RRA
BBXX
44098 10011 99428 70702 46/// ///// 1//// 90037 22200 00199 10802
20802 70009=
####018000093####
SMVX81 EDZW 100000
BBXX
66024 10001 99547 10127 46/// /1306 10211 30210
22200 00181=
####018000083####
SNSE01 LFVW 092300 RRA
AAXX 0923/
95997 46/// ///// 10008 39939 49943 5////=
####018000118####
SNAA17 LFVW 100100
AAXX 10014
89578 46/// /05// 11545 36790 4//// 5////=
89577 46/// /3003 11726 4//// 5////=
####018000125####
SMVD20 KWNB 100000 RRQ
BBXX
44039 10001 99411 70727 46/// /1703 10256 20231 40117 90030 22200
1//00 70002 333 91204=
####018000167####
SMAA01 SAWB 100000 RRC
AAXX 10004
88963 31300 82345 11122 21171 39682 49713 53035 73973 887// 333 11075 21135
56599 88707 90067 90090 90305 90668 92952 96022=
####018000072####
SALY31 HLLT 100100
METAR HLLT 100050Z 07006KT 6000 SKC 23/20 Q1017=
####018000072####
SALY31 HLLS 100100
METAR HLLS 100050Z 
08013KT CAVOK 26/10 Q1016 =
####018000140####
SMCN08 CWAO 100100 CCA
AAXX 10014
71922 11508 82718 10171 20139 39643 40095 53014 60101 79598 883//
333 10278 20092 70100 90917=

####018000137####
SMCN08 CWAO 100100 CCA
AAXX 10014
71922 11508 82718 10171 20139 39643 40095 53014 60101 79598 883//
333 10278 20092 70100 90917=
