####018000118####
SNAC01 KWNB 100200
OOXX
ACSAMS02 10021 99784 70729 26082 01301 46/// /2004 10011 20009 39917
90201 333 91214=
####018000089####
SMPS40 AMMC 100000 RRG
AAXX 10004
91375 46/// /0105 10294 40115 22200 00283=


####018000385####
SNVD15 KWNB 100100 RRW
BBXX
42369 10011 99272 70903 46/// /1002 10288 90100 22200 10401 70005=
42370 10011 99273 70905 46/// ///02 10292 90100 22200 10501 70005=
42374 10011 99289 70881 46/// ///04 10288 40141 52004 90100=
42376 10011 99291 70879 46/// /2604 10288 40131 54000 90100 22200
10201 70004=
42392 10011 99272 70900 46/// ///// 1//// 90100 22200 10301 70005=
####018000334####
SNIY21 LIIB 100200
AAXX 10024
16022 42970 20105 10146 20125 37974 48588 58006 80001=
16052 NIL=
16061 42965 01203 10230 20181 39390 42840 58004=
16098 42960 00000 10216 20197 30149 40199 58008=
16179 42982 00000 10218 20073 39550 42849 54000=
16224 NIL=
16258 42960 03407 10178 21019 39230 42829 5////=
16344 NIL=
####018000533####
SNIY20 LIIB 100200
AAXX 10024
16008 NIL=
16088 NIL=
16110 NIL=
16134 NIL=
16153 42998 00506 10260 20251 39950 40203 54000 555 0////=
16206 NIL=
16219 NIL=
16280 NIL=
16310 42998 02502 10210 20122 39968 40184 58002 555 0////=
16360 42998 03622 10210 20182 30033 40164 58012 555 0////=
16400 NIL=
16420 42998 00000 10250 20227 30110 40173 58011 555 0////=
16429 42962 00000 10256 20246 30180 40191 56000=
16470 NIL=
16480 NIL=
16522 NIL=
16550 42998 03107 10250 20189 30005 40177 58005 555 0////=
####018001135####
SNCN19 CWAO 100101
OOXX
CAP14 09221 99486 71234 ///// //201
     26/// /1103 10296 29033 30125 92250 333 60000=
CAP14 09231 99486 71234 ///// //201
     26/// /1103 10288 29033 30125 92300 333 60000=
CAP14 09231 99486 71234 ///// //201
     26/// /1103 10281 29037 30125 92310 333 60000=
CAP14 09231 99486 71234 ///// //201
     26/// /1403 10274 29040 30126 92320 333 60000=
CAP14 09231 99486 71234 ///// //201
     26/// /1202 10273 29039 30125 92330 333 60000=
CAP14 09231 99486 71234 ///// //201
     26/// /1302 10274 29039 30125 92340 333 60000=
CAP14 09231 99486 71234 ///// //201
     26/// /1403 10266 29040 30124 92350 333 60000=
CAP14 10001 99486 71234 ///// //201
     26/// /1402 10266 29043 30123 90000 333 60000=
CAP14 10001 99486 71234 ///// //201
     26/// /1402 10262 29042 30122 90010 333 60000=
CAP14 10001 99486 71234 ///// //201
     26/// /1302 10260 29044 30123 90020 333 60000=
CAP14 10001 99486 71234 ///// //201
     26/// /1302 10262 29043 30122 90030 333 60000=
CAP14 10001 99486 71234 ///// //201
     26/// /1302 10262 29043 30121 90040 333 60000=

####018000127####
SNVD22 KWNB 100100 RRX
BBXX
46224 10011 99332 71175 46/// ///// 1//// 90116 22200 00178 11301
21001 320// 41301 70007=
####018000773####
SNVD15 KWNB 100200 RRE
BBXX
41141 10021 99177 70646 46/// ///// 1//// 90151 22200 00295 10703
20703 70014=
41140 10021 99178 70647 46/// ///// 1//// 90152 22200 00293 10702
20702 70009=
44100 10021 99363 70756 46/// ///// 1//// 90152 22200 00264 10702
20702 70010=
44235 10021 99473 70573 46/// ///// 1//// 90154 22200 00125 10603
20603 70013=
41110 10021 99341 70777 46/// ///// 1//// 90157 22200 00270 10801
20801 70007=
42099 10021 99273 70842 46/// ///// 1//// 90149 22200 00303 1//00
70002=
41113 10021 99284 70805 46/// ///// 1//// 90151 22200 00279 11101
21001 70004=
41114 10021 99276 70802 46/// ///// 1//// 90142 22200 00283 10201
20201 70004=
41112 10021 99307 70813 46/// ///// 1//// 90151 22200 00287 10401
20401 70006=
####018000768####
SNVD22 KWNB 100200 RRE
BBXX
46232 10021 99325 71174 46/// ///// 1//// 90154 22200 00185 11302
21001 319// 41301 70008=
46244 10021 99409 71244 46/// ///// 1//// 90150 22200 00108 10702
20702 70012=
46236 10021 99368 71219 46/// ///// 1//// 90150 22200 00131 11302
20402 321// 41301 70010=
46212 10021 99408 71243 46/// ///// 1//// 90151 22200 00108 10702
20702 70012=
46217 10021 99342 71194 46/// ///// 1//// 90151 22200 00170 11302
20402 320// 41301 70009=
46213 10021 99403 71247 46/// ///// 1//// 90150 22200 00123 10603
20602 318// 41401 70014=
46231 10021 99327 71174 46/// ///// 1//// 90142 22200 00185 11202
20901 320// 41201 70008=
46218 10021 99345 71208 46/// ///// 1//// 90143 22200 00146 11302
20902 318// 41301 70011=
####018000109####
SNAU40 AMMC 100100 RRC
AAXX 10014
94414 11680 40000 10140 20112 60054 70161 84800
  333 70052=


####018000125####
SNVD20 KWNB 100200 RRF
BBXX
44039 10021 99411 70727 46/// /1703 10254 20232 40122 90145 22200
1//00 70001 333 91204=
####018000115####
SNVD20 KWNB 100200 RRE
BBXX
44097 10021 99410 70711 46/// ///// 1//// 90201 22200 00240 10702
20702 70010=
####018000127####
SNVD22 KWNB 100200 RRF
BBXX
46211 10021 99469 71242 46/// ///// 1//// 90136 22200 00145 10802
20802 323// 41301 70011=
####018000120####
SNKI01 AMMC 100200
AAXX 10024
96995 171// 81214 10240 20225 39838 40135 51018 60064 7//44
  333 20215 70064=

####018000087####
SAKN64 HKMO 100200
METAR HKJK 100200Z 23006KT 9999 FEW017 BKN080 12/10 Q1022 NOSIG=
####018000105####
SNRE15 FMEE 100200
AAXX 10024
61998 26/// /2717 10041 20010 40118
  333 58111 60005 90710 91125=
####018000222####
SNVD17 KWNB 100200 RRB
BBXX
52201 10021 99071 11714 46/// ///// 1//// 90155 22200 00287 11302
20902 318// 41301 70012=
46239 10021 99363 71221 46/// ///// 1//// 90153 22200 00140 11402
20802 318// 41401 70010=
####018001933####
SNRO41 YRBK 100200
AAXX 10021
15015 22597 41801 10137 20119 39626 42838 57007 82540 333 60005 91003
91104=
15020 22597 33103 10184 20148 30004 40196 55003 83500 333 60005 91005
91106=
15090 22597 83303 10188 20161 30055 40177 57003 8657/ 333 55300 10066
2////
3//// 60005 91007 91107=
15108 NIL=
15120 22997 52302 10155 20154 39724 40209 57003 85070 333 55300 10071
2////
3//// 60005 91003 91103=
15150 22597 73305 10199 20150 39966 40183 58003 83570 333 60005 91008
91108=
15170 23/// /2601 10135 20130 39433 42826 57003 333 60005 91002
91102=
15200 22998 13301 10165 20148 30056 40197 57005 80001 333 60005 91001
91102=
15230 22597 72400 10153 20152 39921 40209 54000 87500 333 55300 10101
2////
3//// 60005 91001 91101=
15260 22998 62802 10158 20146 39683 40205 54001 86070 333 60005 91003
91103=
15280 21/90 90516 10042 20042 37564 47118 58006 74544 333 60005
91024=
15292 22998 03501 10146 20146 39910 40200 57007 333 60005 91002
91102=
15310 23/// /3503 10188 20176 30070 40153 57003 333 55300 10172 2////
3////
69945 91005 91106=
15335 21597 63402 10200 20189 30141 40148 58002 72582 86900 333 69905
91004
91105=
15346 22997 52400 10171 20145 39900 40182 54000 85070 333 60005 91001
91101=
15350 22597 70502 10221 20147 30049 40163 57003 83570 333 60005 91008
91109=
15360 22997 73503 10206 20196 30113 40126 57006 87070 333 60005 91011
91111=
15410 23/// /3300 10164 20144 30086 40180 57003 333 60005 91001
91101=
15420 22597 63002 10180 20165 30067 40174 57002 83370 333 60005 91002
91103=
15450 22997 50704 10182 20160 39946 40174 54000 81046 333 55300 10176
2////
3//// 60005 91005 91106=
15460 23/// /2902 10187 20178 30134 40158 58004 333 60005 91003
91103=
15470 23/// /3201 10180 20177 30048 40171 57002 333 60005 91001
91102=
15480 21597 83302 10198 20189 30122 40138 57005 78088 889// 333 69925
91005
91107=
####018000328####
SNVD15 KWNB 100200 RRF
BBXX
41038 10021 99341 70777 46/// /2107 10279 40105 52010 90200 22200
00270 333 91210=
42003 10021 99260 70856 46/// /1801 10284 20223 40170 51020 90150
22200 00301 10601 3//// 40601 70004 333 91201 555 11007 22007
30136 41502 60149 171007 148011 124004 110004 093006 059005 81501
90136=
####018000126####
SNVD02 CWAO 100200
BBXX
CG2965 10024 99489 71235 46/// /3311 10253 20128 40129 56010 7//// 8//// 22241 00202 2//// =

####018000124####
SNVD02 CWAO 100200
BBXX
VOLG 10024 99445 70626 46/// /2014 10186 20186 40179 53016 7//// 8//// 22223 0//// 2//// =

####018000126####
SNVD02 CWAO 100200
BBXX
CG2522 10024 99619 71136 46/// /2912 10116 20083 49925 58002 7//// 8//// 22200 00086 2//// =

####018000124####
SNVD02 CWAO 100200
BBXX
CGBR 10024 99529 71295 46/// /1001 10142 20136 40181 55006 7//// 8//// 22272 00132 2//// =

####018000125####
SNVD02 CWAO 100200
BBXX
VRYO3 10024 99519 10034 46/// /2314 10179 20151 40177 58002 7//// 8//// 22282 00179 2//// =

####018000127####
SNVD02 CWAO 100200
BBXX
CFN3031 10024 99467 70719 46/// /3202 10223 20211 40086 52004 7//// 8//// 22213 00251 2//// =

####018000124####
SNVD02 CWAO 100200
BBXX
CGTF 10024 99637 70685 46/// /1607 10061 20054 40070 53009 7//// 8//// 22200 0//// 2//// =

####018000124####
SNVD02 CWAO 100200
BBXX
CGDX 10024 99621 70711 46/// /1106 10052 20048 40049 58003 7//// 8//// 22253 00055 2//// =

####018000124####
SNVD02 CWAO 100200
BBXX
CGBN 10024 99476 70527 46/// /2411 10190 20159 40133 53014 7//// 8//// 22200 0//// 2//// =

####018000124####
SNVD02 CWAO 100200
BBXX
CGHL 10024 99622 70655 46/// /0509 10018 20017 40064 53012 7//// 8//// 22212 0//// 2//// =

####018000124####
SNVD02 CWAO 100200
BBXX
CGJK 10024 99527 71418 46/// /2422 10102 20097 40129 53012 7//// 8//// 22263 00104 2//// =

####018000126####
SNVD02 CWAO 100200
BBXX
CG2958 10024 99487 71235 46/// /0805 10239 20138 40139 58007 7//// 8//// 22200 0//// 2//// =

####018000126####
SNVD02 CWAO 100200
BBXX
CG2350 10024 99421 70831 46/// /0702 10244 20152 49932 51012 7//// 8//// 22200 0//// 2//// =

####018000121####
SNVD02 CWAO 100200
BBXX
V 10024 99476 70527 46/// /2409 10199 20179 40134 53014 7//// 8//// 22200 0//// 2//// =

####018000124####
SNVD02 CWAO 100200
BBXX
CGDG 10024 99441 70581 46/// /2217 10187 20186 40216 51011 7//// 8//// 22223 0//// 2//// =

####018000124####
SNVD02 CWAO 100200
BBXX
VOPP 10024 99452 70741 46/// /0203 10215 20213 40016 52010 7//// 8//// 22200 0//// 2//// =

####018000124####
SNVD02 CWAO 100200
BBXX
CGDT 10024 99633 70801 46/// /1412 10067 20065 40028 58010 7//// 8//// 22243 00071 2//// =

####018000124####
SNVD02 CWAO 100200
BBXX
CGDS 10024 99439 70819 46/// /3007 10198 20183 49930 53006 7//// 8//// 22271 00207 2//// =

####018000124####
SNVD02 CWAO 100200
BBXX
CGDP 10024 99508 71276 46/// /3313 10149 20118 40177 58011 7//// 8//// 22271 00135 2//// =

####018000126####
SNVD02 CWAO 100200
BBXX
VC6750 10024 99609 71157 46/// /0502 10167 20093 49942 58005 7//// 8//// 22200 0//// 2//// =

####018000126####
SNVD02 CWAO 100200
BBXX
CG2992 10024 99693 71339 46/// /2909 10189 20065 40102 58004 7//// 8//// 22251 0//// 2//// =

####018000115####
SNDL45 EDZW 100200 RRA
AAXX 10021
10238 42860 50000 10199 20157 30085 40176 57002 82530
  333 82658 84366=
####018000121####
SNDL46 EDZW 100200 RRA
AAXX 10021
10381 42980 11403 10186 20150 30107 40191 58002 80004
  333 55300 81076 99060=
####018000186####
SNVD15 KWNB 100100 RRX
BBXX
42887 10011 99282 70885 46/// /0000 10296 20236 90100 22200 10601
70007=
44055 10011 99391 70753 46/// ///// 1//// 90130 22200 00250 10301
70004=
####018000085####
SNPS40 AMMC 100100
AAXX 10014
91844 46/// /0606 10258 40176 22200 00252=


####018000089####
SMLJ21 LJLM 100000 RRB
AAXX 10001
14015 42982 00000 10197 29092 39877 40224 52005=
####018000105####
SNRE15 FMEE 100200
AAXX 10024
61996 26/// /2410 10117 20091 40253
  333 58005 60005 90710 91123=
####018001125####
SMPA01 RJTD 100000
AAXX 10004
91165 12566 20514 10289 20183 30152 40184 58013 69901 92353=
91203 11474 81406 10283 20261 30135 40140 52012 60554 71592 82977=
91212 31566 81110 10300 20250 31398 761// 90009=
91245 31566 40715 10320 20240 30167 716// 92357=
91285 12566 60608 10272 20183 30161 40174 58013 69931 92353=
91334 12474 80312 10304 20250 30107 40110 57002 60324 82171=
91348 12474 40604 10300 20241 30076 40128 58002 60054 82101=
91353 32474 40304 10317 20261 30104 40111 5//// 82101=
91369 32474 31705 10306 20272 30113 40116 83210=
91376 12474 80503 10304 20241 30115 40119 58003 60234 84871=
91408 11473 83605 10294 20247 30090 40128 52015 69984 70282 82271=
91413 11448 81110 10258 20240 30098 40123 52012 60384 79798 8696/=
91425 32474 50403 10283 20272 30117 40118 5//// 82205=
91434 32574 50605 10306 20249 30150 40153 5//// 82230=
91610 11599 19903 10304 20229 40121 58003 60001 70200 81100=
91155 NIL=
91217 NIL=
91232 NIL=
91250 NIL=
91275 NIL=
91317 NIL=
91324 NIL=
91339 NIL=
91356 NIL=
91366 NIL=
91367 NIL=
91371 NIL=
91378 NIL=
91601 NIL=
####018000124####
SNVD02 CWAO 100200
BBXX
VCLM 10024 99466 70722 46/// /3007 10223 20205 40080 53002 7//// 8//// 22262 00255 2//// =

####018000146####
SMXX17 KAWN 100000 RRA
BBXX
9VDD2 10004 99430 71793 41598 82722 10120 20080 40150 52030 70211
 86422 22264 00100 20202 327// 40506 80100=
####018000119####
SNPF80 KWBC 100200
AAXX 10024
91925 26/// /0912 10263 20215 30062 40122 55003 333 60005 90710
91127 555 1//27=
####018000027####
SNVJ20 EHDB 100200
NIL
####018000707####
SNVD20 KWNB 100200 RRG
BBXX
44060 10021 99413 70721 46/// /1301 10208 40124 53007 90200 22200
00189 333 91201 555 11005 22005=
44027 10021 99443 70673 46/// /1707 10159 20159 40134 56006 90150
22200 00138 10802 20601 300// 40801 70009 333 91208 555 11081
22090 30145 41708 60149 171072 171065 171066 174062 178061 178058=
44008 10021 99405 70692 46/// /1604 10211 20211 40134 53006 90150
22200 00187 10803 20401 315// 40803 70014 333 91205 555 11051
22060 30138 41405 60149 155044 142045 139043 146046 144041 154027=
41033 10021 99323 70804 46/// /2108 10295 40101 52011 90200 555
11114 22139=
44070 10021 99414 70710 46/// ///// 1//// 90206 22200 10801 20401
319// 40801 70007=
####018000122####
SNAC01 KWNB 100200 RRA
OOXX
ACSAMS01 10021 99808 70664 90706 01741 46/// /1809 10043 20000 39834
90203 333 91212=
####018000027####
SNVE20 EHDB 100200
NIL
####018000279####
SNVD15 KWNB 100200 RRG
BBXX
41041 10021 99144 70460 46/// /0808 10275 20238 40160 51011 90150
22200 00276 333 91209 555 11083 22089=
42362 10021 99278 70907 46/// /0000 10283 20211 40169 53013 90200=
42364 10021 99291 70881 46/// /0000 10278 20222 40163 51014 90200=
####018000488####
SNVD17 KWNB 100200 RRC
BBXX
46076 10021 99595 71480 46/// /0806 10105 20102 40114 57007 90150
22200 00102 333 91207 555 11063 22068=
46083 10021 99582 71380 46/// /1203 10123 20118 40128 58003 90150
22200 00120 10901 300// 40901 70007 333 91204 555 11037 22041
30141 41205 60149 116035 122033 123027 118023 120022 132025 81104
90141=
23020 10021 99222 10385 46/// ///// 1//// 90150 22200 10703 70015=
32012 10021 99196 50854 46/// ///// 1//// 90150 22200 11506 70031=
####018000806####
SNVD22 KWNB 100200 RRG
BBXX
46014 10021 99392 71240 46/// /1001 10123 40136 58009 90150 22200
00117 11402 20401 300// 41402 70010 333 91201 555 11007 22007
30145 40901 60149 096005 174001 156003 138005 121005 086002=
46050 10021 99446 71245 46/// /3607 10166 40169 54000 90150 22200
00152 10602 20602 310// 41401 70012 333 91209 555 11080 22088
30136 43509 60149 358073 358073 000073 002068 000067 359068=
46047 10021 99324 71195 46/// /3007 10144 40131 56007 90150 22200
11202 20501 322// 41202 70011 333 91208 555 11072 22076 30149
43008 60149 297067 298064 303061 302061 296063 295066=
46027 10021 99419 71244 46/// /2601 10122 40105 56011 90150 22200
00111 10603 20401 333// 40603 70016 333 91201 555 11008 22010
30139 42802 60149 264007 270009 242004 257006 272008 308012=
####018000707####
SMPA01 KWBC 100000 RRB
AAXX 10004
91165 12566 20514 10289 20183 30152 40184 58013 69901 92353=
91212 31566 81110 10300 20250 31398 761// 90009=
91285 12566 60608 10272 20183 30161 40174 58013 69931 92353=
91334 12474 80312 10304 20250 30107 40110 57002 60324 82171=
91348 12474 40604 10300 20241 30076 40128 58002 60054 82101=
91369 32474 31705 10306 20272 30113 40116 83210=
91376 12474 80503 10304 20241 30115 40119 58003 60234 84871=
91408 11473 83605 10294 20247 30090 40128 52015 69984 70282 82271=
91413 11448 81110 10258 20240 30098 40123 52012 60384 79798 8696/=
91425 32474 50403 10283 20272 30117 40118 5//// 82205=
91434 32574 50605 10306 20249 30150 40153 5//// 82230=
####018000146####
SMPA20 KWBC 100000 RRB
AAXX 10004
91245 31566 40715 10320 20240 30167 716// 92357=
91353 32474 40304 10317 20261 30104 40111 5//// 82101=
####018000097####
SNIY20 LIIB 100200 RRA
AAXX 10024
16522 42998 00407 10250 20233 39956 40191 56001 555 0////=
####018000215####
SNVD45 KWNB 100200 RRE
BBXX
45007 10021 99427 70870 46/// /2303 10230 20201 39935 40144 90150
22200 00237 1//00 70001 333 91204 555 11032 22033 30142 42304
60149 231030 217026 217025 211024 219022 224019=
####018000222####
SNVE15 KWNB 100200 RRC
BBXX
51203 10021 99208 71570 46/// ///// 1//// 90145 22200 00260 11701
21001 320// 41701 70006=
52200 10021 99134 11448 46/// ///// 1//// 90152 22200 00299 10903
20903 310// 41101 70015=
####018000101####
SMCY01 LCLK 100000 RRA
AAXX 10004
17601 12968 02705 10240 20195 30061 40091 57002 60001 92350=
