####018000125####
SMMH02 PKMR 091800 RTD
AAXX  09184
9137132474 30903 10256 20248 30098 40101 83110 333 5622/ 83815 82160
555
90918=
####018000619####
SNSP21 LEMM 092000
AAXX 09204
08084 46/// /2802 10239 20162 39782 40194 53019
  555 60005=
08184 46/// /0206 10252 20202 30049 40197 53018
  555 60005=
08202 46/// /3105 10252 20138 39287 42829 53005
  555 60005=
08360 46/// /0806 10255 20199 30141 40176 53006
  555 60005=
08373 46/// /0706 10249 20225 30158 40179 53005
  555 60005=
08410 46/// /2403 10328 20129 30041 40144 53006
  555 60005=
08419 45/80 /2706 10298 20071 39522 40148 53011
  555 60005=
08451 46/// /2704 10268 20204 30136 40167 53011
  555 60005=
08487 46/// /2404 10247 20200 30150 40174 53008
  555 60005=
####018000269####
SNMK10 LYPG 092000
AAXX 09201
13463 42970 00203 10259 20111 30123 40183 52018= 
13459 42670 10704 10202 20114 39467 40198 53008 81030 333 81399=
13461 42970 00502 10217 20147 30178 40185 52007 333 92323 92438=
13363 42970 12702 10162 20110 39328 48571 52015 81030=
####018000123####
SNFP20 LFVP 092000
AAXX 09204
71805 21/06 92510 10151 20148 30154 40162 56010 74344
  333 60005 90710 91117 93100=
####018000128####
SMCN27 CWAO 091800 RRC
AAXX 09184
71712 17/// /0307 10263 20247 30031 40087 56018 60071 7//4/ 333
10308 20212 70074=

####018000164####
SNCR20 GCLP 092000
AAXX 09204
60030 46/// /3627 10220 20182 30093 40148 55001
  555 60005=
60040 46/// /3614 10221 20177 30137 40162 55000
  555 60005=
####018000124####
SNVD02 CWAO 092000
BBXX
VOKJ 09204 99/// ///// 46/// /2709 10249 20181 40095 56011 7//// 8//// 22200 0//// 2//// =

####018000117####
SNDL22 EDZW 092000 RRB
AAXX 09201
10043 46/// /0805 10221 20193 30179 40181 58001
222// 0////
  333 553//=
####018000067####
SNAL54 EUMS 092000
AAXX 09204
60621 46/// /0413 10378 21046=
####018000071####
SNAL51 EUMS 092000 RRB
AAXX 09204
60664 46/// /0310 10312 20001=
####018000071####
SNAL51 EUMS 092000 RRA
AAXX 09204
60612 46/// /0607 10317 21050=
####018000067####
SNAL53 EUMS 092000
AAXX 09204
60619 46/// /0215 10338 21039=
####018000140####
SNLY40 EUMS 092000 RRA
AAXX 09204
62140 46/// /2222 10281 20150 39776 40130 53018=
62210 46/// /0111 10334 20058 39602 40109 52016=
####018000067####
SNAL51 EUMS 092000
AAXX 09204
60663 46/// /0703 10364 21031=
####018000085####
SNNC22 NWBB 092000
AAXX 09204
91574 46/// ///// 10229 20191 30037 40043 50006=
####018002108####
SNSN21 ESWI 092000
AAXX 09201
02019 27/66 /2202 10094 20025 39549 40160 52004 76186
  333 69975 90710 91104=
02081 25/99 /0701 10151 20109 39743 40131 52010
  333 60005 90710 91104=
02095 NIL=
02101 45784 /3501 10131 20065 39620 40163 52005 8//// 333 81/50=
02119 25/99 /3501 10128 20081 39772 40147 53013
  333 60005 90710 91105=
02124 25/99 /3302 10141 20077 39646 40153 52015
  333 60005 90710 91106=
02126 25/99 /3102 10160 20090 39824 40149 52019
  333 60005 90710 91105=
02186 45982 /2001 10169 20148 30107 40131 52012 333 87/61=
02197 25/63 /2002 10150 20144 30115 40133 53012
  333 60005 90710 91106=
02207 25/99 /1401 10142 20063 39463 40137 58004
  333 60005 90710 91104=
02219 25/99 /3202 10101 20066 39512 40168 52003
  333 60005 90710 91103=
02226 45984 /0602 10172 20054 39708 40143 52002 8////=
02243 25/71 /2601 10164 20065 39890 40148 52010
  333 60005 90710 91104=
02287 25/68 /2003 10163 20148 30133 40142 52009
  333 60005 90710 91106=
02308 25/99 /2201 10137 20051 39316 40148 51004
  333 60005 90710 91104=
02327 25/99 /2301 10185 20047 39733 40147 53006
  333 60005 90710 91105=
02355 25/99 /2203 10215 20084 30142 40154 52008
  333 60005 90710 91104=
02407 25/83 /2102 10133 2//// 39810 40169 52007
  333 60005 90710 91103=
02432 45984 /2203 10190 20095 30118 40185 53007 8////=
02440 25/82 /2301 10147 2////
  333 60005 90710 91101=
02456 25/99 /0000 10178 20123 30131 40172 52007
  333 60005 90710 91101=
02469 25/99 /1901 10191 20146
  333 60005 90710 91103=
02498 26/80 /2104 10187 20167 30166 40182 52006
  333 60005 90710 91106=
02500 25/75 /1706 10166 20132 30144 40184 52003
  333 60005 90710 91108=
02518 46/// /1402 10181 20124
  333 90710 91102=
02520 45984 /2203 10164 20095 30129 40195 52005=
02565 25970 /2502 10217 20064 30077 40191 52013
  333 60005 90710 91104=
02618 25/99 /2402 10177 20108 30040 40198 55000
  333 60005 90710 91102=
02664 45981 /1801 10185 20152 30136 40205 52006=
02679 25/82 /2305 10185 20159 30157 40200 53007
  333 60005 90710 91109=
####018000073####
SMTP01 LFVW 091800
AAXX 09184
61932 46/// /1507 10241 40163 5////=
####018000073####
SNTP01 LFVW 091900
AAXX 09194
61932 46/// /1509 10240 40153 5////=
####018000350####
SNPF80 KWBC 092000 RRA
AAXX 09204
91945 26/// /1010 10253 20210 30210 40215 51010 333 60005 90710
91119 555 1//19=
91930 36/// ///// 10285=
91958 22480 70514 10206 20189 30257 40259 50003 878// 333 60005
56299 86816 84646 90710 91121 555 1//21=
91954 22565 40808 10254 20195 30230 40233 51010 84200 333 60005
56200 84820 555 1//16=
####018000030####
SNAU02 AMMC 092000
NIL

####018000802####
SNAU53 AMMC 092000
AAXX 09204
94485 41984 00505 10100 20079 70200=
94541 45/// /1203 10075 20044 39483 40271 55001=
94556 41/60 /0902 10090 20080 70211=
94572 477// 83505 10087 20079 30257 40268 53007 7//44=
94573 47/// /2704 10096 20085 30243 40270 53007 7//44=
94588 45/// /1013 10066 20057 39064 40277 53002=
94589 41465 42306 10113 20113 30231 40265 53004 75011 84500=
94596 47436 82805 10124 20121 30262 40265 53006 7//44=
94598 47/// /2410 10115 20112 30185 40261 53004 7//44=
94599 47/// /2312 10122 20108 30143 40261 53006 7//44=
94686 45/// /0316 10112 20071 39947 40166 58026=
94689 41/84 40525 10122 20076 70181 84020=
94699 41760 40203 10120 20079 70311 84100=
94702 45/// /0513 10101 20077 30091 40204 56019=
94709 41/84 60902 10055 20039 70311 80006=

####018000907####
SNAU55 AMMC 092000
AAXX 09204
94755 45/04 /0000 10037 20034 30197 40289 56003=
94756 41010 80000 10080 20080 7404/ 886//=
94759 46/// /2905 10086 20082=
94760 47/// /2003 10080 20071 7//44=
94762 45/// /2004 10066 20064=
94763 47/// /3504 10078 20077 7//44=
94765 45/03 /0000 10052 20046 30277 40286 56005=
94766 45/07 /0000 10051 20050=
94768 45/// ///// 10089 20083 30237 40286 55002=
94774 45/// /3106 10100 20099=
94775 45/// /0000 10075 20075=
94777 45/// /0000 10054 20053=
94780 46/// /3006=
94785 45/// /2804 10086 20077 30260 40277 53004=
94786 47/// /2003 10096 20084 30273 40279 53002 72144=
94790 41575 22312 10122 20109 30127 40271 52002 70181 82200=
94838 45/// /0422 10110 20067 30042 40136 56044=
94839 45/// /0513 10095 20074 30010 40171 56032=
94886 45/// /0407 10093 20069 30204 40208 56023=
94908 45/// /0108 11008 21016 39434 40259 56018=

####018001525####
SNAU51 AMMC 092000
AAXX 09204
94568 456// 80000 10080 20074 30227 40265 53008=
94569 456// 81815 10142 20124 30238 40243 53009=
94570 45/// /1908 10147 20124 30234 40242=
94575 456// 82603 10114 20097 30238 40253 52010=
94576 46/// /2502 10131 20106 30243 40253 51010=
94580 45/// /1812 10159 20121 30245 40250 53009=
94581 46/// /1717=
94592 45/// /2009 10144 20114 30252 40258 53009=
94594 47/// /1227 10172 20152 30116 40236 51006 7//44=
95283 41336 81307 10220 20212 30154 40161 53004 78022 88500=
95286 45/// /1409 10193 20167 39632 40174 53002=
95292 45/// /2005 10212 20188 30161 40183 53005=
95293 45/// /1405 10147 20124 39554 40199 53003=
95295 45/// /1205 10170 20131=
95296 45/// /1605 10174 20137 30182 40191 53003=
95351 45/// /0905 10080 20074 39878 40212 56003=
95367 456// 72406 10145 20130 30199 40206 53005=
95369 45/// /1904 10148 20128 30204 40216 53007=
95370 45/// /2104 10147 20131 30177 40211 53005=
95487 45/// /0208 10073 20064 30054 40192 55002=
95492 41984 00605 10099 20087 30046 40206 56008 70200=
95529 45/// /0000 10069 20065 39887 40253 55001=
95543 46/// /2502 10093 20077 30107 40241 53006=
95551 41783 11017 10100 20079 39501 40253 52002 70300 81400=
95565 476// 71908 10145 20140 30216 40231 53008 7//44=
95566 47/// /2101 10132 20119 7//44=
95572 46/// /1703 10152 20123 30181 40246 53009=
95573 45/// /0108 10064 20063=
95575 45/// /0000 10091 20083 30197 40256 53006=
95591 45/// /2010 10142 20102 30233 40248 53011=

####018001222####
SNAU58 AMMC 092000
AAXX 09204
94830 45/// /0116 10126 20066 30116 40128 58035=
94833 45/// /0342 10034 20033=
94834 41584 80209 10105 20051 39803 40159 57092 70222 88500=
94835 45/// /0332 10051 20042=
94836 45/// /0411 10112 20061 39878 40155 56036=
94837 45/// /0220 10118 20069 30047 40133 56026=
94840 45/// /0217 10112 20065 39987 40147 56027=
94843 45/// /0418 10106 20061 30083 40170 56039=
94846 45/// /0316 10104 20062=
94847 46/// /0324=
94852 41680 50324 10085 20047 39662 40185 56006 70211 85500=
94854 45/// /0518 10119 20062 30166 40179 56030=
94855 41984 00613 10087 20056 39949 40203 56022 702//=
94857 45/// /0315 10117 20066 30137 40180 56026=
94859 46/// /0313 10090 20059=
94860 45/// /0228 10081 20050 39562 40194 56017=
94863 46/// /0120 10123 20050 39878 40164 58035=
94864 45/// /0205 10137 20056 30096 40199 56022=
94866 41982 80125 10116 20048 30042 40187 56030 71522 8807/=
94868 41980 7//// 10138 20044 30148 40188 56026 71511 87070=
94870 45/// /0314 10135 20059 30177 40192 56025=
94871 46/// /0507 10133 20055=
94872 45/// /3617 10096 20046=
94874 41570 80617 10099 20055 30040 40214 58021 70322 885//=
94878 45/// /0404 10035 20012=

####018000030####
SNAU03 AMMC 092000
NIL

####018001396####
SNAU57 AMMC 092000
AAXX 09204
94826 45/// /0319 10131 20065 30042 40098 57054=
94827 45/// /0413 10112 20057 39957 40126 56031=
94828 459// 40418 10126 20053 30000 40099 58048=
95734 45/// /0805 10064 20029 39985 40263 53001=
95740 45/// /1106 10046 20033 39952 40270 55007=
95747 47001 81413 10065 20058 39414 40274 56010 7//44=
95748 45/// /0000 10050 20050 30274 40285 56005=
95749 45/// /2605 10104 20104=
95753 45001 80000 10070 20069 30264 40289 55004=
95754 450// 80705 10071 20068 39824 40279 56015=
95756 46/// /3405=
95758 45/// /0000 10100 20099 30009 40279 56008=
95765 45/40 ///// 10075 20076=
95767 46/// /0000 10076 20072 30277 40285 55002=
95770 46/// /2509 10115 20089 30257 40281 55002=
95771 47/// /2202 10048 20038 30203 40279 55003 7//44=
95773 45002 80811 10052 20051 39028 40278 53002=
95774 46/// /3202 10074 20073=
95784 45/// /2606 10103 20100 30270 40281 53004=
95822 45/// /0423 10129 20069 30031 40093 58048=
95825 45/// /0319 10115 20062 39949 40108 56034=
95832 45/// /0319 10120 20065=
95869 45/// /0615 10091 20074 30097 40213 58016=
95896 45/// /0000 10028 20022 30053 40255 56017=
95909 45/// /3319 10002 21056 38690 40295 56018=
95916 45/// /0415 10020 21004=
95925 47/// /0311 10001 21002 7//44=
95929 45/// /0000 10062 20058 30274 40276 56011=
95931 45/// /0000 10050 20050 30229 40281 56009=

####018000877####
SNAU61 AMMC 092000
AAXX 09204
94950 41670 80720 10117 20097 30066 40197 57031 70311 8127/=
94953 45/// /0519 10123 20099 30199 40210 56027=
94955 46/// /1008 10082 20078 39886 40245 56023=
94957 45/// /0104 10014 20013 30140 40253 56019=
94959 45/// /0207 10072 20021=
94962 41665 20607 10106 20019 30043 40223 58022 70200 82500=
94964 45/// /2902 10026 20021=
94969 46/// /1501 10064 20063=
94970 43/// /3511 10077 20042 30184 40247 58017=
94972 45/// /0809 10095 20072 30015 40258 56019=
94977 45/// /0108 10036 20024=
94980 455// 20415 10124 20096 30235 40247 56022=
94985 41/80 40000 10038 20036 70322=
94987 46/// /0107 10096 20084 30192 40261 57013=
95952 46/// /0235 10031 20025 38897 40201 58030=
95956 45/// /0624 10094 20078=
95957 41565 70612 10130 20103 30209 40224 56026 70522 87500=
95958 47/// /0806 10050 20025 7//44=

####018001603####
SNAU49 AMMC 092000
AAXX 09204
94171 45/// /1705 10197 20190 30091 40137 55001=
94174 456// 11607 10242 20221 30123 40129 53003=
94182 45/// /1406 10252 30119 40124 53004=
94183 41584 20000 10210 20191 39962 40146 53002 70311 8153/=
94186 41460 31504 10215 20203 30121 40141 53003 70200 82640=
94187 41482 81308 10227 20202 30055 40151 52002 70311 885//=
94188 47/// /1419 10227 20224 30137 40159 53003 7//44=
94256 45/// /1407 10183 20140 30151 40161 53003=
94260 45/// /1808 10130 20111 30157 40164 53001=
94261 45/// /2306 10096 20079 30021 40170 55001=
94266 41984 01808 10155 20121 30136 40157 55001 70200=
94274 45/// /1006 10206 20156 39814 40163 53001=
94276 45/// /0000 10187 20172 39918 40154 53005=
94285 43/// /1617 10232 20209 30167 40171 53006=
94291 41356 72002 10204 20199 75085 878//=
94292 41480 81806 10203 20180 30172 40181 70122 885//=
94295 45/// /1511 10214 20166 30171 40183 53006=
94329 41980 00901 10085 20085 39966 40173 55007 70200=
94335 45/// /1906 10099 20085 39955 40174 53002=
94336 45/// /0505 10069 20058 39837 40175 56011=
94337 45/// /1207 10093 20084 30021 40166 56006=
94338 45/// /3504 10075 20066 39867 40181 58002=
94339 41/81 /1601 10108 20106 39967 40183 56006 70200=
94342 45/// /1008 10096 20091 39958 40186 55006=
94343 45/// /0910 10144 20110 39811 40182 55000=
94350 41/84 /0000 10102 20100 70022=
94359 41984 00000 10068 20064 39903 40220 53011 70211=
94360 41984 00000 10102 20088 70200=
94365 455// 42302 10136 20118 30180 40204 53004=
94372 45/// /1616 10184 20178 39958 40202 53005=

####018001129####
SNAU50 AMMC 092000
AAXX 09204
94368 45/// /1618 10189 20154 30127 40197 53001=
94370 454// 71606 10165 20152 30174 40212 52008=
94373 45/// /2205 10143 20126 30209 40216 53009=
94376 41982 01704 10084 20081 39996 40228 53004 70200=
94378 46/// /1622 10177 30185 40209 53007=
94380 45/// /1512 10160 20131 30128 40217 53005=
94381 45/// /1707 10168 20130 30198 40218 53005=
94386 45/// /1617=
94387 41680 71708 10147 20137 30192 40230 53010 75052 875//=
94511 41984 02701 10050 20041 39776 40241 53003 70200=
94517 45/// /0503 10068 20059 30007 40247 53005=
94525 41984 02002 10076 20074 30002 40242 53004 70211=
94530 41984 01302 10061 20054 39994 40257 52001 70200=
94542 41960 00000 10047 20038 39838 40249 53002 70100=
94549 45/// /1907 10089 20083 39736 40252 53003=
94553 46/// /1005 10086 20074 39250 40270 53003=
94555 45/// /1506 10095 20087 39693 40260 53002=
94557 45/// /2005 10106 20104=
94558 47/// /1807 10131 20125 7//44=
94562 45/// /2606 10067 20058=
94566 46/// /1303 10131 20113 30163 40241 53007=
94567 41570 21707 10137 20128 30220 40233 53009 70366 82500=

####018001411####
SNAU56 AMMC 092000
AAXX 09204
94915 46/// /3103 10017 21068=
94919 45/// /0000 11005 21005 39859 40274 56021=
94921 45/// /0212 10033 20032 39179 40280 56013=
94925 45/// /0000 10051 20048 39584 40291 56011=
94927 45/// /0000 10020 20013 39497 40294 56006=
94929 45/// /3607 10037 20028 39370 40277 56010=
94937 41/70 10000 10095 20093 30258 40278 57010 74000 81030=
94938 46/// /0000 10095 20089 30237 40282 56005=
94939 45/// /3406 10124 20118 30212 40276 56010=
95541 41984 00000 10010 20002 70281=
95570 45003 13601 10073 20069 30243 40274 53005=
95571 45/// /2904 10104 20085=
95695 45/// /0512 10115 20062 30074 40189 56018=
95697 45/// /0314 10116 20073 30072 40194 56020=
95699 45/// /0310 10120 20077 30001 40193 56009=
95705 45/// /0512 10098 20063=
95706 45/// /0709 10084 20060 30059 40236 56019=
95708 45/// /0512 10107 20078 30006 40242 58009=
95709 45/// /0602 10055 20055 39939 40252 56011=
95710 45/// /0905 10084 20076 39998 40261 53002=
95715 45/// /0707 10067 20052 30090 40253 55003=
95716 45/// /0406 10064 20061 39524 40292 56010=
95717 45/// /0512 10104 20067 39868 40260 55007=
95718 45/// /0606 10067 20053 30036 40257 55000=
95721 45/// /1904 10047 20022 39911 40274 55009=
95722 45/// /0707 10077 20052 39916 40258 56012=
95726 45/// /0511 10056 20042 39166 40282 55008=
95827 45/// /0324 10105 20066 39894 40123 58033=

####018000655####
SNAU62 AMMC 092000
AAXX 09204
95960 455// 80811 10113 20089 30230 40242 58026=
95962 45/// /0209 10056 20036=
95964 41470 80814 10115 20093 30241 40245 56024 70222 882//=
95966 456// 72006 10063 20059 30051 40259 57018=
95967 45/// /0208 10088 20057 30164 40238 58017=
95969 45/// /2803 10053 20047=
95972 45/// /3102 11004 21004=
95974 45/// /1202 10036 20029=
95977 45/// /2507 10025 20017=
95979 46/// /3525 10013 20013=
95981 45/// /0301 10072 20071 30205 40265 58015=
95985 45/// /0614 10126 20092 30238 40256 58019=
95986 45/// /0119 10092 20091 39964 40257 58014=
95988 45/// /0117 10103 20087 30218 40253 58018=

####018001503####
SNAU04 AMMC 092000
AAXX 09204
94170 41980 01802 10206 20199 30117 40139 55000 7110/=
94255 45/// /0000 10100 20083 39899 40171 56007=
94268 45/// /0000 10207 20189 30140 40152 53001=
94287 41575 71609 10220 20187 30164 40173 53005 70222 878//=
94290 NIL=
94294 41783 52206 10182 20136 30182 40193 53003 70122 85500=
94296 35/// /1315 10237 30152 40162 52009=
94298 46/// /1609 10232 30165 40171 53005=
94299 41580 61422 10243 20206 30154 40164 53010 71511 868//=
94332 41980 00000 10059 20055 39775 40173 56007 70200=
94333 41984 00000 10084 20073 39994 40182 57004 70200=
94341 45/// /1107 10129 20115 39929 40172 55001=
94346 41080 10803 10052 20050 39972 40200 56004 74000 81600=
94363 45/// /1505 10096 20093 39998 40225 53013=
94366 NIL=
94367 41680 52107 10158 20142 30160 40204 53005 70200 85500=
94374 41482 11301 10136 20115 30199 40217 53010 70200 81800=
94388 47/// /1319 10206 20140 30210 40215 53008 7//44=
94393 46/// /1418 10227 30163 40175 53010=
94394 35/// /1220 10218 30189 40197 52014=
94488 41984 00000 10069 20065 30044 40197 57007 70200=
94500 41984 00702 10089 20063 39991 40219 54000 70211=
94510 41981 00000 10066 20061 39862 40225 53002 702//=
94515 45/// /0000 10064 20049 39881 40245 53004=
94552 45/// /1107 10076 20064 39765 40251 53001=
94578 41665 62108 10128 20109 30242 40253 53012 78022 86800=
94584 47/// /1517 10163 20147 30118 40231 53014 7//44=
95482 41982 00310 10085 20070 30112 40169 56014 70200=

####018000493####
SNAU60 AMMC 092000
AAXX 09204
95872 46/// /0212=
95874 45/// /0613 10134 20053 30110 40191 56024=
95881 41/60 80000 10076 20056 30157 40208 57063 70311 8802/=
95890 47/// /0509 10075 20066 30194 40216 56023 7//44=
95901 45/// /0415 10012 21001=
95904 41986 00505 10070 20050 70100=
95913 45/// /0107 10083 20015=
95918 45/// /2802 10038 20037 30165 40242 56020=
95937 45/// /1202 10067 20066 30277 40283 56008=
95940 47/// /2804 10098 20092 30184 40287 56005 7//44=

####018000565####
SNAU54 AMMC 092000
AAXX 09204
94711 45/// /0509 10088 20062 39912 40230 56008=
94712 45/// /2103 10041 20028 39804 40265 55010=
94714 41/84 32302 10082 20078 70300 80006=
94715 45/// /0605 10064 20061 39977 40259 55007=
94717 41984 00513 10112 20071 70200=
94720 41/// 40000 10052 20047 70300 80004=
94727 45/// /2602 10076 20069 39712 40280 56010=
94743 45113 80703 10052 20049=
94746 45001 50000 10033 20024 39482 40295 56004=
94747 41260 30000 10060 20060 70150 83600=
94754 46/// /0809 10051 20050=
94757 45/// /1902 10053 20043=

####018001227####
SNAU05 AMMC 092000
AAXX 09204
94691 NIL=
94693 41982 70316 10133 20054 30081 40146 56034 70222 8707/=
94700 41984 03602 10098 20020 30069 40215 70200=
94703 45/// /0610 10091 20055 30096 40227 56007=
94710 45/// /0509 10094 20063 39968 40232 56009=
94729 45/// /1104 10062 20034 39395 40283 58013=
94750 45/// /2907 10076 20075 30153 40281 57007=
94767 41672 13307 10089 20076 30280 40286 55001 70200 81101=
94776 45002 83006 10071 20071 30273 40284 55000=
94791 41582 12406 10105 20099 30263 40271 53003 70200 81401=
94842 45/// /0410 10130 20048 30046 40146 58038=
94865 45/// /0316 10122 20063 30159 40184 56030=
94875 45/// /0514 10091 20058 30083 40224 58018=
94893 45/// /0214 10103 20084 30093 40211 56023=
94907 45/// /1603 10016 20013 30215 40225 56019=
94910 41980 50707 10095 20056 39995 40257 56014 70311 80006=
94926 41480 60901 10034 20032 39595 40292 56014 70222 86600=
94935 45/// /3206 10080 20072 30242 40270 56009=
94995 NIL=
95485 45/// /0310 10085 20082 39977 40190 56008=
95527 45/// /0909 10060 20036 39995 40259 55000=
95719 45/// /0909 10085 20076 39923 40269 55001=
95762 45/// /1610 10048 20035=
95839 45/// /0426 10104 20065 39972 40135 58037=

####018001312####
SNAU59 AMMC 092000
AAXX 09204
94881 45/// /0312 10073 20030=
94889 45/// /2405 10042 20041 30059 40247 56011=
94891 41984 00708 10055 20051 30151 40220 56025 702//=
94892 46/// /0512 10100 20069 30183 40200 56023=
94894 45/// /0132 11004 21005=
94898 46/// /0205 10080 20058 30182 40199 56022=
94903 45/// /3526 10006 21010 38256 40253 56018=
94905 43/// /3508 10036 21006 38764 40279 56013=
94906 45/// /0235 11006 21019=
94912 45/// /0403 10030 20024 30169 40230 56020=
94913 45/// /0307 10038 20012 39354 40252 56018=
94914 45/// /0208 10072 20036 39493 40253 56012=
94930 45/// /0605 10079 20032=
94932 41682 10508 10097 20070 70111 81400=
94933 47/// /3608 10116 20096 30252 40270 56009 7//44=
94949 45/// /0525 10120 20092 30081 40223 56024=
95704 45/// /0418 10113 20074 30060 40225 58016=
95728 47/// /0610 10066 20056 39504 40273 55004 7//44=
95831 45/// /0415 10121 20059=
95833 45/// /0510 10094 20061=
95834 41680 82321 10080 20011 70222 885//=
95835 45/// /0417 10106 20062=
95836 45/// /0414 10094 20056=
95837 45/// /0610 10092 20048=
95840 45/// /0422 10106 20067 39871 40144 56027=
95845 45/// /0619 10084 20052 39851 40165 58026=
95864 46/// /0407=
95866 45/// /0117 10131 20058 30090 40186 56029=
95867 45/// /0112 10132 20054=

####018000076####
SNAU47 AMMC 092000
AAXX 09204
94284 46/// /1222 30157 40167 53005=

