####018000186####
SMAA01 KWBC 100000 RRA
AAXX 10001
89062 41989 02606 11064 21095 39711 49752 52001 70100 80000 333
11044 21088=
88900 46/// /0814 10001 21012 30023 40025 58018 333 10002 21019=
####018000302####
SNVD15 KWNB 092300 RRX
BBXX
44043 09231 99392 70764 46/// /2004 1//// 92330 333 91205=
44043 09231 99392 70764 46/// /2004 1//// 92320 333 91205=
44043 09231 99392 70764 46/// /2004 1//// 92310 333 91205=
44043 09231 99392 70764 46/// /2104 10283 92300 22200 00283 10201
70003 333 91205=
####018000085####
SMAA14 EGRR 100000
AAXX 10004
89087 46/// /0000 11442 21472 38016 49970 52011=
####018002754####
SMZA02 FAPR 100000
AAXX 10004
68180 NIL=
68183 36/// /2505 10083 20077 39491 48536 58010
      333 10219 20083 91006 555 91021=
68188 36/// /0702 10074 20061 39254 48546 58010
      333 10214 20074 91004 555 91023=
68268 36/// /3403 10072 20039 38947 48566 57010
      333 10230 20066 91005 555 91026=
68272 NIL=
68296 36/// /3302 10089 20075 39877 48529 57012
      333 10295 20086 91003 555 91019=
68322 36/// /0303 10117 20022 39162 48514 57008
      333 10264 20117 91004 555 91018=
68338 36/// /3305 10045 20006 38823 48538 57009
      333 10215 20045 91006 555 91023=
68345 36/// /0206 10047 20010 38715 48546 58007
      333 10195 20043 91009 555 91024=
68362 36/// /0000 11013 21028 38548 48547 57011
      333 10189 21013 91002 555 91024=
68385 NIL=
68400 36/// /3102 10132 20119 30102 40178 57015
      333 10278 20128 91003 555 91017=
68408 36/// /3003 10119 20114 30156 40164 57002
      333 10206 20113 91004 555 91016=
68416 36/// /0902 10127 20014 39029 48491 57013
      333 10241 20122 91004 555 91015=
68478 36/// /2103 10034 20001 38890 48509 57012
      333 10216 20034 91005 555 91019=
68488 36/// /2909 10143 20035 39295 48532 57013
      333 10254 20090 91013 555 91019=
68494 36/// /3102 10162 20107 30011 40144 58011
      333 10309 20162 91004 555 91014=
68496 NIL=
68524 36/// /3406 10147 20009 39067 48511 57007
      333 10232 20118 91011 555 91017=
68546 36/// /3503 10126 20004 38681 48523 57012
      333 10171 20078 91006 555 91020=
68558 36/// /3411 10088 21007 38206 48528 57013
      333 10135 20043 91014 555 91022=
68570 36/// /2606 10091 21024 38542 48533 57008
      333 10173 20072 91014 555 91022=
68580 36/// /2405 10076 20014 38961 48508 57011
      333 10233 20052 91006 555 91018=
68614 36/// /3602 10126 20108 30098 40140 58001
      333 10243 20121 91003 555 91014=
68624 36/// /3506 10120 20008 38717 48478 57011
      333 10219 20120 91010 555 91015=
68674 NIL=
68712 36/// /3609 10131 20113 30055 40121 57007
      333 10174 20131 91013 555 91012=
68718 36/// /2107 10120 20071 39849 40099 58002
      333 10249 20108 91011 555 91009=
68722 36/// /3010 10105 20018 38519 48476 57010
      333 10190 20102 91017 555 91015=
68814 36/// /0111 1//// 2//// 30109 4//// 58005
      333 1//// 2//// 91018 555 91011=
68832 36/// /3012 10187 20004 39160 48485 57011
      333 10239 20186 91028 555 91012=
68916 36/// /3518 10123 20087 39834 40105 57013
      333 10138 20110 91026 555 91010=
68920 36/// /2609 10135 20095 30081 40094 57011
      333 10164 20129 91017 555 91009=
68928 36/// /2403 10134 20109 39926 40088 58006
      333 10254 20134 91006 555 91008=
68938 NIL=

####018002767####
SMZA20 FAPR 100000
AAXX 10004
68155 36/// /2002 10083 20054 39252 48545 58005
      333 10232 20080 91003 555 91022=
68171 NIL=
68176 36/// /2903 10047 20035 39195 48540 57006
      333 10226 20042 91004 555 91023=
68181 NIL=
68182 36/// /2506 10112 20073 39401 48556 57007
      333 10218 20108 91009 555 91022=
68185 36/// /0802 10043 20020 38482 48415 58000
      333 10179 20043 91003 555 91008=
68253 36/// /0000 10042 20014 39095 48531 58006
      333 10225 20042 91005 555 91022=
68255 36/// /2402 10052 20023 38916 48541 58006
      333 10191 20052 91010 555 91023=
68271 36/// /0102 10074 20041 38973 48555 58006
      333 10218 20064 91004 555 91024=
68273 36/// /2604 10069 20035 38482 48537 58008
      333 10167 20068 91006 555 91022=
68287 NIL=
68291 36/// /2803 10087 20068 39597 48542 58010
      333 10263 20087 91004 555 91021=
68297 36/// /0000 10176 2//// 39981 40197 58011
      333 10313 20174 91001 555 91020=
68329 36/// /0303 10091 20015 39123 48528 57010
      333 10239 20083 91024 555 91020=
68331 36/// /0606 10102 20023 38859 48531 58013
      333 10211 20102 91008 555 91021=
68335 36/// /2802 10044 20003 38956 48537 58008
      333 10213 20044 91003 555 91023=
68341 36/// /3505 10052 20015 38568 48549 58007
      333 10178 20052 91007 555 91024=
68342 NIL=
68343 36/// /3505 10065 20016 38832 48540 58006
      333 10205 20053 91007 555 91023=
68349 36/// /3605 10050 20014 38558 48549 58008
      333 10173 20044 91007 555 91024=
68353 36/// /3207 10078 20024 38559 48535 58008
      333 10178 20068 91010 555 91022=
68355 36/// /0107 10047 20004 38619 48547 57008
      333 10181 20046 91007 555 91024=
68370 NIL=
68377 36/// /3606 10088 2//// 38817 48544 58007
      333 10216 20088 91009 555 91023=
68380 NIL=
68387 36/// /3210 10110 20031 38885 48533 58012
      333 10225 20084 91028 555 91021=
68411 36/// /0000 10186 20029 39935 40143 58002
      333 10314 20186 91003 555 91014=
68429 36/// /0303 10089 20029 38710 48523 58011
      333 10202 20078 91007 555 91020=
68449 36/// /3403 10043 20002 38497 48611 57006
      333 10150 20043 91004 555 91031=
68471 36/// /3112 10077 21004 38346 48530 57016
      333 10168 20063 91020 555 91022=
68474 36/// /2802 10046 21011 38637 48522 57012
      333 10197 20046 91004 555 91021=
68479 36/// /0000 10084 20001 38966 48512 58011
      333 10222 20075 91002 555 91019=
68481 NIL=
68487 36/// /3505 10120 20016 38998 48508 58012
      333 10218 20085 91007 555 91017=
68491 36/// /3506 10163 20158 30162 40171 57013
      333 10252 20162 91011 555 91017=
68497 36/// /0305 10185 20127 30107 40152 58012
      333 10286 20182 91011 555 91015=

####018000332####
SNVD20 KWNB 092300 RRX
BBXX
44058 09231 99376 70763 46/// /1504 1//// 40099 92330 333 91205=
44058 09231 99376 70763 46/// /1404 1//// 40098 92320 333 91205=
44058 09231 99376 70763 46/// /1404 1//// 40095 92310 333 91204=
44058 09231 99376 70763 46/// /1304 10273 40096 55012 92300 22200
00284 1//00 70002 333 91205=
####018000165####
SMVD15 KWNB 100000 RRR
BBXX
41010 10001 99289 70785 46/// /2304 10283 20240 40149 90020 22200
00289 10401 20401 300// 40501 70007 333 91205 555 11041 22042=
####018000125####
SMVD45 KWNB 100000 RRH
BBXX
45022 10001 99454 70851 46/// /3102 10214 40160 90030 22200 00196
1//00 70002 333 91202=
####018000109####
SMVD22 KWNB 100000 RRQ
BBXX
46093 10001 99367 71224 46/// ///07 1//// 40136 58009 90004 22200
00124=
####018000621####
SMMG01 FMMI 100000
AAXX 10004
67002 32580 11008 10200 20164 30128 40163 81800
  333 0//00 59012 81820 924/7

67009 NIL=

67012 NIL=

67019 NIL=

67025 NIL=

67027 32680 50000 10230 20186 30140 40161 58012 85500
  333 0//00 85640=
67045 NIL=

67072 NIL=

67083 32470 70000 10125 20107 38775 48545 57015 878//
  333 0//00 81817 87620=
67095 32475 42604 10188 20170 30175 40182 57019 84800
  333 0//00 82817 83633=
67113 NIL=

67117 NIL=

67137 NIL=

67152 NIL=

67157 NIL=

67197 32470 70604 10204 10173 30181 40191 57011 878//
  333 0//00 82817 86633=
####018001703####
SMRA15 RUNW 100000
AAXX 10001
23074 11698 71003 10172 20146 30077 40100 52008 69952 70282 8293/ 333
20169 55066=
23274 12498 61802 10158 20146 30070 4//// 52007 69902 86600 333 20148
55023 86710 333 12015 53005 7003/=
23383 32699 80000 10123 20112 39792 40122 54000 8657/ 333 20110=
23472 32999 30802 10160 20124 30060 40105 52004 82031 333 20139
55000=
23678 32598 60000 10142 20112 30037 40091 58002 85801 333 20105=
23884 12570 80000 10137 20124 30011 40080 58007 60012 8557/ 333 20124
55104=
23891 31593 80000 10156 20156 39802 57001 74442 889// 333 20134 55021
95090=
24507 32698 71202 10171 20071 39910 40128 52002 82531 333 20142
55179=
24817 32999 80901 10167 20103 39813 40153 58002 80001 333 20058
55151=
24908 11581 80000 10156 20118 39815 40116 52002 69932 72522 85931 333
20115 55143=
29263 11599 70801 10159 20123 39959 40053 57012 69902 70282 83932 333
20132 55147=
29282 31594 80601 10159 20152 39925 40082 58007 74441 889// 333 20132
55070=
29379 32999 70000 10160 20142 39883 40079 57002 80002 333 20126=
29570 11599 60000 10146 20139 39723 40044 57009 60032 70282 83931 333
20139=
29698 32597 81202 10160 20148 39589 40062 57004 889// 333 20130
55043=
30230 32999 10103 10173 20097 39808 40109 52003 80001 333 20137
55170=
30252 32999 10000 10144 20109 39830 40123 58004 80004 333 20081
55151=
30309 31694 80402 10147 20145 39600 40081 57006 74041 83531 333 20143
55066=
30328 32998 60000 10156 20120 39709 40102 54000 83031 333 20112
55140=
30521 11597 80702 10188 20185 39606 40083 51001 69962 70298 889// 333
20163 55093=
30710 12598 62001 10160 20146 39547 40085 57004 69902 82930 333 20150
55023=
####018002340####
SMRA16 RUNW 100000
AAXX 10001
23973 32599 73601 10127 20114 30017 40075 57010 85501 333 20098=
23975 32999 20000 10112 20098 39964 40066 58007 80001 333 20081
55102=
23986 32999 60000 10140 20095 39492 40081 57001 85011 333 20099=
23987 32599 20000 10105 20102 39995 40065 57009 82401 333 20092
55091=
24606 32899 33301 10180 20097 39901 40148 52005 82031 333 20064
55177=
29253 32999 70000 10138 20125 39887 40045 57009 80001 333 20106=
29471 11596 83301 10148 20144 39845 40056 53001 60022 78082 889// 333
20145 88920=
29481 32599 41102 10148 20134 39835 40056 57015 84301 333 20111=
29553 32577 71602 10139 20098 39689 40028 57008 82971 333 20130
55125=
29562 32998 50000 10145 20119 39654 40039 57002 85031 333 20128=
29581 32598 70301 10157 20141 39815 40052 57004 82931 333 20130=
29594 31699 61301 10155 20143 39700 40056 57014 70241 82531 333 20122
55076=
29653 32597 71601 10127 20115 39585 40035 57003 86208 333 20091=
29675 NIL=
29676 32599 80000 10133 20133 39648 40042 57003 889// 333 20114=
29752 32599 62502 10103 20062 38707 48385 57003 82549 333 20091
55066=
29759 32999 40000 10120 20081 39083 40039 57005 82041 333 20075=
29766 11999 51302 10126 20124 39727 40059 56001 60022 70281 80001 333
20102 55090=
29789 32595 71801 10114 20104 38961 40065 57002 87600 333 20090
55056=
29864 32999 32901 10095 20076 39441 40055 57002 80001 333 20074=
29866 12999 50000 10142 20124 39753 40050 56001 69952 80001 333 20100
55093=
29869 11698 60501 10140 20127 39701 40047 56005 60072 70381 82501 333
20111 95000=
29956 31/92 92501 10094 20094 39533 40061 57003 74541 333 20085
55077=
30337 32998 31801 10155 20118 39683 40097 52003 80001 333 20093
55155=
30405 31498 20902 10168 20163 39585 40069 56007 72841 81630 333
20148=
30504 31996 80902 10163 20158 39454 40047 57006 71042 8807/ 333 20123
55003=
30603 31595 52701 10188 20166 39542 40061 58010 72841 82701 333
20139=
30612 32499 61202 10191 20173 39588 40072 57010 86600 333 20168
55///=
30622 12998 80000 10170 20157 39493 40083 50083 69992 83033 333
20154=
30627 32699 80302 10156 20138 39224 40080 58003 86501 333 20134
55027=
30703 31/92 90000 10145 20145 39449 40071 57011 74544 2//// 55028=
36307 32699 60902 10176 20065 38823 48418 53001 84802 333 20154
95000=
####018001680####
SMLA01 VLIV 100000
AAXX 10001
48921 01320 81401 10200 20200 38528 48031 5//// 60024 760// 887//
 333 20195 58000 60027=
48924 31650 50000 10242 20236 39446 40062 5//// 710// 84540
 333 20238 58000=
48925 31450 72701 10245 20230 39333 40053 5//// 710// 84810
 333 20235 58004=
48926 31450 60000 10244 20235 39598 40059 5//// 710// 83640
 333 20227 59013=
48927 32980 53201 10250 20191 39089 48582 5//// 81035
 333 20236 59001=
48928 31458 40000 10218 20202 39003 48491 5//// 710// 82130
 333 20215 59012=
48930 31560 70000 10260 20238 39726 40069 52012 71044 83800
 333 20259 58000=
48935 32465 40000 10223 20202 38902 48403 52015 82104
 333 20213 58002=
48938 31430 62201 10240 20237 39732 40064 52003 71044 86800
 333 20240 59002=
48940 32660 81601 10265 20243 39871 40065 52011 8357/
 333 20250 58003=
48941 31456 42701 10250 20244 3//// 4//// 5//// 710// 81132
 333 20248 5////=
48944 01557 80402 10244 20234 39511 40092 5//// 69944 75044 86610
 333 20239 59009 69947=
48945 31556 72001 10262 20245 39908 40085 5//// 710// 85670
 333 20254 59005=
48946 01550 61401 10260 20251 39921 40085 52009 60284 715// 83840
 333 20252 58014 60287=
48947 31530 41801 10265 20239 39934 40099 52003 71044 83530
 333 20265 58008=
48948 32965 22202 10263 20259 39872 40083 52012 80001
 333 20260 58002=
48952 31450 61801 10260 20238 39882 40073 52010 71044 83830
 333 20260 58009=
48953 31430 30000 10245 20227 39903 40066 5//// 710// 82831
 333 20235 58002=
48955 32570 41802 10271 20227 39976 40092 52020 82802
 333 20261 58014=
48957 31565 23401 10260 20246 39978 40085 5//// 710// 82131
 333 20252 58008=
####018000190####
SMBZ03 SBBR 100000 RRA
AAXX 10004
83695 329// 00000 10232 20194 30061 40200 51010 333 10310 29071 55057=
83718 325// 80000 10190 20171 30962 40208 52028 888// 333 10274 29076 55087=
####018000712####
SMBZ01 SBBR 100000 RRB
AAXX 10004
82141 21797 40906 10273 20248 30105 40117 71362 84070 333 10328 29082 55078 59008 60041=
82145 21594 20000 10236 20229 30080 40122 70262 82500 333 10330 29086 55058 59008 60121=
82181 21497 80206 10258 20233 39995 40135 70362 8234/ 333 10314 29080 55099 58004 60021=
82198 21492 40704 10255 20244 30065 40116 70162 82360 333 10328 29088 55056 59013 60011=
82353 32997 40000 10291 20241 39999 40083 84900 333 10346 29073 55056 59013=
82361 32496 20000 10299 20234 30078 40115 82300 333 10363 29069 55/// 59013=
82476 32995 00000 10287 20216 39985 40104 333 10363 29061 55092 59019=
82861 32697 21404 10302 20204 39919 40087 82030 333 10385 29054 55096 59008=
####018001150####
SMBZ02 SBBR 100000 RRA
AAXX 10004
82392 21496 20503 10273 20217 30015 40116 70266 82600 333 10369 29069 55086 59004 60091=
82683 32994 01404 10276 20175 39682 40131 333 10337 29056 55100 59008=
82780 32996 00904 10300 20164 39897 40147 333 10360 29050 55107 58000=
82789 21994 91418 10185 20178 38960 40079 70066 8//// 333 10242 29088 55049 59002 60041=
82795 21594 81403 10204 20199 39548 40170 70262 887// 333 10244 29094 55009 59006 60021=
82879 32992 00904 10298 20176 39855 40118 333 10354 29051 55107 59004=
82979 32993 03606 10261 20193 39688 40136 333 10322 29062 55108 59001=
82986 21795 51407 10226 20214 39869 40157 70162 85020 333 10296 29090 55030 59010 60051=
83179 32994 01401 10273 20137 39669 40116 333 10349 29044 55107 59007=
83182 32594 80910 10225 20153 39325 40147 885// 333 10316 29054 55102 59002=
83192 32995 01803 10234 20207 30004 40170 333 10295 29078 55052 58000=
83339 32995 01412 10217 20122 39177 40148 333 10284 29036 55078 59002=
83398 32594 50000 10234 20224 30187 40193 83520 333 10268 29091 55052 59001=
83498 32595 81403 10232 20209 30197 40202 8552/ 333 10263 29085 55066 59003=
####018000269####
SMBZ06 SBBR 100000 RRA
AAXX 10004
82193 31570 73102 10264 20230 30108 40126 70192 83230 333
10324 59004=
82281 32570 30406 10269 20248 30060 40122 70292 83200 333
10314 59010=
83971 21340 82603 10154 20154 30220 4//// 51019
71062 885// 333 10156 69901=
####018002751####
SMZA02 FAPR 100000
AAXX 10004
68180 NIL=
68183 36/// /2505 10083 20077 39491 48536 58010
      333 10219 20083 91006 555 91021=
68188 36/// /0702 10074 20061 39254 48546 58010
      333 10214 20074 91004 555 91023=
68268 36/// /3403 10072 20039 38947 48566 57010
      333 10230 20066 91005 555 91026=
68272 NIL=
68296 36/// /3302 10089 20075 39877 48529 57012
      333 10295 20086 91003 555 91019=
68322 36/// /0303 10117 20022 39162 48514 57008
      333 10264 20117 91004 555 91018=
68338 36/// /3305 10045 20006 38823 48538 57009
      333 10215 20045 91006 555 91023=
68345 36/// /0206 10047 20010 38715 48546 58007
      333 10195 20043 91009 555 91024=
68362 36/// /0000 11013 21028 38548 48547 57011
      333 10189 21013 91002 555 91024=
68385 NIL=
68400 36/// /3102 10132 20119 30102 40178 57015
      333 10278 20128 91003 555 91017=
68408 36/// /3003 10119 20114 30156 40164 57002
      333 10206 20113 91004 555 91016=
68416 36/// /0902 10127 20014 39029 48491 57013
      333 10241 20122 91004 555 91015=
68478 36/// /2103 10034 20001 38890 48509 57012
      333 10216 20034 91005 555 91019=
68488 36/// /2909 10143 20035 39295 48532 57013
      333 10254 20090 91013 555 91019=
68494 36/// /3102 10162 20107 30011 40144 58011
      333 10309 20162 91004 555 91014=
68496 NIL=
68524 36/// /3406 10147 20009 39067 48511 57007
      333 10232 20118 91011 555 91017=
68546 36/// /3503 10126 20004 38681 48523 57012
      333 10171 20078 91006 555 91020=
68558 36/// /3411 10088 21007 38206 48528 57013
      333 10135 20043 91014 555 91022=
68570 36/// /2606 10091 21024 38542 48533 57008
      333 10173 20072 91014 555 91022=
68580 36/// /2405 10076 20014 38961 48508 57011
      333 10233 20052 91006 555 91018=
68614 36/// /3602 10126 20108 30098 40140 58001
      333 10243 20121 91003 555 91014=
68624 36/// /3506 10120 20008 38717 48478 57011
      333 10219 20120 91010 555 91015=
68674 NIL=
68712 36/// /3609 10131 20113 30055 40121 57007
      333 10174 20131 91013 555 91012=
68718 36/// /2107 10120 20071 39849 40099 58002
      333 10249 20108 91011 555 91009=
68722 36/// /3010 10105 20018 38519 48476 57010
      333 10190 20102 91017 555 91015=
68814 36/// /0111 1//// 2//// 30109 4//// 58005
      333 1//// 2//// 91018 555 91011=
68832 36/// /3012 10187 20004 39160 48485 57011
      333 10239 20186 91028 555 91012=
68916 36/// /3518 10123 20087 39834 40105 57013
      333 10138 20110 91026 555 91010=
68920 36/// /2609 10135 20095 30081 40094 57011
      333 10164 20129 91017 555 91009=
68928 36/// /2403 10134 20109 39926 40088 58006
      333 10254 20134 91006 555 91008=
68938 NIL=
####018000870####
SMXX18 KAWN 100000 RRA
BBXX
A8OO9 10004 99415 11517 41/95 81430 10170 20160 40167 52/// 71011
 8//// 22214 04142 21208 311// 41208 5//// 80164=
A8RQ8 10001 99348 11594 41298 83206 10247 20193 40182 52007 70222
 8/7// 22264 20802 3//// 4//// 5//// 80210=
DDYL2 10003 99471 11597 41598 83404 10085 20044 40245 51010 70222
 8571/ 22254 00070 20300 30416 41604 51503 80065=
OUJN2 10004 99511 11658 417// 83514 10070 2//// 40220 51000 7//22
 886// 22253 00070 20602 304// 41004 5//// 6//// ICE /////=
SHIP 10004 99470 11610 41697 82811 10070 20049 40227 51012 70222
 8752/ 92355 22254 00080 20202 303// 40303 80060=
SHIP 10004 99461 11583 41598 81507 00/// 10100 20011 40243 51010
 7//// 82817 9//// 22213 00080 ///// 20402 304// 40103 5//// 6////
 80060=
UFJC 10001 99538 11613 42398 70000 10100 40224 54000 70252 8772/
 22253 06110 20000=
####018000941####
SMXX19 KAWN 100000 RRA
BBXX
JGQH 10004 99306 11369 41/97 72016 10265 20246 40134 51007 70222
 82272 22200 00260 10703 20402 324// 40803 70016=
SHIP 10004 99305 11336 41398 72323 10260 20232 40111 52005 78122
 85425 22242 00260 20505 322// 40806 80240=
SHIP 10004 99300 11326 41298 82628 10249 20240 40134 52006 70202
 881// 22244 00276 20608 301// 40408 5//// 80250=
SHIP 10004 99342 11371 41798 33308 10250 20207 40112 54000 70066
 83641 22273 00280 20000 301// 40201 80220=
UCDL 10000 99475 11416 42598 60504 10160 40149 54000 80008 22232
 20201=
UDOD 10000 99553 11481 42648 01606 10130 40183 54000 86530 22253
 06080 20301 31700 40502=
UEYO 10001 99437 11358 41599 50406 11180 40106 52004 70122 83141
 22253 01190 20201=
UFLC 10000 99543 11432 41/94 91205 10103 40174 54000 74722 22232
 06090 20301 31200 40602=
UGOS 10001 99459 11425 41498 60709 10160 40106 54000 70222 8607/
 22263 04154 20503=
####018000306####
SMLY40 EUMS 100000 RRA
AAXX 10004
62140 36/// /2208 10229 20164 39778 40138 58004=
62210 36/// /0205 10274 20038 39600 40117 58009=
62176 NIL=
62225 36/// /0414 10292 20053 39645 40164 58010=
62121 36/// ///13 10246 20108 39467 48562 58006=
62145 36/// /2706 10234 20181 30110 40153 58011=
####018000994####
SMIN04 DEMS 100000
AAXX 10004
42634 21496 42702 10274 20260 40020 72065 84500
  333 58002 6992/ 84618=
42647 21595 52704 10268 20254 40047 70500 83830
  333 58001 6003/ 82620 84358=
42737 22596 22308 10264 20258 40040 82500
  333 58003 6003/ 82620=
42840 21596 40000 10270 20259 40060 70262 83830
  333 58000 6017/ 82625 84360=
42909 21495 82714 10288 20257 40046 75165 8462/
  333 58005 6015/ 82712 83825 85458=
42921 32496 70000 10228 20219 40065 84630
  333 58000 82710 83620 85360=
43003 21495 70000 10256 20247 40066 72065 85830
  333 59003 6023/ 82618 83825 85360=
43014 22596 72907 10234 20213 39415 40054 83530
  333 59009 6990/ 83620 85360=
43063 22596 32703 10232 20214 39447 40066 81701
  333 56609 59002 6990/ 81722 83070=
43110 21496 81403 10244 20238 40078 70252 8577/
  333 59003 6039/ 83710 83618 85458=
43117 22596 30000 10240 20217 40071 82530
  333 59004 6003/=
43192 22496 60904 10250 20247 40079 84720
  333 59007 6006/=
####018000130####
SMMN01 TNCM 100000
AAXX 10004
78866 01582 51011 10285 20232 30168 40173 52018 85200
333 10307 20000 58009 70051 85820=
####018001441####
SMMI01 GABS 100000
AAXX 10004
61202 NIL=
61214 NIL=
61223 11960 71804 10295 20215 39795 40085 69971 70396 87070
  333 0//12 58017 87463=
61226 12960 31806 10312 20194 39801 40085 60021 70196 83040
  333 0//14 58013 83365=
61230 32960 02606 10311 20207 39806 40068
  333 0//00 59007=
61233 32960 72206 10315 20196 3//// 4//// 80002
  333 0//00 5//// 87075=
61235 32960 52204 10305 20234 3//// 4//// 80002
  333 0//00 5//// 85075=
61240 32660 80000 10336 20250 39770 40083 8467/
  333 0//00 58016 84640 87465=
61250 11960 71810 10275 20208 3//// 4//// 69901 70293 8707/
  333 0//12 5//// 87365=
61257 32960 22606 10305 20241 30067 40159 80002
  333 0//00 59014 82075=
61265 32970 60000 10302 20219 39786 40083 83042
  333 0//00 58003 83365 83075=
61270 32560 72804 10270 20234 3//// 4//// 82570
  333 0//00 5//// 82630 86465=
61272 12960 02404 10290 20230 39780 40099 69981
  333 0//59 59002=
61277 32960 22604 10303 20240 39788 40098 80002
  333 0//00 58012 82075=
61285 32960 50000 10275 20247 39974 40124 85070
  333 0//00 59008 85365=
61291 32960 52404 10255 20241 39704 40110 81042
  333 0//00 58000 81362 84080=
61293 32960 52206 10242 20225 3//// 4//// 85040
  333 0//00 5//// 85365=
61296 11560 70000 10228 20225 39723 40113 60171 72196 84472
  333 0//21 59001 84630 85465=
61297 11960 70000 10235 20226 3//// 4//// 69921 70196 8707/
  333 0//16 5//// 87463=
####018000231####
SMZM01 NSAP 100000
AAXX 10004
91723 NIL=
91759 11598 30620 10323 20239 40135 58014 60001 70810 82102
  333 20234 70000 82822 83079=
91762 11598 60912 10306 20241 40133 58013 60001 70522 83802
  333 70000 83820 85078=
####018000137####
SMMN01 TNCM 100000
AAXX 10004
78866 01582 51011 10285 20232 30168 40173 52018 85200
333 10307 20000 58009 70051 85820=



####018000317####
SMVD22 KWNB 100000 RRR
BBXX
46232 10001 99325 71174 46/// ///// 1//// 90024 22200 00186 11302
21001 319// 41301 70008=
46244 10001 99409 71244 46/// ///// 1//// 90020 22200 00107 10603
20602 322// 41301 70013=
46246 10001 99500 71451 46/// ///// 1//// 90029 22200 00093 10905
20905 318// 41401 70024=
####018000647####
SMRA20 RUHB 100000
AAXX 10001
24856 32499 82702 10148 20121 39986 40130 52003 886// 333 20061 55079
88717=
30679 NIL=
30686 31599 60000 10167 20142 39786 40130 52012 70241 86900 333
20101=
30961 11899 62401 10206 20152 39367 40080 53011 60012 70262 86080 333
20174=
30971 32999 70000 10155 20131 39194 40100 52005 80008 333 20095=
30978 32599 60801 10210 20137 39466 40083 58002 82330 333 20163=
31513 11496 80901 10180 20167 39887 40094 52005 60072 78082 8593/ 333
20176=
31624 11499 72001 10185 20172 39887 40121 53007 60020 70264 87500 333
20161=
31832 32599 33201 10194 20166 30037 40116 52003 81530 333 20142=
####018000263####
SMRA21 RUHB 100000
AAXX 10001
31913 32699 63201 10208 20186 30007 40108 52007 86500 333 20170=
31939 11432 82501 10184 20164 39816 40115 52007 60190 71085 8567/ 333
20175=
32128 32599 73301 10180 20151 30082 40131 58003 87500 333 20151 91003
91104=
####018001318####
SMBZ83 KAWN 100000
AAXX 10004
83182 32594 80910 10225 20153 39325 40147 885// 333 10316 29054
 55102 59002=
83192 32995 01803 10234 20207 30004 40170 333 10295 29078 55052
 58000=
83208 32970 01604 10235 20167 39446 48580 333 10319 58010=
83339 32995 01412 10217 20122 39177 40148 333 10284 29036 55078
 59002=
83349 32570 22603 10227 20214 30176 40182 82100 333 102 67 59001=
83378 32970 01107 10218 20085 38996 48560 333 10271 58003=
83398 32594 50000 10234 20224 30187 40193 83520 333 10268 29091
 55052 59001=
83498 32595 81403 10232 20209 30197 40202 8552/ 333 10263 29085
 55066 59003=
83612 32970 30000 10212 20102 39529 48560 53017 83030 333 10289=
83649 32470 61112 10228 20211 30199 40204 52013 84530 333 10280=
83650 31/91 /1512 10220 20175 40248 52010 7001/ 8//// 222// 02240
 80190 333 10250=
83695 329// 00000 10232 20194 30061 40200 51010 333 10310 29071
 55057=
83780 31350 71506 10171 20150 39299 48580 52017 71011 87700 333
 10242=
83827 21566 71504 10152 20140 39917 4//// 51004 71062 82120 333
 10178 60041=
83840 31160 70906 10144 20126 39183 48570 51021 71011 87600 333
 10221=
83899 21558 72203 10180 20162 30216 4//// 51019 76062 85550 333
 10226 69921=
83971 21340 82603 10154 20154 30220 4//// 51019 71062 885// 333
 10156 69901=
####018000127####
SNVD22 KWNB 092300 RRX
BBXX
46246 09231 99500 71451 46/// ///// 1//// 92329 22200 00092 10805
20804 323// 41102 70023=
####018000127####
SMVD22 KWNB 100000 RRS
BBXX
46246 10001 99500 71451 46/// ///// 1//// 92359 22200 00093 10905
20904 318// 41501 70023=
####018000127####
SNVD22 KWNB 092200 RRU
BBXX
46246 09221 99500 71451 46/// ///// 1//// 92229 22200 00092 10905
20904 322// 41101 70023=
####018000127####
SNVD22 KWNB 092300 RRX
BBXX
46246 09231 99500 71451 46/// ///// 1//// 92259 22200 00092 10805
20804 322// 41101 70023=
####018001686####
SMCI34 BABJ 100000
AAXX 10001
56671 11680 83602 10195 20176 38157 52014 60021 78080 884//
333 05151 70210=
57378 11420 81603 10246 20239 40022 52006 60111 76060 8772/
333 05252 70109=
57426 31758 83401 10242 20232 40013 52011 71000 885// 333
00000 70079=
57476 11458 80000 10248 20230 40023 52008 60141 76060 8772/
333 05200 70159=
57584 32970 81805 10278 20246 40029 52010 8807/ 333 05102
70018=
57598 32660 70000 10250 20241 40042 52007 875// 333 00000
70290=
57655 32960 80000 10257 20239 40024 52011 8807/ 333 00001
70002=
57713 NIL=
57776 32175 62212 10209 20204 40053 52015 81102 333 00152
91125 91520=
58321 32660 81602 10270 20252 40027 52007 885// 333 05201=
58437 11/00 92513 10181 20179 38126 52003 60081 76064 333
00001 70533 91119 91525=
58445 NIL=
58556 32975 70000 10277 20237 40054 52008 86042 333 05103
70008=
58569 11440 82207 10255 20243 40063 52009 69901 71060 888//
333 05102 70042=
58646 11640 80000 10254 20242 40063 52006 69911 71060 885//
333 05102 70085=
58653 NIL=
58660 NIL=
58715 32980 71605 10287 20227 40060 52013 8704/ 333 00101
79999=
58730 31956 71801 10265 20243 40075 52013 71000 8704/ 333
00001 70089=
58731 32966 73401 10257 20243 40075 52009 8704/ 333 00003
70001=
58754 31957 72001 10283 20243 40068 52004 71000 82032 333
00001 70013=
58911 32667 71602 10274 20232 40087 52008 82142 333 00100=
58931 31/00 92509 10174 20174 38345 52006 74544 333 00051=
59254 32665 70201 10289 20251 40079 52017 8483/ 333 00100
70005=
59632 11565 71102 10288 20260 40068 52014 60051 71798 87902
333 00153 70053=
59855 32580 71803 10299 20254 40084 52016 81102 333 00100=
####018000127####
SIVD22 KWNB 092100 RRJ
BBXX
46246 09211 99500 71451 46/// ///// 1//// 92129 22200 00092 10905
20905 315// 41401 70025=
####018000127####
SNVD22 KWNB 092200 RRV
BBXX
46246 09221 99500 71451 46/// ///// 1//// 92159 22200 00092 10805
20805 315// 41401 70024=
####018000127####
SNVD22 KWNB 092000 RRO
BBXX
46246 09201 99500 71451 46/// ///// 1//// 92029 22200 00091 10805
20804 316// 41501 70023=
####018000127####
SNVD22 KWNB 092000 RRP
BBXX
46246 09201 99500 71451 46/// ///// 1//// 91959 22200 00091 10805
20805 317// 41401 70024=
####018000127####
SIVD22 KWNB 092100 RRK
BBXX
46246 09211 99500 71451 46/// ///// 1//// 92059 22200 00091 10905
20905 315// 41401 70024=
####018000127####
SMVD17 KWNB 100000 RRD
BBXX
46238 10001 99334 71195 46/// ///// 1//// 92356 22200 00147 11202
20502 318// 41201 70011=
####018000127####
SNVD22 KWNB 091900 RRX
BBXX
46246 09191 99500 71451 46/// ///// 1//// 91929 22200 00091 10804
20804 313// 41501 70022=
####018000125####
SMVD20 KWNB 100000 RRM
BBXX
44039 10001 99411 70727 46/// /1603 10256 20232 40117 90023 22200
1//00 70002 333 91205=
####018000127####
SNVD22 KWNB 091900 RRX
BBXX
46246 09191 99500 71451 46/// ///// 1//// 91859 22200 00091 10805
20804 313// 41401 70023=
####018000111####
SNVD20 KWNB 100100
BBXX
44097 10011 99410 70711 46/// ///// 1//// 90031 22200 00240 10702
20702 70009=
####018000495####
SMVD22 KWNB 100000 RRT
BBXX
46236 10001 99368 71219 46/// ///// 1//// 90020 22200 00132 11302
21001 321// 41301 70008=
46212 10001 99408 71243 46/// ///// 1//// 90021 22200 00108 10702
20702 70011=
46217 10001 99342 71194 46/// ///// 1//// 90021 22200 00171 11301
21001 319// 41301 70007=
46213 10001 99403 71247 46/// ///// 1//// 90020 22200 00123 11303
20602 317// 41301 70013=
46231 10001 99327 71174 46/// ///// 1//// 90012 22200 00185 11302
21001 320// 41301 70008=
####018001878####
SMIN05 DEMS 100000
AAXX 10004
43086 31596 60000 10270 20244 39875 40050 70522 83531
  333 59012=
43128 31597 40000 10244 20215 39468 40070 70511 82501
  333 59006 82620 83070=
43150 31596 72704 10280 20252 39984 40058 70522 83562
  333 59012 83620 86360=
43185 22596 22303 10276 20268 30054 40057 82500
  333 59018 6008/ 82620=
43189 22596 80000 10268 20248 30056 40065 8457/
  333 59013 6008/=
43198 32396 70000 10208 20202 39258 40084 84631
  333 56699 59005 83708 83615 85358=
43201 32596 22303 10218 20212 39364 40083 81530
  333 58003 81620=
43213 22996 40000 10256 20233 39759 40074 83032
  333 59006 6002/=
43226 22496 60000 10250 20241 30064 40093 86500
  333 56600 59004 6008/=
43233 32396 52304 10220 20199 39281 40089 82631
  333 56599 59005=
43237 22596 52303 10250 20220 39689 40080 82531
  333 59007 6995/ 82620 84360=
43245 22596 30000 10264 20250 30046 40072 83500
  333 59008 6005/=
43279 22596 50000 10260 20246 30071 40088 81531
  333 59002 6995/ 81620 83358=
43284 21396 60000 10244 20235 39973 40088 70522 82732
  333 56799 59004 6998/ 82706 83359 86075=
43295 22496 62702 10220 20202 39085 48494 85601
  333 56609 58003 6994/ 82710 84615=
43311 22596 62706 10276 20250 40084 83531
  333 59004 6005/ 83620 83360=
43314 32596 60000 10252 20237 40084 81432
  333 59010=
43321 21495 52002 10236 20227 39643 40090 70592 84601
  333 56509 59007 6990/ 84710=
43329 32596 70000 10266 20255 30067 40080 84521
  333 59007=
43346 21596 31804 10280 20260 30070 40077 71311 81931
  333 57963 59006 6993/ 81620 81930 83075=
43353 22496 60000 10252 20235 40093 82831
  333 56699 59001 6003/ 82616 84358 86070=
43369 22596 43206 10276 20250 40088 83501
  333 56609 59004 6993/ 83620=
43371 22596 70000 10250 20235 30012 40085 83470
  333 59017 6990/ 83620 85360=
43344 NIL=
####018000141####
SMIN05 DEMS 100000
AAXX 10003
43344 21496 60000 10274 20260 39986 40085 71311 84930
  333 57972 57982 59009 6003/ 83615 81925 85360=
####018000066####
SMMG20 FMMI 100000
AAXX 10004

67023 NIL=

67131 NIL=
####018000127####
SMMN01 TNCM 100000
AAXX 10004
78866 01582 51011 10285 20232 30168 40173 52018 85200
333 10307 20000 58009 70051 85820=
####018000238####
SNHK22 VHHH 100030
AAXX 10001
45032 36/// /2401 10301 20249 30080 40096 52001=
45035 36/// /2505 10283 20258 30054 40094 52002=
45039 36/// /2003 10300 20255 30078 40092 52001=
45044 36/// /2402 10282 20265 30006 40096 52001=
####018000241####
SNHK22 VHHH 100030
AAXX 10001
45032 36/// /2401 10301 20249 30080 40096 52001=
45035 36/// /2505 10283 20258 30054 40094 52002=
45039 36/// /2003 10300 20255 30078 40092 52001=
45044 36/// /2402 10282 20265 30006 40096 52001=

####018000224####
SMCN20 CWAO 100000 RRC
AAXX 10004
71005 16/// ///// 10240 20149 60001 333 10267 20095 70000=
71010 16/// /0308 10252 20160 60001 333 10277 20127 70011=
71011 16/// ///// 10261 20114 60001 333 10284 20129 70000=

####018000645####
SMCN25 CWAO 100000 RRD
AAXX 10004
71500 46/// /0703 10242 20146 6///1 333 7////=
71504 16/// ///// 10270 20144 60001 333 10278 20140 70045=
71507 17/// /2804 10202 20149 69951 7//4/ 333 10210 20117 70069=
71541 16/// /0210 10217 20105 60001 333 10232 20138 70000=
71542 16/// /3509 10211 20123 60001 333 10221 20110 70005=
71543 46/// /0307 10225 20107 6///1 333 10253 20094 7////=
71545 16/// ///// 10251 20151 60001 333 10280 20084 70000=
71546 16/// /1005 10241 20109 60001 333 10255 20110 70000=
71547 16/// /0503 10241 20090 60001 333 10242 20120 70000=
71549 16/// ///// 10231 20139 60001 333 10269 20131 70000=

####018000250####
SMCN24 CWAO 100000 RRD
AAXX 10004
71405 17/// ///// 10248 20151 60131 7//4/ 333 10279 20089 70130=
71417 16/// /2727 10209 20182 30017 40050 50003 60001 333 10230
20140 70000=
71426 46/// /1606 10147 20144 6///1 333 10260 20094 7////=

####018000203####
SMCN23 CWAO 100000 RRD
AAXX 10004
71311 16/// /2010 10227 20180 30118 40142 57003 60001 333 10266
20192 70000=
71320 16/// /1906 10143 20072 30045 40047 56002 60001 333 10151
20067 70000=

####018000122####
SMCN03 CWAO 100000 RRD
AAXX 10004
71467 16/// /3113 10027 20017 39935 40046 53018 60001 333 10052
20024 70000=

####018000183####
SMCN21 CWAO 100000 RRC
AAXX 10004
71116 16/// /1404 10300 20074 60001 333 10305 20124 70000=
71118 16/// /0207 10239 20120 39309 40105 56014 60001 333 10295
20120 70000=

####018000163####
SMCN38 CWAO 100000 RRB
AAXX 10004
71888 16/// ///// 10240 20124 60001 333 10270 20121 7////=
71895 16/// ///// 10279 20114 60001 333 10284 20107 70000=

####018000285####
SMCN22 CWAO 100000 RRE
AAXX 10004
71221 16/// /0105 10246 20073 60001 333 10254 20117 70000=
71226 16/// /0110 10231 20138 60001 333 10243 20125 70010=
71229 16/// /2801 10194 20147 60001 333 10215 20100 70026=
71231 16/// /2103 10311 20070 60001 333 10314 20111 70000=

####018000183####
SMCN29 CWAO 100000 RRC
AAXX 10004
71920 17/// /2010 10143 20143 30155 40161 56006 69991 7//4/ 333
10186 20131 70015=
71947 46/// /2905 10173 6///1 333 10181 20160 7////=

####018000102####
SMCN33 CWAO 100000 RRE
AAXX 10004
71359 16/// ///// 10246 20153 60001 333 10271 20114 7////=

####018000337####
SMCN34 CWAO 100000 RRE
AAXX 10004
71461 16/// /0505 10236 20111 60001 333 10247 20140 70000=
71468 17/// /2912 10189 20144 39801 40113 53001 69951 7//4/ 333
10242 20159 70005=
71470 16/// /3607 10114 20039 39507 40113 51001 60001 333 10115
20031 70086=
71483 17/// ///// 10212 20151 60121 7//4/ 333 10259 20098 70119=

####018000305####
SMCN36 CWAO 100000 RRC
AAXX 10004
71666 16/// /2110 10245 20169 60001 333 10306 20203 70000=
71673 16/// ///// 10264 20152 60001 333 10287 20114 70000=
71690 16/// ///// 10238 20103 60001 333 10261 20102 70000=
71692 46/// /2605 10147 20139 30111 40143 52008 6///1 333 10189
20108 7////=

####018000102####
SMCN30 CWAO 100000 RRB
AAXX 10004
71067 16/// ///// 10247 20139 60001 333 10289 20108 70000=

####018000212####
SMCN32 CWAO 100000 RRE
AAXX 10004
71271 16/// ///// 10217 20128 60001 333 7////=
71283 16/// /0316 10211 20103 60001 333 10245 20121 70000=
71284 16/// ///// 10246 20120 60001 333 10270 20116 70000=

####018000090####
SMCN31 CWAO 100000 RRD
AAXX 10004
71153 46/// /1805 10304 20079 6///1 333 7////=

####018000224####
SMCN37 CWAO 100000 RRD
AAXX 10004
71761 16/// ///// 10247 20135 60001 333 10272 20090 70000=
71788 16/// /2008 10311 20067 60001 333 10321 20110 70000=
71792 16/// ///// 10264 20115 60001 333 10295 20110 70008=

####018000122####
SMCN39 CWAO 100000 RRD
AAXX 10004
71978 16/// /0107 10261 20108 39800 40097 58019 60001 333 10266
20099 70000=

####018000122####
SMCN08 CWAO 100000 RRC
AAXX 10004
71928 16/// /1703 10230 20146 38993 40121 56010 60001 333 10268
20056 70000=

####018000737####
SMKP01 VDPP 100000
AAXX 10001
48969 NIL=
48962 32597 20000 10250 20244 30/// 40/// 82502 333
20250 82650 81070=
48990 NIL=
48986 NIL=
48995 32397 21602 10273 20252 30/// 40/// 82601 333
20236 82706=
48967 NIL=
48992 NIL=
48965 NIL=
48985 32598 60501 10267 20241 30/// 40/// 82908 333
20252=
48970 NIL=
48991 32460 31802 10270 20253 30073 40085 82802 333
20260 59003=
48964 NIL=
48997 22997 20000 10268 20259 30117 40225 80006 333
20230 59001 69962 82270=
48968 32597 20000 10255 20248 30120 40141 81201 333
20238 59008=
48973 NIL=
48966 32997 40901 10265 20219 30112 40125 82031 333
20260 59013=
48983 NIL=
48972 NIL=
48998 NIL=
48993 NIL=
48971 NIL=
48963 NIL=
48987 NIL=
####018000113####
SMRA16 RUNW 100000 RRA
AAXX 10001
29675 11998 01002 10134 20126 39514 40064 57002 60022 70181 333
20170=
####018002116####
SMCI36 BABJ 100000
AAXX 10001
56144 32580 71801 10125 20099 36886 52003 874// 333 00151
70057=
56152 32780 80000 10065 20026 36373 52005 885// 333 00354
30048 70093=
56167 32580 80000 10126 20092 37120 52011 884// 333 00353
70069=
56182 32480 60202 10084 20050 37244 52011 86500 333 00456
70089=
56357 11680 70000 10106 20087 36478 52006 69921 71580 879//
333 00051 70128=
56586 11460 83402 10156 20148 38020 52018 60111 78088 884//
333 00154 70178=
56748 32580 81602 10199 20167 38310 52012 884// 333 05100
79999=
56763 32680 81604 10286 20162 49975 52015 884// 333 05103
79999=
56768 32680 72203 10221 20155 38137 52011 874// 333 00001
79999=
56838 11565 80000 10223 20211 40057 52010 60191 78080 889//
333 05100 70192=
56886 32680 72002 10204 20174 38247 52009 874// 333 00000
79999=
56946 31575 70202 10226 20216 40049 52010 71500 874// 333
05101 79999=
56959 11780 71601 10265 20224 40044 52014 69901 70080 874//
333 00002 79999=
56969 11570 82201 10235 20219 40063 52012 69931 78080 889//
333 00000 70106=
57731 32765 80000 10265 20234 40005 52011 885// 333 00051=
57766 31757 70000 10278 20238 40044 52011 71000 8354/ 333
00151 70099=
57845 11768 72005 10278 20211 40050 52019 69901 70080 875//
333 00100 79999=
57853 32665 70901 10277 20224 40042 52016 8214/ 333 00100=
57916 11670 80201 10264 20250 40019 52015 60021 78000 888//
333 00051 70029=
57922 11472 81605 10231 20219 40030 52011 60031 79198 882//
333 05100 70030=
57932 11359 80000 10257 20248 40039 52011 60211 76098 885//
333 00053 70207=
58338 11662 82001 10267 20253 40032 52011 69901 72160 885//
333 05102 70015=
59007 32970 72201 10241 20192 40024 52010 8703/ 333 00001
70011=
59046 32575 61605 10298 20247 40063 52014 81132 333 00101=
59058 32573 71401 10278 20234 40081 52020 874// 333 00251
79999=
59072 11570 72001 10277 20243 40078 52012 69961 70080 87400
333 00151 70006=
59087 11561 72203 10283 20241 40089 52008 69901 70080 87202
333 00100 79999=
59209 11466 81601 10230 20209 40048 52009 60021 78098 889//
333 00152 70023=
####018000880####
SMVD15 KWNB 100000 RRS
BBXX
41009 10001 99285 70802 46/// /1604 10284 20228 40149 90020 22200
00285 10801 300// 40801 70004 333 91205 555 11042 22044=
41141 10001 99177 70646 46/// ///// 1//// 90021 22200 00296 10603
20603 70015=
41140 10001 99178 70647 46/// ///// 1//// 90022 22200 00292 10602
20602 70009=
44100 10001 99363 70756 46/// ///// 1//// 90022 22200 00265 10702
20702 70011=
44235 10001 99473 70573 46/// ///// 1//// 90024 22200 00125 10602
20602 70012=
41110 10001 99341 70777 46/// ///// 1//// 90027 22200 00271 10302
20301 70008=
42099 10001 99273 70842 46/// ///// 1//// 90019 22200 00305 1//00
70002=
41113 10001 99284 70805 46/// ///// 1//// 90021 22200 00280 11101
20901 70003=
41112 10001 99307 70813 46/// ///// 1//// 90021 22200 00281 10401
20401 70006=
42361 10001 99276 70925 46/// ///// 1//// 40142 56007 90030=
####018000101####
SMVD15 KWNB 100000 RRT
BBXX
42013 10001 99272 70829 46/// ///// 1//// 40147 92340 22200 00300=
####018000119####
SMCN03 CWAO 100000 RRD
AAXX 10004
71467 16/// /3113 10027 20017 39935 40046 53018 60001 333 10052
20024 70000=
####018000119####
SMCN08 CWAO 100000 RRC
AAXX 10004
71928 16/// /1703 10230 20146 38993 40121 56010 60001 333 10268
20056 70000=
####018000728####
SMIR01 OIII 100000
AAXX 10001
40706 12962 00403 10228 21020 38633 40037 53005 60001 333=
40718 12960 00000 10266 20231 30088 40061 58002 60001 333=
40732 12960 02202 10262 20221 30079 40057 50001 60001 333=
40745 12962 03002 10260 20078 38990 40034 56004 60001 333=
40754 12960 03403 10298 20037 38780 49996 55000 60001 333=
40766 12960 01602 10190 21032 38674 40040 51005 60001 333=
40800 12960 00000 10228 21007 38435 40008 55002 60001 333=
40811 12960 00000 10310 20239 39975 40000 58001 60001 333=
40841 12970 00203 10250 20000 38234 49983 58004 60001 333=
40848 12965 03402 10216 20091 38481 49989 53001 60001 333=
40856 12960 00000 10216 21045 38575 49978 56006 60001 333=
40875 11956 00404 10
####018000099####
SMSB20 VCCC 100000 CCB
AAXX 10004
43466 22970 00000 10240 20231 30066 40078 333 59007 60007=
####018000883####
SMDR01 MDSD 100000
AAXX 10001

78458 31463 11005 10280 20252 40167 53006 70644 81200 333 00000 10334
20243 30/// 58002 81818= 

78460 31460 31104 10272 20235 40163 52014 70584 83900 333 06000 10335
20229 30/// 58004 82918 82818=

78467 32566 10905 10284 20240 40160 52012 81200 333 02200 10316 20233
30/// 58002 81820=

78479 31458 50905 10270 20226 40140 56001 71392 84933 333 06100 10314
20268 30/// 58003 81916 83818=

78482 31465 71604 10288 20264 40158 52001 70644 85906 333 06400 10330
202232 30/// 59012 81915 84620 83080=

78485 31466 50204 10245 20226 40152 51004 71362 84906 333 06000 10320
20233 32/// 59005 81916 83818 85080=

78486 21458 70202 10292 20265 40148 52002 71396 85920 333 06000 10323 
20259 31/// 59004 69907 82918 83616 86457=

78488 32466 70000 10270 20241 40160 52012 84907 333 06000 10338 20240
59002 81915 83618 83680=


=
####018000911####
SMDR01 MDSD 100000
AAXX 10001

78458 31463 11005 10280 20252 40167 53006 70644 81200 333 00000 10334
20243 30/// 58002 81818= 

78460 31460 31104 10272 20235 40163 52014 70584 83900 333 06000 10335
20229 30/// 58004 82918 82818=

78467 32566 10905 10284 20240 40160 52012 81200 333 02200 10316 20233
30/// 58002 81820=

78479 31458 50905 10270 20226 40140 56001 71392 84933 333 06100 10314
20268 30/// 58003 81916 83818=

78482 31465 71604 10288 20264 40158 52001 70644 85906 333 06400 10330
202232 30/// 59012 81915 84620 83080=

78485 31466 50204 10245 20226 40152 51004 71362 84906 333 06000 10320
20233 32/// 59005 81916 83818 85080=

78486 21458 70202 10292 20265 40148 52002 71396 85920 333 06000 10323 
20259 31/// 59004 69907 82918 83616 86457=

78488 32466 70000 10270 20241 40160 52012 84907 333 06000 10338 20240
59002 81915 83618 83680=


=
####018000728####
SMIR02 OIII 100000
AAXX 10001
40703 12960 00000 10198 20086 38876 40033 53003 60001 333=
40712 12965 02602 10160 20040 38657 40047 53003 60001 333=
40729 12960 00000 10200 20015 38342 40024 50002 60001 333=
40736 12960 00000 10258 20244 30091 40068 53007 60001 333=
40739 12965 00303 10264 20083 38662 40013 56002 60001 333=
40743 12965 00704 10302 20043 39013 40020 57005 60001 333=
40762 12960 00205 10244 20035 38529 40012 58004 60001 333=
40768 12960 00000 10183 21032 38268 40033 52002 60001 333=
40769 12960 02603 10238 20002 38298 40005 53007 60001 333=
40785 12960 02102 10302 20037 39007 40008 58004 60001 333=
40809 12960 00802 10236 20077 38485 40003 56007 60001 333=
40821 12960 00000 10
####018000100####
SNAA14 KARS 092200
AAXX 09224
89528 46/// /0151 4//// 5////=
89049 46/// /1711 4//// 5////=
####018000879####
SMDR01 MDSD 100000
AAXX 10001
78458 31463 11005 10280 20252 40167 53006 70644 81200 333 00000 10334
20243 30/// 58002 81818=
78460 31460 31104 10272 20235 40163 52014 70584 83900 333 06000 10335
20229 30/// 58004 82918 82818=
78467 32566 10905 10284 20240 40160 52012 81200 333 02200 10316 20233
30/// 58002 81820=
78479 31458 50905 10270 20226 40140 56001 71392 84933 333 06100 10314
20268 30/// 58003 81916 83818=
78482 31465 71604 10288 20264 40158 52001 70644 85906 333 06400 10330
202232 30/// 59012 81915 84620 83080=
78485 31466 50204 10245 20226 40152 51004 71362 84906 333 06000 10320
20233 32/// 59005 81916 83818 85080=
78486 21458 70202 10292 20265 40148 52002 71396 85920 333 06000 10323
20259 31/// 59004 69907 82918 83616 86457=
78488 32466 70000 10270 20241 40160 52012 84907 333 06000 10338 20240
59002 81915 83618 83680=
=
####018000086####
SMBC01 FBSK 100000 RRA
AAXX 10004
68240 42960 02002 10057 20016 48542 56009=

####018000083####
SMBC01 FBSK 100000 RRA
AAXX 10004
68240 42960 02002 10057 20016 48542 56009=
####018000132####
SMMN01 TNCM 100000
AAXX 10004
78866 01582 51011 10285 20232 30168 40173 52018 85200
333 10307 20000 58009 70051 85820=
/=
####018000113####
SMRA16 RUHB 100000 RRA
AAXX 10001
25745 32699 62508 10165 20098 30100 40148 57016 82201 333 20094
55159=
####018000101####
SMKZ01 UAAA 100000 CCA
AAXX 10001
34691 42998 03402 10274 20042 30103 40092 54000 555   1/021=
####018000101####
SMKZ01 UAAA 100000 CCB
AAXX 10001
35700 42998 01002 10278 20144 30128 40107 52008 555   10021=
####018000178####
SNVD15 KWNB 092300 RRX
BBXX
42013 09231 99272 70829 46/// ///// 1//// 40145 92320 22200 00301=
42013 09231 99272 70829 46/// ///// 1//// 40145 56013 92300 22200
00303=
####018000716####
SMIR01 OIII 100000
AAXX 10001
40706 12962 00403 10228 21020 38633 40037 53005 60001 333=
40718 12960 00000 10266 20231 30088 40061 58002 60001 333=
40732 12960 02202 10262 20221 30079 40057 50001 60001 333=
40745 12962 03002 10260 20078 38990 40034 56004 60001 333=
40754 12960 03403 10298 20037 38780 49996 55000 60001 333=
40766 12960 01602 10190 21032 38674 40040 51005 60001 333=
40800 12960 00000 10228 21007 38435 40008 55002 60001 333=
40811 12960 00000 10310 20239 39975 40000 58001 60001 333=
40841 12970 00203 10250 20000 38234 49983 58004 60001 333=
40848 12965 03402 10216 20091 38481 49989 53001 60001 333=
40856 12960 00000 10216 21045 38575 49978 56006 60001 333=
40875 11956 00404 10
####018000089####
SMNT50 KAWN 100000 RRA
AAXX 10004
04330 46/// /0113 10078 21031 30034 40052 52005=
####018000089####
SMNT04 KAWN 100000 RRA
AAXX 10004
04330 46/// /0113 10078 21031 30034 40052 52005=
####018000338####
SMVS01 VNNN 100000 RRA
AAXX 10001
48839 32998 61810 10300 20273 39992 40055 52011 80008 222// 00297 
3//03 333 00/// 20294 58009 86299=
48848 32998 62302 10310 20249 30056 40064 53014 80008 333 00034 
20294 3/029 58002 86299=
48855 32770 70000 10279 20232 30065 40073 53016 81508 333 00031 
20259 3/025 58002 81697 87299=
####018000132####
SMVS02 VNNN 100000 RRA
AAXX 10001
48852 32998 72301 10282 20231 30057 40067 52010 80008 333 00031 
20248 3/025 59001 87299=
