####018000121####
SIVD45 KWNB 100300
BBXX
45022 10031 99454 70851 46/// /3101 10208 40170 90240 22200 00201
1//00 70001 333 91201=
####018000107####
SNVD15 KWNB 100200 RRT
BBXX
41037 10021 99340 70775 46/// /2307 10282 40116 51012 90200 333
91208=
####018000147####
SNVD20 KWNB 100200 RRT
BBXX
44024 10021 99423 70659 46/30 /1707 10202 40164 54000 90204 22200
00176 10802 70012 333 91208 555 11095 22107=
####018000087####
SNIY21 LIIB 100200 RRC
AAXX 10024
16052 42962 02305 10076 21069 36790 47237 57004=
####018000072####
SALY31 HLLT 100300
METAR HLLT 100250Z 09005KT 6000 SKC 22/19 Q1017=
####018000096####
SIPS21 NZKL 092100 RRA
AAXX 09214
91723 NIL=
91964 46/// /1511 10185 20130 40247 57007=
####018000130####
SNAA20 LIIB 100200
AAXX 10024
89661 46/// /2348 11180 39077 4//// 5////=
89666 46/// /2618 11204 29053 39584 4//// 5////=
####018000097####
SNIY20 LIIB 100200 RRC
AAXX 10024
16110 42998 00000 10222 20201 30195 40199 58004 555 0////=
####018000074####
SALY31 HLLT 100300
METAR HLLT 100250Z 
09005KT 6000 SKC 22/19 Q1017=
####018000157####
SMID20 WIIX 100000 RRC
AAXX 10004
96001 31557 60000 10264 20246 39964 40112 5//// 70522 83232
  333 20232 50100 55080 56600 57862 59003 83820 80860=
####018000127####
SNAU02 AMMC 100200 CCA
AAXX 10024
95322 41/82 70105 10226 20152 39773 40169 58003 70222 87070 90230
  333 20174=


####018000099####
SNIY20 LIIB 100200 RRD
AAXX 10024
16280 42997 00000 10232 20215 39977 40191 58001 555 0////=
####018000098####
SIZB20 FLLS 100300
AAXX 10034
67665 42980 70000 10116 20116 48537 87030 333 59028 87359=

####018000087####
SNIY20 LIIB 100200 RRE
AAXX 10024
16008 42962 00000 10160 20129 38630 48589 53003=
####018000097####
SNIY20 LIIB 100200 RRD
AAXX 10024
16280 42997 00000 10232 20215 39977 40191 58001 555 0////=
####018000196####
SIZM20 NSAP 100300
AAXX 10034

 

91762 41598 60912 10304 20245 40119 56014 70522 83802 333 562/9 83820 85078=

 

91759 41598 60912 10319 20236 40120 56015 71500 83205 333 563/9 83820 86077=
####018000491####
SIVD22 KWNB 100300
BBXX
46245 10031 99343 71193 46/// ///// 1//// 90236 22200 00162 11301
21001 320// 41301 70007=
46243 10031 99462 71241 46/// ///// 1//// 90234 22200 00144 10703
20702 321// 41401 70013=
46241 10031 99330 71173 46/// ///// 1//// 90238 22200 00183 11301
21001 323// 41301 70006=
46240 10031 99366 71219 46/// ///// 1//// 90245 22200 00128 10401
20401 70005=
46237 10031 99378 71226 46/// ///// 1//// 90236 22200 00137 11301
21001 322// 41301 70007=
####018000115####
SNVD15 KWNB 100200 RRU
BBXX
44235 10021 99473 70573 46/// ///// 1//// 90224 22200 00124 10602
20602 70012=
####018000313####
SIVE15 KWNB 100300
BBXX
51200 10031 99211 71583 46/// ///// 1//// 90243 22200 00259 11303
20603 316// 41301 70015=
51203 10031 99208 71570 46/// ///// 1//// 90245 22200 00259 11701
20301 321// 41701 70007=
51201 10031 99217 71581 46/// ///// 1//// 90242 22200 00256 10602
20602 305// 41201 70012=
####018000590####
SNVD22 KWNB 100200 RRT
BBXX
46229 10021 99438 71246 46/// ///// 1//// 90208 22200 00126 10602
20602 323// 41301 70011=
46216 10021 99343 71198 46/// ///// 1//// 90224 22200 00167 10502
20502 70009=
46225 10021 99329 71174 46/// ///// 1//// 90225 22200 00179 11302
21001 319// 41301 70008=
46223 10021 99335 71178 46/// ///// 1//// 90226 22200 00185 11302
21001 318// 41301 70008=
46222 10021 99336 71183 46/// ///// 1//// 90218 22200 00182 11301
20801 318// 41301 70006=
46215 10021 99352 71209 46/// ///// 1//// 90209 22200 00129 11302
20901 320// 41301 70008=
####018000127####
SNVD22 KWNB 100200 RRU
BBXX
46242 10021 99332 71174 46/// ///// 1//// 90227 22200 00178 11302
21001 321// 41301 70008=
####018000127####
SIVD22 KWNB 100300 RRA
BBXX
46218 10031 99345 71208 46/// ///// 1//// 90243 22200 00146 11302
20802 319// 41301 70012=
####018000222####
SIVD22 KWNB 100300 RRB
BBXX
46211 10031 99469 71242 46/// ///// 1//// 90236 22200 00130 10803
20803 320// 41401 70013=
46214 10031 99379 71235 46/// ///// 1//// 90234 22200 00098 11302
20802 318// 41301 70011=
####018000198####
SIVD20 KWNB 100300 RRA
BBXX
44098 10031 99428 70702 46/// ///// 1//// 90237 22200 00198 10802
20802 70010=
44099 10031 99369 70758 46/// ///// 1//// 90238 22200 00261 10702
20702 70010=
####018000125####
SNVD20 KWNB 100200 RRU
BBXX
44039 10021 99411 70727 46/// /1504 10250 20229 40121 90230 22200
1//00 70001 333 91206=
####018000089####
SNIY20 LIIB 100200 RRE
AAXX 10024
16008 42962 00000 10160 20129 38630 48589 53003=
####018000085####
SIAA19 LFVW 100300
AAXX 10034
89662 46/// /2945 11145 29027 39634 4//// 5////=
