####018000087####
SAKN64 HKMO 100100
METAR HKJK 100100Z 24008KT 9999 FEW018 SCT080 11/10 Q1021 NOSIG=
####018000105####
SMBZ83 KAWN 100000 RRD
AAXX 10004
83566 32970 51603 10182 20122 39262 48570 85030 333 10231 58005=
####018000353####
SNAA01 KARS 092300 RRG
AAXX 0923/
89768 46/// ///// 11293 38681 4//// 5////=
89376 46/// ///// 11399 39700 4//// 5////=
89324 46/// ///// 11305 37898 4//// 5////=
89828 46/// ///// 11676 36503 4//// 5////=
89879 46/// ///// 11171 39671 4//// 5////=
89332 46/// ///// 11351 38973 4//// 5////=
89314 46/// ///// 11326 38037 4//// 5////=
####018000344####
SNAA01 KARS 092200 RRE
AAXX 0922/
89869 46/// ///// 11285 39735 4//// 5//// 92240=
89834 46/// ///// 11499 37401 4//// 5//// 92240=
89866 46/// ///// 11230 39676 4//// 5//// 92240=
89864 46/// ///// 11255 39682 4//// 5//// 92240=
89868 46/// ///// 11326 39728 4//// 5//// 92240=
89769 46/// ///// 11281 39748 4//// 5//// 92240=
####018000539####
SMNP01 VNKT 100000 RRA
AAXX 10004
44416 41450 70000 10255 20250 39251 49980 720// 8464/ 333 59039=
44438 41450 81203 10260 20258 39882 40004 750// 8587/ 333 59021=
44477 NIL=



SMNP20 VNKT 100000 RRB
AAXX 10004
44404 42560 12701 10192 20176 38107 48446 81100 333 59007=
44424 41430 80000 10174 20167 37646 47063 7416/ 8587/ 333 59017=
44434 41330 80000 10222 20217 39123 48460 761// 8682/ 333 59029=
44449 42358 80310 10258 20252 39860 40008 8317/ 333 59013=
44462 NIL=
44474 NIL=
44478 NIL=




####018000527####
SMNP01 VNKT 100000 RRA
AAXX 10004
44416 41450 70000 10255 20250 39251 49980 720// 8464/ 333 59039=
44438 41450 81203 10260 20258 39882 40004 750// 8587/ 333 59021=
44477 NIL=



SMNP20 VNKT 100000 RRB
AAXX 10004
44404 42560 12701 10192 20176 38107 48446 81100 333 59007=
44424 41430 80000 10174 20167 37646 47063 7416/ 8587/ 333 59017=
44434 41330 80000 10222 20217 39123 48460 761// 8682/ 333 59029=
44449 42358 80310 10258 20252 39860 40008 8317/ 333 59013=
44462 NIL=
44474 NIL=
44478 NIL=
####018000247####
SNHK22 VHHH 100130
AAXX 10011
45032 36/// /2702 10315 20248 30082 40098 54000=
45035 36/// /2505 10295 20256 30058 40098 54000=
45039 36/// /2103 10311 20244 30079 40093 54000=
45044 16/// /2504 10261 20255 30011 40102 54000 60040=

####018000244####
SNHK22 VHHH 100130
AAXX 10011
45032 36/// /2702 10315 20248 30082 40098 54000=
45035 36/// /2505 10295 20256 30058 40098 54000=
45039 36/// /2103 10311 20244 30079 40093 54000=
45044 16/// /2504 10261 20255 30011 40102 54000 60040=
####018000512####
SMNP01 VNKT 100000 RRA
AAXX 10004
44416 41450 70000 10255 20250 39251 49980 720// 8464/ 333 59039=
44438 41450 81203 10260 20258 39882 40004 750// 8587/ 333 59021=
44477 NIL=



SMNP20 VNKT 100000 RRB
AAXX 10004
44404 42560 12701 10192 20176 38107 48446 81100 333 59007=
44424 41430 80000 10174 20167 37646 47063 7416/ 8587/ 333 59017=
44434 41330 80000 10222 20217 39123 48460 761// 8682/ 333 59029=
44449 42358 80310 10258 20252 39860 40008 8317/ 333 59013=
44462 NIL=
44474 NIL=
44478 NIL=
####018000263####
SNAA01 KARS 100100 RRA
AAXX 1001/
89768 46/// ///// 11298 38671 4//// 5////=
89866 46/// ///// 11218 39652 4//// 5////=
89376 46/// ///// 11408 39686 4//// 5////=
89329 46/// ///// 11314 38517 4//// 5////=
89879 46/// ///// 11168 39675 4//// 5////=
####018000067####
SMAA01 KARS 100100
AAXX 1001/
89667 46/// ///// 4//// 5////=
####018000079####
SNAA01 KARS 100100
AAXX 10014
89667 46/// /0817 11287 39784 4//// 5////=
####018000119####
SMRA16 RUNW 100000 CCA
AAXX 10001
30504 31996 80902 10163 20158 39454 40047 57006 72842 8807/ 333 20123
55003=
