####018000725####
SAYE20 OYSC 100100 RRA
METAR OYAA 100100Z 17008KT 7000 SCT020 BKN100 32/18 Q1002=
METAR OYAG 100100Z NIL=
METAR OYAM 100100Z NIL=
METAR OYAR 100100Z NIL=
METAR OYAS 100100Z NIL=
METAR OYAT 100100Z NIL=
METAR OYDM 100100Z NIL=
METAR OYHD 100100Z 25006KT 8000 SCT030 32/30 Q////=
METAR OYIB 100100Z NIL=
METAR OYKD 100100Z NIL=
METAR OYMB 100100Z NIL=
METAR OYMK 100100Z NIL=
METAR OYMT 100100Z NIL=
METAR OYRN 100100Z 02004KT 7000 FEW025 29/24 Q1003=
METAR OYSD 100100Z NIL=
METAR OYSH 100100Z NIL=
METAR OYSN 100100Z 20003KT 8000 SCT030 18/15 Q1021=
METAR OYSQ 100100Z 22032G42KT 9999 FEW018 26/21 Q1007=
METAR OYSY 100100Z 23003KT 190V260 CAVOK 29/20 Q1005=
METAR OYTZ 100100Z NIL=
####018000127####
SMIN02 DEMS 100000 RRA
AAXX 10004
42398 21496 80703 10250 20250 40032 76062 8572/
  333 58007 6035/ 83710 83615 87458=
####018000095####
SMTA10 UTDD 100000 RRB
AAXX 10001
38725 42699 20000 10114 20074 37818 48540 52003 82500=
####018000121####
SNAU40 AMMC 100100 RRB
AAXX 10014
94410 11/84 10000 10076 20067 30045 40217 60004 70200 80001
  333 70000=


####018000121####
SNAU41 AMMC 100100 RRB
AAXX 10014
94633 11/01 90000 10044 20039 39812 40166 52022 69984 74544
  333 70008=


####018000713####
SMAA01 KARS 100100 RRA
AAXX 1001/
89768 46/// ///// 11298 38673 4//// 5////=
89872 46/// ///// 11281 39737 4//// 5////=
89377 46/// ///// 11326 39725 4//// 5////=
89869 46/// ///// 11285 39714 4//// 5////=
89834 46/// ///// 11488 37438 4//// 5////=
89866 46/// ///// 11214 39654 4//// 5////=
89864 46/// ///// 11249 39696 4//// 5////=
89376 46/// ///// 11405 39686 4//// 5////=
89324 46/// ///// 11279 37885 4//// 5////=
89329 46/// ///// 11316 38513 4//// 5////=
89868 46/// ///// 11305 39714 4//// 5////=
89879 46/// ///// 11168 39675 4//// 5////=
89332 46/// ///// 11348 38943 4//// 5////=
89769 46/// ///// 11288 39743 4//// 5////=
89314 46/// ///// 11326 38029 4//// 5////=
####018000191####
SMAA01 KARS 100000 RRG
AAXX 1000/
89768 46/// ///// 11298 38673 4//// 5//// 90040=
89828 46/// ///// 11686 36513 4//// 5//// 90040=
89879 46/// ///// 11169 39674 4//// 5//// 90040=
####018003025####
SMPH20 RPMM 100000
AAXX 10001
98132 31470 62501 10300 20273 40143 51010 70544 82208
333 20250 56599 58010 82817 85275=
98133 31481 50000 10/// 20/// 40111 5//// 83306 222//
2//// 333 20/// 56999 58012 83918 85070=
98222 11575 70000 10282 20245 40113 53016 60134 70544
81238 333 20234 56999 58008 70134 81820 87277 =
98233 11570 51803 10275 20255 40110 53017 69904 70544
83270 333 20224 56999 58006 79990 83820 85358 555 O////=
98324 11465 40000 10284 20258 30114 40120 52016 69954
70544 82901 333 20246 56999 58012 70005 81915 81816
83080=
98327 31557 70501 10271 20240 39954 40128 53012 69944
70544 81201 333 20226 56999 58002 70004 81825 87077=
98334 12480 61601 10275 20247 39908 40111 52010 69954
82208 333 20254 56999 59002 70005 82818 86275=
98425 31558 63603 10300 20242 40117 52010 70544 83170
333 20260 56999 58007 83820 86457=
98426 11450 60402 10271 20237 40119 52012 60154 70544
82908 333 20239 56999 58007 70151 81918 81820 86280
555 29999=
98427 12475 50902 10292 20239 39940 40117 53013 60284
82208 333 20230 56999 58000 70280 82818 85275=
98428 31462 50402 10298 20248 40113 52011 70541 82971
333 20283 56999 58009 81917 84275=
98432 11568 50000 10288 20259 30104 40116 52008 60044
70544 81272 333 20236 56999 58001 70040 81820=
98433 31465 73401 10225 20210 39401 40122 53019 70544
82230 333 20210 56999 58006 82812 85357=
98434 12470 60000 10278 20254 30111 40119 53028 60184
84201 333 20235 56999 58005 70176 84818 83075=
98435 12472 60402 10293 20254 40115 53011 60334 83202
333 20227 56199 58009 70332 83818 84072=
98442 NIL=
98446 32480 51002 10302 20269 30079 40125 53026 84201
333 20250 56999 58004 84818=
98447 11480 61102 10276 20255 39858 40121 5//// 60044
71582 83970 222// 2//// 333 20/// 56299 58014 70040
81915 82818 84357 555 20008=
98538 31464 50000 10270 20250 30115 40120 53017 70594
82906 333 20260 56999 58015 82911 85072=
98546 12575 61801 10292 20250 30101 40109 52019 69984
82208 333 20241 56999 58006 70008 82820 86275=
98548 32480 10000 10300 20257 30090 40096 53008 81200
333 20265 56999 59009 81816 98301=
98553 NIL=
98558 11475 42002 10296 20274 30057 40125 53017 60054
71522 83308 222// 20202 333 20270 56999 58005 70050
81915=
98642 11465 60000 10265 20252 30104 52019 60024 72582
82970 333 20258 56399 58006 70022 82915 86358 555 20022=
98644 31465 70000 10272 20254 30111 40120 53019 70544
83368 333 20252 56999 58010 81916 85272=
98648 31480 20000 10297 20257 30034 40116 52021 70544
82201 333 20245 56399 58007 82817=
98746 11462 81202 10268 20226 40105 52030 60354 70596
83978 333 20213 56999 58001 70353 83918 85358 87275=
98751 11460 80000 10222 20218 39455 40130 52030 60084
74044 8497/ 333 20170 56999 58012 70079 84915 88356=
98752 31468 61203 10272 20260 40133 52021 70522 82938
333 20248 56999 58016 82915 83358 85275=
98851 11470 70901 10252 20225 39972 40121 53018 60414
70182 82270 333 20224 56999 58005 70411 82818 87358
555 20411=
####018000115####
SNAU01 AMMC 100100 RRB
AAXX 10014
94211 11960 00000 10257 20185 39546 40171 60004 70200
  333 70000=


####018000083####
SMNT50 KAWN 100000 RRB
AAXX 10004
04203 46/// /1914 10029 30048 40062 57001=
####018000083####
SMNT04 KAWN 100000 RRB
AAXX 10004
04203 46/// /1914 10029 30048 40062 57001=
####018000241####
SNHK22 VHHH 100145
AAXX 10011
45032 36/// /2903 10315 20251 30081 40097 57001=
45035 36/// /2405 10299 20253 30058 40098 54000=
45039 36/// /2004 10316 20245 30079 40093 54000=
45044 36/// /2604 10262 20259 30010 40101 57001=

####018000238####
SNHK22 VHHH 100145
AAXX 10011
45032 36/// /2903 10315 20251 30081 40097 57001=
45035 36/// /2405 10299 20253 30058 40098 54000=
45039 36/// /2004 10316 20245 30079 40093 54000=
45044 36/// /2604 10262 20259 30010 40101 57001=
####018000450####
SNVD15 KWNB 100100 RRV
BBXX
42369 10011 99272 70903 46/// /0903 10289 90040 22200 10501 70005=
42370 10011 99273 70905 46/// ///02 10291 90040 22200 10501 70005=
42374 10011 99289 70881 46/// ///03 10292 40141 90040=
42376 10011 99291 70879 46/// /2604 10289 40129 90040 22200 10201
70004=
42392 10011 99272 70900 46/// ///// 1//// 90040 22200 10301 70004=
42887 10011 99282 70885 46/// /0000 10298 20237 90040 22200 10601
70007=
####018000262####
SNVD20 KWNB 100100 RRT
BBXX
44030 10011 99432 70704 46/// /1708 10194 40114 55000 90104 22200
00176 10802 70010 333 91210 555 11099 22109=
44032 10011 99437 70694 46/06 /1706 10184 40116 55003 90104 22200
00168 10802 70010 333 91208 555 11083 22092=
