####018001135####
SNCN19 CWAO 092241
OOXX
RUP60 09201 99531 11588 ///// ////1
     26/// /1704 10097 29088 30127 92046 333 60000=
RUP60 09201 99531 11588 ///// ////1
     26/// /1703 10097 29087 30128 92056 333 60000=
RUP60 09211 99531 11588 ///// ////1
     26/// /1202 10100 29086 30128 92106 333 60000=
RUP60 09211 99531 11588 ///// ////1
     26/// /1503 10102 29085 30128 92116 333 60000=
RUP60 09211 99531 11588 ///// ////1
     26/// /1204 10103 29085 30128 92126 333 60000=
RUP60 09211 99531 11588 ///// ////1
     26/// /1902 10104 29085 30128 92136 333 60000=
RUP60 09211 99531 11588 ///// ////1
     26/// /2002 10106 29084 30129 92146 333 60000=
RUP60 09211 99531 11588 ///// ////1
     26/// /2102 10103 29083 30129 92156 333 60000=
RUP60 09221 99531 11588 ///// ////1
     26/// /2103 10107 29082 30128 92206 333 60000=
RUP60 09221 99531 11588 ///// ////1
     26/// /3103 10105 29085 30128 92216 333 60000=
RUP60 09221 99531 11588 ///// ////1
     26/// /1903 10104 29083 30129 92226 333 60000=
RUP60 09221 99531 11588 ///// ////1
     26/// /2903 10106 29084 30128 92236 333 60000=

####018001135####
SNCN19 CWAO 092204
OOXX
ISP34 09201 99641 70218 ///// ////1
     26/// /2403 10142 29075 39936 92010 333 6///0=
ISP34 09201 99641 70218 ///// ////1
     26/// /2503 10140 29080 39936 92020 333 6///0=
ISP34 09201 99641 70218 ///// ////1
     26/// /2403 10139 29081 39937 92030 333 6///0=
ISP34 09201 99641 70218 ///// ////1
     26/// /2503 10139 29079 39937 92040 333 6///0=
ISP34 09201 99641 70218 ///// ////1
     26/// /2403 10138 29078 39938 92050 333 6///0=
ISP34 09211 99641 70218 ///// ////1
     26/// /2602 10138 29079 39938 92100 333 6///0=
ISP34 09211 99641 70218 ///// ////1
     26/// /2502 10137 29078 39939 92110 333 6///0=
ISP34 09211 99641 70218 ///// ////1
     26/// /2503 10137 29078 39939 92120 333 6///0=
ISP34 09211 99641 70218 ///// ////1
     26/// /2002 10137 29077 39941 92130 333 6///0=
ISP34 09211 99641 70218 ///// ////1
     26/// /1702 10137 29078 39943 92140 333 6///0=
ISP34 09211 99641 70218 ///// ////1
     26/// /2203 10136 29078 39944 92150 333 6///0=
ISP34 09221 99641 70218 ///// ////1
     26/// /2003 10136 29078 39944 92200 333 6///0=

####018001135####
SNCN19 CWAO 092217
OOXX
CAP17 09201 99476 70527 ///// ////1
     26/// /2818 10249 29059 39986 92020 333 60000=
CAP17 09201 99476 70527 ///// ////1
     26/// /2819 10247 29060 39987 92030 333 60000=
CAP17 09201 99476 70527 ///// ////1
     26/// /2918 10243 29061 39987 92040 333 60000=
CAP17 09201 99476 70527 ///// ////1
     26/// /2917 10242 29060 39986 92050 333 60000=
CAP17 09211 99476 70527 ///// ////1
     26/// /2920 10241 29060 39986 92100 333 60000=
CAP17 09211 99476 70527 ///// ////1
     26/// /2922 10238 29061 39987 92110 333 60000=
CAP17 09211 99476 70527 ///// ////1
     26/// /2820 10237 29061 39986 92120 333 60000=
CAP17 09211 99476 70527 ///// ////1
     26/// /2822 10235 29061 39987 92130 333 60000=
CAP17 09211 99476 70527 ///// ////1
     26/// /2817 10233 29062 39988 92140 333 60000=
CAP17 09211 99476 70527 ///// ////1
     26/// /2815 10227 29064 39989 92150 333 60000=
CAP17 09221 99476 70527 ///// ////1
     26/// /2816 10221 29066 39990 92200 333 60000=
CAP17 09221 99476 70527 ///// ////1
     26/// /2821 10216 29068 39991 92210 333 60000=

####018001135####
SNCN19 CWAO 092247
OOXX
PHP52 09201 99146 11214 ///// ////1
     26/// /0000 10000 29000 3//// 92040 333 60000=
PHP52 09201 99146 11214 ///// ////1
     26/// /0000 10000 29000 3//// 92050 333 60000=
PHP52 09211 99146 11214 ///// ////1
     26/// /0000 10000 29000 3//// 92100 333 60000=
PHP52 09211 99146 11214 ///// ////1
     26/// /0000 10000 29000 3//// 92110 333 60000=
PHP52 09211 99146 11214 ///// ////1
     26/// /0000 10000 29000 3//// 92120 333 60000=
PHP52 09211 99146 11214 ///// ////1
     26/// /0000 10000 29000 3//// 92130 333 60000=
PHP52 09211 99146 11214 ///// ////1
     26/// /0000 10000 29000 3//// 92140 333 60000=
PHP52 09211 99146 11214 ///// ////1
     26/// /0000 10000 29000 3//// 92150 333 60000=
PHP52 09221 99146 11214 ///// ////1
     26/// /0000 10000 29000 3//// 92200 333 60000=
PHP52 09221 99146 11214 ///// ////1
     26/// /0000 10000 29000 3//// 92210 333 60000=
PHP52 09221 99146 11214 ///// ////1
     26/// /0000 10000 29000 3//// 92220 333 60000=
PHP52 09221 99146 11214 ///// ////1
     26/// /0000 10000 29000 3//// 92230 333 60000=

####018001135####
SNCN19 CWAO 092219
OOXX
PAP50 09201 99090 70795 ///// ////1
     26/// /3604 10297 29061 39982 92010 333 60000=
PAP50 09201 99090 70795 ///// ////1
     26/// /3403 10304 29062 39978 92020 333 60000=
PAP50 09201 99090 70795 ///// ////1
     26/// /3603 10312 29058 39978 92030 333 60000=
PAP50 09201 99090 70795 ///// ////1
     26/// /3603 10304 29060 39976 92040 333 60000=
PAP50 09201 99090 70795 ///// ////1
     26/// /3404 10299 29062 39974 92050 333 60000=
PAP50 09211 99090 70795 ///// ////1
     26/// /3303 10298 29062 39973 92100 333 60000=
PAP50 09211 99090 70795 ///// ////1
     26/// /3403 10310 29058 39972 92110 333 60000=
PAP50 09211 99090 70795 ///// ////1
     26/// /3302 10310 29056 39972 92120 333 60000=
PAP50 09211 99090 70795 ///// ////1
     26/// /3302 10307 29059 39971 92130 333 60000=
PAP50 09211 99090 70795 ///// ////1
     26/// /3404 10300 29061 39974 92140 333 60000=
PAP50 09211 99090 70795 ///// ////1
     26/// /3405 10299 29060 39971 92150 333 60000=
PAP50 09221 99090 70795 ///// ////1
     26/// /3504 10299 29059 39973 92200 333 60000=

####018001135####
SNCN19 CWAO 092257
OOXX
RUP58 09201 99441 11320 ///// /1121
     26/// /1803 10163 29089 39955 92048 333 60000=
RUP58 09201 99441 11320 ///// /1121
     26/// /1802 10163 29089 39954 92058 333 60000=
RUP58 09211 99441 11320 ///// /1121
     26/// /1803 10163 29088 39954 92108 333 60000=
RUP58 09211 99441 11320 ///// /1121
     26/// /1603 10164 29088 39955 92118 333 60000=
RUP58 09211 99441 11320 ///// /1121
     26/// /1802 10165 29088 39955 92128 333 60000=
RUP58 09211 99441 11320 ///// /1121
     26/// /1903 10166 29088 39955 92138 333 60000=
RUP58 09211 99441 11320 ///// /1121
     26/// /1803 10167 29087 39956 92148 333 60000=
RUP58 09211 99441 11320 ///// /1121
     26/// /1803 10168 29087 39958 92158 333 60000=
RUP58 09221 99441 11320 ///// /1121
     26/// /2004 10170 29087 39958 92208 333 60000=
RUP58 09221 99441 11320 ///// /1121
     26/// /2004 10172 29086 39959 92218 333 60000=
RUP58 09221 99441 11320 ///// /1121
     26/// /2004 10174 29085 39959 92228 333 60000=
RUP58 09221 99441 11320 ///// /1121
     26/// /2004 10173 29084 39959 92238 333 60000=

####018001135####
SNCN19 CWAO 092208
OOXX
ARP01 09201 99345 50585 ///// 00681
     26/// /0000 10079 29025 30214 92010 333 60000=
ARP01 09201 99345 50585 ///// 00681
     26/// /0000 10077 29025 30215 92020 333 60000=
ARP01 09201 99345 50585 ///// 00681
     26/// /0000 10075 29026 30215 92030 333 60000=
ARP01 09201 99345 50585 ///// 00681
     26/// /0000 10073 29026 30214 92040 333 60000=
ARP01 09201 99345 50585 ///// 00681
     26/// /0000 10071 29026 30215 92050 333 60000=
ARP01 09211 99345 50585 ///// 00681
     26/// /0000 10068 29026 30215 92100 333 60000=
ARP01 09211 99345 50585 ///// 00681
     26/// /0000 10067 29027 30216 92110 333 60000=
ARP01 09211 99345 50585 ///// 00681
     26/// /0000 10067 29027 30216 92120 333 60000=
ARP01 09211 99345 50585 ///// 00681
     26/// /0000 10066 29027 30217 92130 333 60000=
ARP01 09211 99345 50585 ///// 00681
     26/// /0000 10066 29027 30219 92140 333 60000=
ARP01 09211 99345 50585 ///// 00681
     26/// /0000 10065 29028 30220 92150 333 60000=
ARP01 09221 99345 50585 ///// 00681
     26/// /0000 10064 29028 30221 92200 333 60000=

####018001135####
SNCN19 CWAO 092233
OOXX
CAP16 09201 99624 71145 ///// 02051
     26/// /3605 10141 29037 39867 92030 333 60000=
CAP16 09201 99624 71145 ///// 02051
     26/// /0105 10145 29037 39866 92040 333 60000=
CAP16 09201 99624 71145 ///// 02051
     26/// /0105 10144 29038 39866 92050 333 60000=
CAP16 09211 99624 71145 ///// 02051
     26/// /3606 10145 29036 39865 92100 333 60000=
CAP16 09211 99624 71145 ///// 02051
     26/// /0105 10145 29037 39865 92110 333 60000=
CAP16 09211 99624 71145 ///// 02051
     26/// /0106 10146 29037 39865 92120 333 60000=
CAP16 09211 99624 71145 ///// 02051
     26/// /0105 10148 29037 39864 92130 333 60000=
CAP16 09211 99624 71145 ///// 02051
     26/// /0205 10147 29038 39864 92140 333 60000=
CAP16 09211 99624 71145 ///// 02051
     26/// /0205 10147 29038 39862 92150 333 60000=
CAP16 09221 99624 71145 ///// 02051
     26/// /0105 10150 29035 39863 92200 333 60000=
CAP16 09221 99624 71145 ///// 02051
     26/// /0205 10155 29034 39862 92210 333 60000=
CAP16 09221 99624 71145 ///// 02051
     26/// /0205 10158 29035 39862 92220 333 60000=

####018001135####
SNCN19 CWAO 092213
OOXX
MRP43 09201 99181 70159 ///// ////1
     26/// /2906 10259 29078 30117 92010 333 60000=
MRP43 09201 99181 70159 ///// ////1
     26/// /2907 10259 29078 30119 92020 333 60000=
MRP43 09201 99181 70159 ///// ////1
     26/// /2907 10258 29078 30121 92030 333 60000=
MRP43 09201 99181 70159 ///// ////1
     26/// /2907 10257 29079 30123 92040 333 60000=
MRP43 09201 99181 70159 ///// ////1
     26/// /2906 10256 29079 30124 92050 333 60000=
MRP43 09211 99181 70159 ///// ////1
     26/// /2907 10256 29080 30126 92100 333 60000=
MRP43 09211 99181 70159 ///// ////1
     26/// /2908 10255 29079 30126 92110 333 60000=
MRP43 09211 99181 70159 ///// ////1
     26/// /2908 10255 29079 30127 92120 333 60000=
MRP43 09211 99181 70159 ///// ////1
     26/// /2908 10254 29079 30127 92130 333 60000=
MRP43 09211 99181 70159 ///// ////1
     26/// /2907 10254 29078 30128 92140 333 60000=
MRP43 09211 99181 70159 ///// ////1
     26/// /2908 10255 29079 30130 92150 333 60000=
MRP43 09221 99181 70159 ///// ////1
     26/// /2908 10253 29078 30128 92200 333 60000=

####018001135####
SNCN19 CWAO 092248
OOXX
FRP31 09201 99052 70527 ///// ////1
     26/// /0403 10267 29069 39802 92047 333 60000=
FRP31 09201 99052 70527 ///// ////1
     26/// /0403 10266 29070 39801 92057 333 60000=
FRP31 09211 99052 70527 ///// ////1
     26/// /0503 10265 29071 39802 92107 333 60000=
FRP31 09211 99052 70527 ///// ////1
     26/// /0402 10263 29072 39800 92117 333 60000=
FRP31 09211 99052 70527 ///// ////1
     26/// /0402 10261 29072 39802 92127 333 60000=
FRP31 09211 99052 70527 ///// ////1
     26/// /0402 10259 29074 39804 92137 333 60000=
FRP31 09211 99052 70527 ///// ////1
     26/// /0403 10256 29075 39805 92147 333 60000=
FRP31 09211 99052 70527 ///// ////1
     26/// /0502 10254 29076 39804 92157 333 60000=
FRP31 09221 99052 70527 ///// ////1
     26/// /0402 10253 29077 39808 92207 333 60000=
FRP31 09221 99052 70527 ///// ////1
     26/// /0401 10253 29077 39809 92217 333 60000=
FRP31 09221 99052 70527 ///// ////1
     26/// /0502 10254 29077 39813 92227 333 60000=
FRP31 09221 99052 70527 ///// ////1
     26/// /0501 10254 29077 39812 92237 333 60000=

####018001135####
SNCN19 CWAO 092226
OOXX
AUP09 09201 99124 31309 ///// ////1
     26/// /1403 10224 29086 30091 92035 333 60000=
AUP09 09201 99124 31309 ///// ////1
     26/// /1403 10224 29086 30092 92045 333 60000=
AUP09 09201 99124 31309 ///// ////1
     26/// /1403 10222 29087 30093 92055 333 60000=
AUP09 09211 99124 31309 ///// ////1
     26/// /1403 10222 29087 30094 92105 333 60000=
AUP09 09211 99124 31309 ///// ////1
     26/// /1503 10222 29087 30096 92115 333 60000=
AUP09 09211 99124 31309 ///// ////1
     26/// /1503 10221 29087 30095 92125 333 60000=
AUP09 09211 99124 31309 ///// ////1
     26/// /1504 10220 29088 30096 92135 333 60000=
AUP09 09211 99124 31309 ///// ////1
     26/// /1403 10220 29087 30096 92145 333 60000=
AUP09 09211 99124 31309 ///// ////1
     26/// /1303 10220 29087 30096 92155 333 60000=
AUP09 09221 99124 31309 ///// ////1
     26/// /1403 10221 29087 30097 92205 333 60000=
AUP09 09221 99124 31309 ///// ////1
     26/// /1403 10225 29085 30100 92215 333 60000=
AUP09 09221 99124 31309 ///// ////1
     26/// /1404 10230 29081 30101 92225 333 60000=

####018001135####
SNCN19 CWAO 092232
OOXX
TZP64 09201 99068 30392 ///// ////1
     26/// /0000 10221 29083 30058 92030 333 60000=
TZP64 09201 99068 30392 ///// ////1
     26/// /0000 10220 29084 30057 92040 333 60000=
TZP64 09201 99068 30392 ///// ////1
     26/// /0000 10219 29084 30055 92050 333 60000=
TZP64 09211 99068 30392 ///// ////1
     26/// /0000 10218 29084 30055 92100 333 60000=
TZP64 09211 99068 30392 ///// ////1
     26/// /0000 10217 29085 30054 92110 333 60000=
TZP64 09211 99068 30392 ///// ////1
     26/// /3601 10216 29085 30055 92120 333 60000=
TZP64 09211 99068 30392 ///// ////1
     26/// /0301 10215 29086 30053 92130 333 60000=
TZP64 09211 99068 30392 ///// ////1
     26/// /0201 10215 29086 30053 92140 333 60000=
TZP64 09211 99068 30392 ///// ////1
     26/// /0701 10215 29087 30051 92150 333 60000=
TZP64 09221 99068 30392 ///// ////1
     26/// /0000 10216 29087 30050 92200 333 60000=
TZP64 09221 99068 30392 ///// ////1
     26/// /0901 10216 29087 30049 92210 333 60000=
TZP64 09221 99068 30392 ///// ////1
     26/// /0801 10216 29087 30047 92220 333 60000=

####018000307####
SNSP20 LEMM 092300
AAXX 09234
08045 46/// /3404 10168 20150 39917 40221 50001
  555 60005=
08181 NIL=
08221 42980 03506 10258 20119 39518 40164 51012
  555 60005=
08284 46/// /0705 10245 20200 30119 40191 51012
  555 60005=
08314 46/// /0506 10211 20200 30101 40201 51011
  555 60005=
####018000095####
SNAU53 AMMC 090500 CCA
AAXX 09054
94571 11480 71305 10186 20156 60001 70322 86250=


####018000073####
SNSE01 LFVW 092200
AAXX 0922/
88986 46/// ///// 10124 30073 40100=
####018000077####
SISE01 LFVW 092100 RRB
AAXX 0921/
88986 46/// ///// 10122 30077 40104=
####018000111####
SNLY40 EUMS 092300
AAXX 09224
62140 46/// /2315 10250 20167 39782 40140 51015=
62210 NIL=
62271 NIL=
####018000067####
SNAL53 EUMS 092300
AAXX 09234
60619 46/// /0216 10302 21023=
####018000067####
SNAL54 EUMS 092300
AAXX 09234
60621 46/// /0416 10332 21020=
####018000117####
SNDL22 EDZW 092300 RRA
AAXX 09231
10043 46/// /1206 10222 20207 30170 40173 57009
222// 0////
  333 553//=
####018000140####
SNLY40 EUMS 092300 RRA
AAXX 09234
62140 46/// /2207 10240 20165 39782 40141 51006=
62210 46/// /0104 10288 20043 39604 40119 50002=
####018000067####
SNAL51 EUMS 092300
AAXX 09234
60663 46/// /0704 10338 21030=
####018000071####
SNAL51 EUMS 092300 RRA
AAXX 09234
60612 46/// /0412 10300 21041=
####018000125####
SNVD02 CWAO 092300
BBXX
LAJV4 09234 99/// ///// 46/// /3013 10075 20063 40209 53013 7//// 8//// 22200 0//// 2//// =

####018000246####
SNMK10 LYPG 092300
AAXX 09231
13463 42970 00203 10248 20109 30130 40190 52007=
13459 42970 00203 10192 20105 39471 40205 51004=
13461 42970 00705 10256 20103 30177 40184 50002 333 92323 92438=
13363 42970 02701 10115 90103 39329 48560 50001=
####018000619####
SNSP21 LEMM 092300
AAXX 09234
08084 46/// /0000 10205 20148 39797 40215 51015
  555 60005=
08184 46/// /0102 10233 20201 30062 40211 50013
  555 60005=
08202 46/// /2201 10208 20130 39302 42843 52015
  555 60005=
08360 46/// /0000 10243 20173 30145 40181 51004
  555 60005=
08373 46/// /0605 10239 20218 30166 40187 50008
  555 60005=
08410 46/// /2503 10285 20161 30058 40162 51017
  555 60005=
08419 45/70 /0902 10226 20119 39534 40175 51012
  555 60005=
08451 46/// /2003 10232 20194 30146 40178 51010
  555 60005=
08487 46/// /2501 10239 20198 30158 40182 51008
  555 60005=
####018000117####
SNFP20 LFVP 092300
AAXX 09234
71805 24/02 92412 10139 20139 30148 40156 56006 745//
  333 60005 90710 91116=
####018000089####
SNPS40 AMMC 092200 RRA
AAXX 09224
91559 46/// /0000 10267 40139 22200 00270=


####018000164####
SNCR20 GCLP 092300
AAXX 09234
60030 46/// /3624 10215 20183 30097 40152 52004
  555 60005=
60040 46/// /3520 10218 20180 30143 40168 53006
  555 60005=
####018000124####
SNVD02 CWAO 092300
BBXX
VOKJ 09234 99/// ///// 46/// /2011 10229 20209 40085 56010 7//// 8//// 22200 0//// 2//// =

####018000089####
SNPS40 AMMC 092200 RRB
AAXX 09224
91531 46/// /3506 10287 40111 22200 00272=


####018002194####
SNSN21 ESWI 092300
AAXX 09231
02019 27/64 /2402 10062 21024 39545 40164 57004 70086
  333 60005 90710 91102=
02081 25/99 /0702 10123 20107 39748 40140 50005
  333 60005 90710 91104=
02095 27810 /1701 10105 20101 39933 40132 50001 73163
  333 60005 81/57 83/60 90710 91102=
02101 45977 /0000 10059 20047 39617 40175 58003 8////=
02119 25/82 /3201 10045 20036 39781 40169 52009
  333 60005 90710 91103=
02124 25/99 /0000 10079 20023 39652 40172 52006
  333 60005 90710 91102=
02126 25/99 /0702 10094 2//// 39832 40165 51008
  333 60005 90710 91102=
02186 45982 /2801 10144 20132 30114 40138 52007=
02197 27/04 /1501 10116 20112 30121 40139 52006 73431
  333 60005 90710 91102=
02207 25/99 /2701 10060 20045 39453 40149 58010
  333 60005 90710 91101=
02219 25/81 /0702 10089 20055 39505 40163 57007
  333 60005 90710 91103=
02226 45984 /1102 10134 20059 39704 40145 55003 8////=
02243 27/59 /1201 10096 20077 39890 40155 50000 71010
  333 60005 90710 91102=
02287 25/65 /1902 10150 20149 30137 40147 52004
  333 60005 90710 91102=
02308 25/99 /1801 10105 20053 39309 40151 58007
  333 60005 90710 91103=
02327 25/99 /0401 10089 20068 39733 40163 54000
  333 60005 90710 91102=
02355 27/81 /2203 10185 20090 30144 40156 52002 70010
  333 60005 90710 91105=
02407 25/83 /2002 10137 2//// 39809 40167 57002
  333 60005 90710 91105=
02432 45984 /2302 10138 20089 30118 40187 50000 8////=
02440 25/81 /0000 10103 2////
  333 60005 90710 91100=
02456 25/// /0000 10134 20111 30134 40176 52003
  333 60005 90710 91101=
02469 27/20 /0000 10138 20131 71010
  333 60005 90710 91102=
02498 26/67 /2003 10183 20171 30169 40185 52003
  333 60005 90710 91106=
02500 25/80 /1706 10168 20131 30137 40179 56006
  333 60005 90710 91109=
02518 46/// /1305 10180 20139
  333 90710 91105=
02520 45984 /1402 10117 20086 30126 40193 58002=
02565 25/68 /2300 10125 20084 30085 40203 52008
  333 60005 90710 91101=
02618 25/82 /0801 10133 20121 30036 40197 58004
  333 60005 90710 91101=
02664 45961 /1101 10166 20157 30136 40206 50000=
02679 25/80 /2305 10184 20163 30161 40204 52004
  333 60005 90710 91108=
####018000085####
SNNC22 NWBB 092300
AAXX 09234
91574 46/// ///// 10238 20195 30146 40152 53109=
####018000030####
SNAU03 AMMC 092300
NIL

####018000030####
SNAU02 AMMC 092300
NIL

####018000123####
SNAU44 AMMC 092300
AAXX 09234
94666 46/// /3527=
94669 11/70 /0508 10110 20100 60034 70322 92330
  333 70034=

####018001651####
SNAU05 AMMC 092300
AAXX 09234
94691 NIL=
94693 11559 73510 10128 20084 30112 40177 53031 69944 76162 875//
  333 70004=
94700 11/84 83605 10110 20068 30055 40201 57014 60004 70222 8802/
  333 70000=
94703 46/// /36// 30098 40229 50002 60004
  333 70000=
94710 15/// /0418 10124 20073 39965 40229 56003 60004
  333 70000=
94729 15/// /0000 10086 20054 39399 40287 50004 60004
  333 70000=
94750 17/// /3106 10102 20091 30152 40280 58001 69964 7//44
  333 70006=
94767 11664 73405 10117 20082 30283 40289 53003 69944 70511 81106
  333 70004=
94776 15/// /3008 10107 20105 30279 40290 53006 60084
  333 70082=
94791 11582 32407 10160 20115 30275 40283 51012 60024 71500 83800
  333 70018=
94842 11470 83624 10135 20057 30049 40149 53003 60004 71511 8371/
  333 70000=
94865 15/// /0119 10130 20064 30146 40171 58013 60004
  333 70000=
94875 15/// /0415 10108 20064 30077 40218 55006 60004
  333 70000=
94893 15/// /0214 10106 20082 30077 40195 56016 60004
  333 70000=
94907 11580 70904 10065 20054 30194 40204 57021 69924 70211 81146
  333 70002=
94910 11980 70811 10104 20056 39981 40243 58014 60004 71422 81036
  333 70000=
94926 NIL=
94935 15/// /3608 10114 20088 30232 40260 56010 69924
  333 70002=
94995 NIL=
95485 15/// /0214 10120 20107 39979 40192 53002 60004
  333 70000=
95527 11986 00911 10133 20061 30006 40270 51011 69924 700//
  333 70002=
95719 15/// /0712 10111 20087 39924 40270 53001 60004
  333 70000=
95762 15/// /1307 10113 20068 39805 40283 60004
  333 70000=
95839 17/// /0319 10104 20076 39992 40155 51020 69964 7//44
  333 70006=

####018001973####
SNAU04 AMMC 092300
AAXX 09234
94170 11480 21405 10250 20210 30133 40155 52016 60004 70300 811/1
  333 70000=
94255 15/// /0704 10155 20111 39915 40188 53016 60004
  333 70000=
94268 11382 80603 10253 20196 30155 40167 51015 60004 70311 88500
  333 70000=
94287 11570 71710 10228 20190 30184 40193 53020 60004 71522 878//
  333 70000=
94290 NIL=
94294 11684 12206 10216 20132 30200 40211 51018 60004 70111 81800
  333 70000=
94296 35/// /1416 10243 30170 40180 52018=
94298 46/// /1512 10236 30184 40190 51019=
94299 11470 51321 10258 20213 30171 40181 51017 69924 71582 85800
  333 70002=
94332 11982 00403 10136 20112 39790 40188 53015 60004 70200
  333 70000=
94333 11984 00902 10105 20087 30008 40196 52013 60004 70200
  333 70000=
94341 15/// /0807 10196 20140 39942 40186 51013 60004
  333 70000=
94346 11280 10805 10135 20116 39987 40216 53015 60004 70144 81600
  333 70000=
94363 155// 81307 10134 20126 30011 40238 51013 60004
  333 70000=
94366 NIL=
94367 11480 21711 10190 20147 30178 40222 51018 60004 70200 82100
  333 70000=
94374 11582 41107 10177 20134 30217 40235 52018 69924 70311 84800
  333 70002=
94388 17/// /1120 10219 20142 30226 40231 51016 60034 7//44
  333 70028=
94393 46/// /1324 10227 30183 40195 51020=
94394 35/// /1322 10219 30207 40215 52018=
94488 11984 00503 10115 20097 30055 40209 52012 60004 70200
  333 70000=
94500 11984 00509 10136 20099 30002 40231 52011 60004 70200
  333 70000=
94510 11981 00509 10145 20105 39870 40233 51008 60004 7020/
  333 70000=
94515 17/// /1005 10136 20100 39889 40253 51008 69924 7//44
  333 70002=
94552 15/// /0916 10151 20101 39780 40267 51015 60004
  333 70000=
94578 11456 72107 10142 20123 30262 40273 52020 69924 75085 878//
  333 70002=
94584 17/// /1722 10172 20152 30133 40246 53015 60074 7//44
  333 70070=
95482 11/82 80113 10125 20088 30131 40188 51019 60004 70311 88090
  333 70000=

####018002299####
SNAU49 AMMC 092300
AAXX 09234
94171 15/// /1407 10242 20211 30108 40154 51017 60004
  333 70000=
94174 154// 81409 10267 20225 30142 40148 53019 69924
  333 70002=
94182 17/// /1408 10270 30136 40141 53017 60044 7//44
  333 70038=
94183 11584 71105 10256 20199 39979 40164 53017 60004 70311 87500
  333 70000=
94188 17/// /1216 10227 20219 30157 40179 53020 60054 7//44
  333 70050=
94256 15/// /1207 10208 20149 30166 40176 53015 60004
  333 70000=
94257 11582 11305 10192 20158 30166 40171 53016 60004 70200 81408
  333 70000=
94260 15/// /1412 10168 20115 30173 40180 53016 60004
  333 70000=
94261 15/// /1704 10173 20107 30030 40179 53009 60004
  333 70000=
94266 11584 11606 10192 20129 30151 40172 53015 60004 70300 81400
  333 70000=
94274 11784 10911 10231 20154 39832 40182 51018 60004 70300 81500
  333 70000=
94276 15/// /0806 10247 20177 39935 40171 53017 60004
  333 70000=
94291 11230 82002 10207 20198 60044 75085 888//
  333 70036=
94292 11282 81612 10206 20172 30195 40204 52021 60014 71522 8277/
  333 70010=
94295 15/// /1807 10213 20158 30197 40209 51026 60004
  333 70000=
94329 11980 01801 10115 20105 39982 40189 53016 60004 70222
  333 70000=
94335 11982 01406 10153 20131 39966 40185 53011 60004 70200
  333 70000=
94336 15/// /0206 10142 20115 39849 40188 52012 60004
  333 70000=
94337 15/// /1109 10153 20131 30038 40184 51017 60004
  333 70000=
94338 17/// /0507 10115 20107 39881 40195 52014 69924 7//44
  333 70002=
94339 11981 00703 10150 20130 39980 40197 53012 69924 70200
  333 70002=
94340 11970 00705 10183 20143 39930 40182 52012 60004 70200
  333 70000=
94342 17/// /0811 10151 20131 39971 40199 51013 69924 7//44
  333 70002=
94343 15/// /0613 10193 20123 39821 40192 52010 60004
  333 70000=
94355 11984 01301 10111 20107 39757 40227 52009 60004 70200
  333 70000=
94356 11/75 50903 10177 20126 39874 40213 52017 60004 70122 85050
  333 70000=
94359 11584 81301 10120 20114 39916 40234 51013 60004 70211 88500
  333 70000=
94360 11984 00000 10142 20091 60004 70200
  333 70000=
94365 11575 41807 10195 20141 30196 40220 51016 60004 70111 844//
  333 70000=
94372 17/// /1617 10192 20185 39976 40220 51018 69944 7//44
  333 70004=

####018000096####
SNAU47 AMMC 092300
AAXX 09234
94284 46/// /1321 30177 40187 53020 6///0
  333 7////=

####018000058####
SNAU45 AMMC 092300
AAXX 09234
95675 46/// /3527=

####018000350####
SNPF80 KWBC 092300 RRA
AAXX 09234
91945 26/// /1012 10258 20225 30190 40195 58020 333 69985 90710
91125 555 1//25=
91930 36/// ///// 10294=
91958 22582 60512 10214 20191 30239 40241 58018 86801 333 60005
56209 84820 84646 90710 91119 555 1//19=
91954 22565 30710 10259 20195 30209 40212 56021 83200 333 60005
56200 83820 555 1//16=
####018005075####
SNSW23 LSSW 092300
AAXX 09234
06717 33/// /2805 10140 20069 37655 47237 54001
  333 91109 91207=
06621 33/// /2205 10202 20183 39692 40198 52008
  333 91106 91205=
06798 33/// /2604 10190 20085 38787 48590 51010
  333 91109 91206=
06659 33/// /2702 10180 20064 38005 48587 52003
  333 91106 91205=
06702 43/// ///// 10176 20122 38424 48594 52006=
06639 33/// /3309 10204 20122 38680 48586 53005
  333 91113 91209=
06628 33/// /2805 10218 20121 39050 48585 52010
  333 91109 91206=
06626 33/// /0000 10202 20177 39758 40197 51010
  333 91100 91200=
06636 33/// /0000 10201 20169 39652 40202 51014
  333 91103 91202=
06670 NIL=
06643 33/// /0000 10197 20180 39712 40199 53009
  333 91102 91201=
06610 33/// /2005 10214 20166 39643 40201 53014
  333 91109 91207=
06780 33/// /0010 10135 21017 37488 47239 50000
  333 91124 91215=
06748 33/// /2402 10173 20055 38454 48593 52006
  333 91104 91202=
06751 33/// /0301 10169 20110 38202 48591 58002
  333 91105 91202=
06620 33/// /0505 10215 20155 39696 40198 52007
  333 91108 91206=
06750 33/// /0803 10158 20059 37838 48594 50001
  333 91114 91212=
06646 33/// /0000 10204 20204 39822 40200 52010
  333 91102 91201=
06711 33/// /0104 10249 20164 39679 40193 51018
  333 91109 91206=
06792 33/// /1501 10124 20091 38386 48597 51006
  333 91106 91204=
06664 33/// /2401 10201 20174 39689 40199 52009
  333 91101 91201=
06770 33/// /3301 10242 20200 39858 40202 50004
  333 91105 91203=
06650 33/// /0401 10219 20157 39675 40193 51009
  333 91107 91204=
06700 NIL=
06601 33/// /2103 10224 20177 39832 40196 52010
  333 91105 91204=
06679 33/// /0000 10179 20159 39584 40203 52008
  333 91103 91201=
06735 33/// /2301 10183 20111 38762 48586 52006
  333 91103 91202=
06645 33/// /2902 10238 20140 39506 48581 52009
  333 91103 91202=
06673 33/// /2701 10212 20156 39642 40196 52007
  333 91103 91201=
06672 33/// /1502 10207 20158 39695 40198 52007
  333 91103 91202=
06786 33/// /2104 10221 20147 39572 40202 51007
  333 91108 91204=
06727 33/// /0000 10203 20149 39476 48570 51014
  333 91103 91202=
06619 33/// /3402 10203 20146 38886 48589 52008
  333 91107 91204=
06609 33/// /2809 10179 20077 38128 48591 52005
  333 91113 91210=
06794 33/// /0504 10162 20146 39027 48588 52005
  333 91106 91204=
06760 33/// /0101 10249 20196 39777 40201 50004
  333 91103 91202=
06685 33/// /2701 10217 20138 39613 40201 52008
  333 91103 91201=
06712 33/// /3601 10190 20165 39764 40206 53016
  333 91104 91203=
06689 33/// /0907 10219 20138 38954 48584 50004
  333 91109 91207=
06604 33/// /2902 10240 20125 39644 40191 53013
  333 91106 91203=
06787 33/// /0000 10178 20120 39116 48583 51008
  333 91103 91201=
06724 33/// /0102 10171 20110 38664 48587 51008
  333 91105 91203=
06759 33/// /3206 10171 20158 38427 48589 58001
  333 91108 91206=
06783 33/// /0000 10130 20087 38454 48594 57000
  333 91102 91201=
06680 33/// /0001 10155 21100 37650 47243 52003
  333 91110 91209=
06720 33/// /2002 10201 20164 39649 40201 51019
  333 91102 91202=
06782 33/// /3601 10188 20118 38898 48590 50004
  333 91103 91202=
06660 33/// /0303 10217 20164 39563 40193 52007
  333 91108 91207=
06734 33/// /1902 10219 20149 39542 40195 52007
  333 91105 91203=
06612 33/// /2702 10175 20128 39082 48581 53012
  333 91103 91202=
06730 43/// /3206 10059 21012 36721 47241 58000
  333 91110 91206=
06704 33/// /2303 10207 20151 39434 53014
  333 91105 91204=
06631 33/// /1702 10212 20160 39569 40197 53011
  333 91103 91202=
06669 43/// /0410 10241 20142 39248 48576 52003
  333 91114 91211=
06771 33/// /2102 10210 20197 39801 40207 52003
  333 91102 91202=
06605 33/// /3009 10188 20055 38494 48590 52008
  333 91116 91213=
06722 33/// /0305 10171 20063 38269 48593 52006
  333 91109 91207=
06990 33/// /1302 10241 20150 39674 40192 53006
  333 91107 91204=
06784 33/// /2202 10159 20076 38499 48595 52002
  333 91104 91203=
06788 33/// /0000 10122 20077 38478 48597 50004
  333 91103 91202=
06747 43/// /0201 10129 20021 37302 47241 52002
  333 91105 91202=
06762 33/// /3301 10220 20211 39965 40202 50004
  333 91102 91201=
06633 33/// /1901 10202 20167 39751 40197 53010
  333 91104 91202=
06744 33/// /2307 10154 20027 38146 48599 50004
  333 91113 91209=
06616 33/// /1003 10227 20157 39524 40196 51011
  333 91108 91206=
06705 33/// /2705 10236 20161 39680 40200 52017
  333 91110 91207=
06745 33/// /1001 10132 20107 38743 48584 52008
  333 91105 91203=
06756 33/// /3203 10208 20187 39555 40209 58001
  333 91105 91203=
06791 33/// /0008 10091 21023 36946 47238 50000
  333 91111 91208=
06666 33/// /0000 10203 20184 39802 40197 52010
  333 91103 91201=
06753 33/// /2801 10182 20159 39113 48584 58000
  333 91103 91202=
06681 33/// /1302 10223 20113 39329 48579 52007
  333 91104 91203=
06655 33/// /1002 10178 20109 39056 48576 52004
  333 91104 91203=
####018002223####
SNAU56 AMMC 092300
AAXX 09234
94915 06/// /3106 10031 21030 60004
  333 70000=
94919 17/// /0000 10011 20011 39847 40262 58012 69924 7//44
  333 70002=
94921 154// 70315 10058 20046 39174 40274 58005 60004
  333 70000=
94922 11/82 80000 10075 20064 69904 70222
  333 79999=
94923 11482 80902 10056 20043 60004 70322 886//
  333 70000=
94925 15/// /0000 10073 20069 39582 40289 56002 60004
  333 70000=
94927 17/// /0000 10054 20047 39492 40289 56005 69964 7//44
  333 70006=
94928 11/84 80000 10020 20020 60004 70211 88020
  333 70000=
94929 15/// /3408 10051 20036 39364 40270 58006 69924
  333 70002=
94937 11684 72702 10100 20096 30255 40275 57003 60024 70311 8111/
  333 70024=
94938 06/// /3503 10120 20102 30233 40278 58004 60204
  333 70202=
94941 11/62 70000 10091 20089 60034 70322
  333 70030=
95541 11684 11301 10075 20064 60024 70300 81404
  333 70016=
95570 15/// /2504 10132 20116 30255 40286 51012 60024
  333 70022=
95571 17/// /2806 10134 20100 60024 7//44
  333 70020=
95695 15/// /0421 10134 20067 30065 40180 58009 60004
  333 70000=
95697 15/// /0316 10131 20073 30064 40186 55008 60004
  333 70000=
95699 15/// /0220 10145 20087 39989 40181 58012 60004
  333 70000=
95705 15/// /0421 10115 20072 60004
  333 70000=
95706 15/// /0417 10112 20071 30048 40225 58011 60004
  333 70000=
95707 11480 70211 10106 20084 60003 70322 87300
  333 7////=
95708 15/// /0413 10121 20076 30004 40240 58002 60004
  333 70000=
95709 15/// /0410 10092 20089 39922 40235 58017 69924
  333 70002=
95710 15/// /0608 10111 20085 39999 40262 53001 60004
  333 70000=
95715 15/// /0509 10113 20062 30100 40264 51010 60004
  333 70000=
95716 15/// /0607 10076 20065 39522 40290 58002 60004
  333 70000=
95717 35/// /0516 10122 20069 39862 40254 58006=
95718 15/// /0611 10138 20084 30044 40265 53008 60004
  333 70000=
95721 15/// /1603 10081 20067 39904 40266 58007 60004
  333 70000=
95722 15/// /0711 10097 20064 39904 40246 58012 60004
  333 70000=
95726 15/// /0315 10073 20053 39167 40283 50001 60004
  333 70000=
95827 17/// /0322 10093 20084 39903 40132 51009 60054 7//44
  333 70048=

####018002119####
SNAU50 AMMC 092300
AAXX 09234
94368 15/// /1616 10192 20149 30147 40217 51020 60004
  333 70000=
94370 17450 81707 10175 20165 30192 40230 53018 69944 7//44
  333 70004=
94373 15/// /1511 10189 20148 30226 40233 53017 60004
  333 70000=
94375 11984 01302 10160 20120 60004 70200
  333 70000=
94376 11682 11210 10175 20130 30008 40240 51012 60004 70300 81100
  333 70000=
94377 11/81 11801 10134 20107 69904 70200
  333 79999=
94378 46/// /1620 10184 30204 40228 53019 6///0
  333 7////=
94380 15/// /1411 10189 20140 30147 40236 51019 60004
  333 70000=
94381 157// 41410 10198 20131 30216 40236 51018 60004
  333 70000=
94386 45/// /1515 6///0
  333 7////=
94387 11680 61609 10167 20142 30209 40247 52017 60004 70222 86700
  333 70000=
94494 11984 00000 10100 20090 39987 40224 52013 60004 70200
  333 70000=
94511 11984 01307 10118 20093 39783 40249 51008 60004 70200
  333 70000=
94514 11984 00205 10140 20102 39846 40250 52010 69924 70211
  333 70002=
94517 15/// /0606 10137 20092 30016 40256 53009 60004
  333 70000=
94521 11/84 10905 10133 20085 60004 70200
  333 70000=
94525 11984 01801 10116 20104 30009 40249 50008 69904 70200
  333 79999=
94530 11984 01105 10116 20090 30001 40264 52007 60004 70200
  333 70000=
94542 11/80 11307 10131 20095 39851 40263 51013 60004 70300 81080
  333 70000=
94547 11015 82006 10128 20124 60044 75162 88600
  333 70042=
94549 15/// /1407 10129 20104 39752 40269 51016 60004
  333 70000=
94550 11/// ///// 10115 20084 60004
  333 70000=
94553 06/// /0906 10103 20081 39263 40284 51013 60004
  333 70000=
94555 15/// /1510 10131 20101 39707 40275 51014 60004
  333 70000=
94557 15/// /2104 10121 20119 69924
  333 70002=
94558 17/// /1706 10160 20147 60024 7//44
  333 70018=
94562 15/// /2902 10118 20090 69924
  333 70002=
94564 11665 71806 10161 20159 30235 40253 53018 60024 70166 86830
  333 70022=
94566 06/// /1506 10175 20124 30182 40261 53019 60004
  333 70000=
94567 11570 51909 10175 20151 30239 40252 51019 69984 70222 84830
  333 70008=

####018002383####
SNAU57 AMMC 092300
AAXX 09234
94826 17/// /0318 10108 20105 30038 40094 58004 60034 7//44
  333 70034=
94827 17/// /0312 10102 20078 39971 40141 51014 60024 7//44
  333 70022=
94828 11470 80318 10106 20086 39993 40092 58007 60034 75066 8372/
  333 70034=
95734 15/// /1405 10109 20052 39990 40268 51005 60004
  333 70000=
95735 11/82 60706 10057 20039 60004 70222
  333 70000=
95740 15/// /1410 10098 20069 39959 40278 51007 60004
  333 70000=
95747 17001 11308 10078 20071 39422 40283 51008 69924 7//44
  333 70002=
95748 35/// /0000 10100 20100 30273 40284 58001=
95749 17/// /3005 10132 20130 60134 7//44
  333 70132=
95753 15034 80904 10083 20082 30266 40291 51002 69984
  333 70008=
95754 152// 70906 10097 20094 39832 40287 50008 60004
  333 70000=
95756 46/// /3205=
95758 15/// /0502 10105 20102 30015 40285 51006 60004
  333 70000=
95764 11/60 70000 10097 20095 60094 71022
  333 70090=
95765 15/// ///// 10104 20102 60014
  333 70012=
95767 06/// /0000 10125 20120 30280 40288 53003 60064
  333 70060=
95770 06/// /2507 10134 20100 30259 40283 53002 69964
  333 70006=
95771 17/// /3604 10081 20072 30209 40285 53006 60024 7//44
  333 70024=
95773 15/// /0612 10070 20066 39037 40289 51009 60004
  333 70000=
95774 06/// /3203 10083 20083 60014
  333 70010=
95775 11/50 62001 10083 20079 60104 71255
  333 70104=
95779 11/68 12705 10120 20110 69944 70200
  333 70004=
95784 15/// /2605 10127 20125 30276 40287 53006 60054
  333 70046=
95822 17/// /0318 10106 20095 30025 40087 58006 60054 7//44
  333 70048=
95825 17/// /0319 10097 20083 39938 40097 58011 60064 7//44
  333 70056=
95832 17/// /0318 10097 20085 60064 7//44
  333 70064=
95869 15/// /0515 10101 20080 30092 40208 55005 60004
  333 70000=
95895 11/70 70208 10109 20065 60004 70311
  333 70000=
95896 15/// /3303 10050 20044 30039 40241 58014 60004
  333 70000=
95909 15/// /3418 10003 21024 38681 40284 58009 60004
  333 70000=
95912 11/82 81103 10020 21004 60004 70322
  333 70000=
95916 15/// /0317 10033 20007 60004
  333 70000=
95925 17/// /0213 10001 21002 69924 7//44
  333 70002=
95929 15/// /0000 10090 20087 30267 40269 58007 69944=
95931 15/// /0000 10057 20057 30222 40274 58007 69924
  333 70002=
95935 11/80 62303 10102 20098 60054 70360
  333 70050=

####018001941####
SNAU55 AMMC 092300
AAXX 09234
94755 15/// /0000 10077 20076 30199 40291 51002 60004
  333 70000=
94756 11210 81302 10087 20081 60004 740// 886//
  333 70000=
94759 06/// /3004 10115 20087 69964
  333 70006=
94760 17/// /3004 10097 20081 69964 7//44
  333 70006=
94762 15/// /2604 10093 20085 60004
  333 70000=
94763 17/// /0000 10092 20092 69924 7//44
  333 70002=
94765 15/// /3304 10096 20087 30281 40290 51004 60014
  333 70014=
94766 15/// /3204 10099 20098 69944
  333 70004=
94768 11658 6//// 10099 20091 30240 40289 53003 60054 71011 81816
  333 70046=
94771 11460 61605 10086 20082 60024 74184 86600
  333 70024=
94772 11470 70516 10064 20051 60004 70122 87600
  333 70000=
94774 15/// /3209 10100 20099 60064
  333 70058=
94775 11970 00606 10090 20090 60054 70161
  333 70048=
94777 15/// /0000 10095 20094 60124
  333 70118=
94778 11/70 70905 10084 20064 60004 70222 87000
  333 70000=
94779 11970 03602 10110 20100 60024 70222
  333 70022=
94780 46/// /3007=
94783 11482 30000 10114 20106 69984 70151 83200
  333 70008=
94785 15/// /3007 10122 20099 30270 40287 51010 69924
  333 70002=
94786 17/// /2806 10141 20113 30280 40286 53007 60094 7//44=
94788 11982 02702 10115 20101 60014 70260
  333 70011=
94789 11/75 60000 10115 20096 69964 70352 86000
  333 70006=
94790 11583 22012 10147 20107 30138 40282 52011 60044 70200 82800
  333 70042=
94792 11/80 20905 10105 20064 69924 70300 82060
  333 70002=
94838 17/// /0116 10107 20081 30076 40171 53034 60014 7//44
  333 70010=
94839 15/// /0412 10106 20077 30021 40182 53011 60004
  333 70000=
94877 11/80 80214 10107 20067 60004 70311 80009
  333 70000=
94886 15/// /0409 10100 20062 30189 40193 56015 60004
  333 70000=
94890 11/84 80000 10102 21019 69904 70322 83028
  333 79999=
94908 17/// /3608 10037 20013 39416 40239 58018 69924 7//44
  333 70002=

####018001839####
SNAU53 AMMC 092300
AAXX 09234
94485 11/84 70509 10131 20102 60004 70311 87070
  333 70000=
94520 11/84 10904 10124 20077 60004 70200 80001
  333 70000=
94541 11/84 10705 10119 20068 39495 40284 51012 69924 70200
  333 70002=
94556 11584 41305 10110 20081 69904 70200 84400
  333 79999=
94571 11584 12702 10130 20119 60024 70181 81500
  333 70018=
94572 173// 80506 10125 20114 30273 40284 52016 60014 7//44
  333 70010=
94573 17/// /2705 10131 20115 30256 40283 51013 60014 7//44
  333 70010=
94574 11464 72702 10130 20124 60014 75065 875//
  333 70012=
94582 11581 32308 10162 20126 69944 70281 83800
  333 70004=
94588 15/// /1112 10085 20063 39077 40292 53013 69924
  333 70002=
94589 11470 72505 10130 20130 30246 40280 51015 60044 75085 87300
  333 70044=
94596 178// 72806 10146 20141 30278 40281 51016 60204 7//44
  333 70196=
94598 17/// /2406 10134 20131 30202 40279 51017 60104 7//44
  333 70104=
94599 31580 62308 10141 20130 30161 40279 53017 70111 86200=
94686 15/// /3617 10132 20087 39969 40188 53022 60004
  333 70000=
94689 11040 83615 10113 20107 60014 76162 8272/
  333 70012=
94692 11/80 80202 10064 20055 60024 70022
  333 70018=
94694 11/84 83613 10142 20096 69904 70311
  333 79999=
94695 11582 73613 10137 20057 60004 71422 87300
  333 70000=
94696 11584 83605 10130 20063 60004 70322 82390
  333 70000=
94697 11/84 73115 10130 20095 30087 40191 57009 60004 70322 87070
  333 70000=
94698 11/84 80504 10113 20074 30097 40211 52002 60004 70222 8807/
  333 70000=
94699 11/84 83606 10140 20080 60004 70311 88090
  333 70000=
94702 15/// /0313 10111 20080 30094 40207 53003 60004
  333 70000=
94706 11/70 63614 10102 20073 60004 70322
  333 70000=
94709 11/84 70704 10091 20065 60004 70222 85078
  333 70000=

####018001266####
SNAU54 AMMC 092300
AAXX 09234
94711 11/84 30315 10120 20068 39911 40229 57001 60004 7030/
  333 70000=
94712 15/// /0410 10106 20058 39794 40254 58010 60004
  333 70000=
94714 11/70 80905 10098 20060 60004 70311 83077
  333 70000=
94715 15/// /0412 10114 20088 39967 40249 58010 60004
  333 70000=
94716 11/70 70000 10065 20059 69924 74142 8709/
  333 70002=
94717 11/84 80905 10120 20069 60004 70322 8807/
  333 70000=
94720 11/// 70000 10071 20056 60004 70322 80006
  333 70000=
94721 11484 70517 10130 20071 60004 70322 87300
  333 70000=
94727 15/// /1604 10103 20086 39718 40287 50006 60004
  333 70000=
94728 11/84 60505 10080 20070 60004 70311 80006
  333 70000=
94740 11/40 10902 10087 20075 60004 74000 80005
  333 70000=
94742 11/75 21102 10094 20069 60004 70300 80001
  333 70000=
94743 15259 40605 10063 20060 60034
  333 70032=
94746 15/// /0211 10085 20066 39479 40291 58003 60004
  333 70000=
94747 11260 80502 10080 20067 69924 70311 886//
  333 70002=
94749 15/// /3201 10147 20115 60014
  333 70010=
94752 15/// /0000 10092 20092 30190 40290 51003 60004
  333 70000=
94754 06/// /0705 10058 20057 60024
  333 70024=
94757 15/// /1803 10095 20086 60004
  333 70000=

####018000030####
SNKI01 AMMC 092300
NIL

####018002012####
SNAU58 AMMC 092300
AAXX 09234
94830 17/// /0216 10105 20094 30117 40129 53001 60034 7//44
  333 70034=
94831 11584 83404 10120 20088 69994 76362 88700
  333 70009=
94833 17/// /0135 10035 20034 60024 7//44
  333 70020=
94834 11570 80222 10105 20056 39805 40161 52002 69904 72022 88500
  333 79999=
94835 15/// /0227 10050 20040 60004
  333 70000=
94836 15/// /0213 10106 20066 39884 40161 53006 69924
  333 70002=
94837 17/// /0320 10103 20084 30048 40134 53001 60014 7//44
  333 70014=
94840 17/// /0218 10093 20082 39995 40155 53008 60024 7//44
  333 70020=
94841 11560 80218 10116 20075 69904 76022 88300
  333 79999=
94843 15/// /0316 10109 20064 30091 40178 53008 60004
  333 70000=
94844 11/60 80515 10114 20075 60004 70311 8807/
  333 70000=
94846 15/// /0113 10120 20067 60004
  333 70000=
94847 46/// /0136 6///0
  333 7////=
94852 11682 80224 10084 20053 39653 40175 56009 60004 70222 885//
  333 70000=
94854 15/// /0324 10124 20065 30147 40160 58019 60004
  333 70000=
94855 11784 70513 10092 20062 39945 40199 55003 60004 70311 875//
  333 70000=
94857 15/// /0314 10122 20071 30127 40170 56010 60004
  333 70000=
94859 06/// /0315 10091 20064 60004
  333 70000=
94860 155// 10126 10087 20056 39566 40198 53004 60004
  333 70000=
94863 06/// /3619 10114 20055 39879 40165 53001 60004
  333 70000=
94864 15/// /0217 10141 20060 30087 40190 55009 69924
  333 70002=
94866 11682 73620 10121 20052 30042 40187 55000 60004 71522 8157/
  333 70000=
94868 11680 7//// 10145 20046 30147 40187 55001 60004 71522 81570
  333 70000=
94870 15/// /0116 10140 20064 30167 40182 55010 60004
  333 70000=
94871 46/// /0408 10140 20059 6///7
  333 7////=
94872 15/// /0125 10097 20051 60004
  333 70000=
94874 11570 80520 10116 20065 30037 40211 56003 60004 70222 8553/
  333 70000=
94878 15/// /0405 10048 21406 60004
  333 70000=
94880 11570 83604 10126 20036 69904 7034/ 885//
  333 79999=

####018002241####
SNAU51 AMMC 092300
AAXX 09234
94568 177// 83201 10141 20115 30242 40280 51015 69924 7//44
  333 70002=
94569 172// 82004 10156 20140 30260 40265 53022 60244 7//44
  333 70238=
94570 15/// /1811 10168 20137 30254 40262 53020 60034
  333 70034=
94575 157// 72604 10151 20119 30256 40271 52018 60004
  333 70000=
94576 06/// /2402 10154 20110 30263 40273 53020 60004
  333 70000=
94580 15/// /1715 10195 20130 30262 40267 51017 60004
  333 70000=
94581 46/// /1811=
94592 15/// /2009 10179 20119 30266 40272 51014 69964
  333 70006=
94594 17/// /1423 10167 20128 30139 40260 51023 60124 7//44
  333 70116=
95283 17450 81308 10224 20210 30173 40180 53019 60034 7//44
  333 70028=
95286 15/// /1006 10214 20168 39651 40194 53019 60004
  333 70000=
95292 17/// /2108 10208 20186 30183 40205 53022 60014 7//44
  333 70014=
95293 15/// /1406 10161 20123 39570 40216 51016 69924
  333 70002=
95295 15/// /1507 10208 20149 60004
  333 70000=
95296 15/// /1307 10214 20148 30200 40209 51018 60004
  333 70000=
95351 15/// /0806 10142 20114 39889 40223 53011 60004
  333 70000=
95367 154// 21711 10196 20142 30217 40224 51018 60004
  333 70000=
95369 15/// /1807 10187 20142 30216 40228 51012 60004
  333 70000=
95370 15/// /1706 10188 20143 30191 40225 51014 60004
  333 70000=
95376 11/84 11301 10163 20147 60004 70211
  333 70000=
95487 15/// /0210 10116 20088 30055 40193 53001 60004
  333 70000=
95492 11984 00207 10125 20099 30060 40220 51014 60004 70200
  333 70000=
95529 15/// /0905 10143 20093 39895 40261 51008 60004
  333 70000=
95543 06/// /0601 10168 20111 30122 40256 51015 60004
  333 70000=
95551 11483 11021 10126 20089 39516 40269 51015 60004 70300 81600
  333 70000=
95565 177// 52009 10167 20151 30233 40248 53017 60034 7//44
  333 70028=
95566 17/// /2002 10153 20135 60014 7//44
  333 70012=
95572 06/// /2004 10161 20130 30201 40266 53020 60004
  333 70000=
95573 15/// /0106 10135 20094 60004
  333 70000=
95575 15/// /2107 10162 20124 30214 40273 51017 60004
  333 70000=
95581 11/70 62701 10155 20120 60004 70311
  333 70000=
95591 15/// /2009 10154 20120 30253 40268 51020 60004
  333 70000=

####018002233####
SNAU59 AMMC 092300
AAXX 09234
94881 15/// /0521 10089 20039 60004
  333 70000=
94882 11784 70506 10120 20056 60004 70211 84570
  333 70000=
94884 11/83 63111 10109 20050 30018 40228 57012 60004 70322 86070
  333 70000=
94888 11/80 70000 10025 20012 69944 70311
  333 70004=
94889 15/// /2102 10073 20066 30046 40234 56013 60004
  333 70000=
94891 11684 70907 10044 20034 30139 40208 57012 69924 70322 8269/
  333 70002=
94892 06/// /0509 10107 20076 30173 40190 55010 60004
  333 70000=
94894 15/// /0231 11002 21003 60004
  333 70000=
94898 06/// /0503 10092 20066 30173 40190 55009 60004
  333 70000=
94899 11/70 80000 11001 21001 69904 74022 88040
  333 79999=
94903 15/// /3530 10008 20007 38241 40234 58015 60004
  333 70000=
94905 13/// /3313 10051 20001 38750 40263 56014 60004
  333 70000=
94906 15/// /0140 11005 21008 60004
  333 70000=
94912 15/// /0710 10078 20038 30148 40209 58021 60004
  333 70000=
94913 15/// /0116 10055 20020 39339 40236 58015 60004
  333 70000=
94914 15/// /0204 10076 20040 39487 40247 57006 60004
  333 70000=
94930 15/// /0606 10087 20039 60004
  333 70000=
94932 11583 80706 10100 20079 60004 70311 88400
  333 70000=
94933 11570 70213 10134 20107 30240 40258 56012 69964 70322 82110
  333 70006=
94949 15/// /0525 10123 20090 30063 40205 58018 60004
  333 70000=
95704 15/// /0417 10112 20077 30049 40214 56011 60004
  333 70000=
95728 17/// /0710 10102 20080 39509 40278 51005 69924 7//44
  333 70002=
95831 17/// /0113 10108 20091 60024 7//44
  333 70020=
95833 15/// /0309 10107 20068 60004
  333 70000=
95835 17/// /0414 10104 20073 69924 7//44
  333 70002=
95836 15/// /0515 10106 20060 60004
  333 70000=
95837 15/// /0712 10108 20058 60004
  333 70000=
95840 17/// /0316 10096 20080 39879 40153 53008 60014 7//44
  333 70010=
95843 11/60 60225 10091 20043 60004 70211
  333 70000=
95845 15/// /0222 10108 20056 39858 40172 53007 60004
  333 70000=
95853 11560 80207 10088 20069 60004 70322 84280
  333 70000=
95864 46/// /0219=
95866 15/// /3621 10134 20060 30085 40181 56005 60004
  333 70000=
95867 15/// /0216 10137 20058 60004
  333 70000=

####018000665####
SNAU60 AMMC 092300
AAXX 09234
95872 46/// /3624=
95874 15/// /0212 10136 20060 30104 40185 55006 60004
  333 70000=
95881 11565 80000 10083 20057 30144 40195 57013 60004 70222 885//
  333 70000=
95890 17/// /0407 10076 20054 30179 40201 56015 69924 7//44
  333 70002=
95901 15/// /0614 10017 21005 60004
  333 70000=
95904 11/84 70504 10091 20061 60004 70311 87070
  333 70000=
95913 15/// /3415 10097 20028 60004
  333 70000=
95918 15/// /0803 10082 20070 30146 40223 58019 60004
  333 70000=
95937 15/// /2104 10102 20102 30271 40277 58006 60024=
95940 17/// /3104 10113 20102 30181 40284 58003 60114 7//44
  333 70114=

####018001089####
SNAU62 AMMC 092300
AAXX 09234
95960 155// 80714 10118 20090 30222 40234 56008 69944
  333 70004=
95962 17/// /0310 10067 20037 69924 7//44
  333 70002=
95964 11470 80720 10122 20094 30227 40231 56014 69984 70222 882//
  333 70008=
95966 155// 81904 10075 20068 30034 40242 56017 69944
  333 70004=
95967 15/// /0414 10097 20059 30141 40215 58023 60004
  333 70000=
95969 15/// /0000 10067 20061 60024
  333 70016=
95970 11/82 80000 10070 20029 60004 70322
  333 70000=
95973 11/70 80924 10110 20090 69944 70322
  333 70004=
95974 17/// /0000 10074 20068 60014 7//44
  333 70010=
95977 15/// /0611 10118 20037 69924
  333 70002=
95979 06/// /3626 10013 20013 69964
  333 70006=
95981 11570 70309 10123 20091 30190 40250 58015 60034 71522 875//
  333 70028=
95985 15/// /0517 10126 20103 30221 40239 56017 69964
  333 70006=
95986 15/// /0225 10099 20093 39945 40237 56019 69924
  333 70002=
95988 15/// /3514 10105 20093 30203 40238 56015 60004
  333 70000=
95989 11784 83602 10121 20098 60034 70265 885//
  333 70028=

####018001698####
SNAU61 AMMC 092300
AAXX 09234
94950 11560 80718 10120 20101 30055 40186 57011 60004 70322 8277/
  333 70000=
94953 15/// /0617 10125 20102 30185 40196 58014 60004
  333 70000=
94955 06/// /1007 10088 20079 39878 40236 56008 60024
  333 70022=
94957 15/// /0000 10023 20022 30123 40236 56017 69924
  333 70002=
94958 11/30 80918 10132 20113 60044 72566
  333 70040=
94959 15/// /0607 10079 20026 69924
  333 70002=
94962 11981 70107 10106 20033 30022 40201 56021 60004 70311 8708/
  333 70000=
94963 11/81 81102 10070 20052 69954 70211
  333 70005=
94964 11470 82604 10036 20031 69924 70222 8571/
  333 70002=
94966 11/60 60000 10009 20004 69924 70311
  333 70002=
94967 11580 70217 10096 20052 30145 40213 57023 69924 70311 81526
  333 70002=
94969 06/// /2302 10090 20084 69924
  333 70002=
94970 13/// /0106 10091 20051 30169 40232 58015 60004
  333 70000=
94971 11/84 80509 10074 20052 69924 70222
  333 70002=
94977 15/// /0210 10042 20026 69924
  333 70002=
94979 11/84 60505 10069 20035 69924 70211
  333 70002=
94980 15/// /0516 10135 20105 30212 40224 58023 69924
  333 70002=
94981 11/80 80000 10035 20033 30232 40247 57013 69924 70222 8806/
  333 70002=
94985 11/58 60000 10007 20002 69924 74044
  333 70002=
94987 06/// /3611 10106 20092 30175 40244 56017 60024
  333 70024=
95952 06/// /0335 10037 20033 38886 40188 56011 69944
  333 70004=
95953 11/75 80508 10076 20052 69924 70022
  333 70002=
95956 15/// /0525 10102 20083 60014
  333 70010=
95957 11550 80615 10133 20104 30197 40212 57012 60024 70522 88500
  333 70016=
95958 17/// /0109 10070 20047 69924 7//44
  333 70002=

####018000170####
SNVD15 KWNB 092300 RRI
BBXX
42362 09231 99278 70907 46/// /0701 10294 20222 40156 56013 92300=
42364 09231 99291 70881 46/// /0000 10283 20217 40149 58017 92300=
####018000089####
SNPS40 AMMC 092200 RRC
AAXX 09224
91519 46/// /9901 10283 40133 22200 00289=


####018000125####
SNVD45 KWNB 092300 RRE
BBXX
45022 09231 99454 70851 46/// /3202 10212 40160 92310 22200 00198
1//00 70002 333 91202=
####018000113####
SNVD20 KWNB 092300 RRG
BBXX
41033 09231 99323 70804 46/// /1908 10292 40090 56016 92300 555
11108 22131=
####018000227####
SNVD22 KWNB 092300 RRI
BBXX
46023 09231 99347 71210 46/// /3306 10136 40142 57008 92250 22200
00141 11402 20401 3//// 41402 70011 333 91207 555 11058 22061
32242 43307 62249 329058 327060 328059 328056 330057 331057=
