####018000028####
SMCI09 BABJ 100000
NIL=
####018000335####
SMVS01 VNNN 100000 RRB
AAXX 10001
48839 32998 61810 10300 20273 39992 40055 52011 80008 222// 00297
3//03 333 00/// 20294 58009 86299=
48848 32998 62302 10310 20249 30056 40064 53014 80008 333 00034
20294 3/029 58002 86299=
48855 32770 70000 10279 20232 30065 40073 53016 81508 333 00031
20259 3/025 58002 81697 87299=
####018000224####
SMVS02 VNNN 100000 RRB
AAXX 10001
48806 32470 70000 10249 20236 39313 40065 52011 333 00028 20242
3/026 59001 81894 87696=
48852 32998 72301 10282 20231 30057 40067 52010 80008 333 00031
20248 3/025 59001 87299=
####018000109####
SMIN01 DEMS 100000 RRB
AAXX 10004
42027 22696 30000 10190 20165 38363 48446 83400
  333 59018 6011/=
####018000109####
SIIN20 DEMS 092100 RRE
AAXX 09214
42027 22596 81801 10192 20161 38361 48443 8452/
  333 59022 6011/=
####018000287####
SMCN39 CWAO 100000 RRE
AAXX 10004
71981 16/// /1405 10283 20070 60001 333 10302 20097 70008=
71982 46/// /1509 10274 20093 6///1 333 7////=
71986 16/// /2213 10295 20088 60001 333 10301 20142 70000=
71990 16/// /2105 10181 20027 38607 40170 57006 60001 333 20019
7////=

####018000122####
SMCN36 CWAO 100000 RRD
AAXX 10004
71680 46/// ///// 10143 20020 39659 40113 57005 6///1 333 10151
20073 7////=

####018000203####
SMCN24 CWAO 100000 RRE
AAXX 10004
71406 16/// /2130 10131 20126 30042 40052 53003 60001 333 10138
20111 70000=
71418 46/// /2212 10217 20172 30094 40126 51007 6///1 333 10239
20170 7////=

####018000108####
SMCN33 CWAO 100000 RRF
AAXX 10004
71354 17/// /3602 10257 20141 69991 7//4/ 333 10267 20108 70009=

####018000284####
SMCN31 CWAO 100000 RRE
AAXX 10004
71162 16/// /2913 10120 20064 39910 40114 56004 60001 333 10124
20091 70025=
71166 46/// /0104 10200 20062 39563 40153 56010 6///1 333 10202
20120 7////=
71197 16664 80907 10153 20139 30096 40144 52002 60001 333 10219
20113 70000=

####018000102####
SMCN20 CWAO 100000 RRD
AAXX 10004
71048 46/// /2312 10296 20089 6///1 333 10301 20121 7////=

####018000122####
SMCN34 CWAO 100000 RRF
AAXX 10004
71492 16/// /3016 10145 20097 39418 40085 51003 60001 333 10148
20022 70002=

####018001283####
SMKR11 BABJ 100000
AAXX 10001
47003 11260 80000 10175 20151 30122 40126 52007 60022 75155
886// 333 20165=
47005 32580 81801 10140 20127 38553 54000 885// 333 20117=
47022 12275 80000 10150 20143 38838 52014 69912 8667/ 333
20126=
47028 32461 80000 10221 20207 30003 40091 52013 886// 333
20193=
47031 11570 80000 10154 20147 38904 52009 69932 72162 885//
333 20134=
47037 31567 80000 10226 20211 39980 40094 52010 70142 8753/
333 20205=
47039 31560 80000 10204 20188 39926 40106 52005 71022 885//
333 20185=
47046 11569 80501 10199 20190 30086 40107 52014 60012 76066
885// 333 20194=
47050 32565 60000 10240 20206 30064 40095 52009 86500 333
20202=
47052 32565 80000 10220 20204 39784 40101 52014 885// 333
20192=
47060 31540 80902 10231 20220 30034 40088 54000 71022 885//
333 20204=
47061 11960 80000 10235 20228 30052 40093 52003 69912 71022
8807/ 333 20192=
47065 31940 81404 10239 20225 30032 40093 52005 71022 80001
333 20209=
47067 31560 80000 10226 20204 39996 40108 52011 71022 885//
333 20200=
47068 31940 80903 10228 20212 30053 40086 52010 71042 8802/
333 20201=
47070 31950 80000 10217 20214 30023 40105 52006 71042 80002
333 20208=
47075 32580 80000 10225 20194 39544 49937 52003 885// 333
20181=
####018000218####
SMNI01 DNMM 100000
AAXX 10004
65112 11470 73504 10240 20233 3//// 4//// 69951 79596 8397/
  333 5//// 83611 81920 87460 94959=
65213 11960 70000 10245 20238 3//// 4//// 60082 71022 8007/
  333 5//// 87460=
####018001527####
SMSU01 HSSS 100000
AAXX 10004
62600 32970 03609 10315 20125 39872 40079
  333 59011=
62640 31930 73403 10330 20020 39675 40019 70622 80007
  333 56009 58001 87275=
62641 31965 03206 10315 20230 39988 40036 70600
  333 59015=
62650 32970 73210 10300 20060 39806 40069 80007
  333 56009 58001 87275=
62660 32970 73601 10310 20050 39776 40067 80007
  333 56009 58004 87275=
62680 31962 73310 10340 20110 39652 40032 70622 80007
  333 56009 58002 87275=
62721 32970 73210 10350 20030 39611 40028 80007
  333 56009 58004 87275=
62730 31968 01809 10300 20180 39538 40089 70600
  333 58002=
62733 32970 71810 10275 20160 39558 40056 80007
  333 56009 58013 87275=
62750 32970 71806 10290 20180 39620 40045 80007
  333 56009 59001 87275=
62751 32970 72109 10282 20188 39623 40073 82047
  333 56099 59003 82365 87275=
62752 32970 72505 10250 20170 39396 40065 80007
  333 56009 58000 87275=
62762 31770 71812 10255 20185 39600 40071 71322 81947
  333 56499 57941 58011 81950 82365 87275=
62771 32970 71806 10270 20180 39436 40069 80007
  333 56009 59002 87275=
62772 32970 72207 10280 20210 39659 40085 87070
  333 56090 58010 87365=
62781 32970 71805 10295 20205 39474 40091 80007
  333 56009 58018 87275=
62790 32970 72004 10260 20170 39377 40092 80007
  333 56009 59015 87275=
62795 11670 72315 10215 20200 39575 40078 60091 72992 84970
  333 56490 57942 58003 83640 81950 87364=
62805 32970 73204 10220 20190 39555 40087 87070
  333 56090 58011 87365=
####018002886####
SMPH01 RPMM 100000
AAXX 10001
98134 11465 81801 10300 20273 39918 40104 53013 60124
70544 81202 333 20251 56999 58012 70122 81819 86076=
98223 11462 50902 10282 20256 40110 52016 60074 70541
81306 333 20237 56999 58007 70074 81919 85279 94966=
98232 31570 50000 10280 20254 40118 53015 70544 82270
222// 20101 333 20250 56999 58007 82820 83358=
98325 11462 52002 10270 20250 40112 53019 60024 70522
82271 222// 20000 333 20245 56999 58016 70026 82817
83359 98308=
98328 11462 51601 10190 20184 38527 40105 53009 60494
70544 82201 333 20154 50200 55007 56999 59003 70494
82814 84079=
98330 11470 50000 10261 20260 30088 40120 53013 60164
70544 82201 333 20235 56999 58008 70162 82818 85077
555 00022=
98336 31470 33602 10292 20242 30105 40110 53010 70544
81202 333 20236 56999 59005 81815=
98429 31559 40303 10290 20258 40125 52024 70544 82201
333 20258 56999 58012 82823 84080=
98430 11558 41501 10276 20238 40111 51013 69904 70544
81101 333 20243 56999 58006 70990 81820 84080=
98431 11470 40000 10253 20224 30070 40117 51010 60034
70544 82230 333 20229 56999 58003 70025 82818=
98440 11475 30000 10274 20256 30114 40119 52020 60034
70544 81931 333 20246 56999 59001 70031 81915=
98444 31468 60000 10275 20255 30096 40115 51016 69964
83278 333 20257 56999 58005 70006 83818 82459 86270=
98526 12570 80000 10270 80000 10278 20257 40118 53016
69934 81207 333 20244 56999 58004 70003 81820 88274
98315=
98531 11570 50302 10284 20254 30108 40112 53010 69924
70544 82208 333 20/// 56999 58003 70002 82820 84275=
98536 11470 51801 10294 20256 30054 40108 53015 60024
71542 82970 222// 20000 333 20245 56999 59005 70024
82918 83357 555 0////=
98543 12475 50000 10287 20262 30117 40128 53021 60634
82301 333 20258 56999 58017 70630 82915 84075=
98550 32460 21101 10294 20260 40112 53023 81202 333
20264 56999 58007 81818=
98618 32480 62701 10258 20240 40119 53008 83968 333
20245 56999 58010 82917 82820 86274 555 0////=
98630 NIL=
98637 32475 60000 10270 20231 40117 53020 82908 333
20240 56999 58014 82912 86272=
98646 11560 61803 10286 20257 30110 40138 52020 60014
70286 82202 333 20246 56999 58008 70012 82820 85080
555 20012=
98653 31468 31801 10290 20248 30070 40115 52022 70544
82202 333 20250 56999 58015 82818=
98741 11470 60000 10267 20244 40114 52016 69904 70584
82208 333 20/// 56199 59005 79999 82817 86275 555 29999=
98747 11462 51802 10258 20224 39917 40121 52028 60174
70544 82908 333 20231 56999 58009 70166 81917 85274=
98753 11462 70000 10258 20245 40125 53019 60534 76064
82228 333 20234 55097 2//// 56999 58010 70534 82816
85459 86279 555 20010 =
98755 32575 70000 10260 20236 40128 52031 81978 333
20245 56999 58018 81920 84360 87279=
98836 11460 80000 10252 20241 40129 51017 60054 76196
8392/ 333 20220 56999 58014 70052 83918 88460 555 20050=
####018000222####
SMNI01 DNMM 100000 RRA
AAXX 10004
65112 11470 73504 10240 20233 3//// 4//// 69951 79596 8397/
  333 5//// 83611 81920 87460 94959=
65213 11960 70000 10245 20238 3//// 4//// 60082 71022 8007/
  333 5//// 87460=
