####018000194####
SNVD15 KWNB 091900 RRX
BBXX
42047 09191 99279 70936 46/// /1303 1//// 40162 91930 22200 00292
333 91203=
42047 09191 99279 70936 46/// /1303 1//// 40165 91900 22200 00292
333 91204=
####018000194####
SIVD15 KWNB 092100 RRX
BBXX
42047 09211 99279 70936 46/// /1002 1//// 40151 92130 22200 00294
333 91203=
42047 09211 99279 70936 46/// /1103 1//// 40153 92100 22200 00294
333 91204=
####018000194####
SNVD15 KWNB 092200 RRX
BBXX
42047 09221 99279 70936 46/// /0902 1//// 40147 92230 22200 00294
333 91203=
42047 09221 99279 70936 46/// /1002 1//// 40150 92200 22200 00295
333 91203=
####018000194####
SNVD15 KWNB 092000 RRX
BBXX
42047 09201 99279 70936 46/// /1002 1//// 40156 92030 22200 00293
333 91203=
42047 09201 99279 70936 46/// /1102 1//// 40160 92000 22200 00293
333 91203=
####018000437####
SMBJ01 DBBB 100000
AAXX 10004
65306 32960 70000 10245 20232 39782 40110 8707/
  333 0//00 59008 87363=
65319 33960 50000 10240 20226 39600 40115 80002
  333 0//00 59009 85076=
65330 32460 71204 10238 20226 39681 40123 875//
  333 0//00 58002 87610=
65335 31960 7//// 10255 20229 39898 40121 70099 8707/
  333 0//00 58003 87361=
65344 32460 72210 10267 20247 30107 40118 83572
  333 0//00 58008 83612 83360 85076=
####018000080####
SAKN64 HKMO 092300
METAR HKMO 092300Z 18005KT 9999 FEW021 22/21 Q1015 NOSIG=
####018000131####
SNVD20 KWNB 092300 RRW
BBXX
42085 09231 99179 70665 46/// /1008 10296 40145 53006 92300 22200
00296 10603 70014 333 91209=
####018000253####
SNVD20 KWNB 092200 RRX
BBXX
42085 09221 99179 70665 46/// /1007 10296 40144 92230 22200 10603
70014 333 91209=
42085 09221 99179 70665 46/// /1008 10298 40142 92220 333 91209=
42085 09221 99179 70665 46/// /1008 10298 40142 92210 333 91210=
####018000147####
SMPF80 KWBC 100000 RRB
AAXX 10004
91948 02580 31804 10208 20158 30115 40219 56017 69904 83800 333
20199 56300 58017 60007 82823 555 60005=
####018000166####
SNVD20 KWNB 092300 RRX
BBXX
42085 09231 99179 70665 46/// /1007 10296 40144 92250 333 91209=
42085 09231 99179 70665 46/// /1008 10296 40144 92240 333 91209=
####018002140####
SMAG01 SABM 100000
AAXX 10004
87078 32470 81803 10186 20149 30046 40200 52015 885//
333 10214 20167 56499 88618=
87097 11557 80000 10164 20164 39886 40202 52008 60071 71062 8457/
333 10184 20164 84620 86360=
87148 32970 81805 10172 20126 30108 40219 53021 8807/ 333 10194
2//// 56009 88360=
87155 11356 81802 10162 20148 30146 40128 52015 69901 70452 886// 333
 10176 20156 56599 86708 88612=
87162 11158 82004 10181 20177 30121 40191 52012 69961 72052 886//
333 10195 20169 56499 87703 88612 96010=
87166 11150 82002 10159 20154 30137 40211 52013 60011 75055 8762/
333 10164 20148 56479 83702 84705 88550=
87178 32970 81102 10191 20175 30053 40201 52009 8807/ 333 10219
20170 56009 88360=
87374 32965 01403 10096 20075 30148 40239 52013 333 10202 20084=
87393 32970 01805 10118 20077 30157 40222 53009 333 10210 20113=
87395 32965 01802 10128 20075 30186 40232 52013 333 10194 20078=
87480 32960 01603 10091 20051 30214 40245 52013 333 10175 20040=
87497 32965 01404 10090 20064 30213 40242 52012 333 10181 20044=
87534 32960 00000 10054 21020 30080 40251 53011 333 10164 20034=
87548 32962 00000 10048 21005 30158 40259 51008 333 10150 20048=
87563 32965 00000 10057 21010 30194 40240 53007 333 10115
20038=
87576 32960 01804 10058 20021 30232 40256
52012 333 10139 20056=
87582 32960 01608 10109 20015 30246 40253 52013 333 10157 20102=
87593 NIL=
87623 32980 03608 10041 21034 30000 40239 57004 333 10143 21006=
87640 32965 00000 10023 21010 30132 40251 53007 333 10122 20013=
87641 NIL=
87645 32965 30000 11008 21033 30034 40254 52004 80001 333 10102
21008 56006 83070=
87648 32960 00000 10040 20033 30242 40254 52008 333 10105 20032=
87688 32965 53205 10041 21014 30094 40237 51001 80006 333 10105 20024
      56007 85270=
87692 31957 00000 10020 21002 30220 40246 52008 71000
333 10110 20020=
87715 32970 30000 10066 21001 39864 40198 56007 80006 333 10137 21008
 56006 83270=
87750 32965 53210 10030 21028 30128 40233 54000 80006 333 10114
21012 56006 85270=
87765 32560 22921 10064 20018 39178 48458 57011 82500 333 10066
20014 56600 82630=
####018000129####
SMAG01 SABM 100000 RRA
AAXX 10003
87289 32962 01803 10144 20111 30135 40219
 52019 333 10200 20130 55510219 64168 65090=
####018000089####
SMPO01 LPMG 100000 RRA
AAXX 10001
08548 32/// /0101 10152 20145 30012 40216 57002=
####018000093####
SMSD10 OEJD 100000 RRA
AAXX 10004
40362 32960 00000 10290 20070 39534 40006 333 58006=
####018000117####
SMSD12 OEJD 100000 RRA
AAXX 10004
41114 31920 00308 10240 20100 37941 48445 70644 333 59009 555 04410
59999=
####018000123####
SMAK20 KWBC 100000 RRA
AAXX 10004
70251 32966 02005 10228 20083 39958 40091 57020 92353 333 10233
20072 555 91000=
####018001409####
SMAK01 KWBC 100000 RRA
AAXX 10004
70133 32966 43008 10167 20106 30071 40079 58018 92353 333 10167
20139 555 91000=
70174 32866 21311 10283 20056 39845 40081 56022 92353 333 10289
20111 91015 555 91000=
70200 32966 22410 10217 20044 30049 40053 58022 92353 333 10233
20144 555 91000=
70219 32666 80614 10183 20050 39975 40030 56027 92353 333 10194
20089 91018 555 91000=
70231 32666 40000 10239 20067 39938 40061 58026 92353 333 10256
20156 555 91000=
70261 32866 40907 10289 20094 39898 40067 58024 92353 333 10289
20144 555 91000=
70267 11766 42803 10233 20094 39628 40083 56015 69901 761// 92353
333 10272 20139 555 91000=
70273 32766 40000 10211 20044 30037 40096 56016 92353 333 10217
20094 555 91000=
70316 12566 41628 10128 20067 39898 49933 51005 60011 92353 333
10128 20089 91033 555 91000=
70326 11666 60920 10100 20000 30001 40013 56013 60041 761// 92354
333 10133 20067 91032 555 91000=
70340 11866 61411 10106 20078 30019 40078 58013 69901 761// 92353
333 10128 20094 91017 555 91000=
70350 11232 80713 10100 20089 30037 40076 56015 60191 761// 92353
333 10100 20089 96010 555 91000=
70361 32966 60000 10178 20100 30128 40139 50002 92353 333 10189
20111 555 91000=
70381 32766 82203 10189 20111 30122 40131 56009 92353 333 10222
20106 555 91000=
70414 12266 83618 10071 20070 30082 40122 51007 69951 92356 333
70008 91025 555 91000=
####018000571####
SMAK31 KWBC 100000 RRA
AAXX 10004
70194 32966 21304 10290 20000 39921 92350 555 91000=
70232 35766 41208 10190 20060 30019 57027 92356 333 10190 20110
555 91000=
70267 11766 42803 10233 20094 39628 40083 56015 69901 761// 92353
333 10272 20139 555 91000=
70321 31766 80515 10110 20080 39995 761// 92345 555 91000=
70333 35566 41423 39918 57027 92356 333 91032 555 91000=
70340 11866 61411 10106 20078 30019 40078 58013 69901 761// 92353
333 10128 20094 91017 555 91000=
70343 35366 80713 10110 20080 30111 57007 92356 333 10120 20090
555 91000=
####018000208####
SMCA01 KWBC 100000 RRA
AAXX 10004
78526 32566 41009 10289 20233 30143 40164 53017 92356 333 10322
20261 555 91000=
78543 32966 00906 10283 20239 30082 40163 53010 92353 333 10317
20267 555 91000=
####018001050####
SMRS13 RUMS 100000
AAXX 10001
22271 NIL=
22520 41996 72602 10168 20162 30114 40123 52006 71082 86031=
22550 41997 31802 10189 20183 30111 40121 57002 70298 83030=
22583 41584 52001 10146 20100 30070 40147 58013 71790 83902=
22768 42697 21702 10220 20171 30081 40133 58006 82500=
22845 41898 31601 10190 20175 30006 40153 52002 70291 83030=
22887 41643 61801 10188 20181 30081 40147 57008 71122 81131 333
91103=
23205 41296 80000 10081 20070 30152 40167 57003 75152 886// 333 88706
91102=
23219 NIL=
23418 41450 83502 10090 20084 30096 40168 54000 78082 889// 333
84713=
23606 42962 30000 10107 20099 39997 40162 52004 80001=
23711 42998 02901 10103 20099 39990 40158 54000=
23804 42998 00000 10157 20143 30019 40160 52005=
27037 42698 62301 10191 20171 30022 40174 52004 83501=
27199 42998 20000 10182 20165 39973 40158 52003 80002=
27271 41996 11801 10161 20152 30026 40174 54000 71000 81030=
27459 42998 20000 10228 20177 39988 40169 58002 80001=
27730 42998 60701 10195 20165 39985 40168 58001 86030=
####018000101####
SMRS12 RUMS 100000 RRA
AAXX 10001
26389 41996 33001 10180 20175 39948 40199 54000 71011 83030=
####018001443####
SMRS11 RUMS 100000
AAXX 10001
20107 41598 81405 10073 20053 30017 40109 58002 78082 889// 333 85624
91007=
22113 41256 80504 10120 20117 30061 40122 54003 78182 889// 333 85706
91006=
22217 41/02 91801 10139 20135 30089 40120 58004 74784 333 91002=
22235 41257 83002 10170 20165 39923 40106 57009 71082 886// 333
91003=
22349 41594 71601 10113 20111 30107 40118 57002 71098 87900 333
91002=
22408 42999 83101 10172 21136 39997 40139 52005 8807/=
22602 41476 62601 10166 20158 39935 40149 52010 70282 85930 333
85913=
22619 NIL=
22721 42962 62802 10194 20190 30045 40140 52003 80009=
22802 41958 22501 10190 20187 30148 40170 51012 71281 82070=
22820 42999 22802 10199 20168 30025 40158 52003 82030=
26059 42997 02001 10169 20147 30170 40194 51003=
26063 42997 02702 10194 20153 30179 40186 50003=
26094 42570 72202 10184 20177 30109 40181 52008 82530=
26157 41998 00000 10150 20141 30166 40214 52013 71211=
26167 42963 83101 10177 20170 30094 40201 52010 80001=
26258 42998 23001 10178 20163 30148 40200 52007 80001=
26298 41996 20000 10178 20175 39976 40196 52007 71011 80001=
26359 41957 50000 10173 20168 30076 40204 54000 71022 83031=
26702 41996 00000 10154 20145 30209 40234 52004 71000 333 91000
91101=
26781 42597 43402 10197 20169 39916 40194 52005 84900=
27208 41/92 03001 10165 20165 30017 40186 52005 74741=
27402 41997 63401 10179 20169 30014 40185 54000 71222 80001=
####018000794####
SMRS12 RUMS 100000
AAXX 10001
22028 41471 83210 10094 20086 30085 40122 57002 78082 889// 333 91010
91111=
22106 41497 80402 10143 20121 30036 40111 57004 78082 889// 333 85714
91004=
22127 41497 82701 10153 20151 39919 40109 57007 78082 889// 333 86712
91002=
22324 41358 62901 10140 20132 30074 40121 57006 71082 84931 333
91001=
22621 42598 62601 10185 20180 30005 40137 52003 82530=
22831 41945 60000 10174 20164 30105 40162 52007 71022 83031=
22892 42598 60000 10188 20168 30167 40182 52012 82230=
26275 41997 70000 10179 20176 30163 40192 52004 71222 81032=
26389 NIL=
26499 41997 30000 10182 20175 39980 40199 52005 71211 80001=
26695 41996 23101 10178 20171 39904 40197 52002 71011 81031=
26882 41978 33601 10185 20174 39927 40189 58001 70291 82031=
####018000594####
SMTA10 UTDD 100000
AAXX 10001
38598 42698 70912 10280 20174 40041 57006 87300 333   91017=
38599 NIL=
38725 NIL=
38734 NIL=
38744 42999 00000 10092 20077 38026 48520 58012=
38836 42699 20000 10188 20159 39173 40057 58004 82900=
38838 00502 10258 20123 39417 40035 58004 81030=
38844 42998 22702 10192 20045 48450 56002 82030=
38846 NIL=
38847 42899 60000 10233 20111 40055 58002 86400=
38932 NIL=
38933 42998 10000 10220 20151 39563 40043 54000 80002=
38944 42998 20204 10230 20100 39493 49992 52007 82030=
38954 42999 20000 10134 20086 37927 48500 52006 80001=
####018001637####
SMRS10 RUMS 100000
AAXX 10001
26997 41950 20101 10185 20174 39971 40179 52004 71011 80001=
27595 32997 00000 10239 20149 30021 40158 52005=
27612 419// 20000 10208 20194 30000 40182 58002 71011 80001=
27707 42961 03602 10205 20186 39906 40182 53003=
27719 42997 20000 10201 20177 39945 40181 51001 82030=
27786 42797 20000 10188 20145 30014 40166 52002 82500=
27857 42997 20000 10162 20145 30018 40172 52004 80001=
27906 42997 53302 10198 20184 39937 40165 58003 80001=
27928 42997 50000 10204 20169 39968 40163 52004 80001=
27947 42997 33502 10183 20139 30018 40169 53002 82032=
27962 42997 00000 10154 20125 39964 40174 52005=
27983 42998 02301 10195 20141 30040 40161 52002=
27995 42998 02501 10188 20131 40158 52004=
28506 42997 20000 10206 20140 30045 40151 52002 80001=
28704 42998 22701 10169 20143 30069 40160 52005 82030=
28711 42998 00000 10192 20122 39806 40157 52003=
28807 42997 03402 10180 20128 30108 40156 52004=
34009 42997 70202 10226 20159 39869 40153 58003 80009=
34110 42997 20901 10208 20154 39887 40148 58001 80001=
34123 42997 30302 10222 22046 39980 40152 59001 83030=
34152 42684 20602 10228 20127 39971 40153 52004 82500=
34163 42998 21301 10203 20131 40160 52003 333 82001=
34172 42960 43402 10226 20141 39977 40156 53002 82031=
34186 42980 10503 10221 20088 30024 40152 52002 80001=
34247 42868 60701 10242 20103 30030 40136 52003 86070=
34336 42598 80202 10245 20173 30033 40129 52001 883//=
34391 42997 10502 10213 20092 30110 40139 52003 80001=
35011 42999 00000 10196 20104 30007 40151 52008=
35121 42998 03302 10190 20091 30004 40141 52005=
####018003432####
SMKZ01 UAAA 100000
AAXX 10001
28679 42697 83201 10121 20096 39937 40098 53002 889// 555   10014=
28766 42597 80502 10126 20090 39928 40108 53003 885// 555   10012=
28867 42498 50000 10095 20027 39858 40118 58004 85500 555   10005=
28879 42797 83303 10122 20061 39827 40099 53005 885// 555   10013=
28952 42599 70000 10162 20064 39940 40120 52003 87900 555   1/016=
28966 42598 50000 10088 20035 39838 40110 52010 83330 555   10006=
29802 41496 82801 10112 20102 39909 40044 58006 71022 85531 555  
11012=
29807 42597 63301 10126 20070 39936 40047 57002 86500 555   10012=
34691 NIL=
35067 42598 40000 10120 20038 39851 40113 52007 82530 555   10010=
35078 42598 83405 10127 20055 39742 40100 52007 87500 555   10014=
35085 42598 73303 10113 20074 39633 40083 53006 87500 555   10011=
35108 42997 00000 10176 20107 30101 40144 52004=
35188 42598 70303 10129 20065 39668 40077 52006 87500 555   10014=
35217 42997 00602 10217 20040 30101 40138 52009 555   10019=
35229 42997 02301 10162 20062 39871 40128 53001 555   10015=
35302 429// 00503 10219 20066 30115 40133 52005 555   10020=
35357 42997 42901 10113 20019 39662 40074 53007 84500 555   10010=
35394 42698 72202 10116 20045 39419 40057 57010 86501 555   10012=
35406 429// 00602 10248 20086 30114 40116 52003 555   10022=
35416 42997 03402 10217 20009 30022 40134 52006 555   10019=
35426 42999 00000 10181 20021 39858 40131 52001 555   10016=
35497 42998 10000 10061 20032 39619 40089 57007 81040 555   10003=
35532 42998 00601 10198 20062 39671 40128 58005 555   10017=
35671 42998 30000 10110 20014 39694 40103 54000 80001 555   10009=
35700 NIL=
35746 42998 33503 10201 20032 30035 40110 52005 80001 555   10017=
35796 42999 20206 10147 20037 39651 40057 52011 80003 555   10014=
35849 42998 00201 10180 20078 30031 40110 52004 555   10013=
35925 429// 20903 10252 21007 39982 40050 52002 80002=
35953 42998 20404 10190 20002 39973 40093 52006 80001 555   10016=
35969 42997 00201 10170 20002 39937 40100 52013 555   10016=
36003 41598 72801 10125 20108 39897 40041 57006 70382 86950 555  
10012=
36152 42598 72902 10125 20067 39870 40046 57006 86502 555   10012=
36177 42597 73002 10134 20082 39821 40051 57005 82331 555   10012=
36208 42699 50501 10087 20081 39120 40046 57009 82343 555   12010=
36397 41699 83101 10108 20096 39516 40044 53005 78182 883// 555  
12013=
36428 42699 70000 10146 20113 39559 40022 56004 86931 333   95000
555   10016=
36535 41599 60000 10143 20108 39441 40025 57006 70282 86300 555  
11014=
36639 41599 80000 10158 20144 39461 40018 57009 72598 889// 555  
11015=
36821 42599 23001 10176 20146 39569 40019 52013 81932 333   91110=
36859 41496 80000 10189 20158 39354 40074 53013 78098 8697/ 333  
91118 555   12019=
36864 NIL=
36870 41597 82202 10264 20077 39095 40005 58018 70282 8693/ 333  
91109 555   10022=
38001 42997 40502 10298 20212 30134 40107 54000 84030 555   10026=
38062 42999 00303 10196 20048 39933 40085 52011 555   10016=
38069 42998 00802 10219 20017 39884 40060 52003=
38196 NIL=
38198 NIL=
38222 42998 80000 10190 20147 39516 40031 57001 8807/ 555   11017=
38232 42998 03203 10280 20029 39980 40070 52004 555   10024=
38328 NIL=
38334 NIL=
38341 41598 70000 10215 20102 39327 40050 58006 72292 85970 555  
10020 91117=
38343 42698 60000 10222 20094 39261 40033 53005 83930=
38439 NIL=
####018000453####
SMPA01 KWBC 100000 RRA
AAXX 10004
91165 12566 20514 10289 20183 30152 40184 58013 69901 92353 555
91000=
91182 12566 40511 10294 20178 30167 40172 56015 69901 92353 333
10294 20228 91019 555 91000=
91190 32666 40520 10300 20167 30151 40172 56018 92354 333 10300
20217 91028 555 91000=
91212 31566 81110 10300 20250 31398 761// 90009 555 91000=
91285 12566 60608 10272 20183 30161 40174 58013 69931 92353 333
10278 20206 555 91000=
####018000161####
SMJM01 MKJS 090000
AAXX 09004
78388 111570 71902 10266 20233 30128 40137 60131 70198 81963
333 06099 10333 20242 58013 81924 86072 90941=
DUPE
DUPE
DUPE
####018000160####
SMJM01 MKJS 090000
AAXX 09004
78388 11570 71902 10266 20233 30128 40137 60131 70198 81963
333 06099 10333 20242 58013 81924 86072 90941=
DUPE
DUPE
DUPE
####018000099####
SMPA20 KWBC 100000 RRA
AAXX 10004
91245 31566 40715 10320 20240 30167 716// 92357 555 91000=
####018001162####
SMUS70 KWBC 100000 RRB
AAXX 10004
072791 NIL=
72384 NIL=
72677 NIL=
72683 NIL=
72681 NIL=
72570 NIL=
72314 NIL=
72605 NIL=
72405 NIL=
72387 NIL=
72486 NIL=
72693 NIL=
72389 NIL=
72779 NIL=
72375 NIL=
072785 NIL=
72768 NIL=
72775 NIL=
72772 NIL=
72777 NIL=
72370 NIL=
072374 NIL=
72767 NIL=
72386 NIL=
72295 NIL=
72297 NIL=
072783 NIL=
72334 NIL=
72597 NIL=
072773 NIL=
72792 NIL=
72487 NIL=
72688 NIL=
72698 NIL=
72371 NIL=
72408 NIL=
72278 NIL=
72578 NIL=
72591 NIL=
72488 NIL=
72290 NIL=
72492 NIL=
72383 NIL=
72793 NIL=
72494 NIL=
72572 NIL=
72694 NIL=
72394 NIL=
72274 NIL=
72797 NIL=
72583 NIL=
72781 NIL=
72280 NIL=
70219 NIL=
70267 NIL=
70026 NIL=
70174 NIL=
70316 NIL=
70454 NIL=
70321 NIL=
70350 NIL=
70261 NIL=
70271 NIL=
070340 NIL=
70381 NIL=
70326 NIL=
70231 NIL=
70343 NIL=
70273 NIL=
70232 NIL=
70260 NIL=
70200 NIL=
70133 NIL=
70333 NIL=
70414 NIL=
70251 NIL=
70361 NIL=
70194 NIL=
91217 NIL=
91212 NIL=
91165 NIL=
91182 NIL=
91190 NIL=
91285 NIL=
91376 NIL=
91245 NIL=
####018000113####
SMVD15 KWNB 100000 RRI
BBXX
42021 10001 99283 70833 46/// /2902 10299 40135 92340 22200 00303
333 91203=
####018000194####
SMVD15 KWNB 091800 RRX
BBXX
42047 09181 99279 70936 46/// /1204 1//// 40166 91830 22200 00291
333 91204=
42047 09181 99279 70936 46/// /1403 1//// 40168 91800 22200 00290
333 91204=
####018003667####
SMUS01 KWBC 100000 RRA
AAXX 10004
72201 32966 02105 10300 20239 30149 40154 53006 92353 333 10311
20250 555 91000=
72202 32566 61306 10300 20250 30139 40149 53006 92353 333 10333
20256 555 91000=
72203 32566 41409 10294 20248 30138 40145 53003 92353 333 10322
20239 555 91000=
72205 32566 60109 10294 20211 30107 40140 53003 92353 333 10350
20217 555 91000=
72206 32966 22208 10328 20200 30116 40126 53005 92356 333 10378
20228 555 91000=
72207 32962 42207 10339 20206 30088 40104 53002 92353 333 10378
20250 555 91000=
72208 32962 01806 10300 20222 30089 40105 55002 92356 333 10339
20233 555 91000=
72211 32766 22807 10306 20206 30129 40142 55003 92353 333 10333
20244 555 91000=
72212 35/// /2305 10289 20217 30131 40143 53003 92353 333 10339
20233 555 91000=
72214 32866 21906 10311 20233 30112 40131 53008 92353 333 10378
20217 555 91000=
72217 12966 02203 10317 20233 39988 40111 53001 60051 92353 333
10378 20217 555 91000=
72218 32964 02704 10344 20167 30045 40094 53001 92353 333 10394
20217 555 91000=
72219 12666 82603 10311 20217 39759 40118 55003 69981 92352 333
10356 20244 555 91000=
72220 35966 02407 10294 20233 30132 40138 55002 92353 555 91000=
72223 12866 62904 10278 20228 30072 40148 53012 60111 92356 333
10344 20239 555 91000=
72226 11766 6//05 10289 20206 30063 40137 53019 69901 795// 92353
333 10378 20239 91020 555 91000=
72231 32666 62007 10306 20233 30139 40148 53003 92353 333 10333
20244 555 91000=
72234 12866 42003 10311 20256 30032 40136 53004 69951 92358 333
10356 20222 555 91000=
72235 12866 23307 10300 20217 30042 40144 53005 69901 92354 333
10356 20233 555 91000=
72240 32966 02004 10322 20217 30141 40153 55005 92353 333 10339
20250 555 91000=
72243 32666 41209 10317 20217 30102 40144 56012 92353 333 10328
20244 555 91000=
72248 11640 80218 10267 20233 30063 40155 53011 60051 92356 333
10344 20250 91024 555 91000=
72250 32566 41212 10300 20244 30115 40122 55005 92353 333 10317
20261 555 91000=
72251 12466 61312 10300 20244 30109 40127 55011 69901 92351 333
10322 20256 91016 555 91000=
72253 11566 60904 10267 20228 39863 40133 55007 69901 761// 92353
333 10317 20239 555 91000=
72254 15566 21107 10289 20233 39930 40141 58010 69951 92351 333
10317 20239 555 91000=
72255 12962 01210 10294 20256 30101 40138 58011 60141 92351 333
10317 20244 555 91000=
72256 12966 60000 10261 20228 39982 40155 57001 69901 92351 333
10322 20244 555 91000=
72259 11456 83005 10239 20228 39964 40165 51009 60081 763// 92353
333 10300 20239 555 91000=
72261 15966 01209 10278 20228 39765 40120 56005 60041 92353 333
10278 20239 91017 555 91000=
72263 11466 80000 10256 20233 39495 40154 53003 60021 761// 92351
333 10306 20233 555 91000=
72265 12966 60808 10261 20206 39177 40142 56011 60021 92353 333
10267 20211 555 91000=
72266 12566 21604 10283 20211 39532 40150 56011 69901 92352 333
10283 20222 555 91000=
72267 32566 60412 10244 20189 39060 40159 56006 92353 333 10272
20194 555 91000=
72268 32766 61209 10283 20167 38923 40134 57014 92351 333 10294
20206 555 91000=
72270 12866 63204 10300 20144 38813 40102 56019 69901 92351 333
10311 20211 555 91000=
72271 35866 20000 10317 20111 38534 40096 57020 92353 333 10322
20194 555 91000=
72274 32966 02813 10372 20117 39207 40055 56012 92353 333 10406
20306 91018 555 91000=
72278 32966 62504 10422 20100 39666 40036 56019 92351 333 10444
20339 555 91000=
72290 32466 82905 10183 20139 30117 40130 56007 92351 333 10183
20161 555 91000=
72295 32466 82711 10172 20128 30066 40120 56012 92353 333 10194
20156 555 91000=
####018002586####
SMUS02 KWBC 100000 RRA
AAXX 10004
72302 35966 02105 10283 20211 3//// 40108 53003 92353 333 10344
20233 555 91000=
72308 32566 40805 10272 20217 30084 40102 53001 92351 333 10311
20244 555 91000=
72310 11959 61304 10311 20239 30011 40094 55002 69951 705// 92356
333 10378 20239 555 91000=
72311 32964 03103 10283 20183 39839 40121 53011 92351 333 10378
20228 555 91000=
72312 12666 82807 10283 20189 39786 40112 69901 92353 333 10372
20250 91021 555 91000=
72314 31758 80000 10311 20189 39847 40098 55003 795// 92352 333
10361 20244 96005 555 91000=
72317 11759 23106 10294 20217 39796 40108 53008 69901 705// 92354
333 10344 20228 555 91000=
72323 11766 60000 10250 20222 39921 40140 50012 69901 761// 92353
333 10356 20233 555 91000=
72324 12566 62803 10256 20222 39895 40136 53008 60021 92353 333
10361 20239 555 91000=
72326 11458 80603 10244 20228 39781 40126 50000 60041 761// 92353
333 10333 20228 96010 555 91000=
72327 12666 63309 10272 20211 39892 40135 53006 69901 92353 333
10322 20250 555 91000=
72334 11466 82105 10250 20233 30045 40144 51005 60011 795// 92353
333 10333 20250 555 91000=
72344 12966 62304 10278 20233 39995 40155 56010 69901 92353 333
10283 20239 555 91000=
72351 11566 81903 10250 20217 39810 40162 58006 69901 761// 92352
333 10256 20228 555 91000=
72353 32566 61704 10250 20222 39714 40162 58005 92352 333 10306
20228 555 91000=
72356 32566 40000 10278 20222 39915 40155 58008 92353 333 10294
20228 555 91000=
72360 35966 01308 10267 20139 38525 40168 56015 92355 333 10267
20161 91016 555 91000=
72363 32666 60909 10261 20161 38959 40166 56014 92353 333 10267
20178 555 91000=
72365 32966 41313 10317 20083 38403 40118 58018 92356 333 10317
20183 91018 555 91000=
72370 15966 03006 10378 20056 38958 40060 58014 69901 92348 333
10389 20206 555 91000=
72371 15966 01010 10311 20078 38693 40100 56014 69901 92353 333
10350 20250 555 91000=
72374 15966 01705 10283 20100 38524 40121 58017 69931 92356 333
10339 20206 555 91000=
72376 32966 03613 10289 20061 38333 40156 55005 92353 333 10328
20167 91024 555 91000=
72384 32966 03010 10367 20128 39908 40081 56016 92354 333 10367
20222 555 91000=
72386 12966 41909 10406 20039 39346 40050 56019 69901 92356 333
10411 20294 91019 555 91000=
72387 35966 02309 10361 20006 38983 40081 56011 92355 333 10389
20239 91022 555 91000=
72389 32866 22906 10367 20122 39967 40087 57017 92353 333 10372
20200 555 91000=
72394 32966 03012 10167 20111 30043 40135 56007 92351 333 10194
20117 555 91000=
####018000899####
SMUS71 KWBC 100000 RRB
AAXX 10004
72659 NIL=
72548 NIL=
72462 NIL=
72639 NIL=
72566 NIL=
72480 NIL=
72764 NIL=
72428 NIL=
72458 NIL=
72445 NIL=
72569 NIL=
72421 NIL=
72564 NIL=
72429 NIL=
72547 NIL=
72451 NIL=
72565 NIL=
72745 NIL=
72546 NIL=
72537 NIL=
72432 NIL=
72753 NIL=
72637 NIL=
72651 NIL=
72533 NIL=
72476 NIL=
72465 NIL=
72645 NIL=
72552 NIL=
72635 NIL=
72654 NIL=
72638 NIL=
72425 NIL=
72450 NIL=
072438 NIL=
72747 NIL=
72539 NIL=
72562 NIL=
72422 NIL=
72551 NIL=
72446 NIL=
72640 NIL=
72636 NIL=
72544 NIL=
72641 NIL=
72658 NIL=
72556 NIL=
72550 NIL=
72530 NIL=
72435 NIL=
72532 NIL=
72464 NIL=
72662 NIL=
72592 NIL=
72543 NIL=
72672 NIL=
72644 NIL=
72535 NIL=
72423 NIL=
72440 NIL=
72666 NIL=
0072434 NIL=
72557 NIL=
72536 NIL=
72456 NIL=
72567 NIL=
####018000129####
SMUS03 KWBC 100000 CCA
AAXX 10004
72401 12666 61306 10289 20194 30035 40098 55000 69901 92354 333
10339 20222 555 91000=
####018002672####
SMUS03 KWBC 100000 RRA
AAXX 10004
72403 32766 61609 10289 20206 39983 40091 53001 92352 333 10328
20233 555 91000=
72407 32466 21505 10261 20217 30073 40113 55004 92354 333 10311
20217 555 91000=
72408 12666 62006 10289 20200 30083 40104 55002 69901 92354 333
10328 20233 555 91000=
72411 11858 60000 10244 20217 39701 40115 55007 60481 705// 92354
333 20217 555 91000=
72412 17556 42504 10239 20194 39260 40108 55007 69901 704// 92351
333 10283 20178 555 91000=
72414 11359 63106 10233 20211 39756 40112 55001 60091 710// 92354
333 10294 20211 555 91000=
72417 17216 8//03 10217 20206 39431 40126 50004 60041 763// 92351
333 10317 20161 96010 555 91000=
72421 32566 63308 10278 20206 39813 40121 53002 92352 333 10289
20228 555 91000=
72422 11666 60000 10222 20189 39786 40132 53007 60021 761// 92354
333 10272 20217 555 91000=
72428 12466 63606 10239 20222 39835 40122 53007 60151 92351 333
10272 20211 555 91000=
72432 12966 00000 10283 20211 39999 40136 55003 69931 92354 333
10306 20239 555 91000=
72434 32666 43609 10283 20194 39955 40148 53001 92351 333 10306
20228 555 91000=
72435 12566 80505 10283 20222 39994 40130 55006 69901 92353 333
10300 20228 555 91000=
72438 32666 60107 10278 20189 39848 40128 55000 92354 333 10300
20233 555 91000=
72440 35666 43410 10278 20194 39709 40157 55003 92352 333 10294
20217 555 91000=
72445 32966 00404 10272 20178 39850 40165 55004 92354 333 10289
20222 555 91000=
72446 32766 40204 10289 20161 39802 40171 56010 92353 333 10294
20189 555 91000=
72450 32766 20204 10294 20172 39700 40169 56011 92353 333 10300
20206 555 91000=
72451 35766 21206 10283 20167 39276 40165 56014 92352 333 10294
20161 555 91000=
72456 32966 00404 10289 20172 39863 40173 56009 92353 555 91000=
72458 35966 00000 10289 20133 39661 40175 58014 92355 333 10294
20167 555 91000=
72462 35966 02418 10228 20061 37761 40183 58009 92352 333 10278
20061 91026 555 91000=
72464 32966 01408 10283 20111 38609 40158 58009 92353 333 10289
20111 555 91000=
72465 35966 02110 10283 20133 38927 40163 56016 92353 333 10289
20150 555 91000=
72476 32966 03006 10322 20050 38555 40118 56016 92353 333 10333
20150 555 91000=
72480 35966 03206 10372 21039 38724 40088 58015 92356 333 10378
20122 555 91000=
72486 35966 01813 10300 21006 38113 40108 56008 92353 333 10311
20106 91017 555 91000=
72488 32966 42816 10322 20000 38656 40112 58003 92355 333 10333
20178 91022 555 91000=
72492 32966 02907 10333 20139 30082 40094 56019 92355 333 10333
20144 555 91000=
72494 32466 22921 10178 20106 30100 40132 56011 92356 333 10194
20128 555 91000=
####018000095####
SMVD20 KWNB 100000 RRF
BBXX
42085 10001 99179 70665 46/// ///// 1//// 90000 22200 00295=
####018000200####
SNVD15 KWNB 092300 RRX
BBXX
42021 09231 99283 70833 46/// /2902 10299 40135 92320 22200 00303
333 91202=
42021 09231 99283 70833 46/// /2601 10300 40136 56011 92300 22200
00301 333 91202=
####018002842####
SMUS04 KWBC 100000 RRA
AAXX 10004
72503 32566 61612 10278 20211 30095 40108 55003 92351 333 10322
20250 91019 555 91000=
72508 12666 41709 10272 20206 30036 40108 53002 69901 92351 333
10328 20222 555 91000=
72509 32766 61811 10278 20200 30107 40115 55002 92354 333 10328
20228 555 91000=
72514 32866 62510 10294 20178 39893 40084 53002 92354 333 10328
20244 555 91000=
72515 32764 62304 10267 20183 39535 40099 55002 92353 333 10289
20211 555 91000=
72518 32766 61709 10300 20189 39981 40086 56004 92351 333 10328
20228 91017 555 91000=
72519 11240 82906 10211 20206 39953 40098 51022 60101 795// 92354
333 10322 20211 96010 555 91000=
72520 11261 83204 10211 20200 39697 40116 55002 60411 761// 92351
333 10306 20206 555 91000=
72524 12566 60109 10239 20178 39855 40130 53004 69931 8/570 92351
333 10261 20228 555 91000=
72526 12666 20000 10233 20200 39858 40118 53004 60021 92351 333
10261 20222 555 91000=
72528 12366 60000 10217 20200 39848 40111 51008 60091 92354 333
10272 20211 555 91000=
72530 32866 40606 10283 20128 39907 40141 55005 92351 333 10311
20233 555 91000=
72532 32966 03504 10283 20161 39914 40155 55003 92354 333 10294
20217 555 91000=
72533 32766 63505 10272 20194 39844 40133 53003 92354 333 10300
20222 555 91000=
72537 32966 60103 10261 20122 39900 40128 55002 92353 333 10283
20228 555 91000=
72546 32766 23403 10300 20139 39822 40164 56009 92354 333 10311
20194 555 91000=
72547 32966 03004 10272 20161 39782 40161 56009 92353 333 10289
20172 555 91000=
72552 32966 01604 10272 20117 39533 40181 56015 92353 333 10289
20139 555 91000=
72556 35966 01906 10278 20133 39631 40174 56013 92356 333 10289
20139 555 91000=
72557 32966 02204 10283 20150 39771 40167 56013 92352 333 10300
20133 555 91000=
72562 35966 01506 10267 20161 39211 40172 56015 92353 333 10278
20122 555 91000=
72564 12966 21809 10194 20083 38182 40191 58002 60281 92353 333
10244 20078 555 91000=
72565 32866 60607 10272 20078 38395 40162 55005 92353 333 10278
20117 555 91000=
72567 35966 22307 10294 20122 39261 40157 56016 92352 333 10306
20150 555 91000=
72569 32966 02208 10294 20017 38385 40141 56016 92353 333 10306
20056 555 91000=
72570 35966 22114 10256 20050 38146 40177 55007 92353 333 10300
20050 91027 555 91000=
72572 12866 4//04 10322 20039 38718 40118 56024 69901 92353 333
10328 20200 555 91000=
72578 12866 42421 10267 20061 38653 40151 55014 69901 92353 333
10306 20089 91024 555 91000=
72583 35966 02908 10339 21039 38681 40102 56013 92356 333 10344
20183 555 91000=
72591 35966 01613 10339 20178 39967 40086 56011 92354 333 10356
20211 555 91000=
72594 35966 02607 10139 20111 30117 40142 50001 92353 333 10150
20106 555 91000=
72597 32966 02810 10378 20117 39649 40100 56017 92353 555 91000=
####018000572####
SMUS72 KWBC 100000 RRA
AAXX 10004
72517 NIL=
72407 NIL=
72311 NIL=
72518 NIL=
72315 NIL=
72513 NIL=
72508 NIL=
72504 NIL=
72515 NIL=
72412 NIL=
72509 NIL=
72617 NIL=
72528 NIL=
72406 NIL=
72310 NIL=
72521 NIL=
72712 NIL=
72524 NIL=
72414 NIL=
72417 NIL=
72526 NIL=
72502 NIL=
72317 NIL=
72312 NIL=
072323 NIL=
72403 NIL=
72514 NIL=
74486 NIL=
72503 NIL=
72308 NIL=
72408 NIL=
72520 NIL=
72507 NIL=
72606 NIL=
72306 NIL=
72401 NIL=
72411 NIL=
72529 NIL=
72519 NIL=
72402 NIL=
72525 NIL=
####018000040####
SMBZ05 SBBR 100000
AAXX 10004
NIL
####018000040####
SMBZ01 SBBR 100000
AAXX 10004
NIL
####018001394####
SMBZ06 SBBR 100000
AAXX 10004
82022 21558 70608 10254 20229 30024 40121 71562 85230 333
10315 58007 69901=
82193 NIL=
82281 NIL=
82332 32470 11002 10284 20244 30012 40104 81100 333 10324
59003=
82398 32470 51016  10265 20230 30112 40141   85500 333
10299 58001=
82400 NIL=
82579 32570 50802 10295 20233 30030 40107 85500 333 10363
59017=
82917 32670 11604 10266 20230 39884 40104 81200 333 10343
58005=
82965 32970 12105 10247 20173 39791 40114 81030 333 10342
58003=
82993 31458 41003 10224 20205 30031 40169 71000 84800
333 10271
58000=
83208 32970 01604 10235 20167 39446 48580 333 10319 58010=
83349 32570 22603  10227 20214 30176 40182   82100 333 102
67 59001=
83362 NIL=
83378 32970 01107 10218 20085 38996 48560 333 10271 58003=
83497 NIL=
83566 NIL=
83612 32970 30000 10212 20102 39529 48560 53017 83030 333
10289=
83649 32470 61112 10228 20211 30199 40204 52013 84530 333
10280=
83650 31/91 /1512 10220 20175 40248 52010 7001/ 8////

222// 02240 80190 333 10250=
83780 31350 71506 10171 20150 39299 48580 52017 71011
87700 333 10242=
83818 NIL=
83827 21566 71504  10152 20140 39917 4//// 51004 71062
82120 333 10178  60041=
83840 31160 70906 10144 20126 39183 48570 51021 71011
87600 333 10221=
83899 21558 72203 10180 20162 30216 4//// 51019 76062
85550 333 10226 69921=
83970 NIL=
83971 NIL=
####018000040####
SMBZ04 SBBR 100000
AAXX 10004
NIL
####018000040####
SMBZ03 SBBR 100000
AAXX 10004
NIL
####018000040####
SMBZ02 SBBR 100000
AAXX 10004
NIL
####018002078####
SMUS05 KWBC 100000 RRA
AAXX 10004
72606 32966 21812 10228 20206 30097 40115 56008 92351 333 10278
20194 91020 555 91000=
72617 12966 81504 10278 20217 39952 40075 56007 69901 92354 333
10317 20244 555 91000=
72635 32766 23308 10278 20139 39858 40136 55000 92353 333 10294
20222 555 91000=
72636 32766 23107 10278 20139 39914 40139 55003 92355 333 10300
20217 555 91000=
72637 35966 02903 10278 20133 39858 40128 55004 92353 333 10289
20222 555 91000=
72638 35966 03307 10261 20139 39727 40137 55003 92353 333 10289
20189 555 91000=
72639 35966 0//03 10267 20122 39879 40127 55000 92354 333 10294
20172 555 91000=
72640 32766 43305 10283 20122 39900 40140 56007 92352 333 10289
20217 555 91000=
72641 32766 23105 10278 20156 39839 40144 56010 92353 333 10289
20172 555 91000=
72644 32966 02607 10272 20156 39686 40157 56012 92354 333 10283
20156 555 91000=
72645 32966 02606 10267 20156 39891 40132 56010 92353 555 91000=
72651 32866 42205 10283 20139 39654 40159 56012 92356 333 10294
20150 555 91000=
72654 35966 22406 10289 20117 39688 40141 56015 92355 333 10317
20167 555 91000=
72658 32766 23008 10289 20139 39834 40142 56009 92353 333 10306
20194 555 91000=
72659 35966 01807 10294 20139 39670 40136 56019 92353 333 10311
20144 555 91000=
72662 32966 01610 10283 20111 39056 40143 56014 92352 333 10300
20100 555 91000=
72666 35966 00403 10300 20100 38802 40138 56018 92353 333 10300
20083 555 91000=
72677 32966 21007 10317 20044 38903 40114 56021 92353 333 10322
20150 555 91000=
72681 32966 02811 10339 20017 39124 40100 56018 92353 333 10356
20183 555 91000=
72683 35966 03007 10317 20006 38739 40133 58012 92353 333 10328
20083 555 91000=
72688 32966 03214 10367 20056 39571 40087 58018 92353 333 10372
20167 91019 555 91000=
72693 32866 20210 10344 20122 39992 40127 56009 92354 333 10350
20156 555 91000=
72694 32866 23408 10350 20111 30051 40120 56010 92356 333 10356
20167 555 91000=
72698 32866 23210 10344 20106 30113 40120 56011 92353 333 10344
20178 555 91000=
####018000727####
SMUS73 KWBC 100000 RRB
AAXX 10004
72220 NIL=
72266 NIL=
72365 NIL=
72256 NIL=
72218 NIL=
72363 NIL=
72219 NIL=
72254 NIL=
72327 NIL=
72241 NIL=
72250 NIL=
72360 NIL=
72324 NIL=
72208 NIL=
72251 NIL=
72212 NIL=
72259 NIL=
72261 NIL=
72270 NIL=
72201 NIL=
72344 NIL=
72243 NIL=
72235 NIL=
72206 NIL=
74740 NIL=
72267 NIL=
72240 NIL=
72265 NIL=
72217 NIL=
72205 NIL=
72234 NIL=
72226 NIL=
72202 NIL=
72223 NIL=
72231 NIL=
72353 NIL=
72203 NIL=
72320 NIL=
72268 NIL=
72253 NIL=
72207 NIL=
72248 NIL=
72263 NIL=
72351 NIL=
72271 NIL=
72214 NIL=
72211 NIL=
72356 NIL=
72332 NIL=
72326 NIL=
72255 NIL=
78543 NIL=
78526 NIL=
####018000208####
SMUS22 KWBC 100000 RRA
AAXX 10004
72241 35966 01805 10306 20211 30139 40146 56010 92353 333 10322
20244 555 91000=
72297 32466 22807 10233 20139 30103 40112 56012 92353 333 10244
20161 555 91000=
####018001064####
SMUS06 KWBC 100000 RRA
AAXX 10004
72712 35966 01907 10261 20200 39864 40090 55014 92354 333 10306
20206 91014 555 91000=
72745 32766 22809 10244 20106 39633 40143 56010 92355 333 10267
20139 555 91000=
72747 35766 42506 10250 20139 39707 40132 56011 92355 333 10267
20083 555 91000=
72753 32866 42706 10300 20122 39807 40131 56018 92353 333 10306
20133 555 91000=
72764 32966 02906 10300 20094 39555 40139 56017 92352 333 10311
20111 555 91000=
72767 32966 02206 10311 20100 39458 40124 56015 92352 333 10322
20106 555 91000=
72768 35966 02803 10328 20044 39320 40111 56019 92353 333 10328
20122 555 91000=
72772 32966 01407 10311 20050 38788 40115 56021 92353 333 10322
20106 555 91000=
72776 32966 00911 10311 20083 38858 40103 56021 92353 333 10317
20094 555 91000=
72777 35966 01103 10317 20044 39212 40107 58022 92353 333 10322
20083 555 91000=
72781 32866 2//03 10372 20050 39716 40088 58018 92353 333 10383
20139 555 91000=
72793 32966 43307 10333 20094 39976 40142 57009 92353 333 10339
20172 555 91000=
####018000578####
SMUS23 KWBC 100000 RRA
AAXX 10004
72306 32762 62604 10306 20206 39950 40099 55001 92351 333 10350
20222 555 91000=
72315 11964 23505 10228 20200 39381 40135 53010 69901 761// 92354
333 10317 20189 555 91000=
72320 15966 00507 10261 20217 39909 40129 51024 69901 92353 333
10367 20217 555 91000=
72332 15966 00105 10283 20244 30016 40139 55009 60051 92353 333
10356 20244 555 91000=
72375 12966 0//03 10233 20089 37922 40155 69931 92356 333 10278
20139 555 91000=
72383 35966 02114 10300 21011 38631 40125 58006 92352 333 10328
20172 91019 555 91000=
####018000651####
SMUS24 KWBC 100000 RRA
AAXX 10004
72402 35466 41605 10250 20222 30091 40104 55002 92354 333 10300
20239 555 91000=
72405 32666 61507 10300 20189 30073 40095 53001 92352 333 10339
20244 555 91000=
72406 32766 61406 10289 20200 30024 40093 55004 92354 333 10339
20228 555 91000=
72423 12666 63408 10289 20206 39961 40129 53006 69901 92356 333
10306 20244 555 91000=
72425 12466 60000 10250 20211 39824 40116 55002 69951 92351 333
10272 20222 555 91000=
72429 32666 60705 10256 20211 39777 40130 53006 92356 333 10289
20222 555 91000=
72486 35966 01813 10300 21006 38113 40108 56008 92353 333 10311
20106 91017 555 91000=
####018001349####
SMUS25 KWBC 100000 RRA
AAXX 10004
72502 32466 61512 10267 20239 30099 40109 55004 92351 333 10306
20239 555 91000=
72504 32966 01707 10267 20211 30103 40112 55005 92352 333 10294
20233 555 91000=
72507 32566 61507 10261 20228 30102 40121 55007 92351 333 10300
20222 555 91000=
72513 32766 82005 10272 20183 39761 40091 53004 92354 333 10322
20222 555 91000=
72521 12466 60105 10228 20200 39687 40123 53006 60121 8/530 92351
333 10256 20222 555 91000=
72529 11266 82604 10217 20206 39903 40110 53005 60251 761// 92354
333 10294 20206 555 91000=
72535 32966 03609 10256 20156 39867 40144 53001 92354 333 10289
20206 555 91000=
72536 12966 00206 10272 20128 39882 40128 53001 69901 92352 333
10300 20228 555 91000=
72539 12666 62903 10267 20172 39825 40132 55003 69901 92353 333
10289 20211 555 91000=
72543 32866 23307 10278 20144 39895 40153 55006 92354 333 10300
20194 555 91000=
72544 32966 03605 10283 20144 39939 40155 55006 92352 333 10306
20200 555 91000=
72548 32966 02504 10278 20178 39848 40159 56010 92354 333 10294
20156 555 91000=
72551 32966 02504 10272 20150 39754 40176 56012 92354 333 10294
20150 555 91000=
72566 35966 01207 10289 20089 38825 40155 56013 92353 333 10294
20133 555 91000=
72592 32966 01716 10361 20167 39897 40074 55005 92353 333 10394
20200 555 91000=
####018000123####
SMUS26 KWBC 100000 RRA
AAXX 10004
72605 35966 01808 10294 20178 39982 40101 56008 92351 333 10333
20194 555 91000=
####018000366####
SMUS27 KWBC 100000 RRA
AAXX 10004
72783 32966 03305 10361 20039 39594 40095 56020 92356 333 10372
20161 555 91000=
72785 32866 23405 10328 20039 39283 40114 58015 92353 333 10333
20167 555 91000=
72791 35966 02708 10206 20150 30158 40163 53000 92355 555 91000=
72792 12966 03404 10339 20144 30062 40132 58013 69931 92354 333
10339 20133 555 91000=
####018000167####
SMJM01 MKJS 090000
AAXX 09004
78388 111570 71902 10266 20233 30128 40137 60131 70198 81963
333 06099 10333 20242 58013 81924 86072 90941=
DUPE
DUPE
DUPE
####018000166####
SMJM01 MKJS 090000
AAXX 09004
78388 11570 71902 10266 20233 30128 40137 60131 70198 81963
333 06099 10333 20242 58013 81924 86072 90941=
DUPE
DUPE
DUPE
####018000374####
SMSY20 OSDI 100000
AAXX 10001
40009 32965 00000 10203 20148 40033 58002=
40016 NIL=
40022 32965 00000 10230 20204 40089 56002 222// 20000=
40030 32970 00000 10222 20135 40071 55000=
40039 32970 00000 10242 20115 40061 51004=
40066 32970 00000 10218 20190 40086 56001=
40072 32970 00000 10293 20129 40065 52013=
40083 32970 00000 10182 20047 48476 56002=
####018000529####
SMIQ01 ORBI 100020
AAXX 10001
40650 42960 00205 10346 20045 40028 57008=
40608 42960 03302 10292 20081 40055 56002=
40621 42960 00000 10340 20148 40058 58003=
40631 42960 00000 10335 20104 40051 54000=
40637 42960 00000 10330 20048 40048 57004=
40642 42960 00000 10288 20089 40029 51003=
40656 42960 03508 10350 20086 40007 57005=
40662 42960 03203 10336 20030 40001 57008=
40670 42960 03603 10348 20121 40014 55007=
40689 42960 01804 10316 20275 49995 57009=
40629 42960 00000 10282 20155 40065 52004=
####018010897####
SMMX01 MXBA 100000
AAXX 10001
76040 32960 01305 10421 20210 30051 40065 57005 92338 333   
10443 20208 30/// 51021 58013 70000 98660=
76055 32980 01108 10354 20148 30032 40051 57003 92335 333   
10355 20217 30/// 50811 58007 70000=
76056 06/// /1008 10359 20157 30028 41/// 56019 60001 7//// 
8//// 92350 333   0//// 10370 20251 30/// 4//// 50729 54/// 
56/// 57/// 58006 60007 70000 8//// 8//// 8//// 9//// 9/=
76061 32981 01401 10332 20130 30012 40081 56018 92340 333   
10362 20230 30/// 50901 58006 70000 90801=
76113 32980 01602 10430 20333 39607 40025 57004 92340 333   
10435 20255 30/// 51220 58007 70000=
76122 32570 31104 10326 20194 38521 40025 57017 82250 92350 
333   10350 20214 30/// 50931 56990 58001 70000 82830=
76225 32560 80703 10262 20166 38619 40059 57010 88400 92345 
333   10274 20212 30/// 50571 56500 58015 70002 88627=
76243 11273 71107 10292 20240 39849 40129 52001 60101 72062 
87600 92330 333   10302 20230 30/// 50541 56300 59004 70506 
87612=
76256 32580 12303 10350 20193 30041 40055 57042 81200 92345 
333   0/3// 10360 20275 30/// 51150 58009 70000 81820=
76258 32570 32210 10355 20206 30032 40074 57010 82300 92350 
333   06300 10375 20264 30/// 50830 59018 79999 82927 81617 
=
76305 32970 01604 10332 20187 30056 40063 57016 92345 333   
10365 20265 30/// 50781 58003 70000=
76323 32470 83602 10210 20172 38274 40133 57005 887// 92355 
333   10244 20192 30/// 50211 561// 58022 70027 88617=
76342 31562 70202 10272 20229 39431 40112 57002 70222 87270 
92355 333   10301 20214 31/// 50280 56350 59009 70623 82820 
83457 82357=
76382 32480 53604 10296 20200 38873 40061 57005 83410 92355 
333   10334 20210 30/// 50721 56770 58014 70000 83644 82456 
=
76383 06/// /3604 10297 20159 38873 40052 55004 60001 7//// 
8//// 92350 333   0//// 10334 20210 30/// 4//// 50549 54/// 
56/// 57/// 58014 60007 70000 8//// 8//// 8//// 9//// 9/=
76390 01565 70000 10196 20179 38223 40087 57010 60241 70554 
8257/ 92330 333   10251 20144 31/// 50201 5658/ 58006 60067 
70346 82628 85356=
76393 11550 61304 10300 20220 39542 40093 55004 69941 70541 
862// 92355 333   0/3// 10316 20228 30/// 50661 58002 70052 
82833 84635=
76402 31858 13204 10312 20160 30029 40084 57015 70744 81030 
92347 333   0/020 10342 20166 30/// 50101 58003 70000=
76413 06/// /2010 10315 20207 30061 40104 55006 60001 7//// 
8//// 92350 333   0//// 10328 20260 30/// 4//// 50479 54/// 
56/// 57/// 58014 60007 70000 8//// 8//// 8//// 9//// 9/=
76423 32580 81402 10212 20150 38134 40044 54000 86470 92358 
333   10300 20150 30/// 50560 56990 58010 70000 81820 85627 
82357=
76458 32570 72102 10285 20236 30091 40095 55001 86430 92345 
333   0/450 10320 20228 30/// 50551 58027 70060 86620 81358 
=
76490 06/// /1502 10306 20208 39730 40102 57007 60001 7//// 
8//// 92350 333   0//// 10313 20237 30/// 4//// 50349 54/// 
56/// 57/// 58023 60007 70032 8//// 8//// 8//// 9//// 9/=
76491 32560 41101 10286 20227 39747 40123 57006 84420 92350 
333   00990 10313 20235 30/// 50081 58025 70030 82830 82362 
=
76525 32580 70606 10175 20114 37460 40061 52003 83231 92340 
333   10192 20121 31/// 50131 56225 58012 70018 83825=
76538 06/// /1004 10200 20145 38146 40080 55009 69921 7//// 
8//// 92350 333   0//// 10247 20148 50349 56/// 57/// 58023 
60007 70016 8//// 8//// 8//// 8//// 9//// 9//// 9//// 44=
76539 31563 60902 10200 20163 38139 40087 57019 70544 86500 
92350 333   10255 20120 30/// 50181 56800 59016 70016 86723 
=
76544 06/// /0503 10288 20226 30077 40103 55007 60001 7//// 
8//// 92350 333   0//// 10308 20239 30/// 4//// 50299 54/// 
56/// 57/// 58029 60007 70268 8//// 8//// 8//// 9//// 9/=
76556 32470 72605 10228 20213 39079 40079 57010 87800 92330 
333   01700 10254 20193 31/// 50471 58012 70664 87813=
76577 01570 63601 10215 20167 38014 40051 58005 60021 70165 
86050 92340 333   10260 20165 32/// 50450 56010 58016 60027 
70015=
76578 06/// /3401 10219 20146 38013 40045 58005 60011 7//// 
8//// 92350 333   0//// 10269 20162 30/// 4//// 50329 54/// 
56/// 57/// 58019 60017 70012 8//// 8//// 8//// 9//// 9/=
76585 01570 71201 10260 20247 39953 40107 53020 60011 76066 
878// 92345 333   022// 10295 20230 32/// 50091 58020 60017 
70015 87830=
76592 06/// /0503 10242 21100 30128 40128 58019 60201 7//// 
8//// 92350 333   0//// 10304 20236 30/// 4//// 50759 54/// 
56/// 57/// 58024 60047 70202 8//// 8//// 8//// 8//// 9/=
76625 32550 80504 10226 20139 38106 40045 57010 80080 92330 
333   10248 20169 30/// 50040 56020 58010 70000 88360=
76632 01573 70206 10160 20143 37607 40043 52004 60021 75066 
87700 92340 333   10200 20132 32/// 50301 56100 58064 60027 
70035 87733=
76634 31430 80601 10166 20140 37840 40102 52002 71022 86520 
92345 333   10210 20134 30/// 50191 5630/ 58009 70000 86610 
=
76647 12865 80201 10269 20256 30104 40134 52001 69921 8802/ 
92350 333   0/0// 10332 20240 31/// 50301 58009 69927 70002 
88458=
76658 31560 81804 10273 20223 39599 40095 56012 70542 83570 
92346 333   00110 10294 20210 30/// 50043 58012 70176 83624 
85356 98914=
76662 32670 82403 10248 20163 38429 40066 57004 87400 92335 
333   10284 20160 31/// 50350 56/00 58010 70087 87633=
76665 01362 72001 10174 20153 38102 40069 52006 60011 75052 
87300 92345 333   10256 20140 32/// 50340 56100 57911 58019 
60017 70268 87908=
76666 06/61 /1601 10164 20158 38102 40068 52004 60021 7//// 
8//// 92350 333   10264 20141 31/// 5//// 56/// 57/// 58018 
60027 70333 8//// 8//// 8////=
76675 01560 83002 10145 20116 37364 40082 54003 60161 76096 
83950 92357 333   10178 20101 32/// 5//// 56990 58012 60027 
70663 84927 82627=
76680 31562 80000 10186 20112 37729 40052 55008 70544 86820 
92345 333   10200 20144 30/// 5//// 56550 58011 70209 84625 
=
76682 16/65 /3201 10181 20138 37728 40007 57006 60111 7//// 
8//// 92350 333   10521 2//// 30/// 5//// 56/// 57/// 58013 
70239 8//// 8//// 8////=
76683 32650 81201 10264 20154 37803 40102 54/// 60011 75022 
88770 92345 333   10207 20138 31/// 50200 56440 58013 70172 
86727=
76684 02/// ///// 1//// 2//// 3//// 4//// 5//// 6//// 7//// 
8//// 333   0//// 1//// 2//// 30/// 4//// 5//// 54/// 56/// 
57/// 5//// 6//// 7//// 8//// 8//// 8//// 8//// 9//// 9/=
76685 0150 81801 10160 20154 37852 40084 52003 60081 70266 8
87// 92355 333   10202 20138 32/// 50231 569// 58015 60087 7
0326 88727=
76687 31562 50701 10200 20156 38665 40117 50000 70222 85400 
92340 333   10250 20170 30/// 50170 563// 58026 70072 82824 
83622=
76692 01556 83601 10272 20254 30096 40115 57002 60041 76344 
8692/ 92350 333   0622/ 10297 20240 32/// 51221 58030 60047 
70266 84925 82640 82470=
76695 32360 71401 10267 20244 30106 40111 52005 60111 82420 
92345 333   0030/ 10343 20248 31/// 50430 58032 70117 82608 
85460=
76699 16/06 /0501 10262 20262 30155 40166 52001 60131 7//// 
8//// 92350 333   10319 2//// 30/// 5//// 56/// 57/// 58026 
7//// 8//// 8//// 8////=
76726 01168 80101 10178 20152 38373 40083 57006 60191 72152 
8872/ 92350 333   10200 20160 32/// 50120 5699/ 58018 60187 
70850 88603=
76727 06/// /1101 10178 20166 38376 40090 55005 60191 7//// 
8//// 92350 333   0//// 10212 20163 30/// 4//// 50229 54/// 
56/// 57/// 58021 60197 70848 8//// 8//// 8//// 9//// 9/=
76743 31956 70902 10300 20249 30086 40094 56008 70222 8706/ 
92345 333   0//0/ 10317 20249 30/// 50300 58010 70191 87357 
=
76762 31904 81601 10230 20194 38736 40084 56015 74122 8801/ 
92345 333   10242 20180 31/// 50161 56029 58031 70030 88660 
=
76773 32570 80000 10210 20157 38402 40076 57010 8437/ 92342 
333   10232 20164 31/// 50421 5629/ 58022 70054 84820 84358 
=
76775 31565 83302 10208 20150 38487 40081 57005 70365 82221 
92350 333   10248 20172 31/// 50171 56888 58018 70432 81924 
81824 84458=
76776 06/// /3402 10209 20146 38486 40090 55004 60001 7//// 
8//// 92350 333   0//// 10253 20169 30/// 4//// 50269 54/// 
56/// 57/// 58020 60007 70048 8//// 8//// 8//// 9//// 9/=
76805 32570 71801 10306 20259 30091 40097 57011 81235 92345 
333   05322 10348 20248 30/// 50591 57880 58004 79999 81820 
81358=
76839 36/65 /2701 10251 20244 30075 40130 52004 7//// 8//// 
92350 333   10325 20248 30/// 5//// 56/// 57/// 58014 70000 
8//// 8//// 8////=
76840 32540 70000 10284 20243 30044 40099 52002 82280 92335 
333   0/91/ 10335 20230 30/// 50821 58004 70000 82827 85358 
=
76843 32565 62502 10269 20221 39456 40083 54003 82236 92350 
333   017// 10312 20212 30/// 50270 58011 70020 82824=
76845 11458 70000 10184 20146 37919 40099 57007 60081 76262 
85720 92343 333   10218 20126 31/// 50171 56390 58004 70267 
85717 81458 81360=
76848 32970 70501 10210 20151 38362 40043 54000 85055 92350 
333   10232 20145 31/// 50261 56099 58005 70140 85360 82279 
=
76855 32580 52202 10296 20239 30043 40091 57012 82220 92340 
333   02990 10323 20240 30/// 50490 58009 70000 82820 83458 
92000=
76160 32862 32301 10406 20178 39824 40054 57013 82029 92334 
333   0/099 10430 20305 30/// 51330 58019 70000 82457=
76311 32580 81602 10362 20217 39782 40042 57013 887// 92355 
333   0/4// 10408 20244 30/// 50940 58007 70000 88720=
76405 32880 13304 10354 20200 30050 40071 57014 81030 92345 
333   0/050 10372 20236 30/// 50800 58008 70000 81357=
76412 31766 62005 10308 20222 30060 40103 57006 70544 86050 
92351 333   10330 20252 30/// 50460 56050 58021 70000 86356 
=
76471 01580 70000 10189 20152 37688 40040 52003 60011 70162 
875// 92350 333   10239 20125 30/// 50470 565// 58012 60017 
70005=
76543 11575 60704 10292 20247 30077 40110 57005 69901 70152 
82136 92345 333   02335 10297 20252 32/// 50081 58028 70307 
82834=
76548 32470 50701 10294 20268 30099 40109 56011 83139 92340 
333   00255 10300 20244 32/// 50221 58028 70041 83812=
76581 01570 80000 10235 20209 39023 40101 57014 60161 79166 
83720 92355 333   0/220 10241 20192 32/// 5//// 58019 69977 
70267 83721 84360=
76640 31458 51402 10298 20271 30119 40131 57006 70311 842/5 
92340 333   012/9 10316 20246 31/// 50401 58029 70098 84811 
=
76654 31456 71403 10296 20239 30098 40102 57013 70544 82531 
92350 333   0/999 10326 20260 30/// 50511 58008 70000 82620 
84356=
76656 32575 71601 10242 20162 38481 40073 58003 82110 92350 
333   10268 20154 30/// 50380 56350 58014 70056 82820 85458 
=
76737 01265 80503 10191 20176 38753 40104 53003 60281 76562 
887// 92335 333   10256 20177 32/// 50241 562// 58019 60287 
70936 88703 91103 91505=
76741 31478 70501 10288 20249 30076 40094 55004 70322 83224 
92335 333   01333 10320 20228 30/// 50361 58039 70000 83816 
83398=
76833 31870 42001 10295 20240 30185 40185 52034 70200 84020 
92330 333   0/090 10330 20252 30/// 50810 58063 70000 84458 
=
####018000185####
SNAA01 KARS 092300 RRD
AAXX 09234
89667 46/// /0517 11267 29077 39797 4//// 5//// 92310=
89667 46/// /0713 11265 39803 4//// 5////=
89667 46/// /0718 11259 39800 4//// 5////=
####018000887####
SNAA01 KARS 092300 RRC
AAXX 0923/
89872 46/// ///// 11285 39738 4//// 5//// 92310=
89377 46/// ///// 11334 39742 4//// 5//// 92310=
89869 46/// ///// 11286 39732 4//// 5//// 92310=
89866 46/// ///// 11231 39676 4//// 5////=
89866 46/// ///// 11231 39675 4//// 5//// 92310=
89864 46/// ///// 11251 39691 4//// 5////=
89864 46/// ///// 11250 39698 4//// 5//// 92310=
89324 46/// ///// 11294 37897 4//// 5//// 92320=
89329 46/// ///// 11320 38522 4//// 5//// 92310=
89799 46/// ///// 11623 4//// 5//// 92320=
89868 46/// ///// 11318 39727 4//// 5//// 92320=
89828 46/// ///// 11674 36505 4//// 5//// 92310=
89108 46/// ///// 11626 36900 4//// 5//// 92320=
89879 46/// ///// 11128 39671 4//// 5//// 92320=
89332 46/// ///// 11341 38965 4//// 5//// 92320=
89769 46/// ///// 11286 39739 4//// 5//// 92310=
89314 46/// ///// 11330 38034 4//// 5//// 92320=
####018000115####
SMTH41 VTBB 100000 RRA
AAXX 10004
48439 31558 40000 10258 20248 30070 40084 71011 82245
  333 20251 59001=
####018010897####
SMMX01 MXBA 100000
AAXX 10001
76040 32960 01305 10421 20210 30051 40065 57005 92338 333   
10443 20208 30/// 51021 58013 70000 98660=
76055 32980 01108 10354 20148 30032 40051 57003 92335 333   
10355 20217 30/// 50811 58007 70000=
76056 06/// /1008 10359 20157 30028 41/// 56019 60001 7//// 
8//// 92350 333   0//// 10370 20251 30/// 4//// 50729 54/// 
56/// 57/// 58006 60007 70000 8//// 8//// 8//// 9//// 9/=
76061 32981 01401 10332 20130 30012 40081 56018 92340 333   
10362 20230 30/// 50901 58006 70000 90801=
76113 32980 01602 10430 20333 39607 40025 57004 92340 333   
10435 20255 30/// 51220 58007 70000=
76122 32570 31104 10326 20194 38521 40025 57017 82250 92350 
333   10350 20214 30/// 50931 56990 58001 70000 82830=
76225 32560 80703 10262 20166 38619 40059 57010 88400 92345 
333   10274 20212 30/// 50571 56500 58015 70002 88627=
76243 11273 71107 10292 20240 39849 40129 52001 60101 72062 
87600 92330 333   10302 20230 30/// 50541 56300 59004 70506 
87612=
76256 32580 12303 10350 20193 30041 40055 57042 81200 92345 
333   0/3// 10360 20275 30/// 51150 58009 70000 81820=
76258 32570 32210 10355 20206 30032 40074 57010 82300 92350 
333   06300 10375 20264 30/// 50830 59018 79999 82927 81617 
=
76305 32970 01604 10332 20187 30056 40063 57016 92345 333   
10365 20265 30/// 50781 58003 70000=
76323 32470 83602 10210 20172 38274 40133 57005 887// 92355 
333   10244 20192 30/// 50211 561// 58022 70027 88617=
76342 31562 70202 10272 20229 39431 40112 57002 70222 87270 
92355 333   10301 20214 31/// 50280 56350 59009 70623 82820 
83457 82357=
76382 32480 53604 10296 20200 38873 40061 57005 83410 92355 
333   10334 20210 30/// 50721 56770 58014 70000 83644 82456 
=
76383 06/// /3604 10297 20159 38873 40052 55004 60001 7//// 
8//// 92350 333   0//// 10334 20210 30/// 4//// 50549 54/// 
56/// 57/// 58014 60007 70000 8//// 8//// 8//// 9//// 9/=
76390 01565 70000 10196 20179 38223 40087 57010 60241 70554 
8257/ 92330 333   10251 20144 31/// 50201 5658/ 58006 60067 
70346 82628 85356=
76393 11550 61304 10300 20220 39542 40093 55004 69941 70541 
862// 92355 333   0/3// 10316 20228 30/// 50661 58002 70052 
82833 84635=
76402 31858 13204 10312 20160 30029 40084 57015 70744 81030 
92347 333   0/020 10342 20166 30/// 50101 58003 70000=
76413 06/// /2010 10315 20207 30061 40104 55006 60001 7//// 
8//// 92350 333   0//// 10328 20260 30/// 4//// 50479 54/// 
56/// 57/// 58014 60007 70000 8//// 8//// 8//// 9//// 9/=
76423 32580 81402 10212 20150 38134 40044 54000 86470 92358 
333   10300 20150 30/// 50560 56990 58010 70000 81820 85627 
82357=
76458 32570 72102 10285 20236 30091 40095 55001 86430 92345 
333   0/450 10320 20228 30/// 50551 58027 70060 86620 81358 
=
76490 06/// /1502 10306 20208 39730 40102 57007 60001 7//// 
8//// 92350 333   0//// 10313 20237 30/// 4//// 50349 54/// 
56/// 57/// 58023 60007 70032 8//// 8//// 8//// 9//// 9/=
76491 32560 41101 10286 20227 39747 40123 57006 84420 92350 
333   00990 10313 20235 30/// 50081 58025 70030 82830 82362 
=
76525 32580 70606 10175 20114 37460 40061 52003 83231 92340 
333   10192 20121 31/// 50131 56225 58012 70018 83825=
76538 06/// /1004 10200 20145 38146 40080 55009 69921 7//// 
8//// 92350 333   0//// 10247 20148 50349 56/// 57/// 58023 
60007 70016 8//// 8//// 8//// 8//// 9//// 9//// 9//// 44=
76539 31563 60902 10200 20163 38139 40087 57019 70544 86500 
92350 333   10255 20120 30/// 50181 56800 59016 70016 86723 
=
76544 06/// /0503 10288 20226 30077 40103 55007 60001 7//// 
8//// 92350 333   0//// 10308 20239 30/// 4//// 50299 54/// 
56/// 57/// 58029 60007 70268 8//// 8//// 8//// 9//// 9/=
76556 32470 72605 10228 20213 39079 40079 57010 87800 92330 
333   01700 10254 20193 31/// 50471 58012 70664 87813=
76577 01570 63601 10215 20167 38014 40051 58005 60021 70165 
86050 92340 333   10260 20165 32/// 50450 56010 58016 60027 
70015=
76578 06/// /3401 10219 20146 38013 40045 58005 60011 7//// 
8//// 92350 333   0//// 10269 20162 30/// 4//// 50329 54/// 
56/// 57/// 58019 60017 70012 8//// 8//// 8//// 9//// 9/=
76585 01570 71201 10260 20247 39953 40107 53020 60011 76066 
878// 92345 333   022// 10295 20230 32/// 50091 58020 60017 
70015 87830=
76592 06/// /0503 10242 21100 30128 40128 58019 60201 7//// 
8//// 92350 333   0//// 10304 20236 30/// 4//// 50759 54/// 
56/// 57/// 58024 60047 70202 8//// 8//// 8//// 8//// 9/=
76625 32550 80504 10226 20139 38106 40045 57010 80080 92330 
333   10248 20169 30/// 50040 56020 58010 70000 88360=
76632 01573 70206 10160 20143 37607 40043 52004 60021 75066 
87700 92340 333   10200 20132 32/// 50301 56100 58064 60027 
70035 87733=
76634 31430 80601 10166 20140 37840 40102 52002 71022 86520 
92345 333   10210 20134 30/// 50191 5630/ 58009 70000 86610 
=
76647 12865 80201 10269 20256 30104 40134 52001 69921 8802/ 
92350 333   0/0// 10332 20240 31/// 50301 58009 69927 70002 
88458=
76658 31560 81804 10273 20223 39599 40095 56012 70542 83570 
92346 333   00110 10294 20210 30/// 50043 58012 70176 83624 
85356 98914=
76662 32670 82403 10248 20163 38429 40066 57004 87400 92335 
333   10284 20160 31/// 50350 56/00 58010 70087 87633=
76665 01362 72001 10174 20153 38102 40069 52006 60011 75052 
87300 92345 333   10256 20140 32/// 50340 56100 57911 58019 
60017 70268 87908=
76666 06/61 /1601 10164 20158 38102 40068 52004 60021 7//// 
8//// 92350 333   10264 20141 31/// 5//// 56/// 57/// 58018 
60027 70333 8//// 8//// 8////=
76675 01560 83002 10145 20116 37364 40082 54003 60161 76096 
83950 92357 333   10178 20101 32/// 5//// 56990 58012 60027 
70663 84927 82627=
76680 31562 80000 10186 20112 37729 40052 55008 70544 86820 
92345 333   10200 20144 30/// 5//// 56550 58011 70209 84625 
=
76682 16/65 /3201 10181 20138 37728 40007 57006 60111 7//// 
8//// 92350 333   10521 2//// 30/// 5//// 56/// 57/// 58013 
70239 8//// 8//// 8////=
76683 32650 81201 10264 20154 37803 40102 54/// 60011 75022 
88770 92345 333   10207 20138 31/// 50200 56440 58013 70172 
86727=
76684 02/// ///// 1//// 2//// 3//// 4//// 5//// 6//// 7//// 
8//// 333   0//// 1//// 2//// 30/// 4//// 5//// 54/// 56/// 
57/// 5//// 6//// 7//// 8//// 8//// 8//// 8//// 9//// 9/=
76685 0150 81801 10160 20154 37852 40084 52003 60081 70266 8
87// 92355 333   10202 20138 32/// 50231 569// 58015 60087 7
0326 88727=
76687 31562 50701 10200 20156 38665 40117 50000 70222 85400 
92340 333   10250 20170 30/// 50170 563// 58026 70072 82824 
83622=
76692 01556 83601 10272 20254 30096 40115 57002 60041 76344 
8692/ 92350 333   0622/ 10297 20240 32/// 51221 58030 60047 
70266 84925 82640 82470=
76695 32360 71401 10267 20244 30106 40111 52005 60111 82420 
92345 333   0030/ 10343 20248 31/// 50430 58032 70117 82608 
85460=
76699 16/06 /0501 10262 20262 30155 40166 52001 60131 7//// 
8//// 92350 333   10319 2//// 30/// 5//// 56/// 57/// 58026 
7//// 8//// 8//// 8////=
76726 01168 80101 10178 20152 38373 40083 57006 60191 72152 
8872/ 92350 333   10200 20160 32/// 50120 5699/ 58018 60187 
70850 88603=
76727 06/// /1101 10178 20166 38376 40090 55005 60191 7//// 
8//// 92350 333   0//// 10212 20163 30/// 4//// 50229 54/// 
56/// 57/// 58021 60197 70848 8//// 8//// 8//// 9//// 9/=
76743 31956 70902 10300 20249 30086 40094 56008 70222 8706/ 
92345 333   0//0/ 10317 20249 30/// 50300 58010 70191 87357 
=
76762 31904 81601 10230 20194 38736 40084 56015 74122 8801/ 
92345 333   10242 20180 31/// 50161 56029 58031 70030 88660 
=
76773 32570 80000 10210 20157 38402 40076 57010 8437/ 92342 
333   10232 20164 31/// 50421 5629/ 58022 70054 84820 84358 
=
76775 31565 83302 10208 20150 38487 40081 57005 70365 82221 
92350 333   10248 20172 31/// 50171 56888 58018 70432 81924 
81824 84458=
76776 06/// /3402 10209 20146 38486 40090 55004 60001 7//// 
8//// 92350 333   0//// 10253 20169 30/// 4//// 50269 54/// 
56/// 57/// 58020 60007 70048 8//// 8//// 8//// 9//// 9/=
76805 32570 71801 10306 20259 30091 40097 57011 81235 92345 
333   05322 10348 20248 30/// 50591 57880 58004 79999 81820 
81358=
76839 36/65 /2701 10251 20244 30075 40130 52004 7//// 8//// 
92350 333   10325 20248 30/// 5//// 56/// 57/// 58014 70000 
8//// 8//// 8////=
76840 32540 70000 10284 20243 30044 40099 52002 82280 92335 
333   0/91/ 10335 20230 30/// 50821 58004 70000 82827 85358 
=
76843 32565 62502 10269 20221 39456 40083 54003 82236 92350 
333   017// 10312 20212 30/// 50270 58011 70020 82824=
76845 11458 70000 10184 20146 37919 40099 57007 60081 76262 
85720 92343 333   10218 20126 31/// 50171 56390 58004 70267 
85717 81458 81360=
76848 32970 70501 10210 20151 38362 40043 54000 85055 92350 
333   10232 20145 31/// 50261 56099 58005 70140 85360 82279 
=
76855 32580 52202 10296 20239 30043 40091 57012 82220 92340 
333   02990 10323 20240 30/// 50490 58009 70000 82820 83458 
92000=
76160 32862 32301 10406 20178 39824 40054 57013 82029 92334 
333   0/099 10430 20305 30/// 51330 58019 70000 82457=
76311 32580 81602 10362 20217 39782 40042 57013 887// 92355 
333   0/4// 10408 20244 30/// 50940 58007 70000 88720=
76405 32880 13304 10354 20200 30050 40071 57014 81030 92345 
333   0/050 10372 20236 30/// 50800 58008 70000 81357=
76412 31766 62005 10308 20222 30060 40103 57006 70544 86050 
92351 333   10330 20252 30/// 50460 56050 58021 70000 86356 
=
76471 01580 70000 10189 20152 37688 40040 52003 60011 70162 
875// 92350 333   10239 20125 30/// 50470 565// 58012 60017 
70005=
76543 11575 60704 10292 20247 30077 40110 57005 69901 70152 
82136 92345 333   02335 10297 20252 32/// 50081 58028 70307 
82834=
76548 32470 50701 10294 20268 30099 40109 56011 83139 92340 
333   00255 10300 20244 32/// 50221 58028 70041 83812=
76581 01570 80000 10235 20209 39023 40101 57014 60161 79166 
83720 92355 333   0/220 10241 20192 32/// 5//// 58019 69977 
70267 83721 84360=
76640 31458 51402 10298 20271 30119 40131 57006 70311 842/5 
92340 333   012/9 10316 20246 31/// 50401 58029 70098 84811 
=
76654 31456 71403 10296 20239 30098 40102 57013 70544 82531 
92350 333   0/999 10326 20260 30/// 50511 58008 70000 82620 
84356=
76656 32575 71601 10242 20162 38481 40073 58003 82110 92350 
333   10268 20154 30/// 50380 56350 58014 70056 82820 85458 
=
76737 01265 80503 10191 20176 38753 40104 53003 60281 76562 
887// 92335 333   10256 20177 32/// 50241 562// 58019 60287 
70936 88703 91103 91505=
76741 31478 70501 10288 20249 30076 40094 55004 70322 83224 
92335 333   01333 10320 20228 30/// 50361 58039 70000 83816 
83398=
76833 31870 42001 10295 20240 30185 40185 52034 70200 84020 
92330 333   0/090 10330 20252 30/// 50810 58063 70000 84458 
=
####018002387####
SMPO60 LPMG 100000
AAXX 10001
08501 32/// /3202 10192 20156 30200 40235 52015
333  91106
555 60005=
08505 11470 79901 10209 20190 30172 40222 52011 69901 70282 878//
333 82812 85650
555 60007=
08506 32/// /0203 10200 20153 30161 40232 52010
333  91105
555 60005=
08509 11460 83103 10208 20196 30166 40229 52013 60011 70282 888//
      333 84818 86630 555 69947=
08511 12/// /0000 10201 20193 30118 40224 52010 69931
555 60005=
08512 32370 52702 10202 20190 30147 40238 52007 85800
333  82708 83812 555 60005=
08515 11275 32402 10204 20188 30130 40243 52005 69921 70181 82801
333  82706
555 60005=
08521 32470 23402 10195 20166 30148 40219 50006 82800
333   81815
555   60007=
08522 32/// /0000 10202 20169 30150 40219 52004
555 60005=
08524 32465 60304 10194 20168 30127 40223 52002  86800
333  84815 84630 91006 91107
555 60005=
08530 NIL=
08531 32/// /0104 10176 20166 30179 40217 57002
333  91007 91107
555 60005=
08532 NIL=
08533 32/// /0108 10193 20161 30160 40189 54000
333  91112
555 60005=
08534 32970 03205 10194 20143 30185 40202 51001 333 91109 555 60007=
08535 32/// /3505 10198 20126 30113 40204 54000
333  91008 91108
555 60005=
08537 NIL=
08540 32460 13302 10162 20152 30146 40214 50002 81100 333 81812 555
      60007=
08541 32/// /3505 10174 20150 30084 40201 54000
555 60005=
08544 NIL=
08545 31965 00000 10159 20145 30130 40213 57002  70200
555 60005=
08548 32/// /0101 10152 20145 30012 40216 57002
555 60005=
08551 32/// /3201 10155 20137 30154 40212 54000
555 5//// 60005=
08554 32965 03503 10280 20115 30165 40174 54000
333  91107
555 60005=
08558 32/// /3303 10189 20138 39903 40190 52002
333  91109
555 60005=
08560 32/// /0000 10177 20154 39473 40212 54000
555 60005=
08561 32970 03004 10202 20152 39968 40194 52013 555 60007=
08562 32/// /2903 10193 20140 39903 40189 52003
333  91106
555 60005=
08567 32/// /0000 10184 20174 39564 40210 52005
555 60005=
08568 32/// /2804 10193 20033 38698 48577 54000
333  91106
555 60005=
08570 31970 02702 10239 20153 39740 40179 52004  70200
555 60005=
08571 32/// /0203 10250 20134 39507 40176 57002
333  91005 91107
555 60005=
08575 32/// /3102 10199 20149 39414 40197 52003
555 60005=
08579 32/// /3405 10187 20131 30080 40203 57001
333  91008 91109
555 60005=
####018000127####
SMCH01 SCSC 100000
AAXX 10004

85442 11557 30000 10120 20085 40159 52013 60001 70511 83500
  333 10171 56000 83627 =
####018001224####
SMAL01 DAMM 100000
AAXX 10004
60360 12960 00000 10217 20206 40177 58006 60001
  333 0//00 95990=
60390 12958 00000 10208 20195 40160 56012 60001
  333 95990=
60402 12960 02705 10215 20192 40160 58013 60001
  333 95990=
60419 12970 00000 10205 20138 40166 58003 60001
  333 0//00 95990=
60475 NIL=
60490 12460 12406 10230 20224 40170 50002 60001 81600
  333 0//00 81710 95990=
60525 12960 00904 10310 20102 40141 51005 60001
  333 0//00 95990=
60531 12965 00000 10222 20198 40175 58003 60002
  333 0//00 95990=
60566 12960 00000 10313 20101 40151 50010 60001
  333 0//00=
60571 12962 22006 10332 20013 39271 48587 50013 60001 80002
  333 0//00 82073 95990=
60580 42960 00910 10326 20100 40143 51004 60001=
60590 12960 00000 10287 20101 40147 50000 60001
333 0//00=
60611 12960 00608 10274 20051 40125 56006 60001
333 0//00=
60620 12960 00218 10332 2//// 40107 50009 60001
  333 0//00=
60630 12960 30420 10358 20008 40094 50002 60001 80002 333 83075=
60656 12960 00906 10341 20083 40088 50001 60001
  333 0//00=
60670 12970 01010 10270 20020 39063 48542 58002 60001
333 0//00 95990=
60680 12970 21704 10253 20014 38654 48534 60001 82030
  333 82362 95990=
####018000128####
SMCH01 SCSC 100000 RRA
AAXX 10004
85442 11557 30000 10120 20085 40159 52013 60001 70511 83500
  333 10171 56000 83627 =
####018000825####
SMAL02 DAMM 100000
AAXX 10004
60351 12965 00000 10220 20208 40161 58006 60001
333   95990=
60355 12960 03502 10254 20190 40170 56007 60001
  333 0//00 95990=
60445 12965 00205 10206 20089 39067 48580 58005 60001
  333 95990=
60468 12970 03504 10214 20123 39266 48582 53003 60001
  333 0//00 95990=
60507 12960 01806 10250 20172 40152 50000 60001
  333 95990=
60511 NIL=
60536 12960 00000 10247 20162 39343 48586 53007 60001
  333 95990=
60550 12960 01202 10294 20044 38732 48589 50009 60001
  333 0//00 95990=
60555 12970 01606 10302 20114 40155 51004 60001
  333 0//00=
60559 12960 01206 10313 20099 40160 50002 60001=
60581 12960 00808 10305 20107 40144 50001 60001=
60607 12960 0//08 10315 20070 40120 50003 60001
333 0//00=
60640 12960 00910 10300 20064 40095 58013 60001=
####018000177####
SMRH50 LDZM 100000
AAXX 10001
14235 NIL=
14246 NIL=
14314 NIL=
14323 NIL=
14324 NIL=
14328 NIL=
14330 NIL=
14438 NIL=
14443 NIL=
14447 NIL=
14472 NIL=
####018000183####
SMPF01 NTAA 100000 RRA
AAXX 10004
91945 01465 60914 10262 20210 30186 40191 56019 69984 71582 86800
  333 20237 56200 58006 69987 84816 83640 90710 91123
  555 60005 10925=
####018000097####
SIIN22 DEMS 092100 RRC
AAXX 09214
42571 32596 53202 10298 20253 40006 83530
  333 59011=
####018001013####
SMCI31 BABJ 100000
AAXX 10001
50844 32962 70903 10230 20168 40091 52004 80002 333 00151=
50854 32970 70703 10215 20179 40093 52004 80002 333 00152=
50968 32562 43401 10211 20181 40097 52001 84100 333 00102=
51379 NIL=
51467 NIL=
51495 NIL=
53480 32680 62201 10178 20107 40035 52003 85502 333 05251
70019=
53673 11657 21602 10201 20171 40056 57012 69921 71080 82130
333 05151 70448=
53698 11956 71402 10239 20212 40052 52002 69911 71060 8703/
333 05154 70444=
53898 11930 80401 10213 20210 40053 52003 60071 72166 8802/
333 00055 70104=
54308 11970 81403 10185 20170 40058 52004 69901 70080 80007
333 05253 70040=
54602 NIL=
54725 11956 83602 10236 20229 40059 52013 69921 76066 8802/
333 00053 70015=
54751 11530 60202 10224 20212 40073 52007 69901 72580 86400
333 05152 79999=
54916 11661 80701 10238 20211 40045 52005 69921 78080 8647/
333 05252 70002=
57014 NIL=
57025 NIL=
57046 NIL=
58208 31657 80000 10268 20250 40018 52004 71000 885// 333
05201=
####018000189####
SMAL20 DAMM 100000
AAXX 10004
60369 12958 00000 10230 20182 40147 58014 60001
  333 0//00 91826=
60403 NIL=
60425 12965 02610 10275 20191 40153 50012 60001
  333 0//00 95990=
####018000284####
SMAL03 DAMM 100000
AAXX 10004
60395 12965 00000 10265 20130 40148 54000 60001
  333 0//00 95990=
60444 NIL=
60452 12458 20406 10240 20221 40165 50002 60001 82600 222// 2////
  333 82716 91836=
60457 12560 72805 10225 20218 40173 51009 60001 871//
  333 87816 95990=
####018000784####
SMAL50 DAMM 100000
AAXX 10004
60612 36/// /0306 10284 21047=
60617 36/// /0220 10321 21031=
60619 36/// /0315 10288 21016=
60621 NIL=
60633 36/// /0000 10333 21032=
60650 NIL=
60660 36/// /3510 10377 21028=
60661 NIL=
60662 36/// /0000 10283 21018=
60663 36/// /1103 10316 21031=
60664 36/// /0109 10265 21001=
60667 36/// /0000 10298 21010=
60672 36/// /3303 10262 21022=
60673 36/// /0905 10294 21026=
60674 NIL=
60675 NIL=
60676 36/// /0613 10302 21001=
60677 NIL=
60679 NIL=
60681 36/// /0714 10299 21028=
60682 36/// /0000 10261 21015=
60683 NIL=
60685 NIL=
60688 NIL=
60689 NIL=
60691 36/// /0309 10308 21008=
60692 36/// /0310 10341 21002=
60693 36/// /0922 10334 21006=
60694 36/// /0509 10297 21013=
60695 NIL=
####018000081####
SAKN64 HKMO 100000
METAR HKMO 100000Z 00000KT 99999 FEW020 22/21 Q1014 NOSIG=
####018000334####
SMAG02 SABM 100000 RRA
AAXX 10003
87007 31956 00902 10065 21190 36740 47154 53009 70400 333 10151
21041=
87016 31540 30000 10168 20133 39781 40198 53024 70511 82550
333 10243 20129 82620=
87270 32965 01805 10113 20091 30161 40226 52016 333 10199 20113=
87349 32965 00000 10096 20042 39844 40253 52012 333 10180 20084=
####018001488####
SMAG02 SABM 100000
AAXX 10004
87022 32960 60000 10170 20127 39672 40190 52025 86070 333 10220
20153 56080 86360=
87046 31560 71812 10165 20068 39172 48541 52021 70521 84560 333
10226 20080 56000 84630 85360=
87047 32565 23405 10107 20058 38850 48552 52024 82500 333 10210
20041 56400 82620=
87121 31958 03405 10148 20074 39696 40227 52017 70400 333 10213
20065=
87129 32965 20903 10145 20044 39990 40237 52024 80002 333 10222
20058=
87217 NIL=
87222 32970 00504 10113 20029 39670 40212 53013 333 10215=
87244 32970 00000 10065 20009 39842 40264 5//// 333 10194
2////=
87257 NIL=
87311 32965 02303 10081 21006 39529 40244 52007 333 10165 20020=
87320 32970 00000 10081 20006 39684 40238 333 20055=
87328 32980 00902 10078 20005 39556 40238 53009 333 10190 20017
95090=
87344 32960 02705 10080 20002 39686 40256 52011 333 10186 20080=
87371 32962 00000 10119 20111 30224 40245 52013 333 10196 20049=
87416 32965 00000 10067 20006 39456 40234 53001 333 10170 20059=
87418 31956 00000 10092 21013 39402 40229 51003 70400
333 1//// 20074=
87436 32970 00506 10080 20019 39394 40231 52011 333 10196 20080=
87448 32965 00503 10050 21040 39657 40254 50003 333 10178 21015=
87453 NIL=
87467 32970 00902 10083 20030 30110 40252 52015
333 1//// 2////=
87506 32970 12304 10032 21025 38614 48533 53007 81040 333 10130
21024 56050 57343 81360 95090=
87509 32970 13609 10070 21039 39341 40236 52003 80006 333 10160
21006 56006 81280=
####018000960####
SMRS14 RUMS 100000
AAXX 10001
22165 41698 80905 10109 20082 30073 40133 58026 70282 885//=
22676 42682 31401 10194 20177 30055 40128 57010 82240=
22954 42975 21803 10203 20172 39929 40163 58002 80001=
23405 42979 69901 10092 20084 30077 40174 58004 86030=
23412 NIL=
23803 NIL=
27066 42998 20000 10192 20182 30002 40169 58004 80001=
27083 42999 00000 10173 20164 39951 40162 52002=
27113 41958 60000 10187 20174 30035 40173 52004 71122 82031=
27242 41962 00000 10193 20182 30051 40172 54000 71000=
27329 42980 33001 10193 20175 30064 40182 52003 80001=
27355 42998 00000 10210 20197 30010 40163 58003=
27373 42999 02901 10194 20174 39965 40169 58001=
27665 42997 02401 10192 20151 39917 40172 52001=
27835 42996 70000 10204 20178 30019 40168 52001 87070=
28009 42998 20000 10175 20169 39957 40155 52004 80001=
28411 42997 60000 10192 20174 39965 40146 54000 80001=
28418 42999 20000 10195 20162 39994 40149 52002 80003=
####018000677####
SMRS16 RUMS 100000
AAXX 10001
34560 42997 30805 10258 20066 39969 40122 52003 80001=
34720 41497 80504 10246 20190 30070 40108 58001 79598 889//=
34730 41697 70106 10234 20175 30006 40092 57015 79592 84930 333
84933=
34740 32998 20902 10252 20157 30001 40091 57003 81031=
34824 42597 80602 10236 20189 30089 40094 52003 884//=
34858 42997 00000 10240 20138 39997 40097 52001=
34866 42998 00201 10246 20102 30108 40100 52001=
34880 42997 23401 10253 20171 30120 40096 58002 82030=
37018 42497 81603 10255 20235 30030 40099 52002 884// 333 88619=
37054 42998 50000 10217 20186 39726 40085 52002 85030=
37472 42998 00000 10221 20188 30104 40082 54000=
####018000241####
SNHK22 VHHH 100015
AAXX 10001
45032 36/// /2301 10295 20245 30079 40094 54000=
45035 36/// /2404 10290 20258 30052 40093 57001=
45039 36/// /2102 10289 20254 30077 40092 52002=
45044 36/// /2602 10280 20264 30005 40095 54000=

####018000238####
SNHK22 VHHH 100015
AAXX 10001
45032 36/// /2301 10295 20245 30079 40094 54000=
45035 36/// /2404 10290 20258 30052 40093 57001=
45039 36/// /2102 10289 20254 30077 40092 52002=
45044 36/// /2602 10280 20264 30005 40095 54000=
####018000128####
SMCH01 SCSC 100000 CCA
AAXX 10004
85442 11557 30000 10120 20085 40159 52013 60001 70511 83500
  333 10171 56000 83627 =
####018000387####
SMAL51 DAMM 100000
AAXX 10004
AAXX 10001
60370 36/// /2401 10233 20198=
60371 36/// /1803 10240 20101=
60372 36/// /1103 10307 20066=
60373 NIL=
60374 NIL=
60376 NIL=
60379 NIL=
60380 NIL=
60381 NIL=
60393 NIL=
60394 NIL=
60593 NIL=
60595 NIL=
60605 NIL=
60613 NIL=
60623 NIL=
AAXX 10004
60624 36/// /0710 10348 21021=
60639 NIL=
60645 NIL=
####018001364####
SMNT04 KAWN 100000
AAXX 10004
04005 42489 62001 10064 20050 40069 52005 86050 555 3/204=
AAXX 10003
04013 42689 21402 10078 20051 40055 52012 82800 555 3//18=
AAXX 10004
04018 41480 79901 10117 20097 40030 52020 76162 8552/ 555 3//12
 81715 85637 87556=
04030 41580 70802 10118 20094 40028 52012 75022 86872 555 3//05
 82828 85632=
04048 41501 61110 10105 20101 40023 52007 74622 82832 555 3/315=
04063 42586 73005 10070 20037 40049 52001 83720 555 3//11=
04082 41365 81405 10104 20096 40043 52006 71122 8366/ 555 3//05
 83706 85358=
04097 41380 89906 10079 20055 40055 52006 75055 886// 555 3/308=
04220 47784 12505 10044 20034 30032 40083 57001 70086 333 55300
 20551 81/57=
04231 12989 20606 10114 20025 39998 40068 52008 6///1 824// 333
 82650=
04250 05/84 03006 10064 20055 39974 40076 57003 6///1 333 55300
 20349 6///7=
04260 47201 73202 10036 20031 30043 40086 57002 78183 333 83/04
 87/57=
04270 45/83 /2413 10095 20044 30041 40078 52006=
04272 06105 72407 10022 20022 30017 40088 57002 6///1 333 6///7
 87/02=
04320 45783 80910 10022 21008 30057 40072 52001 333 88/50=
04360 05/80 03102 10060 20028 39980 40048 57003 6///1 333 55300
 20144 6///7=
04390 05/83 02412 10068 20044 39972 40063 57012 6///1 333 6///7=
78016 32464 51513 10265 20236 30221 40225 53005 81131 333 10287
 20250 70011=
####018001364####
SMNT50 KAWN 100000
AAXX 10004
04005 42489 62001 10064 20050 40069 52005 86050 555 3/204=
AAXX 10003
04013 42689 21402 10078 20051 40055 52012 82800 555 3//18=
AAXX 10004
04018 41480 79901 10117 20097 40030 52020 76162 8552/ 555 3//12
 81715 85637 87556=
04030 41580 70802 10118 20094 40028 52012 75022 86872 555 3//05
 82828 85632=
04048 41501 61110 10105 20101 40023 52007 74622 82832 555 3/315=
04063 42586 73005 10070 20037 40049 52001 83720 555 3//11=
04082 41365 81405 10104 20096 40043 52006 71122 8366/ 555 3//05
 83706 85358=
04097 41380 89906 10079 20055 40055 52006 75055 886// 555 3/308=
04220 47784 12505 10044 20034 30032 40083 57001 70086 333 55300
 20551 81/57=
04231 12989 20606 10114 20025 39998 40068 52008 6///1 824// 333
 82650=
04250 05/84 03006 10064 20055 39974 40076 57003 6///1 333 55300
 20349 6///7=
04260 47201 73202 10036 20031 30043 40086 57002 78183 333 83/04
 87/57=
04270 45/83 /2413 10095 20044 30041 40078 52006=
04272 06105 72407 10022 20022 30017 40088 57002 6///1 333 6///7
 87/02=
04320 45783 80910 10022 21008 30057 40072 52001 333 88/50=
04360 05/80 03102 10060 20028 39980 40048 57003 6///1 333 55300
 20144 6///7=
04390 05/83 02412 10068 20044 39972 40063 57012 6///1 333 6///7=
78016 32464 51513 10265 20236 30221 40225 53005 81131 333 10287
 20250 70011=
####018000113####
SMRA10 RUHB 100000 CCA
AAXX 10001
30758 32699 80501 10182 20144 39340 40091 52002 81131 333 20126
55101=
####018000170####
SMAL50 DAMM 100000 RRA
AAXX 10004
60677 36/// /0000 10299 20002=
60661 36/// /0609 10302 21039=
60679 36/// /0000 10176 21036=
60650 36/// /0320 10360 21007=
####018000071####
SMAL51 DAMM 100000 RRA
AAXX 10004
60595 36/// /0000 11451 21616=
####018000103####
SMMC01 GMMC 100000 RRA
AAXX 10004
60101 42958 01103 10216 20172 40180 50003 80002
  333 83070=
####018001296####
SMRS15 RUMS 100000
AAXX 10001
22282 41/93 90704 10060 20060 30152 40160 57009 74544=
22438 41530 61903 10129 20129 30092 40113 53002 71022 86900=
22471 41684 71303 10164 20156 30098 40120 58016 72998 83939=
22563 41565 70000 10193 20180 30083 40119 58012 70292 82963=
22641 42799 62101 10198 20177 30113 40128 53001 82530 333 91104=
22695 42599 50903 10175 20102 30009 40154 58006 82949=
22867 NIL=
22939 41696 22401 10183 20174 30015 40168 52001 71010 81501=
22996 41998 20000 10179 20167 39978 40157 52002 71211 80008=
23324 41458 83302 10094 20092 30095 40170 54000 75152 886// 333
88710=
27051 41860 40000 10181 20171 30008 40165 58001 71111 83031=
27225 43797 83001 10201 20185 30055 40178 52005 8802/=
27252 42964 40000 10185 20167 39993 40169 52006 80001=
27333 42980 33601 10206 20181 30030 40178 52002 83030=
27369 42998 00000 10198 20184 30045 40174 52003=
27393 41598 50000 10184 20125 30005 40163 52003 71111 82301=
27479 42599 20000 10234 20159 30039 40163 52001 81230=
27532 42997 30000 10192 20155 39976 40178 52002 80001=
27648 42997 20000 10184 20171 30011 40170 54000 80001=
27675 42597 22301 10204 20169 30004 40163 52002 82900=
27679 42999 00000 10208 20135 39961 40170 52002=
28214 42999 00000 10186 20174 39955 40153 52004=
####018000115####
SMAL02 DAMM 100000 RRA
AAXX 10004
60511 12965 00000 10232 20147 39102 48582 51003 60001
  333 0//00 95990=
####018000955####
SMAG03 SABM 100000
AAXX 10004
87774 32682 40000 10030 21040 39117 48452 5//// 84700
333 10050 21062 84736=
87784 32980 03409 10060 21040 30164 40189 57007 333 10136 21017=
87791 NIL=
87803 32570 42928 10087 21010 39149 40079 55024 82570 333 1////
20013 56600 82625 83360=
87828 32980 43208 10054 21010 30081 40134 57019 83072 333 10104 20022 56000
83360=
87852 11460 83408 10013 20005 39542 40060 55008 69901 75052
8572/ 333 10050 20009 56459 85715 88550=
87860 11565 83208 10049 20024 30038 40095 58001 69951 76362 8452/
333 10088 20040 56779 84630 88550=
87896 32980 33408 10010 21039 40071 57004 83070 333 10074 20007 56070
 83360=
87904 32980 01407 11014 21069 39796 40048 51003 333 10064 21030=
87909 32980 02909 11008 21039 39996 40074 52008 333 10056 21013=
87925 32980 02906 11006 21024 30008 40032 51007 333 10044 21020=
87938 32680 23207 10011 21044 39890 49961 52013 82500 333 1////
2//// 56700 82640=
####018000044####
SMAG03 SABM 100000 RRA
AAXX 10003
NIL
####018000797####
SMRS17 RUMS 100000
AAXX 10001
34357 42998 71002 10245 20098 39991 40139 52010 80002=
34363 42998 30804 10261 20102 30005 40141 53013 80001=
34545 42598 61103 10249 20143 30003 40106 57006 86500=
34579 42998 00602 10261 20078 30075 40115 52002=
34838 42997 00000 10217 20166 39993 40083 54000=
34927 42697 22502 10239 20217 30061 40095 54000 82500=
34949 NIL=
37001 42997 01702 10240 20218 30053 40090 54000=
37031 42997 01801 10229 20196 39908 40090 52013=
37061 42568 33401 10233 20184 39934 40089 58004 82530=
37085 42996 01102 10237 20217 30117 40092 58001=
37171 42496 80000 10254 20239 30092 40107 52003 8267/=
37228 42997 01701 10207 20180 39309 40087 54000=
37470 42996 03602 10275 20156 30099 40077 58001=
37663 32996 03201 10185 20156 38993 48530 51000=
####018000495####
SMVD22 KWNB 100000 RRI
BBXX
46245 10001 99343 71193 46/// ///// 1//// 90006 22200 00168 11301
21001 320// 41301 70006=
46243 10001 99462 71241 46/// ///// 1//// 90004 22200 00152 10702
20702 321// 41401 70011=
46241 10001 99330 71173 46/// ///// 1//// 90008 22200 00185 11301
21001 323// 41301 70006=
46240 10001 99366 71219 46/// ///// 1//// 90015 22200 00133 10801
20801 70004=
46237 10001 99378 71226 46/// ///// 1//// 90006 22200 00147 11301
21001 322// 41301 70007=
####018000109####
SITH43 VTBB 092100 RRF
AAXX 09214
48581 31557 80000 10251 20235 30057 40098 71022 81146
  333 58001=
####018000103####
SNAU55 AMMC 092300 RRC
AAXX 09234
94761 11/84 20000 10113 20070 60004 70222
  333 70000=


####018000115####
SMVD15 KWNB 100000 RRJ
BBXX
41114 10001 99276 70802 46/// ///// 1//// 90012 22200 00288 11101
20801 70004=
####018000122####
SMCN03 CWAO 100000 RRB
AAXX 10004
71421 16/// /3103 10209 20140 39430 40115 51010 60001 333 10248
20175 70000=

####018000313####
SMCN33 CWAO 100000 RRB
AAXX 10004
71363 16/// /0807 10127 20076 30005 40057 55003 60001 333 10162
20068 70000=
71364 16/// /2905 10241 20078 39994 40121 58007 60001 333 10245
20127 70000=
71374 46/// /2117 10120 6///1 333 10134 20090 7////=
71381 46/// /2904 10206 20190 6///1 333 10236 7////=

####018000102####
SMCN22 CWAO 100000 RRB
AAXX 10004
71228 16/// /0607 10258 20141 60001 333 10285 20103 70019=

####018000116####
SMCN24 CWAO 100000 RRB
AAXX 10004
71423 16/// /2510 10139 20135 30082 40091 50000 60001 333 10165
7////=

####018000203####
SMCN35 CWAO 100000 RRB
AAXX 10004
71575 16/// /1205 10052 20049 39975 40038 52002 60001 333 10061
20031 70020=
71583 46/// ///// 10180 20094 39438 40100 50000 6///1 333 10180
20037 7////=

####018000163####
SMCN31 CWAO 100000 RRB
AAXX 10004
71186 46/// /3302 10211 20203 6///1 333 10263 20172 7////=
71190 46/// /0601 10179 20178 6///1 333 10231 20096 7////=

####018000462####
SMCN23 CWAO 100000 RRB
AAXX 10004
71340 17/// /0110 10185 20130 60021 7//4/ 333 10266 20076 70018=
71341 16/// /2211 10278 20072 60001 333 10301 20079 70000=
71342 16/// /2613 10295 20104 60001 333 10304 20130 70000=
71344 16/// /3105 10272 20094 60001 333 10289 20144 70000=
71347 46/// /3405 10217 20085 6///1 333 7////=
71348 16/// /0504 10235 20103 60001 333 10253 20107 70000=
71349 16/// /0102 10233 20150 60001 333 10259 20102 70000=

####018000163####
SMCN32 CWAO 100000 RRB
AAXX 10004
71269 16/// /2110 10286 20082 60001 333 10294 20134 70000=
71285 16/// /2603 10247 20127 60001 333 10279 20064 70000=

####018000296####
SMCN27 CWAO 100000 RRB
AAXX 10004
71737 17/// ///// 10189 20183 39595 40096 56008 69931 7//4/ 333
10241 20175 70216=
71743 17/// /2412 10167 20128 39822 40029 53007 60041 7//4/ 333
10206 20078 70036=
71744 16/// /2011 10262 20176 30064 40103 53001 60001 333 10308
20215 70000=

####018000203####
SMCN34 CWAO 100000 RRB
AAXX 10004
71477 16/// /1316 10138 20121 30156 40164 55001 60001 333 10145
20121 7////=
71479 16/// /3614 10130 20121 30073 40193 58004 60001 333 10149
20121 70000=

####018000122####
SMCN39 CWAO 100000 RRB
AAXX 10004
71976 46/// /0504 10130 20068 39445 40049 56001 6///1 333 10130
20057 7////=

####018000177####
SMCN29 CWAO 100000 RRA
AAXX 10004
71903 16/// /2305 10133 20127 30095 40145 58005 60001 333 10144
20111 7////=
71947 46/// /3005 10170 6///1 333 10181 20159 7////=

####018000101####
SMRA11 RUHB 091800 RRA
AAXX 09181
31478 41699 70901 10127 20107 39088 40106 52002 70282 87900=
####018000317####
SMVE15 KWNB 100000 RRD
BBXX
51200 10001 99211 71583 46/// ///// 1//// 90013 22200 00259 11203
20503 317// 41201 70016=
51203 10001 99208 71570 46/// ///// 1//// 90015 22200 00260 11701
21001 321// 41701 70005=
51201 10001 99217 71581 46/// ///// 1//// 90012 22200 00256 10602
20602 305// 41101 70012=
####018000119####
SMCN03 CWAO 100000 RRB
AAXX 10004
71421 16/// /3103 10209 20140 39430 40115 51010 60001 333 10248
20175 70000=
####018000590####
SMVD22 KWNB 100000 RRJ
BBXX
46229 10001 99438 71246 46/// ///// 1//// 92338 22200 00129 10602
20602 321// 41401 70010=
46216 10001 99343 71198 46/// ///// 1//// 92354 22200 00169 10501
20501 70006=
46225 10001 99329 71174 46/// ///// 1//// 92355 22200 00180 11302
21001 321// 41301 70008=
46223 10001 99335 71178 46/// ///// 1//// 92356 22200 00183 11401
21001 318// 41401 70007=
46222 10001 99336 71183 46/// ///// 1//// 92348 22200 00182 11301
20501 318// 41301 70006=
46215 10001 99352 71209 46/// ///// 1//// 92339 22200 00127 11302
21001 321// 41301 70008=
####018000127####
SMVD22 KWNB 100000 RRK
BBXX
46218 10001 99345 71208 46/// ///// 1//// 90013 22200 00146 11302
20802 318// 41301 70011=
####018000127####
SMVD22 KWNB 100000 RRL
BBXX
46242 10001 99332 71174 46/// ///// 1//// 92357 22200 00180 11201
21001 321// 41201 70007=
####018000222####
SMVD22 KWNB 100000 RRM
BBXX
46211 10001 99469 71242 46/// ///// 1//// 90006 22200 00150 10702
20702 321// 41301 70011=
46214 10001 99379 71235 46/// ///// 1//// 90004 22200 00100 11302
21002 318// 41301 70011=
####018000089####
SMRS17 RUMS 100000 RRA
AAXX 10001
34949 42998 01003 10230 20123 39588 40096 53005=
####018000129####
SMLT10 EYHM 100000 CCA
AAXX 10001
26531 31996 10000 10165 20157 30148 40221 51001 71100 80001 333
91004 91105 555 1017/=
####018001915####
SMCI04 BABJ 100000
AAXX 10001
56146 32780 72701 10099 20064 36780 52007 878// 333 00354
70030=
56444 11/08 91101 10118 20109 36814 52004 69971 78084 333
05151 70088=
56492 11780 81802 10216 20192 39668 40055 52003 60031 70060
885// 333 00556 70567=
56571 11558 81601 10191 20179 38355 52016 60451 76086 885//
333 00153 70532=
57799 32980 61602 10301 20238 39972 40055 52010 82032 333
00100=
57866 NIL=
57957 32664 61804 10291 20228 39878 40064 52015 82432 333
00151=
57993 32980 72204 10294 20211 39911 40067 52008 80002 333
00151=
58027 11456 80703 10243 20224 39985 40033 54000 69951 76060
8277/ 333 05300 70005=
58141 32962 80904 10262 20223 30023 40041 52004 8807/ 333
05200=
58265 32970 81603 10270 20239 30037 40044 52008 8807/ 333
05200=
58472 NIL=
58477 11457 71403 10276 20238 30008 40050 52005 69901 71060
82140 333 05102 70008=
58527 NIL=
58633 11670 71402 10250 20227 39960 40055 52008 60061 72580
8244/ 333 05101 70497=
58666 31720 82210 10250 20245 39964 40061 52006 72840 885//
333 05101 70194=
58725 31958 73601 10272 20248 39825 40072 52013 71000 8704/
333 00101 79999=
58921 32668 72001 10277 20233 39854 40088 52013 81142 333
00100=
59082 32578 61606 10291 20235 39939 40077 52007 81142 333
00100=
59211 11562 71102 10293 20244 39841 40036 52012 69901 78090
8594/ 333 00001 79999=
59265 32966 70401 10289 20259 39948 40079 52017 81032 333
00101=
59293 32570 51804 10282 20244 30008 40089 52006 82102 333
00101=
59501 11580 22503 10288 20250 30075 40095 52006 69981 70080
82102 333 00000 70008=
59663 11480 71805 10284 20260 39982 40085 52006 69961 70080
86202 333 00000 70006=
59838 32580 71805 10312 20225 30053 40063 52012 81162 333
00000=
59948 32380 71404 10273 20251 39618 40089 52011 83202 333
00001=
59981 11580 72004 10302 20257 30087 40094 52017 60031 70080
82202 333 00000 70026=
####018000788####
SMHV01 DFFD 100000
AAXX 10004
65501 31660 71404 10315 20211 39788 40091 71322 81902
  333 0//00 58000 81940 87076 94942 94944 95834=
65502 32960 72406 10316 20219 39721 40087 87072
  333 0//00 58003 87363=
65503 32960 72204 10290 20233 39763 40100 85032
  333 0//00 58000 85363 83076=
65505 32960 72204 10270 20222 39769 40102 80002
  333 0//00 59001 87076=
65507 32960 71802 10262 20233 39762 40106 8707/
  333 0//00 58003 87363=
65510 11960 50000 10245 20231 39606 40114  69961 70196 80002
  333 0//53 58010 85076=
65516 32960 62202 10264 20229 39806 40108 82032
  333 0//00 58007 82363 85076=
65518 32965 81804 10257 20240 39748 40107 8807/
  333 0//00 58006 88463=
65522 31965 60000 10252 20243 39790 40116 70292 80002
  333 0//00 58003 86076=
####018000065####
SMAL50 DAMM 100000 RRB
AAXX 10004
60689 36/// /0000 10312=
####018000104####
SMAL51 DAMM 100000 RRB
AAXX 10004
60639 36/// /0214 10311 20032=
60381 36/// /2101 10221 20203=
####018000099####
SMSB20 VCCC 100000 CCA
AAXX 10004
43466 22470 00000 10240 20231 30066 40078 333 59007 60007=
####018000404####
SMTU14 LTAA 100000 RRA
AAXX 10004
17501 12960 01604 10235 20178 30081 40099 57005 60001
333 92427=
17505 12960 03103 10236 20198 39999 40108 57005 60001=
17515 12960 03204 10227 20189 39946 40115 57003 60001=
17530 12960 03003 10227 20203 30049 40104 58001 60001=
17535 12960 00000 10216 20158 30062 40097 57004 60001=
17550 12960 02905 10244 20209 39955 40094 58002 60001
333 92427=
####018000199####
SMRS20 RUMS 100000
AAXX 10001
23226 42960 73603 10100 20070 39944 40151 54000 87070=
23701 42999 20201 10101 20089 30038 40163 54000 80001=
28909 42997 02901 10180 20112 30055 40149 52008=
####018000704####
SMGL02 EKMI 100000
AAXX 10004
04203 NIL =
04205 45/78 /2805 10099 20061 30056 40077 57001 =
04208 NIL =
04213 46/// /3007 10091 20078 39971 40077 57001 =
04214 46/// /3409 10040 20040 30048 40082 57005 =
04224 46/// /2507 10040 20026 30048 40080 57001 =
04228 46/// /2902 10027 20027 30072 40086 57003 =
04242 NIL =
04253 NIL =
04266 NIL =
04285 46/// /2906 10036 20033 30069 40088 57007 =
04301 46/// /0704 10039 20022 30043 40048 57003 =
04313 46/// /1906 10007 20006 30067 40079 54000 =
04330 46/// /0113 10078 21031 30034 40052 52005 =
04351 46/// /1301 11017 21027 30025 40042 52004 =
04373 46/// /2003 10089 21007 39946 40040 57008 =
04382 NIL =
04416 NIL =
####018001177####
SMSB01 VCCC 100000
AAXX 10004
43400 NIL=
43404 22970 51101 10262 20239 30079 40089 80001 333 59001 60007
85080=
43410 NIL=
43413 22970 11402 10254 20239 30079 40084 80001 333 59010 60007
81080=
43415 NIL=
43418 22470 31802 10261 20245 30008 40096 83301 333 59005 60007 83818
81920=
43421 22960 00000 10239 20231 39985 40087 333 59001 60007=
43422 NIL=
43424 22468 21302 10244 20238 30072 40074 81101 333 59012 60007
81816=
43436 22470 10000 10270 20247 30076 40080 81100 333 59010 60007
81818=
43441 NIL=
43444 22470 60901 10220 20215 39555 40086 81106 333 59010 60007 81818
86280=
43467 22960 20000 10240 20229 30076 40081 80001 333 59010 60007
82080=
43473 22470 10801 10124 20119 38126 48491 81106 333 59006 60007
81810=
43475 22470 40000 10254 20239 30077 40086 82101 333 59008 60008 82818
84080= 
43476 21462 12303 10168 20162 38765 48507 7036/ 81900 333 59008 69927
81918=
43479 NIL=
43486 21/10 91401 10226 20223 39988 40082 74744 333 59006 60007=
43495 22460 6//// 10250 20238 30071 40087 83231 333 59011 60007 83817
83360=
43497 22472 33606 10256 20239 30063 40086 82101 333 59008 60008 82818
84080=
####018000625####
SMEG01 HECA 100000
AAXX 10004
62305 32960 00303 10225 20225 40139 57006=
62306 32960 00000 10232 20175 40133 57013=
62318 32960 03210 10249 20194 40114 57011=
62337 32960 03602 10244 20221 40027 58009=
62366 32960 00108 10238 20201 40112 57007=
62393 32960 03509 10266 20177 40092 57009=
62405 32960 01502 10296 20141 40051 57010=
62414 32960 03208 10306 20092 40059 57011=
62417 32960 00706 10273 20171 40121 52002=
62440 32960 03204 10236 20207 40108 58005=
62463 32960 03110 10295 20153 40053 57007=
62465 32960 03513 10303 20184 40046 57012=
62419 32960 03209 10304 20068 40077 57008=


####018000318####
SMEG02 HECA 100000
AAXX 10004
62309 32960 03601 10246 20197 40120 58011=
62325 32960 03405 10245 20206 40112 58009=
62332 32960 03412 10256 20216 40112 52009=
62387 32960 03306 10254 20178 40089 55000=
62459 32960 03218 10270 20213 40044 57004=
62452 32960 30204 10219 20204 40107 57005
      83500=
####018000169####
SMEG04 HECA 100000
AAXX 10004
62423 32960 03505 10248 20113 40112 57010=
62357 32960 03103 10225 20208 40117 57010=
62403 45960 02605 10275 20134 40059 57008=
####018000619####
SMEG01 HECA 100000
AAXX 10004
62305 32960 00303 10225 20225 40139 57006=
62306 32960 00000 10232 20175 40133 57013=
62318 32960 03210 10249 20194 40114 57011=
62337 32960 03602 10244 20221 40027 58009=
62366 32960 00108 10238 20201 40112 57007=
62393 32960 03509 10266 20177 40092 57009=
62405 32960 01502 10296 20141 40051 57010=
62414 32960 03208 10306 20092 40059 57011=
62417 32960 00706 10273 20171 40121 52002=
62440 32960 03204 10236 20207 40108 58005=
62463 32960 03110 10295 20153 40053 57007=
62465 32960 03513 10303 20184 40046 57012=
62419 32960 03209 10304 20068 40077 57008=
####018000304####
SMEG03 HECA 100000
AAXX 10004
62476 32960 03609 10300 20183 40087 56016=
62458 32960 03210 10280 20176 40057 55004=
62420 32960 00106 10254 20185 40106 58006=
62432 32960 02803 10281 20095 40097 57012=
62435 32960 00106 10299 20128 40073 57012=
62455 32960 03209 10256 20216 40081 57003=
####018000115####
SMVD15 KWNB 100000 RRK
BBXX
41112 10001 99307 70813 46/// ///// 1//// 92351 22200 00282 10301
20301 70006=
####018000327####
SMEG02 HECA 100000
AAXX 10004
62309 32960 03601 10246 20197 40120 58011=
62325 32960 03405 10245 20206 40112 58009=
62332 32960 03412 10256 20216 40112 52009=
62387 32960 03306 10254 20178 40089 55000=
62459 32960 03218 10270 20213 40044 57004=
62452 32960 30204 10219 20204 40107 57005
      83500=



####018000310####
SMEG03 HECA 100000
AAXX 10004
62476 32960 03609 10300 20183 40087 56016=
62458 32960 03210 10280 20176 40057 55004=
62420 32960 00106 10254 20185 40106 58006=
62432 32960 02803 10281 20095 40097 57012=
62435 32960 00106 10299 20128 40073 57012=
62455 32960 03209 10256 20216 40081 57003=


####018000101####
SMRS13 RUMS 100000 RRA
AAXX 10001
22271 41997 81308 10075 20068 30127 40137 57017 76186 8807/=
####018000151####
SMSO02 AMMC 100000 CCA
AAXX 10003
91502 01465 80000 10272 20246 40126 51008 60114 75085 889//
  333 20243 56199 58016 60067 84815 81916 86629=
####018000127####
SMSO02 AMMC 100000 CCC
AAXX 10003
91541 32580 60902 01295 20250 40130 52002 83266
  333 20245 56299 58018 83820 86280=
####018000139####
SMSO01 AMMC 100000 CCA
AAXX 10004
91503 31480 60906 10300 20257 40127 51009 70522 82956
  333 20226 56999 58012 82818 81919 86279=
####018000157####
SMSO02 AMMC 100000 CCB
AAXX 10003
91507 01470 80902 10280 20252 40132 52005 69984 78082 8592/
  333 20245 56909 58015 69987 83815 81916 83628 86460=
####018000133####
SMSO01 AMMC 100000 CCB
AAXX 10004
91517 11470 30507 10309 20238 40119 52005 69924 70500 81208
  333 20238 56200 81818 83280=
####018000157####
SMSO02 AMMC 100000 CCA
AAXX 10003
91502 01465 80000 10272 20246 40126 51008 60114 75085 889//
  333 20243 56199 58016 60067 84815 81916 86629=


####018000139####
SMSO01 AMMC 100000 CCB
AAXX 10004
91517 11470 30507 10309 20238 40119 52005 69924 70500 81208
  333 20238 56200 81818 83280=


####018000163####
SMSO02 AMMC 100000 CCB
AAXX 10003
91507 01470 80902 10280 20252 40132 52005 69984 78082 8592/
  333 20245 56909 58015 69987 83815 81916 83628 86460=


####018001777####
SMCI05 BABJ 100000
AAXX 10001
50353 31570 73402 10190 20166 39902 40110 52008 70040 878//
333 00153 79999=
50557 32970 70000 10228 20177 39818 40098 52002 82032 333
00001=
50756 32970 60902 10222 20165 39831 40108 52002 80002 333
00001=
50949 32665 80902 10203 20179 39926 40085 52007 8552/ 333
00152=
50963 32575 20405 10211 20189 39973 40101 52001 82800 333
00102=
50978 31560 71101 10198 20186 39786 40113 52006 70040 878//
333 00201=
51087 NIL=
51156 NIL=
51644 NIL=
51656 NIL=
51886 32880 73401 10103 20003 37143 52008 82508 333 05200=
52602 32980 20000 10116 21009 37278 52008 80002 333 05302=
52713 32680 40000 10127 21005 36940 52008 81502 333 05303
70001=
52754 32580 73603 10080 20044 36837 57002 81102 333 05200
30047 70001=
52818 32980 12502 10145 20021 37254 52011 81042 333 05303=
52836 32980 51801 10117 20066 36925 52001 80002 333 05304
70009=
52955 32780 71402 10098 20050 37008 52005 82502 333 05201
70004=
53068 32780 72705 10205 20146 38930 49974 52012 85102 333
05304 70007=
53276 32480 62507 10208 20103 38759 49990 52008 82032 333
05202 79999=
54135 32980 72002 10228 20186 39868 40075 52007 85032 333
05101=
54236 31650 81801 10222 20207 39981 40079 52007 71000 86507
333 00000=
54539 NIL=
54662 32960 80901 10235 20216 39976 40083 52009 8807/ 333
00052=
54753 32760 80702 10246 20225 30067 40074 52005 885// 333
05152=
54857 31556 81104 10243 20227 39979 40066 52004 71000 8362/
333 05151=
57067 11458 80000 10204 20187 39421 40063 52008 60111 76066
8777/ 333 05153 70219=
57178 11350 83604 10229 20208 39888 40036 52018 60081 76060
8272/ 333 05153 70081=
57245 NIL=
57297 11630 81601 10259 20250 39890 40021 52007 69911 72160
885// 333 05201 70001=
####018000133####
SMSO02 AMMC 100000 CCC
AAXX 10003
91541 32580 60902 01295 20250 40130 52002 83266
  333 20245 56299 58018 83820 86280=


####018000107####
SMNO24 ENMI 100000 RRC
AAXX 10001
01389 11885 81403 10153 20088 39867 40148 58003 6//// 70321 8807/=
####018000145####
SMSO01 AMMC 100000 CCA
AAXX 10004
91503 31480 60906 10300 20257 40127 51009 70522 82956
  333 20226 56999 58012 82818 81919 86279=


####018000188####
SMCI02 BABJ 100000 RRA
AAXX 10001
58752 31640 70000 10285 20253 30023 40066 52006 71000 8253/
333 00003 70083=
59287 32580 71801 10296 20240 30045 40092 52010 84242 333
00100=
####018000529####
SMCI01 BABJ 100000 RRA
AAXX 10001
52533 32980 02202 10193 20116 38458 40008 52003 333 05500=
52652 32980 01602 10182 20113 38461 40023 52003 333 05400=
52866 32968 53601 10136 20095 37710 57002 82042 333 05303
79999=
53915 32980 13401 10165 20125 38609 40072 57001 81040 333
05253 70023=
54401 32665 71601 10196 20163 39238 40051 57004 879// 333
05153 70118=
56080 32970 72901 10061 20057 37187 52004 86032 333 00052
30036 70075=
56096 32980 10204 10181 20136 38899 40088 52007 80002 333
00257 70029=
####018000168####
SMCI31 BABJ 100000 RRA
AAXX 10001
57014 32965 82903 10162 20147 40094 52004 8807/ 333 00054
70060=
57025 32974 02902 10188 20168 40074 52003 333 05153 70114=
####018000281####
SMCI04 BABJ 100000 RRA
AAXX 10001
57866 32980 61604 10301 20235 39854 40046 52014 82042 333
00100=
58472 11258 71806 10254 20238 39965 40046 52007 69911 71080
8164/ 333 05151 70003=
58527 11562 83402 10239 20236 39977 40049 52008 60051 76098
8757/ 333 00051 70886=
####018000125####
SMCI05 BABJ 100000 RRA
AAXX 10001
57245 11562 82702 10213 20194 39730 40063 52017 60061 76166
8672/ 333 00155 70093=
####018000413####
SMCI03 BABJ 100000 RRA
AAXX 10001
52418 32980 71401 10202 20098 38781 49988 52007 81042 333
05551=
52681 32980 12202 10203 20101 38573 40016 52003 81042 333
05201=
53646 31958 81101 10170 20168 38784 40046 52009 72840 8802/
333 05252 70001=
53845 32968 02002 10201 20140 39000 40054 52002 333 05151
70002=
57131 11962 22201 10206 20178 39602 40072 52007 60021 70060
80002 333 00053 70244=
####018000242####
SIAA01 KARS 092100 RRH
AAXX 0921/
89869 46/// ///// 11298 39739 4//// 5//// 92130=
89866 46/// ///// 11209 39676 4//// 5//// 92130=
89332 46/// ///// 11375 38994 4//// 5//// 92130=
89314 46/// ///// 11324 38034 4//// 5//// 92140=
####018000135####
SNAU48 AMMC 092300 CCA
AAXX 09234
95323 11/80 73405 10152 20081 39430 40203 52025 60004 70222 87050
92330
  333 70000=


####018000119####
SMCI31 BABJ 100000 RRB
AAXX 10001
57046 11/40 71101 10130 20128 37922 52009 60141 72864 8653/
333 05153 70684=
####018000113####
SMCI02 BABJ 100000 RRB
AAXX 10001
58362 32580 82004 10277 20226 30031 40039 52010 8317/ 333
05200 70053=
####018000395####
SMCI01 BABJ 100000 RRC
AAXX 10001
51076 32680 70201 10201 20108 39195 40003 57004 82462 333
05603=
51243 32880 71101 10238 20098 39503 40008 57001 85402 333
05601 79999=
51463 32980 72003 10204 20090 39004 40017 57006 80002 333
05551=
51573 32980 70000 10240 20132 39954 49994 52004 80002 333
05452 79999=
51709 32865 53402 10241 20029 38644 49993 57002 83402 333
05301=
####018000125####
SMCI05 BABJ 100000 RRB
AAXX 10001
54539 11765 81102 10219 20207 30063 40077 52009 60111 76086
8752/ 333 05155 70180=
####018000530####
SMCI03 BABJ 100000 RRC
AAXX 10001
51133 11680 73602 10170 20125 39424 40026 57016 60021 72598
879// 333 05551 70029=
51431 11675 70901 10187 20142 39329 40070 52009 60011 70080
879// 333 05252 70011=
51747 32975 50000 10170 20117 38822 40003 52003 80002 333
05356 70025=
52203 32780 70000 10225 20149 39192 49996 52008 81132 333
05401=
53959 11960 82503 10201 20188 39657 40075 52008 60081 70060
8802/ 333 00155 70224=
54618 11959 80902 10219 20212 30047 40064 52007 60161 72166
8802/ 333 00054 70229=
####018000306####
SMCI31 BABJ 100000 RRC
AAXX 10001
51379 32780 21603 10166 20120 40033 52002 81402 333 05452
79999=
51467 32980 53404 10151 20064 38223 57006 80002 333 05451
70003=
51495 32980 73611 10262 20068 49994 52003 80002 333 05400=
54602 32960 81102 10230 20200 40055 52003 8802/ 333 05153
70092=
####018000107####
SMCI01 BABJ 100000 RRB
AAXX 10001
52983 32980 10401 10155 20103 38091 52004 81040 333 05402
70035=
####018000362####
SMCI05 BABJ 100000 RRC
AAXX 10001
51087 32980 21402 10205 20082 39129 40012 52001 80002 333
05503 79999=
51156 11780 72501 10157 20102 38639 40025 52002 69901 78000
86902 333 05301 79999=
51644 11680 73601 10191 20126 38858 40019 52013 69901 70098
86962 333 05351 79999=
51656 32780 70000 10216 20113 38999 40008 52001 82402 333
05651 70023=
####018000125####
SMCI03 BABJ 100000 RRB
AAXX 10001
57127 11772 63601 10210 20198 39494 40070 52006 69921 70060
84530 333 00253 70299=
####018000127####
SMVD22 KWNB 100000 RRN
BBXX
46221 10001 99339 71186 46/// ///// 1//// 92347 22200 00173 11301
21001 320// 41301 70007=
####018001267####
SMRA11 RUHB 100000
AAXX 10001
29998 31/93 90000 10097 20097 38576 48457 52002 74542 333 20080
55057=
30385 11599 60000 10145 20123 39628 40122 52008 69962 72582 85970 333
20114 55119=
30469 31699 20502 10172 20098 39401 40096 52011 70141 82100 333 20069
55119=
30636 32998 80000 10173 20124 39531 40087 52006 80007 333 20126=
30650 32999 12101 10165 20121 39068 40094 54000 80001 333 20103=
30664 32999 10000 10154 20115 39192 40105 52003 81040 333 20070
55128=
30781 31999 30000 10153 20146 39688 40123 52007 72840 80001 333
20095=
30777 32999 23401 10185 20141 39500 40096 53007 80002 333 20128
55077=
30844 32999 70902 10226 20183 39199 40076 52005 85031 333 20099=
30925 11599 81401 10161 20140 39189 40083 53009 60052 70282 82931 333
20144 55000=
31371 31599 60201 10189 20174 39870 40112 52004 70241 86900 333 20148
55047=
31388 11598 60000 10192 20165 39861 40102 52004 60042 70282 85930 333
20158 55136=
31478 12699 82301 10163 20129 39088 40092 54000 69930 889// 333
20124=
31532 11599 73401 10204 20168 39792 40103 52002 60020 70282 87900 333
20178 55043=
31594 32999 31603 10234 20177 39947 40101 52002 80001 333 20170=
31655 32599 70702 10175 20134 30082 40126 52004 86550 333 20158=
31754 NIL=
