####018000099####
SNMA20 FIMP 092200
AAXX 09224
61990 42470 41210 10224 20162 40185 84800
  333 59025 83818=
####018000105####
SISD20 OEJD 092100 RRA
AAXX 09214
40438 42960 50000 10368 20030 39347 49996 85030 333 59022 85360=
####018000109####
SISD21 OEJD 092100 RRB
AAXX 09214
41114 42960 00506 10260 20040 37952 48458 333 59007 555 04410 50009=
####018000102####
SICN03 CWAO 092100 RRE
AAXX 09214
71433 36/// /2910 10162 20135 39907 40133 58002 333 60001=

####018000084####
SICN01 CWAO 092100 RRB
AAXX 09214
71051 36/// /1907 10301 20065 333 60001=

####018000102####
SICN06 CWAO 092100 RRB
AAXX 09214
71841 26/// /2403 10205 20146 39731 40117 55004 333 69901=

####018000556####
SNVD15 KWNB 092200
BBXX
42362 09221 99278 70907 46/// /0501 10306 20217 40159 92145=
42364 09221 99291 70881 46/// /2402 10283 20211 40159 92145=
41025 09221 99350 70754 46/// /3107 10277 20225 40097 55003 92150
22200 00267 10402 20402 300// 40701 70012 333 91208 555 11070
22075 32055 42810 62149 312066 306066 284074 277079 276084 276088=
41012 09221 99300 70805 46/// /1805 10286 20249 40130 56016 92150
22200 00284 10801 20301 312// 40801 70004 333 91205 555 11049
22053 32054 41906 62149 176046 175043 178043 183047 182046 185047=
####018000228####
SNVD20 KWNB 092200
BBXX
44060 09221 99413 70721 46/// /1204 10219 40123 92145 22200 00200
333 91204 555 11041 22051=
44022 09221 99409 70737 46/// /1806 10277 20200 40108 92145 22200
00224 333 91207 555 11067 22082=
####018000400####
SNVD22 KWNB 092200
BBXX
46088 09221 99483 71232 46/// /2504 10140 40143 57007 92150 22200
00124 1//00 70002 333 91205 555 11047 22050 32148 42405 62149
244044 240042 241040 244039 240037 234034=
46053 09221 99342 71198 46/// /2505 10150 40131 58009 92150 22200
00172 10401 20401 328// 40501 70006 333 91206 555 11052 22054
32125 42706 62149 250049 255049 263049 266046 271042 258037=
####018000229####
SNVD19 KWNB 092200
BBXX
46073 09221 99550 71720 46/// /0410 10066 20066 49936 51004 92150
22200 00060 10806 20805 300// 41103 70028 333 91212 555 11098
22106 32103 40413 62149 040098 039103 039104 038105 042109 041108=
####018000125####
SNVD45 KWNB 092200 RRA
BBXX
45022 09221 99454 70851 46/// /3302 10206 40160 92150 22200 00197
10201 70003 333 91203=
####018000095####
SNAU40 AMMC 091000 RRA
AAXX 09104
94316 /57// 22210 10178 20067 39640 40130 53018=


####018000095####
SNAU40 AMMC 091000 CCA
AAXX 09104
94316 /57// 22210 10178 20067 39640 40130 53018=


####018000071####
SALY31 HLLS 092200
METAR HLLS 092150Z O8O11KT  CAVOK  29/1O Q1O16=
####018000210####
SIID20 WIIX 092100 RRA
AAXX 09214
96749 31550 51602 10250 20222 30085 40098 58018 70522 81521
  333 56000 81620 85460=
96935 32557 42504 10248 20226 30101 40107 55006 81531
  333 56000 81620 83080=
####018000121####
SIID21 WIIX 092100 RRA
AAXX 09214
96529 31440 40000 10225 20225 30102 40115 58020 71011 83131
  333 56000 83818=
####018000115####
SNAU40 AMMC 091300 RRA
AAXX 09134
94316 /5/// /2109 10153 20044 39666 40157 52026 60002
  333 10224=


####018000115####
SNAU40 AMMC 091300 CCA
AAXX 09134
94316 /5/// /2109 10153 20044 39666 40157 52026 60002
  333 10224=


