####018000113####
SNAU45 AMMC 091700 CCI
AAXX 09174
95654 17/// /3626 10106 2//// 39960 40065 52022 60083 7//44 91730=


####018000095####
SNAU46 AMMC 092000 RRA
AAXX 09204
95811 41510 83415 10129 20100 78188 882// 92030=


####018000307####
SMXX17 KAWN 091800 RRD
BBXX
NWS0001 09184 99598 71736 43/// /0320 10072 20058 40081 5////
 7//// 8//// 222// 04063 2//// 3//// 4//// 5//// 6//// 8//// ICE
 ////=
WTEP 09184 99598 71735 41898 60319 10075 20057 40081 54/// 70122
 86/8/ 22283 00064 20402 303// 40604 5//// 6//// 80066 ICE /////=
####018000142####
SMZR01 FZAA 091800
AAXX 09184
64005 NIL=
64040 NIL=
64210 32956 02704 10248 20200  39747 40101
  333 10290 59006=
64360 NIL=

####018000138####
SMNR01 DRRN 091800
AAXX 09184
61052 32560 52206 10340 20218 39822 40072 82902
  333 10358 59008 81630 81940 83080 94946 95876=

####018000425####
SMCM01 FKKD 091800
AAXX 09184
64851 NIL=

64860 31570 70000 10288 20255 39825 40093 71322 8296/
  333 10320 59006 82620 82923 87363 94959 95839=
64870 NIL=
64880 NIL=
64890 NIL=
64893 NIL=
64900 NIL=
64901 NIL=

64910 11470 72204 10260 20246 30260 40122 60022 70296 86960
  333 0//16 10282 59002 85616 82920 87362 94959 95839=
64920 NIL=
64930 NIL=
64950 NIL=
64960 NIL=
64971 NIL=

####018000135####
SMNR01 DRRN 091800
AAXX 09184
61052 32560 52206 10340 20218 39822 40072 82902
  333 10358 59008 81630 81940 83080 94946 95876=
####018000139####
SMZR01 FZAA 091800
AAXX 09184
64005 NIL=
64040 NIL=
64210 32956 02704 10248 20200  39747 40101
  333 10290 59006=
64360 NIL=
####018000107####
SNAU47 AMMC 092000 RRB
AAXX 09204
94258 41984 00501 10104 20096 30099 40170 51006 70200 92030=


####018000422####
SMCM01 FKKD 091800
AAXX 09184
64851 NIL=

64860 31570 70000 10288 20255 39825 40093 71322 8296/
  333 10320 59006 82620 82923 87363 94959 95839=
64870 NIL=
64880 NIL=
64890 NIL=
64893 NIL=
64900 NIL=
64901 NIL=

64910 11470 72204 10260 20246 30260 40122 60022 70296 86960
  333 0//16 10282 59002 85616 82920 87362 94959 95839=
64920 NIL=
64930 NIL=
64950 NIL=
64960 NIL=
64971 NIL=
####018000128####
SNAA17 LFVW 091900 RRC
AAXX 09194
89578 46/// /08// 11547 36770 4//// 5////=
89577 46/// /3003 11735 30600 4//// 5////=
####018000089####
SNAA19 LFVW 091900 RRA
AAXX 09194
89662 46/// /2832 11168 29033 39670 4//// 5////=
####018000089####
SNAA20 LIIB 091900 RRA
AAXX 09194
89662 46/// /2832 11168 29033 39670 4//// 5////=
####018000728####
SMGH20 DGAA 091800
AAXX  09184

65420 11462 73206 10240 20223 40109 60052 72996 8257/ 333 10315
59014 82612 87461=

65439 11463 71907 10278 20240 40104 69902 71796 8593/ 333 59005
85610 87362 81930 94582 95701=

65450 11468 62304 10245 20223 40109 69912 71796 84932 333 10285
59001 84814 84362 81930 94635 95704=

65459 11463 70000 10261 20240 40131 69952 79596 879// 333 10322
58000 87612 81930 94572 95708=

65460 NIL=

65462 11466 61804 10280 20236 40106 69902 72162 84830 333 10310
58003 82611 83816 85360=

65465 32468 71806 10265 20239 40125 875// 333 10292 59003 87611=

65469 11470 72303 10255 20244 40121 69942 70192 8453/ 333 10279
58001 84612 87362=

65473 NIL=

####018000085####
SIJD50 OJAM 092100
AAXX 09214
40255 42960 00000 10224 20184 39408 40091 51002=
####018000725####
SMGH20 DGAA 091800
AAXX  09184

65420 11462 73206 10240 20223 40109 60052 72996 8257/ 333 10315
59014 82612 87461=

65439 11463 71907 10278 20240 40104 69902 71796 8593/ 333 59005
85610 87362 81930 94582 95701=

65450 11468 62304 10245 20223 40109 69912 71796 84932 333 10285
59001 84814 84362 81930 94635 95704=

65459 11463 70000 10261 20240 40131 69952 79596 879// 333 10322
58000 87612 81930 94572 95708=

65460 NIL=

65462 11466 61804 10280 20236 40106 69902 72162 84830 333 10310
58003 82611 83816 85360=

65465 32468 71806 10265 20239 40125 875// 333 10292 59003 87611=

65469 11470 72303 10255 20244 40121 69942 70192 8453/ 333 10279
58001 84612 87362=

65473 NIL=
####018000087####
SNAA20 LIIB 091900 RRA
AAXX 09194
89662 46/// /2832 11168 29033 39670 4//// 5////=
####018000107####
SNAU49 AMMC 092000 RRB
AAXX 09204
94356 41670 71302 10150 20123 39863 40202 52011 70322 87400=


####018000191####
SNAA01 KARS 091900 RRG
AAXX 0919/
89108 46/// ///// 11623 36891 4//// 5//// 91940=
89769 46/// ///// 11271 39739 4//// 5//// 91940=
89314 46/// ///// 11323 38042 4//// 5//// 91940=
####018000241####
SNHK22 VHHH 092045
AAXX 09201
45032 36/// /1901 10272 20241 30070 40086 52001=
45035 36/// /1802 10266 20235 30042 40083 52001=
45039 36/// /2103 10289 20246 30064 40078 54000=
45044 36/// /2007 10262 20246 39994 40084 54000=

####018000238####
SNHK22 VHHH 092045
AAXX 09201
45032 36/// /1901 10272 20241 30070 40086 52001=
45035 36/// /1802 10266 20235 30042 40083 52001=
45039 36/// /2103 10289 20246 30064 40078 54000=
45044 36/// /2007 10262 20246 39994 40084 54000=
####018000151####
SMID02 WIIX 091800 RRB
AAXX 09184
97048 31460 60000 10248 20235 30078 40102 57005 71322 84931
  333 56000 57901 57801 81917 80980 83817 80860=
####018000113####
SNAU44 AMMC 092000 RRA
AAXX 09204
94673 41/60 83124 10110 20090 39773 40150 52033 76022 88020 92030=


####018000450####
SNVD15 KWNB 092000 RRT
BBXX
42369 09201 99272 70903 46/// /1101 10284 91940 22200 10501 70006=
42370 09201 99273 70905 46/// ///02 10289 91940 22200 10401 70006=
42374 09201 99289 70881 46/// ///01 10303 40151 91940=
42376 09201 99291 70879 46/// /2502 10284 40141 91940 22200 10201
70005=
42392 09201 99272 70900 46/// ///// 1//// 91940 22200 10401 70005=
42887 09201 99282 70885 46/// /0000 10295 20235 91940 22200 10601
70007=
####018000103####
SMTH41 VTBB 091800 RRC
AAXX 09184
48570 32560 40000 10260 20246 30105 40112 82105
  333 58001=
