####018000221####
SICI22 BABJ 092100 RRA
AAXX 09211
58238 41430 81402 10254 20245 40021 57006 78060 889// 333//
70017=
58362 42970 70902 10262 20231 40029 57009 8703/ 333 70053=
59287 42576 61602 10285 20239 40082 54000 86102=
####018000115####
SMID01 WIIX 091800 RRB
AAXX 09184
96221 32960 30000 10263 20245 30085 40100 57001 80001
  333 56009 83080=
####018001135####
SIPO21 LPMG 092100
AAXX 09211
08501 42/// /3102 10197 20148 30185 40220 52010 
333  91106=
08505 41470 52904 10215 20193 30161 40211 51003 72522 83832
333 82812=
08509 41458 73203 10218 20207 30153 40216 52008 78082 878// 333
      85814 84635 91110=
08512 42375 52405 10204 20188 30140 40231 52004 84832
333  81707 83811=
08515 41380 52603 10208 20189 30125 40238 52004  70182 82202
333  81708 91106=
08533 42/// /0108 10192 20166 30162 40190 52006 
333  91112=
08541 42/// /3403 10183 20157 30083 40200 52010 
333  91006 91110=
08545 41960 20000 10168 20144 30132 40214 52001  70200 80002
333  82075=
08548 42/// /3101 10174 20129 30015 40217 52010=
08554 42965 03204 10292 20152 30165 40174 52006=
08558 42/// /3206 10244 20135 39901 40183 52012 
333  91009 91109=
08560 42/// /2802 10191 20150 39472 40207 52010=
08567 42/// /9902 10208 20197 39558 40199 52009 
333  91105=
08570 42/// /2803 10260 20162 39736 40172 52010 
333  91105=
08575 42/// /2603 10235 20156 39411 40184 52011 
333  91006 91107=
08579 42/// /3504 10201 20133 30081 40204 52008 
333  91007 91109=
####018001141####
SIPO21 LPMG 092100
AAXX 09211
08501 42/// /3102 10197 20148 30185 40220 52010 
333  91106=
08505 41470 52904 10215 20193 30161 40211 51003 72522 83832
333 82812=
08509 41458 73203 10218 20207 30153 40216 52008 78082 878// 333
      85814 84635 91110=
08512 42375 52405 10204 20188 30140 40231 52004 84832
333  81707 83811=
08515 41380 52603 10208 20189 30125 40238 52004  70182 82202
333  81708 91106=
08533 42/// /0108 10192 20166 30162 40190 52006 
333  91112=
08541 42/// /3403 10183 20157 30083 40200 52010 
333  91006 91110=
08545 41960 20000 10168 20144 30132 40214 52001  70200 80002
333  82075=
08548 42/// /3101 10174 20129 30015 40217 52010=
08554 42965 03204 10292 20152 30165 40174 52006=
08558 42/// /3206 10244 20135 39901 40183 52012 
333  91009 91109=
08560 42/// /2802 10191 20150 39472 40207 52010=
08567 42/// /9902 10208 20197 39558 40199 52009 
333  91105=
08570 42/// /2803 10260 20162 39736 40172 52010 
333  91105=
08575 42/// /2603 10235 20156 39411 40184 52011 
333  91006 91107=
08579 42/// /3504 10201 20133 30081 40204 52008 
333  91007 91109=
####018000257####
SICI23 BABJ 092100 RRB
AAXX 09211
51133 41670 83603 10164 20128 40039 52005 78098 889// 333
05451 70024=
51431 41675 70702 10189 20135 40053 52006 72580 879// 333
05351 70011=
53959 41959 82502 10199 20189 40066 52001 76166 8802/ 333
70217=
####018000168####
SICI21 BABJ 092100 RRB
AAXX 09211
51243 42880 43402 10232 20089 40009 57011 82402 333 05600
79999=
51709 42862 22704 10253 20027 49989 57006 82402 333 05402=
####018001127####
SIPO21 LPMG 092100
AAXX 09211
08501 42/// /3102 10197 20148 30185 40220 52010
333  91106=
08505 41470 52904 10215 20193 30161 40211 51003 72522 83832
333 82812=
08509 41458 73203 10218 20207 30153 40216 52008 78082 878// 333
      85814 84635 91110=
08512 42375 52405 10204 20188 30140 40231 52004 84832
333  81707 83811=
08515 41380 52603 10208 20189 30125 40238 52004  70182 82202
333  81708 91106=
08533 42/// /0108 10192 20166 30162 40190 52006
333  91112=
08541 42/// /3403 10183 20157 30083 40200 52010
333  91006 91110=
08545 41960 20000 10168 20144 30132 40214 52001  70200 80002
333  82075=
08548 42/// /3101 10174 20129 30015 40217 52010=
08554 42965 03204 10292 20152 30165 40174 52006=
08558 42/// /3206 10244 20135 39901 40183 52012
333  91009 91109=
08560 42/// /2802 10191 20150 39472 40207 52010=
08567 42/// /9902 10208 20197 39558 40199 52009
333  91105=
08570 42/// /2803 10260 20162 39736 40172 52010
333  91105=
08575 42/// /2603 10235 20156 39411 40184 52011
333  91006 91107=
08579 42/// /3504 10201 20133 30081 40204 52008
333  91007 91109=
####018000234####
SIZW20 FVHA 092100
AAXX 09214
67765 NIL=
67767 NIL=
67775 42780 10904 10111 20062 38562 48565 81500 333 59027 81656=
67779 NIL=
67843 NIL=
67853 NIL=
67861 NIL=
67881 NIL=
67975 NIL=
67977 NIL=
67983 NIL=

####018000096####
SMCN31 CWAO 040600 RRZ
AAXX 04064
71163 46/// ///// 10127 39680 58005 6///1 333 7////=

####018000116####
SMCN31 CWAO 041800 RRZ
AAXX 04184
71163 46/// ///// 10153 39672 49998 51001 6///1 333 10153 20092
7////=

####018000116####
SMCN31 CWAO 050600 RRZ
AAXX 05064
71163 46/// ///// 10105 39704 40032 53012 6///1 333 10164 20092
7////=

####018000116####
SMCN31 CWAO 051800 RRZ
AAXX 05184
71163 46/// ///// 10123 39753 40083 52017 6///1 333 10127 20051
7////=

####018000116####
SMCN31 CWAO 071800 RRZ
AAXX 07184
71163 46/// ///// 10191 39828 40158 50001 6///1 333 10194 20125
7////=

####018000116####
SMCN31 CWAO 061800 RRZ
AAXX 06184
71163 46/// ///// 10148 39820 40152 52009 6///1 333 10154 20063
7////=

####018000116####
SMCN31 CWAO 070000 RRZ
AAXX 07004
71163 46/// ///// 10189 39827 40158 50005 6///1 333 10191 20063
7////=

####018000108####
SMCN31 CWAO 041200 RRZ
AAXX 04124
71163 46/// ///// 10119 39671 49996 56003 6///1 333 20092 7////=

####018000116####
SMCN31 CWAO 080600 RRZ
AAXX 08064
71163 46/// ///// 10157 39819 40148 56001 6///1 333 10229 20125
7////=

####018000116####
SMCN31 CWAO 081800 RRZ
AAXX 08184
71163 46/// ///// 10207 39801 40129 58013 6///1 333 10212 20095
7////=

####018000116####
SMCN31 CWAO 070600 RRZ
AAXX 07064
71163 46/// ///// 10140 39825 40156 50001 6///1 333 10196 20063
7////=

####018000116####
SMCN31 CWAO 060600 RRZ
AAXX 06064
71163 46/// ///// 10103 39796 40128 51009 6///1 333 10154 20051
7////=

####018000116####
SMCN31 CWAO 060000 RRZ
AAXX 06004
71163 46/// ///// 10131 39775 40106 51010 6///1 333 10154 20051
7////=

####018000116####
SMCN31 CWAO 050000 RRZ
AAXX 05004
71163 46/// ///// 10151 39686 40013 51007 6///1 333 10164 20092
7////=

####018000116####
SMCN31 CWAO 051200 RRZ
AAXX 05124
71163 46/// ///// 10104 39723 40052 52010 6///1 333 10164 20051
7////=

####018000096####
SMCN31 CWAO 040000 RRZ
AAXX 04004
71163 46/// ///// 10212 39686 50000 6///1 333 7////=

####018000116####
SMCN31 CWAO 061200 RRZ
AAXX 06124
71163 46/// ///// 10096 39809 40141 53008 6///1 333 10154 20063
7////=

####018000116####
SMCN31 CWAO 080000 RRZ
AAXX 08004
71163 46/// ///// 10216 39819 40148 58005 6///1 333 10229 20125
7////=

####018000116####
SMCN31 CWAO 071200 RRZ
AAXX 07124
71163 46/// ///// 10150 39824 40153 50001 6///1 333 10196 20125
7////=

####018000116####
SMCN31 CWAO 081200 RRZ
AAXX 08124
71163 46/// ///// 10147 39818 40147 58002 6///1 333 10229 20095
7////=

####018000215####
SIRH50 LDZM 092100
AAXX 09211
14235 42960 0//// 10165 20085 39107 48576 51006=
14246 NIL=
14314 NIL=
14323 NIL=
14324 NIL=
14328 NIL=
14330 NIL=
14438 NIL=
14443 NIL=
14447 NIL=
14472 NIL=
####018001247####
SICI31 BABJ 092100
AAXX 09211
50844 42962 60902 10175 20169 40088 52006 80002=
50854 42970 20702 10169 20154 40089 52002 80002=
50968 41656 20202 10167 20167 40096 52011 71000 82500 333
70013=
51379 42780 11604 10142 20098 40036 57011 81400 333 05552
79999=
51467 42980 13602 10156 20066 38229 57002 80002 333 05351
70003=
51495 42980 23410 10244 20071 49988 57009 80002 333 05551=
53480 42980 72002 10157 20102 40036 57004 80002 333 70019=
53673 41957 83202 10186 20169 40072 52012 71000 8807/ 333
70475=
53698 41956 82201 10224 20210 40050 57004 72160 8802/ 333
70444=
53898 41940 80701 10206 20198 40050 57003 76066 8802/ 333
70064=
54308 41670 81403 10176 20163 40055 54000 78000 82907 333
70040=
54602 42960 80000 10219 20193 40052 57007 8802/ 333 70091=
54725 41660 80702 10230 20222 40046 54000 76066 885// 333
70015=
54751 41956 80202 10218 20208 40066 52008 71000 8807/=
54916 41661 80902 10243 20206 40039 57003 78000 8347/ 333
79999=
57014 42965 82902 10158 20150 40087 57006 8807/ 333 00257
70061=
57025 42970 03402 10155 20150 40074 57008 333 70114=
57046 41/00 90701 10129 20127 37913 57005 76264 333 05153
70723=
58208 41950 80000 10263 20251 40014 57003 71000 8807/=
####018001345####
SIRS21 RUMS 092100
AAXX 09211
20107 41599 81304 10080 20062 30019 40111 53004 78082 889// 333 85623
91005=
22113 NIL=
22217 41395 80401 10140 20134 30093 40124 56002 78082 889// 333 86708
91002=
22235 41570 80000 10179 20169 39932 40115 57007 70282 8295/=
22349 41596 71001 10111 20109 30109 40120 58018 71098 87900 333
91002=
22408 NIL=
22602 41475 72602 10195 20154 39925 40136 52005 70282 87900 333
84910=
22619 NIL=
22721 42964 70000 10198 20193 30042 40137 52004 87030=
22802 41950 70000 10186 20184 30136 40158 52006 71222 84071=
22820 42999 32602 10214 20184 30022 40151 52013 83030=
26059 42997 62901 10194 20169 30167 40191 53015 82031=
26063 42497 82503 10209 20177 30176 40183 52011 82540=
26094 42970 52502 10192 20184 30101 40173 52008 85030=
26157 42998 33002 10218 20162 30153 40200 52015 80001=
26167 42965 82201 10191 20184 30084 40190 52009 80001=
26258 42598 63101 10210 20174 30141 40193 52012 82901=
26298 41996 20000 10192 20181 39969 40186 52009 71011 80001=
26359 42970 60000 10184 20176 30076 40204 52006 80001=
26702 41996 00000 10171 20139 30205 40230 52007 71000 333 91000
91102=
26781 42997 23501 10214 20181 39911 40185 52007 80001=
27208 41993 40000 10187 20187 30012 40180 51004 74441 84030=
27402 41997 60000 10200 20186 30014 40184 52010 71222 80001=
####018001008####
SIRS23 RUMS 092100
AAXX 09211
22271 41498 71306 10080 20067 30144 40154 57009 72582 87300=
22520 41496 71501 10176 20171 30108 40117 52001 71082 82930=
22550 41997 60000 10186 20180 30113 40123 58004 70298 86060=
22583 42984 20701 10152 20105 30083 40160 53001 80002=
22768 42697 21502 10252 20166 30087 40139 53002 82501=
22845 41898 50000 10207 20188 30004 40150 52008 70292 82041=
22887 41997 51601 10195 20189 30089 40155 52005 71022 82031 333
91102=
23205 NIL=
23219 NIL=
23418 41350 83602 10100 20088 30096 40168 52002 78082 889// 333
86708=
23606 42962 00000 10114 20106 39993 40158 52004=
23711 02903 10132 20115 39990 40156 52003=
23804 42997 02301 10184 20168 30014 40153 52008=
27037 42698 22301 10206 20175 30018 40169 52007 82500=
27199 42998 50000 10210 20181 39970 40153 52001 80002=
27271 42997 20000 10186 20178 30026 40173 52006 81032=
27459 42998 10000 10239 20181 39990 40171 52007 81030=
27730 42998 20601 10212 20151 39986 40168 52006 80001=
####018001555####
SIRS20 RUMS 092100
AAXX 09211
26997 41956 20101 10203 20187 39967 40174 52002 71011 80001=
27595 32997 00000 10259 20165 30016 40152 52004=
27612 419// 00000 10220 20200 30002 40182 52011 71011=
27707 42970 03602 10230 20194 39903 40176 52005=
27719 42997 20000 10224 20181 39944 40178 52006 82030=
27786 42997 22902 10208 20152 30012 40162 52008 80001=
27857 42997 00000 10184 20160 30014 40168 52007=
27906 42597 53302 10216 20181 39940 40166 52008 82301=
27928 42997 20301 10230 20184 39964 40156 52004 82030=
27947 42697 30000 10205 20151 30016 40166 51003 82530=
27962 32997 00000 10186 20125 40166 53002=
27983 42971 02602 10238 20129 30038 40157 52005=
27995 42976 02601 10223 20143 40153 52004=
28506 42997 00000 10220 20141 30043 40149 52001=
28704 42998 03301 10201 20151 30064 40155 52005=
28711 42997 00000 10221 20120 39803 40151 52001=
28807 42997 02902 10198 20139 30104 40152 52006=
34009 42997 03601 10242 20160 39872 40155 52003=
34110 42997 00202 10238 20166 39888 40146 52001=
34123 42997 30202 10246 20148 39979 40150 52003 83030=
34152 42984 00702 10243 20142 39967 40148 52008=
34163 42998 00501 10233 20125 40154 52002=
34172 42960 00102 10250 20125 39975 40153 52007=
34186 42980 00102 10236 20086 30022 40150 52007=
34247 42967 00000 10203 20164 30042 40149 52007=
34336 42998 80201 10257 20161 30032 40128 53008 80005=
34391 42997 10702 10233 20051 30107 40136 52010 80001=
35011 42984 00000 10222 20111 40142 52001=
35121 42998 00000 10222 20101 39999 40135 52004=
####018000113####
SMCN31 CWAO 041800 RRZ
AAXX 04184
71163 46/// ///// 10153 39672 49998 51001 6///1 333 10153 20092
7////=
####018000113####
SMCN31 CWAO 071800 RRZ
AAXX 07184
71163 46/// ///// 10191 39828 40158 50001 6///1 333 10194 20125
7////=
####018000113####
SMCN31 CWAO 061800 RRZ
AAXX 06184
71163 46/// ///// 10148 39820 40152 52009 6///1 333 10154 20063
7////=
####018000113####
SMCN31 CWAO 070600 RRZ
AAXX 07064
71163 46/// ///// 10140 39825 40156 50001 6///1 333 10196 20063
7////=
####018000113####
SMCN31 CWAO 081800 RRZ
AAXX 08184
71163 46/// ///// 10207 39801 40129 58013 6///1 333 10212 20095
7////=
####018000113####
SMCN31 CWAO 051200 RRZ
AAXX 05124
71163 46/// ///// 10104 39723 40052 52010 6///1 333 10164 20051
7////=
####018000113####
SMCN31 CWAO 060000 RRZ
AAXX 06004
71163 46/// ///// 10131 39775 40106 51010 6///1 333 10154 20051
7////=
####018000113####
SMCN31 CWAO 061200 RRZ
AAXX 06124
71163 46/// ///// 10096 39809 40141 53008 6///1 333 10154 20063
7////=
####018000093####
SMCN31 CWAO 040000 RRZ
AAXX 04004
71163 46/// ///// 10212 39686 50000 6///1 333 7////=
####018000113####
SMCN31 CWAO 070000 RRZ
AAXX 07004
71163 46/// ///// 10189 39827 40158 50005 6///1 333 10191 20063
7////=
####018000113####
SMCN31 CWAO 051800 RRZ
AAXX 05184
71163 46/// ///// 10123 39753 40083 52017 6///1 333 10127 20051
7////=
####018000093####
SMCN31 CWAO 040600 RRZ
AAXX 04064
71163 46/// ///// 10127 39680 58005 6///1 333 7////=
####018000113####
SMCN31 CWAO 050000 RRZ
AAXX 05004
71163 46/// ///// 10151 39686 40013 51007 6///1 333 10164 20092
7////=
####018000113####
SMCN31 CWAO 080600 RRZ
AAXX 08064
71163 46/// ///// 10157 39819 40148 56001 6///1 333 10229 20125
7////=
####018000113####
SMCN31 CWAO 050600 RRZ
AAXX 05064
71163 46/// ///// 10105 39704 40032 53012 6///1 333 10164 20092
7////=
####018000113####
SMCN31 CWAO 081200 RRZ
AAXX 08124
71163 46/// ///// 10147 39818 40147 58002 6///1 333 10229 20095
7////=
####018000113####
SMCN31 CWAO 071200 RRZ
AAXX 07124
71163 46/// ///// 10150 39824 40153 50001 6///1 333 10196 20125
7////=
####018000113####
SMCN31 CWAO 060600 RRZ
AAXX 06064
71163 46/// ///// 10103 39796 40128 51009 6///1 333 10154 20051
7////=
####018000105####
SMCN31 CWAO 041200 RRZ
AAXX 04124
71163 46/// ///// 10119 39671 49996 56003 6///1 333 20092 7////=
####018000113####
SMCN31 CWAO 080000 RRZ
AAXX 08004
71163 46/// ///// 10216 39819 40148 58005 6///1 333 10229 20125
7////=
####018000278####
SIAG02 SABM 092100 RRA
AAXX 09213
87007 41965 00505 10133 21243 36730 47138 56004 70500=
87016 41540 40906 10218 20114 39757 40167 53005 70410 82150
333 82820=
87270 41960 01808 10164 20096 30145 40209 53001 70400=
87349 42970 00000 10158 20017 39832 40240 56004=
####018000758####
SIAA01 SAWB 092100 RRA
AAXX 09214
88963 41200 82340 11122 21147 39648 49678 57025 77173 887// 333 56599 88705
90068 90093 90266 92993 96039=
88968 41205 83238 10000 21011 39872 49887 57015 77173 8772/ 333 56559 87704
88530 90062 90090 90263 90296 90463 92732 92804 92962 94070 95090 96038=
89034 42975 01820 11270 21385 39638 49988 54000 333 92840=
89053 41310 80915 11060 21075 39702 49717 52017 77573 8562/ 333 56209 85707
85535 90014 90090 90114 90106 90261 90286 92423 92732 92813 92913 93109 94070
94056 94479 95070 96036 96410 97622 98510=
89055 41/00 92335 11156 21174 39445 57027 73933 333 90064 90090 92736 92816
92953 95190=
89066 42970 40000 11054 21075 39760 49769 57005 80008 333 56007 84270 92417
92733 94020 95000=
####018001356####
SIAG02 SABM 092100
AAXX 09214
87022 42960 80000 10198 20120 39647 40162 53003 8807/ 333 56009
88360=
87046 41962 11808 10196 20074 39150 48522 53003 70500 81060 333
56000 81360=
87047 42968 00711 10167 20061 38826 48533 53001=
87121 41956 02302 10194 20091 39678 40203 56008 70400=
87129 42965 01805 10203 21016 39975 40214 55014=
87217 41965 00000 10210 20073 39695 40194 5/009 70500=
87222 42970 02004 10209 20048 39656 40190 56015=
87244 NIL=
87257 42965 01602 10178 20036 30109 40215 56001=
87311 42965 11604 10158 20006 39522 40226 57012 80004 333 56000
81070=
87320 42970 00000 10201 20003 39662 40199 57008=
87328 42980 00000 10183 20022 39546 40213 55007 333 95000=
87344 42962 00906 10153 21013 39676 40240 55003=
87371 42962 01808 10161 20097 30210 40232 53003=
87416 42965 20502 10160 21004 39454 40219 56009 80004 333 56005
82072=
87418 41957 20904 10142 21034 39400 40214 55007 70400 81071
333 56066 81360=
87436 42970 12706 10181 21016 39384 40206 55004 80005 333 56005
81270=
87448 42965 00912 10155 21017 39654 40237 57008=
87453 42965 03606 10138 20003 39738 40241 56001=
87467 42970 01406 10134 20043 30096 40236 53008=
87506 42970 20000 10110 21015 38608 48528 56011 81042 333 56056
57343 81360 95000=
87509 42970 20510 10146 21047 39338 40217 55012 80006 333 56007
82270=
####018003056####
SIKZ20 UAAA 092100
AAXX 09211
28679 426// 83301 10122 20092 39935 40095 58002 889//=
28766 425// 80301 10130 20082 39925 40105 54000 885//=
28867 NIL=
28879 426// 83503 10123 20067 39822 40094 58001 885//=
28952 NIL=
28966 425// 32702 10128 20054 39828 40096 52001 83300=
29802 414// 82801 10120 20101 39915 40050 54000 71022 86501=
29807 425// 80000 10134 20071 39938 40049 58006 885//=
34691 42998 03602 10300 20058 30103 40092 52006=
35067 425// 20201 10152 20026 39844 40103 52004 82500=
35078 425// 73503 10128 20038 39735 40093 51002 87500=
35085 425// 80103 10129 20075 39627 40074 54000 885//=
35108 42997 00501 10210 20119 30097 40140 52007=
35188 429// 40102 10139 20063 39662 40069 53002 80030=
35217 42997 00302 10231 20032 30092 40128 52007=
35229 429// 02801 10188 20065 39870 40124 53003=
35302 429// 00504 10250 20058 30110 40128 52011=
35357 429// 02503 10141 20006 39655 40062 57008=
35394 42998 80000 10118 20032 39429 40068 57011 80007=
35406 429// 01003 10274 20042 30111 40113 52014=
35416 42997 00000 10263 20032 30016 40126 52009=
35426 42999 00000 10191 20051 39857 40129 52002=
35497 429// 00000 10106 20051 39326 40084 58006=
35532 42998 00000 10220 20048 39676 40132 52003=
35671 42998 03602 10191 20052 39694 40091 58001=
35700 42998 01201 10282 20151 30120 40099 52009=
35746 429// 00502 10214 20032 30030 40105 52001=
35796 42997 00210 10175 20045 39640 40041 52016 333   91117=
35849 42998 00202 10213 20081 30027 40105 52009=
35925 429// 20904 10280 21007 40049 58004 80002=
35953 429// 00209 10229 20019 39967 40086 52011=
35969 429// 00201 10203 20004 39924 40084 52016=
36003 42598 72901 10131 20104 39903 40047 57005 84950=
36152 425// 63101 10133 20070 39876 40052 58010 85202=
36177 425// 73003 10156 20079 39826 40054 58002 82330=
36208 415// 70000 10108 20102 39129 40048 58018 70298 87300=
36397 426// 62502 10129 20101 39511 40034 58008 86300=
36428 416// 60000 10118 20103 39563 40031 57008 71311 83941 333  
95090=
36535 426// 60000 10136 20075 39447 40034 57005 85530=
36639 415// 80303 10150 20127 39470 40029 57003 78098 889//=
36821 415// 20000 10221 20139 39556 49998 53006 71322 82900=
36859 415// 80000 10188 20159 39341 40060 58005 70298 8597/=
36864 NIL=
36870 415// 71006 10220 20091 39113 40038 54000 72582 85932=
38001 42997 40504 10309 20206 30134 40107 57002 84030=
38062 429// 00204 10231 20064 39922 40071 52012=
38069 429// 00602 10235 20019 39881 40056 52010=
38196 42698 23402 10233 20061 39146 40042 58006 82500=
38198 415// 61001 10280 20129 39782 40015 58005 71382 86900=
38222 42997 01404 10222 20164 39517 40027 58005=
38232 42998 03104 10302 20017 39977 40066 52003=
38328 415// 51105 10206 20151 39369 40041 53005 72998 85900 333  
91116=
38334 41598 51405 10222 20119 39154 40035 53001 71998 85900=
38341 41997 71901 10239 20138 39333 40048 52019 72992 85042=
38343 42697 82302 10260 20074 39256 40018 57002 8693/=
38439 42998 01406 10261 20168 39694 40000 57020=
####018003052####
SIKZ20 UAAA 092100
AAXX 09211
28679 426// 83301 10122 20092 39935 40095 58002 889//=
28766 425// 80301 10130 20082 39925 40105 54000 885//=
28867 NIL=
28879 426// 83503 10123 20067 39822 40094 58001 885//=
28952 NIL=
28966 425// 32702 10128 20054 39828 40096 52001 83300=
29802 414// 82801 10120 20101 39915 40050 54000 71022 86501=
29807 425// 80000 10134 20071 39938 40049 58006 885//=
34691 42998 03602 10300 20058 30103 40092 52006=
35067 425// 20201 10152 20026 39844 40103 52004 82500=
35078 425// 73503 10128 20038 39735 40093 51002 87500=
35085 425// 80103 10129 20075 39627 40074 54000 885//=
35108 42997 00501 10210 20119 30097 40140 52007=
35188 429// 40102 10139 20063 39662 40069 53002 80030=
35217 42997 00302 10231 20032 30092 40128 52007=
35229 429// 02801 10188 20065 39870 40124 53003=
35302 429// 00504 10250 20058 30110 40128 52011=
35357 429// 02503 10141 20006 39655 40062 57008=
35394 42998 80000 10118 20032 39429 40068 57011 80007=
35406 429// 01003 10274 20042 30111 40113 52014=
35416 42997 00000 10263 20032 30016 40126 52009=
35426 42999 00000 10191 20051 39857 40129 52002=
35497 429// 00000 10106 20051 39326 40084 58006=
35532 42998 00000 10220 20048 39676 40132 52003=
35671 42998 03602 10191 20052 39694 40091 58001=
35700 42998 01201 10282 20151 30120 40099 52009=
35746 429// 00502 10214 20032 30030 40105 52001=
35796 42997 00210 10175 20045 39640 40041 52016 333   91117=
35849 42998 00202 10213 20081 30027 40105 52009=
35925 429// 20904 10280 21007 40049 58004 80002=
35953 429// 00209 10229 20019 39967 40086 52011=
35969 429// 00201 10203 20004 39924 40084 52016=
36003 42598 72901 10131 20104 39903 40047 57005 84950=
36152 425// 63101 10133 20070 39876 40052 58010 85202=
36177 425// 73003 10156 20079 39826 40054 58002 82330=
36208 415// 70000 10108 20102 39129 40048 58018 70298 87300=
36397 426// 62502 10129 20101 39511 40034 58008 86300=
36428 416// 60000 10118 20103 39563 40031 57008 71311 83941 333
95090=
36535 426// 60000 10136 20075 39447 40034 57005 85530=
36639 415// 80303 10150 20127 39470 40029 57003 78098 889//=
36821 415// 20000 10221 20139 39556 49998 53006 71322 82900=
36859 415// 80000 10188 20159 39341 40060 58005 70298 8597/=
36864 NIL=
36870 415// 71006 10220 20091 39113 40038 54000 72582 85932=
38001 42997 40504 10309 20206 30134 40107 57002 84030=
38062 429// 00204 10231 20064 39922 40071 52012=
38069 429// 00602 10235 20019 39881 40056 52010=
38196 42698 23402 10233 20061 39146 40042 58006 82500=
38198 415// 61001 10280 20129 39782 40015 58005 71382 86900=
38222 42997 01404 10222 20164 39517 40027 58005=
38232 42998 03104 10302 20017 39977 40066 52003=
38328 415// 51105 10206 20151 39369 40041 53005 72998 85900 333
91116=
38334 41598 51405 10222 20119 39154 40035 53001 71998 85900=
38341 41997 71901 10239 20138 39333 40048 52019 72992 85042=
38343 42697 82302 10260 20074 39256 40018 57002 8693/=
38439 42998 01406 10261 20168 39694 40000 57020=
####018000095####
SIKY20 UAFF 092100 RRA
AAXX 09211
38616 425// 50000 10200 20113 39128 40087 53003 85300=
####018000610####
SITA20 UTDD 092100
AAXX 09211
38598 429// 00910 10285 20195 40046 57004=
38599 NIL=
38725 429// 00000 10130 20065 48540 52002=
38734 429// 00501 10100 20068 47140 53003=
38744 429// 00000 10101 20078 38038 48540 51004=
38836 428// 10000 10210 20164 39177 40054 54000 81030=
38838 429// 00503 10257 20118 39425 40034 52006=
38844 429// 00000 10195 20050 48460 57009=
38846 NIL=
38847 NIL=
38932 429// 00000 10233 20071 40057 51007=
38933 429// 00000 10255 20159 39563 40037 52004=
38944 429// 00203 10245 20103 39486 49981 52003=
38954 429// 00000 10161 20089 37921 48470 52003=
####018000298####
SITH42 VTBB 092100 RRA
AAXX 09214
48372 32960 30000 10266 20243 39999 40056 82035
  333 59004=
48433 31557 20000 10266 20235 39904 40069 71010 82505
  333 59005=
48464 32960 00000 10250 20235 30065 40076
  333 59007=
48554 32560 30000 10248 20236 30089 40092 82142
  333 58010=
####018000103####
SITH21 VTBB 092100 RRA
AAXX 09214
48455 32560 60000 10270 20253 30068 40073 81246
  333 59002=
####018000109####
SITH40 VTBB 092100 RRB
AAXX 09214
48426 31958 30000 10263 20244 30041 40054 71011 81041
  333 59008=
####018000103####
SITH43 VTBB 092100 RRA
AAXX 09214
48409 32960 20000 10265 20236 39925 40072 80001
  333 58000=
####018000097####
SNIY20 LIIB 092000 RRB
AAXX 09204
16310 42998 00000 10230 20120 39969 40183 56000 555 0////=
####018000087####
SIIY21 LIIB 092100 RRC
AAXX 09214
16245 42960 00203 10234 20209 30170 40195 51009=
####018001232####
SIMO40 MNUB 092100
AAXX 09210
44210 32999 62301 10154 21025 38442 56002 86081=
44216 32999 32702 10178 20050 38854 49965 56004 83040=
44217 32698 30000 10068 20046 37840 40142 54000 82870=
44219 32998 60000 10174 20006 38515 40018 56003 86070=
44221 32998 20000 10101 20097 38511 40077 58002 82040=
44224 32698 40000 10079 20034 37999 40070 57011 83540=
44229 32999 50000 10102 20080 37907 40092 58004 82046=
44242 42698 80000 10160 20142 39232 40076 57002 885//=
44243 42599 80000 10156 20139 39321 40099 58003 8852/=
44254 32998 50504 10155 20093 38960 40052 53002 85040=
44257 42598 73604 10165 20097 38902 40062 53003 82287=
44263 32998 10000 10094 20027 38021 40111 58010 81040=
44266 329// 00000 10117 20055 37756 40066 57002=
44286 32698 73204 10131 20119 38594 40085 54000 87200=
44291 32698 70504 10148 20119 38674 40086 51001 86830=
44325 329// 60000 10218 20065 38733 49987 52005 86054=
44329 32898 21405 10171 20045 37747 40021 57007 81041=
44338 32899 22002 10151 20112 38411 40044 57001 82030=
44348 NIL=
44374 32999 22003 10190 20053 38207 40040 54000 82070=
44385 32999 22705 10169 20099 38814 40028 53008 80001=
44386 32699 83010 10183 20169 38908 49994 52005 885//=
####018000670####
SIRS22 RUMS 092100
AAXX 09211
22127 41597 82801 10161 20156 39926 40117 56002 78082 889// 333 85630
91002=
22324 41356 82201 10148 20141 30080 40127 56001 78182 889// 333
91002=
22621 42598 72201 10198 20189 30002 40133 53003 84530=
22831 42598 70000 10193 20182 30098 40155 52014 83931=
22892 42598 62401 10210 20184 30155 40170 52012 83330=
26275 42998 72101 10195 20179 30159 40188 52011 83032=
26389 41996 32901 10202 20177 39948 40198 52013 71011 83030=
26499 41997 60000 10194 20184 39975 40192 52008 71222 80001=
26695 41996 20000 10192 20179 39902 40193 52010 71011 80001=
26882 41984 40000 10195 20160 39928 40189 52004 70191 82031=
####018000127####
SMID02 WIIX 091800 RRE
AAXX 09184
97530 31440 40000 10243 20238 30086 40093 70544 82242
  333 56000 57803 82814 80833=
####018000099####
SNIY20 LIIB 092000 RRB
AAXX 09204
16310 42998 00000 10230 20120 39969 40183 56000 555 0////=
####018000427####
SITU11 LTAA 092100 RRA
AAXX 09214
17034
4/9// /2201 10245 20207 30077 40122
333=
17084
4/9// /0407 10206 20174 39243 40092 52014
333=
17090
4/9// /3600 10211 20155 38699 40035
333=
17184
4/9// /3404 10214 20165 30032 40139 51011
333=
17210
4/9// /3600 10267 20047 39100 40037
333=
17234
4/9// /1101 10219 20147 30049 40112 52016
333=
17370
4/9// /3600 10259 20212 30095 40102
333=
####018000327####
SITU12 LTAA 092100 RRA
AAXX 09214
17116
4/9// /2003 10198 20189 30032 40149 50010
333=
17188
4/9// /3603 10179 20100 39101 40112 52013
333=
17292
4/9// /3004 10203 20123 39382 40100 52010
333=
17310
4/9// /1703 10270 20230 30094 40100 51007
333=
17330
4/9// /3600 10251 20201 30077 40097
333=
####018001261####
SIPR20 SPIM 091800
AAXX 09184
84455 31460 50000 10330 20242 39780 40122 70122 82130
333   56000 58010 82820 83362=
84474 31560 3//// 10300 20224 39765 70122 83100
333   56900 58002 83823=
84542 31670 8//// 10200 20088 37341 70222 8453/
333   5699/ 58008 84640 84360=
84390 31965 6//// 10220 20141 30017 40120 70320 86030
333   5600/ 58005 86356=
84691 31457 52506 10200 20149 30140 40147 71044 856//
333   560// 58029 85714=
84370 31560 6//// 10261 20217 30059 40091 70222 8650/
333   5690/ 59017 86623=
84515 31460 71503 10275 20238 39915 40095 70226 8322/
333   5699/ 58015 83817 85457=
84564 31560 10618 10260 20160 38112 70222 81200
333   56100 59008 81830=
84686 31765 42908 10204 21007 36853 70222 84100
333   56900 58004 84850=
84658 31562 71203 10275 20241 39864 40089 70122 875//
333   560// 58010 87630=
84452 31960 01718 10230 20133 30110 40141 70100
333   58003=
84444 31660 80812 10170 20133 37523 70222 8542/
333   5699/ 58005 84540 87460=
84401 31960 61911 10270 20183 30080 40147 70302 8603/
333   5600/ 59006 86360=
84534 31660 4//// 10280 20210 39360 40064 70112 81230
333   56990 58010 81840 84363=
84425 31460 40104 10295 20238 39910 40118 71512 8420/
333   568// 58018 84815=
####018001046####
SIRS24 RUMS 092100
AAXX 09211
22165 41698 81001 10099 20090 30095 40159 57007 70282 885//=
22676 42682 21202 10225 20185 30065 40137 54000 82400=
22954 42971 12102 10226 20164 39931 40163 52006 80001=
23405 42980 00601 10088 20076 30081 40178 52004=
23412 42498 80101 10090 20088 30077 40172 54000 883// 333 85915=
23803 42999 00101 10161 20107 39990 40160 53015=
27066 42998 10000 10213 20196 30006 40172 52009 81040=
27083 42984 00000 10200 20181 39949 40158 52002=
27113 41960 50000 10209 20200 30031 40168 52004 71122 82031=
27242 42998 00000 10219 20192 30051 40171 52007=
27329 42984 33001 10223 20185 30061 40178 52009 80001=
27355 42997 20000 10210 20174 30013 40166 54000 82030=
27373 42996 00000 10219 20179 39966 40169 52004=
27665 42997 82801 10214 20138 39916 40169 52003 80001=
27835 42996 61801 10232 20164 40165 52005 86070=
28009 42998 20000 10204 20187 39953 40149 52006 80001=
28411 42997 60000 10200 20174 39965 40146 53001 85031=
28418 42998 63301 10209 20163 39992 40147 52003 80003=
####018000659####
SIRS26 RUMS 092100
AAXX 09211
34560 42997 00706 10280 20084 39966 40118 52008=
34720 41497 63606 10246 20178 30071 40109 53004 71398 86900=
34730 42697 73404 10261 20165 30021 40106 52008 72582 83330=
34740 32998 20704 10270 20154 30004 40092 52004 82030=
34824 42597 80304 10243 20184 30086 40091 53004 884//=
34858 42997 01802 10272 20129 39996 40094 52010=
34866 42998 00000 10269 20097 30107 40099 52005=
34880 42997 20000 10246 20181 30122 40098 54000 82030=
37018 42497 81602 10257 20247 30028 40097 52010 889// 333 88919=
37054 42998 50000 10232 20182 39724 40081 52003 85030=
37472 42998 00000 10250 20209 30104 40083 52004=
####018001300####
SIRS25 RUMS 092100
AAXX 09211
22282 41/93 90904 10056 20056 30161 40169 57010 74544=
22438 NIL=
22471 42584 72003 10184 20117 30114 40136 57007 71792 85931 333
85931=
22563 41664 73001 10215 20188 30095 40130 54000 71792 86960=
22641 42799 22101 10200 20186 30112 40127 56002 81130 333 91102=
22695 42699 70903 10195 20122 30015 40158 52005 81901=
22867 42598 60000 10222 20182 30047 40152 53005 84931 333 91102=
22939 42597 52201 10195 20170 30014 40167 52007 82331=
22996 41998 30000 10204 20175 39976 40154 53005 71111 80008=
23324 41446 83202 10093 20090 30095 40170 51003 75052 886// 333
88710=
27051 42660 52201 10203 20190 30009 40165 52003 82531=
27225 43997 50000 10216 20191 30050 40172 52005 80001=
27252 42997 43201 10212 20185 39987 40160 53002 80001=
27333 42984 22101 10216 20170 30028 40175 52004 82030=
27369 42997 32801 10218 20184 30042 40170 52007 83030=
27393 42598 30000 10214 20130 30002 40157 52003 82301=
27479 42998 20000 10258 20149 30038 40161 52007 82030=
27532 42997 40000 10216 20161 39974 40173 52008 82031=
27648 42997 20000 10206 20174 30011 40169 53006 80001=
27675 42997 02104 10233 20161 30002 40159 52011=
27679 42998 02601 10219 20140 39959 40167 52005=
28214 42996 32501 10187 20174 39951 40149 53001 80001=
####018000633####
SIEG22 HECA 092100
AAXX 09214
62305 32960 00403 10224 20216 40145 52007=
62306 32960 00208 10244 20188 40146 52006=
62318 32560 23606 10250 20198 40125 51010
      82100=
62337 32960 03302 10254 20220 40106 52006=
62366 32960 03610 10260 20201 40119 51015=
62393 32960 03612 10290 20165 40099 52012=
62405 32960 02204 10320 20133 40060 50009=
62414 32960 03110 10337 20066 40068 52008=
62417 32960 00307 10303 20161 40120 52011=
62440 32960 03508 10255 20209 40113 51013=
62463 32960 02914 10320 20123 40060 51008=
62465 32960 03304 10307 20163 40058 52009=
62419 32960 03309 10333 20080 40080 52010=
####018001783####
SIOM20 OOMS 092100
AAXX 09214
41241 36/// /3504 10359 20245 39970 40010
333 0E042 59000=
41242 36/// /3606 10324 20263 30006 40029
333 0E037 59004=
41244 36/// /1610 10319 20202 39676 47029
333 0E033 59009=
41246 32660 21008 10313 20257 30010 40014 81501
  333 59007 81630=
41252 36/// /1410 10296 20214 39653 40035
333 0E032 59003=
41253 36/// /3604 10301 20247 39655 40034
333 0E031 59004=
41254 36/// /0614 10226 20122 37996 48001
333 0E020 59001=
41255 36/// /3507 10259 20214 39523 40059
333 0E032 58016=
41256 32960 22803 10299 20263 39998 40007 80001
  333 59008 82075=
41257 36/// /2110 10290 20238 39562 40046
333 0E030 5////=
41258 36/// /3605 10299 20232 39999 40064
333 0E/// 59011=
41259 36/// /0000 11/// 20/// 37083 4////
333 0E/// 58002 7////=
41262 NIL=
41263 36/// /1606 10263 20211 39382 40068
333 0E028 58009=
41264 26/64 /1113 10264 20218 39666 49977
333 0E029 58010 70402=
41265 36/// /1506 10247 20240 39521 40069
333 0E033 58015=
41267 35/64 /3404 10309 20216 39995 40011
333 0E030 59016=
41268 31958 32223 10280 2220 30001 40018 70600 80001
  333 59010 83070=
41270 26/// /2118 10267 20247 39980 40041
333 0E030 58001 70000=
41275 NIL=
41287 36/// /1715 10264 20231 39989 40055
333 0E028 58006=
41288 36/// /0000 10271 20233 30021 40045
333 0E027 58010=
41290 36/// /2021 10262 20221 39998 40053
333 0E032 59005=
41304 36/// /2107 10307 20186 39708 49999
333 0E030 58001=
41312 36/// /1503 10255 20241 30004 40043
333 0E/// 58004=
41314 32960 11722 10255 20212 39523 40024 810
0
  3
3 59005 81360=
41315 26/// /1616 10208 20206 39074 42715
333 0E/// 58000 70134=
41316 22457 81206 10264 20233 30019 40044 886//
  333 58003 79999 83710 88620=
####018000394####
SIEG25 HECA 092100
AAXX 09214
62476 32960 02704 10302 20215 40033 50000=
62403 45960 02607 10300 20133 40067 52009=
62309 32960 03504 10250 20201 40131 52012=
62332 32960 03411 10260 20227 40103 52003=
62357 32960 03506 10242 20211 40126 52018=
62432 32960 02703 10294 20084 40109 52016=
62435 32960 03605 10316 20080 40084 52014=
62455 32960 03309 10275 20208 40084 52020=
####018000445####
SICM20 FKKD 092100
AAXX 09213
64851 NIL=
64860 41570 60000 10270 20246 39837 40104 71322 82332
  333 59010 82620 81923 85080 94944 95834=
64870 NIL=
64880 NIL=
64890 NIL=
64892 NIL=
64893 NIL=
64900 NIL=
64901 NIL=
AAXX 09214
64910 42460 70000 10252 20243 30128 40137 86360
  333 58005 87613 82916 94949 95839=
64911 NIL=
64912 NIL=
64920 NIL=
64930 NIL=
64950 NIL=
64960 NIL=
64971 NIL=
64994 NIL=
####018000704####
SIGL22 EKMI 092100
AAXX 09214
04203 NIL =
04205 45/80 /2304 10097 20082 30057 40078 54000 =
04208 NIL =
04213 46/// /3010 10102 20060 39972 40078 52006 =
04214 46/// /3309 10047 20045 30053 40087 52003 =
04224 46/// /2609 10051 20026 30049 40081 54000 =
04228 46/// /2803 10028 20025 30075 40089 52002 =
04242 NIL =
04253 NIL =
04266 NIL =
04285 46/// /1101 10035 20026 30076 40095 57003 =
04301 46/// /2907 10076 20045 30046 40051 52004 =
04313 46/// /2107 10011 20005 30067 40079 52002 =
04330 46/// /0210 10095 21041 30029 40047 52001 =
04351 46/// /1402 10004 21012 30021 40038 57006 =
04373 46/// /3203 10093 21012 39954 40049 57004 =
04382 NIL =
04416 NIL =
####018000776####
SIAG03 SABM 092100
AAXX 09214
87774 NIL=
87784 NIL=
87791 42980 23208 10105 21041 30186 40195 57007 80004 333 56006 82070=
87803 41560 52707 10060 20001 39173 40109 57027 71622 84520 333
56660 83630 83550=
87828 42980 53208 10070 20004 30100 40153 57017 83042 333 56000 57300 83364
84070=
87852 41582 82909 10026 20005 39550 40069 57021 71522 83578
333 56455 81720 83633 86459=
87860 41680 83218 10064 20003 30040 40096 57007 71422 8357/ 333
56559 83640 86459=
87896 NIL=
87904 42580 11805 10018 21029 39793 40045 53003 81400 333 56600
81630=
87909 42980 02515 10025 21017 39988 40065 51005=
87925 42580 42512 10022 21018 30001 40025 52015 82570 333 56000
82630=
87938 42580 52323 10013 21019 39877 49947 52021 83506 333 56606
83630=
####018000044####
SIAG03 SABM 092100 RRA
AAXX 09213
NIL
####018000089####
SMRA15 RUNW 091800 RRA
AAXX 09181
24817 429// 00000 10112 20065 39809 40155 52003=
####018000113####
SIAG01 SABM 092100 RRB
AAXX 09214
87078 42570 81803 10196 20141 30032 40186 52007 886//
333 56499 88720=
####018000071####
SIAL51 DAMM 092100 RRA
AAXX 09214
60595 36/// /0000 11451 21634=
####018000102####
SICN03 CWAO 092100 RRB
AAXX 09214
71421 36/// /3105 10228 20139 39420 40104 50003 333 60001=

####018000090####
SICN02 CWAO 092100 RRA
AAXX 09214
71207 46/// /1608 10307 20104 92115 333 6///1=

####018000116####
SMCN31 CWAO 091800 RRG
AAXX 09184
71163 46/// ///// 10145 39808 40139 56005 6///1 333 10148 20088
7////=

####018000116####
SMCN31 CWAO 090600 RRI
AAXX 09064
71163 46/// ///// 10126 39810 40139 51004 6///1 333 10212 20095
7////=

####018000116####
SMCN31 CWAO 090000 RRH
AAXX 09004
71163 46/// ///// 10178 39805 40134 56005 6///1 333 10212 20095
7////=

####018000116####
SMCN31 CWAO 091200 RRI
AAXX 09124
71163 46/// ///// 10095 39818 40149 50002 6///1 333 10212 20088
7////=

####018000139####
SIID22 WIIX 091500 RRB
AAXX 09154
97530 31440 50000 10248 20242 30090 40097 52002 70544 82232
  333 56000 57803 82814 83360 80833=
####018000113####
SMCN31 CWAO 091800 RRG
AAXX 09184
71163 46/// ///// 10145 39808 40139 56005 6///1 333 10148 20088
7////=
####018000148####
SNAA17 LFVW 092000 RRB
AAXX 09204
89811 46/// /0000 11273 38282 4//// 5////=
89610 46/// /1341 11155 39726 4//// 5////
  333 90700 91150=
####018000113####
SMCN31 CWAO 091200 RRI
AAXX 09124
71163 46/// ///// 10095 39818 40149 50002 6///1 333 10212 20088
7////=
####018000113####
SMCN31 CWAO 090000 RRH
AAXX 09004
71163 46/// ///// 10178 39805 40134 56005 6///1 333 10212 20095
7////=
####018000113####
SMCN31 CWAO 090600 RRI
AAXX 09064
71163 46/// ///// 10126 39810 40139 51004 6///1 333 10212 20095
7////=
####018000349####
SIEG24 HECA 092100
AAXX 09214
62325 32960 03206 10249 20212 40121 50007=
62387 32960 03407 10286 20162 40089 51011=
62420 32960 03505 10294 20165 40110 51013=
62423 32960 03304 10296 20104 40100 52014=
62452 32960 03611 10231 20192 40121 52014=
62458 32960 03605 10318 20130 40060 53014=
62459 32960 03111 10282 20208 40048 52008=
####018001645####
SICI24 BABJ 092100
AAXX 09211
56146 42980 70902 10092 20058 36773 57001 80002 333 00354
70030=
56444 41575 81401 10120 20107 36810 57008 78088 884// 333
05151 70088=
56492 41462 80201 10208 20189 40052 52001 76066 885// 333
00557 70563=
56571 41560 81801 10189 20177 38339 52005 78088 884// 333
00053 70443=
57799 42965 71102 10294 20236 40045 52003 8703/=
57866 42975 02004 10293 20233 40032 52001=
57957 42765 72003 10289 20226 40048 52002 875//=
57993 42968 62003 10289 20217 40058 52003 80002=
58027 41958 80902 10253 20216 40033 57004 71000 8807/=
58141 42962 80901 10251 20218 40037 57006 8807/=
58265 42963 61402 10254 20236 40036 57008 86040=
58472 41463 81804 10244 20232 40039 57003 78080 8677/ 333
70003=
58477 41762 83201 10245 20229 40045 57001 76060 8757/ 333
70008=
58527 41560 80702 10234 20231 40041 52001 79596 8797/ 333
70879=
58633 41665 82202 10234 20218 40047 57007 72588 8747/ 333
70645=
58666 41/03 92009 10248 20243 40055 57003 74700 333 70197=
58725 41658 82901 10252 20243 40058 52003 71000 885// 333
70001=
58921 42964 62202 10253 20232 40074 52004 86040=
59082 42971 61603 10276 20234 40070 52003 86040=
59211 41665 71601 10288 20237 40023 54000 70090 8544/=
59265 42866 10903 10271 20253 40061 57008 81500=
59293 42566 71403 10267 20240 40083 54000 871//=
59501 41562 82202 10275 20255 40089 57002 78000 884// 333
70008=
59663 42480 71806 10277 20259 40079 57004 86102=
59838 42980 71808 10300 20232 40051 57006 80002=
59948 42370 72004 10258 20246 40078 57006 83202=
59981 41570 72004 10286 20254 40077 57012 72500 82202 333//
70026=
####018000155####
SIRS30 RUMS 092100
AAXX 09211
23226 42960 73503 10115 20105 39944 40151 52008 86079=
23701 NIL=
28909 42999 02901 10209 20124 30047 40139 52003=
####018000833####
SIRS27 RUMS 092100
AAXX 09211
34357 42998 00902 10261 20115 39981 40128 52010=
34363 42998 30704 10279 20132 39992 40127 52004 80001=
34545 42998 00403 10207 20128 30009 40113 58003=
34579 42998 00403 10294 20081 30073 40112 52011=
34838 42997 00602 10250 20181 39993 40082 54000=
34927 42697 22602 10240 20222 30061 40095 52010 82500=
34949 42998 00902 10244 20141 39583 40088 52008=
37001 42997 00403 10231 20209 30053 40090 52004=
37031 42997 00201 10243 20203 39895 40076 52003=
37061 42976 20701 10272 20156 39938 40091 52008 82030=
37085 42996 01102 10267 20234 30118 40094 52001=
37171 42496 80801 10260 20236 30089 40104 52008 85601 333 85713=
37228 42997 01901 10216 20196 39309 40084 54000=
37470 42996 00000 10256 20184 30100 40078 52002=
37663 32996 03001 10197 20165 38993 48530 52007=
####018000834####
SIPR20 SPIM 092100
AAXX 09214
84628 34960 42906 10182 20128 30128 40144 70222 8403/
333   566// 58016 84363=
84531 31962 01915 10208 20141 30103 40120 70100
333   58004=
84472 31660 41807 10210 20127 37388 70230 84500
333   56000 58004 84640=
84735 31960 00808 10172 21065 36427 70111
333   59021=
84752 32960 02408 10186 21076 37529 70200
333   58009=
84773 31560 82504 10165 20114 30142 40168 70222 885//
333   569// 58015 88630=
84501 31956 01611 10187 20134 30101 40118 70544
333   58003=
84720 31959 02803 10260 20136 39500 40165 70504
333   58020=
84377 31560 8//// 10287 20234 39974 40077 70222 85240
333   5600/ 58008 85820 85360=
84782 31960 02409 10150 20094 39628 40142  70200
333   58006=
84673 31765 82403 10223 20078 37310 70302 88130
333   56990 58000 82850 83856 85364=
####018001813####
SICI25 BABJ 092100
AAXX 09211
50353 41/03 93401 10160 20158 40102 52006 74540 333 79999=
50557 42970 21401 10165 20152 40096 52005 82030=
50756 42970 20702 10172 20150 40106 52005 80002=
50949 42765 40702 10185 20168 40078 52008 84500=
50963 42770 20402 10185 20179 40101 52010 82500 333 79999=
50978 41650 71801 10175 20175 40108 52007 71000 875// 333
79999=
51087 42980 00702 10215 20054 40011 57009 333 05506 79999=
51156 42780 62701 10163 20037 40020 57006 82402 333 05551
79999=
51644 42680 73204 10241 20064 49992 57012 86902 333 05501
79999=
51656 42980 00903 10233 20107 40002 57009 333 05255 70023=
51886 42980 00901 10122 21032 37135 57006 333 05302=
52602 42980 03403 10098 21022 37270 57008 333 05401=
52713 42980 00000 10096 20002 36932 57007 333 05301 70001=
52754 42680 70401 10071 20041 36839 57004 83502 333 05100
70001=
52818 42980 02501 10144 20029 37243 57008 333 05403=
52836 42980 71101 10100 20060 36924 57005 80002 333 05302
70013=
52955 42980 71402 10085 20041 37003 57005 80002 333 05251
70023=
53068 42980 22504 10182 20153 38918 49962 52001 80002 333
05551 70036=
53276 42980 62205 10190 20108 49977 57003 82032 333 70005=
54135 42978 72901 10195 20171 40068 52005 80002=
54236 41958 22001 10202 20199 40072 52007 71000 80002=
54539 41665 80902 10207 20194 40068 57006 78088 884// 333
70159=
54662 42960 81601 10220 20213 40074 52007 8807/=
54753 42760 82202 10245 20220 40069 52009 885//=
54857 41630 71604 10232 20224 40062 57001 71000 875//=
57067 41450 80000 10206 20189 40050 57001 76166 8772/ 333
70171=
57178 41950 80202 10270 20226 40016 57004 76060 8807/ 333
79999=
57245 41560 81801 10224 20203 40043 57005 76066 8572/ 333
00153 70040=
57297 41956 80000 10255 20245 40013 57005 71000 8807/=
####018000089####
SIUR20 UKMS 092100 RRD
AAXX 09211
33663 42997 00000 10183 20161 30092 40184 52003=
####018000170####
SIAL51 DAMM 092100 RRB
AAXX 09214
60605 36/// /0905 10369 20008=
60639 36/// /0211 10345 20019=
60381 36/// /3201 10226 20204=
60393 36/// /2501 10231 20204=
####018001276####
SIMO40 MNUB 092100
AAXX 09210
44210 32999 62301 10154 21025 38442 56002 86081=
44216 32999 32702 10178 20050 38854 49965 56004 83040=
44217 32698 30000 10068 20046 37840 40142 54000 82870=
44219 32998 60000 10174 20006 38515 40018 56003 86070=
44221 32998 20000 10101 20097 38511 40077 58002 82040=
44224 32698 40000 10079 20034 37999 40070 57011 83540=
44229 32999 50000 10102 20080 37907 40092 58004 82046=
44242 42698 80000 10160 20142 39232 40076 57002 885//=
44243 42599 80000 10156 20139 39321 40099 58003 8852/=
44254 32998 50504 10155 20093 38960 40052 53002 85040=
44257 42598 73604 10165 20097 38902 40062 53003 82287=
44263 32998 10000 10094 20027 38021 40111 58010 81040=
44266 329// 00000 10117 20055 37756 40066 57002=
44286 32698 73204 10131 20119 38594 40085 54000 87200=
44291 32698 70504 10148 20119 38674 40086 51001 86830=
44325 329// 60000 10218 20065 38733 49987 52005 86054=
44329 32898 21405 10171 20045 37747 40021 57007 81041=
44338 32899 22002 10151 20112 38411 40044 57001 82030=
44348 32997 83607 10146 20159 38588 40009 51001 84080=
44374 32999 22003 10190 20053 38207 40040 54000 82070=
44385 32999 22705 10169 20099 38814 40028 53008 80001=
44386 32699 83010 10183 20169 38908 49994 52005 885//=
####018000870####
SIRA21 RUHB 092100
AAXX 09211
30385 42599 50000 10115 20110 39620 40119 52005 83930=
30469 NIL=
30636 42998 00000 10127 20120 39525 40093 52003=
30650 42599 20000 10108 20097 39068 40117 52010 82900=
30664 42999 20000 10070 20064 39189 40132 52006 82040=
30781 41/92 90000 10119 20119 39681 40122 52008 74640=
30777 42999 20000 10128 20117 39493 40101 52008 80002=
30844 42999 51102 10100 20088 39194 40114 54000 82041=
30925 41599 80401 10145 20125 39180 40079 58005 70282 85931=
31371 41/08 90000 10158 20158 39866 40110 52006 74541=
31388 41598 60000 10161 20159 39857 40100 53007 70282 83930=
31478 NIL=
31532 /1599 80000 10178 20178 39790 40104 52001 70282 85901=
31594 42998 31302 10184 20165 39945 40102 53007 80001=
31655 32999 60702 10158 20133 30078 40123 53004 83051=
31754 31993 00000 10127 20127 39656 40128 52002 74440=
####018000165####
SIPF80 KWBC 092100 RRC
AAXX 09211
91945 21465 60914 10264 20212 30205 40210 58001 71522 86800 333
56200 60007 83816 84640 90710 91121 555 60005 10925 58007=
####018000304####
SIIQ01 KWBC 092100
AAXX 09214
40608 42960 02802 10326 20122 40055 52012=
40621 42960 00000 10360 20156 40055 52003=
40629 42960 00000 10300 20154 40060 52004=
40631 42960 03002 10356 20121 40050 51006=
40642 42960 00000 10314 20084 40022 52008=
40650 42960 03202 10353 20057 40036 58002=
####018000785####
SIDR01 MDSD 092100
AAXX 09211

78458 31563 20806 20312 20268 40161 57014 70644 82200 333 01000 30///
59015 82818=

78460 21560 41304 10310 20256 40149 57014 72584 84200 333 31000 58010
60015 84826= 

78467 32466 10907 10306 20247 40148 57012 81200 333 02200 30/// 58008
81818= 

78479 31564 40705 10303 20254 40141 56007 70644 83901 333 06100 30///
58010 81920 82822= 

78482 31565 61306 10314 20274 40157 57005 70644 84950 333 06400 30///
58003 81918 83620 83360=

78485 21466 50405 10247 20228 40148 57016 70296 84906 333 06000 31///
58006 60057 81916 83818 85280=

78486 21458 73602 10272 20250 40145 57015 76096 85920 333 06000 32///
58006 60010 82916 83616 85457= 

78488 32466 41003 10315 20242 40148 57024 84900 333 06200 30/// 58003
81918 83826= 
=
####018000169####
SIIQ02 KWBC 092100
AAXX 09214
40670 42960 03603 10380 20102 40021 58002=
40676 42960 03005 10370 20070 40006 54001=
40680 42960 01002 10358 20132 49997 51003=
####018001437####
SIAR20 OEJD 092100
AAXX 09214
40582 31945 01105 10309 20282 40006 50012 71000
  333 00308 10468 20302 51560 55110 01039 10377 22795 43689 54854
63763 55300 00000 10262 20000 30000 41494 51755 60000 55407 40000
55507 51827 90401 91007 91117 91209 91305=
41150 NIL=
41168 NIL=
41170 42964 11504 10335 20267 39987 40000 81030 333 59004 81364=
41176 NIL=
41184 NIL=
41194 NIL=
41196 NIL=
41198 NIL=
41210 NIL=
41216 NIL=
41217 NIL=
41218 NIL=
41240 NIL=
41244 36/// /1610 10319 20202 39676 47029
333 0E033 59009=
41246 32660 21008 10313 20257 30010 40014 81501
  333 59007 81630=
41254 36/// /0614 10226 20122 37996 48001
333 0E020 59001=
41256 32960 22803 10299 20263 39998 40007 80001
  333 59008 82075=
41258 36/// /3605 10299 20232 39999 40064
333 0E/// 59011=
41268 31958 32223 10280 20220 30001 40018 70600 80001
  333 59010 83070=
41312 36/// /1503 10255 20241 30004 40043
333 0E/// 58004=
41314 32960 11722 10255 20212 39523 40024 810
0
  3
3 59005 81360=
41316 22457 81206 10264 20233 30019 40044 886//
  333 58003 79999 83710 88620=
41404 41558 51904 10180 20126 37851 48491 70644 85800 333 58011 85800=
41407 NIL=
41431 41556 80000 10305 20267 40/// 70544 85550 333 5//// 84630 84356=
41466 42556 63408 10228 20154 38518 48420 83550 333 59001 83630 83356=
41477 NIL=
41480 41957 21108 10304 20221 30030 40033 70544 82030 333 58007
82360=
####018000158####
SIVD15 KWNB 092100 RRH
BBXX
42362 09211 99278 70907 46/// /0501 10311 20217 40163 92115=
42364 09211 99291 70881 46/// /2404 10289 20211 40156 92115=
####018000203####
SIVD22 KWNB 092100 RRE
BBXX
46088 09211 99483 71232 46/// /2404 10143 40144 92120 22200 00130
1//00 70002 333 91205 555 11041 22044 32031 42305 62119 244039
240037 234034 233039 232041 229037=
####018000503####
SIVD20 KWNB 092100 RRG
BBXX
44030 09211 99432 70704 46/// /1607 10202 40121 57027 92104 22200
00189 10402 70008 333 91208 555 11093 22102=
41024 09211 99338 70785 46/// /2207 10278 40109 56013 92100=
44039 09211 99411 70727 46/// /1504 10262 20230 40124 92115 22200
1//00 70002 333 91205=
44060 09211 99413 70721 46/// /1304 10217 40126 92115 22200 00199
333 91204 555 11041 22051=
44022 09211 99409 70737 46/// /1905 10275 20201 40111 92115 22200
00225 333 91207 555 11057 22072=
####018000072####
SALY31 HLLT 092130
METAR HLLT 092120Z 00000KT 8000 SKC 24/20 Q1018=
####018001384####
SIRA21 RUNW 092100
AAXX 09211
23909 42998 03502 10203 20121 39907 40137 52010=
28044 42597 70000 10148 20138 39960 40114 57002 87500=
28116 42999 23101 10187 20177 39920 40136 53004 80001=
28240 41599 70000 10140 20129 39823 40129 54000 70282 87900=
28522 42997 72901 10192 20140 39889 40129 53002 83075=
28621 42997 03201 10226 20129 39914 40129 51002=
29023 41496 80000 10111 20105 39963 40054 54000 71022 86502 333
84912=
29122 42599 70302 10143 20128 39980 40048 53001 87500 333 87625=
29328 41596 80000 10090 20088 39909 40041 57002 71022 8697/=
29348 41997 70000 10124 20118 39897 40033 57008 70282 82036=
29405 42597 53203 10106 20104 39900 40039 54000 85300=
29418 41596 70000 10112 20112 39880 40030 58004 71022 83530=
29430 41994 00000 10116 20116 39868 40033 57009 71011=
29524 41498 70000 10095 20090 39882 40036 57003 71022 87900=
29605 42598 83102 10112 20109 39903 40036 58003 885//=
29631 41995 62101 10108 20094 39857 40032 54000 71022 80001=
29645 41496 83401 10134 20130 39848 40023 57015 78082 889// 333
88919=
29706 42598 63002 10100 20090 39899 40039 58006 85301=
29736 41598 60000 10130 20124 39793 40026 57010 78082 86300=
29937 41994 02101 10121 20114 39833 40041 57001 71000=
36034 42698 82902 10120 20097 39786 40045 57004 885// 333 88633=
36096 42697 72602 10174 20113 39325 40036 53005 81531 333 95090=
####018001202####
SIRA20 RUNW 092100
AAXX 09211
23914 42998 03403 10187 20112 39893 40134 53009=
23921 42699 50702 10145 20134 30004 40116 52007 85500=
23955 42998 10502 10141 20124 30004 40062 52003 81030=
23966 42497 80000 10117 20095 39952 40071 53002 889//=
28138 41599 70000 10166 20143 39588 40121 57005 78082 87300=
28224 42498 20000 10195 20167 39926 40125 57004 82100=
28255 42994 52701 10130 20090 39993 40116 58001 83031=
28440 41597 61601 10177 20119 39796 40123 50006 72582 85306=
28645 42497 70000 10197 20068 39843 40117 54000 883//=
28661 42997 42701 10132 20090 30021 40110 52003 84030=
28722 42997 30000 10168 20123 30005 40128 54000 83030=
28748 42970 83201 10182 20065 39890 40115 52001 8807/=
28838 42996 03303 10203 20110 39676 40117 52002=
29231 41497 82201 10127 20121 39952 40042 57002 78082 8593/=
29313 41696 83501 10098 20094 39913 40029 52003 71011 86501=
29612 42598 72702 10118 20114 39891 40033 57006 87300 333 87920=
29638 42598 60000 10126 20121 39874 40031 57005 86901=
29838 41597 72301 10123 20112 39813 40031 58006 70282 86330=
29846 42597 31903 10119 20111 39677 40038 54000 82530=
36061 42697 50000 10124 20117 39670 40052 58003 83530=
####018001860####
SIRA22 RUNW 092100
AAXX 09211
28049 42997 33501 10135 20111 39963 40119 54000 83050=
28144 41498 30000 10138 20136 39969 40118 54001 71211 82331=
28319 42999 00000 10190 20167 39988 40141 58002=
28321 42998 02601 10187 20164 39939 40129 57001=
28334 42598 30000 10172 20155 39838 40122 58003 82402=
28434 42998 21601 10185 20143 39886 40125 55000 80001=
28552 42598 80000 10173 20095 30006 40111 58001 883//=
28666 42599 83402 10135 20089 39934 40100 58004 889//=
28825 42997 00000 10186 20111 39973 40134 52004=
29111 42998 20601 10096 20092 39969 40052 53006 82080=
29209 41596 60000 10102 20102 39927 40047 53002 71022 86500=
29551 41496 80201 10119 20115 39864 40035 57013 71022 84332=
29602 42699 83102 10112 20100 39908 40040 58002 885// 333 88637=
29636 42598 80000 10115 20105 39822 40026 57008 8635/=
29654 42599 71103 10124 20090 39450 40024 57014 86972 333 84924=
29712 42898 62201 10106 20098 39904 40040 58007 86070=
29724 42697 81501 10108 20097 39841 40033 58006 8457/=
29726 41598 60000 10129 20112 39881 40037 57003 70282 86300 333
85925=
29814 42499 83401 10136 20121 39904 40041 58005 883// 333 88914=
29827 41696 82502 10120 20112 39887 40037 58004 71022 8695/=
29923 41596 70000 10108 20102 39781 40041 57003 71022 87500 333
87621=
29939 41/92 90000 10113 20113 39778 40044 57001 74544=
35026 42997 30000 10173 20069 39541 40138 52002 80001=
36021 42999 72301 10122 20112 39875 40043 57003 84052=
36022 42998 62501 10128 20099 39801 40047 57003 86070=
36038 42598 60000 10111 20103 39630 40046 57010 83530 333 83621=
36058 41599 80000 10122 20113 39568 40056 53003 72582 889//=
36064 42699 80901 10122 20094 39495 40051 58015 889// 333 95001
95879=
36229 42598 80000 10066 20066 38963 40082 57008 889// 333 86929=
36259 42699 50000 10124 20040 38158 48416 57009 83902=
####018000286####
SIVX20 RJTD 092100
BBXX
JPBN    09214 99039 11650
41/98 73611 10281 20230 40119 53018 70282 86330
22241 00288 10803 20301 30835 40802 50802 70013=
JPBN    09214 99039 11650
41/98 73611 10281 20230 40119 53018 70282 86330
22241 00288 10803 20301 30835 40802 50802 70013=
####018000125####
SIVD45 KWNB 092100 RRG
BBXX
45022 09211 99454 70851 46/// /3003 10206 40160 92120 22200 00196
10201 70003 333 91204=
####018000433####
SIRH80 LDZM 092100
AAXX 09211
14216 NIL=
14219 NIL=
14232 NIL=
14234 NIL=
14236 NIL=
14244 NIL=
14248 NIL=
14253 NIL=
14256 42970 02802 10235 20106 39908 40210 52007=
14280 42960 01801 10191 20154 30106 40212 52007=
14308 NIL=
14321 NIL=
14370 42960 00000 10175 20154 30106 40212 52008=
14382 42982 02101 10196 20155 30097 40213 54003=
14428 NIL=
14441 NIL=
14452 NIL=
14454 NIL=
14462 NIL=
####018000119####
SIRS23 RUMS 092100 RRA
AAXX 09211
23205 41296 83401 10078 20065 30155 40170 58003 75152 886// 333 88705
91105=
####018000105####
SIRS23 RUMS 092100 RRB
AAXX 09211
23219 42398 83202 10094 20088 30062 40164 52004 886// 333 88709=
####018000511####
SIKZ30 UAAA 092100
AAXX 09211
28978 426// 80205 10122 20059 39626 40092 58001 84902=
28984 424// 83402 10113 20058 39625 40088 52001 889//=
34398 429// 00504 10250 20052 30117 40129 52012=
34798 42997 02701 10273 20190 30124 40098 52001=
35173 429// 00101 10140 20057 39727 40084 52004=
35358 429// 00201 10198 20078 39945 40102 54000=
35576 42998 00000 10128 20050 39666 40089 58004=
35699 42998 00205 10132 20058 39350 40060 53008=
36686 425// 20510 10207 20132 39620 40013 57002 82900=
####018000918####
SIAL50 DAMM 092100
AAXX 09214
60612 36/// /0508 10306 21059=
60617 36/// /0221 10361 21049=
60619 36/// /0216 10324 21025=
60621 36/// /0417 10362 21061=
60633 36/// /1106 10377 21030=
60650 36/// /0519 10378 21017=
60660 36/// /3607 10392 21019=
60661 36/// /0511 10325 21059=
60662 36/// /0000 10303 21035=
60663 36/// /0401 10354 21024=
60664 36/// /0506 10299 20002=
60667 36/// /1001 10340 21024=
60672 36/// /0909 10323 21029=
60673 36/// /0808 10317 21023=
60674 NIL=
60675 36/// /0000 10384 20005=
60676 36/// /0511 10319 21013=
60677 36/// /0000 10317 20006=
60679 36/// /0000 10195 21041=
60681 36/// /0708 10317 21029=
60682 36/// /0904 10324 21012=
60683 NIL=
60685 NIL=
60688 NIL=
60689 36/// /0708 10356=
60691 36/// /0513 10347 21023=
60692 36/// /0310 10364 20003=
60693 36/// /0410 10350 21008=
60694 36/// /0409 10328 21012=
60695 NIL=
####018000333####
SIPM20 MPTO 092100
AAXX 09214 RTD
78792 32460 83005 10323 30248 30060 40073 57025 83901
  333 066// 30/// 59014 83918 86080=
78793 31460 82008 10305 20245 30049 40080 57021 71522 82336
  333 058// 30/// 57873 59005 82815 85080=
78795 32470 62208 10296 20253 30985 57023 83240 
  333 0280/ 30/// 59009 83820 83359=
####018000696####
SISG20 GOOY 092100
AAXX 09214
61600 42460 23208 10275 20254 30122 40127 82500
  333 58003 82613=
61612 NIL=
61627 42559 33204 10295 20238 3//// 4//// 82502
  333 5//// 82616=
61630 42960 52604 10331 20244 30076 40095 80002
  333 59048 85073=
61641 42958 63605 10270 20238 30095 40128 86070
  333 58000 86463=
61666 NIL=
61679 42958 22806 10295 20254 30124 40132 80002
  333 58001 82073=
61687 42460 63204 10315 20249 30052 40108 82532
  333 59013 82613 83363 85073=
61695 41560 80000 10282 20251 30099 40125 71799 8297/
  333 59012 82615 82923 88363 94943 95873=
61697 42462 13204 10280 20249 30117 40131 81500
  333 58001 81615=
61698 NIL=
61699 NIL=
####018000028####
SIIV20 DIAP 092100
NIL=
####018000726####
SIIV20 DIAP 092100 RRA
AAXX 09214
65545 41458 60000 10250 20236 39700 40126 71399 85970
  333 58004 85813 84960 81923 94919 95834=
65557 42458 50000 10253 20219 39884 40234 85500
  333 58001 85613=
65560 41460 8//// 10253 20244 39806 40115 76066 885//
  333 58003 88613=
65562 41460 7//// 10262 20238 3//// 4//// 71311 879//
  333 5//// 86613 81923 94944 95834=
65563 41460 72006 10250 20237 39887 40126 71796 869//
  333 58007 86813 82920 94939 95839=
65592 41458 8//// 10255 20231 30101 40124 885//
  333 58000 88613=
65594 41356 81808 10252 20233 30099 40133 76166 8627/
  333 58003 84706 85613 88360 94904=
65599 41460 8//// 10244 20223 30047 40121 72165 882//
  333 58009 88813 94919=
####018000089####
SNPS40 AMMC 092000 RRE
AAXX 09204
93713 46/// /2308 10069 40287 22200 00112=


