####018000650####
SIVS20 VNNN 092100
AAXX 09211
48820 41598 71402 10301 20260 30025 40033 55003 72582 879// 333
58005 82995 81895 86697=
48826 32597 71403 10290 20279 39916 40046 55004 878// 333 58003
82895 87697=
48839 32998 62012 10295 20260 39981 40044 56004 80008 333 58005
86299=
48845 32998 71601 10296 20258 30030 40037 58008 80008 333 59005
87299=
48870 32998 03401 10264 20229 30063 40070 55004 333 58001=
48877 32998 52902 10260 20240 30070 40075 55008 80008 333 58000
85299=
48887 32798 33202 10265 20240 30077 40083 56007 81501 333 58001
81697=
48920 41598 21802 10254 20236 30084 40087 57013 70381 82900 333
58004 82895=
####018000170####
SIVS21 VNNN 092100
AAXX 09211
48823 32698 71802 10300 20264 30035 40038 56006 875// 333 58002
87696=
48840 32998 01802 10290 20265 30027 40033 55006 333 58002=
####018000241####
SIBX23 EBUM 092100
AAXX 09211
06414 46/// /1601 10226 20147 30156 40187 52007 333   91104 91203=
06459 46/// /1501 10224 20193 30000 40183 53010 333   91105 91203=
06494 46/// /2603 10212 20151 39433 40191 53011 333   91106 91204=
####018000165####
SIEO20 EEMH 092100 RRB
AAXX 09211
26141 21/84 02802 10161 20131 30057 40200 51011 70200
 333  10261 20163 60007 80///
 555  1/016 20163 3/016 50206 52014=
####018000159####
SIEO20 EEMH 092100 RRA
AAXX 09211
26135 27/82 /2602 10184 20145 30134 40206 52011 70000
 333  10272 20182 60007
 555  1/017 20182 3/017 50216 52016=
####018000161####
SIPF80 KWBC 092100
AAXX 09214
91925 21460 70806 10263 20222 30079 40139 58006 71582 878// 333
56299 69927 86816 83820 90710 91129 555 60005 10933 58006=
####018000109####
SIAA01 KWBC 092100
AAXX 09211
89061 17964 02208 21167 39718 49725 52009 60033 70077 333 91011
91111=
####018000087####
SAKN64 HKMO 092100
METAR HKJK 092100Z 21007KT 9999 SCT019 SCT080 16/11 Q1023 NOSIG=
####018000385####
SIVD15 KWNB 092100 RRF
BBXX
41041 09211 99144 70460 46/// /0707 10276 20239 40139 55000 92050
22200 00276 10704 20503 300// 40703 70019 333 91208 555 11073
22077 32031 40709 62049 070069 071077 067075 067072 071072 067069
80708 92035=
42362 09211 99278 70907 46/// /0501 10300 20217 40163 56020 92100=
42364 09211 99291 70881 46/// /2402 10283 20206 40159 58017 92100=
####018000701####
SIVD20 KWNB 092100 RRE
BBXX
44060 09211 99413 70721 46/// /1303 10218 40129 56029 92100 22200
00199 333 91204 555 11041 22046=
44027 09211 99443 70673 46/// /1705 10154 20152 40149 58019 92050
22200 00127 10402 20401 300// 40701 70008 333 91205 555 11054
22064 32046 41705 62049 170047 173047 173048 172045 172040 180039=
44008 09211 99405 70692 46/// /1406 10214 20214 40137 58026 92050
22200 00196 10702 20602 316// 40702 70012 333 91208 555 11071
22080 32049 41508 62049 143064 141061 138053 137048 133050 131052=
41033 09211 99323 70804 46/// /1906 10294 40100 92100 555 11081
22096=
44070 09211 99414 70710 46/// ///// 1//// 92106 22200 10801 20401
317// 40801 70007=
####018000625####
SIVD17 KWNB 092100 RRB
BBXX
46061 09211 99602 71468 46/// /0104 10096 40137 54000 92050 22200
00126 10802 20401 300// 40802 70009 333 91205 555 11041 22043
31956 43506 62049 009040 008042 003044 356048 353052 350051=
46076 09211 99595 71480 46/// ///// 10102 92050=
46083 09211 99582 71380 46/// /1103 10117 20110 40136 58003 92050
22200 00119 11502 300// 41502 70010 333 91204 555 11034 22035
32041 40904 62049 105032 096032 112031 099030 125029 132029 81004
92041=
23020 09211 99222 10385 46/// ///// 1//// 92050 22200 10704 70018=
32012 09211 99196 50854 46/// ///// 1//// 92050 22200 11507 70036=
####018001007####
SIVD22 KWNB 092100 RRC
BBXX
46042 09211 99368 71224 46/// /3205 10132 30153 40153 58003 92050
22200 00130 11402 20401 317// 41402 70011 333 91205 555 11048
22052 32024 43106 62049 315045 318044 318047 318047 329046 325045=
46014 09211 99392 71240 46/// /2301 10114 40147 51007 92050 22200
00111 11402 20401 300// 41402 70011 333 91201 555 11012 22012
31953 43102 62049 234010 273010 293016 299011 298013 300016=
46050 09211 99446 71245 46/// /3602 10152 40167 51006 92050 22200
00148 10602 20301 331// 40602 70011 333 91203 555 11026 22030
31953 40104 62049 355023 355023 359025 000027 002030 005032=
46047 09211 99324 71195 46/// /3106 10141 40145 58008 92050 22200
11303 20501 320// 41302 70013 333 91207 555 11067 22071 32024
43208 62049 309063 311064 318064 313059 311057 314066=
46027 09211 99419 71244 46/// /3103 10098 40122 54000 92050 22200
00121 10602 20401 333// 40602 70011 333 91203 555 11027 22027
32010 43004 62049 309025 312026 313029 306030 308028 299018=
####018000316####
SIBC20 FBSK 092100
AAXX 09214
68024 NIL=
68026 NIL=
68029 NIL=
68030 NIL=
68032 NIL=
68038 NIL=
68040 42960 01305 10090 20041 48558 50002=
68054 NIL=
68070 NIL=
68148 NIL=
68226 NIL=
68234 NIL=
68240 NIL=
68244 NIL=
68320 NIL=
68325 NIL=
68328 42960 00303 10091 48552 56002=

####018000221####
SIVD45 KWNB 092100 RRE
BBXX
45007 09211 99427 70870 46/// /3503 10222 20190 39938 40148 57007
92050 22200 00230 1//00 70002 333 91204 555 11035 22037 31957
43504 62049 352033 352033 348035 349038 350034 353037=
####018000027####
SIVJ10 EHDB 092100
NIL
####018000086####
SIML20 LMMM 092100
AAXX 09214
16597 42965 02503 10235 20192 30110 40194 53008 =
####018000119####
SIDO01 TDPD 092100
AAXX 09214
78905 41459 71206 10272 20231 30136 40141 78182 87462
 333 58009 86814 85358=
####018000952####
SIBO22 SLLP 092100
AAXX 09214
85244 41557 63504 10247 20203 39696 40125 55007 70421 85130
333 10260 56790 58030 85823 86357=
85245 41540 71510 10231 20189 39641 40122 55005 70422 87830
333 10272 56880 58018 86623 81825=
85175 42570 63605 10286 20219 39840 40127 56012 82230
333 10296 56770 58010 82820 86357=
85195 42870 60000 10245 20224 39525 40130 57015 84032
333 10270 56700 59005 84357 86070=
85196 42880 83005 10270 20211 39570 40134 56005 8807/
333 10290 56099 58030 88357=
85207 42580 43604 10301 20167 39656 40126 56009 81101
333 10330 56709 58014 81820 84070=
85210 41965 50000 10344 20157 39970 40153 56008 70421 80002
333 10360 56009 58030 85070=
85247 42570 60000 10320 20192 39813 40133 56007 86200
333 10345 56700 58013 86820=
85268 42580 20000 10320 20207 39803 40122 56009 82100
333 10352 56000 58013 82820=
85315 42684 61504 10220 20159 39255 40147 56001 86500
333 10235 56400 58037 86636=
####018000092####
SIMC23 GMMC 092100
AAXX 09214
60340 32960 00000 10246 20222 40197 50021=
60285 NIL=
####018000115####
SIDO01 TDPD 092100
AAXX 09214
78905 41408 80820 10278 20237 30123 40146 78182 88802 
  333 58005 88814=
####018001135####
SNCN19 CWAO 092027
OOXX
AUP09 09181 99124 31309 ///// ////1
     26/// /1403 10226 29088 30090 91835 333 60000=
AUP09 09181 99124 31309 ///// ////1
     26/// /1403 10224 29088 30090 91845 333 60000=
AUP09 09181 99124 31309 ///// ////1
     26/// /1403 10224 29087 30090 91855 333 60000=
AUP09 09191 99124 31309 ///// ////1
     26/// /1303 10223 29087 30089 91905 333 60000=
AUP09 09191 99124 31309 ///// ////1
     26/// /1303 10223 29087 30089 91915 333 60000=
AUP09 09191 99124 31309 ///// ////1
     26/// /1303 10224 29086 30090 91925 333 60000=
AUP09 09191 99124 31309 ///// ////1
     26/// /1403 10223 29087 30091 91935 333 60000=
AUP09 09191 99124 31309 ///// ////1
     26/// /1303 10224 29086 30090 91945 333 60000=
AUP09 09191 99124 31309 ///// ////1
     26/// /1203 10223 29087 30090 91955 333 60000=
AUP09 09201 99124 31309 ///// ////1
     26/// /1304 10224 29086 30090 92005 333 60000=
AUP09 09201 99124 31309 ///// ////1
     26/// /1404 10223 29087 30090 92015 333 60000=
AUP09 09201 99124 31309 ///// ////1
     26/// /1404 10223 29087 30090 92025 333 60000=

####018001227####
SNCN19 CWAO 092040
OOXX
RUP60 09181 99531 11588 ///// ////1
     26/// /3605 10075 29094 30120 91836 333 60000=
RUP60 09181 99531 11588 ///// ////1
     26/// /1602 10074 29094 30122 91846 333 60000=
RUP60 09181 99531 11588 ///// ////1
     26/// /1902 10073 29094 30124 91856 333 60000=
RUP60 09191 99531 11588 ///// ////1
     26/// /1306 10074 29094 30126 91906 333 60000=
RUP60 09191 99531 11588 ///// ////1
     26/// /2603 10077 29094 30125 91916 333 60000=
RUP60 09191 99531 11588 ///// ////1
     26/// /2004 10081 29093 30126 91926 333 60000=
RUP60 09191 99531 11588 ///// ////1
     26/// /0604 10084 29092 30126 91936 333 60000=
RUP60 09191 99531 11588 ///// ////1
     26/// /1004 10084 29091 30126 91946 333 60000=
RUP60 09191 99531 11588 ///// ////1
     26/// /3505 10087 29091 30126 91956 333 60000=
RUP60 09201 99531 11588 ///// ////1
     26/// /3104 10091 29089 30126 92006 333 60000=
RUP60 09201 99531 11588 ///// ////1
     26/// /3303 10094 29087 30126 92016 333 60000=
RUP60 09201 99531 11588 ///// ////1
     26/// /3304 10097 29087 30126 92026 333 60000=
RUP60 09201 99531 11588 ///// ////1
     26/// /3203 10098 29086 30126 92036 333 60000=

####018001135####
SNCN19 CWAO 092047
OOXX
PHP52 09181 99146 11214 ///// ////1
     26/// /0000 10000 29000 3//// 91840 333 60000=
PHP52 09181 99146 11214 ///// ////1
     26/// /0000 10000 29000 3//// 91850 333 60000=
PHP52 09191 99146 11214 ///// ////1
     26/// /0000 10000 29000 3//// 91900 333 60000=
PHP52 09191 99146 11214 ///// ////1
     26/// /0000 10000 29000 3//// 91910 333 60000=
PHP52 09191 99146 11214 ///// ////1
     26/// /0000 10000 29000 3//// 91920 333 60000=
PHP52 09191 99146 11214 ///// ////1
     26/// /0000 10000 29000 3//// 91930 333 60000=
PHP52 09191 99146 11214 ///// ////1
     26/// /0000 10000 29000 3//// 91940 333 60000=
PHP52 09191 99146 11214 ///// ////1
     26/// /0000 10000 29000 3//// 91950 333 60000=
PHP52 09201 99146 11214 ///// ////1
     26/// /0000 10000 29000 3//// 92000 333 60000=
PHP52 09201 99146 11214 ///// ////1
     26/// /0000 10000 29000 3//// 92010 333 60000=
PHP52 09201 99146 11214 ///// ////1
     26/// /0000 10000 29000 3//// 92020 333 60000=
PHP52 09201 99146 11214 ///// ////1
     26/// /0000 10000 29000 3//// 92030 333 60000=

####018001135####
SNCN19 CWAO 092014
OOXX
PAP50 09181 99090 70795 ///// ////1
     26/// /1804 10296 29060 39998 91810 333 60000=
PAP50 09181 99090 70795 ///// ////1
     26/// /1804 10298 29061 39996 91820 333 60000=
PAP50 09181 99090 70795 ///// ////1
     26/// /1603 10304 29058 39994 91830 333 60000=
PAP50 09181 99090 70795 ///// ////1
     26/// /1703 10309 29055 39989 91840 333 60000=
PAP50 09181 99090 70795 ///// ////1
     26/// /1702 10319 29053 39989 91850 333 60000=
PAP50 09191 99090 70795 ///// ////1
     26/// /2202 10331 29048 39987 91900 333 60000=
PAP50 09191 99090 70795 ///// ////1
     26/// /1902 10320 29052 39985 91910 333 60000=
PAP50 09191 99090 70795 ///// ////1
     26/// /1703 10317 29054 39985 91920 333 60000=
PAP50 09191 99090 70795 ///// ////1
     26/// /2101 10325 29051 39985 91930 333 60000=
PAP50 09191 99090 70795 ///// ////1
     26/// /2702 10308 29056 39983 91940 333 60000=
PAP50 09191 99090 70795 ///// ////1
     26/// /0104 10303 29056 39984 91950 333 60000=
PAP50 09201 99090 70795 ///// ////1
     26/// /3605 10298 29058 39984 92000 333 60000=

####018001135####
SNCN19 CWAO 092017
OOXX
CAP17 09181 99476 70527 ///// ////1
     26/// /2817 10275 29045 39990 91820 333 60000=
CAP17 09181 99476 70527 ///// ////1
     26/// /2818 10269 29045 39988 91830 333 60000=
CAP17 09181 99476 70527 ///// ////1
     26/// /2818 10265 29046 39989 91840 333 60000=
CAP17 09181 99476 70527 ///// ////1
     26/// /2817 10262 29049 39989 91850 333 60000=
CAP17 09191 99476 70527 ///// ////1
     26/// /2817 10259 29051 39987 91900 333 60000=
CAP17 09191 99476 70527 ///// ////1
     26/// /2818 10258 29053 39988 91910 333 60000=
CAP17 09191 99476 70527 ///// ////1
     26/// /2819 10255 29054 39988 91920 333 60000=
CAP17 09191 99476 70527 ///// ////1
     26/// /2819 10253 29056 39988 91930 333 60000=
CAP17 09191 99476 70527 ///// ////1
     26/// /2820 10253 29057 39987 91940 333 60000=
CAP17 09191 99476 70527 ///// ////1
     26/// /2818 10251 29058 39985 91950 333 60000=
CAP17 09201 99476 70527 ///// ////1
     26/// /2818 10251 29058 39986 92000 333 60000=
CAP17 09201 99476 70527 ///// ////1
     26/// /2821 10250 29059 39986 92010 333 60000=

####018001135####
SNCN19 CWAO 092042
OOXX
KIP39 09181 99020 51574 ///// ////1
     26/// /1105 10273 29075 30117 91830 333 60000=
KIP39 09181 99020 51574 ///// ////1
     26/// /1105 10278 29073 30116 91840 333 60000=
KIP39 09181 99020 51574 ///// ////1
     26/// /1104 10278 29073 30117 91850 333 60000=
KIP39 09191 99020 51574 ///// ////1
     26/// /1205 10280 29071 30119 91900 333 60000=
KIP39 09191 99020 51574 ///// ////1
     26/// /1105 10281 29071 30118 91910 333 60000=
KIP39 09191 99020 51574 ///// ////1
     26/// /1105 10281 29070 30118 91920 333 60000=
KIP39 09191 99020 51574 ///// ////1
     26/// /1105 10282 29070 30118 91930 333 60000=
KIP39 09191 99020 51574 ///// ////1
     26/// /1105 10282 29071 30119 91940 333 60000=
KIP39 09191 99020 51574 ///// ////1
     26/// /1105 10284 29070 30121 91950 333 60000=
KIP39 09201 99020 51574 ///// ////1
     26/// /1105 10285 29070 30121 92000 333 60000=
KIP39 09201 99020 51574 ///// ////1
     26/// /1105 10288 29070 30121 92010 333 60000=
KIP39 09201 99020 51574 ///// ////1
     26/// /1105 10288 29069 30119 92020 333 60000=

####018001135####
SNCN19 CWAO 092033
OOXX
CAP16 09181 99624 71145 ///// 02051
     26/// /0105 10134 29042 39867 91830 333 60000=
CAP16 09181 99624 71145 ///// 02051
     26/// /0206 10133 29041 39868 91840 333 60000=
CAP16 09181 99624 71145 ///// 02051
     26/// /0205 10134 29042 39867 91850 333 60000=
CAP16 09191 99624 71145 ///// 02051
     26/// /0206 10136 29041 39867 91900 333 60000=
CAP16 09191 99624 71145 ///// 02051
     26/// /0106 10130 29041 39868 91910 333 60000=
CAP16 09191 99624 71145 ///// 02051
     26/// /0105 10143 29038 39869 91920 333 60000=
CAP16 09191 99624 71145 ///// 02051
     26/// /0106 10138 29041 39868 91930 333 60000=
CAP16 09191 99624 71145 ///// 02051
     26/// /0106 10138 29039 39870 91940 333 60000=
CAP16 09191 99624 71145 ///// 02051
     26/// /0205 10136 29040 39869 91950 333 60000=
CAP16 09201 99624 71145 ///// 02051
     26/// /0205 10145 29037 39868 92000 333 60000=
CAP16 09201 99624 71145 ///// 02051
     26/// /0206 10147 29037 39868 92010 333 60000=
CAP16 09201 99624 71145 ///// 02051
     26/// /0206 10140 29037 39868 92020 333 60000=

####018001135####
SNCN19 CWAO 092003
OOXX
AUP10 09181 99319 31160 ///// 00201
     26/// /0502 10072 29097 30112 91811 333 60000=
AUP10 09181 99319 31160 ///// 00201
     26/// /0000 10073 29097 30113 91821 333 60000=
AUP10 09181 99319 31160 ///// 00201
     26/// /0502 10073 29097 30113 91831 333 60000=
AUP10 09181 99319 31160 ///// 00201
     26/// /0503 10075 29097 30113 91841 333 60000=
AUP10 09181 99319 31160 ///// 00201
     26/// /0504 10076 29097 30114 91851 333 60000=
AUP10 09191 99319 31160 ///// 00201
     26/// /3303 10076 29097 30118 91901 333 60000=
AUP10 09191 99319 31160 ///// 00201
     26/// /0303 10077 29099 30118 91911 333 69920=
AUP10 09191 99319 31160 ///// 00201
     26/// /0404 10079 29097 30117 91921 333 60000=
AUP10 09191 99319 31160 ///// 00201
     26/// /1204 10081 29097 30120 91931 333 60000=
AUP10 09191 99319 31160 ///// 00201
     26/// /0904 10080 29097 30117 91941 333 69920=
AUP10 09191 99319 31160 ///// 00201
     26/// /0704 10078 29097 30117 91951 333 60000=
AUP10 09201 99319 31160 ///// 00201
     26/// /0504 10079 29097 30118 92001 333 60000=

####018001135####
SNCN19 CWAO 092031
OOXX
TZP64 09181 99068 30392 ///// ////1
     26/// /0302 10232 29078 30060 91830 333 60000=
TZP64 09181 99068 30392 ///// ////1
     26/// /0402 10231 29079 30059 91840 333 60000=
TZP64 09181 99068 30392 ///// ////1
     26/// /0302 10229 29079 30061 91850 333 60000=
TZP64 09191 99068 30392 ///// ////1
     26/// /3602 10229 29080 30059 91900 333 60000=
TZP64 09191 99068 30392 ///// ////1
     26/// /0102 10228 29080 30061 91910 333 60000=
TZP64 09191 99068 30392 ///// ////1
     26/// /0102 10228 29080 30062 91920 333 60000=
TZP64 09191 99068 30392 ///// ////1
     26/// /0302 10228 29081 30062 91930 333 60000=
TZP64 09191 99068 30392 ///// ////1
     26/// /0202 10228 29081 30061 91940 333 60000=
TZP64 09191 99068 30392 ///// ////1
     26/// /0701 10226 29081 30059 91950 333 60000=
TZP64 09201 99068 30392 ///// ////1
     26/// /0201 10224 29082 30058 92000 333 60000=
TZP64 09201 99068 30392 ///// ////1
     26/// /0101 10223 29082 30059 92010 333 60000=
TZP64 09201 99068 30392 ///// ////1
     26/// /0000 10222 29083 30057 92020 333 60000=

####018001135####
SNCN19 CWAO 092056
OOXX
RUP58 09181 99441 11320 ///// /1121
     26/// /1803 10160 29089 39950 91848 333 60000=
RUP58 09181 99441 11320 ///// /1121
     26/// /1903 10160 29089 39952 91858 333 60000=
RUP58 09191 99441 11320 ///// /1121
     26/// /1903 10160 29089 39952 91908 333 60000=
RUP58 09191 99441 11320 ///// /1121
     26/// /1802 10160 29089 39952 91918 333 60000=
RUP58 09191 99441 11320 ///// /1121
     26/// /1803 10160 29089 39953 91928 333 60000=
RUP58 09191 99441 11320 ///// /1121
     26/// /1802 10160 29089 39953 91938 333 60000=
RUP58 09191 99441 11320 ///// /1121
     26/// /1703 10160 29089 39953 91948 333 60000=
RUP58 09191 99441 11320 ///// /1121
     26/// /1803 10160 29089 39953 91958 333 60000=
RUP58 09201 99441 11320 ///// /1121
     26/// /1704 10160 29089 39953 92008 333 60000=
RUP58 09201 99441 11320 ///// /1121
     26/// /1703 10161 29089 39953 92018 333 60000=
RUP58 09201 99441 11320 ///// /1121
     26/// /1703 10161 29089 39954 92028 333 60000=
RUP58 09201 99441 11320 ///// /1121
     26/// /1802 10162 29089 39954 92038 333 60000=

####018001135####
SNCN19 CWAO 092051
OOXX
FRP31 09181 99052 70527 ///// ////1
     26/// /0504 10280 29063 39802 91847 333 60000=
FRP31 09181 99052 70527 ///// ////1
     26/// /0405 10277 29064 39804 91857 333 60000=
FRP31 09191 99052 70527 ///// ////1
     26/// /0405 10275 29067 39802 91907 333 60000=
FRP31 09191 99052 70527 ///// ////1
     26/// /0305 10274 29067 39799 91917 333 60000=
FRP31 09191 99052 70527 ///// ////1
     26/// /0404 10276 29067 39796 91927 333 60000=
FRP31 09191 99052 70527 ///// ////1
     26/// /0404 10274 29066 39793 91937 333 60000=
FRP31 09191 99052 70527 ///// ////1
     26/// /0304 10273 29067 39793 91947 333 60000=
FRP31 09191 99052 70527 ///// ////1
     26/// /0404 10273 29068 39797 91957 333 60000=
FRP31 09201 99052 70527 ///// ////1
     26/// /0404 10272 29069 39793 92007 333 60000=
FRP31 09201 99052 70527 ///// ////1
     26/// /0404 10270 29068 39798 92017 333 60000=
FRP31 09201 99052 70527 ///// ////1
     26/// /0404 10269 29068 39799 92027 333 60000=
FRP31 09201 99052 70527 ///// ////1
     26/// /0504 10269 29068 39798 92037 333 60000=

####018001135####
SNCN19 CWAO 092016
OOXX
MYP42 09181 99045 11014 ///// ////1
     26/// /2301 10173 29095 38440 91823 333 60000=
MYP42 09181 99045 11014 ///// ////1
     26/// /2101 10169 29095 38434 91833 333 60000=
MYP42 09181 99045 11014 ///// ////1
     26/// /2701 10172 29095 38440 91843 333 60000=
MYP42 09181 99045 11014 ///// ////1
     26/// /3501 10172 29095 38427 91853 333 60000=
MYP42 09191 99045 11014 ///// ////1
     26/// /2401 10172 29095 38421 91903 333 60000=
MYP42 09191 99045 11014 ///// ////1
     26/// /3205 10177 29090 38431 91913 333 60000=
MYP42 09191 99045 11014 ///// ////1
     26/// /2204 10178 29090 38423 91923 333 60000=
MYP42 09191 99045 11014 ///// ////1
     26/// /3501 10174 29092 38432 91933 333 60000=
MYP42 09191 99045 11014 ///// ////1
     26/// /2203 10172 29094 38431 91943 333 60000=
MYP42 09191 99045 11014 ///// ////1
     26/// /2302 10172 29093 38425 91953 333 60000=
MYP42 09201 99045 11014 ///// ////1
     26/// /1905 10176 29091 38429 92003 333 60000=
MYP42 09201 99045 11014 ///// ////1
     26/// /2004 10174 29093 38423 92013 333 60000=

####018001135####
SNCN19 CWAO 092009
OOXX
ARP01 09181 99345 50585 ///// 00681
     26/// /0000 10081 29025 30212 91810 333 60000=
ARP01 09181 99345 50585 ///// 00681
     26/// /0000 10080 29025 30213 91820 333 60000=
ARP01 09181 99345 50585 ///// 00681
     26/// /0000 10080 29025 30212 91830 333 60000=
ARP01 09181 99345 50585 ///// 00681
     26/// /0000 10082 29025 30212 91840 333 60000=
ARP01 09181 99345 50585 ///// 00681
     26/// /0000 10084 29025 30211 91850 333 60000=
ARP01 09191 99345 50585 ///// 00681
     26/// /0000 10086 29025 30210 91900 333 60000=
ARP01 09191 99345 50585 ///// 00681
     26/// /0000 10086 29025 30209 91910 333 60000=
ARP01 09191 99345 50585 ///// 00681
     26/// /0000 10087 29024 30208 91920 333 60000=
ARP01 09191 99345 50585 ///// 00681
     26/// /0000 10087 29024 30208 91930 333 60000=
ARP01 09191 99345 50585 ///// 00681
     26/// /0000 10083 29024 30209 91940 333 60000=
ARP01 09191 99345 50585 ///// 00681
     26/// /0000 10080 29025 30211 91950 333 60000=
ARP01 09201 99345 50585 ///// 00681
     26/// /0000 10078 29025 30213 92000 333 60000=

####018001135####
SNCN19 CWAO 092001
OOXX
NOP49 09181 99782 10154 ///// 04551
     26/// /1305 10064 29085 39547 91810 333 6///0=
NOP49 09181 99782 10154 ///// 04551
     26/// /1405 10063 29087 39547 91820 333 6///0=
NOP49 09181 99782 10154 ///// 04551
     26/// /1203 10063 29087 39547 91830 333 6///0=
NOP49 09181 99782 10154 ///// 04551
     26/// /1303 10062 29088 39548 91840 333 6///0=
NOP49 09181 99782 10154 ///// 04551
     26/// /1303 10058 29089 39548 91850 333 6///0=
NOP49 09191 99782 10154 ///// 04551
     26/// /1302 10061 29089 39548 91900 333 6///0=
NOP49 09191 99782 10154 ///// 04551
     26/// /1102 10061 29088 39549 91910 333 6///0=
NOP49 09191 99782 10154 ///// 04551
     26/// /0802 10062 29088 39549 91920 333 6///0=
NOP49 09191 99782 10154 ///// 04551
     26/// /0000 10066 29089 39549 91930 333 6///0=
NOP49 09191 99782 10154 ///// 04551
     26/// /0000 10070 29088 39549 91940 333 6///0=
NOP49 09191 99782 10154 ///// 04551
     26/// /0801 10070 29088 39549 91950 333 6///0=
NOP49 09201 99782 10154 ///// 04551
     26/// /0901 10072 29088 39548 92000 333 6///0=

####018001135####
SNCN19 CWAO 092004
OOXX
ISP34 09181 99641 70218 ///// ////1
     26/// /0503 10184 29051 39921 91810 333 6///0=
ISP34 09181 99641 70218 ///// ////1
     26/// /1703 10191 29049 39922 91820 333 6///0=
ISP34 09181 99641 70218 ///// ////1
     26/// /1705 10180 29054 39923 91830 333 6///0=
ISP34 09181 99641 70218 ///// ////1
     26/// /2005 10171 29056 39925 91840 333 6///0=
ISP34 09181 99641 70218 ///// ////1
     26/// /2205 10167 29058 39926 91850 333 6///0=
ISP34 09191 99641 70218 ///// ////1
     26/// /2105 10162 29065 39928 91900 333 6///0=
ISP34 09191 99641 70218 ///// ////1
     26/// /2304 10159 29067 39929 91910 333 6///0=
ISP34 09191 99641 70218 ///// ////1
     26/// /2205 10154 29068 39930 91920 333 6///0=
ISP34 09191 99641 70218 ///// ////1
     26/// /2305 10150 29071 39931 91930 333 6///0=
ISP34 09191 99641 70218 ///// ////1
     26/// /2204 10148 29072 39933 91940 333 6///0=
ISP34 09191 99641 70218 ///// ////1
     26/// /2304 10146 29073 39935 91950 333 6///0=
ISP34 09201 99641 70218 ///// ////1
     26/// /2404 10144 29073 39936 92000 333 6///0=

####018000703####
SIPL30 SOWR 092100
AAXX 09211
12105 42981 10000 10208 20170 30170 40211 52007 81041=
12195 42971 03402 10167 20143 30012 40234 53010 =
12235 42969 11901 10210 20160 30018 40220 52011 81030=
12270 42965 20802 10206 20145 30054 40229 52012 80001=
12280 42980 00000 10192 20164 30078 40230 52009 =
12300 42981 11702 10248 20106 30119 40204 52009 81040=
12400 42982 11403 10237 20077 39985 40209 52006 81031=
12435 42974 01102 10232 20119 30060 40224 53010 =
12495 42970 10000 10144 20112 39947 40234 51011 80001=
12530 42980 10000 10186 20151 30029 40222 53009 80001=
12570 42965 53201 10165 20136 39924 40234 52010 80008=
12580 42970 22402 10162 20147 39976 40229 51009 80001=
####018000201####
SIRH20 LDZM 092100
AAXX 09211
14240 42970 03401 10187 20125 30064 40215 51008=
14258 42970 00000 10172 20156 30035 40217 52010=
14445 42970 00605 10253 20115 30042 40189 51013
  333 92312=
####018000579####
SIPL20 SOWR 092100
AAXX 09211
12120 42981 01302 10213 20156 30208 40215 52007 =
12160 42982 00804 10221 20152 30174 40225 51010 =
12205 42980 21303 10215 20153 30193 40201 53008 82030=
12250 42981 10000 10194 20122 30135 40221 52011 81030=
12295 42963 30000 10167 20157 30048 40227 51011 80001=
12330 42970 01401 10215 20144 30113 40217 52008 =
12375 42980 20000 10191 20139 30099 40225 52009 80001=
12424 42999 01203 10180 20118 30071 40219 52008 =
12465 42966 11102 10192 20129 30003 40228 53009 80001=
12566 42980 00401 10156 20118 39946 40234 51010 =
####018000136####
SILJ21 LJLM 092100
AAXX 09211
14026 42998 00000 10181 20146 39909 40219 52009=
14121 46/// /2401 10200 20152 39957 40212 52010=
####018000348####
SIRH21 LDZM 092100
AAXX 09211
14241 42980 00000 10191 20149 30090 40216 51010=
14284 42970 02901 10212 20147 30111 40215 51008=
14307 42981 03503 10225 20178 30129 40202 53003 333=
14431 42975 00000 10201 20150 30110 40200 53009=
14444 42980 03501 10213 20144 30168 40196 52015 333=
14474 42980 00803 10243 20099 30005 40187 52009=
####018000085####
SILJ20 LJLM 092100
AAXX 09211
14014 42982 00000 10193 20164 39775 40217 53011=
####018000101####
SMRS13 RUMS 091800 CCA
AAXX 09181
22271 41498 71306 10080 20067 30144 40154 57009 72582 87300=
####018000101####
SMRS14 RUMS 091800 CCA
AAXX 09181
22165 41698 81001 10099 20090 30095 40159 57007 70282 885//=
####018000628####
SIKO20 RKSL 092100
AAXX 09214
47101 31558 60001 10207 20193 30008 40097 52012 71022 85601=
47105 369// /3403 10207 20188 30063 40093 52015=
47108 32660 20502 10218 20181 39990 40088 52009 81501=
47115 32562 60901 10201 20187 39848 40101 52009 84502=
47133 32960 50001 10212 20183 30014 40086 52010 80001=
47138 31957 62303 10221 20205 30096 40097 52008 71022 80001=
47159 31957 51803 10226 20208 30017 40096 52006 71022 80001=
47165 31956 51603 10219 20217 30045 40088 53006 71022 80001=
47168 31956 60703 10222 20204 30021 40105 52007 71022 83032=
47184 32665 60000 10212 20174 30064 40087 52005 84501=
####018001489####
SINZ20 NZKL 092100
AAXX 09214
93004 46/// /1115 10099 20067 40255 52012=
93023 46/// /1805 10072 20052 40264 52015=
93069 46/// /1312 10104 20049 40270 52018=
93110 46/98 /1705 10056 20034 40281 52020=
93186 45/98 /2208 10055 20014 40280 52017=
93196 46/// /1812 10095 20033 40256 52025=
93245 45/98 /0601 10022 20000 40294 52009=
93292 47698 /2803 10066 20056 40272 52021=
93305 46/// /1325=
93309 45/98 /1408 10074 20041 40293 52015=
93334 46/// /1302 11001 21015 39309 52015=
93373 45898 /2308 10066 20023 40288 52018=
93404 45697 /0000 10036 20033 40304 52019=
93420 45/98 /1904 10058 20040 40304 52018=
93439 45597 /2021 10078 20048 40304 52017=
93498 46/// /2413 10056 20035 40287 52018=
93515 45/98 /1709 10032 21016 40300 52017=
93527 46/// /1406 10072 21002 40304 52017=
93546 45/97 /2401 10023 21001 40305 52017=
93597 46/// /2010 10074 20006 40303 52019=
93615 45/98 /1405 10021 21030 40305 52013=
93678 46/98 /2310 10055 20015 40311 52011=
93709 46/// /1510 10048 21018 40303 52017=
93773 45/98 /3103 11020 21032 40313 52010=
93781 45598 /3201 10007 20001 40315 52011=
93800 NIL=
93805 NIL=
93831 45/98 /0403 11047 21063 40344 52011=
93845 45598 /3606 10006 21005 40314 52007=
93891 47/97 /0501 11035 21036 40316 52010=
93909 46/// /2608 10054 20041 40302 52005=
93929 46/// /2717 10061 20046 40262 52006=
93947 46/// /2621 10066 20040 40205 57002=
93987 46/// /1918 10067 20031 40172 52024=
93994 NIL=
####018000266####
SMTD01 TTPP 091800 CCC
AAXX 09184
78970 11258 8//07 10276 20242 30110 40135 60011 76082 87972
333 06299 10320 20251 58018 81705 83908 85635 90915=
78962 11320 61015 10302 20256 30127 40135 69971 78082 83962
333 06299 10302 20246 58012 82908 83812 90915=
####018002551####
SIKO21 RKSL 092100
AAXX 09214
47090 31656 42702 10207 20198 30071 40098 52012 71021 84500=
47095 31950 30702 10187 20175 39918 40096 52013 71010 80001=
47097 31956 40201 10192 20180 30004 40108 52012 71011 80001=
47098 32960 40202 10190 20169 39964 40094 53012 80001=
47099 31956 30702 10205 20198 30058 40093 52011 71000 80001=
47100 31204 90000 10164 20155 39238 40101 52011 74744=
47102 31930 61407 10212 20200 39912 40079 52004 71022 83031=
47104 31959 52702 10196 20177 30002 40093 52015 71022 80001=
47106 31958 62303 10205 20193 30047 40093 52016 71022 80001=
47112 31630 40000 10221 20212 30010 40089 52007 71010 82501=
47114 32665 40000 10205 20175 39924 40098 52013 82501=
47119 31950 40001 10220 20211 30051 40091 52010 71011 84030=
47121 31425 61104 10191 20179 39825 40099 50011 71022 83601=
47127 31956 50701 10201 20184 39965 40097 52014 71021 80001=
47129 31930 60000 10205 20200 30060 40089 52008 71022 80001=
47130 32962 32001 10195 20181 30039 40094 52010 80001=
47131 32961 33402 10213 20184 30027 40092 52011 81031=
47135 31658 40000 10189 20177 39818 40093 52011 71010 81501=
47136 31958 40902 10203 20185 39936 40098 52012 71011 80001=
47137 31959 62902 10203 20187 39986 40099 52013 71022 80001=
47140 31956 50000 10220 20216 30061 40092 52006 71011 80001=
47143 31930 60702 10231 20192 30031 40096 52009 71022 80002=
47145 31657 51404 10215 20192 30063 40088 52009 71021 82501=
47146 32962 52002 10215 20186 30027 40097 53005 80001=
47150 32963 60501 10220 20202 30070 40091 52008 80001=
47152 31958 52902 10213 20201 30058 40098 52009 71022 80001=
47154 31958 42903 10216 20191 30041 40096 52013 71011 80001=
47155 31940 42701 10222 20208 30057 40099 52010 71011 80001=
47156 31958 62004 10230 20212 30011 40096 53008 71022 80001=
47157 31650 53202 10193 20183 39846 40099 52008 71011 82501=
47162 31920 41602 10205 20201 30062 40098 52008 71011 80001=
47169 31506 91407 10206 20197 39996 40075 52006 74544=
47170 31958 60906 10218 20207 30054 40086 53010 71022 80001=
47171 32962 60000 10220 20191 30039 40084 52008 80001=
47172 32961 60901 10219 20203 30021 40083 52006 80001=
47173 31956 60000 10191 20177 39991 40099 53008 71022 80001=
47174 31956 61401 10222 20206 30010 40095 53005 71022 84032=
47175 31506 91612 10195 20190 39549 40087 53005 74542=
47185 31658 61108 10226 20222 39998 40079 50001 71021 83531=
47189 31658 60203 10234 20197 30032 40089 51005 71022 83530=
47192 31630 60001 10215 20196 30065 40096 52008 71011 81501=
####018000105####
SIBX22 EBBR 092100 RRA
AAXX 09211
06431 46/// /0901 10237 20151 30171 40182 52004 333 91103 91202=
####018000105####
SIBX20 EBBR 092100 RRA
AAXX 09211
06447 46/// /1401 10249 20173 30064 40182 53008 333 91106 91204=
####018000188####
SICD20 FTTJ 092100
AAXX 09214
64700 42960 50404 10252 20242 39783 40119 85532
  333 58007 85630 83365=
64750 42960 70000 10258 20234 39710 40119 87072 92100
  333 58004 87365=
####018000224####
SITD20 TTPP 092100
AAXX 09214
78970 41368 80000 10271 20249 30099 40124 76062 86972
333 06299 58012 58012 82908 84638 86358=
78962 41356 70912 10276 20229 30125 40133 71522 83973
333 06299 58015 81708 82910 85358=
 
####018001123####
SITH20 VTBB 092100
AAXX 09214
48300 32460 60000 10251 20242 39758 40068 84656
  333 59006=
48327 32960 00000 10263 20241 39708 40059
  333 59024=
48331 32960 30000 10271 20257 39824 40051 80046
  333 59015=
48353 32663 20000 10250 20235 39770 40058 81505
  333 59004=
48356 32560 60000 10258 20232 39874 40069 82531
  333 58008=
48375 32560 40000 10247 20229 39836 40061 84500
  333 59010=
48378 21560 61703 10257 20247 30007 40060 70162 83546
  333 59003 69957=
48381 32960 21603 10258 20232 39846 40065 80005
  333 59002=
48407 31559 71403 10270 20248 39933 40073 71022 82246
  333 58005=
48431 32960 20000 10253 20244 39852 40064 80005
  333 59001=
48456 32560 50000 10269 20223 30058 40072 81135
  333 59006=
48480 21557 70000 10255 20240 30069 40073 71096 84846
  333 59003 60027=
48500 32962 30000 10258 20224 30067 40073 80005
  333 59007=
48551 31556 22104 10245 20233 30084 40092 71000 82505
  333 59001=
48565 32460 70000 10257 20232 30065 40075 82247
  333 59005=
48569 31558 50000 10250 20231 30058 40098 71011 82206
  333 58001=
48583 NIL=
####018000338####
SIVS21 VNNN 092100
AAXX 09211
48808 31498 41402 10256 20235 39775 40051 53005 71311 84900 333
58006 82894 82995=
48823 32698 71802 10300 20264 30035 40038 56006 875// 333 58002
87696=
48830 32598 70000 10270 20253 39750 40045 53003 878// 333 58006
82895 86697=
48840 32998 01802 10290 20265 30027 40033 55006 333 58002=
####018000095####
SMRS15 RUMS 091800 CCA
AAXX 09181
22282 41/93 90904 10056 20056 30161 40169 57010 74544=
####018000095####
SMRS15 RUMS 091800 CCB
AAXX 09181
22438 42562 62003 10156 20151 30090 40115 57006 86900=
####018000364####
SAYE20 OYSC 092100
METAR OYSN 092100Z 19004KT 8000 BKN030 18/13 Q1023=
METAR OYTZ 092100Z 34008KT 9999 SCT030 SCT060 23/15 Q1009=
METAR OYHD 092100Z 00000KT 6000 SCT030 SCT060 31/27 Q////=
METAR OYDM 092100Z 27008KT 9999 TSRA FEW020CB SCT030 14/14 Q////=
METAR OYRN 092100Z 02006KT 7000 NSC 29/23 Q1004=
METAR OYSY 092100Z 21005KT CAVOK 30/20 Q1006=
####018000276####
SIMK10 LYPG 092100
AAXX 09211
13463 42970 00204 10258 20109 30126 40186 52017=
13459 42970 10507 10196 20109 39471 40202 52012 81030 333 81399 91112=
13461 42970 00502 10208 20140 30179 40186 52008 333 92322 92428=
13363 42970 02502 10140 20112 39332 48569 52010=
####018001077####
SITH21 VTBB 092100
AAXX 09214
48303 32560 70000 10246 20233 39615 40056 84576
  333 59012=
48328 32960 20000 10262 20248 39781 40056 80005
  333 59014=
48330 21556 60000 10258 20245 39868 40053 71062 83536
  333 59011 60047=
48351 32562 60000 10270 20241 39983 40056 84836
  333 59001=
48354 32362 60601 10265 20245 39855 40057 83635
  333 59004=
48376 31958 22808 10280 20213 39916 40060 71000 80005
  333 59017=
48377 NIL=
48379 32560 20000 10243 20230 39921 40054 81105
  333 58001=
48400 32560 30903 10266 20249 30019 40059 82505
  333 59005=
48432 31957 61602 10255 20240 39903 40071 71021 82046
  333 58001=
48455 NIL=
48462 31957 20000 10256 20246 30022 40078 71000 80005
  333 59001=
48475 32962 20000 10260 20223 30061 40068 80005
  333 59006=
48477 31557 40000 10259 20252 30049 40073 71011 81145
  333 59002=
48517 32960 20000 10254 20230 30081 40087 80005
  333 58000=
48532 32560 50302 10255 20239 30079 40088 83506
  333 59007=
48567 31559 50000 10251 20242 30070 40089 71011 81106
  333 59002=
####018001366####
SITH40 VTBB 092100
AAXX 09214
48310 32560 50000 10260 20241 39598 40042 82506
  333 59014=
48325 32660 50000 10245 20238 39822 40065 82545
  333 59011=
48329 32960 00000 10263 20247 39718 40053
  333 59014=
48352 32960 23402 10262 20240 39862 40059 80005
  333 59007=
48357 NIL=
48380 32960 00000 10269 20246 39970 40063
  333 58002=
48383 32960 00000 10274 20233 39903 40061
  333 58004=
48403 32560 60000 10254 20241 39859 40068 82536
  333 58000=
48405 32960 62303 10260 20238 39898 40060 82036
  333 59003=
48420 32560 73602 10277 20261 30062 40066 82246
  333 59004=
48421 31550 80000 10246 20237 39994 40108 71022 83546
  333 58017=
48425 31556 50000 10269 20238 30057 40067 71011 82536
  333 59005=
48426 NIL=
48429 32560 70000 10268 20239 30065 40072 82837
  333 59004=
48430 31958 30000 10260 20246 30060 40067 71011 82045
  333 59004=
48450 32960 22703 10274 20227 30030 40063 80005
  333 59010=
48459 32562 50000 10281 20258 30066 40068 83531
  333 59006=
48465 32561 60000 10260 20232 30064 40068 82506
  333 59006=
48550 31558 60000 10282 20245 30078 40085 71322 82946
  333 58003=
48552 32460 30000 10243 20227 30079 40085 81205
  333 58000=
48566 32560 62603 10260 20238 30079 40087 82846
  333 59009=
48568 32460 30000 10265 20246 30082 40090 81801
  333 59002=
####018000819####
SITH42 VTBB 092100
AAXX 09214
48302 NIL=
48304 31558 70000 10246 20239 39598 40048 71022 85536
  333 59013=
48334 NIL=
48360 NIL=
48372 NIL=
48373 NIL=
48386 31556 50000 10260 20246 30018 40062 71011 82546
  333 58004=
48387 NIL=
48408 32960 60000 10265 20240 39926 40075 82046
  333 58005=
48415 32560 80000 10257 20247 30039 40051 84576
  333 59017=
48433 NIL=
48437 32960 01802 10253 20240 39866 40076
  333 59002=
48440 NIL=
48451 31559 40000 10259 20233 30056 40067 71021 81855
  333 59010=
48454 NIL=
48457 NIL=
48463 NIL=
48464 NIL=
48479 32960 60000 10261 20245 30021 40073 82047
  333 59001=
48520 31956 40000 10250 20235 30073 40088 71011 80005
  333 58000=
48554 NIL=
48563 NIL=
48571 32560 60000 10255 20237 30074 40086 83268
  333 59007=
####018001268####
SITH41 VTBB 092100
AAXX 09214
48315 31550 80000 10269 20255 39796 40063 71022 8557/
  333 59007=
48374 31556 80000 10245 20223 39903 40068 71022 8357/
  333 59001=
48382 32060 80000 10250 20250 39885 40061 82476
  333 58004=
48385 NIL=
48390 NIL=
48402 31558 60000 10262 20245 30039 40059 71022 82545
  333 59002=
48413 21556 60000 10250 20248 39990 40070 71062 83555
  333 58006 69937=
48416 31958 10000 10263 20234 39924 40071 71000 80005
  333 58002=
48418 31958 20000 10254 20244 30006 40065 71000 80005
  333 58000=
48434 32960 20000 10255 20233 39849 40069 80005
  333 58001=
48436 31958 20000 10243 20236 39860 40067 71000 80005
  333 58001=
48439 31556 60000 10255 20248 30060 40074 71022 82245
  333 59008=
48460 31959 10000 10272 20255 30036 40068 71011 80001
  333 59001=
48461 32565 52805 10283 20238 30001 40070 82506
  333 59004=
48478 31958 40000 10270 20267 30074 40079 71011 80006
  333 58002=
48501 21456 80602 10250 20243 30073 40077 76062 8587/
  333 58001 60077=
48561 21460 60000 10245 20238 30086 40095 70162 82846
  333 58000 60097=
48564 32560 20000 10261 20236 30088 40092 81245
  333 59001=
48570 32560 40000 10250 20238 30085 40092 81105
  333 58000=
48580 NIL=
####018000524####
SIYG20 LYBM 092100
AAXX 09211
13160 32997 00000 10183 20161 30114 40219 51012=
13262 32998 02501 10187 20143 30077 40222 52011=
13272 32965 23402 10189 20143 30103 40219 52010 80001=
13285 32998 22901 10189 20151 30099 40198 52012 82030=
13289 32998 03107 10140 20103 39031 48547 50004=
13376 32999 02002 10186 20139 39963 40216 52009=
13388 32698 50000 10209 20128 39958 40196 51008 85500=
13462 32970 03604 10250 20103 30146 40184 52016=
13473 NIL=
13489 32997 00000 10177 20128 39703 40205 52012=
####018000083####
SIOS20 LOWM 092100 RRA
AAXX 09211
11244 36/// /3501 10183 20148 39904 40234=
####018000455####
SIYG22 LYBM 092100
AAXX 09211
13168 32998 02501 10177 20158 30113 40217 51009=
13174 32997 03401 10183 20144 30117 40213 51008=
13269 32999 02602 10186 20139 30017 40224 52014=
13274 32998 00502 10227 20128 30055 40209 52012=
13278 32998 01702 10176 20135 39998 40217 51014=
13378 32998 00503 10084 20076 38348 48574 52009=
13397 32998 00000 10168 20143 39673 40194 52012=
13457 32970 00000 10182 20143 30180 40187 52010=
13481 NIL=
####018000301####
SIYG21 LYBM 092100
AAXX 09211
13067 32997 00303 10197 20140 30098 40223 52011=
13183 42960 00000 10151 20124 30109 40210 51011=
13279 32998 03402 10181 20128 30063 40206 52009=
13295 32998 32703 10226 20155 30129 40181 52007 80005=
13367 32998 23202 10146 20100 39069 48575 52013 80002=
####018000428####
SIYG23 LYBM 092100
AAXX 09211
13173 32998 03602 10196 20146 30110 40206 51007=
13180 32998 02903 10183 20144 30103 40210 51010=
13266 32998 00301 10176 20157 30119 40217 51010=
13369 32698 12901 10120 20102 39057 48545 52019 81500=
13383 32998 31202 10191 20141 30005 40201 52008 83030=
13384 32998 10901 10170 20128 30058 40206 51007 81030=
13389 32598 61802 10178 20156 39926 40197 51010 86800=
13477 NIL=
####018001118####
SIMS20 WMKK 092100
AAXX 09214
48601 41559 70202 10259 20243 30086 40090 70522 82532
  333 82625 83364 87077=
48615 41460 82104 10246 20229 30087 40093 76062 8492/
  333 82710 81917 84620 88469=
48620 41257 70000 10247 20239 30081 40090 71022 83532
  333 82705 87078=
48647 41456 70000 10252 20243 30068 40093 71322 82932
  333 81917 87078=
48657 41056 73001 10236 20232 30074 40092 71062 82541
  333 81700 84366 85078=
48665 42560 70402 10238 20229 30087 40097 81541
  333 81628 87078=
96413 42565 70601 10233 20226 30083 40110 83562
  333 83620 86365=
96421 41465 72602 10230 20225 30073 40109 72162 8357/
  333 83618 87365=
96441 42468 71401 10227 20222 30081 40108 8257/
  333 82614 87365=
96449 42465 72007 10238 20229 30085 40105 8357/
  333 83614 87465=
96465 41458 70000 10247 20242 30065 40098 71022 81832
  333 81812 83364 87079=
96471 42468 70502 10238 20229 30098 40101 81848
  333 81814 83364 87277=
96481 41462 73003 10236 20220 30087 40106 70166 83841
  333 82817 83364 86080=
96491 42465 72304 10245 20230 30093 40105 81832
  333 81815 87078=
####018000125####
SIVD02 CWAO 092100
BBXX
LAJV4 09214 99/// ///// 46/// /3014 10069 20064 40203 53024 7//// 8//// 22200 0//// 2//// =

####018001213####
SITH43 VTBB 092100
AAXX 09214
48307 31550 50000 10246 20234 39682 40059 71011 82556
  333 59020=
48324 NIL=
48333 31556 80000 10260 20246 39768 40067 71022 83576
  333 59003=
48350 NIL=
48355 32960 00000 10250 20235 39847 40065
  333 58006=
48358 31558 60000 10260 20248 39884 40058 71022 82836
  333 59008=
48384 31958 00000 10250 20247 39873 40063 71000
  333 58004=
48401 31956 20000 10257 20239 39965 40072 71000 81045
  333 59007=
48404 NIL=
48409 NIL=
48419 31559 81802 10265 20251 30064 40072 71022 85540
  333 59006=
48427 NIL=
48435 32960 20000 10245 20221 39643 40080 80005
  333 58001=
48453 32960 30000 10278 20240 30068 40071 80005
  333 58001=
48458 31958 60000 10248 20244 30007 40088 71022 84036
  333 59005=
48474 32962 70000 10234 20225 39949 40073 80006
  333 59009=
48481 NIL=
48555 31556 50000 10238 20226 30070 40113 71011 82545
  333 59009=
48556 32560 50000 10244 20235 30079 40095 81106
  333 59002=
48557 31550 40000 10230 20222 30059 40094 71011 82805
  333 59006=
48560 31558 60000 10251 20241 30083 40087 71021 82276
  333 59001=
48574 32560 60000 10248 20239 30061 40091 82136
  333 59002=
48581 NIL=
####018000640####
SITU11 LTAA 092100
AAXX 09214
17026 42670 23206 10227 20204 30086 40123 51008 82200
 333 82833 91114 92428=
17034 NIL=
17070 42665 52201 10164 20158 39300 40138 52010 85200
 333 85833=
17084 NIL=
17090 NIL=
17098 42960 02903 10135 20053 38219 48505 52010=
17150 42660 60104 10199 20163 30036 40155 51011 84250
 333 84835 85360=
17160 42970 03612 10232 20156 38979 48485 52019
 333 91118=
17184 NIL=
17189 42970 02907 10166 20099 39019 48509 52026=
17210 NIL=
17234 NIL=
17260 42960 02602 10217 20148 39302 40064 50003=
17290 42970 03506 10243 20155 30081 40111 52009
 333 91116 92428=
17370 NIL=
####018001085####
SITU10 LTAA 092100
AAXX 09214
17022 42662 51502 10198 20168 39970 40130 50004 82130
 333 82834 85360 91107 92427=
17031 42670 53009 10235 20209 30111 40117 50007 83250
 333 83836 85360=
17038 42570 49903 10255 20208 30068 40116 52010 84100
 333 82720 83835 92428=
17050 42670 52601 10199 20177 30104 40164 51006 83230
 333 83835 85360 91108=
17060 42660 43112 10206 20182 30101 40140 51008 84200
 333 84835=
17096 42970 /0702 10110 20054 38254 48504 52011=
17124 42660 33006 10172 20137 39253 40131 52016 83100
 333 83835=
17128 42970 32704 10193 20152 39061 40096 52017 83030
 333 83360=
17170 42965 01406 10185 21004 38339 48499 50002=
17195 42670 10403 10210 20141 38929 48483 52016 81100
 333 81840=
17199 42970 01806 10284 20024 39031 40027 52011=
17219 42965 00116 10223 20150 39990 40128 53011 333 91124=
17240 42570 11501 10183 20139 39016 40100 52014 81100
 333 81830 91108=
17244 42970 03218 10220 20128 38967 48497 52020=
17280 42970 00402 10243 20009 39321 40043 50007=
17350 42960 02002 10241 20220 30023 40097 50004=
####018000383####
SIKY20 UAFF 092100
AAXX 09211
36911 429// 80902 10206 20117 39162 40060 53001 8807/=
36974 429// 00902 10132 20058 37993 48519 57001=
36982 429// 60000 10019 20006 36594 47189 53010 86050=
38345 41798 82701 10180 20151 38767 48484 53020 71798 889//=
38353 415// 51801 10224 20089 39210 40038 57007 72992 82930=
38613 429// 00302 10211 20118 40074 58006=
38616 NIL=
####018000089####
SIIY21 LIIB 092100 RRA
AAXX 09214
16148 42970 00000 10253 20218 30191 40203 53007=
####018000694####
SITU12 LTAA 092100
AAXX 09214
17024 42670 52008 10203 20195 30046 40120 50001 83250
 333 83835 85360 91112 92438=
17056 42970 33103 10198 20162 30159 40163 52010 83030
 333 83360 92428=
17067 42670 63006 10220 20177 30113 40134 52013 86200
 333 86840 92418=
17092 NIL=
17112 42670 60503 10210 20157 30167 40169 52010 84250
 333 84835 86360 91113 92418=
17115 41660 62804 10196 20160 30100 40149 50012 70282 84230
 333 84835 86360=
17116 NIL=
17188 NIL=
17202 42970 02904 10215 20031 39107 40047 51010=
17248 42975 00504 10218 20127 38944 48486 52019=
17292 NIL=
17300 42560 30802 10249 20213 30029 40101 52012 83100
 333 83830=
17310 NIL=
17330 NIL=
####018000787####
SITU14 LTAA 092100
AAXX 09214
17500 NIL=
17501 42560 31607 10253 20220 30086 40104 52011 83100
333 83830 92427=
17505 42560 33207 10243 20203 30004 40112 52009 83100
333 83830=
17507 NIL=
17510 42560 20804 10257 20213 30106 40116 51005 82100
333 82830 92417=
17515 42560 33607 10238 20201 39949 40117 51008 83100
333 83830=
17521 NIL=
17530 41558 10000 10246 20211 30051 40105 51007 71000 81100
333 81830=
17535 42560 10000 10235 20170 30066 40101 52006 81100
333 81830=
17540 42960 01204 10261 20233 30092 40115 51004
333 92427=
17547 42960 02004 10235 20222 39867 40100 50005
333 92427=
17550 41558 10000 10242 20217 39957 40096 50006 71000 81100
333 81830 92427=
17572 42560 22806 10254 20214 30088 40111 52008 82100
333 82830 92417=
####018000507####
SITU13 LTAA 092100
AAXX 09214
17042 NIL=
17074 NIL=
17086 42670 41107 10238 20166 39410 40077 51021 84200
 333 84835=
17088 42970 02503 10196 20170 38780 48502 52012=
17140 42965 00603 10190 20175 38687 48486 52017=
17155 NIL=
17203 42970 00000 10230 20063 38850 48533 51014=
17237 NIL=
17250 NIL=
17270 42970 03209 10282 20160 39460 40055 52013=
17295 42960 01002 10234 20178 30087 40094 52013=
17320 NIL=
17375 42970 00501 10253 20192 30096 40098 52012
 333 91104 92408=
####018000612####
SIBO21 SLLP 092100
AAXX 09214
85041 42370 71203 10262 20243 39845 40101 57014 82933
333 10269 56000 58024 81812 81920 87070=
85140 41470 73203 10244 20224 39920 40132 57018 70182 86550
333 10270 56770 58012 86616 87357=
85141 42484 70000 10250 20230 39878 40111 57018 86530
333 10270 56330 58009 86615 87357=
85151 NIL=
85152 42484 63005 10258 20218 39882 40119 57016 82230
333 10278 56770 58002 82820 85358=
85201 42470 22910 10128 21092 36287 57013 81101
333 10148 56000 58007 81815 91020=
85230 NIL=
85242 42584 11805 10144 21095 36547 57019 81100
333 10168 56800 58008 81820=
####018000089####
SNPS40 AMMC 092000 RRA
AAXX 09204
91559 46/// /0000 10217 40129 22200 00267=


####018000067####
SNAA14 KARS 091900
AAXX 09194
89528 46/// /3653 4//// 5////=
####018001296####
SIBU20 LZSO 092100
AAXX 09211
15502 42970 00000 10204 20175 30137 40175 51004 333 10242 20204 555
583//=
15525 42565 72706 10213 20147 39915 40168 52006 85550 333 10227 20213
555 566//=
15528 42970 82701 10217 20155 39969 40149 52006 8805/ 333 10236 20214
555 568//=
15535 41570 71102 10202 20176 30112 40156 52014 70282 87900 333 10209
20202 555 58500 63099=
15549 41458 70204 10173 20170 39768 40169 52007 78088 87300 333 10183
20173 555 59804 69999=
15552 41460 83408 10190 20170 30083 40130 52004 72998 889// 333 10204
20190 555 58802 63299 92025 92427=
15614 42668 62702 10192 20138 39507 40182 52012 86800 333 10218 20192
555 571//=
15615 41/00 90206 10024 20024 37193 47147 51007 74544 333 10028 20010
555 500//=
15626 42670 62704 10226 20149 39985 40164 52009 84530 333 10245 20220
555 562//=
15627 41/00 93224 10058 20058 37654 47114 53002 74544 333 10058 20056
91139 555 500//=
15640 41670 83205 10205 20148 39853 40151 53007 70266 885// 333 10206
20196 555 57001 69499=
15655 42570 82502 10198 20179 30112 40144 52006 885// 333 10201 20193
555 589// 92023 92428=
15712 42675 43205 10234 20122 39928 40164 53016 82201 333 10266 20233
555 549//=
15730 42670 83404 10206 20141 39786 40160 52008 8532/ 333 10220 20202
555 567//=
####018000217####
SILC01 TLPL 092100
AAXX 09214
78948 41473 71120 10287 20224 30133 40141 71522 83978 
333   06229 58009 82917 85358 85277=
78947 41570 71206 10293 20237 30138 40141 70882 85472 
333   05399 58008 84823 85076=####018000485####
SILT20 EYHM 092100
AAXX 09211
26509 42997 00000 10152 20137 30218 40227 53003 333
91000 91102=
26518 42997 22901 10176 20145 40226 52009 80002 333
91002 91103=
26524 42998 20000 10195 20172 30094 40220 52010 80001 333
91001 91104=
26531 42998 10000 10192 20176 40220 52012 81040 333
91000 91104=
26633 42997 20000 10180 20159 30091 40216 52013 81052 333
91000 91102=
26730 41996 43301 10192 20170 30034 40218 52010 71000 80001 333
91002 91104=
26629 NIL=
####018000301####
SICA20 TNCC 092100
AAXX 09214
78988 22484 71109 10290 20242 40101 57013 82277
    333 59010 60007 82818 87281=
78982 21475 71007 10277 20258 40101 57006 72582 83278
    333 59003 60027 83818 84459 85280=
78873 22575 10813 10299 20237 40153 57010 81200  
   333 58005 60007 81822=
78990 NIL=
####018000296####
SILV20 UMRR 092100
AAXX 09211
26313 43/// /2402 10174 20134 40218 52010=
26346 42997 23002 10179 20151 40212 52015 80001=
26406 42997 21602 10162 20136 40225 52005 80001=
26422 42960 /9900 10168 20147 30206 40218 52010=
26544 42997 23301 10178 20157 40218 52016 80001=
26416 NIL=
####018000047####
SIAA21 EFKL 092100
AAXX 0921/
89014 NIL=
####018000159####
SIEO20 EEMH 092100 RRC
AAXX 09211
26231 21/79 02402 10170 20145 30195 40209 51007 70200
 333  10262 20168 60007 80///
 555  1/016 20168 3/016 50210=
####018000088####
SIBE20 TXKF 092100
AAXX 09214 78016 42464 51616 10271 20234 30216 40220 56008 82238=
####018000106####
SIBH21 MZBZ 092100
AAXX 09214
78583 42570 70508 10298 20243 40116 83838 333
01333 58016 83824 87276=
####018000922####
SICN03 CWAO 092100
AAXX 09214
71397 NIL=
71398 NIL=
71400 NIL=
71403 46/// /2411 10168 20163 30157 40177 56015=
71410 NIL=
71411 36/// /1811 10170 30160 40172 57011 333 60001=
71412 36/// /2317 10287 20219 30119 40128 56013 333 60001=
71421 NIL=
71430 26/// /3208 10204 20193 30003 40096 58002 333 60011=
71431 36/// /1604 10209 20193 39997 40089 58008 333 60001=
71432 NIL=
71433 NIL=
71435 NIL=
71436 NIL=
71441 46/// /2908 10271 20133 39830 40128 56014 333 6///1=
71443 36/// /2310 10257 20131 39715 40113 58016 333 60001=
71444 36/// /2507 10249 20122 39411 40144 58013 333 60001=
71447 36/// /2605 10269 20135 39610 40136 58016 333 60001=
71467 NIL=
71472 NIL=
71474 35964 01603 10305 20076 38942 40128 56021 333 60001=
71510 36/// /3204 10280 20185 39441 40122 56015 333 60001=
71538 NIL=
71600 35056 82111 10185 20175 30193 40199 57010 333 60001=
71601 NIL=

####018000748####
SICN07 CWAO 092100
AAXX 09214
71864 NIL=
71865 36/// /2705 10248 20145 39471 40130 58015 333 60001=
71866 NIL=
71867 NIL=
71868 NIL=
71869 NIL=
71870 45964 32406 10275 20113 39198 40133 58017=
71871 17966 63103 10230 20157 39348 40121 56005 60001 781//
333 1//// 2//// 70000=
71872 45964 02112 10310 20077 39296 40119 57019=
71874 35964 02508 10293 20089 39066 40119 57016 333 60001=
71877 NIL=
71878 NIL=
71879 35864 30510 10256 20138 39334 40108 57007 333 60001=
71880 NIL=
71881 25964 33405 10277 20060 39058 40111 56014 333 69921=
71882 25940 01905 10252 20134 39593 40112 57031 333 69901=
71883 NIL=
71887 NIL=
71889 NIL=
71891 25964 01815 10358 20084 39828 40089 56040 333 69901=
71892 NIL=

####018000668####
SICN09 CWAO 092100
AAXX 09214
71930 NIL=
71931 36/// /2718 10312 20182 30050 40062 56012 333 60001=
71932 37564 83605 10170 20115 39686 40129 55000 761// 333 60001=
71933 35664 83108 10179 20068 39829 40118 58006 333 60001=
71934 NIL=
71935 NIL=
71936 NIL=
71937 NIL=
71938 NIL=
71940 NIL=
71943 NIL=
71944 35664 31203 10253 20112 39331 40129 58003 333 60001=
71945 NIL=
71946 NIL=
71948 NIL=
71949 36/// /1304 10230 20051 39297 40134 56014 333 60001=
71951 NIL=
71953 NIL=
71957 NIL=
71958 42/// /0602 10230 20054 39223 40133 56016=
71964 NIL=
71966 36/// /0404 10256 20063 39680 40123 56018 333 60001=
71968 NIL=

####018000736####
SICN01 CWAO 092100
AAXX 09214
71043 NIL=
71045 36/// /2002 10230 20042 39313 40149 58013 333 60001=
71050 36/// /3108 10284 20037 39106 40146 56014 333 60001=
71051 NIL=
71052 NIL=
71058 NIL=
71066 NIL=
71068 NIL=
71069 35964 01006 10230 20121 39430 40113 58010 333 60001=
71076 36/// /3209 10171 20034 39719 40099 50000 333 60001=
71077 36/// /3209 10213 20128 39588 40110 55007 333 60001=
71079 NIL=
71081 NIL=
71082 NIL=
71083 NIL=
71090 47964 01113 10049 20030 30024 40058 56003 761//=
71091 NIL=
71092 45664 62310 10163 39440 40073 58002=
71093 NIL=
71094 45/64 /2204 10109 53001=
71095 45964 00406 10162 20056 39973 40049 56003=
71104 NIL=
71107 NIL=
71108 NIL=
71109 NIL=

####018000618####
SICN05 CWAO 092100
AAXX 09214
71725 35664 32705 10247 20176 39694 40093 56009 333 60001=
71726 26/// /0201 10198 39587 40108 56009 333 69911=
71727 NIL=
71728 NIL=
71730 NIL=
71731 NIL=
71733 NIL=
71735 NIL=
71738 NIL=
71739 NIL=
71749 NIL=
71799 NIL=
71800 36/64 /2625 10140 20136 30118 40150 56014 333 60001=
71801 NIL=
71803 NIL=
71807 NIL=
71808 NIL=
71809 NIL=
71810 36/// /2712 10255 20176 30017 40081 57008 333 60001=
71811 NIL=
71813 35964 02712 10188 20148 30060 40073 56004 333 60001=
71814 36/// /2209 10143 20114 30046 40055 57005 333 60001=
71815 NIL=

####018000637####
SICN04 CWAO 092100
AAXX 09214
71603 NIL=
71607 NIL=
71609 NIL=
71610 15766 62006 10290 20186 39809 4//// 56010 60001
333 1//// 2//// 70000=
71621 27964 03203 10222 20181 39996 40098 57007 761// 333 69981=
71623 NIL=
71624 NIL=
71625 35664 32603 10237 20202 39944 40098 56013 333 60001=
71627 NIL=
71628 NIL=
71630 NIL=
71631 NIL=
71633 NIL=
71705 NIL=
71706 NIL=
71707 NIL=
71709 NIL=
71711 NIL=
71714 26/// /3009 10222 20204 30009 40097 53006 333 60011=
71715 36/// /1803 10231 20193 39916 40090 55003 333 60001=
71718 NIL=
71719 36/// /1806 10261 20222 30089 40095 56013 333 60001=

####018000592####
SICN08 CWAO 092100
AAXX 09214
71893 NIL=
71894 36/// /2921 10164 20116 30164 40172 53006 333 60001=
71896 15966 00103 10260 20083 39339 40139 56009 60001
333 1//// 2//// 70000=
71897 NIL=
71899 NIL=
71902 NIL=
71905 NIL=
71906 NIL=
71907 25008 81812 10085 20084 39979 40010 51004 333 69901=
71909 NIL=
71910 45156 81205 10056 20056 39981 40044 50000=
71911 45964 0//// 10153 30008 40062 58004=
71912 NIL=
71913 NIL=
71915 NIL=
71917 NIL=
71922 NIL=
71924 NIL=
71925 NIL=
71926 NIL=
71928 36/// /0103 10235 20100 39003 40132 55009 333 60001=

####018000685####
SICN06 CWAO 092100
AAXX 09214
71816 NIL=
71817 NIL=
71818 NIL=
71821 25964 31604 10227 20167 39748 40081 58010 333 69921=
71822 NIL=
71825 NIL=
71827 NIL=
71828 35664 62510 10218 20128 39449 40062 58004 333 60001=
71831 NIL=
71832 36/// /2609 10245 20110 39778 40092 58010 333 60001=
71834 NIL=
71836 35864 32110 10260 20115 30048 40059 56021 333 60001=
71841 NIL=
71842 NIL=
71844 35664 83110 10208 20106 39813 40081 51008 333 60001=
71845 NIL=
71850 NIL=
71852 NIL=
71854 NIL=
71855 35964 02809 10274 20127 39759 40120 58014 333 60001=
71858 36/// /2406 10263 20092 39838 40109 58014 333 60001=
71861 NIL=
71862 NIL=
71863 NIL=

####018000874####
SICN02 CWAO 092100
AAXX 09214
71114 35964 03208 10300 20154 30071 40117 56019 333 60001=
71120 NIL=
71122 36/// /3408 10275 21002 38585 40132 58014 333 60001=
71123 NIL=
71125 NIL=
71129 NIL=
71131 36/// /2803 10272 20060 38930 40145 57016 333 60001=
71135 36/// /3008 10270 20080 39105 40157 56014 333 60001=
71137 36/// /2305 10307 20033 39229 40142 56020 333 60001=
71138 25664 32309 10244 20158 39544 40132 57014 333 69911=
71140 NIL=
71141 25964 02210 10233 20121 39838 40107 58010 333 69901=
71145 NIL=
71148 36/// /3006 10257 20151 39594 40158 57011 333 60001=
71182 47061 83003 10179 20164 39560 40081 50000 761// 333 6///1=
71185 NIL=
71187 35964 01904 10261 20195 30058 40084 56012 333 60001=
71188 NIL=
71200 36/// /2205 10224 20114 333 60001=
71207 36/// /1708 10309 20105 30062 40124 56013 333 60001=
71260 NIL=

####018000618####
SIBY20 UMMN 092100
AAXX 09211
26554 41937 30000 10194 20186 30056 40211 52016 71000 82031=
26666 42960 40000 10196 20169 39998 40202 52009 82031=
26850 42560 70000 10196 20183 39949 40208 52010 87500 333 87633=
26863 42960 03103 10175 20150 39964 40190 51005=
26941 42960 03201 10185 20167 39991 40218 52011=
26951 41539 43102 10189 20184 30015 40204 52004 71011 82550=
33008 42960 13001 10201 20149 30054 40225 52009 80001=
33019 42660 80000 10213 20186 30050 40215 52009 875// 333 87648=
33036 42960 20000 10177 20157 39982 40204 52008 82030=
33041 42961 03302 10196 20163 30048 40196 52014=
####018000087####
SIIY21 LIIB 092100 RRA
AAXX 09214
16148 42970 00000 10253 20218 30191 40203 53007=
####018000309####
SICA20 TNCC 092100
AAXX 09214
78988 22484 71109 10290 20242 40101 57013 82277
    333 59010 60007 82818 87281=
78982 21475 71007 10277 20258 40101 57006 72582 83278
    333 59003 60027 83818 84459 85280=
78873 22575 10813 10299 20237 40153 57010 81200  
   333 58005 60007 81822=
78990 NIL=
####018000171####
SIEO20 EEMH 092100 RRD
AAXX 09211
26242 21/81 22602 10194 20154 30124 40207 52014 70200 80001
 333  10272 20195 60007 80///
 555  1/019 20195 3/019 50211 52017=
####018000806####
SIUR20 UKMS 092100
AAXX 09211
33135 NIL=
33317 NIL=
33345 NIL=
33393 42960 20000 10161 20136 39849 40228 52006 80001=
33506 42997 43603 10242 20187 39958 40142 52001 82034=
33587 NIL=
33631 42997 02701 10174 20135 30082 40221 52012=
33663 NIL=
33658 42797 63303 10178 20152 39926 40214 52005 86500 333
86650=
33711 41697 73404 10209 20183 39946 40144 57004 71392 83330=
33791 NIL=
33837 41557 83102 10196 20191 30091 40140 58001 78182 8657/=
33924 42597 20405 10214 20190 30111 40122 50001 82900=
33946 41246 80505 10210 20207 39907 40114 53002 71022 886//
333 88703=
34300 42997 73402 10251 20176 39959 40137 58003 87030=
34504 41697 72303 10207 20193 39967 40136 55000 70282 84370
333 84933=
34519 42960 61006 10233 20164 39871 40129 52001 86030=
34601 NIL=
####018000462####
SIYE10 OYSC 092100
AAXX 09214
41396 42865 42105 10303 20197 39318 48461 84030 333 58008 84358=
41404 41558 51904 10180 20126 37851 48491 70644 85800 333 58011
85800=
41431 41556 80000 10305 20267 40/// 70544 85550 333 5//// 84630
84356=
41434 41560 62708 10138 20105 37632 79595 86900 333 31/// 82920
84630=
41443 41957 00206 10292 20227 30023 40040 70544 333 58005=
41466 42556 63408 10228 20154 38518 48420 83550 333 59001 83630
83356=
####018000377####
SISN22 ESWI 092100
AAXX 09211
02464 45983 /2302 10191 20148 30165 40182 52007 8////=
02500 25/77 /1707 10165 20123 30140 40181 50000
  333 60005 90710 91108=
02513 25/82 /1401 10179 20112 30188 40192 58004
  333 60005 90710 91102=
02616 42973 10904 10205 20175 30193 40199 52001 81031 333 81399=
02635 27/59 /1401 10185 20167 71010
  333 60005 90710 91102=
####018000081####
SINO23 ENMI 092100 RRB
AAXX 09211
01450 26/// /1904 10098 20076 333 69945=
####018000122####
SINO24 ENMI 092100 RRB
AAXX 09211
01199 46/// /0604 10137 20088 39689 40137 53009=
01262 46/// /1605 10130 20087=
####018000133####
SIDL23 EDZW 092100 CCA
AAXX 09211
10655 32980 72602 10260 20155 39874 40182 53008 85032
  333 55300 20000 30000 85366 85080=
####018000124####
SIVD02 CWAO 092100
BBXX
VOKJ 09214 99/// ///// 46/// /1401 10268 20192 40086 58017 7//// 8//// 22200 0//// 2//// =

####018000506####
SIBY21 UMMN 092100
AAXX 09211
26645 42997 20000 10171 20158 39972 40221 52014 80002=
26659 41960 20000 10192 20181 30003 40207 52010 70198 82030=
26763 42960 23501 10192 20167 39981 40197 52009 82010=
26825 42963 53302 10190 20156 30044 40219 53012 82031=
26832 42960 33201 10184 20160 30038 40223 52012 80001=
26887 42997 53202 10197 20153 39987 40182 52006 80002=
26961 42660 60000 10177 20162 30014 40198 52001 86500 333 86645=
33027 42997 63401 10196 20168 30043 40203 52003 86030=
####018000115####
SITH40 VTBB 092100 RRA
AAXX 09214
48357 21460 60000 10255 20249 39904 40073 71396 82933
  333 58023 60207=
####018000085####
SIMJ20 MJSK 092100
AAXX 09211
13579 32970 03602 10157 20101 39394 40206 52015=
####018001222####
SILY20 HLMC 092100
AAXX 09214
62002 32960 00610 10245 20157 39483 48573 53008=
62007 32960 00810 10255 20226 40185 52006=
62008 32960 00608 10240 20178 39398 48562 53014=
62010 31957 00704 10240 20207 40186 52008 70500=
62012 32560 20304 10255 20233 30156 40185 52007 82200
  333 82830=
62016 32560 53608 10254 20234 40176 53005 85500
  333 85625=
62019 32560 50608 10256 20240 40163 53006 85700
  333 85723=
62053 32560 23618 10244 20201 40162 55006 82500
  333 82620=
62055 31958 03308 10250 20220 30146 40153 54000 71000=
62056 32960 43009 10202 20175 39429 48550 52004 84500
  333 84620=
62059 32960 03314 10253 20225 40156 56005=
62103 32970 03609 10341 20056 39755 40137 52011=
62120 32960 00808 10294 20172 39611 48581 53005=
62124 32960 00609 10303 20087 39646 40121 52011=
62131 32966 00608 10305 20106 39855 40152 52013=
62161 31956 03015 10308 20170 40125 53015 70700=
62176 32960 00615 10305 20141 40122 52015=
62200 32960 00905 10310 20131 39617 40127 52013=
62212 32970 20308 10336 20074 39354 48556 53027 80002
  333 82070=
62259 32960 00000 10315 20082 40122 51010=
62271 32960 03508 10333 20026 40114 54000=
62014 NIL=
62018 NIL=
62062 NIL=
####018000089####
SILJ21 LJLM 092100 RRA
AAXX 09211
14024 46/// /1102 10180 20074 39163 48579 52008=
####018000342####
SIGO20 FOOL 092100
AAXX 09214
64500 42460 81806 10250 20225 30119 40133 885//
  333 58000 83610 88630=
64501 42358 81810 10240 20218 30145 40155 885//
  333 58003 82608 88630=
64551 42360 80000 10235 20224 30115 40144 885//
  333 59010 84608 88623=
64570 42458 8//// 10214 20206 39640 40152 885//
  333 58008 83612 88629=
####018001158####
SITU10 LTAA 092100
AAXX 09214
17022
42662 51502 10198 20168 39970 40130 50004 82130
333 82834 85360 90730 91107=
17031
42670 53009 10235 20209 30111 40117 50007 83250
333 83836 85360=
17038
42570 43603 10255 20208 30068 40116 52010 84100
333 82795 83835=
17050
42670 52601 10199 20177 30104 40164 51006 83230
333 83835 85360 90730 91108=
17060
42660 43112 10206 20182 30101 40140 51008 84200
333 84835=
17096
42970 /0702 10110 20054 38254 48504 52011
333=
17124
42660 33006 10172 20137 39253 40131 52016 83100
333 83835=
17128
42970 32704 10193 20152 39061 40096 52017 83030
333 83360=
17170
42965 01406 10185 21004 38339 48499 50002
333=
17195
42670 10403 10210 20141 38929 48483 52016 81100
333 81840=
17199
42970 01806 10284 20024 39031 40027 52011
333=
17219
42965 00116 10223 20150 39990 40128 53011
333 90730 91124=
17240
42570 11501 10183 20139 39016 40100 52014 81100
333 81830 90730 91108=
17244
42970 03218 10220 20128 38967 48497 52020
333=
17280
42970 00402 10243 20009 39321 40043 50007
333=
17350
42960 02002 10241 20220 30023 40097 50004
333=
####018000153####
SIEO20 EEMH 092100 RRE
AAXX 09211
26247 27/77 /2801 10176 20151 30136 40213 52013 70000
 333  10268 20175 60007
 555  1/018 20175 3/018 50208=
####018000527####
SITS20 DTTA 092100
AAXX 09214
60715 32665 20504 10249 20206 30188 40191 52010 81102
  333 59004 81833=
60723 NIL=
60725 32960 00512 10280 20203 30024 40186 51020=
60735 32962 03602 10269 20185 30114 40192 51016=
60745 32960 01402 10291 20156 39824 40174 53022=
60748 NIL=
60750 32560 20804 10262 20225 30166 40190 52013 82800
  333 82826=
60760 32960 00914 10320 20196 30074 40172 53023=
60765 NIL=
60767 32960 01010 10252 20184 30044 40183 52015=
60769 32958 01206 10254 20244 30178 40181 52019=
####018000521####
SITS21 DTTA 092100
AAXX 09214
60710 32960 00906 10272 20203 30107 40182 53011=
60714 32962 01104 10229 20193 30198 40204 51006=
60720 32960 00000 10234 20222 30163 40195 53008=
60728 NIL=
60729 NIL=
60731 25257 50504 10243 20218 30190 40202 53014
  333 59001 60007 85/05 91005 91112=
60732 NIL=
60734 NIL=
60738 32960 01319 10221 20159 38999 48582 51015=
60739 NIL=
60740 32958 00705 10250 20225 30194 40196 52018=
60742 NIL=
60764 NIL=
60770 NIL=
60772 NIL=
60775 NIL=
60780 NIL=
####018000089####
SNPS40 AMMC 092000 RRB
AAXX 09204
91531 46/// /3504 10278 40099 22200 00273=


####018001057####
SIUR21 UKMS 092100
AAXX 09211
33088 42997 50000 10200 20176 30029 40211 52006 83031=
33177 42997 00000 10194 20142 39994 40222 53005=
33261 42997 03402 10195 20163 39994 40168 53004=
33275 42997 03402 10223 20195 39943 40153 52002=
33301 42597 53302 10175 20155 39942 40213 52003 82530=
33325 NIL=
33377 42997 03602 10206 20168 39973 40157 54000=
33415 42697 63203 10168 20136 39831 40216 52001 83530=
33429 NIL=
33466 42989 03603 10214 20173 39995 40172 53010=
33526 42697 72003 10188 20164 39893 40218 52003 87500 333
87633=
33562 42697 23204 10178 20152 39842 40184 54000 82500=
33614 42462 83603 10233 20189 30045 40142 52001 883// 33333
88917=
33761 41996 83604 10194 20176 39946 40158 57001 71022 8805/=
33902 41596 73603 10201 20193 30093 30068 40131 51003 71082
87500=
33983 42997 63304 10236 20214 30046 40103 52007 86030=
34415 42697 80000 10237 20200 30041 40131 58003 885//=
34523 41597 62502 10255 20186 30049 40120 53005 71362 83370=
34712 41497 80508 10232 20198 30028 40107 53003 71798 889//=
####018000296####
SIUR20 UKMS 092100 RRA
AAXX 09211
33345 42998 23504 10214 20165 39992 40186 52010 80001=
33587 42964 02902 10204 20169 39919 40169 53001=
33791 41597 80502 10201 20193 39997 40140 50002 79198 8535/
333 85923=
34601 41613 72802 10215 20212 30005 40133 57003 78182 87900
333 84533=
####018000077####
SNAU57 AMMC 092000 CCA
AAXX 09204
95765 45/40 ///// 10075 20075=


####018000198####
SIVD20 KWNB 092100 RRF
BBXX
44029 09211 99425 70706 46/28 /1507 10234 40113 57030 92104 22200
00213 10402 70009 333 91208 555 11092 22103=
41029 09211 99328 70796 46/// ///// 10288 92100=
####018000101####
SIMJ40 MJSK 092100
AAXX 09211
13586 32770 23504 10216 20118 39923 40201 51019 82500 333 82660=
####018000083####
SILV20 UMRR 092100 RRA
AAXX 09211
26416 43/// /0000 10184 20146 40228 52011=
####018000115####
SIDO01 KWBC 092100
AAXX 09211
78905 41459 71206 10272 20231 30136 40141 78182 87462 333 58009
86814 85358=
####018001167####
SIPF80 KWBC 092100 RRA
AAXX 09214
91945 21465 60914 10264 20212 30205 40210 58001 71522 86800 333
56200 60007 83816 84640 90710 91121 555 60005 10925 58007=
91930 36/// ///// 10286=
91958 22481 60510 10210 20191 30252 40254 58005 86800 333 56200
60007 84818 84646 90710 91119 555 60005 1//21 59010=
91925 21460 70806 10263 20222 30079 40139 58006 71582 878// 333
56299 69927 86816 83820 90710 91129 555 60005 10933 58006=
91929 24965 /1110 10290 20230 30173 40176 50000 700// 333 60007
90710 91123 555 60005 10923 58014=
91938 21570 70505 10271 20200 30181 40183 58001 72586 878// 333
56999 69907 81820 87650 90710 91122 555 69905 10522 58013=
91944 26/// /1021 10279 20205 30189 40192 58007 333 60007 90710
91127 555 60005=
91948 22580 31904 10220 20163 30132 40236 58002 83800 333 56300
60007 83820 555 60005 58019=
91954 22570 10712 10254 20191 30223 40226 58004 81200 333 56200
60007 81820 555 1//16 58008=
91958 22481 60510 10210 20191 30252 40254 58005 86800 333 56200
60007 84818 84646 90710 91119 555 60005 1//21 59010=
91954 22570 10712 10254 20191 30223 40226 58004 81200 333 56200
60007 81820 555 1//16 58008=
####018000271####
SIAA01 SCEF 092100
AAXX 09214
89056 41110 81227 11062 21068 49689 53016 73833 885//
  333 73399 88603=
89057 41340 80620 11053 21053 49680 53008 77273 887//
  333 56199 88709 91140=
89059 42460 81438 11070 21095 49572 52021 886//
  333 01462 73339 88717=
####018000574####
SICH01 SCSC 092100
AAXX 09214
85406 42960 02106 10154 20094 40151 57001 =
85418 42560 82406 10151 20092 40156 53001 885//
  333 56099 88620=
85432 42970 02414 10198 21146 37753 48435 56001=
85442 41556 21807 10140 20087 40148 57006 70511 82500
  333 56400 82627=
85467 43460 53414 10132 20091 40163 56002 85500
  333 56600 85613=
85469 11565 53208 10219 20181 40157 57028 69901 70282 85200
  333 56200 85820=
85488 42960 02410 10135 20111 40135 53002=
85574 42960 01905 10173 20057 40169 56008=
85577 42960 02802 10168 20039 39570 40119 56006=
####018000964####
SIAU21 AMMC 092100
AAXX 09214
94102 46/// /1007 10244 20223 30125 40135=
94103 NIL=
94120 46/// /1405 10222 20199 30094 40134=
94122 46/// /1004 10203 20181 30125 40134=
94131 46/// /1505 10184 20161 39989 40145=
94132 NIL=
94147 NIL=
94150 46/// /1406 10228 20224 30077 40139=
94151 NIL=
94170 46/// /1703 10203 20199 30122 40144=
94200 NIL=
94203 46/// /0000 10229 20223 30123 40134=
94206 46/// /0000 10212 20222 30004 40136=
94207 46/// /1913 10247 30120 40129 53003=
94211 NIL=
94212 46/// /0601 10190 20172 39658 40143=
94216 46/// /0000 10178 20170 30085 40136=
94236 NIL=
94238 46/// /0807 10142 20083 39728 40164=
94248 NIL=
94255 46/// /0000 10092 20072 39901 40173=
94268 46/// /0000 10214 20189 30145 40158=
94287 46/// /1608 10219 20187 30172 40181=
94290 NIL=
94294 46/// /2106 10187 20132 30195 40206=
94296 35/// /1415 10242 30160 40170 52017=
94298 46/// /1610 10233 30174 40180 53015=

####018000040####
SIAA01 SAWB 092100
AAXX 0921/
NIL
####018001337####
SIAU23 AMMC 092100
AAXX 09214
94500 NIL=
94510 46/// /0605 10071 20068 39864 40226=
94515 46/// /0000 10056 20042 39885 40249=
94552 46/// /0102 10094 20075 39775 40261=
94578 46/// /2108 10129 20112 30248 40260=
94584 46/// /1713 10170 20152 30122 40236=
94601 46/// /2522 10135 20071 30104 40121=
94610 NIL=
94637 46/// /2707 10060 20030 39702 40140=
94638 46/// /3017 10074 20044 30055 40087=
94642 NIL=
94643 NIL=
94647 46/// /3014 10089 20046 39973 40096=
94651 46/// /3017 10096 20063 30027 40106=
94653 46/// /3312 10108 20072 30073 40092=
94659 46/// /3516 10101 20095 39932 40132=
94672 46/// /3625 10127 20100 30078 40088=
94691 46/// /0118 10128 20087 39820 40157=
94693 46/// /0318 10140 20053 30079 40143=
94700 NIL=
94703 NIL=
94710 46/// /0511 10096 20063 39969 40234=
94729 46/// /0000 10059 20032 39405 40290=
94750 46/// /3104 10068 20067 30154 40282=
94767 46/// /3504 10091 20074 30279 40285=
94776 46/// /3005 10065 20065 30272 40282=
94791 NIL=
94802 46/// /3111 10070 20059 30015 40097=
94804 NIL=
94821 46/// /0219 10114 20079 30019 40102=
94842 46/// /0309 10137 20052 30049 40149=
94847 NIL=
94850 46/// /0517 10126 20070 30113 40160=
94865 46/// /0117 10124 20062 30157 40182=
94866 NIL=
94875 46/// /0512 10091 20057 30081 40222=

####018001472####
SIAU24 AMMC 092100
AAXX 09214
94893 46/// /0110 10103 20084 30092 40210=
94907 46/// /1604 10028 20020 30211 40221=
94910 46/// /0709 10095 20058 39991 40252=
94926 46/// /0501 10035 20030 39595 40294=
94935 46/// /3205 10078 20071 30236 40264=
94954 46/// /0622 10116 20102 30080 40192=
94956 46/// /0502 10080 20053 30169 40197=
94975 46/// /3205 10007 21001 30215 40249=
94983 46/// /0320 10130 20093 30235 40260=
94995 46/// /1011 10159 20061 30266 40275=
94996 46/// /1310 10148 20089 30084 40216=
94997 NIL=
94998 46/// /2924 10053 20046 30172 40183=
95111 46/// /1701 10187 20177 30098 40134=
95205 46/// /1204 10225 20223 30120 40128=
95322 NIL=
95448 46/// /3107 10050 20047 39581 40166=
95458 46/// /0105 10111 20103 39876 40146=
95480 46/// /0410 10117 20112 30097 40159=
95481 46/// /0209 10096 20075 30125 40171=
95482 46/// /3607 10094 20078 30124 40181=
95485 46/// /0313 10093 20090 39972 40186=
95492 46/// /0104 10092 20083 30055 40214=
95527 46/// /0910 10070 20040 30002 40267=
95634 46/// /2811 10050 20047 39736 40151=
95637 46/// /2908 10042 20027 39790 40132=
95646 46/// /3016 10078 20051 39924 40115=
95666 NIL=
95719 46/// /0812 10092 20084 39920 40265=
95762 46/// /1504 10037 20019 39801 40278=
95839 46/// /0423 10104 20069 39987 40151=
95864 46/// /0118=
95966 46/// /1503 10063 20057 30043 40250=
96995 NIL=
96996 17/// /1213 10253 20220 30114 40118 56014 7//44=

####018001163####
SIAU22 AMMC 092100
AAXX 09214
94299 46/// /1423 10235 20212 30160 40171=
94300 46/// /1105 10090 20080 30177 40187=
94302 46/// /2206 10100 20076 30174 40181=
94312 46/// /1607 10141 20123 30146 40156=
94313 NIL=
94317 46/// /2003 10050 20043 39567 40179=
94319 46/// /1507 10120 20079 39821 40163=
94324 NIL=
94326 46/// /3511 10169 20096 39519 40158=
94327 46/// /0206 10110 20084 39787 40175=
94332 46/// /0000 10056 20053 39773 40171=
94333 NIL=
94341 46/// /1107 10126 20112 39935 40176=
94346 46/// /0705 10062 20060 39973 40201=
94363 46/// /1605 10109 20106 30005 40230=
94366 NIL=
94367 46/// /2008 10161 20140 30167 40210=
94374 46/// /2401 10132 20117 30206 40223=
94388 46/// /1219 10207 20135 30217 40222=
94393 46/// /1522 10227 30170 40182 53017=
94394 35/// /1320 10219 30196 40204 52021=
94403 46/// /1806 10105 20078 30134 40176=
94429 46/// /2906 10054 20047 39699 40180=
94430 46/// /2503 10045 20043 39574 40180=
94449 46/// /3007 10051 20041 39620 40167=
94451 NIL=
94461 46/// /1905 10112 20058 39472 40167=
94462 46/// /2107 10132 20095 39583 40159=
94477 NIL=
94488 NIL=

####018001464####
SICI22 BABJ 092100
AAXX 09211
56187 41961 70000 10213 20194 40035 57009 70080 87040 333
00353 70022=
56778 42570 72203 10208 20166 38063 57007 874// 333 05101
79999=
57265 41657 83202 10248 20227 40022 57004 76066 885// 333
70003=
57461 41430 82001 10248 20248 40017 57005 76066 8472/ 333
70129=
57494 41465 81802 10267 20255 40015 57004 76000 8777/ 333
70168=
57516 41462 83201 10237 20225 40006 57002 76060 885// 333
00254 70289=
57687 42965 72201 10276 20250 40022 57001 8704/ 333 70258=
57816 41460 81602 10223 20216 40000 57005 78080 885// 333
05151 70091=
58040 42960 81102 10242 20225 40044 57002 8807/=
58102 42965 80702 10266 20216 40022 57001 8807/=
58150 42560 71104 10254 20229 40036 57015 8654/=
58221 41950 81103 10258 20229 40024 57002 71000 8807/ 333
79999=
58238 NIL=
58251 42562 60903 10257 20239 40030 57009 84540=
58362 NIL=
58457 41765 62003 10261 20228 40029 57004 70080 86400 333
70005=
58606 42960 80000 10260 20244 40033 57002 8807/ 333 70256=
58752 41620 70000 10254 20240 40060 52001 71000 8353/ 333
70091=
58847 42661 71602 10271 20244 40069 52003 81542=
59117 42665 31602 10259 20222 40086 52004 82402=
59134 42975 72203 10267 20236 40087 52004 8703/=
59287 NIL=
59316 42470 72202 10282 20256 40083 57004 8114/=
59431 42568 73401 10277 20249 40052 52002 82142=
59644 42565 61602 10295 20277 40057 57001 86900=
59758 42470 61603 10274 20247 40059 57002 81902=
####018000222####
SIAA21 AMMC 092100
AAXX 09214
89564 45/// /1629 11193 21258 39834 49855 53007 6///0=
89571 45/// /0922 11108 21178 39725 49755 58009=
89573 NIL=
89611 43/// /0747 11107 21122 39818 49873 58015=
89615 NIL=

####018000547####
SIAU40 AMMC 092100
AAXX 09214
94127 35/// /1208 10213 20208 30132 40134 51003=
94307 45/// /1713 10159 20093 30122 40156 53009=
94310 46/// /1422 10201 20131 30129 40140 52009=
94974 35/// /0120 10127 30159 40182 57033=
95283 46/// /1309 10222 20210 30158 40165=
95287 41/98 81318 10245 20207 3//// 4//// 71588 83270=
95288 46/// /1323 10245 30143 40158 53009=
95290 41/98 71120 10240 20208 3//// 4//// 70222 83330=
95675 46/// /3631=
95756 46/// /0000=
95872 46/// /0119=
95961 35/// /0208 10066 30157 40199 57025=

####018001182####
SICI21 BABJ 092100
AAXX 09211
50468 42670 61601 10191 20184 40085 52004 86500=
50953 41958 61101 10179 20177 40089 52008 71000 80002=
51076 NIL=
51243 NIL=
51288 42980 01404 10145 20061 38285 57012 333 05451 79999=
51463 NIL=
51573 NIL=
51709 NIL=
52533 NIL=
52652 NIL=
52866 42670 70000 10116 20097 37712 57007 83902 333 05301
70009=
52983 NIL=
53463 41575 62701 10159 20136 40045 57014 70080 82102 333
00057 70216=
53513 42970 03602 10168 20123 40000 52004 333 05153=
53588 41/00 92505 10109 20107 37770 52001 74544 333 70090=
53772 41930 81401 10200 20187 40060 57001 71000 8802/ 333
70133=
53915 NIL=
54218 42670 80901 10193 20169 40052 54000 889// 333 70019=
54337 41956 83401 10223 20195 40062 52005 76000 8802/ 333
79999=
54342 41950 70701 10192 20192 40073 52007 71000 80002=
54401 42665 82201 10180 20158 40055 52002 889// 333 70118=
54471 42760 82002 10237 20214 40067 52001 885//=
54497 41530 81602 10217 20205 40080 52008 71000 885//=
54511 NIL=
54823 41962 80201 10250 20217 40036 52002 76080 8802/ 333
79999=
56080 NIL=
56096 NIL=
57083 41430 83203 10231 20212 40040 52011 76066 8772/ 333
70154=
####018000030####
SISO21 AMMC 092100
NIL

####018000113####
SNAU45 AMMC 091700 CCJ
AAXX 09174
95654 17/// /3626 10106 20106 39960 40065 52022 60083 7//44 91730=


####018000514####
SICH03 SCSC 092100
AAXX 09214
85864 41207 80000 10003 20001 40094 57033 77377 8802/
  333 56019 88505=
85874 41105 89901 10000 21009 39466 40107 56025 77577 885//
  333 56699 82703 88625=
85934 42470 52909 10015 21014 49999 52020 82131
  333 56777 82815 83362=
89056 41110 81227 11062 21068 49689 53016 73833 885//
  333 73399 88603=
89057 41340 80620 11053 21053 49680 53008 77273 887//
  333 56199 88709 91140=
89059 42460 81438 11070 21095 49572 52021 886//
  333 01462 73339 88717=
####018001279####
SIAU01 AMMC 092100
AAXX 09214
94102 46/// /1007 10244 20223 30125 40135=
94103 NIL=
94200 NIL=
94203 46/// /0000 10229 20223 30123 40134=
94206 46/// /0000 10212 20222 30004 40136=
94207 46/// /1913 10247 30120 40129 53003=
94211 NIL=
94212 46/// /0601 10190 20172 39658 40143=
94216 46/// /0000 10178 20170 30085 40136=
94300 46/// /1105 10090 20080 30177 40187=
94302 46/// /2206 10100 20076 30174 40181=
94312 46/// /1607 10141 20123 30146 40156=
94313 NIL=
94317 46/// /2003 10050 20043 39567 40179=
94319 46/// /1507 10120 20079 39821 40163=
94403 46/// /1806 10105 20078 30134 40176=
94429 46/// /2906 10054 20047 39699 40180=
94430 46/// /2503 10045 20043 39574 40180=
94449 46/// /3007 10051 20041 39620 40167=
94451 NIL=
94601 46/// /2522 10135 20071 30104 40121=
94610 NIL=
94637 46/// /2707 10060 20030 39702 40140=
94638 46/// /3017 10074 20044 30055 40087=
94642 NIL=
94643 NIL=
94647 46/// /3014 10089 20046 39973 40096=
94802 46/// /3111 10070 20059 30015 40097=
95205 46/// /1204 10225 20223 30120 40128=
95448 46/// /3107 10050 20047 39581 40166=
95634 46/// /2811 10050 20047 39736 40151=
95637 46/// /2908 10042 20027 39790 40132=
95641 NIL=
95646 46/// /3016 10078 20051 39924 40115=

####018000607####
SICH02 SCSC 092100
AAXX 09214
85585 439// 92008 10123 20076 30204 40241 56012=
85629 42570 11807 10094 20071 40200 57011 81500
  333 56400 81620=
85672 42980 01808 10130 20090 40236 52004
333   =
85682 42960 32307 10119 20068 40227 56011 80001
  333 56007 83070=
85743 41957 49901 10101 20027 40240 56012 70511 81031
  333 56066 81365 83075=
85766 42665 73606 10107 20059 40235 57009 85570
  333 56880 85635 87359=
85782 41560 83308 10090 20056 40214 57012 70282 888//
  333 56799 83830 88640=
85799 41457 83618 10073 20056 40200 57005 76066 885//
  333 56899 85619 88633=
####018000583####
SINM40 FYWW 092100
AAXX 09214
68006 46/// /1703 10132 20022 38973 48537 52005
      333 10263 20130 91004 555 91021=
68110 46/// /0904 10122 20000 38317 48542 54000
      333 10206 20118 91006 555 91024=
68212 46/// /0604 10092 21047 38944 48540 53002
      333 10217 20083 91006 555 91022=
68213 46/// /0305 10151 20009 38891 48543 56001
      333 10245 20150 91007 555 91022=
68312 46/// /2606 10170 20003 38975 48531 52002
      333 10265 20170 91007 555 91019=
68318 46/// /3203 10165 20011 39012 48513 52001
      333 10245 20153 91016 555 91017=

####018000030####
SISO22 AMMC 092100
NIL

####018002496####
SIKW20 OKBK 092100
AAXX 09214
40550 37/41 /2003 10309 20273 40004 50002 71011
  333 00307 10502 20309 51160 55103 00963 10392 22744 43647 54921
63643 55300 00000 10277 20000 30000 41488 51765 60000 55407 40000
55507 51844 90069 90401 91007 91115 91207 91303=
40551 26/// /1304 10318 20262
  333 10524 20317 79999 90401 91009 91117 91213 91305=
40552 27/23 /1408 10295 20278 40005 50010 71011
  333 00295 10484 20294 55108 55300 79999 90069 90400 91009 91119
91213 91309=
40568 36/// /1209 10301 20283
  333 10368 20295 90401 91011 91117 91213 91309=
40569 NIL=
40570 35/63 /3008 10333 20074 40008 53005
  333 00295 10482 20299 55114 55300 90069 90401 91009 91119 91209
91305=
40571 NIL=
40572 NIL=
40573 36/// /3108 10338 20095
  333 10489 20316 90401 91009 91113 91209 91305=
40580 36/// /1002 10315 20278
  333 00283 10467 20311 50880 55/// 01023 10412 22675 43560 54909
63389 553// 00000 10296 20000 30000 41476 51771 60000 55407 40000
55507 51961 90400 91005 91113 91205 91301=
40581 36/// /1203 10315 20289
  333 10435 20310 90401 91007 91113 91207 91303=
40582 31945 01105 10309 20282 40006 50012 71000
  333 00308 10468 20302 51560 55110 01039 10377 22795 43689 54854
63763 55300 00000 10262 20000 30000 41494 51755 60000 55407 40000
55507 51827 90401 91007 91117 91209 91305=
40583 NIL=
40585 36/// /1609 10303 20286 222// 1//// 3//// 4//// 70///
  333 10388 20302 90401 91011 91117 91213 91307=
40586 26/// /2204 10322 20275
  333 10491 20322 70005 90401 91005 91117 91211 91305=
40587 36/// /1203 10314 20279
  333 00310 10495 20313 51660 55/// 00911 10407 22753 43611 54984
63629 553// 00000 10282 20000 30000 41476 51758 60000 55407 40000
55507 51877 90400 91005 91111 91205 91303=
40588 37/37 /1205 10301 20280 40005 58002 71011
  333 00295 10390 20301 55112 55300 90069 90400 91007 91117 91213
91307=
40589 NIL=
40590 36/// /0808 10312 20237
  333 10493 20310 90400 91011 91121 91213 91305=
40591 NIL=
40592 37/32 /0604 10304 20285 40003 50009 71011
  333 00304 10464 20303 50960 55106 01118 10401 22780 43590 54849
63585 55300 00000 10284 20000 30000 41465 51749 60000 55407 40000
55507 51975 90069 90400 91007 91115 91205 91303=
40593 36/// /1207 10308 20289
  333 10377 20308 90400 91007 91119 91215 91311=
40594 36/// /0907 10313 20289
  333 10410 20312 90400 91011 91115 91209 91305=
40596 36/// /1303 10313 20294
  333 10347 20312 90401 91007 91113 91209 91305=
####018000083####
SIMC22 GMMC 092100 RRA
AAXX 09214
60318 32950 00000 10224 20196 40177 53012=
####018000626####
SITU12 LTAA 092100
AAXX 09214
17024
42670 52008 10203 20195 30046 40120 50001 83250
333 83835 85360 90730 91112=
17056
42970 33103 10198 20162 30159 40163 52010 83030
333 83360=
17067
42670 63006 10220 20177 30113 40134 52013 86200
333 86840=
17112
42670 60503 10210 20157 30167 40169 52010 84250
333 84835 86360 90730 91113=
17115
41660 62804 10196 20160 30100 40149 50012 70282 84230
333 84835 86360=
17202
42970 02904 10215 20031 39107 40047 51010
333=
17248
42975 00504 10218 20127 38944 48486 52019
333=
17300
42560 30802 10249 20213 30029 40101 52012 83100
333 83830=
####018000089####
SNPS40 AMMC 092000 RRC
AAXX 09204
91519 46/// /1705 10250 40121 22200 00289=


