####018001096####
SMCA02 KWBC 100000 RRA
AAXX 10004
78318 11564 51001 10303 20241 30147 40150 52009 60001 71792 83943
333 06999 10328 20247 30/// 57981 58010 81820 85073 829//=
78325 11462 71501 10269 20217 30100 40157 53012 60221 72996 82973
333 07999 10321 20236 32/// 54115 57961 58015 70221 82817 86356
87082 819//=
78333 01410 41401 10296 20247 30157 40163 52013 69901 70561 84903
333 06300 10311 20236 30/// 57981 58009 69907 70009 82817 849//
555 11402=
78348 11556 70000 10272 20252 30115 40167 53007 69941 71796 86963
333 09999 10302 20227 31/// 57921 58013 70007 82820 859//=
78349 11558 63301 10274 20243 30055 40163 53007 60001 70592 85903
333 09009 10318 20234 31/// 57971 58008 70050 82821 84924=
78353 12560 50902 10292 20251 30137 40159 53003 60001 83902 333
06909 10327 20230 30/// 50264 57941 59006 81823 829//=
78360 11463 61301 10301 20234 30136 40147 55003 60001 71792 83906
333 06909 10327 20254 30/// 57911 59001 81818 852// 819// 92021=
78369 11464 10906 10292 20243 30142 40151 50001 60001 70500 81202
333 01909 10326 20268 30/// 58001 81818 92034=
####018000321####
SMVD20 KWNB 100000 RRN
BBXX
44099 10001 99369 70758 46/// ///// 1//// 90008 22200 00262 10702
20702 70012=
44060 10001 99413 70721 46/// /1203 10212 40119 90030 22200 00189
333 91203 555 11031 22041=
44040 10001 99410 70736 46/// /2103 10252 20223 40116 90019 22200
1//00 70002 333 91204 555 11036 22041=
####018000127####
SMVD22 KWNB 100000 RRU
BBXX
46224 10001 99332 71175 46/// ///// 1//// 92346 22200 00178 11302
21001 320// 41301 70008=
####018000127####
SMVE15 KWNB 100000 RRF
BBXX
52200 10001 99134 11448 46/// ///// 1//// 90022 22200 00298 11003
21003 310// 41101 70015=
####018000158####
SMVD15 KWNB 100000 RRU
BBXX
42362 10001 99278 70907 46/// /0000 10289 20217 40159 90030=
42364 10001 99291 70881 46/// /0000 10278 20222 40159 90030=
####018000127####
SMVD17 KWNB 100000 RRE
BBXX
52201 10001 99071 11714 46/// ///// 1//// 90025 22200 00287 11303
20902 318// 41301 70013=
####018000716####
SMIR02 OIII 100000
AAXX 10001
40703 12960 00000 10198 20086 38876 40033 53003 60001 333=
40712 12965 02602 10160 20040 38657 40047 53003 60001 333=
40729 12960 00000 10200 20015 38342 40024 50002 60001 333=
40736 12960 00000 10258 20244 30091 40068 53007 60001 333=
40739 12965 00303 10264 20083 38662 40013 56002 60001 333=
40743 12965 00704 10302 20043 39013 40020 57005 60001 333=
40762 12960 00205 10244 20035 38529 40012 58004 60001 333=
40768 12960 00000 10183 21032 38268 40033 52002 60001 333=
40769 12960 02603 10238 20002 38298 40005 53007 60001 333=
40785 12960 02102 10302 20037 39007 40008 58004 60001 333=
40809 12960 00802 10236 20077 38485 40003 56007 60001 333=
40821 12960 00000 10
####018000131####
SMVS02 VNNN 100000 RRA
AAXX 10001
48852 32998 72301 10282 20231 30057 40067 52010 80008 333 00031
20248 3/025 59001 87299=
####018000335####
SMVS01 VNNN 100000 RRA
AAXX 10001
48839 32998 61810 10300 20273 39992 40055 52011 80008 222// 00297
3//03 333 00/// 20294 58009 86299=
48848 32998 62302 10310 20249 30056 40064 53014 80008 333 00034
20294 3/029 58002 86299=
48855 32770 70000 10279 20232 30065 40073 53016 81508 333 00031
20259 3/025 58002 81697 87299=
####018000444####
SMRA40 RUHB 100000
AAXX 10001
31152 32699 83601 10155 20120 39742 40113 52001 8352/ 333 20112
55110=
31163 NIL=
31285 11496 80201 10128 20113 30071 40145 53001 69930 75052 886// 333
20104=
31561 32598 80502 10169 20139 30106 40131 52001 333 20152=
31683 11699 73401 10161 20128 30073 40142 54000 69900 70264 87500 333
20125=
32010 11497 81403 10123 20104 30104 40150 58003 69930 70285 889// 333
20091 88910 91004 91105=
####018000073####
SMTP01 LFVW 100000
AAXX 10004
61932 46/// /1507 10237 40163 5////=
####018000073####
SNTP01 LFVW 092300
AAXX 09234
61932 46/// /1808 10233 40163 5////=
####018000202####
SMMO02 MNUB 100000 RRB
AAXX 10001
44218 32698 71601 10170 20018 38513 40013 53003 81176
333 20144 55066 555 30109=
44265 32999 30000 10157 20106 38749 40048 53006 80004
333 20125 555 30094=
####018000092####
SMPS02 NZKL 100000
AAXX 10004
91723 NIL=
91964 36/// /1412 10174 20124 40233 57015=
####018000116####
SMCE01 FEFF 100000 RRA
AAXX 10004
64650 32960 40802 10233 20225 39703 40111  82032
  333 58000 82365 83080=
####018000112####
SMCE01 FEFF 100000
AAXX 10004
64650 32960 40802 10233 20225 39703 40111  82032
  333 58000 82365 83080=
####018000102####
SMCN32 CWAO 100000 RRF
AAXX 10004
71277 16/// /3410 10234 20114 60001 333 10273 20138 70000=

####018000186####
SMIN01 DEMS 100000 RRA
AAXX 10004
42071 31696 40707 10278 20228 49991 70511 82430
  333 59021 82640 83360=
42189 31595 20000 10302 20280 49987 70500 82500
  333 59025 82630=
####018000090####
SMTA10 UTDD 100000 RRA
AAXX 10001
38846 42999 00504 10179 20140 38500 489470 53003=
####018000140####
SMCN02 CWAO 100000 CCA
AAXX 10004
71120 11674 80606 10237 20133 39467 40098 57008 69931
72982 84968 333 10278 20131 70003 90921=

####018000137####
SMCN02 CWAO 100000 CCA
AAXX 10004
71120 11674 80606 10237 20133 39467 40098 57008 69931
72982 84968 333 10278 20131 70003 90921=
####018002955####
SMID20 WIIX 100000
AAXX 10004
96001 NIL=
96015 32458 50305 10234 20224 30107 40114 5//// 83572
  333 20217 50163 55083 56000 58003 83616=
96033 01450 80000 10254 20239 30109 40115 52007 60024 70562 84927
  333 20242 50324 55093 56000 57903 59027 81920 84617 84457 80980=
96075 31456 70000 10228 20222 30087 40093 5//// 70522 83271
  333 20160 50280 55082 56000 57802 59014 83816 85362 80856=
96087 32460 50000 10250 20241 30075 40108 53006 82231
  333 20247 50710 55050 56000 57802 59014 82817 80856=
96171 31456 60000 10246 20234 30070 40094 56001 70522 83521
  333 20244 50350 55049 56000 58010 83616=
96207 NIL=
96505 NIL=
96525 12458 60000 10248 20234 30120 40127 5//// 60224 83535
  333 20239 5///0 55038 56000 58004 83615=
96529 12458 50000 10245 20236 30114 40138 52023 60224 84131
  333 20224 50060 55050 56000 58008 84817=
96535 02960 51001 10234 20226 30107 40127 5//// 60044 84031
  333 20226 50460 55051 56000 58001 69928 84362 83082=
96557 11410 60000 10231 20225 30049 40085 60024 70522 84271
  333 20222 50270 55024 56200 57821 59011 84813 84360 80857=
96559 11556 60000 10232 20221 30058 40092 52005 69944 70522 83430
  333 20220 50290 55041 56000 57608 59015 83620 85362 80674=
96565 32360 70303 10245 20239 30074 40119 5//// 85121
  333 20241 50240 55058 56000 59015 85808=
96595 11340 80000 10228 20225 30090 40142 60204 71022 8557/
  333 20217 50420 55001 56009 58001 85608=
96607 12460 62303 10254 20236 30117 40132 51009 69904 84221
  333 20238 50280 55041 56000 58008 84813=
96615 32460 60704 10260 20239 30102 40114 81231
  333 20236 50440 55053 56000 57803 59011 81812 83362 80856=
96695 01456 80000 10241 20236 30127 40132 5//// 60064 70262 8622/
  333 20234 50580 55041 56009 58015 60068 84617=
96737 31456 70000 10244 20235 30062 40093 53011 70522 84521
  333 20236 50420 55090 56000 59004 84616 83460=
96739 NIL=
96741 32560 52002 10262 20236 30106 40110 52010 81572
  333 20260 50470 55077 56000 58004 81623 83080=
96745 NIL=
96751 NIL=
96791 11559 70000 10240 20226 30071 40120 51021 69904 70522 83521
  333 20238 50094 55083 56000 58006 83620=
96797 32560 72108 10256 20229 30108 40112 52018 82531
  333 20250 50590 55072 5//// 56000 59002 82620 85360=
96837 31559 51003 10259 20231 30109 40113 51015 70511 82531
  333 20252 50270 55080 56000 57600 59013 82623=
96925 32465 60206 10269 20238 30108 40111 52015 83272
  333 20252 50630 55100 56200 57820 59002 83817 80860=
96933 32460 30000 10260 20233 30114 40120 52011 81811
  333 20247 50211 55085 56200 59009 81816 83080=
96937 32559 60000 10264 20235 30118 40122 52011 82111
  333 20263 50340 55080 56000 59004 82820=
96973 11459 70000 10246 20240 30116 40120 52025 60064 70596 84976
  333 20246 50371 55090 56000 57902 59006 81918 80977 83820 80850=
96987 12458 70000 10244 20232 30070 40129 52009 60044 84521
  333 20240 50041 55095 56000 58013 84617=
####018003917####
SMID02 WIIX 100000
AAXX 10004
97014 12562 20000 10293 20244 30031 40124 52013 60054 81111
  333 20227 50350 55073 55508 51796 56000 58001 81827=
97028 12565 50802 10260 20245 30113 40119 52011 60084 82221
  333 20220 50160 55048 56000 57801 58003 82820 84460 80860=
97048 32458 40704 10262 20241 30086 40110 52018 84231
  333 20238 50330 44082 56200 57881 58003 84815 80860=
97072 12560 70000 10256 20223 30041 40141 52020 69904 83571
  333 20230 50260 55036 56000 58009 82620 84460=
97086 32561 41302 10283 20231 30103 40127 52017 83912
  333 20240 50690 55092 56000 57902 58002 82920 80980=
97096 12460 20000 10260 20245 30118 40139 5//// 69904 81231
  333 20228 50000 55080 56000 57801 58010 81818 80859=
97120 11462 40405 10274 20223 30081 40114 53010 60144 70162 81231
  333 20232 50380 55063 56000 57803 59006 81818 80860=
97146 11420 62805 10244 20235 30060 40120 5//// 60164 71022 84871
  333 20228 56000 57804 58002 81814 83614 80857=
97180 11560 30602 10271 20242 30099 40117 53014 60344 70162 81232
  333 20231 55035 56000 59005 81820=
97192 01462 71905 10248 20236 30079 40136 52018 60564 70262 83520
  333 20234 55017 5//// 56200 58007 69957 83616 87460=
97230 32460 70000 10256 20246 30114 40121 52015 82232
  333 20245 50410 55090 56000 57802 58000 82818 64360 80857=
97260 12565 61303 10262 20232 30408 40114 52010 60014 82501
  333 20236 50380 55069 56000 59006 82620=
97270 31456 40000 10258 20246 30116 40121 52014 70522 82171
  333 20246 50180 55033 56000 59003 82815=
97300 32564 20000 10265 20236 30095 40128 52007 81231
  333 20244 50360 55073 56000 57803 58000 81820 80856=
97340 12570 72103 10240 20225 30108 40122 52012 60346 83232
  333 20224 50190 55045 56000 59004 83620 85080=
97372 32560 31107 10278 20241 30013 52017 82231
  333 20238 50046 55061 56000 58007 82820=
97430 32460 50505 10290 20253 30086 40115 52010 83232
  333 20242 50430 55092 56300 57831 59002 83818 80860=
97460 11460 40000 10274 20240 30094 40103 52017 69904 70162 83231
  333 20230 50410 55091 56000 57803 58004 83817 80856=
97502 12457 40114 10280 20249 30107 40110 52016 60204 70242 82541
  333 20244 55075 56000 58000 85630 806//=
97530 32465 20000 10248 20231 30095 40102 52014 81202
  333 20230 50200 55022 56000 57802 59001 81814 80833=
97560 12460 61004 10296 20253 30103 40118 52026 60014 83948
  333 20238 50120 55000 56000 57901 59002 81917 83818 85361 80980
80860=
97580 32460 70000 10264 20246 30119 40126 81271
  333 20238 55045 56000 57804 58007 81814 87360 80856=
97600 01459 70000 10266 20245 30114 40120 5//// 69904 76092 83971
  333 20246 5//// 55079 56200 57921 58018 69907 81916 82818 86459
80958=
97686 11357 70000 10185 20148 38385 40117 52014 60054 72052 86846
  333 20150 50180 55025 56000 57801 58010 69907 85808 86260 80852=
97690 11458 80000 10256 20244 30023 40125 52030 60084 70522 85867
  333 20236 55015 56000 57800 58012 82815 83620 88278=
97724 31457 70703 10284 20246 30103 40119 52017 71591 84872
  333 20242 50400 55074 56300 57831 58005 83814 80842=
97748 31459 61411 10290 20253 30112 40114 51016 71622 83932
  333 20270 50350 55047 56300 57932 58001 81914 82815 80940 80850=
97760 31459 70000 10270 20225 30118 40127 52027 70544 83932
  333 20240 55000 56000 57901 58007 81915 83816 80977=
97796 31458 60000 10260 20239 30097 40148 52018 69954 70522 82132
  333 20234 55013 56000 58005 82814 85362=
97810 32464 51215 10282 20241 30125 40132 51017 82232
  333 20244 50210 55022 56300 57833 58004 82819 80835=
97876 12258 70303 10260 20236 30147 40178 52015 60244 86652
  333 20242 55020 58012 82706 83608=
97900 01460 70905 10264 20238 30112 40143 52012 69944 72122 84820
  333 20247 50240 55026 56200 57821 58006 69947 83617 80857 87460=
97980 31458 81010 10272 20230 30129 40136 51016 71522 86842
  333 50280 55/// 56000 59012 85814=
####018002094####
SMID21 WIIX 100000
AAXX 10004
97008 NIL=
97016 31563 20000 10286 20230 30105 40107 52006 70511 81131
  333 20242 50520 55088 56000 57803 59005 81820 80860=
97126 11560 30503 10252 20232 30067 40127 51006 60654 70162 81571
  333 20218 50880 55035 56000 59005 81620 83460=
97142 12460 50000 10266 20237 30100 40114 5//// 60584 82831
  333 20232 51210 55006 56000 57801 58002 81819 83359 80859=
97182 11559 60702 10272 20243 30105 40110 53014 60024 70522 83871
  333 20246 50510 55038 56100 57801 59005 82820 80865=
97240 NIL=
97284 NIL=
97310 12568 20000 10280 20245 30095 40107 5//// 60014 81102
  333 20214 50290 55060 56000 58000 81820=
97320 32568 10000 10266 20236 30112 40129 5//// 81106
  333 20222 50360 55050 56000 58007 81820=
97378 32567 30910 10270 20235 39956 40013 5//// 82101
  333 20218 50090 55094 56200 58001 82820=
97380 32464 30906 10277 20240 30103 40135 5//// 83201
  333 20252 50280 55060 56100 57812 58003 83818 80840=
97406 11560 52806 10266 20245 30071 40096 51010 60034 70262 83331
  333 20234 50140 55085 56200 57821 58001 83820 80860=
97570 31460 63505 10290 20241 30104 40111 52014 70342 82933
  333 20222 55007 56000 57902 58001 81914 85078 80959=
97630 12467 60000 10260 20236 39964 40122 51022 69944 84852
  333 20220 50200 55060 56000 57901 58002 81912 82813 84614 86362
80978=
97682 12468 50000 10276 20247 30109 40118 52029 60044 83872
  333 20241 55075 56000 57803 58006 82816 85080 80854=
97698 11458 80000 10268 20238 30123 40130 56015 60044 71562 8497/
  333 20248 55025 56009 57900 58012 81914 82615 88460=
97700 32463 32103 10266 20242 30100 40114 52022 82131
  333 20236 50390 55094 56000 57805 58013 82819 80856=
97722 32463 53504 10276 20238 30105 40120 52022 85932
  333 20220 50290 55083 56200 57921 57821 58002 81918 83819 80957
80856=
97780 01465 40000 10197 20147 38263 40275 69944 70142 82821
  333 20143 55000 56000 57802 82816 85363 80870=
97790 31458 70905 10288 20248 30072 40093 5//// 70522 83872
  333 20224 50660 55071 56200 57822 58004 82818 83358 80858=
####018003123####
SMID01 WIIX 100000
AAXX 10004
96009 12456 71606 10240 20225 30061 40096 52002 60064 83922
  333 20226 50240 55000 56000 57003 59009 81917 82617 80960=
96011 11560 51503 10235 20224 30077 40100 52005 60114 70262 82532
  333 20222 50560 55011 56000 58002 82620=
96035 01450 80000 10250 20238 30065 40103 52008 60144 70596 83578
  333 20234 50500 55047 56000 59001 69917 83618=
96073 31557 70000 10232 20226 30084 40096 51005 70522 83522
  333 20214 50048 55070 56000 59023 83620=
96091 32460 50000 10242 20235 30085 40108 51007 82232
  333 20236 50380 55052 56000 57803 59013 82817 80860=
96109 12460 60000 10250 20236 30048 40089 53002 69914 85231
  333 20250 50560 55063 56000 57801 59007 85815 80840=
96145 12456 51806 10250 20247 30090 40094 5//// 69904 82121
  333 20230 50200 55012 56400 59010 82817 83070=
96147 11460 40000 10236 20231 30112 40119 5//// 60134 70511 83531
  333 20222 56000 58005 60011 83616 83080=
96163 12559 60000 10254 20242 30084 40091 57006 69924 83521
  333 20228 55100 56000 59020 83620=
96179 32460 60000 10240 20237 30068 40104 52007 84206
  333 20202 50480 55094 56700 57873 58001 84817 80840=
96195 31417 50000 10239 20233 30078 40113 53017 71022 81171
  333 20233 50251 55079 56000 59003 81814 83460=
96221 31915 30000 10253 20245 30092 40107 52014 71021 80001
  333 20242 5//// 55082 56099 59007 83080=
96237 32460 60000 10263 20237 30064 40105 52011 83232
  333 20242 50320 55068 56000 57801 59006 83817 80858 83360=
96249 12560 50000 10237 20234 30040 40102 52011 60024 82232
  333 20225 50120 55052 56000 57802 59007 82820 80863=
96253 32458 40000 10238 20227 30065 40086 52014 83932
  333 20222 50284 55102 55508 51142 56000 57902 59013 81915 81820
80980=
96295 31430 22603 10232 20226 30010 40112 51015 71010 81501
  333 20230 50170 55080 55508 50354 56000 58001 81616=
96509 11459 60000 10260 20242 30110 40121 52014 60014 70521 83171
  333 20244 50080 55019 56400 58006 83817=
96581 12460 40000 10234 20222 30103 40111 52011 60124 81131
  333 20236 50310 55055 56000 59009 81813 83361 80858=
96633 01459 52207 10258 20250 30112 40120 53004 60104 70161 81571
  333 20240 50790 55042 56000 58002 60027 81618 83360=
96645 32456 20000 10234 20227 30087 40120 52013 82532
  333 20224 50200 55031 56000 59001 82613=
96655 11457 80502 10244 20238 30101 40136 52004 60390 72842 86573
  333 20228 50200 55000 56000 59016 86611=
96685 21450 80000 10238 20234 30102 40129 52014 70522 8651/
  333 20234 50360 55022 56009 58002 86610=
96749 11550 51802 10252 20224 30099 40112 53014 69924 70522 81521
  333 20244 50590 55100 56000 59002 81622 85460=
96781 11550 50000 10190 20176 39300 48732 52015 60024 70511 82531
  333 20190 56000 59003 82620=
96805 01558 80000 10242 20236 30118 40133 51012 56044 70262 8422/
  333 20242 50220 55060 57801 59002 60037 84820 88460 80860=
96839 31556 71304 10252 20229 30109 40114 51015 70522 84532
  333 20250 50311 55082 56000 59010 84621=
96935 31540 50000 10248 20231 30118 40124 70005 70510 81171
  333 20244 50530 55083 56000 59004 81820=
####018002664####
SMMO02 MNUB 100000
AAXX 10000
44203 32699 70000 10111 20082 38365 40086 53005 82550
333 20059 555 30055=
44207 11699 53602 10112 20080 38290 40096 54000 69912
70242 83549 333 20058 55/// 555 30056=
44212 32699 63604 10180 20075 38977 40024 57004 83270
333 20117 55078 555 30118=
44213 32999 60000 10178 20052 38678 40029 52002 84039
333 20133 555 30121=
44215 32698 70000 10153 20055 38320 40012 54000 82546
333 20114 555 30105=
44218 32698 71601 10170 20018 38513 40013 53003 81176
333 20144 55066 555 30109=
44225 32698 70000 10105 20072 38235 40110 54000 82188
333 20088 555 30078=
44230 32698 50000 10159 20106 38745 40121 53004 82104
333 20107 555 30098=
44232 32999 41002 10167 20130 39033 40084 52003 84030
333 20125 555 30117=
44237 32999 20000 10134 20104 38445 40108 53005 82044
333 20087 555 30085=
44239 32699 23601 10162 20114 38745 40060 55000 81104
333 20119 555 30087=
44241 32699 82802 10167 20160 39178 40087 52011 885//
333 20158 555 30156=
44256 32699 60907 10216 20156 39267 40057 53008 82582
333 20152 555 30132=
44265 32999 30000 10157 20106 38749 40048 53006 80004
333 20125 555 30094=
44272 32698 60000 10145 20050 38160 40018 57003 85540
333 20127 55134 555 30094=
44275 32598 70202 10102 20070 37719 40074 56002 86530
333 20084 555 30065=
44282 32999 60000 10142 20093 38265 40075 53006 83074
333 20097 555 30084=
44284 32699 70000 10119 20068 37842 40113 51002 82154
333 20076 555 30079=
44285 32699 20601 10150 20100 38298 40089 53003 82100
333 20083 555 30095=
44287 32699 40802 10154 20066 38091 40082 53002 81104
333 20121 555 30118=
44294 32698 60104 10160 20098 38515 40081 52014 86500
333 20111 555 30098=
44298 11598 80507 10152 20125 38635 40041 52016 69902
72162 8654/ 333 20145 555 30140=
44302 31598 70505 10177 20146 39049 40079 52011 71522
87700 333 20155 555 30130=
44305 11599 80910 10157 20138 38929 40000 53003 60052
70266 8852/ 333 20152 91118 555 30154=
44313 32999 21405 10217 20123 39303 40066 53004 80004
333 20138 555 30123=
44314 11698 80905 10175 20144 39054 40056 53007 69932
70282 885// 333 20155 555 30144=
44317 11596 81806 10161 20140 38848 40036 52008 60032
71062 8872/ 333 20148 555 30136=
44336 32699 23605 10165 20111 38636 40090 51001 82100
333 20127 555 30119=
44341 32599 63608 10155 20106 38544 40075 52013 86500
333 20127 555 30110=
44347 32999 03204 10161 20114 38647 40063 52006 333
20128 555 30106=
44352 11596 81403 10161 20125 38783 49979 53002 69982
76096 8802/ 333 20136 555 30136=
44358 32598 62908 10207 20146 38930 49985 51011 83340
333 20170 555 30163=
####018000109####
SMIN03 DEMS 100000 RRA
AAXX 10004
42675 32596 60000 10264 20235 40031 83530
  333 59004 83625 85360=
####018001227####
SMXX16 KAWN 100000 RRC
BBXX
46004 10001 99509 71361 46/// /2507 10123 40168 57002 22200 00116
 10804 70019 333 91209=
46036 10001 99484 71339 46/// /2307 10134 40213 57010 22200 00128
 11403 70015 333 91208=
46145 10001 99544 71324 46/// /1206 10140 40157 57004 22200 00129
 10801 70006 333 91206=
46181 10001 99538 71288 46/// /2401 10193 40170 54000 22200 00176
 10200 70001 333 91203=
46183 10001 99536 71311 46/// /1406 10129 40169 52001 22200 00131
 10301 70004 333 91208=
46185 10001 99524 71298 46/// /1604 10134 40178 57004 22200 00127
 11501 70006 333 91205=
46204 10001 99514 71288 46/// /2302 10141 40190 57002 22200 00145
 10802 70008 333 91203=
46205 10001 99542 71343 46/// /1905 10123 40148 5//// 22200 00123
 10703 70014 333 91206=
46206 10001 99488 71260 46/// /3011 10154 40161 57007 22200 00139
 10605 70023 333 91214=
46208 10001 99525 71327 46/// /2002 10128 40169 54000 22200 00122
 10803 70013 333 91203=
SHIP 10004 99424 71460 41496 81815 10190 20159 40298 56002 70322
 8752/ 90000 22264 00175 20403 325// 40905 80170=
VRFD6 10004 99423 71400 41/// 82711 10250 20207 40290 54000 71222
 8//// 22234 00170 2//// 327// 41001 5//// 6//// 80220 ICE /////=
####018000119####
SMBW01 VGDC 100000 CCA
AAXX 10004
41936 31450 21704 10280 20260 40028 70511 80630 333
56090 59017 70000 82362=
####018000027####
SMCI09 BABJ 100000
NIL
####018001163####
SMCI08 BABJ 100000
AAXX 10001
55228 32780 40000 10076 21080 36065 52003 84900 333 05203
30031=
55578 11680 73402 10125 20084 36395 52002 69911 70080 87900
333 05101 70088=
55664 32880 70000 10104 20052 36042 52002 87400 333 05102=
55773 32470 70000 10072 20055 36047 57001 874// 333 05100
70056=
56116 11580 70000 10090 20057 36375 52005 60081 70086 875//
333 05151 70111=
56137 11580 73401 10138 20098 36816 57001 69921 72160 875//
333 05201 70021=
56172 32580 63201 10103 20095 37387 52010 82602 333 00454
70096=
56247 32580 70000 10175 20106 37419 52002 82440 333 00000
70040=
56312 11580 80000 10136 20122 37089 52006 60041 78088 884//
333 05151 70085=
56462 11380 82901 10128 20126 37139 52010 60031 78088 884//
333 00052 70226=
56651 32680 70702 10187 20127 37606 52010 879// 333 05101
70004=
56691 11467 83404 10144 20128 37751 52019 60331 78098 887//
333 00154 70341=
56985 32578 71604 10237 20177 38650 40029 52012 82442 333
00002 79999=
57633 11456 83601 10240 20226 39286 40018 52007 60031 78088
887// 333 05102 70245=
57902 32475 81805 10228 20186 38561 40016 52012 886// 333
05100 70019=
####018000027####
SMCI39 BABJ 100000
NIL
####018001175####
SMCI38 BABJ 100000
AAXX 10001
55279 32680 60000 10063 20038 35747 54000 85902 333 05201
30047 70029=
55472 32780 20000 10067 20035 35779 57001 82400 333 05201
30050 70027=
55696 32580 70000 10103 20081 36371 52004 875// 333 05100
70057=
56079 31780 70402 10041 20035 36743 52007 70040 87500 333
00356 30032 70219=
56106 32680 70000 10096 20058 36247 54000 874// 333 05252
70117=
56257 32580 82902 10096 20052 36318 52005 884// 333 00151
70060=
56374 11380 80902 10125 20111 37431 52010 69981 72884 884//
333 00152 70262=
56385 11680 81804 10084 20044 37031 52010 60011 76064 885//
333 00055 70191=
56954 11580 80901 10229 20208 40063 52010 69901 70080 884//
333 00001 79999=
56966 32775 71405 10280 20213 40020 52018 87402 333 00000=
57237 11875 83203 10223 20177 40042 52017 69901 76060 885//
333 00153 70031=
57306 32980 73401 10238 20180 40035 52009 8703/ 333 00252
70002=
57604 11359 82201 10204 20202 40055 52014 60061 76066 885//
333 00556 70100=
57707 11463 80000 10174 20174 38442 52015 60301 79598 889//
333 00154 70793=
57832 11580 80901 10264 20220 39334 40020 52015 69901 72500
888// 333 00051 79999=
####018000086####
SMAU04 AMMC 100000 RRA
AAXX 10004
94997 46/// ///// 10014 39934 49949 5////=

####018000251####
SMAU01 AMMC 100000 RRA
AAXX 10004
94103 35/// /3008 10301 3//// 5////=
94147 15/// /1317 10271 20229 30127 40149 51015 60044 90027=
94151 35/// /0209 10262 20201 30144 40165 51017 90021=
94290 46/// /1419 10242 30182 40191 51009 90024=

####018000115####
SMVD20 KWNB 100000 RRO
BBXX
44056 10001 99362 70757 46/// ///// 1//// 92345 22200 00276 10602
20602 70011=
####018000107####
SMVD15 KWNB 100000 RRV
BBXX
41037 10001 99340 70775 46/// /2308 10284 40111 53004 90000 333
91209=
####018000248####
SMAU01 AMMC 100000 RRA
AAXX 10004
94103 35/// /3008 10301 3//// 5////=
94147 15/// /1317 10271 20229 30127 40149 51015 60044 90027=
94151 35/// /0209 10262 20201 30144 40165 51017 90021=
94290 46/// /1419 10242 30182 40191 51009 90024=
####018000139####
SMSO02 AMMC 100000 RRA
AAXX 10003
91520 11575 50000 10302 20240 40128 50001 69914 70522 82238
  333 20225 56999 58011 81820 83280=
####018000083####
SMAU04 AMMC 100000 RRA
AAXX 10004
94997 46/// ///// 10014 39934 49949 5////=
####018000137####
SMAU40 AMMC 100000 RRA
AAXX 10004
94210 35/// /0207 10287 30142 40147 52030=
94289 46/// /1522 10247 30175 40182 51017 90015=

####018000142####
SMSO02 AMMC 100000 RRA
AAXX 10003
91520 11575 50000 10302 20240 40128 50001 69914 70522 82238
  333 20225 56999 58011 81820 83280=

####018000121####
SNVD45 KWNB 100100
BBXX
45022 10011 99454 70851 46/// /2302 10209 40160 90040 22200 00196
1//00 70002 333 91202=
####018001769####
SMRA13 RUNW 100000
AAXX 10001
20046 NIL=
20069 12981 22604 10004 21005 30148 40161 52005 69902 80001 333 20002
55000=
20087 32398 73104 11006 21010 30133 40143 52013 8253/ 333 21007
55000=
20292 11/93 92508 10012 20012 30111 40130 57003 69962 74584 333 20012
55000 91111=
20667 42598 83502 10047 20035 30192 40199 52003 885//=
20674 41398 80206 10031 29923 30116 40174 52006 70242 886// 333 20020
55100 88707 91108=
20744 42598 71802 10090 20043 30176 40193 58001 86551 333 86628=
20891 32998 50302 10152 20103 30074 40114 52001 83031 333 20130 55234
91103=
23022 42997 70302 10044 20039 30132 40191 56001 87030=
23032 42998 21103 10105 20082 30133 40162 52004 80001=
23058 41998 30307 10127 20106 30095 40099 53003 70262 87070=
23242 41597 70108 10102 20084 30082 40097 53003 78082 85930 333
85923=
23256 42598 60701 10123 20107 30059 40092 52008 83531=
23330 42598 40203 10134 20073 30117 40137 52002 82530=
23445 41296 82802 10117 20113 30067 40091 54000 76186 8802/ 333
88505=
23552 41597 50000 10149 20136 30049 40081 52004 71022 85500 333
85623=
23631 42999 10103 10133 20110 30087 40126 52003 80001=
23662 42999 20000 10118 20103 30048 40089 52005 82030=
23724 42999 00000 10106 20102 30077 40139 52006 80002=
23734 42998 23201 10113 20085 30022 40109 54000 82031=
23849 42496 60103 10148 20130 40077 52001 81630=
23867 42999 50000 10129 20115 39995 40063 58003 80005=
23933 42597 80000 10122 20115 30042 40103 58002 885// 333 88621=
28064 42599 63201 10104 20092 30032 40120 52002 86500=
28275 42598 80401 10124 20099 30047 40103 53002 889//=
28493 42298 83402 10120 20114 39966 40053 54000 886// 333 88704=
28698 41498 83101 10123 20113 39915 40061 54000 78082 889// 333 84916
84710=
####018000772####
SMRA14 RUNW 100000
AAXX 10001
23426 42989 33403 10130 20093 30114 40137 52005 83030=
23625 42599 20000 10100 20092 30102 40134 52003 82900=
28076 42497 80000 10119 20118 30031 40099 52002 885//=
28367 42996 60000 10116 20092 39987 40109 54000 86030=
28382 41448 83104 10104 20102 30019 40087 52002 71011 886//=
28481 42599 63302 10112 20097 30000 40095 52001 86500=
28491 42498 83402 10107 20102 39969 40074 52002 886// 333 88710=
28573 42589 83602 10116 20109 30000 40099 53009 885// 333 88630=
28593 42498 73502 10123 20112 39957 40049 54000 87300 333 87914=
28786 42598 83402 10115 20089 39929 40078 52004 83332=
28797 41497 83302 10116 20110 39919 40068 53001 72582 883// 333
88918=
28799 42598 83302 10124 20105 39918 40054 52001 8497/=
####018000530####
SMRA21 RUNW 100000
AAXX 10001
23929 42979 23001 10090 20076 30052 40117 54000 82030=
28383 42398 83003 10107 20102 39995 40075 52002 886// 333 88707=
28465 42980 83201 10123 20102 30036 40109 54000 88030=
28586 42598 83304 10111 20097 39933 40074 57001 885// 333 88631=
28588 42682 83304 10111 20097 39933 40084 52003 885// 333 88636=
28688 42998 83504 10116 20096 39931 40080 52004 88070=
28696 42598 82903 10126 20111 39919 40050 58008 8275/=
28791 42499 83203 10117 20102 39935 40073 52003 886// 333 88711=
####018000127####
SNAU49 AMMC 092300 CCB
AAXX 09234
94187 11482 80904 10245 20207 30075 40172 52012 60004 70222 885//
  333 70000=


####018000127####
SNAU49 AMMC 092300 RRB
AAXX 09234
94187 11482 80904 10245 20207 30075 40172 52012 60004 70222 885//
  333 70000=


