####018000089####
SIAA14 EGRR 092100 RRH
AAXX 09214
89667 46/// /1225 11244 39792 49803 5//// 92130=
####018000107####
SMST01 EGRR 100000 RRB
AAXX 10004
88900 46/// /0814 10001 21012 30023 40025 58018
333 10002 21019=
####018000089####
SIAA14 EGRR 092100 RRI
AAXX 09214
89269 46/// /2218 11076 3//// 4//// 5//// 92140=
####018001478####
SMIN02 DEMS 100000
AAXX 10004
42309 21394 80000 10254 20254 40025 76066 8592/
  333 59009 6012/=
42314 21395 80000 10246 20246 40034 76066 8432/
  333 57950 59011 6025/ 82708 84616 81925 88458=
42410 21495 70000 10274 20268 40018 70522 83530
  333 59042 6996/ 83620 85359=
42415 21596 50000 10272 20258 40039 70162 83330
  333 59029 6003/ 83620 81930 85360=
42492 21495 81404 10280 20260 49995 70596 8432/
  333 59017 6022/ 84618 81930 88458=
42587 32596 42302 10304 20238 49994 83530
  333 59011 83620 84360=
42591 31496 70000 10316 20245 49996 70522 85530
  333 59022 85618 86360=
42623 21496 70501 10246 20214 39189 40035 70552 84430
  333 59017 6994/ 82616 84820 86360=
42701 31495 52304 10248 20234 39304 40016 70511 82530
  333 59017 82618 85360=
42706 21495 51802 10268 20257 40008 70522 83530
  333 59021 6012/ 82618 83360=
42724 21496 61404 10268 20257 40038 70562 84630
  333 56490 59023 6005/ 82710 83618 85360=
42798 31595 32702 10282 20242 40012 70500 82530
  333 59020 82620 83360=
42809 31995 30000 10290 20262 40020 70511 83030
  333 59027 83360=
42886 22496 82302 10264 20244 40034 8662/
  333 59013 6002/ 84712 86618 88458=
42895 32596 42302 10280 20257 40022 81531
  333 59020 81620 83075=
42971 31595 72006 10280 20272 40039 70521 83531
  333 59011 83620 84360=
43333 21496 60000 10252 20246 40096 70252 84401
  333 56509 59011 6015/ 83618 84822=
42398 NIL=
42977 NIL=
43368 NIL=
####018000028####
SMJD01 OJAM 100000
NIL=
####018000150####
SMJD20 OJAM 100000
AAXX 10004
40255 NIL=
40260 NIL=
40270 NIL=
40272 NIL=
40290 NIL=
40340 31958 03510 10290 20152 40069 54000 70500=
####018000089####
SIAA14 EGRR 092100 RRJ
AAXX 09214
89324 46/// /1818 11344 37902 4//// 5//// 92120=
####018001673####
SMRA17 RUHB 100000
AAXX 10001
24790 32684 72302 10224 20140 39370 40095 58008 83901 333 20090
55150=
24988 NIL=
25378 32998 21803 10157 20086 30077 40108 57011 80009 333 20065
91104=
25503 32999 21802 10259 20165 39999 40112 57017 80001 333 20116
55134=
25705 NIL=
25927 32599 80703 10139 20130 30163 40170 52002 889// 333 20139
55118=
25932 31295 80000 10054 20035 30141 40179 58004 71022 886// 333 20050
55002=
31152 32699 83601 10155 20120 39742 40113 52001 8352/ 333 20112
55110=
31174 11398 82001 10086 20082 30140 40151 54000 69900 76064 886// 333
20066 55000=
31489 31599 83401 10159 20124 30027 40136 53005 72582 889// 333
20125=
31866 31598 80604 10140 20134 30129 40134 52007 72842 885// 333
20136=
31959 11497 80502 10158 20135 30085 40125 52005 60020 70262 8562/ 333
20144 55018 85713=
31989 12599 81403 10165 20148 30079 40129 52007 69900 8355/ 333
20147=
32027 11599 71802 10138 20126 30138 40146 58002 60010 70252 87900 333
20110 91005 91104=
32076 32598 71202 10103 20099 30145 40155 54000 86530 333 20089 91002
91104=
32099 32598 61303 10142 20127 30156 40163 52001 82531 333 20088 91004
91105=
32121 11497 81005 10156 20142 30117 40138 53005 69930 70282 886// 333
20143 91007 91108=
32213 11397 82303 10052 20040 30166 40229 58002 69900 70254 886// 333
20043 55024=
32287 32999 72604 10159 20128 30196 40206 52001 84071 333 20079
55084=
32408 32498 72007 10120 20088 30167 40204 58003 85530 333 20096
55150=
32509 11599 81702 10108 20093 30177 40210 54000 69980 70282 885//333
20091 55092=
32594 31397 82903 10064 20055 30184 40220 52007 70242 886// 333 20040
55///=
####018000089####
SIAA14 EGRR 092100 RRK
AAXX 09214
89828 46/// /2705 11676 36442 4//// 5//// 92120=
####018000027####
SMJD01 OJAM 100000
NIL
####018000089####
SIAA14 EGRR 092100 RRL
AAXX 09214
89332 46/// /1114 11375 38992 49669 5//// 92130=
####018000089####
SIAA14 EGRR 092100 RRM
AAXX 09214
89872 46/// /1922 11281 39729 49790 5//// 92130=
####018000329####
SMAA10 RUML 100000
AAXX 10004
89050 11898 71904 11054 21073 49734 52039 69982 70273 87030=
89512 42972 61318 11195 21300 39670 49811 52002 80006=
89574 11395 80815 11089 21160 49775 57011 69902 73832 333 21116=
89592 11/91 91029 11085 21093 49690 52018 61472 73973=
89606 32998 02808 11722 21762 36241 47676 52019=
####018000089####
SIAA14 EGRR 092100 RRO
AAXX 09214
89108 46/// /0014 11624 36832 4//// 5//// 92120=
####018000200####
SMBW01 VGDC 100000 RRA
AAXX 10004
41936 31350 21704 10280 20260 40028 70511 80630 333
56090 59017 70000 82362=
41950 32450 40000 10274 20260 30026 40028 83530 333
56990 59024 70020 83616=
####018000089####
SIAA14 EGRR 092100 RRN
AAXX 09214
89329 46/// /0425 11334 38535 49684 5//// 92120=
####018000089####
SIAA14 EGRR 092100 RRP
AAXX 09214
89377 46/// /1811 11336 39749 49825 5//// 92130=
####018000125####
SMMG20 FMMD 100000
AAXX 10004
67020 NIL=
67022 NIL=
67023 NIL=
67037 NIL=
67067 NIL=
67107 NIL=
67131 NIL=
####018000089####
SIAA14 EGRR 092100 RRR
AAXX 09214
89864 46/// /0000 11252 39693 49797 5//// 92120=
####018000089####
SIAA14 EGRR 092100 RRQ
AAXX 09214
89376 46/// ///01 11379 39688 49764 5//// 92120=
####018000281####
SMMG01 FMMD 100000
AAXX 10004
67009 NIL=
67012 NIL=
67019 NIL=
67025 NIL=
67027 NIL=
67045 NIL=
67072 NIL=
67073 NIL=
67083 NIL=
67085 NIL=
67095 NIL=
67113 NIL=
67117 NIL=
67137 NIL=
67143 NIL=
67152 NIL=
67157 NIL=
67161 NIL=
67197 NIL=
####018000089####
SIAA14 EGRR 092100 RRS
AAXX 09214
89866 46/// /1413 11209 39676 49818 5//// 92130=
####018000787####
SMLY01 HLMC 100000 RRA
AAXX 10004
62007 32960 00910 10250 20222 40175 55004=
62008 32960 00806 10238 20140 39395 48566 56003=
62010 31957 01002 10230 20198 40174 58000 70500=
62012 32960 01205 10252 20211 30166 40195 55002=
62014 32960 00910 10240 20148 39869 40158 55002=
62019 32960 00708 10245 20207 40161 56001=
62056 32460 60104 10177 20162 39426 48540 56002 86600
  333 86715=
62059 32960 03210 10240 20210 40159 51002=
62103 32970 00612 10292 20059 39755 40143 51006=
62120 32960 00810 10245 20191 39613 48583 53005=
62161 32960 03306 10255 20174 40125 58005=
62176 32960 00108 10260 20122 40112 54000=
62200 32960 00000 10283 20111 39615 40124 56002=
62212 32970 00201 10302 20095 39361 48557 53002=
62259 32960 00000 10294 20101 40125 58004=
####018000089####
SIAA14 EGRR 092100 RRT
AAXX 09214
89869 46/// /3007 11298 39737 49823 5//// 92130=
####018000089####
SIAA14 EGRR 092100 RRU
AAXX 09214
89768 46/// /1820 11346 38652 49761 5//// 92130=
####018000103####
SMAA01 EDZW 100000
AAXX 10004
89002 42999 02709 11378 21419 39863 49917 58004
333 11326 21408=
####018000089####
SIAA14 EGRR 092100 RRV
AAXX 09214
89873 46/// /2306 11308 39713 49798 5//// 92130=
####018000089####
SIAA14 EGRR 092100 RRX
AAXX 09214
89314 46/// /1034 11324 38029 4//// 5//// 92130=
####018000089####
SIAA14 EGRR 092100 RRX
AAXX 09214
89868 46/// /2212 11332 39729 49804 5//// 92130=
####018000089####
SIAA14 EGRR 092100 RRW
AAXX 09214
89799 46/// /3210 11615 36623 4//// 5//// 92130=
####018000572####
SMKZ01 UAAA 100000 RRA
AAXX 10001
34691 42998 03402 10274 20042 30103 40092 54000 555   1/021=
35700 42998 01002 10278 20144 30128 40107 52008 555   10021=
36864 42699 62704 10230 20088 39201 40013 57004 83241 555   91122=
38196 42998 03203 10203 20064 39148 40053 53002=
38198 41999 00000 10229 20118 39789 40026 53007 70181 555   10019=
38328 41599 81103 10220 20137 39356 40025 58013 70298 889// 555
11019=
38334 41597 81404 10202 20134 39159 40048 52005 79598 889// 555
11018=
38439 42598 60302 10262 20169 39698 40004 53004 82971 555   10025=
####018000089####
SIAA14 EGRR 092100 RRX
AAXX 09214
89345 46/// /0000 11379 38628 49405 5//// 92120=
####018000089####
SIAA14 EGRR 092100 RRX
AAXX 09214
89744 46/// /0205 11542 36295 4//// 5//// 92130=
####018000089####
SIAA14 EGRR 092100 RRX
AAXX 09214
89769 46/// /2022 11290 39740 49797 5//// 92130=
####018000452####
SMVS02 VNNN 100000 RRA
AAXX 10001
48803 11460 80000 10284 20264 39930 40040 53013 69962 70282 888//
333 00030 20275 3/028 59003 83894 88696=
48808 12470 81102 10254 20239 39779 40055 52004 60062 888// 333
01028 20244 3/025 58003 83894 88696=
48830 32570 71802 10286 20251 39757 40052 53007 82148 333 00031
20268 3/027 59001 82895 84299=
48840 32798 72501 10293 20267 30037 40043 52010 81508 333 00034
20290 3/028 58003 81697 87299=
####018000212####
SMVS01 VNNN 100000 RRA
AAXX 10001
48826 32560 71402 10296 20274 39923 40053 53007 878// 333 58000
82895 87697=
48845 32798 51802 10312 20251 30048 40055 52018 85500 333 00032
20295 3/028 58006 85697=
####018001535####
SMCI33 BABJ 100000
AAXX 10001
51711 32680 72502 10164 20041 37975 57006 82102 333 05402
79999=
51730 32670 70901 10214 20123 40000 52003 86902 333 05404=
52112 32780 63202 10264 20097 40005 52007 81132 333 05301=
52737 32980 00903 10126 20033 37104 52002 333 05303 70045=
52787 32780 63601 10115 20052 37057 52001 82502 333 05101
30040=
53352 32980 02205 10191 20114 40008 52007 333 00001 70005=
53593 32960 73602 10192 20175 40036 57013 80002 333 05254
70065=
53705 32970 02501 10219 20145 40019 57002 333 05301=
53863 32962 02701 10217 20185 40067 52005 333 00051 70108=
53975 11962 72901 10207 20175 40062 52002 60091 70060 8703/
333 05152 70159=
54273 32670 80403 10191 20171 40096 52007 885// 333 00351
70003=
54324 11762 83601 10202 20202 40077 52008 60191 76060 885//
333 05153 70191=
54405 31640 71102 10201 20175 40053 54000 71000 86402 333
05154 70087=
54436 11950 80901 10207 20195 40074 52002 60071 76066 8802/
333 05255 70084=
54808 11658 80203 10218 20218 40055 52011 60261 76166 8672/
333 00054 70266=
54826 11380 71605 10153 20078 38419 52002 69921 76064 875//
333 05255 70003=
54836 11968 80701 10233 20168 40056 57001 69901 72160 8807/
333 05151 79999=
54863 32560 70402 10258 20225 40072 52008 875// 333 05100=
56018 11680 80903 10076 20051 36227 52001 69961 70060 885//
333 00053 70127=
56021 11780 61602 10065 20016 36135 57006 60021 70086 86500
333 05201 70040=
57071 11958 83602 10210 20195 40055 52007 60081 76066 8802/
333 05154 70135=
####018000027####
SMAA11 RUML 100000
NIL
####018000246####
SMCN34 CWAO 100000 RRD
AAXX 10004
71454 16/// /2303 10262 20123 39422 40087 57014 60001 333 10278
20116 70000=
71464 46/// /0000 10227 39899 40105 53003 6///1 333 10233 20210
7////=
71466 46/// ///08 39903 53005 6///1 333 7////=

####018000096####
SMCN03 CWAO 100000 RRC
AAXX 10004
71472 16/// /1713 10124 60001 333 10127 20110 70008=

####018000230####
SMCN22 CWAO 100000 RRD
AAXX 10004
71214 16/// /0709 10269 20156 60001 333 10299 20121 70000=
71223 16/// /2608 10262 20156 60001 333 10282 20135 70000=
71227 17/// /1201 10247 20160 60041 7//4/ 333 10278 20115 70043=

####018000305####
SMCN25 CWAO 100000 RRC
AAXX 10004
71506 46/// /3003 10226 20053 39283 40130 58013 6///1 333 10226
20105 7////=
71525 16/// /2208 10301 20070 60001 333 10306 20112 70000=
71535 16/// /1905 10312 20063 60001 333 10315 20106 70000=
71536 16/// /2205 10296 20069 60001 333 10301 20107 70000=

####018000224####
SMCN33 CWAO 100000 RRD
AAXX 10004
71351 17/// /0503 10262 20149 60041 7//4/ 333 10285 20102 70039=
71353 16/// /2604 10240 20134 60001 333 10269 20135 70000=
71385 46/// /2911 10157 6///1 333 10279 20097 7////=

####018000122####
SMCN37 CWAO 100000 RRC
AAXX 10004
71751 16/// /2904 10230 20104 39846 40095 55004 60001 333 10244
20159 70000=

####018000596####
SMCN32 CWAO 100000 RRD
AAXX 10004
71257 16/// /3406 10262 20118 60001 333 10302 20097 70000=
71258 16/// /2921 10201 20098 60001 333 10285 20099 70000=
71259 16/// /2507 10307 20089 60001 333 10310 20106 70000=
71274 46/// /3101 10251 20131 6///1 333 10266 20077 7////=
71275 17/// /2704 10249 20155 69941 7//4/ 333 10260 20103 70004=
71278 16/// /2901 10264 20148 60001 333 10272 20092 70000=
71286 16/// /0000 10257 20119 60001 333 10274 20088 70000=
71287 16/// /3402 10222 20147 60001 333 10251 20087 70005=
71289 16/// /3206 10268 20138 60001 333 10296 20109 70000=

####018000122####
SMCN24 CWAO 100000 RRC
AAXX 10004
71445 16/// /1705 10207 20118 39836 40103 58019 60001 333 10211
20166 70091=

####018000122####
SMCN29 CWAO 100000 RRB
AAXX 10004
71916 16/// /3017 10047 20040 39956 40008 53015 60001 333 10089
20045 70000=

####018000116####
SMCN36 CWAO 100000 RRB
AAXX 10004
71683 46/// /3209 10236 30007 40112 57006 6///1 333 10245 20119
7////=

####018000122####
SMCN20 CWAO 100000 RRB
AAXX 10004
71020 16/// /2102 10253 20089 39880 40124 56013 60001 333 10254
20116 70029=

####018000119####
SMCN29 CWAO 100000 RRB
AAXX 10004
71916 16/// /3017 10047 20040 39956 40008 53015 60001 333 10089
20045 70000=
####018000302####
SMCN25 CWAO 100000 RRC
AAXX 10004
71506 46/// /3003 10226 20053 39283 40130 58013 6///1 333 10226
20105 7////=
71525 16/// /2208 10301 20070 60001 333 10306 20112 70000=
71535 16/// /1905 10312 20063 60001 333 10315 20106 70000=
71536 16/// /2205 10296 20069 60001 333 10301 20107 70000=
####018000243####
SMCN34 CWAO 100000 RRD
AAXX 10004
71454 16/// /2303 10262 20123 39422 40087 57014 60001 333 10278
20116 70000=
71464 46/// /0000 10227 39899 40105 53003 6///1 333 10233 20210
7////=
71466 46/// ///08 39903 53005 6///1 333 7////=
####018000221####
SMCN33 CWAO 100000 RRD
AAXX 10004
71351 17/// /0503 10262 20149 60041 7//4/ 333 10285 20102 70039=
71353 16/// /2604 10240 20134 60001 333 10269 20135 70000=
71385 46/// /2911 10157 6///1 333 10279 20097 7////=
####018000119####
SMCN24 CWAO 100000 RRC
AAXX 10004
71445 16/// /1705 10207 20118 39836 40103 58019 60001 333 10211
20166 70091=
####018000119####
SMCN37 CWAO 100000 RRC
AAXX 10004
71751 16/// /2904 10230 20104 39846 40095 55004 60001 333 10244
20159 70000=
####018000119####
SMCN20 CWAO 100000 RRB
AAXX 10004
71020 16/// /2102 10253 20089 39880 40124 56013 60001 333 10254
20116 70029=
####018000593####
SMCN32 CWAO 100000 RRD
AAXX 10004
71257 16/// /3406 10262 20118 60001 333 10302 20097 70000=
71258 16/// /2921 10201 20098 60001 333 10285 20099 70000=
71259 16/// /2507 10307 20089 60001 333 10310 20106 70000=
71274 46/// /3101 10251 20131 6///1 333 10266 20077 7////=
71275 17/// /2704 10249 20155 69941 7//4/ 333 10260 20103 70004=
71278 16/// /2901 10264 20148 60001 333 10272 20092 70000=
71286 16/// /0000 10257 20119 60001 333 10274 20088 70000=
71287 16/// /3402 10222 20147 60001 333 10251 20087 70005=
71289 16/// /3206 10268 20138 60001 333 10296 20109 70000=
####018000227####
SMCN22 CWAO 100000 RRD
AAXX 10004
71214 16/// /0709 10269 20156 60001 333 10299 20121 70000=
71223 16/// /2608 10262 20156 60001 333 10282 20135 70000=
71227 17/// /1201 10247 20160 60041 7//4/ 333 10278 20115 70043=
####018000093####
SMCN03 CWAO 100000 RRC
AAXX 10004
71472 16/// /1713 10124 60001 333 10127 20110 70008=
####018001057####
SMIN01 DEMS 100000
AAXX 10004
42101 32696 00000 10296 20282 49987 81500
  333 59032 81635=
42111 21495 80501 10256 20242 39252 49993 70522 8682/
  333 59025 6015/ 85615 83825 88458=
42131 22696 42001 10304 20259 49986 84800
  333 59026 6002/=
42165 31695 52505 10318 20231 49994 70611 82501
  333 59012 82640 84070=
42182 31695 72702 10310 20268 49990 71022 83330
  333 59023 83635 81940 85360=
42328 32996 22306 10296 20257 40000 80001
  333 59012 82075=
42339 31595 42302 10294 20233 40012 70500 82531
  333 59012 82630 83360=
42348 21595 63208 10292 20249 40010 70522 83530
  333 59011 6006/ 83630 84359=
42361 31996 32302 10318 20250 49995 70500 83030
  333 59015 83360=
42369 31996 39902 10304 20271 49984 70521 83030
  333 59030 83360=
42379 31595 70902 10286 20246 49983 70522 85520
  333 59022 85620 87458=
42452 32596 32708 10294 20239 40013 83500
  333 59007=
42475 21595 62303 10310 20266 49992 70522 81501
  333 59025 6003/ 81630 86070=
42027 NIL=
42071 NIL=
42189 NIL=
42260 NIL=
####018000079####
SMSE01 LFVW 100000
AAXX 1000/
94997 46/// ///// 10014 39934 49949 5////=
####018000079####
SNSE01 LFVW 092300
AAXX 0923/
94997 46/// ///// 10012 39939 49954 5////=
####018002779####
SMZA21 FAPR 100000
AAXX 10004
68513 36/// /2905 10120 20107 30030 40144 57002
      333 10192 20119 91007 555 91014=
68514 36/// ///// 1//// 2//// 3//// 4//// 5////
      333 1//// 2//// 9//// 555 9////=
68523 36/// /0306 10130 20001 39098 48497 57011
      333 10239 20130 91008 555 91016=
68527 36/// /0000 10110 20013 39087 48509 57008
      333 10224 20110 91002 555 91018=
68572 36/// /1703 10011 21021 38414 48527 57008
      333 10201 20011 91005 555 91021=
68575 36/// /3502 10070 20036 39107 48508 58010
      333 10245 20066 91004 555 91018=
68581 36/// /2302 10097 20058 39386 48505 58008
      333 10269 20097 91004 555 91017=
68583 36/// /0602 10141 20101 30032 40144 58010
      333 10251 20135 91004 555 91014=
68589 36/// /2809 10103 21033 38262 48527 58011
      333 10179 20084 91015 555 91022=
68613 36/// /0103 10119 20106 30032 40150 58005
      333 10169 20115 91005 555 91014=
68647 36/// /3208 10158 21003 38925 48519 58017
      333 10205 20157 91016 555 91018=
68651 16/// /3210 10109 21008 38568 48529 58012 69923
      333 10165 20091 91018 555 20002 91021=
68715 36/// /3503 10113 20087 30004 40134 58002
      333 10178 20106 91009 555 91013=
68717 36/// /3203 10109 20090 39982 40129 51002
      333 10188 20093 91006 555 91012=
68723 36/// /3008 10164 20021 39346 48471 58005
      333 10245 20164 91015 555 91010=
68737 36/// /0406 10173 21003 39233 48503 57014
      333 10247 20173 91008 555 91015=
68744 36/// /2904 10121 20014 39098 48499 57012
      333 10232 20105 91005 555 91016=
68747 36/// /3411 10200 20006 39595 48513 58012
      333 10274 20198 91018 555 91012=
68754 36/// /3214 10155 20002 39122 48503 58010
      333 10239 20155 91023 555 91016=
68817 36/// /3610 10134 20096 30106 40113 58003
      333 10163 20134 91016 555 91011=
68821 36/// /2821 10112 20077 39858 40102 58001
      333 10218 20110 91031 555 91010=
68835 36/// /0000 10133 20079 39969 40084 58016
      333 10298 20127 91003 555 91008=
68843 36/// /3311 10217 20015 39993 40090 58012
      333 10292 20159 91017 555 91009=
68849 36/// /3513 10162 20004 39380 48488 58013
      333 10248 20161 91017 555 91012=
68912 36/// /3422 10131 20110 30092 40101 57012
      333 10156 20128 91028 555 91010=
68918 36/// /3508 10139 20074 30083 40102 51001
      333 10165 20129 91019 555 91010=
68921 36/// /2906 10102 20078 30087 40090 58002
      333 10165 20102 91008 555 91009=
68925 36/// /3017 10109 20056 39724 40093 58006
      333 10182 20098 91027 555 91009=
68926 36/// /1002 10130 20105 39926 40107 57006
      333 10267 20120 91004 555 91010=
68935 36/// /2603 10153 20124 30031 40095 57006
      333 10300 20153 91005 555 91009=

####018000129####
SMNI01 DNMM 100000
AAXX 10004
65125 11357 70708 10240 20231 3//// 40151 60091 79596 8792/
  333 58009 87608 81920 94959=
####018000094####
SMSB20 VCCC 100000
AAXX 10004
43466 22470 00000 10240 20231 30066 40078 333 59007 60007=
####018000113####
SMRA17 RUHB 100000 RRA
AAXX 10001
25705 32699 70301 10227 20146 39808 40104 58002 82231 333 20153
55105=
####018000384####
SIGH20 DGAA 100000
AAXX DGAA 10004=

65457 NIL=

65459 11463 72305 10241 20227 40162 60251 70296 875// 333 58017
87611=

65460 NIL=

65462 NIL=

65465 NIL=

65467 11460 70000 10248 20241 40145 60101 70269 8657/ 333 58008
86610 87460=

65469 NIL=

65472 32465 72412 10250 20226 40140 8553/ 333 58004 85810 87360=

65473 NIL=

65475 NIL=
####018000782####
SMKR01 DKPY 100000
AAXX 10001
47008 31560 80000 10190 20175 30072 40123 52002 71022 8667/ 333
20173=
47014 31540 80000 10190 20152 39727 40103 52010 71044 886// 333
20170=
47016 32570 60000 10178 20147 39309 40130 58007 86500 333 20144=
47020 31560 80000 10203 20185 39754 40103 52013 71044 885// 333
20170=
47025 12575 81401 10193 20185 30086 40114 53019 69962 885// 333
20186=
47035 31960 80000 10237 20210 30084 40092 52012 71022 8801/ 333
20219=
47041 12565 80000 10213 20197 30081 40107 52021 69902 885// 333
20201=
47055 11565 80502 10213 20210 30062 40105 52009 60232 76066 8802/ 333
20209=
47058 31958 80901 10231 20213 30050 40094 52007 71022 86032 333
20200=
47069 31539 81402 10229 20215 39996 40089 52009 71022 885// 333
20210=
####018001644####
SMCI35 BABJ 100000
AAXX 10001
50548 32980 70000 10193 20167 40101 52001 82032 333 00051
70027=
50564 32970 72002 10217 20187 40102 52006 82032 333 00000=
51334 32780 72202 10255 20098 49997 57028 82462 333 05705
79999=
51818 32965 22501 10207 20070 40004 52006 80002 333 05451=
52378 32980 00703 10236 21014 49991 52008 333 05254=
53487 11560 62002 10193 20143 40040 52001 69921 70080 83902
333 05201 70330=
53502 32980 02001 10225 20106 40006 52008 333 05251 79999=
53923 32980 02503 10175 20134 40067 57003 333 05251 70061=
54049 32770 72201 10224 20194 40079 52006 875// 333 00000=
54115 11670 70902 10186 20166 40055 52002 69971 70080 86902
333 05300 70022=
54157 32762 72201 10220 20206 40083 52007 85502 333 00103
70024=
54186 32670 81102 10170 20141 40109 52007 885// 333 00300=
54311 31558 81803 10190 20143 40054 52002 71000 885// 333
05300 79999=
54346 32662 71102 10215 20189 40088 52007 875// 333 00100=
54377 11657 80000 10199 20169 40102 52009 69901 76000 885//
333 00200 79999=
54386 32470 60000 10181 20134 40102 52006 86600 333 00201=
54493 32662 71801 10216 20204 40098 52010 875// 333 00202=
54587 NIL=
54715 11465 80202 10221 20214 40061 52011 60461 76066 8572/
333 00055 70465=
54929 11530 81102 10234 20218 40049 52002 69901 76060 8372/
333 05200 79999=
54945 31558 80000 10232 20229 40063 52008 71000 885// 333
05251=
56065 32680 80000 10036 20015 36679 52006 885// 333 00154
30028 70047=
57193 11657 83201 10251 20233 40034 52012 60011 76060 885//
333 05251 70014=
57290 11557 83602 10246 20232 40029 52014 60241 76160 8772/
333 05251 70241=
####018000874####
SMKR02 DKPY 100000
AAXX 10001
47101 12560 63202 10232 20187 30015 40103 52006 69902 85501 333
20204 30028=
47105 169// /1402 10232 20199 30068 40098 50005 60022 333 20199
3/026=
47108 11958 20703 10250 20181 39997 40094 52006 69902 70511 80001
333 20217 31029=
47115 12462 61803 10219 20207 39858 40108 52007 69902 86500 333
20198 31028 92021=
47133 12961 52901 10252 20183 30015 40086 54000 69902 80005 333
20210 30030=
47138 11958 61801 10259 20200 30099 40100 50003 69902 71022 80001
333 20216 30034 92022=
47159 31950 61605 10252 20210 30026 40105 50009 71022 80002 333
20226 30029 92022=
47165 32961 61407 10241 20216 30043 40085 58003 80001 333 20218
30028 92023=
47168 31656 60504 10238 20201 30026 40109 50004 71022 81502 333
20221 30030 92022=
47184 32668 60001 10245 20169 30053 40076 57011 82501 333 20211
30029 92022=
####018003403####
SMKR22 DKPY 100000
AAXX 10001
47090 11658 60205 10231 20204 30080 40106 52008 69902 71022 83501
333 20198 31028 92012=
47095 12960 43601 10231 20186 39921 40097 50001 69902 80001 333
20182 31028=
47097 12960 40001 10251 20196 30011 40114 50006 69902 81031 333
20190 31030=
47098 32962 22302 10236 20189 39969 40097 52003 80001 333 20190
30031=
47099 31656 22002 10251 20207 30061 40095 51002 71000 81501 333
20197 30032=
47100 12462 63202 10188 20164 39243 40103 50002 60312 82501 333
20156 31024=
47102 11403 91107 10216 20207 39922 40088 52009 69902 74544 333
20205 31027=
47104 11657 63602 10243 20197 30007 40097 50004 60032 71022 81501
333 20192 31030=
47106 11658 63602 10233 20206 30054 40099 50006 60022 71011 81501
333 20196 31026=
47112 31650 63401 10237 20212 30016 40094 50005 71022 84501 333
20221 30026 92000=
47114 12665 50501 10247 20188 39929 40100 51002 69902 81501 333
20203 31026=
47119 32961 51604 10268 20210 30056 40095 50004 80001 333 20217
31031=
47121 11556 52902 10221 20186 39831 40103 50004 69902 71000 81501
333 20187 30026=
47127 11958 53202 10251 20194 39969 40098 50001 69902 71001 82031
333 20198 30027=
47129 31958 60203 10254 20197 30063 40092 50003 71022 80002 333
20203 30029=
47130 12961 61103 10226 20201 30047 40101 52007 69902 80002 333
20188 31028 92022=
47131 12961 63202 10260 20186 30028 40092 54000 69902 80001 333
20213 31033=
47135 12961 31603 10252 20200 39821 40092 56001 69902 80001 333
20186 30029=
47136 12962 42901 10245 20195 39946 40105 51007 69902 80001 333
20199 31027=
47137 12961 53603 10239 20196 39992 40103 50004 69902 80001 333
20202 30030=
47140 11958 61403 10248 20219 30066 40096 51004 69902 71022 80002
333 20217 31030 92011=
47143 11950 51103 10262 20198 30035 40100 50004 69902 70521 80001
333 20230 30034=
47145 32964 51102 10265 20191 30066 40090 50002 80001 333 20208
31037=
47146 12962 61604 10256 20199 30031 40100 51003 69902 80001 333
20211 30029=
47150 12965 60202 10261 20192 30072 40092 50001 69902 80002 333
20213 31031=
47152 31958 51403 10256 20212 30064 40103 50005 71022 80001 333
20209 30030=
47154 11958 50904 10271 20201 30045 40099 50003 69902 70522 80001
333 20214 30037=
47155 31950 61103 10254 20208 30060 40102 52003 71022 80001 333
20218 31033=
47156 32961 60202 10254 20206 30012 40097 50001 80002 333 20227
30029=
47157 31956 61602 10242 20203 39849 40097 58002 71011 80001 333
20189 31032=
47162 31930 60000 10235 20217 30068 40103 52005 71011 80002 333
20204 30027 92020=
47169 31508 91413 10225 20207 39991 40069 57006 74344 333 20202
30029 92024=
47170 31658 60906 10240 20220 30052 40083 55003 71022 83502 333
20202 30029 92022=
47171 32962 62702 10270 20203 30040 40085 52001 80001 333 20217
30032=
47172 32961 60903 10263 20212 30024 40085 50002 80002 333 20210
30028=
47173 31958 61401 10236 20195 39993 40099 54000 71022 80001 333
20189 31027=
47174 31958 61102 10251 20201 30013 40098 50003 71022 80001 333
20209 30027=
47175 31506 91613 10206 20201 39543 40078 58009 74544 333 20186
30024 92024=
47185 32662 51112 10264 20190 39990 40070 57009 81501 333 20211
30034 92023=
47189 31658 60906 10257 20213 30028 40085 55004 71022 81501 333
20225 30029=
47192 31650 63203 10241 20195 30070 40101 51005 71022 81502 333
20203 30027=
####018001273####
SMKR21 DKPY 100000
AAXX 10001
47003 11260 80000 10175 20151 30122 40126 52007 60022 75155 886// 333
20165=
47005 32580 81801 10140 20127 38553 54000 885// 333 20117=
47022 12275 80000 10150 20143 38838 52014 69912 8667/ 333 20126=
47028 32461 80000 10221 20207 30003 40091 52013 886// 333 20193=
47031 11570 80000 10154 20147 38904 52009 69932 72162 885// 333
20134=
47037 31567 80000 10226 20211 39980 40094 52010 70142 8753/ 333
20205=
47039 31560 80000 10204 20188 39926 40106 52005 71022 885// 333
20185=
47046 11569 80501 10199 20190 30086 40107 52014 60012 76066 885// 333
20194=
47050 32565 60000 10240 20206 30064 40095 52009 86500 333 20202=
47052 32565 80000 10220 20204 39784 40101 52014 885// 333 20192=
47060 31540 80902 10231 20220 30034 40088 54000 71022 885// 333
20204=
47061 11960 80000 10235 20228 30052 40093 52003 69912 71022 8807/ 333
20192=
47065 31940 81404 10239 20225 30032 40093 52005 71022 80001 333
20209=
47067 31560 80000 10226 20204 39996 40108 52011 71022 885// 333
20200=
47068 31940 80903 10228 20212 30053 40086 52010 71042 8802/ 333
20201=
47070 31950 80000 10217 20214 30023 40105 52006 71042 80002 333
20208=
47075 32580 80000 10225 20194 39544 49937 52003 885// 333 20181=
####018000109####
SNAU61 AMMC 092300 RRC
AAXX 09234
94961 11060 72907 10036 20034 69924 70322 81876
  333 70002=


####018000121####
SMAU04 AMMC 100000 CCA
AAXX 10004
94996 41582 61213 10161 20098 30079 40218 50001 71522 83202 90030
  333 20128=
####018000127####
SMAU04 AMMC 100000 CCA
AAXX 10004
94996 41582 61213 10161 20098 30079 40218 50001 71522 83202 90030
  333 20128=


####018000160####
SMVD15 KWNB 100000 RRN
BBXX
44063 10001 99390 70764 46/// /2005 1//// 92350 333 91206=
44063 10001 99390 70764 46/// /2005 1//// 40099 92340 333 91206=
####018000160####
SMVD20 KWNB 100000 RRI
BBXX
44061 10001 99388 70770 46/// /1604 1//// 92350 333 91206=
44061 10001 99388 70770 46/// /1504 1//// 40089 92340 333 91205=
####018000227####
SMVD15 KWNB 100000 RRM
BBXX
41035 10001 99345 70773 46/// /2007 10276 20240 40107 90020 22200
00267 10301 20301 312// 40901 70006 333 91209 555 11079 22087
32346 42110 60019 201074 201072 204072 207081 207073 206074=
####018000154####
SMVD20 KWNB 100000 RRJ
BBXX
44059 10001 99368 70763 46/// /1403 1//// 92350 333 91204=
44059 10001 99368 70763 46/// /1303 1//// 92340 333 91204=
####018000320####
SNVD20 KWNB 092300 RRX
BBXX
44061 09231 99388 70770 46/// /1504 1//// 40088 92330 333 91206=
44061 09231 99388 70770 46/// /1504 1//// 40086 92320 333 91205=
44061 09231 99388 70770 46/// /1404 1//// 40086 92310 333 91205=
44061 09231 99388 70770 46/// /1405 10306 40085 56013 92300 22200
00309 333 91206=
####018000276####
SNVD20 KWNB 092300 RRX
BBXX
44059 09231 99368 70763 46/// /1303 1//// 92330 333 91204=
44059 09231 99368 70763 46/// /1404 1//// 92320 333 91205=
44059 09231 99368 70763 46/// /1403 1//// 92310 333 91204=
44059 09231 99368 70763 46/// /1404 10284 92300 333 91205=
####018000160####
SMVD20 KWNB 100000 RRK
BBXX
44057 10001 99395 70761 46/// /1606 1//// 92350 333 91207=
44057 10001 99395 70761 46/// /1606 1//// 40089 92340 333 91208=
####018000126####
SMUK43 EGRR 100000 RRA
AAXX 10004
03647 16980 /2306 10150 20138 39931 40181 51007 60001 92350 333 55///
 22660 8//99=
####018002903####
SMZA01 FAPR 100000
AAXX 10004
68174 31960 01805 10054 20037 38838 48545 58007 70500
      333 10194 20053 91007 555 91023=
68191 36/// /3103 10116 20088 39701 48554 58006
      333 10259 20116 91004 555 91021=
68242 36/// /0306 10070 20008 38778 48546 58006
      333 10195 20070 91008 555 91023=
68262 36/// /0000 10061 20030 38757 48552 58005
      333 10180 20061 91002 555 91024=
68263 32980 01502 10081 20047 38530 48555 58006
      333 10185 20081 91003 555 91025=
68267 36/// /3110 10052 20028 38280 48561 58010
      333 10150 20044 91013 555 91025=
68289 36/// /3303 10105 20074 39204 48551 58011
      333 10219 20098 91004 555 91022=
68350 36/// /3307 10065 21102 38775 48610 58001
      333 10186 20065 91010 555 91031=
68368 41960 23103 10085 20029 38360 48550 58011 70500 80002 555 91026=
68372 NIL=
68403 36/// /3304 10128 20108 30140 40173 51005
      333 10257 20121 91006 555 91017=
68424 32882 23612 10154 20023 39202 48512 58007 82070
      333 10252 20154 91018 555 91016=
68438 36/// /0208 10078 20010 38850 48529 58008
      333 10171 20066 91009 555 91021=
68442 32880 60402 10086 20022 38695 48540 58007 86070
      333 10170 20084 91002 555 91023=
68461 36/// /1904 10048 21005 38358 48550 57012
      333 10155 20039 91006 555 91024=
68512 36/// /3309 10142 20022 39007 48497 58013
      333 10243 20129 91017 555 91016=
68538 36/// /3611 10143 20013 38725 48506 58010
      333 10198 20134 91018 555 91018=
68587 36/// /1903 10159 20100 30124 40137 58012
      333 10229 20145 91010 555 91013=
68588 NIL=
68591 36/// /1302 10197 20075 39964 40144 58013
      333 10256 20181 91004 555 91014=
68592 32/// ///// 1//// 2//// 3//// 4//// 5////
      333 1//// 2//// 555=
68618 36/// /3006 10136 20031 39026 48485 58008
      333 10247 20128 91017 555 91014=
68633 36/// /0110 10107 20018 38514 48508 58008
      333 10173 20106 91016 555 91019=
68668 36/// /0000 10118 20020 39308 48514 58009
      333 10254 20111 91002 555 91017=
68714 36/// /0107 10124 20101 30089 40126 58006
      333 10175 20114 91010 555 91012=
68727 36/// /3514 10188 20014 39104 48491 58007
      333 10243 20184 91023 555 91013=
68752 36/// /3112 10183 20010 39443 48501 58012
      333 10264 20169 91018 555 91013=
68816 32570 73611 10133 20082 30058 40113 58012 875// 555 91011=
68828 41358 89902 10128 20118 39862 40097 56007 71022 886// 555 91009=
68842 32970 31704 10121 20106 30014 40085 58019 83050 555 91008=
68858 13970 /3210 10227 20016 39956 40109 58018 60001 333 91122=
68906 32698 60211 10058 20005 30207 40274 58012 81510
      333 10066 20024 91018 555 91027=
68994 11396 83117 10076 20073 39918 49947 58014 60093 74054 886//
      333 10094 20074 91028 555 20088 90994=
89004 46/// /0941 11337 21367 38771 49888 53010
      333 11241 21338 91050 555 9////=

####018000320####
SNVD20 KWNB 092300 RRX
BBXX
44057 09231 99395 70761 46/// /1606 1//// 40088 92330 333 91207=
44057 09231 99395 70761 46/// /1705 1//// 40090 92320 333 91206=
44057 09231 99395 70761 46/// /1704 1//// 40092 92310 333 91205=
44057 09231 99395 70761 46/// /1704 10286 40093 55012 92300 22200
00299 333 91205=
####018000160####
SMVD15 KWNB 100000 RRO
BBXX
44041 10001 99372 70768 46/// /1203 1//// 92350 333 91204=
44041 10001 99372 70768 46/// /1103 1//// 40095 92340 333 91205=
####018000332####
SNVD15 KWNB 092300 RRX
BBXX
44063 09231 99390 70764 46/// /1804 1//// 40098 92330 333 91205=
44063 09231 99390 70764 46/// /1804 1//// 40097 92320 333 91205=
44063 09231 99390 70764 46/// /1804 1//// 40098 92310 333 91205=
44063 09231 99390 70764 46/// /1804 10282 40099 56014 92300 22200
00295 1//00 70002 333 91204=
####018000160####
SMVD20 KWNB 100000 RRL
BBXX
44058 10001 99376 70763 46/// /1704 1//// 92350 333 91205=
44058 10001 99376 70763 46/// /1504 1//// 40099 92340 333 91205=
####018001182####
SMCI37 BABJ 100000
AAXX 10001
50658 32580 61101 10226 20162 40102 52002 84102 333 00001=
50888 32980 60000 10216 20195 40115 52007 86030 333 00102=
50983 11665 71101 10202 20199 40120 52010 60141 78000 879//
333 00102 70144=
51053 32680 73201 10179 20110 40022 57006 86962 333 05500=
51542 32680 73202 10072 20053 37559 57008 82402 333 05400
30044 70035=
52436 32980 02501 10187 20140 38419 40021 52003 333 05500=
52908 32680 71105 10028 20004 35827 57003 875// 333 05201
30027=
52996 32980 03404 10155 20054 37572 52004 333 05206 70074=
53083 11580 71105 10178 20158 40000 52009 60021 70080 85902
333 05452 70136=
53764 32962 70000 10190 20153 40060 57001 80002 333 05152
70087=
53787 11561 70402 10196 20186 40063 52009 69911 70060 82132
333 05151 70238=
54096 31570 72902 10179 20164 40116 52004 70040 87800 333
00104=
54226 11670 81602 10189 20174 40081 52007 60181 78098 889//
333 05153 70182=
54259 31658 72001 10197 20178 40095 52009 71000 875// 333
00200 70001=
54527 11757 81404 10223 20209 40067 52008 60051 78088 884//
333 00054 70425=
54534 11660 81403 10206 20194 40072 52012 60101 78088 884//
333 05156 70163=
####018000332####
SNVD15 KWNB 092300 RRX
BBXX
44041 09231 99372 70768 46/// /1203 1//// 40093 92330 333 91205=
44041 09231 99372 70768 46/// /1204 1//// 40093 92320 333 91205=
44041 09231 99372 70768 46/// /1204 1//// 40091 92310 333 91206=
44041 09231 99372 70768 46/// /1304 10296 40089 55014 92300 22200
00299 1//00 70001 333 91206=
####018000302####
SNVD15 KWNB 092300 RRX
BBXX
44042 09231 99380 70763 46/// /1605 1//// 92330 333 91206=
44042 09231 99380 70763 46/// /1605 1//// 92320 333 91206=
44042 09231 99380 70763 46/// /1505 1//// 92310 333 91206=
44042 09231 99380 70763 46/// /1605 10278 92300 22200 00286 10201
70003 333 91207=
####018000154####
SMVD15 KWNB 100000 RRQ
BBXX
44043 10001 99392 70764 46/// /2204 1//// 92350 333 91206=
44043 10001 99392 70764 46/// /2204 1//// 92340 333 91205=
####018000154####
SMVD15 KWNB 100000 RRP
BBXX
44042 10001 99380 70763 46/// /1605 1//// 92350 333 91206=
44042 10001 99380 70763 46/// /1605 1//// 92340 333 91206=
####018002900####
SMZA01 FAPR 100000
AAXX 10004
68174 31960 01805 10054 20037 38838 48545 58007 70500
      333 10194 20053 91007 555 91023=
68191 36/// /3103 10116 20088 39701 48554 58006
      333 10259 20116 91004 555 91021=
68242 36/// /0306 10070 20008 38778 48546 58006
      333 10195 20070 91008 555 91023=
68262 36/// /0000 10061 20030 38757 48552 58005
      333 10180 20061 91002 555 91024=
68263 32980 01502 10081 20047 38530 48555 58006
      333 10185 20081 91003 555 91025=
68267 36/// /3110 10052 20028 38280 48561 58010
      333 10150 20044 91013 555 91025=
68289 36/// /3303 10105 20074 39204 48551 58011
      333 10219 20098 91004 555 91022=
68350 36/// /3307 10065 21102 38775 48610 58001
      333 10186 20065 91010 555 91031=
68368 41960 23103 10085 20029 38360 48550 58011 70500 80002 555 91026=
68372 NIL=
68403 36/// /3304 10128 20108 30140 40173 51005
      333 10257 20121 91006 555 91017=
68424 32882 23612 10154 20023 39202 48512 58007 82070
      333 10252 20154 91018 555 91016=
68438 36/// /0208 10078 20010 38850 48529 58008
      333 10171 20066 91009 555 91021=
68442 32880 60402 10086 20022 38695 48540 58007 86070
      333 10170 20084 91002 555 91023=
68461 36/// /1904 10048 21005 38358 48550 57012
      333 10155 20039 91006 555 91024=
68512 36/// /3309 10142 20022 39007 48497 58013
      333 10243 20129 91017 555 91016=
68538 36/// /3611 10143 20013 38725 48506 58010
      333 10198 20134 91018 555 91018=
68587 36/// /1903 10159 20100 30124 40137 58012
      333 10229 20145 91010 555 91013=
68588 NIL=
68591 36/// /1302 10197 20075 39964 40144 58013
      333 10256 20181 91004 555 91014=
68592 32/// ///// 1//// 2//// 3//// 4//// 5////
      333 1//// 2//// 555=
68618 36/// /3006 10136 20031 39026 48485 58008
      333 10247 20128 91017 555 91014=
68633 36/// /0110 10107 20018 38514 48508 58008
      333 10173 20106 91016 555 91019=
68668 36/// /0000 10118 20020 39308 48514 58009
      333 10254 20111 91002 555 91017=
68714 36/// /0107 10124 20101 30089 40126 58006
      333 10175 20114 91010 555 91012=
68727 36/// /3514 10188 20014 39104 48491 58007
      333 10243 20184 91023 555 91013=
68752 36/// /3112 10183 20010 39443 48501 58012
      333 10264 20169 91018 555 91013=
68816 32570 73611 10133 20082 30058 40113 58012 875// 555 91011=
68828 41358 89902 10128 20118 39862 40097 56007 71022 886// 555 91009=
68842 32970 31704 10121 20106 30014 40085 58019 83050 555 91008=
68858 13970 /3210 10227 20016 39956 40109 58018 60001 333 91122=
68906 32698 60211 10058 20005 30207 40274 58012 81510
      333 10066 20024 91018 555 91027=
68994 11396 83117 10076 20073 39918 49947 58014 60093 74054 886//
      333 10094 20074 91028 555 20088 90994=
89004 46/// /0941 11337 21367 38771 49888 53010
      333 11241 21338 91050 555 9////=
####018000113####
SMCG01 FCBB 100000 RRA
AAXX 10003
64400 32456 72004 10215 20210 40140 878//
333 0//00 59005 83810 87623=
####018000518####
SMIN03 DEMS 100000
AAXX 10004
42559 32996 30000 10250 20236 40017 83030
  333 59001 83360=
42571 21596 52302 10292 20246 40002 70262 83531
  333 59012 6995/=
42667 32996 32710 10246 20232 39462 40040 83030
  333 58003 83360=
42754 32996 42911 10244 20230 39418 40043 84030
  333 58002 84360=
42867 21596 62503 10256 20247 40040 70522 82530
  333 59001 6002/ 82620 85360=
42933 32596 43201 10258 20238 40052 82501
  333 59007 82625 83075=
42675 NIL=
42779 NIL=
42874 NIL=
43041 NIL=
####018002564####
SMCU20 MUHV 100000
AAXX 10001
78325 11462 71501 10269 20217 30100 40157 53012 60221 72996 82973
333 07999 10321 20236 32/// 54115 57961 58015 70221 82817 86356
87082 819//=
78355 11560 50603 10285 20238 3//// 4//// 5//// 60001 71322 82903
333 06909 10325 20219 31/// 50364 57950 81820 83082 819//=
78310 01570 71201 10289 20246 30143 40153 53005 69921 70382 82942
333 06999 10313 20254 31/// 57911 58017 69927 70002 82820 87074
819// 92011=
78315 11570 41401 10290 20244 30087 40151 53009 60001 705// 83902
333 06999 31/// 57981 81820 83874 829//=
78318 11564 51001 10303 20241 30147 40150 52009 60001 71792 83943
333 06999 10328 20247 30/// 57981 58010 81820 85073 829//=
78333 01410 41401 10296 20247 30157 40163 52013 69901 70561 84903
333 06300 10311 20236 30/// 57981 58009 69907 70009 82817 849//
555 11402=
78349 11558 63301 10274 20243 30055 40163 53007 60001 70592 85903
333 09009 10318 20234 31/// 57971 58008 70050 82821 84924=
78358 12560 40706 10289 20251 30137 40152 53002 60001 83903 333
06909 10324 20235 30/// 57940 59001 81823 839//=
78360 11463 61301 10301 20234 30136 40147 55003 60001 71792 83906
333 06909 10327 20254 30/// 57911 59001 81818 852// 819// 92021=
78369 11464 10906 10292 20243 30142 40151 50001 60001 70500 81202
333 01909 10326 20268 30/// 58001 81818 92034=
78322 11559 70701 10283 20229 30145 40152 53011 60001 70522 84942
333 06999 10335 20240 30/// 57944 58019 70002 82820 85059 829//=
78328 01460 72003 10250 20231 30157 40/// 53009 60231 76196 8522/
333 08409 10309 20250 32/// 58017 60237 70234 85817 87558 92416
555 11902=
78344 01564 50703 10268 20225 30111 40159 53013 60011 70798 84902
333 06909 10320 20233 31/// 57972 58014 60017 70036 81820 849//=
78345 11562 61501 10309 20233 30158 40159 52006 60001 70522 83903
333 06900 10336 20230 30/// 57934 59005 70018 83820 86073 819//
92011 92322=
78348 11556 70000 10272 20252 30115 40167 53007 69941 71796 86963
333 09999 10302 20227 31/// 57921 58013 70007 82820 859//=
78351 11550 70000 10297 20204 30146 40148 53001 60001 71792 879//
333 06999 10342 20223 30/// 57981 59009 81826 87633 829//=
78353 12560 50902 10292 20251 30137 40159 53003 60001 83902 333
06909 10327 20230 30/// 50264 57941 59006 81823 829//=
78363 31/60 50201 10294 20240 30020 40133 51009 60001 70511 81903
333 06909 10347 30228 20333 30/// 57970 59005 819// 84071=
78365 11/62 30904 10294 20264 30158 40163 53001 60001 70500 83903
333 06909 10325 20250 30/// 57955 58003 828// 819// 92013=
78324 NIL=
####018001394####
SMRA12 RUHB 100000
AAXX 10001
30499 31999 02001 10128 20111 39511 40124 52006 72841 333 20099=
30683 32699 30000 10197 20144 39519 40110 54000 81180 333 20104=
30695 31996 03202 10163 20154 39812 40121 53006 71041 333 20124=
31253 32599 80901 10143 20114 39695 40120 52004 889// 333 20132
55091=
31295 31699 50501 10202 20150 39693 40108 52007 70341 82101 333
20156=
31348 32599 70000 10139 20100 39962 40144 57002 875// 333 20104=
31418 32598 80000 10140 20129 39906 40143 53002 889// 333 20112=
31439 32599 80202 10158 20107 30099 40141 58002 85971 333 20116=
31442 32599 63301 10191 20173 39776 40098 52002 69932 85501 333
20160=
31445 11599 20901 10210 20180 39862 40091 53007 69992 70298 82500 333
20174=
31474 NIL=
31521 31558 72001 10215 20183 39834 40097 53008 71022 85550 333
20161=
31527 32998 42301 10215 20173 39819 40092 51003 82031 333 20164=
31534 32599 70000 10208 20192 39796 40109 52002 82284 333 20150=
31587 32699 82501 10235 20179 39963 40094 58002 82289 333 20140=
31632 11599 81101 10190 20174 39795 40120 52001 69980 70262 886// 333
20144=
31702 11598 70000 10216 20165 39808 40113 52003 69930 70282 86901 333
20148=
31713 32699 70701 10216 20154 30031 40120 52003 81130 333 20134=
31725 32998 60502 10214 20146 30058 40119 52003 85042 333 20137=
31801 32599 41401 10211 20167 39899 40106 52001 82239 333 20142=
####018000715####
SMRA18 RUHB 100000
AAXX 10001
31825 32699 71204 10175 20134 39939 40132 51002 87500 333 10136=
31845 31599 32703 10222 20202 39951 40100 52001 70241 82532 333
20134=
31878 11599 82301 10190 20170 30003 40117 52005 69900 70252 8757/ 333
20179=
31915 32599 81101 10190 20160 39863 40107 52004 87905 333 20154=
31921 32599 72202 10188 20169 30026 40117 50006 87500 333 10154=
31969 11598 81701 10168 20163 30081 40127 52008 60010 70265 886// 333
20155=
31981 11498 80000 10183 20171 39896 40114 52005 60010 72582 889// 333
20168 81887=
31987 31396 81702 10172 20159 39877 40119 53004 75152 886// 333
20155=
32069 32998 83202 10111 20097 30137 40142 52007 8804/ 333 20095 91003
91105=
####018001000####
SMRA13 RUHB 100000
AAXX 10001
30455 32999 01601 10158 20092 38900 48488 52007 333 20092=
30669 32699 20000 10156 20107 39301 40102 52005 81230 333 20080=
30731 31597 80702 10168 20151 39535 40097 53003 74022 82532 333
20128=
30739 32699 60603 10184 20117 39340 40089 52003 82542 333 20145=
30741 32998 50000 10178 20130 38692 48474 52001 82041 333 20134=
30745 32699 80000 10171 20126 39037 40091 52003 81281 333 20105
55092=
30764 31999 10000 10163 20123 39371 40105 52006 70240 81040 333
20086=
30829 32999 42101 10181 20143 39458 40088 53008 82041 333 20145=
30838 32998 61501 10155 20117 39192 40098 52005 80005 333 20097=
30846 32699 80000 10182 20150 39257 40087 51003 82953 333 20145=
30859 12699 71601 10188 20145 39321 40082 52005 69992 82850 333
20155=
30862 32999 50702 10206 20110 39416 40086 52010 333 20151=
30957 32999 60000 10181 20122 39266 40085 52003 83032 333 20120=
30975 31599 60502 10215 20151 39499 40084 52007 70291 85931 333
20158=
