####018000170####
SNVD15 KWNB 092000 RRX
BBXX
42013 09201 99272 70829 46/// ///// 1//// 40156 92020 22200 00293=
42013 09201 99272 70829 46/// ///// 1//// 40158 92000 22200 00292=
####018000222####
SIVD20 KWNB 092100 RRN
BBXX
44039 09211 99411 70727 46/// /1504 10262 20230 40124 92123 22200
1//00 70002 333 91205=
44060 09211 99413 70721 46/// /1204 10216 40125 92130 22200 00199
333 91204 555 11041 22051=
####018000121####
SIIN23 DEMS 092100 RRA
AAXX 09214
43014 22596 62303 10240 20217 39422 40062 83530
  333 59007 6990/ 83620 85360=
####018000464####
SIIN22 DEMS 092100 RRA
AAXX 09214
42667 32596 62508 10260 20240 39461 40037 83530
  333 59008 83620 83560=
42675 32596 30000 10268 20236 40030 83500
  333 59005 83630=
42754 32596 52708 10250 20227 39420 40045 83530
  333 58000 83620 85360=
42779 32996 01401 10254 20234 39351 40033
  333 59009=
42874 22996 50000 10254 20239 40036 84031
  333 59012 6992/ 84360=
43041 32596 70000 10238 20221 39450 40061 83530
  333 59011 83625 87360=
####018000097####
SIIN20 DEMS 092100 RRA
AAXX 09214
42361 31996 03203 10326 20253 49994 70500
  333 59016=
####018000092####
SIPS21 NZKL 092100
AAXX 09214
91723 NIL=
91964 46/// /1511 10185 20130 40247 57007=
####018000119####
SMPH01 RPMM 091800 RRB
AAXX 09181
98637 31465 80000 10260 20226 40110 50000 71322 829O7
333 56999 82912 88272=
####018000141####
SIVD20 KWNB 092100 RRO
BBXX
44040 09211 99410 70736 46/// /1704 10271 20210 40115 92119 22200
1//00 70001 333 91206 555 11051 22057=
####018000158####
SIVD15 KWNB 092100 RRQ
BBXX
42362 09211 99278 70907 46/// /0000 10306 20217 40159 92130=
42364 09211 99291 70881 46/// /0000 10283 20217 40156 92130=
####018000107####
SNVD15 KWNB 092000 RRX
BBXX
41037 09201 99340 70775 46/// /2104 10288 40112 58014 92000 333
91204=
####018000115####
SMID02 WIIX 091800 RRH
AAXX 09184
97014 32560 31001 10235 20225 30020 40113 57014 81531
  333 56000 81625=
####018000251####
SIIN21 DEMS 092100 RRA
AAXX 09214
42886 22596 20000 10216 20244 40042 81530
  333 59007 6002/ 81620=
42895 32596 30000 10284 20247 40025 82530
  333 59031 82620=
42971 31495 31808 10286 20272 40032 70510 82530
  333 56490 59022 82618=
####018000139####
SMDL23 EDZW 091200 CCB
AAXX 09121
10929 12975 30402 10299 20134 39685 40177 58009 60001 80002
  333 30/// 55310 23200 30526 83080=
####018000157####
SMDL23 EDZW 091800 CCB
AAXX 09181
10929 12675 71301 10293 20121 39678 40171 57008 60002 81172
  333 10327 20192 30020 55300 20422 30371 81845 86364=
####018001658####
SIID20 WIIX 092100
AAXX 09214
96009 NIL=
96011 32560 51303 10237 20230 30072 40095 57015 82532
  333 56000 82620=
96035 21456 80000 10259 20243 30057 40095 56015 79596 86978
  333 56000 57910 69927 81918 85618 80900=
96073 31550 70000 10234 20225 30079 40091 57019 70522 83522
  333 56000 83620=
96091 32459 50000 10244 20232 30078 40101 56010 82171
  333 56000 57804 82817 83460 80860=
96109 NIL=
96145 NIL=
96163 21557 70000 10251 20238 30090 40097 57009 72162 84521
  333 56000 69927 84620=
96179 32460 50000 10242 20233 30060 40097 57006 82201
  333 56000 57803 82817 80840=
96195 31450 70000 10248 20236 30060 40096 57010 70522 83521
  333 56000 83613=
96221 NIL=
96237 32457 50000 10257 20243 30052 40094 56008 83231
  333 56000 57801 83816 80858=
96249 32560 70000 10232 20229 30029 40091 57006 82132
  333 56000 57802 82820 80863=
96253 32456 60000 10254 20234 30052 40072 57013 83932
  333 56000 57900 81915 84360=
96295 NIL=
96509 32458 40000 10246 20239 30096 40107 57014 83131
  333 56200 83817=
96581 32456 70000 10228 20222 30093 40100 57010 83131
  333 56200 83812 85362 80860=
96633 21450 80000 10246 20239 30108 40116 53006 76196 8492/
  333 56009 57900 60077 81919 83619 88460 809//=
96645 NIL=
96655 31/02 90901 10241 20239 30097 40132 52002 74542
  333 56999 89/07=
96685 32459 60000 10236 20230 30088 40115 55003 84511
  333 56000 84615=
96749 NIL=
96781 NIL=
96805 21557 70000 10245 20237 30106 40121 56008 76062 84221
  333 56000 57801 60017 84820 85460 80860=
96839 32556 60903 10254 20234 30094 40099 55009 84532
  333 56000 84623=
96935 NIL=
####018000797####
SIAA01 KARS 092100 RRA
AAXX 0921/
89768 46/// ///// 11338 38656 4//// 5//// 92120=
89872 46/// ///// 11281 39726 4//// 5//// 92120=
89377 46/// ///// 11338 39757 4//// 5//// 92120=
89869 46/// ///// 11300 39738 4//// 5//// 92120=
89866 46/// ///// 11205 39676 4//// 5//// 92120=
89864 46/// ///// 11253 39694 4//// 5//// 92120=
89376 46/// ///// 11378 39697 4//// 5//// 92120=
89324 46/// ///// 11344 37912 4//// 5//// 92130=
89329 46/// ///// 11338 38540 4//// 5//// 92120=
89799 46/// ///// 11614 4//// 5//// 92120=
89868 46/// ///// 11331 39731 4//// 5//// 92120=
89828 46/// ///// 11676 36497 4//// 5//// 92120=
89108 46/// ///// 11623 36897 4//// 5//// 92120=
89332 46/// ///// 11376 38996 4//// 5//// 92120=
89314 46/// ///// 11326 38036 4//// 5//// 92120=
####018000095####
SIRS25 RUMS 092100 RRA
AAXX 09211
22438 42562 62003 10156 20151 30090 40115 57006 86900=
####018001319####
SIID21 WIIX 092100
AAXX 09214
96001 NIL=
96015 NIL=
96033 21450 80000 10258 20243 30101 40107 55002 76166 84927
  333 56000 57902 60027 81920 83617 84457 80980=
96075 NIL=
96087 32460 40000 10248 20239 30069 40102 56006 81231
  333 56000 57804 81817 80860=
96171 31450 60000 10244 20232 30070 40095 56006 70522 83522
  333 56000 83616=
96207 NIL=
96525 NIL=
96529 NIL=
96559 31340 80000 10226 20220 30052 40087 57016 70522 8512/
  333 56409 57844 85809 88461 80848=
96607 21456 80000 10248 20235 30108 40123 55001 76022 8692/
  333 56009 57940 69907 81916 85814 88458 809//=
96615 NIL=
96737 31456 70000 10244 20235 30052 40082 58012 70522 84521
  333 56000 84616 83460=
96739 31450 71403 10238 20232 30052 40101 57010 70522 84122
  333 56000 81818 83618=
96741 32556 61803 10264 20238 30096 40100 57012 83471
  333 56000 83621=
96745 NIL=
96751 NIL=
96791 NIL=
96797 32457 62102 10252 20227 30090 40094 57014 84971
  333 56000 57902 81918 83620 80980=
96837 NIL=
96925 NIL=
96933 NIL=
96937 32556 62201 10270 20250 30107 40111 57007 83118
  333 56000 83820=
96973 21458 60000 10248 20242 30091 40095 57005 72996 84976
  333 56000 57902 60067 81919 80976 83820 80850=
96987 32458 30000 10248 20233 30061 40120 57005 83508
  333 56000 83618=
####018001968####
SIID22 WIIX 092100
AAXX 09214
97014 32560 31102 10229 20219 30018 40111 55002 81531
  333 56000 81625=
97028 NIL=
97048 31458 60000 10240 20232 30068 40092 57010 71322 84931
  333 56000 57901 57801 81917 80980 83817 80860=
97072 32558 50000 10234 20221 30021 40121 57004 81571
  333 56000 81620 84460=
97086 32560 42705 10260 20219 30085 40110 56009 82521
  333 56000 82620=
97096 NIL=
97120 21459 40504 10234 20219 30071 40104 57013 70162 82231
  333 56000 57803 69927 82818 80860=
97146 NIL=
97180 32458 70701 10234 20234 30085 40103 58021 83231
  333 56000 83819 84360=
97192 32450 51003 10132 20229 30061 40118 57002 82220
  333 56200 57824 82616 80857=
97230 32460 60000 10250 20241 30099 40106 55009 84231
  333 56000 57801 84818 80857=
97260 32560 41204 10236 20224 30098 40104 57009 83501
  333 56000 83620=
97270 31450 60000 10248 20242 30103 40107 57014 70522 83121
  333 56000 83813=
97300 NIL=
97340 32560 52405 10323 20226 30095 40110 57006 83232
  333 56000 83620=
97372 32458 51304 10242 20227 39996 40117 52001 82131
  333 56000 82818=
97430 32460 51703 10242 20225 30076 40105 56005 83232
  333 56300 57833 83818 80860=
97502 31450 50000 10246 20242 30090 40094 57002 70544 82531
  333 56000 82620=
97530 32456 40000 10242 20233 30081 40088 57005 82242
  333 56000 57804 82814 80833=
97560 32460 70000 10240 20234 30077 40092 55002 83848
  333 56000 57802 82818 84361 86279 80860=
97690 NIL=
97724 31457 70000 10248 20229 30085 40102 56001 71799 83972
  333 56300 57931 81819 83359 81819 80842=
97748 31459 71459 10274 20251 30096 40098 56005 70522 83932
  333 56300 57930 81914 82815 84359 80940 80850=
97810 32460 31205 10257 20239 30108 40115 58002 81232
  333 56300 57835 81819 80825=
97900 32562 71110 10260 20231 30100 40131 55002 84270
  333 56200 57821 84820 80850=
97980 32460 80000 10239 20224 30113 40120 52004 85842
  333 56000 82816 83620=
####018000358####
SIID23 WIIX 092100
AAXX 09214
97008 NIL=
97126 21457 72201 10233 20230 30061 40121 56014 70262 83920
  333 56000 57901 69957 81916 82616 87460 80980=
97182 NIL=
97240 NIL=
97406 32460 50000 10234 20231 30061 40086 55001 83231
  333 56000 57801 83819 80860=
97570 32460 50000 10232 20223 30090 40097 52005 81132
  333 56000 81814 85080=
####018000101####
SIRA28 RUHB 092100 CCA
AAXX 09211
31878 /1498 81801 10179 20164 39998 40113 53008 75152 886//=
####018001034####
SICO20 SKBO 092100
AAXX 09211
80001 21468 80803 10268 20251 30095 40096 81976
  333 56300 57911 59003 60067 81915 87458=
80002 NIL=
80009 41559 80000 10260 20240 30083 40088 79595 83994
  333 56490 57911 59002 83920 86358=
80022 31465 63560 10308 20252 30089 40091 71792 84920
  333 5644/ 57991 59006 82912 82715 83457=
80028 41458 71502 10270 20269 30056 40091 76196
  333 5639/ 57893 59008 83815 85457=
80036 31568 40604 10332 20228 70511 82802
  333 560/0 82820=
80084 31570 63603 10326 20238 70522 82215
  333 56999 57843 82825 84270=
80091 31465 63502 10323 20238 71521 84265
  333 56099 57893 84815 83070=
80094 31462 83203 10232 20189 38794 71522 83875
  333 56799 59006 83812 86360=
80097 32465 63602 10293 20215 39731 40077 83231
  333 56000 57893 59009 83818 83359 83818 83359=
80099 31566 30000 10302 20251 39905 40051 70511 83101
  333 563/9 58008 83820=
80112 21462 61304 10220 20152 37881 75065 84370
  333 5600/ 57992 59011 60027 84915 83358=
80139 NIL=
80144 NIL=
####018000778####
SICO21 SKBO 092100
AAXX 09211
80210 31565 30000 10268 20173 38634 70521 82201
  333 562/0 57821 59008 82820=
80211 NIL=
80214 31570 60000 10268 20179 70522 84230
  333 5623/ 57823 84827 84360=
80222 31568 71706 10182 20108 37510 70522 85856
  333 56499 58007 85620=
80234 21560 70000 10266 20208 39592 40080 71552 83572
  333 56239 58012 69927 83620 84359=
80241 NIL=
80252 NIL=
80259 31560 70703 10301 20201 3//// 70522 83830
  333 5639/ 5//// 83820 85359=
80308 NIL=
80315 NIL=
80337 NIL=
80342 31570 80000 10214 20172 38202 71522 8282/
  333 5643/ 59001 82822 86460=
80361 NIL=
80370 32470 80804 10122 20097 8447/
  333 5620/ 84618 85457=
80372 NIL=
80398 32570 20000 10322 20264 39985 40079 82800
  333 562// 59001 82820=
####018001829####
SICO20 SKBO 092100
AAXX 09211
80001 21468 80803 10268 20251 30095 40096 81976
  333 56300 57911 59003 60067 81915 87458=
80002 NIL=
80009 41559 80000 10260 20240 30083 40088 79595 83994
  333 56490 57911 59002 83920 86358=
80022 31465 63560 10308 20252 30089 40091 71792 84920
  333 5644/ 57991 59006 82912 82715 83457=
80028 41458 71502 10270 20269 30056 40091 76196
  333 5639/ 57893 59008 83815 85457=
80036 31568 40604 10332 20228 70511 82802
  333 560/0 82820=
80084 31570 63603 10326 20238 70522 82215
  333 56999 57843 82825 84270=
80091 31465 63502 10323 20238 71521 84265
  333 56099 57893 84815 83070=
80094 31462 83203 10232 20189 38794 71522 83875
  333 56799 59006 83812 86360=
80097 32465 63602 10293 20215 39731 40077 83231
  333 56000 57893 59009 83818 83359 83818 83359=
80099 31566 30000 10302 20251 39905 40051 70511 83101
  333 563/9 58008 83820=
80112 21462 61304 10220 20152 37881 75065 84370
  333 5600/ 57992 59011 60027 84915 83358=
80139 NIL=
80144 NIL=
NNNN

SICO21 SKBO 092100
AAXX 09211
80210 31565 30000 10268 20173 38634 70521 82201
  333 562/0 57821 59008 82820=
80211 NIL=
80214 31570 60000 10268 20179 70522 84230
  333 5623/ 57823 84827 84360=
80222 31568 71706 10182 20108 37510 70522 85856
  333 56499 58007 85620=
80234 21560 70000 10266 20208 39592 40080 71552 83572
  333 56239 58012 69927 83620 84359=
80241 NIL=
80252 NIL=
80259 31560 70703 10301 20201 3//// 70522 83830
  333 5639/ 5//// 83820 85359=
80308 NIL=
80315 NIL=
80337 NIL=
80342 31570 80000 10214 20172 38202 71522 8282/
  333 5643/ 59001 82822 86460=
80361 NIL=
80370 32470 80804 10122 20097 8447/
  333 5620/ 84618 85457=
80372 NIL=
80398 32570 20000 10322 20264 39985 40079 82800
  333 562// 59001 82820=
NNNN
####018000085####
SNAA19 LFVW 092200
AAXX 09224
89666 46/// /1920 11169 29057 39599 4//// 5////=
####018000083####
SIAA17 LFVW 092100 RRA
AAXX 0921/
89767 46/// ///// 11272 39748 4//// 5////=
####018000230####
SIAA17 LFVW 092100 RRB
AAXX 09214
89586 46/// /04// 11312 37456 4//// 5////=
89003 46/18 /1811 11303 29040 39038 4//// 5////=
89507 46/// /1505 11640 29031 36671 4//// 5////=
89578 46/// /05// 11547 36776 4//// 5////=
####018001089####
SICI28 BABJ 092100
AAXX 09211
55228 42980 03401 10091 21084 36062 54000 333 05202=
55578 41680 80000 10126 20092 36393 52004 70080 889// 333
05200 70088=
55664 42880 10000 10114 20048 36040 57002 81400 333 05204=
55773 42670 70000 10072 20057 36048 57006 874// 333 05100
70120=
56116 41578 62904 10088 20055 36370 52002 76086 82720 333
05151 70081=
56137 41780 83602 10137 20096 36817 57011 70060 885// 333
00000 70024=
56172 42780 70000 10107 20101 37377 57009 875// 333 00354
70096=
56247 42880 80000 10162 20139 37417 57006 884// 333 00052
70044=
56312 41580 80000 10138 20125 37083 57007 78088 884// 333
05151 70058=
56462 41480 83202 10129 20127 37129 57005 78088 884// 333
05151 70202=
56651 42680 72504 10197 20115 37596 57007 879// 333 05102
70004=
56691 41362 83603 10166 20150 37732 57006 79588 889// 333
05152 70141=
56985 42575 71603 10235 20177 40012 57010 85462 333 05101
79999=
57633 41456 82001 10239 20225 40009 57005 78088 887// 333
05100 71335=
57902 42462 52005 10227 20187 49997 57009 85600 333 05100
70019=
####018000131####
SIAU23 AMMC 092100 RRA
AAXX 09214
94703 46/// /00// 1//// 2//// 30101 40232=
94866 46/// /0125 10113 20047 30040 40184=

####018000212####
SIAU21 AMMC 092100 RRA
AAXX 09214
94147 15/// /1316 10255 20226 30112 40134 53007 69964 92127=
94151 45/// /0105 10236 20193 30127 40148 53004 92121=
94290 46/// /1420 10238 30173 40182 53014 92124=

####018000137####
SIAU40 AMMC 092100 RRA
AAXX 09214
94210 35/// /3614 10260 30112 40117 57011=
94289 46/// /1423 10247 30158 40165 53012 92115=

####018000027####
SICI39 BABJ 092100
NIL
####018000121####
SNVD45 KWNB 092200
BBXX
45022 09221 99454 70851 46/// /3202 10204 40160 92140 22200 00196
10301 70003 333 91203=
####018000115####
SIVD20 KWNB 092100 RRP
BBXX
44056 09211 99362 70757 46/// ///// 1//// 92045 22200 00269 10702
20702 70012=
####018000206####
SIVD15 KWNB 092100 RRR
BBXX
41037 09211 99340 70775 46/// /2206 10283 40107 57015 92100 333
91208=
42360 09211 99267 70905 46/// /0503 10284 40159 58016 92100 22200
00307 10501 70006 333 91204=
####018000748####
SIRA24 RUNW 092100
AAXX 09211
23426 42989 33204 10138 20104 30109 40132 52005 83030=
23625 42598 30000 10093 20056 30099 40131 52005 83500=
28076 42497 80000 10117 20115 30029 40097 52002 885//=
28367 42984 60000 10125 20095 39987 40109 57001 86030=
28382 42498 62902 10097 20093 30017 40085 52002 85640=
28481 42998 63101 10106 20094 39999 40094 53004 86030=
28491 42580 83502 10112 20100 39967 40072 52002 8337/=
28573 42680 83402 10117 20105 39991 40090 57001 885//=
28593 42497 83302 10125 20118 39957 40049 53001 889// 333 88918=
28786 42697 83402 10126 20093 39925 40073 57001 885// 333 88643=
28797 42497 83302 10126 20105 39918 40066 54000 883// 333 85919=
28799 42597 83301 10122 20103 39917 40053 57003 8297/=
####018001628####
SIRA23 RUNW 092100
AAXX 09211
20046 NIL=
20069 42477 72905 10010 20007 30143 40156 52010 8653/ 333 86612=
20087 41296 83104 10003 20000 30120 40130 52012 71022 886// 333
88705=
20292 41394 82408 10022 20019 30114 40133 57001 71082 886// 333
91112=
20667 42598 80202 10050 20036 30189 40196 52007 885//=
20674 41296 80106 10020 20018 30110 40168 53015 71042 886// 333 88706
91108=
20744 42598 71803 10093 20051 30177 40194 52003 86551 333 86629=
20891 42998 50202 10131 20089 30073 40113 52002 83031 333 91105=
23022 42497 60302 10045 20035 30133 40192 52010 83530=
23032 42598 60603 10073 20071 30129 40158 52006 85501=
23058 41997 70307 10124 20103 30092 40096 54000 76062 87020=
23256 42498 61702 10125 20113 30051 40084 52002 83331=
23330 42698 70102 10138 20073 30115 40135 52008 87500 333 87644=
23445 41397 82802 10119 20115 30067 40091 57001 8665/ 333 86706=
23552 41497 70000 10129 20123 30045 40078 52001 71022 86530 333
86615=
23631 42998 60203 10140 20099 30084 40123 52006 86030=
23662 41999 20000 10092 20088 30043 40085 52005 71100 82030=
23724 42998 00000 10105 20102 30071 40133 52007=
23734 42698 50301 10136 20111 30022 40108 52002 83530=
23849 42896 73503 10146 20131 40076 52002 87030=
23867 42999 30000 10107 20097 39998 40066 52003 82071=
23933 42597 80000 10126 20115 30044 40105 52004 885// 333 88622=
28064 42598 23201 10122 20100 30030 40118 52002 82500=
28275 42598 83001 10126 20109 30045 40101 54000 889//=
28493 42597 83402 10120 20114 39966 40053 52002 8497/=
28698 41497 83002 10122 20114 39915 40061 57004 78082 889// 333
83711=
####018001077####
SICI38 BABJ 092100
AAXX 09211
55279 42680 60201 10059 20036 35747 57006 84902 333 05251
70029=
55472 42780 71102 10085 20039 35780 57008 874// 333 05301
70027=
55696 42680 60703 10098 20074 36367 57006 83402 333 05151
70083=
56079 41909 21101 10032 20026 36736 57003 74240 80002 333
00358 70252=
56106 42680 80000 10091 20051 36247 57006 884// 333 05151
70117=
56257 42680 72701 10096 20060 36313 57007 874// 333 00051
70061=
56374 41480 80000 10129 20115 37421 57009 72588 884// 333
00052 70267=
56385 41/00 93604 10082 20082 37021 57007 76064 333 00055
70192=
56954 41565 70000 10222 20214 40049 57005 70080 874// 333
05101 79999=
56966 42775 81403 10296 20207 49998 57006 889// 333 00001
79999=
57237 42865 83405 10235 20170 40020 57010 885// 333 70031=
57306 42975 73202 10233 20173 40026 57007 8704/ 333 70002=
57604 41350 82702 10208 20206 40040 52011 76066 885// 333
70076=
57707 41465 83404 10184 20184 38427 54000 79598 889// 333
00052 70692=
57832 42668 81801 10259 20220 39319 40002 57006 885// 333
05100=
####018000027####
SICI29 BABJ 092100
NIL
