####018000134####
SIGE01 FAGE 092100
AAXX 09214
68906 42598 13306 10029 20003 30231 40299 57001 81500
      333 10066 20024 91007 555 91029=

####018000109####
SMTH01 VTBB 091800 RRB
AAXX 09184
48431 32960 10000 10261 20245 39867 40080 80001
  333 58005 70036=
####018000312####
SITO20 NFTF 092100
AAXX 09214
91779 41398 71010 10265 20242 40176 51016 70222 877// 333 562// 83709
 87818=
91784 41498 71210 10244 20223 40189 51016 70122 878// 333 563// 81710
 84817
87640=
91792 41498 71106 10241 20214 40198 53014 70222 8417/ 333 5639/ 84815
 87362
555 20000 32619 416//=
####018001112####
SIVD17 KWNB 092100
BBXX
46084 09211 99566 71361 46/// /1408 10120 20119 40136 50000 92050
22200 00119 10803 20402 300// 40802 70013 333 91209 555 11086
22092 32023 41410 62049 136080 137076 138081 139082 138079 141079=
46075 09211 99539 71608 46/// /2108 10092 20069 49973 51025 92050
22200 00090 10906 20704 300// 40905 70030 333 91209 555 11084
22090 31950 42311 62049 206078 207077 209073 215078 215078 222085
82209 91956=
46005 09211 99461 71310 46/// /3004 10139 40247 52006 92050 22200
00134 11502 20301 300// 41502 70010 333 91204 555 11042 22047
32006 43105 62049 299037 299036 303039 304040 304043 304043=
46005 09211 99461 71310 46/// /3004 10139 40247 92050 22200 00134
11502 20301 300// 41502 70010 333 91204 555 11042 22047 32006
43105 62049 299037 299036 303039 304040 304043 304043=
46080 09211 99580 71500 46/// ///// 10097 40093 58008 92050 22200
10704 70022=
46085 09211 99559 71426 46/// /1004 10109 20109 40073 56007 92050
22200 00102 10604 20401 3//// 40603 70018 333 91205 555 11043
22049 32009 40905 62049 097039 097041 098042 100046 101047 102044=
####018003607####
SIVD15 KWNB 092100 RRA
BBXX
41048 09211 99320 70696 46/// /1909 10276 20228 40168 57006 92050
22200 00272 10604 20604 70018 333 91211 555 11099 22106 32016
41812 62049 192093 190099 187101 187103 188101 195089 81911 92011=
41044 09211 99217 70587 46/// /0906 10284 20243 40179 56009 92050
22200 00283 10603 20502 300// 40602 70014 333 91207 555 11065
22070 31956 40908 62049 091061 096063 096059 094061 098061 095059
81007 91956=
42362 09211 99278 70907 46/// /3602 10306 20217 40166 92045=
42364 09211 99291 70881 46/// /2403 10283 20211 40163 92045=
44005 09211 99432 70691 46/// /1606 10219 92050 22200 00198 10702
20401 3//// 40701 70010 333 91207 555 11071 22081 32047 41607
62049 157063 157056 158056 156062 158064 158065=
42039 09211 99288 70860 46/// /2002 10284 20225 40155 58016 92050
22200 00302 10701 300// 40701 70004 333 91203 555 11025 22025
32006 41904 62049 203024 206024 192023 191023 195024 200021 80303
92036=
42035 09211 99292 70944 46/// /1203 10287 40160 56013 92050 22200
00304 10602 20401 318// 40601 70008 333 91204 555 11034 22035
31957 41105 62049 119033 107033 106032 108039 110040 107039=
42060 09211 99165 70635 46/// /0909 10297 20225 40139 58010 92050
22200 00294 10604 20604 70019 333 91211 555 11096 22102 32045
40911 62049 089089 089084 092088 091089 087087 088085 80910 92024=
42059 09211 99151 70675 46/// /0910 10290 20242 40123 56017 92050
22200 00295 10805 20704 300// 40803 70024 333 91212 555 11104
22110 32047 41012 62049 094095 093080 097079 103080 108079 109089
80910 92047=
42020 09211 99270 70967 46/// /1207 10285 40135 58009 92050 22200
00292 10604 20604 70018 333 91208 555 11075 22079 31957 41210
62049 124072 125077 125080 128079 129081 128083=
42019 09211 99279 70954 46/// /1305 10290 20257 40155 58012 92050
22200 00293 10703 20501 313// 40702 70013 333 91206 555 11056
22060 32004 41407 62049 132053 132051 134055 142054 139059 142057=
44066 09211 99396 70726 46/// /1202 10254 20246 40117 58021 92050
22200 10702 20401 300// 40702 70012 333 91202 555 11018 22019
31954 41006 62049 115017 096023 099027 112028 104035 096047=
42056 09211 99199 70851 46/// /1003 10281 20236 40131 56023 92050
22200 00291 10502 20401 314// 40501 70008 333 91204 555 11034
22035 31950 41004 62049 096034 097031 111029 103029 105027 139029
80904 92050=
41047 09211 99275 70715 46/// /1804 10274 20246 40174 58011 92050
22200 00286 10802 20301 310// 40801 70009 333 91205 555 11037
22039 31956 41805 62049 183037 184042 178041 177042 179042 187044
81905 91957=
42012 09211 99301 70876 46/// /2506 10289 20251 40149 58020 92050
22200 00299 10701 20501 318// 40701 70005 333 91208 555 11068
22071 32047 42408 62049 245064 242061 242061 241059 243062 244061=
42040 09211 99292 70882 46/// /2404 10293 20203 40149 58018 92050
22200 00310 10701 317// 40701 70005 333 91205 555 11038 22039
32036 42305 62049 243038 241040 253037 248038 248037 239035=
44011 09211 99411 70666 46/// /1505 10205 40169 58014 92050 22200
00181 10803 20401 316// 40803 70016 333 91205 555 11053 22063
32021 43305 62049 151045 149047 152047 149045 148039 150038=
41043 09211 99211 70650 46/// /1007 10287 20234 40174 58010 92050
22200 00291 10804 20602 300// 40803 70018 333 91208 555 11069
22073 32035 40908 62049 097064 094063 095057 102061 101057 098032
81007 92047=
42055 09211 99220 70940 46/// /1004 10281 20256 40123 57013 92050
22200 00283 10702 20401 307// 40702 70012 333 91206 555 11046
22049 32049 40906 62049 095045 094044 092044 090043 102041 105041
80905 92050=
####018000227####
SIVE15 KWNB 092100 RRA
BBXX
51003 09211 99191 71607 46/// /0708 10258 40168 54000 92050 22200
00266 10703 20703 300// 40802 70016 333 91209 555 11082 22086
31956 40810 62049 072078 083077 086072 082076 085079 079085=
####018000308####
SIVD45 KWNB 092100 RRB
BBXX
45022 09211 99454 70851 46/// /1702 10200 40170 92050 22200 00196
10201 70003 333 91203=
45003 09211 99454 70828 46/// /3202 10203 39921 40132 57012 92050
22200 00181 1//00 70001 333 91202 555 11019 22023 32020 43404
62049 322016 335025 335027 337031 314015 310010=
####018001502####
SIVD22 KWNB 092100 RRA
BBXX
46028 09211 99357 71219 46/// /3306 10135 20117 30153 40153 54000
92050 22200 00139 11302 20401 321// 41302 70010 333 91206 555
11058 22061 31956 43407 62049 329055 330055 332054 334054 334054
331056=
46088 09211 99483 71232 46/// /2304 10138 40145 92050 22200 00126
1//00 70002 333 91205 555 11040 22043 32031 42305 62049 233039
232041 229037 222032 213025 225028=
46012 09211 99374 71229 46/// /3401 10125 40158 54000 92050 22200
00128 11402 20401 319// 41402 70010 333 91202 555 11014 22015
32014 43004 62049 342013 347013 329019 296029 290029 326017=
46013 09211 99382 71233 46/// /2501 10119 40149 52003 92050 22200
00109 11102 20401 319// 41102 70010 333 91202 555 32047 42602
62049 248014 253011 286007 288006 282003 296004=
46029 09211 99461 71245 46/// /3305 10156 20156 40168 52005 92050
22200 00161 10702 20401 330// 40702 70011 333 91205 555 11046
22046 32007 43206 62049 329045 333040 335044 334044 326046 328044=
46054 09211 99343 71205 46/// ///10 10142 40134 58008 92050 22200
00158 10502 20502 300// 40801 70011 333 91212 555 11109 22115=
46015 09211 99427 71248 46/// /3609 10124 40150 52003 92050 22200
10702 20502 333// 40702 70012 333 91212 555 11097 22104 31952
43613 62049 004090 004090 000097 001098 359104 358103=
46025 09211 99337 71191 46/// /3203 10156 40139 58006 92050 22200
00178 11301 322// 41301 70007 333 91204 555 11032 22033 32045
43204 62049 313032 290027 279023 287021 278027 301018=
####018001276####
SIVD20 KWNB 092100 RRB
BBXX
44060 09211 99413 70721 46/// /1303 10218 40129 92045 22200 00197
333 91204 555 11041 22046=
44022 09211 99409 70737 46/// /1806 10278 20200 40115 92045 22200
00225 333 91208 555 11072 22088=
44009 09211 99385 70747 46/// /1305 10251 20234 40107 58024 92050
22200 00253 10703 20401 300// 40702 70013 333 91206 555 11053
22056 32018 41206 62049 129049 129047 124051 124053 129047 130042=
41013 09211 99334 70777 46/// /2205 10284 20215 40115 58010 92050
22200 00298 10801 20501 311// 40801 70006 333 91206 555 11056
22058=
44018 09211 99413 70693 46/// /1405 10194 20194 40139 58025 92050
22200 10803 20501 317// 40803 70014 333 91206 555 11056 22060
32043 41306 62049 138052 137050 132045 134042 131042 130039=
44065 09211 99404 70737 46/// /1404 10251 20246 40113 58027 92050
22200 00249 10702 20401 316// 40702 70012 333 91205 555 11043
22047 32034 41405 62049 137040 138040 138042 135039 132035 129032
83204 92029=
44040 09211 99410 70736 46/// /1804 10275 20209 40122 92045 22200
1//00 70002 333 91206 555 11057 22067=
44020 09211 99414 70702 46/// /1503 10245 20245 40134 58030 92050
22200 00239 10501 70003 333 91203 555 11032 22037 32047 41503
62049 148028 135022 146019 146012 152017 148013=
####018000363####
SIRH75 LDZM 092100
AAXX 0921/
14241 42980 00000 10191 20149 30090 40216 51010=
14284 42970 02901 10212 20147 30111 40215 51008=
14307 42981 03503 10225 20178 30129 40202 53003 333 =
14317 NIL=
14431 42975 00000 10201 20150 30110 40200 53009=
14444 42980 03501 10213 20144 30168 40196 52015 333 =
14474 42980 00803 10243 20099 30005 40187 52009=
####018000866####
SNAA01 KARS 092000 RRA
AAXX 0920/
89667 46/// ///// 4//// 5//// 92010=
89667 46/// ///// 4//// 5////=
89872 46/// ///// 11286 39713 4//// 5////=
89872 46/// ///// 11286 39726 4//// 5//// 92040=
89377 46/// ///// 11358 39774 4//// 5////=
89866 46/// ///// 11194 39678 4//// 5//// 92040=
89376 46/// ///// 11378 39697 4//// 5////=
89324 46/// ///// 11379 37926 4//// 5////=
89329 46/// ///// 11350 38555 4//// 5////=
89868 46/// ///// 11311 39730 4//// 5////=
89868 46/// ///// 11326 39730 4//// 5//// 92040=
89108 46/// ///// 11623 36891 4//// 5////=
89332 46/// ///// 11388 39022 4//// 5////=
89769 46/// ///// 11273 39742 4//// 5////=
89314 46/// ///// 11321 38040 4//// 5////=
89869 46/// ///// 11310 39742 4//// 5//// 92040=
89864 46/// ///// 11259 39694 4//// 5//// 92040=
89879 46/// ///// 11185 39666 4//// 5//// 92040=
####018000089####
SNAA01 KARS 091900 RRI
AAXX 0919/
89866 46/// ///// 11161 39665 4//// 5//// 91940=
####018000248####
SNAA01 KARS 092000 RRB
AAXX 09204
89667 46/// /1718 11203 29084 39799 4//// 5////=
89667 46/// /1524 11234 29081 39796 4//// 5//// 92040=
89667 46/// /1621 11224 39799 4//// 5//// 92030=
89667 46/// /1720 11211 39802 4//// 5//// 92020=
####018000079####
SNAA01 KARS 092100
AAXX 0921/
89834 46/// ///// 11488 37347 4//// 5////=
####018000215####
SIVD45 KWNB 092100 RRC
BBXX
45006 09211 99473 70898 46/// /2205 10174 39923 40143 58013 92050
22200 00149 1//00 70001 333 91205 555 11056 22066 32023 42205
62049 215049 214049 216049 216047 217044 211042=
####018000095####
SNAA14 EGRR 091900 RRE
AAXX 09194
89065 46/// /3303 11186 21202 39711 49793 57005 91940=
####018000091####
SNAA14 EGRR 091940
AAXX 09194
89266 46/// /1616 11247 21272 39752 49902 52002 91940=
####018000095####
SNAA14 EGRR 091900 RRF
AAXX 09194
89013 46/// /0714 1//// 2//// 37593 4//// 52017 91940=
####018000247####
SIVD15 KWNB 092100 RRB
BBXX
42057 09211 99168 70815 46/// /0708 10299 20251 40125 58009 92050
22200 00294 10602 20602 3//// 40701 70012 333 91210 555 11088
22093 32017 40811 62049 071083 074086 073089 072090 074085 072086
80710 92017=
####018000095####
SMUZ10 UTTW 091800 CCA
AAXX 09181
38618 429// 70701 10245 20156 39399 40034 57010 84042=
####018000091####
SNAA14 EGRR 091940
AAXX 09194
89257 46/// /1403 11340 21376 39864 49943 52005 91940=
####018000091####
SNAA14 EGRR 091940
AAXX 09194
89272 46/// /0406 11199 21222 37979 49654 57002 91940=
####018000092####
SIMZ20 FQMA 092101
AAXX 09214
67297 42570 1//// 10188 20176 40211 81500 333 59031=

####018000116####
SISR20 WSSS 092100
AAXX 09214
48698 21460 73101 10254 20245 30073 40092 71022 81132 
333 60007 81818 87080=
####018001959####
SIDL46 EDZW 092100
AAXX 09211
10321 35969 71401 10270 20188 30118 40167 53006
  333 55300 20000 30000 84/58 87/60 87/66=
10325 35982 22101 10261 20139 30018 40174 53006
  333 55300 82/65=
10334 42980 71402 10276 20153 30091 40170 53005 8707/
  333 81364 87367=
10335 NIL=
10343 42980 61202 10283 20144 30114 40174 52006 86071
  333 86365=
10348 35981 81202 10257 20153 30076 40176 51005
  333 55300 20000 30000 41421 88/68=
10356 35981 01402 10248 20155 39990 40177 53009
  333 55300=
10359 35969 00501 10214 20149 30128 40184 51006
  333 55300 20000 30000=
10365 35976 02001 10212 20145 30139 40183 53008
  333 55300 20000 30000=
10368 35981 01502 10238 20139 39973 40189 53006
  333 55300 20000 30000=
10376 35976 01202 10220 20146 30118 40186 53008
  333 55300=
10381 32980 11404 10228 20134 30106 40189 53006 81041
  333 55300 81362=
10385 32982 11201 10247 20134 30135 40193 53007 81031
  333 55300 20000 30000 81363=
10389 36/// /1606 10286 20105 30097 40191 53006=
10396 35977 01402 10230 20135 30188 40203 53011
  333 553//=
10404 42875 49901 10263 20169 30126 40175 52018 82530
  333 82658 83368=
10410 35983 72203 10273 20150 30002 40172 53012
  333 55300 87/62 87/67 87/82=
10418 35983 12402 10255 20132 39740 40182 52009
  333 55300 20000 30000 81/60=
10424 35980 72503 10252 20156 30072 40171 52011
  333 55300 20000 30000 86/62 87/69=
10433 35981 82001 10239 20140 39875 40171 52007
  333 55300 20000 30000 88/63=
10435 35978 72102 10257 20139 39911 40180 52008
  333 55300 87/62 87/67 87/81=
10442 35977 81501 10226 20160 30009 40181 52005
  333 55300 20000 30000 82/60 87/66 88/69=
10444 35976 81001 10226 20166 39983 40181 53007
  333 55300 20000 30000 85/64 87/68 88/71=
10449 35976 80201 10238 20153 39786 40188 53009
  333 55300 20000 30000 87/65 88/68=
10452 25977 83201 10208 20135 39505 40192 53008
  333 55300 20000 30000 69907 88/67=
####018001313####
SIDL49 EDZW 092100
AAXX 09211
10756 35980 80701 10212 20158 39653 40195 53009
  333 55300 20000 30000 87/63 88/81 88/81=
10761 35961 03501 10223 20146 39711 40193 52013
  333 55300 20000=
10765 NIL=
10771 NIL=
10777 35982 01401 10226 20130 39591 40198 53009
  333 55300=
10782 35969 00902 10184 20157 39634 40207 53009
  333 55300 20000 30000=
10796 35976 00501 10193 20139 39510 40210 53010
  333 55300=
10803 35971 71101 10232 20188 39915 40187 53011
  333 55300 20000 30000 87/65=
10818 35985 81701 10214 20106 39123 48584 53008
  333 55300 20000 30000 88/62 88/64=
10827 NIL=
10837 NIL=
10838 369// 03102 10249 20156 39550 40187 52009
  333 55300=
10850 35984 01203 10248 20125 39628 40193 52010
  333 55300=
10853 NIL=
10856 NIL=
10857 NIL=
10860 NIL=
10863 35973 00000 10193 20147 39653 40201 53009
  333 55300 20000 30000 41250=
10865 35982 01102 10228 20133 39603 40196 53006
  333 55300=
10872 35574 12601 10177 20153 39800 40208 53010
  333 55300 81/29=
10875 35967 02801 10172 20156 39734 40209 53008
  333 55300 20000 30000=
10945 NIL=
10954 NIL=
10963 35982 82301 10196 20152 39392 40203 53009
  333 55300 20000 30000 88/62 88/66=
10982 379// 20901 10194 20154 39575 40205 53006 7//00
  333 55300 20000 30000 82/65=
####018001985####
SIDL23 EDZW 092100
AAXX 09211
10609 22982 32202 10248 20160 39878 40189 53010 81031
  333 55300 20000 30000 69907 81362 83080=
10616 32984 12403 10240 20137 39623 40189 53009 80001
  333 55300 81080=
10641 35973 01701 10228 20174 30046 40185 53006
  333 55300=
10655 33981 82602 10260 20155 39874 40182 53008 8////
  333 55300 20000 30000 86/67 88/69=
10675 35976 31201 10195 20162 39911 40191 51013
  333 55300 20000 30000 83/68=
10688 35981 02001 10233 20117 39700 40195 53010
  333 55300 20000 30000=
10708 32981 50701 10222 20170 39825 40191 51008 81031
  333 55300 20000 30000 81361 85080=
10729 35977 11202 10229 20184 30073 40189 53011
  333 55300 20000 30000 81/75=
10731 35964 72001 10222 20181 30055 40192 53011
  333 55300 20000 30000 82/65 87/80 87/81=
10742 35974 11502 10242 20177 39876 40189 53012
  333 55300 20000 30000 81/77=
10776 35981 00201 10229 20138 39776 40197 53009
  333 55300 20000 30000=
10791 32989 11103 10179 20124 38639 48585 53002 80001
  333 55300 81074=
10805 32982 40401 10230 20186 30007 40188 53009 81081
  333 55300 20000 30000 81363 84081=
10815 35981 03601 10213 20146 39309 48581 53009
  333 55300 20000 30000=
10836 35981 01602 10242 20136 39372 40190 53009
  333 55300 20000 30000=
10870 32975 10401 10217 20143 39693 40200 53008 81030
  333 55300 81365=
10895 35981 00802 10224 20122 39662 40204 53005
  333 55300 20000 30000=
10908 42986 50601 10203 20105 38588 48579 53007 85030
  333 55300 20000 30000 85361=
10929 32970 73001 10237 20176 39684 40185 53006 85042
  333 55300 20000 30000 81360 85363 86079=
10948 35983 81401 10209 20143 39296 48576 53003
  333 55300 20000 30000 87/60 88/65=
10961 42688 53604 10102 21009 37231 47229 53005 85040
  333 55300 20000 41124 85336 98889=
10962 32982 60704 10227 20125 39108 48583 53002 85051
  333 55300 20000 30000 85363=
10980 42989 02704 10181 20077 38258 48587 53003
  333 55300 20000 30000=
####018002278####
SIDL22 EDZW 092100
AAXX 09211
10006 NIL=
10007 NIL=
10008 NIL=
10043 NIL=
10044 46/// /1009 10222 20181 30146 40177 56006
222// 00203
  333 55300=
10046 42980 30903 10225 20163 30140 40177 57003 82031
  333 82365=
10091 35982 01504 10226 20152 30146 40195 50004
  333 55300 20001 30001=
10113 35968 51403 10251 20190 30145 40163 53007
  333 55300 20003 30002 81/62 85/66=
10124 46/// /1008 10259 20207 30126 40162 51003
222// 00120
  333 55300=
10131 35970 71204 10242 20200 30148 40162 53003
  333 55300 20000 30000 87/63=
10170 32975 21304 10254 20165 30168 40183 52001 80002
  333 55300 20000 30000 82076=
10264 35982 01402 10249 20133 30081 40182 51006
  333 55300 20000 30000=
10291 32981 01102 10232 20161 30133 40197 53007
  333 55300 20000 30000=
10315 32980 31401 10240 20139 30109 40170 53009 81081
  333 55300 20000 30000 81359 83075=
10379 32983 11403 10260 20118 30071 40185 53007 81031
  333 55300 20000 30000 41369 81366=
10382 32983 10802 10269 20117 30148 40190 53007 81040
  333 55300 81364=
10384 36/// /1302 10277 20107 30133 40189 53006
  333 55300 20000 30000=
10427 21983 62405 10222 20120 39233 48572 51007 70162 85031
  333 55300 20000 30000 69907 85361 83080 96460 96414=
10430 27980 71601 10269 20142 39994 40174 53010 72360
  333 55300 20000 30000 69907 87/62=
10439 42970 70000 10230 20169 39976 40185 52010 86071
  333 86364=
10453 42984 31706 10206 20112 38931 48578 53004 83030
  333 55300 83363=
10496 37982 01002 10247 20134 30114 40194 53010 700//
  333 55300 20000 30000=
10499 32980 11503 10219 20141 39931 40208 53007 80002
  333 55300 20000 30000 81073=
10501 32982 52702 10267 20169 39946 40179 53013 84071
  333 55300 84363=
10513 32984 61302 10249 20165 30065 40179 53011 82072
  333 55300 20000 30000 82363 86080=
10532 35977 3//01 10232 20163 39943 40178 53008
  333 55300 20000 30000 83/62=
10544 32986 32504 10216 20119 39168 48577 51007 82031
  333 55300 82366=
10554 32982 32303 10241 20150 39818 40184 53007 81031
  333 55300 20000 30000 81363 83080=
10567 32989 21304 10228 20159 39831 40187 53006 80001
  333 55300 20000 30000 82076=
10578 32985 01605 10194 20097 38875 48585 53004
  333 55300 20000 30000=
####018000115####
SNDL46 EDZW 092000 RRA
AAXX 09201
10404 42875 49901 10289 20158 30119 40168 52013 81130
  333 81856 83359=
####018001461####
SIDL44 EDZW 092100
AAXX 09211
10022 35973 01005 10221 20165 30162 40171 53001
  333 55300 20000 30000=
10028 32980 61005 10229 20182 30154 40167 53001 85032
  333 55300 20001 30000 85363 83080=
10033 42975 41205 10210 20170 30137 40176 56001 84031
  333 84364=
10037 42980 40602 10223 20147 30146 40175 56002 84031
  333 84364 83070=
10038 42965 30802 10213 20161 30153 40174 57001 82031
  333 82366 83075=
10042 35561 81303 10213 20185 30177 40181 56003
  333 55300 82/29 88/62=
10067 NIL=
10093 35982 21302 10225 20177 30151 40198 51008
  333 55300 81/63=
10097 27978 01104 10225 20187 30185 40199 52005 72250
  222// 06219
  333 55300 69907=
10126 42970 69901 10255 20186 30150 40164 52006 86030
  333 86363=
10129 35960 70903 10275 20181 30150 40162 53005
  333 55300 20000 30000 85/65 87/81=
10130 35962 41003 10222 20192 30152 40157 53002
  333 55300 83/62 84/67=
10136 42965 51003 10256 20190 30131 40167 53004 85031
  333 85364=
10139 35969 00501 10227 20177 30146 40159 53011
  333 55300 20000 30000=
10142 26975 10702 10239 20185 30142 40172 53001
  333 55300 69907 81/67=
10146 35968 80702 10236 20177 30154 40170 53004
  333 55300 86/64 88/67=
10150 35964 50801 10196 20167 30142 40175 56001
  333 55300 20000 30000 84/71 85/82=
10152 35964 20504 10227 20194 30174 40176 55001
  333 55300 82/59=
10156 35963 01001 10214 20185 30158 40178 53004
  333 55300 20000 30000=
####018001633####
SIDL48 EDZW 092100
AAXX 09211
10564 NIL=
10565 35960 61404 10247 20157 39895 40175 53008
  333 55300 81/74 86/80=
10569 35980 02502 10221 20146 39750 40194 53006
  333 55300 20000 30000=
10574 35983 01703 10213 20114 39203 48583 53005
  333 55300=
10577 35981 01502 10244 20139 39715 40189 53006
  333 55300 20000 30000=
10579 37/// /1603 10228 20119 39482 40200 53007 7////
  333 55300=
10582 35981 01505 10192 20115 39222 48578 53004
  333 55300 20000 30000=
10591 35984 00902 10233 20131 39831 40195 53006
  333 55300=
10613 NIL=
10615 35985 41701 10230 20147 39646 40190 53009
  333 55300 20000 30000 82/63 84/81=
10618 NIL=
10628 35980 03303 10236 20176 30059 40187 53013
  333 55300=
10635 35980 42102 10217 20139 39271 48574 53006
  333 55300 83/61 84/65=
10646 35971 02501 10218 20174 39803 40193 52012
  333 55300=
10648 35971 02602 10260 20123 39676 40187 53007
  333 55300 20000 30000=
10658 27975 81001 10250 20166 39864 40184 51010 70040
  333 55300 69907 88/69=
10671 35981 30204 10211 20155 39794 40190 53006
  333 55300 20000 30000 83/68=
10686 35980 53001 10217 20114 39495 40197 53007
  333 55300 84/79 85/80=
10704 35982 22901 10271 20123 39774 40182 52007
  333 55300 20000 30000 82/81=
10706 35984 02901 10248 20154 39752 40189 53008
  333 55300=
10724 35960 62504 10245 20141 39564 40186 53006
  333 55300 20000 30000 86/62=
10733 35981 83101 10247 20159 39915 40189 53010
  333 55300 20000 30000 81/78 88/81 88/81=
10736 NIL=
10739 35978 02703 10261 20164 39825 40184 53010
  333 55300 20000 30000 41387=
10743 NIL=
####018000107####
SICV20 GVAC 092100
METAR GVAC 09214
08594 41459 53502 10252 20221 40151 70610 84201 333 58014 84815=
####018000187####
SIJD50 OJAM 092100
AAXX 09214
40250 42960 03606 10292 21034 39298 40031 52004=
40260 42960 03606 10306 20112 39315 40036 52004=
40265 42960 00000 10225 20177 39339 40019 54003=
####018000115####
SMID02 WIIX 091800 RRC
AAXX 09184
97086 32560 32708 10237 20218 30094 40119 56006 82521
  333 56000 82620=
####018000097####
SIRM20 LUKK 092100
AAXX 09211
33815 41598 63405 10185 20168 39960 40158 52001 70298 85530=
####018000232####
SIAA19 LFVW 092100
AAXX 09214
89661 46/// /2453 11197 38982 4//// 5////=
89659 46/// /3020 11500 29046 37570 4//// 5////=
89662 46/// /2834 11168 29032 39671 4//// 5////=
89666 46/// /1920 11169 29057 39599 4//// 5////=
####018000443####
SIAT01 TAPA 092101
AAXX 09214
78862 41478 40815 10294 20231 30129 40152 70600 84200 
333 58005 84818=20272 58007 82821=0308 20272 58009 70002 83818 85636= TEMPO 0900/0918 SHRA=

TAF TQPF 081600Z 0818/0918 10014KT 9999 SCT022
PROB40 TEMPO 0900/0918 SHRA=

TAF TUPJ 081600Z 0818/0918 10014KT 9999 SCT023
PROB40 TEMPO 0900/0918 SHRA=


MPO 0812/0912 SHRA=        0700/0724 5000 SHRA FEW013CB BKN015 BKN080 PROB30 TEMPO 0700/0708 TSRA SCT012CB==####018000091####
SILY20 HLLT 092100
AAXX 09214
62010 41958 00000 10244 20205 30087 40184 53011 70500=
####018000228####
SIQB21 LQSM 092100
AAXX 09211
14542 42970 10000 10185 20147 30044 40228 52013 80001 333 81080 95900
=
14648 42970 03202 10237 20110 30086 40201 53016=
14652 41000 93610 10066 20061 38013 48566 55000 74542 333 89/00=
####018000085####
SIQB20 LQSM 092100
AAXX 09211
14654 42965 00903 10165 20115 39518 40243 52030=
####018000115####
SITV20 NGFU 092100
AAXX 09214
91643 41498 82505 10246 20233 40133 51012 78096 8337/ 333
5659/ 83918 88460=
####018000241####
SNHK22 VHHH 092100
AAXX 09211
45032 36/// /9901 10269 20242 30070 40086 54000=
45035 36/// /1702 10269 20235 30043 40083 52001=
45039 36/// /2203 10289 20248 30065 40080 52001=
45044 36/// /2006 10260 20247 39994 40084 54000=

####018000238####
SNHK22 VHHH 092100
AAXX 09211
45032 36/// /9901 10269 20242 30070 40086 54000=
45035 36/// /1702 10269 20235 30043 40083 52001=
45039 36/// /2203 10289 20248 30065 40080 52001=
45044 36/// /2006 10260 20247 39994 40084 54000=
####018000147####
SIFR11 LFPW 092100 CCA
AAXX 09214
07149 22975 21103 10262 20191 30076 40179 53010 81081
  333 60007 81360 90710 91104 93100
  555 60005=
####018004288####
SIFR11 LFPW 092100
AAXX 09214
07005 26/// /2503 10177 20150 30112 40200 53019
  333 60007 90710 91110
  555 60005=
07015 22980 52804 10256 20175 30127 40181 53012 81031
  333 60007 81366 85076 90710 91106 93100
  555 60005=
07020 22964 22207 10160 20152 30197 40204 53009 80001
  333 60007 82066 90710 91112
  555 60005=
07027 24980 /3402 10176 20150 30126 40205 53013 700//
  333 60007 90710 91107
  555 60005=
07037 24986 /3408 10202 20136 30020 40197 53019 700//
  333 60007 90710 91113
  555 60005=
07070 24983 /1103 10239 20185 30078 40183 53009 700//
  333 60007 90710 91105
  555 60005=
07110 22575 12504 10166 20144 30095 40208 53008 81500
  333 60007 81622 90710 91105 93100
  555 60005=
07117 22570 32605 10171 20153 30140 40209 53009 81250
  333 60007 90710 91110 92428
  555 60005=
07130 24980 /3508 10197 20136 30151 40202 53015 700//
  333 60007 90710 91113
  555 60005=
07139 26/// /0507 10215 20121 30026 40194 53020
  333 60007 90710 91111
  555 60005=
07149 24970 /1103 10262 20191 30076 40179 53010 700//
  333 60007 90710 91104
  555 60005=
07168 26/// /3203 10230 20185 30043 40172 53010
  333 60007 90710 91105
  555 60005=
07181 24986 /1204 10242 20167 39798 40187 53006 700//
  333 60007 90710 91106
  555 60005=
07190 24981 /0000 10236 20180 30016 40190 53009 700//
  333 60007 90710 91105
  555 60005=
07207 22970 13214 10185 20159 30159 40210 53015 80001
  333 60007 81076 90710 91124
  555 60005=
07222 22980 02605 10203 20167 30166 40197 53019
  333 60007 90710 91110
  555 60005=
07240 22980 70000 10277 20210 30048 40174 53012 8707/
  333 60007 84363 84367 90710 91107 93100
  555 60005=
07255 26/// /2603 10281 20193 39989 40177 53014
  333 60007 90710 91105
  555 60005=
07280 24970 /0000 10251 20176 39924 40183 53014 700//
  333 60007 90710 91104
  555 60005=
07299 22981 73005 10240 20189 39874 40185 53011 82032
  333 60007 82364 87070 90710 91108 93100
  555 60005=
07314 22965 22811 10193 20176 30186 40213 52016 81078
  333 60007 81358 90710 91115
  555 60005 92437=
07335 24985 /2706 10256 20175 30046 40183 53013 700//
  333 60007 90710 91112
  555 60005=
07434 24969 /1805 10227 20193 39742 40200 53014 700//
  333 69907 90710 91113
  555 60005=
07460 22780 72004 10276 20183 39815 40181 52019 84282
  333 60007 84850 85076 90710 91110 93100
  555 60005=
07471 24970 /1802 10202 20143 39278 48859 53019 700//
  333 60007 90710 91106
  555 60005=
07481 22980 61811 10283 20159 39911 40181 53014 82081
  333 60007 82363 85076 90710 91121 93100
  555 60005=
07510 22980 52508 10209 20183 30154 40217 53013 84081
  333 60007 84360 90710 91113 93100
  555 60005=
07535 26/// /1702 10224 20209 39913 40213 53020
  333 60007 90710 91106
  555 60005=
07558 26/// /2304 10210 20149 39410 40213 53014
  333 60007 90710 91107
  555 60005=
07577 26/// /2202 10262 20159 30122 40207 51024
  333 60007 90710 91110
  555 60005=
07591 24/// /3202 10238 20163 39233 4//// 52016 700//
  333 60007 90710 91110
  555 60005=
07607 24970 /2704 10205 20157 30160 40229 53015 700//
  333 60007 90710 91110
  555 60005=
07621 22465 83004 10205 20159 39809 40228 53012 885//
  333 60007 88619 90710 91107 93100
  555 60005=
07627 26/// /2601 10199 20182 39751 40223 53010
  333 60007 90710 91104
  555 60005=
07630 21560 52103 10215 20194 30047 40221 52016 72998 85330
  333 60027 84630 81956 90710 91109 93100
  555 60025=
07643 21260 72205 10230 20216 30203 40212 52011 78086 8428/
  333 69907 81706 84361 90710 91107
  555 60005=
07650 22980 51202 10237 20181 30174 40211 53007 82082
  333 60007 82363 85075 90710 91106 93100
  555 60005=
07661 22960 03210 10236 20207 30053 40210 53006
  333 60007 90710 91117
  555 60005=
07690 22966 62202 10261 20228 30172 40204 51007 80001
  333 60007 86073 90710 91105 93100
  555 60005=
07747 24566 60000 10232 20211 30163 40214 51017 700//
  333 60007 90710 91103
  555 60005=
07761 22/70 20903 10253 20203 30189 40199 53008 80001
  333 60007 82076 90710 91104
  555 60005=
07790 22965 12202 10245 20220 30184 40198 53003 80001
  333 60007 81076 90710 91103
  555 60005=
####018000121####
SIDL46 EDZW 092100 CCA
AAXX 09211
10381 32980 11404 10228 20134 30106 40189 53006 81041
  333 55300 81362 99326=
####018000636####
SIDL49 EDZW 092100 RRA
AAXX 09211
10765 42982 51402 10234 20138 39745 40194 52013 83032
  333 83365 83080=
10771 42980 30802 10237 20123 39723 40198 53010 82031
  333 82362=
10827 42984 63202 10206 20135 39168 48583 51007 82032
  333 82362 85074=
10837 42980 49901 10234 20155 39574 40192 52010 82031
  333 82366 83078=
10853 42980 20202 10216 20167 39755 40198 52011 81031
  333 81367=
10856 42982 20802 10219 20137 39562 40197 53008 81031
  333 81367=
10857 42980 50902 10231 20127 39493 40193 53006 85030
  333 85366=
10945 35968 80000 10194 20166 39436 40196 53006
  333 55300 88/64 88/70 88/73=
####018000405####
SIDL48 EDZW 092100 RRA
AAXX 09211
10564 35981 31803 10234 20121 39623 40189 53007
  333 55300 83/80=
10613 42982 32402 10246 20145 39641 40187 52011 82030
  333 82363=
10618 42982 42002 10226 20159 39764 40195 53011 82032
  333 82364 83080=
10736 35974 22901 10195 20160 39913 40196 53012
  333 55300 82/72=
10743 42982 31202 10225 20167 39656 40192 52008 81031
  333 81366 83080=
####018000152####
SNAA01 KWBC 091900 RRA
AAXX 09194
89065 46/// /3303 11186 21202 39711 49793 57005 91940=
89065 46/// /3303 11186 21202 39711 49793 57005 91940=
####018000228####
SIGY31 SYCJ 092100
AAXX 09210 
81001 NIL=
81002 41562 70105 10300 20249 40104 70522 84903 333 30/// 56209      
57941 58004 84820 86080 81921=
81005 NIL=
81006 NIL=
81010 NIL=
81058 NIL=
81080 NIL=
81100 NIL=####018000118####
SIAC01 KWNB 092100
OOXX
ACSAMS02 09211 99784 70729 26082 01301 46/// /1909 10011 20008 39922
92101 333 91214=
####018000698####
SIVD15 KWNB 092100 RRC
BBXX
41035 09211 99345 70773 46/// /2006 10276 20247 40104 57014 92050
22200 00273 10901 313// 40901 70004 333 91207 555 11067 22072
32014 41908 62049 196062 193065 189062 187068 187066 189067=
41040 09211 99145 70530 46/// /0808 10287 40142 57005 92050 22200
00290 10704 20704 70020 333 91209 555 11082 22087 32034 40709
62049 076077 072080 071078 068069 071071 072069 80709 92034=
41038 09211 99341 70777 46/// /2109 10278 40097 92100 22200 00277
333 91212=
42001 09211 99259 70897 46/// /0704 10289 20241 40147 56032 92050
22200 00305 10601 3//// 40601 70004 333 91205 555 11037 22038
32000 40405 62049 064037 056038 059040 046039 052041 053031=
####018001210####
SIVD22 KWNB 092100 RRB
BBXX
46026 09211 99378 71228 46/// /2703 10118 40157 54000 92050 22200
00122 11402 20301 317// 41402 70009 333 91204 555 11033 22035
32034 42604 62049 266032 262033 260033 258033 261027 263028=
46086 09211 99325 71180 46/// /2806 10155 40140 58007 92050 22200
00174 11202 20401 318// 41202 70010 333 91207 555 11066 22069
31959 42907 62049 284063 285061 282060 284061 291062 287059=
46089 09211 99459 71258 46/// /3408 10169 40179 51008 92050 22200
00161 10603 20603 3//// 41301 70016 333 91210 555 11086 22094
32039 43410 62049 341080 342082 341081 344079 342079 341078 83409
92029=
46041 09211 99474 71247 46/// /3204 10152 40167 54000 92050 22200
00145 10702 20401 3//// 40702 70012 333 91205 555 11042 22048
32047 43105 62049 319038 318024 283011 236014 224016 219014=
46041 09211 99474 71247 46/// /3204 10152 40167 92050 22200 00145
10702 20401 3//// 40702 70012 333 91205 555 11042 22048 32047
43105 62049 319038 318024 283011 236014 224016 219014=
46011 09211 99349 71209 46/// /3306 10131 40144 58008 92050 22200
00127 11202 20401 325// 41202 70010 333 91206 555 11059 22064
32016 43307 62049 330054 332054 330055 335058 333060 337050=
####018000925####
SIVD20 KWNB 092100 RRC
BBXX
44007 09211 99435 70701 46/// /1607 10197 20197 40119 58026 92050
22200 00175 10402 20402 3//// 40801 70010 333 91208 555 11077
22086 32005 41708 62049 164068 164065 166067 169067 169071 167067=
44014 09211 99366 70748 46/// ///// 10258 40113 56013 92050 22200
00261 10703 70013=
44013 09211 99423 70707 46/// /1507 10227 20207 40126 56028 92050
22200 00206 10301 20301 300// 40601 70007 333 91208 555 11075
22085 31951 41508 62049 150068 149068 148066 148066 148069 148072=
44017 09211 99407 70720 46/// /1204 10244 20238 40127 56031 92050
22200 00244 10702 20401 300// 40702 70011 333 91204 555 11037
22039 32039 41204 62049 116035 118035 114032 111032 108035 106038=
44025 09211 99403 70732 46/// /1304 10252 20234 40119 58025 92050
22200 00253 10803 20301 316// 40802 70013 333 91205 555 11046
22048 32023 41306 62049 132043 133045 128048 125049 126041 127039=
####018001104####
SIVD17 KWNB 092100 RRA
BBXX
46066 09211 99527 71550 46/// ///// 10082 40034 51025 92050 22200
00081 10605 70025 555 83600 91959=
46001 09211 99563 71480 46/// /0906 10095 40071 57004 92050 22200
00094 10704 20402 300// 40703 70020 333 91208 555 11059 22063
32025 40910 62049 086055 087060 088065 088056 089053 089052=
46082 09211 99597 71434 46/// /1004 10108 40141 56003 92050 22200
00120 10803 20401 300// 40803 70013 333 91205 555 11044 22045
32020 40805 62049 097042 078042 076043 078043 069043 067040 80805
92020=
46081 09211 99608 71483 46/// /2001 10083 40139 57003 92050 22200
00110 1//00 70001 333 91201 555 11006 22006 31958 42902 62049
195006 199004 189005 205004 258006 283007=
46035 09211 99571 71778 46/// /0111 10073 40060 54000 92050 22200
11007 20604 300// 41005 70033 333 91213 555 11106 22113 32001
40214 62049 012104 010104 008105 014103 016112 019114 80112 92001=
51101 09211 99243 71621 46/// /0807 10250 40209 51005 92050 22200
00258 10604 20603 310// 41102 70018 555 11076 22080 32014 40810
62049 080072 082073 088077 083083 085082 086080=
####018000142####
SICS01 MRLM 092100
AAXX 09214
78767 31565 83606 10299 20239 30080 40090 5/020 70522 81106
333
    06000 30/// 59010 81830 87076=
####018000698####
SIVD45 KWNB 092100 RRD
BBXX
45008 09211 99443 70824 46/// /2801 10193 39920 40130 58007 92050
22200 00185 10301 20301 70003 333 91201 555 11012 22014 31950
43103 62049 277010 284010 300014 310018 308021 311022=
45012 09211 99436 70774 46/// /2703 10215 30010 40099 54000 92050
22200 00222 10301 20301 70004 333 91204 555 11029 22030 31950
42604 62049 271029 285027 280019 313017 328020 351030=
45002 09211 99453 70864 46/// /2104 10217 20186 39928 40138 58012
92050 22200 00210 1//00 70001 333 91205 555 11044 22050 32041
42105 62049 206040 206034 203032 199032 200028 200030=
45022 09211 99454 70851 46/// /2903 10202 40170 54000 92100 22200
00196 10201 70003 333 91204=
####018000350####
SIVE15 KWNB 092100 RRB
BBXX
51002 09211 99171 71578 46/// /0708 10249 40164 54000 92050 22200
00254 10703 20602 3//// 40702 70015 333 91209 555 11082 22087
32049 40709 62049 070077 070074 069075 072074 074075 078074=
51100 09211 99236 71539 46/// ///09 10243 40207 51004 92050 22200
00248 11104 20603 309// 41102 70020 555 11098 22104=
