####018001404####
SIPY01 SGAS 092100
AAXX 09214
86011 31570 62306 10320 20180 40134 57016 71722 86900 333 85633
81940=
86033 32870 51002 10312 20204 40133 57013 85080 333 85357=
86065 32470 82310 10220 20156 40181 57002 886// 333 86713 88620=
86068 21358 82008 10216 20176 40154 51003 76122 886// 333 69907
 88707=
86086 32570 51804 10280 20168 40148 54000 81270 333 81833 84457=
86097 31865 62116 10232 20141 40136 52003 70522 86070 333 86358=
86128 32570 81810 10214 20178 40159 53003 885// 333 88625=
86134 32670 81812 10222 20187 40164 52006 885// 333 88640=
86170 22270 82112 10186 20176 40162 53002 886// 333 69917 88706=
86185 32270 71103 10194 20171 40175 52007 87670 333 82707 84620
 84457=
86192 21210 80000 10176 20165 40128 51001 76262 885// 333 60167=
86210 32370 81810 10200 20168 40135 56006 885// 333 88620=
86218 21460 80000 10178 20167 40174 55001 79599 8697/ 333 60137
85613 81940 88457=
86221 21370 80000 10178 20162 40190 57001 70299 885// 333 60067
 88610=
86233 21570 80000 10172 20166 40161 54000 70266 885// 333 60037
 88620=
86246 31550 80906 10174 20167 40182 58004 76066 8557/ 333 85625
88457=
86255 32370 81804 10170 20153 40170 55010 886// 333 88710=
86268 32470 72302 10176 20167 40180 52005 85500 333 85612=
86285 32470 81405 10188 20175 40188 53010 885// 333 88620=
86297 31468 70902 10210 20171 40171 53002 70425 87600 333 87715=
####018001265####
SINO23 ENMI 092100
AAXX 09211
01015 NIL=
01023 41688 72701 10136 20076 30058 40150 52006 70222 8587/=
01033 46/// /1401 10124 20096 30114 40144 50003=
01059 46/// /3604 10132 20098 30141 40151 52006=
01089 41X20 90103 10107 20099 30037 40142 50004 71064=
01167 41588 32103 10140 20082 30132 40136 52002 70110 82234=
01180 NIL=
01210 46/// /3402 10134 20106 30093 40119 57013=
01228 46/// /1104 10135 20092 30125 40132 58018=
01240 46/// /0904 10134 20089 30117 40136 58017=
01304 46/// /1408 10125 20111 30077 40107 58024=
01311 41250 81404 10136 20125 30066 40127 58014 76165 887//=
01340 26/// /1204 10124 20081 39299 40143 55011 333 60005=
01355 26/// ///// 10181 20077 30116 40121 55021 333 60005=
01360 41682 80903 10122 20061 70322 875/8=
01392 26/// /1602 10170 20092 39948 40165 53005 333 60005=
01406 NIL=
01411 21670 81610 10176 20098 30107 40132 58013 70222 8257/ 333
      60005=
01425 26/// /0000 10149 20105 30087 40165 58002 333 60005=
01433 46/// /1403 10102 20081 38932 40152 56004=
01442 NIL=
01450 NIL=
01452 21782 60501 10144 20114 30155 40176 57007 70122 85031 333
      60005=
01473 46/// /1501 10189 20097 39961 40160 52002=
01494 26/// /1805 10164 20131 30111 40175 50000 333 60005=
####018000629####
SIMC21 GMMC 092100
AAXX 09214
60096 32250 63617 10195 20173 40130 56002 83602
  333 83705=
60101 32958 30107 10246 20166 40177 53012 80002
  333 83070=
60115 32962 02203 10262 20156 40174 53019=
60135 32450 33405 10218 20194 40177 50008 83500
  333 83615=
60150 32556 50000 10282 20177 39547 40164 58010 82980
  333 82826 81933=
60155 32456 60404 10228 20206 40174 53012 86600
  333 86710=
60156 45459 30107 10225 20193 40180 50016 83500
  333 83616=
60230 42556 60105 10357 20144 40138 52016 82280 92049
  333 82830 84360=
60252 32960 23402 10230 20185 40142 53016 82030
  333 82360 95800=
####018000486####
SIMC22 GMMC 092100
AAXX 09214
60107 32960 03002 10228 20203 40177 53002=
60141 32558 4204/ 10284 20185 39536 40163 51012 82230
  333 82830 83360=
60191 32662 81406 10325 20150 40137 52016 889//
  333 85833 84940=
60210 32558 33216 10341 20097 39024 48581 58001 82230
  333 82830=
60265 32660 43604 10352 20027 38931 48586 53011 83280
  333 83840=
60060 NIL=
60105 NIL=
60106 NIL=
60127 NIL=
60185 NIL=
60190 NIL=
60195 NIL=
60220 NIL=
60318 NIL=
####018001501####
SINO25 ENMI 092100
AAXX 09211
01025 47/74 31702 10131 20097 30136 40147 52008 761//=
01052 26/// /0303 10115 20064 30051 40149 52004 333 60005=
01122 26/// /2402 10141 20065 30065 40152 50001 333 60005=
01132 26/// /0701 10116 20078 39781 40160 50001 333 60005=
01156 26/// /1806 10127 20095 30124 40134 57005 333 60005=
01203 46/// /1204 10134 20108 30061 40108 58021=
01233 26/// /0901 10138 20044 333 60005=
01265 26/// /1902 10128 20040 39577 40140 55002 333 60005=
01273 26/// /1401 10126 20081 39945 40136 58008 333 60005=
01307 46/// /1511 10130 20117 30086 40113 58023=
01321 26/// /1601 10116 20099 39876 40123 56014 333 69975=
01327 26/// /0803 10114 20100 333 60045=
01350 26/// /1308 10091 20080 38781 40137 56017 333 69995=
01361 26/// /0603 10119 20034 39125 40117 58023 333 60005=
01375 46/// /2008 10116 20021=
01378 26/// /1303 10176 20074 39856 40135 58007 333 60005=
01385 26/// /1902 10175 20096 39894 40154 57002 333 60005=
01412 26/// /1514 10178 20078 30109 40139 57011 333 60005=
01422 26/// /2203 10199 20073 333 60005=
01441 26/// /1904 10106 20089 39196 40157 55004 333 69925=
01467 46/// /2302 10168 2//// 30169 40176 57003=
01469 26/// /1503 10186 20102 39989 40154 58001 333 60005=
01477 26/// /1101 10166 20113 333 60005=
01480 26/// /3303 10201 20088 333 60005=
01484 26/// /1403 10135 20099 30020 40175 58001 333 60005=
01490 26/// /1702 10135 20109 333 60005=
01495 46/// /1808 10172 20137 30165 40177 50003=
####018001131####
SINO26 ENMI 092100
AAXX 09211
01121 46/// /1904 10139 20077 30135 40147 58003=
01143 26/// /0201 10124 20098 333 60005=
01150 26/// /1201 10098 20065 333 60005=
01225 46/// /0604 10146 20104 30122 40127 58019=
01230 26/// /1902 10133 20053 333 60005=
01232 26/// /2002 10176 20080 30036 40112 58019 333 60005=
01234 26/// /2401 10150 20102 333 60005=
01253 26/// /2301 10111 20081 333 60005=
01254 26/// /0000 10125 20092 333 60005=
01257 NIL=
01277 NIL=
01291 26/// /3001 10116 20082 333 60005=
01332 26/// /1901 10135 20112 333 69965=
01366 46/// /1406 10086 20037 38551 40119 58021=
01376 26/// /2602 10178 20083 333 60005=
01383 46/// /1303 10144 20088 39847 40151 57004=
01386 26/// ///// 10182 20096 333 60005=
01416 26/// ///// 10181 20081 333 60005=
01419 26/// /2004 10173 20124 333 60005=
01430 26/// ///// 10160 20101 333 60005=
01434 26/// /0000 10107 20090 39219 40163 56002 333 60005=
01455 NIL=
01468 26/// /1901 10165 20097 333 60005=
01470 26/// /1501 10190 20109 30054 40163 52003 333 60005=
01476 NIL=
01481 26/// /1903 10170 20111 333 69935=
01488 NIL=
####018001178####
SINO24 ENMI 092100
AAXX 09211
01037 26/// /1801 10133 20112 30146 40152 53016 333 60025=
01046 46/// /2501 10136 20095 30138 40145 54000=
01058 26/// /3602 10120 20061 39698 40147 52008 333 60005=
01065 26/// /0201 10121 20097 39992 40149 53012 333 60005=
01092 46/// /3005 10068 20059=
01107 26/// /2006 10114 20097 30128 40132 57003 333 60005=
01114 26/// /1903 10144 20086 30136 40146 54000 333 60005=
01144 46/// /1605 10117 20086=
01199 NIL=
01245 NIL=
01259 26/// /0403 10147 20084 30122 40144 58012 333 60005=
01262 NIL=
01278 NIL=
01293 26/// /3402 10155 20063 39936 40137 58003 333 60005=
01329 26/// /0901 10138 20135 30080 40139 58007 333 60025=
01337 26/// /1701 10140 20115 30077 40141 55006 333 69985=
01344 46/// ///// 10122 20084=
01373 26/// /1501 10174 20080 39944 40139 58010 333 60005=
01374 NIL=
01380 46/// /1501 10101 20027=
01389 NIL=
01393 46/// /1401 10116 20046 39376 40154 54001=
01424 26/// ///// 10147 20119 30150 40153 58006 333 60005=
01431 26/// /1904 10137 20085 39520 40163 57003 333 60005=
01436 NIL=
01465 26/// /2701 10157 20128 30166 40180 58006 333 60005=
01471 NIL=
01483 NIL=
####018000112####
SMAA41 KPAL 092100
AAXX 09211 
89061 17964 02208  21167 39718 49725 52009 60033 70077
333  91011 91111=
####018001278####
SIHO20 MHTG 092100
AAXX 09214
78700 32578 52306 10316 20255 30112 40117 57018 81131
 333  01000 59003 81830 83358=
78703 31565 40916 10322 20248 30108 40110 57017 70544 84943
 333  06200 58015 82920 82820 84075=
78704 31560 70908 10308 20253 30100 40105 56005 71744 84963
 333  06200 59005 81922 83824 84358=
78705 31570 50107 10312 20248 30090 40108 57021 71544 84933
 333   06100 58011 83922 81822 83070=
78706 31570 53604 10317 20250 30110 40115 57020 71744 83904
 333  06400 58000 81926 82826 84075=
78707 31560 60904 10310 20205 39376 40115 70544 84230
 333  02000 58000 84825=
78708 31560 73610 10327 20268 30066 40096 58026 71544 84906
 333  06106 58026 81930 83830 87275=
78711 21558 82108 10263 20255 30110 40125 56005 76396 83907
 333  09209 58016 60050 84930 83830 88275=
78714 NIL=
78717 21560 73605 10256 20197 38934 40100 57019 72996 84962
 333  56200 58008 69917 81925 83825 84360 86075=
78718 31658 70000 10234 71794 86963
 333   06000 83935 83835=
78719 32570 70404 10229 20155 38342 40086 56020 83231
 333  56220 58000 83822 86357=
78720 31560 70306 10264 20185 39016 40082 57023 70544 85270
 333  02120 58006 85828 86358=
78724 32578 60204 10316 20209 30030 40087 57021 84170
 333  01100 59008 84832=
####018000088####
SIMZ20 FQMA 092100
AAXX 09214
67341 42580 19901 10176 20163 40212 51002 81400=

####018001135####
SNCN19 CWAO 092000
OOXX
SEP63 09181 99592 10176 ///// 00401
     26/// /1302 10248 29042 30130 91810 333 60000=
SEP63 09181 99592 10176 ///// 00401
     26/// /1201 10254 29042 30130 91820 333 60000=
SEP63 09181 99592 10176 ///// 00401
     26/// /1102 10253 29042 30130 91830 333 60000=
SEP63 09181 99592 10176 ///// 00401
     26/// /1402 10250 29042 30130 91840 333 60000=
SEP63 09181 99592 10176 ///// 00401
     26/// /1401 10250 29042 30130 91850 333 60000=
SEP63 09191 99592 10176 ///// 00401
     26/// /1001 10250 29041 30130 91900 333 60000=
SEP63 09191 99592 10176 ///// 00401
     26/// /1101 10250 29043 30130 91910 333 60000=
SEP63 09191 99592 10176 ///// 00401
     26/// /1201 10248 29043 30130 91920 333 60000=
SEP63 09191 99592 10176 ///// 00401
     26/// /1401 10247 29043 30130 91930 333 60000=
SEP63 09191 99592 10176 ///// 00401
     26/// /1401 10246 29044 30130 91940 333 60000=
SEP63 09191 99592 10176 ///// 00401
     26/// /1101 10245 29044 30130 91950 333 60000=
SEP63 09201 99592 10176 ///// 00401
     26/// /0701 10244 29045 30130 92000 333 60000=

####018000112####
SMAA41 KPAL 092100
AAXX 09211 
89061 17964 02208  21167 39718 49725 52009 60033 70077
333  91011 91111=
####018000306####
SIVD15 KWNB 092100 RRD
BBXX
41010 09211 99289 70785 46/// /2405 10288 20215 40146 56012 92050
22200 00290 10402 20401 300// 40801 70008 333 91206 555 11055
22058=
41009 09211 99285 70802 46/// /1903 10289 20201 40150 58015 92050
22200 00287 10901 300// 40901 70004 333 91203 555 11030 22034=
####018000105####
SICY20 LCLK 092100
AAXX 09214
17609 42563 13406 10259 20222 30093 40096 51006 81500
  333 81620=
####018000101####
SIQT20 OTBD 092100
AAXX 09214
41170 42964 11504 10335 20267 39987 40000 81030 333 59004 81364=
####018000125####
SIVD20 KWNB 092100 RRD
BBXX
44039 09211 99411 70727 46/// /1604 10261 20230 40128 92045 22200
1//00 70002 333 91206=
####018000093####
SIVX81 EDZW 092100
BBXX
BSH02 09211 99542 10079 46/// /////
22200 00199 10600 70002=
####018000087####
SIVX81 EDZW 092100
BBXX
BSH05 09211 99550 10079 46/// /////
22200 11301 70003=
####018000103####
SIAT20 TKPK 092100
AAXX 09124
78858 42580 10712 10297 20245 30097 40153 81100 333
58006 81820=
####018000103####
SMAA17 LFVW 091800 RRD
AAXX 09184
89610 46/// /1336 11156 39736 4//// 5////
  333 90700 91145=
####018000265####
SICY20 LCLK 092100
AAXX 09214
17600 42470 13305 10240 20209 30095 40104 51007 81500
  333 81615=
17601 42465 12709 10247 20207 30063 40093 51010 81400 92050 333
 81712=
17607 NIL=
17609 42563 13406 10259 20222 30093 40096 51006 81500
  333 81620=
####018002004####
SIRO21 YRBK 092100
AAXX 09211
15015 22597 41802 10163 20133 39634 42848 50008 81540 333 60007 91003
91103=
15020 22997 43103 10194 20150 30008 40199 50004 80008 333 60007 91005
91107=
15090 22597 83203 10209 20161 30056 40178 54000 85507 333 55300 10104
2//// 3//// 60007 91006 91108=
15108 21/91 92906 10076 20076 38166 48569 53003 74544 333 60007=
15120 22697 42302 10173 20166 39728 40210 51006 82540 333 55300 10189
2//// 3//// 60007 91003 91103=
15150 22997 03205 10202 20160 39967 40185 54001 333 60007 91007 91110
=
15170 23/// /0400 10144 20127 39440 42833 51008 333 60007 91001 91102
=
15200 22998 03302 10207 20147 30066 40205 52009 333 60007 91003 91103
=
15230 22997 02102 10177 20168 39922 40206 52009 333 55300 10179 2////
3//// 60007 91002 91102=
15260 22998 52504 10171 20147 39683 40203 50004 85070 333 60007 91005
91105=
15280 21/90 90212 10052 20052 37572 47129 51003 74584 333 60027 91018
=
15292 22998 33402 10196 20158 39918 40203 50011 83030 333 60007 91003
91103=
15310 21597 53604 10193 20175 30075 40158 51005 70298 83570 333 55300
10127 20001 30001 60017 91009 91109=
15335 21597 83603 10206 20191 30146 40153 51007 70282 8697/ 333 69967
91005 91106=
15346 22997 02000 10197 20143 39902 40181 52011 333 60007 91001 91103
=
15350 21597 63203 10207 20167 30049 40163 58007 70282 86300 333 60017
91006 91106=
15360 22997 83608 10215 20208 30121 40135 51011 8807/ 333 60007 91010
91114 92427=
15410 22997 00602 10220 20155 30089 40181 52009 333 60007 91003 91103
=
15420 22997 33501 10182 20159 30074 40181 52013 83030 333 60007 91001
91103=
15450 22997 50702 10217 20161 39948 40174 51010 83041 333 55300 10146
2//// 3//// 60007 91003 91105=
15460 21597 83201 10180 20178 30140 40163 50005 72582 889// 333 60067
91002 91105=
15470 23/// /1002 10227 20165 30050 40170 52016 333 60007 91004 91105
=
15480 21597 83503 10208 20192 30127 40143 51012 71782 889// 333 69967
91006 91109 92437=
####018000462####
SNVD15 KWNB 092000 RRU
BBXX
42369 09201 99272 70903 46/// /0902 10285 92000 22200 10501 70006=
42370 09201 99273 70905 46/// ///02 10289 92000 22200 10501 70006=
42374 09201 99289 70881 46/// ///02 10308 40149 58014 92000=
42376 09201 99291 70879 46/// /2502 10285 40138 58011 92000 22200
10201 70005=
42392 09201 99272 70900 46/// ///// 1//// 92000 22200 10401 70005=
42887 09201 99282 70885 46/// /0000 10300 20240 92000 22200 10601
70007=
####018000883####
SIIY22 LIIB 092100
AAXX 09214
16020 42962 01606 10270 20189 39923 40197 53023=
16045 NIL=
16059 42965 00204 10247 20210 39859 40190 50005=
16066 42970 03601 10249 20204 39956 40208
52006=
16090 42962 00000 10272 20254 30118 40196 53008=
16105 42965 02004 10268 20215 30195 40201 50006=
16149 42970 01501 10252 20242 30184 40199 53002=
16170 42965 01401 10262 20191 30144 40194 53009=
16191 12985 01603 10211 20155 30191 40204
53006 60002=
16242 42960 02603 10255 20207 30190 40194 51006=
16261 NIL=
16289 42962 03302 10237 20157 30108 40190 52013=
16362 42965 00801 10218 20163 30167 40184 53007=
16405 42970 00707 10260 20211 30184 40197
53006 333=
16453 NIL=
16460 42960 00704 10246 20178 30168 40188 51008=
16490 NIL=
16520 42970 00205 10239 20218 30169 40200 53007=
16560 42570 11704 10250 20177 30190 40196 53009 81100 333 81830=
####018001201####
SIIY21 LIIB 092100
AAXX 09214
16021 42970 03600 10156 20143 38100 48597 51008=
16022 42970 02208 10154 20131 37978 48591 53007=
16033 NIL=
16040 NIL=
16052 42570 22202 10084 21006 36797 47244 53006 82080 333 82330=
16061 42965 01404 10248 20192 39391 42842 53001=
16098 42960 00000 10240 20205 30152 40201 52005=
16138 NIL=
16148 NIL=
16168 42967 03418 10250 20151 39480 42845 53002=
16172 42965 00000 10264 20161 39907 40190 53007=
16179 42982 00000 10242 20078 39550 42851 53010=
16224 42962 02104 10240 20223 39879 40184 52009=
16232 42998 00000 10244 20193 30147 40198 53008 555 0////=
16245 NIL=
16253 42970 01102 10224 20221 30181 40193 52010=
16258 42960 03512 10164 20086 39240 42838 5////=
16263 42970 03411 10166 21008 38983 48560 53004=
16294 42997 00506 10250 20221 30010 40196 54000 555 0////=
16337 NIL=
16344 42960 03303 10130 20130 38377 48554 54000 333 95000 95100=
16434 NIL=
16450 42462 12305 10220 20220 39120 48607 53009 81200 333 81810=
16459 NIL=
16531 42970 02303 10255 20203 30190 40200 51010=
16546 42265 30000 10266 20168 30164 40192 52006 83600 333 83705=
16564 42997 02606 10252 20219 30059 40195 51007 555 0////=
####018000117####
SISC20 FSIA 092100
AAXX 09214
63980 41480 51509 10260 20229 40113 78011 85200
  333 59005 85816 943// 91115=
####018000119####
SIRE15 FMEE 092100
AAXX 09214
61998 26/// /2616 10038 21004 40090
  333 58117 60007 90710 91129
  555 60005=
####018000085####
SIJD50 OJAM 092100
AAXX 09214
40272 42960 00000 10220 20156 39285 40070 54002=
####018000247####
SIVD15 KWNB 092100 RRE
BBXX
42003 09211 99260 70856 46/// /0301 10291 20227 40158 58014 92050
22200 00306 10601 20301 3//// 40601 70004 333 91202 555 11009
22009 32009 41003 62049 041010 076011 087012 106011 093013 091017
80902 92000=
####018000124####
SIVD02 CWAO 092100
BBXX
CGBN 09214 99476 70527 46/// /2415 10252 20168 40116 57008 7//// 8//// 22200 0//// 2//// =

####018000126####
SIVD02 CWAO 092100
BBXX
CG2965 09214 99493 71234 46/// /3110 10215 20179 40144 58012 7//// 8//// 22281 00196 2//// =

####018000124####
SIVD02 CWAO 092100
BBXX
VOLG 09214 99446 70636 46/// /1908 10268 20265 40164 58015 7//// 8//// 22200 0//// 2//// =

####018000124####
SIVD02 CWAO 092100
BBXX
CGJK 09214 99525 71403 46/// /2321 10106 20105 40117 56009 7//// 8//// 22263 00106 2//// =

####018000126####
SIVD02 CWAO 092100
BBXX
VC6750 09214 99609 71157 46/// /1204 10158 20091 49949 58001 7//// 8//// 22200 0//// 2//// =

####018000126####
SIVD02 CWAO 092100
BBXX
CG2350 09214 99421 70831 46/// /3408 10271 20157 49922 58003 7//// 8//// 22200 0//// 2//// =

####018000124####
SIVD02 CWAO 092100
BBXX
CGDX 09214 99627 70697 46/// /2211 10066 20051 40053 56007 7//// 8//// 22231 00047 2//// =

####018000124####
SIVD02 CWAO 092100
BBXX
CGHL 09214 99618 70666 46/// /1118 10025 20021 40048 57006 7//// 8//// 22222 0//// 2//// =

####018000126####
SIVD02 CWAO 092100
BBXX
CG2992 09214 99694 71337 46/// /2917 10176 20083 40103 51005 7//// 8//// 22261 0//// 2//// =

####018000124####
SIVD02 CWAO 092100
BBXX
CGTF 09214 99637 70685 46/// /1410 10061 20055 40060 57010 7//// 8//// 22200 0//// 2//// =

####018000124####
SIVD02 CWAO 092100
BBXX
CGDT 09214 99643 70802 46/// /0608 10021 20019 40043 50001 7//// 8//// 22231 00042 2//// =

####018000124####
SIVD02 CWAO 092100
BBXX
CGDG 09214 99439 70590 46/// /2318 10186 20184 40204 56008 7//// 8//// 22200 0//// 2//// =

####018000124####
SIVD02 CWAO 092100
BBXX
VOPP 09214 99452 70741 46/// /2604 10227 20213 40010 56017 7//// 8//// 22200 0//// 2//// =

####018000127####
SIVD02 CWAO 092100
BBXX
CFN3031 09214 99458 70733 46/// /3508 10211 20204 40087 55013 7//// 8//// 22212 00240 2//// =

####018000124####
SIVD02 CWAO 092100
BBXX
CGBR 09214 99525 71288 46/// /2010 10166 20119 40182 53002 7//// 8//// 22200 0//// 2//// =

####018000125####
SIVD02 CWAO 092100
BBXX
VRYO3 09214 99514 10039 46/// /1903 10248 20144 40178 53009 7//// 8//// 22261 00226 2//// =

####018000121####
SIVD02 CWAO 092100
BBXX
V 09214 99476 70527 46/// /2612 10261 20194 40115 56007 7//// 8//// 22200 0//// 2//// =

####018000126####
SIVD02 CWAO 092100
BBXX
CG2522 09214 99619 71135 46/// /2813 10099 20064 49933 51011 7//// 8//// 22282 00076 2//// =

####018000124####
SIVD02 CWAO 092100
BBXX
VCLM 09214 99468 70712 46/// /2502 10235 20216 40085 53002 7//// 8//// 22200 0//// 2//// =

####018000124####
SIVD02 CWAO 092100
BBXX
CGDP 09214 99507 71275 46/// /1108 10196 20109 40189 58002 7//// 8//// 22232 00162 2//// =

####018000880####
SIIY22 LIIB 092100
AAXX 09214
16020 42962 01606 10270 20189 39923 40197 53023=
16045 NIL=
16059 42965 00204 10247 20210 39859 40190 50005=
16066 42970 03601 10249 20204 39956 40208
52006=
16090 42962 00000 10272 20254 30118 40196 53008=
16105 42965 02004 10268 20215 30195 40201 50006=
16149 42970 01501 10252 20242 30184 40199 53002=
16170 42965 01401 10262 20191 30144 40194 53009=
16191 12985 01603 10211 20155 30191 40204
53006 60002=
16242 42960 02603 10255 20207 30190 40194 51006=
16261 NIL=
16289 42962 03302 10237 20157 30108 40190 52013=
16362 42965 00801 10218 20163 30167 40184 53007=
16405 42970 00707 10260 20211 30184 40197
53006 333=
16453 NIL=
16460 42960 00704 10246 20178 30168 40188 51008=
16490 NIL=
16520 42970 00205 10239 20218 30169 40200 53007=
16560 42570 11704 10250 20177 30190 40196 53009 81100 333 81830=
####018000119####
SIRE15 FMEE 092100
AAXX 09214
61996 26/// /2708 10110 20104 40238
  333 59024 69967 90710 91121
  555 69965=
####018000109####
SNVD15 KWNB 092000 RRV
BBXX
44055 09201 99391 70753 46/// ///// 1//// 92030 22200 00270 10301
70006=
####018000085####
SNPS40 AMMC 092000
AAXX 09204
91844 46/// /0605 10255 40199 22200 00250=


####018000196####
SIDL22 EDZW 092100 RRA
AAXX 09211
10007 46/60 /1206 10220 20196 30160 40160 53002
222// 00197
  333 55300=
10043 46/// /0906 10219 20190 30176 40179 57006
222// 0////
  333 553//=
####018000268####
SICY20 LCLK 092100
AAXX 09214 
17600 42470 13305 10240 20209 30095 40104 51007 81500
  333 81615=
17601 42465 12709 10247 20207 30063 40093 51010 81400 92050 333  
 81712=
17607 NIL=
17609 42563 13406 10259 20222 30093 40096 51006 81500
  333 81620=
####018001030####
SIBO20 SLLP 092100
AAXX 09214
85033 41458 50000 10332 20212 39940 40090 57022 70422 82204
333 10350 56006 58015 82817 85070=
85043 41558 53606 10323 20224 39932 40093 57020 70422 84903
333 10351 56800 58014 83820 81923 85070=
85104 42565 61404 10295 20212 39945 40105 57018 83930
333 10307 56330 58015 82823 81925 86358=
85109 42565 50000 10300 20217 39953 40112 57017 82230
333 10308 56770 58013 82820 85358=
85114 42565 50000 10304 20218 39959 40121 57011 82930
333 10314 56770 58009 81820 81923 85358=
85116 42565 60000 10300 20225 39927 40105 57012 83230
333 10355 56000 58016 83820 86358=
85123 41457 70306 10268 20223 39937 40103 56013 71722 85930
333 10324 56110 58010 84817 81923 86358 96015=
85139 41458 73204 10245 20230 39963 40160 57013 71522 86950
333 10252 56760 58025 85613 81923 87357=
85153 42465 70000 10262 20232 39930 40116 57015 87500
333 10282 56300 58008 87615=
85154 41565 52204 10292 20235 39933 40111 57015 70422 82330
333 10312 56770 58005 81820 81923 83360=
####018000126####
SIVD02 CWAO 092100
BBXX
CG2958 09214 99487 71235 46/// /1007 10261 20137 40152 57008 7//// 8//// 22200 0//// 2//// =

####018000128####
SIHK20 VHHH 092100
AAXX  09211
45007 41481 62205 10288 20246 30076 40085 56005 70282
82830  333  58009 81612 84358 =

####018000116####
SIBD20 WBSB 092100
AAXX 09214
96315 41260 71603 10235 20226 40100 71096 81848
333 81703 85364=
96323 NIL=
####018000127####
SMID02 WIIX 091800 RRD
AAXX 09184
97690 33457 70000 10238 20232 39993 40095 57006 83848
  333 56000 57803 83816 87279=
####018000099####
SIAA21 RJTD 092100
AAXX 09214
89532 41905 50740 11164 21193 39725 49753 58029
73833 80002=
####018000929####
SIOS20 LOWM 092100
AAXX 09211
11010 32986 00802 10218 20144 39848 40208 52010=
11012 36/// /2501 10210 20151 39760 40206=
11022 36/// /0000 10234 20111 39842 40212=
11035 32970 02802 10203 20132 39971 40213 52009=
11036 32982 11502 10202 20143 30002 40217 50007 333 81080=
11101 36/// /1401 10229 20169 39692 40189=
11120 32980 40000 10232 20155 39529 40198 51019 333 84365=
11126 46/// /0402 10150 20071 37869 48592=
11130 36/// /0000 10222 20156 39637 40196=
11146 NIL=
11150 32982 11902 10203 20155 39689 40207 53008 333 81364=
11155 36/// /3202 10179 20052 38469 48589=
11157 42982 09901 10176 20146 39477 40217 52018=
11172 NIL=
11190 32970 03503 10185 20131 39992 40218=
11204 36/// /0901 10242 20149 39449 40190=
11212 NIL=
11231 32984 01102 10215 20146 39664 40209 52013=
11240 32982 00102 10218 20142 39798 40217 53009=
11244 NIL=
11389 36/// /0000 10191 20145 39902 40205=
####018000109####
SIBH21 MZBZ 092100
AAXX 09214
78583 42570 70508 10298 20243 40116 83838 333
01333 58016 83824 87276=
####018000496####
SIBX22 EBBR 092100
AAXX 09211
06431 NIL=
06432 NIL=
06449 42980 52102 10252 20175 39971 40186 53011 81032
333 81359 84070 91107 91205=
06450 42970 30000 10248 20145 30166 40181 52012 81031
333 81365 83070 91106 91204=
06452 NIL=
06458 45980 /9902 10255 20171 30036 40181 52010
  333 91107 91205=
06463 NIL=
06465 NIL=
06470 NIL=
06473 NIL=
06478 42980 52702 10246 20174 39976 40183 52012 83031
333 83362 84070 91104 91203=
06480 NIL=
06481 NIL=
06496 NIL=
####018000142####
SIBX21 EBBR 092100
AAXX 09211
06400 NIL=
06428 NIL=
06479 NIL=
06490 45981 02202 10241 20150 39653 40191 53009
333 91105 91203=
####018000391####
SIBX20 EBBR 092100
AAXX 09211
06407 42975 42803 10200 20144 30181 40187 53010 82032
333 82362 84072 91105 91204=
06408 NIL=
06447 NIL=
06451 42968 10000 10240 20178 30121 40184 53011 81032
333 81365 91108 91204=
06456 NIL=
06476 45982 09901 10213 20148 39565 40196 52010
333 91105 91203=
06590 42980 12601 10246 20161 39761 40189 52009 81031
333 81360 91105 91203=
####018000613####
SIEO20 EEMH 092100
AAXX 09211
26038 21/77 02301 10173 20138 30159 40199 52005 70200
 333  10257 20172 60007 80///
 555  1/016 20172 3/016 50204 52014=
26045 27/83 /2302 10170 20117 30192 40195 52010 70000
 333  10247 20170 60007
 555  1/016 20170 3/016 50212=
26058 27/83 02703 10212 20151 30185 40192 53011 70000 80///
 333  10247 20210 60007 80/// 91009 91110
 555  1/019 20210 3/019 50213 52019=
26115 27/68 02203 10192 20176 30189 40197 50004 70010 80///
 333  10224 20189 60007 80///
 555  1/019 20189 3/019 50195=
26135 NIL=
26141 NIL=
26231 NIL=
26242 NIL=
26247 NIL=
####018000813####
SICU31 MUHA 092102
SINOP
092100Z AAXX 09211
78221 41564 61204 10315 20237 30123 40151 57017 70322 82208 
      333 82820 86261=
78224 41470 62104 10322 20212 30071 40143 58017 70194 84906 
      333 81920 84830 85665=
78229 41458 7//// 10261 20213 30093 40166 57002 71799 85903 
      333 85916=
78239 31559 30706 10309 20229 30147 40152 57011 70500 83800 
      333 83820=
78244 41580 61903 10313 20229 30101 40143 57021 70120 85363 
      333 81920=
12345 42458 92301 10236 20218 30038 40161 57007 89/// 333 
      86918=
78255 42559 40706 10324 20217 39990 40155 57017 84200 333 
      84820=
78264 41558 41603 10304 20247 30087 40165 57014 71600 84900 
      333 84920=
78265 31558 30905 10327 20223 30030 40157 57015 71794 83200 
      333 83925=
78256  NIL=
78259  NIL=
78268  NIL=
####018000099####
SINO23 ENMI 092100 RRA
AAXX 09211
01180 26/// /1802 10121 20086 30091 40147 54000 333 60005=
####018000114####
SINO24 ENMI 092100 RRA
AAXX 09211
01436 46/// /0607 10165 20099=
01471 26/// /1501 10176 20082 333 60005=
####018000236####
SINO26 ENMI 092100 RRA
AAXX 09211
01257 26/// /0602 10147 20097 39980 40136 58014 333 60005=
01277 26/// /0701 10134 20085 333 60005=
01476 46/// /2206 10167 20142 30168 40174 50000=
01488 26/// /1401 10147 20110 333 60005=
####018000171####
SIVS21 VNNN 092100
AAXX 09211
48823 32698 71802 10300 20264 30035 40038 56006 875// 333 58002 
87696=
48840 32998 01802 10290 20265 30027 40033 55006 333 58002=
####018000657####
SIVS20 VNNN 092100
AAXX 09211
48820 41598 71402 10301 20260 30025 40033 55003 72582 879// 333 
58005 82995 81895 86697=
48826 32597 71403 10290 20279 39916 40046 55004 878// 333 58003 
82895 87697=
48839 32998 62012 10295 20260 39981 40044 56004 80008 333 58005 
86299=
48845 32998 71601 10296 20258 30030 40037 58008 80008 333 59005 
87299=
48870 32998 03401 10264 20229 30063 40070 55004 333 58001=
48877 32998 52902 10260 20240 30070 40075 55008 80008 333 58000 
85299=
48887 32798 33202 10265 20240 30077 40083 56007 81501 333 58001 
81697=
48920 41598 21802 10254 20236 30084 40087 57013 70381 82900 333 
58004 82895=
####018000353####
SNAA01 KARS 092100 RRA
AAXX 0921/
89768 46/// ///// 11326 38652 4//// 5////=
89872 46/// ///// 11285 39727 4//// 5////=
89866 46/// ///// 11198 39675 4//// 5////=
89864 46/// ///// 11258 39686 4//// 5////=
89332 46/// ///// 11379 39005 4//// 5////=
89828 46/// ///// 11694 36492 4//// 5////=
89879 46/// ///// 11184 39666 4//// 5////=
####018000124####
SIAA01 KARS 092100
AAXX 0921/
89834 46/// ///// 11490 37350 4//// 5////=
89376 46/// ///// 11378 39697 4//// 5////=
####018000118####
SNAA14 KARS 092000
AAXX 09204
89528 46/// /0146 11418 36718 4//// 5////=
89049 46/// /1710 37729 4//// 5////=
####018000694####
SIBO23 SLLP 092100
AAXX 09214
85223 31564 41207 10238 20020 37479 47122 57014 70400 81501
333 10269 56000 58019 81630 83070=
85283 32584 10308 10187 20046 37196 47125 55006 81100
333 10205 56100 59023 81823=
85293 42984 00614 10110 21049 36360 55001
333 10146 58020=
85312 32684 31805 10240 20150 38875 57005 83400
333 10268 56000 58035 83636=
85345 32884 70000 10204 20159 39737 40198 55002 87030
333 10224 56000 58066 87357=
85364 32970 01314 10194 20088 38161 48205 55003
333 10242 58051=
85365 32884 81804 10186 20138 39460 40196 54000 8803/
333 10226 56009 58045 88357=
85394 32884 50000 10220 20158 39626 40165 55003 85030
333 10250 56000 58068 85357=
