####018000115####
SNAU46 AMMC 092300 RRA
AAXX 09234
95811 11558 83410 10131 20098 60114 71688 882// 92330
  333 70108=


####018000120####
SIPO21 LPMG 090900 CCC
AAXX 09091
08512 42370 72604 10198 20179 30137 40228 52008 878//
333  82708 85814 91109=
####018000135####
SNAU44 AMMC 092300 RRB
AAXX 09234
94682 11484 70111 10125 20106 30101 40138 50040 60044 70266 81770
92330
  333 70038=


####018000115####
SNAU45 AMMC 092300 RRB
AAXX 09234
95657 11482 63630 10126 20109 60024 70382 86700 92330
  333 70024=


####018000127####
SNAU44 AMMC 092300 CCB
AAXX 09234
94655 11982 03111 10130 20083 30003 40152 51024 60044 70000 92330
  333 70042=


####018000127####
SNAU47 AMMC 092300 RRB
AAXX 09234
94258 11984 01102 10205 20117 30114 40185 51015 69904 70200 92330
  333 79999=


####018000135####
SNAU44 AMMC 092300 RRC
AAXX 09234
94665 11/82 73144 10117 20087 39874 40096 52025 60044 70122 87030
92330
  333 70044=


####018000071####
SALY31 HLLS 100000
METAR HLLS 100000Z O8O1OKT  CAVOK  26/11 Q1O16=
####018000101####
SMAI41 FHAW 100000
AAXX 10004
61902 32582 61316 10252 20195 40164 868// 333 58003 83823 84632=
####018000241####
SNHK22 VHHH 092345
AAXX 09231
45032 36/// /2901 10296 20246 30077 40093 54000=
45035 36/// /2203 10288 20258 30051 40092 52002=
45039 36/// /2002 10304 20252 30075 40090 52003=
45044 36/// /2402 10277 20265 30005 40095 52002=

####018000238####
SNHK22 VHHH 092345
AAXX 09231
45032 36/// /2901 10296 20246 30077 40093 54000=
45035 36/// /2203 10288 20258 30051 40092 52002=
45039 36/// /2002 10304 20252 30075 40090 52003=
45044 36/// /2402 10277 20265 30005 40095 52002=
