####018001262####
SNAA14 EGRR 091900 RRA
AAXX 09194
89108 46/// /0221 11622 36821 4//// 52002 91930=
89269 46/// /2116 11073 3//// 4//// 5//// 91940=
89314 46/// /1124 11321 38038 4//// 57004 91930=
89324 46/// /1821 11386 37916 4//// 57025 91930=
89329 46/// /0422 11351 38554 49714 57028 91930=
89332 46/// /1110 11386 39023 49705 57035 91920=
89345 46/// /0000 11374 38646 49423 57028 91930=
89376 46/// /0000 11378 39691 49767 52004 91930=
89377 46/// /1813 11340 39770 49847 57012 91920=
89667 46/// /1927 11192 39793 49804 52025 91930=
89744 46/// /0205 11541 36297 4//// 54000 91930=
89768 46/// /1623 11330 38640 49740 52036 91930=
89769 46/// /1925 11268 39736 49793 52040 91920=
89799 46/// /3212 11620 36622 4//// 52002 91930=
89828 46/// ///02 11700 36426 4//// 52021 91920=
89832 46/// /1220 11199 39599 49914 52061 91920=
89834 46/// /1906 11337 38111 4//// 52045 91930=
89864 46/// /0000 11269 39692 49797 52008 91920=
89866 46/// /2108 11166 39665 49804 52021 91930=
89868 46/// /2011 11309 39725 49799 52013 91920=
89869 46/// /3009 11314 39742 49829 52020 91930=
89872 46/// /1926 11276 39709 49770 52022 91930=
89873 46/// /1805 11287 39730 49814 57013 91930=
89879 46/// /0000 11185 3//// 4//// 5//// 91920=
####018000350####
SNVE15 KWNB 092000 RRB
BBXX
51002 09201 99171 71578 46/// /0708 10248 40164 51004 91950 22200
00253 11103 20602 3//// 41102 70016 333 91209 555 11080 22084
31916 40909 61949 071075 075072 081076 080077 076075 076073=
51100 09201 99236 71539 46/// ///08 10241 40208 51009 91950 22200
00248 10704 20703 310// 41102 70019 555 11086 22091=
####018001411####
SNVD22 KWNB 092000 RRE
BBXX
46026 09201 99378 71228 46/// /2603 10117 40159 52005 91950 22200
00120 11302 20401 322// 41302 70009 333 91204 555 11029 22030
31948 42604 61949 258028 254028 258027 264025 267030 267030=
46086 09201 99325 71180 46/// /2905 10157 40143 57004 91950 22200
00174 11202 20501 320// 41202 70009 333 91206 555 11056 22058
31921 42707 61949 287054 291055 284057 283055 293051 295050=
46089 09201 99459 71258 46/// /3408 10167 40177 52008 91950 22200
00161 10603 20602 3//// 40802 70014 333 91209 555 11082 22089
31915 43410 61949 343077 339080 338078 341075 343073 342073 83408
91935=
46041 09201 99474 71247 46/// /2201 10133 40168 51005 91950 22200
00141 10802 20301 3//// 40802 70012 333 91202 555 11014 22015
31908 42102 61949 216014 190015 185015 183015 189017 174016=
46041 09201 99474 71247 46/// /2201 10133 40168 91950 22200 00141
10802 20301 3//// 40802 70012 333 91202 555 11014 22015 31908
42102 61949 216014 190015 185015 183015 189017 174016=
46011 09201 99349 71209 46/// /3306 10129 40148 50000 91950 22200
00126 10802 20401 330// 40802 70010 333 91206 555 11060 22065
31923 43207 61949 333056 330053 327053 329052 331048 336049=
46042 09201 99368 71224 46/// /3204 10130 30156 40156 51003 91950
22200 00130 11402 20301 317// 41402 70012 333 91205 555 11047
22050 31941 43206 61949 319044 323043 321041 320041 326036 328035=
####018000881####
SNVD45 KWNB 092000 RRD
BBXX
45008 09201 99443 70824 46/// /3102 10190 39924 40134 57005 91950
22200 00183 10301 20301 70003 333 91203 555 11028 22032 31855
43204 61949 312024 307023 314026 320026 320031 321033=
45012 09201 99436 70774 46/// /3603 10213 30010 40098 56006 91950
22200 00218 10301 20301 70004 333 91204 555 11031 22032 31852
43507 61949 002030 357036 352035 356048 356056 353064=
45022 09201 99454 70851 46/// /2704 10199 40170 56010 92000 22200
00196 10201 70003 333 91205=
45002 09201 99453 70864 46/// /2103 10216 20182 39933 40143 58011
91950 22200 00213 1//00 70001 333 91203 555 11033 22037 31926
42103 61949 207030 205028 211029 213026 220022 234017=
45001 09201 99481 70878 46/// /2405 10136 39917 40138 58008 91950
22200 00113 1//00 70002 333 91206 555 11061 22071 31945 42406
61949 236052 238047 239046 248040 244037 232033=
####018000925####
SNVD20 KWNB 092000 RRD
BBXX
44007 09201 99435 70701 46/// /1707 10195 20195 40131 58018 91950
22200 00176 10802 20402 3//// 40801 70010 333 91208 555 11074
22083 31900 41609 61949 166067 164063 163067 160074 162078 161076=
44014 09201 99366 70748 46/// ///// 10253 40115 58012 91950 22200
00257 10703 70013=
44013 09201 99423 70707 46/// /1508 10229 20209 40134 58027 91950
22200 00206 10301 20301 300// 40801 70007 333 91209 555 11086
22096 31934 41509 61949 149078 151081 152083 151081 150081 150080=
44017 09201 99407 70720 46/// /1104 10242 20237 40134 58027 91950
22200 00242 10803 20401 300// 40803 70014 333 91205 555 11040
22043 31930 41005 61949 106038 103041 099041 092040 078039 076036=
44025 09201 99403 70732 46/// /1204 10252 20236 40128 56026 91950
22200 00252 10703 20301 315// 40703 70014 333 91205 555 11043
22045 31927 41206 61949 120041 118044 121044 120043 113043 107040=
####018000339####
SAYE20 OYSC 092000
METAR OYSN 092000Z 19008KT 8000 BKN030 17/16 Q1024=
METAR OYTZ 092000Z 00000KT CAVOK 23/15 Q1010=
METAR OYHD 092000Z 00000KT 6000 SCT030 SCT060 32/28 Q////=
METAR OYDM 092000Z 17005KT 9999 SCT030 14/11 Q////=
METAR OYRN 092000Z 02007KT 7000 FEW020 30/23 Q1004
METAR OYSY 092000Z 19007KT CAVOK 31/19 Q1007=
####018000074####
SAYE20 OYSC 092000
METAR OYRN 091800Z 07012KT 7000 SCT020 30/24 Q1004
####018000104####
SMBZ06 SBBR 091800 RRD
AAXX 09184
82398 32570 21012  10291 20213 30085 40114   82200 333
58002=
####018001222####
SILY20 HLMC 092100
AAXX 09214
62002 32960 00610 10245 20157 39483 48573 53008=
62007 32960 00810 10255 20226 40185 52006=
62008 32960 00608 10240 20178 39398 48562 53014=
62010 31957 00704 10240 20207 40186 52008 70500=
62012 32560 20304 10255 20233 30156 40185 52007 82200
  333 82830=
62014 NIL=
62016 32560 53608 10254 20234 40176 53005 85500
  333 85625=
62018 NIL=
62019 32560 50608 10256 20240 40163 53006 85700
  333 85723=
62053 32560 23618 10244 20201 40162 55006 82500
  333 82620=
62055 31958 03308 10250 20220 30146 40153 54000 71000=
62056 32960 43009 10202 20175 39429 48550 52004 84500
  333 84620=
62059 32960 03314 10253 20225 40156 56005=
62062 NIL=
62103 32970 03609 10341 20056 39755 40137 52011=
62120 32960 00808 10294 20172 39611 48581 53005=
62124 32960 00609 10303 20087 39646 40121 52011=
62131 32966 00608 10305 20106 39855 40152 52013=
62161 31956 03015 10308 20170 40125 53015 70700=
62176 32960 00615 10305 20141 40122 52015=
62200 32960 00905 10310 20131 39617 40127 52013=
62212 32970 20308 10336 20074 39354 48556 53027 80002
  333 82070=
62259 32960 00000 10315 20082 40122 51010=
62271 32960 03508 10333 20026 40114 54000=
####018000462####
SNVD15 KWNB 091900 RRV
BBXX
42369 09191 99272 70903 46/// /1301 10284 91900 22200 10501 70006=
42370 09191 99273 70905 46/// ///02 10288 91900 22200 10301 70006=
42374 09191 99289 70881 46/// ///01 10305 40155 58006 91900=
42376 09191 99291 70879 46/// /2502 10283 40144 58004 91900 22200
10201 70005=
42392 09191 99272 70900 46/// ///// 1//// 91900 22200 10401 70005=
42887 09191 99282 70885 46/// /0000 10298 20238 91900 22200 10601
70007=
####018000227####
SNVD22 KWNB 092000 RRF
BBXX
46014 09201 99392 71240 46/// /3002 10111 40147 53006 91950 22200
00110 11402 20401 300// 41402 70011 333 91202 555 11018 22018
31909 42904 61949 301016 299018 298026 303032 293030 285029=
####018001135####
SNCN19 CWAO 091900
OOXX
CAP14 09161 99486 71234 ///// //201
     26/// /3101 10232 29053 30138 91650 333 60000=
CAP14 09171 99486 71234 ///// //201
     26/// /3201 10238 29052 30137 91700 333 60000=
CAP14 09171 99486 71234 ///// //201
     26/// /3301 10250 29053 30136 91710 333 60000=
CAP14 09171 99486 71234 ///// //201
     26/// /0501 10260 29043 30135 91720 333 60000=
CAP14 09171 99486 71234 ///// //201
     26/// /1102 10265 29044 30135 91730 333 60000=
CAP14 09171 99486 71234 ///// //201
     26/// /0902 10273 29042 30135 91740 333 60000=
CAP14 09171 99486 71234 ///// //201
     26/// /0902 10272 29041 30136 91750 333 60000=
CAP14 09181 99486 71234 ///// //201
     26/// /0802 10273 29040 30135 91800 333 60000=
CAP14 09181 99486 71234 ///// //201
     26/// /0802 10276 29040 30136 91810 333 60000=
CAP14 09181 99486 71234 ///// //201
     26/// /1002 10278 29041 30134 91820 333 60000=
CAP14 09181 99486 71234 ///// //201
     26/// /1202 10276 29039 30135 91830 333 60000=
CAP14 09181 99486 71234 ///// //201
     26/// /1102 10277 29039 30134 91840 333 60000=

####018000352####
SNVD15 KWNB 092000 RRE
BBXX
41140 09201 99178 70647 46/// ///// 1//// 91952 22200 00293 10702
20702 70009=
44100 09201 99363 70756 46/// ///// 1//// 91952 22200 00264 10703
20703 70013=
42099 09201 99273 70842 46/// ///// 1//// 91949 22200 00312 1//00
70002=
41113 09201 99284 70805 46/// ///// 1//// 91951 22200 00282 11101
70003=
####018000495####
SNVD22 KWNB 092000 RRG
BBXX
46244 09201 99409 71244 46/// ///// 1//// 91950 22200 00105 10802
20802 326// 41101 70010=
46236 09201 99368 71219 46/// ///// 1//// 91950 22200 00129 11301
20801 322// 41301 70007=
46212 09201 99408 71243 46/// ///// 1//// 91951 22200 00103 10802
20802 70009=
46217 09201 99342 71194 46/// ///// 1//// 91951 22200 00169 11301
20501 317// 41301 70006=
46213 09201 99403 71247 46/// ///// 1//// 91950 22200 00119 11402
20702 317// 41401 70012=
####018000099####
SNVD15 KWNB 091900 RRW
BBXX
41037 09191 99340 70775 46/// /2003 10289 40117 91900 333 91203=
####018000099####
SMVD15 KWNB 091800 RRX
BBXX
41037 09181 99340 70775 46/// /2102 10291 40122 91800 333 91202=
####018000089####
SMPS40 AMMC 091800 RRG
AAXX 09184
91375 46/// /0110 10268 40103 22200 00282=


####018000115####
SNVD20 KWNB 092000 RRE
BBXX
44099 09201 99369 70758 46/// ///// 1//// 91938 22200 00255 10702
20702 70012=
####018000100####
SNKI01 AMMC 092000
AAXX 09204
96995 17159 81309 10225 20224 39815 40111 56017 60023 7//44=

####018000087####
SAKN64 HKMO 092000
METAR HKJK 092000Z 17005KT 9999 FEW020 SCT080 17/11 Q1023 NOSIG=
####018000105####
SNRE15 FMEE 092000
AAXX 09204
61996 26/// /2812 10118 20110 40236
  333 59031 60005 90710 91121=
####018000105####
SNRE15 FMEE 092000
AAXX 09204
61998 26/// /2519 10037 21003 40072
  333 58108 60005 90710 91139=
####018000835####
SNIY20 LIIB 092000
AAXX 09204
16008 42970 20000 10200 20127 38610 48571 53009 80001=
16088 NIL=
16110 42997 00604 10242 20197 30196 40200 53004 555 0////=
16134 42980 03403 10162 20072 37940 48592 54000=
16153 42898 32604 10276 20199 39950 40202 54000 81031 333 81358 555
      0////=
16206 42970 01302 10280 20203 30167 40175 55000=
16219 42965 00515 10174 20105 38200 48568 58002=
16280 42996 03404 10238 20231 39975 40189 53001 555 0////=
16310 NIL=
16360 42998 03615 10230 20114 30041 40171 53002 555 0////=
16400 NIL=
16420 42998 00000 10264 20214 30120 40183 53004 555 0////=
16429 42962 00102 10278 20249 30180 40191 51005=
16470 NIL=
16480 42997 02705 10258 20255 30112 40171 53002 555 0////=
16522 NIL=
16550 42698 22106 10264 20235 30003 40175 54004 82100 333 82840 555
      0////=
####018000490####
SNIY21 LIIB 092000
AAXX 09204
16022 42975 02206 10160 20118 37976 48587 53005 333 55300=
16052 42565 43101 10096 20002 36795 47242 53005 81081 333 81330=
16061 42965 21505 10256 20195 39388 42839 56003 80002=
16098 42960 00000 10256 20206 30151 40200 53003=
16179 42982 01506 10250 20093 39549 42851 53008=
16224 42962 01803 10252 20231 39878 40182 53008=
16258 42960 03308 10150 20121 39233 42832 5////=
16344 42962 03308 10130 20130 38377 48554 54000 333 95000 95100=
####018000241####
SNHK22 VHHH 092000
AAXX 09201
45032 36/// /1901 10268 20244 30070 40086 57002=
45035 36/// /1903 10268 20242 30043 40083 57004=
45039 36/// /2002 10287 20245 30066 40081 57001=
45044 36/// /2105 10265 20255 39997 40088 57002=

####018000238####
SNHK22 VHHH 092000
AAXX 09201
45032 36/// /1901 10268 20244 30070 40086 57002=
45035 36/// /1903 10268 20242 30043 40083 57004=
45039 36/// /2002 10287 20245 30066 40081 57001=
45044 36/// /2105 10265 20255 39997 40088 57002=
####018000127####
SNVD22 KWNB 091900 RRX
BBXX
46224 09191 99332 71175 46/// ///// 1//// 91916 22200 00176 11302
21001 321// 41301 70008=
####018000121####
SNVD02 CWAO 092000
BBXX
V 09204 99476 70527 46/// /2513 10268 20200 40117 56013 7//// 8//// 22200 0//// 2//// =

####018000124####
SNVD02 CWAO 092000
BBXX
CGDP 09204 99508 71275 46/// /2911 10152 20111 40190 50004 7//// 8//// 22232 00133 2//// =

####018000126####
SNVD02 CWAO 092000
BBXX
VC6750 09204 99609 71157 46/// /1405 10154 20094 49951 55003 7//// 8//// 22200 0//// 2//// =

####018000124####
SNVD02 CWAO 092000
BBXX
CGBR 09204 99525 71288 46/// /1905 10170 20125 40180 51003 7//// 8//// 22200 0//// 2//// =

####018000126####
SNVD02 CWAO 092000
BBXX
CG2522 09204 99619 71138 46/// /3015 10093 20054 49926 55010 7//// 8//// 22282 00072 2//// =

####018000124####
SNVD02 CWAO 092000
BBXX
VOPP 09204 99452 70741 46/// /2401 10223 20213 40015 58004 7//// 8//// 22200 0//// 2//// =

####018000124####
SNVD02 CWAO 092000
BBXX
CGDX 09204 99628 70698 46/// /2301 10089 20055 40056 56006 7//// 8//// 22200 0//// 2//// =

####018000126####
SNVD02 CWAO 092000
BBXX
CG2350 09204 99421 70831 46/// /3506 10271 20188 49925 56002 7//// 8//// 22200 0//// 2//// =

####018000124####
SNVD02 CWAO 092000
BBXX
CGBN 09204 99476 70527 46/// /2515 10259 20171 40118 56015 7//// 8//// 22200 0//// 2//// =

####018000126####
SNVD02 CWAO 092000
BBXX
CG2965 09204 99493 71233 46/// /3012 10211 20169 40149 58010 7//// 8//// 22281 00198 2//// =

####018000124####
SNVD02 CWAO 092000
BBXX
CGHL 09204 99617 70669 46/// /1213 10020 20015 40050 58004 7//// 8//// 22222 0//// 2//// =

####018000124####
SNVD02 CWAO 092000
BBXX
CGTF 09204 99637 70685 46/// /1609 10059 20054 40065 56007 7//// 8//// 22200 0//// 2//// =

####018000124####
SNVD02 CWAO 092000
BBXX
CGJK 09204 99524 71399 46/// /2319 10106 20105 40117 57008 7//// 8//// 22263 00107 2//// =

####018000124####
SNVD02 CWAO 092000
BBXX
CGDT 09204 99644 70805 46/// /0507 10036 20035 40046 53003 7//// 8//// 22200 00046 2//// =

####018000124####
SNVD02 CWAO 092000
BBXX
CGDG 09204 99439 70590 46/// /2318 10187 20186 40207 58003 7//// 8//// 22200 0//// 2//// =

####018000124####
SNVD02 CWAO 092000
BBXX
VOLG 09204 99446 70636 46/// /2109 10264 20261 40170 57012 7//// 8//// 22200 0//// 2//// =

####018000125####
SNVD02 CWAO 092000
BBXX
VRYO3 09204 99514 10042 46/// /0605 10256 20166 40174 53010 7//// 8//// 22271 00237 2//// =

####018000328####
SNVD15 KWNB 092000 RRF
BBXX
41038 09201 99341 70777 46/// /2006 10282 40102 92000 22200 00279
333 91209=
42003 09201 99260 70856 46/// /0902 10288 20227 40164 58011 91950
22200 00302 10601 20401 3//// 40601 70004 333 91203 555 11015
22016 31933 40703 61949 096016 097019 090017 084017 093018 081019
80702 91933=
####018000833####
SNIY20 LIIB 092000
AAXX 09204
16008 42970 20000 10200 20127 38610 48571 53009 80001=
16088 NIL=
16110 42997 00604 10242 20197 30196 40200 53004 555 0////=
16134 42980 03403 10162 20072 37940 48592 54000=
16153 42898 32604 10276 20199 39950 40202 54000 81031 333 81358 555
      0////=
16206 42970 01302 10280 20203 30167 40175 55000=
16219 42965 00515 10174 20105 38200 48568 58002=
16280 42996 03404 10238 20231 39975 40189 53001 555 0////=
16310 NIL=
16360 42998 03615 10230 20114 30041 40171 53002 555 0////=
16400 NIL=
16420 42998 00000 10264 20214 30120 40183 53004 555 0////=
16429 42962 00102 10278 20249 30180 40191 51005=
16470 NIL=
16480 42997 02705 10258 20255 30112 40171 53002 555 0////=
16522 NIL=
16550 42698 22106 10264 20235 30003 40175 54004 82100 333 82840 555
      0////=
####018001192####
SILY20 HLMC 092100
AAXX 09214
62002 32960 00610 10245 20157 39483 48573 53008=
62007 32960 00810 10255 20226 40185 52006=
62008 32960 00608 10240 20178 39398 48562 53014=
62010 31957 00704 10240 20207 40186 52008 70500=
62012 32560 20304 10255 20233 30156 40185 52007 82200
  333 82830=
62014 NIL=
62016 32560 53608 10254 20234 40176 53005 85500
  333 85625=
62018 NIL=
62019 32560 50608 10256 20240 40163 53006 85700
  333 85723=
62053 32560 23618 10244 20201 40162 55006 82500
  333 82620=
62055 31958 03308 10250 20220 30146 40153 54000 71000=
62056 32960 43009 10202 20175 39429 48550 52004 84500
  333 84620=
62059 32960 03314 10253 20225 40156 56005=
62062 NIL=
62103 32970 03609 10341 20056 39755 40137 52011=
62120 32960 00808 10294 20172 39611 48581 53005=
62124 32960 00609 10303 20087 39646 40121 52011=
62131 32966 00608 10305 20106 39855 40152 52013=
62161 31956 03015 10308 20170 40125 53015 70700=
62176 32960 00615 10305 20141 40122 52015=
62200 32960 00905 10310 20131 39617 40127 52013=
62212 32970 20308 10336 20074 39354 48556 53027 80002
  333 82070=
62259 32960 00000 10315 20082 40122 51010=
62271 32960 03508 10333 20026 40114 54000=
####018002032####
SNRO41 YRBK 092000
AAXX 09201
15015 22597 72701 10175 20148 39636 42852 53010 85540 333 60005 91002
91102=
15020 22997 53103 10200 20157 30007 40198 52004 80006 333 60005 91005
91105=
15090 22597 83203 10214 20164 30058 40179 52002 85407 333 55300 10128
2////
3//// 60005 91005 91106=
15108 21/91 92906 10075 20075 38165 48569 53002 74544 333 60005=
15120 22697 62601 10191 20168 39728 40207 52008 84570 333 55300 10119
2////
3//// 60005 91003 91103=
15150 22997 33205 10212 20160 39969 40185 51004 83030 333 60005 91009
91109=
15170 22698 42601 10145 20131 39440 42833 53010 82461 333 60005 91002
91103=
15200 22998 03201 10209 20143 30065 40204 52013 333 60005 91002
91103=
15230 22598 22601 10187 20171 39921 40205 52010 82400 333 55300 10176
2////
3//// 60005 91003 91105=
15260 22598 52604 10179 20149 39685 40203 53007 82370 333 60005 91005
91105=
15280 21/90 90210 10054 20054 37572 47129 53003 74584 333 6///5
91016=
15292 22598 53202 10204 20159 39917 40201 52014 83330 333 60005 91003
91103=
15310 21597 63403 10194 20181 30073 40156 50000 72992 84570 333 55300
10154
20000 30001 60005 91007 91108=
15335 21597 83502 10201 20189 30147 40153 52010 72582 8697/ 333 69905
91005
91107=
15346 22997 30101 10223 20135 39899 40175 52012 83070 333 60005 91003
91105=
15350 21597 53502 10188 20177 30056 40171 50009 72582 85300 333 60015
91004
91110=
15360 22997 83610 10218 20205 30120 40134 53007 8807/ 333 60005 91013
91113=
15410 22997 33501 10208 20155 30088 40180 52013 83030 333 60005 91002
91105=
15420 22997 10502 10199 20157 30077 40183 52021 81040 333 60005 91003
91104=
15450 22997 62901 10223 20164 39947 40172 53010 82046 333 55300 10129
2////
3//// 60005 91003 91103=
15460 21597 83603 10182 20178 30144 40167 53013 78082 889// 333 60015
91006
91106=
15470 23/// /3301 10237 20159 30044 40164 52013 333 60005 91003
91104=
15480 21597 83403 10209 20190 30125 40141 53010 72582 889// 333 69905
91006
91108=
####018000109####
SNVD15 KWNB 091900 RRX
BBXX
44055 09191 99391 70753 46/// ///// 1//// 91930 22200 00270 10301
70006=
####018000899####
SMPA01 RJTD 091800
AAXX 09184
91165 12566 60613 10236 20194 30159 40193 53009 69931 91753=
91212 32566 40907 10280 20250 31383 91807=
91245 32466 20711 10270 20240 30157 91755=
91285 11566 62507 10217 20189 30175 40188 51012 60011 761// 91753=
91334 32474 80610 10274 20240 30097 40100 57012 82271=
91348 11474 81101 10234 20227 30068 40120 56008 60011 70262 85121=
91376 11474 80205 10265 20231 30100 40103 53005 69981 70286 84878=
91408 11471 80000 10256 20239 30068 40106 57012 69981 71398 86908=
91413 11458 89904 10248 20230 30081 40107 56008 60251 79898 8637/=
91610 11599 10000 10226 20217 40109 53002 60001 70200 81101=
91155 NIL=
91203 NIL=
91217 NIL=
91232 NIL=
91250 NIL=
91275 NIL=
91317 NIL=
91324 NIL=
91339 NIL=
91353 NIL=
91356 NIL=
91366 NIL=
91367 NIL=
91369 NIL=
91371 NIL=
91378 NIL=
91425 NIL=
91434 NIL=
91601 NIL=
####018000126####
SNVD02 CWAO 092000
BBXX
CG2958 09204 99487 71235 46/// /0707 10257 20135 40155 56009 7//// 8//// 22200 0//// 2//// =

####018000127####
SNVD02 CWAO 092000
BBXX
CFN3031 09204 99456 70735 46/// /0311 10231 20218 40087 58001 7//// 8//// 22281 00240 2//// =

####018000124####
SNVD02 CWAO 092000
BBXX
VCLM 09204 99468 70712 46/// /3007 10230 20215 40070 56026 7//// 8//// 22200 0//// 2//// =

####018000126####
SNVD02 CWAO 092000
BBXX
CG2992 09204 99694 71337 46/// /2820 10175 20076 40099 58001 7//// 8//// 22261 0//// 2//// =

####018000099####
SNIY20 LIIB 092000 RRA
AAXX 09204
16522 42997 00309 10256 20200 39956 40189 54000 555 0////=
####018000125####
SNVD02 CWAO 092000
BBXX
LAJV4 09204 99/// ///// 46/// /3013 10070 20064 40196 53027 7//// 8//// 22200 0//// 2//// =

####018000097####
SNIY20 LIIB 092000 RRA
AAXX 09204
16522 42997 00309 10256 20200 39956 40189 54000 555 0////=
####018000367####
SNAU06 AMMC 092000
AAXX 09204
94850 45/// /0517 10122 20070 30126 40172 56031=
94954 45/// /0521 10116 20102 30085 40197 56029=
94956 45/// /0905 10070 20064 30172 40199 58030=
94975 41680 23107 10018 20013 30220 40254 58015 74000 82500=
94983 45/// /0321 10127 20088 30237 40263 58017=
94998 41215 82923 10053 20046 30174 40184 55001 71022 886//=

####018000149####
SNPF80 KWBC 092000
AAXX 09204
91925 21470 71014 10266 20220 30086 40146 50005 71522 878// 333
60005 56299 86816 83820 90710 91129 555 1//29=
####018000124####
SMMH02 PKMR 091800 RTD
AAXX  09184
9137132474 30903 10256 20248 30098 40101 83110 333 5622/ 83815 82160 
555
90918
####018000122####
SNAC01 KWNB 092000 RRA
OOXX
ACSAMS01 09201 99808 70664 90706 01741 46/// /1907 10049 20009 39843
92003 333 91209=
####018000247####
SNVD15 KWNB 092000 RRG
BBXX
41041 09201 99144 70460 46/// /0607 10277 20239 40136 56009 91950
22200 00277 10804 20503 300// 40803 70020 333 91208 555 11074
22078 31900 40709 61949 063069 066070 067078 064077 062080 071071
80708 91921=
####018000548####
SMPA01 KWBC 091800 RRB
AAXX 09184
91165 12566 60613 10236 20194 30159 40193 53009 69931 91753=
91212 32566 40907 10280 20250 31383 91807=
91285 11566 62507 10217 20189 30175 40188 51012 60011 761// 91753=
91334 32474 80610 10274 20240 30097 40100 57012 82271=
91348 11474 81101 10234 20227 30068 40120 56008 60011 70262 85121=
91376 11474 80205 10265 20231 30100 40103 53005 69981 70286 84878=
91408 11471 80000 10256 20239 30068 40106 57012 69981 71398 86908=
91413 11458 89904 10248 20230 30081 40107 56008 60251 79898 8637/=
####018000083####
SMPA20 KWBC 091800 RRB
AAXX 09184
91245 32466 20711 10270 20240 30157 91755=
####018000611####
SNVD22 KWNB 092000 RRH
BBXX
46050 09201 99446 71245 46/// /0103 10150 40166 52003 91950 22200
00144 10702 20401 333// 40702 70010 333 91204 555 11037 22042
31909 43506 61949 012032 019032 014035 004042 000048 359043=
46047 09201 99324 71195 46/// /3206 10141 40150 50000 91950 22200
11302 20401 319// 41302 70012 333 91207 555 11063 22067 31903
43108 61949 317059 310063 308061 308061 307065 312058=
46027 09201 99419 71244 46/// /3001 10102 40120 56006 91950 22200
00117 10702 20301 332// 40702 70011 333 91202 555 11014 22015
31858 41902 61949 296014 299008 265010 280007 201010 187012=
####018000127####
SNVE15 KWNB 092000 RRC
BBXX
52200 09201 99134 11448 46/// ///// 1//// 91952 22200 00297 10903
20903 308// 41101 70015=
####018000221####
SNVD45 KWNB 092000 RRE
BBXX
45007 09201 99427 70870 46/// /3604 10222 20189 39940 40150 58007
91950 22200 00230 1//00 70002 333 91204 555 11039 22040 31852
43405 61949 355036 350033 343035 340038 341041 340046=
####018000620####
SNVD20 KWNB 092000 RRF
BBXX
44060 09201 99413 70721 46/// /1002 10221 40133 58031 92000 22200
00196 333 91203 555 11026 22031=
44027 09201 99443 70673 46/// /1805 10154 20153 40157 58015 91950
22200 00126 10802 20501 300// 40801 70008 333 91206 555 11057
22067 31916 41708 61949 176050 175058 174066 177061 176060 175054=
44008 09201 99405 70692 46/// /1304 10212 20212 40147 58021 91950
22200 00196 10803 20401 317// 40803 70013 333 91205 555 11048
22056 31932 41405 61949 128043 135046 134047 119038 115035 111027=
44070 09201 99414 70710 46/// ///// 1//// 92006 22200 10801 317//
40801 70007=
####018000488####
SNVD17 KWNB 092000 RRB
BBXX
46076 09201 99595 71480 46/// /0905 10108 20106 40126 56006 91950
22200 00108 333 91206 555 11051 22054=
46083 09201 99582 71380 46/// /1403 10114 20108 40138 58003 91950
22200 00119 11502 300// 41502 70010 333 91204 555 11034 22036
31945 41404 61949 138033 151029 152029 154030 163029 157029 81403
91942=
23020 09201 99222 10385 46/// ///// 1//// 91950 22200 10704 70018=
32012 09201 99196 50854 46/// ///// 1//// 91950 22200 11506 70032=
####018000027####
SNVE20 EHDB 092000
NIL
####018000027####
SNVJ20 EHDB 092000
NIL
####018000125####
SMMH02 PKMR 091800 RTD
AAXX  09184
9137132474 30903 10256 20248 30098 40101 83110 333 5622/ 83815 82160 
555
90918
####018000307####
SNSP20 LEMM 092000
AAXX 09204
08045 46/// /2908 10174 20141 39916 40219 53002
  555 60005=
08181 NIL=
08221 42980 01805 10303 20087 39506 40143 53005
  555 60005=
08284 46/// /0906 10261 20180 30107 40179 53010
  555 60005=
08314 46/// /0905 10219 20200 30090 40190 53009
  555 60005=
####018001135####
SNCN19 CWAO 091913
OOXX
MNP45 09171 99479 11063 ///// ////1
     26/// /3103 10133 29099 38420 91720 333 60000=
MNP45 09171 99479 11063 ///// ////1
     26/// /3303 10133 29099 38420 91730 333 60000=
MNP45 09171 99479 11063 ///// ////1
     26/// /0304 10132 29099 38420 91740 333 60000=
MNP45 09171 99479 11063 ///// ////1
     26/// /0204 10133 29100 38420 91750 333 60000=
MNP45 09181 99479 11063 ///// ////1
     26/// /0204 10133 29100 38422 91800 333 60000=
MNP45 09181 99479 11063 ///// ////1
     26/// /0404 10133 29100 38423 91810 333 60000=
MNP45 09181 99479 11063 ///// ////1
     26/// /2102 10133 29100 38423 91820 333 60000=
MNP45 09181 99479 11063 ///// ////1
     26/// /1802 10132 29100 38424 91830 333 60000=
MNP45 09181 99479 11063 ///// ////1
     26/// /2402 10131 29100 38422 91840 333 60000=
MNP45 09181 99479 11063 ///// ////1
     26/// /3002 10131 29100 38421 91850 333 60000=
MNP45 09191 99479 11063 ///// ////1
     26/// /1803 10130 29100 38422 91900 333 60000=
MNP45 09191 99479 11063 ///// ////1
     26/// /1803 10132 29100 38420 91910 333 60000=

####018001135####
SNCN19 CWAO 091917
OOXX
USP76 09171 99647 71471 ///// ////1
     26/// /0000 10217 29052 39842 91702 333 60000=
USP76 09171 99647 71471 ///// ////1
     26/// /1401 10224 29049 39841 91712 333 60000=
USP76 09171 99647 71471 ///// ////1
     26/// /0000 10225 29048 39841 91722 333 60000=
USP76 09171 99647 71471 ///// ////1
     26/// /0801 10224 29049 39842 91732 333 60000=
USP76 09171 99647 71471 ///// ////1
     26/// /1001 10230 29048 39841 91742 333 60000=
USP76 09171 99647 71471 ///// ////1
     26/// /1401 10234 29048 39841 91752 333 60000=
USP76 09181 99647 71471 ///// ////1
     26/// /0000 10233 29047 39841 91802 333 60000=
USP76 09181 99647 71471 ///// ////1
     26/// /0901 10231 29047 39841 91812 333 60000=
USP76 09181 99647 71471 ///// ////1
     26/// /0601 10236 29047 39841 91822 333 60000=
USP76 09181 99647 71471 ///// ////1
     26/// /1201 10237 29047 39840 91832 333 60000=
USP76 09181 99647 71471 ///// ////1
     26/// /1501 10245 29047 39839 91842 333 60000=
USP76 09181 99647 71471 ///// ////1
     26/// /2701 10241 29046 39838 91852 333 60000=

####018001135####
SNCN19 CWAO 091909
OOXX
FRP29 09171 99210 30556 ///// ////1
     26/// /2409 10162 29077 30001 91706 333 60000=
FRP29 09171 99210 30556 ///// ////1
     26/// /2410 10158 29078 39996 91716 333 60000=
FRP29 09171 99210 30556 ///// ////1
     26/// /2411 10154 29079 39988 91726 333 60000=
FRP29 09171 99210 30556 ///// ////1
     26/// /2511 10148 29079 39984 91736 333 60000=
FRP29 09171 99210 30556 ///// ////1
     26/// /2511 10150 29079 39987 91746 333 60000=
FRP29 09171 99210 30556 ///// ////1
     26/// /2511 10155 29079 39996 91756 333 60000=
FRP29 09181 99210 30556 ///// ////1
     26/// /2510 10155 29078 39995 91806 333 60000=
FRP29 09181 99210 30556 ///// ////1
     26/// /2510 10157 29077 39991 91816 333 60000=
FRP29 09181 99210 30556 ///// ////1
     26/// /2410 10161 29079 30003 91826 333 60000=
FRP29 09181 99210 30556 ///// ////1
     26/// /2509 10158 29080 39997 91836 333 69920=
FRP29 09181 99210 30556 ///// ////1
     26/// /2307 10155 29080 39996 91846 333 60000=
FRP29 09181 99210 30556 ///// ////1
     26/// /2309 10160 29078 30002 91856 333 60000=

####018001135####
SNCN19 CWAO 091919
OOXX
SEP63 09161 99592 10176 ///// 00401
     26/// /1103 10250 29042 30130 91610 333 60000=
SEP63 09161 99592 10176 ///// 00401
     26/// /1003 10248 29048 30130 91620 333 60000=
SEP63 09161 99592 10176 ///// 00401
     26/// /0402 10248 29045 30130 91630 333 60000=
SEP63 09161 99592 10176 ///// 00401
     26/// /0402 10251 29051 30120 91640 333 60000=
SEP63 09161 99592 10176 ///// 00401
     26/// /0404 10250 29050 30120 91650 333 60000=
SEP63 09171 99592 10176 ///// 00401
     26/// /0804 10249 29051 30120 91700 333 60000=
SEP63 09171 99592 10176 ///// 00401
     26/// /0403 10253 29049 30120 91710 333 60000=
SEP63 09171 99592 10176 ///// 00401
     26/// /1103 10254 29042 30130 91720 333 60000=
SEP63 09171 99592 10176 ///// 00401
     26/// /1303 10250 29042 30130 91730 333 60000=
SEP63 09171 99592 10176 ///// 00401
     26/// /1202 10246 29044 30130 91740 333 60000=
SEP63 09171 99592 10176 ///// 00401
     26/// /1402 10244 29043 30130 91750 333 60000=
SEP63 09181 99592 10176 ///// 00401
     26/// /0902 10246 29044 30130 91800 333 60000=

####018001135####
SNCN19 CWAO 091955
OOXX
FJP26 09171 99178 31774 ///// ////1
     26/// /1203 10221 29087 30103 91740 333 60000=
FJP26 09171 99178 31774 ///// ////1
     26/// /1302 10220 29088 30102 91750 333 60000=
FJP26 09181 99178 31774 ///// ////1
     26/// /1202 10218 29089 30102 91800 333 60000=
FJP26 09181 99178 31774 ///// ////1
     26/// /1202 10219 29089 30103 91810 333 60000=
FJP26 09181 99178 31774 ///// ////1
     26/// /0902 10221 29088 30104 91820 333 60000=
FJP26 09181 99178 31774 ///// ////1
     26/// /0602 10224 29087 30106 91830 333 60000=
FJP26 09181 99178 31774 ///// ////1
     26/// /0901 10224 29087 30106 91840 333 60000=
FJP26 09181 99178 31774 ///// ////1
     26/// /0701 10223 29087 30107 91850 333 60000=
FJP26 09191 99178 31774 ///// ////1
     26/// /1001 10222 29088 30108 91900 333 60000=
FJP26 09191 99178 31774 ///// ////1
     26/// /0901 10223 29089 30109 91910 333 60000=
FJP26 09191 99178 31774 ///// ////1
     26/// /0702 10227 29086 30112 91920 333 60000=
FJP26 09191 99178 31774 ///// ////1
     26/// /0802 10229 29086 30115 91930 333 60000=

####018001135####
SNCN19 CWAO 091918
OOXX
USP77 09171 99193 11666 ///// ////1
     26/// /0604 10280 29069 30134 91709 333 60000=
USP77 09171 99193 11666 ///// ////1
     26/// /0504 10281 29068 30135 91719 333 60000=
USP77 09171 99193 11666 ///// ////1
     26/// /0605 10280 29068 30134 91729 333 60000=
USP77 09171 99193 11666 ///// ////1
     26/// /0605 10280 29067 30135 91739 333 60000=
USP77 09171 99193 11666 ///// ////1
     26/// /0604 10281 29068 30135 91749 333 60000=
USP77 09171 99193 11666 ///// ////1
     26/// /0604 10279 29067 30136 91759 333 60000=
USP77 09181 99193 11666 ///// ////1
     26/// /0504 10280 29067 30136 91809 333 60000=
USP77 09181 99193 11666 ///// ////1
     26/// /0604 10280 29068 30136 91819 333 60000=
USP77 09181 99193 11666 ///// ////1
     26/// /0604 10281 29069 30137 91829 333 60000=
USP77 09181 99193 11666 ///// ////1
     26/// /0604 10281 29070 30137 91839 333 60000=
USP77 09181 99193 11666 ///// ////1
     26/// /0504 10283 29069 30138 91849 333 60000=
USP77 09181 99193 11666 ///// ////1
     26/// /0505 10284 29068 30138 91859 333 60000=

####018001135####
SNCN19 CWAO 091916
OOXX
NZP46 09171 99438 51765 ///// ////1
     26/// /1709 10064 29078 30125 91710 333 60000=
NZP46 09171 99438 51765 ///// ////1
     26/// /1908 10063 29080 30128 91720 333 60000=
NZP46 09171 99438 51765 ///// ////1
     26/// /1808 10060 29080 30128 91730 333 60000=
NZP46 09171 99438 51765 ///// ////1
     26/// /1613 10060 29082 30133 91740 333 60000=
NZP46 09171 99438 51765 ///// ////1
     26/// /1708 10056 29084 30130 91750 333 60000=
NZP46 09181 99438 51765 ///// ////1
     26/// /1808 10060 29081 30132 91800 333 60000=
NZP46 09181 99438 51765 ///// ////1
     26/// /1711 10062 29083 30136 91810 333 60000=
NZP46 09181 99438 51765 ///// ////1
     26/// /1712 10058 29085 30135 91820 333 60000=
NZP46 09181 99438 51765 ///// ////1
     26/// /1710 10060 29081 30138 91830 333 60000=
NZP46 09181 99438 51765 ///// ////1
     26/// /1710 10060 29085 30138 91840 333 60000=
NZP46 09181 99438 51765 ///// ////1
     26/// /1610 10061 29085 30141 91850 333 60000=
NZP46 09191 99438 51765 ///// ////1
     26/// /1811 10060 29085 30141 91900 333 60000=

####018001319####
SNCN19 CWAO 091912
OOXX
USP72 09171 99282 70806 ///// ////1
     26/// /0149 10333 29002 30147 91702 333 60150=
USP72 09171 99282 70806 ///// ////1
     26/// /0149 10332 29002 30146 91712 333 60150=
USP72 09171 99282 70806 ///// ////1
     26/// /0149 10338 29002 30146 91722 333 60150=
USP72 09171 99282 70806 ///// ////1
     26/// /0149 10336 29002 30145 91732 333 60150=
USP72 09171 99282 70806 ///// ////1
     26/// /0149 10337 29002 30144 91742 333 60150=
USP72 09171 99282 70806 ///// ////1
     26/// /0149 10340 29002 30143 91752 333 60150=
USP72 09181 99282 70806 ///// ////1
     26/// /0149 10338 29002 30142 91802 333 60150=
USP72 09181 99282 70806 ///// ////1
     26/// /0149 10335 29002 30141 91812 333 60150=
USP72 09181 99282 70806 ///// ////1
     26/// /0149 10330 29030 30141 91822 333 60150=
USP72 09181 99282 70806 ///// ////1
     26/// /0149 10334 29031 30140 91832 333 60150=
USP72 09181 99282 70806 ///// ////1
     26/// /0149 10332 29030 30140 91842 333 60150=
USP72 09181 99282 70806 ///// ////1
     26/// /0149 10332 29028 30139 91852 333 60150=
USP72 09181 99282 70806 ///// ////1
     26/// /0149 10334 29023 30140 91852 333 60150=
USP72 09181 99282 70806 ///// ////1
     26/// /0149 10333 29022 30139 91854 333 60150=

####018001135####
SNCN19 CWAO 091936
OOXX
AUP08 09171 99122 30968 ///// ////1
     26/// /1207 10253 29083 30128 91742 333 60000=
AUP08 09171 99122 30968 ///// ////1
     26/// /1207 10254 29082 30128 91752 333 60000=
AUP08 09181 99122 30968 ///// ////1
     26/// /1207 10253 29082 30128 91802 333 60000=
AUP08 09181 99122 30968 ///// ////1
     26/// /1207 10253 29080 30127 91812 333 60000=
AUP08 09181 99122 30968 ///// ////1
     26/// /1207 10252 29084 30126 91822 333 60000=
AUP08 09181 99122 30968 ///// ////1
     26/// /1208 10249 29083 30125 91832 333 60000=
AUP08 09181 99122 30968 ///// ////1
     26/// /1107 10249 29085 30125 91842 333 60000=
AUP08 09181 99122 30968 ///// ////1
     26/// /1007 10249 29086 30124 91852 333 60000=
AUP08 09191 99122 30968 ///// ////1
     26/// /1205 10245 29089 30123 91902 333 60000=
AUP08 09191 99122 30968 ///// ////1
     26/// /1307 10239 29094 30123 91912 333 60000=
AUP08 09191 99122 30968 ///// ////1
     26/// /1207 10236 29092 30123 91922 333 69940=
AUP08 09191 99122 30968 ///// ////1
     26/// /1005 10240 29091 30120 91932 333 60000=

####018001135####
SNCN19 CWAO 091920
OOXX
USP71 09171 99553 71605 ///// ////1
     26/// /0808 10097 29070 39896 91710 333 60000=
USP71 09171 99553 71605 ///// ////1
     26/// /0808 10097 29069 39896 91720 333 60000=
USP71 09171 99553 71605 ///// ////1
     26/// /0807 10097 29067 39896 91730 333 60000=
USP71 09171 99553 71605 ///// ////1
     26/// /0808 10097 29067 39894 91740 333 60000=
USP71 09171 99553 71605 ///// ////1
     26/// /0807 10098 29067 39893 91750 333 60000=
USP71 09181 99553 71605 ///// ////1
     26/// /0808 10098 29068 39891 91800 333 60000=
USP71 09181 99553 71605 ///// ////1
     26/// /0808 10100 29068 39891 91810 333 60000=
USP71 09181 99553 71605 ///// ////1
     26/// /0808 10100 29067 39892 91820 333 60000=
USP71 09181 99553 71605 ///// ////1
     26/// /0808 10100 29066 39890 91830 333 60000=
USP71 09181 99553 71605 ///// ////1
     26/// /0808 10101 29065 39889 91840 333 60000=
USP71 09181 99553 71605 ///// ////1
     26/// /0808 10100 29067 39885 91850 333 60000=
USP71 09191 99553 71605 ///// ////1
     26/// /0808 10100 29068 39883 91900 333 60000=

####018001135####
SNCN19 CWAO 091924
OOXX
RUP54 09171 99586 10494 ///// ////1
     26/// /0000 10225 29054 30011 91721 333 66510=
RUP54 09171 99586 10494 ///// ////1
     26/// /0000 10221 29054 30011 91731 333 66510=
RUP54 09171 99586 10494 ///// ////1
     26/// /0000 10217 29054 30012 91741 333 66510=
RUP54 09171 99586 10494 ///// ////1
     26/// /0000 10213 29054 30013 91751 333 66510=
RUP54 09181 99586 10494 ///// ////1
     26/// /0000 10210 29054 30014 91801 333 66510=
RUP54 09181 99586 10494 ///// ////1
     26/// /0000 10206 29055 30014 91811 333 66510=
RUP54 09181 99586 10494 ///// ////1
     26/// /0000 10203 29055 30015 91821 333 66510=
RUP54 09181 99586 10494 ///// ////1
     26/// /0000 10200 29055 30015 91831 333 66510=
RUP54 09181 99586 10494 ///// ////1
     26/// /0000 10197 29055 30015 91841 333 66510=
RUP54 09181 99586 10494 ///// ////1
     26/// /0000 10194 29055 30015 91851 333 66510=
RUP54 09191 99586 10494 ///// ////1
     26/// /0000 10192 29055 30016 91901 333 66510=
RUP54 09191 99586 10494 ///// ////1
     26/// /0000 10190 29055 30015 91911 333 66510=

####018001135####
SNCN19 CWAO 091922
OOXX
CAP15 09171 99747 70949 ///// ////1
     26/// /0000 11538 29028 30192 91710 333 60000=
CAP15 09171 99747 70949 ///// ////1
     26/// /0000 11538 29028 30191 91720 333 60000=
CAP15 09171 99747 70949 ///// ////1
     26/// /0000 11538 29027 30191 91730 333 60000=
CAP15 09171 99747 70949 ///// ////1
     26/// /0000 11538 29025 30195 91740 333 60000=
CAP15 09171 99747 70949 ///// ////1
     26/// /0000 11538 29023 30207 91750 333 60000=
CAP15 09181 99747 70949 ///// ////1
     26/// /0000 11538 29023 30214 91800 333 60000=
CAP15 09181 99747 70949 ///// ////1
     26/// /0000 11538 29024 30220 91810 333 60000=
CAP15 09181 99747 70949 ///// ////1
     26/// /0000 11538 29023 30222 91820 333 60000=
CAP15 09181 99747 70949 ///// ////1
     26/// /0000 11538 29024 30221 91830 333 60000=
CAP15 09181 99747 70949 ///// ////1
     26/// /0000 11538 29025 30215 91840 333 60000=
CAP15 09181 99747 70949 ///// ////1
     26/// /0000 11538 29026 30210 91850 333 60000=
CAP15 09191 99747 70949 ///// ////1
     26/// /0000 11538 29033 30198 91900 333 60000=

####018001135####
SNCN19 CWAO 091949
OOXX
RUP59 09171 99539 10848 ///// ////1
     26/// /1301 10135 29096 39757 91740 333 69920=
RUP59 09171 99539 10848 ///// ////1
     26/// /1201 10132 29096 39757 91750 333 60000=
RUP59 09181 99539 10848 ///// ////1
     26/// /1301 10131 29096 39758 91800 333 60000=
RUP59 09181 99539 10848 ///// ////1
     26/// /1201 10130 29096 39756 91810 333 60000=
RUP59 09181 99539 10848 ///// ////1
     26/// /1401 10130 29096 39756 91820 333 69920=
RUP59 09181 99539 10848 ///// ////1
     26/// /0000 10128 29096 39756 91830 333 60000=
RUP59 09181 99539 10848 ///// ////1
     26/// /0000 10128 29096 39756 91840 333 60000=
RUP59 09181 99539 10848 ///// ////1
     26/// /0000 10124 29096 39756 91850 333 60000=
RUP59 09191 99539 10848 ///// ////1
     26/// /0000 10126 29096 39756 91900 333 60000=
RUP59 09191 99539 10848 ///// ////1
     26/// /0000 10125 29096 39757 91910 333 60000=
RUP59 09191 99539 10848 ///// ////1
     26/// /0000 10122 29096 39756 91920 333 60000=
RUP59 09191 99539 10848 ///// ////1
     26/// /0000 10117 29096 39757 91930 333 60000=

####018001135####
SNCN19 CWAO 091937
OOXX
CMP13 09171 99038 10102 ///// ////1
     26/// /2301 10247 29090 39982 91730 333 60000=
CMP13 09171 99038 10102 ///// ////1
     26/// /0000 10246 29091 39982 91740 333 60000=
CMP13 09171 99038 10102 ///// ////1
     26/// /2101 10244 29092 39982 91750 333 60000=
CMP13 09181 99038 10102 ///// ////1
     26/// /2001 10242 29092 39984 91800 333 60000=
CMP13 09181 99038 10102 ///// ////1
     26/// /2201 10242 29092 39986 91810 333 60000=
CMP13 09181 99038 10102 ///// ////1
     26/// /2201 10242 29093 39987 91820 333 60000=
CMP13 09181 99038 10102 ///// ////1
     26/// /2401 10242 29093 39987 91830 333 60000=
CMP13 09181 99038 10102 ///// ////1
     26/// /2301 10242 29093 39988 91840 333 60000=
CMP13 09181 99038 10102 ///// ////1
     26/// /2301 10242 29093 39988 91850 333 60000=
CMP13 09191 99038 10102 ///// ////1
     26/// /2201 10242 29093 39991 91900 333 60000=
CMP13 09191 99038 10102 ///// ////1
     26/// /0000 10242 29093 39994 91910 333 60000=
CMP13 09191 99038 10102 ///// ////1
     26/// /0000 10242 29094 39995 91920 333 60000=

####018001135####
SNCN19 CWAO 091945
OOXX
AUP04 09171 99377 31451 ///// 00401
     26/// /0405 10126 29062 30124 91752 333 60000=
AUP04 09181 99377 31451 ///// 00401
     26/// /0405 10128 29061 30123 91802 333 60000=
AUP04 09181 99377 31451 ///// 00401
     26/// /0406 10129 29060 30121 91812 333 60000=
AUP04 09181 99377 31451 ///// 00401
     26/// /0404 10127 29062 30120 91822 333 60000=
AUP04 09181 99377 31451 ///// 00401
     26/// /0305 10125 29062 30120 91832 333 60000=
AUP04 09181 99377 31451 ///// 00401
     26/// /0405 10127 29061 30119 91842 333 60000=
AUP04 09181 99377 31451 ///// 00401
     26/// /0405 10126 29062 30119 91852 333 60000=
AUP04 09191 99377 31451 ///// 00401
     26/// /0406 10131 29060 30117 91902 333 60000=
AUP04 09191 99377 31451 ///// 00401
     26/// /0407 10133 29059 30115 91912 333 60000=
AUP04 09191 99377 31451 ///// 00401
     26/// /0408 10133 29059 30113 91922 333 60000=
AUP04 09191 99377 31451 ///// 00401
     26/// /0407 10133 29059 30115 91932 333 60000=
AUP04 09191 99377 31451 ///// 00401
     26/// /0507 10134 29058 30113 91942 333 60000=

####018001135####
SNCN19 CWAO 091935
OOXX
CKP23 09171 99212 51598 ///// ////1
     26/// /1402 10221 29095 30177 91740 333 60000=
CKP23 09171 99212 51598 ///// ////1
     26/// /1202 10223 29096 30178 91750 333 60000=
CKP23 09181 99212 51598 ///// ////1
     26/// /1202 10229 29095 30177 91800 333 60000=
CKP23 09181 99212 51598 ///// ////1
     26/// /1102 10233 29095 30179 91810 333 60000=
CKP23 09181 99212 51598 ///// ////1
     26/// /1102 10238 29094 30181 91820 333 60000=
CKP23 09181 99212 51598 ///// ////1
     26/// /1102 10242 29093 30183 91830 333 60000=
CKP23 09181 99212 51598 ///// ////1
     26/// /1103 10245 29092 30181 91840 333 60000=
CKP23 09181 99212 51598 ///// ////1
     26/// /1103 10250 29090 30183 91850 333 60000=
CKP23 09191 99212 51598 ///// ////1
     26/// /1103 10253 29088 30183 91900 333 60000=
CKP23 09191 99212 51598 ///// ////1
     26/// /1003 10255 29088 30181 91910 333 60000=
CKP23 09191 99212 51598 ///// ////1
     26/// /1004 10258 29086 30183 91920 333 60000=
CKP23 09191 99212 51598 ///// ////1
     26/// /1003 10260 29086 30183 91930 333 60000=

####018001135####
SNCN19 CWAO 091952
OOXX
GBP68 09171 99370 50123 ///// ////1
     26/// /3505 10086 29061 30232 91740 333 60000=
GBP68 09171 99370 50123 ///// ////1
     26/// /3505 10085 29062 30232 91750 333 60000=
GBP68 09181 99370 50123 ///// ////1
     26/// /3505 10085 29061 30232 91800 333 60000=
GBP68 09181 99370 50123 ///// ////1
     26/// /3505 10085 29061 30233 91810 333 60000=
GBP68 09181 99370 50123 ///// ////1
     26/// /3506 10085 29060 30231 91820 333 60000=
GBP68 09181 99370 50123 ///// ////1
     26/// /3506 10086 29059 30229 91830 333 60000=
GBP68 09181 99370 50123 ///// ////1
     26/// /3506 10086 29059 30231 91840 333 60000=
GBP68 09181 99370 50123 ///// ////1
     26/// /3505 10085 29060 30234 91850 333 60000=
GBP68 09191 99370 50123 ///// ////1
     26/// /3505 10085 29060 30238 91900 333 60000=
GBP68 09191 99370 50123 ///// ////1
     26/// /3504 10083 29061 30240 91910 333 60000=
GBP68 09191 99370 50123 ///// ////1
     26/// /3505 10085 29060 30238 91920 333 60000=
GBP68 09191 99370 50123 ///// ////1
     26/// /3505 10087 29060 30240 91930 333 60000=

