####018000115####
SIBA20 MYNN 100300
AAXX 10034
78073 41465 51903 10305 20256 40174 71392 83933 333 06999 82915 83818
85075=
####018000105####
SMNO26 ENMI 100000 CCA
AAXX 10001
01455 16/// /1002 10157 20063 39864 40164 58007 60001 333 91107=
####018000119####
SMNO26 ENMI 091800 CCA
AAXX 09181
01455 16/// /2002 10193 20085 39870 40166 57004 60002 333 10219
      91107=
####018000099####
SINO26 ENMI 092100 CCA
AAXX 09211
01455 26/// /1802 10172 20076 39871 40170 54001 333 60005=
####018001452####
SIVD20 KWNB 100300 RRC
BBXX
41008 10031 99314 70809 46/// /2107 10281 40137 53019 90250 22200
10402 20401 300// 40801 70008 333 91208 555 11077 22082 30213
42109 60249 211071 210072 208073 206077 205077 203077=
41004 10031 99325 70791 46/// /2005 10281 20257 40131 53009 90250
22200 00274 10801 20401 3//// 40801 70006 333 91205 555 11054
22060 30228 42006 60249 195049 197047 195048 196045 192041 188040=
41013 10031 99334 70777 46/// /2109 10290 20244 40123 53012 90250
22200 00296 333 91210 555 11091 22096=
44009 10031 99385 70747 46/// /1503 10247 20242 40109 51007 90250
22200 00248 10702 20301 300// 40702 70010 333 91203 555 11027
22028 30159 41405 60249 151026 151026 144034 146032 144034 141037=
44018 10031 99413 70693 46/// /1605 10176 20176 40130 51003 90250
22200 10802 20301 314// 40802 70011 333 91205 555 11052 22055
30230 41606 60249 161049 157048 155050 154044 157047 154047=
44065 10031 99404 70737 46/// /1705 10246 20236 40110 52004 90250
22200 00247 10802 20401 315// 40802 70010 333 91206 555 11051
22054 30245 41706 60249 172048 173043 174046 174043 172042 174039
83506 90245=
44040 10031 99410 70736 46/// /1902 10242 20229 40122 90245 22200
1//00 70001 333 91202 555 11015 22021=
44020 10031 99414 70702 46/// /1806 10227 20227 40127 55000 90250
22200 00230 10301 20301 309// 40601 70005 333 91207 555 11059
22063 30214 41809 60249 178057 178065 175067 175072 172072 169070=
####018001112####
SIVD17 KWNB 100300
BBXX
46084 10031 99566 71361 46/// /1409 10121 20121 40129 57004 90250
22200 00117 10503 20503 300// 41501 70016 333 91210 555 11091
22098 30156 41411 60249 143086 141091 140091 139089 138090 138091=
46075 10031 99539 71608 46/// /1610 10086 20083 49957 56017 90250
22200 00090 10805 20805 300// 41002 70026 333 91212 555 11105
22111 30229 41612 60249 161099 160101 158100 159100 161099 161098
81611 90241=
46005 10031 99461 71310 46/// /3006 10138 40233 56007 90250 22200
00135 11502 20301 300// 41502 70010 333 91207 555 11064 22070
30217 43108 60249 302060 303059 301061 300063 298063 299066=
46005 10031 99461 71310 46/// /3006 10138 40233 90250 22200 00135
11502 20301 300// 41502 70010 333 91207 555 11064 22070 30217
43108 60249 302060 303059 301061 300063 298063 299066=
46080 10031 99580 71500 46/// ///// 10102 40072 57013 90250 22200
10804 70022=
46085 10031 99559 71426 46/// /2105 10097 20097 40079 55000 90250
22200 00105 10803 20401 3//// 40803 70017 333 91206 555 11048
22050 30217 42006 60249 208045 201044 204046 200048 194044 191042=
####018003605####
SIVD15 KWNB 100300 RRA
BBXX
41012 10031 99300 70805 46/// /2008 10283 20243 40147 51018 90250
22200 00278 10801 20301 309// 40801 70005 333 91209 555 11083
22090 30223 42009 60249 200076 198077 200077 202073 197070 197065=
41046 10031 99238 70709 46/// /1105 10283 20238 40186 51013 90250
22200 00291 10602 20401 311// 40602 70011 333 91206 555 11053
22055 30214 41107 60249 110051 106056 109055 107055 107053 111053
82906 90214=
41001 10031 99347 70727 46/// /2010 10269 20234 40133 53012 90250
22200 00267 10703 20403 3//// 40702 70016 333 91211 555 11102
22109 30216 42012 60249 201095 203100 201098 203101 197093 197093=
41049 10031 99275 70630 46/// /1107 10272 20239 40225 51007 90250
22200 00273 10603 20602 300// 40801 70013 333 91208 555 11075
22079 30241 41108 60249 114070 113065 108060 110062 109059 107059
81108 90243=
42036 10031 99285 70845 46/// /2404 10285 40167 53020 90250 22200
00297 10701 321// 40701 70003 333 91205 555 11040 22041 30241
42305 60249 234038 226035 225036 236033 221033 233032=
42362 10031 99278 70907 46/// /1202 10283 20217 40173 90245=
42364 10031 99291 70881 46/// /0000 10278 20222 40169 90245=
41044 10031 99217 70587 46/// /1007 10281 20254 40202 51010 90250
22200 00282 10703 20703 70016 333 91209 555 11079 22084 30215
40909 60249 096073 098072 100078 097076 092074 095073 81008 90227=
41048 10031 99320 70696 46/// /1808 10270 20238 40180 51013 90250
22200 00270 10803 20703 3//// 40802 70017 333 91209 555 11085
22090 30226 41910 60249 180079 180078 183083 180076 175077 175077
81809 90226=
44005 10031 99432 70691 46/// /1806 10206 90250 22200 00196 10802
20401 3//// 40801 70010 333 91207 555 11063 22070 30157 41707
60249 176056 175048 172057 169057 166059 167059=
42039 10031 99288 70860 46/// /2002 10280 20228 40169 51023 90250
22200 00294 10701 300// 40701 70003 333 91202 555 11015 22016
30204 42703 60249 205015 219013 252015 269014 274015 277015 80902
90204=
42035 10031 99292 70944 46/// /0801 10285 40163 53015 90250 22200
00303 10601 20401 318// 40601 70007 333 91202 555 11012 22013
30241 40602 60249 076012 087009 102009 165004 152006 122005=
42060 10031 99165 70635 46/// /0609 10287 20245 40151 50000 90250
22200 00293 10704 20704 70019 333 91211 555 11100 22106 30230
40712 60249 062092 066094 065096 065089 063083 063086 80710 90230=
42019 10031 99279 70954 46/// /1106 10288 20259 40161 53019 90250
22200 00293 10702 20502 314// 40701 70010 333 91207 555 11064
22068 30246 41107 60249 112059 116058 120059 117053 116053 114054=
42059 10031 99151 70675 46/// /1010 10294 20246 40146 53011 90250
22200 00295 10804 20604 300// 40802 70021 333 91212 555 11106
22113 30245 41012 60249 098099 089096 091092 089087 085090 088092
80911 90244=
42020 10031 99270 70967 46/// /1207 10284 40143 53018 90250 22200
00292 10703 20503 313// 40702 70015 333 91208 555 11076 22080
30231 41109 60249 117072 114075 112068 117071 116073 113073=
44066 10031 99396 70726 46/// /2102 10251 20250 40124 51016 90250
22200 10702 20401 300// 40702 70011 333 91203 555 11025 22027
30153 42004 60249 205024 191024 187023 191029 189032 191032=
42056 10031 99199 70851 46/// /1006 10281 20244 40146 51009 90250
22200 00290 10602 20501 313// 40602 70012 333 91207 555 11061
22064 30153 41108 60249 097058 101060 105063 110058 104061 104061
81108 90153=
42012 10031 99301 70876 46/// /2705 10296 20244 40161 53013 90250
22200 00295 10401 20401 318// 40701 70006 333 91206 555 11057
22061 30230 42607 60249 268054 267056 261055 256050 266049 271052=
####018001164####
SIVD15 KWNB 100300 RRB
BBXX
41047 10031 99275 70715 46/// /2504 10257 20243 40189 52012 90250
22200 00286 10802 20401 310// 40802 70009 333 91205 555 11045
22046 30228 42407 60249 251044 250053 243058 244044 255046 253054
82506 90229=
42040 10031 99292 70882 46/// /2703 10296 20227 40157 52014 90250
22200 00304 10701 317// 40701 70004 333 91204 555 11032 22033
30203 42606 60249 267033 268037 268038 268038 262042 264043=
44011 10031 99411 70666 46/// /1807 10208 40163 52007 90250 22200
00172 10804 20602 317// 40803 70019 333 91207 555 11074 22086
30153 43508 60249 177065 178064 178066 175068 170066 173067=
42002 10031 99258 70937 46/// ///06 10286 40144 90250 22200 00292
333 91207 555 11060 22063=
41043 10031 99211 70650 46/// /1007 10284 20231 40195 51011 90250
22200 00290 10703 20502 300// 40702 70016 333 91208 555 11070
22074 30225 41108 60249 102065 101064 105069 101067 100065 103064
81107 90225=
42055 10031 99220 70940 46/// /0806 10280 20254 40128 53009 90250
22200 00277 10602 20502 309// 40602 70012 333 91207 555 11066
22071 30153 40908 60249 083061 080060 087063 091063 091061 089069
80907 90154=
####018000398####
SIVE15 KWNB 100300 RRA
BBXX
51000 10031 99235 71541 46/// /0809 10240 20190 40186 56010 90250
22200 00249 333 91211 555 11097 22102 30233 40712 60249 076091
076098 075093 079092 081094 074093=
51003 10031 99191 71607 46/// /0906 10252 40147 56009 90250 22200
00267 10804 20502 300// 40803 70018 333 91208 555 11066 22069
30237 40909 60249 088064 091072 090065 091066 082073 083073=
####018000593####
SIVD45 KWNB 100300 RRB
BBXX
45004 10031 99476 70866 46/// /2703 10142 39915 40136 53007 90250
22200 00125 10401 20401 70004 333 91204 555 11036 22043 30152
42804 60249 265031 246032 243034 249033 251033 268037=
45005 10031 99417 70824 46/// /0206 10245 39930 40134 53016 90250
22200 00253 10401 20401 70006 333 91206 555 11058 22061 30227
40207 60249 022055 021053 015054 014054 015054 015055=
45003 10031 99454 70828 46/// /3204 10189 39931 40143 51013 90250
22200 00167 1//00 70002 333 91204 555 11042 22050 30150 43204
60249 323036 324033 325033 328034 328034 331033=
####018001880####
SIVD22 KWNB 100300 RRC
BBXX
46088 10031 99483 71232 46/// /2609 10177 40130 57008 90250 22200
00117 10301 20301 70004 333 91212 555 11097 22104 30249 42612
60249 254092 250085 248071 246064 241071 229075=
46053 10031 99342 71198 46/// /2407 10153 40108 56010 90250 22200
00169 10602 20602 70012 333 91208 555 11071 22074 30206 42508
60249 241067 243069 247070 249070 251073 254071=
46028 10031 99357 71219 46/// /3108 10135 20121 30133 40133 56009
90250 22200 00139 10502 20502 319// 41301 70012 333 91210 555
11086 22092 30248 43110 60249 313080 321084 327078 321075 317076
316073=
46088 10031 99483 71232 46/// /2609 10177 40130 90250 22200 00117
10301 20301 70004 333 91212 555 11097 22104 30249 42612 60249
254092 250085 248071 246064 241071 229075=
46012 10031 99374 71229 46/// /3105 10129 40140 56008 90250 22200
00126 11402 20401 316// 41402 70010 333 91206 555 11051 22055
30235 43106 60249 308046 307048 302048 309045 308047 309045=
46013 10031 99382 71233 46/// /3003 10117 40130 58009 90250 22200
00110 11302 20401 317// 41302 70010 333 91204 555 30221 43206
60249 301028 307030 318040 318039 313039 304032=
46029 10031 99461 71245 46/// /3306 10160 20160 40172 52003 90250
22200 00159 10803 20502 330// 40802 70015 333 91207 555 11060
22060 30233 43308 60249 330060 329063 325063 324060 326062 326062=
46054 10031 99343 71205 46/// ///12 10134 40111 56010 90250 22200
00148 10503 20503 300// 40801 70015 333 91215 555 11125 22132=
46015 10031 99427 71248 46/// /0208 10123 40156 52007 90250 22200
10602 20602 332// 40901 70012 333 91209 555 11080 22085 30223
40110 60249 016075 013080 009085 009085 009082 007081=
46025 10031 99337 71191 46/// /2502 10159 40124 55000 90250 22200
00177 11202 20301 321// 41201 70008 333 91203 555 11022 22022
30153 42604 60249 245021 235024 249030 261027 273033 260028=
####018000215####
SIVD45 KWNB 100300 RRC
BBXX
45006 10031 99473 70898 46/// /2205 10173 39914 40134 55000 90250
22200 00145 1//00 70002 333 91205 555 11056 22066 30245 42205
60249 217047 218043 219040 216039 213040 210042=
####018000095####
SNAA14 EGRR 100100 RRA
AAXX 10014
89065 46/// /3103 11170 21185 39712 49794 52002 90050=
####018000233####
SIVD15 KWNB 100300 RRC
BBXX
42057 10031 99168 70815 46/// /0709 10295 20254 40142 53023 90250
22200 00292 10703 20703 70016 333 91210 555 11091 22097 30210
40812 60249 073084 073087 074093 073100 068094 067095 80710 90210=
####018000082####
SIMZ20 FQMA 100300
AAXX 10034
67341 42980 03404 10156 20145 40182 57014=

####018000375####
SIRH75 LDZM 100300
AAXX 1003/
14241 42980 12402 10145 20123 30085 40213 58005 80002=
14284 42965 23201 10164 20151 30105 40211 55003 80001=
14307 42981 00803 10216 20134 30122 40196 57007 333 =
14317 NIL=
14431 42975 01302 10208 20104 30103 40193 58004=
14444 42980 00402 10220 20085 30163 40191 57005 333 =
14474 42980 00605 10228 20054 39994 40177 55007=
####018000115####
SIYE70 OYAG 100300
AAXX 10034
41398 41558 61612 10264 20244 39988 48451 70522 86130 333 59008
83825 85357=
####018000085####
SILY40 EUMS 100300
AAXX 10034
62271 43/// /0410 10288 20074 39649 40133 56003=
####018000101####
SIMJ41 LWSK 100300
AAXX 10031
13586 32770 20303 10152 20121 39916 40200 54000 82030 333 82359=
####018001353####
SIDL49 EDZW 100300
AAXX 10031
10756 35967 02601 10170 20149 39655 40205 57003
  333 55300 20000 30000=
10761 35961 02201 10179 20134 39714 40204 50000
  333 55300 20000=
10765 NIL=
10771 NIL=
10777 35982 01101 10203 20122 39591 40203 56002
  333 55300=
10782 37956 00902 10135 20127 39637 40221 55002 71000
  333 55300 20000 30000=
10796 35960 00902 10141 20136 39513 40226 57002
  333 55300=
10803 35971 03501 10180 20163 39920 40198 50000
  333 55300 20000 30000=
10818 35982 01004 10205 20127 39122 48581 55000
  333 55300 20000 30000=
10827 NIL=
10837 NIL=
10838 369// 13102 10202 20149 39553 40201 55001
  333 55300 81/63=
10850 35979 01202 10201 20131 39631 40205 50000
  333 55300=
10853 NIL=
10856 NIL=
10857 NIL=
10860 NIL=
10863 35968 42801 10159 20135 39654 40209 57002
  333 55300 20000 30000 41290 84/66=
10865 35980 02002 10188 20143 39603 40204 55002
  333 55300=
10872 35958 82101 10132 20125 39804 40219 55001
  333 55300 83/63 85/73 88/81=
10875 35963 00701 10132 20124 39735 40218 57003
  333 55300 20000 30000=
10945 35971 80000 10168 20149 39439 40207 55001
  333 55300 88/62=
10954 NIL=
10963 35976 72201 10145 20132 39397 40224 54000
  333 55300 20000 30000 87/71=
10982 35981 20801 10166 20134 39575 40211 57001
  333 55300 20000 30000 82/62=
####018001441####
SIDL44 EDZW 100300
AAXX 10031
10022 37957 02801 10182 20160 30157 40166 53003 71000
  333 55300 20000 30000=
10028 31950 32803 10208 20193 30154 40167 53003 71000 81032
  333 55300 20000 30000 81362 83080=
10033 41956 12103 10174 20166 30127 40167 55001 71000 81030
  333 81362=
10037 42960 51301 10184 20148 30139 40169 53002 82031
  333 82365 85075=
10038 42958 40000 10181 20157 30147 40168 53001 83031
  333 83366 83075=
10042 37557 82303 10195 20171 30164 40168 56001 71030
  333 55300 82/32 86/61 88/64=
10067 NIL=
10093 35972 81603 10201 20174 30144 40192 57004
  333 55300 82/67 88/81 88/82=
10097 NIL=
10126 41934 12601 10178 20151 30161 40175 52005 71100 81031
  333 81368=
10129 35959 42803 10211 20184 30159 40171 53006
  333 55300 20000 30000 84/81=
10130 37950 01802 10192 20180 30153 40158 52003 71000
  333 55300=
10136 41945 32603 10208 20183 30133 40170 53003 71000 81031
  333 81365 83075=
10139 35959 02401 10193 20166 30152 40165 53002
  333 55300 20000 30000=
10142 26960 00401 10182 20160 30140 40170 53001
  333 55300 69907=
10146 37950 00000 10185 20175 30156 40173 52001 71000
  333 55300=
10150 35961 81202 10217 20181 30139 40172 53001
  333 55300 20000 30000 88/61=
10152 35965 82301 10205 20173 30171 40173 55001
  333 55300 84/59 88/65 88/82=
10156 35971 71502 10221 20160 30155 40175 55001
  333 55300 20000 30000 82/59 85/61 87/66=
####018002098####
SIDL22 EDZW 100300
AAXX 10031
10006 NIL=
10007 NIL=
10008 NIL=
10043 NIL=
10044 NIL=
10046 42775 61602 10218 20166 30132 40169 53001 81531
  333 81650 85365=
10091 35980 01807 10227 20159 30138 40187 56006
  333 55300 20006 30005=
10113 37956 73603 10197 20163 30156 40174 51002 71000
  333 55300 20000 30000 87/65=
10124 NIL=
10131 37956 22803 10217 20183 30150 40164 53003 71000
  333 55300 20000 30000 82/65=
10170 32980 31603 10224 20139 30165 40180 57003 83030
  333 55300 20003 30002 83365=
10264 35977 81603 10226 20132 30079 40180 58004
  333 55300 20000 30000 83/65 88/67=
10291 32975 11502 10200 20129 30132 40197 50000 81031
  333 55300 20000 30000 81366=
10315 32967 32601 10201 20149 30118 40180 53003 83030
  333 55300 20000 30000 83361=
10379 32982 21204 10199 20139 30070 40187 58003 82050
  333 55300 20001 30001 41285 82366=
10382 32982 11001 10220 20139 30148 40191 58003 81031
  333 55300 81363=
10384 36/// /1001 10201 20131 30134 40192 57004
  333 55300 20000 30000=
10427 32981 32804 10209 20138 39232 48569 56001 81081
  333 55300 20000 30000 81359 83080=
10430 35972 00501 10187 20154 39997 40182 58002
  333 55300 20000 30000=
10439 42970 32801 10176 20157 39981 40194 52001 83070
  333 83363=
10453 42883 72104 10217 20093 38929 48578 58003 8707/
  333 55300 87358=
10496 35981 01102 10186 20139 30112 40194 56005
  333 55300 20000 30000=
10499 32982 01701 10171 20146 39929 40210 56003
  333 55300 20001 30001=
10501 32982 01501 10220 20166 39951 40188 55000
  333 55300=
10513 32983 11202 10198 20165 30074 40191 52003 80001
  333 55300 20000 30000 81080=
10532 35962 00000 10183 20153 39947 40186 50001
  333 55300 20000 30000=
10544 32982 12702 10200 20134 39166 48572 58001 81030
  333 55300 81363=
10554 32982 52403 10188 20144 39819 40192 55001 85080
  333 55300 20000 30000 85363=
10567 32980 12004 10191 20141 39832 40193 58001 80001
  333 55300 20000 30000 81076=
10578 32585 12007 10189 20102 38872 48581 58004 81500
  333 55300 20000 30000 81630=
####018001719####
SIDL48 EDZW 100300
AAXX 10031
10564 35981 71904 10224 20115 39622 40190 57004
  333 55300 87/62=
10565 35960 72002 10198 20152 39898 40183 55000
  333 55300 87/67=
10569 35973 72003 10187 20134 39753 40202 56002
  333 55300 20000 30000 87/66=
10574 35984 71903 10193 20104 39202 48577 57004
  333 55300 87/64 87/67=
10577 35983 71803 10221 20122 39713 40191 58006
  333 55300 20001 30000 87/68=
10579 37/// /2103 10221 20112 39479 40199 58005 7////
  333 55300=
10582 35982 01705 10175 20096 39219 48571 57005
  333 55300 20000 30000=
10591 35983 01203 10209 20113 39832 40199 57002
  333 55300=
10613 NIL=
10615 35984 01302 10201 20152 39646 40196 55002
  333 55300 20000 30000=
10618 NIL=
10628 35970 02201 10197 20174 30064 40194 52002
  333 55300=
10635 35983 03101 10224 20137 39270 48575 50000
  333 55300=
10646 35960 70000 10164 20152 39804 40201 58001
  333 55300 87/61=
10648 35983 02603 10239 20144 39675 40189 57001
  333 55300 20000 30000=
10658 35966 03601 10179 20150 39871 40199 51003
  333 55300=
10671 35975 00304 10176 20134 39800 40202 54000
  333 55300 20000 30000=
10686 35967 70201 10178 20130 39496 40207 58003
  333 55300 85/62 87/65=
10704 35963 80702 10209 20171 39774 40190 55001
  333 55300 20000 30000 88/64=
10706 35984 80603 10211 20156 39750 40193 56003
  333 55300 88/63=
10724 35960 00202 10247 20124 39564 40186 58001
  333 55300 20000 30000=
10733 35963 40701 10174 20161 39917 40198 51001
  333 55300 20000 30000 84/81=
10736 35960 30000 10156 20143 39914 40201 50000
  333 55300 81/70 83/73=
10739 35959 01604 10209 20182 39826 40191 57001
  333 55300 20000 30000 41307=
10743 NIL=
####018001865####
SIDL46 EDZW 100300
AAXX 10031
10321 35959 00000 10195 20153 30123 40174 53001
  333 55300 20000 30000=
10325 35978 03201 10212 20154 30022 40181 50000
  333 55300=
10334 42980 51802 10233 20154 30094 40174 53001 85030
  333 85359=
10335 NIL=
10343 42865 50000 10219 20158 30115 40176 55001 85071
  333 83358 83367=
10348 35980 81903 10237 20153 30076 40177 55003
  333 55300 20000 30000 41470 88/63 88/66=
10356 27967 81901 10218 20163 39988 40176 58004 70040
  333 55300 69907 88/65=
10359 35962 72501 10176 20151 30127 40184 58002
  333 55300 20000 30000 87/68=
10365 35962 71201 10169 20139 30140 40185 56003
  333 55300 20000 30000 83/65 87/68=
10368 35969 81402 10205 20149 39969 40187 56005
  333 55300 20000 30000 85/68 88/71=
10376 35965 31102 10184 20146 30121 40190 58003
  333 55300 83/81=
10381 NIL=
10385 32980 10702 10189 20139 30135 40194 58004 81031
  333 55300 20000 30000 81363=
10389 36/// /1806 10227 20135 30097 40193 58003=
10396 35981 00902 10194 20119 30189 40205 57001
  333 553//=
10404 42975 12001 10204 20159 30134 40184 52004 81030
  333 81362=
10410 35975 02401 10218 20169 30012 40186 53004
  333 55300=
10418 35975 02602 10210 20156 39743 40192 53001
  333 55300 20000 30000=
10424 35969 12302 10214 20162 30078 40178 53003
  333 55300 20000 30000 81/65=
10433 35976 31503 10209 20144 39879 40178 50000
  333 55300 20000 30000 83/61 83/66=
10435 35965 40000 10196 20154 39914 40189 54000
  333 55300 84/62 84/69=
10442 35968 81502 10206 20162 30014 40187 55001
  333 55300 20000 30000 88/61=
10444 35965 81302 10192 20166 39988 40188 55000
  333 55300 20000 30000 88/64=
10449 35971 80301 10217 20155 39785 40189 57002
  333 55300 20000 30000 87/60 88/62=
10452 35977 70000 10207 20128 39500 40187 58006
  333 55300 20000 30000 87/60=
####018001879####
SIDL23 EDZW 100300
AAXX 10031
10609 32980 20202 10192 20165 39880 40197 55002 82030
  333 55300 20000 30000 82362=
10616 32984 12202 10230 20148 39622 40190 58001 81030
  333 55300 81361=
10641 35962 01301 10189 20172 30051 40192 54000
  333 55300=
10655 32963 31302 10192 20165 39879 40195 52002 80002
  333 55300 20000 30000 81366 83080=
10675 35964 00000 10161 20148 39918 40201 53001
  333 55300 20000 30000=
10688 35973 00801 10164 20134 39703 40210 57003
  333 55300 20000 30000=
10708 32980 60502 10183 20159 39825 40197 57001 82031
  333 55300 20000 30000 82360 85080=
10729 35970 01001 10181 20163 30076 40194 51001
  333 55300 20000 30000=
10731 37957 51401 10173 20163 30056 40195 51002 71000
  333 55300 20000 30000 85/81=
10742 35960 01801 10197 20162 39879 40197 53001
  333 55300 20000 30000=
10776 35966 83501 10172 20145 39780 40210 58001
  333 55300 20000 30000 88/66=
10791 32784 22103 10168 20113 38635 48580 58005 81031
  333 55300 81356=
10805 32980 30000 10189 20171 30012 40196 53001 81031
  333 55300 20000 30000 81363 83080=
10815 35980 00801 10196 20136 39308 48575 57001
  333 55300 20000 30000=
10836 NIL=
10870 32975 13101 10159 20144 39694 40211 56002 81031
  333 55300 81367=
10895 35964 10402 10168 20140 39661 40213 57004
  333 55300 20000 30000 81/82=
10908 42984 10703 10204 20097 38587 48578 58002 81030
  333 55300 20000 30000 81360=
10929 32960 22901 10193 20182 39690 40199 51003 82041
  333 55300 20000 30000 82363=
10948 35982 81601 10153 20130 39300 48565 58002
  333 55300 20000 30000 88/62=
10961 42589 43504 10095 21037 37224 47221 56005 84040
  333 55300 20000 40985 81330 83343=
10962 32982 71902 10219 20111 39109 48582 55001 8703/
  333 55300 20000 30000 87363=
10980 42989 03504 10163 20078 38253 48583 56006
  333 55300 20000 30000=
####018000095####
SNAA14 EGRR 100100 RRB
AAXX 10014
89272 46/// /3003 11218 21243 37977 49664 57002 90050=
####018000091####
SNAA14 EGRR 100040
AAXX 10004
89257 46/// /2105 11309 21339 39875 49953 52006 90040=
####018000091####
SNAA14 EGRR 100040
AAXX 10004
89266 46/// /1722 11252 21277 39743 49893 57007 90040=
####018000095####
SNAA14 EGRR 100100 RRD
AAXX 10014
89013 46/// /0719 1//// 2//// 37606 4//// 52005 90050=
####018000095####
SNAA14 EGRR 100100 RRC
AAXX 10014
89257 46/// /2106 11308 21339 39875 49953 52006 90050=
####018000830####
SIAT01 TAPA 100300
AAXX 10034
78862 41476 10409 10254 20223 30148 40171 70682 81800 
333 58002 81818=20272 58011 82818 86636=BKN034 
PROB40 TEMPO 1000/1016 3000 TSRA SCT012CB BKN270=

TAF TRPG 092200Z 1000/1024 09016KT 9999 SCT018 BKN034 BKN270 
TEMPO 1000/1024 09018G28KT 5000 SHRA BKN013 BKN032 
PROB40 TEMPO 1000/1016 3000 TSRA SCT012CB BKN260=

TAF TKPN 092200Z 1000/1024 09016KT 9999 SCT018 BKN036 BKN280 
TEMPO 1000/1024 09018G28KT 5000 SHRA BKN014 BKN035 
PROB40 TEMPO 1000/1016 3000 TSRA SCT012CB BKN270=

TAF TQPF 092200Z 1000/1024 09016KT 9999 SCT018 BKN036 BKN280 
TEMPO 1000/1024 09018G28KT 5000 SHRA BKN013 BKN034 
PROB40 TEMPO 1000/1016 3000 TSRA SCT012CB BKN270=

TAF TUPJ 092200Z 1000/1024 10014KT 9999 SCT020 BKN038  
TEMPO 1006/1024 10014G24KT 5000 SHRA BKN013 BKN036 
 TEMPO 1010/1022 2000 TSRA BKN010 BKN260=####018000095####
SNAA14 EGRR 100100 RRE
AAXX 10014
89266 46/// /1724 11252 21277 39742 49892 57008 90050=
####018000090####
SIBE20 TXKF 100300
AAXX 10034
78016 42464 41415 10263 20234 30231 40235 51010 82101 =
####018000233####
SIVD15 KWNB 100300 RRD
BBXX
41035 10031 99345 70773 46/// /2107 10273 20247 40117 53013 90250
22200 00266 10402 20402 314// 40801 70008 333 91209 555 11079
22086 30207 42109 60249 213074 212074 210073 207073 206077 209080=
####018000116####
SISR20 WSSS 100300
AAXX 10034
48698 21464 70906 10307 20252 30098 40116 70522 83208 
333 60007 82818 86080=
####018000085####
SIMJ01 LWOH 100300
AAXX 10031
13579 32970 03203 10124 20091 39387 40209 55004=
####018000263####
SIGB20 GBYD 100300
AAXX 10033

61701 42460 43606 10265 20232 40120 83502
      333 59011 83610=
61705 NIL=

61707 NIL=

61711 NIL=

61712 NIL=

61717 NIL=

61720 NIL=

61721 NIL=

61722 NIL=

61731 NIL=

61733 NIL=
####018000121####
SILC01 TLPL 100300
AAXX 10034
78948 41478 70811 10281 20238 30147 40155 70522 82838 
333   02229 59003 81819 85358=####018000107####
SIJM20 MKJS 100300
AAXX 10034
78388 442570 20903 10270 20232 30141 40150 81802
333 00009 59004 81824=
####018000204####
SIGY31 SYCJ 100300
AAXX 10030 
81001 NIL=
81002 41460 40000 10257 20247 40137 70500 84802 333 31/// 58001 84818
83080=
81005 NIL=
81006 NIL=
81010 NIL=
81058 NIL=
81080 NIL=
81100 NIL=####018000570####
SICU31 MUHA 100302
SINOP
100300Z AAXX 10031
78221  NIL=
78224 41970 09901 10247 20220 30096 40170 51013 70544=
78229  NIL=
78239 41559 21003 10282 20235 30159 40161 52009 70500 82800 
      333 82820=
78244  NIL=
12345 42559 30601 10246 20232 30054 40177 52009 83100 333 
      83820=
78255 42559 20503 10264 20231 30014 40176 52110 82500 333 
      82620=
78264 31559 23402 10276 20246 30081 40173 52007 70500 82200 
      333 82820=
78265 41559 21003 10267 20229 30050 40178 52012 70544 82200 
      333 82820=
78256  NIL=
78259  NIL=
78268  NIL=
####018000209####
SISO21 AMMC 100300
AAXX 10034
91503 31480 60903 10303 20256 40110 58016 70522 82936
  333 56299 82817 81918 85280=
91517 31465 30512 10305 20248 40123 52004 70500 81208
  333 56200 81818 83280=

####018000231####
SISO21 AGGG 100300
AAXX 10034

91503 31480 60903 10303 20256 40110 58016 70522 82936

333      56299 82817 81918 85280=

91517 31465 30512 10305 20248 40123 52004 70500 81208 

333      56200 81818 83280=


####018000110####
SIJM20 MKJS 100300
AAXX 10034
78388 442570 20903 10270 20232 30141 40150 81802
333 00009 59004 81824=
####018003680####
SIMX01 MXBA 100300
AAXX 10031
76055 32970 01007 10320 20194 30025 40044 56007 90235 333   
30/// 58001=
76061 32970 01401 10316 20106 30007 40078 56005 90240 333   
30/// 58000 90801=
76113 32970 02002 10360 20269 39603 40030 57004 90240 333   
30/// 58003=
76122 32562 30703 10274 20129 38533 40033 52012 82430 90247 
333   30/// 56590 58/// 82635=
76243 32370 80904 10272 20250 39852 40134 52003 884// 90235 
333   31/// 563// 58010 88614=
76256 32960 71802 10295 20236 30056 40070 52015 87070 90235 
333   0//3/ 30/// 58023 87360=
76305 32970 01602 10292 20219 30072 40079 52016 90240 333   
30/// 59009=
76323 32310 83602 10196 20190 38285 40146 52011 887// 90245 
333   30/// 561// 58013 88607=
76342 31840 72701 10237 20219 39432 40112 52001 70222 87070 
90245 333   31/// 56050 59005 84356 83458=
76382 31460 61603 10231 20201 38884 40067 52011 75055 86600 
90247 333   31/// 56300 58009 86714=
76402 32950 00000 10224 20164 30045 40099 52015 90240 333   
30/// 58///=
76525 32460 80808 10151 20126 37475 40076 52015 887// 90240 
333   31/// 562// 58010 88710=
76539 31658 80901 10180 20150 38158 40108 52019 70542 88700 
90540 333   30/// 56200 58018 88726=
76556 21858 73601 10210 20196 39095 40096 52016 76000 8702/ 
90230 333   0/07/ 31/// 58013 69907 87460=
76577 32560 73602 10185 20142 38032 40071 52018 87600 90240 
333   31/// 56100 58017 87625=
76632 21465 82003 10142 20133 37634 40078 52027 70522 88600 
90245 333   32/// 56500 58013 60017 88715=
76634 31450 70702 10146 20128 37854 40120 52014 71055 87700 
90245 333   31/// 563// 58009 60027 87710=
76658 31560 72701 10250 20221 39619 40114 52019 70542 84570 
90246 333   0/110 30/// 58002 84622 83356 98914=
76680 21550 83201 10142 20136 37751 40086 52022 75064 86300 
90245 333   32/// 56500 58016 60117 86625 82927=
76687 31358 70000 10188 20177 38682 40135 52017 70542 874// 
90242 333   31/// 563// 58020 82818 85616=
76692 21520 63401 10268 20250 30111 40130 52015 70162 8271/ 
90240 333   0131/ 30/// 57820 58022 60047 82626 82828 82452 
=
76743 31430 70903 10280 20245 30106 40114 50020 70222 8325/ 
90245 333   0200/ 30/// 59001 83816 84357=
76775 31560 70701 10188 20150 38504 40106 52017 70322 87430 
90245 333   30/// 56880 58019 84695 83398=
76805 32565 62101 10284 20260 30111 40116 52020 82235 90245 
333   05322 30/// 57880 59000 82810 81357 83068=
76840 32603 60000 10268 20241 30061 40116 52017 86500 90235 
333   0/300 30/// 58/// 86634=
76843 32865 41601 10250 20215 39474 40102 52018 82073 90246 
333   0//99 30/// 59006 82359=
76845 32220 80000 10156 20146 37939 40115 51020 83720 90245 
333   31/// 56290 58005 83705 85458=
76855 32580 33102 10266 20233 30055 40104 52012 81220 90230 
333   02990 30/// 58003 81820 92000=
76903 31675 60601 10263 20225 39989 40128 5//// 71300 86950 
90240 333   0/210 30/// 59008 81933 83650 82358=
76412 32760 61804 10275 20219 30081 40125 52021 86050 90248 
333   30/// 56050 58027 86356=
76548 32360 20000 10270 20257 30120 40130 52021 82100 90240 
333   01200 32/// 58027 82808=
76581 21450 80000 10214 20200 39050 40132 52027 75266 86720 
90250 333   0/220 32/// 58023 60037 86713=
76640 31210 60401 10278 20267 30135 40146 52015 70322 8422/ 
90240 333   0129/ 31/// 58047 84805=
76737 21470 80000 10175 20169 38774 40130 52020 75062 887// 
90235 333   32/// 569// 58040 60117 88713=
76741 31450 50401 10274 20244 30074 40092 58002 71322 81449 
90235 333   0//// 30/// 58008 81613 83398 90010=
76833 31758 20000 10278 20245 30152 40152 57033 70211 82020 
90230 333   0/090 30/// 59074 82357 92002=
####018000554####
SIHO20 MHTG 100300
AAXX 10034
78705 31560 71602 10245 20218 30115 40133 51026 71394 82963
  333 06200 58019 82925 83358 86070=
78708 21560 82104 10247 20246 30101 40132 51023 76196 8342/
   333 00099 58023 60037 83625 88458=
78714 NIL=
78717 31562 60000 10196 20184 38953 40126 51019 71344 83903
  333 56000 58011 83925 85075=
78720 21550 72102 10201 20192 39040 40132 54021 75165 85570
  333 06400 58015 69997 85525 86758=
78724 21575  70000 10270 20227 30052 40109 52025 71365 83920
  333 06400 59001 60017 81930 82630 87458=
####018000108####
SMAA41 KPAL 100300
AAXX 10031 
89061 37966 02508  21160 39734 49741 52006   70070
333  91010 91111=
####018000131####
SNVD15 KWNB 100200 RRV
BBXX
42360 10021 99267 70905 46/// /1501 10286 40169 53017 90200 22200
00304 10501 70005 333 91202=
####018001088####
SIMS20 WMKK 100300
AAXX 10034
48601 41459 60803 10307 20252 30111 40115 70522 81941
  333 81917 86078=
48615 41465 72007 10295 20234 30109 40115 70522 81142
  333 81818 87074=
48620 41464 73503 10308 20240 30103 40112 70522 82932
  333 81917 87078=
48647 41463 73304 10315 20242 30088 40113 70522 81142
  333 81819 87078=
48657 41468 70402 10289 20257 30099 40117 70542 81232
  333 81819 86078=
48665 41458 70603 10290 20246 30113 40123 70522 81132
  333 81818 87078=
96413 42480 70903 10303 20239 30092 40118 82131
  333 82816 83365 86080=
96421 42475 71903 10291 20241 30086 40121 83231
  333 83816 84365 85080=
96441 42480 72602 10272 20242 30088 40115 81131
  333 81816 86365=
96449 42480 70905 10298 20239 30095 40114 82131
  333 82814 84365 85080=
96465 42478 70601 10304 20246 30087 40120 81842
  333 81813 87080=
96471 42478 72604 10306 20245 30123 40126 82842
  333 81815 87079=
96481 42462 62106 10303 20249 30107 40126 82841
  333 82817 85080=
96491 41467 72004 10309 20226 30114 40126 70522 83842
  333 82816 87080=
####018000108####
SMAA41 KPAL 100300
AAXX 10031 
89061 37966 02508  21160 39734 49741 52006   70070
333  91010 91111=
####018000118####
SIJM20 MKJP 100300
AAXX 10034
78397 41560 72704 10276 20215 30126 40142 70522 81108 333 00909 59010
81822 87274=
####018001228####
SINO24 ENMI 100300
AAXX 10031
01037 26/// /3101 10122 20114 30135 40141 57008 333 60005=
01046 46/// /0000 10112 20100 30137 40144 58004=
01058 26/// /1301 10114 20077 39694 40144 57004 333 60005=
01065 26/// /2302 10106 20080 39994 40152 52002 333 60005=
01092 46/// /3104 10063 20056=
01107 26/// /1803 10112 20098 30106 40111 58014 333 60005=
01114 26/// /0501 10119 20080 30103 40113 58020 333 60005=
01144 46/// /1106 10119 20078=
01199 NIL=
01245 NIL=
01259 26/// /1506 10147 20099 30056 40078 56026 333 60005=
01262 NIL=
01278 NIL=
01293 26/// /0000 10109 20095 39899 40102 58023 333 69975=
01329 26/// /0402 10137 20137 30072 40132 55001 333 60025=
01337 26/// /0000 10134 20120 30060 40124 55005 333 60005=
01344 46/// ///// 10119 20094=
01373 26/// /1202 10182 20090 39932 40125 56009 333 60005=
01374 NIL=
01380 46/// /1704 10101 20074=
01389 41885 82501 10142 20094 39862 40143 58008 70222 82078=
01393 46/// /1705 10131 20076 39352 40124 58015=
01424 26/// ///// 10138 20119 30146 40149 55003 333 60035=
01431 26/// /0000 10121 20102 39509 40155 57004 333 60005=
01436 NIL=
01465 26/// /0202 10154 20141 30143 40157 57014 333 60005=
01471 NIL=
01483 NIL=
####018001169####
SINO26 ENMI 100300
AAXX 10031
01121 46/// /1206 10146 20074 30097 40109 58027=
01143 26/// /0301 10127 20090 333 60005=
01150 26/// /1501 10072 20055 333 60005=
01225 46/// /0803 10137 20114 30061 40066 56033=
01230 26/// /1501 10136 20084 333 60005=
01232 26/// /1703 10167 20109 39993 40069 56022 333 60005=
01234 26/// /3501 10136 20117 333 60005=
01253 26/// /2201 10120 20094 333 60005=
01254 26/// /0901 10118 20107 333 60005=
01257 NIL=
01277 NIL=
01291 26/// /2602 10104 20089 333 60005=
01332 26/// /0000 10120 20106 333 69985=
01366 46/// /1708 10076 20072 38534 40106 56009=
01376 26/// /0702 10177 20088 333 60005=
01383 46/// /1405 10144 20106 39835 40138 57007=
01386 26/// ///// 10162 20107 333 60005=
01416 26/// ///// 10152 20139 333 69945=
01419 26/// /2201 10136 20096 333 60015=
01430 26/// ///// 10141 20110 333 60005=
01434 26/// /0102 10104 20092 39199 40141 58006 333 69955=
01455 46/// /1202 10149 20101 39857 40158 56007=
01468 26/// /1501 10139 20092 333 60005=
01470 26/// /1602 10159 20121 30044 40155 57009 333 60005=
01476 NIL=
01481 26/// /2002 10164 20128 333 60005=
01488 NIL=
####018001501####
SINO25 ENMI 100300
AAXX 10031
01025 47/81 00701 10124 20091 30124 40135 57009 700//=
01052 26/// /0000 10138 20080 30041 40138 57007 333 69935=
01122 26/// /2001 10097 20075 30031 40119 58023 333 60005=
01132 26/// /1601 10116 20071 39741 40119 58027 333 60005=
01156 26/// /1805 10118 20092 30105 40114 58012 333 60005=
01203 46/// /2021 10127 20118 30027 40074 53003=
01233 26/// /1503 10140 20078 333 60005=
01265 26/// /2404 10141 20085 39547 40106 56015 333 60005=
01273 26/// /1502 10117 20100 39899 40089 58027 333 69935=
01307 46/// /2210 10125 20106 30088 40115 53017=
01321 26/// /1701 10122 20115 39845 40091 55006 333 69965=
01327 26/// /1805 10130 20112 333 69975=
01350 26/// /2108 10098 20082 38765 40115 57005 333 69955=
01361 26/// /0603 10105 20077 39098 40091 56012 333 60005=
01375 46/// /1606 10091 20078=
01378 26/// /1504 10160 20105 39847 40127 57006 333 60005=
01385 26/// /1502 10153 20107 39886 40148 57003 333 60005=
01412 26/// /2204 10149 20133 30121 40152 52010 333 60005=
01422 26/// /1601 10151 20130 333 69995=
01441 26/// /1804 10113 20092 39176 40133 58005 333 60005=
01467 46/// /3502 10158 2//// 30147 40154 58015=
01469 26/// /1703 10171 20080 39985 40150 56003 333 60005=
01477 26/// /2201 10149 20105 333 60005=
01480 26/// /0103 10172 20091 333 60005=
01484 26/// /1902 10129 20106 30015 40170 57004 333 60005=
01490 26/// /1802 10118 20105 333 60005=
01495 46/// /1103 10162 20138 30149 40161 57012=
####018001257####
SINO23 ENMI 100300
AAXX 10031
01015 NIL=
01023 41689 10000 10106 20077 30046 40139 57009 74000 81570=
01033 46/// /1606 10128 20097 30096 40126 58011=
01059 46/// /3502 10092 20087 30145 40154 54001=
01089 46/// /0102 10103 20087 30038 40143 52001=
01167 41689 62103 10135 20084 30113 40117 57013 70321 82360=
01180 NIL=
01210 46/// /2103 10137 20123 30046 40072 55008=
01228 46/// /1205 10127 20106 30063 40070 56037=
01240 46/// /1405 10136 20110 30052 40071 57034=
01304 46/// /2009 10129 20118 30062 40092 53015=
01311 41257 82207 10126 20112 30074 40135 53013 71065 885//=
01340 26/// /3002 10125 20092 39285 40128 55004 333 60005=
01355 26/// ///// 10134 20124 30115 40120 55004 333 60005=
01360 NIL=
01392 26/// /1902 10148 20098 39942 40161 57003 333 60005=
01406 NIL=
01411 21665 82206 10144 20138 30123 40148 53017 76082 8257/ 333
      60005=
01425 26/// /0000 10137 20111 30076 40154 57003 333 60005=
01433 46/// /3004 10105 20093 38917 40134 56003=
01442 41589 80000 10141 20103 39903 40154 57005 70222 8117/=
01450 NIL=
01452 26/// /0502 10133 20114 30136 40157 57010 333 60005=
01473 46/// /1701 10155 20096 39953 40154 58006=
01494 26/// /1304 10142 20122 30100 40164 57009 333 60005=
####018004228####
SIFR11 LFPW 100300
AAXX 10034
07005 26/// /2705 10157 20154 30110 40198 58003
  333 60007 90710 91108
  555 60005=
07015 21984 52904 10178 20131 30136 40192 54000 700// 83081
  333 60007 83363 83076 90710 91106 93100
  555 60005=
07020 22565 62107 10165 20159 30192 40199 57005 84501
  333 69927 84626 90710 91110
  555 60005=
07027 24960 /1703 10126 20118 30125 40206 56004 700//
  333 60007 90710 91104
  555 60005=
07037 24983 /3305 10155 20142 30021 40201 56002 700//
  333 60007 90710 91108
  555 60005=
07070 24980 /3402 10177 20160 30079 40186 53001 700//
  333 60007 90710 91105
  555 60005=
07110 22165 72007 10175 20170 30090 40202 56009 877//
  333 60007 86703 87633 90710 91110 93100
  555 60005=
07117 26/// /2205 10159 20148 30133 40202 57008
  333 60007 90710 91110
  555 60005=
07130 24956 /3302 10143 20135 30153 40205 55005 700//
  333 60007 90710 91105
  555 60005=
07139 26/// /0706 10171 20136 30029 40199 56003
  333 60007 90710 91108
  555 60005=
07149 22978 03406 10216 20152 30083 40188 52003
  333 60007 90710 91112 93100
  555 60005=
07168 26/// /3302 10189 20177 30038 40169 57007
  333 60007 90710 91103
  555 60005=
07181 24982 /2103 10202 20166 39798 40193 55002 700//
  333 60007 90710 91104
  555 60005=
07190 24961 /1901 10187 20170 30020 40197 53002 700//
  333 60007 90710 91102
  555 60005=
07207 26/// /3407 10171 20161 30161 40212 56005
  333 60007 90710 91110
  555 60005=
07222 22970 03403 10164 20135 30169 40200 54000
  333 60007 90710 91107
  555 60005=
07240 21980 73103 10209 20179 30054 40183 50000 702// 8703/
  333 60007 87364 90710 91108 93100
  555 60005=
07255 26/// /2506 10221 20177 39990 40182 58004
  333 60007 90710 91113
  555 60005=
07280 24970 /3201 10201 20163 39921 40184 56006 700//
  333 60007 90710 91103
  555 60005=
07299 21/61 11901 10171 20161 39880 40199 58002 702// 80001
  333 60007 81071 90710 91102 93100
  555 60005=
07314 26/// /2711 10194 20181 30184 40211
  333 6///7 90710 91114
  555 60005=
07335 24972 /2306 10176 20166 30057 40199 57003 700//
  333 60007 90710 91112
  555 60005=
07434 24680 /1403 10173 20151 39741 40208 57004 700//
  333 60007 90710 91109
  555 60005=
07460 21665 73104 10215 20208 39818 40191 55001 795/9 879//
  333 6///7 83943 85850 90710 91109 93100
  555 6///5=
07471 24966 /1104 10169 20144 39269 48851 56007 700//
  333 60007 90710 91107
  555 60005=
07481 22980 21805 10240 20147 39915 40190 55002 80001
  333 60007 82076 90710 91112 93100
  555 60005=
07510 24965 /2003 10183 20175 30152 40216 56006 700//
  333 60007 90710 91104
  555 60005=
07535 26/// /2602 10189 20176 39911 40215 58005
  333 60007 90710 91106
  555 60005=
07558 26/// /2104 10184 20171 39399 40208 55011
  333 60007 90710 91108
  555 60005=
07577 26/// /0503 10204 20170 30107 40194 56013
  333 60007 90710 91105
  555 60005=
07591 24/// /0503 10192 20161 39235 4//// 55005 700//
  333 60007 90710 91104
  555 60005=
07607 24462 /1701 10179 20168 30153 40223 56005 700//
  333 60007 90710 91104
  555 60005=
07621 24463 83201 10175 20151 39803 40227 55003 700//
  333 60007 90710 91106
  555 60005=
07627 26/// /0101 10184 20160 39745 40220 56005
  333 60007 90710 91105
  555 60005=
07630 22670 82806 10196 20161 30043 40219 58003 885//
  333 60007 87638 90710 91110 93100
  555 60005=
07643 21256 62703 10220 20212 30187 40196 56011 700// 81582
  333 60007 81706 83360 85075 90710 91106
  555 60005=
07650 22675 70202 10228 20183 30151 40188 57018 83282
  333 60007 83843 85363 87073 90710 91108 93100
  555 60005=
07661 22570 20503 10220 20180 30036 40194 56011 82100
  333 60007 82820 90710 91110
  555 60005=
07690 22970 30404 10261 20200 30158 40190 56008 80001
  333 60007 83073 90710 91107 93100
  555 60005=
07747 24969 /2604 10218 20195 30145 40196 57012 700//
  333 60007 90710 91106
  555 60005=
07761 22970 10306 10230 20194 30181 40191 58006 80001
  333 60007 81076 90710 91110
  555 60005=
07790 22965 02203 10227 20199 30178 40192 58004
  333 60007 90710 91105
  555 60005=
####018000086####
SIMZ20 FQMA 100301
AAXX 10034
67297 41965 0//// 10176 20167 40190 333 59027=

####018000121####
SIJM20 MKJP 100300
AAXX 10034
78397 41560 72704 10276 20215 30126 40142 70522 81108 333 00909 59010
81822 87274=
####018000101####
SMFI01 EFKL 100000 CCB
AAXX 10001
02974 42999 12403 10155 20118 30131 40195 52007 70200 81031=
####018000101####
SMFI01 EFKL 100000 CCC
AAXX 10001
02805 42499 23602 10103 20086 30020 40149 52003 70200 81401=
####018000127####
SIRM20 LUKK 100300
AAXX 10031
33815 41598 83405 10184 20174 39950 40148 57008 78082 84530 333
55079 555   20182 7009/=
####018000115####
SIDL46 EDZW 100300 RRA
AAXX 10031
10381 32975 21203 10180 20148 30107 40192 56004 81051
  333 55300 81361=
####018000251####
SIDL48 EDZW 100300 RRA
AAXX 10031
10613 42975 13002 10213 20148 39642 40195 56001 81031
  333 81362=
10618 42980 32302 10168 20152 39765 40205 55001 82031
  333 82364=
10743 42982 21602 10199 20153 39657 40198 55002 81031
  333 81365=
####018000328####
SIDL49 EDZW 100300 RRA
AAXX 10031
10765 42989 10000 10188 20136 39747 40203 58002 81030
  333 81366=
10827 42984 31001 10196 20133 39166 48579 56002 81031
  333 81363 83072=
10853 42965 23001 10174 20147 39759 40209 54000 82030
  333 82366=
10857 42980 31401 10184 20134 39494 40207 58001 80001
  333 83074=
####018000115####
SIDL23 EDZW 100300 RRA
AAXX 10031
10836 35984 01502 10220 20119 39370 40194 57003
  333 55300 20000 30000=
####018000131####
SIRE15 FMEE 100300
AAXX 10034
61998 22565 62617 10050 20013 40132 86500
  333 58127 60007 86630 90710 91123
  555 60005=
####018000354####
SIDL22 EDZW 100300 RRA
AAXX 10031
10006 46/// /3002 10173 20165 30169 40174 53005
222// 00175
  333 553//=
10007 46/50 /3303 10195 20177 30172 40172 51007
222// 00196
  333 55300=
10044 46/// /1906 10231 20169 30137 40167 55001
222// 00203
  333 55300=
10124 46/// /3206 10204 20172 30134 40170 53005
222// 00126
  333 55300=
####018000087####
SAKN64 HKMO 100300
METAR HKJK 100300Z 24004KT 9999 FEW017 BKN080 12/10 Q1022 NOSIG=
####018000101####
SIAA01 KWBC 100300
AAXX 10031
89061 37966 02508 21160 39734 49741 52006 70070 333 91010 91111=
####018000103####
SISM20 SMJP 100300
AAXX 10034 
81225 42970 20000 10245 20241 40144 81042 
  333 56029 59001 81360
####018000152####
SNAA01 KWBC 100100 RRA
AAXX 10014
89065 46/// /3103 11170 21185 39712 49794 52002 90050=
89065 46/// /3103 11170 21185 39712 49794 52002 90050=
####018000710####
SIVD15 KWNB 100300 RRE
BBXX
41040 10031 99145 70530 46/// /1007 10277 40164 51008 90250 22200
00290 10804 20703 300// 40802 70018 333 91209 555 11078 22082
30239 41010 60249 097074 084077 077073 073071 074071 079070 80909
90238=
42001 10031 99259 70897 46/// /1002 10288 20242 40151 53017 90250
22200 00295 10501 3//// 40501 70004 333 91203 555 11024 22025
30158 41003 60249 101025 098022 106023 105025 102027 100028=
41010 10031 99289 70785 46/// /2104 10286 20242 40165 53019 90250
22200 00289 10801 20301 300// 40801 70007 333 91205 555 11044
22046=
41009 10031 99285 70802 46/// /1605 10282 20259 40166 52021 90250
22200 00278 10801 300// 40801 70004 333 91206 555 11055 22060=
####018000118####
SIAC01 KWNB 100300
OOXX
ACSAMS02 10031 99784 70729 26082 01301 46/// /0000 10018 20016 39913
90301 333 91200=
####018001287####
SIVD17 KWNB 100300 RRA
BBXX
46001 10031 99563 71480 46/// /1301 10093 40068 56004 90250 22200
00094 10704 20401 300// 40703 70018 333 91204 555 11010 22011
30246 41204 60249 125010 123010 120010 122010 121011 118011=
46066 10031 99527 71550 46/// ///// 10084 40052 54000 90250 22200
00082 11006 70029 555 83600 90159=
46082 10031 99597 71434 46/// /0805 10116 40122 56014 90250 22200
00121 10702 20401 300// 40702 70011 333 91205 555 11047 22049
30156 41006 60249 082046 086044 087044 088046 094047 094051 81006
90157=
46081 10031 99608 71483 46/// /2801 10134 40120 56013 90250 22200
00128 1//00 70001 333 91202 555 11016 22019 30228 42802 60249
278013 275016 274015 259011 227011 216004=
46035 10031 99571 71778 46/// /3510 10081 40052 90250 22200 11105
20704 300// 41104 70027 333 91213 555 11103 22110 30154 43416
60249 349103 342107 333114 335116 341122 332128 83214 90204=
51101 10031 99243 71621 46/// /0708 10254 40190 56012 90250 22200
00259 10704 20703 310// 40802 70018 555 11084 22089 30234 40710
60249 071080 071082 074076 073078 077078 079078=
46061 10031 99602 71468 46/// /2003 10117 40123 56010 90250 22200
00132 10802 300// 40801 70008 333 91204 555 11035 22036 30242
42004 60249 195034 192034 199029 197025 201023 212020=
####018000875####
SIVD45 KWNB 100300 RRD
BBXX
45008 10031 99443 70824 46/// /2502 10200 39929 40139 53013 90250
22200 00193 1//00 70001 333 91203 555 11027 22031 30211 42403
60249 245023 242023 246022 244023 239022 240018=
45012 10031 99436 70774 46/// /2704 10218 30021 40109 52007 90250
22200 00218 1//00 70002 333 91205 555 11039 22042 30247 42705
60249 267037 268038 262036 266034 261035 261037=
45022 10031 99454 70851 46/// /3101 10206 40170 52010 90300 22200
00200 1//00 70001 333 91201=
45002 10031 99453 70864 46/// /0603 10206 20189 39934 40144 53017
90250 22200 00200 1//00 70001 333 91204 555 11035 22040 30205
40207 60249 056031 046036 036040 031043 025037 133008=
45001 10031 99481 70878 46/// /2305 10133 39910 40131 54000 90250
22200 00117 10401 20401 70004 333 91205 555 11055 22064 30234
42306 60249 228049 230050 224046 219044 217043 215046=
####018000925####
SIVD20 KWNB 100300 RRD
BBXX
44007 10031 99435 70701 46/// /1807 10197 20197 40108 50000 90250
22200 00176 10502 20502 3//// 40801 70011 333 91209 555 11078
22088 30152 41709 60249 179071 179067 179065 177070 177069 172076=
44014 10031 99366 70748 46/// ///// 10248 40118 51008 90250 22200
00251 10602 70009=
44013 10031 99423 70707 46/// /1604 10208 20208 40123 52004 90250
22200 00199 10401 20401 300// 40701 70006 333 91205 555 11049
22055 30151 41606 60249 159043 162034 162044 161050 159054 157056=
44017 10031 99407 70720 46/// /2005 10243 20236 40123 53007 90250
22200 00240 10702 20501 300// 40702 70011 333 91206 555 11058
22063 30213 42007 60249 204054 204054 204053 202051 199052 191054=
44025 10031 99403 70732 46/// /1805 10247 20232 40118 52007 90250
22200 00249 10702 20401 314// 40702 70010 333 91206 555 11050
22052 30247 41806 60249 181048 195044 199042 191045 187042 177040=
####018001405####
SIVD22 KWNB 100300 RRD
BBXX
46026 10031 99378 71228 46/// /3004 10123 40138 56009 90250 22200
00122 11202 317// 41202 70008 333 91206 555 11046 22049 30240
43006 60249 298044 295040 295039 292035 286037 281036=
46086 10031 99325 71180 46/// /2805 10156 40131 55000 90250 22200
00173 11202 20401 319// 41202 70010 333 91206 555 11050 22052
30238 42906 60249 284049 291050 295046 292048 286050 284048=
46089 10031 99459 71258 46/// /3308 10168 40186 54000 90250 22200
00161 10703 20703 3//// 41202 70017 333 91210 555 11086 22094
30232 43410 60249 328079 331080 332079 334079 336078 337082 83409
90157=
46041 10031 99474 71247 46/// /3306 10146 40171 54000 90250 22200
00132 10803 20502 3//// 40803 70016 333 91206 555 11063 22071
30236 43307 60249 329056 328055 328050 324054 324052 325054=
46041 10031 99474 71247 46/// /3306 10146 40171 90250 22200 00132
10803 20502 3//// 40803 70016 333 91206 555 11063 22071 30236
43307 60249 329056 328055 328050 324054 324052 325054=
46011 10031 99349 71209 46/// /3207 10131 40127 56007 90250 22200
00129 11302 20402 313// 41301 70010 333 91209 555 11079 22085
30235 43209 60249 321074 320073 325078 318076 320074 322073=
46042 10031 99368 71224 46/// /3206 10130 30136 40136 56006 90250
22200 00129 11402 20601 319// 41402 70012 333 91208 555 11066
22071 30233 43308 60249 317062 318063 322058 321062 314058 315060=
####018000350####
SIVE15 KWNB 100300 RRB
BBXX
51002 10031 99171 71578 46/// /0708 10253 40144 56007 90250 22200
00255 11103 20602 3//// 41102 70017 333 91210 555 11084 22090
30230 40710 60249 071080 072081 074081 071079 071076 072080=
51100 10031 99236 71539 46/// ///10 10241 40186 56010 90250 22200
00248 10704 20703 310// 41102 70020 555 11101 22107=
####018000126####
SIRM20 LUKK 100300
AAXX 10031
33815 41598 83405 10184 20174 39950 40148 57008 78082 84530 333  55079 555   20182 7009/=
####018000083####
SIAA19 LFVW 100300 RRA
AAXX 10034
89661 46/// /2542 11169 39090 4//// 5////=
