####018000113####
SNAU03 AMMC 092000 RRJ
AAXX 09204
94672 41575 83624 10129 20100 30081 40091 51038 72166 885// 92030=


####018000079####
SIJD50 OJAM 092100
AAXX 09214
40296 42960 00000 10340 20199 40075 52019=
####018000113####
SNAU45 AMMC 091700 CCH
AAXX 09174
95654 17/// /3626 10106 20/// 39960 40065 52022 60083 7//44 91730=


####018000178####
SNVD15 KWNB 091900 RRX
BBXX
42013 09191 99272 70829 46/// ///// 1//// 40161 91920 22200 00292=
42013 09191 99272 70829 46/// ///// 1//// 40162 57008 91900 22200
00292=
####018000101####
SNVD22 KWNB 092000 RRL
BBXX
46093 09201 99367 71224 46/// ///05 1//// 40149 92004 22200 00124=
####018000125####
SNVD45 KWNB 092000 RRH
BBXX
45022 09201 99454 70851 46/// /2803 10201 40170 92030 22200 00196
10201 70003 333 91204=
####018000567####
SNVD20 KWNB 092000 RRP
BBXX
44034 09201 99441 70681 46/05 /1605 10149 40147 58019 92004 22200
00140 10502 70009 333 91206 555 11067 22075=
44024 09201 99423 70659 46/30 /1807 10204 40176 58017 92004 22200
00192 10803 70013 333 91208 555 11088 22096=
44039 09201 99411 70727 46/// /1504 10261 20232 40132 92023 22200
1//00 70002 333 91205=
44060 09201 99413 70721 46/// /1303 10224 40131 92030 22200 00198
333 91203 555 11036 22041=
44040 09201 99410 70736 46/// /0603 10267 20216 40128 56028 92015
22200 1//00 70002 333 91205 555 11036 22036=
####018000098####
SMMZ01 FQMA 091800
AAXX 09184
67297 32570 1//// 10198 20155 40215 81400 333 10248 59031=

####018000092####
SIMZ20 FQMA 091500
AAXX 09154
67297 42570 21008 10220 20189 40205 81234 333 59047=

####018000095####
SMMZ01 FQMA 091800
AAXX 09184
67297 32570 1//// 10198 20155 40215 81400 333 10248 59031=
####018000089####
SMAA01 KARS 091800 RRE
AAXX 09184
89667 46/// /2032 11185 39776 4//// 5//// 91820=
####018000842####
SMAA01 KARS 091900 RRA
AAXX 0919/
89768 46/// ///// 11308 38631 4//// 5////=
89872 46/// ///// 11258 39704 4//// 5////=
89377 46/// ///// 11359 39784 4//// 5////=
89869 46/// ///// 11300 39738 4//// 5////=
89834 46/// ///// 11484 37320 4//// 5////=
89866 46/// ///// 11174 39660 4//// 5////=
89864 46/// ///// 11268 39693 4//// 5////=
89376 46/// ///// 11371 39697 4//// 5////=
89324 46/// ///// 11388 37934 4//// 5////=
89329 46/// ///// 11364 38563 4//// 5////=
89799 46/// ///// 11635 4//// 5////=
89868 46/// ///// 11305 39722 4//// 5////=
89332 46/// ///// 11388 39033 4//// 5////=
89769 46/// ///// 11261 39726 4//// 5////=
89314 46/// ///// 11324 38043 4//// 5////=
89828 46/// ///// 11710 36476 4//// 5////=
89108 46/// ///// 11623 36888 4//// 5////=
89879 46/// ///// 11179 39660 4//// 5////=
####018000644####
SMAA01 KARS 091800 RRD
AAXX 0918/
89667 46/// ///// 11183 39770 4//// 5//// 91810=
89768 46/// ///// 11303 38627 4//// 5//// 91840=
89872 46/// ///// 11255 39704 4//// 5//// 91840=
89377 46/// ///// 11358 39785 4//// 5//// 91840=
89869 46/// ///// 11298 39740 4//// 5//// 91840=
89834 46/// ///// 11489 37321 4//// 5//// 91840=
89866 46/// ///// 11173 39660 4//// 5//// 91840=
89864 46/// ///// 11268 39693 4//// 5//// 91840=
89324 46/// ///// 11386 37937 4//// 5//// 91840=
89799 46/// ///// 11635 4//// 5//// 91840=
89769 46/// ///// 11259 39727 4//// 5//// 91840=
89314 46/// ///// 11324 38042 4//// 5//// 91840=
####018000141####
SNVD20 KWNB 092000 RRQ
BBXX
44040 09201 99410 70736 46/// /1404 10273 20214 40125 92019 22200
1//00 70002 333 91204 555 11041 22051=
####018000085####
SIJD50 OJAM 092100
AAXX 09214
40310 42960 03404 10254 20086 38919 48493 54003=
####018000083####
SNAA17 LFVW 092000 RRA
AAXX 09204
89577 46/// /3003 11735 30600 4//// 5////=
####018000073####
SNAA11 LFVW 091900
AAXX 09194
89253 46/// /0000 11124 49668 5////=
####018000089####
SNAA19 LFVW 092000 RRA
AAXX 09204
89659 46/// /3017 11500 29045 37564 4//// 5////=
####018000091####
SIJD50 OJAM 092100
AAXX 09214
40270 41956 03004 10254 20069 39229 40073 52004 70500=
####018000426####
SIMZ20 FQMA 191500
AAXX 09154
67237 42570 32005 10242 20140 40190 81200 333 59011=
67241 42580 51804 10249 20205 40166 83250 333 59030=
67280 42475 80000 10205 20193 40230 882// 333 59031=
67291 42580 5//// 10192 20126 3//// 48/// 85200 333 5////=
67301 42580 31602 10166 20121 39104 48/// 83800 333 59040=
67323 42580 41809 10226 20171 40197 57007 84200=
67331 42580 40000 10246 20146 40201 57013 84200=

####018000101####
SIMZ20 FQMA 091500
AAXX 09153
67295 42480 61604 10190 20141 39433 48572 86800 333 
59042=

####018001206####
SIET20 HAAB 091500
AAXX 09151
63330 NIL=
63331 NIL=
63332 41570 82702 10218 20160 3//// 4//// 71722 8593/ 333 5//// 82920
82621
82822 83358 555 10255=
63333 41565 30605 10190 20073 38119 40061 70500 83100 333 59003
83827=
63334 41565 72204 10148 20134 37622 40111 79592 87920 333 59007 81921
83822
86624 85458 555 10204=
63340 41565 73602 10180 20165 37934 40153 71098 86960 333 59001 82822
83623
81924 86358=
63402 42580 70000 10240 20166 38328 49960 83930 333 59002 82830 81931
84360
555 10273=
63403 41560 83404 10170 20164 71722 8697/ 333 85624 81925 87360 555
10224=
63450 41559 71202 10174 20122 37710 40073 71022 86931 333 59003 81923
83825
84626 82358=
63451 41565 72601 10218 20149 38114 40079 71522 86930 333 59005 82626
84827
81928 83358=
63453 41570 32704 10330 20173 39008 70500 83500 333 58003 83627 555
10355=
63460 NIL=
63471 42980 71805 10286 20194 38788 40015 80007 333 59014 87270=
63474 NIL=
63478 42580 62208 10308 20157 39765 40143 86800 333 59024 84825 83627
555
10322=
63500 42580 52302 10218 20153 8687/ 333 83820 84625 85460 555 10243=
63533 42580 72307 10199 20113 85830 333 82823 83625 85358 555 10223=

####018000067####
SMTC01 LFVW 091800
AAXX 0918/
68902 46/// ///// 40226 57005=
####018000067####
SNTC01 LFVW 091700
AAXX 0917/
68902 46/// ///// 40230 57004=
####018000086####
SNAU54 AMMC 092000 RRA
AAXX 09204
94744 41/70 60000 10056 20052 70151 86030=

####018000092####
SNAU04 AMMC 092000 RRA
AAXX 09204
94290 46/// /1320 10236 30165 40174 52010 92024=

####018000391####
SNAU48 AMMC 092000
AAXX 09204
94466 41/65 82312 10124 20120 39563 40159 52030 75152 92030=
95100 45/// /0916 10276 20226 30093 40136 57003=
95121 46/// /0000 10188 20183 30116 40134 56004 92030=
95142 45/// /1607 10212 20176 30102 40135 55001 92030=
95146 45/// /1507 10213 20213 30126 40136 55002 92030=
95323 41/80 73410 10141 20081 39407 40178 57001 70211 87050 92030=

####018000092####
SNAU49 AMMC 092000 RRA
AAXX 09204
94371 46/// /1418 10219 30179 40186 53007 92020=

####018000184####
SNAU46 AMMC 092000
AAXX 09204
95812 41550 63624 10118 20082 75065 86500 92030=
95814 41465 83609 10114 20096 70366 88400 92030=
95823 47/// /0319 10116 20090 7//44 92030=

####018000104####
SNAU53 AMMC 092000 RRA
AAXX 09204
94698 41/84 80216 10102 20022 30092 40206 57023 70211 8807/=

####018000098####
SNAU05 AMMC 092000 RRA
AAXX 09204
94691 45/// /0120 10126 20085 39811 40148 55029 92030=

####018001462####
SNAU44 AMMC 092000
AAXX 09204
94474 47/// /2312 10113 20066 39339 40155 51016 7//44 92030=
94476 47/// /2910 10147 20077 30013 40153 53030 7//44 92030=
94655 47/// /3509 10116 20103 39979 40128 53008 7//44 92030=
94657 41980 03413 10120 20068 39999 40068 53006 70211 92030=
94658 47/// /3426 10120 20107 39994 40027 53011 7//44 92030=
94661 41/70 /3415 10110 20075 39826 40056 52001 76066 92030=
94662 47/// /3524 10110 20069 39849 40058 53002 7//44 92030=
94663 41/60 /3436 10130 20091 39976 40040 50004 78088 92030=
94665 41/82 83144 10111 20089 39849 40070 52015 70282 8807/ 92030=
94668 41580 83120 10102 20090 70282 8422/ 92030=
94674 47/// /3619 10103 20095 39844 40155 53016 7//44 92030=
94675 47/// /3514 10119 20104 30039 40097 51041 7//44 92030=
94677 47/// /3519 10127 20095 30055 40066 51015 7//44 92030=
94678 47/// /3223 10086 20085 39477 40094 53029 7//44 92030=
94679 415// 83415 10094 20084 75322 886// 92030=
94680 41/82 /3124 10106 20086 39620 40112 52019 70288 92030=
94681 47/// /3411 10108 20096 39785 40115 53029 7//44 92030=
94682 45/// /0316 10143 20076 30061 40098 56032 92030=
94683 47/// /3325 10097 20094 39627 40058 51024 7//44 92030=
94684 47/// /3628 10109 20087 39756 40114 55004 7//44 92030=
94685 47/// /3633 10121 20097 30030 40080 51022 7//44 92030=
94688 41/80 80520 10140 20082 39971 40091 70262 88020 92030=
94690 47/// /0231 10138 20082 39959 40092 56018 7//44 92030=

####018001870####
SNAU45 AMMC 092000
AAXX 09204
94806 41/56 83624 10105 20095 78022 92030=
94808 46/// /3621 10124 20098 92030=
94809 47/// /3531 10121 20098 30036 40044 50007 7//44 92030=
94811 46/// /3111 10103 20103 39643 40047 53012 92030=
94813 47/// /0224 10113 20094 30056 40078 55013 7//44 92030=
94814 47/// /3615 10126 20092 30006 40076 53013 7//44 92030=
94816 41684 80211 10125 20096 30052 40089 57020 70262 88300 92030=
94817 47/// /0219 10118 20073 30026 40095 56024 7//44 92030=
94820 45/// /0422 10125 20072 30027 40088 56041 92030=
94822 47/// /3649 10119 20105 39952 40023 55001 7//44 92030=
95654 45/// /3420 10119 20117 39970 40075 53010 92030=
95655 41/84 80203 10100 20079 70311 80009 92030=
95658 47/// /3512 10106 20101 30027 40147 53034 7//44 92030=
95659 47/// /3630 10119 20116 30015 40054 50021 7//44 92030=
95661 475// 83426 10124 20096 30013 40023 53013 7//44 92030=
95662 47/// /3417 10107 20088 39884 40082 53012 7//44 92030=
95663 47/// /3521 10114 20095 39962 40035 53004 7//44 92030=
95664 47450 83420 10116 20105 30100 40108 51046 7//44 92030=
95667 47/// /3315 10093 20085 39645 40116 53029 7//44 92030=
95670 47/// /3433 10114 20101 39978 40110 53042 7//44 92030=
95671 47/// /3421 10119 20100 30020 40099 51047 7//44 92030=
95676 474// 83620 10122 20101 30078 40098 51039 7//44 92030=
95677 474// 83618 10122 20098 30086 40098 51040 7//44 92030=
95678 46/// /3219 10078 20077 92030=
95687 45/// /0216 10145 20071 30068 40106 56028 92030=
95806 46/// /3528 10125 20109 39967 40019 58001 92030=
95807 47558 83524 10126 20101 30015 40022 58003 7//44 92030=
95813 41/68 83410 10121 20091 75122 92030=
95815 47/// /0324 10126 20105 30053 40086 56020 7//44 92030=
95816 47/// /0219 10112 20086 30079 40083 55016 7//44 92030=
95818 47/// /3619 10120 20094 30037 40092 53015 7//44 92030=

####018001622####
SNAU47 AMMC 092000 RRA
AAXX 09204
94116 46/// /1602 10225 20210 30124 40129 53001 92030=
94119 46/// /1102 10231 20206 30103 40125 53001 92030=
94125 46/// /0000 10199 20180 30014 40135 55004 92030=
94128 45/// /0000 10177 20177 30087 40137 55002 92030=
94129 45/// /1007 10250 20236 30103 40126 55002 92030=
94130 45/// /0000 10200 20164 30056 40144 56002 92030=
94137 45/// /1107 10228 20166 30105 40138 55000 92030=
94138 41975 00000 10234 30125 40135 52001 70200 92030=
94139 45/// /1310 10232 20179 30116 40138 56001 92030=
94140 45/// /1506 10208 20193 30121 40140 55001 92030=
94141 45/// /1405 10183 20156 39674 40147 56002 92030=
94143 45/// /0000 10163 20150 30026 40147 57002 92030=
94148 41/00 90000 10192 20190 30110 40149 52005 74522 92030=
94149 41980 00000 10194 20183 30123 40148 52001 70200 92030=
94152 45/// /0000 10138 30141 40160 52002 92030=
94153 45/// /0000 10160 20142 30129 40145 53001 92030=
94220 41980 00000 10182 20177 30109 40135 52001 70200 92030=
94225 459// 10805 10192 20149 39885 40142 56002 92030=
94229 41982 01301 10177 20151 39920 40150 54000 70200 92030=
94231 45/// /0505 10161 20100 39785 40153 55001 92030=
94232 45/// /0000 10179 20164 30039 40144 53002 92030=
94234 45/// /0000 10147 20124 39912 40157 53004 92030=
94237 41984 00000 10149 20137 39937 40152 52040 70200 92030=
94239 45/59 /0000 10156 20146 30111 40160 55001 92030=
94321 47/// /2113 10157 20139 39620 40154 52005 74144 92030=
94328 46/// /0502 10139 20119 39514 40172 56001 92030=
94463 41250 82301 10134 20116 39580 40155 51019 75155 886// 92030=

####018000161####
SNAU50 AMMC 092000 RRA
AAXX 09204
94369 41/70 61801 10145 20129 30194 40215 53009 70122 86020=
94384 41/84 /1620 10150 20132 30170 40226 51011 70100=

####018000131####
SNVD15 KWNB 092000 RRS
BBXX
42360 09201 99267 70905 46/// /0602 10284 40164 58015 92000 22200
00305 10501 70006 333 91204=
####018000104####
SNAU61 AMMC 092000 RRA
AAXX 09204
94967 41080 13608 10096 20052 30168 40237 57012 70200 81600=

####018000098####
SNAU59 AMMC 092000 RRA
AAXX 09204
94884 41/80 80703 10078 20046 30022 40232 57019 70000=

####018000121####
SIVD45 KWNB 092100
BBXX
45022 09211 99454 70851 46/// /2502 10201 40170 92040 22200 00196
10201 70004 333 91203=
####018000115####
SNVD20 KWNB 092000 RRR
BBXX
44056 09201 99362 70757 46/// ///// 1//// 91945 22200 00270 10802
20802 70011=
