####018000778####
SAAM31 FCBB 080800
METAR FCBB 080800Z 25004KT 6000  FEW012 BKN140 23/20 Q1016 NOSIG=
SPECI FCPP 080800Z 14004KT 4000 BR FEW010 BKN023 23/21 Q1015 BECMG
6000 NSW=
METAR FKKD 080800Z 14003KT 070V160 7000 TS BKN013 FEW016CB OVC120
26/24 Q1015 TEMPO 4000 TS BR=
METAR FKYS 080800Z 26003KT 230V300 8000 FEW003 BKN006 22/20 Q1019
NOSIG=
METAR FEFF 080800Z 31004KT 9999 FEW016 BKN150 23/23 Q1015 NOSIG=
METAR FOOL 080800Z 16007KT 120V200 8000 SCT010 BKN040 BKN100 25/21
Q1015 NOSIG=
METAR FGSL 080800Z 00000KT 9999 SCT013 FEW020CB BKN130 26/26
Q1015 NOSIG=
METAR FZAA 080800Z 26006KT 3000 BR FEW016 23/19 Q1016 BECMG 6000=
METAR FNLU 080800Z VRB03KT 6000 SCT017 BKN020 23/19 Q1015 NOSIG=
METAR FPST 080800Z 17008KT 9999 FEW025 SCT250 26/20 Q1015 NOSIG=
####018000073####
SAAL41 DAMM 080800 RRC
METAR DATM 080800Z 17006KT CAVOK 32/00 Q1011=
####018000074####
SAAL41 DAMM 080700 RRC
METAR DATM 080700Z 00000KT CAVOK 29/M02 Q1011=
####018002939####
SAUS20 KNKA 080820
METAR K29G 080814Z AUTO 00000KT 7SM BKN060 20/19 A3009 RMK AO2
     T02040185 PWINO=
METAR K4I3 080816Z AUTO 00000KT 10SM CLR 20/18 A3009 RMK AO2=
METAR KACB 080815Z AUTO 19003KT 10SM CLR 24/21 A2998 RMK AO2=
METAR KACQ 080818Z AUTO 31003KT 10SM CLR 17/16 A3011 RMK AO2=
METAR KADC 080817Z AUTO 24004KT 10SM CLR 13/12 A3008 RMK AO2=
METAR KAEL 080811Z AUTO 32003KT 10SM SCT029 18/17 A3008 RMK
     AO2=
METAR KANE 080815Z AUTO 27004KT 10SM 18/17 A3008 RMK AO2=
METAR KAUM 080815Z AUTO 31004KT 10SM CLR 18/17 A3007 RMK AO2=
METAR KAWG 080815Z AUTO 31005KT 3 1/2SM OVC003 22/20 A3003 RMK AO2=
METAR KAXA 080815Z AUTO 32004KT 10SM CLR 18/17 A3010 RMK AO2=
METAR KBAX 080815Z AUTO 00000KT 4SM BR CLR 21/20 A3001 RMK AO2=
METAR KBDH 080815Z AUTO 28003KT 10SM CLR 16/14 A3012 RMK AO2=
METAR KBNW 080815Z AUTO 33006KT 10SM SCT023 21/18 A3010 RMK AO2=
METAR KCAD 080814Z AUTO 22009KT 10SM CLR 22/21 A3004 RMK AO2=
METAR KCAV 080815Z AUTO 33004KT 10SM BKN027 21/19 A3009 RMK AO2=
METAR KCBF 080815Z AUTO 35007KT 10SM CLR 20/16 A3011 RMK AO2=
METAR KCBG 080815Z AUTO 29003KT 10SM CLR 16/14 A3007 RMK AO2=
METAR KCCY 080815Z AUTO 31005KT 7SM SCT032 20/17 A3006 RMK AO2=
METAR KCFE 080815Z AUTO 27003KT 10SM CLR 18/16 A3009 RMK AO2
     T01760162=
METAR KCFS 080815Z AUTO 00000KT 1 1/2SM BR VV007 20/20 A3002 RMK
     AO2=
METAR KCIN 080815Z AUTO 34003KT 7SM CLR 19/16 A3012 RMK AO2=
METAR KCKC 080815Z AUTO 30004KT 10SM CLR 16/13 A3002 RMK AO2=
METAR KCKN 080815Z AUTO 25003KT 10SM CLR 14/12 A3004 RMK AO2=
METAR KCMY 080815Z AUTO 00000KT 10SM CLR 20/19 A3002 RMK AO2 
     T02040193=
METAR KCNB 080817Z AUTO 24004KT 10SM CLR 16/13 A3013 RMK AO2
     T01550129=
METAR KCOQ 080816Z AUTO 29006KT 10SM CLR 14/14 A3005 RMK AO2=
METAR KCQM 080817Z AUTO 24003KT 10SM CLR 14/14 A3004 RMK AO2=
SPECI KCRP 080816Z 36005KT 10SM -TSRA FEW011CB BKN038 BKN060 26/25
     A2983 RMK AO2 TSB16 OCNL LTGIC SW-W TS SW-W MOV W P0000=
METAR KCVH 080810Z AUTO 00000KT 10SM OVC012 12/11 A2993 RMK
     AO1=
METAR KDRM 080816Z AUTO 14003KT 10SM BKN110 20/20 A2996 RMK
     AO2=
METAR KDTL 080815Z AUTO 27005KT 10SM CLR 17/11 A3009 RMK AO2=
METAR KDUH 080815Z AUTO 00000KT 10SM CLR 22/18 A3004 RMK AO2=
METAR KDXX 080814Z AUTO 00000KT 10SM CLR 14/14 A3011 RMK AO2=
METAR KDYT 080814Z AUTO 30007KT 10SM CLR 21/16 A3003 RMK AO2=
METAR KEFK 080815Z AUTO 20003KT 7SM BKN055 21/19 A3006 RMK AO2=
SPECI KELM 080819Z AUTO 00000KT 1 1/4SM BR CLR 18/17 A3008 RMK AO2=
METAR KELO 080813Z AUTO 00000KT 10SM CLR 13/13 A3002 RMK AO2=
METAR KEVM 080812Z AUTO 00000KT 10SM CLR 13/12 A3002 RMK AO1=
METAR KFBL 080814Z AUTO 30004KT 10SM CLR 18/16 A3008 RMK AO2=
METAR KFFX 080815Z AUTO 00000KT 7SM OVC065 22/22 A3002 RMK AO2=
METAR KFKA 080823Z AUTO 31005KT 4SM BR CLR 19/19 A3007 RMK AO2
     T01910186=
METAR KFPK 080816Z AUTO 20003KT 7SM CLR 20/20 A3002 RMK AO2=
####018000778####
SAAM31 FCBB 080800
METAR FCBB 080800Z 25004KT 6000  FEW012 BKN140 23/20 Q1016 NOSIG=
METAR FCPP 080800Z 14004KT 4000 BR FEW010 BKN023 23/21 Q1015 BECMG
6000 NSW=
METAR FKKD 080800Z 14003KT 070V160 7000 TS BKN013 FEW016CB OVC120
26/24 Q1015 TEMPO 4000 TS BR=
METAR FKYS 080800Z 26003KT 230V300 8000 FEW003 BKN006 22/20 Q1019
NOSIG=
METAR FEFF 080800Z 31004KT 9999 FEW016 BKN150 23/23 Q1015 NOSIG=
METAR FOOL 080800Z 16007KT 120V200 8000 SCT010 BKN040 BKN100 25/21
Q1015 NOSIG=
METAR FGSL 080800Z 00000KT 9999 SCT013 FEW020CB BKN130 26/26
Q1015 NOSIG=
METAR FZAA 080800Z 26006KT 3000 BR FEW016 23/19 Q1016 BECMG 6000=
METAR FNLU 080800Z VRB03KT 6000 SCT017 BKN020 23/19 Q1015 NOSIG=
METAR FPST 080800Z 17008KT 9999 FEW025 SCT250 26/20 Q1015 NOSIG=
####018000074####
SAAL41 DAMM 080600 RRF
METAR DATM 080600Z 00000KT CAVOK 28/M05 Q1010=
####018000787####
SAUS20 KNKA 080820
METAR KTEW 080813Z AUTO 00000KT 7SM CLR 21/20 A3004 RMK AO2=
METAR KTKC 080813Z AUTO 25005KT 10SM CLR 16/14 A3013 RMK AO2
     T01550137=
METAR KTKV 080815Z AUTO 00000KT 4SM BR BKN001 17/17 A3002 RMK AO2 
     T01710165=
METAR KTOB 080814Z AUTO 00000KT 10SM CLR 18/17 A3008 RMK AO2=
METAR KUES 080815Z AUTO 17004KT 7SM SCT055 OVC095 21/20 A3002 RMK 
     AO2 T02110196=
METAR KUKT 080810Z AUTO 00000KT 5SM CLR 21/20 A3003 RMK AO1=
METAR KUNU 080812Z AUTO 00000KT 7SM SCT010 SCT100 21/20 A3001 RMK 
     AO2 T02080195=
METAR KVLL 080814Z AUTO 00000KT 10SM CLR 26/20 A3005 RMK AO2=
METAR KVVV 080816Z AUTO 00000KT 10SM CLR 16/14 A3011 RMK AO2=
METAR KY70 080815Z AUTO 25006KT 10SM BKN055 BKN075 OVC120 24/21
     A3003 RMK AO2 T02410212=
####018002947####
SAUS20 KNKA 080820
METAR KFSE 080814Z AUTO 20003KT 10SM CLR 13/12 A3004 RMK AO2=
METAR KFSO 080818Z AUTO 00000KT 5SM BR CLR 23/22 A3000 RMK AO2=
METAR KGYL 080814Z AUTO 00000KT 10SM CLR 15/15 A3009 RMK AO2
     T01540145=
METAR KHAF 080810Z AUTO 27003KT 9SM OVC008 12/10 A2995 RMK AO2=
METAR KHAI 080815Z AUTO 00000KT 7SM CLR 22/21 A3004 RMK AO2=
METAR KHCD 080812Z AUTO 26003KT 7SM CLR 14/13 A3010 RMK AO2
     T01380128=
METAR KHCO 080814Z AUTO 20003KT 10SM CLR 13/12 A3004 RMK AO2=
METAR KHZX 080811Z AUTO 00000KT 1 3/4SM VV007 13/13 A3007 RMK AO2
     VIS 1/2V5=
METAR KIKW 080813Z AUTO 00000KT 1 1/2SM BR VV007 21/20 A3000 RMK
     AO2 T02140203=
METAR KIRS 080815Z AUTO 00000KT 7SM CLR 22/19 A3004 RMK AO2=
METAR KJKJ 080814Z AUTO 23005KT 10SM CLR 16/15 A3006 RMK AO2=
METAR KJMR 080818Z AUTO 31004KT 10SM CLR 15/13 A3008 RMK AO2=
METAR KJYG 080815Z AUTO 00000KT 10SM CLR 17/17 A3012 RMK AO2=
METAR KJYM 080815Z AUTO 00000KT 7SM CLR 21/19 A3006 RMK AO2=
SPECI KLEB 080819Z AUTO 00000KT 1 1/2SM BR FEW001 22/20 A3004 RMK 
    AO2=
SPECI KLHX 080819Z AUTO 33006KT 6SM RA BR OVC025 16/15 A3030 RMK AO2 
    PNO $=
METAR KLJF 080812Z AUTO 29003KT 10SM CLR 18/16 A3011 RMK AO2=
METAR KLVN 080808Z AUTO 32006KT 10SM CLR 18/17 A3007 RMK AO2=
METAR KLWA 080816Z AUTO 00000KT 7SM BKN050 BKN065 OVC110 23/22
     A3004 RMK AO2=
METAR KLXL 080814Z AUTO 00000KT 3SM BR 12/11 A3008 RMK AO2 SKY
     OBSCURED=
METAR KLYV 080818Z AUTO 00000KT 10SM CLR 14/13 A3016 RMK AO2=
METAR KMDS 080805Z AUTO 27005KT 10SM CLR 15/15 A3017 RMK AO2=
METAR KMGN 080815Z AUTO 00000KT 7SM SCT110 21/20 A2997 RMK AO2=
METAR KMJQ 080812Z AUTO 29004KT 10SM CLR 15/14 A3014 RMK AO2=
METAR KMOP 080814Z AUTO 00000KT 7SM SCT060 SCT070 BKN120 22/22
     A3001 RMK AO2=
METAR KMRT 080813Z AUTO 00000KT 5SM CLR 21/19 A3010 RMK AO2
     T02070190=
METAR KMVE 080814Z AUTO 28004KT 10SM CLR 17/16 A3010 RMK AO2=
METAR KOEB 080815Z AUTO 00000KT 10SM CLR 23/20 A3005 RMK AO2=
METAR KONA 080811Z AUTO 00000KT 7SM CLR 20/18 A3002 RMK AO2=
METAR KOVL 080812Z AUTO 28003KT 10SM CLR 14/12 A3011 RMK AO2
     T01360122=
METAR KOZW 080815Z AUTO 00000KT 7SM CLR 22/20 A3004 RMK AO2=
METAR KPEX 080813Z AUTO 26005KT 5SM BR CLR 13/12 A3011 RMK AO2
     T01250123=
METAR KRGK 080815Z AUTO 28004KT 10SM CLR 19/18 A3004 RMK AO2=
METAR KRNP 080815Z AUTO 00000KT 10SM CLR 22/21 A3002 RMK AO2=
METAR KROS 080815Z AUTO 27003KT 10SM CLR 16/15 A3006 RMK AO2
     T01600148=
METAR KROX 080814Z AUTO 26004KT 10SM CLR 16/13 A3000 RMK AO2=
METAR KRQB 080815Z AUTO 26005KT 10SM SCT080 OVC085 23/21 A3003 RMK
     AO2=
METAR KRRT 080814Z AUTO 24006KT 10SM CLR 16/13 A3000 RMK AO2=
METAR KSAZ 080814Z AUTO 00000KT 10SM CLR 15/15 A3008 RMK AO2=
METAR KSGS 080813Z AUTO 32005KT 10SM CLR 20/17 A3006 RMK AO2
     T02000165=
METAR KSYN 080830Z AUTO 32004KT 10SM CLR 19/17 A3006 RMK AO2
     T01850168=
####018000118####
SAMH31 PKWA 080820
METAR PKWA 080820Z AUTO 11013KT 10SM BKN009 BKN015 OVC030 25/23 A2985 RMK AO2 P0001 T02520232=
####018003699####
SAUS99 KWBC 080821
METAR
K29G 080814Z AUTO 00000KT 7SM BKN060 20/19 A3009 RMK AO2 T02040185
     PWINO=
K4I3 080816Z AUTO 00000KT 10SM CLR 20/18 A3009 RMK AO2=
KACB 080815Z AUTO 19003KT 10SM CLR 24/21 A2998 RMK AO2=
KACQ 080818Z AUTO 31003KT 10SM CLR 17/16 A3011 RMK AO2=
KADC 080817Z AUTO 24004KT 10SM CLR 13/12 A3008 RMK AO2=
KAEL 080811Z AUTO 32003KT 10SM SCT029 18/17 A3008 RMK AO2=
KANE 080815Z AUTO 27004KT 10SM 18/17 A3008 RMK AO2=
KAUM 080815Z AUTO 31004KT 10SM CLR 18/17 A3007 RMK AO2=
KAWG 080815Z AUTO 31005KT 3 1/2SM OVC003 22/20 A3003 RMK AO2=
KAXA 080815Z AUTO 32004KT 10SM CLR 18/17 A3010 RMK AO2=
KBAX 080815Z AUTO 00000KT 4SM BR CLR 21/20 A3001 RMK AO2=
KBDH 080815Z AUTO 28003KT 10SM CLR 16/14 A3012 RMK AO2=
KBNW 080815Z AUTO 33006KT 10SM SCT023 21/18 A3010 RMK AO2=
KCAD 080814Z AUTO 22009KT 10SM CLR 22/21 A3004 RMK AO2=
KCAV 080815Z AUTO 33004KT 10SM BKN027 21/19 A3009 RMK AO2=
KCBF 080815Z AUTO 35007KT 10SM CLR 20/16 A3011 RMK AO2=
KCBG 080815Z AUTO 29003KT 10SM CLR 16/14 A3007 RMK AO2=
KCCY 080815Z AUTO 31005KT 7SM SCT032 20/17 A3006 RMK AO2=
KCFE 080815Z AUTO 27003KT 10SM CLR 18/16 A3009 RMK AO2
     T01760162=
KCFS 080815Z AUTO 00000KT 1 1/2SM BR VV007 20/20 A3002 RMK AO2=
KCIN 080815Z AUTO 34003KT 7SM CLR 19/16 A3012 RMK AO2=
KCKC 080815Z AUTO 30004KT 10SM CLR 16/13 A3002 RMK AO2=
KCKN 080815Z AUTO 25003KT 10SM CLR 14/12 A3004 RMK AO2=
KCMY 080815Z AUTO 00000KT 10SM CLR 20/19 A3002 RMK AO2
     T02040193=
KCNB 080817Z AUTO 24004KT 10SM CLR 16/13 A3013 RMK AO2
     T01550129=
KCOQ 080816Z AUTO 29006KT 10SM CLR 14/14 A3005 RMK AO2=
KCQM 080817Z AUTO 24003KT 10SM CLR 14/14 A3004 RMK AO2=
KCVH 080810Z AUTO 00000KT 10SM OVC012 12/11 A2993 RMK AO1=
KDRM 080816Z AUTO 14003KT 10SM BKN110 20/20 A2996 RMK AO2=
KDTL 080815Z AUTO 27005KT 10SM CLR 17/11 A3009 RMK AO2=
KDUH 080815Z AUTO 00000KT 10SM CLR 22/18 A3004 RMK AO2=
KDXX 080814Z AUTO 00000KT 10SM CLR 14/14 A3011 RMK AO2=
KDYT 080814Z AUTO 30007KT 10SM CLR 21/16 A3003 RMK AO2=
KEFK 080815Z AUTO 20003KT 7SM BKN055 21/19 A3006 RMK AO2=
KELO 080813Z AUTO 00000KT 10SM CLR 13/13 A3002 RMK AO2=
KEVM 080812Z AUTO 00000KT 10SM CLR 13/12 A3002 RMK AO1=
KFBL 080814Z AUTO 30004KT 10SM CLR 18/16 A3008 RMK AO2=
KFFX 080815Z AUTO 00000KT 7SM OVC065 22/22 A3002 RMK AO2=
KFKA 080823Z AUTO 31005KT 4SM BR CLR 19/19 A3007 RMK AO2
     T01910186=
KFPK 080816Z AUTO 20003KT 7SM CLR 20/20 A3002 RMK AO2=
KFSE 080814Z AUTO 20003KT 10SM CLR 13/12 A3004 RMK AO2=
KFSO 080818Z AUTO 00000KT 5SM BR CLR 23/22 A3000 RMK AO2=
KGYL 080814Z AUTO 00000KT 10SM CLR 15/15 A3009 RMK AO2
     T01540145=
KHAF 080810Z AUTO 27003KT 9SM OVC008 12/10 A2995 RMK AO2=
KHAI 080815Z AUTO 00000KT 7SM CLR 22/21 A3004 RMK AO2=
KHCD 080812Z AUTO 26003KT 7SM CLR 14/13 A3010 RMK AO2
     T01380128=
KHCO 080814Z AUTO 20003KT 10SM CLR 13/12 A3004 RMK AO2=
KHZX 080811Z AUTO 00000KT 1 3/4SM VV007 13/13 A3007 RMK AO2 VIS
     1/2V5=
KIKW 080813Z AUTO 00000KT 1 1/2SM BR VV007 21/20 A3000 RMK AO2
     T02140203=
KIRS 080815Z AUTO 00000KT 7SM CLR 22/19 A3004 RMK AO2=
KJKJ 080814Z AUTO 23005KT 10SM CLR 16/15 A3006 RMK AO2=
KJMR 080818Z AUTO 31004KT 10SM CLR 15/13 A3008 RMK AO2=
KJYG 080815Z AUTO 00000KT 10SM CLR 17/17 A3012 RMK AO2=
KJYM 080815Z AUTO 00000KT 7SM CLR 21/19 A3006 RMK AO2=
KLJF 080812Z AUTO 29003KT 10SM CLR 18/16 A3011 RMK AO2=
KLVN 080808Z AUTO 32006KT 10SM CLR 18/17 A3007 RMK AO2=
KLWA 080816Z AUTO 00000KT 7SM BKN050 BKN065 OVC110 23/22 A3004 RMK
     AO2=
KLXL 080814Z AUTO 00000KT 3SM BR 12/11 A3008 RMK AO2 SKY
     OBSCURED=
KLYV 080818Z AUTO 00000KT 10SM CLR 14/13 A3016 RMK AO2=
####018002039####
SAUS99 KWBC 080821 RRA
METAR
KMDS 080805Z AUTO 27005KT 10SM CLR 15/15 A3017 RMK AO2=
KMGN 080815Z AUTO 00000KT 7SM SCT110 21/20 A2997 RMK AO2=
KMJQ 080812Z AUTO 29004KT 10SM CLR 15/14 A3014 RMK AO2=
KMOP 080814Z AUTO 00000KT 7SM SCT060 SCT070 BKN120 22/22 A3001 RMK
     AO2=
KMRT 080813Z AUTO 00000KT 5SM CLR 21/19 A3010 RMK AO2
     T02070190=
KMVE 080814Z AUTO 28004KT 10SM CLR 17/16 A3010 RMK AO2=
KOEB 080815Z AUTO 00000KT 10SM CLR 23/20 A3005 RMK AO2=
KONA 080811Z AUTO 00000KT 7SM CLR 20/18 A3002 RMK AO2=
KOVL 080812Z AUTO 28003KT 10SM CLR 14/12 A3011 RMK AO2
     T01360122=
KOZW 080815Z AUTO 00000KT 7SM CLR 22/20 A3004 RMK AO2=
KPEX 080813Z AUTO 26005KT 5SM BR CLR 13/12 A3011 RMK AO2
     T01250123=
KRGK 080815Z AUTO 28004KT 10SM CLR 19/18 A3004 RMK AO2=
KRNP 080815Z AUTO 00000KT 10SM CLR 22/21 A3002 RMK AO2=
KROS 080815Z AUTO 27003KT 10SM CLR 16/15 A3006 RMK AO2
     T01600148=
KROX 080814Z AUTO 26004KT 10SM CLR 16/13 A3000 RMK AO2=
KRQB 080815Z AUTO 26005KT 10SM SCT080 OVC085 23/21 A3003 RMK
     AO2=
KRRT 080814Z AUTO 24006KT 10SM CLR 16/13 A3000 RMK AO2=
KSAZ 080814Z AUTO 00000KT 10SM CLR 15/15 A3008 RMK AO2=
KSGS 080813Z AUTO 32005KT 10SM CLR 20/17 A3006 RMK AO2
     T02000165=
KSYN 080830Z AUTO 32004KT 10SM CLR 19/17 A3006 RMK AO2
     T01850168=
KTEW 080813Z AUTO 00000KT 7SM CLR 21/20 A3004 RMK AO2=
KTKC 080813Z AUTO 25005KT 10SM CLR 16/14 A3013 RMK AO2
     T01550137=
KTKV 080815Z AUTO 00000KT 4SM BR BKN001 17/17 A3002 RMK AO2
     T01710165=
KTOB 080814Z AUTO 00000KT 10SM CLR 18/17 A3008 RMK AO2=
KUES 080815Z AUTO 17004KT 7SM SCT055 OVC095 21/20 A3002 RMK AO2
     T02110196=
KUKT 080810Z AUTO 00000KT 5SM CLR 21/20 A3003 RMK AO1=
KUNU 080812Z AUTO 00000KT 7SM SCT010 SCT100 21/20 A3001 RMK AO2
     T02080195=
KVLL 080814Z AUTO 00000KT 10SM CLR 26/20 A3005 RMK AO2=
KVVV 080816Z AUTO 00000KT 10SM CLR 16/14 A3011 RMK AO2=
KY70 080815Z AUTO 25006KT 10SM BKN055 BKN075 OVC120 24/21 A3003
     RMK AO2 T02410212=
####018000373####
SPUS99 KWBC 080821
SPECI
KCRP 080816Z 36005KT 10SM -TSRA FEW011CB BKN038 BKN060 26/25 A2983
     RMK AO2 TSB16 OCNL LTGIC SW-W TS SW-W MOV W P0000=
KELM 080819Z AUTO 00000KT 1 1/4SM BR CLR 18/17 A3008 RMK AO2=
KLEB 080819Z AUTO 00000KT 1 1/2SM BR FEW001 22/20 A3004 RMK
     AO2=
KLHX 080819Z AUTO 33006KT 6SM RA BR OVC025 16/15 A3030 RMK AO2 PNO
     $=
####018000199####
SANG31 YBBN 080800 RRA
METAR AYPY 080800Z 18007KT 9999 FEW020CB FEW020 BKN140 27/23 Q1008
RMKS/
CB TO N/ HZ IN AREA=
METAR AGGH 080800Z 09003KT 9999 DZ FEW016 SCT030 OVC300 26/24 
Q1009==
####018000157####
SAAM31 FCBB 080800 RRA
METAR FEFF 080800Z 31004KT 9999 FEW016 BKN150 23/23 Q1015 NOSIG=
METAR FPST 080800Z 17008KT 9999 FEW025 SCT250 26/20 Q1015 NOSIG=
####018000076####
SALT32 EYVI 080820
METAR EYKA 080820Z 29008KT 240V350 CAVOK 17/14 Q1015=
####018000104####
SALV31 EVRA 080820
METAR EVRA 080820Z 31009KT 280V350 9999 OVC005 18/17 Q1015 BECMG 
BKN010 OVC015=
####018000082####
SAEO31 EETN 080820
METAR EETN 080820Z 31007KT 280V350 CAVOK 22/18 Q1014 NOSIG=
####018000072####
SAAL41 DAMM 080800 RRC
METAR DATM 080800Z 17006KT CAVOK 32/00 Q1011=
####018000073####
SAAL41 DAMM 080700 RRC
METAR DATM 080700Z 00000KT CAVOK 29/M02 Q1011=
####018000072####
SAAL33 DAAA 080800 RRB
METAR DATM 080800Z 17006KT CAVOK 32/00 Q1011=
####018000073####
SAAL33 DAAA 080700 RRB
METAR DATM 080700Z 00000KT CAVOK 29/M02 Q1011=
####018000136####
SAAK32 KWBC 080800 RRA
METAR
PADK 080816Z 07013KT 10SM BKN018 OVC024 07/06 A2959=
PADL 080816Z 31007KT 10SM BKN120 11/08 A2998=
####018000131####
SAAK31 KWBC 080800 RRA
METAR
PAVD 080816Z 00000KT 10SM OVC090 11/08 A3010=
PAWG 080816Z AUTO 31004KT 10SM CLR 15/11 A3013=
####018000107####
SAPA41 KWBC 080800 RRA
METAR
PKWA 080820Z AUTO 11013KT 10SM BKN009 BKN015 OVC030 25/23
     A2985=
####018000107####
SAPQ31 KWBC 080800 RRA
METAR
PKWA 080820Z AUTO 11013KT 10SM BKN009 BKN015 OVC030 25/23
     A2985=
####018000125####
SAUS43 KAPX 080821
MTRANJ
SPECI KANJ 080819Z AUTO 00000KT 5SM -RA BR FEW004 BKN018 OVC033 
21/19 A2995 RMK AO2 P0008
####018000083####
SAUS43 KWBC 080800 RRE
METAR
KELO 080813Z AUTO 00000KT 10SM CLR 13/13 A3002=
####018000031####
SABZ33 SBBR 080800 RRA
NIL
####018000415####
SABZ32 SBBR 080800
METAR SBAN 080800Z 11005KT CAVOK 15/09 Q1022=
METAR SBBR 080800Z 00000KT CAVOK 15/09 Q1022,5=
METAR SBBW 080800Z NIL=
METAR SBCG 080800Z 07003KT CAVOK 17/09 Q1016=
METAR SBCR 080800Z NIL=
METAR SBCY 080800Z 32004KT CAVOK 21/14 Q1014=
METAR SBGO 080800Z 10004KT CAVOK 15/09 Q1020=
METAR SBPJ 080800Z 11004KT CAVOK 18/12 Q1014=
METAR SBPN 080800Z NIL=
METAR SBPP 080800Z NIL=
####018001335####
SABZ30 SBBR 080800
METAR SBAA 080800Z NIL=
METAR SBAM 080800Z NIL=
METAR SBAT 080800Z NIL=
METAR SBBA 080800Z NIL=
METAR SBBC 080800Z NIL=
METAR SBBE 080800Z 11005KT CAVOK 25/22 Q1012=
METAR SBBV 080800Z 32004KT 9999 SCT025 SCT100 25/23 Q1012=
METAR SBCC 080800Z NIL=
METAR SBCI 080800Z NIL=
METAR SBCJ 080800Z NIL=
METAR SBCZ 080800Z 00000KT 8000 FEW003 SCT020 23/23 Q1011=
METAR SBEG 080800Z 00000KT 9999 FEW010 SCT100 25/22 Q1011=
METAR SBEK 080800Z NIL=
METAR SBGM 080800Z NIL=
METAR SBIC 080800Z NIL=
METAR SBIH 080800Z NIL=
METAR SBLB 080800Z NIL=
METAR SBMA 080800Z 25004KT CAVOK ///// Q1012=
METAR SBMD 080800Z NIL=
METAR SBMN 080800Z 03005KT 9999 FEW010 BKN100 26/24 Q1011=
METAR SBMQ 080800Z 36003KT CAVOK 25/25 Q1012=
METAR SBMY 080800Z NIL=
METAR SBMZ 080800Z NIL=
METAR SBOI 080800Z NIL=
METAR SBPV 080800Z 00000KT CAVOK 24/23 Q1011=
METAR SBRB 080800Z 00000KT CAVOK 23/23 Q1011=
METAR SBSL 080800Z 12003KT 9999 SCT017 26/24 Q1012=
METAR SBSN 080800Z 00000KT CAVOK 24/22 Q1011=
METAR SBSY 080800Z NIL=
METAR SBTF 080800Z NIL=
METAR SBTK 080800Z NIL=
METAR SBTT 080800Z NIL=
METAR SBTU 080800Z NIL=
METAR SBUA 080800Z NIL=
METAR SBUI 080800Z NIL=
METAR SBVH 080800Z NIL=
METAR SBXG 080800Z NIL=
METAR SBXV 080800Z NIL=
METAR SBYA 080800Z NIL=
####018001691####
SABZ33 SBBR 080800
METAR SBAF 080800Z 00000KT CAVOK 14/12 Q1019=
METAR SBAQ 080800Z NIL=
METAR SBAS 080800Z NIL=
METAR SBAU 080800Z NIL=
METAR SBAX 080800Z NIL=
METAR SBBH 080800Z 07003KT CAVOK 11/08 Q1022=
METAR SBBI 080800Z NIL=
METAR SBBQ 080800Z NIL=
METAR SBBT 080800Z NIL=
METAR SBBU 080800Z 04010KT CAVOK 17/11 Q1018=
METAR SBBZ 080800Z NIL=
METAR SBCB 080800Z NIL=
METAR SBCF 080800Z 18001KT CAVOK 10/08 Q1022=
METAR SBCO 080800Z NIL=
METAR SBCP 080800Z NIL=
METAR SBDN 080800Z 06006KT CAVOK 18/10 Q1017=
METAR SBES 080800Z NIL=
METAR SBFS 080800Z NIL=
METAR SBGA 080800Z NIL=
METAR SBGL 080800Z 00000KT CAVOK 15/13 Q1018=
METAR SBGR 080800Z 07006KT CAVOK 12/11 Q1020=
METAR SBGU 080800Z NIL=
METAR SBGW 080800Z NIL=
METAR SBIP 080800Z NIL=
METAR SBJF 080800Z NIL=
METAR SBJR 080800Z NIL=
METAR SBKP 080800Z 08005KT CAVOK 11/08 Q1020=
METAR SBLN 080800Z NIL=
METAR SBLS 080800Z NIL=
METAR SBME 080800Z 03003KT CAVOK 15/14 Q1018=
METAR SBMK 080800Z NIL=
METAR SBML 080800Z NIL=
METAR SBMT 080800Z NIL=
METAR SBPC 080800Z NIL=
METAR SBPR 080800Z NIL=
METAR SBRJ 080800Z NIL=
METAR SBRP 080800Z 16003KT CAVOK 11/09 Q1019=
METAR SBRQ 080800Z NIL=
METAR SBRS 080800Z NIL=
METAR SBSA 080800Z NIL=
METAR SBSC 080600Z 04004KT 7000 NSC 16/15 Q1017=
METAR SBSJ 080800Z 00000KT 5000 BR SCT010 12/11 Q1022=
METAR SBSP 080800Z 06003KT CAVOK 16/10 Q1020=
METAR SBSR 080800Z NIL=
METAR SBST 080800Z NIL=
METAR SBTA 080800Z NIL=
METAR SBUL 080800Z 09006KT CAVOK 15/07 Q1021=
METAR SBUP 080800Z NIL=
METAR SBUR 080800Z 08004KT CAVOK 16/07 Q1020=
METAR SBVT 080800Z 28002KT 9999 FEW020 17/16 Q1020=
####018001016####
SABZ31 SBBR 080800
METAR SBAR 080800Z 22005KT 9999 FEW015 22/22 Q1016=
METAR SBCV 080800Z NIL=
METAR SBFN 080800Z 12004KT 9999 SCT017 25/22 Q1013=
METAR SBFZ 080800Z 17005KT 9999 SCT017 SCT100 24/22 Q1013=
METAR SBIL 080800Z 29004KT 9999 FEW020 22/21 Q1017=
METAR SBJP 080800Z 23005KT 9999 FEW020 BKN070 22/21 Q1014=
METAR SBJU 080800Z NIL=
METAR SBKG 080800Z NIL=
METAR SBLE 080800Z NIL=
METAR SBLP 080800Z NIL=
METAR SBMO 080800Z 00000KT 9999 SCT020 BKN100 21/21 Q1016=
METAR SBMS 080800Z NIL=
METAR SBNT 080800Z 17003KT 9999 SCT020 SCT070 22/21 Q1014=
METAR SBPB 080800Z NIL=
METAR SBPL 080800Z NIL=
METAR SBPS 080800Z 29003KT 8000 VCSH BKN005 BKN100 18/18 Q1018=
METAR SBQV 080800Z NIL=
METAR SBRF 080800Z 00000KT 9999 SCT020 BKN070 23/21 Q1015=
METAR SBSL 080800Z 12003KT 9999 SCT017 26/24 Q1012=
METAR SBSV 080800Z 10010KT 9999 SCT017 SCT070 21/20 Q1016=
METAR SBTC 080800Z NIL=
METAR SBTE 080800Z 27001KT 9999 FEW020 BKN100 25/24 Q1013=
METAR SBUF 080800Z NIL=
####018000747####
SABZ34 SBBR 080800
METAR SBBG 080800Z NIL=
METAR SBBI 080800Z NIL=
METAR SBCA 080800Z 04012KT CAVOK 19/11 Q1018=
METAR SBCH 080800Z 00000KT CAVOK 15/13 Q1017=
METAR SBCM 080800Z NIL=
METAR SBCO 080800Z NIL=
METAR SBCT 080800Z 06001KT CAVOK 11/10 Q1020=
METAR SBCX 080800Z NIL=
METAR SBFI 080800Z 21004KT 9999 FEW020 SCT100 16/13 Q1014=
METAR SBFL 080800Z 20003KT CAVOK 19/18 Q1014=
METAR SBJV 080800Z NIL=
METAR SBLO 080800Z 00000KT CAVOK 17/13 Q1018=
METAR SBMG 080800Z NIL=
METAR SBNF 080800Z NIL=
METAR SBNM 080800Z NIL=
METAR SBPA 080800Z 19004KT 9999 BKN023 OVC045 17/14 Q1017=
METAR SBPF 080800Z NIL=
METAR SBPG 080800Z NIL=
METAR SBPK 080800Z NIL=
METAR SBRG 080800Z NIL=
METAR SBSM 080800Z NIL=
####018000598####
SABZ35 SBBR 080800
METAR SACO 080800Z  36008KT CAVOK 07/M01 Q1020=
METAR SAEZ 080800Z 28006KT CAVOK 04/00 Q1019=
METAR SAME 080800Z 00000KT CAVOK 04//M04 Q1015=
METAR SEQU 080700Z 00000KT 9999 FEW020 SCT100 10/08 Q1027=
METAR SGAS 080800Z 16006KT 9999 BKN010 OVC017 18/16 Q1015=
METAR SKBO 080800Z VRB02KT 9999 BKN012 11/11 A3029=
METAR SKCL 080700Z VRB02KT 9999 FEW025 BKN100 21/18 A3000=
METAR SLLP 080800Z 11005KT 080V140 4000E VCFG FEW002 SCT013 01/M01
Q1036=
METAR SPIM 080800Z 00000KT 7000 OVC022 16/14 Q1013 NOSIG=
METAR SUMU 080800Z 34004KT CAVOK 04/03 Q1017 NOSIG=
####018000329####
SAZZ40 KAWN 080800 RRP
METAR FKKD 080800Z 14003KT 070V160 7000 TS BKN013 FEW016CB OVC120 26/24
      Q1015 TEMPO 4000 TS BR=
METAR FKYS 080800Z 26003KT 230V300 8000 FEW003 BKN006 22/20 Q1019 NOSIG=
METAR KFMH 080815Z AUTO 16006KT 4SM BR OVC003 21/21 A3007 RMK AO2=
METAR MUCU 080802Z VRB02KT 9000 FEW020 26/24 Q1015=
####018000083####
SAUS73 KWBC 080800 RRF
METAR
KELO 080813Z AUTO 00000KT 10SM CLR 13/13 A3002=
####018000083####
SAUS74 KWBC 080800 RRD
METAR
KIWA 080816Z AUTO 04004KT 10SM CLR 31/05 A2979=
####018000179####
SAUS75 KWBC 080800 RRA
METAR
PADL 080816Z 31007KT 10SM BKN120 11/08 A2998=
PAUN 080816Z AUTO 06004KT 10SM CLR 16/06 A3002=
PAVD 080816Z 00000KT 10SM OVC090 11/08 A3010=
####018000198####
SANG31 YBBN 080800 RRA
METAR AYPY 080800Z 18007KT 9999 FEW020CB FEW020 BKN140 27/23 Q1008
RMKS/
CB TO N/ HZ IN AREA=
METAR AGGH 080800Z 09003KT 9999 DZ FEW016 SCT030 OVC300 26/24
Q1009=
####018000077####
SALT32 EYVI 080820
METAR EYKA 080820Z 29008KT 240V350 CAVOK 17/14 Q1015=
####018000106####
SALT31 EYVI 080820
METAR EYVI 080820Z 28008KT 250V310 2600 RA BKN007 OVC023 15/14 Q1014
     NOSIG=
####018000105####
SASB31 VCCC 080810
VCBI NIL=
VRMM 080800Z 33007KT 9999 FEW018 BKN110 30/24 Q1011 TEMPO 5000 -SHRA=
####018000106####
SALV31 EVRA 080820
METAR EVRA 080820Z 31009KT 280V350 9999 OVC005 18/17 Q1015 BECMG 
BKN010 OVC015=
####018000117####
SAMP31 LMMM 080830
METAR HLLT NIL=
METAR HLLB NIL=
METAR LMML 080815Z VRB03KT CAVOK 27/20 Q1018 BECMG 9999 =
####018000083####
SAEO31 EETN 080820
METAR EETN 080820Z 31007KT 280V350 CAVOK 22/18 Q1014 NOSIG=
####018000093####
SPCN44 CWAO 080818
SPECI CYPE 080818Z 29011KT 15SM TS BKN060CB RMK CB5 OCNL LTGCG NW=

####018002245####
SAUS20 KNKA 080821
METAR KBWD 080815Z AUTO 12003KT 10SM CLR 23/22 A3000 RMK AO2 =
METAR KCNC 080815Z AUTO 30003KT 10SM CLR 21/18 A3006 RMK AO2=
METAR KCSQ 080815Z AUTO 36007KT 10SM CLR 21/20 A3009 RMK AO2=
METAR KDEH 080815Z AUTO 31003KT 10SM SCT007 21/18 A3006 RMK AO2=
METAR KDNS 080815Z AUTO 00000KT 7SM BKN027 20/17 A3015 RMK AO2=
METAR KEBS 080815Z AUTO 33003KT 10SM SCT026 19/18 A3009 RMK AO2=
METAR KEOK 080815Z AUTO 00000KT 10SM CLR 22/19 A3003 RMK AO2=
METAR KFFL 080815Z AUTO 00000KT 1/4SM FG OVC002 22/21 A3003 RMK 
     AO2=
METAR KFSW 080815Z AUTO 26003KT 7SM CLR 23/21 A3003 RMK AO2=
METAR KFXY 080815Z AUTO 33007KT 10SM CLR 18/17 A3009 RMK AO2=
METAR KGGI 080815Z AUTO 00000KT 10SM CLR 21/20 A3006 RMK AO2=
METAR KHNR 080815Z AUTO 36004KT 5SM CLR 18/18 A3014 RMK AO2=
SPECI KHRL 080820Z AUTO 33005KT 10SM FEW019 SCT034 BKN055 26/26 
    A2979 RMK AO2 RAE06 P0001=
METAR KI75 080815Z AUTO 00000KT 5SM CLR 20/19 A3006 RMK AO2=
METAR KICL 080815Z AUTO 36005KT 10SM CLR 22/19 A3008 RMK AO2=
METAR KIFA 080815Z AUTO 32004KT 10SM SCT075 SCT110 20/20 A3008 
     RMK AO2=
METAR KIIB 080815Z AUTO 29005KT 2 1/2SM SCT002 20/19 A3004 RMK AO1=
METAR KIKV 080815Z AUTO 36006KT 10SM CLR 21/19 A3007 RMK AO2=
METAR KLRJ 080815Z AUTO 00000KT 7SM CLR 16/15 A3015 RMK AO2=
METAR KMPZ 080815Z AUTO 27004KT 7SM CLR 22/21 A3003 RMK AO2=
METAR KMUT 080815Z AUTO 00000KT 3 1/2SM OVC007 24/22 A3001 RMK AO2=
METAR KMXO 080815Z AUTO 00000KT 7SM CLR 21/20 A3001 RMK AO2=
METAR KO22 080815Z AUTO 00000KT 10SM CLR 17/11 A2991 RMK AO1 =
METAR KORC 080815Z AUTO 31004KT 10SM CLR 17/17 A3014 RMK AO2=
METAR KOXV 080815Z AUTO 33004KT 10SM SCT013 21/20 A3006 RMK AO2=
METAR KPEA 080815Z AUTO 00000KT 10SM SCT003 SCT008 22/22 A3006 
     RMK AO2=
METAR KRDK 080815Z AUTO 36004KT 7SM SCT065 21/18 A3009 RMK AO2=
METAR KRHP 080822Z AUTO 00000KT 4SM BR CLR 18/17 A3011 RMK AO2=
METAR KSDA 080815Z AUTO 02004KT 10SM CLR 22/19 A3009 RMK AO2=
METAR KSHL 080815Z AUTO 00000KT 2 1/2SM CLR 16/15 A3016 RMK AO2=
METAR KTNU 080815Z AUTO 34003KT 10SM CLR 21/19 A3006 RMK AO2=
METAR KTVK 080815Z AUTO 00000KT 7SM CLR 20/20 A3007 RMK AO2=
METAR KVTI 080815Z AUTO 29005KT 10SM CLR 21/21 A3004 RMK AO2=
####018000121####
SPUS90 KWBC 080822
SPECI KANJ 080819Z AUTO 00000KT 5SM -RA BR FEW004 BKN018 OVC033
     21/19 A2995 RMK AO2 P0008=
####018002259####
SAUS90 KWBC 080822
METAR K3A6 080910Z AUTO 36003KT 11/10 A2990 RMK AO1 SLP145
     T01110101=
METAR KCVX 080815Z AUTO 00000KT 7SM SCT120 21/20 A2999 RMK AO2=
METAR KFKS 080815Z AUTO 20006KT 10SM -RA BKN120 23/18 A2998 RMK
     AO2=
METAR KSLH 080815Z AUTO 00000KT 10SM SCT120 21/21 A2996 RMK
     AO2=
METAR KSJX 080816Z AUTO 21006KT 10SM RA SCT070 SCT120 21/19 A2996
     RMK AO2=
METAR KLDM 080816Z AUTO 23004KT 10SM BKN120 22/21 A3001 RMK
     AO2=
METAR KSAW 080819Z AUTO 30005KT 4SM BR OVC003 18/17 A2998 RMK
     AO2=
METAR KGOV 080815Z AUTO 15005KT 1 3/4SM BR SCT065 SCT120 20/20
     A3003 RMK AO2=
METAR KPZQ 080815Z AUTO 21004KT 7SM SCT120 22/22 A2999 RMK AO2=
METAR KHYX 080816Z AUTO 16004KT 10SM CLR 22/20 A3000 RMK AO2=
METAR KPHN 080816Z AUTO 00000KT 2 1/2SM BR SCT100 20/19 A3003 RMK
     AO2=
METAR KONZ 080817Z AUTO 00000KT 10SM CLR 24/21 A3002 RMK AO2=
METAR KISQ 080816Z AUTO 21004KT 4SM BR OVC004 19/18 A2996 RMK
     AO2=
METAR KRMY 080815Z AUTO 00000KT 7SM CLR 21/19 A3004 RMK AO2=
METAR KOSC 080814Z AUTO 00000KT 7SM CLR 19/18 A3000 RMK AO2=
METAR KTTF 080813Z AUTO 00000KT 10SM CLR 23/22 A3002 RMK AO2=
METAR KAMN 080816Z AUTO 00000KT 4SM BR SCT065 SCT075 22/22 A3001
     RMK AO2=
METAR KMCD 080815Z AUTO 00000KT 10SM BKN110 21/18 A2997 RMK
     AO2=
METAR KERY 080816Z AUTO 00000KT 10SM SCT026 SCT090 19/19 A2996 RMK
     AO2=
METAR KDVP 080816Z AUTO 27004KT 10SM CLR 15/13 A3017 RMK AO2
     T01480131=
METAR KCDD 080811Z AUTO 00000KT 5SM BR CLR 14/14 A3003 RMK AO2=
METAR KFOZ 080813Z AUTO 00000KT 1/2SM FG BKN001 OVC016 13/12 A3005
     RMK AO2=
METAR KAQP 080813Z AUTO 22003KT 10SM CLR 14/14 A3010 RMK AO2=
METAR KETH 080814Z AUTO 22004KT 10SM CLR 15/14 A3010 RMK AO2=
METAR KXVG 080816Z AUTO 00000KT 5SM BR CLR 11/11 A3005 RMK AO2=
METAR KORB 080814Z AUTO 00000KT 10SM CLR 15/13 A3001 RMK AO2=
METAR KMZH 080811Z AUTO 00000KT 10SM OVC100 14/13 A3004 RMK
     AO2=
METAR KBFW 080813Z AUTO 00000KT 10SM SCT055 17/15 A2999 RMK
     AO2=
METAR KVWU 080811Z AUTO 00000KT 10SM CLR 14/14 A3002 RMK AO2=
METAR KOWA 080814Z AUTO 30004KT 10SM CLR 18/17 A3007 RMK AO2=
METAR KCDA 080815Z AUTO 00000KT 4SM BR SCT055 20/18 A3009 RMK
     AO2=
####018000195####
SPUS90 KWBC 080822 CCA
SPECI KWAL 080813Z AUTO 12004KT 9SM FEW007 OVC095 24/23 A2998 RMK
     AO2 TSNO=
SPECI KWAL 080813Z AUTO 12004KT 9SM FEW007 OVC095 24/23 A2998 RMK
     AO2 TSNO=
####018000115####
SAMP31 LMMM 080830
METAR HLLT NIL=
METAR HLLB NIL=
METAR LMML 080815Z VRB03KT CAVOK 27/20 Q1018 BECMG 9999 =
####018000131####
SPCN46 CWAO 080821
SPECI CYQA 080821Z AUTO VRB02KT 2 1/2SM BR CLR 19/19 A3003 RMK SLP169
 DENSITY ALT 1400FT VIS VRB 2-3=

####018000076####
SAKW35 OKBK 080830
METAR OKBK 080830Z 36017KT CAVOK 46/M08 Q1001 NOSIG=
####018000083####
SPEW35 LEMM 080820
SPECI LEAB 080820Z 14010KT 110V180 CAVOK 29/10 Q1022 NOSIG=
####018000114####
SAUS41 KAKQ 080821 COR
MTRWAL
SPECI KWAL 080813Z AUTO 12004KT 9SM FEW007 OVC095 24/23 A2998 RMK 
AO2 TSNO
####018003692####
SAUS99 KWBC 080822
METAR
KCVX 080815Z AUTO 00000KT 7SM SCT120 21/20 A2999 RMK AO2=
KFKS 080815Z AUTO 20006KT 10SM -RA BKN120 23/18 A2998 RMK AO2=
KSLH 080815Z AUTO 00000KT 10SM SCT120 21/21 A2996 RMK AO2=
KSJX 080816Z AUTO 21006KT 10SM RA SCT070 SCT120 21/19 A2996 RMK
     AO2=
KLDM 080816Z AUTO 23004KT 10SM BKN120 22/21 A3001 RMK AO2=
KSAW 080819Z AUTO 30005KT 4SM BR OVC003 18/17 A2998 RMK AO2=
KGOV 080815Z AUTO 15005KT 1 3/4SM BR SCT065 SCT120 20/20 A3003 RMK
     AO2=
KPZQ 080815Z AUTO 21004KT 7SM SCT120 22/22 A2999 RMK AO2=
KHYX 080816Z AUTO 16004KT 10SM CLR 22/20 A3000 RMK AO2=
KPHN 080816Z AUTO 00000KT 2 1/2SM BR SCT100 20/19 A3003 RMK
     AO2=
KONZ 080817Z AUTO 00000KT 10SM CLR 24/21 A3002 RMK AO2=
KISQ 080816Z AUTO 21004KT 4SM BR OVC004 19/18 A2996 RMK AO2=
KRMY 080815Z AUTO 00000KT 7SM CLR 21/19 A3004 RMK AO2=
KOSC 080814Z AUTO 00000KT 7SM CLR 19/18 A3000 RMK AO2=
KTTF 080813Z AUTO 00000KT 10SM CLR 23/22 A3002 RMK AO2=
KAMN 080816Z AUTO 00000KT 4SM BR SCT065 SCT075 22/22 A3001 RMK
     AO2=
KMCD 080815Z AUTO 00000KT 10SM BKN110 21/18 A2997 RMK AO2=
KERY 080816Z AUTO 00000KT 10SM SCT026 SCT090 19/19 A2996 RMK
     AO2=
KDVP 080816Z AUTO 27004KT 10SM CLR 15/13 A3017 RMK AO2
     T01480131=
KCDD 080811Z AUTO 00000KT 5SM BR CLR 14/14 A3003 RMK AO2=
KFOZ 080813Z AUTO 00000KT 1/2SM FG BKN001 OVC016 13/12 A3005 RMK
     AO2=
KAQP 080813Z AUTO 22003KT 10SM CLR 14/14 A3010 RMK AO2=
KETH 080814Z AUTO 22004KT 10SM CLR 15/14 A3010 RMK AO2=
KXVG 080816Z AUTO 00000KT 5SM BR CLR 11/11 A3005 RMK AO2=
KORB 080814Z AUTO 00000KT 10SM CLR 15/13 A3001 RMK AO2=
KMZH 080811Z AUTO 00000KT 10SM OVC100 14/13 A3004 RMK AO2=
KBFW 080813Z AUTO 00000KT 10SM SCT055 17/15 A2999 RMK AO2=
KVWU 080811Z AUTO 00000KT 10SM CLR 14/14 A3002 RMK AO2=
KOWA 080814Z AUTO 30004KT 10SM CLR 18/17 A3007 RMK AO2=
KCDA 080815Z AUTO 00000KT 4SM BR SCT055 20/18 A3009 RMK AO2=
KBWD 080815Z AUTO 12003KT 10SM CLR 23/22 A3000 RMK AO2=
KCNC 080815Z AUTO 30003KT 10SM CLR 21/18 A3006 RMK AO2=
KCSQ 080815Z AUTO 36007KT 10SM CLR 21/20 A3009 RMK AO2=
KDEH 080815Z AUTO 31003KT 10SM SCT007 21/18 A3006 RMK AO2=
KDNS 080815Z AUTO 00000KT 7SM BKN027 20/17 A3015 RMK AO2=
KEBS 080815Z AUTO 33003KT 10SM SCT026 19/18 A3009 RMK AO2=
KEOK 080815Z AUTO 00000KT 10SM CLR 22/19 A3003 RMK AO2=
KFFL 080815Z AUTO 00000KT 1/4SM FG OVC002 22/21 A3003 RMK AO2=
KFSW 080815Z AUTO 26003KT 7SM CLR 23/21 A3003 RMK AO2=
KFXY 080815Z AUTO 33007KT 10SM CLR 18/17 A3009 RMK AO2=
KGGI 080815Z AUTO 00000KT 10SM CLR 21/20 A3006 RMK AO2=
KHNR 080815Z AUTO 36004KT 5SM CLR 18/18 A3014 RMK AO2=
KI75 080815Z AUTO 00000KT 5SM CLR 20/19 A3006 RMK AO2=
KICL 080815Z AUTO 36005KT 10SM CLR 22/19 A3008 RMK AO2=
KIFA 080815Z AUTO 32004KT 10SM SCT075 SCT110 20/20 A3008 RMK
     AO2=
KIIB 080815Z AUTO 29005KT 2 1/2SM SCT002 20/19 A3004 RMK AO1=
KIKV 080815Z AUTO 36006KT 10SM CLR 21/19 A3007 RMK AO2=
KLRJ 080815Z AUTO 00000KT 7SM CLR 16/15 A3015 RMK AO2=
KMPZ 080815Z AUTO 27004KT 7SM CLR 22/21 A3003 RMK AO2=
KMUT 080815Z AUTO 00000KT 3 1/2SM OVC007 24/22 A3001 RMK AO2=
KMXO 080815Z AUTO 00000KT 7SM CLR 21/20 A3001 RMK AO2=
KO22 080815Z AUTO 00000KT 10SM CLR 17/11 A2991 RMK AO1=
KORC 080815Z AUTO 31004KT 10SM CLR 17/17 A3014 RMK AO2=
KOXV 080815Z AUTO 33004KT 10SM SCT013 21/20 A3006 RMK AO2=
KPEA 080815Z AUTO 00000KT 10SM SCT003 SCT008 22/22 A3006 RMK
     AO2=
KRDK 080815Z AUTO 36004KT 7SM SCT065 21/18 A3009 RMK AO2=
KRHP 080822Z AUTO 00000KT 4SM BR CLR 18/17 A3011 RMK AO2=
KSDA 080815Z AUTO 02004KT 10SM CLR 22/19 A3009 RMK AO2=
KSHL 080815Z AUTO 00000KT 2 1/2SM CLR 16/15 A3016 RMK AO2=
####018000206####
SAUS99 KWBC 080822 RRA
METAR
KTNU 080815Z AUTO 34003KT 10SM CLR 21/19 A3006 RMK AO2=
KTVK 080815Z AUTO 00000KT 7SM CLR 20/20 A3007 RMK AO2=
KVTI 080815Z AUTO 29005KT 10SM CLR 21/21 A3004 RMK AO2=
####018000123####
SPUS99 KWBC 080822
SPECI
KHRL 080820Z AUTO 33005KT 10SM FEW019 SCT034 BKN055 26/26 A2979
     RMK AO2 RAE06 P0001=
####018000104####
SALT31 EYVI 080820
METAR EYVI 080820Z 28008KT 250V310 2600 RA BKN007 OVC023 15/14 Q1014
     NOSIG=
####018000082####
SPEW35 LEMM 080820
SPECI LEAB 080820Z 14010KT 110V180 CAVOK 29/10 Q1022 NOSIG=
####018000086####
SAAG05 SABM 080800 RRC
METAR SAZN 080800Z 00000KT 9999  SCT050 BKN100 04/01 Q1011=
####018000091####
SAAF11 LFPW 080800 RRA
METAR FPST 080800Z 17008KT 9999 FEW025 SCT250 26/20 Q1015 NOSIG=
####018000091####
SAAF14 LFPW 080800 RRB
METAR FEFF 080800Z 31004KT 9999 FEW016 BKN150 23/23 Q1015 NOSIG=
####018000340####
SPUS70 KWBC 080822
SPECI
KELM 080819Z AUTO 00000KT 1 1/4SM BR CLR 18/17 A3008 RMK AO2=
KLEB 080819Z AUTO 00000KT 1 1/2SM BR FEW001 22/20 A3004 RMK
     AO2=
KLHX 080819Z AUTO 33006KT 6SM RA BR OVC025 16/15 A3030 RMK AO2 PNO
     $=
KHRL 080820Z AUTO 33005KT 10SM FEW019 SCT034 BKN055 26/26 A2979
     RMK AO2 RAE06 P0001=
####018000191####
SPUS80 KWBC 080822 CCA
SPECI
KWAL 080813Z AUTO 12004KT 9SM FEW007 OVC095 24/23 A2998 RMK AO2
     TSNO=
KWAL 080813Z AUTO 12004KT 9SM FEW007 OVC095 24/23 A2998 RMK AO2
     TSNO=
####018003271####
SAUS70 KWBC 080822 RRA
METAR
KMVE 080814Z AUTO 28004KT 10SM CLR 17/16 A3010 RMK AO2=
KOEB 080815Z AUTO 00000KT 10SM CLR 23/20 A3005 RMK AO2=
KONA 080811Z AUTO 00000KT 7SM CLR 20/18 A3002 RMK AO2=
KOVL 080812Z AUTO 28003KT 10SM CLR 14/12 A3011 RMK AO2
     T01360122=
KOZW 080815Z AUTO 00000KT 7SM CLR 22/20 A3004 RMK AO2=
KPEX 080813Z AUTO 26005KT 5SM BR CLR 13/12 A3011 RMK AO2
     T01250123=
KRGK 080815Z AUTO 28004KT 10SM CLR 19/18 A3004 RMK AO2=
KRNP 080815Z AUTO 00000KT 10SM CLR 22/21 A3002 RMK AO2=
KROX 080814Z AUTO 26004KT 10SM CLR 16/13 A3000 RMK AO2=
KRQB 080815Z AUTO 26005KT 10SM SCT080 OVC085 23/21 A3003 RMK
     AO2=
KRRT 080814Z AUTO 24006KT 10SM CLR 16/13 A3000 RMK AO2=
KSAZ 080814Z AUTO 00000KT 10SM CLR 15/15 A3008 RMK AO2=
KSGS 080813Z AUTO 32005KT 10SM CLR 20/17 A3006 RMK AO2
     T02000165=
KTEW 080813Z AUTO 00000KT 7SM CLR 21/20 A3004 RMK AO2=
KTOB 080814Z AUTO 00000KT 10SM CLR 18/17 A3008 RMK AO2=
KUES 080815Z AUTO 17004KT 7SM SCT055 OVC095 21/20 A3002 RMK AO2
     T02110196=
KUKT 080810Z AUTO 00000KT 5SM CLR 21/20 A3003 RMK AO1=
KUNU 080812Z AUTO 00000KT 7SM SCT010 SCT100 21/20 A3001 RMK AO2
     T02080195=
KVLL 080814Z AUTO 00000KT 10SM CLR 26/20 A3005 RMK AO2=
KVVV 080816Z AUTO 00000KT 10SM CLR 16/14 A3011 RMK AO2=
KY70 080815Z AUTO 25006KT 10SM BKN055 BKN075 OVC120 24/21 A3003
     RMK AO2 T02410212=
KFMH 080815Z AUTO 16006KT 4SM BR OVC003 21/21 A3007 RMK AO2=
KBWD 080815Z AUTO 12003KT 10SM CLR 23/22 A3000 RMK AO2=
KCNC 080815Z AUTO 30003KT 10SM CLR 21/18 A3006 RMK AO2=
KCSQ 080815Z AUTO 36007KT 10SM CLR 21/20 A3009 RMK AO2=
KDEH 080815Z AUTO 31003KT 10SM SCT007 21/18 A3006 RMK AO2=
KDNS 080815Z AUTO 00000KT 7SM BKN027 20/17 A3015 RMK AO2=
KEBS 080815Z AUTO 33003KT 10SM SCT026 19/18 A3009 RMK AO2=
KEOK 080815Z AUTO 00000KT 10SM CLR 22/19 A3003 RMK AO2=
KFFL 080815Z AUTO 00000KT 1/4SM FG OVC002 22/21 A3003 RMK AO2=
KFSW 080815Z AUTO 26003KT 7SM CLR 23/21 A3003 RMK AO2=
KFXY 080815Z AUTO 33007KT 10SM CLR 18/17 A3009 RMK AO2=
KGGI 080815Z AUTO 00000KT 10SM CLR 21/20 A3006 RMK AO2=
KHNR 080815Z AUTO 36004KT 5SM CLR 18/18 A3014 RMK AO2=
KICL 080815Z AUTO 36005KT 10SM CLR 22/19 A3008 RMK AO2=
KIFA 080815Z AUTO 32004KT 10SM SCT075 SCT110 20/20 A3008 RMK
     AO2=
KIIB 080815Z AUTO 29005KT 2 1/2SM SCT002 20/19 A3004 RMK AO1=
KIKV 080815Z AUTO 36006KT 10SM CLR 21/19 A3007 RMK AO2=
KLRJ 080815Z AUTO 00000KT 7SM CLR 16/15 A3015 RMK AO2=
KMPZ 080815Z AUTO 27004KT 7SM CLR 22/21 A3003 RMK AO2=
KMUT 080815Z AUTO 00000KT 3 1/2SM OVC007 24/22 A3001 RMK AO2=
KMXO 080815Z AUTO 00000KT 7SM CLR 21/20 A3001 RMK AO2=
KO22 080815Z AUTO 00000KT 10SM CLR 17/11 A2991 RMK AO1=
KORC 080815Z AUTO 31004KT 10SM CLR 17/17 A3014 RMK AO2=
KOXV 080815Z AUTO 33004KT 10SM SCT013 21/20 A3006 RMK AO2=
KPEA 080815Z AUTO 00000KT 10SM SCT003 SCT008 22/22 A3006 RMK
     AO2=
KRDK 080815Z AUTO 36004KT 7SM SCT065 21/18 A3009 RMK AO2=
KRHP 080822Z AUTO 00000KT 4SM BR CLR 18/17 A3011 RMK AO2=
KSDA 080815Z AUTO 02004KT 10SM CLR 22/19 A3009 RMK AO2=
KSHL 080815Z AUTO 00000KT 2 1/2SM CLR 16/15 A3016 RMK AO2=
KTNU 080815Z AUTO 34003KT 10SM CLR 21/19 A3006 RMK AO2=
KTVK 080815Z AUTO 00000KT 7SM CLR 20/20 A3007 RMK AO2=
####018000103####
SAXX60 KWBC 080822
METAR
KMRT 080813Z AUTO 00000KT 5SM CLR 21/19 A3010 RMK AO2
     T02070190=
####018000250####
SPUS80 KWBC 080822
SPECI
KCRP 080816Z 36005KT 10SM -TSRA FEW011CB BKN038 BKN060 26/25 A2983
     RMK AO2 TSB16 OCNL LTGIC SW-W TS SW-W MOV W P0000=
KANJ 080819Z AUTO 00000KT 5SM -RA BR FEW004 BKN018 OVC033 21/19
     A2995 RMK AO2 P0008=
####018000682####
SAUS80 KWBC 080822
METAR
K3A6 080910Z AUTO 36003KT 11/10 A2990 RMK AO1 SLP145 T01110101=
K29G 080814Z AUTO 00000KT 7SM BKN060 20/19 A3009 RMK AO2 T02040185
     PWINO=
KIKW 080813Z AUTO 00000KT 1 1/2SM BR VV007 21/20 A3000 RMK AO2
     T02140203=
KLYV 080818Z AUTO 00000KT 10SM CLR 14/13 A3016 RMK AO2=
KROS 080815Z AUTO 27003KT 10SM CLR 16/15 A3006 RMK AO2
     T01600148=
KSYN 080830Z AUTO 32004KT 10SM CLR 19/17 A3006 RMK AO2
     T01850168=
KTKC 080813Z AUTO 25005KT 10SM CLR 16/14 A3013 RMK AO2
     T01550137=
KTKV 080815Z AUTO 00000KT 4SM BR BKN001 17/17 A3002 RMK AO2
     T01710165=
KVTI 080815Z AUTO 29005KT 10SM CLR 21/21 A3004 RMK AO2=
####018003732####
SAUS70 KWBC 080822
METAR
K4I3 080816Z AUTO 00000KT 10SM CLR 20/18 A3009 RMK AO2=
KACB 080815Z AUTO 19003KT 10SM CLR 24/21 A2998 RMK AO2=
KACQ 080818Z AUTO 31003KT 10SM CLR 17/16 A3011 RMK AO2=
KADC 080817Z AUTO 24004KT 10SM CLR 13/12 A3008 RMK AO2=
KAEL 080811Z AUTO 32003KT 10SM SCT029 18/17 A3008 RMK AO2=
KANE 080815Z AUTO 27004KT 10SM 18/17 A3008 RMK AO2=
KAUM 080815Z AUTO 31004KT 10SM CLR 18/17 A3007 RMK AO2=
KAWG 080815Z AUTO 31005KT 3 1/2SM OVC003 22/20 A3003 RMK AO2=
KAXA 080815Z AUTO 32004KT 10SM CLR 18/17 A3010 RMK AO2=
KBAX 080815Z AUTO 00000KT 4SM BR CLR 21/20 A3001 RMK AO2=
KBDH 080815Z AUTO 28003KT 10SM CLR 16/14 A3012 RMK AO2=
KBNW 080815Z AUTO 33006KT 10SM SCT023 21/18 A3010 RMK AO2=
KCAD 080814Z AUTO 22009KT 10SM CLR 22/21 A3004 RMK AO2=
KCAV 080815Z AUTO 33004KT 10SM BKN027 21/19 A3009 RMK AO2=
KCBF 080815Z AUTO 35007KT 10SM CLR 20/16 A3011 RMK AO2=
KCBG 080815Z AUTO 29003KT 10SM CLR 16/14 A3007 RMK AO2=
KCCY 080815Z AUTO 31005KT 7SM SCT032 20/17 A3006 RMK AO2=
KCFE 080815Z AUTO 27003KT 10SM CLR 18/16 A3009 RMK AO2
     T01760162=
KCFS 080815Z AUTO 00000KT 1 1/2SM BR VV007 20/20 A3002 RMK AO2=
KCIN 080815Z AUTO 34003KT 7SM CLR 19/16 A3012 RMK AO2=
KCKC 080815Z AUTO 30004KT 10SM CLR 16/13 A3002 RMK AO2=
KCKN 080815Z AUTO 25003KT 10SM CLR 14/12 A3004 RMK AO2=
KCMY 080815Z AUTO 00000KT 10SM CLR 20/19 A3002 RMK AO2
     T02040193=
KCNB 080817Z AUTO 24004KT 10SM CLR 16/13 A3013 RMK AO2
     T01550129=
KCOQ 080816Z AUTO 29006KT 10SM CLR 14/14 A3005 RMK AO2=
KCQM 080817Z AUTO 24003KT 10SM CLR 14/14 A3004 RMK AO2=
KCVH 080810Z AUTO 00000KT 10SM OVC012 12/11 A2993 RMK AO1=
KDRM 080816Z AUTO 14003KT 10SM BKN110 20/20 A2996 RMK AO2=
KDTL 080815Z AUTO 27005KT 10SM CLR 17/11 A3009 RMK AO2=
KDUH 080815Z AUTO 00000KT 10SM CLR 22/18 A3004 RMK AO2=
KDXX 080814Z AUTO 00000KT 10SM CLR 14/14 A3011 RMK AO2=
KDYT 080814Z AUTO 30007KT 10SM CLR 21/16 A3003 RMK AO2=
KEFK 080815Z AUTO 20003KT 7SM BKN055 21/19 A3006 RMK AO2=
KELO 080813Z AUTO 00000KT 10SM CLR 13/13 A3002 RMK AO2=
KEVM 080812Z AUTO 00000KT 10SM CLR 13/12 A3002 RMK AO1=
KFBL 080814Z AUTO 30004KT 10SM CLR 18/16 A3008 RMK AO2=
KFFX 080815Z AUTO 00000KT 7SM OVC065 22/22 A3002 RMK AO2=
KFKA 080823Z AUTO 31005KT 4SM BR CLR 19/19 A3007 RMK AO2
     T01910186=
KFPK 080816Z AUTO 20003KT 7SM CLR 20/20 A3002 RMK AO2=
KFSE 080814Z AUTO 20003KT 10SM CLR 13/12 A3004 RMK AO2=
KFSO 080818Z AUTO 00000KT 5SM BR CLR 23/22 A3000 RMK AO2=
KGYL 080814Z AUTO 00000KT 10SM CLR 15/15 A3009 RMK AO2
     T01540145=
KHAF 080810Z AUTO 27003KT 9SM OVC008 12/10 A2995 RMK AO2=
KHAI 080815Z AUTO 00000KT 7SM CLR 22/21 A3004 RMK AO2=
KHCD 080812Z AUTO 26003KT 7SM CLR 14/13 A3010 RMK AO2
     T01380128=
KHCO 080814Z AUTO 20003KT 10SM CLR 13/12 A3004 RMK AO2=
KHZX 080811Z AUTO 00000KT 1 3/4SM VV007 13/13 A3007 RMK AO2 VIS
     1/2V5=
KIRS 080815Z AUTO 00000KT 7SM CLR 22/19 A3004 RMK AO2=
KJKJ 080814Z AUTO 23005KT 10SM CLR 16/15 A3006 RMK AO2=
KJMR 080818Z AUTO 31004KT 10SM CLR 15/13 A3008 RMK AO2=
KJYG 080815Z AUTO 00000KT 10SM CLR 17/17 A3012 RMK AO2=
KJYM 080815Z AUTO 00000KT 7SM CLR 21/19 A3006 RMK AO2=
KLJF 080812Z AUTO 29003KT 10SM CLR 18/16 A3011 RMK AO2=
KLVN 080808Z AUTO 32006KT 10SM CLR 18/17 A3007 RMK AO2=
KLWA 080816Z AUTO 00000KT 7SM BKN050 BKN065 OVC110 23/22 A3004 RMK
     AO2=
KLXL 080814Z AUTO 00000KT 3SM BR 12/11 A3008 RMK AO2 SKY
     OBSCURED=
KMDS 080805Z AUTO 27005KT 10SM CLR 15/15 A3017 RMK AO2=
KMGN 080815Z AUTO 00000KT 7SM SCT110 21/20 A2997 RMK AO2=
KMJQ 080812Z AUTO 29004KT 10SM CLR 15/14 A3014 RMK AO2=
KMOP 080814Z AUTO 00000KT 7SM SCT060 SCT070 BKN120 22/22 A3001 RMK
     AO2=
####018000556####
SAAF32 KWBC 080800 RRB
METAR
FCBB 080800Z 25004KT 6000 FEW012 BKN140 23/20 Q1016 NOSIG=
FCPP 080800Z 14004KT 4000 BR FEW010 BKN023 23/21 Q1015 BECMG 6000
     NSW=
FGSL 080800Z 00000KT 9999 SCT013 FEW020CB BKN130 26/26 Q1015
     NOSIG=
FKKD 080800Z 14003KT 070V160 7000 TS BKN013 FEW016CB OVC120 26/24
     Q1015 TEMPO 4000 TS BR=
FOOL 080800Z 16007KT 120V200 8000 SCT010 BKN040 BKN100 25/21 Q1015
     NOSIG=
FPST 080800Z 17008KT 9999 FEW025 SCT250 26/20 Q1015 NOSIG=
FZAA 080800Z 26006KT 3000 BR FEW016 23/19 Q1016 BECMG 6000=
####018000094####
SAAF33 KWBC 080800 RRA
METAR
FNLU 080800Z VRB03KT 6000 SCT017 BKN020 23/19 Q1015 NOSIG=
####018000094####
SAAF34 KWBC 080800 RRC
METAR
FEFF 080800Z 31004KT 9999 FEW016 BKN150 23/23 Q1015 NOSIG=
####018000112####
SAAS31 KWBC 080805 RRC
METAR
VRMM 080800Z 33007KT 9999 FEW018 BKN110 30/24 Q1011 TEMPO 5000
     -SHRA=
####018000053####
SABZ31 KWBC 080800 RRB
METAR
SBTT 080800Z NIL=
####018000429####
SABZ41 KWBC 080800 RRA
METAR
SBAA 080800Z NIL=
SBAF 080800Z 00000KT CAVOK 14/12 Q1019=
SBBG 080800Z NIL=
SBBH 080800Z 07003KT CAVOK 11/08 Q1022=
SBBI 080800Z NIL=
SBBU 080800Z 04010KT CAVOK 17/11 Q1018=
SBCJ 080800Z NIL=
SBCO 080800Z NIL=
SBCR 080800Z NIL=
SBCV 080800Z NIL=
SBDN 080800Z 06006KT CAVOK 18/10 Q1017=
SBGW 080800Z NIL=
SBIH 080800Z NIL=
SBIL 080800Z 29004KT 9999 FEW020 22/21 Q1017=
####018000078####
SABZ42 KWBC 080600 RRB
METAR
SBSC 080600Z 04004KT 7000 NSC 16/15 Q1017=
####018000317####
SABZ42 KWBC 080800 RRA
METAR
SBJR 080800Z NIL=
SBME 080800Z 03003KT CAVOK 15/14 Q1018=
SBMT 080800Z NIL=
SBPC 080800Z NIL=
SBPK 080800Z NIL=
SBPP 080800Z NIL=
SBRJ 080800Z NIL=
SBSM 080800Z NIL=
SBST 080800Z NIL=
SBTU 080800Z NIL=
SBUR 080800Z 08004KT CAVOK 16/07 Q1020=
SBVH 080800Z NIL=
####018000599####
SABZ43 KWBC 080800 RRA
METAR
SBAN 080800Z 11005KT CAVOK 15/09 Q1022=
SBAT 080800Z NIL=
SBBA 080800Z NIL=
SBBQ 080800Z NIL=
SBBW 080800Z NIL=
SBCC 080800Z NIL=
SBES 080800Z NIL=
SBGA 080800Z NIL=
SBJF 080800Z NIL=
SBKG 080800Z NIL=
SBLB 080800Z NIL=
SBLP 080800Z NIL=
SBMK 080800Z NIL=
SBMS 080800Z NIL=
SBMZ 080800Z NIL=
SBPB 080800Z NIL=
SBPJ 080800Z 11004KT CAVOK 18/12 Q1014=
SBPL 080800Z NIL=
SBPN 080800Z NIL=
SBQV 080800Z NIL=
SBTF 080800Z NIL=
SBTK 080800Z NIL=
SBUF 080800Z NIL=
SBUI 080800Z NIL=
SBUL 080800Z 09006KT CAVOK 15/07 Q1021=
####018000081####
SACA31 KWBC 080800 RRC
METAR
MUCU 080802Z VRB02KT 9000 FEW020 26/24 Q1015=
####018000081####
SACA41 KWBC 080800 RRA
METAR
MUCU 080802Z VRB02KT 9000 FEW020 26/24 Q1015=
####018000112####
SAIO31 KWBC 080800 RRC
METAR
VRMM 080800Z 33007KT 9999 FEW018 BKN110 30/24 Q1011 TEMPO 5000
     -SHRA=
####018000086####
SAMM31 KWBC 080800 RRA
METAR
LMML 080815Z VRB03KT CAVOK 27/20 Q1018 BECMG 9999=
####018000131####
SAPA31 KWBC 080800 RRD
METAR
PKWA 080820Z AUTO 11013KT 10SM BKN009 BKN015 OVC030 25/23 A2985
     RMK AO2 P0001 T02520232=
####018000087####
SASA31 KWBC 080800 RRD
METAR
SPIM 080800Z 00000KT 7000 OVC022 16/14 Q1013 NOSIG=
####018000131####
SAXX62 KWBC 080800 RRB
METAR
PKWA 080820Z AUTO 11013KT 10SM BKN009 BKN015 OVC030 25/23 A2985
     RMK AO2 P0001 T02520232=
####018000076####
SAXX99 KWBC 080700 RRX
METAR
DATM 080700Z 00000KT CAVOK 29/M02 Q1011=
####018000344####
SAXX99 KWBC 080800 RRQ
METAR
DATM 080800Z 17006KT CAVOK 32/00 Q1011=
EYKA 080820Z 29008KT 240V350 CAVOK 17/14 Q1015=
FKYS 080800Z 26003KT 230V300 8000 FEW003 BKN006 22/20 Q1019
     NOSIG=
KGYH 080815Z AUTO 31003KT 10SM CLR 24/19 A3002 RMK AO2=
VTCT 080800Z 20008KT 9999 BKN025 BKN100 33/21 Q1006 A2971
     RMK/RWY03 INFO I=
####018000076####
SAXX99 KWBC 080600 RRX
METAR
DATM 080600Z 00000KT CAVOK 28/M05 Q1010=
####018001564####
SPZZ40 KAWN 080822 RRD
SPECI CWZZ 080817Z AUTO ///// 5/8SM SCT013 OVC019 OVC069 10/ A2981=
SPECI CYMH 080817Z AUTO 18005KT 9SM OVC005 07/06 A3011=
SPECI CYPH 080815Z AUTO 24017G22KT 3SM OVC001 05/05 A2977=
SPECI CYPH 080817Z AUTO 24017KT 4SM OVC002 05/05 A2977=
SPECI CYQA 080821Z AUTO VRB02KT 2 1/2SM BR CLR 19/19 A3003 RMK SLP169
      DENSITY ALT 1400FT VIS VRB 2-3=
SPECI CYUS 080816Z AUTO ///// 9SM CLR 10/ A2980=
SPECI CYYT 080816Z 14005KT 1/8SM R11/P6000FT/D R16/3500VP6000FT/D FG
      VV001 08/ RMK FG8=
SPECI EGUL 080818Z AUTO 24005KT 9999 -DZ SCT005 SCT014 OVC022 17/16
      A3007 RMK AO2 CIG 005 RWY06 SLP184=
SPECI FCPP 080800Z 14004KT 4000 BR FEW010 BKN023 23/21 Q1015 BECMG
      6000 NSW=
SPECI KEGI 080817Z AUTO 00000KT 2 1/2SM R18/1800VP6000FT BR CLR 22/22
      A3002 RMK AO2 SLP165 $=
SPECI KEGI 080818Z AUTO 00000KT 2SM R18/1800VP6000FT BR CLR 22/22 A3002
      RMK AO2 SLP164 $=
SPECI KEGI 080819Z AUTO 00000KT 1 3/4SM R18/1800V5500FT BR CLR 22/22
      A3002 RMK AO2 SLP164 $=
SPECI KNSE 080811Z AUTO 00000KT 1 3/4SM BR CLR 23/22 A3002 RMK AO2
      $=
SPECI KVOK 080816Z 31005KT 10SM BKN009 OVC014 22/22 A3000 RMK AO2A
      CIG 008V012 BKN V SCT SLP153=
SPECI KWRI 080820Z AUTO 00000KT 1 3/4SM R18/3000V5500FT R24/2400V2800FT
      BR OVC003 24/24 A2999 RMK AO2 SLP156 $=
SPECI RJCC 080821Z 16007KT 1700 -DZ BR BKN002 18/17 Q1009 RMK 7ST002
      A2981=
SPECI RJCJ 080804Z 16008KT 3500 -DZ BR FEW001 BKN002 OVC003 19/17 Q1009
      RMK 1ST001 5ST002 8ST003 A2980 VIS E-S 2500M=
####018001067####
SABZ01 SBBR 080800
METAR SBBE 080800Z 11005KT CAVOK 25/22 Q1012=
METAR SBBR 080800Z 00000KT CAVOK 15/09 Q1022,5=
METAR SBBV 080800Z 32004KT 9999 SCT025 SCT100 25/23 Q1012=
METAR SBCF 080800Z 18001KT CAVOK 10/08 Q1022=
METAR SBCG 080800Z 07003KT CAVOK 17/09 Q1016=
METAR SBCR 080800Z NIL=
METAR SBCT 080800Z 06001KT CAVOK 11/10 Q1020=
METAR SBEG 080800Z 00000KT 9999 FEW010 SCT100 25/22 Q1011=
METAR SBFI 080800Z 21004KT 9999 FEW020 SCT100 16/13 Q1014=
METAR SBFL 080800Z 20003KT CAVOK 19/18 Q1014=
METAR SBFZ 080800Z 17005KT 9999 SCT017 SCT100 24/22 Q1013=
METAR SBGR 080800Z 07006KT CAVOK 12/11 Q1020=
METAR SBKP 080800Z 08005KT CAVOK 11/08 Q1020=
METAR SBLO 080800Z 00000KT CAVOK 17/13 Q1018=
METAR SBMQ 080800Z 36003KT CAVOK 25/25 Q1012=
METAR SBPA 080800Z 19004KT 9999 BKN023 OVC045 17/14 Q1017=
METAR SBPP 080800Z NIL=
METAR SBRB 080800Z 00000KT CAVOK 23/23 Q1011=
METAR SBSJ 080800Z 00000KT 5000 BR SCT010 12/11 Q1022=
METAR SBSL 080800Z 12003KT 9999 SCT017 26/24 Q1012=
METAR SBSN 080800Z 00000KT CAVOK 24/22 Q1011=
####018000083####
SACN63 CWAO 080800 RRC
ZFS SA 0800 AUTO8 M M M 157/16/15/3604/M/ 5000 85MM=

####018000083####
SACN87 CWAO 080800 RRB
WRO SA 0800 AUTO8 M M M 189/13/11/2613/M/ 1001 83MM=

####018000082####
SACN90 CWAO 080600 RRG
WEE SA 0600 AUTO7 M M M 147/17/M/MMMM/M/ 1004 9MMM=

####018000079####
SACN91 CWAO 080800 RRC
WIX SA 0800 AUTO7 M M M M/20/19/1402/M/M M 64MM=

####018000078####
SACN59 CWAO 080800 RRC
XSC SA 0800 AUTO8 M M M M/12/10/2709/M/ M 90MM=

####018000083####
SACN89 CWAO 080500 RRG
WDE SA 0500 AUTO7 M M M 161/17/16/MMMM/M/ 1008 79MM=

####018000082####
SACN90 CWAO 080700 RRG
WEE SA 0700 AUTO7 M M M 147/16/M/MMMM/M/ 0001 0MMM=

####018000139####
SACN97 CWAO 080800 RRC
XDE SA 0800 AUTO8 M M M 154/10/09/MMMM/M/M 5005 59MM=
XQA SA 0800 AUTO8 M M M 130/07/07/MMMM/M/ 8014 47MM=

####018000082####
SACN90 CWAO 080500 RRH
WEE SA 0500 AUTO7 M M M 146/18/M/MMMM/M/ 1006 6MMM=

####018000078####
SACN95 CWAO 080800 RRC
WWO SA 0800 AUTO8 M M M M/07/06/0000/M/ M 97MM=

####018000132####
SACN89 CWAO 080700 RRE
WDE SA 0700 AUTO7 M M M 156/17/17/MMMM/M/ 8003 20MM=
WDP SA 0700 AUTO7 M M M M/15/M/MMMM/M/ M 3MMM=

####018000083####
SACN66 CWAO 080800 RRC
WKO SA 0800 AUTO8 M M M 209/11/09/2806/M/ 6001 78MM=

####018000158####
SACN94 CWAO 080800 RRC
WRU SA 0800 AUTO8 M M M 154/16/13/3617/M/ PK WND 3619 0754Z 3001
91MM=
WRV SA 0800 AUTO8 M M M 190/12/11/2403/M/ 0000 42MM=

####018000083####
SACN89 CWAO 080600 RRH
WDE SA 0600 AUTO7 M M M 157/16/16/MMMM/M/ 0000 16MM=

####018000078####
SACN93 CWAO 080800 RRC
WMX SA 0800 AUTO8 M M M M/15/10/MMMM/M/ M 73MM=

####018000084####
SACN88 CWAO 080800 RRC
WDO SA 0800 AUTO8 M M M 205/09/08/1409/M/M 7009 30MM=

####018000078####
SACN96 CWAO 080800 RRC
WYJ SA 0800 AUTO8 M M M M/19/12/2303/M/ M 12MM=

####018000078####
SACN98 CWAO 080700 RRH
XAF SA 0700 AUTO8 M M M M/13/10/3102/M/ M 48MM=

####018000083####
SACN92 CWAO 080700 RRI
WKD SA 0700 AUTO7 M M M 168/15/15/MMMM/M/ 0000 05MM=

####018000589####
SACN98 CWAO 080800 RRC
XAF SA 0800 AUTO8 M M M M/11/09/0000/M/ M 90MM=
XBR SA 0800 AUTO8 M M M M/11/08/3009/M/ M 01MM=
XDP SA 0800 AUTO8 M M M M/11/10/1403/M/ M 65MM=
XFR SA 0800 AUTO8 M M M M/17/11/3103/M/0028 PCPN 2.8MM PAST HR PK
WND 3227 0704Z M 50MM=
XHR SA 0800 AUTO8 M M M M/12/09/1908/M/ M 25MM=
XKM SA 0800 AUTO8 M M M M/11/09/2406/M/ M 57MM=
XOY SA 0800 AUTO8 M M M M/11/09/3205/M/ M 07MM=
XPA SA 0800 AUTO8 M M M M/19/09/3515/M/ PK WND 3520 0700Z M 12MM=
XRL SA 0800 AUTO8 M M M M/15/12/2406/M/ M 77MM=
ZZJ SA 0800 AUTO8 M M M M/11/06/MMMM/M/ M 43MM=

####018000083####
SACN92 CWAO 080800 RRC
WJU SA 0800 AUTO8 M M M 200/12/11/2912/M/ 1005 30MM=

####018000128####
SACN49 CWAO 080800 RRA
METAR CYGW 080800Z 13008KT 10SM FEW020 FEW SCT200 14/12 A2988 RMK
SC2AC2CC1 VIA YQB FIC SLP119=

####018000108####
SAUS20 KNKA 080821
SPECI KJFK 080820Z 00000KT 4SM BR FEW003 SCT010 BKN100 24/23 A3002 
    RMK AO2 $=
####018000763####
SPNA14 KAWN 080822 RRA
SPECI KEGI 080817Z AUTO 00000KT 2 1/2SM R18/1800VP6000FT BR CLR 22/22
      A3002 RMK AO2 SLP165 $=
SPECI KEGI 080818Z AUTO 00000KT 2SM R18/1800VP6000FT BR CLR 22/22 A3002
      RMK AO2 SLP164 $=
SPECI KEGI 080819Z AUTO 00000KT 1 3/4SM R18/1800V5500FT BR CLR 22/22
      A3002 RMK AO2 SLP164 $=
SPECI KNSE 080811Z AUTO 00000KT 1 3/4SM BR CLR 23/22 A3002 RMK AO2
      $=
SPECI KVOK 080816Z 31005KT 10SM BKN009 OVC014 22/22 A3000 RMK AO2A
      CIG 008V012 BKN V SCT SLP153=
SPECI KWRI 080820Z AUTO 00000KT 1 3/4SM R18/3000V5500FT R24/2400V2800FT
      BR OVC003 24/24 A2999 RMK AO2 SLP156 $=
SPECI KWRI 080821Z AUTO 00000KT 1 1/2SM R18/2800V5500FT R24/2400V2800FT
      BR OVC003 24/24 A2999 RMK AO2 SLP156 $=
####018000104####
SPUS81 KWBC 080822
SPECI
KANJ 080819Z AUTO 00000KT 5SM -RA BR FEW004 BKN018 OVC033 21/19
A2995=
####018000158####
SAUS17 KAWN 080800 RRE
METAR KFMH 080815Z AUTO 16006KT 4SM BR OVC003 21/21 A3007 RMK AO2=
METAR KIWA 080816Z AUTO 04004KT 10SM CLR 31/05 A2979 RMK AO2=
####018000563####
SAXX70 KAWN 080800 RRO
METAR KQFU 080800Z AUTO 05003KT 7SM CLR 26/18 A2988 RMK A02=
METAR KQEI 080820Z AUTO 16002KT 7SM CLR 27/18 A2992 RMK A02=
METAR KQEN 080820Z AUTO 22003KT 7SM FEW021 SCT070 19/16 A3039 RMK A02=
METAR KQER 080820Z AUTO 00000KT 7SM -SHRA FEW040 26/17 A2987 RMK A02=
METAR KQES 080820Z AUTO 30005KT 5SM BR FEW100 21/18 A2984 RMK A02=
METAR KQEY 080820Z AUTO 31003KT 7SM CLR 28/15 A2958 RMK A02=
METAR KQFV 080820Z AUTO 04003KT 7SM -SHRA OVC015 25/18 A3000 RMK A02=
METAR KQEV 080830Z AUTO 28003KT 7SM CLR 29/16 A2976 RMK A02=
####018000130####
SALV32 EVRA 080820
METAR EVLA 080820Z 31005KT 250V040 CAVOK 22/16 Q1018=
METAR EVVA 080820Z AUTO 33011KT CAVOK 21/17 Q1017=
####018000194####
SATU20 LTAA 080750 RRA
METAR LTBR 080820Z 05005KT 9999 FEW035 SCT100 27/15 Q1011 NOSIG RMK
RWY07 01005KT=
METAR LTBU 080820Z 35012KT 9999 SCT030 BKN100 22/11 Q1014 RMK RWY23 
34014KT=
####018000098####
SAEU31 BKPR 080830
METAR BKPR 080830Z 34012KT 9999 SCT040 BKN080 16/10 Q1020 NOSIG RMK
BLU=
####018000267####
SASW31 LSSW 080820
METAR LSZH 080820Z 32004KT 260V050 CAVOK 22/12 Q1022 NOSIG=
METAR LSGG 080820Z 07004KT 330V120 CAVOK 25/11 Q1022 NOSIG=
METAR LSZB 080820Z VRB02KT CAVOK 23/15 Q1022 NOSIG=
METAR LSZA 080820Z 15004KT 120V200 9999 BKN055 24/14 Q1023 NOSIG=
####018000089####
SPCN51 CWAO 080821
SPECI CWZZ 080821Z AUTO ///// 1 1/2SM OVC022 OVC069 10/ A2981=

####018000114####
SAUS41 KAKQ 080822 COR
MTRWAL
SPECI KWAL 080813Z AUTO 12004KT 9SM FEW007 OVC095 24/23 A2998 RMK 
AO2 TSNO
####018000079####
SAIR31 OIII 080800 RRC
METAR OIFM 080800Z 11010KT CAVOK 37/04 Q1017 A3005=
####018002945####
SAUS20 KNKA 080822
METAR K0R3 080819Z AUTO 06004KT 7SM CLR 25/25 A2998 RMK AO2=
METAR K1A5 080820Z AUTO 00000KT 2SM BR 17/16 A3014 RMK AO2 SKY 
     OBSCURED T01710158=
METAR K47A 080820Z AUTO 00000KT 7SM CLR 20/18 A3006 RMK AO2 
     T02040182=
METAR KAMN 080816Z AUTO 00000KT 4SM BR SCT065 SCT075 22/22 A3001
     RMK AO2=
METAR KAQP 080813Z AUTO 22003KT 10SM CLR 14/14 A3010 RMK AO2=
METAR KASJ 080817Z AUTO 00000KT 5SM HZ CLR 24/21 A2995 RMK AO2=
METAR KAVC 080820Z AUTO 34003KT 7SM SCT110 26/20 A3002 RMK AO2=
METAR KBFW 080813Z AUTO 00000KT 10SM SCT055 17/15 A2999 RMK
     AO2=
METAR KBIJ 080820Z AUTO 00000KT 10SM CLR 19/ A3002 RMK AO2=
METAR KBQP 080827Z AUTO 00000KT 4SM BR CLR 24/24 A3003 RMK AO2=
METAR KCDA 080815Z AUTO 00000KT 4SM BR SCT055 20/18 A3009 RMK
     AO2=
METAR KCDD 080811Z AUTO 00000KT 5SM BR CLR 14/14 A3003 RMK AO2=
SPECI KCNY 080821Z AUTO 13007KT 10SM CLR 22/05 A3010 RMK AO2 WSHFT 
    0801 PRESRR=
METAR KCPK 080821Z AUTO 00000KT 2SM BR BKN085 23/23 A2995 RMK AO2=
METAR KCTZ 080820Z AUTO 00000KT 7SM CLR 24/22 A2992 RMK AO2=
METAR KCVX 080815Z AUTO 00000KT 7SM SCT120 21/20 A2999 RMK AO2=
SPECI KDAW 080821Z AUTO 00000KT 1 1/4SM BR OVC003 22/21 A3005 RMK 
    AO2 $=
METAR KDVP 080816Z AUTO 27004KT 10SM CLR 15/13 A3017 RMK AO2
     T01480131=
METAR KEDE 080816Z AUTO 00000KT 3SM BR CLR 23/22 A2994 RMK AO2=
METAR KERY 080816Z AUTO 00000KT 10SM SCT026 SCT090 19/19 A2996 RMK
     AO2=
METAR KETH 080814Z AUTO 22004KT 10SM CLR 15/14 A3010 RMK AO2=
METAR KFKS 080815Z AUTO 20006KT 10SM -RA BKN120 23/18 A2998 RMK
     AO2=
METAR KFOZ 080813Z AUTO 00000KT 1/2SM FG BKN001 OVC016 13/12 A3005
     RMK AO2=
METAR KFQD 080819Z AUTO 31004KT 10SM CLR 22/17 A3003 RMK AO2=
SPECI KFRG 080821Z AUTO 00000KT 4SM BR FEW008 SCT100 26/24 A3002 RMK 
    AO2=
SPECI KFZY 080821Z AUTO 00000KT 1 3/4SM BR CLR 21/20 A3004 RMK AO2=
METAR KGOV 080815Z AUTO 15005KT 1 3/4SM BR SCT065 SCT120 20/20
     A3003 RMK AO2=
SPECI KGUY 080821Z AUTO 05009KT 10SM SCT024 BKN050 BKN065 20/17 
    A3019 RMK AO2 LTG DSNT SE TSB00E15=
METAR KHQU 080820Z AUTO 00000KT 10SM CLR 22/19 A3005 RMK AO1=
METAR KHYX 080816Z AUTO 16004KT 10SM CLR 22/20 A3000 RMK AO2=
METAR KISQ 080816Z AUTO 21004KT 4SM BR OVC004 19/18 A2996 RMK
     AO2=
METAR KJYL 080821Z AUTO 00000KT 10SM CLR 23/21 A3000 RMK AO2=
METAR KLDM 080816Z AUTO 23004KT 10SM BKN120 22/21 A3001 RMK
     AO2=
METAR KMCD 080815Z AUTO 00000KT 10SM BKN110 21/18 A2997 RMK
     AO2=
METAR KMQI 080816Z AUTO 06007KT 10SM CLR 26/24 A2993 RMK AO2=
METAR KMRN 080819Z AUTO 00000KT 10SM CLR 18/17 A3009 RMK AO2=
METAR KMWK 080822Z AUTO 00000KT 7SM CLR 23/19 A3003 RMK AO2=
METAR KMZH 080811Z AUTO 00000KT 10SM OVC100 14/13 A3004 RMK
     AO2=
SPECI KNSE 080811Z AUTO 00000KT 1 3/4SM BR CLR 23/22 A3002 RMK AO2
      $=
METAR KOCW 080819Z AUTO 03004KT 4SM HZ CLR 26/21 A2993 RMK AO2=
####018000232####
SAAK41 KNKA 080822
SPECI PACM 080820Z AUTO 31004KT 3SM -RA BR FEW004 SCT020 BKN060 
    12/10 A3010 RMK AO2 TSNO P0007 $=
SPECI PAWD 080820Z AUTO 16003KT 1 3/4SM BR FEW003 OVC049 10/09 A2998 
    RMK AO2 RAE00 P0000 TSNO=
####018001315####
SAUS20 KNKA 080822
SPECI KOJC 080821Z AUTO 35007KT 8SM SCT004 BKN014 OVC100 23/22 A3005 
    RMK AO2=
METAR KONZ 080817Z AUTO 00000KT 10SM CLR 24/21 A3002 RMK AO2=
METAR KORB 080814Z AUTO 00000KT 10SM CLR 15/13 A3001 RMK AO2=
METAR KOSC 080814Z AUTO 00000KT 7SM CLR 19/18 A3000 RMK AO2=
METAR KOWA 080814Z AUTO 30004KT 10SM CLR 18/17 A3007 RMK AO2=
METAR KPGV 080820Z AUTO 00000KT 7SM CLR 24/20 A2994 RMK AO2=
METAR KPHN 080816Z AUTO 00000KT 2 1/2SM BR SCT100 20/19 A3003 RMK
     AO2=
METAR KPZQ 080815Z AUTO 21004KT 7SM SCT120 22/22 A2999 RMK AO2=
METAR KRMY 080815Z AUTO 00000KT 7SM CLR 21/19 A3004 RMK AO2=
METAR KSAW 080819Z AUTO 30005KT 4SM BR OVC003 18/17 A2998 RMK
     AO2=
METAR KSJX 080816Z AUTO 21006KT 10SM RA SCT070 SCT120 21/19 A2996
     RMK AO2=
METAR KSLH 080815Z AUTO 00000KT 10SM SCT120 21/21 A2996 RMK
     AO2=
METAR KTTF 080813Z AUTO 00000KT 10SM CLR 23/22 A3002 RMK AO2=
METAR KUKF 080821Z AUTO 00000KT 10SM CLR 22/18 A3006 RMK AO1=
METAR KUNV 080820Z AUTO 00000KT 7SM CLR 21/18 A3009 RMK AO2 
     T02090180=
METAR KVWU 080811Z AUTO 00000KT 10SM CLR 14/14 A3002 RMK AO2=
METAR KXVG 080816Z AUTO 00000KT 5SM BR CLR 11/11 A3005 RMK AO2=
SPECI PACM 080820Z AUTO 31004KT 3SM -RA BR FEW004 SCT020 BKN060 
    12/10 A3010 RMK AO2 TSNO P0007 $=
####018000960####
SPUS99 KWBC 080823
SPECI
KJFK 080820Z 00000KT 4SM BR FEW003 SCT010 BKN100 24/23 A3002 RMK
     AO2 $=
KOJC 080821Z AUTO 35007KT 8SM SCT004 BKN014 OVC100 23/22 A3005 RMK
     AO2=
PACM 080820Z AUTO 31004KT 3SM -RA BR FEW004 SCT020 BKN060 12/10
     A3010 RMK AO2 TSNO P0007 $=
PACM 080820Z AUTO 31004KT 3SM -RA BR FEW004 SCT020 BKN060 12/10
     A3010 RMK AO2 TSNO P0007 $=
PAWD 080820Z AUTO 16003KT 1 3/4SM BR FEW003 OVC049 10/09 A2998 RMK
     AO2 RAE00 P0000 TSNO=
KCNY 080821Z AUTO 13007KT 10SM CLR 22/05 A3010 RMK AO2 WSHFT 0801
     PRESRR=
KDAW 080821Z AUTO 00000KT 1 1/4SM BR OVC003 22/21 A3005 RMK AO2
     $=
KFRG 080821Z AUTO 00000KT 4SM BR FEW008 SCT100 26/24 A3002 RMK
     AO2=
KFZY 080821Z AUTO 00000KT 1 3/4SM BR CLR 21/20 A3004 RMK AO2=
KGUY 080821Z AUTO 05009KT 10SM SCT024 BKN050 BKN065 20/17 A3019
     RMK AO2 LTG DSNT SE TSB00E15=
KNSE 080811Z AUTO 00000KT 1 3/4SM BR CLR 23/22 A3002 RMK AO2 $=
####018003174####
SAUS99 KWBC 080823
METAR
KONZ 080817Z AUTO 00000KT 10SM CLR 24/21 A3002 RMK AO2=
KORB 080814Z AUTO 00000KT 10SM CLR 15/13 A3001 RMK AO2=
KOSC 080814Z AUTO 00000KT 7SM CLR 19/18 A3000 RMK AO2=
KOWA 080814Z AUTO 30004KT 10SM CLR 18/17 A3007 RMK AO2=
KPGV 080820Z AUTO 00000KT 7SM CLR 24/20 A2994 RMK AO2=
KPHN 080816Z AUTO 00000KT 2 1/2SM BR SCT100 20/19 A3003 RMK
     AO2=
KPZQ 080815Z AUTO 21004KT 7SM SCT120 22/22 A2999 RMK AO2=
KRMY 080815Z AUTO 00000KT 7SM CLR 21/19 A3004 RMK AO2=
KSAW 080819Z AUTO 30005KT 4SM BR OVC003 18/17 A2998 RMK AO2=
KSJX 080816Z AUTO 21006KT 10SM RA SCT070 SCT120 21/19 A2996 RMK
     AO2=
KSLH 080815Z AUTO 00000KT 10SM SCT120 21/21 A2996 RMK AO2=
KTTF 080813Z AUTO 00000KT 10SM CLR 23/22 A3002 RMK AO2=
KUKF 080821Z AUTO 00000KT 10SM CLR 22/18 A3006 RMK AO1=
KUNV 080820Z AUTO 00000KT 7SM CLR 21/18 A3009 RMK AO2
     T02090180=
KVWU 080811Z AUTO 00000KT 10SM CLR 14/14 A3002 RMK AO2=
KXVG 080816Z AUTO 00000KT 5SM BR CLR 11/11 A3005 RMK AO2=
K0R3 080819Z AUTO 06004KT 7SM CLR 25/25 A2998 RMK AO2=
K1A5 080820Z AUTO 00000KT 2SM BR 17/16 A3014 RMK AO2 SKY OBSCURED
     T01710158=
K47A 080820Z AUTO 00000KT 7SM CLR 20/18 A3006 RMK AO2
     T02040182=
KAMN 080816Z AUTO 00000KT 4SM BR SCT065 SCT075 22/22 A3001 RMK
     AO2=
KAQP 080813Z AUTO 22003KT 10SM CLR 14/14 A3010 RMK AO2=
KASJ 080817Z AUTO 00000KT 5SM HZ CLR 24/21 A2995 RMK AO2=
KAVC 080820Z AUTO 34003KT 7SM SCT110 26/20 A3002 RMK AO2=
KBFW 080813Z AUTO 00000KT 10SM SCT055 17/15 A2999 RMK AO2=
KBIJ 080820Z AUTO 00000KT 10SM CLR 19/ A3002 RMK AO2=
KBQP 080827Z AUTO 00000KT 4SM BR CLR 24/24 A3003 RMK AO2=
KCDA 080815Z AUTO 00000KT 4SM BR SCT055 20/18 A3009 RMK AO2=
KCDD 080811Z AUTO 00000KT 5SM BR CLR 14/14 A3003 RMK AO2=
KCPK 080821Z AUTO 00000KT 2SM BR BKN085 23/23 A2995 RMK AO2=
KCTZ 080820Z AUTO 00000KT 7SM CLR 24/22 A2992 RMK AO2=
KCVX 080815Z AUTO 00000KT 7SM SCT120 21/20 A2999 RMK AO2=
KDVP 080816Z AUTO 27004KT 10SM CLR 15/13 A3017 RMK AO2
     T01480131=
KEDE 080816Z AUTO 00000KT 3SM BR CLR 23/22 A2994 RMK AO2=
KERY 080816Z AUTO 00000KT 10SM SCT026 SCT090 19/19 A2996 RMK
     AO2=
KETH 080814Z AUTO 22004KT 10SM CLR 15/14 A3010 RMK AO2=
KFKS 080815Z AUTO 20006KT 10SM -RA BKN120 23/18 A2998 RMK AO2=
KFOZ 080813Z AUTO 00000KT 1/2SM FG BKN001 OVC016 13/12 A3005 RMK
     AO2=
KFQD 080819Z AUTO 31004KT 10SM CLR 22/17 A3003 RMK AO2=
KGOV 080815Z AUTO 15005KT 1 3/4SM BR SCT065 SCT120 20/20 A3003 RMK
     AO2=
KHQU 080820Z AUTO 00000KT 10SM CLR 22/19 A3005 RMK AO1=
KHYX 080816Z AUTO 16004KT 10SM CLR 22/20 A3000 RMK AO2=
KISQ 080816Z AUTO 21004KT 4SM BR OVC004 19/18 A2996 RMK AO2=
KJYL 080821Z AUTO 00000KT 10SM CLR 23/21 A3000 RMK AO2=
KLDM 080816Z AUTO 23004KT 10SM BKN120 22/21 A3001 RMK AO2=
KMCD 080815Z AUTO 00000KT 10SM BKN110 21/18 A2997 RMK AO2=
KMQI 080816Z AUTO 06007KT 10SM CLR 26/24 A2993 RMK AO2=
KMRN 080819Z AUTO 00000KT 10SM CLR 18/17 A3009 RMK AO2=
KMWK 080822Z AUTO 00000KT 7SM CLR 23/19 A3003 RMK AO2=
KMZH 080811Z AUTO 00000KT 10SM OVC100 14/13 A3004 RMK AO2=
KOCW 080819Z AUTO 03004KT 4SM HZ CLR 26/21 A2993 RMK AO2=
####018000128####
SALV32 EVRA 080820
METAR EVLA 080820Z 31005KT 250V040 CAVOK 22/16 Q1018=
METAR EVVA 080820Z AUTO 33011KT CAVOK 21/17 Q1017=
####018000161####
SAFA31 EKCH 080820
METAR EKVG 080822Z 17012KT 9999 SCT004 BKN006 BKN010 11/10 Q0992
RMK/RWY 13/31 CLOSED DUE WIP. SEE NOTAM E0050/10 WIND 850FT
VRB07G18KT=
####018000263####
SASW31 LSSW 080820
METAR LSZH 080820Z 32004KT 260V050 CAVOK 22/12 Q1022 NOSIG=
METAR LSGG 080820Z 07004KT 330V120 CAVOK 25/11 Q1022 NOSIG=
METAR LSZB 080820Z VRB02KT CAVOK 23/15 Q1022 NOSIG=
METAR LSZA 080820Z 15004KT 120V200 9999 BKN055 24/14 Q1023 NOSIG=
####018000104####
SPAF32 KWBC 080823
SPECI
FCPP 080800Z 14004KT 4000 BR FEW010 BKN023 23/21 Q1015 BECMG 6000
NSW=
####018000103####
SPJP31 KWBC 080823
SPECI
RJCC 080821Z 16007KT 1700 -DZ BR BKN002 18/17 Q1009 RMK 7ST002
A2981=
####018000145####
SPJP41 KWBC 080823
SPECI
RJCJ 080804Z 16008KT 3500 -DZ BR FEW001 BKN002 OVC003 19/17 Q1009
RMK 1ST001 5ST002 8ST003 A2980 VIS E-S 2500M=
####018000131####
SPXX61 KWBC 080823
SPECI
EGUL 080818Z AUTO 24005KT 9999 -DZ SCT005 SCT014 OVC022 17/16
A3007 RMK AO2 CIG 005 RWY06 SLP184=
####018000122####
SPUS41 KWBC 080823
SPECI
KWRI 080820Z AUTO 00000KT 1 3/4SM R18/3000V5500FT R24/2400V2800FT
BR OVC003 24/24 A2999=
####018000122####
SPUS41 KWBC 080823
SPECI
KWRI 080821Z AUTO 00000KT 1 1/2SM R18/2800V5500FT R24/2400V2800FT
BR OVC003 24/24 A2999=
####018000094####
SAAG01 SABM 080800 RRE
METAR SAZS 080800Z  32014KT 5000 +DZ BKN010 SCT040
 03/01 Q1005=
####018000096####
SPUS42 KWBC 080823
SPECI
KHRL 080820Z AUTO 33005KT 10SM FEW019 SCT034 BKN055 26/26 A2979=
####018000096####
SPUS72 KWBC 080823
SPECI
KHRL 080820Z AUTO 33005KT 10SM FEW019 SCT034 BKN055 26/26 A2979=
####018000164####
SAFA31 EKCH 080820
METAR EKVG 080822Z 17012KT 9999 SCT004 BKN006 BKN010 11/10 Q0992
RMK/RWY 13/31 CLOSED DUE WIP. SEE NOTAM E0050/10 WIND 850FT
VRB07G18KT=
####018000112####
SATH33 VTBB 080800 RRC
METAR VTUO 080800Z 15004KT 9999 FEW014 34/24 Q1005 A2969 INFO I RWY
           22=
####018000185####
SATU20 LTAA 080750 RRB
METAR LTAN 080820Z 34008KT CAVOK 29/14 Q1012 NOSIG RMK RWY19 32008KT=
METAR LTAU 080820Z 04004KT 350V100 9999 FEW040 28/15 Q1012 NOSIG RMK
RWY07 VRB03KT=
####018000413####
SADL32 EDZO 080820
METAR EDDB 080820Z VRB02KT CAVOK 23/08 Q1022 NOSIG=
METAR EDDC 080820Z VRB03KT 9999 FEW046 22/09 Q1023 NOSIG=
METAR EDDE 080820Z VRB01KT CAVOK 23/10 Q1022 NOSIG=
METAR EDDG 080820Z 17003KT CAVOK 26/12 Q1020 NOSIG=
METAR EDDP 080820Z 19003KT CAVOK 23/12 Q1022 NOSIG=
METAR EDDR 080820Z 12004KT 090V160 CAVOK 24/12 Q1021 NOSIG=
METAR EDDW 080820Z 17005KT CAVOK 26/09 Q1019 NOSIG=
####018000515####
SADL31 EDZO 080820
METAR EDDF 080820Z 35003KT CAVOK 25/10 Q1021 NOSIG=
METAR EDDH 080820Z 19006KT CAVOK 24/12 Q1019 NOSIG=
METAR EDDK 080820Z 20006KT CAVOK 26/10 Q1020 NOSIG=
METAR EDDL 080820Z 20005KT 170V230 CAVOK 26/11 Q1020 NOSIG=
METAR EDDM 080820Z 08006KT CAVOK 21/09 Q1023 NOSIG=
METAR EDDN 080820Z 14005KT CAVOK 23/08 Q1022 NOSIG=
METAR EDDS 080820Z 15004KT CAVOK 23/09 Q1022 NOSIG=
METAR EDDT 080820Z 12001KT CAVOK 24/07 Q1022 NOSIG=
METAR EDDV 080820Z VRB03KT CAVOK 26/10 Q1020 NOSIG=
####018000353####
SAIN31 VABB 080810
METAR VAAH 080810Z 17005KT 3500 HZ SCT018 SCT025 FEW030CB BKN080
    31/24 Q1004 TEMPO 2000 TSRA=
METAR VOHS 080810Z 25013KT 5000 HZ SCT010 SCT015 BKN080 26/22 Q1011
    NOSIG=
METAR VOMM 080810Z 13005KT 2500 -DZ HZ SCT015 OVC080 28/26 Q1010
     BECMG 4000=
METAR VOTR 080810Z 27005KT 6000 SCT020 OVC100 33/23 Q1009=
####018000100####
SPCN47 CWAO 080822
SPECI CYAM 080822Z 00000KT 10SM -RA FEW007 BKN013 OVC130 RMK
SF2SC2AC3=

####018000155####
SAUS20 KNKA 080823
SPECI KACT 080821Z 08003KT 10SM BKN014 BKN120 26/23 A2998 RMK AO2=
METAR KTSP 080815Z AUTO 00000KT 10SM CLR 14/07 A3003 RMK AO2 =
####018000110####
SPUS90 KWBC 080824 CCA
SPECI KWAL 080813Z AUTO 12004KT 9SM FEW007 OVC095 24/23 A2998 RMK
     AO2 TSNO=
####018000081####
SAZA42 FAJS 080830
METAR FAJS 080830Z 08011KT 9999 SCT011 11/08 Q1037 NOSIG=
####018000135####
SPCN46 CWAO 080823
SPECI CYKF 080823Z AUTO 00000KT 1 3/4SM BR CLR 20/20 A3006 RMK SLP174
 DENSITY ALT 1700FT VIS VRB 1 1/2-3=

####018001442####
SAUS20 KNKA 080823
METAR KJES 080820Z AUTO 00000KT 10SM CLR 20/20 A3000 RMK AO2 
     T01980198=
METAR KJGG 080820Z AUTO 00000KT 7SM OVC110 28/24 A2995 RMK AO1=
METAR KJKA 080820Z AUTO 00000KT 5SM BR CLR 26/25 A3001 RMK AO2 
     T02600251=
METAR KJQF 080820Z AUTO 00000KT 10SM CLR 22/18 A2999 RMK AO2 
     T02230178=
METAR KJYO 080820Z AUTO 00000KT 7SM CLR 28/19 A3000 RMK AO2=
METAR KLGC 080815Z AUTO 00000KT 7SM CLR 21/ A3002 RMK AO1=
METAR KLOM 080820Z AUTO 00000KT 5SM CLR 22/21 A3001 RMK AO1 
     T02200206=
SPECI KLUK 080822Z AUTO 00000KT 1 3/4SM R21L/4500VP6000FT BR CLR 
    22/21 A3007 RMK AO2=
METAR KLWB 080821Z AUTO 00000KT 5SM BR BKN060 OVC090 20/18 A3015 
     RMK AO2=
METAR KMFV 080822Z AUTO 00000KT 4SM BR CLR 25/24 A2997 RMK AO2=
METAR KMGR 080820Z AUTO 00000KT 10SM CLR 22/21 A3002 RMK AO2=
METAR KMMU 080820Z AUTO 00000KT 5SM BR CLR 21/20 RMK AO2 T02080202=
METAR KPSK 080822Z AUTO 00000KT 7SM CLR 24/17 A3014 RMK AO2=
METAR KPTB 080822Z AUTO 00000KT 4SM BR CLR 22/21 A2997 RMK AO2=
METAR KSIF 080820Z AUTO 00000KT 7SM SCT090 22/21 A3000 RMK AO2=
METAR KTPF 080820Z AUTO 06003KT 10SM CLR 24/23 A2998 RMK AO2=
SPECI KTQE 080822Z AUTO 36006KT 10SM BKN031 20/18 A3012 RMK AO2=
METAR KVDI 080822Z AUTO 24003KT 10SM CLR 23/21 A3000 RMK AO1=
METAR KVUJ 080818Z AUTO 00000KT 10SM OVC090 22/19 A2997 RMK AO2=
METAR KW99 080819Z AUTO 00000KT 7SM BKN085 21/17 A3009 RMK AO2=
####018002931####
SAUS20 KNKA 080823
METAR K3A1 080820Z AUTO 00000KT 10SM CLR 22/22 A3009 RMK AO2 
     T02230224=
METAR K3I2 080820Z AUTO 00000KT 3SM BR BKN001 19/18 A3007 RMK AO2=
METAR K4A9 080820Z AUTO 00000KT 10SM CLR 21/19 A3005 RMK AO2 
     T02050185=
METAR K4R4 080820Z AUTO 00000KT M1/4SM FG BKN008 23/23 A3001 RMK 
     AO2 T02340226=
METAR K8A0 080819Z AUTO 01003KT 10SM CLR 25/22 A3006 RMK AO2=
METAR KACP 080819Z AUTO 00000KT 5SM BR SCT018 23/23 A2999 RMK AO2=
METAR KAFP 080820Z AUTO 00000KT 10SM CLR 21/18 A2997 RMK AO2 
     T02100180=
METAR KALX 080820Z AUTO 00000KT 7SM CLR 23/22 A3004 RMK AO1=
METAR KAYS 080820Z AUTO 00000KT 10SM CLR 22/21 A3001 RMK AO1=
METAR KBCB 080820Z AUTO 00000KT 5SM BR SCT085 21/21 A3014 RMK AO2=
METAR KBGE 080821Z AUTO 00000KT 10SM CLR 21/20 A3002 RMK AO2=
METAR KBQK 080817Z AUTO 26003KT 10SM CLR 22/21 A3000 RMK AO1 
     T02170213 PNO=
METAR KCCO 080820Z AUTO 00000KT 4SM CLR 21/21 A3004 RMK AO1=
METAR KCDH 080820Z AUTO 00000KT 3/4SM BR OVC001 23/23 A3003 RMK 
     AO2=
METAR KCPC 080820Z AUTO 00000KT 10SM CLR 27/19 A2992 RMK AO2 
     T02680194=
METAR KCTJ 080820Z AUTO 00000KT 10SM CLR 21/19 A3005 RMK AO2 
     T02100194=
METAR KCWF 080820Z AUTO 07006KT 7SM CLR 24/24 A2998 RMK AO2=
METAR KCWV 080825Z AUTO 00000KT 10SM CLR 21/21 A3000 RMK AO2 
     T02100211=
METAR KDBN 080820Z AUTO 29003KT 10SM CLR 24/19 A3000 RMK AO1=
METAR KDNN 080818Z AUTO 00000KT 10SM CLR 20/20 A3004 RMK AO2=
METAR KDPL 080820Z AUTO 00000KT 7SM CLR 23/22 A2992 RMK AO2=
METAR KDRI 080820Z AUTO 08004KT 10SM SCT014 BKN020 BKN032 23/23 
     A3000 RMK AO2=
METAR KEMV 080817Z AUTO 03004KT 7SM CLR 23/21 A2996 RMK AO2=
METAR KEXX 080819Z AUTO 00000KT 10SM CLR 21/17 A2999 RMK AO2=
METAR KEZF 080818Z AUTO 00000KT 7SM SCT120 27/25 A2997 RMK AO2 
     T02660246=
METAR KF24 080819Z AUTO 7SM CLR 25/23 A3006 RMK AO2 T02450233=
METAR KFKN 080820Z AUTO 30003KT 5SM 23/21 A2995 RMK AO1=
METAR KGEV 080821Z AUTO 00000KT 10SM CLR 23/17 A3018 RMK AO2=
SPECI KGFL 080822Z AUTO 00000KT 1/2SM FG CLR 21/21 A3002 RMK AO2=
METAR KGHG 080820Z AUTO 14005KT 10SM BKN005 21/21 A3008 RMK AO2=
SPECI KGRR 080822Z AUTO 28006KT 5SM -RA BR SCT025 BKN047 OVC095 
    24/22 A3005 RMK AO2 P0013=
SPECI KHAO 080822Z AUTO 00000KT 1 1/4SM BR CLR 21/20 A3007 RMK AO2=
METAR KHDC 080822Z AUTO 06003KT 10SM CLR 26/26 A3002 RMK AO2=
METAR KHLX 080821Z AUTO 28003KT 7SM CLR 24/21 A3016 RMK AO2=
METAR KHOE 080819Z AUTO 00000KT 10SM CLR 21/ A3001 RMK AO2 T0211=
METAR KHRJ 080822Z AUTO 00000KT 7SM CLR 26/21 A2994 RMK AO2=
METAR KHSP 080820Z AUTO 07005KT 10SM CLR 23/15 A3026 RMK AO2=
METAR KHUM 080820Z AUTO 7SM CLR 25/25 A2998 RMK AO2 P0001=
METAR KHWY 080820Z AUTO 00000KT 7SM CLR 23/20 A2998 RMK AO2=
METAR KIDI 080820Z AUTO 00000KT 4SM CLR 19/19 A3010 RMK AO2=
METAR KIPJ 080820Z AUTO 00000KT 10SM CLR 20/18 A3001 RMK AO2 
     T02020178=
####018000123####
SAUS44 KFWD 080823
MTRNQI
SPECI KNQI 080822Z AUTO 36005KT 9SM TS SCT023 SCT031 BKN120 27/25 
A2983 RMK AO2 TSB16 $
####018000094####
SPCN31 CWAO 080823
SPECI CYZX 080823Z 09002KT 2SM BR OVC006 RMK SF8 WNDY HILL 22005KT=

####018000462####
SPUS99 KWBC 080824
SPECI
KACT 080821Z 08003KT 10SM BKN014 BKN120 26/23 A2998 RMK AO2=
KGFL 080822Z AUTO 00000KT 1/2SM FG CLR 21/21 A3002 RMK AO2=
KGRR 080822Z AUTO 28006KT 5SM -RA BR SCT025 BKN047 OVC095 24/22
     A3005 RMK AO2 P0013=
KHAO 080822Z AUTO 00000KT 1 1/4SM BR CLR 21/20 A3007 RMK AO2=
KLUK 080822Z AUTO 00000KT 1 3/4SM R21L/4500VP6000FT BR CLR 22/21
     A3007 RMK AO2=
KTQE 080822Z AUTO 36006KT 10SM BKN031 20/18 A3012 RMK AO2=
####018003658####
SAUS99 KWBC 080824
METAR
KTSP 080815Z AUTO 00000KT 10SM CLR 14/07 A3003 RMK AO2=
K3A1 080820Z AUTO 00000KT 10SM CLR 22/22 A3009 RMK AO2
     T02230224=
K3I2 080820Z AUTO 00000KT 3SM BR BKN001 19/18 A3007 RMK AO2=
K4A9 080820Z AUTO 00000KT 10SM CLR 21/19 A3005 RMK AO2
     T02050185=
K4R4 080820Z AUTO 00000KT M1/4SM FG BKN008 23/23 A3001 RMK AO2
     T02340226=
K8A0 080819Z AUTO 01003KT 10SM CLR 25/22 A3006 RMK AO2=
KACP 080819Z AUTO 00000KT 5SM BR SCT018 23/23 A2999 RMK AO2=
KAFP 080820Z AUTO 00000KT 10SM CLR 21/18 A2997 RMK AO2
     T02100180=
KALX 080820Z AUTO 00000KT 7SM CLR 23/22 A3004 RMK AO1=
KAYS 080820Z AUTO 00000KT 10SM CLR 22/21 A3001 RMK AO1=
KBCB 080820Z AUTO 00000KT 5SM BR SCT085 21/21 A3014 RMK AO2=
KBGE 080821Z AUTO 00000KT 10SM CLR 21/20 A3002 RMK AO2=
KBQK 080817Z AUTO 26003KT 10SM CLR 22/21 A3000 RMK AO1 T02170213
     PNO=
KCCO 080820Z AUTO 00000KT 4SM CLR 21/21 A3004 RMK AO1=
KCDH 080820Z AUTO 00000KT 3/4SM BR OVC001 23/23 A3003 RMK AO2=
KCPC 080820Z AUTO 00000KT 10SM CLR 27/19 A2992 RMK AO2
     T02680194=
KCTJ 080820Z AUTO 00000KT 10SM CLR 21/19 A3005 RMK AO2
     T02100194=
KCWF 080820Z AUTO 07006KT 7SM CLR 24/24 A2998 RMK AO2=
KCWV 080825Z AUTO 00000KT 10SM CLR 21/21 A3000 RMK AO2
     T02100211=
KDBN 080820Z AUTO 29003KT 10SM CLR 24/19 A3000 RMK AO1=
KDNN 080818Z AUTO 00000KT 10SM CLR 20/20 A3004 RMK AO2=
KDPL 080820Z AUTO 00000KT 7SM CLR 23/22 A2992 RMK AO2=
KDRI 080820Z AUTO 08004KT 10SM SCT014 BKN020 BKN032 23/23 A3000
     RMK AO2=
KEMV 080817Z AUTO 03004KT 7SM CLR 23/21 A2996 RMK AO2=
KEXX 080819Z AUTO 00000KT 10SM CLR 21/17 A2999 RMK AO2=
KEZF 080818Z AUTO 00000KT 7SM SCT120 27/25 A2997 RMK AO2
     T02660246=
KF24 080819Z AUTO 7SM CLR 25/23 A3006 RMK AO2 T02450233=
KFKN 080820Z AUTO 30003KT 5SM 23/21 A2995 RMK AO1=
KGEV 080821Z AUTO 00000KT 10SM CLR 23/17 A3018 RMK AO2=
KGHG 080820Z AUTO 14005KT 10SM BKN005 21/21 A3008 RMK AO2=
KHDC 080822Z AUTO 06003KT 10SM CLR 26/26 A3002 RMK AO2=
KHLX 080821Z AUTO 28003KT 7SM CLR 24/21 A3016 RMK AO2=
KHOE 080819Z AUTO 00000KT 10SM CLR 21/ A3001 RMK AO2 T0211=
KHRJ 080822Z AUTO 00000KT 7SM CLR 26/21 A2994 RMK AO2=
KHSP 080820Z AUTO 07005KT 10SM CLR 23/15 A3026 RMK AO2=
KHUM 080820Z AUTO 7SM CLR 25/25 A2998 RMK AO2 P0001=
KHWY 080820Z AUTO 00000KT 7SM CLR 23/20 A2998 RMK AO2=
KIDI 080820Z AUTO 00000KT 4SM CLR 19/19 A3010 RMK AO2=
KIPJ 080820Z AUTO 00000KT 10SM CLR 20/18 A3001 RMK AO2
     T02020178=
KJES 080820Z AUTO 00000KT 10SM CLR 20/20 A3000 RMK AO2
     T01980198=
KJGG 080820Z AUTO 00000KT 7SM OVC110 28/24 A2995 RMK AO1=
KJKA 080820Z AUTO 00000KT 5SM BR CLR 26/25 A3001 RMK AO2
     T02600251=
KJQF 080820Z AUTO 00000KT 10SM CLR 22/18 A2999 RMK AO2
     T02230178=
KJYO 080820Z AUTO 00000KT 7SM CLR 28/19 A3000 RMK AO2=
KLGC 080815Z AUTO 00000KT 7SM CLR 21/ A3002 RMK AO1=
KLOM 080820Z AUTO 00000KT 5SM CLR 22/21 A3001 RMK AO1
     T02200206=
KLWB 080821Z AUTO 00000KT 5SM BR BKN060 OVC090 20/18 A3015 RMK
     AO2=
KMFV 080822Z AUTO 00000KT 4SM BR CLR 25/24 A2997 RMK AO2=
KMGR 080820Z AUTO 00000KT 10SM CLR 22/21 A3002 RMK AO2=
KMMU 080820Z AUTO 00000KT 5SM BR CLR 21/20 RMK AO2 T02080202=
KPSK 080822Z AUTO 00000KT 7SM CLR 24/17 A3014 RMK AO2=
KPTB 080822Z AUTO 00000KT 4SM BR CLR 22/21 A2997 RMK AO2=
KSIF 080820Z AUTO 00000KT 7SM SCT090 22/21 A3000 RMK AO2=
KTPF 080820Z AUTO 06003KT 10SM CLR 24/23 A2998 RMK AO2=
KVDI 080822Z AUTO 24003KT 10SM CLR 23/21 A3000 RMK AO1=
KVUJ 080818Z AUTO 00000KT 10SM OVC090 22/19 A2997 RMK AO2=
KW99 080819Z AUTO 00000KT 7SM BKN085 21/17 A3009 RMK AO2=
####018000095####
SACN85 KWBC 080824
METAR CWDO 080800Z AUTO 14009KT 09/08 RMK AO1 SLP205 T00930080
57009=
####018000080####
SACN91 KWBC 080824
METAR CWIX 080800Z AUTO 14002KT 20/19 RMK AO1 T01960194=
####018000515####
SAFI31 EFHK 080820
METAR EFHK 080820Z 35006KT 300V010 9999 FEW030 SCT200 26/18 Q1014
NOSIG=
EFJY 080820Z 02001KT 9999 BKN014 20/17 Q1016=
METAR EFKU 080820Z AUTO VRB03KT 9999NDV BKN016 
BKN104 22/17 Q1015=
EFOU 080820Z 13004KT 070V190 9999 FEW018 SCT200 20/12 Q1016=
METAR EFRO 080820Z AUTO 21004KT 180V280 9999NDV 
FEW026 18/11 Q1017=
EFTP 080820Z VRB03KT 9999 FEW040 23/14 Q1015=
METAR EFTU 080820Z AUTO 34007KT 300V040 CAVOK 24/09 Q1016=
EFVA 080820Z 15004KT 100V190 9999 FEW020 BKN200 21/12 Q1015=
####018000195####
SACN90 KWBC 080824
METAR CWEE 080700Z AUTO 16/ RMK AO1 SLP147 T0160 50001=
METAR CWEE 080500Z AUTO 18/ RMK AO1 SLP146 T0176 51006=
METAR CWEE 080600Z AUTO 17/ RMK AO1 SLP147 T0169 51004=
####018000086####
SAAG SAZS 080800
METAR SAZS 080800Z  32014KT 5000 +DZ BKN010 SCT040
 03/01 Q1005=
####018000213####
SACN97 KWBC 080824
METAR CXDE 080800Z AUTO 10/09 RMK AO1 SLP154 T00950089 55005=
METAR CXQA 080800Z AUTO 07/07 RMK AO1 SLP130 T00740067 58014=
METAR CXQA 080800Z AUTO 07/07 RMK AO1 SLP130 T00740067 58014=
####018000080####
SACN96 KWBC 080824
METAR CWYJ 080800Z AUTO 23003KT 19/12 RMK AO1 T01910122=
####018000406####
SADL32 EDZO 080820
METAR EDDB 080820Z VRB02KT CAVOK 23/08 Q1022 NOSIG=
METAR EDDC 080820Z VRB03KT 9999 FEW046 22/09 Q1023 NOSIG=
METAR EDDE 080820Z VRB01KT CAVOK 23/10 Q1022 NOSIG=
METAR EDDG 080820Z 17003KT CAVOK 26/12 Q1020 NOSIG=
METAR EDDP 080820Z 19003KT CAVOK 23/12 Q1022 NOSIG=
METAR EDDR 080820Z 12004KT 090V160 CAVOK 24/12 Q1021 NOSIG=
METAR EDDW 080820Z 17005KT CAVOK 26/09 Q1019 NOSIG=
####018000616####
SASN31 ESWI 080820
METAR ESGG 080820Z 21015KT 9999 BKN040 19/14 Q1018=
METAR ESGJ 080820Z AUTO 20010KT 9999NDV BKN037/// 20/12 Q1019=
METAR ESGP 080820Z 19012KT 9999 OVC039 19/15 Q1018=
METAR ESGT 080820Z 21009KT 9999 SCT030 BKN040 20/13 Q1017=
METAR ESMK 080820Z 20007KT CAVOK 23/13 Q1021=
METAR ESMQ 080820Z 17008KT CAVOK 22/13 Q1020=
METAR ESMS 080820Z 20010KT CAVOK 22/11 Q1021=
METAR ESMT 080820Z 17010KT CAVOK 21/14 Q1020=
METAR ESMX 080820Z 22007KT 170V260 CAVOK 22/11 Q1020=
METAR ESTA 080820Z 17013KT CAVOK 20/14 Q1020=
METAR ESTL 080820Z AUTO 19009KT 9999NDV FEW054/// SCT069/// 21/13
Q1020=
####018000261####
SACN87 KWBC 080824
METAR CWKO 080800Z AUTO 28006KT 11/09 RMK AO1 SLP209 T01070088
56001=
METAR CWRO 080800Z AUTO 26013KT 13/11 RMK AO1 SLP189 T01280113
51001=
METAR CWRU 080800Z AUTO 36017KT 16/13 RMK AO1 PK WND 36019/0754
SLP154 T01590131 53001=
####018000159####
SACN92 KWBC 080824
METAR CWKD 080700Z AUTO 15/15 RMK AO1 SLP168 T01500145 50000=
METAR CWJU 080800Z AUTO 29012KT 12/11 RMK AO1 SLP200 T01230110
51005=
####018000506####
SADL31 EDZO 080820
METAR EDDF 080820Z 35003KT CAVOK 25/10 Q1021 NOSIG=
METAR EDDH 080820Z 19006KT CAVOK 24/12 Q1019 NOSIG=
METAR EDDK 080820Z 20006KT CAVOK 26/10 Q1020 NOSIG=
METAR EDDL 080820Z 20005KT 170V230 CAVOK 26/11 Q1020 NOSIG=
METAR EDDM 080820Z 08006KT CAVOK 21/09 Q1023 NOSIG=
METAR EDDN 080820Z 14005KT CAVOK 23/08 Q1022 NOSIG=
METAR EDDS 080820Z 15004KT CAVOK 23/09 Q1022 NOSIG=
METAR EDDT 080820Z 12001KT CAVOK 24/07 Q1022 NOSIG=
METAR EDDV 080820Z VRB03KT CAVOK 26/10 Q1020 NOSIG=
####018000080####
SAZA42 FAJS 080830
METAR FAJS 080830Z 08011KT 9999 SCT011 11/08 Q1037 NOSIG=
####018000190####
SADN34 EKCH 080820
METAR EKGF 080820Z NIL=
METAR EKHN 080820Z AUTO 21005KT 150V290 9999NDV -SHRA  BKN038///
18/15 Q1019=
METAR EKHR 080820Z AUTO 20012KT 8000NDV BKN048/// 18/15 Q1017=
####018000146####
SADN32 EKCH 080820
METAR EKVJ 080820Z NIL=
METAR EKSB 080820Z NIL=
METAR EKSN 080820Z NIL=
METAR EKVD 080820Z NIL=
METAR EKOD 080820Z NIL=
####018000190####
SADN33 EKCH 080820
METAR EKKA 080820Z 20010KT 170V240 9999 FEW028TCU BKN045 20/14
Q1017 TEMPO 6000 SHRA SCT020CB=
METAR EKSP 080820Z 19007KT CAVOK 22/13 Q1018 NOSIG RMK FEW050
BKN090=
####018000496####
SADN31 EKCH 080820
METAR EKCH 080820Z 17011KT 140V200 CAVOK 21/15 Q1020 NOSIG=
METAR EKBI 080820Z 21005KT 170V250 9999 BKN045 BKN063 20/15
Q1018=
METAR EKYT 080820Z 22009KT 9999 FEW025 BKN032 20/14 Q1017 NOSIG=
METAR EKRK 080821Z 17012KT 140V200 CAVOK 23/12 Q1020=
METAR EKAH 080820Z AUTO 20007KT 140V260 9999NDV SCT041/// BKN068///
21/13 Q1018=
METAR EKEB 080820Z AUTO 21010KT 9999NDV FEW039/// BKN066///
21/14 Q1017=
METAR EKRN 080820Z AUTO 20004KT 170V230 9999NDV NCD 19/15 Q1022=
####018000400####
SPXX60 KWBC 080824
SPECI
KVOK 080816Z 31005KT 10SM BKN009 OVC014 22/22 A3000 RMK AO2A CIG
     008V012 BKN V SCT SLP153=
KWRI 080820Z AUTO 00000KT 1 3/4SM R18/3000V5500FT R24/2400V2800FT
     BR OVC003 24/24 A2999 RMK AO2 SLP156 $=
KFZY 080821Z AUTO 00000KT 1 3/4SM BR CLR 21/20 A3004 RMK AO2=
KNQI 080822Z AUTO 36005KT 9SM TS SCT023 SCT031 BKN120 27/25 A2983
     RMK AO2 TSB16 $=
####018003710####
SAUS70 KWBC 080824
METAR
KFMH 080815Z AUTO 16006KT 4SM BR OVC003 21/21 A3007 RMK AO2=
KIWA 080816Z AUTO 04004KT 10SM CLR 31/05 A2979 RMK AO2=
KONZ 080817Z AUTO 00000KT 10SM CLR 24/21 A3002 RMK AO2=
KORB 080814Z AUTO 00000KT 10SM CLR 15/13 A3001 RMK AO2=
KOSC 080814Z AUTO 00000KT 7SM CLR 19/18 A3000 RMK AO2=
KOWA 080814Z AUTO 30004KT 10SM CLR 18/17 A3007 RMK AO2=
KPGV 080820Z AUTO 00000KT 7SM CLR 24/20 A2994 RMK AO2=
KPHN 080816Z AUTO 00000KT 2 1/2SM BR SCT100 20/19 A3003 RMK
     AO2=
KRMY 080815Z AUTO 00000KT 7SM CLR 21/19 A3004 RMK AO2=
KSAW 080819Z AUTO 30005KT 4SM BR OVC003 18/17 A2998 RMK AO2=
KSJX 080816Z AUTO 21006KT 10SM RA SCT070 SCT120 21/19 A2996 RMK
     AO2=
KSLH 080815Z AUTO 00000KT 10SM SCT120 21/21 A2996 RMK AO2=
KTTF 080813Z AUTO 00000KT 10SM CLR 23/22 A3002 RMK AO2=
KUKF 080821Z AUTO 00000KT 10SM CLR 22/18 A3006 RMK AO1=
KUNV 080820Z AUTO 00000KT 7SM CLR 21/18 A3009 RMK AO2
     T02090180=
KVWU 080811Z AUTO 00000KT 10SM CLR 14/14 A3002 RMK AO2=
KXVG 080816Z AUTO 00000KT 5SM BR CLR 11/11 A3005 RMK AO2=
K0R3 080819Z AUTO 06004KT 7SM CLR 25/25 A2998 RMK AO2=
K1A5 080820Z AUTO 00000KT 2SM BR 17/16 A3014 RMK AO2 SKY OBSCURED
     T01710158=
K47A 080820Z AUTO 00000KT 7SM CLR 20/18 A3006 RMK AO2
     T02040182=
KAMN 080816Z AUTO 00000KT 4SM BR SCT065 SCT075 22/22 A3001 RMK
     AO2=
KAQP 080813Z AUTO 22003KT 10SM CLR 14/14 A3010 RMK AO2=
KASJ 080817Z AUTO 00000KT 5SM HZ CLR 24/21 A2995 RMK AO2=
KAVC 080820Z AUTO 34003KT 7SM SCT110 26/20 A3002 RMK AO2=
KBFW 080813Z AUTO 00000KT 10SM SCT055 17/15 A2999 RMK AO2=
KBIJ 080820Z AUTO 00000KT 10SM CLR 19/ A3002 RMK AO2=
KBQP 080827Z AUTO 00000KT 4SM BR CLR 24/24 A3003 RMK AO2=
KCDA 080815Z AUTO 00000KT 4SM BR SCT055 20/18 A3009 RMK AO2=
KCDD 080811Z AUTO 00000KT 5SM BR CLR 14/14 A3003 RMK AO2=
KCPK 080821Z AUTO 00000KT 2SM BR BKN085 23/23 A2995 RMK AO2=
KCTZ 080820Z AUTO 00000KT 7SM CLR 24/22 A2992 RMK AO2=
KCVX 080815Z AUTO 00000KT 7SM SCT120 21/20 A2999 RMK AO2=
KDVP 080816Z AUTO 27004KT 10SM CLR 15/13 A3017 RMK AO2
     T01480131=
KEDE 080816Z AUTO 00000KT 3SM BR CLR 23/22 A2994 RMK AO2=
KERY 080816Z AUTO 00000KT 10SM SCT026 SCT090 19/19 A2996 RMK
     AO2=
KETH 080814Z AUTO 22004KT 10SM CLR 15/14 A3010 RMK AO2=
KFKS 080815Z AUTO 20006KT 10SM -RA BKN120 23/18 A2998 RMK AO2=
KFOZ 080813Z AUTO 00000KT 1/2SM FG BKN001 OVC016 13/12 A3005 RMK
     AO2=
KFQD 080819Z AUTO 31004KT 10SM CLR 22/17 A3003 RMK AO2=
KGOV 080815Z AUTO 15005KT 1 3/4SM BR SCT065 SCT120 20/20 A3003 RMK
     AO2=
KHQU 080820Z AUTO 00000KT 10SM CLR 22/19 A3005 RMK AO1=
KHYX 080816Z AUTO 16004KT 10SM CLR 22/20 A3000 RMK AO2=
KISQ 080816Z AUTO 21004KT 4SM BR OVC004 19/18 A2996 RMK AO2=
KJYL 080821Z AUTO 00000KT 10SM CLR 23/21 A3000 RMK AO2=
KLDM 080816Z AUTO 23004KT 10SM BKN120 22/21 A3001 RMK AO2=
KMCD 080815Z AUTO 00000KT 10SM BKN110 21/18 A2997 RMK AO2=
KMQI 080816Z AUTO 06007KT 10SM CLR 26/24 A2993 RMK AO2=
KMRN 080819Z AUTO 00000KT 10SM CLR 18/17 A3009 RMK AO2=
KMWK 080822Z AUTO 00000KT 7SM CLR 23/19 A3003 RMK AO2=
KMZH 080811Z AUTO 00000KT 10SM OVC100 14/13 A3004 RMK AO2=
KOCW 080819Z AUTO 03004KT 4SM HZ CLR 26/21 A2993 RMK AO2=
KTSP 080815Z AUTO 00000KT 10SM CLR 14/07 A3003 RMK AO2=
K3A1 080820Z AUTO 00000KT 10SM CLR 22/22 A3009 RMK AO2
     T02230224=
K3I2 080820Z AUTO 00000KT 3SM BR BKN001 19/18 A3007 RMK AO2=
K4A9 080820Z AUTO 00000KT 10SM CLR 21/19 A3005 RMK AO2
     T02050185=
K4R4 080820Z AUTO 00000KT M1/4SM FG BKN008 23/23 A3001 RMK AO2
     T02340226=
K8A0 080819Z AUTO 01003KT 10SM CLR 25/22 A3006 RMK AO2=
KACP 080819Z AUTO 00000KT 5SM BR SCT018 23/23 A2999 RMK AO2=
####018001218####
SPUS70 KWBC 080824
SPECI
KNSE 080811Z AUTO 00000KT 1 3/4SM BR CLR 23/22 A3002 RMK AO2 $=
KJFK 080820Z 00000KT 4SM BR FEW003 SCT010 BKN100 24/23 A3002 RMK
     AO2 $=
KOJC 080821Z AUTO 35007KT 8SM SCT004 BKN014 OVC100 23/22 A3005 RMK
     AO2=
PACM 080820Z AUTO 31004KT 3SM -RA BR FEW004 SCT020 BKN060 12/10
     A3010 RMK AO2 TSNO P0007 $=
PACM 080820Z AUTO 31004KT 3SM -RA BR FEW004 SCT020 BKN060 12/10
     A3010 RMK AO2 TSNO P0007 $=
PAWD 080820Z AUTO 16003KT 1 3/4SM BR FEW003 OVC049 10/09 A2998 RMK
     AO2 RAE00 P0000 TSNO=
KDAW 080821Z AUTO 00000KT 1 1/4SM BR OVC003 22/21 A3005 RMK AO2
     $=
KFRG 080821Z AUTO 00000KT 4SM BR FEW008 SCT100 26/24 A3002 RMK
     AO2=
KGUY 080821Z AUTO 05009KT 10SM SCT024 BKN050 BKN065 20/17 A3019
     RMK AO2 LTG DSNT SE TSB00E15=
KNSE 080811Z AUTO 00000KT 1 3/4SM BR CLR 23/22 A3002 RMK AO2 $=
KACT 080821Z 08003KT 10SM BKN014 BKN120 26/23 A2998 RMK AO2=
KGFL 080822Z AUTO 00000KT 1/2SM FG CLR 21/21 A3002 RMK AO2=
KHAO 080822Z AUTO 00000KT 1 1/4SM BR CLR 21/20 A3007 RMK AO2=
KLUK 080822Z AUTO 00000KT 1 3/4SM R21L/4500VP6000FT BR CLR 22/21
     A3007 RMK AO2=
KTQE 080822Z AUTO 36006KT 10SM BKN031 20/18 A3012 RMK AO2=
####018000280####
SAUS80 KWBC 080824
METAR
KPZQ 080815Z AUTO 21004KT 7SM SCT120 22/22 A2999 RMK AO2=
KAYS 080820Z AUTO 00000KT 10SM CLR 22/21 A3001 RMK AO1=
KDBN 080820Z AUTO 29003KT 10SM CLR 24/19 A3000 RMK AO1=
KJQF 080820Z AUTO 00000KT 10SM CLR 22/18 A2999 RMK AO2
     T02230178=
####018000112####
SPUS80 KWBC 080824 CCA
SPECI
KWAL 080813Z AUTO 12004KT 9SM FEW007 OVC095 24/23 A2998 RMK AO2
     TSNO=
####018002996####
SAUS70 KWBC 080824 RRA
METAR
KAFP 080820Z AUTO 00000KT 10SM CLR 21/18 A2997 RMK AO2
     T02100180=
KALX 080820Z AUTO 00000KT 7SM CLR 23/22 A3004 RMK AO1=
KBCB 080820Z AUTO 00000KT 5SM BR SCT085 21/21 A3014 RMK AO2=
KBGE 080821Z AUTO 00000KT 10SM CLR 21/20 A3002 RMK AO2=
KBQK 080817Z AUTO 26003KT 10SM CLR 22/21 A3000 RMK AO1 T02170213
     PNO=
KCCO 080820Z AUTO 00000KT 4SM CLR 21/21 A3004 RMK AO1=
KCDH 080820Z AUTO 00000KT 3/4SM BR OVC001 23/23 A3003 RMK AO2=
KCPC 080820Z AUTO 00000KT 10SM CLR 27/19 A2992 RMK AO2
     T02680194=
KCTJ 080820Z AUTO 00000KT 10SM CLR 21/19 A3005 RMK AO2
     T02100194=
KCWF 080820Z AUTO 07006KT 7SM CLR 24/24 A2998 RMK AO2=
KCWV 080825Z AUTO 00000KT 10SM CLR 21/21 A3000 RMK AO2
     T02100211=
KDNN 080818Z AUTO 00000KT 10SM CLR 20/20 A3004 RMK AO2=
KDPL 080820Z AUTO 00000KT 7SM CLR 23/22 A2992 RMK AO2=
KDRI 080820Z AUTO 08004KT 10SM SCT014 BKN020 BKN032 23/23 A3000
     RMK AO2=
KEMV 080817Z AUTO 03004KT 7SM CLR 23/21 A2996 RMK AO2=
KEXX 080819Z AUTO 00000KT 10SM CLR 21/17 A2999 RMK AO2=
KEZF 080818Z AUTO 00000KT 7SM SCT120 27/25 A2997 RMK AO2
     T02660246=
KF24 080819Z AUTO 7SM CLR 25/23 A3006 RMK AO2 T02450233=
KFKN 080820Z AUTO 30003KT 5SM 23/21 A2995 RMK AO1=
KGEV 080821Z AUTO 00000KT 10SM CLR 23/17 A3018 RMK AO2=
KGHG 080820Z AUTO 14005KT 10SM BKN005 21/21 A3008 RMK AO2=
KHDC 080822Z AUTO 06003KT 10SM CLR 26/26 A3002 RMK AO2=
KHLX 080821Z AUTO 28003KT 7SM CLR 24/21 A3016 RMK AO2=
KHOE 080819Z AUTO 00000KT 10SM CLR 21/ A3001 RMK AO2 T0211=
KHRJ 080822Z AUTO 00000KT 7SM CLR 26/21 A2994 RMK AO2=
KHSP 080820Z AUTO 07005KT 10SM CLR 23/15 A3026 RMK AO2=
KHUM 080820Z AUTO 7SM CLR 25/25 A2998 RMK AO2 P0001=
KHWY 080820Z AUTO 00000KT 7SM CLR 23/20 A2998 RMK AO2=
KIDI 080820Z AUTO 00000KT 4SM CLR 19/19 A3010 RMK AO2=
KIPJ 080820Z AUTO 00000KT 10SM CLR 20/18 A3001 RMK AO2
     T02020178=
KJES 080820Z AUTO 00000KT 10SM CLR 20/20 A3000 RMK AO2
     T01980198=
KJGG 080820Z AUTO 00000KT 7SM OVC110 28/24 A2995 RMK AO1=
KJKA 080820Z AUTO 00000KT 5SM BR CLR 26/25 A3001 RMK AO2
     T02600251=
KJYO 080820Z AUTO 00000KT 7SM CLR 28/19 A3000 RMK AO2=
KLGC 080815Z AUTO 00000KT 7SM CLR 21/ A3002 RMK AO1=
KLOM 080820Z AUTO 00000KT 5SM CLR 22/21 A3001 RMK AO1
     T02200206=
KLWB 080821Z AUTO 00000KT 5SM BR BKN060 OVC090 20/18 A3015 RMK
     AO2=
KMFV 080822Z AUTO 00000KT 4SM BR CLR 25/24 A2997 RMK AO2=
KMGR 080820Z AUTO 00000KT 10SM CLR 22/21 A3002 RMK AO2=
KMMU 080820Z AUTO 00000KT 5SM BR CLR 21/20 RMK AO2 T02080202=
KPSK 080822Z AUTO 00000KT 7SM CLR 24/17 A3014 RMK AO2=
KPTB 080822Z AUTO 00000KT 4SM BR CLR 22/21 A2997 RMK AO2=
KSIF 080820Z AUTO 00000KT 7SM SCT090 22/21 A3000 RMK AO2=
KTPF 080820Z AUTO 06003KT 10SM CLR 24/23 A2998 RMK AO2=
KVDI 080822Z AUTO 24003KT 10SM CLR 23/21 A3000 RMK AO1=
KVUJ 080818Z AUTO 00000KT 10SM OVC090 22/19 A2997 RMK AO2=
KW99 080819Z AUTO 00000KT 7SM BKN085 21/17 A3009 RMK AO2=
####018000206####
SPUS80 KWBC 080824
SPECI
KCNY 080821Z AUTO 13007KT 10SM CLR 22/05 A3010 RMK AO2 WSHFT 0801
     PRESRR=
KGRR 080822Z AUTO 28006KT 5SM -RA BR SCT025 BKN047 OVC095 24/22
     A3005 RMK AO2 P0013=
####018000088####
SAAG41 KWBC 080800 RRB
METAR
SAZN 080800Z 00000KT 9999 SCT050 BKN100 04/01 Q1011=
####018000265####
SAAS31 KWBC 080805 RRD
METAR
VAAH 080810Z 17005KT 3500 HZ SCT018 SCT025 FEW030CB BKN080 31/24
     Q1004 TEMPO 2000 TSRA=
VOMM 080810Z 13005KT 2500 -DZ HZ SCT015 OVC080 28/26 Q1010 BECMG
     4000=
VOTR 080810Z 27005KT 6000 SCT020 OVC100 33/23 Q1009=
####018000081####
SAAW32 KWBC 080800 RRA
METAR
OIFM 080800Z 11010KT CAVOK 37/04 Q1017 A3005=
####018000182####
SAAW41 KWBC 080850
METAR
LTAN 080820Z 34008KT CAVOK 29/14 Q1012 NOSIG RMK RWY19 32008KT=
LTAU 080820Z 04004KT 350V100 9999 FEW040 28/15 Q1012 NOSIG RMK
     RWY07 VRB03KT=
####018000431####
SADL33 KWBC 080815 RRA
METAR
EDDB 080820Z VRB02KT CAVOK 23/08 Q1022 NOSIG=
EDDC 080820Z VRB03KT 9999 FEW046 22/09 Q1023 NOSIG=
EDDG 080820Z 17003KT CAVOK 26/12 Q1020 NOSIG=
EDDP 080820Z 19003KT CAVOK 23/12 Q1022 NOSIG=
EDDR 080820Z 12004KT 090V160 CAVOK 24/12 Q1021 NOSIG=
EDDT 080820Z 12001KT CAVOK 24/07 Q1022 NOSIG=
EDDV 080820Z VRB03KT CAVOK 26/10 Q1020 NOSIG=
EDDW 080820Z 17005KT CAVOK 26/09 Q1019 NOSIG=
####018000093####
SPUS31 KWBC 080824
SPECI
KJFK 080820Z 00000KT 4SM BR FEW003 SCT010 BKN100 24/23 A3002=
####018000081####
SAXX61 KWBC 080800 RRB
METAR
EDDS 080820Z 15004KT CAVOK 23/09 Q1022 NOSIG=
####018000594####
SAXX99 KWBC 080800 RRR
METAR
BKPR 080830Z 34012KT 9999 SCT040 BKN080 16/10 Q1020 NOSIG RMK
     BLU=
CYGW 080800Z 13008KT 10SM FEW020 FEW SCT200 14/12 A2988 RMK
     SC2AC2CC1 VIA YQB FIC SLP119=
EDDE 080820Z VRB01KT CAVOK 23/10 Q1022 NOSIG=
EVLA 080820Z 31005KT 250V040 CAVOK 22/16 Q1018=
EVVA 080820Z AUTO 33011KT CAVOK 21/17 Q1017=
LTBR 080820Z 05005KT 9999 FEW035 SCT100 27/15 Q1011 NOSIG RMK
     RWY07 01005KT=
LTBU 080820Z 35012KT 9999 SCT030 BKN100 22/11 Q1014 RMK RWY23
     34014KT=
VTUO 080800Z 15004KT 9999 FEW014 34/24 Q1005 A2969 INFO I RWY
     22=
####018000087####
SAZA31 KWBC 080800 RRA
METAR
FAJS 080830Z 08011KT 9999 SCT011 11/08 Q1037 NOSIG=
####018000082####
SAUS41 KWBC 080800 RRE
METAR
KCTZ 080820Z AUTO 00000KT 7SM CLR 24/22 A2992=
####018000147####
SAUS43 KWBC 080800 RRF
METAR
KPHN 080816Z AUTO 00000KT 2 1/2SM BR SCT100 20/19 A3003=
KSAW 080819Z AUTO 30005KT 4SM BR OVC003 18/17 A2998=
####018000194####
SADN34 EKCH 080820
METAR EKGF 080820Z NIL=
METAR EKHN 080820Z AUTO 21005KT 150V290 9999NDV -SHRA  BKN038///
18/15 Q1019=
METAR EKHR 080820Z AUTO 20012KT 8000NDV BKN048/// 18/15 Q1017=
####018000194####
SADN33 EKCH 080820
METAR EKKA 080820Z 20010KT 170V240 9999 FEW028TCU BKN045 20/14
Q1017 TEMPO 6000 SHRA SCT020CB=
METAR EKSP 080820Z 19007KT CAVOK 22/13 Q1018 NOSIG RMK FEW050
BKN090=
####018000151####
SADN32 EKCH 080820
METAR EKVJ 080820Z NIL=
METAR EKSB 080820Z NIL=
METAR EKSN 080820Z NIL=
METAR EKVD 080820Z NIL=
METAR EKOD 080820Z NIL=
####018000476####
SAUK31 EGGY 080820
METAR EGBB 080820Z 21008KT CAVOK 16/10 Q1018=
METAR EGCC 080820Z 21009KT 9999 FEW030 16/12 Q1017=
METAR EGKK 080820Z 23006KT 9999 BKN014 19/14 Q1019=
METAR EGLL 080820Z 30007KT 5000 -RA SCT008 BKN012 17/15 Q1019=
METAR EGPF 080820Z 22015KT 9999 FEW020 SCT030 15/10 Q1012=
METAR EGPH 080820Z 22015KT 9999 FEW025 17/10 Q1012=
METAR EGPK 080820Z 22012KT 9999 SCT025 15/10 Q1013=
METAR EGSS 080820Z 28007KT 4000 -DZ SCT003 BKN006 16/15 Q1019=
####018000628####
SASN31 ESWI 080820
METAR ESGG 080820Z 21015KT 9999 BKN040 19/14 Q1018=
METAR ESGJ 080820Z AUTO 20010KT 9999NDV BKN037/// 20/12 Q1019=
METAR ESGP 080820Z 19012KT 9999 OVC039 19/15 Q1018=
METAR ESGT 080820Z 21009KT 9999 SCT030 BKN040 20/13 Q1017=
METAR ESMK 080820Z 20007KT CAVOK 23/13 Q1021=
METAR ESMQ 080820Z 17008KT CAVOK 22/13 Q1020=
METAR ESMS 080820Z 20010KT CAVOK 22/11 Q1021=
METAR ESMT 080820Z 17010KT CAVOK 21/14 Q1020=
METAR ESMX 080820Z 22007KT 170V260 CAVOK 22/11 Q1020=
METAR ESTA 080820Z 17013KT CAVOK 20/14 Q1020=
METAR ESTL 080820Z AUTO 19009KT 9999NDV FEW054/// SCT069/// 21/13
Q1020=
####018000321####
SASW32 LSSW 080820
METAR LSGC 080820Z 24008KT 190V270 CAVOK 22/12 Q1024=
METAR LSGS 080820Z VRB02KT CAVOK 25/12 Q1022=
METAR LSZG 080820Z VRB01KT CAVOK 22/11 Q1022 NOSIG=
METAR LSZR 080820Z VRB01KT CAVOK 21/15 Q1022 NOSIG RMK E=
METAR LSZS 080820Z NIL=
METAR LSZC 080820Z 06003KT 010V100 CAVOK 22/15 Q1022=
####018000506####
SADN31 EKCH 080820
METAR EKCH 080820Z 17011KT 140V200 CAVOK 21/15 Q1020 NOSIG=
METAR EKBI 080820Z 21005KT 170V250 9999 BKN045 BKN063 20/15
Q1018=
METAR EKYT 080820Z 22009KT 9999 FEW025 BKN032 20/14 Q1017 NOSIG=
METAR EKRK 080821Z 17012KT 140V200 CAVOK 23/12 Q1020=
METAR EKAH 080820Z AUTO 20007KT 140V260 9999NDV SCT041/// BKN068///
21/13 Q1018=
METAR EKEB 080820Z AUTO 21010KT 9999NDV FEW039/// BKN066///
21/14 Q1017=
METAR EKRN 080820Z AUTO 20004KT 170V230 9999NDV NCD 19/15 Q1022=
####018000526####
SAFI31 EFHK 080820
METAR EFHK 080820Z 35006KT 300V010 9999 FEW030 SCT200 26/18 Q1014
NOSIG=
EFJY 080820Z 02001KT 9999 BKN014 20/17 Q1016=
METAR EFKU 080820Z AUTO VRB03KT 9999NDV BKN016 
BKN104 22/17 Q1015=
EFOU 080820Z 13004KT 070V190 9999 FEW018 SCT200 20/12 Q1016=
METAR EFRO 080820Z AUTO 21004KT 180V280 9999NDV 
FEW026 18/11 Q1017=
EFTP 080820Z VRB03KT 9999 FEW040 23/14 Q1015=
METAR EFTU 080820Z AUTO 34007KT 300V040 CAVOK 24/09 Q1016=
EFVA 080820Z 15004KT 100V190 9999 FEW020 BKN200 21/12 Q1015=
####018000114####
SATH31 VTBB 080800 RRB
METAR VTCH 080800Z 19002KT 9999 FEW025 SCT030 35/20 Q1006 A2972
           INFO : H=
####018000498####
SAUK32 EGGY 080820
METAR EGAA 080820Z 22011KT 9999 FEW015 14/11 Q1014=
METAR EGAC 080820Z 22010KT 190V250 9999 FEW018 SCT024 15/10
    Q1014=
METAR EGFF 080820Z 21005KT 9999 SCT016 17/13 Q1019=
METAR EGGW 080820Z 26007KT 9999 BKN023 17/13 Q1019=
METAR EGLC 080820Z 25006KT 220V280 9999 BKN022 20/14 Q1019=
METAR EGNM 080820Z 25006KT 200V290 9999 SCT018 15/10 Q1016=
METAR EGNX 080820Z 22010KT CAVOK 16/10 Q1017=
METAR EGPD 080820Z 22011KT 180V250 9999 FEW032 16/09 Q1010 NOSIG=
####018000079####
SPUS54 KWBC 080824
SPECI
KCNY 080821Z AUTO 13007KT 10SM CLR 22/05 A3010=
####018000075####
SACN96 CWAO 080820
WZQ SA 0820 AUTO8 M M M M/22/16/1807/M/M M 52MM=

####018000078####
SACN87 CWAO 080822
WWL SA 0822 AUTO4 M M M 170/13/M/MMMM/M/ 0002 2MMM=

####018000512####
SARS18 KAWN 080800 RRF
METAR EETN 080820Z 31007KT 280V350 CAVOK 22/18 Q1014 NOSIG=
METAR EFHK 080820Z 35006KT 300V010 9999 FEW030 SCT200 26/18 Q1014 NOSIG=
METAR EVLA 080820Z 31005KT 250V040 CAVOK 22/16 Q1018=
METAR EVRA 080820Z 31009KT 280V350 9999 OVC005 18/17 Q1015 BECMG BKN010
      OVC015=
METAR EYKA 080820Z 29008KT 240V350 CAVOK 17/14 Q1015=
METAR EYPA 080820Z 35008KT 310V030 CAVOK 21/16 Q1018 NOSIG=
METAR EYVI 080820Z 28008KT 250V310 2600 RA BKN007 OVC023 15/14 Q1014
      NOSIG=
####018000088####
SAUS73 KWBC 080800 RRG
METAR
KSAW 080819Z AUTO 30005KT 4SM BR OVC003 18/17 A2998=
####018000086####
SPAU31 AMMC 080824
SPECI YSNF 080821Z 09010KT 9999 -RA SCT010 BKN018 14/12 Q1017=
####018000092####
SPAU31 AMMC 080824
SPECI YSNF 080821Z 09010KT 9999 -RA SCT010 BKN018 14/12 Q1017=


####018000079####
SPUS81 KWBC 080824
SPECI
KCNY 080821Z AUTO 13007KT 10SM CLR 22/05 A3010=
####018000116####
SAMO31 ZMUB 080830
METAR ZMUB 080830Z 15010MPS 8000 SHRA SCT027CB SCT030 15/12 Q1008 
 NOSIG RMK QFE649.7 83=
####018001800####
SAEW KAWN 080800 RRI
METAR EDDB 080820Z VRB02KT CAVOK 23/08 Q1022 NOSIG=
METAR EDDC 080820Z VRB03KT 9999 FEW046 22/09 Q1023 NOSIG=
METAR EDDE 080820Z VRB01KT CAVOK 23/10 Q1022 NOSIG=
METAR EDDF 080820Z 35003KT CAVOK 25/10 Q1021 NOSIG=
METAR EDDG 080820Z 17003KT CAVOK 26/12 Q1020 NOSIG=
METAR EDDH 080820Z 19006KT CAVOK 24/12 Q1019 NOSIG=
METAR EDDK 080820Z 20006KT CAVOK 26/10 Q1020 NOSIG=
METAR EDDL 080820Z 20005KT 170V230 CAVOK 26/11 Q1020 NOSIG=
METAR EDDM 080820Z 08006KT CAVOK 21/09 Q1023 NOSIG=
METAR EDDN 080820Z 14005KT CAVOK 23/08 Q1022 NOSIG=
METAR EDDP 080820Z 19003KT CAVOK 23/12 Q1022 NOSIG=
METAR EDDR 080820Z 12004KT 090V160 CAVOK 24/12 Q1021 NOSIG=
METAR EDDS 080820Z 15004KT CAVOK 23/09 Q1022 NOSIG=
METAR EDDT 080820Z 12001KT CAVOK 24/07 Q1022 NOSIG=
METAR EDDV 080820Z VRB03KT CAVOK 26/10 Q1020 NOSIG=
METAR EDDW 080820Z 17005KT CAVOK 26/09 Q1019 NOSIG=
METAR EHEH 080825Z AUTO 23006KT 9999NDV NCD 27/12 Q1019 BLU BLU=
METAR EKBI 080820Z 21005KT 170V250 9999 BKN045 BKN063 20/15 Q1018=
METAR EKCH 080820Z 17011KT 140V200 CAVOK 21/15 Q1020 NOSIG=
METAR EKKA 080820Z 20010KT 170V240 9999 FEW028TCU BKN045 20/14 Q1017
      TEMPO 6000 SHRA SCT020CB=
METAR EKRK 080821Z 17012KT 140V200 CAVOK 23/12 Q1020=
METAR EKSP 080820Z 19007KT CAVOK 22/13 Q1018 NOSIG RMK FEW050 BKN090=
METAR EKVG 080822Z 17012KT 9999 SCT004 BKN006 BKN010 11/10 Q0992 RMK/RWY
      13/31 CLOSED DUE WIP/ SEE NOTAM E0050/10 WIND 850FT VRB07G18KT=
METAR EKYT 080820Z 22009KT 9999 FEW025 BKN032 20/14 Q1017 NOSIG=
METAR LSGG 080820Z 07004KT 330V120 CAVOK 25/11 Q1022 NOSIG=
METAR LSZA 080820Z 15004KT 120V200 9999 BKN055 24/14 Q1023 NOSIG=
METAR LSZB 080820Z VRB02KT CAVOK 23/15 Q1022 NOSIG=
METAR LSZH 080820Z 32004KT 260V050 CAVOK 22/12 Q1022 NOSIG=
####018001758####
SAEU KAWN 080800 RRX
METAR EDDB 080820Z VRB02KT CAVOK 23/08 Q1022 NOSIG=
METAR EDDC 080820Z VRB03KT 9999 FEW046 22/09 Q1023 NOSIG=
METAR EDDE 080820Z VRB01KT CAVOK 23/10 Q1022 NOSIG=
METAR EDDF 080820Z 35003KT CAVOK 25/10 Q1021 NOSIG=
METAR EDDG 080820Z 17003KT CAVOK 26/12 Q1020 NOSIG=
METAR EDDH 080820Z 19006KT CAVOK 24/12 Q1019 NOSIG=
METAR EDDK 080820Z 20006KT CAVOK 26/10 Q1020 NOSIG=
METAR EDDL 080820Z 20005KT 170V230 CAVOK 26/11 Q1020 NOSIG=
METAR EDDM 080820Z 08006KT CAVOK 21/09 Q1023 NOSIG=
METAR EDDN 080820Z 14005KT CAVOK 23/08 Q1022 NOSIG=
METAR EDDP 080820Z 19003KT CAVOK 23/12 Q1022 NOSIG=
METAR EDDR 080820Z 12004KT 090V160 CAVOK 24/12 Q1021 NOSIG=
METAR EDDS 080820Z 15004KT CAVOK 23/09 Q1022 NOSIG=
METAR EDDT 080820Z 12001KT CAVOK 24/07 Q1022 NOSIG=
METAR EDDV 080820Z VRB03KT CAVOK 26/10 Q1020 NOSIG=
METAR EDDW 080820Z 17005KT CAVOK 26/09 Q1019 NOSIG=
METAR EGDM 080818Z 26003KT 9999 FEW014 BKN022 BKN130 17/13 Q1019 WHT
      TEMPO SCT014 GRN=
METAR EHEH 080825Z AUTO 23006KT 9999NDV NCD 27/12 Q1019 BLU BLU=
METAR EKKA 080820Z 20010KT 170V240 9999 FEW028TCU BKN045 20/14 Q1017
      TEMPO 6000 SHRA SCT020CB=
METAR EKRK 080821Z 17012KT 140V200 CAVOK 23/12 Q1020=
METAR EKSP 080820Z 19007KT CAVOK 22/13 Q1018 NOSIG RMK FEW050 BKN090=
METAR EKVG 080822Z 17012KT 9999 SCT004 BKN006 BKN010 11/10 Q0992 RMK/RWY
      13/31 CLOSED DUE WIP/ SEE NOTAM E0050/10 WIND 850FT VRB07G18KT=
METAR LMML 080815Z VRB03KT CAVOK 27/20 Q1018 BECMG 9999=
METAR LSGG 080820Z 07004KT 330V120 CAVOK 25/11 Q1022 NOSIG=
METAR LSZA 080820Z 15004KT 120V200 9999 BKN055 24/14 Q1023 NOSIG=
METAR LSZB 080820Z VRB02KT CAVOK 23/15 Q1022 NOSIG=
METAR LSZH 080820Z 32004KT 260V050 CAVOK 22/12 Q1022 NOSIG=
####018000096####
SAUS44 KMAF 080824
MTRNFW
SPECI KNFW 080823Z AUTO 15008KT 10SM SCT024 27/22 A3003 RMK AO2
####018002974####
SAUS20 KNKA 080824
METAR K3J7 080821Z AUTO 00000KT 10SM CLR 23/21 A2999 RMK AO2=
METAR KUXL 080820Z AUTO 08006KT 10SM CLR 26/24 A2997 RMK AO2=
SPECI KCNK 080823Z AUTO 35005KT 10SM BKN014 BKN021 OVC026 20/19 
    A3014 RMK AO2=
METAR KDQH 080820Z AUTO 00000KT 10SM CLR 23/20 A3001 RMK AO1=
METAR KEHO 080820Z AUTO 04004KT 7SM CLR 20/18 A3001 RMK AO2 
     T01950183=
METAR KEYF 080820Z AUTO 29004KT 10SM CLR 27/19 A2992 RMK AO2 
     T02680185=
METAR KFFA 080818Z AUTO 08005KT 10SM CLR 25/24 A2994 RMK AO2 
     T02480235=
METAR KFYJ 080823Z AUTO 00000KT 5SM OVC120 27/24 A2997 RMK AO1=
METAR KGAO 080820Z AUTO 09004KT 10SM CLR 27/25 A2999 RMK AO2=
METAR KGWW 080820Z AUTO 00000KT 10SM CLR 24/21 A2992 RMK AO2 
     T02390210=
METAR KHNZ 080820Z AUTO 34003KT 5SM HZ SCT100 23/19 A2997 RMK AO2 
     T02310191=
METAR KIER 080822Z AUTO 00000KT 10SM CLR 24/24 A3001 RMK AO2 PWINO=
METAR KISO 080820Z AUTO 00000KT 10SM CLR 23/20 A2993 RMK AO2 
     T02300199=
METAR KIXA 080820Z AUTO 01003KT 7SM CLR 21/19 A2994 RMK AO2 
     T02140189=
METAR KJFZ 080820Z AUTO 00000KT 7SM SCT065 22/21 A3016 RMK=
METAR KJNX 080821Z AUTO 00000KT 4SM CLR 21/21 A2993 RMK AO2=
METAR KLDJ 080820Z AUTO 00000KT 2 1/2SM BR OVC002 25/23 A3001 RMK 
     AO2 T02450232=
METAR KLHZ 080820Z AUTO 00000KT 7SM CLR 22/19 A2996 RMK AO2 
     T02220190=
METAR KLKU 080820Z AUTO 35003KT 7SM SCT110 26/20 A2999 RMK AO2=
METAR KLNP 080818Z AUTO 00000KT 7SM CLR 21/19 A3018 RMK AO1=
METAR KMDQ 080820Z AUTO 00000KT 7SM CLR 22/21 A3006 RMK AO2 
     T02200214=
METAR KMKJ 080820Z AUTO 00000KT 1 3/4SM CLR 18/08 A3021 RMK AO1=
METAR KMLJ 080823Z AUTO 00000KT 7SM CLR 22/22 A3001 RMK AO2=
METAR KMQS 080820Z AUTO 00000KT 9SM CLR 24/22 A3004 RMK AO2 PWINO 
     PNO=
METAR KMTV 080820Z AUTO 00000KT 5SM BR CLR 22/21 A3004 RMK AO2=
METAR KOBE 080821Z AUTO 00000KT 10SM CLR 23/22 A2996 RMK AO2=
METAR KOKV 080820Z AUTO 00000KT 7SM CLR 24/19 A3004 RMK AO2 
     T02360189=
METAR KOMH 080820Z AUTO 01003KT 10SM CLR 27/20 A3002 RMK AO2 
     T02700201=
METAR KONX 080820Z AUTO 00000KT 10SM BKN110 26/24 A2995 RMK AO2 
     T02600235=
METAR KOPN 080820Z AUTO 00000KT 10SM CLR 25/22 A3004 RMK AO1=
METAR KPCM 080820Z AUTO 00000KT 10SM CLR 23/22 A3000 RMK AO2=
METAR KRCZ 080820Z AUTO 33003KT 10SM CLR 26/19 A2996 RMK AO2 
     T02560185=
METAR KRMN 080820Z AUTO 00000KT 5SM BR SCT090 23/23 A3001 RMK AO2=
METAR KRUQ 080822Z AUTO 00000KT 10SM CLR 21/20 A3000 RMK AO2=
METAR KSFQ 080820Z AUTO 08004KT 4SM BR SCT008 24/22 A2995 RMK AO2=
METAR KSHD 080820Z AUTO 00000KT 7SM CLR 22/18 A3007 RMK AO2=
SPECI KSUS 080823Z AUTO 00000KT 10SM SCT055 24/23 A3002 RMK AO2 
    TSE17RAE04 P0000=
METAR KSVH 080820Z AUTO 00000KT 10SM SCT095 22/15 A3003 RMK AO2 
     T02220150=
METAR KTBR 080820Z AUTO 00000KT 10SM CLR 23/20 A2999 RMK AO2 
     T02310202=
METAR KTDF 080822Z AUTO 00000KT 2 1/2SM CLR 21/21 A2999 RMK AO1=
####018000118####
SPCN46 CWAO 080824
SPECI CYOO 080824Z AUTO 02003KT 5SM BR SCT100 BKN120 22/21 A3001 RMK
 DENSITY ALT 1200FT=

####018000107####
SPCN46 CWAO 080824
SPECI CYBN 080824Z AUTO 00000KT 1 1/8SM CLR 20/19 A3003 RMK VSBY VRBL
0.3V8.0=

####018000122####
SPCN46 CWAO 080824
SPECI CYSC 080824Z AUTO VRB02KT 2 1/4SM BR SCT086 20/20 A3003 RMK
 SLP168 DENSITY ALT 1400FT=

####018000815####
SAUS20 KNKA 080824
SPECI KTUL 080823Z 00000KT 3SM +TSRA BR SCT008 BKN047 OVC080 23/22 
    A3001 RMK AO2 FRQ LTGIC OHD-S-SW TS OHD-S-SW MOV N P0006=
METAR KTVI 080820Z AUTO 22003KT 10SM CLR 22/21 A3002 RMK AO2 
     T02150208=
METAR KVDF 080816Z AUTO 00000KT 7SM CLR 23/22 A2999 RMK AO2=
METAR KVJI 080823Z AUTO 00000KT 5SM BR SCT075 BKN080 21/19 A3014 
     RMK AO2=
METAR KVVG 080815Z AUTO 00000KT 21/21 A3000 RMK AO2=
METAR KW22 080820Z AUTO 00000KT 5SM  BR FEW070 20/20 A3012 RMK AO2=
METAR KW45 080820Z AUTO 00000KT 7SM CLR 23/19 A3004 RMK AO2 
     T02310192=
METAR KWDR 080820Z AUTO 00000KT 10SM CLR 23/21 A3007 RMK AO1=
METAR KXLL 080820Z AUTO 00000KT 7SM CLR 24/22 A3002 RMK AO2 
     T02400220=
METAR KXSA 080820Z AUTO 00000KT 5SM OVC120 24/23 A2996 RMK AO2 
     PWINO=
####018000324####
SPUS99 KWBC 080825
SPECI
KCNK 080823Z AUTO 35005KT 10SM BKN014 BKN021 OVC026 20/19 A3014
     RMK AO2=
KSUS 080823Z AUTO 00000KT 10SM SCT055 24/23 A3002 RMK AO2
     TSE17RAE04 P0000=
KTUL 080823Z 00000KT 3SM +TSRA BR SCT008 BKN047 OVC080 23/22 A3001
     RMK AO2 FRQ LTGIC OHD-S-SW TS OHD-S-SW MOV N P0006=
####018003151####
SAUS99 KWBC 080825
METAR
K3J7 080821Z AUTO 00000KT 10SM CLR 23/21 A2999 RMK AO2=
KUXL 080820Z AUTO 08006KT 10SM CLR 26/24 A2997 RMK AO2=
KDQH 080820Z AUTO 00000KT 10SM CLR 23/20 A3001 RMK AO1=
KEHO 080820Z AUTO 04004KT 7SM CLR 20/18 A3001 RMK AO2
     T01950183=
KEYF 080820Z AUTO 29004KT 10SM CLR 27/19 A2992 RMK AO2
     T02680185=
KFFA 080818Z AUTO 08005KT 10SM CLR 25/24 A2994 RMK AO2
     T02480235=
KFYJ 080823Z AUTO 00000KT 5SM OVC120 27/24 A2997 RMK AO1=
KGAO 080820Z AUTO 09004KT 10SM CLR 27/25 A2999 RMK AO2=
KGWW 080820Z AUTO 00000KT 10SM CLR 24/21 A2992 RMK AO2
     T02390210=
KHNZ 080820Z AUTO 34003KT 5SM HZ SCT100 23/19 A2997 RMK AO2
     T02310191=
KIER 080822Z AUTO 00000KT 10SM CLR 24/24 A3001 RMK AO2 PWINO=
KISO 080820Z AUTO 00000KT 10SM CLR 23/20 A2993 RMK AO2
     T02300199=
KIXA 080820Z AUTO 01003KT 7SM CLR 21/19 A2994 RMK AO2
     T02140189=
KJFZ 080820Z AUTO 00000KT 7SM SCT065 22/21 A3016 RMK=
KJNX 080821Z AUTO 00000KT 4SM CLR 21/21 A2993 RMK AO2=
KLDJ 080820Z AUTO 00000KT 2 1/2SM BR OVC002 25/23 A3001 RMK AO2
     T02450232=
KLHZ 080820Z AUTO 00000KT 7SM CLR 22/19 A2996 RMK AO2
     T02220190=
KLKU 080820Z AUTO 35003KT 7SM SCT110 26/20 A2999 RMK AO2=
KLNP 080818Z AUTO 00000KT 7SM CLR 21/19 A3018 RMK AO1=
KMDQ 080820Z AUTO 00000KT 7SM CLR 22/21 A3006 RMK AO2
     T02200214=
KMKJ 080820Z AUTO 00000KT 1 3/4SM CLR 18/08 A3021 RMK AO1=
KMLJ 080823Z AUTO 00000KT 7SM CLR 22/22 A3001 RMK AO2=
KMQS 080820Z AUTO 00000KT 9SM CLR 24/22 A3004 RMK AO2 PWINO
     PNO=
KMTV 080820Z AUTO 00000KT 5SM BR CLR 22/21 A3004 RMK AO2=
KOBE 080821Z AUTO 00000KT 10SM CLR 23/22 A2996 RMK AO2=
KOKV 080820Z AUTO 00000KT 7SM CLR 24/19 A3004 RMK AO2
     T02360189=
KOMH 080820Z AUTO 01003KT 10SM CLR 27/20 A3002 RMK AO2
     T02700201=
KONX 080820Z AUTO 00000KT 10SM BKN110 26/24 A2995 RMK AO2
     T02600235=
KOPN 080820Z AUTO 00000KT 10SM CLR 25/22 A3004 RMK AO1=
KPCM 080820Z AUTO 00000KT 10SM CLR 23/22 A3000 RMK AO2=
KRCZ 080820Z AUTO 33003KT 10SM CLR 26/19 A2996 RMK AO2
     T02560185=
KRMN 080820Z AUTO 00000KT 5SM BR SCT090 23/23 A3001 RMK AO2=
KRUQ 080822Z AUTO 00000KT 10SM CLR 21/20 A3000 RMK AO2=
KSFQ 080820Z AUTO 08004KT 4SM BR SCT008 24/22 A2995 RMK AO2=
KSHD 080820Z AUTO 00000KT 7SM CLR 22/18 A3007 RMK AO2=
KSVH 080820Z AUTO 00000KT 10SM SCT095 22/15 A3003 RMK AO2
     T02220150=
KTBR 080820Z AUTO 00000KT 10SM CLR 23/20 A2999 RMK AO2
     T02310202=
KTDF 080822Z AUTO 00000KT 2 1/2SM CLR 21/21 A2999 RMK AO1=
KTVI 080820Z AUTO 22003KT 10SM CLR 22/21 A3002 RMK AO2
     T02150208=
KVDF 080816Z AUTO 00000KT 7SM CLR 23/22 A2999 RMK AO2=
KVJI 080823Z AUTO 00000KT 5SM BR SCT075 BKN080 21/19 A3014 RMK
     AO2=
KVVG 080815Z AUTO 00000KT 21/21 A3000 RMK AO2=
KW22 080820Z AUTO 00000KT 5SM BR FEW070 20/20 A3012 RMK AO2=
KW45 080820Z AUTO 00000KT 7SM CLR 23/19 A3004 RMK AO2
     T02310192=
KWDR 080820Z AUTO 00000KT 10SM CLR 23/21 A3007 RMK AO1=
KXLL 080820Z AUTO 00000KT 7SM CLR 24/22 A3002 RMK AO2
     T02400220=
KXSA 080820Z AUTO 00000KT 5SM OVC120 24/23 A2996 RMK AO2 PWINO=
####018000468####
SAUK31 EGGY 080820
METAR EGBB 080820Z 21008KT CAVOK 16/10 Q1018=
METAR EGCC 080820Z 21009KT 9999 FEW030 16/12 Q1017=
METAR EGKK 080820Z 23006KT 9999 BKN014 19/14 Q1019=
METAR EGLL 080820Z 30007KT 5000 -RA SCT008 BKN012 17/15 Q1019=
METAR EGPF 080820Z 22015KT 9999 FEW020 SCT030 15/10 Q1012=
METAR EGPH 080820Z 22015KT 9999 FEW025 17/10 Q1012=
METAR EGPK 080820Z 22012KT 9999 SCT025 15/10 Q1013=
METAR EGSS 080820Z 28007KT 4000 -DZ SCT003 BKN006 16/15 Q1019=
####018000473####
SAUK35 EGGY 080820
METAR EGHH 080820Z NIL=
METAR EGKA 080820Z NIL=
METAR EGKB 080820Z 24006KT 200V280 9999 BKN013 19/15 Q1020 =
METAR EGLF 080820Z 24006KT 9000 4000N VCSH SCT009 BKN001 18/16 Q1019=
METAR EGMC 080820Z 26008KT 9999 FEW017 SCT040 20/16 Q1019=
METAR EGMD 080820Z 25003KT 9999 3500SE FEW000 SCT003 BKN006 17/15
    Q1020=
METAR EGMH 080820Z 27008KT 230V310 9999 FEW012 20/16 Q1019 =
METAR EGTC 080820Z 25005KT 210V300 9999 FEW018 SCT030 17/12 Q1018=
####018000366####
SAFI32 EFHK 080820
EFHA 080820Z 33002KT 9999 BKN006 OVC070 20/18 Q1016=
EFHF 080820Z 34006KT 300V040 9999 SCT033 26/19 Q1014=
EFKA 080820Z VRB02KT 9999 FEW022 SCT200 22/16 Q1015=
EFKK 080820Z VRB02KT CAVOK 22/13 Q1015=
EFMA 080820Z 27007KT CAVOK 20/12 Q1016=
EFPO 080820Z VRB01KT 9999 FEW045 SCT120 23/12 Q1016=
EFSI 080820Z AUTO VRB03KT CAVOK 22/14 Q1015=
####018000423####
SASN35 ESWI 080820
METAR ESGL 080820Z AUTO 22010KT 9999NDV OVC043/// 20/14 Q1017=
METAR ESGR 080820Z AUTO 19009KT 9999NDV OVC039/// 20/14 Q1018=
METAR ESKM 080820Z NIL=
METAR ESNL 080820Z 14012KT CAVOK 19/11 Q1013=
METAR ESNX 080820Z AUTO 17012KT 9999NDV BKN078/// ///// Q1014=
METAR ESNY 080820Z AUTO 17006KT 130V260 9999 SKC 22/15 Q1014=
METAR ESSF 080820Z NIL=
METAR ESSK 080820Z NIL=
METAR ESUD 080820Z NIL=
####018000513####
SASN33 ESWI 080820
METAR ESNG 080820Z NIL=
METAR ESNK 080820Z AUTO 15010KT 9999NDV NCD 21/14 Q1013=
METAR ESNN 080820Z 14007KT CAVOK 20/12 Q1013=
METAR ESNO 080820Z 14012KT 9999 FEW043 SCT076 20/11 Q1014=
METAR ESNQ 080820Z 21010KT 9999 FEW020 SCT068 BKN092 16/09 Q1013
RERA REDZ=
METAR ESNS 080820Z 14008KT 110V170 CAVOK 21/11 Q1015=
METAR ESNU 080820Z 12008KT CAVOK 19/12 Q1015=
METAR ESNZ 080820Z 18009KT CAVOK 16/11 Q1012=
METAR ESUT 080820Z AUTO 15010KT 9999NDV FEW080/// OVC130/// 18/10
Q1010=
####018000537####
SASN32 ESWI 080820
METAR ESKN 080820Z 31009KT 270V350 CAVOK 22/11 Q1018=
METAR ESOE 080820Z 22011KT 9999 BKN040 20/12 Q1018=
METAR ESOK 080820Z 20007KT 9999 SCT025 BKN036 19/13 Q1017=
METAR ESOW 080820Z 24009KT 210V270 CAVOK 21/13 Q1017=
METAR ESSA 080820Z 25008KT 210V290 CAVOK 22/11 Q1017 NOSIG=
METAR ESSB 080820Z 27009KT 240V300 CAVOK 22/11 Q1017=
METAR ESSD 080820Z 22008KT 180V260 9999NDV SCT030/// 19/12 Q1016=
METAR ESSP 080820Z 25008KT 210V280 CAVOK 22/12 Q1018=
METAR ESSV 080820Z 30006KT 270V340 CAVOK 20/12 Q1019=
####018000315####
SASW32 LSSW 080820
METAR LSGC 080820Z 24008KT 190V270 CAVOK 22/12 Q1024=
METAR LSGS 080820Z VRB02KT CAVOK 25/12 Q1022=
METAR LSZG 080820Z VRB01KT CAVOK 22/11 Q1022 NOSIG=
METAR LSZR 080820Z VRB01KT CAVOK 21/15 Q1022 NOSIG RMK E=
METAR LSZS 080820Z NIL=
METAR LSZC 080820Z 06003KT 010V100 CAVOK 22/15 Q1022=
####018000468####
SAUK34 EGGY 080820
METAR EGHD 080820Z NIL=
METAR EGHE 080820Z NIL=
METAR EGHK 080820Z NIL=
METAR EGHQ 080820Z NIL=
METAR EGJA 080820Z 17003KT 9999 0800SE BCFG SCT001 BKN015 16/16
    Q1020=
METAR EGJB 080820Z 22004KT 180V270 9999 2200SE VCFG FEW001 BKN006
    17/16 Q1020=
METAR EGJJ 080820Z 29002KT 240V340 9999 FEW004 SCT010 19/17 Q1019
    NOSIG=
METAR EGTE 080820Z 05002KT 9999 FEW025 18/14 Q1019=
METAR EGTG 080820Z 25004KT 9999 SCT015 17/12 Q1019=
####018000184####
SASN34 ESWI 080820
METAR ESDF 080820Z 22004KT 150V100 CAVOK 22/12 Q1021=
METAR ESPA 080820Z 15012KT CAVOK 18/13 Q1016=
METAR ESSL 080820Z 26010KT 220V290 9999 BKN041 21/11 Q1019=
####018000085####
SPAU32 YBBN 080824
SPECI YSNF 080821Z 09010KT 9999 -RA SCT010 BKN018 14/12 Q1017=
####018000067####
SAAG SABE 080800
METAR SABE 080800Z  27008KT CAVOK 08/04 Q1019=
####018000083####
SAKN64 HKMO 080800
METAR HKMO 080800Z 18012KT 9999 SCT023TCU 27/21 Q1019 NOSIG=
####018000088####
SPAU31 KWBC 080825
SPECI
YSNF 080821Z 09010KT 9999 -RA SCT010 BKN018 14/12 Q1017=
####018000093####
SPCN31 KWBC 080825
SPECI
CYZX 080823Z 09002KT 2SM BR OVC006 RMK SF8 WNDY HILL 22005KT=
####018000105####
SPUS41 KWBC 080825
SPECI
KLUK 080822Z AUTO 00000KT 1 3/4SM R21L/4500VP6000FT BR CLR 22/21
A3007=
####018000074####
SAAG01 SABM 080800 RRF
METAR SABE 080800Z  27008KT CAVOK 08/04 Q1019=
####018000104####
SPUS43 KWBC 080825
SPECI
KGRR 080822Z AUTO 28006KT 5SM -RA BR SCT025 BKN047 OVC095 24/22
A3005=
####018000764####
SADL52 ETGT 080820
METAR
ETGQ NIL=
ETGZ 080820Z 13004KT 9999 FEW120 20/08 Q1024
      BLU+=
ETHA 080820Z 07006KT 9999 FEW150 20/10 Q1023
      BLU+BLU+=
ETHL 080820Z 07004KT 9999 FEW140 22/09 Q1022
      BLU+BLU+=
ETHN NIL=
ETHR 080820Z 13003KT 9999 FEW200 23/07 Q1023
      BLU+BLU+=
ETNN 080820Z 21006KT 9999 FEW300 27/06 Q1020
      BLU+BLU+=
ETSA 080820Z 08007KT 9999 FEW270 21/10 Q1023
      BLU+BLU+=
ETSB 080820Z 16005KT 9999 SCT290 24/08 Q1022
      BLU+BLU+=
ETSE 080820Z 11008KT 9999 FEW170 21/09 Q1023
      BLU+BLU+=
ETSI 080820Z 09006KT 9999 FEW120 22/09 Q1023
      BLU+BLU+=
ETSL 080820Z 08006KT 9999 FEW250 22/09 Q1023
      BLU+BLU+=
ETSN 080820Z 07004KT 9999 FEW160 22/09 Q1023
      BLU+BLU+=
####018000083####
SPUS51 KWBC 080825
SPECI
KGFL 080822Z AUTO 00000KT 1/2SM FG CLR 21/21 A3002=
####018000084####
SPUS52 KWBC 080825
SPECI
KACT 080821Z 08003KT 10SM BKN014 BKN120 26/23 A2998=
####018000087####
SAER32 OMAE 080800 RRA
METAR OMAD 080800Z 18008KT 150V230 CAVOK 41/18 Q1000 A2955=
####018001236####
SADL51 ETGT 080820
METAR
EDHK 080820Z 16005KT 9999 FEW060 SCT100 BKN120 24/12 Q1019
      BLU BLU=
ETGG 080820Z 18008KT 9999 BKN055 SCT120 24/13 Q1018
      BLU=
ETGY 080820Z 22004KT 9999 FEW140 27/11 Q1019
      BLU+=
ETHB 080820Z 20005KT 9999 FEW140 25/12 Q1020
      BLU+BLU+=
ETHC 080820Z 22004KT 9999 FEW056 25/11 Q1020
      BLU+BLU+=
ETHE 080820Z 17004KT 9999 FEW050 BKN260 26/12 Q1019
      BLU+BLU+=
ETHF 080820Z 16006KT 9999 FEW300 23/12 Q1021
      BLU+BLU+=
ETHS 080820Z 17005KT 9999 FEW160 25/10 Q1020
      BLU+BLU+=
ETMN 080820Z 21005KT 9999 FEW050 SCT110 BKN270 25/10 Q1019
      BLU+BLU+=
ETND 080820Z 20005KT 9999 FEW180 25/14 Q1019
      BLU+=
ETNH 080820Z 18006KT 9999 BKN050 SCT110 23/13 Q1019
      BLU BLU+ TEMPO BLU=
ETNJ NIL=
ETNL 080820Z 18004KT 9999 SCT090 SCT150 22/12 Q1021
      BLU+BLU+=
ETNS 080820Z 16007KT 9999 BKN050 SCT120 24/09 Q1019
      BLU BLU=
ETNT 080820Z 22008KT 9999 FEW090 SCT270 27/11 Q1018
      BLU+BLU+=
ETNU 080820Z 16003KT 9999 BKN160 22/10 Q1022
      BLU BLU TEMPO BLU+=
ETNW NIL=
ETSH 080820Z 17006KT 9999 FEW170 23/08 Q1022
      BLU+BLU+=
ETWM 080820Z 22007KT 9999 FEW060 SCT240 27/09 Q1019
      BLU+=
####018000084####
SPUS72 KWBC 080825
SPECI
KACT 080821Z 08003KT 10SM BKN014 BKN120 26/23 A2998=
####018000104####
SPUS73 KWBC 080825
SPECI
KGRR 080822Z AUTO 28006KT 5SM -RA BR SCT025 BKN047 OVC095 24/22
A3005=
####018001747####
SAEU KAWN 080800 RRX
METAR EGAA 080820Z 22011KT 9999 FEW015 14/11 Q1014=
METAR EGAC 080820Z 22010KT 190V250 9999 FEW018 SCT024 15/10 Q1014=
METAR EGBB 080820Z 21008KT CAVOK 16/10 Q1018=
METAR EGCC 080820Z 21009KT 9999 FEW030 16/12 Q1017=
METAR EGFF 080820Z 21005KT 9999 SCT016 17/13 Q1019=
METAR EGGD 080820Z 23004KT 9999 -RADZ FEW015 15/13 Q1019=
METAR EGGW 080820Z 26007KT 9999 BKN023 17/13 Q1019=
METAR EGJB 080820Z 22004KT 180V270 9999 2200SE VCFG FEW001 BKN006 17/16
      Q1020=
METAR EGKB 080820Z 24006KT 200V280 9999 BKN013 19/15 Q1020=
METAR EGKK 080820Z 23006KT 9999 BKN014 19/14 Q1019=
METAR EGLC 080820Z 25006KT 220V280 9999 BKN022 20/14 Q1019=
METAR EGLL 080820Z 30007KT 5000 -RA SCT008 BKN012 17/15 Q1019=
METAR EGNM 080820Z 25006KT 200V290 9999 SCT018 15/10 Q1016=
METAR EGNV 080820Z 19009KT 9999 FEW022 16/13 Q1016=
METAR EGNX 080820Z 22010KT CAVOK 16/10 Q1017=
METAR EGPB 080820Z 20014KT CAVOK 14/11 Q1006=
METAR EGPD 080820Z 22011KT 180V250 9999 FEW032 16/09 Q1010 NOSIG=
METAR EGPF 080820Z 22015KT 9999 FEW020 SCT030 15/10 Q1012=
METAR EGPH 080820Z 22015KT 9999 FEW025 17/10 Q1012=
METAR EGPK 080820Z 22012KT 9999 SCT025 15/10 Q1013=
METAR EGSS 080820Z 28007KT 4000 -DZ SCT003 BKN006 16/15 Q1019=
METAR EGTG 080820Z 25004KT 9999 SCT015 17/12 Q1019=
METAR EKAH 080820Z AUTO 20007KT 140V260 9999NDV SCT041/// BKN068///
      21/13 Q1018=
METAR EKBI 080820Z 21005KT 170V250 9999 BKN045 BKN063 20/15 Q1018=
METAR EKCH 080820Z 17011KT 140V200 CAVOK 21/15 Q1020 NOSIG=
METAR EKEB 080820Z AUTO 21010KT 9999NDV FEW039/// BKN066/// 21/14 Q1017=
METAR EKRN 080820Z AUTO 20004KT 170V230 9999NDV NCD 19/15 Q1022=
METAR EKYT 080820Z 22009KT 9999 FEW025 BKN032 20/14 Q1017 NOSIG=
####018001748####
SAUK KAWN 080800 RRF
METAR EGAA 080820Z 22011KT 9999 FEW015 14/11 Q1014=
METAR EGAC 080820Z 22010KT 190V250 9999 FEW018 SCT024 15/10 Q1014=
METAR EGBB 080820Z 21008KT CAVOK 16/10 Q1018=
METAR EGCC 080820Z 21009KT 9999 FEW030 16/12 Q1017=
METAR EGDM 080818Z 26003KT 9999 FEW014 BKN022 BKN130 17/13 Q1019 WHT
      TEMPO SCT014 GRN=
METAR EGFF 080820Z 21005KT 9999 SCT016 17/13 Q1019=
METAR EGGD 080820Z 23004KT 9999 -RADZ FEW015 15/13 Q1019=
METAR EGGW 080820Z 26007KT 9999 BKN023 17/13 Q1019=
METAR EGJA 080820Z 17003KT 9999 0800SE BCFG SCT001 BKN015 16/16 Q1020=
METAR EGJB 080820Z 22004KT 180V270 9999 2200SE VCFG FEW001 BKN006 17/16
      Q1020=
METAR EGJJ 080820Z 29002KT 240V340 9999 FEW004 SCT010 19/17 Q1019 NOSIG=
METAR EGKB 080820Z 24006KT 200V280 9999 BKN013 19/15 Q1020=
METAR EGKK 080820Z 23006KT 9999 BKN014 19/14 Q1019=
METAR EGLC 080820Z 25006KT 220V280 9999 BKN022 20/14 Q1019=
METAR EGLF 080820Z 24006KT 9000 4000N VCSH SCT009 BKN001 18/16 Q1019=
METAR EGLL 080820Z 30007KT 5000 -RA SCT008 BKN012 17/15 Q1019=
METAR EGMC 080820Z 26008KT 9999 FEW017 SCT040 20/16 Q1019=
METAR EGNM 080820Z 25006KT 200V290 9999 SCT018 15/10 Q1016=
METAR EGNV 080820Z 19009KT 9999 FEW022 16/13 Q1016=
METAR EGNX 080820Z 22010KT CAVOK 16/10 Q1017=
METAR EGPB 080820Z 20014KT CAVOK 14/11 Q1006=
METAR EGPD 080820Z 22011KT 180V250 9999 FEW032 16/09 Q1010 NOSIG=
METAR EGPF 080820Z 22015KT 9999 FEW020 SCT030 15/10 Q1012=
METAR EGPH 080820Z 22015KT 9999 FEW025 17/10 Q1012=
METAR EGPK 080820Z 22012KT 9999 SCT025 15/10 Q1013=
METAR EGSS 080820Z 28007KT 4000 -DZ SCT003 BKN006 16/15 Q1019=
METAR EGTE 080820Z 05002KT 9999 FEW025 18/14 Q1019=
METAR EGTG 080820Z 25004KT 9999 SCT015 17/12 Q1019=
####018000104####
SPUS81 KWBC 080825
SPECI
KGRR 080822Z AUTO 28006KT 5SM -RA BR SCT025 BKN047 OVC095 24/22
A3005=
####018000082####
SPCN48 CWAO 080823
SPECI CYMH 080823Z AUTO 15004KT 9SM OVC004 06/06 A3010=

####018001650####
SPZZ40 KAWN 080825 RRE
SPECI CWZZ 080821Z AUTO ///// 1 1/2SM OVC022 OVC069 10/ A2981=
SPECI CYAM 080822Z 00000KT 10SM -RA FEW007 BKN013 OVC130 RMK SF2SC2AC3=
SPECI CYKF 080823Z AUTO 00000KT 1 3/4SM BR CLR 20/20 A3006 RMK SLP174
      DENSITY ALT 1700FT VIS VRB 1 1/2-3=
SPECI CYPE 080818Z 29011KT 15SM TS BKN060CB RMK CB5 OCNL LTGCG NW=
SPECI CYZX 080823Z 09002KT 2SM BR OVC006 RMK SF8 WNDY=
SPECI EGUL 080823Z AUTO 25005KT 9999 FEW005 SCT015 OVC022 17/17 A3007
      RMK AO2 DZE0823 FEW V SCT SLP183=
SPECI KDOV 080823Z AUTO 00000KT 2SM BR CLR 24/24 A2998 RMK AO2 SLP155=
SPECI KEGI 080821Z AUTO 00000KT 1 1/4SM R18/1600V5000FT BR CLR 22/22
      A3002 RMK AO2 SLP164 $=
SPECI KEGI 080823Z AUTO 00000KT 1SM R18/1600V4500FT BR CLR 22/22 A3002
      RMK AO2 SLP164 $=
SPECI KHST 080822Z AUTO 06006KT 9SM -RA FEW021 SCT065 27/25 A2993 RMK
      AO2 RAB0822 SLP136 $=
SPECI KNQI 080822Z AUTO 36005KT 9SM TS SCT023 SCT031 BKN120 27/25 A2983
      RMK AO2 TSB16 $=
SPECI KNSE 080811Z AUTO 00000KT 1 3/4SM BR CLR 23/22 A3002 RMK AO2
      $=
SPECI KVOK 080821Z 31008KT 10SM SCT009 OVC014 22/22 A3001 RMK AO2A
      SLP156=
SPECI KWRI 080821Z AUTO 00000KT 1 1/2SM R18/2800V5500FT R24/2400V2800FT
      BR OVC003 24/24 A2999 RMK AO2 SLP156 $=
SPECI KWRI 080822Z AUTO 00000KT 1 1/4SM R18/1800V5000FT R24/2200V2800FT
      BR OVC003 24/24 A2999 RMK AO2 SLP156 $=
SPECI KWRI 080823Z AUTO 00000KT 1SM R18/1000V4500FT R24/2000V2800FT
      BR OVC003 24/24 A2999 RMK AO2 SLP156 $=
SPECI LEAB 080820Z 14010KT 110V180 CAVOK 29/10 Q1022 NOSIG=
SPECI YSNF 080821Z 09010KT 9999 -RA SCT010 BKN018 14/12 Q1017=
####018000892####
SPNA35 KAWN 080825 RRA
SPECI KDOV 080823Z AUTO 00000KT 2SM BR CLR 24/24 A2998 RMK AO2 SLP155=
SPECI KHST 080822Z AUTO 06006KT 9SM -RA FEW021 SCT065 27/25 A2993 RMK
      AO2 RAB0822 SLP136 $=
SPECI KJFK 080820Z 00000KT 4SM BR FEW003 SCT010 BKN100 24/23 A3002
      RMK AO2 $=
SPECI KWRI 080820Z AUTO 00000KT 1 3/4SM R18/3000V5500FT R24/2400V2800FT
      BR OVC003 24/24 A2999 RMK AO2 SLP156 $=
SPECI KWRI 080821Z AUTO 00000KT 1 1/2SM R18/2800V5500FT R24/2400V2800FT
      BR OVC003 24/24 A2999 RMK AO2 SLP156 $=
SPECI KWRI 080822Z AUTO 00000KT 1 1/4SM R18/1800V5000FT R24/2200V2800FT
      BR OVC003 24/24 A2999 RMK AO2 SLP156 $=
SPECI KWRI 080823Z AUTO 00000KT 1SM R18/1000V4500FT R24/2000V2800FT
      BR OVC003 24/24 A2999 RMK AO2 SLP156 $=
SPECI KWRI 080824Z AUTO 00000KT 3/4SM R18/1000V4000FT R24/1000V2800FT
      BR OVC002 24/24 A2999 RMK AO2 SLP155 $=
####018000114####
SAUS41 KCAR 080825
MTR40B
METAR K40B 080825Z AUTO VRB02KT 21/21 A3002 RMK AO1 SLP151
     T02070208 55001
####018000203####
SANO37 ENMI 080820
METAR ENNO 080820Z NIL=
METAR ENOV 080820Z NIL=
METAR ENSD 080820Z NIL=
METAR ENSG 080820Z NIL=
METAR ENSN 080820Z NIL=
METAR ENSR 080820Z NIL=
METAR ENSS 080820Z NIL=
####018000244####
SANO38 ENMI 080820
METAR ENDR 080820Z NIL=
METAR ENEK 080820Z NIL=
METAR ENGC 080820Z 19029KT CAVOK 13/11 Q1007=
METAR ENHE 080820Z NIL=
METAR ENOA 080820Z 19023KT CAVOK1 13/11 Q1009=
METAR ENSL 080820Z 22026KT CAVOK 14/11 Q1011=
####018000550####
SANO32 ENMI 080820
METAR ENAL 080820Z 17009KT 9999 SCT055 SCT085 18/06 Q1008=
METAR ENCN 080820Z 20007KT 8000 BKN004 16/15 Q1015=
METAR ENHD 080820Z 19010KT 9999 FEW008 16/12 Q1013=
METAR ENRO 080820Z 19010KT 140V240 9999 SCT030 BKN110 16/08 Q1011=
METAR ENRY 080820Z 19010KT 150V220 8000 -SHRA SCT008 BKN012 16/15
           Q1016 TEMPO 4000 RA BR BKN006=
METAR ENSB 080820Z NIL=
METAR ENTC 080820Z 33003KT 280V360 9999 FEW068 SCT090 15/08 Q1011
           NOSIG =
METAR ENTO 080820Z 18007KT 6000 DZ FEW005 SCT026 16/15 Q1016=
####018000773####
SADL34 EDZO 080820
METAR EDAC 080820Z 24004KT CAVOK 23/13 Q1022=
METAR EDAH 080820Z 14007KT 110V180 CAVOK 21/11 Q1022=
METAR EDGS 080820Z 15007KT 120V210 CAVOK 22/10 Q1022=
METAR EDHL 080820Z 15007KT 120V190 CAVOK 24/16 Q1020=
METAR EDJA 080820Z 07005KT 030V100 CAVOK 22/11 Q1023=
METAR EDLN 080820Z VRB03KT CAVOK 27/15 Q1019=
METAR EDLP 080820Z 21006KT 170V240 CAVOK 27/11 Q1020=
METAR EDLW 080820Z 22009KT 180V240 CAVOK 27/10 Q1020=
METAR EDMA 080820Z 13007KT 090V160 CAVOK 22/09 Q1023=
METAR EDNY 080820Z VRB02KT CAVOK 24/13 Q1022=
METAR EDQM 080820Z 24004KT 200V280 CAVOK 22/07 Q1024=
METAR EDRZ 080820Z 14005KT 080V190 CAVOK 25/13 Q1021=
METAR EDSB 080820Z 34004KT 290V020 CAVOK 24/13 Q1021=
METAR EDXW 080820Z 21014KT CAVOK 22/11 Q1018=
####018000341####
SADL33 EDZO 080820
METAR EDFE 080820Z VRB02KT CAVOK 25/11 Q1021=
METAR EDFH 080820Z 12007KT 080V170 CAVOK 23/12 Q1021=
METAR EDFM 080820Z 15006KT 110V230 CAVOK 27/09 Q1020=
METAR EDLV 080820Z 20006KT 160V230 CAVOK 27/11 Q1019=
METAR EDTL 080820Z 23003KT CAVOK 24/14 Q1020=
METAR EDVK 080820Z 22006KT 170V240 CAVOK 24/11 Q1021=
####018000368####
SAUS20 KNKA 080825
METAR KCLS 080815Z AUTO 00000KT 10SM CLR 15/14 A2994 RMK AO2 =
METAR KGZL 080815Z AUTO 14007KT 10SM BKN023 BKN046 24/23 A3002 RMK 
     AO2 =
SPECI KLRD 080823Z AUTO 00000KT 10SM BKN015 26/25 A2989 RMK AO2 $=
METAR KTNB 080824Z AUTO 00000KT 10SM CLR 16/13 A3020 RMK AO2=
SPECI KTRL 080824Z AUTO 12004KT 10SM BKN014 27/22 A3001 RMK AO2=
