####018000192####
SPUS90 KWBC 080916
SPECI KVBG 080913Z AUTO 34004KT 10SM BKN006 12/11 A2993 RMK AO2
     TSNO $=
SPECI KATT 080913Z AUTO 10004KT 10SM BKN012 BKN022 OVC030 26/23
     A2997 RMK AO2 $=
####018002970####
SAUS20 KNKA 080915
METAR KAEG 080915Z AUTO 16007KT 10SM CLR 17/08 A3028 RMK AO1  =
METAR KAFJ 080915Z AUTO 00000KT M1/4SM OVC003 17/16 A3010 RMK AO1=
METAR KAIZ 080915Z AUTO 00000KT 10SM FEW050 SCT070 22/21 A3005 RMK 
    AO1=
METAR KARG 080915Z AUTO 19005KT 9SM FEW110 24/22 A3005 RMK AO1=
METAR KAUO 080915Z AUTO 20003KT 10SM CLR 25/21 A3002 RMK AO1=
METAR KAWO 080915Z AUTO 00000KT 10SM CLR 14/14 A2997 RMK AO1=
METAR KBHB 080915Z AUTO 19007KT 1 3/4SM OVC002 18/18 A3010 RMK AO1=
METAR KBID 080915Z AUTO 14005KT 1/4SM OVC002 21/20 A3006 RMK AO1=
METAR KBKX 080915Z AUTO 00000KT 10SM CLR 14/12 A3016 RMK AO1=
METAR KBLM 080915Z AUTO 10005KT 3SM FEW065 BKN075 BKN100 24/21 A3005 
    RMK AO1=
METAR KBOW 080915Z AUTO 00000KT 10SM CLR 21/21 A2999 RMK AO2 =
METAR KBTP 080915Z AUTO 00000KT 1 1/4SM CLR 18/18 A3010 RMK AO1=
METAR KBVX 080915Z AUTO 22005KT 10SM CLR 24/22 A3005 RMK AO1=
METAR KCGC 080915Z AUTO 00000KT 10SM CLR 21/21 A2999 RMK=
METAR KCGZ 080915Z AUTO 00000KT 10SM CLR 31/00 A2978 RMK AO1=
METAR KCIU 080915Z AUTO 21005KT 7SM FEW090 OVC120 19/18 A2995 RMK 
    AO1=
METAR KCOD 080915Z 16003KT 10SM CLR 11/02 A3032 RMK AO1=
METAR KCOE 080915Z AUTO 04011KT 10SM CLR 16/08 A3009 RMK AO1=
METAR KCVN 080915Z AUTO 07007KT 10SM BKN110 17/14 A3022 RMK AO1=
METAR KCVO 080915Z AUTO 24010G18KT 10SM CLR 14/09 A2990 RMK AO1=
METAR KCWI 080915Z 00000KT 2 1/2SM OVC004 A3003 RMK AO1=
METAR KDVL 080915Z AUTO 24006KT 10SM FEW095 16/12 A3006 RMK AO1=
METAR KDYB 080915Z AUTO 00000KT 10SM CLR 22/20 A2996 RMK AO1=
METAR KDYR 080915Z AUTO 00000KT 10SM CLR 24/19 A3006 RMK AO1=
METAR KEAR 080915Z AUTO 32005KT 10SM CLR 15/13 A3023 RMK AO1=
METAR KEEN 080915Z AUTO 00000KT 4SM CLR 22/21 A3005 RMK AO1=
METAR KEGE 080915Z 08014KT 10SM CLR 09/08 A3036 RMK AO1=
METAR KEHR 080915Z AUTO 00000KT 6SM SCT090 22/18 A3006 RMK AO1=
METAR KENV 080915Z 16003KT 10SM CLR 22/M02 A3008 RMK AO1=
METAR KESC 080915Z AUTO 32004KT 6SM FEW050 FEW070 SCT110 19/16 A2996 
    RMK AO1=
METAR KEUL 080915Z AUTO 15005KT 10SM CLR 13/07 A3005 RMK AO1=
METAR KEWK 080915Z AUTO 01005KT 10SM BKN008 OVC050 21/19 A3007 RMK 
    AO1=
METAR KFAM 080915Z AUTO 16003KT 10SM FEW080 FEW110 23/22 A3008 RMK 
    AO1=
SPECI KFIG 080914Z AUTO 35005KT 2 1/2SM BR CLR 17/17 A3012 RMK AO2=
METAR KFKL 080915Z 00000KT 5SM CLR 19/18 A3014 RMK AO1=
METAR KFLP 080915Z AUTO 14003KT 10SM BKN090 23/22 A3004 RMK AO1=
METAR KFNL 080915Z AUTO 07004KT 4SM FEW005 13/13 A3031 RMK AO1=
METAR KFOD 080915Z AUTO 34003KT 10SM CLR 18/17 A3011 RMK AO1=
METAR KFRM 080915Z AUTO 10SM CLR 16/14 A3012 RMK AO1=
METAR KFTN 080915Z AUTO 05003KT 10SM OVC026 25/23 A2990 RMK AO1 =
METAR KGAD 080915Z AUTO 00000KT 10SM CLR 22/20 A3004 RMK AO1=
METAR KGAI 080915Z 00000KT 8SM BKN090 25/21 A3003 RMK AO1 
     =
METAR KGBD 080915Z AUTO 02008KT 10SM OVC015 19/18 A3016 RMK AO1=
METAR KGDV 080915Z AUTO 20003KT 10SM CLR 12/07 A3016 RMK AO1=
####018002948####
SAUS20 KNKA 080915
SPECI KGFL 080914Z AUTO 00000KT 1/4SM FG VV019 20/20 A3002 RMK AO2=
METAR KGPZ 080915Z AUTO 19003KT 10SM CLR 14/12 A3005 RMK AO1=
METAR KGTR 080915Z 00000KT 10SM CLR 24/22 A3004 RMK AO1=
METAR KGUC 080915Z AUTO 01007KT 10SM FEW120 09/03 A3043 RMK AO1=
METAR KGXY 080915Z AUTO 06003KT 10SM OVC007 15/12 A3032 RMK AO1=
METAR KHDN 080915Z 11012KT 10SM CLR 11/06 A3031 RMK AO1=
METAR KHEF 080915Z AUTO 00000KT 5SM SCT080 23/20 A2999 RMK AO1=
METAR KHEZ 080915Z AUTO 00000KT 5SM CLR 22/21 A3003 RMK AO1=
METAR KHNB 080915Z AUTO 00000KT 10SM SCT065 OVC095 23/22 A3005 RMK 
    AO1=
METAR KHYS 080915Z AUTO 36008KT 10SM OVC016 19/17 A3018 RMK AO1=
METAR KIWD 080915Z AUTO 00000KT 10SM BKN060 16/15 A3000 RMK AO1=
METAR KJAC 080915Z AUTO 03006KT 10SM CLR 09/M01 A3034 RMK AO1=
METAR KJHW 080915Z AUTO 17004KT 5SM CLR 19/18 A3011 RMK AO1=
METAR KJSV 080913Z AUTO 00000KT 10SM SCT026 OVC032 23/22 A3003 
     RMK AO2=
METAR KJWG 080913Z AUTO 03006KT 7SM BKN011 BKN016 BKN036 23/23 
     A3009 RMK AO2=
METAR KKLS 080915Z AUTO 00000KT 10SM CLR 16/13 A2991 RMK AO1=
METAR KLBL 080915Z 06009KT 10SM FEW034 OVC045 19/17 A3021 RMK AO1 
    LTG DSNT SW=
METAR KLCI 080915Z AUTO 00000KT 10SM BKN095 OVC120 22/19 A3005 RMK 
    AO1=
METAR KLEW 080915Z 15004KT 3SM OVC004 20/19 A3009 RMK AO1=
METAR KLGD 080915Z AUTO 31003KT 10SM CLR 13/06 A3005 RMK AO1=
METAR KLKV 080915Z AUTO 33006KT 10SM CLR 09/01 A3012 RMK AO1=
METAR KLPC 080915Z AUTO 00000KT 10SM OVC012 14/11 A2992 RMK AO1 PNO=
METAR KLUX 080915Z AUTO 28003KT 10SM CLR 21/21 A3001 RMK AO2=
METAR KMBL 080915Z AUTO 00000KT 10SM SCT065 OVC090 21/19 A2999 RMK 
    AO1=
METAR KMER 080915Z AUTO 32006KT 10SM CLR 17/11 A2983 RMK AO1 =
METAR KMJX 080915Z AUTO 13003KT 2SM SCT014 BKN060 OVC120 23/22 A3002 
    RMK AO1=
METAR KMKT 080915Z 30004KT 10SM CLR 17/16 A3010 RMK AO1=
METAR KMML 080915Z AUTO 26004KT 10SM CLR 15/12 A3013 RMK AO1=
METAR KMNI 080915Z AUTO 00000KT 10SM CLR 25/22 A2995 RMK AO2=
METAR KMNM 080915Z AUTO 00000KT 7SM BKN011 OVC033 21/19 A2997 RMK 
    AO1=
METAR KMRF 080915Z AUTO 02004KT 10SM BKN120 16/13 A3016 RMK AO1=
METAR KMSV 080915Z AUTO 00000KT 7SM CLR 21/18 A3010 RMK AO1=
METAR KMTW 080915Z 16006KT 9SM OVC110 21/21 A2996 RMK AO1=
METAR KMVN 080915Z AUTO 00000KT 1SM CLR 22/21 A3004 RMK AO1=
METAR KOKK 080915Z AUTO 15003KT 7SM CLR 22/16 A3005 RMK AO1=
METAR KOLU 080915Z AUTO 33004KT 10SM CLR 16/14 A3017 RMK AO1=
METAR KOTG 080915Z AUTO 27004KT 10SM CLR 14/13 A3014 RMK AO1=
METAR KOTH 080915Z 28003KT 10SM OVC008 10/08 A3000 RMK AO1=
METAR KOXC 080915Z 00000KT 2SM BKN004 22/21 A3008 RMK AO1=
METAR KPIB 080915Z AUTO 36003KT 10SM CLR 23/21 A3003 RMK AO1=
METAR KPNA 080910Z AUTO 28004KT 10SM CLR 07/01 A3039 RMK AO2 
     T00670013=
METAR KPQI 080915Z AUTO 15006KT 9SM CLR 21/18 A2999 RMK AO1=
METAR KPTN 080915Z AUTO 08004KT 10SM CLR 24/M09 A3001 RMK AO1=
####018003724####
SAUS99 KWBC 080916
METAR
KAEG 080915Z AUTO 16007KT 10SM CLR 17/08 A3028 RMK AO1=
KAFJ 080915Z AUTO 00000KT M1/4SM OVC003 17/16 A3010 RMK AO1=
KAIZ 080915Z AUTO 00000KT 10SM FEW050 SCT070 22/21 A3005 RMK
     AO1=
KARG 080915Z AUTO 19005KT 9SM FEW110 24/22 A3005 RMK AO1=
KAUO 080915Z AUTO 20003KT 10SM CLR 25/21 A3002 RMK AO1=
KAWO 080915Z AUTO 00000KT 10SM CLR 14/14 A2997 RMK AO1=
KBHB 080915Z AUTO 19007KT 1 3/4SM OVC002 18/18 A3010 RMK AO1=
KBID 080915Z AUTO 14005KT 1/4SM OVC002 21/20 A3006 RMK AO1=
KBKX 080915Z AUTO 00000KT 10SM CLR 14/12 A3016 RMK AO1=
KBLM 080915Z AUTO 10005KT 3SM FEW065 BKN075 BKN100 24/21 A3005 RMK
     AO1=
KBOW 080915Z AUTO 00000KT 10SM CLR 21/21 A2999 RMK AO2=
KBTP 080915Z AUTO 00000KT 1 1/4SM CLR 18/18 A3010 RMK AO1=
KBVX 080915Z AUTO 22005KT 10SM CLR 24/22 A3005 RMK AO1=
KCGC 080915Z AUTO 00000KT 10SM CLR 21/21 A2999 RMK=
KCGZ 080915Z AUTO 00000KT 10SM CLR 31/00 A2978 RMK AO1=
KCIU 080915Z AUTO 21005KT 7SM FEW090 OVC120 19/18 A2995 RMK
     AO1=
KCOD 080915Z 16003KT 10SM CLR 11/02 A3032 RMK AO1=
KCOE 080915Z AUTO 04011KT 10SM CLR 16/08 A3009 RMK AO1=
KCVN 080915Z AUTO 07007KT 10SM BKN110 17/14 A3022 RMK AO1=
KCVO 080915Z AUTO 24010G18KT 10SM CLR 14/09 A2990 RMK AO1=
KCWI 080915Z 00000KT 2 1/2SM OVC004 A3003 RMK AO1=
KDVL 080915Z AUTO 24006KT 10SM FEW095 16/12 A3006 RMK AO1=
KDYB 080915Z AUTO 00000KT 10SM CLR 22/20 A2996 RMK AO1=
KDYR 080915Z AUTO 00000KT 10SM CLR 24/19 A3006 RMK AO1=
KEAR 080915Z AUTO 32005KT 10SM CLR 15/13 A3023 RMK AO1=
KEEN 080915Z AUTO 00000KT 4SM CLR 22/21 A3005 RMK AO1=
KEGE 080915Z 08014KT 10SM CLR 09/08 A3036 RMK AO1=
KEHR 080915Z AUTO 00000KT 6SM SCT090 22/18 A3006 RMK AO1=
KENV 080915Z 16003KT 10SM CLR 22/M02 A3008 RMK AO1=
KESC 080915Z AUTO 32004KT 6SM FEW050 FEW070 SCT110 19/16 A2996 RMK
     AO1=
KEUL 080915Z AUTO 15005KT 10SM CLR 13/07 A3005 RMK AO1=
KEWK 080915Z AUTO 01005KT 10SM BKN008 OVC050 21/19 A3007 RMK
     AO1=
KFAM 080915Z AUTO 16003KT 10SM FEW080 FEW110 23/22 A3008 RMK
     AO1=
KFKL 080915Z 00000KT 5SM CLR 19/18 A3014 RMK AO1=
KFLP 080915Z AUTO 14003KT 10SM BKN090 23/22 A3004 RMK AO1=
KFNL 080915Z AUTO 07004KT 4SM FEW005 13/13 A3031 RMK AO1=
KFOD 080915Z AUTO 34003KT 10SM CLR 18/17 A3011 RMK AO1=
KFRM 080915Z AUTO 10SM CLR 16/14 A3012 RMK AO1=
KFTN 080915Z AUTO 05003KT 10SM OVC026 25/23 A2990 RMK AO1=
KGAD 080915Z AUTO 00000KT 10SM CLR 22/20 A3004 RMK AO1=
KGAI 080915Z 00000KT 8SM BKN090 25/21 A3003 RMK AO1=
KGBD 080915Z AUTO 02008KT 10SM OVC015 19/18 A3016 RMK AO1=
KGDV 080915Z AUTO 20003KT 10SM CLR 12/07 A3016 RMK AO1=
KGPZ 080915Z AUTO 19003KT 10SM CLR 14/12 A3005 RMK AO1=
KGTR 080915Z 00000KT 10SM CLR 24/22 A3004 RMK AO1=
KGUC 080915Z AUTO 01007KT 10SM FEW120 09/03 A3043 RMK AO1=
KGXY 080915Z AUTO 06003KT 10SM OVC007 15/12 A3032 RMK AO1=
KHDN 080915Z 11012KT 10SM CLR 11/06 A3031 RMK AO1=
KHEF 080915Z AUTO 00000KT 5SM SCT080 23/20 A2999 RMK AO1=
KHEZ 080915Z AUTO 00000KT 5SM CLR 22/21 A3003 RMK AO1=
KHNB 080915Z AUTO 00000KT 10SM SCT065 OVC095 23/22 A3005 RMK
     AO1=
KHYS 080915Z AUTO 36008KT 10SM OVC016 19/17 A3018 RMK AO1=
KIWD 080915Z AUTO 00000KT 10SM BKN060 16/15 A3000 RMK AO1=
KJAC 080915Z AUTO 03006KT 10SM CLR 09/M01 A3034 RMK AO1=
KJHW 080915Z AUTO 17004KT 5SM CLR 19/18 A3011 RMK AO1=
KJSV 080913Z AUTO 00000KT 10SM SCT026 OVC032 23/22 A3003 RMK
     AO2=
KJWG 080913Z AUTO 03006KT 7SM BKN011 BKN016 BKN036 23/23 A3009 RMK
     AO2=
KKLS 080915Z AUTO 00000KT 10SM CLR 16/13 A2991 RMK AO1=
KLBL 080915Z 06009KT 10SM FEW034 OVC045 19/17 A3021 RMK AO1 LTG
     DSNT SW=
KLCI 080915Z AUTO 00000KT 10SM BKN095 OVC120 22/19 A3005 RMK
     AO1=
####018000157####
SPUS99 KWBC 080916
SPECI
KFIG 080914Z AUTO 35005KT 2 1/2SM BR CLR 17/17 A3012 RMK AO2=
KGFL 080914Z AUTO 00000KT 1/4SM FG VV019 20/20 A3002 RMK AO2=
####018001547####
SAUS99 KWBC 080916 RRA
METAR
KLEW 080915Z 15004KT 3SM OVC004 20/19 A3009 RMK AO1=
KLGD 080915Z AUTO 31003KT 10SM CLR 13/06 A3005 RMK AO1=
KLKV 080915Z AUTO 33006KT 10SM CLR 09/01 A3012 RMK AO1=
KLPC 080915Z AUTO 00000KT 10SM OVC012 14/11 A2992 RMK AO1 PNO=
KLUX 080915Z AUTO 28003KT 10SM CLR 21/21 A3001 RMK AO2=
KMBL 080915Z AUTO 00000KT 10SM SCT065 OVC090 21/19 A2999 RMK
     AO1=
KMER 080915Z AUTO 32006KT 10SM CLR 17/11 A2983 RMK AO1=
KMJX 080915Z AUTO 13003KT 2SM SCT014 BKN060 OVC120 23/22 A3002 RMK
     AO1=
KMKT 080915Z 30004KT 10SM CLR 17/16 A3010 RMK AO1=
KMML 080915Z AUTO 26004KT 10SM CLR 15/12 A3013 RMK AO1=
KMNI 080915Z AUTO 00000KT 10SM CLR 25/22 A2995 RMK AO2=
KMNM 080915Z AUTO 00000KT 7SM BKN011 OVC033 21/19 A2997 RMK
     AO1=
KMRF 080915Z AUTO 02004KT 10SM BKN120 16/13 A3016 RMK AO1=
KMSV 080915Z AUTO 00000KT 7SM CLR 21/18 A3010 RMK AO1=
KMTW 080915Z 16006KT 9SM OVC110 21/21 A2996 RMK AO1=
KMVN 080915Z AUTO 00000KT 1SM CLR 22/21 A3004 RMK AO1=
KOKK 080915Z AUTO 15003KT 7SM CLR 22/16 A3005 RMK AO1=
KOLU 080915Z AUTO 33004KT 10SM CLR 16/14 A3017 RMK AO1=
KOTG 080915Z AUTO 27004KT 10SM CLR 14/13 A3014 RMK AO1=
KOTH 080915Z 28003KT 10SM OVC008 10/08 A3000 RMK AO1=
KOXC 080915Z 00000KT 2SM BKN004 22/21 A3008 RMK AO1=
KPIB 080915Z AUTO 36003KT 10SM CLR 23/21 A3003 RMK AO1=
KPNA 080910Z AUTO 28004KT 10SM CLR 07/01 A3039 RMK AO2
     T00670013=
KPQI 080915Z AUTO 15006KT 9SM CLR 21/18 A2999 RMK AO1=
KPTN 080915Z AUTO 08004KT 10SM CLR 24/M09 A3001 RMK AO1=
####018000110####
SAIY40 LIIB 080900 RRA
METAR LIPX 080845Z 10007KT 9999 SCT080 27/14 Q1021 RMK SCT VIS MIN
      9999 BLU=
####018000084####
SAZA31 FAPR 080900 RRA
METAR FAKN 080900Z 18005KT 9999 BKN020 17/12 Q1034 NOSIG=
####018000072####
SAAL41 DAMM 080900 RRB
METAR DAUB 080900Z 13013KT CAVOK 33/15 Q1018=
####018000074####
SPBZ21 SBPL 080915
SPECI SBPL 080915Z 12010KT 9999 FEW020 20/19 Q1018=
####018000095####
SAIY42 LIIB 080900 RRA
METAR LIRU 080850Z VRB01KT 9999 FEW040 30/19 Q1019 RMK VIS MIN 9999=
####018000252####
SAAF18 LFPW 080900 RRC
METAR FMMI 080900Z 12010KT 080V160 9999 BKN020 18/12 Q1027 NOSIG=
METAR FMMT 080900Z 22014KT 9999 SCT017 SCT033 24/20 Q1022=
METAR FMNM 080900Z ///10KT CAVOK 29/14 Q1018=
METAR FMNN 080900Z 22008KT 9999 BKN100 28/16 Q1018=
####018000131####
SAMC32 GMMC 080900 RRB
METAR GMMH 080900Z 02019KT 6000 BKN010 20/17 Q1014=
METAR GMML 080900Z 02016KT 8000 BKN016 21/15 Q1015=
####018000075####
SAAF32 KWBC 080900 RRB
METAR
FMNM 080900Z ///10KT CAVOK 29/14 Q1018=
####018000089####
SAIY42 LIIB 080900 RRC
METAR LIRZ 080850Z VRB02KT CAVOK 28/12 Q1021 RMK VIS MIN 9999=
####018000170####
SPXX60 KWBC 080916
SPECI
KVBG 080913Z AUTO 34004KT 10SM BKN006 12/11 A2993 RMK AO2 TSNO
     $=
KNFG 080913Z AUTO 00000KT 10SM OVC013 16/13 A2990 RMK AO2 TSNO=
####018000206####
SAUS80 KWBC 080916
METAR
KDVL 080915Z AUTO 24006KT 10SM FEW095 16/12 A3006 RMK AO1=
KEAR 080915Z AUTO 32005KT 10SM CLR 15/13 A3023 RMK AO1=
KGPZ 080915Z AUTO 19003KT 10SM CLR 14/12 A3005 RMK AO1=
####018000471####
SPUS70 KWBC 080916
SPECI
KAMA 080913Z 04009KT 1SM -RA SCT020 BKN055 OVC100 17/16 A3018 RMK
     AO2 SFC VIS 10 P0001 $=
KBOK 080914Z AUTO 00000KT 1/4SM FG OVC002 09/09 A2997 RMK AO2
     $=
KCEW 080913Z AUTO 00000KT 1 1/4SM BR CLR 21/21 A3003 RMK AO2=
KELM 080913Z AUTO 00000KT 3/4SM BR VV002 18/17 A3009 RMK AO2
     RVRNO=
KFIG 080914Z AUTO 35005KT 2 1/2SM BR CLR 17/17 A3012 RMK AO2=
KGFL 080914Z AUTO 00000KT 1/4SM FG VV019 20/20 A3002 RMK AO2=
####018000076####
SAAG31 KWBC 080900 RRC
METAR
SAEZ 080900Z 28005KT CAVOK 03/M00 Q1018=
####018000131####
SAIY40 LIIB 080900 RRD
METAR LIVP 080855Z VRB02KT 3000 0900E FG VV/// 11/09 Q1028 RMK MON
      INVIS VAL INVIS VIS MIN 0900E=
####018000072####
SAAL32 DAAA 080900 RRA
METAR DAUB 080900Z 13013KT CAVOK 33/15 Q1018=
####018003674####
SAUS70 KWBC 080916
METAR
KMYR 080915Z AUTO 29008KT 10SM CLR 26/19 A2995 RMK AO1=
KOAJ 080915Z AUTO 00000KT 10SM CLR 22/21 A2993 RMK AO1=
KOCF 080915Z AUTO 00000KT 10SM CLR 21/21 A3000 RMK AO1=
KSOP 080915Z AUTO 00000KT 10SM CLR 24/17 A2996 RMK AO1=
KUDG 080915Z 34004KT 10SM FEW090 24/18 A2998 RMK AO1=
KPMV 080910Z AUTO 32005KT 10SM CLR 20/19 A3012 RMK AO2
     T01960187=
KAFK 080910Z AUTO 36007KT 7SM CLR 20/19 A3011 RMK AO2
     T02000189=
KANW 080910Z AUTO 23003KT 10SM OVC110 17/15 A3023 RMK AO2
     T01660151=
KAUH 080910Z AUTO 35006KT 10SM CLR 16/15 A3018 RMK AO2
     T01560145=
KAUN 080910Z AUTO 00000KT 10SM CLR 21/13 A2988 RMK AO1=
KBIE 080910Z AUTO 36006KT 10SM CLR 19/18 A3013 RMK AO2
     T01870176=
KBTA 080910Z AUTO 36005KT 10SM CLR 19/17 A3012 RMK AO2
     T01920171=
KBVN 080910Z AUTO 33003KT 10SM OVC090 16/15 A3018 RMK AO2
     T01570147=
KDVO 080910Z AUTO 00000KT 10SM OVC012 12/11 A2994 RMK AO2=
KHDE 080910Z AUTO 00000KT 10SM CLR 16/14 A3021 RMK AO2
     T01550141=
KHJH 080910Z AUTO 01005KT 10SM OVC025 19/18 A3015 RMK AO2
     T01940177=
KIBM 080910Z AUTO 14003KT 10SM BKN020 OVC042 13/12 A3031 RMK AO2
     T01250115=
KJYR 080910Z AUTO 35003KT 10SM CLR 16/15 A3016 RMK AO2=
KLCG 080910Z AUTO 00000KT 10SM SCT110 15/14 A3016 RMK AO2
     T01530144=
KLHM 080911Z AUTO 16008KT 10SM CLR 17/11 A2982 RMK AO1
     T01730110=
KLXN 080910Z AUTO 00000KT 10SM OVC049 16/15 A3023 RMK AO2
     T01610153=
KMLE 080910Z AUTO 35003KT 10SM CLR 20/17 A3011 RMK AO2
     T02000168=
KMMH 080910Z AUTO 00000KT 10SM CLR 12/02 A3021 RMK AO1=
KOGA 080910Z AUTO 00000KT 7SM SCT090 16/15 A3027 RMK AO2
     T01550145=
KONL 080910Z AUTO 27003KT 10SM SCT090 OVC110 16/15 A3021 RMK AO2
     T01590146=
KRKR 080913Z AUTO 19004KT 10SM BKN031 27/25 A3003 RMK AO2=
KSNL 080912Z AUTO 33003KT 10SM OVC008 24/23 A3004 RMK AO2 LTG DSNT
     NE=
KTQH 080915Z AUTO 14003KT 10SM OVC020 23/23 A3004 RMK AO2=
KWDG 080910Z AUTO 36003KT 10SM CLR 22/21 A3008 RMK AO2=
KAEG 080915Z AUTO 16007KT 10SM CLR 17/08 A3028 RMK AO1=
KAFJ 080915Z AUTO 00000KT M1/4SM OVC003 17/16 A3010 RMK AO1=
KAIZ 080915Z AUTO 00000KT 10SM FEW050 SCT070 22/21 A3005 RMK
     AO1=
KARG 080915Z AUTO 19005KT 9SM FEW110 24/22 A3005 RMK AO1=
KAUO 080915Z AUTO 20003KT 10SM CLR 25/21 A3002 RMK AO1=
KAWO 080915Z AUTO 00000KT 10SM CLR 14/14 A2997 RMK AO1=
KBHB 080915Z AUTO 19007KT 1 3/4SM OVC002 18/18 A3010 RMK AO1=
KBID 080915Z AUTO 14005KT 1/4SM OVC002 21/20 A3006 RMK AO1=
KBKX 080915Z AUTO 00000KT 10SM CLR 14/12 A3016 RMK AO1=
KBLM 080915Z AUTO 10005KT 3SM FEW065 BKN075 BKN100 24/21 A3005 RMK
     AO1=
KBOW 080915Z AUTO 00000KT 10SM CLR 21/21 A2999 RMK AO2=
KBTP 080915Z AUTO 00000KT 1 1/4SM CLR 18/18 A3010 RMK AO1=
KBVX 080915Z AUTO 22005KT 10SM CLR 24/22 A3005 RMK AO1=
KCGC 080915Z AUTO 00000KT 10SM CLR 21/21 A2999 RMK=
KCGZ 080915Z AUTO 00000KT 10SM CLR 31/00 A2978 RMK AO1=
KCIU 080915Z AUTO 21005KT 7SM FEW090 OVC120 19/18 A2995 RMK
     AO1=
KCOD 080915Z 16003KT 10SM CLR 11/02 A3032 RMK AO1=
KCOE 080915Z AUTO 04011KT 10SM CLR 16/08 A3009 RMK AO1=
KCVN 080915Z AUTO 07007KT 10SM BKN110 17/14 A3022 RMK AO1=
KCVO 080915Z AUTO 24010G18KT 10SM CLR 14/09 A2990 RMK AO1=
KCWI 080915Z 00000KT 2 1/2SM OVC004 A3003 RMK AO1=
KDYB 080915Z AUTO 00000KT 10SM CLR 22/20 A2996 RMK AO1=
KDYR 080915Z AUTO 00000KT 10SM CLR 24/19 A3006 RMK AO1=
KEEN 080915Z AUTO 00000KT 4SM CLR 22/21 A3005 RMK AO1=
KEGE 080915Z 08014KT 10SM CLR 09/08 A3036 RMK AO1=
KEHR 080915Z AUTO 00000KT 6SM SCT090 22/18 A3006 RMK AO1=
KENV 080915Z 16003KT 10SM CLR 22/M02 A3008 RMK AO1=
####018000094####
SAAF31 KWBC 080900 RRA
METAR
DGAA 080900Z 26010KT 9999 SCT015 BKN100 28/23 Q1015 NOSIG=
####018000113####
SPUS80 KWBC 080916
SPECI
KATT 080913Z AUTO 10004KT 10SM BKN012 BKN022 OVC030 26/23 A2997
     RMK AO2 $=
####018000089####
SAIY40 LIIB 080900 RRB
METAR LIPY 080850Z VRB05KT CAVOK 26/10 Q1021 RMK VIS MIN 9999=
####018000202####
SAAP32 FAPR 080900 RRA
METAR FDMS 080900Z 00000KT 9000 -DZ FEW012 OVC030 17/12 Q1032 NOSIG=
METAR FVHA 080900Z 14012KT 9999 SCT035 15/05 Q1031 NOSIG=
METAR FYWH 080900Z 01013KT CAVOK 17/M00 Q1030=
####018003439####
SAUS70 KWBC 080916 RRA
METAR
KESC 080915Z AUTO 32004KT 6SM FEW050 FEW070 SCT110 19/16 A2996 RMK
     AO1=
KEUL 080915Z AUTO 15005KT 10SM CLR 13/07 A3005 RMK AO1=
KEWK 080915Z AUTO 01005KT 10SM BKN008 OVC050 21/19 A3007 RMK
     AO1=
KFAM 080915Z AUTO 16003KT 10SM FEW080 FEW110 23/22 A3008 RMK
     AO1=
KFKL 080915Z 00000KT 5SM CLR 19/18 A3014 RMK AO1=
KFLP 080915Z AUTO 14003KT 10SM BKN090 23/22 A3004 RMK AO1=
KFNL 080915Z AUTO 07004KT 4SM FEW005 13/13 A3031 RMK AO1=
KFOD 080915Z AUTO 34003KT 10SM CLR 18/17 A3011 RMK AO1=
KFRM 080915Z AUTO 10SM CLR 16/14 A3012 RMK AO1=
KFTN 080915Z AUTO 05003KT 10SM OVC026 25/23 A2990 RMK AO1=
KGAD 080915Z AUTO 00000KT 10SM CLR 22/20 A3004 RMK AO1=
KGAI 080915Z 00000KT 8SM BKN090 25/21 A3003 RMK AO1=
KGBD 080915Z AUTO 02008KT 10SM OVC015 19/18 A3016 RMK AO1=
KGDV 080915Z AUTO 20003KT 10SM CLR 12/07 A3016 RMK AO1=
KGTR 080915Z 00000KT 10SM CLR 24/22 A3004 RMK AO1=
KGUC 080915Z AUTO 01007KT 10SM FEW120 09/03 A3043 RMK AO1=
KGXY 080915Z AUTO 06003KT 10SM OVC007 15/12 A3032 RMK AO1=
KHDN 080915Z 11012KT 10SM CLR 11/06 A3031 RMK AO1=
KHEF 080915Z AUTO 00000KT 5SM SCT080 23/20 A2999 RMK AO1=
KHEZ 080915Z AUTO 00000KT 5SM CLR 22/21 A3003 RMK AO1=
KHNB 080915Z AUTO 00000KT 10SM SCT065 OVC095 23/22 A3005 RMK
     AO1=
KHYS 080915Z AUTO 36008KT 10SM OVC016 19/17 A3018 RMK AO1=
KIWD 080915Z AUTO 00000KT 10SM BKN060 16/15 A3000 RMK AO1=
KJAC 080915Z AUTO 03006KT 10SM CLR 09/M01 A3034 RMK AO1=
KJHW 080915Z AUTO 17004KT 5SM CLR 19/18 A3011 RMK AO1=
KJSV 080913Z AUTO 00000KT 10SM SCT026 OVC032 23/22 A3003 RMK
     AO2=
KJWG 080913Z AUTO 03006KT 7SM BKN011 BKN016 BKN036 23/23 A3009 RMK
     AO2=
KKLS 080915Z AUTO 00000KT 10SM CLR 16/13 A2991 RMK AO1=
KLBL 080915Z 06009KT 10SM FEW034 OVC045 19/17 A3021 RMK AO1 LTG
     DSNT SW=
KLCI 080915Z AUTO 00000KT 10SM BKN095 OVC120 22/19 A3005 RMK
     AO1=
KLEW 080915Z 15004KT 3SM OVC004 20/19 A3009 RMK AO1=
KLGD 080915Z AUTO 31003KT 10SM CLR 13/06 A3005 RMK AO1=
KLKV 080915Z AUTO 33006KT 10SM CLR 09/01 A3012 RMK AO1=
KLPC 080915Z AUTO 00000KT 10SM OVC012 14/11 A2992 RMK AO1 PNO=
KLUX 080915Z AUTO 28003KT 10SM CLR 21/21 A3001 RMK AO2=
KMBL 080915Z AUTO 00000KT 10SM SCT065 OVC090 21/19 A2999 RMK
     AO1=
KMER 080915Z AUTO 32006KT 10SM CLR 17/11 A2983 RMK AO1=
KMJX 080915Z AUTO 13003KT 2SM SCT014 BKN060 OVC120 23/22 A3002 RMK
     AO1=
KMKT 080915Z 30004KT 10SM CLR 17/16 A3010 RMK AO1=
KMML 080915Z AUTO 26004KT 10SM CLR 15/12 A3013 RMK AO1=
KMNI 080915Z AUTO 00000KT 10SM CLR 25/22 A2995 RMK AO2=
KMNM 080915Z AUTO 00000KT 7SM BKN011 OVC033 21/19 A2997 RMK
     AO1=
KMRF 080915Z AUTO 02004KT 10SM BKN120 16/13 A3016 RMK AO1=
KMSV 080915Z AUTO 00000KT 7SM CLR 21/18 A3010 RMK AO1=
KMTW 080915Z 16006KT 9SM OVC110 21/21 A2996 RMK AO1=
KMVN 080915Z AUTO 00000KT 1SM CLR 22/21 A3004 RMK AO1=
KOKK 080915Z AUTO 15003KT 7SM CLR 22/16 A3005 RMK AO1=
KOLU 080915Z AUTO 33004KT 10SM CLR 16/14 A3017 RMK AO1=
KOTG 080915Z AUTO 27004KT 10SM CLR 14/13 A3014 RMK AO1=
KOTH 080915Z 28003KT 10SM OVC008 10/08 A3000 RMK AO1=
KOXC 080915Z 00000KT 2SM BKN004 22/21 A3008 RMK AO1=
KPIB 080915Z AUTO 36003KT 10SM CLR 23/21 A3003 RMK AO1=
KPNA 080910Z AUTO 28004KT 10SM CLR 07/01 A3039 RMK AO2
     T00670013=
KPQI 080915Z AUTO 15006KT 9SM CLR 21/18 A2999 RMK AO1=
KPTN 080915Z AUTO 08004KT 10SM CLR 24/M09 A3001 RMK AO1=
####018000094####
SAAF36 KWBC 080900 RRA
METAR
HKJK 080900Z 17005KT 9999 BKN090 OVC100 17/14 Q1025 NOSIG=
####018000639####
SAAU31 KWBC 080900 RRB
METAR
YBBN 080900Z 19009KT CAVOK 18/10 Q1020 NOSIG=
YBCS 080900Z 16008KT 9999 FEW024 BKN050 23/19 Q1015 NOSIG=
YBTL 080900Z 10005KT 9999 FEW030 SCT050 BKN170 22/20 Q1016
     NOSIG=
YPAD 080900Z 09005KT CAVOK 09/07 Q1025 NOSIG=
YPDN 080900Z 03011KT CAVOK 27/20 Q1011 NOSIG=
YPPH 080900Z 29011KT 8000 SHRA FEW018 SCT042 BKN065 FEW023TCU
     15/14 Q0999 FM0900 33018G28KT 9999 -SHRA BKN020 INTER
     0900/1200 27025G35KT 3000 +SHRA BKN010=
YSSY 080900Z 23012KT 7000 SHRA FEW006 SCT020 BKN035 12/12 Q1027
     FM0900 19015KT 9999 -SHRA SCT025 BKN040 INTER 0900/1200 5000
     SHRA BKN010=
####018000122####
SAIY40 LIIB 080900 RRC
METAR LIVC 080855Z 03007KT 9999 FEW000 13/11 Q1030 RMK FEW MON LIB
      VAL NIL VIS MIN 9999=
####018000126####
SAIY42 LIIB 080900 RRB
METAR LIRV 080855Z 01004KT 9999 FEW024 26/17 Q1020 RMK FEW MON E SE
      LIB NC VIS MIN 9999 BLU=
####018000103####
SPEE32 KWBC 080916
SPECI
LBPD 080915Z 26004MPS 9999 RA SCT035 SCT050 OVC060 17/13 Q1017
NOSIG=
####018000197####
SAIO31 KWBC 080900 RRC
METAR
FMCH 080900Z 23014KT 9999 FEW023 SCT030 28/19 Q1019 NOSIG=
FMMT 080900Z 22014KT 9999 SCT017 SCT033 24/20 Q1022=
FMNN 080900Z 22008KT 9999 BKN100 28/16 Q1018=
####018000090####
SASA42 KWBC 080900 RRA
METAR
SCSE 080900Z 14002KT CAVOK 06/05 Q1017 NEFO PLAYA SKC=
####018000075####
SASD43 KWBC 080900 RRB
METAR
OEPA 080900Z 33008KT CAVOK 44/04 Q1004=
####018000095####
SAXX62 KWBC 080900 RRA
METAR
RKSM 080900Z 15003KT 9999 FEW030 SCT100 BKN200 26/20 A2977=
####018000094####
SPUS42 KWBC 080916
SPECI
KAMA 080913Z 04009KT 1SM -RA SCT020 BKN055 OVC100 17/16 A3018=
####018000691####
SAXX99 KWBC 080900 RRM
METAR
CMFM 080900Z AUTO 00000KT 18/17 RMK AO1 SLP169 T01760169 53001=
DAAE 080900Z 10006KT CAVOK 27/21 Q1019=
DAUB 080900Z 13013KT CAVOK 33/15 Q1018=
FMMS 080900Z 22021KT 9999 BKN017=
FMNA 080900Z 12023KT 9999 FEW020 29/15 Q1017=
FMSD 080900Z 08008KT 6000 VCSH SCT017 BKN033 19/17 Q1027=
FQNP 080900Z 18009KT 9999 BKN020 SCT100 26/15 Q1025=
GMML 080900Z 02016KT 8000 BKN016 21/15 Q1015=
K4O4 080908Z AUTO 09004KT 7SM SCT001 BKN010 23/22 A3004 RMK
     AO2=
OYAG 080900Z 12008KT 9999 SCT025 BKN070 29/24 Q1002=
OYAT 080900Z VRB02KT CAVOK 37/13 Q1001=
OYRN 080900Z 16012KT 7000 NSC 30/25 Q1002=
OYSY 080900Z VRB03KT 7000 NSC 42/07 Q1003=
####018002233####
SAUS20 KNKA 080915
METAR KPTT 080910Z AUTO 02008KT 7SM SCT003 BKN010 19/18 A3014 RMK 
     AO2=
METAR KPTV 080915Z AUTO 18004KT 10SM CLR 19/12 A2984 RMK AO1=
METAR KPVC 080915Z 18006KT 3SM OVC002 21/19 A3009 RMK AO1=
METAR KPVU 080915Z 17004KT 10SM CLR 17/09 A3012 RMK AO1=
METAR KPWT 080915Z AUTO 04008KT 10SM CLR 23/06 A2997 RMK AO1=
METAR KRKD 080915Z AUTO 19004KT M1/4SM OVC002 18/17 A3009 RMK AO1=
METAR KRUT 080915Z AUTO 13006KT 5SM CLR 21/18 A3005 RMK AO1=
METAR KSDY 080915Z AUTO 24003KT 10SM SCT080 13/09 A3014 RMK AO1=
METAR KSFM 080915Z 00000KT 3/4SM OVC002 21/19 A3008 RMK AO1=
METAR KSFZ 080915Z AUTO 00000KT 10SM OVC010 21/20 A3006 RMK AO1=
METAR KSGT 080915Z 11004KT 10SM CLR A3004 RMK AO1=
METAR KSGU 080915Z AUTO 11003KT 10SM CLR 27/01 A2994 RMK AO1=
METAR KSKX 080915Z AUTO 03004KT 10SM FEW120 12/05 A3038 RMK AO1=
METAR KSLG 080915Z AUTO 18006KT 10SM FEW021 23/21 A3006 RMK AO1=
METAR KSMN 080915Z AUTO 00000KT 10SM CLR 09/02 A3023 RMK AO1=
METAR KSOW 080910Z AUTO 00000KT 10SM FEW036 21/04 A3024 RMK AO2=
METAR KSPA 080915Z AUTO 00000KT 10SM CLR 22/22 A3001 RMK AO2=
METAR KSPL 080915Z AUTO 04007KT 28/25 A2976 RMK AO2 PWINO PNO =
METAR KSQI 080915Z 00000KT 4SM SCT003 OVC065 22/22 A3002 RMK AO1=
METAR KSUE 080915Z AUTO 00000KT 2 1/2SM BKN120 20/19 A2997 RMK AO1=
METAR KSUN 080911Z AUTO 31008G14KT 10SM CLR 12/01 A3023 RMK AO2=
METAR KSZT 080910Z AUTO 00000KT 10SM CLR 10/08 A3010 RMK AO2=
METAR KTIF 080910Z AUTO 00000KT 10SM SCT080 OVC100 16/15 A3024 
     RMK AO2 T01580147=
METAR KTRK 080910Z AUTO 00000KT 10SM CLR 12/08 A3015 RMK AO2=
METAR KTVF 080915Z AUTO 26007KT 10SM CLR 13/11 A3004 RMK AO1=
METAR KUTA 080915Z AUTO 00000KT 10SM SCT045 23/22 A3007 RMK AO2=
METAR KVBT 080915Z AUTO 20003KT 10SM SCT026 BKN035 23/21 A3003 RMK 
    AO1=
METAR KVIS 080915Z AUTO 30004KT 10SM CLR 21/13 A2980 RMK AO1=
SPECI KWST 080914Z AUTO 11005KT 4SM BR OVC002 22/21 A3006 RMK AO2=
METAR KWVL 080915Z AUTO 18004KT 7SM OVC005 21/19 A3004 RMK AO1=
METAR KWWD 080915Z AUTO 10SM SCT120 24/24 A3002 RMK AO1=
METAR KX40 080915Z AUTO 00000KT 5SM BR CLR 22/21 A3000 RMK AO2 
     T02210214=
METAR KYKN 080915Z AUTO 30005KT 10SM CLR 17/15 A3017 RMK AO1=
####018000124####
SAIY40 LIIB 080900 RRC
METAR LIVC 080855Z 03007KT 9999 FEW000 13/11 Q1030 RMK FEW MON LIB
      VAL NIL VIS MIN 9999=
####018000128####
SAIY42 LIIB 080900 RRB
METAR LIRV 080855Z 01004KT 9999 FEW024 26/17 Q1020 RMK FEW MON E SE
      LIB NC VIS MIN 9999 BLU=
####018000096####
SAIY42 LIIB 080900 RRA
METAR LIRU 080850Z VRB01KT 9999 FEW040 30/19 Q1019 RMK VIS MIN 9999=
####018000133####
SAIY40 LIIB 080900 RRD
METAR LIVP 080855Z VRB02KT 3000 0900E FG VV/// 11/09 Q1028 RMK MON
      INVIS VAL INVIS VIS MIN 0900E=
####018000090####
SAIY42 LIIB 080900 RRC
METAR LIRZ 080850Z VRB02KT CAVOK 28/12 Q1021 RMK VIS MIN 9999=
####018000093####
SPAU32 YBBN 080914
SPECI YPPD 080914Z AUTO 05017KT 9999NDV // SCT012 OVC120 23/20 Q1008=
####018000094####
SPUS72 KWBC 080916
SPECI
KAMA 080913Z 04009KT 1SM -RA SCT020 BKN055 OVC100 17/16 A3018=
####018000085####
SPUS72 KWBC 080916
SPECI
KCEW 080913Z AUTO 00000KT 1 1/4SM BR CLR 21/21 A3003=
####018000581####
SAUS20 KNKA 080916
METAR KGTU 080915Z 08005KT 9SM BKN009 BKN017 OVC022 25/22 A3001 RMK 
    AO1=
METAR KHYI 080915Z AUTO 05006KT 9SM BKN018 OVC025 25/24 A2995 RMK 
    AO1=
METAR KILE 080915Z 10008KT 10SM FEW014 SCT023 BKN028 24/22 A2997 RMK 
    AO1=
METAR KOCH 080915Z AUTO 10005KT 10SM CLR 24/19 A3000 RMK AO1=
METAR KPRX 080915Z 11003KT 7SM FEW008 OVC015 24/22 A3002 RMK AO1=
METAR KPWG 080915Z AUTO 10004KT 10SM BKN015 OVC022 25/22 A2998 RMK 
    AO1=
METAR KTPL 080915Z 10005KT 5SM FEW012 SCT016 BKN021 24/23 A2998 RMK 
    AO1 
    WEA:RA P0001=
####018000096####
SPUS81 KWBC 080916
SPECI
KATT 080913Z AUTO 10004KT 10SM BKN012 BKN022 OVC030 26/23 A2997=
####018000181####
SPAU31 AMMC 080916
SPECI YSSY 080913Z 25010KT 9999 VCSH FEW006 SCT045 BKN065 12/11 Q1027
     FM0913 19015KT 9999 -SHRA SCT025 BKN040
     INTER 0913/1213 5000 SHRA BKN010=
####018000187####
SPAU31 AMMC 080916
SPECI YSSY 080913Z 25010KT 9999 VCSH FEW006 SCT045 BKN065 12/11 Q1027
     FM0913 19015KT 9999 -SHRA SCT025 BKN040
     INTER 0913/1213 5000 SHRA BKN010=


####018000394####
SAZZ40 KAWN 080900 RRP
METAR DAAE 080900Z 10006KT CAVOK 27/21 Q1019=
METAR DAUB 080900Z 13013KT CAVOK 33/15 Q1018=
METAR NGFU 080900Z 08005KT 50KM FEW020 29/25 Q1010=
METAR NSFA 080900Z 08006KT 45KM FEW020 26/24 Q1012=
METAR OEPA 080900Z 33008KT CAVOK 44/04 Q1004=
METAR OEYN 080900Z 26006KT CAVOK 41/11 Q1000 NOSIG=
METAR SCSE 080900Z 14002KT CAVOK 06/05 Q1017 NEFO PLAYA SKC=
####018000259####
SAXX70 KAWN 080900 RRL
METAR KQM1 080855Z AUTO 19007KT 160V220 9999 CLR 38/15 A2997 RMK AO2
      SLP074 T03810148 57026 $=
METAR KQFW 080900Z AUTO 18003KT 7SM OVC030 27/19 A2987 RMK A02=
METAR KQEX 080910Z AUTO 02003KT 7SM CLR 29/18 A2973 RMK A02=
####018000347####
SPNA14 KAWN 080916 RRA
SPECI KNSE 080903Z AUTO 00000KT 3/4SM BR CLR 23/21 A3002 RMK AO2 $=
SPECI KPSM 080908Z 14007KT 3SM BR OVC006 22/21 A3006 RMK AO2A=
SPECI KRND 080911Z AUTO 04004KT 10SM BKN009 OVC015 25/23 A2994 RMK
      AO2 SLP127=
SPECI KTIK 080910Z AUTO 33006KT 10SM BKN011 BKN023 OVC055 24/23 A3004
      RMK AO2 SLP159 $=
####018000158####
SAAK41 KNKA 080916
SPECI PATO 080914Z AUTO 11012G37KT 070V150 4SM -RA BR SCT026 OVC034 
    13/11 A3001 RMK AO2 PK WND 11037/0905 P0003 T01330111 TSNO=
####018000073####
SAAL41 DAMM 080900 RRC
METAR DAAV 080900Z 32010KT CAVOK 29/18 Q1019=
####018001100####
SAAU31 AMMC 080900
METAR YBAS 080900Z AUTO 09007KT 9999NDV // NCD 12/06 Q1019=
METAR YBBN 080900Z 19009KT CAVOK 18/10 Q1020
     NOSIG=
METAR YBCS 080900Z 16008KT 9999 FEW024 BKN050 23/19 Q1015
     NOSIG=
METAR YBTL 080900Z 10005KT 9999 FEW030 SCT050 BKN170 22/20 Q1016
     NOSIG=
METAR YMML 080900Z 16005KT 9999 FEW030 BKN042 09/05 Q1028
     NOSIG=
METAR YPAD 080900Z 09005KT CAVOK 09/07 Q1025
     NOSIG=
METAR YPCC NIL=
METAR YPDN 080900Z 03011KT CAVOK 27/20 Q1011
     NOSIG=
METAR YPKU 080900Z AUTO 13005KT 9999NDV // NCD 26/15 Q1013=
METAR YPLM 080900Z AUTO 14003KT 9999NDV // OVC021 21/17 Q1008=
METAR YPPH 080900Z 29011KT 8000 SHRA FEW018 SCT042 BKN065 FEW023TCU
15/14
     Q0999
     FM0900 33018G28KT 9999 -SHRA BKN020
     INTER 0900/1200 27025G35KT 3000 +SHRA BKN010=
METAR YPTN 080900Z 10006KT CAVOK 26/15 Q1013=
METAR YPXM 080900Z AUTO 19004KT 9999NDV // SCT018 25/21 Q////=
METAR YSSY 080900Z 23012KT 7000 SHRA FEW006 SCT020 BKN035 12/12 Q1027
     FM0900 19015KT 9999 -SHRA SCT025 BKN040
     INTER 0900/1200 5000 SHRA BKN010=
####018000204####
SANI20 DNMM 080900
METAR DNIB 080900Z 26005KT 9999 BKN012 26/23 Q1016=
METAR DNMA 080900Z 24006KT 9999 TS FEW012 FEW020CB 26/24 Q1013=
METAR DNAA 080900Z 20003KT 9999 SCT013 26/22 Q1015 NOSIG=

####018000080####
SASD31 OEJD 080900 RRA
METAR OYSN 080900Z 05012KT 3000 DU NSC 31/M04 Q1022=
####018000968####
SAYE20 OYSC 080900
METAR OYAA 080900Z NIL=
METAR OYAG 080900Z 12008KT 9999 SCT025 BKN070 29/24 Q1002=
METAR OYAM 080900Z NIL=
METAR OYAR 080900Z 03008KT 6000 NSC 29/05 Q////=
METAR OYAS 080900Z 18006KT 5000 DU NSC 34/24 Q1006=
METAR OYAT 080900Z VRB02KT CAVOK 37/13 Q1001=
METAR OYDM 080900Z 07014KT 6000 NSC 30/02Q////=
METAR OYHD 080900Z 25009KT 6000 NSC 35/28 Q1002=
METAR OYIB 080900Z 34008KT 5000 DU FEW025 29/15 Q1016=
METAR OYKD 080900Z NIL=
METAR OYMB 080900Z 04025KT 6000 FEW030 40/M02 Q1006=
METAR OYMK 080900Z 00000KT CAVOK 35/27 Q////=
METAR OYMT 080900Z 36004KT 7000 NSC 28/16 Q////=
METAR OYRN 080900Z 16012KT 7000 NSC 30/25 Q1002=
METAR OYSD 080900Z 06010KT 9999FEW030 28/M06 Q////=
METAR OYSH 080900Z 36012KT 2000 DU NSC 33/M01 Q////=
METAR OYSN 080900Z 05012KT 3000 DU NSC 31/M04 Q1022=
METAR OYSQ 080900Z NIL=
METAR OYSY 080900Z VRB03KT 7000 NSC 42/07 Q1003=
METAR OYTZ 080900Z 30012KT 7000 NSC 30/12 Q1010=
####018000087####
SAUS46 KLOX 080916
MTRMWS
METAR KMWS 080900Z 11005G06KT 20/M03 RMK SNOW DEPTH  M
####018001691####
SAUS20 KNKA 080916
METAR K0A9 080915Z AUTO 00000KT 7SM FEW080 20/18 A3011 RMK=
METAR K20V 080916Z AUTO 00000KT 10SM CLR 07/05 A3042 RMK AO2=
METAR K4BM 080914Z AUTO 21003KT 10SM 05/04 A3064 RMK AO2=
METAR K5SM 080912Z AUTO 12005KT 10SM CLR 08/02 A3055 RMK AO2=
METAR K7BM 080916Z AUTO 00000KT 10SM BKN028 OVC095 09/06 A3056 RMK
     AO2=
METAR KBBG 080915Z AUTO 00000KT 3SM BR CLR 22/22 A3006 RMK AO2 =
METAR KBBP 080915Z AUTO 00000KT 10SM CLR 22/20 A2995 RMK AO2=
METAR KBDU 080917Z AUTO 35005KT 10SM CLR 14/12 A3032 RMK AO2=
METAR KBJC 080917Z AUTO 00000KT 3SM BR CLR 13/12 A3033 RMK AO2=
METAR KBKN 080915Z AUTO 01004KT 10SM FEW037 22/22 A3004 RMK AO2 =
METAR KCCU 080916Z AUTO 19022KT 10SM CLR 06/02 A3064 RMK AO2=
METAR KCIC 080915Z AUTO 14008KT 10SM CLR 23/14 A2982 RMK AO1 =
SPECI KELM 080915Z AUTO 00000KT 1 1/4SM BR FEW002 18/17 A3009 RMK 
    AO2=
METAR KGGE 080915Z AUTO 29004KT 10SM CLR 23/22 A2994 RMK AO2=
SPECI KJLN 080915Z 07003KT 1/2SM +RA FG BKN005 BKN017 OVC023 23/23 
    A3004 RMK AO2 P0062=
SPECI KLEB 080915Z AUTO 00000KT 3/4SM BR CLR 21/19 A3005 RMK AO2=
SPECI KMVY 080915Z AUTO 14004KT 1/2SM R24/2000V3500FT FG VV001 21/20 
    A3007 RMK AO2=
METAR KMYP 080816Z AUTO 05011KT M1/4SM +SN OVC001 03/03 A3075 RMK
     AO2=
METAR KNQA 080915Z AUTO 00000KT 10SM CLR 24/23 A3006 RMK=
METAR KRCE 080915Z AUTO 35004KT 6SM BR FEW048 22/22 A3006 RMK AO2 
     =
METAR KSMS 080915Z AUTO 28003KT 10SM CLR 25/19 A2997 RMK AO2 =
METAR KVQQ 080915Z AUTO 00000KT 10SM CLR 17/17 A3000 RMK AO2 =
METAR KVTP 080920Z AUTO 08006KT 1/4SM OVC001 06/05 A3056 RMK AO2=
METAR KWYS 080910Z AUTO 00000KT 10SM CLR 02/00 A3036 RMK AO2=
####018000075####
SPBZ24 SBPK 080915
SPECI SBPK 080915Z 25006KT 9999 SCT020 10/07 Q1019=
####018000208####
SAIN32 VIDP 080900
METAR VIJP 080900Z 14006KT 070V200 4000 HZ FEW030 SCT040 34/25 Q1005
    NOSIG=
METAR VIDP 080900Z 16004KT 3000 HZ SCT030 FEW040CB BKN100 35/25 Q1005
    TEMPO 36030KT 1500 TSRA=
####018003682####
SAUS99 KWBC 080917
METAR
KPTT 080910Z AUTO 02008KT 7SM SCT003 BKN010 19/18 A3014 RMK
     AO2=
KPTV 080915Z AUTO 18004KT 10SM CLR 19/12 A2984 RMK AO1=
KPVC 080915Z 18006KT 3SM OVC002 21/19 A3009 RMK AO1=
KPVU 080915Z 17004KT 10SM CLR 17/09 A3012 RMK AO1=
KPWT 080915Z AUTO 04008KT 10SM CLR 23/06 A2997 RMK AO1=
KRKD 080915Z AUTO 19004KT M1/4SM OVC002 18/17 A3009 RMK AO1=
KRUT 080915Z AUTO 13006KT 5SM CLR 21/18 A3005 RMK AO1=
KSDY 080915Z AUTO 24003KT 10SM SCT080 13/09 A3014 RMK AO1=
KSFM 080915Z 00000KT 3/4SM OVC002 21/19 A3008 RMK AO1=
KSFZ 080915Z AUTO 00000KT 10SM OVC010 21/20 A3006 RMK AO1=
KSGT 080915Z 11004KT 10SM CLR A3004 RMK AO1=
KSGU 080915Z AUTO 11003KT 10SM CLR 27/01 A2994 RMK AO1=
KSKX 080915Z AUTO 03004KT 10SM FEW120 12/05 A3038 RMK AO1=
KSLG 080915Z AUTO 18006KT 10SM FEW021 23/21 A3006 RMK AO1=
KSMN 080915Z AUTO 00000KT 10SM CLR 09/02 A3023 RMK AO1=
KSOW 080910Z AUTO 00000KT 10SM FEW036 21/04 A3024 RMK AO2=
KSPA 080915Z AUTO 00000KT 10SM CLR 22/22 A3001 RMK AO2=
KSPL 080915Z AUTO 04007KT 28/25 A2976 RMK AO2 PWINO PNO=
KSQI 080915Z 00000KT 4SM SCT003 OVC065 22/22 A3002 RMK AO1=
KSUE 080915Z AUTO 00000KT 2 1/2SM BKN120 20/19 A2997 RMK AO1=
KSUN 080911Z AUTO 31008G14KT 10SM CLR 12/01 A3023 RMK AO2=
KSZT 080910Z AUTO 00000KT 10SM CLR 10/08 A3010 RMK AO2=
KTIF 080910Z AUTO 00000KT 10SM SCT080 OVC100 16/15 A3024 RMK AO2
     T01580147=
KTRK 080910Z AUTO 00000KT 10SM CLR 12/08 A3015 RMK AO2=
KTVF 080915Z AUTO 26007KT 10SM CLR 13/11 A3004 RMK AO1=
KUTA 080915Z AUTO 00000KT 10SM SCT045 23/22 A3007 RMK AO2=
KVBT 080915Z AUTO 20003KT 10SM SCT026 BKN035 23/21 A3003 RMK
     AO1=
KVIS 080915Z AUTO 30004KT 10SM CLR 21/13 A2980 RMK AO1=
KWVL 080915Z AUTO 18004KT 7SM OVC005 21/19 A3004 RMK AO1=
KWWD 080915Z AUTO 10SM SCT120 24/24 A3002 RMK AO1=
KX40 080915Z AUTO 00000KT 5SM BR CLR 22/21 A3000 RMK AO2
     T02210214=
KYKN 080915Z AUTO 30005KT 10SM CLR 17/15 A3017 RMK AO1=
KTEW 080913Z AUTO 00000KT 7SM CLR 21/20 A3003 RMK AO2=
KCVH 080910Z AUTO 00000KT 10SM OVC010 13/11 A2993 RMK AO1=
KDYT 080914Z AUTO 26004KT 10SM CLR 20/16 A3003 RMK AO2=
KFSO 080918Z AUTO 00000KT 3SM BR BKN075 23/22 A3001 RMK AO2=
KFBL 080914Z AUTO 30004KT 10SM CLR 18/16 A3009 RMK AO2=
KLYV 080918Z AUTO 00000KT 10SM CLR 14/13 A3015 RMK AO2=
KEFK 080916Z AUTO 20004KT 5SM BR CLR 20/19 A3006 RMK AO2=
KRRT 080914Z AUTO 25005KT 10SM CLR 14/12 A3000 RMK AO2=
KTOB 080915Z AUTO 00000KT 10SM CLR 18/17 A3008 RMK AO2=
KLXL 080914Z AUTO 00000KT 2 1/2SM BR 12/11 A3007 RMK AO2 SKY
     OBSCURED VIS 2V4=
KEVM 080912Z AUTO 26003KT 10SM CLR 15/13 A3002 RMK AO1=
KELO 080913Z AUTO 22003KT 7SM CLR 13/13 A3002 RMK AO2=
KANE 080915Z AUTO 28003KT 10SM 17/16 A3008 RMK AO2=
KROX 080914Z AUTO 23004KT 10SM CLR 15/13 A3000 RMK AO2=
KSYN 080930Z AUTO 00000KT 10SM CLR 18/16 A3006 RMK AO2
     T01760161=
KVVV 080916Z AUTO 27006KT 10SM CLR 16/14 A3011 RMK AO2=
KROS 080915Z AUTO 00000KT 10SM CLR 16/15 A3007 RMK AO2
     T01550147=
KHCD 080912Z AUTO 00000KT 5SM BR CLR 14/13 A3010 RMK AO2
     T01380130=
KSGS 080913Z AUTO 32004KT 10SM CLR 19/16 A3007 RMK AO2
     T01910161=
KMJQ 080912Z AUTO 30004KT 7SM CLR 15/14 A3013 RMK AO2=
KHCO 080914Z AUTO 00000KT 10SM CLR 13/13 A3004 RMK AO2=
KLVN 080908Z AUTO 28004KT 10SM CLR 17/16 A3008 RMK AO2=
KPEX 080913Z AUTO 26004KT 5SM BR CLR 12/12 A3010 RMK AO2
     T01210119=
KJMR 080918Z AUTO 00000KT 10SM CLR 15/13 A3008 RMK AO2=
KJKJ 080914Z AUTO 25003KT 10SM CLR 15/14 A3006 RMK AO2=
KMVE 080914Z AUTO 29004KT 10SM CLR 16/15 A3010 RMK AO2=
KTKC 080913Z AUTO 27004KT 10SM CLR 16/14 A3013 RMK AO2
     T01610135=
####018003380####
SAUS99 KWBC 080917 RRA
METAR
KGYL 080914Z AUTO 00000KT 10SM CLR 15/14 A3009 RMK AO2
     T01520143=
KDXX 080914Z AUTO 00000KT 10SM CLR 14/14 A3011 RMK AO2=
KHZX 080911Z AUTO 00000KT 10SM CLR 11/11 A3007 RMK AO2=
KSAZ 080914Z AUTO 24004KT 10SM CLR 14/14 A3008 RMK AO2=
KONA 080911Z AUTO 30005KT 10SM CLR 20/18 A3001 RMK AO2=
KOVL 080914Z AUTO 29003KT 10SM CLR 13/11 A3010 RMK AO2
     T01270114=
KLJF 080912Z AUTO 27003KT 10SM CLR 17/16 A3011 RMK AO2=
KAEL 080911Z AUTO 30003KT 10SM CLR 17/17 A3009 RMK AO2=
K29G 080914Z AUTO 00000KT 7SM SCT060 20/18 A3009 RMK AO2 T01980182
     PWINO=
KMRT 080913Z AUTO 00000KT 5SM CLR 21/19 A3011 RMK AO2
     T02050190=
KIKW 080914Z AUTO 7SM CLR 22/21 A3000 RMK AO2 T02190208=
KMDS 080905Z AUTO 28004KT 10SM CLR 14/14 A3016 RMK AO2=
KPQN 080913Z AUTO 00000KT 10SM CLR 16/14 A3015 RMK AO2=
KFGN 080914Z AUTO 26008KT 1SM DZ VV007 17/13 A2996 RMK AO2=
KPNM 080913Z AUTO 00000KT 4SM BR CLR 14/14 A3008 RMK AO2=
KPWC 080913Z AUTO 00000KT 3/4SM BR BKN001 10/09 A3008 RMK AO2=
KFFM 080913Z AUTO 19004KT 10SM CLR 14/14 A3007 RMK AO2=
KGDB 080911Z AUTO 22003KT 10SM CLR 14/14 A3013 RMK AO2
     T01380135=
KAIT 080913Z AUTO 00000KT 3/4SM BR VV005 12/11 A3006 RMK AO2=
KGHW 080913Z AUTO 24006KT 10SM CLR 15/13 A3013 RMK AO2=
KMWM 080913Z AUTO 26004KT 10SM CLR 14/14 A3013 RMK AO2=
KULM 080914Z AUTO 30005KT 10SM CLR 15/13 A3011 RMK AO2=
KBBB 080913Z AUTO 00000KT 10SM CLR 14/14 A3011 RMK AO2=
KTWM 080913Z AUTO 29003KT 10SM CLR 16/13 A3001 RMK AO2=
KMGG 080915Z AUTO 27005KT 10SM CLR 16/15 A3009 RMK AO2
     T01610152=
KMOX 080910Z AUTO 24005KT 10SM CLR 16/14 A3007 RMK AO2=
KGTU 080915Z 08005KT 9SM BKN009 BKN017 OVC022 25/22 A3001 RMK
     AO1=
KHYI 080915Z AUTO 05006KT 9SM BKN018 OVC025 25/24 A2995 RMK
     AO1=
KILE 080915Z 10008KT 10SM FEW014 SCT023 BKN028 24/22 A2997 RMK
     AO1=
KOCH 080915Z AUTO 10005KT 10SM CLR 24/19 A3000 RMK AO1=
KPRX 080915Z 11003KT 7SM FEW008 OVC015 24/22 A3002 RMK AO1=
KPWG 080915Z AUTO 10004KT 10SM BKN015 OVC022 25/22 A2998 RMK
     AO1=
KTPL 080915Z 10005KT 5SM FEW012 SCT016 BKN021 24/23 A2998 RMK AO1
     WEA:RA P0001=
K0A9 080915Z AUTO 00000KT 7SM FEW080 20/18 A3011 RMK=
K20V 080916Z AUTO 00000KT 10SM CLR 07/05 A3042 RMK AO2=
K4BM 080914Z AUTO 21003KT 10SM 05/04 A3064 RMK AO2=
K5SM 080912Z AUTO 12005KT 10SM CLR 08/02 A3055 RMK AO2=
K7BM 080916Z AUTO 00000KT 10SM BKN028 OVC095 09/06 A3056 RMK
     AO2=
KBBG 080915Z AUTO 00000KT 3SM BR CLR 22/22 A3006 RMK AO2=
KBBP 080915Z AUTO 00000KT 10SM CLR 22/20 A2995 RMK AO2=
KBDU 080917Z AUTO 35005KT 10SM CLR 14/12 A3032 RMK AO2=
KBJC 080917Z AUTO 00000KT 3SM BR CLR 13/12 A3033 RMK AO2=
KBKN 080915Z AUTO 01004KT 10SM FEW037 22/22 A3004 RMK AO2=
KCCU 080916Z AUTO 19022KT 10SM CLR 06/02 A3064 RMK AO2=
KCIC 080915Z AUTO 14008KT 10SM CLR 23/14 A2982 RMK AO1=
KGGE 080915Z AUTO 29004KT 10SM CLR 23/22 A2994 RMK AO2=
KMYP 080816Z AUTO 05011KT M1/4SM +SN OVC001 03/03 A3075 RMK
     AO2=
KNQA 080915Z AUTO 00000KT 10SM CLR 24/23 A3006 RMK=
KRCE 080915Z AUTO 35004KT 6SM BR FEW048 22/22 A3006 RMK AO2=
KSMS 080915Z AUTO 28003KT 10SM CLR 25/19 A2997 RMK AO2=
KVQQ 080915Z AUTO 00000KT 10SM CLR 17/17 A3000 RMK AO2=
KVTP 080920Z AUTO 08006KT 1/4SM OVC001 06/05 A3056 RMK AO2=
KWYS 080910Z AUTO 00000KT 10SM CLR 02/00 A3036 RMK AO2=
####018000544####
SPUS99 KWBC 080917
SPECI
KWST 080914Z AUTO 11005KT 4SM BR OVC002 22/21 A3006 RMK AO2=
PATO 080914Z AUTO 11012G37KT 070V150 4SM -RA BR SCT026 OVC034
     13/11 A3001 RMK AO2 PK WND 11037/0905 P0003 T01330111
     TSNO=
KELM 080915Z AUTO 00000KT 1 1/4SM BR FEW002 18/17 A3009 RMK
     AO2=
KJLN 080915Z 07003KT 1/2SM +RA FG BKN005 BKN017 OVC023 23/23 A3004
     RMK AO2 P0062=
KLEB 080915Z AUTO 00000KT 3/4SM BR CLR 21/19 A3005 RMK AO2=
KMVY 080915Z AUTO 14004KT 1/2SM R24/2000V3500FT FG VV001 21/20
     A3007 RMK AO2=
####018000074####
SPBZ24 SBPK 080915
SPECI SBPK 080915Z 25006KT 9999 SCT020 10/07 Q1019=
####018000172####
SPAU31 YBBN 080916
SPECI YSSY 080913Z 25010KT 9999 VCSH FEW006 SCT045 BKN065 12/11
Q1027
FM0913 19015KT 9999 -SHRA SCT025 BKN040
INTER 0913/1213 5000 SHRA BKN010=
####018000072####
SAAL33 DAAA 080900 RRC
METAR DAAV 080900Z 32010KT CAVOK 29/18 Q1019=
####018000072####
SAAL41 DAMM 080900 RRC
METAR DAAV 080900Z 32010KT CAVOK 29/18 Q1019=
####018000079####
SASD31 OEJD 080900 RRA
METAR OYSN 080900Z 05012KT 3000 DU NSC 31/M04 Q1022=
####018000173####
SPAU31 KWBC 080917
SPECI
YSSY 080913Z 25010KT 9999 VCSH FEW006 SCT045 BKN065 12/11 Q1027
FM0913 19015KT 9999 -SHRA SCT025 BKN040 INTER 0913/1213 5000 SHRA
BKN010=
####018000077####
SPBZ42 KWBC 080917
SPECI
SBPK 080915Z 25006KT 9999 SCT020 10/07 Q1019=
####018000077####
SPBZ43 KWBC 080917
SPECI
SBPL 080915Z 12010KT 9999 FEW020 20/19 Q1018=
####018000100####
SPCN31 CWAO 080915
SPECI CYZV 080915Z 10002KT 1/2SM R09/3000FT/N -DZ FG OVC002 RMK
FG2ST6=

####018000085####
SPUS51 KWBC 080917
SPECI
KGFL 080914Z AUTO 00000KT 1/4SM FG VV019 20/20 A3002=
####018000808####
SAUS20 KNKA 080917
METAR K04W 080914Z AUTO 00000KT 10SM CLR 16/16 A3006 RMK AO2 
     T01600155=
METAR K21D 080918Z AUTO 31004KT 10SM CLR 18/16 A3006 RMK AO2=
METAR KBUU 080914Z AUTO 17003KT 7SM -DZ SCT110 21/21 A3000 RMK AO2=
METAR KC29 080915Z AUTO 26003KT 10SM BKN004 21/20 A3001 RMK AO2 
     T02110196=
METAR KD39 080914Z AUTO 00000KT 10SM CLR 16/15 A3010 RMK AO2 
     T01620150=
SPECI KPSM 080908Z 14007KT 3SM BR OVC006 22/21 A3006 RMK AO2A=
METAR KTZR 080916Z AUTO 00000KT 5SM BR CLR 20/19 A3008 RMK AO2=
METAR KY51 080915Z AUTO 29003KT 7SM CLR 20/20 A3003 RMK AO1 
     T01980195=
METAR PAAK 080916Z AUTO 08018G22KT 10SM FEW016 SCT043 BKN070 07/04 
    A2962 RMK AO1 PNO=
METAR PAHP 080916Z AUTO 36009KT 10SM SCT065 BKN075 OVC095 11/08 
    A3006 RMK AO1 PNO TSNO=
####018000075####
SACN50 CWAO 080915
VOY SA 0915 AUTO8 M M M M/12/07/3302/M/M M 27MM=

####018000263####
SACN89 CWAO 080900 RRB
WAY SA 0900 AUTO8 M M M 080/03/01/2904/M/ 2006 37MM=
WBA SA 0900 AUTO8 M M M M/20/19/2004/M/ M 72MM=
WCF SA 0900 AUTO8 M M M 126/17/12/2911/M/ PK WND 2819 0839Z 1001
66MM=
WDV SA 0900 AUTO8 M M M 156/13/13/2403/M/ 7008 40MM=

####018000082####
SACN50 CWAO 080900 RRA
ZKA SA 0900 AUTO8 M M M 176/17/M/1202/M/ 1010 2MMM=

####018000248####
SACN78 CWAO 080900 RRB
TMS SA 0900 AUTO8 M M M 133/19/18/1501/M/ 6015 86MM=
TNK SA 0900 AUTO8 M M M 171/17/16/0000/M/ 6004 32MM=
TPQ SA 0900 AUTO8 M M M 165/20/18/0000/M/ 5001 52MM=
TXR SA 0900 AUTO8 M M M 141/19/19/1403/M/ 6007 45MM=

####018000075####
SACN50 CWAO 080915
VOB SA 0915 AUTO8 M M M M/17/06/0000/M/M M 91MM=

####018000131####
SACN49 CWAO 080900 RRB
METAR CYGW 080900Z 13007KT 12SM FEW030 SCT080 BKN200 15/12 A2988 RMK
SC1AC2CC1 VIA YQB FIC SLP118=

####018000197####
SACN70 CWAO 080900 RRB
PGH SA 0900 AUTO8 M M M 137/14/13/3205/M/ 3004 31MM=
PSU SA 0900 AUTO8 M M M 192/15/14/2903/M/ 1004 91MM=
WSZ SA 0900 AUTO8 M M M 151/13/12/2603/M/0008 1005 21MM=

####018000280####
SACN59 CWAO 080900 RRB
NPK SA 0900 AUTO8 M M M 240/06/05/2402/M/ 8005 24MM=
PBR SA 0900 AUTO8 M M M M/10/M/MMMM/M/ M 1MMM=
PCR SA 0900 AUTO8 M M M M/09/M/MMMM/M/ M 3MMM=
PMR SA 0900 AUTO8 M M M M/12/M/MMMM/M/ M 0MMM=
PRR SA 0900 AUTO8 M M M M/14/M/MMMM/M/M M 0MMM=

####018000240####
SACN97 CWAO 080900 RRB
XGH SA 0900 AUTO8 M M M M/15/15/3105/M/M M 66MM=
XLT SA 0900 AUTO8 M M M 144/18/17/0201/M/M 5001 14MM=
XMD SA 0900 AUTO8 M M M 146/16/12/2808/M/ 5002 24MM=
XMM SA 0900 AUTO8 M M M M/12/10/MMMM/M/ M 49MM=

####018000075####
SACN50 CWAO 080915
VOC SA 0915 AUTO8 M M M M/13/09/0000/M/M M 86MM=

####018000083####
SACN66 CWAO 080900 RRA
WIK SA 0900 AUTO8 M M M 185/11/10/2402/M/ 8001 59MM=

####018000075####
SPCN44 CWAO 080916
SPECI CYUS 080916Z AUTO ///// 9SM CLR 10/ A2980=

####018000303####
SACN95 CWAO 080900 RRB
WTA SA 0900 AUTO8 M M M 157/26/21/1803/M/ 3001 63MM=
WUS SA 0900 AUTO8 M M M 179/18/06/2704/M/ 1011 81MM=
WUX SA 0900 AUTO7 M M M 148/19/18/0000/M/ 8002 64MM=
WVV SA 0900 AUTO8 M M M 149/20/07/2701/M/ 1006 46MM=
WWP SA 0900 AUTO8 M M M 177/11/09/2903/M/ 2003 08MM=

####018000084####
SACN90 CWAO 080700 RRH
WGH SA 0700 AUTO8 M M M 155/22/22/2202/M/M 8001 86MM=

####018000730####
SACN88 CWAO 080900 RRB
AAW SA 0900 AUTO8 M M M 204/16/16/1704/M/ 2013 97MM=
ACP SA 0900 AUTO8 M M M 205/15/15/2102/M/ 3007 99MM=
ACQ SA 0900 AUTO8 M M M 160/20/18/2307/M/ 3009 23MM=
ADS SA 0900 AUTO8 M M M 224/11/10/1105/M/ 2005 64MM=
AHR SA 0900 AUTO8 M M M 180/19/17/2111+17/M/ PK WND 2117 0856Z 3003
59MM=
AJT SA 0900 AUTO8 M M M 179/17/15/0603/M/ 6004 10MM=
AMS SA 0900 AUTO8 M M M 194/18/18/2310+17/M/ PK WND 2417 0854Z 3007
86MM=
AQY SA 0900 AUTO8 M M M 195/17/16/2306/M/ 3003 00MM=
WSS SA 0900 AUTO8 M M M 183/18/18/1901/M/ 0002 46MM=
WZF SA 0900 AUTO8 M M M M/21/20/1502/M/M M 47MM=
XNP SA 0900 AUTO8 M M M 188/18/17/1909/M/ 5001 40MM=
ZDB SA 0900 AUTO8 M M M 197/17/16/1501/M/ 3002 72MM=

####018000075####
SACN50 CWAO 080915
VOF SA 0915 AUTO8 M M M M/14/06/3603/M/M M 61MM=

####018000075####
SACN50 CWAO 080915
VOV SA 0915 AUTO8 M M M M/12/07/0201/M/M M 77MM=

####018000194####
SACN94 CWAO 080900 RRB
WQL SA 0900 AUTO8 M M M 198/13/11/2503/M/ 6001 65MM=
WRD SA 0900 AUTO8 M M M 175/11/10/0000/M/M 1001 76MM=
WSG SA 0900 AUTO7 M M M 169/12/12/1102/M/ 3007 20MM=

####018000075####
SACN50 CWAO 080915
WHC SA 0915 AUTO8 M M M M/19/12/MMMM/M/M M 34MM=

####018000195####
SACN90 CWAO 080900 RRB
WEW SA 0900 AUTO8 M M M 157/23/22/2502/M/ 3002 90MM=
WFO SA 0900 AUTO8 M M M 146/13/09/2805/M/M 7002 30MM=
WGH SA 0900 AUTO8 M M M 153/21/21/2303/M/M 7003 44MM=

####018000121####
SACN47 CWAO 080900 RRB
METAR CYGP 080900Z 07003KT 15SM FEW006 BKN100 16/15 A2999 RMK ST1AC5
VIA YQB FIC SLP156=

####018000243####
SACN93 CWAO 080900 RRB
WNC SA 0900 AUTO8 M M M 155/22/22/3602/M/ 5005 99MM=
WOK SA 0900 AUTO8 M M M 200/12/10/1902/M/ 3002 14MM=
WOW SA 0900 AUTO8 M M M M/20/19/3101/M/ M 71MM=
WPG SA 0900 AUTO8 M M M 161/16/13/2905/M/ 3005 88MM=

####018000193####
SACN92 CWAO 080900 RRB
WKG SA 0900 AUTO8 M M M 214/17/17/2201/M/ 3008 41MM=
WLE SA 0900 AUTO8 M M M 209/11/11/1602/M/ 0003 21MM=
WLJ SA 0900 AUTO8 M M M 181/09/08/2406/M/ 8003 01MM=

####018000312####
SACN91 CWAO 080900 RRB
WGR SA 0900 AUTO8 M M M 165/19/16/2212/M/ 1004 32MM=
WID SA 0900 AUTO8 M M M 146/15/13/3003/M/M M000 96MM=
WIG SA 0900 AUTO8 M M M M/M/M/0306/M/M M MMMM=
WII SA 0900 AUTO8 M M M M/18/13/3215/M/M PK WND 3219 0859Z M 24MM=
WIY SA 0900 AUTO8 M M M 157/21/20/1705/M/ 3003 99MM=

####018000272####
SACN63 CWAO 080900 RRA
NVQ SA 0900 AUTO8 M M M 142/11/09/0303/M/0013 0001 74MM=
ZEV SA 0900 AUTO8 M M M 181/07/03/3210/M/ PK WND 3219 0816Z 3012
53MM=
ZHY SA 0900 AUTO8 M M M 140/16/13/3602/M/ 1001 57MM=
ZSM SA 0900 AUTO8 M M M 130/10/08/2302/M/ 6002 42MM=

####018000077####
SACN59 CWAO 080800 RRL
PBH SA 0800 AUTO8 M M M M/09/M/MMMM/M/ M 1MMM=

####018000075####
SACN50 CWAO 080915
VOU SA 0915 AUTO8 M M M M/17/10/2601/M/M M 42MM=

####018000083####
SACN82 CWAO 080900 RRB
WDM SA 0900 AUTO8 M M M 190/08/07/0505/M/ 5000 14MM=

####018000078####
SACN93 CWAO 080800 RRI
WOW SA 0800 AUTO8 M M M M/20/19/2301/M/ M 04MM=

####018000084####
SACN90 CWAO 080800 RRH
WGH SA 0800 AUTO8 M M M 154/21/21/2102/M/M 8002 11MM=

####018000075####
SACN50 CWAO 080915
VOK SA 0915 AUTO8 M M M M/15/06/0502/M/M M 92MM=

####018000448####
SACN96 CWAO 080900 RRB
WXZ SA 0900 AUTO8 M M M 151/17/16/1901/M/0138 PCPN 11.0MM PAST HR
/R+14/ 3002 20MM=
WYE SA 0900 AUTO8 M M M 180/11/09/2202/M/ 5000 23MM=
WZE SA 0900 AUTO8 M M M M/12/12/2905/M/ M 35MM=
WZT SA 0900 AUTO8 M M M M/10/M/MMMM/M/ M 8MMM=
XHM SA 0900 AUTO8 M M M M/23/21/2703/M/ M 65MM=
XKA SA 0900 AUTO8 M M M 116/19/16/2303/M/ 6012 93MM=
ZUG SA 0900 AUTO8 M M M M/17/12/3212+18/M/ PK WND 3118 0859Z M
10MM=

####018000075####
SACN50 CWAO 080915
VOD SA 0915 AUTO8 M M M M/11/04/0602/M/M M 32MM=

####018000075####
SACN94 CWAO 080915
WSK SA 0915 AUTO8 M M M M/16/10/3602/M/M M 34MM=

####018000083####
SACN87 CWAO 080900 RRA
WJD SA 0900 AUTO8 M M M 135/11/10/2904/M/ 4000 30MM=

####018000075####
SACN50 CWAO 080915
VWB SA 0915 AUTO8 M M M M/17/04/MMMM/M/M M 81MM=

####018000134####
SACN88 CWAO 080800 RRI
AHR SA 0800 AUTO8 M M M 178/19/17/2010/M/ 3001 99MM=
WZF SA 0800 AUTO8 M M M M/21/20/1902/M/M M 15MM=

####018000074####
SACN50 CWAO 080915
VOJ SA 0915 AUTO8 M M M M/17/M/0402/M/M M 9MMM=

####018000298####
SACN98 CWAO 080900 RRB
XDK SA 0900 AUTO8 M M M 157/14/11/0901/M/ 1016 41MM=
XKI SA 0900 AUTO8 M M M 139/21/20/MMMM/M/ 6010 78MM=
XRB SA 0900 AUTO8 M M M 086/09/01/1508/M/ 8009 40MM=
ZTB SA 0900 AUTO8 M M M 149/18/16/3102/M/ 6005 98MM=
ZZJ SA 0900 AUTO8 M M M M/10/06/MMMM/M/ M 78MM=

####018000085####
SAEW KAWN 080900 RRH
METAR LFBT 080900Z 04004KT 340V090 CAVOK 30/17 Q1018 NOSIG=
####018000262####
SAXN17 KAWN 080900 RRF
METAR NCRG 080900Z 07003KT 9999 SCT014 BKN290 25/24 Q1018=
METAR NFTF 080900Z 19004KT 9999 FEW015 20/19 Q1015=
METAR SKCG 080900Z VRB02KT 9999 FEW012 BKN070 26/25 A2987=
METAR SKCL 080900Z 00000KT 9999 FEW025 BKN090 20/19 A2999=
####018001676####
SPZZ40 KAWN 080917 RRC
SPECI CWZZ 080912Z AUTO ///// 0SM OVC023 OVC037 OVC069 10/ A2980=
SPECI CYPH 080912Z AUTO 24015G21KT 5/8SM OVC002 05/05 A2979=
SPECI CYUA 080913Z AUTO 27006KT 3SM -UP OVC006 05/ A3008=
SPECI CYZV 080915Z 10002KT 1/2SM R09/3000FT/N -DZ FG OVC002 RMK FG2ST6=
SPECI KFCS 080911Z AUTO 23009KT 10SM SCT023 BKN031 OVC060 14/11 A3037
      RMK AO2 SLP213=
SPECI KNFG 080913Z AUTO 00000KT 10SM OVC013 16/13 A2990 RMK AO2 TSNO=
SPECI KSKF 080915Z 04005KT 9SM -RA BKN012 OVC017 26/ A2993 RMK AO2A
      RAB0909DZB0910E0912 BKN V OVC SLP124 $=
SPECI KVBG 080913Z AUTO 34004KT 10SM BKN006 12/11 A2993 RMK AO2 TSNO
      $=
SPECI LBGO 080913Z 00000MPS 3700 RA SCT015 BKN025 OVC040 15/14 Q1017
      NOSIG=
SPECI LBPD 080915Z 26004MPS 9999 RA SCT035 SCT050 OVC060 17/13 Q1017
      NOSIG=
SPECI MDST 080910Z VRB03KT 3000 BR SCT016 22/22 Q1014 BR/ALL QDS=
PACZ SP 0915 AWOS MM 10 50/47/0503/006=
PAEH SP 0915 AWOS M16 BKN 10 48/-20/0000/000=
PAIM SP 0915 AWOS CLR BLO 120 10 54/45/3204/009=
PALU SP 0915 AWOS CLR BLO 120 10 54/36/2217/011=
PASV SP 0915 AWOS 80 SCT 110 SCT 10 49/46/2903/997=
PATL SP 0915 AWOS CLR BLO 120 10 60/43/0104/000=
SPECI PGUA 080913Z AUTO 09013KT 10SM SCT018 BKN025 27/ A2989 RMK AO2
      CIG 025V030 BKN V SCT CIG 017 RWY24L SLP102 VISNO RWY24L $=
SPECI SBPK 080915Z 25006KT 9999 SCT020 10/07 Q1019=
SPECI SBPL 080915Z 12010KT 9999 FEW020 20/19 Q1018=
SPECI YPPD 080914Z AUTO 05017KT 9999NDV // SCT012 OVC120 23/20 Q1008=
SPECI YSSY 080913Z 25010KT 9999 VCSH FEW006 SCT045 BKN065 12/11 Q1027
      FM0913 19015KT 9999 -SHRA SCT025 BKN040 INTER 0913/1213 5000
      SHRA BKN010=
####018000103####
SPCN43 CWAO 080916
SPECI CYPY 080916Z AUTO 28002KT 2SM CLR 12/12 A2992 RMK VSBY VRBL
0.5V9.+=

####018000082####
SPCN48 CWAO 080916
SPECI CYPH 080916Z AUTO 23016KT 1SM OVC002 05/05 A2979=

####018003716####
SAUS90 KWBC 080918
METAR KTEW 080913Z AUTO 00000KT 7SM CLR 21/20 A3003 RMK AO2=
METAR KCVH 080910Z AUTO 00000KT 10SM OVC010 13/11 A2993 RMK
     AO1=
METAR KDYT 080914Z AUTO 26004KT 10SM CLR 20/16 A3003 RMK AO2=
METAR KFSO 080918Z AUTO 00000KT 3SM BR BKN075 23/22 A3001 RMK
     AO2=
METAR KFBL 080914Z AUTO 30004KT 10SM CLR 18/16 A3009 RMK AO2=
METAR KLYV 080918Z AUTO 00000KT 10SM CLR 14/13 A3015 RMK AO2=
METAR KEFK 080916Z AUTO 20004KT 5SM BR CLR 20/19 A3006 RMK AO2=
METAR KRRT 080914Z AUTO 25005KT 10SM CLR 14/12 A3000 RMK AO2=
METAR KTOB 080915Z AUTO 00000KT 10SM CLR 18/17 A3008 RMK AO2=
METAR KLXL 080914Z AUTO 00000KT 2 1/2SM BR 12/11 A3007 RMK AO2 SKY
     OBSCURED VIS 2V4=
METAR KEVM 080912Z AUTO 26003KT 10SM CLR 15/13 A3002 RMK AO1=
METAR KELO 080913Z AUTO 22003KT 7SM CLR 13/13 A3002 RMK AO2=
METAR KANE 080915Z AUTO 28003KT 10SM 17/16 A3008 RMK AO2=
METAR KROX 080914Z AUTO 23004KT 10SM CLR 15/13 A3000 RMK AO2=
METAR KSYN 080930Z AUTO 00000KT 10SM CLR 18/16 A3006 RMK AO2
     T01760161=
METAR KVVV 080916Z AUTO 27006KT 10SM CLR 16/14 A3011 RMK AO2=
METAR KROS 080915Z AUTO 00000KT 10SM CLR 16/15 A3007 RMK AO2
     T01550147=
METAR KHCD 080912Z AUTO 00000KT 5SM BR CLR 14/13 A3010 RMK AO2
     T01380130=
METAR KSGS 080913Z AUTO 32004KT 10SM CLR 19/16 A3007 RMK AO2
     T01910161=
METAR KMJQ 080912Z AUTO 30004KT 7SM CLR 15/14 A3013 RMK AO2=
METAR KHCO 080914Z AUTO 00000KT 10SM CLR 13/13 A3004 RMK AO2=
METAR KLVN 080908Z AUTO 28004KT 10SM CLR 17/16 A3008 RMK AO2=
METAR KPEX 080913Z AUTO 26004KT 5SM BR CLR 12/12 A3010 RMK AO2
     T01210119=
METAR KJMR 080918Z AUTO 00000KT 10SM CLR 15/13 A3008 RMK AO2=
METAR KJKJ 080914Z AUTO 25003KT 10SM CLR 15/14 A3006 RMK AO2=
METAR KMVE 080914Z AUTO 29004KT 10SM CLR 16/15 A3010 RMK AO2=
METAR KTKC 080913Z AUTO 27004KT 10SM CLR 16/14 A3013 RMK AO2
     T01610135=
METAR KGYL 080914Z AUTO 00000KT 10SM CLR 15/14 A3009 RMK AO2
     T01520143=
METAR KDXX 080914Z AUTO 00000KT 10SM CLR 14/14 A3011 RMK AO2=
METAR KHZX 080911Z AUTO 00000KT 10SM CLR 11/11 A3007 RMK AO2=
METAR KSAZ 080914Z AUTO 24004KT 10SM CLR 14/14 A3008 RMK AO2=
METAR KONA 080911Z AUTO 30005KT 10SM CLR 20/18 A3001 RMK AO2=
METAR KOVL 080914Z AUTO 29003KT 10SM CLR 13/11 A3010 RMK AO2
     T01270114=
METAR KLJF 080912Z AUTO 27003KT 10SM CLR 17/16 A3011 RMK AO2=
METAR KAEL 080911Z AUTO 30003KT 10SM CLR 17/17 A3009 RMK AO2=
METAR K29G 080914Z AUTO 00000KT 7SM SCT060 20/18 A3009 RMK AO2
     T01980182 PWINO=
METAR KMRT 080913Z AUTO 00000KT 5SM CLR 21/19 A3011 RMK AO2
     T02050190=
METAR KIKW 080914Z AUTO 7SM CLR 22/21 A3000 RMK AO2 T02190208=
METAR KMDS 080905Z AUTO 28004KT 10SM CLR 14/14 A3016 RMK AO2=
METAR KPQN 080913Z AUTO 00000KT 10SM CLR 16/14 A3015 RMK AO2=
METAR KFGN 080914Z AUTO 26008KT 1SM DZ VV007 17/13 A2996 RMK
     AO2=
METAR KPNM 080913Z AUTO 00000KT 4SM BR CLR 14/14 A3008 RMK AO2=
METAR KPWC 080913Z AUTO 00000KT 3/4SM BR BKN001 10/09 A3008 RMK
     AO2=
METAR KFFM 080913Z AUTO 19004KT 10SM CLR 14/14 A3007 RMK AO2=
METAR KGDB 080911Z AUTO 22003KT 10SM CLR 14/14 A3013 RMK AO2
     T01380135=
METAR KAIT 080913Z AUTO 00000KT 3/4SM BR VV005 12/11 A3006 RMK
     AO2=
METAR KGHW 080913Z AUTO 24006KT 10SM CLR 15/13 A3013 RMK AO2=
METAR KMWM 080913Z AUTO 26004KT 10SM CLR 14/14 A3013 RMK AO2=
METAR KULM 080914Z AUTO 30005KT 10SM CLR 15/13 A3011 RMK AO2=
METAR KBBB 080913Z AUTO 00000KT 10SM CLR 14/14 A3011 RMK AO2=
METAR KTWM 080913Z AUTO 29003KT 10SM CLR 16/13 A3001 RMK AO2=
METAR KMGG 080915Z AUTO 27005KT 10SM CLR 16/15 A3009 RMK AO2
     T01610152=
METAR KMOX 080910Z AUTO 24005KT 10SM CLR 16/14 A3007 RMK AO2=
####018000082####
SAUS90 KWBC 080900 RRG
METAR KMWS 080900Z 11005G06KT 20/M03 RMK SNOW DEPTH M=
####018002793####
SAAK41 KNKA 080917
METAR PAAK 080916Z AUTO 08018G22KT 10SM FEW016 SCT043 BKN070 07/04 
    A2962 RMK AO1 PNO=
METAR PABL 080916Z AUTO 32007KT 10SM CLR 11/07 A3016 RMK AO1 PNO=
METAR PABV 080916Z AUTO 00000KT 10SM CLR 12/09 RMK AO1 PNO=
METAR PADK 080916Z 05012KT 9SM FEW017 SCT023 BKN029 07/06 A2958 RMK 
    AO1 PNO=
METAR PADL 080916Z 32006KT 10SM BKN070 11/08 A2998 RMK AO1 PNO TSNO=
METAR PAEM 080916Z AUTO 34003KT 10SM OVC110 12/08 A3005 RMK AO1 PNO=
METAR PAFE 080916Z AUTO 06003KT 10SM CLR 11/09 A3018 RMK AO1 PNO=
METAR PAFM 080916Z AUTO 00000KT 10SM CLR 15/09 A3011 RMK AO1 PNO=
METAR PAGL 080916Z AUTO 36007KT 10SM CLR 14/09 A3014 RMK AO1 PNO=
METAR PAGS 080916Z AUTO 00000KT 10SM CLR 11/09 A3019 RMK AO1 PNO=
METAR PAHP 080916Z AUTO 36009KT 10SM SCT065 BKN075 OVC095 11/08 
    A3006 RMK AO1 PNO TSNO=
METAR PAHY 080916Z AUTO 36005KT 10SM CLR 17/11 A3012 RMK AO1 PNO=
METAR PAII 080916Z AUTO 36004KT 10SM OVC055 11/08 A2997 RMK AO1 PNO=
METAR PAIN 080916Z AUTO 00000KT 10SM CLR 09/06 A3008 RMK AO1 PNO=
METAR PAJC 080916Z AUTO 00000KT 10SM BKN017 OVC023 08/04 A2995 RMK 
    AO1 PNO=
METAR PAKK 080916Z AUTO 01010G15KT 10SM CLR 14/08 A3006 RMK AO1 PNO=
METAR PAKP 080916Z AUTO 00000KT 8SM BKN037 10/04 A3012 RMK AO1=
METAR PAMD 080916Z AUTO 09020G23KT 5SM SCT006 BKN015 OVC023 09/08 
    A3002 RMK AO1 PNO=
METAR PAMH 080916Z 00000KT 10SM CLR 15/06 A2999 RMK AO1 PNO=
METAR PAMM 080916Z AUTO 00000KT 10SM CLR 19/11 A3009 RMK AO1 PNO=
METAR PAMY 080916Z 29007KT 7SM FEW002 BKN050 OVC070 05/04 A3006 RMK 
    AO1=
METAR PANI 080916Z AUTO 00000KT 10SM SCT100 11/08 A3001 RMK AO1 PNO=
METAR PANV 080916Z AUTO 27005KT 10SM OVC085 14/08 A3000 RMK AO1 PNO=
METAR PAPG 080916Z 02005KT 10SM CLR 13/10 A3013 RMK AO1 
      PNO=
METAR PAPH 080916Z AUTO 07004KT 10SM CLR 05/04 A2996 RMK AO1 PNO=
METAR PAPO 080916Z AUTO 12007KT 10SM CLR 05/03 A3013 RMK AO1 PNO=
METAR PARC 080916Z AUTO 00000KT 10SM SCT049 OVC060 11/02 A3004 RMK 
    AO1 PNO=
METAR PASA 080916Z AUTO 06004KT 10SM CLR 06/03 A3020 RMK AO1 PNO=
METAR PASD 080916Z AUTO 00000KT 10SM BKN044 08/06 A2995 RMK AO1 PNO=
METAR PASH 080916Z AUTO 00000KT 10SM CLR 06/05 A3019 RMK AO1 PNO=
METAR PASK 080916Z 28008KT 10SM CLR 13/07 A3011 RMK AO1 PNO=
METAR PASL 080916Z AUTO 00000KT 10SM OVC100 11/08 A3001 RMK AO1 PNO=
METAR PASM 080916Z AUTO 03003KT 10SM FEW065 OVC100 09/08 A3006 RMK 
    AO1 PNO=
METAR PAUN 080916Z AUTO 12005KT 10SM CLR 13/05 A3002 RMK AO1 PNO=
METAR PAVD 080916Z 10003KT 10SM OVC090 10/08 A3009 RMK AO1 
      PNO=
METAR PAWG 080916Z AUTO 31004KT 10SM CLR 14/11 A3013 RMK AO1 PNO=
METAR PAWS 080916Z AUTO 00000KT 10SM OVC090 12/09 A3001 RMK AO1 PNO=
METAR PAZK 080916Z AUTO 05008KT 10SM BKN110 09/03 A3009 RMK AO1 PNO=
####018000108####
SAUS45 KBOU 080917
MTRABH
SPECI KABH 080916Z AUTO 23005KT 10SM FEW005 OVC085 13/12 A3038 RMK 
AO2 $
####018000106####
SPCN43 CWAO 080916
SPECI CYZH 080916Z AUTO 15004KT 050V170 9SM FEW035 FEW042 FEW083
16/13 A3004=

####018000088####
SPUS99 KWBC 080918
SPECI
KPSM 080908Z 14007KT 3SM BR OVC006 22/21 A3006 RMK AO2A=
####018003219####
SAUS99 KWBC 080918
METAR
K04W 080914Z AUTO 00000KT 10SM CLR 16/16 A3006 RMK AO2
     T01600155=
K21D 080918Z AUTO 31004KT 10SM CLR 18/16 A3006 RMK AO2=
KBUU 080914Z AUTO 17003KT 7SM -DZ SCT110 21/21 A3000 RMK AO2=
KC29 080915Z AUTO 26003KT 10SM BKN004 21/20 A3001 RMK AO2
     T02110196=
KD39 080914Z AUTO 00000KT 10SM CLR 16/15 A3010 RMK AO2
     T01620150=
KTZR 080916Z AUTO 00000KT 5SM BR CLR 20/19 A3008 RMK AO2=
KY51 080915Z AUTO 29003KT 7SM CLR 20/20 A3003 RMK AO1
     T01980195=
PAAK 080916Z AUTO 08018G22KT 10SM FEW016 SCT043 BKN070 07/04 A2962
     RMK AO1 PNO=
PAHP 080916Z AUTO 36009KT 10SM SCT065 BKN075 OVC095 11/08 A3006
     RMK AO1 PNO TSNO=
PAAK 080916Z AUTO 08018G22KT 10SM FEW016 SCT043 BKN070 07/04 A2962
     RMK AO1 PNO=
PABL 080916Z AUTO 32007KT 10SM CLR 11/07 A3016 RMK AO1 PNO=
PABV 080916Z AUTO 00000KT 10SM CLR 12/09 RMK AO1 PNO=
PADK 080916Z 05012KT 9SM FEW017 SCT023 BKN029 07/06 A2958 RMK AO1
     PNO=
PADL 080916Z 32006KT 10SM BKN070 11/08 A2998 RMK AO1 PNO TSNO=
PAEM 080916Z AUTO 34003KT 10SM OVC110 12/08 A3005 RMK AO1 PNO=
PAFE 080916Z AUTO 06003KT 10SM CLR 11/09 A3018 RMK AO1 PNO=
PAFM 080916Z AUTO 00000KT 10SM CLR 15/09 A3011 RMK AO1 PNO=
PAGL 080916Z AUTO 36007KT 10SM CLR 14/09 A3014 RMK AO1 PNO=
PAGS 080916Z AUTO 00000KT 10SM CLR 11/09 A3019 RMK AO1 PNO=
PAHP 080916Z AUTO 36009KT 10SM SCT065 BKN075 OVC095 11/08 A3006
     RMK AO1 PNO TSNO=
PAHY 080916Z AUTO 36005KT 10SM CLR 17/11 A3012 RMK AO1 PNO=
PAII 080916Z AUTO 36004KT 10SM OVC055 11/08 A2997 RMK AO1 PNO=
PAIN 080916Z AUTO 00000KT 10SM CLR 09/06 A3008 RMK AO1 PNO=
PAJC 080916Z AUTO 00000KT 10SM BKN017 OVC023 08/04 A2995 RMK AO1
     PNO=
PAKK 080916Z AUTO 01010G15KT 10SM CLR 14/08 A3006 RMK AO1 PNO=
PAKP 080916Z AUTO 00000KT 8SM BKN037 10/04 A3012 RMK AO1=
PAMD 080916Z AUTO 09020G23KT 5SM SCT006 BKN015 OVC023 09/08 A3002
     RMK AO1 PNO=
PAMH 080916Z 00000KT 10SM CLR 15/06 A2999 RMK AO1 PNO=
PAMM 080916Z AUTO 00000KT 10SM CLR 19/11 A3009 RMK AO1 PNO=
PAMY 080916Z 29007KT 7SM FEW002 BKN050 OVC070 05/04 A3006 RMK
     AO1=
PANI 080916Z AUTO 00000KT 10SM SCT100 11/08 A3001 RMK AO1 PNO=
PANV 080916Z AUTO 27005KT 10SM OVC085 14/08 A3000 RMK AO1 PNO=
PAPG 080916Z 02005KT 10SM CLR 13/10 A3013 RMK AO1 PNO=
PAPH 080916Z AUTO 07004KT 10SM CLR 05/04 A2996 RMK AO1 PNO=
PAPO 080916Z AUTO 12007KT 10SM CLR 05/03 A3013 RMK AO1 PNO=
PARC 080916Z AUTO 00000KT 10SM SCT049 OVC060 11/02 A3004 RMK AO1
     PNO=
PASA 080916Z AUTO 06004KT 10SM CLR 06/03 A3020 RMK AO1 PNO=
PASD 080916Z AUTO 00000KT 10SM BKN044 08/06 A2995 RMK AO1 PNO=
PASH 080916Z AUTO 00000KT 10SM CLR 06/05 A3019 RMK AO1 PNO=
PASK 080916Z 28008KT 10SM CLR 13/07 A3011 RMK AO1 PNO=
PASL 080916Z AUTO 00000KT 10SM OVC100 11/08 A3001 RMK AO1 PNO=
PASM 080916Z AUTO 03003KT 10SM FEW065 OVC100 09/08 A3006 RMK AO1
     PNO=
PAUN 080916Z AUTO 12005KT 10SM CLR 13/05 A3002 RMK AO1 PNO=
PAVD 080916Z 10003KT 10SM OVC090 10/08 A3009 RMK AO1 PNO=
PAWG 080916Z AUTO 31004KT 10SM CLR 14/11 A3013 RMK AO1 PNO=
PAWS 080916Z AUTO 00000KT 10SM OVC090 12/09 A3001 RMK AO1 PNO=
PAZK 080916Z AUTO 05008KT 10SM BKN110 09/03 A3009 RMK AO1 PNO=
####018000073####
SAAG05 SABM 080900 RRA
METAR SAEZ 080900Z 28005KT CAVOK 03/M00 Q1018=
####018000896####
SACN91 KWBC 080918
METAR CWGR 080900Z AUTO 22012KT 19/16 RMK AO1 SLP165 T01930162
51004=
METAR CWID 080900Z AUTO 30003KT 15/13 RMK AO1 000 SLP146 T01490126=
METAR CWIG 080900Z AUTO 03006KT RMK AO1 =
METAR CWII 080900Z AUTO 32015KT 18/13 RMK AO1 PK WND 32019/0859
T01820134=
METAR CWIY 080900Z AUTO 17005KT 21/20 RMK AO1 SLP157 T02090199
53003=
METAR CWID 080900Z AUTO 30003KT 15/13 RMK AO1 000 SLP146 T01490126=
METAR CWIG 080900Z AUTO 03006KT RMK AO1 =
METAR CWII 080900Z AUTO 32015KT 18/13 RMK AO1 PK WND 32019/0859
T01820134=
METAR CWIY 080900Z AUTO 17005KT 21/20 RMK AO1 SLP157 T02090199
53003=
METAR CWID 080900Z AUTO 30003KT 15/13 RMK AO1 000 SLP146 T01490126=
METAR CWIG 080900Z AUTO 03006KT RMK AO1 =
METAR CWII 080900Z AUTO 32015KT 18/13 RMK AO1 PK WND 32019/0859
T01820134=
METAR CWIY 080900Z AUTO 17005KT 21/20 RMK AO1 SLP157 T02090199
53003=
####018000317####
SACN90 KWBC 080918
METAR CWGH 080700Z AUTO 22002KT 22/22 RMK AO1 SLP155 T02180216
58001=
METAR CWEW 080900Z AUTO 25002KT 23/22 RMK AO1 SLP157 T02290220
53002=
METAR CWGH 080900Z AUTO 23003KT 21/21 RMK AO1 SLP153 T02140214
57003=
METAR CWGH 080800Z AUTO 21002KT 21/21 RMK AO1 SLP154 T02110211
58002=
####018000095####
SACN87 KWBC 080918
METAR CWJD 080900Z AUTO 29004KT 11/10 RMK AO1 SLP135 T01130100
54000=
####018001955####
SACN88 KWBC 080918
METAR CAHR 080800Z AUTO 20010KT 19/17 RMK AO1 SLP178 T01890169
53001=
METAR CAHR 080900Z AUTO 21011G17KT 19/17 RMK AO1 PK WND 21017/0856
SLP180 T01850169 53003=
METAR CXNP 080900Z AUTO 19009KT 18/17 RMK AO1 SLP188 T01840170
55001=
METAR CZDB 080900Z AUTO 15001KT 17/16 RMK AO1 SLP197 T01670162
53002=
METAR CAHR 080900Z AUTO 21011G17KT 19/17 RMK AO1 PK WND 21017/0856
SLP180 T01850169 53003=
METAR CXNP 080900Z AUTO 19009KT 18/17 RMK AO1 SLP188 T01840170
55001=
METAR CZDB 080900Z AUTO 15001KT 17/16 RMK AO1 SLP197 T01670162
53002=
METAR CAHR 080900Z AUTO 21011G17KT 19/17 RMK AO1 PK WND 21017/0856
SLP180 T01850169 53003=
METAR CXNP 080900Z AUTO 19009KT 18/17 RMK AO1 SLP188 T01840170
55001=
METAR CZDB 080900Z AUTO 15001KT 17/16 RMK AO1 SLP197 T01670162
53002=
METAR CAHR 080900Z AUTO 21011G17KT 19/17 RMK AO1 PK WND 21017/0856
SLP180 T01850169 53003=
METAR CXNP 080900Z AUTO 19009KT 18/17 RMK AO1 SLP188 T01840170
55001=
METAR CZDB 080900Z AUTO 15001KT 17/16 RMK AO1 SLP197 T01670162
53002=
METAR CXNP 080900Z AUTO 19009KT 18/17 RMK AO1 SLP188 T01840170
55001=
METAR CZDB 080900Z AUTO 15001KT 17/16 RMK AO1 SLP197 T01670162
53002=
METAR CXNP 080900Z AUTO 19009KT 18/17 RMK AO1 SLP188 T01840170
55001=
METAR CZDB 080900Z AUTO 15001KT 17/16 RMK AO1 SLP197 T01670162
53002=
METAR CXNP 080900Z AUTO 19009KT 18/17 RMK AO1 SLP188 T01840170
55001=
METAR CZDB 080900Z AUTO 15001KT 17/16 RMK AO1 SLP197 T01670162
53002=
METAR CXNP 080900Z AUTO 19009KT 18/17 RMK AO1 SLP188 T01840170
55001=
METAR CZDB 080900Z AUTO 15001KT 17/16 RMK AO1 SLP197 T01670162
53002=
METAR CXNP 080900Z AUTO 19009KT 18/17 RMK AO1 SLP188 T01840170
55001=
METAR CZDB 080900Z AUTO 15001KT 17/16 RMK AO1 SLP197 T01670162
53002=
METAR CXNP 080900Z AUTO 19009KT 18/17 RMK AO1 SLP188 T01840170
55001=
METAR CZDB 080900Z AUTO 15001KT 17/16 RMK AO1 SLP197 T01670162
53002=
####018000317####
SACN95 KWBC 080918
METAR CWTA 080900Z AUTO 18003KT 26/21 RMK AO1 SLP157 T02560213
53001=
METAR CWUS 080900Z AUTO 27004KT 18/06 RMK AO1 SLP179 T01780061
51011=
METAR CWUX 080900Z AUTO 00000KT 19/18 RMK AO1 SLP148 T01860184
58002=
METAR CWVV 080900Z AUTO 27001KT 20/07 RMK AO1 SLP149 T02040066
51006=
####018000835####
SACN85 KWBC 080918
METAR CWSS 080900Z AUTO 19001KT 18/18 RMK AO1 SLP183 T01840176
50002=
METAR CWSS 080900Z AUTO 19001KT 18/18 RMK AO1 SLP183 T01840176
50002=
METAR CWSS 080900Z AUTO 19001KT 18/18 RMK AO1 SLP183 T01840176
50002=
METAR CWSS 080900Z AUTO 19001KT 18/18 RMK AO1 SLP183 T01840176
50002=
METAR CWSS 080900Z AUTO 19001KT 18/18 RMK AO1 SLP183 T01840176
50002=
METAR CWSS 080900Z AUTO 19001KT 18/18 RMK AO1 SLP183 T01840176
50002=
METAR CWSS 080900Z AUTO 19001KT 18/18 RMK AO1 SLP183 T01840176
50002=
METAR CWSS 080900Z AUTO 19001KT 18/18 RMK AO1 SLP183 T01840176
50002=
METAR CWDM 080900Z AUTO 05005KT 08/07 RMK AO1 SLP190 T00810074
55000=
METAR CWSS 080900Z AUTO 19001KT 18/18 RMK AO1 SLP183 T01840176
50002=
METAR CWSS 080900Z AUTO 19001KT 18/18 RMK AO1 SLP183 T01840176
50002=
####018000095####
SACN78 KWBC 080918
METAR CTNK 080900Z AUTO 00000KT 17/16 RMK AO1 SLP171 T01730162
56004=
####018000302####
SACN94 KWBC 080918
METAR CWSG 080900Z AUTO 11002KT 12/12 RMK AO1 SLP169 T01220120
53007=
METAR CWSG 080900Z AUTO 11002KT 12/12 RMK AO1 SLP169 T01220120
53007=
METAR CWSG 080900Z AUTO 11002KT 12/12 RMK AO1 SLP169 T01220120
53007=
METAR CWSK 080915Z AUTO 36002KT 16/10 RMK AO1 T01630104=
####018000287####
SACN96 KWBC 080918
METAR CXHM 080900Z AUTO 27003KT 23/21 RMK AO1 T02260205=
METAR CXKA 080900Z AUTO 23003KT 19/16 RMK AO1 SLP116 T01890163
56012=
METAR CXHM 080900Z AUTO 27003KT 23/21 RMK AO1 T02260205=
METAR CXKA 080900Z AUTO 23003KT 19/16 RMK AO1 SLP116 T01890163
56012=
####018000317####
SACN86 KWBC 080918
METAR CWNC 080900Z AUTO 36002KT 22/22 RMK AO1 SLP155 T02190219
55005=
METAR CWDV 080900Z AUTO 24003KT 13/13 RMK AO1 SLP156 T01340130
57008=
METAR CWDV 080900Z AUTO 24003KT 13/13 RMK AO1 SLP156 T01340130
57008=
METAR CWDV 080900Z AUTO 24003KT 13/13 RMK AO1 SLP156 T01340130
57008=
####018000169####
SACN92 KWBC 080918
METAR CWKG 080900Z AUTO 22001KT 17/17 RMK AO1 SLP214 T01740171
53008=
METAR CWLE 080900Z AUTO 16002KT 11/11 RMK AO1 SLP209 T01120111
50003=
####018000356####
SACN89 KWBC 080918
METAR CWBA 080900Z AUTO 20004KT 20/19 RMK AO1 T01970192=
METAR CWCF 080900Z AUTO 29011KT 17/12 RMK AO1 PK WND 28019/0839
SLP126 T01660116 51001=
METAR CWCF 080900Z AUTO 29011KT 17/12 RMK AO1 PK WND 28019/0839
SLP126 T01660116 51001=
METAR CWCF 080900Z AUTO 29011KT 17/12 RMK AO1 PK WND 28019/0839
SLP126 T01660116 51001=
####018000143####
SAAF05 LFPW 080900 RRA
METAR DNIB 080900Z 26005KT 9999 BKN012 26/23 Q1016=
METAR DNMA 080900Z 24006KT 9999 TS FEW012 FEW020CB 26/24 Q1013=
####018000081####
SPBZ21 SBPB 080915
SPECI SBPB 080915Z 07007KT 9999 SCT020 BKN100 28/23 Q1013=
####018000205####
SACN97 KWBC 080918
METAR CXGH 080900Z AUTO 31005KT 15/15 RMK AO1 T01460146=
METAR CXMD 080900Z AUTO 28008KT 16/12 RMK AO1 SLP146 T01620124
55002=
METAR CXMM 080900Z AUTO 12/10 RMK AO1 T01240099=
####018000084####
SAUS80 KWBC 080900 RRE
METAR
KMWS 080900Z 11005G06KT 20/M03 RMK SNOW DEPTH M=
####018000282####
SAUS80 KWBC 080918
METAR
KSOW 080910Z AUTO 00000KT 10SM FEW036 21/04 A3024 RMK AO2=
K4BM 080914Z AUTO 21003KT 10SM 05/04 A3064 RMK AO2=
KSMS 080915Z AUTO 28003KT 10SM CLR 25/19 A2997 RMK AO2=
PADK 080916Z 05012KT 9SM FEW017 SCT023 BKN029 07/06 A2958 RMK AO1
     PNO=
####018000204####
SAIN32 VIDP 080900
METAR VIJP 080900Z 14006KT 070V200 4000 HZ FEW030 SCT040 34/25 Q1005
    NOSIG=
METAR VIDP 080900Z 16004KT 3000 HZ SCT030 FEW040CB BKN100 35/25 Q1005
    TEMPO 36030KT 1500 TSRA=
####018000120####
SPUS80 KWBC 080918
SPECI
KJLN 080915Z 07003KT 1/2SM +RA FG BKN005 BKN017 OVC023 23/23 A3004
     RMK AO2 P0062=
####018000935####
SPXX60 KWBC 080918
SPECI
KPSM 080908Z 14007KT 3SM BR OVC006 22/21 A3006 RMK AO2A=
KFCS 080911Z AUTO 23009KT 10SM SCT023 BKN031 OVC060 14/11 A3037
     RMK AO2 SLP213=
KNFG 080913Z AUTO 00000KT 10SM OVC013 16/13 A2990 RMK AO2 TSNO=
KSKF 080915Z 04005KT 9SM -RA BKN012 OVC017 26/ A2993 RMK AO2A
     RAB0909DZB0910E0912 BKN V OVC SLP124 $=
KVBG 080913Z AUTO 34004KT 10SM BKN006 12/11 A2993 RMK AO2 TSNO
     $=
PACZ SP 0915 AWOS MM 10 50/47/0503/006=
PAEH SP 0915 AWOS M16 BKN 10 48/-20/0000/000=
PAIM SP 0915 AWOS CLR BLO 120 10 54/45/3204/009=
PALU SP 0915 AWOS CLR BLO 120 10 54/36/2217/011=
PASV SP 0915 AWOS 80 SCT 110 SCT 10 49/46/2903/997=
PATL SP 0915 AWOS CLR BLO 120 10 60/43/0104/000=
PGUA 080913Z AUTO 09013KT 10SM SCT018 BKN025 27/ A2989 RMK AO2 CIG
     025V030 BKN V SCT CIG 017 RWY24L SLP102 VISNO RWY24L $=
KABH 080916Z AUTO 23005KT 10SM FEW005 OVC085 13/12 A3038 RMK AO2
     $=
####018000453####
SPUS70 KWBC 080918
SPECI
KWST 080914Z AUTO 11005KT 4SM BR OVC002 22/21 A3006 RMK AO2=
PATO 080914Z AUTO 11012G37KT 070V150 4SM -RA BR SCT026 OVC034
     13/11 A3001 RMK AO2 PK WND 11037/0905 P0003 T01330111
     TSNO=
KELM 080915Z AUTO 00000KT 1 1/4SM BR FEW002 18/17 A3009 RMK
     AO2=
KLEB 080915Z AUTO 00000KT 3/4SM BR CLR 21/19 A3005 RMK AO2=
KMVY 080915Z AUTO 14004KT 1/2SM R24/2000V3500FT FG VV001 21/20
     A3007 RMK AO2=
####018002946####
SAUS70 KWBC 080918 RRA
METAR
KC29 080915Z AUTO 26003KT 10SM BKN004 21/20 A3001 RMK AO2
     T02110196=
KD39 080914Z AUTO 00000KT 10SM CLR 16/15 A3010 RMK AO2
     T01620150=
KTZR 080916Z AUTO 00000KT 5SM BR CLR 20/19 A3008 RMK AO2=
KY51 080915Z AUTO 29003KT 7SM CLR 20/20 A3003 RMK AO1
     T01980195=
PAAK 080916Z AUTO 08018G22KT 10SM FEW016 SCT043 BKN070 07/04 A2962
     RMK AO1 PNO=
PAHP 080916Z AUTO 36009KT 10SM SCT065 BKN075 OVC095 11/08 A3006
     RMK AO1 PNO TSNO=
PAAK 080916Z AUTO 08018G22KT 10SM FEW016 SCT043 BKN070 07/04 A2962
     RMK AO1 PNO=
PABL 080916Z AUTO 32007KT 10SM CLR 11/07 A3016 RMK AO1 PNO=
PABV 080916Z AUTO 00000KT 10SM CLR 12/09 RMK AO1 PNO=
PADL 080916Z 32006KT 10SM BKN070 11/08 A2998 RMK AO1 PNO TSNO=
PAEM 080916Z AUTO 34003KT 10SM OVC110 12/08 A3005 RMK AO1 PNO=
PAFE 080916Z AUTO 06003KT 10SM CLR 11/09 A3018 RMK AO1 PNO=
PAFM 080916Z AUTO 00000KT 10SM CLR 15/09 A3011 RMK AO1 PNO=
PAGL 080916Z AUTO 36007KT 10SM CLR 14/09 A3014 RMK AO1 PNO=
PAGS 080916Z AUTO 00000KT 10SM CLR 11/09 A3019 RMK AO1 PNO=
PAHP 080916Z AUTO 36009KT 10SM SCT065 BKN075 OVC095 11/08 A3006
     RMK AO1 PNO TSNO=
PAHY 080916Z AUTO 36005KT 10SM CLR 17/11 A3012 RMK AO1 PNO=
PAII 080916Z AUTO 36004KT 10SM OVC055 11/08 A2997 RMK AO1 PNO=
PAIN 080916Z AUTO 00000KT 10SM CLR 09/06 A3008 RMK AO1 PNO=
PAJC 080916Z AUTO 00000KT 10SM BKN017 OVC023 08/04 A2995 RMK AO1
     PNO=
PAKK 080916Z AUTO 01010G15KT 10SM CLR 14/08 A3006 RMK AO1 PNO=
PAKP 080916Z AUTO 00000KT 8SM BKN037 10/04 A3012 RMK AO1=
PAMD 080916Z AUTO 09020G23KT 5SM SCT006 BKN015 OVC023 09/08 A3002
     RMK AO1 PNO=
PAMH 080916Z 00000KT 10SM CLR 15/06 A2999 RMK AO1 PNO=
PAMM 080916Z AUTO 00000KT 10SM CLR 19/11 A3009 RMK AO1 PNO=
PAMY 080916Z 29007KT 7SM FEW002 BKN050 OVC070 05/04 A3006 RMK
     AO1=
PANI 080916Z AUTO 00000KT 10SM SCT100 11/08 A3001 RMK AO1 PNO=
PANV 080916Z AUTO 27005KT 10SM OVC085 14/08 A3000 RMK AO1 PNO=
PAPG 080916Z 02005KT 10SM CLR 13/10 A3013 RMK AO1 PNO=
PAPH 080916Z AUTO 07004KT 10SM CLR 05/04 A2996 RMK AO1 PNO=
PAPO 080916Z AUTO 12007KT 10SM CLR 05/03 A3013 RMK AO1 PNO=
PARC 080916Z AUTO 00000KT 10SM SCT049 OVC060 11/02 A3004 RMK AO1
     PNO=
PASA 080916Z AUTO 06004KT 10SM CLR 06/03 A3020 RMK AO1 PNO=
PASD 080916Z AUTO 00000KT 10SM BKN044 08/06 A2995 RMK AO1 PNO=
PASH 080916Z AUTO 00000KT 10SM CLR 06/05 A3019 RMK AO1 PNO=
PASK 080916Z 28008KT 10SM CLR 13/07 A3011 RMK AO1 PNO=
PASL 080916Z AUTO 00000KT 10SM OVC100 11/08 A3001 RMK AO1 PNO=
PASM 080916Z AUTO 03003KT 10SM FEW065 OVC100 09/08 A3006 RMK AO1
     PNO=
PAUN 080916Z AUTO 12005KT 10SM CLR 13/05 A3002 RMK AO1 PNO=
PAVD 080916Z 10003KT 10SM OVC090 10/08 A3009 RMK AO1 PNO=
PAWG 080916Z AUTO 31004KT 10SM CLR 14/11 A3013 RMK AO1 PNO=
PAWS 080916Z AUTO 00000KT 10SM OVC090 12/09 A3001 RMK AO1 PNO=
PAZK 080916Z AUTO 05008KT 10SM BKN110 09/03 A3009 RMK AO1 PNO=
####018000147####
SAAF31 KWBC 080900 RRB
METAR
DNAA 080900Z 20003KT 9999 SCT013 26/22 Q1015 NOSIG=
DNMA 080900Z 24006KT 9999 TS FEW012 FEW020CB 26/24 Q1013=
####018003711####
SAUS70 KWBC 080918
METAR
KPTT 080910Z AUTO 02008KT 7SM SCT003 BKN010 19/18 A3014 RMK
     AO2=
KPTV 080915Z AUTO 18004KT 10SM CLR 19/12 A2984 RMK AO1=
KPVC 080915Z 18006KT 3SM OVC002 21/19 A3009 RMK AO1=
KPVU 080915Z 17004KT 10SM CLR 17/09 A3012 RMK AO1=
KPWT 080915Z AUTO 04008KT 10SM CLR 23/06 A2997 RMK AO1=
KRKD 080915Z AUTO 19004KT M1/4SM OVC002 18/17 A3009 RMK AO1=
KRUT 080915Z AUTO 13006KT 5SM CLR 21/18 A3005 RMK AO1=
KSDY 080915Z AUTO 24003KT 10SM SCT080 13/09 A3014 RMK AO1=
KSFM 080915Z 00000KT 3/4SM OVC002 21/19 A3008 RMK AO1=
KSFZ 080915Z AUTO 00000KT 10SM OVC010 21/20 A3006 RMK AO1=
KSGT 080915Z 11004KT 10SM CLR A3004 RMK AO1=
KSGU 080915Z AUTO 11003KT 10SM CLR 27/01 A2994 RMK AO1=
KSKX 080915Z AUTO 03004KT 10SM FEW120 12/05 A3038 RMK AO1=
KSLG 080915Z AUTO 18006KT 10SM FEW021 23/21 A3006 RMK AO1=
KSMN 080915Z AUTO 00000KT 10SM CLR 09/02 A3023 RMK AO1=
KSPA 080915Z AUTO 00000KT 10SM CLR 22/22 A3001 RMK AO2=
KSPL 080915Z AUTO 04007KT 28/25 A2976 RMK AO2 PWINO PNO=
KSQI 080915Z 00000KT 4SM SCT003 OVC065 22/22 A3002 RMK AO1=
KSUE 080915Z AUTO 00000KT 2 1/2SM BKN120 20/19 A2997 RMK AO1=
KSUN 080911Z AUTO 31008G14KT 10SM CLR 12/01 A3023 RMK AO2=
KSZT 080910Z AUTO 00000KT 10SM CLR 10/08 A3010 RMK AO2=
KTIF 080910Z AUTO 00000KT 10SM SCT080 OVC100 16/15 A3024 RMK AO2
     T01580147=
KTRK 080910Z AUTO 00000KT 10SM CLR 12/08 A3015 RMK AO2=
KTVF 080915Z AUTO 26007KT 10SM CLR 13/11 A3004 RMK AO1=
KUTA 080915Z AUTO 00000KT 10SM SCT045 23/22 A3007 RMK AO2=
KVBT 080915Z AUTO 20003KT 10SM SCT026 BKN035 23/21 A3003 RMK
     AO1=
KVIS 080915Z AUTO 30004KT 10SM CLR 21/13 A2980 RMK AO1=
KWVL 080915Z AUTO 18004KT 7SM OVC005 21/19 A3004 RMK AO1=
KWWD 080915Z AUTO 10SM SCT120 24/24 A3002 RMK AO1=
KX40 080915Z AUTO 00000KT 5SM BR CLR 22/21 A3000 RMK AO2
     T02210214=
KYKN 080915Z AUTO 30005KT 10SM CLR 17/15 A3017 RMK AO1=
KGTU 080915Z 08005KT 9SM BKN009 BKN017 OVC022 25/22 A3001 RMK
     AO1=
KHYI 080915Z AUTO 05006KT 9SM BKN018 OVC025 25/24 A2995 RMK
     AO1=
KILE 080915Z 10008KT 10SM FEW014 SCT023 BKN028 24/22 A2997 RMK
     AO1=
KOCH 080915Z AUTO 10005KT 10SM CLR 24/19 A3000 RMK AO1=
KPRX 080915Z 11003KT 7SM FEW008 OVC015 24/22 A3002 RMK AO1=
KPWG 080915Z AUTO 10004KT 10SM BKN015 OVC022 25/22 A2998 RMK
     AO1=
KTPL 080915Z 10005KT 5SM FEW012 SCT016 BKN021 24/23 A2998 RMK AO1
     WEA:RA P0001=
K0A9 080915Z AUTO 00000KT 7SM FEW080 20/18 A3011 RMK=
K20V 080916Z AUTO 00000KT 10SM CLR 07/05 A3042 RMK AO2=
K5SM 080912Z AUTO 12005KT 10SM CLR 08/02 A3055 RMK AO2=
K7BM 080916Z AUTO 00000KT 10SM BKN028 OVC095 09/06 A3056 RMK
     AO2=
KBBG 080915Z AUTO 00000KT 3SM BR CLR 22/22 A3006 RMK AO2=
KBBP 080915Z AUTO 00000KT 10SM CLR 22/20 A2995 RMK AO2=
KBDU 080917Z AUTO 35005KT 10SM CLR 14/12 A3032 RMK AO2=
KBJC 080917Z AUTO 00000KT 3SM BR CLR 13/12 A3033 RMK AO2=
KBKN 080915Z AUTO 01004KT 10SM FEW037 22/22 A3004 RMK AO2=
KCCU 080916Z AUTO 19022KT 10SM CLR 06/02 A3064 RMK AO2=
KCIC 080915Z AUTO 14008KT 10SM CLR 23/14 A2982 RMK AO1=
KGGE 080915Z AUTO 29004KT 10SM CLR 23/22 A2994 RMK AO2=
KMYP 080816Z AUTO 05011KT M1/4SM +SN OVC001 03/03 A3075 RMK
     AO2=
KNQA 080915Z AUTO 00000KT 10SM CLR 24/23 A3006 RMK=
KRCE 080915Z AUTO 35004KT 6SM BR FEW048 22/22 A3006 RMK AO2=
KVQQ 080915Z AUTO 00000KT 10SM CLR 17/17 A3000 RMK AO2=
KVTP 080920Z AUTO 08006KT 1/4SM OVC001 06/05 A3056 RMK AO2=
KWYS 080910Z AUTO 00000KT 10SM CLR 02/00 A3036 RMK AO2=
K04W 080914Z AUTO 00000KT 10SM CLR 16/16 A3006 RMK AO2
     T01600155=
K21D 080918Z AUTO 31004KT 10SM CLR 18/16 A3006 RMK AO2=
KBUU 080914Z AUTO 17003KT 7SM -DZ SCT110 21/21 A3000 RMK AO2=
####018000131####
SAAS31 KWBC 080905 RRB
METAR
VIDP 080900Z 16004KT 3000 HZ SCT030 FEW040CB BKN100 35/25 Q1005
     TEMPO 36030KT 1500 TSRA=
####018000237####
SAAW33 KWBC 080900 RRB
METAR
OYAA 080900Z NIL=
OYAR 080900Z 03008KT 6000 NSC 29/05 Q////=
OYHD 080900Z 25009KT 6000 NSC 35/28 Q1002=
OYSN 080900Z 05012KT 3000 DU NSC 31/M04 Q1022=
OYTZ 080900Z 30012KT 7000 NSC 30/12 Q1010=
####018000080####
SPAK32 KWBC 080918
SPECI
PAIM SP 0915 AWOS CLR BLO 120 10 54/45/3204/009=
####018000080####
SPAK32 KWBC 080918
SPECI
PALU SP 0915 AWOS CLR BLO 120 10 54/36/2217/011=
####018000071####
SPAK32 KWBC 080918
SPECI
PACZ SP 0915 AWOS MM 10 50/47/0503/006=
####018000077####
SPAK32 KWBC 080918
SPECI
PAEH SP 0915 AWOS M16 BKN 10 48/-20/0000/000=
####018000083####
SPAK32 KWBC 080918
SPECI
PASV SP 0915 AWOS 80 SCT 110 SCT 10 49/46/2903/997=
####018000080####
SPAK32 KWBC 080918
SPECI
PATL SP 0915 AWOS CLR BLO 120 10 60/43/0104/000=
####018000129####
SACN31 CWAO 080900 CCB
METAR CYUL 080900Z CCA 25004KT 12SM FEW080 25/21 A2999 RMK AC2 TCU
ASOCTD E. VIA YQB FIC SLP155=

####018000091####
SPCA32 KWBC 080918
SPECI
MDST 080910Z VRB03KT 3000 BR SCT016 22/22 Q1014 BR/ALL QDS=
####018000087####
SPPA41 KWBC 080918
SPECI
PGUA 080913Z AUTO 09013KT 10SM SCT018 BKN025 27/ A2989=
####018000097####
SPCN31 KWBC 080918
SPECI
CYZV 080915Z 10002KT 1/2SM R09/3000FT/N -DZ FG OVC002 RMK FG2ST6=
####018000156####
SPPA31 KWBC 080918
SPECI
PGUA 080913Z AUTO 09013KT 10SM SCT018 BKN025 27/ A2989 RMK AO2 CIG
025V030 BKN V SCT CIG 017 RWY24L SLP102 VISNO RWY24L $=
####018000131####
SAUS43 KLSX 080917
MTRCOU
SPECI KCOU 080916Z AUTO 00000KT 9SM SCT003 BKN018 BKN027 23/22 A3005 
RMK AO2 RAE0857 P0000 TSNO
####018000580####
SAXX99 KWBC 080900 RRN
METAR
CYGP 080900Z 07003KT 15SM FEW006 BKN100 16/15 A2999 RMK ST1AC5 VIA
     YQB FIC SLP156=
CYGW 080900Z 13007KT 12SM FEW030 SCT080 BKN200 15/12 A2988 RMK
     SC1AC2CC1 VIA YQB FIC SLP118=
DAAV 080900Z 32010KT CAVOK 29/18 Q1019=
DNIB 080900Z 26005KT 9999 BKN012 26/23 Q1016=
OYAM 080900Z NIL=
OYDM 080900Z 07014KT 6000 NSC 30/02Q////=
OYIB 080900Z 34008KT 5000 DU FEW025 29/15 Q1016=
OYSH 080900Z 36012KT 2000 DU NSC 33/M01 Q////=
OYSQ 080900Z NIL=
VIJP 080900Z 14006KT 070V200 4000 HZ FEW030 SCT040 34/25 Q1005
     NOSIG=
####018001820####
SAUS20 KNKA 080917
METAR K1P1 080915Z AUTO 00000KT M1/4SM FG OVC005 22/20 A3006 RMK 
     AO2 T02150204=
SPECI KASH 080916Z 14005KT 5SM BR FEW008 24/22 A3006 RMK AO2 =
METAR KBVU 080915Z AUTO 00000KT 10SM CLR 26/00 A2985 RMK AO2 =
METAR KCMR 080915Z AUTO 18008KT 10SM BKN110 17/02 A3025 RMK AO1 =
METAR KE80 080915Z AUTO 27005KT 10SM CLR 19/11 A3023 RMK AO2 
     T01850111=
METAR KEDC 080915Z AUTO 08004KT BKN010 BKN015 OVC033 25/25 A2996 
     RMK AO2 =
METAR KEIK 080915Z AUTO 34003KT 7SM SCT070 12/11 A3031 RMK AO2=
SPECI KELD 080916Z AUTO 00000KT 1/4SM FG VV002 23/23 A3003 RMK AO2=
METAR KEOE 080915Z AUTO 22003KT 10SM CLR 22/20 A3003 RMK AO2=
METAR KFMH 080915Z AUTO 16008KT 10SM OVC003 21/20 A3009 RMK AO2 =
METAR KHVS 080915Z AUTO 00000KT 10SM SCT090 25/19 A2997 RMK AO2=
METAR KIFP 080915Z AUTO 00000KT 10SM CLR 29/00 A2972 RMK AO2 =
SPECI KIJD 080916Z AUTO 16003KT 2 1/2SM BR OVC001 23/23 A3005 RMK 
    AO2=
METAR KMAN 080915Z AUTO 11003KT 10SM CLR 14/07 A3004 RMK AO1 =
SPECI KOWD 080916Z AUTO 00000KT 10SM BKN016 21/18 A3006 RMK AO2=
METAR KPVF 080915Z AUTO 00000KT 10SM CLR 22/12 A2994 RMK AO1 =
METAR KRBW 080915Z AUTO 28003KT 10SM CLR 23/20 A2997 RMK AO2=
METAR KRCM 080915Z AUTO 00000KT 3SM RA SCT008 BKN017 OVC065 22/22 
     A3003 RMK AO2 P0008=
METAR KSNC 080915Z AUTO 00000KT M1/4SM  FG OVC001 22/ A3006 RMK AO2
      =
METAR KSRR 080915Z AUTO 21005KT 10SM BKN009 BKN033 BKN065 13/13 
     A3035 RMK AO2 =
SPECI KSTC 080916Z AUTO 00000KT 3/4SM BR CLR 13/12 A3008 RMK AO2=
METAR KTME 080915Z AUTO 05006KT 5SM 25/25 A2992 RMK AO1 =
SPECI KTRL 080916Z AUTO 12005KT 10SM OVC016 27/22 A3001 RMK AO2=
SPECI KTTN 080916Z AUTO 00000KT 5SM BR SCT007 23/21 A3001 RMK AO2 
    PWINO=
METAR KUOX 080915Z AUTO 00000KT 10SM CLR 22/20 A3009 RMK AO2 =
####018000082####
SAUS41 KWBC 080900 RRC
METAR
KPQI 080915Z AUTO 15006KT 9SM CLR 21/18 A2999=
####018000141####
SAUS43 KWBC 080900 RRD
METAR
KCIU 080915Z AUTO 21005KT 7SM FEW090 OVC120 19/18 A2995=
KELO 080913Z AUTO 22003KT 7SM CLR 13/13 A3002=
####018000083####
SAUS44 KWBC 080900 RRD
METAR
KGDV 080915Z AUTO 20003KT 10SM CLR 12/07 A3016=
####018000086####
SAJP36 RJTD 080900 RRC
METAR RJNK 080900Z 35006KT 9000 FEW030 SCT200 26/21 Q1008=
####018000083####
SAUS51 KWBC 080900 RRA
METAR
KMYR 080915Z AUTO 29008KT 10SM CLR 26/19 A2995=
####018000099####
SPUS53 KWBC 080918
SPECI
KJLN 080915Z 07003KT 1/2SM +RA FG BKN005 BKN017 OVC023 23/23 A3004=
####018000429####
SALY31 HLMC 080900
METAR HLLB 080850Z 32018KT CAVOK 30/16 Q1016=
METAR HLLS 080850Z 11O14KT CAVOK  33/11 Q1O17=
METAR HLLT 080850Z 00000KT 7000 SKC 28/19 Q1019=
METAR HLGD 080900Z NIL=
METAR HLGT 080900Z NIL=
METAR HLJA 080900Z NIL=
METAR HLKF 080900Z NIL=
METAR HLKM 080900Z NIL=
METAR HLLM 080900Z NIL=
METAR HLMI 080900Z NIL=
METAR HLNT 080900Z NIL=
METAR HLON 080900Z NIL=
METAR HLTD 080900Z NIL=
####018000073####
SAAL41 DAMM 080900 RRD
METAR DABT 080900Z 36006KT CAVOK 28/11 Q1022=
####018000088####
SAMD90 KWBC 080918
METAR K2G4 080915Z AUTO 00000KT 10SM SCT070 22/13 A3019 RMK AO1=
####018000448####
SAUS53 KWBC 080900 RRE
METAR
KANW 080910Z AUTO 23003KT 10SM OVC110 17/15 A3023=
KBIE 080910Z AUTO 36006KT 10SM CLR 19/18 A3013=
KDVL 080915Z AUTO 24006KT 10SM FEW095 16/12 A3006=
KEAR 080915Z AUTO 32005KT 10SM CLR 15/13 A3023=
KGPZ 080915Z AUTO 19003KT 10SM CLR 14/12 A3005=
KJAC 080915Z AUTO 03006KT 10SM CLR 09/M01 A3034=
KONL 080910Z AUTO 27003KT 10SM SCT090 OVC110 16/15 A3021=
KUDG 080915Z 34004KT 10SM FEW090 24/18 A2998=
####018000170####
SAUS54 KWBC 080900 RRC
METAR
KMWS 080900Z 11005G06KT 20/M03=
KSOW 080910Z AUTO 00000KT 10SM FEW036 21/04 A3024=
KTRK 080910Z AUTO 00000KT 10SM CLR 12/08 A3015=
####018000084####
SAMD90 KWBC 080918
METAR KCBE 080917Z AUTO 00000KT 7SM CLR 21/18 A3010 RMK AO1=
####018000084####
SAMD90 KWBC 080918
METAR K2W6 080917Z AUTO 00000KT 4SM CLR 24/24 A3000 RMK AO1=
####018000094####
SAMD90 KWBC 080918
METAR KFME 080918Z AUTO 00000KT 3SM SCT080 BKN100 20/20 A3002 RMK AO1=
####018000084####
SAMD90 KWBC 080918
METAR KDMW 080916Z AUTO 00000KT 7SM CLR 26/21 A3004 RMK AO2=
####018000100####
SAMD90 KWBC 080918
METAR KCGE 080915Z AUTO 00000KT 2 1/2SM 25/25 A3000 RMK AO1 SKY 
OBSCURED=
####018000091####
SAMD90 KWBC 080918
METAR KESN 080921Z AUTO 00000KT 2 1/2SM BR CLR 23/23 A3003 RMK AO2=
####018000084####
SAMD90 KWBC 080918
METAR KCGS 080920Z AUTO 00000KT 7SM CLR 26/23 A2999 RMK AO1=
####018000087####
SAMD90 KWBC 080918
METAR KFDK 080901Z AUTO 00000KT 7SM SCT100 24/21 A3003 RMK AO2=
####018000084####
SAMD90 KWBC 080918
METAR KMTN 080921Z AUTO 00000KT 7SM CLR 26/24 A3001 RMK AO2=
####018000074####
SACN50 CWAO 080915
WPN SA 0915 AUTO8 M M M M/14/M/0000/M/M M 5MMM=

####018000075####
SACN95 CWAO 080915
WWA SA 0915 AUTO8 M M M M/20/09/0201/M/M M 14MM=

####018000075####
SACN50 CWAO 080915
VOH SA 0915 AUTO8 M M M M/15/03/0304/M/M M 81MM=

####018000099####
SPUS73 KWBC 080918
SPECI
KJLN 080915Z 07003KT 1/2SM +RA FG BKN005 BKN017 OVC023 23/23 A3004=
####018000089####
SPUS81 KWBC 080918
SPECI
KABH 080916Z AUTO 23005KT 10SM FEW005 OVC085 13/12 A3038=
####018000086####
SANA35 KAWN 080900 RRE
METAR SKCG 080900Z VRB02KT 9999 FEW012 BKN070 26/25 A2987=
####018000129####
SPXX70 KAWN 080900 RRB
SPECI KQRY 080908Z AUTO 23010G18KT 200V260 4400 HZ FEW095 30/06 A3015
      RMK AO2 SLP066 PWINO $=
####018000207####
SPUS17 KAWN 080918 RRA
SPECI KDOV 080916Z AUTO 00000KT 2SM BR SCT006 24/24 A2999 RMK AO2 SLP158
      $=
SPECI KFCS 080911Z AUTO 23009KT 10SM SCT023 BKN031 OVC060 14/11 A3037
      RMK AO2 SLP213=
####018000344####
SAUS73 KWBC 080900 RRE
METAR
KBJC 080917Z AUTO 00000KT 3SM BR CLR 13/12 A3033=
KCIU 080915Z AUTO 21005KT 7SM FEW090 OVC120 19/18 A2995=
KEGE 080915Z 08014KT 10SM CLR 09/08 A3036=
KELO 080913Z AUTO 22003KT 7SM CLR 13/13 A3002=
KJAC 080915Z AUTO 03006KT 10SM CLR 09/M01 A3034=
KLBL 080915Z 06009KT 10SM FEW034 OVC045 19/17 A3021=
####018000081####
SAUS74 KWBC 080900 RRC
METAR
KOTH 080915Z 28003KT 10SM OVC008 10/08 A3000=
####018000099####
SPUS81 KWBC 080918
SPECI
KJLN 080915Z 07003KT 1/2SM +RA FG BKN005 BKN017 OVC023 23/23 A3004=
####018000084####
SAMD90 KWBC 080918
METAR KW29 080917Z AUTO 00000KT 4SM CLR 23/22 A2999 RMK AO1=
####018000798####
SACO20 SKBO 080900
METAR
SKAR 080900Z NIL=
SKBG 080900Z NIL=
SKBO 080900Z 00000KT 6000 HZ BKN012 12/11 A3028=
SKBQ 080900Z 15004KT 3000 BR SCT002 25/25 A2987=
SKCC 080900Z NIL=
SKCG 080900Z VRB02KT 9999 FEW012 BKN070 26/25 A2987=
SKCL 080900Z 00000KT 9999 FEW025 BKN090 20/19 A2999=
SKEJ 080900Z NIL=
SKIB 080900Z NIL=
SKIP 080900Z NIL=
SKLC 080900Z NIL=
SKLT 080900Z 00000KT 9999 FEW016 SCT080 24/24 A2986=
SKMD 080900Z NIL=
SKMR 080900Z NIL=
SKMZ 080900Z NIL=
SKNV 080900Z NIL=
SKPC 080900Z NIL=
SKPE 080900Z NIL=
SKPS 080900Z NIL=
SKPV 080900Z NIL=
SKRG 080900Z 00000KT 6000 BKN006 BKN080 14/14 A3028=
SKRH 080900Z NIL=
SKSM 080900Z NIL=
SKSP 080900Z NIL=
SKUC 080900Z NIL=
SKUI 080900Z NIL=
SKVP 080900Z NIL=
SKVV 080900Z NIL=
NNNN
####018000093####
SPCN42 CWAO 080915
SPECI CYIV 080915Z 29008KT 12SM -SHRA BKN037 OVC050 RMK SC6SC1 FG=

####018000133####
SAUS44 KCRP 080918
MTRVCT
SPECI KVCT 080917Z AUTO 03007KT 6SM -RA BR SCT024 BKN040 OVC070 
26/25 A2987 RMK AO2 RAB0853 P0014
####018000092####
SAIR33 OIII 080900 RRD
METAR OIZC 080900Z 21008KT 6000 SCT035 BKN090 36/27 Q1002 A2960=
####018000107####
SPCN43 CWAO 080917
SPECI CYPY 080917Z AUTO 27003KT 1 3/8SM CLR 12/12 A2992 RMK VSBY VRBL
0.5V9.+=

####018000485####
SPUS99 KWBC 080919
SPECI
KASH 080916Z 14005KT 5SM BR FEW008 24/22 A3006 RMK AO2=
KELD 080916Z AUTO 00000KT 1/4SM FG VV002 23/23 A3003 RMK AO2=
KIJD 080916Z AUTO 16003KT 2 1/2SM BR OVC001 23/23 A3005 RMK
     AO2=
KOWD 080916Z AUTO 00000KT 10SM BKN016 21/18 A3006 RMK AO2=
KSTC 080916Z AUTO 00000KT 3/4SM BR CLR 13/12 A3008 RMK AO2=
KTRL 080916Z AUTO 12005KT 10SM OVC016 27/22 A3001 RMK AO2=
KTTN 080916Z AUTO 00000KT 5SM BR SCT007 23/21 A3001 RMK AO2
     PWINO=
####018001202####
SAUS99 KWBC 080919
METAR
K1P1 080915Z AUTO 00000KT M1/4SM FG OVC005 22/20 A3006 RMK AO2
     T02150204=
KBVU 080915Z AUTO 00000KT 10SM CLR 26/00 A2985 RMK AO2=
KCMR 080915Z AUTO 18008KT 10SM BKN110 17/02 A3025 RMK AO1=
KE80 080915Z AUTO 27005KT 10SM CLR 19/11 A3023 RMK AO2
     T01850111=
KEDC 080915Z AUTO 08004KT BKN010 BKN015 OVC033 25/25 A2996 RMK
     AO2=
KEIK 080915Z AUTO 34003KT 7SM SCT070 12/11 A3031 RMK AO2=
KEOE 080915Z AUTO 22003KT 10SM CLR 22/20 A3003 RMK AO2=
KFMH 080915Z AUTO 16008KT 10SM OVC003 21/20 A3009 RMK AO2=
KHVS 080915Z AUTO 00000KT 10SM SCT090 25/19 A2997 RMK AO2=
KIFP 080915Z AUTO 00000KT 10SM CLR 29/00 A2972 RMK AO2=
KMAN 080915Z AUTO 11003KT 10SM CLR 14/07 A3004 RMK AO1=
KPVF 080915Z AUTO 00000KT 10SM CLR 22/12 A2994 RMK AO1=
KRBW 080915Z AUTO 28003KT 10SM CLR 23/20 A2997 RMK AO2=
KRCM 080915Z AUTO 00000KT 3SM RA SCT008 BKN017 OVC065 22/22 A3003
     RMK AO2 P0008=
KSNC 080915Z AUTO 00000KT M1/4SM FG OVC001 22/ A3006 RMK AO2=
KSRR 080915Z AUTO 21005KT 10SM BKN009 BKN033 BKN065 13/13 A3035
     RMK AO2=
KTME 080915Z AUTO 05006KT 5SM 25/25 A2992 RMK AO1=
KUOX 080915Z AUTO 00000KT 10SM CLR 22/20 A3009 RMK AO2=
####018000072####
SAAL41 DAMM 080900 RRD
METAR DABT 080900Z 36006KT CAVOK 28/11 Q1022=
####018000072####
SAAL33 DAAA 080900 RRD
METAR DABT 080900Z 36006KT CAVOK 28/11 Q1022=
####018000074####
SALT33 EYVI 080920
METAR EYPA 080920Z 34007KT CAVOK 21/15 Q1018 NOSIG=
####018000084####
SPBZ43 KWBC 080919
SPECI
SBPB 080915Z 07007KT 9999 SCT020 BKN100 28/23 Q1013=
####018000084####
SPUS41 KWBC 080919
SPECI
KDOV 080916Z AUTO 00000KT 2SM BR SCT006 24/24 A2999=
####018002959####
SAUS20 KNKA 080918
METAR K14Y 080918Z AUTO 00000KT 10SM CLR 15/15 A3010 RMK AO2 
     T01500146=
METAR K1A6 080915Z AUTO 00000KT 4SM BR CLR 21/21 A3010 RMK AO2=
METAR K29G 080914Z AUTO 00000KT 7SM SCT060 20/18 A3009 RMK AO2
     T01980182 PWINO=
METAR KAEL 080911Z AUTO 30003KT 10SM CLR 17/17 A3009 RMK AO2=
METAR KAIG 080915Z AUTO 31004KT 10SM SCT003 18/18 A3000 RMK AO2=
METAR KAIT 080913Z AUTO 00000KT 3/4SM BR VV005 12/11 A3006 RMK
     AO2=
METAR KANE 080915Z AUTO 28003KT 10SM 17/16 A3008 RMK AO2=
METAR KARV 080912Z AUTO 32004KT 10SM OVC008 20/18 A3002 RMK AO2 
     T01950183=
METAR KATW 080915Z AUTO 24004KT 7SM BKN007 22/21 A2999 RMK AO2=
METAR KBBB 080913Z AUTO 00000KT 10SM CLR 14/14 A3011 RMK AO2=
METAR KBJI 080914Z AUTO 25006KT 10SM CLR 15/13 A3004 RMK AO2=
SPECI KBML 080917Z AUTO 00000KT 1 1/4SM BR OVC001 21/20 A3010 RMK 
    AO2 $=
METAR KBWP 080911Z AUTO 25004KT 10SM CLR 15/13 A3008 RMK AO1 
     T01450130=
SPECI KCCR 080917Z AUTO 25008KT 10SM BKN013 13/10 A2991 RMK AO2=
SPECI KCKB 080917Z AUTO 00000KT 3SM BR CLR 19/18 A3009 RMK AO2=
METAR KCMY 080915Z AUTO 00000KT 10SM CLR 19/19 A3002 RMK AO2 
     T01920185=
METAR KCVH 080910Z AUTO 00000KT 10SM OVC010 13/11 A2993 RMK
     AO1=
METAR KCWA 080915Z AUTO 31008KT 10SM BKN003 19/19 A3001 RMK AO2 
     T01900190=
METAR KDLL 080916Z AUTO 27004KT 10SM OVC004 21/20 A3000 RMK AO2=
METAR KDVK 080917Z AUTO 00000KT 5SM 21/19 A3008 RMK AO1=
METAR KDXX 080914Z AUTO 00000KT 10SM CLR 14/14 A3011 RMK AO2=
METAR KDYT 080914Z AUTO 26004KT 10SM CLR 20/16 A3003 RMK AO2=
METAR KEFK 080916Z AUTO 20004KT 5SM BR CLR 20/19 A3006 RMK AO2=
METAR KEFT 080915Z AUTO 23003KT 10SM SCT120 21/20 A3001 RMK AO2 
     T02080197=
METAR KEGV 080912Z AUTO 00000KT 10SM SCT027 19/19 A3001 RMK AO2 
     T01850185=
METAR KELO 080913Z AUTO 22003KT 7SM CLR 13/13 A3002 RMK AO2=
SPECI KELZ 080917Z AUTO 00000KT 1SM BR CLR 18/18 A3016 RMK AO2=
METAR KETB 080912Z AUTO 00000KT 5SM -RA SCT080 OVC090 22/21 A3000 
     RMK AO2 T02150206=
METAR KEVM 080912Z AUTO 26003KT 10SM CLR 15/13 A3002 RMK AO1=
METAR KEZS 080915Z AUTO 00000KT 10SM OVC005 23/22 A2998 RMK AO2 
     T02250215=
METAR KFBL 080914Z AUTO 30004KT 10SM CLR 18/16 A3009 RMK AO2=
METAR KFFM 080913Z AUTO 19004KT 10SM CLR 14/14 A3007 RMK AO2=
METAR KFGN 080914Z AUTO 26008KT 1SM DZ VV007 17/13 A2996 RMK
     AO2=
SPECI KFNB 080917Z AUTO 34004KT 10SM SCT023 BKN035 22/21 A3008 RMK 
    AO2=
METAR KFSO 080918Z AUTO 00000KT 3SM BR BKN075 23/22 A3001 RMK
     AO2=
METAR KGDB 080911Z AUTO 22003KT 10SM CLR 14/14 A3013 RMK AO2
     T01380135=
METAR KGHW 080913Z AUTO 24006KT 10SM CLR 15/13 A3013 RMK AO2=
METAR KGLW 080913Z AUTO 00000KT 5SM BR CLR 21/20 A3007 RMK AO2 
     T02050195=
METAR KGYL 080914Z AUTO 00000KT 10SM CLR 15/14 A3009 RMK AO2
     T01520143=
METAR KHCD 080912Z AUTO 00000KT 5SM BR CLR 14/13 A3010 RMK AO2
     T01380130=
####018000605####
SAUS20 KNKA 080918
METAR KTKC 080913Z AUTO 27004KT 10SM CLR 16/14 A3013 RMK AO2
     T01610135=
METAR KTOB 080915Z AUTO 00000KT 10SM CLR 18/17 A3008 RMK AO2=
METAR KTWM 080913Z AUTO 29003KT 10SM CLR 16/13 A3001 RMK AO2=
METAR KULM 080914Z AUTO 30005KT 10SM CLR 15/13 A3011 RMK AO2=
METAR KUNI 080915Z AUTO 00000KT 7SM CLR 22/17 A3008 RMK AO2 
     T02170169=
METAR KVES 080914Z AUTO 00000KT 5SM BR CLR 20/19 A3007 RMK AO2 
     T02000190=
METAR KVVV 080916Z AUTO 27006KT 10SM CLR 16/14 A3011 RMK AO2=
METAR KY63 080920Z AUTO 22005KT 10SM CLR 15/14 A3009 RMK AO2 
     T01450138=
####018002926####
SAUS20 KNKA 080918
METAR KHCO 080914Z AUTO 00000KT 10SM CLR 13/13 A3004 RMK AO2=
METAR KHFJ 080915Z AUTO 00000KT 10SM CLR 23/22 A3002 RMK AO1=
METAR KHZX 080911Z AUTO 00000KT 10SM CLR 11/11 A3007 RMK AO2=
METAR KIKW 080914Z AUTO 7SM CLR 22/21 A3000 RMK AO2 T02190208=
METAR KIWA 080916Z AUTO 36006KT 10SM CLR 33/01 A2979 RMK AO2=
METAR KJKJ 080914Z AUTO 25003KT 10SM CLR 15/14 A3006 RMK AO2=
METAR KJMR 080918Z AUTO 00000KT 10SM CLR 15/13 A3008 RMK AO2=
METAR KJVL 080915Z AUTO 00000KT 10SM -DZ SCT080 OVC095 22/20 
     A3000 RMK AO2 T02200201=
METAR KLCK 080915Z AUTO 00000KT 5SM BR CLR 23/21 A3007 RMK AO2 
     T02250210=
METAR KLJF 080912Z AUTO 27003KT 10SM CLR 17/16 A3011 RMK AO2=
METAR KLVN 080908Z AUTO 28004KT 10SM CLR 17/16 A3008 RMK AO2=
METAR KLXL 080914Z AUTO 00000KT 2 1/2SM BR 12/11 A3007 RMK AO2 SKY
     OBSCURED VIS 2V4=
METAR KLYV 080918Z AUTO 00000KT 10SM CLR 14/13 A3015 RMK AO2=
METAR KMDS 080905Z AUTO 28004KT 10SM CLR 14/14 A3016 RMK AO2=
METAR KMGG 080915Z AUTO 27005KT 10SM CLR 16/15 A3009 RMK AO2
     T01610152=
METAR KMJQ 080912Z AUTO 30004KT 7SM CLR 15/14 A3013 RMK AO2=
METAR KMOX 080910Z AUTO 24005KT 10SM CLR 16/14 A3007 RMK AO2=
METAR KMRT 080913Z AUTO 00000KT 5SM CLR 21/19 A3011 RMK AO2
     T02050190=
METAR KMVE 080914Z AUTO 29004KT 10SM CLR 16/15 A3010 RMK AO2=
METAR KMWM 080913Z AUTO 26004KT 10SM CLR 14/14 A3013 RMK AO2=
METAR KMWO 080915Z AUTO 00000KT 2 1/2SM BR CLR 20/20 A3008 RMK AO2=
METAR KONA 080911Z AUTO 30005KT 10SM CLR 20/18 A3001 RMK AO2=
METAR KOVL 080914Z AUTO 29003KT 10SM CLR 13/11 A3010 RMK AO2
     T01270114=
METAR KPEX 080913Z AUTO 26004KT 5SM BR CLR 12/12 A3010 RMK AO2
     T01210119=
METAR KPNM 080913Z AUTO 00000KT 4SM BR CLR 14/14 A3008 RMK AO2=
METAR KPQN 080913Z AUTO 00000KT 10SM CLR 16/14 A3015 RMK AO2=
METAR KPVB 080913Z AUTO 00000KT 1/4SM OVC003 20/19 A3003 RMK AO1 
     T02000193=
METAR KPWC 080913Z AUTO 00000KT 3/4SM BR BKN001 10/09 A3008 RMK
     AO2=
SPECI KRBD 080917Z 13003KT 10SM SCT012 25/23 A2999 RMK AO2=
METAR KROS 080915Z AUTO 00000KT 10SM CLR 16/15 A3007 RMK AO2
     T01550147=
METAR KROX 080914Z AUTO 23004KT 10SM CLR 15/13 A3000 RMK AO2=
METAR KRRT 080914Z AUTO 25005KT 10SM CLR 14/12 A3000 RMK AO2=
SPECI KRVS 080917Z 17004KT 10SM -TSRA SCT015 BKN070 OVC090 23/23 
    A3002 RMK AO2 LTG DSNT S AND SW TSB0859 P0004=
METAR KRZN 080914Z AUTO 00000KT 10SM SCT049 17/16 A3006 RMK AO2 
     T01720156=
METAR KSAZ 080914Z AUTO 24004KT 10SM CLR 14/14 A3008 RMK AO2=
METAR KSGS 080913Z AUTO 32004KT 10SM CLR 19/16 A3007 RMK AO2
     T01910161=
SPECI KSJC 080917Z AUTO 34003KT 9SM OVC013 16/11 A2992 RMK AO2=
METAR KSYN 080930Z AUTO 00000KT 10SM CLR 18/16 A3006 RMK AO2
     T01760161=
SPECI KTCC 080917Z AUTO 01006KT 10SM OVC009 18/16 A3022 RMK AO2 CIG 
    008V013=
METAR KTEW 080913Z AUTO 00000KT 7SM CLR 21/20 A3003 RMK AO2=
####018000104####
SPUS52 KWBC 080919
SPECI
KVCT 080917Z AUTO 03007KT 6SM -RA BR SCT024 BKN040 OVC070 26/25
A2987=
####018000095####
SPUS53 KWBC 080919
SPECI
KCOU 080916Z AUTO 00000KT 9SM SCT003 BKN018 BKN027 23/22 A3005=
####018000104####
SPUS72 KWBC 080919
SPECI
KVCT 080917Z AUTO 03007KT 6SM -RA BR SCT024 BKN040 OVC070 26/25
A2987=
####018000095####
SPUS73 KWBC 080919
SPECI
KCOU 080916Z AUTO 00000KT 9SM SCT003 BKN018 BKN027 23/22 A3005=
####018000147####
SATH31 VTBB 080900 RRB
METAR VTCT 080900Z 02012KT 6000 TSRA FEW022CB BKN025 BKN100 26/21
Q1006 A2972 TS OVER AD, CB NE, SW RMK/RWY03 INFO J=
####018000682####
SIIQ20 ORBI 080920
AAXX 08091
40650 42960 03008 10436 20045 40038 58006=
40604 42960 02904 10384 20083 40016 58003=
40608 42960 00000 10416 20127 40021 57009=
40621 42960 03303 10415 20132 40049 58001=
40631 42960 03004 10416 20112 40034 58002=
40637 42960 00905 10440 20007 40041 54000=
40642 42960 00000 10376 20016 40009 58002=
40629 42960 00000 10274 20093 40045 54000=
40690 41950 03208 10482 21007 49993 58009 70700=
40656 42960 03303 10426 20119 40023 56007=
40665 41956 03310 10456 20132 40022 50000 70700=
40670 42960 03406 10450 20126 40029 58006=
40674 42960 03508 10448 20018 40030 58005=
40689 41956 03309 10460 21008 49993 58008 70700=
####018000095####
SPUS81 KWBC 080919
SPECI
KCOU 080916Z AUTO 00000KT 9SM SCT003 BKN018 BKN027 23/22 A3005=
####018000104####
SPUS81 KWBC 080919
SPECI
KVCT 080917Z AUTO 03007KT 6SM -RA BR SCT024 BKN040 OVC070 26/25
A2987=
####018000196####
SASA KAWN 080900 RRE
METAR SAEZ 080900Z 28005KT CAVOK 03/M00 Q1018=
METAR SCSE 080900Z 14002KT CAVOK 06/05 Q1017 NEFO PLAYA SKC=
METAR SKLT 080900Z 00000KT 9999 FEW016 SCT080 24/24 A2986=
####018000094####
SAXX70 KAWN 080900 RRM
METAR KQFT 080910Z AUTO 00000KT 5SM BR OVC045 27/20 A2981 RMK A02=
####018001312####
SACI51 RJTD 080900
METAR ZBAA 080900Z VRB02MPS CAVOK 36/10 Q1003 NOSIG=
METAR ZBTJ 080900Z 15008MPS CAVOK 31/17 Q1004 NOSIG=
METAR ZBYN 080900Z 11004MPS CAVOK 31/12 Q1007 BECMG 09005MPS=
METAR ZGGG 080900Z 14006MPS 9999 FEW050TCU SCT050 35/26 Q1004 NOSIG=
METAR ZGKL 080900Z 20005MPS CAVOK 34/24 Q1002 NOSIG=
METAR ZGNN 080900Z 14006MPS 110V180 9999 TS FEW026CB SCT026 34/25
           Q1002 TEMPO -TSRA FEW030CB SCT033=
METAR ZGOW 080900Z 19007MPS 9999 FEW020 32/26 Q1005 NOSIG=
METAR ZGSZ 080900Z 17008MPS 130V190 9999 FEW020 33/25 Q1005 NOSIG=
METAR ZLXY 080900Z 08002MPS 030V130 1700 BR FEW010 OVC060 24/21
           Q1007 NOSIG=
METAR ZPPP 080900Z 19004MPS 9999 FEW026 OVC040 23/17 Q1015 NOSIG=
METAR ZSAM 080900Z 19007MPS CAVOK 33/25 Q1004 NOSIG=
METAR ZSHC 080900Z 00000MPS 5000 -SHRA BR BKN020 FEW033CB 28/23
           Q1005 TEMPO TSRA SCT033CB=
METAR ZSNJ 080900Z 11004MPS 3500 HZ BKN033 29/22 Q1003 TEMPO 2000
           -TSRA FEW030CB=
METAR ZSQD 080900Z 17004MPS CAVOK 27/17 Q1006 NOSIG=
METAR ZSSS 080900Z 09004MPS 050V130 9999 BKN026 29/23 Q1005 NOSIG=
METAR ZWWW 080900Z 01003MPS 330V050 9999 FEW050CB 33/07 Q1010 NOSIG=
METAR ZYTL 080900Z 28004MPS 240V330 9999 SCT033 28/18 Q1006 NOSIG=
METAR ZYTX 080900Z 32002MPS 9999 FEW030CB 25/18 Q1006 NOSIG=
