####018000083####
SAAK41 KNKA 081044
SPECI PASI 081042Z 27003KT 10SM SCT002 13/12 A3018 RMK AO2=
####018000420####
SACO20 SKBO 081000
METAR
SKBO 081000Z VRB02KT 7000 HZ BKN012 12/11 A3029=
SKBQ 081000Z 20004KT 9999 FEW002 25/25 A2986=
SKCG 081000Z 00000KT 9999 FEW013 SCT070 26/25 A2985=
SKCL 081000Z 00000KT 9999 FEW015 SCT080 24/24 A2987 APCLO=
SKLT 081000Z 00000KT 9999 FEW015 SCT080 24/24 A2987=
SKPE 081000Z VRB02KT 9999 FEW010 SCT070 17/16 A3010=
SKRG 081000Z 00000KT 8000 -DZ SCT012 BKN080 14/14 A3027=
NNNN
####018000093####
SPCN51 CWAO 081043
SPECI CZCP 081043Z AUTO 28022KT 1/4SM -RA OVC006 OVC013 05/ A2984=

####018000104####
SAUK39 EGRR 080950 CCG
METAR EGUB 080950Z AUTO 25004KT 9999 BKN028 BKN120 19/15 Q1018 BLU
 NOSIG=
####018000478####
SAUS20 KNKA 081044
SPECI KBDR 081043Z 12003KT 2SM BR OVC004 24/23 A3005 RMK AO2 CIG 
    002V006=
SPECI KDTS 081043Z AUTO 00000KT 1 3/4SM BR FEW001 24/23 A3001 RMK 
    AO2 VIS 1/2V5=
SPECI KJLN 081043Z AUTO 00000KT 10SM VCTS -RA FEW006 BKN046 OVC065 
    23/22 A3006 RMK AO2 LTG DSNT N RAE0957B30 P0000=
SPECI KOVS 081043Z AUTO 00000KT 5SM BR SCT008 21/20 A3003 RMK AO2=
SPECI KPIA 081043Z 00000KT 2SM BR BKN005 OVC010 23/22 A3003 RMK AO2 
    CIG 002V007=
####018003722####
SAUS99 KWBC 081045
METAR
K2G4 081040Z AUTO 36003KT 10SM SCT065 22/13 A3019 RMK AO1=
K2W6 081042Z AUTO 00000KT 2SM 23/23 A3001 RMK AO1 SKY OBSCURED=
K3A1 081040Z AUTO 00000KT 7SM CLR 22/22 A3010 RMK AO2
     T02170218=
K4A9 081040Z AUTO 00000KT 7SM CLR 20/18 A3006 RMK AO2
     T01960181=
K4R4 081040Z AUTO 00000KT M1/4SM FG OVC007 23/22 A3003 RMK AO2
     T02300223=
K8A0 081039Z AUTO 00000KT 10SM CLR 23/22 A3007 RMK AO2=
KAFP 081040Z AUTO 24003KT 10SM BKN100 21/18 A2997 RMK AO2
     T02050182=
KALX 081040Z AUTO 00000KT 10SM CLR 22/21 A3005 RMK AO1=
KBQP 081049Z AUTO 00000KT 4SM BR CLR 24/24 A3005 RMK AO2=
KCBE 081042Z AUTO 00000KT 4SM CLR 21/18 A3011 RMK AO1=
KCGE 081040Z AUTO 00000KT 1SM OVC002 25/25 A3002 RMK AO1=
KCGS 081045Z AUTO 00000KT 5SM SCT110 26/23 A3001 RMK AO1=
KCPC 081040Z AUTO 00000KT 10SM CLR 25/19 A2993 RMK AO2
     T02540194=
KCWF 081040Z AUTO 05004KT 7SM CLR 23/23 A2998 RMK AO2=
KDMW 081043Z AUTO 00000KT 4SM HZ SCT075 SCT090 25/21 A3005 RMK
     AO2=
KDNN 081038Z AUTO 00000KT 10SM CLR 20/20 A3006 RMK AO2=
KDQH 081040Z AUTO 00000KT 10SM CLR 22/19 A3002 RMK AO1=
KDRI 081040Z AUTO 07003KT 10SM BKN013 BKN017 OVC024 23/23 A3002
     RMK AO2=
KEHO 081040Z AUTO 31003KT 10SM CLR 19/18 A3003 RMK AO2
     T01900180=
KEXX 081040Z AUTO 00000KT 7SM CLR 21/18 A3001 RMK AO2=
KEYF 081040Z AUTO 32003KT 10SM CLR 25/19 A2994 RMK AO2
     T02500187=
KFFA 081038Z AUTO 08007KT 10SM SCT008 25/23 A2995 RMK AO2
     T02490227=
KFME 081042Z AUTO 00000KT 4SM CLR 21/21 A3003 RMK AO1=
KGHG 081040Z AUTO 13003KT 10SM BKN006 23/21 A3010 RMK AO2=
KGWW 081040Z AUTO 00000KT 5SM HZ CLR 24/21 A2995 RMK AO2
     T02400208=
KHNZ 081040Z AUTO 02003KT 5SM HZ SCT100 SCT120 24/19 A3000 RMK AO2
     T02410194=
KHSP 081040Z AUTO 06004KT 10SM SCT049 23/16 A3027 RMK AO2=
KHUM 081040Z AUTO 2SM BR SCT018 23/23 A2999 RMK AO2 P0001=
KHWY 081040Z AUTO 00000KT 3SM BR CLR 22/20 A3000 RMK AO2=
KIDI 081040Z AUTO 00000KT 3SM CLR 18/18 A3011 RMK AO2=
KIPJ 081040Z AUTO 00000KT 10SM CLR 21/17 A3003 RMK AO2
     T02130172=
KISO 081040Z AUTO 35003KT 4SM BR CLR 23/21 A2995 RMK AO2
     T02320208=
KIXA 081040Z AUTO 36004KT 5SM HZ CLR 23/20 A2996 RMK AO2
     T02330202=
KJES 081040Z AUTO 00000KT 7SM CLR 19/19 A3000 RMK AO2
     T01850186=
KJGG 081040Z AUTO 00000KT 5SM CLR 27/25 A2999 RMK AO1=
KJKA 081040Z AUTO 00000KT 1 1/4SM BR VV007 26/25 A3003 RMK AO2
     T02570248=
KJYO 081040Z AUTO 35003KT 7SM SCT110 28/19 A3002 RMK AO2=
KLDJ 081040Z AUTO 12003KT 3SM BR BKN006 25/23 A3003 RMK AO2
     T02460232=
KLGC 081035Z AUTO 00000KT 7SM CLR 21/ A3004 RMK AO1=
KLHZ 081040Z AUTO 00000KT 5SM HZ CLR 23/20 A2999 RMK AO2
     T02310196=
KLKU 081040Z AUTO 00000KT 4SM HZ CLR 23/19 A3000 RMK AO2=
KLNP 081038Z AUTO 00000KT 5SM CLR 21/18 A3019 RMK AO1=
KLOM 081040Z AUTO 00000KT 3SM 23/21 A3003 RMK AO1 SKY OBSCURED
     T02270214=
KLWB 081042Z AUTO 00000KT 4SM BR CLR 19/18 A3017 RMK AO2=
KMDQ 081040Z AUTO 00000KT 7SM CLR 22/21 A3008 RMK AO2
     T02190211=
KMFV 081042Z AUTO 10003KT 7SM BKN006 OVC100 25/23 A2999 RMK
     AO2=
KMGR 081040Z AUTO 00000KT 10SM CLR 21/20 A3003 RMK AO2=
KMKJ 081040Z AUTO 00000KT 3SM CLR 18/07 A3022 RMK AO1=
KMLJ 081044Z AUTO 00000KT 5SM BR CLR 21/21 A3003 RMK AO2=
KMQI 081037Z AUTO 07009KT 10SM SCT011 26/24 A2995 RMK AO2=
KMQS 081040Z AUTO 00000KT 4SM CLR 23/22 A3006 RMK AO2 PWINO
     PNO=
KMRN 081040Z AUTO 00000KT 7SM SCT100 18/17 A3011 RMK AO2=
KMTV 081040Z AUTO 00000KT 4SM BR CLR 22/21 A3005 RMK AO2=
KOBE 081041Z AUTO 03004KT 10SM CLR 23/22 A2997 RMK AO2=
KOKV 081040Z AUTO 00000KT 4SM HZ SCT095 22/19 A3005 RMK AO2
     T02200190=
####018000695####
SPUS99 KWBC 081045
SPECI
KLXV 081040Z AUTO 14003KT 10SM FEW023 SCT030 06/05 A3052 RMK AO2
     TSNO=
KMKO 081041Z AUTO 19004KT 10SM VCTS BKN026 BKN031 23/23 A3004 RMK
     AO2 LTG DSNT NW TSE0955B35=
PASI 081042Z 27003KT 10SM SCT002 13/12 A3018 RMK AO2=
KBDR 081043Z 12003KT 2SM BR OVC004 24/23 A3005 RMK AO2 CIG
     002V006=
KDTS 081043Z AUTO 00000KT 1 3/4SM BR FEW001 24/23 A3001 RMK AO2
     VIS 1/2V5=
KJLN 081043Z AUTO 00000KT 10SM VCTS -RA FEW006 BKN046 OVC065 23/22
     A3006 RMK AO2 LTG DSNT N RAE0957B30 P0000=
KOVS 081043Z AUTO 00000KT 5SM BR SCT008 21/20 A3003 RMK AO2=
KPIA 081043Z 00000KT 2SM BR BKN005 OVC010 23/22 A3003 RMK AO2 CIG
     002V007=
####018001049####
SAUS99 KWBC 081045 RRA
METAR
KONX 081040Z AUTO 08005KT 10SM SCT012 BKN110 26/23 A2997 RMK AO2
     T02580226=
KOPN 081040Z AUTO 00000KT 10SM CLR 23/22 A3005 RMK AO1=
KPCM 081040Z AUTO 00000KT 2 1/2SM BR CLR 22/21 A3000 RMK AO2=
KPTB 081042Z AUTO 00000KT 3SM BR CLR 23/21 A2999 RMK AO2=
KRCZ 081040Z AUTO 04003KT 10SM CLR 24/19 A2997 RMK AO2
     T02420185=
KSVH 081040Z AUTO 00000KT 10SM SCT095 20/17 A3005 RMK AO2
     T02020170=
KTBR 081040Z AUTO 27003KT 10SM CLR 23/20 A2999 RMK AO2
     T02300202=
KTDF 081042Z AUTO 00000KT 3SM SCT120 21/20 A3001 RMK AO1=
KTNB 081042Z AUTO 00000KT 5SM BR CLR 16/14 A3021 RMK AO2=
KTVI 081040Z AUTO 00000KT 10SM CLR 21/21 A3003 RMK AO2
     T02110205=
KVUJ 081039Z AUTO 00000KT 10SM SCT075 BKN100 22/19 A2998 RMK
     AO2=
KVVG 081035Z AUTO 00000KT 21/20 A3000 RMK AO2=
KW22 081040Z AUTO 00000KT 1 3/4SM BR CLR 19/19 A3013 RMK AO2=
KW29 081042Z AUTO 00000KT 2 1/2SM CLR 24/23 A3001 RMK AO1=
KW45 081040Z AUTO 00000KT 5SM BR CLR 22/20 A3006 RMK AO2
     T02240197=
####018000159####
SAMX51 MMMX 081100
METAR MMTM 081041Z 22006KT 6SM  SCT010 BKN020 BKN070 OVC200 25/24 
      A2980 RMK 8/837 BR OCNLS DROPS/BINOVC RTS=





TX OPMET V1
####018000099####
SAUS44 KSJT 081044
MTRABI
SPECI KABI 081043Z 36007KT 7SM FEW002 BKN010 22/21 A3006 RMK AO2 $
####018000108####
SPIQ31 KWBC 081045
SPECI
KQMG 081042Z AUTO 33007KT 12SM FEW043 SCT100 20/14 A3016 RMK AO2
SLP142 $=
####018000086####
SPUS31 KWBC 081045
SPECI
KLGA 081042Z 04006KT 3SM HZ BKN015 BKN130 26/23 A3003=
####018000104####
SPUS42 KWBC 081045
SPECI
KGLS 081042Z AUTO 15015KT 5SM +RA BR FEW012 BKN026 OVC034 25/23
A2992=
####018000085####
SAUS41 KWBC 081000 RRG
METAR
KCTZ 081040Z AUTO 00000KT 5SM BR CLR 24/22 A2994=
####018000083####
SAUS42 KWBC 081000 RRE
METAR
KBQK 081037Z AUTO 26003KT 10SM CLR 21/21 A3000=
####018000082####
SAUS51 KWBC 081000 RRC
METAR
KCBE 081042Z AUTO 00000KT 4SM CLR 21/18 A3011=
####018000081####
SPUS53 KWBC 081045
SPECI
KSTC 081042Z AUTO 00000KT 3SM BR CLR 13/12 A3009=
####018000088####
SPUS53 KWBC 081045
SPECI
KUIN 081042Z AUTO 24003KT 1 3/4SM BR OVC001 23/22 A3004=
####018000082####
SAUS52 KWBC 081000 RRF
METAR
KAYS 081040Z AUTO 00000KT 7SM CLR 21/20 A3001=
####018000080####
SAKY31 RUMS 081030 RRA
METAR UAFM 081030Z 29005MPS CAVOK 33/06 Q1012 NOSIG=
####018000082####
SAUS53 KWBC 081000 RRK
METAR
KJNX 081039Z AUTO 00000KT 5SM CLR 22/22 A2995=
####018000082####
SAUS54 KWBC 081000 RRF
METAR
KJNX 081039Z AUTO 00000KT 5SM CLR 22/22 A2995=
####018000104####
SPUS72 KWBC 081045
SPECI
KGLS 081042Z AUTO 15015KT 5SM +RA BR FEW012 BKN026 OVC034 25/23
A2992=
####018000084####
SPUS73 KWBC 081045
SPECI
KHUT 081042Z AUTO 36007KT 6SM BR BKN004 22/21 A3012=
####018000104####
SPUS73 KWBC 081045
SPECI
KLAR 081042Z AUTO 00000KT 1 3/4SM BR FEW002 SCT007 BKN020 07/06
A3039=
####018000081####
SPUS73 KWBC 081045
SPECI
KSTC 081042Z AUTO 00000KT 3SM BR CLR 13/12 A3009=
####018000088####
SPUS73 KWBC 081045
SPECI
KUIN 081042Z AUTO 24003KT 1 3/4SM BR OVC001 23/22 A3004=
####018000084####
SPUS74 KWBC 081045
SPECI
KCEC 081042Z AUTO 25003KT 2SM BR OVC003 10/09 A2997=
####018000083####
SAUS72 KWBC 081000 RRH
METAR
KBQK 081037Z AUTO 26003KT 10SM CLR 21/21 A3000=
####018000221####
SASA KAWN 081000 RRI
METAR SKBO 081029Z VRB02KT 5000 BR SCT012 SCT070 11/11 A3029 NOSIG=
METAR SKCL 081000Z 00000KT 9999 FEW015 SCT080 24/24 A2987 APCLO=
METAR SKCL 081030Z VRB02KT 9999 SCT020 BKN080 21/19 A3000=
####018000549####
SPNA14 KAWN 081045 RRG
SPECI KEGI 081039Z AUTO 00000KT 1/2SM R18/1000VP6000FT FG CLR 21/21
      A3002 RMK AO2 SLP167 $=
SPECI KEGI 081043Z AUTO 00000KT 1/2SM R18/1000V4000FT FG CLR 21/21
      A3003 RMK AO2 SLP168 $=
SPECI KPSM 081036Z 18005KT 7SM SCT010 BKN020 OVC070 23/21 A3007 RMK
      AO2A=
SPECI KWRI 081041Z AUTO 16003KT 3/4SM R18/3000V5000FT R24/2000V4000FT
      BR VV001 23/23 A3001 RMK AO2 SLP162 $=
SPECI KWRI 081044Z AUTO 16003KT 1SM R18/3500V5500FT R24/2200VP6000FT
      BR VV001 23/23 A3001 RMK AO2 SLP162 $=
####018000514####
SAXN17 KAWN 081000 RRJ
METAR MMTM 081041Z 22006KT 6SM SCT010 BKN020 BKN070 OVC200 25/24 A2980
      RMK 8/837 BR OCNLS DROPS/BINOVC RTS=
METAR PKWA 081040Z AUTO 06010KT 4SM +RA SCT007 BKN019 OVC036 25/24
      A2987 RMK AO2 P0016 T02520235=
METAR SKBO 081029Z VRB02KT 5000 BR SCT012 SCT070 11/11 A3029 NOSIG=
METAR SKCL 081000Z 00000KT 9999 FEW015 SCT080 24/24 A2987 APCLO=
METAR SKCL 081030Z VRB02KT 9999 SCT020 BKN080 21/19 A3000=
METAR YBBN 081030Z 17009KT CAVOK 17/11 Q1020 RMK 7SC085 NOSIG=
####018000121####
SPCN42 CWAO 081043
SPECI CYIV 081043Z 31004KT 15SM FEW005 FEW025 FEW035 BKN045 OVC080
RETS RMK SF1SC1SC1SC5AC1=

####018000098####
SPUS81 KWBC 081045
SPECI
KNEL 081042Z AUTO 00000KT 2SM BR SCT005 SCT070 OVC100 24/22 A3003=
####018000081####
SPUS81 KWBC 081045
SPECI
KSTC 081042Z AUTO 00000KT 3SM BR CLR 13/12 A3009=
####018000124####
SPCN47 CWAO 081045
SPECI CYHU 081045Z AUTO 22004KT 7SM FEW006 26/22 A2999 RMK SLP156
 DENSITY ALT 1300FT RVR MISG=

####018000106####
SPCN43 CWAO 081043
SPECI CWHN 081043Z AUTO 23003KT 200V280 9SM FEW038 FEW045 OVC055
14/10 A3002=

####018000190####
SPUS90 KWBC 081046
SPECI KNEL 081042Z AUTO 00000KT 2SM BR SCT005 SCT070 OVC100 24/22
     A3003 RMK AO2 $=
SPECI KABI 081043Z 36007KT 7SM FEW002 BKN010 22/21 A3006 RMK AO2
     $=
####018000086####
SPCN51 CWAO 081044
SPECI CZCP 081044Z AUTO 28022KT 1/8SM -RA OVC014 05/ A2984=

####018000200####
SAAK41 KNKA 081045
SPECI PAKI 081041Z AUTO 36004KT 1 1/2SM BR CLR 08/08 A3002 RMK AO2 
    PWINO TSNO $=
SPECI PAPB 081043Z AUTO 09017G23KT 10SM SCT028 OVC048 07/06 A2992 
    RMK AO2 TSNO=
####018001874####
SAUS20 KNKA 081045
METAR K3J7 081043Z AUTO 00000KT 7SM CLR 22/21 A3000 RMK AO2=
METAR KUXL 081040Z AUTO 06007KT 10SM SCT008 26/25 A2997 RMK AO2=
SPECI KAMA 081044Z 36007KT 1SM BKN005 OVC021 17/17 A3020 RMK AO2 SFC 
    VIS 10 RAE39 P0002 $=
METAR KASJ 081039Z AUTO 00000KT 1 3/4SM HZ BKN110 24/21 A2997 RMK 
     AO2=
METAR KCLS 081035Z AUTO 00000KT 10SM CLR 13/12 A2996 RMK AO2 =
METAR KCWV 081051Z AUTO 28004KT 10SM CLR 22/22 A3000 RMK AO2=
SPECI KCYS 081044Z AUTO 00000KT 8SM SCT004 BKN010 OVC014 12/12 A3037 
    RMK AO2 TSNO=
SPECI KDWH 081044Z 07007KT 7SM BKN005 24/24 A2994 RMK AO2=
METAR KFYJ 081043Z AUTO 00000KT 3SM 25/24 A3000 RMK AO1=
METAR KGAO 081040Z AUTO 09003KT 10SM CLR 26/25 A3000 RMK AO2=
METAR KGZL 081035Z AUTO 16006KT 10SM SCT039 BKN046 24/23 A3003 RMK 
     AO2 =
SPECI KHLG 081044Z AUTO 00000KT 2 1/2SM BR CLR 21/19 A3010 RMK AO2=
METAR KIER 081040Z AUTO 00000KT 7SM SCT017 23/23 A3003 RMK AO2 
     PWINO=
METAR KJFZ 081040Z AUTO 00000KT 6SM CLR 20/20 A3017 RMK=
METAR KOMH 081040Z AUTO 00000KT 5SM HZ CLR 24/21 A3003 RMK AO2 
     T02370208=
SPECI KORH 081044Z 16005KT 2 1/2SM BR OVC002 22/22 A3011 RMK AO2=
METAR KRMN 081040Z AUTO 00000KT 4SM BR CLR 22/22 A3003 RMK AO2=
METAR KRUQ 081042Z AUTO 00000KT 10SM SCT100 22/20 A3002 RMK AO2=
METAR KSFQ 081040Z AUTO 00000KT 2SM BR BKN080 26/24 A2998 RMK AO2=
METAR KSHD 081040Z AUTO 00000KT 4SM BR CLR 21/18 A3008 RMK AO2=
METAR KVDF 081036Z AUTO 00000KT 4SM BR CLR 22/21 A2999 RMK AO2=
METAR KVJI 081043Z AUTO 00000KT 4SM BR CLR 21/19 A3015 RMK AO2=
METAR KW99 081041Z AUTO 00000KT 4SM HZ CLR 21/17 A3009 RMK AO2=
METAR KWDR 081040Z AUTO 35003KT 10SM CLR 22/20 A3008 RMK AO1=
METAR KXLL 081040Z AUTO 00000KT 5SM BR CLR 24/22 A3004 RMK AO2 
     T02370220=
METAR KXSA 081040Z AUTO 00000KT 3SM SCT120 25/23 A2999 RMK AO2 
     PWINO=
####018000118####
SPCN46 CWAO 081045
SPECI CYOO 081045Z AUTO 00000KT 6SM BR FEW091 23/21 A3003 RMK SLP168
 DENSITY ALT 1300FT=

####018001344####
SAUS99 KWBC 081046
METAR
K3J7 081043Z AUTO 00000KT 7SM CLR 22/21 A3000 RMK AO2=
KUXL 081040Z AUTO 06007KT 10SM SCT008 26/25 A2997 RMK AO2=
KASJ 081039Z AUTO 00000KT 1 3/4SM HZ BKN110 24/21 A2997 RMK
     AO2=
KCLS 081035Z AUTO 00000KT 10SM CLR 13/12 A2996 RMK AO2=
KCWV 081051Z AUTO 28004KT 10SM CLR 22/22 A3000 RMK AO2=
KFYJ 081043Z AUTO 00000KT 3SM 25/24 A3000 RMK AO1=
KGAO 081040Z AUTO 09003KT 10SM CLR 26/25 A3000 RMK AO2=
KGZL 081035Z AUTO 16006KT 10SM SCT039 BKN046 24/23 A3003 RMK
     AO2=
KIER 081040Z AUTO 00000KT 7SM SCT017 23/23 A3003 RMK AO2 PWINO=
KJFZ 081040Z AUTO 00000KT 6SM CLR 20/20 A3017 RMK=
KOMH 081040Z AUTO 00000KT 5SM HZ CLR 24/21 A3003 RMK AO2
     T02370208=
KRMN 081040Z AUTO 00000KT 4SM BR CLR 22/22 A3003 RMK AO2=
KRUQ 081042Z AUTO 00000KT 10SM SCT100 22/20 A3002 RMK AO2=
KSFQ 081040Z AUTO 00000KT 2SM BR BKN080 26/24 A2998 RMK AO2=
KSHD 081040Z AUTO 00000KT 4SM BR CLR 21/18 A3008 RMK AO2=
KVDF 081036Z AUTO 00000KT 4SM BR CLR 22/21 A2999 RMK AO2=
KVJI 081043Z AUTO 00000KT 4SM BR CLR 21/19 A3015 RMK AO2=
KW99 081041Z AUTO 00000KT 4SM HZ CLR 21/17 A3009 RMK AO2=
KWDR 081040Z AUTO 35003KT 10SM CLR 22/20 A3008 RMK AO1=
KXLL 081040Z AUTO 00000KT 5SM BR CLR 24/22 A3004 RMK AO2
     T02370220=
KXSA 081040Z AUTO 00000KT 3SM SCT120 25/23 A2999 RMK AO2 PWINO=
####018000557####
SPUS99 KWBC 081046
SPECI
PAKI 081041Z AUTO 36004KT 1 1/2SM BR CLR 08/08 A3002 RMK AO2 PWINO
     TSNO $=
PAPB 081043Z AUTO 09017G23KT 10SM SCT028 OVC048 07/06 A2992 RMK
     AO2 TSNO=
KAMA 081044Z 36007KT 1SM BKN005 OVC021 17/17 A3020 RMK AO2 SFC VIS
     10 RAE39 P0002 $=
KCYS 081044Z AUTO 00000KT 8SM SCT004 BKN010 OVC014 12/12 A3037 RMK
     AO2 TSNO=
KDWH 081044Z 07007KT 7SM BKN005 24/24 A2994 RMK AO2=
KHLG 081044Z AUTO 00000KT 2 1/2SM BR CLR 21/19 A3010 RMK AO2=
KORH 081044Z 16005KT 2 1/2SM BR OVC002 22/22 A3011 RMK AO2=
####018000095####
SACN85 KWBC 081046
METAR CWEF 081040Z AUTO 13011KT 13/13 RMK AO1 SLP182 T01340128
53004=
####018000079####
SAKY31 RUMS 081030 RRA
METAR UAFM 081030Z 29005MPS CAVOK 33/06 Q1012 NOSIG=
####018000077####
SPAK31 KWBC 081046
SPECI
PASI 081042Z 27003KT 10SM SCT002 13/12 A3018=
####018000515####
SPUS80 KWBC 081046
SPECI
KLXV 081040Z AUTO 14003KT 10SM FEW023 SCT030 06/05 A3052 RMK AO2
     TSNO=
KBDR 081043Z 12003KT 2SM BR OVC004 24/23 A3005 RMK AO2 CIG
     002V006=
KJLN 081043Z AUTO 00000KT 10SM VCTS -RA FEW006 BKN046 OVC065 23/22
     A3006 RMK AO2 LTG DSNT N RAE0957B30 P0000=
KPIA 081043Z 00000KT 2SM BR BKN005 OVC010 23/22 A3003 RMK AO2 CIG
     002V007=
KABI 081043Z 36007KT 7SM FEW002 BKN010 22/21 A3006 RMK AO2 $=
KORH 081044Z 16005KT 2 1/2SM BR OVC002 22/22 A3011 RMK AO2=
####018000086####
SAUS80 KWBC 081046
METAR
KCBE 081042Z AUTO 00000KT 4SM CLR 21/18 A3011 RMK AO1=
####018001964####
SAUS70 KWBC 081046 RRA
METAR
KSVH 081040Z AUTO 00000KT 10SM SCT095 20/17 A3005 RMK AO2
     T02020170=
KTBR 081040Z AUTO 27003KT 10SM CLR 23/20 A2999 RMK AO2
     T02300202=
KTDF 081042Z AUTO 00000KT 3SM SCT120 21/20 A3001 RMK AO1=
KTNB 081042Z AUTO 00000KT 5SM BR CLR 16/14 A3021 RMK AO2=
KTVI 081040Z AUTO 00000KT 10SM CLR 21/21 A3003 RMK AO2
     T02110205=
KVUJ 081039Z AUTO 00000KT 10SM SCT075 BKN100 22/19 A2998 RMK
     AO2=
KVVG 081035Z AUTO 00000KT 21/20 A3000 RMK AO2=
KW22 081040Z AUTO 00000KT 1 3/4SM BR CLR 19/19 A3013 RMK AO2=
KW29 081042Z AUTO 00000KT 2 1/2SM CLR 24/23 A3001 RMK AO1=
KW45 081040Z AUTO 00000KT 5SM BR CLR 22/20 A3006 RMK AO2
     T02240197=
K3J7 081043Z AUTO 00000KT 7SM CLR 22/21 A3000 RMK AO2=
KUXL 081040Z AUTO 06007KT 10SM SCT008 26/25 A2997 RMK AO2=
KASJ 081039Z AUTO 00000KT 1 3/4SM HZ BKN110 24/21 A2997 RMK
     AO2=
KCLS 081035Z AUTO 00000KT 10SM CLR 13/12 A2996 RMK AO2=
KFYJ 081043Z AUTO 00000KT 3SM 25/24 A3000 RMK AO1=
KGAO 081040Z AUTO 09003KT 10SM CLR 26/25 A3000 RMK AO2=
KGZL 081035Z AUTO 16006KT 10SM SCT039 BKN046 24/23 A3003 RMK
     AO2=
KIER 081040Z AUTO 00000KT 7SM SCT017 23/23 A3003 RMK AO2 PWINO=
KJFZ 081040Z AUTO 00000KT 6SM CLR 20/20 A3017 RMK=
KOMH 081040Z AUTO 00000KT 5SM HZ CLR 24/21 A3003 RMK AO2
     T02370208=
KRMN 081040Z AUTO 00000KT 4SM BR CLR 22/22 A3003 RMK AO2=
KRUQ 081042Z AUTO 00000KT 10SM SCT100 22/20 A3002 RMK AO2=
KSFQ 081040Z AUTO 00000KT 2SM BR BKN080 26/24 A2998 RMK AO2=
KSHD 081040Z AUTO 00000KT 4SM BR CLR 21/18 A3008 RMK AO2=
KVDF 081036Z AUTO 00000KT 4SM BR CLR 22/21 A2999 RMK AO2=
KVJI 081043Z AUTO 00000KT 4SM BR CLR 21/19 A3015 RMK AO2=
KW99 081041Z AUTO 00000KT 4SM HZ CLR 21/17 A3009 RMK AO2=
KWDR 081040Z AUTO 35003KT 10SM CLR 22/20 A3008 RMK AO1=
KXLL 081040Z AUTO 00000KT 5SM BR CLR 24/22 A3004 RMK AO2
     T02370220=
KXSA 081040Z AUTO 00000KT 3SM SCT120 25/23 A2999 RMK AO2 PWINO=
####018003693####
SAUS70 KWBC 081046
METAR
K2G4 081040Z AUTO 36003KT 10SM SCT065 22/13 A3019 RMK AO1=
K2W6 081042Z AUTO 00000KT 2SM 23/23 A3001 RMK AO1 SKY OBSCURED=
K3A1 081040Z AUTO 00000KT 7SM CLR 22/22 A3010 RMK AO2
     T02170218=
K4A9 081040Z AUTO 00000KT 7SM CLR 20/18 A3006 RMK AO2
     T01960181=
K4R4 081040Z AUTO 00000KT M1/4SM FG OVC007 23/22 A3003 RMK AO2
     T02300223=
K8A0 081039Z AUTO 00000KT 10SM CLR 23/22 A3007 RMK AO2=
KAFP 081040Z AUTO 24003KT 10SM BKN100 21/18 A2997 RMK AO2
     T02050182=
KALX 081040Z AUTO 00000KT 10SM CLR 22/21 A3005 RMK AO1=
KCPC 081040Z AUTO 00000KT 10SM CLR 25/19 A2993 RMK AO2
     T02540194=
KCWF 081040Z AUTO 05004KT 7SM CLR 23/23 A2998 RMK AO2=
KDNN 081038Z AUTO 00000KT 10SM CLR 20/20 A3006 RMK AO2=
KDQH 081040Z AUTO 00000KT 10SM CLR 22/19 A3002 RMK AO1=
KDRI 081040Z AUTO 07003KT 10SM BKN013 BKN017 OVC024 23/23 A3002
     RMK AO2=
KEHO 081040Z AUTO 31003KT 10SM CLR 19/18 A3003 RMK AO2
     T01900180=
KEXX 081040Z AUTO 00000KT 7SM CLR 21/18 A3001 RMK AO2=
KEYF 081040Z AUTO 32003KT 10SM CLR 25/19 A2994 RMK AO2
     T02500187=
KFFA 081038Z AUTO 08007KT 10SM SCT008 25/23 A2995 RMK AO2
     T02490227=
KGHG 081040Z AUTO 13003KT 10SM BKN006 23/21 A3010 RMK AO2=
KGWW 081040Z AUTO 00000KT 5SM HZ CLR 24/21 A2995 RMK AO2
     T02400208=
KHNZ 081040Z AUTO 02003KT 5SM HZ SCT100 SCT120 24/19 A3000 RMK AO2
     T02410194=
KHSP 081040Z AUTO 06004KT 10SM SCT049 23/16 A3027 RMK AO2=
KHUM 081040Z AUTO 2SM BR SCT018 23/23 A2999 RMK AO2 P0001=
KHWY 081040Z AUTO 00000KT 3SM BR CLR 22/20 A3000 RMK AO2=
KIDI 081040Z AUTO 00000KT 3SM CLR 18/18 A3011 RMK AO2=
KIPJ 081040Z AUTO 00000KT 10SM CLR 21/17 A3003 RMK AO2
     T02130172=
KISO 081040Z AUTO 35003KT 4SM BR CLR 23/21 A2995 RMK AO2
     T02320208=
KIXA 081040Z AUTO 36004KT 5SM HZ CLR 23/20 A2996 RMK AO2
     T02330202=
KJES 081040Z AUTO 00000KT 7SM CLR 19/19 A3000 RMK AO2
     T01850186=
KJGG 081040Z AUTO 00000KT 5SM CLR 27/25 A2999 RMK AO1=
KJKA 081040Z AUTO 00000KT 1 1/4SM BR VV007 26/25 A3003 RMK AO2
     T02570248=
KJYO 081040Z AUTO 35003KT 7SM SCT110 28/19 A3002 RMK AO2=
KLDJ 081040Z AUTO 12003KT 3SM BR BKN006 25/23 A3003 RMK AO2
     T02460232=
KLGC 081035Z AUTO 00000KT 7SM CLR 21/ A3004 RMK AO1=
KLHZ 081040Z AUTO 00000KT 5SM HZ CLR 23/20 A2999 RMK AO2
     T02310196=
KLKU 081040Z AUTO 00000KT 4SM HZ CLR 23/19 A3000 RMK AO2=
KLNP 081038Z AUTO 00000KT 5SM CLR 21/18 A3019 RMK AO1=
KLOM 081040Z AUTO 00000KT 3SM 23/21 A3003 RMK AO1 SKY OBSCURED
     T02270214=
KLWB 081042Z AUTO 00000KT 4SM BR CLR 19/18 A3017 RMK AO2=
KMDQ 081040Z AUTO 00000KT 7SM CLR 22/21 A3008 RMK AO2
     T02190211=
KMFV 081042Z AUTO 10003KT 7SM BKN006 OVC100 25/23 A2999 RMK
     AO2=
KMGR 081040Z AUTO 00000KT 10SM CLR 21/20 A3003 RMK AO2=
KMKJ 081040Z AUTO 00000KT 3SM CLR 18/07 A3022 RMK AO1=
KMLJ 081044Z AUTO 00000KT 5SM BR CLR 21/21 A3003 RMK AO2=
KMQI 081037Z AUTO 07009KT 10SM SCT011 26/24 A2995 RMK AO2=
KMQS 081040Z AUTO 00000KT 4SM CLR 23/22 A3006 RMK AO2 PWINO
     PNO=
KMRN 081040Z AUTO 00000KT 7SM SCT100 18/17 A3011 RMK AO2=
KMTV 081040Z AUTO 00000KT 4SM BR CLR 22/21 A3005 RMK AO2=
KOBE 081041Z AUTO 03004KT 10SM CLR 23/22 A2997 RMK AO2=
KOKV 081040Z AUTO 00000KT 4SM HZ SCT095 22/19 A3005 RMK AO2
     T02200190=
KONX 081040Z AUTO 08005KT 10SM SCT012 BKN110 26/23 A2997 RMK AO2
     T02580226=
KOPN 081040Z AUTO 00000KT 10SM CLR 23/22 A3005 RMK AO1=
KPCM 081040Z AUTO 00000KT 2 1/2SM BR CLR 22/21 A3000 RMK AO2=
KPTB 081042Z AUTO 00000KT 3SM BR CLR 23/21 A2999 RMK AO2=
KRCZ 081040Z AUTO 04003KT 10SM CLR 24/19 A2997 RMK AO2
     T02420185=
####018000199####
SPXX60 KWBC 081046
SPECI
KNEL 081042Z AUTO 00000KT 2SM BR SCT005 SCT070 OVC100 24/22 A3003
     RMK AO2 $=
KDTS 081043Z AUTO 00000KT 1 3/4SM BR FEW001 24/23 A3001 RMK AO2
     VIS 1/2V5=
####018000717####
SPUS70 KWBC 081046
SPECI
KMKO 081041Z AUTO 19004KT 10SM VCTS BKN026 BKN031 23/23 A3004 RMK
     AO2 LTG DSNT NW TSE0955B35=
PASI 081042Z 27003KT 10SM SCT002 13/12 A3018 RMK AO2=
KOVS 081043Z AUTO 00000KT 5SM BR SCT008 21/20 A3003 RMK AO2=
PAKI 081041Z AUTO 36004KT 1 1/2SM BR CLR 08/08 A3002 RMK AO2 PWINO
     TSNO $=
PAPB 081043Z AUTO 09017G23KT 10SM SCT028 OVC048 07/06 A2992 RMK
     AO2 TSNO=
KAMA 081044Z 36007KT 1SM BKN005 OVC021 17/17 A3020 RMK AO2 SFC VIS
     10 RAE39 P0002 $=
KCYS 081044Z AUTO 00000KT 8SM SCT004 BKN010 OVC014 12/12 A3037 RMK
     AO2 TSNO=
KDWH 081044Z 07007KT 7SM BKN005 24/24 A2994 RMK AO2=
KHLG 081044Z AUTO 00000KT 2 1/2SM BR CLR 21/19 A3010 RMK AO2=
####018000207####
SAUS70 KWBC 081100
METAR
KBQP 081049Z AUTO 00000KT 4SM BR CLR 24/24 A3005 RMK AO2=
KCGS 081045Z AUTO 00000KT 5SM SCT110 26/23 A3001 RMK AO1=
KCWV 081051Z AUTO 28004KT 10SM CLR 22/22 A3000 RMK AO2=
####018000079####
SPUS41 KWBC 081046
SPECI
KBDR 081043Z 12003KT 2SM BR OVC004 24/23 A3005=
####018000082####
SARA31 KWBC 081000 RRK
METAR
UAFM 081030Z 29005MPS CAVOK 33/06 Q1012 NOSIG=
####018000094####
SASA31 KWBC 081000 RRG
METAR
SKCL 081000Z 00000KT 9999 FEW015 SCT080 24/24 A2987 APCLO=
####018000110####
SAXX99 KWBC 081000 CCC
METAR
EGUB 080950Z AUTO 25004KT 9999 BKN028 BKN120 19/15 Q1018 BLU
     NOSIG=
####018000118####
SPUS41 KWBC 081046
SPECI
KWRI 081044Z AUTO 16003KT 1SM R18/3500V5500FT R24/2200VP6000FT BR
VV001 23/23 A3001=
####018001548####
SPZZ40 KAWN 081045 RRL
SPECI CYBC 081043Z AUTO 08002KT 3 1/2SM OVC001 13/13 A3002=
SPECI CYEK 081041Z AUTO 07004KT 3/8SM VV001 07/07 A2959=
SPECI CYIV 081043Z 31004KT 15SM FEW005 FEW025 FEW035 BKN045 OVC080
      RETS RMK SF1SC1SC1SC5AC1=
SPECI CYKY 081042Z 22003KT 3SM BR FEW100 SCT250 RMK FG1AC1CI0=
SPECI CZBF 081040Z 00000KT 1/2SM FG SKC RMK FG7=
SPECI EKKA 081042Z 20005KT 170V230 4000 SHRA SCT018CB BKN030 17/16
      Q1018 TEMPO 6000 -SHRA=
SPECI KDTS 081043Z AUTO 00000KT 1 3/4SM BR FEW001 24/23 A3001 RMK AO2
      VIS 1/2V5=
SPECI KEGI 081043Z AUTO 00000KT 1/2SM R18/1000V4000FT FG CLR 21/21
      A3003 RMK AO2 SLP168 $=
SPECI KHLR 081040Z AUTO 07005KT 10SM SCT009 BKN018 OVC110 25/ A2999
      RMK AO2 T0250 $=
SPECI KTIK 081042Z AUTO 01006KT 10SM FEW007 BKN011 BKN022 OVC031 23/23
      A3005 RMK AO2 BKN022 V OVC SLP161 $=
SPECI KWRI 081044Z AUTO 16003KT 1SM R18/3500V5500FT R24/2200VP6000FT
      BR VV001 23/23 A3001 RMK AO2 SLP162 $=
SPECI PGUA 081041Z AUTO 09015KT 10SM BKN018 BKN024 27/ A2991 RMK AO2
      RAB1032E1041 CIG 017V021 BKN018 V SCT SLP108 VISNO RWY24L $=
SPECI RJCJ 081042Z 18005KT 2500 -DZ BR SCT001 OVC002 18/17 Q1010 RMK
      3ST001 8ST002 A2985=
SPECI RJNY 081033Z 10002KT 9999 FEW010 BKN015 FEW030TCU BKN130 24/23
      Q1010 RMK 1CU010 5CU015 1TCU030 5AC130 A2983 TCU S=
SPECI RKSO 081041Z AUTO 06004KT 9999 -RA FEW009 25/25 A2978 RMK AO2
      RAB1028 SLP084 $=
SPECI VGZR 081020Z 24010KT 5000 RA BKN009 FEW025CB BKN100 31/28 Q1004
      TEMPO TSRA=
####018000086####
SPUS43 KWBC 081046
SPECI
KPIA 081043Z 00000KT 2SM BR BKN005 OVC010 23/22 A3003=
####018000107####
SPUS53 KWBC 081046
SPECI
KJLN 081043Z AUTO 00000KT 10SM VCTS -RA FEW006 BKN046 OVC065 23/22
A3006=
####018000083####
SPUS72 KWBC 081046
SPECI
KABI 081043Z 36007KT 7SM FEW002 BKN010 22/21 A3006=
####018000107####
SPUS73 KWBC 081046
SPECI
KJLN 081043Z AUTO 00000KT 10SM VCTS -RA FEW006 BKN046 OVC065 23/22
A3006=
####018000086####
SPUS73 KWBC 081046
SPECI
KPIA 081043Z 00000KT 2SM BR BKN005 OVC010 23/22 A3003=
####018000083####
SPUS81 KWBC 081046
SPECI
KABI 081043Z 36007KT 7SM FEW002 BKN010 22/21 A3006=
####018000077####
SPUS75 KWBC 081046
SPECI
PASI 081042Z 27003KT 10SM SCT002 13/12 A3018=
####018000079####
SPUS81 KWBC 081046
SPECI
KBDR 081043Z 12003KT 2SM BR OVC004 24/23 A3005=
####018000107####
SPUS81 KWBC 081046
SPECI
KJLN 081043Z AUTO 00000KT 10SM VCTS -RA FEW006 BKN046 OVC065 23/22
A3006=
####018000674####
SAUS20 KNKA 081046
SPECI KHBR 081045Z AUTO 06007KT 6SM VCTS BR FEW004 BKN060 23/22 
    A3006 RMK AO2 TSB39=
METAR KIYK 081045Z 00000KT 20SM SKC 25/ A2984=
SPECI KMAI 081044Z AUTO 00000KT 1/4SM FG BKN001 BKN008 23/22 A3002 
    RMK AO2=
METAR KMTN 081045Z 09003KT 3SM BR SCT060 26/25 A3002=
SPECI KPSM 081036Z 18005KT 7SM SCT010 BKN020 OVC070 23/21 A3007 RMK
      AO2A=
SPECI KRBD 081044Z 12004KT 10SM BKN009 OVC016 25/23 A3001 RMK AO2 
    CIG 006V012=
SPECI KSSF 081045Z AUTO 05004KT 10SM SCT013 BKN036 OVC045 26/23 
    A2992 RMK AO2=
METAR KSUA 081047Z 06006KT 10SM SCT035 26/21 A2997 =
METAR KVQQ 081050Z 00000KT 6SM BR CLR 17/17 A3001 =
####018000086####
SPUS81 KWBC 081046
SPECI
KPIA 081043Z 00000KT 2SM BR BKN005 OVC010 23/22 A3003=
####018000262####
SPNA35 KAWN 081046 RRF
SPECI KWRI 081041Z AUTO 16003KT 3/4SM R18/3000V5000FT R24/2000V4000FT
      BR VV001 23/23 A3001 RMK AO2 SLP162 $=
SPECI KWRI 081044Z AUTO 16003KT 1SM R18/3500V5500FT R24/2200VP6000FT
      BR VV001 23/23 A3001 RMK AO2 SLP162 $=
####018000373####
SAIN32 VIDP 081030
METAR VIJP 081030Z 23013KT 200V260 3000 HZ SCT030 FEW035CB SCT100
    31/27 Q1005 TEMPO 1500 TSRA=
METAR VIDP 081030Z 34010KT 2700 HZ SCT030 FEW040CB BKN100 34/26 Q1004
    TEMPO 36030KT 1500 TSRA=
METAR VILK 081030Z 09004KT 5000 HZ SCT020 SCT025 FEW030CB 36/24
    Q1001 NOSIG=
METAR VIAR 081030Z VRB03KT 7000 SCT035 SCT100 38/24 Q1003=
####018000139####
SPCN46 CWAO 081046
SPECI CYKF 081046Z AUTO 13004KT 060V130 2SM BR CLR 20/20 A3006 RMK
 SLP176 DENSITY ALT 1700FT VIS VRB 1 1/4-3=

####018000126####
SPCN47 CWAO 081046
SPECI CYTZ 081046Z AUTO 21002KT 2SM BR FEW003 20/19 A3002 RMK SLP166
 DENSITY ALT 700FT RVR MISG=

####018000087####
SAUS46 KLOX 081046
MTRMWS
METAR KMWS 081030Z 13508G13KT 19/M06 RMK SNOW DEPTH  M
####018000095####
SPCN47 CWAO 081045
SPECI CYYY 081045Z 08002KT 3/4SM R06/2200V4500FT/D BR VV003 RMK FG8=

####018000552####
SAUS20 KNKA 081046
SPECI KABI 081043Z 36007KT 7SM FEW002 BKN010 22/21 A3006 RMK AO2
     $=
SPECI KBMG 081045Z 00000KT 2SM BR CLR 21/21 A3006 RMK AO2=
METAR KCGF 081045Z 00000KT 7SM FEW075 22/20 A3008=
SPECI KCQX 081045Z AUTO 00000KT 4SM BR OVC001 20/19 A3012 RMK AO2=
SPECI KDMO 081045Z AUTO 00000KT 3SM BR CLR 23/22 A3004 RMK AO2=
SPECI KDTS 081045Z AUTO 00000KT 3SM BR FEW001 24/23 A3001 RMK AO2=
SPECI KHAO 081045Z AUTO 00000KT 3/4SM BR CLR 21/19 A3009 RMK AO2=
SPECI KUCP 081046Z AUTO 00000KT 1SM BR CLR 18/18 A3011 RMK AO2 $=
####018000264####
SAUS99 KWBC 081047
METAR
KIYK 081045Z 00000KT 20SM SKC 25/ A2984=
KMTN 081045Z 09003KT 3SM BR SCT060 26/25 A3002=
KSUA 081047Z 06006KT 10SM SCT035 26/21 A2997=
KVQQ 081050Z 00000KT 6SM BR CLR 17/17 A3001=
KCGF 081045Z 00000KT 7SM FEW075 22/20 A3008=
####018000866####
SPUS99 KWBC 081047
SPECI
KHBR 081045Z AUTO 06007KT 6SM VCTS BR FEW004 BKN060 23/22 A3006
     RMK AO2 TSB39=
KMAI 081044Z AUTO 00000KT 1/4SM FG BKN001 BKN008 23/22 A3002 RMK
     AO2=
KPSM 081036Z 18005KT 7SM SCT010 BKN020 OVC070 23/21 A3007 RMK
     AO2A=
KRBD 081044Z 12004KT 10SM BKN009 OVC016 25/23 A3001 RMK AO2 CIG
     006V012=
KSSF 081045Z AUTO 05004KT 10SM SCT013 BKN036 OVC045 26/23 A2992
     RMK AO2=
KABI 081043Z 36007KT 7SM FEW002 BKN010 22/21 A3006 RMK AO2 $=
KBMG 081045Z 00000KT 2SM BR CLR 21/21 A3006 RMK AO2=
KCQX 081045Z AUTO 00000KT 4SM BR OVC001 20/19 A3012 RMK AO2=
KDMO 081045Z AUTO 00000KT 3SM BR CLR 23/22 A3004 RMK AO2=
KDTS 081045Z AUTO 00000KT 3SM BR FEW001 24/23 A3001 RMK AO2=
KHAO 081045Z AUTO 00000KT 3/4SM BR CLR 21/19 A3009 RMK AO2=
KUCP 081046Z AUTO 00000KT 1SM BR CLR 18/18 A3011 RMK AO2 $=
####018000105####
SAUK51 EGGY 080950 CCC
METAR COR EGUB 080950Z AUTO 25004KT 9999 BKN028 BKN120 19/15 Q1018
    NOSIG=
####018000109####
SPAS31 KWBC 081047
SPECI
VGZR 081020Z 24010KT 5000 RA BKN009 FEW025CB BKN100 31/28 Q1004
TEMPO TSRA=
####018000118####
SPDN31 KWBC 081047
SPECI
EKKA 081042Z 20005KT 170V230 4000 SHRA SCT018CB BKN030 17/16 Q1018
TEMPO 6000 -SHRA=
####018000087####
SPPA41 KWBC 081047
SPECI
PGUA 081041Z AUTO 09015KT 10SM BKN018 BKN024 27/ A2991=
####018000117####
SPJP41 KWBC 081047
SPECI
RJCJ 081042Z 18005KT 2500 -DZ BR SCT001 OVC002 18/17 Q1010 RMK
3ST001 8ST002 A2985=
####018000148####
SPJP43 KWBC 081047
SPECI
RJNY 081033Z 10002KT 9999 FEW010 BKN015 FEW030TCU BKN130 24/23
Q1010 RMK 1CU010 5CU015 1TCU030 5AC130 A2983 TCU S=
####018000157####
SPPA31 KWBC 081047
SPECI
PGUA 081041Z AUTO 09015KT 10SM BKN018 BKN024 27/ A2991 RMK AO2
RAB1032E1041 CIG 017V021 BKN018 V SCT SLP108 VISNO RWY24L $=
####018000113####
SPXX62 KWBC 081047
SPECI
RKSO 081041Z AUTO 06004KT 9999 -RA FEW009 25/25 A2978 RMK AO2
RAB1028 SLP084 $=
####018000083####
SPUS41 KWBC 081047
SPECI
KORH 081044Z 16005KT 2 1/2SM BR OVC002 22/22 A3011=
####018000083####
SPUS42 KWBC 081047
SPECI
KAMA 081044Z 36007KT 1SM BKN005 OVC021 17/17 A3020=
####018000083####
SACN88 CWAO 081000 RRG
WXI SA 1000 AUTO8 M M M 187/09/09/0407/M/ 5002 37MM=

####018000232####
SACN60 CWAO 081000 RRC
PAC SA 1000 AUTO8 M M M M/11/09/2806/M/ M 15MM=
PAT SA 1000 AUTO8 M M M M/13/10/2001/M/ M 08MM=
PAZ SA 1000 AUTO8 M M M M/09/08/2606/M/0004 M 46MM=
PBD SA 1000 AUTO8 M M M M/10/07/2602/M/ M 72MM=

####018000075####
SACN50 CWAO 081045
VOU SA 1045 AUTO8 M M M M/17/10/2901/M/M M 93MM=

####018000083####
SACN89 CWAO 081000 RRF
WBJ SA 1000 AUTO8 M M M 133/11/08/3507/M/ 3003 11MM=

####018000083####
SACN93 CWAO 081000 RRE
WNV SA 1000 AUTO8 M M M 205/07/06/2404/M/ 8002 75MM=

####018000084####
SACN95 CWAO 081000 RRD
WTE SA 1000 AUTO8 M M M 164/11/10/1803/M/M 1004 09MM=

####018000083####
SACN50 CWAO 081000 RRC
VLY SA 1000 AUTO8 M M M 176/17/09/1604/M/ 1017 89MM=

####018000083####
SACN97 CWAO 081000 RRF
XTN SA 1000 AUTO8 M M M 126/05/05/3101/M/ 7006 41MM=

####018000075####
SACN50 CWAO 081045
VOC SA 1045 AUTO8 M M M M/12/09/0000/M/M M 75MM=

####018000128####
SACN59 CWAO 081000 RRG
XVW SA 1000 AUTO8 M M M M/14/09/0108/M/ M 03MM=
ZMU SA 1000 AUTO8 M M M M/12/10/2406/M/ M 83MM=

####018000104####
SACN90 CWAO 081000 RRE
WEF SA 1000 AUTO8 M M M 176/13/12/1413/M/M PK WND 1519 0904Z 0000
61MM=

####018000095####
SPUS53 KWBC 081047
SPECI
KCYS 081044Z AUTO 00000KT 8SM SCT004 BKN010 OVC014 12/12 A3037=
####018000117####
SAAE31 VTBB 081030 RRB
METAR VDSR 081030Z 18008KT 9999 SCT015 FEW018CB SCT040 34/23 Q1005
           CB:SE,NE=
####018000083####
SPUS72 KWBC 081047
SPECI
KAMA 081044Z 36007KT 1SM BKN005 OVC021 17/17 A3020=
####018000095####
SPUS73 KWBC 081047
SPECI
KCYS 081044Z AUTO 00000KT 8SM SCT004 BKN010 OVC014 12/12 A3037=
####018000137####
SAUS44 KFWD 081047
MTRNQI
SPECI KNQI 081045Z AUTO 02007KT 2 1/2SM +RA BR BKN022 BKN031 OVC060 
27/24 A2983 RMK AO2 RAB18 P0007 $
####018000083####
SPUS81 KWBC 081047
SPECI
KORH 081044Z 16005KT 2 1/2SM BR OVC002 22/22 A3011=
####018000075####
SACN95 CWAO 081045
WWA SA 1045 AUTO8 M M M M/19/09/0103/M/M M 39MM=

####018000075####
SACN50 CWAO 081045
VOF SA 1045 AUTO8 M M M M/13/06/3501/M/M M 20MM=

####018000075####
SACN50 CWAO 081045
VWB SA 1045 AUTO8 M M M M/17/04/MMMM/M/M M 51MM=

####018000075####
SACN94 CWAO 081045
WSK SA 1045 AUTO8 M M M M/16/10/3601/M/M M 63MM=

####018000075####
SACN50 CWAO 081030
VOV SA 1030 AUTO8 M M M M/11/07/0201/M/M M 15MM=

####018000075####
SACN50 CWAO 081045
VOB SA 1045 AUTO8 M M M M/16/07/0000/M/M M 18MM=

####018000075####
SACN50 CWAO 081045
VOY SA 1045 AUTO8 M M M M/12/06/3401/M/M M 54MM=

####018000075####
SACN50 CWAO 081045
VOV SA 1045 AUTO8 M M M M/11/06/0301/M/M M 93MM=

####018000074####
SACN50 CWAO 081030
VOJ SA 1030 AUTO8 M M M M/17/M/0404/M/M M 0MMM=

####018000075####
SACN50 CWAO 081045
VOD SA 1045 AUTO8 M M M M/11/04/0702/M/M M 91MM=

####018000074####
SACN50 CWAO 081045
WPN SA 1045 AUTO8 M M M M/12/M/0000/M/M M 1MMM=

####018000078####
SAUS90 KWBC 081048
METAR KMWS 081030Z 13508G13KT 19/M06 RMK SNOW DEPTH M=
####018000430####
SAUS20 KNKA 081047
METAR KATW 081045Z 00000KT 02SM BR OVC003 22/21 A3001=
METAR KBXK 081035Z AUTO 32005KT 10SM CLR 25/M03 A2976 RMK AO1 =
METAR KPAN 081055Z AUTO 00000KT 10SM CLR 19/04 A3012 RMK AO1 =
METAR KPEQ 081043Z AUTO 35003KT 10SM CLR 22/21 A3006 RMK AO2=
METAR KRCR 081045Z AUTO 15003KT 7SM SCT055 SCT075 SCT080 24/22 
     A3005 RMK AO2=
METAR KRQO 081055Z AUTO 00000KT 3SM BR OVC001 23/22 A3006 RMK AO2=
####018000076####
SPCN46 CWAO 081045
SPECI CYGK 081045Z 00000KT 4SM HZ FEW058 RMK SC2=

####018000082####
SPCN48 CWAO 081046
SPECI CYGV 081046Z AUTO 09005KT 9SM OVC003 14/12 A3003=

####018000403####
SAUS20 KNKA 081047
SPECI KEWR 081046Z 19004KT 4SM BR FEW005 SCT100 SCT130 BKN250 26/25 
    A3003 RMK AO2=
METAR KGYY 081045Z VRB04KT 4SM BR OVC055 24/23 A3002=
SPECI KLIC 081046Z AUTO 17004KT 6SM BR BKN005 BKN120 13/13 A3033 RMK 
    AO2=
SPECI KMHT 081046Z VRB05KT 3SM BR OVC010 23/21 A3006 RMK AO2 SFC VIS 
    3 CIG 007V012=
METAR KOXC 081045Z 00000KT 1/4SM FG OVC002 23/22 A3009=
####018000113####
SACN85 KWBC 081048
METAR CWEF 081000Z AUTO 14013KT 13/12 RMK AO1 PK WND 15019/0904
SLP176 T01260121 50000=
####018000080####
SACN94 KWBC 081048
METAR CWSK 081045Z AUTO 36001KT 16/10 RMK AO1 T01560103=
####018000279####
SPUS99 KWBC 081048
SPECI
KEWR 081046Z 19004KT 4SM BR FEW005 SCT100 SCT130 BKN250 26/25
     A3003 RMK AO2=
KLIC 081046Z AUTO 17004KT 6SM BR BKN005 BKN120 13/13 A3033 RMK
     AO2=
KMHT 081046Z VRB05KT 3SM BR OVC010 23/21 A3006 RMK AO2 SFC VIS 3
     CIG 007V012=
####018000501####
SAUS99 KWBC 081048
METAR
KATW 081045Z 00000KT 02SM BR OVC003 22/21 A3001=
KBXK 081035Z AUTO 32005KT 10SM CLR 25/M03 A2976 RMK AO1=
KPAN 081055Z AUTO 00000KT 10SM CLR 19/04 A3012 RMK AO1=
KPEQ 081043Z AUTO 35003KT 10SM CLR 22/21 A3006 RMK AO2=
KRCR 081045Z AUTO 15003KT 7SM SCT055 SCT075 SCT080 24/22 A3005 RMK
     AO2=
KRQO 081055Z AUTO 00000KT 3SM BR OVC001 23/22 A3006 RMK AO2=
KGYY 081045Z VRB04KT 4SM BR OVC055 24/23 A3002=
KOXC 081045Z 00000KT 1/4SM FG OVC002 23/22 A3009=
####018000095####
SACN88 KWBC 081048
METAR CWXI 081000Z AUTO 04007KT 09/09 RMK AO1 SLP187 T00930087
55002=
####018000095####
SACN97 KWBC 081048
METAR CXTN 081000Z AUTO 31001KT 05/05 RMK AO1 SLP126 T00540051
57006=
####018000080####
SACN95 KWBC 081048
METAR CWWA 081045Z AUTO 01003KT 19/09 RMK AO1 T01930089=
####018000366####
SAIN32 VIDP 081030
METAR VIJP 081030Z 23013KT 200V260 3000 HZ SCT030 FEW035CB SCT100
    31/27 Q1005 TEMPO 1500 TSRA=
METAR VIDP 081030Z 34010KT 2700 HZ SCT030 FEW040CB BKN100 34/26 Q1004
    TEMPO 36030KT 1500 TSRA=
METAR VILK 081030Z 09004KT 5000 HZ SCT020 SCT025 FEW030CB 36/24
    Q1001 NOSIG=
METAR VIAR 081030Z VRB03KT 7000 SCT035 SCT100 38/24 Q1003=
####018000075####
SADL45 ETGT 081050
METAR
ETNG 081050Z 26006KT CAVOK 29/11 Q1020 NOSIG=
####018000538####
SAUS70 KWBC 081100
METAR
KIYK 081045Z 00000KT 20SM SKC 25/ A2984=
KMTN 081045Z 09003KT 3SM BR SCT060 26/25 A3002=
KSUA 081047Z 06006KT 10SM SCT035 26/21 A2997=
KVQQ 081050Z 00000KT 6SM BR CLR 17/17 A3001=
KCGF 081045Z 00000KT 7SM FEW075 22/20 A3008=
KATW 081045Z 00000KT 02SM BR OVC003 22/21 A3001=
KPAN 081055Z AUTO 00000KT 10SM CLR 19/04 A3012 RMK AO1=
KRQO 081055Z AUTO 00000KT 3SM BR OVC001 23/22 A3006 RMK AO2=
KGYY 081045Z VRB04KT 4SM BR OVC055 24/23 A3002=
KOXC 081045Z 00000KT 1/4SM FG OVC002 23/22 A3009=
####018000080####
SAUS80 KWBC 081048
METAR
KMWS 081030Z 13508G13KT 19/M06 RMK SNOW DEPTH M=
####018000809####
SPXX60 KWBC 081048
SPECI
KDTS 081043Z AUTO 00000KT 1 3/4SM BR FEW001 24/23 A3001 RMK AO2
     VIS 1/2V5=
KHLR 081040Z AUTO 07005KT 10SM SCT009 BKN018 OVC110 25/ A2999 RMK
     AO2 T0250 $=
KTIK 081042Z AUTO 01006KT 10SM FEW007 BKN011 BKN022 OVC031 23/23
     A3005 RMK AO2 BKN022 V OVC SLP161 $=
KWRI 081044Z AUTO 16003KT 1SM R18/3500V5500FT R24/2200VP6000FT BR
     VV001 23/23 A3001 RMK AO2 SLP162 $=
PGUA 081041Z AUTO 09015KT 10SM BKN018 BKN024 27/ A2991 RMK AO2
     RAB1032E1041 CIG 017V021 BKN018 V SCT SLP108 VISNO RWY24L
     $=
KPSM 081036Z 18005KT 7SM SCT010 BKN020 OVC070 23/21 A3007 RMK
     AO2A=
KDTS 081045Z AUTO 00000KT 3SM BR FEW001 24/23 A3001 RMK AO2=
KNQI 081045Z AUTO 02007KT 2 1/2SM +RA BR BKN022 BKN031 OVC060
     27/24 A2983 RMK AO2 RAB18 P0007 $=
####018000146####
SAUS70 KWBC 081048
METAR
KBXK 081035Z AUTO 32005KT 10SM CLR 25/M03 A2976 RMK AO1=
KPEQ 081043Z AUTO 35003KT 10SM CLR 22/21 A3006 RMK AO2=
####018000170####
SPUS80 KWBC 081048
SPECI
KABI 081043Z 36007KT 7SM FEW002 BKN010 22/21 A3006 RMK AO2 $=
KLIC 081046Z AUTO 17004KT 6SM BR BKN005 BKN120 13/13 A3033 RMK
     AO2=
####018000835####
SPUS70 KWBC 081048
SPECI
KHBR 081045Z AUTO 06007KT 6SM VCTS BR FEW004 BKN060 23/22 A3006
     RMK AO2 TSB39=
KMAI 081044Z AUTO 00000KT 1/4SM FG BKN001 BKN008 23/22 A3002 RMK
     AO2=
KRBD 081044Z 12004KT 10SM BKN009 OVC016 25/23 A3001 RMK AO2 CIG
     006V012=
KSSF 081045Z AUTO 05004KT 10SM SCT013 BKN036 OVC045 26/23 A2992
     RMK AO2=
KBMG 081045Z 00000KT 2SM BR CLR 21/21 A3006 RMK AO2=
KCQX 081045Z AUTO 00000KT 4SM BR OVC001 20/19 A3012 RMK AO2=
KDMO 081045Z AUTO 00000KT 3SM BR CLR 23/22 A3004 RMK AO2=
KHAO 081045Z AUTO 00000KT 3/4SM BR CLR 21/19 A3009 RMK AO2=
KUCP 081046Z AUTO 00000KT 1SM BR CLR 18/18 A3011 RMK AO2 $=
KEWR 081046Z 19004KT 4SM BR FEW005 SCT100 SCT130 BKN250 26/25
     A3003 RMK AO2=
KMHT 081046Z VRB05KT 3SM BR OVC010 23/21 A3006 RMK AO2 SFC VIS 3
     CIG 007V012=
####018000113####
SAAS33 KWBC 081030 RRC
METAR
VDSR 081030Z 18008KT 9999 SCT015 FEW018CB SCT040 34/23 Q1005
     CB:SE,NE=
####018000186####
SAAS31 KWBC 081030 RRB
METAR
VIAR 081030Z VRB03KT 7000 SCT035 SCT100 38/24 Q1003=
VIDP 081030Z 34010KT 2700 HZ SCT030 FEW040CB BKN100 34/26 Q1004
     TEMPO 36030KT 1500 TSRA=
####018000080####
SAUS31 KWBC 081000 RRC
METAR
KLGC 081035Z AUTO 00000KT 7SM CLR 21/ A3004=
####018000099####
SAXX99 KWBC 081000 CCD
METAR
EGUB 080950Z AUTO 25004KT 9999 BKN028 BKN120 19/15 Q1018 NOSIG=
####018000211####
SAXX99 KWBC 081000 RRX
METAR
VIJP 081030Z 23013KT 200V260 3000 HZ SCT030 FEW035CB SCT100 31/27
     Q1005 TEMPO 1500 TSRA=
VILK 081030Z 09004KT 5000 HZ SCT020 SCT025 FEW030CB 36/24 Q1001
     NOSIG=
####018000083####
SAUS41 KWBC 081000 RRH
METAR
KWDR 081040Z AUTO 35003KT 10SM CLR 22/20 A3008=
####018000130####
SAUS42 KWBC 081000 RRF
METAR
KLGC 081035Z AUTO 00000KT 7SM CLR 21/ A3004=
KOPN 081040Z AUTO 00000KT 10SM CLR 23/22 A3005=
####018000096####
SPUS52 KWBC 081048
SPECI
KHBR 081045Z AUTO 06007KT 6SM VCTS BR FEW004 BKN060 23/22 A3006=
####018000083####
SAUS51 KWBC 081000 RRD
METAR
KIPJ 081040Z AUTO 00000KT 10SM CLR 21/17 A3003=
####018000093####
SAUS52 KWBC 081000 RRG
METAR
KVUJ 081039Z AUTO 00000KT 10SM SCT075 BKN100 22/19 A2998=
####018000085####
SAUS53 KWBC 081000 RRL
METAR
KTDF 081042Z AUTO 00000KT 3SM SCT120 21/20 A3001=
####018000067####
SAUS54 KWBC 081000 RRG
METAR
KMWS 081030Z 13508G13KT 19/M06=
####018000109####
SANA14 KAWN 081000 RRG
METAR KOSC 081034Z AUTO 00000KT 4SM BR SCT050 SCT060 21/20 A3000 RMK
      AO2=
####018000237####
SAZZ40 KAWN 081000 RRV
METAR UAFM 081030Z 29005MPS CAVOK 33/06 Q1012 NOSIG=
METAR WMKK 081030Z 20004KT 160V230 9999 FEW018 SCT140 BKN280 29/26
      Q1008 NOSIG=
METAR WMKP 081030Z 26005KT 9999 FEW020 BKN280 31/25 Q1008 NOSIG=
####018000083####
SPCN44 CWAO 081046
SPECI CYEK 081046Z AUTO 07004KT 1/8SM VV001 07/07 A2959=

####018000079####
SPCN43 CWAO 081047
SPECI CYPY 081047Z AUTO 27002KT 9SM CLR 11/11 A2993=

####018000122####
SAUS46 KLOX 081048
MTRCQT
METAR KCQT 081047Z AUTO 00000KT 8SM OVC011 17/13 A2989 RMK AO2 
SLP120 T01720133 TSNO $
####018002962####
SAUS20 KNKA 081048
METAR K0F2 081044Z AUTO 00000KT 10SM SCT080 23/22 A3003 RMK AO2 
     T02320220=
METAR K11R 081044Z AUTO 04003KT 7SM CLR 24/23 A2995 RMK AO2=
METAR K1H2 081045Z AUTO 12003KT 4SM BR CLR 23/23 A3004 RMK AO2 
     T02340226=
METAR K3LF 081043Z AUTO 00000KT 2 1/2SM BR SCT070 SCT080 23/22 
     A3004 RMK AO2=
METAR K3T5 081044Z AUTO 00000KT 7SM SCT008 BKN012 OVC100 25/24 
     A2991 RMK AO2 T02520237=
METAR K5C1 081045Z AUTO 04003KT 7SM SCT009 BKN020 OVC040 24/23 
     A2998 RMK AO1=
METAR K6R3 081041Z AUTO 07003KT 7SM SCT021 BKN055 OVC120 24/24 
     A2996 RMK AO2 T02420242=
METAR KAAA 081043Z AUTO 00000KT 1 3/4SM BR VV007 22/22 A3003 RMK 
     AO2 T02220216=
METAR KADS 081043Z AUTO 16004KT 10SM OVC012 25/23 A3002 RMK AO2 
     T02500231=
METAR KAJG 081045Z AUTO 11003KT 5SM BR CLR 22/21 A3005 RMK AO2 
     T02220212=
METAR KALN 081043Z AUTO 00000KT 7SM SCT045 BKN055 25/24 A3004 RMK 
     AO2 T02450240=
METAR KAPY 081043Z AUTO 34004KT 10SM OVC021 26/25 A2985 RMK AO2 
     T02550245=
METAR KAQO 081045Z AUTO 00000KT 24/23 A3001 RMK AO2=
METAR KARM 081045Z AUTO 05006KT 10SM SCT021 BKN041 BKN075 26/25 
     A2990 RMK AO2 LTG DSNT NE T02620246=
METAR KAXH 081045Z AUTO 00000KT 10SM CLR 26/24 A2990 RMK AO2 
     T02630238=
METAR KBBD 081045Z AUTO 08003KT 10SM FEW017 SCT030 22/21 A3002 RMK=
METAR KBEA 081043Z AUTO 03006KT 10SM SCT030 SCT039 25/25 A2986 
     RMK AO2 P0001 T02450245=
METAR KBKD 081041Z AUTO 36005KT 2SM BR BKN002 OVC016 23/23 A3003 
     RMK AO2 T02330227=
METAR KBKS 081046Z AUTO 36005KT 10SM BKN005 BKN018 OVC025 27/25 
     A2982 RMK AO1 T02650250=
METAR KBPC 081048Z AUTO 01005KT 10SM BKN037 BKN070 BKN095 18/17 
     A3017 RMK AO2 P0002=
METAR KBPG 081045Z AUTO 36003KT 7SM SCT095 SCT120 21/20 A3009 RMK 
     AO1 T02060195=
METAR KC09 081044Z AUTO 00000KT 2SM BR SCT047 SCT065 BKN120 21/21 
     A3002 RMK AO2 LTG DSNT E AND S=
METAR KCIR 081042Z AUTO 00000KT 10SM CLR 24/22 A3005 RMK AO2=
METAR KCUL 081045Z AUTO 00000KT 4SM CLR 22/21 A3005 RMK AO2 
     T02240206=
METAR KDKB 081041Z AUTO 17006KT 1 1/2SM BR OVC002 22/21 A3002 RMK 
     AO2 T02150210=
METAR KDKR 081045Z AUTO 08004KT 7SM CLR 24/24 A3001 RMK AO2=
METAR KDNV 081045Z AUTO 00000KT 5SM BR SCT090 22/21 A3001 RMK AO2 
     T02200205=
METAR KDZB 081045Z AUTO 00000KT 4SM BR BKN006 OVC013 24/24 A2997 
     RMK AO2 T02380240=
METAR KECU 081045Z AUTO 09003KT 7SM FEW006 SCT011 BKN016 22/21 
     A3008 RMK AO2=
METAR KENL 081045Z AUTO 00000KT 10SM SCT049 SCT060 24/16 A3004 
     RMK AO2 T02400160=
METAR KFEP 081045Z AUTO 00000KT 5SM BR SCT029 22/20 A3003 RMK AO2 
     T02220202=
METAR KGLE 081044Z AUTO 00000KT 10SM BKN024 BKN090 26/23 A3005 
     RMK AO2=
METAR KHQZ 081046Z AUTO 10003KT 10SM SCT010 BKN024 25/23 A3002 
     RMK AO2=
SPECI KIJD 081047Z AUTO 14005KT 3SM BR OVC003 23/22 A3008 RMK AO2 
    CIG 003V007=
####018001142####
SAUS20 KNKA 081048
METAR KJOT 081046Z AUTO 00000KT 2SM BR CLR 23/22 A3002 RMK AO2=
SPECI KLAR 081047Z AUTO 00000KT 3SM BR FEW002 BKN020 07/06 A3039 RMK 
    AO2=
SPECI KLHQ 081047Z AUTO 00000KT 1 1/4SM BR CLR 19/18 A3009 RMK AO2=
METAR KLOT 081041Z AUTO 00000KT 2SM BR SCT085 22/21 A3001 RMK AO2 
     LTG DSNT E AND SW=
SPECI KMIV 081047Z AUTO 12003KT 2 1/2SM BR CLR 23/22 A3001 RMK AO2=
METAR KOLY 081043Z AUTO 00000KT 4SM BR CLR 23/22 A3004 RMK AO2=
METAR KORG 081045Z AUTO 08008KT 7SM CLR 16/14 A2997 RMK AO2=
METAR KOXI 081045Z AUTO 00000KT 1 1/2SM SCT075 OVC110 21/20 A3003 
     RMK AO1 T02080197=
METAR KOZA 081041Z AUTO 00000KT 7SM SCT041 SCT120 22/21 A3005 RMK 
     AO2 T02180212=
METAR KPNT 081045Z AUTO 14003KT 2 1/2SM VCTSBR SCT007 BKN046 120 
     22/22 A3004 RMK AO2 P0008 LTG DSNT SE=
METAR KPPQ 081045Z AUTO 00000KT 7SM -RA SCT050 SCT065 23/22 A3005 
     RMK AO2 P0001=
METAR KPRG 081045Z AUTO 00000KT 4SM BR CLR 21/21 A3005 RMK AO2 
     T02160211=
METAR KPVW 081041Z AUTO 04007KT 10SM CLR 18/16 A3013 RMK AO2=
METAR KSFY 081045Z AUTO 00000KT 5SM BR OVC009 23/22 A3003 RMK AO2=
####018000316####
SPUS99 KWBC 081049
SPECI
KIJD 081047Z AUTO 14005KT 3SM BR OVC003 23/22 A3008 RMK AO2 CIG
     003V007=
KLAR 081047Z AUTO 00000KT 3SM BR FEW002 BKN020 07/06 A3039 RMK
     AO2=
KLHQ 081047Z AUTO 00000KT 1 1/4SM BR CLR 19/18 A3009 RMK AO2=
KMIV 081047Z AUTO 12003KT 2 1/2SM BR CLR 23/22 A3001 RMK AO2=
####018003482####
SAUS99 KWBC 081049
METAR
K0F2 081044Z AUTO 00000KT 10SM SCT080 23/22 A3003 RMK AO2
     T02320220=
K11R 081044Z AUTO 04003KT 7SM CLR 24/23 A2995 RMK AO2=
K1H2 081045Z AUTO 12003KT 4SM BR CLR 23/23 A3004 RMK AO2
     T02340226=
K3LF 081043Z AUTO 00000KT 2 1/2SM BR SCT070 SCT080 23/22 A3004 RMK
     AO2=
K3T5 081044Z AUTO 00000KT 7SM SCT008 BKN012 OVC100 25/24 A2991 RMK
     AO2 T02520237=
K5C1 081045Z AUTO 04003KT 7SM SCT009 BKN020 OVC040 24/23 A2998 RMK
     AO1=
K6R3 081041Z AUTO 07003KT 7SM SCT021 BKN055 OVC120 24/24 A2996 RMK
     AO2 T02420242=
KAAA 081043Z AUTO 00000KT 1 3/4SM BR VV007 22/22 A3003 RMK AO2
     T02220216=
KADS 081043Z AUTO 16004KT 10SM OVC012 25/23 A3002 RMK AO2
     T02500231=
KAJG 081045Z AUTO 11003KT 5SM BR CLR 22/21 A3005 RMK AO2
     T02220212=
KALN 081043Z AUTO 00000KT 7SM SCT045 BKN055 25/24 A3004 RMK AO2
     T02450240=
KAPY 081043Z AUTO 34004KT 10SM OVC021 26/25 A2985 RMK AO2
     T02550245=
KAQO 081045Z AUTO 00000KT 24/23 A3001 RMK AO2=
KARM 081045Z AUTO 05006KT 10SM SCT021 BKN041 BKN075 26/25 A2990
     RMK AO2 LTG DSNT NE T02620246=
KAXH 081045Z AUTO 00000KT 10SM CLR 26/24 A2990 RMK AO2
     T02630238=
KBBD 081045Z AUTO 08003KT 10SM FEW017 SCT030 22/21 A3002 RMK=
KBEA 081043Z AUTO 03006KT 10SM SCT030 SCT039 25/25 A2986 RMK AO2
     P0001 T02450245=
KBKD 081041Z AUTO 36005KT 2SM BR BKN002 OVC016 23/23 A3003 RMK AO2
     T02330227=
KBKS 081046Z AUTO 36005KT 10SM BKN005 BKN018 OVC025 27/25 A2982
     RMK AO1 T02650250=
KBPC 081048Z AUTO 01005KT 10SM BKN037 BKN070 BKN095 18/17 A3017
     RMK AO2 P0002=
KBPG 081045Z AUTO 36003KT 7SM SCT095 SCT120 21/20 A3009 RMK AO1
     T02060195=
KC09 081044Z AUTO 00000KT 2SM BR SCT047 SCT065 BKN120 21/21 A3002
     RMK AO2 LTG DSNT E AND S=
KCIR 081042Z AUTO 00000KT 10SM CLR 24/22 A3005 RMK AO2=
KCUL 081045Z AUTO 00000KT 4SM CLR 22/21 A3005 RMK AO2
     T02240206=
KDKB 081041Z AUTO 17006KT 1 1/2SM BR OVC002 22/21 A3002 RMK AO2
     T02150210=
KDKR 081045Z AUTO 08004KT 7SM CLR 24/24 A3001 RMK AO2=
KDNV 081045Z AUTO 00000KT 5SM BR SCT090 22/21 A3001 RMK AO2
     T02200205=
KDZB 081045Z AUTO 00000KT 4SM BR BKN006 OVC013 24/24 A2997 RMK AO2
     T02380240=
KECU 081045Z AUTO 09003KT 7SM FEW006 SCT011 BKN016 22/21 A3008 RMK
     AO2=
KENL 081045Z AUTO 00000KT 10SM SCT049 SCT060 24/16 A3004 RMK AO2
     T02400160=
KFEP 081045Z AUTO 00000KT 5SM BR SCT029 22/20 A3003 RMK AO2
     T02220202=
KGLE 081044Z AUTO 00000KT 10SM BKN024 BKN090 26/23 A3005 RMK
     AO2=
KHQZ 081046Z AUTO 10003KT 10SM SCT010 BKN024 25/23 A3002 RMK
     AO2=
KJOT 081046Z AUTO 00000KT 2SM BR CLR 23/22 A3002 RMK AO2=
KLOT 081041Z AUTO 00000KT 2SM BR SCT085 22/21 A3001 RMK AO2 LTG
     DSNT E AND SW=
KOLY 081043Z AUTO 00000KT 4SM BR CLR 23/22 A3004 RMK AO2=
KORG 081045Z AUTO 08008KT 7SM CLR 16/14 A2997 RMK AO2=
KOXI 081045Z AUTO 00000KT 1 1/2SM SCT075 OVC110 21/20 A3003 RMK
     AO1 T02080197=
KOZA 081041Z AUTO 00000KT 7SM SCT041 SCT120 22/21 A3005 RMK AO2
     T02180212=
KPNT 081045Z AUTO 14003KT 2 1/2SM VCTSBR SCT007 BKN046 120 22/22
     A3004 RMK AO2 P0008 LTG DSNT SE=
KPPQ 081045Z AUTO 00000KT 7SM -RA SCT050 SCT065 23/22 A3005 RMK
     AO2 P0001=
KPRG 081045Z AUTO 00000KT 4SM BR CLR 21/21 A3005 RMK AO2
     T02160211=
KPVW 081041Z AUTO 04007KT 10SM CLR 18/16 A3013 RMK AO2=
KSFY 081045Z AUTO 00000KT 5SM BR OVC009 23/22 A3003 RMK AO2=
####018000140####
SAMX55 MMMY 081100
METAR MMRX 081047Z 32006KT 5SM  BKN006 BKN008 26/25 A2981 
      RMK 8/700 OCNL DROPS BR HZ RTS=





TX OPMET V1
####018000088####
SAMX55 MMIO 081100
METAR MMIO 081040Z 00000KT 8SM BKN040 18/15 A3010 RMK 8/500 HZY= 
####018000074####
SALT33 EYVI 081050
METAR EYPA 081050Z 32006KT CAVOK 21/16 Q1018 NOSIG=
####018000102####
SPUS31 KWBC 081049
SPECI
KEWR 081046Z 19004KT 4SM BR FEW005 SCT100 SCT130 BKN250 26/25
A3003=
####018000081####
SPCN51 CWAO 081047
SPECI CZBF 081047Z 00000KT 5/8SM BR OVC005 RMK FG6SF2=

####018000075####
SAEO32 EETN 081050
METAR EEPU 081050Z 30006KT 9999 FEW025 24/19 Q1014=
####018000075####
SALT33 EYVI 081050
METAR EYPA 081050Z 32006KT CAVOK 21/16 Q1018 NOSIG=
####018000091####
SPUS81 KWBC 081049
SPECI
KLIC 081046Z AUTO 17004KT 6SM BR BKN005 BKN120 13/13 A3033=
####018000190####
SAEU KAWN 081000 RRX
METAR COR EGUB 080950Z AUTO 25004KT 9999 BKN028 BKN120 19/15 Q1018
      NOSIG=
METAR EGVP 080950Z 18002KT 9999 BKN012 18/15 Q1018 GRN BECMG SCT025
      BLU=
####018000190####
SAUK KAWN 081000 RRJ
METAR COR EGUB 080950Z AUTO 25004KT 9999 BKN028 BKN120 19/15 Q1018
      NOSIG=
METAR EGVP 080950Z 18002KT 9999 BKN012 18/15 Q1018 GRN BECMG SCT025
      BLU=
####018000120####
SPUS17 KAWN 081049 RRE
SPECI KHLR 081040Z AUTO 07005KT 10SM SCT009 BKN018 OVC110 25/ A2999
      RMK AO2 T0250 $=
####018000178####
SAXX70 KAWN 081000 RRV
METAR KQEX 081040Z AUTO 04002KT 3SM BR SCT075 26/20 A2974 RMK A02=
METAR KQFT 081040Z AUTO 17002KT 5SM BR FEW025 BKN030 26/20 A2984 RMK
      A02=
####018000118####
SAUS90 KWBC 081100
METAR KCQT 081047Z AUTO 00000KT 8SM OVC011 17/13 A2989 RMK AO2
     SLP120 T01720133 TSNO $=
####018002992####
SAUS20 KNKA 081049
METAR KASW 081045Z AUTO 00000KT 4SM BR CLR 22/20 A3005 RMK AO2 
     T02150204=
METAR KBYY 081046Z AUTO 09005KT 10SM -RA SCT022 SCT035 BKN048 
     26/25 A2987 RMK AO2 T02550247=
METAR KC75 081044Z AUTO 00000KT 4SM BR BKN014 OVC039 24/24 A3003 
     RMK AO2=
METAR KCPT 081045Z AUTO 12007KT 8SM SCT006 OVC014 24/24 A3003 RMK 
     AO2=
METAR KCVB 081044Z AUTO 04003KT 10SM BKN017 OVC031 25/24 A2995 
     RMK AO2 P0002 T02490243=
METAR KCWC 081045Z AUTO 05004KT 10SM CLR 23/22 A3004 RMK AO2 
     T02320216=
METAR KDUX 081047Z AUTO 33008KT 10SM BKN008 OVC027 17/16 A3023 
     RMK AO2 T01680160=
METAR KE38 081045Z AUTO 00000KT 10SM CLR 17/16 A3020 RMK AO2 
     T01700160=
METAR KEBG 081046Z AUTO 00000KT 10SM DZ SCT016 BKN021 BKN028 
     26/25 A2980 RMK AO2 T02630250=
METAR KERV 081045Z AUTO 09004KT 10SM OVC040 23/21 A2999 RMK AO2 
     T02330213=
METAR KEVB 081047Z 30004KT 10SM FEW080 21/20 A3000 RMK FIRST =
METAR KF05 081044Z AUTO 03003KT 7SM SCT025 BKN031 24/22 A3004 RMK 
     AO2 T02380223=
METAR KFOA 081045Z AUTO 00000KT 3SM BR CLR 25/25 A3004 RMK AO2 
     T02450245=
METAR KFWC 081045Z AUTO 00000KT 5SM BR CLR 22/21 A3004 RMK AO2=
METAR KFWS 081045Z AUTO 00000KT 7SM OVC009 25/24 A3002 RMK AO2 
     T02480235=
METAR KGBG 081045Z AUTO 28003KT 1 3/4SM BR OVC002 23/22 A3004 RMK 
     AO2=
METAR KGDJ 081044Z AUTO 00000KT 10SM SCT009 SCT022 BKN029 25/24 
     A3002 RMK AO2 T02530236=
METAR KGNC 081045Z AUTO 01004KT 10SM BKN024 BKN029 OVC041 20/19 
     A3013 RMK AO2 T02000189=
METAR KGOP 081040Z AUTO 00000KT 9SM SCT006 24/24 A3001 RMK AO2=
METAR KGPM 081053Z AUTO 13004KT 10SM BKN016 BKN022 BKN029 26/23 
     A3001 RMK AO2=
METAR KGVT 081045Z AUTO 10003KT 10SM SCT015 OVC024 25/23 A3003 
     RMK AO2=
METAR KGWB 081045Z AUTO 00000KT 2SM HZ CLR 21/16 A3006 RMK AO2=
METAR KGYB 081045Z AUTO 06005KT 7SM SCT006 BKN013 OVC095 25/24 
     A2997 RMK AO2 T02480240=
METAR KGYI 081045Z AUTO 15005KT 10SM -RA BKN024 25/24 A3004 RMK 
     AO2 T02500236=
METAR KHBV 081040Z AUTO 36004KT 10SM BKN005 OVC110 25/24 A2987 
     RMK AO2 T02500237=
METAR KHHF 081045Z AUTO 03006KT 10SM SCT020 SCT026 SCT033 21/19 
     A3012 RMK AO2 LTG DSNT N T02110190=
METAR KHRX 081045Z AUTO 36011G14KT 7SM BKN007 OVC014 18/17 A3021 
     RMK AO2 T01750166=
METAR KHSB 081045Z AUTO 00000KT 4SM BR CLR 22/21 A3005 RMK AO2=
METAR KIJX 081045Z AUTO 00000KT 2 1/2SM RA 24/23 A3004 RMK AO2 
     SKY OBSCURED P0008 T02350227=
METAR KINJ 081045Z AUTO 10006KT 7SM BKN026 25/23 A3000 RMK AO2 
     T02470230=
METAR KJAS 081046Z AUTO 07004KT 7SM CLR 25/24 A3001 RMK AO2 
     T02460236=
METAR KJDD 081045Z AUTO 00000KT 4SM  BR OVC003 24/24 A3003 RMK AO2=
SPECI KJFK 081048Z 14006KT 1/8SM R04R/1800V3000FT BR BKN002 BKN120 
    24/23 A3004 RMK AO2 SFC VIS 1 1/2 VIS SE-SW 1 $=
METAR KJSO 081050Z AUTO 08003KT 3SM BR BKN001 BKN120 24/24 A3004 
     RMK AO2 T02350235=
####018001510####
SAUS20 KNKA 081049
METAR KJWY 081045Z AUTO 12003KT 10SM 25/23 A3001 RMK AO2 T02450227=
METAR KJXI 081045Z AUTO 00000KT OVC002 25/25 A3005 RMK AO2=
METAR KLBR 081045Z AUTO 00000KT 7SM OVC004 24/23 A3004 RMK AO2 
     T02400230=
METAR KLHB 081043Z AUTO 08003KT 5SM BR BKN009 25/23 A2996 RMK AO2 
     T02500231=
METAR KLHQ 081048Z AUTO 00000KT 1 1/4SM BR CLR 19/18 A3009 RMK AO2 
    SLP182 T01940183=
METAR KLNC 081045Z AUTO 00000KT 10SM BKN009 OVC020 25/24 A3001 
     RMK AO2 T02450243=
METAR KLUD 081045Z AUTO 00000KT 10SM CLR 24/23 A3003 RMK AO2 
     T02410225=
METAR KM30 081046Z AUTO 00000KT 7SM SCT120 22/21 A3006 RMK AO2=
METAR KMDD 081040Z AUTO 04006KT 10SM CLR 22/21 A3008 RMK AO2 
     T02160205=
METAR KMKN 081040Z AUTO 00000KT 10SM 23/23 A3003 RMK AO2=
METAR KMNZ 081050Z AUTO 12004KT 10SM BKN011 BKN014 OVC043 24/24 
     A3002 RMK AO2 T02420240=
SPECI KORE 081048Z AUTO 18004KT 7SM SCT011 BKN080 BKN100 24/22 A3008 
    RMK AO2=
METAR KOSA 081044Z AUTO 00000KT 5SM CLR 24/24 A3005 RMK AO1 
     T02430238=
METAR KPEZ 081045Z AUTO 02005KT 10SM BKN009 OVC015 25/24 A2992 
     RMK AO2 T02500235=
METAR KRPJ 081045Z AUTO 00000KT 5SM BR BKN007 OVC013 21/20 A3004 
     RMK AO2 T02100197=
METAR KRSV 081042Z AUTO 00000KT 3SM BR CLR 23/22 A3006 RMK AO2 
     T02320224=
SPECI KSPI 081048Z 00000KT 3SM -RA BR FEW008 SCT026 BKN045 23/23 
    A3004 RMK AO2 RAB34 P0010=
SPECI KUCP 081049Z AUTO 00000KT 1 1/2SM BR CLR 19/18 A3011 RMK AO2 $=
####018003700####
SAUS99 KWBC 081050
METAR
KASW 081045Z AUTO 00000KT 4SM BR CLR 22/20 A3005 RMK AO2
     T02150204=
KBYY 081046Z AUTO 09005KT 10SM -RA SCT022 SCT035 BKN048 26/25
     A2987 RMK AO2 T02550247=
KC75 081044Z AUTO 00000KT 4SM BR BKN014 OVC039 24/24 A3003 RMK
     AO2=
KCPT 081045Z AUTO 12007KT 8SM SCT006 OVC014 24/24 A3003 RMK
     AO2=
KCVB 081044Z AUTO 04003KT 10SM BKN017 OVC031 25/24 A2995 RMK AO2
     P0002 T02490243=
KCWC 081045Z AUTO 05004KT 10SM CLR 23/22 A3004 RMK AO2
     T02320216=
KDUX 081047Z AUTO 33008KT 10SM BKN008 OVC027 17/16 A3023 RMK AO2
     T01680160=
KE38 081045Z AUTO 00000KT 10SM CLR 17/16 A3020 RMK AO2
     T01700160=
KEBG 081046Z AUTO 00000KT 10SM DZ SCT016 BKN021 BKN028 26/25 A2980
     RMK AO2 T02630250=
KERV 081045Z AUTO 09004KT 10SM OVC040 23/21 A2999 RMK AO2
     T02330213=
KEVB 081047Z 30004KT 10SM FEW080 21/20 A3000 RMK FIRST=
KF05 081044Z AUTO 03003KT 7SM SCT025 BKN031 24/22 A3004 RMK AO2
     T02380223=
KFOA 081045Z AUTO 00000KT 3SM BR CLR 25/25 A3004 RMK AO2
     T02450245=
KFWC 081045Z AUTO 00000KT 5SM BR CLR 22/21 A3004 RMK AO2=
KFWS 081045Z AUTO 00000KT 7SM OVC009 25/24 A3002 RMK AO2
     T02480235=
KGBG 081045Z AUTO 28003KT 1 3/4SM BR OVC002 23/22 A3004 RMK
     AO2=
KGDJ 081044Z AUTO 00000KT 10SM SCT009 SCT022 BKN029 25/24 A3002
     RMK AO2 T02530236=
KGNC 081045Z AUTO 01004KT 10SM BKN024 BKN029 OVC041 20/19 A3013
     RMK AO2 T02000189=
KGOP 081040Z AUTO 00000KT 9SM SCT006 24/24 A3001 RMK AO2=
KGPM 081053Z AUTO 13004KT 10SM BKN016 BKN022 BKN029 26/23 A3001
     RMK AO2=
KGVT 081045Z AUTO 10003KT 10SM SCT015 OVC024 25/23 A3003 RMK
     AO2=
KGWB 081045Z AUTO 00000KT 2SM HZ CLR 21/16 A3006 RMK AO2=
KGYB 081045Z AUTO 06005KT 7SM SCT006 BKN013 OVC095 25/24 A2997 RMK
     AO2 T02480240=
KGYI 081045Z AUTO 15005KT 10SM -RA BKN024 25/24 A3004 RMK AO2
     T02500236=
KHBV 081040Z AUTO 36004KT 10SM BKN005 OVC110 25/24 A2987 RMK AO2
     T02500237=
KHHF 081045Z AUTO 03006KT 10SM SCT020 SCT026 SCT033 21/19 A3012
     RMK AO2 LTG DSNT N T02110190=
KHRX 081045Z AUTO 36011G14KT 7SM BKN007 OVC014 18/17 A3021 RMK AO2
     T01750166=
KHSB 081045Z AUTO 00000KT 4SM BR CLR 22/21 A3005 RMK AO2=
KIJX 081045Z AUTO 00000KT 2 1/2SM RA 24/23 A3004 RMK AO2 SKY
     OBSCURED P0008 T02350227=
KINJ 081045Z AUTO 10006KT 7SM BKN026 25/23 A3000 RMK AO2
     T02470230=
KJAS 081046Z AUTO 07004KT 7SM CLR 25/24 A3001 RMK AO2
     T02460236=
KJDD 081045Z AUTO 00000KT 4SM BR OVC003 24/24 A3003 RMK AO2=
KJSO 081050Z AUTO 08003KT 3SM BR BKN001 BKN120 24/24 A3004 RMK AO2
     T02350235=
KJWY 081045Z AUTO 12003KT 10SM 25/23 A3001 RMK AO2 T02450227=
KJXI 081045Z AUTO 00000KT OVC002 25/25 A3005 RMK AO2=
KLBR 081045Z AUTO 00000KT 7SM OVC004 24/23 A3004 RMK AO2
     T02400230=
KLHB 081043Z AUTO 08003KT 5SM BR BKN009 25/23 A2996 RMK AO2
     T02500231=
KLHQ 081048Z AUTO 00000KT 1 1/4SM BR CLR 19/18 A3009 RMK AO2
     SLP182 T01940183=
KLNC 081045Z AUTO 00000KT 10SM BKN009 OVC020 25/24 A3001 RMK AO2
     T02450243=
KLUD 081045Z AUTO 00000KT 10SM CLR 24/23 A3003 RMK AO2
     T02410225=
KM30 081046Z AUTO 00000KT 7SM SCT120 22/21 A3006 RMK AO2=
KMDD 081040Z AUTO 04006KT 10SM CLR 22/21 A3008 RMK AO2
     T02160205=
KMKN 081040Z AUTO 00000KT 10SM 23/23 A3003 RMK AO2=
KMNZ 081050Z AUTO 12004KT 10SM BKN011 BKN014 OVC043 24/24 A3002
     RMK AO2 T02420240=
KOSA 081044Z AUTO 00000KT 5SM CLR 24/24 A3005 RMK AO1
     T02430238=
KPEZ 081045Z AUTO 02005KT 10SM BKN009 OVC015 25/24 A2992 RMK AO2
     T02500235=
KRPJ 081045Z AUTO 00000KT 5SM BR BKN007 OVC013 21/20 A3004 RMK AO2
     T02100197=
####018000110####
SAUS99 KWBC 081050 RRA
METAR
KRSV 081042Z AUTO 00000KT 3SM BR CLR 23/22 A3006 RMK AO2
     T02320224=
####018000390####
SPUS99 KWBC 081050
SPECI
KJFK 081048Z 14006KT 1/8SM R04R/1800V3000FT BR BKN002 BKN120 24/23
     A3004 RMK AO2 SFC VIS 1 1/2 VIS SE-SW 1 $=
KORE 081048Z AUTO 18004KT 7SM SCT011 BKN080 BKN100 24/22 A3008 RMK
     AO2=
KSPI 081048Z 00000KT 3SM -RA BR FEW008 SCT026 BKN045 23/23 A3004
     RMK AO2 RAB34 P0010=
KUCP 081049Z AUTO 00000KT 1 1/2SM BR CLR 19/18 A3011 RMK AO2 $=
####018000101####
SPAU32 YBBN 081049
SPECI YBRM 081044Z AUTO 36005KT 7000NDV // BKN025 BKN029 OVC035 24/22
Q1011=
####018000082####
SALT34 EYVI 081050
METAR EYSA 081050Z 33015KT 300V360 9999 OVC030 17/12 Q1017=
####018003744####
SAUS70 KWBC 081100
METAR
K1H2 081045Z AUTO 12003KT 4SM BR CLR 23/23 A3004 RMK AO2
     T02340226=
K5C1 081045Z AUTO 04003KT 7SM SCT009 BKN020 OVC040 24/23 A2998 RMK
     AO1=
KAJG 081045Z AUTO 11003KT 5SM BR CLR 22/21 A3005 RMK AO2
     T02220212=
KAQO 081045Z AUTO 00000KT 24/23 A3001 RMK AO2=
KARM 081045Z AUTO 05006KT 10SM SCT021 BKN041 BKN075 26/25 A2990
     RMK AO2 LTG DSNT NE T02620246=
KAXH 081045Z AUTO 00000KT 10SM CLR 26/24 A2990 RMK AO2
     T02630238=
KBBD 081045Z AUTO 08003KT 10SM FEW017 SCT030 22/21 A3002 RMK=
KBKS 081046Z AUTO 36005KT 10SM BKN005 BKN018 OVC025 27/25 A2982
     RMK AO1 T02650250=
KBPC 081048Z AUTO 01005KT 10SM BKN037 BKN070 BKN095 18/17 A3017
     RMK AO2 P0002=
KBPG 081045Z AUTO 36003KT 7SM SCT095 SCT120 21/20 A3009 RMK AO1
     T02060195=
KDKR 081045Z AUTO 08004KT 7SM CLR 24/24 A3001 RMK AO2=
KDNV 081045Z AUTO 00000KT 5SM BR SCT090 22/21 A3001 RMK AO2
     T02200205=
KDZB 081045Z AUTO 00000KT 4SM BR BKN006 OVC013 24/24 A2997 RMK AO2
     T02380240=
KECU 081045Z AUTO 09003KT 7SM FEW006 SCT011 BKN016 22/21 A3008 RMK
     AO2=
KENL 081045Z AUTO 00000KT 10SM SCT049 SCT060 24/16 A3004 RMK AO2
     T02400160=
KFEP 081045Z AUTO 00000KT 5SM BR SCT029 22/20 A3003 RMK AO2
     T02220202=
KHQZ 081046Z AUTO 10003KT 10SM SCT010 BKN024 25/23 A3002 RMK
     AO2=
KJOT 081046Z AUTO 00000KT 2SM BR CLR 23/22 A3002 RMK AO2=
KORG 081045Z AUTO 08008KT 7SM CLR 16/14 A2997 RMK AO2=
KOXI 081045Z AUTO 00000KT 1 1/2SM SCT075 OVC110 21/20 A3003 RMK
     AO1 T02080197=
KPNT 081045Z AUTO 14003KT 2 1/2SM VCTSBR SCT007 BKN046 120 22/22
     A3004 RMK AO2 P0008 LTG DSNT SE=
KPPQ 081045Z AUTO 00000KT 7SM -RA SCT050 SCT065 23/22 A3005 RMK
     AO2 P0001=
KPRG 081045Z AUTO 00000KT 4SM BR CLR 21/21 A3005 RMK AO2
     T02160211=
KASW 081045Z AUTO 00000KT 4SM BR CLR 22/20 A3005 RMK AO2
     T02150204=
KBYY 081046Z AUTO 09005KT 10SM -RA SCT022 SCT035 BKN048 26/25
     A2987 RMK AO2 T02550247=
KCPT 081045Z AUTO 12007KT 8SM SCT006 OVC014 24/24 A3003 RMK
     AO2=
KCWC 081045Z AUTO 05004KT 10SM CLR 23/22 A3004 RMK AO2
     T02320216=
KDUX 081047Z AUTO 33008KT 10SM BKN008 OVC027 17/16 A3023 RMK AO2
     T01680160=
KE38 081045Z AUTO 00000KT 10SM CLR 17/16 A3020 RMK AO2
     T01700160=
KEBG 081046Z AUTO 00000KT 10SM DZ SCT016 BKN021 BKN028 26/25 A2980
     RMK AO2 T02630250=
KERV 081045Z AUTO 09004KT 10SM OVC040 23/21 A2999 RMK AO2
     T02330213=
KEVB 081047Z 30004KT 10SM FEW080 21/20 A3000 RMK FIRST=
KFOA 081045Z AUTO 00000KT 3SM BR CLR 25/25 A3004 RMK AO2
     T02450245=
KFWC 081045Z AUTO 00000KT 5SM BR CLR 22/21 A3004 RMK AO2=
KFWS 081045Z AUTO 00000KT 7SM OVC009 25/24 A3002 RMK AO2
     T02480235=
KGBG 081045Z AUTO 28003KT 1 3/4SM BR OVC002 23/22 A3004 RMK
     AO2=
KGNC 081045Z AUTO 01004KT 10SM BKN024 BKN029 OVC041 20/19 A3013
     RMK AO2 T02000189=
KGPM 081053Z AUTO 13004KT 10SM BKN016 BKN022 BKN029 26/23 A3001
     RMK AO2=
KGVT 081045Z AUTO 10003KT 10SM SCT015 OVC024 25/23 A3003 RMK
     AO2=
KGWB 081045Z AUTO 00000KT 2SM HZ CLR 21/16 A3006 RMK AO2=
KGYB 081045Z AUTO 06005KT 7SM SCT006 BKN013 OVC095 25/24 A2997 RMK
     AO2 T02480240=
KGYI 081045Z AUTO 15005KT 10SM -RA BKN024 25/24 A3004 RMK AO2
     T02500236=
KHHF 081045Z AUTO 03006KT 10SM SCT020 SCT026 SCT033 21/19 A3012
     RMK AO2 LTG DSNT N T02110190=
KHRX 081045Z AUTO 36011G14KT 7SM BKN007 OVC014 18/17 A3021 RMK AO2
     T01750166=
KHSB 081045Z AUTO 00000KT 4SM BR CLR 22/21 A3005 RMK AO2=
KIJX 081045Z AUTO 00000KT 2 1/2SM RA 24/23 A3004 RMK AO2 SKY
     OBSCURED P0008 T02350227=
KINJ 081045Z AUTO 10006KT 7SM BKN026 25/23 A3000 RMK AO2
     T02470230=
####018000107####
SAXX60 KWBC 081050
METAR
KAPY 081043Z AUTO 34004KT 10SM OVC021 26/25 A2985 RMK AO2
     T02550245=
####018002272####
SAUS70 KWBC 081050
METAR
KOSC 081034Z AUTO 00000KT 4SM BR SCT050 SCT060 21/20 A3000 RMK
     AO2=
K0F2 081044Z AUTO 00000KT 10SM SCT080 23/22 A3003 RMK AO2
     T02320220=
K11R 081044Z AUTO 04003KT 7SM CLR 24/23 A2995 RMK AO2=
K3LF 081043Z AUTO 00000KT 2 1/2SM BR SCT070 SCT080 23/22 A3004 RMK
     AO2=
K3T5 081044Z AUTO 00000KT 7SM SCT008 BKN012 OVC100 25/24 A2991 RMK
     AO2 T02520237=
K6R3 081041Z AUTO 07003KT 7SM SCT021 BKN055 OVC120 24/24 A2996 RMK
     AO2 T02420242=
KAAA 081043Z AUTO 00000KT 1 3/4SM BR VV007 22/22 A3003 RMK AO2
     T02220216=
KADS 081043Z AUTO 16004KT 10SM OVC012 25/23 A3002 RMK AO2
     T02500231=
KALN 081043Z AUTO 00000KT 7SM SCT045 BKN055 25/24 A3004 RMK AO2
     T02450240=
KBEA 081043Z AUTO 03006KT 10SM SCT030 SCT039 25/25 A2986 RMK AO2
     P0001 T02450245=
KBKD 081041Z AUTO 36005KT 2SM BR BKN002 OVC016 23/23 A3003 RMK AO2
     T02330227=
KC09 081044Z AUTO 00000KT 2SM BR SCT047 SCT065 BKN120 21/21 A3002
     RMK AO2 LTG DSNT E AND S=
KDKB 081041Z AUTO 17006KT 1 1/2SM BR OVC002 22/21 A3002 RMK AO2
     T02150210=
KGLE 081044Z AUTO 00000KT 10SM BKN024 BKN090 26/23 A3005 RMK
     AO2=
KLOT 081041Z AUTO 00000KT 2SM BR SCT085 22/21 A3001 RMK AO2 LTG
     DSNT E AND SW=
KOLY 081043Z AUTO 00000KT 4SM BR CLR 23/22 A3004 RMK AO2=
KOZA 081041Z AUTO 00000KT 7SM SCT041 SCT120 22/21 A3005 RMK AO2
     T02180212=
KPVW 081041Z AUTO 04007KT 10SM CLR 18/16 A3013 RMK AO2=
KC75 081044Z AUTO 00000KT 4SM BR BKN014 OVC039 24/24 A3003 RMK
     AO2=
KCVB 081044Z AUTO 04003KT 10SM BKN017 OVC031 25/24 A2995 RMK AO2
     P0002 T02490243=
KF05 081044Z AUTO 03003KT 7SM SCT025 BKN031 24/22 A3004 RMK AO2
     T02380223=
KGDJ 081044Z AUTO 00000KT 10SM SCT009 SCT022 BKN029 25/24 A3002
     RMK AO2 T02530236=
KGOP 081040Z AUTO 00000KT 9SM SCT006 24/24 A3001 RMK AO2=
KHBV 081040Z AUTO 36004KT 10SM BKN005 OVC110 25/24 A2987 RMK AO2
     T02500237=
KLHB 081043Z AUTO 08003KT 5SM BR BKN009 25/23 A2996 RMK AO2
     T02500231=
KMDD 081040Z AUTO 04006KT 10SM CLR 22/21 A3008 RMK AO2
     T02160205=
KOSA 081044Z AUTO 00000KT 5SM CLR 24/24 A3005 RMK AO1
     T02430238=
KRSV 081042Z AUTO 00000KT 3SM BR CLR 23/22 A3006 RMK AO2
     T02320224=
####018001026####
SAUS70 KWBC 081100 RRA
METAR
KJAS 081046Z AUTO 07004KT 7SM CLR 25/24 A3001 RMK AO2
     T02460236=
KJDD 081045Z AUTO 00000KT 4SM BR OVC003 24/24 A3003 RMK AO2=
KJSO 081050Z AUTO 08003KT 3SM BR BKN001 BKN120 24/24 A3004 RMK AO2
     T02350235=
KJWY 081045Z AUTO 12003KT 10SM 25/23 A3001 RMK AO2 T02450227=
KJXI 081045Z AUTO 00000KT OVC002 25/25 A3005 RMK AO2=
KLBR 081045Z AUTO 00000KT 7SM OVC004 24/23 A3004 RMK AO2
     T02400230=
KLHQ 081048Z AUTO 00000KT 1 1/4SM BR CLR 19/18 A3009 RMK AO2
     SLP182 T01940183=
KLNC 081045Z AUTO 00000KT 10SM BKN009 OVC020 25/24 A3001 RMK AO2
     T02450243=
KLUD 081045Z AUTO 00000KT 10SM CLR 24/23 A3003 RMK AO2
     T02410225=
KM30 081046Z AUTO 00000KT 7SM SCT120 22/21 A3006 RMK AO2=
KMNZ 081050Z AUTO 12004KT 10SM BKN011 BKN014 OVC043 24/24 A3002
     RMK AO2 T02420240=
KPEZ 081045Z AUTO 02005KT 10SM BKN009 OVC015 25/24 A2992 RMK AO2
     T02500235=
KRPJ 081045Z AUTO 00000KT 5SM BR BKN007 OVC013 21/20 A3004 RMK AO2
     T02100197=
####018000677####
SPUS70 KWBC 081050
SPECI
KIJD 081047Z AUTO 14005KT 3SM BR OVC003 23/22 A3008 RMK AO2 CIG
     003V007=
KLAR 081047Z AUTO 00000KT 3SM BR FEW002 BKN020 07/06 A3039 RMK
     AO2=
KLHQ 081047Z AUTO 00000KT 1 1/4SM BR CLR 19/18 A3009 RMK AO2=
KMIV 081047Z AUTO 12003KT 2 1/2SM BR CLR 23/22 A3001 RMK AO2=
KJFK 081048Z 14006KT 1/8SM R04R/1800V3000FT BR BKN002 BKN120 24/23
     A3004 RMK AO2 SFC VIS 1 1/2 VIS SE-SW 1 $=
KORE 081048Z AUTO 18004KT 7SM SCT011 BKN080 BKN100 24/22 A3008 RMK
     AO2=
KSPI 081048Z 00000KT 3SM -RA BR FEW008 SCT026 BKN045 23/23 A3004
     RMK AO2 RAB34 P0010=
KUCP 081049Z AUTO 00000KT 1 1/2SM BR CLR 19/18 A3011 RMK AO2 $=
####018000141####
SAUS80 KWBC 081050
METAR
KCIR 081042Z AUTO 00000KT 10SM CLR 24/22 A3005 RMK AO2=
KMKN 081040Z AUTO 00000KT 10SM 23/23 A3003 RMK AO2=
####018000257####
SAUS80 KWBC 081100
METAR
KCQT 081047Z AUTO 00000KT 8SM OVC011 17/13 A2989 RMK AO2 SLP120
     T01720133 TSNO $=
KCUL 081045Z AUTO 00000KT 4SM CLR 22/21 A3005 RMK AO2
     T02240206=
KSFY 081045Z AUTO 00000KT 5SM BR OVC009 23/22 A3003 RMK AO2=
####018000080####
SPCN31 KWBC 081050
SPECI
CZBF 081047Z 00000KT 5/8SM BR OVC005 RMK FG6SF2=
####018000100####
SAUS44 KSJT 081049
MTRJCT
SPECI KJCT 081048Z AUTO 00000KT 8SM SCT014 22/21 A3000 RMK AO2 TSNO
####018000028####
SAAW34 KWBC 081045
NIL=
####018000115####
SAUS45 KGGW 081049
MTRJDN
METAR KJDN 081048Z AUTO 27005KT 11/07 A3018 RMK AO2 SLP216 T01060072 
PWINO TSNO
####018000028####
SADL33 KWBC 081045
NIL=
####018000032####
SAMX41 KWBC 081045 RRA
NIL=
####018000288####
SAMX31 KWBC 081045 RRA
METAR
MMAA NIL=
MMCZ NIL=
MMGL NIL=
MMMD NIL=
MMMX NIL=
MMMY NIL=
MMMZ NIL=
MMPR NIL=
MMTM 081041Z 22006KT 6SM SCT010 BKN020 BKN070 OVC200 25/24 A2980
     RMK 8/837 BR OCNLS DROPS/BINOVC RTS=
MMTP NIL=
MMUN NIL=
MMVR NIL=
MNMG NIL=
####018000028####
SAMX42 KWBC 081045
NIL=
####018000094####
SAXX99 KWBC 081000 RRX
METAR
MMIO 081040Z 00000KT 8SM BKN040 18/15 A3010 RMK 8/500 HZY=
