####018000028####
SADL33 KWBC 080845
NIL=
####018000068####
SALT34 EYVI 080850
METAR EYSA 080850Z 32012KT CAVOK 16/13 Q1016=
####018000098####
SAIO31 KWBC 080800 RRH
METAR
VYYY 080830Z 29005KT 8000 BKN015 FEW018CB BKN110 33/28 Q 1007=
####018000028####
SAMX41 KWBC 080845
NIL=
####018000028####
SAMX31 KWBC 080845
NIL=
####018000028####
SAMX42 KWBC 080845
NIL=
####018000079####
SPUS31 KWBC 080850
SPECI
KPHL 080847Z 00000KT 6SM HZ SCT180 25/22 A3001=
####018000118####
SPXX62 KWBC 080850
SPECI
PHHI 080847Z AUTO 04006KT 10SM -RA FEW039 SCT049 22/18 A3007 RMK
AO2 RAB0847 SLP171=
####018000138####
SPXX61 KWBC 080850
SPECI
EGUN 080845Z AUTO 28005KT 9999 SCT008 BKN013 OVC020 18/18 A3007
RMK AO2 RAB0751E0801 CIG 011V015 SLP173=
####018000125####
SAUS45 KFGZ 080850
MTRIGM
METAR KIGM 080848Z AUTO 12006KT 10SM CLR 21/M03 A2995 RMK AO2 SLP064 
T02111028 53002 TSNO
####018000094####
SASA31 KWBC 080500 RRF
METAR
SYCJ 080500Z 00000KT 9000 FEW017 SCT300 24/24 Q1012 NOSOG=
####018000086####
SPUS41 KWBC 080850
SPECI
KBDR 080847Z AUTO 09009KT 1/2SM FG OVC002 24/23 A3003=
####018000098####
SPUS41 KWBC 080850
SPECI
KDOV 080846Z AUTO 00000KT 2SM R01/5000VP6000FT BR CLR 24/24 A2999=
####018000103####
SAXX98 KWBC 080850
METAR MYEG 080859Z AUTO 15008KT 10SM SCT020 BKN028 BKN040 27/24 A2992 RMK AO2
####018000073####
SAUS81 KWBC 080848
&EHA SA 0848  AMOS 64/62/3602/M PK WND 06 008

####018000069####
SALT34 EYVI 080850
METAR EYSA 080850Z 32012KT CAVOK 16/13 Q1016=
####018000085####
SAGY31 SYCJ 080600
METAR SYCJ 080600Z 00000KT 9000 FEW017 SCT300 24/24 Q1011 NOSIG=####018000095####
SAEO32 EETN 080850
METAR EETU 080850Z 34004KT 210V030 9999 SCT016TCU SCT025 25/20
Q1013=
####018002637####
SAUS20 KNKA 080850
METAR KCCA 080855Z AUTO 00000KT 5SM  BR FEW001 22/22 A3006 RMK AO2 
     =
METAR KCDN 080855Z AUTO 00000KT 10SM CLR A2997 RMK A02 P000 =
METAR KCKI 080855Z AUTO 00000KT 10SM CLR 22/21 A2995 RMK AO2=
METAR KFOA 080845Z AUTO 00000KT 7SM CLR 25/25 A3003 RMK AO2 
     T02500247=
METAR KIGQ 080840Z AUTO 00000KT 7SM RA SCT019 BKN039 BKN110 23/22 
     A3004 RMK AO2 P0003=
SPECI KLHX 080849Z AUTO 33007KT 10SM -RA BKN037 OVC080 16/14 A3029 
    RMK AO2 PNO $=
METAR KLRO 080855Z AUTO 00000KT 10SM CLR 24/19 A2995 RMK AO2 =
METAR KMKS 080855Z AUTO 00000KT 7SM CLR 23/20 A2995 RMK AO2 TSNO=
METAR KPSN 080845Z AUTO 11003KT 7SM 24/24 A3001 RMK AO2 T02420235=
METAR KRAS 080845Z AUTO 11013KT 7SM FEW020 FEW048 28/26 A2984 RMK 
     AO2=
METAR KRFI 080845Z AUTO 00000KT 7SM CLR 24/23 A3001 RMK AO2 60001 
     T02400231=
METAR KRPH 080845Z AUTO 00000KT 10SM CLR 23/21 A3000 RMK AO2 
     T02250210=
METAR KRWV 080840Z AUTO 00000KT 8SM FEW006 SCT027 24/24 A2998 RMK 
     AO2=
METAR KRYW 080845Z AUTO 07003KT 5SM BR BKN008 BKN021 OVC041 24/23 
     A2999 RMK AO2=
METAR KSAR 080845Z AUTO 18004KT 5SM HZ BKN055 26/23 A3004 RMK AO2=
METAR KSEP 080845Z AUTO 00000KT 10SM SCT011 BKN015 BKN060 23/22 
     A3001 RMK AO1=
SPECI KSGF 080849Z 00000KT 10SM FEW022 SCT027 BKN033 23/22 A3005 RMK 
    AO2=
METAR KSLO 080840Z AUTO 20004KT 10SM CLR 24/22 A3005 RMK AO2 
     T02400215=
METAR KSLR 080842Z AUTO 12004KT 10SM SCT026 25/23 A3003 RMK AO2 
     T02500232=
METAR KSNK 080846Z AUTO 32003KT 7SM SCT042 21/20 A3008 RMK AO2 
     T02080200=
METAR KSOA 080840Z AUTO 01003KT 10SM  RA 23/21 A3006 RMK AO2=
METAR KSWF 080845Z 00000KT 6SM BR SKC 25/22 A3005=
METAR KSWW 080845Z AUTO 16004KT 10SM CLR 22/21 A3007 RMK AO1 
     T02180205=
METAR KT65 080845Z AUTO 02003KT 10SM SCT004 BKN070 26/25 A2979 
     RMK AO2 T02570250=
METAR KT82 080845Z AUTO 00000KT 23/22 A3002 RMK AO1 P0001 60001 
     T02310220=
METAR KTAZ 080845Z AUTO 00000KT 7SM SCT095 23/23 A3003 RMK AO2 
     LTG DSNT N=
METAR KTFP 080845Z AUTO 11005KT 10SM SCT018 SCT041 SCT060 27/26 
     A2982 RMK AO2 LTG DSNT NW 60001 T02710255=
METAR KTIP 080845Z AUTO 00000KT 10SM SCT100 SCT120 24/23 A3004 
     RMK AO2 LTG DSNT W T02430228=
METAR KTYQ 080845Z AUTO 00000KT 7SM OVC095 22/21 A3006 RMK AO2=
METAR KUVA 080845Z AUTO 03004KT 10SM CLR 24/23 A2994 RMK AO2 
     T02410230=
METAR KVYS 080845Z AUTO 00000KT 4SM -RA OVC005 23/22 A3002 RMK 
     AO2 LTG DSNT S P0001 60002 T02320218=
METAR KXBP 080845Z AUTO 13003KT 10SM SCT046 24/22 A3001 RMK AO2 
     T02400221=
####018000086####
SPUS81 KWBC 080850
SPECI
KBDR 080847Z AUTO 09009KT 1/2SM FG OVC002 24/23 A3003=
####018000081####
SRPR30 KWAL 080850
CE2D864E 189085036bB1r@IJ@IK@IK@IL@IL@IM@IM@INJ 43+0NN 161E####018000094####
SPCN51 CWAO 080849
SPECI CWZZ 080849Z AUTO ///// 3/8SM OVC011 OVC041 OVC069 11/ A2980=

####018000127####
SAUS44 KFWD 080850
MTRHLR
SPECI KHLR 080849Z AUTO 09003KT 10SM FEW027 SCT048 26/ A2998 RMK AO2 
RAB29E38 P0000 T0256 $
####018002259####
SAUS99 KWBC 080851
METAR
KCCA 080855Z AUTO 00000KT 5SM BR FEW001 22/22 A3006 RMK AO2=
KCDN 080855Z AUTO 00000KT 10SM CLR A2997 RMK A02 P000=
KCKI 080855Z AUTO 00000KT 10SM CLR 22/21 A2995 RMK AO2=
KFOA 080845Z AUTO 00000KT 7SM CLR 25/25 A3003 RMK AO2
     T02500247=
KIGQ 080840Z AUTO 00000KT 7SM RA SCT019 BKN039 BKN110 23/22 A3004
     RMK AO2 P0003=
KLRO 080855Z AUTO 00000KT 10SM CLR 24/19 A2995 RMK AO2=
KMKS 080855Z AUTO 00000KT 7SM CLR 23/20 A2995 RMK AO2 TSNO=
KPSN 080845Z AUTO 11003KT 7SM 24/24 A3001 RMK AO2 T02420235=
KRAS 080845Z AUTO 11013KT 7SM FEW020 FEW048 28/26 A2984 RMK
     AO2=
KRFI 080845Z AUTO 00000KT 7SM CLR 24/23 A3001 RMK AO2 60001
     T02400231=
KRPH 080845Z AUTO 00000KT 10SM CLR 23/21 A3000 RMK AO2
     T02250210=
KRWV 080840Z AUTO 00000KT 8SM FEW006 SCT027 24/24 A2998 RMK
     AO2=
KRYW 080845Z AUTO 07003KT 5SM BR BKN008 BKN021 OVC041 24/23 A2999
     RMK AO2=
KSAR 080845Z AUTO 18004KT 5SM HZ BKN055 26/23 A3004 RMK AO2=
KSEP 080845Z AUTO 00000KT 10SM SCT011 BKN015 BKN060 23/22 A3001
     RMK AO1=
KSLO 080840Z AUTO 20004KT 10SM CLR 24/22 A3005 RMK AO2
     T02400215=
KSLR 080842Z AUTO 12004KT 10SM SCT026 25/23 A3003 RMK AO2
     T02500232=
KSNK 080846Z AUTO 32003KT 7SM SCT042 21/20 A3008 RMK AO2
     T02080200=
KSOA 080840Z AUTO 01003KT 10SM RA 23/21 A3006 RMK AO2=
KSWF 080845Z 00000KT 6SM BR SKC 25/22 A3005=
KSWW 080845Z AUTO 16004KT 10SM CLR 22/21 A3007 RMK AO1
     T02180205=
KT65 080845Z AUTO 02003KT 10SM SCT004 BKN070 26/25 A2979 RMK AO2
     T02570250=
KT82 080845Z AUTO 00000KT 23/22 A3002 RMK AO1 P0001 60001
     T02310220=
KTAZ 080845Z AUTO 00000KT 7SM SCT095 23/23 A3003 RMK AO2 LTG DSNT
     N=
KTFP 080845Z AUTO 11005KT 10SM SCT018 SCT041 SCT060 27/26 A2982
     RMK AO2 LTG DSNT NW 60001 T02710255=
KTIP 080845Z AUTO 00000KT 10SM SCT100 SCT120 24/23 A3004 RMK AO2
     LTG DSNT W T02430228=
KTYQ 080845Z AUTO 00000KT 7SM OVC095 22/21 A3006 RMK AO2=
KUVA 080845Z AUTO 03004KT 10SM CLR 24/23 A2994 RMK AO2
     T02410230=
KVYS 080845Z AUTO 00000KT 4SM -RA OVC005 23/22 A3002 RMK AO2 LTG
     DSNT S P0001 60002 T02320218=
KXBP 080845Z AUTO 13003KT 10SM SCT046 24/22 A3001 RMK AO2
     T02400221=
####018000104####
SALV31 EVRA 080850
METAR EVRA 080850Z 31009KT 270V340 9999 OVC007 18/17 Q1015 BECMG 
BKN010 OVC015=
####018000200####
SPAU31 YBBN 080850
SPECI YSSY 080847Z 22013KT 7000 -SHRA FEW008 SCT020 BKN055 12/11
Q1027
RMK VIS REDUCED TO NORTH
FM0848 19015KT 9999 -SHRA SCT025 BKN040
INTER 0848/1148 5000 SHRA BKN010=
####018000076####
SALT32 EYVI 080850
METAR EYKA 080850Z 29009KT 220V010 CAVOK 17/14 Q1015=
####018000191####
SPUS99 KWBC 080851
SPECI
KLHX 080849Z AUTO 33007KT 10SM -RA BKN037 OVC080 16/14 A3029 RMK
     AO2 PNO $=
KSGF 080849Z 00000KT 10SM FEW022 SCT027 BKN033 23/22 A3005 RMK
     AO2=
####018000075####
SADL45 ETGT 080850
METAR
ETNG 080850Z 24005KT CAVOK 28/11 Q1020 NOSIG=
####018000082####
SAEO31 EETN 080850
METAR EETN 080850Z 31007KT 270V340 CAVOK 23/18 Q1014 NOSIG=
####018000078####
SAGR31 LGAT 080820 RRA
METAR LGAD 080820Z 32013KT 9999 FEW020 28/19 Q1013=
####018000081####
SPBZ24 SBFI 080850
SPECI SBFI 080850Z 18004KT 6000 FEW020 SCT100 15/14 Q1015=
####018000087####
SALT31 EYVI 080850
METAR EYVI 080850Z 27009KT 7000 BKN008 OVC027 16/14 Q1014 NOSIG=
####018000093####
SAUS42 KWBC 080800 RRF
METAR
KGLE 080844Z AUTO 00000KT 10SM BKN070 BKN090 24/22 A3002=
####018001253####
SAUS43 KWBC 080800 RRK
METAR
K1H2 080845Z AUTO 00000KT 7SM CLR 25/24 A3003=
KAAA 080843Z AUTO 00000KT 2 1/2SM -TSRA SCT047 SCT065 SCT095 23/22
     A3003=
KC09 080844Z AUTO 00000KT 2 1/2SM BR SCT055 SCT075 BKN090 21/21
     A3002=
KC75 080843Z AUTO 14003KT 5SM BR SCT016 SCT048 OVC065 24/24
     A3002=
KDKB 080841Z AUTO 15003KT 4SM BR BKN013 OVC065 22/21 A3002=
KDNV 080845Z AUTO 00000KT 7SM SCT060 BKN065 OVC100 22/21 A3001=
KENL 080845Z AUTO 19004KT 10SM CLR 24/16 A3003=
KFEP 080845Z AUTO 00000KT 7SM BKN075 OVC085 23/21 A3001=
KFWC 080845Z AUTO 00000KT 7SM CLR 23/22 A3003=
KGBG 080845Z AUTO 21008KT 5SM BR OVC002 23/22 A3001=
KHSB 080845Z AUTO 00000KT 7SM CLR 22/21 A3004=
KIJX 080845Z AUTO 00000KT 3SM BR BKN024 BKN029 OVC050 24/23
     A3003=
KJOT 080846Z AUTO 00000KT 2SM BR 23/22 A3002=
KLOT 080841Z AUTO 15003KT 3SM BR SCT090 23/22 A3002=
KMQB 080845Z AUTO 24004KT 10SM OVC004 23/23 A3003=
KMWA 080845Z AUTO 00000KT 10SM CLR 24/23 A3005=
KOLY 080843Z AUTO 00000KT 4SM BR CLR 23/22 A3003=
KPNT 080845Z AUTO 00000KT 2 1/2SM BR BKN033 BKN060 120 23/22
     A3002=
KPPQ 080845Z AUTO 00000KT 4SM BR BKN033 BKN039 OVC049 23/23
     A3004=
KPRG 080845Z AUTO 00000KT 4SM BR SCT090 22/21 A3004=
####018000106####
SALV31 EVRA 080850
METAR EVRA 080850Z 31009KT 270V340 9999 OVC007 18/17 Q1015 BECMG 
BKN010 OVC015=
####018000083####
SAEO31 EETN 080850
METAR EETN 080850Z 31007KT 270V340 CAVOK 23/18 Q1014 NOSIG=
####018000079####
SAGR31 LGAT 080820 RRA
METAR LGAD 080820Z 32013KT 9999 FEW020 28/19 Q1013=
####018000120####
SAMP31 LMMM 080900
METAR HLLT NIL=
METAR HLLB NIL=
METAR LMML 080845Z 05006KT 360V130 CAVOK 28/19 Q1018 NOSIG =
####018000333####
SAIS31 LLBG 080850
METAR LLBG 080850Z 26009KT 9999 FEW035 30/20 Q1009 NOSIG=
METAR LLOV 080850Z 35005KT CAVOK 32/09 Q1011=
METAR LLET 080850Z 03015KT CAVOK 36/11 Q1007=
METAR LLHA 080850Z 23010KT 9999 FEW025 30/18 Q1010=
METAR LLIB 080850Z 15008KT CAVOK 30/16 Q1010=
METAR LLSD 080850Z 25010KT 9999 FEW025 28/21 Q1009=
####018000077####
SALT32 EYVI 080850
METAR EYKA 080850Z 29009KT 220V010 CAVOK 17/14 Q1015=
####018000206####
SAUS44 KWBC 080800 RRH
METAR
K11R 080844Z AUTO 06004KT 7SM CLR 25/24 A2994=
KBPG 080845Z AUTO 29004KT 10SM CLR 21/20 A3009=
KBYY 080846Z AUTO 08006KT 10SM SCT020 BKN060 OVC065 27/26
     A2987=
####018000141####
SAUS44 KLZK 080851
MTRMWT
METAR KMWT 080850Z AUTO 00000KT 10SM FEW001 SCT027 BKN032 23/23 
A3003 RMK AO2 SLP158 T02330228 58001 TSNO
####018000086####
SAUS53 KWBC 080800 RRL
METAR
KLNC 080845Z AUTO 00000KT 10SM BKN012 24/24 A3000=
####018000125####
SAUS54 KWBC 080800 RRI
METAR
KIGM 080848Z AUTO 12006KT 10SM CLR 21/M03 A2995=
KJDN 080848Z AUTO 28004KT 11/08 A3017=
####018000072####
SAAK17 KAWN 080900
PATC SA 0855 AWOS CLR BLO 120 10 49/43/0105/016=
####018000661####
SAXX70 KAWN 080900
METAR KQEI 080850Z AUTO 11001KT 7SM -DZ CLR 27/18 A2992 RMK A02=
METAR KQEN 080850Z AUTO 22006KT 7SM CLR 21/16 A3039 RMK A02=
METAR KQEP 080850Z AUTO 18002KT 6SM BR CLR 27/18 A2984 RMK A02=
METAR KQER 080850Z AUTO 12001KT 7SM CLR 25/18 A2986 RMK A02=
METAR KQES 080850Z AUTO 28004KT 6SM BR FEW095 22/18 A2984 RMK A02=
METAR KQEY 080850Z AUTO 31004KT 7SM CLR 28/15 A2959 RMK A02=
METAR KQFV 080850Z AUTO 33001KT 7SM FEW008 BKN031 25/18 A3000 RMK A02=
METAR KQXJ 080855Z 33017G29KT 2000 BLDU BKN000 46/M02 A2957 RMK DU
      BKN000 SLP015 58007 PA+346 DA+3931=
METAR KQEV 080900Z AUTO 23002KT 7SM CLR 29/17 A2977 RMK A02=
####018000107####
SAUS73 KWBC 080800 RRK
METAR
KALN 080843Z AUTO 00000KT 10SM SCT041 SCT050 BKN070 25/24
     A3003=
####018000107####
SAUK KAWN 080800 RRJ
METAR COR EGLF 080820Z 24006KT 9000 4000N VCSH SCT009 BKN011 18/16
      Q1019=
####018000325####
SAUS90 KWBC 080900
METAR KIGM 080848Z AUTO 12006KT 10SM CLR 21/M03 A2995 RMK AO2
     SLP064 T02111028 53002 TSNO=
METAR MYEG 080859Z AUTO 15008KT 10SM SCT020 BKN028 BKN040 27/24
     A2992 RMK AO2=
METAR KMWT 080850Z AUTO 00000KT 10SM FEW001 SCT027 BKN032 23/23
     A3003 RMK AO2 SLP158 T02330228 58001 TSNO=
####018000082####
SPBZ24 SBFI 080850
SPECI SBFI 080850Z 18004KT 6000 FEW020 SCT100 15/14 Q1015=
####018000096####
SAUS98 KWBC 080852
METAR KEHA 080848Z AUTO 36002KT 18/17 RMK AO1 PK WND 06 008
T01780167=
####018000096####
SAGR31 LGAT 080820 RRB
METAR LGLM 080820Z 05010KT 9999 FEW008 SCT020 21/18 Q1013 RMK SCT080=
####018000146####
SAKA31 PTYA 080800 COR
METAR PTYA 080754Z 07010KT 12SM FEW016CB SCT030 BKN130 OVC300 26/23
A2980 RMK SHRAB10E25 CB VC NE-E SLP093 T02610225=
####018000096####
SAPM31 MPTO 080900
METAR
MPTO 080900Z 00000KT 9000 DZ SCT018 SCT090  25/24 Q1010 RWY DAMP=
####018000154####
SAPQ50 KWBC 080800 CCA
METAR
PTYA 080754Z 07010KT 12SM FEW016CB SCT030 BKN130 OVC300 26/23
     A2980 RMK SHRAB10E25 CB VC NE-E SLP093 T02610225=
####018000125####
SPXX60 KWBC 080852
SPECI
KHLR 080849Z AUTO 09003KT 10SM FEW027 SCT048 26/ A2998 RMK AO2
     RAB29E38 P0000 T0256 $=
####018000191####
SPUS70 KWBC 080852
SPECI
KLHX 080849Z AUTO 33007KT 10SM -RA BKN037 OVC080 16/14 A3029 RMK
     AO2 PNO $=
KSGF 080849Z 00000KT 10SM FEW022 SCT027 BKN033 23/22 A3005 RMK
     AO2=
####018000086####
SAUS80 KWBC 080852
METAR
KSOA 080840Z AUTO 01003KT 10SM RA 23/21 A3006 RMK AO2=
####018001660####
SAUS70 KWBC 080900
METAR
KCCA 080855Z AUTO 00000KT 5SM BR FEW001 22/22 A3006 RMK AO2=
KCDN 080855Z AUTO 00000KT 10SM CLR A2997 RMK A02 P000=
KCKI 080855Z AUTO 00000KT 10SM CLR 22/21 A2995 RMK AO2=
KFOA 080845Z AUTO 00000KT 7SM CLR 25/25 A3003 RMK AO2
     T02500247=
KLRO 080855Z AUTO 00000KT 10SM CLR 24/19 A2995 RMK AO2=
KMKS 080855Z AUTO 00000KT 7SM CLR 23/20 A2995 RMK AO2 TSNO=
KRAS 080845Z AUTO 11013KT 7SM FEW020 FEW048 28/26 A2984 RMK
     AO2=
KRPH 080845Z AUTO 00000KT 10SM CLR 23/21 A3000 RMK AO2
     T02250210=
KRYW 080845Z AUTO 07003KT 5SM BR BKN008 BKN021 OVC041 24/23 A2999
     RMK AO2=
KSAR 080845Z AUTO 18004KT 5SM HZ BKN055 26/23 A3004 RMK AO2=
KSNK 080846Z AUTO 32003KT 7SM SCT042 21/20 A3008 RMK AO2
     T02080200=
KSWF 080845Z 00000KT 6SM BR SKC 25/22 A3005=
KSWW 080845Z AUTO 16004KT 10SM CLR 22/21 A3007 RMK AO1
     T02180205=
KT65 080845Z AUTO 02003KT 10SM SCT004 BKN070 26/25 A2979 RMK AO2
     T02570250=
KT82 080845Z AUTO 00000KT 23/22 A3002 RMK AO1 P0001 60001
     T02310220=
KTAZ 080845Z AUTO 00000KT 7SM SCT095 23/23 A3003 RMK AO2 LTG DSNT
     N=
KTFP 080845Z AUTO 11005KT 10SM SCT018 SCT041 SCT060 27/26 A2982
     RMK AO2 LTG DSNT NW 60001 T02710255=
KTIP 080845Z AUTO 00000KT 10SM SCT100 SCT120 24/23 A3004 RMK AO2
     LTG DSNT W T02430228=
KTYQ 080845Z AUTO 00000KT 7SM OVC095 22/21 A3006 RMK AO2=
KUVA 080845Z AUTO 03004KT 10SM CLR 24/23 A2994 RMK AO2
     T02410230=
KVYS 080845Z AUTO 00000KT 4SM -RA OVC005 23/22 A3002 RMK AO2 LTG
     DSNT S P0001 60002 T02320218=
KXBP 080845Z AUTO 13003KT 10SM SCT046 24/22 A3001 RMK AO2
     T02400221=
####018000346####
SAUS70 KWBC 080852
METAR
KIGQ 080840Z AUTO 00000KT 7SM RA SCT019 BKN039 BKN110 23/22 A3004
     RMK AO2 P0003=
KRWV 080840Z AUTO 00000KT 8SM FEW006 SCT027 24/24 A2998 RMK
     AO2=
KSLO 080840Z AUTO 20004KT 10SM CLR 24/22 A3005 RMK AO2
     T02400215=
KSLR 080842Z AUTO 12004KT 10SM SCT026 25/23 A3003 RMK AO2
     T02500232=
####018000532####
SAUS80 KWBC 080900
METAR
KIGM 080848Z AUTO 12006KT 10SM CLR 21/M03 A2995 RMK AO2 SLP064
     T02111028 53002 TSNO=
KPSN 080845Z AUTO 11003KT 7SM 24/24 A3001 RMK AO2 T02420235=
KRFI 080845Z AUTO 00000KT 7SM CLR 24/23 A3001 RMK AO2 60001
     T02400231=
KSEP 080845Z AUTO 00000KT 10SM SCT011 BKN015 BKN060 23/22 A3001
     RMK AO1=
KMWT 080850Z AUTO 00000KT 10SM FEW001 SCT027 BKN032 23/23 A3003
     RMK AO2 SLP158 T02330228 58001 TSNO=
KEHA 080848Z AUTO 36002KT 18/17 RMK AO1 PK WND 06 008
     T01780167=
####018000171####
SAAW31 KWBC 080830 RRA
METAR
LLBG 080850Z 26009KT 9999 FEW035 30/20 Q1009 NOSIG=
LLET 080850Z 03015KT CAVOK 36/11 Q1007=
LLOV 080850Z 35005KT CAVOK 32/09 Q1011=
####018000084####
SPBZ31 KWBC 080852
SPECI
SBFI 080850Z 18004KT 6000 FEW020 SCT100 15/14 Q1015=
####018000075####
SAEE31 KWBC 080830 RRC
METAR
EYSA 080850Z 32012KT CAVOK 16/13 Q1016=
####018000081####
SAGR31 KWBC 080820 RRB
METAR
LGAD 080820Z 32013KT 9999 FEW020 28/19 Q1013=
####018000095####
SPAU31 AMMC 080852
SPECI YSNF 080850Z 12009KT 9999 FEW010 BKN018 BKN030 14/12 Q1017=


####018000089####
SAMM31 KWBC 080830 RRA
METAR
LMML 080845Z 05006KT 360V130 CAVOK 28/19 Q1018 NOSIG=
####018000094####
SASA31 KWBC 080600 RRE
METAR
SYCJ 080600Z 00000KT 9000 FEW017 SCT300 24/24 Q1011 NOSIG=
####018000089####
SPAU31 AMMC 080852
SPECI YSNF 080850Z 12009KT 9999 FEW010 BKN018 BKN030 14/12 Q1017=
####018000533####
SAUS20 KNKA 080851
SPECI KBML 080850Z AUTO 00000KT 2 1/2SM BR OVC001 21/19 A3009 RMK 
    AO2 $=
METAR KBNL 080855Z AUTO 29003KT 10SM CLR 24/18 A2999 RMK AO2 =
METAR KCQW 080855Z AUTO 00000KT 7SM CLR 24/17 A2996 RMK AO2 =
SPECI KJLN 080850Z 00000KT 2SM -RA BR FEW005 SCT014 OVC026 23/22 
    A3004 RMK AO2 RAB27 P0009=
METAR KLKR 080855Z AUTO 00000KT 7SM CLR 19/19 A2999 RMK AO2 =
METAR KOLV 080855Z AUTO 00000KT 9SM CLR 23/23 A3007 RMK A01 P000 =
SPECI KWVI 080850Z AUTO 00000KT 10SM OVC009 13/11 A2993 RMK AO2=
####018000091####
SPUS43 KWBC 080852
SPECI
KSGF 080849Z 00000KT 10SM FEW022 SCT027 BKN033 23/22 A3005=
####018000124####
SAZS31 NSTU 080900
METAR NSTU 080850Z 08008KT 10SM SCT014 BKN045 28/26 A2989 RMK SLP124 
 60005 8/400 T02790261 52017=
####018000097####
SAGR31 LGAT 080820 RRB
METAR LGLM 080820Z 05010KT 9999 FEW008 SCT020 21/18 Q1013 RMK SCT080=
####018000098####
SAEU31 BKPR 080900
METAR BKPR 080900Z 36013KT 9999 SCT040 BKN070 16/10 Q1020 NOSIG RMK
BLU=
####018000088####
SALT31 EYVI 080850
METAR EYVI 080850Z 27009KT 7000 BKN008 OVC027 16/14 Q1014 NOSIG=
####018000123####
SAUS46 KSGX 080851
MTRSAN
METAR KSAN 080851Z 32006KT 9SM FEW010 OVC015 16/14 A2991 RMK AO2 
SLP128 T01610144 58006
####018000075####
SAIQ01 ORBI 080850
METAR ORBI 080900Z 30016KT CAVOK 44/05 Q1003 NOSIG=
####018000105####
SAAK27 PADN 080850
METAR PAWI 080849Z 22013KT 10SM CLR 07/04 A3003 RMK ASOS VIA PHONE=
$$



####018000118####
SAMP31 LMMM 080900
METAR HLLT NIL=
METAR HLLB NIL=
METAR LMML 080845Z 05006KT 360V130 CAVOK 28/19 Q1018 NOSIG =
####018000091####
SPUS73 KWBC 080852
SPECI
KSGF 080849Z 00000KT 10SM FEW022 SCT027 BKN033 23/22 A3005=
####018000128####
SACN60 CWAO 080800 RRE
PHE SA 0800 AUTO8 M M M M/11/10/MMMM/M/ M 04MM=
PRD SA 0800 AUTO8 M M M M/13/08/1808/M/ M 04MM=

####018000084####
SACN89 CWAO 080700 RRF
WDT SA 0700 AUTO7 M M M 163/18/18/3202/M/M 0004 39MM=

####018000386####
SACN59 CWAO 080800 RRI
NLB SA 0800 AUTO8 M M M M/11/09/2703/M/ M 94MM=
NLD SA 0800 AUTO8 M M M M/11/10/3007/M/0004 M 30MM=
NNR SA 0800 AUTO8 M M M M/10/08/2406/M/ M 80MM=
NTK SA 0800 AUTO8 M M M M/14/10/1803/M/ M 42MM=
PCM SA 0800 AUTO8 M M M M/10/09/MMMM/M/0004 M 99MM=
PQU SA 0800 AUTO8 M M M M/12/09/1502/M/ M 72MM=
PTR SA 0800 AUTO8 M M M M/12/10/MMMM/M/ M 25MM=

####018000083####
SACN88 CWAO 080800 RRH
WZN SA 0800 AUTO8 M M M 208/11/M/1110/M/M 3002 0MMM=

####018000083####
SACN97 CWAO 080800 RRF
XLL SA 0800 AUTO8 M M M 164/15/14/0502/M/ 0006 93MM=

####018000083####
SACN94 CWAO 080800 RRF
WSQ SA 0800 AUTO8 M M M 096/06/04/2406/M/ 1001 57MM=

####018000084####
SACN89 CWAO 080800 RRF
WDT SA 0800 AUTO7 M M M 162/18/18/3203/M/M 8001 08MM=

####018000083####
SACN96 CWAO 080800 RRG
XND SA 0800 AUTO8 M M M 227/08/07/MM02/M/ 3001 99MM=

####018000087####
SPUS81 KWBC 080852
SPECI
KHLR 080849Z AUTO 09003KT 10SM FEW027 SCT048 26/ A2998=
####018000075####
SAGI32 EGRR 080850
METAR LXGB 080850Z 09012KT CAVOK 24/23 Q1016 NOSIG=
####018000076####
SAKW35 OKBK 080900
METAR OKBK 080900Z 35017KT CAVOK 47/M10 Q1001 NOSIG=
####018000189####
SAEU KAWN 080900
METAR ETNG 080850Z 24005KT CAVOK 28/11 Q1020 NOSIG=
METAR LMML 080845Z 05006KT 360V130 CAVOK 28/19 Q1018 NOSIG=
METAR LQTZ 080900Z VRB02KT 9999 FEW040 17/// Q1023=
####018000182####
SAXN17 KAWN 080800 RRI
METAR MMIO 080840Z 00000KT 10SM SCT040 17/14 A3010 RMK 8/500 HZY=
METAR MMMY 080842Z 32005KT 15SM SCT045 23/22 A2987 RMK SLP095 58016
      901 8/500=
####018000638####
SPUS17 KAWN 080852 RRF
SPECI KDOV 080846Z AUTO 00000KT 2SM R01/5000VP6000FT BR CLR 24/24 A2999
      RMK AO2 VIS 1/2 RWY19 SLP156=
SPECI KDOV 080848Z AUTO 02003KT 2 1/2SM BR CLR 24/24 A2999 RMK AO2
      VIS 3/4 RWY19 SLP156=
SPECI KDOV 080850Z AUTO 01003KT 3SM BR CLR 24/24 A2999 RMK AO2 VIS
      1 1/2 RWY19 SLP156=
SPECI KFCS 080847Z AUTO 21007KT 10SM BKN022 OVC055 14/11 A3038 RMK
      AO2 DZB0838E0847 SLP217=
SPECI KHST 080847Z AUTO 07004KT 10SM FEW006 27/25 A2993 RMK AO2 RAB0822E0843DZB0843E0847
      SLP135 $=
SPECI KLTS 080844Z AUTO 02005KT 10SM CLR 23/22 A3005 RMK AO2 DZB0807E0844
      SLP158 $=
####018000091####
SAXX70 KAWN 080800 RRW
METAR KQFU 080830Z AUTO 35002KT 7SM OVC055 25/18 A2988 RMK A02=
####018000591####
SPNA35 KAWN 080852 RRF
SPECI KDOV 080846Z AUTO 00000KT 2SM R01/5000VP6000FT BR CLR 24/24 A2999
      RMK AO2 VIS 1/2 RWY19 SLP156=
SPECI KDOV 080848Z AUTO 02003KT 2 1/2SM BR CLR 24/24 A2999 RMK AO2
      VIS 3/4 RWY19 SLP156=
SPECI KDOV 080850Z AUTO 01003KT 3SM BR CLR 24/24 A2999 RMK AO2 VIS
      1 1/2 RWY19 SLP156=
SPECI KHST 080847Z AUTO 07004KT 10SM FEW006 27/25 A2993 RMK AO2 RAB0822E0843DZB0843E0847
      SLP135 $=
SPECI KNQX 080848Z AUTO 05005KT 10SM TS CLR 28/25 A2992 RMK AO2 TSB42
      $=
SPECI KPHL 080847Z 00000KT 6SM HZ SCT180 25/22 A3001 RMK AO2 $=
####018001717####
SPZZ40 KAWN 080852 RRN
SPECI CWZZ 080849Z AUTO ///// 3/8SM OVC011 OVC041 OVC069 11/ A2980=
SPECI CYKF 080849Z AUTO 04002KT 3SM BR CLR 19/19 A3005 RMK SLP172 DENSITY
      ALT 1600FT VIS VRB 1-3=
SPECI EGUN 080849Z AUTO 28007KT 9999 SCT008 SCT013 BKN020 OVC027 18/18
      A3007 RMK AO2 RAB0751E0801 CIG 017V024 SLP173=
SPECI KAFF 080851Z AUTO 18006KT 10SM FEW002 SCT016 OVC023 13/12 A3040
      RMK AO2 RAB0834E0851DZB0832E0834 FEW V SCT SLP207=
SPECI KDOV 080848Z AUTO 02003KT 2 1/2SM BR CLR 24/24 A2999 RMK AO2
      VIS 3/4 RWY19 SLP156=
SPECI KDOV 080850Z AUTO 01003KT 3SM BR CLR 24/24 A2999 RMK AO2 VIS
      1 1/2 RWY19 SLP156=
SPECI KEGI 080851Z AUTO 00000KT 2 1/2SM R18/2400V5500FT BR CLR 23/22
      A3002 RMK AO2 VIS 1 1/4V5 SLP165 $=
SPECI KFCS 080847Z AUTO 21007KT 10SM BKN022 OVC055 14/11 A3038 RMK
      AO2 DZB0838E0847 SLP217=
SPECI KHLR 080849Z AUTO 09003KT 10SM FEW027 SCT048 26/ A2998 RMK AO2
      RAB29E38 P0000 T0256 $=
SPECI KHST 080847Z AUTO 07004KT 10SM FEW006 27/25 A2993 RMK AO2 RAB0822E0843DZB0843E0847
      SLP135 $=
SPECI KNQX 080848Z AUTO 05005KT 10SM TS CLR 28/25 A2992 RMK AO2 TSB42
      $=
SPECI KVOK 080850Z 31007KT 10SM SCT018 21/21 A3001 RMK AO2A SLP156=
SPECI OMDB 080847Z 33010KT 280V360 8000 NSC 43/22 Q1000 NOSIG=
SPECI PGUA 080849Z AUTO 09014KT 10SM SCT017 27/ A2988 RMK AO2 SLP101
      VISNO RWY24L $=
SPECI SBFI 080850Z 18004KT 6000 FEW020 SCT100 15/14 Q1015=
SPECI YSNF 080850Z 12009KT 9999 FEW010 BKN018 BKN030 14/12 Q1017=
SPECI YSSY 080847Z 22013KT 7000 -SHRA FEW008 SCT020 BKN055 12/11 Q1027
      RMK VIS REDUCED TO NORTH FM0848 19015KT 9999 -SHRA SCT025
      BKN040 INTER 0848/1148 5000 SHRA BKN010=
####018002308####
SAUS20 KNKA 080852
METAR KLRU 080851Z AUTO 04008KT 10SM BKN120 19/15 A3016 RMK AO2=
METAR KMDW 080851Z 00000KT 7SM -RA FEW015 BKN060 OVC095 24/22 A3002 
    RMK AO2 RAB22 SLP153 P0001 60010 T02390217 58008=
SPECI KMFE 080851Z AUTO 36006KT 10SM SCT006 SCT017 26/24 A2980 RMK 
    AO2=
METAR KMHR 080850Z 13005KT 10SM SKC 13/10 A2985=
SPECI KMIV 080851Z AUTO 10003KT 1 3/4SM BR FEW003 24/23 A2999 RMK 
    AO2=
METAR KMPV 080851Z AUTO 00000KT 3SM BR CLR 20/19 A3011 RMK AO2 
    SLP187 T02000189 53001=
METAR KMWT 080850Z AUTO 00000KT 10SM FEW001 SCT027 BKN032 23/23
     A3003 RMK AO2 SLP158 T02330228 58001 TSNO=
METAR KMYL 080851Z AUTO 00000KT 10SM CLR 09/06 A3019 RMK AO2 SLP187 
    T00940056 53008=
METAR KOKM 080851Z AUTO 00000KT 10SM SCT003 OVC011 24/24 A3001 
     RMK AO1 LTG DSNT NE AND NW=
METAR KONM 080847Z AUTO 00000KT 10SM SCT060 19/14 A3022 RMK AO2 
     T01880136=
METAR KORD 080851Z 00000KT 10SM FEW038 BKN080 OVC100 23/22 A3002 RMK 
    AO2 RAE0752B15E50 SLP159 P0000 60015 T02280222 58008=
METAR KOXR 080851Z AUTO 29009KT 10SM OVC013 16/12 A2991 RMK AO2 
    SLP127 T01560122 50000 $=
METAR KPHX 080851Z 32008KT 10SM CLR 34/00 A2975 RMK AO2 SLP050 
    T03440000 50005 $=
METAR KPIT 080851Z 00000KT 7SM CLR 22/18 A3008 RMK AO2 SLP181 
    T02170183 55004=
METAR KPWM 080851Z 16003KT 8SM OVC006 21/19 A3007 RMK AO2 SLP181 
    T02060194 55001 $=
METAR KRDU 080851Z 05003KT 6SM HZ FEW090 23/18 A2996 RMK AO2 SLP139 
    T02330183 55004 $=
METAR KROW 080851Z AUTO 01005KT 10SM -RA FEW070 OVC100 20/16 A3016 
    RMK AO2 RAB22 SLP150 P0000 60000 T02000161 58004 TSNO=
SPECI KSET 080851Z AUTO 06004KT 3SM -RA BR FEW010 SCT019 BKN033 
    25/24 A3000 RMK AO2 RAB34 P0002=
METAR KSLK 080851Z AUTO 00000KT 3SM BR CLR 18/16 A3008 RMK AO2 
    SLP176 T01780161 55001=
METAR KSMO 080851Z AUTO 00000KT 10SM OVC011 16/13 A2991 RMK AO2 
    SLP127 T01610128 58002=
METAR KSTL 080851Z 25004KT 9SM FEW022 SCT046 SCT090 BKN150 BKN250 
    26/23 A3003 RMK AO2 RAB15E44 SLP156 TCU DSNT E AND DSNT SE P0007 
    60007 T02560233 58007=
METAR KTEB 080851Z 00000KT 5SM HZ CLR 26/22 A3000 RMK AO2 SLP160 
    T02560222 53001=
METAR KVNY 080851Z AUTO 14003KT 6SM BR OVC008 16/13 A2991 RMK AO2 
    SLP120 T01560133 58001=
####018000253####
SAAK41 KNKA 080852
SPECI PAPB 080850Z AUTO 09016KT 10SM FEW022 OVC042 08/06 A2991 RMK 
    AO2 401060067 TSNO=
METAR PAPO 080853Z 12007KT 10SM CLR 05/03 A3013 RMK VIA PHONE =
METAR PAWI 080849Z 22013KT 10SM CLR 07/04 A3003 RMK ASOS VIA PHONE=
####018002970####
SAUS20 KNKA 080852
METAR K1F0 080847Z AUTO 02003KT 10SM SCT026 SCT040 BKN070 24/24 
     A3001 RMK AO2=
METAR K36U 080855Z AUTO 00000KT 10SM CLR 10/05 A3020 RMK AO2=
METAR KAHN 080851Z AUTO 00000KT 8SM CLR 22/19 A3002 RMK AO2 SLP157 
    T02170194 57009 $=
METAR KALB 080851Z 00000KT 5SM HZ CLR 23/21 A3002 RMK AO2 SLP163 
    T02330206 51001=
METAR KALM 080850Z AUTO 33005KT 10SM CLR 20/13 A3014 RMK AO2=
METAR KASH 080851Z 13005KT 6SM BR FEW065 24/22 A3006 RMK AO2 53003 
    T02380216 SLP179=
METAR KATS 080850Z AUTO 02007KT 2SM +RA BKN003 BKN019 OVC031 
     18/17 A3015 RMK AO2 P0009=
METAR KAVX 080851Z AUTO 27004KT 1 1/4SM BR OVC001 12/12 A2993 RMK 
    AO2 SLP126 T01170117 58003 TSNO=
METAR KBAZ 080851Z AUTO 04006KT 10SM BKN017 BKN026 25/24 A2993 RMK 
    AO2 SLP125 60000 T02500239 57006=
METAR KBDL 080851Z 15003KT 5SM HZ BKN080 24/21 A3002 RMK AO2 SLP165 
    T02390206 58001=
METAR KBGD 080851Z AUTO 02006KT 10SM SCT014 BKN020 OVC070 18/18 
    A3018 RMK AO2 RAE48 SLP181 P0003 60015 T01830178 53004=
METAR KBKW 080851Z AUTO 00000KT 4SM BR SCT080 20/18 A3016 RMK AO2 
    SLP170 T02000178 56004 VISNO RWY19 $=
SPECI KBRO 080851Z 34004KT 10SM FEW016 SCT022 27/26 A2977 RMK AO2 
    RAB08E46 P0001=
METAR KCHK 080851Z AUTO 00000KT 10SM SCT110 23/23 A3004 RMK AO2=
METAR KCLE 080851Z 00000KT 8SM CLR 22/18 A3008 RMK AO2 SLP178 
    T02220178 56003 $=
METAR KCMH 080851Z 00000KT 9SM CLR 23/19 A3007 RMK AO2 SLP173 
    T02280194 57003 $=
METAR KCSG 080851Z 00000KT 10SM CLR 25/20 A3002 RMK AO2 SLP160 
    T02500200 55006=
METAR KDAW 080851Z AUTO 00000KT 2SM BR OVC003 22/21 A3006 RMK AO2 
    SLP173 T02170206 53001 $=
METAR KDUC 080852Z AUTO 06003KT 10SM CLR 22/22 A3003 RMK AO2=
METAR KEKN 080851Z AUTO 00000KT 2SM BR FEW080 17/16 A3015 RMK AO2 
    SLP197 T01720161 56001 TSNO=
METAR KELP 080851Z 35012KT 10SM FEW060 SCT080 BKN100 22/15 A3011 RMK 
    AO2 SLP118 T02220150 50004=
SPECI KELZ 080851Z AUTO 00000KT 1SM BR CLR 19/19 A3016 RMK AO2=
METAR KERI 080851Z 18003KT 7SM CLR 22/19 A3006 RMK AO2 SLP172 
    T02170189 56005=
METAR KEWR 080851Z 00000KT 6SM BR BKN110 BKN250 26/24 A3001 RMK AO2 
    SLP162 T02560244 55001=
METAR KGCM 080855Z AUTO 00000KT 23/23 A3005 RMK AO2 LTG DSNT SW 
     AND W PWINO=
METAR KGMJ 080854Z AUTO 00000KT 26/26 A3003 RMK AO2 PWINO=
METAR KHDO 080851Z AUTO 07007KT 10SM BKN022 24/23 A2996 RMK AO2 
    SLP128 T02440228 53001=
METAR KHTS 080851Z 00000KT 2 1/2SM BR CLR 22/21 A3007 RMK AO2 SLP172 
    T02220206 56004=
METAR KILG 080851Z AUTO 11004KT 4SM BR CLR 24/22 A3002 RMK AO2 
    SLP163 T02440222 53004 $=
METAR KJFK 080851Z 00000KT 4SM BR SCT006 BKN090 BKN130 25/23 A3002 
    RMK AO2 SLP166 T02500233 55002 $=
METAR KLGA 080851Z 12004KT 6SM HZ SCT110 BKN250 27/22 A3001 RMK AO2 
    SLP161 T02670222 55002=
METAR KLGU 080851Z AUTO 06004KT 10SM CLR 14/07 A3013 RMK AO2 SLP158 
    T01390067 52006=
####018000075####
SACH01 SCFA 080900
METAR SCFA 080900Z 08005KT 9999 OVC015 12/08 Q1015=
####018000124####
SAUS45 KTWC 080852
MTRSAD
METAR KSAD 080851Z AUTO 16010KT 10SM CLR 26/12 A2998 RMK AO2 SLP090 
T02560117 51008 TSNO
####018000144####
SAUS44 KCRP 080852
MTRVCT
METAR KVCT 080851Z AUTO 07012G18KT 8SM FEW011 BKN050 OVC070 26/25 
A2988 RMK AO2 TSE00 SLP116 T02560250 58003
####018000159####
SAUS44 KEWX 080852
MTRATT
METAR KATT 080851Z AUTO 00000KT 10SM FEW010 SCT014 OVC030 26/23 
A2996 RMK AO2 RAB22E32 SLP131 P0000 60000 T02560233 56002 $
####018000116####
SAUS41 KAKQ 080852
MTRORF
METAR KORF 080851Z 09003KT 6SM BR CLR 26/24 A2995 RMK AO2 SLP141 
T02560239 57001
####018000124####
SAUS41 KGYX 080852
MTRCON
METAR KCON 080851Z AUTO 00000KT 6SM BR OVC050 23/21 A3005 RMK AO2 
SLP174 T02330211 51002
####018000123####
SAUS42 KMHX 080852
MTRHSE
METAR KHSE 080851Z AUTO 06004KT 8SM CLR 24/24 A2992 RMK AO2 SLP130 
T02440239 55004 TSNO
####018000139####
SAUS44 KSJT 080852
MTRJCT
METAR KJCT 080851Z AUTO 00000KT 9SM SCT017 SCT025 22/21 A3001 RMK 
AO2 SLP122 60000 T02220211 55004 TSNO
####018000100####
SAFK41 EGYP 080850
METAR EGYP 080850Z 01020KT 9999 -RA FEW010 SCT015 OVC045 05/03 Q0997
 WHT=
####018000745####
SPUS99 KWBC 080853
SPECI
KBML 080850Z AUTO 00000KT 2 1/2SM BR OVC001 21/19 A3009 RMK AO2
     $=
KJLN 080850Z 00000KT 2SM -RA BR FEW005 SCT014 OVC026 23/22 A3004
     RMK AO2 RAB27 P0009=
KWVI 080850Z AUTO 00000KT 10SM OVC009 13/11 A2993 RMK AO2=
PAPB 080850Z AUTO 09016KT 10SM FEW022 OVC042 08/06 A2991 RMK AO2
     401060067 TSNO=
KMFE 080851Z AUTO 36006KT 10SM SCT006 SCT017 26/24 A2980 RMK
     AO2=
KMIV 080851Z AUTO 10003KT 1 3/4SM BR FEW003 24/23 A2999 RMK
     AO2=
KSET 080851Z AUTO 06004KT 3SM -RA BR FEW010 SCT019 BKN033 25/24
     A3000 RMK AO2 RAB34 P0002=
KBRO 080851Z 34004KT 10SM FEW016 SCT022 27/26 A2977 RMK AO2
     RAB08E46 P0001=
KELZ 080851Z AUTO 00000KT 1SM BR CLR 19/19 A3016 RMK AO2=
####018001255####
SAUS99 KWBC 080853 RRA
METAR
KDAW 080851Z AUTO 00000KT 2SM BR OVC003 22/21 A3006 RMK AO2 SLP173
     T02170206 53001 $=
KDUC 080852Z AUTO 06003KT 10SM CLR 22/22 A3003 RMK AO2=
KEKN 080851Z AUTO 00000KT 2SM BR FEW080 17/16 A3015 RMK AO2 SLP197
     T01720161 56001 TSNO=
KELP 080851Z 35012KT 10SM FEW060 SCT080 BKN100 22/15 A3011 RMK AO2
     SLP118 T02220150 50004=
KERI 080851Z 18003KT 7SM CLR 22/19 A3006 RMK AO2 SLP172 T02170189
     56005=
KEWR 080851Z 00000KT 6SM BR BKN110 BKN250 26/24 A3001 RMK AO2
     SLP162 T02560244 55001=
KGCM 080855Z AUTO 00000KT 23/23 A3005 RMK AO2 LTG DSNT SW AND W
     PWINO=
KGMJ 080854Z AUTO 00000KT 26/26 A3003 RMK AO2 PWINO=
KHDO 080851Z AUTO 07007KT 10SM BKN022 24/23 A2996 RMK AO2 SLP128
     T02440228 53001=
KHTS 080851Z 00000KT 2 1/2SM BR CLR 22/21 A3007 RMK AO2 SLP172
     T02220206 56004=
KILG 080851Z AUTO 11004KT 4SM BR CLR 24/22 A3002 RMK AO2 SLP163
     T02440222 53004 $=
KJFK 080851Z 00000KT 4SM BR SCT006 BKN090 BKN130 25/23 A3002 RMK
     AO2 SLP166 T02500233 55002 $=
KLGA 080851Z 12004KT 6SM HZ SCT110 BKN250 27/22 A3001 RMK AO2
     SLP161 T02670222 55002=
KLGU 080851Z AUTO 06004KT 10SM CLR 14/07 A3013 RMK AO2 SLP158
     T01390067 52006=
####018003671####
SAUS99 KWBC 080853
METAR
KBNL 080855Z AUTO 29003KT 10SM CLR 24/18 A2999 RMK AO2=
KCQW 080855Z AUTO 00000KT 7SM CLR 24/17 A2996 RMK AO2=
KLKR 080855Z AUTO 00000KT 7SM CLR 19/19 A2999 RMK AO2=
KOLV 080855Z AUTO 00000KT 9SM CLR 23/23 A3007 RMK A01 P000=
PAPO 080853Z 12007KT 10SM CLR 05/03 A3013 RMK VIA PHONE=
PAWI 080849Z 22013KT 10SM CLR 07/04 A3003 RMK ASOS VIA PHONE=
KLRU 080851Z AUTO 04008KT 10SM BKN120 19/15 A3016 RMK AO2=
KMDW 080851Z 00000KT 7SM -RA FEW015 BKN060 OVC095 24/22 A3002 RMK
     AO2 RAB22 SLP153 P0001 60010 T02390217 58008=
KMHR 080850Z 13005KT 10SM SKC 13/10 A2985=
KMPV 080851Z AUTO 00000KT 3SM BR CLR 20/19 A3011 RMK AO2 SLP187
     T02000189 53001=
KMWT 080850Z AUTO 00000KT 10SM FEW001 SCT027 BKN032 23/23 A3003
     RMK AO2 SLP158 T02330228 58001 TSNO=
KMYL 080851Z AUTO 00000KT 10SM CLR 09/06 A3019 RMK AO2 SLP187
     T00940056 53008=
KOKM 080851Z AUTO 00000KT 10SM SCT003 OVC011 24/24 A3001 RMK AO1
     LTG DSNT NE AND NW=
KONM 080847Z AUTO 00000KT 10SM SCT060 19/14 A3022 RMK AO2
     T01880136=
KORD 080851Z 00000KT 10SM FEW038 BKN080 OVC100 23/22 A3002 RMK AO2
     RAE0752B15E50 SLP159 P0000 60015 T02280222 58008=
KOXR 080851Z AUTO 29009KT 10SM OVC013 16/12 A2991 RMK AO2 SLP127
     T01560122 50000 $=
KPHX 080851Z 32008KT 10SM CLR 34/00 A2975 RMK AO2 SLP050 T03440000
     50005 $=
KPIT 080851Z 00000KT 7SM CLR 22/18 A3008 RMK AO2 SLP181 T02170183
     55004=
KPWM 080851Z 16003KT 8SM OVC006 21/19 A3007 RMK AO2 SLP181
     T02060194 55001 $=
KRDU 080851Z 05003KT 6SM HZ FEW090 23/18 A2996 RMK AO2 SLP139
     T02330183 55004 $=
KROW 080851Z AUTO 01005KT 10SM -RA FEW070 OVC100 20/16 A3016 RMK
     AO2 RAB22 SLP150 P0000 60000 T02000161 58004 TSNO=
KSLK 080851Z AUTO 00000KT 3SM BR CLR 18/16 A3008 RMK AO2 SLP176
     T01780161 55001=
KSMO 080851Z AUTO 00000KT 10SM OVC011 16/13 A2991 RMK AO2 SLP127
     T01610128 58002=
KSTL 080851Z 25004KT 9SM FEW022 SCT046 SCT090 BKN150 BKN250 26/23
     A3003 RMK AO2 RAB15E44 SLP156 TCU DSNT E AND DSNT SE P0007
     60007 T02560233 58007=
KTEB 080851Z 00000KT 5SM HZ CLR 26/22 A3000 RMK AO2 SLP160
     T02560222 53001=
KVNY 080851Z AUTO 14003KT 6SM BR OVC008 16/13 A2991 RMK AO2 SLP120
     T01560133 58001=
K1F0 080847Z AUTO 02003KT 10SM SCT026 SCT040 BKN070 24/24 A3001
     RMK AO2=
K36U 080855Z AUTO 00000KT 10SM CLR 10/05 A3020 RMK AO2=
KAHN 080851Z AUTO 00000KT 8SM CLR 22/19 A3002 RMK AO2 SLP157
     T02170194 57009 $=
KALB 080851Z 00000KT 5SM HZ CLR 23/21 A3002 RMK AO2 SLP163
     T02330206 51001=
KALM 080850Z AUTO 33005KT 10SM CLR 20/13 A3014 RMK AO2=
KASH 080851Z 13005KT 6SM BR FEW065 24/22 A3006 RMK AO2 53003
     T02380216 SLP179=
KATS 080850Z AUTO 02007KT 2SM +RA BKN003 BKN019 OVC031 18/17 A3015
     RMK AO2 P0009=
KAVX 080851Z AUTO 27004KT 1 1/4SM BR OVC001 12/12 A2993 RMK AO2
     SLP126 T01170117 58003 TSNO=
KBAZ 080851Z AUTO 04006KT 10SM BKN017 BKN026 25/24 A2993 RMK AO2
     SLP125 60000 T02500239 57006=
KBDL 080851Z 15003KT 5SM HZ BKN080 24/21 A3002 RMK AO2 SLP165
     T02390206 58001=
KBGD 080851Z AUTO 02006KT 10SM SCT014 BKN020 OVC070 18/18 A3018
     RMK AO2 RAE48 SLP181 P0003 60015 T01830178 53004=
KBKW 080851Z AUTO 00000KT 4SM BR SCT080 20/18 A3016 RMK AO2 SLP170
     T02000178 56004 VISNO RWY19 $=
KCHK 080851Z AUTO 00000KT 10SM SCT110 23/23 A3004 RMK AO2=
KCLE 080851Z 00000KT 8SM CLR 22/18 A3008 RMK AO2 SLP178 T02220178
     56003 $=
KCMH 080851Z 00000KT 9SM CLR 23/19 A3007 RMK AO2 SLP173 T02280194
     57003 $=
KCSG 080851Z 00000KT 10SM CLR 25/20 A3002 RMK AO2 SLP160 T02500200
     55006=
####018000166####
SAFA31 EKCH 080850
METAR EKVG 080851Z 16011KT 9999 SCT004 BKN006 BKN010 11/10 Q0992
RMK/RWY 13/31 CLOSED DUE WIP. SEE NOTAM E0050/10 WIND 850FT
16011KT 110V230=
####018000134####
SAYE20 OYAA 080900
METAR OYAA 080900Z 21013KT 6000 NSC 33/22 Q1003=
METAR OYSQ 080900Z 18045G55KT 9999 FEW018 SCT200 32/24 Q1006=
####018000074####
SAQB31 LQMO 080900
METAR LQMO 080900Z 33010KT 9999 FEW045 26/08 Q1018=
####018000261####
SASW39 LSSW 080850
METAR LSMA 080850Z NIL=
METAR LSMD 080850Z 00000KT CAVOK 23/13 Q1022 RMK BLU=
METAR LSME 080850Z VRB02KT CAVOK 23/12 Q1022 RMK BLU=
METAR LSMM 080850Z NIL=
METAR LSMP 080850Z NIL=
METAR LSMS 080850Z 23003KT 170V290 CAVOK 26/12 Q1022=
####018000263####
SASW31 LSSW 080850
METAR LSZH 080850Z VRB03KT CAVOK 23/13 Q1022 NOSIG=
METAR LSGG 080850Z 08003KT 020V170 CAVOK 26/11 Q1022 NOSIG=
METAR LSZB 080850Z 32005KT 260V010 CAVOK 25/14 Q1022 NOSIG=
METAR LSZA 080850Z 18003KT 120V230 9999 BKN055 25/13 Q1023 NOSIG=
####018000088####
SPAU32 YBBN 080851
SPECI YSNF 080850Z 12009KT 9999 FEW010 BKN018 BKN030 14/12 Q1017=
####018000074####
SAGI32 EGRR 080850
METAR LXGB 080850Z 09012KT CAVOK 24/23 Q1016 NOSIG=
####018000091####
SAPR01 SPIM 080900
METAR
SPIM 080900Z VRB02KT 6000 OVC022 16/14 Q1013 NOSIG RMK PP000=
####018000101####
SPAU32 YBBN 080852
SPECI YBCG 080852Z AUTO 19011KT 9999NDV // SCT021 BKN032 OVC100 15/13
Q1021=
####018000136####
SALV32 EVRA 080850
METAR EVLA 080850Z 32005KT 280V060 CAVOK 22/16 Q1018=
METAR EVVA 080850Z AUTO 33012KT 300V360 CAVOK 21/17 Q1017=
####018000081####
SABZ21 SBSV 080900
METAR SBSV 080900Z 28003KT 9999 SCT017 SCT070 21/20 Q1017=
####018000113####
SAUS41 KPHI 080852
MTRABE
METAR KABE 080851Z 34004KT 7SM CLR 22/20 A3002 RMK AO2 SLP161 
T02220200 55001
####018000131####
SAUS41 KOKX 080852
MTRNYC
METAR KNYC 080851Z AUTO VRB03KT 6SM HZ SCT100 26/23 A3004 RMK AO2 
SLP163 T02560228 55000 TSNO $
####018000199####
SPAU31 KWBC 080853
SPECI
YSSY 080847Z 22013KT 7000 -SHRA FEW008 SCT020 BKN055 12/11 Q1027
RMK VIS REDUCED TO NORTH FM0848 19015KT 9999 -SHRA SCT025 BKN040
INTER 0848/1148 5000 SHRA BKN010=
####018000091####
SPAU31 KWBC 080853
SPECI
YSNF 080850Z 12009KT 9999 FEW010 BKN018 BKN030 14/12 Q1017=
####018000088####
SPAW33 KWBC 080853
SPECI
OMDB 080847Z 33010KT 280V360 8000 NSC 43/22 Q1000 NOSIG=
####018000080####
SPPA41 KWBC 080853
SPECI
PGUA 080849Z AUTO 09014KT 10SM SCT017 27/ A2988=
####018000112####
SPPA31 KWBC 080853
SPECI
PGUA 080849Z AUTO 09014KT 10SM SCT017 27/ A2988 RMK AO2 SLP101
VISNO RWY24L $=
####018000138####
SAMX52 MMGL 080900
METAR COR MMPR 080847Z 00000KT 12SM  SCT025 BKN070 25/23 A2980 
      RMK SLP085 57006 951 8/430=





TX_OPMET
####018000097####
SAAZ61 LPLA 080900
METAR LPLA 080900Z 00000KT 9999 FEW008 SCT016 BKN028 19/18 Q1024
      =
####018000085####
SPUS41 KWBC 080853
SPECI
KDOV 080848Z AUTO 02003KT 2 1/2SM BR CLR 24/24 A2999=
####018000081####
SPUS41 KWBC 080853
SPECI
KDOV 080850Z AUTO 01003KT 3SM BR CLR 24/24 A2999=
####018000145####
SPXX61 KWBC 080853
SPECI
EGUN 080849Z AUTO 28007KT 9999 SCT008 SCT013 BKN020 OVC027 18/18
A3007 RMK AO2 RAB0751E0801 CIG 017V024 SLP173=
####018000121####
SAUS45 KPIH 080852
MTRSNT
METAR KSNT 080851Z AUTO 00000KT 03/00 A3031 RMK AO2 SLP188 T00330000 
53010 PWINO TSNO
####018000128####
SAUS46 KLOX 080852
MTRSMX
METAR KSMX 080851Z AUTO 00000KT 9SM OVC009 13/11 A2992 RMK AO2 
SLP132 T01280106 56005 TSNO $
####018000121####
SAUS43 KMQT 080853
MTRP59
METAR KP59 080851Z AUTO 35015KT 18/17 A2997 RMK AO2 SLP142 T01780172 
53008 PWINO TSNO
####018000113####
SAUS41 KCLE 080853
MTRCAK
METAR KCAK 080851Z 00000KT 8SM CLR 22/17 A3009 RMK AO2 SLP177 
T02220172 56005
####018000121####
SAUS43 KDTX 080853
MTRP58
METAR KP58 080851Z AUTO 22004KT 24/21 A2999 RMK AO2 SLP146 T02390211 
58009 PWINO TSNO
####018000195####
SAUS44 KCRP 080853
MTRCRP
METAR KCRP 080851Z 03013G19KT 3SM +TSRA BR FEW010 BKN018CB OVC047 
26/25 A2983 RMK AO2 TSB16 SLP098 OCNL LTGIC NW-N TS NW-N MOV W P0006 
60020 T02610250 56015
####018000149####
SAUS44 KMAF 080853
MTRGDP
METAR KGDP 080851Z AUTO 06018KT 1/4SM FG OVC004 17/17 A3022 RMK AO2 
RAE34 SLP153 P0000 60001 T01720172 57002 TSNO
####018000136####
SAYE20 OYAA 080900
METAR OYAA 080900Z 21013KT 6000 NSC 33/22 Q1003=
METAR OYSQ 080900Z 18045G55KT 9999 FEW018 SCT200 32/24 Q1006=
####018000169####
SAFA31 EKCH 080850
METAR EKVG 080851Z 16011KT 9999 SCT004 BKN006 BKN010 11/10 Q0992
RMK/RWY 13/31 CLOSED DUE WIP. SEE NOTAM E0050/10 WIND 850FT
16011KT 110V230=
####018000075####
SAQB31 LQMO 080900
METAR LQMO 080900Z 33010KT 9999 FEW045 26/08 Q1018=
####018000089####
SPAU32 YBBN 080851
SPECI YSNF 080850Z 12009KT 9999 FEW010 BKN018 BKN030 14/12 Q1017=
####018000267####
SASW31 LSSW 080850
METAR LSZH 080850Z VRB03KT CAVOK 23/13 Q1022 NOSIG=
METAR LSGG 080850Z 08003KT 020V170 CAVOK 26/11 Q1022 NOSIG=
METAR LSZB 080850Z 32005KT 260V010 CAVOK 25/14 Q1022 NOSIG=
METAR LSZA 080850Z 18003KT 120V230 9999 BKN055 25/13 Q1023 NOSIG=
####018000102####
SPAU32 YBBN 080852
SPECI YBCG 080852Z AUTO 19011KT 9999NDV // SCT021 BKN032 OVC100 15/13
Q1021=
####018000267####
SASW39 LSSW 080850
METAR LSMA 080850Z NIL=
METAR LSMD 080850Z 00000KT CAVOK 23/13 Q1022 RMK BLU=
METAR LSME 080850Z VRB02KT CAVOK 23/12 Q1022 RMK BLU=
METAR LSMM 080850Z NIL=
METAR LSMP 080850Z NIL=
METAR LSMS 080850Z 23003KT 170V290 CAVOK 26/12 Q1022=
####018000138####
SALV32 EVRA 080850
METAR EVLA 080850Z 32005KT 280V060 CAVOK 22/16 Q1018=
METAR EVVA 080850Z AUTO 33012KT 300V360 CAVOK 21/17 Q1017=
####018000075####
SPCN44 CWAO 080852
SPECI CYUS 080852Z AUTO ///// 9SM CLR 11/ A2980=

####018000542####
SAIN31 VABB 080840
METAR VAAH 080840Z 21009KT 3500 HZ SCT018 SCT025 FEW030CB 31/24
    Q1004 NOSIG=
METAR VABB 080840Z 14006KT 2500 HZ SCT008 SCT015 FEW025TCU OVC080
     27/25 Q1007 TEMPO 1500 SHRA=
METAR VANP 080840Z 26006KT 4000 HZ FEW010 SCT015 FEW030CB BKN080
    27/26 Q1005 NOSIG CB TO NE, S=
METAR VOHS 080840Z 26013KT 5000 HZ SCT010 SCT015 BKN080 27/22 Q1011
    NOSIG=
METAR VOHY 080840Z 26007KT 5000 -DZ SCT015 SCT025 BKN080 25/20 Q1011
    NOSIG=
METAR VOTR 080840Z 35005KT 6000 SCT020 OVC100 33/22 Q1009=
####018000560####
SPNA14 KAWN 080853 RRG
SPECI KEGI 080851Z AUTO 00000KT 2 1/2SM R18/2400V5500FT BR CLR 23/22
      A3002 RMK AO2 VIS 1 1/4V5 SLP165 $=
SPECI KNQX 080848Z AUTO 05005KT 10SM TS CLR 28/25 A2992 RMK AO2 TSB42
      $=
SPECI KNSE 080839Z AUTO 00000KT 1 1/4SM BR FEW004 23/22 A3002 RMK AO2
      $=
SPECI KOZR 080848Z AUTO 00000KT 9SM R06/5500FT CLR 22/22 A3002 RMK
      AO2 SLP162=
SPECI KOZR 080852Z AUTO 00000KT 9SM R06/5500VP6000FT CLR 22/22 A3002
      RMK AO2 SLP162=
SPECI KVOK 080850Z 31007KT 10SM SCT018 21/21 A3001 RMK AO2A SLP156=
####018000467####
SAUS20 KNKA 080853
METAR KACT 080851Z 09004KT 10SM BKN014 26/23 A2998 RMK AO2 SLP143 
    T02560233 55004=
METAR KGLS 080852Z AUTO 11018G24KT 10SM FEW024 SCT031 28/23 A2990 
    RMK AO2 SLP125 T02830233 58009=
METAR KHRL 080852Z AUTO 34004KT 8SM -RA SCT019 BKN024 BKN030 26/26 
    A2978 RMK AO2 LTG DSNT N RAE06B44 SLP084 P0001 60003 T02610261 
    56016=
METAR KYNG 080851Z 11004KT 4SM BR HZ CLR 18/17 A3008 RMK AO2 SLP177 
    T01830172 56005=
####018000399####
SADL32 EDZO 080850
METAR EDDB 080850Z 17001KT CAVOK 24/08 Q1022 NOSIG=
METAR EDDC 080850Z 04003KT CAVOK 22/09 Q1023 NOSIG=
METAR EDDE 080850Z 30001KT CAVOK 24/09 Q1022 NOSIG=
METAR EDDG 080850Z 17004KT CAVOK 26/11 Q1020 NOSIG=
METAR EDDP 080850Z 16004KT CAVOK 24/11 Q1022 NOSIG=
METAR EDDR 080850Z VRB03KT CAVOK 25/13 Q1021 NOSIG=
METAR EDDW 080850Z 18005KT CAVOK 27/09 Q1019 NOSIG=
####018000526####
SADL31 EDZO 080850
METAR EDDF 080850Z 14003KT CAVOK 26/10 Q1021 NOSIG=
METAR EDDH 080850Z 15007KT CAVOK 25/11 Q1019 NOSIG=
METAR EDDK 080850Z 18006KT CAVOK 27/10 Q1020 NOSIG=
METAR EDDL 080850Z 17006KT 160V230 CAVOK 27/10 Q1019 NOSIG=
METAR EDDM 080850Z 07007G18KT 050V120 CAVOK 22/10 Q1023 NOSIG=
METAR EDDN 080850Z 12005KT CAVOK 24/08 Q1022 NOSIG=
METAR EDDS 080850Z 14004KT CAVOK 24/09 Q1022 NOSIG=
METAR EDDT 080850Z VRB01KT CAVOK 24/06 Q1022 NOSIG=
METAR EDDV 080850Z VRB03KT CAVOK 27/11 Q1020 NOSIG=
####018000072####
SALY31 HLLT 080900
METAR HLLT 080850Z 00000KT 7000 SKC 28/19 Q1019=
####018000094####
SPCN51 CWAO 080852
SPECI CWZZ 080852Z AUTO ///// 1/8SM BKN012 OVC020 OVC040 11/ A2980=

####018002599####
SAUS90 KWBC 080900
METAR KEHA 080848Z AUTO 36002KT 18/17 RMK AO1 PK WND 06 008
     T01780167=
METAR KSAN 080851Z 32006KT 9SM FEW010 OVC015 16/14 A2991 RMK AO2
     SLP128 T01610144 58006=
METAR KSAD 080851Z AUTO 16010KT 10SM CLR 26/12 A2998 RMK AO2
     SLP090 T02560117 51008 TSNO=
METAR KJCT 080851Z AUTO 00000KT 9SM SCT017 SCT025 22/21 A3001 RMK
     AO2 SLP122 60000 T02220211 55004 TSNO=
METAR KHSE 080851Z AUTO 06004KT 8SM CLR 24/24 A2992 RMK AO2 SLP130
     T02440239 55004 TSNO=
METAR KATT 080851Z AUTO 00000KT 10SM FEW010 SCT014 OVC030 26/23
     A2996 RMK AO2 RAB22E32 SLP131 P0000 60000 T02560233 56002
     $=
METAR KORF 080851Z 09003KT 6SM BR CLR 26/24 A2995 RMK AO2 SLP141
     T02560239 57001=
METAR KCON 080851Z AUTO 00000KT 6SM BR OVC050 23/21 A3005 RMK AO2
     SLP174 T02330211 51002=
METAR KVCT 080851Z AUTO 07012G18KT 8SM FEW011 BKN050 OVC070 26/25
     A2988 RMK AO2 TSE00 SLP116 T02560250 58003=
METAR KNYC 080851Z AUTO VRB03KT 6SM HZ SCT100 26/23 A3004 RMK AO2
     SLP163 T02560228 55000 TSNO $=
METAR KABE 080851Z 34004KT 7SM CLR 22/20 A3002 RMK AO2 SLP161
     T02220200 55001=
METAR KSNT 080851Z AUTO 00000KT 03/00 A3031 RMK AO2 SLP188
     T00330000 53010 PWINO TSNO=
METAR KSMX 080851Z AUTO 00000KT 9SM OVC009 13/11 A2992 RMK AO2
     SLP132 T01280106 56005 TSNO $=
METAR KP58 080851Z AUTO 22004KT 24/21 A2999 RMK AO2 SLP146
     T02390211 58009 PWINO TSNO=
METAR KP59 080851Z AUTO 35015KT 18/17 A2997 RMK AO2 SLP142
     T01780172 53008 PWINO TSNO=
METAR KGDP 080851Z AUTO 06018KT 1/4SM FG OVC004 17/17 A3022 RMK
     AO2 RAE34 SLP153 P0000 60001 T01720172 57002 TSNO=
METAR KCAK 080851Z 00000KT 8SM CLR 22/17 A3009 RMK AO2 SLP177
     T02220172 56005=
METAR KCRP 080851Z 03013G19KT 3SM +TSRA BR FEW010 BKN018CB OVC047
     26/25 A2983 RMK AO2 TSB16 SLP098 OCNL LTGIC NW-N TS NW-N MOV
     W P0006 60020 T02610250 56015=
METAR KBLU 080852Z AUTO 00000KT 10SM CLR 21/08 A3010 RMK AO2
     SLP088 T02060078 53001 TSNO=
METAR KCZZ 080852Z AUTO 02004KT 09/08 A2988 RMK AO2 SLP091
     T00890083 58005 PWINO TSNO=
METAR KREO 080852Z AUTO 06005KT 12/M02 A3010 RMK AO2 SLP158
     T01171017 53006 PWINO TSNO=
METAR KMLF 080852Z AUTO 15003KT 10SM CLR 13/01 A3009 RMK AO2
     SLP127 T01330011 51010 TSNO=
METAR KN60 080852Z AUTO 30005KT 14/11 A3010 RMK AO1 SLP190
     T01390111 53001=
METAR KABI 080852Z 12005KT 10SM CLR 22/21 A3004 RMK AO2 SLP143
     T02170211 55005 $=
METAR KSDB 080852Z AUTO 33008KT 10SM CLR 19/03 A3003 RMK AO2
     SLP111 T01890033 56003 TSNO $=
####018000117####
SAMO31 ZMUB 080900
METAR ZMUB 080900Z 15011MPS 9999 -SHRA SCT027CB SCT030 16/12 Q1008 
 NOSIG RMK QFE649.4 80=
####018000124####
SAUS46 KSTO 080853
MTRBLU
METAR KBLU 080852Z AUTO 00000KT 10SM CLR 21/08 A3010 RMK AO2 SLP088 
T02060078 53001 TSNO
####018000083####
SAHW31 KMSC 080853
METAR PGRO 080851Z 10017KT 7SM FEW015 FEW030 28/25 A2988
=
####018002069####
SAUS20 KNKA 080853
METAR KRAP 080852Z AUTO 29006KT 10SM CLR 12/09 A3025 RMK AO2 SLP231 
    T01170089 53001=
METAR KSGF 080852Z 18003KT 10SM FEW022 BKN035 BKN043 23/22 A3005 RMK 
    AO2 SLP162 T02280222 53000=
METAR KSJT 080851Z AUTO 00000KT 10SM CLR 22/20 A3001 RMK AO2 SLP138 
    60016 T02170200 55013=
METAR KSNL 080852Z AUTO 36003KT 10SM SCT005 OVC010 24/23 A3004 
     RMK AO2 LTG DSNT NE=
METAR KSOP 080855Z AUTO 00000KT 10SM CLR 23/17 A2996 RMK AO1 57003=
METAR KSPI 080852Z AUTO 00000KT 10SM FEW055 BKN090 24/23 A3003 RMK 
    AO2 RAE0754 SLP163 P0000 60005 T02390228 58007=
METAR KSPS 080852Z 05006KT 10SM FEW034 23/22 A3002 RMK AO2 SLP149 
    T02330217 53003=
METAR KSUX 080852Z 32005KT 10SM CLR 17/16 A3015 RMK AO2 SLP203 
    T01720161 51005=
METAR KSVC 080850Z AUTO 07014KT 10SM FEW027 BKN034 17/14 A3020 
     RMK AO2 P0005=
METAR KTAN 080852Z AUTO 14006KT 10SM OVC006 21/21 A3005 RMK AO2 
    SLP176 T02110206 53004=
METAR KTEX 080851Z AUTO 11004KT 10SM CLR 12/03 A3045 RMK AO2=
METAR KTMK 080853Z AUTO 14003KT 10SM OVC006 13/12 A2996 RMK AO2=
METAR KTOL 080852Z 00000KT 9SM CLR 22/18 A3004 RMK AO2 SLP166 
    T02220183 56005=
METAR KTQH 080854Z AUTO 13003KT 10SM OVC020 23/23 A3004 RMK AO2=
METAR KTRM 080852Z AUTO 35007KT 10SM CLR 26/12 A2968 RMK AO2 SLP054 
    T02610117 51008=
METAR KTXK 080853Z AUTO 00000KT 6SM BR OVC003 23/23 A3003 RMK AO2 
    CIG 001V006 SLP163 T02330233 53002=
METAR KTYR 080853Z AUTO 16003KT 9SM CLR 24/24 A3002 RMK AO2 SLP157 
    T02440239 52000=
METAR KUDG 080855Z 33004KT 10SM SCT090 25/18 A2997 RMK AO1 57007=
METAR KUGN 080852Z AUTO 16003KT 7SM FEW048 SCT065 OVC080 23/21 A3001 
    RMK AO2 RAE0754 SLP150 P0000 60044 T02280211 58006=
METAR KVTN 080852Z AUTO 00000KT 10SM BKN120 16/15 A3023 RMK AO2 
    SLP226 T01560150 53001=
METAR KWDG 080850Z AUTO 36004KT 10SM CLR 22/21 A3007 RMK AO2=
METAR KWWR 080849Z AUTO 05006KT 10SM CLR 22/21 A3014 RMK AO2 
     T02220209=
METAR PGWT 080852Z 10007KT 7SM FEW015 FEW040 SCT100 25/24 A2988
=
####018002924####
SAUS20 KNKA 080853
METAR KCQX 080852Z AUTO 19004KT 3/4SM BR VV001 19/19 A3009 RMK AO2 
    SLP190 T01890189 53003=
METAR KCRS 080853Z AUTO 13004KT 10SM OVC012 25/24 A2999 RMK AO2 
    SLP148 T02500239 55002=
METAR KCSM 080853Z AUTO 01006KT 10SM FEW050 23/21 A3009 RMK AO2 
    SLP165 T02280206 58000=
METAR KCUH 080850Z AUTO 01003KT 10SM -DZ SCT009 BKN047 OVC070 
     24/23 A3003 RMK AO2=
METAR KCVG 080852Z 00000KT 6SM HZ CLR 23/19 A3007 RMK AO2 SLP170 
    T02280194 58006=
METAR KDCA 080852Z 06006KT 7SM FEW060 28/22 A2999 RMK AO2 SLP154 
    T02780217 53002=
METAR KDDC 080852Z AUTO 01007KT 6SM BR CLR 18/17 A3017 RMK AO2 
    SLP192 T01830172 53002=
METAR KDPA 080852Z 00000KT 5SM BR CLR 23/22 A3002 RMK AO2 RAE17 
    SLP160 P0000 60016 T02280222 56012=
METAR KDVN 080852Z AUTO 23003KT 5SM BR OVC007 22/21 A3002 RMK AO2 
    SLP161 60000 T02220211 55001=
METAR KEST 080852Z AUTO 31006KT 10SM CLR 16/14 A3013 RMK AO2 SLP199 
    T01610144 55000=
METAR KFDR 080853Z AUTO 05004KT 10SM 24/22 A3002 RMK AO2 SLP146 
    T02390222 53004=
METAR KFDW 080855Z AUTO 26004KT 10SM CLR 25/17 A3000 RMK AO1=
METAR KFIT 080852Z AUTO 13004KT 5SM BR BKN060 BKN075 OVC090 24/22 
    A3006 RMK AO2 SLP178 T02390217 53001=
METAR KGCD 080850Z AUTO 12010KT 10SM CLR 15/04 A3011 RMK AO2 
     T01520043=
METAR KGGG 080853Z AUTO 10003KT 10SM CLR 24/24 A3001 RMK AO2 SLP156 
    T02440244 53004=
METAR KGKY 080853Z AUTO 15006KT 10SM CLR 25/23 A2999 RMK AO2 SLP146 
    T02500228 58001=
METAR KGLY 080855Z AUTO 00000KT 7SM SCT023 SCT090 23/23 A3004 RMK 
     AO2 =
METAR KGOK 080853Z AUTO 34003KT 10SM SCT025 OVC050 23/22 A3004 RMK 
    AO2 SLP161 T02330217 53000=
METAR KHUT 080852Z AUTO 35005KT 10SM FEW011 SCT021 21/20 A3012 RMK 
    AO2 SLP178 T02110200 53005=
SPECI KHWD 080852Z AUTO 32006KT 10SM OVC009 14/11 A2992 RMK AO2=
METAR KIAD 080852Z 02005KT 7SM FEW100 27/19 A2999 RMK AO2 SLP151 
    T02720194 55001=
METAR KIDP 080850Z AUTO 36003KT 10SM CLR 21/20 A3003 RMK AO2 LTG 
     DSNT S=
METAR KIEN 080852Z AUTO 00000KT 10SM CLR 09/09 A3027 RMK AO2 SLP238 
    T00940089 53000=
METAR KIJD 080852Z AUTO 00000KT 1/2SM FG VV001 23/23 A3005 RMK AO2 
    SLP174 T02280228 55001=
METAR KINK 080853Z AUTO 03004KT 10SM BKN095 22/19 A3005 RMK AO2 
    SLP129 60000 T02220194 56006 TSNO=
METAR KIOW 080852Z AUTO 31005KT 10SM OVC005 22/21 A3003 RMK AO2 
    SLP165 T02220206 55004=
METAR KISN 080852Z 00000KT 10SM CLR 14/11 A3012 RMK AO2 SLP195 
    T01440111 56003=
METAR KIZA 080849Z AUTO 00000KT 10SM OVC009 13/11 A2991 RMK AO2=
METAR KLAM 080850Z AUTO 20004KT 10SM CLR 13/10 A3037 RMK AO2=
METAR KLBB 080853Z 35008KT 10SM FEW010 SCT080 BKN120 OVC150 21/18 
    A3013 RMK AO2 SLP157 60000 T02060183 56005=
METAR KLWC 080852Z AUTO 00000KT 10SM FEW025 OVC090 22/21 A3006 RMK 
    AO2 RAB11E28 SLP170 P0000 60000 T02170206 58003=
####018002921####
SAUS20 KNKA 080853
METAR K4O4 080848Z AUTO 00000KT 7SM SCT001 SCT012 23/22 A3004 RMK 
     AO2=
METAR KADM 080850Z AUTO 00000KT 10SM BKN031 BKN043 OVC070 23/23 
     A3001 RMK AO2=
METAR KAFK 080850Z AUTO 36005KT 5SM BR CLR 20/19 A3010 RMK AO2 
     T02010191=
METAR KAFN 080852Z AUTO 00000KT 6SM BR CLR 22/21 A3008 RMK AO2 
    SLP183 T02170206 53000 $=
METAR KAFW 080853Z 15003KT 10SM FEW017 BKN021 26/23 A2999 RMK AO2 
    SLP139 T02610228 55002=
METAR KAIK 080855Z AUTO 29004KT 10SM CLR 23/22 A3004 RMK AO2 PNO=
METAR KALS 080852Z AUTO 00000KT 10SM CLR 09/07 A3040 RMK AO2 SLP213 
    T00890072 51003=
METAR KANW 080850Z AUTO 00000KT 10SM OVC110 17/15 A3023 RMK AO2 
     T01660151=
METAR KAQW 080852Z AUTO 00000KT 2 1/2SM BR CLR 18/18 A3005 RMK AO2 
    SLP172 T01830178 55001=
METAR KARR 080852Z AUTO 13003KT 2 1/2SM BR FEW080 22/22 A3002 RMK 
    AO2 RAE0758 SLP161 P0000 60017 T02220217 56016 $=
METAR KARW 080855Z AUTO 25005KT 10SM CLR 24/18 A2997 RMK AO2=
METAR KATL 080852Z 00000KT 10SM CLR 24/19 A3004 RMK AO2 SLP158 
    T02440194 56008=
METAR KAUH 080850Z AUTO 36003KT 10SM CLR 16/15 A3017 RMK AO2 
     T01590147=
METAR KAUN 080850Z AUTO 00000KT 10SM CLR 21/13 A2988 RMK AO1=
METAR KAXS 080850Z AUTO 04003KT 10SM -RA SCT018 SCT024 BKN033 
     24/22 A3006 RMK AO2 T02350215=
METAR KAXX 080850Z AUTO 00000KT 10SM CLR 05/04 A3048 RMK AO2=
METAR KBDN 080855Z AUTO 00000KT 10SM CLR 17/03 A3010 RMK AO2 =
METAR KBDR 080852Z AUTO 09008KT 1/2SM FG OVC002 24/23 A3003 RMK AO2 
    SLP168 T02390228 53000=
METAR KBIE 080850Z AUTO 35007KT 10SM CLR 19/18 A3012 RMK AO2 
     T01900178=
METAR KBIS 080852Z AUTO 00000KT 10SM CLR 13/10 A3013 RMK AO2 SLP198 
    T01330100 53001=
METAR KBLF 080852Z AUTO 24004KT 6SM HZ CLR 22/17 A3018 RMK AO2 
    SLP174 T02170172 56004=
METAR KBLH 080852Z AUTO 22004KT 10SM CLR 31/02 A2971 RMK AO2 SLP055 
    T03060017 53008=
METAR KBML 080852Z AUTO 00000KT 2SM BR OVC001 21/20 A3009 RMK AO2 
    SLP183 T02060200 53003 $=
METAR KBTA 080850Z AUTO 35007KT 10SM CLR 20/17 A3012 RMK AO2 
     T01950171=
METAR KBVS 080850Z AUTO 03006KT 10SM CLR 20/15 A2997 RMK A01 P000=
METAR KCDS 080853Z AUTO 36004KT 10SM SCT034 23/21 A3010 RMK AO2 
    SLP162 T02280206 53002=
METAR KCFV 080852Z AUTO 32005KT 10SM FEW042 SCT055 OVC095 22/21 
    A3004 RMK AO2 SLP164 T02220211 55008=
METAR KCID 080852Z AUTO 32004KT 10SM CLR 20/19 A3002 RMK AO2 SLP159 
    T02000194 55008=
METAR KCKV 080852Z AUTO 00000KT 10SM BKN070 24/22 A3006 RMK AO2 
    SLP172 T02390222 55004=
METAR KCLK 080853Z AUTO 02006KT 10SM SCT075 22/20 A3007 RMK AO2=
METAR KCLT 080852Z 35003KT 10SM CLR 21/17 A3000 RMK AO2 SLP149 
    T02110172 56006=
METAR KCNU 080852Z AUTO 33004KT 10SM FEW049 SCT110 21/20 A3005 RMK 
    AO2 SLP164 T02110200 58007=
METAR KCQB 080851Z AUTO 02004KT 5SM +RA 23/23 A3003 RMK AO2 TSNO=
####018002917####
SAUS20 KNKA 080853
METAR KMAF 080853Z AUTO 00000KT 10SM OVC110 22/20 A3007 RMK AO2 
    SLP138 T02170200 56005=
METAR KMDH 080852Z AUTO 00000KT 8SM FEW085 23/22 A3004 RMK AO2 
    SLP167 T02330222 56005=
METAR KMEB 080852Z AUTO 30006KT 10SM CLR 24/17 A2994 RMK AO2 SLP136 
    T02440172 58007=
METAR KMEZ 080855Z AUTO 00000KT 7SM BKN014 OVC027 26/23 A3006 RMK 
     AO2=
METAR KMFD 080852Z AUTO 18003KT 6SM HZ CLR 20/17 A3010 RMK AO2 
    SLP180 T02000172 56003=
METAR KMHK 080852Z AUTO 33003KT 10SM BKN120 21/20 A3009 RMK AO2 
    SLP181 T02110200 55001=
METAR KMKE 080852Z 16005KT 7SM -RA BKN080 OVC100 23/22 A3000 RMK AO2 
    RAB0759 SLP152 P0000 60000 T02280217 58009=
METAR KMLI 080852Z 00000KT 9SM BKN009 23/22 A3001 RMK AO2 CIG 
    005V012 SLP158 60001 T02280217 55007 $=
METAR KMWH 080852Z AUTO 01007KT 10SM CLR 17/07 A3001 RMK AO2 SLP153 
    T01720072 52003=
METAR KMWL 080853Z AUTO 00000KT 10SM CLR 23/21 A2999 RMK AO2 SLP141 
    T02330211 55003=
METAR KMYR 080855Z AUTO 28009KT 10SM CLR 26/19 A2996 RMK AO1 57007=
SPECI KNQX 080848Z AUTO 05005KT 10SM TS CLR 28/25 A2992 RMK AO2 TSB42
      $=
METAR KOAJ 080855Z AUTO 00000KT 10SM CLR 23/21 A2991 RMK AO1 57007=
METAR KOCF 080855Z AUTO 05003KT 10SM FEW002 21/21 A3000 RMK AO1 
    57007=
METAR KODO 080853Z AUTO 12007KT 10SM CLR 22/20 A3008 RMK AO2 SLP138 
    60020 T02170200 58007=
METAR KOJA 080850Z AUTO 00000KT 10SM SCT055 SCT075 BKN085 22/21 
     A3008 RMK AO2=
METAR KOKB 080852Z AUTO 00000KT 9SM OVC014 18/14 A2990 RMK AO2 
    SLP123 T01780139 58005=
METAR KOKC 080852Z 33005KT 10SM SCT027 BKN050 BKN150 23/22 A3004 RMK 
    AO2 SLP157 T02330222 56001=
METAR KOMA 080852Z 34007KT 10SM FEW019 SCT130 20/19 A3012 RMK AO2 
    SLP191 T02000189 53003=
METAR KONP 080850Z AUTO 20007KT 7SM OVC004 11/10 A2999 RMK AO1=
METAR KORE 080852Z AUTO 00000KT 8SM CLR 23/22 A3005 RMK AO2 SLP172 
    T02280217 55000=
METAR KORS 080850Z AUTO 00000KT 10SM CLR 16/13 A2994 RMK AO2=
METAR KOUN 080853Z AUTO 34003KT 10SM SCT013 BKN047 OVC055 25/23 
     A3004 RMK AO2=
SPECI KOZR 080848Z AUTO 00000KT 9SM R06/5500FT CLR 22/22 A3002 RMK
      AO2 SLP162=
SPECI KOZR 080852Z AUTO 00000KT 9SM R06/5500VP6000FT CLR 22/22 A3002
      RMK AO2 SLP162=
METAR KPLU 080850Z AUTO 00000KT 10SM FEW036 SCT090 SCT120 15/14 
     A2993 RMK AO2=
METAR KPPF 080852Z AUTO 34004KT 10SM CLR 22/21 A3005 RMK AO2 SLP165 
    T02170206 56010=
METAR KPSO 080855Z AUTO 00000KT 10SM CLR 12/06 A3038 RMK AO2=
METAR KPTS 080850Z AUTO 00000KT 10SM CLR 22/22 A3003 RMK AO2 
     T02200221=
METAR KPVJ 080847Z AUTO 00000KT 10SM CLR 24/23 A3002 RMK AO2=
METAR KPWK 080852Z AUTO 17004KT 10SM SCT038 BKN110 23/22 A3003 RMK 
    AO2 RAB17E33 SLP164 P0000 60041 T02280217 58008=
METAR KPYM 080852Z AUTO 17003KT 9SM OVC006 23/20 A3008 RMK AO2 CIG 
    004V008 SLP185 T02280200 53004=
####018000124####
SAUS45 KSLC 080853
MTRMLF
METAR KMLF 080852Z AUTO 15003KT 10SM CLR 13/01 A3009 RMK AO2 SLP127 
T01330011 51010 TSNO
####018000119####
SAUS44 KMAF 080853
MTRNFW
METAR KNFW 080852Z AUTO 13006KT 10SM CLR 26/22 A3003 RMK AO2 SLP152 
T02610222 55003
####018000121####
SAUS46 KSGX 080853
MTRCZZ
METAR KCZZ 080852Z AUTO 02004KT 09/08 A2988 RMK AO2 SLP091 T00890083 
58005 PWINO TSNO
####018000122####
SAUS46 KPQR 080853
MTRREO
METAR KREO 080852Z AUTO 06005KT 12/M02 A3010 RMK AO2 SLP158 
T01171017 53006 PWINO TSNO
####018000124####
SAUS41 KLWX 080853
MTRNHK
METAR KNHK 080852Z AUTO 11004KT 4SM BR FEW011 26/24 A2998 RMK AO2 
SLP151 T02610239 53001
####018000116####
SAUS44 KSJT 080853
MTRABI
METAR KABI 080852Z 12005KT 10SM CLR 22/21 A3004 RMK AO2 SLP143 
T02170211 55005 $
####018000110####
SAUS43 KBIS 080853
MTRN60
METAR KN60 080852Z AUTO 30005KT 14/11 A3010 RMK AO1 SLP190 T01390111 
53001
####018000126####
SAUS46 KLOX 080853
MTRSDB
METAR KSDB 080852Z AUTO 33008KT 10SM CLR 19/03 A3003 RMK AO2 SLP111 
T01890033 56003 TSNO $
####018003676####
SAUS99 KWBC 080854
METAR
KACT 080851Z 09004KT 10SM BKN014 26/23 A2998 RMK AO2 SLP143
     T02560233 55004=
KGLS 080852Z AUTO 11018G24KT 10SM FEW024 SCT031 28/23 A2990 RMK
     AO2 SLP125 T02830233 58009=
KHRL 080852Z AUTO 34004KT 8SM -RA SCT019 BKN024 BKN030 26/26 A2978
     RMK AO2 LTG DSNT N RAE06B44 SLP084 P0001 60003 T02610261
     56016=
KYNG 080851Z 11004KT 4SM BR HZ CLR 18/17 A3008 RMK AO2 SLP177
     T01830172 56005=
K4O4 080848Z AUTO 00000KT 7SM SCT001 SCT012 23/22 A3004 RMK
     AO2=
KADM 080850Z AUTO 00000KT 10SM BKN031 BKN043 OVC070 23/23 A3001
     RMK AO2=
KAFK 080850Z AUTO 36005KT 5SM BR CLR 20/19 A3010 RMK AO2
     T02010191=
KAFN 080852Z AUTO 00000KT 6SM BR CLR 22/21 A3008 RMK AO2 SLP183
     T02170206 53000 $=
KAFW 080853Z 15003KT 10SM FEW017 BKN021 26/23 A2999 RMK AO2 SLP139
     T02610228 55002=
KAIK 080855Z AUTO 29004KT 10SM CLR 23/22 A3004 RMK AO2 PNO=
KALS 080852Z AUTO 00000KT 10SM CLR 09/07 A3040 RMK AO2 SLP213
     T00890072 51003=
KANW 080850Z AUTO 00000KT 10SM OVC110 17/15 A3023 RMK AO2
     T01660151=
KAQW 080852Z AUTO 00000KT 2 1/2SM BR CLR 18/18 A3005 RMK AO2
     SLP172 T01830178 55001=
KARR 080852Z AUTO 13003KT 2 1/2SM BR FEW080 22/22 A3002 RMK AO2
     RAE0758 SLP161 P0000 60017 T02220217 56016 $=
KARW 080855Z AUTO 25005KT 10SM CLR 24/18 A2997 RMK AO2=
KATL 080852Z 00000KT 10SM CLR 24/19 A3004 RMK AO2 SLP158 T02440194
     56008=
KAUH 080850Z AUTO 36003KT 10SM CLR 16/15 A3017 RMK AO2
     T01590147=
KAUN 080850Z AUTO 00000KT 10SM CLR 21/13 A2988 RMK AO1=
KAXS 080850Z AUTO 04003KT 10SM -RA SCT018 SCT024 BKN033 24/22
     A3006 RMK AO2 T02350215=
KAXX 080850Z AUTO 00000KT 10SM CLR 05/04 A3048 RMK AO2=
KBDN 080855Z AUTO 00000KT 10SM CLR 17/03 A3010 RMK AO2=
KBDR 080852Z AUTO 09008KT 1/2SM FG OVC002 24/23 A3003 RMK AO2
     SLP168 T02390228 53000=
KBIE 080850Z AUTO 35007KT 10SM CLR 19/18 A3012 RMK AO2
     T01900178=
KBIS 080852Z AUTO 00000KT 10SM CLR 13/10 A3013 RMK AO2 SLP198
     T01330100 53001=
KBLF 080852Z AUTO 24004KT 6SM HZ CLR 22/17 A3018 RMK AO2 SLP174
     T02170172 56004=
KBLH 080852Z AUTO 22004KT 10SM CLR 31/02 A2971 RMK AO2 SLP055
     T03060017 53008=
KBML 080852Z AUTO 00000KT 2SM BR OVC001 21/20 A3009 RMK AO2 SLP183
     T02060200 53003 $=
KBTA 080850Z AUTO 35007KT 10SM CLR 20/17 A3012 RMK AO2
     T01950171=
KBVS 080850Z AUTO 03006KT 10SM CLR 20/15 A2997 RMK A01 P000=
KCDS 080853Z AUTO 36004KT 10SM SCT034 23/21 A3010 RMK AO2 SLP162
     T02280206 53002=
KCFV 080852Z AUTO 32005KT 10SM FEW042 SCT055 OVC095 22/21 A3004
     RMK AO2 SLP164 T02220211 55008=
KCID 080852Z AUTO 32004KT 10SM CLR 20/19 A3002 RMK AO2 SLP159
     T02000194 55008=
KCKV 080852Z AUTO 00000KT 10SM BKN070 24/22 A3006 RMK AO2 SLP172
     T02390222 55004=
KCLK 080853Z AUTO 02006KT 10SM SCT075 22/20 A3007 RMK AO2=
KCLT 080852Z 35003KT 10SM CLR 21/17 A3000 RMK AO2 SLP149 T02110172
     56006=
KCNU 080852Z AUTO 33004KT 10SM FEW049 SCT110 21/20 A3005 RMK AO2
     SLP164 T02110200 58007=
KCQB 080851Z AUTO 02004KT 5SM +RA 23/23 A3003 RMK AO2 TSNO=
KCQX 080852Z AUTO 19004KT 3/4SM BR VV001 19/19 A3009 RMK AO2
     SLP190 T01890189 53003=
KCRS 080853Z AUTO 13004KT 10SM OVC012 25/24 A2999 RMK AO2 SLP148
     T02500239 55002=
KCSM 080853Z AUTO 01006KT 10SM FEW050 23/21 A3009 RMK AO2 SLP165
     T02280206 58000=
KCUH 080850Z AUTO 01003KT 10SM -DZ SCT009 BKN047 OVC070 24/23
     A3003 RMK AO2=
KCVG 080852Z 00000KT 6SM HZ CLR 23/19 A3007 RMK AO2 SLP170
     T02280194 58006=
KDCA 080852Z 06006KT 7SM FEW060 28/22 A2999 RMK AO2 SLP154
     T02780217 53002=
####018003649####
SAUS99 KWBC 080854 RRA
METAR
KDDC 080852Z AUTO 01007KT 6SM BR CLR 18/17 A3017 RMK AO2 SLP192
     T01830172 53002=
KDPA 080852Z 00000KT 5SM BR CLR 23/22 A3002 RMK AO2 RAE17 SLP160
     P0000 60016 T02280222 56012=
KDVN 080852Z AUTO 23003KT 5SM BR OVC007 22/21 A3002 RMK AO2 SLP161
     60000 T02220211 55001=
KEST 080852Z AUTO 31006KT 10SM CLR 16/14 A3013 RMK AO2 SLP199
     T01610144 55000=
KFDR 080853Z AUTO 05004KT 10SM 24/22 A3002 RMK AO2 SLP146
     T02390222 53004=
KFDW 080855Z AUTO 26004KT 10SM CLR 25/17 A3000 RMK AO1=
KFIT 080852Z AUTO 13004KT 5SM BR BKN060 BKN075 OVC090 24/22 A3006
     RMK AO2 SLP178 T02390217 53001=
KGCD 080850Z AUTO 12010KT 10SM CLR 15/04 A3011 RMK AO2
     T01520043=
KGGG 080853Z AUTO 10003KT 10SM CLR 24/24 A3001 RMK AO2 SLP156
     T02440244 53004=
KGKY 080853Z AUTO 15006KT 10SM CLR 25/23 A2999 RMK AO2 SLP146
     T02500228 58001=
KGLY 080855Z AUTO 00000KT 7SM SCT023 SCT090 23/23 A3004 RMK
     AO2=
KGOK 080853Z AUTO 34003KT 10SM SCT025 OVC050 23/22 A3004 RMK AO2
     SLP161 T02330217 53000=
KHUT 080852Z AUTO 35005KT 10SM FEW011 SCT021 21/20 A3012 RMK AO2
     SLP178 T02110200 53005=
KIAD 080852Z 02005KT 7SM FEW100 27/19 A2999 RMK AO2 SLP151
     T02720194 55001=
KIDP 080850Z AUTO 36003KT 10SM CLR 21/20 A3003 RMK AO2 LTG DSNT
     S=
KIEN 080852Z AUTO 00000KT 10SM CLR 09/09 A3027 RMK AO2 SLP238
     T00940089 53000=
KIJD 080852Z AUTO 00000KT 1/2SM FG VV001 23/23 A3005 RMK AO2
     SLP174 T02280228 55001=
KINK 080853Z AUTO 03004KT 10SM BKN095 22/19 A3005 RMK AO2 SLP129
     60000 T02220194 56006 TSNO=
KIOW 080852Z AUTO 31005KT 10SM OVC005 22/21 A3003 RMK AO2 SLP165
     T02220206 55004=
KISN 080852Z 00000KT 10SM CLR 14/11 A3012 RMK AO2 SLP195 T01440111
     56003=
KIZA 080849Z AUTO 00000KT 10SM OVC009 13/11 A2991 RMK AO2=
KLAM 080850Z AUTO 20004KT 10SM CLR 13/10 A3037 RMK AO2=
KLBB 080853Z 35008KT 10SM FEW010 SCT080 BKN120 OVC150 21/18 A3013
     RMK AO2 SLP157 60000 T02060183 56005=
KLWC 080852Z AUTO 00000KT 10SM FEW025 OVC090 22/21 A3006 RMK AO2
     RAB11E28 SLP170 P0000 60000 T02170206 58003=
KRAP 080852Z AUTO 29006KT 10SM CLR 12/09 A3025 RMK AO2 SLP231
     T01170089 53001=
KSGF 080852Z 18003KT 10SM FEW022 BKN035 BKN043 23/22 A3005 RMK AO2
     SLP162 T02280222 53000=
KSJT 080851Z AUTO 00000KT 10SM CLR 22/20 A3001 RMK AO2 SLP138
     60016 T02170200 55013=
KSNL 080852Z AUTO 36003KT 10SM SCT005 OVC010 24/23 A3004 RMK AO2
     LTG DSNT NE=
KSOP 080855Z AUTO 00000KT 10SM CLR 23/17 A2996 RMK AO1 57003=
KSPI 080852Z AUTO 00000KT 10SM FEW055 BKN090 24/23 A3003 RMK AO2
     RAE0754 SLP163 P0000 60005 T02390228 58007=
KSPS 080852Z 05006KT 10SM FEW034 23/22 A3002 RMK AO2 SLP149
     T02330217 53003=
KSUX 080852Z 32005KT 10SM CLR 17/16 A3015 RMK AO2 SLP203 T01720161
     51005=
KSVC 080850Z AUTO 07014KT 10SM FEW027 BKN034 17/14 A3020 RMK AO2
     P0005=
KTAN 080852Z AUTO 14006KT 10SM OVC006 21/21 A3005 RMK AO2 SLP176
     T02110206 53004=
KTEX 080851Z AUTO 11004KT 10SM CLR 12/03 A3045 RMK AO2=
KTMK 080853Z AUTO 14003KT 10SM OVC006 13/12 A2996 RMK AO2=
KTOL 080852Z 00000KT 9SM CLR 22/18 A3004 RMK AO2 SLP166 T02220183
     56005=
KTQH 080854Z AUTO 13003KT 10SM OVC020 23/23 A3004 RMK AO2=
KTRM 080852Z AUTO 35007KT 10SM CLR 26/12 A2968 RMK AO2 SLP054
     T02610117 51008=
KTXK 080853Z AUTO 00000KT 6SM BR OVC003 23/23 A3003 RMK AO2 CIG
     001V006 SLP163 T02330233 53002=
KTYR 080853Z AUTO 16003KT 9SM CLR 24/24 A3002 RMK AO2 SLP157
     T02440239 52000=
KUDG 080855Z 33004KT 10SM SCT090 25/18 A2997 RMK AO1 57007=
####018002893####
SAUS99 KWBC 080854 RRB
METAR
KUGN 080852Z AUTO 16003KT 7SM FEW048 SCT065 OVC080 23/21 A3001 RMK
     AO2 RAE0754 SLP150 P0000 60044 T02280211 58006=
KVTN 080852Z AUTO 00000KT 10SM BKN120 16/15 A3023 RMK AO2 SLP226
     T01560150 53001=
KWDG 080850Z AUTO 36004KT 10SM CLR 22/21 A3007 RMK AO2=
KWWR 080849Z AUTO 05006KT 10SM CLR 22/21 A3014 RMK AO2
     T02220209=
PGWT 080852Z 10007KT 7SM FEW015 FEW040 SCT100 25/24 A2988=
KMAF 080853Z AUTO 00000KT 10SM OVC110 22/20 A3007 RMK AO2 SLP138
     T02170200 56005=
KMDH 080852Z AUTO 00000KT 8SM FEW085 23/22 A3004 RMK AO2 SLP167
     T02330222 56005=
KMEB 080852Z AUTO 30006KT 10SM CLR 24/17 A2994 RMK AO2 SLP136
     T02440172 58007=
KMEZ 080855Z AUTO 00000KT 7SM BKN014 OVC027 26/23 A3006 RMK
     AO2=
KMFD 080852Z AUTO 18003KT 6SM HZ CLR 20/17 A3010 RMK AO2 SLP180
     T02000172 56003=
KMHK 080852Z AUTO 33003KT 10SM BKN120 21/20 A3009 RMK AO2 SLP181
     T02110200 55001=
KMKE 080852Z 16005KT 7SM -RA BKN080 OVC100 23/22 A3000 RMK AO2
     RAB0759 SLP152 P0000 60000 T02280217 58009=
KMLI 080852Z 00000KT 9SM BKN009 23/22 A3001 RMK AO2 CIG 005V012
     SLP158 60001 T02280217 55007 $=
KMWH 080852Z AUTO 01007KT 10SM CLR 17/07 A3001 RMK AO2 SLP153
     T01720072 52003=
KMWL 080853Z AUTO 00000KT 10SM CLR 23/21 A2999 RMK AO2 SLP141
     T02330211 55003=
KMYR 080855Z AUTO 28009KT 10SM CLR 26/19 A2996 RMK AO1 57007=
KOAJ 080855Z AUTO 00000KT 10SM CLR 23/21 A2991 RMK AO1 57007=
KOCF 080855Z AUTO 05003KT 10SM FEW002 21/21 A3000 RMK AO1
     57007=
KODO 080853Z AUTO 12007KT 10SM CLR 22/20 A3008 RMK AO2 SLP138
     60020 T02170200 58007=
KOJA 080850Z AUTO 00000KT 10SM SCT055 SCT075 BKN085 22/21 A3008
     RMK AO2=
KOKB 080852Z AUTO 00000KT 9SM OVC014 18/14 A2990 RMK AO2 SLP123
     T01780139 58005=
KOKC 080852Z 33005KT 10SM SCT027 BKN050 BKN150 23/22 A3004 RMK AO2
     SLP157 T02330222 56001=
KOMA 080852Z 34007KT 10SM FEW019 SCT130 20/19 A3012 RMK AO2 SLP191
     T02000189 53003=
KONP 080850Z AUTO 20007KT 7SM OVC004 11/10 A2999 RMK AO1=
KORE 080852Z AUTO 00000KT 8SM CLR 23/22 A3005 RMK AO2 SLP172
     T02280217 55000=
KORS 080850Z AUTO 00000KT 10SM CLR 16/13 A2994 RMK AO2=
KOUN 080853Z AUTO 34003KT 10SM SCT013 BKN047 OVC055 25/23 A3004
     RMK AO2=
KPLU 080850Z AUTO 00000KT 10SM FEW036 SCT090 SCT120 15/14 A2993
     RMK AO2=
KPPF 080852Z AUTO 34004KT 10SM CLR 22/21 A3005 RMK AO2 SLP165
     T02170206 56010=
KPSO 080855Z AUTO 00000KT 10SM CLR 12/06 A3038 RMK AO2=
KPTS 080850Z AUTO 00000KT 10SM CLR 22/22 A3003 RMK AO2
     T02200221=
KPVJ 080847Z AUTO 00000KT 10SM CLR 24/23 A3002 RMK AO2=
KPWK 080852Z AUTO 17004KT 10SM SCT038 BKN110 23/22 A3003 RMK AO2
     RAB17E33 SLP164 P0000 60041 T02280217 58008=
KPYM 080852Z AUTO 17003KT 9SM OVC006 23/20 A3008 RMK AO2 CIG
     004V008 SLP185 T02280200 53004=
####018000095####
SACN97 KWBC 080854
METAR CXLL 080800Z AUTO 05002KT 15/14 RMK AO1 SLP164 T01490143
50006=
####018000087####
SACN88 KWBC 080854
METAR CWZN 080800Z AUTO 11010KT 11/ RMK AO1 SLP208 T0110 53002=
####018000336####
SPUS99 KWBC 080854
SPECI
KHWD 080852Z AUTO 32006KT 10SM OVC009 14/11 A2992 RMK AO2=
KNQX 080848Z AUTO 05005KT 10SM TS CLR 28/25 A2992 RMK AO2 TSB42
     $=
KOZR 080848Z AUTO 00000KT 9SM R06/5500FT CLR 22/22 A3002 RMK AO2
     SLP162=
KOZR 080852Z AUTO 00000KT 9SM R06/5500VP6000FT CLR 22/22 A3002 RMK
     AO2 SLP162=
####018000169####
SACN89 KWBC 080854
METAR CWDT 080800Z AUTO 32003KT 18/18 RMK AO1 SLP162 T01800178
58001=
METAR CWDT 080700Z AUTO 32002KT 18/18 RMK AO1 SLP163 T01830179
50004=
####018000504####
SAFI31 EFHK 080850
METAR EFHK 080850Z 35006KT 310V010 9999 SCT035 BKN200 27/18 Q1014
NOSIG=
EFJY 080850Z 36003KT 9999 BKN014 BKN018 20/17 Q1016=
METAR EFKU 080850Z AUTO 36004KT 9999NDV FEW016 
FEW105 BKN140 23/17 Q1016=
EFOU 080850Z VRB01KT 9999 FEW018 SCT200 20/13 Q1016=
METAR EFRO 080850Z AUTO 23004KT 050V320 CAVOK 18/11
 Q1017=
EFTP 080850Z VRB04KT 9999 FEW040 24/14 Q1015=
METAR EFTU 080850Z AUTO 34007KT 310V020 CAVOK 24/07 Q1016=
EFVA 080850Z 18002KT 9999 FEW020 BKN200 22/12 Q1015=
####018000081####
SABZ21 SBFZ 080900
METAR SBFZ 080900Z 15006KT 9999 SCT017 BKN100 24/20 Q1014=
####018000098####
SALI20 GLRB 080900
METAR GLRB 080900Z 00000KT 9999 SCT014 FEW025CB BKN100 26/23 Q1015
 CB-SW=
####018000517####
SADL31 EDZO 080850
METAR EDDF 080850Z 14003KT CAVOK 26/10 Q1021 NOSIG=
METAR EDDH 080850Z 15007KT CAVOK 25/11 Q1019 NOSIG=
METAR EDDK 080850Z 18006KT CAVOK 27/10 Q1020 NOSIG=
METAR EDDL 080850Z 17006KT 160V230 CAVOK 27/10 Q1019 NOSIG=
METAR EDDM 080850Z 07007G18KT 050V120 CAVOK 22/10 Q1023 NOSIG=
METAR EDDN 080850Z 12005KT CAVOK 24/08 Q1022 NOSIG=
METAR EDDS 080850Z 14004KT CAVOK 24/09 Q1022 NOSIG=
METAR EDDT 080850Z VRB01KT CAVOK 24/06 Q1022 NOSIG=
METAR EDDV 080850Z VRB03KT CAVOK 27/11 Q1020 NOSIG=
####018000392####
SADL32 EDZO 080850
METAR EDDB 080850Z 17001KT CAVOK 24/08 Q1022 NOSIG=
METAR EDDC 080850Z 04003KT CAVOK 22/09 Q1023 NOSIG=
METAR EDDE 080850Z 30001KT CAVOK 24/09 Q1022 NOSIG=
METAR EDDG 080850Z 17004KT CAVOK 26/11 Q1020 NOSIG=
METAR EDDP 080850Z 16004KT CAVOK 24/11 Q1022 NOSIG=
METAR EDDR 080850Z VRB03KT CAVOK 25/13 Q1021 NOSIG=
METAR EDDW 080850Z 18005KT CAVOK 27/09 Q1019 NOSIG=
####018000190####
SADN33 EKCH 080850
METAR EKKA 080850Z 20009KT 150V220 5000 SHRA SCT018TCU BKN045
17/15 Q1017 TEMPO 4000 SCT020CB=
METAR EKSP 080850Z 18007KT CAVOK 23/13 Q1018 NOSIG RMK FEW050
BKN090=
####018000616####
SASN31 ESWI 080850
METAR ESGG 080850Z 21013KT 9999 BKN038 19/14 Q1019=
METAR ESGJ 080850Z AUTO 21013KT 9999NDV OVC040/// 20/11 Q1019=
METAR ESGP 080850Z 19013KT 9999 OVC041 19/15 Q1018=
METAR ESGT 080850Z 23012KT 9999 -RA BKN035 19/13 Q1017=
METAR ESMK 080850Z 19006KT 130V240 CAVOK 24/13 Q1020=
METAR ESMQ 080850Z 17008KT 9999 SCT045 23/13 Q1020=
METAR ESMS 080850Z 20010KT CAVOK 23/12 Q1021=
METAR ESMT 080850Z 18010KT CAVOK 21/14 Q1020=
METAR ESMX 080850Z 20007KT 170V240 CAVOK 22/11 Q1020=
METAR ESTA 080850Z 17011KT CAVOK 20/15 Q1020=
METAR ESTL 080850Z AUTO 19010KT 9999NDV FEW045/// 22/13 Q1020=
####018000212####
SADN34 EKCH 080850
METAR EKGF 080850Z 21014KT CAVOK 16/16 Q1017=
METAR EKHN 080850Z AUTO 22005KT 160V280 6000NDV -SHRA  OVC044///
18/14 Q1019=
METAR EKHR 080850Z AUTO 20011KT 9999NDV BKN048/// 18/16 Q1017=
####018000247####
SADN32 EKCH 080850
METAR EKVJ 080850Z NIL=
METAR EKSB 080850Z 17007KT CAVOK 24/13 Q1018=
METAR EKSN 080850Z 22010KT 9999 SCT027 BKN062 19/14 Q1017=
METAR EKVD 080850Z 20011KT CAVOK 22/12 Q1018=
METAR EKOD 080850Z 19008KT CAVOK 23/12 Q1019=
####018000117####
SAKA31 PTRO 080900
METAR PTRO 080851Z 00000KT 14SM FEW009 SCT016TCU BKN120 BKN300 27/24 
A2985 RMK TCU VC ALQDS
####018000467####
SADN31 EKCH 080850
METAR EKCH 080850Z 17012KT CAVOK 21/16 Q1020 NOSIG=
METAR EKBI 080850Z 21008KT 170V250 9999 FEW041 BKN063 21/15
Q1018=
METAR EKYT 080850Z 22009KT 9999 FEW025 BKN040 20/14 Q1017 NOSIG=
METAR EKRK 080852Z 18010KT 160V220 CAVOK 23/13 Q1020=
METAR EKAH 080850Z AUTO 19007KT 120V260 9999NDV OVC059/// 21/13
Q1018=
METAR EKEB 080850Z AUTO 23011KT 9999NDV BKN068/// 22/14 Q1018=
METAR EKRN 080850Z AUTO 22004KT 180V250 9999NDV NCD 20/16 Q1022=
####018000095####
SAGU31 MGGT 080900
METAR
MGGT 080900Z 19004KT 9999 FEW015 SCT100 17/14 Q1022 A3018 NOSIG =
####018000098####
SAFK41 EGYP 080850
METAR EGYP 080850Z 01020KT 9999 -RA FEW010 SCT015 OVC045 05/03 Q0997
 WHT=
####018000711####
SPUS70 KWBC 080854
SPECI
KBML 080850Z AUTO 00000KT 2 1/2SM BR OVC001 21/19 A3009 RMK AO2
     $=
KWVI 080850Z AUTO 00000KT 10SM OVC009 13/11 A2993 RMK AO2=
PAPB 080850Z AUTO 09016KT 10SM FEW022 OVC042 08/06 A2991 RMK AO2
     401060067 TSNO=
KMFE 080851Z AUTO 36006KT 10SM SCT006 SCT017 26/24 A2980 RMK
     AO2=
KMIV 080851Z AUTO 10003KT 1 3/4SM BR FEW003 24/23 A2999 RMK
     AO2=
KSET 080851Z AUTO 06004KT 3SM -RA BR FEW010 SCT019 BKN033 25/24
     A3000 RMK AO2 RAB34 P0002=
KBRO 080851Z 34004KT 10SM FEW016 SCT022 27/26 A2977 RMK AO2
     RAB08E46 P0001=
KELZ 080851Z AUTO 00000KT 1SM BR CLR 19/19 A3016 RMK AO2=
KHWD 080852Z AUTO 32006KT 10SM OVC009 14/11 A2992 RMK AO2=
####018003731####
SAUS70 KWBC 080900 RRB
METAR
KEST 080852Z AUTO 31006KT 10SM CLR 16/14 A3013 RMK AO2 SLP199
     T01610144 55000=
KFDR 080853Z AUTO 05004KT 10SM 24/22 A3002 RMK AO2 SLP146
     T02390222 53004=
KFDW 080855Z AUTO 26004KT 10SM CLR 25/17 A3000 RMK AO1=
KFIT 080852Z AUTO 13004KT 5SM BR BKN060 BKN075 OVC090 24/22 A3006
     RMK AO2 SLP178 T02390217 53001=
KGCD 080850Z AUTO 12010KT 10SM CLR 15/04 A3011 RMK AO2
     T01520043=
KGGG 080853Z AUTO 10003KT 10SM CLR 24/24 A3001 RMK AO2 SLP156
     T02440244 53004=
KGKY 080853Z AUTO 15006KT 10SM CLR 25/23 A2999 RMK AO2 SLP146
     T02500228 58001=
KGLY 080855Z AUTO 00000KT 7SM SCT023 SCT090 23/23 A3004 RMK
     AO2=
KGOK 080853Z AUTO 34003KT 10SM SCT025 OVC050 23/22 A3004 RMK AO2
     SLP161 T02330217 53000=
KHUT 080852Z AUTO 35005KT 10SM FEW011 SCT021 21/20 A3012 RMK AO2
     SLP178 T02110200 53005=
KIAD 080852Z 02005KT 7SM FEW100 27/19 A2999 RMK AO2 SLP151
     T02720194 55001=
KIDP 080850Z AUTO 36003KT 10SM CLR 21/20 A3003 RMK AO2 LTG DSNT
     S=
KIEN 080852Z AUTO 00000KT 10SM CLR 09/09 A3027 RMK AO2 SLP238
     T00940089 53000=
KIJD 080852Z AUTO 00000KT 1/2SM FG VV001 23/23 A3005 RMK AO2
     SLP174 T02280228 55001=
KINK 080853Z AUTO 03004KT 10SM BKN095 22/19 A3005 RMK AO2 SLP129
     60000 T02220194 56006 TSNO=
KIOW 080852Z AUTO 31005KT 10SM OVC005 22/21 A3003 RMK AO2 SLP165
     T02220206 55004=
KISN 080852Z 00000KT 10SM CLR 14/11 A3012 RMK AO2 SLP195 T01440111
     56003=
KLAM 080850Z AUTO 20004KT 10SM CLR 13/10 A3037 RMK AO2=
KLWC 080852Z AUTO 00000KT 10SM FEW025 OVC090 22/21 A3006 RMK AO2
     RAB11E28 SLP170 P0000 60000 T02170206 58003=
KRAP 080852Z AUTO 29006KT 10SM CLR 12/09 A3025 RMK AO2 SLP231
     T01170089 53001=
KSGF 080852Z 18003KT 10SM FEW022 BKN035 BKN043 23/22 A3005 RMK AO2
     SLP162 T02280222 53000=
KSJT 080851Z AUTO 00000KT 10SM CLR 22/20 A3001 RMK AO2 SLP138
     60016 T02170200 55013=
KSNL 080852Z AUTO 36003KT 10SM SCT005 OVC010 24/23 A3004 RMK AO2
     LTG DSNT NE=
KSOP 080855Z AUTO 00000KT 10SM CLR 23/17 A2996 RMK AO1 57003=
KSPI 080852Z AUTO 00000KT 10SM FEW055 BKN090 24/23 A3003 RMK AO2
     RAE0754 SLP163 P0000 60005 T02390228 58007=
KSUX 080852Z 32005KT 10SM CLR 17/16 A3015 RMK AO2 SLP203 T01720161
     51005=
KSVC 080850Z AUTO 07014KT 10SM FEW027 BKN034 17/14 A3020 RMK AO2
     P0005=
KTAN 080852Z AUTO 14006KT 10SM OVC006 21/21 A3005 RMK AO2 SLP176
     T02110206 53004=
KTEX 080851Z AUTO 11004KT 10SM CLR 12/03 A3045 RMK AO2=
KTMK 080853Z AUTO 14003KT 10SM OVC006 13/12 A2996 RMK AO2=
KTQH 080854Z AUTO 13003KT 10SM OVC020 23/23 A3004 RMK AO2=
KTRM 080852Z AUTO 35007KT 10SM CLR 26/12 A2968 RMK AO2 SLP054
     T02610117 51008=
KTXK 080853Z AUTO 00000KT 6SM BR OVC003 23/23 A3003 RMK AO2 CIG
     001V006 SLP163 T02330233 53002=
KTYR 080853Z AUTO 16003KT 9SM CLR 24/24 A3002 RMK AO2 SLP157
     T02440239 52000=
KUDG 080855Z 33004KT 10SM SCT090 25/18 A2997 RMK AO1 57007=
KUGN 080852Z AUTO 16003KT 7SM FEW048 SCT065 OVC080 23/21 A3001 RMK
     AO2 RAE0754 SLP150 P0000 60044 T02280211 58006=
KWDG 080850Z AUTO 36004KT 10SM CLR 22/21 A3007 RMK AO2=
KWWR 080849Z AUTO 05006KT 10SM CLR 22/21 A3014 RMK AO2
     T02220209=
KMAF 080853Z AUTO 00000KT 10SM OVC110 22/20 A3007 RMK AO2 SLP138
     T02170200 56005=
KMDH 080852Z AUTO 00000KT 8SM FEW085 23/22 A3004 RMK AO2 SLP167
     T02330222 56005=
KMEB 080852Z AUTO 30006KT 10SM CLR 24/17 A2994 RMK AO2 SLP136
     T02440172 58007=
KMEZ 080855Z AUTO 00000KT 7SM BKN014 OVC027 26/23 A3006 RMK
     AO2=
KMKE 080852Z 16005KT 7SM -RA BKN080 OVC100 23/22 A3000 RMK AO2
     RAB0759 SLP152 P0000 60000 T02280217 58009=
####018001769####
SAUS70 KWBC 080900 RRC
METAR
KMLI 080852Z 00000KT 9SM BKN009 23/22 A3001 RMK AO2 CIG 005V012
     SLP158 60001 T02280217 55007 $=
KMWH 080852Z AUTO 01007KT 10SM CLR 17/07 A3001 RMK AO2 SLP153
     T01720072 52003=
KMWL 080853Z AUTO 00000KT 10SM CLR 23/21 A2999 RMK AO2 SLP141
     T02330211 55003=
KMYR 080855Z AUTO 28009KT 10SM CLR 26/19 A2996 RMK AO1 57007=
KOAJ 080855Z AUTO 00000KT 10SM CLR 23/21 A2991 RMK AO1 57007=
KOCF 080855Z AUTO 05003KT 10SM FEW002 21/21 A3000 RMK AO1
     57007=
KODO 080853Z AUTO 12007KT 10SM CLR 22/20 A3008 RMK AO2 SLP138
     60020 T02170200 58007=
KOJA 080850Z AUTO 00000KT 10SM SCT055 SCT075 BKN085 22/21 A3008
     RMK AO2=
KOKB 080852Z AUTO 00000KT 9SM OVC014 18/14 A2990 RMK AO2 SLP123
     T01780139 58005=
KOKC 080852Z 33005KT 10SM SCT027 BKN050 BKN150 23/22 A3004 RMK AO2
     SLP157 T02330222 56001=
KOMA 080852Z 34007KT 10SM FEW019 SCT130 20/19 A3012 RMK AO2 SLP191
     T02000189 53003=
KONP 080850Z AUTO 20007KT 7SM OVC004 11/10 A2999 RMK AO1=
KORE 080852Z AUTO 00000KT 8SM CLR 23/22 A3005 RMK AO2 SLP172
     T02280217 55000=
KORS 080850Z AUTO 00000KT 10SM CLR 16/13 A2994 RMK AO2=
KOUN 080853Z AUTO 34003KT 10SM SCT013 BKN047 OVC055 25/23 A3004
     RMK AO2=
KPLU 080850Z AUTO 00000KT 10SM FEW036 SCT090 SCT120 15/14 A2993
     RMK AO2=
KPPF 080852Z AUTO 34004KT 10SM CLR 22/21 A3005 RMK AO2 SLP165
     T02170206 56010=
KPSO 080855Z AUTO 00000KT 10SM CLR 12/06 A3038 RMK AO2=
KPVJ 080847Z AUTO 00000KT 10SM CLR 24/23 A3002 RMK AO2=
KPWK 080852Z AUTO 17004KT 10SM SCT038 BKN110 23/22 A3003 RMK AO2
     RAB17E33 SLP164 P0000 60041 T02280217 58008=
KPYM 080852Z AUTO 17003KT 9SM OVC006 23/20 A3008 RMK AO2 CIG
     004V008 SLP185 T02280200 53004=
####018000822####
SAUS80 KWBC 080900 RRA
METAR
KMFD 080852Z AUTO 18003KT 6SM HZ CLR 20/17 A3010 RMK AO2 SLP180
     T02000172 56003=
KMHK 080852Z AUTO 33003KT 10SM BKN120 21/20 A3009 RMK AO2 SLP181
     T02110200 55001=
KPTS 080850Z AUTO 00000KT 10SM CLR 22/22 A3003 RMK AO2
     T02200221=
KCZZ 080852Z AUTO 02004KT 09/08 A2988 RMK AO2 SLP091 T00890083
     58005 PWINO TSNO=
KREO 080852Z AUTO 06005KT 12/M02 A3010 RMK AO2 SLP158 T01171017
     53006 PWINO TSNO=
KMLF 080852Z AUTO 15003KT 10SM CLR 13/01 A3009 RMK AO2 SLP127
     T01330011 51010 TSNO=
KN60 080852Z AUTO 30005KT 14/11 A3010 RMK AO1 SLP190 T01390111
     53001=
KABI 080852Z 12005KT 10SM CLR 22/21 A3004 RMK AO2 SLP143 T02170211
     55005 $=
KSDB 080852Z AUTO 33008KT 10SM CLR 19/03 A3003 RMK AO2 SLP111
     T01890033 56003 TSNO $=
####018003692####
SAUS70 KWBC 080900
METAR
KBNL 080855Z AUTO 29003KT 10SM CLR 24/18 A2999 RMK AO2=
KCQW 080855Z AUTO 00000KT 7SM CLR 24/17 A2996 RMK AO2=
KLKR 080855Z AUTO 00000KT 7SM CLR 19/19 A2999 RMK AO2=
KOLV 080855Z AUTO 00000KT 9SM CLR 23/23 A3007 RMK A01 P000=
PAPO 080853Z 12007KT 10SM CLR 05/03 A3013 RMK VIA PHONE=
PAWI 080849Z 22013KT 10SM CLR 07/04 A3003 RMK ASOS VIA PHONE=
KLRU 080851Z AUTO 04008KT 10SM BKN120 19/15 A3016 RMK AO2=
KMDW 080851Z 00000KT 7SM -RA FEW015 BKN060 OVC095 24/22 A3002 RMK
     AO2 RAB22 SLP153 P0001 60010 T02390217 58008=
KMPV 080851Z AUTO 00000KT 3SM BR CLR 20/19 A3011 RMK AO2 SLP187
     T02000189 53001=
KOKM 080851Z AUTO 00000KT 10SM SCT003 OVC011 24/24 A3001 RMK AO1
     LTG DSNT NE AND NW=
KONM 080847Z AUTO 00000KT 10SM SCT060 19/14 A3022 RMK AO2
     T01880136=
KORD 080851Z 00000KT 10SM FEW038 BKN080 OVC100 23/22 A3002 RMK AO2
     RAE0752B15E50 SLP159 P0000 60015 T02280222 58008=
KPHX 080851Z 32008KT 10SM CLR 34/00 A2975 RMK AO2 SLP050 T03440000
     50005 $=
KPIT 080851Z 00000KT 7SM CLR 22/18 A3008 RMK AO2 SLP181 T02170183
     55004=
KPWM 080851Z 16003KT 8SM OVC006 21/19 A3007 RMK AO2 SLP181
     T02060194 55001 $=
KRDU 080851Z 05003KT 6SM HZ FEW090 23/18 A2996 RMK AO2 SLP139
     T02330183 55004 $=
KSLK 080851Z AUTO 00000KT 3SM BR CLR 18/16 A3008 RMK AO2 SLP176
     T01780161 55001=
KSMO 080851Z AUTO 00000KT 10SM OVC011 16/13 A2991 RMK AO2 SLP127
     T01610128 58002=
KSTL 080851Z 25004KT 9SM FEW022 SCT046 SCT090 BKN150 BKN250 26/23
     A3003 RMK AO2 RAB15E44 SLP156 TCU DSNT E AND DSNT SE P0007
     60007 T02560233 58007=
KVNY 080851Z AUTO 14003KT 6SM BR OVC008 16/13 A2991 RMK AO2 SLP120
     T01560133 58001=
K1F0 080847Z AUTO 02003KT 10SM SCT026 SCT040 BKN070 24/24 A3001
     RMK AO2=
K36U 080855Z AUTO 00000KT 10SM CLR 10/05 A3020 RMK AO2=
KAHN 080851Z AUTO 00000KT 8SM CLR 22/19 A3002 RMK AO2 SLP157
     T02170194 57009 $=
KALM 080850Z AUTO 33005KT 10SM CLR 20/13 A3014 RMK AO2=
KASH 080851Z 13005KT 6SM BR FEW065 24/22 A3006 RMK AO2 53003
     T02380216 SLP179=
KATS 080850Z AUTO 02007KT 2SM +RA BKN003 BKN019 OVC031 18/17 A3015
     RMK AO2 P0009=
KAVX 080851Z AUTO 27004KT 1 1/4SM BR OVC001 12/12 A2993 RMK AO2
     SLP126 T01170117 58003 TSNO=
KBAZ 080851Z AUTO 04006KT 10SM BKN017 BKN026 25/24 A2993 RMK AO2
     SLP125 60000 T02500239 57006=
KBGD 080851Z AUTO 02006KT 10SM SCT014 BKN020 OVC070 18/18 A3018
     RMK AO2 RAE48 SLP181 P0003 60015 T01830178 53004=
KCHK 080851Z AUTO 00000KT 10SM SCT110 23/23 A3004 RMK AO2=
KCLE 080851Z 00000KT 8SM CLR 22/18 A3008 RMK AO2 SLP178 T02220178
     56003 $=
KCMH 080851Z 00000KT 9SM CLR 23/19 A3007 RMK AO2 SLP173 T02280194
     57003 $=
KCSG 080851Z 00000KT 10SM CLR 25/20 A3002 RMK AO2 SLP160 T02500200
     55006=
KDAW 080851Z AUTO 00000KT 2SM BR OVC003 22/21 A3006 RMK AO2 SLP173
     T02170206 53001 $=
KDUC 080852Z AUTO 06003KT 10SM CLR 22/22 A3003 RMK AO2=
KERI 080851Z 18003KT 7SM CLR 22/19 A3006 RMK AO2 SLP172 T02170189
     56005=
KEWR 080851Z 00000KT 6SM BR BKN110 BKN250 26/24 A3001 RMK AO2
     SLP162 T02560244 55001=
KGCM 080855Z AUTO 00000KT 23/23 A3005 RMK AO2 LTG DSNT SW AND W
     PWINO=
KGMJ 080854Z AUTO 00000KT 26/26 A3003 RMK AO2 PWINO=
KHDO 080851Z AUTO 07007KT 10SM BKN022 24/23 A2996 RMK AO2 SLP128
     T02440228 53001=
KILG 080851Z AUTO 11004KT 4SM BR CLR 24/22 A3002 RMK AO2 SLP163
     T02440222 53004 $=
KJFK 080851Z 00000KT 4SM BR SCT006 BKN090 BKN130 25/23 A3002 RMK
     AO2 SLP166 T02500233 55002 $=
KLGA 080851Z 12004KT 6SM HZ SCT110 BKN250 27/22 A3001 RMK AO2
     SLP161 T02670222 55002=
####018000240####
SAPQ50 KWBC 080900
METAR
PGRO 080851Z 10017KT 7SM FEW015 FEW030 28/25 A2988=
PGWT 080852Z 10007KT 7SM FEW015 FEW040 SCT100 25/24 A2988=
PTRO 080851Z 00000KT 14SM FEW009 SCT016TCU BKN120 BKN300 27/24
     A2985 RMK TCU VC ALQDS=
####018000124####
SPUS80 KWBC 080854
SPECI
KJLN 080850Z 00000KT 2SM -RA BR FEW005 SCT014 OVC026 23/22 A3004
     RMK AO2 RAB27 P0009=
####018003693####
SAUS80 KWBC 080900
METAR
KSAN 080851Z 32006KT 9SM FEW010 OVC015 16/14 A2991 RMK AO2 SLP128
     T01610144 58006=
KMWT 080850Z AUTO 00000KT 10SM FEW001 SCT027 BKN032 23/23 A3003
     RMK AO2 SLP158 T02330228 58001 TSNO=
KMYL 080851Z AUTO 00000KT 10SM CLR 09/06 A3019 RMK AO2 SLP187
     T00940056 53008=
KOXR 080851Z AUTO 29009KT 10SM OVC013 16/12 A2991 RMK AO2 SLP127
     T01560122 50000 $=
KROW 080851Z AUTO 01005KT 10SM -RA FEW070 OVC100 20/16 A3016 RMK
     AO2 RAB22 SLP150 P0000 60000 T02000161 58004 TSNO=
KTEB 080851Z 00000KT 5SM HZ CLR 26/22 A3000 RMK AO2 SLP160
     T02560222 53001=
KALB 080851Z 00000KT 5SM HZ CLR 23/21 A3002 RMK AO2 SLP163
     T02330206 51001=
KBDL 080851Z 15003KT 5SM HZ BKN080 24/21 A3002 RMK AO2 SLP165
     T02390206 58001=
KBKW 080851Z AUTO 00000KT 4SM BR SCT080 20/18 A3016 RMK AO2 SLP170
     T02000178 56004 VISNO RWY19 $=
KEKN 080851Z AUTO 00000KT 2SM BR FEW080 17/16 A3015 RMK AO2 SLP197
     T01720161 56001 TSNO=
KELP 080851Z 35012KT 10SM FEW060 SCT080 BKN100 22/15 A3011 RMK AO2
     SLP118 T02220150 50004=
KHTS 080851Z 00000KT 2 1/2SM BR CLR 22/21 A3007 RMK AO2 SLP172
     T02220206 56004=
KSAD 080851Z AUTO 16010KT 10SM CLR 26/12 A2998 RMK AO2 SLP090
     T02560117 51008 TSNO=
KHSE 080851Z AUTO 06004KT 8SM CLR 24/24 A2992 RMK AO2 SLP130
     T02440239 55004 TSNO=
KATT 080851Z AUTO 00000KT 10SM FEW010 SCT014 OVC030 26/23 A2996
     RMK AO2 RAB22E32 SLP131 P0000 60000 T02560233 56002 $=
KORF 080851Z 09003KT 6SM BR CLR 26/24 A2995 RMK AO2 SLP141
     T02560239 57001=
KCON 080851Z AUTO 00000KT 6SM BR OVC050 23/21 A3005 RMK AO2 SLP174
     T02330211 51002=
KVCT 080851Z AUTO 07012G18KT 8SM FEW011 BKN050 OVC070 26/25 A2988
     RMK AO2 TSE00 SLP116 T02560250 58003=
KNYC 080851Z AUTO VRB03KT 6SM HZ SCT100 26/23 A3004 RMK AO2 SLP163
     T02560228 55000 TSNO $=
KABE 080851Z 34004KT 7SM CLR 22/20 A3002 RMK AO2 SLP161 T02220200
     55001=
KSNT 080851Z AUTO 00000KT 03/00 A3031 RMK AO2 SLP188 T00330000
     53010 PWINO TSNO=
KSMX 080851Z AUTO 00000KT 9SM OVC009 13/11 A2992 RMK AO2 SLP132
     T01280106 56005 TSNO $=
KP58 080851Z AUTO 22004KT 24/21 A2999 RMK AO2 SLP146 T02390211
     58009 PWINO TSNO=
KP59 080851Z AUTO 35015KT 18/17 A2997 RMK AO2 SLP142 T01780172
     53008 PWINO TSNO=
KGDP 080851Z AUTO 06018KT 1/4SM FG OVC004 17/17 A3022 RMK AO2
     RAE34 SLP153 P0000 60001 T01720172 57002 TSNO=
KCAK 080851Z 00000KT 8SM CLR 22/17 A3009 RMK AO2 SLP177 T02220172
     56005=
KCRP 080851Z 03013G19KT 3SM +TSRA BR FEW010 BKN018CB OVC047 26/25
     A2983 RMK AO2 TSB16 SLP098 OCNL LTGIC NW-N TS NW-N MOV W
     P0006 60020 T02610250 56015=
KYNG 080851Z 11004KT 4SM BR HZ CLR 18/17 A3008 RMK AO2 SLP177
     T01830172 56005=
KBLU 080852Z AUTO 00000KT 10SM CLR 21/08 A3010 RMK AO2 SLP088
     T02060078 53001 TSNO=
KALS 080852Z AUTO 00000KT 10SM CLR 09/07 A3040 RMK AO2 SLP213
     T00890072 51003=
KBDR 080852Z AUTO 09008KT 1/2SM FG OVC002 24/23 A3003 RMK AO2
     SLP168 T02390228 53000=
KCID 080852Z AUTO 32004KT 10SM CLR 20/19 A3002 RMK AO2 SLP159
     T02000194 55008=
KCNU 080852Z AUTO 33004KT 10SM FEW049 SCT110 21/20 A3005 RMK AO2
     SLP164 T02110200 58007=
KIZA 080849Z AUTO 00000KT 10SM OVC009 13/11 A2991 RMK AO2=
KLBB 080853Z 35008KT 10SM FEW010 SCT080 BKN120 OVC150 21/18 A3013
     RMK AO2 SLP157 60000 T02060183 56005=
KSPS 080852Z 05006KT 10SM FEW034 23/22 A3002 RMK AO2 SLP149
     T02330217 53003=
KTOL 080852Z 00000KT 9SM CLR 22/18 A3004 RMK AO2 SLP166 T02220183
     56005=
KVTN 080852Z AUTO 00000KT 10SM BKN120 16/15 A3023 RMK AO2 SLP226
     T01560150 53001=
####018000255####
SAXX60 KWBC 080900
METAR
KMHR 080850Z 13005KT 10SM SKC 13/10 A2985=
KNHK 080852Z AUTO 11004KT 4SM BR FEW011 26/24 A2998 RMK AO2 SLP151
     T02610239 53001=
KNFW 080852Z AUTO 13006KT 10SM CLR 26/22 A3003 RMK AO2 SLP152
     T02610222 55003=
####018003711####
SAUS70 KWBC 080900 RRA
METAR
KLGU 080851Z AUTO 06004KT 10SM CLR 14/07 A3013 RMK AO2 SLP158
     T01390067 52006=
KJCT 080851Z AUTO 00000KT 9SM SCT017 SCT025 22/21 A3001 RMK AO2
     SLP122 60000 T02220211 55004 TSNO=
KACT 080851Z 09004KT 10SM BKN014 26/23 A2998 RMK AO2 SLP143
     T02560233 55004=
KGLS 080852Z AUTO 11018G24KT 10SM FEW024 SCT031 28/23 A2990 RMK
     AO2 SLP125 T02830233 58009=
KHRL 080852Z AUTO 34004KT 8SM -RA SCT019 BKN024 BKN030 26/26 A2978
     RMK AO2 LTG DSNT N RAE06B44 SLP084 P0001 60003 T02610261
     56016=
K4O4 080848Z AUTO 00000KT 7SM SCT001 SCT012 23/22 A3004 RMK
     AO2=
KADM 080850Z AUTO 00000KT 10SM BKN031 BKN043 OVC070 23/23 A3001
     RMK AO2=
KAFK 080850Z AUTO 36005KT 5SM BR CLR 20/19 A3010 RMK AO2
     T02010191=
KAFN 080852Z AUTO 00000KT 6SM BR CLR 22/21 A3008 RMK AO2 SLP183
     T02170206 53000 $=
KAFW 080853Z 15003KT 10SM FEW017 BKN021 26/23 A2999 RMK AO2 SLP139
     T02610228 55002=
KAIK 080855Z AUTO 29004KT 10SM CLR 23/22 A3004 RMK AO2 PNO=
KANW 080850Z AUTO 00000KT 10SM OVC110 17/15 A3023 RMK AO2
     T01660151=
KAQW 080852Z AUTO 00000KT 2 1/2SM BR CLR 18/18 A3005 RMK AO2
     SLP172 T01830178 55001=
KARR 080852Z AUTO 13003KT 2 1/2SM BR FEW080 22/22 A3002 RMK AO2
     RAE0758 SLP161 P0000 60017 T02220217 56016 $=
KARW 080855Z AUTO 25005KT 10SM CLR 24/18 A2997 RMK AO2=
KATL 080852Z 00000KT 10SM CLR 24/19 A3004 RMK AO2 SLP158 T02440194
     56008=
KAUH 080850Z AUTO 36003KT 10SM CLR 16/15 A3017 RMK AO2
     T01590147=
KAUN 080850Z AUTO 00000KT 10SM CLR 21/13 A2988 RMK AO1=
KAXS 080850Z AUTO 04003KT 10SM -RA SCT018 SCT024 BKN033 24/22
     A3006 RMK AO2 T02350215=
KAXX 080850Z AUTO 00000KT 10SM CLR 05/04 A3048 RMK AO2=
KBDN 080855Z AUTO 00000KT 10SM CLR 17/03 A3010 RMK AO2=
KBIE 080850Z AUTO 35007KT 10SM CLR 19/18 A3012 RMK AO2
     T01900178=
KBIS 080852Z AUTO 00000KT 10SM CLR 13/10 A3013 RMK AO2 SLP198
     T01330100 53001=
KBLF 080852Z AUTO 24004KT 6SM HZ CLR 22/17 A3018 RMK AO2 SLP174
     T02170172 56004=
KBLH 080852Z AUTO 22004KT 10SM CLR 31/02 A2971 RMK AO2 SLP055
     T03060017 53008=
KBML 080852Z AUTO 00000KT 2SM BR OVC001 21/20 A3009 RMK AO2 SLP183
     T02060200 53003 $=
KBTA 080850Z AUTO 35007KT 10SM CLR 20/17 A3012 RMK AO2
     T01950171=
KBVS 080850Z AUTO 03006KT 10SM CLR 20/15 A2997 RMK A01 P000=
KCDS 080853Z AUTO 36004KT 10SM SCT034 23/21 A3010 RMK AO2 SLP162
     T02280206 53002=
KCFV 080852Z AUTO 32005KT 10SM FEW042 SCT055 OVC095 22/21 A3004
     RMK AO2 SLP164 T02220211 55008=
KCKV 080852Z AUTO 00000KT 10SM BKN070 24/22 A3006 RMK AO2 SLP172
     T02390222 55004=
KCLK 080853Z AUTO 02006KT 10SM SCT075 22/20 A3007 RMK AO2=
KCLT 080852Z 35003KT 10SM CLR 21/17 A3000 RMK AO2 SLP149 T02110172
     56006=
KCQB 080851Z AUTO 02004KT 5SM +RA 23/23 A3003 RMK AO2 TSNO=
KCQX 080852Z AUTO 19004KT 3/4SM BR VV001 19/19 A3009 RMK AO2
     SLP190 T01890189 53003=
KCRS 080853Z AUTO 13004KT 10SM OVC012 25/24 A2999 RMK AO2 SLP148
     T02500239 55002=
KCSM 080853Z AUTO 01006KT 10SM FEW050 23/21 A3009 RMK AO2 SLP165
     T02280206 58000=
KCUH 080850Z AUTO 01003KT 10SM -DZ SCT009 BKN047 OVC070 24/23
     A3003 RMK AO2=
KCVG 080852Z 00000KT 6SM HZ CLR 23/19 A3007 RMK AO2 SLP170
     T02280194 58006=
KDCA 080852Z 06006KT 7SM FEW060 28/22 A2999 RMK AO2 SLP154
     T02780217 53002=
KDDC 080852Z AUTO 01007KT 6SM BR CLR 18/17 A3017 RMK AO2 SLP192
     T01830172 53002=
KDPA 080852Z 00000KT 5SM BR CLR 23/22 A3002 RMK AO2 RAE17 SLP160
     P0000 60016 T02280222 56012=
KDVN 080852Z AUTO 23003KT 5SM BR OVC007 22/21 A3002 RMK AO2 SLP161
     60000 T02220211 55001=
####018001102####
SPXX60 KWBC 080854
SPECI
KAFF 080851Z AUTO 18006KT 10SM FEW002 SCT016 OVC023 13/12 A3040
     RMK AO2 RAB0834E0851DZB0832E0834 FEW V SCT SLP207=
KDOV 080848Z AUTO 02003KT 2 1/2SM BR CLR 24/24 A2999 RMK AO2 VIS
     3/4 RWY19 SLP156=
KDOV 080850Z AUTO 01003KT 3SM BR CLR 24/24 A2999 RMK AO2 VIS 1 1/2
     RWY19 SLP156=
KFCS 080847Z AUTO 21007KT 10SM BKN022 OVC055 14/11 A3038 RMK AO2
     DZB0838E0847 SLP217=
KHLR 080849Z AUTO 09003KT 10SM FEW027 SCT048 26/ A2998 RMK AO2
     RAB29E38 P0000 T0256 $=
KHST 080847Z AUTO 07004KT 10SM FEW006 27/25 A2993 RMK AO2
     RAB0822E0843DZB0843E0847 SLP135 $=
KNQX 080848Z AUTO 05005KT 10SM TS CLR 28/25 A2992 RMK AO2 TSB42
     $=
KVOK 080850Z 31007KT 10SM SCT018 21/21 A3001 RMK AO2A SLP156=
PGUA 080849Z AUTO 09014KT 10SM SCT017 27/ A2988 RMK AO2 SLP101
     VISNO RWY24L $=
KNQX 080848Z AUTO 05005KT 10SM TS CLR 28/25 A2992 RMK AO2 TSB42
     $=
KOZR 080848Z AUTO 00000KT 9SM R06/5500FT CLR 22/22 A3002 RMK AO2
     SLP162=
KOZR 080852Z AUTO 00000KT 9SM R06/5500VP6000FT CLR 22/22 A3002 RMK
     AO2 SLP162=
####018000444####
SAAS31 KWBC 080830 RRD
METAR
VAAH 080840Z 21009KT 3500 HZ SCT018 SCT025 FEW030CB 31/24 Q1004
     NOSIG=
VABB 080840Z 14006KT 2500 HZ SCT008 SCT015 FEW025TCU OVC080 27/25
     Q1007 TEMPO 1500 SHRA=
VANP 080840Z 26006KT 4000 HZ FEW010 SCT015 FEW030CB BKN080 27/26
     Q1005 NOSIG CB TO NE, S=
VOHY 080840Z 26007KT 5000 -DZ SCT015 SCT025 BKN080 25/20 Q1011
     NOSIG=
VOTR 080840Z 35005KT 6000 SCT020 OVC100 33/22 Q1009=
####018001735####
SAEU KAWN 080900 RRA
METAR EDDB 080850Z 17001KT CAVOK 24/08 Q1022 NOSIG=
METAR EDDC 080850Z 04003KT CAVOK 22/09 Q1023 NOSIG=
METAR EDDE 080850Z 30001KT CAVOK 24/09 Q1022 NOSIG=
METAR EDDF 080850Z 14003KT CAVOK 26/10 Q1021 NOSIG=
METAR EDDG 080850Z 17004KT CAVOK 26/11 Q1020 NOSIG=
METAR EDDH 080850Z 15007KT CAVOK 25/11 Q1019 NOSIG=
METAR EDDK 080850Z 18006KT CAVOK 27/10 Q1020 NOSIG=
METAR EDDL 080850Z 17006KT 160V230 CAVOK 27/10 Q1019 NOSIG=
METAR EDDM 080850Z 07007G18KT 050V120 CAVOK 22/10 Q1023 NOSIG=
METAR EDDN 080850Z 12005KT CAVOK 24/08 Q1022 NOSIG=
METAR EDDP 080850Z 16004KT CAVOK 24/11 Q1022 NOSIG=
METAR EDDR 080850Z VRB03KT CAVOK 25/13 Q1021 NOSIG=
METAR EDDS 080850Z 14004KT CAVOK 24/09 Q1022 NOSIG=
METAR EDDT 080850Z VRB01KT CAVOK 24/06 Q1022 NOSIG=
METAR EDDV 080850Z VRB03KT CAVOK 27/11 Q1020 NOSIG=
METAR EDDW 080850Z 18005KT CAVOK 27/09 Q1019 NOSIG=
METAR EHEH 080855Z AUTO 22006KT 9999NDV FEW270 28/12 Q1019 BLU BLU=
METAR EKKA 080850Z 20009KT 150V220 5000 SHRA SCT018TCU BKN045 17/15
      Q1017 TEMPO 4000 SCT020CB=
METAR EKSP 080850Z 18007KT CAVOK 23/13 Q1018 NOSIG RMK FEW050 BKN090=
METAR EKVG 080851Z 16011KT 9999 SCT004 BKN006 BKN010 11/10 Q0992 RMK/RWY
      13/31 CLOSED DUE WIP/ SEE NOTAM E0050/10 WIND 850FT 16011KT
      110V230=
METAR LPLA 080900Z 00000KT 9999 FEW008 SCT016 BKN028 19/18 Q1024=
METAR LQMO 080900Z 33010KT 9999 FEW045 26/08 Q1018=
METAR LSGG 080850Z 08003KT 020V170 CAVOK 26/11 Q1022 NOSIG=
METAR LSZA 080850Z 18003KT 120V230 9999 BKN055 25/13 Q1023 NOSIG=
METAR LSZB 080850Z 32005KT 260V010 CAVOK 25/14 Q1022 NOSIG=
METAR LSZH 080850Z VRB03KT CAVOK 23/13 Q1022 NOSIG=
METAR LXGB 080850Z 09012KT CAVOK 24/23 Q1016 NOSIG=
####018000417####
SADL33 KWBC 080845 RRA
METAR
EDDB 080850Z 17001KT CAVOK 24/08 Q1022 NOSIG=
EDDC 080850Z 04003KT CAVOK 22/09 Q1023 NOSIG=
EDDG 080850Z 17004KT CAVOK 26/11 Q1020 NOSIG=
EDDP 080850Z 16004KT CAVOK 24/11 Q1022 NOSIG=
EDDR 080850Z VRB03KT CAVOK 25/13 Q1021 NOSIG=
EDDT 080850Z VRB01KT CAVOK 24/06 Q1022 NOSIG=
EDDV 080850Z VRB03KT CAVOK 27/11 Q1020 NOSIG=
EDDW 080850Z 18005KT CAVOK 27/09 Q1019 NOSIG=
####018000081####
SAEW31 KWBC 080830 RRB
METAR
LXGB 080850Z 09012KT CAVOK 24/23 Q1016 NOSIG=
####018000099####
SAGR31 KWBC 080820 RRC
METAR
LGLM 080820Z 05010KT 9999 FEW008 SCT020 21/18 Q1013 RMK SCT080=
####018000154####
SAPA31 KWBC 080800 CCA
METAR
PTYA 080754Z 07010KT 12SM FEW016CB SCT030 BKN130 OVC300 26/23
     A2980 RMK SHRAB10E25 CB VC NE-E SLP093 T02610225=
####018000204####
SAMX31 KWBC 080845 RRA
METAR
MMMY 080842Z 32005KT 15SM SCT045 23/22 A2987 RMK SLP095 58016 901
     8/500=
MMPR 080847Z 00000KT 12SM SCT025 BKN070 25/23 A2980 RMK SLP085
     57006 951 8/430=
####018000111####
SAPQ31 KWBC 080800 CCA
METAR
PTYA 080754Z 07010KT 12SM FEW016CB SCT030 BKN130 OVC300 26/23
     A2980=
####018000147####
SAUS46 KLOX 080854
MTRNZY
METAR KNZY 080852Z 31006KT 8SM -DZ FEW010 OVC013 18/13 A2989 RMK AO2 
DZB51 SLP122 P0000 60000 T01780133 58006 $
####018000080####
SAUS31 KWBC 080800 RRD
METAR
KSWF 080845Z 00000KT 6SM BR SKC 25/22 A3005=
####018000090####
SAHW31 KMSC 080853
METAR PGWT 080852Z 10007KT 7SM FEW015 FEW040 SCT100 25/24 A2988
=
####018000084####
SPUS42 KWBC 080854
SPECI
KBRO 080851Z 34004KT 10SM FEW016 SCT022 27/26 A2977=
####018000089####
SPUS42 KWBC 080854
SPECI
KMFE 080851Z AUTO 36006KT 10SM SCT006 SCT017 26/24 A2980=
####018000301####
SASW32 LSSW 080850
METAR LSGC 080850Z 26007KT 200V300 CAVOK 22/11 Q1024=
METAR LSGS 080850Z 23003KT 170V290 CAVOK 26/12 Q1022=
METAR LSZG 080850Z NIL=
METAR LSZR 080850Z 28004KT CAVOK 21/15 Q1022 NOSIG RMK F=
METAR LSZS 080850Z NIL=
METAR LSZC 080850Z 09004KT 040V140 CAVOK 22/15 Q1022=
####018000431####
SAUS43 KWBC 080800 RRL
METAR
KFOA 080845Z AUTO 00000KT 7SM CLR 25/25 A3003=
KIGQ 080840Z AUTO 00000KT 7SM RA SCT019 BKN039 BKN110 23/22
     A3004=
KSAR 080845Z AUTO 18004KT 5SM HZ BKN055 26/23 A3004=
KSLO 080840Z AUTO 20004KT 10SM CLR 24/22 A3005=
KTAZ 080845Z AUTO 00000KT 7SM SCT095 23/23 A3003=
KTIP 080845Z AUTO 00000KT 10SM SCT100 SCT120 24/23 A3004=
KVYS 080845Z AUTO 00000KT 4SM -RA OVC005 23/22 A3002=
####018000121####
SAUS43 KFSD 080854
MTR9V9
METAR K9V9 080852Z AUTO 25004KT 17/13 A3019 RMK AO2 SLP214 T01670133 
53003 PWINO TSNO
####018000119####
SAUS42 KJAX 080854
MTRNRB
METAR KNRB 080852Z AUTO 27003KT 10SM CLR 23/20 A2999 RMK AO2 SLP153 
T02280200 58011
####018000097####
SPUS53 KWBC 080854
SPECI
KJLN 080850Z 00000KT 2SM -RA BR FEW005 SCT014 OVC026 23/22 A3004=
####018000107####
SAUS52 KWBC 080800 RRG
METAR
KSEP 080845Z AUTO 00000KT 10SM SCT011 BKN015 BKN060 23/22
     A3001=
####018000068####
SAUS53 KWBC 080800 RRM
METAR
KEHA 080848Z AUTO 36002KT 18/17=
####018000084####
SPUS72 KWBC 080854
SPECI
KBRO 080851Z 34004KT 10SM FEW016 SCT022 27/26 A2977=
####018000089####
SPUS72 KWBC 080854
SPECI
KMFE 080851Z AUTO 36006KT 10SM SCT006 SCT017 26/24 A2980=
####018000078####
SABR31 TBPB 080900
METAR TBPB 080900Z 08017KT 9999 BKN014 28/24 Q1012 NOSIG=####018000100####
SALI20 GLRB 080900
METAR GLRB 080900Z 00000KT 9999 SCT014 FEW025CB BKN100 26/23 Q1015
 CB-SW=
####018000515####
SAFI31 EFHK 080850
METAR EFHK 080850Z 35006KT 310V010 9999 SCT035 BKN200 27/18 Q1014
NOSIG=
EFJY 080850Z 36003KT 9999 BKN014 BKN018 20/17 Q1016=
METAR EFKU 080850Z AUTO 36004KT 9999NDV FEW016 
FEW105 BKN140 23/17 Q1016=
EFOU 080850Z VRB01KT 9999 FEW018 SCT200 20/13 Q1016=
METAR EFRO 080850Z AUTO 23004KT 050V320 CAVOK 18/11
 Q1017=
EFTP 080850Z VRB04KT 9999 FEW040 24/14 Q1015=
METAR EFTU 080850Z AUTO 34007KT 310V020 CAVOK 24/07 Q1016=
EFVA 080850Z 18002KT 9999 FEW020 BKN200 22/12 Q1015=
####018000194####
SADN33 EKCH 080850
METAR EKKA 080850Z 20009KT 150V220 5000 SHRA SCT018TCU BKN045
17/15 Q1017 TEMPO 4000 SCT020CB=
METAR EKSP 080850Z 18007KT CAVOK 23/13 Q1018 NOSIG RMK FEW050
BKN090=
####018000216####
SADN34 EKCH 080850
METAR EKGF 080850Z 21014KT CAVOK 16/16 Q1017=
METAR EKHN 080850Z AUTO 22005KT 160V280 6000NDV -SHRA  OVC044///
18/14 Q1019=
METAR EKHR 080850Z AUTO 20011KT 9999NDV BKN048/// 18/16 Q1017=
####018000627####
SASN31 ESWI 080850
METAR ESGG 080850Z 21013KT 9999 BKN038 19/14 Q1019=
METAR ESGJ 080850Z AUTO 21013KT 9999NDV OVC040/// 20/11 Q1019=
METAR ESGP 080850Z 19013KT 9999 OVC041 19/15 Q1018=
METAR ESGT 080850Z 23012KT 9999 -RA BKN035 19/13 Q1017=
METAR ESMK 080850Z 19006KT 130V240 CAVOK 24/13 Q1020=
METAR ESMQ 080850Z 17008KT 9999 SCT045 23/13 Q1020=
METAR ESMS 080850Z 20010KT CAVOK 23/12 Q1021=
METAR ESMT 080850Z 18010KT CAVOK 21/14 Q1020=
METAR ESMX 080850Z 20007KT 170V240 CAVOK 22/11 Q1020=
METAR ESTA 080850Z 17011KT CAVOK 20/15 Q1020=
METAR ESTL 080850Z AUTO 19010KT 9999NDV FEW045/// 22/13 Q1020=
####018000476####
SADN31 EKCH 080850
METAR EKCH 080850Z 17012KT CAVOK 21/16 Q1020 NOSIG=
METAR EKBI 080850Z 21008KT 170V250 9999 FEW041 BKN063 21/15
Q1018=
METAR EKYT 080850Z 22009KT 9999 FEW025 BKN040 20/14 Q1017 NOSIG=
METAR EKRK 080852Z 18010KT 160V220 CAVOK 23/13 Q1020=
METAR EKAH 080850Z AUTO 19007KT 120V260 9999NDV OVC059/// 21/13
Q1018=
METAR EKEB 080850Z AUTO 23011KT 9999NDV BKN068/// 22/14 Q1018=
METAR EKRN 080850Z AUTO 22004KT 180V250 9999NDV NCD 20/16 Q1022=
####018000252####
SADN32 EKCH 080850
METAR EKVJ 080850Z NIL=
METAR EKSB 080850Z 17007KT CAVOK 24/13 Q1018=
METAR EKSN 080850Z 22010KT 9999 SCT027 BKN062 19/14 Q1017=
METAR EKVD 080850Z 20011KT CAVOK 22/12 Q1018=
METAR EKOD 080850Z 19008KT CAVOK 23/12 Q1019=
####018000078####
SAMP31 LMMM 080900 RRA
METAR HLLT 080850Z
00000KT 7000 SKC 28/19 Q1019=
####018000244####
SASY31 OSDI 080900
OSDI 080900Z 20018KT CAVOK 34/07 Q1010=
OSAP 080900Z 28016KT CAVOK 32/18 Q1007=
OSLK 080900Z 21004KT 9999 FEW026 SCT030 28/21 Q1009=
OSDZ 080900Z 14006KT CAVOK 36/14 Q1006=
OSKL 080900Z 17008KT CAVOK 39/05 Q1005=
####018000087####
SAAN40 FNLU 080900
METAR FNLU 080900Z VRB03KT 8000 SCT018 BKN020 23/19 Q1015 NSG =
####018000097####
SPUS73 KWBC 080854
SPECI
KJLN 080850Z 00000KT 2SM -RA BR FEW005 SCT014 OVC026 23/22 A3004=
####018000101####
SPCN47 CWAO 080852
SPECI CYPQ 080852Z AUTO ///// 1SM CLR 21/21 A3003 RMK VSBY VRBL
0.3V9.0=

####018000097####
SPUS81 KWBC 080854
SPECI
KJLN 080850Z 00000KT 2SM -RA BR FEW005 SCT014 OVC026 23/22 A3004=
####018002943####
SAUS20 KNKA 080854
METAR KPMV 080850Z AUTO 32006KT 10SM CLR 20/19 A3011 RMK AO2 
     T01970188=
METAR KACV 080853Z AUTO 00000KT 5SM BR OVC001 10/10 A2996 RMK AO2 
    SLP151 T01000100 56001=
METAR KADH 080851Z AUTO 00000KT 5SM BR SCT002 SCT006 BKN025 23/22 
     A3002 RMK AO2=
METAR KAEX 080853Z AUTO 00000KT 10SM CLR 24/23 A2999 RMK AO2 SLP159 
    T02440228 55001=
METAR KAGS 080853Z AUTO 00000KT 10SM CLR 24/19 A2998 RMK AO2 SLP150 
    T02440189 56011 TSNO=
METAR KALI 080853Z AUTO 01007KT 10SM FEW036 BKN048 BKN095 26/24 
    A2983 RMK AO2 SLP099 60000 T02560244 58012=
METAR KAMA 080853Z 02005KT 1SM -RA SCT020 SCT080 OVC110 17/16 A3018 
    RMK AO2 SFC VIS 9 SLP170 P0009 60093 T01720161 56007 $=
METAR KANB 080853Z AUTO 00000KT 9SM CLR 22/21 A3004 RMK AO2 SLP160 
    T02220206 56006=
METAR KAOO 080853Z AUTO 00000KT 4SM BR CLR 19/17 A3010 RMK AO2 
    SLP181 T01890167 53000=
METAR KARA 080853Z AUTO 08005KT 8SM CLR 24/24 A2999 RMK AO2 SLP154 
    T02440239 58005=
METAR KASD 080853Z AUTO 00000KT 9SM CLR 25/24 A3000 RMK AO2 SLP157 
    T02500239 56007=
METAR KAWM 080853Z AUTO 00000KT 10SM CLR 23/22 A3005 RMK AO2 SLP170 
    T02330222 53001=
METAR KBFD 080853Z AUTO 00000KT 5SM BR CLR 16/16 A3014 RMK AO2 
    SLP189 T01610156 56003=
METAR KBFM 080853Z 00000KT 8SM CLR 24/23 A3003 RMK AO2 SLP167 
    T02390228 55007=
METAR KBHM 080853Z 00000KT 9SM CLR 24/22 A3005 RMK AO2 SLP167 
    T02440222 56007=
METAR KBKE 080853Z AUTO 24004KT 10SM CLR 09/07 A3011 RMK AO2 SLP176 
    T00890067 53007=
METAR KBLI 080853Z AUTO 00000KT 10SM CLR 16/14 A2996 RMK AO2 SLP150 
    T01560139 53008=
METAR KBMQ 080853Z AUTO 00000KT 10SM BKN047 BKN065 23/22 A3001 RMK 
    AO2 SLP140 T02330217 56004 $=
METAR KBNA 080853Z 00000KT 10SM BKN085 25/22 A3007 RMK AO2 SLP172 
    T02500217 56005=
METAR KBPK 080853Z AUTO 00000KT 10SM CLR 23/22 A3005 RMK AO2 SLP163 
    T02280217 55001=
METAR KBPT 080853Z 09011KT 10SM FEW024 26/24 A2994 RMK AO2 SLP137 
    T02610244 58005 $=
METAR KBRO 080853Z 33005KT 10SM FEW016 SCT022 27/26 A2977 RMK AO2 
    RAB08E46 SLP080 P0001 60001 T02670256 56012=
METAR KBVN 080850Z AUTO 32003KT 10SM BKN090 16/15 A3018 RMK AO2 
     T01600150=
METAR KBWG 080853Z AUTO 00000KT 10SM SCT080 23/21 A3006 RMK AO2 
    SLP173 T02330211 56004=
METAR KCCR 080853Z AUTO 25007KT 10SM CLR 13/10 A2991 RMK AO2 SLP115 
    T01330100 51006=
METAR KCEW 080853Z AUTO 00000KT 6SM BR CLR 21/21 A3003 RMK AO2 
    SLP166 T02110211 56006=
METAR KCHO 080853Z AUTO 00000KT 4SM HZ SCT095 23/20 A3001 RMK AO2 
    SLP152 T02330200 56002 TSNO=
METAR KCLL 080853Z 06005KT 10SM CLR 26/23 A2995 RMK AO2 SLP136 
    T02560228 58004=
METAR KCLM 080853Z AUTO A2997 RMK AO2 SLPNO 6//// 52003 PWINO FZRANO 
    $=
METAR KCNM 080853Z AUTO 00000KT 5SM RA BR OVC007 20/19 A3012 RMK AO2 
    CIG 005V010 SLP145 P0011 60018 T02000189 51004=
####018002928####
SAUS20 KNKA 080854
METAR KCOT 080853Z AUTO 05007KT 10SM FEW014 BKN043 25/23 A2989 RMK 
    AO2 SLP113 T02500228 58006=
METAR KCSV 080853Z AUTO 00000KT 8SM CLR 21/17 A3013 RMK AO2 SLP177 
    T02110172 56005=
METAR KCXO 080853Z VRB03KT 9SM FEW007 24/23 A2994 RMK AO2 SLP135 
    T02390233 58004=
METAR KDAN 080853Z AUTO 00000KT 5SM HZ CLR 23/19 A3000 RMK AO2 
    SLP144 T02280189 56003=
METAR KDCU 080853Z AUTO 36003KT 10SM CLR 23/21 A3006 RMK AO2 SLP170 
    T02330211 58005=
METAR KDEW 080853Z AUTO 01008KT 10SM CLR 16/07 A3007 RMK AO2 SLP169 
    T01610072 53003=
METAR KDHT 080853Z AUTO 36012KT 10SM -RA SCT030 BKN037 OVC080 17/14 
    A3026 RMK AO2 PK WND 01027/0810 WSHFT 0804 RAB27 SLP196 P0000 
    60000 T01670144 51010=
METAR KDLS 080853Z AUTO 11005KT 10SM CLR 18/05 A2994 RMK AO2 SLP138 
    T01780050 51012=
METAR KDNL 080853Z AUTO 28003KT 10SM CLR 27/18 A3001 RMK AO2 SLP154 
    T02670178 56010=
METAR KDRT 080853Z AUTO 08003KT 10SM CLR 24/22 A2993 RMK AO2 SLP117 
    T02390222 55002=
METAR KDUA 080859Z AUTO 16005KT 10SM CLR 25/23 A3002 RMK AO2=
METAR KDVO 080850Z AUTO 00000KT 10SM BKN010 12/11 A2993 RMK AO2=
METAR KDWH 080853Z 07006KT 7SM CLR 24/24 A2993 RMK AO2 SLP133 
    T02440239 56004=
METAR KEET 080853Z AUTO 00000KT 6SM HZ SCT080 24/22 A3003 RMK AO2 
    SLP161 T02440217 56005=
METAR KELN 080853Z AUTO 32003KT 10SM CLR 16/07 A3004 RMK AO2 SLPNO 
    T01560067 53003 $=
METAR KEPH 080853Z AUTO 33007KT 10SM CLR 21/05 A3000 RMK AO2 SLP148 
    T02110050 53001=
METAR KEQY 080853Z AUTO 34004KT 10SM CLR 24/18 A2999 RMK AO2 SLP149 
    T02440178 56007=
METAR KESF 080853Z AUTO 00000KT 7SM FEW013 23/22 A3001 RMK AO2 
    SLP160 T02280222 55002=
METAR KFAY 080853Z AUTO 34003KT 10SM CLR 27/17 A2992 RMK AO2 SLP125 
    T02670172 56006=
METAR KFET 080851Z AUTO 33003KT 10SM CLR 18/17 A3014 RMK AO2=
METAR KFFC 080853Z AUTO 00000KT 8SM CLR 21/19 A3004 RMK AO2 SLP163 
    T02060189 56006=
METAR KFHR 080853Z AUTO 00000KT 10SM CLR 14/11 A2997 RMK AO2 SLP148 
    T01440111 53008=
METAR KFMN 080853Z AUTO 07010KT 10SM CLR 21/06 A3019 RMK AO2 SLP155 
    T02060056 51003=
METAR KFSM 080853Z AUTO 02003KT 10SM OVC034 24/22 A3002 RMK AO2 
    SLP160 T02440222 58001=
METAR KFST 080853Z AUTO 12004KT 10SM BKN110 22/19 A3006 RMK AO2 
    SLP130 T02170194 56004=
METAR KFTY 080853Z 00000KT 9SM CLR 21/18 A3003 RMK AO2 SLP159 
    T02060183 56007=
METAR KFYV 080853Z AUTO 00000KT 10SM FEW036 22/21 A3006 RMK AO2 
    SLP164 T02220211 56003=
METAR KGEG 080853Z 00000KT 10SM CLR 18/08 A3007 RMK AO2 SLP164 
    T01780083 53004=
METAR KGLH 080853Z AUTO 00000KT 7SM CLR 22/22 A3004 RMK AO2 SLP176 
    T02220217 56003=
METAR KGMU 080853Z AUTO 00000KT 10SM CLR 26/19 A3003 RMK AO2 SLP154 
    T02610189 56008=
METAR KGPT 080853Z AUTO 00000KT 8SM CLR 26/24 A3000 RMK AO2 SLP159 
    T02560239 55006=
####018000088####
SACA01 KMSC 080854
METAR TJPS 080850Z 05005KT 8`SM FEW030 24/23 A2997 RMK HZ ALQDS=
####018000089####
SAZA42 FAJS 080900
METAR FAJS 080900Z 07011KT 040V110 9999 SCT012 13/07 Q1037 NOSIG=
####018000564####
SARS18 KAWN 080900
METAR EETN 080850Z 31007KT 270V340 CAVOK 23/18 Q1014 NOSIG=
METAR EETU 080850Z 34004KT 210V030 9999 SCT016TCU SCT025 25/20 Q1013=
METAR EFHK 080850Z 35006KT 310V010 9999 SCT035 BKN200 27/18 Q1014 NOSIG=
METAR EVLA 080850Z 32005KT 280V060 CAVOK 22/16 Q1018=
METAR EVRA 080850Z 31009KT 270V340 9999 OVC007 18/17 Q1015 BECMG BKN010
      OVC015=
METAR EYKA 080850Z 29009KT 220V010 CAVOK 17/14 Q1015=
METAR EYPA 080850Z 34006G17KT 280V030 CAVOK 21/15 Q1018 NOSIG=
METAR EYVI 080850Z 27009KT 7000 BKN008 OVC027 16/14 Q1014 NOSIG=
####018000456####
SAXX70 KAWN 080900 RRA
METAR KQEL 080850Z AUTO 15001KT 7SM FEW037 FEW100 26/21 A2970 RMK A02=
METAR KQEW 080850Z AUTO 10001KT 7SM CLR 28/20 A2982 RMK A02=
METAR KQFB 080850Z AUTO 35002KT 5SM BR CLR 25/22 A2992 RMK A02=
METAR KQFS 080855Z AUTO VRB04KT 7000 -TSRA FEW011 BKN038 23/22 A2979
      RMK AO2 SLP086 P0024 T02270216 53007 $=
METAR KQSA 080855Z VRB05KT 9999 FEW120 34/13 A2998 RMK SLP332 WND DATA
      ESTMD ALSTG/SLP ESTMD 57022=
####018000401####
SAXN17 KAWN 080900
METAR COR MMPR 080847Z 00000KT 12SM SCT025 BKN070 25/23 A2980 RMK SLP085
      57006 951 8/430=
METAR MPTO 080900Z 00000KT 9000 DZ SCT018 SCT090 25/24 Q1010 RWY DAMP=
METAR NSTU 080850Z 08008KT 10SM SCT014 BKN045 28/26 A2989 RMK SLP124
      60005 8/400 T02790261 52017=
PAEH SA 0855 AWOS M18 OVC 10 49/-19/0000/001=
PATC SA 0855 AWOS CLR BLO 120 10 49/43/0105/016=
####018001728####
SAEW KAWN 080900
METAR EDDB 080850Z 17001KT CAVOK 24/08 Q1022 NOSIG=
METAR EDDC 080850Z 04003KT CAVOK 22/09 Q1023 NOSIG=
METAR EDDE 080850Z 30001KT CAVOK 24/09 Q1022 NOSIG=
METAR EDDF 080850Z 14003KT CAVOK 26/10 Q1021 NOSIG=
METAR EDDG 080850Z 17004KT CAVOK 26/11 Q1020 NOSIG=
METAR EDDH 080850Z 15007KT CAVOK 25/11 Q1019 NOSIG=
METAR EDDK 080850Z 18006KT CAVOK 27/10 Q1020 NOSIG=
METAR EDDL 080850Z 17006KT 160V230 CAVOK 27/10 Q1019 NOSIG=
METAR EDDM 080850Z 07007G18KT 050V120 CAVOK 22/10 Q1023 NOSIG=
METAR EDDN 080850Z 12005KT CAVOK 24/08 Q1022 NOSIG=
METAR EDDP 080850Z 16004KT CAVOK 24/11 Q1022 NOSIG=
METAR EDDR 080850Z VRB03KT CAVOK 25/13 Q1021 NOSIG=
METAR EDDS 080850Z 14004KT CAVOK 24/09 Q1022 NOSIG=
METAR EDDT 080850Z VRB01KT CAVOK 24/06 Q1022 NOSIG=
METAR EDDV 080850Z VRB03KT CAVOK 27/11 Q1020 NOSIG=
METAR EDDW 080850Z 18005KT CAVOK 27/09 Q1019 NOSIG=
METAR EHEH 080855Z AUTO 22006KT 9999NDV FEW270 28/12 Q1019 BLU BLU=
METAR EKCH 080850Z 17012KT CAVOK 21/16 Q1020 NOSIG=
METAR EKEB 080850Z AUTO 23011KT 9999NDV BKN068/// 22/14 Q1018=
METAR EKKA 080850Z 20009KT 150V220 5000 SHRA SCT018TCU BKN045 17/15
      Q1017 TEMPO 4000 SCT020CB=
METAR EKSP 080850Z 18007KT CAVOK 23/13 Q1018 NOSIG RMK FEW050 BKN090=
METAR EKVG 080851Z 16011KT 9999 SCT004 BKN006 BKN010 11/10 Q0992 RMK/RWY
      13/31 CLOSED DUE WIP/ SEE NOTAM E0050/10 WIND 850FT 16011KT
      110V230=
METAR ETNG 080850Z 24005KT CAVOK 28/11 Q1020 NOSIG=
METAR LSGG 080850Z 08003KT 020V170 CAVOK 26/11 Q1022 NOSIG=
METAR LSZA 080850Z 18003KT 120V230 9999 BKN055 25/13 Q1023 NOSIG=
METAR LSZB 080850Z 32005KT 260V010 CAVOK 25/14 Q1022 NOSIG=
METAR LSZH 080850Z VRB03KT CAVOK 23/13 Q1022 NOSIG=
####018002967####
SAUS20 KNKA 080854
METAR KPDX 080853Z 00000KT 10SM CLR 21/15 A2988 RMK AO2 SLP117 
    T02060150 51009=
METAR KPNA 080850Z AUTO 30005KT 10SM CLR 06/02 A3039 RMK AO2 
     T00620017=
METAR KPQL 080853Z AUTO 00000KT 6SM BR CLR 24/23 A3001 RMK AO2 
    SLP163 T02390233 55003=
METAR KPRB 080853Z AUTO 30003KT 10SM CLR 13/11 A2990 RMK AO2 SLP122 
    T01280106 52000=
METAR KPSC 080853Z AUTO 35003KT 10SM CLR 16/11 A2995 RMK AO2 SLP139 
    T01560111 51009=
METAR KPSX 080853Z AUTO 10007KT 9SM CLR 27/26 A2986 RMK AO2 RAE33 
    SLP110 P0005 60017 T02720256 56009=
METAR KPTT 080850Z AUTO 36005KT 7SM CLR 19/18 A3014 RMK AO2=
METAR KRDD 080853Z AUTO 01004KT 10SM CLR 24/15 A2983 RMK AO2 SLP094 
    T02440150 52010=
METAR KRKP 080853Z AUTO 11011KT 10SM CLR 28/26 A2982 RMK AO2 SLP098 
    60002 T02780256 56015=
METAR KRMG 080853Z AUTO 00000KT 9SM CLR 21/19 A3003 RMK AO2 SLP159 
    T02110189 56003=
METAR KRNT 080853Z AUTO 12003KT 10SM CLR 19/14 A2994 RMK AO2 SLP143 
    T01940144 53009=
METAR KRUE 080853Z AUTO 00000KT 10SM BKN019 24/23 A3005 RMK AO2 
    SLP167 T02390228 51000=
METAR KRWI 080853Z AUTO 00000KT 6SM HZ CLR 24/21 A2994 RMK AO2 
    SLP137 T02390206 55005=
METAR KSAC 080853Z 18005KT 10SM CLR 14/10 A2983 RMK AO2 SLP102 
    T01440100 51001=
METAR KSAF 080853Z AUTO 00000KT 10SM SCT110 15/11 A3032 RMK AO2 
    SLP187 T01500106 51003=
METAR KSAT 080853Z 06005KT 7SM -RA BKN014 BKN040 BKN250 26/23 A2995 
    RMK AO2 RAB44 SLP122 P0000 60000 T02560233 55005=
METAR KSDL 080853Z 00000KT 10SM CLR 30/08 A2979 RMK AO2 SLP058 
    T03000078 51004=
METAR KSFF 080853Z AUTO 00000KT 10SM CLR 14/09 A3006 RMK AO2 SLP165 
    T01440094 53004=
METAR KSIY 080853Z AUTO 14005KT 10SM CLR 22/08 A2994 RMK AO2 SLP119 
    T02170083 55001 $=
METAR KSJC 080853Z AUTO 35003KT 10SM OVC015 15/11 A2992 RMK AO2 
    SLP131 T01500111 50002=
METAR KSNS 080853Z AUTO 26005KT 10SM OVC011 13/11 A2993 RMK AO2 
    SLP143 T01280106 58002=
METAR KSOW 080850Z AUTO 07005KT 10SM FEW039 SCT100 23/02 A3024 
     RMK AO2=
METAR KSRE 080850Z AUTO 00000KT 3SM BR 24/24 A3002 RMK AO2 LTG 
     DSNT NE=
METAR KSSF 080853Z AUTO 05005KT 10SM OVC013 26/23 A2992 RMK AO2 
    SLP118 T02610233 56006=
METAR KSUN 080851Z AUTO 33010G15KT 10SM CLR 12/02 A3023 RMK AO2=
METAR KSZT 080850Z AUTO 00000KT 10SM CLR 11/08 A3010 RMK AO2=
METAR KTCL 080853Z AUTO 00000KT 5SM BR CLR 24/23 A3003 RMK AO2 
    SLP168 T02440228 55004=
METAR KTOI 080853Z AUTO 00000KT 10SM FEW070 22/22 A3003 RMK AO2 
    SLP163 T02220217 56006=
METAR KTTD 080853Z AUTO 00000KT 10SM CLR 18/13 A2986 RMK AO2 SLP111 
    T01780133 51010=
METAR KTUS 080853Z 23006KT 10SM CLR 31/07 A2988 RMK AO2 SLP060 
    T03060072 53000=
METAR KTVL 080853Z AUTO 00000KT 10SM CLR 12/06 A3016 RMK AO2 SLP150 
    T01170061 55000=
METAR KTVR 080853Z AUTO 07003KT 9SM CLR 24/22 A3002 RMK AO2 SLP173 
    T02390222 55002 $=
####018002984####
SAUS20 KNKA 080854
METAR KGSP 080853Z AUTO 00000KT 10SM CLR 24/19 A3001 RMK AO2 SLP146 
    T02390189 56008=
METAR KGUP 080853Z AUTO 09003KT 10SM BKN110 18/06 A3025 RMK AO2 
    SLP045 T01830061 53004=
METAR KGVL 080853Z AUTO 32004KT 10SM CLR 24/21 A3007 RMK AO2 SLP163 
    T02390206 56010=
METAR KGWO 080853Z AUTO 00000KT 10SM CLR 22/22 A3005 RMK AO2 SLP173 
    T02220222 55001=
METAR KHBG 080853Z AUTO 00000KT 8SM CLR 24/23 A3002 RMK AO2 SLP163 
    T02390233 56009=
METAR KHDE 080850Z AUTO 00000KT 10SM CLR 16/14 A3020 RMK AO2 
     T01560141=
METAR KHGR 080853Z AUTO 32004KT 7SM CLR 24/17 A3003 RMK AO2 SLP169 
    T02440167 55000=
METAR KHIO 080853Z AUTO 00000KT 10SM CLR 17/13 A2988 RMK AO2 SLP113 
    T01670128 53008=
METAR KHJH 080850Z AUTO 01004KT 10SM OVC023 19/18 A3015 RMK AO2 
     T01930177=
METAR KHKA 080853Z AUTO 23004KT 7SM CLR 26/22 A3005 RMK AO2 SLP173 
    T02560222 50003=
METAR KHKS 080853Z AUTO 00000KT 10SM CLR 24/23 A3005 RMK AO2 SLP165 
    T02390228 55005=
METAR KHKY 080853Z AUTO 34004KT 10SM CLR 23/17 A3004 RMK AO2 SLP146 
    T02280167 55004 $=
METAR KHLG 080853Z AUTO 00000KT 5SM HZ CLR 22/19 A3009 RMK AO2 
    SLP179 T02170189 56004=
METAR KHOT 080853Z AUTO 00000KT 10SM OVC010 24/23 A3005 RMK AO2 
    SLP168 T02440228 50000=
METAR KHOU 080853Z 10007KT 10SM FEW030 BKN130 BKN250 27/23 A2991 RMK 
    AO2 SLP131 60000 T02720233 58007=
METAR KHQM 080853Z AUTO 00000KT 10SM 18/13 A2992 RMK AO2 SLP135 
    T01830133 53011 $=
METAR KHRI 080853Z AUTO 00000KT 10SM CLR 18/07 A2993 RMK AO2 SLP130 
    T01780067 53007=
METAR KHRO 080853Z AUTO 16003KT 4SM BR FEW090 22/21 A3006 RMK AO2 
    SLP163 T02220211 58006=
METAR KHSV 080853Z 00000KT 10SM CLR 24/23 A3005 RMK AO2 SLP167 
    T02440228 56005=
METAR KIAH 080853Z 05006KT 8SM FEW020 SCT035 BKN130 26/24 A2993 RMK 
    AO2 SLP134 T02560244 56006=
METAR KIBM 080850Z AUTO 14003KT 10SM OVC018 13/12 A3032 RMK AO2 
     T01250115=
METAR KILM 080853Z AUTO 28005KT 10SM CLR 26/19 A2989 RMK AO2 SLP123 
    T02560194 56012=
METAR KJBR 080853Z AUTO 00000KT 10SM CLR 25/23 A3004 RMK AO2 SLP170 
    T02500228 50000 $=
METAR KJYR 080850Z AUTO 35003KT 10SM CLR 16/15 A3016 RMK AO2=
METAR KL35 080852Z AUTO 00000KT 10SM CLR 07/M05 A3018 RMK AO2=
METAR KLCG 080850Z AUTO 00000KT 10SM CLR 15/15 A3016 RMK AO2 
     T01540145=
METAR KLBX 080853Z AUTO 09006KT 10SM FEW029 BKN038 BKN050 28/24 
    A2988 RMK AO2 RAE0754 SLP117 60001 T02780244 58011=
METAR KLCH 080853Z AUTO 08006KT 10SM CLR 26/23 A2997 RMK AO2 SLP155 
    T02560233 55004=
METAR KLFK 080853Z AUTO 10005KT 10SM CLR 24/23 A2999 RMK AO2 SLP150 
    T02440233 50002=
METAR KLFT 080853Z AUTO 07003KT 10SM CLR 25/23 A2999 RMK AO2 SLP153 
    T02500233 58006=
METAR KLHM 080851Z AUTO 16008KT 10SM CLR 18/11 A2982 RMK AO1 
     T01770111=
METAR KLIT 080853Z 00000KT 7SM CLR BKN150 24/23 A3005 RMK AO2 SLP175 
    T02440228 50004=
####018002953####
SAUS20 KNKA 080854
METAR KLLQ 080853Z AUTO 00000KT 7SM CLR 23/22 A3005 RMK AO2 SLP173 
    T02280222 58001=
METAR KLMT 080853Z AUTO 21004KT 10SM FEW090 19/10 A3004 RMK AO2 
    SLP122 T01940100 55009=
METAR KLVJ 080853Z AUTO 10005KT 10SM FEW032 27/23 A2992 RMK AO2 
    SLP130 T02720233 58007=
METAR KLVK 080853Z AUTO 30009KT 10SM CLR 13/11 A2991 RMK AO2 SLP124 
    T01280106 51005=
METAR KLVS 080853Z AUTO 04005KT 10SM CLR 11/09 A3036 RMK AO2 SLP204 
    T01110089 56004 TSNO=
METAR KLXN 080850Z AUTO 00000KT 10SM BKN049 16/15 A3022 RMK AO2 
     T01600152=
METAR KMAE 080853Z AUTO 29006KT 10SM CLR 19/12 A2982 RMK AO2 SLP095 
    T01890117 50002=
METAR KMCB 080853Z AUTO 06003KT 8SM CLR 23/22 A3003 RMK AO2 SLP164 
    T02330222 56006=
METAR KMCE 080853Z AUTO 28005KT 10SM CLR 17/11 A2982 RMK AO2 SLP097 
    T01720106 51003=
METAR KMEM 080853Z 00000KT 10SM FEW250 25/22 A3006 RMK AO2 SLP175 
    T02500222 53001=
METAR KMFE 080853Z AUTO 36007KT 10SM SCT006 SCT017 26/24 A2980 RMK 
    AO2 SLP089 T02610244 56011=
METAR KMGW 080853Z AUTO 00000KT 4SM BR CLR 20/18 A3010 RMK AO2 
    SLP180 T02000183 56005=
METAR KMKL 080853Z AUTO 00000KT 10SM CLR 22/21 A3007 RMK AO2 SLP176 
    T02220211 53002=
METAR KMLE 080850Z AUTO 34003KT 10SM SCT025 20/17 A3011 RMK AO2 
     T02000168=
METAR KMMH 080850Z AUTO 26007KT 10SM CLR 12/02 A3021 RMK AO1=
METAR KMMV 080853Z AUTO 25003KT 10SM CLR 16/12 A2988 RMK AO2 SLP115 
    T01610122 53011=
METAR KMOD 080853Z AUTO 35006KT 10SM CLR 18/10 A2984 RMK AO2 SLP103 
    T01780100 51008=
METAR KMRB 080853Z AUTO 00000KT 5SM HZ CLR 23/18 A3002 RMK AO2 
    SLP160 T02280183 56001=
METAR KMSL 080853Z AUTO 00000KT 10SM FEW065 23/22 A3007 RMK AO2 
    SLP175 T02280217 55002=
METAR KMSY 080853Z 00000KT 10SM FEW016 SCT250 27/23 A3000 RMK AO2 
    SLP161 T02670233 55002=
METAR KNEW 080853Z AUTO 12003KT 10SM FEW015 27/25 A3000 RMK AO2 
    SLP152 T02720250 55004 TSNO=
METAR KOAK 080853Z 29009KT 10SM OVC011 15/11 A2994 RMK AO2 SLP137 
    T01500111 50002=
METAR KOGA 080850Z AUTO 00000KT 5SM BR CLR 16/15 A3027 RMK AO2 
     T01550145=
METAR KONL 080850Z AUTO 26003KT 10SM SCT090 OVC110 16/15 A3021 
     RMK AO2 T01600145=
METAR KOVE 080853Z AUTO 16010KT 10SM CLR 21/13 A2984 RMK AO2 SLP103 
    T02110128 53008 TSNO=
METAR KOXB 080853Z AUTO 08004KT 9SM -RA FEW090 BKN110 24/24 A2999 
    RMK AO2 RAB00E10B44 SLP154 P0000 60000 T02440239 56001 $=
METAR KPAE 080853Z AUTO 02003KT 10SM CLR 20/12 A2997 RMK AO2 SLP145 
    T02000117 53005=
METAR KPAH 080853Z AUTO 00000KT 10SM CLR 23/22 A3003 RMK AO2 SLP165 
    T02330217 56004=
METAR KPBF 080853Z AUTO 00000KT 7SM CLR 24/23 A3005 RMK AO2 SLP171 
    T02390228 57000=
METAR KPDK 080853Z AUTO 00000KT 10SM CLR 22/19 A3004 RMK AO2 SLP149 
    T02220189 58009=
METAR KPDT 080853Z AUTO 16008KT 10SM CLR 18/08 A2997 RMK AO2 SLP130 
    T01780078 53004=
####018000687####
SAUS20 KNKA 080854
METAR KUTS 080853Z AUTO 00000KT 7SM CLR 24/23 A2997 RMK AO2 SLP143 
    T02440233 56004=
METAR KVCB 080853Z AUTO 23011G17KT 10SM CLR 19/10 A2981 RMK AO2 
    SLP093 T01890100 50004=
METAR KVPC 080853Z AUTO 00000KT 7SM CLR 20/19 A3005 RMK AO2 SLP160 
    T02000189 56005=
METAR KVUO 080853Z AUTO 00000KT 10SM CLR 17/14 A2987 RMK AO2 SLP115 
    T01720139 51009=
METAR KWVI 080853Z AUTO 00000KT 10SM OVC009 13/11 A2993 RMK AO2 
    SLP135 T01280106 55002=
METAR KXNA 080853Z 19004KT 10SM BKN030 23/22 A3006 RMK AO2 SLP163 
    60001 T02280217 56004=
METAR KYKM 080853Z AUTO 28007KT 10SM CLR 14/07 A3000 RMK AO2 SLP154 
    T01440072 51008=
####018000083####
SPCN43 CWAO 080853
SPECI CYPY 080853Z AUTO 27003KT 2 3/8SM CLR 11/11 A2992=

####018000084####
SPCN42 CWAO 080853
SPECI CYUA 080853Z AUTO 28010KT 3SM -UP OVC004 05/ A3009=

####018001596####
SAZZ40 KAWN 080900 RRA
METAR EFKU 080850Z AUTO 36004KT 9999NDV FEW016 FEW105 BKN140 23/17
      Q1016=
METAR EFOU 080850Z VRB01KT 9999 FEW018 SCT200 20/13 Q1016=
METAR KBLV 080855Z AUTO 00000KT 10SM FEW060 24/24 A3002 RMK AO2 SLP163
      T02430242 56006=
METAR KHMN 080855Z 34008KT 10SM BKN110 OVC140 21/14 A3013 RMK AO2A
      SLP122 T02070138 58005 $=
METAR KLRF 080855Z AUTO 00000KT 10SM BKN200 BKN230 23/22 A3005 RMK
      AO2 SLP174 T02290220 50005=
METAR KMGE 080855Z AUTO 00000KT 10SM CLR 23/19 A3004 RMK AO2 SLP162
      T02280190 56009 $=
METAR KNHK 080852Z AUTO 11004KT 4SM BR FEW011 26/24 A2998 RMK AO2 SLP151
      T02610239 53001=
METAR KRDR 080855Z AUTO 23007KT 10SM CLR 14/13 A3004 RMK AO2 SLP181
      T01400128 56002 $=
METAR KSAN 080851Z 32006KT 9SM FEW010 OVC015 16/14 A2991 RMK AO2 SLP128
      T01610144 58006=
METAR LLBG 080850Z 26009KT 9999 FEW035 30/20 Q1009 NOSIG=
METAR LLET 080850Z 03015KT CAVOK 36/11 Q1007=
METAR LLOV 080850Z 35005KT CAVOK 32/09 Q1011=
METAR LPLA 080900Z 00000KT 9999 FEW008 SCT016 BKN028 19/18 Q1024=
METAR MPTO 080900Z 00000KT 9000 DZ SCT018 SCT090 25/24 Q1010 RWY DAMP=
METAR NSTU 080850Z 08008KT 10SM SCT014 BKN045 28/26 A2989 RMK SLP124
      60005 8/400 T02790261 52017=
METAR OAFZ 080850Z 01006KT 9999 SKC 38/01 Q1015 BLU/=
METAR OKBK 080900Z 35017KT CAVOK 47/M10 Q1001 NOSIG=
METAR ORBI 080900Z 30016KT CAVOK 44/05 Q1003 NOSIG=
METAR OSAP 080900Z 28016KT CAVOK 32/18 Q1007=
METAR OSDI 080900Z 20018KT CAVOK 34/07 Q1010=
METAR OSLK 080900Z 21004KT 9999 FEW026 SCT030 28/21 Q1009=
####018000088####
SPCN31 CWAO 080850
SPECI CYQX 080850Z 15008KT 15SM BKN004 OVC029 10/ RMK SF7SC1=

####018000089####
SAAE31 VTBB 080830 RRE
METAR VYMD 080830Z 18009KT 8000 BKN020 FEW025CB 36/24 Q.1006=
####018000124####
SAUS45 KABQ 080854
MTRRTN
METAR KRTN 080853Z AUTO 08004KT 10SM CLR 14/10 A3035 RMK AO2 SLP216 
T01440100 56002 TSNO
####018000129####
SAUS46 KSGX 080854
MTRRNM
METAR KRNM 080853Z AUTO 00000KT 6SM BR OVC004 14/13 A2990 RMK AO2 
SLP114 T01440128 58007 TSNO
####018000121####
SAUS44 KMAF 080854
MTR6R6
METAR K6R6 080853Z AUTO 03006KT 23/21 A3000 RMK AO2 SLP121 T02280206 
56002 PWINO TSNO
####018000123####
SAUS45 KMSO 080854
MTRP69
METAR KP69 080852Z AUTO 00000KT 13/11 A3010 RMK AO2 SLP172 T01280106 
51018 PWINO TSNO $
####018000575####
SAHW31 KMSC 080854
METAR PHNL 080853Z 03006KT 10SM FEW032 SCT050 24/18 A3005 RMK AO2 
    RAB21E42 SLP174 P0000 60000 T02440183 53009=
METAR PHTO 080853Z AUTO 16005KT 8SM RA SCT025 BKN038 22/19 A3006 RMK 
    AO2 RAB45 SLP177 P0001 60001 T02170194 51013 TSNO=
METAR PHKO 080853Z AUTO 17006KT 10SM CLR 24/16 A2999 RMK AO2 SLP156 
    T02440161 51006 TSNO=
METAR PHLI 080853Z 07012KT 10SM FEW016 BKN050 OVC065 24/19 A3007 RMK 
    AO2 SLP180 60000 T02430187 51009 $=
METAR PHJR 080853Z 06003KT 10SM FEW055 23/18 A3006 RMK AO2 SLP184 
    T02330183 53009=
####018002916####
SAUS20 KNKA 080854
METAR KCRE 080853Z AUTO 32005KT 10SM CLR 27/20 A2991 RMK AO2 SLP130 
    T02670200 56008=
METAR KCRP 080851Z 03013G19KT 3SM +TSRA BR FEW010 BKN018CB OVC047
     26/25 A2983 RMK AO2 TSB16 SLP098 OCNL LTGIC NW-N TS NW-N MOV
     W P0006 60020 T02610250 56015=
METAR KCRQ 080853Z AUTO 27003KT 9SM OVC009 17/14 A2989 RMK AO2 CIG 
    006V011 SLP121 T01670139 58006=
METAR KCUB 080853Z AUTO 00000KT 10SM CLR 24/19 A2999 RMK AO2 SLP151 
    T02440189 56008=
METAR KCYS 080853Z AUTO 11004KT 6SM BR OVC004 12/12 A3036 RMK AO2 
    CIG 003V008 SLP233 60000 T01170117 51001 TSNO=
METAR KDAG 080853Z AUTO 25008KT 10SM CLR 25/00 A2985 RMK AO2 SLP077 
    T02500000 51005 TSNO $=
METAR KDAL 080853Z 16007KT 10SM FEW014 OVC230 26/23 A2999 RMK AO2 
    SLP147 T02610228 58002=
METAR KDBQ 080853Z AUTO 00000KT 7SM CLR 20/19 A3003 RMK AO2 SLP163 
    60000 T02000194 55008=
METAR KDEN 080853Z 16005KT 4SM BR BKN024 BKN100 14/14 A3032 RMK AO2 
    SLP213 T01440139 56005 $=
METAR KDEQ 080853Z AUTO 00000KT 10SM BKN006 OVC011 24/23 A3002 RMK 
    AO2 CIG 005V009 SLP159 T02440233 55001=
METAR KDET 080853Z 00000KT 9SM CLR 25/21 A3003 RMK AO2 SLP161 
    T02500211 56005 $=
METAR KDFI 080853Z AUTO 00000KT 7SM CLR 22/19 A3005 RMK AO2 SLP170 
    T02170189 56003=
METAR KDFW 080853Z 15005KT 10SM SCT019 SCT090 BKN220 26/23 A2998 RMK 
    AO2 SLP144 T02560228 58002=
METAR KDGW 080853Z AUTO 00000KT 10SM CLR 06/06 A3033 RMK AO2 SLP242 
    T00610056 53001 $=
METAR KDKK 080853Z AUTO 00000KT 9SM BKN090 21/18 A3006 RMK AO2 
    SLP173 T02060183 55004=
METAR KDLN 080853Z AUTO 20009KT 10SM CLR 08/03 A3028 RMK AO2 SLP217 
    T00780033 53007=
METAR KDMN 080853Z AUTO 05012G19KT 10SM -RA SCT060 21/13 A3012 RMK 
    AO2 RAB14 SLP115 P0000 60000 T02110133 50007=
METAR KDMO 080853Z AUTO 31003KT 10SM FEW003 SCT040 24/22 A3004 RMK 
    AO2 RAE29 SLP164 P0000 60000 T02390222 58003=
METAR KDRO 080853Z AUTO 02003KT 10SM CLR 14/05 A3030 RMK AO2 SLP165 
    60000 T01440050 51003=
METAR KDTN 080853Z AUTO 00000KT 10SM CLR 24/24 A3001 RMK AO2 SLP161 
    T02440239 53002=
METAR KDTS 080853Z AUTO 00000KT 9SM CLR 24/23 A3000 RMK AO2 SLP158 
    T02440233 56008=
METAR KDTW 080853Z 22004KT 5SM HZ FEW150 24/21 A3003 RMK AO2 SLP162 
    T02390206 56005=
METAR KDVT 080853Z 00000KT 10SM CLR 28/01 A2978 RMK AO2 SLP055 
    T02780006 51005=
METAR KDXR 080853Z AUTO 00000KT 5SM BR BKN090 23/22 A3005 RMK AO2 
    SLP171 T02280217 52001=
METAR KECP 080853Z AUTO 29003KT 5SM BR CLR 23/23 A3001 RMK AO2 
    SLP171 T02280228 56008=
METAR KEEO 080853Z AUTO 10SM FEW120 14/06 A3026 RMK AO2 SLP162 6//// 
    T01390061 58009 PNO $=
METAR KELD 080853Z AUTO 00000KT 1/2SM FG VV001 23/23 A3003 RMK AO2 
    SLP165 T02280228 53001=
METAR KELM 080853Z AUTO 00000KT 1 1/4SM BR CLR 17/16 A3008 RMK AO2 
    SLP178 T01720161 50002=
####018000305####
SAAK41 KNKA 080854
METAR PATA 080852Z AUTO 00000KT 10SM CLR 13/07 A3005 RMK AO2 SLP177 
    T01330067 402280050 51005 TSNO=
METAR PAWR 080848Z 15005KT 8SM -RA OVC030 12/11 A3007 RMK SLP183
     NOSPECI=
METAR PHJR 080853Z 06003KT 10SM FEW055 23/18 A3006 RMK AO2 SLP184 
    T02330183 53009=
####018002949####
SAUS20 KNKA 080854
METAR KGFL 080853Z AUTO 00000KT 1/2SM FG FEW100 20/20 A3002 RMK AO2 
    SLP162 T02000200 53004=
METAR KGGW 080853Z AUTO 28003KT 10SM BKN090 12/09 A3013 RMK AO2 
    SLP200 T01220094 55003 TSNO=
METAR KGIF 080853Z AUTO 01003KT 10SM CLR 23/21 A2999 RMK AO2 SLP154 
    T02280211 56012 TSNO=
METAR KGJT 080853Z AUTO 10009KT 10SM CLR 21/06 A3016 RMK AO2 SLP134 
    T02110056 55001=
METAR KGKJ 080853Z AUTO 00000KT 7SM CLR 21/18 A3010 RMK AO2 SLP180 
    T02110178 55004=
METAR KGLD 080853Z AUTO 03004KT 10SM OVC037 17/16 A3028 RMK AO2 
    SLP220 T01720161 50003=
METAR KGLR 080853Z AUTO 22006KT 10SM SCT100 22/19 A3001 RMK AO2 
    SLP153 T02170194 56013=
METAR KGRB 080853Z AUTO 00000KT 4SM BR CLR 21/19 A2996 RMK AO2 
    SLP143 60003 T02060194 55010=
METAR KGRI 080853Z AUTO 32006KT 10SM CLR 15/14 A3019 RMK AO2 SLP213 
    T01500139 55003=
METAR KGRR 080853Z AUTO 00000KT 5SM BR BKN070 OVC085 24/22 A3004 RMK 
    AO2 RAE49 SLP164 P0016 60027 T02390217 50000=
METAR KGSH 080853Z AUTO 00000KT 6SM BR CLR 22/20 A3005 RMK AO2 
    SLP167 T02220200 56007=
METAR KGTF 080853Z 00000KT 10SM CLR 08/06 A3023 RMK AO2 SLP224 
    T00830056 51004 $=
METAR KGUY 080853Z AUTO 14004KT 6SM -RA BR BKN012 BKN019 OVC024 
    19/18 A3021 RMK AO2 LTG DSNT E TSB00E15RAB22 SLP185 P0003 60003 
    T01940178 53007=
METAR KGZH 080853Z AUTO 00000KT 7SM CLR 22/22 A3003 RMK AO2 SLP165 
    T02220217 56007=
METAR KHAO 080853Z AUTO 00000KT 1 3/4SM BR CLR 21/19 A3007 RMK AO2 
    SLP177 T02060194 56003=
METAR KHEI 080853Z AUTO 00000KT 10SM CLR 10/08 A3018 RMK AO2 SLP214 
    T01000078 58001=
METAR KHFD 080853Z AUTO 00000KT 5SM HZ FEW070 24/22 A3003 RMK AO2 
    RAB19E34 SLP167 P0000 60000 T02440217 53000=
METAR KHHR 080853Z AUTO 25006KT 10SM OVC014 17/13 A2991 RMK AO2 
    SLP127 T01720133 58002=
METAR KHIB 080853Z AUTO 00000KT 1/2SM FG OVC001 09/09 A3005 RMK AO2 
    SLP176 T00940089 58003=
METAR KHJO 080853Z AUTO 32007KT 10SM CLR 22/12 A2981 RMK AO2 SLP095 
    T02220122 50003=
METAR KHLC 080853Z AUTO 36007KT 10SM OVC024 18/16 A3020 RMK AO2 
    SLP210 T01780161 51006=
METAR KHLN 080853Z AUTO 28004KT 10SM CLR 12/04 A3024 RMK AO2 SLP235 
    T01170044 53007=
METAR KHSI 080853Z AUTO 35005KT 10SM CLR 16/14 A3018 RMK AO2 SLP210 
    T01560144 53000=
METAR KHUF 080853Z 13003KT 7SM FEW060 SCT070 BKN110 24/22 A3004 RMK 
    AO2 SLP165 T02390217 56006 $=
METAR KHUL 080853Z AUTO 20006KT 5SM BR CLR 21/18 A3002 RMK AO2 
    SLP162 T02060183 53007=
METAR KHVN 080853Z AUTO 10005KT 2SM HZ OVC002 24/23 A3003 RMK AO2 
    SLP169 T02440228 57001=
METAR KHVR 080853Z AUTO 00000KT 10SM CLR 11/09 A3019 RMK AO2 SLP215 
    T01060089 53002=
METAR KHWO 080853Z AUTO 07003KT 10SM CLR 25/24 A2994 RMK AO2 SLP138 
    T02500239 56010=
METAR KHYR 080853Z AUTO 00000KT 10SM FEW048 18/16 A3004 RMK AO2 
    SLP167 60000 T01780161 52002=
####018002953####
SAUS20 KNKA 080854
METAR KABI 080852Z 12005KT 10SM CLR 22/21 A3004 RMK AO2 SLP143
     T02170211 55005 $=
METAR KABR 080853Z AUTO 21003KT 10SM CLR 15/14 A3012 RMK AO2 SLP195 
    T01500139 50003=
METAR KABY 080853Z 00000KT 10SM CLR 22/20 A3003 RMK AO2 SLP168 
    T02170200 57005=
METAR KACK 080853Z AUTO 10004KT 9SM CLR 18/18 A3008 RMK AO2 SLP184 
    T01830183 53002 TSNO=
METAR KADG 080853Z AUTO 00000KT 7SM CLR 22/19 A3005 RMK AO2 SLP170 
    T02170194 56005=
METAR KAGC 080853Z 00000KT 4SM HZ CLR 23/19 A3008 RMK AO2 SLP178 
    T02330194 56003=
METAR KAIA 080853Z AUTO 00000KT 10SM FEW027 SCT075 OVC095 16/14 
    A3028 RMK AO2 SLP224 T01560144 58003 $=
METAR KAKO 080853Z AUTO 15007KT 7SM OVC006 14/14 A3031 RMK AO2 CIG 
    003V009 SLP227 T01440139 58001 TSNO=
METAR KALW 080853Z AUTO 11006KT 10SM CLR 17/08 A2996 RMK AO2 SLP139 
    T01670078 51004=
METAR KAMG 080853Z AUTO 00000KT 10SM CLR 22/19 A3000 RMK AO2 SLP157 
    T02170194 58008=
METAR KAMW 080853Z AUTO 34008KT 9SM CLR 21/19 A3008 RMK AO2 SLP178 
    T02060189 53001=
METAR KAOH 080853Z AUTO 18003KT 7SM 23/19 A3007 RMK AO2 SLP172 
    T02280194 56004 $=
METAR KAPA 080853Z 17003KT 7SM FEW007 OVC027 13/12 A3035 RMK AO2 
    SLP237 T01330122 58004 $=
METAR KAPF 080853Z AUTO 04005KT 10SM CLR 25/23 A2995 RMK AO2 SLP139 
    T02500228 56014=
METAR KARB 080853Z AUTO 00000KT 3SM BR CLR 20/19 A3003 RMK AO2 
    SLP163 T02000189 56006=
METAR KASE 080853Z 33004KT 5SM -RA BR SCT032 OVC060 08/07 A3047 RMK 
    AO2 RAB25 SLP211 P0006 60006 T00780072 53021=
METAR KASX 080853Z AUTO 00000KT 10SM BKN060 16/16 A3002 RMK AO2 
    SLP164 T01610156 53001=
METAR KATY 080853Z AUTO 23007KT 10SM CLR 16/13 A3014 RMK AO2 SLP203 
    T01560133 51003=
METAR KAUG 080853Z AUTO 00000KT 7SM OVC007 21/19 A3008 RMK AO2 
    SLP183 T02060194 53001=
METAR KAXN 080853Z AUTO 22005KT 10SM CLR 16/14 A3011 RMK AO2 SLP196 
    T01560144 55000=
METAR KAZO 080853Z AUTO 00000KT 5SM BR CLR 23/21 A3004 RMK AO2 
    SLP165 T02280206 56008 $=
METAR KBAF 080853Z 17003KT 9SM SCT075 OVC110 24/21 A3003 RMK AO2 
    SLP165 T02390211 53001=
METAR KBBW 080853Z AUTO 00000KT 10SM OVC070 17/16 A3022 RMK AO2 
    SLP220 T01670161 55002=
METAR KBCE 080853Z AUTO 26004KT 10SM OVC100 10/02 A3031 RMK AO2 
    SLP152 T01000022 53004 TSNO=
METAR KBDE 080853Z AUTO 00000KT 10SM CLR 15/13 A2999 RMK AO2 SLP154 
    T01500128 55005=
METAR KBEH 080853Z AUTO 00000KT 5SM BR FEW055 23/22 A3004 RMK AO2 
    SLP166 T02330222 53001 $=
METAR KBFF 080853Z AUTO 00000KT 10SM OVC085 16/14 A3029 RMK AO2 
    SLP230 T01560139 55001=
METAR KBFI 080853Z 00000KT 10SM CLR 21/12 A2994 RMK AO2 SLP138 
    T02110117 51007=
METAR KBGM 080853Z AUTO 03003KT 5SM HZ CLR 22/18 A3012 RMK AO2 
    SLP183 T02220183 53001=
METAR KBGR 080853Z 19006KT 3SM BR OVC003 20/19 A3007 RMK AO2 RAE08 
    SLP178 P0000 60004 T02000194 55001=
####018000123####
SAUS42 KTAE 080854
MTRCTY
METAR KCTY 080853Z AUTO 00000KT 21/20 A2999 RMK AO2 SLP156 T02060200 
58011 PWINO TSNO $
####018000114####
SAUS44 KMRX 080854
MTRCHA
METAR KCHA 080853Z 00000KT 10SM CLR 23/19 A3005 RMK AO2 SLP166 
T02280189 56005
####018000124####
SAUS44 KHGX 080854
MTRSGR
METAR KSGR 080853Z AUTO 07006KT 10SM CLR 26/23 A2990 RMK AO2 SLP133 
T02610233 56008 TSNO
####018000114####
SAUS43 KFGF 080854
MTRFAR
METAR KFAR 080853Z 21003KT 10SM CLR 16/12 A3006 RMK AO2 SLP179 
T01610117 53002
####018002984####
SAUS20 KNKA 080854
METAR KHZY 080853Z AUTO 00000KT 3SM BR CLR 19/19 A3008 RMK AO2 
    SLP177 P0001 60001 T01940194 56004=
METAR KIAG 080853Z AUTO 21003KT 6SM BR CLR 23/21 A3004 RMK AO2 
    SLP163 T02330211 55004=
METAR KICR 080853Z AUTO 24005KT 10SM CLR 17/12 A3021 RMK AO2 SLP219 
    T01720122 53001 TSNO=
METAR KICT 080853Z 05003KT 10SM SCT080 OVC200 22/20 A3008 RMK AO2 
    SLP173 T02220200 55002 $=
METAR KIDA 080853Z AUTO 35008KT 10SM CLR 09/06 A3018 RMK AO2 SLP189 
    T00940056 53005=
METAR KIML 080853Z AUTO 00000KT 10SM CLR 17/14 A3026 RMK AO2 SLP230 
    T01670144 58003=
METAR KIPL 080853Z AUTO 15004KT 10SM CLR 27/08 A2968 RMK AO2 SLP050 
    T02720083 52004=
METAR KITR 080853Z AUTO 03004KT 10SM FEW005 OVC030 17/15 A3029 RMK 
    AO2 SLP217 T01670150 58004=
METAR KIWI 080853Z AUTO 00000KT 9SM BKN003 OVC007 20/19 A3009 RMK 
    AO2 SLP187 T02000189 52002=
METAR KIXD 080853Z AUTO 33008KT 7SM OVC004 22/21 A3007 RMK AO2 
    SLP171 T02220206 58001=
METAR KJCT 080851Z AUTO 00000KT 9SM SCT017 SCT025 22/21 A3001 RMK
     AO2 SLP122 60000 T02220211 55004 TSNO=
METAR KJEF 080853Z AUTO 31003KT 10SM -RA FEW005 SCT041 SCT070 24/23 
    A3002 RMK AO2 SLP151 P0001 60020 T02390228 58006=
METAR KJER 080853Z AUTO 05012KT 10SM CLR 16/M03 A3012 RMK AO2 SLP162 
    T01561033 53006=
METAR KJKL 080853Z AUTO 00000KT 5SM HZ CLR 23/19 A3010 RMK AO2 
    SLP174 T02280194 56006=
METAR KJLN 080853Z 13004KT 2 1/2SM RA BR SCT005 SCT014 OVC026 23/23 
    A3004 RMK AO2 RAB27 SLP160 P0014 60014 T02280228 58005=
METAR KLAA 080853Z AUTO 05003KT 10SM FEW019 BKN029 OVC036 17/17 
    A3026 RMK AO2 RAB22E40 SLP203 P0000 60001 T01720167 51005=
METAR KLAN 080853Z 00000KT 7SM SCT110 24/22 A3003 RMK AO2 SLP161 
    T02390217 56008 $=
METAR KLAR 080853Z AUTO 29004KT 7SM FEW003 SCT017 08/07 A3039 RMK 
    AO2 SLP218 T00780072 53003=
METAR KLAW 080853Z AUTO 02006KT 10SM CLR 23/22 A3003 RMK AO2 SLP158 
    T02330222 53002=
METAR KLBF 080853Z AUTO 00000KT 10SM BKN065 OVC080 17/16 A3024 RMK 
    AO2 SLP225 T01670156 58001=
METAR KLEB 080853Z AUTO 00000KT 1SM BR VV001 21/19 A3005 RMK AO2 
    SLP160 T02110194 53002=
METAR KLEE 080853Z AUTO 04004KT 10SM CLR 22/21 A3000 RMK AO2 SLP159 
    T02220211 55008=
METAR KLGB 080853Z 33003KT 10SM OVC017 17/13 A2991 RMK AO2 SLP127 
    T01720128 58002=
METAR KLHQ 080853Z AUTO 00000KT 2SM BR CLR 19/19 A3008 RMK AO2 
    SLP178 T01940189 57001=
METAR KLHX 080853Z AUTO 33007KT 10SM -RA BKN041 OVC080 16/14 A3029 
    RMK AO2 SLP211 6//// T01560139 57005 PNO $=
METAR KLNS 080853Z AUTO 00000KT 5SM HZ CLR 24/21 A3002 RMK AO2 
    SLP160 T02390206 55002=
METAR KLOL 080853Z AUTO 06010KT 10SM CLR 23/M04 A2998 RMK AO2 SLP102 
    T02331044 53008=
METAR KLOU 080853Z AUTO 00000KT 6SM HZ CLR 24/21 A3005 RMK AO2 
    SLP169 T02440211 56005=
METAR KLOZ 080853Z AUTO 00000KT 3SM BR CLR 20/19 A3009 RMK AO2 
    SLP175 T02000189 56006=
####018000121####
SAUS44 KLCH 080854
MTRP92
METAR KP92 080853Z AUTO 00000KT 26/24 A2997 RMK AO2 SLP149 T02560244 
56003 PWINO TSNO
####018000119####
SAUS45 KRIW 080854
MTRLND
METAR KLND 080853Z AUTO 27004KT 10SM CLR 11/03 A3032 RMK AO2 SLP222 
T01060028 53006
####018002947####
SAUS20 KNKA 080854
METAR KEMP 080853Z AUTO 04004KT 6SM BR OVC005 22/21 A3007 RMK AO2 
    SLP174 T02170206 58002=
METAR KENW 080853Z AUTO 18003KT 10SM -RA SCT060 BKN070 BKN090 23/21 
    A3002 RMK AO2 RAE04B24E34B50 SLPNO P0000 60005 T02280211 58007 $=
METAR KEVW 080853Z AUTO 08009KT 10SM SCT110 12/03 A3030 RMK AO2 
    SLP178 T01170028 53011 TSNO=
METAR KEWB 080853Z AUTO 13005KT 4SM BR OVC002 22/21 A3006 RMK AO2 
    SLP179 T02220211 53005=
METAR KEYE 080853Z AUTO 00000KT 8SM SCT110 24/21 A3005 RMK AO2 
    SLP165 T02440206 56008=
METAR KEYW 080853Z AUTO 07004KT 10SM CLR 28/25 A2992 RMK AO2 LTG 
    DSNT E SLP132 T02780250 56009=
METAR KFAT 080853Z 31007KT 10SM CLR 23/08 A2981 RMK AO2 SLP092 
    T02280083 50002=
METAR KFCM 080853Z AUTO 31003KT 10SM CLR 18/16 A3007 RMK AO2 SLP178 
    T01830161 50002=
METAR KFDY 080853Z AUTO 19003KT 8SM CLR 22/19 A3005 RMK AO2 SLP164 
    T02220189 56005=
METAR KFFT 080853Z AUTO 00000KT 4SM BR CLR 22/20 A3007 RMK AO2 
    SLP171 T02170200 56005=
METAR KFLD 080853Z AUTO 26004KT 10SM -RA FEW080 SCT120 22/21 A2999 
    RMK AO2 SLP150 P0001 60006 T02170206 55015=
METAR KFLL 080853Z 07006KT 10SM FEW020 28/24 A2991 RMK AO2 SLP129 
    T02780239 56010=
METAR KFLO 080853Z AUTO 30005KT 10SM SCT095 26/19 A2994 RMK AO2 
    SLP134 T02610189 57007=
METAR KFMY 080853Z AUTO 05005KT 10SM CLR 24/22 A2995 RMK AO2 SLP142 
    T02390222 56014=
METAR KFNB 080853Z AUTO 34003KT 9SM BKN023 BKN035 22/21 A3008 RMK 
    AO2 SLP176 T02220206 55001=
METAR KFNT 080853Z AUTO 00000KT 8SM CLR 23/21 A3003 RMK AO2 SLP161 
    T02280206 56009=
METAR KFOE 080853Z AUTO 34008KT 10SM BKN090 OVC110 22/20 A3006 RMK 
    AO2 SLP167 60033 T02220200 58007=
METAR KFOK 080853Z AUTO 00000KT 5SM BR SCT003 OVC012 24/22 A3005 RMK 
    AO2 SLP176 T02390217 51003 TSNO=
METAR KFPR 080853Z AUTO 00000KT 10SM CLR 23/22 A2996 RMK AO2 SLP143 
    T02280217 55010=
METAR KFRG 080853Z AUTO 00000KT 5SM BR SCT009 BKN013 OVC100 26/24 
    A3002 RMK AO2 SLP166 T02560244 53000=
METAR KFTW 080853Z 14008KT 10SM FEW014 25/23 A2998 RMK AO2 SLP143 
    T02500233 55003=
METAR KFUL 080853Z 00000KT 10SM OVC017 17/12 A2990 RMK AO2 SLP124 
    T01720122 58003=
METAR KFVE 080853Z AUTO 20005KT 3SM BR CLR 22/22 A3000 RMK AO2 
    SLP149 T02170217 55003=
METAR KFWN 080853Z AUTO 00000KT 2 1/2SM BR CLR 21/21 A3003 RMK AO2 
    SLP166 T02060206 50000=
METAR KGAG 080853Z AUTO 05007KT 10SM -RA FEW030 21/19 A3012 RMK AO2 
    LTG DSNT W RAB46 SLP174 P0000 60000 T02110194 50001=
METAR KGCC 080853Z AUTO 00000KT 10SM CLR 11/07 A3028 RMK AO2 SLP227 
    T01060067 58000=
METAR KGEY 080853Z AUTO 11004KT 10SM CLR 12/03 A3025 RMK AO2 SLP220 
    T01220028 51006=
METAR KGEZ 080853Z AUTO 00000KT 5SM BR CLR 21/19 A3004 RMK AO2 
    SLP165 T02110194 56008=
METAR KGFK 080853Z 25005KT 10SM CLR 15/13 A3003 RMK AO2 SLP168 
    T01500128 55001=
####018002969####
SAUS20 KNKA 080854
METAR KBHK 080853Z AUTO 00000KT 10SM SCT090 11/08 A3021 RMK AO2 
    SLP219 T01110083 50001=
METAR KBIL 080853Z 00000KT 10SM CLR 16/06 A3023 RMK AO2 SLP215 
    T01560056 53002=
METAR KBIV 080853Z AUTO 00000KT 7SM FEW001 SCT044 BKN110 24/22 A3005 
    RMK AO2 RAE04B32E51 SLP169 P0008 60017 T02390222 51001=
METAR KBKL 080853Z 16003KT 7SM CLR 25/19 A3004 RMK AO2 SLP168 
    T02500189 56003=
METAR KBMG 080853Z AUTO 00000KT 5SM BR CLR 22/21 A3005 RMK AO2 
    SLP167 T02170211 56006=
METAR KBOI 080853Z 12005KT 10SM CLR 20/07 A3005 RMK AO2 SLP145 
    T02000067 53008=
METAR KBPI 080853Z AUTO 29004KT 10SM CLR 08/02 A3039 RMK AO2 SLP214 
    T00830022 53009=
METAR KBRD 080853Z AUTO 20004KT 10SM CLR 14/12 A3007 RMK AO2 SLP181 
    T01440122 58001=
METAR KBRL 080853Z AUTO 10SM FEW001 22/22 A3002 RMK AO2 SLP158 
    T02220217 56004 $=
METAR KBTL 080853Z AUTO 00000KT 9SM FEW060 23/21 A3005 RMK AO2 
    SLP168 T02280206 55006=
METAR KBTM 080853Z AUTO 00000KT 10SM CLR 07/01 A3031 RMK AO2 SLP229 
    T00720011 53004=
METAR KBUR 080853Z 17003KT 8SM OVC009 16/13 A2991 RMK AO2 SLP117 
    T01560128 58002=
METAR KBVO 080853Z AUTO 00000KT 10SM BKN050 BKN085 22/22 A3004 RMK 
    AO2 SLP160 T02220217 55007=
METAR KBVY 080853Z 16004KT 9SM OVC013 22/20 A3006 RMK AO2 SLP173 
    6//// T02220200 53003 PNO=
METAR KBYG 080853Z AUTO 00000KT 10SM CLR 12/04 A3031 RMK AO2 SLP227 
    T01220044 58001=
METAR KBYI 080853Z AUTO 02007KT 10SM CLR 11/03 A3012 RMK AO2 SLP165 
    T01110033 53008=
METAR KCAG 080853Z AUTO 06012KT 10SM CLR 13/07 A3029 RMK AO2 SLP185 
    T01280067 50000=
METAR KCAK 080851Z 00000KT 8SM CLR 22/17 A3009 RMK AO2 SLP177
     T02220172 56005=
METAR KCDC 080853Z AUTO 20003KT 10SM CLR 14/00 A3013 RMK AO2 SLP125 
    T01390000 51001 $=
METAR KCDR 080853Z AUTO 27004KT 10SM CLR 10/09 A3027 RMK AO2 SLP247 
    T01000089 50003=
METAR KCDW 080853Z AUTO 00000KT 6SM HZ CLR 24/21 A3002 RMK AO2 
    SLP170 T02390211 53000 TSNO=
METAR KCEZ 080853Z AUTO 00000KT 10SM CLR 19/06 A3022 RMK AO2 SLP145 
    T01890056 53013=
METAR KCGI 080853Z AUTO 00000KT 8SM CLR 24/23 A3003 RMK AO2 SLP163 
    T02440233 56005 TSNO=
METAR KCKB 080853Z AUTO 00000KT 3SM BR CLR 19/18 A3009 RMK AO2 
    SLP172 T01940183 56004=
METAR KCMI 080853Z AUTO 00000KT 5SM BR FEW050 SCT075 BKN110 23/22 
    A3004 RMK AO2 RAB21E32 SLP163 P0000 60000 T02330222 56007=
METAR KCMX 080853Z AUTO 32004KT 9SM FEW002 SCT016 BKN060 18/18 A2998 
    RMK AO2 SLP147 T01830178 50001=
METAR KCNO 080853Z 27005KT 4SM BR FEW013 14/12 A2992 RMK AO2 SLP127 
    T01390117 58001=
METAR KCNY 080853Z AUTO 05009KT 10SM CLR 22/04 A3010 RMK AO2 WSHFT 
    0801 SLP126 T02220044 53014=
METAR KCPR 080853Z AUTO 00000KT 10SM CLR 04/04 A3034 RMK AO2 SLP241 
    T00440039 53005=
METAR KCPS 080853Z AUTO 00000KT 10SM SCT046 OVC080 25/22 A3002 RMK 
    AO2 SLP162 T02500222 56005=
####018000119####
SAUS44 KSHV 080854
MTRDNK
METAR KDNK 080853Z AUTO 11003KT 10SM CLR 24/22 A3000 RMK AO2 SLP156 
T02390217 53001
####018000079####
SADL41 EGRR 080850
METAR ETUO 080850Z 18007KT CAVOK 27/12 Q1020 BLU NOSIG=
####018000081####
SAMJ41 LWSK 080900
METAR LWSK 080900Z 35010KT 9999 BKN050 17/10 Q1020 NOSIG=
####018000075####
SAYE20 OYAS 080900
METAR OYAS 080900Z 18006KT 5000 DU NSC 34/24 Q1006=
####018000135####
SAIY41 LIIB 080800 CCA
METAR LIMT 080755Z /////KT 5000 BR SCT006 13/11 Q1024 RMK SCT MON CLD
      SCT VAL FOSCHIA VIS MIN 5000=
####018003685####
SAUS99 KWBC 080855
METAR
KCOT 080853Z AUTO 05007KT 10SM FEW014 BKN043 25/23 A2989 RMK AO2
     SLP113 T02500228 58006=
KCSV 080853Z AUTO 00000KT 8SM CLR 21/17 A3013 RMK AO2 SLP177
     T02110172 56005=
KCXO 080853Z VRB03KT 9SM FEW007 24/23 A2994 RMK AO2 SLP135
     T02390233 58004=
KDAN 080853Z AUTO 00000KT 5SM HZ CLR 23/19 A3000 RMK AO2 SLP144
     T02280189 56003=
KDCU 080853Z AUTO 36003KT 10SM CLR 23/21 A3006 RMK AO2 SLP170
     T02330211 58005=
KDEW 080853Z AUTO 01008KT 10SM CLR 16/07 A3007 RMK AO2 SLP169
     T01610072 53003=
KDHT 080853Z AUTO 36012KT 10SM -RA SCT030 BKN037 OVC080 17/14
     A3026 RMK AO2 PK WND 01027/0810 WSHFT 0804 RAB27 SLP196 P0000
     60000 T01670144 51010=
KDLS 080853Z AUTO 11005KT 10SM CLR 18/05 A2994 RMK AO2 SLP138
     T01780050 51012=
KDNL 080853Z AUTO 28003KT 10SM CLR 27/18 A3001 RMK AO2 SLP154
     T02670178 56010=
KDRT 080853Z AUTO 08003KT 10SM CLR 24/22 A2993 RMK AO2 SLP117
     T02390222 55002=
KDUA 080859Z AUTO 16005KT 10SM CLR 25/23 A3002 RMK AO2=
KDVO 080850Z AUTO 00000KT 10SM BKN010 12/11 A2993 RMK AO2=
KDWH 080853Z 07006KT 7SM CLR 24/24 A2993 RMK AO2 SLP133 T02440239
     56004=
KEET 080853Z AUTO 00000KT 6SM HZ SCT080 24/22 A3003 RMK AO2 SLP161
     T02440217 56005=
KELN 080853Z AUTO 32003KT 10SM CLR 16/07 A3004 RMK AO2 SLPNO
     T01560067 53003 $=
KEPH 080853Z AUTO 33007KT 10SM CLR 21/05 A3000 RMK AO2 SLP148
     T02110050 53001=
KEQY 080853Z AUTO 34004KT 10SM CLR 24/18 A2999 RMK AO2 SLP149
     T02440178 56007=
KESF 080853Z AUTO 00000KT 7SM FEW013 23/22 A3001 RMK AO2 SLP160
     T02280222 55002=
KFAY 080853Z AUTO 34003KT 10SM CLR 27/17 A2992 RMK AO2 SLP125
     T02670172 56006=
KFET 080851Z AUTO 33003KT 10SM CLR 18/17 A3014 RMK AO2=
KFFC 080853Z AUTO 00000KT 8SM CLR 21/19 A3004 RMK AO2 SLP163
     T02060189 56006=
KFHR 080853Z AUTO 00000KT 10SM CLR 14/11 A2997 RMK AO2 SLP148
     T01440111 53008=
KFMN 080853Z AUTO 07010KT 10SM CLR 21/06 A3019 RMK AO2 SLP155
     T02060056 51003=
KFSM 080853Z AUTO 02003KT 10SM OVC034 24/22 A3002 RMK AO2 SLP160
     T02440222 58001=
KFST 080853Z AUTO 12004KT 10SM BKN110 22/19 A3006 RMK AO2 SLP130
     T02170194 56004=
KFTY 080853Z 00000KT 9SM CLR 21/18 A3003 RMK AO2 SLP159 T02060183
     56007=
KFYV 080853Z AUTO 00000KT 10SM FEW036 22/21 A3006 RMK AO2 SLP164
     T02220211 56003=
KGEG 080853Z 00000KT 10SM CLR 18/08 A3007 RMK AO2 SLP164 T01780083
     53004=
KGLH 080853Z AUTO 00000KT 7SM CLR 22/22 A3004 RMK AO2 SLP176
     T02220217 56003=
KGMU 080853Z AUTO 00000KT 10SM CLR 26/19 A3003 RMK AO2 SLP154
     T02610189 56008=
KGPT 080853Z AUTO 00000KT 8SM CLR 26/24 A3000 RMK AO2 SLP159
     T02560239 55006=
KPMV 080850Z AUTO 32006KT 10SM CLR 20/19 A3011 RMK AO2
     T01970188=
KACV 080853Z AUTO 00000KT 5SM BR OVC001 10/10 A2996 RMK AO2 SLP151
     T01000100 56001=
KADH 080851Z AUTO 00000KT 5SM BR SCT002 SCT006 BKN025 23/22 A3002
     RMK AO2=
KAEX 080853Z AUTO 00000KT 10SM CLR 24/23 A2999 RMK AO2 SLP159
     T02440228 55001=
KAGS 080853Z AUTO 00000KT 10SM CLR 24/19 A2998 RMK AO2 SLP150
     T02440189 56011 TSNO=
KALI 080853Z AUTO 01007KT 10SM FEW036 BKN048 BKN095 26/24 A2983
     RMK AO2 SLP099 60000 T02560244 58012=
KAMA 080853Z 02005KT 1SM -RA SCT020 SCT080 OVC110 17/16 A3018 RMK
     AO2 SFC VIS 9 SLP170 P0009 60093 T01720161 56007 $=
KANB 080853Z AUTO 00000KT 9SM CLR 22/21 A3004 RMK AO2 SLP160
     T02220206 56006=
KAOO 080853Z AUTO 00000KT 4SM BR CLR 19/17 A3010 RMK AO2 SLP181
     T01890167 53000=
KARA 080853Z AUTO 08005KT 8SM CLR 24/24 A2999 RMK AO2 SLP154
     T02440239 58005=
####018003688####
SAUS99 KWBC 080855 RRB
METAR
KMMH 080850Z AUTO 26007KT 10SM CLR 12/02 A3021 RMK AO1=
KMMV 080853Z AUTO 25003KT 10SM CLR 16/12 A2988 RMK AO2 SLP115
     T01610122 53011=
KMOD 080853Z AUTO 35006KT 10SM CLR 18/10 A2984 RMK AO2 SLP103
     T01780100 51008=
KMRB 080853Z AUTO 00000KT 5SM HZ CLR 23/18 A3002 RMK AO2 SLP160
     T02280183 56001=
KMSL 080853Z AUTO 00000KT 10SM FEW065 23/22 A3007 RMK AO2 SLP175
     T02280217 55002=
KMSY 080853Z 00000KT 10SM FEW016 SCT250 27/23 A3000 RMK AO2 SLP161
     T02670233 55002=
KNEW 080853Z AUTO 12003KT 10SM FEW015 27/25 A3000 RMK AO2 SLP152
     T02720250 55004 TSNO=
KOAK 080853Z 29009KT 10SM OVC011 15/11 A2994 RMK AO2 SLP137
     T01500111 50002=
KOGA 080850Z AUTO 00000KT 5SM BR CLR 16/15 A3027 RMK AO2
     T01550145=
KONL 080850Z AUTO 26003KT 10SM SCT090 OVC110 16/15 A3021 RMK AO2
     T01600145=
KOVE 080853Z AUTO 16010KT 10SM CLR 21/13 A2984 RMK AO2 SLP103
     T02110128 53008 TSNO=
KOXB 080853Z AUTO 08004KT 9SM -RA FEW090 BKN110 24/24 A2999 RMK
     AO2 RAB00E10B44 SLP154 P0000 60000 T02440239 56001 $=
KPAE 080853Z AUTO 02003KT 10SM CLR 20/12 A2997 RMK AO2 SLP145
     T02000117 53005=
KPAH 080853Z AUTO 00000KT 10SM CLR 23/22 A3003 RMK AO2 SLP165
     T02330217 56004=
KPBF 080853Z AUTO 00000KT 7SM CLR 24/23 A3005 RMK AO2 SLP171
     T02390228 57000=
KPDK 080853Z AUTO 00000KT 10SM CLR 22/19 A3004 RMK AO2 SLP149
     T02220189 58009=
KPDT 080853Z AUTO 16008KT 10SM CLR 18/08 A2997 RMK AO2 SLP130
     T01780078 53004=
KGSP 080853Z AUTO 00000KT 10SM CLR 24/19 A3001 RMK AO2 SLP146
     T02390189 56008=
KGUP 080853Z AUTO 09003KT 10SM BKN110 18/06 A3025 RMK AO2 SLP045
     T01830061 53004=
KGVL 080853Z AUTO 32004KT 10SM CLR 24/21 A3007 RMK AO2 SLP163
     T02390206 56010=
KGWO 080853Z AUTO 00000KT 10SM CLR 22/22 A3005 RMK AO2 SLP173
     T02220222 55001=
KHBG 080853Z AUTO 00000KT 8SM CLR 24/23 A3002 RMK AO2 SLP163
     T02390233 56009=
KHDE 080850Z AUTO 00000KT 10SM CLR 16/14 A3020 RMK AO2
     T01560141=
KHGR 080853Z AUTO 32004KT 7SM CLR 24/17 A3003 RMK AO2 SLP169
     T02440167 55000=
KHIO 080853Z AUTO 00000KT 10SM CLR 17/13 A2988 RMK AO2 SLP113
     T01670128 53008=
KHJH 080850Z AUTO 01004KT 10SM OVC023 19/18 A3015 RMK AO2
     T01930177=
KHKA 080853Z AUTO 23004KT 7SM CLR 26/22 A3005 RMK AO2 SLP173
     T02560222 50003=
KHKS 080853Z AUTO 00000KT 10SM CLR 24/23 A3005 RMK AO2 SLP165
     T02390228 55005=
KHKY 080853Z AUTO 34004KT 10SM CLR 23/17 A3004 RMK AO2 SLP146
     T02280167 55004 $=
KHLG 080853Z AUTO 00000KT 5SM HZ CLR 22/19 A3009 RMK AO2 SLP179
     T02170189 56004=
KHOT 080853Z AUTO 00000KT 10SM OVC010 24/23 A3005 RMK AO2 SLP168
     T02440228 50000=
KHOU 080853Z 10007KT 10SM FEW030 BKN130 BKN250 27/23 A2991 RMK AO2
     SLP131 60000 T02720233 58007=
KHQM 080853Z AUTO 00000KT 10SM 18/13 A2992 RMK AO2 SLP135
     T01830133 53011 $=
KHRI 080853Z AUTO 00000KT 10SM CLR 18/07 A2993 RMK AO2 SLP130
     T01780067 53007=
KHRO 080853Z AUTO 16003KT 4SM BR FEW090 22/21 A3006 RMK AO2 SLP163
     T02220211 58006=
KHSV 080853Z 00000KT 10SM CLR 24/23 A3005 RMK AO2 SLP167 T02440228
     56005=
KIAH 080853Z 05006KT 8SM FEW020 SCT035 BKN130 26/24 A2993 RMK AO2
     SLP134 T02560244 56006=
KIBM 080850Z AUTO 14003KT 10SM OVC018 13/12 A3032 RMK AO2
     T01250115=
KILM 080853Z AUTO 28005KT 10SM CLR 26/19 A2989 RMK AO2 SLP123
     T02560194 56012=
KJBR 080853Z AUTO 00000KT 10SM CLR 25/23 A3004 RMK AO2 SLP170
     T02500228 50000 $=
KJYR 080850Z AUTO 35003KT 10SM CLR 16/15 A3016 RMK AO2=
KL35 080852Z AUTO 00000KT 10SM CLR 07/M05 A3018 RMK AO2=
####018003696####
SAUS99 KWBC 080855 RRF
METAR
KFRG 080853Z AUTO 00000KT 5SM BR SCT009 BKN013 OVC100 26/24 A3002
     RMK AO2 SLP166 T02560244 53000=
KFTW 080853Z 14008KT 10SM FEW014 25/23 A2998 RMK AO2 SLP143
     T02500233 55003=
KFUL 080853Z 00000KT 10SM OVC017 17/12 A2990 RMK AO2 SLP124
     T01720122 58003=
KFVE 080853Z AUTO 20005KT 3SM BR CLR 22/22 A3000 RMK AO2 SLP149
     T02170217 55003=
KFWN 080853Z AUTO 00000KT 2 1/2SM BR CLR 21/21 A3003 RMK AO2
     SLP166 T02060206 50000=
KGAG 080853Z AUTO 05007KT 10SM -RA FEW030 21/19 A3012 RMK AO2 LTG
     DSNT W RAB46 SLP174 P0000 60000 T02110194 50001=
KGCC 080853Z AUTO 00000KT 10SM CLR 11/07 A3028 RMK AO2 SLP227
     T01060067 58000=
KGEY 080853Z AUTO 11004KT 10SM CLR 12/03 A3025 RMK AO2 SLP220
     T01220028 51006=
KGEZ 080853Z AUTO 00000KT 5SM BR CLR 21/19 A3004 RMK AO2 SLP165
     T02110194 56008=
KGFK 080853Z 25005KT 10SM CLR 15/13 A3003 RMK AO2 SLP168 T01500128
     55001=
KCRE 080853Z AUTO 32005KT 10SM CLR 27/20 A2991 RMK AO2 SLP130
     T02670200 56008=
KCRP 080851Z 03013G19KT 3SM +TSRA BR FEW010 BKN018CB OVC047 26/25
     A2983 RMK AO2 TSB16 SLP098 OCNL LTGIC NW-N TS NW-N MOV W
     P0006 60020 T02610250 56015=
KCRQ 080853Z AUTO 27003KT 9SM OVC009 17/14 A2989 RMK AO2 CIG
     006V011 SLP121 T01670139 58006=
KCUB 080853Z AUTO 00000KT 10SM CLR 24/19 A2999 RMK AO2 SLP151
     T02440189 56008=
KCYS 080853Z AUTO 11004KT 6SM BR OVC004 12/12 A3036 RMK AO2 CIG
     003V008 SLP233 60000 T01170117 51001 TSNO=
KDAG 080853Z AUTO 25008KT 10SM CLR 25/00 A2985 RMK AO2 SLP077
     T02500000 51005 TSNO $=
KDAL 080853Z 16007KT 10SM FEW014 OVC230 26/23 A2999 RMK AO2 SLP147
     T02610228 58002=
KDBQ 080853Z AUTO 00000KT 7SM CLR 20/19 A3003 RMK AO2 SLP163 60000
     T02000194 55008=
KDEN 080853Z 16005KT 4SM BR BKN024 BKN100 14/14 A3032 RMK AO2
     SLP213 T01440139 56005 $=
KDEQ 080853Z AUTO 00000KT 10SM BKN006 OVC011 24/23 A3002 RMK AO2
     CIG 005V009 SLP159 T02440233 55001=
KDET 080853Z 00000KT 9SM CLR 25/21 A3003 RMK AO2 SLP161 T02500211
     56005 $=
KDFI 080853Z AUTO 00000KT 7SM CLR 22/19 A3005 RMK AO2 SLP170
     T02170189 56003=
KDFW 080853Z 15005KT 10SM SCT019 SCT090 BKN220 26/23 A2998 RMK AO2
     SLP144 T02560228 58002=
KDGW 080853Z AUTO 00000KT 10SM CLR 06/06 A3033 RMK AO2 SLP242
     T00610056 53001 $=
KDKK 080853Z AUTO 00000KT 9SM BKN090 21/18 A3006 RMK AO2 SLP173
     T02060183 55004=
KDLN 080853Z AUTO 20009KT 10SM CLR 08/03 A3028 RMK AO2 SLP217
     T00780033 53007=
KDMN 080853Z AUTO 05012G19KT 10SM -RA SCT060 21/13 A3012 RMK AO2
     RAB14 SLP115 P0000 60000 T02110133 50007=
KDMO 080853Z AUTO 31003KT 10SM FEW003 SCT040 24/22 A3004 RMK AO2
     RAE29 SLP164 P0000 60000 T02390222 58003=
KDRO 080853Z AUTO 02003KT 10SM CLR 14/05 A3030 RMK AO2 SLP165
     60000 T01440050 51003=
KDTN 080853Z AUTO 00000KT 10SM CLR 24/24 A3001 RMK AO2 SLP161
     T02440239 53002=
KDTS 080853Z AUTO 00000KT 9SM CLR 24/23 A3000 RMK AO2 SLP158
     T02440233 56008=
KDTW 080853Z 22004KT 5SM HZ FEW150 24/21 A3003 RMK AO2 SLP162
     T02390206 56005=
KDVT 080853Z 00000KT 10SM CLR 28/01 A2978 RMK AO2 SLP055 T02780006
     51005=
KDXR 080853Z AUTO 00000KT 5SM BR BKN090 23/22 A3005 RMK AO2 SLP171
     T02280217 52001=
KECP 080853Z AUTO 29003KT 5SM BR CLR 23/23 A3001 RMK AO2 SLP171
     T02280228 56008=
KEEO 080853Z AUTO 10SM FEW120 14/06 A3026 RMK AO2 SLP162 6////
     T01390061 58009 PNO $=
KELD 080853Z AUTO 00000KT 1/2SM FG VV001 23/23 A3003 RMK AO2
     SLP165 T02280228 53001=
KELM 080853Z AUTO 00000KT 1 1/4SM BR CLR 17/16 A3008 RMK AO2
     SLP178 T01720161 50002=
####018003692####
SAUS99 KWBC 080855 RRA
METAR
KASD 080853Z AUTO 00000KT 9SM CLR 25/24 A3000 RMK AO2 SLP157
     T02500239 56007=
KAWM 080853Z AUTO 00000KT 10SM CLR 23/22 A3005 RMK AO2 SLP170
     T02330222 53001=
KBFD 080853Z AUTO 00000KT 5SM BR CLR 16/16 A3014 RMK AO2 SLP189
     T01610156 56003=
KBFM 080853Z 00000KT 8SM CLR 24/23 A3003 RMK AO2 SLP167 T02390228
     55007=
KBHM 080853Z 00000KT 9SM CLR 24/22 A3005 RMK AO2 SLP167 T02440222
     56007=
KBKE 080853Z AUTO 24004KT 10SM CLR 09/07 A3011 RMK AO2 SLP176
     T00890067 53007=
KBLI 080853Z AUTO 00000KT 10SM CLR 16/14 A2996 RMK AO2 SLP150
     T01560139 53008=
KBMQ 080853Z AUTO 00000KT 10SM BKN047 BKN065 23/22 A3001 RMK AO2
     SLP140 T02330217 56004 $=
KBNA 080853Z 00000KT 10SM BKN085 25/22 A3007 RMK AO2 SLP172
     T02500217 56005=
KBPK 080853Z AUTO 00000KT 10SM CLR 23/22 A3005 RMK AO2 SLP163
     T02280217 55001=
KBPT 080853Z 09011KT 10SM FEW024 26/24 A2994 RMK AO2 SLP137
     T02610244 58005 $=
KBRO 080853Z 33005KT 10SM FEW016 SCT022 27/26 A2977 RMK AO2
     RAB08E46 SLP080 P0001 60001 T02670256 56012=
KBVN 080850Z AUTO 32003KT 10SM BKN090 16/15 A3018 RMK AO2
     T01600150=
KBWG 080853Z AUTO 00000KT 10SM SCT080 23/21 A3006 RMK AO2 SLP173
     T02330211 56004=
KCCR 080853Z AUTO 25007KT 10SM CLR 13/10 A2991 RMK AO2 SLP115
     T01330100 51006=
KCEW 080853Z AUTO 00000KT 6SM BR CLR 21/21 A3003 RMK AO2 SLP166
     T02110211 56006=
KCHO 080853Z AUTO 00000KT 4SM HZ SCT095 23/20 A3001 RMK AO2 SLP152
     T02330200 56002 TSNO=
KCLL 080853Z 06005KT 10SM CLR 26/23 A2995 RMK AO2 SLP136 T02560228
     58004=
KCLM 080853Z AUTO A2997 RMK AO2 SLPNO 6//// 52003 PWINO FZRANO
     $=
KCNM 080853Z AUTO 00000KT 5SM RA BR OVC007 20/19 A3012 RMK AO2 CIG
     005V010 SLP145 P0011 60018 T02000189 51004=
KUTS 080853Z AUTO 00000KT 7SM CLR 24/23 A2997 RMK AO2 SLP143
     T02440233 56004=
KVCB 080853Z AUTO 23011G17KT 10SM CLR 19/10 A2981 RMK AO2 SLP093
     T01890100 50004=
KVPC 080853Z AUTO 00000KT 7SM CLR 20/19 A3005 RMK AO2 SLP160
     T02000189 56005=
KVUO 080853Z AUTO 00000KT 10SM CLR 17/14 A2987 RMK AO2 SLP115
     T01720139 51009=
KWVI 080853Z AUTO 00000KT 10SM OVC009 13/11 A2993 RMK AO2 SLP135
     T01280106 55002=
KXNA 080853Z 19004KT 10SM BKN030 23/22 A3006 RMK AO2 SLP163 60001
     T02280217 56004=
KYKM 080853Z AUTO 28007KT 10SM CLR 14/07 A3000 RMK AO2 SLP154
     T01440072 51008=
KLLQ 080853Z AUTO 00000KT 7SM CLR 23/22 A3005 RMK AO2 SLP173
     T02280222 58001=
KLMT 080853Z AUTO 21004KT 10SM FEW090 19/10 A3004 RMK AO2 SLP122
     T01940100 55009=
KLVJ 080853Z AUTO 10005KT 10SM FEW032 27/23 A2992 RMK AO2 SLP130
     T02720233 58007=
KLVK 080853Z AUTO 30009KT 10SM CLR 13/11 A2991 RMK AO2 SLP124
     T01280106 51005=
KLVS 080853Z AUTO 04005KT 10SM CLR 11/09 A3036 RMK AO2 SLP204
     T01110089 56004 TSNO=
KLXN 080850Z AUTO 00000KT 10SM BKN049 16/15 A3022 RMK AO2
     T01600152=
KMAE 080853Z AUTO 29006KT 10SM CLR 19/12 A2982 RMK AO2 SLP095
     T01890117 50002=
KMCB 080853Z AUTO 06003KT 8SM CLR 23/22 A3003 RMK AO2 SLP164
     T02330222 56006=
KMCE 080853Z AUTO 28005KT 10SM CLR 17/11 A2982 RMK AO2 SLP097
     T01720106 51003=
KMEM 080853Z 00000KT 10SM FEW250 25/22 A3006 RMK AO2 SLP175
     T02500222 53001=
KMFE 080853Z AUTO 36007KT 10SM SCT006 SCT017 26/24 A2980 RMK AO2
     SLP089 T02610244 56011=
KMGW 080853Z AUTO 00000KT 4SM BR CLR 20/18 A3010 RMK AO2 SLP180
     T02000183 56005=
KMKL 080853Z AUTO 00000KT 10SM CLR 22/21 A3007 RMK AO2 SLP176
     T02220211 53002=
KMLE 080850Z AUTO 34003KT 10SM SCT025 20/17 A3011 RMK AO2
     T02000168=
####018003662####
SAUS99 KWBC 080855 RRC
METAR
KLCG 080850Z AUTO 00000KT 10SM CLR 15/15 A3016 RMK AO2
     T01540145=
KLBX 080853Z AUTO 09006KT 10SM FEW029 BKN038 BKN050 28/24 A2988
     RMK AO2 RAE0754 SLP117 60001 T02780244 58011=
KLCH 080853Z AUTO 08006KT 10SM CLR 26/23 A2997 RMK AO2 SLP155
     T02560233 55004=
KLFK 080853Z AUTO 10005KT 10SM CLR 24/23 A2999 RMK AO2 SLP150
     T02440233 50002=
KLFT 080853Z AUTO 07003KT 10SM CLR 25/23 A2999 RMK AO2 SLP153
     T02500233 58006=
KLHM 080851Z AUTO 16008KT 10SM CLR 18/11 A2982 RMK AO1
     T01770111=
KLIT 080853Z 00000KT 7SM CLR BKN150 24/23 A3005 RMK AO2 SLP175
     T02440228 50004=
KPDX 080853Z 00000KT 10SM CLR 21/15 A2988 RMK AO2 SLP117 T02060150
     51009=
KPNA 080850Z AUTO 30005KT 10SM CLR 06/02 A3039 RMK AO2
     T00620017=
KPQL 080853Z AUTO 00000KT 6SM BR CLR 24/23 A3001 RMK AO2 SLP163
     T02390233 55003=
KPRB 080853Z AUTO 30003KT 10SM CLR 13/11 A2990 RMK AO2 SLP122
     T01280106 52000=
KPSC 080853Z AUTO 35003KT 10SM CLR 16/11 A2995 RMK AO2 SLP139
     T01560111 51009=
KPSX 080853Z AUTO 10007KT 9SM CLR 27/26 A2986 RMK AO2 RAE33 SLP110
     P0005 60017 T02720256 56009=
KPTT 080850Z AUTO 36005KT 7SM CLR 19/18 A3014 RMK AO2=
KRDD 080853Z AUTO 01004KT 10SM CLR 24/15 A2983 RMK AO2 SLP094
     T02440150 52010=
KRKP 080853Z AUTO 11011KT 10SM CLR 28/26 A2982 RMK AO2 SLP098
     60002 T02780256 56015=
KRMG 080853Z AUTO 00000KT 9SM CLR 21/19 A3003 RMK AO2 SLP159
     T02110189 56003=
KRNT 080853Z AUTO 12003KT 10SM CLR 19/14 A2994 RMK AO2 SLP143
     T01940144 53009=
KRUE 080853Z AUTO 00000KT 10SM BKN019 24/23 A3005 RMK AO2 SLP167
     T02390228 51000=
KRWI 080853Z AUTO 00000KT 6SM HZ CLR 24/21 A2994 RMK AO2 SLP137
     T02390206 55005=
KSAC 080853Z 18005KT 10SM CLR 14/10 A2983 RMK AO2 SLP102 T01440100
     51001=
KSAF 080853Z AUTO 00000KT 10SM SCT110 15/11 A3032 RMK AO2 SLP187
     T01500106 51003=
KSAT 080853Z 06005KT 7SM -RA BKN014 BKN040 BKN250 26/23 A2995 RMK
     AO2 RAB44 SLP122 P0000 60000 T02560233 55005=
KSDL 080853Z 00000KT 10SM CLR 30/08 A2979 RMK AO2 SLP058 T03000078
     51004=
KSFF 080853Z AUTO 00000KT 10SM CLR 14/09 A3006 RMK AO2 SLP165
     T01440094 53004=
KSIY 080853Z AUTO 14005KT 10SM CLR 22/08 A2994 RMK AO2 SLP119
     T02170083 55001 $=
KSJC 080853Z AUTO 35003KT 10SM OVC015 15/11 A2992 RMK AO2 SLP131
     T01500111 50002=
KSNS 080853Z AUTO 26005KT 10SM OVC011 13/11 A2993 RMK AO2 SLP143
     T01280106 58002=
KSOW 080850Z AUTO 07005KT 10SM FEW039 SCT100 23/02 A3024 RMK
     AO2=
KSRE 080850Z AUTO 00000KT 3SM BR 24/24 A3002 RMK AO2 LTG DSNT
     NE=
KSSF 080853Z AUTO 05005KT 10SM OVC013 26/23 A2992 RMK AO2 SLP118
     T02610233 56006=
KSUN 080851Z AUTO 33010G15KT 10SM CLR 12/02 A3023 RMK AO2=
KSZT 080850Z AUTO 00000KT 10SM CLR 11/08 A3010 RMK AO2=
KTCL 080853Z AUTO 00000KT 5SM BR CLR 24/23 A3003 RMK AO2 SLP168
     T02440228 55004=
KTOI 080853Z AUTO 00000KT 10SM FEW070 22/22 A3003 RMK AO2 SLP163
     T02220217 56006=
KTTD 080853Z AUTO 00000KT 10SM CLR 18/13 A2986 RMK AO2 SLP111
     T01780133 51010=
KTUS 080853Z 23006KT 10SM CLR 31/07 A2988 RMK AO2 SLP060 T03060072
     53000=
KTVL 080853Z AUTO 00000KT 10SM CLR 12/06 A3016 RMK AO2 SLP150
     T01170061 55000=
KTVR 080853Z AUTO 07003KT 9SM CLR 24/22 A3002 RMK AO2 SLP173
     T02390222 55002 $=
KABI 080852Z 12005KT 10SM CLR 22/21 A3004 RMK AO2 SLP143 T02170211
     55005 $=
KABR 080853Z AUTO 21003KT 10SM CLR 15/14 A3012 RMK AO2 SLP195
     T01500139 50003=
KABY 080853Z 00000KT 10SM CLR 22/20 A3003 RMK AO2 SLP168 T02170200
     57005=
####018003716####
SAUS99 KWBC 080855 RRE
METAR
KBTM 080853Z AUTO 00000KT 10SM CLR 07/01 A3031 RMK AO2 SLP229
     T00720011 53004=
KBUR 080853Z 17003KT 8SM OVC009 16/13 A2991 RMK AO2 SLP117
     T01560128 58002=
KBVO 080853Z AUTO 00000KT 10SM BKN050 BKN085 22/22 A3004 RMK AO2
     SLP160 T02220217 55007=
KBVY 080853Z 16004KT 9SM OVC013 22/20 A3006 RMK AO2 SLP173 6////
     T02220200 53003 PNO=
KBYG 080853Z AUTO 00000KT 10SM CLR 12/04 A3031 RMK AO2 SLP227
     T01220044 58001=
KBYI 080853Z AUTO 02007KT 10SM CLR 11/03 A3012 RMK AO2 SLP165
     T01110033 53008=
KCAG 080853Z AUTO 06012KT 10SM CLR 13/07 A3029 RMK AO2 SLP185
     T01280067 50000=
KCAK 080851Z 00000KT 8SM CLR 22/17 A3009 RMK AO2 SLP177 T02220172
     56005=
KCDC 080853Z AUTO 20003KT 10SM CLR 14/00 A3013 RMK AO2 SLP125
     T01390000 51001 $=
KCDR 080853Z AUTO 27004KT 10SM CLR 10/09 A3027 RMK AO2 SLP247
     T01000089 50003=
KCDW 080853Z AUTO 00000KT 6SM HZ CLR 24/21 A3002 RMK AO2 SLP170
     T02390211 53000 TSNO=
KCEZ 080853Z AUTO 00000KT 10SM CLR 19/06 A3022 RMK AO2 SLP145
     T01890056 53013=
KCGI 080853Z AUTO 00000KT 8SM CLR 24/23 A3003 RMK AO2 SLP163
     T02440233 56005 TSNO=
KCKB 080853Z AUTO 00000KT 3SM BR CLR 19/18 A3009 RMK AO2 SLP172
     T01940183 56004=
KCMI 080853Z AUTO 00000KT 5SM BR FEW050 SCT075 BKN110 23/22 A3004
     RMK AO2 RAB21E32 SLP163 P0000 60000 T02330222 56007=
KCMX 080853Z AUTO 32004KT 9SM FEW002 SCT016 BKN060 18/18 A2998 RMK
     AO2 SLP147 T01830178 50001=
KCNO 080853Z 27005KT 4SM BR FEW013 14/12 A2992 RMK AO2 SLP127
     T01390117 58001=
KCNY 080853Z AUTO 05009KT 10SM CLR 22/04 A3010 RMK AO2 WSHFT 0801
     SLP126 T02220044 53014=
KCPR 080853Z AUTO 00000KT 10SM CLR 04/04 A3034 RMK AO2 SLP241
     T00440039 53005=
KCPS 080853Z AUTO 00000KT 10SM SCT046 OVC080 25/22 A3002 RMK AO2
     SLP162 T02500222 56005=
KEMP 080853Z AUTO 04004KT 6SM BR OVC005 22/21 A3007 RMK AO2 SLP174
     T02170206 58002=
KENW 080853Z AUTO 18003KT 10SM -RA SCT060 BKN070 BKN090 23/21
     A3002 RMK AO2 RAE04B24E34B50 SLPNO P0000 60005 T02280211
     58007 $=
KEVW 080853Z AUTO 08009KT 10SM SCT110 12/03 A3030 RMK AO2 SLP178
     T01170028 53011 TSNO=
KEWB 080853Z AUTO 13005KT 4SM BR OVC002 22/21 A3006 RMK AO2 SLP179
     T02220211 53005=
KEYE 080853Z AUTO 00000KT 8SM SCT110 24/21 A3005 RMK AO2 SLP165
     T02440206 56008=
KEYW 080853Z AUTO 07004KT 10SM CLR 28/25 A2992 RMK AO2 LTG DSNT E
     SLP132 T02780250 56009=
KFAT 080853Z 31007KT 10SM CLR 23/08 A2981 RMK AO2 SLP092 T02280083
     50002=
KFCM 080853Z AUTO 31003KT 10SM CLR 18/16 A3007 RMK AO2 SLP178
     T01830161 50002=
KFDY 080853Z AUTO 19003KT 8SM CLR 22/19 A3005 RMK AO2 SLP164
     T02220189 56005=
KFFT 080853Z AUTO 00000KT 4SM BR CLR 22/20 A3007 RMK AO2 SLP171
     T02170200 56005=
KFLD 080853Z AUTO 26004KT 10SM -RA FEW080 SCT120 22/21 A2999 RMK
     AO2 SLP150 P0001 60006 T02170206 55015=
KFLL 080853Z 07006KT 10SM FEW020 28/24 A2991 RMK AO2 SLP129
     T02780239 56010=
KFLO 080853Z AUTO 30005KT 10SM SCT095 26/19 A2994 RMK AO2 SLP134
     T02610189 57007=
KFMY 080853Z AUTO 05005KT 10SM CLR 24/22 A2995 RMK AO2 SLP142
     T02390222 56014=
KFNB 080853Z AUTO 34003KT 9SM BKN023 BKN035 22/21 A3008 RMK AO2
     SLP176 T02220206 55001=
KFNT 080853Z AUTO 00000KT 8SM CLR 23/21 A3003 RMK AO2 SLP161
     T02280206 56009=
KFOE 080853Z AUTO 34008KT 10SM BKN090 OVC110 22/20 A3006 RMK AO2
     SLP167 60033 T02220200 58007=
KFOK 080853Z AUTO 00000KT 5SM BR SCT003 OVC012 24/22 A3005 RMK AO2
     SLP176 T02390217 51003 TSNO=
KFPR 080853Z AUTO 00000KT 10SM CLR 23/22 A2996 RMK AO2 SLP143
     T02280217 55010=
####018001893####
SAUS99 KWBC 080855 RRH
METAR
KJCT 080851Z AUTO 00000KT 9SM SCT017 SCT025 22/21 A3001 RMK AO2
     SLP122 60000 T02220211 55004 TSNO=
KJEF 080853Z AUTO 31003KT 10SM -RA FEW005 SCT041 SCT070 24/23
     A3002 RMK AO2 SLP151 P0001 60020 T02390228 58006=
KJER 080853Z AUTO 05012KT 10SM CLR 16/M03 A3012 RMK AO2 SLP162
     T01561033 53006=
KJKL 080853Z AUTO 00000KT 5SM HZ CLR 23/19 A3010 RMK AO2 SLP174
     T02280194 56006=
KJLN 080853Z 13004KT 2 1/2SM RA BR SCT005 SCT014 OVC026 23/23
     A3004 RMK AO2 RAB27 SLP160 P0014 60014 T02280228 58005=
KLAA 080853Z AUTO 05003KT 10SM FEW019 BKN029 OVC036 17/17 A3026
     RMK AO2 RAB22E40 SLP203 P0000 60001 T01720167 51005=
KLAN 080853Z 00000KT 7SM SCT110 24/22 A3003 RMK AO2 SLP161
     T02390217 56008 $=
KLAR 080853Z AUTO 29004KT 7SM FEW003 SCT017 08/07 A3039 RMK AO2
     SLP218 T00780072 53003=
KLAW 080853Z AUTO 02006KT 10SM CLR 23/22 A3003 RMK AO2 SLP158
     T02330222 53002=
KLBF 080853Z AUTO 00000KT 10SM BKN065 OVC080 17/16 A3024 RMK AO2
     SLP225 T01670156 58001=
KLEB 080853Z AUTO 00000KT 1SM BR VV001 21/19 A3005 RMK AO2 SLP160
     T02110194 53002=
KLEE 080853Z AUTO 04004KT 10SM CLR 22/21 A3000 RMK AO2 SLP159
     T02220211 55008=
KLGB 080853Z 33003KT 10SM OVC017 17/13 A2991 RMK AO2 SLP127
     T01720128 58002=
KLHQ 080853Z AUTO 00000KT 2SM BR CLR 19/19 A3008 RMK AO2 SLP178
     T01940189 57001=
KLHX 080853Z AUTO 33007KT 10SM -RA BKN041 OVC080 16/14 A3029 RMK
     AO2 SLP211 6//// T01560139 57005 PNO $=
KLNS 080853Z AUTO 00000KT 5SM HZ CLR 24/21 A3002 RMK AO2 SLP160
     T02390206 55002=
KLOL 080853Z AUTO 06010KT 10SM CLR 23/M04 A2998 RMK AO2 SLP102
     T02331044 53008=
KLOU 080853Z AUTO 00000KT 6SM HZ CLR 24/21 A3005 RMK AO2 SLP169
     T02440211 56005=
KLOZ 080853Z AUTO 00000KT 3SM BR CLR 20/19 A3009 RMK AO2 SLP175
     T02000189 56006=
####018003703####
SAUS99 KWBC 080855 RRD
METAR
KACK 080853Z AUTO 10004KT 9SM CLR 18/18 A3008 RMK AO2 SLP184
     T01830183 53002 TSNO=
KADG 080853Z AUTO 00000KT 7SM CLR 22/19 A3005 RMK AO2 SLP170
     T02170194 56005=
KAGC 080853Z 00000KT 4SM HZ CLR 23/19 A3008 RMK AO2 SLP178
     T02330194 56003=
KAIA 080853Z AUTO 00000KT 10SM FEW027 SCT075 OVC095 16/14 A3028
     RMK AO2 SLP224 T01560144 58003 $=
KAKO 080853Z AUTO 15007KT 7SM OVC006 14/14 A3031 RMK AO2 CIG
     003V009 SLP227 T01440139 58001 TSNO=
KALW 080853Z AUTO 11006KT 10SM CLR 17/08 A2996 RMK AO2 SLP139
     T01670078 51004=
KAMG 080853Z AUTO 00000KT 10SM CLR 22/19 A3000 RMK AO2 SLP157
     T02170194 58008=
KAMW 080853Z AUTO 34008KT 9SM CLR 21/19 A3008 RMK AO2 SLP178
     T02060189 53001=
KAOH 080853Z AUTO 18003KT 7SM 23/19 A3007 RMK AO2 SLP172 T02280194
     56004 $=
KAPA 080853Z 17003KT 7SM FEW007 OVC027 13/12 A3035 RMK AO2 SLP237
     T01330122 58004 $=
KAPF 080853Z AUTO 04005KT 10SM CLR 25/23 A2995 RMK AO2 SLP139
     T02500228 56014=
KARB 080853Z AUTO 00000KT 3SM BR CLR 20/19 A3003 RMK AO2 SLP163
     T02000189 56006=
KASE 080853Z 33004KT 5SM -RA BR SCT032 OVC060 08/07 A3047 RMK AO2
     RAB25 SLP211 P0006 60006 T00780072 53021=
KASX 080853Z AUTO 00000KT 10SM BKN060 16/16 A3002 RMK AO2 SLP164
     T01610156 53001=
KATY 080853Z AUTO 23007KT 10SM CLR 16/13 A3014 RMK AO2 SLP203
     T01560133 51003=
KAUG 080853Z AUTO 00000KT 7SM OVC007 21/19 A3008 RMK AO2 SLP183
     T02060194 53001=
KAXN 080853Z AUTO 22005KT 10SM CLR 16/14 A3011 RMK AO2 SLP196
     T01560144 55000=
KAZO 080853Z AUTO 00000KT 5SM BR CLR 23/21 A3004 RMK AO2 SLP165
     T02280206 56008 $=
KBAF 080853Z 17003KT 9SM SCT075 OVC110 24/21 A3003 RMK AO2 SLP165
     T02390211 53001=
KBBW 080853Z AUTO 00000KT 10SM OVC070 17/16 A3022 RMK AO2 SLP220
     T01670161 55002=
KBCE 080853Z AUTO 26004KT 10SM OVC100 10/02 A3031 RMK AO2 SLP152
     T01000022 53004 TSNO=
KBDE 080853Z AUTO 00000KT 10SM CLR 15/13 A2999 RMK AO2 SLP154
     T01500128 55005=
KBEH 080853Z AUTO 00000KT 5SM BR FEW055 23/22 A3004 RMK AO2 SLP166
     T02330222 53001 $=
KBFF 080853Z AUTO 00000KT 10SM OVC085 16/14 A3029 RMK AO2 SLP230
     T01560139 55001=
KBFI 080853Z 00000KT 10SM CLR 21/12 A2994 RMK AO2 SLP138 T02110117
     51007=
KBGM 080853Z AUTO 03003KT 5SM HZ CLR 22/18 A3012 RMK AO2 SLP183
     T02220183 53001=
KBGR 080853Z 19006KT 3SM BR OVC003 20/19 A3007 RMK AO2 RAE08
     SLP178 P0000 60004 T02000194 55001=
PATA 080852Z AUTO 00000KT 10SM CLR 13/07 A3005 RMK AO2 SLP177
     T01330067 402280050 51005 TSNO=
PAWR 080848Z 15005KT 8SM -RA OVC030 12/11 A3007 RMK SLP183
     NOSPECI=
PHJR 080853Z 06003KT 10SM FEW055 23/18 A3006 RMK AO2 SLP184
     T02330183 53009=
KBHK 080853Z AUTO 00000KT 10SM SCT090 11/08 A3021 RMK AO2 SLP219
     T01110083 50001=
KBIL 080853Z 00000KT 10SM CLR 16/06 A3023 RMK AO2 SLP215 T01560056
     53002=
KBIV 080853Z AUTO 00000KT 7SM FEW001 SCT044 BKN110 24/22 A3005 RMK
     AO2 RAE04B32E51 SLP169 P0008 60017 T02390222 51001=
KBKL 080853Z 16003KT 7SM CLR 25/19 A3004 RMK AO2 SLP168 T02500189
     56003=
KBMG 080853Z AUTO 00000KT 5SM BR CLR 22/21 A3005 RMK AO2 SLP167
     T02170211 56006=
KBOI 080853Z 12005KT 10SM CLR 20/07 A3005 RMK AO2 SLP145 T02000067
     53008=
KBPI 080853Z AUTO 29004KT 10SM CLR 08/02 A3039 RMK AO2 SLP214
     T00830022 53009=
KBRD 080853Z AUTO 20004KT 10SM CLR 14/12 A3007 RMK AO2 SLP181
     T01440122 58001=
KBRL 080853Z AUTO 10SM FEW001 22/22 A3002 RMK AO2 SLP158 T02220217
     56004 $=
KBTL 080853Z AUTO 00000KT 9SM FEW060 23/21 A3005 RMK AO2 SLP168
     T02280206 55006=
####018003716####
SAUS99 KWBC 080855 RRG
METAR
KGFL 080853Z AUTO 00000KT 1/2SM FG FEW100 20/20 A3002 RMK AO2
     SLP162 T02000200 53004=
KGGW 080853Z AUTO 28003KT 10SM BKN090 12/09 A3013 RMK AO2 SLP200
     T01220094 55003 TSNO=
KGIF 080853Z AUTO 01003KT 10SM CLR 23/21 A2999 RMK AO2 SLP154
     T02280211 56012 TSNO=
KGJT 080853Z AUTO 10009KT 10SM CLR 21/06 A3016 RMK AO2 SLP134
     T02110056 55001=
KGKJ 080853Z AUTO 00000KT 7SM CLR 21/18 A3010 RMK AO2 SLP180
     T02110178 55004=
KGLD 080853Z AUTO 03004KT 10SM OVC037 17/16 A3028 RMK AO2 SLP220
     T01720161 50003=
KGLR 080853Z AUTO 22006KT 10SM SCT100 22/19 A3001 RMK AO2 SLP153
     T02170194 56013=
KGRB 080853Z AUTO 00000KT 4SM BR CLR 21/19 A2996 RMK AO2 SLP143
     60003 T02060194 55010=
KGRI 080853Z AUTO 32006KT 10SM CLR 15/14 A3019 RMK AO2 SLP213
     T01500139 55003=
KGRR 080853Z AUTO 00000KT 5SM BR BKN070 OVC085 24/22 A3004 RMK AO2
     RAE49 SLP164 P0016 60027 T02390217 50000=
KGSH 080853Z AUTO 00000KT 6SM BR CLR 22/20 A3005 RMK AO2 SLP167
     T02220200 56007=
KGTF 080853Z 00000KT 10SM CLR 08/06 A3023 RMK AO2 SLP224 T00830056
     51004 $=
KGUY 080853Z AUTO 14004KT 6SM -RA BR BKN012 BKN019 OVC024 19/18
     A3021 RMK AO2 LTG DSNT E TSB00E15RAB22 SLP185 P0003 60003
     T01940178 53007=
KGZH 080853Z AUTO 00000KT 7SM CLR 22/22 A3003 RMK AO2 SLP165
     T02220217 56007=
KHAO 080853Z AUTO 00000KT 1 3/4SM BR CLR 21/19 A3007 RMK AO2
     SLP177 T02060194 56003=
KHEI 080853Z AUTO 00000KT 10SM CLR 10/08 A3018 RMK AO2 SLP214
     T01000078 58001=
KHFD 080853Z AUTO 00000KT 5SM HZ FEW070 24/22 A3003 RMK AO2
     RAB19E34 SLP167 P0000 60000 T02440217 53000=
KHHR 080853Z AUTO 25006KT 10SM OVC014 17/13 A2991 RMK AO2 SLP127
     T01720133 58002=
KHIB 080853Z AUTO 00000KT 1/2SM FG OVC001 09/09 A3005 RMK AO2
     SLP176 T00940089 58003=
KHJO 080853Z AUTO 32007KT 10SM CLR 22/12 A2981 RMK AO2 SLP095
     T02220122 50003=
KHLC 080853Z AUTO 36007KT 10SM OVC024 18/16 A3020 RMK AO2 SLP210
     T01780161 51006=
KHLN 080853Z AUTO 28004KT 10SM CLR 12/04 A3024 RMK AO2 SLP235
     T01170044 53007=
KHSI 080853Z AUTO 35005KT 10SM CLR 16/14 A3018 RMK AO2 SLP210
     T01560144 53000=
KHUF 080853Z 13003KT 7SM FEW060 SCT070 BKN110 24/22 A3004 RMK AO2
     SLP165 T02390217 56006 $=
KHUL 080853Z AUTO 20006KT 5SM BR CLR 21/18 A3002 RMK AO2 SLP162
     T02060183 53007=
KHVN 080853Z AUTO 10005KT 2SM HZ OVC002 24/23 A3003 RMK AO2 SLP169
     T02440228 57001=
KHVR 080853Z AUTO 00000KT 10SM CLR 11/09 A3019 RMK AO2 SLP215
     T01060089 53002=
KHWO 080853Z AUTO 07003KT 10SM CLR 25/24 A2994 RMK AO2 SLP138
     T02500239 56010=
KHYR 080853Z AUTO 00000KT 10SM FEW048 18/16 A3004 RMK AO2 SLP167
     60000 T01780161 52002=
KHZY 080853Z AUTO 00000KT 3SM BR CLR 19/19 A3008 RMK AO2 SLP177
     P0001 60001 T01940194 56004=
KIAG 080853Z AUTO 21003KT 6SM BR CLR 23/21 A3004 RMK AO2 SLP163
     T02330211 55004=
KICR 080853Z AUTO 24005KT 10SM CLR 17/12 A3021 RMK AO2 SLP219
     T01720122 53001 TSNO=
KICT 080853Z 05003KT 10SM SCT080 OVC200 22/20 A3008 RMK AO2 SLP173
     T02220200 55002 $=
KIDA 080853Z AUTO 35008KT 10SM CLR 09/06 A3018 RMK AO2 SLP189
     T00940056 53005=
KIML 080853Z AUTO 00000KT 10SM CLR 17/14 A3026 RMK AO2 SLP230
     T01670144 58003=
KIPL 080853Z AUTO 15004KT 10SM CLR 27/08 A2968 RMK AO2 SLP050
     T02720083 52004=
KITR 080853Z AUTO 03004KT 10SM FEW005 OVC030 17/15 A3029 RMK AO2
     SLP217 T01670150 58004=
KIWI 080853Z AUTO 00000KT 9SM BKN003 OVC007 20/19 A3009 RMK AO2
     SLP187 T02000189 52002=
KIXD 080853Z AUTO 33008KT 7SM OVC004 22/21 A3007 RMK AO2 SLP171
     T02220206 58001=
####018000068####
SABZ21 SBAR 080900
METAR SBAR 080900Z 23004KT CAVOK 22/22 Q1016=
####018000519####
SASN33 ESWI 080850
METAR ESNG 080850Z 15009KT CAVOK 20/09 Q1014=
METAR ESNK 080850Z AUTO 15010KT 9999NDV NCD 21/13 Q1012=
METAR ESNN 080850Z 14008KT 9999 FEW023 21/12 Q1013=
METAR ESNO 080850Z AUTO 14012KT 9999NDV FEW086/// 20/12 Q1014=
METAR ESNQ 080850Z 21006KT 9999 FEW031 16/10 Q1013 RERA REDZ=
METAR ESNS 080850Z 17008KT 140V200 CAVOK 21/10 Q1015=
METAR ESNU 080850Z 12008KT CAVOK 20/12 Q1015=
METAR ESNZ 080850Z 18008KT CAVOK 17/11 Q1012=
METAR ESUT 080850Z AUTO 13008KT 9999NDV OVC130/// 18/11 Q1010=
####018000088####
SAZA42 FAJS 080900
METAR FAJS 080900Z 07011KT 040V110 9999 SCT012 13/07 Q1037 NOSIG=
####018000475####
SASN32 ESWI 080850
METAR ESKN 080850Z 31010KT 270V350 CAVOK 23/11 Q1018=
METAR ESOE 080850Z NIL=
METAR ESOK 080850Z 20009KT 9999 BKN025 19/13 Q1017=
METAR ESOW 080850Z 23010KT 200V260 CAVOK 21/12 Q1017=
METAR ESSA 080850Z 24010KT CAVOK 22/12 Q1017 NOSIG=
METAR ESSB 080850Z 27009KT CAVOK 23/11 Q1017=
METAR ESSD 080850Z AUTO 25010KT 9999NDV BKN030/// 19/12 Q1016=
METAR ESSP 080850Z 25012KT CAVOK 21/11 Q1018=
METAR ESSV 080850Z 30006KT 260V330 CAVOK 20/12 Q1019=
####018000184####
SASN34 ESWI 080850
METAR ESDF 080850Z 23005KT 110V360 CAVOK 22/11 Q1021=
METAR ESPA 080850Z 14011KT CAVOK 18/14 Q1016=
METAR ESSL 080850Z 25010KT 220V300 9999 BKN041 22/11 Q1019=
####018000124####
SAUS41 KAKQ 080854
MTRNUI
METAR KNUI 080853Z AUTO 00000KT 5SM BR FEW011 25/24 A2997 RMK AO2 
SLP149 T02500239 53002
####018000366####
SAFI32 EFHK 080850
EFHA 080850Z 36002KT 9999 SCT008 BKN070 BKN200 19/17 Q1016=
EFHF 080850Z VRB05KT 9999 SCT034 26/18 Q1014=
EFKA 080850Z VRB01KT 9999 FEW022 BKN200 22/16 Q1016=
EFKK 080850Z 17004KT 080V240 CAVOK 22/11 Q1015=
EFMA 080850Z 27003KT CAVOK 21/11 Q1016=
EFPO 080850Z VRB02KT CAVOK 23/10 Q1016=
EFSI 080850Z AUTO VRB03KT 9999 FEW036 23/14 Q1015=
####018000114####
SAUS42 KTAE 080854
MTRTLH
METAR KTLH 080853Z 09004KT 10SM CLR 23/22 A3001 RMK AO2 SLP160 
T02280217 55008
####018000489####
SAUK35 EGGY 080850
METAR EGHH 080850Z 03003KT 9999 SCT009 BKN014 17/16 Q1019=
METAR EGKA 080850Z 23006KT 9999 SCT017 20/17 Q1019=
METAR EGKB 080850Z 21004KT 160V280 9999 BKN014 19/15 Q1019 =
METAR EGLF 080850Z 31007KT 5000 -DZ BKN006 17/15 Q1019=
METAR EGMC 080850Z 25007KT 9999 FEW018 20/16 Q1019=
METAR EGMD 080850Z 28010KT 9999 FEW006 BKN011 20/16 Q1020=
METAR EGMH 080850Z 26008KT 230V290 9999 FEW014 21/16 Q1019 =
METAR EGTC 080850Z 27008KT 220V300 9999 FEW015 17/11 Q1018=
####018000476####
SAUK31 EGGY 080850
METAR EGBB 080850Z 22007KT 190V290 CAVOK 17/10 Q1018=
METAR EGCC 080850Z 21010KT 9999 FEW021 17/12 Q1017=
METAR EGKK 080850Z 20004KT 140V240 9999 SCT016 20/15 Q1019=
METAR EGLL 080850Z 30006KT 9999 FEW005 BKN011 17/15 Q1019=
METAR EGPF 080850Z 22015KT 9999 FEW020 SCT030 15/10 Q1013=
METAR EGPH 080850Z 24014KT 9999 FEW028 15/09 Q1012=
METAR EGPK 080850Z 22015KT 9999 SCT025 16/10 Q1013=
METAR EGSS 080850Z 24005KT 9999 FEW006 BKN013 16/15 Q1019=
####018000096####
SAQB31 LQSM 080900
METAR LQSA 080900Z 30006KT 250V340 9999 FEW040 BKN050 19/11 Q1023
NOSIG=
####018000133####
SAIY41 LIIB 080800 CCA
METAR LIMT 080755Z /////KT 5000 BR SCT006 13/11 Q1024 RMK SCT MON CLD
      SCT VAL FOSCHIA VIS MIN 5000=
####018000123####
SAUS44 KMRX 080854
MTROQT
METAR KOQT 080853Z AUTO 00000KT 8SM CLR 22/20 A3008 RMK AO2 SLP166 
T02220200 56003 TSNO
####018000459####
SASN35 ESWI 080850
METAR ESGL 080850Z AUTO 22011KT 9999NDV FEW035/// OVC043/// 21/14 
Q1018=
METAR ESGR 080850Z AUTO 20009KT 9999NDV BKN041/// OVC160/// 20/14
Q1018=
METAR ESKM 080850Z NIL=
METAR ESNL 080850Z 14012KT 9999 FEW040 OVC079 19/11 Q1013=
METAR ESNX 080850Z AUTO 16013KT 9999NDV BKN070/// 18/11 Q1014=
METAR ESNY 080850Z AUTO 18007KT 150V210 9999 SKC 23/15 Q1014=
METAR ESSF 080850Z NIL=
METAR ESSK 080850Z NIL=
METAR ESUD 080850Z NIL=
####018000124####
SAUS44 KLIX 080854
MTRMSY
METAR KMSY 080853Z 00000KT 10SM FEW016 SCT250 27/23 A3000 RMK AO2 
SLP161 T02670233 55002
####018000295####
SASW32 LSSW 080850
METAR LSGC 080850Z 26007KT 200V300 CAVOK 22/11 Q1024=
METAR LSGS 080850Z 23003KT 170V290 CAVOK 26/12 Q1022=
METAR LSZG 080850Z NIL=
METAR LSZR 080850Z 28004KT CAVOK 21/15 Q1022 NOSIG RMK F=
METAR LSZS 080850Z NIL=
METAR LSZC 080850Z 09004KT 040V140 CAVOK 22/15 Q1022=
####018000537####
SAUK34 EGGY 080850
METAR EGHD 080850Z 15003KT 9999 FEW022 18/13 Q1019=
METAR EGHE 080850Z 19006KT 9999 FEW018 18/13 Q1018=
METAR COR EGHK 080850Z 15004KT 9999 FEW020 17/15 Q1018 NOSIG=
METAR EGHQ 080850Z NIL=
METAR EGJA 080850Z 19003KT 9999 3000SE VCFG FEW001 BKN015 17/16
    Q1020=
METAR EGJB 080850Z 25004KT 210V300 9999 FEW002 BKN006 17/16
    Q1020=
METAR EGJJ 080850Z 00000KT 9999 FEW011 19/17 Q1019 NOSIG=
METAR EGTE 080850Z 10003KT 9999 FEW020 19/14 Q1018=
METAR EGTG 080850Z 25005KT 9999 SCT018 SCT027 17/13 Q1019=
####018000324####
SAGL31 BGSF 080850
METAR BGSF 080850Z 07007KT 030V100 9999 BKN060 09/02 Q1009=
METAR BGBW 080850Z 27003KT 9999 FEW070 10/05 Q1009 RMK 2AC =
METAR BGGH 080850Z 27003KT 9999 OVC003 04/03 Q1010=
METAR BGJN 080850Z AUTO 36003KT 1000NDV  FG VV001/// 06/05 Q1010=
METAR BGKK 080850Z VRB02KT 9999 FEW130 BKN160 07/03 Q1008=
####018000068####
SABZ20 SBRB 080900
METAR SBRB 080900Z 00000KT CAVOK 23/23 Q1011=
####018000087####
SPCN31 KWBC 080855
SPECI
CYQX 080850Z 15008KT 15SM BKN004 OVC029 10/ RMK SF7SC1=
####018000078####
SAGY31 SYCJ 080700
METAR SYCJ 080700Z 00000KT 9000 FEW016 24/24 Q1011 NOSIG=####018002954####
SAUS20 KNKA 080854
METAR KMSP 080853Z 29003KT 10SM FEW090 18/17 A3007 RMK AO2 SLP179 
    T01830167 52002=
METAR KMSS 080853Z AUTO 22003KT 6SM BR CLR 23/21 A3001 RMK AO2 
    SLP157 T02280206 53001=
METAR KMTH 080853Z AUTO 36005KT 10SM BKN021 BKN036 A2991 RMK AO2 LTG 
    DSNT SW SLP129 55007 FZRANO $=
METAR KMTJ 080853Z AUTO 12004KT 10SM CLR 16/06 A3027 RMK AO2 SLP175 
    T01610056 53007=
METAR KMTO 080853Z AUTO 21003KT 10SM SCT120 25/23 A3003 RMK AO2 
    SLP162 T02500228 56006=
METAR KMVY 080853Z AUTO 14008KT 1/4SM R24/2000V2800FT FG VV001 21/19 
    A3007 RMK AO2 SLP181 T02110194 53002=
METAR KMYF 080853Z AUTO 33006KT 10SM OVC015 16/14 A2990 RMK AO2 
    SLP122 T01610139 58007 TSNO=
METAR KMYV 080853Z AUTO 17006KT 10SM CLR 18/12 A2982 RMK AO2 SLP101 
    T01780117 53007=
METAR KODX 080853Z AUTO 31005KT 10SM OVC080 16/14 A3019 RMK AO2 
    SLP220 T01610144 55002=
METAR KOGB 080853Z AUTO 32005KT 10SM CLR 24/19 A2998 RMK AO2 SLP148 
    T02440189 56009=
METAR KOGD 080853Z 17008KT 10SM CLR 20/06 A3009 RMK AO2 SLP131 
    T02000061 53008=
METAR KOJC 080853Z AUTO 34007KT 6SM BR OVC004 23/22 A3005 RMK AO2 
    SLP164 T02280222 58004=
METAR KOLF 080853Z AUTO 27003KT 10SM CLR 10/08 A3014 RMK AO2 SLP203 
    T01000083 56002=
METAR KOMK 080853Z AUTO 00000KT 10SM CLR 14/08 A3005 RMK AO2 SLP170 
    T01390078 53009=
METAR KONO 080853Z AUTO 25003KT 10SM CLR 13/06 A3003 RMK AO2 SLP159 
    T01330061 53008=
METAR KONT 080853Z 24004KT 6SM BR OVC010 15/13 A2990 RMK AO2 SLP116 
    T01500128 58002=
METAR KOPF 080853Z AUTO 04003KT 10SM FEW020 27/24 A2993 RMK AO2 
    SLP135 T02670244 55010=
METAR KORF 080851Z 09003KT 6SM BR CLR 26/24 A2995 RMK AO2 SLP141
     T02560239 57001=
METAR KORL 080853Z AUTO 00000KT 10SM CLR 23/22 A2999 RMK AO2 SLP158 
    T02330217 55008=
METAR KOSH 080853Z AUTO 22003KT 9SM FEW006 22/21 A2997 RMK AO2 
    SLP137 P0001 60006 T02170206 55014=
METAR KOSU 080853Z AUTO 00000KT 7SM CLR 22/19 A3007 RMK AO2 SLP175 
    T02170189 58003=
METAR KOTM 080853Z AUTO 32004KT 5SM BR CLR 21/20 A3004 RMK AO2 
    SLP167 T02060200 55004=
METAR KOVS 080853Z AUTO 00000KT 10SM OVC006 21/20 A3001 RMK AO2 
    SLP157 T02110200 56009=
METAR KOWD 080853Z AUTO 00000KT 10SM CLR 22/18 A3006 RMK AO2 SLP177 
    T02170183 53002=
METAR KPBG 080853Z AUTO 00000KT 6SM BR CLR 22/21 A2999 RMK AO2 
    RAB42E52 SLP155 P0000 60000 T02170206 55001=
METAR KPBI 080853Z 06004KT 10SM SCT023 BKN035 BKN250 28/24 A2992 RMK 
    AO2 SLP132 T02780239 55013=
METAR KPEO 080853Z AUTO 23003KT 4SM BR CLR 22/21 A3008 RMK AO2 
    SLP177 T02170206 56001=
METAR KPGA 080853Z AUTO 00000KT 10SM CLR 27/00 A3003 RMK AO2 SLP090 
    T02720000 53006=
METAR KPGD 080853Z AUTO 05003KT 10SM CLR 23/22 A2998 RMK AO2 SLP152 
    T02280222 56014 TSNO=
METAR KPHD 080853Z AUTO 00000KT 2SM BR CLR 19/17 A3009 RMK AO2 
    SLP181 T01940172 56003=
####018002962####
SAUS20 KNKA 080854
METAR KPIE 080853Z AUTO 10003KT 10SM CLR 24/21 A2998 RMK AO2 SLP150 
    T02440211 58012 TSNO=
METAR KPIH 080853Z AUTO 22006KT 10SM CLR 10/01 A3016 RMK AO2 SLP174 
    T01000011 53007=
METAR KPIR 080853Z AUTO 21005KT 10SM CLR 14/13 A3016 RMK AO2 SLP206 
    T01440128 53006=
METAR KPKB 080853Z AUTO 00000KT 3SM BR CLR 21/19 A3010 RMK AO2 
    SLP182 T02060194 57001 TSNO=
METAR KPKD 080853Z AUTO 22003KT 10SM CLR 14/13 A3007 RMK AO2 SLP182 
    T01390128 55001=
METAR KPMD 080853Z AUTO 19006KT 10SM CLR 18/04 A2990 RMK AO2 SLP096 
    T01830044 51000 TSNO $=
METAR KPMP 080853Z AUTO 07006KT 10SM SCT021 SCT034 28/24 A2992 RMK 
    AO2 SLP133 T02780244 56011=
METAR KPNC 080853Z AUTO 04003KT 9SM FEW038 BKN060 22/22 A3005 RMK 
    AO2 SLP162 T02220217 55007=
METAR KPNS 080853Z AUTO 00000KT 7SM CLR 24/23 A3001 RMK AO2 SLP164 
    T02390233 55006=
METAR KPOF 080853Z AUTO 00000KT 8SM FEW050 25/23 A3003 RMK AO2 
    SLP164 T02500233 56002 $=
METAR KPOU 080853Z 00000KT 6SM BR CLR 23/21 A3001 RMK AO2 SLP156 
    T02280211 55001=
METAR KPRC 080853Z AUTO 20004KT 10SM CLR 19/04 A3009 RMK AO2 
    RAB0754E04 SLP095 P0000 60000 T01940039 53003=
METAR KPSP 080853Z 30004KT 10SM CLR 27/10 A2973 RMK AO2 SLP061 
    T02670100 50006=
METAR KPTK 080853Z 00000KT 7SM SCT250 24/22 A3003 RMK AO2 SLP159 
    T02390217 56008=
METAR KPUB 080853Z AUTO 00000KT 10SM BKN038 OVC050 16/13 A3034 RMK 
    AO2 SLP218 T01560133 50004=
METAR KPUC 080853Z AUTO 31004KT 10SM CLR 16/02 A3021 RMK AO2 SLP145 
    T01610022 53008 TSNO=
METAR KPUW 080853Z AUTO 00000KT 10SM CLR 10/07 A3007 RMK AO2 SLP173 
    T01000067 53003=
METAR KPWA 080853Z 01005KT 8SM CLR 23/21 A3005 RMK AO2 SLP159 
    T02280211 53002=
METAR KRAC 080853Z AUTO 18003KT 7SM -RA BKN070 OVC085 23/22 A3002 
    RMK AO2 SLP161 P0001 60003 T02330217 58007=
METAR KRAL 080853Z AUTO 27003KT 5SM BR CLR 14/12 A2991 RMK AO2 
    SLP115 T01440122 58000=
METAR KRBD 080853Z 15004KT 10SM OVC012 25/23 A3000 RMK AO2 SLP147 
    T02500228 50000=
METAR KRBG 080853Z AUTO 00000KT 10SM CLR 19/13 A2991 RMK AO2 SLP124 
    T01940128 51015=
METAR KRHI 080853Z AUTO 28003KT 10SM CLR 18/18 A3002 RMK AO2 SLP160 
    T01830178 50001=
METAR KRIW 080853Z AUTO 36005KT 10SM CLR 11/04 A3033 RMK AO2 SLP225 
    T01060044 52004=
METAR KRSL 080853Z AUTO 36007KT 10SM OVC016 19/18 A3015 RMK AO2 
    SLP195 T01940183 53002=
METAR KRSW 080853Z 04004KT 10SM CLR 24/22 A2995 RMK AO2 SLP139 
    T02390222 56014=
METAR KRVS 080853Z 07004KT 2SM +RA BR OVC015 23/23 A3001 RMK AO2 LTG 
    DSNT ALQDS TSE42 SLP164 P0062 60168 T02280228 58003=
METAR KRWF 080853Z AUTO 30005KT 10SM CLR 16/14 A3011 RMK AO2 SLP193 
    T01560144 50002=
METAR KRWL 080853Z AUTO 05007KT 7SM CLR 08/07 A3037 RMK AO2 SLP223 
    T00780072 53002=
METAR KRXE 080853Z AUTO 07006KT 10SM CLR 10/06 A3020 RMK AO2 SLP192 
    T01000056 53004=
####018000209####
SACA01 KMSC 080854
METAR TISX 080853Z 08008KT 10SM CLR 27/24 A2996 RMK AO2 SLP145 
    T02720239 58005=
METAR TIST 080853Z AUTO 08005KT 10SM CLR 28/24 A2997 RMK AO2 SLP148 
    T02780244 56001 TSNO=
####018002932####
SAUS20 KNKA 080854
METAR KSAN 080851Z 32006KT 9SM FEW010 OVC015 16/14 A2991 RMK AO2
     SLP128 T01610144 58006=
METAR KSBA 080853Z 00000KT 9SM OVC019 12/11 A2991 RMK AO2 SLP127 
    T01220111 51000 $=
METAR KSBM 080853Z AUTO 17004KT 8SM OVC110 22/22 A2998 RMK AO2 
    RAE05B39E49 SLP148 P0001 60001 T02220217 56015=
METAR KSEA 080853Z 36007KT 10SM CLR 20/11 A2996 RMK AO2 SLP147 
    T02000106 53006 $=
METAR KSEG 080853Z AUTO 34004KT 6SM HZ CLR 22/17 A3004 RMK AO2 
    SLP167 T02220172 53002=
METAR KSHN 080853Z AUTO 00000KT 10SM CLR 13/11 A2993 RMK AO2 SLP132 
    T01280111 51007=
METAR KSHR 080853Z AUTO 33003KT 10SM CLR 08/06 A3026 RMK AO2 SLP231 
    T00830061 55001=
METAR KSLC 080853Z 16005KT 10SM FEW130 19/07 A3008 RMK AO2 SLP132 
    T01890072 51006=
METAR KSLN 080853Z AUTO 33006KT 5SM BR CLR 21/20 A3011 RMK AO2 
    SLP185 T02110200 53004=
METAR KSMF 080853Z 14011KT 10SM CLR 15/11 A2982 RMK AO2 SLP098 
    T01500106 53005=
METAR KSMQ 080853Z AUTO 00000KT 3SM BR CLR 22/21 A3000 RMK AO2 
    SLP156 T02170206 57001=
METAR KSNA 080853Z 34003KT 8SM OVC017 18/12 A2991 RMK AO2 SLP126 
    T01830122 58003=
METAR KSNY 080853Z AUTO 00000KT 10SM FEW055 16/14 A3031 RMK AO2 
    SLP232 T01610144 56003=
METAR KSPB 080853Z AUTO 00000KT 10SM 18/12 A2987 RMK AO2 SLP115 
    6//// T01830122 53007 $=
METAR KSPG 080853Z 09007KT 10SM CLR 27/22 A2996 RMK AO2 SLP145 
    T02670222 58012=
METAR KSPW 080853Z AUTO 32004KT 8SM CLR 16/14 A3013 RMK AO2 SLP200 
    T01560144 50001=
METAR KSRQ 080853Z 07005KT 10SM CLR 23/22 A2996 RMK AO2 SLP144 
    T02330217 58011=
METAR KSSI 080853Z AUTO 26005KT 10SM CLR 23/21 A2999 RMK AO2 SLP156 
    T02330211 56008=
METAR KSTC 080853Z AUTO 00000KT 2SM BR CLR 14/12 A3008 RMK AO2 VIS 1 
    1/4V4 SLP192 T01390122 53000=
METAR KSTJ 080853Z AUTO 28003KT 6SM BR FEW120 23/21 A3006 RMK AO2 
    SLP169 60001 T02280211 58004=
METAR KSTP 080853Z 32005KT 10SM CLR 19/17 A3006 RMK AO2 SLP175 
    T01890167 50002=
METAR KSTS 080853Z AUTO 18003KT 10SM OVC006 12/10 A2992 RMK AO2 
    SLP125 T01220100 56001=
METAR KSWO 080853Z AUTO 02004KT 10SM FEW032 OVC075 23/21 A3003 RMK 
    AO2 SLP157 T02330211 55003=
METAR KTCC 080853Z AUTO 36007KT 10SM SCT011 BKN090 OVC120 18/16 
    A3022 RMK AO2 SLP171 60000 T01780156 53001=
METAR KTDZ 080853Z AUTO 22003KT 10SM BKN075 24/18 A3004 RMK AO2 
    SLP167 T02390178 58005=
METAR KTHV 080853Z AUTO 00000KT 4SM BR CLR 21/19 A3002 RMK AO2 
    SLP163 T02060194 53001=
METAR KTIW 080853Z AUTO 02004KT 10SM FEW090 22/12 A2994 RMK AO2 
    SLP134 T02170117 53005=
METAR KTMB 080853Z AUTO 00000KT 10SM CLR 27/24 A2992 RMK AO2 SLP132 
    T02720244 56011=
METAR KTOP 080853Z AUTO 33003KT 10SM OVC095 22/21 A3006 RMK AO2 
    SLP169 60071 T02220206 58010=
METAR KTOR 080853Z AUTO 34003KT 10SM CLR 12/11 A3029 RMK AO2 SLP234 
    T01220111 52000=
####018002965####
SAUS20 KNKA 080854
METAR KLPR 080853Z AUTO 00000KT 7SM FEW065 23/19 A3007 RMK AO2 
    SLP174 T02330189 56004=
METAR KLSE 080853Z AUTO 00000KT 10SM CLR 21/19 A3001 RMK AO2 SLP151 
    T02060194 55004=
METAR KLUK 080853Z AUTO 00000KT 1 3/4SM R21L/3500VP6000FT BR CLR 
    22/21 A3006 RMK AO2 SLP175 T02170211 58005=
METAR KLVM 080853Z AUTO 26003KT 10SM CLR 06/03 A3028 RMK AO2 SLP230 
    T00610028 51007=
METAR KLWD 080853Z AUTO 00000KT 10SM FEW031 21/20 A3007 RMK AO2 
    SLP175 T02060200 53001=
METAR KLWV 080853Z AUTO 18004KT 4SM BR CLR 24/22 A3002 RMK AO2 
    SLP161 T02440222 56007=
METAR KLXT 080853Z AUTO 02005KT 9SM SCT005 BKN110 23/22 A3005 RMK 
    AO2 SLP169 T02280217 58001=
METAR KMBS 080853Z 22005KT 10SM CLR 24/22 A3001 RMK AO2 SLP157 
    T02390217 56008=
METAR KMCI 080853Z 28003KT 10SM FEW041 BKN130 23/22 A3006 RMK AO2 
    SLP166 T02280217 58005 $=
METAR KMCK 080853Z AUTO 00000KT 10SM FEW044 BKN080 16/16 A3024 RMK 
    AO2 SLP225 T01610156 50001=
METAR KMCO 080853Z 36003KT 10SM FEW120 22/21 A2999 RMK AO2 SLP153 
    T02220206 55009=
METAR KMCW 080853Z AUTO 32006KT 10SM CLR 18/17 A3010 RMK AO2 SLP182 
    T01780172 55000 $=
METAR KMFR 080853Z AUTO 00000KT 10SM CLR 24/12 A2988 RMK AO2 SLP101 
    T02390117 51009=
METAR KMGY 080853Z AUTO 00000KT 7SM CLR 23/19 A3007 RMK AO2 SLP173 
    T02330194 56005=
METAR KMHE 080853Z AUTO 27006KT 10SM SCT110 18/15 A3016 RMK AO2 
    SLP207 T01780150 50001 TSNO=
METAR KMHT 080853Z 13006KT 3SM BR BKN070 24/22 A3003 RMK AO2 SLP178 
    60000 T02390217 53002=
METAR KMIA 080853Z 03004KT 10SM FEW030 SCT250 28/24 A2992 RMK AO2 
    SLP133 T02780244 56010=
METAR KMIC 080853Z 31003KT 10SM CLR 18/16 A3006 RMK AO2 SLP175 
    T01780161 52002=
METAR KMIE 080853Z AUTO 00000KT 10SM CLR 22/19 A3006 RMK AO2 SLP168 
    T02220194 56006=
METAR KMIW 080853Z AUTO 32006KT 9SM CLR 19/18 A3005 RMK AO2 SLP169 
    T01940183 55004=
METAR KMKO 080853Z AUTO 15006KT 10SM OVC019 24/23 A3002 RMK AO2 LTG 
    DSNT NW SLP159 60000 T02390228 55003=
METAR KMLC 080853Z AUTO 16003KT 10SM FEW013 24/23 A3002 RMK AO2 
    SLP156 T02390228 50001=
METAR KMLP 080853Z AUTO 12009G14KT 10SM CLR 14/02 A3027 RMK AO2 
    SLP156 T01390017 57000 TSNO=
METAR KMLS 080853Z AUTO 00000KT 10SM CLR 14/09 A3019 RMK AO2 SLP210 
    T01390094 58001=
METAR KMLT 080853Z AUTO 00000KT 4SM BR CLR 20/18 A3006 RMK AO2 
    SLP181 T02000183 53006=
METAR KMLU 080853Z AUTO 00000KT 9SM CLR 25/23 A3003 RMK AO2 SLP169 
    T02500233 55001=
METAR KMMK 080853Z AUTO 00000KT 2 1/2SM BR OVC010 23/22 A3004 RMK 
    AO2 CIG 008V011 SLP169 T02330217 53001=
METAR KMNN 080853Z AUTO 00000KT 8SM CLR 21/18 A3008 RMK AO2 SLP178 
    T02060183 56003=
METAR KMPO 080853Z AUTO 00000KT 6SM BR FEW090 19/17 A3010 RMK AO2 
    SLP177 T01940172 55004=
METAR KMSO 080853Z AUTO 00000KT 10SM CLR 11/06 A3019 RMK AO2 SLP210 
    T01110056 53011 $=
####018001846####
SAUS20 KNKA 080854
METAR KTPA 080853Z 00000KT 10SM CLR 24/21 A2998 RMK AO2 SLP150 
    T02440211 58013 $=
METAR KTRL 080853Z AUTO 12005KT 10SM OVC014 26/23 A3001 RMK AO2 
    SLP153 T02610228 53000=
METAR KTTN 080853Z AUTO 00000KT 5SM HZ CLR 24/21 A3001 RMK AO2 
    SLP154 T02440211 58000 PWINO=
METAR KTUL 080853Z 35004KT 6SM -TSRA BR SCT008 BKN060 OVC075 23/22 
    A3000 RMK AO2 SLP152 OCNL LTGIC W-OHD-E TS W-OHD-E MOV N P0017 
    60048 T02280222 55005=
METAR KTVC 080853Z AUTO 19003KT 10SM BKN120 23/19 A2997 RMK AO2 
    SLP143 T02330194 58012=
METAR KTWF 080853Z AUTO 00000KT 10SM CLR 13/M03 A3012 RMK AO2 SLP148 
    T01281028 53007=
METAR KUAO 080853Z AUTO 36003KT 10SM CLR 22/11 A2987 RMK AO2 SLP113 
    T02220111 53009=
METAR KUNO 080853Z AUTO 00000KT 10SM CLR 23/21 A3007 RMK AO2 SLP168 
    T02330211 58001 TSNO=
METAR KUUU 080853Z AUTO 14004KT 1/2SM FG VV001 21/21 A3007 RMK AO2 
    SLP181 T02060206 53004=
METAR KVEL 080853Z AUTO 31006KT 10SM CLR 17/06 A3021 RMK AO2 SLP168 
    T01720056 53005=
METAR KVGT 080853Z AUTO 33004KT 10SM CLR 27/M04 A2984 RMK AO2 SLP065 
    T02671039 52006 TSNO=
METAR KVIH 080853Z AUTO 00000KT 9SM BKN035 BKN110 23/21 A3004 RMK 
    AO2 SLP161 T02280211 55002=
METAR KVPZ 080853Z AUTO 00000KT 6SM BR CLR 23/22 A3004 RMK AO2 
    SLP166 T02280217 56004=
METAR KVRB 080853Z AUTO 00000KT 10SM FEW030 23/21 A2996 RMK AO2 
    SLP144 T02280211 55008=
METAR KWRL 080853Z AUTO 00000KT 10SM CLR 13/04 A3026 RMK AO2 SLP219 
    T01280044 51008=
METAR KWST 080853Z AUTO 10003KT 8SM BKN004 BKN013 22/21 A3006 RMK 
    AO2 SLP178 T02220211 53004=
METAR KYIP 080853Z 00000KT 4SM BR CLR 22/21 A3004 RMK AO2 SLP162 
    T02220206 56005=
METAR KZZV 080853Z AUTO 00000KT 1 3/4SM BR SCT060 20/19 A3008 RMK 
    AO2 SLP177 T02000189 56004=
####018000130####
SAUS43 KMKX 080855
MTRMSN
METAR KMSN 080853Z 00000KT 10SM FEW007 OVC110 22/21 A2999 RMK AO2 
SLP149 60000 T02170206 55012
####018000117####
SAUS46 KLOX 080854
MTRLAX
METAR KLAX 080853Z 24007KT 10SM OVC012 16/13 A2991 RMK AO2 SLP127 
T01610128 57002
####018000154####
SAUS43 KAPX 080855
MTRHTL
METAR KHTL 080853Z AUTO 21003KT 10SM FEW047 BKN080 OVC100 23/21 
A3003 RMK AO2 RAE21 SLP163 P0002 60013 T02330211 56008
####018000150####
SAUS45 KABQ 080854
MTRTCS
METAR KTCS 080853Z AUTO 06005KT 10SM -RA BKN095 OVC110 19/16 A3020 
RMK AO2 SLP138 P0000 60000 T01890161 52004 TSNO
####018000124####
SAUS46 KPQR 080855
MTRBNO
METAR KBNO 080853Z AUTO 31004KT 10SM CLR 08/01 A3012 RMK AO2 SLP169 
T00780006 52005 TSNO
####018000117####
SAUS42 KCHS 080855
MTRSAV
METAR KSAV 080853Z 26003KT 10SM FEW024 21/19 A2999 RMK AO2 SLP153 
T02110194 56009
####018000124####
SAUS43 KUNR 080855
MTRCUT
METAR KCUT 080853Z AUTO 31003KT 10SM CLR 07/06 A3035 RMK AO2 SLP243 
T00720061 55001 TSNO
####018000131####
SAGM31 PGUM 080855
MTRGUM
METAR PGUM 080854Z 09010KT 10SM FEW021 SCT027 SCT041 28/24 A2988 RMK 
AO2 SLP110 T02830244 53010
####018000127####
SAUS45 KPUB 080855
MTRLXV
METAR KLXV 080853Z AUTO 00000KT 10SM OVC029 07/06 A3054 RMK AO2 
SLP200 T00720056 53002 TSNO
####018000135####
SPCN46 CWAO 080854
SPECI CYQA 080854Z AUTO 00000KT 2 1/2SM BR CLR 19/19 A3003 RMK SLP170
 DENSITY ALT 1400FT VIS VRB 1 1/4-3=

####018000077####
SAMZ40 FQMA 080900
METAR FQBR 080900Z 19013KT 9999FEW020 23/17 Q1027=

####018000078####
SAMP31 LMMM 080900 RRA
METAR HLLT 080850Z 
00000KT 7000 SKC 28/19 Q1019=
####018000077####
SAMP31 LMMM 080900 RRA
METAR HLLT 080850Z
00000KT 7000 SKC 28/19 Q1019=
####018000074####
SALY31 HLLT 080900
METAR HLLT 080850Z 
00000KT 7000 SKC 28/19 Q1019=
####018000121####
SAUS42 KTAE 080855
MTR40J
METAR K40J 080853Z AUTO 00000KT 22/21 A3000 RMK AO2 SLP156 T02170206 
56010 PWINO TSNO
####018000134####
SAUS45 KABQ 080855
MTRCQC
METAR KCQC 080853Z AUTO 00000KT 10SM BKN060 OVC100 12/09 A3035 RMK 
AO2 SLP219 T01170089 55005 TSNO
####018000122####
SAUS45 KLKN 080855
MTRP68
METAR KP68 080853Z AUTO 00000KT 10/M01 A3014 RMK AO2 SLP124 
T01001006 53004 PWINO TSNO
####018000114####
SAUS44 KMRX 080855
MTRNIP
METAR KNIP 080853Z 25004KT 10SM CLR 23/21 A3000 RMK AO2 SLP153 
T02280211 58010
####018001814####
SAEU KAWN 080900 RRB
METAR EGBB 080850Z 22007KT 190V290 CAVOK 17/10 Q1018=
METAR EGCC 080850Z 21010KT 9999 FEW021 17/12 Q1017=
METAR EGGD 080850Z 23005KT 9999 FEW010 16/14 Q1019=
METAR EGGP 080850Z 21010KT 9999 FEW030 17/12 Q1017=
METAR EGHD 080850Z 15003KT 9999 FEW022 18/13 Q1019=
METAR EGHI 080850Z 33006KT 290V350 6000 -SHRA SCT007 BKN012 16/15 Q1019=
METAR EGJB 080850Z 25004KT 210V300 9999 FEW002 BKN006 17/16 Q1020=
METAR EGKK 080850Z 20004KT 140V240 9999 SCT016 20/15 Q1019=
METAR EGLL 080850Z 30006KT 9999 FEW005 BKN011 17/15 Q1019=
METAR EGNT 080850Z 23007KT 160V260 9999 FEW040 17/11 Q1015=
METAR EGNV 080850Z 20009KT 9999 FEW021 17/13 Q1016=
METAR EGPF 080850Z 22015KT 9999 FEW020 SCT030 15/10 Q1013=
METAR EGPH 080850Z 24014KT 9999 FEW028 15/09 Q1012=
METAR EGPK 080850Z 22015KT 9999 SCT025 16/10 Q1013=
METAR EGSS 080850Z 24005KT 9999 FEW006 BKN013 16/15 Q1019=
METAR EGTE 080850Z 10003KT 9999 FEW020 19/14 Q1018=
METAR EGTG 080850Z 25005KT 9999 SCT018 SCT027 17/13 Q1019=
METAR EKAH 080850Z AUTO 19007KT 120V260 9999NDV OVC059/// 21/13 Q1018=
METAR EKBI 080850Z 21008KT 170V250 9999 FEW041 BKN063 21/15 Q1018=
METAR EKCH 080850Z 17012KT CAVOK 21/16 Q1020 NOSIG=
METAR EKEB 080850Z AUTO 23011KT 9999NDV BKN068/// 22/14 Q1018=
METAR EKOD 080850Z 19008KT CAVOK 23/12 Q1019=
METAR EKRK 080852Z 18010KT 160V220 CAVOK 23/13 Q1020=
METAR EKRN 080850Z AUTO 22004KT 180V250 9999NDV NCD 20/16 Q1022=
METAR EKSB 080850Z 17007KT CAVOK 24/13 Q1018=
METAR EKSN 080850Z 22010KT 9999 SCT027 BKN062 19/14 Q1017=
METAR EKVD 080850Z 20011KT CAVOK 22/12 Q1018=
METAR EKYT 080850Z 22009KT 9999 FEW025 BKN040 20/14 Q1017 NOSIG=
METAR LQSA 080900Z 30006KT 250V340 9999 FEW040 BKN050 19/11 Q1023 NOSIG=
METAR LWSK 080900Z 35010KT 9999 BKN050 17/10 Q1020 NOSIG=
####018001791####
SAUK KAWN 080900
METAR EGAA 080850Z 21013KT 9999 FEW018 15/10 Q1014=
METAR EGAC 080850Z 20013KT 9999 FEW019 SCT032 16/10 Q1014=
METAR EGBB 080850Z 22007KT 190V290 CAVOK 17/10 Q1018=
METAR EGCC 080850Z 21010KT 9999 FEW021 17/12 Q1017=
METAR EGFF 080850Z 22005KT 180V260 9999 SCT016 17/12 Q1019=
METAR EGGD 080850Z 23005KT 9999 FEW010 16/14 Q1019=
METAR EGGP 080850Z 21010KT 9999 FEW030 17/12 Q1017=
METAR EGGW 080850Z 26007KT 9999 BKN024 18/13 Q1019=
METAR EGHD 080850Z 15003KT 9999 FEW022 18/13 Q1019=
METAR EGHE 080850Z 19006KT 9999 FEW018 18/13 Q1018=
METAR EGHH 080850Z 03003KT 9999 SCT009 BKN014 17/16 Q1019=
METAR EGHI 080850Z 33006KT 290V350 6000 -SHRA SCT007 BKN012 16/15 Q1019=
METAR EGJA 080850Z 19003KT 9999 3000SE VCFG FEW001 BKN015 17/16 Q1020=
METAR EGJB 080850Z 25004KT 210V300 9999 FEW002 BKN006 17/16 Q1020=
METAR EGJJ 080850Z 00000KT 9999 FEW011 19/17 Q1019 NOSIG=
METAR EGKK 080850Z 20004KT 140V240 9999 SCT016 20/15 Q1019=
METAR EGLC 080850Z 24005KT 200V270 9999 BKN020 20/14 Q1019=
METAR EGLL 080850Z 30006KT 9999 FEW005 BKN011 17/15 Q1019=
METAR EGMD 080850Z 28010KT 9999 FEW006 BKN011 20/16 Q1020=
METAR EGNM 080850Z 25006KT 140V300 9999 SCT018 16/10 Q1016=
METAR EGNT 080850Z 23007KT 160V260 9999 FEW040 17/11 Q1015=
METAR EGNV 080850Z 20009KT 9999 FEW021 17/13 Q1016=
METAR EGNX 080850Z 21010KT CAVOK 17/09 Q1018=
METAR EGPD 080850Z 22015KT 9999 FEW030 16/08 Q1010 NOSIG=
METAR EGPF 080850Z 22015KT 9999 FEW020 SCT030 15/10 Q1013=
METAR EGPH 080850Z 24014KT 9999 FEW028 15/09 Q1012=
METAR EGPK 080850Z 22015KT 9999 SCT025 16/10 Q1013=
METAR EGSS 080850Z 24005KT 9999 FEW006 BKN013 16/15 Q1019=
METAR EGTE 080850Z 10003KT 9999 FEW020 19/14 Q1018=
METAR EGTG 080850Z 25005KT 9999 SCT018 SCT027 17/13 Q1019=
####018000528####
SASN33 ESWI 080850
METAR ESNG 080850Z 15009KT CAVOK 20/09 Q1014=
METAR ESNK 080850Z AUTO 15010KT 9999NDV NCD 21/13 Q1012=
METAR ESNN 080850Z 14008KT 9999 FEW023 21/12 Q1013=
METAR ESNO 080850Z AUTO 14012KT 9999NDV FEW086/// 20/12 Q1014=
METAR ESNQ 080850Z 21006KT 9999 FEW031 16/10 Q1013 RERA REDZ=
METAR ESNS 080850Z 17008KT 140V200 CAVOK 21/10 Q1015=
METAR ESNU 080850Z 12008KT CAVOK 20/12 Q1015=
METAR ESNZ 080850Z 18008KT CAVOK 17/11 Q1012=
METAR ESUT 080850Z AUTO 13008KT 9999NDV OVC130/// 18/11 Q1010=
####018000484####
SASN32 ESWI 080850
METAR ESKN 080850Z 31010KT 270V350 CAVOK 23/11 Q1018=
METAR ESOE 080850Z NIL=
METAR ESOK 080850Z 20009KT 9999 BKN025 19/13 Q1017=
METAR ESOW 080850Z 23010KT 200V260 CAVOK 21/12 Q1017=
METAR ESSA 080850Z 24010KT CAVOK 22/12 Q1017 NOSIG=
METAR ESSB 080850Z 27009KT CAVOK 23/11 Q1017=
METAR ESSD 080850Z AUTO 25010KT 9999NDV BKN030/// 19/12 Q1016=
METAR ESSP 080850Z 25012KT CAVOK 21/11 Q1018=
METAR ESSV 080850Z 30006KT 260V330 CAVOK 20/12 Q1019=
####018000081####
SABR31 TBPB 080900
METAR TBPB 080900Z 08017KT 9999 BKN014 28/24 Q1012 NOSIG=
####018000497####
SAUK35 EGGY 080850
METAR EGHH 080850Z 03003KT 9999 SCT009 BKN014 17/16 Q1019=
METAR EGKA 080850Z 23006KT 9999 SCT017 20/17 Q1019=
METAR EGKB 080850Z 21004KT 160V280 9999 BKN014 19/15 Q1019 =
METAR EGLF 080850Z 31007KT 5000 -DZ BKN006 17/15 Q1019=
METAR EGMC 080850Z 25007KT 9999 FEW018 20/16 Q1019=
METAR EGMD 080850Z 28010KT 9999 FEW006 BKN011 20/16 Q1020=
METAR EGMH 080850Z 26008KT 230V290 9999 FEW014 21/16 Q1019 =
METAR EGTC 080850Z 27008KT 220V300 9999 FEW015 17/11 Q1018=
####018000329####
SAGL31 BGSF 080850
METAR BGSF 080850Z 07007KT 030V100 9999 BKN060 09/02 Q1009=
METAR BGBW 080850Z 27003KT 9999 FEW070 10/05 Q1009 RMK 2AC =
METAR BGGH 080850Z 27003KT 9999 OVC003 04/03 Q1010=
METAR BGJN 080850Z AUTO 36003KT 1000NDV  FG VV001/// 06/05 Q1010=
METAR BGKK 080850Z VRB02KT 9999 FEW130 BKN160 07/03 Q1008=
####018000548####
SAUK34 EGGY 080850
METAR EGHD 080850Z 15003KT 9999 FEW022 18/13 Q1019=
METAR EGHE 080850Z 19006KT 9999 FEW018 18/13 Q1018=
METAR COR EGHK 080850Z 15004KT 9999 FEW020 17/15 Q1018 NOSIG=
METAR EGHQ 080850Z NIL=
METAR EGJA 080850Z 19003KT 9999 3000SE VCFG FEW001 BKN015 17/16
    Q1020=
METAR EGJB 080850Z 25004KT 210V300 9999 FEW002 BKN006 17/16
    Q1020=
METAR EGJJ 080850Z 00000KT 9999 FEW011 19/17 Q1019 NOSIG=
METAR EGTE 080850Z 10003KT 9999 FEW020 19/14 Q1018=
METAR EGTG 080850Z 25005KT 9999 SCT018 SCT027 17/13 Q1019=
####018000484####
SAUK32 EGGY 080850
METAR EGAA 080850Z 21013KT 9999 FEW018 15/10 Q1014=
METAR EGAC 080850Z 20013KT 9999 FEW019 SCT032 16/10 Q1014=
METAR EGFF 080850Z 22005KT 180V260 9999 SCT016 17/12 Q1019=
METAR EGGW 080850Z 26007KT 9999 BKN024 18/13 Q1019=
METAR EGLC 080850Z 24005KT 200V270 9999 BKN020 20/14 Q1019=
METAR EGNM 080850Z 25006KT 140V300 9999 SCT018 16/10 Q1016=
METAR EGNX 080850Z 21010KT CAVOK 17/09 Q1018=
METAR EGPD 080850Z 22015KT 9999 FEW030 16/08 Q1010 NOSIG=
####018000098####
SAQB31 LQSM 080900
METAR LQSA 080900Z 30006KT 250V340 9999 FEW040 BKN050 19/11 Q1023
NOSIG=
####018000379####
SAUK33 EGGY 080850
METAR EGGD 080850Z 23005KT 9999 FEW010 16/14 Q1019=
METAR EGGP 080850Z 21010KT 9999 FEW030 17/12 Q1017=
METAR EGHI 080850Z 33006KT 290V350 6000 -SHRA SCT007 BKN012 16/15
    Q1019 =
METAR EGNS 080850Z NIL=
METAR EGNT 080850Z 23007KT 160V260 9999 FEW040 17/11 Q1015=
METAR EGNV 080850Z 20009KT 9999 FEW021 17/13 Q1016=
METAR EGPB 080850Z NIL=
####018000470####
SASN35 ESWI 080850
METAR ESGL 080850Z AUTO 22011KT 9999NDV FEW035/// OVC043/// 21/14 
Q1018=
METAR ESGR 080850Z AUTO 20009KT 9999NDV BKN041/// OVC160/// 20/14
Q1018=
METAR ESKM 080850Z NIL=
METAR ESNL 080850Z 14012KT 9999 FEW040 OVC079 19/11 Q1013=
METAR ESNX 080850Z AUTO 16013KT 9999NDV BKN070/// 18/11 Q1014=
METAR ESNY 080850Z AUTO 18007KT 150V210 9999 SKC 23/15 Q1014=
METAR ESSF 080850Z NIL=
METAR ESSK 080850Z NIL=
METAR ESUD 080850Z NIL=
####018000484####
SAUK31 EGGY 080850
METAR EGBB 080850Z 22007KT 190V290 CAVOK 17/10 Q1018=
METAR EGCC 080850Z 21010KT 9999 FEW021 17/12 Q1017=
METAR EGKK 080850Z 20004KT 140V240 9999 SCT016 20/15 Q1019=
METAR EGLL 080850Z 30006KT 9999 FEW005 BKN011 17/15 Q1019=
METAR EGPF 080850Z 22015KT 9999 FEW020 SCT030 15/10 Q1013=
METAR EGPH 080850Z 24014KT 9999 FEW028 15/09 Q1012=
METAR EGPK 080850Z 22015KT 9999 SCT025 16/10 Q1013=
METAR EGSS 080850Z 24005KT 9999 FEW006 BKN013 16/15 Q1019=
####018000373####
SAFI32 EFHK 080850
EFHA 080850Z 36002KT 9999 SCT008 BKN070 BKN200 19/17 Q1016=
EFHF 080850Z VRB05KT 9999 SCT034 26/18 Q1014=
EFKA 080850Z VRB01KT 9999 FEW022 BKN200 22/16 Q1016=
EFKK 080850Z 17004KT 080V240 CAVOK 22/11 Q1015=
EFMA 080850Z 27003KT CAVOK 21/11 Q1016=
EFPO 080850Z VRB02KT CAVOK 23/10 Q1016=
EFSI 080850Z AUTO VRB03KT 9999 FEW036 23/14 Q1015=
####018000187####
SASN34 ESWI 080850
METAR ESDF 080850Z 23005KT 110V360 CAVOK 22/11 Q1021=
METAR ESPA 080850Z 14011KT CAVOK 18/14 Q1016=
METAR ESSL 080850Z 25010KT 220V300 9999 BKN041 22/11 Q1019=
####018000116####
SAUS41 KBTV 080855
MTRBTV
METAR KBTV 080854Z 00000KT 5SM BR CLR 23/22 A3001 RMK AO2 SLP159 
T02280217 55000
####018000124####
SAUS46 KSEW 080855
MTRUIL
METAR KUIL 080853Z AUTO 07003KT 10SM CLR 16/11 A2993 RMK AO2 SLP134 
T01610111 51003 TSNO
####018000127####
SAUS46 KSGX 080855
MTRSDM
METAR KSDM 080853Z AUTO 00000KT 10SM OVC012 16/13 A2990 RMK AO2 
SLP122 T01610128 58006 TSNO
####018001057####
SAUS20 KNKA 080855
METAR KTIF 080850Z AUTO 00000KT 10SM OVC090 16/15 A3025 RMK AO2 
     T01570145=
METAR KTKI 080853Z AUTO 17003KT 10SM CLR 26/23 A3000 RMK AO2 SLP153 
    T02560228 54000=
METAR KTQE 080854Z AUTO 34004KT 10SM CLR 19/18 A3013 RMK AO2 SLP191 
    T01890178 53003=
METAR KTRK 080850Z AUTO 21003KT 10SM CLR 12/08 A3016 RMK AO2=
METAR KTVF 080855Z AUTO 26007KT 10SM CLR 14/11 A3003 RMK AO1 54000=
METAR KUIN 080854Z AUTO 00000KT 10SM SCT034 SCT049 BKN060 23/22 
    A3002 RMK AO2 RAE21 SLP161 P0005 60009 T02280222 58007=
METAR KUTA 080855Z AUTO 00000KT 10SM SCT045 23/22 A3007 RMK AO2=
METAR KUZA 080854Z AUTO 02003KT 10SM CLR 22/18 A3000 RMK AO2 SLP143 
    T02220183 55006=
METAR KVBT 080855Z AUTO 00000KT 10SM SCT026 23/21 A3003 RMK AO1 
    60001 57003=
METAR KWLD 080854Z AUTO 03005KT 10SM BKN100 22/21 A3007 RMK AO2 
    SLP173 60001 T02220211 55006=
METAR KX40 080855Z AUTO 00000KT 7SM CLR 22/22 A3000 RMK AO2 
     T02240216=
METAR KYKN 080855Z AUTO 32005KT 10SM CLR 17/15 A3016 RMK AO1 54000=
####018002946####
SAUS20 KNKA 080855
METAR KAAO 080854Z AUTO 00000KT 10SM CLR 21/19 A3008 RMK AO2 SLP173 
    T02110194 56005=
METAR KAEG 080855Z AUTO 15005KT 10SM CLR 17/08 A3027 RMK AO1  =
METAR KAIZ 080855Z AUTO 00000KT 10SM FEW026 BKN039 OVC050 22/21 
    A3005 RMK AO1 60013 57007=
METAR KAKH 080854Z AUTO 36003KT 10SM CLR 23/17 A3000 RMK AO2 SLP149 
    T02330172 56006=
METAR KALO 080854Z AUTO 30006KT 9SM CLR 19/19 A3003 RMK AO2 SLP165 
    T01940189 56005=
METAR KAPC 080854Z AUTO 27010KT 10SM BKN010 12/11 A2991 RMK AO2 
    SLP119 T01170106 53001=
METAR KARG 080855Z AUTO 19005KT 10SM SCT110 24/22 A3005 RMK AO1 
    52003=
METAR KAUO 080855Z AUTO 00000KT 10SM CLR 26/21 A3003 RMK AO1 57007=
METAR KAUS 080853Z 05005KT 10SM BKN016 BKN021 OVC033 26/23 A2995 RMK 
    AO2 SLP129 T02610233 55004=
METAR KAUW 080854Z AUTO 30005KT 10SM BKN004 19/19 A2999 RMK AO2 
    SLP152 60001 T01940189 58000 $=
METAR KAVL 080854Z AUTO 00000KT 10SM CLR 18/18 A3013 RMK AO2 SLP172 
    T01830178 58003=
METAR KAWO 080855Z AUTO 00000KT 10SM CLR 15/13 A2997 RMK AO1 52007=
METAR KBKX 080855Z AUTO 25004KT 10SM CLR 14/13 A3016 RMK AO1 52003=
METAR KBOW 080855Z AUTO 00000KT 10SM CLR 21/21 A2999 RMK AO2 =
METAR KBVX 080855Z AUTO 24004KT 10SM CLR 24/22 A3005 RMK AO1=
METAR KBWI 080854Z 06003KT 6SM HZ SCT080 SCT200 27/22 A2999 RMK AO2 
    SLP154 T02670222 53002=
METAR KCEU 080854Z AUTO 00000KT 10SM CLR 24/22 A3003 RMK AO2 SLP155 
    T02440217 58007=
METAR KCGC 080855Z AUTO 00000KT 10SM CLR 21/21 A2998 RMK=
METAR KCIU 080855Z AUTO 21005KT 7SM OVC120 19/18 A2995 RMK AO1 60001 
    57020=
METAR KCOE 080855Z AUTO 04012KT 10SM CLR 16/08 A3009 RMK AO1 52007=
METAR KCVN 080855Z AUTO 03008KT 9SM SCT110 17/14 A3021 RMK AO1 57007=
METAR KCVO 080855Z AUTO 27016G19KT 10SM CLR 14/09 A2990 RMK AO1=
METAR KCWI 080855Z 00000KT 3SM OVC004 A3002 RMK AO1 57010=
METAR KDEC 080854Z AUTO 00000KT 10SM FEW075 25/22 A3003 RMK AO2 
    SLP163 T02500222 56007=
METAR KDSM 080854Z 35006KT 10SM CLR 22/19 A3007 RMK AO2 SLP173 
    T02170194 53006=
METAR KDVL 080855Z AUTO 26006KT 10SM SCT095 15/12 A3006 RMK AO1 
    54000=
METAR KDYB 080855Z AUTO 00000KT 10SM CLR 22/20 A2996 RMK AO1=
METAR KDYR 080855Z AUTO 24003KT 10SM CLR 24/20 A3006 RMK AO1 54000=
METAR KEAR 080855Z AUTO 33008KT 10SM CLR 15/14 A3022 RMK AO1 54000=
METAR KECG 080854Z AUTO 07006KT 8SM BKN110 26/24 A2994 RMK AO2 
    SLP138 T02560239 56004=
METAR KEHR 080855Z AUTO 00000KT 10SM FEW090 23/19 A3005 RMK AO1 
    57007=
METAR KENV 080855Z 01011G15KT 10SM CLR 23/M02 A3008 RMK AO1 52003=
METAR KESC 080855Z AUTO 00000KT 4SM FEW049 SCT060 BKN110 19/16 A2995 
    RMK AO1 57007=
METAR KEUG 080854Z 19009KT 10SM CLR 14/11 A2991 RMK AO2 SLP127 
    T01440106 53016=
METAR KEUL 080855Z AUTO 12006KT 10SM CLR 13/07 A3005 RMK AO1 52007=
METAR KEWK 080855Z AUTO 32006KT 10SM BKN050 21/19 A3007 RMK AO1 
    57003=
####018002984####
SAUS20 KNKA 080855
METAR KMNM 080855Z AUTO 00000KT 7SM FEW011 BKN033 OVC120 21/19 A2997 
    RMK AO1 60001 57007=
METAR KMOT 080854Z AUTO 21007KT 10SM CLR 14/12 A3008 RMK AO2 SLP183 
    T01440117 50003 TSNO=
METAR KMRF 080855Z AUTO 02005KT 10SM BKN120 16/13 A3016 RMK AO1 
    57007=
METAR KMTW 080855Z 17004KT 9SM FEW075 OVC110 21/20 A2997 RMK AO1 
    57014=
METAR KMVN 080855Z AUTO 00000KT 2SM CLR 22/20 A3005 RMK AO1 57003=
METAR KOFP 080854Z AUTO 06003KT 6SM HZ CLR 24/19 A3000 RMK AO2 
    SLP156 T02390194 53003=
METAR KOLM 080854Z AUTO 00000KT 10SM CLR 15/12 A2994 RMK AO2 SLP138 
    T01500117 53007=
METAR KOLS 080854Z AUTO 00000KT 10SM SCT110 26/06 A2997 RMK AO2 
    SLP065 T02610061 53004=
METAR KOLU 080855Z AUTO 00000KT 10SM CLR 16/14 A3016 RMK AO1 57007=
METAR KOTG 080855Z AUTO 27004KT 10SM CLR 14/13 A3014 RMK AO1 57003=
METAR KOTH 080855Z 25003KT 10SM OVC008 11/08 A3000 RMK AO1 54000=
METAR KPHF 080854Z 09004KT 4SM BR SCT080 25/24 A2996 RMK AO2 
    RAB0756E09 SLP144 P0000 60000 T02500244 56001=
METAR KPIA 080854Z 18003KT 4SM BR BKN012 BKN045 BKN100 23/22 A3002 
    RMK AO2 RAE01B29E44 SLP158 P0000 60002 T02280217 58007=
METAR KPIB 080855Z AUTO 00000KT 8SM CLR 23/21 A3003 RMK AO1 57010=
METAR KPIL 080853Z AUTO VRB03KT 10SM FEW041 SCT055 BKN090 29/25 
    A2977 RMK AO2 LTG DSNT NW SLP080 60000 T02890250 56019 $=
METAR KPLN 080854Z AUTO 00000KT 10SM OVC110 21/21 A2997 RMK AO2 
    SLP144 60000 T02110206 56012=
METAR KPTN 080855Z AUTO 07003KT 10SM CLR 24/M09 A3001 RMK AO1 57003=
METAR KPVU 080855Z 12003KT 10SM CLR 18/09 A3012 RMK AO1 52010=
METAR KPWT 080855Z AUTO 03007KT 10SM CLR 23/06 A2997 RMK AO1 52003=
METAR KRBL 080854Z AUTO 33004KT 10SM CLR 23/17 A2983 RMK AO2 SLP095 
    T02330172 52008=
METAR KRKR 080855Z AUTO 18005KT 10SM SCT029 BKN035 BKN043 27/25 
     A3002 RMK AO2=
METAR KRKS 080854Z AUTO 08012KT 10SM CLR 10/06 A3033 RMK AO2 SLP205 
    T01000056 53002=
METAR KRST 080854Z AUTO 31005KT 9SM CLR 18/18 A3007 RMK AO2 SLP178 
    T01830178 53002=
METAR KSET 080854Z AUTO 04004KT 4SM -RA BR FEW010 SCT019 BKN030 
    25/24 A3000 RMK AO2 RAB34 SLP153 P0002 60002 T02500244 58007=
METAR KSGT 080855Z 00000KT 10SM CLR A3004 RMK AO1 54000=
METAR KSGU 080855Z AUTO 08003KT 10SM CLR 27/01 A2994 RMK AO1 52010=
METAR KSKX 080855Z AUTO 35003KT 10SM CLR 11/03 A3038 RMK AO1 57003=
METAR KSLG 080855Z AUTO 17008KT 10SM FEW080 23/21 A3006 RMK AO1 
    57003=
METAR KSMN 080855Z AUTO 00000KT 10SM CLR 09/01 A3022 RMK AO1 52017=
METAR KSPA 080855Z AUTO 00000KT 10SM CLR 22/22 A3000 RMK AO2=
METAR KSPL 080855Z AUTO 05006KT 29/25 A2976 RMK AO2 PWINO PNO =
METAR KSQI 080855Z 00000KT 5SM BKN050 OVC065 22/21 A3003 RMK AO1 
    60002 57010=
METAR KSUE 080855Z AUTO 00000KT 5SM BKN120 21/20 A2996 RMK AO1 P0002 
    60003 57010=
METAR KSUS 080854Z AUTO 00000KT 10SM FEW050 24/23 A3000 RMK AO2 
    TSE17RAE04 SLP152 P0000 60005 T02390228 58005=
####018002934####
SAUS20 KNKA 080855
METAR KEWN 080854Z AUTO 02003KT 4SM BR CLR 25/23 A2992 RMK AO2 
    SLP131 T02500228 56006=
METAR KFAM 080855Z AUTO 18003KT 10SM FEW090 23/22 A3008 RMK AO1 
    57003=
METAR KFLP 080855Z AUTO 00000KT 10SM CLR 23/22 A3004 RMK AO1 54000=
METAR KFOD 080855Z AUTO 00000KT 10SM CLR 18/17 A3011 RMK AO1 52003=
METAR KFRM 080855Z AUTO 10SM CLR 17/15 A3013 RMK AO1 52003=
METAR KFTN 080855Z AUTO 07005KT 10SM SCT020 OVC026 25/23 A2990 RMK 
     AO1 =
METAR KGAD 080855Z AUTO 00000KT 10SM CLR 22/20 A3004 RMK AO1 57007=
METAR KGAI 080855Z 00000KT 8SM FEW090 25/21 A3003 RMK AO1 
      54000=
METAR KGBD 080855Z AUTO 02006KT 10SM OVC011 19/18 A3016 RMK AO1 
    52003=
METAR KGCK 080854Z AUTO 04009KT 10SM FEW043 SCT070 18/17 A3020 RMK 
    AO2 SLP200 T01780167 53002=
METAR KGPZ 080855Z AUTO 19003KT 10SM CLR 14/12 A3005 RMK AO1 57007=
METAR KGTR 080855Z 30005KT 10SM CLR 24/23 A3004 RMK AO1 54000=
METAR KHEF 080855Z AUTO 00000KT 7SM CLR 23/20 A2999 RMK AO1 57003=
METAR KHEZ 080855Z AUTO 00000KT 5SM CLR 22/22 A3003 RMK AO1 57003=
METAR KHNB 080855Z AUTO 00000KT 10SM BKN095 23/21 A3005 RMK AO1 
    57007=
METAR KHWD 080854Z AUTO 31006KT 10SM OVC009 14/11 A2992 RMK AO2 
    SLP141 T01390111 51000=
SPECI KHYA 080854Z AUTO 00000KT 5SM BR OVC001 21/21 A3007 RMK AO2=
METAR KHYS 080855Z AUTO 33008KT 10SM OVC014 19/17 A3017 RMK AO1 
    54000=
METAR KIMT 080854Z AUTO 34003KT 10SM BKN003 OVC008 20/19 A2997 RMK 
    AO2 SLP144 T02000194 56002=
METAR KINT 080854Z AUTO 00000KT 10SM BKN095 24/17 A3002 RMK AO2 
    SLP151 T02440172 55004=
METAR KISW 080854Z AUTO 27004KT 10SM BKN005 20/20 A3001 RMK AO2 CIG 
    004V008 SLP158 T02000200 53002 TSNO=
METAR KIWD 080855Z AUTO 00000KT 6SM FEW110 16/15 A2999 RMK AO1 52003=
METAR KJSV 080853Z AUTO 12004KT 10SM OVC026 23/22 A3003 RMK AO2 
     LTG DSNT W AND NW=
METAR KKLS 080855Z AUTO 00000KT 10SM CLR 17/13 A2991 RMK AO1 52010=
METAR KLAF 080854Z AUTO 00000KT 6SM BR FEW060 23/22 A3003 RMK AO2 
    SLP164 T02280217 55003 TSNO=
METAR KLBL 080855Z 06010KT 10SM BKN035 OVC042 19/17 A3021 RMK AO1 
    LTG DSNT S 52003=
METAR KLGD 080855Z AUTO 00000KT 10SM CLR 13/06 A3005 RMK AO1 52014=
METAR KLKV 080855Z AUTO 32008KT 10SM CLR 09/01 A3012 RMK AO1 52007=
METAR KLNK 080854Z AUTO 34005KT 10SM CLR 18/17 A3015 RMK AO2 SLP201 
    T01830172 53005=
METAR KLYH 080854Z AUTO 34004KT 6SM HZ CLR 25/18 A3004 RMK AO2 
    SLP158 T02500183 55001=
METAR KMER 080855Z AUTO 31006KT 10SM CLR 18/11 A2983 RMK AO1 =
METAR KMFI 080854Z AUTO 31006KT 10SM CLR 19/18 A3001 RMK AO2 SLP155 
    T01890183 55003=
METAR KMKC 080854Z 32003KT 10SM CLR 23/21 A3004 RMK AO2 SLP165 
    T02280206 58003=
METAR KMKT 080855Z 31005KT 10SM CLR 17/16 A3009 RMK AO1 54000=
METAR KMML 080855Z AUTO 25006KT 10SM CLR 15/12 A3013 RMK AO1 52003=
METAR KMNI 080855Z AUTO 29003KT 10SM CLR 24/22 A2995 RMK AO2=
####018000078####
SAGY31 SYCJ 080800
METAR SYCJ 080800Z 00000KT 9000 FEW016 24/23 Q1011 NOSIG=####018000116####
SAUS44 KJAN 080855
MTRJAN
METAR KJAN 080854Z 00000KT 10SM CLR 24/22 A3004 RMK AO2 SLP166 
T02390222 55007 $
####018000392####
SANO34 ENMI 080850
METAR ENBN 080850Z 02003KT 310V110 CAVOK 18/11 Q1010=
METAR ENBV 080850Z NIL=
METAR ENDI 080850Z NIL=
METAR ENFG 080850Z 17008KT 9999 VCSH FEW012 SCT017 BKN035 12/09
           Q1014=
METAR ENHF 080850Z 19009KT 9999 FEW036 SCT060 16/07 Q1013 =
METAR ENRA 080850Z 09004KT 9999 BKN070 21/10 Q1009=
METAR ENSH 080850Z 12003KT 9999 FEW040 BKN080 15/09 Q1010=
####018000410####
SANO37 ENMI 080850
METAR ENNO 080850Z 08010KT 050V110 9999 FEW012 SCT020 BKN090 16/14
           Q1014=
METAR ENOV 080850Z VRB06KT 9999 SCT055 SCT080 18/06 Q1009 =
METAR ENSD 080850Z NIL=
METAR ENSG 080850Z 23005KT 180V290 9999 SCT040 SCT060 14/10 Q1011=
METAR ENSN 080850Z 13004KT 9999 FEW012 BKN180 15/14 Q1015=
METAR ENSR 080850Z 16007KT 120V210 CAVOK 19/09 Q1011=
METAR ENSS 080850Z NIL=
####018000130####
SAUS42 KKEY 080855
MTRNQX
METAR KNQX 080853Z AUTO 05004KT 10SM TS CLR 28/25 A2992 RMK AO2 
TSB42 SLP129 T02830250 56004 $
####018000166####
SAAK17 KAWN 080900 RRA
PACZ SA 0855 AWOS MM 10 51/47/0000/007=
PAEH SA 0855 AWOS M18 OVC 10 49/-19/0000/001=
PAIM SA 0855 AWOS CLR BLO 120 10 57/45/3204/009=
####018000090####
SASA KAWN 080500 RRH
METAR SYCJ 080500Z 00000KT 9000 FEW017 SCT300 24/24 Q1012 NOSOG=
####018000090####
SASA KAWN 080600 RRJ
METAR SYCJ 080600Z 00000KT 9000 FEW017 SCT300 24/24 Q1011 NOSIG=
####018000088####
SAXX70 KAWN 080800 RRX
METAR KQEJ 080840Z AUTO 34001KT 7SM CLR 27/18 A2990 RMK A02=
####018000070####
SALY31 HLLS 080900
METAR HLLS 080850Z 11O14KT CAVOK  33/11 Q1O17=
####018000765####
SADL34 EDZO 080850
METAR EDAC 080850Z 25004KT CAVOK 23/12 Q1022=
METAR EDAH 080850Z 15006KT 120V180 CAVOK 21/11 Q1022=
METAR EDGS 080850Z 17007KT 130V220 CAVOK 22/09 Q1023=
METAR EDHL 080850Z 14007KT CAVOK 25/15 Q1020=
METAR EDJA 080850Z 07006KT 030V110 CAVOK 22/11 Q1023=
METAR EDLN 080850Z VRB04KT CAVOK 28/14 Q1019=
METAR EDLP 080850Z 22006KT 190V260 CAVOK 27/10 Q1020=
METAR EDLW 080850Z 21009KT 170V240 CAVOK 28/10 Q1020=
METAR EDMA 080850Z 13008KT 100V160 CAVOK 22/09 Q1023=
METAR EDNY 080850Z 20005KT CAVOK 24/13 Q1022=
METAR EDQM 080850Z 18005KT 100V250 CAVOK 23/09 Q1024=
METAR EDRZ 080850Z 13006KT 090V160 CAVOK 26/12 Q1021=
METAR EDSB 080850Z 34004KT 260V030 CAVOK 25/13 Q1021=
METAR EDXW 080850Z 21011KT CAVOK 22/13 Q1018=
####018000085####
SAFJ31 NFNA 080900
METAR NFNA 080900Z 00000KT 40KM SCT024 22/21 Q1014 RMK RR NIL
####018000333####
SADL33 EDZO 080850
METAR EDFE 080850Z VRB02KT CAVOK 26/10 Q1020=
METAR EDFH 080850Z 12007KT 090V160 CAVOK 24/11 Q1022=
METAR EDFM 080850Z 16007KT 110V190 CAVOK 27/09 Q1020=
METAR EDLV 080850Z 21005KT 160V290 CAVOK 28/12 Q1019=
METAR EDTL 080850Z 23003KT CAVOK 25/13 Q1020=
METAR EDVK 080850Z 22007KT CAVOK 24/10 Q1021=
####018000229####
SADL35 EDZO 080850
METAR EDHI 080850Z VRB03KT CAVOK 27/11 Q1019=
METAR EDMO 080850Z 07008KT 020V130 CAVOK 22/08 Q1023=
METAR EDOP 080850Z 19007KT 150V220 CAVOK 25/10 Q1021=
METAR EDTD 080850Z 15006KT CAVOK 23/11 Q1023=
####018000094####
SPCN51 CWAO 080854
SPECI CWZZ 080854Z AUTO ///// 1/8SM OVC021 OVC039 OVC069 11/ A2980=

####018000069####
SALY31 HLLB 080900
METAR HLLB 080850Z 32018KT CAVOK 30/16 Q1016=
####018000313####
SANO38 ENMI 080850
METAR ENDR 080850Z NIL=
METAR ENEK 080850Z 23017KT 9999 FEW045 15/13 Q1015 W15/S3=
METAR ENGC 080850Z 19025KT CAVOK 13/11 Q1007=
METAR ENHE 080840Z 17027KT 9999 FEW040 SCT100 13/10 Q1008=
METAR ENOA 080850Z 19024KT CAVOK 13/11 Q1009=
METAR ENSL 080850Z 22025KT CAVOK 14/11 Q1011=
