####018000102####
SAUS90 KWBC 080800
METAR KSYN 080750Z AUTO 00000KT 10SM CLR 19/17 A3005 RMK AO2
     T01870171=
####018000174####
SAUS90 KWBC 080740 RRB
METAR KCDA 080735Z AUTO 00000KT 5SM BR CLR 20/18 A3009 RMK AO2=
METAR KFKA 080743Z AUTO 31004KT 5SM BR CLR 20/19 A3006 RMK AO2
     T01950188=
####018003746####
SAUS90 KWBC 080740 RRA
METAR KIRS 080735Z AUTO 00000KT 7SM CLR 22/19 A3005 RMK AO2=
METAR KACB 080735Z AUTO 17003KT 10SM SCT110 24/21 A2998 RMK
     AO2=
METAR KRQB 080735Z AUTO 25003KT 10SM SCT049 SCT065 OVC110 23/21
     A3004 RMK AO2=
METAR KOEB 080735Z AUTO 26003KT 10SM CLR 22/20 A3005 RMK AO2=
METAR K4I3 080736Z AUTO 00000KT 10SM CLR 21/19 A3010 RMK AO2=
METAR KAUM 080735Z AUTO 32005KT 10SM SCT041 19/17 A3006 RMK
     AO2=
METAR KFFX 080735Z AUTO 00000KT 7SM RA BKN060 OVC075 22/21 A3003
     RMK AO2=
METAR KCNB 080738Z AUTO 24004KT 10SM CLR 16/13 A3013 RMK AO2
     T01560129=
METAR KCKN 080735Z AUTO 26003KT 10SM CLR 15/12 A3004 RMK AO2=
METAR KCFE 080735Z AUTO 29003KT 10SM CLR 19/17 A3009 RMK AO2
     T01860166=
METAR KCQM 080737Z AUTO 00000KT 10SM CLR 14/13 A3004 RMK AO2=
METAR KDTL 080735Z AUTO 26005KT 10SM CLR 17/12 A3008 RMK AO2=
METAR KBDH 080735Z AUTO 29003KT 10SM CLR 16/15 A3012 RMK AO2=
METAR KCBG 080735Z AUTO 00000KT 10SM CLR 17/14 A3006 RMK AO2=
METAR KADC 080737Z AUTO 23004KT 10SM CLR 13/12 A3008 RMK AO2=
METAR KHAF 080730Z AUTO 00000KT 8SM OVC008 12/10 A2994 RMK AO2=
METAR KCKC 080735Z AUTO 29004KT 10SM CLR 15/13 A3003 RMK AO2=
METAR KJYG 080735Z AUTO 00000KT 10SM CLR 17/17 A3012 RMK AO2=
METAR KCOQ 080736Z AUTO 29004KT 10SM CLR 14/14 A3005 RMK AO2=
METAR KACQ 080739Z AUTO 31004KT 10SM CLR 17/17 A3010 RMK AO2=
METAR KRGK 080735Z AUTO 29004KT 10SM CLR 20/18 A3003 RMK AO2=
METAR KFSE 080734Z AUTO 22004KT 10SM CLR 14/12 A3004 RMK AO2=
METAR KY70 080735Z AUTO 23003KT 10SM SCT055 SCT065 BKN110 24/21
     A3002 RMK AO2 T02400211=
METAR KUKT 080730Z AUTO 00000KT 6SM CLR 22/20 A3003 RMK AO1=
METAR KCVX 080735Z AUTO 15003KT 7SM SCT120 21/20 A2999 RMK AO2=
METAR KFKS 080735Z AUTO 20004KT 10SM SCT120 23/18 A2999 RMK
     AO2=
METAR KSLH 080735Z AUTO 00000KT 5SM BR OVC100 21/20 A2997 RMK
     AO2=
METAR KSJX 080736Z AUTO 00000KT 10SM SCT120 20/18 A2997 RMK
     AO2=
METAR KLDM 080736Z AUTO 25006KT 10SM -RA OVC100 22/21 A3002 RMK
     AO2=
METAR KSAW 080739Z AUTO 00000KT 10SM BKN003 18/17 A2996 RMK
     AO2=
METAR KGOV 080735Z AUTO 00000KT 1 3/4SM BR VV007 20/20 A3002 RMK
     AO2 VIS 1 1/4V3=
METAR KPZQ 080735Z AUTO 19007KT 7SM CLR 22/22 A2999 RMK AO2=
METAR KHYX 080735Z AUTO 17004KT 10SM CLR 23/21 A3001 RMK AO2=
METAR KPHN 080736Z AUTO 00000KT 1SM BR VV007 20/19 A3003 RMK
     AO2=
METAR KONZ 080737Z AUTO 22003KT 10SM CLR 26/20 A3002 RMK AO2=
METAR KISQ 080736Z AUTO 20005KT 10SM BKN006 OVC013 20/18 A2997 RMK
     AO2=
METAR KRMY 080736Z AUTO 00000KT 7SM CLR 21/20 A3005 RMK AO2=
METAR KOSC 080734Z AUTO 00000KT 7SM CLR 19/18 A3002 RMK AO2=
METAR KTTF 080733Z AUTO 00000KT 10SM CLR 23/22 A3002 RMK AO2=
METAR KAMN 080736Z AUTO 00000KT 3SM BR CLR 21/20 A3001 RMK AO2=
METAR KMCD 080736Z AUTO 00000KT 10SM SCT070 OVC110 21/18 A2999 RMK
     AO2=
METAR KERY 080736Z AUTO 00000KT 10SM SCT090 20/19 A2996 RMK
     AO2=
METAR KDVP 080736Z AUTO 28004KT 10SM CLR 15/13 A3016 RMK AO2
     T01460131=
METAR KCDD 080731Z AUTO 00000KT 10SM CLR 14/14 A3003 RMK AO2=
METAR KFOZ 080733Z AUTO 00000KT 3/4SM BR VV005 12/11 A3005 RMK AO2
     VIS 1/2V5=
METAR KAQP 080733Z AUTO 00000KT 10SM CLR 15/15 A3010 RMK AO2=
METAR KETH 080734Z AUTO 22004KT 10SM CLR 15/14 A3010 RMK AO2=
METAR KXVG 080736Z AUTO 00000KT 7SM CLR 11/11 A3004 RMK AO2=
METAR KORB 080734Z AUTO 00000KT 10SM CLR 14/13 A3002 RMK AO2=
METAR KMZH 080731Z AUTO 00000KT 10SM SCT100 14/13 A3004 RMK
     AO2=
METAR KBFW 080733Z AUTO 00000KT 10SM SCT055 18/16 A3000 RMK
     AO2=
METAR KVWU 080731Z AUTO 00000KT 10SM CLR 15/14 A3001 RMK AO2=
METAR KOWA 080733Z AUTO 30004KT 10SM CLR 18/17 A3006 RMK AO2=
####018003736####
SAUS90 KWBC 080740
METAR KTEW 080733Z AUTO 00000KT 10SM CLR 22/20 A3004 RMK AO2=
METAR KCVH 080730Z AUTO 00000KT 10SM SCT012 12/11 A2993 RMK
     AO1=
METAR KDYT 080734Z AUTO 29005KT 10SM SCT060 22/16 A3003 RMK
     AO2=
METAR KFSO 080738Z AUTO 00000KT 4SM BR SCT070 23/22 A3000 RMK
     AO2=
METAR KFBL 080734Z AUTO 31005KT 10SM CLR 18/17 A3008 RMK AO2=
METAR KLYV 080738Z AUTO 00000KT 10SM CLR 15/13 A3016 RMK AO2=
METAR KEFK 080736Z AUTO 00000KT 5SM BR SCT050 21/20 A3005 RMK
     AO2=
METAR KRRT 080734Z AUTO 24006KT 10SM CLR 16/13 A3000 RMK AO2=
METAR KTOB 080735Z AUTO 00000KT 10SM CLR 19/18 A3007 RMK AO2=
METAR KLXL 080734Z AUTO 00000KT 1 1/4SM BR VV007 13/12 A3007 RMK
     AO2=
METAR KEVM 080732Z AUTO 00000KT 1 1/4SM BR VV007 12/11 A3003 RMK
     AO1=
METAR KELO 080733Z AUTO 00000KT 2SM BR CLR 13/13 A3003 RMK AO2 VIS
     3/4V5=
METAR KANE 080735Z AUTO 28005KT 10SM 18/17 A3007 RMK AO2=
METAR KROX 080735Z AUTO 26004KT 10SM CLR 17/14 A3000 RMK AO2=
METAR KVVV 080736Z AUTO 23003KT 10SM CLR 16/14 A3010 RMK AO2=
METAR KROS 080735Z AUTO 30004KT 10SM CLR 17/16 A3006 RMK AO2
     T01700155=
METAR KHCD 080732Z AUTO 28004KT 10SM CLR 14/13 A3010 RMK AO2
     T01400129=
METAR KSGS 080733Z AUTO 32003KT 10SM CLR 21/17 A3006 RMK AO2
     T02050168=
METAR KMJQ 080732Z AUTO 00000KT 7SM CLR 15/14 A3013 RMK AO2=
METAR KHCO 080734Z AUTO 00000KT 10SM CLR 13/12 A3004 RMK AO2=
METAR KLVN 080729Z AUTO 29005KT 10SM CLR 18/17 A3007 RMK AO2=
METAR KPEX 080733Z AUTO 00000KT 7SM CLR 14/14 A3011 RMK AO2
     T01380136=
METAR KJMR 080738Z AUTO 31003KT 10SM CLR 15/13 A3008 RMK AO2=
METAR KJKJ 080734Z AUTO 22003KT 10SM CLR 17/16 A3006 RMK AO2=
METAR KMVE 080734Z AUTO 28005KT 10SM CLR 18/16 A3010 RMK AO2=
METAR KTKC 080733Z AUTO 24006KT 10SM CLR 15/14 A3014 RMK AO2
     T01540138=
METAR KGYL 080734Z AUTO 00000KT 10SM CLR 17/15 A3009 RMK AO2
     T01650151=
METAR KDXX 080734Z AUTO 00000KT 10SM CLR 15/15 A3010 RMK AO2=
METAR KHZX 080731Z AUTO 00000KT 1 3/4SM VV007 13/13 A3007 RMK
     AO2=
METAR KSAZ 080734Z AUTO 00000KT 10SM CLR 16/16 A3008 RMK AO2=
METAR KONA 080731Z AUTO 31003KT 7SM CLR 20/18 A3001 RMK AO2=
METAR KOVL 080734Z AUTO 27003KT 7SM CLR 14/13 A3010 RMK AO2
     T01400125=
METAR KLJF 080732Z AUTO 00000KT 10SM CLR 16/16 A3011 RMK AO2=
METAR KAEL 080731Z AUTO 31004KT 10SM SCT029 18/17 A3008 RMK
     AO2=
METAR K29G 080734Z AUTO 00000KT 7SM SCT060 20/18 A3009 RMK AO2
     T01980180 PWINO=
METAR KMRT 080733Z AUTO 00000KT 5SM CLR 21/19 A3011 RMK AO2
     T02080193=
METAR KIKW 080734Z AUTO 00000KT 5SM BR CLR 22/20 A3001 RMK AO2
     T02150204=
METAR KMDS 080725Z AUTO 29004KT 10SM CLR 14/14 A3016 RMK AO2=
METAR KFPK 080736Z AUTO 00000KT 5SM BR CLR 21/20 A3003 RMK AO2=
METAR KMOP 080735Z AUTO 00000KT 5SM BR SCT060 BKN120 21/21 A3001
     RMK AO2=
METAR KCAD 080734Z AUTO 23004KT 10SM SCT065 SCT090 SCT120 22/21
     A3004 RMK AO2=
METAR KMGN 080735Z AUTO 00000KT 5SM BR SCT100 21/20 A2998 RMK
     AO2=
METAR KHAI 080735Z AUTO 00000KT 7SM CLR 22/21 A3004 RMK AO2=
METAR KLWA 080736Z AUTO 00000KT 10SM SCT055 BKN110 23/21 A3003 RMK
     AO2=
METAR KDRM 080736Z AUTO 14004KT 5SM BR SCT001 SCT007 BKN038 20/20
     A2998 RMK AO2=
METAR KVLL 080734Z AUTO 00000KT 10SM CLR 26/21 A3006 RMK AO2=
METAR KCFS 080735Z AUTO 00000KT 3SM BR CLR 21/21 A3002 RMK AO2=
METAR KOZW 080735Z AUTO 00000KT 10SM CLR 23/20 A3004 RMK AO2=
METAR KRNP 080735Z AUTO 00000KT 10SM CLR 22/21 A3002 RMK AO2=
METAR KDUH 080735Z AUTO 00000KT 7SM CLR 22/18 A3004 RMK AO2=
METAR KJYM 080735Z AUTO 00000KT 7SM CLR 21/19 A3006 RMK AO2=
METAR KBAX 080735Z AUTO 00000KT 5SM BR CLR 21/20 A3002 RMK AO2=
####018003702####
SAUS99 KWBC 080740
METAR
KTEW 080733Z AUTO 00000KT 10SM CLR 22/20 A3004 RMK AO2=
KCVH 080730Z AUTO 00000KT 10SM SCT012 12/11 A2993 RMK AO1=
KDYT 080734Z AUTO 29005KT 10SM SCT060 22/16 A3003 RMK AO2=
KFSO 080738Z AUTO 00000KT 4SM BR SCT070 23/22 A3000 RMK AO2=
KFBL 080734Z AUTO 31005KT 10SM CLR 18/17 A3008 RMK AO2=
KLYV 080738Z AUTO 00000KT 10SM CLR 15/13 A3016 RMK AO2=
KEFK 080736Z AUTO 00000KT 5SM BR SCT050 21/20 A3005 RMK AO2=
KRRT 080734Z AUTO 24006KT 10SM CLR 16/13 A3000 RMK AO2=
KTOB 080735Z AUTO 00000KT 10SM CLR 19/18 A3007 RMK AO2=
KLXL 080734Z AUTO 00000KT 1 1/4SM BR VV007 13/12 A3007 RMK AO2=
KEVM 080732Z AUTO 00000KT 1 1/4SM BR VV007 12/11 A3003 RMK AO1=
KELO 080733Z AUTO 00000KT 2SM BR CLR 13/13 A3003 RMK AO2 VIS
     3/4V5=
KANE 080735Z AUTO 28005KT 10SM 18/17 A3007 RMK AO2=
KROX 080735Z AUTO 26004KT 10SM CLR 17/14 A3000 RMK AO2=
KSYN 080750Z AUTO 00000KT 10SM CLR 19/17 A3005 RMK AO2
     T01870171=
KVVV 080736Z AUTO 23003KT 10SM CLR 16/14 A3010 RMK AO2=
KROS 080735Z AUTO 30004KT 10SM CLR 17/16 A3006 RMK AO2
     T01700155=
KHCD 080732Z AUTO 28004KT 10SM CLR 14/13 A3010 RMK AO2
     T01400129=
KSGS 080733Z AUTO 32003KT 10SM CLR 21/17 A3006 RMK AO2
     T02050168=
KMJQ 080732Z AUTO 00000KT 7SM CLR 15/14 A3013 RMK AO2=
KHCO 080734Z AUTO 00000KT 10SM CLR 13/12 A3004 RMK AO2=
KLVN 080729Z AUTO 29005KT 10SM CLR 18/17 A3007 RMK AO2=
KPEX 080733Z AUTO 00000KT 7SM CLR 14/14 A3011 RMK AO2
     T01380136=
KJMR 080738Z AUTO 31003KT 10SM CLR 15/13 A3008 RMK AO2=
KJKJ 080734Z AUTO 22003KT 10SM CLR 17/16 A3006 RMK AO2=
KMVE 080734Z AUTO 28005KT 10SM CLR 18/16 A3010 RMK AO2=
KTKC 080733Z AUTO 24006KT 10SM CLR 15/14 A3014 RMK AO2
     T01540138=
KGYL 080734Z AUTO 00000KT 10SM CLR 17/15 A3009 RMK AO2
     T01650151=
KDXX 080734Z AUTO 00000KT 10SM CLR 15/15 A3010 RMK AO2=
KHZX 080731Z AUTO 00000KT 1 3/4SM VV007 13/13 A3007 RMK AO2=
KSAZ 080734Z AUTO 00000KT 10SM CLR 16/16 A3008 RMK AO2=
KONA 080731Z AUTO 31003KT 7SM CLR 20/18 A3001 RMK AO2=
KOVL 080734Z AUTO 27003KT 7SM CLR 14/13 A3010 RMK AO2
     T01400125=
KLJF 080732Z AUTO 00000KT 10SM CLR 16/16 A3011 RMK AO2=
KAEL 080731Z AUTO 31004KT 10SM SCT029 18/17 A3008 RMK AO2=
K29G 080734Z AUTO 00000KT 7SM SCT060 20/18 A3009 RMK AO2 T01980180
     PWINO=
KMRT 080733Z AUTO 00000KT 5SM CLR 21/19 A3011 RMK AO2
     T02080193=
KIKW 080734Z AUTO 00000KT 5SM BR CLR 22/20 A3001 RMK AO2
     T02150204=
KMDS 080725Z AUTO 29004KT 10SM CLR 14/14 A3016 RMK AO2=
KFPK 080736Z AUTO 00000KT 5SM BR CLR 21/20 A3003 RMK AO2=
KMOP 080735Z AUTO 00000KT 5SM BR SCT060 BKN120 21/21 A3001 RMK
     AO2=
KCAD 080734Z AUTO 23004KT 10SM SCT065 SCT090 SCT120 22/21 A3004
     RMK AO2=
KMGN 080735Z AUTO 00000KT 5SM BR SCT100 21/20 A2998 RMK AO2=
KHAI 080735Z AUTO 00000KT 7SM CLR 22/21 A3004 RMK AO2=
KLWA 080736Z AUTO 00000KT 10SM SCT055 BKN110 23/21 A3003 RMK
     AO2=
KDRM 080736Z AUTO 14004KT 5SM BR SCT001 SCT007 BKN038 20/20 A2998
     RMK AO2=
KVLL 080734Z AUTO 00000KT 10SM CLR 26/21 A3006 RMK AO2=
KCFS 080735Z AUTO 00000KT 3SM BR CLR 21/21 A3002 RMK AO2=
KOZW 080735Z AUTO 00000KT 10SM CLR 23/20 A3004 RMK AO2=
KRNP 080735Z AUTO 00000KT 10SM CLR 22/21 A3002 RMK AO2=
KDUH 080735Z AUTO 00000KT 7SM CLR 22/18 A3004 RMK AO2=
KJYM 080735Z AUTO 00000KT 7SM CLR 21/19 A3006 RMK AO2=
KBAX 080735Z AUTO 00000KT 5SM BR CLR 21/20 A3002 RMK AO2=
KIRS 080735Z AUTO 00000KT 7SM CLR 22/19 A3005 RMK AO2=
KACB 080735Z AUTO 17003KT 10SM SCT110 24/21 A2998 RMK AO2=
KRQB 080735Z AUTO 25003KT 10SM SCT049 SCT065 OVC110 23/21 A3004
     RMK AO2=
KOEB 080735Z AUTO 26003KT 10SM CLR 22/20 A3005 RMK AO2=
####018003734####
SAUS99 KWBC 080740 RRA
METAR
K4I3 080736Z AUTO 00000KT 10SM CLR 21/19 A3010 RMK AO2=
KAUM 080735Z AUTO 32005KT 10SM SCT041 19/17 A3006 RMK AO2=
KFFX 080735Z AUTO 00000KT 7SM RA BKN060 OVC075 22/21 A3003 RMK
     AO2=
KCNB 080738Z AUTO 24004KT 10SM CLR 16/13 A3013 RMK AO2
     T01560129=
KCKN 080735Z AUTO 26003KT 10SM CLR 15/12 A3004 RMK AO2=
KCFE 080735Z AUTO 29003KT 10SM CLR 19/17 A3009 RMK AO2
     T01860166=
KCQM 080737Z AUTO 00000KT 10SM CLR 14/13 A3004 RMK AO2=
KDTL 080735Z AUTO 26005KT 10SM CLR 17/12 A3008 RMK AO2=
KBDH 080735Z AUTO 29003KT 10SM CLR 16/15 A3012 RMK AO2=
KCBG 080735Z AUTO 00000KT 10SM CLR 17/14 A3006 RMK AO2=
KADC 080737Z AUTO 23004KT 10SM CLR 13/12 A3008 RMK AO2=
KHAF 080730Z AUTO 00000KT 8SM OVC008 12/10 A2994 RMK AO2=
KCKC 080735Z AUTO 29004KT 10SM CLR 15/13 A3003 RMK AO2=
KJYG 080735Z AUTO 00000KT 10SM CLR 17/17 A3012 RMK AO2=
KCOQ 080736Z AUTO 29004KT 10SM CLR 14/14 A3005 RMK AO2=
KACQ 080739Z AUTO 31004KT 10SM CLR 17/17 A3010 RMK AO2=
KRGK 080735Z AUTO 29004KT 10SM CLR 20/18 A3003 RMK AO2=
KFSE 080734Z AUTO 22004KT 10SM CLR 14/12 A3004 RMK AO2=
KY70 080735Z AUTO 23003KT 10SM SCT055 SCT065 BKN110 24/21 A3002
     RMK AO2 T02400211=
KUKT 080730Z AUTO 00000KT 6SM CLR 22/20 A3003 RMK AO1=
KCVX 080735Z AUTO 15003KT 7SM SCT120 21/20 A2999 RMK AO2=
KFKS 080735Z AUTO 20004KT 10SM SCT120 23/18 A2999 RMK AO2=
KSLH 080735Z AUTO 00000KT 5SM BR OVC100 21/20 A2997 RMK AO2=
KSJX 080736Z AUTO 00000KT 10SM SCT120 20/18 A2997 RMK AO2=
KLDM 080736Z AUTO 25006KT 10SM -RA OVC100 22/21 A3002 RMK AO2=
KSAW 080739Z AUTO 00000KT 10SM BKN003 18/17 A2996 RMK AO2=
KGOV 080735Z AUTO 00000KT 1 3/4SM BR VV007 20/20 A3002 RMK AO2 VIS
     1 1/4V3=
KPZQ 080735Z AUTO 19007KT 7SM CLR 22/22 A2999 RMK AO2=
KHYX 080735Z AUTO 17004KT 10SM CLR 23/21 A3001 RMK AO2=
KPHN 080736Z AUTO 00000KT 1SM BR VV007 20/19 A3003 RMK AO2=
KONZ 080737Z AUTO 22003KT 10SM CLR 26/20 A3002 RMK AO2=
KISQ 080736Z AUTO 20005KT 10SM BKN006 OVC013 20/18 A2997 RMK
     AO2=
KRMY 080736Z AUTO 00000KT 7SM CLR 21/20 A3005 RMK AO2=
KOSC 080734Z AUTO 00000KT 7SM CLR 19/18 A3002 RMK AO2=
KTTF 080733Z AUTO 00000KT 10SM CLR 23/22 A3002 RMK AO2=
KAMN 080736Z AUTO 00000KT 3SM BR CLR 21/20 A3001 RMK AO2=
KMCD 080736Z AUTO 00000KT 10SM SCT070 OVC110 21/18 A2999 RMK
     AO2=
KERY 080736Z AUTO 00000KT 10SM SCT090 20/19 A2996 RMK AO2=
KDVP 080736Z AUTO 28004KT 10SM CLR 15/13 A3016 RMK AO2
     T01460131=
KCDD 080731Z AUTO 00000KT 10SM CLR 14/14 A3003 RMK AO2=
KFOZ 080733Z AUTO 00000KT 3/4SM BR VV005 12/11 A3005 RMK AO2 VIS
     1/2V5=
KAQP 080733Z AUTO 00000KT 10SM CLR 15/15 A3010 RMK AO2=
KETH 080734Z AUTO 22004KT 10SM CLR 15/14 A3010 RMK AO2=
KXVG 080736Z AUTO 00000KT 7SM CLR 11/11 A3004 RMK AO2=
KORB 080734Z AUTO 00000KT 10SM CLR 14/13 A3002 RMK AO2=
KMZH 080731Z AUTO 00000KT 10SM SCT100 14/13 A3004 RMK AO2=
KBFW 080733Z AUTO 00000KT 10SM SCT055 18/16 A3000 RMK AO2=
KVWU 080731Z AUTO 00000KT 10SM CLR 15/14 A3001 RMK AO2=
KOWA 080733Z AUTO 30004KT 10SM CLR 18/17 A3006 RMK AO2=
KCDA 080735Z AUTO 00000KT 5SM BR CLR 20/18 A3009 RMK AO2=
KFKA 080743Z AUTO 31004KT 5SM BR CLR 20/19 A3006 RMK AO2
     T01950188=
K14Y 080738Z AUTO 00000KT 7SM CLR 15/14 A3010 RMK AO2
     T01450142=
K4M9 080735Z AUTO 19003KT 8SM FEW039 24/24 A3005 RMK AO2=
KAEJ 080735Z AUTO 32003KT 10SM OVC046 10/08 A3046 RMK AO2=
KBBF 080835Z AUTO VRB07G16KT 9SM SCT023 SCT029 SCT090 30/27 A2981
     RMK A01=
KBQX 080735Z AUTO 13021G28KT 9SM FEW020 SCT039 BKN045 29/25 A2984
     RMK A01=
KDLP 080735Z AUTO 13010KT 10SM SCT017 SCT050 29/25 A2998 RMK
     A01=
KEDU 080735Z AUTO 18005KT 10SM CLR 16/10 A2981 RMK AO1=
####018000526####
SARA32 RUMS 080730
METAR UHHH 080730Z 03005MPS 9999 SCT031CB OVC100 18/14 Q1010 NOSIG
RMK QFE751/1001 55090060=
METAR UHMA 080730Z NIL=
METAR UHMM 080730Z 24003MPS 9999 SCT010 OVC028 14/12 Q1016 NOSIG RMK
QFE747 88010070 MT OBSC=
METAR UHMP 080730Z NIL=
METAR UHNN 080730Z NIL=
METAR UHPP 080730Z NIL=
METAR UHSH 080730Z NIL=
METAR UHSS 080730Z 17003MPS 9999 BKN021CB 15/12 Q1010 NOSIG RMK MT
OBSC QFE756/1008 19CLRD70=
METAR UHWW 080730Z 25006MPS 9999 BKN021 OVC070 21/16 Q1009 NOSIG RMK
QFE756/1008 75CLRD70=
####018000362####
SPUS99 KWBC 080740
SPECI
KACK 080738Z AUTO 13008KT 3SM BR OVC001 19/19 A3006 RMK AO2
     TSNO=
KBML 080738Z AUTO 00000KT 2 1/2SM BR OVC003 19/19 A3008 RMK AO2
     CIG 001V004 $=
KIJD 080738Z AUTO 00000KT 2 1/2SM BR OVC003 23/22 A3005 RMK AO2
     CIG 001V005=
KSTJ 080738Z AUTO 22007KT 6SM BR FEW004 BKN018 OVC023 23/22 A3007
     RMK AO2=
####018002980####
SAUS99 KWBC 080740 RRB
METAR
KEGV 080732Z AUTO 00000KT 4SM BR OVC002 19/19 A3001 RMK AO2
     T01880189=
KEHC 080735Z AUTO 12026KT 7SM FEW018 FEW031 FEW037 28/26 A2991 RMK
     A01=
KEIR 080735Z AUTO VRB06G15KT 9SM FEW018 28/25 A2996 RMK A01=
KEMK 080735Z AUTO 14028KT 7SM FEW030 FEW055 FEW065 29/25 A2986 RMK
     A01=
KETB 080732Z AUTO 24003KT 10SM SCT120 22/21 A3000 RMK AO2 P0001
     T02200206=
KEZS 080735Z AUTO 00000KT 10SM -DZ OVC005 22/21 A2996 RMK AO2
     P0001 T02220214=
KGBK 080735Z AUTO 09017G24KT FEW032 FEW039 29/25 A2989 RMK A01=
KGLW 080733Z AUTO 00000KT 7SM CLR 21/20 A3007 RMK AO2
     T02140198=
KGYH 080735Z AUTO 30004KT 10SM CLR 24/19 A3003 RMK AO2=
KHFJ 080735Z AUTO 00000KT 7SM CLR 23/23 A3002 RMK AO1=
KHQI 080735Z AUTO 11033G43KT 1SM BR SCT004 BKN041 OVC060 26/24
     A2990 RMK A01=
KHXD 080735Z AUTO 22006KT 10SM CLR 24/21 A2999 RMK AO2 P0000=
KHYW 080735Z AUTO 00000KT 7SM SCT120 25/23 A2994 RMK AO2=
KIPN 080735Z AUTO 10012KT 10SM CLR /57 A2997 RMK A01=
KJVL 080735Z AUTO 00000KT 10SM RA BKN060 OVC080 23/20 A3000 RMK
     AO2 T02250202=
KJZI 080735Z AUTO 28008KT 10SM CLR 24/23 A2996 RMK A02 P000=
KLNL 080735Z AUTO 00000KT 10SM SCT004 SCT007 SCT050 19/18 A3003
     RMK AO2 T01890184=
KLUM 080735Z AUTO 28006KT 10SM CLR 20/18 A3002 RMK AO2=
KMCJ 080735Z AUTO 11010KT 10SM CLR 27/24 A2989 RMK AO1=
KMDJ 080735Z AUTO 13017KT 10SM SCT020 SCT044 BKN065 29/25 A2999
     RMK A01=
KMDZ 080735Z AUTO 28004KT 1/2SM FG OVC001 20/19 A3002 RMK AO2=
KMHR 080735Z AUTO 19007KT 10SM CLR 15/10 A2984 RMK AO1=
KMIU 080735Z AUTO 12021KT 9SM FEW017 SCT039 BKN045 28/25 A2981 RMK
     A01=
KMRJ 080735Z AUTO 00000KT 10SM BKN120 20/19 A3001 RMK AO2
     T02030187=
KMWC 080735Z AUTO 23003KT 10SM SCT090 SCT120 21/20 A3002 RMK AO2
     P0001=
KMYT 080735Z AUTO 13015KT 10SM CLR 28/24 A2995 RMK A01=
KMZG 080735Z AUTO 00000KT 9SM CLR 29/26 A2981 RMK A01=
KOEO 080735Z AUTO 00000KT 10SM CLR 19/17 A3007 RMK AO2=
KPBH 080735Z AUTO 00000KT 3/4SM BR OVC001 21/19 A3003 RMK AO2=
KPCZ 080735Z AUTO 20003KT 7SM BKN006 22/21 A2998 RMK AO2
     T02180205=
KPDC 080733Z AUTO 00000KT 7SM OVC006 22/21 A3001 RMK AO2
     T02220210=
KRCX 080735Z AUTO 25003KT 10SM CLR 19/18 A3003 RMK AO2
     T01920183=
KRNH 080736Z AUTO 30004KT 10SM SCT042 18/17 A3006 RMK AO2
     T01830170=
KRPD 080734Z AUTO 28004KT 10SM CLR 19/17 A3005 RMK AO2
     T01860173=
KSCF 080740Z AUTO 15019G24KT 8SM FEW016 FEW020 SCT027 29/26 A2991
     RMK A01=
KSPF 080735Z AUTO 00000KT 10SM CLR 12/08 A3028 RMK AO2=
KVBS 080735Z AUTO 12024KT 10SM BKN019 BKN027 BKN048 29/25 A2992
     RMK A01=
KVNP 080735Z AUTO 10011G16KT 7SM 28/26 A2996 RMK A01=
KWRB 080655Z COR 07001KT 10SM CLR 22/21 A3002 RMK AO2A SLP164
     T02230212 COR 0735=
KWRB 080655Z 07001KT 10SM CLR 22/21 A3002 RMK AO2A SLP164
     T02230212=
KY63 080740Z AUTO 21005KT 10SM CLR 15/15 A3009 RMK AO2
     T01530145=
####018000557####
SARA31 RUMS 080730
METAR UEEE 080730Z 00000MPS 9999 SCT050CB BKN200 25/08 Q1007 TEMPO
VRB14MPS -TSRA RMK QFE747 2309//60=
METAR UELL 080730Z 19002MPS 9999 SCT030CB BKN200 19/14 Q1010 TEMPO TS
RMK QFE683 08CLRD70=
METAR COR UERP 080730Z 01005MPS 9999 SCT035CB BKN045 15/08 Q1014
NOSIG RMK QFE716 35090065=
METAR UERR 080730Z 32004G07MPS 9999 -DZ OVC013 14/14 Q1011 NOSIG RMK
QFE727 24290255=
METAR UESO 080730Z 26009G12MPS 9999 OVC008 07/05 Q1003 NOSIG RMK
QFE750 SC060=
METAR UEST 080730Z 10004MPS CAVOK 09/03 Q1016 NOSIG RMK QFE761
21000060=
####018000760####
SARA36 RUMS 080730
METAR UWUU 080730Z 05003G06MPS 020V110 9999 FEW046 27/08 Q1016
82010060 NOSIG RMK QFE751/1001 MOD TURB 500-1600=
METAR USCC 080730Z 34009G14MPS 9999 SCT040 24/02 Q1014 NOSIG RMK
QFE741 27000070=
METAR USDD 080730Z 04009MPS CAVOK 16/01 Q1016 NOSIG RMK QFE756/1008
SC060=
METAR USMU 080730Z 01006MPS 9999 -SHRA SCT027CB OVC066 10/09 Q1005
NOSIG RMK QFE748 09250345=
METAR USNN 080730Z 17005MPS P6000 SCT026 BKN200 17/12 Q1002 NOSIG RMK
QFE746 SC065=
METAR USRK 080730Z 36004MPS 6000 BKN013 OVC066 12/11 Q1002 TEMPO 2000
BR BKN004 RMK QFE745 351///55=
METAR USRR 080730Z 35004G07MPS 6000 OVC009 12/10 Q1003 TEMPO BKN005
RMK QFE747  25////60=
METAR USSS 080730Z 34006G10MPS 300V020 CAVOK 23/03 Q1015 NOSIG RMK
QFE741 260///70=
####018000401####
SARA33 RUMS 080730
METAR UIAA 080730Z VRB01MPS 9999 BKN050CB OVC200 32/09 Q1005 TEMPO
-TSRA RMK QFE695 29CLRD70=
METAR UIBB 080730Z 05004MPS 9999 FEW033 BKN200 28/12 Q1006 NOSIG RMK
QFE711/0948 30CLRD60=
METAR UIII 080730Z 16004MPS 9999 FEW050CB SCT100 OVC200 22/11 Q1006
NOSIG RMK QFE712/0950 12CLRD60=
METAR UIUU 080730Z 22006G11MPS 9999 SCT040CB OVC100 24/13 Q1007 NOSIG
RMK QFE711/0948=
####018000326####
SARA35 RUMS 080730
METAR ULDD 080730Z NIL=
METAR UOHH 080730Z NIL=
METAR UOII 080730Z 08006MPS 9999 FEW040 BKN200 28/16 Q1005 NOSIG RMK
QFE751 30////60=
METAR UOOO 080730Z 04007G09MPS CAVOK 22/08 Q1010 NOSIG RMK QFE743
010///60=
METAR USCM 080730Z 36003G08MPS 270V050 9999 SKC 23/02 Q1016 NOSIG
01090065 RMK QFE723=
####018000072####
SASD20 OEJD 080700 RRB
METAR OESK 080700Z 27007KT CAVOK 37/00 Q1010=
####018000682####
SARS31 RUMS 080730
METAR ULAA 080730Z 30003MPS 260V360 9999 FEW030 FEW/// 25/18 Q1015
NOSIG RMK QFE759/1013 SC070=
METAR ULKK 080730Z NIL=
METAR ULMM 080730Z 36004MPS 9999 BKN012CB 13/09 Q1016 NOSIG RMK
QFE755 32190060=
METAR ULOL 080730Z NIL=
METAR ULOO 080730Z VRB01MPS P6000 FEW033 SCT200 26/18 Q1012 NOSIG RMK
QFE755=
METAR ULWW 080730Z NIL=
METAR UMKK 080730Z 29006MPS P8000 BKN200 21/17 Q1019 NOSIG RMK QFE
763 SC07=
METAR UUBP 080730Z NIL=
METAR UUOB 080730Z NIL=
METAR UUOK 080730Z NIL=
METAR UUOO 080730Z 18002G05MPS 120V210 9999 SCT033 26/16 Q1014 NOSIG
RMK 13090070=
METAR UWGG 080730Z 12004MPS 070V170 8000 SKC 31/11 Q1016 NOSIG RMK
QFE755 18090070=
####018000645####
SARS35 RUMS 080730
METAR USPP 080730Z 35003MPS 290V360 CAVOK 26/09 Q1016 NOSIG RMK
QFE751/1002 21090060=
METAR UWKD 080730Z NIL=
METAR UWKE 080730Z 00000MPS CAVOK 28/10 Q1016 NOSIG RMK QFE745/0994
22090070=
METAR UWKS 080730Z NIL=
METAR UWLL 080730Z 10002MPS CAVOK 29/10 Q1016 NOSIG RMK QFE749/0999
SC065=
METAR UWLW 080730Z NIL=
METAR UWOR 080730Z NIL=
METAR UWOO 080730Z NIL=
METAR UWPP 080730Z 12005MPS 9999 SCT033CB BKN100 26/11 Q1014 NOSIG
RMK QFE746 11090060=
METAR UWSS 080730Z 04002MPS CAVOK 26/12 Q1015 NOSIG RMK QFE749
120///60=
METAR UWWW 080730Z 07007MPS CAVOK 29/09 Q1015 NOSIG RMK QFE748/0998
05CLRD60 15//99//=
####018000872####
SARA34 RUMS 080730
METAR UNAA 080730Z 23008G16MPS 180V300 5000 -TSRA SCT030CB BKN100
15/12 Q1009 TEMPO 34010G15MPS 2000 TSRAGR RMK QFE735 201///65=
METAR COR UNBB 080730Z 19008MPS 9999 VCTS SCT033CB SCT100 20/04 Q1009
NOSIG RMK QFE734=
METAR UNEE 080730Z 26006G11MPS 9999 SCT026 BKN200 18/15 Q1008 NOSIG
RMK QFE733 23CLRD60=
METAR UNKL 080730Z VRB01MPS 9999 BKN016CB OVC083 17/14 Q1008 NOSIG
RMK QFE731 29////55=
METAR UNNT 080730Z 30004MPS 9999 BKN050CB BKN100 17/07 Q1007 NOSIG
RMK QFE745/0994 25090070=
METAR UNOO 080730Z 29006G09MPS 9999 BKN023CB 14/09 Q1007 NOSIG
25CLRD06 RMK QFE747=
METAR UNWW 080730Z 23002MPS 9999 BKN026CB OVC130 19/09 Q1009 NOSIG
RMK QFE730 19CLRD70=
METAR USTR 080730Z 33010G13MPS CAVOK 20/04 Q1011 NOSIG RMK
QFE749/0998 30CLRD65=
METAR USHH 080730Z VRB02G05MPS 7000 -SHRA BKN018CB OVC080 11/10 Q1008
NOSIG RMK QFE752 SC06=
####018000152####
SAAF14 LFPW 080700 RRC
METAR FEFG 080700Z /////KT 8000-TSRA FEW040CB OVC140 20/20 Q////=
METAR FEFT 080700Z 00000KT 9999 SCT003 BKN150 23/21 Q1017=
####018000864####
SARS32 RUMS 080730
METAR URKA 080730Z 06004MPS 9999 SCT030 28/20 Q1013 NOSIG RMK  065=
METAR URKK 080730Z 12003MPS 080V150 9999 FEW030 SCT300 27/18 Q1013
NOSIG RMK QFE757 SC070=
METAR URKM 080730Z NIL=
METAR URML 080730Z 01005G10MPS 9999 SKC 31/21 Q1013 NOSIG RMK QFE759
/ 07=
METAR URMM 080730Z 09004MPS 9999 SCT040 27/20 Q1014 NOSIG RMK /
SC070=
METAR URMN 080730Z 34002MPS 9999 SCT026 26/20 Q1015 NOSIG RMK /
QFE724 SC07=
METAR URMT 080730Z 05005G08MPS 9999 FEW020 27/16 Q1015 NOSIG RMK
QFE721 SC07=
METAR URRR 080730Z VRB01MPS 9999 FEW023 28/16 Q1014 NOSIG RMK SC070=
METAR URSS 080730Z 26002MPS 9999 SKC 28/22 Q1011 NOSIG RMK / QFE757
06CLRD70=
METAR URWA 080730Z 36003MPS CAVOK 33/14 Q1011 NOSIG RMK SC07=
METAR URWI 080730Z 36002MPS 9999 SKC 27/17 Q1014 NOSIG RMK SC065=
METAR URWW 080730Z 32003G06MPS CAVOK 27/18 Q1014 NOSIG RMK SC070=
####018000378####
SARS33 RUMS 080730
METAR ULLI 080730Z 14002MPS 100V170 CAVOK 28/19 Q1013 NOSIG=
METAR UUDD 080730Z 15003MPS 090V200 9999 FEW033 BKN200 25/17 Q1015
NOSIG=
METAR UUEE 080730Z 14004MPS CAVOK 26/15 Q1014 NOSIG=
METAR UUEM 080730Z NIL=
METAR UUWW 080730Z 12003MPS CAVOK 22/17 Q1014 06000070 NOSIG=
METAR UUMO 080730Z VRB02MPS CAVOK 23/17 Q1015 NOSIG RMK QFE746/0995
SC060=
####018000085####
SANO36 ENMI 080720 RRA
METAR ENHK 080720Z 10013KT 9999 FEW035 BKN080 15/08 Q1012=
####018000674####
SPXX60 KWBC 080740
SPECI
KDOV 080733Z AUTO 00000KT 3SM R01/4000VP6000FT BR FEW110 25/25
     A2998 RMK AO2 SLP154=
KGRF 080731Z AUTO 00000KT 10SM CLR 18/11 A2993 RMK AO2
     DZB0722E0731 SLP136 $=
KRND 080734Z AUTO 07005KT 10SM BKN012 BKN024 25/23 A2994 RMK AO2
     CIG 011V016 SLP128=
PACZ SP 0735 AWOS MM 7 52/47/0710/006=
PAIM SP 0735 AWOS CLR BLO 120 10 59/45/3204/008=
PALU SP 0735 AWOS CLR BLO 120 10 55/34/2224/009=
PASV SP 0735 AWOS 90 SCT 110 SCT 10 50/49/0000/996=
PATL SP 0735 AWOS CLR BLO 120 10 62/42/0404/000=
PGUA 080733Z AUTO 08013KT 10SM SCT016 BKN023 28/ A2986 RMK AO2 CIG
     021V026 CIG 017 RWY24L SLP094 VISNO RWY24L $=
####018000720####
SPUS70 KWBC 080740
SPECI
KBAZ 080737Z AUTO 05004KT 10SM BKN016 BKN027 OVC044 25/24 A2993
     RMK AO2=
KDEN 080737Z 00000KT 6SM BR BKN004 BKN020 BKN090 15/14 A3033 RMK
     AO2 $=
KFRG 080737Z AUTO 00000KT 5SM BR SCT008 SCT090 BKN120 26/24 A3002
     RMK AO2=
KJEF 080737Z AUTO 00000KT 10SM -RA FEW005 SCT033 BKN060 24/23
     A3003 RMK AO2 LTG DSNT E RAB0654 P0018=
KACK 080738Z AUTO 13008KT 3SM BR OVC001 19/19 A3006 RMK AO2
     TSNO=
KBML 080738Z AUTO 00000KT 2 1/2SM BR OVC003 19/19 A3008 RMK AO2
     CIG 001V004 $=
KIJD 080738Z AUTO 00000KT 2 1/2SM BR OVC003 23/22 A3005 RMK AO2
     CIG 001V005=
KSTJ 080738Z AUTO 22007KT 6SM BR FEW004 BKN018 OVC023 23/22 A3007
     RMK AO2=
####018000371####
SAXX60 KWBC 080700 RRL
METAR
KWRB 080655Z COR 07001KT 10SM CLR 22/21 A3002 RMK AO2A SLP164
     T02230212 COR 0735=
KWRB 080655Z 07001KT 10SM CLR 22/21 A3002 RMK AO2A SLP164
     T02230212=
KWRB 080655Z COR 07001KT 10SM CLR 22/21 A3002 RMK AO2A SLP164
     T02230212 COR 0735=
KWRB 080655Z 07001KT 10SM CLR 22/21 A3002 RMK AO2A SLP164
     T02230212=
####018000153####
SAXX60 KWBC 080740
METAR
KGBK 080735Z AUTO 09017G24KT FEW032 FEW039 29/25 A2989 RMK A01=
KMHR 080735Z AUTO 19007KT 10SM CLR 15/10 A2984 RMK AO1=
####018000516####
SAAO32 GOOY 080730
METAR GABS 080730Z VRB01KT CAVOK 25/24 Q1016 NOSIG=
METAR GGOV 080730Z NIL=
METAR GOOY 080730Z 16005KT 130V200 9999 FEW013 SCT230 27/24 Q1011
NOSIG=
METAR DIAP 080730Z 00000KT 6000 SCT012 SCT080 BKN260 26/25 Q1015
TEMPO 6000 BKN018 BKN080=
METAR GQNN 080730Z 19006KT 6000 NSC 26/23 Q1011 NOSIG=
METAR GQPP 080730Z NIL=
METAR GUCY 080730Z NIL=
METAR GVAC 080730Z NIL=
METAR GFLL 080730Z NIL=
METAR GBYD 080730Z NIL=
METAR GLRB 080730Z 04004KT 9999 BKN012 FEW024CB 24/23 Q1014 CB-SW=
####018000284####
SAUS80 KWBC 080740
METAR
KCLI 080735Z AUTO 25003KT 7SM OVC004 22/21 A2997 RMK AO2=
KDVK 080737Z AUTO 00000KT 5SM 21/19 A3008 RMK AO1=
KMYT 080735Z AUTO 13015KT 10SM CLR 28/24 A2995 RMK A01=
KSCF 080740Z AUTO 15019G24KT 8SM FEW016 FEW020 SCT027 29/26 A2991
     RMK A01=
####018003665####
SAUS70 KWBC 080740
METAR
KVES 080734Z AUTO 00000KT 7SM CLR 21/20 A3007 RMK AO2
     T02060195=
K1A6 080735Z AUTO 00000KT 4SM BR CLR 22/22 A3010 RMK AO2=
K21D 080738Z AUTO 29005KT 10SM CLR 19/17 A3006 RMK AO2=
KAIG 080735Z AUTO 00000KT 1/2SM FG OVC001 19/19 A2999 RMK AO2=
KAIT 080733Z AUTO 00000KT 1SM BR VV007 13/12 A3007 RMK AO2=
KARV 080732Z AUTO 00000KT 10SM CLR 19/18 A3003 RMK AO2
     T01870176=
KATW 080735Z AUTO 17009KT 10SM DZ SCT050 SCT065 BKN085 21/20 A2997
     RMK AO2 P0001=
KBBB 080733Z AUTO 00000KT 3/4SM BR VV005 14/14 A3011 RMK AO2 VIS
     1/4V4=
KBJI 080734Z AUTO 21005KT 10SM CLR 15/14 A3004 RMK AO2=
KBUU 080734Z AUTO 00000KT 5SM RA SCT036 BKN055 BKN090 21/21 A3002
     RMK AO2=
KBWP 080731Z AUTO 26003KT 10SM CLR 16/14 A3008 RMK AO1
     T01550138=
KCMY 080735Z AUTO 27003KT 10SM CLR 21/20 A3002 RMK AO2
     T02110199=
KCWA 080735Z AUTO 27004KT 10SM -DZ OVC006 20/20 A3001 RMK AO2
     T02000199=
KEFT 080735Z AUTO 16004KT 10SM SCT090 SCT120 21/20 A3000 RMK AO2
     T02080196=
KFFM 080733Z AUTO 18004KT 10SM CLR 16/14 A3007 RMK AO2=
KFGN 080734Z AUTO 25008KT 1/2SM RA VV005 18/13 A2996 RMK AO2=
KGDB 080733Z AUTO 25005KT 10SM CLR 14/14 A3013 RMK AO2
     T01390136=
KGHW 080733Z AUTO 23004KT 10SM CLR 15/13 A3013 RMK AO2=
KIWA 080736Z AUTO 00000KT 10SM CLR 32/04 A2979 RMK AO2=
KLCK 080735Z AUTO 00000KT 5SM BR CLR 23/21 A3007 RMK AO2
     T02270208=
KMGG 080735Z AUTO 28003KT 10SM CLR 16/15 A3009 RMK AO2
     T01550147=
KMOX 080730Z AUTO 24005KT 10SM CLR 16/15 A3007 RMK AO2=
KMWM 080733Z AUTO 28004KT 10SM CLR 15/14 A3013 RMK AO2=
KMWO 080735Z AUTO 00000KT 3SM BR CLR 20/19 A3008 RMK AO2=
KPNM 080733Z AUTO 26003KT 10SM CLR 15/14 A3008 RMK AO2=
KPQN 080733Z AUTO 00000KT 10SM CLR 16/14 A3016 RMK AO2=
KPVB 080733Z AUTO 00000KT 10SM OVC120 20/19 A3002 RMK AO1
     T01970190=
KPWC 080733Z AUTO 00000KT 10SM SCT001 11/11 A3008 RMK AO2=
KRZN 080734Z AUTO 30006KT 10SM OVC047 20/16 A3005 RMK AO2
     T01960162=
KSME 080735Z AUTO 00000KT 4SM BR 21/20 A3008 RMK AO2=
KTWM 080733Z AUTO 00000KT 10SM SCT050 SCT055 17/14 A3001 RMK
     AO2=
KULM 080735Z AUTO 28003KT 10SM CLR 15/13 A3010 RMK AO2=
KUNI 080735Z AUTO 00000KT 4SM HZ CLR 23/18 A3007 RMK AO2
     T02250180=
K14Y 080738Z AUTO 00000KT 7SM CLR 15/14 A3010 RMK AO2
     T01450142=
K4M9 080735Z AUTO 19003KT 8SM FEW039 24/24 A3005 RMK AO2=
KAEJ 080735Z AUTO 32003KT 10SM OVC046 10/08 A3046 RMK AO2=
KBBF 080835Z AUTO VRB07G16KT 9SM SCT023 SCT029 SCT090 30/27 A2981
     RMK A01=
KBQX 080735Z AUTO 13021G28KT 9SM FEW020 SCT039 BKN045 29/25 A2984
     RMK A01=
KDLP 080735Z AUTO 13010KT 10SM SCT017 SCT050 29/25 A2998 RMK
     A01=
KEGV 080732Z AUTO 00000KT 4SM BR OVC002 19/19 A3001 RMK AO2
     T01880189=
KEHC 080735Z AUTO 12026KT 7SM FEW018 FEW031 FEW037 28/26 A2991 RMK
     A01=
KEIR 080735Z AUTO VRB06G15KT 9SM FEW018 28/25 A2996 RMK A01=
KEMK 080735Z AUTO 14028KT 7SM FEW030 FEW055 FEW065 29/25 A2986 RMK
     A01=
KETB 080732Z AUTO 24003KT 10SM SCT120 22/21 A3000 RMK AO2 P0001
     T02200206=
KEZS 080735Z AUTO 00000KT 10SM -DZ OVC005 22/21 A2996 RMK AO2
     P0001 T02220214=
KGLW 080733Z AUTO 00000KT 7SM CLR 21/20 A3007 RMK AO2
     T02140198=
KGYH 080735Z AUTO 30004KT 10SM CLR 24/19 A3003 RMK AO2=
KHFJ 080735Z AUTO 00000KT 7SM CLR 23/23 A3002 RMK AO1=
KHQI 080735Z AUTO 11033G43KT 1SM BR SCT004 BKN041 OVC060 26/24
     A2990 RMK A01=
KHXD 080735Z AUTO 22006KT 10SM CLR 24/21 A2999 RMK AO2 P0000=
KHYW 080735Z AUTO 00000KT 7SM SCT120 25/23 A2994 RMK AO2=
KIPN 080735Z AUTO 10012KT 10SM CLR /57 A2997 RMK A01=
####018000145####
SAAF11 LFPW 080700 RRC
METAR FOOG 080700Z /////KT 8000 SCT008 BKN023 23/22 Q1016=
METAR FOON 080700Z 19002KT 6000 SCT008 BKN100 22/21 Q1018=
####018000083####
SAFR36 LFPW 080730 RRA
METAR LFJR 080730Z AUTO VRB02KT 9999NDV NCD 24/14 Q1019=
####018001612####
SAUS70 KWBC 080740 RRA
METAR
KJVL 080735Z AUTO 00000KT 10SM RA BKN060 OVC080 23/20 A3000 RMK
     AO2 T02250202=
KJZI 080735Z AUTO 28008KT 10SM CLR 24/23 A2996 RMK A02 P000=
KLNL 080735Z AUTO 00000KT 10SM SCT004 SCT007 SCT050 19/18 A3003
     RMK AO2 T01890184=
KLUM 080735Z AUTO 28006KT 10SM CLR 20/18 A3002 RMK AO2=
KMCJ 080735Z AUTO 11010KT 10SM CLR 27/24 A2989 RMK AO1=
KMDJ 080735Z AUTO 13017KT 10SM SCT020 SCT044 BKN065 29/25 A2999
     RMK A01=
KMDZ 080735Z AUTO 28004KT 1/2SM FG OVC001 20/19 A3002 RMK AO2=
KMIU 080735Z AUTO 12021KT 9SM FEW017 SCT039 BKN045 28/25 A2981 RMK
     A01=
KMRJ 080735Z AUTO 00000KT 10SM BKN120 20/19 A3001 RMK AO2
     T02030187=
KMWC 080735Z AUTO 23003KT 10SM SCT090 SCT120 21/20 A3002 RMK AO2
     P0001=
KMZG 080735Z AUTO 00000KT 9SM CLR 29/26 A2981 RMK A01=
KOEO 080735Z AUTO 00000KT 10SM CLR 19/17 A3007 RMK AO2=
KPBH 080735Z AUTO 00000KT 3/4SM BR OVC001 21/19 A3003 RMK AO2=
KPCZ 080735Z AUTO 20003KT 7SM BKN006 22/21 A2998 RMK AO2
     T02180205=
KPDC 080733Z AUTO 00000KT 7SM OVC006 22/21 A3001 RMK AO2
     T02220210=
KRCX 080735Z AUTO 25003KT 10SM CLR 19/18 A3003 RMK AO2
     T01920183=
KRNH 080736Z AUTO 30004KT 10SM SCT042 18/17 A3006 RMK AO2
     T01830170=
KRPD 080734Z AUTO 28004KT 10SM CLR 19/17 A3005 RMK AO2
     T01860173=
KSPF 080735Z AUTO 00000KT 10SM CLR 12/08 A3028 RMK AO2=
KVBS 080735Z AUTO 12024KT 10SM BKN019 BKN027 BKN048 29/25 A2992
     RMK A01=
KVNP 080735Z AUTO 10011G16KT 7SM 28/26 A2996 RMK A01=
KY63 080740Z AUTO 21005KT 10SM CLR 15/15 A3009 RMK AO2
     T01530145=
####018000075####
SAAG31 KWBC 080700 RRD
METAR
SABE 080700Z 27008KT CAVOK 08/03 Q1019=
####018000101####
SAAO32 KWBC 080700 RRD
METAR
GABS 080730Z VRB01KT CAVOK 25/24 Q1016 NOSIG=
GQPP 080730Z NIL=
####018000095####
SAAL31 KWBC 080700 RRD
METAR
DABS 080730Z 00000KT CAVOK 23/12 Q1023=
DAUZ 080730Z NIL=
####018000176####
SAAO33 KWBC 080700 RRD
METAR
GBYD 080730Z NIL=
GFLL 080730Z NIL=
GGOV 080730Z NIL=
GLRB 080730Z 04004KT 9999 BKN012 FEW024CB 24/23 Q1014 CB-SW=
GUCY 080730Z NIL=
####018000125####
SAAW34 KWBC 080715 CCA
METAR
UAAA 080730Z 34003MPS 9999 SCT050CB BKN100 30/11 Q1014 WS RWY05
     88CLRD65 TEMPO TS=
####018000097####
SAAW34 KWBC 080645 RRG
METAR
OPSK 080655Z 060006KTS 6000 HZ SCT200 38/25 QNH 1003 R.H. 47=
####018000093####
SPUS31 KWBC 080740
SPECI
KDEN 080737Z 00000KT 6SM BR BKN004 BKN020 BKN090 15/14 A3033=
####018000134####
SANG31 AMMC 080700 RRA
METAR AYPY 080700Z 16004KT 9999 FEW020CB FEW020 BKN140 29/23 Q1007
     RMKS: CB TO N/ HZ IN AREA=


####018000198####
SAEE31 KWBC 080730 RRB
METAR
UMMM 080730Z 28005MPS 9999 OVC012 17/16 Q1013 R30/290050 NOSIG RMK
     QFE741=
UMMS 080730Z 28003MPS 250V320 9999 OVC009 18/16 Q1013 R31/CLRD//
     NOSIG=
####018000053####
SANT31 KWBC 080700 RRC
METAR
GVAC 080730Z NIL=
####018000776####
SARA36 RUMS 080730
METAR UWUU 080730Z 05003G06MPS 020V110 9999 FEW046 27/08 Q1016
82010060 NOSIG RMK QFE751/1001 MOD TURB 500-1600=
METAR USCC 080730Z 34009G14MPS 9999 SCT040 24/02 Q1014 NOSIG RMK
QFE741 27000070=
METAR USDD 080730Z 04009MPS CAVOK 16/01 Q1016 NOSIG RMK QFE756/1008
SC060=
METAR USMU 080730Z 01006MPS 9999 -SHRA SCT027CB OVC066 10/09 Q1005
NOSIG RMK QFE748 09250345=
METAR USNN 080730Z 17005MPS P6000 SCT026 BKN200 17/12 Q1002 NOSIG RMK
QFE746 SC065=
METAR USRK 080730Z 36004MPS 6000 BKN013 OVC066 12/11 Q1002 TEMPO 2000
BR BKN004 RMK QFE745 351///55=
METAR USRR 080730Z 35004G07MPS 6000 OVC009 12/10 Q1003 TEMPO BKN005
RMK QFE747  25////60=
METAR USSS 080730Z 34006G10MPS 300V020 CAVOK 23/03 Q1015 NOSIG RMK
QFE741 260///70=
####018000087####
SABN32 OBBI 080700 RRA
METAR OMAD 080700Z 16009KT 130V190 CAVTK 40/18 Q1000 A2955=
####018000334####
SARA35 RUMS 080730
METAR ULDD 080730Z NIL=
METAR UOHH 080730Z NIL=
METAR UOII 080730Z 08006MPS 9999 FEW040 BKN200 28/16 Q1005 NOSIG RMK
QFE751 30////60=
METAR UOOO 080730Z 04007G09MPS CAVOK 22/08 Q1010 NOSIG RMK QFE743
010///60=
METAR USCM 080730Z 36003G08MPS 270V050 9999 SKC 23/02 Q1016 NOSIG
01090065 RMK QFE723=
####018000539####
SARA32 RUMS 080730
METAR UHHH 080730Z 03005MPS 9999 SCT031CB OVC100 18/14 Q1010 NOSIG
RMK QFE751/1001 55090060=
METAR UHMA 080730Z NIL=
METAR UHMM 080730Z 24003MPS 9999 SCT010 OVC028 14/12 Q1016 NOSIG RMK
QFE747 88010070 MT OBSC=
METAR UHMP 080730Z NIL=
METAR UHNN 080730Z NIL=
METAR UHPP 080730Z NIL=
METAR UHSH 080730Z NIL=
METAR UHSS 080730Z 17003MPS 9999 BKN021CB 15/12 Q1010 NOSIG RMK MT
OBSC QFE756/1008 19CLRD70=
METAR UHWW 080730Z 25006MPS 9999 BKN021 OVC070 21/16 Q1009 NOSIG RMK
QFE756/1008 75CLRD70=
####018000409####
SARA33 RUMS 080730
METAR UIAA 080730Z VRB01MPS 9999 BKN050CB OVC200 32/09 Q1005 TEMPO
-TSRA RMK QFE695 29CLRD70=
METAR UIBB 080730Z 05004MPS 9999 FEW033 BKN200 28/12 Q1006 NOSIG RMK
QFE711/0948 30CLRD60=
METAR UIII 080730Z 16004MPS 9999 FEW050CB SCT100 OVC200 22/11 Q1006
NOSIG RMK QFE712/0950 12CLRD60=
METAR UIUU 080730Z 22006G11MPS 9999 SCT040CB OVC100 24/13 Q1007 NOSIG
RMK QFE711/0948=
####018000569####
SARA31 RUMS 080730
METAR UEEE 080730Z 00000MPS 9999 SCT050CB BKN200 25/08 Q1007 TEMPO
VRB14MPS -TSRA RMK QFE747 2309//60=
METAR UELL 080730Z 19002MPS 9999 SCT030CB BKN200 19/14 Q1010 TEMPO TS
RMK QFE683 08CLRD70=
METAR COR UERP 080730Z 01005MPS 9999 SCT035CB BKN045 15/08 Q1014
NOSIG RMK QFE716 35090065=
METAR UERR 080730Z 32004G07MPS 9999 -DZ OVC013 14/14 Q1011 NOSIG RMK
QFE727 24290255=
METAR UESO 080730Z 26009G12MPS 9999 OVC008 07/05 Q1003 NOSIG RMK
QFE750 SC060=
METAR UEST 080730Z 10004MPS CAVOK 09/03 Q1016 NOSIG RMK QFE761
21000060=
####018000662####
SARS35 RUMS 080730
METAR USPP 080730Z 35003MPS 290V360 CAVOK 26/09 Q1016 NOSIG RMK
QFE751/1002 21090060=
METAR UWKD 080730Z NIL=
METAR UWKE 080730Z 00000MPS CAVOK 28/10 Q1016 NOSIG RMK QFE745/0994
22090070=
METAR UWKS 080730Z NIL=
METAR UWLL 080730Z 10002MPS CAVOK 29/10 Q1016 NOSIG RMK QFE749/0999
SC065=
METAR UWLW 080730Z NIL=
METAR UWOR 080730Z NIL=
METAR UWOO 080730Z NIL=
METAR UWPP 080730Z 12005MPS 9999 SCT033CB BKN100 26/11 Q1014 NOSIG
RMK QFE746 11090060=
METAR UWSS 080730Z 04002MPS CAVOK 26/12 Q1015 NOSIG RMK QFE749
120///60=
METAR UWWW 080730Z 07007MPS CAVOK 29/09 Q1015 NOSIG RMK QFE748/0998
05CLRD60 15//99//=
####018000265####
SARS34 RUMS 080730
METAR UUYH 0080730Z 19001MPS CAVOK 24/07 Q1018 NOSIG RMK QFE 751
18CLRD60=
METAR UUYS 080730Z 18002MPS CAVOK 19/07 Q1017 NOSIG RMK QFE756
14CLRD60=
METAR UUYY 080730Z VRB01MPS 9999 FEW023 29/17 Q1016 NOSIG 19CLRD61
RMK QFE753/1004=
####018000125####
SARA31 KWBC 080700 CCB
METAR
UAAA 080730Z 34003MPS 9999 SCT050CB BKN100 30/11 Q1014 WS RWY05
     88CLRD65 TEMPO TS=
####018000482####
SARA31 KWBC 080700 RRI
METAR
UAFO 080730Z 30003MPS 9999 FEW050TCU 33/19 Q1019 NOSIG RMK
     QFEM685=
UMBB 080700Z 29004MPS 8000 NSC 18/13 Q1018 NOSIG=
UMGG 080730Z VRB02MPS 9999 SCT014 BKN100 22/19 Q1013 R10/190055
     NOSIG=
UMMM 080730Z 28005MPS 9999 OVC012 17/16 Q1013 R30/290050 NOSIG RMK
     QFE741=
UMMS 080730Z 28003MPS 250V320 9999 OVC009 18/16 Q1013 R31/CLRD//
     NOSIG=
UTNU 080730Z 17003MPS 130V230 CAVOK 40/15 Q1008 R13/CLRD60
     NOSIG=
####018000700####
SARS31 RUMS 080730
METAR ULAA 080730Z 30003MPS 260V360 9999 FEW030 FEW/// 25/18 Q1015
NOSIG RMK QFE759/1013 SC070=
METAR ULKK 080730Z NIL=
METAR ULMM 080730Z 36004MPS 9999 BKN012CB 13/09 Q1016 NOSIG RMK
QFE755 32190060=
METAR ULOL 080730Z NIL=
METAR ULOO 080730Z VRB01MPS P6000 FEW033 SCT200 26/18 Q1012 NOSIG RMK
QFE755=
METAR ULWW 080730Z NIL=
METAR UMKK 080730Z 29006MPS P8000 BKN200 21/17 Q1019 NOSIG RMK QFE
763 SC07=
METAR UUBP 080730Z NIL=
METAR UUOB 080730Z NIL=
METAR UUOK 080730Z NIL=
METAR UUOO 080730Z 18002G05MPS 120V210 9999 SCT033 26/16 Q1014 NOSIG
RMK 13090070=
METAR UWGG 080730Z 12004MPS 070V170 8000 SKC 31/11 Q1016 NOSIG RMK
QFE755 18090070=
####018001775####
SAIY40 LIIB 080700
METAR LIMG 080650Z 00000KT 9999 BKN080 25/20 Q1020 RMK VIS MIN 9999=
METAR LIMK 080655Z 02007KT 9999 FEW020 SCT030 18/14 Q1022 RMK BKN VAL
      NIL VIS MIN 9999=
METAR LIMN 080655Z /////KT 9999 SCT050 24/16 Q1021 RMK SCT VIS MIN
      9999 BLU=
METAR LIMP 080650Z 06005KT 6000 NSC 22/17 Q1022 RMK VIS MIN 6000=
METAR LIMS 080655Z 11006KT 050V130 CAVOK 23/19 Q1021 RMK FEW FEW200
      VIS MIN 9999 WIND THR30 10005KT BLU=
METAR LIMZ 080700Z NIL=
METAR LIPA 080655Z 21002KT 9999 BKN045 SCT070 21/16 Q1022 RMK BKN VIS
      MIN 9999 A3019 BLU=
METAR LIPB 080650Z 25002KT 9999 BKN070 24/11 Q1022 RMK MON LIB VIS
MIN 9999=
METAR LIPC 080655Z 16009KT CAVOK 24/14 Q1021 RMK FEW FEW200 VIS MIN
      9999 WIND THR12 13008KT BLU=
METAR LIPF 080655Z 36002KT CAVOK 23/19 Q1021 RMK FEW FEW250 VIS MIN
      9999=
METAR LIPH 080645Z 03002KT 9999 SCT020 BKN045 22/18 Q1023 RMK OVC VIS
      MIN 9999 WIND THR07 /////KT BLU=
METAR LIPI 080655Z 07004KT 9999 FEW030 BKN060 23/19 Q1022 RMK BKN
     VIS MIN 9999 WIND THR06 08004KT BLU=
METAR LIPL 080655Z 09007KT 050V130 9999 FEW045 SCT063 23/19 Q1022 RMK
      BKN VIS MIN 9999 BLU=
METAR LIPO 080650Z 09008KT 9999 FEW045 BKN065 24/15 Q1021 RMK VIS
MIN 9999=
METAR LIPQ 080650Z VRB01KT 9999 BKN050 21/15 Q1022=
METAR LIPR 080645Z 12006KT CAVOK 25/18 Q1021 RMK SKC VIS MIN 9999
      WIND THR31 14007KT BLU=
METAR LIPS 080655Z 05004KT 9999 BKN040 21/15 Q1022 RMK BKN VIS MIN
      9999 BLU=
METAR LIPX 080645Z 06009KT 9999 SCT060 BKN080 25/15 Q1021 RMK BKN VIS
      MIN 9999 BLU=
METAR LIPY 080650Z 14006KT 100V200 CAVOK 25/12 Q1021 RMK VIS MIN
9999=
METAR LIVC 080655Z 36012KT CAVOK 12/10 Q1029 RMK SCT SCT110 MON LIB
      VAL NIL VIS MIN 9999=
####018000882####
SARS32 RUMS 080730
METAR URKA 080730Z 06004MPS 9999 SCT030 28/20 Q1013 NOSIG RMK  065=
METAR URKK 080730Z 12003MPS 080V150 9999 FEW030 SCT300 27/18 Q1013
NOSIG RMK QFE757 SC070=
METAR URKM 080730Z NIL=
METAR URML 080730Z 01005G10MPS 9999 SKC 31/21 Q1013 NOSIG RMK QFE759
/ 07=
METAR URMM 080730Z 09004MPS 9999 SCT040 27/20 Q1014 NOSIG RMK /
SC070=
METAR URMN 080730Z 34002MPS 9999 SCT026 26/20 Q1015 NOSIG RMK /
QFE724 SC07=
METAR URMT 080730Z 05005G08MPS 9999 FEW020 27/16 Q1015 NOSIG RMK
QFE721 SC07=
METAR URRR 080730Z VRB01MPS 9999 FEW023 28/16 Q1014 NOSIG RMK SC070=
METAR URSS 080730Z 26002MPS 9999 SKC 28/22 Q1011 NOSIG RMK / QFE757
06CLRD70=
METAR URWA 080730Z 36003MPS CAVOK 33/14 Q1011 NOSIG RMK SC07=
METAR URWI 080730Z 36002MPS 9999 SKC 27/17 Q1014 NOSIG RMK SC065=
METAR URWW 080730Z 32003G06MPS CAVOK 27/18 Q1014 NOSIG RMK SC070=
####018000073####
SASD20 OEJD 080700 RRB
METAR OESK 080700Z 27007KT CAVOK 37/00 Q1010=
####018000386####
SARS33 RUMS 080730
METAR ULLI 080730Z 14002MPS 100V170 CAVOK 28/19 Q1013 NOSIG=
METAR UUDD 080730Z 15003MPS 090V200 9999 FEW033 BKN200 25/17 Q1015
NOSIG=
METAR UUEE 080730Z 14004MPS CAVOK 26/15 Q1014 NOSIG=
METAR UUEM 080730Z NIL=
METAR UUWW 080730Z 12003MPS CAVOK 22/17 Q1014 06000070 NOSIG=
METAR UUMO 080730Z VRB02MPS CAVOK 23/17 Q1015 NOSIG RMK QFE746/0995
SC060=
####018000890####
SARA34 RUMS 080730
METAR UNAA 080730Z 23008G16MPS 180V300 5000 -TSRA SCT030CB BKN100
15/12 Q1009 TEMPO 34010G15MPS 2000 TSRAGR RMK QFE735 201///65=
METAR COR UNBB 080730Z 19008MPS 9999 VCTS SCT033CB SCT100 20/04 Q1009
NOSIG RMK QFE734=
METAR UNEE 080730Z 26006G11MPS 9999 SCT026 BKN200 18/15 Q1008 NOSIG
RMK QFE733 23CLRD60=
METAR UNKL 080730Z VRB01MPS 9999 BKN016CB OVC083 17/14 Q1008 NOSIG
RMK QFE731 29////55=
METAR UNNT 080730Z 30004MPS 9999 BKN050CB BKN100 17/07 Q1007 NOSIG
RMK QFE745/0994 25090070=
METAR UNOO 080730Z 29006G09MPS 9999 BKN023CB 14/09 Q1007 NOSIG
25CLRD06 RMK QFE747=
METAR UNWW 080730Z 23002MPS 9999 BKN026CB OVC130 19/09 Q1009 NOSIG
RMK QFE730 19CLRD70=
METAR USTR 080730Z 33010G13MPS CAVOK 20/04 Q1011 NOSIG RMK
QFE749/0998 30CLRD65=
METAR USHH 080730Z VRB02G05MPS 7000 -SHRA BKN018CB OVC080 11/10 Q1008
NOSIG RMK QFE752 SC06=
####018000134####
SAXX99 KWBC 080700 RRX
METAR
EGYE 080650Z 25010KT CAVOK ///// Q1017 BLU=
ENHK 080720Z 10013KT 9999 FEW035 BKN080 15/08 Q1012=
####018000779####
SARA36 RUMS 080730
METAR UWUU 080730Z 05003G06MPS 020V110 9999 FEW046 27/08 Q1016
82010060 NOSIG RMK QFE751/1001 MOD TURB 500-1600=
METAR USCC 080730Z 34009G14MPS 9999 SCT040 24/02 Q1014 NOSIG RMK
QFE741 27000070=
METAR USDD 080730Z 04009MPS CAVOK 16/01 Q1016 NOSIG RMK QFE756/1008
SC060=
METAR USMU 080730Z 01006MPS 9999 -SHRA SCT027CB OVC066 10/09 Q1005
NOSIG RMK QFE748 09250345=
METAR USNN 080730Z 17005MPS P6000 SCT026 BKN200 17/12 Q1002 NOSIG RMK
QFE746 SC065=
METAR USRK 080730Z 36004MPS 6000 BKN013 OVC066 12/11 Q1002 TEMPO 2000
BR BKN004 RMK QFE745 351///55=
METAR USRR 080730Z 35004G07MPS 6000 OVC009 12/10 Q1003 TEMPO BKN005
RMK QFE747 йръ 25////60=
METAR USSS 080730Z 34006G10MPS 300V020 CAVOK 23/03 Q1015 NOSIG RMK
QFE741 260///70=
####018000894####
SARS32 RUMS 080730
METAR URKA 080730Z 06004MPS 9999 SCT030 28/20 Q1013 NOSIG RMK уг 065=
METAR URKK 080730Z 12003MPS 080V150 9999 FEW030 SCT300 27/18 Q1013
NOSIG RMK QFE757 SC070=
METAR URKM 080730Z NIL=
METAR URML 080730Z 01005G10MPS 9999 SKC 31/21 Q1013 NOSIG RMK QFE759
з/п уг07=
METAR URMM 080730Z 09004MPS 9999 SCT040 27/20 Q1014 NOSIG RMK з/п
SC070=
METAR URMN 080730Z 34002MPS 9999 SCT026 26/20 Q1015 NOSIG RMK з/п
QFE724 SC07=
METAR URMT 080730Z 05005G08MPS 9999 FEW020 27/16 Q1015 NOSIG RMK
QFE721 SC07=
METAR URRR 080730Z VRB01MPS 9999 FEW023 28/16 Q1014 NOSIG RMK SC070=
METAR URSS 080730Z 26002MPS 9999 SKC 28/22 Q1011 NOSIG RMK з/п QFE757
06CLRD70=
METAR URWA 080730Z 36003MPS CAVOK 33/14 Q1011 NOSIG RMK SC07=
METAR URWI 080730Z 36002MPS 9999 SKC 27/17 Q1014 NOSIG RMK SC065=
METAR URWW 080730Z 32003G06MPS CAVOK 27/18 Q1014 NOSIG RMK SC070=
####018000093####
SPUS73 KWBC 080740
SPECI
KDEN 080737Z 00000KT 6SM BR BKN004 BKN020 BKN090 15/14 A3033=
####018000302####
SAUK KAWN 080700 RRI
METAR EGWU 080729Z 24007KT 4000 -RADZ SCT004 BKN007 OVC015 17/16 Q1019
      RERA REDZ YLO2 BECMG 6000 FEW004 BKN007 GRN=
METAR EGYE 080650Z 25010KT CAVOK ///// Q1017 BLU=
METAR EGYM 080733Z 26009KT 9999 -RA FEW012 SCT022 BKN040 18/14 Q1018
      WHT BECMG FEW030 BLU=
####018000157####
SAXX70 KAWN 080700 RRR
METAR KQEX 080730Z AUTO 08002KT 7SM FEW060 29/18 A2972 RMK A02=
METAR KQFT 080730Z AUTO 19002KT 7SM OVC035 28/18 A2982 RMK A02=
####018000086####
SANO36 ENMI 080720 RRB
METAR ENHK 080720Z 10013KT 9999 FEW035 BKN080 15/08 Q1012=
####018000090####
SPCN42 CWAO 080739
SPECI CYUA 080739Z AUTO 31016G22KT 9SM OVC003 OVC017 05/ A3007=

####018001677####
SAEU KAWN 080700 RRX
METAR EGVO 080737Z 24006KT 8000 BR OVC004 17/16 Q1019 YLO2 BECMG BKN012
      GRN=
METAR EGYE 080650Z 25010KT CAVOK ///// Q1017 BLU=
METAR EGYM 080733Z 26009KT 9999 -RA FEW012 SCT022 BKN040 18/14 Q1018
      WHT BECMG FEW030 BLU=
METAR ENHK 080720Z 10013KT 9999 FEW035 BKN080 15/08 Q1012=
METAR ETND 080720Z 18007KT 9999 FEW180 23/13 Q1019 BLU/=
METAR LFOJ 080730Z 19004KT 140V230 CAVOK 25/14 Q1019=
METAR LFRJ 080730Z AUTO VRB01KT 9999NDV OVC010/// 17/15 Q1019=
METAR LFRL 080730Z VRB02KT 9999 BKN008 17/16 Q1019=
METAR LFRN 080736Z AUTO VRB03KT 9999NDV ///////// 19/15 Q1019=
METAR LKKV 080730Z VRB02KT CAVOK 18/11 Q1024 RMK REG QNH 1021=
METAR LKMT 080730Z VRB01KT 9999 FEW033 18/11 Q1024 NOSIG RMK REG QNH
      1021=
METAR LKPR 080730Z 14004KT 070V190 CAVOK 20/09 Q1024 NOSIG RMK REG
      QNH 1021=
METAR LKTB 080730Z 27004KT 220V330 9999 FEW035 20/10 Q1023 NOSIG RMK
      REG QNH 1021=
METAR LPAZ 080730Z 26002KT 9999 FEW016 BKN032 20/18 Q1024=
METAR LPHR 080730Z 35003KT 9999 SCT013 BKN030 20/17 Q1023=
METAR LRAR 080730Z 01006KT 330V060 9999 FEW015 19/15 Q1020=
METAR LRBC 080730Z 34014KT CAVOK 22/14 Q1017=
METAR LRBM 080730Z VRB02KT 9999 FEW007 BKN009 BKN011 15/15 Q1019 1019//95=
METAR LRCL 080730Z 31006KT 9999 FEW010 BKN014 OVC020 15/12 Q1020 0821//95=
METAR COR LRCV 080730Z 04008KT 360V070 9999 FEW045 20/14 Q1016=
METAR LRIA 080730Z 27006KT 220V320 9999 SCT015 SCT028 20/16 Q1016=
METAR LROD 080730Z 03006KT 350V070 CAVOK 19/14 Q1020=
METAR LRSM 080730Z 35010KT 9999 FEW013 18/14 Q1019=
METAR LRTM 080730Z 21006KT 180V250 9999 SCT007 SCT013 BKN023 16/13
      Q1020 0719//95=
####018000961####
SAUS20 KNKA 080740
METAR KBWD 080735Z AUTO 11004KT 10SM FEW016 SCT030 BKN046 23/22 
     A3000 RMK AO2 =
SPECI KGFL 080739Z AUTO 29003KT 1SM BR CLR 21/21 A3001 RMK AO2=
SPECI KGLH 080739Z AUTO 00000KT 1 1/2SM BR CLR 22/22 A3004 RMK AO2=
SPECI KHIB 080739Z AUTO 00000KT 1/2SM FG VV001 10/09 A3005 RMK AO2=
METAR KO22 080735Z AUTO 00000KT 10SM CLR 17/11 A2991 RMK AO1 =
METAR KRRL 080735Z AUTO 31003KT 7SM SCT001 19/18 A3002 RMK AO2 
     T01850180=
METAR KRYV 080735Z AUTO 16003KT 10SM SCT012 22/20 A3000 RMK AO2=
METAR KSTE 080735Z AUTO 20003KT 3SM BR SCT003 OVC014 22/21 A2999 
     RMK AO2=
METAR KSUW 080735Z AUTO 29003KT 10SM SCT060 18/15 A3001 RMK AO2=
METAR KTKV 080735Z AUTO 00000KT 1SM BR VV007 17/17 A3002 RMK AO2 
     T01720165=
METAR KUES 080735Z AUTO 00000KT 7SM BKN070 21/20 A3002 RMK AO2 
     T02110196=
METAR KUNU 080732Z AUTO 12003KT 10SM RA SCT070 SCT075 SCT085 
     21/20 A3000 RMK AO2 P0001 T02100196=
####018000118####
SAMH31 PKWA 080740
METAR PKWA 080740Z AUTO 08009KT 10SM SCT012 BKN040 OVC080 25/23 A2984 RMK AO2 P0007 T02520232=
####018001518####
SARS18 KAWN 080700 RRJ
METAR UELL 080730Z 19002MPS 9999 SCT030CB BKN200 19/14 Q1010 TEMPO
      TS RMK QFE683 08CLRD70=
METAR UHSS 080730Z 17003MPS 9999 BKN021CB 15/12 Q1010 NOSIG RMK MT
      OBSC QFE756/1008 19CLRD70=
METAR UHWW 080730Z 25006MPS 9999 BKN021 OVC070 21/16 Q1009 NOSIG RMK
      QFE756/1008 75CLRD70=
METAR UIAA 080730Z VRB01MPS 9999 BKN050CB OVC200 32/09 Q1005 TEMPO
      -TSRA RMK QFE695 29CLRD70=
METAR UIBB 080730Z 05004MPS 9999 FEW033 BKN200 28/12 Q1006 NOSIG RMK
      QFE711/0948 30CLRD60=
METAR UIII 080730Z 16004MPS 9999 FEW050CB SCT100 OVC200 22/11 Q1006
      NOSIG RMK QFE712/0950 12CLRD60=
METAR UIUU 080730Z 22006G11MPS 9999 SCT040CB OVC100 24/13 Q1007 NOSIG
      RMK QFE711/0948=
METAR ULLI 080730Z 14002MPS 100V170 CAVOK 28/19 Q1013 NOSIG=
METAR UMKK 080730Z 29006MPS P8000 BKN200 21/17 Q1019 NOSIG RMK QFE
      763 SC07=
METAR URKA 080730Z 06004MPS 9999 SCT030 28/20 Q1013 NOSIG RMK 065=
METAR URMM 080730Z 09004MPS 9999 SCT040 27/20 Q1014 NOSIG RMK / SC070=
METAR URSS 080730Z 26002MPS 9999 SKC 28/22 Q1011 NOSIG RMK / QFE757
      06CLRD70=
METAR UUDD 080730Z 15003MPS 090V200 9999 FEW033 BKN200 25/17 Q1015
      NOSIG=
METAR UUEE 080730Z 14004MPS CAVOK 26/15 Q1014 NOSIG=
METAR UUWW 080730Z 12003MPS CAVOK 22/17 Q1014 06000070 NOSIG=
METAR UWGG 080730Z 12004MPS 070V170 8000 SKC 31/11 Q1016 NOSIG RMK
      QFE755 18090070=
METAR UWPP 080730Z 12005MPS 9999 SCT033CB BKN100 26/11 Q1014 NOSIG
      RMK QFE746 11090060=
####018000702####
SAUS99 KWBC 080741
METAR
KBWD 080735Z AUTO 11004KT 10SM FEW016 SCT030 BKN046 23/22 A3000
     RMK AO2=
KO22 080735Z AUTO 00000KT 10SM CLR 17/11 A2991 RMK AO1=
KRRL 080735Z AUTO 31003KT 7SM SCT001 19/18 A3002 RMK AO2
     T01850180=
KRYV 080735Z AUTO 16003KT 10SM SCT012 22/20 A3000 RMK AO2=
KSTE 080735Z AUTO 20003KT 3SM BR SCT003 OVC014 22/21 A2999 RMK
     AO2=
KSUW 080735Z AUTO 29003KT 10SM SCT060 18/15 A3001 RMK AO2=
KTKV 080735Z AUTO 00000KT 1SM BR VV007 17/17 A3002 RMK AO2
     T01720165=
KUES 080735Z AUTO 00000KT 7SM BKN070 21/20 A3002 RMK AO2
     T02110196=
KUNU 080732Z AUTO 12003KT 10SM RA SCT070 SCT075 SCT085 21/20 A3000
     RMK AO2 P0001 T02100196=
####018000217####
SPUS99 KWBC 080741
SPECI
KGFL 080739Z AUTO 29003KT 1SM BR CLR 21/21 A3001 RMK AO2=
KGLH 080739Z AUTO 00000KT 1 1/2SM BR CLR 22/22 A3004 RMK AO2=
KHIB 080739Z AUTO 00000KT 1/2SM FG VV001 10/09 A3005 RMK AO2=
####018001198####
SAAU32 YBBN 080730
METAR YAMB 080730Z 17009KT 9999 BKN040 BKN055 18/10 Q1020=
METAR YMAV 080730Z AUTO 11005KT 9999NDV // OVC052 10/08 Q1027=
METAR YBRM 080730Z 06008KT 9999 BKN034 28/21 Q1010=
METAR YCIN 080730Z AUTO 10005KT //// // ////// 26/19 Q1011=
METAR YSDU 080730Z AUTO 11007KT 9999NDV // NCD 11/05 Q1024=
METAR YFRT 080730Z NIL=
METAR YGEL 080730Z 32021G32KT 9999 7000E 17/15 Q1003=
METAR YPGV 080730Z 14015KT 9999 FEW018 BKN350 25/21 Q1012=
METAR YBHM 080730Z NIL=
METAR YMHB 080730Z 00000KT 9999 FEW035 07/04 Q1029=
METAR YPKG 080730Z AUTO 36009KT 9999NDV // SCT062 OVC086 19/04 Q1006=
METAR YMLT 080730Z AUTO 16003KT 9999NDV // BKN037 06/03 Q1029=
METAR YBMA 080730Z AUTO 17011KT 9999NDV // NCD 16/11 Q1018=
METAR YSNF 080730Z 10011KT 9999 FEW013 BKN025 BKN100 14/11 Q1016=
METAR YPEA 080730Z NIL=
METAR YPPD 080730Z AUTO 04016KT 9999NDV // SCT016 BKN115 25/20 Q1009=
METAR YSRI 080730Z AUTO 10004KT 9999NDV // SCT026 BKN047 OVC071 12/11
Q1026=
METAR YBRK 080730Z 24005KT 9999 FEW004 BKN030 13/12 Q1019=
METAR YWLM 080730Z AUTO 25006KT 9999NDV // BKN040 BKN050 OVC070 13/12
Q1024=
METAR YPWR 080730Z AUTO 09005KT 9999NDV // NCD 14/M01 Q1023=
####018001508####
SAAU31 YBBN 080730
METAR YPAD 080730Z 17001KT 9999 FEW045 SCT056 13/09 Q1025=
METAR YBAS 080730Z 11009KT 9999 FEW034 15/06 Q1019=
METAR YBBN 080730Z 18011KT 9999 FEW040 SCT077 BKN105 18/10 Q1019
NOSIG=
METAR YBCS 080730Z 15007KT 9999 FEW024 BKN040 25/19 Q1015=
METAR YSCB 080730Z 09006KT 9999 FEW050 07/02 Q1026
RMK USE TAF FOR ARRIVALS AFTER 0900Z
NOSIG=
METAR YPXM 080730Z NIL=
METAR YPCC 080730Z AUTO 13008KT 9999NDV // NCD 28/22 Q1012=
METAR YCFS 080730Z 21011KT 9999 -SHRA FEW030 SCT040 BKN110 15/12
Q1021
RMK STATION CLOSE, REOPEN 1945Z=
METAR YPDN 080730Z 01011KT CAVOK 29/20 Q1011=
METAR YBCG 080730Z AUTO 19012KT 9999NDV // SCT027 BKN049 OVC096 16/12
Q1020=
METAR YHID 080730Z AUTO 14012KT 9999NDV // SCT037 OVC042 26/23 Q1011=
METAR YPJT 080730Z AUTO 35011KT 9999NDV // SCT030 SCT042 OVC074 16/14
Q0999=
METAR YPKU 080730Z AUTO 14005KT 9999NDV // NCD 27/14 Q1012=
METAR YPLM 080730Z AUTO 06005KT 9999NDV // BKN084 21/16 Q1008=
METAR YMML 080730Z 17005KT 9999 FEW031 BKN042 10/04 Q1027
NOSIG=
METAR YPPH 080730Z 34013KT 6000 SHRA FEW008 SCT022 BKN050 FEW022CB
15/14 Q1000
FM0730 33018G28KT 9999 -SHRA BKN020
INTER 0730/1030 27025G35KT 3000 +SHRA BKN010=
METAR YSSY 080730Z 21016KT 9999 -SHRA SCT035 BKN070 12/12 Q1026
INTER 0730/1030 5000 SHRA BKN015=
METAR YSTW 080730Z AUTO 15008KT 9999NDV // SCT049 BKN060 13/06 Q1022=
METAR YPTN 080730Z 11008KT CAVOK 29/14 Q1012=
METAR YBTL 080730Z 06008KT 9999 FEW017 SCT045 BKN170 23/19 Q1015=
####018000372####
SAEE31 LOWM 080730
METAR UACK 080730Z 33008G13MPS 9999 BKN053 18/03 Q1011 02010070 NOSIG
RMK QFE735=
METAR UACP 080730Z NIL=
METAR UAII 080730Z NIL=
METAR UADD 080730Z 03003G08MPS 020V100 9999 NSC 33/03 Q1014
NOSIG RMK QFE703/0938=
METAR UASK 080730Z 31003MPS 9999 SCT033 BKN100 21/10 Q1012
                   300/0060 NOSIG RMK QFE734=
METAR UASP 080730Z NIL=
####018000085####
SANO36 ENMI 080720 RRB
METAR ENHK 080720Z 10013KT 9999 FEW035 BKN080 15/08 Q1012=
####018000399####
SAID31 WIII 080730
METAR WIMM 080730Z 03008KT 7000 SCT017 34/24 Q1008 NOSIG= 
METAR WIDD 080730Z 24006KT 9999 FEW017 29/24 Q1009= 
METAR WADD 080730Z 10007KT 9999 FEW018CB FEW018 29/25 Q1008 NOSIG= 
METAR WAAA 080730Z 29007KT 9999 FEW020 31/25 Q1008= 
METAR WIII 080730Z 30007KT 270V340 8000 FEW019CB SCT02032/22 Q1009 RM
K CB TO W NOSIG= 
METAR WIHH NIL=
METAR WABB NIL=
METAR WARR NIL=
####018001739####
SAIY40 LIIB 080700
METAR LIMG 080650Z 00000KT 9999 BKN080 25/20 Q1020 RMK VIS MIN 9999=
METAR LIMK 080655Z 02007KT 9999 FEW020 SCT030 18/14 Q1022 RMK BKN VAL
      NIL VIS MIN 9999=
METAR LIMN 080655Z /////KT 9999 SCT050 24/16 Q1021 RMK SCT VIS MIN
      9999 BLU=
METAR LIMP 080650Z 06005KT 6000 NSC 22/17 Q1022 RMK VIS MIN 6000=
METAR LIMS 080655Z 11006KT 050V130 CAVOK 23/19 Q1021 RMK FEW FEW200
      VIS MIN 9999 WIND THR30 10005KT BLU=
METAR LIMZ 080700Z NIL=
METAR LIPA 080655Z 21002KT 9999 BKN045 SCT070 21/16 Q1022 RMK BKN VIS
      MIN 9999 A3019 BLU=
METAR LIPB 080650Z 25002KT 9999 BKN070 24/11 Q1022 RMK MON LIB VIS
MIN 9999=
METAR LIPC 080655Z 16009KT CAVOK 24/14 Q1021 RMK FEW FEW200 VIS MIN
      9999 WIND THR12 13008KT BLU=
METAR LIPF 080655Z 36002KT CAVOK 23/19 Q1021 RMK FEW FEW250 VIS MIN
      9999=
METAR LIPH 080645Z 03002KT 9999 SCT020 BKN045 22/18 Q1023 RMK OVC VIS
      MIN 9999 WIND THR07 /////KT BLU=
METAR LIPI 080655Z 07004KT 9999 FEW030 BKN060 23/19 Q1022 RMK BKN
     VIS MIN 9999 WIND THR06 08004KT BLU=
METAR LIPL 080655Z 09007KT 050V130 9999 FEW045 SCT063 23/19 Q1022 RMK
      BKN VIS MIN 9999 BLU=
METAR LIPO 080650Z 09008KT 9999 FEW045 BKN065 24/15 Q1021 RMK VIS
MIN 9999=
METAR LIPQ 080650Z VRB01KT 9999 BKN050 21/15 Q1022=
METAR LIPR 080645Z 12006KT CAVOK 25/18 Q1021 RMK SKC VIS MIN 9999
      WIND THR31 14007KT BLU=
METAR LIPS 080655Z 05004KT 9999 BKN040 21/15 Q1022 RMK BKN VIS MIN
      9999 BLU=
METAR LIPX 080645Z 06009KT 9999 SCT060 BKN080 25/15 Q1021 RMK BKN VIS
      MIN 9999 BLU=
METAR LIPY 080650Z 14006KT 100V200 CAVOK 25/12 Q1021 RMK VIS MIN
9999=
METAR LIVC 080655Z 36012KT CAVOK 12/10 Q1029 RMK SCT SCT110 MON LIB
      VAL NIL VIS MIN 9999=
####018000094####
SADL51 ETGT 080720 RRC
METAR
ETND 080720Z 18007KT 9999 FEW180 23/13 Q1019
      BLU+=
####018000098####
SPUS73 KWBC 080741
SPECI
KSTJ 080738Z AUTO 22007KT 6SM BR FEW004 BKN018 OVC023 23/22 A3007=
####018000075####
SPCN44 CWAO 080740
SPECI CYUS 080740Z AUTO ///// 9SM CLR 11/ A2980=

####018000381####
SAEE31 LOWM 080730
METAR UACK 080730Z 33008G13MPS 9999 BKN053 18/03 Q1011 02010070 NOSIG
RMK QFE735=
METAR UACP 080730Z NIL=
METAR UAII 080730Z NIL=
METAR UADD 080730Z 03003G08MPS 020V100 9999 NSC 33/03 Q1014
NOSIG RMK QFE703/0938=
METAR UASK 080730Z 31003MPS 9999 SCT033 BKN100 21/10 Q1012
                   300/0060 NOSIG RMK QFE734=
METAR UASP 080730Z NIL=
####018000084####
SAFR36 LFPW 080730 RRA
METAR LFJR 080730Z AUTO VRB02KT 9999NDV NCD 24/14 Q1019=
####018000165####
SAID33 WIII 080730
METAR WABP NIL=
METAR WAJJ NIL=
METAR WAKK NIL=
METAR WAPP NIL=
METAR WARS NIL=
METAR WIAT NIL=
METAR WATT NIL=
METAR WALR NIL=
####018000408####
SAID31 WIII 080730
METAR WIMM 080730Z 03008KT 7000 SCT017 34/24 Q1008 NOSIG= 
METAR WIDD 080730Z 24006KT 9999 FEW017 29/24 Q1009= 
METAR WADD 080730Z 10007KT 9999 FEW018CB FEW018 29/25 Q1008 NOSIG= 
METAR WAAA 080730Z 29007KT 9999 FEW020 31/25 Q1008= 
METAR WIII 080730Z 30007KT 270V340 8000 FEW019CB SCT02032/22 Q1009 RM
K CB TO W NOSIG= 
METAR WIHH NIL=
METAR WABB NIL=
METAR WARR NIL=
####018000087####
SAYG31 LYBM 080730 RRA
METAR LYTV 080730Z 31003KT 230V020 CAVOK 25/07 Q1018 NOSIG=
####018001509####
SAAU31 YBBN 080730
METAR YPAD 080730Z 17001KT 9999 FEW045 SCT056 13/09 Q1025=
METAR YBAS 080730Z 11009KT 9999 FEW034 15/06 Q1019=
METAR YBBN 080730Z 18011KT 9999 FEW040 SCT077 BKN105 18/10 Q1019
NOSIG=
METAR YBCS 080730Z 15007KT 9999 FEW024 BKN040 25/19 Q1015=
METAR YSCB 080730Z 09006KT 9999 FEW050 07/02 Q1026
RMK USE TAF FOR ARRIVALS AFTER 0900Z
NOSIG=
METAR YPXM 080730Z NIL=
METAR YPCC 080730Z AUTO 13008KT 9999NDV // NCD 28/22 Q1012=
METAR YCFS 080730Z 21011KT 9999 -SHRA FEW030 SCT040 BKN110 15/12
Q1021
RMK STATION CLOSE, REOPEN 1945Z=
METAR YPDN 080730Z 01011KT CAVOK 29/20 Q1011=
METAR YBCG 080730Z AUTO 19012KT 9999NDV // SCT027 BKN049 OVC096 16/12
Q1020=
METAR YHID 080730Z AUTO 14012KT 9999NDV // SCT037 OVC042 26/23 Q1011=
METAR YPJT 080730Z AUTO 35011KT 9999NDV // SCT030 SCT042 OVC074 16/14
Q0999=
METAR YPKU 080730Z AUTO 14005KT 9999NDV // NCD 27/14 Q1012=
METAR YPLM 080730Z AUTO 06005KT 9999NDV // BKN084 21/16 Q1008=
METAR YMML 080730Z 17005KT 9999 FEW031 BKN042 10/04 Q1027
NOSIG=
METAR YPPH 080730Z 34013KT 6000 SHRA FEW008 SCT022 BKN050 FEW022CB
15/14 Q1000
FM0730 33018G28KT 9999 -SHRA BKN020
INTER 0730/1030 27025G35KT 3000 +SHRA BKN010=
METAR YSSY 080730Z 21016KT 9999 -SHRA SCT035 BKN070 12/12 Q1026
INTER 0730/1030 5000 SHRA BKN015=
METAR YSTW 080730Z AUTO 15008KT 9999NDV // SCT049 BKN060 13/06 Q1022=
METAR YPTN 080730Z 11008KT CAVOK 29/14 Q1012=
METAR YBTL 080730Z 06008KT 9999 FEW017 SCT045 BKN170 23/19 Q1015=
####018001199####
SAAU32 YBBN 080730
METAR YAMB 080730Z 17009KT 9999 BKN040 BKN055 18/10 Q1020=
METAR YMAV 080730Z AUTO 11005KT 9999NDV // OVC052 10/08 Q1027=
METAR YBRM 080730Z 06008KT 9999 BKN034 28/21 Q1010=
METAR YCIN 080730Z AUTO 10005KT //// // ////// 26/19 Q1011=
METAR YSDU 080730Z AUTO 11007KT 9999NDV // NCD 11/05 Q1024=
METAR YFRT 080730Z NIL=
METAR YGEL 080730Z 32021G32KT 9999 7000E 17/15 Q1003=
METAR YPGV 080730Z 14015KT 9999 FEW018 BKN350 25/21 Q1012=
METAR YBHM 080730Z NIL=
METAR YMHB 080730Z 00000KT 9999 FEW035 07/04 Q1029=
METAR YPKG 080730Z AUTO 36009KT 9999NDV // SCT062 OVC086 19/04 Q1006=
METAR YMLT 080730Z AUTO 16003KT 9999NDV // BKN037 06/03 Q1029=
METAR YBMA 080730Z AUTO 17011KT 9999NDV // NCD 16/11 Q1018=
METAR YSNF 080730Z 10011KT 9999 FEW013 BKN025 BKN100 14/11 Q1016=
METAR YPEA 080730Z NIL=
METAR YPPD 080730Z AUTO 04016KT 9999NDV // SCT016 BKN115 25/20 Q1009=
METAR YSRI 080730Z AUTO 10004KT 9999NDV // SCT026 BKN047 OVC071 12/11
Q1026=
METAR YBRK 080730Z 24005KT 9999 FEW004 BKN030 13/12 Q1019=
METAR YWLM 080730Z AUTO 25006KT 9999NDV // BKN040 BKN050 OVC070 13/12
Q1024=
METAR YPWR 080730Z AUTO 09005KT 9999NDV // NCD 14/M01 Q1023=
####018000090####
SAFR35 LFPW 080730 RRA
METAR LFRN 080736Z AUTO VRB03KT 9999NDV ///////// 19/15 Q1019=
####018000330####
SAID32 WIII 080730
METAR WAMM 080730Z 31003KT 9999 SL RA (60) FEW025 31/23 Q1008 NOSIG= 
METAR WIOO 080730Z 25003KT 9999 BKN012 28/25 Q.1009 NOSIG = 
METAR WIPT 080730Z 21004KT 170V240 9999 FEW020TCU 29/23 Q1010= 
METAR WIBB NIL=
METAR WIKN NIL=
METAR WIPP NIL=
METAR WAOO NIL=
METAR WALL NIL=
METAR WADA NIL=
####018000261####
SAEW KAWN 080700 RRO
METAR ETND 080720Z 18007KT 9999 FEW180 23/13 Q1019 BLU/=
METAR COR LFOJ 080730Z 19004KT 140V230 CAVOK 25/14 Q1019=
METAR LFRL 080730Z VRB02KT 9999 BKN008 17/16 Q1019=
METAR LFRN 080736Z AUTO VRB03KT 9999NDV ///////// 19/15 Q1019=
####018000705####
SAZZ40 KAWN 080700 RRT
METAR KFMH 080735Z AUTO 16006KT 1 1/2SM BR OVC002 21/21 A3007 RMK AO2=
METAR KWRB 080655Z COR 07001KT 10SM CLR 22/21 A3002 RMK AO2A SLP164
      T02230212 COR 0735=
METAR LKKV 080730Z VRB02KT CAVOK 18/11 Q1024 RMK REG QNH 1021=
METAR OESK 080700Z 27007KT CAVOK 37/00 Q1010=
METAR OIKB 080730Z 18010KT 5000 HZ SKC 36/27 Q1002 A2959=
METAR UACC 080730Z 25004MPS 220V300 CAVOK 24/03 Q1010 220/0070 NOSIG
      RMK QFE726/0969=
METAR UAFM 080730Z 29003MPS CAVOK 33/06 Q1013 NOSIG=
METAR UATT 080730Z 06009MPS 9999 NSC 30/04 Q1010 13CLRD70 NOSIG RMK
      QFE738/0985=
METAR UUYY 080730Z VRB01MPS 9999 FEW023 29/17 Q1016 NOSIG 19CLRD61
      RMK QFE753/1004=
####018000395####
SAXN17 KAWN 080700 RRJ
METAR AYPY 080700Z 16004KT 9999 FEW020CB FEW020 BKN140 29/23 Q1007
      RMKS/ CB TO N/ HZ IN AREA=
METAR PKWA 080740Z AUTO 08009KT 10SM SCT012 BKN040 OVC080 25/23 A2984
      RMK AO2 P0007 T02520232=
METAR YBBN 080730Z 18011KT 9999 FEW040 SCT077 BKN105 18/10 Q1019 NOSIG=
METAR ZGGG 080730Z 16004MPS 120V180 9999 FEW050TCU SCT050 36/23 Q1005
      NOSIG=
####018000171####
SAUS20 KNKA 080741
SPECI KAFW 080740Z 16005KT 10SM FEW018 BKN021 OVC060 27/23 A2999 RMK 
    AO2=
SPECI KGKY 080740Z AUTO 16005KT 10SM SCT018 25/23 A3000 RMK AO2=
####018001930####
SAUS20 KNKA 080741
METAR KOZW 080735Z AUTO 00000KT 10SM CLR 23/20 A3004 RMK AO2=
METAR KPEX 080733Z AUTO 00000KT 7SM CLR 14/14 A3011 RMK AO2
     T01380136=
METAR KPHN 080736Z AUTO 00000KT 1SM BR VV007 20/19 A3003 RMK
     AO2=
METAR KPZQ 080735Z AUTO 19007KT 7SM CLR 22/22 A2999 RMK AO2=
METAR KRGK 080735Z AUTO 29004KT 10SM CLR 20/18 A3003 RMK AO2=
METAR KRMY 080736Z AUTO 00000KT 7SM CLR 21/20 A3005 RMK AO2=
METAR KRNP 080735Z AUTO 00000KT 10SM CLR 22/21 A3002 RMK AO2=
METAR KROS 080735Z AUTO 30004KT 10SM CLR 17/16 A3006 RMK AO2
     T01700155=
METAR KROX 080735Z AUTO 26004KT 10SM CLR 17/14 A3000 RMK AO2=
METAR KRQB 080735Z AUTO 25003KT 10SM SCT049 SCT065 OVC110 23/21
     A3004 RMK AO2=
METAR KRRT 080734Z AUTO 24006KT 10SM CLR 16/13 A3000 RMK AO2=
METAR KSAW 080739Z AUTO 00000KT 10SM BKN003 18/17 A2996 RMK
     AO2=
METAR KSAZ 080734Z AUTO 00000KT 10SM CLR 16/16 A3008 RMK AO2=
METAR KSGS 080733Z AUTO 32003KT 10SM CLR 21/17 A3006 RMK AO2
     T02050168=
METAR KSJX 080736Z AUTO 00000KT 10SM SCT120 20/18 A2997 RMK
     AO2=
METAR KSLH 080735Z AUTO 00000KT 5SM BR OVC100 21/20 A2997 RMK
     AO2=
METAR KSYN 080750Z AUTO 00000KT 10SM CLR 19/17 A3005 RMK AO2
     T01870171=
METAR KTEW 080733Z AUTO 00000KT 10SM CLR 22/20 A3004 RMK AO2=
METAR KTKC 080733Z AUTO 24006KT 10SM CLR 15/14 A3014 RMK AO2
     T01540138=
METAR KTOB 080735Z AUTO 00000KT 10SM CLR 19/18 A3007 RMK AO2=
METAR KTTF 080733Z AUTO 00000KT 10SM CLR 23/22 A3002 RMK AO2=
METAR KUKT 080730Z AUTO 00000KT 6SM CLR 22/20 A3003 RMK AO1=
METAR KVLL 080734Z AUTO 00000KT 10SM CLR 26/21 A3006 RMK AO2=
METAR KVVV 080736Z AUTO 23003KT 10SM CLR 16/14 A3010 RMK AO2=
METAR KVWU 080731Z AUTO 00000KT 10SM CLR 15/14 A3001 RMK AO2=
METAR KXVG 080736Z AUTO 00000KT 7SM CLR 11/11 A3004 RMK AO2=
METAR KY70 080735Z AUTO 23003KT 10SM SCT055 SCT065 BKN110 24/21
     A3002 RMK AO2 T02400211=
####018002947####
SAUS20 KNKA 080741
METAR K29G 080734Z AUTO 00000KT 7SM SCT060 20/18 A3009 RMK AO2
     T01980180 PWINO=
METAR K4I3 080736Z AUTO 00000KT 10SM CLR 21/19 A3010 RMK AO2=
METAR KACB 080735Z AUTO 17003KT 10SM SCT110 24/21 A2998 RMK
     AO2=
METAR KACQ 080739Z AUTO 31004KT 10SM CLR 17/17 A3010 RMK AO2=
METAR KADC 080737Z AUTO 23004KT 10SM CLR 13/12 A3008 RMK AO2=
METAR KAEL 080731Z AUTO 31004KT 10SM SCT029 18/17 A3008 RMK
     AO2=
METAR KAMN 080736Z AUTO 00000KT 3SM BR CLR 21/20 A3001 RMK AO2=
METAR KANE 080735Z AUTO 28005KT 10SM 18/17 A3007 RMK AO2=
METAR KAQP 080733Z AUTO 00000KT 10SM CLR 15/15 A3010 RMK AO2=
METAR KAUM 080735Z AUTO 32005KT 10SM SCT041 19/17 A3006 RMK
     AO2=
METAR KBAX 080735Z AUTO 00000KT 5SM BR CLR 21/20 A3002 RMK AO2=
METAR KBDH 080735Z AUTO 29003KT 10SM CLR 16/15 A3012 RMK AO2=
METAR KBFW 080733Z AUTO 00000KT 10SM SCT055 18/16 A3000 RMK
     AO2=
METAR KCAD 080734Z AUTO 23004KT 10SM SCT065 SCT090 SCT120 22/21
     A3004 RMK AO2=
METAR KCBG 080735Z AUTO 00000KT 10SM CLR 17/14 A3006 RMK AO2=
METAR KCDA 080735Z AUTO 00000KT 5SM BR CLR 20/18 A3009 RMK AO2=
METAR KCDD 080731Z AUTO 00000KT 10SM CLR 14/14 A3003 RMK AO2=
METAR KCFE 080735Z AUTO 29003KT 10SM CLR 19/17 A3009 RMK AO2
     T01860166=
METAR KCFS 080735Z AUTO 00000KT 3SM BR CLR 21/21 A3002 RMK AO2=
METAR KCKC 080735Z AUTO 29004KT 10SM CLR 15/13 A3003 RMK AO2=
METAR KCKN 080735Z AUTO 26003KT 10SM CLR 15/12 A3004 RMK AO2=
METAR KCNB 080738Z AUTO 24004KT 10SM CLR 16/13 A3013 RMK AO2
     T01560129=
METAR KCOQ 080736Z AUTO 29004KT 10SM CLR 14/14 A3005 RMK AO2=
METAR KCQM 080737Z AUTO 00000KT 10SM CLR 14/13 A3004 RMK AO2=
METAR KCVH 080730Z AUTO 00000KT 10SM SCT012 12/11 A2993 RMK
     AO1=
METAR KCVX 080735Z AUTO 15003KT 7SM SCT120 21/20 A2999 RMK AO2=
METAR KDRM 080736Z AUTO 14004KT 5SM BR SCT001 SCT007 BKN038 20/20
     A2998 RMK AO2=
METAR KDTL 080735Z AUTO 26005KT 10SM CLR 17/12 A3008 RMK AO2=
METAR KDUH 080735Z AUTO 00000KT 7SM CLR 22/18 A3004 RMK AO2=
METAR KDVP 080736Z AUTO 28004KT 10SM CLR 15/13 A3016 RMK AO2
     T01460131=
METAR KDXX 080734Z AUTO 00000KT 10SM CLR 15/15 A3010 RMK AO2=
METAR KDYT 080734Z AUTO 29005KT 10SM SCT060 22/16 A3003 RMK
     AO2=
METAR KEFK 080736Z AUTO 00000KT 5SM BR SCT050 21/20 A3005 RMK
     AO2=
METAR KELO 080733Z AUTO 00000KT 2SM BR CLR 13/13 A3003 RMK AO2 VIS
     3/4V5=
METAR KERY 080736Z AUTO 00000KT 10SM SCT090 20/19 A2996 RMK
     AO2=
METAR KETH 080734Z AUTO 22004KT 10SM CLR 15/14 A3010 RMK AO2=
METAR KEVM 080732Z AUTO 00000KT 1 1/4SM BR VV007 12/11 A3003 RMK
     AO1=
SPECI KEWB 080740Z AUTO 13007KT 10SM BKN006 OVC031 22/20 A3006 RMK 
    AO2=
METAR KFBL 080734Z AUTO 31005KT 10SM CLR 18/17 A3008 RMK AO2=
METAR KFFX 080735Z AUTO 00000KT 7SM RA BKN060 OVC075 22/21 A3003
     RMK AO2=
METAR KFKA 080743Z AUTO 31004KT 5SM BR CLR 20/19 A3006 RMK AO2
     T01950188=
####018002999####
SAUS20 KNKA 080741
METAR KFKS 080735Z AUTO 20004KT 10SM SCT120 23/18 A2999 RMK
     AO2=
METAR KFOZ 080733Z AUTO 00000KT 3/4SM BR VV005 12/11 A3005 RMK AO2
     VIS 1/2V5=
METAR KFPK 080736Z AUTO 00000KT 5SM BR CLR 21/20 A3003 RMK AO2=
METAR KFSE 080734Z AUTO 22004KT 10SM CLR 14/12 A3004 RMK AO2=
METAR KFSO 080738Z AUTO 00000KT 4SM BR SCT070 23/22 A3000 RMK
     AO2=
METAR KGOV 080735Z AUTO 00000KT 1 3/4SM BR VV007 20/20 A3002 RMK
     AO2 VIS 1 1/4V3=
METAR KGYL 080734Z AUTO 00000KT 10SM CLR 17/15 A3009 RMK AO2
     T01650151=
METAR KHAF 080730Z AUTO 00000KT 8SM OVC008 12/10 A2994 RMK AO2=
METAR KHAI 080735Z AUTO 00000KT 7SM CLR 22/21 A3004 RMK AO2=
METAR KHCD 080732Z AUTO 28004KT 10SM CLR 14/13 A3010 RMK AO2
     T01400129=
METAR KHCO 080734Z AUTO 00000KT 10SM CLR 13/12 A3004 RMK AO2=
METAR KHYX 080735Z AUTO 17004KT 10SM CLR 23/21 A3001 RMK AO2=
METAR KHZX 080731Z AUTO 00000KT 1 3/4SM VV007 13/13 A3007 RMK
     AO2=
METAR KIKW 080734Z AUTO 00000KT 5SM BR CLR 22/20 A3001 RMK AO2
     T02150204=
METAR KIRS 080735Z AUTO 00000KT 7SM CLR 22/19 A3005 RMK AO2=
METAR KISQ 080736Z AUTO 20005KT 10SM BKN006 OVC013 20/18 A2997 RMK
     AO2=
METAR KJKJ 080734Z AUTO 22003KT 10SM CLR 17/16 A3006 RMK AO2=
METAR KJMR 080738Z AUTO 31003KT 10SM CLR 15/13 A3008 RMK AO2=
METAR KJYG 080735Z AUTO 00000KT 10SM CLR 17/17 A3012 RMK AO2=
METAR KJYM 080735Z AUTO 00000KT 7SM CLR 21/19 A3006 RMK AO2=
METAR KLDM 080736Z AUTO 25006KT 10SM -RA OVC100 22/21 A3002 RMK
     AO2=
SPECI KLHQ 080740Z AUTO 00000KT 3SM BR CLR 19/18 A3008 RMK AO2=
METAR KLJF 080732Z AUTO 00000KT 10SM CLR 16/16 A3011 RMK AO2=
METAR KLVN 080729Z AUTO 29005KT 10SM CLR 18/17 A3007 RMK AO2=
METAR KLWA 080736Z AUTO 00000KT 10SM SCT055 BKN110 23/21 A3003 RMK
     AO2=
METAR KLXL 080734Z AUTO 00000KT 1 1/4SM BR VV007 13/12 A3007 RMK
     AO2=
METAR KLYV 080738Z AUTO 00000KT 10SM CLR 15/13 A3016 RMK AO2=
METAR KMCD 080736Z AUTO 00000KT 10SM SCT070 OVC110 21/18 A2999 RMK
     AO2=
METAR KMDS 080725Z AUTO 29004KT 10SM CLR 14/14 A3016 RMK AO2=
METAR KMGN 080735Z AUTO 00000KT 5SM BR SCT100 21/20 A2998 RMK
     AO2=
METAR KMJQ 080732Z AUTO 00000KT 7SM CLR 15/14 A3013 RMK AO2=
METAR KMOP 080735Z AUTO 00000KT 5SM BR SCT060 BKN120 21/21 A3001
     RMK AO2=
METAR KMRT 080733Z AUTO 00000KT 5SM CLR 21/19 A3011 RMK AO2
     T02080193=
METAR KMVE 080734Z AUTO 28005KT 10SM CLR 18/16 A3010 RMK AO2=
METAR KMZH 080731Z AUTO 00000KT 10SM SCT100 14/13 A3004 RMK
     AO2=
METAR KOEB 080735Z AUTO 26003KT 10SM CLR 22/20 A3005 RMK AO2=
METAR KONA 080731Z AUTO 31003KT 7SM CLR 20/18 A3001 RMK AO2=
METAR KONZ 080737Z AUTO 22003KT 10SM CLR 26/20 A3002 RMK AO2=
METAR KORB 080734Z AUTO 00000KT 10SM CLR 14/13 A3002 RMK AO2=
METAR KOSC 080734Z AUTO 00000KT 7SM CLR 19/18 A3002 RMK AO2=
METAR KOVL 080734Z AUTO 27003KT 7SM CLR 14/13 A3010 RMK AO2
     T01400125=
METAR KOWA 080733Z AUTO 30004KT 10SM CLR 18/17 A3006 RMK AO2=
####018003736####
SAUS99 KWBC 080742
METAR
KFKS 080735Z AUTO 20004KT 10SM SCT120 23/18 A2999 RMK AO2=
KFOZ 080733Z AUTO 00000KT 3/4SM BR VV005 12/11 A3005 RMK AO2 VIS
     1/2V5=
KFPK 080736Z AUTO 00000KT 5SM BR CLR 21/20 A3003 RMK AO2=
KFSE 080734Z AUTO 22004KT 10SM CLR 14/12 A3004 RMK AO2=
KFSO 080738Z AUTO 00000KT 4SM BR SCT070 23/22 A3000 RMK AO2=
KGOV 080735Z AUTO 00000KT 1 3/4SM BR VV007 20/20 A3002 RMK AO2 VIS
     1 1/4V3=
KGYL 080734Z AUTO 00000KT 10SM CLR 17/15 A3009 RMK AO2
     T01650151=
KHAF 080730Z AUTO 00000KT 8SM OVC008 12/10 A2994 RMK AO2=
KHAI 080735Z AUTO 00000KT 7SM CLR 22/21 A3004 RMK AO2=
KHCD 080732Z AUTO 28004KT 10SM CLR 14/13 A3010 RMK AO2
     T01400129=
KHCO 080734Z AUTO 00000KT 10SM CLR 13/12 A3004 RMK AO2=
KHYX 080735Z AUTO 17004KT 10SM CLR 23/21 A3001 RMK AO2=
KHZX 080731Z AUTO 00000KT 1 3/4SM VV007 13/13 A3007 RMK AO2=
KIKW 080734Z AUTO 00000KT 5SM BR CLR 22/20 A3001 RMK AO2
     T02150204=
KIRS 080735Z AUTO 00000KT 7SM CLR 22/19 A3005 RMK AO2=
KISQ 080736Z AUTO 20005KT 10SM BKN006 OVC013 20/18 A2997 RMK
     AO2=
KJKJ 080734Z AUTO 22003KT 10SM CLR 17/16 A3006 RMK AO2=
KJMR 080738Z AUTO 31003KT 10SM CLR 15/13 A3008 RMK AO2=
KJYG 080735Z AUTO 00000KT 10SM CLR 17/17 A3012 RMK AO2=
KJYM 080735Z AUTO 00000KT 7SM CLR 21/19 A3006 RMK AO2=
KLDM 080736Z AUTO 25006KT 10SM -RA OVC100 22/21 A3002 RMK AO2=
KLJF 080732Z AUTO 00000KT 10SM CLR 16/16 A3011 RMK AO2=
KLVN 080729Z AUTO 29005KT 10SM CLR 18/17 A3007 RMK AO2=
KLWA 080736Z AUTO 00000KT 10SM SCT055 BKN110 23/21 A3003 RMK
     AO2=
KLXL 080734Z AUTO 00000KT 1 1/4SM BR VV007 13/12 A3007 RMK AO2=
KLYV 080738Z AUTO 00000KT 10SM CLR 15/13 A3016 RMK AO2=
KMCD 080736Z AUTO 00000KT 10SM SCT070 OVC110 21/18 A2999 RMK
     AO2=
KMDS 080725Z AUTO 29004KT 10SM CLR 14/14 A3016 RMK AO2=
KMGN 080735Z AUTO 00000KT 5SM BR SCT100 21/20 A2998 RMK AO2=
KMJQ 080732Z AUTO 00000KT 7SM CLR 15/14 A3013 RMK AO2=
KMOP 080735Z AUTO 00000KT 5SM BR SCT060 BKN120 21/21 A3001 RMK
     AO2=
KMRT 080733Z AUTO 00000KT 5SM CLR 21/19 A3011 RMK AO2
     T02080193=
KMVE 080734Z AUTO 28005KT 10SM CLR 18/16 A3010 RMK AO2=
KMZH 080731Z AUTO 00000KT 10SM SCT100 14/13 A3004 RMK AO2=
KOEB 080735Z AUTO 26003KT 10SM CLR 22/20 A3005 RMK AO2=
KONA 080731Z AUTO 31003KT 7SM CLR 20/18 A3001 RMK AO2=
KONZ 080737Z AUTO 22003KT 10SM CLR 26/20 A3002 RMK AO2=
KORB 080734Z AUTO 00000KT 10SM CLR 14/13 A3002 RMK AO2=
KOSC 080734Z AUTO 00000KT 7SM CLR 19/18 A3002 RMK AO2=
KOVL 080734Z AUTO 27003KT 7SM CLR 14/13 A3010 RMK AO2
     T01400125=
KOWA 080733Z AUTO 30004KT 10SM CLR 18/17 A3006 RMK AO2=
KOZW 080735Z AUTO 00000KT 10SM CLR 23/20 A3004 RMK AO2=
KPEX 080733Z AUTO 00000KT 7SM CLR 14/14 A3011 RMK AO2
     T01380136=
KPHN 080736Z AUTO 00000KT 1SM BR VV007 20/19 A3003 RMK AO2=
KPZQ 080735Z AUTO 19007KT 7SM CLR 22/22 A2999 RMK AO2=
KRGK 080735Z AUTO 29004KT 10SM CLR 20/18 A3003 RMK AO2=
KRMY 080736Z AUTO 00000KT 7SM CLR 21/20 A3005 RMK AO2=
KRNP 080735Z AUTO 00000KT 10SM CLR 22/21 A3002 RMK AO2=
KROS 080735Z AUTO 30004KT 10SM CLR 17/16 A3006 RMK AO2
     T01700155=
KROX 080735Z AUTO 26004KT 10SM CLR 17/14 A3000 RMK AO2=
KRQB 080735Z AUTO 25003KT 10SM SCT049 SCT065 OVC110 23/21 A3004
     RMK AO2=
KRRT 080734Z AUTO 24006KT 10SM CLR 16/13 A3000 RMK AO2=
KSAW 080739Z AUTO 00000KT 10SM BKN003 18/17 A2996 RMK AO2=
KSAZ 080734Z AUTO 00000KT 10SM CLR 16/16 A3008 RMK AO2=
KSGS 080733Z AUTO 32003KT 10SM CLR 21/17 A3006 RMK AO2
     T02050168=
KSJX 080736Z AUTO 00000KT 10SM SCT120 20/18 A2997 RMK AO2=
KSLH 080735Z AUTO 00000KT 5SM BR OVC100 21/20 A2997 RMK AO2=
KSYN 080750Z AUTO 00000KT 10SM CLR 19/17 A3005 RMK AO2
     T01870171=
####018003204####
SAUS99 KWBC 080742 RRA
METAR
KTEW 080733Z AUTO 00000KT 10SM CLR 22/20 A3004 RMK AO2=
KTKC 080733Z AUTO 24006KT 10SM CLR 15/14 A3014 RMK AO2
     T01540138=
KTOB 080735Z AUTO 00000KT 10SM CLR 19/18 A3007 RMK AO2=
KTTF 080733Z AUTO 00000KT 10SM CLR 23/22 A3002 RMK AO2=
KUKT 080730Z AUTO 00000KT 6SM CLR 22/20 A3003 RMK AO1=
KVLL 080734Z AUTO 00000KT 10SM CLR 26/21 A3006 RMK AO2=
KVVV 080736Z AUTO 23003KT 10SM CLR 16/14 A3010 RMK AO2=
KVWU 080731Z AUTO 00000KT 10SM CLR 15/14 A3001 RMK AO2=
KXVG 080736Z AUTO 00000KT 7SM CLR 11/11 A3004 RMK AO2=
KY70 080735Z AUTO 23003KT 10SM SCT055 SCT065 BKN110 24/21 A3002
     RMK AO2 T02400211=
K29G 080734Z AUTO 00000KT 7SM SCT060 20/18 A3009 RMK AO2 T01980180
     PWINO=
K4I3 080736Z AUTO 00000KT 10SM CLR 21/19 A3010 RMK AO2=
KACB 080735Z AUTO 17003KT 10SM SCT110 24/21 A2998 RMK AO2=
KACQ 080739Z AUTO 31004KT 10SM CLR 17/17 A3010 RMK AO2=
KADC 080737Z AUTO 23004KT 10SM CLR 13/12 A3008 RMK AO2=
KAEL 080731Z AUTO 31004KT 10SM SCT029 18/17 A3008 RMK AO2=
KAMN 080736Z AUTO 00000KT 3SM BR CLR 21/20 A3001 RMK AO2=
KANE 080735Z AUTO 28005KT 10SM 18/17 A3007 RMK AO2=
KAQP 080733Z AUTO 00000KT 10SM CLR 15/15 A3010 RMK AO2=
KAUM 080735Z AUTO 32005KT 10SM SCT041 19/17 A3006 RMK AO2=
KBAX 080735Z AUTO 00000KT 5SM BR CLR 21/20 A3002 RMK AO2=
KBDH 080735Z AUTO 29003KT 10SM CLR 16/15 A3012 RMK AO2=
KBFW 080733Z AUTO 00000KT 10SM SCT055 18/16 A3000 RMK AO2=
KCAD 080734Z AUTO 23004KT 10SM SCT065 SCT090 SCT120 22/21 A3004
     RMK AO2=
KCBG 080735Z AUTO 00000KT 10SM CLR 17/14 A3006 RMK AO2=
KCDA 080735Z AUTO 00000KT 5SM BR CLR 20/18 A3009 RMK AO2=
KCDD 080731Z AUTO 00000KT 10SM CLR 14/14 A3003 RMK AO2=
KCFE 080735Z AUTO 29003KT 10SM CLR 19/17 A3009 RMK AO2
     T01860166=
KCFS 080735Z AUTO 00000KT 3SM BR CLR 21/21 A3002 RMK AO2=
KCKC 080735Z AUTO 29004KT 10SM CLR 15/13 A3003 RMK AO2=
KCKN 080735Z AUTO 26003KT 10SM CLR 15/12 A3004 RMK AO2=
KCNB 080738Z AUTO 24004KT 10SM CLR 16/13 A3013 RMK AO2
     T01560129=
KCOQ 080736Z AUTO 29004KT 10SM CLR 14/14 A3005 RMK AO2=
KCQM 080737Z AUTO 00000KT 10SM CLR 14/13 A3004 RMK AO2=
KCVH 080730Z AUTO 00000KT 10SM SCT012 12/11 A2993 RMK AO1=
KCVX 080735Z AUTO 15003KT 7SM SCT120 21/20 A2999 RMK AO2=
KDRM 080736Z AUTO 14004KT 5SM BR SCT001 SCT007 BKN038 20/20 A2998
     RMK AO2=
KDTL 080735Z AUTO 26005KT 10SM CLR 17/12 A3008 RMK AO2=
KDUH 080735Z AUTO 00000KT 7SM CLR 22/18 A3004 RMK AO2=
KDVP 080736Z AUTO 28004KT 10SM CLR 15/13 A3016 RMK AO2
     T01460131=
KDXX 080734Z AUTO 00000KT 10SM CLR 15/15 A3010 RMK AO2=
KDYT 080734Z AUTO 29005KT 10SM SCT060 22/16 A3003 RMK AO2=
KEFK 080736Z AUTO 00000KT 5SM BR SCT050 21/20 A3005 RMK AO2=
KELO 080733Z AUTO 00000KT 2SM BR CLR 13/13 A3003 RMK AO2 VIS
     3/4V5=
KERY 080736Z AUTO 00000KT 10SM SCT090 20/19 A2996 RMK AO2=
KETH 080734Z AUTO 22004KT 10SM CLR 15/14 A3010 RMK AO2=
KEVM 080732Z AUTO 00000KT 1 1/4SM BR VV007 12/11 A3003 RMK AO1=
KFBL 080734Z AUTO 31005KT 10SM CLR 18/17 A3008 RMK AO2=
KFFX 080735Z AUTO 00000KT 7SM RA BKN060 OVC075 22/21 A3003 RMK
     AO2=
KFKA 080743Z AUTO 31004KT 5SM BR CLR 20/19 A3006 RMK AO2
     T01950188=
####018000302####
SPUS99 KWBC 080742
SPECI
KAFW 080740Z 16005KT 10SM FEW018 BKN021 OVC060 27/23 A2999 RMK
     AO2=
KGKY 080740Z AUTO 16005KT 10SM SCT018 25/23 A3000 RMK AO2=
KLHQ 080740Z AUTO 00000KT 3SM BR CLR 19/18 A3008 RMK AO2=
KEWB 080740Z AUTO 13007KT 10SM BKN006 OVC031 22/20 A3006 RMK
     AO2=
####018000083####
SAKN64 HKMO 080700
METAR HKMO 080730Z 19020KT 9999 FEW023TCU 26/21 Q1019 NOSIG=
####018000073####
SAAG05 SABM 080700 RRC
METAR SABE 080700Z  27008KT CAVOK 08/03 Q1019=
####018000490####
SPUS70 KWBC 080742
SPECI
KGFL 080739Z AUTO 29003KT 1SM BR CLR 21/21 A3001 RMK AO2=
KGLH 080739Z AUTO 00000KT 1 1/2SM BR CLR 22/22 A3004 RMK AO2=
KHIB 080739Z AUTO 00000KT 1/2SM FG VV001 10/09 A3005 RMK AO2=
KAFW 080740Z 16005KT 10SM FEW018 BKN021 OVC060 27/23 A2999 RMK
     AO2=
KGKY 080740Z AUTO 16005KT 10SM SCT018 25/23 A3000 RMK AO2=
KLHQ 080740Z AUTO 00000KT 3SM BR CLR 19/18 A3008 RMK AO2=
KEWB 080740Z AUTO 13007KT 10SM BKN006 OVC031 22/20 A3006 RMK
     AO2=
####018000103####
SAXX60 KWBC 080742
METAR
KMRT 080733Z AUTO 00000KT 5SM CLR 21/19 A3011 RMK AO2
     T02080193=
####018003303####
SAUS70 KWBC 080742 RRA
METAR
KSAZ 080734Z AUTO 00000KT 10SM CLR 16/16 A3008 RMK AO2=
KSGS 080733Z AUTO 32003KT 10SM CLR 21/17 A3006 RMK AO2
     T02050168=
KSJX 080736Z AUTO 00000KT 10SM SCT120 20/18 A2997 RMK AO2=
KSLH 080735Z AUTO 00000KT 5SM BR OVC100 21/20 A2997 RMK AO2=
KTEW 080733Z AUTO 00000KT 10SM CLR 22/20 A3004 RMK AO2=
KTOB 080735Z AUTO 00000KT 10SM CLR 19/18 A3007 RMK AO2=
KTTF 080733Z AUTO 00000KT 10SM CLR 23/22 A3002 RMK AO2=
KUKT 080730Z AUTO 00000KT 6SM CLR 22/20 A3003 RMK AO1=
KVLL 080734Z AUTO 00000KT 10SM CLR 26/21 A3006 RMK AO2=
KVVV 080736Z AUTO 23003KT 10SM CLR 16/14 A3010 RMK AO2=
KVWU 080731Z AUTO 00000KT 10SM CLR 15/14 A3001 RMK AO2=
KXVG 080736Z AUTO 00000KT 7SM CLR 11/11 A3004 RMK AO2=
KY70 080735Z AUTO 23003KT 10SM SCT055 SCT065 BKN110 24/21 A3002
     RMK AO2 T02400211=
K4I3 080736Z AUTO 00000KT 10SM CLR 21/19 A3010 RMK AO2=
KACB 080735Z AUTO 17003KT 10SM SCT110 24/21 A2998 RMK AO2=
KACQ 080739Z AUTO 31004KT 10SM CLR 17/17 A3010 RMK AO2=
KADC 080737Z AUTO 23004KT 10SM CLR 13/12 A3008 RMK AO2=
KAEL 080731Z AUTO 31004KT 10SM SCT029 18/17 A3008 RMK AO2=
KAMN 080736Z AUTO 00000KT 3SM BR CLR 21/20 A3001 RMK AO2=
KANE 080735Z AUTO 28005KT 10SM 18/17 A3007 RMK AO2=
KAQP 080733Z AUTO 00000KT 10SM CLR 15/15 A3010 RMK AO2=
KAUM 080735Z AUTO 32005KT 10SM SCT041 19/17 A3006 RMK AO2=
KBAX 080735Z AUTO 00000KT 5SM BR CLR 21/20 A3002 RMK AO2=
KBDH 080735Z AUTO 29003KT 10SM CLR 16/15 A3012 RMK AO2=
KBFW 080733Z AUTO 00000KT 10SM SCT055 18/16 A3000 RMK AO2=
KCAD 080734Z AUTO 23004KT 10SM SCT065 SCT090 SCT120 22/21 A3004
     RMK AO2=
KCBG 080735Z AUTO 00000KT 10SM CLR 17/14 A3006 RMK AO2=
KCDA 080735Z AUTO 00000KT 5SM BR CLR 20/18 A3009 RMK AO2=
KCDD 080731Z AUTO 00000KT 10SM CLR 14/14 A3003 RMK AO2=
KCFE 080735Z AUTO 29003KT 10SM CLR 19/17 A3009 RMK AO2
     T01860166=
KCFS 080735Z AUTO 00000KT 3SM BR CLR 21/21 A3002 RMK AO2=
KCKC 080735Z AUTO 29004KT 10SM CLR 15/13 A3003 RMK AO2=
KCKN 080735Z AUTO 26003KT 10SM CLR 15/12 A3004 RMK AO2=
KCNB 080738Z AUTO 24004KT 10SM CLR 16/13 A3013 RMK AO2
     T01560129=
KCOQ 080736Z AUTO 29004KT 10SM CLR 14/14 A3005 RMK AO2=
KCQM 080737Z AUTO 00000KT 10SM CLR 14/13 A3004 RMK AO2=
KCVH 080730Z AUTO 00000KT 10SM SCT012 12/11 A2993 RMK AO1=
KCVX 080735Z AUTO 15003KT 7SM SCT120 21/20 A2999 RMK AO2=
KDRM 080736Z AUTO 14004KT 5SM BR SCT001 SCT007 BKN038 20/20 A2998
     RMK AO2=
KDTL 080735Z AUTO 26005KT 10SM CLR 17/12 A3008 RMK AO2=
KDUH 080735Z AUTO 00000KT 7SM CLR 22/18 A3004 RMK AO2=
KDVP 080736Z AUTO 28004KT 10SM CLR 15/13 A3016 RMK AO2
     T01460131=
KDXX 080734Z AUTO 00000KT 10SM CLR 15/15 A3010 RMK AO2=
KDYT 080734Z AUTO 29005KT 10SM SCT060 22/16 A3003 RMK AO2=
KEFK 080736Z AUTO 00000KT 5SM BR SCT050 21/20 A3005 RMK AO2=
KELO 080733Z AUTO 00000KT 2SM BR CLR 13/13 A3003 RMK AO2 VIS
     3/4V5=
KERY 080736Z AUTO 00000KT 10SM SCT090 20/19 A2996 RMK AO2=
KETH 080734Z AUTO 22004KT 10SM CLR 15/14 A3010 RMK AO2=
KEVM 080732Z AUTO 00000KT 1 1/4SM BR VV007 12/11 A3003 RMK AO1=
KFBL 080734Z AUTO 31005KT 10SM CLR 18/17 A3008 RMK AO2=
KFFX 080735Z AUTO 00000KT 7SM RA BKN060 OVC075 22/21 A3003 RMK
     AO2=
KFKA 080743Z AUTO 31004KT 5SM BR CLR 20/19 A3006 RMK AO2
     T01950188=
####018000533####
SAUS80 KWBC 080742
METAR
KTKV 080735Z AUTO 00000KT 1SM BR VV007 17/17 A3002 RMK AO2
     T01720165=
KIKW 080734Z AUTO 00000KT 5SM BR CLR 22/20 A3001 RMK AO2
     T02150204=
KLYV 080738Z AUTO 00000KT 10SM CLR 15/13 A3016 RMK AO2=
KPZQ 080735Z AUTO 19007KT 7SM CLR 22/22 A2999 RMK AO2=
KROS 080735Z AUTO 30004KT 10SM CLR 17/16 A3006 RMK AO2
     T01700155=
KTKC 080733Z AUTO 24006KT 10SM CLR 15/14 A3014 RMK AO2
     T01540138=
K29G 080734Z AUTO 00000KT 7SM SCT060 20/18 A3009 RMK AO2 T01980180
     PWINO=
####018000124####
SAXX60 KWBC 080700 RRM
METAR
KWRB 080655Z COR 07001KT 10SM CLR 22/21 A3002 RMK AO2A SLP164
     T02230212 COR 0735=
####018003731####
SAUS70 KWBC 080742
METAR
KBWD 080735Z AUTO 11004KT 10SM FEW016 SCT030 BKN046 23/22 A3000
     RMK AO2=
KO22 080735Z AUTO 00000KT 10SM CLR 17/11 A2991 RMK AO1=
KRRL 080735Z AUTO 31003KT 7SM SCT001 19/18 A3002 RMK AO2
     T01850180=
KRYV 080735Z AUTO 16003KT 10SM SCT012 22/20 A3000 RMK AO2=
KSTE 080735Z AUTO 20003KT 3SM BR SCT003 OVC014 22/21 A2999 RMK
     AO2=
KSUW 080735Z AUTO 29003KT 10SM SCT060 18/15 A3001 RMK AO2=
KUES 080735Z AUTO 00000KT 7SM BKN070 21/20 A3002 RMK AO2
     T02110196=
KUNU 080732Z AUTO 12003KT 10SM RA SCT070 SCT075 SCT085 21/20 A3000
     RMK AO2 P0001 T02100196=
KFMH 080735Z AUTO 16006KT 1 1/2SM BR OVC002 21/21 A3007 RMK
     AO2=
KFKS 080735Z AUTO 20004KT 10SM SCT120 23/18 A2999 RMK AO2=
KFOZ 080733Z AUTO 00000KT 3/4SM BR VV005 12/11 A3005 RMK AO2 VIS
     1/2V5=
KFPK 080736Z AUTO 00000KT 5SM BR CLR 21/20 A3003 RMK AO2=
KFSE 080734Z AUTO 22004KT 10SM CLR 14/12 A3004 RMK AO2=
KFSO 080738Z AUTO 00000KT 4SM BR SCT070 23/22 A3000 RMK AO2=
KGOV 080735Z AUTO 00000KT 1 3/4SM BR VV007 20/20 A3002 RMK AO2 VIS
     1 1/4V3=
KGYL 080734Z AUTO 00000KT 10SM CLR 17/15 A3009 RMK AO2
     T01650151=
KHAF 080730Z AUTO 00000KT 8SM OVC008 12/10 A2994 RMK AO2=
KHAI 080735Z AUTO 00000KT 7SM CLR 22/21 A3004 RMK AO2=
KHCD 080732Z AUTO 28004KT 10SM CLR 14/13 A3010 RMK AO2
     T01400129=
KHCO 080734Z AUTO 00000KT 10SM CLR 13/12 A3004 RMK AO2=
KHYX 080735Z AUTO 17004KT 10SM CLR 23/21 A3001 RMK AO2=
KHZX 080731Z AUTO 00000KT 1 3/4SM VV007 13/13 A3007 RMK AO2=
KIRS 080735Z AUTO 00000KT 7SM CLR 22/19 A3005 RMK AO2=
KISQ 080736Z AUTO 20005KT 10SM BKN006 OVC013 20/18 A2997 RMK
     AO2=
KJKJ 080734Z AUTO 22003KT 10SM CLR 17/16 A3006 RMK AO2=
KJMR 080738Z AUTO 31003KT 10SM CLR 15/13 A3008 RMK AO2=
KJYG 080735Z AUTO 00000KT 10SM CLR 17/17 A3012 RMK AO2=
KJYM 080735Z AUTO 00000KT 7SM CLR 21/19 A3006 RMK AO2=
KLDM 080736Z AUTO 25006KT 10SM -RA OVC100 22/21 A3002 RMK AO2=
KLJF 080732Z AUTO 00000KT 10SM CLR 16/16 A3011 RMK AO2=
KLVN 080729Z AUTO 29005KT 10SM CLR 18/17 A3007 RMK AO2=
KLWA 080736Z AUTO 00000KT 10SM SCT055 BKN110 23/21 A3003 RMK
     AO2=
KLXL 080734Z AUTO 00000KT 1 1/4SM BR VV007 13/12 A3007 RMK AO2=
KMCD 080736Z AUTO 00000KT 10SM SCT070 OVC110 21/18 A2999 RMK
     AO2=
KMDS 080725Z AUTO 29004KT 10SM CLR 14/14 A3016 RMK AO2=
KMGN 080735Z AUTO 00000KT 5SM BR SCT100 21/20 A2998 RMK AO2=
KMJQ 080732Z AUTO 00000KT 7SM CLR 15/14 A3013 RMK AO2=
KMOP 080735Z AUTO 00000KT 5SM BR SCT060 BKN120 21/21 A3001 RMK
     AO2=
KMVE 080734Z AUTO 28005KT 10SM CLR 18/16 A3010 RMK AO2=
KMZH 080731Z AUTO 00000KT 10SM SCT100 14/13 A3004 RMK AO2=
KOEB 080735Z AUTO 26003KT 10SM CLR 22/20 A3005 RMK AO2=
KONA 080731Z AUTO 31003KT 7SM CLR 20/18 A3001 RMK AO2=
KONZ 080737Z AUTO 22003KT 10SM CLR 26/20 A3002 RMK AO2=
KORB 080734Z AUTO 00000KT 10SM CLR 14/13 A3002 RMK AO2=
KOSC 080734Z AUTO 00000KT 7SM CLR 19/18 A3002 RMK AO2=
KOVL 080734Z AUTO 27003KT 7SM CLR 14/13 A3010 RMK AO2
     T01400125=
KOWA 080733Z AUTO 30004KT 10SM CLR 18/17 A3006 RMK AO2=
KOZW 080735Z AUTO 00000KT 10SM CLR 23/20 A3004 RMK AO2=
KPEX 080733Z AUTO 00000KT 7SM CLR 14/14 A3011 RMK AO2
     T01380136=
KPHN 080736Z AUTO 00000KT 1SM BR VV007 20/19 A3003 RMK AO2=
KRGK 080735Z AUTO 29004KT 10SM CLR 20/18 A3003 RMK AO2=
KRMY 080736Z AUTO 00000KT 7SM CLR 21/20 A3005 RMK AO2=
KRNP 080735Z AUTO 00000KT 10SM CLR 22/21 A3002 RMK AO2=
KROX 080735Z AUTO 26004KT 10SM CLR 17/14 A3000 RMK AO2=
KRQB 080735Z AUTO 25003KT 10SM SCT049 SCT065 OVC110 23/21 A3004
     RMK AO2=
KRRT 080734Z AUTO 24006KT 10SM CLR 16/13 A3000 RMK AO2=
KSAW 080739Z AUTO 00000KT 10SM BKN003 18/17 A2996 RMK AO2=
####018000104####
SAUS80 KWBC 080800
METAR
KSYN 080750Z AUTO 00000KT 10SM CLR 19/17 A3005 RMK AO2
     T01870171=
####018001549####
SAAU31 KWBC 080700 RRB
METAR
YBAS 080730Z 11009KT 9999 FEW034 15/06 Q1019=
YBBN 080730Z 18011KT 9999 FEW040 SCT077 BKN105 18/10 Q1019
     NOSIG=
YBCG 080730Z AUTO 19012KT 9999NDV // SCT027 BKN049 OVC096 16/12
     Q1020=
YBCS 080730Z 15007KT 9999 FEW024 BKN040 25/19 Q1015=
YBMA 080730Z AUTO 17011KT 9999NDV // NCD 16/11 Q1018=
YBRK 080730Z 24005KT 9999 FEW004 BKN030 13/12 Q1019=
YBRM 080730Z 06008KT 9999 BKN034 28/21 Q1010=
YBTL 080730Z 06008KT 9999 FEW017 SCT045 BKN170 23/19 Q1015=
YMHB 080730Z 00000KT 9999 FEW035 07/04 Q1029=
YMML 080730Z 17005KT 9999 FEW031 BKN042 10/04 Q1027 NOSIG=
YPAD 080730Z 17001KT 9999 FEW045 SCT056 13/09 Q1025=
YPCC 080730Z AUTO 13008KT 9999NDV // NCD 28/22 Q1012=
YPDN 080730Z 01011KT CAVOK 29/20 Q1011=
YPEA 080730Z NIL=
YPLM 080730Z AUTO 06005KT 9999NDV // BKN084 21/16 Q1008=
YPPD 080730Z AUTO 04016KT 9999NDV // SCT016 BKN115 25/20 Q1009=
YPPH 080730Z 34013KT 6000 SHRA FEW008 SCT022 BKN050 FEW022CB 15/14
     Q1000 FM0730 33018G28KT 9999 -SHRA BKN020 INTER 0730/1030
     27025G35KT 3000 +SHRA BKN010=
YPTN 080730Z 11008KT CAVOK 29/14 Q1012=
YPXM 080730Z NIL=
YSCB 080730Z 09006KT 9999 FEW050 07/02 Q1026 RMK USE TAF FOR
     ARRIVALS AFTER 0900Z NOSIG=
YSDU 080730Z AUTO 11007KT 9999NDV // NCD 11/05 Q1024=
YSNF 080730Z 10011KT 9999 FEW013 BKN025 BKN100 14/11 Q1016=
YSRI 080730Z AUTO 10004KT 9999NDV // SCT026 BKN047 OVC071 12/11
     Q1026=
YSSY 080730Z 21016KT 9999 -SHRA SCT035 BKN070 12/12 Q1026 INTER
     0730/1030 5000 SHRA BKN015=
####018000179####
SAAW34 KWBC 080715 RRE
METAR
UACP 080730Z NIL=
UADD 080730Z 03003G08MPS 020V100 9999 NSC 33/03 Q1014 NOSIG RMK
     QFE703/0938=
UAII 080730Z NIL=
UASP 080730Z NIL=
####018000107####
SAPA41 KWBC 080700 RRB
METAR
PKWA 080740Z AUTO 08009KT 10SM SCT012 BKN040 OVC080 25/23
     A2984=
####018000333####
SAEM31 KWBC 080730 RRB
METAR
LKMT 080730Z VRB01KT 9999 FEW033 18/11 Q1024 NOSIG RMK REG QNH
     1021=
LKPR 080730Z 14004KT 070V190 CAVOK 20/09 Q1024 NOSIG RMK REG QNH
     1021=
LKTB 080730Z 27004KT 220V330 9999 FEW035 20/10 Q1023 NOSIG RMK REG
     QNH 1021=
LYTV 080730Z 31003KT 230V020 CAVOK 25/07 Q1018 NOSIG=
####018000175####
SAEE32 KWBC 080730 RRB
METAR
LRAR 080730Z 01006KT 330V060 9999 FEW015 19/15 Q1020=
LRTM 080730Z 21006KT 180V250 9999 SCT007 SCT013 BKN023 16/13 Q1020
     0719//95=
####018000092####
SAFR32 KWBC 080730 RRB
METAR
LFRN 080736Z AUTO VRB03KT 9999NDV ///////// 19/15 Q1019=
####018000107####
SAPQ31 KWBC 080700 RRB
METAR
PKWA 080740Z AUTO 08009KT 10SM SCT012 BKN040 OVC080 25/23
     A2984=
####018000225####
SAID31 KWBC 080700 RRC
METAR
WAAA 080730Z 29007KT 9999 FEW020 31/25 Q1008=
WIII 080730Z 30007KT 270V340 8000 FEW019CB SCT02032/22 Q1009 RM K
     CB TO W NOSIG=
WIMM 080730Z 03008KT 7000 SCT017 34/24 Q1008 NOSIG=
####018000325####
SAPA31 KWBC 080700 RRB
METAR
AYPY 080700Z 16004KT 9999 FEW020CB FEW020 BKN140 29/23 Q1007 RMKS/
     CB TO N/ HZ IN AREA=
AYPY 080700Z 16004KT 9999 FEW020CB FEW020 BKN140 29/23 Q1007 RMKS:
     CB TO N/ HZ IN AREA=
PKWA 080740Z AUTO 08009KT 10SM SCT012 BKN040 OVC080 25/23 A2984
     RMK AO2 P0007 T02520232=
####018001430####
SARA31 KWBC 080700 RRJ
METAR
UEEE 080730Z 00000MPS 9999 SCT050CB BKN200 25/08 Q1007 TEMPO
     VRB14MPS -TSRA RMK QFE747 2309//60=
UHHH 080730Z 03005MPS 9999 SCT031CB OVC100 18/14 Q1010 NOSIG RMK
     QFE751/1001 55090060=
UHMA 080730Z NIL=
UHMM 080730Z 24003MPS 9999 SCT010 OVC028 14/12 Q1016 NOSIG RMK
     QFE747 88010070 MT OBSC=
UHMP 080730Z NIL=
UHPP 080730Z NIL=
UHSS 080730Z 17003MPS 9999 BKN021CB 15/12 Q1010 NOSIG RMK MT OBSC
     QFE756/1008 19CLRD70=
UHWW 080730Z 25006MPS 9999 BKN021 OVC070 21/16 Q1009 NOSIG RMK
     QFE756/1008 75CLRD70=
UIAA 080730Z VRB01MPS 9999 BKN050CB OVC200 32/09 Q1005 TEMPO -TSRA
     RMK QFE695 29CLRD70=
UIBB 080730Z 05004MPS 9999 FEW033 BKN200 28/12 Q1006 NOSIG RMK
     QFE711/0948 30CLRD60=
UIII 080730Z 16004MPS 9999 FEW050CB SCT100 OVC200 22/11 Q1006
     NOSIG RMK QFE712/0950 12CLRD60=
UIUU 080730Z 22006G11MPS 9999 SCT040CB OVC100 24/13 Q1007 NOSIG
     RMK QFE711/0948=
ULAA 080730Z 30003MPS 260V360 9999 FEW030 FEW/// 25/18 Q1015 NOSIG
     RMK QFE759/1013 SC070=
UNAA 080730Z 23008G16MPS 180V300 5000 -TSRA SCT030CB BKN100 15/12
     Q1009 TEMPO 34010G15MPS 2000 TSRAGR RMK QFE735 201///65=
UNNT 080730Z 30004MPS 9999 BKN050CB BKN100 17/07 Q1007 NOSIG RMK
     QFE745/0994 25090070=
USNN 080730Z 17005MPS P6000 SCT026 BKN200 17/12 Q1002 NOSIG RMK
     QFE746 SC065=
UUEE 080730Z 14004MPS CAVOK 26/15 Q1014 NOSIG=
####018000647####
SARS31 KWBC 080700 RRD
METAR
UELL 080730Z 19002MPS 9999 SCT030CB BKN200 19/14 Q1010 TEMPO TS
     RMK QFE683 08CLRD70=
UEST 080730Z 10004MPS CAVOK 09/03 Q1016 NOSIG RMK QFE761
     21000060=
ULLI 080730Z 14002MPS 100V170 CAVOK 28/19 Q1013 NOSIG=
ULMM 080730Z 36004MPS 9999 BKN012CB 13/09 Q1016 NOSIG RMK QFE755
     32190060=
UOHH 080730Z NIL=
UOOO 080730Z 04007G09MPS CAVOK 22/08 Q1010 NOSIG RMK QFE743
     010///60=
UUDD 080730Z 15003MPS 090V200 9999 FEW033 BKN200 25/17 Q1015
     NOSIG=
UUEE 080730Z 14004MPS CAVOK 26/15 Q1014 NOSIG=
UUEM 080730Z NIL=
UUWW 080730Z 12003MPS CAVOK 22/17 Q1014 06000070 NOSIG=
####018000932####
SARS33 KWBC 080700 RRB
METAR
USCC 080730Z 34009G14MPS 9999 SCT040 24/02 Q1014 NOSIG RMK QFE741
     27000070=
USDD 080730Z 04009MPS CAVOK 16/01 Q1016 NOSIG RMK QFE756/1008
     SC060=
USMU 080730Z 01006MPS 9999 -SHRA SCT027CB OVC066 10/09 Q1005 NOSIG
     RMK QFE748 09250345=
USNN 080730Z 17005MPS P6000 SCT026 BKN200 17/12 Q1002 NOSIG RMK
     QFE746 SC065=
USPP 080730Z 35003MPS 290V360 CAVOK 26/09 Q1016 NOSIG RMK
     QFE751/1002 21090060=
USRK 080730Z 36004MPS 6000 BKN013 OVC066 12/11 Q1002 TEMPO 2000 BR
     BKN004 RMK QFE745 351///55=
USRR 080730Z 35004G07MPS 6000 OVC009 12/10 Q1003 TEMPO BKN005 RMK
     QFE747 йръ 25////60=
USRR 080730Z 35004G07MPS 6000 OVC009 12/10 Q1003 TEMPO BKN005 RMK
     QFE747 25////60=
USSS 080730Z 34006G10MPS 300V020 CAVOK 23/03 Q1015 NOSIG RMK
     QFE741 260///70=
USTR 080730Z 33010G13MPS CAVOK 20/04 Q1011 NOSIG RMK QFE749/0998
     30CLRD65=
####018001108####
SARS41 KWBC 080700 RRB
METAR
UUBP 080730Z NIL=
UUEE 080730Z 14004MPS CAVOK 26/15 Q1014 NOSIG=
UUEM 080730Z NIL=
UUOO 080730Z 18002G05MPS 120V210 9999 SCT033 26/16 Q1014 NOSIG RMK
     13090070=
UUWW 080730Z 12003MPS CAVOK 22/17 Q1014 06000070 NOSIG=
UUYH 0080730Z 19001MPS CAVOK 24/07 Q1018 NOSIG RMK QFE 751
     18CLRD60=
UUYS 080730Z 18002MPS CAVOK 19/07 Q1017 NOSIG RMK QFE756
     14CLRD60=
UUYY 080730Z VRB01MPS 9999 FEW023 29/17 Q1016 NOSIG 19CLRD61 RMK
     QFE753/1004=
UWGG 080730Z 12004MPS 070V170 8000 SKC 31/11 Q1016 NOSIG RMK
     QFE755 18090070=
UWKD 080730Z NIL=
UWKE 080730Z 00000MPS CAVOK 28/10 Q1016 NOSIG RMK QFE745/0994
     22090070=
UWLW 080730Z NIL=
UWOO 080730Z NIL=
UWPP 080730Z 12005MPS 9999 SCT033CB BKN100 26/11 Q1014 NOSIG RMK
     QFE746 11090060=
UWSS 080730Z 04002MPS CAVOK 26/12 Q1015 NOSIG RMK QFE749
     120///60=
UWUU 080730Z 05003G06MPS 020V110 9999 FEW046 27/08 Q1016 82010060
     NOSIG RMK QFE751/1001 MOD TURB 500-1600=
UWWW 080730Z 07007MPS CAVOK 29/09 Q1015 NOSIG RMK QFE748/0998
     05CLRD60 15//99//=
####018000075####
SASD43 KWBC 080700 RRB
METAR
OESK 080700Z 27007KT CAVOK 37/00 Q1010=
####018001080####
SARS32 KWBC 080700 RRB
METAR
URKA 080730Z 06004MPS 9999 SCT030 28/20 Q1013 NOSIG RMK уг 065=
URKA 080730Z 06004MPS 9999 SCT030 28/20 Q1013 NOSIG RMK 065=
URKK 080730Z 12003MPS 080V150 9999 FEW030 SCT300 27/18 Q1013 NOSIG
     RMK QFE757 SC070=
URKM 080730Z NIL=
URMM 080730Z 09004MPS 9999 SCT040 27/20 Q1014 NOSIG RMK з/п
     SC070=
URMM 080730Z 09004MPS 9999 SCT040 27/20 Q1014 NOSIG RMK /
     SC070=
URMN 080730Z 34002MPS 9999 SCT026 26/20 Q1015 NOSIG RMK з/п QFE724
     SC07=
URMN 080730Z 34002MPS 9999 SCT026 26/20 Q1015 NOSIG RMK / QFE724
     SC07=
URMT 080730Z 05005G08MPS 9999 FEW020 27/16 Q1015 NOSIG RMK QFE721
     SC07=
URRR 080730Z VRB01MPS 9999 FEW023 28/16 Q1014 NOSIG RMK SC070=
URSS 080730Z 26002MPS 9999 SKC 28/22 Q1011 NOSIG RMK з/п QFE757
     06CLRD70=
URSS 080730Z 26002MPS 9999 SKC 28/22 Q1011 NOSIG RMK / QFE757
     06CLRD70=
URWA 080730Z 36003MPS CAVOK 33/14 Q1011 NOSIG RMK SC07=
URWI 080730Z 36002MPS 9999 SKC 27/17 Q1014 NOSIG RMK SC065=
URWW 080730Z 32003G06MPS CAVOK 27/18 Q1014 NOSIG RMK SC070=
####018000131####
SAXX62 KWBC 080700 RRC
METAR
PKWA 080740Z AUTO 08009KT 10SM SCT012 BKN040 OVC080 25/23 A2984
     RMK AO2 P0007 T02520232=
####018000079####
SPCN47 CWAO 080740
SPECI CYPQ 080740Z AUTO ///// 1/8SM CLR 19/19 A3002=

####018002558####
SAXX99 KWBC 080700 RRX
METAR
EGVO 080737Z 24006KT 8000 BR OVC004 17/16 Q1019 YLO2 BECMG BKN012
     GRN=
EGYM 080733Z 26009KT 9999 -RA FEW012 SCT022 BKN040 18/14 Q1018 WHT
     BECMG FEW030 BLU=
ETND 080720Z 18007KT 9999 FEW180 23/13 Q1019 BLU+=
ETND 080720Z 18007KT 9999 FEW180 23/13 Q1019 BLU/=
KGYH 080735Z AUTO 30004KT 10SM CLR 24/19 A3003 RMK AO2=
LFOJ 080730Z 19004KT 140V230 CAVOK 25/14 Q1019=
LKKV 080730Z VRB02KT CAVOK 18/11 Q1024 RMK REG QNH 1021=
UACK 080730Z 33008G13MPS 9999 BKN053 18/03 Q1011 02010070 NOSIG
     RMK QFE735=
UERP 080730Z 01005MPS 9999 SCT035CB BKN045 15/08 Q1014 NOSIG RMK
     QFE716 35090065=
UERR 080730Z 32004G07MPS 9999 -DZ OVC013 14/14 Q1011 NOSIG RMK
     QFE727 24290255=
UESO 080730Z 26009G12MPS 9999 OVC008 07/05 Q1003 NOSIG RMK QFE750
     SC060=
UHNN 080730Z NIL=
UHSH 080730Z NIL=
ULDD 080730Z NIL=
ULKK 080730Z NIL=
ULOL 080730Z NIL=
ULOO 080730Z VRB01MPS P6000 FEW033 SCT200 26/18 Q1012 NOSIG RMK
     QFE755=
ULWW 080730Z NIL=
UMKK 080730Z 29006MPS P8000 BKN200 21/17 Q1019 NOSIG RMK QFE 763
     SC07=
UNBB 080730Z 19008MPS 9999 VCTS SCT033CB SCT100 20/04 Q1009 NOSIG
     RMK QFE734=
UNEE 080730Z 26006G11MPS 9999 SCT026 BKN200 18/15 Q1008 NOSIG RMK
     QFE733 23CLRD60=
UNKL 080730Z VRB01MPS 9999 BKN016CB OVC083 17/14 Q1008 NOSIG RMK
     QFE731 29////55=
UNOO 080730Z 29006G09MPS 9999 BKN023CB 14/09 Q1007 NOSIG 25CLRD06
     RMK QFE747=
UNWW 080730Z 23002MPS 9999 BKN026CB OVC130 19/09 Q1009 NOSIG RMK
     QFE730 19CLRD70=
UOII 080730Z 08006MPS 9999 FEW040 BKN200 28/16 Q1005 NOSIG RMK
     QFE751 30////60=
URML 080730Z 01005G10MPS 9999 SKC 31/21 Q1013 NOSIG RMK QFE759 з/п
     уг07=
URML 080730Z 01005G10MPS 9999 SKC 31/21 Q1013 NOSIG RMK QFE759 /
     07=
UWLL 080730Z 10002MPS CAVOK 29/10 Q1016 NOSIG RMK QFE749/0999
     SC065=
UWOR 080730Z NIL=
WADD 080730Z 10007KT 9999 FEW018CB FEW018 29/25 Q1008 NOSIG=
YAMB 080730Z 17009KT 9999 BKN040 BKN055 18/10 Q1020=
YBHM 080730Z NIL=
YCIN 080730Z AUTO 10005KT //// // ////// 26/19 Q1011=
YFRT 080730Z NIL=
YMAV 080730Z AUTO 11005KT 9999NDV // OVC052 10/08 Q1027=
YMLT 080730Z AUTO 16003KT 9999NDV // BKN037 06/03 Q1029=
YPGV 080730Z 14015KT 9999 FEW018 BKN350 25/21 Q1012=
YPKG 080730Z AUTO 36009KT 9999NDV // SCT062 OVC086 19/04 Q1006=
YPKU 080730Z AUTO 14005KT 9999NDV // NCD 27/14 Q1012=
YSTW 080730Z AUTO 15008KT 9999NDV // SCT049 BKN060 13/06 Q1022=
YWLM 080730Z AUTO 25006KT 9999NDV // BKN040 BKN050 OVC070 13/12
     Q1024=
####018000081####
SPUS51 KWBC 080742
SPECI
KGFL 080739Z AUTO 29003KT 1SM BR CLR 21/21 A3001=
####018000192####
SAUS43 KWBC 080700 RRJ
METAR
KELO 080733Z AUTO 00000KT 2SM BR CLR 13/13 A3003=
KPHN 080736Z AUTO 00000KT 1SM BR VV007 20/19 A3003=
KSAW 080739Z AUTO 00000KT 10SM BKN003 18/17 A2996=
####018000078####
SACN59 CWAO 080700 RRF
XVW SA 0700 AUTO8 M M M M/14/10/1704/M/ M 45MM=

####018000083####
SACN88 CWAO 080700 RRD
WNS SA 0700 AUTO8 M M M 196/16/16/MMMM/M/ 8003 29MM=

####018000082####
SAUS52 KWBC 080700 RRG
METAR
KWRB 080655Z COR 07001KT 10SM CLR 22/21 A3002=
####018000085####
SPUS73 KWBC 080742
SPECI
KHIB 080739Z AUTO 00000KT 1/2SM FG VV001 10/09 A3005=
####018000361####
SAXX70 KAWN 080700 RRS
METAR KQEN 080740Z AUTO 05004KT M1/4SM FG OVC002 18/16 A3039 RMK A02=
METAR KQEP 080740Z AUTO 21002KT 7SM FEW047 29/16 A2984 RMK A02=
METAR KQER 080740Z AUTO 21003KT 7SM FEW028 26/17 A2987 RMK A02=
METAR KQES 080740Z AUTO 31010KT 5SM BR FEW100 20/17 A2984 RMK A02=
METAR KQEY 080740Z AUTO 29004KT 7SM CLR 28/16 A2957 RMK A02=
####018000138####
SAUS73 KWBC 080700 RRJ
METAR
KELO 080733Z AUTO 00000KT 2SM BR CLR 13/13 A3003=
KSAW 080739Z AUTO 00000KT 10SM BKN003 18/17 A2996=
####018000083####
SAUS74 KWBC 080700 RRF
METAR
KIWA 080736Z AUTO 00000KT 10SM CLR 32/04 A2979=
####018000162####
SAUS17 KAWN 080700 RRF
METAR KFMH 080735Z AUTO 16006KT 1 1/2SM BR OVC002 21/21 A3007 RMK AO2=
METAR KIWA 080736Z AUTO 00000KT 10SM CLR 32/04 A2979 RMK AO2=
####018000084####
SAXX70 KAWN 080800
METAR KQEV 080750Z AUTO 32003KT 7SM CLR 30/16 A2976 RMK A02=
####018000085####
SPCN51 CWAO 080741
SPECI CWZZ 080741Z AUTO ///// 9SM OVC014 OVC028 10/ A2983=

####018000079####
SACN88 CWAO 080731
WXI SA 0731 AUTO8 M M M 188/09/M/0412/M/M 6003 8MMM=

####018000598####
SAUS20 KNKA 080742
METAR KBQP 080747Z AUTO 00000KT 4SM BR CLR 24/24 A3003 RMK AO2=
METAR KCTZ 080740Z AUTO 00000KT 7SM CLR 23/22 A2992 RMK AO2=
METAR KEBS 080735Z AUTO 34003KT 10SM SCT024 20/18 A3009 RMK AO2=
METAR KFQD 080739Z AUTO 30003KT 10SM CLR 21/18 A3003 RMK AO2=
METAR KLWB 080740Z AUTO 00000KT 5SM BR SCT065 BKN090 20/18 A3015 
     RMK AO2=
METAR KRHP 080742Z AUTO 00000KT 7SM CLR 18/17 A3012 RMK AO2=
SPECI KRKP 080741Z AUTO 10014KT 10SM SCT021 BKN030 OVC060 28/26 
    A2984 RMK AO2 LTG DSNT N TSE0658=
METAR KTVK 080735Z AUTO 00000KT 5SM CLR 20/20 A3006 RMK AO2=
####018000130####
SPUS99 KWBC 080743
SPECI
KRKP 080741Z AUTO 10014KT 10SM SCT021 BKN030 OVC060 28/26 A2984
     RMK AO2 LTG DSNT N TSE0658=
####018000456####
SAUS99 KWBC 080743
METAR
KBQP 080747Z AUTO 00000KT 4SM BR CLR 24/24 A3003 RMK AO2=
KCTZ 080740Z AUTO 00000KT 7SM CLR 23/22 A2992 RMK AO2=
KEBS 080735Z AUTO 34003KT 10SM SCT024 20/18 A3009 RMK AO2=
KFQD 080739Z AUTO 30003KT 10SM CLR 21/18 A3003 RMK AO2=
KLWB 080740Z AUTO 00000KT 5SM BR SCT065 BKN090 20/18 A3015 RMK
     AO2=
KRHP 080742Z AUTO 00000KT 7SM CLR 18/17 A3012 RMK AO2=
KTVK 080735Z AUTO 00000KT 5SM CLR 20/20 A3006 RMK AO2=
####018000118####
SPIV20 DIAP 080741
SPECI DIAP 080741Z 00000KT 6000 FEW005 BKN012 BKN080 26/25 Q1015
TEMPO 5000 -RA BKN005 OVC080=
####018000089####
SPUS41 KWBC 080743
SPECI
KEWB 080740Z AUTO 13007KT 10SM BKN006 OVC031 22/20 A3006=
####018000091####
SPUS72 KWBC 080743
SPECI
KAFW 080740Z 16005KT 10SM FEW018 BKN021 OVC060 27/23 A2999=
####018000075####
SACN96 CWAO 080740
WZQ SA 0740 AUTO8 M M M M/22/17/1808/M/M M 69MM=

####018000120####
SPIV20 DIAP 080741
SPECI DIAP 080741Z 00000KT 6000 FEW005 BKN012 BKN080 26/25 Q1015
TEMPO 5000 -RA BKN005 OVC080=
####018001073####
SPZZ40 KAWN 080743 RRI
SPECI CWZZ 080741Z AUTO ///// 9SM OVC014 OVC028 10/ A2983=
SPECI CYKF 080737Z AUTO 00000KT 5/8SM BR CLR 20/20 A3006 RMK SLP176
      DENSITY ALT 1700FT VIS VRB 1/4-1 1/2=
SPECI CYPQ 080737Z AUTO ///// 3/8SM CLR 19/19 A3002 RMK VSBY VRBL 0.1V6.0=
SPECI CYPQ 080740Z AUTO ///// 1/8SM CLR 19/19 A3002=
SPECI CYQU 080735Z 00000KT 25SM FEW060CB SCT090 BKN250 RETS RMK CB1AC2CI0
      LTGIC DIST NW-NE=
SPECI CYUA 080739Z AUTO 31016G22KT 9SM OVC003 OVC017 05/ A3007=
SPECI CYUS 080740Z AUTO ///// 9SM CLR 11/ A2980=
SPECI KAFF 080740Z AUTO 00000KT 10SM BKN012 BKN018 BKN026 13/12 A3041
      RMK AO2 CIG 010V015 BKN012 V SCT SLP209=
SPECI KLFI 080737Z 10006KT 8SM R08/5500FT BKN008 26/24 A2996 RMK AO2A
      BKN V SCT SLP148 $=
SPECI KNUQ 080735Z AUTO 01005KT 10SM OVC013 16/12 A2993 RMK AO2 TSNO=
SPECI KWRI 080742Z AUTO 00000KT 2 1/2SM R18/5000V5500FT R24/2800FT
      BR OVC002 24/24 A2999 RMK AO2 CIG 001V003 SLP157 $=
SPECI PGUA 080741Z AUTO 08015G20KT 10SM SCT016 28/ A2986 RMK AO2 SLP094
      VISNO RWY24L $=
####018000087####
SPCN51 CWAO 080742
SPECI CZCP 080742Z AUTO 13008KT 9SM OVC015 OVC033 05/ A2986=

####018002935####
SAUS20 KNKA 080743
METAR K0R3 080739Z AUTO 00000KT 7SM CLR 25/25 A2998 RMK AO2=
METAR K1A5 080740Z AUTO 00000KT 1 1/2SM BR VV007 18/16 A3015 RMK 
     AO2 VIS 1/2V5 T01760163=
METAR K3I2 080740Z AUTO 00000KT 4SM BR CLR 19/19 A3008 RMK AO2=
METAR K47A 080740Z AUTO 00000KT 7SM CLR 21/18 A3007 RMK AO2 
     T02100182=
METAR K4R4 080740Z AUTO 00000KT 1 3/4SM BR SCT010 24/23 A3001 RMK 
     AO2 VIS 3/4V5 T02380230=
METAR KACP 080739Z AUTO 00000KT 5SM BR CLR 23/23 A2999 RMK AO2=
SPECI KAUW 080742Z AUTO 31008KT 10SM SCT004 SCT013 BKN023 20/19 
    A3000 RMK AO2 RAB07E19 P0000 $=
METAR KAVC 080740Z AUTO 00000KT 7SM BKN090 26/19 A3001 RMK AO2=
METAR KAYS 080740Z AUTO 00000KT 10SM CLR 23/21 A3001 RMK AO1=
METAR KBCB 080740Z AUTO 00000KT 5SM BR CLR 21/21 A3014 RMK AO2=
METAR KBGE 080740Z AUTO 00000KT 10SM CLR 21/20 A3002 RMK AO2=
METAR KBIJ 080740Z AUTO 00000KT 10SM CLR 20/ A3002 RMK AO2=
METAR KBQK 080737Z AUTO 00000KT 1/2SM VV005 21/21 A3000 RMK AO1 
     T02130209 PNO=
METAR KCCO 080740Z AUTO 00000KT 5SM CLR 21/21 A3005 RMK AO1=
METAR KCDH 080740Z AUTO 00000KT 1SM BR OVC001 23/23 A3003 RMK AO2=
METAR KCPK 080740Z AUTO 00000KT 2SM BR BKN004 BKN009 22/22 A2995 
     RMK AO2=
METAR KCTJ 080740Z AUTO 00000KT 10SM CLR 21/20 A3006 RMK AO2 
     T02100198=
METAR KCWV 080745Z AUTO 00000KT 10SM CLR 21/21 A3001 RMK AO2 
     T02110212=
METAR KDBN 080740Z AUTO 00000KT 10SM CLR 23/20 A3000 RMK AO1=
METAR KDNN 080738Z AUTO 00000KT 10SM CLR 21/21 A3005 RMK AO2=
METAR KDPL 080740Z AUTO 00000KT 7SM CLR 23/22 A2992 RMK AO2=
METAR KDQH 080740Z AUTO 00000KT 10SM CLR 23/20 A3002 RMK AO1=
METAR KEDE 080736Z AUTO 00000KT 3SM BR CLR 23/22 A2994 RMK AO2=
METAR KEMV 080737Z AUTO 06003KT 7SM CLR 23/21 A2996 RMK AO2=
METAR KEXX 080739Z AUTO 00000KT 10SM CLR 23/17 A2999 RMK AO2=
METAR KEZF 080738Z AUTO 21003KT 7SM OVC110 26/24 A2995 RMK AO2 
     T02630241=
METAR KF24 080739Z AUTO 10SM CLR 25/23 A3005 RMK AO2 T02460233=
METAR KFKN 080740Z AUTO 00000KT 5SM 23/21 A2995 RMK AO1=
METAR KFYJ 080741Z AUTO 00000KT 4SM SCT120 26/24 A2997 RMK AO1=
METAR KGEV 080741Z AUTO 00000KT 10SM CLR 23/17 A3018 RMK AO2=
METAR KGHG 080740Z AUTO 12003KT 10SM FEW027 21/20 A3007 RMK AO2=
METAR KHDC 080742Z AUTO 06004KT 10SM CLR 26/26 A3002 RMK AO2=
METAR KHOE 080739Z AUTO 00000KT 10SM CLR 22/ A3002 RMK AO2 T0220=
METAR KHRJ 080741Z AUTO 00000KT 7SM CLR 26/21 A2994 RMK AO2=
METAR KHSP 080740Z AUTO 07004KT 10SM CLR 23/15 A3026 RMK AO2=
SPECI KILG 080742Z AUTO 00000KT 6SM HZ BKN009 25/22 A3001 RMK AO2 $=
METAR KIPJ 080740Z AUTO 00000KT 10SM CLR 20/18 A3002 RMK AO2 
     T02000175=
METAR KJES 080740Z AUTO 27004KT 10SM CLR 21/21 A3000 RMK AO2 
     T02110212=
METAR KJNX 080739Z AUTO 00000KT 4SM CLR 22/22 A2993 RMK AO2=
METAR KJYL 080741Z AUTO 00000KT 10SM CLR 23/21 A3001 RMK AO2=
SPECI KLEB 080742Z AUTO 00000KT 2SM BR CLR 22/20 A3004 RMK AO2=
####018000619####
SAMS31 WMKK 080730
METAR 080730Z
METAR WBGG 080730Z 05008KT 6000 -SHRA FEW015CB BKN020 BKN150 25/23 
Q1008
     RERA NOSIG=
METAR WBKK 080730Z 05002KT 9999 -TSRA FEW013 FEW017CB SCT035 OVC260 
29/25
     Q1008
     TEMPO 5000 TSRA=
METAR WBSB 080730Z 25011KT 9999 SCT015 FEW016CB SCT140 BKN300 30/26 
Q1007
     NOSIG=
METAR WMKK 080730Z 27004KT 200V320 9999 SCT018 SCT140 BKN280 31/26 
Q1008
     NOSIG=
METAR WMKP 080730Z 20010KT 9999 FEW020 BKN300 31/26 Q1009 NOSIG=
METAR WSSL NIL=
METAR WSSS 080730Z 21004KT 170V260 9999 -RA FEW016 FEW018TCU BKN150 
29/25
     Q1009 NOSIG=
####018001154####
SAUS20 KNKA 080743
METAR KMFV 080742Z AUTO 13003KT 3SM BR SCT006 BKN100 25/24 A2997 
     RMK AO2=
METAR KMLJ 080743Z AUTO 00000KT 7SM CLR 23/23 A3002 RMK AO2=
METAR KMQI 080736Z AUTO 06006KT 10SM CLR 26/24 A2993 RMK AO2=
METAR KMRN 080739Z AUTO 00000KT 10SM CLR 19/18 A3010 RMK AO2=
METAR KMWK 080742Z AUTO 02003KT 7SM CLR 24/19 A3004 RMK AO2=
METAR KOCW 080740Z AUTO 03006KT 5SM HZ CLR 26/21 A2993 RMK AO2=
METAR KPGV 080740Z AUTO 05004KT 7SM SCT110 26/20 A2994 RMK AO2=
METAR KPSK 080742Z AUTO 00000KT 7SM CLR 25/18 A3014 RMK AO2=
METAR KPTB 080742Z AUTO 00000KT 5SM BR CLR 23/21 A2996 RMK AO2=
METAR KRUQ 080741Z AUTO 00000KT 10SM CLR 21/21 A3000 RMK AO2=
METAR KSIF 080740Z AUTO 00000KT 7SM BKN090 23/21 A3001 RMK AO2=
METAR KTNB 080741Z AUTO 00000KT 10SM CLR 16/14 A3020 RMK AO2=
METAR KTPF 080740Z AUTO 06003KT 10SM CLR 24/23 A2999 RMK AO2=
METAR KTSP 080735Z AUTO 00000KT 10SM CLR 15/07 A3003 RMK AO2 =
METAR KUKF 080741Z AUTO 27004KT 10SM CLR 22/17 A3007 RMK AO1=
METAR KUNV 080740Z AUTO 00000KT 7SM CLR 20/19 A3009 RMK AO2 
     T02030185=
METAR KW99 080739Z AUTO 00000KT 7SM SCT085 21/16 A3009 RMK AO2=
####018000080####
SACN96 KWBC 080744
METAR CWZQ 080740Z AUTO 18008KT 22/17 RMK AO1 T02160169=
####018000087####
SACN88 KWBC 080744
METAR CWXI 080731Z AUTO 04012KT 09/ RMK AO1 SLP188 T0088 56003=
####018000149####
SAMX45 MMMY 080743
METAR MMMY 080741Z 29006KT 15SM  SCT045 23/22 A2988 RMK 8/500=
METAR MMNL 080743Z 08005KT 8SM  SCT022 27/24 A2990 RMK 8/500=
####018003491####
SAUS99 KWBC 080744
METAR
K0R3 080739Z AUTO 00000KT 7SM CLR 25/25 A2998 RMK AO2=
K1A5 080740Z AUTO 00000KT 1 1/2SM BR VV007 18/16 A3015 RMK AO2 VIS
     1/2V5 T01760163=
K3I2 080740Z AUTO 00000KT 4SM BR CLR 19/19 A3008 RMK AO2=
K47A 080740Z AUTO 00000KT 7SM CLR 21/18 A3007 RMK AO2
     T02100182=
K4R4 080740Z AUTO 00000KT 1 3/4SM BR SCT010 24/23 A3001 RMK AO2
     VIS 3/4V5 T02380230=
KACP 080739Z AUTO 00000KT 5SM BR CLR 23/23 A2999 RMK AO2=
KAVC 080740Z AUTO 00000KT 7SM BKN090 26/19 A3001 RMK AO2=
KAYS 080740Z AUTO 00000KT 10SM CLR 23/21 A3001 RMK AO1=
KBCB 080740Z AUTO 00000KT 5SM BR CLR 21/21 A3014 RMK AO2=
KBGE 080740Z AUTO 00000KT 10SM CLR 21/20 A3002 RMK AO2=
KBIJ 080740Z AUTO 00000KT 10SM CLR 20/ A3002 RMK AO2=
KBQK 080737Z AUTO 00000KT 1/2SM VV005 21/21 A3000 RMK AO1
     T02130209 PNO=
KCCO 080740Z AUTO 00000KT 5SM CLR 21/21 A3005 RMK AO1=
KCDH 080740Z AUTO 00000KT 1SM BR OVC001 23/23 A3003 RMK AO2=
KCPK 080740Z AUTO 00000KT 2SM BR BKN004 BKN009 22/22 A2995 RMK
     AO2=
KCTJ 080740Z AUTO 00000KT 10SM CLR 21/20 A3006 RMK AO2
     T02100198=
KCWV 080745Z AUTO 00000KT 10SM CLR 21/21 A3001 RMK AO2
     T02110212=
KDBN 080740Z AUTO 00000KT 10SM CLR 23/20 A3000 RMK AO1=
KDNN 080738Z AUTO 00000KT 10SM CLR 21/21 A3005 RMK AO2=
KDPL 080740Z AUTO 00000KT 7SM CLR 23/22 A2992 RMK AO2=
KDQH 080740Z AUTO 00000KT 10SM CLR 23/20 A3002 RMK AO1=
KEDE 080736Z AUTO 00000KT 3SM BR CLR 23/22 A2994 RMK AO2=
KEMV 080737Z AUTO 06003KT 7SM CLR 23/21 A2996 RMK AO2=
KEXX 080739Z AUTO 00000KT 10SM CLR 23/17 A2999 RMK AO2=
KEZF 080738Z AUTO 21003KT 7SM OVC110 26/24 A2995 RMK AO2
     T02630241=
KF24 080739Z AUTO 10SM CLR 25/23 A3005 RMK AO2 T02460233=
KFKN 080740Z AUTO 00000KT 5SM 23/21 A2995 RMK AO1=
KFYJ 080741Z AUTO 00000KT 4SM SCT120 26/24 A2997 RMK AO1=
KGEV 080741Z AUTO 00000KT 10SM CLR 23/17 A3018 RMK AO2=
KGHG 080740Z AUTO 12003KT 10SM FEW027 21/20 A3007 RMK AO2=
KHDC 080742Z AUTO 06004KT 10SM CLR 26/26 A3002 RMK AO2=
KHOE 080739Z AUTO 00000KT 10SM CLR 22/ A3002 RMK AO2 T0220=
KHRJ 080741Z AUTO 00000KT 7SM CLR 26/21 A2994 RMK AO2=
KHSP 080740Z AUTO 07004KT 10SM CLR 23/15 A3026 RMK AO2=
KIPJ 080740Z AUTO 00000KT 10SM CLR 20/18 A3002 RMK AO2
     T02000175=
KJES 080740Z AUTO 27004KT 10SM CLR 21/21 A3000 RMK AO2
     T02110212=
KJNX 080739Z AUTO 00000KT 4SM CLR 22/22 A2993 RMK AO2=
KJYL 080741Z AUTO 00000KT 10SM CLR 23/21 A3001 RMK AO2=
KMFV 080742Z AUTO 13003KT 3SM BR SCT006 BKN100 25/24 A2997 RMK
     AO2=
KMLJ 080743Z AUTO 00000KT 7SM CLR 23/23 A3002 RMK AO2=
KMQI 080736Z AUTO 06006KT 10SM CLR 26/24 A2993 RMK AO2=
KMRN 080739Z AUTO 00000KT 10SM CLR 19/18 A3010 RMK AO2=
KMWK 080742Z AUTO 02003KT 7SM CLR 24/19 A3004 RMK AO2=
KOCW 080740Z AUTO 03006KT 5SM HZ CLR 26/21 A2993 RMK AO2=
KPGV 080740Z AUTO 05004KT 7SM SCT110 26/20 A2994 RMK AO2=
KPSK 080742Z AUTO 00000KT 7SM CLR 25/18 A3014 RMK AO2=
KPTB 080742Z AUTO 00000KT 5SM BR CLR 23/21 A2996 RMK AO2=
KRUQ 080741Z AUTO 00000KT 10SM CLR 21/21 A3000 RMK AO2=
KSIF 080740Z AUTO 00000KT 7SM BKN090 23/21 A3001 RMK AO2=
KTNB 080741Z AUTO 00000KT 10SM CLR 16/14 A3020 RMK AO2=
KTPF 080740Z AUTO 06003KT 10SM CLR 24/23 A2999 RMK AO2=
KTSP 080735Z AUTO 00000KT 10SM CLR 15/07 A3003 RMK AO2=
KUKF 080741Z AUTO 27004KT 10SM CLR 22/17 A3007 RMK AO1=
KUNV 080740Z AUTO 00000KT 7SM CLR 20/19 A3009 RMK AO2
     T02030185=
KW99 080739Z AUTO 00000KT 7SM SCT085 21/16 A3009 RMK AO2=
####018000253####
SPUS99 KWBC 080744
SPECI
KAUW 080742Z AUTO 31008KT 10SM SCT004 SCT013 BKN023 20/19 A3000
     RMK AO2 RAB07E19 P0000 $=
KILG 080742Z AUTO 00000KT 6SM HZ BKN009 25/22 A3001 RMK AO2 $=
KLEB 080742Z AUTO 00000KT 2SM BR CLR 22/20 A3004 RMK AO2=
####018000083####
SAKN74 HKMO 080730
METAR HKMO 080730Z 19020KT 9999 FEW023TCU 26/21 Q1019 NOSIG=
####018000515####
SPXX60 KWBC 080744
SPECI
KAFF 080740Z AUTO 00000KT 10SM BKN012 BKN018 BKN026 13/12 A3041
     RMK AO2 CIG 010V015 BKN012 V SCT SLP209=
KLFI 080737Z 10006KT 8SM R08/5500FT BKN008 26/24 A2996 RMK AO2A
     BKN V SCT SLP148 $=
KNUQ 080735Z AUTO 01005KT 10SM OVC013 16/12 A2993 RMK AO2 TSNO=
KWRI 080742Z AUTO 00000KT 2 1/2SM R18/5000V5500FT R24/2800FT BR
     OVC002 24/24 A2999 RMK AO2 CIG 001V003 SLP157 $=
PGUA 080741Z AUTO 08015G20KT 10SM SCT016 28/ A2986 RMK AO2 SLP094
     VISNO RWY24L $=
####018000122####
SPAF31 KWBC 080744
SPECI
DIAP 080741Z 00000KT 6000 FEW005 BKN012 BKN080 26/25 Q1015 TEMPO
5000 -RA BKN005 OVC080=
####018000202####
SAUS80 KWBC 080744
METAR
KAYS 080740Z AUTO 00000KT 10SM CLR 23/21 A3001 RMK AO1=
KDBN 080740Z AUTO 00000KT 10SM CLR 23/20 A3000 RMK AO1=
KJNX 080739Z AUTO 00000KT 4SM CLR 22/22 A2993 RMK AO2=
####018003742####
SAUS70 KWBC 080744
METAR
KFMH 080735Z AUTO 16006KT 1 1/2SM BR OVC002 21/21 A3007 RMK
     AO2=
KIWA 080736Z AUTO 00000KT 10SM CLR 32/04 A2979 RMK AO2=
KCTZ 080740Z AUTO 00000KT 7SM CLR 23/22 A2992 RMK AO2=
KEBS 080735Z AUTO 34003KT 10SM SCT024 20/18 A3009 RMK AO2=
KFQD 080739Z AUTO 30003KT 10SM CLR 21/18 A3003 RMK AO2=
KLWB 080740Z AUTO 00000KT 5SM BR SCT065 BKN090 20/18 A3015 RMK
     AO2=
KRHP 080742Z AUTO 00000KT 7SM CLR 18/17 A3012 RMK AO2=
KTVK 080735Z AUTO 00000KT 5SM CLR 20/20 A3006 RMK AO2=
K0R3 080739Z AUTO 00000KT 7SM CLR 25/25 A2998 RMK AO2=
K1A5 080740Z AUTO 00000KT 1 1/2SM BR VV007 18/16 A3015 RMK AO2 VIS
     1/2V5 T01760163=
K3I2 080740Z AUTO 00000KT 4SM BR CLR 19/19 A3008 RMK AO2=
K47A 080740Z AUTO 00000KT 7SM CLR 21/18 A3007 RMK AO2
     T02100182=
K4R4 080740Z AUTO 00000KT 1 3/4SM BR SCT010 24/23 A3001 RMK AO2
     VIS 3/4V5 T02380230=
KACP 080739Z AUTO 00000KT 5SM BR CLR 23/23 A2999 RMK AO2=
KAVC 080740Z AUTO 00000KT 7SM BKN090 26/19 A3001 RMK AO2=
KBCB 080740Z AUTO 00000KT 5SM BR CLR 21/21 A3014 RMK AO2=
KBGE 080740Z AUTO 00000KT 10SM CLR 21/20 A3002 RMK AO2=
KBIJ 080740Z AUTO 00000KT 10SM CLR 20/ A3002 RMK AO2=
KBQK 080737Z AUTO 00000KT 1/2SM VV005 21/21 A3000 RMK AO1
     T02130209 PNO=
KCCO 080740Z AUTO 00000KT 5SM CLR 21/21 A3005 RMK AO1=
KCDH 080740Z AUTO 00000KT 1SM BR OVC001 23/23 A3003 RMK AO2=
KCPK 080740Z AUTO 00000KT 2SM BR BKN004 BKN009 22/22 A2995 RMK
     AO2=
KCTJ 080740Z AUTO 00000KT 10SM CLR 21/20 A3006 RMK AO2
     T02100198=
KDNN 080738Z AUTO 00000KT 10SM CLR 21/21 A3005 RMK AO2=
KDPL 080740Z AUTO 00000KT 7SM CLR 23/22 A2992 RMK AO2=
KDQH 080740Z AUTO 00000KT 10SM CLR 23/20 A3002 RMK AO1=
KEDE 080736Z AUTO 00000KT 3SM BR CLR 23/22 A2994 RMK AO2=
KEMV 080737Z AUTO 06003KT 7SM CLR 23/21 A2996 RMK AO2=
KEXX 080739Z AUTO 00000KT 10SM CLR 23/17 A2999 RMK AO2=
KEZF 080738Z AUTO 21003KT 7SM OVC110 26/24 A2995 RMK AO2
     T02630241=
KF24 080739Z AUTO 10SM CLR 25/23 A3005 RMK AO2 T02460233=
KFKN 080740Z AUTO 00000KT 5SM 23/21 A2995 RMK AO1=
KFYJ 080741Z AUTO 00000KT 4SM SCT120 26/24 A2997 RMK AO1=
KGEV 080741Z AUTO 00000KT 10SM CLR 23/17 A3018 RMK AO2=
KGHG 080740Z AUTO 12003KT 10SM FEW027 21/20 A3007 RMK AO2=
KHDC 080742Z AUTO 06004KT 10SM CLR 26/26 A3002 RMK AO2=
KHOE 080739Z AUTO 00000KT 10SM CLR 22/ A3002 RMK AO2 T0220=
KHRJ 080741Z AUTO 00000KT 7SM CLR 26/21 A2994 RMK AO2=
KHSP 080740Z AUTO 07004KT 10SM CLR 23/15 A3026 RMK AO2=
KIPJ 080740Z AUTO 00000KT 10SM CLR 20/18 A3002 RMK AO2
     T02000175=
KJES 080740Z AUTO 27004KT 10SM CLR 21/21 A3000 RMK AO2
     T02110212=
KJYL 080741Z AUTO 00000KT 10SM CLR 23/21 A3001 RMK AO2=
KMFV 080742Z AUTO 13003KT 3SM BR SCT006 BKN100 25/24 A2997 RMK
     AO2=
KMLJ 080743Z AUTO 00000KT 7SM CLR 23/23 A3002 RMK AO2=
KMQI 080736Z AUTO 06006KT 10SM CLR 26/24 A2993 RMK AO2=
KMRN 080739Z AUTO 00000KT 10SM CLR 19/18 A3010 RMK AO2=
KMWK 080742Z AUTO 02003KT 7SM CLR 24/19 A3004 RMK AO2=
KOCW 080740Z AUTO 03006KT 5SM HZ CLR 26/21 A2993 RMK AO2=
KPGV 080740Z AUTO 05004KT 7SM SCT110 26/20 A2994 RMK AO2=
KPSK 080742Z AUTO 00000KT 7SM CLR 25/18 A3014 RMK AO2=
KPTB 080742Z AUTO 00000KT 5SM BR CLR 23/21 A2996 RMK AO2=
KRUQ 080741Z AUTO 00000KT 10SM CLR 21/21 A3000 RMK AO2=
KSIF 080740Z AUTO 00000KT 7SM BKN090 23/21 A3001 RMK AO2=
KTNB 080741Z AUTO 00000KT 10SM CLR 16/14 A3020 RMK AO2=
KTPF 080740Z AUTO 06003KT 10SM CLR 24/23 A2999 RMK AO2=
KTSP 080735Z AUTO 00000KT 10SM CLR 15/07 A3003 RMK AO2=
KUKF 080741Z AUTO 27004KT 10SM CLR 22/17 A3007 RMK AO1=
KUNV 080740Z AUTO 00000KT 7SM CLR 20/19 A3009 RMK AO2
     T02030185=
KW99 080739Z AUTO 00000KT 7SM SCT085 21/16 A3009 RMK AO2=
####018000354####
SPUS70 KWBC 080744
SPECI
KRKP 080741Z AUTO 10014KT 10SM SCT021 BKN030 OVC060 28/26 A2984
     RMK AO2 LTG DSNT N TSE0658=
KAUW 080742Z AUTO 31008KT 10SM SCT004 SCT013 BKN023 20/19 A3000
     RMK AO2 RAB07E19 P0000 $=
KILG 080742Z AUTO 00000KT 6SM HZ BKN009 25/22 A3001 RMK AO2 $=
KLEB 080742Z AUTO 00000KT 2SM BR CLR 22/20 A3004 RMK AO2=
####018000164####
SAUS70 KWBC 080800
METAR
KBQP 080747Z AUTO 00000KT 4SM BR CLR 24/24 A3003 RMK AO2=
KCWV 080745Z AUTO 00000KT 10SM CLR 21/21 A3001 RMK AO2
     T02110212=
####018000090####
SAAF36 KWBC 080700 RRD
METAR
HKMO 080730Z 19020KT 9999 FEW023TCU 26/21 Q1019 NOSIG=
####018000365####
SAAS33 KWBC 080730 RRB
METAR
WBGG 080730Z 05008KT 6000 -SHRA FEW015CB BKN020 BKN150 25/23 Q1008
     RERA NOSIG=
WBKK 080730Z 05002KT 9999 -TSRA FEW013 FEW017CB SCT035 OVC260
     29/25 Q1008 TEMPO 5000 TSRA=
WMKK 080730Z 27004KT 200V320 9999 SCT018 SCT140 BKN280 31/26 Q1008
     NOSIG=
WMKP 080730Z 20010KT 9999 FEW020 BKN300 31/26 Q1009 NOSIG=
####018000083####
SPPA41 KWBC 080744
SPECI
PGUA 080741Z AUTO 08015G20KT 10SM SCT016 28/ A2986=
####018000115####
SPPA31 KWBC 080744
SPECI
PGUA 080741Z AUTO 08015G20KT 10SM SCT016 28/ A2986 RMK AO2 SLP094
VISNO RWY24L $=
####018000305####
SAIO31 KWBC 080700 RRG
METAR
WBGG 080730Z 05008KT 6000 -SHRA FEW015CB BKN020 BKN150 25/23 Q1008
     RERA NOSIG=
WBKK 080730Z 05002KT 9999 -TSRA FEW013 FEW017CB SCT035 OVC260
     29/25 Q1008 TEMPO 5000 TSRA=
WBSB 080730Z 25011KT 9999 SCT015 FEW016CB SCT140 BKN300 30/26
     Q1007 NOSIG=
####018000111####
SARS41 KWBC 080700 RRC
METAR
UUYH 0080730Z 19001MPS CAVOK 24/07 Q1018 NOSIG RMK QFE 751
     18CLRD60=
####018000117####
SPUS41 KWBC 080744
SPECI
KWRI 080742Z AUTO 00000KT 2 1/2SM R18/5000V5500FT R24/2800FT BR
OVC002 24/24 A2999=
####018000373####
SAXX70 KAWN 080700 RRT
METAR KQEJ 080730Z AUTO 00000KT 7SM CLR 27/18 A2990 RMK A02=
METAR KQEL 080740Z AUTO 17002KT 7SM CLR 28/19 A2970 RMK A02=
METAR KQEQ 080740Z AUTO 25003KT 7SM FEW110 FEW120 25/19 A2980 RMK A02=
METAR KQEW 080740Z AUTO 08001KT 7SM CLR 28/19 A2980 RMK A02=
METAR KQFB 080740Z AUTO 16004KT 3SM SHRA BKN024 BKN045 24/21 A2990
      RMK A02=
####018000071####
SASA KAWN 080700 RRF
METAR SABE 080700Z 27008KT CAVOK 08/03 Q1019=
####018000129####
SPCN46 CWAO 080744
SPECI CYKF 080744Z AUTO 00000KT 1SM BR CLR 20/20 A3006 RMK SLP175
 DENSITY ALT 1700FT VIS VRB 3/8-3=

####018000113####
SPCN47 CWAO 080743
SPECI CYQT 080743Z 19003KT 12SM -SHRA BKN040 OVC100 18/16 RMK SC6AC2
CVCTV CLD EMBD=

####018000097####
SAAH10 OAKB 080650 CCA
METAR OAKB 080650Z VRB05KT 8000 FEW070 31/11 Q1017 NOSIG RMK BLU BLU=
####018000080####
SACN90 CWAO 080740
WEF SA 0740 AUTO8 M M M 178/12/12/1414/M/M 5000 05MM=

