####018000107####
SATU33 LTAA 081020
METAR LCEN 081020Z 15013KT 9999 SCT025 33/18 Q1008 NOSIG=
METAR LCGK 081020Z NIL=
####018000097####
SPBZ24 SBFI 081029
SPECI SBFI 081030Z 23004KT 2000 R14/P2000 BR FEW020 SCT100 14/13
Q1016=
####018000103####
SPUS81 KWBC 081030
SPECI
KJLN 081026Z AUTO VRB06KT 10SM VCTS SCT005 BKN014 OVC030 23/22
A3006=
####018000090####
SPUS81 KWBC 081030
SPECI
KPIA 081027Z 20003KT 2 1/2SM BR FEW003 OVC010 23/22 A3003=
####018000085####
SAUS73 KWBC 081000 RRF
METAR
KALN 081023Z AUTO 00000KT 7SM SCT065 25/24 A3004=
####018000133####
SPCN46 CWAO 081030
SPECI CYKF 081030Z AUTO 07002KT 2 1/4SM BR CLR 19/19 A3006 RMK SLP177
 DENSITY ALT 1600FT VIS VRB 3/8-3=

####018000098####
SASG20 GOOY 081030
METAR GOOY 081030Z 18007KT 140V220 9999 SCT013 SCT230 30/25 Q1012
NOSIG=
####018000089####
SATG20 DXXX 081030
METAR DXXX 081030Z 22006KT 190V270 9999 FEW015 30/24 Q1015 NOSIG=
####018000082####
SPCN48 CWAO 081029
SPECI CYGV 081029Z AUTO 08004KT 9SM OVC005 14/12 A3003=

####018000099####
SAHK31 VHHH 081030
METAR VHHH 081030Z 20010KT 160V230 9999 FEW020 SCT030 31/25 
Q1006 NOSIG=
####018003718####
SAUS99 KWBC 081031
METAR
K29G 081014Z AUTO 00000KT 3SM CLR 19/18 A3010 RMK AO2 T01890179
     PWINO=
KAEL 081011Z AUTO 33004KT 7SM CLR 17/17 A3009 RMK AO2=
KAIT 081013Z AUTO 00000KT 1/2SM FG VV005 12/11 A3006 RMK AO2=
KANE 081015Z AUTO 00000KT 10SM 17/16 A3009 RMK AO2=
KBBB 081013Z AUTO 00000KT 7SM CLR 14/14 A3011 RMK AO2=
KC75 081026Z AUTO 00000KT 5SM BR SCT014 BKN039 BKN070 24/23 A3002
     RMK AO2 LTG DSNT E=
KCCA 081035Z AUTO 00000KT 7SM OVC007 23/22 A3006 RMK AO2 P0001=
KCDN 081035Z AUTO 03003KT 10SM CLR 22/19 A3000 RMK A02 P000=
KCKI 081035Z AUTO 00000KT BKN100 22/20 A2995 RMK AO2 PWINO=
KCVH 081010Z AUTO 00000KT 10SM OVC008 13/11 A2992 RMK AO1=
KDXX 081014Z AUTO 00000KT 10SM CLR 14/14 A3011 RMK AO2=
KDYT 081014Z AUTO 18005KT 10SM CLR 18/16 A3004 RMK AO2=
KEFK 081015Z AUTO 21004KT 4SM BR CLR 21/19 A3006 RMK AO2=
KELO 081013Z AUTO 22004KT 10SM CLR 14/13 A3002 RMK AO2=
KEVM 081012Z AUTO 00000KT 10SM CLR 15/13 A3002 RMK AO1=
KFBL 081014Z AUTO 29003KT 10SM CLR 17/16 A3010 RMK AO2=
KFFM 081013Z AUTO 21003KT 10SM CLR 15/14 A3008 RMK AO2=
KFGN 081014Z AUTO 26009KT 1/2SM -DZ VV005 17/13 A2996 RMK AO2=
KFSO 081018Z AUTO 00000KT 4SM BR SCT075 23/22 A3001 RMK AO2=
KGDB 081013Z AUTO 24005KT 10SM CLR 13/13 A3014 RMK AO2
     T01320127=
KGHW 081013Z AUTO 23005KT 10SM CLR 14/13 A3013 RMK AO2=
KGYL 081014Z AUTO 00000KT 14/14 A3010 RMK AO2 T01440136 PWINO=
KHCD 081012Z AUTO 26003KT 4SM BR CLR 13/12 A3011 RMK AO2
     T01260117=
KHCO 081014Z AUTO 18003KT 10SM SCT110 12/12 A3004 RMK AO2=
KHZX 081011Z AUTO 00000KT 10SM CLR 13/13 A3007 RMK AO2=
KIGQ 081020Z AUTO 00000KT 4SM VCTSBR SCT060 BKN065 OVC100 23/22
     A3003 RMK AO2 LTG DSNT SE=
KIKW 081014Z AUTO 23004KT 10SM -RA BKN060 BKN090 OVC110 23/21
     A3002 RMK AO2 T02310212=
KJKJ 081014Z AUTO 00000KT 10SM CLR 16/14 A3007 RMK AO2=
KJMR 081018Z AUTO 00000KT 10SM CLR 15/13 A3009 RMK AO2=
KLJF 081012Z AUTO 27005KT 10SM SCT085 17/16 A3011 RMK AO2=
KLRO 081035Z AUTO 29005KT 9SM CLR 23/19 A2995 RMK AO2=
KLVN 081008Z AUTO 27004KT 10SM CLR 16/16 A3009 RMK AO2=
KLXL 081014Z AUTO 00000KT 1 1/2SM BR VV007 12/11 A3008 RMK AO2=
KLYV 081018Z AUTO 00000KT 10SM CLR 14/12 A3016 RMK AO2=
KMDS 081005Z AUTO 28005KT 10SM CLR 14/14 A3017 RMK AO2=
KMGG 081015Z AUTO 28004KT 10SM CLR 16/15 A3010 RMK AO2
     T01580147=
KMJQ 081012Z AUTO 29004KT 5SM BR CLR 15/14 A3014 RMK AO2=
KMKS 081035Z AUTO 00000KT 7SM CLR 22/20 A2995 RMK AO2 TSNO=
KMOX 081010Z AUTO 26003KT 10SM CLR 15/14 A3008 RMK AO2=
KMRT 081013Z AUTO 00000KT 2 1/2SM CLR 20/19 A3011 RMK AO2
     T02020188=
KMVE 081014Z AUTO 30004KT 10SM CLR 16/14 A3011 RMK AO2=
KMWM 081013Z AUTO 00000KT 10SM CLR 14/14 A3014 RMK AO2=
KONA 081011Z AUTO 32004KT 10SM CLR 20/18 A3004 RMK AO2=
KOVL 081013Z AUTO 00000KT 10SM CLR 13/11 A3011 RMK AO2
     T01260112=
KPEX 081013Z AUTO 25004KT 7SM CLR 13/13 A3011 RMK AO2
     T01260125=
KPNM 081013Z AUTO 00000KT 10SM CLR 13/13 A3009 RMK AO2=
KPQN 081013Z AUTO 33006KT 10SM CLR 16/14 A3016 RMK AO2=
KPWC 081013Z AUTO 00000KT 10SM CLR 10/09 A3008 RMK AO2=
KROS 081015Z AUTO 28003KT 10SM CLR 15/14 A3008 RMK AO2
     T01500142=
KROX 081014Z AUTO 23004KT 10SM CLR 14/12 A3001 RMK AO2=
KRRT 081014Z AUTO 24006KT 10SM CLR 14/12 A3001 RMK AO2=
KRYW 081025Z AUTO 06003KT 4SM -RA SCT006 BKN014 OVC029 24/23 A2999
     RMK AO2=
KSAR 081025Z AUTO 19005KT 7SM SCT065 26/23 A3004 RMK AO2=
KSAZ 081014Z AUTO 23004KT 10SM CLR 15/15 A3009 RMK AO2=
KSGS 081013Z AUTO 27003KT 10SM CLR 19/16 A3008 RMK AO2
     T01850162=
KSLO 081022Z AUTO 20004KT 10SM SCT050 24/22 A3005 RMK AO2
     T02370216=
KSOA 081020Z AUTO 00000KT 8SM 22/21 A3007 RMK AO2=
####018001284####
SAUS99 KWBC 081031 RRA
METAR
KSWW 081025Z AUTO 01004KT 2SM OVC002 21/21 A3009 RMK AO1
     T02130209=
KSYN 081030Z AUTO 00000KT 10SM CLR 18/16 A3007 RMK AO2
     T01750162=
KT65 081025Z AUTO 03004KT 10SM SCT004 BKN010 BKN070 26/25 A2978
     RMK AO2 P0001 T02560248=
KT82 081025Z AUTO 00000KT 22/22 A3002 RMK AO1 T02240216=
KTAZ 081025Z AUTO 00000KT 3SM BR CLR 23/23 A3002 RMK AO2=
KTEW 081012Z AUTO 00000KT 10SM CLR 22/20 A3005 RMK AO2=
KTFP 081025Z AUTO 10005KT 10SM -RA SCT014 BKN024 BKN033 27/26
     A2982 RMK AO2 T02700255=
KTIP 081025Z AUTO 00000KT 4SM BR BKN100 24/23 A3005 RMK AO2 LTG
     DSNT NW T02400232=
KTKC 081013Z AUTO 27005KT 10SM CLR 16/13 A3015 RMK AO2
     T01600128=
KTOB 081015Z AUTO 00000KT 10SM CLR 18/16 A3009 RMK AO2=
KTWM 081013Z AUTO 00000KT 10SM CLR 15/13 A3001 RMK AO2=
KTYQ 081025Z AUTO 00000KT 5SM BR SCT070 SCT080 SCT110 22/21 A3007
     RMK AO2=
KULM 081015Z AUTO 26004KT 10SM CLR 14/13 A3012 RMK AO2=
KUVA 081025Z AUTO 05006KT 10SM OVC021 24/23 A2995 RMK AO2
     T02410230=
KVVV 081016Z AUTO 00000KT 10SM CLR 17/14 A3011 RMK AO2=
KVYS 081025Z AUTO 00000KT 5SM BR OVC014 23/22 A3003 RMK AO2 LTG
     DSNT SE T02300215=
KXBP 081025Z AUTO 00000KT 10SM CLR 23/22 A3003 RMK AO2
     T02330221=
####018000128####
SPUS99 KWBC 081031
SPECI
KAMA 081029Z 01009KT 1SM -RA FEW005 BKN021 OVC100 17/16 A3020 RMK
     AO2 SFC VIS 10 P0002 $=
####018000096####
SAUZ31 UTTT 081030
METAR UTTT 081030Z 36003MPS 280V360 CAVOK 38/05 Q1010
R08R/CLRD70 NOSIG=
####018000095####
SPBZ24 SBFI 081029
SPECI SBFI 081030Z 23004KT 2000 R14/P2000 BR FEW020 SCT100 14/13
Q1016=
####018000098####
SARM31 LUKK 081030
METAR LUKK 081030Z 33008KT 270V360 9999 SCT026 23/16 Q1015
26CLRD65 NOSIG=
####018000121####
SAIV20 DIAP 081030
METAR DIAP 081030Z 21007KT 180V240 7000 R21//////N SCT012 BKN080
28/24 Q1015 TEMPO BKN012 BKN070=
####018000374####
SABU31 LBSM 081030
METAR LBSF 081030Z 28006MPS 9999 BKN033 18/12 Q1018 NOSIG=
METAR LBWN 081030Z 27006MPS 240V300 9999 BKN025 19/15 Q1014
 NOSIG=
METAR LBBG 081030Z 32005MPS 270V360 9999 BKN025 BKN035 19/14
 Q1015 NOSIG=
METAR LBPD 081030Z 26006MPS 9999 SCT050 BKN075 16/14 Q1017
 NOSIG=
METAR LBGO 081030Z VRB01MPS 7000 RA BKN020 OVC040 15/14 Q1018
 RERA NOSIG=
####018000089####
SAAJ31 UBBB 081030
METAR UBBB 081030Z 35020KT CAVOK 33/23 Q1010 NOSIG RMK
R88CLRD70=
####018000481####
SAHU41 LHBM 081030
METAR LHDC 081015Z 02012KT 9999 FEW040 22/11 Q1021 NOSIG=
METAR LHKE 081015Z 31003MPS CAVOK 23/10 Q1021 NOSIG RMK BLU=
METAR LHPA 081015Z 34004MPS CAVOK 23/10 Q1023 NOSIG RMK BLU=
METAR LHPP 081015Z 01006KT 9999 SCT043 22/12 Q1023 NOSIG=
METAR LHPR 081015Z 36012KT CAVOK 23/08 Q1023=
METAR LHSM 081015Z 34007G18KT CAVOK 23/09 Q1023 NOSIG=
METAR LHSN 081015Z 35003MPS CAVOK 23/12 Q1021 NOSIG RMK BLU=
METAR LHUD 081015Z 36006KT 9999 FEW033 24/14 Q1022=
####018000103####
SAQB31 LQSM 081030
METAR LQSA 081030Z 31006KT 270V070 9999 FEW045 SCT055 BKN065 21/11
Q1023 NOSIG=
####018000079####
SPAG SARE 081030
SPECI SARE 081030Z 14009KT 9999 BKN006 SCT100 10/08 Q1019=
####018000101####
SPAU32 YBBN 081030
SPECI YBCG 081030Z AUTO 19009KT 8000NDV // SCT015 BKN025 OVC049 15/13
Q1021=
####018000097####
SPBZ31 KWBC 081031
SPECI
SBFI 081030Z 23004KT 2000 R14/P2000 BR FEW020 SCT100 14/13 Q1016=
####018000089####
SPCA45 KWBC 081031
SPECI
MNMG 081025Z 35004KT 9999 FEW020CB BKN020 CB/N/NW/W/NE/S=
####018000097####
SPUS31 KWBC 081031
SPECI
KEWR 081027Z 00000KT 2 1/2SM BR FEW100 SCT130 BKN250 26/25 A3002=
####018000089####
SPMX31 KWBC 081031
SPECI
MNMG 081025Z 35004KT 9999 FEW020CB BKN020 CB/N/NW/W/NE/S=
####018000425####
SAHK31 VHHH 081030
METAR VHHH 081030Z 20010KT 160V230 9999 FEW020 SCT030 31/25 
Q1006 NOSIG=
METAR RCTP 081030Z 23010KT 9999 FEW025 BKN080 BKN200 29/25
Q1007 NOSIG=
METAR RCKH 081030Z 30007KT 250V350 9999 FEW013 SCT020 BKN250 30/26
Q1009 NOSIG=
METAR RCSS 081030Z 25006KT 210V290 9999 FEW020 SCT035 BKN080 31/23
Q1007 NOSIG=
METAR VMMC 081030Z 19013KT 180V260 9999 FEW025 SCT090 30/27
     Q1006 NOSIG=
####018000099####
SPUS42 KWBC 081031
SPECI
KTUL 081028Z 26003KT 6SM -TSRA BR FEW007 BKN038 OVC050 23/22 A3002=
####018000113####
SAUS46 KSGX 081030
MTRNRS
SPECI KNRS 081029Z AUTO 29007KT 10SM SCT007 OVC016 16/14 A2990 RMK 
AO2 TSNO $
####018000091####
SAAJ31 UBBB 081030
METAR UBBB 081030Z 35020KT CAVOK 33/23 Q1010 NOSIG RMK
R88CLRD70=
####018000123####
SAIV20 DIAP 081030
METAR DIAP 081030Z 21007KT 180V240 7000 R21//////N SCT012 BKN080
28/24 Q1015 TEMPO BKN012 BKN070=
####018000489####
SAHU41 LHBM 081030
METAR LHDC 081015Z 02012KT 9999 FEW040 22/11 Q1021 NOSIG=
METAR LHKE 081015Z 31003MPS CAVOK 23/10 Q1021 NOSIG RMK BLU=
METAR LHPA 081015Z 34004MPS CAVOK 23/10 Q1023 NOSIG RMK BLU=
METAR LHPP 081015Z 01006KT 9999 SCT043 22/12 Q1023 NOSIG=
METAR LHPR 081015Z 36012KT CAVOK 23/08 Q1023=
METAR LHSM 081015Z 34007G18KT CAVOK 23/09 Q1023 NOSIG=
METAR LHSN 081015Z 35003MPS CAVOK 23/12 Q1021 NOSIG RMK BLU=
METAR LHUD 081015Z 36006KT 9999 FEW033 24/14 Q1022=
####018001813####
SAEU KAWN 081000 RRX
METAR EGAE 081020Z 23015KT 9999 FEW018 SCT040 16/10 Q1012=
METAR EGBJ 081020Z 24005KT 190V280 9999 FEW035 21/11 Q1018=
METAR EGNC 081020Z 24015KT 9999 SCT025 SCT045 16/10 Q1015=
METAR EGNH 081020Z 24013KT 9999 SCT024 19/11 Q1017=
METAR EGNJ 081020Z 22012KT 9999 SCT035 19/12 Q1017=
METAR EGPA 081020Z 20012KT 170V240 9999 VCSH FEW020 SCT045 17/11 Q1007=
METAR EGPC 081020Z 20016KT 9999 FEW020 16/11 Q1008=
METAR EGPE 081020Z 23018KT 9999 VCSH FEW012 SCT034 19/10 Q1009=
METAR EGPL 081020Z 23018KT 9999 VCSH SCT018 15/12 Q1007 RESHRA=
METAR COR EGPM 081020Z 22023KT 200V030 9999 FEW014 SCT035 15/10 Q1005
      NOSIG=
METAR EGPN 081020Z 23016KT 9999 FEW028 SCT045 16/11 Q1012=
METAR EGPO 081020Z 20018KT 9999 VCSH FEW012CB SCT030 15/12 Q1005=
METAR EGSC 081020Z 23005KT 160V280 9000 FEW020 SCT030 20/14 Q1018=
METAR EGSH 081020Z 24008KT 210V280 9999 SCT012 SCT019 21/16 Q1018=
METAR LDDU 081030Z VRB08G18KT 9999 FEW043 26/06 Q1019 NOSIG=
METAR LDPL 081030Z 08004KT 330V170 CAVOK 26/11 Q1022 NOSIG=
METAR LDRI 081030Z 27006KT 210V300 9999 FEW047 24/10 Q1022 NOSIG=
METAR LDSP 081030Z 20009KT 130V260 CAVOK 28/06 Q1020 NOSIG=
METAR LDZA 081030Z 02004KT 310V080 CAVOK 25/09 Q1022 NOSIG=
METAR LDZD 081030Z VRB06KT CAVOK 27/04 Q1021 NOSIG=
METAR LHDC 081015Z 02012KT 9999 FEW040 22/11 Q1021 NOSIG=
METAR LHKE 081015Z 31003MPS CAVOK 23/10 Q1021 NOSIG RMK BLU=
METAR LHPA 081015Z 34004MPS CAVOK 23/10 Q1023 NOSIG RMK BLU=
METAR LHPP 081015Z 01006KT 9999 SCT043 22/12 Q1023 NOSIG=
METAR LHSN 081015Z 35003MPS CAVOK 23/12 Q1021 NOSIG RMK BLU=
METAR LHUD 081015Z 36006KT 9999 FEW033 24/14 Q1022=
METAR LQSA 081030Z 31006KT 270V070 9999 FEW045 SCT055 BKN065 21/11
      Q1023 NOSIG=
METAR LWSK 081030Z 34006KT 9999 BKN040 18/11 Q1020 NOSIG=
####018000085####
SPUS51 KWBC 081031
SPECI
KGFL 081028Z AUTO 00000KT 1 1/2SM BR CLR 21/21 A3003=
####018000461####
SAUS20 KNKA 081030
SPECI KAKO 081029Z AUTO 11005KT 5SM BR FEW003 SCT014 OVC033 14/14 
    A3031 RMK AO2 TSNO=
SPECI KAKR 081029Z AUTO 00000KT 3SM BR CLR 21/19 A3009 RMK AO2=
SPECI KDFW 081029Z 13004KT 10SM BKN012 BKN019 BKN047 25/23 A3000 RMK 
    AO2=
SPECI KEKQ 081028Z AUTO 00000KT 1SM BR CLR 18/18 A3011 RMK AO2 =
SPECI KILN 081029Z AUTO 00000KT 2 1/2SM BR CLR 21/19 A3009 RMK AO2=
SPECI KNRB 081012Z 30003KT 10SM CLR 24/21 A2999 RMK AO2=
####018000101####
SASG20 GOOY 081030
METAR GOOY 081030Z 18007KT 140V220 9999 SCT013 SCT230 30/25 Q1012
NOSIG=

####018000082####
SPUS52 KWBC 081031
SPECI
KMWL 081029Z AUTO 12003KT 10SM BKN016 23/22 A3000=
####018000091####
SPUS53 KWBC 081031
SPECI
KCOU 081028Z AUTO 00000KT 6SM BR SCT013 BKN100 23/22 A3005=
####018000121####
SAPS31 NFFN 081000 RRA
METAR NSTU 080959Z 08011KT 10SM SCT014 BKN045 28/26 A2989 RMK 
SHRAB00E10 SLP124 T02770258=
####018000383####
SATU32 LTAA 081020
METAR LTAN 081020Z 32007KT 9999 FEW040 31/12 Q1011 NOSIG=
METAR LTAU 081020Z VRB03KT 9999 SCT040 31/12 Q1011 NOSIG=
METAR LTBR 081020Z 34014KT 9999 SCT035 BKN100 28/15 Q1011 NOSIG=
METAR LTBU 081020Z 33009KT 9999 SCT030 BKN100 22/13 Q1014=
METAR LTCC 081020Z VRB06KT CAVOK 40/03 Q1006 NOSIG=
METAR LTCE 081020Z VRB04KT 9999 SCT030 30/10 Q1017 NOSIG=
####018000383####
SABU31 LBSM 081030
METAR LBSF 081030Z 28006MPS 9999 BKN033 18/12 Q1018 NOSIG=
METAR LBWN 081030Z 27006MPS 240V300 9999 BKN025 19/15 Q1014
 NOSIG=
METAR LBBG 081030Z 32005MPS 270V360 9999 BKN025 BKN035 19/14
 Q1015 NOSIG=
METAR LBPD 081030Z 26006MPS 9999 SCT050 BKN075 16/14 Q1017
 NOSIG=
METAR LBGO 081030Z VRB01MPS 7000 RA BKN020 OVC040 15/14 Q1018
 RERA NOSIG=
####018000457####
SARH31 LDZM 081030
METAR LDSP 081030Z 20009KT 130V260 CAVOK 28/06 Q1020 NOSIG =
METAR LDPL 081030Z 08004KT 330V170 CAVOK 26/11 Q1022 NOSIG =
METAR LDDU 081030Z VRB08G18KT 9999 FEW043 26/06 Q1019 NOSIG =
METAR LDZA 081030Z 02004KT 310V080 CAVOK 25/09 Q1022 NOSIG =
METAR LDZD 081030Z VRB06KT CAVOK 27/04 Q1021 NOSIG =
METAR LDRI 081030Z 27006KT 210V300 9999 FEW047 24/10 Q1022 NOSIG=
METAR LDOS 081030Z 32004KT 9999 FEW033 23/08 Q1022 NOSIG=
####018000921####
SATU31 LTAA 081020
METAR LTAC 081020Z 05011KT 020V100 9999 SCT040 29/15 Q1012 NOSIG=
METAR LTAF 081020Z /////KT 9999 SCT035 BKN100 31/20 Q1008 NOSIG=
METAR LTAI 081020Z 17008KT 140V200 9999 SCT030 30/22 Q1008 NOSIG=
METAR LTAJ 081020Z 22010KT CAVOK 37/08 Q1008 NOSIG=
METAR LTAZ 081020Z NIL=
METAR LTBA 081020Z 35023KT 9999 BKN035 23/15 Q1012 TEMPO TL1200 4000 
-TSRA=
METAR LTBJ 081020Z 34017KT CAVOK 30/12 Q1010 NOSIG=
METAR LTBS 081020Z 20012KT 9999 FEW030 30/21 Q1008 NOSIG=
METAR LTCF 081020Z 09006KT 020V160 9999 SCT035 30/09 Q1019=
METAR LTCG 081020Z 09007KT 9999 SCT035 27/22 Q1011 NOSIG=
METAR LTCI 081020Z 24006KT CAVOK 26/18 Q1016 NOSIG=
METAR LTCS 081020Z 14010KT CAVOK 37/01 Q1009=
METAR LTFE 081020Z 27020KT 9999 FEW035 32/15 Q1008 NOSIG=
METAR LTFH 081020Z 02005KT 340V060 9999 SCT036 BKN100 27/23 Q1011 
NOSIG=
METAR LTFJ 081020Z 36017KT 9999 BKN030 23/16 Q1011 NOSIG=
####018000121####
SAPS32 NFFN 081000 RRA
METAR NSTU 080959Z 08011KT 10SM SCT014 BKN045 28/26 A2989 RMK 
SHRAB00E10 SLP124 T02770258=
####018000100####
SARM31 LUKK 081030
METAR LUKK 081030Z 33008KT 270V360 9999 SCT026 23/16 Q1015
26CLRD65 NOSIG=
####018000099####
SPUS72 KWBC 081031
SPECI
KTUL 081028Z 26003KT 6SM -TSRA BR FEW007 BKN038 OVC050 23/22 A3002=
####018000091####
SPUS73 KWBC 081031
SPECI
KCOU 081028Z AUTO 00000KT 6SM BR SCT013 BKN100 23/22 A3005=
####018000086####
SPCN47 CWAO 081030
SPECI CYMO 081030Z AUTO 00000KT 9SM -RA FEW075 18/16 A2985=

####018000091####
SAAK41 KNKA 081031
METAR PAWI 081017Z 22013KT 10SM CLR 07/03 A3002 RMK ASOS VIA PHONE=
####018000491####
SAZZ40 KAWN 081000 RRS
METAR EFKI 081020Z AUTO 34004KT 290V020 CAVOK 21/13 Q1016=
METAR LQBK 081030Z 35002KT 9999 FEW036 23/11 Q1022 NOSIG=
METAR NSTU 080959Z 08011KT 10SM SCT014 BKN045 28/26 A2989 RMK SHRAB00E10
      SLP124 T02770258=
METAR TNCA 081000Z 08015KT 9999 FEW017 29/24 Q1011 NOSIG=
METAR TNCB 081000Z AUTO /////KT //// ////// 28/25 Q1011 NOSIG=
METAR TNCC 081000Z 09013KT 9999 SCT017 28/25 Q1011 NOSIG=
METAR TNCE 081000Z AUTO 05010KT //// ////// 27/25 Q1015=
####018000091####
SPUS81 KWBC 081031
SPECI
KCOU 081028Z AUTO 00000KT 6SM BR SCT013 BKN100 23/22 A3005=
####018000080####
SANC01 NWWW 081030
METAR NWWW 081030Z AUTO 00000KT 9999NDV NCD 18/16 Q1017=
####018000197####
SPUS90 KWBC 081032
SPECI KCOU 081028Z AUTO 00000KT 6SM BR SCT013 BKN100 23/22 A3005
     RMK AO2 TSNO=
SPECI KNRS 081029Z AUTO 29007KT 10SM SCT007 OVC016 16/14 A2990 RMK
     AO2 TSNO $=
####018000773####
SAUS20 KNKA 081031
SPECI KASH 081030Z VRB03KT 4SM BR BKN013 24/22 A3008 RMK AO2 =
METAR KBNL 081035Z AUTO 33004KT 10SM CLR 23/18 A2999 RMK AO2 =
METAR KCQW 081035Z AUTO 27005KT 5SM  HZ CLR 21/18 A2997 RMK AO2 =
SPECI KELZ 081030Z AUTO 00000KT 2 1/2SM BR CLR 18/18 A3016 RMK AO2=
SPECI KIRK 081030Z AUTO 00000KT 2 1/2SM BR CLR 19/19 A3007 RMK AO2=
METAR KLKR 081035Z AUTO 00000KT 5SM BR CLR 18/18 A3000 RMK AO2 =
SPECI KLOZ 081030Z AUTO 00000KT 2SM BR CLR 19/19 A3011 RMK AO2=
SPECI KMTH 081030Z AUTO 05008KT 10SM SCT017 BKN027 BKN041 A2992 RMK 
    AO2 LTG DSNT NE AND E FZRANO $=
METAR KONM 081027Z AUTO 00000KT 10SM BKN120 18/14 A3021 RMK AO2 
     T01840143=
SPECI KSTC 081030Z AUTO 00000KT 1 1/4SM BR CLR 13/12 A3009 RMK AO2 
    VIS 1/4V3=
####018000099####
SPAU31 AMMC 081031
SPECI YBRM 081030Z 36005KT 4000 -RA SCT015 SCT025 OVC045 24/22 Q1011=


####018000096####
SAUS98 KWBC 081032
METAR KEHA 081028Z AUTO 35002KT 17/16 RMK AO1 PK WND 09 059
T01720162=
####018000862####
SPUS99 KWBC 081032
SPECI
KAKO 081029Z AUTO 11005KT 5SM BR FEW003 SCT014 OVC033 14/14 A3031
     RMK AO2 TSNO=
KAKR 081029Z AUTO 00000KT 3SM BR CLR 21/19 A3009 RMK AO2=
KDFW 081029Z 13004KT 10SM BKN012 BKN019 BKN047 25/23 A3000 RMK
     AO2=
KEKQ 081028Z AUTO 00000KT 1SM BR CLR 18/18 A3011 RMK AO2=
KILN 081029Z AUTO 00000KT 2 1/2SM BR CLR 21/19 A3009 RMK AO2=
KNRB 081012Z 30003KT 10SM CLR 24/21 A2999 RMK AO2=
KASH 081030Z VRB03KT 4SM BR BKN013 24/22 A3008 RMK AO2=
KELZ 081030Z AUTO 00000KT 2 1/2SM BR CLR 18/18 A3016 RMK AO2=
KIRK 081030Z AUTO 00000KT 2 1/2SM BR CLR 19/19 A3007 RMK AO2=
KLOZ 081030Z AUTO 00000KT 2SM BR CLR 19/19 A3011 RMK AO2=
KMTH 081030Z AUTO 05008KT 10SM SCT017 BKN027 BKN041 A2992 RMK AO2
     LTG DSNT NE AND E FZRANO $=
KSTC 081030Z AUTO 00000KT 1 1/4SM BR CLR 13/12 A3009 RMK AO2 VIS
     1/4V3=
####018000196####
SAAF31 KWBC 081000 RRC
METAR
DIAP 081030Z 21007KT 180V240 7000 R21//////N SCT012 BKN080 28/24
     Q1015 TEMPO BKN012 BKN070=
DXXX 081030Z 22006KT 190V270 9999 FEW015 30/24 Q1015 NOSIG=
####018000256####
SPUS80 KWBC 081032
SPECI
KCOU 081028Z AUTO 00000KT 6SM BR SCT013 BKN100 23/22 A3005 RMK AO2
     TSNO=
KIRK 081030Z AUTO 00000KT 2 1/2SM BR CLR 19/19 A3007 RMK AO2=
KSTC 081030Z AUTO 00000KT 1 1/4SM BR CLR 13/12 A3009 RMK AO2 VIS
     1/4V3=
####018000107####
SAXX60 KWBC 081032
METAR
KMRT 081013Z AUTO 00000KT 2 1/2SM CLR 20/19 A3011 RMK AO2
     T02020188=
####018000095####
SPAU31 KWBC 081032
SPECI
YBRM 081030Z 36005KT 4000 -RA SCT015 SCT025 OVC045 24/22 Q1011=
####018000079####
SANC01 NWWW 081030
METAR NWWW 081030Z AUTO 00000KT 9999NDV NCD 18/16 Q1017=
####018000415####
SAHK31 VHHH 081030
METAR VHHH 081030Z 20010KT 160V230 9999 FEW020 SCT030 31/25 
Q1006 NOSIG=
METAR RCTP 081030Z 23010KT 9999 FEW025 BKN080 BKN200 29/25
Q1007 NOSIG=
METAR RCKH 081030Z 30007KT 250V350 9999 FEW013 SCT020 BKN250 30/26
Q1009 NOSIG=
METAR RCSS 081030Z 25006KT 210V290 9999 FEW020 SCT035 BKN080 31/23
Q1007 NOSIG=
METAR VMMC 081030Z 19013KT 180V260 9999 FEW025 SCT090 30/27
     Q1006 NOSIG=
####018001006####
SAUS70 KWBC 081032 RRA
METAR
KTIP 081025Z AUTO 00000KT 4SM BR BKN100 24/23 A3005 RMK AO2 LTG
     DSNT NW T02400232=
KTOB 081015Z AUTO 00000KT 10SM CLR 18/16 A3009 RMK AO2=
KTWM 081013Z AUTO 00000KT 10SM CLR 15/13 A3001 RMK AO2=
KTYQ 081025Z AUTO 00000KT 5SM BR SCT070 SCT080 SCT110 22/21 A3007
     RMK AO2=
KULM 081015Z AUTO 26004KT 10SM CLR 14/13 A3012 RMK AO2=
KUVA 081025Z AUTO 05006KT 10SM OVC021 24/23 A2995 RMK AO2
     T02410230=
KVVV 081016Z AUTO 00000KT 10SM CLR 17/14 A3011 RMK AO2=
KVYS 081025Z AUTO 00000KT 5SM BR OVC014 23/22 A3003 RMK AO2 LTG
     DSNT SE T02300215=
KXBP 081025Z AUTO 00000KT 10SM CLR 23/22 A3003 RMK AO2
     T02330221=
PAWI 081017Z 22013KT 10SM CLR 07/03 A3002 RMK ASOS VIA PHONE=
KBNL 081035Z AUTO 33004KT 10SM CLR 23/18 A2999 RMK AO2=
KCQW 081035Z AUTO 27005KT 5SM HZ CLR 21/18 A2997 RMK AO2=
KLKR 081035Z AUTO 00000KT 5SM BR CLR 18/18 A3000 RMK AO2=
KONM 081027Z AUTO 00000KT 10SM BKN120 18/14 A3021 RMK AO2
     T01840143=
####018000087####
SACO20 SKBO 081030 CCD
METAR SKBO 080100Z VRB02KT 7000 HZ BKN012 12/11 A3029 NOSIG=
####018000399####
SAAW31 KWBC 081000 RRA
METAR
LTAC 081020Z 05011KT 020V100 9999 SCT040 29/15 Q1012 NOSIG=
LTAF 081020Z /////KT 9999 SCT035 BKN100 31/20 Q1008 NOSIG=
LTAI 081020Z 17008KT 140V200 9999 SCT030 30/22 Q1008 NOSIG=
LTBA 081020Z 35023KT 9999 BKN035 23/15 Q1012 TEMPO TL1200 4000
     -TSRA=
LTBJ 081020Z 34017KT CAVOK 30/12 Q1010 NOSIG=
LTBS 081020Z 20012KT 9999 FEW030 30/21 Q1008 NOSIG=
####018000588####
SAAW41 KWBC 081050 RRB
METAR
LTAJ 081020Z 22010KT CAVOK 37/08 Q1008 NOSIG=
LTAN 081020Z 32007KT 9999 FEW040 31/12 Q1011 NOSIG=
LTAU 081020Z VRB03KT 9999 SCT040 31/12 Q1011 NOSIG=
LTCC 081020Z VRB06KT CAVOK 40/03 Q1006 NOSIG=
LTCE 081020Z VRB04KT 9999 SCT030 30/10 Q1017 NOSIG=
LTCE 081020Z VRB04KT 9999 SCT030 30/10 Q1017 NOSIG RMK RWY08R
     02005KT 280V080 RWY26R 34004KT 280V050 RWY08L 06005KT
     350V110=
LTCG 081020Z 09007KT 9999 SCT035 27/22 Q1011 NOSIG=
LTCI 081020Z 24006KT CAVOK 26/18 Q1016 NOSIG=
LTFE 081020Z 27020KT 9999 FEW035 32/15 Q1008 NOSIG=
####018000274####
SACI31 KWBC 081000 RRB
METAR
RCKH 081030Z 30007KT 250V350 9999 FEW013 SCT020 BKN250 30/26 Q1009
     NOSIG=
RCSS 081030Z 25006KT 210V290 9999 FEW020 SCT035 BKN080 31/23 Q1007
     NOSIG=
RCTP 081030Z 23010KT 9999 FEW025 BKN080 BKN200 29/25 Q1007
     NOSIG=
####018000093####
SPAU31 AMMC 081031
SPECI YBRM 081030Z 36005KT 4000 -RA SCT015 SCT025 OVC045 24/22 Q1011=
####018000349####
SAUS99 KWBC 081032
METAR
PAWI 081017Z 22013KT 10SM CLR 07/03 A3002 RMK ASOS VIA PHONE=
KBNL 081035Z AUTO 33004KT 10SM CLR 23/18 A2999 RMK AO2=
KCQW 081035Z AUTO 27005KT 5SM HZ CLR 21/18 A2997 RMK AO2=
KLKR 081035Z AUTO 00000KT 5SM BR CLR 18/18 A3000 RMK AO2=
KONM 081027Z AUTO 00000KT 10SM BKN120 18/14 A3021 RMK AO2
     T01840143=
####018000109####
SAAO33 KWBC 081000 RRC
METAR
GOOY 081030Z 18007KT 140V220 9999 SCT013 SCT230 30/25 Q1012
     NOSIG=
####018000082####
SAHU31 LHBM 081030
METAR LHBP 081030Z 24007KT 180V290 CAVOK 23/11 Q1021 NOSIG=
####018000084####
SPAG31 KWBC 081032
SPECI
SARE 081030Z 14009KT 9999 BKN006 SCT100 10/08 Q1019=
####018000763####
SPUS70 KWBC 081032
SPECI
KAMA 081029Z 01009KT 1SM -RA FEW005 BKN021 OVC100 17/16 A3020 RMK
     AO2 SFC VIS 10 P0002 $=
KAKO 081029Z AUTO 11005KT 5SM BR FEW003 SCT014 OVC033 14/14 A3031
     RMK AO2 TSNO=
KAKR 081029Z AUTO 00000KT 3SM BR CLR 21/19 A3009 RMK AO2=
KDFW 081029Z 13004KT 10SM BKN012 BKN019 BKN047 25/23 A3000 RMK
     AO2=
KEKQ 081028Z AUTO 00000KT 1SM BR CLR 18/18 A3011 RMK AO2=
KILN 081029Z AUTO 00000KT 2 1/2SM BR CLR 21/19 A3009 RMK AO2=
KASH 081030Z VRB03KT 4SM BR BKN013 24/22 A3008 RMK AO2=
KELZ 081030Z AUTO 00000KT 2 1/2SM BR CLR 18/18 A3016 RMK AO2=
KLOZ 081030Z AUTO 00000KT 2SM BR CLR 19/19 A3011 RMK AO2=
KMTH 081030Z AUTO 05008KT 10SM SCT017 BKN027 BKN041 A2992 RMK AO2
     LTG DSNT NE AND E FZRANO $=
####018000164####
SPXX60 KWBC 081032
SPECI
KNRS 081029Z AUTO 29007KT 10SM SCT007 OVC016 16/14 A2990 RMK AO2
     TSNO $=
KNRB 081012Z 30003KT 10SM CLR 24/21 A2999 RMK AO2=
####018000264####
SAAW34 KWBC 081015 RRB
METAR
OPGD 081030Z NIL=
OPLA 081025Z 13004KT 6000 SCT040 SCT100 38/23 Q1003=
OPNH 081030Z NIL=
OPPS 081030Z NIL=
OPRN 081030Z NIL=
OPSK 081030Z NIL=
UTTT 081030Z 36003MPS 280V360 CAVOK 38/05 Q1010 R08R/CLRD70
     NOSIG=
####018000253####
SACA33 KWBC 081000 RRE
METAR
TNCA 081000Z 08015KT 9999 FEW017 29/24 Q1011 NOSIG=
TNCB 081000Z AUTO /////KT //// ////// 28/25 Q1011 NOSIG=
TNCC 081000Z 09013KT 9999 SCT017 28/25 Q1011 NOSIG=
TNCE 081000Z AUTO 05010KT //// ////// 27/25 Q1015=
####018000075####
SACN50 CWAO 081015
VOV SA 1015 AUTO8 M M M M/11/06/0501/M/M M 23MM=

####018000074####
SPPR00 SPIM 081030
SPECI SPZO 081030Z 00000KT 9999 FEW030 04/01 Q1032=
####018003726####
SAUS70 KWBC 081032
METAR
KAEL 081011Z AUTO 33004KT 7SM CLR 17/17 A3009 RMK AO2=
KAIT 081013Z AUTO 00000KT 1/2SM FG VV005 12/11 A3006 RMK AO2=
KANE 081015Z AUTO 00000KT 10SM 17/16 A3009 RMK AO2=
KBBB 081013Z AUTO 00000KT 7SM CLR 14/14 A3011 RMK AO2=
KC75 081026Z AUTO 00000KT 5SM BR SCT014 BKN039 BKN070 24/23 A3002
     RMK AO2 LTG DSNT E=
KCCA 081035Z AUTO 00000KT 7SM OVC007 23/22 A3006 RMK AO2 P0001=
KCDN 081035Z AUTO 03003KT 10SM CLR 22/19 A3000 RMK A02 P000=
KCKI 081035Z AUTO 00000KT BKN100 22/20 A2995 RMK AO2 PWINO=
KCVH 081010Z AUTO 00000KT 10SM OVC008 13/11 A2992 RMK AO1=
KDXX 081014Z AUTO 00000KT 10SM CLR 14/14 A3011 RMK AO2=
KDYT 081014Z AUTO 18005KT 10SM CLR 18/16 A3004 RMK AO2=
KEFK 081015Z AUTO 21004KT 4SM BR CLR 21/19 A3006 RMK AO2=
KELO 081013Z AUTO 22004KT 10SM CLR 14/13 A3002 RMK AO2=
KEVM 081012Z AUTO 00000KT 10SM CLR 15/13 A3002 RMK AO1=
KFBL 081014Z AUTO 29003KT 10SM CLR 17/16 A3010 RMK AO2=
KFFM 081013Z AUTO 21003KT 10SM CLR 15/14 A3008 RMK AO2=
KFGN 081014Z AUTO 26009KT 1/2SM -DZ VV005 17/13 A2996 RMK AO2=
KFSO 081018Z AUTO 00000KT 4SM BR SCT075 23/22 A3001 RMK AO2=
KGDB 081013Z AUTO 24005KT 10SM CLR 13/13 A3014 RMK AO2
     T01320127=
KGHW 081013Z AUTO 23005KT 10SM CLR 14/13 A3013 RMK AO2=
KGYL 081014Z AUTO 00000KT 14/14 A3010 RMK AO2 T01440136 PWINO=
KHCD 081012Z AUTO 26003KT 4SM BR CLR 13/12 A3011 RMK AO2
     T01260117=
KHCO 081014Z AUTO 18003KT 10SM SCT110 12/12 A3004 RMK AO2=
KHZX 081011Z AUTO 00000KT 10SM CLR 13/13 A3007 RMK AO2=
KIGQ 081020Z AUTO 00000KT 4SM VCTSBR SCT060 BKN065 OVC100 23/22
     A3003 RMK AO2 LTG DSNT SE=
KJKJ 081014Z AUTO 00000KT 10SM CLR 16/14 A3007 RMK AO2=
KJMR 081018Z AUTO 00000KT 10SM CLR 15/13 A3009 RMK AO2=
KLJF 081012Z AUTO 27005KT 10SM SCT085 17/16 A3011 RMK AO2=
KLRO 081035Z AUTO 29005KT 9SM CLR 23/19 A2995 RMK AO2=
KLVN 081008Z AUTO 27004KT 10SM CLR 16/16 A3009 RMK AO2=
KLXL 081014Z AUTO 00000KT 1 1/2SM BR VV007 12/11 A3008 RMK AO2=
KMDS 081005Z AUTO 28005KT 10SM CLR 14/14 A3017 RMK AO2=
KMGG 081015Z AUTO 28004KT 10SM CLR 16/15 A3010 RMK AO2
     T01580147=
KMJQ 081012Z AUTO 29004KT 5SM BR CLR 15/14 A3014 RMK AO2=
KMKS 081035Z AUTO 00000KT 7SM CLR 22/20 A2995 RMK AO2 TSNO=
KMOX 081010Z AUTO 26003KT 10SM CLR 15/14 A3008 RMK AO2=
KMVE 081014Z AUTO 30004KT 10SM CLR 16/14 A3011 RMK AO2=
KMWM 081013Z AUTO 00000KT 10SM CLR 14/14 A3014 RMK AO2=
KONA 081011Z AUTO 32004KT 10SM CLR 20/18 A3004 RMK AO2=
KOVL 081013Z AUTO 00000KT 10SM CLR 13/11 A3011 RMK AO2
     T01260112=
KPEX 081013Z AUTO 25004KT 7SM CLR 13/13 A3011 RMK AO2
     T01260125=
KPNM 081013Z AUTO 00000KT 10SM CLR 13/13 A3009 RMK AO2=
KPQN 081013Z AUTO 33006KT 10SM CLR 16/14 A3016 RMK AO2=
KPWC 081013Z AUTO 00000KT 10SM CLR 10/09 A3008 RMK AO2=
KROX 081014Z AUTO 23004KT 10SM CLR 14/12 A3001 RMK AO2=
KRRT 081014Z AUTO 24006KT 10SM CLR 14/12 A3001 RMK AO2=
KRYW 081025Z AUTO 06003KT 4SM -RA SCT006 BKN014 OVC029 24/23 A2999
     RMK AO2=
KSAR 081025Z AUTO 19005KT 7SM SCT065 26/23 A3004 RMK AO2=
KSAZ 081014Z AUTO 23004KT 10SM CLR 15/15 A3009 RMK AO2=
KSGS 081013Z AUTO 27003KT 10SM CLR 19/16 A3008 RMK AO2
     T01850162=
KSLO 081022Z AUTO 20004KT 10SM SCT050 24/22 A3005 RMK AO2
     T02370216=
KSWW 081025Z AUTO 01004KT 2SM OVC002 21/21 A3009 RMK AO1
     T02130209=
KT65 081025Z AUTO 03004KT 10SM SCT004 BKN010 BKN070 26/25 A2978
     RMK AO2 P0001 T02560248=
KT82 081025Z AUTO 00000KT 22/22 A3002 RMK AO1 T02240216=
KTAZ 081025Z AUTO 00000KT 3SM BR CLR 23/23 A3002 RMK AO2=
KTEW 081012Z AUTO 00000KT 10SM CLR 22/20 A3005 RMK AO2=
KTFP 081025Z AUTO 10005KT 10SM -RA SCT014 BKN024 BKN033 27/26
     A2982 RMK AO2 T02700255=
####018000541####
SAUS80 KWBC 081032
METAR
K29G 081014Z AUTO 00000KT 3SM CLR 19/18 A3010 RMK AO2 T01890179
     PWINO=
KIKW 081014Z AUTO 23004KT 10SM -RA BKN060 BKN090 OVC110 23/21
     A3002 RMK AO2 T02310212=
KLYV 081018Z AUTO 00000KT 10SM CLR 14/12 A3016 RMK AO2=
KROS 081015Z AUTO 28003KT 10SM CLR 15/14 A3008 RMK AO2
     T01500142=
KSOA 081020Z AUTO 00000KT 8SM 22/21 A3007 RMK AO2=
KSYN 081030Z AUTO 00000KT 10SM CLR 18/16 A3007 RMK AO2
     T01750162=
KTKC 081013Z AUTO 27005KT 10SM CLR 16/13 A3015 RMK AO2
     T01600128=
####018000094####
SAIO31 KWBC 081000 RRF
METAR
FSIA 081003Z 12011KT 9999 SCT018 BKN240 29/22 Q1011 NOSIG=
####018000087####
SAMM31 KWBC 081000 RRB
METAR
LCEN 081020Z 15013KT 9999 SCT025 33/18 Q1008 NOSIG=
####018000127####
SAPA32 KWBC 081000 RRA
METAR
NSTU 080959Z 08011KT 10SM SCT014 BKN045 28/26 A2989 RMK SHRAB00E10
     SLP124 T02770258=
####018000171####
SARA31 KWBC 081000 RRF
METAR
UBBB 081030Z 35020KT CAVOK 33/23 Q1010 NOSIG RMK R88CLRD70=
UTTT 081030Z 36003MPS 280V360 CAVOK 38/05 Q1010 R08R/CLRD70
     NOSIG=
####018000097####
SASA31 KWBC 081000 CCB
METAR
SKBO 081029Z VRB02KT 5000 BR SCT012 SCT070 11/11 A3029 NOSIG=
####018000129####
SAUK31 KWBC 081020 RRA
METAR
EGNH 081020Z 24013KT 9999 SCT024 19/11 Q1017=
EGNJ 081020Z 22012KT 9999 SCT035 19/12 Q1017=
####018000219####
SAUK32 KWBC 081020 RRB
METAR
EGPA 081020Z 20012KT 170V240 9999 VCSH FEW020 SCT045 17/11
     Q1007=
EGPC 081020Z 20016KT 9999 FEW020 16/11 Q1008=
EGSH 081020Z 24008KT 210V280 9999 SCT012 SCT019 21/16 Q1018=
####018000239####
SAUK41 KWBC 081020 RRB
METAR
EGAE 081020Z 23015KT 9999 FEW018 SCT040 16/10 Q1012=
EGBE 081020Z NIL=
EGBJ 081020Z 24005KT 190V280 9999 FEW035 21/11 Q1018=
EGDL 081020Z NIL=
EGNC 081020Z 24015KT 9999 SCT025 SCT045 16/10 Q1015=
####018000477####
SAUK42 KWBC 081020 RRA
METAR
EGPC 081020Z 20016KT 9999 FEW020 16/11 Q1008=
EGPE 081020Z 23018KT 9999 VCSH FEW012 SCT034 19/10 Q1009=
EGPL 081020Z 23018KT 9999 VCSH SCT018 15/12 Q1007 RESHRA=
EGPM 081020Z 22023KT 200V030 9999 FEW014 SCT035 15/10 Q1005
     NOSIG=
EGPN 081020Z 23016KT 9999 FEW028 SCT045 16/11 Q1012=
EGPO 081020Z 20018KT 9999 VCSH FEW012CB SCT030 15/12 Q1005=
EGPU 081020Z NIL=
EGSC 081020Z 23005KT 160V280 9000 FEW020 SCT030 20/14 Q1018=
####018000095####
SAXX61 KWBC 081000 RRE
METAR
LTAC 081020Z 05011KT 020V100 9999 SCT040 29/15 Q1012 NOSIG=
####018000979####
SAXX99 KWBC 081000 RRV
METAR
EGCN 081020Z 23010KT 200V280 9999 SCT028 20/11 Q1018=
EGEC 081020Z NIL=
EGNR 081020Z 24009KT 190V270 9999 FEW025 19/10 Q1017=
EGPI 081020Z NIL=
EGVN 081020Z NIL=
EGWU 081020Z NIL=
LBGO 081030Z VRB01MPS 7000 RA BKN020 OVC040 15/14 Q1018 RERA
     NOSIG=
LHDC 081015Z 02012KT 9999 FEW040 22/11 Q1021 NOSIG=
LHKE 081015Z 31003MPS CAVOK 23/10 Q1021 NOSIG RMK BLU=
LHPP 081015Z 01006KT 9999 SCT043 22/12 Q1023 NOSIG=
LHSN 081015Z 35003MPS CAVOK 23/12 Q1021 NOSIG RMK BLU=
LHUD 081015Z 36006KT 9999 FEW033 24/14 Q1022=
LTAZ 081020Z NIL=
LTBR 081020Z 34014KT 9999 SCT035 BKN100 28/15 Q1011 NOSIG=
LTBU 081020Z 33009KT 9999 SCT030 BKN100 22/13 Q1014=
LTCF 081020Z 09006KT 020V160 9999 SCT035 30/09 Q1019=
LTFH 081020Z 02005KT 340V060 9999 SCT036 BKN100 27/23 Q1011
     NOSIG=
LTFJ 081020Z 36017KT 9999 BKN030 23/16 Q1011 NOSIG=
UBBN 081030Z 13006KT 9999 NSC 37/09 Q1009 R14R/CLRD60 NOSIG RMK
     G/O QFE682=
####018000094####
SPUS42 KWBC 081032
SPECI
KAMA 081029Z 01009KT 1SM -RA FEW005 BKN021 OVC100 17/16 A3020=
####018000075####
SACN50 CWAO 081030
VOU SA 1030 AUTO8 M M M M/17/10/0702/M/M M 62MM=

####018000075####
SACN50 CWAO 081030
VWB SA 1030 AUTO8 M M M M/17/04/MMMM/M/M M 81MM=

####018000078####
SACN70 CWAO 081000 RRC
XMN SA 1000 AUTO8 M M M M/11/08/2403/M/ M 84MM=

####018000083####
SACN97 CWAO 081000 RRD
XTV SA 1000 AUTO8 M M M 170/05/M/3011/M/M 1008 3MMM=

####018000075####
SACN50 CWAO 081030
VOD SA 1030 AUTO8 M M M M/11/04/0602/M/M M 23MM=

####018000883####
SACN59 CWAO 081000 RRE
PBL SA 1000 AUTO8 M M M M/12/10/2604/M/ M 90MM=
PFI SA 1000 AUTO8 M M M M/11/10/1903/M/ M 01MM=
PRO SA 1000 AUTO8 M M M M/09/09/2402/M/0004 M 32MM=
PRY SA 1000 AUTO8 M M M M/09/08/2805/M/ M 41MM=
PST SA 1000 AUTO8 M M M M/12/10/2205/M/ M 30MM=
PSV SA 1000 AUTO8 M M M M/09/08/2404/M/ M 23MM=
XAK SA 1000 AUTO8 M M M M/11/09/2107/M/ M 68MM=
XFM SA 1000 AUTO8 M M M M/10/08/1805/M/ M 93MM=
XHD SA 1000 AUTO8 M M M M/13/10/2309/M/ M 50MM=
XMO SA 1000 AUTO8 M M M M/09/07/2004/M/ M 04MM=
XOL SA 1000 AUTO8 M M M M/11/09/2209/M/ M 16MM=
XPL SA 1000 AUTO8 M M M M/07/06/0303/M/ M 20MM=
XSL SA 1000 AUTO8 M M M M/13/10/2304/M/M M 82MM=
XSP SA 1000 AUTO8 M M M M/12/11/2103/M/ M 86MM=
XVM SA 1000 AUTO8 M M M M/13/11/2203/M/ M 81MM=
ZOL SA 1000 AUTO8 M M M M/15/11/2103/M/ M 24MM=
ZPS SA 1000 AUTO8 M M M M/14/09/2108/M/ M 50MM=

####018000083####
SACN96 CWAO 081000 RRE
WYF SA 1000 AUTO8 M M M 102/06/04/2806/M/ 3002 54MM=

####018000075####
SACN95 CWAO 081030
WWA SA 1030 AUTO8 M M M M/19/10/3502/M/M M 35MM=

####018000083####
SACN92 CWAO 081000 RRE
WKX SA 1000 AUTO8 M M M 238/10/04/0402/M/ 3007 77MM=

####018000083####
SACN90 CWAO 081000 RRD
WEC SA 1000 AUTO8 M M M 127/18/15/2806/M/ 4000 90MM=

####018000151####
SACN94 CWAO 081000 RRD
WQS SA 1000 AUTO8 M M M M/13/M/3512/M/ PK WND 3619 0900Z M 9MMM=
WRR SA 1000 AUTO8 M M M 181/07/05/0803/M/M 1009 80MM=

####018000283####
SACN98 CWAO 081000 RRE
XAG SA 1000 AUTO8 M M M M/12/11/2302/M/ M 90MM=
XAJ SA 1000 AUTO8 M M M M/12/10/2601/M/ M 83MM=
XBA SA 1000 AUTO8 M M M M/10/09/2504/M/ M 85MM=
XCS SA 1000 AUTO8 M M M M/11/09/2607/M/ M 13MM=
XYH SA 1000 AUTO8 M M M 147/10/10/0000/M/ 8002 26MM=

####018000121####
SACN49 CWAO 081000 RRA
METAR CYGW 081000Z 23011KT 10SM BKN030 BKN080 19/13 A2989 RMK SC5AC2
VIA YQB FIC SLP121=

####018000103####
SACN87 CWAO 081000 RRC
WWS SA 1000 AUTO8 M M M 133/16/12/3013/M/ PK WND 3119 0939Z 3005
39MM=

####018000083####
SACN78 CWAO 081000 RRE
WPS SA 1000 AUTO8 M M M 157/24/M/1407/M/M 5001 0MMM=

####018000199####
SASQ31 LZIB 081030
METAR LZIB 081030Z 33009KT 280V030 CAVOK 23/07 Q1022=
METAR LZKZ 081030Z 01010KT 340V090 CAVOK 23/08 Q1021 NOSIG=
METAR LZTT 081030Z VRB02KT 9999 FEW040 21/08 Q1022 NOSIG=
####018000919####
SATU31 LTAA 081020
METAR LTAC 081020Z 05011KT 020V100 9999 SCT040 29/15 Q1012 NOSIG=
METAR LTAF 081020Z /////KT 9999 SCT035 BKN100 31/20 Q1008 NOSIG=
METAR LTAI 081020Z 17008KT 140V200 9999 SCT030 30/22 Q1008 NOSIG=
METAR LTAJ 081020Z 22010KT CAVOK 37/08 Q1008 NOSIG=
METAR LTAZ 081020Z NIL=
METAR LTBA 081020Z 35023KT 9999 BKN035 23/15 Q1012 TEMPO TL1200 4000
-TSRA=
METAR LTBJ 081020Z 34017KT CAVOK 30/12 Q1010 NOSIG=
METAR LTBS 081020Z 20012KT 9999 FEW030 30/21 Q1008 NOSIG=
METAR LTCF 081020Z 09006KT 020V160 9999 SCT035 30/09 Q1019=
METAR LTCG 081020Z 09007KT 9999 SCT035 27/22 Q1011 NOSIG=
METAR LTCI 081020Z 24006KT CAVOK 26/18 Q1016 NOSIG=
METAR LTCS 081020Z 14010KT CAVOK 37/01 Q1009=
METAR LTFE 081020Z 27020KT 9999 FEW035 32/15 Q1008 NOSIG=
METAR LTFH 081020Z 02005KT 340V060 9999 SCT036 BKN100 27/23 Q1011
NOSIG=
METAR LTFJ 081020Z 36017KT 9999 BKN030 23/16 Q1011 NOSIG=
####018000102####
SPAU32 YBBN 081030
SPECI YBCG 081030Z AUTO 19009KT 8000NDV // SCT015 BKN025 OVC049 15/13
Q1021=
####018000063####
SASU01 HSSS 081030
METAR HSSS 081030Z 36006KT CAVOK Q1008=
####018000083####
SAHU31 LHBM 081030
METAR LHBP 081030Z 24007KT 180V290 CAVOK 23/11 Q1021 NOSIG=
####018000094####
SPUS72 KWBC 081032
SPECI
KAMA 081029Z 01009KT 1SM -RA FEW005 BKN021 OVC100 17/16 A3020=
####018000086####
SANC01 NWWU 081030
METAR NWWU 081030Z AUTO VRB02KT 9999NDV FEW045/// 20/18 Q1015=
####018000080####
SANC01 NWWM 081030
METAR NWWM 081030Z AUTO 34003KT 9999NDV NCD 18/16 Q1016=
####018000080####
SANC01 NWWL 081030
METAR NWWL 081030Z AUTO 00000KT 9999NDV NCD 15/15 Q1016=
####018000098####
SASR31 WSSS 081030
METAR WSSS 081030Z 21004KT 170V250 9999 FEW016 BKN280 29/25 Q1009
NOSIG=
####018000089####
SAMT20 GQNN 081030
METAR GQNN 081030Z 18008KT 150V210 6000 SCT020 30/23 Q1013 NOSIG=
####018000321####
SAMC31 GMMC 081030
METAR GMMN 081030Z 36010KT 320V050 9999 SCT010 BKN023 26/19 Q1017
NOSIG=
METAR GMMX 081030Z 32005KT 270V020 7000 FEW026 30/17 Q1017 NOSIG=
METAR GMTT 081030Z 27004KT 210V300 8000 SCT016 SCT100 26/20 Q1016
NOSIG=
METAR GMAD 081030Z NIL=
METAR GMFF 081030Z NIL=
METAR GMME 081030Z NIL=
####018000089####
SPUS81 KWBC 081032
SPECI
KNRS 081029Z AUTO 29007KT 10SM SCT007 OVC016 16/14 A2990=
####018002968####
SAUS20 KNKA 081032
METAR KFFX 081015Z AUTO 20003KT 5SM -RA SCT040 BKN070 OVC110 22/22
     A3003 RMK AO2=
METAR KFKA 081023Z AUTO 33008KT 10SM CLR 19/18 A3007 RMK AO2
     T01850178=
METAR KFKS 081015Z AUTO 00000KT 10SM OVC090 22/20 A2998 RMK
     AO2=
METAR KFOZ 081013Z AUTO 00000KT 1/4SM FG OVC001 12/11 A3005 RMK
     AO2=
METAR KFPK 081016Z AUTO 00000KT 5SM BR CLR 22/20 A3003 RMK AO2=
METAR KFSE 081014Z AUTO 19004KT 10SM CLR 11/11 A3005 RMK AO2=
METAR KGCD 081030Z AUTO 11007KT 10SM CLR 14/04 A3011 RMK AO2 
     T01420037=
METAR KGCM 081035Z AUTO 32003KT 3SM +VCTSRA SCT004 OVC012 23/23 
     A3005 RMK AO2 LTG DSNT NE S AND SW P0014=
SPECI KGLS 081031Z AUTO 16017G23KT 2 1/2SM +RA BR SCT014 BKN026 
    OVC047 25/23 A2991 RMK AO2 VIS 1 3/4V5 RAB20 P0017=
METAR KGMJ 081034Z AUTO 14003KT 26/26 A3004 RMK AO2 P0001 PWINO=
METAR KGOV 081015Z AUTO 23003KT 10SM OVC100 22/22 A3001 RMK
     AO2=
METAR KHAF 081010Z AUTO 00000KT 9SM OVC006 12/10 A2993 RMK AO2=
METAR KHAI 081015Z AUTO 00000KT 3SM BR CLR 21/21 A3006 RMK AO2=
METAR KHYX 081015Z AUTO 23004KT 7SM CLR 22/20 A3002 RMK AO2=
METAR KIDP 081030Z AUTO 00000KT 10SM SCT110 21/20 A3003 RMK AO2 
     LTG DSNT SE=
METAR KIRS 081015Z AUTO 00000KT 7SM SCT060 21/19 A3005 RMK AO2=
METAR KISQ 081016Z AUTO 31004KT 10SM -RA OVC006 20/18 A2997 RMK
     AO2=
METAR KIZA 081029Z AUTO 00000KT 10SM OVC009 13/11 A2991 RMK AO2=
METAR KJWG 081030Z AUTO 03003KT 5SM BR BKN004 BKN043 22/22 A3009 
     RMK AO2 LTG DSNT W=
METAR KJYG 081015Z AUTO 28004KT 10SM CLR 16/16 A3013 RMK AO2=
METAR KJYM 081015Z AUTO 00000KT 5SM BR CLR 20/18 A3007 RMK AO2=
METAR KLAM 081030Z AUTO 20003KT 10SM SCT120 15/08 A3037 RMK AO2=
METAR KLDM 081016Z AUTO 21006KT 10SM -RA BKN090 22/21 A3001 RMK
     AO2=
METAR KLRU 081031Z AUTO 02004KT 10SM SCT070 SCT080 SCT090 21/14 
     A3016 RMK AO2=
METAR KLWA 081016Z AUTO 00000KT 5SM BR CLR 22/21 A3003 RMK AO2=
SPECI KLXV 081020Z AUTO 15003KT 10SM FEW009 BKN028 BKN095 07/06
     A3054 RMK AO2 TSNO=
METAR KMCD 081015Z AUTO 00000KT 10SM BKN120 22/18 A2997 RMK
     AO2=
METAR KMGN 081015Z AUTO 27003KT 10SM SCT110 21/20 A2996 RMK
     AO2=
METAR KMOP 081014Z AUTO 18004KT 10SM SCT085 OVC100 23/22 A3003 RMK
     AO2=
SPECI KMSN 081019Z 00000KT 8SM SCT006 SCT020 BKN025 21/20 A3002
     RMK AO2=
METAR KMZH 081011Z AUTO 27003KT 10SM CLR 15/14 A3004 RMK AO2=
METAR KOEB 081015Z AUTO 00000KT 7SM CLR 22/20 A3005 RMK AO2=
METAR KOKM 081031Z AUTO 00000KT 10SM OVC005 24/24 A3004 RMK AO1=
METAR KONP 081030Z AUTO 20008KT 7SM OVC004 11/10 A2999 RMK AO1=
METAR KONZ 081017Z AUTO 00000KT 10SM SCT075 24/20 A3003 RMK
     AO2=
METAR KORB 081014Z AUTO 22003KT 10SM CLR 14/13 A3000 RMK AO2=
METAR KOSC 081014Z AUTO 28004KT 3SM BR SCT050 SCT060 21/19 A3001
     RMK AO2=
METAR KOWA 081014Z AUTO 00000KT 7SM CLR 16/16 A3008 RMK AO2=
METAR KOZW 081015Z AUTO 00000KT 7SM CLR 23/20 A3005 RMK AO2=
####018002910####
SAUS20 KNKA 081032
METAR K1F0 081027Z AUTO 00000KT 10SM SCT047 SCT060 BKN085 24/24 
     A3002 RMK AO2=
METAR K36U 081035Z AUTO 00000KT 10SM CLR 09/05 A3022 RMK AO2=
METAR K4I3 081016Z AUTO 00000KT 7SM CLR 19/18 A3010 RMK AO2=
METAR K4O4 081028Z AUTO 11004KT 23/22 A3005 RMK AO2=
SPECI KABR 081031Z AUTO 18003KT 3SM BR CLR 13/13 A3013 RMK AO2=
METAR KACB 081015Z AUTO 00000KT 10SM OVC100 24/21 A2997 RMK
     AO2=
METAR KACQ 081019Z AUTO 00000KT 1/4SM FG VV002 16/15 A3012 RMK
     AO2=
METAR KADC 081017Z AUTO 24005KT 10SM CLR 14/13 A3008 RMK AO2=
METAR KADH 081030Z AUTO 18004KT 10SM BKN023 23/22 A3003 RMK AO2=
METAR KADM 081030Z AUTO 00000KT 7SM BKN027 BKN039 BKN055 23/23 
     A3002 RMK AO2=
METAR KALM 081030Z AUTO 19003KT 10SM CLR 17/14 A3014 RMK AO2=
METAR KAMN 081016Z AUTO 00000KT 5SM -RA SCT075 OVC085 22/22 A3003
     RMK AO2=
METAR KAQP 081014Z AUTO 23004KT 10SM CLR 13/13 A3011 RMK AO2=
METAR KATS 081030Z AUTO 33008KT 10SM -RA OVC039 19/17 A3016 RMK 
     AO2=
METAR KAUM 081015Z AUTO 34005KT 7SM CLR 17/16 A3007 RMK AO2=
METAR KAXS 081030Z AUTO 36003KT 10SM BKN029 24/22 A3006 RMK AO2 
     T02350217=
METAR KAXX 081030Z AUTO 00000KT 10SM BKN120 05/04 A3048 RMK AO2=
METAR KBAX 081015Z AUTO 00000KT 4SM BR CLR 20/20 A3000 RMK AO2=
METAR KBDH 081015Z AUTO 00000KT 7SM CLR 14/14 A3013 RMK AO2=
METAR KBFW 081013Z AUTO 00000KT 10SM CLR 15/13 A3001 RMK AO2=
METAR KBVS 081030Z AUTO 05007KT 10SM CLR 19/13 A2997 RMK A01 P000=
METAR KCAD 081014Z AUTO 22004KT 10SM OVC110 22/20 A3003 RMK
     AO2=
METAR KCBG 081015Z AUTO 00000KT 10SM CLR 16/13 A3008 RMK AO2=
METAR KCDA 081015Z AUTO 00000KT 1 1/4SM BR VV007 20/18 A3010 RMK
     AO2=
METAR KCDD 081011Z AUTO 18004KT 10SM CLR 17/16 A3002 RMK AO2=
METAR KCFE 081015Z AUTO 00000KT 10SM CLR 17/16 A3011 RMK AO2
     T01710156=
METAR KCFS 081015Z AUTO 00000KT 1SM BR VV007 20/20 A3002 RMK
     AO2=
METAR KCKC 081015Z AUTO 30006KT 10SM CLR 15/13 A3003 RMK AO2=
METAR KCKN 081015Z AUTO 22003KT 10SM CLR 13/12 A3005 RMK AO2=
METAR KCNB 081018Z AUTO 24007KT 10SM CLR 17/13 A3014 RMK AO2
     T01650132=
SPECI KCNU 081031Z AUTO 01004KT 9SM BKN005 22/21 A3004 RMK AO2=
METAR KCOQ 081016Z AUTO 28005KT 10SM CLR 14/14 A3005 RMK AO2=
METAR KCQM 081017Z AUTO 00000KT 10SM CLR 14/13 A3003 RMK AO2=
METAR KCVX 081015Z AUTO 22003KT 10SM SCT100 BKN110 22/20 A2998 RMK
     AO2=
METAR KDRM 081016Z AUTO 15004KT 1/2SM FG OVC002 20/20 A2995 RMK
     AO2=
METAR KDTL 081015Z AUTO 00000KT 10SM CLR 16/11 A3009 RMK AO2=
METAR KDUH 081014Z AUTO 00000KT 7SM SCT070 22/18 A3005 RMK AO2=
METAR KDVP 081016Z AUTO 27003KT 10SM CLR 15/13 A3017 RMK AO2
     T01520134=
METAR KERY 081016Z AUTO 27007KT 5SM BR OVC003 20/19 A2997 RMK
     AO2=
METAR KETH 081014Z AUTO 25006KT 10SM CLR 17/15 A3010 RMK AO2=
METAR KFET 081030Z AUTO 35003KT 10SM CLR 18/16 A3015 RMK AO2=
####018001393####
SAUS20 KNKA 081032
METAR KPHN 081016Z AUTO 00000KT 1/4SM FG VV002 19/18 A3003 RMK
     AO2=
METAR KPTS 081030Z AUTO 00000KT 10SM BKN028 BKN045 BKN065 22/ 
     A3005 RMK AO2 LTG DSNT SE T0220=
METAR KPZQ 081015Z AUTO 20007KT 7SM CLR 22/22 A2998 RMK AO2=
METAR KRGK 081015Z AUTO 00000KT 10SM CLR 18/17 A3006 RMK AO2=
METAR KRMY 081015Z AUTO 00000KT 7SM CLR 21/19 A3005 RMK AO2=
METAR KRNP 081015Z AUTO 28005KT 7SM SCT055 SCT070 23/21 A3004 RMK
     AO2=
METAR KRQB 081014Z AUTO 20003KT 10SM OVC090 22/21 A3004 RMK
     AO2=
METAR KSJX 081016Z AUTO 24007KT 1 1/4SM BR OVC002 20/18 A2997 RMK
     AO2=
METAR KSLH 081015Z AUTO 19003KT 10SM OVC110 21/21 A2996 RMK
     AO2=
METAR KSVC 081030Z AUTO 06009KT 10SM OVC100 18/14 A3021 RMK AO2=
METAR KTTF 081013Z AUTO 00000KT 7SM SCT075 22/21 A3003 RMK AO2=
METAR KUKT 081010Z AUTO 00000KT 3SM CLR 20/20 A3004 RMK AO1=
METAR KVLL 081014Z AUTO 25003KT 10SM CLR 25/21 A3006 RMK AO2=
SPECI KVPZ 081031Z AUTO 06003KT 2 1/2SM BR FEW050 SCT075 OVC095 
    23/22 A3004 RMK AO2 LTG DSNT SW RAE26 P0000=
METAR KVWU 081011Z AUTO 26007KT 10SM CLR 18/14 A3002 RMK AO2=
METAR KWWR 081029Z AUTO 01005KT 10SM SCT110 22/21 A3015 RMK AO2 
     T02180208=
METAR KXVG 081016Z AUTO 23004KT 10SM CLR 16/15 A3004 RMK AO2=
METAR KY70 081015Z AUTO 00000KT 4SM -RA SCT065 SCT075 OVC110 23/22
     A3003 RMK AO2 T02260216=
####018001717####
SPZZ40 KAWN 081032 RRH
SPECI CWHN 081028Z AUTO 26005KT 9SM -RA FEW041 OVC072 14/10 A3002=
SPECI CYGV 081029Z AUTO 08004KT 9SM OVC005 14/12 A3003=
SPECI CYKF 081030Z AUTO 07002KT 2 1/4SM BR CLR 19/19 A3006 RMK SLP177
      DENSITY ALT 1600FT VIS VRB 3/8-3=
SPECI CYMO 081030Z AUTO 00000KT 9SM -RA FEW075 18/16 A2985=
SPECI CYPQ 081027Z AUTO ///// 3SM CLR 20/20 A3003=
SPECI CYUS 081028Z AUTO ///// 9SM FEW092 10/ A2979=
SPECI KAFF 081028Z AUTO 18005KT 10SM FEW007 SCT014 BKN024 12/12 A3040
      RMK AO2 FEW V SCT SLP213=
SPECI KDYS 081030Z 36005KT 7SM BKN008 21/21 A3004 RMK AO2A SLP154 $=
SPECI KEGI 081030Z AUTO 00000KT 2SM R18/2600VP6000FT BR CLR 21/21 A3002
      RMK AO2 VIS 1 1/2V5 SLP167 $=
SPECI KNZY 081028Z 33008KT 8SM FEW008 OVC016 18/14 A2989 RMK AO2 $=
SPECI KOZR 081029Z 00000KT 3/4SM R06/0900V1000FT BR FEW002 22/22 A3003
      RMK AO2A SLP164=
SPECI KVOK 081029Z 27004KT 1 1/4SM R27/3500VP6000FT BR CLR 18/18 A3002
      RMK AO2A SLP162=
SPECI KVOK 081030Z 27004KT 1 1/2SM R27/3500VP6000FT BR CLR 18/18 A3002
      RMK AO2A SLP162=
SPECI MNMG 081025Z 35004KT 9999 FEW020CB BKN020 CB/N/NW/W/NE/S=
PATC SP 1035 AWOS CLR BLO 120 10 46/42/0209/016=
SPECI RJOC 081023Z 01004KT 9000 TS FEW010 SCT020 BKN025 FEW025CB 25/20
      Q1009 RMK 1ST010 3CU020 6CU025 1CB025 A2981 FBL TS 25KM S MOV N=
SPECI RKSO 081028Z AUTO 00000KT 9999 -RA CLR 25/23 A2977 RMK AO2 RAB1028
      SLP083 $=
SPECI SARE 081030Z 14009KT 9999 BKN006 SCT100 10/08 Q1019=
SPECI SBFI 081030Z 23004KT 2000 R14/P2000 BR FEW020 SCT100 14/13 Q1016=
SPECI SKRG 081030Z 00000KT 3000 BCFG BKN007 BKN080 14/14 A3027=
SPECI YBRM 081030Z 36005KT 4000 -RA SCT015 SCT025 OVC045 24/22 Q1011=
####018000881####
SAEW KAWN 081000 RRL
METAR EBBE 081025Z 32005KT 9999 FEW250 29/10 Q1020 BLU BLU=
METAR EDHL 081020Z 15008KT CAVOK 26/13 Q1020 RMK M=
METAR EDLW 081020Z 24009KT CAVOK 29/10 Q1020 RMK ATIS O=
METAR EHAM 081025Z 29010KT 260V320 CAVOK 23/17 Q1019 NOSIG=
METAR EHBK 081025Z AUTO 24006KT 200V350 9999NDV NCD 28/11 Q1020 NOSIG=
METAR EHDL 081025Z AUTO 21009KT 9999NDV NCD 28/13 Q1019 BLU=
METAR EHGG 081025Z AUTO 23012KT 200V280 9999NDV NSC 27/13 Q1018 NOSIG=
METAR EHGR 081025Z AUTO 28008KT 9999NDV NCD 28/12 Q1019 BLU BLU=
METAR EHKD 081025Z AUTO 24008KT 9999NDV OVC065/// 20/16 Q1019 BLU BLU=
METAR EHRD 081025Z 29008KT 250V320 CAVOK 25/14 Q1019 NOSIG=
METAR EHVK 081025Z AUTO 21005KT 9999NDV NCD 29/12 Q1019 BLU BLU=
METAR EHVL 081025Z AUTO 24010KT 9999NDV FEW056 BKN064 20/16 Q1019 BLU=
METAR EHWO 081025Z AUTO 28005KT 9999NDV SCT400 26/11 Q1019 BLU BLU=
####018000738####
SAXN17 KAWN 081000 RRH
METAR NSTU 080959Z 08011KT 10SM SCT014 BKN045 28/26 A2989 RMK SHRAB00E10
      SLP124 T02770258=
METAR NWWW 081030Z AUTO 00000KT 9999NDV NCD 18/16 Q1017=
METAR RCKH 081030Z 30007KT 250V350 9999 FEW013 SCT020 BKN250 30/26
      Q1009 NOSIG=
METAR RCTP 081030Z 23010KT 9999 FEW025 BKN080 BKN200 29/25 Q1007 NOSIG=
METAR SKBO 081029Z VRB02KT 5000 BR SCT012 SCT070 11/11 A3029 NOSIG=
METAR TNCA 081000Z 08015KT 9999 FEW017 29/24 Q1011 NOSIG=
METAR TNCB 081000Z AUTO /////KT //// ////// 28/25 Q1011 NOSIG=
METAR TNCC 081000Z 09013KT 9999 SCT017 28/25 Q1011 NOSIG=
METAR TNCE 081000Z AUTO 05010KT //// ////// 27/25 Q1015=
METAR VHHH 081030Z 20010KT 160V230 9999 FEW020 SCT030 31/25 Q1006 NOSIG=
####018000126####
SAXX60 KAWN 081000 RRC
METAR NSTU 080959Z 08011KT 10SM SCT014 BKN045 28/26 A2989 RMK SHRAB00E10
      SLP124 T02770258=
####018000424####
SAXX70 KAWN 081000 RRQ
METAR KQEN 081030Z AUTO 26006KT 7SM SCT070 20/16 A3040 RMK A02=
METAR KQEP 081030Z AUTO 07003KT 7SM SCT095 26/19 A2986 RMK A02=
METAR KQER 081030Z AUTO 13001KT 4SM DZ OVC050 23/19 A2988 RMK A02=
METAR KQES 081030Z AUTO 14007KT 7SM BKN120 23/20 A2983 RMK A02=
METAR KQEY 081030Z AUTO 25003KT 7SM BKN110 27/17 A2958 RMK A02=
METAR KQEV 081040Z AUTO 25003KT 7SM SCT085 26/19 A2978 RMK A02=
####018000119####
SPCN46 CWAO 081032
SPECI CYKF 081032Z AUTO 07002KT 1 1/2SM BR CLR 19/19 A3006 RMK SLP177
 DENSITY ALT 1600FT=

####018000075####
SACN88 CWAO 081030
WZU SA 1030 AUTO7 M M M M/20/17/1301/M/M M 02MM=

####018000096####
SAGG31 UGTB 081030
METAR UGTB 081030Z 08011KT 9999 SCT066 34/17 Q1013 NOSIG RMK
31CLRD80=
####018000086####
SAMC32 GMMC 080500 RRA
METAR GMMC 080500Z 02002KT 5000 SCT016 BKN026 21/19 Q1013=
####018000086####
SAMC32 GMMC 080700 RRC
METAR GMMC 080700Z 06002KT 5000 SCT016 BKN026 22/19 Q1013=
####018000089####
SAQT99 OTBD 081030
METAR OTBD 081030Z 05007KT 350V080 6000 HZ NSC 37/29 Q0999 NOSIG=
####018000850####
SAUR30 UKMS 081030
METAR UKBB 081030Z 27004MPS 250V310 9999 BKN030 25/18
         Q1014 88CLRD95    NOSIG=
METAR UKHH 081030Z 18003MPS 110V220 9999 SCT033
         BKN200  30/15 Q1014 260///65 NOSIG=
METAR UKOO 081030Z 35004MPS 330V040 CAVOK 26/15 Q1014
          34090070 NOSIG=
METAR UKDE 081030Z 24003MPS 190V290 9999 SCT050 29/16
          Q1014 20CLRD70 NOSIG=
METAR UKDD 081030Z 00000MPS 9999 SCT033CB BKN200
         29/18  Q1014 08090070 TEMPO VRB10G15MPS -TSRA
         SQ BKN020CB=
METAR UKFF 081030Z 00000MPS 9999 SCT040 29/17 Q1013
         01010070 NOSIG=
METAR UKLL 081030Z 32004MPS 260V010 9999 BKN046 18/11
          Q1021 31210365 NOSIG=
METAR UKCC 081030Z VRB01MPS CAVOK 30/16 Q1015
         08090070 NOSIG=
METAR UKDR 081030Z VRB02MPS 9999 BKN033 OVC200 29/18
         Q1013 1809//70 NOSIG=
####018000086####
SAMC32 GMMC 080600 RRC
METAR GMMC 080600Z 36002KT 5000 SCT016 BKN026 22/19 Q1013=
####018000082####
SAMJ41 LWOH 081030
METAR LWOH 081030Z VRB03KT 9999 FEW035 BKN045 19/09 Q1019=
####018000098####
SAUZ31 UTTW 081030
METAR UTSB 081030Z 01007MPS CAVOK 41/02 Q1007 R01/CLRD70 TEMPO
01008MPS=
####018000140####
SAUS44 KMAF 081032
MTRGDP
SPECI KGDP 081031Z AUTO 05017KT 2 1/2SM -RA BR FEW002 BKN011 OVC016 
16/16 A3023 RMK AO2 RAB01 P0000 TSNO
####018000543####
SPUS99 KWBC 081033
SPECI
KABR 081031Z AUTO 18003KT 3SM BR CLR 13/13 A3013 RMK AO2=
KCNU 081031Z AUTO 01004KT 9SM BKN005 22/21 A3004 RMK AO2=
KGLS 081031Z AUTO 16017G23KT 2 1/2SM +RA BR SCT014 BKN026 OVC047
     25/23 A2991 RMK AO2 VIS 1 3/4V5 RAB20 P0017=
KLXV 081020Z AUTO 15003KT 10SM FEW009 BKN028 BKN095 07/06 A3054
     RMK AO2 TSNO=
KMSN 081019Z 00000KT 8SM SCT006 SCT020 BKN025 21/20 A3002 RMK
     AO2=
KVPZ 081031Z AUTO 06003KT 2 1/2SM BR FEW050 SCT075 OVC095 23/22
     A3004 RMK AO2 LTG DSNT SW RAE26 P0000=
####018003733####
SAUS99 KWBC 081033
METAR
K1F0 081027Z AUTO 00000KT 10SM SCT047 SCT060 BKN085 24/24 A3002
     RMK AO2=
K36U 081035Z AUTO 00000KT 10SM CLR 09/05 A3022 RMK AO2=
K4I3 081016Z AUTO 00000KT 7SM CLR 19/18 A3010 RMK AO2=
K4O4 081028Z AUTO 11004KT 23/22 A3005 RMK AO2=
KACB 081015Z AUTO 00000KT 10SM OVC100 24/21 A2997 RMK AO2=
KACQ 081019Z AUTO 00000KT 1/4SM FG VV002 16/15 A3012 RMK AO2=
KADC 081017Z AUTO 24005KT 10SM CLR 14/13 A3008 RMK AO2=
KADH 081030Z AUTO 18004KT 10SM BKN023 23/22 A3003 RMK AO2=
KADM 081030Z AUTO 00000KT 7SM BKN027 BKN039 BKN055 23/23 A3002 RMK
     AO2=
KALM 081030Z AUTO 19003KT 10SM CLR 17/14 A3014 RMK AO2=
KAMN 081016Z AUTO 00000KT 5SM -RA SCT075 OVC085 22/22 A3003 RMK
     AO2=
KAQP 081014Z AUTO 23004KT 10SM CLR 13/13 A3011 RMK AO2=
KATS 081030Z AUTO 33008KT 10SM -RA OVC039 19/17 A3016 RMK AO2=
KAUM 081015Z AUTO 34005KT 7SM CLR 17/16 A3007 RMK AO2=
KAXS 081030Z AUTO 36003KT 10SM BKN029 24/22 A3006 RMK AO2
     T02350217=
KAXX 081030Z AUTO 00000KT 10SM BKN120 05/04 A3048 RMK AO2=
KBAX 081015Z AUTO 00000KT 4SM BR CLR 20/20 A3000 RMK AO2=
KBDH 081015Z AUTO 00000KT 7SM CLR 14/14 A3013 RMK AO2=
KBFW 081013Z AUTO 00000KT 10SM CLR 15/13 A3001 RMK AO2=
KBVS 081030Z AUTO 05007KT 10SM CLR 19/13 A2997 RMK A01 P000=
KCAD 081014Z AUTO 22004KT 10SM OVC110 22/20 A3003 RMK AO2=
KCBG 081015Z AUTO 00000KT 10SM CLR 16/13 A3008 RMK AO2=
KCDA 081015Z AUTO 00000KT 1 1/4SM BR VV007 20/18 A3010 RMK AO2=
KCDD 081011Z AUTO 18004KT 10SM CLR 17/16 A3002 RMK AO2=
KCFE 081015Z AUTO 00000KT 10SM CLR 17/16 A3011 RMK AO2
     T01710156=
KCFS 081015Z AUTO 00000KT 1SM BR VV007 20/20 A3002 RMK AO2=
KCKC 081015Z AUTO 30006KT 10SM CLR 15/13 A3003 RMK AO2=
KCKN 081015Z AUTO 22003KT 10SM CLR 13/12 A3005 RMK AO2=
KCNB 081018Z AUTO 24007KT 10SM CLR 17/13 A3014 RMK AO2
     T01650132=
KCOQ 081016Z AUTO 28005KT 10SM CLR 14/14 A3005 RMK AO2=
KCQM 081017Z AUTO 00000KT 10SM CLR 14/13 A3003 RMK AO2=
KCVX 081015Z AUTO 22003KT 10SM SCT100 BKN110 22/20 A2998 RMK
     AO2=
KDRM 081016Z AUTO 15004KT 1/2SM FG OVC002 20/20 A2995 RMK AO2=
KDTL 081015Z AUTO 00000KT 10SM CLR 16/11 A3009 RMK AO2=
KDUH 081014Z AUTO 00000KT 7SM SCT070 22/18 A3005 RMK AO2=
KDVP 081016Z AUTO 27003KT 10SM CLR 15/13 A3017 RMK AO2
     T01520134=
KERY 081016Z AUTO 27007KT 5SM BR OVC003 20/19 A2997 RMK AO2=
KETH 081014Z AUTO 25006KT 10SM CLR 17/15 A3010 RMK AO2=
KFET 081030Z AUTO 35003KT 10SM CLR 18/16 A3015 RMK AO2=
KFFX 081015Z AUTO 20003KT 5SM -RA SCT040 BKN070 OVC110 22/22 A3003
     RMK AO2=
KFKA 081023Z AUTO 33008KT 10SM CLR 19/18 A3007 RMK AO2
     T01850178=
KFKS 081015Z AUTO 00000KT 10SM OVC090 22/20 A2998 RMK AO2=
KFOZ 081013Z AUTO 00000KT 1/4SM FG OVC001 12/11 A3005 RMK AO2=
KFPK 081016Z AUTO 00000KT 5SM BR CLR 22/20 A3003 RMK AO2=
KFSE 081014Z AUTO 19004KT 10SM CLR 11/11 A3005 RMK AO2=
KGCD 081030Z AUTO 11007KT 10SM CLR 14/04 A3011 RMK AO2
     T01420037=
KGCM 081035Z AUTO 32003KT 3SM +VCTSRA SCT004 OVC012 23/23 A3005
     RMK AO2 LTG DSNT NE S AND SW P0014=
KGMJ 081034Z AUTO 14003KT 26/26 A3004 RMK AO2 P0001 PWINO=
KGOV 081015Z AUTO 23003KT 10SM OVC100 22/22 A3001 RMK AO2=
KHAF 081010Z AUTO 00000KT 9SM OVC006 12/10 A2993 RMK AO2=
KHAI 081015Z AUTO 00000KT 3SM BR CLR 21/21 A3006 RMK AO2=
KHYX 081015Z AUTO 23004KT 7SM CLR 22/20 A3002 RMK AO2=
KIDP 081030Z AUTO 00000KT 10SM SCT110 21/20 A3003 RMK AO2 LTG DSNT
     SE=
KIRS 081015Z AUTO 00000KT 7SM SCT060 21/19 A3005 RMK AO2=
KISQ 081016Z AUTO 31004KT 10SM -RA OVC006 20/18 A2997 RMK AO2=
KIZA 081029Z AUTO 00000KT 10SM OVC009 13/11 A2991 RMK AO2=
KJWG 081030Z AUTO 03003KT 5SM BR BKN004 BKN043 22/22 A3009 RMK AO2
     LTG DSNT W=
####018002291####
SAUS99 KWBC 081033 RRA
METAR
KJYG 081015Z AUTO 28004KT 10SM CLR 16/16 A3013 RMK AO2=
KJYM 081015Z AUTO 00000KT 5SM BR CLR 20/18 A3007 RMK AO2=
KLAM 081030Z AUTO 20003KT 10SM SCT120 15/08 A3037 RMK AO2=
KLDM 081016Z AUTO 21006KT 10SM -RA BKN090 22/21 A3001 RMK AO2=
KLRU 081031Z AUTO 02004KT 10SM SCT070 SCT080 SCT090 21/14 A3016
     RMK AO2=
KLWA 081016Z AUTO 00000KT 5SM BR CLR 22/21 A3003 RMK AO2=
KMCD 081015Z AUTO 00000KT 10SM BKN120 22/18 A2997 RMK AO2=
KMGN 081015Z AUTO 27003KT 10SM SCT110 21/20 A2996 RMK AO2=
KMOP 081014Z AUTO 18004KT 10SM SCT085 OVC100 23/22 A3003 RMK
     AO2=
KMZH 081011Z AUTO 27003KT 10SM CLR 15/14 A3004 RMK AO2=
KOEB 081015Z AUTO 00000KT 7SM CLR 22/20 A3005 RMK AO2=
KOKM 081031Z AUTO 00000KT 10SM OVC005 24/24 A3004 RMK AO1=
KONP 081030Z AUTO 20008KT 7SM OVC004 11/10 A2999 RMK AO1=
KONZ 081017Z AUTO 00000KT 10SM SCT075 24/20 A3003 RMK AO2=
KORB 081014Z AUTO 22003KT 10SM CLR 14/13 A3000 RMK AO2=
KOSC 081014Z AUTO 28004KT 3SM BR SCT050 SCT060 21/19 A3001 RMK
     AO2=
KOWA 081014Z AUTO 00000KT 7SM CLR 16/16 A3008 RMK AO2=
KOZW 081015Z AUTO 00000KT 7SM CLR 23/20 A3005 RMK AO2=
KPHN 081016Z AUTO 00000KT 1/4SM FG VV002 19/18 A3003 RMK AO2=
KPTS 081030Z AUTO 00000KT 10SM BKN028 BKN045 BKN065 22/ A3005 RMK
     AO2 LTG DSNT SE T0220=
KPZQ 081015Z AUTO 20007KT 7SM CLR 22/22 A2998 RMK AO2=
KRGK 081015Z AUTO 00000KT 10SM CLR 18/17 A3006 RMK AO2=
KRMY 081015Z AUTO 00000KT 7SM CLR 21/19 A3005 RMK AO2=
KRNP 081015Z AUTO 28005KT 7SM SCT055 SCT070 23/21 A3004 RMK
     AO2=
KRQB 081014Z AUTO 20003KT 10SM OVC090 22/21 A3004 RMK AO2=
KSJX 081016Z AUTO 24007KT 1 1/4SM BR OVC002 20/18 A2997 RMK
     AO2=
KSLH 081015Z AUTO 19003KT 10SM OVC110 21/21 A2996 RMK AO2=
KSVC 081030Z AUTO 06009KT 10SM OVC100 18/14 A3021 RMK AO2=
KTTF 081013Z AUTO 00000KT 7SM SCT075 22/21 A3003 RMK AO2=
KUKT 081010Z AUTO 00000KT 3SM CLR 20/20 A3004 RMK AO1=
KVLL 081014Z AUTO 25003KT 10SM CLR 25/21 A3006 RMK AO2=
KVWU 081011Z AUTO 26007KT 10SM CLR 18/14 A3002 RMK AO2=
KWWR 081029Z AUTO 01005KT 10SM SCT110 22/21 A3015 RMK AO2
     T02180208=
KXVG 081016Z AUTO 23004KT 10SM CLR 16/15 A3004 RMK AO2=
KY70 081015Z AUTO 00000KT 4SM -RA SCT065 SCT075 OVC110 23/22 A3003
     RMK AO2 T02260216=
####018000096####
SAUZ31 UTTW 081030
METAR UTSB 081030Z 01007MPS CAVOK 41/02 Q1007 R01/CLRD70 TEMPO
01008MPS=
####018000313####
SAMC31 GMMC 081030
METAR GMMN 081030Z 36010KT 320V050 9999 SCT010 BKN023 26/19 Q1017
NOSIG=
METAR GMMX 081030Z 32005KT 270V020 7000 FEW026 30/17 Q1017 NOSIG=
METAR GMTT 081030Z 27004KT 210V300 8000 SCT016 SCT100 26/20 Q1016
NOSIG=
METAR GMAD 081030Z NIL=
METAR GMFF 081030Z NIL=
METAR GMME 081030Z NIL=
####018000831####
SAUR30 UKMS 081030
METAR UKBB 081030Z 27004MPS 250V310 9999 BKN030 25/18
         Q1014 88CLRD95    NOSIG=
METAR UKHH 081030Z 18003MPS 110V220 9999 SCT033
         BKN200  30/15 Q1014 260///65 NOSIG=
METAR UKOO 081030Z 35004MPS 330V040 CAVOK 26/15 Q1014
          34090070 NOSIG=
METAR UKDE 081030Z 24003MPS 190V290 9999 SCT050 29/16
          Q1014 20CLRD70 NOSIG=
METAR UKDD 081030Z 00000MPS 9999 SCT033CB BKN200
         29/18  Q1014 08090070 TEMPO VRB10G15MPS -TSRA
         SQ BKN020CB=
METAR UKFF 081030Z 00000MPS 9999 SCT040 29/17 Q1013
         01010070 NOSIG=
METAR UKLL 081030Z 32004MPS 260V010 9999 BKN046 18/11
          Q1021 31210365 NOSIG=
METAR UKCC 081030Z VRB01MPS CAVOK 30/16 Q1015
         08090070 NOSIG=
METAR UKDR 081030Z VRB02MPS 9999 BKN033 OVC200 29/18
         Q1013 1809//70 NOSIG=
####018000096####
SASR31 WSSS 081030
METAR WSSS 081030Z 21004KT 170V250 9999 FEW016 BKN280 29/25 Q1009
NOSIG=
####018000090####
SPCO20 SKBO 081031
SPECI SKBO 081030Z VRB02KT 5000 BR SCT012 SCT070 11/11 A3029 NOSIG=
####018000094####
SAGG31 UGTB 081030
METAR UGTB 081030Z 08011KT 9999 SCT066 34/17 Q1013 NOSIG RMK
31CLRD80=
####018000092####
SPAU32 YBBN 081031
SPECI YBRM 081030Z 36005KT 4000 -RA SCT015 SCT025 OVC045 24/22 Q1011=
####018000080####
SPAK32 KWBC 081033
SPECI
PATC SP 1035 AWOS CLR BLO 120 10 46/42/0209/016=
####018000074####
SACN50 CWAO 081015
WPN SA 1015 AUTO8 M M M M/13/M/0000/M/M M 9MMM=

####018000086####
SAMC32 GMMC 080800 RRC
METAR GMMC 080800Z 02002KT 5000 SCT016 BKN026 22/19 Q1013=
####018000086####
SAMC32 GMMC 080900 RRD
METAR GMMC 080900Z 34002KT 5000 SCT016 BKN026 23/18 Q1013=
####018000091####
SPUS31 KWBC 081033
SPECI
KDFW 081029Z 13004KT 10SM BKN012 BKN019 BKN047 25/23 A3000=
####018000075####
SACN50 CWAO 081030
WHC SA 1030 AUTO8 M M M M/18/12/MMMM/M/M M 25MM=

####018000075####
SACN50 CWAO 081030
VOH SA 1030 AUTO8 M M M M/15/03/0602/M/M M 31MM=

####018000075####
SACN50 CWAO 081030
VOB SA 1030 AUTO8 M M M M/16/07/0000/M/M M 38MM=

####018000163####
SPJP43 KWBC 081033
SPECI
RJOC 081023Z 01004KT 9000 TS FEW010 SCT020 BKN025 FEW025CB 25/20
Q1009 RMK 1ST010 3CU020 6CU025 1CB025 A2981 FBL TS 25KM S MOV N=
####018000077####
SPSA31 KWBC 081033
SPECI
SPZO 081030Z 00000KT 9999 FEW030 04/01 Q1032=
####018000075####
SACN50 CWAO 081030
VOY SA 1030 AUTO8 M M M M/12/07/3301/M/M M 96MM=

####018000075####
SACN94 CWAO 081030
WSK SA 1030 AUTO8 M M M M/16/11/0503/M/M M 86MM=

####018000074####
SACN50 CWAO 081030
WPN SA 1030 AUTO8 M M M M/13/M/0000/M/M M 6MMM=

####018000075####
SACN50 CWAO 081015
VOY SA 1015 AUTO8 M M M M/12/07/3501/M/M M 88MM=

####018000075####
SACN50 CWAO 081030
VOK SA 1030 AUTO8 M M M M/15/06/0701/M/M M 71MM=

####018000081####
SPUS41 KWBC 081033
SPECI
KAKR 081029Z AUTO 00000KT 3SM BR CLR 21/19 A3009=
####018000110####
SPXX62 KWBC 081033
SPECI
RKSO 081028Z AUTO 00000KT 9999 -RA CLR 25/23 A2977 RMK AO2 RAB1028
SLP083 $=
####018001528####
SAUS20 KNKA 081032
METAR K2G4 081020Z AUTO 00000KT 10SM SCT065 22/13 A3019 RMK
     AO1=
METAR K2W6 081021Z AUTO 00000KT 2 1/2SM 24/24 A3001 RMK AO1 SKY
     OBSCURED=
SPECI K9F2 081018Z 11007KT 7SM SCT030 27/24 A2999=
SPECI KBAK 081030Z 00000KT 5SM BR BKN110 21/20 A3006=
METAR KCBE 081021Z AUTO 00000KT 5SM CLR 20/18 A3011 RMK AO1=
METAR KCGE 081019Z AUTO 08003KT 1 1/4SM SCT065 BKN075 OVC090 25/25
     A3001 RMK AO1=
METAR KCGS 081025Z AUTO 00000KT 5SM SCT110 26/23 A3001 RMK AO1=
METAR KFDK 081017Z AUTO 00000KT 5SM HZ SCT100 24/21 A3004 RMK
     AO2=
METAR KDMW 081019Z AUTO 00000KT 4SM HZ CLR 25/21 A3005 RMK AO2=
METAR KESN 081024Z AUTO 00000KT 1 1/4SM BR VV007 22/22 A3004 RMK
     AO2=
METAR KFDW 081035Z AUTO 27003KT 10SM CLR 24/17 A3000 RMK AO1=
METAR KFME 081021Z AUTO 00000KT 2 1/2SM CLR 20/20 A3003 RMK
     AO1=
SPECI KLUK 081031Z AUTO 00000KT 1/2SM R21L/1000V5500FT FG CLR 21/21 
    A3008 RMK AO2=
SPECI KMGJ 081031Z AUTO 00000KT 3SM BR BKN100 22/20 A3004 RMK AO2=
SPECI KMWT 081022Z AUTO 14003KT 10SM SCT002 23/22 A3005 RMK AO2
     TSNO=
METAR KOLV 081035Z AUTO 00000KT 8SM CLR 23/23 A3008 RMK A01 P000 =
SPECI KOWD 081031Z AUTO 16005KT 10SM BKN016 BKN055 22/19 A3008 RMK 
    AO2=
SPECI KPSM 081019Z 16006KT 7SM OVC010 22/21 A3007 RMK AO2A=
SPECI KSGH 081031Z AUTO 00000KT 2SM BR CLR 20/20 A3011 RMK AO2 =
SPECI KTXK 081032Z AUTO 00000KT 1 1/4SM BR OVC001 23/23 A3005 RMK 
    AO2=
METAR KW29 081021Z AUTO 00000KT 2SM CLR 23/23 A3000 RMK AO1=
####018000082####
SPAU31 AMMC 081033
SPECI YBCS 081030Z 18008KT 9999 FEW024 BKN045 23/19 Q1016=
####018000086####
SAUS42 KWBC 081000 RRD
METAR
KGLE 081026Z AUTO 00000KT 10SM OVC024 26/23 A3004=
####018000108####
SPUS52 KWBC 081033
SPECI
KGDP 081031Z AUTO 05017KT 2 1/2SM -RA BR FEW002 BKN011 OVC016
16/16 A3023=
####018000750####
SAUS43 KWBC 081000 RRG
METAR
KC75 081026Z AUTO 00000KT 5SM BR SCT014 BKN039 BKN070 24/23
     A3002=
KIGQ 081020Z AUTO 00000KT 4SM VCTSBR SCT060 BKN065 OVC100 23/22
     A3003=
KIJX 081025Z AUTO 00000KT 4SM -RA CLR 23/23 A3004=
KIKK 081025Z AUTO 08003KT 2 1/2SM VCTSHZ SCT050 SCT085 120 25/22
     A3002=
KJOT 081027Z AUTO 00000KT 1 1/2SM BR VV007 23/22 A3002=
KMQB 081025Z AUTO 27006KT 7SM OVC004 23/23 A3006=
KMWA 081025Z AUTO 00000KT 10SM CLR 24/23 A3006=
KSAR 081025Z AUTO 19005KT 7SM SCT065 26/23 A3004=
KSLO 081022Z AUTO 20004KT 10SM SCT050 24/22 A3005=
KTAZ 081025Z AUTO 00000KT 3SM BR CLR 23/23 A3002=
KTIP 081025Z AUTO 00000KT 4SM BR BKN100 24/23 A3005=
KVYS 081025Z AUTO 00000KT 5SM BR OVC014 23/22 A3003=
####018000085####
SPUS53 KWBC 081033
SPECI
KIRK 081030Z AUTO 00000KT 2 1/2SM BR CLR 19/19 A3007=
####018000088####
SPAU31 AMMC 081033
SPECI YBCS 081030Z 18008KT 9999 FEW024 BKN045 23/19 Q1016=


####018000085####
SPUS53 KWBC 081033
SPECI
KSTC 081030Z AUTO 00000KT 1 1/4SM BR CLR 13/12 A3009=
####018000093####
SAUS52 KWBC 081000 RRD
METAR
KSEP 081025Z AUTO 00000KT 10SM BKN011 BKN090 23/21 A3003=
####018000081####
SAAB31 LATI 081030
METAR LATI 081030Z 05008KT 9999 FEW040 27/12 Q1016 NOSIG=
####018000093####
SPAU32 YBBN 081031
SPECI YBRM 081030Z 36005KT 4000 -RA SCT015 SCT025 OVC045 24/22 Q1011=
####018000852####
SAUR30 UKMS 081030
METAR UKBB 081030Z 27004MPS 250V310 9999 BKN030 25/18
         Q1014 88CLRD95    NOSIG=
METAR UKHH 081030Z 18003MPS 110V220 9999 SCT033
         BKN200  30/15 Q1014 260///65 NOSIG=
METAR UKOO 081030Z 35004MPS 330V040 CAVOK 26/15 Q1014
          34090070 NOSIG=
METAR UKDE 081030Z 24003MPS 190V290 9999 SCT050 29/16
          Q1014 20CLRD70 NOSIG=
METAR UKDD 081030Z 00000MPS 9999 SCT033CB BKN200
         29/18  Q1014 08090070 TEMPO VRB10G15MPS -TSRA
         SQ BKN020CB=
METAR UKFF 081030Z 00000MPS 9999 SCT040 29/17 Q1013 
         01010070 NOSIG=
METAR UKLL 081030Z 32004MPS 260V010 9999 BKN046 18/11
          Q1021 31210365 NOSIG=
METAR UKCC 081030Z VRB01MPS CAVOK 30/16 Q1015
         08090070 NOSIG=
METAR UKDR 081030Z VRB02MPS 9999 BKN033 OVC200 29/18 
         Q1013 1809//70 NOSIG=
####018000099####
SAUZ31 UTTW 081030
METAR UTSB 081030Z 01007MPS CAVOK 41/02 Q1007 R01/CLRD70 TEMPO 
01008MPS=
####018000091####
SPUS72 KWBC 081033
SPECI
KDFW 081029Z 13004KT 10SM BKN012 BKN019 BKN047 25/23 A3000=
####018000142####
SAUS53 KWBC 081000 RRH
METAR
KEHA 081028Z AUTO 35002KT 17/16=
KLNC 081025Z AUTO 00000KT 10SM SCT009 BKN015 OVC020 25/24
     A3000=
####018000085####
SPUS73 KWBC 081033
SPECI
KIRK 081030Z AUTO 00000KT 2 1/2SM BR CLR 19/19 A3007=
####018000081####
SPUS73 KWBC 081033
SPECI
KLOZ 081030Z AUTO 00000KT 2SM BR CLR 19/19 A3011=
####018000085####
SPUS73 KWBC 081033
SPECI
KSTC 081030Z AUTO 00000KT 1 1/4SM BR CLR 13/12 A3009=
####018000108####
SPUS81 KWBC 081033
SPECI
KGDP 081031Z AUTO 05017KT 2 1/2SM -RA BR FEW002 BKN011 OVC016
16/16 A3023=
####018000085####
SPUS81 KWBC 081033
SPECI
KIRK 081030Z AUTO 00000KT 2 1/2SM BR CLR 19/19 A3007=
####018000085####
SPUS81 KWBC 081033
SPECI
KSTC 081030Z AUTO 00000KT 1 1/4SM BR CLR 13/12 A3009=
####018000114####
SAUS73 KWBC 081000 RRG
METAR
KIKK 081025Z AUTO 08003KT 2 1/2SM VCTSHZ SCT050 SCT085 120 25/22
     A3002=
####018000144####
SPNA35 KAWN 081033 RRD
SPECI KWRI 081028Z AUTO 16003KT 1/2SM R18/1600V3000FT R24/1600V2000FT
      FG VV001 23/23 A3001 RMK AO2 SLP162 $=
####018000101####
SAUS90 KWBC 081034
METAR KEHA 081028Z AUTO 35002KT 17/16 RMK AO1 PK WND 09 059
     T01720162=
####018000136####
SPUS90 KWBC 081034
SPECI KGDP 081031Z AUTO 05017KT 2 1/2SM -RA BR FEW002 BKN011
     OVC016 16/16 A3023 RMK AO2 RAB01 P0000 TSNO=
####018000090####
SPCN31 CWAO 081032
SPECI CYGL 081032Z 16005KT 15SM -SHRA FEW030 OVC055 RMK SC1SC7=

####018000086####
SAMC32 GMMC 081000 RRB
METAR GMMC 081000Z 02002KT 5000 SCT016 BKN026 23/18 Q1013=
####018002982####
SAUS20 KNKA 081033
METAR KAFK 081030Z AUTO 36006KT 7SM CLR 19/18 A3012 RMK AO2 
     T01930183=
METAR KANW 081030Z AUTO 00000KT 10SM SCT110 17/15 A3024 RMK AO2 
     T01660148=
METAR KAUH 081030Z AUTO 32005KT 10SM CLR 15/14 A3019 RMK AO2 
     T01530143=
METAR KAUN 081030Z AUTO 08006KT 10SM CLR 21/14 A2987 RMK AO1=
METAR KBIE 081030Z AUTO 34004KT 10SM SCT017 18/17 A3015 RMK AO2 
     T01830171=
SPECI KBJJ 081032Z AUTO 00000KT 1 3/4SM BR CLR 18/18 A3010 RMK AO2=
METAR KBTA 081030Z AUTO 36005KT 10SM CLR 19/17 A3014 RMK AO2 
     T01870171=
METAR KBVN 081030Z AUTO 00000KT 10SM OVC090 17/15 A3020 RMK AO2 
     T01650150=
METAR KCHK 081032Z AUTO 00000KT 7SM CLR 22/22 A3004 RMK AO2=
METAR KCLK 081033Z AUTO 01006KT 10SM -RA SCT016 SCT028 BKN047 
     22/20 A3007 RMK AO2=
METAR KCQB 081032Z AUTO +RA 23/23 RMK AO2 TSNO=
METAR KCUH 081030Z AUTO 00000KT 10SM -DZ SCT018 BKN038 BKN045 
     23/23 A3004 RMK AO2=
SPECI KDDH 081032Z AUTO 00000KT 2SM BR CLR 20/19 A3006 RMK AO2=
SPECI KDMO 081032Z AUTO 07004KT 1SM BR FEW050 23/21 A3003 RMK AO2=
METAR KDUA 081037Z AUTO 14005KT 10SM CLR 24/23 A3003 RMK AO2=
METAR KDVO 081030Z AUTO 34003KT 10SM BKN012 10/10 A2992 RMK AO2=
SPECI KDXR 081032Z AUTO 15004KT 3/4SM BR BKN003 OVC007 22/22 A3007 
    RMK AO2=
METAR KHDE 081030Z AUTO 32004KT 10SM BKN050 BKN120 16/14 A3023 
     RMK AO2 T01550142=
METAR KHJH 081030Z AUTO 00000KT 10SM SCT020 OVC027 19/18 A3017 
     RMK AO2 T01920176=
METAR KIBM 081030Z AUTO 19005KT 7SM SCT004 BKN020 OVC065 13/12 
     A3033 RMK AO2 T01260117=
SPECI KJCT 081022Z AUTO 00000KT 8SM BKN014 OVC040 22/22 A3001 RMK
     AO2 TSNO=
METAR KJSV 081032Z AUTO 12003KT 10SM SCT038 23/22 A3003 RMK AO2 
     LTG DSNT NW=
SPECI KLBX 081032Z AUTO 11004KT 10SM -RA SCT021 SCT060 BKN080 25/24 
    A2988 RMK AO2 TSE08 P0018=
METAR KOAJ 081035Z AUTO 00000KT 10SM CLR 22/21 A2994 RMK AO1=
METAR KOCF 081035Z AUTO 04003KT 9SM BKN002 19/19 A3001 RMK AO1=
METAR KOJA 081030Z AUTO 34003KT 10SM BKN007 OVC013 22/22 A3008 
     RMK AO2=
SPECI KOKB 081032Z AUTO 30003KT 8SM OVC016 17/14 A2989 RMK AO2=
METAR KORS 081030Z AUTO 00000KT 10SM CLR 15/12 A2995 RMK AO2=
METAR KOUN 081033Z AUTO 00000KT 10SM SCT012 BKN024 BKN033 25/23 
     A3004 RMK AO2=
METAR KPLU 081030Z AUTO 00000KT 10SM FEW038 SCT050 SCT075 13/12 
     A2994 RMK AO2=
SPECI KSLK 081032Z AUTO 00000KT 3SM BR CLR 19/17 A3009 RMK AO2=
METAR KSNL 081032Z AUTO 35003KT 7SM OVC005 24/23 A3005 RMK AO2=
METAR KSOP 081035Z AUTO 00000KT 10SM CLR 23/17 A2997 RMK AO1=
METAR KSRE 081030Z AUTO 00000KT 4SM BR 24/24 A3003 RMK AO2=
METAR KTEX 081031Z AUTO 11007KT 10SM BKN110 12/03 A3046 RMK AO2=
METAR KTMK 081033Z AUTO 14004KT 7SM OVC006 12/12 A2996 RMK AO2=
METAR KTQH 081034Z AUTO 00000KT 10SM BKN020 OVC035 23/23 A3004 
     RMK AO2=
METAR KUDG 081035Z 31005KT 10SM CLR 23/18 A2998 RMK AO1=
METAR KWDG 081030Z AUTO 00000KT 10SM SCT095 22/21 A3008 RMK AO2=
####018000075####
SAEG31 HECA 081030
METAR HECA 081030Z 32009KT CAVOK 32/18 Q1011 NOSIG=
####018000100####
SAAJ31 UBBB 081030
METAR UBBG 081030Z 06011KT 9999 SCT083 35/17 Q1010
NOSIG RMK R12L/CLRD70 =
####018000101####
SADL51 ETGT 081020 RRB
METAR
ETGY 081020Z 22004KT 9999 FEW120 BKN250 29/10 Q1019
      BLU+=
####018001169####
SPUS99 KWBC 081034
SPECI
K9F2 081018Z 11007KT 7SM SCT030 27/24 A2999=
KBAK 081030Z 00000KT 5SM BR BKN110 21/20 A3006=
KLUK 081031Z AUTO 00000KT 1/2SM R21L/1000V5500FT FG CLR 21/21
     A3008 RMK AO2=
KMGJ 081031Z AUTO 00000KT 3SM BR BKN100 22/20 A3004 RMK AO2=
KMWT 081022Z AUTO 14003KT 10SM SCT002 23/22 A3005 RMK AO2 TSNO=
KOWD 081031Z AUTO 16005KT 10SM BKN016 BKN055 22/19 A3008 RMK
     AO2=
KPSM 081019Z 16006KT 7SM OVC010 22/21 A3007 RMK AO2A=
KSGH 081031Z AUTO 00000KT 2SM BR CLR 20/20 A3011 RMK AO2=
KTXK 081032Z AUTO 00000KT 1 1/4SM BR OVC001 23/23 A3005 RMK
     AO2=
KBJJ 081032Z AUTO 00000KT 1 3/4SM BR CLR 18/18 A3010 RMK AO2=
KDDH 081032Z AUTO 00000KT 2SM BR CLR 20/19 A3006 RMK AO2=
KDMO 081032Z AUTO 07004KT 1SM BR FEW050 23/21 A3003 RMK AO2=
KDXR 081032Z AUTO 15004KT 3/4SM BR BKN003 OVC007 22/22 A3007 RMK
     AO2=
KJCT 081022Z AUTO 00000KT 8SM BKN014 OVC040 22/22 A3001 RMK AO2
     TSNO=
KLBX 081032Z AUTO 11004KT 10SM -RA SCT021 SCT060 BKN080 25/24
     A2988 RMK AO2 TSE08 P0018=
KOKB 081032Z AUTO 30003KT 8SM OVC016 17/14 A2989 RMK AO2=
KSLK 081032Z AUTO 00000KT 3SM BR CLR 19/17 A3009 RMK AO2=
####018002944####
SAUS99 KWBC 081034
METAR
K2G4 081020Z AUTO 00000KT 10SM SCT065 22/13 A3019 RMK AO1=
K2W6 081021Z AUTO 00000KT 2 1/2SM 24/24 A3001 RMK AO1 SKY
     OBSCURED=
KCBE 081021Z AUTO 00000KT 5SM CLR 20/18 A3011 RMK AO1=
KCGE 081019Z AUTO 08003KT 1 1/4SM SCT065 BKN075 OVC090 25/25 A3001
     RMK AO1=
KCGS 081025Z AUTO 00000KT 5SM SCT110 26/23 A3001 RMK AO1=
KFDK 081017Z AUTO 00000KT 5SM HZ SCT100 24/21 A3004 RMK AO2=
KDMW 081019Z AUTO 00000KT 4SM HZ CLR 25/21 A3005 RMK AO2=
KESN 081024Z AUTO 00000KT 1 1/4SM BR VV007 22/22 A3004 RMK AO2=
KFDW 081035Z AUTO 27003KT 10SM CLR 24/17 A3000 RMK AO1=
KFME 081021Z AUTO 00000KT 2 1/2SM CLR 20/20 A3003 RMK AO1=
KOLV 081035Z AUTO 00000KT 8SM CLR 23/23 A3008 RMK A01 P000=
KW29 081021Z AUTO 00000KT 2SM CLR 23/23 A3000 RMK AO1=
KAFK 081030Z AUTO 36006KT 7SM CLR 19/18 A3012 RMK AO2
     T01930183=
KANW 081030Z AUTO 00000KT 10SM SCT110 17/15 A3024 RMK AO2
     T01660148=
KAUH 081030Z AUTO 32005KT 10SM CLR 15/14 A3019 RMK AO2
     T01530143=
KAUN 081030Z AUTO 08006KT 10SM CLR 21/14 A2987 RMK AO1=
KBIE 081030Z AUTO 34004KT 10SM SCT017 18/17 A3015 RMK AO2
     T01830171=
KBTA 081030Z AUTO 36005KT 10SM CLR 19/17 A3014 RMK AO2
     T01870171=
KBVN 081030Z AUTO 00000KT 10SM OVC090 17/15 A3020 RMK AO2
     T01650150=
KCHK 081032Z AUTO 00000KT 7SM CLR 22/22 A3004 RMK AO2=
KCLK 081033Z AUTO 01006KT 10SM -RA SCT016 SCT028 BKN047 22/20
     A3007 RMK AO2=
KCQB 081032Z AUTO +RA 23/23 RMK AO2 TSNO=
KCUH 081030Z AUTO 00000KT 10SM -DZ SCT018 BKN038 BKN045 23/23
     A3004 RMK AO2=
KDUA 081037Z AUTO 14005KT 10SM CLR 24/23 A3003 RMK AO2=
KDVO 081030Z AUTO 34003KT 10SM BKN012 10/10 A2992 RMK AO2=
KHDE 081030Z AUTO 32004KT 10SM BKN050 BKN120 16/14 A3023 RMK AO2
     T01550142=
KHJH 081030Z AUTO 00000KT 10SM SCT020 OVC027 19/18 A3017 RMK AO2
     T01920176=
KIBM 081030Z AUTO 19005KT 7SM SCT004 BKN020 OVC065 13/12 A3033 RMK
     AO2 T01260117=
KJSV 081032Z AUTO 12003KT 10SM SCT038 23/22 A3003 RMK AO2 LTG DSNT
     NW=
KOAJ 081035Z AUTO 00000KT 10SM CLR 22/21 A2994 RMK AO1=
KOCF 081035Z AUTO 04003KT 9SM BKN002 19/19 A3001 RMK AO1=
KOJA 081030Z AUTO 34003KT 10SM BKN007 OVC013 22/22 A3008 RMK
     AO2=
KORS 081030Z AUTO 00000KT 10SM CLR 15/12 A2995 RMK AO2=
KOUN 081033Z AUTO 00000KT 10SM SCT012 BKN024 BKN033 25/23 A3004
     RMK AO2=
KPLU 081030Z AUTO 00000KT 10SM FEW038 SCT050 SCT075 13/12 A2994
     RMK AO2=
KSNL 081032Z AUTO 35003KT 7SM OVC005 24/23 A3005 RMK AO2=
KSOP 081035Z AUTO 00000KT 10SM CLR 23/17 A2997 RMK AO1=
KSRE 081030Z AUTO 00000KT 4SM BR 24/24 A3003 RMK AO2=
KTEX 081031Z AUTO 11007KT 10SM BKN110 12/03 A3046 RMK AO2=
KTMK 081033Z AUTO 14004KT 7SM OVC006 12/12 A2996 RMK AO2=
KTQH 081034Z AUTO 00000KT 10SM BKN020 OVC035 23/23 A3004 RMK
     AO2=
KUDG 081035Z 31005KT 10SM CLR 23/18 A2998 RMK AO1=
KWDG 081030Z AUTO 00000KT 10SM SCT095 22/21 A3008 RMK AO2=
####018000095####
SACN92 KWBC 081034
METAR CWKX 081000Z AUTO 04002KT 10/04 RMK AO1 SLP238 T00970037
53007=
####018000087####
SACN86 KWBC 081034
METAR CWPS 081000Z AUTO 14007KT 24/ RMK AO1 SLP157 T0240 55001=
####018000087####
SACN97 KWBC 081034
METAR CXTV 081000Z AUTO 30011KT 05/ RMK AO1 SLP170 T0053 51008=
####018000080####
SACN95 KWBC 081034
METAR CWWA 081030Z AUTO 35002KT 19/10 RMK AO1 T01930095=
####018000080####
SACN94 KWBC 081034
METAR CWSK 081030Z AUTO 05003KT 16/11 RMK AO1 T01580106=
####018000186####
SACN87 KWBC 081034
METAR CWWS 081000Z AUTO 30013KT 16/12 RMK AO1 PK WND 31019/0939
SLP133 T01630119 53005=
METAR CWQS 081000Z AUTO 35012KT 13/ RMK AO1 PK WND 36019/0900
T0129=
####018000098####
SAAJ31 UBBB 081030
METAR UBBG 081030Z 06011KT 9999 SCT083 35/17 Q1010
NOSIG RMK R12L/CLRD70 =
####018000342####
SAIE31 EIDB 081030
METAR EIDW 081030Z 22013KT 9999 FEW026 SCT050 BKN130 17/10 Q1015
     NOSIG=
METAR EINN 081030Z 19009KT 9999 FEW016 SCT050 BKN070 16/12 Q1015
     NOSIG=
METAR EICK 081030Z 21010KT 9999 -RA BKN012 BKN060 15/13 Q1016 NOSIG=
METAR EIKN 081030Z 22013KT 180V270 9999 -SHRA FEW015 BKN045 BKN120
     14/10 Q1013 NOSIG=
####018000090####
SPAU31 YBBN 081033
SPECI YBCS 081030Z 18008KT 9999 FEW024 BKN045 23/19 Q1016
RMK FU=
####018000108####
SAUK36 EGGY 081020 CCA
METAR COR EGSH 081020Z 24008KT 210V280 9999 SCT012 SCT019 21/16
    Q1018 NOSIG=
####018000090####
SAUZ31 UTTW 081030
METAR UTSS 081030Z 08005MPS 9999 NSC 36/13 Q1010
R88/CLRD70 NOSIG=
####018000085####
SAMC32 GMMC 081000 RRB
METAR GMMC 081000Z 02002KT 5000 SCT016 BKN026 23/18 Q1013=
####018000243####
SACZ31 LKPW 081030
METAR LKKV 081030Z VRB02KT CAVOK 22/09 Q1024=
METAR LKMT 081030Z 06005KT 340V120 CAVOK 21/10 Q1023 NOSIG=
METAR LKPR 081030Z 28005KT 210V360 CAVOK 23/10 Q1024 NOSIG=
METAR LKTB 081030Z VRB05KT CAVOK 23/08 Q1023 NOSIG=
####018000095####
SAUZ31 UTTW 081030
METAR UTNN 081030Z 25004MPS 220V280 CAVOK 43/06 Q1007 R15/CLRD70
NOSIG=
####018000637####
SPXX60 KWBC 081034
SPECI
KAFF 081028Z AUTO 18005KT 10SM FEW007 SCT014 BKN024 12/12 A3040
     RMK AO2 FEW V SCT SLP213=
KDYS 081030Z 36005KT 7SM BKN008 21/21 A3004 RMK AO2A SLP154 $=
KNZY 081028Z 33008KT 8SM FEW008 OVC016 18/14 A2989 RMK AO2 $=
KOZR 081029Z 00000KT 3/4SM R06/0900V1000FT BR FEW002 22/22 A3003
     RMK AO2A SLP164=
KVOK 081029Z 27004KT 1 1/4SM R27/3500VP6000FT BR CLR 18/18 A3002
     RMK AO2A SLP162=
KVOK 081030Z 27004KT 1 1/2SM R27/3500VP6000FT BR CLR 18/18 A3002
     RMK AO2A SLP162=
PATC SP 1035 AWOS CLR BLO 120 10 46/42/0209/016=
KPSM 081019Z 16006KT 7SM OVC010 22/21 A3007 RMK AO2A=
####018001012####
SAUS70 KWBC 081034 RRB
METAR
KJSV 081032Z AUTO 12003KT 10SM SCT038 23/22 A3003 RMK AO2 LTG DSNT
     NW=
KOAJ 081035Z AUTO 00000KT 10SM CLR 22/21 A2994 RMK AO1=
KOCF 081035Z AUTO 04003KT 9SM BKN002 19/19 A3001 RMK AO1=
KOJA 081030Z AUTO 34003KT 10SM BKN007 OVC013 22/22 A3008 RMK
     AO2=
KORS 081030Z AUTO 00000KT 10SM CLR 15/12 A2995 RMK AO2=
KOUN 081033Z AUTO 00000KT 10SM SCT012 BKN024 BKN033 25/23 A3004
     RMK AO2=
KPLU 081030Z AUTO 00000KT 10SM FEW038 SCT050 SCT075 13/12 A2994
     RMK AO2=
KSNL 081032Z AUTO 35003KT 7SM OVC005 24/23 A3005 RMK AO2=
KSOP 081035Z AUTO 00000KT 10SM CLR 23/17 A2997 RMK AO1=
KSRE 081030Z AUTO 00000KT 4SM BR 24/24 A3003 RMK AO2=
KTEX 081031Z AUTO 11007KT 10SM BKN110 12/03 A3046 RMK AO2=
KTMK 081033Z AUTO 14004KT 7SM OVC006 12/12 A2996 RMK AO2=
KTQH 081034Z AUTO 00000KT 10SM BKN020 OVC035 23/23 A3004 RMK
     AO2=
KUDG 081035Z 31005KT 10SM CLR 23/18 A2998 RMK AO1=
KWDG 081030Z AUTO 00000KT 10SM SCT095 22/21 A3008 RMK AO2=
####018000442####
SAUS80 KWBC 081034
METAR
KEHA 081028Z AUTO 35002KT 17/16 RMK AO1 PK WND 09 059
     T01720162=
KIZA 081029Z AUTO 00000KT 10SM OVC009 13/11 A2991 RMK AO2=
KPTS 081030Z AUTO 00000KT 10SM BKN028 BKN045 BKN065 22/ A3005 RMK
     AO2 LTG DSNT SE T0220=
KPZQ 081015Z AUTO 20007KT 7SM CLR 22/22 A2998 RMK AO2=
KCBE 081021Z AUTO 00000KT 5SM CLR 20/18 A3011 RMK AO1=
KESN 081024Z AUTO 00000KT 1 1/4SM BR VV007 22/22 A3004 RMK AO2=
####018001338####
SPUS70 KWBC 081034
SPECI
KABR 081031Z AUTO 18003KT 3SM BR CLR 13/13 A3013 RMK AO2=
KGLS 081031Z AUTO 16017G23KT 2 1/2SM +RA BR SCT014 BKN026 OVC047
     25/23 A2991 RMK AO2 VIS 1 3/4V5 RAB20 P0017=
KVPZ 081031Z AUTO 06003KT 2 1/2SM BR FEW050 SCT075 OVC095 23/22
     A3004 RMK AO2 LTG DSNT SW RAE26 P0000=
K9F2 081018Z 11007KT 7SM SCT030 27/24 A2999=
KBAK 081030Z 00000KT 5SM BR BKN110 21/20 A3006=
KLUK 081031Z AUTO 00000KT 1/2SM R21L/1000V5500FT FG CLR 21/21
     A3008 RMK AO2=
KMGJ 081031Z AUTO 00000KT 3SM BR BKN100 22/20 A3004 RMK AO2=
KOWD 081031Z AUTO 16005KT 10SM BKN016 BKN055 22/19 A3008 RMK
     AO2=
KSGH 081031Z AUTO 00000KT 2SM BR CLR 20/20 A3011 RMK AO2=
KTXK 081032Z AUTO 00000KT 1 1/4SM BR OVC001 23/23 A3005 RMK
     AO2=
KBJJ 081032Z AUTO 00000KT 1 3/4SM BR CLR 18/18 A3010 RMK AO2=
KDDH 081032Z AUTO 00000KT 2SM BR CLR 20/19 A3006 RMK AO2=
KDMO 081032Z AUTO 07004KT 1SM BR FEW050 23/21 A3003 RMK AO2=
KDXR 081032Z AUTO 15004KT 3/4SM BR BKN003 OVC007 22/22 A3007 RMK
     AO2=
KJCT 081022Z AUTO 00000KT 8SM BKN014 OVC040 22/22 A3001 RMK AO2
     TSNO=
KLBX 081032Z AUTO 11004KT 10SM -RA SCT021 SCT060 BKN080 25/24
     A2988 RMK AO2 TSE08 P0018=
KOKB 081032Z AUTO 30003KT 8SM OVC016 17/14 A2989 RMK AO2=
KSLK 081032Z AUTO 00000KT 3SM BR CLR 19/17 A3009 RMK AO2=
####018000427####
SPUS80 KWBC 081034
SPECI
KCNU 081031Z AUTO 01004KT 9SM BKN005 22/21 A3004 RMK AO2=
KLXV 081020Z AUTO 15003KT 10SM FEW009 BKN028 BKN095 07/06 A3054
     RMK AO2 TSNO=
KMSN 081019Z 00000KT 8SM SCT006 SCT020 BKN025 21/20 A3002 RMK
     AO2=
KGDP 081031Z AUTO 05017KT 2 1/2SM -RA BR FEW002 BKN011 OVC016
     16/16 A3023 RMK AO2 RAB01 P0000 TSNO=
KMWT 081022Z AUTO 14003KT 10SM SCT002 23/22 A3005 RMK AO2 TSNO=
####018003685####
SAUS70 KWBC 081034 RRA
METAR
KJYM 081015Z AUTO 00000KT 5SM BR CLR 20/18 A3007 RMK AO2=
KLAM 081030Z AUTO 20003KT 10SM SCT120 15/08 A3037 RMK AO2=
KLDM 081016Z AUTO 21006KT 10SM -RA BKN090 22/21 A3001 RMK AO2=
KLRU 081031Z AUTO 02004KT 10SM SCT070 SCT080 SCT090 21/14 A3016
     RMK AO2=
KLWA 081016Z AUTO 00000KT 5SM BR CLR 22/21 A3003 RMK AO2=
KMCD 081015Z AUTO 00000KT 10SM BKN120 22/18 A2997 RMK AO2=
KMGN 081015Z AUTO 27003KT 10SM SCT110 21/20 A2996 RMK AO2=
KMOP 081014Z AUTO 18004KT 10SM SCT085 OVC100 23/22 A3003 RMK
     AO2=
KMZH 081011Z AUTO 27003KT 10SM CLR 15/14 A3004 RMK AO2=
KOEB 081015Z AUTO 00000KT 7SM CLR 22/20 A3005 RMK AO2=
KOKM 081031Z AUTO 00000KT 10SM OVC005 24/24 A3004 RMK AO1=
KONP 081030Z AUTO 20008KT 7SM OVC004 11/10 A2999 RMK AO1=
KONZ 081017Z AUTO 00000KT 10SM SCT075 24/20 A3003 RMK AO2=
KORB 081014Z AUTO 22003KT 10SM CLR 14/13 A3000 RMK AO2=
KOSC 081014Z AUTO 28004KT 3SM BR SCT050 SCT060 21/19 A3001 RMK
     AO2=
KOWA 081014Z AUTO 00000KT 7SM CLR 16/16 A3008 RMK AO2=
KOZW 081015Z AUTO 00000KT 7SM CLR 23/20 A3005 RMK AO2=
KPHN 081016Z AUTO 00000KT 1/4SM FG VV002 19/18 A3003 RMK AO2=
KRGK 081015Z AUTO 00000KT 10SM CLR 18/17 A3006 RMK AO2=
KRMY 081015Z AUTO 00000KT 7SM CLR 21/19 A3005 RMK AO2=
KRNP 081015Z AUTO 28005KT 7SM SCT055 SCT070 23/21 A3004 RMK
     AO2=
KRQB 081014Z AUTO 20003KT 10SM OVC090 22/21 A3004 RMK AO2=
KSJX 081016Z AUTO 24007KT 1 1/4SM BR OVC002 20/18 A2997 RMK
     AO2=
KSLH 081015Z AUTO 19003KT 10SM OVC110 21/21 A2996 RMK AO2=
KSVC 081030Z AUTO 06009KT 10SM OVC100 18/14 A3021 RMK AO2=
KTTF 081013Z AUTO 00000KT 7SM SCT075 22/21 A3003 RMK AO2=
KUKT 081010Z AUTO 00000KT 3SM CLR 20/20 A3004 RMK AO1=
KVLL 081014Z AUTO 25003KT 10SM CLR 25/21 A3006 RMK AO2=
KVWU 081011Z AUTO 26007KT 10SM CLR 18/14 A3002 RMK AO2=
KWWR 081029Z AUTO 01005KT 10SM SCT110 22/21 A3015 RMK AO2
     T02180208=
KXVG 081016Z AUTO 23004KT 10SM CLR 16/15 A3004 RMK AO2=
KY70 081015Z AUTO 00000KT 4SM -RA SCT065 SCT075 OVC110 23/22 A3003
     RMK AO2 T02260216=
K2G4 081020Z AUTO 00000KT 10SM SCT065 22/13 A3019 RMK AO1=
K2W6 081021Z AUTO 00000KT 2 1/2SM 24/24 A3001 RMK AO1 SKY
     OBSCURED=
KCGS 081025Z AUTO 00000KT 5SM SCT110 26/23 A3001 RMK AO1=
KFDK 081017Z AUTO 00000KT 5SM HZ SCT100 24/21 A3004 RMK AO2=
KFDW 081035Z AUTO 27003KT 10SM CLR 24/17 A3000 RMK AO1=
KOLV 081035Z AUTO 00000KT 8SM CLR 23/23 A3008 RMK A01 P000=
KW29 081021Z AUTO 00000KT 2SM CLR 23/23 A3000 RMK AO1=
KAFK 081030Z AUTO 36006KT 7SM CLR 19/18 A3012 RMK AO2
     T01930183=
KANW 081030Z AUTO 00000KT 10SM SCT110 17/15 A3024 RMK AO2
     T01660148=
KAUH 081030Z AUTO 32005KT 10SM CLR 15/14 A3019 RMK AO2
     T01530143=
KAUN 081030Z AUTO 08006KT 10SM CLR 21/14 A2987 RMK AO1=
KBIE 081030Z AUTO 34004KT 10SM SCT017 18/17 A3015 RMK AO2
     T01830171=
KBTA 081030Z AUTO 36005KT 10SM CLR 19/17 A3014 RMK AO2
     T01870171=
KBVN 081030Z AUTO 00000KT 10SM OVC090 17/15 A3020 RMK AO2
     T01650150=
KCHK 081032Z AUTO 00000KT 7SM CLR 22/22 A3004 RMK AO2=
KCLK 081033Z AUTO 01006KT 10SM -RA SCT016 SCT028 BKN047 22/20
     A3007 RMK AO2=
KCQB 081032Z AUTO +RA 23/23 RMK AO2 TSNO=
KCUH 081030Z AUTO 00000KT 10SM -DZ SCT018 BKN038 BKN045 23/23
     A3004 RMK AO2=
KDUA 081037Z AUTO 14005KT 10SM CLR 24/23 A3003 RMK AO2=
KDVO 081030Z AUTO 34003KT 10SM BKN012 10/10 A2992 RMK AO2=
KHDE 081030Z AUTO 32004KT 10SM BKN050 BKN120 16/14 A3023 RMK AO2
     T01550142=
KHJH 081030Z AUTO 00000KT 10SM SCT020 OVC027 19/18 A3017 RMK AO2
     T01920176=
KIBM 081030Z AUTO 19005KT 7SM SCT004 BKN020 OVC065 13/12 A3033 RMK
     AO2 T01260117=
####018003730####
SAUS70 KWBC 081034
METAR
K1F0 081027Z AUTO 00000KT 10SM SCT047 SCT060 BKN085 24/24 A3002
     RMK AO2=
K36U 081035Z AUTO 00000KT 10SM CLR 09/05 A3022 RMK AO2=
K4I3 081016Z AUTO 00000KT 7SM CLR 19/18 A3010 RMK AO2=
K4O4 081028Z AUTO 11004KT 23/22 A3005 RMK AO2=
KACB 081015Z AUTO 00000KT 10SM OVC100 24/21 A2997 RMK AO2=
KACQ 081019Z AUTO 00000KT 1/4SM FG VV002 16/15 A3012 RMK AO2=
KADC 081017Z AUTO 24005KT 10SM CLR 14/13 A3008 RMK AO2=
KADH 081030Z AUTO 18004KT 10SM BKN023 23/22 A3003 RMK AO2=
KADM 081030Z AUTO 00000KT 7SM BKN027 BKN039 BKN055 23/23 A3002 RMK
     AO2=
KALM 081030Z AUTO 19003KT 10SM CLR 17/14 A3014 RMK AO2=
KAMN 081016Z AUTO 00000KT 5SM -RA SCT075 OVC085 22/22 A3003 RMK
     AO2=
KAQP 081014Z AUTO 23004KT 10SM CLR 13/13 A3011 RMK AO2=
KATS 081030Z AUTO 33008KT 10SM -RA OVC039 19/17 A3016 RMK AO2=
KAUM 081015Z AUTO 34005KT 7SM CLR 17/16 A3007 RMK AO2=
KAXS 081030Z AUTO 36003KT 10SM BKN029 24/22 A3006 RMK AO2
     T02350217=
KAXX 081030Z AUTO 00000KT 10SM BKN120 05/04 A3048 RMK AO2=
KBAX 081015Z AUTO 00000KT 4SM BR CLR 20/20 A3000 RMK AO2=
KBDH 081015Z AUTO 00000KT 7SM CLR 14/14 A3013 RMK AO2=
KBFW 081013Z AUTO 00000KT 10SM CLR 15/13 A3001 RMK AO2=
KBVS 081030Z AUTO 05007KT 10SM CLR 19/13 A2997 RMK A01 P000=
KCAD 081014Z AUTO 22004KT 10SM OVC110 22/20 A3003 RMK AO2=
KCBG 081015Z AUTO 00000KT 10SM CLR 16/13 A3008 RMK AO2=
KCDA 081015Z AUTO 00000KT 1 1/4SM BR VV007 20/18 A3010 RMK AO2=
KCDD 081011Z AUTO 18004KT 10SM CLR 17/16 A3002 RMK AO2=
KCFE 081015Z AUTO 00000KT 10SM CLR 17/16 A3011 RMK AO2
     T01710156=
KCFS 081015Z AUTO 00000KT 1SM BR VV007 20/20 A3002 RMK AO2=
KCKC 081015Z AUTO 30006KT 10SM CLR 15/13 A3003 RMK AO2=
KCKN 081015Z AUTO 22003KT 10SM CLR 13/12 A3005 RMK AO2=
KCNB 081018Z AUTO 24007KT 10SM CLR 17/13 A3014 RMK AO2
     T01650132=
KCOQ 081016Z AUTO 28005KT 10SM CLR 14/14 A3005 RMK AO2=
KCQM 081017Z AUTO 00000KT 10SM CLR 14/13 A3003 RMK AO2=
KCVX 081015Z AUTO 22003KT 10SM SCT100 BKN110 22/20 A2998 RMK
     AO2=
KDRM 081016Z AUTO 15004KT 1/2SM FG OVC002 20/20 A2995 RMK AO2=
KDTL 081015Z AUTO 00000KT 10SM CLR 16/11 A3009 RMK AO2=
KDUH 081014Z AUTO 00000KT 7SM SCT070 22/18 A3005 RMK AO2=
KDVP 081016Z AUTO 27003KT 10SM CLR 15/13 A3017 RMK AO2
     T01520134=
KERY 081016Z AUTO 27007KT 5SM BR OVC003 20/19 A2997 RMK AO2=
KETH 081014Z AUTO 25006KT 10SM CLR 17/15 A3010 RMK AO2=
KFET 081030Z AUTO 35003KT 10SM CLR 18/16 A3015 RMK AO2=
KFFX 081015Z AUTO 20003KT 5SM -RA SCT040 BKN070 OVC110 22/22 A3003
     RMK AO2=
KFKA 081023Z AUTO 33008KT 10SM CLR 19/18 A3007 RMK AO2
     T01850178=
KFKS 081015Z AUTO 00000KT 10SM OVC090 22/20 A2998 RMK AO2=
KFOZ 081013Z AUTO 00000KT 1/4SM FG OVC001 12/11 A3005 RMK AO2=
KFPK 081016Z AUTO 00000KT 5SM BR CLR 22/20 A3003 RMK AO2=
KFSE 081014Z AUTO 19004KT 10SM CLR 11/11 A3005 RMK AO2=
KGCD 081030Z AUTO 11007KT 10SM CLR 14/04 A3011 RMK AO2
     T01420037=
KGCM 081035Z AUTO 32003KT 3SM +VCTSRA SCT004 OVC012 23/23 A3005
     RMK AO2 LTG DSNT NE S AND SW P0014=
KGMJ 081034Z AUTO 14003KT 26/26 A3004 RMK AO2 P0001 PWINO=
KGOV 081015Z AUTO 23003KT 10SM OVC100 22/22 A3001 RMK AO2=
KHAF 081010Z AUTO 00000KT 9SM OVC006 12/10 A2993 RMK AO2=
KHAI 081015Z AUTO 00000KT 3SM BR CLR 21/21 A3006 RMK AO2=
KHYX 081015Z AUTO 23004KT 7SM CLR 22/20 A3002 RMK AO2=
KIDP 081030Z AUTO 00000KT 10SM SCT110 21/20 A3003 RMK AO2 LTG DSNT
     SE=
KIRS 081015Z AUTO 00000KT 7SM SCT060 21/19 A3005 RMK AO2=
KISQ 081016Z AUTO 31004KT 10SM -RA OVC006 20/18 A2997 RMK AO2=
KJWG 081030Z AUTO 03003KT 5SM BR BKN004 BKN043 22/22 A3009 RMK AO2
     LTG DSNT W=
KJYG 081015Z AUTO 28004KT 10SM CLR 16/16 A3013 RMK AO2=
####018000117####
SAAF35 KWBC 081000 RRE
METAR
HECA 081030Z 32009KT CAVOK 32/18 Q1011 NOSIG=
HSSS 081030Z 36006KT CAVOK Q1008=
####018000095####
SAAO32 KWBC 081000 RRC
METAR
GQNN 081030Z 18008KT 150V210 6000 SCT020 30/23 Q1013 NOSIG=
####018000084####
SPAU31 KWBC 081034
SPECI
YBCS 081030Z 18008KT 9999 FEW024 BKN045 23/19 Q1016=
####018000089####
SABX31 KWBC 081020 RRB
METAR
EBBE 081025Z 32005KT 9999 FEW250 29/10 Q1020 BLU BLU=
####018000089####
SPCN31 KWBC 081034
SPECI
CYGL 081032Z 16005KT 15SM -SHRA FEW030 OVC055 RMK SC1SC7=
####018000093####
SPSA31 KWBC 081034
SPECI
SKBO 081030Z VRB02KT 5000 BR SCT012 SCT070 11/11 A3029 NOSIG=
####018000086####
SAPA32 KWBC 081000 RRB
METAR
NWWW 081030Z AUTO 00000KT 9999NDV NCD 18/16 Q1017=
####018000186####
SARA31 KWBC 081000 RRG
METAR
UBBG 081030Z 06011KT 9999 SCT083 35/17 Q1010 NOSIG RMK
     R12L/CLRD70=
UTSB 081030Z 01007MPS CAVOK 41/02 Q1007 R01/CLRD70 TEMPO
     01008MPS=
####018000732####
SAUR31 KWBC 080950 RRA
METAR
UKBB 081030Z 27004MPS 250V310 9999 BKN030 25/18 Q1014 88CLRD95
     NOSIG=
UKCC 081030Z VRB01MPS CAVOK 30/16 Q1015 08090070 NOSIG=
UKDD 081030Z 00000MPS 9999 SCT033CB BKN200 29/18 Q1014 08090070
     TEMPO VRB10G15MPS -TSRA SQ BKN020CB=
UKDE 081030Z 24003MPS 190V290 9999 SCT050 29/16 Q1014 20CLRD70
     NOSIG=
UKDR 081030Z VRB02MPS 9999 BKN033 OVC200 29/18 Q1013 1809//70
     NOSIG=
UKFF 081030Z 00000MPS 9999 SCT040 29/17 Q1013 01010070 NOSIG=
UKHH 081030Z 18003MPS 110V220 9999 SCT033 BKN200 30/15 Q1014
     260///65 NOSIG=
UKLL 081030Z 32004MPS 260V010 9999 BKN046 18/11 Q1021 31210365
     NOSIG=
UKOO 081030Z 35004MPS 330V040 CAVOK 26/15 Q1014 34090070 NOSIG=
####018000088####
SAXX99 KWBC 080500 RRX
METAR
GMMC 080500Z 02002KT 5000 SCT016 BKN026 21/19 Q1013=
####018000088####
SAXX99 KWBC 080800 RRX
METAR
GMMC 080800Z 02002KT 5000 SCT016 BKN026 22/19 Q1013=
####018000309####
SAXX99 KWBC 081000 RRW
METAR
CYGW 081000Z 23011KT 10SM BKN030 BKN080 19/13 A2989 RMK SC5AC2 VIA
     YQB FIC SLP121=
ETGY 081020Z 22004KT 9999 FEW120 BKN250 29/10 Q1019 BLU+=
GMAD 081030Z NIL=
GMMC 081000Z 02002KT 5000 SCT016 BKN026 23/18 Q1013=
K4O4 081028Z AUTO 11004KT 23/22 A3005 RMK AO2=
####018000088####
SAXX99 KWBC 080900 RRX
METAR
GMMC 080900Z 34002KT 5000 SCT016 BKN026 23/18 Q1013=
####018000088####
SAXX99 KWBC 080600 RRX
METAR
GMMC 080600Z 36002KT 5000 SCT016 BKN026 22/19 Q1013=
####018000088####
SAXX99 KWBC 080700 RRX
METAR
GMMC 080700Z 06002KT 5000 SCT016 BKN026 22/19 Q1013=
####018000111####
SPUS42 KWBC 081034
SPECI
KGLS 081031Z AUTO 16017G23KT 2 1/2SM +RA BR SCT014 BKN026 OVC047
25/23 A2991=
####018000075####
SACN88 CWAO 081030
ABB SA 1030 AUTO7 M M M M/21/18/2701/M/M M 79MM=

####018000764####
SAEW32 LEMM 081030
METAR LEAS 081030Z 34004KT 290V020 9999 SCT003 OVC014 20/19 Q1019 
NOSIG=
METAR LEBB 081030Z 29010KT 8000 NSC 27/21 Q1015 NOSIG=
METAR LECO 081030Z 00000KT 9999 FEW010 24/21 Q1014=
METAR LEGE 081030Z 10001KT CAVOK 33/15 Q1019=
METAR LEST 081030Z 12009KT 080V140 CAVOK 22/19 Q1015 NOSIG=
METAR LEZG 081030Z 09009KT 060V120 CAVOK 33/16 Q1018=
METAR LESO 081030Z 03006KT 340V060 CAVOK 25/20 Q1015=
METAR LEVT 081030Z 09001KT CAVOK 32/15 Q1018=
METAR LERS 081030Z 21007KT 150V260 CAVOK 28/17 Q1019=
METAR LEMH 081030Z VRB03KT CAVOK 29/20 Q1021=
METAR LEAM 081030Z 07010KT 020V100 CAVOK 37/04 Q1016=
METAR LEGR 081030Z 17013KT 140V200 9999 FEW060 38/07 Q1018=
METAR LERL 081030Z 06008KT 340V100 9999 FEW050 32/10 Q1019=
####018000575####
SAEW31 LEMM 081030
METAR LEMD 081030Z 18002KT CAVOK 33/12 Q1019 NOSIG=
METAR LEBL 081030Z 20015KT CAVOK 27/21 Q1019 NOSIG=
METAR LEPA 081030Z 22006KT 190V260 CAVOK 31/13 Q1020 NOSIG=
METAR LEZL 081030Z 29005KT 200V350 9999 SCT020 30/17 Q1016 NOSIG=
METAR LEMG 081030Z 18010KT 140V240 9999 FEW030 30/15 Q1017 NOSIG=
METAR LEVC 081030Z VRB03KT CAVOK 32/19 Q1019 NOSIG=
METAR LEAL 081030Z 08010KT CAVOK 31/14 Q1019 NOSIG=
METAR LEIB 081030Z 08010KT 050V150 CAVOK 29/21 Q1019 NOSIG=
METAR LELC 081030Z NIL=
METAR COR LEVX 081030Z 27008KT CAVOK 27/22 Q1013=
####018000371####
SAEW33 LEMM 081030
METAR GCLP 081030Z 02024KT 350V050 9999 FEW020 25/18 Q1017 NOSIG=
METAR COR GCXO 081030Z 28013KT 250V310 9999 R12/1000VP2000U VCFG 
FEW001 SCT003 18/17 Q1020 NOSIG=
METAR GCTS 081030Z 07014KT 9999 FEW015 24/18 Q1018 NOSIG=
METAR GCRR 081030Z 36014G26KT 320V040 9999 FEW020 25/18 Q1017=
METAR GCFV 081030Z 06011KT 9999 FEW018 23/18 Q1017=
####018000081####
SPUS52 KWBC 081034
SPECI
KABR 081031Z AUTO 18003KT 3SM BR CLR 13/13 A3013=
####018000081####
SPUS53 KWBC 081034
SPECI
KCNU 081031Z AUTO 01004KT 9SM BKN005 22/21 A3004=
####018000145####
SAEW36 LEMM 081030
METAR GCLA 081030Z 01013KT 340V040 9999 BKN020 24/17 Q1019=
METAR GEML 081030Z 07008KT 020V120 9999 FEW012 26/21 Q1017=
####018000297####
SAEW34 LEMM 081030
METAR LEDA 081030Z 11007KT 070V180 CAVOK 33/13 Q1019=
METAR LEJR 081030Z 24003KT 170V290 CAVOK 28/18 Q1016=
METAR LELL 081030Z 14002KT CAVOK 31/14 Q1019=
METAR LEPP 081030Z 19003KT 9999 FEW060 34/15 Q1019=
METAR LEXJ 081030Z 29008KT 260V340 9999 SCT018 24/19 Q1016=
####018000181####
SAEW35 LEMM 081030
METAR LESA 081030Z VRB02KT CAVOK 33/14 Q1019=
METAR LEVD 081030Z 22003KT 160V300 CAVOK 32/10 Q1020=
METAR LEVS 081030Z 09004KT 030V150 CAVOK 30/13 Q1020=
####018000111####
SPUS72 KWBC 081034
SPECI
KGLS 081031Z AUTO 16017G23KT 2 1/2SM +RA BR SCT014 BKN026 OVC047
25/23 A2991=
####018000081####
SPUS73 KWBC 081034
SPECI
KABR 081031Z AUTO 18003KT 3SM BR CLR 13/13 A3013=
####018000096####
SAGG31 UGTB 081030
METAR UGTB 081030Z 08011KT 9999 SCT066 34/17 Q1013 NOSIG RMK 
31CLRD80=
####018000093####
SAUZ31 UTTW 081030
METAR UTSS 081030Z 08005MPS 9999 NSC 36/13 Q1010 
R88/CLRD70 NOSIG=
####018000098####
SAUZ31 UTTW 081030
METAR UTNN 081030Z 25004MPS 220V280 CAVOK 43/06 Q1007 R15/CLRD70 
NOSIG=
####018000081####
SPUS81 KWBC 081034
SPECI
KCNU 081031Z AUTO 01004KT 9SM BKN005 22/21 A3004=
####018000089####
SAIL31 BICC 081030
METAR BIKF 081030Z 03024KT 9999 FEW015 SCT032 BKN070 10/05 Q0993=
####018000519####
SAYG31 LYBM 081030
METAR LYBE 081030Z 34011KT 9999 SCT040 21/12 Q1022 NOSIG=
METAR LYBT 081030Z VRB11KT CAVOK 22/13 Q1021 NOSIG=
METAR LYKV 081030Z 32008KT 280V350 9999 SCT035 18/16 Q1022 NOSIG=
METAR LYNI 081030Z 32011KT 9999 SCT023 BKN030 18/13 Q1021 NOSIG=
METAR LYPG 081030Z 02016KT 360V060 9999 FEW040 27/08 Q1018 NOSIG=
METAR LYPR 081030Z NIL=
METAR LYTV 081030Z NIL=
METAR LYUZ 081030Z 31007KT 220V020 9999 BKN020 13/10 Q1024 NOSIG=
METAR LYVR 081030Z VRB05KT 9999 FEW030 BKN040 21/13 Q1020=
####018000247####
SACZ31 LKPW 081030
METAR LKKV 081030Z VRB02KT CAVOK 22/09 Q1024=
METAR LKMT 081030Z 06005KT 340V120 CAVOK 21/10 Q1023 NOSIG=
METAR LKPR 081030Z 28005KT 210V360 CAVOK 23/10 Q1024 NOSIG=
METAR LKTB 081030Z VRB05KT CAVOK 23/08 Q1023 NOSIG=
####018000349####
SAIE31 EIDB 081030
METAR EIDW 081030Z 22013KT 9999 FEW026 SCT050 BKN130 17/10 Q1015
     NOSIG=
METAR EINN 081030Z 19009KT 9999 FEW016 SCT050 BKN070 16/12 Q1015
     NOSIG=
METAR EICK 081030Z 21010KT 9999 -RA BKN012 BKN060 15/13 Q1016 NOSIG=
METAR EIKN 081030Z 22013KT 180V270 9999 -SHRA FEW015 BKN045 BKN120
     14/10 Q1013 NOSIG=
####018000188####
SPAU31 AMMC 081034
SPECI YSSY 081030Z 20010KT 9999 -SHRA FEW008 SCT020 BKN040 12/11 Q1027
     FM1030 22010KT 9999 -SHRA SCT025 BKN040
     INTER 1030/1330 5000 SHRA BKN010=


####018000929####
SAUK KAWN 081000 RRH
METAR EGAE 081020Z 23015KT 9999 FEW018 SCT040 16/10 Q1012=
METAR EGBJ 081020Z 24005KT 190V280 9999 FEW035 21/11 Q1018=
METAR EGNC 081020Z 24015KT 9999 SCT025 SCT045 16/10 Q1015=
METAR EGNH 081020Z 24013KT 9999 SCT024 19/11 Q1017=
METAR EGNJ 081020Z 22012KT 9999 SCT035 19/12 Q1017=
METAR EGPA 081020Z 20012KT 170V240 9999 VCSH FEW020 SCT045 17/11 Q1007=
METAR EGPC 081020Z 20016KT 9999 FEW020 16/11 Q1008=
METAR EGPE 081020Z 23018KT 9999 VCSH FEW012 SCT034 19/10 Q1009=
METAR EGPL 081020Z 23018KT 9999 VCSH SCT018 15/12 Q1007 RESHRA=
METAR COR EGPM 081020Z 22023KT 200V030 9999 FEW014 SCT035 15/10 Q1005
      NOSIG=
METAR EGPN 081020Z 23016KT 9999 FEW028 SCT045 16/11 Q1012=
METAR EGPO 081020Z 20018KT 9999 VCSH FEW012CB SCT030 15/12 Q1005=
METAR EGSC 081020Z 23005KT 160V280 9000 FEW020 SCT030 20/14 Q1018=
METAR EGSH 081020Z 24008KT 210V280 9999 SCT012 SCT019 21/16 Q1018=
####018000291####
SPUS17 KAWN 081034 RRD
SPECI KAFF 081028Z AUTO 18005KT 10SM FEW007 SCT014 BKN024 12/12 A3040
      RMK AO2 FEW V SCT SLP213=
SPECI KDYS 081030Z 36005KT 7SM BKN008 21/21 A3004 RMK AO2A SLP154 $=
SPECI KNRS 081029Z AUTO 29007KT 10SM SCT007 OVC016 16/14 A2990 RMK
      AO2 TSNO $=
####018000362####
SAXX70 KAWN 081000 RRR
METAR KQEJ 081020Z AUTO 11002KT 7SM SCT080 24/19 A2991 RMK A02=
METAR KQEL 081030Z AUTO 03002KT 7SM FEW039 FEW100 24/20 A2972 RMK A02=
METAR KQEQ 081030Z AUTO 05001KT 7SM BKN120 23/20 A2979 RMK A02=
METAR KQEW 081030Z AUTO 29004KT 7SM CLR 26/21 A2981 RMK A02=
METAR KQFB 081030Z AUTO 29005KT 5SM BR FEW028 25/21 A2992 RMK A02=
####018000182####
SPAU31 AMMC 081034
SPECI YSSY 081030Z 20010KT 9999 -SHRA FEW008 SCT020 BKN040 12/11 Q1027
     FM1030 22010KT 9999 -SHRA SCT025 BKN040
     INTER 1030/1330 5000 SHRA BKN010=
####018000382####
SAIR31 OIII 081030
METAR OIAW 081030Z NIL=
METAR OIFM 081030Z NIL=
METAR OIII 081030Z 14010KT CAVOK 39/M03 Q1013 A2994 878.9=
METAR OIKB 081030Z NIL=
METAR OIKK 081030Z NIL=
METAR OIMM 081030Z 03008KT CAVOK 39/M02 Q1014 A2995=
METAR OISS 081030Z NIL=
METAR OITT 081030Z 06006KT CAVOK 37/03 Q1014 A2995=
METAR OIZH 081030Z 32006KT 9999 FEW045 38/M02 Q1012 A2991=
####018001709####
SAEU KAWN 081000 RRX
METAR EBBE 081025Z 32005KT 9999 FEW250 29/10 Q1020 BLU BLU=
METAR EIKN 081030Z 22013KT 180V270 9999 -SHRA FEW015 BKN045 BKN120
      14/10 Q1013 NOSIG=
METAR EPGD 081030Z VRB05KT CAVOK 24/10 Q1021=
METAR EPKK 081030Z 34005KT 290V020 9999 FEW053 22/08 Q1022=
METAR EPKT 081030Z 28005KT CAVOK 21/08 Q1023=
METAR EPPO 081030Z VRB05KT CAVOK 23/08 Q1022=
METAR EPRZ 081030Z 31009KT 9999 SCT040 21/11 Q1021=
METAR EPWA 081030Z 30010KT 250V340 9999 FEW046 22/11 Q1021 NOSIG=
METAR EPWR 081030Z VRB03KT CAVOK 24/10 Q1023=
METAR ETGY 081020Z 22004KT 9999 FEW120 BKN250 29/10 Q1019 BLU/=
METAR LATI 081030Z 05008KT 9999 FEW040 27/12 Q1016 NOSIG=
METAR LBBG 081030Z 32005MPS 270V360 9999 BKN025 BKN035 19/14 Q1015
      NOSIG=
METAR LBGO 081030Z VRB01MPS 7000 RA BKN020 OVC040 15/14 Q1018 RERA
      NOSIG=
METAR LBPD 081030Z 26006MPS 9999 SCT050 BKN075 16/14 Q1017 NOSIG=
METAR LBSF 081030Z 28006MPS 9999 BKN033 18/12 Q1018 NOSIG=
METAR LBWN 081030Z 27006MPS 240V300 9999 BKN025 19/15 Q1014 NOSIG=
METAR LHBP 081030Z 24007KT 180V290 CAVOK 23/11 Q1021 NOSIG=
METAR LKKV 081030Z VRB02KT CAVOK 22/09 Q1024=
METAR LKMT 081030Z 06005KT 340V120 CAVOK 21/10 Q1023 NOSIG=
METAR LKPR 081030Z 28005KT 210V360 CAVOK 23/10 Q1024 NOSIG=
METAR LKTB 081030Z VRB05KT CAVOK 23/08 Q1023 NOSIG=
METAR LWOH 081030Z VRB03KT 9999 FEW035 BKN045 19/09 Q1019=
METAR LYBE 081030Z 34011KT 9999 SCT040 21/12 Q1022 NOSIG=
METAR LYNI 081030Z 32011KT 9999 SCT023 BKN030 18/13 Q1021 NOSIG=
METAR LYPG 081030Z 02016KT 360V060 9999 FEW040 27/08 Q1018 NOSIG=
METAR LZIB 081030Z 33009KT 280V030 CAVOK 23/07 Q1022=
METAR LZTT 081030Z VRB02KT 9999 FEW040 21/08 Q1022 NOSIG=
####018000085####
SAAU32 AMMC 080900 RRA
METAR YSCB 080900Z 08001KT 9999 FEW050 06/03 Q1027=


####018000079####
SAAU32 AMMC 080900 RRA
METAR YSCB 080900Z 08001KT 9999 FEW050 06/03 Q1027=
####018000089####
SAMG20 FMMI 081030
METAR FMMI 081030Z 13007KT 080V180 9999 BKN020 19/13 Q1025 NOSIG=
####018000079####
SAAU32 AMMC 080900 CCA
METAR YSCB 080900Z 08001KT 9999 FEW050 06/03 Q1027=
####018000458####
SACO20 SKBO 080500
METAR
SKBO 080500Z 33003KT 6000 HZ BKN012 12/11 A3035=
SKBQ 080500Z 00000KT 9999 SCT006 26/26 A2992=
SKCG 080500Z 11005KT 9999 SCT013 BKN070 28/26 A2990=
SKCL 080500Z 00000KT 9999 FEW025 BKN100 21/19 A3003=
SKLT 080500Z 00000KT CAVOK 25/24 A2986=
SKPE 080500Z VRB02KT 9999 FEW010 SCT070 19/18 A3012=
SKRG 080500Z 00000KT 1200S BCFG BKN005 BKN080 14/14 A3032=
SKSP 080500Z 00000KT 9999 FEW013 SCT200 27/25 A2988=
NNNN
####018000344####
SACO20 SKBO 080600
METAR
SKBO 080600Z 00000KT 9999 BKN012 12/11 A3032=
SKBQ 080600Z 00000KT 9999 FEW006 26/26 A2990=
SKCG 080600Z VRB02KT 9999 SCT012 BKN070 28/26 A2988=
SKCL 080600Z 35003KT 9999 FEW025 BKN100 20/18 A3001=
SKLT 080600Z 00000KT CAVOK 25/24 A2985=
SKRG 080600Z 00000KT 3500 BCFG BKN006 BKN080 14/14 A3030=
NNNN
####018000557####
SACO20 SKBO 080400
METAR
SKBG 080400Z 00000KT 9999 FEW010 BKN080 19/18 A3006=
SKBO 080400Z 00000KT 9000 BKN014 12/11 A3035=
SKBQ 080400Z 00000KT 9999 BKN006 26/26 A2993=
SKCG 080400Z VRB02KT 9999 BKN013 SCT070 29/25 A2992=
SKCL 080400Z 06004KT 9999 FEW025 BKN090 20/19 A3003=
SKLT 080400Z 06004KT CAVOK 25/24 A2988=
SKNV 080400Z 00000KT 9999 FEW045 25/22 A2992=
SKPE 080400Z 00000KT 9999 FEW010 SCT070 19/18 A3013=
SKRG 080400Z 00000KT 7000 BKN010 BKN080 14/14 A3033=
SKSP 080400Z 00000KT 9999 FEW013 SCT080 27/24 A2988 REDZ=
NNNN
####018000322####
SACO20 SKBO 080800
METAR
SKBO 080800Z VRB02KT 9999 BKN012 11/11 A3029=
SKBQ 080800Z 29004KT 2000 BCFG BKN002 25/25 A2987=
SKCG 080800Z VRB02KT 9999 FEW012 SCT070 28/26 A2987=
SKCL 080800Z 00000KT 9999 FEW025 BKN100 20/18 A2999=
SKLT 080800Z NIL=
SKRG 080800Z 00000KT 9999 BKN006 BKN080 14/14 A3027=
NNNN
####018000379####
SACO20 SKBO 081000
METAR
SKBO 081000Z VRB02KT 7000 HZ BKN012 12/11 A3029=
SKBQ 081000Z 20004KT 9999 FEW002 25/25 A2986=
SKCG 081000Z 00000KT 9999 FEW013 SCT070 26/25 A2985=
SKCL 081000Z NIL=
SKLT 081000Z 00000KT 9999 FEW015 SCT080 24/24 A2987=
SKPE 081000Z VRB02KT 9999 FEW010 SCT070 17/16 A3010=
SKRG 081000Z 00000KT 8000 -DZ SCT012 BKN080 14/14 A3027=
NNNN
####018000302####
SACO20 SKBO 080700
METAR
SKBO 080700Z 00000KT 9999 BKN012 12/11 A3030=
SKBQ 080700Z 00000KT 9999 SCT006 25/25 A2989=
SKCG 080700Z 11004KT 9999 FEW012 SCT070 28/26 A2988=
SKCL 080700Z VRB02KT 9999 FEW025 BKN100 21/19 A3000=
SKRG 080700Z 00000KT 5000 BCFG BKN006 BKN080 14/14 A3028=
NNNN
####018000358####
SACO20 SKBO 080900
METAR
SKBO 080900Z 00000KT 6000 HZ BKN012 12/11 A3028=
SKBQ 080900Z 15004KT 3000 BR SCT002 25/25 A2987=
SKCG 080900Z VRB02KT 9999 FEW012 BKN070 26/25 A2987=
SKCL 080900Z 00000KT 9999 FEW025 BKN090 20/19 A2999=
SKLT 080900Z 00000KT 9999 FEW016 SCT080 24/24 A2986=
SKRG 080900Z 00000KT 6000 BKN006 BKN080 14/14 A3028=
NNNN
####018002502####
SAUS20 KNKA 081034
METAR KPMV 081030Z AUTO 33003KT 7SM CLR 19/19 A3013 RMK AO2 
     T01920185=
METAR KAIK 081035Z AUTO 28005KT 10SM CLR 22/22 A3004 RMK AO2 PNO=
METAR KARW 081035Z AUTO 26004KT 10SM CLR 24/19 A2998 RMK AO2=
METAR KBDN 081035Z AUTO 00000KT 10SM CLR 13/03 A3011 RMK AO2 =
SPECI KBOK 081034Z AUTO 00000KT 3/4SM BR OVC002 09/09 A2996 RMK AO2 
    $=
SPECI KDAW 081033Z AUTO 00000KT 1 1/4SM BR 22/21 A3008 RMK AO2 $=
SPECI KDDC 081033Z AUTO 01008KT 5SM BR OVC003 18/17 A3018 RMK AO2=
SPECI KESF 081033Z AUTO 00000KT 3SM BR CLR 22/22 A3003 RMK AO2=
METAR KFTN 081035Z AUTO 05003KT 10SM OVC019 25/23 A2991 RMK AO1 =
METAR KGLY 081035Z AUTO 00000KT 5SM  BR FEW110 22/22 A3004 RMK AO2 
     LTG DSNT SE =
SPECI KHUL 081033Z AUTO 20007KT 4SM BR FEW009 21/19 A3003 RMK AO2=
SPECI KHYA 081033Z 12003KT 10SM SCT001 BKN006 OVC016 21/21 A3009 RMK 
    AO2=
METAR KJYR 081030Z AUTO 00000KT 10SM CLR 15/15 A3018 RMK AO2=
SPECI KLAR 081033Z AUTO 28003KT 1SM BR SCT002 BKN007 BKN019 06/06 
    A3039 RMK AO2=
METAR KLCG 081030Z AUTO 00000KT 10SM CLR 15/14 A3018 RMK AO2 
     T01510140=
METAR KLHM 081031Z AUTO 14009KT 10SM CLR 17/11 A2982 RMK AO1 
     T01660109=
METAR KLXN 081030Z AUTO 00000KT 10SM OVC080 17/16 A3023 RMK AO2 
     T01660157=
METAR KMEZ 081035Z AUTO 19003KT 7SM SCT013 SCT018 OVC039 25/23 
     A3008 RMK AO2=
METAR KMLE 081030Z AUTO 00000KT 10SM BKN028 20/17 A3014 RMK AO2 
     T02000170=
METAR KMMH 081030Z AUTO 00000KT 10SM CLR 09/01 A3021 RMK AO1=
METAR KOGA 081030Z AUTO 00000KT 10SM BKN095 15/14 A3027 RMK AO2 
     T01500140=
METAR KONL 081030Z AUTO 29005KT 10SM BKN110 17/15 A3022 RMK AO2 
     T01660148=
SPECI KORF 081024Z 08005KT 10SM BKN010 BKN110 26/24 A2997 RMK
     AO2=
METAR KPNA 081030Z AUTO 30006KT 10SM CLR 04/01 A3039 RMK AO2 
     T00390010=
METAR KPSO 081035Z AUTO 00000KT 10SM CLR 08/05 A3039 RMK AO2=
METAR KPTT 081030Z AUTO 01007KT 5SM BR BKN004 BKN008 20/19 A3014 
     RMK AO2=
SPECI KRFD 081025Z 25004KT 8SM BKN006 OVC011 22/21 A3004 RMK
     AO2=
METAR KSOW 081030Z AUTO 12003KT 10SM SCT110 21/03 A3025 RMK AO2=
METAR KSPL 081035Z AUTO 03007KT 28/25 A2975 RMK AO2 PWINO PNO =
METAR KSUN 081031Z AUTO 32011G14KT 10SM CLR 11/01 A3023 RMK AO2=
METAR KSZT 081030Z AUTO 00000KT 10SM CLR 09/07 A3011 RMK AO2=
METAR KTIF 081030Z AUTO 00000KT 10SM SCT085 OVC095 15/14 A3026 
     RMK AO2 T01540141=
METAR KTRK 081030Z AUTO 00000KT 10SM CLR 09/08 A3015 RMK AO2=
####018000085####
SAAU32 AMMC 080900 CCA
METAR YSCB 080900Z 08001KT 9999 FEW050 06/03 Q1027=


####018001757####
SAEU KAWN 081000 RRX
METAR COR EGSH 081020Z 24008KT 210V280 9999 SCT012 SCT019 21/16 Q1018
      NOSIG=
METAR EICK 081030Z 21010KT 9999 -RA BKN012 BKN060 15/13 Q1016 NOSIG=
METAR EIDW 081030Z 22013KT 9999 FEW026 SCT050 BKN130 17/10 Q1015 NOSIG=
METAR EINN 081030Z 19009KT 9999 FEW016 SCT050 BKN070 16/12 Q1015 NOSIG=
METAR LEAL 081030Z 08010KT CAVOK 31/14 Q1019 NOSIG=
METAR LEAM 081030Z 07010KT 020V100 CAVOK 37/04 Q1016=
METAR LEAS 081030Z 34004KT 290V020 9999 SCT003 OVC014 20/19 Q1019 NOSIG=
METAR LEBB 081030Z 29010KT 8000 NSC 27/21 Q1015 NOSIG=
METAR LEBL 081030Z 20015KT CAVOK 27/21 Q1019 NOSIG=
METAR LECO 081030Z 00000KT 9999 FEW010 24/21 Q1014=
METAR LEGE 081030Z 10001KT CAVOK 33/15 Q1019=
METAR LEGR 081030Z 17013KT 140V200 9999 FEW060 38/07 Q1018=
METAR LEIB 081030Z 08010KT 050V150 CAVOK 29/21 Q1019 NOSIG=
METAR LEMD 081030Z 18002KT CAVOK 33/12 Q1019 NOSIG=
METAR LEMG 081030Z 18010KT 140V240 9999 FEW030 30/15 Q1017 NOSIG=
METAR LEMH 081030Z VRB03KT CAVOK 29/20 Q1021=
METAR LEPA 081030Z 22006KT 190V260 CAVOK 31/13 Q1020 NOSIG=
METAR LERS 081030Z 21007KT 150V260 CAVOK 28/17 Q1019=
METAR LESA 081030Z VRB02KT CAVOK 33/14 Q1019=
METAR LESO 081030Z 03006KT 340V060 CAVOK 25/20 Q1015=
METAR LEST 081030Z 12009KT 080V140 CAVOK 22/19 Q1015 NOSIG=
METAR LEVC 081030Z VRB03KT CAVOK 32/19 Q1019 NOSIG=
METAR LEVD 081030Z 22003KT 160V300 CAVOK 32/10 Q1020=
METAR LEVS 081030Z 09004KT 030V150 CAVOK 30/13 Q1020=
METAR LEVT 081030Z 09001KT CAVOK 32/15 Q1018=
METAR COR LEVX 081030Z 27008KT CAVOK 27/22 Q1013=
METAR LEXJ 081030Z 29008KT 260V340 9999 SCT018 24/19 Q1016=
METAR LEZG 081030Z 09009KT 060V120 CAVOK 33/16 Q1018=
METAR LEZL 081030Z 29005KT 200V350 9999 SCT020 30/17 Q1016 NOSIG=
####018000073####
SAIR31 OIII 081030
METAR OIAW 081030Z NIL=
METAR OIFM 081030Z NIL=
####018000097####
SAUZ31 UTTW 081030
METAR UTNN 081030Z 25004MPS 220V280 CAVOK 43/06 Q1007 R15/CLRD70
NOSIG=
####018000092####
SAUZ31 UTTW 081030
METAR UTSS 081030Z 08005MPS 9999 NSC 36/13 Q1010
R88/CLRD70 NOSIG=
####018000098####
SAUS44 KSHV 081034
MTRAQV
SPECI KAQV 081033Z AUTO 08003KT 10SM SCT018 23/23 A3001 RMK AO2 $
####018001675####
SAUS99 KWBC 081035
METAR
KPMV 081030Z AUTO 33003KT 7SM CLR 19/19 A3013 RMK AO2
     T01920185=
KAIK 081035Z AUTO 28005KT 10SM CLR 22/22 A3004 RMK AO2 PNO=
KARW 081035Z AUTO 26004KT 10SM CLR 24/19 A2998 RMK AO2=
KBDN 081035Z AUTO 00000KT 10SM CLR 13/03 A3011 RMK AO2=
KFTN 081035Z AUTO 05003KT 10SM OVC019 25/23 A2991 RMK AO1=
KGLY 081035Z AUTO 00000KT 5SM BR FEW110 22/22 A3004 RMK AO2 LTG
     DSNT SE=
KJYR 081030Z AUTO 00000KT 10SM CLR 15/15 A3018 RMK AO2=
KLCG 081030Z AUTO 00000KT 10SM CLR 15/14 A3018 RMK AO2
     T01510140=
KLHM 081031Z AUTO 14009KT 10SM CLR 17/11 A2982 RMK AO1
     T01660109=
KLXN 081030Z AUTO 00000KT 10SM OVC080 17/16 A3023 RMK AO2
     T01660157=
KMEZ 081035Z AUTO 19003KT 7SM SCT013 SCT018 OVC039 25/23 A3008 RMK
     AO2=
KMLE 081030Z AUTO 00000KT 10SM BKN028 20/17 A3014 RMK AO2
     T02000170=
KMMH 081030Z AUTO 00000KT 10SM CLR 09/01 A3021 RMK AO1=
KOGA 081030Z AUTO 00000KT 10SM BKN095 15/14 A3027 RMK AO2
     T01500140=
KONL 081030Z AUTO 29005KT 10SM BKN110 17/15 A3022 RMK AO2
     T01660148=
KPNA 081030Z AUTO 30006KT 10SM CLR 04/01 A3039 RMK AO2
     T00390010=
KPSO 081035Z AUTO 00000KT 10SM CLR 08/05 A3039 RMK AO2=
KPTT 081030Z AUTO 01007KT 5SM BR BKN004 BKN008 20/19 A3014 RMK
     AO2=
KSOW 081030Z AUTO 12003KT 10SM SCT110 21/03 A3025 RMK AO2=
KSPL 081035Z AUTO 03007KT 28/25 A2975 RMK AO2 PWINO PNO=
KSUN 081031Z AUTO 32011G14KT 10SM CLR 11/01 A3023 RMK AO2=
KSZT 081030Z AUTO 00000KT 10SM CLR 09/07 A3011 RMK AO2=
KTIF 081030Z AUTO 00000KT 10SM SCT085 OVC095 15/14 A3026 RMK AO2
     T01540141=
KTRK 081030Z AUTO 00000KT 10SM CLR 09/08 A3015 RMK AO2=
####018000637####
SPUS99 KWBC 081035
SPECI
KBOK 081034Z AUTO 00000KT 3/4SM BR OVC002 09/09 A2996 RMK AO2
     $=
KDAW 081033Z AUTO 00000KT 1 1/4SM BR 22/21 A3008 RMK AO2 $=
KDDC 081033Z AUTO 01008KT 5SM BR OVC003 18/17 A3018 RMK AO2=
KESF 081033Z AUTO 00000KT 3SM BR CLR 22/22 A3003 RMK AO2=
KHUL 081033Z AUTO 20007KT 4SM BR FEW009 21/19 A3003 RMK AO2=
KHYA 081033Z 12003KT 10SM SCT001 BKN006 OVC016 21/21 A3009 RMK
     AO2=
KLAR 081033Z AUTO 28003KT 1SM BR SCT002 BKN007 BKN019 06/06 A3039
     RMK AO2=
KORF 081024Z 08005KT 10SM BKN010 BKN110 26/24 A2997 RMK AO2=
KRFD 081025Z 25004KT 8SM BKN006 OVC011 22/21 A3004 RMK AO2=
####018000166####
SACY31 LCLK 081030
METAR LCLK 081030Z 18016KT 9999 FEW025 29/23 Q1008 NOSIG=
METAR LCPH 081030Z 24008KT 210V280 9999 FEW030 29/22 Q1009=
METAR LCNC 081030Z NIL=
####018000386####
SARO31 LROM 081030
METAR LRBS 081030Z 31003KT 280V350 9999 FEW020 SCT049 21/14 Q1017
NOSIG=
METAR LRCK 081030Z 01010KT 320V050 9999 FEW035 24/15 Q1015 NOSIG=
METAR LROP 081030Z 29003KT 240V350 9999 FEW040CB FEW049 21/14 Q1016
880///95 NOSIG=
METAR LRSB 081030Z 04004KT 360V090 9999 FEW017 SCT028 OVC086 16/12
Q1020=
METAR LRTR 081030Z 01007KT 320V050 9999 SCT030 22/15 Q1020=
####018000087####
SAKO31 RKSI 081030
METAR RKSI 081030Z 15005KT 9999 FEW040 OVC110 24/18 Q1008 NOSIG=
####018000565####
SAEW31 LEMM 081030
METAR LEMD 081030Z 18002KT CAVOK 33/12 Q1019 NOSIG=
METAR LEBL 081030Z 20015KT CAVOK 27/21 Q1019 NOSIG=
METAR LEPA 081030Z 22006KT 190V260 CAVOK 31/13 Q1020 NOSIG=
METAR LEZL 081030Z 29005KT 200V350 9999 SCT020 30/17 Q1016 NOSIG=
METAR LEMG 081030Z 18010KT 140V240 9999 FEW030 30/15 Q1017 NOSIG=
METAR LEVC 081030Z VRB03KT CAVOK 32/19 Q1019 NOSIG=
METAR LEAL 081030Z 08010KT CAVOK 31/14 Q1019 NOSIG=
METAR LEIB 081030Z 08010KT 050V150 CAVOK 29/21 Q1019 NOSIG=
METAR LELC 081030Z NIL=
METAR COR LEVX 081030Z 27008KT CAVOK 27/22 Q1013=
####018000501####
SAFR36 LFPW 081030
METAR LFGJ 081030Z AUTO 19006KT 150V240 9999NDV NSC 28/14 Q1020=
METAR LFMD 081030Z AUTO 14008KT 100V180 9999NDV NSC 30/20 Q1020=
METAR LFOT 081030Z AUTO 12004KT 040V190 9999NDV NSC 30/12 Q1018=
METAR LFRC 081030Z AUTO 34005KT 280V060 9999NDV NSC 20/15 Q1019=
METAR LFRG 081030Z AUTO 04003KT 310V120 9999NDV NSC 25/13 Q1019=
METAR LFBA 081030Z NIL=
METAR LFBE 081030Z NIL=
METAR LFJR 081030Z NIL=
METAR LFMH 081030Z NIL=
METAR LFPN 081030Z NIL=
METAR LFRK 081030Z NIL=
####018000358####
SAFR31 LFPW 081030
METAR LFLL 081030Z VRB03KT CAVOK 29/14 Q1020 NOSIG=
METAR LFMN 081030Z 10008KT 9999 FEW023 29/21 Q1020 NOSIG=
METAR LFPG 081030Z 16008KT 120V200 CAVOK 29/09 Q1019 NOSIG=
METAR LFPO 081030Z 14004KT 080V190 CAVOK 29/10 Q1019 NOSIG=
METAR LFQQ 081030Z VRB04KT CAVOK 28/13 Q1019 NOSIG=
METAR LFRB 081030Z NIL=
METAR LFRS 081030Z NIL=
####018000457####
SAFR37 LFPW 081030
METAR LFAQ 081030Z AUTO 24004KT 160V300 9999NDV NSC 28/12 Q1019=
METAR LFBU 081030Z AUTO 11006KT 060V230 9999NDV NSC 31/13 Q1018=
METAR LFLN 081030Z AUTO VRB03KT 9999NDV NSC 30/13 Q1020=
METAR LFPM 081030Z VRB02KT CAVOK 30/15 Q1019=
METAR LFSD 081030Z AUTO VRB03KT 9999NDV NSC 28/14 Q1020=
METAR LFTW 081030Z AUTO 12004KT 050V190 9999NDV NSC 31/14 Q1020=
METAR LFRH 081030Z NIL=
METAR LFRQ 081030Z NIL=
METAR LFRT 081030Z NIL=
####018000292####
SAEW34 LEMM 081030
METAR LEDA 081030Z 11007KT 070V180 CAVOK 33/13 Q1019=
METAR LEJR 081030Z 24003KT 170V290 CAVOK 28/18 Q1016=
METAR LELL 081030Z 14002KT CAVOK 31/14 Q1019=
METAR LEPP 081030Z 19003KT 9999 FEW060 34/15 Q1019=
METAR LEXJ 081030Z 29008KT 260V340 9999 SCT018 24/19 Q1016=
####018000143####
SAEW36 LEMM 081030
METAR GCLA 081030Z 01013KT 340V040 9999 BKN020 24/17 Q1019=
METAR GEML 081030Z 07008KT 020V120 9999 FEW012 26/21 Q1017=
####018000178####
SAEW35 LEMM 081030
METAR LESA 081030Z VRB02KT CAVOK 33/14 Q1019=
METAR LEVD 081030Z 22003KT 160V300 CAVOK 32/10 Q1020=
METAR LEVS 081030Z 09004KT 030V150 CAVOK 30/13 Q1020=
####018000173####
SPAU31 YBBN 081034
SPECI YSSY 081030Z 20010KT 9999 -SHRA FEW008 SCT020 BKN040 12/11
Q1027
FM1030 22010KT 9999 -SHRA SCT025 BKN040
INTER 1030/1330 5000 SHRA BKN010=
####018000097####
SAHK31 VHHH 081030
METAR VHHH 081030Z 20010KT 160V230 9999 FEW020 SCT030 31/25 
Q1006 NOSIG=
####018000174####
SPAU31 KWBC 081035
SPECI
YSSY 081030Z 20010KT 9999 -SHRA FEW008 SCT020 BKN040 12/11 Q1027
FM1030 22010KT 9999 -SHRA SCT025 BKN040 INTER 1030/1330 5000 SHRA
BKN010=
####018000214####
SANM40 FYWW 081030
METAR FYWB 081030Z 07024KT 9999 R09/M0050VP1500D R27/M0050VP1500D
     VV/// 32/03 Q1016 =
METAR FYWB 081030Z 07024KT 9999 R09/M0050VP1500D R27/M0050VP1500D
     VV/// 32/03 Q1016 =

