####018000113####
SPUS90 KWBC 081330
SPECI KJCT 081327Z AUTO 07003KT 8SM SCT006 BKN010 BKN022 24/22
     A3004 RMK AO2 TSNO=
####018000051####
SAUS90 KWBC 081330
METAR K8S0 081230Z 26004KT=
####018000091####
SAAJ31 UBBB 081330
METAR UBBB 081330Z 34018KT CAVOK 31/26 Q1009 NOSIG RMK
R88CLRD70=
####018000316####
SPUS99 KWBC 081330
SPECI
KMWL 081327Z AUTO 13003KT 10SM FEW010 BKN035 24/23 A3004 RMK AO2
     $=
KPWA 081327Z 34004KT 6SM BR FEW005 23/22 A3007 RMK AO2=
KBIV 081328Z AUTO 28006KT 1 3/4SM +RA BR OVC001 24/22 A3005 RMK
     AO2 RAB15 P0003=
KPHL 081328Z 15004KT 7SM FEW010 SCT100 28/22 A3004 RMK AO2=
####018002968####
SAUS99 KWBC 081330
METAR
KPYX 081330Z AUTO 33006KT 4SM OVC004 19/18 A3020 RMK AO2
     T01870180=
KRAS 081325Z AUTO 11010G14KT 3/4SM -RA BKN001 OVC015 26/25 A2987
     RMK AO2 P0026=
KRBO 081325Z AUTO 03009G14KT 7SM RA SCT005 SCT023 BKN090 26/25
     A2985 RMK AO2 T02630253=
KRPH 081325Z AUTO 11003KT 10SM BKN060 24/22 A3003 RMK AO2
     T02430217=
KSEP 081325Z AUTO 07003KT 4SM BKN004 BKN017 OVC041 23/22 A3006 RMK
     AO1=
KDUX 081327Z AUTO 01005KT 5SM BR SCT048 BKN060 OVC075 18/17 A3024
     RMK AO2 P0001 T01770171=
KE38 081325Z AUTO 00000KT 10SM CLR 19/18 A3023 RMK AO2
     T01930178=
KEBG 081326Z AUTO 02008KT 10SM OVC005 27/25 A2981 RMK AO2
     T02700254=
KGNC 081325Z AUTO 03008KT 7SM SCT005 BKN017 BKN046 20/20 A3017 RMK
     AO2 T02030196=
KGOP 081320Z AUTO 00000KT 7SM SCT009 BKN046 26/24 A3004 RMK
     AO2=
KGVT 081325Z AUTO 12003KT 10SM OVC055 26/23 A3006 RMK AO2=
KGWB 081325Z AUTO 00000KT 10SM CLR 28/16 A3006 RMK AO2=
KGYB 081325Z AUTO 10004KT 2 1/2SM +RA BKN008 BKN017 OVC034 24/23
     A3002 RMK AO2 VIS 1 1/2V5 P0054 T02360229=
KGYI 081325Z AUTO 14009KT 25/24 A3005 RMK AO2 T02520242 PWINO=
KHHF 081325Z AUTO 07008KT 1 1/2SM +RA SCT005 BKN010 OVC019 21/20
     A3016 RMK AO2 P0068 T02110203=
KHRX 081325Z AUTO 02009KT 10SM OVC024 18/16 A3023 RMK AO2
     T01770163=
KHSB 081325Z AUTO 21003KT 10SM SCT100 27/22 A3007 RMK AO2=
KIJX 081325Z AUTO 27004KT 10SM SCT007 BKN011 24/23 A3007 RMK AO2
     LTG DSNT SE T02400230=
KINJ 081325Z AUTO 08006KT 7SM SCT005 SCT029 OVC070 25/23 A3003 RMK
     AO2 T02480230=
KJAS 081326Z AUTO 08006KT 7SM BKN006 26/25 A3004 RMK AO2
     T02630247=
KJDD 081325Z AUTO 00000KT 5SM BR SCT008 26/25 A3006 RMK AO2=
KJSO 081330Z AUTO 10003KT 7SM SCT004 BKN110 24/24 A3006 RMK AO2
     T02390236=
KJWY 081325Z AUTO 10004KT 7SM 25/23 A3004 RMK AO2 T02520233=
KJXI 081325Z AUTO 11005KT BKN005 26/25 A3007 RMK AO2=
KLBR 081325Z AUTO 13003KT 10SM BKN005 26/23 A3007 RMK AO2
     T02550232=
KLHB 081324Z AUTO 08006KT 3SM BR OVC007 26/24 A3000 RMK AO2 LTG
     DSNT S T02600236=
KLNC 081325Z AUTO 10003KT 7SM SCT017 SCT055 OVC070 25/25 A3004 RMK
     AO2 T02510245=
KLUD 081325Z AUTO 12004KT 10SM BKN009 BKN026 25/23 A3005 RMK AO2
     T02510225=
KM30 081326Z AUTO 00000KT 10SM CLR 27/22 A3007 RMK AO2=
KMDD 081320Z AUTO 03007KT 10SM OVC008 22/20 A3013 RMK AO2
     T02190203=
KMKN 081320Z AUTO 00000KT 8SM 24/24 A3007 RMK AO2=
KMQB 081325Z AUTO 31004KT 10SM OVC006 23/22 A3008 RMK AO2
     T02330220=
KOSA 081324Z AUTO 00000KT 7SM OVC006 26/25 A3007 RMK AO1
     T02560245=
KPEZ 081325Z AUTO 03007KT 7SM SCT009 BKN020 OVC049 25/24 A2993 RMK
     AO2 T02540235=
KPKV 081326Z AUTO 08007KT 10SM -RA SCT009 BKN024 OVC075 24/23
     A2989 RMK AO2 P0052 T02400225=
KPPA 081325Z AUTO 03009KT 7SM -DZ BKN003 OVC008 19/18 A3021 RMK
     AO2=
KPSN 081325Z AUTO 09007KT 7SM 25/24 A3004 RMK AO2 T02500237=
####018000473####
SAUK37 EGGY 081320
METAR EGAE 081320Z 24014KT 9999 -SHRA FEW020 BKN040 17/10 Q1012=
METAR EGNC 081320Z 25015KT 9999 FEW020 SCT035 17/10 Q1015=
METAR EGNH 081320Z 25013KT 9999 FEW030 19/12 Q1017=
METAR EGNJ 081320Z 25011KT 220V280 9999 SCT040 23/10 Q1017=
METAR EGNR 081320Z 24010KT 220V310 9999 SCT040 22/09 Q1017=
METAR EGPE 081320Z 22019G30KT 9999 VCSH FEW018 SCT045 17/09
    Q1010=
METAR EGPI 081320Z NIL=
METAR EGPN 081320Z 23020KT 9999 SCT045 18/11 Q1012=
####018000412####
SAUK36 EGGY 081320
METAR EGBE 081320Z NIL=
METAR EGBJ 081320Z 21006KT 180V270 9999 FEW045 23/07 Q1018=
METAR EGCN 081320Z 25011KT 220V280 9999 FEW048 23/08 Q1017=
METAR EGDL 081320Z NIL=
METAR EGSC 081320Z 23010KT 160V280 9999 SCT038 24/12 Q1018=
METAR EGSD 081320Z NIL=
METAR COR EGSH 081320Z 25006KT 200V310 9999 FEW026 SCT030 25/14
    Q1018 NOSIG=
METAR EGVN 081320Z NIL=
METAR EGWU 081320Z NIL=
####018000114####
SPUS80 KWBC 081330
SPECI
KSAT 081327Z 05007KT 8SM -RA BKN008 OVC020 26/24 A2997 RMK AO2
     RAB09 P0000=
####018000393####
SAUK38 EGGY 081320
METAR EGEC 081320Z NIL=
METAR EGPA 081320Z 21011KT 9999 VCSH FEW020CB SCT045 17/11 Q1008=
METAR EGPC 081320Z 20014KT 170V230 9999 VCSH FEW020 15/12 Q1009=
METAR EGPL 081320Z 22020KT 9999 FEW018 16/12 Q1009=
METAR COR EGPM 081320Z 22022KT 9999 FEW026 16/09 Q1007 NOSIG=
METAR EGPO 081320Z 23022G32KT 9999 VCSH FEW024 SCT034 18/09
    Q1007=
METAR EGPU 081320Z NIL=
####018000668####
SANL33 EHDB 081325
METAR EHAK 081325Z AUTO 23010KT 9999NDV 16/13 Q1017=
METAR EHDV 081325Z NIL=
METAR EHFD 081325Z AUTO 23014KT 9999NDV FEW029/// SCT037/// 17/16
Q1019=
METAR EHFZ 081325Z AUTO 22010KT 9999NDV FEW039/// 17/15 Q1018=
METAR EHJA 081325Z AUTO 23011KT 9999NDV FEW013/// 16/13 Q1018=
METAR EHJR 081325Z NIL=
METAR EHKV 081325Z AUTO 23009KT 9999NDV BKN029/// 17/15 Q1019=
METAR EHMA 081325Z AUTO 25006KT 9999NDV 22/17 Q1019=
METAR EHMG 081325Z AUTO 24011KT 9999NDV 17/15 Q1018=
METAR EHPG 081325Z AUTO 23011KT 9999NDV ///////// 16/15 Q1019=
METAR EHQE 081325Z AUTO 23010KT 9999NDV 16/15 Q1019=
METAR EHSA 081325Z NIL=
METAR EHSC 081325Z NIL=
####018000704####
SPUS70 KWBC 081330
SPECI
KGCK 081327Z 01008KT 10SM SCT012 BKN021 19/16 A3025 RMK AO2=
KGRB 081327Z 30004KT 2 1/2SM BR BKN006 BKN015 23/22 A3000 RMK AO2
     CIG 003V008=
KJEF 081327Z 00000KT 5SM BR OVC005 24/23 A3007 RMK AO2 CIG
     002V007=
KACV 081327Z AUTO 31004KT 2 1/2SM BR OVC001 10/09 A2995 RMK
     AO2=
KJCT 081327Z AUTO 07003KT 8SM SCT006 BKN010 BKN022 24/22 A3004 RMK
     AO2 TSNO=
KMWL 081327Z AUTO 13003KT 10SM FEW010 BKN035 24/23 A3004 RMK AO2
     $=
KPWA 081327Z 34004KT 6SM BR FEW005 23/22 A3007 RMK AO2=
KBIV 081328Z AUTO 28006KT 1 3/4SM +RA BR OVC001 24/22 A3005 RMK
     AO2 RAB15 P0003=
KPHL 081328Z 15004KT 7SM FEW010 SCT100 28/22 A3004 RMK AO2=
####018000102####
SAAJ31 UBBB 081330
UBBN 081330Z 10014G24KT 9999 NSC 38/09 Q1007 R14R/CLRD60
NOSIG RMK G/O QFE681=
####018000121####
SAXX60 KWBC 081330
METAR
KAPY 081323Z AUTO 36006KT 10SM SCT008 SCT027 BKN034 26/25 A2986
     RMK AO2 T02550245=
####018003686####
SAUS70 KWBC 081330
METAR
KF05 081324Z AUTO 06007KT 10SM SCT007 BKN032 OVC043 25/23 A3006
     RMK AO2 T02480225=
KFEP 081325Z AUTO 31006KT 3SM HZ OVC004 24/21 A3006 RMK AO2
     T02360213=
KFOA 081325Z AUTO 20005KT 10SM CLR 30/27 A3006 RMK AO2
     T02980267=
KFWC 081325Z AUTO 23003KT 10SM CLR 28/25 A3006 RMK AO2=
KFWS 081325Z AUTO 00000KT 5SM -DZ BKN005 BKN010 OVC049 25/24 A3005
     RMK AO2 P0001 T02480235=
KGBG 081325Z AUTO 32004KT 5SM BR OVC006 23/22 A3006 RMK AO2=
KGDJ 081324Z AUTO 07005KT 10SM BKN008 BKN017 OVC049 26/24 A3005
     RMK AO2 T02570236=
KGLE 081325Z AUTO 14006KT 10SM SCT006 26/23 A3006 RMK AO2=
KHBV 081320Z AUTO 01010KT 10SM BKN008 OVC016 26/24 A2988 RMK AO2
     T02560236=
KIKK 081325Z AUTO 00000KT 5SM HZ SCT004 SCT090 27/23 A3004 RMK
     AO2=
KJOT 081326Z AUTO 00000KT 3SM BR 24/22 A3003 RMK AO2=
KLOT 081321Z AUTO 23003KT 5SM BR OVC025 24/22 A3003 RMK AO2=
KOLY 081323Z AUTO 21004KT 10SM SCT043 29/23 A3005 RMK AO2=
KORG 081325Z AUTO 07009KT 7SM OVC006 17/14 A3001 RMK AO2=
KOXI 081325Z AUTO 13003KT 3SM BKN046 OVC060 23/22 A3003 RMK AO1
     T02290215=
KOZA 081321Z AUTO 10003KT 10SM SCT022 BKN031 OVC048 23/22 A3009
     RMK AO2 T02320217=
KPNT 081325Z AUTO 00000KT 10SM BKN022 BKN029 OVC090 24/23 A3004
     RMK AO2=
KPPQ 081325Z AUTO 30003KT 10SM BKN005 OVC011 23/23 A3008 RMK
     AO2=
KPRG 081325Z AUTO 25005KT 10SM CLR 27/23 A3005 RMK AO2
     T02780237=
KRPJ 081325Z AUTO 30005KT 10SM BKN007 BKN013 23/21 A3005 RMK AO2
     T02270205=
KRSV 081322Z AUTO 24005KT 10SM CLR 29/24 A3006 RMK AO2
     T02930235=
K0F2 081324Z AUTO 00000KT 5SM BR BKN011 OVC017 24/23 A3005 RMK AO2
     T02360225=
K11R 081324Z AUTO 07004KT 5SM BR OVC006 26/24 A2998 RMK AO2 LTG
     DSNT W=
K1H2 081325Z AUTO 23006KT 10SM SCT060 28/24 A3005 RMK AO2 LTG DSNT
     W T02810239=
K3LF 081323Z AUTO 21005KT 5SM TSRA SCT022 BKN050 OVC090 24/23
     A3007 RMK AO2 P0008 LTG DSNT ALQS=
K3T5 081324Z AUTO 10004KT 7SM -RA SCT015 SCT032 BKN050 25/24 A2995
     RMK AO2 LTG DSNT N AND NW P0003 T02510237=
K6R3 081321Z AUTO 09005KT 5SM BR OVC006 25/25 A3000 RMK AO2
     T02540254=
KAAA 081323Z AUTO 00000KT 10SM BKN006 BKN048 OVC060 24/22 A3005
     RMK AO2 T02400223=
KAJG 081325Z AUTO 00000KT 10SM BKN043 BKN050 27/24 A3006 RMK AO2
     T02730236=
KAQO 081325Z AUTO 08003KT 9SM SCT024 BKN085 25/23 A3004 RMK AO2
     LTG DSNT S=
KASW 081325Z AUTO 27003KT 10SM BKN055 BKN075 27/22 A3005 RMK AO2
     T02700215=
KAXH 081325Z AUTO 06004KT 7SM SCT027 BKN042 OVC060 25/23 A2995 RMK
     AO2 T02500232=
KBBD 081325Z AUTO 08005KT 10SM FEW034 OVC050 24/22 A3005 RMK=
KBEA 081323Z AUTO 06006KT 10SM -RA OVC005 25/25 A2989 RMK AO2
     P0001 T02460246=
KBKD 081321Z AUTO 00000KT 10SM BKN002 BKN014 OVC028 24/23 A3005
     RMK AO2 T02440233=
KBKS 081326Z AUTO 02007G14KT 10SM OVC006 27/25 A2982 RMK AO1
     T02650250=
KBPC 081328Z AUTO 02006KT 10SM OVC006 20/19 A3019 RMK AO2=
KBPG 081325Z AUTO 02009KT 10SM BKN006 OVC013 22/21 A3013 RMK AO1
     T02200205=
KBYY 081326Z AUTO 08008KT 7SM SCT017 SCT036 BKN085 27/26 A2991 RMK
     AO2 T02680259=
KC09 081324Z AUTO 24003KT 3SM BR SCT003 OVC021 22/22 A3004 RMK
     AO2=
KCPT 081325Z AUTO 07004KT 5SM BR 24/24 A3006 RMK AO2=
KCVB 081324Z AUTO 05007KT 7SM SCT012 BKN049 26/24 A2997 RMK AO2
     T02570242=
KCWC 081325Z AUTO 11009KT 10SM CLR 26/23 A3005 RMK AO2
     T02560225=
KDKB 081321Z AUTO 29003KT 7SM BKN009 22/22 A3004 RMK AO2
     T02200215=
KDKR 081325Z AUTO 09007KT 5SM BR CLR 26/26 A3004 RMK AO2=
KDNV 081325Z AUTO 24005KT 7SM CLR 27/22 A3002 RMK AO2
     T02650221=
####018000092####
SPXX60 KWBC 081330
SPECI
KNFW 081327Z 13007KT 10SM SCT012 BKN024 27/22 A3008 RMK AO2=
####018000091####
SAUK51 EGGY 081250 RRD
METAR EGYD 081250Z 26013KT 9999 FEW048 BKN250 22/09 Q1017 NOSIG=
####018000434####
SAUS80 KWBC 081330
METAR
KSFY 081325Z AUTO 30005KT 10SM SCT007 SCT012 23/21 A3005 RMK
     AO2=
KCIR 081322Z AUTO 24004KT 10SM CLR 29/23 A3007 RMK AO2=
KCUL 081325Z AUTO 21004KT 10SM CLR 28/22 A3006 RMK AO2
     T02760223=
KSEP 081325Z AUTO 07003KT 4SM BKN004 BKN017 OVC041 23/22 A3006 RMK
     AO1=
KMKN 081320Z AUTO 00000KT 8SM 24/24 A3007 RMK AO2=
KPSN 081325Z AUTO 09007KT 7SM 25/24 A3004 RMK AO2 T02500237=
####018000096####
SAUZ31 UTTT 081330
METAR UTTT 081330Z 32002MPS 270V360 CAVOK 37/07 Q1009
R08R/CLRD70 NOSIG=
####018003101####
SAUS70 KWBC 081330 RRA
METAR
KDZB 081325Z AUTO 05003KT 4SM BR OVC007 25/24 A3000 RMK AO2
     T02500241=
KECU 081325Z AUTO 05004KT 9SM CLR 23/22 A3010 RMK AO2=
KENL 081324Z AUTO 22007KT 10SM SCT049 SCT090 28/20 A3005 RMK AO2
     LTG DSNT NW T02800197=
KERV 081325Z AUTO 06006KT 10SM SCT011 SCT018 BKN022 25/22 A3002
     RMK AO2 T02470220=
KPYX 081330Z AUTO 33006KT 4SM OVC004 19/18 A3020 RMK AO2
     T01870180=
KRAS 081325Z AUTO 11010G14KT 3/4SM -RA BKN001 OVC015 26/25 A2987
     RMK AO2 P0026=
KRBO 081325Z AUTO 03009G14KT 7SM RA SCT005 SCT023 BKN090 26/25
     A2985 RMK AO2 T02630253=
KRPH 081325Z AUTO 11003KT 10SM BKN060 24/22 A3003 RMK AO2
     T02430217=
KDUX 081327Z AUTO 01005KT 5SM BR SCT048 BKN060 OVC075 18/17 A3024
     RMK AO2 P0001 T01770171=
KE38 081325Z AUTO 00000KT 10SM CLR 19/18 A3023 RMK AO2
     T01930178=
KEBG 081326Z AUTO 02008KT 10SM OVC005 27/25 A2981 RMK AO2
     T02700254=
KGNC 081325Z AUTO 03008KT 7SM SCT005 BKN017 BKN046 20/20 A3017 RMK
     AO2 T02030196=
KGOP 081320Z AUTO 00000KT 7SM SCT009 BKN046 26/24 A3004 RMK
     AO2=
KGVT 081325Z AUTO 12003KT 10SM OVC055 26/23 A3006 RMK AO2=
KGWB 081325Z AUTO 00000KT 10SM CLR 28/16 A3006 RMK AO2=
KGYB 081325Z AUTO 10004KT 2 1/2SM +RA BKN008 BKN017 OVC034 24/23
     A3002 RMK AO2 VIS 1 1/2V5 P0054 T02360229=
KGYI 081325Z AUTO 14009KT 25/24 A3005 RMK AO2 T02520242 PWINO=
KHHF 081325Z AUTO 07008KT 1 1/2SM +RA SCT005 BKN010 OVC019 21/20
     A3016 RMK AO2 P0068 T02110203=
KHRX 081325Z AUTO 02009KT 10SM OVC024 18/16 A3023 RMK AO2
     T01770163=
KHSB 081325Z AUTO 21003KT 10SM SCT100 27/22 A3007 RMK AO2=
KIJX 081325Z AUTO 27004KT 10SM SCT007 BKN011 24/23 A3007 RMK AO2
     LTG DSNT SE T02400230=
KINJ 081325Z AUTO 08006KT 7SM SCT005 SCT029 OVC070 25/23 A3003 RMK
     AO2 T02480230=
KJAS 081326Z AUTO 08006KT 7SM BKN006 26/25 A3004 RMK AO2
     T02630247=
KJDD 081325Z AUTO 00000KT 5SM BR SCT008 26/25 A3006 RMK AO2=
KJSO 081330Z AUTO 10003KT 7SM SCT004 BKN110 24/24 A3006 RMK AO2
     T02390236=
KJWY 081325Z AUTO 10004KT 7SM 25/23 A3004 RMK AO2 T02520233=
KJXI 081325Z AUTO 11005KT BKN005 26/25 A3007 RMK AO2=
KLBR 081325Z AUTO 13003KT 10SM BKN005 26/23 A3007 RMK AO2
     T02550232=
KLHB 081324Z AUTO 08006KT 3SM BR OVC007 26/24 A3000 RMK AO2 LTG
     DSNT S T02600236=
KLNC 081325Z AUTO 10003KT 7SM SCT017 SCT055 OVC070 25/25 A3004 RMK
     AO2 T02510245=
KLUD 081325Z AUTO 12004KT 10SM BKN009 BKN026 25/23 A3005 RMK AO2
     T02510225=
KM30 081326Z AUTO 00000KT 10SM CLR 27/22 A3007 RMK AO2=
KMDD 081320Z AUTO 03007KT 10SM OVC008 22/20 A3013 RMK AO2
     T02190203=
KMQB 081325Z AUTO 31004KT 10SM OVC006 23/22 A3008 RMK AO2
     T02330220=
KOSA 081324Z AUTO 00000KT 7SM OVC006 26/25 A3007 RMK AO1
     T02560245=
KPEZ 081325Z AUTO 03007KT 7SM SCT009 BKN020 OVC049 25/24 A2993 RMK
     AO2 T02540235=
KPKV 081326Z AUTO 08007KT 10SM -RA SCT009 BKN024 OVC075 24/23
     A2989 RMK AO2 P0052 T02400225=
KPPA 081325Z AUTO 03009KT 7SM -DZ BKN003 OVC008 19/18 A3021 RMK
     AO2=
####018000238####
SAPK31 OPKC 081330
METAR OPGD 081330Z NIL=
METAR OPKC 081325Z 24012KTS 8000 SCT030 SCT100 33/24 Q1002 NOSIG=
METAR OPLA 081330Z NIL=
METAR OPNH 081330Z NIL=
METAR OPPS 081330Z NIL=
METAR OPRN 081330Z NIL=
METAR OPSK 081330Z NIL=
####018000682####
SANL33 EHDB 081325
METAR EHAK 081325Z AUTO 23010KT 9999NDV 16/13 Q1017=
METAR EHDV 081325Z NIL=
METAR EHFD 081325Z AUTO 23014KT 9999NDV FEW029/// SCT037/// 17/16
Q1019=
METAR EHFZ 081325Z AUTO 22010KT 9999NDV FEW039/// 17/15 Q1018=
METAR EHJA 081325Z AUTO 23011KT 9999NDV FEW013/// 16/13 Q1018=
METAR EHJR 081325Z NIL=
METAR EHKV 081325Z AUTO 23009KT 9999NDV BKN029/// 17/15 Q1019=
METAR EHMA 081325Z AUTO 25006KT 9999NDV 22/17 Q1019=
METAR EHMG 081325Z AUTO 24011KT 9999NDV 17/15 Q1018=
METAR EHPG 081325Z AUTO 23011KT 9999NDV ///////// 16/15 Q1019=
METAR EHQE 081325Z AUTO 23010KT 9999NDV 16/15 Q1019=
METAR EHSA 081325Z NIL=
METAR EHSC 081325Z NIL=
####018000422####
SAUK36 EGGY 081320
METAR EGBE 081320Z NIL=
METAR EGBJ 081320Z 21006KT 180V270 9999 FEW045 23/07 Q1018=
METAR EGCN 081320Z 25011KT 220V280 9999 FEW048 23/08 Q1017=
METAR EGDL 081320Z NIL=
METAR EGSC 081320Z 23010KT 160V280 9999 SCT038 24/12 Q1018=
METAR EGSD 081320Z NIL=
METAR COR EGSH 081320Z 25006KT 200V310 9999 FEW026 SCT030 25/14
    Q1018 NOSIG=
METAR EGVN 081320Z NIL=
METAR EGWU 081320Z NIL=
####018000401####
SAUK38 EGGY 081320
METAR EGEC 081320Z NIL=
METAR EGPA 081320Z 21011KT 9999 VCSH FEW020CB SCT045 17/11 Q1008=
METAR EGPC 081320Z 20014KT 170V230 9999 VCSH FEW020 15/12 Q1009=
METAR EGPL 081320Z 22020KT 9999 FEW018 16/12 Q1009=
METAR COR EGPM 081320Z 22022KT 9999 FEW026 16/09 Q1007 NOSIG=
METAR EGPO 081320Z 23022G32KT 9999 VCSH FEW024 SCT034 18/09
    Q1007=
METAR EGPU 081320Z NIL=
####018000482####
SAUK37 EGGY 081320
METAR EGAE 081320Z 24014KT 9999 -SHRA FEW020 BKN040 17/10 Q1012=
METAR EGNC 081320Z 25015KT 9999 FEW020 SCT035 17/10 Q1015=
METAR EGNH 081320Z 25013KT 9999 FEW030 19/12 Q1017=
METAR EGNJ 081320Z 25011KT 220V280 9999 SCT040 23/10 Q1017=
METAR EGNR 081320Z 24010KT 220V310 9999 SCT040 22/09 Q1017=
METAR EGPE 081320Z 22019G30KT 9999 VCSH FEW018 SCT045 17/09
    Q1010=
METAR EGPI 081320Z NIL=
METAR EGPN 081320Z 23020KT 9999 SCT045 18/11 Q1012=
####018000073####
SAUS81 KWBC 081328
&EHA SA 1328  AMOS 64/62/0108/M PK WND 13 004

####018001665####
SAEW KAWN 081300 RRL
METAR EBAW 081320Z 25007KT 200V300 CAVOK 30/12 Q1018 NOSIG=
METAR EBBR 081320Z 21006KT 180V250 CAVOK 30/11 Q1019 NOSIG=
METAR EBCI 081320Z VRB04KT CAVOK 30/10 Q1019 NOSIG=
METAR EBLG 081320Z 20004KT 150V240 CAVOK 30/07 Q1019 NOSIG=
METAR EBOS 081320Z 34006KT CAVOK 22/15 Q1020 NOSIG=
METAR EDHL 081320Z 21009KT 170V240 CAVOK 29/13 Q1019 RMK T=
METAR EDLW 081320Z 24005KT 180V330 CAVOK 31/10 Q1020 RMK ATIS U=
METAR EDMO 081320Z 03007KT 360V100 CAVOK 26/09 Q1022=
METAR EDNY 081320Z 18004KT CAVOK 28/09 Q1021 RMK ATIS T=
METAR EDOP 081320Z 20008KT 130V230 CAVOK 30/08 Q1020=
METAR EHAM 081325Z 24007KT 190V280 CAVOK 26/15 Q1019 NOSIG=
METAR EHBK 081325Z AUTO VRB03KT 9999NDV NSC 30/11 Q1019 NOSIG=
METAR EHDL 081325Z AUTO 20006KT 9999NDV NCD 30/13 Q1018 BLU=
METAR EHEH 081325Z AUTO 25007KT 9999NDV FEW350 31/11 Q1018 BLU BLU=
METAR EHGG 081325Z AUTO 27007KT 210V350 9999NDV NSC 27/14 Q1018 NOSIG=
METAR EHGR 081325Z AUTO 32005KT 9999NDV FEW190 31/11 Q1018 BLU BLU=
METAR EHKD 081325Z AUTO 23009KT 9999NDV BKN074/// OVC190/// 23/16 Q1019
      BLU BLU=
METAR EHLW 081325Z AUTO 24008KT 9999NDV BKN130 BKN210 24/17 Q1018 BLU
      BLU=
METAR EHRD 081325Z VRB06KT CAVOK 26/17 Q1018 NOSIG=
METAR EHVK 081325Z AUTO 19005KT 9999NDV FEW073 32/11 Q1018 BLU BLU=
METAR EHVL 081325Z AUTO 26012KT 9999NDV FEW079 BKN190 21/16 Q1019 BLU=
METAR EHWO 081325Z AUTO 28007KT 9999NDV NCD 28/13 Q1018 BLU BLU=
METAR ELLX 081320Z VRB04KT CAVOK 30/08 Q1020 NOSIG=
METAR ETMN 081320Z 21008KT 9999 FEW050 SCT120 29/10 Q1018 BLU/BLU/
      TEMPO BLU=
METAR ETSE 081320Z 00000KT 9999 FEW170 26/07 Q1022 BLU/BLU/=
####018000079####
SAZZ40 KAWN 080900 RRX
METAR OISS 080925Z 12004KT CAVOK 38/07 Q1013 A2994=
####018000133####
SAZZ40 KAWN 081000 RRX
METAR OISS 080950Z 09006KT CAVOK 38/07 Q1013 A2993=
METAR OISS 081025Z 15014KT CAVOK 39/08 Q1013 A2992=
####018000143####
SPXX70 KAWN 081300 RRB
SPECI KQAY 081324Z AUTO 01017G26KT 5000 FEW022 SCT026 BKN030 47/M02
      A2949 RMK AO2 PK WND 35027/1312 SLP982=
####018000414####
SAXX70 KAWN 081300 RRQ
METAR KQEL 081320Z AUTO 03002KT 3SM BR FEW095 21/20 A2976 RMK A02=
METAR KQEQ 081320Z AUTO 13002KT 4SM BR FEW085 FEW120 22/20 A2984 RMK
      A02=
METAR KQEW 081320Z AUTO 21001KT 7SM FEW085 FEW095 24/21 A2986 RMK A02=
METAR KQEX 081320Z AUTO 23004KT 4SM BR CLR 25/20 A2978 RMK A02=
METAR KQFT 081320Z AUTO 12001KT 1SM -SHRA BR FEW015 BKN028 BKN036 23/20
      A2987 RMK A02=
####018000099####
SPAU31 AMMC 081330
SPECI YBTL 081330Z AUTO 15008KT 9999NDV // BKN010 OVC020 22/20 Q1017=


####018000093####
SPAU31 AMMC 081330
SPECI YBTL 081330Z AUTO 15008KT 9999NDV // BKN010 OVC020 22/20 Q1017=
####018000102####
SPCN47 CWAO 081329
SPECI CYMO 081329Z AUTO 32005KT 6SM -RA BKN020 OVC067 OVC082 19/18
A2990=

####018002551####
SAUS20 KNKA 081330
METAR KC75 081326Z AUTO 00000KT 10SM BKN010 BKN018 OVC025 24/23 
     A3004 RMK AO2=
METAR KCCA 081335Z AUTO 00000KT 8SM OVC006 24/23 A3010 RMK AO2 =
METAR KCDN 081335Z AUTO 30006KT 10SM CLR 30/21 A3000 RMK A02 P000 
     =
METAR KCKI 081335Z AUTO 31004KT 10SM CLR 29/21 A2996 RMK AO2=
METAR KGYB 081328Z AUTO 11004KT 2SM +RA SCT008 BKN017 OVC029 
     23/23 A3002 RMK AO2 P0059=
SPECI KHVN 081329Z 11006KT 10SM SCT010 BKN033 OVC050 26/22 A3007 RMK 
    AO2=
METAR KIGQ 081320Z AUTO 00000KT 5SM BR BKN008 BKN022 24/23 A3004 
     RMK AO2 P0012=
SPECI KJCT 081327Z AUTO 07003KT 8SM SCT006 BKN010 BKN022 24/22
     A3004 RMK AO2 TSNO=
METAR KLRO 081335Z AUTO 30007KT 8SM CLR 28/20 A2995 RMK AO2 =
METAR KMKS 081335Z AUTO 32004KT 7SM CLR 28/21 A2996 RMK AO2 TSNO=
SPECI KMTH 081329Z AUTO 05004KT 10SM FEW026 SCT065 BKN080 A2995 RMK 
    AO2 TSB08E23UPB01E10 P0000 FZRANO $=
METAR KRFI 081325Z AUTO 13004KT 5SM BR OVC100 26/24 A3005 RMK AO2 
     T02550235=
SPECI KRKP 081329Z AUTO 36005KT 10SM FEW020 BKN032 OVC055 A2986 RMK 
    AO2 RAE05 P0000 FZRANO $=
METAR KRWV 081320Z AUTO 00000KT 5SM  BR BKN006 OVC010 25/24 A3002 
     RMK AO2=
METAR KRYW 081325Z AUTO 07006KT 2SM BR OVC003 24/23 A3001 RMK AO2 
     LTG DSNT SE=
METAR KSAR 081325Z AUTO 21004KT 7SM SCT075 27/24 A3006 RMK AO2=
METAR KSLO 081325Z AUTO 24005KT 10SM SCT041 SCT090 29/23 A3006 
     RMK AO2 LTG DSNT NW T02850229=
METAR KSLR 081322Z AUTO 14005KT 7SM SCT008 SCT012 OVC065 27/23 
     A3007 RMK AO2 T02660231=
METAR KSNK 081326Z AUTO 03007KT 10SM BKN005 OVC011 22/20 A3012 
     RMK AO2 T02150202=
METAR KSOA 081320Z AUTO 02005KT 8SM 23/22 A3010 RMK AO2=
METAR KSWW 081325Z AUTO 02004KT 1 1/4SM OVC002 22/21 A3012 RMK 
     AO1 T02170213=
METAR KT65 081325Z AUTO 02008KT 10SM CLR 27/25 A2979 RMK AO2 
     T02670250=
METAR KT82 081325Z AUTO 10006KT BKN008 BKN012 OVC041 24/22 A3004 
     RMK AO1 T02360219=
METAR KTAZ 081325Z AUTO 00000KT 10SM CLR 28/23 A3004 RMK AO2 LTG 
     DSNT SW=
METAR KTIP 081325Z AUTO 00000KT 10SM SCT085 27/25 A3005 RMK AO2 
     T02680245=
SPECI KTUL 081329Z 00000KT 9SM FEW006 OVC100 24/23 A3004 RMK AO2=
METAR KTYQ 081325Z AUTO 20004KT 10SM SCT120 27/22 A3006 RMK AO2=
METAR KUVA 081325Z AUTO 04006KT 10SM CLR 26/23 A2997 RMK AO2 
     T02550231=
METAR KVYS 081325Z AUTO 28003KT 10SM SCT007 BKN013 OVC038 24/22 
     A3004 RMK AO2 T02420220=
METAR KXBP 081325Z AUTO 00000KT 10SM SCT014 OVC029 25/23 A3006 
     RMK AO2 T02510232=
####018000089####
SASG20 GOOY 081330
METAR GOOY 081330Z 16008KT 120V210 9999 SCT013 31/25 Q1012 NOSIG=
####018001791####
SAEU KAWN 081300 RRX
METAR EDHL 081320Z 21009KT 170V240 CAVOK 29/13 Q1019 RMK T=
METAR EDLW 081320Z 24005KT 180V330 CAVOK 31/10 Q1020 RMK ATIS U=
METAR EDNY 081320Z 18004KT CAVOK 28/09 Q1021 RMK ATIS T=
METAR EGAE 081320Z 24014KT 9999 -SHRA FEW020 BKN040 17/10 Q1012=
METAR EGBJ 081320Z 21006KT 180V270 9999 FEW045 23/07 Q1018=
METAR EGLF 081320Z 24006KT 170V290 9999 SCT028 23/15 Q1018=
METAR EGNC 081320Z 25015KT 9999 FEW020 SCT035 17/10 Q1015=
METAR EGNH 081320Z 25013KT 9999 FEW030 19/12 Q1017=
METAR EGNJ 081320Z 25011KT 220V280 9999 SCT040 23/10 Q1017=
METAR EGPA 081320Z 21011KT 9999 VCSH FEW020CB SCT045 17/11 Q1008=
METAR EGPC 081320Z 20014KT 170V230 9999 VCSH FEW020 15/12 Q1009=
METAR EGPE 081320Z 22019G30KT 9999 VCSH FEW018 SCT045 17/09 Q1010=
METAR EGPL 081320Z 22020KT 9999 FEW018 16/12 Q1009=
METAR COR EGPM 081320Z 22022KT 9999 FEW026 16/09 Q1007 NOSIG=
METAR EGPN 081320Z 23020KT 9999 SCT045 18/11 Q1012=
METAR EGPO 081320Z 23022G32KT 9999 VCSH FEW024 SCT034 18/09 Q1007=
METAR EGSC 081320Z 23010KT 160V280 9999 SCT038 24/12 Q1018=
METAR COR EGSH 081320Z 25006KT 200V310 9999 FEW026 SCT030 25/14 Q1018
      NOSIG=
METAR EGYE 081250Z 23015KT 9999 FEW040 BKN250 ///// Q1017 BLU=
METAR EHKD 081325Z AUTO 23009KT 9999NDV BKN074/// OVC190/// 23/16 Q1019
      BLU BLU=
METAR LDDU 081330Z 27015KT 230V300 9999 FEW045 26/12 Q1018 NOSIG=
METAR LDPL 081330Z 26009KT 220V300 9999 FEW058 26/11 Q1021 NOSIG=
METAR LDRI 081330Z 28005KT 210V330 9999 FEW047 27/10 Q1021 NOSIG=
METAR LDSP 081330Z 23009KT 190V270 CAVOK 29/08 Q1019 NOSIG=
METAR LDZA 081330Z VRB02KT CAVOK 26/11 Q1021 NOSIG=
METAR LDZD 081330Z 31014KT 270V360 CAVOK 28/07 Q1020=
METAR LOXT 081320Z 34004KT 270V050 50KM FEW060CU 26/13 Q1022 NOSIG
      RMK FEW=
####018000487####
SAHU41 LHBM 081330
METAR LHDC 081315Z 35008KT 9999 FEW046 23/12 Q1021 NOSIG=
METAR LHKE 081315Z 26003MPS CAVOK 25/11 Q1020 NOSIG RMK BLU=
METAR LHPA 081315Z 02004MPS CAVOK 25/10 Q1022 NOSIG RMK BLU=
METAR LHPP 081315Z 34005KT CAVOK 24/10 Q1022 NOSIG=
METAR LHPR 081315Z 34008KT CAVOK 25/07 Q1022=
METAR LHSM 081315Z 32007KT CAVOK 25/09 Q1022 NOSIG=
METAR LHSN 081315Z 30002MPS CAVOK 25/10 Q1021 NOSIG RMK BLU=
METAR LHUD 081315Z 34005KT 9999 SCT040 SCT050 24/15 Q1021=
####018000104####
SAAJ31 UBBB 081330
UBBN 081330Z 10014G24KT 9999 NSC 38/09 Q1007 R14R/CLRD60
NOSIG RMK G/O QFE681=
####018000098####
SAUZ31 UTTT 081330
METAR UTTT 081330Z 32002MPS 270V360 CAVOK 37/07 Q1009
R08R/CLRD70 NOSIG=
####018001921####
SAUS99 KWBC 081331
METAR
KC75 081326Z AUTO 00000KT 10SM BKN010 BKN018 OVC025 24/23 A3004
     RMK AO2=
KCCA 081335Z AUTO 00000KT 8SM OVC006 24/23 A3010 RMK AO2=
KCDN 081335Z AUTO 30006KT 10SM CLR 30/21 A3000 RMK A02 P000=
KCKI 081335Z AUTO 31004KT 10SM CLR 29/21 A2996 RMK AO2=
KGYB 081328Z AUTO 11004KT 2SM +RA SCT008 BKN017 OVC029 23/23 A3002
     RMK AO2 P0059=
KIGQ 081320Z AUTO 00000KT 5SM BR BKN008 BKN022 24/23 A3004 RMK AO2
     P0012=
KLRO 081335Z AUTO 30007KT 8SM CLR 28/20 A2995 RMK AO2=
KMKS 081335Z AUTO 32004KT 7SM CLR 28/21 A2996 RMK AO2 TSNO=
KRFI 081325Z AUTO 13004KT 5SM BR OVC100 26/24 A3005 RMK AO2
     T02550235=
KRWV 081320Z AUTO 00000KT 5SM BR BKN006 OVC010 25/24 A3002 RMK
     AO2=
KRYW 081325Z AUTO 07006KT 2SM BR OVC003 24/23 A3001 RMK AO2 LTG
     DSNT SE=
KSAR 081325Z AUTO 21004KT 7SM SCT075 27/24 A3006 RMK AO2=
KSLO 081325Z AUTO 24005KT 10SM SCT041 SCT090 29/23 A3006 RMK AO2
     LTG DSNT NW T02850229=
KSLR 081322Z AUTO 14005KT 7SM SCT008 SCT012 OVC065 27/23 A3007 RMK
     AO2 T02660231=
KSNK 081326Z AUTO 03007KT 10SM BKN005 OVC011 22/20 A3012 RMK AO2
     T02150202=
KSOA 081320Z AUTO 02005KT 8SM 23/22 A3010 RMK AO2=
KSWW 081325Z AUTO 02004KT 1 1/4SM OVC002 22/21 A3012 RMK AO1
     T02170213=
KT65 081325Z AUTO 02008KT 10SM CLR 27/25 A2979 RMK AO2
     T02670250=
KT82 081325Z AUTO 10006KT BKN008 BKN012 OVC041 24/22 A3004 RMK AO1
     T02360219=
KTAZ 081325Z AUTO 00000KT 10SM CLR 28/23 A3004 RMK AO2 LTG DSNT
     SW=
KTIP 081325Z AUTO 00000KT 10SM SCT085 27/25 A3005 RMK AO2
     T02680245=
KTYQ 081325Z AUTO 20004KT 10SM SCT120 27/22 A3006 RMK AO2=
KUVA 081325Z AUTO 04006KT 10SM CLR 26/23 A2997 RMK AO2
     T02550231=
KVYS 081325Z AUTO 28003KT 10SM SCT007 BKN013 OVC038 24/22 A3004
     RMK AO2 T02420220=
KXBP 081325Z AUTO 00000KT 10SM SCT014 OVC029 25/23 A3006 RMK AO2
     T02510232=
####018000459####
SPUS99 KWBC 081331
SPECI
KHVN 081329Z 11006KT 10SM SCT010 BKN033 OVC050 26/22 A3007 RMK
     AO2=
KJCT 081327Z AUTO 07003KT 8SM SCT006 BKN010 BKN022 24/22 A3004 RMK
     AO2 TSNO=
KMTH 081329Z AUTO 05004KT 10SM FEW026 SCT065 BKN080 A2995 RMK AO2
     TSB08E23UPB01E10 P0000 FZRANO $=
KRKP 081329Z AUTO 36005KT 10SM FEW020 BKN032 OVC055 A2986 RMK AO2
     RAE05 P0000 FZRANO $=
KTUL 081329Z 00000KT 9SM FEW006 OVC100 24/23 A3004 RMK AO2=
####018000382####
SABU31 LBSM 081330
METAR LBSF 081330Z 28006MPS 9999 BKN040 18/11 Q1018 NOSIG=
METAR LBWN 081330Z 29007MPS 280V340 9999 FEW030 SCT045 22/16
 Q1013 NOSIG=
METAR LBBG 081330Z 23005MPS 180V290 9000 RA SCT024 OVC040 17/16
 Q1015 NOSIG=
METAR LBPD 081330Z 26005MPS 9999 -RA OVC035 17/14 Q1017 NOSIG=
METAR LBGO 081330Z 27003MPS 9999 -RA SCT008 BKN025 OVC040 16/15
 Q1017 NOSIG=
####018000479####
SAHU41 LHBM 081330
METAR LHDC 081315Z 35008KT 9999 FEW046 23/12 Q1021 NOSIG=
METAR LHKE 081315Z 26003MPS CAVOK 25/11 Q1020 NOSIG RMK BLU=
METAR LHPA 081315Z 02004MPS CAVOK 25/10 Q1022 NOSIG RMK BLU=
METAR LHPP 081315Z 34005KT CAVOK 24/10 Q1022 NOSIG=
METAR LHPR 081315Z 34008KT CAVOK 25/07 Q1022=
METAR LHSM 081315Z 32007KT CAVOK 25/09 Q1022 NOSIG=
METAR LHSN 081315Z 30002MPS CAVOK 25/10 Q1021 NOSIG RMK BLU=
METAR LHUD 081315Z 34005KT 9999 SCT040 SCT050 24/15 Q1021=
####018000092####
SPAU31 YBBN 081330
SPECI YBTL 081330Z AUTO 15008KT 9999NDV // BKN010 OVC020 22/20 Q1017=
####018000096####
SAIV20 DIAP 081330
METAR DIAP 081330Z 21007KT 180V260 8000 SCT012 BKN020 29/25 Q1014
NOSIG=
####018000082####
SPAU32 YBBN 081330
SPECI YBMA 081330Z AUTO 00000KT 6000NDV // NCD 08/07 Q1020=
####018000090####
SARM31 LUKK 081330
METAR LUKK 081330Z 35008KT 9999 SCT036 26/15 Q1015 26CLRD65
NOSIG=
####018000517####
SAUS20 KNKA 081331
METAR K5C1 081328Z AUTO 05004KT 10SM OVC008 25/23 A3000 RMK AO1=
SPECI KALI 081330Z AUTO 04008KT 8SM -RA SCT006 BKN016 OVC024 25/25 
    A2985 RMK AO2 P0006=
METAR KARM 081325Z AUTO 04006KT 7SM SCT037 SCT045 BKN085 27/25 
     A2993 RMK AO2 T02660248=
SPECI KMKO 081329Z AUTO 00000KT 8SM BKN003 OVC008 24/23 A3006 RMK 
    AO2=
METAR KONM 081327Z AUTO 36006KT 10SM BKN080 19/15 A3027 RMK AO2 
     T01890150=
SPECI KTXK 081329Z 15004KT 10SM BKN005 BKN080 24/24 A3007 RMK AO2=
####018000114####
SAHA31 KWBC 081300 RRB
METAR
KQHA 081255Z COR 26002KT 9999 SKC 28/23 A2997 RMK AO2A SLP149 COR
     1324=
####018000752####
SANL31 KWBC 081320 RRB
METAR
EHAM 081325Z 24007KT 190V280 CAVOK 26/15 Q1019 NOSIG=
EHBK 081325Z AUTO VRB03KT 9999NDV NSC 30/11 Q1019 NOSIG=
EHDL 081325Z AUTO 20006KT 9999NDV NCD 30/13 Q1018 BLU=
EHGG 081325Z AUTO 27007KT 210V350 9999NDV NSC 27/14 Q1018
     NOSIG=
EHGR 081325Z AUTO 32005KT 9999NDV FEW190 31/11 Q1018 BLU BLU=
EHKD 081325Z AUTO 23009KT 9999NDV BKN074/// OVC190/// 23/16 Q1019
     BLU BLU=
EHLW 081325Z AUTO 24008KT 9999NDV BKN130 BKN210 24/17 Q1018 BLU
     BLU=
EHRD 081325Z VRB06KT CAVOK 26/17 Q1018 NOSIG=
EHVK 081325Z AUTO 19005KT 9999NDV FEW073 32/11 Q1018 BLU BLU=
EHVL 081325Z AUTO 26012KT 9999NDV FEW079 BKN190 21/16 Q1019
     BLU=
EHWO 081325Z AUTO 28007KT 9999NDV NCD 28/13 Q1018 BLU BLU=
####018000095####
SARA31 KWBC 081300 RRE
METAR
UBBB 081330Z 34018KT CAVOK 31/26 Q1009 NOSIG RMK R88CLRD70=
####018000095####
SAUK31 KWBC 081320 CCB
METAR
EGCC 081320Z 20010KT 170V230 9999 SCT038 20/10 Q1017 NOSIG=
####018000089####
SAUK31 KWBC 081320 RRB
METAR
EGLF 081320Z 24006KT 170V290 9999 SCT028 23/15 Q1018=
####018000092####
SASG20 GOOY 081330
METAR GOOY 081330Z 16008KT 120V210 9999 SCT013 31/25 Q1012 NOSIG=

####018000090####
SATG20 DXXX 081330
METAR DXXX 081330Z 19012KT 9999 FEW016 FEW025CB 29/24 Q1013 NOSIG=
####018000430####
SATU32 LTAA 081320
METAR LTAN 081320Z 20004KT 9999 SCT040 32/07 Q1009 NOSIG=
METAR LTAU 081320Z 23005KT 190V270 9999 SCT040 34/12 Q1009 NOSIG=
METAR LTBR 081320Z 31013KT 9999 SCT035TCU BKN100 24/17 Q1011 TEMPO 
-TSRA=
METAR LTBU 081320Z 29012KT 9999 -SHRA FEW010 BKN030TCU BKN100 17/15 
Q1014=
METAR LTCC 081320Z 15011KT 120V180 CAVOK 40/02 Q1005 NOSIG=
METAR LTCE 081320Z VRB03KT 9999 SCT030 31/05 Q1016 NOSIG=
####018000456####
SARH31 LDZM 081330
METAR LDSP 081330Z 23009KT 190V270 CAVOK 29/08 Q1019 NOSIG =
METAR LDPL 081330Z 26009KT 220V300 9999 FEW058 26/11 Q1021 NOSIG =
METAR LDDU 081330Z 27015KT 230V300 9999 FEW045 26/12 Q1018 NOSIG =
METAR LDZA 081330Z VRB02KT CAVOK 26/11 Q1021 NOSIG =
METAR LDZD 081330Z 31014KT 270V360 CAVOK 28/07 Q1020 =
METAR LDRI 081330Z 28005KT 210V330 9999 FEW047 27/10 Q1021 NOSIG=
METAR LDOS 081330Z VRB05KT 9999 FEW033 25/08 Q1021=
####018000918####
SATU31 LTAA 081320
METAR LTAC 081320Z 08011KT 9999 FEW030CB SCT035 28/13 Q1010 TEMPO 
-TSRA=
METAR LTAF 081320Z /////KT 9999 SCT035 31/20 Q1007 NOSIG=
METAR LTAI 081320Z 18009KT 150V220 9999 SCT030 29/22 Q1007 NOSIG=
METAR LTAJ 081320Z 24006KT 180V280 CAVOK 37/11 Q1006 NOSIG=
METAR LTAZ 081320Z NIL=
METAR LTBA 081320Z 35019KT 9999 BKN035 23/16 Q1012 TEMPO 4000 -TSRA=
METAR LTBJ 081320Z 35016KT 9999 FEW030 30/14 Q1010 NOSIG=
METAR LTBS 081320Z 21011KT 9999 FEW030 31/20 Q1007 NOSIG=
METAR LTCF 081320Z 12011KT CAVOK 30/08 Q1018=
METAR LTCG 081320Z 07007KT 9999 FEW018 SCT035 27/22 Q1010 NOSIG=
METAR LTCI 081320Z 22005KT 190V260 CAVOK 26/19 Q1016 NOSIG=
METAR LTCS 081320Z VRB04KT CAVOK 38/03 Q1008=
METAR LTFE 081320Z 26020KT 9999 FEW035 32/16 Q1007 NOSIG=
METAR LTFH 081320Z 04009KT 9999 SCT036 BKN100 27/23 Q1009 NOSIG=
METAR LTFJ 081320Z 01014KT 9999 BKN030 22/17 Q1012 NOSIG=
####018000092####
SARM31 LUKK 081330
METAR LUKK 081330Z 35008KT 9999 SCT036 26/15 Q1015 26CLRD65
NOSIG=
####018000098####
SAIV20 DIAP 081330
METAR DIAP 081330Z 21007KT 180V260 8000 SCT012 BKN020 29/25 Q1014
NOSIG=
####018000390####
SABU31 LBSM 081330
METAR LBSF 081330Z 28006MPS 9999 BKN040 18/11 Q1018 NOSIG=
METAR LBWN 081330Z 29007MPS 280V340 9999 FEW030 SCT045 22/16
 Q1013 NOSIG=
METAR LBBG 081330Z 23005MPS 180V290 9000 RA SCT024 OVC040 17/16
 Q1015 NOSIG=
METAR LBPD 081330Z 26005MPS 9999 -RA OVC035 17/14 Q1017 NOSIG=
METAR LBGO 081330Z 27003MPS 9999 -RA SCT008 BKN025 OVC040 16/15
 Q1017 NOSIG=
####018000087####
SPUS42 KWBC 081331
SPECI
KSAT 081327Z 05007KT 8SM -RA BKN008 OVC020 26/24 A2997=
####018000245####
SAPK31 OPKC 081330
METAR OPGD 081330Z NIL=
METAR OPKC 081325Z 24012KTS 8000 SCT030 SCT100 33/24 Q1002 NOSIG=
METAR OPLA 081330Z NIL=
METAR OPNH 081330Z NIL=
METAR OPPS 081330Z NIL=
METAR OPRN 081330Z NIL=
METAR OPSK 081330Z NIL=
####018000057####
SAXX99 KWBC 081200 RRX
METAR
K8S0 081230Z 26004KT=
####018000380####
SAXX99 KWBC 081300 RRU
METAR
EGYE 081250Z 23015KT 9999 FEW040 BKN250 ///// Q1017 BLU=
EKGF 081320Z 20009KT 9999 FEW030 SCT090 16/16 Q1018=
ETMN 081320Z 21008KT 9999 FEW050 SCT120 29/10 Q1018 BLU/BLU/ TEMPO
     BLU=
ETSE 081320Z 00000KT 9999 FEW170 26/07 Q1022 BLU/BLU/=
LTBR 081320Z 31013KT 9999 SCT035TCU BKN100 24/17 Q1011 TEMPO -TSRA
     RMK RWY07 29013KT=
####018000083####
SPAU32 YBBN 081330
SPECI YBMA 081330Z AUTO 00000KT 6000NDV // NCD 08/07 Q1020=
####018000086####
SAUS42 KWBC 081300 RRD
METAR
KGLE 081325Z AUTO 14006KT 10SM SCT006 26/23 A3006=
####018000090####
SPUS43 KWBC 081331
SPECI
KGRB 081327Z 30004KT 2 1/2SM BR BKN006 BKN015 23/22 A3000=
####018000995####
SAUS43 KWBC 081300 RRG
METAR
K1H2 081325Z AUTO 23006KT 10SM SCT060 28/24 A3005=
KAAA 081323Z AUTO 00000KT 10SM BKN006 BKN048 OVC060 24/22
     A3005=
KC09 081324Z AUTO 24003KT 3SM BR SCT003 OVC021 22/22 A3004=
KDKB 081321Z AUTO 29003KT 7SM BKN009 22/22 A3004=
KDNV 081325Z AUTO 24005KT 7SM CLR 27/22 A3002=
KENL 081324Z AUTO 22007KT 10SM SCT049 SCT090 28/20 A3005=
KFEP 081325Z AUTO 31006KT 3SM HZ OVC004 24/21 A3006=
KFOA 081325Z AUTO 20005KT 10SM CLR 30/27 A3006=
KFWC 081325Z AUTO 23003KT 10SM CLR 28/25 A3006=
KGBG 081325Z AUTO 32004KT 5SM BR OVC006 23/22 A3006=
KIKK 081325Z AUTO 00000KT 5SM HZ SCT004 SCT090 27/23 A3004=
KJOT 081326Z AUTO 00000KT 3SM BR 24/22 A3003=
KLOT 081321Z AUTO 23003KT 5SM BR OVC025 24/22 A3003=
KOLY 081323Z AUTO 21004KT 10SM SCT043 29/23 A3005=
KPNT 081325Z AUTO 00000KT 10SM BKN022 BKN029 OVC090 24/23
     A3004=
KPPQ 081325Z AUTO 30003KT 10SM BKN005 OVC011 23/23 A3008=
KPRG 081325Z AUTO 25005KT 10SM CLR 27/23 A3005=
####018000214####
SAUS44 KWBC 081300 RRE
METAR
K11R 081324Z AUTO 07004KT 5SM BR OVC006 26/24 A2998=
KBPG 081325Z AUTO 02009KT 10SM BKN006 OVC013 22/21 A3013=
KBYY 081326Z AUTO 08008KT 7SM SCT017 SCT036 BKN085 27/26 A2991=
####018000098####
SAPF20 NTAA 081330
METAR NTAA 081330Z AUTO 09004KT 9999NDV FEW050/// BKN120/// 24/22
Q1015=
####018000095####
SPUS52 KWBC 081331
SPECI
KJCT 081327Z AUTO 07003KT 8SM SCT006 BKN010 BKN022 24/22 A3004=
####018000084####
SPUS53 KWBC 081331
SPECI
KGCK 081327Z 01008KT 10SM SCT012 BKN021 19/16 A3025=
####018000148####
SAXN17 KAWN 081300 RRH
METAR MMLT 081325Z RTD 00000KT 8SM SKC 27/18 A2975 RMK RTS=
METAR NFTV 081300Z 00000KT 9999 SCT016 BKN040 23/21 Q1014=
####018000115####
SANA35 KAWN 081300 RRF
METAR KDOV 081255Z 12008KT 10SM FEW130 26/23 A3002 RMK AO2A SLP168
      T02600233 $=
####018000115####
SAUS17 KAWN 081300 RRF
METAR KDOV 081255Z 12008KT 10SM FEW130 26/23 A3002 RMK AO2A SLP168
      T02600233 $=
####018000176####
SAZZ40 KAWN 081300 RRT
METAR EFKI 081320Z AUTO 34005KT 310V010 CAVOK 23/14 Q1015=
METAR KDOV 081255Z 12008KT 10SM FEW130 26/23 A3002 RMK AO2A SLP168
      T02600233 $=
####018000079####
SAZZ40 KAWN 081200 RRX
METAR OISS 081150Z 09012KT CAVOK 40/12 Q1012 A2991=
####018000395####
SPNA35 KAWN 081331 RRC
SPECI KACY 081325Z 13005KT 6SM BR SCT029 BKN060 24/22 A3005 RMK AO2
      RAE25 P0002=
SPECI KNGP 081322Z 03005KT 5SM RA BR FEW008 BKN019CB BKN025 28/26 A2983
      RMK AO2 RAB12 CB DSNT S TCU OHD-NE TCU DSNT SW-W WR// P0004=
SPECI KNJM 081323Z AUTO 03006KT 7SM BKN016 29/24 A2994 RMK AO2 $=
SPECI KPHL 081328Z 15004KT 7SM FEW010 SCT100 28/22 A3004 RMK AO2=
####018000087####
SPUS72 KWBC 081331
SPECI
KSAT 081327Z 05007KT 8SM -RA BKN008 OVC020 26/24 A2997=
####018000084####
SPUS73 KWBC 081331
SPECI
KGCK 081327Z 01008KT 10SM SCT012 BKN021 19/16 A3025=
####018000090####
SPUS73 KWBC 081331
SPECI
KGRB 081327Z 30004KT 2 1/2SM BR BKN006 BKN015 23/22 A3000=
####018000088####
SPUS74 KWBC 081331
SPECI
KACV 081327Z AUTO 31004KT 2 1/2SM BR OVC001 10/09 A2995=
####018000095####
SAUS73 KWBC 081300 RRE
METAR
KIKK 081325Z AUTO 00000KT 5SM HZ SCT004 SCT090 27/23 A3004=
####018000080####
SANC01 NWWU 081330
METAR NWWU 081330Z AUTO VRB02KT 9999NDV NCD 18/17 Q1015=
####018000117####
SACN48 CWAO 081300 CCA
METAR CYMT 081300Z CCA 14006KT 15SM FEW030TCU SCT070 26/19 A2998 RMK
TCU1AC2 SLP149=

####018000080####
SANC01 NWWL 081330
METAR NWWL 081330Z AUTO 00000KT 9999NDV NCD 13/13 Q1016=
####018000080####
SANC01 NWWW 081330
METAR NWWW 081330Z AUTO 19003KT 9999NDV NCD 16/14 Q1015=
####018000080####
SANC01 NWWM 081330
METAR NWWM 081330Z AUTO 33002KT 9999NDV NCD 18/16 Q1015=
####018001683####
SPZZ40 KAWN 081331 RRE
SPECI CYMO 081329Z AUTO 32005KT 6SM -RA BKN020 OVC067 OVC082 19/18
      A2990=
SPECI CYQI 081325Z 18005KT 1/2SM FG VV003 RMK FG8 RVR RWY 24 3000 FT=
SPECI CYRT 081326Z 07012KT 3SM -RA BR OVC002 RMK ST8 BLN DSAPRD 400
      FT VIS NE-SE 1=
SPECI CYUS 081328Z AUTO ///// 9SM CLR 14/ A2979=
SPECI CZBF 081326Z 00000KT 10SM SCT006 BKN011 RMK SF3SC2=
SPECI KGRK 081320Z 05007KT 7SM -SHRA BKN008 BKN013 27/24 A3001=
SPECI KNFL 081325Z 29004KT 10SM FEW120 SCT150 18/01 A3002 RMK AO2=
SPECI KNFW 081327Z 13007KT 10SM SCT012 BKN024 27/22 A3008 RMK AO2=
SPECI KNGP 081322Z 03005KT 5SM RA BR FEW008 BKN019CB BKN025 28/26 A2983
      RMK AO2 RAB12 CB DSNT S TCU OHD-NE TCU DSNT SW-W WR// P0004=
SPECI KRND 081327Z 05006KT 6SM -RA BR BKN008 BKN013 BKN050 25/24 A2996
      RMK AO2A RAB1327 SLP135=
SPECI KSZL 081327Z 03006KT 10SM SCT007 BKN040 24/23 A3007=
SPECI KTBN 081325Z 00000KT 10SM SCT005 OVC034 24/21 A3010 RMK AO2A
      SLP174 $=
SPECI PAED 081326Z AUTO 00000KT 10SM -DZ FEW011 BKN080 BKN100 12/10
      A2999 RMK AO2 RAE1256B1316E1325DZB1256E1258B1325 SLP155 $=
SPECI PAED 081329Z AUTO 00000KT 10SM FEW055 BKN075 BKN100 12/10 A2999
      RMK AO2 RAE1256B1316E1325DZB1256E1258B1325E1329 SLP156 $=
SPECI PALU 081325Z 21027KT 10SM FEW100 12/03 A3004 RMK SLPNO BWC LOW=
PATC SP 1335 AWOS CLR BLO 120 10 47/44/0104/013=
SPECI PGUA 081325Z AUTO 12012KT 9SM R06R/5000VP6000FT R06L/5500VP6000FT
      -RA BKN013 26/ A2991 RMK AO2 RAB1325 SLP110 VISNO RWY24L $=
SPECI RJTY 081329Z AUTO 16007KT 9999 BKN018 24/22 A2990 RMK AO2 SLP117
      $=
SPECI YBTL 081330Z AUTO 15008KT 9999NDV // BKN010 OVC020 22/20 Q1017=
####018000088####
SASR31 WSSS 081330
METAR WSSS 081330Z 22003KT 9999 FEW016 SCT280 28/24 Q1010 NOSIG=
####018000087####
SPUS81 KWBC 081331
SPECI
KSAT 081327Z 05007KT 8SM -RA BKN008 OVC020 26/24 A2997=
####018000124####
SAUS44 KMAF 081331
MTRGDP
SPECI KGDP 081330Z AUTO 05021KT 1 1/4SM BR BKN004 BKN070 OVC120 
17/16 A3025 RMK AO2 TSNO
####018000120####
SPUS90 KWBC 081332
SPECI KGDP 081330Z AUTO 05021KT 1 1/4SM BR BKN004 BKN070 OVC120
     17/16 A3025 RMK AO2 TSNO=
####018000627####
SAUS20 KNKA 081331
SPECI KBMI 081331Z 24004KT 10SM BKN009 BKN070 25/23 A3007 RMK AO2 $=
METAR KBNL 081335Z AUTO 34007KT 10SM CLR 30/19 A3000 RMK AO2 =
SPECI KCNU 081330Z AUTO 10003KT 3SM BR OVC001 23/22 A3009 RMK AO2=
METAR KCQW 081335Z AUTO 34003KT 4SM  HZ CLR 29/19 A2998 RMK AO2 =
SPECI KCRQ 081330Z AUTO 00000KT 6SM HZ FEW007 OVC015 17/14 A2990 RMK 
    AO2=
METAR KLKR 081335Z AUTO 00000KT 9SM CLR 28/22 A3001 RMK AO2 =
SPECI KMKG 081330Z 20007KT 3SM -RA BR BKN007 BKN023 OVC055 24/22 
    A3003 RMK AO2 RAB03 P0002=
SPECI KPNE 081330Z VRB04KT 2 1/2SM HZ OVC010 26/23 A3005 RMK AO2 SFC 
    VIS 6=
####018000123####
SAAK41 KNKA 081331
SPECI PAIL 081329Z AUTO 05005KT 1/2SM FG BKN001 OVC065 08/08 A2995 
    RMK AO2 RAE02 P0000 TSNO=
####018000081####
SAAL40 DAMM 081300 RRA
METAR DAAT 081300Z 11011KT 060V170 CAVOK 34/03 Q1022=
####018000073####
SAAL41 DAMM 081300 RRE
METAR DAAJ 081300Z 04006KT CAVOK 36/04 Q1018=
####018000434####
SAUS99 KWBC 081332
METAR
K5C1 081328Z AUTO 05004KT 10SM OVC008 25/23 A3000 RMK AO1=
KARM 081325Z AUTO 04006KT 7SM SCT037 SCT045 BKN085 27/25 A2993 RMK
     AO2 T02660248=
KONM 081327Z AUTO 36006KT 10SM BKN080 19/15 A3027 RMK AO2
     T01890150=
KBNL 081335Z AUTO 34007KT 10SM CLR 30/19 A3000 RMK AO2=
KCQW 081335Z AUTO 34003KT 4SM HZ CLR 29/19 A2998 RMK AO2=
KLKR 081335Z AUTO 00000KT 9SM CLR 28/22 A3001 RMK AO2=
####018000732####
SPUS99 KWBC 081332
SPECI
KALI 081330Z AUTO 04008KT 8SM -RA SCT006 BKN016 OVC024 25/25 A2985
     RMK AO2 P0006=
KMKO 081329Z AUTO 00000KT 8SM BKN003 OVC008 24/23 A3006 RMK
     AO2=
KTXK 081329Z 15004KT 10SM BKN005 BKN080 24/24 A3007 RMK AO2=
PAIL 081329Z AUTO 05005KT 1/2SM FG BKN001 OVC065 08/08 A2995 RMK
     AO2 RAE02 P0000 TSNO=
KBMI 081331Z 24004KT 10SM BKN009 BKN070 25/23 A3007 RMK AO2 $=
KCNU 081330Z AUTO 10003KT 3SM BR OVC001 23/22 A3009 RMK AO2=
KCRQ 081330Z AUTO 00000KT 6SM HZ FEW007 OVC015 17/14 A2990 RMK
     AO2=
KMKG 081330Z 20007KT 3SM -RA BR BKN007 BKN023 OVC055 24/22 A3003
     RMK AO2 RAB03 P0002=
KPNE 081330Z VRB04KT 2 1/2SM HZ OVC010 26/23 A3005 RMK AO2 SFC VIS
     6=
####018000096####
SAUS98 KWBC 081332
METAR KEHA 081328Z AUTO 01008KT 18/17 RMK AO1 PK WND 13 004
T01780167=
####018000139####
SAPY SGAS 081330
METAR SGAS 081330Z 14007KT 9000 BKN010 OVC015 17/15 Q1016=
METAR SGES 081330Z 15008KT 9999 FEW030 BKN080 19/17 Q1016=
####018000087####
SPEQ00 SEQU 081330
SPECI
SEGU 081330Z  20005KT -DZ 8000S 9999N  23/19 Q1012 NOSIG=
####018000097####
SAPF20 NTAA 081330
METAR NTAA 081330Z AUTO 09004KT 9999NDV FEW050/// BKN120/// 24/22
Q1015=
####018000079####
SANC01 NWWW 081330
METAR NWWW 081330Z AUTO 19003KT 9999NDV NCD 16/14 Q1015=
####018000105####
SABU31 LBSM 081330 RRA
METAR LBBG 081330Z 23005MPS 180V290 9000 RA BKN025 BKN041 17/16
 Q1015 NOSIG=
####018000074####
SAHU31 LHBM 081330
METAR LHBP 081330Z 30008KT CAVOK 24/11 Q1021 NOSIG=
####018000096####
SPAK31 KWBC 081332
SPECI
PAED 081329Z AUTO 00000KT 10SM FEW055 BKN075 BKN100 12/10 A2999=
####018000087####
SASR31 WSSS 081330
METAR WSSS 081330Z 22003KT 9999 FEW016 SCT280 28/24 Q1010 NOSIG=
####018000102####
SPAK31 KWBC 081332
SPECI
PAED 081326Z AUTO 00000KT 10SM -DZ FEW011 BKN080 BKN100 12/10
A2999=
####018001112####
SPXX60 KWBC 081332
SPECI
KGRK 081320Z 05007KT 7SM -SHRA BKN008 BKN013 27/24 A3001=
KNFL 081325Z 29004KT 10SM FEW120 SCT150 18/01 A3002 RMK AO2=
KNFW 081327Z 13007KT 10SM SCT012 BKN024 27/22 A3008 RMK AO2=
KNGP 081322Z 03005KT 5SM RA BR FEW008 BKN019CB BKN025 28/26 A2983
     RMK AO2 RAB12 CB DSNT S TCU OHD-NE TCU DSNT SW-W WR//
     P0004=
KRND 081327Z 05006KT 6SM -RA BR BKN008 BKN013 BKN050 25/24 A2996
     RMK AO2A RAB1327 SLP135=
KSZL 081327Z 03006KT 10SM SCT007 BKN040 24/23 A3007=
KTBN 081325Z 00000KT 10SM SCT005 OVC034 24/21 A3010 RMK AO2A
     SLP174 $=
PAED 081326Z AUTO 00000KT 10SM -DZ FEW011 BKN080 BKN100 12/10
     A2999 RMK AO2 RAE1256B1316E1325DZB1256E1258B1325 SLP155 $=
PAED 081329Z AUTO 00000KT 10SM FEW055 BKN075 BKN100 12/10 A2999
     RMK AO2 RAE1256B1316E1325DZB1256E1258B1325E1329 SLP156 $=
PALU 081325Z 21027KT 10SM FEW100 12/03 A3004 RMK SLPNO BWC LOW=
PATC SP 1335 AWOS CLR BLO 120 10 47/44/0104/013=
PGUA 081325Z AUTO 12012KT 9SM R06R/5000VP6000FT R06L/5500VP6000FT
     -RA BKN013 26/ A2991 RMK AO2 RAB1325 SLP110 VISNO RWY24L
     $=
####018000282####
SAXX60 KWBC 081300 RRL
METAR
KDOV 081255Z 12008KT 10SM FEW130 26/23 A3002 RMK AO2A SLP168
     T02600233 $=
KDOV 081255Z 12008KT 10SM FEW130 26/23 A3002 RMK AO2A SLP168
     T02600233 $=
KDOV 081255Z 12008KT 10SM FEW130 26/23 A3002 RMK AO2A SLP168
     T02600233 $=
####018000357####
SPUS80 KWBC 081332
SPECI
KGDP 081330Z AUTO 05021KT 1 1/4SM BR BKN004 BKN070 OVC120 17/16
     A3025 RMK AO2 TSNO=
KCNU 081330Z AUTO 10003KT 3SM BR OVC001 23/22 A3009 RMK AO2=
KCRQ 081330Z AUTO 00000KT 6SM HZ FEW007 OVC015 17/14 A2990 RMK
     AO2=
KMKG 081330Z 20007KT 3SM -RA BR BKN007 BKN023 OVC055 24/22 A3003
     RMK AO2 RAB03 P0002=
####018002193####
SAUS70 KWBC 081332
METAR
KC75 081326Z AUTO 00000KT 10SM BKN010 BKN018 OVC025 24/23 A3004
     RMK AO2=
KCCA 081335Z AUTO 00000KT 8SM OVC006 24/23 A3010 RMK AO2=
KCDN 081335Z AUTO 30006KT 10SM CLR 30/21 A3000 RMK A02 P000=
KCKI 081335Z AUTO 31004KT 10SM CLR 29/21 A2996 RMK AO2=
KGYB 081328Z AUTO 11004KT 2SM +RA SCT008 BKN017 OVC029 23/23 A3002
     RMK AO2 P0059=
KIGQ 081320Z AUTO 00000KT 5SM BR BKN008 BKN022 24/23 A3004 RMK AO2
     P0012=
KLRO 081335Z AUTO 30007KT 8SM CLR 28/20 A2995 RMK AO2=
KMKS 081335Z AUTO 32004KT 7SM CLR 28/21 A2996 RMK AO2 TSNO=
KRWV 081320Z AUTO 00000KT 5SM BR BKN006 OVC010 25/24 A3002 RMK
     AO2=
KRYW 081325Z AUTO 07006KT 2SM BR OVC003 24/23 A3001 RMK AO2 LTG
     DSNT SE=
KSAR 081325Z AUTO 21004KT 7SM SCT075 27/24 A3006 RMK AO2=
KSLO 081325Z AUTO 24005KT 10SM SCT041 SCT090 29/23 A3006 RMK AO2
     LTG DSNT NW T02850229=
KSLR 081322Z AUTO 14005KT 7SM SCT008 SCT012 OVC065 27/23 A3007 RMK
     AO2 T02660231=
KSNK 081326Z AUTO 03007KT 10SM BKN005 OVC011 22/20 A3012 RMK AO2
     T02150202=
KSWW 081325Z AUTO 02004KT 1 1/4SM OVC002 22/21 A3012 RMK AO1
     T02170213=
KT65 081325Z AUTO 02008KT 10SM CLR 27/25 A2979 RMK AO2
     T02670250=
KT82 081325Z AUTO 10006KT BKN008 BKN012 OVC041 24/22 A3004 RMK AO1
     T02360219=
KTAZ 081325Z AUTO 00000KT 10SM CLR 28/23 A3004 RMK AO2 LTG DSNT
     SW=
KTIP 081325Z AUTO 00000KT 10SM SCT085 27/25 A3005 RMK AO2
     T02680245=
KTYQ 081325Z AUTO 20004KT 10SM SCT120 27/22 A3006 RMK AO2=
KUVA 081325Z AUTO 04006KT 10SM CLR 26/23 A2997 RMK AO2
     T02550231=
KVYS 081325Z AUTO 28003KT 10SM SCT007 BKN013 OVC038 24/22 A3004
     RMK AO2 T02420220=
KXBP 081325Z AUTO 00000KT 10SM SCT014 OVC029 25/23 A3006 RMK AO2
     T02510232=
K5C1 081328Z AUTO 05004KT 10SM OVC008 25/23 A3000 RMK AO1=
KARM 081325Z AUTO 04006KT 7SM SCT037 SCT045 BKN085 27/25 A2993 RMK
     AO2 T02660248=
KONM 081327Z AUTO 36006KT 10SM BKN080 19/15 A3027 RMK AO2
     T01890150=
KBNL 081335Z AUTO 34007KT 10SM CLR 30/19 A3000 RMK AO2=
KCQW 081335Z AUTO 34003KT 4SM HZ CLR 29/19 A2998 RMK AO2=
KLKR 081335Z AUTO 00000KT 9SM CLR 28/22 A3001 RMK AO2=
####018000172####
SAAF31 KWBC 081300 RRE
METAR
DIAP 081330Z 21007KT 180V260 8000 SCT012 BKN020 29/25 Q1014
     NOSIG=
DXXX 081330Z 19012KT 9999 FEW016 FEW025CB 29/24 Q1013 NOSIG=
####018000927####
SPUS70 KWBC 081332
SPECI
KHVN 081329Z 11006KT 10SM SCT010 BKN033 OVC050 26/22 A3007 RMK
     AO2=
KJCT 081327Z AUTO 07003KT 8SM SCT006 BKN010 BKN022 24/22 A3004 RMK
     AO2 TSNO=
KMTH 081329Z AUTO 05004KT 10SM FEW026 SCT065 BKN080 A2995 RMK AO2
     TSB08E23UPB01E10 P0000 FZRANO $=
KRKP 081329Z AUTO 36005KT 10SM FEW020 BKN032 OVC055 A2986 RMK AO2
     RAE05 P0000 FZRANO $=
KTUL 081329Z 00000KT 9SM FEW006 OVC100 24/23 A3004 RMK AO2=
KALI 081330Z AUTO 04008KT 8SM -RA SCT006 BKN016 OVC024 25/25 A2985
     RMK AO2 P0006=
KMKO 081329Z AUTO 00000KT 8SM BKN003 OVC008 24/23 A3006 RMK
     AO2=
KTXK 081329Z 15004KT 10SM BKN005 BKN080 24/24 A3007 RMK AO2=
PAIL 081329Z AUTO 05005KT 1/2SM FG BKN001 OVC065 08/08 A2995 RMK
     AO2 RAE02 P0000 TSNO=
KBMI 081331Z 24004KT 10SM BKN009 BKN070 25/23 A3007 RMK AO2 $=
KPNE 081330Z VRB04KT 2 1/2SM HZ OVC010 26/23 A3005 RMK AO2 SFC VIS
     6=
####018000095####
SPAU31 KWBC 081332
SPECI
YBTL 081330Z AUTO 15008KT 9999NDV // BKN010 OVC020 22/20 Q1017=
####018000398####
SAAW31 KWBC 081300 RRA
METAR
LTAC 081320Z 08011KT 9999 FEW030CB SCT035 28/13 Q1010 TEMPO
     -TSRA=
LTAF 081320Z /////KT 9999 SCT035 31/20 Q1007 NOSIG=
LTAI 081320Z 18009KT 150V220 9999 SCT030 29/22 Q1007 NOSIG=
LTBA 081320Z 35019KT 9999 BKN035 23/16 Q1012 TEMPO 4000 -TSRA=
LTBJ 081320Z 35016KT 9999 FEW030 30/14 Q1010 NOSIG=
LTBS 081320Z 21011KT 9999 FEW030 31/20 Q1007 NOSIG=
####018000095####
SAAO33 KWBC 081300 RRC
METAR
GOOY 081330Z 16008KT 120V210 9999 SCT013 31/25 Q1012 NOSIG=
####018000236####
SAUS80 KWBC 081332
METAR
KRFI 081325Z AUTO 13004KT 5SM BR OVC100 26/24 A3005 RMK AO2
     T02550235=
KSOA 081320Z AUTO 02005KT 8SM 23/22 A3010 RMK AO2=
KEHA 081328Z AUTO 01008KT 18/17 RMK AO1 PK WND 13 004
     T01780167=
####018000083####
SAAL31 KWBC 081300 RRC
METAR
DAAT 081300Z 11011KT 060V170 CAVOK 34/03 Q1022=
####018000291####
SAAW34 KWBC 081315 RRA
METAR
OPGD 081330Z NIL=
OPKC 081325Z 24012KTS 8000 SCT030 SCT100 33/24 Q1002 NOSIG=
OPLA 081330Z NIL=
OPNH 081330Z NIL=
OPPS 081330Z NIL=
OPRN 081330Z NIL=
OPSK 081330Z NIL=
UTTT 081330Z 32002MPS 270V360 CAVOK 37/07 Q1009 R08R/CLRD70
     NOSIG=
####018000080####
SPAK32 KWBC 081332
SPECI
PATC SP 1335 AWOS CLR BLO 120 10 47/44/0104/013=
####018000486####
SAAW41 KWBC 081350 RRC
METAR
LTAJ 081320Z 24006KT 180V280 CAVOK 37/11 Q1006 NOSIG=
LTAN 081320Z 20004KT 9999 SCT040 32/07 Q1009 NOSIG=
LTAU 081320Z 23005KT 190V270 9999 SCT040 34/12 Q1009 NOSIG=
LTCC 081320Z 15011KT 120V180 CAVOK 40/02 Q1005 NOSIG=
LTCE 081320Z VRB03KT 9999 SCT030 31/05 Q1016 NOSIG=
LTCG 081320Z 07007KT 9999 FEW018 SCT035 27/22 Q1010 NOSIG=
LTCI 081320Z 22005KT 190V260 CAVOK 26/19 Q1016 NOSIG=
LTFE 081320Z 26020KT 9999 FEW035 32/16 Q1007 NOSIG=
####018000077####
SPAK32 KWBC 081332
SPECI
PALU 081325Z 21027KT 10SM FEW100 12/03 A3004=
####018000141####
SAPY SGAS 081330
METAR SGAS 081330Z 14007KT 9000 BKN010 OVC015 17/15 Q1016=
METAR SGES 081330Z 15008KT 9999 FEW030 BKN080 19/17 Q1016=
####018000080####
SAAL31 DAAA 081300 RRA
METAR DAAT 081300Z 11011KT 060V170 CAVOK 34/03 Q1022=
####018000072####
SAAL33 DAAA 081300 RRC
METAR DAAJ 081300Z 04006KT CAVOK 36/04 Q1018=
####018000080####
SAAL40 DAMM 081300 RRA
METAR DAAT 081300Z 11011KT 060V170 CAVOK 34/03 Q1022=
####018000072####
SAAL41 DAMM 081300 RRE
METAR DAAJ 081300Z 04006KT CAVOK 36/04 Q1018=
####018000102####
SPBO SLTR 081324
SPECI SLTR 081324Z 14010KT 6000 -TSRA FEW006 SCT015 FEW020CB OVC070
22/21 Q1015=
####018000121####
SPPA41 KWBC 081332
SPECI
PGUA 081325Z AUTO 12012KT 9SM R06R/5000VP6000FT R06L/5500VP6000FT
-RA BKN013 26/ A2991=
####018000089####
SADL31 KWBC 081320 RRA
METAR
EDHL 081320Z 21009KT 170V240 CAVOK 29/13 Q1019 RMK T=
####018000086####
SADL33 KWBC 081315 RRC
METAR
EDNY 081320Z 18004KT CAVOK 28/09 Q1021 RMK ATIS T=
####018000094####
SADL32 KWBC 081320 RRA
METAR
EDLW 081320Z 24005KT 180V330 CAVOK 31/10 Q1020 RMK ATIS U=
####018000099####
SPJP45 KWBC 081332
SPECI
RJTY 081329Z AUTO 16007KT 9999 BKN018 24/22 A2990 RMK AO2 SLP117 $=
####018000159####
SPPA31 KWBC 081332
SPECI
PGUA 081325Z AUTO 12012KT 9SM R06R/5000VP6000FT R06L/5500VP6000FT
-RA BKN013 26/ A2991 RMK AO2 RAB1325 SLP110 VISNO RWY24L $=
####018000083####
SPUS31 KWBC 081332
SPECI
KPHL 081328Z 15004KT 7SM FEW010 SCT100 28/22 A3004=
####018000164####
SAPA32 KWBC 081300 RRA
METAR
NFTV 081300Z 00000KT 9999 SCT016 BKN040 23/21 Q1014=
NTAA 081330Z AUTO 09004KT 9999NDV FEW050/// BKN120/// 24/22
     Q1015=
####018000109####
SARA31 KWBC 081300 RRF
METAR
UTTT 081330Z 32002MPS 270V360 CAVOK 37/07 Q1009 R08R/CLRD70
     NOSIG=
####018000099####
SPXX62 KWBC 081332
SPECI
RJTY 081329Z AUTO 16007KT 9999 BKN018 24/22 A2990 RMK AO2 SLP117 $=
####018000091####
SPUS41 KWBC 081332
SPECI
KHVN 081329Z 11006KT 10SM SCT010 BKN033 OVC050 26/22 A3007=
####018000137####
SAUK31 KWBC 081320 RRC
METAR
EGNH 081320Z 25013KT 9999 FEW030 19/12 Q1017=
EGNJ 081320Z 25011KT 220V280 9999 SCT040 23/10 Q1017=
####018000245####
SAUK41 KWBC 081320 RRB
METAR
EGAE 081320Z 24014KT 9999 -SHRA FEW020 BKN040 17/10 Q1012=
EGBE 081320Z NIL=
EGBJ 081320Z 21006KT 180V270 9999 FEW045 23/07 Q1018=
EGDL 081320Z NIL=
EGNC 081320Z 25015KT 9999 FEW020 SCT035 17/10 Q1015=
####018000446####
SAUK42 KWBC 081320 RRA
METAR
EGPC 081320Z 20014KT 170V230 9999 VCSH FEW020 15/12 Q1009=
EGPE 081320Z 22019G30KT 9999 VCSH FEW018 SCT045 17/09 Q1010=
EGPL 081320Z 22020KT 9999 FEW018 16/12 Q1009=
EGPM 081320Z 22022KT 9999 FEW026 16/09 Q1007 NOSIG=
EGPN 081320Z 23020KT 9999 SCT045 18/11 Q1012=
EGPO 081320Z 23022G32KT 9999 VCSH FEW024 SCT034 18/09 Q1007=
EGPU 081320Z NIL=
EGSC 081320Z 23010KT 160V280 9999 SCT038 24/12 Q1018=
####018000232####
SAUK32 KWBC 081320 RRB
METAR
EGPA 081320Z 21011KT 9999 VCSH FEW020CB SCT045 17/11 Q1008=
EGPC 081320Z 20014KT 170V230 9999 VCSH FEW020 15/12 Q1009=
EGSH 081320Z 25006KT 200V310 9999 FEW026 SCT030 25/14 Q1018
     NOSIG=
####018000109####
SAXX61 KWBC 081300 RRE
METAR
LTAC 081320Z 08011KT 9999 FEW030CB SCT035 28/13 Q1010 TEMPO
     -TSRA=
####018000121####
SAXX99 KWBC 081300 CCD
METAR
CYMT 081300Z CCA 14006KT 15SM FEW030TCU SCT070 26/19 A2998 RMK
     TCU1AC2 SLP149=
####018001178####
SAXX99 KWBC 081300 RRV
METAR
DAAJ 081300Z 04006KT CAVOK 36/04 Q1018=
EGCN 081320Z 25011KT 220V280 9999 FEW048 23/08 Q1017=
EGEC 081320Z NIL=
EGNR 081320Z 24010KT 220V310 9999 SCT040 22/09 Q1017=
EGPI 081320Z NIL=
EGVN 081320Z NIL=
EGWU 081320Z NIL=
EGYD 081250Z 26013KT 9999 FEW048 BKN250 22/09 Q1017 NOSIG=
LBGO 081330Z 27003MPS 9999 -RA SCT008 BKN025 OVC040 16/15 Q1017
     NOSIG=
LHDC 081315Z 35008KT 9999 FEW046 23/12 Q1021 NOSIG=
LHKE 081315Z 26003MPS CAVOK 25/11 Q1020 NOSIG RMK BLU=
LHPP 081315Z 34005KT CAVOK 24/10 Q1022 NOSIG=
LHSN 081315Z 30002MPS CAVOK 25/10 Q1021 NOSIG RMK BLU=
LHUD 081315Z 34005KT 9999 SCT040 SCT050 24/15 Q1021=
LOXT 081320Z 34004KT 270V050 50KM FEW060CU 26/13 Q1022 NOSIG RMK
     FEW=
LTAZ 081320Z NIL=
LTBR 081320Z 31013KT 9999 SCT035TCU BKN100 24/17 Q1011 TEMPO
     -TSRA=
LTBU 081320Z 29012KT 9999 -SHRA FEW010 BKN030TCU BKN100 17/15
     Q1014=
LTCF 081320Z 12011KT CAVOK 30/08 Q1018=
LTFH 081320Z 04009KT 9999 SCT036 BKN100 27/23 Q1009 NOSIG=
LTFJ 081320Z 01014KT 9999 BKN030 22/17 Q1012 NOSIG=
UBBN 081330Z 10014G24KT 9999 NSC 38/09 Q1007 R14R/CLRD60 NOSIG RMK
     G/O QFE681=
####018000083####
SPUS42 KWBC 081332
SPECI
KTUL 081329Z 00000KT 9SM FEW006 OVC100 24/23 A3004=
####018000089####
SPEQ00 SEQU 081330
SPECI
SEGU 081330Z  20005KT -DZ 8000S 9999N  23/19 Q1012 NOSIG=
####018000143####
SAPY59 SGAS 081330
METAR SGAS 081330Z 14007KT 9000 BKN010 OVC015 17/15 Q1016=
METAR SGES 081330Z 15008KT 9999 FEW030 BKN080 19/17 Q1016=
####018000141####
SAUS44 KFWD 081332
MTRNQI
SPECI KNQI 081330Z 02007KT 10SM SCT016CB BKN120 BKN280 28/24 A2984 
RMK AO2 CB DSNT NE AND E-SE AND NW-N $
####018000130####
SAUS44 KFWD 081332
MTRHLR
SPECI KHLR 081330Z AUTO 06005KT 9SM FEW009 BKN013 OVC034 26/ A3002 
RMK AO2 RAE04 P0000 T0261 $
####018000104####
SPUS52 KWBC 081332
SPECI
KGDP 081330Z AUTO 05021KT 1 1/4SM BR BKN004 BKN070 OVC120 17/16
A3025=
####018000849####
SAUR30 UKMS 081330
METAR UKBB 081330Z 31003MPS 270V340 9999 BKN040 26/17
         Q1014 88CLRD95    NOSIG=
METAR UKHH 081330Z 16003MPS 110V200 9999 SCT040
         BKN200  30/13 Q1014 080///65 NOSIG=
METAR UKOO 081330Z 34005MPS 300V020 CAVOK 27/14 Q1014
          34090070 NOSIG=
METAR UKDE 081330Z 00000MPS 9999 SCT050 30/17 Q1013 
         20CLRD70 NOSIG=
METAR UKDD 081330Z VRB02MPS 9999 SCT033TCU 29/19
         Q1013  08090070 NOSIG=
METAR UKFF 081330Z VRB02MPS CAVOK 29/15 Q1012
         01010070 NOSIG=
METAR UKLL 081330Z 29003MPS 220V350 9999 SCT034
         BKN100  21/12 Q1021 31210365 NOSIG=
METAR UKCC 081330Z 06003MPS CAVOK 28/15 Q1014
         08090070 NOSIG=
METAR UKDR 081330Z 00000MPS 9999 VCTS SCT033CB BKN200
          28/17 Q1013 1809//70 TEMPO 26006G14MPS
         3100 -TSRAGR BKN015CB=
####018000089####
SPUS52 KWBC 081332
SPECI
KMWL 081327Z AUTO 13003KT 10SM FEW010 BKN035 24/23 A3004=
####018000079####
SPUS52 KWBC 081332
SPECI
KPWA 081327Z 34004KT 6SM BR FEW005 23/22 A3007=
####018000089####
SAHK31 VHHH 081330
METAR VHHH 081330Z 19005KT 080V230 9999 FEW020 31/25 Q1008 NOSIG=
####018000103####
SACN87 CWAO 081300 RRC
WWS SA 1300 AUTO8 M M M 141/17/13/3011/M/ PK WND 3118 1220Z M007
67MM=

####018000680####
SACN59 CWAO 081300 RRE
PFI SA 1300 AUTO8 M M M M/13/11/1903/M/ M 21MM=
PRY SA 1300 AUTO8 M M M M/12/09/2503/M/ M 57MM=
PSV SA 1300 AUTO8 M M M M/12/10/2405/M/ M 90MM=
XAK SA 1300 AUTO8 M M M M/15/11/2007/M/ M 68MM=
XHD SA 1300 AUTO8 M M M M/12/10/2206/M/ M 49MM=
XMO SA 1300 AUTO8 M M M M/12/10/2004/M/ M 57MM=
XOL SA 1300 AUTO8 M M M M/13/09/2408/M/ M 79MM=
XPL SA 1300 AUTO8 M M M M/11/10/0000/M/ M 01MM=
XSL SA 1300 AUTO8 M M M M/15/-04/1304/M/M M 54MM=
XSP SA 1300 AUTO8 M M M M/12/11/2403/M/ M 21MM=
XVM SA 1300 AUTO8 M M M M/13/11/2302/M/ M 78MM=
ZOL SA 1300 AUTO8 M M M M/15/12/0203/M/ M 06MM=
ZPS SA 1300 AUTO8 M M M M/14/09/2307/M/ M 23MM=

####018000132####
SACN78 CWAO 081300 RRD
WNB SA 1300 AUTO8 M M M M/M/M/MM08/M/M M MMMM=
WPS SA 1300 AUTO8 M M M 158/24/M/1809/M/M 1001 4MMM=

####018000228####
SACN98 CWAO 081300 RRE
XAG SA 1300 AUTO8 M M M M/15/13/3207/M/ M 09MM=
XAJ SA 1300 AUTO8 M M M M/14/12/2203/M/ M 34MM=
XBA SA 1300 AUTO8 M M M M/16/12/2703/M/ M 78MM=
XCS SA 1300 AUTO8 M M M M/11/09/2306/M/ M 34MM=

####018000083####
SACN96 CWAO 081300 RRE
WYF SA 1300 AUTO8 M M M 101/06/05/2606/M/ 8001 80MM=

####018000083####
SACN90 CWAO 081300 RRD
WEC SA 1300 AUTO8 M M M 128/19/15/2404/M/ 1001 41MM=

####018000201####
SACN94 CWAO 081300 RRE
WQO SA 1300 AUTO8 M M M M/11/M/0307/M/M M 0MMM=
WQS SA 1300 AUTO8 M M M M/13/M/0204/M/ PK WND 3621 1219Z M 6MMM=
WRR SA 1300 AUTO8 M M M 186/06/05/3601/M/M 2004 92MM=

####018000083####
SACN97 CWAO 081300 RRD
XTV SA 1300 AUTO8 M M M 175/06/M/2809/M/M 1005 9MMM=

####018000107####
SABU31 LBSM 081330 RRA
METAR LBBG 081330Z 23005MPS 180V290 9000 RA BKN025 BKN041 17/16
 Q1015 NOSIG=
####018000424####
SATU32 LTAA 081320
METAR LTAN 081320Z 20004KT 9999 SCT040 32/07 Q1009 NOSIG=
METAR LTAU 081320Z 23005KT 190V270 9999 SCT040 34/12 Q1009 NOSIG=
METAR LTBR 081320Z 31013KT 9999 SCT035TCU BKN100 24/17 Q1011 TEMPO -TSRA=
METAR LTBU 081320Z 29012KT 9999 -SHRA FEW010 BKN030TCU BKN100 17/15 Q1014=
METAR LTCC 081320Z 15011KT 120V180 CAVOK 40/02 Q1005 NOSIG=
METAR LTCE 081320Z VRB03KT 9999 SCT030 31/05 Q1016 NOSIG=
####018000107####
SATU33 LTAA 081320
METAR LCEN 081320Z 14014KT 9999 SCT025 32/18 Q1007 NOSIG=
METAR LCGK 081320Z NIL=
####018000915####
SATU31 LTAA 081320
METAR LTAC 081320Z 08011KT 9999 FEW030CB SCT035 28/13 Q1010 TEMPO -TSRA=
METAR LTAF 081320Z /////KT 9999 SCT035 31/20 Q1007 NOSIG=
METAR LTAI 081320Z 18009KT 150V220 9999 SCT030 29/22 Q1007 NOSIG=
METAR LTAJ 081320Z 24006KT 180V280 CAVOK 37/11 Q1006 NOSIG=
METAR LTAZ 081320Z NIL=
METAR LTBA 081320Z 35019KT 9999 BKN035 23/16 Q1012 TEMPO 4000 -TSRA=
METAR LTBJ 081320Z 35016KT 9999 FEW030 30/14 Q1010 NOSIG=
METAR LTBS 081320Z 21011KT 9999 FEW030 31/20 Q1007 NOSIG=
METAR LTCF 081320Z 12011KT CAVOK 30/08 Q1018=
METAR LTCG 081320Z 07007KT 9999 FEW018 SCT035 27/22 Q1010 NOSIG=
METAR LTCI 081320Z 22005KT 190V260 CAVOK 26/19 Q1016 NOSIG=
METAR LTCS 081320Z VRB04KT CAVOK 38/03 Q1008=
METAR LTFE 081320Z 26020KT 9999 FEW035 32/16 Q1007 NOSIG=
METAR LTFH 081320Z 04009KT 9999 SCT036 BKN100 27/23 Q1009 NOSIG=
METAR LTFJ 081320Z 01014KT 9999 BKN030 22/17 Q1012 NOSIG=
####018000207####
SASQ31 LZIB 081330
METAR LZIB 081330Z 34011KT 300V010 CAVOK 25/08 Q1021=
METAR LZKZ 081330Z 02008KT 350V070 CAVOK 24/07 Q1020 NOSIG=
METAR LZTT 081330Z 07011KT 040V110 9999 FEW053 21/07 Q1022 NOSIG=
####018000083####
SPUS72 KWBC 081332
SPECI
KTUL 081329Z 00000KT 9SM FEW006 OVC100 24/23 A3004=
####018000387####
SAHK31 VHHH 081330
METAR VHHH 081330Z 19005KT 080V230 9999 FEW020 31/25 Q1008 NOSIG=
METAR RCTP 081330Z 18008KT 150V220 9999 FEW025 SCT150 29/25
Q1007 NOSIG=
METAR RCKH 081330Z 27007KT 9999 FEW013 BKN300 30/26 Q1010
NOSIG=
METAR RCSS 081330Z 09003KT 050V140 9999 FEW030 SCT120 30/24
Q1008 NOSIG=
METAR VMMC 081330Z 19010KT 180V260 9999 FEW020 29/27 Q1007
     NOSIG=
####018000104####
SPUS81 KWBC 081332
SPECI
KGDP 081330Z AUTO 05021KT 1 1/4SM BR BKN004 BKN070 OVC120 17/16
A3025=
####018000085####
SAZA42 FAJS 081330 RRA
METAR FAJS 081330Z VRB08KT 9999 SCT045 16/02 Q1032 NOSIG=
####018000357####
SAMC31 GMMC 081330
METAR GMME 081330Z 34008KT 310V050 6000 SCT010 BKN016 26/19 Q1016
NOSIG=
METAR GMMN 081330Z 01009KT 340V040 CAVOK 29/19 Q1016 NOSIG=
METAR GMMX 081330Z 34006KT 290V030 8000 FEW026 37/15 Q1016 NOSIG=
METAR GMTT 081330Z 28008KT 250V310 8000 FEW016 SCT100 27/19 Q1016
NOSIG=
METAR GMAD 081330Z NIL=
METAR GMFF 081330Z NIL=
####018000085####
SAAL40 DAMM 081230 CCA
METAR COR DAAT 081230Z 10013KT 050V150 CAVOK 34/03 Q1022=
####018000412####
SPNA14 KAWN 081332 RRD
SPECI KNFL 081325Z 29004KT 10SM FEW120 SCT150 18/01 A3002 RMK AO2=
SPECI KRND 081327Z 05006KT 6SM -RA BR BKN008 BKN013 BKN050 25/24 A2996
      RMK AO2A RAB1327 SLP135=
SPECI KSZL 081327Z 03006KT 10SM SCT007 BKN040 24/23 A3007=
SPECI KTBN 081325Z 00000KT 10SM SCT005 OVC034 24/21 A3010 RMK AO2A
      SLP174 $=
SPECI SEGU 081330Z 20005KT -DZ 8000S 9999N 23/19 Q1012 NOSIG=
####018000462####
SAXX70 KAWN 081300 RRR
METAR KQEN 081330Z AUTO 24005KT 5SM BR BKN070 18/16 A3042 RMK A02=
METAR KQEP 081330Z AUTO 00000KT 6SM -SHRA FEW060 FEW070 BKN095 22/19
      A2990 RMK A02=
METAR KQER 081330Z AUTO 09001KT 1SM BR BKN003 21/19 A2992 RMK A02=
METAR KQES 081330Z AUTO 26007KT 5SM BR BKN110 20/18 A2988 RMK A02=
METAR KQEY 081330Z AUTO 23003KT 7SM BKN085 25/19 A2964 RMK A02=
METAR KQEV 081340Z AUTO 33001KT 6SM -RA BKN055 22/19 A2982 RMK A02=
####018000086####
SAMT20 GQNN 081330
METAR GQNN 081330Z 20013KT 170V240 6000 NSC 32/21 Q1012 NOSIG=
####018000074####
SACN50 CWAO 081330
WPN SA 1330 AUTO8 M M M M/13/M/0000/M/M M 6MMM=

####018000074####
SACN50 CWAO 081315
WPN SA 1315 AUTO8 M M M M/11/M/0000/M/M M 4MMM=

####018000075####
SACN50 CWAO 081330
VOB SA 1330 AUTO8 M M M M/15/07/0101/M/M M 13MM=

####018000075####
SACN50 CWAO 081330
VOC SA 1330 AUTO8 M M M M/11/09/1601/M/M M 18MM=

####018000075####
SACN50 CWAO 081330
VOK SA 1330 AUTO8 M M M M/14/07/0501/M/M M 19MM=

####018000075####
SACN94 CWAO 081330
WSK SA 1330 AUTO8 M M M M/16/11/0103/M/M M 55MM=

####018000075####
SACN50 CWAO 081330
VOF SA 1330 AUTO8 M M M M/13/07/3401/M/M M 85MM=

####018000075####
SACN95 CWAO 081330
WWA SA 1330 AUTO8 M M M M/19/11/0502/M/M M 45MM=

####018000075####
SACN50 CWAO 081330
VOU SA 1330 AUTO8 M M M M/17/10/3102/M/M M 43MM=

####018000075####
SACN50 CWAO 081330
VOV SA 1330 AUTO8 M M M M/11/07/0401/M/M M 70MM=

####018000075####
SACN50 CWAO 081330
VOD SA 1330 AUTO8 M M M M/11/05/0903/M/M M 48MM=

####018000075####
SACN50 CWAO 081330
VOY SA 1330 AUTO8 M M M M/12/07/3401/M/M M 58MM=

####018000075####
SACN50 CWAO 081330
VOH SA 1330 AUTO8 M M M M/15/03/0504/M/M M 85MM=

####018000075####
SACN50 CWAO 081315
VOV SA 1315 AUTO8 M M M M/11/07/0401/M/M M 69MM=

####018000074####
SACN50 CWAO 081330
VOJ SA 1330 AUTO8 M M M M/18/M/0502/M/M M 2MMM=

####018000075####
SACN50 CWAO 081330
VWB SA 1330 AUTO8 M M M M/16/06/MMMM/M/M M 41MM=

####018000075####
SACN50 CWAO 081330
WHC SA 1330 AUTO8 M M M M/18/13/MMMM/M/M M 80MM=

####018000121####
SAUK39 EGRR 081050 CCE
METAR COR EGDM 081050Z 21004KT 9999 SCT018 SCT130 BKN250 19/15 Q1019
 WHT BECMG BKN025 BLU=
####018001869####
SAUS20 KNKA 081332
METAR K1F0 081327Z AUTO 00000KT 24/24 A3003 RMK AO2 PWINO=
METAR K36U 081335Z AUTO 00000KT 7SM CLR 13/07 A3025 RMK AO2=
METAR K4O4 081328Z AUTO 13006KT 25/23 A3008 RMK AO2=
METAR KADH 081330Z AUTO 00000KT 10SM SCT005 BKN008 OVC026 23/22 
     A3006 RMK AO2=
METAR KALM 081330Z AUTO 14005KT 10SM CLR 20/15 A3017 RMK AO2=
METAR KATS 081330Z AUTO 35008KT 10SM -RA BKN017 OVC033 19/18 
     A3019 RMK AO2=
METAR KAXS 081330Z AUTO 00000KT 10SM RA SCT038 BKN050 OVC080 
     23/22 A3010 RMK AO2 T02340218=
METAR KAXX 081330Z AUTO 00000KT 10SM CLR 07/05 A3050 RMK AO2=
SPECI KBED 081331Z 15005KT 7SM SCT020 27/21 A3008 RMK AO2=
METAR KCHK 081331Z AUTO 01006KT 2SM BR OVC002 23/23 A3007 RMK AO2=
METAR KDUA 081337Z AUTO 16007KT 10SM BKN006 BKN027 OVC090 26/24 
     A3005 RMK AO2=
SPECI KDWH 081331Z 10008KT 4SM RA BR SCT009 BKN016 OVC023 24/23 
    A2999 RMK AO2 RAB04 P0011=
METAR KGCM 081335Z AUTO 00000KT 10SM BKN003 BKN007 BKN011 23/23 
     A3008 RMK AO2=
METAR KGMJ 081334Z AUTO 00000KT BKN014 BKN020 OVC039 24/24 A3007 
     RMK AO2 P0006 PWINO=
SPECI KHRL 081331Z 36010KT 8SM -RA BKN012 BKN018 26/26 A2979 RMK AO2 
    RAB28 P0000=
METAR KIDP 081330Z AUTO 08004KT 10SM OVC008 22/21 A3007 RMK AO2=
SPECI KISP 081331Z 12008KT 10SM FEW011 BKN016 BKN030 OVC130 27/20 
    A3005 RMK AO2=
METAR KIZA 081329Z AUTO 00000KT 10SM OVC007 13/11 A2992 RMK AO2=
METAR KJSV 081330Z AUTO 10003KT 10SM SCT034 BKN048 OVC055 24/23 
     A3006 RMK AO2=
METAR KJWG 081330Z AUTO 03006KT 10SM SCT008 23/23 A3012 RMK AO2=
METAR KLRU 081331Z AUTO 02010G14KT 10SM CLR 22/14 A3019 RMK AO2=
METAR KOKM 081331Z AUTO 03004KT 10SM OVC007 24/24 A3005 RMK AO1=
METAR KPTS 081330Z AUTO 13005KT 3SM RA BKN017 OVC023 22/ A3007 
     RMK AO2 P0008 T0220=
SPECI KSWO 081331Z 36005KT 9SM BKN004 24/22 A3007 RMK AO2=
####018000402####
SPUS99 KWBC 081333
SPECI
KBED 081331Z 15005KT 7SM SCT020 27/21 A3008 RMK AO2=
KDWH 081331Z 10008KT 4SM RA BR SCT009 BKN016 OVC023 24/23 A2999
     RMK AO2 RAB04 P0011=
KHRL 081331Z 36010KT 8SM -RA BKN012 BKN018 26/26 A2979 RMK AO2
     RAB28 P0000=
KISP 081331Z 12008KT 10SM FEW011 BKN016 BKN030 OVC130 27/20 A3005
     RMK AO2=
KSWO 081331Z 36005KT 9SM BKN004 24/22 A3007 RMK AO2=
####018001352####
SAUS99 KWBC 081333
METAR
K1F0 081327Z AUTO 00000KT 24/24 A3003 RMK AO2 PWINO=
K36U 081335Z AUTO 00000KT 7SM CLR 13/07 A3025 RMK AO2=
K4O4 081328Z AUTO 13006KT 25/23 A3008 RMK AO2=
KADH 081330Z AUTO 00000KT 10SM SCT005 BKN008 OVC026 23/22 A3006
     RMK AO2=
KALM 081330Z AUTO 14005KT 10SM CLR 20/15 A3017 RMK AO2=
KATS 081330Z AUTO 35008KT 10SM -RA BKN017 OVC033 19/18 A3019 RMK
     AO2=
KAXS 081330Z AUTO 00000KT 10SM RA SCT038 BKN050 OVC080 23/22 A3010
     RMK AO2 T02340218=
KAXX 081330Z AUTO 00000KT 10SM CLR 07/05 A3050 RMK AO2=
KCHK 081331Z AUTO 01006KT 2SM BR OVC002 23/23 A3007 RMK AO2=
KDUA 081337Z AUTO 16007KT 10SM BKN006 BKN027 OVC090 26/24 A3005
     RMK AO2=
KGCM 081335Z AUTO 00000KT 10SM BKN003 BKN007 BKN011 23/23 A3008
     RMK AO2=
KGMJ 081334Z AUTO 00000KT BKN014 BKN020 OVC039 24/24 A3007 RMK AO2
     P0006 PWINO=
KIDP 081330Z AUTO 08004KT 10SM OVC008 22/21 A3007 RMK AO2=
KIZA 081329Z AUTO 00000KT 10SM OVC007 13/11 A2992 RMK AO2=
KJSV 081330Z AUTO 10003KT 10SM SCT034 BKN048 OVC055 24/23 A3006
     RMK AO2=
KJWG 081330Z AUTO 03006KT 10SM SCT008 23/23 A3012 RMK AO2=
KLRU 081331Z AUTO 02010G14KT 10SM CLR 22/14 A3019 RMK AO2=
KOKM 081331Z AUTO 03004KT 10SM OVC007 24/24 A3005 RMK AO1=
KPTS 081330Z AUTO 13005KT 3SM RA BKN017 OVC023 22/ A3007 RMK AO2
     P0008 T0220=
####018000084####
SAZA42 FAJS 081330 RRA
METAR FAJS 081330Z VRB08KT 9999 SCT045 16/02 Q1032 NOSIG=
####018000086####
SAUZ31 UTTW 081330
METAR UTSB 081330Z 01005MPS CAVOK 39/08 Q1007 R01/CLRD70 NOSIG=
####018000349####
SAMC31 GMMC 081330
METAR GMME 081330Z 34008KT 310V050 6000 SCT010 BKN016 26/19 Q1016
NOSIG=
METAR GMMN 081330Z 01009KT 340V040 CAVOK 29/19 Q1016 NOSIG=
METAR GMMX 081330Z 34006KT 290V030 8000 FEW026 37/15 Q1016 NOSIG=
METAR GMTT 081330Z 28008KT 250V310 8000 FEW016 SCT100 27/19 Q1016
NOSIG=
METAR GMAD 081330Z NIL=
METAR GMFF 081330Z NIL=
####018000084####
SAAL31 DAAA 081230 CCA
METAR COR DAAT 081230Z 10013KT 050V150 CAVOK 34/03 Q1022=
####018000601####
SAGR31 LGAT 081320
METAR LGAD 081320Z NIL=
METAR LGAV 081320Z 06016G26KT 9999 SCT030 26/13 Q1013 NOSIG=
METAR LGIR 081320Z 35008KT 9999 SCT020 28/24 Q1011 NOSIG=
METAR LGKL 081320Z 27012KT 9999 FEW030 33/12 Q1011=
METAR LGKO 081320Z 31020KT CAVOK 29/18 Q1009=
METAR LGKR 081320Z 32023KT CAVOK 27/12 Q1012 NOSIG=
METAR LGLM 081320Z 03014KT 9999 FEW008 SCT020 22/15 Q1014=
METAR LGRP 081320Z 25014KT CAVOK 29/19 Q1008 NOSIG=
METAR LGSA 081320Z 05012KT 9999 FEW020 32/16 Q1012=
METAR LGSM 081320Z 35010KT 9999 FEW030 31/16 Q1009=
METAR LGTS 081320Z 34018G28KT 9999 FEW025 25/11 Q1016 NOSIG=
####018000504####
SAGR32 LGAT 081320
METAR LGAL 081320Z 02007KT 9999 FEW020TCU SCT025 BKN080 21/16 Q1015=
METAR COR LGEL 081320Z 36013G23KT 9999 FEW025 SCT080 29/12 Q1013=
METAR LGKV 081320Z 05008KT 9999 SCT030TCU BKN100 19/17 Q1014=
METAR LGMT 081320Z 34018G30KT 9999 SCT030 27/18 Q1011=
METAR LGPZ 081320Z 27014KT 9999 FEW025 29/18 Q1013 NOSIG=
METAR LGRX 081320Z 28011KT 9999 FEW025 27/13 Q1012 NOSIG=
METAR LGSK 081320Z NIL=
METAR LGSR 081320Z 02013KT 9999 FEW025 26/18 Q1010 NOSIG=
METAR LGZA 081320Z NIL=
####018000084####
SAAL40 DAMM 081230 CCA
METAR COR DAAT 081230Z 10013KT 050V150 CAVOK 34/03 Q1022=
####018000378####
SAHK31 VHHH 081330
METAR VHHH 081330Z 19005KT 080V230 9999 FEW020 31/25 Q1008 NOSIG=
METAR RCTP 081330Z 18008KT 150V220 9999 FEW025 SCT150 29/25
Q1007 NOSIG=
METAR RCKH 081330Z 27007KT 9999 FEW013 BKN300 30/26 Q1010
NOSIG=
METAR RCSS 081330Z 09003KT 050V140 9999 FEW030 SCT120 30/24
Q1008 NOSIG=
METAR VMMC 081330Z 19010KT 180V260 9999 FEW020 29/27 Q1007
     NOSIG=
####018000829####
SAUR30 UKMS 081330
METAR UKBB 081330Z 31003MPS 270V340 9999 BKN040 26/17
         Q1014 88CLRD95    NOSIG=
METAR UKHH 081330Z 16003MPS 110V200 9999 SCT040
         BKN200  30/13 Q1014 080///65 NOSIG=
METAR UKOO 081330Z 34005MPS 300V020 CAVOK 27/14 Q1014
          34090070 NOSIG=
METAR UKDE 081330Z 00000MPS 9999 SCT050 30/17 Q1013
         20CLRD70 NOSIG=
METAR UKDD 081330Z VRB02MPS 9999 SCT033TCU 29/19
         Q1013  08090070 NOSIG=
METAR UKFF 081330Z VRB02MPS CAVOK 29/15 Q1012
         01010070 NOSIG=
METAR UKLL 081330Z 29003MPS 220V350 9999 SCT034
         BKN100  21/12 Q1021 31210365 NOSIG=
METAR UKCC 081330Z 06003MPS CAVOK 28/15 Q1014
         08090070 NOSIG=
METAR UKDR 081330Z 00000MPS 9999 VCTS SCT033CB BKN200
          28/17 Q1013 1809//70 TEMPO 26006G14MPS
         3100 -TSRAGR BKN015CB=
####018000299####
SAGR33 LGAT 081320
METAR LGHI 081320Z NIL=
METAR LGKC 081320Z NIL=
METAR LGKF 081320Z NIL=
METAR LGKP 081320Z 34026KT CAVOK 29/17 Q1008=
METAR LGKZ 081320Z NIL=
METAR LGMK 081320Z 35020G30KT 9999 FEW015 24/17 Q1012=
METAR LGNX 081320Z NIL=
METAR LGPA 081320Z NIL=
METAR LGSO 081320Z NIL=
####018000087####
SPSA31 KWBC 081333
SPECI
SEGU 081330Z 20005KT -DZ 8000S 9999N 23/19 Q1012 NOSIG=
####018000108####
SPSA32 KWBC 081333
SPECI
SLTR 081324Z 14010KT 6000 -TSRA FEW006 SCT015 FEW020CB OVC070
22/21 Q1015=
####018000084####
SAMD90 KWBC 081332
METAR KCBE 081332Z AUTO 00000KT 7SM CLR 27/20 A3010 RMK AO1=
####018000088####
SAMD90 KWBC 081332
METAR K2W6 081332Z AUTO 11006KT 10SM BKN016 27/23 A3003 RMK AO1=
####018000084####
SAMD90 KWBC 081332
METAR K2G4 081330Z AUTO 00000KT 7SM CLR 25/14 A3020 RMK AO1=
####018000091####
SPUS41 KWBC 081333
SPECI
KCRQ 081330Z AUTO 00000KT 6SM HZ FEW007 OVC015 17/14 A2990=
####018000085####
SAMD90 KWBC 081332
METAR KCGE 081330Z AUTO 13007KT 10SM CLR 28/23 A3003 RMK AO1=
####018000084####
SAMD90 KWBC 081332
METAR KCGS 081335Z AUTO 00000KT 7SM CLR 30/23 A3002 RMK AO1=
####018000084####
SAMD90 KWBC 081332
METAR KDMW 081331Z AUTO 13003KT 7SM CLR 30/22 A3006 RMK AO2=
####018000081####
SAUS41 KWBC 081300 RRF
METAR
KDOV 081255Z 12008KT 10SM FEW130 26/23 A3002=
####018000063####
SASU01 HSSS 081330
METAR HSSS 081330Z 32007KT CAVOK Q1006=
####018000848####
SAUR30 UKMS 081330
METAR UKBB 081330Z 31003MPS 270V340 9999 BKN040 26/17
         Q1014 88CLRD95    NOSIG=
METAR UKHH 081330Z 16003MPS 110V200 9999 SCT040
         BKN200  30/13 Q1014 080///65 NOSIG=
METAR UKOO 081330Z 34005MPS 300V020 CAVOK 27/14 Q1014
          34090070 NOSIG=
METAR UKDE 081330Z 00000MPS 9999 SCT050 30/17 Q1013
         20CLRD70 NOSIG=
METAR UKDD 081330Z VRB02MPS 9999 SCT033TCU 29/19
         Q1013  08090070 NOSIG=
METAR UKFF 081330Z VRB02MPS CAVOK 29/15 Q1012
         01010070 NOSIG=
METAR UKLL 081330Z 29003MPS 220V350 9999 SCT034
         BKN100  21/12 Q1021 31210365 NOSIG=
METAR UKCC 081330Z 06003MPS CAVOK 28/15 Q1014
         08090070 NOSIG=
METAR UKDR 081330Z 00000MPS 9999 VCTS SCT033CB BKN200
          28/17 Q1013 1809//70 TEMPO 26006G14MPS
         3100 -TSRAGR BKN015CB=
####018000308####
SAGR33 LGAT 081320
METAR LGHI 081320Z NIL=
METAR LGKC 081320Z NIL=
METAR LGKF 081320Z NIL=
METAR LGKP 081320Z 34026KT CAVOK 29/17 Q1008=
METAR LGKZ 081320Z NIL=
METAR LGMK 081320Z 35020G30KT 9999 FEW015 24/17 Q1012=
METAR LGNX 081320Z NIL=
METAR LGPA 081320Z NIL=
METAR LGSO 081320Z NIL=
####018000087####
SAUZ31 UTTW 081330
METAR UTSB 081330Z 01005MPS CAVOK 39/08 Q1007 R01/CLRD70 NOSIG=
####018000081####
SAAL31 DAAA 081300 RRA
METAR DAAT 081300Z 11011KT 060V170 CAVOK 34/03 Q1022=
####018000612####
SAGR31 LGAT 081320
METAR LGAD 081320Z NIL=
METAR LGAV 081320Z 06016G26KT 9999 SCT030 26/13 Q1013 NOSIG=
METAR LGIR 081320Z 35008KT 9999 SCT020 28/24 Q1011 NOSIG=
METAR LGKL 081320Z 27012KT 9999 FEW030 33/12 Q1011=
METAR LGKO 081320Z 31020KT CAVOK 29/18 Q1009=
METAR LGKR 081320Z 32023KT CAVOK 27/12 Q1012 NOSIG=
METAR LGLM 081320Z 03014KT 9999 FEW008 SCT020 22/15 Q1014=
METAR LGRP 081320Z 25014KT CAVOK 29/19 Q1008 NOSIG=
METAR LGSA 081320Z 05012KT 9999 FEW020 32/16 Q1012=
METAR LGSM 081320Z 35010KT 9999 FEW030 31/16 Q1009=
METAR LGTS 081320Z 34018G28KT 9999 FEW025 25/11 Q1016 NOSIG=
####018000085####
SAAL31 DAAA 081230 CCA
METAR COR DAAT 081230Z 10013KT 050V150 CAVOK 34/03 Q1022=
####018000513####
SAGR32 LGAT 081320
METAR LGAL 081320Z 02007KT 9999 FEW020TCU SCT025 BKN080 21/16 Q1015=
METAR COR LGEL 081320Z 36013G23KT 9999 FEW025 SCT080 29/12 Q1013=
METAR LGKV 081320Z 05008KT 9999 SCT030TCU BKN100 19/17 Q1014=
METAR LGMT 081320Z 34018G30KT 9999 SCT030 27/18 Q1011=
METAR LGPZ 081320Z 27014KT 9999 FEW025 29/18 Q1013 NOSIG=
METAR LGRX 081320Z 28011KT 9999 FEW025 27/13 Q1012 NOSIG=
METAR LGSK 081320Z NIL=
METAR LGSR 081320Z 02013KT 9999 FEW025 26/18 Q1010 NOSIG=
METAR LGZA 081320Z NIL=
####018000624####
SAUS43 KWBC 081300 RRH
METAR
KC75 081326Z AUTO 00000KT 10SM BKN010 BKN018 OVC025 24/23
     A3004=
KHSB 081325Z AUTO 21003KT 10SM SCT100 27/22 A3007=
KIGQ 081320Z AUTO 00000KT 5SM BR BKN008 BKN022 24/23 A3004=
KIJX 081325Z AUTO 27004KT 10SM SCT007 BKN011 24/23 A3007=
KMQB 081325Z AUTO 31004KT 10SM OVC006 23/22 A3008=
KSAR 081325Z AUTO 21004KT 7SM SCT075 27/24 A3006=
KSLO 081325Z AUTO 24005KT 10SM SCT041 SCT090 29/23 A3006=
KTAZ 081325Z AUTO 00000KT 10SM CLR 28/23 A3004=
KTIP 081325Z AUTO 00000KT 10SM SCT085 27/25 A3005=
KVYS 081325Z AUTO 28003KT 10SM SCT007 BKN013 OVC038 24/22
     A3004=
####018000084####
SAMD90 KWBC 081332
METAR KFME 081333Z AUTO 11005KT 7SM CLR 27/22 A3004 RMK AO1=
####018000087####
SAMD90 KWBC 081332
METAR KW29 081332Z AUTO 12005KT 5SM SCT012 27/23 A3002 RMK AO1=
####018000084####
SAMD90 KWBC 081332
METAR KFDK 081332Z AUTO 00000KT 7SM CLR 33/22 A3005 RMK AO2=
####018000083####
SPUS51 KWBC 081333
SPECI
KPNE 081330Z VRB04KT 2 1/2SM HZ OVC010 26/23 A3005=
####018000099####
SPUS52 KWBC 081333
SPECI
KALI 081330Z AUTO 04008KT 8SM -RA SCT006 BKN016 OVC024 25/25 A2985=
####018000099####
SAUS52 KWBC 081300 RRD
METAR
KSEP 081325Z AUTO 07003KT 4SM BKN004 BKN017 OVC041 23/22 A3006=
####018000084####
SPUS53 KWBC 081333
SPECI
KCNU 081330Z AUTO 10003KT 3SM BR OVC001 23/22 A3009=
####018000095####
SPUS31 KKCI 081330
SPECI
KS58 081330Z 09017KT 15SM BKN015 29/25 A3000 RMK ST28 SEAS 4-6=
####018000134####
SAUS53 KWBC 081300 RRG
METAR
KEHA 081328Z AUTO 01008KT 18/17=
KLNC 081325Z AUTO 10003KT 7SM SCT017 SCT055 OVC070 25/25 A3004=
####018000075####
SACN88 CWAO 081330
WZU SA 1330 AUTO7 M M M M/21/19/2305/M/M M 10MM=

####018000096####
SAUK39 EGRR 081250 RRM
METAR EGVN 081250Z 24006KT 9999 FEW045 BKN200 23/07 Q1018 BLU NOSIG=
####018000090####
SAUK39 EGRR 081250 RRN
METAR EGXJ 081250Z 23011KT 9999 FEW040 BKN250 21/07 Q1017 BLU=
####018000087####
SAUZ31 UTTW 081330
METAR UTNN 081330Z 00000MPS CAVOK 43/05 Q1005 R33/CLRD70 NOSIG=
####018000083####
SAUK39 EGRR 081250 RRL
METAR EGXE 081250Z 25015KT CAVOK 21/08 Q1016 BLU NOSIG=
####018000090####
SAUK39 EGRR 081250 RRO
METAR EGVP 081250Z 22009KT 9999 FEW032 BKN180 23/13 Q1018 BLU=
####018000096####
SAUZ31 UTTW 081330
METAR UTSA 081330Z 01005MPS 9999 FEW220 38/06 Q1008 R88/CLRD70 
NOSIG=
####018000097####
SPUS53 KWBC 081333
SPECI
KMKG 081330Z 20007KT 3SM -RA BR BKN007 BKN023 OVC055 24/22 A3003=
####018000099####
SPUS72 KWBC 081333
SPECI
KALI 081330Z AUTO 04008KT 8SM -RA SCT006 BKN016 OVC024 25/25 A2985=
####018000084####
SPUS72 KWBC 081333
SPECI
KTXK 081329Z 15004KT 10SM BKN005 BKN080 24/24 A3007=
####018000097####
SPUS73 KWBC 081333
SPECI
KMKG 081330Z 20007KT 3SM -RA BR BKN007 BKN023 OVC055 24/22 A3003=
####018001733####
SAEU KAWN 081300 RRX
METAR EBBE 081325Z 22005KT 9999 FEW250 31/09 Q1019 BLU BLU=
METAR EBBL 081325Z 33004KT 9999 FEW050 SCT220 33/10 Q1018 BLU BLU=
METAR EBCV 081325Z AUTO 20005KT 9999 // SKC 30/11 Q1019 BLU=
METAR EBDT 081325Z 14008KT 9999 FEW070 BKN220 32/10 Q1019 BLU=
METAR EBFN 081325Z 35004KT 9999 FEW042 BKN200 24/16 Q1019 BLU BLU=
METAR EBFS 081325Z VRB02KT 9999 SCT250 30/08 Q1020 BLU BLU=
METAR EBLB 081325Z 27005KT 9999 FEW060 28/08 Q1021 BLU BLU=
METAR LBBG 081330Z 23005MPS 180V290 9000 RA SCT024 OVC040 17/16 Q1015
      NOSIG=
METAR LBGO 081330Z 27003MPS 9999 -RA SCT008 BKN025 OVC040 16/15 Q1017
      NOSIG=
METAR LBPD 081330Z 26005MPS 9999 -RA OVC035 17/14 Q1017 NOSIG=
METAR LBSF 081330Z 28006MPS 9999 BKN040 18/11 Q1018 NOSIG=
METAR LBWN 081330Z 29007MPS 280V340 9999 FEW030 SCT045 22/16 Q1013
      NOSIG=
METAR LGAL 081320Z 02007KT 9999 FEW020TCU SCT025 BKN080 21/16 Q1015=
METAR LGKL 081320Z 27012KT 9999 FEW030 33/12 Q1011=
METAR LGKO 081320Z 31020KT CAVOK 29/18 Q1009=
METAR LGKP 081320Z 34026KT CAVOK 29/17 Q1008=
METAR LGMK 081320Z 35020G30KT 9999 FEW015 24/17 Q1012=
METAR LGRP 081320Z 25014KT CAVOK 29/19 Q1008 NOSIG=
METAR LHBP 081330Z 30008KT CAVOK 24/11 Q1021 NOSIG=
METAR LHDC 081315Z 35008KT 9999 FEW046 23/12 Q1021 NOSIG=
METAR LHKE 081315Z 26003MPS CAVOK 25/11 Q1020 NOSIG RMK BLU=
METAR LHPA 081315Z 02004MPS CAVOK 25/10 Q1022 NOSIG RMK BLU=
METAR LHPP 081315Z 34005KT CAVOK 24/10 Q1022 NOSIG=
METAR LHSN 081315Z 30002MPS CAVOK 25/10 Q1021 NOSIG RMK BLU=
METAR LHUD 081315Z 34005KT 9999 SCT040 SCT050 24/15 Q1021=
METAR LZIB 081330Z 34011KT 300V010 CAVOK 25/08 Q1021=
METAR LZTT 081330Z 07011KT 040V110 9999 FEW053 21/07 Q1022 NOSIG=
####018000552####
SARS18 KAWN 081300 RRH
METAR LUKK 081330Z 35008KT 9999 SCT036 26/15 Q1015 26CLRD65 NOSIG=
METAR UBBB 081330Z 34018KT CAVOK 31/26 Q1009 NOSIG RMK R88CLRD70=
METAR UKBB 081330Z 31003MPS 270V340 9999 BKN040 26/17 Q1014 88CLRD95
      NOSIG=
METAR UKFF 081330Z VRB02MPS CAVOK 29/15 Q1012 01010070 NOSIG=
METAR UKLL 081330Z 29003MPS 220V350 9999 SCT034 BKN100 21/12 Q1021
      31210365 NOSIG=
METAR UKOO 081330Z 34005MPS 300V020 CAVOK 27/14 Q1014 34090070 NOSIG=
METAR UTTT 081330Z 32002MPS 270V360 CAVOK 37/07 Q1009 R08R/CLRD70 NOSIG=
####018000093####
SPUS75 KWBC 081333
SPECI
PAIL 081329Z AUTO 05005KT 1/2SM FG BKN001 OVC065 08/08 A2995=
####018000084####
SPUS81 KWBC 081333
SPECI
KCNU 081330Z AUTO 10003KT 3SM BR OVC001 23/22 A3009=
####018000091####
SPUS81 KWBC 081333
SPECI
KCRQ 081330Z AUTO 00000KT 6SM HZ FEW007 OVC015 17/14 A2990=
####018000093####
SPUS81 KWBC 081333
SPECI
KHLR 081330Z AUTO 06005KT 9SM FEW009 BKN013 OVC034 26/ A3002=
####018000097####
SPUS81 KWBC 081333
SPECI
KMKG 081330Z 20007KT 3SM -RA BR BKN007 BKN023 OVC055 24/22 A3003=
####018000083####
SARW20 HRYR 081330
METAR
HRYR 081330Z 14007KT 9999 BKN030 26/13 Q1019 NOSIG=
####018000112####
SAUS44 KEWX 081333
MTRATT
SPECI KATT 081330Z AUTO VRB04KT 9SM SCT019 BKN027 OVC060 26/23 A2999 
RMK AO2
####018000075####
SACN88 CWAO 081330
ABB SA 1330 AUTO7 M M M M/21/20/2007/M/M M 10MM=

####018000094####
SAUK39 EGRR 080950 CCL
METAR COR EGXG 080950Z 22009KT 9999 FEW028 BKN150 19/10 Q1016 BLU=
####018000683####
SAUS90 KWBC 081334
METAR KEHA 081328Z AUTO 01008KT 18/17 RMK AO1 PK WND 13 004
     T01780167=
METAR K2G4 081330Z AUTO 00000KT 7SM CLR 25/14 A3020 RMK AO1=
METAR K2W6 081332Z AUTO 11006KT 10SM BKN016 27/23 A3003 RMK
     AO1=
METAR KCBE 081332Z AUTO 00000KT 7SM CLR 27/20 A3010 RMK AO1=
METAR KCGE 081330Z AUTO 13007KT 10SM CLR 28/23 A3003 RMK AO1=
METAR KCGS 081335Z AUTO 00000KT 7SM CLR 30/23 A3002 RMK AO1=
METAR KDMW 081331Z AUTO 13003KT 7SM CLR 30/22 A3006 RMK AO2=
METAR KFDK 081332Z AUTO 00000KT 7SM CLR 33/22 A3005 RMK AO2=
METAR KW29 081332Z AUTO 12005KT 5SM SCT012 27/23 A3002 RMK AO1=
METAR KFME 081333Z AUTO 11005KT 7SM CLR 27/22 A3004 RMK AO1=
####018000187####
SPUS90 KWBC 081334
SPECI KS58 081330Z 09017KT 15SM BKN015 29/25 A3000 RMK ST28 SEAS
     4-6=
SPECI KATT 081330Z AUTO VRB04KT 9SM SCT019 BKN027 OVC060 26/23
     A2999 RMK AO2=
####018002984####
SAUS20 KNKA 081333
METAR KAFK 081330Z AUTO 03006KT 10SM CLR 22/19 A3014 RMK AO2 
     T02150193=
METAR KAIK 081335Z AUTO 31007KT 10SM CLR 30/25 A3004 RMK AO2 PNO=
METAR KANW 081330Z AUTO 28004KT 10SM CLR 18/15 A3026 RMK AO2 
     T01820146=
METAR KARW 081335Z AUTO 29007KT 10SM CLR 29/19 A2998 RMK AO2=
METAR KAUH 081330Z AUTO 01005KT 10SM CLR 19/16 A3020 RMK AO2 
     T01850157=
METAR KAUN 081330Z AUTO 00000KT 10SM CLR 18/14 A2988 RMK AO1=
SPECI KAUS 081332Z 05006KT 8SM FEW008 BKN014 OVC028 26/24 A2998 RMK 
    AO2=
METAR KBIE 081330Z AUTO 02005KT 10SM CLR 20/18 A3016 RMK AO2 
     T02010181=
METAR KBTA 081330Z AUTO 36006KT 10SM CLR 20/17 A3017 RMK AO2 
     T02000171=
METAR KBVN 081330Z AUTO 00000KT 10SM CLR 19/16 A3021 RMK AO2 
     T01860160=
METAR KBVS 081330Z AUTO 03006KT 7SM CLR 19/12 A2999 RMK A01 P000=
METAR KCLK 081333Z AUTO 01007KT 10SM BKN005 BKN060 OVC120 23/21 
     A3011 RMK AO2=
METAR KCUH 081330Z AUTO 00000KT 10SM BKN003 OVC110 25/23 A3006 
     RMK AO2=
METAR KDUC 081333Z AUTO 04005KT 10SM CLR 26/23 A3005 RMK AO2=
METAR KDVO 081330Z AUTO 31005KT 10SM OVC010 12/12 A2994 RMK AO2=
METAR KFDW 081335Z AUTO 31004KT 10SM CLR 29/18 A3002 RMK AO1=
METAR KFET 081330Z AUTO 02005KT 10SM CLR 20/17 A3018 RMK AO2=
METAR KGCD 081330Z AUTO 12007KT 10SM CLR 15/02 A3013 RMK AO2 
     T01480023=
METAR KGLY 081335Z AUTO 00000KT 10SM BKN008 OVC012 24/23 A3009 RMK 
     AO2 =
METAR KL35 081331Z AUTO 36003KT 10SM CLR 08/M03 A3019 RMK AO2=
METAR KLAM 081330Z AUTO 03003KT 10SM CLR 15/08 A3041 RMK AO2=
METAR KMEZ 081335Z AUTO 00000KT 5SM HZ SCT013 SCT036 OVC055 26/23 
     A3010 RMK AO2=
METAR KOAJ 081335Z AUTO 05010KT 9SM CLR 29/24 A2996 RMK AO1=
METAR KOJA 081330Z AUTO 03007KT 7SM SCT007 23/22 A3010 RMK AO2=
METAR KONP 081330Z AUTO 00000KT 1/2SM FG OVC002 11/10 A2999 RMK 
     AO1=
METAR KORS 081330Z AUTO 00000KT 10SM CLR 17/15 A2997 RMK AO2=
METAR KOUN 081332Z AUTO 35005KT 10SM SCT008 BKN030 BKN075 27/23 
     A3007 RMK AO2=
METAR KPLU 081330Z AUTO 00000KT 10SM FEW038 FEW049 12/12 A2995 
     RMK AO2=
METAR KPSO 081335Z AUTO 00000KT 10SM SCT085 SCT120 14/05 A3041 RMK 
     AO2=
METAR KPVJ 081328Z AUTO 00000KT 7SM SCT007 BKN038 25/24 A3005 RMK 
     AO2=
METAR KSNL 081332Z AUTO 36004KT 10SM OVC005 25/24 A3007 RMK AO2=
METAR KSOP 081335Z AUTO 05003KT 8SM CLR 30/20 A2999 RMK AO1=
METAR KSRE 081330Z AUTO 00000KT 7SM CLR 25/24 A3005 RMK AO2=
SPECI KSUS 081332Z 00000KT 7SM -RA SCT014 BKN030 24/23 A3004 RMK AO2 
    P0003=
METAR KSVC 081330Z AUTO 07003KT 10SM OVC100 19/15 A3024 RMK AO2=
METAR KTEX 081332Z AUTO 10005KT 10SM CLR 14/04 A3047 RMK AO2=
METAR KTMK 081333Z AUTO 00000KT 2 1/2SM BR OVC004 12/12 A2997 RMK 
     AO2=
METAR KTQH 081335Z AUTO 00000KT 4SM BR OVC008 23/23 A3007 RMK AO2=
METAR KUDG 081335Z 34005KT 10SM CLR 29/20 A2999 RMK AO1=
METAR KWWR 081329Z AUTO 35008KT 10SM -RA OVC005 22/20 A3018 RMK 
     AO2 T02150203=
####018000123####
SACN86 KWBC 081334
METAR CWNB 081300Z AUTO RMK AO1 =
METAR CWPS 081300Z AUTO 18009KT 24/ RMK AO1 SLP158 T0244 51001=
####018002574####
SAUS99 KWBC 081334
METAR
KAFK 081330Z AUTO 03006KT 10SM CLR 22/19 A3014 RMK AO2
     T02150193=
KAIK 081335Z AUTO 31007KT 10SM CLR 30/25 A3004 RMK AO2 PNO=
KANW 081330Z AUTO 28004KT 10SM CLR 18/15 A3026 RMK AO2
     T01820146=
KARW 081335Z AUTO 29007KT 10SM CLR 29/19 A2998 RMK AO2=
KAUH 081330Z AUTO 01005KT 10SM CLR 19/16 A3020 RMK AO2
     T01850157=
KAUN 081330Z AUTO 00000KT 10SM CLR 18/14 A2988 RMK AO1=
KBIE 081330Z AUTO 02005KT 10SM CLR 20/18 A3016 RMK AO2
     T02010181=
KBTA 081330Z AUTO 36006KT 10SM CLR 20/17 A3017 RMK AO2
     T02000171=
KBVN 081330Z AUTO 00000KT 10SM CLR 19/16 A3021 RMK AO2
     T01860160=
KBVS 081330Z AUTO 03006KT 7SM CLR 19/12 A2999 RMK A01 P000=
KCLK 081333Z AUTO 01007KT 10SM BKN005 BKN060 OVC120 23/21 A3011
     RMK AO2=
KCUH 081330Z AUTO 00000KT 10SM BKN003 OVC110 25/23 A3006 RMK
     AO2=
KDUC 081333Z AUTO 04005KT 10SM CLR 26/23 A3005 RMK AO2=
KDVO 081330Z AUTO 31005KT 10SM OVC010 12/12 A2994 RMK AO2=
KFDW 081335Z AUTO 31004KT 10SM CLR 29/18 A3002 RMK AO1=
KFET 081330Z AUTO 02005KT 10SM CLR 20/17 A3018 RMK AO2=
KGCD 081330Z AUTO 12007KT 10SM CLR 15/02 A3013 RMK AO2
     T01480023=
KGLY 081335Z AUTO 00000KT 10SM BKN008 OVC012 24/23 A3009 RMK
     AO2=
KL35 081331Z AUTO 36003KT 10SM CLR 08/M03 A3019 RMK AO2=
KLAM 081330Z AUTO 03003KT 10SM CLR 15/08 A3041 RMK AO2=
KMEZ 081335Z AUTO 00000KT 5SM HZ SCT013 SCT036 OVC055 26/23 A3010
     RMK AO2=
KOAJ 081335Z AUTO 05010KT 9SM CLR 29/24 A2996 RMK AO1=
KOJA 081330Z AUTO 03007KT 7SM SCT007 23/22 A3010 RMK AO2=
KONP 081330Z AUTO 00000KT 1/2SM FG OVC002 11/10 A2999 RMK AO1=
KORS 081330Z AUTO 00000KT 10SM CLR 17/15 A2997 RMK AO2=
KOUN 081332Z AUTO 35005KT 10SM SCT008 BKN030 BKN075 27/23 A3007
     RMK AO2=
KPLU 081330Z AUTO 00000KT 10SM FEW038 FEW049 12/12 A2995 RMK
     AO2=
KPSO 081335Z AUTO 00000KT 10SM SCT085 SCT120 14/05 A3041 RMK
     AO2=
KPVJ 081328Z AUTO 00000KT 7SM SCT007 BKN038 25/24 A3005 RMK
     AO2=
KSNL 081332Z AUTO 36004KT 10SM OVC005 25/24 A3007 RMK AO2=
KSOP 081335Z AUTO 05003KT 8SM CLR 30/20 A2999 RMK AO1=
KSRE 081330Z AUTO 00000KT 7SM CLR 25/24 A3005 RMK AO2=
KSVC 081330Z AUTO 07003KT 10SM OVC100 19/15 A3024 RMK AO2=
KTEX 081332Z AUTO 10005KT 10SM CLR 14/04 A3047 RMK AO2=
KTMK 081333Z AUTO 00000KT 2 1/2SM BR OVC004 12/12 A2997 RMK
     AO2=
KTQH 081335Z AUTO 00000KT 4SM BR OVC008 23/23 A3007 RMK AO2=
KUDG 081335Z 34005KT 10SM CLR 29/20 A2999 RMK AO1=
KWWR 081329Z AUTO 35008KT 10SM -RA OVC005 22/20 A3018 RMK AO2
     T02150203=
####018000087####
SACN97 KWBC 081334
METAR CXTV 081300Z AUTO 28009KT 06/ RMK AO1 SLP175 T0059 51005=
####018000184####
SPUS99 KWBC 081334
SPECI
KAUS 081332Z 05006KT 8SM FEW008 BKN014 OVC028 26/24 A2998 RMK
     AO2=
KSUS 081332Z 00000KT 7SM -RA SCT014 BKN030 24/23 A3004 RMK AO2
     P0003=
####018000235####
SACZ31 LKPW 081330
METAR LKKV 081330Z VRB03KT CAVOK 25/08 Q1023=
METAR LKMT 081330Z 05006KT 330V100 CAVOK 22/11 Q1022 NOSIG=
METAR LKPR 081330Z VRB04KT CAVOK 25/09 Q1022 NOSIG=
METAR LKTB 081330Z VRB02KT CAVOK 25/07 Q1022 NOSIG=
####018000080####
SACN95 KWBC 081334
METAR CWWA 081330Z AUTO 05002KT 19/11 RMK AO1 T01940105=
####018000133####
SACN94 KWBC 081334
METAR CWQO 081300Z AUTO 03007KT 11/ RMK AO1 T0110=
METAR CWSK 081330Z AUTO 01003KT 16/11 RMK AO1 T01550105=
####018000107####
SAGG31 UGTB 081330
METAR UGTB 081330Z 07009KT 9999 SCT050 BKN100 34/14 Q1013 NOSIG RMK
      13CLRD80=
####018000098####
SAAJ31 UBBB 081330
METAR UBBG 081330Z 08014KT 9999 FEW083 36/16 Q1009 NOSIG RMK
R12L/CLRD70 =
####018000093####
SAUZ31 UTTW 081330
METAR UTSA 081330Z 01005MPS 9999 FEW220 38/06 Q1008 R88/CLRD70
NOSIG=
####018000184####
SACN87 KWBC 081334
METAR CWWS 081300Z AUTO 30011KT 17/13 RMK AO1 007 PK WND
31018/1220 SLP141 T01660127=
METAR CWQS 081300Z AUTO 02004KT 13/ RMK AO1 PK WND 36021/1219
T0126=
####018000377####
SAIE31 EIDB 081330
METAR EIDW 081330Z 23012KT 210V270 9999 FEW022 SCT040 BKN100 17/10
     Q1015 NOSIG=
METAR EINN 081330Z 23010KT 9999 -RADZ FEW016 SCT035 BKN050 15/13
     Q1015 NOSIG=
METAR EICK 081330Z 20009KT 9000 -RA BKN006 BKN012 BKN020 13/13 Q1016
     TEMPO 2000=
METAR EIKN 081330Z 22006KT 180V270 9999 FEW012 FEW018CB SCT028 BKN038
     13/12 Q1013 NOSIG=
####018000189####
SPUS80 KWBC 081334
SPECI
KATT 081330Z AUTO VRB04KT 9SM SCT019 BKN027 OVC060 26/23 A2999 RMK
     AO2=
KSUS 081332Z 00000KT 7SM -RA SCT014 BKN030 24/23 A3004 RMK AO2
     P0003=
####018000416####
SAPL31 EPWA 081330
METAR EPWA 081330Z 28011KT 250V310 CAVOK 24/12 Q1020 NOSIG=
METAR EPGD 081330Z 07009KT 050V110 9999 FEW040 24/13 Q1021=
METAR EPKK 081330Z 33006KT 280V030 CAVOK 24/06 Q1022=
METAR EPPO 081330Z 32004KT 230V020 CAVOK 26/07 Q1021=
METAR EPRZ 081330Z 33008KT 280V010 9999 FEW046 23/09 Q1021=
METAR EPBY 081330Z 03005KT 330V080 CAVOK 25/08 Q1021=
METAR EPZG 081330Z 20004KT CAVOK 27/06 Q1021=
####018003711####
SAUS70 KWBC 081334
METAR
K1F0 081327Z AUTO 00000KT 24/24 A3003 RMK AO2 PWINO=
K36U 081335Z AUTO 00000KT 7SM CLR 13/07 A3025 RMK AO2=
K4O4 081328Z AUTO 13006KT 25/23 A3008 RMK AO2=
KADH 081330Z AUTO 00000KT 10SM SCT005 BKN008 OVC026 23/22 A3006
     RMK AO2=
KALM 081330Z AUTO 14005KT 10SM CLR 20/15 A3017 RMK AO2=
KATS 081330Z AUTO 35008KT 10SM -RA BKN017 OVC033 19/18 A3019 RMK
     AO2=
KAXS 081330Z AUTO 00000KT 10SM RA SCT038 BKN050 OVC080 23/22 A3010
     RMK AO2 T02340218=
KAXX 081330Z AUTO 00000KT 10SM CLR 07/05 A3050 RMK AO2=
KCHK 081331Z AUTO 01006KT 2SM BR OVC002 23/23 A3007 RMK AO2=
KDUA 081337Z AUTO 16007KT 10SM BKN006 BKN027 OVC090 26/24 A3005
     RMK AO2=
KGCM 081335Z AUTO 00000KT 10SM BKN003 BKN007 BKN011 23/23 A3008
     RMK AO2=
KGMJ 081334Z AUTO 00000KT BKN014 BKN020 OVC039 24/24 A3007 RMK AO2
     P0006 PWINO=
KIDP 081330Z AUTO 08004KT 10SM OVC008 22/21 A3007 RMK AO2=
KJSV 081330Z AUTO 10003KT 10SM SCT034 BKN048 OVC055 24/23 A3006
     RMK AO2=
KJWG 081330Z AUTO 03006KT 10SM SCT008 23/23 A3012 RMK AO2=
KLRU 081331Z AUTO 02010G14KT 10SM CLR 22/14 A3019 RMK AO2=
KOKM 081331Z AUTO 03004KT 10SM OVC007 24/24 A3005 RMK AO1=
K2G4 081330Z AUTO 00000KT 7SM CLR 25/14 A3020 RMK AO1=
K2W6 081332Z AUTO 11006KT 10SM BKN016 27/23 A3003 RMK AO1=
KCGS 081335Z AUTO 00000KT 7SM CLR 30/23 A3002 RMK AO1=
KFDK 081332Z AUTO 00000KT 7SM CLR 33/22 A3005 RMK AO2=
KW29 081332Z AUTO 12005KT 5SM SCT012 27/23 A3002 RMK AO1=
KAFK 081330Z AUTO 03006KT 10SM CLR 22/19 A3014 RMK AO2
     T02150193=
KAIK 081335Z AUTO 31007KT 10SM CLR 30/25 A3004 RMK AO2 PNO=
KANW 081330Z AUTO 28004KT 10SM CLR 18/15 A3026 RMK AO2
     T01820146=
KARW 081335Z AUTO 29007KT 10SM CLR 29/19 A2998 RMK AO2=
KAUH 081330Z AUTO 01005KT 10SM CLR 19/16 A3020 RMK AO2
     T01850157=
KAUN 081330Z AUTO 00000KT 10SM CLR 18/14 A2988 RMK AO1=
KBIE 081330Z AUTO 02005KT 10SM CLR 20/18 A3016 RMK AO2
     T02010181=
KBTA 081330Z AUTO 36006KT 10SM CLR 20/17 A3017 RMK AO2
     T02000171=
KBVN 081330Z AUTO 00000KT 10SM CLR 19/16 A3021 RMK AO2
     T01860160=
KBVS 081330Z AUTO 03006KT 7SM CLR 19/12 A2999 RMK A01 P000=
KCLK 081333Z AUTO 01007KT 10SM BKN005 BKN060 OVC120 23/21 A3011
     RMK AO2=
KCUH 081330Z AUTO 00000KT 10SM BKN003 OVC110 25/23 A3006 RMK
     AO2=
KDUC 081333Z AUTO 04005KT 10SM CLR 26/23 A3005 RMK AO2=
KDVO 081330Z AUTO 31005KT 10SM OVC010 12/12 A2994 RMK AO2=
KFDW 081335Z AUTO 31004KT 10SM CLR 29/18 A3002 RMK AO1=
KFET 081330Z AUTO 02005KT 10SM CLR 20/17 A3018 RMK AO2=
KGCD 081330Z AUTO 12007KT 10SM CLR 15/02 A3013 RMK AO2
     T01480023=
KGLY 081335Z AUTO 00000KT 10SM BKN008 OVC012 24/23 A3009 RMK
     AO2=
KL35 081331Z AUTO 36003KT 10SM CLR 08/M03 A3019 RMK AO2=
KLAM 081330Z AUTO 03003KT 10SM CLR 15/08 A3041 RMK AO2=
KMEZ 081335Z AUTO 00000KT 5SM HZ SCT013 SCT036 OVC055 26/23 A3010
     RMK AO2=
KOAJ 081335Z AUTO 05010KT 9SM CLR 29/24 A2996 RMK AO1=
KOJA 081330Z AUTO 03007KT 7SM SCT007 23/22 A3010 RMK AO2=
KONP 081330Z AUTO 00000KT 1/2SM FG OVC002 11/10 A2999 RMK AO1=
KORS 081330Z AUTO 00000KT 10SM CLR 17/15 A2997 RMK AO2=
KOUN 081332Z AUTO 35005KT 10SM SCT008 BKN030 BKN075 27/23 A3007
     RMK AO2=
KPLU 081330Z AUTO 00000KT 10SM FEW038 FEW049 12/12 A2995 RMK
     AO2=
KPSO 081335Z AUTO 00000KT 10SM SCT085 SCT120 14/05 A3041 RMK
     AO2=
KPVJ 081328Z AUTO 00000KT 7SM SCT007 BKN038 25/24 A3005 RMK
     AO2=
KSNL 081332Z AUTO 36004KT 10SM OVC005 25/24 A3007 RMK AO2=
KSOP 081335Z AUTO 05003KT 8SM CLR 30/20 A2999 RMK AO1=
KSRE 081330Z AUTO 00000KT 7SM CLR 25/24 A3005 RMK AO2=
KSVC 081330Z AUTO 07003KT 10SM OVC100 19/15 A3024 RMK AO2=
####018000238####
SPXX60 KWBC 081334
SPECI
KHLR 081330Z AUTO 06005KT 9SM FEW009 BKN013 OVC034 26/ A3002 RMK
     AO2 RAE04 P0000 T0261 $=
KNQI 081330Z 02007KT 10SM SCT016CB BKN120 BKN280 28/24 A2984 RMK
     AO2 CB DSNT NE AND E-SE AND NW-N $=
####018000544####
SPUS70 KWBC 081334
SPECI
KBED 081331Z 15005KT 7SM SCT020 27/21 A3008 RMK AO2=
KDWH 081331Z 10008KT 4SM RA BR SCT009 BKN016 OVC023 24/23 A2999
     RMK AO2 RAB04 P0011=
KHRL 081331Z 36010KT 8SM -RA BKN012 BKN018 26/26 A2979 RMK AO2
     RAB28 P0000=
KISP 081331Z 12008KT 10SM FEW011 BKN016 BKN030 OVC130 27/20 A3005
     RMK AO2=
KSWO 081331Z 36005KT 9SM BKN004 24/22 A3007 RMK AO2=
KS58 081330Z 09017KT 15SM BKN015 29/25 A3000 RMK ST28 SEAS 4-6=
KAUS 081332Z 05006KT 8SM FEW008 BKN014 OVC028 26/24 A2998 RMK
     AO2=
####018000234####
SAUS80 KWBC 081334
METAR
KIZA 081329Z AUTO 00000KT 10SM OVC007 13/11 A2992 RMK AO2=
KPTS 081330Z AUTO 13005KT 3SM RA BKN017 OVC023 22/ A3007 RMK AO2
     P0008 T0220=
KCBE 081332Z AUTO 00000KT 7SM CLR 27/20 A3010 RMK AO1=
####018000363####
SAUS70 KWBC 081334 RRA
METAR
KTEX 081332Z AUTO 10005KT 10SM CLR 14/04 A3047 RMK AO2=
KTMK 081333Z AUTO 00000KT 2 1/2SM BR OVC004 12/12 A2997 RMK
     AO2=
KTQH 081335Z AUTO 00000KT 4SM BR OVC008 23/23 A3007 RMK AO2=
KUDG 081335Z 34005KT 10SM CLR 29/20 A2999 RMK AO1=
KWWR 081329Z AUTO 35008KT 10SM -RA OVC005 22/20 A3018 RMK AO2
     T02150203=
####018000319####
SAPL32 EPWA 081330
METAR EPKT 081330Z 34006KT CAVOK 23/07 Q1022=
METAR EPLL 081330Z 32004KT 280V350 CAVOK 24/06 Q1022=
METAR EPSC 081330Z 00000KT CAVOK 25/11 Q1021=
METAR EPWR 081330Z VRB03KT CAVOK 26/10 Q1022=
METAR EPBY 081330Z 03005KT 330V080 CAVOK 25/08 Q1021=
METAR EPZG 081330Z 20004KT CAVOK 27/06 Q1021=
####018000069####
SAAF35 KWBC 081300 RRD
METAR
HSSS 081330Z 32007KT CAVOK Q1006=
####018000087####
SAAF36 KWBC 081300 RRD
METAR
HRYR 081330Z 14007KT 9999 BKN030 26/13 Q1019 NOSIG=
####018000083####
SAAL31 KWBC 081200 CCA
METAR
DAAT 081230Z 10013KT 050V150 CAVOK 34/03 Q1022=
####018000092####
SAAO32 KWBC 081300 RRB
METAR
GQNN 081330Z 20013KT 170V240 6000 NSC 32/21 Q1012 NOSIG=
####018000443####
SABX31 KWBC 081320 RRB
METAR
EBBE 081325Z 22005KT 9999 FEW250 31/09 Q1019 BLU BLU=
EBBL 081325Z 33004KT 9999 FEW050 SCT220 33/10 Q1018 BLU BLU=
EBCV 081325Z AUTO 20005KT 9999 // SKC 30/11 Q1019 BLU=
EBDT 081325Z 14008KT 9999 FEW070 BKN220 32/10 Q1019 BLU=
EBFN 081325Z 35004KT 9999 FEW042 BKN200 24/16 Q1019 BLU BLU=
EBFS 081325Z VRB02KT 9999 SCT250 30/08 Q1020 BLU BLU=
EBLB 081325Z 27005KT 9999 FEW060 28/08 Q1021 BLU BLU=
####018000246####
SACI31 KWBC 081300 RRB
METAR
RCKH 081330Z 27007KT 9999 FEW013 BKN300 30/26 Q1010 NOSIG=
RCSS 081330Z 09003KT 050V140 9999 FEW030 SCT120 30/24 Q1008
     NOSIG=
RCTP 081330Z 18008KT 150V220 9999 FEW025 SCT150 29/25 Q1007
     NOSIG=
####018000166####
SACY31 LCLK 081330
METAR LCLK 081330Z 20016KT 9999 FEW030 30/23 Q1007 NOSIG=
METAR LCPH 081330Z 25007KT 220V290 9999 FEW030 29/23 Q1008=
METAR LCNC 081330Z NIL=
####018000100####
SAUZ31 UTTW 081330
METAR UTNU 081330Z 04003MPS 8000 FEW100 SCT166 38/21 Q1006
R13/CLRD60 NOSIG=
####018000864####
SAGR31 KWBC 081320 RRA
METAR
LGAD 081320Z NIL=
LGAL 081320Z 02007KT 9999 FEW020TCU SCT025 BKN080 21/16 Q1015=
LGAV 081320Z 06016G26KT 9999 SCT030 26/13 Q1013 NOSIG=
LGEL 081320Z 36013G23KT 9999 FEW025 SCT080 29/12 Q1013=
LGIR 081320Z 35008KT 9999 SCT020 28/24 Q1011 NOSIG=
LGKF 081320Z NIL=
LGKL 081320Z 27012KT 9999 FEW030 33/12 Q1011=
LGKO 081320Z 31020KT CAVOK 29/18 Q1009=
LGKR 081320Z 32023KT CAVOK 27/12 Q1012 NOSIG=
LGKV 081320Z 05008KT 9999 SCT030TCU BKN100 19/17 Q1014=
LGLM 081320Z 03014KT 9999 FEW008 SCT020 22/15 Q1014=
LGMT 081320Z 34018G30KT 9999 SCT030 27/18 Q1011=
LGRP 081320Z 25014KT CAVOK 29/19 Q1008 NOSIG=
LGSA 081320Z 05012KT 9999 FEW020 32/16 Q1012=
LGSM 081320Z 35010KT 9999 FEW030 31/16 Q1009=
LGSR 081320Z 02013KT 9999 FEW025 26/18 Q1010 NOSIG=
LGTS 081320Z 34018G28KT 9999 FEW025 25/11 Q1016 NOSIG=
####018000294####
SAGR41 KWBC 081320 RRA
METAR
LGKP 081320Z 34026KT CAVOK 29/17 Q1008=
LGKZ 081320Z NIL=
LGMK 081320Z 35020G30KT 9999 FEW015 24/17 Q1012=
LGPZ 081320Z 27014KT 9999 FEW025 29/18 Q1013 NOSIG=
LGRX 081320Z 28011KT 9999 FEW025 27/13 Q1012 NOSIG=
LGSK 081320Z NIL=
LGZA 081320Z NIL=
####018000087####
SAMM31 KWBC 081300 RRB
METAR
LCEN 081320Z 14014KT 9999 SCT025 32/18 Q1007 NOSIG=
####018000219####
SARA31 KWBC 081300 RRG
METAR
UTNN 081330Z 00000MPS CAVOK 43/05 Q1005 R33/CLRD70 NOSIG=
UTSA 081330Z 01005MPS 9999 FEW220 38/06 Q1008 R88/CLRD70 NOSIG=
UTSB 081330Z 01005MPS CAVOK 39/08 Q1007 R01/CLRD70 NOSIG=
####018000143####
SASA32 KWBC 081300 RRC
METAR
SGAS 081330Z 14007KT 9000 BKN010 OVC015 17/15 Q1016=
SGES 081330Z 15008KT 9999 FEW030 BKN080 19/17 Q1016=
####018000076####
SPUS41 KWBC 081334
SPECI
KBED 081331Z 15005KT 7SM SCT020 27/21 A3008=
####018000123####
SAUK41 KWBC 081050 CCA
METAR
EGDM 081050Z 21004KT 9999 SCT018 SCT130 BKN250 19/15 Q1019 WHT
     BECMG BKN025 BLU=
####018000723####
SAUR31 KWBC 081250 RRA
METAR
UKBB 081330Z 31003MPS 270V340 9999 BKN040 26/17 Q1014 88CLRD95
     NOSIG=
UKCC 081330Z 06003MPS CAVOK 28/15 Q1014 08090070 NOSIG=
UKDD 081330Z VRB02MPS 9999 SCT033TCU 29/19 Q1013 08090070
     NOSIG=
UKDE 081330Z 00000MPS 9999 SCT050 30/17 Q1013 20CLRD70 NOSIG=
UKDR 081330Z 00000MPS 9999 VCTS SCT033CB BKN200 28/17 Q1013
     1809//70 TEMPO 26006G14MPS 3100 -TSRAGR BKN015CB=
UKFF 081330Z VRB02MPS CAVOK 29/15 Q1012 01010070 NOSIG=
UKHH 081330Z 16003MPS 110V200 9999 SCT040 BKN200 30/13 Q1014
     080///65 NOSIG=
UKLL 081330Z 29003MPS 220V350 9999 SCT034 BKN100 21/12 Q1021
     31210365 NOSIG=
UKOO 081330Z 34005MPS 300V020 CAVOK 27/14 Q1014 34090070 NOSIG=
####018000092####
SAXX99 KWBC 081000 CCI
METAR
EGXG 080950Z 22009KT 9999 FEW028 BKN150 19/10 Q1016 BLU=
####018000551####
SAXX99 KWBC 081300 RRW
METAR
EGVN 081250Z 24006KT 9999 FEW045 BKN200 23/07 Q1018 BLU NOSIG=
EGVP 081250Z 22009KT 9999 FEW032 BKN180 23/13 Q1018 BLU=
EGXE 081250Z 25015KT CAVOK 21/08 Q1016 BLU NOSIG=
EGXJ 081250Z 23011KT 9999 FEW040 BKN250 21/07 Q1017 BLU=
GMAD 081330Z NIL=
K4O4 081328Z AUTO 13006KT 25/23 A3008 RMK AO2=
KCBE 081332Z AUTO 00000KT 7SM CLR 27/20 A3010 RMK AO1=
KFME 081333Z AUTO 11005KT 7SM CLR 27/22 A3004 RMK AO1=
LGHI 081320Z NIL=
LGKC 081320Z NIL=
LGNX 081320Z NIL=
LGPA 081320Z NIL=
LGSO 081320Z NIL=
####018000087####
SAZA31 KWBC 081300 RRA
METAR
FAJS 081330Z VRB08KT 9999 SCT045 16/02 Q1032 NOSIG=
####018000087####
SPUS42 KWBC 081334
SPECI
KHRL 081331Z 36010KT 8SM -RA BKN012 BKN018 26/26 A2979=
####018000108####
SAGG31 UGTB 081330
METAR UGTB 081330Z 07009KT 9999 SCT050 BKN100 34/14 Q1013 NOSIG RMK
      13CLRD80=
####018000087####
SAUZ31 UTTW 081230
METAR UTST 081330Z VRB01MPS CAVOK 39/16 Q1004 R88/CLRD70 NOSIG=
####018000139####
SAEW36 LEMM 081330
METAR GCLA 081330Z 01013KT 340V050 9999 FEW020 26/18 Q1019=
METAR GEML 081330Z 09008KT 050V130 CAVOK 27/21 Q1016=
####018000198####
SAEW35 LEMM 081330
METAR LESA 081330Z 16013KT 130V200 9999 FEW048 36/14 Q1018=
METAR LEVD 081330Z 17012G23KT 140V210 CAVOK 35/07 Q1018=
METAR LEVS 081330Z 10005KT 010V130 CAVOK 32/11 Q1018=
####018000319####
SAEW33 LEMM 081330
METAR GCLP 081330Z 02026KT 9999 FEW020 25/17 Q1017 NOSIG=
METAR GCXO 081330Z 29011KT 260V320 9999 FEW005 23/17 Q1020 NOSIG=
METAR GCTS 081330Z 11017KT 080V140 CAVOK 25/17 Q1017 NOSIG=
METAR GCRR 081330Z 36018KT 9999 FEW020 26/18 Q1017=
METAR GCFV 081330Z 05016KT 9999 FEW020 23/19 Q1017=
####018000621####
SAEW31 LEMM 081330
METAR LEMD 081330Z 09005KT 030V160 9999 FEW060CB 32/11 Q1017   WS 
ALL RWY NOSIG=
METAR LEBL 081330Z 20015KT CAVOK 28/20 Q1019 NOSIG=
METAR LEPA 081330Z 23013KT CAVOK 31/15 Q1020 NOSIG=
METAR LEZL 081330Z 23007KT 170V290 9999 FEW025 33/14 Q1015 NOSIG=
METAR LEMG 081330Z 15008KT 110V200 9999 FEW040 29/15 Q1017 NOSIG=
METAR LEVC 081330Z 13010KT 100V160 CAVOK 32/14 Q1018 NOSIG=
METAR LEAL 081330Z 08010KT 060V120 CAVOK 30/17 Q1019 NOSIG=
METAR LEIB 081330Z 09007KT 020V140 CAVOK 30/21 Q1020 NOSIG=
METAR LELC 081330Z NIL=
METAR COR LEVX 081330Z VRB05KT 8000 FEW030 24/19 Q1016=
####018000849####
SAEW32 LEMM 081330
METAR LEAS 081330Z 09004KT 050V130 9999 FEW015 25/20 Q1016 TEMPO 
TSRA SCT025CB=
METAR LEBB 081330Z 31008KT 260V350 8000 SCT025 26/20 Q1017 TEMPO 
SCT030CB=
METAR LECO 081330Z 31007KT 280V020 CAVOK 24/20 Q1015=
METAR LEGE 081330Z 18006KT 120V240 CAVOK 33/18 Q1019=
METAR LEST 081330Z 12003KT 030V200 9999 FEW025 29/19 Q1015 NOSIG=
METAR LEZG 081330Z 07008KT 040V110 9999 FEW035 FEW040TCU 39/12 
Q1017=
METAR LESO 081330Z 33004KT 260V050 CAVOK 27/21 Q1015=
METAR LEVT 081330Z 14003KT 110V190 9999 FEW050 33/19 Q1017=
METAR LERS 081330Z 22008KT 170V250 CAVOK 29/14 Q1019=
METAR LEMH 081330Z 09004KT 030V200 CAVOK 29/18 Q1020=
METAR LEAM 081330Z 09017KT 9999 FEW050 37/06 Q1015=
METAR LEGR 081330Z 16013KT 130V190 9999 FEW060 39/06 Q1017=
METAR LERL 081330Z 12009KT 080V170 9999 FEW050 38/05 Q1017=
####018000100####
SAAJ31 UBBB 081330
METAR UBBG 081330Z 08014KT 9999 FEW083 36/16 Q1009 NOSIG RMK
R12L/CLRD70 =
####018000103####
SAUZ31 UTTW 081330
METAR UTNU 081330Z 04003MPS 8000 FEW100 SCT166 38/21 Q1006 
R13/CLRD60 NOSIG=
####018000087####
SPUS72 KWBC 081334
SPECI
KHRL 081331Z 36010KT 8SM -RA BKN012 BKN018 26/26 A2979=
####018000109####
SAGG31 UGTB 081330
METAR UGTB 081330Z 07009KT 9999 SCT050 BKN100 34/14 Q1013 NOSIG RMK
      13CLRD80=
####018000423####
SAPL31 EPWA 081330
METAR EPWA 081330Z 28011KT 250V310 CAVOK 24/12 Q1020 NOSIG=
METAR EPGD 081330Z 07009KT 050V110 9999 FEW040 24/13 Q1021=
METAR EPKK 081330Z 33006KT 280V030 CAVOK 24/06 Q1022=
METAR EPPO 081330Z 32004KT 230V020 CAVOK 26/07 Q1021=
METAR EPRZ 081330Z 33008KT 280V010 9999 FEW046 23/09 Q1021=
METAR EPBY 081330Z 03005KT 330V080 CAVOK 25/08 Q1021=
METAR EPZG 081330Z 20004KT CAVOK 27/06 Q1021=
####018000602####
SAGR31 LGAT 081320
METAR LGAD 081320Z NIL=
METAR LGAV 081320Z 06016G26KT 9999 SCT030 26/13 Q1013 NOSIG=
METAR LGIR 081320Z 35008KT 9999 SCT020 28/24 Q1011 NOSIG=
METAR LGKL 081320Z 27012KT 9999 FEW030 33/12 Q1011=
METAR LGKO 081320Z 31020KT CAVOK 29/18 Q1009=
METAR LGKR 081320Z 32023KT CAVOK 27/12 Q1012 NOSIG=
METAR LGLM 081320Z 03014KT 9999 FEW008 SCT020 22/15 Q1014=
METAR LGRP 081320Z 25014KT CAVOK 29/19 Q1008 NOSIG=
METAR LGSA 081320Z 05012KT 9999 FEW020 32/16 Q1012=
METAR LGSM 081320Z 35010KT 9999 FEW030 31/16 Q1009=
METAR LGTS 081320Z 34018G28KT 9999 FEW025 25/11 Q1016 NOSIG=
####018000385####
SAIE31 EIDB 081330
METAR EIDW 081330Z 23012KT 210V270 9999 FEW022 SCT040 BKN100 17/10
     Q1015 NOSIG=
METAR EINN 081330Z 23010KT 9999 -RADZ FEW016 SCT035 BKN050 15/13
     Q1015 NOSIG=
METAR EICK 081330Z 20009KT 9000 -RA BKN006 BKN012 BKN020 13/13 Q1016
     TEMPO 2000=
METAR EIKN 081330Z 22006KT 180V270 9999 FEW012 FEW018CB SCT028 BKN038
     13/12 Q1013 NOSIG=
####018000239####
SACZ31 LKPW 081330
METAR LKKV 081330Z VRB03KT CAVOK 25/08 Q1023=
METAR LKMT 081330Z 05006KT 330V100 CAVOK 22/11 Q1022 NOSIG=
METAR LKPR 081330Z VRB04KT CAVOK 25/09 Q1022 NOSIG=
METAR LKTB 081330Z VRB02KT CAVOK 25/07 Q1022 NOSIG=
####018000095####
SAUZ31 UTTW 081330
METAR UTSA 081330Z 01005MPS 9999 FEW220 38/06 Q1008 R88/CLRD70
NOSIG=
####018000092####
SAAB31 LATI 081330
METAR LATI 081330Z 01016G26KT 340V050 9999 FEW060 27/13 Q1016 NOSIG=
####018000102####
SAUZ31 UTTW 081330
METAR UTNU 081330Z 04003MPS 8000 FEW100 SCT166 38/21 Q1006
R13/CLRD60 NOSIG=
####018000082####
SAIL31 BICC 081330
METAR BIKF 081330Z 03023KT 9999 SCT018 BKN100 12/06 Q0995=
####018000300####
SAGR33 LGAT 081320
METAR LGHI 081320Z NIL=
METAR LGKC 081320Z NIL=
METAR LGKF 081320Z NIL=
METAR LGKP 081320Z 34026KT CAVOK 29/17 Q1008=
METAR LGKZ 081320Z NIL=
METAR LGMK 081320Z 35020G30KT 9999 FEW015 24/17 Q1012=
METAR LGNX 081320Z NIL=
METAR LGPA 081320Z NIL=
METAR LGSO 081320Z NIL=
####018000169####
SACY31 LCLK 081330
METAR LCLK 081330Z 20016KT 9999 FEW030 30/23 Q1007 NOSIG=
METAR LCPH 081330Z 25007KT 220V290 9999 FEW030 29/23 Q1008=
METAR LCNC 081330Z NIL=
####018000325####
SAPL32 EPWA 081330
METAR EPKT 081330Z 34006KT CAVOK 23/07 Q1022=
METAR EPLL 081330Z 32004KT 280V350 CAVOK 24/06 Q1022=
METAR EPSC 081330Z 00000KT CAVOK 25/11 Q1021=
METAR EPWR 081330Z VRB03KT CAVOK 26/10 Q1022=
METAR EPBY 081330Z 03005KT 330V080 CAVOK 25/08 Q1021=
METAR EPZG 081330Z 20004KT CAVOK 27/06 Q1021=
####018000532####
SAYG31 LYBM 081330
METAR LYBE 081330Z 34011KT CAVOK 24/12 Q1021 NOSIG=
METAR LYBT 081330Z 33010KT 290V020 CAVOK 24/13 Q1021 NOSIG=
METAR LYKV 081330Z 33007KT 9999 SCT035 20/15 Q1022 NOSIG=
METAR LYNI 081330Z 31010KT 9999 FEW020 BKN026 18/13 Q1021 NOSIG=
METAR LYPG 081330Z 02018KT 330V060 9999 SCT040 28/09 Q1017 NOSIG=
METAR LYPR 081330Z NIL=
METAR LYTV 081330Z 04003G13KT 9999 FEW053 30/10 Q1017 NOSIG=
METAR LYUZ 081330Z 28007KT 9999 BKN020 14/10 Q1024=
METAR LYVR 081330Z 34006G18KT 9999 BKN033 23/14 Q1020=
####018000245####
SATS40 DTTA 081330
METAR DTMB 081330Z 04012KT CAVOK 30/18 Q1018 NOSIG=
METAR DTNZ 081330Z AUTO 11013KT CAVOK 30/17 Q1018=
METAR DTTA 081330Z 36011KT 330V050 CAVOK 29/20 Q1019  NOSIG=
METAR DTTJ 081330Z 09012KT CAVOK 30/20 Q1017 NOSIG=
####018000313####
SAEW34 LEMM 081330
METAR LEDA 081330Z 17005KT 080V230 CAVOK 37/11 Q1018=
METAR LEJR 081330Z 23007KT 140V260 CAVOK 32/16 Q1015=
METAR LELL 081330Z 14009KT 110V170 CAVOK 31/13 Q1019=
METAR LEPP 081330Z 18012KT 140V230 9999 FEW064 37/14 Q1017=
METAR LEXJ 081330Z 26007KT 210V330 9999 FEW018 26/19 Q1016=
####018000095####
SPUS81 KWBC 081334
SPECI
KATT 081330Z AUTO VRB04KT 9SM SCT019 BKN027 OVC060 26/23 A2999=
####018001182####
SAUK KAWN 081300 RRG
METAR EGAE 081320Z 24014KT 9999 -SHRA FEW020 BKN040 17/10 Q1012=
METAR EGBJ 081320Z 21006KT 180V270 9999 FEW045 23/07 Q1018=
METAR EGNC 081320Z 25015KT 9999 FEW020 SCT035 17/10 Q1015=
METAR EGNH 081320Z 25013KT 9999 FEW030 19/12 Q1017=
METAR EGNJ 081320Z 25011KT 220V280 9999 SCT040 23/10 Q1017=
METAR EGPA 081320Z 21011KT 9999 VCSH FEW020CB SCT045 17/11 Q1008=
METAR EGPC 081320Z 20014KT 170V230 9999 VCSH FEW020 15/12 Q1009=
METAR EGPE 081320Z 22019G30KT 9999 VCSH FEW018 SCT045 17/09 Q1010=
METAR EGPL 081320Z 22020KT 9999 FEW018 16/12 Q1009=
METAR COR EGPM 081320Z 22022KT 9999 FEW026 16/09 Q1007 NOSIG=
METAR EGPN 081320Z 23020KT 9999 SCT045 18/11 Q1012=
METAR EGPO 081320Z 23022G32KT 9999 VCSH FEW024 SCT034 18/09 Q1007=
METAR EGSC 081320Z 23010KT 160V280 9999 SCT038 24/12 Q1018=
METAR COR EGSH 081320Z 25006KT 200V310 9999 FEW026 SCT030 25/14 Q1018
      NOSIG=
METAR EGVN 081250Z 24006KT 9999 FEW045 BKN200 23/07 Q1018 BLU NOSIG=
METAR EGVP 081250Z 22009KT 9999 FEW032 BKN180 23/13 Q1018 BLU=
METAR EGXE 081250Z 25015KT CAVOK 21/08 Q1016 BLU NOSIG=
METAR EGXJ 081250Z 23011KT 9999 FEW040 BKN250 21/07 Q1017 BLU=
####018001799####
SAEU KAWN 081300 RRX
METAR EGVN 081250Z 24006KT 9999 FEW045 BKN200 23/07 Q1018 BLU NOSIG=
METAR EGVP 081250Z 22009KT 9999 FEW032 BKN180 23/13 Q1018 BLU=
METAR EGXE 081250Z 25015KT CAVOK 21/08 Q1016 BLU NOSIG=
METAR EGXJ 081250Z 23011KT 9999 FEW040 BKN250 21/07 Q1017 BLU=
METAR EPGD 081330Z 07009KT 050V110 9999 FEW040 24/13 Q1021=
METAR EPKK 081330Z 33006KT 280V030 CAVOK 24/06 Q1022=
METAR EPKT 081330Z 34006KT CAVOK 23/07 Q1022=
METAR EPPO 081330Z 32004KT 230V020 CAVOK 26/07 Q1021=
METAR EPRZ 081330Z 33008KT 280V010 9999 FEW046 23/09 Q1021=
METAR EPWA 081330Z 28011KT 250V310 CAVOK 24/12 Q1020 NOSIG=
METAR EPWR 081330Z VRB03KT CAVOK 26/10 Q1022=
METAR COR LGEL 081320Z 36013G23KT 9999 FEW025 SCT080 29/12 Q1013=
METAR LGIR 081320Z 35008KT 9999 SCT020 28/24 Q1011 NOSIG=
METAR LGKR 081320Z 32023KT CAVOK 27/12 Q1012 NOSIG=
METAR LGKV 081320Z 05008KT 9999 SCT030TCU BKN100 19/17 Q1014=
METAR LGLM 081320Z 03014KT 9999 FEW008 SCT020 22/15 Q1014=
METAR LGMT 081320Z 34018G30KT 9999 SCT030 27/18 Q1011=
METAR LGPZ 081320Z 27014KT 9999 FEW025 29/18 Q1013 NOSIG=
METAR LGRX 081320Z 28011KT 9999 FEW025 27/13 Q1012 NOSIG=
METAR LGSA 081320Z 05012KT 9999 FEW020 32/16 Q1012=
METAR LGSM 081320Z 35010KT 9999 FEW030 31/16 Q1009=
METAR LGSR 081320Z 02013KT 9999 FEW025 26/18 Q1010 NOSIG=
METAR LGTS 081320Z 34018G28KT 9999 FEW025 25/11 Q1016 NOSIG=
METAR LKKV 081330Z VRB03KT CAVOK 25/08 Q1023=
METAR LKPR 081330Z VRB04KT CAVOK 25/09 Q1022 NOSIG=
METAR LKTB 081330Z VRB02KT CAVOK 25/07 Q1022 NOSIG=
METAR LYBE 081330Z 34011KT CAVOK 24/12 Q1021 NOSIG=
METAR LYNI 081330Z 31010KT 9999 FEW020 BKN026 18/13 Q1021 NOSIG=
METAR LYPG 081330Z 02018KT 330V060 9999 SCT040 28/09 Q1017 NOSIG=
METAR LYTV 081330Z 04003G13KT 9999 FEW053 30/10 Q1017 NOSIG=
####018000408####
SAXX70 KAWN 081300 RRS
METAR KQEJ 081320Z AUTO 14001KT 1SM -RA BR BKN003 22/20 A2996 RMK A02=
METAR KQEL 081330Z AUTO 10003KT 2SM BR FEW090 22/20 A2976 RMK A02=
METAR KQEQ 081330Z AUTO 19002KT 4SM BR FEW085 SCT120 22/20 A2984 RMK
      A02=
METAR KQEW 081330Z AUTO 25004KT 6SM BR FEW085 FEW095 24/21 A2986 RMK
      A02=
METAR KQFB 081330Z AUTO 28011KT 2SM -RA BR FEW065 24/21 A2997 RMK A02=
####018000094####
SAUK39 EGRR 081050 CCF
METAR COR EGXG 081050Z 23009KT 9999 FEW038 BKN200 20/08 Q1016 BLU=
####018001720####
SAEU KAWN 081300 RRX
METAR EICK 081330Z 20009KT 9000 -RA BKN006 BKN012 BKN020 13/13 Q1016
      TEMPO 2000=
METAR EIDW 081330Z 23012KT 210V270 9999 FEW022 SCT040 BKN100 17/10
      Q1015 NOSIG=
METAR EIKN 081330Z 22006KT 180V270 9999 FEW012 FEW018CB SCT028 BKN038
      13/12 Q1013 NOSIG=
METAR EINN 081330Z 23010KT 9999 -RADZ FEW016 SCT035 BKN050 15/13 Q1015
      NOSIG=
METAR LFBC 081330Z AUTO 07008KT 030V110 9999NDV NSC 38/12 Q1014=
METAR LFBM 081330Z AUTO 13009KT 090V160 0600NDV R27///// FG NSC 36/17
      Q1015=
METAR LFKS 081330Z AUTO 11006KT 060V180 9999NDV NSC 30/23 Q1019=
METAR LFMI 081330Z AUTO 20012KT 160V220 9999NDV NSC 33/16 Q1019=
METAR LFMO 081330Z 15005KT 070V230 CAVOK 35/15 Q1019=
METAR LFMY 081330Z 21008KT 180V240 CAVOK 34/15 Q1019=
METAR LFOA 081330Z AUTO 17007KT 070V240 9999NDV NSC 32/10 Q1018=
METAR LFOC 081330Z AUTO 22005KT 100V270 9999NDV NSC 33/10 Q1018=
METAR LFOE 081330Z 20006KT 140V240 CAVOK 32/08 Q1018=
METAR LFOJ 081330Z VRB03KT CAVOK 32/12 Q1018=
METAR LFPC 081330Z 11004KT 040V210 CAVOK 31/11 Q1018=
METAR LFPV 081330Z AUTO 23005KT 140V270 9999NDV NSC 30/09 Q1019=
METAR LFQI 081330Z VRB06KT CAVOK 31/11 Q1018=
METAR LFSD 081330Z AUTO 17006KT 120V210 9999NDV NSC 31/11 Q1020=
METAR LFSF 081330Z AUTO VRB06KT 9999NDV NSC 32/09 Q1019=
METAR LFSI 081330Z AUTO 11005KT 090V160 9999NDV NSC 33/08 Q1019=
METAR LFSO 081330Z AUTO 26005KT 210V300 9999NDV NSC 32/12 Q1020=
METAR LFSR 081330Z AUTO 02006KT 330V060 9999NDV NSC 33/11 Q1018=
METAR LFSX 081330Z AUTO 11004KT 050V200 9999NDV NSC 31/11 Q1020=
METAR LGEL 081320Z 36013G23KT 9999 FEW025 SCT080 29/12 Q1013=
METAR LKMT 081330Z 05006KT 330V100 CAVOK 22/11 Q1022 NOSIG=
####018000101####
SPCN49 CWAO 081333
SPECI CYSJ 081333Z 21009G15KT 3/4SM R23/P6000FT/U BR OVC002 17/ RMK
SF8=

####018002576####
SAUS20 KNKA 081334
METAR K2G4 081330Z AUTO 00000KT 7SM CLR 25/14 A3020 RMK AO1=
METAR K2W6 081332Z AUTO 11006KT 10SM BKN016 27/23 A3003 RMK
     AO1=
METAR KPMV 081330Z AUTO 34003KT 10SM CLR 22/20 A3016 RMK AO2 
     T02170197=
SPECI KBOK 081334Z AUTO 00000KT 3/4SM BR OVC002 09/09 A2998 RMK AO2 
    $=
METAR KCBE 081332Z AUTO 00000KT 7SM CLR 27/20 A3010 RMK AO1=
METAR KCGE 081330Z AUTO 13007KT 10SM CLR 28/23 A3003 RMK AO1=
METAR KCGS 081335Z AUTO 00000KT 7SM CLR 30/23 A3002 RMK AO1=
METAR KFDK 081332Z AUTO 00000KT 7SM CLR 33/22 A3005 RMK AO2=
METAR KDMW 081331Z AUTO 13003KT 7SM CLR 30/22 A3006 RMK AO2=
METAR KFME 081333Z AUTO 11005KT 7SM CLR 27/22 A3004 RMK AO1=
METAR KHDE 081330Z AUTO 01005KT 10SM SCT095 18/15 A3023 RMK AO2 
     T01800154=
METAR KHJH 081330Z AUTO 34004KT 10SM OVC033 20/18 A3018 RMK AO2 
     T02000177=
METAR KIBM 081330Z AUTO 00000KT 10SM BKN035 BKN065 OVC080 13/11 
     A3033 RMK AO2 T01320112=
METAR KJYR 081330Z AUTO 01006KT 10SM CLR 19/17 A3019 RMK AO2=
METAR KLCG 081330Z AUTO 33003KT 10SM CLR 19/17 A3019 RMK AO2 
     T01890168=
METAR KLHM 081331Z AUTO 13005KT 10SM CLR 15/11 A2984 RMK AO1 
     T01520111=
METAR KLXN 081330Z AUTO 00000KT 10SM SCT065 SCT100 19/17 A3025 
     RMK AO2 T01860166=
METAR KMLE 081330Z AUTO 01004KT 10SM SCT023 21/17 A3016 RMK AO2 
     T02090166=
METAR KMMH 081330Z AUTO 00000KT 10SM CLR 07/01 A3023 RMK AO1=
METAR KOGA 081330Z AUTO 00000KT 10SM SCT080 OVC110 17/15 A3029 
     RMK AO2 T01690153=
METAR KONL 081330Z AUTO 00000KT 10SM CLR 19/16 A3024 RMK AO2 
     T01910158=
SPECI KPIA 081333Z 30003KT 10SM FEW003 SCT009 OVC014 23/22 A3006 RMK 
    AO2=
METAR KPNA 081330Z AUTO 30007KT 10SM SCT100 09/02 A3041 RMK AO2 
     T00860017=
METAR KPTT 081330Z AUTO 01010KT 4SM -RA OVC006 20/19 A3017 RMK AO2=
SPECI KRWL 081333Z AUTO 06008KT 10SM FEW009 11/07 A3040 RMK AO2=
SPECI KS58 081330Z 09017KT 15SM BKN015 29/25 A3000 RMK ST28 SEAS
     4-6=
SPECI KSNY 081333Z AUTO 03005KT 9SM FEW001 SCT042 BKN095 17/15 A3033 
    RMK AO2=
METAR KSOW 081330Z AUTO 18004KT 10SM BKN120 19/04 A3027 RMK AO2=
METAR KSZT 081330Z AUTO 00000KT 10SM CLR 12/10 A3012 RMK AO2=
METAR KTIF 081330Z AUTO 30003KT 10SM BKN120 19/15 A3028 RMK AO2 
     T01850153=
METAR KTRK 081330Z AUTO 00000KT 10SM CLR 07/06 A3017 RMK AO2=
SPECI KUIN 081333Z AUTO 31003KT 10SM FEW006 SCT110 23/22 A3007 RMK 
    AO2=
SPECI KUUU 081333Z AUTO 12006KT 10SM BKN005 23/21 A3010 RMK AO2=
METAR KW29 081332Z AUTO 12005KT 5SM SCT012 27/23 A3002 RMK AO1=
####018001812####
SAEU KAWN 081300 RRX
METAR LATI 081330Z 01016G26KT 340V050 9999 FEW060 27/13 Q1016 NOSIG=
METAR LEAL 081330Z 08010KT 060V120 CAVOK 30/17 Q1019 NOSIG=
METAR LEAM 081330Z 09017KT 9999 FEW050 37/06 Q1015=
METAR LEAS 081330Z 09004KT 050V130 9999 FEW015 25/20 Q1016 TEMPO TSRA
      SCT025CB=
METAR LEBB 081330Z 31008KT 260V350 8000 SCT025 26/20 Q1017 TEMPO SCT030CB=
METAR LEBL 081330Z 20015KT CAVOK 28/20 Q1019 NOSIG=
METAR LECO 081330Z 31007KT 280V020 CAVOK 24/20 Q1015=
METAR LEGE 081330Z 18006KT 120V240 CAVOK 33/18 Q1019=
METAR LEGR 081330Z 16013KT 130V190 9999 FEW060 39/06 Q1017=
METAR LEIB 081330Z 09007KT 020V140 CAVOK 30/21 Q1020 NOSIG=
METAR LEMD 081330Z 09005KT 030V160 9999 FEW060CB 32/11 Q1017 WS ALL
      RWY NOSIG=
METAR LEMG 081330Z 15008KT 110V200 9999 FEW040 29/15 Q1017 NOSIG=
METAR LEMH 081330Z 09004KT 030V200 CAVOK 29/18 Q1020=
METAR LEPA 081330Z 23013KT CAVOK 31/15 Q1020 NOSIG=
METAR LEPP 081330Z 18012KT 140V230 9999 FEW064 37/14 Q1017=
METAR LERS 081330Z 22008KT 170V250 CAVOK 29/14 Q1019=
METAR LESA 081330Z 16013KT 130V200 9999 FEW048 36/14 Q1018=
METAR LESO 081330Z 33004KT 260V050 CAVOK 27/21 Q1015=
METAR LEST 081330Z 12003KT 030V200 9999 FEW025 29/19 Q1015 NOSIG=
METAR LEVC 081330Z 13010KT 100V160 CAVOK 32/14 Q1018 NOSIG=
METAR LEVD 081330Z 17012G23KT 140V210 CAVOK 35/07 Q1018=
METAR LEVS 081330Z 10005KT 010V130 CAVOK 32/11 Q1018=
METAR LEVT 081330Z 14003KT 110V190 9999 FEW050 33/19 Q1017=
METAR COR LEVX 081330Z VRB05KT 8000 FEW030 24/19 Q1016=
METAR LEZG 081330Z 07008KT 040V110 9999 FEW035 FEW040TCU 39/12 Q1017=
METAR LEZL 081330Z 23007KT 170V290 9999 FEW025 33/14 Q1015 NOSIG=
METAR LFBF 081330Z AUTO 11010KT 080V140 7000NDV // NSC 35/16 Q1017=
METAR LFBG 081330Z AUTO 14005KT 060V200 9999NDV NSC 35/13 Q1016=
####018000096####
SAUS41 KAKQ 081334
MTRNUI
SPECI KNUI 081333Z AUTO 09006KT 10SM SCT015 28/23 A3001 RMK AO2
####018000524####
SPUS99 KWBC 081335
SPECI
KBOK 081334Z AUTO 00000KT 3/4SM BR OVC002 09/09 A2998 RMK AO2
     $=
KPIA 081333Z 30003KT 10SM FEW003 SCT009 OVC014 23/22 A3006 RMK
     AO2=
KRWL 081333Z AUTO 06008KT 10SM FEW009 11/07 A3040 RMK AO2=
KS58 081330Z 09017KT 15SM BKN015 29/25 A3000 RMK ST28 SEAS 4-6=
KSNY 081333Z AUTO 03005KT 9SM FEW001 SCT042 BKN095 17/15 A3033 RMK
     AO2=
KUIN 081333Z AUTO 31003KT 10SM FEW006 SCT110 23/22 A3007 RMK
     AO2=
KUUU 081333Z AUTO 12006KT 10SM BKN005 23/21 A3010 RMK AO2=
####018001859####
SAUS99 KWBC 081335
METAR
K2G4 081330Z AUTO 00000KT 7SM CLR 25/14 A3020 RMK AO1=
K2W6 081332Z AUTO 11006KT 10SM BKN016 27/23 A3003 RMK AO1=
KPMV 081330Z AUTO 34003KT 10SM CLR 22/20 A3016 RMK AO2
     T02170197=
KCBE 081332Z AUTO 00000KT 7SM CLR 27/20 A3010 RMK AO1=
KCGE 081330Z AUTO 13007KT 10SM CLR 28/23 A3003 RMK AO1=
KCGS 081335Z AUTO 00000KT 7SM CLR 30/23 A3002 RMK AO1=
KFDK 081332Z AUTO 00000KT 7SM CLR 33/22 A3005 RMK AO2=
KDMW 081331Z AUTO 13003KT 7SM CLR 30/22 A3006 RMK AO2=
KFME 081333Z AUTO 11005KT 7SM CLR 27/22 A3004 RMK AO1=
KHDE 081330Z AUTO 01005KT 10SM SCT095 18/15 A3023 RMK AO2
     T01800154=
KHJH 081330Z AUTO 34004KT 10SM OVC033 20/18 A3018 RMK AO2
     T02000177=
KIBM 081330Z AUTO 00000KT 10SM BKN035 BKN065 OVC080 13/11 A3033
     RMK AO2 T01320112=
KJYR 081330Z AUTO 01006KT 10SM CLR 19/17 A3019 RMK AO2=
KLCG 081330Z AUTO 33003KT 10SM CLR 19/17 A3019 RMK AO2
     T01890168=
KLHM 081331Z AUTO 13005KT 10SM CLR 15/11 A2984 RMK AO1
     T01520111=
KLXN 081330Z AUTO 00000KT 10SM SCT065 SCT100 19/17 A3025 RMK AO2
     T01860166=
KMLE 081330Z AUTO 01004KT 10SM SCT023 21/17 A3016 RMK AO2
     T02090166=
KMMH 081330Z AUTO 00000KT 10SM CLR 07/01 A3023 RMK AO1=
KOGA 081330Z AUTO 00000KT 10SM SCT080 OVC110 17/15 A3029 RMK AO2
     T01690153=
KONL 081330Z AUTO 00000KT 10SM CLR 19/16 A3024 RMK AO2
     T01910158=
KPNA 081330Z AUTO 30007KT 10SM SCT100 09/02 A3041 RMK AO2
     T00860017=
KPTT 081330Z AUTO 01010KT 4SM -RA OVC006 20/19 A3017 RMK AO2=
KSOW 081330Z AUTO 18004KT 10SM BKN120 19/04 A3027 RMK AO2=
KSZT 081330Z AUTO 00000KT 10SM CLR 12/10 A3012 RMK AO2=
KTIF 081330Z AUTO 30003KT 10SM BKN120 19/15 A3028 RMK AO2
     T01850153=
KTRK 081330Z AUTO 00000KT 10SM CLR 07/06 A3017 RMK AO2=
KW29 081332Z AUTO 12005KT 5SM SCT012 27/23 A3002 RMK AO1=
####018000088####
SAHK31 VHHH 081330
METAR VHHH 081330Z 19005KT 080V230 9999 FEW020 31/25 Q1008 NOSIG=
####018000389####
SARO31 LROM 081330
METAR LRBS 081330Z 28004KT 250V310 9999 FEW030 22/15 Q1016 TEMPO
5000 RA=
METAR LRCK 081330Z 01010KT 320V050 9999 SCT038 26/16 Q1014 BECMG
FEW035CB BKN040=
METAR LROP 081330Z 26004KT 220V280 9999 SCT040CB 21/15 Q1016
880///95 NOSIG=
METAR LRSB 081330Z 36006KT 320V030 9999 SCT033 OVC086 18/13 Q1020=
METAR LRTR 081330Z 34010KT 310V040 9999 SCT045 25/13 Q1020=
####018000443####
SAFR37 LFPW 081330
METAR LFAQ 081330Z AUTO 19007KT 140V230 9999NDV NSC 31/10 Q1018=
METAR LFBU 081330Z AUTO 15006KT 090V210 9999NDV NSC 34/11 Q1017=
METAR LFLN 081330Z AUTO VRB04KT 9999NDV NSC 33/12 Q1019=
METAR LFSD 081330Z AUTO 17006KT 120V210 9999NDV NSC 31/11 Q1020=
METAR LFTW 081330Z AUTO 21007KT 170V260 9999NDV NSC 32/15 Q1020=
METAR LFPM 081330Z NIL=
METAR LFRH 081330Z NIL=
METAR LFRQ 081330Z NIL=
METAR LFRT 081330Z NIL=
####018000358####
SAFR31 LFPW 081330
METAR LFLL 081330Z 21006KT 160V260 CAVOK 33/13 Q1019 NOSIG=
METAR LFMN 081330Z 12005KT 9999 FEW016 29/23 Q1020 NOSIG=
METAR LFPG 081330Z VRB05KT CAVOK 31/08 Q1018 NOSIG=
METAR LFPO 081330Z VRB03KT CAVOK 32/10 Q1018 NOSIG=
METAR LFQQ 081330Z 18008KT 140V260 CAVOK 31/11 Q1018 NOSIG=
METAR LFRB 081330Z NIL=
METAR LFRS 081330Z NIL=
####018000087####
SAKO31 RKSI 081330
METAR RKSI 081330Z 29005KT 8000 FEW030 OVC110 22/19 Q1009 NOSIG=
####018000609####
SAEW31 LEMM 081330
METAR LEMD 081330Z 09005KT 030V160 9999 FEW060CB 32/11 Q1017   WS
ALL RWY NOSIG=
METAR LEBL 081330Z 20015KT CAVOK 28/20 Q1019 NOSIG=
METAR LEPA 081330Z 23013KT CAVOK 31/15 Q1020 NOSIG=
METAR LEZL 081330Z 23007KT 170V290 9999 FEW025 33/14 Q1015 NOSIG=
METAR LEMG 081330Z 15008KT 110V200 9999 FEW040 29/15 Q1017 NOSIG=
METAR LEVC 081330Z 13010KT 100V160 CAVOK 32/14 Q1018 NOSIG=
METAR LEAL 081330Z 08010KT 060V120 CAVOK 30/17 Q1019 NOSIG=
METAR LEIB 081330Z 09007KT 020V140 CAVOK 30/21 Q1020 NOSIG=
METAR LELC 081330Z NIL=
METAR COR LEVX 081330Z VRB05KT 8000 FEW030 24/19 Q1016=
####018000496####
SAFR36 LFPW 081330
METAR LFGJ 081330Z AUTO 21006KT 140V280 9999NDV NSC 31/12 Q1020=
METAR LFMD 081330Z AUTO 16005KT 110V210 9999NDV NSC 30/21 Q1020=
METAR LFOT 081330Z AUTO VRB04KT 9999NDV NSC 33/08 Q1018=
METAR LFRC 081330Z AUTO 01007KT 310V030 9999NDV FEW018 21/16 Q1020=
METAR LFRG 081330Z AUTO 32005KT 270V360 9999NDV NSC 28/15 Q1019=
METAR LFBA 081330Z NIL=
METAR LFBE 081330Z NIL=
METAR LFJR 081330Z NIL=
METAR LFMH 081330Z NIL=
METAR LFPN 081330Z NIL=
METAR LFRK 081330Z NIL=
####018000137####
SAEW36 LEMM 081330
METAR GCLA 081330Z 01013KT 340V050 9999 FEW020 26/18 Q1019=
METAR GEML 081330Z 09008KT 050V130 CAVOK 27/21 Q1016=
####018000308####
SAEW34 LEMM 081330
METAR LEDA 081330Z 17005KT 080V230 CAVOK 37/11 Q1018=
METAR LEJR 081330Z 23007KT 140V260 CAVOK 32/16 Q1015=
METAR LELL 081330Z 14009KT 110V170 CAVOK 31/13 Q1019=
METAR LEPP 081330Z 18012KT 140V230 9999 FEW064 37/14 Q1017=
METAR LEXJ 081330Z 26007KT 210V330 9999 FEW018 26/19 Q1016=
####018000195####
SAEW35 LEMM 081330
METAR LESA 081330Z 16013KT 130V200 9999 FEW048 36/14 Q1018=
METAR LEVD 081330Z 17012G23KT 140V210 CAVOK 35/07 Q1018=
METAR LEVS 081330Z 10005KT 010V130 CAVOK 32/11 Q1018=
####018000101####
SPAU32 YBBN 081334
SPECI YPGV 081330Z AUTO 16009KT 9999NDV // SCT009 SCT015 OVC035 24/22
Q1014=
####018000098####
SPCN31 KWBC 081335
SPECI
CYSJ 081333Z 21009G15KT 3/4SM R23/P6000FT/U BR OVC002 17/ RMK SF8=
####018000080####
SAQB31 LQBK 081330
METAR LQBK 081330Z 32005KT 9999 SCT040 24/11 Q1021 NOSIG=
####018000251####
SACA31 TNCC 081300
METAR TNCC 081300Z 08012KT 9999 FEW018 30/26 Q1013 NOSIG=
METAR TNCA 081300Z 07019KT 9999 FEW018 31/25 Q1012 NOSIG=
METAR TNCB 081300Z AUTO /////KT //// ////// 30/25 Q1013=
METAR TNCE 081300Z 06013KT 9999 FEW018 30/25 Q1016= 
####018000093####
SANI20 DNMM 081330
METAR DNMM 081330Z 25013KT 9999 BKN012 FEW020CB 29/26 Q1014 NOSIG=

####018000166####
SANM40 FYWW 081330
METAR FYWB 081330Z 03013KT 9999 R09/M0050VP1500D VV/// 34/03 Q1014 =
METAR FYWB 081330Z 03013KT 9999 R09/M0050VP1500D VV/// 34/03 Q1014 =

####018000110####
SAUS45 KPIH 081334
MTRU78

METAR KU78 081236Z 14008KT 20SM FEW120 12/09 A3027 RMK SLPNO NOSPECI


####018000090####
SPUS42 KWBC 081335
SPECI
KAUS 081332Z 05006KT 8SM FEW008 BKN014 OVC028 26/24 A2998=
####018000507####
SAFR36 LFPW 081330
METAR LFGJ 081330Z AUTO 21006KT 140V280 9999NDV NSC 31/12 Q1020=
METAR LFMD 081330Z AUTO 16005KT 110V210 9999NDV NSC 30/21 Q1020=
METAR LFOT 081330Z AUTO VRB04KT 9999NDV NSC 33/08 Q1018=
METAR LFRC 081330Z AUTO 01007KT 310V030 9999NDV FEW018 21/16 Q1020=
METAR LFRG 081330Z AUTO 32005KT 270V360 9999NDV NSC 28/15 Q1019=
METAR LFBA 081330Z NIL=
METAR LFBE 081330Z NIL=
METAR LFJR 081330Z NIL=
METAR LFMH 081330Z NIL=
METAR LFPN 081330Z NIL=
METAR LFRK 081330Z NIL=
####018000452####
SAFR37 LFPW 081330
METAR LFAQ 081330Z AUTO 19007KT 140V230 9999NDV NSC 31/10 Q1018=
METAR LFBU 081330Z AUTO 15006KT 090V210 9999NDV NSC 34/11 Q1017=
METAR LFLN 081330Z AUTO VRB04KT 9999NDV NSC 33/12 Q1019=
METAR LFSD 081330Z AUTO 17006KT 120V210 9999NDV NSC 31/11 Q1020=
METAR LFTW 081330Z AUTO 21007KT 170V260 9999NDV NSC 32/15 Q1020=
METAR LFPM 081330Z NIL=
METAR LFRH 081330Z NIL=
METAR LFRQ 081330Z NIL=
METAR LFRT 081330Z NIL=
####018000397####
SARO31 LROM 081330
METAR LRBS 081330Z 28004KT 250V310 9999 FEW030 22/15 Q1016 TEMPO
5000 RA=
METAR LRCK 081330Z 01010KT 320V050 9999 SCT038 26/16 Q1014 BECMG
FEW035CB BKN040=
METAR LROP 081330Z 26004KT 220V280 9999 SCT040CB 21/15 Q1016
880///95 NOSIG=
METAR LRSB 081330Z 36006KT 320V030 9999 SCT033 OVC086 18/13 Q1020=
METAR LRTR 081330Z 34010KT 310V040 9999 SCT045 25/13 Q1020=
####018000609####
SAFR34 LFPW 081330
METAR LFCR 081330Z AUTO 17007KT 100V210 9999NDV NSC 33/06 Q1021=
METAR LFJL 081330Z AUTO VRB04KT 9999NDV NSC 31/07 Q1020=
METAR LFLP 081330Z AUTO 24010KT 210V280 9999NDV NSC 31/12 Q1021=
METAR LFMU 081330Z AUTO 14007KT 090V190 9999NDV NSC 30/14 Q1020=
METAR LFOH 081330Z AUTO 35011KT 9999NDV NSC 22/15 Q1019=
METAR LFOK 081330Z AUTO VRB02KT 9999NDV NSC 32/08 Q1019=
METAR LFPB 081330Z VRB05KT CAVOK 32/09 Q1018 NOSIG=
METAR LFLS 081330Z NIL=
METAR LFLY 081330Z NIL=
METAR LFMT 081330Z NIL=
METAR LFOB 081330Z NIL=
METAR LFOP 081330Z NIL=
METAR LFSN 081330Z NIL=
####018000407####
SAFR32 LFPW 081330
METAR LFBH 081330Z AUTO 30011KT 1900NDV BR NSC 31/14 Q1017=
METAR LFBO 081330Z 11011KT 070V140 CAVOK 35/11 Q1017 NOSIG=
METAR LFML 081330Z 21010KT CAVOK 33/18 Q1019 NOSIG=
METAR LFBD 081330Z NIL=
METAR LFBI 081330Z NIL=
METAR LFBL 081330Z NIL=
METAR LFBP 081330Z NIL=
METAR LFBT 081330Z NIL=
METAR LFBZ 081330Z NIL=
METAR LFLB 081330Z NIL=
METAR LFLX 081330Z NIL=
####018000096####
SANO32 ENMI 081320 CCA
METAR COR ENTC 081320Z 01010KT 9999 FEW065 SCT082 18/09 Q1010 NOSIG=
####018000088####
SAKO31 RKSI 081330
METAR RKSI 081330Z 29005KT 8000 FEW030 OVC110 22/19 Q1009 NOSIG=
####018000620####
SAEW31 LEMM 081330
METAR LEMD 081330Z 09005KT 030V160 9999 FEW060CB 32/11 Q1017   WS
ALL RWY NOSIG=
METAR LEBL 081330Z 20015KT CAVOK 28/20 Q1019 NOSIG=
METAR LEPA 081330Z 23013KT CAVOK 31/15 Q1020 NOSIG=
METAR LEZL 081330Z 23007KT 170V290 9999 FEW025 33/14 Q1015 NOSIG=
METAR LEMG 081330Z 15008KT 110V200 9999 FEW040 29/15 Q1017 NOSIG=
METAR LEVC 081330Z 13010KT 100V160 CAVOK 32/14 Q1018 NOSIG=
METAR LEAL 081330Z 08010KT 060V120 CAVOK 30/17 Q1019 NOSIG=
METAR LEIB 081330Z 09007KT 020V140 CAVOK 30/21 Q1020 NOSIG=
METAR LELC 081330Z NIL=
METAR COR LEVX 081330Z VRB05KT 8000 FEW030 24/19 Q1016=
####018000846####
SAEW32 LEMM 081330
METAR LEAS 081330Z 09004KT 050V130 9999 FEW015 25/20 Q1016 TEMPO
TSRA SCT025CB=
METAR LEBB 081330Z 31008KT 260V350 8000 SCT025 26/20 Q1017 TEMPO
SCT030CB=
METAR LECO 081330Z 31007KT 280V020 CAVOK 24/20 Q1015=
METAR LEGE 081330Z 18006KT 120V240 CAVOK 33/18 Q1019=
METAR LEST 081330Z 12003KT 030V200 9999 FEW025 29/19 Q1015 NOSIG=
METAR LEZG 081330Z 07008KT 040V110 9999 FEW035 FEW040TCU 39/12
Q1017=
METAR LESO 081330Z 33004KT 260V050 CAVOK 27/21 Q1015=
METAR LEVT 081330Z 14003KT 110V190 9999 FEW050 33/19 Q1017=
METAR LERS 081330Z 22008KT 170V250 CAVOK 29/14 Q1019=
METAR LEMH 081330Z 09004KT 030V200 CAVOK 29/18 Q1020=
METAR LEAM 081330Z 09017KT 9999 FEW050 37/06 Q1015=
METAR LEGR 081330Z 16013KT 130V190 9999 FEW060 39/06 Q1017=
METAR LERL 081330Z 12009KT 080V170 9999 FEW050 38/05 Q1017=
####018000365####
SAFR31 LFPW 081330
METAR LFLL 081330Z 21006KT 160V260 CAVOK 33/13 Q1019 NOSIG=
METAR LFMN 081330Z 12005KT 9999 FEW016 29/23 Q1020 NOSIG=
METAR LFPG 081330Z VRB05KT CAVOK 31/08 Q1018 NOSIG=
METAR LFPO 081330Z VRB03KT CAVOK 32/10 Q1018 NOSIG=
METAR LFQQ 081330Z 18008KT 140V260 CAVOK 31/11 Q1018 NOSIG=
METAR LFRB 081330Z NIL=
METAR LFRS 081330Z NIL=
####018000549####
SAFR35 LFPW 081330
METAR LFMI 081330Z AUTO 20012KT 160V220 9999NDV NSC 33/16 Q1019=
METAR LFMK 081330Z AUTO 08017KT 9999NDV NSC 34/13 Q1018=
METAR LFRD 081330Z AUTO 34008KT 310V030 9999NDV NSC 23/15 Q1019=
METAR LFRN 081330Z AUTO VRB05KT 9999NDV NSC 31/12 Q1017=
METAR LFRO 081330Z AUTO 36007KT 320V050 9999NDV NSC 21/16 Q1019=
METAR LFRZ 081330Z AUTO 23009KT 190V260 9999NDV NSC 32/07 Q1018=
METAR LFSB 081330Z 27003KT 190V340 CAVOK 32/11 Q1020 NOSIG=
METAR LFST 081330Z VRB03KT CAVOK 31/10 Q1019 NOSIG=
METAR LFTH 081330Z NIL=
####018000397####
SAFR33 LFPW 081330
METAR LFKB 081330Z 10005KT 060V140 9999 FEW026 29/21 Q1019 NOSIG=
METAR LFKJ 081330Z 19010KT 9999 FEW030 FEW046TCU 31/23 Q1019 NOSIG=
METAR LFMV 081330Z AUTO 29004KT 210V020 9999NDV NSC 35/14 Q1019=
METAR LFSL 081330Z AUTO 12007KT 090V180 9999NDV NSC 32/11 Q1019=
METAR LFKC 081330Z NIL=
METAR LFKF 081330Z NIL=
METAR LFLC 081330Z NIL=
METAR LFMP 081330Z NIL=
####018000087####
SPUS43 KWBC 081335
SPECI
KSUS 081332Z 00000KT 7SM -RA SCT014 BKN030 24/23 A3004=
####018000090####
SPUS52 KWBC 081335
SPECI
KAUS 081332Z 05006KT 8SM FEW008 BKN014 OVC028 26/24 A2998=
####018000113####
SAUS44 KMAF 081335
MTRGDP
SPECI KGDP 081333Z AUTO 05021KT 3SM BR BKN004 BKN120 17/16 A3025 RMK 
AO2 TSNO
####018000358####
SAPO31 LPMG 081330
METAR LPFR 081330Z 24010KT 210V270 CAVOK 25/20 Q1016=
METAR LPMA 081330Z VRB05G16KT 9999 FEW016 25/17 Q1020 RS18007KT 
0521006KT 2301014KT=
METAR LPPR 081330Z 00000KT 7000 SCT006 23/18 Q1016=
METAR LPPS 081330Z 02011KT 340V060 9999 FEW016 SCT030 22/15 Q1021=
METAR LPPT 081330Z 28007KT 220V320 9999 FEW030 28/19 Q1016 NOSIG=
####018000090####
SPUS72 KWBC 081335
SPECI
KAUS 081332Z 05006KT 8SM FEW008 BKN014 OVC028 26/24 A2998=
