####018000095####
SARA31 KWBC 081200 RRE
METAR
UBBB 081230Z 35020KT CAVOK 32/26 Q1010 NOSIG RMK R88CLRD70=
####018000075####
SASN31 KWBC 081220 RRA
METAR
ESDF 081220Z 21010KT CAVOK 23/12 Q1020=
####018000163####
SAUK41 KWBC 081150 RRE
METAR
EGDR 081150Z 22007KT 9999 FEW022 BKN220 19/14 Q1019 BLU NOSIG=
EGDY 081150Z 22008KT 9999 FEW035 BKN220 23/15 Q1018 BLU NOSIG=
####018000485####
SAXX99 KWBC 081200 RRU
METAR
EDLV 081220Z 16007KT 080V220 CAVOK 32/11 Q1019=
EGXE 081150Z 24014KT 9999 FEW040 SCT060 BKN250 19/10 Q1016 BLU
     NOSIG=
ETSL 081220Z 10005KT 9999 FEW040 25/08 Q1022 BLU+BLU+=
ETUO 081150Z 22006KT CAVOK 30/09 Q1019 BLU NOSIG=
KCBE 081228Z AUTO 00000KT 7SM CLR 24/19 A3011 RMK AO1=
KFME 081230Z AUTO 10003KT 5SM CLR 26/23 A3004 RMK AO1=
LGHI 081220Z NIL=
LGKC 081220Z NIL=
LGNX 081220Z NIL=
LGPA 081220Z NIL=
LGSO 081220Z NIL=
####018000057####
SAXX99 KWBC 081100 RRX
METAR
K8S0 081125Z 26005KT=
####018000083####
SPUS41 KWBC 081230
SPECI
KILG 081227Z 17006KT 1 1/2SM BR BKN003 26/23 A3004=
####018000407####
SAUK36 EGGY 081220
METAR EGBE 081220Z NIL=
METAR EGBJ 081220Z 22005KT 190V280 9999 FEW035 22/09 Q1018=
METAR EGCN 081220Z 25013KT 9999 FEW041 22/08 Q1017=
METAR EGDL 081220Z NIL=
METAR EGSC 081220Z 23008KT 180V270 9999 SCT038 23/14 Q1018=
METAR EGSD 081220Z NIL=
METAR COR EGSH 081220Z 21007KT 170V300 9999 SCT023 23/15 Q1018
    NOSIG=
METAR EGVN 081220Z NIL=
METAR EGWU 081220Z NIL=
####018000716####
SANL33 EHDB 081225
METAR EHAK 081225Z AUTO 21010KT 9999NDV 17/12 Q1017=
METAR EHDV 081225Z NIL=
METAR EHFD 081225Z AUTO 23012KT 9999NDV BKN024/// OVC027/// 17/16
Q1018=
METAR EHFZ 081225Z AUTO 22009KT 9999NDV FEW019/// SCT031/// BKN036///
17/15 Q1018=
METAR EHJA 081225Z AUTO 24010KT 9999NDV 16/13 Q1018=
METAR EHJR 081225Z NIL=
METAR EHKV 081225Z AUTO 23009KT 9999NDV SCT021/// BKN025/// OVC029///
17/15 Q1018=
METAR EHMA 081225Z AUTO 25010KT 9999NDV 21/17 Q1019=
METAR EHMG 081225Z AUTO 23012KT 9999NDV 17/15 Q1018=
METAR EHPG 081225Z AUTO 22011KT 9999NDV ///////// 16/15 Q1019=
METAR EHQE 081225Z AUTO 22012KT 9999NDV 16/15 Q1019=
METAR EHSA 081225Z NIL=
METAR EHSC 081225Z NIL=
####018000482####
SAUK37 EGGY 081220
METAR EGAE 081220Z 24011KT 9999 FEW020 SCT040 18/10 Q1012=
METAR EGNC 081220Z 25012KT 210V280 9999 FEW020 SCT035 17/10 Q1015=
METAR EGNH 081220Z 23010KT 9999 FEW030 19/11 Q1017=
METAR EGNJ 081220Z 23013KT 200V260 9999 SCT040 22/10 Q1017=
METAR EGNR 081220Z 28011KT 240V330 9999 FEW030 21/10 Q1017=
METAR EGPE 081220Z 22021KT 9999 VCSH FEW022 SCT035 18/10 Q1009=
METAR EGPI 081220Z NIL=
METAR EGPN 081220Z 24016KT 9999 FEW032 SCT045 17/12 Q1012=
####018000107####
SATU33 LTAA 081220
METAR LCEN 081220Z 15014KT 9999 SCT025 33/18 Q1007 NOSIG=
METAR LCGK 081220Z NIL=
####018000100####
SPAU31 AMMC 081230
SPECI YPPD 081230Z AUTO 03009KT 6000NDV // BKN013 BKN027 OVC041 21/21 Q1010=
####018000231####
SAPK31 OPKC 081230
METAR OPGD 081230Z NIL=
METAR OPKC 081230Z NIL=
METAR OPLA 081225Z 14004KT 6000 SCT040 37/23 Q1002=
METAR OPNH 081230Z NIL=
METAR OPPS 081230Z NIL=
METAR OPRN 081230Z NIL=
METAR OPSK 081230Z NIL=
####018000114####
SAPK31 OPKC 081230
METAR OPKC 081225Z 18006KTS 8000 SCT030 SCT100 34/24 Q1002 TEMPO
NE 30KTS TSRA FEW025CB=
####018000379####
SAUK38 EGGY 081220
METAR EGEC 081220Z NIL=
METAR EGPA 081220Z 22014KT 9999 VCSH FEW020CB SCT045 18/12 Q1007=
METAR EGPC 081220Z 20015KT 9999 FEW020 17/11 Q1008=
METAR EGPL 081220Z 22022KT 9999 VCSH FEW018 16/12 Q1008=
METAR COR EGPM 081220Z 23023KT 9999 SCT028 16/10 Q1006 NOSIG=
METAR EGPO 081220Z 23023KT 9999 FEW024 SCT032 18/11 Q1006=
METAR EGPU 081220Z NIL=
####018000085####
SAUS41 KWBC 081200 RRE
METAR
KFDK 081228Z AUTO 00000KT 5SM HZ CLR 30/20 A3006=
####018000106####
SPAU31 AMMC 081230
SPECI YPPD 081230Z AUTO 03009KT 6000NDV // BKN013 BKN027 OVC041 21/21 Q1010=


####018000093####
SAUS42 KWBC 081200 RRD
METAR
KGLE 081224Z AUTO 14003KT 10SM BKN060 OVC075 26/23 A3006=
####018000088####
SPUS52 KWBC 081230
SPECI
KHOT 081227Z AUTO 10003KT 8SM FEW005 OVC010 24/23 A3009=
####018000107####
SAUS45 KBOU 081230
MTRABH
SPECI KABH 081228Z AUTO 00000KT 2 1/2SM BR FEW001 12/11 A3037 RMK 
AO2 $
####018000103####
SPUS52 KWBC 081230
SPECI
KVCT 081228Z 02005KT 1 1/2SM +RA BR SCT016 BKN030 OVC046 24/24
A2990=
####018000098####
SPUS53 KWBC 081230
SPECI
KJLN 081227Z 00000KT 5SM VCTS BR BKN004 BKN024 OVC075 22/22 A3008=
####018001135####
SAUS43 KWBC 081200 RRH
METAR
K1H2 081225Z AUTO 22004KT 10SM OVC043 27/24 A3005=
KAAA 081223Z AUTO 00000KT 4SM BR SCT044 BKN060 BKN100 23/22
     A3004=
KC09 081224Z AUTO 00000KT 2SM BR BKN005 OVC024 22/21 A3004=
KC75 081223Z AUTO 00000KT 5SM BR SCT008 BKN013 OVC017 24/23
     A3003=
KDKB 081221Z AUTO 26005KT 2 1/2SM BR BKN004 OVC016 22/21 A3005=
KDNV 081225Z AUTO 00000KT 7SM CLR 25/22 A3002=
KENL 081224Z AUTO 21007KT 10SM SCT045 BKN065 27/19 A3005=
KFEP 081225Z AUTO 29004KT 10SM SCT008 24/21 A3005=
KFOA 081225Z AUTO 00000KT 7SM CLR 27/26 A3005=
KFWC 081225Z AUTO 00000KT 10SM CLR 26/24 A3005=
KGBG 081225Z AUTO 30004KT 7SM OVC006 23/22 A3004=
KIKK 081225Z AUTO 00000KT 2 1/2SM HZ SCT060 SCT100 26/23 A3004=
KJOT 081226Z AUTO 00000KT 2 1/2SM -RA SCT024 SCT033 SCT040 23/22
     A3003=
KLOT 081222Z AUTO 00000KT 2SM BR BKN024 BKN039 OVC055 23/23
     A3003=
KOLY 081223Z AUTO 00000KT 10SM SCT046 27/23 A3005=
KPNT 081225Z AUTO 15003KT 5SM BR SCT008 BKN070 OVC085 23/22
     A3004=
KPPQ 081225Z AUTO 00000KT 7SM SCT001 23/23 A3007=
KPRG 081225Z AUTO 21004KT 7SM SCT035 26/23 A3006=
####018000229####
SAUS44 KWBC 081200 RRE
METAR
K11R 081224Z AUTO 06006KT 5SM VCTS BR OVC006 25/24 A2996=
KBPG 081225Z AUTO 02009KT 7SM SCT004 OVC010 22/21 A3012=
KBYY 081226Z AUTO 10004KT 4SM -RA SCT015 BKN032 OVC055 26/25
     A2990=
####018000082####
SPCN48 CWAO 081216
SPECI CYPH 081216Z AUTO 25014KT 6SM OVC002 07/07 A2981=

####018000082####
SAUS51 KWBC 081200 RRC
METAR
KCBE 081228Z AUTO 00000KT 7SM CLR 24/19 A3011=
####018000073####
SAUS81 KWBC 081228
&EHA SA 1228  AMOS 63/61/3607/M PK WND 09 003

####018000088####
SPUS72 KWBC 081230
SPECI
KHOT 081227Z AUTO 10003KT 8SM FEW005 OVC010 24/23 A3009=
####018000103####
SPUS72 KWBC 081230
SPECI
KVCT 081228Z 02005KT 1 1/2SM +RA BR SCT016 BKN030 OVC046 24/24
A2990=
####018000098####
SPUS73 KWBC 081230
SPECI
KJLN 081227Z 00000KT 5SM VCTS BR BKN004 BKN024 OVC075 22/22 A3008=
####018000080####
SPCN45 CWAO 081228
SPECI CYXN 081228Z 00000KT 5SM -DZ BR OVC003 RMK ST8=

####018000076####
SAUS53 KWBC 081200 RRH
METAR
KTDF 081224Z AUTO 00000KT 4SM CLR A3002=
####018000407####
SAXX70 KAWN 081200 RRP
METAR KQEL 081220Z AUTO 35003KT 4SM -RA FEW042 22/19 A2975 RMK A02=
METAR KQEQ 081220Z AUTO 08001KT 5SM BR BKN090 23/20 A2984 RMK A02=
METAR KQEW 081220Z AUTO 00000KT 6SM BR SCT100 24/21 A2984 RMK A02=
METAR KQFB 081220Z AUTO 18003KT 1SM BR FEW005 SCT019 24/21 A2995 RMK
      A02=
METAR KQFT 081220Z AUTO 15001KT 2SM -SHRA BR FEW028 BKN036 23/21 A2987
      RMK A02=
####018000098####
SPUS81 KWBC 081230
SPECI
KJLN 081227Z 00000KT 5SM VCTS BR BKN004 BKN024 OVC075 22/22 A3008=
####018000087####
SANO35 ENMI 081220 RRA
METAR ENSO 081220Z 22008KT 150V270 9999 SCT030 17/10 Q1014=
####018002992####
SAUS20 KNKA 081230
METAR K2G4 081225Z AUTO 02003KT 10SM CLR 24/14 A3020 RMK AO1=
METAR K2W6 081228Z AUTO 08004KT 7SM CLR 27/24 A3002 RMK AO1=
SPECI KAKO 081229Z AUTO 14007KT 5SM BR SCT009 SCT032 OVC039 14/14 
    A3032 RMK AO2 TSNO=
SPECI KBIV 081229Z AUTO 14004KT 4SM BR FEW001 SCT048 24/22 A3003 RMK 
    AO2=
METAR KCBE 081228Z AUTO 00000KT 7SM CLR 24/19 A3011 RMK AO1=
METAR KCCA 081235Z AUTO 00000KT 7SM OVC004 24/23 A3009 RMK AO2 =
METAR KCDN 081235Z AUTO 31004KT 10SM CLR 27/21 A3000 RMK A02 P000 
     =
METAR KCGE 081226Z AUTO 13005KT 5SM SCT006 SCT009 26/25 A3003 RMK
     AO1=
METAR KCGS 081230Z AUTO 00000KT 5SM CLR 28/24 A3002 RMK AO1=
METAR KCKI 081235Z AUTO 30005KT 10SM CLR 26/20 A2996 RMK AO2=
METAR KFDK 081228Z AUTO 00000KT 5SM HZ CLR 30/20 A3006 RMK AO2=
METAR KDMW 081228Z AUTO 12003KT 7SM CLR 28/22 A3006 RMK AO2=
METAR KFME 081230Z AUTO 10003KT 5SM CLR 26/23 A3004 RMK AO1=
SPECI KGLD 081229Z AUTO 04003KT 10SM OVC016 17/16 A3031 RMK AO2=
SPECI KHOB 081222Z 36007KT 10SM BKN010 BKN075 OVC110 19/19 A3017=
SPECI KHOU 081229Z 09006KT 9SM -RA BKN012 BKN039 OVC100 25/23 A2995 
    RMK AO2 RAB00 P0006=
METAR KIGQ 081220Z AUTO 00000KT 4SM -RA BKN055 BKN075 BKN085 
     24/22 A3003 RMK AO2=
SPECI KISW 081229Z AUTO 28004KT 10SM SCT007 21/19 A3005 RMK AO2 TSNO=
METAR KJDD 081225Z AUTO 00000KT 4SM  BR OVC003 25/25 A3005 RMK AO2=
METAR KLRO 081235Z AUTO 29007KT 8SM CLR 25/19 A2996 RMK AO2 =
METAR KMKS 081235Z AUTO 00000KT 10SM CLR 25/20 A2997 RMK AO2 TSNO=
METAR KRFI 081225Z AUTO 10005KT 5SM BR CLR 24/23 A3004 RMK AO2 
     T02420231=
METAR KRWV 081220Z AUTO 00000KT 5SM  BR OVC006 24/24 A3000 RMK 
     AO2 LTG DSNT E AND SE=
METAR KRYW 081225Z AUTO 07005KT 1 1/2SM BR OVC003 24/23 A3000 RMK 
     AO2=
METAR KSAR 081225Z AUTO 20005KT 7SM SCT070 SCT095 26/23 A3006 RMK 
     AO2=
SPECI KSJC 081229Z VRB04KT 9SM FEW008 BKN011 OVC015 15/12 A2992 RMK 
    AO2=
METAR KSLO 081223Z AUTO 24005KT 10SM SCT044 27/22 A3006 RMK AO2 
     T02650224=
METAR KSOA 081220Z AUTO 00000KT 5SM  BR 22/22 A3009 RMK AO2=
METAR KSWW 081225Z AUTO 01004KT 4SM OVC002 22/21 A3011 RMK AO1 
     T02150211=
METAR KT65 081225Z AUTO 01006KT 10SM OVC006 26/25 A2978 RMK AO2 
     LTG DSNT S T02560248=
METAR KT82 081225Z AUTO 00000KT 23/22 A3003 RMK AO1 T02250217=
METAR KTAZ 081225Z AUTO 00000KT 7SM CLR 25/24 A3004 RMK AO2=
METAR KTFP 081225Z AUTO 11006KT 10SM RA SCT015 BKN045 OVC060 
     26/25 A2984 RMK AO2 P0002 T02620250=
METAR KTIP 081225Z AUTO 00000KT 7SM SCT085 SCT110 26/24 A3006 RMK 
     AO2 T02550238=
METAR KTYQ 081225Z AUTO 00000KT 7SM SCT100 26/22 A3007 RMK AO2=
METAR KUVA 081225Z AUTO 05005KT 10SM CLR 24/23 A2996 RMK AO2 
     T02410231=
SPECI KVAY 081229Z AUTO VRB03KT 3SM BR OVC006 26/23 A3004 RMK AO2=
METAR KVYS 081225Z AUTO 26004KT 3SM BR SCT009 BKN015 OVC031 24/22 
     A3004 RMK AO2 T02350220=
METAR KW29 081228Z AUTO 11003KT 5SM CLR 27/23 A3002 RMK AO1=
####018000103####
SPUS81 KWBC 081230
SPECI
KVCT 081228Z 02005KT 1 1/2SM +RA BR SCT016 BKN030 OVC046 24/24
A2990=
####018000099####
SAUS73 KWBC 081200 RRF
METAR
KIKK 081225Z AUTO 00000KT 2 1/2SM HZ SCT060 SCT100 26/23 A3004=
####018001778####
SAEU KAWN 081200 RRX
METAR EDHL 081220Z 21008KT 160V270 CAVOK 29/12 Q1019 RMK R=
METAR EDLW 081220Z 26004KT 180V340 CAVOK 31/10 Q1020 RMK ATIS S=
METAR EDNY 081220Z 19005KT CAVOK 28/11 Q1022 RMK ATIS R=
METAR EGBJ 081220Z 22005KT 190V280 9999 FEW035 22/09 Q1018=
METAR EGDR 081150Z 22007KT 9999 FEW022 BKN220 19/14 Q1019 BLU NOSIG=
METAR EGDY 081150Z 22008KT 9999 FEW035 BKN220 23/15 Q1018 BLU NOSIG=
METAR EGNH 081220Z 23010KT 9999 FEW030 19/11 Q1017=
METAR EGPA 081220Z 22014KT 9999 VCSH FEW020CB SCT045 18/12 Q1007=
METAR EGPC 081220Z 20015KT 9999 FEW020 17/11 Q1008=
METAR EGPE 081220Z 22021KT 9999 VCSH FEW022 SCT035 18/10 Q1009=
METAR EGXE 081150Z 24014KT 9999 FEW040 SCT060 BKN250 19/10 Q1016 BLU
      NOSIG=
METAR EHKD 081225Z AUTO 25010KT 9999NDV OVC075/// 21/15 Q1019 BLU BLU=
METAR ETSL 081220Z 10005KT 9999 FEW040 25/08 Q1022 BLU/BLU/=
METAR ETUO 081150Z 22006KT CAVOK 30/09 Q1019 BLU NOSIG=
METAR LEJR 081230Z 22005KT 130V300 CAVOK 32/14 Q1016=
METAR LGAD 081220Z 29010KT 9999 FEW020 27/15 Q1014=
METAR LGAL 081220Z 03007KT 0000 FEW020TCU SCT025 21/15 Q1015=
METAR LGEL 081220Z 35013G23KT CAVOK 29/12 Q1011=
METAR LGKV 081220Z 06010KT 6000 TSRA SCT020CB SCT025TCU BKN080 18/16
      Q1014=
METAR LGLM 081220Z 03013KT 9999 FEW008 SCT020 21/16 Q1013=
METAR LGMK 081220Z 02021G32KT 9999 FEW015 24/17 Q1012=
METAR LGMT 081220Z 36015KT 9999 FEW025 27/18 Q1011=
METAR LGPZ 081220Z 25011KT 9999 FEW025 27/19 Q1013 NOSIG=
METAR LGRP 081220Z 25014KT CAVOK 29/19 Q1008 NOSIG=
METAR LGRX 081220Z 28011KT 9999 FEW025 28/14 Q1012 NOSIG=
METAR LGSA 081220Z 35012KT 9999 FEW020 33/14 Q1012=
METAR LGSR 081220Z 01014KT 9999 FEW025 27/18 Q1011 NOSIG=
METAR LOXT 081220Z 28007KT 50KM FEW060CU 26/12 Q1022 NOSIG RMK FEW=
####018000120####
SAUS20 KNKA 081230
METAR KXBP 081225Z AUTO 00000KT 10SM SCT026 BKN050 BKN070 24/23 
     A3005 RMK AO2 T02350225=
####018000089####
SASG20 GOOY 081230
METAR GOOY 081230Z 14010KT 110V180 9999 SCT013 31/24 Q1013 NOSIG=
####018000089####
SAHK31 VHHH 081230
METAR VHHH 081230Z 19006KT 140V250 9999 FEW015 31/25 Q1007 NOSIG=
####018000086####
SANO35 ENMI 081220 RRA
METAR ENSO 081220Z 22008KT 150V270 9999 SCT030 17/10 Q1014=
####018000615####
SPUS99 KWBC 081231
SPECI
KAKO 081229Z AUTO 14007KT 5SM BR SCT009 SCT032 OVC039 14/14 A3032
     RMK AO2 TSNO=
KBIV 081229Z AUTO 14004KT 4SM BR FEW001 SCT048 24/22 A3003 RMK
     AO2=
KGLD 081229Z AUTO 04003KT 10SM OVC016 17/16 A3031 RMK AO2=
KHOB 081222Z 36007KT 10SM BKN010 BKN075 OVC110 19/19 A3017=
KHOU 081229Z 09006KT 9SM -RA BKN012 BKN039 OVC100 25/23 A2995 RMK
     AO2 RAB00 P0006=
KISW 081229Z AUTO 28004KT 10SM SCT007 21/19 A3005 RMK AO2 TSNO=
KSJC 081229Z VRB04KT 9SM FEW008 BKN011 OVC015 15/12 A2992 RMK
     AO2=
KVAY 081229Z AUTO VRB03KT 3SM BR OVC006 26/23 A3004 RMK AO2=
####018002247####
SAUS99 KWBC 081231
METAR
K2G4 081225Z AUTO 02003KT 10SM CLR 24/14 A3020 RMK AO1=
K2W6 081228Z AUTO 08004KT 7SM CLR 27/24 A3002 RMK AO1=
KCBE 081228Z AUTO 00000KT 7SM CLR 24/19 A3011 RMK AO1=
KCCA 081235Z AUTO 00000KT 7SM OVC004 24/23 A3009 RMK AO2=
KCDN 081235Z AUTO 31004KT 10SM CLR 27/21 A3000 RMK A02 P000=
KCGE 081226Z AUTO 13005KT 5SM SCT006 SCT009 26/25 A3003 RMK
     AO1=
KCGS 081230Z AUTO 00000KT 5SM CLR 28/24 A3002 RMK AO1=
KCKI 081235Z AUTO 30005KT 10SM CLR 26/20 A2996 RMK AO2=
KFDK 081228Z AUTO 00000KT 5SM HZ CLR 30/20 A3006 RMK AO2=
KDMW 081228Z AUTO 12003KT 7SM CLR 28/22 A3006 RMK AO2=
KFME 081230Z AUTO 10003KT 5SM CLR 26/23 A3004 RMK AO1=
KIGQ 081220Z AUTO 00000KT 4SM -RA BKN055 BKN075 BKN085 24/22 A3003
     RMK AO2=
KJDD 081225Z AUTO 00000KT 4SM BR OVC003 25/25 A3005 RMK AO2=
KLRO 081235Z AUTO 29007KT 8SM CLR 25/19 A2996 RMK AO2=
KMKS 081235Z AUTO 00000KT 10SM CLR 25/20 A2997 RMK AO2 TSNO=
KRFI 081225Z AUTO 10005KT 5SM BR CLR 24/23 A3004 RMK AO2
     T02420231=
KRWV 081220Z AUTO 00000KT 5SM BR OVC006 24/24 A3000 RMK AO2 LTG
     DSNT E AND SE=
KRYW 081225Z AUTO 07005KT 1 1/2SM BR OVC003 24/23 A3000 RMK
     AO2=
KSAR 081225Z AUTO 20005KT 7SM SCT070 SCT095 26/23 A3006 RMK
     AO2=
KSLO 081223Z AUTO 24005KT 10SM SCT044 27/22 A3006 RMK AO2
     T02650224=
KSOA 081220Z AUTO 00000KT 5SM BR 22/22 A3009 RMK AO2=
KSWW 081225Z AUTO 01004KT 4SM OVC002 22/21 A3011 RMK AO1
     T02150211=
KT65 081225Z AUTO 01006KT 10SM OVC006 26/25 A2978 RMK AO2 LTG DSNT
     S T02560248=
KT82 081225Z AUTO 00000KT 23/22 A3003 RMK AO1 T02250217=
KTAZ 081225Z AUTO 00000KT 7SM CLR 25/24 A3004 RMK AO2=
KTFP 081225Z AUTO 11006KT 10SM RA SCT015 BKN045 OVC060 26/25 A2984
     RMK AO2 P0002 T02620250=
KTIP 081225Z AUTO 00000KT 7SM SCT085 SCT110 26/24 A3006 RMK AO2
     T02550238=
KTYQ 081225Z AUTO 00000KT 7SM SCT100 26/22 A3007 RMK AO2=
KUVA 081225Z AUTO 05005KT 10SM CLR 24/23 A2996 RMK AO2
     T02410231=
KVYS 081225Z AUTO 26004KT 3SM BR SCT009 BKN015 OVC031 24/22 A3004
     RMK AO2 T02350220=
KW29 081228Z AUTO 11003KT 5SM CLR 27/23 A3002 RMK AO1=
KXBP 081225Z AUTO 00000KT 10SM SCT026 BKN050 BKN070 24/23 A3005
     RMK AO2 T02350225=
####018000107####
SAIV20 DIAP 081230
METAR DIAP 081230Z 22005KT 180V290 7000 R21//////N SCT012 BKN070
29/25 Q1014 NOSIG=
####018000408####
SABU31 LBSM 081230
METAR LBSF 081230Z 28005MPS 9999 FEW030 BKN050 19/12 Q1018
 NOSIG=
METAR LBWN 081230Z 29006MPS 260V320 9999 FEW023 SCT040 20/16
 Q1014 NOSIG=
METAR LBBG 081230Z 28004MPS 260V320 9999 BKN021 BKN030 18/15
 Q1015 TEMPO SHRA=
METAR LBPD 081230Z 26004MPS 9999 -RA SCT040 OVC065 17/14 Q1017
 NOSIG=
METAR LBGO 081230Z 29003MPS 250V320 9999 -DZ BKN023 OVC040 16/15
 Q1017 RERA NOSIG=
####018000101####
SPAU32 YBBN 081230
SPECI YPPD 081230Z AUTO 03009KT 6000NDV // BKN013 BKN027 OVC041 21/21
Q1010=
####018000116####
SAPK31 OPKC 081230 RRA
METAR OPKC 081225Z 18006KTS 8000 SCT030 SCT100 34/24 Q1002 TEMPO
NE 30KTS TSRA FEW025CB=
####018000106####
SABU31 LBSM 081230 CCA
METAR LBGO 081230Z 29003MPS 250V320 9999 -DZ BKN023 OVC040 16/15
 Q1017 NOSIG=
####018000472####
SAHU41 LHBM 081230
METAR LHDC 081215Z 36008KT 9999 FEW043 23/11 Q1021 NOSIG=
METAR LHKE 081215Z 25002MPS CAVOK 24/10 Q1021 NOSIG RMK BLU=
METAR LHPA 081215Z 34004MPS CAVOK 25/11 Q1022 NOSIG RMK BLU=
METAR LHPP 081215Z 36006KT CAVOK 24/11 Q1023 NOSIG=
METAR LHPR 081215Z 33010KT CAVOK 25/09 Q1022=
METAR LHSM 081215Z 31006KT CAVOK 25/12 Q1022 NOSIG=
METAR LHSN 081215Z 34001MPS CAVOK 23/10 Q1021 NOSIG RMK BLU=
METAR LHUD 081215Z 36005KT 9999 BKN040 25/14 Q1021=
####018000098####
SARM31 LUKK 081230
METAR LUKK 081230Z 34008KT 300V360 9999 SCT033 25/16 Q1015
26CLRD65 NOSIG=
####018000104####
SPAU31 KWBC 081231
SPECI
YPPD 081230Z AUTO 03009KT 6000NDV // BKN013 BKN027 OVC041 21/21
Q1010=
####018000480####
SAHU41 LHBM 081230
METAR LHDC 081215Z 36008KT 9999 FEW043 23/11 Q1021 NOSIG=
METAR LHKE 081215Z 25002MPS CAVOK 24/10 Q1021 NOSIG RMK BLU=
METAR LHPA 081215Z 34004MPS CAVOK 25/11 Q1022 NOSIG RMK BLU=
METAR LHPP 081215Z 36006KT CAVOK 24/11 Q1023 NOSIG=
METAR LHPR 081215Z 33010KT CAVOK 25/09 Q1022=
METAR LHSM 081215Z 31006KT CAVOK 25/12 Q1022 NOSIG=
METAR LHSN 081215Z 34001MPS CAVOK 23/10 Q1021 NOSIG RMK BLU=
METAR LHUD 081215Z 36005KT 9999 BKN040 25/14 Q1021=
####018000098####
SAUZ31 UTTT 081230
METAR UTTT 081230Z 26002MPS 180V330 CAVOK 38/07 Q1009
R08R/CLRD70 NOSIG=
####018000103####
SATG20 DXXX 081230
METAR DXXX 081230Z 21012KT 9999 R22//////N FEW016 FEW025CB 30/24
Q1014 NOSIG=
####018000166####
SATU20 LTAA 081150 RRC
METAR LTCE 081220Z 33005KT 270V020 9999 SCT030 31/09 Q1016 NOSIG RMK RWY08R 08007KT 020V110 RWY26R 36004KT 310V060 RWY08L 06007KT 010V110=
####018000109####
SAIV20 DIAP 081230
METAR DIAP 081230Z 22005KT 180V290 7000 R21//////N SCT012 BKN070
29/25 Q1014 NOSIG=
####018000081####
SPUS53 KWBC 081231
SPECI
KVIH 081228Z AUTO 00000KT 9SM BKN017 24/22 A3007=
####018000087####
SAUZ31 UTTW 081130
METAR UTST 081230Z VRB01MPS CAVOK 40/04 Q1004 R88/CLRD70 NOSIG=
####018000462####
SARH31 LDZM 081230
METAR LDSP 081230Z 23011KT 180V250 CAVOK 29/08 Q1020 NOSIG =
METAR LDPL 081230Z 25007KT 200V310 CAVOK 26/12 Q1022 NOSIG =
METAR LDDU 081230Z 28012KT 230V340 9999 FEW045 26/10 Q1018 NOSIG =
METAR LDZA 081230Z VRB03KT CAVOK 26/07 Q1022 NOSIG =
METAR LDZD 081230Z 29013KT 260V330 CAVOK 28/07 Q1020 NOSIG =
METAR LDRI 081230Z 26005KT 190V330 9999 FEW047 26/10 Q1021 NOSIG=
METAR LDOS 081230Z VRB05KT 9999 FEW033 25/08 Q1021 NOSIG=
####018000118####
SAPK31 OPKC 081230 RRA
METAR OPKC 081225Z 18006KTS 8000 SCT030 SCT100 34/24 Q1002 TEMPO
NE 30KTS TSRA FEW025CB=
####018000418####
SATU32 LTAA 081220
METAR LTAN 081220Z 16005KT 9999 SCT040 33/08 Q1010 NOSIG=
METAR LTAU 081220Z VRB05KT 9999 SCT040 34/12 Q1009 NOSIG=
METAR LTBR 081220Z 34017KT 9999 SCT035TCU BKN100 27/17 Q1011 TEMPO 
-TSRA=
METAR LTBU 081220Z 31010KT 9999 SCT030 BKN100 18/14 Q1013 RESHRA=
METAR LTCC 081220Z 20010KT 170V230 CAVOK 41/02 Q1005 NOSIG=
METAR LTCE 081220Z 33005KT 270V020 9999 SCT030 31/09 Q1016 NOSIG=
####018000100####
SARM31 LUKK 081230
METAR LUKK 081230Z 34008KT 300V360 9999 SCT033 25/16 Q1015
26CLRD65 NOSIG=
####018000418####
SABU31 LBSM 081230
METAR LBSF 081230Z 28005MPS 9999 FEW030 BKN050 19/12 Q1018
 NOSIG=
METAR LBWN 081230Z 29006MPS 260V320 9999 FEW023 SCT040 20/16
 Q1014 NOSIG=
METAR LBBG 081230Z 28004MPS 260V320 9999 BKN021 BKN030 18/15
 Q1015 TEMPO SHRA=
METAR LBPD 081230Z 26004MPS 9999 -RA SCT040 OVC065 17/14 Q1017
 NOSIG=
METAR LBGO 081230Z 29003MPS 250V320 9999 -DZ BKN023 OVC040 16/15
 Q1017 RERA NOSIG=
####018000960####
SATU31 LTAA 081220
METAR LTAC 081220Z 07014KT 9999 FEW030CB SCT035 29/13 Q1010 TEMPO 
FM1300 -TSRA=
METAR LTAF 081220Z /////KT 9999 SCT035 BKN100 31/21 Q1008 NOSIG=
METAR LTAI 081220Z 17010KT 140V200 9999 SCT030 29/22 Q1007 NOSIG=
METAR LTAJ 081220Z 23006KT 170V300 CAVOK 37/10 Q1007 NOSIG=
METAR LTAZ 081220Z NIL=
METAR LTBA 081220Z 35019KT 9999 BKN035 23/16 Q1012 TEMPO 4000 -TSRA=
METAR LTBJ 081220Z 35017KT CAVOK 31/12 Q1010 NOSIG=
METAR LTBS 081220Z 22012KT 180V240 9999 FEW030 31/18 Q1007 NOSIG=
METAR LTCF 081220Z 10012KT 9999 SCT035 29/09 Q1018=
METAR LTCG 081220Z 07006KT 9999 FEW018 SCT035 27/22 Q1010 NOSIG=
METAR LTCI 081220Z 23006KT 190V260 CAVOK 26/19 Q1016 NOSIG=
METAR LTCS 081220Z 12008KT 100V180 CAVOK 38/M00 Q1009=
METAR LTFE 081220Z 26019KT 9999 FEW035 32/15 Q1008 NOSIG=
METAR LTFH 081220Z 05006KT 360V120 9999 SCT036 BKN100 27/23 Q1010 
NOSIG=
METAR LTFJ 081220Z 01018KT 9999 BKN030 23/17 Q1011 NOSIG=
####018000094####
SAUK35 EGGY 081220 RRA
METAR EGLF 081220Z 25008KT 230V300 9999 SCT025 BKN038 22/15 Q1019=
####018000202####
SATU20 LTAA 081150 RRD
METAR LTAN 081220Z 16005KT 9999 SCT040 33/08 Q1010 NOSIG RMK RWY19
13003KT=
METAR LTBR 081220Z 34017KT 9999 SCT035TCU BKN100 27/17 Q1011 TEMPO 
-TSRA RMK RWY07 30014KT=
####018000088####
SPUS81 KWBC 081231
SPECI
KABH 081228Z AUTO 00000KT 2 1/2SM BR FEW001 12/11 A3037=
####018000090####
SPCN47 CWAO 081230
SPECI CYAM 081230Z 28007KT 6SM -RA BR BKN005 OVC011 RMK SF5SC3=

####018000080####
SANC01 NWWW 081230
METAR NWWW 081230Z AUTO 20004KT 9999NDV NCD 15/13 Q1016=
####018000092####
SASG20 GOOY 081230
METAR GOOY 081230Z 14010KT 110V180 9999 SCT013 31/24 Q1013 NOSIG=

####018000093####
SAIN90 VECC 081220
METAR VECC 081220Z 22012KT 4500 HZ SCT015 FEW030CB 33/23 Q1004 NOSIG=
####018000276####
SAZZ40 KAWN 081200 RRT
METAR COR DAUI 081200Z 07024KT 6000 DRSA NSC 45/07 Q1013=
METAR EFKI 081220Z AUTO 33005KT 290V010 CAVOK 23/14 Q1015=
METAR KVPS 081155Z COR 33001KT 5SM BR FEW010 24/23 A3004 RMK AO2A VIS
      NE 2 SLP172 T02420233 10251 20231 53007 COR 1226=
####018000387####
SAHK31 VHHH 081230
METAR VHHH 081230Z 19006KT 140V250 9999 FEW015 31/25 Q1007 NOSIG=
METAR RCTP 081230Z 23008KT 190V250 9999 FEW025 BKN150 28/25
Q1007 NOSIG=
METAR RCKH 081230Z 24006KT 200V280 9999 FEW013 BKN300 30/26
Q1009 NOSIG=
METAR RCSS 081230Z 27006KT 9999 FEW020 SCT030 31/23 Q1007
NOSIG=
METAR VMMC 081230Z 19010KT 170V260 9999 FEW020 29/26 Q1006
     NOSIG=
####018001737####
SAEU KAWN 081200 RRX
METAR EGAE 081220Z 24011KT 9999 FEW020 SCT040 18/10 Q1012=
METAR EGLF 081220Z 25008KT 230V300 9999 SCT025 BKN038 22/15 Q1019=
METAR EGNC 081220Z 25012KT 210V280 9999 FEW020 SCT035 17/10 Q1015=
METAR EGNJ 081220Z 23013KT 200V260 9999 SCT040 22/10 Q1017=
METAR EGPL 081220Z 22022KT 9999 VCSH FEW018 16/12 Q1008=
METAR COR EGPM 081220Z 23023KT 9999 SCT028 16/10 Q1006 NOSIG=
METAR EGPN 081220Z 24016KT 9999 FEW032 SCT045 17/12 Q1012=
METAR EGPO 081220Z 23023KT 9999 FEW024 SCT032 18/11 Q1006=
METAR EGSC 081220Z 23008KT 180V270 9999 SCT038 23/14 Q1018=
METAR COR EGSH 081220Z 21007KT 170V300 9999 SCT023 23/15 Q1018 NOSIG=
METAR ENSO 081220Z 22008KT 150V270 9999 SCT030 17/10 Q1014=
METAR LBBG 081230Z 28004MPS 260V320 9999 BKN021 BKN030 18/15 Q1015
      TEMPO SHRA=
METAR LBGO 081230Z 29003MPS 250V320 9999 -DZ BKN023 OVC040 16/15 Q1017
      NOSIG=
METAR LBPD 081230Z 26004MPS 9999 -RA SCT040 OVC065 17/14 Q1017 NOSIG=
METAR LBSF 081230Z 28005MPS 9999 FEW030 BKN050 19/12 Q1018 NOSIG=
METAR LBWN 081230Z 29006MPS 260V320 9999 FEW023 SCT040 20/16 Q1014
      NOSIG=
METAR LDDU 081230Z 28012KT 230V340 9999 FEW045 26/10 Q1018 NOSIG=
METAR LDPL 081230Z 25007KT 200V310 CAVOK 26/12 Q1022 NOSIG=
METAR LDZD 081230Z 29013KT 260V330 CAVOK 28/07 Q1020 NOSIG=
METAR LEST 081200Z 08006KT 050V130 CAVOK 27/18 Q1015 NOSIG=
METAR LHDC 081215Z 36008KT 9999 FEW043 23/11 Q1021 NOSIG=
METAR LHKE 081215Z 25002MPS CAVOK 24/10 Q1021 NOSIG RMK BLU=
METAR LHPA 081215Z 34004MPS CAVOK 25/11 Q1022 NOSIG RMK BLU=
METAR LHPP 081215Z 36006KT CAVOK 24/11 Q1023 NOSIG=
METAR LHSN 081215Z 34001MPS CAVOK 23/10 Q1021 NOSIG RMK BLU=
METAR LHUD 081215Z 36005KT 9999 BKN040 25/14 Q1021=
####018000079####
SAUS90 KWBC 081232
METAR KFDK 081228Z AUTO 00000KT 5SM HZ CLR 30/20 A3006=
####018000085####
SPCN51 CWAO 081230
SPECI CWZZ 081230Z AUTO ///// 9SM BKN041 OVC065 14/ A2975=

####018000098####
SASR31 WSSS 081230
METAR WSSS 081230Z 22004KT 180V250 9999 FEW016 SCT190 28/24 Q1009
NOSIG=
####018000579####
SAUS20 KNKA 081231
METAR KBNL 081235Z AUTO 33005KT 10SM CLR 27/19 A3000 RMK AO2 =
METAR KCQW 081235Z AUTO 33003KT 5SM  HZ CLR 27/18 A2998 RMK AO2 =
SPECI KHLG 081230Z 00000KT 3SM HZ FEW055 24/21 A3010 RMK AO2=
METAR KLKR 081235Z AUTO 00000KT 8SM CLR 22/22 A3001 RMK AO2 =
SPECI KMCI 081230Z 01006KT 3/4SM BR OVC002 23/22 A3009 RMK AO2 SFC 
    VIS 2 1/2=
METAR KONM 081227Z AUTO 35006KT 10SM -RA OVC080 18/14 A3024 RMK 
     AO2 T01790143=
METAR KPEQ 081226Z AUTO 36006KT 10SM 23/21 A3010 RMK AO2=
SPECI KYIP 081230Z 21003KT 10SM CLR 28/21 A3004 RMK AO2 $=
####018000250####
SACA31 TNCC 081200
METAR TNCC 081200Z 08014KT 9999 FEW017 29/25 Q1012 NOSIG=
METAR TNCA 081200Z 07016KT 9999 SCT017 30/25 Q1012 NOSIG=
METAR TNCB 081200Z AUTO 08010KT //// ////// 29/25 Q1012=
METAR TNCE 081200Z 06012KT 9999 FEW018 29/25 Q1016=
####018000340####
SAUS99 KWBC 081232
METAR
KBNL 081235Z AUTO 33005KT 10SM CLR 27/19 A3000 RMK AO2=
KCQW 081235Z AUTO 33003KT 5SM HZ CLR 27/18 A2998 RMK AO2=
KLKR 081235Z AUTO 00000KT 8SM CLR 22/22 A3001 RMK AO2=
KONM 081227Z AUTO 35006KT 10SM -RA OVC080 18/14 A3024 RMK AO2
     T01790143=
KPEQ 081226Z AUTO 36006KT 10SM 23/21 A3010 RMK AO2=
####018000223####
SPUS99 KWBC 081232
SPECI
KHLG 081230Z 00000KT 3SM HZ FEW055 24/21 A3010 RMK AO2=
KMCI 081230Z 01006KT 3/4SM BR OVC002 23/22 A3009 RMK AO2 SFC VIS 2
     1/2=
KYIP 081230Z 21003KT 10SM CLR 28/21 A3004 RMK AO2 $=
####018000096####
SAUS98 KWBC 081232
METAR KEHA 081228Z AUTO 36007KT 17/16 RMK AO1 PK WND 09 003
T01720162=
####018000083####
SACY42 EGRR 081150
METAR LCRA 081150Z 22012KT 9999 FEW040TCU 28/21 Q1008 NOSIG=
####018000079####
SANC01 NWWW 081230
METAR NWWW 081230Z AUTO 20004KT 9999NDV NCD 15/13 Q1016=
####018000372####
SAAF17 LFPW 081200 RRA
METAR HEAX 081200Z 31013KT 9999 FEW020 29/22 Q1010=
METAR HEBL 081200Z 01014KT CAVOK 40/08 Q1009=
METAR HEGN 081200Z 35023KT CAVOK 38/10 Q1005=
METAR HELX 081200Z 31010KT CAVOK 40/10 Q1007=
METAR HEMM 081200Z 32014KT CAVOK 29/22 Q1012=
METAR HESN 081200Z 33012KT CAVOK 39/06 Q1008=
METAR HETB 081200Z 34006KT CAVOK       34/10 Q1012 NOSIG=
####018000129####
SAPY SGAS 081230
METAR SGAS 081230Z 14008KT 8000  BKN010 OVC015
17/15 Q1016=
METAR SGES 081230Z 16008KT CAVOK 18/17  Q1016=
####018000378####
SAHK31 VHHH 081230
METAR VHHH 081230Z 19006KT 140V250 9999 FEW015 31/25 Q1007 NOSIG=
METAR RCTP 081230Z 23008KT 190V250 9999 FEW025 BKN150 28/25
Q1007 NOSIG=
METAR RCKH 081230Z 24006KT 200V280 9999 FEW013 BKN300 30/26
Q1009 NOSIG=
METAR RCSS 081230Z 27006KT 9999 FEW020 SCT030 31/23 Q1007
NOSIG=
METAR VMMC 081230Z 19010KT 170V260 9999 FEW020 29/26 Q1006
     NOSIG=
####018000082####
SAHU31 LHBM 081230
METAR LHBP 081230Z 25008KT 200V290 CAVOK 24/10 Q1021 NOSIG=
####018000105####
SPXX60 KWBC 081232
SPECI
KABH 081228Z AUTO 00000KT 2 1/2SM BR FEW001 12/11 A3037 RMK AO2
     $=
####018000156####
SAXX60 KWBC 081200 RRO
METAR
KVPS 081155Z COR 33001KT 5SM BR FEW010 24/23 A3004 RMK AO2A VIS NE
     2 SLP172 T02420233 10251 20231 53007 COR 1226=
####018000809####
SPUS70 KWBC 081232
SPECI
KAKO 081229Z AUTO 14007KT 5SM BR SCT009 SCT032 OVC039 14/14 A3032
     RMK AO2 TSNO=
KBIV 081229Z AUTO 14004KT 4SM BR FEW001 SCT048 24/22 A3003 RMK
     AO2=
KGLD 081229Z AUTO 04003KT 10SM OVC016 17/16 A3031 RMK AO2=
KHOB 081222Z 36007KT 10SM BKN010 BKN075 OVC110 19/19 A3017=
KHOU 081229Z 09006KT 9SM -RA BKN012 BKN039 OVC100 25/23 A2995 RMK
     AO2 RAB00 P0006=
KISW 081229Z AUTO 28004KT 10SM SCT007 21/19 A3005 RMK AO2 TSNO=
KSJC 081229Z VRB04KT 9SM FEW008 BKN011 OVC015 15/12 A2992 RMK
     AO2=
KVAY 081229Z AUTO VRB03KT 3SM BR OVC006 26/23 A3004 RMK AO2=
KHLG 081230Z 00000KT 3SM HZ FEW055 24/21 A3010 RMK AO2=
KMCI 081230Z 01006KT 3/4SM BR OVC002 23/22 A3009 RMK AO2 SFC VIS 2
     1/2=
KYIP 081230Z 21003KT 10SM CLR 28/21 A3004 RMK AO2 $=
####018000201####
SAAF31 KWBC 081200 RRD
METAR
DIAP 081230Z 22005KT 180V290 7000 R21//////N SCT012 BKN070 29/25
     Q1014 NOSIG=
DXXX 081230Z 21012KT 9999 R22//////N FEW016 FEW025CB 30/24 Q1014
     NOSIG=
####018000293####
SAUS80 KWBC 081232
METAR
KCBE 081228Z AUTO 00000KT 7SM CLR 24/19 A3011 RMK AO1=
KRFI 081225Z AUTO 10005KT 5SM BR CLR 24/23 A3004 RMK AO2
     T02420231=
KSOA 081220Z AUTO 00000KT 5SM BR 22/22 A3009 RMK AO2=
KEHA 081228Z AUTO 36007KT 17/16 RMK AO1 PK WND 09 003
     T01720162=
####018002180####
SAUS70 KWBC 081232
METAR
K2G4 081225Z AUTO 02003KT 10SM CLR 24/14 A3020 RMK AO1=
K2W6 081228Z AUTO 08004KT 7SM CLR 27/24 A3002 RMK AO1=
KCCA 081235Z AUTO 00000KT 7SM OVC004 24/23 A3009 RMK AO2=
KCDN 081235Z AUTO 31004KT 10SM CLR 27/21 A3000 RMK A02 P000=
KCGS 081230Z AUTO 00000KT 5SM CLR 28/24 A3002 RMK AO1=
KCKI 081235Z AUTO 30005KT 10SM CLR 26/20 A2996 RMK AO2=
KFDK 081228Z AUTO 00000KT 5SM HZ CLR 30/20 A3006 RMK AO2=
KIGQ 081220Z AUTO 00000KT 4SM -RA BKN055 BKN075 BKN085 24/22 A3003
     RMK AO2=
KJDD 081225Z AUTO 00000KT 4SM BR OVC003 25/25 A3005 RMK AO2=
KLRO 081235Z AUTO 29007KT 8SM CLR 25/19 A2996 RMK AO2=
KMKS 081235Z AUTO 00000KT 10SM CLR 25/20 A2997 RMK AO2 TSNO=
KRWV 081220Z AUTO 00000KT 5SM BR OVC006 24/24 A3000 RMK AO2 LTG
     DSNT E AND SE=
KRYW 081225Z AUTO 07005KT 1 1/2SM BR OVC003 24/23 A3000 RMK
     AO2=
KSAR 081225Z AUTO 20005KT 7SM SCT070 SCT095 26/23 A3006 RMK
     AO2=
KSLO 081223Z AUTO 24005KT 10SM SCT044 27/22 A3006 RMK AO2
     T02650224=
KSWW 081225Z AUTO 01004KT 4SM OVC002 22/21 A3011 RMK AO1
     T02150211=
KT65 081225Z AUTO 01006KT 10SM OVC006 26/25 A2978 RMK AO2 LTG DSNT
     S T02560248=
KT82 081225Z AUTO 00000KT 23/22 A3003 RMK AO1 T02250217=
KTAZ 081225Z AUTO 00000KT 7SM CLR 25/24 A3004 RMK AO2=
KTFP 081225Z AUTO 11006KT 10SM RA SCT015 BKN045 OVC060 26/25 A2984
     RMK AO2 P0002 T02620250=
KTIP 081225Z AUTO 00000KT 7SM SCT085 SCT110 26/24 A3006 RMK AO2
     T02550238=
KTYQ 081225Z AUTO 00000KT 7SM SCT100 26/22 A3007 RMK AO2=
KUVA 081225Z AUTO 05005KT 10SM CLR 24/23 A2996 RMK AO2
     T02410231=
KVYS 081225Z AUTO 26004KT 3SM BR SCT009 BKN015 OVC031 24/22 A3004
     RMK AO2 T02350220=
KW29 081228Z AUTO 11003KT 5SM CLR 27/23 A3002 RMK AO1=
KXBP 081225Z AUTO 00000KT 10SM SCT026 BKN050 BKN070 24/23 A3005
     RMK AO2 T02350225=
KBNL 081235Z AUTO 33005KT 10SM CLR 27/19 A3000 RMK AO2=
KCQW 081235Z AUTO 33003KT 5SM HZ CLR 27/18 A2998 RMK AO2=
KLKR 081235Z AUTO 00000KT 8SM CLR 22/22 A3001 RMK AO2=
KONM 081227Z AUTO 35006KT 10SM -RA OVC080 18/14 A3024 RMK AO2
     T01790143=
KPEQ 081226Z AUTO 36006KT 10SM 23/21 A3010 RMK AO2=
####018000095####
SAAO33 KWBC 081200 RRD
METAR
GOOY 081230Z 14010KT 110V180 9999 SCT013 31/24 Q1013 NOSIG=
####018000369####
SAAW34 KWBC 081215 RRA
METAR
OPGD 081230Z NIL=
OPKC 081230Z NIL=
OPKC 081225Z 18006KTS 8000 SCT030 SCT100 34/24 Q1002 TEMPO NE
     30KTS TSRA FEW025CB=
OPLA 081225Z 14004KT 6000 SCT040 37/23 Q1002=
OPNH 081230Z NIL=
OPPS 081230Z NIL=
OPRN 081230Z NIL=
OPSK 081230Z NIL=
UTTT 081230Z 26002MPS 180V330 CAVOK 38/07 Q1009 R08R/CLRD70
     NOSIG=
####018000414####
SAAW31 KWBC 081200 RRA
METAR
LTAC 081220Z 07014KT 9999 FEW030CB SCT035 29/13 Q1010 TEMPO FM1300
     -TSRA=
LTAF 081220Z /////KT 9999 SCT035 BKN100 31/21 Q1008 NOSIG=
LTAI 081220Z 17010KT 140V200 9999 SCT030 29/22 Q1007 NOSIG=
LTBA 081220Z 35019KT 9999 BKN035 23/16 Q1012 TEMPO 4000 -TSRA=
LTBJ 081220Z 35017KT CAVOK 31/12 Q1010 NOSIG=
LTBS 081220Z 22012KT 180V240 9999 FEW030 31/18 Q1007 NOSIG=
####018000565####
SAAW41 KWBC 081250 RRC
METAR
LTAJ 081220Z 23006KT 170V300 CAVOK 37/10 Q1007 NOSIG=
LTAN 081220Z 16005KT 9999 SCT040 33/08 Q1010 NOSIG=
LTAN 081220Z 16005KT 9999 SCT040 33/08 Q1010 NOSIG RMK RWY19
     13003KT=
LTAU 081220Z VRB05KT 9999 SCT040 34/12 Q1009 NOSIG=
LTCC 081220Z 20010KT 170V230 CAVOK 41/02 Q1005 NOSIG=
LTCE 081220Z 33005KT 270V020 9999 SCT030 31/09 Q1016 NOSIG=
LTCG 081220Z 07006KT 9999 FEW018 SCT035 27/22 Q1010 NOSIG=
LTCI 081220Z 23006KT 190V260 CAVOK 26/19 Q1016 NOSIG=
LTFE 081220Z 26019KT 9999 FEW035 32/15 Q1008 NOSIG=
####018000246####
SACI31 KWBC 081200 RRB
METAR
RCKH 081230Z 24006KT 200V280 9999 FEW013 BKN300 30/26 Q1009
     NOSIG=
RCSS 081230Z 27006KT 9999 FEW020 SCT030 31/23 Q1007 NOSIG=
RCTP 081230Z 23008KT 190V250 9999 FEW025 BKN150 28/25 Q1007
     NOSIG=
####018000089####
SADL31 KWBC 081220 RRA
METAR
EDHL 081220Z 21008KT 160V270 CAVOK 29/12 Q1019 RMK R=
####018000094####
SADL32 KWBC 081220 RRA
METAR
EDLW 081220Z 26004KT 180V340 CAVOK 31/10 Q1020 RMK ATIS S=
####018000086####
SADL33 KWBC 081215 RRC
METAR
EDNY 081220Z 19005KT CAVOK 28/11 Q1022 RMK ATIS R=
####018000087####
SAMM31 KWBC 081200 RRB
METAR
LCEN 081220Z 15014KT 9999 SCT025 33/18 Q1007 NOSIG=
####018000089####
SANO42 KWBC 081220 RRA
METAR
ENSO 081220Z 22008KT 150V270 9999 SCT030 17/10 Q1014=
####018000169####
SARA31 KWBC 081200 RRF
METAR
UTST 081230Z VRB01MPS CAVOK 40/04 Q1004 R88/CLRD70 NOSIG=
UTTT 081230Z 26002MPS 180V330 CAVOK 38/07 Q1009 R08R/CLRD70
     NOSIG=
####018000084####
SAPA31 KWBC 081200 RRC
METAR
AYPY 081200Z 18015KT 9999 BKN040 26/22 Q1010 HZ=
####018000089####
SASP31 KWBC 081200 RRA
METAR
LEST 081200Z 08006KT 050V130 CAVOK 27/18 Q1015 NOSIG=
####018000247####
SAUK41 KWBC 081220 RRA
METAR
EGAE 081220Z 24011KT 9999 FEW020 SCT040 18/10 Q1012=
EGBE 081220Z NIL=
EGBJ 081220Z 22005KT 190V280 9999 FEW035 22/09 Q1018=
EGDL 081220Z NIL=
EGNC 081220Z 25012KT 210V280 9999 FEW020 SCT035 17/10 Q1015=
####018000434####
SAUK42 KWBC 081220 RRA
METAR
EGPC 081220Z 20015KT 9999 FEW020 17/11 Q1008=
EGPE 081220Z 22021KT 9999 VCSH FEW022 SCT035 18/10 Q1009=
EGPL 081220Z 22022KT 9999 VCSH FEW018 16/12 Q1008=
EGPM 081220Z 23023KT 9999 SCT028 16/10 Q1006 NOSIG=
EGPN 081220Z 24016KT 9999 FEW032 SCT045 17/12 Q1012=
EGPO 081220Z 23023KT 9999 FEW024 SCT032 18/11 Q1006=
EGPU 081220Z NIL=
EGSC 081220Z 23008KT 180V270 9999 SCT038 23/14 Q1018=
####018000205####
SAUK32 KWBC 081220 RRB
METAR
EGPA 081220Z 22014KT 9999 VCSH FEW020CB SCT045 18/12 Q1007=
EGPC 081220Z 20015KT 9999 FEW020 17/11 Q1008=
EGSH 081220Z 21007KT 170V300 9999 SCT023 23/15 Q1018 NOSIG=
####018000108####
SAUK41 KWBC 081150 RRF
METAR
EGDM 081150Z 20008KT 9999 SCT022 SCT250 20/15 Q1018 BECMG
     SCT025=
####018000116####
SAXX61 KWBC 081200 RRE
METAR
LTAC 081220Z 07014KT 9999 FEW030CB SCT035 29/13 Q1010 TEMPO FM1300
     -TSRA=
####018000200####
SAUK31 KWBC 081220 RRA
METAR
EGLF 081220Z 25008KT 230V300 9999 SCT025 BKN038 22/15 Q1019=
EGNH 081220Z 23010KT 9999 FEW030 19/11 Q1017=
EGNJ 081220Z 23013KT 200V260 9999 SCT040 22/10 Q1017=
####018000114####
SAXX99 KWBC 081200 CCF
METAR
LBGO 081230Z 29003MPS 250V320 9999 -DZ BKN023 OVC040 16/15 Q1017
     NOSIG=
####018001063####
SAXX99 KWBC 081200 RRV
METAR
EGCN 081220Z 25013KT 9999 FEW041 22/08 Q1017=
EGEC 081220Z NIL=
EGNR 081220Z 28011KT 240V330 9999 FEW030 21/10 Q1017=
EGPI 081220Z NIL=
EGVN 081220Z NIL=
EGWU 081220Z NIL=
LBGO 081230Z 29003MPS 250V320 9999 -DZ BKN023 OVC040 16/15 Q1017
     RERA NOSIG=
LHDC 081215Z 36008KT 9999 FEW043 23/11 Q1021 NOSIG=
LHKE 081215Z 25002MPS CAVOK 24/10 Q1021 NOSIG RMK BLU=
LHPP 081215Z 36006KT CAVOK 24/11 Q1023 NOSIG=
LHSN 081215Z 34001MPS CAVOK 23/10 Q1021 NOSIG RMK BLU=
LHUD 081215Z 36005KT 9999 BKN040 25/14 Q1021=
LOXT 081220Z 28007KT 50KM FEW060CU 26/12 Q1022 NOSIG RMK FEW=
LTAZ 081220Z NIL=
LTBR 081220Z 34017KT 9999 SCT035TCU BKN100 27/17 Q1011 TEMPO
     -TSRA=
LTBR 081220Z 34017KT 9999 SCT035TCU BKN100 27/17 Q1011 TEMPO -TSRA
     RMK RWY07 30014KT=
LTBU 081220Z 31010KT 9999 SCT030 BKN100 18/14 Q1013 RESHRA=
LTCF 081220Z 10012KT 9999 SCT035 29/09 Q1018=
LTFH 081220Z 05006KT 360V120 9999 SCT036 BKN100 27/23 Q1010
     NOSIG=
LTFJ 081220Z 01018KT 9999 BKN030 23/17 Q1011 NOSIG=
####018000094####
SPUS42 KWBC 081232
SPECI
KHOU 081229Z 09006KT 9SM -RA BKN012 BKN039 OVC100 25/23 A2995=
####018000090####
SPUS44 KWBC 081232
SPECI
KSJC 081229Z VRB04KT 9SM FEW008 BKN011 OVC015 15/12 A2992=
####018000101####
SADL51 ETGT 081220 RRA
METAR
ETGY 081220Z 19004KT 9999 FEW080 BKN250 31/09 Q1019
      BLU+=
####018000102####
SPAU32 YBBN 081230
SPECI YPPD 081230Z AUTO 03009KT 6000NDV // BKN013 BKN027 OVC041 21/21
Q1010=
####018000108####
SABU31 LBSM 081230 CCA
METAR LBGO 081230Z 29003MPS 250V320 9999 -DZ BKN023 OVC040 16/15
 Q1017 NOSIG=
####018000083####
SAHU31 LHBM 081230
METAR LHBP 081230Z 25008KT 200V290 CAVOK 24/10 Q1021 NOSIG=
####018000326####
SABN31 OBBI 081100
METAR OBBI 08:100Z 02009KT 5000 HZ NSC 36/27 Q0999 BECMG 3000=
METAR OEDF 081100Z 36016KT CAVOK 45/03 Q0999 NOSIG=
METAR OEDR 081100Z 02011KT 8000 SKC 43/09 Q0998 NOSIG=
OETAR OTBD 081100Z 02007KT 360V060 6000 NSC 37/29 Q0999 NOSIG=
METAR OKBK 081100Z 34020KT 7000 -BLDU SKC 48/M09 Q0999 NOSIG=
####018000648####
SABN32 OBBI 081100
METAR OMAA 081100Z 03006KT 290V100 CAVOK 43/15 Q0998 A2948 NOSIG=
METAR OMAD 081100Z 27004KT CAVOK 44/18 Q0998 A2949=
METAR OMAL 081100Z 27004KT 210V350 7000 TS FEW045CB 4-/25 Q1001
 A2956=
MEAR OMDB 081100Z 33015KT 280V350 7000 NSC 40/24 Q0999 NOSIG=
METAR OMDW 081100Z 32015KT 8000 NSC 43/20 Q0999 NOSIG=
METAR OMFJ 081100Z 11009KT 040V140 7000FEW020 35/27 Q1001 A2956=
METAR OMRK 081100E 34010KT CAVOK 42/32 Q0998 A2948=
METAR OMSJ 081100Z 33012KT 290V360 6000 NSC 41/25 Q0999=
METAR OOMS 081100Z 05004KT 010V080 6000 -DZ SCT025
BKN120 33/28 Q1001 NO(IG=
METAR OOSA 081100Z AUTO 17008KT 28/23 Q1002=
####018000199####
SASQ31 LZIB 081230
METAR LZIB 081230Z VRB03KT CAVOK 26/08 Q1021=
METAR LZKZ 081230Z 02010KT 310V060 CAVOK 24/05 Q1021 NOSIG=
METAR LZTT 081230Z 07012KT 040V130 9999 FEW040 21/08 Q1022 NOSIG=
####018000707####
SAEG31 HECA 081200
METAR HEBL 081200Z 01014KT CAVOK       40/08 Q1009 NOSIG=
METAR HEAX 081200Z 31013KT 9999 FEW020 29/22 Q1010 NOSIG=
METAR HEMM 081200Z 32014KT CAVOK       29/22 Q1012 NOSIG=
METAR HEPS 081200Z 34010KT 9999 FEW025 29/23 Q1010 NOSIG=
METAR HELX 081200Z 31010KT CAVOK       40/10 Q1007 NOSIG=
METAR HESN 081200Z 33012KT CAVOK       39/06 Q1008 NOSIG=
METAR HEGN 081200Z 35023KT CAVOK       38/10 Q1005 NOSIG=
METAR HESH 081200Z 02012KT CAVOK       38/11 Q1005 NOSIG=
METAR HEBA 081200Z 32018KT 9999 FEW020 30/21 Q1011 NOSIG=
METAR HEMA 081200Z NIL=
METAR HETB 081200Z 34006KT CAVOK       34/10 Q1012 NOSIG=
METAR HESC 081200Z 03010KT CAVOK       33/10 Q1018 NOSIG=
####018000101####
SAAJ31 UBBB 081230
UBBN 081230Z 15010KT 9999 NSC 39/07 Q1007 R14R/CLRD60 NOSIG
RMK G/O QFE681=
####018000707####
SAEG32 HECA 081200
METAR HEBL 081200Z 01014KT CAVOK       40/08 Q1009 NOSIG=
METAR HEAX 081200Z 31013KT 9999 FEW020 29/22 Q1010 NOSIG=
METAR HEMM 081200Z 32014KT CAVOK       29/22 Q1012 NOSIG=
METAR HEPS 081200Z 34010KT 9999 FEW025 29/23 Q1010 NOSIG=
METAR HELX 081200Z 31010KT CAVOK       40/10 Q1007 NOSIG=
METAR HESN 081200Z 33012KT CAVOK       39/06 Q1008 NOSIG=
METAR HEGN 081200Z 35023KT CAVOK       38/10 Q1005 NOSIG=
METAR HESH 081200Z 02012KT CAVOK       38/11 Q1005 NOSIG=
METAR HEBA 081200Z 32018KT 9999 FEW020 30/21 Q1011 NOSIG=
METAR HEMA 081200Z NIL=
METAR HETB 081200Z 34006KT CAVOK       34/10 Q1012 NOSIG=
METAR HESC 081200Z 03010KT CAVOK       33/10 Q1018 NOSIG=
####018000715####
SAEG31 HECA 081200
METAR HEMM 081200Z 32014KT CAVOK 29/22 Q1012=
HEAX 081200Z 31013KT 9999 FEW020 29/22 Q1010=
HECA 081200Z 34010KT CAVOK 34/17 Q1010=
HELX 081200Z 31010KT CAVOK 40/10 Q1007=
HESN 081200Z 33012KT CAVOK 39/06 Q1008=
HEAR 081200Z 33008KT CAVOK 31/21 Q1008=
HEGN 081200Z 35023KT CAVOK 38/10 Q1005=
HEPS 081200Z 34010KT 9999 FEW025 29/23 Q1010=
HEIS 081200Z 33012KT CAVOK 33/18 Q1009=
HESH 081200Z 02012KT CAVOK 38/11 Q1005=
HEAT 081200Z 34015KT CAVOK 36/12 Q1010=
HEBA 081200Z 32018KT 9999 FEW020 30/21 Q1011=
HEBL 081200Z 01014KT CAVOK 40/08 Q1009=
HESC 081200Z 03010KT CAVOK 33/10 Q1018=
HEDF 081200Z NIL=
HETR 081200Z 31020KT CAVOK 32/21 Q1006=
HEMA 081200Z NIL=
####018000082####
SPUS53 KWBC 081232
SPECI
KGLD 081229Z AUTO 04003KT 10SM OVC016 17/16 A3031=
####018000080####
SANC01 NWWM 081230
METAR NWWM 081230Z AUTO 34003KT 9999NDV NCD 18/16 Q1016=
####018000411####
SATU32 LTAA 081220
METAR LTAN 081220Z 16005KT 9999 SCT040 33/08 Q1010 NOSIG=
METAR LTAU 081220Z VRB05KT 9999 SCT040 34/12 Q1009 NOSIG=
METAR LTBR 081220Z 34017KT 9999 SCT035TCU BKN100 27/17 Q1011 TEMPO
-TSRA=
METAR LTBU 081220Z 31010KT 9999 SCT030 BKN100 18/14 Q1013 RESHRA=
METAR LTCC 081220Z 20010KT 170V230 CAVOK 41/02 Q1005 NOSIG=
METAR LTCE 081220Z 33005KT 270V020 9999 SCT030 31/09 Q1016 NOSIG=
####018000251####
SASG21 GOOY 081100 CCA
METAR GOSS 081100Z 22010KT CAVOK 32/25 Q1013=
METAR GOGG 081100Z 18008KT 9999 BKN016 TCU 32/16 QA1014=
METAR GOGS 081100Z 20010KT 9999 SCT016 SCT130 30/27 Q1013=
METAR GOTT 081100Z 24006KT 9999 BKN013 TCU 31/26 Q1014=
####018000080####
SANC01 NWWL 081230
METAR NWWL 081230Z AUTO 00000KT 9999NDV NCD 14/13 Q1015=
####018000197####
SATU20 LTAA 081150 RRD
METAR LTAN 081220Z 16005KT 9999 SCT040 33/08 Q1010 NOSIG RMK RWY19 13003KT=
METAR LTBR 081220Z 34017KT 9999 SCT035TCU BKN100 27/17 Q1011 TEMPO -TSRA RMK RWY07 30014KT=
####018000942####
SATU31 LTAA 081220
METAR LTAC 081220Z 07014KT 9999 FEW030CB SCT035 29/13 Q1010 TEMPO
FM1300 -TSRA=
METAR LTAF 081220Z /////KT 9999 SCT035 BKN100 31/21 Q1008 NOSIG=
METAR LTAI 081220Z 17010KT 140V200 9999 SCT030 29/22 Q1007 NOSIG=
METAR LTAJ 081220Z 23006KT 170V300 CAVOK 37/10 Q1007 NOSIG=
METAR LTAZ 081220Z NIL=
METAR LTBA 081220Z 35019KT 9999 BKN035 23/16 Q1012 TEMPO 4000 -TSRA=
METAR LTBJ 081220Z 35017KT CAVOK 31/12 Q1010 NOSIG=
METAR LTBS 081220Z 22012KT 180V240 9999 FEW030 31/18 Q1007 NOSIG=
METAR LTCF 081220Z 10012KT 9999 SCT035 29/09 Q1018=
METAR LTCG 081220Z 07006KT 9999 FEW018 SCT035 27/22 Q1010 NOSIG=
METAR LTCI 081220Z 23006KT 190V260 CAVOK 26/19 Q1016 NOSIG=
METAR LTCS 081220Z 12008KT 100V180 CAVOK 38/M00 Q1009=
METAR LTFE 081220Z 26019KT 9999 FEW035 32/15 Q1008 NOSIG=
METAR LTFH 081220Z 05006KT 360V120 9999 SCT036 BKN100 27/23 Q1010
NOSIG=
METAR LTFJ 081220Z 01018KT 9999 BKN030 23/17 Q1011 NOSIG=
####018000106####
SATU33 LTAA 081220
METAR LCEN 081220Z 15014KT 9999 SCT025 33/18 Q1007 NOSIG=
METAR LCGK 081220Z NIL=
####018000096####
SANC01 NWWU 081230
METAR NWWU 081230Z AUTO 14003KT 090V180 9999NDV OVC040/// 21/17
Q1015=
####018001957####
SAUS20 KNKA 081232
METAR K1F0 081227Z AUTO 00000KT BKN015 BKN028 OVC080 24/24 A3002 
     RMK AO2 PWINO=
METAR K36U 081235Z AUTO 00000KT 10SM CLR 09/06 A3024 RMK AO2=
METAR K4O4 081228Z AUTO 13006KT 1 1/2SM VV007 24/23 A3007 RMK AO2=
METAR KADH 081230Z AUTO 00000KT 10SM SCT008 OVC029 23/22 A3005 
     RMK AO2=
METAR KADM 081230Z AUTO 00000KT 5SM BR SCT016 BKN026 23/23 A3003 
     RMK AO2=
METAR KALM 081230Z AUTO 09003KT 10SM CLR 15/14 A3016 RMK AO2=
METAR KATS 081230Z AUTO 36010KT 6SM -RA OVC036 18/18 A3018 RMK 
     AO2 P0001=
METAR KAXX 081230Z AUTO 00000KT 10SM SCT120 05/04 A3049 RMK AO2=
SPECI KBRO 081231Z 34007KT 10SM SCT009 BKN020 BKN029 27/25 A2977 RMK 
    AO2 RAB09E19 P0000=
METAR KCHK 081231Z AUTO 01007KT 5SM BR SCT002 22/22 A3006 RMK AO2=
METAR KDUA 081237Z AUTO 15005KT 10SM SCT031 BKN085 25/24 A3005 
     RMK AO2=
METAR KFET 081230Z AUTO 34003KT 10SM CLR 18/17 A3018 RMK AO2=
METAR KGCD 081230Z AUTO 12007KT 10SM CLR 13/03 A3012 RMK AO2 
     T01280025=
METAR KGCM 081235Z AUTO 00000KT 7SM VCTS SCT017 SCT035 23/23 
     A3007 RMK AO2 LTG DSNT NE=
METAR KGMJ 081234Z AUTO 00000KT OVC015 26/25 A3007 RMK AO2 PWINO=
METAR KIDP 081230Z AUTO 11006KT 10SM BKN110 21/20 A3006 RMK AO2 
     LTG DSNT E AND SE=
METAR KIZA 081229Z AUTO 00000KT 10SM OVC007 13/11 A2992 RMK AO2=
METAR KJSV 081230Z AUTO 00000KT 10SM OVC044 24/22 A3005 RMK AO2 
     LTG DSNT N=
METAR KJWG 081230Z AUTO 05003KT 10SM CLR 22/22 A3011 RMK AO2=
METAR KLRU 081231Z AUTO 01008KT 10SM CLR 20/14 A3017 RMK AO2=
SPECI KLVJ 081231Z AUTO 08008KT 8SM -RA SCT041 BKN070 25/23 A2996 
    RMK AO2 LTG DSNT N AND NW TSB00E25RAB1157 P0010=
METAR KOKM 081231Z AUTO 10004KT 7SM OVC007 24/24 A3004 RMK AO1 
     LTG DSNT NE=
METAR KPTS 081230Z AUTO 00000KT 1 3/4SM +RA SCT010 BKN014 OVC021 
     22/22 A3006 RMK AO2 LTG DSNT S P0006 T02200221=
SPECI KTXK 081231Z 00000KT 3SM BR OVC001 23/23 A3006 RMK AO2=
####018000094####
SPUS72 KWBC 081232
SPECI
KHOU 081229Z 09006KT 9SM -RA BKN012 BKN039 OVC100 25/23 A2995=
####018000090####
SPUS74 KWBC 081232
SPECI
KSJC 081229Z VRB04KT 9SM FEW008 BKN011 OVC015 15/12 A2992=
####018000078####
SACN70 CWAO 081200 RRC
XMN SA 1200 AUTO8 M M M M/10/08/2104/M/ M 29MM=

####018000075####
SACN50 CWAO 081230
VOY SA 1230 AUTO8 M M M M/11/06/3401/M/M M 44MM=

####018000083####
SACN90 CWAO 081200 RRC
WEC SA 1200 AUTO8 M M M 129/18/15/2705/M/ 2002 07MM=

####018000135####
SACN96 CWAO 081200 RRE
WYF SA 1200 AUTO8 M M M 104/06/05/2706/M/ 1004 87MM=
WZV SA 1200 AUTO8 M M M M/M/M/3306/M/M 3004 MMMM=

####018000734####
SACN59 CWAO 081200 RRE
PFI SA 1200 AUTO8 M M M M/11/10/1704/M/ M 78MM=
PRO SA 1200 AUTO8 M M M M/08/08/2104/M/0004 M 43MM=
PRY SA 1200 AUTO8 M M M M/09/07/2605/M/ M 52MM=
PSV SA 1200 AUTO8 M M M M/09/08/2405/M/ M 10MM=
XAK SA 1200 AUTO8 M M M M/11/09/2006/M/ M 13MM=
XFM SA 1200 AUTO8 M M M M/10/08/1706/M/ M 23MM=
XHD SA 1200 AUTO8 M M M M/12/09/2308/M/ M 54MM=
XMO SA 1200 AUTO8 M M M M/08/07/1904/M/ M 39MM=
XOL SA 1200 AUTO8 M M M M/10/08/2508/M/ M 20MM=
XPL SA 1200 AUTO8 M M M M/08/07/1201/M/ M 70MM=
XSL SA 1200 AUTO8 M M M M/16/11/3608/M/M M 69MM=
XSP SA 1200 AUTO8 M M M M/11/10/2304/M/M M 44MM=
XVM SA 1200 AUTO8 M M M M/12/10/2102/M/ M 32MM=
ZPS SA 1200 AUTO8 M M M M/13/08/2208/M/ M 34MM=

####018000075####
SACN50 CWAO 081230
VOK SA 1230 AUTO8 M M M M/14/06/0901/M/M M 30MM=

####018000094####
SACN45 CWAO 081200 RRB
METAR CYHK 081200Z AUTO 03010KT 9SM CLR 10/08 A2979 RMK SLP091=

####018000287####
SACN98 CWAO 081200 RRE
XAG SA 1200 AUTO8 M M M M/14/12/3108/M/ M 52MM=
XAJ SA 1200 AUTO8 M M M M/13/12/2006/M/0015 M 86MM=
XBA SA 1200 AUTO8 M M M M/12/10/2305/M/ M 80MM=
XCS SA 1200 AUTO8 M M M M/11/09/2407/M/ M 25MM=
XYH SA 1200 AUTO8 M M M 144/11/10/3201/M/ 6006 51MM=

####018000097####
SACN48 CWAO 081200 RRD
METAR CYPH 081200Z AUTO 24016KT 9SM OVC003 07/07 A2981 RMK SLP097=

####018000074####
SACN50 CWAO 081215
WPN SA 1215 AUTO8 M M M M/11/M/0000/M/M M 3MMM=

####018000135####
SACN78 CWAO 081200 RRD
WNB SA 1200 AUTO8 M M M M/M/M/MM08/M/M M001 MMMM=
WPS SA 1200 AUTO8 M M M 158/25/M/1706/M/M 0003 5MMM=

####018000252####
SACN94 CWAO 081200 RRD
WQO SA 1200 AUTO8 M M M M/11/M/0205/M/M M 8MMM=
WQR SA 1200 AUTO8 M M M M/12/12/1105/M/M M 11MM=
WQS SA 1200 AUTO8 M M M M/12/M/3612/M/ PK WND 3523 1116Z M 3MMM=
WRR SA 1200 AUTO8 M M M 185/06/06/3603/M/M 1004 26MM=

####018000084####
SACN87 CWAO 081200 RRB
WWS SA 1200 AUTO8 M M M 141/16/12/3012/M/M M010 44MM=

####018000083####
SACN97 CWAO 081200 RRD
XTV SA 1200 AUTO8 M M M 173/05/M/2907/M/M 1003 4MMM=

####018000111####
SPCN42 CWAO 081231
SPECI CYUA 081231Z AUTO 22007KT 3SM FEW013 BKN018 05/ A3006 RMK VSBY
VRBL 2.9V8.0=

####018000086####
SAMT20 GQNN 081230
METAR GQNN 081230Z 19012KT 160V220 6000 NSC 31/22 Q1013 NOSIG=
####018000372####
SAMC31 GMMC 081230
METAR GMME 081230Z 35007KT 330V030 6000 SCT010 BKN016 25/19 Q1016
NOSIG=
METAR GMMN 081230Z 03009KT 350V070 9999 SCT016 BKN023 27/19 Q1017
NOSIG=
METAR GMMX 081230Z 28006KT 240V010 8000 FEW026 35/16 Q1016 NOSIG=
METAR GMTT 081230Z 25004KT 180V310 8000 SCT016 BKN230 27/20 Q1016
NOSIG=
METAR GMAD 081230Z NIL=
METAR GMFF 081230Z NIL=
####018000089####
SAQT99 OTBD 081230
METAR OTBD 081230Z 05009KT 020V080 6000 HZ NSC 36/30 Q0999 NOSIG=
####018000970####
SAEW KAWN 081200 RRL
METAR EDHL 081220Z 21008KT 160V270 CAVOK 29/12 Q1019 RMK R=
METAR EDLW 081220Z 26004KT 180V340 CAVOK 31/10 Q1020 RMK ATIS S=
METAR EDNY 081220Z 19005KT CAVOK 28/11 Q1022 RMK ATIS R=
METAR EHAM 081225Z 26007KT 190V360 CAVOK 25/13 Q1019 NOSIG=
METAR EHBK 081225Z AUTO VRB04KT 9999NDV NCD 30/11 Q1019 NOSIG=
METAR EHDL 081225Z AUTO 24007KT 9999NDV BKN140 29/12 Q1018 BLU=
METAR EHGG 081225Z AUTO 26011KT 210V310 9999NDV NSC 27/12 Q1019 NOSIG=
METAR EHGR 081225Z AUTO 22006KT 9999NDV FEW069 BKN400 30/11 Q1018 BLU
      BLU=
METAR EHKD 081225Z AUTO 25010KT 9999NDV OVC075/// 21/15 Q1019 BLU BLU=
METAR EHLW 081225Z AUTO 23008KT 9999NDV BKN068 OVC084 24/17 Q1019 BLU
      BLU=
METAR EHRD 081225Z 28004KT 220V340 CAVOK 25/16 Q1019 NOSIG=
METAR EHVK 081225Z AUTO 28006KT 9999NDV NCD 31/11 Q1018 BLU BLU=
METAR ETSL 081220Z 10005KT 9999 FEW040 25/08 Q1022 BLU/BLU/=
METAR ETUO 081150Z 22006KT CAVOK 30/09 Q1019 BLU NOSIG=
####018000155####
SANA14 KAWN 081200 RRG
METAR KVPS 081155Z COR 33001KT 5SM BR FEW010 24/23 A3004 RMK AO2A VIS
      NE 2 SLP172 T02420233 10251 20231 53007 COR 1226=
####018001259####
SPZZ40 KAWN 081232 RRF
SPECI CWZZ 081230Z AUTO ///// 9SM BKN041 OVC065 14/ A2975=
SPECI CYAM 081230Z 28007KT 6SM -RA BR BKN005 OVC011 RMK SF5SC3=
SPECI CYPH 081216Z AUTO 25014KT 6SM OVC002 07/07 A2981=
SPECI CYUA 081228Z AUTO 23007KT 3SM -DZ FEW011 BKN020 05/ A3006=
SPECI CYUS 081228Z AUTO ///// 9SM CLR 12/ A2979=
SPECI CYXN 081228Z 00000KT 5SM -DZ BR OVC003 RMK ST8=
SPECI KDYS 081224Z 00000KT 10SM BKN004 OVC009 22/21 A3007 RMK AO2A
      SLP163 $=
SPECI KLTS 081227Z AUTO 36005KT 10SM SCT049 22/22 A3008 RMK AO2 RAE1224DZB1204E1207B1224E1227
      SLP170 $=
SPECI KNQI 081224Z 02007KT 1 3/4SM +TSRA BR SCT010 BKN012CB OVC045
      27/24 A2983 RMK AO2 RAB16 OCNL LTGICCG OHD TS OHD MOV W CB
      DSNT S-SW P0001 $=
SPECI KNSE 081215Z 00000KT 5SM BR FEW250 26/23 A3003 RMK AO2 VIS E
      AND W 3 $=
SPECI KTBN 081225Z AUTO 00000KT 10SM BKN010 BKN055 OVC070 23/ A3009
      RMK AO2 BKN010 V SCT SLP170 $=
SPECI OMAL 081214Z 22014KT 8000 TS FEW045CB 32/25 Q1001 A2956=
PATC SP 1235 AWOS CLR BLO 120 10 46/44/0108/013=
SPECI RKJK 081227Z 12007KT 3200 R36/0900V1000 -DZ OVC110 24/21 A2979
      RMK AO2A DZE1156B1227 SLP087 $=
SPECI YPPD 081230Z AUTO 03009KT 6000NDV // BKN013 BKN027 OVC041 21/21
      Q1010=
####018000155####
SANA35 KAWN 081200 RRG
METAR KVPS 081155Z COR 33001KT 5SM BR FEW010 24/23 A3004 RMK AO2A VIS
      NE 2 SLP172 T02420233 10251 20231 53007 COR 1226=
####018000420####
SAXN17 KAWN 081200 RRI
METAR AYPY 081200Z 18015KT 9999 BKN040 26/22 Q1010 HZ=
METAR NFTV 081200Z 00000KT 9999 SCT016 BKN040 23/21 Q1014=
METAR NWWW 081230Z AUTO 20004KT 9999NDV NCD 15/13 Q1016=
METAR RCKH 081230Z 24006KT 200V280 9999 FEW013 BKN300 30/26 Q1009 NOSIG=
METAR RCTP 081230Z 23008KT 190V250 9999 FEW025 BKN150 28/25 Q1007 NOSIG=
METAR VHHH 081230Z 19006KT 140V250 9999 FEW015 31/25 Q1007 NOSIG=
####018000438####
SAXX70 KAWN 081200 RRQ
METAR KQEN 081230Z AUTO 24004KT 7SM SCT110 19/16 A3042 RMK A02=
METAR KQEP 081230Z AUTO 30002KT 4SM -SHRA BKN085 23/19 A2989 RMK A02=
METAR KQER 081230Z AUTO 11001KT 3SM BR FEW100 21/19 A2992 RMK A02=
METAR KQES 081230Z AUTO 28010KT 4SM -RA OVC060 20/18 A2988 RMK A02=
METAR KQEY 081230Z AUTO 28002KT 7SM FEW100 25/18 A2962 RMK A02=
METAR KQEV 081240Z AUTO 20004KT 7SM -RA OVC075 23/18 A2981 RMK A02=
####018000092####
SAAK41 KNKA 081232
SPECI PASN 081230Z 06010KT 4SM BR BKN002 OVC044 05/05 A2993 RMK AO2=
####018000075####
SACN50 CWAO 081230
VOU SA 1230 AUTO8 M M M M/16/10/3301/M/M M 92MM=

####018000087####
SPCN46 CWAO 081231
SPECI CYSB 081231Z 20010KT 3SM BR OVC005 RMK FG3SF5 CIG RAG=

####018000132####
SAPY SGAS 081230
METAR SGAS 081230Z 14008KT 8000  BKN010 OVC015
17/15 Q1016=
METAR SGES 081230Z 16008KT CAVOK 18/17  Q1016=
####018000134####
SAPY59 SGAS 081230
METAR SGAS 081230Z 14008KT 8000  BKN010 OVC015
17/15 Q1016=
METAR SGES 081230Z 16008KT CAVOK 18/17  Q1016=
####018001542####
SAUS99 KWBC 081233
METAR
K1F0 081227Z AUTO 00000KT BKN015 BKN028 OVC080 24/24 A3002 RMK AO2
     PWINO=
K36U 081235Z AUTO 00000KT 10SM CLR 09/06 A3024 RMK AO2=
K4O4 081228Z AUTO 13006KT 1 1/2SM VV007 24/23 A3007 RMK AO2=
KADH 081230Z AUTO 00000KT 10SM SCT008 OVC029 23/22 A3005 RMK
     AO2=
KADM 081230Z AUTO 00000KT 5SM BR SCT016 BKN026 23/23 A3003 RMK
     AO2=
KALM 081230Z AUTO 09003KT 10SM CLR 15/14 A3016 RMK AO2=
KATS 081230Z AUTO 36010KT 6SM -RA OVC036 18/18 A3018 RMK AO2
     P0001=
KAXX 081230Z AUTO 00000KT 10SM SCT120 05/04 A3049 RMK AO2=
KCHK 081231Z AUTO 01007KT 5SM BR SCT002 22/22 A3006 RMK AO2=
KDUA 081237Z AUTO 15005KT 10SM SCT031 BKN085 25/24 A3005 RMK
     AO2=
KFET 081230Z AUTO 34003KT 10SM CLR 18/17 A3018 RMK AO2=
KGCD 081230Z AUTO 12007KT 10SM CLR 13/03 A3012 RMK AO2
     T01280025=
KGCM 081235Z AUTO 00000KT 7SM VCTS SCT017 SCT035 23/23 A3007 RMK
     AO2 LTG DSNT NE=
KGMJ 081234Z AUTO 00000KT OVC015 26/25 A3007 RMK AO2 PWINO=
KIDP 081230Z AUTO 11006KT 10SM BKN110 21/20 A3006 RMK AO2 LTG DSNT
     E AND SE=
KIZA 081229Z AUTO 00000KT 10SM OVC007 13/11 A2992 RMK AO2=
KJSV 081230Z AUTO 00000KT 10SM OVC044 24/22 A3005 RMK AO2 LTG DSNT
     N=
KJWG 081230Z AUTO 05003KT 10SM CLR 22/22 A3011 RMK AO2=
KLRU 081231Z AUTO 01008KT 10SM CLR 20/14 A3017 RMK AO2=
KOKM 081231Z AUTO 10004KT 7SM OVC007 24/24 A3004 RMK AO1 LTG DSNT
     NE=
KPTS 081230Z AUTO 00000KT 1 3/4SM +RA SCT010 BKN014 OVC021 22/22
     A3006 RMK AO2 LTG DSNT S P0006 T02200221=
####018000362####
SPUS99 KWBC 081233
SPECI
KBRO 081231Z 34007KT 10SM SCT009 BKN020 BKN029 27/25 A2977 RMK AO2
     RAB09E19 P0000=
KLVJ 081231Z AUTO 08008KT 8SM -RA SCT041 BKN070 25/23 A2996 RMK
     AO2 LTG DSNT N AND NW TSB00E25RAB1157 P0010=
KTXK 081231Z 00000KT 3SM BR OVC001 23/23 A3006 RMK AO2=
PASN 081230Z 06010KT 4SM BR BKN002 OVC044 05/05 A2993 RMK AO2=
####018000103####
SAGB20 GBYD 081200

METAR GBYD COR 081200Z 0000KT 9999 SCT011 FEW018CB BKN120 26/25 1013
CB S-NW=
####018000099####
SAAJ31 UBBB 081230
UBBN 081230Z 15010KT 9999 NSC 39/07 Q1007 R14R/CLRD60 NOSIG
RMK G/O QFE681=
####018000093####
SAGL31 BGSF 081150 RRB
METAR BGGH 081150Z 19005KT 140V240 9999 SCT004 OVC008 05/03 Q1009=
####018000093####
SAGL41 BGSF 081150 RRD
METAR BGGH 081150Z 19005KT 140V240 9999 SCT004 OVC008 05/03 Q1009=
####018000096####
SASR31 WSSS 081230
METAR WSSS 081230Z 22004KT 180V250 9999 FEW016 SCT190 28/24 Q1009
NOSIG=
####018000091####
SAUK51 EGGY 081150 RRE
METAR EGDY 081150Z 22008KT 9999 FEW035 BKN220 23/15 Q1018 NOSIG=
####018000363####
SAMC31 GMMC 081230
METAR GMME 081230Z 35007KT 330V030 6000 SCT010 BKN016 25/19 Q1016
NOSIG=
METAR GMMN 081230Z 03009KT 350V070 9999 SCT016 BKN023 27/19 Q1017
NOSIG=
METAR GMMX 081230Z 28006KT 240V010 8000 FEW026 35/16 Q1016 NOSIG=
METAR GMTT 081230Z 25004KT 180V310 8000 SCT016 BKN230 27/20 Q1016
NOSIG=
METAR GMAD 081230Z NIL=
METAR GMFF 081230Z NIL=
####018000093####
SAUZ31 UTTW 081230
METAR UTSA 081230Z 02006MPS 9999 FEW220 39/05 Q1008 R88/CLRD70
NOSIG=
####018000096####
SAUZ31 UTTW 081230
METAR UTSB 081230Z 01005MPS CAVOK 40/05 Q1007 R01/CLRD70 TEMPO
01008MPS=
####018000814####
SAUR30 UKMS 081230
METAR UKBB 081230Z 33002MPS 280V040 9999 BKN038 26/17
         Q1014 88CLRD95    NOSIG=
METAR UKHH 081230Z VRB01MPS 9999 SCT040 BKN200 31/14
         Q1014 080///65 NOSIG=
METAR UKOO 081230Z 32005MPS CAVOK 27/14 Q1014
         34090070 NOSIG=
METAR UKDE 081230Z 00000MPS 9999 SCT050 30/16 Q1014
         20CLRD70 NOSIG=
METAR UKDD 081230Z 14003MPS 9999 SCT033CB BKN200
         30/18  Q1014 08090070 TEMPO VRB10G15MPS -TSRA
         SQ BKN020CB=
METAR UKFF 081230Z 04004MPS 360V080 CAVOK 29/17 Q1013
          01010070 NOSIG=
METAR UKLL 081230Z 30003MPS 250V010 9999 SCT033
         BKN100  20/11 Q1021 31210365 NOSIG=
METAR UKCC 081230Z VRB02MPS CAVOK 30/16 Q1014
         08090070 NOSIG=
METAR UKDR 081230Z 09002MPS 9999 BKN033 OVC200 30/17
         Q1013 1809//70 NOSIG=
####018000091####
SACY42 EGRR 081150 CCA
METAR COR LCRA 081150Z 22012KT 9999 FEW040TCU 28/21 Q1008 NOSIG=
####018000126####
SPBY31 UMMN 081230
SPECI UMII 081230Z 21005MPS  6000  -SHRA  BKN017CB  20/18  Q1014
R23/CLRD//  TEMPO  2000  TS  BKN005 =
####018000088####
SPAW33 KWBC 081233
SPECI
OMAL 081214Z 22014KT 8000 TS FEW045CB 32/25 Q1001 A2956=
####018000080####
SPAK32 KWBC 081233
SPECI
PATC SP 1235 AWOS CLR BLO 120 10 46/44/0108/013=
####018000081####
SPUS31 KWBC 081233
SPECI
KMCI 081230Z 01006KT 3/4SM BR OVC002 23/22 A3009=
####018000128####
SPXX62 KWBC 081233
SPECI
RKJK 081227Z 12007KT 3200 R36/0900V1000 -DZ OVC110 24/21 A2979 RMK
AO2A DZE1156B1227 SLP087 $=
####018000164####
SAUS44 KCRP 081233
MTRNGP
SPECI KNGP 081231Z 00000KT 10SM SCT012 SCT022CB BKN045 27/25 A2982 
RMK AO2 RAE31 CB DSNT SE TCU DSNT S-SW WR// VCSH W-NW P0002 $
####018000565####
SAUS43 KWBC 081200 RRI
METAR
KHSB 081225Z AUTO 00000KT 10SM CLR 25/22 A3006=
KIGQ 081220Z AUTO 00000KT 4SM -RA BKN055 BKN075 BKN085 24/22
     A3003=
KIJX 081225Z AUTO 00000KT 7SM CLR 24/23 A3005=
KMQB 081225Z AUTO 31006KT 10SM BKN004 OVC008 23/22 A3007=
KSAR 081225Z AUTO 20005KT 7SM SCT070 SCT095 26/23 A3006=
KSLO 081223Z AUTO 24005KT 10SM SCT044 27/22 A3006=
KTAZ 081225Z AUTO 00000KT 7SM CLR 25/24 A3004=
KTIP 081225Z AUTO 00000KT 7SM SCT085 SCT110 26/24 A3006=
KVYS 081225Z AUTO 26004KT 3SM BR SCT009 BKN015 OVC031 24/22
     A3004=
####018000833####
SAUR30 UKMS 081230
METAR UKBB 081230Z 33002MPS 280V040 9999 BKN038 26/17
         Q1014 88CLRD95    NOSIG=
METAR UKHH 081230Z VRB01MPS 9999 SCT040 BKN200 31/14
         Q1014 080///65 NOSIG=
METAR UKOO 081230Z 32005MPS CAVOK 27/14 Q1014
         34090070 NOSIG=
METAR UKDE 081230Z 00000MPS 9999 SCT050 30/16 Q1014
         20CLRD70 NOSIG=
METAR UKDD 081230Z 14003MPS 9999 SCT033CB BKN200
         30/18  Q1014 08090070 TEMPO VRB10G15MPS -TSRA
         SQ BKN020CB=
METAR UKFF 081230Z 04004MPS 360V080 CAVOK 29/17 Q1013
          01010070 NOSIG=
METAR UKLL 081230Z 30003MPS 250V010 9999 SCT033
         BKN100  20/11 Q1021 31210365 NOSIG=
METAR UKCC 081230Z VRB02MPS CAVOK 30/16 Q1014
         08090070 NOSIG=
METAR UKDR 081230Z 09002MPS 9999 BKN033 OVC200 30/17
         Q1013 1809//70 NOSIG=
####018000094####
SAGL31 BGSF 081150 RRB
METAR BGGH 081150Z 19005KT 140V240 9999 SCT004 OVC008 05/03 Q1009=
####018000092####
SAAB31 LATI 081230
METAR LATI 081230Z 02014G24KT 340V050 9999 FEW050 27/12 Q1016 NOSIG=
####018000099####
SAUS52 KWBC 081200 RRD
METAR
KSEP 081225Z AUTO 00000KT 5SM SCT015 SCT021 BKN036 23/22 A3005=
####018000134####
SAUS53 KWBC 081200 RRI
METAR
KEHA 081228Z AUTO 36007KT 17/16=
KLNC 081225Z AUTO 00000KT 7SM BKN005 BKN049 OVC120 25/24 A3003=
####018000095####
SAUZ31 UTTW 081230
METAR UTSA 081230Z 02006MPS 9999 FEW220 39/05 Q1008 R88/CLRD70
NOSIG=
####018000098####
SAUZ31 UTTW 081230
METAR UTSB 081230Z 01005MPS CAVOK 40/05 Q1007 R01/CLRD70 TEMPO
01008MPS=
####018000104####
SAAO32 GOOY 081200 RRA
METAR GBYD  081200Z 0000KT 9999 SCT011 FEW018CB BKN120 26/25 1013
CB S-NW=
####018000099####
SAUZ31 UTTW 081230
METAR UTSB 081230Z 01005MPS CAVOK 40/05 Q1007 R01/CLRD70 TEMPO 
01008MPS=
####018000081####
SPUS73 KWBC 081233
SPECI
KMCI 081230Z 01006KT 3/4SM BR OVC002 23/22 A3009=
####018000074####
SPUS73 KWBC 081233
SPECI
KYIP 081230Z 21003KT 10SM CLR 28/21 A3004=
####018000075####
SACN88 CWAO 081230
WZU SA 1230 AUTO7 M M M M/20/19/2306/M/M M 38MM=

####018000188####
SPAU31 AMMC 081233
SPECI YSSY 081230Z 24008KT 7000 -SHRA FEW008 SCT030 BKN045 11/11 Q1027
     FM1250 22010KT 9999 -SHRA SCT025 BKN040
     INTER 1250/1530 5000 SHRA BKN010=


####018000107####
SAAO32 GOOY 081200 RRA
METAR GBYD  081200Z 0000KT 9999 SCT011 FEW018CB BKN120 26/25 1013
CB S-NW=

####018000182####
SPAU31 AMMC 081233
SPECI YSSY 081230Z 24008KT 7000 -SHRA FEW008 SCT030 BKN045 11/11 Q1027
     FM1250 22010KT 9999 -SHRA SCT025 BKN040
     INTER 1250/1530 5000 SHRA BKN010=
####018000128####
SPBY31 UMMN 081230
SPECI UMII 081230Z 21005MPS  6000  -SHRA  BKN017CB  20/18  Q1014
R23/CLRD//  TEMPO  2000  TS  BKN005 =
####018002204####
SAUS20 KNKA 081233
METAR KAFK 081230Z AUTO 01005KT 5SM BR SCT018 20/19 A3014 RMK AO2 
     T02010191=
METAR KANW 081230Z AUTO 29003KT 10SM CLR 17/15 A3025 RMK AO2 
     T01650148=
METAR KAUH 081230Z AUTO 35004KT 10SM CLR 17/15 A3021 RMK AO2 
     T01660151=
METAR KAUN 081230Z AUTO 07003KT 10SM CLR 21/14 A2987 RMK AO1=
METAR KAXS 081230Z AUTO 01003KT 7SM RA SCT005 BKN046 OVC060 23/22 
     A3009 RMK AO2 LTG DSNT NW P0002 T02270215=
METAR KBIE 081230Z AUTO 36007KT 10SM CLR 19/18 A3016 RMK AO2 
     T01900176=
METAR KBTA 081230Z AUTO 35005KT 10SM OVC020 19/17 A3016 RMK AO2 
     T01900172=
METAR KBVN 081230Z AUTO 00000KT 10SM OVC100 17/16 A3021 RMK AO2 
     T01710155=
METAR KBVS 081230Z AUTO 04006KT 9SM CLR 18/12 A2998 RMK A01 P000=
METAR KCLK 081233Z AUTO 02004KT 10SM CLR 22/20 A3009 RMK AO2=
METAR KCUH 081230Z AUTO 00000KT 10SM SCT011 24/23 A3005 RMK AO2=
METAR KDVO 081230Z AUTO 00000KT 10SM BKN012 12/11 A2993 RMK AO2=
SPECI KJLN 081232Z VRB03KT 1 3/4SM VCTS BR BKN004 BKN024 OVC075 
    22/22 A3009 RMK AO2 TSB22RAB15E22 FRQ LTGIC OVHD P0005=
METAR KLAM 081230Z AUTO 00000KT 10SM CLR 15/08 A3039 RMK AO2=
METAR KOJA 081230Z AUTO 05004KT 7SM CLR 22/22 A3010 RMK AO2=
METAR KORS 081230Z AUTO 00000KT 10SM CLR 14/12 A2996 RMK AO2=
METAR KOUN 081232Z AUTO 36003KT 10SM OVC030 25/23 A3007 RMK AO2=
SPECI KOXC 081229Z 16005KT 1SM BR OVC003 23/22 A3012=
METAR KPLU 081230Z AUTO 00000KT 10SM CLR 12/12 A2995 RMK AO2=
METAR KPVJ 081228Z AUTO 00000KT 7SM SCT003 24/23 A3005 RMK AO2=
SPECI KRAC 081232Z AUTO 25004KT 2SM -RA BR FEW016 BKN030 OVC037 
    23/22 A3004 RMK AO2 RAB1155 P0001=
METAR KRKR 081232Z AUTO 00000KT 10SM SCT029 SCT033 BKN044 28/26 
     A3005 RMK AO2 LTG DSNT N=
METAR KSNL 081232Z AUTO 05003KT 10SM BKN005 BKN040 24/24 A3006 
     RMK AO2=
METAR KSRE 081230Z AUTO 00000KT 5SM BR CLR 24/24 A3005 RMK AO2=
METAR KSVC 081230Z AUTO 05005KT 10SM SCT110 18/14 A3023 RMK AO2=
METAR KTMK 081233Z AUTO 00000KT 7SM OVC004 12/12 A2997 RMK AO2=
METAR KTQH 081235Z AUTO 00000KT 3SM BR SCT008 OVC015 23/23 A3007 
     RMK AO2=
METAR KWWR 081229Z AUTO 34007KT 10SM OVC007 21/20 A3017 RMK AO2 
     T02130202=
####018000450####
SPNA14 KAWN 081233 RRE
SPECI KNQI 081224Z 02007KT 1 3/4SM +TSRA BR SCT010 BKN012CB OVC045
      27/24 A2983 RMK AO2 RAB16 OCNL LTGICCG OHD TS OHD MOV W CB
      DSNT S-SW P0001 $=
SPECI KNSE 081215Z 00000KT 5SM BR FEW250 26/23 A3003 RMK AO2 VIS E
      AND W 3 $=
SPECI KOZR 081231Z 00000KT 3SM BR FEW001 24/24 A3004 RMK AO2A=
SPECI KTBN 081225Z AUTO 00000KT 10SM BKN010 BKN055 OVC070 23/ A3009
      RMK AO2 BKN010 V SCT SLP170 $=
####018000241####
SPNA35 KAWN 081233 RRC
SPECI KBRO 081231Z 34007KT 10SM SCT009 BKN020 BKN029 27/25 A2977 RMK
      AO2 RAB09E19 P0000=
SPECI KPBI 081226Z 00000KT 6SM -RA BR SCT009 SCT028CB BKN042 26/26
      A2996 RMK AO2 CB OHD-ALQDS MOV W P0016=
####018000101####
SAUS90 KWBC 081234
METAR KEHA 081228Z AUTO 36007KT 17/16 RMK AO1 PK WND 09 003
     T01720162=
####018000329####
SPUS90 KWBC 081234
SPECI KNGP 081231Z 00000KT 10SM SCT012 SCT022CB BKN045 27/25 A2982
     RMK AO2 RAE31 CB DSNT SE TCU DSNT S-SW WR// VCSH W-NW P0002
     $=
SPECI KSBN 081232Z 00000KT 2SM +TSRA BR SCT020 BKN035CB OVC055
     23/22 A3005 RMK AO2 TWR VIS 2 1/2 TSB25RAB1155 OCNL LTGIC OHD
     TS OHD MOV NE P0010=
####018000087####
SPCN42 CWAO 081232
SPECI CYUA 081232Z AUTO 22007KT 5SM FEW011 OVC021 05/ A3006=

####018000183####
SAUS43 KIWX 081233
MTRSBN
SPECI KSBN 081232Z 00000KT 2SM +TSRA BR SCT020 BKN035CB OVC055 23/22 
A3005 RMK AO2 TWR VIS 2 1/2 TSB25RAB1155 OCNL LTGIC OHD TS OHD MOV 
NE P0010
####018000096####
SAUK39 EGRR 081150 RRQ
METAR EGXC 081150Z 24007KT 9999 FEW040 BKN250 22/07 Q1017 BLU NOSIG=
####018000089####
SAUK39 EGRR 081150 RRR
METAR EGXD 081150Z 24015KT 9999 FEW042 21/09 Q1016 BLU NOSIG=
####018000251####
SACZ31 LKPW 081230
METAR LKKV 081230Z VRB03KT CAVOK 24/09 Q1023=
METAR LKMT 081230Z 02005KT 280V090 CAVOK 22/09 Q1023 NOSIG=
METAR LKPR 081230Z 35004KT 290V050 CAVOK 24/11 Q1023 NOSIG=
METAR LKTB 081230Z 33006KT 280V040 CAVOK 25/08 Q1022 NOSIG=
####018000102####
SAAO32 GOOY 081200 RRA
METAR GBYD  081200Z 0000KT 9999 SCT011 FEW018CB BKN120 26/25 1013
CB S-NW=
####018000304####
SPUS99 KWBC 081234
SPECI
KJLN 081232Z VRB03KT 1 3/4SM VCTS BR BKN004 BKN024 OVC075 22/22
     A3009 RMK AO2 TSB22RAB15E22 FRQ LTGIC OVHD P0005=
KOXC 081229Z 16005KT 1SM BR OVC003 23/22 A3012=
KRAC 081232Z AUTO 25004KT 2SM -RA BR FEW016 BKN030 OVC037 23/22
     A3004 RMK AO2 RAB1155 P0001=
####018000133####
SACN94 KWBC 081234
METAR CWQO 081200Z AUTO 02005KT 11/ RMK AO1 T0108=
METAR CWQR 081200Z AUTO 11005KT 12/12 RMK AO1 T01210121=
####018000368####
SAIE31 EIDB 081230
METAR EIDW 081230Z 23012G22KT 190V280 9999 FEW026 BKN050 BKN100 18/10
     Q1015 NOSIG=
METAR EINN 081230Z 20009KT 9999 -RADZ FEW015 SCT020 BKN038 15/13
     Q1015 NOSIG=
METAR EICK 081230Z 19010KT 9999 -RA SCT008 BKN025 BKN060 14/13 Q1016
     NOSIG=
METAR EIKN 081230Z 20012KT 170V240 9999 FEW018CB BKN060 BKN100 14/10
     Q1013 NOSIG=
####018000127####
SACN86 KWBC 081234
METAR CWNB 081200Z AUTO RMK AO1 001 =
METAR CWPS 081200Z AUTO 17006KT 25/ RMK AO1 SLP158 T0245 50003=
####018000087####
SACN97 KWBC 081234
METAR CXTV 081200Z AUTO 29007KT 05/ RMK AO1 SLP173 T0054 51003=
####018000199####
SPAU31 YBBN 081233
SPECI YSSY 081230Z 24008KT 7000 -SHRA FEW008 SCT030 BKN045 11/11
Q1027
RMK VIS REDUCED TO EAST
FM1250 22010KT 9999 -SHRA SCT025 BKN040
INTER 1250/1530 5000 SHRA BKN010=
####018000070####
SACN96 KWBC 081234
METAR CWZV 081200Z AUTO 33006KT RMK AO1 53004=
####018000095####
SAUZ31 UTTW 081230
METAR UTNN 081230Z 25002MPS 220V280 CAVOK 43/06 Q1006 R33/CLRD70
NOSIG=
####018000164####
SACN87 KWBC 081234
METAR CWWS 081200Z AUTO 30012KT 16/12 RMK AO1 010 SLP141 T01640124=
METAR CWQS 081200Z AUTO 36012KT 12/ RMK AO1 PK WND 35023/1116
T0123=
####018001758####
SAUS99 KWBC 081234
METAR
KAFK 081230Z AUTO 01005KT 5SM BR SCT018 20/19 A3014 RMK AO2
     T02010191=
KANW 081230Z AUTO 29003KT 10SM CLR 17/15 A3025 RMK AO2
     T01650148=
KAUH 081230Z AUTO 35004KT 10SM CLR 17/15 A3021 RMK AO2
     T01660151=
KAUN 081230Z AUTO 07003KT 10SM CLR 21/14 A2987 RMK AO1=
KAXS 081230Z AUTO 01003KT 7SM RA SCT005 BKN046 OVC060 23/22 A3009
     RMK AO2 LTG DSNT NW P0002 T02270215=
KBIE 081230Z AUTO 36007KT 10SM CLR 19/18 A3016 RMK AO2
     T01900176=
KBTA 081230Z AUTO 35005KT 10SM OVC020 19/17 A3016 RMK AO2
     T01900172=
KBVN 081230Z AUTO 00000KT 10SM OVC100 17/16 A3021 RMK AO2
     T01710155=
KBVS 081230Z AUTO 04006KT 9SM CLR 18/12 A2998 RMK A01 P000=
KCLK 081233Z AUTO 02004KT 10SM CLR 22/20 A3009 RMK AO2=
KCUH 081230Z AUTO 00000KT 10SM SCT011 24/23 A3005 RMK AO2=
KDVO 081230Z AUTO 00000KT 10SM BKN012 12/11 A2993 RMK AO2=
KLAM 081230Z AUTO 00000KT 10SM CLR 15/08 A3039 RMK AO2=
KOJA 081230Z AUTO 05004KT 7SM CLR 22/22 A3010 RMK AO2=
KORS 081230Z AUTO 00000KT 10SM CLR 14/12 A2996 RMK AO2=
KOUN 081232Z AUTO 36003KT 10SM OVC030 25/23 A3007 RMK AO2=
KPLU 081230Z AUTO 00000KT 10SM CLR 12/12 A2995 RMK AO2=
KPVJ 081228Z AUTO 00000KT 7SM SCT003 24/23 A3005 RMK AO2=
KRKR 081232Z AUTO 00000KT 10SM SCT029 SCT033 BKN044 28/26 A3005
     RMK AO2 LTG DSNT N=
KSNL 081232Z AUTO 05003KT 10SM BKN005 BKN040 24/24 A3006 RMK
     AO2=
KSRE 081230Z AUTO 00000KT 5SM BR CLR 24/24 A3005 RMK AO2=
KSVC 081230Z AUTO 05005KT 10SM SCT110 18/14 A3023 RMK AO2=
KTMK 081233Z AUTO 00000KT 7SM OVC004 12/12 A2997 RMK AO2=
KTQH 081235Z AUTO 00000KT 3SM BR SCT008 OVC015 23/23 A3007 RMK
     AO2=
KWWR 081229Z AUTO 34007KT 10SM OVC007 21/20 A3017 RMK AO2
     T02130202=
####018000130####
SPBY31 UMMN 081230
SPECI COR UMII 081230Z 21005MPS  6000  -SHRA  BKN017CB  20/18  Q101
4
R23/CLRD//  TEMPO  2000    BKN005 =
####018000373####
SPUS80 KWBC 081234
SPECI
PASN 081230Z 06010KT 4SM BR BKN002 OVC044 05/05 A2993 RMK AO2=
KJLN 081232Z VRB03KT 1 3/4SM VCTS BR BKN004 BKN024 OVC075 22/22
     A3009 RMK AO2 TSB22RAB15E22 FRQ LTGIC OVHD P0005=
KSBN 081232Z 00000KT 2SM +TSRA BR SCT020 BKN035CB OVC055 23/22
     A3005 RMK AO2 TWR VIS 2 1/2 TSB25RAB1155 OCNL LTGIC OHD TS
     OHD MOV NE P0010=
####018000657####
SPXX60 KWBC 081234
SPECI
KDYS 081224Z 00000KT 10SM BKN004 OVC009 22/21 A3007 RMK AO2A
     SLP163 $=
KLTS 081227Z AUTO 36005KT 10SM SCT049 22/22 A3008 RMK AO2
     RAE1224DZB1204E1207B1224E1227 SLP170 $=
KNQI 081224Z 02007KT 1 3/4SM +TSRA BR SCT010 BKN012CB OVC045 27/24
     A2983 RMK AO2 RAB16 OCNL LTGICCG OHD TS OHD MOV W CB DSNT
     S-SW P0001 $=
KTBN 081225Z AUTO 00000KT 10SM BKN010 BKN055 OVC070 23/ A3009 RMK
     AO2 BKN010 V SCT SLP170 $=
PATC SP 1235 AWOS CLR BLO 120 10 46/44/0108/013=
KNGP 081231Z 00000KT 10SM SCT012 SCT022CB BKN045 27/25 A2982 RMK
     AO2 RAE31 CB DSNT SE TCU DSNT S-SW WR// VCSH W-NW P0002 $=
####018000279####
SAXX60 KWBC 081200 RRP
METAR
KVPS 081155Z COR 33001KT 5SM BR FEW010 24/23 A3004 RMK AO2A VIS NE
     2 SLP172 T02420233 10251 20231 53007 COR 1226=
KVPS 081155Z COR 33001KT 5SM BR FEW010 24/23 A3004 RMK AO2A VIS NE
     2 SLP172 T02420233 10251 20231 53007 COR 1226=
####018000206####
SAUS80 KWBC 081234
METAR
KIZA 081229Z AUTO 00000KT 10SM OVC007 13/11 A2992 RMK AO2=
KPTS 081230Z AUTO 00000KT 1 3/4SM +RA SCT010 BKN014 OVC021 22/22
     A3006 RMK AO2 LTG DSNT S P0006 T02200221=
####018000530####
SPUS70 KWBC 081234
SPECI
KBRO 081231Z 34007KT 10SM SCT009 BKN020 BKN029 27/25 A2977 RMK AO2
     RAB09E19 P0000=
KLVJ 081231Z AUTO 08008KT 8SM -RA SCT041 BKN070 25/23 A2996 RMK
     AO2 LTG DSNT N AND NW TSB00E25RAB1157 P0010=
KTXK 081231Z 00000KT 3SM BR OVC001 23/23 A3006 RMK AO2=
KNSE 081215Z 00000KT 5SM BR FEW250 26/23 A3003 RMK AO2 VIS E AND W
     3 $=
KOXC 081229Z 16005KT 1SM BR OVC003 23/22 A3012=
KRAC 081232Z AUTO 25004KT 2SM -RA BR FEW016 BKN030 OVC037 23/22
     A3004 RMK AO2 RAB1155 P0001=
####018003094####
SAUS70 KWBC 081234
METAR
K1F0 081227Z AUTO 00000KT BKN015 BKN028 OVC080 24/24 A3002 RMK AO2
     PWINO=
K36U 081235Z AUTO 00000KT 10SM CLR 09/06 A3024 RMK AO2=
K4O4 081228Z AUTO 13006KT 1 1/2SM VV007 24/23 A3007 RMK AO2=
KADH 081230Z AUTO 00000KT 10SM SCT008 OVC029 23/22 A3005 RMK
     AO2=
KADM 081230Z AUTO 00000KT 5SM BR SCT016 BKN026 23/23 A3003 RMK
     AO2=
KALM 081230Z AUTO 09003KT 10SM CLR 15/14 A3016 RMK AO2=
KATS 081230Z AUTO 36010KT 6SM -RA OVC036 18/18 A3018 RMK AO2
     P0001=
KAXX 081230Z AUTO 00000KT 10SM SCT120 05/04 A3049 RMK AO2=
KCHK 081231Z AUTO 01007KT 5SM BR SCT002 22/22 A3006 RMK AO2=
KDUA 081237Z AUTO 15005KT 10SM SCT031 BKN085 25/24 A3005 RMK
     AO2=
KFET 081230Z AUTO 34003KT 10SM CLR 18/17 A3018 RMK AO2=
KGCD 081230Z AUTO 12007KT 10SM CLR 13/03 A3012 RMK AO2
     T01280025=
KGCM 081235Z AUTO 00000KT 7SM VCTS SCT017 SCT035 23/23 A3007 RMK
     AO2 LTG DSNT NE=
KGMJ 081234Z AUTO 00000KT OVC015 26/25 A3007 RMK AO2 PWINO=
KIDP 081230Z AUTO 11006KT 10SM BKN110 21/20 A3006 RMK AO2 LTG DSNT
     E AND SE=
KJSV 081230Z AUTO 00000KT 10SM OVC044 24/22 A3005 RMK AO2 LTG DSNT
     N=
KJWG 081230Z AUTO 05003KT 10SM CLR 22/22 A3011 RMK AO2=
KLRU 081231Z AUTO 01008KT 10SM CLR 20/14 A3017 RMK AO2=
KOKM 081231Z AUTO 10004KT 7SM OVC007 24/24 A3004 RMK AO1 LTG DSNT
     NE=
KAFK 081230Z AUTO 01005KT 5SM BR SCT018 20/19 A3014 RMK AO2
     T02010191=
KANW 081230Z AUTO 29003KT 10SM CLR 17/15 A3025 RMK AO2
     T01650148=
KAUH 081230Z AUTO 35004KT 10SM CLR 17/15 A3021 RMK AO2
     T01660151=
KAUN 081230Z AUTO 07003KT 10SM CLR 21/14 A2987 RMK AO1=
KAXS 081230Z AUTO 01003KT 7SM RA SCT005 BKN046 OVC060 23/22 A3009
     RMK AO2 LTG DSNT NW P0002 T02270215=
KBIE 081230Z AUTO 36007KT 10SM CLR 19/18 A3016 RMK AO2
     T01900176=
KBTA 081230Z AUTO 35005KT 10SM OVC020 19/17 A3016 RMK AO2
     T01900172=
KBVN 081230Z AUTO 00000KT 10SM OVC100 17/16 A3021 RMK AO2
     T01710155=
KBVS 081230Z AUTO 04006KT 9SM CLR 18/12 A2998 RMK A01 P000=
KCLK 081233Z AUTO 02004KT 10SM CLR 22/20 A3009 RMK AO2=
KCUH 081230Z AUTO 00000KT 10SM SCT011 24/23 A3005 RMK AO2=
KDVO 081230Z AUTO 00000KT 10SM BKN012 12/11 A2993 RMK AO2=
KLAM 081230Z AUTO 00000KT 10SM CLR 15/08 A3039 RMK AO2=
KOJA 081230Z AUTO 05004KT 7SM CLR 22/22 A3010 RMK AO2=
KORS 081230Z AUTO 00000KT 10SM CLR 14/12 A2996 RMK AO2=
KOUN 081232Z AUTO 36003KT 10SM OVC030 25/23 A3007 RMK AO2=
KPLU 081230Z AUTO 00000KT 10SM CLR 12/12 A2995 RMK AO2=
KPVJ 081228Z AUTO 00000KT 7SM SCT003 24/23 A3005 RMK AO2=
KRKR 081232Z AUTO 00000KT 10SM SCT029 SCT033 BKN044 28/26 A3005
     RMK AO2 LTG DSNT N=
KSNL 081232Z AUTO 05003KT 10SM BKN005 BKN040 24/24 A3006 RMK
     AO2=
KSRE 081230Z AUTO 00000KT 5SM BR CLR 24/24 A3005 RMK AO2=
KSVC 081230Z AUTO 05005KT 10SM SCT110 18/14 A3023 RMK AO2=
KTMK 081233Z AUTO 00000KT 7SM OVC004 12/12 A2997 RMK AO2=
KTQH 081235Z AUTO 00000KT 3SM BR SCT008 OVC015 23/23 A3007 RMK
     AO2=
KWWR 081229Z AUTO 34007KT 10SM OVC007 21/20 A3017 RMK AO2
     T02130202=
####018000921####
SAAF35 KWBC 081200 RRB
METAR
HEAX 081200Z 31013KT 9999 FEW020 29/22 Q1010=
HEAX 081200Z 31013KT 9999 FEW020 29/22 Q1010 NOSIG=
HEBA 081200Z 32018KT 9999 FEW020 30/21 Q1011 NOSIG=
HEBA 081200Z 32018KT 9999 FEW020 30/21 Q1011=
HEBL 081200Z 01014KT CAVOK 40/08 Q1009=
HEBL 081200Z 01014KT CAVOK 40/08 Q1009 NOSIG=
HECA 081200Z 34010KT CAVOK 34/17 Q1010=
HEGN 081200Z 35023KT CAVOK 38/10 Q1005 NOSIG=
HEGN 081200Z 35023KT CAVOK 38/10 Q1005=
HELX 081200Z 31010KT CAVOK 40/10 Q1007=
HELX 081200Z 31010KT CAVOK 40/10 Q1007 NOSIG=
HEMM 081200Z 32014KT CAVOK 29/22 Q1012=
HEMM 081200Z 32014KT CAVOK 29/22 Q1012 NOSIG=
HEPS 081200Z 34010KT 9999 FEW025 29/23 Q1010=
HEPS 081200Z 34010KT 9999 FEW025 29/23 Q1010 NOSIG=
HESC 081200Z 03010KT CAVOK 33/10 Q1018 NOSIG=
HESC 081200Z 03010KT CAVOK 33/10 Q1018=
HESN 081200Z 33012KT CAVOK 39/06 Q1008 NOSIG=
HESN 081200Z 33012KT CAVOK 39/06 Q1008=
####018000053####
SAAF36 KWBC 081200 RRC
METAR
HEMA 081200Z NIL=
####018000092####
SAAO32 KWBC 081200 RRC
METAR
GQNN 081230Z 19012KT 160V220 6000 NSC 31/22 Q1013 NOSIG=
####018000191####
SAAO33 KWBC 081200 RRE
METAR
GBYD 081200Z 0000KT 9999 SCT011 FEW018CB BKN120 26/25 1013 CB
     S-NW=
GBYD COR 081200Z 0000KT 9999 SCT011 FEW018CB BKN120 26/25 1013 CB
     S-NW=
####018000174####
SPAU31 KWBC 081234
SPECI
YSSY 081230Z 24008KT 7000 -SHRA FEW008 SCT030 BKN045 11/11 Q1027
FM1250 22010KT 9999 -SHRA SCT025 BKN040 INTER 1250/1530 5000 SHRA
BKN010=
####018000235####
SAAO33 KWBC 081100 CCA
METAR
GOGG 081100Z 18008KT 9999 BKN016 TCU 32/16 QA1014=
GOGS 081100Z 20010KT 9999 SCT016 SCT130 30/27 Q1013=
GOSS 081100Z 22010KT CAVOK 32/25 Q1013=
GOTT 081100Z 24006KT 9999 BKN013 TCU 31/26 Q1014=
####018000275####
SAAW33 KWBC 081100 RRE
METAR
OBBI 08:100Z 02009KT 5000 HZ NSC 36/27 Q0999 BECMG 3000=
OMAL 081100Z 27004KT 210V350 7000 TS FEW045CB 4-/25 Q1001
     A2956=
OMFJ 081100Z 11009KT 040V140 7000FEW020 35/27 Q1001 A2956=
OMRK 081100E 34010KT CAVOK 42/32 Q0998 A2948=
####018000092####
SAAW42 KWBC 081100 RRC
METAR
OBBI 08:100Z 02009KT 5000 HZ NSC 36/27 Q0999 BECMG 3000=
####018000120####
SPEE31 KWBC 081234
SPECI
UMII 081230Z 21005MPS 6000 -SHRA BKN017CB 20/18 Q1014 R23/CLRD//
TEMPO 2000 TS BKN005=
####018000090####
SAMM31 KWBC 081130 RRC
METAR
LCRA 081150Z 22012KT 9999 FEW040TCU 28/21 Q1008 NOSIG=
####018000096####
SANT31 KWBC 081200 RRB
METAR
BGGH 081150Z 19005KT 140V240 9999 SCT004 OVC008 05/03 Q1009=
####018000120####
SPRA31 KWBC 081234
SPECI
UMII 081230Z 21005MPS 6000 -SHRA BKN017CB 20/18 Q1014 R23/CLRD//
TEMPO 2000 TS BKN005=
####018000141####
SAPA32 KWBC 081200 RRA
METAR
NFTV 081200Z 00000KT 9999 SCT016 BKN040 23/21 Q1014=
NWWW 081230Z AUTO 20004KT 9999NDV NCD 15/13 Q1016=
####018000175####
SARA31 KWBC 081200 RRG
METAR
UTSA 081230Z 02006MPS 9999 FEW220 39/05 Q1008 R88/CLRD70 NOSIG=
UTSB 081230Z 01005MPS CAVOK 40/05 Q1007 R01/CLRD70 TEMPO
     01008MPS=
####018000130####
SASA32 KWBC 081200 RRB
METAR
SGAS 081230Z 14008KT 8000 BKN010 OVC015 17/15 Q1016=
SGES 081230Z 16008KT CAVOK 18/17 Q1016=
####018000094####
SAUK41 KWBC 081150 RRG
METAR
EGDY 081150Z 22008KT 9999 FEW035 BKN220 23/15 Q1018 NOSIG=
####018000710####
SAUR31 KWBC 081150 RRA
METAR
UKBB 081230Z 33002MPS 280V040 9999 BKN038 26/17 Q1014 88CLRD95
     NOSIG=
UKCC 081230Z VRB02MPS CAVOK 30/16 Q1014 08090070 NOSIG=
UKDD 081230Z 14003MPS 9999 SCT033CB BKN200 30/18 Q1014 08090070
     TEMPO VRB10G15MPS -TSRA SQ BKN020CB=
UKDE 081230Z 00000MPS 9999 SCT050 30/16 Q1014 20CLRD70 NOSIG=
UKDR 081230Z 09002MPS 9999 BKN033 OVC200 30/17 Q1013 1809//70
     NOSIG=
UKFF 081230Z 04004MPS 360V080 CAVOK 29/17 Q1013 01010070 NOSIG=
UKHH 081230Z VRB01MPS 9999 SCT040 BKN200 31/14 Q1014 080///65
     NOSIG=
UKLL 081230Z 30003MPS 250V010 9999 SCT033 BKN100 20/11 Q1021
     31210365 NOSIG=
UKOO 081230Z 32005MPS CAVOK 27/14 Q1014 34090070 NOSIG=
####018000097####
SAXX61 KWBC 081100 RRI
METAR
ETAR OTBD 081100Z 02007KT 360V060 6000 NSC 37/29 Q0999 NOSIG=
####018000771####
SAXX99 KWBC 081200 RRW
METAR
CYHK 081200Z AUTO 03010KT 9SM CLR 10/08 A2979 RMK SLP091=
CYPH 081200Z AUTO 24016KT 9SM OVC003 07/07 A2981 RMK SLP097=
EGXC 081150Z 24007KT 9999 FEW040 BKN250 22/07 Q1017 BLU NOSIG=
EGXD 081150Z 24015KT 9999 FEW042 21/09 Q1016 BLU NOSIG=
ETGY 081220Z 19004KT 9999 FEW080 BKN250 31/09 Q1019 BLU+=
GMAD 081230Z NIL=
HEAR 081200Z 33008KT CAVOK 31/21 Q1008=
HEAT 081200Z 34015KT CAVOK 36/12 Q1010=
HEIS 081200Z 33012KT CAVOK 33/18 Q1009=
HESH 081200Z 02012KT CAVOK 38/11 Q1005 NOSIG=
HESH 081200Z 02012KT CAVOK 38/11 Q1005=
HETB 081200Z 34006KT CAVOK 34/10 Q1012 NOSIG=
K4O4 081228Z AUTO 13006KT 1 1/2SM VV007 24/23 A3007 RMK AO2=
UBBN 081230Z 15010KT 9999 NSC 39/07 Q1007 R14R/CLRD60 NOSIG RMK
     G/O QFE681=
####018000091####
SPUS42 KWBC 081234
SPECI
KBRO 081231Z 34007KT 10SM SCT009 BKN020 BKN029 27/25 A2977=
####018000325####
SAEW33 LEMM 081230
METAR GCLP 081230Z 03028KT 9999 FEW020 24/17 Q1017 NOSIG=
METAR GCXO 081230Z 29010KT 9999 FEW005 23/17 Q1020 NOSIG=
METAR GCTS 081230Z 10013KT 060V120 9999 FEW020 26/17 Q1017 NOSIG=
METAR GCRR 081230Z 36017KT 320V020 9999 FEW020 27/18 Q1017=
METAR GCFV 081230Z 05015KT 9999 FEW020 23/19 Q1017=
####018000605####
SAEW31 LEMM 081230
METAR LEMD 081230Z 13009KT 070V180 9999 FEW070TCU 32/12 Q1018 
NOSIG=
METAR LEBL 081230Z 20015KT CAVOK 28/21 Q1019 NOSIG=
METAR LEPA 081230Z 22013KT 180V250 CAVOK 30/15 Q1020 NOSIG=
METAR LEZL 081230Z 22008KT 190V260 9999 SCT025 32/16 Q1015 NOSIG=
METAR LEMG 081230Z 12007KT 090V160 9999 FEW040 29/14 Q1017 NOSIG=
METAR LEVC 081230Z 08010KT 050V120 CAVOK 32/17 Q1018 NOSIG=
METAR LEAL 081230Z 08011KT CAVOK 31/16 Q1019 NOSIG=
METAR LEIB 081230Z 09007KT 050V130 CAVOK 29/21 Q1020 NOSIG=
METAR LELC 081230Z NIL=
METAR LEVX 081230Z 26011KT 8000 FEW030 25/19 Q1015=
####018000719####
SAEW32 LEMM 081230
METAR LEAS 081230Z 06004KT 010V100 9999 FEW015 23/19 Q1017 TEMPO 
TSRA SCT025CB=
METAR LEBB 081230Z 29012KT 260V320 8000 FEW020 26/21 Q1016 NOSIG=
METAR LECO 081230Z 02008KT CAVOK 22/19 Q1015=
METAR LEGE 081230Z 19008KT 100V240 CAVOK 33/17 Q1019=
METAR LEST 081230Z 06007KT CAVOK 27/19 Q1015 NOSIG=
METAR LEZG 081230Z 09010KT 070V130 9999 FEW040 37/13 Q1017=
METAR LESO 081230Z 03005KT 360V070 CAVOK 28/21 Q1015=
METAR LEVT 081230Z NIL=
METAR LERS 081230Z 21007KT 150V250 CAVOK 29/17 Q1020=
METAR LEMH 081230Z VRB05G17KT CAVOK 30/18 Q1020=
METAR LEAM 081230Z 08016KT CAVOK 39/03 Q1015=
METAR LEGR 081230Z NIL=
METAR LERL 081230Z 13004KT 040V200 9999 FEW050 38/05 Q1018=
####018000103####
SPUS53 KWBC 081234
SPECI
KSBN 081232Z 00000KT 2SM +TSRA BR SCT020 BKN035CB OVC055 23/22
A3005=
####018000091####
SPUS72 KWBC 081234
SPECI
KBRO 081231Z 34007KT 10SM SCT009 BKN020 BKN029 27/25 A2977=
####018000093####
SPUS72 KWBC 081234
SPECI
KNGP 081231Z 00000KT 10SM SCT012 SCT022CB BKN045 27/25 A2982=
####018000079####
SPUS72 KWBC 081234
SPECI
KTXK 081231Z 00000KT 3SM BR OVC001 23/23 A3006=
####018000307####
SAEW34 LEMM 081230
METAR LEDA 081230Z 18006KT 140V210 CAVOK 36/14 Q1019=
METAR LEJR 081230Z 22005KT 130V300 CAVOK 32/14 Q1016=
METAR LELL 081230Z 11009KT 070V150 CAVOK 31/15 Q1019=
METAR LEPP 081230Z 13009KT 080V170 CAVOK 37/15 Q1018=
METAR LEXJ 081230Z 28012KT 250V310 9999 SCT018 25/20 Q1017=
####018000145####
SAEW36 LEMM 081230
METAR GCLA 081230Z 02011KT 340V050 9999 SCT020 25/17 Q1020=
METAR GEML 081230Z 10009KT 050V120 9999 FEW012 27/21 Q1017=
####018000097####
SAUZ31 UTTW 081230
METAR UTNN 081230Z 25002MPS 220V280 CAVOK 43/06 Q1006 R33/CLRD70
NOSIG=
####018000205####
SAPK31 OPKC 081230
METAR OPGD 081230Z NIL=
METAR OPKC 081230Z NIL=
METAR OPLA 081225Z 14004KT 6000 SCT040 37/23 Q1002=
METAR OPNH 081230Z NIL=
METAR OPPS 081230Z NIL=
METAR OPSK 081230Z NIL=
####018000255####
SACZ31 LKPW 081230
METAR LKKV 081230Z VRB03KT CAVOK 24/09 Q1023=
METAR LKMT 081230Z 02005KT 280V090 CAVOK 22/09 Q1023 NOSIG=
METAR LKPR 081230Z 35004KT 290V050 CAVOK 24/11 Q1023 NOSIG=
METAR LKTB 081230Z 33006KT 280V040 CAVOK 25/08 Q1022 NOSIG=
####018000089####
SAIL31 BICC 081230
METAR BIKF 081230Z 03020KT 9999 FEW018 SCT035 BKN110 12/06 Q0995=
####018000836####
SAUR30 UKMS 081230
METAR UKBB 081230Z 33002MPS 280V040 9999 BKN038 26/17
         Q1014 88CLRD95    NOSIG=
METAR UKHH 081230Z VRB01MPS 9999 SCT040 BKN200 31/14 
         Q1014 080///65 NOSIG=
METAR UKOO 081230Z 32005MPS CAVOK 27/14 Q1014
         34090070 NOSIG=
METAR UKDE 081230Z 00000MPS 9999 SCT050 30/16 Q1014 
         20CLRD70 NOSIG=
METAR UKDD 081230Z 14003MPS 9999 SCT033CB BKN200
         30/18  Q1014 08090070 TEMPO VRB10G15MPS -TSRA
         SQ BKN020CB=
METAR UKFF 081230Z 04004MPS 360V080 CAVOK 29/17 Q1013
          01010070 NOSIG=
METAR UKLL 081230Z 30003MPS 250V010 9999 SCT033
         BKN100  20/11 Q1021 31210365 NOSIG=
METAR UKCC 081230Z VRB02MPS CAVOK 30/16 Q1014
         08090070 NOSIG=
METAR UKDR 081230Z 09002MPS 9999 BKN033 OVC200 30/17 
         Q1013 1809//70 NOSIG=
####018000187####
SAEW35 LEMM 081230
METAR LESA 081230Z 29005KT 240V320 9999 FEW048 34/16 Q1018=
METAR LEVD 081230Z 23007KT 190V300 CAVOK 34/08 Q1019=
METAR LEVS 081230Z VRB05KT CAVOK 32/12 Q1018=
####018000131####
SPBY31 UMMN 081230
SPECI  UMII  081230Z  21005MPS  6000  -SHRA  BKN017CB  20/18  Q1014
R23/CLRD//  TEMPO  2000  TS  BKN005 =
####018000098####
SAUZ31 UTTW 081230
METAR UTNN 081230Z 25002MPS 220V280 CAVOK 43/06 Q1006 R33/CLRD70 
NOSIG=
####018000096####
SAUZ31 UTTW 081230
METAR UTSA 081230Z 02006MPS 9999 FEW220 39/05 Q1008 R88/CLRD70 
NOSIG=
####018000135####
SPBY31 UMMN 081230
SPECI COR UMII  081230Z  21005MPS  6000  -SHRA  BKN017CB  20/18  Q101
4
R23/CLRD//  TEMPO  2000    BKN005 =
####018000376####
SAIE31 EIDB 081230
METAR EIDW 081230Z 23012G22KT 190V280 9999 FEW026 BKN050 BKN100 18/10
     Q1015 NOSIG=
METAR EINN 081230Z 20009KT 9999 -RADZ FEW015 SCT020 BKN038 15/13
     Q1015 NOSIG=
METAR EICK 081230Z 19010KT 9999 -RA SCT008 BKN025 BKN060 14/13 Q1016
     NOSIG=
METAR EIKN 081230Z 20012KT 170V240 9999 FEW018CB BKN060 BKN100 14/10
     Q1013 NOSIG=
####018000550####
SAYG31 LYBM 081230
METAR LYBE 081230Z 36012KT CAVOK 23/12 Q1021 NOSIG=
METAR LYBT 081230Z 32012KT 290V350 CAVOK 24/13 Q1021 NOSIG=
METAR LYKV 081230Z 35009KT 9999 SCT035 20/15 Q1021 NOSIG=
METAR LYNI 081230Z 32012KT 9999 FEW020 SCT026 18/13 Q1021 NOSIG=
METAR LYPG 081230Z 02017G27KT 9999 FEW040 28/08 Q1018 NOSIG=
METAR LYPR 081230Z NIL=
METAR LYTV 081230Z 02008KT 9999 FEW053 29/10 Q1017 NOSIG=
METAR LYUZ 081230Z 29007KT 260V330 9999 BKN020 14/10 Q1024 NOSIG=
METAR LYVR 081230Z 36006KT 320V120 9999 SCT033 SCT040 22/14 Q1020=
####018000103####
SPUS73 KWBC 081234
SPECI
KSBN 081232Z 00000KT 2SM +TSRA BR SCT020 BKN035CB OVC055 23/22
A3005=
####018001195####
SAUK KAWN 081200 RRH
METAR EGAE 081220Z 24011KT 9999 FEW020 SCT040 18/10 Q1012=
METAR EGBJ 081220Z 22005KT 190V280 9999 FEW035 22/09 Q1018=
METAR EGDR 081150Z 22007KT 9999 FEW022 BKN220 19/14 Q1019 BLU NOSIG=
METAR EGDY 081150Z 22008KT 9999 FEW035 BKN220 23/15 Q1018 BLU NOSIG=
METAR EGLF 081220Z 25008KT 230V300 9999 SCT025 BKN038 22/15 Q1019=
METAR EGNC 081220Z 25012KT 210V280 9999 FEW020 SCT035 17/10 Q1015=
METAR EGNH 081220Z 23010KT 9999 FEW030 19/11 Q1017=
METAR EGNJ 081220Z 23013KT 200V260 9999 SCT040 22/10 Q1017=
METAR EGPA 081220Z 22014KT 9999 VCSH FEW020CB SCT045 18/12 Q1007=
METAR EGPC 081220Z 20015KT 9999 FEW020 17/11 Q1008=
METAR EGPE 081220Z 22021KT 9999 VCSH FEW022 SCT035 18/10 Q1009=
METAR EGPL 081220Z 22022KT 9999 VCSH FEW018 16/12 Q1008=
METAR COR EGPM 081220Z 23023KT 9999 SCT028 16/10 Q1006 NOSIG=
METAR EGPN 081220Z 24016KT 9999 FEW032 SCT045 17/12 Q1012=
METAR EGPO 081220Z 23023KT 9999 FEW024 SCT032 18/11 Q1006=
METAR EGSC 081220Z 23008KT 180V270 9999 SCT038 23/14 Q1018=
METAR COR EGSH 081220Z 21007KT 170V300 9999 SCT023 23/15 Q1018 NOSIG=
METAR EGXE 081150Z 24014KT 9999 FEW040 SCT060 BKN250 19/10 Q1016 BLU
      NOSIG=
####018000568####
SARS18 KAWN 081200 RRH
METAR LUKK 081230Z 34008KT 300V360 9999 SCT033 25/16 Q1015 26CLRD65
      NOSIG=
METAR UBBB 081230Z 35020KT CAVOK 32/26 Q1010 NOSIG RMK R88CLRD70=
METAR UKBB 081230Z 33002MPS 280V040 9999 BKN038 26/17 Q1014 88CLRD95
      NOSIG=
METAR UKFF 081230Z 04004MPS 360V080 CAVOK 29/17 Q1013 01010070 NOSIG=
METAR UKLL 081230Z 30003MPS 250V010 9999 SCT033 BKN100 20/11 Q1021
      31210365 NOSIG=
METAR UKOO 081230Z 32005MPS CAVOK 27/14 Q1014 34090070 NOSIG=
METAR UTTT 081230Z 26002MPS 180V330 CAVOK 38/07 Q1009 R08R/CLRD70 NOSIG=
####018000400####
SAXX70 KAWN 081200 RRR
METAR KQEJ 081220Z AUTO 13002KT 2SM SHRA BR OVC029 22/20 A2995 RMK
      A02=
METAR KQEL 081230Z AUTO 35003KT 5SM -RA CLR 22/19 A2975 RMK A02=
METAR KQEQ 081230Z AUTO 00001KT 5SM BR BKN090 22/20 A2984 RMK A02=
METAR KQEW 081230Z AUTO 20001KT 7SM FEW100 24/21 A2984 RMK A02=
METAR KQFB 081230Z AUTO 09002KT 2SM BR FEW006 FEW019 SCT031 24/21 A2995
      RMK A02=
####018000103####
SPUS81 KWBC 081234
SPECI
KSBN 081232Z 00000KT 2SM +TSRA BR SCT020 BKN035CB OVC055 23/22
A3005=
####018000086####
SPUS81 KWBC 081234
SPECI
PASN 081230Z 06010KT 4SM BR BKN002 OVC044 05/05 A2993=
####018000133####
SPBY31 UMMN 081230
SPECI COR UMII 081230Z 21005MPS  6000  -SHRA  BKN017CB  20/18  Q101
4
R23/CLRD//  TEMPO  2000    BKN005 =
####018000728####
SAUS20 KNKA 081233
METAR KAIK 081235Z AUTO 29004KT 10SM CLR 27/23 A3005 RMK AO2 PNO=
METAR KARW 081235Z AUTO 28008KT 10SM CLR 27/18 A2999 RMK AO2=
METAR KFDW 081235Z AUTO 30004KT 10SM CLR 26/18 A3002 RMK AO1=
METAR KMEZ 081235Z AUTO 00000KT 2 1/2SM RA SCT011 BKN018 OVC031 
     25/23 A3009 RMK AO2 P0001=
SPECI KMKO 081232Z AUTO 14003KT 5SM BR OVC014 23/23 A3005 RMK AO2 
    RAB23E32 P0000=
METAR KOAJ 081235Z AUTO 04009KT 5SM CLR 27/23 A2996 RMK AO1=
SPECI KOZR 081231Z 00000KT 3SM BR FEW001 24/24 A3004 RMK AO2A=
METAR KPSO 081235Z AUTO 00000KT 10SM SCT120 08/05 A3040 RMK AO2=
METAR KSOP 081235Z AUTO 00000KT 8SM CLR 28/19 A2999 RMK AO1=
METAR KUDG 081235Z 32004KT 10SM FEW100 27/19 A2999 RMK AO1=
####018000086####
SPCN51 CWAO 081232
SPECI CZBF 081232Z 00000KT 3SM BR BKN005 OVC006 RMK SF6ST2=

####018000089####
SAIN90 VECC 081030

METAR VEBS 081030Z 17011KT 5000 HZ FEW020 SCT250 32/26 Q1004 =
####018000102####
SAUK39 EGRR 081150 RRT
METAR EGQK 081150Z 22016G26KT 9999 FEW027 BKN050 18/08 Q1009 BLU
 NOSIG=
####018000096####
SAUK39 EGRR 081150 RRV
METAR EGQS 081150Z 22016KT 9999 FEW030 BKN050 16/10 Q1009 BLU NOSIG=
####018000073####
SADL34 EDZO 081220 RRA
METAR EDJA 081220Z VRB02KT CAVOK 26/09 Q1023=
####018000090####
SAUK39 EGRR 081150 RRS
METAR EGXG 081150Z 26011KT 9999 SCT042 BKN200 20/08 Q1016 BLU=
####018000096####
SAUK39 EGRR 081150 RRU
METAR EGYD 081150Z 25012KT 9999 FEW045 BKN250 22/09 Q1017 BLU NOSIG=
####018001673####
SAEU KAWN 081200 RRX
METAR EBBE 081225Z 30005KT 9999 FEW060 30/09 Q1019 BLU BLU=
METAR EGXC 081150Z 24007KT 9999 FEW040 BKN250 22/07 Q1017 BLU NOSIG=
METAR EGXD 081150Z 24015KT 9999 FEW042 21/09 Q1016 BLU NOSIG=
METAR EICK 081230Z 19010KT 9999 -RA SCT008 BKN025 BKN060 14/13 Q1016
      NOSIG=
METAR EIDW 081230Z 23012G22KT 190V280 9999 FEW026 BKN050 BKN100 18/10
      Q1015 NOSIG=
METAR EIKN 081230Z 20012KT 170V240 9999 FEW018CB BKN060 BKN100 14/10
      Q1013 NOSIG=
METAR EINN 081230Z 20009KT 9999 -RADZ FEW015 SCT020 BKN038 15/13 Q1015
      NOSIG=
METAR EPGD 081230Z VRB04KT CAVOK 25/13 Q1021=
METAR EPKT 081230Z 02007KT CAVOK 23/07 Q1022=
METAR EPRZ 081230Z 32008KT 280V350 9999 FEW046 22/11 Q1021=
METAR EPWA 081230Z 34011KT 290V030 CAVOK 23/10 Q1021 NOSIG=
METAR EPWR 081230Z VRB03KT CAVOK 25/10 Q1023=
METAR ETGY 081220Z 19004KT 9999 FEW080 BKN250 31/09 Q1019 BLU/=
METAR LATI 081230Z 02014G24KT 340V050 9999 FEW050 27/12 Q1016 NOSIG=
METAR LBGO 081230Z 29003MPS 250V320 9999 -DZ BKN023 OVC040 16/15 Q1017
      RERA NOSIG=
METAR LDRI 081230Z 26005KT 190V330 9999 FEW047 26/10 Q1021 NOSIG=
METAR LDSP 081230Z 23011KT 180V250 CAVOK 29/08 Q1020 NOSIG=
METAR LDZA 081230Z VRB03KT CAVOK 26/07 Q1022 NOSIG=
METAR LHBP 081230Z 25008KT 200V290 CAVOK 24/10 Q1021 NOSIG=
METAR LKKV 081230Z VRB03KT CAVOK 24/09 Q1023=
METAR LKMT 081230Z 02005KT 280V090 CAVOK 22/09 Q1023 NOSIG=
METAR LKPR 081230Z 35004KT 290V050 CAVOK 24/11 Q1023 NOSIG=
METAR LKTB 081230Z 33006KT 280V040 CAVOK 25/08 Q1022 NOSIG=
METAR LZIB 081230Z VRB03KT CAVOK 26/08 Q1021=
METAR LZTT 081230Z 07012KT 040V130 9999 FEW040 21/08 Q1022 NOSIG=
####018002784####
SAUS20 KNKA 081234
METAR KPMV 081230Z AUTO 33003KT 10SM CLR 20/19 A3015 RMK AO2 
     T02010193=
SPECI KAEX 081233Z AUTO 00000KT 10SM FEW006 25/24 A3003 RMK AO2=
SPECI KAUW 081233Z AUTO 32006KT 7SM OVC004 19/18 A3003 RMK AO2=
SPECI KBAZ 081233Z AUTO 04007KT 6SM -RA BR BKN009 OVC016 25/24 A2994 
    RMK AO2 RAB27 CIG 008V013 P0000=
SPECI KCEC 081233Z AUTO 25003KT 3SM BR OVC003 10/09 A2998 RMK AO2 
    CIG 001V005=
METAR KDUC 081234Z AUTO 05003KT 10SM CLR 23/23 A3005 RMK AO2=
METAR KHDE 081230Z AUTO 36005KT 10SM OVC085 17/15 A3023 RMK AO2 
     T01660148=
METAR KHJH 081230Z AUTO 35005KT 10SM OVC029 20/18 A3017 RMK AO2 
     T01950177=
SPECI KHQM 081233Z AUTO 27008KT 3/4SM BR 13/12 A2997 RMK AO2 $=
SPECI KHUA 081230Z 02005KT 12SM SKC 28/21 A3012 RMK FIRST=
METAR KIBM 081230Z AUTO 00000KT 5SM BR SCT060 BKN070 OVC080 13/12 
     A3033 RMK AO2 T01260118=
SPECI KJEF 081233Z 00000KT 1 3/4SM BR OVC003 24/23 A3006 RMK AO2=
METAR KJYR 081230Z AUTO 36003KT 10SM CLR 17/15 A3020 RMK AO2=
METAR KL35 081232Z AUTO 00000KT 10SM CLR 06/M04 A3018 RMK AO2=
METAR KLCG 081230Z AUTO 00000KT 10SM CLR 17/15 A3019 RMK AO2 
     T01650152=
METAR KLHM 081231Z AUTO 17005KT 10SM CLR 15/11 A2983 RMK AO1 
     T01470110=
METAR KLXN 081230Z AUTO 00000KT 10SM SCT050 17/16 A3024 RMK AO2 
     T01730162=
SPECI KMKC 081233Z 01005KT 10SM BKN008 23/21 A3008 RMK AO2 CIG 
    008V012=
METAR KMLE 081230Z AUTO 00000KT 10SM SCT017 SCT060 20/17 A3015 
     RMK AO2 T02000171=
METAR KMMH 081230Z AUTO 31003KT 10SM CLR 07/01 A3023 RMK AO1=
METAR KOGA 081230Z AUTO 00000KT 10SM OVC100 16/15 A3029 RMK AO2 
     T01550145=
METAR KONL 081230Z AUTO 00000KT 10SM CLR 17/16 A3022 RMK AO2 
     T01700157=
METAR KONP 081232Z AUTO 00000KT 4SM BR OVC004 11/10 A2999 RMK AO1=
SPECI KPKB 081233Z 00000KT 3SM BCFG BR CLR 23/21 A3012 RMK AO2 VIS 
    N-E 1/2=
METAR KPNA 081230Z AUTO 30007KT 10SM SCT100 05/01 A3041 RMK AO2 
     T00530013=
METAR KPTT 081230Z AUTO 02008KT 4SM BR OVC004 20/19 A3017 RMK AO2=
SPECI KRWL 081233Z AUTO 07007KT 10SM OVC007 09/08 A3041 RMK AO2=
SPECI KSBN 081232Z 00000KT 2SM +TSRA BR SCT020 BKN035CB OVC055
     23/22 A3005 RMK AO2 TWR VIS 2 1/2 TSB25RAB1155 OCNL LTGIC OHD
     TS OHD MOV NE P0010=
METAR KSOW 081230Z AUTO 17004KT 10SM BKN100 BKN120 20/03 A3026 
     RMK AO2=
SPECI KSTS 081233Z AUTO 00000KT 10SM OVC004 12/10 A2992 RMK AO2=
METAR KSUN 081231Z AUTO 32009KT 10SM CLR 10/00 A3025 RMK AO2=
METAR KSZT 081230Z AUTO 26003KT 10SM CLR 09/08 A3011 RMK AO2=
SPECI KTAD 081233Z AUTO 28004KT 10SM SCT028 14/13 A3036 RMK AO2=
METAR KTIF 081230Z AUTO 29003KT 10SM SCT090 OVC120 16/15 A3028 
     RMK AO2 T01600147=
METAR KTRK 081230Z AUTO 15003KT 10SM CLR 08/06 A3016 RMK AO2=
####018001749####
SAEU KAWN 081200 RRX
METAR EPKK 081230Z VRB04KT 9999 FEW060 24/07 Q1022=
METAR EPPO 081230Z 31007KT 250V360 CAVOK 25/08 Q1022=
METAR LEAL 081230Z 08011KT CAVOK 31/16 Q1019 NOSIG=
METAR LEAM 081230Z 08016KT CAVOK 39/03 Q1015=
METAR LEAS 081230Z 06004KT 010V100 9999 FEW015 23/19 Q1017 TEMPO TSRA
      SCT025CB=
METAR LEBB 081230Z 29012KT 260V320 8000 FEW020 26/21 Q1016 NOSIG=
METAR LEBL 081230Z 20015KT CAVOK 28/21 Q1019 NOSIG=
METAR LECO 081230Z 02008KT CAVOK 22/19 Q1015=
METAR LEIB 081230Z 09007KT 050V130 CAVOK 29/21 Q1020 NOSIG=
METAR LEMD 081230Z 13009KT 070V180 9999 FEW070TCU 32/12 Q1018 NOSIG=
METAR LEMG 081230Z 12007KT 090V160 9999 FEW040 29/14 Q1017 NOSIG=
METAR LEMH 081230Z VRB05G17KT CAVOK 30/18 Q1020=
METAR LEPA 081230Z 22013KT 180V250 CAVOK 30/15 Q1020 NOSIG=
METAR LEPP 081230Z 13009KT 080V170 CAVOK 37/15 Q1018=
METAR LERS 081230Z 21007KT 150V250 CAVOK 29/17 Q1020=
METAR LESA 081230Z 29005KT 240V320 9999 FEW048 34/16 Q1018=
METAR LESO 081230Z 03005KT 360V070 CAVOK 28/21 Q1015=
METAR LEST 081230Z 06007KT CAVOK 27/19 Q1015 NOSIG=
METAR LEVC 081230Z 08010KT 050V120 CAVOK 32/17 Q1018 NOSIG=
METAR LEVD 081230Z 23007KT 190V300 CAVOK 34/08 Q1019=
METAR LEVS 081230Z VRB05KT CAVOK 32/12 Q1018=
METAR LEVX 081230Z 26011KT 8000 FEW030 25/19 Q1015=
METAR LEXJ 081230Z 28012KT 250V310 9999 SCT018 25/20 Q1017=
METAR LEZG 081230Z 09010KT 070V130 9999 FEW040 37/13 Q1017=
METAR LEZL 081230Z 22008KT 190V260 9999 SCT025 32/16 Q1015 NOSIG=
METAR LYBE 081230Z 36012KT CAVOK 23/12 Q1021 NOSIG=
METAR LYNI 081230Z 32012KT 9999 FEW020 SCT026 18/13 Q1021 NOSIG=
METAR LYPG 081230Z 02017G27KT 9999 FEW040 28/08 Q1018 NOSIG=
METAR LYTV 081230Z 02008KT 9999 FEW053 29/10 Q1017 NOSIG=
####018000119####
SAUS44 KCRP 081234
MTRVCT
SPECI KVCT 081233Z 35003KT 2SM RA BR SCT016 BKN028 OVC046 24/24 
A2990 RMK AO2 P0026
####018002094####
SAUS99 KWBC 081235
METAR
KAIK 081235Z AUTO 29004KT 10SM CLR 27/23 A3005 RMK AO2 PNO=
KARW 081235Z AUTO 28008KT 10SM CLR 27/18 A2999 RMK AO2=
KFDW 081235Z AUTO 30004KT 10SM CLR 26/18 A3002 RMK AO1=
KMEZ 081235Z AUTO 00000KT 2 1/2SM RA SCT011 BKN018 OVC031 25/23
     A3009 RMK AO2 P0001=
KOAJ 081235Z AUTO 04009KT 5SM CLR 27/23 A2996 RMK AO1=
KPSO 081235Z AUTO 00000KT 10SM SCT120 08/05 A3040 RMK AO2=
KSOP 081235Z AUTO 00000KT 8SM CLR 28/19 A2999 RMK AO1=
KUDG 081235Z 32004KT 10SM FEW100 27/19 A2999 RMK AO1=
KPMV 081230Z AUTO 33003KT 10SM CLR 20/19 A3015 RMK AO2
     T02010193=
KDUC 081234Z AUTO 05003KT 10SM CLR 23/23 A3005 RMK AO2=
KHDE 081230Z AUTO 36005KT 10SM OVC085 17/15 A3023 RMK AO2
     T01660148=
KHJH 081230Z AUTO 35005KT 10SM OVC029 20/18 A3017 RMK AO2
     T01950177=
KIBM 081230Z AUTO 00000KT 5SM BR SCT060 BKN070 OVC080 13/12 A3033
     RMK AO2 T01260118=
KJYR 081230Z AUTO 36003KT 10SM CLR 17/15 A3020 RMK AO2=
KL35 081232Z AUTO 00000KT 10SM CLR 06/M04 A3018 RMK AO2=
KLCG 081230Z AUTO 00000KT 10SM CLR 17/15 A3019 RMK AO2
     T01650152=
KLHM 081231Z AUTO 17005KT 10SM CLR 15/11 A2983 RMK AO1
     T01470110=
KLXN 081230Z AUTO 00000KT 10SM SCT050 17/16 A3024 RMK AO2
     T01730162=
KMLE 081230Z AUTO 00000KT 10SM SCT017 SCT060 20/17 A3015 RMK AO2
     T02000171=
KMMH 081230Z AUTO 31003KT 10SM CLR 07/01 A3023 RMK AO1=
KOGA 081230Z AUTO 00000KT 10SM OVC100 16/15 A3029 RMK AO2
     T01550145=
KONL 081230Z AUTO 00000KT 10SM CLR 17/16 A3022 RMK AO2
     T01700157=
KONP 081232Z AUTO 00000KT 4SM BR OVC004 11/10 A2999 RMK AO1=
KPNA 081230Z AUTO 30007KT 10SM SCT100 05/01 A3041 RMK AO2
     T00530013=
KPTT 081230Z AUTO 02008KT 4SM BR OVC004 20/19 A3017 RMK AO2=
KSOW 081230Z AUTO 17004KT 10SM BKN100 BKN120 20/03 A3026 RMK
     AO2=
KSUN 081231Z AUTO 32009KT 10SM CLR 10/00 A3025 RMK AO2=
KSZT 081230Z AUTO 26003KT 10SM CLR 09/08 A3011 RMK AO2=
KTIF 081230Z AUTO 29003KT 10SM SCT090 OVC120 16/15 A3028 RMK AO2
     T01600147=
KTRK 081230Z AUTO 15003KT 10SM CLR 08/06 A3016 RMK AO2=
####018001151####
SPUS99 KWBC 081235
SPECI
KMKO 081232Z AUTO 14003KT 5SM BR OVC014 23/23 A3005 RMK AO2
     RAB23E32 P0000=
KOZR 081231Z 00000KT 3SM BR FEW001 24/24 A3004 RMK AO2A=
KAEX 081233Z AUTO 00000KT 10SM FEW006 25/24 A3003 RMK AO2=
KAUW 081233Z AUTO 32006KT 7SM OVC004 19/18 A3003 RMK AO2=
KBAZ 081233Z AUTO 04007KT 6SM -RA BR BKN009 OVC016 25/24 A2994 RMK
     AO2 RAB27 CIG 008V013 P0000=
KCEC 081233Z AUTO 25003KT 3SM BR OVC003 10/09 A2998 RMK AO2 CIG
     001V005=
KHQM 081233Z AUTO 27008KT 3/4SM BR 13/12 A2997 RMK AO2 $=
KHUA 081230Z 02005KT 12SM SKC 28/21 A3012 RMK FIRST=
KJEF 081233Z 00000KT 1 3/4SM BR OVC003 24/23 A3006 RMK AO2=
KMKC 081233Z 01005KT 10SM BKN008 23/21 A3008 RMK AO2 CIG
     008V012=
KPKB 081233Z 00000KT 3SM BCFG BR CLR 23/21 A3012 RMK AO2 VIS N-E
     1/2=
KRWL 081233Z AUTO 07007KT 10SM OVC007 09/08 A3041 RMK AO2=
KSBN 081232Z 00000KT 2SM +TSRA BR SCT020 BKN035CB OVC055 23/22
     A3005 RMK AO2 TWR VIS 2 1/2 TSB25RAB1155 OCNL LTGIC OHD TS
     OHD MOV NE P0010=
KSTS 081233Z AUTO 00000KT 10SM OVC004 12/10 A2992 RMK AO2=
KTAD 081233Z AUTO 28004KT 10SM SCT028 14/13 A3036 RMK AO2=
####018000504####
SAFR36 LFPW 081230
METAR LFGJ 081230Z AUTO 19006KT 120V240 9999NDV NSC 31/11 Q1020=
METAR LFMD 081230Z AUTO 18006KT 120V210 9999NDV NSC 29/23 Q1020=
METAR LFOT 081230Z AUTO VRB02KT 9999NDV NSC 32/11 Q1018=
METAR LFRC 081230Z AUTO 01007KT 340V070 9999NDV SCT019 SCT027
21/16 Q1020=
METAR LFRG 081230Z AUTO 28003KT 220V330 9999NDV NSC 28/14 Q1019=
METAR LFBA 081230Z NIL=
METAR LFBE 081230Z NIL=
METAR LFJR 081230Z NIL=
METAR LFMH 081230Z NIL=
METAR LFPN 081230Z NIL=
METAR LFRK 081230Z NIL=
####018000361####
SARO31 LROM 081230
METAR LRBS 081230Z 31003KT 260V010 9999 FEW025 21/15 Q1016 NOSIG=
METAR LRCK 081230Z 01011KT 300V040 9999 FEW035 25/16 Q1014 NOSIG=
METAR LROP 081230Z 28005KT 260V320 9999 FEW045CB 21/15 Q1016
880///95 NOSIG=
METAR LRSB 081230Z AUTO 35006KT 310V020 9999 BKN038 17/13 Q1020=
METAR LRTR 081230Z 35009KT 320V020 9999 SCT037 24/15 Q1020=
####018000166####
SACY31 LCLK 081230
METAR LCLK 081230Z 19016KT 9999 FEW030 30/21 Q1008 NOSIG=
METAR LCPH 081230Z 24006KT 200V290 9999 FEW030 29/23 Q1008=
METAR LCNC 081230Z NIL=
####018000366####
SAFR31 LFPW 081230
METAR LFLL 081230Z 23005KT 170V290 CAVOK 32/13 Q1020 NOSIG=
METAR LFMN 081230Z 12006KT 9999 FEW023 29/23 Q1020 NOSIG=
METAR LFPG 081230Z 18007KT 110V220 CAVOK 31/09 Q1019 NOSIG=
METAR LFPO 081230Z 26005KT 190V350 CAVOK 31/09 Q1018 NOSIG=
METAR LFQQ 081230Z VRB05KT CAVOK 30/12 Q1018 NOSIG=
METAR LFRB 081230Z NIL=
METAR LFRS 081230Z NIL=
####018000416####
SAFR37 LFPW 081230
METAR LFBU 081230Z AUTO 11007KT 080V160 9999NDV NSC 33/11 Q1017=
METAR LFLN 081230Z AUTO 16005KT 090V210 9999NDV NSC 31/13 Q1019=
METAR LFPM 081230Z VRB03KT CAVOK 31/11 Q1018=
METAR LFSD 081230Z AUTO VRB04KT 9999NDV NSC 31/11 Q1020=
METAR LFTW 081230Z AUTO VRB06KT 9999NDV NSC 32/15 Q1020=
METAR LFAQ 081230Z NIL=
METAR LFRH 081230Z NIL=
METAR LFRQ 081230Z NIL=
METAR LFRT 081230Z NIL=
####018000184####
SAEW35 LEMM 081230
METAR LESA 081230Z 29005KT 240V320 9999 FEW048 34/16 Q1018=
METAR LEVD 081230Z 23007KT 190V300 CAVOK 34/08 Q1019=
METAR LEVS 081230Z VRB05KT CAVOK 32/12 Q1018=
####018000111####
SAKO31 RKSI 081230
METAR RKSI 081230Z 27005KT 200V310 8000 -RA FEW030 OVC110 22/20
           Q1009 NOSIG=
####018000072####
SAGR32 LGAT 081220 RRA
METAR LGZA 081220Z 32016KT CAVOK 29/08 Q1013=
####018000593####
SAEW31 LEMM 081230
METAR LEMD 081230Z 13009KT 070V180 9999 FEW070TCU 32/12 Q1018
NOSIG=
METAR LEBL 081230Z 20015KT CAVOK 28/21 Q1019 NOSIG=
METAR LEPA 081230Z 22013KT 180V250 CAVOK 30/15 Q1020 NOSIG=
METAR LEZL 081230Z 22008KT 190V260 9999 SCT025 32/16 Q1015 NOSIG=
METAR LEMG 081230Z 12007KT 090V160 9999 FEW040 29/14 Q1017 NOSIG=
METAR LEVC 081230Z 08010KT 050V120 CAVOK 32/17 Q1018 NOSIG=
METAR LEAL 081230Z 08011KT CAVOK 31/16 Q1019 NOSIG=
METAR LEIB 081230Z 09007KT 050V130 CAVOK 29/21 Q1020 NOSIG=
METAR LELC 081230Z NIL=
METAR LEVX 081230Z 26011KT 8000 FEW030 25/19 Q1015=
####018000088####
SAHK31 VHHH 081230
METAR VHHH 081230Z 19006KT 140V250 9999 FEW015 31/25 Q1007 NOSIG=
####018000302####
SAEW34 LEMM 081230
METAR LEDA 081230Z 18006KT 140V210 CAVOK 36/14 Q1019=
METAR LEJR 081230Z 22005KT 130V300 CAVOK 32/14 Q1016=
METAR LELL 081230Z 11009KT 070V150 CAVOK 31/15 Q1019=
METAR LEPP 081230Z 13009KT 080V170 CAVOK 37/15 Q1018=
METAR LEXJ 081230Z 28012KT 250V310 9999 SCT018 25/20 Q1017=
####018000143####
SAEW36 LEMM 081230
METAR GCLA 081230Z 02011KT 340V050 9999 SCT020 25/17 Q1020=
METAR GEML 081230Z 10009KT 050V120 9999 FEW012 27/21 Q1017=
####018000085####
SPCN31 KWBC 081235
SPECI
CZBF 081232Z 00000KT 3SM BR BKN005 OVC006 RMK SF6ST2=
####018000118####
SPEE31 KWBC 081235
SPECI
UMII 081230Z 21005MPS 6000 -SHRA BKN017CB 20/18 Q101 4 R23/CLRD//
TEMPO 2000 BKN005=
####018000118####
SPRA31 KWBC 081235
SPECI
UMII 081230Z 21005MPS 6000 -SHRA BKN017CB 20/18 Q101 4 R23/CLRD//
TEMPO 2000 BKN005=
####018000236####
SANM40 FYWW 081230
METAR FYWB 081230Z 04010G21KT 350V080 9999 R09/M0050VP1500U
     R27/M0050VP1500D VV/// 33/03 Q1014 =
METAR FYWB 081230Z 04010G21KT 350V080 9999 R09/M0050VP1500U
     R27/M0050VP1500D VV/// 33/03 Q1014 =

####018000379####
SAPO31 LPMG 081230
METAR LPFR 081230Z 25010KT 220V280 9999 FEW012 24/20 Q1016=
METAR LPMA 081230Z 21006KT 180V250 9999 FEW016 24/18 Q1021 RS16005KT 
0521005KT 2304013KT=
METAR LPPR 081230Z 21007KT 180V240 5000 BR SCT004 BKN006 22/18 Q1015=
METAR LPPS 081230Z 02011KT 9999 FEW016 SCT030 22/15 Q1021=
METAR LPPT 081230Z 24007KT 190V270 9999 FEW025 29/19 Q1016 NOSIG=
####018000098####
SAMG20 FMMI 081230
METAR FMMI 081230Z 10009KT 080V160 9999 BKN020 SCT023 18/13 Q1025
NOSIG=
####018000096####
SPUS52 KWBC 081235
SPECI
KVCT 081233Z 35003KT 2SM RA BR SCT016 BKN028 OVC046 24/24 A2990=
####018000104####
SPUS53 KWBC 081235
SPECI
KJLN 081232Z VRB03KT 1 3/4SM VCTS BR BKN004 BKN024 OVC075 22/22
A3009=
####018000106####
SAUK39 EGRR 081150 CCD
METAR COR EGQK 081150Z 22016G26KT 9999 FEW027 BKN050 18/08 Q1009 BLU
 NOSIG=
####018000103####
SAUK39 EGRR 081150 CCC
METAR COR EGXC 081150Z 24007KT 9999 FEW040 BKN250 22/07 Q1017 BLU
 NOSIG=
####018000110####
SAUK39 EGRR 081150 RRW
METAR EGVP 081150Z 19007KT 9999 BKN016 BKN280 21/15 Q1018 WHT BECMG
 SCT025 BLU=
####018000516####
SAFR36 LFPW 081230
METAR LFGJ 081230Z AUTO 19006KT 120V240 9999NDV NSC 31/11 Q1020=
METAR LFMD 081230Z AUTO 18006KT 120V210 9999NDV NSC 29/23 Q1020=
METAR LFOT 081230Z AUTO VRB02KT 9999NDV NSC 32/11 Q1018=
METAR LFRC 081230Z AUTO 01007KT 340V070 9999NDV SCT019 SCT027
21/16 Q1020=
METAR LFRG 081230Z AUTO 28003KT 220V330 9999NDV NSC 28/14 Q1019=
METAR LFBA 081230Z NIL=
METAR LFBE 081230Z NIL=
METAR LFJR 081230Z NIL=
METAR LFMH 081230Z NIL=
METAR LFPN 081230Z NIL=
METAR LFRK 081230Z NIL=
####018000425####
SAFR37 LFPW 081230
METAR LFBU 081230Z AUTO 11007KT 080V160 9999NDV NSC 33/11 Q1017=
METAR LFLN 081230Z AUTO 16005KT 090V210 9999NDV NSC 31/13 Q1019=
METAR LFPM 081230Z VRB03KT CAVOK 31/11 Q1018=
METAR LFSD 081230Z AUTO VRB04KT 9999NDV NSC 31/11 Q1020=
METAR LFTW 081230Z AUTO VRB06KT 9999NDV NSC 32/15 Q1020=
METAR LFAQ 081230Z NIL=
METAR LFRH 081230Z NIL=
METAR LFRQ 081230Z NIL=
METAR LFRT 081230Z NIL=
####018000077####
SALJ32 LJLJ 081230
METAR LJCE 081230Z 11002KT CAVOK 26/09 Q1022 RMK BLU=
####018000245####
SATS40 DTTA 081230
METAR DTMB 081230Z 03011KT CAVOK 30/13 Q1018 NOSIG=
METAR DTNZ 081230Z AUTO 10013KT CAVOK 30/14 Q1018=
METAR DTTA 081230Z 36010KT 330V040 CAVOK 30/20 Q1019  NOSIG=
METAR DTTJ 081230Z 08012KT CAVOK 30/20 Q1018 NOSIG=
####018000367####
SARO31 LROM 081230
METAR LRBS 081230Z 31003KT 260V010 9999 FEW025 21/15 Q1016 NOSIG=
METAR LRCK 081230Z 01011KT 300V040 9999 FEW035 25/16 Q1014 NOSIG=
METAR LROP 081230Z 28005KT 260V320 9999 FEW045CB 21/15 Q1016
880///95 NOSIG=
METAR LRSB 081230Z AUTO 35006KT 310V020 9999 BKN038 17/13 Q1020=
METAR LRTR 081230Z 35009KT 320V020 9999 SCT037 24/15 Q1020=
####018000541####
SAFR35 LFPW 081230
METAR LFMI 081230Z AUTO 19006KT 110V250 9999NDV NSC 34/14 Q1019=
METAR LFMK 081230Z AUTO 08016KT 9999NDV NSC 34/13 Q1019=
METAR LFRD 081230Z AUTO 01007KT 310V040 9999NDV NSC 22/15 Q1019=
METAR LFRN 081230Z AUTO 27004KT 210V350 9999NDV NSC 30/12 Q1018=
METAR LFRO 081230Z AUTO 03006KT 340V070 9999NDV NSC 21/16 Q1019=
METAR LFRZ 081230Z AUTO 21010KT 9999NDV NSC 32/10 Q1018=
METAR LFSB 081230Z VRB03KT CAVOK 31/11 Q1020 NOSIG=
METAR LFST 081230Z VRB04KT CAVOK 30/10 Q1020 NOSIG=
METAR LFTH 081230Z NIL=
####018000373####
SAFR31 LFPW 081230
METAR LFLL 081230Z 23005KT 170V290 CAVOK 32/13 Q1020 NOSIG=
METAR LFMN 081230Z 12006KT 9999 FEW023 29/23 Q1020 NOSIG=
METAR LFPG 081230Z 18007KT 110V220 CAVOK 31/09 Q1019 NOSIG=
METAR LFPO 081230Z 26005KT 190V350 CAVOK 31/09 Q1018 NOSIG=
METAR LFQQ 081230Z VRB05KT CAVOK 30/12 Q1018 NOSIG=
METAR LFRB 081230Z NIL=
METAR LFRS 081230Z NIL=
####018000617####
SAFR34 LFPW 081230
METAR LFCR 081230Z AUTO VRB05KT 9999NDV NSC 33/07 Q1021=
METAR LFJL 081230Z AUTO VRB02KT 9999NDV NSC 30/06 Q1020=
METAR LFLP 081230Z AUTO 21006KT 150V260 9999NDV NSC 31/12 Q1021=
METAR LFMU 081230Z AUTO 15007KT 100V200 9999NDV NSC 29/15 Q1020=
METAR LFOH 081230Z AUTO 33008KT 9999NDV NSC 24/14 Q1019=
METAR LFOK 081230Z AUTO 25005KT 180V320 9999NDV NSC 31/09 Q1019=
METAR LFPB 081230Z 18006KT 120V250 CAVOK 32/11 Q1018 NOSIG=
METAR LFLS 081230Z NIL=
METAR LFLY 081230Z NIL=
METAR LFMT 081230Z NIL=
METAR LFOB 081230Z NIL=
METAR LFOP 081230Z NIL=
METAR LFSN 081230Z NIL=
####018000140####
SAAM20 FCBB 081200 RRA
METAR FOOG 081200Z /////KT 9999 SCT010 27/22 Q1015=
METAR FOON 081200Z 31008KT 7000 SCT023 BKN040 28/22 Q1016=
####018000389####
SAFR33 LFPW 081230
METAR LFKB 081230Z 10006KT 060V140 9999 FEW025 29/21 Q1020 NOSIG=
METAR LFKJ 081230Z 19010KT 9999 FEW030 FEW046TCU 30/23 Q1019 NOSIG=
METAR LFMV 081230Z AUTO VRB05KT 9999NDV NSC 35/14 Q1019=
METAR LFSL 081230Z AUTO 11007KT 090V150 9999NDV NSC 31/13 Q1019=
METAR LFKC 081230Z NIL=
METAR LFKF 081230Z NIL=
METAR LFLC 081230Z NIL=
METAR LFMP 081230Z NIL=
####018000100####
SAUZ31 UTTW 081230
METAR UTSS 081230Z 07005MPS 040V100 9999 NSC 35/12 Q1009
R88/CLRD70 NOSIG=
####018000073####
SAGR32 LGAT 081220 RRA
METAR LGZA 081220Z 32016KT CAVOK 29/08 Q1013=
####018000604####
SAEW31 LEMM 081230
METAR LEMD 081230Z 13009KT 070V180 9999 FEW070TCU 32/12 Q1018
NOSIG=
METAR LEBL 081230Z 20015KT CAVOK 28/21 Q1019 NOSIG=
METAR LEPA 081230Z 22013KT 180V250 CAVOK 30/15 Q1020 NOSIG=
METAR LEZL 081230Z 22008KT 190V260 9999 SCT025 32/16 Q1015 NOSIG=
METAR LEMG 081230Z 12007KT 090V160 9999 FEW040 29/14 Q1017 NOSIG=
METAR LEVC 081230Z 08010KT 050V120 CAVOK 32/17 Q1018 NOSIG=
METAR LEAL 081230Z 08011KT CAVOK 31/16 Q1019 NOSIG=
METAR LEIB 081230Z 09007KT 050V130 CAVOK 29/21 Q1020 NOSIG=
METAR LELC 081230Z NIL=
METAR LEVX 081230Z 26011KT 8000 FEW030 25/19 Q1015=
####018000113####
SAKO31 RKSI 081230
METAR RKSI 081230Z 27005KT 200V310 8000 -RA FEW030 OVC110 22/20
           Q1009 NOSIG=
####018000718####
SAEW32 LEMM 081230
METAR LEAS 081230Z 06004KT 010V100 9999 FEW015 23/19 Q1017 TEMPO
TSRA SCT025CB=
METAR LEBB 081230Z 29012KT 260V320 8000 FEW020 26/21 Q1016 NOSIG=
METAR LECO 081230Z 02008KT CAVOK 22/19 Q1015=
METAR LEGE 081230Z 19008KT 100V240 CAVOK 33/17 Q1019=
METAR LEST 081230Z 06007KT CAVOK 27/19 Q1015 NOSIG=
METAR LEZG 081230Z 09010KT 070V130 9999 FEW040 37/13 Q1017=
METAR LESO 081230Z 03005KT 360V070 CAVOK 28/21 Q1015=
METAR LEVT 081230Z NIL=
METAR LERS 081230Z 21007KT 150V250 CAVOK 29/17 Q1020=
METAR LEMH 081230Z VRB05G17KT CAVOK 30/18 Q1020=
METAR LEAM 081230Z 08016KT CAVOK 39/03 Q1015=
METAR LEGR 081230Z NIL=
METAR LERL 081230Z 13004KT 040V200 9999 FEW050 38/05 Q1018=
####018000191####
SALJ31 LJLJ 081230
METAR LJLJ 081230Z 13003KT 030V210 9999 FEW040 24/10 Q1022 NOSIG=
METAR LJMB 081230Z VRB02KT 9999 FEW040 25/08 Q1022=
METAR LJPZ 081230Z 30009KT CAVOK 26/10 Q1022=
####018000101####
SAUZ31 UTTW 081230
METAR UTSS 081230Z 07005MPS 040V100 9999 NSC 35/12 Q1009 
R88/CLRD70 NOSIG=
####018000467####
SAFR32 LFPW 081230
METAR COR LFBD 081230Z 11010KT 080V140 9999 FEW046 BKN230 34/13
Q1016 NOSIG=
METAR LFBH 081230Z AUTO 31007KT 280V340 9999NDV NSC 32/10 Q1017=
METAR LFBO 081230Z 12010KT 080V160 CAVOK 35/13 Q1017 NOSIG=
METAR LFML 081230Z 27006KT CAVOK 33/18 Q1019 NOSIG=
METAR LFBI 081230Z NIL=
METAR LFBL 081230Z NIL=
METAR LFBP 081230Z NIL=
METAR LFBT 081230Z NIL=
METAR LFBZ 081230Z NIL=
METAR LFLB 081230Z NIL=
METAR LFLX 081230Z NIL=
####018000169####
SACY31 LCLK 081230
METAR LCLK 081230Z 19016KT 9999 FEW030 30/21 Q1008 NOSIG=
METAR LCPH 081230Z 24006KT 200V290 9999 FEW030 29/23 Q1008=
METAR LCNC 081230Z NIL=
####018000100####
SAAJ31 UBBB 081230
METAR UBBG 081230Z 07014KT 9999 SCT083 36/16 Q1009 NOSIG RMK
R12L/CLRD70 =
####018000096####
SPUS72 KWBC 081235
SPECI
KVCT 081233Z 35003KT 2SM RA BR SCT016 BKN028 OVC046 24/24 A2990=
####018000104####
SPUS73 KWBC 081235
SPECI
KJLN 081232Z VRB03KT 1 3/4SM VCTS BR BKN004 BKN024 OVC075 22/22
A3009=
####018000098####
SADL51 ETGT 081220 RRB
METAR
ETHC 081220Z 26008KT 9999 FEW140 30/09 Q1019
      BLU+BLU+=
####018001351####
SAUS20 KNKA 081235
METAR KAWO 081235Z AUTO 00000KT 5SM CLR 12/12 A2998 RMK AO1=
METAR KBDN 081235Z AUTO 22004KT 10SM CLR 12/03 A3012 RMK AO2 =
METAR KCGC 081235Z AUTO 00000KT 10SM CLR 24/22 A3001 RMK=
METAR KCOE 081235Z AUTO 06008KT 10SM CLR 13/09 A3010 RMK AO1=
METAR KCVO 081235Z AUTO 27006KT 10SM CLR 12/09 A2994 RMK AO1=
METAR KDYB 081235Z AUTO 00000KT 10SM CLR 25/21 A2997 RMK AO1=
METAR KFTN 081235Z AUTO 02004KT 10SM BKN008 OVC016 25/23 A2992 RMK 
     AO1 =
METAR KGAI 081235Z 00000KT 5SM CLR 27/23 A3005 RMK AO1 
     =
METAR KGLY 081235Z AUTO 00000KT 5SM  BR BKN006 23/23 A3007 RMK AO2 
     =
METAR KHEF 081235Z AUTO 08004KT 5SM FEW080 BKN100 28/22 A3002 RMK 
    AO1=
METAR KKLS 081235Z AUTO 00000KT 10SM CLR 14/12 A2994 RMK AO1=
METAR KLGD 081235Z AUTO 32003KT 10SM CLR 08/04 A3007 RMK AO1=
METAR KLKV 081235Z AUTO 33007KT 10SM CLR 11/00 A3013 RMK AO1=
METAR KMNI 081235Z AUTO 32004KT 10SM CLR 27/23 A2997 RMK AO2=
METAR KOTH 081235Z 26003KT 10SM OVC006 09/08 A3000 RMK AO1=
METAR KPWT 081235Z AUTO 03009KT 10SM CLR 22/07 A2998 RMK AO1=
METAR KSPA 081235Z AUTO 02004KT 10SM CLR 27/23 A3003 RMK AO2=
METAR KSPL 081235Z AUTO 34008KT 27/25 A2975 RMK AO2 PWINO PNO =
METAR KTEX 081233Z AUTO 14004KT 10SM SCT110 12/05 A3046 RMK AO2=
METAR KUTA 081235Z AUTO 00000KT 10SM CLR 26/22 A3008 RMK AO2=
####018000104####
SPUS81 KWBC 081235
SPECI
KJLN 081232Z VRB03KT 1 3/4SM VCTS BR BKN004 BKN024 OVC075 22/22
A3009=
####018000384####
SPUS17 KAWN 081235 RRE
SPECI KDYS 081224Z 00000KT 10SM BKN004 OVC009 22/21 A3007 RMK AO2A
      SLP163 $=
SPECI KFRI 081232Z AUTO 35007KT 8SM BKN008 22/21 A3011 RMK AO2 BKN
      V SCT SLP186=
SPECI KGRK 081233Z 06005KT 7SM SCT008 BKN016 OVC023 27/24 A3000=
SPECI KLTS 081227Z AUTO 36005KT 10SM SCT049 22/22 A3008 RMK AO2 RAE1224DZB1204E1207B1224E1227
      SLP170 $=
####018000096####
SPUS81 KWBC 081235
SPECI
KVCT 081233Z 35003KT 2SM RA BR SCT016 BKN028 OVC046 24/24 A2990=
####018000378####
SAPO31 LPMG 081230
METAR LPFR 081230Z 25010KT 220V280 9999 FEW012 24/20 Q1016=
METAR LPMA 081230Z 21006KT 180V250 9999 FEW016 24/18 Q1021 RS16005KT 
0521005KT 2304013KT=
METAR LPPR 081230Z 21007KT 180V240 5000 BR SCT004 BKN006 22/18 Q1015=
METAR LPPS 081230Z 02011KT 9999 FEW016 SCT030 22/15 Q1021=
METAR LPPT 081230Z 24007KT 190V270 9999 FEW025 29/19 Q1016 NOSIG=
####018000086####
SAAM31 FCBB 081200 RRD
METAR FOON 081200Z 31008KT 7000 SCT023 BKN040 28/22 Q1016=
