####018000119####
SAUS90 KWBC 081106 CCA
METAR KWAL 08ò054Z AUTO 1&Ç™ZQÅ10SM BKN095 25Ø&& Õ001 RMK AO2
     SLP158 T02%00222 TSÍ5=
####018000121####
SAUS90 KWBC 081100 CCD
METAR KWAL 081054Z AUTO 12005KT 10SM BKN095 25/22 A3001 RMK AO2
     SLP158 T02500222 TSNO=
####018000106####
SPUS90 KWBC 081106
SPECI KAKQ 081103Z AUTO 00000KT 1 3/4SM BR FEW015 24/22 A2999 RMK
     AO2 TSNO=
####018000192####
SAUS90 KWBC 081100 RRD
METAR KHMS 081050Z 31010KT 15SM SKC 20/07 A2995 RMK SLP140
     T02010068 RSNK 20/03011=
METAR K2G4 081100Z AUTO 00000KT 10SM SCT065 23/13 A3019 RMK
     AO1=
####018000124####
SPUS90 KWBC 081106 CCA
SPECI KBTR 081059Z 06003KT 2 1/2SM BR MIFG SCT003 BKN200 23/23
     A3001 RMK AO2 SFC VIS 3 $=
####018000508####
SAUS90 KWBC 081106
METAR K2W6 081103Z AUTO 00000KT 2 1/2SM 24/24 A3001 RMK AO1 SKY
     OBSCURED=
METAR KCGE 081101Z AUTO 00000KT 3/4SM OVC002 25/25 A3002 RMK
     AO1=
METAR KCBE 081103Z AUTO 00000KT 5SM CLR 21/19 A3011 RMK AO1=
METAR KCGS 081105Z AUTO 00000KT 5SM CLR 26/24 A3001 RMK AO1=
METAR KDMW 081104Z AUTO 09003KT 5SM HZ CLR 26/22 A3005 RMK AO2=
METAR KFME 081106Z AUTO 07003KT 4SM CLR 22/22 A3003 RMK AO1=
METAR KW29 081103Z AUTO 11003KT 2 1/2SM CLR 25/23 A3001 RMK
     AO1=
####018000107####
SAUS44 KMOB 081105
MTRNSE
SPECI KNSE 081103Z 00000KT 3/4SM BR FEW001 SCT250 22/21 A3003 RMK 
AO2 $
####018000380####
SAIR35 OIII 081100
METAR OIAD 081100Z NIL=
METAR OIBJ 081100Z 22012KT 6000 SKC 37/18 Q1006 A2971=
METAR OIBS 081100Z 07008KT 7000 SKC 35/29 Q0999 A2953=
METAR OIHR 081100Z NIL=
METAR OIKM 081100Z NIL=
METAR OIKR 081100Z 33012KT CAVOK 38/M01 Q1015 A2998=
METAR OING 081100Z 27020KT 9999 FEW040 35/20 Q1010 A2984=
METAR OIZB 081100Z NIL=
METAR OIZI 081100Z NIL=
####018000462####
SAIR36 OIII 081100
METAR OIBA 081100Z 03010KT 5000 HZ SKC 35/30 Q0999 A2950=
METAR OIBV 081100Z 13010KT 6000 SKC 36/27 Q0999 A2852=
METAR OIFS 081100Z NIL=
METAR OIIP 081100Z 12018KT 6000 SKC 39/M03 Q1013=
METAR OIMB 081100Z 06008KT CAVOK 37/08 Q1014 A2997=
METAR OIMN 081100Z 28010KT CAVOK 36/12 Q1015 A2999=
METAR OIMS 081100Z NIL=
METAR OIMT 081100Z 03004KT CAVOK 43/M02 Q1006 A2972=
METAR OIZJ 081100Z 14014KT 7000 NSC 33/28 Q1001 A2957=
####018001157####
SAAU31 AMMC 081100
METAR YBAS 081100Z AUTO 07007KT 9999NDV // NCD 09/06 Q1020=
METAR YBBN 081100Z 19009KT 9999 FEW040 SCT090 17/11 Q1020
     NOSIG=
METAR YBCS 081100Z 16008KT 9999 FEW024 BKN040 23/20 Q1016
     NOSIG=
METAR YBTL 081100Z 13007KT 9999 FEW015 BKN040 22/20 Q1017=
METAR YMML 081100Z 00000KT 9999 FEW043 SCT250 08/06 Q1028
     NOSIG=
METAR YPAD 081100Z 09006KT CAVOK 07/04 Q1026
     NOSIG=
METAR YPCC 081100Z AUTO 14009KT 9999NDV // SCT043 SCT058 26/22 Q1012=
METAR YPDN 081100Z 03005KT CAVOK 26/20 Q1013
     NOSIG=
METAR YPKU 081100Z AUTO 11006KT 9999NDV // NCD 24/15 Q1014=
METAR YPLM 081100Z AUTO 20003KT 9999NDV // BKN023 OVC028 21/17 Q1009=
METAR YPPH 081100Z 01010KT 9999 FEW024 BKN083 14/13 Q0998
     INTER 1100/1200 27025G35KT 3000 +SHRA BKN010
     INTER 1200/1400 27030G50KT 2000 TSGS BKN010 FEW030CB=
METAR YPTN 081100Z AUTO 11005KT 9999NDV // SCT049 23/16 Q1015=
METAR YPXM 081100Z AUTO 20005KT 9999NDV // NCD 23/20 Q1013=
METAR YSSY 081100Z 22011KT 9999 VCSH FEW006 SCT040 BKN055 12/11 Q1027
     FM1100 22010KT 9999 -SHRA SCT025 BKN040
     INTER 1100/1400 5000 SHRA BKN010=

####018000793####
SAUS20 KNKA 081105
SPECI KAAO 081104Z AUTO 34005KT 10SM SCT006 21/20 A3008 RMK AO2=
SPECI KBED 081104Z 17007KT 6SM HZ BKN016 BKN070 24/21 A3007 RMK AO2=
SPECI KBMQ 081104Z AUTO 00000KT 10SM BKN013 BKN023 23/22 A3001 RMK 
    AO2 $=
METAR KCLS 081055Z AUTO 00000KT 10SM CLR 13/12 A2996 RMK AO2 =
SPECI KCNU 081104Z AUTO 02004KT 1 3/4SM BR OVC003 22/21 A3006 RMK 
    AO2=
METAR KGZL 081055Z AUTO 17005KT 10SM OVC043 24/23 A3003 RMK AO2 =
SPECI KHAO 081104Z AUTO 00000KT 2SM BR CLR 22/20 A3009 RMK AO2=
SPECI KILN 081104Z AUTO 00000KT 2 1/2SM BR CLR 21/20 A3009 RMK AO2=
SPECI KTUL 081104Z 00000KT 10SM FEW012 BKN055 BKN080 23/22 A3002 RMK 
    AO2 TSE04RAE1055 OCNL LTGIC DSNT NE TS MOV N P0000=
SPECI KUCP 081105Z AUTO 00000KT 1 1/2SM BR CLR 19/19 A3011 RMK AO2 $=
####018000089####
SAUK39 EGRR 081050 RRF
METAR EGXP 01050Z 23015KT 9999 FEW032 SCT100 20/10 Q1017 BLU=
####018000090####
SAUK39 EGRR 081050 RRG
METAR EGDX 081050Z 26006KT 9999 FEW020 BKN100 19/10 Q1018 BLU=
####018000105####
SAUK39 EGRR 081050 CCB
METAR EGXW 081050Z 25009KT 9999 FEW033 BKN120 BKN250 20/10 Q1017 BLU
NOSIG=
####018001154####
SAAU31 AMMC 081100
METAR YBAS 081100Z AUTO 07007KT 9999NDV // NCD 09/06 Q1020=
METAR YBBN 081100Z 19009KT 9999 FEW040 SCT090 17/11 Q1020
     NOSIG=
METAR YBCS 081100Z 16008KT 9999 FEW024 BKN040 23/20 Q1016
     NOSIG=
METAR YBTL 081100Z 13007KT 9999 FEW015 BKN040 22/20 Q1017=
METAR YMML 081100Z 00000KT 9999 FEW043 SCT250 08/06 Q1028
     NOSIG=
METAR YPAD 081100Z 09006KT CAVOK 07/04 Q1026
     NOSIG=
METAR YPCC 081100Z AUTO 14009KT 9999NDV // SCT043 SCT058 26/22 Q1012=
METAR YPDN 081100Z 03005KT CAVOK 26/20 Q1013
     NOSIG=
METAR YPKU 081100Z AUTO 11006KT 9999NDV // NCD 24/15 Q1014=
METAR YPLM 081100Z AUTO 20003KT 9999NDV // BKN023 OVC028 21/17 Q1009=
METAR YPPH 081100Z 01010KT 9999 FEW024 BKN083 14/13 Q0998
     INTER 1100/1200 27025G35KT 3000 +SHRA BKN010
     INTER 1200/1400 27030G50KT 2000 TSGS BKN010 FEW030CB=
METAR YPTN 081100Z AUTO 11005KT 9999NDV // SCT049 23/16 Q1015=
METAR YPXM 081100Z AUTO 20005KT 9999NDV // NCD 23/20 Q1013=
METAR YSSY 081100Z 22011KT 9999 VCSH FEW006 SCT040 BKN055 12/11 Q1027
     FM1100 22010KT 9999 -SHRA SCT025 BKN040
     INTER 1100/1400 5000 SHRA BKN010=
####018000096####
SAUK39 EGRR 081050 RRE
METAR EGXD 081050Z 24013KT 9999 FEW040 BKN150 20/09 Q1016 BLU NOSIG=
####018000089####
SAMG20 FMMI 081100
METAR FMMI 081100Z 11010KT 080V150 9999 BKN020 19/12 Q1025 NOSIG=
####018000398####
SAIR37 OIII 081100
METAR OIBQ 081100Z 27010KT CAVOK 37/22 Q0999 A2951=
METAR OIIK 081100Z 13008KT CAVOK 39/00 Q1013 A2994=
METAR OIMC 081100Z 01012KT CAVOK 43/05 Q1007 A2976=
METAR OIMD 081100Z 12012KT CAVOK 38/M00 Q1009 A2981=
METAR OIMQ 081100Z 03004KT CAVOK 40/03 Q1012 A2989=
METAR OISR 081100Z NIL=
METAR OITK 081100Z NIL=
METAR OITM 081100Z 27010KT CAVOK 37/10 Q1013 A2991=
####018000620####
SPUS99 KWBC 081106
SPECI
KAAO 081104Z AUTO 34005KT 10SM SCT006 21/20 A3008 RMK AO2=
KBED 081104Z 17007KT 6SM HZ BKN016 BKN070 24/21 A3007 RMK AO2=
KBMQ 081104Z AUTO 00000KT 10SM BKN013 BKN023 23/22 A3001 RMK AO2
     $=
KCNU 081104Z AUTO 02004KT 1 3/4SM BR OVC003 22/21 A3006 RMK
     AO2=
KHAO 081104Z AUTO 00000KT 2SM BR CLR 22/20 A3009 RMK AO2=
KILN 081104Z AUTO 00000KT 2 1/2SM BR CLR 21/20 A3009 RMK AO2=
KTUL 081104Z 00000KT 10SM FEW012 BKN055 BKN080 23/22 A3002 RMK AO2
     TSE04RAE1055 OCNL LTGIC DSNT NE TS MOV N P0000=
KUCP 081105Z AUTO 00000KT 1 1/2SM BR CLR 19/19 A3011 RMK AO2 $=
####018000078####
SAAG SAST 081100
METAR SAST 081100Z  00000KT 9999 HZ FEW100  13/12
Q1017=
####018000148####
SAUS99 KWBC 081106
METAR
KCLS 081055Z AUTO 00000KT 10SM CLR 13/12 A2996 RMK AO2=
KGZL 081055Z AUTO 17005KT 10SM OVC043 24/23 A3003 RMK AO2=
####018000184####
SATD31 TTPP 081100
METAR
TTPP 081100Z 00000KT 9000 FEW006 FEW010CB BKN036 BKN080 25/24 Q1011
NOSIG=
TTCP 081100Z 08013KT 9000 -SHRA FEW010CB SCT014 BKN038 24/23 Q1013
NOSIG=
 
####018000074####
SAAF18 LFPW 081100
METAR FIMP 081100Z 14018KT 9999 SCT016 25/17 Q1021=
####018000097####
SAAJ31 UBBB 081100
METAR UBBY 081100Z 15007KT 9999 NSC 34/16 Q1014 NOSIG
RMK R33/CLRD70 G/O=
####018000079####
SAAG SARE 081100
METAR SARE 081100Z 14007KT 9999 BKN006 SCT100 10/09 Q1019=
####018000082####
SAAG SARF 081100
METAR SARF 081100Z  18008KT 9999  BKN006 SCT018
14/12 Q1017=
####018000657####
SAKO31 RKSI 081100
METAR RKSI 081100Z 28002KT 9000 -RA FEW040 OVC110 24/19 Q1008
           NOSIG=
METAR RKSS 081100Z 18005KT 9999 -RA SCT030 OVC110 25/15 Q1008 
           NOSIG =
METAR RKPC 081100Z 09009KT 4500 BR SCT030 OVC120 25/20 Q1007 NOSIG =
METAR RKPK 081100Z 14004KT 9999 FEW030 BKN200 24/17 Q1009 NOSIG =
METAR RKTU 081100Z 31005KT 9000 SCT030 SCT100 OVC200 26/19 Q1009 
           TEMPO 4500 -RA =
METAR RKTN 081100Z 33003KT 8000 -RA FEW025CB BKN040 OVC200 25/23
           Q1008 NOSIG=
METAR RKJB 081100Z 09002KT 8000 FEW025 BKN150 25/18 Q1008 TEMPO 
           4200 RA =
METAR RKNY 081100Z AUTO 13003KT3000NDV NCD 20/18 Q1008 =
####018000541####
SAUS70 KWBC 081106
METAR
K2W6 081103Z AUTO 00000KT 2 1/2SM 24/24 A3001 RMK AO1 SKY
     OBSCURED=
KCGS 081105Z AUTO 00000KT 5SM CLR 26/24 A3001 RMK AO1=
KW29 081103Z AUTO 11003KT 2 1/2SM CLR 25/23 A3001 RMK AO1=
KCWV 081111Z AUTO 27004KT 10SM CLR 22/22 A3001 RMK AO2=
KFYJ 081103Z AUTO 00000KT 3SM CLR 26/25 A3000 RMK AO1=
KGEV 081103Z AUTO 00000KT 7SM CLR 25/16 A3020 RMK AO2=
KMLJ 081104Z AUTO 00000KT 4SM BR CLR 21/21 A3002 RMK AO2=
PABA 081101Z AUTO 17004KT 10SM OVC041 07/06 A3002 RMK AO2 SLP166
     T00670061=
####018000120####
SAUS80 KWBC 081100 RRC
METAR
KHMS 081050Z 31010KT 15SM SKC 20/07 A2995 RMK SLP140 T02010068
     RSNK 20/03011=
####018000394####
SARO32 LROM 081100
METAR LRAR 081100Z 35008KT 310V050 9999 SCT034 23/16 Q1020=
METAR LRBM 081100Z 27004KT 9999 SCT020 19/17 Q1019=
METAR LRCL 081100Z 29004KT 250V330 9999 FEW016 BKN026 17/13 Q1021
0821//95=
METAR LROD 081100Z 36010KT 9999 SCT045 22/13 Q1021=
METAR LRSM 081100Z 36006KT 310V050 9999 SCT040 22/13 Q1020=
METAR LRTM 081100Z 23006KT 9999 FEW015 SCT026 BKN031 17/14 Q1021=
####018000126####
SPUS80 KWBC 081106 CCA
SPECI
KBTR 081059Z 06003KT 2 1/2SM BR MIFG SCT003 BKN200 23/23 A3001 RMK
     AO2 SFC VIS 3 $=
####018000783####
SACH10 SCSC 081100
METAR
SCAR 081100Z VRB01KT 9999 OVC021 15/09 Q1016=
SCDA 081100Z 36008KT 9999 OVC026 14/08 Q1017=
SCFA 081100Z 00000KT 9999 OVC017 12/07 Q1016=
SCCF 081100Z 10027KT CAVOK M01/M16 Q1025=
SCAT 081100Z AUTO 02005KT 0500 NDV R17/0900VP2000D 
    RMID/0500V0750N // VV001 07/06 Q1017=
SCIP 081100Z 10003KT 9999 FEW012 BKN020 18/17 Q1023 TEMPO 5000 
-SHRA=
SCSE 081100Z 12003KT CAVOK 08/05 Q1017 NEFO PLAYA SKC=
SCEL 081100Z 04005KT 020V090 4000 BR SCT130 02/01 Q1021 NOSIG=
SCIE 081100Z 29012KT 5000 -SHRA BKN006 OVC007 13/11 Q1019=
SCTC 081100Z 27007KT 9999 BKN012 OVC025 10/09 Q1014 RESHRA=
SCTE 081100Z 27004KT 6000 VCSH BKN025 08/07 Q1010 NOSIG=
SCBA 081100Z AUTO 28012KT CAVOK M02/M04 Q1001=
SCCI 081100Z 36012KT 9999 SCT025 M03/M05 Q0987 NOSIG=
####018000087####
SACO20 SKBO 081058
METAR SKBQ 081100Z 22004KT 2000 BR SCT004 25/25 A2987 RMK APRSM=
####018000123####
SAAF17 LFPW 081100
METAR HLLS 081050Z VRBO8KT  CAVOK 36/10 Q1O17=
METAR HLLT 081050Z 33005KT 280V030 8000 31/19 Q1019=
####018000123####
SAUS80 KWBC 081100 CCD
METAR
KWAL 081054Z AUTO 12005KT 10SM BKN095 25/22 A3001 RMK AO2 SLP158
     T02500222 TSNO=
####018000529####
SPXX60 KWBC 081106
SPECI
KCEF 081102Z AUTO 16005KT 10SM BKN009 24/22 A3006 RMK AO2 CIG
     009V011 SLP180 PWINO $=
KFRI 081058Z AUTO 03003KT 9SM SCT006 BKN016 BKN160 21/21 A3010 RMK
     AO2 BKN016 V SCT SLP182=
KLTS 081059Z AUTO 05004KT 10SM SCT022 BKN029 23/23 A3006 RMK AO2
     BKN V SCT CIG 020 RWY35L SLP166 $=
KNMM 081057Z 00000KT 7SM FEW250 22/21 A3006 RMK AO2 $=
KRND 081103Z AUTO 04005KT 10SM BKN007 BKN060 25/23 A2994 RMK AO2
     SLP129=
KNFW 081103Z 11004KT 10SM BKN012 26/22 A3005 RMK AO2=
####018000028####
SAAA31 KWBC 081100
NIL=
####018001873####
SPUS70 KWBC 081106
SPECI
KARB 081102Z AUTO 00000KT 2SM BR CLR 21/19 A3004 RMK AO2=
KGGG 081102Z 09004KT 9SM FEW002 24/24 A3003 RMK AO2=
PASC 081101Z 25010KT 10SM SCT024 SCT080 OVC210 10/07 A3002 RMK
     AO2=
KAUW 081103Z AUTO 31005KT 9SM OVC006 19/18 A3002 RMK AO2 CIG
     004V009 $=
KCCR 081103Z AUTO 24004KT 10SM SCT013 13/10 A2990 RMK AO2=
KDGW 081103Z AUTO 00000KT 1 3/4SM BR CLR 06/05 A3035 RMK AO2 VIS
     1V4 $=
KESF 081103Z AUTO 00000KT 5SM BR BKN013 23/22 A3003 RMK AO2=
KGON 081103Z 08004KT 3SM BR BKN002 OVC013 23/21 A3007 RMK AO2=
KITR 081103Z AUTO 18003KT 8SM FEW005 BKN010 OVC055 16/15 A3030 RMK
     AO2 CIG 007V012=
KLAF 081103Z 00000KT 3SM BR BKN060 23/22 A3004 RMK AO2=
KLAR 081103Z AUTO 00000KT 10SM SCT006 OVC020 08/07 A3040 RMK
     AO2=
KLVJ 081103Z AUTO 14013G26KT 1 3/4SM +RA FEW019 SCT035 SCT047
     27/23 A2994 RMK AO2 PK WND 13026/1101 RAB02 PRESRR P0009=
KMMK 081103Z AUTO 16006KT 2SM BR OVC008 25/23 A3006 RMK AO2=
KMTH 081103Z AUTO 00000KT 4SM -RA BR SCT021 BKN039 OVC060 26/24
     A2993 RMK AO2 LTG DSNT NE P0001 $=
KPKB 081103Z 00000KT 1/4SM R03/0600FT FG CLR 20/19 A3012 RMK
     AO2=
KVPZ 081103Z AUTO 15004KT 1 3/4SM TSRA BR FEW029 BKN048 OVC080
     23/22 A3005 RMK AO2 RAB1054 P0004=
KNSE 081103Z 00000KT 3/4SM BR FEW001 SCT250 22/21 A3003 RMK AO2
     $=
KAAO 081104Z AUTO 34005KT 10SM SCT006 21/20 A3008 RMK AO2=
KBED 081104Z 17007KT 6SM HZ BKN016 BKN070 24/21 A3007 RMK AO2=
KBMQ 081104Z AUTO 00000KT 10SM BKN013 BKN023 23/22 A3001 RMK AO2
     $=
KHAO 081104Z AUTO 00000KT 2SM BR CLR 22/20 A3009 RMK AO2=
KILN 081104Z AUTO 00000KT 2 1/2SM BR CLR 21/20 A3009 RMK AO2=
KTUL 081104Z 00000KT 10SM FEW012 BKN055 BKN080 23/22 A3002 RMK AO2
     TSE04RAE1055 OCNL LTGIC DSNT NE TS MOV N P0000=
KUCP 081105Z AUTO 00000KT 1 1/2SM BR CLR 19/19 A3011 RMK AO2 $=
####018000028####
SAAF32 KWBC 081100
NIL=
####018000121####
SAUS80 KWBC 081106 CCA
METAR
KWAL 08ò054Z AUTO 1&Ç™ZQÅ10SM BKN095 25Ø&& Õ001 RMK AO2 SLP158
     T02%00222 TSÍ5=
####018002147####
SAUS70 KWBC 081100 RRI
METAR
K2G4 081100Z AUTO 00000KT 10SM SCT065 23/13 A3019 RMK AO1=
KVVG 081055Z AUTO 00000KT 21/20 A3000 RMK AO2=
KW22 081100Z AUTO 00000KT 1 3/4SM BR CLR 19/19 A3013 RMK AO2=
KW45 081100Z AUTO 00000KT 7SM CLR 24/20 A3006 RMK AO2
     T02360197=
KWDR 081100Z AUTO 32003KT 10SM CLR 22/20 A3007 RMK AO1=
KXLL 081100Z AUTO 06003KT 5SM BR CLR 25/23 A3004 RMK AO2
     T02480227=
KXSA 081100Z AUTO 00000KT 3SM SCT120 25/24 A2999 RMK AO2 PWINO=
KUXL 081100Z AUTO 06008KT 10SM SCT009 26/25 A2998 RMK AO2=
KEXX 081100Z AUTO 00000KT 7SM CLR 22/19 A3002 RMK AO2=
KGAO 081100Z AUTO 07003KT 10SM SCT017 26/25 A3000 RMK AO2=
KIER 081100Z AUTO 00000KT 5SM SCT017 23/23 A3003 RMK AO2 PWINO=
KIXA 081100Z AUTO 02003KT 5SM HZ CLR 24/21 A2996 RMK AO2
     T02350205=
KJFZ 081100Z AUTO 00000KT 3SM CLR 20/20 A3017 RMK=
KLDJ 081100Z AUTO 13004KT 2SM BR OVC002 25/23 A3004 RMK AO2
     T02450231=
KLHZ 081100Z AUTO 00000KT 5SM HZ SCT120 24/20 A2999 RMK AO2
     T02390201=
KMDQ 081100Z AUTO 00000KT 7SM CLR 22/21 A3008 RMK AO2
     T02200212=
KMKJ 081100Z AUTO 00000KT 2 1/2SM CLR 18/07 A3022 RMK AO1 VIS
     2V3=
KMTV 081100Z AUTO 00000KT 4SM BR CLR 22/21 A3006 RMK AO2=
KOKV 081100Z AUTO 00000KT 4SM HZ SCT080 SCT095 23/20 A3005 RMK AO2
     T02280196=
KOMH 081100Z AUTO 00000KT 7SM CLR 25/21 A3003 RMK AO2
     T02480206=
KPCM 081100Z AUTO 02003KT 7SM CLR 22/22 A3001 RMK AO2=
KRCZ 081100Z AUTO 00000KT 10SM CLR 24/19 A2997 RMK AO2
     T02370188=
KRMN 081100Z AUTO 00000KT 4SM BR CLR 23/23 A3003 RMK AO2=
KSFQ 081100Z AUTO 07003KT 2 1/2SM BR SCT090 26/24 A2998 RMK
     AO2=
KSHD 081100Z AUTO 00000KT 4SM HZ CLR 22/18 A3009 RMK AO2=
KTBR 081100Z AUTO 26004KT 10SM CLR 23/20 A3000 RMK AO2
     T02330204=
KVDF 081056Z AUTO 00000KT 5SM BR CLR 22/21 A2999 RMK AO2=
KOSC 081054Z AUTO 00000KT 5SM BR CLR 22/21 A3000 RMK AO2=
KEFD 081050Z 10010KT 8SM FEW020 SCT045 BKN130 28/25 A2993=
KIWA 081059Z AUTO 00000KT 10SM CLR 31/02 A2980 RMK AO2=
KCLS 081055Z AUTO 00000KT 10SM CLR 13/12 A2996 RMK AO2=
KGZL 081055Z AUTO 17005KT 10SM OVC043 24/23 A3003 RMK AO2=
####018001372####
SAXX60 KWBC 081100 RRF
METAR
KNEL 081100Z AUTO 11006KT 2 1/2SM HZ OVC005 25/22 A3003 RMK AO2
     SLP168 T02500222 $=
KNGU 081059Z 11004KT 5SM BR FEW008 SCT070 BKN120 26/23 A2998 RMK
     AO2 SLP153 T02610233=
KNID 081056Z AUTO 18007KT FEW090 22/04 A2985 RMK AO2 SLP083
     T02170039 TSNO $=
KNLC 081056Z AUTO 30007KT 10SM CLR 17/11 A2982 RMK AO2 SLP095
     T01720106 TSNO $=
KNTU 081056Z 11007KT 10SM SCT005 SCT015 BKN035 BKN130 25/23 A2996
     RMK AO2 SLP149 T02500233 $=
KNUW 081056Z 00000KT 10SM CLR 13/11 A2997 RMK AO2 SLP152 T01330106
     $=
KRCA 081055Z 00000KT 8SM CLR 11/08 A3025 RMK AO2A SLP235 T01120081
     $=
KTBN 081055Z COR 15003KT 9SM FEW020 BKN070 BKN085 23/22 A3006 RMK
     SLP162 T0225 COR 1102 $=
KVPS 081055Z 03001KT 5SM BR FEW010 23/23 A3003 RMK AO2A VIS NE 2
     AND W 2 SLP169 T02310231=
K79J 081056Z AUTO 00000KT 10SM CLR 23/21 A3003 RMK AO2 SLP163
     T02330206 TSNO $=
K79J 081056Z AUTO 00000KT 10SM CLR 23/21 A3003 RMK AO2 SLP163
     T02330206 TSNO $=
KCVS 081055Z 01007KT 10SM BKN120 16/15 A3020 RMK AO2A SLP184
     T01600150 $=
KNBC 081056Z 25003KT 7SM CLR 24/19 A2998 RMK AO2 SLP152
     T02390194=
KNJM 081057Z AUTO 01004KT 5SM HZ CLR 26/22 A2993 RMK AO2 SLP137
     T02560222 $=
KNUQ 081056Z AUTO 01005KT 10SM OVC011 15/12 A2992 RMK AO2 SLP135
     T01500117 TSNO=
####018000342####
SAAF35 KWBC 081100
METAR
HDAM NIL=
HEAX NIL=
HEBA NIL=
HEBL NIL=
HECA 081100Z 33008KT CAVOK 33/17 Q1010 NOSIG=
HEGN NIL=
HELX NIL=
HEMM NIL=
HEPS NIL=
HERN NIL=
HESC NIL=
HESN NIL=
HLLB NIL=
HLLS NIL=
HLLT 081050Z 33005KT 280V030 8000 31/19 Q1019=
HSKA NIL=
HSPN NIL=
HSSJ NIL=
HSSP NIL=
HSSS NIL=
####018000393####
SAAF33 KWBC 081100
METAR
FLLI NIL=
FLLS 081100Z 05014KT 9999 BKN035 19/08 Q1027=
FLMF NIL=
FLND NIL=
FNHU NIL=
FNLU NIL=
FQBR 081100Z 18008KT 9999 SCT020 24/17 Q1026=
FQMA NIL=
FVBU 081100Z NIL=
FVCZ 081100Z NIL=
FVFA 081100Z NIL=
FVHA 081100Z 12012KT CAVOK 17/05 Q1029 NOSIG=
FVMV 081100Z NIL=
FVTL 081100Z NIL=
FWCL NIL=
FWGL NIL=
FWKI NIL=
FWUU NIL=
####018000585####
SAEW31 LEMM 081100
METAR LEMD 081100Z 18006KT 120V260 CAVOK 33/11 Q1020 NOSIG=
METAR LEBL 081100Z 20015KT CAVOK 27/21 Q1019 NOSIG=
METAR LEPA 081100Z 23007KT 200V260 CAVOK 30/11 Q1020 NOSIG=
METAR LEZL 081100Z 30006KT 260V350 9999 SCT025 30/17 Q1015 NOSIG=
METAR LEMG 081100Z 15011KT 100V200 9999 FEW030 31/13 Q1017 NOSIG=
METAR LEVC 081100Z 08004KT 340V150 CAVOK 32/20 Q1019 NOSIG=
METAR LEAL 081100Z 08009KT 050V110 CAVOK 31/13 Q1019 NOSIG=
METAR LEIB 081100Z 08010KT 050V120 CAVOK 29/21 Q1019 NOSIG=
METAR LELC 081100Z NIL=
METAR LEVX 081100Z 26010KT CAVOK 26/22 Q1014=
####018000519####
SAAF34 KWBC 081100
METAR
FALA 081100Z 02008KT 340V050 9999 SCT035 18/04 Q1033 NOSIG=
FBDR NIL=
FBFT NIL=
FBGR NIL=
FBGZ NIL=
FBJW NIL=
FBKE NIL=
FBMN 081100Z 09012KT CAVOK 23/06 Q1027=
FBMP NIL=
FBSK 081100Z 06008KT 9999 BKN020 19/08 Q1031 NOSIG=
FBSP NIL=
FBSW NIL=
FBTE NIL=
FBTS NIL=
FDMS 081100Z 00000KT 9999 BKN030 18/13 Q1031 NOSIG=
FEFF NIL=
FXMM NIL=
FXMU NIL=
FYWB 081100Z 07022KT 9999 R09/M0050VP1500N VV/// 32/03 Q1016=
FYWH 081100Z 01010G25KT CAVOK 19/M01 Q1029=
####018000368####
SAAF31 KWBC 081100
METAR
DBBB NIL=
DGAA NIL=
DGSI NIL=
DIAP 081100Z 21008KT 7000 SCT012 BKN070 28/24 Q1015 NOSIG=
DIAV NIL=
DIBK NIL=
DIST NIL=
DNAA NIL=
DNCA NIL=
DNIL NIL=
DNKA NIL=
DNKN NIL=
DNMA NIL=
DNMM NIL=
DNPO NIL=
DNSO NIL=
DRRN NIL=
DRZA NIL=
DXNG NIL=
DXXX 081100Z 20010KT 180V250 9999 SCT016 29/24 Q1015 NOSIG=
####018000097####
SAHK31 VHHH 081100
METAR VHHH 081100Z 21009KT 140V230 9999 FEW015 SCT028 31/25 
Q1006 NOSIG=
####018001103####
SAAK31 KWBC 081100
METAR
PABR 081053Z 25017G22KT 10SM BKN200 06/03 A2998=
PACD 081053Z 15006KT 10SM FEW050 SCT180 06/04 A2993=
PAED 081055Z AUTO 00000KT 10SM FEW090 11/10 A2998=
PAEI 081055Z AUTO 00000KT 10SM CLR 09/06 A3004=
PAEN 081053Z AUTO 02012KT 10SM FEW080 14/11 A2994=
PAFA 081053Z 07003KT 10SM FEW200 12/08 A3004=
PAFS 081056Z AUTO 07005KT 10SM CLR 14/06 A2999=
PAFY NIL=
PAJN 081053Z 00000KT 10SM FEW230 10/09 A3018=
PAKN 081054Z 34004KT 10SM OVC065 10/09 A2991=
PAKT 081053Z AUTO 32006KT 10SM CLR 17/12 A3008=
PANC 081053Z 17003KT 10SM -RA SCT075 OVC090 12/11 A2998=
PAOM 081053Z 35008KT 10SM FEW095 SCT200 14/08 A3009=
PAOR 081053Z 00000KT 10SM FEW070 09/09 A3008=
PAOT 081053Z 29008KT 10SM FEW038 SCT090 BKN200 12/08 A3012=
PARY 081056Z AUTO 35004KT 10SM CLR 15/06 A3006=
PASC 081053Z 25011KT 10SM BKN024 BKN080 OVC210 11/07 A3002=
PASG NIL=
PASI 081053Z 24003KT 10SM BKN002 13/12 A3018=
PATQ 081056Z AUTO 25013KT 10SM CLR 09/03 A3004=
PAVD 081056Z 00000KT 10SM OVC080 11/08 A3009=
PAWG 081056Z AUTO 00000KT 10SM CLR 13/10 A3013=
PFYU NIL=
####018000335####
SAAF36 KWBC 081100
METAR
HAAB NIL=
HAAY NIL=
HADR NIL=
HBBA NIL=
HCMH NIL=
HCMI NIL=
HCMK NIL=
HCMM NIL=
HCMV NIL=
HEMA NIL=
HFFF NIL=
HKJK NIL=
HKMO NIL=
HKNA NIL=
HRYR 081100Z 16008KT 9999 BKN030 25/12 Q1021 NOSIG=
HTDA NIL=
HTKJ NIL=
HTZA NIL=
HUEN NIL=
HUKS NIL=
HUMA NIL=
HUSO NIL=
####018000026####
SAKY31 RUMS 081100
NIL
####018000028####
SAAL31 KWBC 081100
NIL=
####018000408####
SACZ43 LKPW 081100
METAR LKCV 081100Z VRB03KT CAVOK 23/08 Q1023 NOSIG=
METAR LKKB 081100Z 28003KT 220V020 9999 FEW043 SCT200 23/08
           Q1023 NOSIG=
METAR LKLN 081100Z AUTO 18004KT 140V270 CAVOK 24/10 Q1024=
METAR LKNA 081100Z 36005KT CAVOK 21/09 Q1024 NOSIG=
METAR LKPD 081100Z VRB04KT 9999 FEW045 SCT100 24/07 Q1023
           NOSIG=
METAR COR LKPO 081100Z 34003KT CAVOK 22/11 Q1023 NOSIG=
####018001792####
SAEU KAWN 081100 RRO
METAR LEGT 081100Z 18004KT CAVOK 31/13 Q1020=
METAR LERI 081100Z 09007KT CAVOK 34/22 Q1018 NOSIG=
METAR LERT 081100Z 27005KT 240V330 CAVOK 26/20 Q1016 NOSIG=
METAR COR LFBL 081100Z 15007KT 100V170 CAVOK 28/13 Q1020 NOSIG=
METAR LFBZ 081100Z 05006KT 010V090 CAVOK 30/23 Q1015 NOSIG=
METAR LFCR 081100Z AUTO VRB06KT 9999NDV NSC 31/05 Q1022=
METAR LFJL 081100Z AUTO VRB02KT 9999NDV NSC 29/08 Q1021=
METAR LFLS 081100Z 25007KT 180V290 9999 FEW050 30/14 Q1021 NOSIG=
METAR LFLY 081100Z VRB05KT CAVOK 30/14 Q1020 NOSIG=
METAR LFMT 081100Z 16005KT CAVOK 30/17 Q1020 NOSIG=
METAR LFMU 081100Z AUTO 16008KT 110V200 9999NDV NSC 30/12 Q1020=
METAR LFOA 081100Z AUTO VRB03KT 9999NDV NSC 30/14 Q1019=
METAR LFOB 081100Z 21006KT 180V340 CAVOK 30/11 Q1019 NOSIG=
METAR LFOC 081100Z AUTO 23004KT 170V320 9999NDV NSC 31/10 Q1019=
METAR LFOE 081100Z 02004KT 350V090 CAVOK 30/10 Q1018=
METAR LFOH 081100Z AUTO 35014KT //// R23///// NSC 22/12 Q1019=
METAR LFOJ 081100Z VRB04KT CAVOK 30/13 Q1019=
METAR LFOP 081100Z 17004KT 110V260 CAVOK 29/13 Q1019 NOSIG=
METAR LFPB 081100Z 06003KT 310V100 CAVOK 30/10 Q1018 NOSIG=
METAR LFPC 081100Z VRB03KT CAVOK 30/12 Q1019=
METAR LFPV 081100Z AUTO VRB03KT 9999NDV NSC 29/11 Q1019=
METAR LFQI 081100Z 23005KT 130V280 CAVOK 29/11 Q1019=
METAR LFSD 081100Z AUTO VRB03KT 9999NDV NSC 29/13 Q1020=
METAR LFSF 081100Z AUTO VRB02KT 9999NDV NSC 30/10 Q1020=
METAR LFSI 081100Z AUTO VRB03KT 9999NDV NSC 31/10 Q1020=
METAR LFSN 081100Z VRB03KT CAVOK 30/14 Q1020 NOSIG=
METAR LFSO 081100Z AUTO 23004KT 180V300 9999NDV NSC 30/10 Q1020=
METAR LFSR 081100Z AUTO VRB03KT 9999NDV NSC 31/10 Q1019=
METAR LFSX 081100Z AUTO 15005KT 090V200 9999NDV NSC 29/13 Q1020=
METAR LFYR 081100Z VRB03KT CAVOK 31/11 Q1018=
####018000971####
SAAO31 KWBC 081100
METAR
GCFV 081100Z 05012KT 9999 FEW018 23/18 Q1017=
GCHI 081100Z 01011KT 330V040 9999 SCT013 OVC019 21/18 Q1018=
GCLA 081100Z 02012KT 330V050 9999 BKN020 24/17 Q1019=
GCLP 081100Z 01026KT 9999 FEW020 25/18 Q1017 NOSIG=
GCRR 081100Z 36015KT 320V020 9999 FEW020 25/18 Q1017=
GCTS 081100Z 08014KT 9999 FEW015 25/17 Q1017 NOSIG=
GCXO 081100Z 29012KT 9999 SCT004 20/17 Q1020 NOSIG=
GEML 081100Z 08008KT 050V120 9999 FEW013 26/21 Q1017=
GMAA NIL=
GMAT NIL=
GMFF 081100Z 32004KT 8000 FEW033 SCT100 30/19 Q1018 NOSIG=
GMFO 081100Z 20012KT CAVOK 42/10 Q1018 NOSIG=
GMME 081100Z 35007KT 320V020 6000 SCT010 BKN015 24/19 Q1016
     NOSIG=
GMMN 081100Z 35009KT 310V020 9999 SCT016 BKN023 27/19 Q1017
     NOSIG=
GMMX 081100Z 33007KT 7000 FEW026 32/15 Q1016 NOSIG=
GMOY NIL=
GMTA 081100Z 36008KT CAVOK 25/19 Q1016=
GMTN 081100Z NIL=
GMTT 081100Z 28008KT 240V310 8000 SCT016 SCT100 25/20 Q1016
     NOSIG=
GSAI NIL=
####018000227####
SAAO32 KWBC 081100
METAR
GABS NIL=
GAGO NIL=
GAKY NIL=
GAMB NIL=
GANR NIL=
GATB NIL=
GQNI NIL=
GQNK NIL=
GQNN 081100Z 18012KT 6000 SCT020 30/23 Q1013 NOSIG=
GQNP NIL=
GQPH NIL=
GQPP NIL=
GQPV NIL=
####018000382####
SANM40 FYWW 081100
METAR FYAN 081100Z AUTO 03008KT //// // ////// 21/02 Q1028=
METAR FYKX 081100Z AUTO 13014KT //// // ////// ///// Q1024=
METAR FYWB 081100Z 07022KT 9999 R09/M0050VP1500N VV/// 32/03 Q1016 =
METAR FYWB 081100Z 07022KT 9999 R09/M0050VP1500N VV/// 32/03 Q1016 =
METAR FYWH 081100Z 01010G25KT CAVOK 19/M01 Q1029=
METAR FYWW 081100Z 03011KT CAVOK 19/M02 Q1027=
####018000323####
SAAO33 KWBC 081100
METAR
GBYD 081100Z 22004KT 9999 SCT011 FEW020CB 32/26 Q1013 CB E-W=
GFLL NIL=
GGOV NIL=
GLRB NIL=
GOGG NIL=
GOGS NIL=
GOOY 081100Z 18007KT 150V210 9999 SCT013 30/24 Q1012 NOSIG=
GOSS NIL=
GOTT NIL=
GOTY NIL=
GUCY NIL=
GUFH NIL=
GULB NIL=
GUNZ NIL=
GUOK NIL=
GUXD NIL=
####018000571####
SACO20 SKBO 081058
METAR SKBO 081100Z VRB02KT 1200 PRFG BKN010 11/10 A3031 NOSIG=
METAR SKBQ 081100Z 22004KT 2000 BR SCT004 25/25 A2987 RMK APRSM=
METAR SKCL 081100Z 00000KT 9999 BKN020 BKN080 21/19 A3000=
METAR SKCG 081100Z VRB02KT 9999 FEW012TCU 26/25 A2886 RMK TC/NNW=
METAR SKCC NIL=
METAR SKLT 081100Z 00000KT 9999 SCT015 BKN080 24/24 A2988 RMK APCLO=
METAR SKRG 081100Z 00000KT 2500 BCFG BKN003 BKN080 14/14 A3028=
METAR SKSP 081100Z 08006KT 9999 SCT015 28/25 A2982=
METAR SKBG 081100Z 00000KT 9999 SCT012 SCT080 19/19 A3003 RMK MIFG/S=
METAR SKPE NIL=
####018000237####
SPUS80 KWBC 081106
SPECI
KAKQ 081103Z AUTO 00000KT 1 3/4SM BR FEW015 24/22 A2999 RMK AO2
     TSNO=
KLEX 081103Z 00000KT 3SM HZ CLR 22/19 A3010 RMK AO2=
KCNU 081104Z AUTO 02004KT 1 3/4SM BR OVC003 22/21 A3006 RMK
     AO2=
####018000083####
SAAG SAWG 081100
METAR SAWG 081100Z  29016KT 9999  SCT025 SCT100
03/M06 Q0991=
####018001179####
SAAU31 KWBC 081100
METAR
YAYE NIL=
YBAS 081100Z AUTO 07007KT 9999NDV // NCD 09/06 Q1020=
YBBN 081100Z 19009KT 9999 FEW040 SCT090 17/11 Q1020 NOSIG=
YBCG NIL=
YBCS 081100Z 16008KT 9999 FEW024 BKN040 23/20 Q1016 NOSIG=
YBMA NIL=
YBRK NIL=
YBRM NIL=
YBTL 081100Z 13007KT 9999 FEW015 BKN040 22/20 Q1017=
YDDN NIL=
YDTN NIL=
YMHB NIL=
YMML 081100Z 00000KT 9999 FEW043 SCT250 08/06 Q1028 NOSIG=
YPAD 081100Z 09006KT CAVOK 07/04 Q1026 NOSIG=
YPBR NIL=
YPCC 081100Z AUTO 14009KT 9999NDV // SCT043 SCT058 26/22 Q1012=
YPDN 081100Z 03005KT CAVOK 26/20 Q1013 NOSIG=
YPEA NIL=
YPLM 081100Z AUTO 20003KT 9999NDV // BKN023 OVC028 21/17 Q1009=
YPPD NIL=
YPPH 081100Z 01010KT 9999 FEW024 BKN083 14/13 Q0998 INTER
     1100/1200 27025G35KT 3000 +SHRA BKN010 INTER 1200/1400
     27030G50KT 2000 TSGS BKN010 FEW030CB=
YPTN 081100Z AUTO 11005KT 9999NDV // SCT049 23/16 Q1015=
YPXM 081100Z AUTO 20005KT 9999NDV // NCD 23/20 Q1013=
YSCB NIL=
YSDU NIL=
YSNF NIL=
YSRI NIL=
YSSY 081100Z 22011KT 9999 VCSH FEW006 SCT040 BKN055 12/11 Q1027
     FM1100 22010KT 9999 -SHRA SCT025 BKN040 INTER 1100/1400 5000
     SHRA BKN010=
YYPY NIL=
####018000086####
SAUS80 KWBC 081106
METAR
KCBE 081103Z AUTO 00000KT 5SM CLR 21/19 A3011 RMK AO1=
####018000633####
SAAW33 KWBC 081100
METAR
OBBI NIL=
OMAA 081100Z 03006KT 290V100 CAVOK 43/15 Q0998 A2948 NOSIG=
OMAL 081100Z 27004KT 210V350 7000 TS FEW045CB 42/25 Q1001
     A2956=
OMDB 081100Z 33015KT 280V350 7000 NSC 40/24 Q0999 NOSIG=
OMFJ 081100Z 11009KT 040V140 7000 FEW020 35/27 Q1001 A2956=
OMRK 081100Z 34010KT CAVOK 42/32 Q0998 A2948=
OMSJ 081100Z 33012KT 290V360 6000 NSC 41/25 Q0999=
OOMA NIL=
OOMS NIL=
OOSA NIL=
OOTH NIL=
OPMT NIL=
OYAA 081100Z 21015KT 6000 NSC 34/20 Q1001=
OYAR NIL=
OYHD NIL=
OYJA NIL=
OYMB 081100Z 06016KT 6000 FEW030 41/M05 Q1004=
OYSM NIL=
OYSN 081100Z NIL=
OYTZ NIL=
####018000370####
SAAW31 KWBC 081100
METAR
LLBG NIL=
LLBS NIL=
LLET NIL=
LLJR NIL=
LLOV NIL=
LTAC NIL=
LTAF NIL=
LTAI NIL=
LTBA NIL=
LTBJ NIL=
LTBS NIL=
OEPS NIL=
OJAI 081100Z 28009KT CAVOK 32/02 Q1012 NOSIG=
OJAM 081100Z 23006KT 6000 NSC 32/01 Q1012 NOSIG=
OJJR NIL=
OLBA 081100Z 24008KT 210V290 8000 FEW080 29/20 Q1011 NOSIG=
UGEE NIL=
UGGG NIL=
####018001505####
SAAW32 KWBC 081100
METAR
OEDF 081100Z 36016KT CAVOK 45/03 Q0999 NOSIG=
OEDR 081100Z 02011KT 8000 SKC 43/09 Q0998 NOSIG=
OEJN 081100Z 33010KT CAVOK 38/25 Q1001 NOSIG=
OEMA 081100Z 06012KT 9999 FEW045 46/M01 Q1005 NOSIG=
OERK 081100Z 36017G29KT 5000 BLDU SKC 43/M03 Q1006 NOSIG=
OIAA 081100Z 33012KT CAVOK 48/04 Q0998=
OIAW 081100Z 21006KT CAVOK 47/08 Q0997 A2946=
OIBB 081100Z 26012KT CAVOK 35/28 Q0999 A2951=
OIBK 081100Z 16010KT 5000 HZ SKC 37/23 Q0999 A2952=
OICC 081100Z 21018KT CAVOK 42/M05 Q1012 A2989 863.9=
OICK 081100Z NIL=
OICS 081100Z 21012KT CAVOK 41/01 Q1011 A2988=
OIFM 081100Z 11004KT CAVOK 39/08 Q1016 A3001=
OIFP NIL=
OIGG 081100Z 36004KT CAVOK 32/21 Q1010 A2985=
OIHH 081100Z NIL=
OIII 081100Z NIL=
OIIM NIL=
OIIP NIL=
OIIX NIL=
OIKB 081100Z 21008KT 4500 HZ NSC 37/26 Q1000 A2954=
OIKK 081100Z 27006KT CAVOK 36/M00 Q1016 A3001=
OIMM 081100Z 05016KT CAVOK 39/M01 Q1014 A2995=
OINN NIL=
OINR NIL=
OINZ 081100Z 30010KT CAVOK 34/22 Q1010 A2984=
OISM NIL=
OISS 081100Z NIL=
OITL 081100Z 08020KT CAVOK 26/12 Q1018 A3007=
OITR 081100Z 05004KT CAVOK 34/13 Q1013 A2993=
OITT 081100Z NIL=
OIYY 081100Z 09008KT CAVOK 41/M09 Q1013 A2993=
OIZH 081100Z NIL=
OKBK 081100Z 34020KT 7000 -BLDU SKC 48/M09 Q0999 NOSIG=
ORBI NIL=
ORBS NIL=
ORMM NIL=
OSAP 081100Z 29017KT CAVOK 33/17 Q1006=
OSDI 081100Z 20016KT CAVOK 38/01 Q1009=
OSLK 081100Z 23012KT 9999 SCT030 28/20 Q1009=
OTBD NIL=
OTBH NIL=
OTMA NIL=
OTMS NIL=
####018000073####
SAAW34 KWBC 081045 RRE
METAR
OAKB 081100Z NIL=
OAKN 081100Z NIL=
####018000313####
SAAW42 KWBC 081100
METAR
OBAH NIL=
OBBI NIL=
OBBQ NIL=
OBSC NIL=
OBZI NIL=
OJAQ 081100Z NIL=
OKBC NIL=
OKTK NIL=
OKZK NIL=
OMAD 081100Z 27004KT CAVOK 44/18 Q0998 A2949=
OMAU NIL=
OMDZ NIL=
OMGK NIL=
OMMA NIL=
OMMS NIL=
OMSA NIL=
OMSQ NIL=
OMSR NIL=
OSAS NIL=
OSGN NIL=
####018000028####
SABO41 KWBC 081100
NIL=
####018000984####
SABZ31 KWBC 081100
METAR
SBBE 081100Z 11006KT 9999 FEW017 BKN080 26/23 Q1013=
SBBR 081100Z 26002KT CAVOK 15/09 Q1024=
SBBV 081100Z 23002KT 9999 FEW020 SCT030 26/24 Q1012=
SBCF 081100Z 13003KT CAVOK 13/09 Q1024=
SBCG 081100Z 08009KT CAVOK 19/08 Q1017=
SBEG 081100Z 00000KT 9999 FEW010 SCT100 24/22 Q1012=
SBFI 081100Z 14006KT 9999 FEW020 SCT100 14/13 Q1016=
SBFZ 081100Z 15007KT 9999 SCT018 BKN100 26/21 Q1015=
SBGL 081100Z 06003KT 8000 NSC 18/16 Q1018=
SBGR 081100Z 10001KT 8000 NSC 12/10 Q1021=
SBKP 081100Z 04002KT 6000 NSC 13/10 Q1021=
SBNT 081100Z 19006KT 9999 FEW023 BKN100 24/22 Q1015=
SBPA 081100Z 23004KT 9999 BKN020 OVC045 16/13 Q1019=
SBPS 081100Z 28007KT 9999 8000SW VCSH FEW005 BKN050 BKN090 18/18
     Q1020=
SBRF 081100Z 23004KT 9999 FEW020 BKN070 24/22 Q1016=
SBSL 081100Z 09004KT 9999 FEW015 BKN100 27/25 Q1014=
SBSN 081100Z 11001KT 9999 FEW018 26/22 Q1012=
SBSV 081100Z 24007KT 5000 BR SCT011 SCT017 24/21 Q1018=
SBTT NIL=
####018000772####
SAZA31 FAPR 081100
METAR FABL 081100Z 34010KT 9999 FEW045 18/06 Q1032 NOSIG=
METAR FACT 081100Z VRB02KT CAVOK 21/03 Q1019 NOSIG=
METAR FAEL 081100Z 05010KT 020V080 9999 FEW040 22/11 Q1025=
METAR FAGG 081100Z VRB02KT CAVOK 17/07 Q1021=
METAR FAJS 081100Z 06007KT 020V080 9999 SCT039 14/04 Q1035 NOSIG=
METAR FAKN 081100Z 15006KT 9999 BKN025 17/11 Q1032 NOSIG=
METAR FALA 081100Z 02008KT 340V050 9999 SCT035 18/04 Q1033 NOSIG=
METAR FALE 081100Z 06012KT CAVOK 23/14 Q1028 NOSIG=
METAR FAMM 081100Z 02010KT 9999 FEW040 18/04 Q1031 NOSIG=
METAR FAPE 081100Z 04013KT CAVOK 17/10 Q1023 NOSIG=
METAR FAPN 081100Z AUTO 08003KT //// // ////// 20/06 Q1031=
METAR FAPP 081100Z 08008KT 9999 BKN035 15/07 Q1031 NOSIG=
METAR FAUP 081100Z 35021KT CAVOK 22/02 Q1026 NOSIG=
####018000582####
SABZ41 KWBC 081100
METAR
SBAA NIL=
SBAF NIL=
SBAR 081100Z 23006KT CAVOK 24/22 Q1017=
SBBG NIL=
SBBH NIL=
SBBI NIL=
SBBU NIL=
SBCJ 081100Z 10002KT CAVOK 24/18 Q1018=
SBCO NIL=
SBCR 081100Z 14007KT CAVOK 25/10 Q1013=
SBCT 081100Z 04003KT CAVOK 13/11 Q1021=
SBCV NIL=
SBCY 081100Z 02007KT CAVOK 21/14 Q1015=
SBCZ 081100Z 00000KT 8000 SCT030 SCT100 23/23 Q1012=
SBDN NIL=
SBFL 081100Z 16009KT CAVOK 20/16 Q1017=
SBFN 081100Z 17008KT 9999 SCT017 26/23 Q1015=
SBGO 081100Z 00000KT CAVOK 16/12 Q1021=
SBGW NIL=
SBHT NIL=
SBIH NIL=
SBIL NIL=
####018000172####
SAAY31 RUMS 081100
METAR UDYZ 081100Z 21002MPS 130V270 9999 FEW050 37/13 Q1009 09010070
NOSIG=
METAR UDSG 081100Z 07010MPS 9999 SCT050TCU 30/15 Q1015 02CLRD70
NOSIG=
####018000321####
SARO33 LROM 081100
METAR LRBC 081100Z 01012KT 9999 BKN026 22/16 Q1017=
METAR LRCV 081100Z VRB04KT 9999 FEW033 23/14 Q1017=
METAR LRIA 081100Z 31012KT 280V350 9999 FEW016 SCT022 22/17 Q1017=
METAR COR LRSV 081100Z 32013KT 9999 BKN012 OVC028 17/14 Q1019=
METAR LRTC 081100Z 36008KT 9999 FEW030CB BKN040 23/17 Q1015=
####018000791####
SABZ42 KWBC 081100
METAR
SBJR NIL=
SBLO 081100Z 23002KT CAVOK 15/13 Q1020=
SBMA 081100Z 17002KT 7000 NSC ///// Q1014=
SBME NIL=
SBMN 081100Z 07002KT 9999 FEW010 SCT100 27/24 Q1012=
SBMO 081100Z 30003KT 6000 FEW006 SCT020 BKN100 21/21 Q1017
     REDZ=
SBMQ 081100Z 01002KT 9999 FEW017 27/26 Q1013=
SBMT NIL=
SBPC NIL=
SBPK 081100Z 28006KT 9999 FEW020 09/07 Q1020=
SBPP NIL=
SBPV NIL=
SBRB 081100Z 00000KT CAVOK 23/22 Q1012=
SBRJ 081100Z 01005KT CAVOK 21/16 Q1018=
SBSC NIL=
SBSJ 081100Z 00000KT CAVOK 12/11 Q1022=
SBSM NIL=
SBSP 081100Z 31003KT CAVOK 16/09 Q1022=
SBST NIL=
SBTE 081100Z 19005KT CAVOK 26/24 Q1014=
SBTU NIL=
SBUG 081100Z 10004KT CAVOK 05/05 Q1020=
SBUR NIL=
SBVH NIL=
SBVT 081100Z 29004KT CAVOK 20/17 Q1021=
SBYS NIL=
####018001159####
SAAK32 KWBC 081100
METAR
PABA 081101Z AUTO 17004KT 10SM OVC041 07/06 A3002=
PABI 081053Z AUTO 14003KT 10SM CLR 11/07 A3008=
PACZ 081055Z AUTO 03006KT 10SM 10/09 A3005=
PACZ SA 1055 AWOS MM 10 50/48/0306/005=
PADK 081056Z 04009KT 9SM FEW021 OVC029 07/06 A2955=
PADL 081056Z 32006KT 10SM FEW043 OVC050 10/08 A2998=
PADQ 081053Z 31003KT 8SM FEW010 BKN020 OVC041 11/09 A2984=
PAEH 081055Z AUTO 00000KT 10SM CLR 09/M29 A2999=
PAEH SA 1055 AWOS CLR BLO 120 10 48/-20/0000/999=
PAFB NIL=
PAGA 081058Z AUTO 01005KT 10SM CLR 13/07 A3007=
PAIM 081055Z AUTO 31005KT 10SM CLR 11/07 A3008=
PAIM SA 1055 AWOS CLR BLO 120 10 51/45/3105/008=
PALU 081055Z AUTO 20011G17KT 10SM CLR 12/02 A3010=
PALU SA 1055 AWOS CLR BLO 120 10 54/35/2011G17/ 010=
PASV 081055Z AUTO 00000KT 10SM SCT037 SCT047 SCT070 09/07
     A2996=
PASV SA 1055 AWOS 37 SCT 47 SCT 70 SCT 10 48/45/0000/996=
PASY 081056Z AUTO 02017KT 10SM OVC006 A2974=
PATC 081055Z AUTO 02009KT 10SM CLR 08/06 A3015=
PATC SA 1055 AWOS CLR BLO 120 10 46/43/0209/015=
PATL 081055Z AUTO 02007KT 10SM CLR 14/07 A2999=
PATL SA 1055 AWOS CLR BLO 120 10 58/44/0207/999=
PBTI NIL=
####018000529####
SABZ43 KWBC 081100
METAR
SBAN NIL=
SBAT NIL=
SBBA NIL=
SBBQ NIL=
SBBW NIL=
SBCC NIL=
SBER NIL=
SBES NIL=
SBGA NIL=
SBIZ NIL=
SBJF NIL=
SBJP 081100Z 21005KT 9999 FEW020 SCT070 24/22 Q1016=
SBKG NIL=
SBLB NIL=
SBLP NIL=
SBMK NIL=
SBMS NIL=
SBMZ NIL=
SBPB 081100Z 08008KT 9999 SCT020 BKN100 30/23 Q1014=
SBPJ NIL=
SBPL 081100Z 14008KT 9999 FEW020 23/19 Q1019=
SBPN NIL=
SBQV NIL=
SBRP 081100Z 10004KT CAVOK 13/09 Q1021=
SBTF NIL=
SBTK NIL=
SBUF NIL=
SBUI NIL=
SBUL NIL=
####018000769####
SACA32 KWBC 081100
METAR
MDLR NIL=
MDPC 081100Z 00000KT 9999 FEW018 25/23 Q1013 RESH=
MDPP NIL=
MDSD 081100Z 06004KT 9999 FEW018 24/23 Q1015=
MDST 081100Z 00000KT 4000 BR BKN016 23/23 Q1015 BR/NE/NW/N=
MTCH NIL=
MTPP NIL=
TAPA NIL=
TIST 081053Z 08005KT 10SM CLR 28/24 A2999 RMK AO2 SLP157
     T02830244=
TISX 081053Z 08009KT 10SM FEW023 28/24 A2999 RMK AO2 SLP155
     T02780239=
TJBQ 081050Z 11004KT 10SM SKC 25/25 A3000=
TJMZ NIL=
TJNR NIL=
TJPS 081050Z 00000KT 8SM FEW030 26/24 A2998 HZ ALQDS=
TJSJ 081056Z 11003KT 10SM FEW020 SCT110 28/24 A3000 RMK AO2 SLP158
     T02780244=
TKPK NIL=
TKPN 081100Z 10012KT 9999 BKN016 29/25 Q1015=
TQPF NIL=
TRPM NIL=
TUPJ 081100Z 12008KT 9999 FEW022 28/24 A3000 RMK=
TUPW NIL=
####018000699####
SACA31 KWBC 081100
METAR
MBJT NIL=
MBPV NIL=
MBSC NIL=
MKJP NIL=
MKJS NIL=
MUCM 081052Z 00000KT 9000 FEW020 BKN090 24/22 Q1014=
MUCU 081054Z 36002KT 9000 TS FEW018CB 24/23 Q1015=
MUHA 081055Z 04002KT 8000 FEW018 24/23 Q1013=
MUVR 081052Z 00000KT 8000 FEW020TCU 24/22 Q1014=
MWCB NIL=
MWCR 081100Z 14006KT 9999 FEW018 BKN250 28/25 Q1012 NOSIG=
MYAM NIL=
MYAT NIL=
MYBS NIL=
MYEC NIL=
MYEG 081059Z AUTO 15004KT 10SM SCT019 SCT025 SCT033 27/24 A2993
     RMK AO2=
MYEH NIL=
MYEM NIL=
MYGF 081100Z 05003KT 9999 FEW020TCU SCT150 24/23 A2996 RMK TCU S
     /=
MYGF 081100Z 05003KT 9999 FEW020TCU SCT150 24/23 A2996 RMK TCU
     S=
MYGW NIL=
MYNN NIL=
####018000452####
SACA33 KWBC 081100
METAR
TBPB 081100Z 08021KT 9999 BKN014 29/24 Q1013 NOSIG=
TDPD NIL=
TDPR NIL=
TFFF NIL=
TFFG NIL=
TFFJ NIL=
TFFR NIL=
TGPY NIL=
TGPZ NIL=
TLPC 081100Z 09008KT 9999 SCT023 SCT270 29/26 Q1014=
TLPL 081100Z 08018KT 9999 SCT026 BKN300 29/23 Q1014=
TNCA NIL=
TNCB NIL=
TNCC NIL=
TNCE NIL=
TNCM NIL=
TTCP NIL=
TTPP NIL=
TVSM NIL=
TVSU NIL=
TVSV 081100Z 11013KT 9999 SCT021 BKN280 29/24 Q1014=
####018000835####
SACA35 KWBC 081100
METAR
MGGI NIL=
MGPB 081100Z 00000KT 9999 FEW016 OVC090 24/23 Q1010 A2983=
MGSJ 081100Z 00000KT 9999 SCT020 BKN090 23/23 Q1012 A2988=
MHLC 081100Z 00000KT 9999 FEW026 BKN200 25/24 Q1009 A2980
     NOSIG=
MHLM 081100Z 21008KT 9999 TS SCT025CB BKN080 26/25 Q1010A 2983
     NOSIG=
MHTG 081100Z 14003KT 9999 BKN025 19/18 Q1016 A3000 NOSIG=
MNPC NIL=
MPBO NIL=
MPCH 081100Z 00000KT 9999 SCT025 OVC080 Q1012=
MPDA 081100Z 00000KT 9999 FEW008TCU SCT035 BKN200 Q1011=
MPMG 081100Z 00000KT 9999 FEW016 25/23 Q1011 RWY DAMP NOSIG=
MPSA NIL=
MPTO 081100Z 00000KT 9999 SCT018 25/23 Q1010=
MRLB NIL=
MRLM NIL=
MROC 081100Z 00000KT 9999 BR SCT005 SCT100 19/19 A3001 RMK VIS
     5000 NE S=
MRPV NIL=
MSLP 081050Z 00000KT 9999 FEW023 BKN070 24/23 Q1010 A2984=
MSSS NIL=
MZBZ NIL=
####018000476####
SACA41 KWBC 081100
METAR
MKBK NIL=
MUBA NIL=
MUBY NIL=
MUCA NIL=
MUCL 081056Z 12003KT 9000 FEW015 27/26 Q1014=
MUCM 081052Z 00000KT 9000 FEW020 BKN090 24/22 Q1014=
MUCU 081054Z 36002KT 9000 TS FEW018CB 24/23 Q1015=
MUGM NIL=
MUGT NIL=
MUHA 081055Z 04002KT 8000 FEW018 24/23 Q1013=
MUMO NIL=
MUMZ NIL=
MUNG NIL=
MUVR 081052Z 00000KT 8000 FEW020TCU 24/22 Q1014=
MUVT NIL=
MYEF NIL=
MYSM NIL=
TABS NIL=
TAOA NIL=
TBBI NIL=
TDCF NIL=
####018000028####
SACI31 KWBC 081100
NIL=
####018000684####
SACI32 KWBC 081100
METAR
ZBAA NIL=
ZBTJ NIL=
ZBYN NIL=
ZGGG NIL=
ZGNN NIL=
ZGSZ NIL=
ZHHH NIL=
ZKPY NIL=
ZLLL NIL=
ZMUB 081100Z 15009MPS 9999 -RA FEW030CB BKN033 16/12 Q1008 NOSIG
     RMK QFE649.3 76=
ZPPP NIL=
ZSAM NIL=
ZSHC NIL=
ZSNJ NIL=
ZSOF NIL=
ZSPD NIL=
ZSSS NIL=
ZUBD NIL=
ZUCD NIL=
ZUCK NIL=
ZUDF NIL=
ZUDS NIL=
ZUDX NIL=
ZUDZ NIL=
ZUFJ NIL=
ZUFL NIL=
ZUGH NIL=
ZUGY NIL=
ZULP NIL=
ZULS NIL=
ZULZ NIL=
ZUMY NIL=
ZUNC NIL=
ZUSN NIL=
ZUTR NIL=
ZUUU NIL=
ZUWF NIL=
ZUWX NIL=
ZUXC NIL=
ZUXJ NIL=
ZUXY NIL=
ZUYB NIL=
ZUZY NIL=
ZWTN NIL=
ZWWW NIL=
ZYHB NIL=
ZYTL NIL=
ZYYY NIL=
####018000490####
SACA45 KWBC 081100
METAR
MGFL NIL=
MGGT 081100Z 20003KT 9999 FEW015 BKN090 16/14 Q1022 A3018
     NOSIG=
MGHT 081100Z 00000KT 9999 OVC012 16/15 QFE 816/0=
MGHT 081100Z 00000KT 9999 OVC012 16/15 QFE 816.0=
MHAM NIL=
MHCA NIL=
MHCH NIL=
MHLE NIL=
MHNJ NIL=
MHNO NIL=
MHPL NIL=
MHRO NIL=
MHSR NIL=
MHTE NIL=
MHYR NIL=
MNMG 081100Z 02006KT 6000 RA FEW020CB BKN020 24/23 Q1010 A2984
     CB/N/NW/W/NW/S/FL=
MNPC NIL=
MPSA NIL=
MRCH NIL=
MSAC NIL=
####018000028####
SACI41 KWBC 081100
NIL=
####018000028####
SACN31 KWBC 081100
NIL=
####018000509####
SAEE31 KWBC 081100
METAR
EPGD 081100Z VRB05KT CAVOK 24/09 Q1021=
EPKK 081100Z 33005KT 290V010 9999 FEW053 23/08 Q1022=
EPKT 081100Z 31007KT CAVOK 22/09 Q1023=
EPPO 081100Z 30008KT 250V350 CAVOK 24/08 Q1022=
EPQT NIL=
EPRZ 081100Z 33007KT 290V030 9999 SCT043 21/11 Q1021=
EPSC NIL=
EPWA 081100Z 31010KT 280V350 9999 SCT046 22/12 Q1021 NOSIG=
EYSA NIL=
UKBB NIL=
UKKK 081100Z 26003MPS 9999 BKN033 25/18 Q1015 26CLRD70 NOSIG=
UKLL NIL=
UKOO NIL=
UMII NIL=
UMMM NIL=
UMMS NIL=
####018000704####
SAEE32 KWBC 081100
METAR
LBBG 081100Z 32005MPS 9999 BKN026 BKN035 19/15 Q1015 NOSIG=
LBPD 081100Z 26005MPS 9999 -RA SCT040 OVC060 17/13 Q1017 NOSIG=
LBSF 081100Z 28005MPS 250V310 9999 BKN036 18/12 Q1018 NOSIG=
LBWN 081100Z 27006MPS 240V300 9999 FEW024 BKN027 19/15 Q1014
     NOSIG=
LHBP 081100Z 22009KT 180V270 CAVOK 23/10 Q1021 NOSIG=
LHTA NIL=
LRAR NIL=
LRBS 081100Z 31004KT 270V360 9999 FEW020 21/15 Q1017 NOSIG=
LRCK 081100Z 01011KT 340V050 9999 FEW035 24/15 Q1015 NOSIG=
LROP 081100Z 27004KT 230V310 9999 FEW040CB FEW045 21/14 Q1016
     880///95 NOSIG=
LRTC NIL=
LRTM NIL=
LRTR 081100Z 35008KT 320V040 9999 SCT032 23/15 Q1020=
LUCC NIL=
LUKK NIL=
LURN NIL=
####018000028####
SAEW31 KWBC 081100
NIL=
####018000302####
SACA42 KWBC 081100
METAR
TIST 081053Z 08005KT 10SM CLR 28/24 A2999=
TISX 081053Z 08009KT 10SM FEW023 28/24 A2999=
TJBQ 081050Z 11004KT 10SM SKC 25/25 A3000=
TJMZ NIL=
TJNR NIL=
TJPS 081050Z 00000KT 8SM FEW030 26/24 A2998 HZ ALQDS=
TJSJ 081056Z 11003KT 10SM FEW020 SCT110 28/24 A3000=
####018001665####
SAEM31 KWBC 081100
METAR
KQLA NIL=
KQLH NIL=
KQLX NIL=
LATI 081100Z 01018KT 350V070 9999 FEW040 27/12 Q1016 NOSIG=
LDDU 081100Z VRB07KT 9999 FEW043 28/07 Q1018 NOSIG=
LDDV NIL=
LDKT NIL=
LDOS 081100Z 34004KT 9999 FEW033 24/08 Q1022 NOSIG=
LDPL 081100Z 07004KT 350V130 CAVOK 27/09 Q1022 NOSIG=
LDRI 081100Z 28005KT 240V320 9999 FEW047 25/10 Q1022 NOSIG=
LDSP 081100Z 23010KT 200V260 CAVOK 28/06 Q1020 NOSIG=
LDZA 081100Z VRB06KT CAVOK 25/08 Q1022 NOSIG=
LDZD 081100Z VRB09KT CAVOK 27/04 Q1021 NOSIG=
LJLJ NIL=
LJMB NIL=
LJPZ NIL=
LKIB NIL=
LKMT 081100Z 05007KT 350V120 CAVOK 21/10 Q1023 NOSIG=
LKPR 081100Z 34004KT 290V030 CAVOK 23/09 Q1023 NOSIG=
LKTB 081100Z VRB06KT CAVOK 23/07 Q1023 NOSIG=
LKTT NIL=
LOAV NIL=
LOIH NIL=
LOIJ NIL=
LOLW NIL=
LOWG NIL=
LOWH NIL=
LOWI NIL=
LOWK NIL=
LOWL NIL=
LOWS NIL=
LOWW NIL=
LOWZ NIL=
LQSA 081100Z 31007KT 210V360 9999 FEW050 BKN065 21/10 Q1023
     NOSIG=
LWOH 081100Z 36008KT 320V070 9999 FEW040 BKN047 21/09 Q1019=
LWSK 081100Z 04004KT 9999 BKN036 18/12 Q1020 NOSIG=
LYBE 081100Z 35013KT 9999 SCT040 22/12 Q1022 NOSIG=
LYDU NIL=
LYLJ NIL=
LYMB NIL=
LYNI 081100Z 32010KT 9999 SCT020 BKN026 18/13 Q1021 NOSIG=
LYOH NIL=
LYOS NIL=
LYPG 081100Z 02015KT 350V070 9999 FEW040 27/08 Q1018 NOSIG=
LYPL NIL=
LYPR 081100Z NIL=
LYPZ NIL=
LYRI NIL=
LYSA NIL=
LYSK NIL=
LYSP NIL=
LYTI NIL=
LYTV 081100Z 33006KT 9999 FEW053 28/09 Q1017 NOSIG=
LYZA NIL=
LYZD NIL=
LZIB 081100Z 01008KT 290V070 CAVOK 24/07 Q1022=
LZKZ 081100Z 36009KT 310V030 CAVOK 23/09 Q1021 NOSIG=
LZTT 081100Z VRB02KT 9999 FEW040 21/08 Q1022 NOSIG=
####018000852####
SAFR31 KWBC 081100
METAR
LFAC NIL=
LFAT NIL=
LFBD 081100Z 10010KT 060V130 CAVOK 32/12 Q1017 NOSIG=
LFBH 081100Z AUTO 30006KT 9999NDV NSC 30/14 Q1017=
LFBI 081100Z 21005KT 140V300 CAVOK 30/13 Q1018 NOSIG=
LFBO 081100Z 10010KT 080V140 CAVOK 33/12 Q1018 NOSIG=
LFBP 081100Z 08006KT 050V120 CAVOK 34/17 Q1016 NOSIG=
LFBT 081100Z NIL=
LFBZ 081100Z 05006KT 010V090 CAVOK 30/23 Q1015 NOSIG=
LFGJ NIL=
LFKB 081100Z NIL=
LFKC 081100Z 35010KT 9000 FEW013 29/23 Q1020 NOSIG=
LFKJ 081100Z 22009KT 9999 FEW026 28/23 Q1019 NOSIG=
LFLB 081100Z 35005KT 320V020 9999 FEW070 SCT260 27/17 Q1021
     NOSIG=
LFLC 081100Z VRB03KT CAVOK 31/15 Q1020 NOSIG=
LFLL 081100Z VRB04KT CAVOK 30/15 Q1020 NOSIG=
LFLS 081100Z 25007KT 180V290 9999 FEW050 30/14 Q1021 NOSIG=
LFLY 081100Z VRB05KT CAVOK 30/14 Q1020 NOSIG=
LFMD NIL=
LFMH NIL=
####018000086####
SPUS41 KWBC 081106
SPECI
KGON 081103Z 08004KT 3SM BR BKN002 OVC013 23/21 A3007=
####018001247####
SAFR32 KWBC 081100
METAR
LFML 081100Z 27008KT 9999 FEW050 32/18 Q1020 NOSIG=
LFMN 081100Z 10008KT 9999 FEW023 29/22 Q1020 NOSIG=
LFMP 081100Z 07009KT 040V100 9999 FEW043 SCT260 29/18 Q1020
     NOSIG=
LFMT 081100Z 16005KT CAVOK 30/17 Q1020 NOSIG=
LFOB 081100Z 21006KT 180V340 CAVOK 30/11 Q1019 NOSIG=
LFOH 081100Z AUTO 35014KT //// R23///// NSC 22/12 Q1019=
LFOT NIL=
LFPB 081100Z 06003KT 310V100 CAVOK 30/10 Q1018 NOSIG=
LFPG 081100Z 17008KT 100V220 CAVOK 30/09 Q1019 NOSIG=
LFPN NIL=
LFPO 081100Z 22005KT 190V270 CAVOK 30/09 Q1019 NOSIG=
LFQQ 081100Z 24004KT 180V300 CAVOK 29/13 Q1019 NOSIG=
LFRB 081100Z 30003KT 210V360 9999 SCT020 SCT250 22/16 Q1019
     NOSIG=
LFRC NIL=
LFRD 081100Z AUTO VRB06KT 9999NDV NSC 21/15 Q1019=
LFRG NIL=
LFRK NIL=
LFRN 081100Z AUTO VRB03KT 9999NDV NSC 27/13 Q1018=
LFRO 081100Z AUTO 36005KT 310V100 9999NDV BKN019 21/16 Q1019=
LFRQ NIL=
LFRS 081100Z 25004KT 210V290 CAVOK 30/14 Q1017 NOSIG=
LFRT NIL=
LFRZ 081100Z AUTO 18005KT 140V250 9999NDV NSC 30/12 Q1018=
LFSB 081100Z VRB03KT CAVOK 29/10 Q1021 NOSIG=
LFSF NIL=
LFSN 081100Z VRB03KT CAVOK 30/14 Q1020 NOSIG=
LFSR NIL=
LFST 081100Z 17003KT 110V250 CAVOK 29/10 Q1020 NOSIG=
LFTW NIL=
LFVP NIL=
####018000689####
SAFR41 KWBC 081100
METAR
LFAF NIL=
LFBA NIL=
LFBC NIL=
LFBL 081100Z 15007KT 100V170 CAVOK 28/13 Q1020 NOSIG=
LFBM NIL=
LFKF 081100Z 22007KT 180V260 9999 FEW032TCU 31/23 Q1019 NOSIG=
LFLD NIL=
LFLV NIL=
LFOE NIL=
LFOP 081100Z 17004KT 110V260 CAVOK 29/13 Q1019 NOSIG=
LFPB 081100Z 06003KT 310V100 CAVOK 30/10 Q1018 NOSIG=
LFPG 081100Z 17008KT 100V220 CAVOK 30/09 Q1019 NOSIG=
LFPV NIL=
LFQB NIL=
LFQQ 081100Z 24004KT 180V300 CAVOK 29/13 Q1019 NOSIG=
LFRH NIL=
LFRM NIL=
LFSC NIL=
LFSD NIL=
LFSI NIL=
LFSL 081100Z AUTO 14005KT 090V190 9999NDV NSC 30/13 Q1020=
LFSO NIL=
LFSX NIL=
LFTH 081100Z 18005KT 140V260 9999 FEW026 29/23 Q1020 NOSIG=
####018000376####
SAHW31 KWBC 081100
METAR
PBKH NIL=
PHJR 081053Z 00000KT 10SM FEW045 22/18 A3004=
PHKO 081053Z AUTO 10007KT 10SM CLR 24/19 A2998=
PHLI 081053Z 07014KT 10SM SCT024 BKN031 OVC048 24/19 A3005=
PHNL 081053Z 06009KT 10SM FEW032 SCT049 24/18 A3003=
PHOG 081054Z AUTO 03012KT 10SM FEW060 23/19 A3002=
PHTO 081053Z 25005KT 10SM FEW027 BKN060 22/19 A3003=
PNGF NIL=
####018000028####
SAHA31 KWBC 081100
NIL=
####018000028####
SAID31 KWBC 081100
NIL=
####018000345####
SAIE31 KWBC 081100
METAR
EICK 081100Z 21011KT 9999 -RA BKN012 BKN045 15/12 Q1016 NOSIG=
EIDB NIL=
EIDW 081100Z 22014KT 9999 FEW026 SCT050 BKN130 18/09 Q1015
     NOSIG=
EIKN 081100Z 23009KT 9999 FEW018CB SCT025 BKN045 14/10 Q1013
     NOSIG=
EINN 081100Z 20008KT 160V220 9999 -RA FEW017 SCT025 BKN045 16/12
     Q1015 NOSIG=
####018001705####
SAZZ40 KAWN 081100 RRL
METAR BIAR 081100Z 36020KT 9999 BKN020 08/06 Q0995=
METAR BIEG 081100Z 36014KT 7000 -SHRA VV007 08/08 Q0990=
METAR BIKF 081100Z 02019KT 9999 FEW018 BKN032 BKN100 10/05 Q0994=
METAR BIRK 081100Z 01020G30KT 280V030 9999 FEW020 SCT060 10/06 Q0993=
METAR K79J 081056Z AUTO 00000KT 10SM CLR 23/21 A3003 RMK AO2 SLP163
      T02330206 TSNO $=
METAR KNEL 081100Z AUTO 11006KT 2 1/2SM HZ OVC005 25/22 A3003 RMK AO2
      SLP168 T02500222 $=
METAR LKKV 081100Z VRB03KT CAVOK 23/10 Q1024=
METAR MKJS 081100Z 17003KT 9999 FEW024 BKN200 25/22 Q1012=
METAR MPDA 081100Z 00000KT 9999 FEW008TCU SCT035 BKN200 Q1011=
METAR OIAW 081100Z 21006KT CAVOK 47/08 Q0997 A2946=
METAR OIFM 081100Z 11004KT CAVOK 39/08 Q1016 A3001=
METAR OIKB 081100Z 21008KT 4500 HZ NSC 37/26 Q1000 A2954=
METAR OIKK 081100Z 27006KT CAVOK 36/M00 Q1016 A3001=
METAR OIMM 081100Z 05016KT CAVOK 39/M01 Q1014 A2995=
METAR PABA 081101Z AUTO 17004KT 10SM OVC041 07/06 A3002 RMK AO2 SLP166
      T00670061=
METAR TAPA 081100Z 08011KT 9999 FEW020 28/24 Q1015=
METAR TFFR 081100Z VRB02KT 9999 FEW021 28/24 Q1015 NOSIG=
METAR TKPK 081100Z 06013KT 9999 FEW019 28/24 Q1015=
METAR TTCP 081100Z 08013KT 9000 -SHRA FEW010CB SCT014 BKN038 24/23
      Q1013 NOSIG=
METAR TTPP 081100Z 00000KT 9000 FEW006 FEW010CB BKN036 BKN080 25/24
      Q1011 NOSIG=
METAR TVSV 081100Z 11013KT 9999 SCT021 BKN280 29/24 Q1014=
METAR WMKJ 081100Z 20004KT 9999 FEW022 SCT140 BKN300 28/25 Q1009=
METAR WMKK 081100Z 19003KT 9999 FEW018 SCT140 BKN280 28/26 Q1008 NOSIG=
METAR WMKP 081100Z 25005KT 9999 FEW020 BKN280 30/25 Q1008 NOSIG=
METAR WMSA 081100Z 28005KT 9999 FEW020 SCT140 BKN280 32/25 Q1008=
####018000126####
SAIO31 KWBC 081100 CCA
METAR
WBSB 081100Z 14003KT 8000 -SHRA FEW014 FEW016CB BKN140 25/25 Q1009
     RETS TEMPO SHRA=
####018000508####
SAIO31 KWBC 081100
METAR
FIMP NIL=
FIMR NIL=
FJDG NIL=
FMCH NIL=
FMCV NIL=
FMCZ NIL=
FMEE NIL=
FMMI 081100Z 11010KT 080V150 9999 BKN020 19/12 Q1025 NOSIG=
FMMT NIL=
FMNN NIL=
FSIA NIL=
FSSS NIL=
VRMM NIL=
VYMD NIL=
VYYY NIL=
WBGG 081100Z 26004KT 9999 TS FEW015CB SCT020 BKN150 25/23 Q1011
     NOSIG=
WBKK 081100Z 11005KT 9999 FEW014 SCT140 BKN270 25/24 Q1009
     NOSIG=
WBSB 081100Z 14003KT 8000 -SHRA FEW014 FEW016CB BKN140 25/25 Q1009
     RETS TEMPO -SHRA=
####018000743####
SAIQ31 KWBC 081100
METAR
KQAD 081055Z AUTO VRB06KT 5000 HZ CLR 45/04 A2956 RMK AO2 SLP007
     T04520040 $=
KQAE 081055Z 33009G17KT 9000 HZ CLR 44/08 A2963 RMK SLP030=
KQEZ NIL=
KQMG 081055Z AUTO 02007KT 12SM FEW043 SCT065 20/14 A3016 RMK AO2
     SLP142 T02020140 $=
KQMH NIL=
KQTO 081055Z 30015G22KT 9999 CLR 46/04 A2960 RMK SLP021=
KQTU 081055Z VRB06KT 9999 PO CLR 45/02 A2964 RMK SLP015=
KQTW NIL=
KQTX 081055Z 30006G16KT 9999 CLR 43/M04 A2966 RMK SLP016=
KQTZ 081055Z 31010G18KT 9000 HZ CLR 45/04 A2962 RMK SLP024
     QNH1002MB ALSTG/SLP ESTMD WND DATA ESTMD=
KQVO NIL=
KQXJ 081055Z 31018G31KT 2400 BLDU BKN000 47/00 A2954 RMK DU BKN000
     SLP004 PA+374 DA+4079=
KQXN NIL=
ORBI NIL=
ORER NIL=
####018000412####
SAUS20 KNKA 081105
SPECI KCEF 081102Z AUTO 16005KT 10SM BKN009 24/22 A3006 RMK AO2 CIG
      009V011 SLP180 PWINO $=
SPECI KCSM 081104Z AUTO 01006KT 9SM SCT009 BKN012 BKN060 23/21 A3011 
    RMK AO2=
METAR KEFD 081050Z 10010KT 8SM FEW020 SCT045 BKN130 28/25 A2993=
SPECI KINK 081104Z AUTO 35007KT 10SM BKN017 21/19 A3007 RMK AO2 TSNO=
SPECI KNMM 081057Z 00000KT 7SM FEW250 22/21 A3006 RMK AO2 $=
####018000444####
SAIQ32 KWBC 081100
METAR
KQAJ 081056Z 27004G12KT 9999 CLR 43/05 A2970 RMK SLP043 WND DATA
     ESTMD ALSTG/SLP ESTMD=
KQAQ 081055Z 30010G19KT 8000 HZ FU CLR 45/07 A2963 RMK SLP030 PA
     +389 DA +3804=
KQAV NIL=
KQAX NIL=
KQAZ NIL=
KQCO NIL=
KQCT NIL=
KQMA NIL=
KQPA NIL=
KQPB NIL=
KQPC NIL=
KQPD NIL=
KQSE NIL=
KQSL NIL=
KQTI 081055Z AUTO 25011G16KT 9999 CLR 44/01 A2967 RMK AO2 SLP020
     T04360009=
####018000349####
SAPA41 KWBC 081100
METAR
PGSN 081054Z 09012G19KT 10SM FEW018 28/23 A2991=
PGUA 081055Z AUTO 09016G22KT 10SM BKN019 BKN025 27/ A2991=
PGUM 081054Z 08014G17KT 10SM SCT026 SCT048 28/24 A2991=
PJON NIL=
PKMJ NIL=
PKWA 081100Z AUTO 06012KT 4SM RA BKN007 BKN017 OVC030 25/23
     A2987=
PWAK 081056Z 07012KT 6SM BR FEW024 27/25 A2999=
####018000085####
SAIR33 OIII 081100 RRA
METAR OIBL 081050Z 16010KT 4000 HZ SKC 38/27 Q0999 A2952=
####018000081####
SABC40 FBSK 081100
METAR FBSK 081100Z 06008KT 9999 BKN020 19/08 Q1031 NOSIG=
####018000754####
SAJP31 KWBC 081100
METAR
RJAA 081100Z 16004KT 9999 FEW020 BKN/// 23/21 Q1011 NOSIG=
RJAH 081100Z 21003KT 9999 FEW030 BKN/// 25/23 Q1010=
RJCC 081100Z 21006KT 2500 -DZ BR BKN002 18/16 Q1010=
RJCH 081100Z 18003KT 9999 FEW004 SCT009 BKN011 20/19 Q1010=
RJFK 081100Z 15004KT 9999 FEW030 BKN/// 24/20 Q1010=
RJFT 081100Z 20003KT 140V230 9999 FEW020 BKN030 BKN/// 25/21
     Q1010=
RJFU 081100Z 27004KT 9999 FEW025 SCT150 BKN/// 25/23 Q1009=
RJNN NIL=
RJOO 081100Z 21004KT 160V250 9999 FEW030 BKN/// 27/21 Q1009=
RJSS 081100Z 10004KT 9999 FEW010 BKN/// 24/22 Q1010=
RJTT 081100Z 18016KT 9999 FEW009 SCT014 BKN/// 25/22 Q1010=
RODN 081055Z AUTO 17011KT 9999 SCT017 BKN190 29/26 A2984 RMK AO2
     CIG 017 RWY05 SLP105 T02880261=
####018000777####
SAPQ31 KWBC 081100
METAR
PGRO 081050Z 09013G19KT 7SM FEW020 27/24 A2992=
PGSN 081054Z 09012G19KT 10SM FEW018 28/23 A2991=
PGUM 081054Z 08014G17KT 10SM SCT026 SCT048 28/24 A2991=
PGWT NIL=
PKMJ NIL=
PKMR 081050Z 07012KT 15SM FEW015 SCT045 BKN120 OVC300 28/24
     A2983=
PKRO NIL=
PKWA 081100Z AUTO 06012KT 4SM RA BKN007 BKN017 OVC030 25/23
     A2987=
PTKK 081050Z VRB05KT 15SM FEW014 BKN120 OVC280 26/23 A2984=
PTKR 081052Z 06004KT 15SM FEW018CB SCT120 OVC300 27/24 A2985=
PTPN NIL=
PTRO 081054Z 00000KT 14SM SCT016TCU BKN120 BKN300 26/24 A2988=
PTSA NIL=
PTTP 081050Z 13003KT 15SM SCT018TCU BKN300 24/23 A2989=
PTYA 081050Z 10012KT 12SM SCT016CB SCT030 BKN130 OVC300 27/23
     A2987=
PWAK 081056Z 07012KT 6SM BR FEW024 27/25 A2999=
####018000468####
SAJP41 KWBC 081100
METAR
RJAF NIL=
RJAI NIL=
RJAK NIL=
RJAM NIL=
RJAO NIL=
RJAT NIL=
RJAW NIL=
RJBD NIL=
RJCA NIL=
RJCB 081100Z 16004KT 7000 FEW004 SCT005 BKN007 17/16 Q1010=
RJCJ NIL=
RJCK 081100Z 21006KT 0300 R17/0900N +DZ VV001 16/15 Q1010=
RJCM 081100Z 01007KT 9999 FEW003 BKN012 BKN027 16/14 Q1010=
RJCN NIL=
RJCO NIL=
RJCR NIL=
RJCT NIL=
RJCW NIL=
RJDB NIL=
RJDC 081100Z 06005KT 6000 FEW030 SCT050 BKN/// 25/22 Q1009=
####018000541####
SAJP42 KWBC 081100
METAR
RJDK NIL=
RJDM NIL=
RJDO NIL=
RJDT 081100Z 05004KT 010V120 9999 FEW008 BKN015 BKN/// 22/21
     Q1009=
RJEB NIL=
RJEC 081100Z 31006KT 9999 FEW015 BKN020 19/18 Q1010=
RJEO NIL=
RJER NIL=
RJFA NIL=
RJFC NIL=
RJFE NIL=
RJFG NIL=
RJFM 081100Z 34003KT 290V010 6000 FEW020 BKN/// 26/22 Q1008=
RJFN NIL=
RJFO 081100Z VRB02KT 6000 -SHRA FEW020 SCT035 BKN080 25/23
     Q1009=
RJFR 081100Z 13004KT 9000 FEW030 SCT050 BKN/// 26/22 Q1009=
RJFY NIL=
RJFZ NIL=
RJKA NIL=
RJKB NIL=
####018000663####
SAJP43 KWBC 081100
METAR
RJKI NIL=
RJKN NIL=
RJNF NIL=
RJNG NIL=
RJNH NIL=
RJNO NIL=
RJNT 081100Z 02002KT 9999 FEW020 SCT030 BKN/// 26/21 Q1010=
RJNY NIL=
RJOA 081100Z VRB01KT CAVOK 25/20 Q1011=
RJOB 081100Z 04001KT CAVOK 25/21 Q1010=
RJOC 081100Z VRB01KT 8000 TS FEW010 SCT020 BKN025 FEW025CB 25/21
     Q1010=
RJOE NIL=
RJOF NIL=
RJOI 081100Z 12006KT 9000 HZ SCT120 OVC230 27/23 A2981 RMK SLP094
     T02670233=
RJOK 081100Z 21004KT 160V240 9999 FEW035 SCT045 BKN/// 26/23
     Q1009=
RJOM 081100Z 00000KT 9000 FEW015 SCT040 BKN/// 25/23 Q1009=
RJOP NIL=
RJOR 081100Z 36003KT 6000 FEW025 BKN030 BKN/// 25/23 Q1009=
####018000345####
SAJP44 KWBC 081100
METAR
RJOS NIL=
RJOT 081100Z VRB02KT 9999 FEW025 SCT080 BKN/// 25/22 Q1010=
RJOY NIL=
RJOZ NIL=
RJSA 081100Z 11003KT 8000 FEW010 SCT030 BKN080 21/20 Q1011=
RJSC NIL=
RJSD NIL=
RJSH NIL=
RJSI NIL=
RJSO NIL=
RJST NIL=
RJSU NIL=
RJTA NIL=
RJTC NIL=
RJTE NIL=
RJTF NIL=
RJTH NIL=
RJTI NIL=
####018000076####
SPUS43 KWBC 081106
SPECI
KLEX 081103Z 00000KT 3SM HZ CLR 22/19 A3010=
####018000209####
SAJP45 KWBC 081100
METAR
RJTJ NIL=
RJTK NIL=
RJTL NIL=
RJTO NIL=
RJTQ NIL=
RJTR NIL=
RJTU NIL=
RJTX NIL=
RJTY 081055Z AUTO 17007KT 9999 CLR 25/21 A2988 RMK AO2 SLP112
     T02460214 $=
####018000028####
SAKN41 KWBC 081100
NIL=
####018000028####
SAKO41 KWBC 081100
NIL=
####018000501####
SAKO31 KWBC 081100
METAR
RKNY 081100Z AUTO 13003KT3000NDV NCD 20/18 Q1008=
RKPC 081100Z 09009KT 4500 BR SCT030 OVC120 25/20 Q1007 NOSIG=
RKPK 081100Z 14004KT 9999 FEW030 BKN200 24/17 Q1009 NOSIG=
RKSI 081100Z 28002KT 9000 -RA FEW040 OVC110 24/19 Q1008 NOSIG=
RKSS 081100Z 18005KT 9999 -RA SCT030 OVC110 25/15 Q1008 NOSIG=
RKTN 081100Z 33003KT 8000 -RA FEW025CB BKN040 OVC200 25/23 Q1008
     NOSIG=
RKTU 081100Z 31005KT 9000 SCT030 SCT100 OVC200 26/19 Q1009 TEMPO
     4500 -RA=
####018000195####
SAMM31 KWBC 081100
METAR
LCEN NIL=
LCLK 081100Z 19017KT 9999 FEW025 30/22 Q1008 NOSIG=
LCNC 081100Z NIL=
LCPH 081100Z 24008KT 190V270 9999 FEW030 29/23 Q1008=
LCRA NIL=
LMML NIL=
####018000961####
SANT31 KWBC 081100
METAR
BGBW 081050Z 27005KT 9999 FEW030 12/04 Q1008 RMK 1SC=
BGCO 081050Z 02015KT 9999 SCT071 BKN220 07/02 Q1008=
BGGH 081050Z 24004KT 200V280 9999 OVC004 05/03 Q1010=
BGJN 081050Z 32004KT 280V360 9999 VCFG FEW100 07/05 Q1009 RMK
     1AC=
BGKK 081050Z 05009KT 9999 SCT120 07/04 Q1009=
BGSF 081050Z 06008KT 9999 BKN070 13/02 Q1008=
BGTL 081055Z AUTO 00000KT 9999 OVC002 04/04 A2984 RMK AO2 SLP108
     T00430042=
BIAR 081100Z 36020KT 9999 BKN020 08/06 Q0995=
BIEG 081100Z 36014KT 7000 -SHRA VV007 08/08 Q0990=
BIKF 081100Z 02019KT 9999 FEW018 BKN032 BKN100 10/05 Q0994=
BIRK 081100Z 01020G30KT 280V030 9999 FEW020 SCT060 10/06 Q0993=
GVAC 081100Z 07011KT 9999 BKN014 25/19 Q1014 NOSIG=
GVPR NIL=
LPBJ NIL=
LPLA 081100Z 15005KT 9999 -SHRA FEW008 SCT016 BKN028 20/18
     Q1024=
TXKF 081055Z 15012KT 9999 FEW013 SCT180 BKN300 26/23 Q1019 /=
TXKF 081055Z 15012KT 9999 FEW013 SCT180 BKN300 26/23 Q1019=
####018001564####
SAPA31 KWBC 081100
METAR
AGGG NIL=
AGGH NIL=
ANAU NIL=
AYPY NIL=
PGNT NIL=
PGRO 081050Z 09013G19KT 7SM FEW020 27/24 A2992=
PGSN 081054Z 09012G19KT 10SM FEW018 28/23 A2991 RMK AO2 SLPNO
     T02780233=
PGUA 081055Z AUTO 09016G22KT 10SM BKN019 BKN025 27/ A2991 RMK AO2
     RAB1032E1041 CIG 017V024 SLP109 P0000 T0271 VISNO RWY24L
     $=
PGUM 081054Z 08014G17KT 10SM SCT026 SCT048 28/24 A2991 RMK AO2
     SLP119 T02830244=
PGWT NIL=
PHJH NIL=
PHJR 081053Z 00000KT 10SM FEW045 22/18 A3004 RMK AO2 SLP179
     T02220178=
PHMK 081054Z AUTO 03006G15KT 10SM BKN039 22/19 A3004 RMK AO2
     SLP175 T02170189 TSNO=
PJON NIL=
PKMJ NIL=
PKMR 081050Z 07012KT 15SM FEW015 SCT045 BKN120 OVC300 28/24 A2983
     RMK SLP105 T02750236=
PKWA 081100Z AUTO 06012KT 4SM RA BKN007 BKN017 OVC030 25/23 A2987
     RMK AO2 P0035 T02520234=
PLCH NIL=
PMDY 081056Z AUTO 00000KT 10SM FEW029 25/20 A3011 RMK AO2 TSNO
     T02500200 402940233 SLP503=
PTKK 081050Z VRB05KT 15SM FEW014 BKN120 OVC280 26/23 A2984 RMK
     SLP106 T02560232=
PTKR 081052Z 06004KT 15SM FEW018CB SCT120 OVC300 27/24 A2985 RMK
     CB DSNT NE SLP109 T02720240=
PTPN NIL=
PTRO 081054Z 00000KT 14SM SCT016TCU BKN120 BKN300 26/24 A2988 RMK
     TCU VC ALQDS=
PTSA NIL=
PTTP 081050Z 13003KT 15SM SCT018TCU BKN300 24/23 A2989 RMK TCU E-S
     SLP121 T02440228=
PTYA 081050Z 10012KT 12SM SCT016CB SCT030 BKN130 OVC300 27/23
     A2987 RMK SHRAB30E38 CB VC NE-SE SLP117 T02700231=
PWAK 081056Z 07012KT 6SM BR FEW024 27/25 A2999 RMK AO2A=
####018000385####
SAPH31 KWBC 081100
METAR
RPLB 081100Z 21006KT 9999 FEW020 BKN280 30/25 Q1009 NOSIG=
RPLC NIL=
RPLL 081100Z 10002KT 9999 FEW025TCU BKN300 31/25 Q1009 NOSIG RMK
     TCU S A2980=
RPMC NIL=
RPMD NIL=
RPMK NIL=
RPML NIL=
RPMM NIL=
RPMT NIL=
RPMZ NIL=
RPUW NIL=
RPVM 081100Z 16004KT 9999 FEW018CB BKN250 30/26 Q1010 A2982 CB W
     W/ OCNL LTNG=
RPWD NIL=
####018000284####
SAPO31 KWBC 081100
METAR
LPAZ NIL=
LPBJ NIL=
LPFL NIL=
LPFR NIL=
LPHR NIL=
LPLA 081100Z 15005KT 9999 -SHRA FEW008 SCT016 BKN028 20/18
     Q1024=
LPMA NIL=
LPMR NIL=
LPMT NIL=
LPOV NIL=
LPPD NIL=
LPPR NIL=
LPPS NIL=
LPPT NIL=
LPST NIL=
LPTN NIL=
####018000093####
SARA31 KWBC 081100 CCA
METAR
UTST 081100Z VRB01MPS CAVOK 41/04 Q1005 R88/CLRD70 NOSIG=
####018001048####
SARA31 KWBC 081100
METAR
UAAA NIL=
UACC NIL=
UAFM NIL=
UAFO NIL=
UAFP NIL=
UAOO NIL=
UARR NIL=
UATE NIL=
UATG NIL=
UATT NIL=
UBBB 081100Z 35020KT CAVOK 33/23 Q1010 NOSIG RMK R88CLRD70=
UBBG 081100Z 07014KT 9999 SCT083 35/17 Q1010 NOSIG RMK
     R12L/CLRD70=
UBEE NIL=
UEEE NIL=
UGEE NIL=
UGEL NIL=
UGGG NIL=
UGGN NIL=
UGMM NIL=
UGSS NIL=
UHHH NIL=
UHMA NIL=
UHMD NIL=
UHME NIL=
UHML NIL=
UHMM NIL=
UHMO NIL=
UHMP NIL=
UHPP NIL=
UHSS NIL=
UHWW NIL=
UIAA NIL=
UIBB NIL=
UIII NIL=
UIUU NIL=
ULAA NIL=
UMBB NIL=
UMGG NIL=
UMII NIL=
UMMG NIL=
UMMM NIL=
UMMS NIL=
UNAA NIL=
UNNN NIL=
UNNT NIL=
USNN NIL=
UTAA NIL=
UTAK NIL=
UTAT NIL=
UTAV NIL=
UTDD NIL=
UTDL NIL=
UTEE NIL=
UTKA NIL=
UTKF NIL=
UTKK NIL=
UTNK NIL=
UTNN NIL=
UTNR NIL=
UTNU NIL=
UTSA NIL=
UTSB NIL=
UTSD NIL=
UTSK NIL=
UTSS NIL=
UTTA NIL=
UTTR NIL=
UTTT 081100Z 29004MPS 250V310 CAVOK 39/04 Q1010 R08R/CLRD70
     NOSIG=
UTTW NIL=
UUEE NIL=
####018000028####
SARS31 KWBC 081100
NIL=
####018001695####
SAUS31 KWBC 081100
METAR
KABQ 081056Z 05009KT 10SM SCT100 BKN200 20/09 A3026=
KATL 081052Z 31003KT 10SM CLR 24/18 A3005=
KBGR 081053Z 18010KT 3SM BR OVC005 21/20 A3009=
KBHM 081053Z 00000KT 7SM CLR 24/22 A3008=
KBNA 081053Z 00000KT 10SM FEW080 SCT200 24/22 A3008=
KBOS 081054Z 17007KT 10SM CLR 22/19 A3009=
KBWI 081054Z 10007KT 4SM HZ SCT100 27/23 A3001=
KCHS 081056Z 27005KT 8SM CLR 24/19 A2997=
KCLE 081051Z 16003KT 5SM HZ FEW060 22/18 A3008=
KCLT 081052Z 33004KT 10SM FEW140 23/17 A3002=
KCVG 081052Z 00000KT 5SM BR CLR 22/20 A3009=
KDEN 081053Z 26005KT 6SM BR FEW018 BKN025 14/13 A3031=
KDFW 081053Z 13003KT 10SM -RA OVC012 26/23 A3001=
KDTW 081053Z 22003KT 4SM HZ FEW040 SCT150 24/21 A3004=
KEWR 081051Z 22003KT 4SM BR FEW005 SCT100 BKN130 BKN250 26/25
     A3003=
KFLL 081053Z 07007KT 10SM FEW022 28/24 A2993=
KIAD 081052Z 00000KT 5SM HZ FEW075 BKN095 BKN250 26/22 A3001=
KIAH NIL=
KIND 081054Z 00000KT 7SM FEW075 BKN110 BKN200 25/20 A3004=
KJAX 081056Z 25003KT 8SM CLR 20/19 A3000=
KJFK 081051Z 13007KT 1/8SM R04R/1800V3500FT BR BKN002 BKN120 24/23
     A3004=
KLAS 081056Z 22008KT 10SM FEW160 28/M04 A2981=
KLAX 081053Z 24003KT 10SM OVC012 16/12 A2990=
KLGA 081051Z 05006KT 3SM HZ BKN015 BKN095 BKN130 26/23 A3003=
KLGC 081055Z AUTO 9SM CLR 21/ A3004=
KLIT 081053Z 00000KT 7SM BKN150 BKN250 24/23 A3006=
KLOU 081053Z 00000KT 5SM HZ CLR 25/21 A3007=
KMCI 081053Z 00000KT 10SM OVC095 22/21 A3006=
KMCO 081053Z 35004KT 10SM MIFG FEW015 FEW250 22/21 A2999=
KMEM 081053Z 00000KT 10SM FEW150 SCT250 24/22 A3007=
KMIA 081053Z 01003KT 10SM FEW025TCU SCT100 BKN250 27/24 A2994=
KMSP 081053Z 31003KT 10SM FEW090 18/16 A3009=
####018000028####
SARS33 KWBC 081100
NIL=
####018000028####
SARS32 KWBC 081100
NIL=
####018000028####
SARS41 KWBC 081100
NIL=
####018001034####
SASA31 KWBC 081100
METAR
SEGU NIL=
SEQU NIL=
SKBO NIL=
SKBQ NIL=
SKCG NIL=
SKCL NIL=
SKLT NIL=
SKRG NIL=
SKSP NIL=
SMNI NIL=
SMZO NIL=
SMZY NIL=
SOCA 081100Z 00000KT 6000 -SHRA FEW003 SCT016 25/24 Q1013
     NOSIG=
SPIM 081100Z 16002KT 6000 OVC022 16/13 Q1013 NOSIG RMK PP000=
SPQT 081100Z /////KT 9999 FEW008 SCT100 24/23 Q1011 NOSIG RMK BIRD
     HAZARD RWY 06/24 PP000=
SPQU 081100Z 34005KT CAVOK 06/M09 Q1024 RMK PP000=
SPSO 081100Z 14003KT 8000 SKC 12/10 Q1013 RMK PP000=
SPTN 081100Z 15004KT 8000 SCT007 OVC012 11/09 Q1013 RMK PP000=
SPYL NIL=
SPZO 081100Z 00000KT 9999 FEW030 03/00 Q1032 TEMPO SCT036 RMK
     PP000=
SVBC 081100Z 00000KT CAVOK 25/22 Q1013=
SVMC 081100Z 36003KT 9999 SCT010 24/23 Q1011=
SVMG 081100Z 09010KT 9999 SCT010 SCT080 28/27 Q1012 NOSIG=
SVMI 081100Z 00000KT 9999 FEW016 BKN090 25/24 Q1014 RETS=
SYCJ 081100Z 09002KT 9000 SCT015 FEW016CB 26/25 Q1012 CB-W=
SYCJ 081100Z 09002KT 9000 SCT015 FEW016CB 26/25 Q1012 CB W
     NOSIG=
SYTM NIL=
####018000084####
SPUS52 KWBC 081106
SPECI
KESF 081103Z AUTO 00000KT 5SM BR BKN013 23/22 A3003=
####018000156####
SASA31 KWBC 081100 CCA
METAR
SPIM 081100Z VRB02KT 6000 OVC022 16/13 Q1013 NOSIG RMK PP000=
SPIM 081100Z VRB02KT OVC022 16/13 Q1013 NOSIG RMK PP000=
####018000176####
SASA41 KWBC 081100
METAR
SEMT NIL=
SEPA NIL=
SKBG NIL=
SKMD NIL=
SKPE NIL=
SKSM NIL=
SKVG NIL=
SMJP 081100Z 11003KT 8000 FEW008 FEW020CB 25/24 Q1013 NOSIG=
####018000256####
SASA42 KWBC 081100
METAR
SCAC NIL=
SCHA NIL=
SCSE 081100Z 12003KT CAVOK 08/05 Q1017 NEFO PLAYA SKC=
SCTC 081100Z 27007KT 9999 BKN012 OVC025 10/09 Q1014 RESHRA=
SCTI NIL=
SCVD NIL=
SELT NIL=
SUAG NIL=
SUDU NIL=
SUPU NIL=
SUTB NIL=
####018000028####
SASD41 KWBC 081100
NIL=
####018001039####
SASA32 KWBC 081100
METAR
SCAR 081100Z VRB01KT 9999 OVC021 15/09 Q1016=
SCBA 081100Z AUTO 28012KT CAVOK M02/M04 Q1001=
SCCF 081100Z 10027KT CAVOK M01/M16 Q1025=
SCCH NIL=
SCCI 081100Z 36012KT 9999 SCT025 M03/M05 Q0987 NOSIG=
SCDA 081100Z 36008KT 9999 OVC026 14/08 Q1017=
SCEL 081100Z 04005KT 020V090 4000 BR SCT130 02/01 Q1021 NOSIG=
SCFA 081100Z 00000KT 9999 OVC017 12/07 Q1016=
SCGE NIL=
SCIE 081100Z 29012KT 5000 -SHRA BKN006 OVC007 13/11 Q1019=
SCIP 081100Z 10003KT 9999 FEW012 BKN020 18/17 Q1023 TEMPO 5000
     -SHRA=
SCTE 081100Z 27004KT 6000 VCSH BKN025 08/07 Q1010 NOSIG=
SGAS 081100Z 14008KT 7000 BKN008 OVC015 17/15 Q1015=
SGES 081100Z 16004KT CAVOK 17/15 Q1015=
SLCB 081100Z 27003KT 3000SE FU FEW027 SCT200 05/03 Q1026=
SLCZ NIL=
SLLP 081100Z 06003KT 9999 NSC M04/M05 Q1037=
SLTJ 081100Z 00000KT 9999 FEW030 SCT200 06/04 Q1022=
SLTR NIL=
SLVR 081100Z 15013KT 9999 FEW030 BKN070 BKN200 19/18 Q1015=
SUAA NIL=
SUCA NIL=
SULS NIL=
SUMU NIL=
SUPE NIL=
SURV NIL=
SUSO NIL=
####018000311####
SASD43 KWBC 081100
METAR
OEMK NIL=
OEML NIL=
OEMU NIL=
OENG NIL=
OEOA NIL=
OEOF NIL=
OEOH NIL=
OEOS NIL=
OEOT NIL=
OEPA NIL=
OERC NIL=
OERF NIL=
OERG NIL=
OERL NIL=
OERR NIL=
OERX NIL=
OERY 081100Z 03018KT 3000 SA SKC 44/00 Q1007 NOSIG=
OESH NIL=
OESK NIL=
OESM NIL=
####018000028####
SASD42 KWBC 081100
NIL=
####018000028####
SASD44 KWBC 081100
NIL=
####018001510####
SASP31 KWBC 081100
METAR
LEAL 081100Z 08009KT 050V110 CAVOK 31/13 Q1019 NOSIG=
LEAM 081100Z 08013KT 050V110 CAVOK 37/07 Q1016=
LEAS 081100Z 04004KT 300V090 9999 BCFG SCT006 BKN014 20/19 Q1018
     NOSIG TEMPO 4000 BR=
LEBB 081100Z 28011KT 8000 FEW020 26/21 Q1016 NOSIG=
LEBL 081100Z 20015KT CAVOK 27/21 Q1019 NOSIG=
LECO 081100Z 02006KT CAVOK 24/21 Q1014=
LEGE 081100Z 15003KT CAVOK 34/15 Q1019=
LEGR 081100Z 16013KT 130V200 9999 FEW060 38/05 Q1018=
LEIB 081100Z 08010KT 050V120 CAVOK 29/21 Q1019 NOSIG=
LEJR 081100Z VRB02KT CAVOK 30/18 Q1016=
LELC 081100Z NIL=
LELL 081100Z 12007KT 080V160 CAVOK 31/16 Q1019=
LEMD 081100Z 18006KT 120V260 CAVOK 33/11 Q1020 NOSIG=
LEMG 081100Z 15011KT 100V200 9999 FEW030 31/13 Q1017 NOSIG=
LEMH 081100Z 17005KT 120V260 CAVOK 29/20 Q1021=
LEPA 081100Z 23007KT 200V260 CAVOK 30/11 Q1020 NOSIG=
LEPP 081100Z 16005KT 110V210 CAVOK 36/14 Q1018=
LERS 081100Z 19008KT 140V250 CAVOK 29/16 Q1019=
LESO 081100Z 03006KT 340V050 CAVOK 25/20 Q1015=
LEST 081100Z 11010KT 080V140 CAVOK 23/19 Q1015 NOSIG=
LETO 081100Z VRB02KT CAVOK 32/11 Q1020 NOSIG=
LEVC 081100Z 08004KT 340V150 CAVOK 32/20 Q1019 NOSIG=
LEVD 081100Z 19001KT CAVOK 33/09 Q1020=
LEVS 081100Z VRB01KT CAVOK 31/13 Q1020=
LEVT 081100Z 00000KT CAVOK 33/17 Q1018=
LEVX 081100Z 26010KT CAVOK 26/22 Q1014=
LEXJ 081100Z 28010KT 250V310 9999 SCT018 25/19 Q1016=
LEZG 081100Z 09009KT 050V120 CAVOK 34/14 Q1018=
LEZL 081100Z 30006KT 260V350 9999 SCT025 30/17 Q1015 NOSIG=
####018001040####
SAUS31 KWBC 081100 RRA
METAR
KMSY 081053Z 00000KT 9SM FEW016 SCT250 26/23 A3001=
KOAK 081053Z 29008KT 10SM OVC007 15/11 A2993=
KOKC 081052Z 01005KT 10SM FEW021 BKN080 OVC130 23/22 A3005=
KONT 081053Z 21004KT 5SM BR OVC010 15/13 A2989=
KORD 081051Z 18003KT 9SM -RA FEW025 SCT060 BKN075 OVC150 23/22
     A3002=
KORF 081051Z 11007KT 10SM BKN010 BKN110 26/23 A2997=
KPBI 081053Z 04005KT 10SM SCT023CB SCT150 BKN250 27/24 A2994=
KPHF 081054Z 10006KT 5SM BR FEW080 SCT100 26/24 A2998=
KPHL 081054Z 12004KT 3SM BR FEW150 25/23 A3003=
KPHX 081051Z 00000KT 10SM FEW170 31/02 A2976=
KPIT 081051Z 00000KT 5SM HZ SCT050 21/18 A3010=
KRDU 081051Z 03005KT 5SM HZ SCT080 25/19 A2999=
KSAN 081051Z 31005KT 10SM SCT014 OVC017 17/13 A2991=
KSEA 081053Z 01008KT 10SM CLR 21/11 A2996=
KSFO 081056Z 26010KT 10SM BKN008 OVC013 13/11 A2992=
KSTL 081051Z 23003KT 10SM FEW012 BKN044 BKN080 BKN250 26/23
     A3005=
KSWF NIL=
KTEB 081051Z 00000KT 3SM MIFG CLR 26/22 A3002=
KTPA 081053Z 00000KT 10SM SCT200 24/22 A2999=
####018000591####
SATS31 KWBC 081100
METAR
DTMB 081100Z 03008KT CAVOK 29/15 Q1019 NOSIG=
DTTA 081100Z 05008KT 010V080 CAVOK 30/19 Q1019 NOSIG=
DTTB 081100Z 31010KT 9999 FEW020 29/16 Q1019=
DTTD 081100Z 11006KT 050V170 CAVOK 30/14 Q1020=
DTTG 081100Z 08010KT CAVOK 32/12 Q1018 NOSIG=
DTTJ 081100Z 07010KT CAVOK 29/21 Q1019 NOSIG=
DTTK 081100Z 13002KT CAVOK 34/11 Q1018=
DTTL 081100Z 28006KT CAVOK 30/19 Q1019=
DTTN 081100Z 32006KT CAVOK 33/16 Q1018=
DTTR 081100Z 10006KT CAVOK 34/11 Q1019=
DTTX 081100Z 15008KT CAVOK 30/19 Q1019 NOSIG=
DTTZ 081100Z 10010KT CAVOK 34/22 Q1018 NOSIG=
####018000028####
SATN41 KWBC 081100
NIL=
####018000085####
SALJ32 LJLJ 081100
METAR LJCE 081100Z 16003KT 040V220 CAVOK 25/10 Q1023 RMK BLU=
####018000416####
SACZ43 LKPW 081100
METAR LKCV 081100Z VRB03KT CAVOK 23/08 Q1023 NOSIG=
METAR LKKB 081100Z 28003KT 220V020 9999 FEW043 SCT200 23/08
           Q1023 NOSIG=
METAR LKLN 081100Z AUTO 18004KT 140V270 CAVOK 24/10 Q1024=
METAR LKNA 081100Z 36005KT CAVOK 21/09 Q1024 NOSIG=
METAR LKPD 081100Z VRB04KT 9999 FEW045 SCT100 24/07 Q1023
           NOSIG=
METAR COR LKPO 081100Z 34003KT CAVOK 22/11 Q1023 NOSIG=
####018000152####
SAUK42 KWBC 081050 RRE
METAR
EGOS 081050Z 24010KT 9999 SCT032 18/09 Q1018 BLU NOSIG=
EGOV 081050Z 21013KT 9999 FEW014 BKN090 17/13 Q1017 NOSIG=
####018000183####
SALJ31 LJLJ 081100
METAR LJLJ 081100Z 13002KT 9999 FEW040 24/11 Q1023 NOSIG=
METAR LJMB 081100Z 36004KT 9999 FEW040 24/08 Q1023=
METAR LJPZ 081100Z 30008KT CAVOK 25/12 Q1022=
####018000326####
SARO33 LROM 081100
METAR LRBC 081100Z 01012KT 9999 BKN026 22/16 Q1017=
METAR LRCV 081100Z VRB04KT 9999 FEW033 23/14 Q1017=
METAR LRIA 081100Z 31012KT 280V350 9999 FEW016 SCT022 22/17 Q1017=
METAR COR LRSV 081100Z 32013KT 9999 BKN012 OVC028 17/14 Q1019=
METAR LRTC 081100Z 36008KT 9999 FEW030CB BKN040 23/17 Q1015=
####018000027####
SAKY31 RUMS 081100
NIL
####018000309####
SAPL32 EPWA 081100
METAR EPKT 081100Z 31007KT CAVOK 22/09 Q1023=
METAR EPLL 081100Z VRB02KT CAVOK 22/06 Q1022=
METAR EPSC 081100Z 17003KT CAVOK 24/11 Q1022=
METAR EPWR 081100Z VRB04KT CAVOK 24/09 Q1023=
METAR EPBY 081100Z VRB03KT CAVOK 24/08 Q1022=
METAR EPZG 081100Z 17004KT CAVOK 25/07 Q1022=
####018000689####
SAKZ31 RUMS 081100
METAR UAAA 081100Z 20005MPS 9999 -SHRA BKN050CB OVC100 25/16 Q1014
88CLRD65 TEMPO TS=
METAR UACC 081100Z 31005MPS 280V340 CAVOK 24/03 Q1008 220/0070 NOSIG
RMK QFE725/0967=
METAR UAKK 081100Z 01006MPS 9999 BKN050CB BKN/// 24/03 Q1009 230///70
NOSIG RMK QFE710/0947=
METAR UAOO 081100Z NIL=
METAR UARR 081100Z NIL=
METAR UATE 081100Z 01005G10MPS CAVOK 39/07 Q1010 300///70 NOSIG RMK
QFE756/1008=
METAR UATG 081100Z 30005G10MPS CAVOK 39/09 Q1008 32CLRD70 NOSIG RMK
QFE758/1011 =
METAR UATT 081100Z 06008MPS 9999 NSC 33/02 Q1010 13CLRD70 NOSIG RMK
QFE738/0984=
METAR UAUU 081100Z 35005MPS CAVOK 26/M02 Q1012 33CLRD70 NOSIG RMK
QFE744/0992=
####018000401####
SARO32 LROM 081100
METAR LRAR 081100Z 35008KT 310V050 9999 SCT034 23/16 Q1020=
METAR LRBM 081100Z 27004KT 9999 SCT020 19/17 Q1019=
METAR LRCL 081100Z 29004KT 250V330 9999 FEW016 BKN026 17/13 Q1021
0821//95=
METAR LROD 081100Z 36010KT 9999 SCT045 22/13 Q1021=
METAR LRSM 081100Z 36006KT 310V050 9999 SCT040 22/13 Q1020=
METAR LRTM 081100Z 23006KT 9999 FEW015 SCT026 BKN031 17/14 Q1021=
####018000293####
SATR31 RUMS 081100
METAR UTAA 081100Z 11003MPS 9999 SKC 44/03 Q1007 NOSIG=
METAR UTAK 081100Z 29003MPS CAVOK 38/14 Q1008 NOSIG=
METAR UTAM 081100Z 02005MPS CAVOK 42/05 Q1005 NOSIG=
METAR UTAT 081100Z 14003MPS CAVOK 44/19 Q1007 NOSIG=
METAR UTAV 081100Z 04004MPS CAVOK 40/08 Q1006=
####018000149####
SAOM20 OOMS 081100
METAR OOMS 081100Z 05004KT 010V080 6000 -DZ SCT025
BKN120 33/28 Q1001 NOSIG=
METAR OOSA 081050Z AUTO 17008KT 28/23 Q1002=
####018000787####
SAEW32 LEMM 081100
METAR LEAS 081100Z 04004KT 300V090 9999 BCFG SCT006 BKN014 20/19
Q1018 NOSIG TEMPO 4000 BR=
METAR LEBB 081100Z 28011KT 8000 FEW020 26/21 Q1016 NOSIG=
METAR LECO 081100Z 02006KT CAVOK 24/21 Q1014=
METAR LEGE 081100Z 15003KT CAVOK 34/15 Q1019=
METAR LEST 081100Z 11010KT 080V140 CAVOK 23/19 Q1015 NOSIG=
METAR LEZG 081100Z 09009KT 050V120 CAVOK 34/14 Q1018=
METAR LESO 081100Z 03006KT 340V050 CAVOK 25/20 Q1015=
METAR LEVT 081100Z 00000KT CAVOK 33/17 Q1018=
METAR LERS 081100Z 19008KT 140V250 CAVOK 29/16 Q1019=
METAR LEMH 081100Z 17005KT 120V260 CAVOK 29/20 Q1021=
METAR LEAM 081100Z 08013KT 050V110 CAVOK 37/07 Q1016=
METAR LEGR 081100Z 16013KT 130V200 9999 FEW060 38/05 Q1018=
METAR LERL 081100Z 03009KT 360V060 9999 FEW050 32/10 Q1018=
####018000176####
SAAY31 RUMS 081100
METAR UDYZ 081100Z 21002MPS 130V270 9999 FEW050 37/13 Q1009 09010070
NOSIG=
METAR UDSG 081100Z 07010MPS 9999 SCT050TCU 30/15 Q1015 02CLRD70
NOSIG=
####018000111####
SAMS33 WMKK 081100 CCA
METAR 081100Z
METAR WMKN 081100Z 18005KT 9999 FEW017CB SCT020 BKN250 28/24 Q1008=
####018000192####
SATA31 RUMS 081100
METAR UTDD 081100Z VRB01MPS 9999 FEW066 37/05 Q1009 09CLRD70 NOSIG
RMK QFE689/0919=
METAR UTDL 081100Z 24004MPS 9999 FEW053 39/10 Q1009 NOSIG RMK QFE719
8809//70=
####018000413####
SAVN42 KWBC 081100
METAR
SVPC 081100Z NIL=
SVPM 081100Z 00000KT 9999 SCT035 XX/XX Q1015=
SVPR NIL=
SVSA 081100Z 00000KT 9999 BKN020 21/20 Q1015=
SVSE NIL=
SVSO 081100Z NIL=
SVSP 081100Z NIL=
SVSR NIL=
SVST NIL=
SVSZ 081100Z 00000KT 9999 OVC015 XX/XX Q1011=
SVTM NIL=
SVVA 081100Z 20002KT 9999 REDZ SCT016 OVC100 23/22 Q1014=
SVVL 081100Z 00000KT 9999 SCT060 22/20 Q1021=
SVVP NIL=
####018000789####
SAUR31 KWBC 081100
METAR
UKBB NIL=
UKCC NIL=
UKCW 081100Z 02002MPS 280V070 9999 BKN040 29/15 Q1015 2709//70
     NOSIG=
UKDD NIL=
UKDE NIL=
UKDR NIL=
UKFF NIL=
UKHH NIL=
UKKE NIL=
UKKK 081100Z 26003MPS 9999 BKN033 25/18 Q1015 26CLRD70 NOSIG=
UKKM 081100Z 32005MPS 280V340 9999 SCT030 BKN100 24/18 Q1015
     33CLRD70 NOSIG=
UKLI 081100Z 30003MPS 9999 SCT023CB BKN030 17/14 Q1020 28290565
     NOSIG=
UKLL NIL=
UKLN 081100Z 30006MPS 260V340 9999 BKN011 BKN033CB 15/14 Q1020
     3319//65 NOSIG=
UKLR 081100Z 31006MPS 9999 BKN023 BKN100 21/15 Q1018 30090070
     NOSIG=
UKLT NIL=
UKLU 081100Z 35005MPS 9999 SCT040 23/10 Q1021 10090070 NOSIG=
UKON 081100Z 32003MPS 270V360 9999 FEW033TCU OVC200 28/17 Q1013
     05090075 NOSIG=
UKOO NIL=
####018000421####
SAPL31 EPWA 081100
METAR EPWA 081100Z 31010KT 280V350 9999 SCT046 22/12 Q1021
      NOSIG=
METAR EPGD 081100Z VRB05KT CAVOK 24/09 Q1021=
METAR EPKK 081100Z 33005KT 290V010 9999 FEW053 23/08 Q1022=
METAR EPPO 081100Z 30008KT 250V350 CAVOK 24/08 Q1022=
METAR EPRZ 081100Z 33007KT 290V030 9999 SCT043 21/11 Q1021=
METAR EPBY 081100Z VRB03KT CAVOK 24/08 Q1022=
METAR EPZG 081100Z 17004KT CAVOK 25/07 Q1022=
####018001312####
SAXX61 KWBC 081100
METAR
EDAD NIL=
EDAH 081050Z VRB02KT CAVOK 24/09 Q1022=
EDAR NIL=
EDAS NIL=
EDDS 081050Z VRB03KT CAVOK 26/08 Q1022 NOSIG=
EDEB NIL=
EDEH NIL=
EDEU NIL=
EDIC NIL=
EDID NIL=
EDIE NIL=
EDIH NIL=
EDIK NIL=
EDMA 081050Z 10006KT 020V160 CAVOK 24/09 Q1022=
EGPK 081050Z 23015KT 9999 FEW024 17/09 Q1014=
EGUA NIL=
EGUL 081055Z AUTO 25008KT 9999 FEW032 21/13 A3005 RMK AO2 SLP179
     T02100127=
EGUN 081055Z AUTO 24009KT 9999 FEW031 BKN120 BKN140 21/17 A3006
     RMK AO2 CIG 100 RWY11 SLP170 T02060167=
EGVA 081055Z AUTO 21007KT 9999 SCT032 SCT070 SCT190 21/12 A3007
     RMK AO2 SLP182 T02070116=
EGVJ NIL=
EGWZ NIL=
ETAD 081055Z AUTO 00000KT 9999 CLR 28/10 A3016 RMK AO2 SLP197
     T02760104 $=
ETAR 081055Z AUTO 00000KT 9999 CLR 29/14 A3014 RMK AO2 SLP198
     T02880141 $=
KQHT NIL=
KQIR 081055Z 03006KT 8000 HZ CLR 41/26 A2950 RMK AO2A SLP987
     T04120257=
KQJL NIL=
KQUZ NIL=
LEMO 081100Z VRB03KT CAVOK 29/19 Q1016 NOSIG=
LERT NIL=
LICZ NIL=
LIRN 081050Z 05012KT CAVOK 28/13 Q1019=
LIYW 081055Z AUTO 21011KT 9999 CLR 25/15 A3020 RMK AO2 SLP224
     T02530146=
LPLA 081100Z 15005KT 9999 -SHRA FEW008 SCT016 BKN028 20/18
     Q1024=
LTAC 081050Z 06012KT 030V090 9999 SCT040 29/15 Q1012 NOSIG=
LTAG NIL=
####018001259####
SAXX62 KWBC 081100
METAR
FJDG NIL=
FUDG NIL=
PHBK 081056Z AUTO 00000KT 10SM BKN050 BKN080 24/18 A3002 RMK AO2
     SLP168 T02440178 TSNO $=
PHHI 081055Z AUTO 30004KT 10SM FEW044 19/17 A3005 RMK AO2 SLP165
     T01850167=
PHNG 081057Z 08007KT 10SM SCT020 BKN040 24/19 A3004 RMK AO2 RAE05
     SLP168 P0000 T02440194 $=
PHSF NIL=
PJON NIL=
PKMJ NIL=
PKWA 081100Z AUTO 06012KT 4SM RA BKN007 BKN017 OVC030 25/23 A2987
     RMK AO2 P0035 T02520234=
PMDY 081056Z AUTO 00000KT 10SM FEW029 25/20 A3011 RMK AO2 TSNO
     T02500200 402940233 SLP503=
PTSA NIL=
PWAK 081056Z 07012KT 6SM BR FEW024 27/25 A2999 RMK AO2A=
RJOI 081100Z 12006KT 9000 HZ SCT120 OVC230 27/23 A2981 RMK SLP094
     T02670233=
RJTA NIL=
RJTX NIL=
RJTY 081055Z AUTO 17007KT 9999 CLR 25/21 A2988 RMK AO2 SLP112
     T02460214 $=
RKJJ NIL=
RKJK NIL=
RKNC NIL=
RKPK 081100Z 14004KT 9999 FEW030 BKN200 24/17 Q1009 NOSIG=
RKSB NIL=
RKSG NIL=
RKSK NIL=
RKSM NIL=
RKSO 081055Z 09007KT 9999 -DZ FEW010 BSCT040 24/24 A2977 RMK AO2A
     RAB1028E1044DZB1044 SLP081 P0000 T02410241 $=
RKST NIL=
RKSY NIL=
RKTG NIL=
RKTH NIL=
RODN 081055Z AUTO 17011KT 9999 SCT017 BKN190 29/26 A2984 RMK AO2
     CIG 017 RWY05 SLP105 T02880261=
####018003745####
SAXX99 KWBC 081100
METAR
A29E NIL=
ANYN NIL=
APCL NIL=
ARND NIL=
ASSW NIL=
AT20 NIL=
ATAR NIL=
AVOK NIL=
AYMO NIL=
AZNZ NIL=
BAJO NIL=
BGAA 081050Z VRB02KT 0400 FG VV002 04/03 Q1009=
BGMQ 081050Z 15004KT 100V190 0900 FG VV003 05/04 Q1009=
BGQQ 081050Z 18004KT 2500 BR BKN002 04/// Q1010 RMK 7ST=
BGSS 081050Z 19003KT 0350 FG VV002 04/04 Q1009=
BGUK 081050Z AUTO 15003KT 9999NDV NCD 06/03 Q1010=
BGUQ 081055Z NIL=
BGUQ 081050Z 08008KT 9999 VCFG SKC 09/09 Q1009=
BH31 NIL=
BKPR 081100Z 01008KT 9999 SCT030 BKN070 16/11 Q1021 NOSIG RMK
     BLU=
BOVE NIL=
CHEC NIL=
CI41 NIL=
CMBB NIL=
CMBR NIL=
CMCT NIL=
CMCW NIL=
CMFM NIL=
CMGB NIL=
CMHN NIL=
CMHW NIL=
CMLA NIL=
CMPD NIL=
CMPL NIL=
CMRI NIL=
CMRU NIL=
CMRY NIL=
CMSB NIL=
CMSC NIL=
CMSX NIL=
CMYT NIL=
CPBT NIL=
CPEH NIL=
CPFI NIL=
CPIR NIL=
CPRO NIL=
CPRY NIL=
CPST NIL=
CPSV NIL=
CPXL NIL=
CQCM NIL=
CTAE NIL=
CTAL NIL=
CTCK NIL=
CTCW NIL=
CTWN NIL=
CWAE NIL=
CWBU NIL=
CWCA NIL=
CWCL NIL=
CWDL NIL=
CWEU NIL=
CWFD NIL=
CWGZ NIL=
CWHN NIL=
CWIK NIL=
CWIL NIL=
CWKM NIL=
CWKW NIL=
CWLI NIL=
CWLX NIL=
CWLY NIL=
CWMT NIL=
CWOB NIL=
CWRH NIL=
CWRX NIL=
CWSA NIL=
CWSW NIL=
CWTU NIL=
CWUP NIL=
CWUW NIL=
CWVD NIL=
CWVH NIL=
CWWU NIL=
CWXR NIL=
CWYK NIL=
CWYM NIL=
CWZZ NIL=
CXAK NIL=
CXDB NIL=
CXFM NIL=
CXHD NIL=
CXHP NIL=
CXMG NIL=
CXMO NIL=
CXOL NIL=
CXPL NIL=
CXSC NIL=
CXSL NIL=
CXSP NIL=
CXTH NIL=
CXVM NIL=
CXVW NIL=
CYAH NIL=
CYAM NIL=
CYAS NIL=
CYAY NIL=
CYAZ NIL=
CYBB NIL=
CYBC NIL=
CYBD NIL=
CYBK NIL=
CYBL NIL=
CYBN NIL=
CYBR NIL=
CYBU NIL=
CYBV NIL=
CYBW NIL=
CYBX NIL=
CYCB NIL=
CYCD NIL=
CYCG NIL=
CYCO NIL=
CYCP NIL=
CYCQ NIL=
CYCS NIL=
CYCX NIL=
CYCY NIL=
CYDA NIL=
CYDB NIL=
CYDC NIL=
CYDF NIL=
CYDN NIL=
CYDP NIL=
CYED NIL=
CYEK NIL=
CYEL NIL=
CYEN NIL=
CYET NIL=
CYEV NIL=
CYFO NIL=
CYFR NIL=
CYFS NIL=
CYGE NIL=
CYGH NIL=
CYGK NIL=
CYGP NIL=
CYGQ NIL=
CYGR NIL=
CYGT NIL=
CYGV NIL=
CYGW NIL=
CYGX NIL=
CYHA NIL=
CYHD NIL=
CYHE NIL=
CYHH NIL=
CYHI NIL=
CYHK NIL=
CYHM NIL=
CYHU NIL=
CYHY NIL=
CYIK NIL=
CYIO NIL=
CYIV NIL=
CYJF NIL=
CYKA NIL=
CYKD NIL=
CYKF NIL=
CYKG NIL=
CYKJ NIL=
CYKO NIL=
CYKQ NIL=
CYKY NIL=
CYKZ NIL=
CYLD NIL=
CYLJ NIL=
CYLK NIL=
CYLL NIL=
CYLT NIL=
CYLU NIL=
CYLW NIL=
CYMA NIL=
CYMJ NIL=
CYMM NIL=
CYMO NIL=
CYMT NIL=
CYMU NIL=
CYNA NIL=
CYNC NIL=
CYND NIL=
CYNE NIL=
CYNM NIL=
CYOA NIL=
CYOC NIL=
CYOD NIL=
CYOJ NIL=
CYOY NIL=
CYPA NIL=
CYPC NIL=
CYPE NIL=
CYPG NIL=
CYPH NIL=
CYPQ NIL=
CYPR NIL=
CYPW NIL=
CYPX NIL=
CYPY NIL=
CYQA NIL=
CYQD NIL=
CYQF NIL=
CYQH NIL=
CYQI NIL=
CYQK NIL=
CYQL NIL=
CYQR NIL=
CYQT NIL=
CYQU NIL=
CYQV NIL=
CYQW NIL=
CYQZ NIL=
CYRA NIL=
CYRJ NIL=
CYRL NIL=
CYRT NIL=
CYRV NIL=
CYSB NIL=
CYSC NIL=
CYSD NIL=
CYSF NIL=
CYSK NIL=
CYSL NIL=
CYSM NIL=
CYSN NIL=
CYSR NIL=
CYSY NIL=
CYTH NIL=
CYTJ NIL=
CYTQ NIL=
CYTS NIL=
CYTZ NIL=
CYUA NIL=
CYUB NIL=
CYUS NIL=
CYUT NIL=
CYUX NIL=
CYVC NIL=
CYVM NIL=
CYVO NIL=
CYVQ NIL=
CYVT NIL=
CYVV NIL=
CYWA NIL=
CYWH NIL=
CYWJ NIL=
CYWL NIL=
CYWO NIL=
CYWY NIL=
CYXC NIL=
CYXD NIL=
CYXE NIL=
CYXH NIL=
CYXJ NIL=
CYXL NIL=
CYXN NIL=
CYXP NIL=
CYXQ NIL=
CYXR NIL=
CYXS NIL=
CYXT NIL=
CYXZ NIL=
CYYB NIL=
CYYD NIL=
CYYE NIL=
CYYF NIL=
CYYG NIL=
CYYH NIL=
CYYL NIL=
CYYN NIL=
CYYU NIL=
CYYY NIL=
CYZE NIL=
CYZG NIL=
####018003701####
SAXX99 KWBC 081100 RRA
METAR
CYZH NIL=
CYZP NIL=
CYZR NIL=
CYZS NIL=
CYZT NIL=
CYZU NIL=
CYZW NIL=
CZCP NIL=
CZEM NIL=
CZEV NIL=
CZFA NIL=
CZFM NIL=
CZFN NIL=
CZFS NIL=
CZHY NIL=
CZMU NIL=
CZOL NIL=
CZPC NIL=
CZPS NIL=
CZSM NIL=
CZST NIL=
CZUM NIL=
DAAD NIL=
DAAE NIL=
DAAJ NIL=
DAAP NIL=
DAAS NIL=
DAAV NIL=
DAAY NIL=
DABO NIL=
DABT NIL=
DAFH NIL=
DAMR NIL=
DAOB NIL=
DAOF NIL=
DAOL NIL=
DAOR NIL=
DAOV NIL=
DATG NIL=
DATM NIL=
DAUB NIL=
DAUE NIL=
DAUI NIL=
DAUK NIL=
DAUL NIL=
DAUO NIL=
DAUS NIL=
DAUT NIL=
DAUU NIL=
DFFD NIL=
DFOO NIL=
DJ21 NIL=
DNEN NIL=
DNIB NIL=
DRZR NIL=
DTKA 081100Z 30010KT 270V330 9999 FEW023 27/21 Q1020 NOSIG=
DTTF 081100Z 22006KT CAVOK 33/14 Q1017 NOSIG=
DTTH NIL=
DUPE NIL=
EATR NIL=
EATZ NIL=
EDAC 081050Z VRB03KT 200V200 CAVOK 26/11 Q1022=
EDDE 081050Z 11004KT 010V140 CAVOK 27/09 Q1022 NOSIG=
EDFH 081050Z 11006KT 060V170 CAVOK 27/11 Q1022=
EDGS 081050Z 15006KT 040V210 CAVOK 25/10 Q1022=
EDHK NIL=
EDLV 081050Z 18007KT 120V270 CAVOK 30/11 Q1019=
EDOP 081050Z 20011KT 150V220 CAVOK 28/09 Q1020=
EDRZ 081050Z 13004KT 050V220 CAVOK 29/12 Q1021=
EDSB 081050Z 35005KT 310V050 CAVOK 28/13 Q1020=
EDTL 081050Z VRB03KT CAVOK 29/13 Q1020=
EEKA 081050Z 31009KT 250V340 CAVOK 22/13 Q1016=
EEKE 081050Z 34008KT 290V010 CAVOK 22/13 Q1016=
EEPU 081050Z 30006KT 9999 FEW025 24/19 Q1014=
EETU 081050Z 31003KT 250V040 9999 FEW026TCU SCT033 26/19 Q1013=
EFCA NIL=
EFET 081050Z AUTO 20010KT 160V230 CAVOK 21/06 Q1014=
EFHA 081050Z VRB01KT 9999 FEW030TCU SCT200 23/16 Q1015=
EFJO 081050Z AUTO VRB02KT CAVOK 26/19 Q1015=
EFKA 081050Z 24005KT 110V290 9999 FEW040 BKN200 24/12 Q1015=
EFKI 081050Z AUTO 34003KT CAVOK 22/13 Q1016=
EFKS 081050Z AUTO VRB04KT CAVOK 19/11 Q1017=
EFKT 081050Z AUTO 17009KT 090V210 CAVOK 22/08 Q1015=
EFLP 081050Z AUTO VRB05KT CAVOK 31/13 Q1014=
EFMI 081050Z AUTO VRB03KT 9999 FEW040 29/18 Q1014=
EFSA 081050Z 04004KT 350V090 9999 FEW045 29/17 Q1014=
EFSI 081050Z AUTO 21003KT CAVOK 24/12 Q1015=
EFUT 081050Z 00000KT CAVOK 29/15 Q1013=
EFVR 081055Z NIL=
EGCN 081050Z 24012KT 200V280 9999 SCT033 20/10 Q1018=
EGDX 081050Z 26006KT 9999 FEW020 BKN100 19/10 Q1018 BLU=
EGEC 081050Z NIL=
EGHK 081050Z 15006KT 9999 FEW022 17/15 Q1018=
EGMH 081050Z 23005KT 160V300 9999 FEW016 24/17 Q1019=
EGNO NIL=
EGNR 081050Z 26010KT 230V300 9999 SCT030 20/10 Q1017=
EGOM 081050Z 24016KT 9999 FEW022 SCT050 16/10 Q1014 BLU=
EGOP 081050Z 22008KT 9999 FEW020 BKN100 18/13 Q1018 BLU=
EGPI 081050Z 21017KT 9999 FEW024 SCT035 16/10 Q1012=
EGPI 081050Z NIL=
EGQA 081050Z 18019KT 9999 VCSH FEW018 SCT050 15/// Q1009 BLU=
EGTG 081050Z 27005KT 9999 FEW025 20/12 Q1018=
EGUB 081050Z 22006KT 9999 BKN026 SCT120 21/16 Q1018 NOSIG=
EGUB 081050Z 22006KT 9999 BKN026 SCT120 21/16 Q1018 BLU NOSIG=
EGUB 081050Z NIL=
EGUW 081050Z 24007KT 9999 FEW024 BKN130 BKN250 21/14 Q1018 BLU
     NOSIG=
EGUY 081050Z 25008KT 9999 FEW050 SCT120 BKN150 20/10 Q1018 BLU=
EGVN 081050Z NIL=
EGVO NIL=
EGVP NIL=
EGWC 081050Z 21008KT 9999 BKN025 18/10 Q1018 BLU=
EGWU 081050Z NIL=
EGXC 081050Z 21013KT 9999 FEW030 BKN250 20/10 Q1017 NOSIG=
EGXC 081050Z 21013KT 9999 FEW030 BKN250 20/10 Q1017 BLU NOSIG=
EGXC 081050Z NIL=
EGXD 081050Z 24013KT 9999 FEW040 BKN150 20/09 Q1016 BLU NOSIG=
EGXE 081050Z 22012KT 9999 FEW035 SCT060 BKN180 19/12 Q1016 BLU
     NOSIG=
EGXE 22012KT 9999 FEW035 SCT060 BKN180 19/12 Q1016 BLU NOSIG=
EGXG NIL=
EGXJ 081050Z 23011KT 9999 FEW030 SCT250 19/07 Q1017 BLU=
EGXT 081050Z NIL=
EGXU 081050Z 23011 9999 FEW039 SCT150 19/09 Q1016 BLU NOSIG=
####018003744####
SAXX99 KWBC 081100 RRB
METAR
EGXX 081050Z AUTO 22009KT 9999NDV // NCD ///// Q////=
EGXZ 081050Z 25011KT 9999 FEW040 SCT050 19/09 Q1016 BLU=
EGYC NIL=
EGYD 081050Z 23012KT 9999 FEW040 SCT120 BKN250 20/09 Q1017 BLU
     NOSIG=
EGYD 081050Z NIL=
EGYE NIL=
EGYH 081050Z 24010KT 9999 FEW040 20/// Q1018 BLU=
EGYP NIL=
EGYW NIL=
EKGF 081050Z 22010KT 9999 FEW047 16/16 Q1017=
EKGF 081050Z NIL=
ENBS 081050Z 03006KT 9999 FEW020 SCT025 13/08 Q1017=
ENDR 081050Z NIL=
ENHE 081050Z 19020KT CAVOK 15/11 Q1008=
ENHK 081050Z 09011KT 9999 FEW029 SCT058 BKN085 18/10 Q1012=
ENSS 081050Z 12006KT 9999 BKN022 09//08 Q1018=
EPLL NIL=
EPWR 081100Z VRB04KT CAVOK 24/09 Q1023=
EQAC NIL=
EQAV NIL=
EQBA NIL=
EQBC NIL=
EQBF NIL=
ERAR NIL=
ESGR 081050Z AUTO 22013KT 9999NDV SCT043/// BKN057/// 23/13
     Q1018=
ESGT 081050Z 22011KT 9999 BKN029 20/13 Q1018=
ESGT 081050Z NIL=
ESKM 081050Z NIL=
ESMQ 081050Z 18014KT CAVOK 23/12 Q1020=
ESMT 081050Z 18014KT CAVOK 23/13 Q1020=
ESNG 081050Z NIL=
ESNK 081050Z AUTO 16009KT 9999NDV FEW100/// 23/12 Q1012=
ESNL 081050Z 14009KT 9999 FEW040 20/11 Q1013=
ESNX 081050Z AUTO 19006KT 8000NDV RA SCT012/// BKN030/// BKN040///
     15/13 Q1014 RESHRA=
ESNY 081050Z AUTO 27012KT 9999 SCT040 BKN050 24/16 Q1014=
ESOE 081050Z NIL=
ESSF 081050Z NIL=
ESSK 081050Z NIL=
ESSL 081050Z 24008KT 200V310 9999 SCT045 23/12 Q1018=
ESTA 081050Z 17014KT CAVOK 22/13 Q1020=
ESTL 081050Z AUTO 20010KT 9999NDV FEW027/// OVC055/// 23/12
     Q1020=
ESUD 081050Z NIL=
ESUT 081050Z AUTO 15009KT 9999NDV OVC074/// 18/10 Q1010=
ETER NIL=
ETGG NIL=
ETGY NIL=
ETGZ NIL=
ETHA NIL=
ETHB NIL=
ETHC NIL=
ETHE NIL=
ETHF NIL=
ETHL NIL=
ETHM NIL=
ETHN NIL=
ETHR NIL=
ETHS NIL=
ETME NIL=
ETMN NIL=
ETND NIL=
ETNH NIL=
ETNJ NIL=
ETNL NIL=
ETNN NIL=
ETNP NIL=
ETNS NIL=
ETNT NIL=
ETNU NIL=
ETNW NIL=
ETOU 081055Z AUTO VRB03KT 9999 CLR 27/11 A3016 RMK AO2 SLP208
     T02750106=
ETSA NIL=
ETSB NIL=
ETSE NIL=
ETSH NIL=
ETSI NIL=
ETSL NIL=
ETSN NIL=
ETUO 081050Z 19004KT CAVOK 30/10 Q1019 BLU NOSIG=
ETWM NIL=
EVLA 081050Z 31006KT 240V020 CAVOK 22/15 Q1018=
EVVA 081050Z AUTO 32010KT 300V360 CAVOK 22/17 Q1018=
EW09 NIL=
EW20 NIL=
EYAR NIL=
EYKA 081050Z 28008KT 220V320 9999 BKN027 OVC034 17/14 Q1016=
EYPA 081050Z 32006KT CAVOK 21/16 Q1018 NOSIG=
EYZR NIL=
FAAB NIL=
FAGC 081100Z AUTO 04008KT //// // ////// 15/03 Q1034=
FAJB 081100Z AUTO 04004KT //// // ////// 17/04 Q1033=
FAKD NIL=
FAKM NIL=
FAMM 081100Z 02010KT 9999 FEW040 18/04 Q1031 NOSIG=
FANS NIL=
FAPP 081100Z 08008KT 9999 BKN035 15/07 Q1031 NOSIG=
FAPS NIL=
FARG NIL=
FASI 081100Z AUTO 05005KT //// // ////// 16/M01 Q1033=
FASR NIL=
FAVE NIL=
FAVV 081100Z AUTO 06011KT //// // ////// 16/03 Q1031=
FBFG NIL=
FBGH NIL=
FBLT NIL=
FBPA NIL=
FBSN NIL=
FBWD NIL=
FDGZ NIL=
FDWD NIL=
FEFG NIL=
FKYS NIL=
FMEP 081100Z 12027KT 9999 FEW013 24/16 Q1020=
FMMS NIL=
FMNA NIL=
FMSD NIL=
FMST NIL=
FNBG NIL=
FNCA NIL=
FNCE NIL=
FNCZ NIL=
FNDU NIL=
FNGI NIL=
FNLB NIL=
FNMA NIL=
FNME NIL=
FNMI NIL=
FNMO NIL=
FNMQ NIL=
FNNG NIL=
FNSA NIL=
FNSP NIL=
FNSR NIL=
FNSU NIL=
FNTO NIL=
FNUB NIL=
FNUE NIL=
FNUG NIL=
FNZE NIL=
FOGM NIL=
FOGR NIL=
FOOB NIL=
FOOC NIL=
FOOD NIL=
FOOE NIL=
FOOK NIL=
FOOM NIL=
FOOR NIL=
FOOT NIL=
FOOY NIL=
FQCH 081100Z /////KT 9999 BKN017 20/10 Q1029=
FQIN NIL=
FQLC 081100Z 12005KT 9999 SCT014 19/09 Q1026=
FQNP NIL=
FQPB NIL=
FQQL 081100Z 15010KT 9999 SCT020 26/19 Q1023=
FQTE NIL=
FQTT NIL=
FQVL NIL=
FQXX NIL=
FTTA NIL=
FTTC NIL=
FTTD NIL=
FVKB 081100Z NIL=
####018003704####
SAXX99 KWBC 081100 RRC
METAR
FVWN 081100Z NIL=
FYGO NIL=
FYML NIL=
FYOA NIL=
FYOJ NIL=
FYOW NIL=
FYWE NIL=
FYWW 081100Z 03011KT CAVOK 19/M02 Q1027=
FZAB NIL=
FZOA NIL=
FZOS NIL=
FZRF NIL=
FZSA NIL=
GDAB NIL=
GMAD 081100Z 27008KT 8000 SCT020 28/18 Q1014 NOSIG=
GMFM 081100Z 30004KT 6000 SKC 28/19 Q1018=
GMMC 081100Z 02003KT 5000 SCT016 BKN026 24/19 Q1013=
GMML 081100Z 03017KT 9999 SCT020 BKN200 25/17 Q1016=
GMMW 081100Z 06013KT CAVOK 30/19 Q1017=
GMMZ 081100Z 12013KT 9999 FEW040 FEW050TCU 38/01 Q1024=
GOIT NIL=
HCMF NIL=
HEAR NIL=
HEAT NIL=
HEIS NIL=
HESH NIL=
HETB NIL=
HKMV NIL=
HLLM 081050Z 31007KT 6000 SKC 27/20 Q1020=
HTMT NIL=
HTSU NIL=
HUAR NIL=
HUGU NIL=
HUJI NIL=
HUKA NIL=
HUKB NIL=
HULI NIL=
HUMI NIL=
HUS0 NIL=
HUTO NIL=
HWRS NIL=
IKVG NIL=
JP30 NIL=
K4O4 NIL=
K5T6 NIL=
K8S0 NIL=
KARL NIL=
KAUD NIL=
KBFU NIL=
KBIT NIL=
KBRX NIL=
KBVR NIL=
KCBE 081103Z AUTO 00000KT 5SM CLR 21/19 A3011 RMK AO1=
KCHJ NIL=
KCMS NIL=
KCTD NIL=
KDHS NIL=
KDRC NIL=
KEGI 081055Z AUTO 00000KT 2 1/2SM R18/2600VP6000FT BR CLR 21/21
     A3003 RMK AO2 SLP168 T02120209 $=
KESN 081050Z 11004KT 1SM BR BKN003 23/23 A3004=
KFIR NIL=
KFME 081106Z AUTO 07003KT 4SM CLR 22/22 A3003 RMK AO1=
KGYH 081055Z AUTO 10SM CLR 22/20 A3004 RMK AO2=
KHLD NIL=
KIDV NIL=
KIKA NIL=
KPAT NIL=
KPIN NIL=
KPUM NIL=
KRIM NIL=
KSGE NIL=
KSHC NIL=
KSIB NIL=
KSKL NIL=
KTMH NIL=
KVDW NIL=
LBGO 081100Z VRB01MPS 8000 RA BKN020 OVC060 15/14 Q1017 NOSIG=
LDLO 081100Z 03010KT CAVOK 28/08 Q1022=
LDSB 081100Z 03013KT CAVOK 23/11 Q1021=
LEAB 081100Z 16014KT CAVOK 33/04 Q1021 NOSIG=
LEBA 081100Z 27003KT 210V340 9999 BKN050TCU 31/14 Q1015=
LEBR NIL=
LEBZ 081100Z 12008KT 080V160 CAVOK 34/13 Q1015=
LEGA NIL=
LEGT NIL=
LELN 081100Z 17003KT CAVOK 30/10 Q1020=
LERI NIL=
LESA 081100Z VRB02KT CAVOK 33/15 Q1019=
LETO 081100Z VRB02KT CAVOK 32/11 Q1020 NOSIG=
LFBE NIL=
LFBG NIL=
LFCR 081100Z AUTO VRB06KT 9999NDV NSC 31/05 Q1022=
LFJL 081100Z AUTO VRB02KT 9999NDV NSC 29/08 Q1021=
LFLX 081100Z VRB03KT CAVOK 30/12 Q1018 NOSIG=
LFMI 081100Z AUTO VRB05KT 9999NDV NSC 33/15 Q1020=
LFMK 081100Z AUTO 09014KT 060V140 9999NDV NSC 32/15 Q1019=
LFMO NIL=
LFMU 081100Z AUTO 16008KT 110V200 9999NDV NSC 30/12 Q1020=
LFMV 081100Z AUTO VRB03KT 9999NDV NSC 33/14 Q1020=
LFOA NIL=
LFOJ NIL=
LFOK 081100Z AUTO 25004KT 170V310 9999NDV NSC 30/10 Q1020=
LFQI NIL=
LGHI 081050Z 02010KT 9999 FEW020 SCT080 27/19 Q1011=
LGKC 081050Z 06011KT CAVOK 30/18 Q1013=
LGNX 081050Z 01017G27KT 9999 FEW020 26/19 Q1012=
LGPA 081050Z NIL=
LGSO 081050Z 36018KT 9999 FEW018 25/18 Q1012=
LHDC NIL=
LHKE NIL=
LHPP NIL=
LHSA NIL=
LHSN NIL=
LHUD NIL=
LICP NIL=
LIMP NIL=
LIMZ NIL=
LIRM NIL=
LKCS NIL=
LKCV 081100Z VRB03KT CAVOK 23/08 Q1023 NOSIG RMK BLU+ BLU+=
LKHO NIL=
LKKB NIL=
LKKU NIL=
LKKV 081100Z VRB03KT CAVOK 23/10 Q1024=
LKLB NIL=
LKLN NIL=
LKNA 081100Z 36005KT CAVOK 21/09 Q1024 NOSIG RMK BLU+ BLU+=
LKPD 081100Z VRB04KT 9999 FEW045 SCT100 24/07 Q1023 NOSIG RMK BLU+
     BLU+=
LKPO 081100Z 34003KT CAVOK 22/11 Q1023 NOSIG RMK BLU+ BLU+=
LLIB 081050Z 19008KT CAVOK 33/16 Q1009=
LLSD 081050Z 26011KT CAVOK 29/21 Q1009=
LOAG NIL=
LOAN NIL=
LOGG NIL=
LOLF NIL=
LOXA NIL=
LOXN NIL=
LOXT 081050Z VRB04KT 50KM FEW050CU 25/13 Q1023 NOSIG RMK FEW=
LOXZ 081050Z VRB04KT 70KM FEW060CU 22/09 Q1023 NOSIG RMK FEW=
LPAR NIL=
LQBK 081100Z 28002KT 9999 FEW040 23/11 Q1022 NOSIG=
LQMO 081100Z 01012KT 9999 FEW045 28/09 Q1017=
LQTZ 081100Z VRB02KT 9999 FEW040 21/// Q1023=
LTAB NIL=
LTAE NIL=
####018001681####
SAUS41 KWBC 081100
METAR
K40B NIL=
KABE 081051Z 09006KT 5SM HZ CLR 24/21 A3004=
KAGC 081053Z 00000KT 3SM HZ CLR 22/19 A3010=
KAKR 081054Z AUTO 00000KT 4SM HZ CLR 22/19 A3009=
KALB 081051Z 00000KT 4SM HZ FEW080 24/22 A3004=
KART 081056Z AUTO 00000KT 6SM HZ CLR 24/21 A3003=
KAVP 081054Z 00000KT 4SM HZ CLR 21/18 A3008=
KBAF 081053Z 14003KT 6SM HZ SCT100 24/21 A3006=
KBDL 081051Z 15004KT 5SM HZ BKN010 BKN100 24/22 A3006=
KBDR 081052Z 11004KT 2 1/2SM BR OVC004 25/23 A3005=
KBED 081056Z 16007KT 6SM HZ SCT016 BKN070 24/21 A3007=
KBTV 081054Z 00000KT 5SM HZ CLR 24/22 A3002=
KBUF 081054Z 18004KT 7SM FEW090 23/19 A3005=
KBVY 081053Z 16006KT 8SM FEW007 22/20 A3009=
KCAE 081056Z 00000KT 10SM CLR 24/19 A2998=
KCAK 081051Z 00000KT 4SM BR CLR 21/19 A3010=
KCEF 081055Z AUTO 16005KT 10SM FEW010 24/22 A3006=
KCMH 081051Z 00000KT 6SM BR SCT065 22/20 A3008=
KCRQ 081053Z AUTO 00000KT 10SM OVC011 17/13 A2988=
KCRW 081054Z 00000KT 2SM BR FEW001 21/19 A3010=
KCTZ 081100Z AUTO 00000KT 5SM HZ CLR 24/21 A2994=
KDAY 081056Z 00000KT 4SM HZ CLR 22/19 A3010=
KDOV NIL=
KERI 081051Z 18005KT 6SM HZ CLR 22/18 A3007=
KEWB 081053Z 13005KT 6SM BR OVC002 23/21 A3008=
KFDK NIL=
KFVE 081053Z AUTO 18004KT M1/4SM FG VV001 22/22 A3001=
KGON 081056Z 09004KT 2SM BR BKN002 OVC013 23/21 A3007=
KGSO 081054Z 02004KT 6SM HZ FEW095 25/18 A3003=
KGSP 081053Z 00000KT 10SM CLR 22/19 A3003=
KHPN 081056Z 00000KT 2SM BR OVC004 24/22 A3005=
KHTS 081051Z AUTO 00000KT 1SM BR CLR 21/20 A3009=
KHUL 081053Z AUTO 21006KT 4SM BR SCT009 21/19 A3004=
KHVN 081053Z 12005KT 3SM BR OVC004 24/23 A3005=
KIAG 081053Z AUTO 20004KT 5SM HZ CLR 24/21 A3005=
####018003738####
SAXX99 KWBC 081100 RRD
METAR
LTAZ 081050Z VRB04KT 9999 FEW040 33/13 Q1010=
LTBR 081050Z 33016KT 9999 SCT035 BKN100 28/17 Q1011 TEMPO FM1200
     -TSRA=
LTBU 081050Z 30011KT 9999 SCT030 BKN100 20/13 Q1014=
LTCD NIL=
LTCF 081050Z 10012KT 9999 SCT035 30/08 Q1018=
LTFC NIL=
LTFH 081050Z 04009KT 360V060 9999 SCT036 BKN100 27/23 Q1010
     NOSIG=
LTFJ 081050Z 01018KT 9999 BKN030 23/17 Q1011 NOSIG=
LWIS NIL=
LZKC 081100Z 33010KT 300V360 9999 FEW043 22/11 Q1021=
LZLU 081100Z 24004KT 160V310 9999 FEW050 24/12 Q1021=
LZNI 081100Z 33012KT 290V020 9999 FEW060 24/07 Q1021=
LZPE 081100Z 30004KT 200V010 9999 FEW053 24/09 Q1021=
LZPP 081100Z 33007KT 270V020 CAVOK 23/11 Q1022=
LZSL 081100Z 07005KT 020V120 CAVOK 24/09 Q1021=
LZZI 081100Z 33003KT CAVOK 22/06 Q1022=
MBCH NIL=
MDHE NIL=
METAR UHHH 081100Z 02004MPS 9999 SCT033CB OVC100 17/15 Q1010
     NOSIG=
METR NIL=
MGBP NIL=
MGGG NIL=
MGTK 081100Z 00000KT 9999 BKN012 BKN090 23/23 Q1011 A2986=
MH31 NIL=
MH40 NIL=
MHTR NIL=
MMAN NIL=
MMCB NIL=
MMCP NIL=
MMCT NIL=
MMEP NIL=
MMIA NIL=
MMIO NIL=
MMIT NIL=
MMLM 081100Z RTD 00000KT 10SM SKC 26/17 A//// RMK RTS=
MMLO NIL=
MMLT NIL=
MMMV NIL=
MMOX NIL=
MMPA 081100Z RTD 32003KT 5SM SCT280 26/25 A2984 RMK 8/008 HZY DSNT
     CB, TCU E RTS=
MMPB NIL=
MMPG NIL=
MMPN NIL=
MMPS NIL=
MMQT NIL=
MMTB 081100Z 00000KT 6SM HZ BKN018 23/21 A2983 RMK 8/600 BC MI FG
     3 QUAD=
MMTG NIL=
MMVA 081056Z 00000KT 7SM SCT100 BKN200 26/24 A2978 RMK 60091 8/036
     RTS=
MNBL NIL=
MNCH NIL=
MNJG NIL=
MNJU NIL=
MNRS NIL=
MO31 NIL=
MP31 NIL=
MPB0 NIL=
MSLU NIL=
MSSA NIL=
MSSM NIL=
MTAR NIL=
MUCC NIL=
MUCF 081052Z 07003KT 9999 FEW025 SCT200 23/22 Q1012=
MUHG 081051Z 18004KT 140V230 9000 FEW020 24/22 Q1015=
MZ40 NIL=
N025 NIL=
N100 NIL=
N240 NIL=
N270 NIL=
NFLB NIL=
NFTL NIL=
NGTT NIL=
NVSC NIL=
NVSL NIL=
NVSS NIL=
NVVA NIL=
NVVW NIL=
OAHR 081055Z 03010KT CAVOK 40/M02 Q1010 RMK SKC VIS MIN 9999
     BLU=
OBBC NIL=
OBBD NIL=
OBBF NIL=
OBBH NIL=
OBBJ NIL=
OBBR NIL=
OEDM NIL=
OEKJ NIL=
OIIE 081100Z 11010KT CAVOK 41/M07 Q1010 A2983 897.3 05:=
OSDZ 081100Z 19010KT CAVOK 38/14 Q1006=
OSIG NIL=
OSKL 081100Z 18009KT CAVOK 41/04 Q1005=
OYAG NIL=
OYAM NIL=
OYAT NIL=
OYDM NIL=
OYHJ NIL=
OYIB NIL=
OYRN NIL=
OYSH NIL=
OYSQ 081100Z 22047G57KT 9999 FEW018 SCT200 33/24 Q1001=
OYSY NIL=
P040 NIL=
P103 NIL=
P154 NIL=
PART NIL=
PCPN NIL=
PESI NIL=
PICE NIL=
PORT NIL=
PRXZ NIL=
RJBB 081100Z 25010KT 9999 FEW060 BKN/// 26/23 Q1009 NOSIG=
RJBH 081100Z 21007KT CAVOK 25/20 Q1008=
RJBT NIL=
RJFS 081100Z 28007KT 9999 FEW030 BKN/// 26/22 Q1008=
RJGG 081100Z 12009KT 9999 FEW010 BKN/// 25/23 Q1009 NOSIG=
RJNW NIL=
RJOW NIL=
RJSF NIL=
RJSR NIL=
RJSY 081100Z VRB01KT 9999 FEW030 SCT/// 24/21 Q1011=
RKJY NIL=
RKNN NIL=
RKNR NIL=
RKPM NIL=
RKPS NIL=
RKSC NIL=
RKTI NIL=
RKTL NIL=
RKTS NIL=
ROIG 081100Z 21010KT 9999 FEW015 BKN/// 30/26 Q1009=
ROKJ NIL=
ROMY 081100Z 22010KT 9999 SCT014 BKN/// 29/27 Q1010=
RORS 081100Z NIL=
ROTM NIL=
ROYN NIL=
RPLI NIL=
RTAR NIL=
RTIR NIL=
RUMS NIL=
SAAJ NIL=
SABO NIL=
SADF NIL=
SADP NIL=
SAMM NIL=
SAMR NIL=
SANC NIL=
SANL NIL=
SAOC NIL=
SAOS NIL=
SAOU NIL=
SAPR NIL=
SAST NIL=
SATR NIL=
SAVE NIL=
SAVV NIL=
SAVY NIL=
SAWH 081100Z 05006KT 9999 FEW035 BKN100 01/M01 Q0984=
SAZR NIL=
SAZY NIL=
SCJO NIL=
SKAR NIL=
SKCC NIL=
SKEJ NIL=
SKIB NIL=
SKIP NIL=
SKLC NIL=
SKMR NIL=
SKMZ NIL=
SKNV NIL=
SKPC NIL=
SKPS NIL=
SKPV NIL=
SKRH NIL=
SKUC NIL=
SKUI NIL=
SKVP NIL=
SKVV NIL=
####018000474####
SAIR32 OIII 081100
METAR OIAA 081100Z 33012KT CAVOK 48/04 Q0998=
METAR OIBK 081100Z 16010KT 5000 HZ SKC 37/23 Q0999 A2952=
METAR OICC 081100Z 21018KT CAVOK 42/M05 Q1012 A2989
863.9=
METAR OIGG 081100Z 36004KT CAVOK 32/21 Q1010 A2985=
METAR OIIE 081100Z 11010KT CAVOK 41/M07 Q1010 A2983
897.3 05:=
METAR OITR 081100Z 05004KT CAVOK 34/13 Q1013 A2993=
METAR OIYY 081100Z 09008KT CAVOK 41/M09 Q1013 A2993=
METAR OAKN 081100Z NIL=
METAR OAKB 081100Z NIL=
####018000245####
SAXX99 KWBC 081100 CCA
METAR
EGHK 081050Z 15006KT 9999 FEW022 17/15 Q1018 NOSIG=
EGXW 081050Z 25009KT 9999 FEW033 BKN120 BKN250 20/10 Q1017 BLU
     NOSIG=
EGYM 081050Z 25011KT 9999 FEW040 SCT110 BKN150 20/11 Q1018 BLU
     NOSIG=
####018003110####
SAXX99 KWBC 081100 RRE
METAR
SLAS NIL=
SLET NIL=
SLGY NIL=
SLJV NIL=
SLSB NIL=
SLSM NIL=
SLTI NIL=
SSSA NIL=
STAC NIL=
SUME NIL=
SVCP 081100Z NIL=
SVCZ NIL=
SVGD NIL=
SVJM NIL=
SVLO NIL=
SVVG 081100Z NIL=
SYGO 081100Z 08006KT 9999 SCT016 28/24 Q1012=
T016 NIL=
T020 NIL=
T100 NIL=
TAAR NIL=
TEST NIL=
THIS NIL=
TNNC NIL=
TRPG 081100Z 07010KT 9999 SCT020 28/24 Q1016 RMK SLT HZ=
TSRA NIL=
TURE NIL=
TYAR NIL=
TZAR NIL=
UACK NIL=
UBBN 081100Z 12010KT 9999 NSC 37/08 Q1008 R14R/CLRD60 NOSIG RMK
     G/O QFE682=
UDYZ NIL=
UERP NIL=
UERR NIL=
UESO NIL=
UGKO NIL=
UGSB NIL=
UGSP NIL=
UHMG NIL=
UHNN NIL=
UHSH NIL=
ULDD NIL=
ULKK NIL=
ULOL NIL=
ULOO NIL=
ULWW NIL=
UMED NIL=
UMKK NIL=
UMOO NIL=
UNBB NIL=
UNEE NIL=
UNKL NIL=
UNOO NIL=
UNWW NIL=
UOII NIL=
URML NIL=
UTAN NIL=
UTKN NIL=
UTNC NIL=
UTO2 NIL=
UTO4 NIL=
UTO7 NIL=
UTO8 NIL=
UTTP NIL=
UWLL NIL=
UWOR NIL=
V130 NIL=
V150 NIL=
V290 NIL=
VCSH NIL=
VIBR NIL=
VIJP NIL=
VILK NIL=
VTBO NIL=
VTCH NIL=
VTCL NIL=
VTCN NIL=
VTCP NIL=
VTCT NIL=
VTPB NIL=
VTPH NIL=
VTPM NIL=
VTPO NIL=
VTPP NIL=
VTPT NIL=
VTSB NIL=
VTSC NIL=
VTSE NIL=
VTSF NIL=
VTSG NIL=
VTSK NIL=
VTSM NIL=
VTSR NIL=
VTST NIL=
VTUD NIL=
VTUI NIL=
VTUJ NIL=
VTUK NIL=
VTUL NIL=
VTUO NIL=
VTUQ NIL=
VTUU NIL=
VTUV NIL=
VTUW NIL=
W016 NIL=
W020 NIL=
W090 NIL=
W250 NIL=
WADD NIL=
WALL NIL=
WARR NIL=
WBGB NIL=
WBGR NIL=
WBGS NIL=
WBGY NIL=
WBGZ NIL=
WBKL NIL=
WBKS NIL=
WBKT NIL=
WBKW NIL=
WIHH NIL=
WMAU 081100Z 11005KT 090V170 9999 FEW020 SCT140 BKN270 29/25 Q////
     QFF1008=
WMBA 081100Z 29003KT 9999 FEW032 BKN280 30/25 Q1008=
WMKA 081100Z 25005KT 9999 FEW020 SCT300 29/26 Q1008=
WMKB 081100Z 30008KT 9999 FEW020 BKN280 30/25 Q1008 NOSIG=
WMKC 081100Z 05004KT 9999 FEW017CB SCT140 BKN240 31/24 Q1008=
WMKD 081100Z 10005KT 9999 FEW017CB BKN280 30/27 Q1008 NOSIG=
WMKI 081100Z 15002KT 9999 FEW020 BKN150 BKN280 30/25 Q1008=
WMKL 081100Z 26004KT 160V330 9999 FEW020 BKN300 30/25 Q1009=
WMKM 081100Z 25003KT 9999 FEW023 BKN140 BKN280 30/24 Q1009=
WMKN 081100Z 18005KT 9999 FEW017CB SCT020 BKN250 28/22 Q1008=
WTAR NIL=
XX39 NIL=
XX99 NIL=
YAMB NIL=
YBHM NIL=
YCIN NIL=
YFRT NIL=
YMAV NIL=
YMLT NIL=
YPGV NIL=
YPKG NIL=
YPKU 081100Z AUTO 11006KT 9999NDV // NCD 24/15 Q1014=
YSTW 081100Z AUTO 14008KT 9999NDV // NCD 08/04 Q1024=
YSWG 081100Z AUTO 03003KT 9999NDV // NCD 05/03 Q1027=
YTEF 081100Z AUTO 02006KT //// // ////// 21/16 Q1012=
YTNK 081100Z AUTO 08006KT 9999NDV // NCD 15/12 Q1019=
YTRE 081100Z AUTO 29005KT //// // ////// 12/12 Q1025=
YWGT 081100Z AUTO 20003KT //// // ////// 03/03 Q1028=
YWHA 081100Z AUTO 33004KT 9999NDV // NCD 05/02 Q1024=
YWLM 081100Z AUTO 31003KT 9999NDV // ////// 10/10 Q1026=
ZBHH NIL=
ZBLA NIL=
ZBSJ NIL=
ZBYC NIL=
ZGHA NIL=
ZGKL NIL=
ZGOW NIL=
ZJHK NIL=
ZLXY NIL=
ZSQD NIL=
ZSTX NIL=
ZWSH NIL=
ZYCC NIL=
ZYMY NIL=
ZYTX NIL=
####018001824####
SAEW KAWN 081100 RRF
METAR COR LFBL 081100Z 15007KT 100V170 CAVOK 28/13 Q1020 NOSIG=
METAR LFBO 081100Z 10010KT 080V140 CAVOK 33/12 Q1018 NOSIG=
METAR LFBZ 081100Z 05006KT 010V090 CAVOK 30/23 Q1015 NOSIG=
METAR LFCR 081100Z AUTO VRB06KT 9999NDV NSC 31/05 Q1022=
METAR LFJL 081100Z AUTO VRB02KT 9999NDV NSC 29/08 Q1021=
METAR LFKS 081100Z AUTO 11006KT 080V160 9999NDV NSC 30/21 Q1020=
METAR LFLS 081100Z 25007KT 180V290 9999 FEW050 30/14 Q1021 NOSIG=
METAR LFLY 081100Z VRB05KT CAVOK 30/14 Q1020 NOSIG=
METAR LFMO 081100Z AUTO 21005KT 160V280 9999NDV NSC 33/14 Q1020=
METAR LFMT 081100Z 16005KT CAVOK 30/17 Q1020 NOSIG=
METAR LFMU 081100Z AUTO 16008KT 110V200 9999NDV NSC 30/12 Q1020=
METAR LFOA 081100Z AUTO VRB03KT 9999NDV NSC 30/14 Q1019=
METAR LFOB 081100Z 21006KT 180V340 CAVOK 30/11 Q1019 NOSIG=
METAR LFOC 081100Z AUTO 23004KT 170V320 9999NDV NSC 31/10 Q1019=
METAR LFOE 081100Z 02004KT 350V090 CAVOK 30/10 Q1018=
METAR LFOH 081100Z AUTO 35014KT //// R23///// NSC 22/12 Q1019=
METAR LFOJ 081100Z VRB04KT CAVOK 30/13 Q1019=
METAR LFOP 081100Z 17004KT 110V260 CAVOK 29/13 Q1019 NOSIG=
METAR LFPB 081100Z 06003KT 310V100 CAVOK 30/10 Q1018 NOSIG=
METAR LFPC 081100Z VRB03KT CAVOK 30/12 Q1019=
METAR LFPV 081100Z AUTO VRB03KT 9999NDV NSC 29/11 Q1019=
METAR LFQI 081100Z 23005KT 130V280 CAVOK 29/11 Q1019=
METAR LFSD 081100Z AUTO VRB03KT 9999NDV NSC 29/13 Q1020=
METAR LFSF 081100Z AUTO VRB02KT 9999NDV NSC 30/10 Q1020=
METAR LFSI 081100Z AUTO VRB03KT 9999NDV NSC 31/10 Q1020=
METAR LFSN 081100Z VRB03KT CAVOK 30/14 Q1020 NOSIG=
METAR LFSO 081100Z AUTO 23004KT 180V300 9999NDV NSC 30/10 Q1020=
METAR LFSR 081100Z AUTO VRB03KT 9999NDV NSC 31/10 Q1019=
METAR LFSX 081100Z AUTO 15005KT 090V200 9999NDV NSC 29/13 Q1020=
METAR LFYR 081100Z VRB03KT CAVOK 31/11 Q1018=
####018000303####
SAXX99 KWBC 081000 RRX
METAR
LHDC 081045Z 02012KT 9999 FEW040 22/12 Q1021 NOSIG=
LHKE 081045Z 32002MPS CAVOK 24/10 Q1021 NOSIG RMK BLU=
LHPP 081045Z 03006KT 9999 SCT043 23/12 Q1023 NOSIG=
LHSN 081045Z 31002MPS CAVOK 24/12 Q1021 NOSIG RMK BLU=
LHUD 081045Z 34004KT 9999 FEW040 24/13 Q1022=
####018000077####
SAQB31 LQTZ 081100
METAR
LQTZ 081100Z VRB02KT 9999 FEW040 21/// Q1023=
####018001009####
SAUS41 KWBC 081100 RRA
METAR
KILG 081051Z 00000KT 2SM BR CLR 25/23 A3002=
KILM 081053Z 00000KT 9SM CLR 24/20 A2992=
KINT 081054Z 02005KT 10SM FEW085 26/17 A3004=
KLSV 081055Z AUTO 07005KT 10SM CLR 23/M04 A2983=
KLUK 081053Z 00000KT 1 1/2SM R21L/3500V4500FT BCFG CLR 22/21
     A3008=
KLWM 081054Z 00000KT 6SM HZ FEW042 BKN075 24/21 A3010=
KMDT 081056Z 00000KT 4SM HZ CLR 26/21 A3001=
KMMU NIL=
KMSS 081053Z AUTO 23005KT 5SM HZ FEW060 24/21 A3002=
KOGS NIL=
KOLD NIL=
KOQU NIL=
KORH 081054Z 16006KT 3SM BR OVC004 22/22 A3011=
KPQI 081055Z AUTO 15006KT 10SM CLR 21/18 A3000=
KPSM 081055Z 15006KT 7SM FEW012 SCT040 OVC075 23/21 A3007=
KPVD 081051Z 13005KT 5SM BR BKN004 OVC009 22/21 A3010=
KPWM 081051Z 19007KT 9SM OVC006 22/20 A3009=
KROC 081054Z 22005KT 7SM SCT080 23/20 A3006=
KSCH NIL=
KSYR 081054Z 00000KT 10SM CLR 24/21 A3004=
KWDR 081100Z AUTO 32003KT 10SM CLR 22/20 A3007=
KWRI 081055Z AUTO 00000KT 1 1/4SM R18/5500VP6000FT BR SCT001 24/24
     A3001=
####018000090####
SAUS41 KWBC 081100 CCA
METAR
KRIC 081054Z 10006KT 4SM HZ SCT150 BKN250 26/21 A2999=
####018000076####
SPUS72 KWBC 081106
SPECI
KGGG 081102Z 09004KT 9SM FEW002 24/24 A3003=
####018000084####
SPUS72 KWBC 081106
SPECI
KESF 081103Z AUTO 00000KT 5SM BR BKN013 23/22 A3003=
####018000186####
SAUS42 KWBC 081100 CCA
METAR
KBTR 081053Z 00000KT 6SM BR MIFG SCT003 BKN200 23/23 A3001=
KMGM 081053Z 00000KT 8SM CLR 24/23 A3003=
KTYS 081053Z 00000KT 6SM HZ CLR 22/19 A3007=
####018000089####
SPUS73 KWBC 081106
SPECI
KLAR 081103Z AUTO 00000KT 10SM SCT006 OVC020 08/07 A3040=
####018000076####
SPUS73 KWBC 081106
SPECI
KLEX 081103Z 00000KT 3SM HZ CLR 22/19 A3010=
####018001660####
SAUS42 KWBC 081100
METAR
KAMA 081053Z 36008KT 1SM OVC005 17/17 A3020=
KAUS 081053Z 06005KT 10SM SCT014 26/24 A2995=
KBPP NIL=
KBPT 081053Z 08008KT 10SM FEW009 26/24 A2995=
KBQK 081057Z AUTO 29004KT 10SM CLR 21/21 A3001=
KBRO 081053Z 34003KT 10SM FEW016 26/25 A2977=
KCHA 081053Z 00000KT 10SM CLR 22/19 A3007=
KCRP 081051Z 35007KT 10SM FEW010 SCT025 BKN048 26/25 A2983=
KDAL 081053Z 13007KT 10SM FEW016 BKN027 OVC037 26/23 A3001=
KDRT 081053Z AUTO 00000KT 10SM SCT065 24/22 A2994=
KELP 081051Z 36011KT 10SM FEW032 SCT055 BKN100 22/14 A3012=
KEYW 081053Z 07003KT 10SM FEW080 27/24 A2994=
KFPR 081053Z AUTO 00000KT 6SM BR CLR 22/21 A2996=
KFTW 081053Z 10004KT 10SM SCT010 25/23 A3000=
KFTY 081053Z 00000KT 7SM CLR 20/18 A3005=
KFXE 081053Z 00000KT 10SM CLR 27/24 A2993=
KGLE NIL=
KGLS 081052Z 15013KT 10SM -RA FEW012 BKN024 OVC039 26/24 A2991=
KGPT 081053Z 00000KT 6SM BR CLR 26/24 A3002=
KHOU 081053Z 09005KT 10SM FEW029 SCT042 BKN130 28/24 A2991=
KHRL 081052Z 35009KT 10SM -RA FEW006 BKN031 OVC050 26/26 A2977=
KHSV 081053Z 00000KT 8SM FEW250 23/22 A3007=
KLCH 081053Z AUTO 06006KT 9SM BKN011 OVC024 25/23 A2997=
KLGC 081055Z AUTO 9SM CLR 21/ A3004=
KLRD 081056Z 03007KT 10SM OVC022 27/24 A2990=
KMAF 081053Z 02005KT 10SM CLR 21/20 A3007=
KMFE 081053Z 33006KT 10SM OVC006 26/24 A2980=
KMOB 081056Z 00000KT 7SM MIFG FEW020 SCT250 22/21 A3004=
KNEW 081053Z AUTO 11004KT 10SM CLR 27/25 A3002=
KOPF 081053Z 00000KT 10SM CLR 26/24 A2994=
KOPN 081100Z AUTO 00000KT 10SM CLR 24/22 A3005=
KPDK 081053Z 00000KT 10SM CLR 22/19 A3005=
KPFN NIL=
KPGL NIL=
KPIE 081053Z 00000KT 10SM CLR 23/21 A2998=
####018000464####
SAUS42 KWBC 081100 RRA
METAR
KPNS 081053Z 00000KT 6SM BR CLR 24/23 A3002=
KQAO NIL=
KRSW 081053Z 00000KT 10SM CLR 24/22 A2996=
KSAT 081053Z 05005KT 7SM BKN011 OVC050 25/23 A2994=
KSAV 081053Z 22003KT 10SM FEW250 21/19 A3000=
KSHV 081056Z 13004KT 10SM SCT160 BKN280 24/23 A3003=
KSSI 081053Z AUTO 27005KT 10SM CLR 23/21 A3000=
KTMB 081053Z 35004KT 10SM CLR 27/25 A2994=
KTUL 081053Z 00000KT 10SM -TSRA FEW007 BKN055 BKN080 23/22
     A3002=
####018001681####
SAUS43 KWBC 081100
METAR
K12C NIL=
K1H2 NIL=
KAAA NIL=
KAPN 081054Z AUTO 21004KT 9SM OVC100 22/21 A2999=
KAZO 081053Z 00000KT 2 1/2SM BR CLR 22/21 A3005=
KBDE 081053Z AUTO 00000KT 10SM CLR 14/12 A3001=
KBTL 081053Z 00000KT 7SM CLR 23/21 A3006=
KBTM 081053Z AUTO 12005KT 10SM CLR 05/01 A3032=
KC09 NIL=
KC75 NIL=
KCGX NIL=
KCIU 081055Z AUTO 29005KT 5SM OVC005 19/18 A2997=
KCMX 081053Z AUTO 31004KT 10SM FEW070 OVC085 18/17 A2999=
KCOS 081054Z 16003KT 10SM BKN032 13/11 A3038=
KCPR 081053Z 00000KT 8SM CLR 04/03 A3034=
KDET 081053Z 25003KT 6SM HZ CLR 25/22 A3004=
KDKB NIL=
KDLH 081055Z 29004KT 10SM CLR 15/13 A3005=
KDNV NIL=
KDSM 081054Z 36003KT 10SM FEW180 SCT250 21/18 A3009=
KELO 081053Z AUTO 21004KT 10SM CLR 13/13 A3002=
KENL NIL=
KFAR 081053Z 20003KT 10SM CLR 14/12 A3008=
KFEP NIL=
KFNT 081053Z AUTO 27005KT 8SM FEW055 24/21 A3005=
KFOA NIL=
KFWC NIL=
KGBG NIL=
KGFK 081053Z 22005KT 10SM FEW080 14/12 A3004=
KGRB 081053Z 00000KT 5SM BR OVC004 22/21 A3000=
KGRM NIL=
KGRR 081053Z 24003KT 2 1/2SM BR SCT120 BKN200 24/22 A3004=
KHSB NIL=
KICT 081053Z 34006KT 10SM BKN080 OVC200 22/21 A3009=
KIGQ NIL=
KIJX NIL=
KIKK NIL=
KINL 081055Z AUTO 22005KT 10SM FEW090 13/12 A3000=
KISN 081052Z 00000KT 10SM CLR 12/11 A3012=
KJOT NIL=
KLEX 081054Z 15003KT 2 1/2SM HZ CLR 22/18 A3010=
KLOT NIL=
KMBS 081053Z 26007KT 7SM -RA SCT110 23/22 A3003=
KMDW 081051Z 00000KT 4SM -RA BR FEW020 BKN042 BKN130 OVC200 24/22
     A3002=
KMKC 081054Z 02003KT 10SM FEW100 22/20 A3004=
KMKE 081052Z 27004KT 6SM -RA BR FEW007 SCT080 OVC110 23/22
     A3001=
KMLI 081052Z 23005KT 10SM OVC007 23/22 A3003=
####018000837####
SACI31 ZBBB 081100
METAR ZBAA 081100Z 18006G12MPS 160V220 CAVOK 34/11 Q1003 NOSIG=
METAR ZBSJ 081100Z 17004MPS CAVOK 31/19 Q1004 NOSIG=
METAR ZBTJ 081100Z 16006MPS CAVOK 29/17 Q1005 NOSIG=
METAR ZBYN 081100Z 10005MPS CAVOK 29/14 Q1008 NOSIG=
METAR ZGGG 081100Z 14005MPS 9999 FEW050TCU SCT050 33/26 Q1004 NOSIG=
METAR ZSHC 081100Z 00000MPS 8000 -SHRA BKN020 FEW033CB 26/24 Q1005
 TEMPO -TSRA
 FEW033CB=
METAR ZSPD 081100Z 11006MPS 070V130 9999 BKN009 26/24 Q1006 NOSIG=
METAR ZSSS 081100Z 11005G10MPS 070V140 9999 BKN016 27/23 Q1005 BECMG
 BKN011
 OVC040=
METAR ZWSH 081100Z 18003MPS 100V220 CAVOK 32/02 Q1012 NOSIG=
METAR ZWWW 081100Z 29002MPS 9999 FEW040CB 31/10 Q1011 NOSIG=
METAR ZYTL 081100Z 25002MPS 210V270 9999 SCT033 26/18 Q1006 NOSIG=
METAR ZYTX 081100Z VRB01MPS 9999 FEW030 22/19 Q1007 NOSIG=
####018000818####
SAUS43 KWBC 081100 RRA
METAR
KMOT 081054Z AUTO 23005KT 10SM BKN090 14/11 A3009=
KMQB NIL=
KMQT NIL=
KMWA NIL=
KOLY NIL=
KOMA 081052Z 34005KT 10SM FEW029 SCT250 19/18 A3014=
KPHN 081055Z AUTO 00000KT 1 3/4SM BR VV007 20/20 A3003=
KPIA 081052Z 20003KT 1 3/4SM BR SCT005 OVC010 23/22 A3003=
KPNT NIL=
KPPQ NIL=
KPRG NIL=
KPTK 081053Z 25003KT 8SM FEW140 SCT250 24/22 A3004=
KPUB 081053Z AUTO 27003KT 10SM OVC065 14/13 A3032=
KRAD NIL=
KSAR NIL=
KSAW 081050Z 00000KT 1 1/4SM BR BKN001 18/17 A2998=
KSDF 081056Z 12003KT 5SM HZ SCT120 25/21 A3006=
KSGF 081052Z 00000KT 8SM FEW055 23/22 A3006=
KSLO NIL=
KSTP 081053Z 32005KT 10SM CLR 18/16 A3009=
KSUS 081054Z 00000KT 10SM BKN047 OVC060 24/23 A3003=
KTAZ NIL=
KTIP NIL=
KTOL 081052Z 25003KT 7SM CLR 23/18 A3005=
KVYS NIL=
####018000295####
SAXX70 KAWN 081100 RRI
METAR KQOX 081055Z AUTO 24008G15KT 200V280 9999 FEW130 SCT200 32/M01
      A3016 RMK AO2 SLP061 T03231011 $=
METAR KQSD 081055Z 30005KT 9000 HZ SCT080 35/M01 A3001 RMK AO2A SLP021
      $=
METAR KQSL 081055Z 31015G21KT 9999 CLR 44/02 A2965 RMK SLP028 Q1004MB=
####018000085####
SAEW35 LEMM 081100 CCA
METAR COR LEBZ 081100Z 19011KT 160V220 CAVOK 34/13 Q1015=
####018000076####
SPUS81 KWBC 081106
SPECI
KLEX 081103Z 00000KT 3SM HZ CLR 22/19 A3010=
####018001651####
SAUS44 KWBC 081100
METAR
K11R NIL=
KBFI 081053Z 00000KT 10SM CLR 20/12 A2994=
KBIL 081053Z 24009KT 10SM FEW120 12/06 A3024=
KBKE 081053Z AUTO 00000KT 10SM CLR 05/05 A3011=
KBLI 081053Z AUTO 00000KT 10SM CLR 15/13 A2997=
KBOI 081053Z 12005KT 10SM CLR 19/06 A3005=
KBPG NIL=
KBYY NIL=
KCLM 081053Z AUTO A2997=
KCTB 081056Z AUTO 32004KT 10SM CLR 08/05 A3024=
KCXL NIL=
KDUG 081056Z AUTO 08017G22KT 10SM CLR 24/12 A3002=
KEKA NIL=
KFAT 081053Z 33004KT 10SM CLR 21/08 A2982=
KGDV 081055Z AUTO 00000KT 10SM CLR 11/07 A3017=
KGEG 081053Z 07004KT 10SM CLR 17/08 A3007=
KGGW 081053Z AUTO 34003KT 10SM CLR 11/09 A3014=
KGLH 081053Z AUTO 00000KT 7SM CLR 22/22 A3005=
KGPI 081055Z AUTO 27003KT 10SM CLR 07/06 A3018=
KGTF 081053Z 21004KT 10SM CLR 08/05 A3023=
KGWO 081053Z AUTO 00000KT 10SM CLR 22/22 A3005=
KHLN 081053Z AUTO 00000KT 10SM CLR 11/04 A3025=
KHQM 081053Z AUTO 26008KT 10SM 14/13 A2994=
KHVR 081053Z AUTO 23006KT 10SM CLR 08/07 A3019=
KIPL 081053Z AUTO 14005KT 10SM CLR 26/16 A2969=
KLBB 081053Z 02007KT 10SM FEW040 BKN120 BKN150 19/16 A3014=
KMSO 081053Z AUTO 00000KT 10SM CLR 11/06 A3020=
KMWH 081052Z AUTO 36005KT 10SM CLR 15/07 A3001=
KNOW NIL=
KNUW 081056Z 00000KT 10SM CLR 13/11 A2997=
KOLF 081053Z AUTO 00000KT 10SM BKN090 10/08 A3015=
KOLM 081054Z AUTO 00000KT 10SM CLR 12/11 A2995=
KOLS 081054Z AUTO VRB03KT 10SM CLR 24/08 A2998=
KOLV 081055Z AUTO 00000KT 8SM CLR 23/23 A3009=
KPAE 081053Z AUTO 00000KT 10SM CLR 19/12 A2997=
KPDX 081053Z 00000KT 10SM CLR 18/15 A2989=
KPMD 081053Z AUTO 20006KT 10SM CLR 17/02 A2990=
KRNO 081055Z 00000KT 10SM FEW150 21/04 A3004=
####018000536####
SAUS44 KWBC 081100 RRA
METAR
KRNT 081053Z AUTO 00000KT 10SM CLR 16/14 A2994=
KSAC 081053Z 18006KT 10SM CLR 14/10 A2984=
KSCK 081055Z AUTO 02003KT 10SM CLR 13/11 A2984=
KSDM 081053Z AUTO 25003KT 10SM OVC012 16/14 A2989=
KSFF 081053Z AUTO 00000KT 10SM CLR 13/11 A3006=
KSJC 081053Z AUTO VRB03KT 9SM OVC013 15/12 A2991=
KSLC 081053Z 16007KT 10SM FEW130 18/07 A3009=
KSMF 081053Z 18008KT 10SM CLR 14/11 A2982=
KTIW 081053Z AUTO 04004KT 10SM FEW090 21/11 A2995=
KTUS 081053Z 00000KT 10SM CLR 29/05 A2990=
KYUM NIL=
####018000804####
SACI32 ZBBB 081100
METAR ZGKL 081100Z 21002MPS CAVOK 32/25 Q1003 NOSIG=
METAR ZGNN 081100Z 14005MPS 100V160 CAVOK 32/25 Q1002 RETS NOSIG=
METAR ZGOW 081100Z 19005MPS 9999 FEW020 30/26 Q1006 NOSIG=
METAR ZGSZ 081100Z 17008MPS 9999 FEW020 31/25 Q1006 NOSIG=
METAR ZLXY 081100Z 06003MPS 030V100 1800 BR OVC050 23/21 Q1007
 NOSIG=
METAR ZMUB 081100Z 15009MPS 9999 -RA FEW030CB BKN033 16/12 Q1008
 NOSIG RMK
 QFE649.3 76=
METAR ZPPP 081100Z 19004MPS 9999 FEW026 BKN050 23/16 Q1014 NOSIG=
METAR ZSAM 081100Z 18007MPS CAVOK 31/24 Q1005 NOSIG=
METAR ZSFZ 081100Z 19009MPS CAVOK 28/24 Q1005 NOSIG=
METAR ZSNB 081100Z 16002MPS 8000 -TSRA SCT030 FEW050CB 24/24 Q1006
 NOSIG=
METAR ZSQD 081100Z 17005MPS CAVOK 25/19 Q1007 NOSIG=
METAR ZUUU 081100Z 22002MPS CAVOK 29/25 Q1002 NOSIG=
####018000137####
SAUS51 KWBC 081100 CCA
METAR
KWAL 08ò054Z AUTO 1&Ç™ZQÅ10SM BKN095 25Ø&& Õ001=
KWAL 081054Z AUTO 12005KT 10SM BKN095 25/22 A3001=
####018001157####
SAUS51 KWBC 081100
METAR
K40B NIL=
KACY 081054Z 11003KT 8SM -RA FEW060 24/23 A3004=
KAUG 081053Z AUTO 17007KT 3SM BR OVC005 21/20 A3009=
KAVL 081054Z 00000KT 6SM BR CLR 18/17 A3014=
KBGM 081053Z 00000KT 2 1/2SM HZ CLR 22/19 A3013=
KBKW 081051Z AUTO 00000KT 3SM BR FEW070 20/18 A3017=
KCBE 081103Z AUTO 00000KT 5SM CLR 21/19 A3011=
KCHH NIL=
KCON 081051Z AUTO 16003KT 3SM BR BKN006 OVC037 23/22 A3008=
KDCA 081052Z 08003KT 6SM HZ FEW050 SCT250 27/22 A3001=
KEKN 081051Z AUTO 00000KT 1 1/2SM BR SCT075 17/17 A3016=
KESN 081050Z 11004KT 1SM BR BKN003 23/23 A3004=
KGFL 081053Z AUTO 00000KT 2SM BR CLR 23/22 A3003=
KGSP 081053Z 00000KT 10SM CLR 22/19 A3003=
KHAT NIL=
KHSS NIL=
KIPJ 081100Z AUTO 00000KT 10SM SCT090 21/17 A3003=
KIPT 081054Z 34003KT 7SM CLR 21/17 A3006=
KLYH 081054Z 36003KT 6SM HZ CLR 25/18 A3005=
KMHT 081053Z 19006KT 3SM BR OVC010 23/21 A3007=
KMPV 081051Z AUTO 00000KT 2 1/2SM BR CLR 22/20 A3012=
KMWN NIL=
KMYR NIL=
KNYC 081051Z AUTO VRB03KT 5SM HZ BKN016 27/23 A3006=
KPNE 081054Z 12003KT 2 1/2SM BR FEW004 24/23 A3004=
KROA NIL=
KSMQ 081053Z AUTO 00000KT 3SM BR CLR 23/21 A3002=
####018000136####
SABC40 FBSK 081100 RRA
METAR FBFT 081100Z 10015KT 9999 BKN015 20/10 Q1030=
METAR FBKE 081100Z /////KT 9999 FEW020 22/07 Q1027=

####018000116####
SAMS34 WMKK 081000 CCA
METAR 081000Z
METAR WBKT 081000Z 21010KT 6000 TSRA FEW015CB SCT016 BKN270 24/24 Q1009=
####018001673####
SAUS52 KWBC 081100
METAR
K3R1 NIL=
KAAF 081053Z AUTO 01006KT 9SM CLR 24/23 A3001=
KABR 081053Z AUTO 23003KT 6SM BR CLR 14/13 A3013=
KACT 081051Z 07004KT 10SM FEW036 SCT085 SCT120 26/23 A2999=
KAGS 081053Z 00000KT 10SM CLR 22/20 A2999=
KAHN 081051Z AUTO 00000KT 5SM BR CLR 22/19 A3004=
KALI 081053Z AUTO 04007KT 10SM -RA SCT006 SCT029 25/24 A2983=
KAUS 081053Z 06005KT 10SM SCT014 26/24 A2995=
KAYS 081100Z AUTO 00000KT 2 1/2SM CLR 21/21 A3002=
KBVE NIL=
KCAO 081055Z AUTO 01007KT 10SM OVC100 16/13 A3031=
KCDS 081053Z AUTO 00000KT 10SM BKN034 23/21 A3010=
KCKL NIL=
KCLL 081053Z AUTO 07007KT 10SM CLR 25/23 A2995=
KCNM NIL=
KCOT 081053Z AUTO 03006KT 10SM SCT017 BKN044 OVC060 25/23
     A2990=
KCSG 081051Z AUTO 00000KT 10SM CLR 23/20 A3003=
KCTY 081053Z AUTO 00000KT 19/19 A3001=
KDHT 081053Z AUTO 01009KT 10SM OVC080 16/15 A3025=
KECP 081053Z 29003KT 5SM BR CLR 23/23 A3002=
KELD 081053Z AUTO 00000KT 2 1/2SM BR SCT001 BKN080 23/23 A3004=
KELP 081051Z 36011KT 10SM FEW032 SCT055 BKN100 22/14 A3012=
KESF 081053Z AUTO 00000KT 5SM BR SCT015 22/22 A3003=
KFCL NIL=
KFSM 081053Z 00000KT 10SM BKN032 24/22 A3003=
KFYV 081053Z 00000KT 10SM OVC027 22/21 A3007=
KGAG 081053Z AUTO 01004KT 10SM -RA BKN110 21/19 A3014=
KGDP 081051Z AUTO 05022KT 3/4SM BR BKN005 BKN016 OVC100 16/16
     A3022=
KHBR 081053Z AUTO 06005KT 6SM VCTS BR FEW004 BKN065 23/22
     A3007=
KHDO 081051Z AUTO 03005KT 10SM CLR 24/22 A2996=
KHOT 081053Z AUTO 00000KT 10SM OVC008 24/23 A3007=
KHRO 081053Z AUTO 00000KT 10SM CLR 22/21 A3008=
KINK 081053Z AUTO 36006KT 10SM SCT017 21/19 A3007=
KIPT 081054Z 34003KT 7SM CLR 21/17 A3006=
####018000233####
SAUS52 KWBC 081100 CCA
METAR
KDAB 081053Z 33003KT 10SM FEW026 SCT150 21/20 A3000=
KMCN 081053Z AUTO 00000KT 10SM CLR 20/19 A3002=
KTRI 081053Z 00000KT 4SM BR FEW030 20/18 A3011=
KTUP 081053Z 00000KT 10SM CLR 24/22 A3007=
####018001350####
SAUS52 KWBC 081100 RRA
METAR
KJAN 081054Z 00000KT 10SM CLR 23/22 A3005=
KJBR 081053Z AUTO 18004KT 10SM CLR 24/23 A3006=
KJCT 081051Z AUTO 00000KT 8SM FEW014 22/21 A3001=
KJQF 081055Z 00000KT 10SM SCT100 23/18 A3001=
KLFK 081053Z AUTO 09005KT 10SM CLR 24/23 A3000=
KLFT 081053Z 08003KT 10SM SCT004 25/23 A3000=
KMEI 081058Z 00000KT 9SM CLR 23/22 A3005=
KMLC 081053Z AUTO 00000KT 10SM FEW070 24/23 A3004=
KMLU 081053Z 00000KT 7SM CLR 24/23 A3005=
KMWL 081053Z AUTO 13003KT 10SM FEW019 23/22 A3000=
KPBF 081053Z AUTO 00000KT 7SM CLR 24/22 A3006=
KPNC 081053Z AUTO 02003KT 9SM CLR 22/21 A3005=
KPSX 081053Z AUTO 10010KT 10SM CLR 27/25 A2986=
KPWA 081053Z 35006KT 8SM OVC004 23/21 A3005=
KQAO NIL=
KRMG 081053Z AUTO 00000KT 7SM CLR 19/18 A3005=
KRSL 081053Z AUTO 35009KT 10SM BKN015 OVC029 18/18 A3016=
KSEP NIL=
KSHV 081056Z 13004KT 10SM SCT160 BKN280 24/23 A3003=
KSPS 081052Z COR 10004KT 10SM FEW015 FEW033 SCT150 23/22 A3003=
KSPS 081052Z 10004KT 10SM CLR 23/22 A3003=
KTLH 081053Z 00000KT 10SM BCFG CLR 22/21 A3002=
KTOP 081053Z AUTO 32006KT 10SM CLR 22/20 A3007=
KVCT 081051Z AUTO 00000KT 4SM -RA BR BKN013 BKN022 OVC060 25/24
     A2989=
KVGT 081053Z AUTO 33005KT 10SM CLR 26/M04 A2984=
KVUJ 081059Z AUTO 00000KT 10SM SCT080 BKN090 22/19 A2998=
KWRB 081055Z 00000KT 10SM CLR 20/20 A3002=
####018000086####
SAIR31 OIII 081100 RRA
METAR OIII 081050Z 13008KT CAVOK 40/M03 Q1013 A2992 878.3=
####018001732####
SASA KAWN 081100 RRC
METAR SABE 081100Z 27009KT CAVOK 09/M01 Q1019=
METAR SACO 081100Z 34010KT CAVOK 09/M08 Q1020=
METAR SAEZ 081100Z 27001KT CAVOK 03/00 Q1019=
METAR SARE 081100Z 14007KT 9999 BKN006 SCT100 10/09 Q1019=
METAR SARF 081100Z 18008KT 9999 BKN006 SCT018 14/12 Q1017=
METAR SARP 081100Z 07007KT 9999 SCT005 OVC015 15/13 Q1018=
METAR SASJ 081100Z 00000KT CAVOK 10/08 Q1018=
METAR SAZS 081100Z 32008KT 4000 RA BKN007 OVC040 01/00 Q1005=
METAR SBCG 081100Z 08009KT CAVOK 19/08 Q1017=
METAR SBFN 081100Z 17008KT 9999 SCT017 26/23 Q1015=
METAR SKBO 081100Z VRB02KT 1200 PRFG BKN010 11/10 A3031 NOSIG=
METAR SKBQ 081100Z 22004KT 2000 BR SCT004 25/25 A2987 RMK APRSM=
METAR SKLT 081100Z 00000KT 9999 SCT015 BKN080 24/24 A2988 RMK APCLO=
METAR SKRG 081100Z 00000KT 2500 BCFG BKN003 BKN080 14/14 A3028=
METAR SKSP 081100Z 08006KT 9999 SCT015 28/25 A2982=
METAR SPHI 081100Z 17007KT 9999 SCT012 15/13 Q1014 RMK PP000=
METAR SPQT 081100Z /////KT 9999 FEW008 SCT100 24/23 Q1011 NOSIG RMK
      BIRD HAZARD RWY 06/24 PP000=
METAR SPQU 081100Z 34005KT CAVOK 06/M09 Q1024 RMK PP000=
METAR SPRU 081100Z 16005KT 7000 OVC015 16/13 Q1013 RMK BIRD HAZARD
      RWY20 PP000=
METAR SPSO 081100Z 14003KT 8000 SKC 12/10 Q1013 RMK PP000=
METAR SPTN 081100Z 15004KT 8000 SCT007 OVC012 11/09 Q1013 RMK PP000=
METAR SPZO 081100Z 00000KT 9999 FEW030 03/00 Q1032 TEMPO SCT036 RMK
      PP000=
METAR SVAC 081100Z 00000KT 9999 SCT023 SCT080 23/22 Q1013=
METAR SVBI 081100Z 00000KT 6000 -RA OVC030 XX/XX Q1013=
METAR SVBM 081100Z 09006KT 9999 BKN013 22/22 Q//// REDZ=
METAR SVVL 081100Z 00000KT 9999 SCT060 22/20 Q1021=
METAR SYCJ 081100Z 09002KT 9000 SCT015 FEW016CB 26/25 Q1012 CB W NOSIG=
####018000356####
SAPO32 LPMG 081100
METAR LPAZ 081100Z 25004KT 220V280 9999 BKN016 BKN030 21/19 Q1025=
METAR LPFL 081100Z 19005KT 140V280 9999 FEW023 23/18 Q1022=
METAR LPHR 081100Z 24006KT 9999 SCT013 SCT035 22/18 Q1023=
METAR LPLA 081100Z 15005KT 9999 -SHRA FEW008 SCT016 BKN028 20/18
      Q1024=
METAR LPPD 081100Z 27004KT 9999 FEW017 BKN030 20/16 Q1024=
####018000109####
SAFP20 LFVP 081100
METAR
METAR LFVP 081100Z 10003KT 0350 R26/0650D FG OVC003 11/11 Q1022
NOSIG=
/=
####018001672####
SAUS53 KWBC 081100
METAR
KAIA 081053Z AUTO 35004KT 10SM FEW085 14/13 A3028=
KAID NIL=
KALO 081054Z AUTO 31006KT 10SM CLR 19/19 A3006=
KALS 081052Z AUTO 27006KT 10SM CLR 07/07 A3041=
KANW 081050Z AUTO 00000KT 10SM SCT110 17/15 A3023=
KBBW 081053Z AUTO 00000KT 10SM BKN070 OVC085 17/16 A3024=
KBFF 081053Z AUTO 00000KT 10SM BKN065 OVC090 15/13 A3030=
KBIE 081050Z AUTO 35003KT 10SM SCT017 18/17 A3015=
KBIS 081052Z 00000KT 10SM CLR 11/09 A3014=
KBPI 081053Z AUTO 34006KT 10SM FEW100 06/01 A3039=
KBRL 081053Z AUTO 8SM OVC002 22/21 A3005=
KCAG 081053Z AUTO 00000KT 10SM CLR 10/07 A3030=
KCGI 081053Z AUTO 00000KT 10SM CLR 24/23 A3004=
KCID 081052Z 32004KT 9SM CLR 20/19 A3005=
KCNK 081055Z AUTO 01009KT 10SM SCT031 19/18 A3015=
KCNU 081052Z AUTO 36004KT 5SM BR OVC003 22/21 A3005=
KCOU 081054Z AUTO 06003KT 7SM FEW011 SCT085 22/22 A3004=
KCYS 081053Z AUTO 16005KT 8SM SCT004 BKN010 OVC014 12/12 A3037=
KCZD NIL=
KDBQ 081053Z 00000KT 7SM OVC018 21/20 A3006=
KDDC 081052Z AUTO 01006KT 5SM BR OVC003 18/17 A3018=
KDVL 081055Z AUTO 28006KT 10SM CLR 14/12 A3008=
KEAR 081055Z AUTO 33006KT 10SM CLR 15/13 A3025=
KEHA NIL=
KEVV 081054Z 00000KT 9SM CLR 24/22 A3006=
KF55 NIL=
KFNB 081053Z AUTO 34006KT 10SM BKN017 21/20 A3009=
KFSD 081056Z 00000KT 10SM CLR 15/14 A3016=
KFWA 081054Z 00000KT 7SM CLR 23/20 A3006=
KGCC 081053Z AUTO 00000KT 10SM CLR 11/07 A3028=
KGCK 081054Z AUTO 03010KT 10SM SCT005 18/16 A3021=
KGJT 081053Z AUTO 10007KT 10SM CLR 19/07 A3018=
KGLD 081053Z AUTO 00000KT 10SM BKN039 17/16 A3028=
KGPZ 081055Z AUTO 24005KT 10SM CLR 17/14 A3005=
KGRI 081053Z AUTO 31005KT 10SM BKN120 16/14 A3021=
####018001670####
SAUS53 KWBC 081100 RRA
METAR
KHON 081055Z AUTO 23003KT 10SM CLR 16/13 A3014=
KHSI 081053Z AUTO 34005KT 10SM CLR 16/14 A3020=
KHTL 081053Z AUTO 23004KT 10SM OVC090 23/21 A3003=
KIML 081053Z AUTO 00000KT 10SM SCT075 16/14 A3026=
KIRK 081055Z AUTO 32003KT 9SM CLR 19/19 A3007=
KJAC 081055Z AUTO 03003KT 10SM CLR 06/M02 A3036=
KJKL 081053Z AUTO 00000KT 4SM HZ CLR 23/20 A3012=
KJLN 081053Z 00000KT 10SM VCTS FEW013 BKN070 OVC095 23/22
     A3006=
KJNX 081059Z AUTO 00000KT 4SM CLR 22/22 A2995=
KLAN 081053Z 00000KT 5SM BR FEW050 SCT130 SCT150 23/21 A3005=
KLBF 081053Z AUTO 00000KT 10SM SCT085 16/15 A3025=
KLIH NIL=
KLNC NIL=
KLND 081053Z AUTO 26007KT 10SM CLR 10/03 A3033=
KLNK 081054Z 35006KT 10SM BKN036 18/17 A3016=
KLXV 081053Z AUTO 18006KT 10SM CLR 06/05 A3051=
KMCK 081053Z AUTO 00000KT 10SM FEW049 BKN070 OVC085 16/16
     A3024=
KMCW 081053Z AUTO 32006KT 7SM CLR 17/17 A3013=
KMFD 081052Z 18004KT 5SM HZ CLR 20/17 A3010=
KMHK 081052Z AUTO 00000KT 6SM BR SCT018 22/21 A3010=
KMHN NIL=
KMKG 081055Z 00000KT 4SM BR FEW075 BKN100 23/22 A3002=
KMMO NIL=
KMSN 081053Z 00000KT 9SM FEW006 OVC015 21/20 A3002=
KODX 081053Z AUTO 34003KT 10SM OVC085 16/16 A3021=
KONL 081050Z AUTO 28004KT 10SM SCT110 17/15 A3022=
KOTM 081053Z AUTO 33003KT 7SM CLR 20/19 A3006=
KOVN NIL=
KPAH 081053Z AUTO 00000KT 10SM CLR 24/22 A3005=
KPKD 081053Z AUTO 00000KT 7SM CLR 13/13 A3008=
KRAP 081052Z AUTO 30008KT 10SM CLR 11/08 A3025=
KRFD 081054Z 27005KT 6SM BR OVC006 22/21 A3004=
KRIW 081053Z AUTO 25005KT 10SM CLR 09/04 A3034=
KRST 081054Z 31005KT 7SM CLR 17/17 A3011=
KSBN 081054Z 00000KT 6SM BR CLR 23/21 A3004=
####018000696####
SAUS53 KWBC 081100 RRB
METAR
KSHR 081053Z AUTO 00000KT 10SM CLR 07/04 A3026=
KSLN 081053Z AUTO 36005KT 5SM BR OVC006 21/19 A3012=
KSPI 081052Z 00000KT 7SM -RA FEW008 SCT025 BKN045 23/23 A3004=
KSSM NIL=
KSTC 081053Z AUTO 00000KT 4SM BR CLR 13/12 A3009=
KSUX 081052Z 31004KT 6SM BR CLR 16/15 A3016=
KSVM NIL=
KTCS 081053Z AUTO 36008KT 10SM BKN120 18/14 A3020=
KTDF 081102Z AUTO 00000KT 3SM SCT120 21/20 A3001=
KUDG 081055Z 30005KT 10SM CLR 24/18 A2997=
KUIN 081054Z AUTO 00000KT 2SM BR OVC001 23/22 A3004=
KVIH 081053Z AUTO 00000KT 8SM FEW018 SCT100 23/22 A3005=
KVTN 081052Z AUTO 23006KT 10SM SCT120 15/14 A3024=
KYNG 081051Z 00000KT 5SM BR HZ FEW060 19/18 A3010=
####018000713####
SAJP37 RJTD 081100
METAR RJAA 081100Z 16004KT 9999 FEW020 BKN/// 23/21 Q1011 NOSIG=
METAR RJBB 081100Z 25010KT 9999 FEW060 BKN/// 26/23 Q1009 NOSIG=
METAR RJTT 081100Z 18016KT 9999 FEW009 SCT014 BKN/// 25/22 Q1010=
METAR RJOO 081100Z 21004KT 160V250 9999 FEW030 BKN/// 27/21 Q1009=
METAR RJFF 081100Z 30006KT 260V330 6000 FEW025 BKN030 BKN/// 25/21
           Q1009=
METAR RJGG 081100Z 12009KT 9999 FEW010 BKN/// 25/23 Q1009 NOSIG=
METAR RJFK 081100Z 15004KT 9999 FEW030 BKN/// 24/20 Q1010=
METAR RJFU 081100Z 27004KT 9999 FEW025 SCT150 BKN/// 25/23 Q1009=
METAR RJCH 081100Z 18003KT 9999 FEW004 SCT009 BKN011 20/19 Q1010=
METAR RJFR 081100Z 13004KT 9000 FEW030 SCT050 BKN/// 26/22 Q1009=
####018000195####
SAJP36 RJTD 081100 RRB
METAR RJEC 081100Z 31006KT 9999 FEW015 BKN020 19/18 Q1010=
METAR RJSK 081100Z VRB02KT CAVOK 23/21 Q1011=
METAR RJAH 081100Z 21003KT 9999 FEW030 BKN/// 25/23 Q1010=
####018000564####
SAJP35 RJTD 081100
METAR RJAA 081100Z 16004KT 9999 FEW020 BKN/// 23/21 Q1011 NOSIG=
METAR RJBB 081100Z 25010KT 9999 FEW060 BKN/// 26/23 Q1009 NOSIG=
METAR RJTT 081100Z 18016KT 9999 FEW009 SCT014 BKN/// 25/22 Q1010=
METAR RJOO 081100Z 21004KT 160V250 9999 FEW030 BKN/// 27/21 Q1009=
METAR RJGG 081100Z 12009KT 9999 FEW010 BKN/// 25/23 Q1009 NOSIG=
METAR RJSN 081100Z 04004KT 360V080 7000 FEW015 BKN/// 24/23 Q1010=
METAR RJCH 081100Z 18003KT 9999 FEW004 SCT009 BKN011 20/19 Q1010=
METAR RJSA 081100Z 11003KT 8000 FEW010 SCT030 BKN080 21/20 Q1011=
####018000707####
SAJP36 RJTD 081100
METAR RJAA 081100Z 16004KT 9999 FEW020 BKN/// 23/21 Q1011 NOSIG=
METAR RJBB 081100Z 25010KT 9999 FEW060 BKN/// 26/23 Q1009 NOSIG=
METAR RJTT 081100Z 18016KT 9999 FEW009 SCT014 BKN/// 25/22 Q1010=
METAR RJOO 081100Z 21004KT 160V250 9999 FEW030 BKN/// 27/21 Q1009=
METAR ROAH 081100Z 19012KT 9999 SCT012 SCT080 BKN150 29/27 Q1010=
METAR RJFF 081100Z 30006KT 260V330 6000 FEW025 BKN030 BKN/// 25/21
           Q1009=
METAR RJGG 081100Z 12009KT 9999 FEW010 BKN/// 25/23 Q1009 NOSIG=
METAR RJCC 081100Z 21006KT 2500 -DZ BR BKN002 18/16 Q1010=
METAR RJFK 081100Z 15004KT 9999 FEW030 BKN/// 24/20 Q1010=
METAR RJSN 081100Z 04004KT 360V080 7000 FEW015 BKN/// 24/23 Q1010=
####018000691####
SAJP36 RJTD 081100 RRA
METAR RJFT 081100Z 20003KT 140V230 9999 FEW020 BKN030 BKN/// 25/21
           Q1010=
METAR RJNK 081100Z 05004KT 9999 FEW015 BKN/// 24/21 Q1009=
METAR RJSS 081100Z 10004KT 9999 FEW010 BKN/// 24/22 Q1010=
METAR RJOA 081100Z VRB01KT CAVOK 25/20 Q1011=
METAR RJOB 081100Z 04001KT CAVOK 25/21 Q1010=
METAR RJOT 081100Z VRB02KT 9999 FEW025 SCT080 BKN/// 25/22 Q1010=
METAR RJFO 081100Z VRB02KT 6000 -SHRA FEW020 SCT035 BKN080 25/23
           Q1009=
METAR RJNT 081100Z 02002KT 9999 FEW020 SCT030 BKN/// 26/21 Q1010=
METAR RJSA 081100Z 11003KT 8000 FEW010 SCT030 BKN080 21/20 Q1011=
METAR RJOM 081100Z 00000KT 9000 FEW015 SCT040 BKN/// 25/23 Q1009=
####018001662####
SAUS54 KWBC 081100
METAR
KAST 081055Z AUTO 00000KT 7SM OVC003 12/11 A2995=
KAWH NIL=
KBFL 081054Z AUTO 33004KT 10SM CLR 21/11 A2983=
KBIH 081056Z AUTO 34006KT 10SM CLR 14/03 A2999=
KBLU 081052Z AUTO 35004KT 10SM CLR 21/04 A3009=
KBNY NIL=
KBUO NIL=
KBZN 081056Z AUTO 00000KT 10SM CLR 10/04 A3028=
KCNY 081053Z AUTO 20004KT 10SM CLR 18/04 A3011=
KCQV NIL=
KCZK NIL=
KCZZ 081052Z AUTO 00000KT 08/08 A2987=
KDRA 081055Z AUTO 04007KT 10SM CLR 21/M11 A2993=
KELY 081053Z AUTO 17009KT 10SM CLR 07/M04 A3022=
KEUG 081054Z 19006KT 10SM CLR 13/10 A2993=
KFLG 081056Z AUTO 00000KT 10SM FEW070 10/01 A3026=
KGNG NIL=
KHMM NIL=
KHMS 081050Z 31010KT 15SM SKC 20/07 A2995=
KHTH NIL=
KIGM NIL=
KINW 081056Z AUTO 00000KT 10SM CLR 22/01 A3011=
KIZA 081050Z AUTO 00000KT 10SM OVC009 13/11 A2991=
KJDN NIL=
KJNW NIL=
KJNX 081059Z AUTO 00000KT 4SM CLR 22/22 A2995=
KLGB 081053Z 31004KT 10SM OVC015 17/13 A2989=
KLWS 081056Z AUTO 12003KT 10SM CLR 15/06 A3003=
KMEH 081056Z AUTO 00000KT 10SM CLR 06/05 A3011=
KMFR 081053Z AUTO 20003KT 10SM CLR 23/12 A2989=
KMHS 081056Z AUTO 02003KT 10SM CLR 12/07 A3001=
KMLD NIL=
KMLF 081052Z AUTO 26006KT 10SM CLR 13/01 A3010=
KMQM NIL=
KMWS NIL=
KNUQ 081056Z AUTO 01005KT 10SM OVC011 15/12 A2992=
KOLM 081054Z AUTO 00000KT 10SM CLR 12/11 A2995=
KOWY NIL=
KPDT 081053Z AUTO 10006KT 10SM CLR 14/07 A2997=
KPFC NIL=
KPGA 081053Z AUTO 00000KT 10SM CLR 24/02 A3004=
KPIH 081053Z AUTO 30003KT 10SM CLR 08/02 A3017=
KPUC 081053Z AUTO 35003KT 10SM CLR 14/02 A3022=
KRBL 081054Z AUTO 00000KT 10SM CLR 23/18 A2983=
KRDD 081053Z AUTO 00000KT 10SM CLR 22/15 A2982=
####018000083####
SAUS54 KWBC 081100 CCA
METAR
KSMP 081056Z AUTO VRB03KT 10SM CLR 17/03 A3015=
####018000576####
SAUS54 KWBC 081100 RRA
METAR
KSDB 081052Z AUTO 31006KT 10SM CLR 19/00 A3002=
KSHN 081053Z AUTO 00000KT 10SM CLR 12/10 A2993=
KSJN 081054Z AUTO 09009KT 10SM OVC110 21/06 A3017=
KSLC 081053Z 16007KT 10SM FEW130 18/07 A3009=
KSMX 081051Z AUTO 00000KT 8SM OVC007 12/11 A2992=
KSOW 081050Z AUTO 00000KT 10SM SCT110 21/03 A3024=
KSVE NIL=
KTRK 081050Z AUTO 12003KT 10SM CLR 10/07 A3015=
KUIL 081053Z AUTO 09005KT 10SM CLR 16/10 A2994=
KWEY NIL=
KWMC 081056Z AUTO 01004KT 10SM CLR 17/M05 A3006=
KXCN NIL=
KYKM 081053Z AUTO 26003KT 10SM CLR 12/07 A3002=
####018001882####
SAEU KAWN 081100 RRP
METAR EGDX 081050Z 26006KT 9999 FEW020 BKN100 19/10 Q1018 BLU=
METAR EGXD 081050Z 24013KT 9999 FEW040 BKN150 20/09 Q1016 BLU NOSIG=
METAR EGXW 081050Z 25009KT 9999 FEW033 BKN120 BKN250 20/10 Q1017 BLU
      NOSIG=
METAR LFBA 081100Z 09010KT CAVOK 31/17 Q1017 NOSIG=
METAR LFBC 081100Z AUTO 10010KT 030V140 9999NDV NSC 34/12 Q1016=
METAR LFBF 081100Z AUTO 11009KT 080V160 9999NDV // NSC 33/16 Q1018=
METAR LFBG 081100Z AUTO 08006KT 030V130 9999NDV NSC 32/15 Q1017=
METAR LFBM 081100Z AUTO 10010KT 070V140 9999NDV NSC 34/18 Q1016=
METAR LFGJ 081100Z AUTO 25005KT 220V330 9999NDV NSC 29/12 Q1020=
METAR LFKS 081100Z AUTO 11006KT 080V160 9999NDV NSC 30/21 Q1020=
METAR LFMD 081100Z AUTO 16009KT 9999NDV NSC 30/22 Q1020=
METAR LFMO 081100Z AUTO 21005KT 160V280 9999NDV NSC 33/14 Q1020=
METAR LFMY 081100Z 20005KT 160V230 CAVOK 32/15 Q1020=
METAR LFPM 081100Z VRB02KT CAVOK 30/13 Q1019=
METAR LFRC 081100Z AUTO 01007KT 310V050 9999NDV NSC 21/16 Q1019=
METAR LFRK 081100Z 36007KT 310V050 CAVOK 24/13 Q1019 NOSIG=
METAR LFRT 081053Z 06005KT 360V110 9999 FEW020 SCT250 21/16 Q1019=
METAR LFTW 081100Z AUTO 19004KT 090V260 9999NDV NSC 31/14 Q1020=
METAR LRAR 081100Z 35008KT 310V050 9999 SCT034 23/16 Q1020=
METAR LRBC 081100Z 01012KT 9999 BKN026 22/16 Q1017=
METAR LRBM 081100Z 27004KT 9999 SCT020 19/17 Q1019=
METAR LRCL 081100Z 29004KT 250V330 9999 FEW016 BKN026 17/13 Q1021 0821//95=
METAR LRCV 081100Z VRB04KT 9999 FEW033 23/14 Q1017=
METAR LRIA 081100Z 31012KT 280V350 9999 FEW016 SCT022 22/17 Q1017=
METAR LROD 081100Z 36010KT 9999 SCT045 22/13 Q1021=
METAR LRSM 081100Z 36006KT 310V050 9999 SCT040 22/13 Q1020=
METAR COR LRSV 081100Z 32013KT 9999 BKN012 OVC028 17/14 Q1019=
METAR LRTC 081100Z 36008KT 9999 FEW030CB BKN040 23/17 Q1015=
METAR LRTM 081100Z 23006KT 9999 FEW015 SCT026 BKN031 17/14 Q1021=
####018000427####
SAJP31 RJTD 081100
METAR RJAA 081100Z 16004KT 9999 FEW020 BKN/// 23/21 Q1011 NOSIG=
METAR RJBB 081100Z 25010KT 9999 FEW060 BKN/// 26/23 Q1009 NOSIG=
METAR RJTT 081100Z 18016KT 9999 FEW009 SCT014 BKN/// 25/22 Q1010=
METAR RJOO 081100Z 21004KT 160V250 9999 FEW030 BKN/// 27/21 Q1009=
METAR ROAH 081100Z 19012KT 9999 SCT012 SCT080 BKN150 29/27 Q1010=
METAR RJGG 081100Z 12009KT 9999 FEW010 BKN/// 25/23 Q1009 NOSIG=
####018001573####
SAUS20 KNKA 081106
METAR K2G4 081100Z AUTO 00000KT 10SM SCT065 23/13 A3019 RMK
     AO1=
METAR K2W6 081103Z AUTO 00000KT 2 1/2SM 24/24 A3001 RMK AO1 SKY
     OBSCURED=
SPECI KACT 081106Z 06003KT 10SM SCT012 BKN017 26/23 A2999 RMK AO2=
SPECI KBTR 081059Z 06003KT 2 1/2SM BR MIFG SCT003 BKN200 23/23
     A3001 RMK AO2 SFC VIS 3 $=
SPECI KBVY 081105Z 16005KT 8SM BKN007 22/20 A3009 RMK AO2 PNO=
METAR KCBE 081103Z AUTO 00000KT 5SM CLR 21/19 A3011 RMK AO1=
METAR KCGE 081101Z AUTO 00000KT 3/4SM OVC002 25/25 A3002 RMK
     AO1=
METAR KCGS 081105Z AUTO 00000KT 5SM CLR 26/24 A3001 RMK AO1=
METAR KDMW 081104Z AUTO 09003KT 5SM HZ CLR 26/22 A3005 RMK AO2=
SPECI KFLD 081105Z AUTO 00000KT 6SM BR SCT009 SCT026 22/20 A3001 RMK 
    AO2=
METAR KFME 081106Z AUTO 07003KT 4SM CLR 22/22 A3003 RMK AO1=
SPECI KGCK 081105Z AUTO 03011KT 10SM BKN007 17/16 A3022 RMK AO2 CIG 
    005V010=
SPECI KHIB 081105Z AUTO 00000KT 2SM BR CLR 09/09 A3004 RMK AO2=
SPECI KHYA 081105Z 00000KT 10SM FEW008 OVC016 22/21 A3010 RMK AO2=
SPECI KILG 081105Z 00000KT 2 1/2SM HZ FEW005 26/23 A3003 RMK AO2 $=
SPECI KMFI 081105Z AUTO 31007KT 3SM BR OVC003 19/18 A3003 RMK AO2=
METAR KOCW 081103Z AUTO 03004KT 1 1/2SM HZ 26/21 A2996 RMK AO2=
METAR KORG 081105Z AUTO 07008KT 7SM BKN010 BKN022 16/14 A2998 RMK 
     AO2=
SPECI KTAD 081105Z AUTO 34004KT 10SM SCT007 BKN016 OVC029 14/13 
    A3037 RMK AO2=
SPECI KUIN 081105Z AUTO 00000KT 1 1/2SM BR OVC001 23/22 A3004 RMK 
    AO2=
METAR KW29 081103Z AUTO 11003KT 2 1/2SM CLR 25/23 A3001 RMK
     AO1=
####018000116####
SAAK41 KNKA 081106
SPECI PAWD 081104Z AUTO 00000KT 2SM BR FEW002 BKN006 OVC010 10/09 
    A2995 RMK AO2 TSNO=
####018000683####
SAJP32 RJTD 081100
METAR RJFF 081100Z 30006KT 260V330 6000 FEW025 BKN030 BKN/// 25/21
           Q1009=
METAR RJCC 081100Z 21006KT 2500 -DZ BR BKN002 18/16 Q1010=
METAR RJFK 081100Z 15004KT 9999 FEW030 BKN/// 24/20 Q1010=
METAR RJSN 081100Z 04004KT 360V080 7000 FEW015 BKN/// 24/23 Q1010=
METAR RJFT 081100Z 20003KT 140V230 9999 FEW020 BKN030 BKN/// 25/21
           Q1010=
METAR RJFU 081100Z 27004KT 9999 FEW025 SCT150 BKN/// 25/23 Q1009=
METAR RJCH 081100Z 18003KT 9999 FEW004 SCT009 BKN011 20/19 Q1010=
METAR RJSS 081100Z 10004KT 9999 FEW010 BKN/// 24/22 Q1010=
METAR RJOA 081100Z VRB01KT CAVOK 25/20 Q1011=
METAR RJOB 081100Z 04001KT CAVOK 25/21 Q1010=
####018000180####
SAJP32 RJTD 081100 RRA
METAR RJOT 081100Z VRB02KT 9999 FEW025 SCT080 BKN/// 25/22 Q1010=
METAR RJFO 081100Z VRB02KT 6000 -SHRA FEW020 SCT035 BKN080 25/23
           Q1009=
####018000101####
SAUS45 KBOU 081106
MTRABH
SPECI KABH 081105Z AUTO 27008KT 3/4SM BR VV001 12/12 A3036 RMK AO2 $
####018001680####
SAUS72 KWBC 081100
METAR
KABI 081052Z 01005KT 7SM SCT002 BKN010 22/21 A3006=
KABQ 081056Z 05009KT 10SM SCT100 BKN200 20/09 A3026=
KABY 081053Z 00000KT 10SM CLR 21/19 A3004=
KACT 081051Z 07004KT 10SM FEW036 SCT085 SCT120 26/23 A2999=
KAEX 081053Z AUTO 06003KT 10SM CLR 24/23 A3000=
KAFW 081053Z 00000KT 10SM CLR 26/23 A3001=
KAHN 081051Z AUTO 00000KT 5SM BR CLR 22/19 A3004=
KALI 081053Z AUTO 04007KT 10SM -RA SCT006 SCT029 25/24 A2983=
KAMA 081053Z 36008KT 1SM OVC005 17/17 A3020=
KANB 081053Z AUTO 00000KT 8SM CLR 21/19 A3005=
KAPF 081053Z 05005KT 10SM CLR 24/23 A2996=
KATL 081052Z 31003KT 10SM CLR 24/18 A3005=
KAUS 081053Z 06005KT 10SM SCT014 26/24 A2995=
KBFM 081053Z 00000KT 7SM CLR 23/22 A3004=
KBHM 081053Z 00000KT 7SM CLR 24/22 A3008=
KBNA 081053Z 00000KT 10SM FEW080 SCT200 24/22 A3008=
KBPT 081053Z 08008KT 10SM FEW009 26/24 A2995=
KBQK 081057Z AUTO 29004KT 10SM CLR 21/21 A3001=
KBRO 081053Z 34003KT 10SM FEW016 26/25 A2977=
KCEW 081053Z AUTO 00000KT 5SM BR CLR 20/20 A3004=
KCHA 081053Z 00000KT 10SM CLR 22/19 A3007=
KCLL 081053Z AUTO 07007KT 10SM CLR 25/23 A2995=
KCNM NIL=
KCRP 081051Z 35007KT 10SM FEW010 SCT025 BKN048 26/25 A2983=
KCSG 081051Z AUTO 00000KT 10SM CLR 23/20 A3003=
KCSV 081053Z AUTO 00000KT 6SM HZ CLR 21/17 A3015=
KDAL 081053Z 13007KT 10SM FEW016 BKN027 OVC037 26/23 A3001=
KDFW 081053Z 13003KT 10SM -RA OVC012 26/23 A3001=
KDHN 081053Z 00000KT 9SM CLR 23/22 A3007=
KDLF 081055Z AUTO 00000KT 10SM BKN065 24/23 A2996=
KDMN 081053Z AUTO 03013KT 10SM CLR 21/13 A3013=
KELP 081051Z 36011KT 10SM FEW032 SCT055 BKN100 22/14 A3012=
KESF 081053Z AUTO 00000KT 5SM BR SCT015 22/22 A3003=
####018000082####
SPCN48 CWAO 081105
SPECI CYPH 081105Z AUTO 23015KT 4SM OVC003 06/06 A2980=

####018001697####
SAUS72 KWBC 081100 RRA
METAR
KEYW 081053Z 07003KT 10SM FEW080 27/24 A2994=
KFLL 081053Z 07007KT 10SM FEW022 28/24 A2993=
KFSM 081053Z 00000KT 10SM BKN032 24/22 A3003=
KFTW 081053Z 10004KT 10SM SCT010 25/23 A3000=
KFTY 081053Z 00000KT 7SM CLR 20/18 A3005=
KGGG 081053Z 08005KT 10SM CLR 24/24 A3003=
KGLS 081052Z 15013KT 10SM -RA FEW012 BKN024 OVC039 26/24 A2991=
KGNV 081053Z 00000KT 6SM BR CLR 19/18 A3001=
KGPT 081053Z 00000KT 6SM BR CLR 26/24 A3002=
KGUP 081053Z AUTO 15006G14KT 10SM CLR 19/08 A3025=
KGWO 081053Z AUTO 00000KT 10SM CLR 22/22 A3005=
KHOT 081053Z AUTO 00000KT 10SM OVC008 24/23 A3007=
KHOU 081053Z 09005KT 10SM FEW029 SCT042 BKN130 28/24 A2991=
KHRL 081052Z 35009KT 10SM -RA FEW006 BKN031 OVC050 26/26 A2977=
KHRO 081053Z AUTO 00000KT 10SM CLR 22/21 A3008=
KHSV 081053Z 00000KT 8SM FEW250 23/22 A3007=
KIAH NIL=
KINK 081053Z AUTO 36006KT 10SM SCT017 21/19 A3007=
KJAN 081054Z 00000KT 10SM CLR 23/22 A3005=
KJAX 081056Z 25003KT 8SM CLR 20/19 A3000=
KJBR 081053Z AUTO 18004KT 10SM CLR 24/23 A3006=
KLBB 081053Z 02007KT 10SM FEW040 BKN120 BKN150 19/16 A3014=
KLCH 081053Z AUTO 06006KT 9SM BKN011 OVC024 25/23 A2997=
KLFT 081053Z 08003KT 10SM SCT004 25/23 A3000=
KLIT 081053Z 00000KT 7SM BKN150 BKN250 24/23 A3006=
KLRD 081056Z 03007KT 10SM OVC022 27/24 A2990=
KLRU 081051Z AUTO 01003KT 10SM CLR 21/14 A3016=
KMAF 081053Z 02005KT 10SM CLR 21/20 A3007=
KMCO 081053Z 35004KT 10SM MIFG FEW015 FEW250 22/21 A2999=
KMEI 081058Z 00000KT 9SM CLR 23/22 A3005=
KMEM 081053Z 00000KT 10SM FEW150 SCT250 24/22 A3007=
KMFE 081053Z 33006KT 10SM OVC006 26/24 A2980=
KMIA 081053Z 01003KT 10SM FEW025TCU SCT100 BKN250 27/24 A2994=
####018001156####
SABO SLLP 081100
METAR SLCO 081100Z 00000KT 9999 SCT080 BKN200 23/22 Q1012=
METAR SLRY 081100Z 00000KT 3000 BR SCT017 FEW023CB BKN200 22/22
Q1012=
METAR SLRQ 081100Z 00000KT 9999 BKN017 FEW020CB 22/22 Q1012=
METAR SLOR 081100Z 00000KT 9999 NSC M07/M09 Q1033=
METAR SLRI 081100Z 00000KT 5000 FU SCT080 24/23 Q1012=
METAR SLJO 081100Z 00000KT 9999 FEW020 SCT080 BKN200 22/21 Q1012=
METAR SLMG 081100Z 03004KT 9999 FEW080 BKN200 23/21 Q1013=
METAR SLSA 081100Z 36004KT 9999 FEW020 FEW023CB BKN200 23/22 Q1011=
METAR SLSU 081100Z 05005KT 9999 SCT010 08/05 Q1028=
METAR SLVM 081100Z 00000KT 9999 FEW020 SCT070 16/15 Q1026=
METAR SLTJ 081100Z 00000KT 9999 FEW030 SCT200 06/04 Q1022=
METAR SLYA 081100Z 00000KT 9999 FEW023 12/10 Q1021=
METAR SLET 081100Z 15012KT 9999 FEW023 SCT070 19/18 Q1015=
METAR SLCP 081100Z 12003KT 9999 BKN017 OVC070 21/20 Q1017=
METAR SLSI 081100Z 00000KT 9999 BKN070 21/19 Q1015=
METAR SLJE 081100Z 19006KT 9999 BKN015 19/17 Q1017=
METAR SLRB 081100Z 00000KT 9999 BKN017 21/18 Q1017=
METAR SLPS 081100Z 00000KT 9999 FEW023 BKN070 24/16 Q1012=
METAR SLCA 081100Z 00000KT 9999 BKN030 15/14 Q1020=
####018000075####
SAMY20 FMCZ 081100
METAR FMCZ 081105Z 14012KT 9999 SCT025 26/19 Q1017=
####018001195####
SPUS99 KWBC 081107
SPECI
KCEF 081102Z AUTO 16005KT 10SM BKN009 24/22 A3006 RMK AO2 CIG
     009V011 SLP180 PWINO $=
KCSM 081104Z AUTO 01006KT 9SM SCT009 BKN012 BKN060 23/21 A3011 RMK
     AO2=
KINK 081104Z AUTO 35007KT 10SM BKN017 21/19 A3007 RMK AO2 TSNO=
KNMM 081057Z 00000KT 7SM FEW250 22/21 A3006 RMK AO2 $=
KACT 081106Z 06003KT 10SM SCT012 BKN017 26/23 A2999 RMK AO2=
KBTR 081059Z 06003KT 2 1/2SM BR MIFG SCT003 BKN200 23/23 A3001 RMK
     AO2 SFC VIS 3 $=
KBVY 081105Z 16005KT 8SM BKN007 22/20 A3009 RMK AO2 PNO=
KFLD 081105Z AUTO 00000KT 6SM BR SCT009 SCT026 22/20 A3001 RMK
     AO2=
KGCK 081105Z AUTO 03011KT 10SM BKN007 17/16 A3022 RMK AO2 CIG
     005V010=
KHIB 081105Z AUTO 00000KT 2SM BR CLR 09/09 A3004 RMK AO2=
KHYA 081105Z 00000KT 10SM FEW008 OVC016 22/21 A3010 RMK AO2=
KILG 081105Z 00000KT 2 1/2SM HZ FEW005 26/23 A3003 RMK AO2 $=
KMFI 081105Z AUTO 31007KT 3SM BR OVC003 19/18 A3003 RMK AO2=
KTAD 081105Z AUTO 34004KT 10SM SCT007 BKN016 OVC029 14/13 A3037
     RMK AO2=
KUIN 081105Z AUTO 00000KT 1 1/2SM BR OVC001 23/22 A3004 RMK
     AO2=
PAWD 081104Z AUTO 00000KT 2SM BR FEW002 BKN006 OVC010 10/09 A2995
     RMK AO2 TSNO=
####018000716####
SAUS99 KWBC 081107
METAR
KEFD 081050Z 10010KT 8SM FEW020 SCT045 BKN130 28/25 A2993=
K2G4 081100Z AUTO 00000KT 10SM SCT065 23/13 A3019 RMK AO1=
K2W6 081103Z AUTO 00000KT 2 1/2SM 24/24 A3001 RMK AO1 SKY
     OBSCURED=
KCBE 081103Z AUTO 00000KT 5SM CLR 21/19 A3011 RMK AO1=
KCGE 081101Z AUTO 00000KT 3/4SM OVC002 25/25 A3002 RMK AO1=
KCGS 081105Z AUTO 00000KT 5SM CLR 26/24 A3001 RMK AO1=
KDMW 081104Z AUTO 09003KT 5SM HZ CLR 26/22 A3005 RMK AO2=
KFME 081106Z AUTO 07003KT 4SM CLR 22/22 A3003 RMK AO1=
KOCW 081103Z AUTO 03004KT 1 1/2SM HZ 26/21 A2996 RMK AO2=
KORG 081105Z AUTO 07008KT 7SM BKN010 BKN022 16/14 A2998 RMK
     AO2=
KW29 081103Z AUTO 11003KT 2 1/2SM CLR 25/23 A3001 RMK AO1=
####018001637####
SAUS72 KWBC 081100 RRB
METAR
KMKL 081053Z AUTO 00000KT 10SM CLR 22/21 A3008=
KMLB 081053Z 00000KT 9SM CLR 21/21 A2998=
KMLC 081053Z AUTO 00000KT 10SM FEW070 24/23 A3004=
KMLU 081053Z 00000KT 7SM CLR 24/23 A3005=
KMOB 081056Z 00000KT 7SM MIFG FEW020 SCT250 22/21 A3004=
KMSL 081053Z AUTO 00000KT 9SM SCT065 23/22 A3009=
KMSY 081053Z 00000KT 9SM FEW016 SCT250 26/23 A3001=
KNEW 081053Z AUTO 11004KT 10SM CLR 27/25 A3002=
KNGP 081056Z 09011KT 4SM +RA BR SCT013 BKN019 BKN033 28/27
     A2982=
KOKC 081052Z 01005KT 10SM FEW021 BKN080 OVC130 23/22 A3005=
KPBI 081053Z 04005KT 10SM SCT023CB SCT150 BKN250 27/24 A2994=
KPDK 081053Z 00000KT 10SM CLR 22/19 A3005=
KPFN NIL=
KPIE 081053Z 00000KT 10SM CLR 23/21 A2998=
KPNS 081053Z 00000KT 6SM BR CLR 24/23 A3002=
KROW 081051Z AUTO 36008KT 10SM OVC031 20/16 A3018=
KRSW 081053Z 00000KT 10SM CLR 24/22 A2996=
KSAT 081053Z 05005KT 7SM BKN011 OVC050 25/23 A2994=
KSFB 081053Z 36003KT 10SM CLR 21/21 A2999=
KSHV 081056Z 13004KT 10SM SCT160 BKN280 24/23 A3003=
KSJT 081051Z AUTO 00000KT 10SM FEW120 22/20 A3002=
KSRQ 081053Z 05003KT 10SM CLR 23/22 A2996=
KSSI 081053Z AUTO 27005KT 10SM CLR 23/21 A3000=
KTCC 081053Z AUTO 04006KT 10SM FEW009 BKN014 OVC100 18/16
     A3023=
KTCL 081053Z AUTO 00000KT 7SM CLR 24/22 A3005=
KTCS 081053Z AUTO 36008KT 10SM BKN120 18/14 A3020=
KTLH 081053Z 00000KT 10SM BCFG CLR 22/21 A3002=
KTPA 081053Z 00000KT 10SM SCT200 24/22 A2999=
KTUL 081053Z 00000KT 10SM -TSRA FEW007 BKN055 BKN080 23/22
     A3002=
KTXK 081053Z 00000KT 1SM BR VV001 23/23 A3005=
KTYR 081053Z AUTO 00000KT 10SM CLR 25/23 A3003=
####018000082####
SAPK31 OPST 081050
METAR OPST 081100Z 18004KT 6000 HZ FEW040 39/20 Q1003 RH35=
####018000211####
SAEW36 LEMM 081100
METAR GCHI 081100Z 01011KT 330V040 9999 SCT013 OVC019 21/18 Q1018=
METAR GCLA 081100Z 02012KT 330V050 9999 BKN020 24/17 Q1019=
METAR GEML 081100Z 08008KT 050V120 9999 FEW013 26/21 Q1017=
####018000413####
SAPL31 EPWA 081100
METAR EPWA 081100Z 31010KT 280V350 9999 SCT046 22/12 Q1021
      NOSIG=
METAR EPGD 081100Z VRB05KT CAVOK 24/09 Q1021=
METAR EPKK 081100Z 33005KT 290V010 9999 FEW053 23/08 Q1022=
METAR EPPO 081100Z 30008KT 250V350 CAVOK 24/08 Q1022=
METAR EPRZ 081100Z 33007KT 290V030 9999 SCT043 21/11 Q1021=
METAR EPBY 081100Z VRB03KT CAVOK 24/08 Q1022=
METAR EPZG 081100Z 17004KT CAVOK 25/07 Q1022=
####018000145####
SACO20 SKBO 081101 RRQ
METAR SKCC 081100Z 36004KT 9999 SCT015 SCT090 XX/XX A2997=
METAR SKPE 081100Z VRB02KT 9999 FEW015 BKN080 18/16 A3010=
####018000673####
SAKZ31 RUMS 081100
METAR UAAA 081100Z 20005MPS 9999 -SHRA BKN050CB OVC100 25/16 Q1014
88CLRD65 TEMPO TS=
METAR UACC 081100Z 31005MPS 280V340 CAVOK 24/03 Q1008 220/0070 NOSIG
RMK QFE725/0967=
METAR UAKK 081100Z 01006MPS 9999 BKN050CB BKN/// 24/03 Q1009 230///70
NOSIG RMK QFE710/0947=
METAR UAOO 081100Z NIL=
METAR UARR 081100Z NIL=
METAR UATE 081100Z 01005G10MPS CAVOK 39/07 Q1010 300///70 NOSIG RMK
QFE756/1008=
METAR UATG 081100Z 30005G10MPS CAVOK 39/09 Q1008 32CLRD70 NOSIG RMK
QFE758/1011 =
METAR UATT 081100Z 06008MPS 9999 NSC 33/02 Q1010 13CLRD70 NOSIG RMK
QFE738/0984=
METAR UAUU 081100Z 35005MPS CAVOK 26/M02 Q1012 33CLRD70 NOSIG RMK
QFE744/0992=
####018000288####
SATR31 RUMS 081100
METAR UTAA 081100Z 11003MPS 9999 SKC 44/03 Q1007 NOSIG=
METAR UTAK 081100Z 29003MPS CAVOK 38/14 Q1008 NOSIG=
METAR UTAM 081100Z 02005MPS CAVOK 42/05 Q1005 NOSIG=
METAR UTAT 081100Z 14003MPS CAVOK 44/19 Q1007 NOSIG=
METAR UTAV 081100Z 04004MPS CAVOK 40/08 Q1006=
####018000370####
SAEW35 LEMM 081100
METAR LEAB 081100Z 16014KT CAVOK 33/04 Q1021 NOSIG=
METAR LEBZ 081100Z 12008KT 080V160 CAVOK 34/13 Q1015=
METAR LELN 081100Z 17003KT CAVOK 30/10 Q1020=
METAR LESA 081100Z VRB02KT CAVOK 33/15 Q1019=
METAR LETO 081100Z VRB02KT CAVOK 32/11 Q1020 NOSIG=
METAR LEVD 081100Z 19001KT CAVOK 33/09 Q1020=
METAR LEVS 081100Z VRB01KT CAVOK 31/13 Q1020=
####018000085####
SAPR94 SPIM 081100 RRA
METAR
SPJL 081100Z 00000KT CAVOK M04/M06 Q1037 RMK PPOOO=
####018000358####
SAEW34 LEMM 081100
METAR LEBA 081100Z 27003KT 210V340 9999 BKN050TCU 31/14 Q1015=
METAR LEDA 081100Z 12005KT 070V170 CAVOK 34/13 Q1019=
METAR LEJR 081100Z VRB02KT CAVOK 30/18 Q1016=
METAR LELL 081100Z 12007KT 080V160 CAVOK 31/16 Q1019=
METAR LEPP 081100Z 16005KT 110V210 CAVOK 36/14 Q1018=
METAR LEXJ 081100Z 28010KT 250V310 9999 SCT018 25/19 Q1016=
####018000386####
SAUS72 KWBC 081100 CCA
METAR
KBTR 081053Z 00000KT 6SM BR MIFG SCT003 BKN200 23/23 A3001=
KDAB 081053Z 33003KT 10SM FEW026 SCT150 21/20 A3000=
KMCN 081053Z AUTO 00000KT 10SM CLR 20/19 A3002=
KMGM 081053Z 00000KT 8SM CLR 24/23 A3003=
KTRI 081053Z 00000KT 4SM BR FEW030 20/18 A3011=
KTUP 081053Z 00000KT 10SM CLR 24/22 A3007=
KTYS 081053Z 00000KT 6SM HZ CLR 22/19 A3007=
####018000488####
SAUS72 KWBC 081100 RRC
METAR
KVCT 081051Z AUTO 00000KT 4SM -RA BR BKN013 BKN022 OVC060 25/24
     A2989=
KVLD 081053Z 00000KT 10SM CLR 19/18 A3002=
KVRB 081053Z 00000KT 10SM CLR 22/21 A2996=
TIST 081053Z 08005KT 10SM CLR 28/24 A2999=
TISX 081053Z 08009KT 10SM FEW023 28/24 A2999=
TJBQ 081050Z 11004KT 10SM SKC 25/25 A3000=
TJMZ NIL=
TJPS 081050Z 00000KT 8SM FEW030 26/24 A2998 HZ ALQDS=
TJSJ 081056Z 11003KT 10SM FEW020 SCT110 28/24 A3000=
TKPK NIL=
TNCM NIL=
####018000086####
SPUS41 KWBC 081107
SPECI
KBED 081104Z 17007KT 6SM HZ BKN016 BKN070 24/21 A3007=
####018000882####
SACI41 ZBBB 081100
METAR ZBHH 081100Z 22003MPS CAVOK 29/10 Q1008 NOSIG=
METAR ZGHA 081100Z 15002MPS 9999 FEW040 32/29 Q1000 NOSIG=
METAR ZHCC 081100Z VRB01MPS 2800 HZ NSC 29/24 Q1004 NOSIG=
METAR ZHHH 081100Z 07002MPS 040V110 9999 SCT010 SCT030 25/25 Q1002
 NOSIG=
METAR ZJHK 081100Z 17003MPS 120V220 9999 FEW030CB 31/24 Q1005 NOSIG=
METAR ZJSY 081100Z 14003MPS 110V180 9999 FEW016 30/26 Q1006 NOSIG=
METAR ZLLL 081100Z 01007MPS 9999 BKN046 21/12 Q1017 BECMG 330003MPS=
METAR ZSNJ 081100Z 15004MPS 110V200 2500 HZ BKN030 28/22 Q1004 TEMPO
 -SHRA
 FEW030CB=
METAR ZSOF 081100Z 08002MPS 8000 -SHRA SCT009 FEW030TCU BKN033 27/26
 Q1002
 NOSIG=
METAR ZUCK 081100Z 13002MPS 3000 BR FEW033 29/25 Q1002 NOSIG=
METAR ZYCC 081100Z 34003MPS 310V010 9999 SCT009 BKN026 19/18 Q1006
 NOSIG=
METAR ZYHB 081100Z 04003MPS 4000 -RA BR BKN033 19/17 Q1008 NOSIG=
####018000124####
SAAG01 SABM 081100 RRA
METAR SADF 081100Z  00000KT CAVOK 04/02 Q1019=
METAR SAVC 081100Z  23008KT CAVOK 06/M00 Q1000=
####018001726####
SAXN17 KAWN 081100 RRD
METAR MKJS 081100Z 17003KT 9999 FEW024 BKN200 25/22 Q1012=
METAR RJAA 081100Z 16004KT 9999 FEW020 BKN/// 23/21 Q1011 NOSIG=
METAR RJCC 081100Z 21006KT 2500 -DZ BR BKN002 18/16 Q1010=
METAR RJFF 081100Z 30006KT 260V330 6000 FEW025 BKN030 BKN/// 25/21
      Q1009=
METAR RJFK 081100Z 15004KT 9999 FEW030 BKN/// 24/20 Q1010=
METAR RJOO 081100Z 21004KT 160V250 9999 FEW030 BKN/// 27/21 Q1009=
METAR RJTT 081100Z 18016KT 9999 FEW009 SCT014 BKN/// 25/22 Q1010=
METAR RKSO 081055Z COR 09007KT 9999 -DZ FEW010 SCT040 24/24 A2977 RMK
      AO2A RAB1028E1044DZB1044 SLP081 P0000 T02410241 $=
METAR RKSS 081100Z 18005KT 9999 -RA SCT030 OVC110 25/15 Q1008 NOSIG=
METAR ROAH 081100Z 19012KT 9999 SCT012 SCT080 BKN150 29/27 Q1010=
METAR SKBO 081100Z VRB02KT 1200 PRFG BKN010 11/10 A3031 NOSIG=
METAR SKBQ 081100Z 22004KT 2000 BR SCT004 25/25 A2987 RMK APRSM=
METAR SKCG 081100Z VRB02KT 9999 FEW012TCU 26/25 A2886 RMK TC/NNW=
METAR SKCL 081100Z 00000KT 9999 BKN020 BKN080 21/19 A3000=
METAR SKLT 081100Z 00000KT 9999 SCT015 BKN080 24/24 A2988 RMK APCLO=
METAR SVBM 081100Z 09006KT 9999 BKN013 22/22 Q//// REDZ=
METAR TAPA 081100Z 08011KT 9999 FEW020 28/24 Q1015=
METAR TFFR 081100Z VRB02KT 9999 FEW021 28/24 Q1015 NOSIG=
METAR TGPY 081100Z 07008KT 9000 SCT020 SCT280 FEW///CB 28/25 Q1013
      CB-SSE/SSW/HZ=
METAR TKPK 081100Z 06013KT 9999 FEW019 28/24 Q1015=
METAR TTCP 081100Z 08013KT 9000 -SHRA FEW010CB SCT014 BKN038 24/23
      Q1013 NOSIG=
METAR TTPP 081100Z 00000KT 9000 FEW006 FEW010CB BKN036 BKN080 25/24
      Q1011 NOSIG=
METAR TVSV 081100Z 11013KT 9999 SCT021 BKN280 29/24 Q1014=
METAR YBBN 081100Z 19009KT 9999 FEW040 SCT090 17/11 Q1020 NOSIG=
####018001775####
SAEW KAWN 081100 RRG
METAR LFBA 081100Z 09010KT CAVOK 31/17 Q1017 NOSIG=
METAR LFBC 081100Z AUTO 10010KT 030V140 9999NDV NSC 34/12 Q1016=
METAR LFBE 081100Z 07008KT CAVOK 31/19 Q1017 NOSIG=
METAR LFBF 081100Z AUTO 11009KT 080V160 9999NDV // NSC 33/16 Q1018=
METAR LFBG 081100Z AUTO 08006KT 030V130 9999NDV NSC 32/15 Q1017=
METAR LFBM 081100Z AUTO 10010KT 070V140 9999NDV NSC 34/18 Q1016=
METAR LFBY 081100Z 12007KT 070V170 CAVOK 32/20 Q1015=
METAR LFGJ 081100Z AUTO 25005KT 220V330 9999NDV NSC 29/12 Q1020=
METAR LFLD 081100Z 10006KT 030V180 CAVOK 31/11 Q1019=
METAR LFLM 081100Z VRB05KT CAVOK 29/15 Q1020=
METAR LFLN 081100Z AUTO VRB02KT 9999NDV NSC 30/14 Q1020=
METAR LFLQ 081100Z 19006KT 150V260 CAVOK 32/13 Q1020=
METAR LFLV 081100Z VRB02KT CAVOK 30/14 Q1020=
METAR LFMD 081100Z AUTO 16009KT 9999NDV NSC 30/22 Q1020=
METAR LFMH 081100Z 13006KT 090V200 CAVOK 30/12 Q1021 NOSIG=
METAR LFMY 081100Z 20005KT 160V230 CAVOK 32/15 Q1020=
METAR LFOT 081100Z AUTO VRB04KT 9999NDV NSC 30/12 Q1018=
METAR LFOW 081100Z 25004KT 190V300 CAVOK 29/12 Q1019=
METAR LFPM 081100Z VRB02KT CAVOK 30/13 Q1019=
METAR LFPN 081100Z VRB03KT CAVOK 30/10 Q1019 NOSIG=
METAR LFQB 081100Z VRB05KT CAVOK 31/10 Q1018=
METAR LFQG 081100Z 17007KT 120V210 CAVOK 29/15 Q1019=
METAR LFRC 081100Z AUTO 01007KT 310V050 9999NDV NSC 21/16 Q1019=
METAR LFRH 081100Z VRB03KT CAVOK 26/07 Q1018=
METAR LFRI 081100Z 19004KT 120V280 CAVOK 31/11 Q1018 NOSIG=
METAR LFRK 081100Z 36007KT 310V050 CAVOK 24/13 Q1019 NOSIG=
METAR LFRM 081100Z 15004KT 100V210 CAVOK 31/11 Q1018=
METAR LFRQ 081100Z VRB02KT CAVOK 25/12 Q1019 NOSIG=
METAR LFRT 081053Z 06005KT 360V110 9999 FEW020 SCT250 21/16 Q1019=
METAR LFTW 081100Z AUTO 19004KT 090V260 9999NDV NSC 31/14 Q1020=
####018001158####
SABO59 SLLP 081100
METAR SLCO 081100Z 00000KT 9999 SCT080 BKN200 23/22 Q1012=
METAR SLRY 081100Z 00000KT 3000 BR SCT017 FEW023CB BKN200 22/22
Q1012=
METAR SLRQ 081100Z 00000KT 9999 BKN017 FEW020CB 22/22 Q1012=
METAR SLOR 081100Z 00000KT 9999 NSC M07/M09 Q1033=
METAR SLRI 081100Z 00000KT 5000 FU SCT080 24/23 Q1012=
METAR SLJO 081100Z 00000KT 9999 FEW020 SCT080 BKN200 22/21 Q1012=
METAR SLMG 081100Z 03004KT 9999 FEW080 BKN200 23/21 Q1013=
METAR SLSA 081100Z 36004KT 9999 FEW020 FEW023CB BKN200 23/22 Q1011=
METAR SLSU 081100Z 05005KT 9999 SCT010 08/05 Q1028=
METAR SLVM 081100Z 00000KT 9999 FEW020 SCT070 16/15 Q1026=
METAR SLTJ 081100Z 00000KT 9999 FEW030 SCT200 06/04 Q1022=
METAR SLYA 081100Z 00000KT 9999 FEW023 12/10 Q1021=
METAR SLET 081100Z 15012KT 9999 FEW023 SCT070 19/18 Q1015=
METAR SLCP 081100Z 12003KT 9999 BKN017 OVC070 21/20 Q1017=
METAR SLSI 081100Z 00000KT 9999 BKN070 21/19 Q1015=
METAR SLJE 081100Z 19006KT 9999 BKN015 19/17 Q1017=
METAR SLRB 081100Z 00000KT 9999 BKN017 21/18 Q1017=
METAR SLPS 081100Z 00000KT 9999 FEW023 BKN070 24/16 Q1012=
METAR SLCA 081100Z 00000KT 9999 BKN030 15/14 Q1020=
####018000091####
SPUS42 KWBC 081107
SPECI
KTUL 081104Z 00000KT 10SM FEW012 BKN055 BKN080 23/22 A3002=
####018001689####
SAUS73 KWBC 081100
METAR
KABR 081053Z AUTO 23003KT 6SM BR CLR 14/13 A3013=
KALN NIL=
KALO 081054Z AUTO 31006KT 10SM CLR 19/19 A3006=
KAPN 081054Z AUTO 21004KT 9SM OVC100 22/21 A2999=
KASE 081053Z 13010KT 10SM FEW100 10/06 A3037=
KATY 081053Z AUTO 24006KT 10SM CLR 15/13 A3015=
KAXN 081053Z AUTO 24006KT 10SM CLR 15/14 A3012=
KAZO 081053Z 00000KT 2 1/2SM BR CLR 22/21 A3005=
KBDE 081053Z AUTO 00000KT 10SM CLR 14/12 A3001=
KBFF 081053Z AUTO 00000KT 10SM BKN065 OVC090 15/13 A3030=
KBIS 081052Z 00000KT 10SM CLR 11/09 A3014=
KBJC 081057Z AUTO 35006KT 3SM BR BKN001 BKN006 12/12 A3034=
KBKF 081055Z 20006KT 25SM BKN020 BKN040 13/13 A3032=
KBRL 081053Z AUTO 8SM OVC002 22/21 A3005=
KBTL 081053Z 00000KT 7SM CLR 23/21 A3006=
KCGI 081053Z AUTO 00000KT 10SM CLR 24/23 A3004=
KCID 081052Z 32004KT 9SM CLR 20/19 A3005=
KCIU 081055Z AUTO 29005KT 5SM OVC005 19/18 A2997=
KCMI 081053Z COR 18003KT 5SM BR BKN100 23/22 A3004=
KCMI 081053Z 18003KT 5SM BR CLR 23/22 A3004=
KCMX 081053Z AUTO 31004KT 10SM FEW070 OVC085 18/17 A2999=
KCOS 081054Z 16003KT 10SM BKN032 13/11 A3038=
KCOU 081054Z AUTO 06003KT 7SM FEW011 SCT085 22/22 A3004=
KCPR 081053Z 00000KT 8SM CLR 04/03 A3034=
KCYS 081053Z AUTO 16005KT 8SM SCT004 BKN010 OVC014 12/12 A3037=
KDDC 081052Z AUTO 01006KT 5SM BR OVC003 18/17 A3018=
KDEC 081054Z 00000KT 4SM BR SCT075 25/23 A3004=
KDEN 081053Z 26005KT 6SM BR FEW018 BKN025 14/13 A3031=
KDET 081053Z 25003KT 6SM HZ CLR 25/22 A3004=
KDLH 081055Z 29004KT 10SM CLR 15/13 A3005=
KDSM 081054Z 36003KT 10SM FEW180 SCT250 21/18 A3009=
KDTW 081053Z 22003KT 4SM HZ FEW040 SCT150 24/21 A3004=
KEAU 081056Z 00000KT 10SM CLR 18/17 A3004=
####018001663####
SAUS73 KWBC 081100 RRA
METAR
KEGE 081055Z 00000KT 10SM CLR 10/08 A3036=
KELO 081053Z AUTO 21004KT 10SM CLR 13/13 A3002=
KEVV 081054Z 00000KT 9SM CLR 24/22 A3006=
KFAR 081053Z 20003KT 10SM CLR 14/12 A3008=
KFNT 081053Z AUTO 27005KT 8SM FEW055 24/21 A3005=
KFSD 081056Z 00000KT 10SM CLR 15/14 A3016=
KFWA 081054Z 00000KT 7SM CLR 23/20 A3006=
KGCK 081054Z AUTO 03010KT 10SM SCT005 18/16 A3021=
KGFK 081053Z 22005KT 10SM FEW080 14/12 A3004=
KGJT 081053Z AUTO 10007KT 10SM CLR 19/07 A3018=
KGRB 081053Z 00000KT 5SM BR OVC004 22/21 A3000=
KGRI 081053Z AUTO 31005KT 10SM BKN120 16/14 A3021=
KGRR 081053Z 24003KT 2 1/2SM BR SCT120 BKN200 24/22 A3004=
KGYY NIL=
KHIB 081053Z AUTO 00000KT 1/2SM FG CLR 09/08 A3004=
KHON 081055Z AUTO 23003KT 10SM CLR 16/13 A3014=
KHUF 081053Z 00000KT 4SM BR CLR 23/22 A3005=
KHUT 081052Z AUTO 35006KT 6SM BR BKN004 21/21 A3012=
KICT 081053Z 34006KT 10SM BKN080 OVC200 22/21 A3009=
KIKK NIL=
KIND 081054Z 00000KT 7SM FEW075 BKN110 BKN200 25/20 A3004=
KINL 081055Z AUTO 22005KT 10SM FEW090 13/12 A3000=
KIRK 081055Z AUTO 32003KT 9SM CLR 19/19 A3007=
KJAC 081055Z AUTO 03003KT 10SM CLR 06/M02 A3036=
KJLN 081053Z 00000KT 10SM VCTS FEW013 BKN070 OVC095 23/22
     A3006=
KJMS 081056Z AUTO 00000KT 10SM CLR 12/12 A3010=
KJXN 081056Z 00000KT 7SM CLR 22/20 A3006=
KLAN 081053Z 00000KT 5SM BR FEW050 SCT130 SCT150 23/21 A3005=
KLAR 081053Z AUTO 35003KT 7SM BKN020 07/07 A3040=
KLBF 081053Z AUTO 00000KT 10SM SCT085 16/15 A3025=
KLBL 081055Z 04007KT 10SM BKN032 BKN038 19/17 A3022=
KLEX 081054Z 15003KT 2 1/2SM HZ CLR 22/18 A3010=
KLNK 081054Z 35006KT 10SM BKN036 18/17 A3016=
####018001651####
SAUS73 KWBC 081100 RRB
METAR
KLOU 081053Z 00000KT 5SM HZ CLR 25/21 A3007=
KLOZ 081053Z AUTO 00000KT 2 1/2SM BR CLR 20/19 A3011=
KLSE 081053Z 35006KT 7SM FEW011 21/20 A3003=
KMBS 081053Z 26007KT 7SM -RA SCT110 23/22 A3003=
KMCI 081053Z 00000KT 10SM OVC095 22/21 A3006=
KMDW 081051Z 00000KT 4SM -RA BR FEW020 BKN042 BKN130 OVC200 24/22
     A3002=
KMHK 081052Z AUTO 00000KT 6SM BR SCT018 22/21 A3010=
KMKC 081054Z 02003KT 10SM FEW100 22/20 A3004=
KMKE 081052Z 27004KT 6SM -RA BR FEW007 SCT080 OVC110 23/22
     A3001=
KMKG 081055Z 00000KT 4SM BR FEW075 BKN100 23/22 A3002=
KMLI 081052Z 23005KT 10SM OVC007 23/22 A3003=
KMOT 081054Z AUTO 23005KT 10SM BKN090 14/11 A3009=
KMSN 081053Z 00000KT 9SM FEW006 OVC015 21/20 A3002=
KMSP 081053Z 31003KT 10SM FEW090 18/16 A3009=
KOFF 081055Z AUTO 36003KT 10SM CLR 20/20 A3013=
KOMA 081052Z 34005KT 10SM FEW029 SCT250 19/18 A3014=
KORD 081051Z 18003KT 9SM -RA FEW025 SCT060 BKN075 OVC150 23/22
     A3002=
KOSH 081053Z 00000KT 9SM FEW014 22/20 A2999=
KOTM 081053Z AUTO 33003KT 7SM CLR 20/19 A3006=
KOWB 081056Z 15003KT 10SM FEW090 25/23 A3006=
KPAH 081053Z AUTO 00000KT 10SM CLR 24/22 A3005=
KPIA 081052Z 20003KT 1 3/4SM BR SCT005 OVC010 23/22 A3003=
KPIR 081053Z AUTO 23006KT 10SM CLR 14/12 A3017=
KPLN 081054Z AUTO 00000KT 9SM -RA OVC100 22/21 A2997=
KPTK 081053Z 25003KT 8SM FEW140 SCT250 24/22 A3004=
KPUB 081053Z AUTO 27003KT 10SM OVC065 14/13 A3032=
KRAP 081052Z AUTO 30008KT 10SM CLR 11/08 A3025=
KRFD 081054Z 27005KT 6SM BR OVC006 22/21 A3004=
KRKS 081054Z AUTO 11006KT 10SM BKN120 08/06 A3034=
KRST 081054Z 31005KT 7SM CLR 17/17 A3011=
####018001078####
SAAE31 VTBB 081100
METAR VTBS 081100Z 17004KT 090V170 9999 FEW020 SCT035 BKN300 29/23 
           Q1006 NOSIG=
METAR VTBD 081100Z 14006KT 9999 FEW020 SCT120 BKN300 31/23 Q1006
           NOSIG=
METAR VTCC 081100Z 21007KT 9999 FEW025CB SCT035 BKN300 34/21 Q1007
           A2974 CB N,NE,S,W=
METAR VTBU 081100Z 11002KT 9999 FEW020 BKN300 34/25 Q1006 A2973=
METAR VTSS 081100Z NIL=
METAR VTSP 081100Z 29009KT 9000 FEW020 SCT120 BKN300 29/24 Q1009
           A2980=
METAR VLVT 081100Z 27002KT 9999 FEW016 FEW050 32/24 Q1004=
METAR VYYY 081100Z 32005KT 8000 SCT018 FEW020CB SCT110 32/25 Q1006=
METAR VVTS 081100Z VRB01KT 9999 FEW015CB SCT017 29/23 Q1007 NOSIG=
METAR VVNB 081100Z NIL=
METAR VDPP 081100Z 25009KT 9999 SCT015 FEW017CB SCT040 31/22 Q1006
           CB:NE NW=
METAR VVDN 081100Z 25004KT 190V290 9999 FEW017CB SCT300 27/20 Q1006
           NOSIG=
METAR VYMD 081100Z NIL=
METAR VDSR 081100Z 18007KT 9999 SCT017 FEW020CB SCT040 32/23 Q1005
           CB:SE,NE=
METAR VVPB 081100Z 25011KT 9999 SCT020 BKN300 30/20 Q1006 NOSIG=
####018000388####
SAPO31 LPMG 081100
METAR LPFR 081100Z 26008KT 220V290 9999 SCT010 BKN012 23/20 Q1016=
METAR LPMA 081100Z 22006KT 170V250 9999 FEW016 24/18 Q1020 RS15005KT 
0520007KT 2326005KT=
METAR LPPR 081100Z 21009KT 170V260 4000 BR FEW002 BKN004 21/18 Q1015=
METAR LPPS 081100Z 03011KT 350V060 9999 FEW016 SCT030 22/15 Q1021=
METAR LPPT 081100Z 26007KT 220V290 CAVOK 27/19 Q1015 NOSIG=
####018000931####
SAUS73 KWBC 081100 RRC
METAR
KSAW 081050Z 00000KT 1 1/4SM BR BKN001 18/17 A2998=
KSBN 081054Z 00000KT 6SM BR CLR 23/21 A3004=
KSDF 081056Z 12003KT 5SM HZ SCT120 25/21 A3006=
KSDM 081053Z AUTO 25003KT 10SM OVC012 16/14 A2989=
KSGF 081052Z 00000KT 8SM FEW055 23/22 A3006=
KSLN 081053Z AUTO 36005KT 5SM BR OVC006 21/19 A3012=
KSPI 081052Z 00000KT 7SM -RA FEW008 SCT025 BKN045 23/23 A3004=
KSTC 081053Z AUTO 00000KT 4SM BR CLR 13/12 A3009=
KSTJ 081053Z AUTO 34009KT 7SM BKN005 23/21 A3006=
KSTL 081051Z 23003KT 10SM FEW012 BKN044 BKN080 BKN250 26/23
     A3005=
KSTP 081053Z 32005KT 10SM CLR 18/16 A3009=
KSUS 081054Z 00000KT 10SM BKN047 OVC060 24/23 A3003=
KSUX 081052Z 31004KT 6SM BR CLR 16/15 A3016=
KTVC 081053Z 23004KT 10SM OVC090 23/20 A2998=
KUIN 081054Z AUTO 00000KT 2SM BR OVC001 23/22 A3004=
KWRL 081053Z AUTO 16009KT 10SM CLR 12/04 A3027=
KYIP 081053Z 00000KT 6SM BR CLR 23/21 A3005=
####018000088####
SPUS53 KWBC 081107
SPECI
KCNU 081104Z AUTO 02004KT 1 3/4SM BR OVC003 22/21 A3006=
####018001692####
SAUS74 KWBC 081100
METAR
KACV 081053Z AUTO 00000KT 4SM BR OVC001 10/09 A2996=
KALW 081053Z AUTO 14003KT 10SM CLR 17/08 A2998=
KBFI 081053Z 00000KT 10SM CLR 20/12 A2994=
KBFL 081054Z AUTO 33004KT 10SM CLR 21/11 A2983=
KBIL 081053Z 24009KT 10SM FEW120 12/06 A3024=
KBKE 081053Z AUTO 00000KT 10SM CLR 05/05 A3011=
KBLI 081053Z AUTO 00000KT 10SM CLR 15/13 A2997=
KBOI 081053Z 12005KT 10SM CLR 19/06 A3005=
KBTM 081053Z AUTO 12005KT 10SM CLR 05/01 A3032=
KBUR 081053Z 00000KT 7SM OVC007 16/13 A2989=
KBYI 081053Z AUTO 05003KT 10SM CLR 10/04 A3013=
KBZN 081056Z AUTO 00000KT 10SM CLR 10/04 A3028=
KCDC 081053Z AUTO 00000KT 10SM CLR 12/02 A3015=
KCEC 081056Z AUTO 23003KT 2SM BR OVC003 10/09 A2998=
KCLM 081053Z AUTO A2997=
KCTB 081056Z AUTO 32004KT 10SM CLR 08/05 A3024=
KCXL NIL=
KEKO 081056Z AUTO 00000KT 10SM CLR 11/M01 A3012=
KEUG 081054Z 19006KT 10SM CLR 13/10 A2993=
KFAT 081053Z 33004KT 10SM CLR 21/08 A2982=
KFLG 081056Z AUTO 00000KT 10SM FEW070 10/01 A3026=
KGCN 081054Z AUTO 00000KT 10SM CLR 08/M03 A3023=
KGEG 081053Z 07004KT 10SM CLR 17/08 A3007=
KGGW 081053Z AUTO 34003KT 10SM CLR 11/09 A3014=
KGTF 081053Z 21004KT 10SM CLR 08/05 A3023=
KHLN 081053Z AUTO 00000KT 10SM CLR 11/04 A3025=
KHQM 081053Z AUTO 26008KT 10SM 14/13 A2994=
KIDA 081053Z AUTO 35006KT 10SM CLR 08/05 A3020=
KIWA 081059Z AUTO 00000KT 10SM CLR 31/02 A2980=
KLAS 081056Z 22008KT 10SM FEW160 28/M04 A2981=
KLAX 081053Z 24003KT 10SM OVC012 16/12 A2990=
KLGB 081053Z 31004KT 10SM OVC015 17/13 A2989=
KLMT 081053Z AUTO 35004KT 10SM FEW090 17/11 A3005=
KLVM 081053Z AUTO 31005KT 10SM CLR 04/02 A3029=
KMFR 081053Z AUTO 20003KT 10SM CLR 23/12 A2989=
####018000099####
SAUK39 EGRR 081050 RRH
METAR EGXT 081050Z 23012KT 9999 FEW025 SCT012 BKN250 20/07 Q1018
BLU=
####018000234####
SAGG31 UGTB 081100
METAR UGKO 081100Z 27004KT 9999 SCT050CB SCT100 31/23 Q1010 NOSIG=
METAR UGSB 081100Z 33006KT 9999 SCT020CB SCT070 28/22 Q1010 NOSIG=
METAR UGTB 081102Z 12009KT 9999 SCT066 34/16 Q1013 NOSIG RMK
31CLRD80=
####018000775####
SAUR30 UKMS 081100
METAR UKBB 081100Z 31004MPS 270V360 9999 FEW030
         BKN040 25/18 Q1014    88CLRD95 NOSIG=
METAR UKHH NIL=
METAR UKOO 081100Z 33003MPS 300V020 CAVOK 27/15 Q1014
          34090070 NOSIG=
METAR UKDE 081100Z 25002MPS 190V320 9999 SCT050 29/17
          Q1014 20CLRD70 NOSIG=
METAR UKDD 081100Z VRB02MPS 9999 SCT033CB BKN200
         29/18  Q1014 08090070 TEMPO VRB10G15MPS -TSRA
         SQ BKN020CB=
METAR UKFF 081100Z 03003MPS 350V060 CAVOK 28/16 Q1013
          01010070 NOSIG=
METAR UKLL 081100Z 33004MPS 250V030 CAVOK 19/11 Q1021
          31210365 NOSIG=
METAR UKCC 081100Z VRB02MPS CAVOK 30/16 Q1014
         08090070 NOSIG=
METAR UKDR 081100Z 00000MPS 9999 BKN033 OVC200 29/18
         Q1013 1809//70 NOSIG=
####018000069####
SAYE20 OYAT 081100
METAR OYAT 081100Z 36012KT CAVOK 40/10 Q0999=
####018000149####
SAOM32 OOMS 081100
METAR OOMS 081100Z 05004KT 010V080 6000 -DZ SCT025
BKN120 33/28 Q1001 NOSIG=
METAR OOSA 081050Z AUTO 17008KT 28/23 Q1002=
####018000399####
SAMG20 FMMI 081100
METAR 081100Z
METAR FMNA 081100Z 12023KT 9999 SCT020 BKN040 28/17 Q1016=
METAR FMNM 081100Z ///10KT CAVOK 30/13 Q1013=
METAR FMMI 081100Z 11010KT 080V150 9999 BKN020 19/12 Q1025 NOSIG=
METAR FMMT 081100Z 22014KT 9999 SCT017 25/21 Q1021=
METAR FMSD 081100Z 06012KT 5000 RA SCT017 BKN033 19/18 Q1025=
METAR FMCH 081100Z 24015KT 9999 FEW025 SCT030 28/21 Q1018 NOSIG=
####018001120####
SAIY41 LIIB 081100
METAR LIMH 081055Z 06011KT CAVOK 05/M07 Q1039 RMK FEW FEW100 MON LIB
      VAL S CLD SCT VIS MIN 9999=
METAR LIMT 081100Z NIL=
METAR LIMU 081055Z 05010KT 9999 FEW028 29/21 Q1020 RMK BKN SCT070 QUK
      2 QUL 1 E VIS MAR 15 KM VIS MIN 9999=
METAR LIMV 081055Z 36008KT 6000 FEW012 23/18 Q1023 RMK SCT SCT080 MON
      LIB NC VAL FOSCHIA VIS MIN 6000=
METAR LIMY 081055Z /////KT 7000 SCT026 SCT036 21/17 Q1023 RMK BKN VAL
      FOSCHIA VIS MIN 7000=
METAR LIVD 081055Z 00000KT CAVOK 21/12 Q1024 RMK SKC VIS MIN 9999=
METAR LIVE 081055Z 18008KT CAVOK 20/10 Q1024 RMK SKC VIS MIN 9999=
METAR LIVF 081055Z 03003KT CAVOK 27/08 Q1022 RMK FEW FEW220 MON LIB
      VAL NIL VIS MIN 9999=
METAR LIVM 081055Z 14009KT CAVOK 27/20 Q1021 RMK SKC QUK 2 QUL 1 SE
      VIS MAR 30 KM VIS MIN 9999=
METAR LIVO 081055Z 17003KT 9999 FEW040 23/13 Q1022 RMK FEW VIS MIN
      9999=
METAR LIVR 081055Z /////KT 9999 FEW025 15/11 Q1028 RMK FEW MON CLD
      CIME VIS MIN 9999=
METAR LIVT 081055Z 28001KT CAVOK 24/17 Q1022 RMK SCT SCT070 QUK 1 QUL
      0 VIS MAR 20 KM VIS MIN 9999=
####018001896####
SAIY40 LIIB 081100
METAR LIMG 081050Z 07008KT 9999 SCT080 30/24 Q1021 RMK VIS MIN 9999=
METAR LIMK 081055Z 34003KT 9999 BKN025 20/13 Q1023 RMK BKN VAL NIL
      VIS MIN 9999=
METAR LIMN 081055Z /////KT 9999 FEW030 27/15 Q1021 RMK FEW VIS MIN
      9999 BLU=
METAR LIMP 081050Z 06004KT 330V120 CAVOK 28/14 Q1022 RMK VIS MIN
9999=
METAR LIMS 081055Z 12009KT 060V150 CAVOK 28/15 Q1021 RMK SKC VIS MIN
      9999 WIND THR30 10006KT BLU=
METAR LIMZ 081050Z 35005KT 8000 FEW025 BKN045 25/17 Q1024 RMK VIS
MIN 8000=
METAR LIPA 081055Z 21008KT 9999 FEW060 25/18 Q1022 RMK FEW VIS MIN
      9999 A3019 BLU=
METAR LIPB 081050Z 17011KT CAVOK 28/12 Q1021 RMK MON LIB VIS MIN
9999=
METAR LIPC 081055Z 11010KT CAVOK 28/14 Q1022 RMK FEW FEW200 VIS MIN
      9999 WIND THR12 11009KT BLU=
METAR LIPF 081055Z 27002KT 9999 FEW050 27/19 Q1021 RMK FEW VIS MIN
      9999=
METAR LIPH 081045Z 16004KT 9999 SCT025 27/20 Q1023 RMK SCT VIS MIN
      9999 WIND THR07 /////KT BLU=
METAR LIPI 081055Z 20005KT 9999 FEW030 26/19 Q1021 RMK FEW VIS MIN
     9999 WIND THR06 18004KT BLU=
METAR LIPL 081055Z 14004KT 9999 FEW035 27/18 Q1022 RMK SCT VIS MIN
      9999 BLU=
METAR LIPO 081050Z 20004KT 100V230 9999 FEW065 28/14 Q1021 RMK VIS
MIN 9999=
METAR LIPQ 081050Z VRB03KT CAVOK 26/15 Q1022=
METAR LIPR 081045Z 08011KT CAVOK 28/17 Q1021 RMK SKC VIS MIN 9999
      WIND THR31 09011KT BLU=
METAR LIPS 081055Z 20003KT 9999 FEW025 29/18 Q1022 RMK FEW VIS MIN
     9999 BLU=
METAR LIPX 081045Z 12003KT 9999 FEW040 29/13 Q1021 RMK FEW VIS MIN
      9999 BLU=
METAR LIPY 081050Z 06008KT 010V090 CAVOK 27/14 Q1021 RMK VIS MIN
9999=
METAR LIVC 081055Z 00000KT 9999 SCT000 14/11 Q1030 RMK SCT MON CLD
      CIME CUF VAL CLD SCT ELEV VIS MIN 9999=
METAR COR LIVP 081055Z VRB02KT 9999 BKN010 13/10 Q1029 RMK BKN MON W
      CIME INC VAL NE LIB VIS MIN 9999=
####018001871####
SAIY42 LIIB 081100
METAR LIBF 081050Z 33018KT CAVOK 28/07 Q1020 RMK VIS MIN 9999=
METAR LIEA 081050Z VRB03KT CAVOK 32/21 Q1019 RMK VIS MIN 9999=
METAR LIED 081055Z 15012KT 9999 33/18 Q1018 RMK FEW VIS MIN 9999 BLU=
METAR LIEO 081050Z 04011KT 9999 FEW030 30/20 Q1020 RMK VIS MIN
9999=
METAR LIMA 081050Z VRB03KT 9999 SCT040 25/16 Q1023 RMK VIS MIN 9999=
METAR LIQN 081050Z 36005KT CAVOK 27/17 Q1021 RMK VIS MIN 9999=
METAR LIQO 081055Z 00000KT 9999 FEW003 25/20 Q1021 RMK FEW VAL NIL NC
      VIS MIN 9999=
METAR LIQW 081055Z 19003KT 9999 FEW030 29/18 Q1020 RMK FEW VIS MIN
      9999 BLU=
METAR LIRE 081055Z 23010KT 9999 FEW020 28/20 Q1019 RMK FEW VIS MIN
      9999 WIND THR31 22010KT BLU=
METAR LIRG 081055Z 27007KT 9999 SCT033 31/18 Q1019 RMK SCT MON NE
     LIB NC VIS MIN 9999 BLU=
METAR LIRH 081055Z 36005KT 9999 SCT035 29/19 Q1020 RMK SCT MON LIB NC
      VIS MIN 9999 WIND THR16 24006KT BLU=
METAR LIRI 081050Z 02011KT CAVOK 29/11 Q1019 RMK VIS MIN 9999=
METAR LIRK 081055Z 13010KT CAVOK 16/14 Q1027 RMK SCT SCT060 MON NE
      LIB NC VAL NIL NC VIS MIN 9999=
METAR LIRL 081055Z 24008KT 9999 FEW020 FEW025TCU 30/18 Q1018 RMK SCT
      MON LIB NC VIS MIN 9999 BLU=
METAR LIRM 081055Z 08008KT CAVOK 29/15 Q1019 RMK SKC VIS MIN 9999
      WIND THR06 06007KT BLU=
METAR LIRS 081055Z 21010KT 9999 FEW040 31/14 Q1019 RMK SCT SCT200 VIS
      MIN 9999 WIND THR21 /////KT BLU=
METAR LIRT 081055Z 01009KT 9999 FEW015 17/07 Q1023 RMK FEW MON LIB
      VAL NIL VIS MIN 9999=
METAR LIRU 081050Z 25003KT 9999 SCT040 30/19 Q1021 RMK VIS MIN 9999=
METAR LIRV 081055Z 25005KT 9999 FEW028 29/18 Q1021 RMK FEW MON E SE
      LIB NC VIS MIN 9999 BLU=
METAR LIRX 081055Z 16004KT CAVOK 28/11 Q1020 RMK SKC VIS MIN 9999E
      VIS MAR 25 KM=
METAR LIRZ 081050Z 01007KT 330V060 CAVOK 30/11 Q1021 RMK VIS MIN
9999=
####018001683####
SAUS74 KWBC 081100 RRA
METAR
KMLS 081053Z AUTO 15005KT 10SM CLR 12/10 A3019=
KMRY 081054Z AUTO 00000KT 10SM OVC008 13/10 A2992=
KMSO 081053Z AUTO 00000KT 10SM CLR 11/06 A3020=
KMYV 081053Z AUTO 15005KT 10SM CLR 16/11 A2983=
KNTD 081056Z AUTO 28006KT 9SM OVC011 15/13 A2989=
KOAK 081053Z 29008KT 10SM OVC007 15/11 A2993=
KOGD 081053Z 18005KT 10SM CLR 17/07 A3010=
KOLM 081054Z AUTO 00000KT 10SM CLR 12/11 A2995=
KONT 081053Z 21004KT 5SM BR OVC010 15/13 A2989=
KOTH 081055Z 00000KT 10SM OVC008 10/08 A3000=
KPAE 081053Z AUTO 00000KT 10SM CLR 19/12 A2997=
KPDX 081053Z 00000KT 10SM CLR 18/15 A2989=
KPHX 081051Z 00000KT 10SM FEW170 31/02 A2976=
KPIH 081053Z AUTO 30003KT 10SM CLR 08/02 A3017=
KPMD 081053Z AUTO 20006KT 10SM CLR 17/02 A2990=
KPRB 081053Z AUTO 27003KT 10SM OVC007 12/11 A2990=
KPRC 081053Z AUTO 21006KT 10SM CLR 18/00 A3009=
KPSP 081053Z 15003KT 10SM CLR 23/12 A2973=
KRBL 081054Z AUTO 00000KT 10SM CLR 23/18 A2983=
KRDD 081053Z AUTO 00000KT 10SM CLR 22/15 A2982=
KRDM 081056Z AUTO 00000KT 10SM CLR 11/03 A3006=
KRNO 081055Z 00000KT 10SM FEW150 21/04 A3004=
KRNT 081053Z AUTO 00000KT 10SM CLR 16/14 A2994=
KSAC 081053Z 18006KT 10SM CLR 14/10 A2984=
KSAN 081051Z 31005KT 10SM SCT014 OVC017 17/13 A2991=
KSBA 081053Z 21004KT 10SM OVC013 14/12 A2990=
KSBD NIL=
KSBP 081056Z AUTO 30005KT 10SM OVC007 13/12 A2991=
KSCK 081055Z AUTO 02003KT 10SM CLR 13/11 A2984=
KSEA 081053Z 01008KT 10SM CLR 21/11 A2996=
KSFF 081053Z AUTO 00000KT 10SM CLR 13/11 A3006=
KSFO 081056Z 26010KT 10SM BKN008 OVC013 13/11 A2992=
KSHR 081053Z AUTO 00000KT 10SM CLR 07/04 A3026=
KSJC 081053Z AUTO VRB03KT 9SM OVC013 15/12 A2991=
####018000587####
SAUS74 KWBC 081100 RRB
METAR
KSLC 081053Z 16007KT 10SM FEW130 18/07 A3009=
KSMF 081053Z 18008KT 10SM CLR 14/11 A2982=
KSMX 081051Z AUTO 00000KT 8SM OVC007 12/11 A2992=
KSNA 081053Z 00000KT 8SM OVC015 18/12 A2989=
KSNS 081053Z AUTO 28005KT 9SM OVC009 13/11 A2991=
KTIW 081053Z AUTO 04004KT 10SM FEW090 21/11 A2995=
KTUS 081053Z 00000KT 10SM CLR 29/05 A2990=
KTVL 081053Z AUTO 20003KT 10SM CLR 09/06 A3015=
KTWF 081053Z AUTO 12008KT 10SM CLR 10/01 A3012=
KUKI 081056Z AUTO 00000KT 10SM CLR 12/10 A2990=
KYKM 081053Z AUTO 26003KT 10SM CLR 12/07 A3002=
KYUM NIL=
####018000091####
SPUS72 KWBC 081107
SPECI
KTUL 081104Z 00000KT 10SM FEW012 BKN055 BKN080 23/22 A3002=
####018000042####
SACN40 CWAO 081100
METAR CYWH NIL=

####018000105####
SACN31 CWAO 081100 CCA
METAR CYTR 081100Z CCA 00000KT 5SM HZ FEW100 24/20 A3003 RMK AC1
SLP167=

####018002263####
SACN31 CWAO 081100
METAR CYAW NIL=
METAR CYBG 081100Z 05007KT 3SM BR BKN080 20/18 A2999 RMK AC6 AC
FLOCUS SLP154=
METAR CYCH NIL=
METAR CYEG 081100Z 20005KT 15SM FEW120 BKN240 11/10 A3009 RMK AC1CI6
SLP193=
METAR CYFB 081100Z 21003KT 30SM FEW250 10/05 A2979 RMK CI2 SLP090=
METAR CYFC 081100Z AUTO 21007KT 9SM FEW076 21/18 A3008 RMK SLP186
 DENSITY ALT 600FT RVR MISG=
METAR CYGL 081100Z 17007KT 15SM -SHRA FEW030 BKN055 OVC110 19/14
A2991 RMK SC1SC5AS2 SLP132=
METAR CYHZ 081100Z 23005KT 7SM FEW005 FEW160 SCT250 20/18 A3016 RMK
SF2AC1CI0 SLP214=
METAR CYJT 081100Z 07004KT 15SM SCT030 OVC080 19/15 A3008 RMK SC3AC5
SLP186=
METAR CYMX 081100Z 23002KT 5SM PRFG FEW080 24/19 A3001 RMK FG1AC1
VSBY LWR E SLP163=
METAR CYOW 081100Z 24002KT 15SM FEW070 24/21 A3002 RMK AC1 SLP164=
METAR CYQB 081100Z 07005KT 5SM BR OVC005 19/17 A3002 RMK ST8 SLP164=
METAR CYQG 081100Z 23004KT 10SM FEW080 25/21 A3004 RMK AC2 SLP168=
METAR CYQM 081100Z 23009KT 12SM FEW012 SCT250 21/19 A3007 RMK CF1CI1
SLP182=
METAR CYQQ 081100Z 00000KT 20SM SKC 18/12 A2999 RMK SLP154=
METAR CYQX 081100Z 18008KT 20SM FEW005 BKN055 BKN100 15/13 A3015 RMK
SF2SC3AC2 SLP212=
METAR CYQY 081100Z 23006KT 15SM BKN150 21/17 A3012 RMK AC6 SLP199=
METAR CYTR 081100Z 00000KT 15SM FEW100 24/20 A3003 RMK AC1 SLP167=
METAR CYUL NIL=
METAR CYVR 081100Z 00000KT 30SM SKC 19/11 A2998 RMK SLP151=
METAR CYWG 081100Z 28005KT 15SM FEW090 12/12 A3000 RMK AC1 SLP162=
METAR CYXX 081100Z 04003KT 15SM SKC 17/13 A2998 RMK SLP152=
METAR CYYC 081100Z 20005KT 15SM SCT110 BKN250 13/09 A3019 RMK AC3CI1
SLP218=
METAR CYYJ 081100Z 26006KT 30SM SKC 15/11 A2997 RMK SLP150=
METAR CYYQ 081100Z 27008KT 15SM FEW070 11/10 A2966 RMK AC1 SLP043=
METAR CYYR 081100Z 18010KT 15SM BKN020 16/13 A2995 RMK SC6 SLP144=
METAR CYYT 081100Z 17005KT 15SM SCT006 OVC019 10/09 A3024 RMK SF4SC4
VIS LWR S SLP246=
METAR CYYZ 081100Z 10002KT 15SM FEW040TCU FEW100 26/23 A3003 RMK
TCU1AC1 TCU TR SLP167=
METAR CYZF 081100Z 00000KT 15SM SCT080 BKN110 BKN210 15/10 A2994 RMK
AC3AC2CI0 SLP144=
METAR CYZV 081100Z 07005KT 6SM BR OVC003 13/13 A3006 RMK ST8 SLP180=
METAR CYZX 081100Z 22005KT 8SM BKN010 20/18 A3015 RMK SF6 WNDY HILL
21005KT CIG RAG SLP209=

####018001061####
SACN41 CWAO 081100
METAR CBBC 081100Z AUTO 00000KT 9SM CLR 14/12 A3001 RMK SLP161=
METAR CYBD NIL=
METAR CYCD NIL=
METAR CYCG NIL=
METAR CYDA NIL=
METAR CYGE NIL=
METAR CYKA 081100Z 13002KT 40SM SKC 15/10 A3009 RMK SLP187=
METAR CYLW 081100Z AUTO 00000KT 9SM CLR 13/07 A3008 RMK SLP188=
METAR CYMA 081100Z 00000KT 20SM FEW050 10/08 A3008 RMK SC1 SLP198=
METAR CYOC NIL=
METAR CYPW NIL=
METAR CYQH 081100Z 00000KT 30SM FEW030 09/08 A3012 RMK SC1 SLP205=
METAR CYQU 081100Z 12006KT 25SM FEW100 BKN250 14/09 A3007 RMK AC1CI0
SLP183=
METAR CYSD NIL=
METAR CYWL 081100Z 00000KT 15SM FEW240 13/07 A3014 RMK CI1 SLP198=
METAR CYXJ NIL=
METAR CYXT 081100Z 36005KT 20SM FEW250 18/11 A3007 RMK CI1 SLP183=
METAR CYXY 081100Z 00000KT 40SM FEW120 08/04 A3015 RMK AC1 SLP221=
METAR CYYD 081100Z AUTO 00000KT 9SM CLR 11/09 A3010=
METAR CYYE NIL=
METAR CYYF 081100Z 00000KT 15SM SKC 13/08 A3008 RMK SLP182=
METAR CYZW NIL=
METAR CYZY 081100Z AUTO 00000KT 9SM CLR 11/08 A3009 RMK SLP191=
METAR CZFA NIL=
METAR CZMT NIL=

####018001364####
SACN42 CWAO 081100
METAR CYAZ NIL=
METAR CYBL NIL=
METAR CYBV NIL=
METAR CYCP NIL=
METAR CYCQ NIL=
METAR CYDB 081100Z AUTO 00000KT 9SM CLR 04/01 A3011 RMK SLP216=
METAR CYDC NIL=
METAR CYDQ 081100Z AUTO VRB02KT 9SM CLR 10/07 A3009 RMK SLP201=
METAR CYEV 081100Z 32007KT 15SM BKN019 07/03 A3006 RMK SC6 SLP184=
METAR CYFO NIL=
METAR CYHE 081100Z AUTO 08006KT 9SM CLR 18/12 A3002 RMK SLP166=
METAR CYIV 081100Z 31004KT 15SM FEW005 FEW025 FEW035 BKN045 OVC080
15/14 A2982 RETS RMK SF1SC1SC1SC5AC1 FG SLP104=
METAR CYKY 081100Z 24002KT 12SM FEW100 SCT250 10/10 A3014 RMK AC1CI1
FG SLP209=
METAR CYMD NIL=
METAR CYPR 081100Z AUTO 18005KT 9SM CLR 13/12 A3005 RMK SLP178=
METAR CYPS NIL=
METAR CYQD 081100Z 27009KT 15SM FEW040 FEW070 12/10 A2995 RMK SC1AC1
TRAC SLP149=
METAR CYQZ 081100Z AUTO 00000KT 9SM CLR 10/09 A3009 RMK SLP201=
METAR CYRV 081100Z AUTO 00000KT 6SM CLR 12/10 A3014 RMK SLP205=
METAR CYSE NIL=
METAR CYUA 081100Z AUTO 27008KT 9SM BKN007 05/ A3008 RMK SLP189=
METAR CYXC NIL=
METAR CYXE 081100Z 24006KT 15SM FEW090 FEW250 11/10 A3009 RMK AC1CI0
SLP199=
METAR CYXQ NIL=
METAR CYXS 081100Z AUTO 00000KT 9SM CLR 08/06 A3009 RMK SLP204=
METAR CYZP 081100Z AUTO 26014KT 9SM CLR 16/12 A3008 RMK SLP186 MAX
 WND 26017KT AT 1058Z=
METAR CYZT 081100Z 00000KT 15SM SKC 11/10 A3003 RMK SLP169=

####018000078####
SAMZ40 FQMA 081100
METAR FQIN 081100Z 17012KT 9999 BKN020 25/17 Q1028=

####018000984####
SAUS75 KWBC 081100
METAR
PABR 081053Z 25017G22KT 10SM BKN200 06/03 A2998=
PABT 081053Z 34004KT 10SM SCT120 11/09 A3007=
PACV NIL=
PADL 081056Z 32006KT 10SM FEW043 OVC050 10/08 A2998=
PADU 081058Z AUTO 12014G20KT 10SM OVC020 09/05 A2981=
PAEN 081053Z AUTO 02012KT 10SM FEW080 14/11 A2994=
PAGA 081058Z AUTO 01005KT 10SM CLR 13/07 A3007=
PAGK 081053Z AUTO 00000KT 10SM CLR 07/06 A3007=
PAGY 081053Z AUTO 06003KT 10SM CLR 11/09 A3020=
PAIL 081053Z AUTO 03008KT 10SM FEW095 10/08 A2992=
PAKN 081054Z 34004KT 10SM OVC065 10/09 A2991=
PAKT 081053Z AUTO 32006KT 10SM CLR 17/12 A3008=
PASC 081053Z 25011KT 10SM BKN024 BKN080 OVC210 11/07 A3002=
PASI 081053Z 24003KT 10SM BKN002 13/12 A3018=
PATA 081052Z AUTO 00000KT 10SM CLR 12/06 A3005=
PAUN 081056Z AUTO 11004KT 10SM CLR 12/04 A3002=
PAVD 081056Z 00000KT 10SM OVC080 11/08 A3009=
PHJH NIL=
PHMK 081054Z AUTO 03006G15KT 10SM BKN039 22/19 A3004=
PMDY 081056Z AUTO 00000KT 10SM FEW029 25/20 A3011=
####018000083####
SAPK31 OPST 081050
METAR OPST 081100Z 18004KT 6000 HZ FEW040 39/20 Q1003 RH35=
####018000405####
SAME31 OLBA 081100
METAR OLBA 081100Z 24008KT 210V290 8000 FEW080 29/20 Q1011
     NOSIG=
METAR OSDI 081100Z 20016KT CAVOK 38/01 Q1009=
METAR OSAP 081100Z 29017KT CAVOK 33/17 Q1006=
METAR OSLK 081100Z 23012KT 9999 SCT030 28/20 Q1009=
METAR OJAI 081100Z 28009KT CAVOK 32/02 Q1012 NOSIG=
METAR OJAM 081100Z 23006KT 6000 NSC 32/01 Q1012 NOSIG=
METAR OJAQ 081100Z 36021KT CAVOK 38/25 Q1006=
####018000073####
SAJD31 OJAI 081100 RRA
METAR OJAQ 081100Z 36021KT CAVOK 38/25 Q1006=
####018000081####
SADO31 TDPD 081100
METAR TDPD 081100Z 10006KT 9999 -SHRA SCT016 28/24 Q1015=
####018000088####
SAMR20 TFFF 081100
METAR TFFF 081105Z 08011KT 9999 FEW020 SCT026 29/24 Q1014 NOSIG=
####018000088####
SASC20 FSIA 081100
METAR FSIA 081103Z 14008KT 9999 FEW018 BKN240 28/22 Q1011 NOSIG=
####018000107####
SAGD31 TGPY 081100
METAR TGPY 081100Z 07008KT 9000 SCT020 SCT280 FEW///CB 28/25 Q1013
CB-SSE,SSW/HZ=
####018000087####
SANL33 EHDB 081055 RRB
METAR EHSC 081055Z AUTO 26006G06KT 9999 17/15 Q1020 W///S2=
####018000387####
SAPO31 LPMG 081100
METAR LPFR 081100Z 26008KT 220V290 9999 SCT010 BKN012 23/20 Q1016=
METAR LPMA 081100Z 22006KT 170V250 9999 FEW016 24/18 Q1020 RS15005KT
0520007KT 2326005KT=
METAR LPPR 081100Z 21009KT 170V260 4000 BR FEW002 BKN004 21/18 Q1015=
METAR LPPS 081100Z 03011KT 350V060 9999 FEW016 SCT030 22/15 Q1021=
METAR LPPT 081100Z 26007KT 220V290 CAVOK 27/19 Q1015 NOSIG=
####018000087####
SANL33 EHDB 081055 RRA
METAR EHJR 081055Z AUTO 28013G13KT //// 16/15 Q1019 W15/S3=
####018000078####
SAMT20 GQPP 081100
METAR GQPP 081100Z 02003KT 8000 NSC 27/19 Q1012 NOSIG=
####018000073####
SAJD20 OJAM 081100 RRA
METAR OJAQ 081100Z 36021KT CAVOK 38/25 Q1006=
####018000087####
SANL33 EHDB 081055 RRC
METAR EHSA 081055Z AUTO 21006G07KT 9999 16/15 Q1019 W16/S2=
####018000096####
SAMR20 TFFF 081100 CCA
METAR COR TFFF 081106Z 08010KT 9999 FEW020 SCT026 29/24 Q1014 NOSIG=
####018000085####
SPUS81 KWBC 081107
SPECI
KABH 081105Z AUTO 27008KT 3/4SM BR VV001 12/12 A3036=
####018000088####
SPUS81 KWBC 081107
SPECI
KCNU 081104Z AUTO 02004KT 1 3/4SM BR OVC003 22/21 A3006=
####018002294####
SACN46 CWAO 081100
METAR CYBC 081100Z AUTO 07002KT 1 3/4SM OVC000 13/13 A3003 RMK
SLP171=
METAR CYBN 081100Z AUTO 00000KT 7SM CLR 23/20 A3003 RMK OBS TAKEN +1
SLP165=
METAR CYEL 081100Z 09002KT 0SM FG VV001 20/20 A2999 RMK FG8 WNDS ESTD
SLP151=
METAR CYFR NIL=
METAR CYGK 081100Z 00000KT 4SM HZ FEW058 23/21 A3004 RMK SC1 SLP171=
METAR CYGQ 081100Z 26006KT 15SM -RA FEW009 BKN025 BKN110 17/17 A2996
RMK SF2SC2AC2 SLP147=
METAR CYHM 081100Z 24003KT 8SM MIFG FEW100 23/21 A3006 RMK AC1 AC TR
SLP175=
METAR CYKF 081100Z AUTO 14003KT 3SM BR CLR 21/21 A3006 RMK SLP175
 DENSITY ALT 1800FT=
METAR CYKL 081100Z AUTO 31005KT 260V340 9SM CLR 18/14 A2990 RMK
SLP133=
METAR CYKZ 081100Z 00000KT 6SM HZ FEW060 FEW100 24/22 A3004 RMK
CU1AC1 CU TR SLP170=
METAR CYLD 081100Z 33007KT 290V360 8SM +SHRA BKN012 OVC017 18/17
A2998 RMK SF4SC4 BR BLN EST CVCTV CLDS EMBD FG VIS 1 E-SE SLP148=
METAR CYOO 081100Z AUTO 00000KT 6SM BR CLR 23/21 A3003 RMK SLP170
 DENSITY ALT 1300FT=
METAR CYPL 081100Z 22004KT 15SM FEW040TCU FEW100 SCT270 16/14 A2988
RMK TCU2AC1CI0 SLP122=
METAR CYQA 081100Z AUTO 14002KT 5SM BR FEW043 21/21 A3003 RMK SLP170
 DENSITY ALT 1700FT=
METAR CYQK NIL=
METAR CYRB 081100Z 17006KT 15SM FEW240 08/02 A2977 RMK CI1 SLP087=
METAR CYSB 081100Z 19005KT 3/4SM R22/P6000FT/U BR VV002 21/21 A3000
RMK FG8 SLP154=
METAR CYSC 081100Z AUTO 11002KT 4SM BR SCT076 23/22 A3003 RMK SLP169
 DENSITY ALT 1700FT=
METAR CYSN 081100Z 22005KT 8SM SKC 24/22 A3003 RMK SLP166=
METAR CYSP NIL=
METAR CYVO 081100Z 18005KT 15SM FEW050TCU FEW120 BKN260 20/20 A2997
RMK TCU1AC1CI1 SLP147=
METAR CYVQ 081100Z 10003KT 30SM -SHRA BKN040 BKN080 OVC270 13/12
A2995 RMK SC6AC2CI1 PRESFR PAST HR SLP143=
METAR CYXL 081100Z 26006KT 15SM FEW053 FEW088 17/15 A2994 RMK CU2AC1
SLP141=
METAR CYXU 081100Z 13003KT 10SM MIFG FEW030TCU 21/19 A3006 RMK TCU1
TCU AND CB TOPS DSTNT N SLP175=
METAR CYXZ 081100Z 00000KT 15SM SCT003 BKN040 OVC080 17/17 A2996 RMK
ST3SC2AS2 SLP148=
METAR CYYB 081100Z 20003KT 4SM BR FEW020TCU BKN250 22/21 A3002 RMK
TCU2CI2 SLP163=
METAR CYYH 081100Z 05004KT 15SM FEW030 BKN045 BKN210 13/07 A2981 RMK
SC2SC4CI0 SLP097=
METAR CYYU 081100Z 24004KT 10SM -SHRA SCT030 OVC080 18/16 A2994 RMK
SC3AS5 SLP139=

####018000343####
SACN70 CWAO 081100
PGF NIL=
PGH NIL=
PLE NIL=
POY SA 1100 AUTO8 M M M 166/12/11/2404/M/ 3011 68MM=
PQD SA 1100 AUTO8 M M M 142/12/09/2607/M/ 3001 61MM=
PSU NIL=
PYQ SA 1100 AUTO8 M M M 034/11/10/2608/M/ 6005 05MM=
WEX SA 1100 AUTO8 M M M 144/13/12/2704/M/ 3007 20MM=
WJD NIL=
WOO NIL=
WSZ NIL=
XMN NIL=
XWG NIL=

####018001213####
SACN50 CWAO 081100
VAS SA 1100 AUTO8 M M M M/16/06/2002/M/M M 49MM=
VLY SA 1100 AUTO8 M M M 180/15/10/1302/M/ 1015 95MM=
VMO SA 1100 AUTO8 M M M M/M/M/MMMM/M/M M MMMM=
VOA NIL=
VOB SA 1100 AUTO8 M M M 179/16/07/1301/M/ 1002 96MM=
VOC SA 1100 AUTO8 M M M 179/12/09/0000/M/ 2003 56MM=
VOD SA 1100 AUTO8 M M M 179/12/05/0602/M/ 1003 86MM=
VOE NIL=
VOF SA 1100 AUTO8 M M M M/14/06/3402/M/M M 81MM=
VOG NIL=
VOH SA 1100 AUTO8 M M M M/16/03/0602/M/M M 55MM=
VOI NIL=
VOJ SA 1100 AUTO8 M M M M/17/M/0405/M/ M 8MMM=
VOK SA 1100 AUTO8 M M M M/14/06/0601/M/M M 42MM=
VOL NIL=
VOM SA 1100 AUTO8 M M M 149/21/11/2101/M/ 3009 78MM=
VOO NIL=
VOP SA 1100 AUTO8 M M M 155/17/12/1501/M/M M005 76MM=
VOQ SA 1100 AUTO8 M M M 149/15/11/2401/M/ 1011 63MM=
VOU SA 1100 AUTO8 M M M 149/17/10/0301/M/M M014 89MM=
VOV SA 1100 AUTO8 M M M M/11/06/0301/M/M M 94MM=
VOW NIL=
VOX NIL=
VOY NIL=
VOZ NIL=
VQZ NIL=
VSL NIL=
VTS NIL=
VWB SA 1100 AUTO8 M M M M/16/04/MMMM/M/M M 41MM=
VXS NIL=
WFG NIL=
WGP SA 1100 AUTO8 M M M 173/12/11/MMMM/M/M M012 67MM=
WHC SA 1100 AUTO8 M M M M/18/12/MMMM/M/ M 89MM=
WPN SA 1100 AUTO8 M M M M/12/M/0000/M/M M 1MMM=
WPU NIL=
ZKA NIL=

####018000596####
SACN60 CWAO 081100
PAC NIL=
PAF NIL=
PAT NIL=
PAZ NIL=
PBB NIL=
PBD NIL=
PBN NIL=
PCC NIL=
PCI NIL=
PDA NIL=
PDB NIL=
PDU NIL=
PEB NIL=
PEL NIL=
PET NIL=
PFA NIL=
PFB NIL=
PFM NIL=
PGC NIL=
PGI NIL=
PHA NIL=
PHE NIL=
PHR NIL=
PHU NIL=
PHW NIL=
PIA NIL=
PJT NIL=
PKA NIL=
PKI NIL=
PLA NIL=
PLC NIL=
PLF NIL=
PLG NIL=
PMA NIL=
PMB NIL=
PML NIL=
PMN NIL=
PNS NIL=
PPL NIL=
PRD NIL=
PRF NIL=
PRH NIL=
PRS NIL=
PRW NIL=
PSA NIL=
PSH NIL=
PSL NIL=
PSW NIL=
PTA NIL=
PTC NIL=
PVI NIL=
PWT NIL=

####018000800####
SACN59 CWAO 081100
NLB NIL=
NLD NIL=
NNR NIL=
NPK NIL=
NTK NIL=
PAA NIL=
PAH NIL=
PBA NIL=
PBE NIL=
PBH NIL=
PBL NIL=
PBR NIL=
PBS NIL=
PBT NIL=
PBV NIL=
PCA NIL=
PCM NIL=
PCR NIL=
PEA NIL=
PEH NIL=
PFI NIL=
PFO NIL=
PGE NIL=
PGL NIL=
PIR NIL=
PMR NIL=
PQL NIL=
PQU NIL=
PRA NIL=
PRL SA 1100 AUTO8 M M M M/13/11/MMMM/M/ M 86MM=
PRO NIL=
PRR NIL=
PRY NIL=
PSD NIL=
PSP NIL=
PST NIL=
PSV NIL=
PTH NIL=
PTR NIL=
PTU NIL=
PVA NIL=
PWB NIL=
PXL NIL=
WCT SA 1100 AUTO8 M M M 214/10/08/2606/M/ 7004 82MM=
WLB NIL=
XAK NIL=
XDB NIL=
XFM NIL=
XHD NIL=
XHP NIL=
XMG NIL=
XMO NIL=
XOL NIL=
XPL NIL=
XSC NIL=
XSL NIL=
XSP NIL=
XTH NIL=
XVM NIL=
XVW NIL=
ZMU NIL=
ZOL NIL=
ZPS NIL=

####018000101####
SACN63 CWAO 081100
NVQ NIL=
WMT NIL=
XAR NIL=
ZEV NIL=
ZFS NIL=
ZHY NIL=
ZSM NIL=

####018001161####
SACN45 CWAO 081100
METAR CYBB NIL=
METAR CYCB 081100Z 25004KT 15SM FEW040 FEW120 FEW220 05/03 A2984 RMK
SC1AC1CI0 TR SC SLP107=
METAR CYCO 081100Z 01010KT 15SM VCFG BKN013 BKN035 05/05 A2988 RMK
ST6SC1 VIS E 6 SLP121=
METAR CYCS NIL=
METAR CYFS 081100Z 30003KT 15SM FEW055 13/12 A2999 RMK SC2 SLP159=
METAR CYGH NIL=
METAR CYGT 081100Z 00000KT 15SM FEW010 SCT040 BKN080 11/05 A2983 RMK
CF1SC3AC2 BR S SLP105=
METAR CYHI NIL=
METAR CYHK 081100Z AUTO 03010KT 9SM CLR 09/07 A2979 RMK SLP092=
METAR CYHY 081100Z 28002KT 15SM SCT020 BKN030 BKN210 15/13 A2996 RMK
CF2SC2CS1 SLP148=
METAR CYJF NIL=
METAR CYKD NIL=
METAR CYLC NIL=
METAR CYLK NIL=
METAR CYOA 081100Z 00000KT 15SM FEW070 10/07 A2990 RMK AC2 17.5/9.0/0
SLP143=
METAR CYPC NIL=
METAR CYRA NIL=
METAR CYRT 081100Z 06010KT 3/8SM -DZ FG VV001 06/06 A2960 RMK FG8
SLP026=
METAR CYSY NIL=
METAR CYTE 081100Z 09013KT 15SM SCT070 06/03 A2974 RMK AC3
10.9/3.1/0/0 SNW CVR/NIL SLP075=
METAR CYUT NIL=
METAR CYVM 081100Z AUTO 18007KT CLR 10/05 A2983 RMK SLP101=
METAR CYWJ NIL=
METAR CYWY NIL=
METAR CYXN NIL=
METAR CYXP NIL=
METAR CYZS NIL=

####018001433####
SACN44 CWAO 081100
METAR CWIQ NIL=
METAR CWRF 081100Z AUTO ///// 12/ A2971=
METAR CWVD 081100Z AUTO ///// 12/ A2982 RMK SLP124=
METAR CYBW 081100Z 31004KT 30SM FEW080 FEW140 FEW250 07/06 A3021 RMK
AC1AC1CI1 SLP235=
METAR CYCY 081100Z AUTO 06003KT 9SM SCT062 11/07 A2981 RMK SLP099=
METAR CYED 081100Z AUTO 23007KT 9SM CLR 14/12 A3007 RMK SLP186=
METAR CYEK 081100Z AUTO 08003KT 1/8SM VV001 07/07 A2960 RMK SLP023=
METAR CYIO 081100Z AUTO 19002KT 9SM OVC087 12/07 A2979 RMK SLP092=
METAR CYLJ NIL=
METAR CYLT 081100Z 17020KT 25SM FEW020 BKN240 15/05 A2966 RMK CU1CI0
SLP046=
METAR CYMJ NIL=
METAR CYOD 081100Z 24004KT 15SM FEW040 FEW090 SCT240 15/13 A3003 RMK
CU1AC2CI1 SLP178=
METAR CYPE 081100Z 33010KT 15SM BKN060 BKN250 15/12 A3006 RMK SC5CI0
SLP182=
METAR CYQV 081100Z AUTO 27007KT 9SM CLR 10/09 A3007 RMK SLP193=
METAR CYSF 081100Z AUTO 28004KT 9SM SCT081 OVC100 12/08 A2985 RMK
 SLP116=
METAR CYSM 081100Z 00000KT 15SM FEW080 SCT160 BKN220 11/08 A2992 RMK
AC1AC1CI1 SLP138=
METAR CYSR 081100Z 25006KT 40SM FEW050 FEW120 SCT230 09/03 A2981 RMK
SC2AC1CI1 SLP126=
METAR CYTH 081100Z 27007KT 15SM FEW075 FEW100 FEW240 10/09 A2982 RMK
ACC1AC1CI1 SLP105=
METAR CYUB NIL=
METAR CYUJ NIL=
METAR CYUS 081100Z AUTO ///// 9SM FEW092 11/ A2979 RMK SLP093=
METAR CYUX NIL=
METAR CYVT NIL=
METAR CYXH 081100Z AUTO 24004KT 9SM CLR 09/09 A3017 RMK SLP218=
METAR CYZU NIL=

####018001087####
SACN88 CWAO 081100
AAW NIL=
ABB SA 1100 AUTO7 M M M M/21/18/2502/M/M M 64MM=
ABF NIL=
ABR NIL=
ABT NIL=
ACP NIL=
ACQ NIL=
ADS NIL=
AFC NIL=
AFY SA 1100 AUTO7 M M M M/17/15/MMMM/M/ M 69MM=
AHD NIL=
AHK NIL=
AHR SA 1100 AUTO8 M M M 184/20/18/2211/M/ PK WND 2217 1046Z 2005
20MM=
AHW NIL=
AJT NIL=
AKC SA 1100 AUTO7 M M M M/21/18/MMMM/M/ M 24MM=
AMS NIL=
AOH SA 1100 AUTO8 M M M 198/19/17/2404/M/ 3005 84MM=
AOS NIL=
APR SA 1100 AUTO8 M M M 203/16/15/1403/M/ 2010 60MM=
AQY NIL=
ARP NIL=
AVA SA 1100 AUTO8 M M M 226/09/08/1616/M/ 7003 99MM=
AWR NIL=
ERM SA 1100 AUTO8 M M M 157/23/22/1301/M/0003 2007 86MM=
WAR NIL=
WBK NIL=
WBV SA 1100 AUTO8 M M M 219/15/15/2311/M/M 3008 86MM=
WDA NIL=
WDO NIL=
WHO NIL=
WNS NIL=
WRN SA 1100 AUTO8 M M M 207/16/16/2209/M/M 3008 39MM=
WSS NIL=
WXI NIL=
WZF NIL=
WZN NIL=
WZU SA 1100 AUTO7 M M M M/21/18/1502/M/ M 37MM=
XGD SA 1100 AUTO8 M M M 211/14/12/MMMM/M/ 8003 12MM=
XKT NIL=
XNP NIL=
ZCR NIL=
ZDB NIL=
ZSP SA 1100 AUTO8 M M M 177/21/18/2108/M/ 3005 07MM=

####018001927####
SACN43 CWAO 081100
METAR CWHN 081100Z AUTO 21003KT 9SM FEW038 FEW045 OVC055 13/09 A3002
RMK SLP172=
METAR CWLO NIL=
METAR CYBK 081100Z 35010KT 20SM SCT020 BKN090 BKN130 09/09 A2971 RMK
SC3AS2AC1 SLP061=
METAR CYBR 081100Z 27005KT 15SM FEW060 FEW240 10/10 A3007 RMK SC1CI0
SLP190=
METAR CYBU NIL=
METAR CYDN 081100Z AUTO 25007KT 9SM CLR 11/09 A3003 RMK SLP176=
METAR CYEN 081100Z 00000KT 15SM FEW040 BKN250 11/10 A3012 RMK SC2CI0
SLP205=
METAR CYET 081100Z AUTO 27003KT 9SM CLR 09/05 A3011 RMK SLP198=
METAR CYGX 081100Z 22004KT 15SM SCT025 10/09 A2976 RMK SC4 SLP084=
METAR CYKJ 081100Z AUTO 27006KT 9SM CLR 11/07 A2990 RMK SLP144=
METAR CYLL 081100Z AUTO 28006KT 9SM FEW061 SCT074 OVC088 13/12 A3009
 RMK SLP194 DENSITY ALT 2200FT=
METAR CYMM 081100Z AUTO 00000KT 9SM CLR 11/09 A2999 RMK SLP161=
METAR CYNE 081100Z AUTO 28003KT 230V320 9SM CLR 13/12 A2989 RMK
SLP126=
METAR CYOJ 081100Z 00000KT 15SM FEW050 12/11 A2997 RMK SC2 SLP154=
METAR CYPA 081100Z 26007KT 15SM FEW050 FEW100 BKN250 11/10 A3006 RMK
SC1AC0CI0 SLP187=
METAR CYPG 081100Z 30007KT 15SM FEW050 FEW090 FEW250 14/11 A3004 RMK
SC1AC1CI1 TR AC CI SLP174=
METAR CYPY 081100Z AUTO 00000KT 9SM CLR 11/11 A2993 RMK SLP141=
METAR CYQF 081100Z 00000KT 15SM FEW080 SCT250 10/08 A3014 RMK ACC1CI1
ACC TR SLP215=
METAR CYQL 081100Z AUTO 22006KT 9SM CLR 10/09 A3018 RMK SLP220=
METAR CYQR 081100Z 36005KT 15SM FEW054 SCT250 10/08 A3011 RMK SC2CI1
CU ASOCTD SLP203=
METAR CYQW 081100Z AUTO 24005KT 9SM CLR 11/10 A3011 RMK SLP206=
METAR CYVC 081100Z 00000KT 15SM BKN040 BKN250 13/10 A2997 RMK SC6CI1
SLP159=
METAR CYXD 081100Z AUTO 21005KT 9SM CLR 14/11 A3007 RMK SLP184=
METAR CYYL 081100Z AUTO 28007KT 9SM BKN056 OVC093 12/09 A2982 RMK
 SLP110 DENSITY ALT 1200FT=
METAR CYYN 081100Z AUTO 26008KT 9SM CLR 11/11 A3014 RMK SLP208=
METAR CYZH 081100Z AUTO 18003KT 9SM CLR 14/11 A3004 RMK SLP175=

####018000106####
SACN51 CWAO 081100 CCA
METAR CZBF 081100Z CCA 00000KT 3/8SM FG VV002 19/19 A3001 RMK FG8
SLP162=

####018000164####
SACN46 CWAO 081100 CCA
METAR CYLD 081100Z CCA 33007KT 290V360 8SM +SHRA BKN012 OVC017 18/17
A2998 RMK SF4SC4 BR BLN EST CVCTV CLDS EMBD VIS 1 E-SE SLP148=

####018000113####
SACN47 CWAO 081100 CCA
METAR CYRL 081100Z CCA 27006KT 10SM SCT005 BKN080 15/14 A2992 RMK
SC3AC1 SLP134=

####018001277####
SACN96 CWAO 081100
WXL NIL=
WXN NIL=
WXP SA 1100 AUTO8 M M M 082/13/05/0501/M/ 6008 65MM=
WXS SA 1100 AUTO8 M M M 160/18/17/3301/M/ 1011 67MM=
WXW NIL=
WXZ NIL=
WYA NIL=
WYE NIL=
WYF NIL=
WYH NIL=
WYI SA 1100 AUTO8 M M M 207/09/08/1813/M/ PK WND 1717 1020Z 6002
21MM=
WYJ NIL=
WYL SA 1100 AUTO8 M M M M/04/02/0604/M/ M 69MM=
WYQ SA 1100 AUTO8 M M M 169/12/11/2501/M/ 3008 69MM=
WYW NIL=
WYY NIL=
WZA NIL=
WZE NIL=
WZL NIL=
WZO SA 1100 AUTO8 M M M M/M/M/3102/M/M M MMMM=
WZQ NIL=
WZR NIL=
WZS NIL=
WZT NIL=
WZV NIL=
WZY NIL=
XBD SA 1100 AUTO8 M M M 163/12/11/2603/M/ 5002 96MM=
XBQ NIL=
XEL NIL=
XFV SA 1100 AUTO8 M M M M/14/13/3502/M/ M 52MM=
XGM SA 1100 AUTO8 M 0.0 M 200/16/M/2004/M/ 3014 9MMM=
XHM SA 1100 AUTO8 M M M M/24/21/2602/M/ M 65MM=
XKA NIL=
XKE NIL=
XND NIL=
XOA SA 1100 AUTO8 M M M 150/25/21/3301/M/ 2007 21MM=
XPS SA 1100 AUTO8 M M M M/14/12/2706/M/ SUNSH 0 M 99MM=
XPT SA 1100 AUTO8 M M M M/26/21/MMMM/M/M M 10MM=
XWF SA 1100 AUTO8 M M M 194/14/07/3102/M/ 2007 82MM=
ZGH NIL=
ZOC SA 1100 AUTO8 M M M 185/08/07/0604/M/ 1010 97MM=
ZPK SA 1100 AUTO8 M M M 115/09/07/2509/M/ 6003 91MM=
ZQT NIL=
ZUB NIL=
ZUG NIL=
ZWN SA 1100 AUTO8 M M M 206/11/10/2206/M/ 7004 08MM=

####018000740####
SACN78 CWAO 081100
TAE NIL=
TAG NIL=
TAL NIL=
TBO SA 1100 AUTO8 M M M 161/23/21/2102/M/ 3006 50MM=
TBT NIL=
TCK NIL=
TCW NIL=
TGT NIL=
TKG SA 1100 AUTO8 M M M 167/23/22/2101/M/ 3007 87MM=
TKR NIL=
TMS NIL=
TNK NIL=
TPQ NIL=
TRA SA 1100 AUTO8 M M M 147/14/13/2504/M/ 3003 30MM=
TTR SA 1100 AUTO8 M M M 162/21/20/1704/M/ 6004 57MM=
TWL SA 1100 AUTO8 M M M 174/23/22/1502/M/M 1002 28MM=
TWN NIL=
TXR NIL=
TZR NIL=
WAJ NIL=
WBE NIL=
WKK NIL=
WLS NIL=
WNB NIL=
WNL NIL=
WPC NIL=
WPS NIL=
WWX NIL=
XBI NIL=
XRG SA 1100 AUTO8 M M M 173/24/22/1703/M/ 5000 22MM=
XZC NIL=
YLH SA 1100 AUTO M M M 115/14/14/1903/M/M 6005 40MM=
ZEL SA 1100 AUTO8 M M M 177/22/21/0802/M/ 7002 07MM=

####018000707####
SACN92 CWAO 081100
WJI NIL=
WJK NIL=
WJL NIL=
WJM NIL=
WJN NIL=
WJO NIL=
WJP NIL=
WJR NIL=
WJT NIL=
WJU NIL=
WJV SA 1100 AUTO8 M M M 179/15/08/1007/M/ 1009 71MM=
WJW NIL=
WJX NIL=
WKA NIL=
WKB NIL=
WKD NIL=
WKF SA 1100 AUTO8 M M M M/16/M/MMMM/M/ M 3MMM=
WKG NIL=
WKH SA 1100 AUTO8 M M M M/22/M/MMMM/M/M M 7MMM=
WKX NIL=
WLC SA 1100 AUTO8 M M M M/15/M/2712/M/M M 6MMM=
WLE NIL=
WLF NIL=
WLG NIL=
WLJ NIL=
WLK NIL=
WLM SA 1100 AUTO8 M M M M/19/10/0204/M/ M 12MM=
WLQ NIL=
WLU NIL=
WLV NIL=
WME NIL=
WMF NIL=
WMI NIL=
WMJ SA 1100 AUTO8 M M M 163/21/20/1501/M/ 2004 02MM=
WMM SA 1100 AUTO8 M M M 152/15/13/0000/M/ 2006 86MM=
WMQ NIL=

####018001099####
SACN48 CWAO 081100
METAR CYAD NIL=
METAR CYAH 081100Z AUTO 00000KT 9SM CLR 15/13 A2996 RMK SLP151=
METAR CYAS NIL=
METAR CYBX NIL=
METAR CYCL NIL=
METAR CYGV 081100Z AUTO 12002KT 9SM OVC002 14/12 A3003 RMK SLP171=
METAR CYHA NIL=
METAR CYIK NIL=
METAR CYKG NIL=
METAR CYKQ NIL=
METAR CYLA NIL=
METAR CYMH 081100Z 16007KT 15SM FEW009 BKN021 BKN090 11/08 A3007 RMK
SF2SC2AC1 SLP184=
METAR CYML NIL=
METAR CYMT NIL=
METAR CYMU NIL=
METAR CYNM 081100Z AUTO 13003KT 120V180 9SM CLR 20/16 A2993 RMK
SLP135=
METAR CYOY 081100Z AUTO 13003KT 090V170 9SM FEW054 FEW066 FEW074
FEW080 19/16 A3000 RMK SLP160=
METAR CYPH 081100Z AUTO 23015KT 1SM VV001 06/06 A2980 RMK VSBY VRBL
0.6V9.0 SLP094=
METAR CYPX NIL=
METAR CYQI 081100Z 19003KT 1/8SM FG VV001 17/17 A3017 RMK FG8 RVR
RRWY 24 1100 FT SLP216=
METAR CYSK NIL=
METAR CYSL 081100Z 15005KT 5SM HZ FEW240 23/21 A3003 RMK CI2 SLP167=
METAR CYUY 081100Z 18003KT 15SM SCT160 BKN240 21/18 A2996 RMK AC2CC2
SLP144=
METAR CYWK 081100Z 21005KT 15SM BKN300 20/17 A2997 RMK CI2 SLP149=
METAR CYZG NIL=

####018000899####
SACN52 CWAO 081100
METAR CWEU 081100Z 14012KT 40SM FEW150 BKN200 OVC240 13/03 A2967 RMK
AC1CI0CS0 SLP047=
METAR CWFD 081100Z AUTO 02003KT 9SM 11/ RMK ALTM MISG=
METAR CWGZ NIL=
METAR CWKP 081100Z AUTO 23008KT 07/ A2984 RMK SLP128=
METAR CWRH 081100Z AUTO ///// 09/ A2978 RMK SLP106=
METAR CWSA 081100Z AUTO 23008KT 1/8SM VV001 17/17 A3021 RMK SLP230=
METAR CWTU 081100Z AUTO 16025KT 10/ A2992 RMK SLP146=
METAR CWWU 081100Z 17004KT 15SM BKN012 OVC020 12/09 A3024 RMK SC6SC2
SLP239=
METAR CWXR 081100Z AUTO 15006KT 07/ A2987 RMK SLP124=
METAR CWYM 081100Z AUTO 12007KT 12/ RMK ALTM MISG SLP124=
METAR CYPD 081100Z AUTO 25003KT 9SM CLR 21/18 A3013 RMK SLP202
 DENSITY ALT 900FT=
METAR CZEM NIL=
METAR CZFM NIL=
METAR CZFN NIL=
METAR CZPC 081100Z AUTO 28009KT 9SM CLR 08/07 A3023 RMK SLP231=
METAR CZUM 081100Z AUTO 00000KT 9SM FEW071 17/14 A2992 RMK SLP138=

####018000254####
SACN62 CWAO 081100
LWIS CYDL 081100Z AUTO 04003KT 08/04 A3020=
LWIS CYER 081100Z AUTO 00000KT 13/12 A2975=
LWIS CYLH 081100Z AUTO 19003KT 14/14 A2986=
LWIS CZMD 081100Z AUTO 25007KT 14/14 A2981=
LWIS CZSJ 081100Z AUTO 28004KT 14/13 A2982=

####018001749####
SACN47 CWAO 081100
METAR CYAM 081100Z 00000KT 5SM BR BKN003 OVC009 20/20 A2996 RMK
SF6SF2 SLP143=
METAR CYFT 081100Z 00000KT 15SM FEW020 BKN075 16/12 A2988 RMK SC2AC6
SLP122=
METAR CYGP NIL=
METAR CYGR NIL=
METAR CYHD 081100Z AUTO 22006KT 9SM FEW098 16/15 A2995 RMK SLP146=
METAR CYHU 081100Z AUTO 22004KT 8SM FEW006 26/22 A2999 RMK SLP157
 DENSITY ALT 1300FT RVR MISG=
METAR CYKO NIL=
METAR CYMO 081100Z AUTO 22003KT 9SM -RA FEW037 FEW054 FEW069 OVC099
18/17 A2987 RMK SLP114=
METAR CYNA 081100Z AUTO 10011KT 9SM OVC003 OVC045 13/12 A3004 RMK
SLP173=
METAR CYND 081100Z 00000KT 12SM FEW080 23/20 A3001 RMK AC1 SLP161=
METAR CYPQ 081100Z AUTO ///// 8SM CLR 21/21 A3004 RMK SLP170=
METAR CYQT 081100Z 27004KT 20SM FEW070 16/16 A2998 RMK AC2 SLP153=
METAR CYRJ NIL=
METAR CYRL 081100Z 27006KT 10SM SCT007 BKN080 15/14 A2992 RMK SC3AC1
SLP134=
METAR CYTL 081100Z AUTO 23006KT 9SM FEW072 BKN078 16/14 A2980 RMK
SLP097=
METAR CYTS 081100Z 20003KT 15SM -RA BKN065 BKN140 OVC210 20/18 A2988
RMK SC6AC2CI1 SLP118=
METAR CYTZ 081100Z AUTO 22002KT 1/4SM FG BKN001 20/19 A3002 RMK
 SLP167 DENSITY ALT 700FT RVR MISG=
METAR CYVP 081100Z 24007KT 15SM BKN018 BKN050 16/13 A2976 RMK SC6SC2
SLP078=
METAR CYVV 081100Z 00000KT 8SM FEW035 FEW100 22/21 A3001 RMK SC2AC1
TR AC TCU ASOCTD SLP162=
METAR CYWA 081100Z AUTO 00000KT 9SM CLR 22/20 A3001 RMK SLP161=
METAR CYXR 081100Z AUTO 14004KT 9SM CLR 20/20 A2994 RMK SLP126=
METAR CYYY 081100Z 00000KT 1/2SM R06/2400FT/N FG VV002 14/13 A3003
RMK FG8 SLP169=
METAR CYZE 081100Z AUTO 17006KT 5SM BR SCT002 BKN150 20/20 A2997 RMK
 SLP150 DENSITY ALT 1300FT=
METAR CYZR 081100Z AUTO 18004KT 9SM CLR 23/18 A3002 RMK SLP166
 DENSITY ALT 1500FT=

####018000086####
SACN89 CWAO 081100 CCA
WDV SA 1100 AUTO8 M M M M/14/13/2303/M/M PRESRR M 84MM=

####018000122####
SACN85 CWAO 081100
WBK NIL=
WHO NIL=
WPK SA 1100 AUTO8 M M M 170/18/M/3101/M/ 5000 8MMM=
WWE NIL=
YGS NIL=

####018001197####
SACN51 CWAO 081100
METAR CWAE NIL=
METAR CWCA 081100Z 21010G16KT 15SM FEW020 BKN200 13/11 A2998 RMK
SC1CI4 SLP152=
METAR CWCL 081100Z AUTO 00000KT 9SM CLR 09/05 A3015 RMK SLP201=
METAR CWDL NIL=
METAR CWIL 081100Z AUTO 33009KT 06/ A2982 RMK SLP105=
METAR CWKM 081100Z AUTO 24003KT 04/ A3007 RMK SLP189=
METAR CWKW 081100Z AUTO 13011KT 12/ A2974 RMK SLP086=
METAR CWLI 081100Z AUTO ///// 03/ A2998 RMK SLP161=
METAR CWLX 081100Z AUTO 22002KT 14/ A2980 RMK SLP101=
METAR CWLY 081100Z AUTO 00000KT 9SM CLR 15/09 A3007 RMK SLP179=
METAR CWOB 081100Z AUTO ///// 9SM CLR 13/ A2979 RMK SLP115=
METAR CWPX 081100Z AUTO 35011KT 09/ A2985 RMK SLP123=
METAR CWRX 081100Z AUTO 32004KT 09/ A2980=
METAR CWSW NIL=
METAR CWUP 081100Z AUTO 13002KT 14/ A2981 RMK SLP109=
METAR CWUW 081100Z AUTO ///// 9SM CLR 12/ A2982 RMK SLP123=
METAR CWVH 081100Z AUTO 29017KT 04/ A3002 RMK SLP184=
METAR CWYK 081100Z AUTO ///// 11/ A2982 RMK SLP119=
METAR CWZZ 081100Z AUTO ///// 9SM SCT045 OVC070 11/ A2977 RMK SLP098=
METAR CZBF 081100Z 00000KT 3/8SM FG VV002 19/19 A3001 RMK FG8 SLP162=
METAR CZCP 081100Z AUTO 28021G27KT 1/4SM DZ CLR 04/ A2985 RMK SLP116=
METAR CZST NIL=

####018000828####
SACN90 CWAO 081100
WEA SA 1100 AUTO8 M M M 149/14/13/2803/M/ 3005 22MM=
WEB SA 1100 AUTO8 M M M 147/16/13/3103/M/ 2002 67MM=
WEC NIL=
WEE NIL=
WEF NIL=
WEI SA 1100 AUTO8 M M M 187/12/11/2603/M/ 3004 91MM=
WEL SA 1100 AUTO8 M M M M/20/13/2906/M/ M 73MM=
WEO NIL=
WEP SA 1100 AUTO8 M M M 183/19/18/2113/M/ PK WND 2017 1059Z 3006
72MM=
WER NIL=
WEW NIL=
WEZ SA 1100 AUTO8 M M M 149/19/14/3103/M/ 3008 46MM=
WFE NIL=
WFF NIL=
WFJ NIL=
WFO SA 1100 AUTO8 M M M 144/13/09/2804/M/M 8003 34MM=
WFP SA 1100 AUTO8 M M M 108/08/06/1102/M/M 6017 93MM=
WFQ NIL=
WFW SA 1100 AUTO7 M M M 171/14/13/1303/M/ 3007 54MM=
WFX NIL=
WFZ NIL=
WGB SA 1100 AUTO8 M M M 148/21/13/2509/M/ 1010 15MM=
WGD NIL=
WGF SA 1100 AUTO8 M M M M/12/12/3201/M/ M 88MM=
WGH NIL=
WGL NIL=
WGM NIL=
WGN NIL=

####018000112####
SACN86 CWAO 081100
WBE NIL=
WCU NIL=
WNL NIL=
WPO NIL=
WPS NIL=
WSI NIL=
WWX NIL=
WWZ NIL=

####018000805####
SACN93 CWAO 081100
WMU NIL=
WMX SA 1100 AUTO8 M M M M/13/10/MMMM/M/ M 99MM=
WMY NIL=
WMZ NIL=
WNC NIL=
WND NIL=
WNE SA 1100 AUTO8 M M M 168/21/18/2314/M/ PK WND 2318 1017Z 1008
20MM=
WNH NIL=
WNK NIL=
WNM NIL=
WNP SA 1100 AUTO8 M M M 191/13/10/0701/M/ 3010 91MM=
WNQ NIL=
WNR SA 1100 AUTO8 M M M M/09/01/2305/M/M M 95MM=
WNT NIL=
WNV NIL=
WNX NIL=
WNZ NIL=
WOC NIL=
WOD NIL=
WOE NIL=
WOG NIL=
WOI NIL=
WOJ NIL=
WOK NIL=
WON SA 1100 AUTO8 M M M 197/06/04/0000/M/ 1010 88MM=
WOQ NIL=
WOV NIL=
WOW NIL=
WPA NIL=
WPB NIL=
WPD NIL=
WPE SA 1100 AUTO8 M M M 205/13/13/1805/M/ 3015 96MM=
WPF NIL=
WPG NIL=
WPL SA 1100 AUTO8 M M M 118/16/13/2307/M/ 8008 12MM=
WPR SA 1100 AUTO8 M M M 195/12/M/0000/M/M 1010 6MMM=
WPZ NIL=
WQA NIL=

####018001047####
SACN89 CWAO 081100
WAF NIL=
WAG NIL=
WAQ SA 1100 AUTO8 M M M M/09/09/3503/M/ M 35MM=
WAS SA 1100 AUTO8 M M M 144/21/10/0424/M/ 3013 49MM=
WAV NIL=
WAY NIL=
WBA SA 1100 AUTO8 M M M M/20/20/1904/M/ M 49MM=
WBG NIL=
WBJ NIL=
WBL NIL=
WBM SA 1100 AUTO8 M M M 177/14/08/1502/M/ 3006 75MM=
WBO NIL=
WBS SA 1100 AUTO8 M M M M/24/22/2104/M/M M 07MM=
WBT SA 1100 AUTO8 M M M 173/14/14/1003/M/ 0000 88MM=
WBY NIL=
WBZ SA 1100 AUTO8 M M M 156/25/22/2403/M/ 2004 32MM=
WCF NIL=
WCG NIL=
WCH SA 1100 AUTO8 M M M 156/12/12/2201/M/ 6004 48MM=
WCI NIL=
WCJ NIL=
WCO NIL=
WCQ NIL=
WDB NIL=
WDD NIL=
WDE NIL=
WDF NIL=
WDI NIL=
WDJ SA 1100 AUTO8 M M M 204/10/08/3605/M/ 3006 81MM=
WDK NIL=
WDN NIL=
WDP NIL=
WDQ SA 1100 AUTO8 M M M 157/21/20/1901/M/M 3004 40MM=
WDR SA 1100 AUTO8 M M M M/18/M/3605/M/M M 4MMM=
WDT NIL=
WDU SA 1100 AUTO8 M M M M/11/07/2305/M/M M 27MM=
WDV SA 1100 AUTO8 M M M 156/14/13/2303/M/ 6003 84MM=
WDW NIL=
WDZ SA 1100 AUTO8 M M M 205/10/08/1603/M/ 6003 71MM=

####018000254####
SACN87 CWAO 081100
WEK SA 1100 AUTO8 M M M 168/13/M/1606/M/ 3010 6MMM=
WEQ SA 1100 AUTO8 M M M 174/09/08/2305/M/ 3005 98MM=
WJD NIL=
WLP SA 1100 AUTO8 M M M 169/13/12/3302/M/ 1005 58MM=
WPU NIL=
WRO NIL=
WWL NIL=
WWS NIL=
WZG NIL=

####018000611####
SACN49 CWAO 081100
METAR CYAY 081100Z AUTO 16010KT 9SM OVC003 09/08 A3010 RMK SLP194=
METAR CYCX 081100Z 20005KT 12SM FEW020 BKN060 20/18 A3008 RMK SC2CU4
DA+923FT SLP186=
METAR CYDF 081100Z 00000KT 15SM FEW008 SCT036 OVC048 11/09 A3013 RMK
SF1SC3SC4 SLP204=
METAR CYDP 081100Z 00000KT 15SM BKN100 08/06 A2986 RMK AC5 SLP112=
METAR CYGW NIL=
METAR CYHH NIL=
METAR CYLU NIL=
METAR CYNC NIL=
METAR CYSJ 081100Z 20009KT 1/8SM R23/1600FT/N FG VV002 15/14 A3014
RMK FG8 SLP208=
METAR CYTQ NIL=
METAR CYYG 081100Z 23012KT 15SM FEW009 SCT170 BKN280 20/18 A3008 RMK
SF2AC1CI2 SLP187=

####018000633####
SACN98 CWAO 081100
XAF NIL=
XAG NIL=
XAJ NIL=
XBA NIL=
XBR NIL=
XBW NIL=
XCD NIL=
XCP NIL=
XCS NIL=
XDK NIL=
XDP NIL=
XFR NIL=
XHR NIL=
XKI SA 1100 AUTO8 M M M 134/22/20/MMMM/M/ 8006 76MM=
XKM NIL=
XLB SA 1100 AUTO8 M M M 216/18/17/1804/M/ 1010 63MM=
XOY NIL=
XPA NIL=
XPC NIL=
XRB NIL=
XRL NIL=
XSE NIL=
XTD SA 1100 AUTO8 M M M 203/22/18/2106/M/ 1007 09MM=
XTO NIL=
XVN NIL=
XWB NIL=
XWM NIL=
XYH NIL=
XZV SA 1100 AUTO8 M M M 178/13/13/0603/M/0003 1008 66MM=
ZKD NIL=
ZLW NIL=
ZMJ NIL=
ZPR NIL=
ZQH NIL=
ZQZ NIL=
ZRP NIL=
ZTB NIL=
ZZJ NIL=
ZZP NIL=

####018000810####
SACN91 CWAO 081100
WGR NIL=
WGT SA 1100 AUTO8 M M M 147/20/15/3310/M/M 1010 95MM=
WGW SA 1100 AUTO8 M M M 238/07/06/0204/M/M 3004 72MM=
WGX NIL=
WGY SA 1100 AUTO8 M M M 215/11/10/2507/M/ 0000 95MM=
WHA NIL=
WHD NIL=
WHI NIL=
WHL SA 1100 AUTO8 M M M 171/14/M/2803/M/ 3003 8MMM=
WHM NIL=
WHQ SA 1100 AUTO7 M M M M/20/19/1204/M/M M 30MM=
WHT SA 1100 AUTO8 M M M 217/05/02/0702/M/ 8001 83MM=
WHV SA 1100 AUTO8 M M M 162/23/22/1103/M/ 1006 45MM=
WID NIL=
WIG NIL=
WII NIL=
WIJ NIL=
WIN NIL=
WIO NIL=
WIP NIL=
WIS NIL=
WIT SA 1100 AUTO8 M M M M/25/21/2501/M/M M 89MM=
WIW NIL=
WIX NIL=
WIY NIL=
WIZ SA 1100 AUTO7 M M M M/25/22/2103/M/ M 21MM=
WJB SA 1100 AUTO8 M M M M/19/17/0705/M/ M 84MM=
WJC SA 1100 AUTO8 M M M 047/08/08/MM09/M/ 6006 07MM=
WJH NIL=

####018000607####
SACN66 CWAO 081100
PIF SA 1100 AUTO8 M M M 129/13/09/2806/M/ 6003 15MM=
PIL SA 1100 AUTO8 M M M 169/15/10/2507/M/ 6007 12MM=
POX SA 1100 AUTO8 M M M 194/11/10/2506/M/ 0000 78MM=
PQW SA 1100 AUTO8 M M M 197/12/10/2406/M/ 8004 67MM=
WBD SA 1100 AUTO8 M M M 199/09/08/2906/M/ 3010 03MM=
WBU SA 1100 AUTO8 M M M 176/10/08/2606/M/ 5000 81MM=
WDC SA 1100 AUTO8 M M M 134/08/07/0601/M/ 0000 88MM=
WEH SA 1100 AUTO8 M M M 216/10/06/1307/M/ 2001 51MM=
WIK NIL=
WKO SA 1100 AUTO8 M M M 217/11/08/2905/M/ 3005 81MM=
WOY SA 1100 AUTO8 M M M 201/09/07/2805/M/ 3005 31MM=
XBK NIL=
ZHB NIL=

####018001241####
SACN97 CWAO 081100
XAT NIL=
XBK NIL=
XBO NIL=
XCA SA 1100 AUTO8 M M M 147/16/16/0301/M/0012 6004 31MM=
XCH SA 1100 AUTO7 M M M M/21/19/MMMM/M/ M 85MM=
XCK SA 1100 AUTO7 M M M M/09/M/3501/M/M M 0MMM=
XDE NIL=
XDI NIL=
XDW NIL=
XEA NIL=
XEC NIL=
XEG NIL=
XET NIL=
XFA SA 1100 AUTO8 M M M 165/13/11/2902/M/ 2003 48MM=
XGH NIL=
XHA NIL=
XHF SA 1100 AUTO8 M M M M/21/19/MMMM/M/ M 30MM=
XHI SA 1100 AUTO8 M M M 120/05/03/2103/M/ 6003 86MM=
XIB SA 1100 AUTO7 M M M 179/24/16/2608/M/ 3004 63MM=
XLC NIL=
XLL NIL=
XLT SA 1100 AUTO8 M M M 147/20/20/0703/M/M 2004 25MM=
XLU SA 1100 AUTO8 M M M 133/09/07/0000/M/ 0001 13MM=
XMD NIL=
XMI SA 1100 AUTO8 M M M 213/19/18/1907/M/M 2005 29MM=
XMM NIL=
XMP SA 1100 AUTO8 M M M M/M/M/2007/M/ M MMMM=
XMW NIL=
XMY NIL=
XNM NIL=
XOX SA 1100 AUTO8 M M M 152/13/09/2303/M/ 7007 73MM=
XPV NIL=
XQA NIL=
XQT NIL=
XRH SA 1100 AUTO7 M M M M/15/13/1507/M/ M 67MM=
XSH NIL=
XSR SA 1100 AUTO8 M M M 178/15/08/MMMM/M/ 5000 92MM=
XSW SA 1100 AUTO7 M M M M/09/07/2002/M/ M 74MM=
XTL SA 1100 AUTO8 M M M 221/06/05/3601/M/ 3007 87MM=
XTN NIL=
XTP NIL=
XTV NIL=
XVG NIL=
XWN NIL=
XZU SA 1100 AUTO8 M M M 188/11/09/3202/M/ 5000 27MM=

####018001694####
SAEU KAWN 081100 RRQ
METAR COR LEBZ 081100Z 19011KT 160V220 CAVOK 34/13 Q1015=
METAR LFBE 081100Z 07008KT CAVOK 31/19 Q1017 NOSIG=
METAR LFBY 081100Z 12007KT 070V170 CAVOK 32/20 Q1015=
METAR LFCG 081100Z 11006KT 070V150 CAVOK 33/16 Q1019=
METAR LFDB 081100Z 12005KT 080V170 CAVOK 31/15 Q1018=
METAR LFDH 081100Z 07007KT 020V130 CAVOK 33/16 Q1017=
METAR LFHP 081100Z VRB02KT CAVOK 28/09 Q1023=
METAR LFLD 081100Z 10006KT 030V180 CAVOK 31/11 Q1019=
METAR LFLM 081100Z VRB05KT CAVOK 29/15 Q1020=
METAR LFLN 081100Z AUTO VRB02KT 9999NDV NSC 30/14 Q1020=
METAR LFLQ 081100Z 19006KT 150V260 CAVOK 32/13 Q1020=
METAR LFLV 081100Z VRB02KT CAVOK 30/14 Q1020=
METAR LFMH 081100Z 13006KT 090V200 CAVOK 30/12 Q1021 NOSIG=
METAR LFOT 081100Z AUTO VRB04KT 9999NDV NSC 30/12 Q1018=
METAR LFOW 081100Z 25004KT 190V300 CAVOK 29/12 Q1019=
METAR LFPN 081100Z VRB03KT CAVOK 30/10 Q1019 NOSIG=
METAR LFQB 081100Z VRB05KT CAVOK 31/10 Q1018=
METAR LFQG 081100Z 17007KT 120V210 CAVOK 29/15 Q1019=
METAR LFRH 081100Z VRB03KT CAVOK 26/07 Q1018=
METAR LFRI 081100Z 19004KT 120V280 CAVOK 31/11 Q1018 NOSIG=
METAR LFRM 081100Z 15004KT 100V210 CAVOK 31/11 Q1018=
METAR LFRQ 081100Z VRB02KT CAVOK 25/12 Q1019 NOSIG=
METAR LFXA 081100Z VRB05KT CAVOK 31/14 Q1021=
METAR LJLJ 081100Z 13002KT 9999 FEW040 24/11 Q1023 NOSIG=
METAR LJMB 081100Z 36004KT 9999 FEW040 24/08 Q1023=
METAR LJPZ 081100Z 30008KT CAVOK 25/12 Q1022=
METAR LPAZ 081100Z 25004KT 220V280 9999 BKN016 BKN030 21/19 Q1025=
METAR LPFL 081100Z 19005KT 140V280 9999 FEW023 23/18 Q1022=
METAR LPHR 081100Z 24006KT 9999 SCT013 SCT035 22/18 Q1023=
METAR LPPD 081100Z 27004KT 9999 FEW017 BKN030 20/16 Q1024=
####018001140####
SACN95 CWAO 081100
WTA NIL=
WTD NIL=
WTE NIL=
WTF NIL=
WTG SA 1100 AUTO8 M M M 168/13/M/0413/M/ PK WND 0417 1024Z 3007
5MMM=
WTM NIL=
WTN NIL=
WTR NIL=
WTS NIL=
WTT NIL=
WTX NIL=
WTY NIL=
WUI NIL=
WUK SA 1100 AUTO8 M M M M/20/19/0501/M/ M 09MM=
WUS NIL=
WUT NIL=
WUX SA 1100 AUTO7 M M M 152/19/19/0401/M/ 3003 41MM=
WUY SA 1100 AUTO7 M M M 139/21/19/1801/M/ 8008 16MM=
WVC NIL=
WVF SA 1100 AUTO8 M M M M/20/M/1003/M/M M 7MMM=
WVI NIL=
WVN NIL=
WVO SA 1100 AUTO8 M M M M/11/09/2103/M/ M 53MM=
WVP NIL=
WVQ SA 1100 AUTO8 M M M M/25/22/2604/M/ M 72MM=
WVT SA 1100 AUTO8 M M M 166/13/09/0000/M/ 7003 00MM=
WVU NIL=
WVV SA 1100 AUTO8 M M M 152/19/07/3202/M/ 1004 00MM=
WVW SA 1100 AUTO8 M M M 215/10/08/1609/M/M PK WND 1818 1004Z 3002
84MM=
WVZ NIL=
WWA SA 1100 AUTO8 M M M 150/20/09/0103/M/ 1010 50MM=
WWB SA 1100 AUTO8 M M M 163/24/21/2304/M/M 3004 20MM=
WWC NIL=
WWE NIL=
WWF NIL=
WWK NIL=
WWN NIL=
WWO SA 1100 AUTO8 M M M M/03/03/3401/M/ M 26MM=
WWP NIL=
WXA NIL=
WXB NIL=
WXC NIL=
WXG NIL=
WZW SA 1100 AUTO8 M M M 224/08/05/0201/M/ 1004 85MM=

####018000941####
SACN94 CWAO 081100
WQC SA 1100 AUTO8 M M M 162/13/11/0000/M/ 2006 58MM=
WQD NIL=
WQE NIL=
WQF NIL=
WQH NIL=
WQK SA 1100 AUTO8 M M M M/M/M/MM04/M/M M MMMM=
WQL NIL=
WQM NIL=
WQO NIL=
WQP SA 1100 AUTO8 M M M 166/23/21/2004/M/ 1006 14MM=
WQQ NIL=
WQR NIL=
WQS NIL=
WQU NIL=
WQV NIL=
WQW NIL=
WQY NIL=
WQZ NIL=
WRA NIL=
WRD NIL=
WRE NIL=
WRJ NIL=
WRK SA 1100 AUTO8 M M M 174/20/M/0000/M/ 2001 6MMM=
WRM NIL=
WRR NIL=
WRT SA 1100 AUTO8 M M M M/04/04/0000/M/M M 88MM=
WRU NIL=
WRV NIL=
WRY NIL=
WRZ NIL=
WSB SA 1100 AUTO8 M M M M/22/M/1402/M/ M 5MMM=
WSD SA 1100 AUTO8 M M M 177/19/17/2211/M/ 0005 14MM=
WSF SA 1100 AUTO8 M M M 171/13/13/2904/M/ 1007 55MM=
WSG NIL=
WSK SA 1100 AUTO8 M M M 163/15/11/0302/M/ 1009 35MM=
WSL NIL=
WSN NIL=
WSP SA 1100 AUTO8 M M M 150/16/M/MM00/M/ 1003 8MMM=
WSQ NIL=
WSR NIL=
WST NIL=
WSU NIL=
WSV NIL=
WSX NIL=
WSY NIL=

####018000442####
SACN82 CWAO 081100
MAN NIL=
MBR NIL=
MCT NIL=
MCW NIL=
MFM NIL=
MGB NIL=
MHB NIL=
MHN NIL=
MHW NIL=
MIN NIL=
MLA NIL=
MLI NIL=
MLT NIL=
MLU NIL=
MMY NIL=
MPD NIL=
MPL NIL=
MQK NIL=
MQP NIL=
MRF NIL=
MRI NIL=
MRU NIL=
MRY NIL=
MSB NIL=
MSC NIL=
MSI NIL=
MSR NIL=
MSX NIL=
MTH SA 1100 AUTO8 M M M 167/23/21/1904/M/ 2005 94MM=
MWD NIL=
MYT NIL=
WDM NIL=
WHP NIL=
WQB NIL=

####018000905####
SAUK KAWN 081100 RRC
METAR EGDX 081050Z 26006KT 9999 FEW020 BKN100 19/10 Q1018 BLU=
METAR EGOS 081050Z 24010KT 9999 SCT032 18/09 Q1018 BLU NOSIG=
METAR EGQL 081050Z 24020KT 9999 FEW030 SCT060 18/08 Q1012 BLU NOSIG=
METAR EGUO 081050Z 21008KT 9999 FEW010 20/08 Q1019 BLU=
METAR EGXD 081050Z 24013KT 9999 FEW040 BKN150 20/09 Q1016 BLU NOSIG=
METAR EGXW 081050Z 25009KT 9999 FEW033 BKN120 BKN250 20/10 Q1017 BLU
      NOSIG=
METAR EGYD 081050Z 23012KT 9999 FEW040 SCT120 BKN250 20/09 Q1017 BLU
      NOSIG=
METAR EGYH 081050Z 24010KT 9999 FEW040 20/// Q1018 BLU=
METAR EICK 081100Z 21011KT 9999 -RA BKN012 BKN045 15/12 Q1016 NOSIG=
METAR EIDW 081100Z 22014KT 9999 FEW026 SCT050 BKN130 18/09 Q1015 NOSIG=
METAR EIKN 081100Z 23009KT 9999 FEW018CB SCT025 BKN045 14/10 Q1013
      NOSIG=
METAR EINN 081100Z 20008KT 160V220 9999 -RA FEW017 SCT025 BKN045 16/12
      Q1015 NOSIG=
####018000079####
SAIR34 OIII 081100 RRA
METAR OITZ 081100Z 09016KT CAVOK 38/01 Q1014 A2997=
####018000250####
SAEQ01 SEQU 081100
METAR
SEQU 081100Z 00000KT 9999 SCT100 09/07 Q1026 RMK A3032 NOSIG=
SEGU 081100Z 20005KT 9999 BKN030 23/19 Q1011 NOSIG=
SEMT 081100Z 17004KT 9999 BKN016 BKN100 22/20 Q1012=
SELT 081100Z VRB01KT 9999 FEW030 04/03 Q1032=
####018000088####
SABC40 FBSK 081100 RRB
METAR FBSK 081100Z 06008KT 9999 BKN020 19/08 Q1031 NOSIG=

####018000080####
SAIR33 OIII 081100 RRB
METAR OIHH 081050Z 22006KT CAVOK 39/M05 Q1014 A2997=
####018000085####
SAIR35 OIII 081100 RRA
METAR OIAD 081100Z 15006KT 4000 HZ SKC 47/21 Q0999 A2951=
####018002547####
SAUS20 KNKA 081107
METAR K0F2 081104Z AUTO 00000KT 10SM SCT050 SCT085 23/22 A3003 
     RMK AO2 LTG DSNT NE T02310218=
METAR K1H2 081105Z AUTO 00000KT 5SM BR CLR 24/23 A3004 RMK AO2 
     T02370228=
METAR K3LF 081103Z AUTO 00000KT 3SM BR BKN070 BKN080 23/22 A3004 
     RMK AO2=
METAR K3T5 081104Z AUTO 00000KT 7SM SCT008 SCT014 BKN031 25/24 
     A2992 RMK AO2 LTG DSNT SE T02540239=
METAR K6R3 081101Z AUTO 08003KT 7SM SCT055 SCT120 24/24 A2996 RMK 
     AO2 T02420242=
METAR KAAA 081103Z AUTO 00000KT 1 1/4SM BR SCT041 SCT120 23/22 
     A3004 RMK AO2 T02250218=
METAR KAJG 081105Z AUTO 00000KT 5SM BR CLR 22/21 A3005 RMK AO2 
     T02220213=
METAR KALN 081103Z AUTO 00000KT 5SM BR SCT037 BKN043 OVC055 25/24 
     A3004 RMK AO2 T02450241=
METAR KAPY 081103Z AUTO 35005KT 10SM BKN017 OVC025 26/25 A2985 
     RMK AO2 T02550245=
METAR KAQO 081105Z AUTO 00000KT 24/23 A3001 RMK AO2=
METAR KARM 081105Z AUTO 08007KT 10SM SCT017 SCT031 BKN110 26/24 
     A2991 RMK AO2 P0001 T02600241=
METAR KBBD 081105Z AUTO 00000KT 10SM FEW017 22/21 A3002 RMK=
METAR KBEA 081103Z AUTO 03008KT 10SM BKN006 BKN022 25/25 A2987 
     RMK AO2 LTG DSNT E T02470247=
METAR KBXK 081055Z AUTO 34003KT 9SM CLR 25/M01 A2977 RMK AO1 =
METAR KC09 081104Z AUTO 00000KT 1SM BR BKN049 BKN055 OVC065 21/21 
     A3002 RMK AO2=
METAR KCUL 081105Z AUTO 00000KT 4SM CLR 23/21 A3005 RMK AO2 
     T02250206=
METAR KDKB 081101Z AUTO 19005KT 1 1/4SM BR OVC002 22/21 A3003 RMK 
     AO2 T02150210=
METAR KGLE 081104Z AUTO 00000KT 10SM SCT022 SCT070 SCT100 26/23 
     A3005 RMK AO2=
METAR KGPM 081111Z AUTO 00000KT 7SM SCT018 SCT029 26/23 A3002 RMK 
     AO2=
METAR KHQZ 081106Z AUTO 10003KT 10SM SCT026 SCT100 24/23 A3002 
     RMK AO2=
METAR KIKK 081105Z AUTO 00000KT 3SM BR BKN085 25/23 A3003 RMK AO2=
METAR KJOT 081106Z AUTO 00000KT 2SM BR CLR 23/22 A3002 RMK AO2=
METAR KLOT 081101Z AUTO 15004KT 2SM BR SCT065 OVC075 23/22 A3002 
     RMK AO2=
METAR KOXI 081105Z AUTO 00000KT 2 1/2SM SCT075 OVC100 22/21 A3003 
     RMK AO1 T02180206=
METAR KOZA 081101Z AUTO 02003KT 10SM SCT120 22/21 A3006 RMK AO2 
     T02200213=
METAR KPAN 081115Z AUTO 08003KT 10SM CLR 21/04 A3013 RMK AO1 =
METAR KPPQ 081105Z AUTO 00000KT 7SM -RA CLR 23/22 A3005 RMK AO2 
     P0001=
METAR KPVW 081101Z AUTO 01006KT 10SM SCT120 18/16 A3014 RMK AO2=
METAR KRQO 081115Z AUTO 00000KT 1 1/4SM BR OVC001 23/23 A3007 RMK 
     AO2 LTG DSNT E=
METAR KSFY 081105Z AUTO 27003KT 5SM BR OVC009 23/21 A3003 RMK AO2=
####018000190####
SARE20 FMEE 081100
METAR
FMCZ 081105Z 14012KT 9999 SCT025 26/19 Q1017=
FMEE 081100Z 11023KT 9999 FEW023 24/17 Q1020 TEMPO 13028G38KT=
FMEP 081100Z 12027KT 9999 FEW013 24/16 Q1020=
####018001579####
SAUS90 KWBC 081100 RRE
METAR KABE 081051Z 09006KT 5SM HZ CLR 24/21 A3004=
METAR KALB 081051Z 00000KT 4SM HZ FEW080 24/22 A3004=
METAR KART 081056Z AUTO 00000KT 6SM HZ CLR 24/21 A3003=
METAR KAVP 081054Z 00000KT 4SM HZ CLR 21/18 A3008=
METAR KBDL 081051Z 15004KT 5SM HZ BKN010 BKN100 24/22 A3006=
METAR KBDR 081052Z 11004KT 2 1/2SM BR OVC004 25/23 A3005=
METAR KBTV 081054Z 00000KT 5SM HZ CLR 24/22 A3002=
METAR KBUF 081054Z 18004KT 7SM FEW090 23/19 A3005=
METAR KCAE 081056Z 00000KT 10SM CLR 24/19 A2998=
METAR KCAK 081051Z 00000KT 4SM BR CLR 21/19 A3010=
METAR KCMH 081051Z 00000KT 6SM BR SCT065 22/20 A3008=
METAR KCRQ 081053Z AUTO 00000KT 10SM OVC011 17/13 A2988=
METAR KCRW 081054Z 00000KT 2SM BR FEW001 21/19 A3010=
METAR KDAY 081056Z 00000KT 4SM HZ CLR 22/19 A3010=
METAR KERI 081051Z 18005KT 6SM HZ CLR 22/18 A3007=
METAR KGSO 081054Z 02004KT 6SM HZ FEW095 25/18 A3003=
METAR KGSP 081053Z 00000KT 10SM CLR 22/19 A3003=
METAR KHTS 081051Z AUTO 00000KT 1SM BR CLR 21/20 A3009=
METAR KHUL 081053Z AUTO 21006KT 4SM BR SCT009 21/19 A3004=
METAR KIAG 081053Z AUTO 20004KT 5SM HZ CLR 24/21 A3005=
METAR KILG 081051Z 00000KT 2SM BR CLR 25/23 A3002=
METAR KILM 081053Z 00000KT 9SM CLR 24/20 A2992=
METAR KMSS 081053Z AUTO 23005KT 5SM HZ FEW060 24/21 A3002=
METAR KORH 081054Z 16006KT 3SM BR OVC004 22/22 A3011=
METAR KPVD 081051Z 13005KT 5SM BR BKN004 OVC009 22/21 A3010=
METAR KPWM 081051Z 19007KT 9SM OVC006 22/20 A3009=
METAR KROC 081054Z 22005KT 7SM SCT080 23/20 A3006=
METAR KSYR 081054Z 00000KT 10SM CLR 24/21 A3004=
####018000088####
SAUS90 KWBC 081100 CCE
METAR KRIC 081054Z 10006KT 4SM HZ SCT150 BKN250 26/21 A2999=
####018000150####
SACN44 CWAO 081100 CCA
METAR CYSR 081100Z CCA 25006KT 40SM FEW050 FEW120 SCT230 09/03 A2981
RMK SC2AC1CI1 13.3/9.0/0.0/0/SNW CVR NIL SLP126=

####018000295####
SANZ31 NZKL 081100

METAR NZAA 081100Z 21007KT 9999 FEW025 09/07 Q1011 NOSIG=
METAR NZWN 081100Z 20029KT 9999 -RADZ FEW015 SCT030 BKN037 09/05
         Q1013 WS R16 TEMPO 6000 SHRA =
METAR NZCH 081100Z 23012KT 9999 -SHRA FEW014 SCT035 BKN048 06/04
         Q1016 TEMPO 6000 SHRA =
####018000378####
SAUS20 KNKA 081107
SPECI KAQW 081106Z AUTO 00000KT 3SM BR CLR 21/19 A3007 RMK AO2=
SPECI KCEW 081105Z AUTO 00000KT 2 1/2SM BR CLR 20/20 A3004 RMK AO2=
SPECI KDMO 081106Z AUTO 00000KT 1 3/4SM BR SCT001 BKN011 23/22 A3005 
    RMK AO2=
SPECI KMPV 081106Z AUTO 00000KT 3SM BR CLR 22/20 A3012 RMK AO2=
SPECI KPNE 081106Z 12003KT 1 3/4SM BR BKN004 24/23 A3004 RMK AO2=
####018000069####
SABC40 FBSK 081100
METAR FBMN 081100Z 09012KT CAVOK 23/06 Q1027=
####018000088####
SANI20 DNMM 081030 RRA
METAR DNMM 081030Z 25005KT 9999 BKN012 28/25 Q1015 NOSIG=

####018000110####
SAUS46 KSGX 081107
MTRNXF
SPECI KNXF 081106Z AUTO 33005KT 8SM BKN011 OVC016 16/13 A2989 RMK 
AO2 TSNO
####018002352####
SAUS99 KWBC 081108
METAR
K0F2 081104Z AUTO 00000KT 10SM SCT050 SCT085 23/22 A3003 RMK AO2
     LTG DSNT NE T02310218=
K1H2 081105Z AUTO 00000KT 5SM BR CLR 24/23 A3004 RMK AO2
     T02370228=
K3LF 081103Z AUTO 00000KT 3SM BR BKN070 BKN080 23/22 A3004 RMK
     AO2=
K3T5 081104Z AUTO 00000KT 7SM SCT008 SCT014 BKN031 25/24 A2992 RMK
     AO2 LTG DSNT SE T02540239=
K6R3 081101Z AUTO 08003KT 7SM SCT055 SCT120 24/24 A2996 RMK AO2
     T02420242=
KAAA 081103Z AUTO 00000KT 1 1/4SM BR SCT041 SCT120 23/22 A3004 RMK
     AO2 T02250218=
KAJG 081105Z AUTO 00000KT 5SM BR CLR 22/21 A3005 RMK AO2
     T02220213=
KALN 081103Z AUTO 00000KT 5SM BR SCT037 BKN043 OVC055 25/24 A3004
     RMK AO2 T02450241=
KAPY 081103Z AUTO 35005KT 10SM BKN017 OVC025 26/25 A2985 RMK AO2
     T02550245=
KAQO 081105Z AUTO 00000KT 24/23 A3001 RMK AO2=
KARM 081105Z AUTO 08007KT 10SM SCT017 SCT031 BKN110 26/24 A2991
     RMK AO2 P0001 T02600241=
KBBD 081105Z AUTO 00000KT 10SM FEW017 22/21 A3002 RMK=
KBEA 081103Z AUTO 03008KT 10SM BKN006 BKN022 25/25 A2987 RMK AO2
     LTG DSNT E T02470247=
KBXK 081055Z AUTO 34003KT 9SM CLR 25/M01 A2977 RMK AO1=
KC09 081104Z AUTO 00000KT 1SM BR BKN049 BKN055 OVC065 21/21 A3002
     RMK AO2=
KCUL 081105Z AUTO 00000KT 4SM CLR 23/21 A3005 RMK AO2
     T02250206=
KDKB 081101Z AUTO 19005KT 1 1/4SM BR OVC002 22/21 A3003 RMK AO2
     T02150210=
KGLE 081104Z AUTO 00000KT 10SM SCT022 SCT070 SCT100 26/23 A3005
     RMK AO2=
KGPM 081111Z AUTO 00000KT 7SM SCT018 SCT029 26/23 A3002 RMK
     AO2=
KHQZ 081106Z AUTO 10003KT 10SM SCT026 SCT100 24/23 A3002 RMK
     AO2=
KIKK 081105Z AUTO 00000KT 3SM BR BKN085 25/23 A3003 RMK AO2=
KJOT 081106Z AUTO 00000KT 2SM BR CLR 23/22 A3002 RMK AO2=
KLOT 081101Z AUTO 15004KT 2SM BR SCT065 OVC075 23/22 A3002 RMK
     AO2=
KOXI 081105Z AUTO 00000KT 2 1/2SM SCT075 OVC100 22/21 A3003 RMK
     AO1 T02180206=
KOZA 081101Z AUTO 02003KT 10SM SCT120 22/21 A3006 RMK AO2
     T02200213=
KPAN 081115Z AUTO 08003KT 10SM CLR 21/04 A3013 RMK AO1=
KPPQ 081105Z AUTO 00000KT 7SM -RA CLR 23/22 A3005 RMK AO2
     P0001=
KPVW 081101Z AUTO 01006KT 10SM SCT120 18/16 A3014 RMK AO2=
KRQO 081115Z AUTO 00000KT 1 1/4SM BR OVC001 23/23 A3007 RMK AO2
     LTG DSNT E=
KSFY 081105Z AUTO 27003KT 5SM BR OVC009 23/21 A3003 RMK AO2=
####018000356####
SPUS99 KWBC 081108
SPECI
KAQW 081106Z AUTO 00000KT 3SM BR CLR 21/19 A3007 RMK AO2=
KCEW 081105Z AUTO 00000KT 2 1/2SM BR CLR 20/20 A3004 RMK AO2=
KDMO 081106Z AUTO 00000KT 1 3/4SM BR SCT001 BKN011 23/22 A3005 RMK
     AO2=
KMPV 081106Z AUTO 00000KT 3SM BR CLR 22/20 A3012 RMK AO2=
KPNE 081106Z 12003KT 1 3/4SM BR BKN004 24/23 A3004 RMK AO2=
####018000303####
SAPL32 EPWA 081100
METAR EPKT 081100Z 31007KT CAVOK 22/09 Q1023=
METAR EPLL 081100Z VRB02KT CAVOK 22/06 Q1022=
METAR EPSC 081100Z 17003KT CAVOK 24/11 Q1022=
METAR EPWR 081100Z VRB04KT CAVOK 24/09 Q1023=
METAR EPBY 081100Z VRB03KT CAVOK 24/08 Q1022=
METAR EPZG 081100Z 17004KT CAVOK 25/07 Q1022=
####018000207####
SANZ31 NZKL 081100

METAR NZAA 081100Z 21007KT 9999 FEW025 09/07 Q1011 NOSIG=
METAR NZWN 081100Z 20029KT 9999 -RADZ FEW015 SCT030 BKN037 09/05
         Q1013 
CHECK
TEXT
NEW ENDING ADDED YBBBYFYX
####018000088####
SAMG20 FMMI 081100
METAR FMMI 081100Z 11010KT 080V150 9999 BKN020 19/12 Q1025 NOSIG=
####018001197####
SACN86 KWBC 081108
CTAE RMK NIL=
CTAL RMK NIL=
CTCK RMK NIL=
CTCW RMK NIL=
CTWN RMK NIL=
CWAJ RMK NIL=
CWBE RMK NIL=
CWLS RMK NIL=
CWNB RMK NIL=
CWNL RMK NIL=
CWPC RMK NIL=
CWPS RMK NIL=
CWWX RMK NIL=
CWBE RMK NIL=
CWCU RMK NIL=
CWNL RMK NIL=
CWPO RMK NIL=
CWPS RMK NIL=
CWSI RMK NIL=
CWWX RMK NIL=
CWWZ RMK NIL=
CTCK RMK NIL=
CTCW RMK NIL=
CTWN RMK NIL=
CWAJ RMK NIL=
CWBE RMK NIL=
CWLS RMK NIL=
CWNB RMK NIL=
CWNL RMK NIL=
CWPC RMK NIL=
CWPS RMK NIL=
CWWX RMK NIL=
CTCK RMK NIL=
CTCW RMK NIL=
CTWN RMK NIL=
CWAJ RMK NIL=
CWBE RMK NIL=
CWLS RMK NIL=
CWNB RMK NIL=
CWNL RMK NIL=
CWPC RMK NIL=
CWPS RMK NIL=
CWWX RMK NIL=
CTWN RMK NIL=
CWAJ RMK NIL=
CWBE RMK NIL=
CWLS RMK NIL=
CWNB RMK NIL=
CWNL RMK NIL=
CWPC RMK NIL=
CWPS RMK NIL=
CWWX RMK NIL=
METAR CWWB 081100Z AUTO 23004KT 24/21 RMK AO1 SLP163 T02420210
53004=
CWNC RMK NIL=
CWNZ RMK NIL=
METAR CWWB 081100Z AUTO 23004KT 24/21 RMK AO1 SLP163 T02420210
53004=
METAR CWDQ 081100Z AUTO 19001KT 21/20 RMK AO1 SLP157 T02140200
53004=
METAR CWDV 081100Z AUTO 23003KT 14/13 RMK AO1 SLP156 T01380134
56003=
CWHP RMK NIL=
####018000714####
SACN92 KWBC 081108
CWJI RMK NIL=
CWJM RMK NIL=
CWJO RMK NIL=
CWJR RMK NIL=
CWJT RMK NIL=
CWJU RMK NIL=
METAR CWJV 081100Z AUTO 10007KT 15/08 RMK AO1 SLP179 T01470081
51009=
CWJW RMK NIL=
CWJX RMK NIL=
CWKD RMK NIL=
CWKG RMK NIL=
METAR CWKH 081100Z AUTO 22/ RMK AO1 T0217=
CWKX RMK NIL=
METAR CWLC 081100Z AUTO 27012KT 15/ RMK AO1 T0146=
CWLE RMK NIL=
METAR CWLM 081100Z AUTO 02004KT 19/10 RMK AO1 T01910102=
CWLU RMK NIL=
METAR CWMJ 081100Z AUTO 15001KT 21/20 RMK AO1 SLP163 T02100202
52004=
METAR CWMM 081100Z AUTO 00000KT 15/13 RMK AO1 SLP152 T01480126
52006=
CWMQ RMK NIL=
METAR CWMM 081100Z AUTO 00000KT 15/13 RMK AO1 SLP152 T01480126
52006=
CWMQ RMK NIL=
####018000068####
SABZ23 SBCB 081100
METAR SBCB 081100Z 05004KT CAVOK 21/15 Q1018=
####018000410####
SACN88 KWBC 081108
METAR CAHR 081100Z AUTO 22011KT 20/18 RMK AO1 PK WND 22017/1046
SLP184 T02020180 52005=
METAR CERM 081100Z AUTO 13001KT 23/22 RMK AO1 2007 SLP157
T02280216 50003=
CWAR RMK NIL=
CWBK RMK NIL=
CWDA RMK NIL=
CWXI RMK NIL=
CWZN RMK NIL=
CXNP RMK NIL=
CZCR RMK NIL=
CZDB RMK NIL=
METAR CZSP 081100Z AUTO 21008KT 21/18 RMK AO1 SLP177 T02100177
53005=
CWBK RMK NIL=
####018000551####
SACN93 KWBC 081108
CWMZ RMK NIL=
METAR CWNE 081100Z AUTO 23014KT 21/18 RMK AO1 PK WND 23018/1017
SLP168 T02120180 51008=
CWNK RMK NIL=
CWNM RMK NIL=
METAR CWNP 081100Z AUTO 07001KT 13/10 RMK AO1 SLP191 T01290101
53010=
CWNQ RMK NIL=
CWNX RMK NIL=
CWOC RMK NIL=
CWOD RMK NIL=
CWOE RMK NIL=
CWOQ RMK NIL=
CWPB RMK NIL=
CWPD RMK NIL=
METAR CWPE 081100Z AUTO 18005KT 13/13 RMK AO1 SLP205 T01290126
53015=
CWPF RMK NIL=
METAR CWPR 081100Z AUTO 00000KT 12/ RMK AO1 SLP195 T0116 51010=
CWPZ RMK NIL=
CWQA RMK NIL=
####018000087####
SAMR20 TFFF 081100
METAR TFFF 081105Z 08011KT 9999 FEW020 SCT026 29/24 Q1014 NOSIG=
####018000116####
SACN96 KWBC 081108 CCA
METAR CXHM 081100Z AUTO 26002KT 24/21 RMK AO1 T02360205=
CXKA RMK NIL=
CXKE RMK NIL=
####018000321####
SACN87 KWBC 081108 CCA
METAR CWDC 081100Z AUTO 06001KT 08/07 RMK AO1 SLP134 T00780068
50000=
METAR CWEH 081100Z AUTO 13007KT 10/06 RMK AO1 SLP216 T00950061
52001=
METAR CWKO 081100Z AUTO 29005KT 11/08 RMK AO1 SLP217 T01080081
53005=
METAR CWOY 081100Z AUTO 28005KT 09/07 RMK AO1 SLP201 T00930071
53005=
####018000757####
SAUR30 UKMS 081100
METAR UKBB 081100Z 31004MPS 270V360 9999 FEW030
         BKN040 25/18 Q1014    88CLRD95 NOSIG=
METAR UKHH NIL=
METAR UKOO 081100Z 33003MPS 300V020 CAVOK 27/15 Q1014
          34090070 NOSIG=
METAR UKDE 081100Z 25002MPS 190V320 9999 SCT050 29/17
          Q1014 20CLRD70 NOSIG=
METAR UKDD 081100Z VRB02MPS 9999 SCT033CB BKN200
         29/18  Q1014 08090070 TEMPO VRB10G15MPS -TSRA
         SQ BKN020CB=
METAR UKFF 081100Z 03003MPS 350V060 CAVOK 28/16 Q1013
          01010070 NOSIG=
METAR UKLL 081100Z 33004MPS 250V030 CAVOK 19/11 Q1021
          31210365 NOSIG=
METAR UKCC 081100Z VRB02MPS CAVOK 30/16 Q1014
         08090070 NOSIG=
METAR UKDR 081100Z 00000MPS 9999 BKN033 OVC200 29/18
         Q1013 1809//70 NOSIG=
####018000095####
SAMR20 TFFF 081100 CCA
METAR COR TFFF 081106Z 08010KT 9999 FEW020 SCT026 29/24 Q1014 NOSIG=
####018001077####
SACN87 KWBC 081108
METAR CWEK 081100Z AUTO 16006KT 13/ RMK AO1 SLP168 T0126 53010=
METAR CWEQ 081100Z AUTO 23005KT 09/08 RMK AO1 SLP174 T00890078
53005=
CWJD RMK NIL=
METAR CWLP 081100Z AUTO 33002KT 13/12 RMK AO1 SLP169 T01250118
51005=
CWPU RMK NIL=
CWRO RMK NIL=
CWWL RMK NIL=
CWWS RMK NIL=
CWZG RMK NIL=
CWME RMK NIL=
METAR CWDC 081100Z AUTO 06001KT 08/07 RMK AO1 SLP134 T00780068
50000=
METAR CWEH 081100Z AUTO 13007KT 10/06 RMK AO1 SLP216 T00950061
52001=
METAR CWKO 081100Z AUTO 29005KT 11/08 RMK AO1 SLP217 T01080081
53005=
METAR CWOY 081100Z AUTO 28005KT 09/07 RMK AO1 SLP201 T00930071
53005=
METAR CWCT 081100Z AUTO 26006KT 10/08 RMK AO1 SLP214 T00980082
57004=
CWLB RMK NIL=
METAR CWVT 081100Z AUTO 00000KT 13/09 RMK AO1 SLP166 T01300090
57003=
METAR CWZW 081100Z AUTO 02001KT 08/05 RMK AO1 SLP224 T00780045
51004=
METAR CWZW 081100Z AUTO 02001KT 08/05 RMK AO1 SLP224 T00780045
51004=
METAR CWZW 081100Z AUTO 02001KT 08/05 RMK AO1 SLP224 T00780045
51004=
CWQS RMK NIL=
CWRM RMK NIL=
CWRU RMK NIL=
####018000041####
SACN97 KWBC 081108 CCA
CXBK RMK NIL=
####018000773####
SACN85 KWBC 081108
METAR CWBV 081100Z AUTO 23011KT 15/15 RMK AO1 SLP219 T01480146
53008=
CWDO RMK NIL=
CWHO RMK NIL=
METAR CWRN 081100Z AUTO 22009KT 16/16 RMK AO1 SLP207 T01630159
53008=
CWSS RMK NIL=
CWWE RMK NIL=
CWNH RMK NIL=
CWWE RMK NIL=
CWBY RMK NIL=
CWRA RMK NIL=
METAR CWSF 081100Z AUTO 29004KT 13/13 RMK AO1 SLP171 T01250125
51007=
METAR CWSF 081100Z AUTO 29004KT 13/13 RMK AO1 SLP171 T01250125
51007=
CWHO RMK NIL=
METAR CWPK 081100Z AUTO 31001KT 18/ RMK AO1 SLP170 T0178 55000=
CWWE RMK NIL=
CYGS RMK NIL=
METAR CWSF 081100Z AUTO 29004KT 13/13 RMK AO1 SLP171 T01250125
51007=
CWEF RMK NIL=
METAR CWEP 081100Z AUTO 21013KT 19/18 RMK AO1 PK WND 20017/1059
SLP183 T01870182 53006=
CWER RMK NIL=
CWDM RMK NIL=
####018000819####
SACN95 KWBC 081108
CWTA RMK NIL=
METAR CWTG 081100Z AUTO 04013KT 13/ RMK AO1 PK WND 04017/1024
SLP168 T0125 53007=
CWTN RMK NIL=
CWTT RMK NIL=
CWTY RMK NIL=
CWUS RMK NIL=
METAR CWUX 081100Z AUTO 04001KT 19/19 RMK AO1 SLP152 T01940191
53003=
METAR CWVF 081100Z AUTO 10003KT 20/ RMK AO1 T0197=
CWVI RMK NIL=
CWVN RMK NIL=
CWVP RMK NIL=
METAR CWVQ 081100Z AUTO 26004KT 25/22 RMK AO1 T02470222=
CWVU RMK NIL=
METAR CWVV 081100Z AUTO 32002KT 19/07 RMK AO1 SLP152 T01900070
51004=
CWVZ RMK NIL=
METAR CWWA 081100Z AUTO 01003KT 20/09 RMK AO1 SLP150 T01950090
51010=
CWWF RMK NIL=
CWWK RMK NIL=
CWXA RMK NIL=
CWXC RMK NIL=
METAR CWWA 081100Z AUTO 01003KT 20/09 RMK AO1 SLP150 T01950090
51010=
CWWF RMK NIL=
CWWK RMK NIL=
CWXA RMK NIL=
CWXC RMK NIL=
CWXC RMK NIL=
####018000779####
SACN78 KWBC 081108
CTNK RMK NIL=
METAR CTRA 081100Z AUTO 25004KT 14/13 RMK AO1 SLP147 T01430130
53003=
CWKK RMK NIL=
CXBI RMK NIL=
CXZC RMK NIL=
METAR CZEL 081100Z AUTO 08002KT 22/21 RMK AO1 SLP177 T02200207
57002=
CTNK RMK NIL=
METAR CTRA 081100Z AUTO 25004KT 14/13 RMK AO1 SLP147 T01430130
53003=
CWKK RMK NIL=
CXBI RMK NIL=
CXZC RMK NIL=
METAR CZEL 081100Z AUTO 08002KT 22/21 RMK AO1 SLP177 T02200207
57002=
CTNK RMK NIL=
METAR CTRA 081100Z AUTO 25004KT 14/13 RMK AO1 SLP147 T01430130
53003=
CWKK RMK NIL=
CXBI RMK NIL=
CXZC RMK NIL=
METAR CZEL 081100Z AUTO 08002KT 22/21 RMK AO1 SLP177 T02200207
57002=
CWKK RMK NIL=
CXBI RMK NIL=
CXZC RMK NIL=
METAR CZEL 081100Z AUTO 08002KT 22/21 RMK AO1 SLP177 T02200207
57002=
####018002566####
SACN97 KWBC 081108
CXKT RMK NIL=
CXBK RMK NIL=
CXAT RMK NIL=
CXBK RMK NIL=
CXBO RMK NIL=
METAR CXCA 081100Z AUTO 03001KT 16/16 RMK AO1 6004 SLP147
T01630161 50012=
METAR CXCH 081100Z AUTO 21/19 RMK AO1 T02080185=
METAR CXCK 081100Z AUTO 35001KT 09/ RMK AO1 T0090=
CXDE RMK NIL=
CXDI RMK NIL=
CXDW RMK NIL=
CXEA RMK NIL=
CXEC RMK NIL=
CXEG RMK NIL=
CXET RMK NIL=
CXGH RMK NIL=
CXHA RMK NIL=
METAR CXHF 081100Z AUTO 21/19 RMK AO1 T02130190=
METAR CXIB 081100Z AUTO 26008KT 24/16 RMK AO1 SLP179 T02360163
53004=
CXLC RMK NIL=
CXLL RMK NIL=
CXMD RMK NIL=
METAR CXMI 081100Z AUTO 19007KT 19/18 RMK AO1 SLP213 T01920179
52005=
CXMM RMK NIL=
CXMY RMK NIL=
CXNM RMK NIL=
METAR CXOX 081100Z AUTO 23003KT 13/09 RMK AO1 SLP152 T01270093
57007=
CXPV RMK NIL=
CXQA RMK NIL=
CXQT RMK NIL=
METAR CXRH 081100Z AUTO 15007KT 15/13 RMK AO1 T01460127=
CXSH RMK NIL=
METAR CXSR 081100Z AUTO 15/08 RMK AO1 SLP178 T01490082 55000=
METAR CXSW 081100Z AUTO 20002KT 09/07 RMK AO1 T00870074=
CXTN RMK NIL=
CXTP RMK NIL=
CXTV RMK NIL=
CXWN RMK NIL=
METAR CXZU 081100Z AUTO 32002KT 11/09 RMK AO1 SLP188 T01120087
55000=
CXSH RMK NIL=
METAR CXSR 081100Z AUTO 15/08 RMK AO1 SLP178 T01490082 55000=
METAR CXSW 081100Z AUTO 20002KT 09/07 RMK AO1 T00870074=
CXTN RMK NIL=
CXTP RMK NIL=
CXTV RMK NIL=
CXWN RMK NIL=
METAR CXZU 081100Z AUTO 32002KT 11/09 RMK AO1 SLP188 T01120087
55000=
CXSH RMK NIL=
METAR CXSR 081100Z AUTO 15/08 RMK AO1 SLP178 T01490082 55000=
METAR CXSW 081100Z AUTO 20002KT 09/07 RMK AO1 T00870074=
CXTN RMK NIL=
CXTP RMK NIL=
CXTV RMK NIL=
CXWN RMK NIL=
METAR CXZU 081100Z AUTO 32002KT 11/09 RMK AO1 SLP188 T01120087
55000=
CXSH RMK NIL=
METAR CXSR 081100Z AUTO 15/08 RMK AO1 SLP178 T01490082 55000=
METAR CXSW 081100Z AUTO 20002KT 09/07 RMK AO1 T00870074=
CXTN RMK NIL=
CXTP RMK NIL=
CXTV RMK NIL=
CXWN RMK NIL=
METAR CXZU 081100Z AUTO 32002KT 11/09 RMK AO1 SLP188 T01120087
55000=
CXSH RMK NIL=
METAR CXSR 081100Z AUTO 15/08 RMK AO1 SLP178 T01490082 55000=
METAR CXSW 081100Z AUTO 20002KT 09/07 RMK AO1 T00870074=
CXTN RMK NIL=
CXTP RMK NIL=
CXTV RMK NIL=
CXWN RMK NIL=
METAR CXZU 081100Z AUTO 32002KT 11/09 RMK AO1 SLP188 T01120087
55000=
CXSH RMK NIL=
METAR CXSR 081100Z AUTO 15/08 RMK AO1 SLP178 T01490082 55000=
METAR CXSW 081100Z AUTO 20002KT 09/07 RMK AO1 T00870074=
CXTN RMK NIL=
CXTP RMK NIL=
CXTV RMK NIL=
CXWN RMK NIL=
METAR CXZU 081100Z AUTO 32002KT 11/09 RMK AO1 SLP188 T01120087
55000=
####018000115####
SACN92 KWBC 081108 CCA
METAR CWMM 081100Z AUTO 00000KT 15/13 RMK AO1 SLP152 T01480126
52006=
CWMQ RMK NIL=
####018001045####
SACN91 KWBC 081108
CWGR RMK NIL=
METAR CWGT 081100Z AUTO 33010KT 20/15 RMK AO1 SLP147 T01990145
51010=
METAR CWGW 081100Z AUTO 02004KT 07/06 RMK AO1 SLP238 T00670062
53004=
CWGX RMK NIL=
METAR CWGY 081100Z AUTO 25007KT 11/10 RMK AO1 SLP215 T01090095
50000=
CWHA RMK NIL=
CWHD RMK NIL=
CWHI RMK NIL=
METAR CWHL 081100Z AUTO 28003KT 14/ RMK AO1 SLP171 T0138 53003=
CWHM RMK NIL=
METAR CWHQ 081100Z AUTO 12004KT 20/19 RMK AO1 T02030190=
METAR CWHT 081100Z AUTO 07002KT 05/02 RMK AO1 SLP217 T00480023
58001=
METAR CWHV 081100Z AUTO 11003KT 23/22 RMK AO1 SLP162 T02340215
51006=
CWID RMK NIL=
CWIG RMK NIL=
CWII RMK NIL=
CWIJ RMK NIL=
CWIN RMK NIL=
CWIO RMK NIL=
CWIP RMK NIL=
CWIS RMK NIL=
METAR CWIT 081100Z AUTO 25001KT 25/21 RMK AO1 T02480209=
CWIW RMK NIL=
CWIX RMK NIL=
CWIY RMK NIL=
METAR CWIZ 081100Z AUTO 21003KT 25/22 RMK AO1 T02520221=
METAR CWJB 081100Z AUTO 07005KT 19/17 RMK AO1 T01880174=
METAR CWJC 081100Z AUTO 08/08 RMK AO1 SLP047 T00800077 56006=
CWJH RMK NIL=
####018000718####
SACN89 KWBC 081108
CWAF RMK NIL=
METAR CWAQ 081100Z AUTO 35003KT 09/09 RMK AO1 T00930085=
CWAV RMK NIL=
METAR CWBA 081100Z AUTO 19004KT 20/20 RMK AO1 T02040199=
CWBG RMK NIL=
CWBO RMK NIL=
METAR CWBS 081100Z AUTO 21004KT 24/22 RMK AO1 T02400217=
METAR CWBT 081100Z AUTO 10003KT 14/14 RMK AO1 SLP173 T01380138
50000=
METAR CWBZ 081100Z AUTO 24003KT 25/22 RMK AO1 SLP156 T02530222
52004=
CWCF RMK NIL=
CWCG RMK NIL=
CWCI RMK NIL=
CWCJ RMK NIL=
CWCO RMK NIL=
CWCQ RMK NIL=
CWDD RMK NIL=
CWDF RMK NIL=
METAR CWDJ 081100Z AUTO 36005KT 10/08 RMK AO1 SLP204 T00980081
53006=
CWDK RMK NIL=
CWDT RMK NIL=
METAR CWDZ 081100Z AUTO 16003KT 10/08 RMK AO1 SLP205 T00970081
56003=
####018001110####
SACN94 KWBC 081108
CWND RMK NIL=
CWQH RMK NIL=
METAR CWQK 081100Z AUTO RMK AO1 =
CWQO RMK NIL=
METAR CWQP 081100Z AUTO 20004KT 23/21 RMK AO1 SLP166 T02310214
51006=
CWQR RMK NIL=
CWQV RMK NIL=
CWRJ RMK NIL=
METAR CWRK 081100Z AUTO 00000KT 20/ RMK AO1 SLP174 T0196 52001=
METAR CWRT 081100Z AUTO 00000KT 04/04 RMK AO1 T00380038=
CWRY RMK NIL=
CWRZ RMK NIL=
METAR CWSD 081100Z AUTO 22011KT 19/17 RMK AO1 SLP177 T01910174
50005=
CWSG RMK NIL=
METAR CWSK 081100Z AUTO 03002KT 15/11 RMK AO1 SLP163 T01530105
51009=
CWSL RMK NIL=
METAR CWSP 081100Z AUTO 16/ RMK AO1 SLP150 T0158 51003=
CWSR RMK NIL=
CWST RMK NIL=
CWSG RMK NIL=
METAR CWSK 081100Z AUTO 03002KT 15/11 RMK AO1 SLP163 T01530105
51009=
CWSL RMK NIL=
METAR CWSP 081100Z AUTO 16/ RMK AO1 SLP150 T0158 51003=
CWSR RMK NIL=
CWST RMK NIL=
CWSG RMK NIL=
METAR CWSK 081100Z AUTO 03002KT 15/11 RMK AO1 SLP163 T01530105
51009=
CWSL RMK NIL=
METAR CWSP 081100Z AUTO 16/ RMK AO1 SLP150 T0158 51003=
CWSR RMK NIL=
CWST RMK NIL=
CWSR RMK NIL=
CWST RMK NIL=
CWSR RMK NIL=
CWST RMK NIL=
####018000632####
SACN90 KWBC 081108
METAR CWEB 081100Z AUTO 31003KT 16/13 RMK AO1 SLP147 T01560127
52002=
CWEE RMK NIL=
METAR CWEL 081100Z AUTO 29006KT 20/13 RMK AO1 T01970133=
CWEW RMK NIL=
METAR CWEZ 081100Z AUTO 31003KT 19/14 RMK AO1 SLP149 T01940136
53008=
CWFF RMK NIL=
CWFJ RMK NIL=
CWFQ RMK NIL=
METAR CWGB 081100Z AUTO 25009KT 21/13 RMK AO1 SLP148 T02110125
51010=
CWGD RMK NIL=
CWGH RMK NIL=
CWGL RMK NIL=
CWGM RMK NIL=
CWFF RMK NIL=
CWFJ RMK NIL=
CWFQ RMK NIL=
METAR CWGB 081100Z AUTO 25009KT 21/13 RMK AO1 SLP148 T02110125
51010=
CWGD RMK NIL=
CWGH RMK NIL=
CWGL RMK NIL=
CWGM RMK NIL=
####018000091####
SACN86 KWBC 081108 CCA
METAR CWDV 081100Z AUTO 23003KT 14/13 RMK AO1 PRESRR T01380134=
####018000103####
SAUK51 EGGY 081050 RRB
METAR EGYD 081050Z 23012KT 9999 FEW040 SCT120 BKN250 20/09 Q1017
    NOSIG=
####018000821####
SACI31 ZBBB 081100
METAR ZBAA 081100Z 18006G12MPS 160V220 CAVOK 34/11 Q1003 NOSIG=
METAR ZBSJ 081100Z 17004MPS CAVOK 31/19 Q1004 NOSIG=
METAR ZBTJ 081100Z 16006MPS CAVOK 29/17 Q1005 NOSIG=
METAR ZBYN 081100Z 10005MPS CAVOK 29/14 Q1008 NOSIG=
METAR ZGGG 081100Z 14005MPS 9999 FEW050TCU SCT050 33/26 Q1004 NOSIG=
METAR ZSHC 081100Z 00000MPS 8000 -SHRA BKN020 FEW033CB 26/24 Q1005
 TEMPO -TSRA
 FEW033CB=
METAR ZSPD 081100Z 11006MPS 070V130 9999 BKN009 26/24 Q1006 NOSIG=
METAR ZSSS 081100Z 11005G10MPS 070V140 9999 BKN016 27/23 Q1005 BECMG
 BKN011
 OVC040=
METAR ZWSH 081100Z 18003MPS 100V220 CAVOK 32/02 Q1012 NOSIG=
METAR ZWWW 081100Z 29002MPS 9999 FEW040CB 31/10 Q1011 NOSIG=
METAR ZYTL 081100Z 25002MPS 210V270 9999 SCT033 26/18 Q1006 NOSIG=
METAR ZYTX 081100Z VRB01MPS 9999 FEW030 22/19 Q1007 NOSIG=
####018000953####
SACN96 KWBC 081108
CWXL RMK NIL=
CWYJ RMK NIL=
METAR CWYL 081100Z AUTO 06004KT 04/02 RMK AO1 T00360019=
CWYY RMK NIL=
CWZA RMK NIL=
CWZL RMK NIL=
METAR CWZO 081100Z AUTO 31002KT RMK AO1 =
CWZQ RMK NIL=
CWZS RMK NIL=
CWZV RMK NIL=
METAR CXHM 081100Z AUTO 26002KT 24/21 RMK AO1 T02360205=
CXKA RMK NIL=
CXKE RMK NIL=
METAR CXHM 081100Z AUTO 26002KT 24/21 RMK AO1 T02360205=
CXKA RMK NIL=
CXKE RMK NIL=
METAR CXHM 081100Z AUTO 26002KT 24/21 RMK AO1 T02360205=
CXKA RMK NIL=
CXKE RMK NIL=
METAR CXHM 081100Z AUTO 26002KT 24/21 RMK AO1 T02360205=
CXKA RMK NIL=
CXKE RMK NIL=
METAR CXHM 081100Z AUTO 26002KT 24/21 RMK AO1 T02360205=
CXKA RMK NIL=
CXKE RMK NIL=
METAR CXHM 081100Z AUTO 26002KT 24/21 RMK AO1 T02360205=
CXKA RMK NIL=
CXKE RMK NIL=
METAR CXHM 081100Z AUTO 26002KT 24/21 RMK AO1 T02360205=
CXKA RMK NIL=
CXKE RMK NIL=
CXKA RMK NIL=
CXKE RMK NIL=
CXKA RMK NIL=
CXKE RMK NIL=
####018000079####
SAGL41 BGSF 081050 CCA
METAR COR BGUK 081050Z 15003KT 9999 SKC 06/03 Q1010=
####018000299####
SAXX60 KWBC 081100 RRG
METAR
K79J 081056Z AUTO 00000KT 10SM CLR 23/21 A3003 RMK AO2 SLP163
     T02330206 TSNO $=
KNEL 081100Z AUTO 11006KT 2 1/2SM HZ OVC005 25/22 A3003 RMK AO2
     SLP168 T02500222 $=
TTPP 081100Z 00000KT 9000 FEW006 FEW010CB BKN036 BKN080 25/24
     Q1011 NOSIG=
####018000114####
SAXX60 KWBC 081108
METAR
KAPY 081103Z AUTO 35005KT 10SM BKN017 OVC025 26/25 A2985 RMK AO2
     T02550245=
####018000326####
SPXX60 KWBC 081108
SPECI
KCEF 081102Z AUTO 16005KT 10SM BKN009 24/22 A3006 RMK AO2 CIG
     009V011 SLP180 PWINO $=
KNMM 081057Z 00000KT 7SM FEW250 22/21 A3006 RMK AO2 $=
KABH 081105Z AUTO 27008KT 3/4SM BR VV001 12/12 A3036 RMK AO2 $=
KNXF 081106Z AUTO 33005KT 8SM BKN011 OVC016 16/13 A2989 RMK AO2
     TSNO=
####018000122####
SPUS80 KWBC 081108
SPECI
KBTR 081059Z 06003KT 2 1/2SM BR MIFG SCT003 BKN200 23/23 A3001 RMK
     AO2 SFC VIS 3 $=
####018000087####
SAAF31 KWBC 081000 RRD
METAR
DNMM 081030Z 25005KT 9999 BKN012 28/25 Q1015 NOSIG=
####018002486####
SAUS70 KWBC 081108
METAR
PABA 081101Z AUTO 17004KT 10SM OVC041 07/06 A3002 RMK AO2 SLP166
     T00670061=
K2W6 081103Z AUTO 00000KT 2 1/2SM 24/24 A3001 RMK AO1 SKY
     OBSCURED=
KCGS 081105Z AUTO 00000KT 5SM CLR 26/24 A3001 RMK AO1=
KOCW 081103Z AUTO 03004KT 1 1/2SM HZ 26/21 A2996 RMK AO2=
KORG 081105Z AUTO 07008KT 7SM BKN010 BKN022 16/14 A2998 RMK
     AO2=
KW29 081103Z AUTO 11003KT 2 1/2SM CLR 25/23 A3001 RMK AO1=
K0F2 081104Z AUTO 00000KT 10SM SCT050 SCT085 23/22 A3003 RMK AO2
     LTG DSNT NE T02310218=
K1H2 081105Z AUTO 00000KT 5SM BR CLR 24/23 A3004 RMK AO2
     T02370228=
K3LF 081103Z AUTO 00000KT 3SM BR BKN070 BKN080 23/22 A3004 RMK
     AO2=
K3T5 081104Z AUTO 00000KT 7SM SCT008 SCT014 BKN031 25/24 A2992 RMK
     AO2 LTG DSNT SE T02540239=
K6R3 081101Z AUTO 08003KT 7SM SCT055 SCT120 24/24 A2996 RMK AO2
     T02420242=
KAAA 081103Z AUTO 00000KT 1 1/4SM BR SCT041 SCT120 23/22 A3004 RMK
     AO2 T02250218=
KAJG 081105Z AUTO 00000KT 5SM BR CLR 22/21 A3005 RMK AO2
     T02220213=
KALN 081103Z AUTO 00000KT 5SM BR SCT037 BKN043 OVC055 25/24 A3004
     RMK AO2 T02450241=
KAQO 081105Z AUTO 00000KT 24/23 A3001 RMK AO2=
KARM 081105Z AUTO 08007KT 10SM SCT017 SCT031 BKN110 26/24 A2991
     RMK AO2 P0001 T02600241=
KBBD 081105Z AUTO 00000KT 10SM FEW017 22/21 A3002 RMK=
KBEA 081103Z AUTO 03008KT 10SM BKN006 BKN022 25/25 A2987 RMK AO2
     LTG DSNT E T02470247=
KC09 081104Z AUTO 00000KT 1SM BR BKN049 BKN055 OVC065 21/21 A3002
     RMK AO2=
KDKB 081101Z AUTO 19005KT 1 1/4SM BR OVC002 22/21 A3003 RMK AO2
     T02150210=
KGLE 081104Z AUTO 00000KT 10SM SCT022 SCT070 SCT100 26/23 A3005
     RMK AO2=
KGPM 081111Z AUTO 00000KT 7SM SCT018 SCT029 26/23 A3002 RMK
     AO2=
KHQZ 081106Z AUTO 10003KT 10SM SCT026 SCT100 24/23 A3002 RMK
     AO2=
KIKK 081105Z AUTO 00000KT 3SM BR BKN085 25/23 A3003 RMK AO2=
KJOT 081106Z AUTO 00000KT 2SM BR CLR 23/22 A3002 RMK AO2=
KLOT 081101Z AUTO 15004KT 2SM BR SCT065 OVC075 23/22 A3002 RMK
     AO2=
KOXI 081105Z AUTO 00000KT 2 1/2SM SCT075 OVC100 22/21 A3003 RMK
     AO1 T02180206=
KOZA 081101Z AUTO 02003KT 10SM SCT120 22/21 A3006 RMK AO2
     T02200213=
KPAN 081115Z AUTO 08003KT 10SM CLR 21/04 A3013 RMK AO1=
KPPQ 081105Z AUTO 00000KT 7SM -RA CLR 23/22 A3005 RMK AO2
     P0001=
KPVW 081101Z AUTO 01006KT 10SM SCT120 18/16 A3014 RMK AO2=
KRQO 081115Z AUTO 00000KT 1 1/4SM BR OVC001 23/23 A3007 RMK AO2
     LTG DSNT E=
####018000075####
SAAF32 KWBC 081100 RRA
METAR
FMNM 081100Z ///10KT CAVOK 30/13 Q1013=
####018000213####
SAUS70 KWBC 081100 RRJ
METAR
KEFD 081050Z 10010KT 8SM FEW020 SCT045 BKN130 28/25 A2993=
K2G4 081100Z AUTO 00000KT 10SM SCT065 23/13 A3019 RMK AO1=
KBXK 081055Z AUTO 34003KT 9SM CLR 25/M01 A2977 RMK AO1=
####018000223####
SAUS80 KWBC 081108
METAR
KCBE 081103Z AUTO 00000KT 5SM CLR 21/19 A3011 RMK AO1=
KCUL 081105Z AUTO 00000KT 4SM CLR 23/21 A3005 RMK AO2
     T02250206=
KSFY 081105Z AUTO 27003KT 5SM BR OVC009 23/21 A3003 RMK AO2=
####018001277####
SPUS70 KWBC 081108
SPECI
KCSM 081104Z AUTO 01006KT 9SM SCT009 BKN012 BKN060 23/21 A3011 RMK
     AO2=
KINK 081104Z AUTO 35007KT 10SM BKN017 21/19 A3007 RMK AO2 TSNO=
KACT 081106Z 06003KT 10SM SCT012 BKN017 26/23 A2999 RMK AO2=
KBVY 081105Z 16005KT 8SM BKN007 22/20 A3009 RMK AO2 PNO=
KFLD 081105Z AUTO 00000KT 6SM BR SCT009 SCT026 22/20 A3001 RMK
     AO2=
KGCK 081105Z AUTO 03011KT 10SM BKN007 17/16 A3022 RMK AO2 CIG
     005V010=
KHIB 081105Z AUTO 00000KT 2SM BR CLR 09/09 A3004 RMK AO2=
KHYA 081105Z 00000KT 10SM FEW008 OVC016 22/21 A3010 RMK AO2=
KILG 081105Z 00000KT 2 1/2SM HZ FEW005 26/23 A3003 RMK AO2 $=
KMFI 081105Z AUTO 31007KT 3SM BR OVC003 19/18 A3003 RMK AO2=
KTAD 081105Z AUTO 34004KT 10SM SCT007 BKN016 OVC029 14/13 A3037
     RMK AO2=
KUIN 081105Z AUTO 00000KT 1 1/2SM BR OVC001 23/22 A3004 RMK
     AO2=
PAWD 081104Z AUTO 00000KT 2SM BR FEW002 BKN006 OVC010 10/09 A2995
     RMK AO2 TSNO=
KAQW 081106Z AUTO 00000KT 3SM BR CLR 21/19 A3007 RMK AO2=
KCEW 081105Z AUTO 00000KT 2 1/2SM BR CLR 20/20 A3004 RMK AO2=
KDMO 081106Z AUTO 00000KT 1 3/4SM BR SCT001 BKN011 23/22 A3005 RMK
     AO2=
KMPV 081106Z AUTO 00000KT 3SM BR CLR 22/20 A3012 RMK AO2=
KPNE 081106Z 12003KT 1 3/4SM BR BKN004 24/23 A3004 RMK AO2=
####018000129####
SAAF34 KWBC 081100 RRA
METAR
FBFT 081100Z 10015KT 9999 BKN015 20/10 Q1030=
FBKE 081100Z /////KT 9999 FEW020 22/07 Q1027=
####018000084####
SAAO32 KWBC 081100 RRA
METAR
GQPP 081100Z 02003KT 8000 NSC 27/19 Q1012 NOSIG=
####018000137####
SAAW32 KWBC 081030 RRC
METAR
OIHH 081050Z 22006KT CAVOK 39/M05 Q1014 A2997=
OIII 081050Z 13008KT CAVOK 40/M03 Q1013 A2992 878.3=
####018000113####
SAAW33 KWBC 081100 RRA
METAR
OOMS 081100Z 05004KT 010V080 6000 -DZ SCT025 BKN120 33/28 Q1001
     NOSIG=
####018000074####
SAAW33 KWBC 081030 RRA
METAR
OOSA 081050Z AUTO 17008KT 28/23 Q1002=
####018000768####
SAAW34 KWBC 081045 RRF
METAR
UAAA 081100Z 20005MPS 9999 -SHRA BKN050CB OVC100 25/16 Q1014
     88CLRD65 TEMPO TS=
UACC 081100Z 31005MPS 280V340 CAVOK 24/03 Q1008 220/0070 NOSIG RMK
     QFE725/0967=
UAKK 081100Z 01006MPS 9999 BKN050CB BKN/// 24/03 Q1009 230///70
     NOSIG RMK QFE710/0947=
UAOO 081100Z NIL=
UARR 081100Z NIL=
UATE 081100Z 01005G10MPS CAVOK 39/07 Q1010 300///70 NOSIG RMK
     QFE756/1008=
UATG 081100Z 30005G10MPS CAVOK 39/09 Q1008 32CLRD70 NOSIG RMK
     QFE758/1011=
UATT 081100Z 06008MPS 9999 NSC 33/02 Q1010 13CLRD70 NOSIG RMK
     QFE738/0984=
UAUU 081100Z 35005MPS CAVOK 26/M02 Q1012 33CLRD70 NOSIG RMK
     QFE744/0992=
UTDD 081100Z VRB01MPS 9999 FEW066 37/05 Q1009 09CLRD70 NOSIG RMK
     QFE689/0919=
####018000075####
SAAW42 KWBC 081100 RRA
METAR
OJAQ 081100Z 36021KT CAVOK 38/25 Q1006=
####018000951####
SABO41 KWBC 081100 RRA
METAR
SLCA 081100Z 00000KT 9999 BKN030 15/14 Q1020=
SLCO 081100Z 00000KT 9999 SCT080 BKN200 23/22 Q1012=
SLCP 081100Z 12003KT 9999 BKN017 OVC070 21/20 Q1017=
SLJE 081100Z 19006KT 9999 BKN015 19/17 Q1017=
SLJO 081100Z 00000KT 9999 FEW020 SCT080 BKN200 22/21 Q1012=
SLMG 081100Z 03004KT 9999 FEW080 BKN200 23/21 Q1013=
SLOR 081100Z 00000KT 9999 NSC M07/M09 Q1033=
SLPS 081100Z 00000KT 9999 FEW023 BKN070 24/16 Q1012=
SLRB 081100Z 00000KT 9999 BKN017 21/18 Q1017=
SLRI 081100Z 00000KT 5000 FU SCT080 24/23 Q1012=
SLRQ 081100Z 00000KT 9999 BKN017 FEW020CB 22/22 Q1012=
SLRY 081100Z 00000KT 3000 BR SCT017 FEW023CB BKN200 22/22
     Q1012=
SLSA 081100Z 36004KT 9999 FEW020 FEW023CB BKN200 23/22 Q1011=
SLSI 081100Z 00000KT 9999 BKN070 21/19 Q1015=
SLSU 081100Z 05005KT 9999 SCT010 08/05 Q1028=
SLVM 081100Z 00000KT 9999 FEW020 SCT070 16/15 Q1026=
SLYA 081100Z 00000KT 9999 FEW023 12/10 Q1021=
####018000129####
SACA32 KWBC 081100 RRA
METAR
TAPA 081100Z 08011KT 9999 FEW020 28/24 Q1015=
TKPK 081100Z 06013KT 9999 FEW019 28/24 Q1015=
####018000088####
SACA31 KWBC 081100 RRA
METAR
MKJS 081100Z 17003KT 9999 FEW024 BKN200 25/22 Q1012=
####018001330####
SACI32 KWBC 081100 RRA
METAR
ZBAA 081100Z 18006G12MPS 160V220 CAVOK 34/11 Q1003 NOSIG=
ZBTJ 081100Z 16006MPS CAVOK 29/17 Q1005 NOSIG=
ZBYN 081100Z 10005MPS CAVOK 29/14 Q1008 NOSIG=
ZGGG 081100Z 14005MPS 9999 FEW050TCU SCT050 33/26 Q1004 NOSIG=
ZGNN 081100Z 14005MPS 100V160 CAVOK 32/25 Q1002 RETS NOSIG=
ZGSZ 081100Z 17008MPS 9999 FEW020 31/25 Q1006 NOSIG=
ZHHH 081100Z 07002MPS 040V110 9999 SCT010 SCT030 25/25 Q1002
     NOSIG=
ZLLL 081100Z 01007MPS 9999 BKN046 21/12 Q1017 BECMG 330003MPS=
ZPPP 081100Z 19004MPS 9999 FEW026 BKN050 23/16 Q1014 NOSIG=
ZSAM 081100Z 18007MPS CAVOK 31/24 Q1005 NOSIG=
ZSHC 081100Z 00000MPS 8000 -SHRA BKN020 FEW033CB 26/24 Q1005 TEMPO
     -TSRA FEW033CB=
ZSNJ 081100Z 15004MPS 110V200 2500 HZ BKN030 28/22 Q1004 TEMPO
     -SHRA FEW030CB=
ZSOF 081100Z 08002MPS 8000 -SHRA SCT009 FEW030TCU BKN033 27/26
     Q1002 NOSIG=
ZSPD 081100Z 11006MPS 070V130 9999 BKN009 26/24 Q1006 NOSIG=
ZSSS 081100Z 11005G10MPS 070V140 9999 BKN016 27/23 Q1005 BECMG
     BKN011 OVC040=
ZUCK 081100Z 13002MPS 3000 BR FEW033 29/25 Q1002 NOSIG=
ZUUU 081100Z 22002MPS CAVOK 29/25 Q1002 NOSIG=
ZWWW 081100Z 29002MPS 9999 FEW040CB 31/10 Q1011 NOSIG=
ZYHB 081100Z 04003MPS 4000 -RA BR BKN033 19/17 Q1008 NOSIG=
ZYTL 081100Z 25002MPS 210V270 9999 SCT033 26/18 Q1006 NOSIG=
####018000339####
SACA33 KWBC 081100 RRA
METAR
TFFR 081100Z VRB02KT 9999 FEW021 28/24 Q1015 NOSIG=
TGPY 081100Z 07008KT 9000 SCT020 SCT280 FEW///CB 28/25 Q1013
     CB-SSE/SSW/HZ=
TTCP 081100Z 08013KT 9000 -SHRA FEW010CB SCT014 BKN038 24/23 Q1013
     NOSIG=
TTPP 081100Z 00000KT 9000 FEW006 FEW010CB BKN036 BKN080 25/24
     Q1011 NOSIG=
####018000186####
SACN31 KWBC 081100 CCA
METAR
CYTR 081100Z CCA 00000KT 5SM HZ FEW100 24/20 A3003 RMK AC1
     SLP167=
CZBF 081100Z CCA 00000KT 3/8SM FG VV002 19/19 A3001 RMK FG8
     SLP162=
####018003354####
SACN31 KWBC 081100 RRA
METAR
CYBG 081100Z 05007KT 3SM BR BKN080 20/18 A2999 RMK AC6 AC FLOCUS
     SLP154=
CYDQ 081100Z AUTO VRB02KT 9SM CLR 10/07 A3009 RMK SLP201=
CYEG 081100Z 20005KT 15SM FEW120 BKN240 11/10 A3009 RMK AC1CI6
     SLP193=
CYFB 081100Z 21003KT 30SM FEW250 10/05 A2979 RMK CI2 SLP090=
CYFC 081100Z AUTO 21007KT 9SM FEW076 21/18 A3008 RMK SLP186
     DENSITY ALT 600FT RVR MISG=
CYFT 081100Z 00000KT 15SM FEW020 BKN075 16/12 A2988 RMK SC2AC6
     SLP122=
CYGL 081100Z 17007KT 15SM -SHRA FEW030 BKN055 OVC110 19/14 A2991
     RMK SC1SC5AS2 SLP132=
CYHZ 081100Z 23005KT 7SM FEW005 FEW160 SCT250 20/18 A3016 RMK
     SF2AC1CI0 SLP214=
CYJT 081100Z 07004KT 15SM SCT030 OVC080 19/15 A3008 RMK SC3AC5
     SLP186=
CYKL 081100Z AUTO 31005KT 260V340 9SM CLR 18/14 A2990 RMK
     SLP133=
CYMH 081100Z 16007KT 15SM FEW009 BKN021 BKN090 11/08 A3007 RMK
     SF2SC2AC1 SLP184=
CYMX 081100Z 23002KT 5SM PRFG FEW080 24/19 A3001 RMK FG1AC1 VSBY
     LWR E SLP163=
CYOW 081100Z 24002KT 15SM FEW070 24/21 A3002 RMK AC1 SLP164=
CYPL 081100Z 22004KT 15SM FEW040TCU FEW100 SCT270 16/14 A2988 RMK
     TCU2AC1CI0 SLP122=
CYQB 081100Z 07005KT 5SM BR OVC005 19/17 A3002 RMK ST8 SLP164=
CYQG 081100Z 23004KT 10SM FEW080 25/21 A3004 RMK AC2 SLP168=
CYQM 081100Z 23009KT 12SM FEW012 SCT250 21/19 A3007 RMK CF1CI1
     SLP182=
CYQQ 081100Z 00000KT 20SM SKC 18/12 A2999 RMK SLP154=
CYQX 081100Z 18008KT 20SM FEW005 BKN055 BKN100 15/13 A3015 RMK
     SF2SC3AC2 SLP212=
CYQY 081100Z 23006KT 15SM BKN150 21/17 A3012 RMK AC6 SLP199=
CYRB 081100Z 17006KT 15SM FEW240 08/02 A2977 RMK CI1 SLP087=
CYSJ 081100Z 20009KT 1/8SM R23/1600FT/N FG VV002 15/14 A3014 RMK
     FG8 SLP208=
CYTE 081100Z 09013KT 15SM SCT070 06/03 A2974 RMK AC3 10.9/3.1/0/0
     SNW CVR/NIL SLP075=
CYTL 081100Z AUTO 23006KT 9SM FEW072 BKN078 16/14 A2980 RMK
     SLP097=
CYTR 081100Z 00000KT 15SM FEW100 24/20 A3003 RMK AC1 SLP167=
CYUY 081100Z 18003KT 15SM SCT160 BKN240 21/18 A2996 RMK AC2CC2
     SLP144=
CYVP 081100Z 24007KT 15SM BKN018 BKN050 16/13 A2976 RMK SC6SC2
     SLP078=
CYVR 081100Z 00000KT 30SM SKC 19/11 A2998 RMK SLP151=
CYWG 081100Z 28005KT 15SM FEW090 12/12 A3000 RMK AC1 SLP162=
CYWK 081100Z 21005KT 15SM BKN300 20/17 A2997 RMK CI2 SLP149=
CYXU 081100Z 13003KT 10SM MIFG FEW030TCU 21/19 A3006 RMK TCU1 TCU
     AND CB TOPS DSTNT N SLP175=
CYXX 081100Z 04003KT 15SM SKC 17/13 A2998 RMK SLP152=
CYXY 081100Z 00000KT 40SM FEW120 08/04 A3015 RMK AC1 SLP221=
CYYC 081100Z 20005KT 15SM SCT110 BKN250 13/09 A3019 RMK AC3CI1
     SLP218=
CYYJ 081100Z 26006KT 30SM SKC 15/11 A2997 RMK SLP150=
CYYQ 081100Z 27008KT 15SM FEW070 11/10 A2966 RMK AC1 SLP043=
CYYR 081100Z 18010KT 15SM BKN020 16/13 A2995 RMK SC6 SLP144=
CYYT 081100Z 17005KT 15SM SCT006 OVC019 10/09 A3024 RMK SF4SC4 VIS
     LWR S SLP246=
CYYZ 081100Z 10002KT 15SM FEW040TCU FEW100 26/23 A3003 RMK TCU1AC1
     TCU TR SLP167=
CYZF 081100Z 00000KT 15SM SCT080 BKN110 BKN210 15/10 A2994 RMK
     AC3AC2CI0 SLP144=
CYZV 081100Z 07005KT 6SM BR OVC003 13/13 A3006 RMK ST8 SLP180=
CYZX 081100Z 22005KT 8SM BKN010 20/18 A3015 RMK SF6 WNDY HILL
     21005KT CIG RAG SLP209=
CYZY 081100Z AUTO 00000KT 9SM CLR 11/08 A3009 RMK SLP191=
CZBF 081100Z 00000KT 3/8SM FG VV002 19/19 A3001 RMK FG8 SLP162=
####018000293####
SAEE31 KWBC 081100 RRA
METAR
EPSC 081100Z 17003KT CAVOK 24/11 Q1022=
UKBB 081100Z 31004MPS 270V360 9999 FEW030 BKN040 25/18 Q1014
     88CLRD95 NOSIG=
UKLL 081100Z 33004MPS 250V030 CAVOK 19/11 Q1021 31210365 NOSIG=
UKOO 081100Z 33003MPS 300V020 CAVOK 27/15 Q1014 34090070 NOSIG=
####018000208####
SAEE32 KWBC 081100 RRA
METAR
LRAR 081100Z 35008KT 310V050 9999 SCT034 23/16 Q1020=
LRTC 081100Z 36008KT 9999 FEW030CB BKN040 23/17 Q1015=
LRTM 081100Z 23006KT 9999 FEW015 SCT026 BKN031 17/14 Q1021=
####018000177####
SAEM31 KWBC 081100 RRA
METAR
LJLJ 081100Z 13002KT 9999 FEW040 24/11 Q1023 NOSIG=
LJMB 081100Z 36004KT 9999 FEW040 24/08 Q1023=
LJPZ 081100Z 30008KT CAVOK 25/12 Q1022=
####018000399####
SAEW31 KWBC 081100 RRA
METAR
LPAZ 081100Z 25004KT 220V280 9999 BKN016 BKN030 21/19 Q1025=
LPFR 081100Z 26008KT 220V290 9999 SCT010 BKN012 23/20 Q1016=
LPPD 081100Z 27004KT 9999 FEW017 BKN030 20/16 Q1024=
LPPR 081100Z 21009KT 170V260 4000 BR FEW002 BKN004 21/18 Q1015=
LPPS 081100Z 03011KT 350V060 9999 FEW016 SCT030 22/15 Q1021=
LPPT 081100Z 26007KT 220V290 CAVOK 27/19 Q1015 NOSIG=
####018000203####
SAFR31 KWBC 081100 RRA
METAR
LFGJ 081100Z AUTO 25005KT 220V330 9999NDV NSC 29/12 Q1020=
LFMD 081100Z AUTO 16009KT 9999NDV NSC 30/22 Q1020=
LFMH 081100Z 13006KT 090V200 CAVOK 30/12 Q1021 NOSIG=
####018000760####
SAFR41 KWBC 081100 RRA
METAR
LFBA 081100Z 09010KT CAVOK 31/17 Q1017 NOSIG=
LFBC 081100Z AUTO 10010KT 030V140 9999NDV NSC 34/12 Q1016=
LFBM 081100Z AUTO 10010KT 070V140 9999NDV NSC 34/18 Q1016=
LFLD 081100Z 10006KT 030V180 CAVOK 31/11 Q1019=
LFLV 081100Z VRB02KT CAVOK 30/14 Q1020=
LFOE 081100Z 02004KT 350V090 CAVOK 30/10 Q1018=
LFPV 081100Z AUTO VRB03KT 9999NDV NSC 29/11 Q1019=
LFQB 081100Z VRB05KT CAVOK 31/10 Q1018=
LFRH 081100Z VRB03KT CAVOK 26/07 Q1018=
LFRM 081100Z 15004KT 100V210 CAVOK 31/11 Q1018=
LFSD 081100Z AUTO VRB03KT 9999NDV NSC 29/13 Q1020=
LFSI 081100Z AUTO VRB03KT 9999NDV NSC 31/10 Q1020=
LFSO 081100Z AUTO 23004KT 180V300 9999NDV NSC 30/10 Q1020=
LFSX 081100Z AUTO 15005KT 090V200 9999NDV NSC 29/13 Q1020=
####018000096####
SAFR32 KWBC 081030 RRA
METAR
LFRT 081053Z 06005KT 360V110 9999 FEW020 SCT250 21/16 Q1019=
####018000540####
SAFR32 KWBC 081100 RRA
METAR
LFOT 081100Z AUTO VRB04KT 9999NDV NSC 30/12 Q1018=
LFPN 081100Z VRB03KT CAVOK 30/10 Q1019 NOSIG=
LFRC 081100Z AUTO 01007KT 310V050 9999NDV NSC 21/16 Q1019=
LFRK 081100Z 36007KT 310V050 CAVOK 24/13 Q1019 NOSIG=
LFRQ 081100Z VRB02KT CAVOK 25/12 Q1019 NOSIG=
LFSF 081100Z AUTO VRB02KT 9999NDV NSC 30/10 Q1020=
LFSR 081100Z AUTO VRB03KT 9999NDV NSC 31/10 Q1019=
LFTW 081100Z AUTO 19004KT 090V260 9999NDV NSC 31/14 Q1020=
LFVP 081100Z 10003KT 0350 R26/0650D FG OVC003 11/11 Q1022
     NOSIG=
####018000448####
SAIO31 KWBC 081100 RRA
METAR
FIMP 081100Z 14018KT 9999 SCT016 25/17 Q1021=
FMCH 081100Z 24015KT 9999 FEW025 SCT030 28/21 Q1018 NOSIG=
FMCZ 081105Z 14012KT 9999 SCT025 26/19 Q1017=
FMEE 081100Z 11023KT 9999 FEW023 24/17 Q1020 TEMPO 13028G38KT=
FMMT 081100Z 22014KT 9999 SCT017 25/21 Q1021=
FSIA 081103Z 14008KT 9999 FEW018 BKN240 28/22 Q1011 NOSIG=
VYMD 081100Z NIL=
VYYY 081100Z 32005KT 8000 SCT018 FEW020CB SCT110 32/25 Q1006=
####018000107####
SAIQ32 KWBC 081100 RRA
METAR
KQSL 081055Z 31015G21KT 9999 CLR 44/02 A2965 RMK SLP028
     Q1004MB=
####018000222####
SAIY31 KWBC 081050 RRB
METAR
LIEA 081050Z VRB03KT CAVOK 32/21 Q1019 RMK VIS MIN 9999=
LIEO 081050Z 04011KT 9999 FEW030 30/20 Q1020 RMK VIS MIN 9999=
LIMG 081050Z 07008KT 9999 SCT080 30/24 Q1021 RMK VIS MIN 9999=
####018000335####
SAIY32 KWBC 081050 RRB
METAR
LIPB 081050Z 17011KT CAVOK 28/12 Q1021 RMK MON LIB VIS MIN
     9999=
LIPO 081050Z 20004KT 100V230 9999 FEW065 28/14 Q1021 RMK VIS MIN
     9999=
LIPY 081050Z 06008KT 010V090 CAVOK 27/14 Q1021 RMK VIS MIN
     9999=
LIRZ 081050Z 01007KT 330V060 CAVOK 30/11 Q1021 RMK VIS MIN
     9999=
####018000099####
SAIY41 KWBC 081050 RRB
METAR
LIED 081055Z 15012KT 9999 33/18 Q1018 RMK FEW VIS MIN 9999 BLU=
####018000305####
SAIY32 KWBC 080950 RRD
METAR
LIPH 081045Z 16004KT 9999 SCT025 27/20 Q1023 RMK SCT VIS MIN 9999
     WIND THR07 /////KT BLU=
LIPR 081045Z 08011KT CAVOK 28/17 Q1021 RMK SKC VIS MIN 9999 WIND
     THR31 09011KT BLU=
LIPX 081045Z 12003KT 9999 FEW040 29/13 Q1021 RMK FEW VIS MIN 9999
     BLU=
####018000076####
SPUS41 KWBC 081108
SPECI
KBVY 081105Z 16005KT 8SM BKN007 22/20 A3009=
####018001251####
SAIY42 KWBC 081050 RRA
METAR
LIMH 081055Z 06011KT CAVOK 05/M07 Q1039 RMK FEW FEW100 MON LIB VAL
     S CLD SCT VIS MIN 9999=
LIMK 081055Z 34003KT 9999 BKN025 20/13 Q1023 RMK BKN VAL NIL VIS
     MIN 9999=
LIMN 081055Z /////KT 9999 FEW030 27/15 Q1021 RMK FEW VIS MIN 9999
     BLU=
LIMS 081055Z 12009KT 060V150 CAVOK 28/15 Q1021 RMK SKC VIS MIN
     9999 WIND THR30 10006KT BLU=
LIMT 081100Z NIL=
LIMU 081055Z 05010KT 9999 FEW028 29/21 Q1020 RMK BKN SCT070 QUK 2
     QUL 1 E VIS MAR 15 KM VIS MIN 9999=
LIMV 081055Z 36008KT 6000 FEW012 23/18 Q1023 RMK SCT SCT080 MON
     LIB NC VAL FOSCHIA VIS MIN 6000=
LIMY 081055Z /////KT 7000 SCT026 SCT036 21/17 Q1023 RMK BKN VAL
     FOSCHIA VIS MIN 7000=
LIPA 081055Z 21008KT 9999 FEW060 25/18 Q1022 RMK FEW VIS MIN 9999
     A3019 BLU=
LIPC 081055Z 11010KT CAVOK 28/14 Q1022 RMK FEW FEW200 VIS MIN 9999
     WIND THR12 11009KT BLU=
LIPF 081055Z 27002KT 9999 FEW050 27/19 Q1021 RMK FEW VIS MIN
     9999=
LIPI 081055Z 20005KT 9999 FEW030 26/19 Q1021 RMK FEW VIS MIN 9999
     WIND THR06 18004KT BLU=
LIPL 081055Z 14004KT 9999 FEW035 27/18 Q1022 RMK SCT VIS MIN 9999
     BLU=
LIPS 081055Z 20003KT 9999 FEW025 29/18 Q1022 RMK FEW VIS MIN 9999
     BLU=
####018000113####
SAIY43 KWBC 080950 RRF
METAR
LIPX 081045Z 12003KT 9999 FEW040 29/13 Q1021 RMK FEW VIS MIN 9999
     BLU=
####018002081####
SAIY43 KWBC 081050 RRA
METAR
LIQN 081050Z 36005KT CAVOK 27/17 Q1021 RMK VIS MIN 9999=
LIQO 081055Z 00000KT 9999 FEW003 25/20 Q1021 RMK FEW VAL NIL NC
     VIS MIN 9999=
LIQW 081055Z 19003KT 9999 FEW030 29/18 Q1020 RMK FEW VIS MIN 9999
     BLU=
LIRE 081055Z 23010KT 9999 FEW020 28/20 Q1019 RMK FEW VIS MIN 9999
     WIND THR31 22010KT BLU=
LIRG 081055Z 27007KT 9999 SCT033 31/18 Q1019 RMK SCT MON NE LIB NC
     VIS MIN 9999 BLU=
LIRH 081055Z 36005KT 9999 SCT035 29/19 Q1020 RMK SCT MON LIB NC
     VIS MIN 9999 WIND THR16 24006KT BLU=
LIRK 081055Z 13010KT CAVOK 16/14 Q1027 RMK SCT SCT060 MON NE LIB
     NC VAL NIL NC VIS MIN 9999=
LIRL 081055Z 24008KT 9999 FEW020 FEW025TCU 30/18 Q1018 RMK SCT MON
     LIB NC VIS MIN 9999 BLU=
LIRS 081055Z 21010KT 9999 FEW040 31/14 Q1019 RMK SCT SCT200 VIS
     MIN 9999 WIND THR21 /////KT BLU=
LIRT 081055Z 01009KT 9999 FEW015 17/07 Q1023 RMK FEW MON LIB VAL
     NIL VIS MIN 9999=
LIRU 081050Z 25003KT 9999 SCT040 30/19 Q1021 RMK VIS MIN 9999=
LIRV 081055Z 25005KT 9999 FEW028 29/18 Q1021 RMK FEW MON E SE LIB
     NC VIS MIN 9999 BLU=
LIRX 081055Z 16004KT CAVOK 28/11 Q1020 RMK SKC VIS MIN 9999E VIS
     MAR 25 KM=
LIRZ 081050Z 01007KT 330V060 CAVOK 30/11 Q1021 RMK VIS MIN
     9999=
LIVC 081055Z 00000KT 9999 SCT000 14/11 Q1030 RMK SCT MON CLD CIME
     CUF VAL CLD SCT ELEV VIS MIN 9999=
LIVD 081055Z 00000KT CAVOK 21/12 Q1024 RMK SKC VIS MIN 9999=
LIVE 081055Z 18008KT CAVOK 20/10 Q1024 RMK SKC VIS MIN 9999=
LIVF 081055Z 03003KT CAVOK 27/08 Q1022 RMK FEW FEW220 MON LIB VAL
     NIL VIS MIN 9999=
LIVM 081055Z 14009KT CAVOK 27/20 Q1021 RMK SKC QUK 2 QUL 1 SE VIS
     MAR 30 KM VIS MIN 9999=
LIVO 081055Z 17003KT 9999 FEW040 23/13 Q1022 RMK FEW VIS MIN
     9999=
LIVP 081055Z VRB02KT 9999 BKN010 13/10 Q1029 RMK BKN MON W CIME
     INC VAL NE LIB VIS MIN 9999=
LIVR 081055Z /////KT 9999 FEW025 15/11 Q1028 RMK FEW MON CLD CIME
     VIS MIN 9999=
LIVT 081055Z 28001KT CAVOK 24/17 Q1022 RMK SCT SCT070 QUK 1 QUL 0
     VIS MAR 20 KM VIS MIN 9999=
####018000083####
SPUS41 KWBC 081108
SPECI
KILG 081105Z 00000KT 2 1/2SM HZ FEW005 26/23 A3003=
####018000603####
SAPO31 KWBC 081100 RRA
METAR
LPAZ 081100Z 25004KT 220V280 9999 BKN016 BKN030 21/19 Q1025=
LPFL 081100Z 19005KT 140V280 9999 FEW023 23/18 Q1022=
LPFR 081100Z 26008KT 220V290 9999 SCT010 BKN012 23/20 Q1016=
LPHR 081100Z 24006KT 9999 SCT013 SCT035 22/18 Q1023=
LPMA 081100Z 22006KT 170V250 9999 FEW016 24/18 Q1020 RS15005KT
     0520007KT 2326005KT=
LPPD 081100Z 27004KT 9999 FEW017 BKN030 20/16 Q1024=
LPPR 081100Z 21009KT 170V260 4000 BR FEW002 BKN004 21/18 Q1015=
LPPS 081100Z 03011KT 350V060 9999 FEW016 SCT030 22/15 Q1021=
LPPT 081100Z 26007KT 220V290 CAVOK 27/19 Q1015 NOSIG=
####018000865####
SARA31 KWBC 081100 RRA
METAR
UAAA 081100Z 20005MPS 9999 -SHRA BKN050CB OVC100 25/16 Q1014
     88CLRD65 TEMPO TS=
UACC 081100Z 31005MPS 280V340 CAVOK 24/03 Q1008 220/0070 NOSIG RMK
     QFE725/0967=
UAOO 081100Z NIL=
UARR 081100Z NIL=
UATE 081100Z 01005G10MPS CAVOK 39/07 Q1010 300///70 NOSIG RMK
     QFE756/1008=
UATG 081100Z 30005G10MPS CAVOK 39/09 Q1008 32CLRD70 NOSIG RMK
     QFE758/1011=
UATT 081100Z 06008MPS 9999 NSC 33/02 Q1010 13CLRD70 NOSIG RMK
     QFE738/0984=
UTAA 081100Z 11003MPS 9999 SKC 44/03 Q1007 NOSIG=
UTAK 081100Z 29003MPS CAVOK 38/14 Q1008 NOSIG=
UTAT 081100Z 14003MPS CAVOK 44/19 Q1007 NOSIG=
UTAV 081100Z 04004MPS CAVOK 40/08 Q1006=
UTDD 081100Z VRB01MPS 9999 FEW066 37/05 Q1009 09CLRD70 NOSIG RMK
     QFE689/0919=
UTDL 081100Z 24004MPS 9999 FEW053 39/10 Q1009 NOSIG RMK QFE719
     8809//70=
####018000082####
SARS31 KWBC 081100 RRA
METAR
UTAM 081100Z 02005MPS CAVOK 42/05 Q1005 NOSIG=
####018000561####
SASA31 KWBC 081100 RRA
METAR
SEGU 081100Z 20005KT 9999 BKN030 23/19 Q1011 NOSIG=
SEQU 081100Z 00000KT 9999 SCT100 09/07 Q1026 RMK A3032 NOSIG=
SKBO 081100Z VRB02KT 1200 PRFG BKN010 11/10 A3031 NOSIG=
SKBQ 081100Z 22004KT 2000 BR SCT004 25/25 A2987 RMK APRSM=
SKCG 081100Z VRB02KT 9999 FEW012TCU 26/25 A2886 RMK TC/NNW=
SKCL 081100Z 00000KT 9999 BKN020 BKN080 21/19 A3000=
SKLT 081100Z 00000KT 9999 SCT015 BKN080 24/24 A2988 RMK APCLO=
SKRG 081100Z 00000KT 2500 BCFG BKN003 BKN080 14/14 A3028=
SKSP 081100Z 08006KT 9999 SCT015 28/25 A2982=
####018000209####
SASA41 KWBC 081100 RRA
METAR
SEMT 081100Z 17004KT 9999 BKN016 BKN100 22/20 Q1012=
SKBG 081100Z 00000KT 9999 SCT012 SCT080 19/19 A3003 RMK MIFG/S=
SKPE 081100Z VRB02KT 9999 FEW015 BKN080 18/16 A3010=
####018000081####
SASA42 KWBC 081100 RRA
METAR
SELT 081100Z VRB01KT 9999 FEW030 04/03 Q1032=
####018000642####
SAUR31 KWBC 081100 RRA
METAR
UKBB 081100Z 31004MPS 270V360 9999 FEW030 BKN040 25/18 Q1014
     88CLRD95 NOSIG=
UKCC 081100Z VRB02MPS CAVOK 30/16 Q1014 08090070 NOSIG=
UKDD 081100Z VRB02MPS 9999 SCT033CB BKN200 29/18 Q1014 08090070
     TEMPO VRB10G15MPS -TSRA SQ BKN020CB=
UKDE 081100Z 25002MPS 190V320 9999 SCT050 29/17 Q1014 20CLRD70
     NOSIG=
UKDR 081100Z 00000MPS 9999 BKN033 OVC200 29/18 Q1013 1809//70
     NOSIG=
UKFF 081100Z 03003MPS 350V060 CAVOK 28/16 Q1013 01010070 NOSIG=
UKLL 081100Z 33004MPS 250V030 CAVOK 19/11 Q1021 31210365 NOSIG=
UKOO 081100Z 33003MPS 300V020 CAVOK 27/15 Q1014 34090070 NOSIG=
####018000089####
SAXX61 KWBC 081100 RRA
METAR
LERT 081100Z 27005KT 240V330 CAVOK 26/20 Q1016 NOSIG=
####018000157####
SAXX62 KWBC 081100 RRA
METAR
RKSO 081055Z COR 09007KT 9999 -DZ FEW010 SCT040 24/24 A2977 RMK
     AO2A RAB1028E1044DZB1044 SLP081 P0000 T02410241 $=
####018003735####
SAXX99 KWBC 081100 RRF
METAR
CWCA 081100Z 21010G16KT 15SM FEW020 BKN200 13/11 A2998 RMK SC1CI4
     SLP152=
CWCL 081100Z AUTO 00000KT 9SM CLR 09/05 A3015 RMK SLP201=
CWEU 081100Z 14012KT 40SM FEW150 BKN200 OVC240 13/03 A2967 RMK
     AC1CI0CS0 SLP047=
CWFD 081100Z AUTO 02003KT 9SM 11/ RMK ALTM MISG=
CWHN 081100Z AUTO 21003KT 9SM FEW038 FEW045 OVC055 13/09 A3002 RMK
     SLP172=
CWIL 081100Z AUTO 33009KT 06/ A2982 RMK SLP105=
CWKM 081100Z AUTO 24003KT 04/ A3007 RMK SLP189=
CWKW 081100Z AUTO 13011KT 12/ A2974 RMK SLP086=
CWLI 081100Z AUTO ///// 03/ A2998 RMK SLP161=
CWLX 081100Z AUTO 22002KT 14/ A2980 RMK SLP101=
CWLY 081100Z AUTO 00000KT 9SM CLR 15/09 A3007 RMK SLP179=
CWOB 081100Z AUTO ///// 9SM CLR 13/ A2979 RMK SLP115=
CWRH 081100Z AUTO ///// 09/ A2978 RMK SLP106=
CWRX 081100Z AUTO 32004KT 09/ A2980=
CWSA 081100Z AUTO 23008KT 1/8SM VV001 17/17 A3021 RMK SLP230=
CWTU 081100Z AUTO 16025KT 10/ A2992 RMK SLP146=
CWUP 081100Z AUTO 13002KT 14/ A2981 RMK SLP109=
CWUW 081100Z AUTO ///// 9SM CLR 12/ A2982 RMK SLP123=
CWVD 081100Z AUTO ///// 12/ A2982 RMK SLP124=
CWVH 081100Z AUTO 29017KT 04/ A3002 RMK SLP184=
CWWU 081100Z 17004KT 15SM BKN012 OVC020 12/09 A3024 RMK SC6SC2
     SLP239=
CWXR 081100Z AUTO 15006KT 07/ A2987 RMK SLP124=
CWYK 081100Z AUTO ///// 11/ A2982 RMK SLP119=
CWYM 081100Z AUTO 12007KT 12/ RMK ALTM MISG SLP124=
CWZZ 081100Z AUTO ///// 9SM SCT045 OVC070 11/ A2977 RMK SLP098=
CYAH 081100Z AUTO 00000KT 9SM CLR 15/13 A2996 RMK SLP151=
CYAM 081100Z 00000KT 5SM BR BKN003 OVC009 20/20 A2996 RMK SF6SF2
     SLP143=
CYAY 081100Z AUTO 16010KT 9SM OVC003 09/08 A3010 RMK SLP194=
CYBC 081100Z AUTO 07002KT 1 3/4SM OVC000 13/13 A3003 RMK
     SLP171=
CYBK 081100Z 35010KT 20SM SCT020 BKN090 BKN130 09/09 A2971 RMK
     SC3AS2AC1 SLP061=
CYBN 081100Z AUTO 00000KT 7SM CLR 23/20 A3003 RMK OBS TAKEN +1
     SLP165=
CYBR 081100Z 27005KT 15SM FEW060 FEW240 10/10 A3007 RMK SC1CI0
     SLP190=
CYBW 081100Z 31004KT 30SM FEW080 FEW140 FEW250 07/06 A3021 RMK
     AC1AC1CI1 SLP235=
CYCB 081100Z 25004KT 15SM FEW040 FEW120 FEW220 05/03 A2984 RMK
     SC1AC1CI0 TR SC SLP107=
CYCO 081100Z 01010KT 15SM VCFG BKN013 BKN035 05/05 A2988 RMK
     ST6SC1 VIS E 6 SLP121=
CYCX 081100Z 20005KT 12SM FEW020 BKN060 20/18 A3008 RMK SC2CU4
     DA+923FT SLP186=
CYCY 081100Z AUTO 06003KT 9SM SCT062 11/07 A2981 RMK SLP099=
CYDB 081100Z AUTO 00000KT 9SM CLR 04/01 A3011 RMK SLP216=
CYDF 081100Z 00000KT 15SM FEW008 SCT036 OVC048 11/09 A3013 RMK
     SF1SC3SC4 SLP204=
CYDN 081100Z AUTO 25007KT 9SM CLR 11/09 A3003 RMK SLP176=
CYDP 081100Z 00000KT 15SM BKN100 08/06 A2986 RMK AC5 SLP112=
CYED 081100Z AUTO 23007KT 9SM CLR 14/12 A3007 RMK SLP186=
CYEK 081100Z AUTO 08003KT 1/8SM VV001 07/07 A2960 RMK SLP023=
CYEL 081100Z 09002KT 0SM FG VV001 20/20 A2999 RMK FG8 WNDS ESTD
     SLP151=
CYEN 081100Z 00000KT 15SM FEW040 BKN250 11/10 A3012 RMK SC2CI0
     SLP205=
CYET 081100Z AUTO 27003KT 9SM CLR 09/05 A3011 RMK SLP198=
CYEV 081100Z 32007KT 15SM BKN019 07/03 A3006 RMK SC6 SLP184=
CYFS 081100Z 30003KT 15SM FEW055 13/12 A2999 RMK SC2 SLP159=
CYGK 081100Z 00000KT 4SM HZ FEW058 23/21 A3004 RMK SC1 SLP171=
CYGQ 081100Z 26006KT 15SM -RA FEW009 BKN025 BKN110 17/17 A2996 RMK
     SF2SC2AC2 SLP147=
CYGT 081100Z 00000KT 15SM FEW010 SCT040 BKN080 11/05 A2983 RMK
     CF1SC3AC2 BR S SLP105=
CYGV 081100Z AUTO 12002KT 9SM OVC002 14/12 A3003 RMK SLP171=
CYGX 081100Z 22004KT 15SM SCT025 10/09 A2976 RMK SC4 SLP084=
CYHD 081100Z AUTO 22006KT 9SM FEW098 16/15 A2995 RMK SLP146=
CYHE 081100Z AUTO 08006KT 9SM CLR 18/12 A3002 RMK SLP166=
CYHK 081100Z AUTO 03010KT 9SM CLR 09/07 A2979 RMK SLP092=
####018003728####
SAXX99 KWBC 081100 RRG
METAR
CYHM 081100Z 24003KT 8SM MIFG FEW100 23/21 A3006 RMK AC1 AC TR
     SLP175=
CYHU 081100Z AUTO 22004KT 8SM FEW006 26/22 A2999 RMK SLP157
     DENSITY ALT 1300FT RVR MISG=
CYHY 081100Z 28002KT 15SM SCT020 BKN030 BKN210 15/13 A2996 RMK
     CF2SC2CS1 SLP148=
CYIO 081100Z AUTO 19002KT 9SM OVC087 12/07 A2979 RMK SLP092=
CYIV 081100Z 31004KT 15SM FEW005 FEW025 FEW035 BKN045 OVC080 15/14
     A2982 RETS RMK SF1SC1SC1SC5AC1 FG SLP104=
CYKA 081100Z 13002KT 40SM SKC 15/10 A3009 RMK SLP187=
CYKF 081100Z AUTO 14003KT 3SM BR CLR 21/21 A3006 RMK SLP175
     DENSITY ALT 1800FT=
CYKJ 081100Z AUTO 27006KT 9SM CLR 11/07 A2990 RMK SLP144=
CYKY 081100Z 24002KT 12SM FEW100 SCT250 10/10 A3014 RMK AC1CI1 FG
     SLP209=
CYKZ 081100Z 00000KT 6SM HZ FEW060 FEW100 24/22 A3004 RMK CU1AC1
     CU TR SLP170=
CYLD 081100Z 33007KT 290V360 8SM +SHRA BKN012 OVC017 18/17 A2998
     RMK SF4SC4 BR BLN EST CVCTV CLDS EMBD FG VIS 1 E-SE
     SLP148=
CYLL 081100Z AUTO 28006KT 9SM FEW061 SCT074 OVC088 13/12 A3009 RMK
     SLP194 DENSITY ALT 2200FT=
CYLT 081100Z 17020KT 25SM FEW020 BKN240 15/05 A2966 RMK CU1CI0
     SLP046=
CYLW 081100Z AUTO 00000KT 9SM CLR 13/07 A3008 RMK SLP188=
CYMA 081100Z 00000KT 20SM FEW050 10/08 A3008 RMK SC1 SLP198=
CYMM 081100Z AUTO 00000KT 9SM CLR 11/09 A2999 RMK SLP161=
CYMO 081100Z AUTO 22003KT 9SM -RA FEW037 FEW054 FEW069 OVC099
     18/17 A2987 RMK SLP114=
CYNA 081100Z AUTO 10011KT 9SM OVC003 OVC045 13/12 A3004 RMK
     SLP173=
CYND 081100Z 00000KT 12SM FEW080 23/20 A3001 RMK AC1 SLP161=
CYNE 081100Z AUTO 28003KT 230V320 9SM CLR 13/12 A2989 RMK
     SLP126=
CYNM 081100Z AUTO 13003KT 120V180 9SM CLR 20/16 A2993 RMK
     SLP135=
CYOA 081100Z 00000KT 15SM FEW070 10/07 A2990 RMK AC2 17.5/9.0/0
     SLP143=
CYOD 081100Z 24004KT 15SM FEW040 FEW090 SCT240 15/13 A3003 RMK
     CU1AC2CI1 SLP178=
CYOJ 081100Z 00000KT 15SM FEW050 12/11 A2997 RMK SC2 SLP154=
CYOY 081100Z AUTO 13003KT 090V170 9SM FEW054 FEW066 FEW074 FEW080
     19/16 A3000 RMK SLP160=
CYPA 081100Z 26007KT 15SM FEW050 FEW100 BKN250 11/10 A3006 RMK
     SC1AC0CI0 SLP187=
CYPE 081100Z 33010KT 15SM BKN060 BKN250 15/12 A3006 RMK SC5CI0
     SLP182=
CYPG 081100Z 30007KT 15SM FEW050 FEW090 FEW250 14/11 A3004 RMK
     SC1AC1CI1 TR AC CI SLP174=
CYPH 081100Z AUTO 23015KT 1SM VV001 06/06 A2980 RMK VSBY VRBL
     0.6V9.0 SLP094=
CYPQ 081100Z AUTO ///// 8SM CLR 21/21 A3004 RMK SLP170=
CYPR 081100Z AUTO 18005KT 9SM CLR 13/12 A3005 RMK SLP178=
CYPY 081100Z AUTO 00000KT 9SM CLR 11/11 A2993 RMK SLP141=
CYQA 081100Z AUTO 14002KT 5SM BR FEW043 21/21 A3003 RMK SLP170
     DENSITY ALT 1700FT=
CYQD 081100Z 27009KT 15SM FEW040 FEW070 12/10 A2995 RMK SC1AC1
     TRAC SLP149=
CYQF 081100Z 00000KT 15SM FEW080 SCT250 10/08 A3014 RMK ACC1CI1
     ACC TR SLP215=
CYQH 081100Z 00000KT 30SM FEW030 09/08 A3012 RMK SC1 SLP205=
CYQI 081100Z 19003KT 1/8SM FG VV001 17/17 A3017 RMK FG8 RVR RRWY
     24 1100 FT SLP216=
CYQL 081100Z AUTO 22006KT 9SM CLR 10/09 A3018 RMK SLP220=
CYQR 081100Z 36005KT 15SM FEW054 SCT250 10/08 A3011 RMK SC2CI1 CU
     ASOCTD SLP203=
CYQT 081100Z 27004KT 20SM FEW070 16/16 A2998 RMK AC2 SLP153=
CYQU 081100Z 12006KT 25SM FEW100 BKN250 14/09 A3007 RMK AC1CI0
     SLP183=
CYQV 081100Z AUTO 27007KT 9SM CLR 10/09 A3007 RMK SLP193=
CYQW 081100Z AUTO 24005KT 9SM CLR 11/10 A3011 RMK SLP206=
CYQZ 081100Z AUTO 00000KT 9SM CLR 10/09 A3009 RMK SLP201=
CYRL 081100Z 27006KT 10SM SCT007 BKN080 15/14 A2992 RMK SC3AC1
     SLP134=
CYRT 081100Z 06010KT 3/8SM -DZ FG VV001 06/06 A2960 RMK FG8
     SLP026=
CYRV 081100Z AUTO 00000KT 6SM CLR 12/10 A3014 RMK SLP205=
####018003749####
SAXX99 KWBC 081100 RRH
METAR
CYSB 081100Z 19005KT 3/4SM R22/P6000FT/U BR VV002 21/21 A3000 RMK
     FG8 SLP154=
CYSC 081100Z AUTO 11002KT 4SM BR SCT076 23/22 A3003 RMK SLP169
     DENSITY ALT 1700FT=
CYSF 081100Z AUTO 28004KT 9SM SCT081 OVC100 12/08 A2985 RMK
     SLP116=
CYSL 081100Z 15005KT 5SM HZ FEW240 23/21 A3003 RMK CI2 SLP167=
CYSM 081100Z 00000KT 15SM FEW080 SCT160 BKN220 11/08 A2992 RMK
     AC1AC1CI1 SLP138=
CYSN 081100Z 22005KT 8SM SKC 24/22 A3003 RMK SLP166=
CYSR 081100Z 25006KT 40SM FEW050 FEW120 SCT230 09/03 A2981 RMK
     SC2AC1CI1 SLP126=
CYTH 081100Z 27007KT 15SM FEW075 FEW100 FEW240 10/09 A2982 RMK
     ACC1AC1CI1 SLP105=
CYTS 081100Z 20003KT 15SM -RA BKN065 BKN140 OVC210 20/18 A2988 RMK
     SC6AC2CI1 SLP118=
CYTZ 081100Z AUTO 22002KT 1/4SM FG BKN001 20/19 A3002 RMK SLP167
     DENSITY ALT 700FT RVR MISG=
CYUA 081100Z AUTO 27008KT 9SM BKN007 05/ A3008 RMK SLP189=
CYUS 081100Z AUTO ///// 9SM FEW092 11/ A2979 RMK SLP093=
CYVC 081100Z 00000KT 15SM BKN040 BKN250 13/10 A2997 RMK SC6CI1
     SLP159=
CYVM 081100Z AUTO 18007KT CLR 10/05 A2983 RMK SLP101=
CYVO 081100Z 18005KT 15SM FEW050TCU FEW120 BKN260 20/20 A2997 RMK
     TCU1AC1CI1 SLP147=
CYVQ 081100Z 10003KT 30SM -SHRA BKN040 BKN080 OVC270 13/12 A2995
     RMK SC6AC2CI1 PRESFR PAST HR SLP143=
CYVV 081100Z 00000KT 8SM FEW035 FEW100 22/21 A3001 RMK SC2AC1 TR
     AC TCU ASOCTD SLP162=
CYWA 081100Z AUTO 00000KT 9SM CLR 22/20 A3001 RMK SLP161=
CYWL 081100Z 00000KT 15SM FEW240 13/07 A3014 RMK CI1 SLP198=
CYXD 081100Z AUTO 21005KT 9SM CLR 14/11 A3007 RMK SLP184=
CYXE 081100Z 24006KT 15SM FEW090 FEW250 11/10 A3009 RMK AC1CI0
     SLP199=
CYXH 081100Z AUTO 24004KT 9SM CLR 09/09 A3017 RMK SLP218=
CYXL 081100Z 26006KT 15SM FEW053 FEW088 17/15 A2994 RMK CU2AC1
     SLP141=
CYXR 081100Z AUTO 14004KT 9SM CLR 20/20 A2994 RMK SLP126=
CYXS 081100Z AUTO 00000KT 9SM CLR 08/06 A3009 RMK SLP204=
CYXT 081100Z 36005KT 20SM FEW250 18/11 A3007 RMK CI1 SLP183=
CYXZ 081100Z 00000KT 15SM SCT003 BKN040 OVC080 17/17 A2996 RMK
     ST3SC2AS2 SLP148=
CYYB 081100Z 20003KT 4SM BR FEW020TCU BKN250 22/21 A3002 RMK
     TCU2CI2 SLP163=
CYYD 081100Z AUTO 00000KT 9SM CLR 11/09 A3010=
CYYF 081100Z 00000KT 15SM SKC 13/08 A3008 RMK SLP182=
CYYG 081100Z 23012KT 15SM FEW009 SCT170 BKN280 20/18 A3008 RMK
     SF2AC1CI2 SLP187=
CYYH 081100Z 05004KT 15SM FEW030 BKN045 BKN210 13/07 A2981 RMK
     SC2SC4CI0 SLP097=
CYYL 081100Z AUTO 28007KT 9SM BKN056 OVC093 12/09 A2982 RMK SLP110
     DENSITY ALT 1200FT=
CYYN 081100Z AUTO 26008KT 9SM CLR 11/11 A3014 RMK SLP208=
CYYU 081100Z 24004KT 10SM -SHRA SCT030 OVC080 18/16 A2994 RMK
     SC3AS5 SLP139=
CYYY 081100Z 00000KT 1/2SM R06/2400FT/N FG VV002 14/13 A3003 RMK
     FG8 SLP169=
CYZE 081100Z AUTO 17006KT 5SM BR SCT002 BKN150 20/20 A2997 RMK
     SLP150 DENSITY ALT 1300FT=
CYZH 081100Z AUTO 18003KT 9SM CLR 14/11 A3004 RMK SLP175=
CYZP 081100Z AUTO 26014KT 9SM CLR 16/12 A3008 RMK SLP186 MAX WND
     26017KT AT 1058Z=
CYZR 081100Z AUTO 18004KT 9SM CLR 23/18 A3002 RMK SLP166 DENSITY
     ALT 1500FT=
CYZT 081100Z 00000KT 15SM SKC 11/10 A3003 RMK SLP169=
CZCP 081100Z AUTO 28021G27KT 1/4SM DZ CLR 04/ A2985 RMK SLP116=
CZPC 081100Z AUTO 28009KT 9SM CLR 08/07 A3023 RMK SLP231=
CZUM 081100Z AUTO 00000KT 9SM FEW071 17/14 A2992 RMK SLP138=
EGXT 081050Z 23012KT 9999 FEW025 SCT012 BKN250 20/07 Q1018 BLU=
EPLL 081100Z VRB02KT CAVOK 22/06 Q1022=
FMNA 081100Z 12023KT 9999 SCT020 BKN040 28/17 Q1016=
FMSD 081100Z 06012KT 5000 RA SCT017 BKN033 19/18 Q1025=
FQIN 081100Z 17012KT 9999 BKN020 25/17 Q1028=
LEGT 081100Z 18004KT CAVOK 31/13 Q1020=
LERI 081100Z 09007KT CAVOK 34/22 Q1018 NOSIG=
####018000079####
SAIR31 OIII 081100 RRB
METAR OITT 081050Z 04012KT CAVOK 38/03 Q1014 A2994=
####018000494####
SAXX99 KWBC 081100 CCB
METAR
CYLD 081100Z CCA 33007KT 290V360 8SM +SHRA BKN012 OVC017 18/17
     A2998 RMK SF4SC4 BR BLN EST CVCTV CLDS EMBD VIS 1 E-SE
     SLP148=
CYRL 081100Z CCA 27006KT 10SM SCT005 BKN080 15/14 A2992 RMK SC3AC1
     SLP134=
CYSR 081100Z CCA 25006KT 40SM FEW050 FEW120 SCT230 09/03 A2981 RMK
     SC2AC1CI1 13.3/9.0/0.0/0/SNW CVR NIL SLP126=
LEBZ 081100Z 19011KT 160V220 CAVOK 34/13 Q1015=
WMKN 081100Z 18005KT 9999 FEW017CB SCT020 BKN250 28/24 Q1008=
####018001745####
SAXX99 KWBC 081100 RRI
METAR
LFBE 081100Z 07008KT CAVOK 31/19 Q1017 NOSIG=
LFBG 081100Z AUTO 08006KT 030V130 9999NDV NSC 32/15 Q1017=
LFMO 081100Z AUTO 21005KT 160V280 9999NDV NSC 33/14 Q1020=
LFOA 081100Z AUTO VRB03KT 9999NDV NSC 30/14 Q1019=
LFOJ 081100Z VRB04KT CAVOK 30/13 Q1019=
LFQI 081100Z 23005KT 130V280 CAVOK 29/11 Q1019=
LIMP 081050Z 06004KT 330V120 CAVOK 28/14 Q1022 RMK VIS MIN
     9999=
LIMZ 081050Z 35005KT 8000 FEW025 BKN045 25/17 Q1024 RMK VIS MIN
     8000=
LIRM 081055Z 08008KT CAVOK 29/15 Q1019 RMK SKC VIS MIN 9999 WIND
     THR06 06007KT BLU=
LKCV 081100Z VRB03KT CAVOK 23/08 Q1023 NOSIG=
LKKB 081100Z 28003KT 220V020 9999 FEW043 SCT200 23/08 Q1023
     NOSIG=
LKLN 081100Z AUTO 18004KT 140V270 CAVOK 24/10 Q1024=
LKNA 081100Z 36005KT CAVOK 21/09 Q1024 NOSIG=
LKPD 081100Z VRB04KT 9999 FEW045 SCT100 24/07 Q1023 NOSIG=
LKPO 081100Z 34003KT CAVOK 22/11 Q1023 NOSIG=
SKCC 081100Z 36004KT 9999 SCT015 SCT090 XX/XX A2997=
SLET 081100Z 15012KT 9999 FEW023 SCT070 19/18 Q1015=
UDYZ 081100Z 21002MPS 130V270 9999 FEW050 37/13 Q1009 09010070
     NOSIG=
ZBHH 081100Z 22003MPS CAVOK 29/10 Q1008 NOSIG=
ZBSJ 081100Z 17004MPS CAVOK 31/19 Q1004 NOSIG=
ZGHA 081100Z 15002MPS 9999 FEW040 32/29 Q1000 NOSIG=
ZGKL 081100Z 21002MPS CAVOK 32/25 Q1003 NOSIG=
ZGOW 081100Z 19005MPS 9999 FEW020 30/26 Q1006 NOSIG=
ZJHK 081100Z 17003MPS 120V220 9999 FEW030CB 31/24 Q1005 NOSIG=
ZLXY 081100Z 06003MPS 030V100 1800 BR OVC050 23/21 Q1007 NOSIG=
ZSQD 081100Z 17005MPS CAVOK 25/19 Q1007 NOSIG=
ZWSH 081100Z 18003MPS 100V220 CAVOK 32/02 Q1012 NOSIG=
ZYCC 081100Z 34003MPS 310V010 9999 SCT009 BKN026 19/18 Q1006
     NOSIG=
ZYTX 081100Z VRB01MPS 9999 FEW030 22/19 Q1007 NOSIG=
####018000109####
SAXX99 KWBC 081000 CCE
METAR
WBKT 081000Z 21010KT 6000 TSRA FEW015CB SCT016 BKN270 24/24
     Q1009=
####018000084####
SPUS52 KWBC 081108
SPECI
KACT 081106Z 06003KT 10SM SCT012 BKN017 26/23 A2999=
####018000082####
SPUS52 KWBC 081108
SPECI
KINK 081104Z AUTO 35007KT 10SM BKN017 21/19 A3007=
####018001641####
SAEU KAWN 081100 RRS
METAR LIEA 081050Z VRB03KT CAVOK 32/21 Q1019 RMK VIS MIN 9999=
METAR LIED 081055Z 15012KT 9999 33/18 Q1018 RMK FEW VIS MIN 9999 BLU=
METAR LIEO 081050Z 04011KT 9999 FEW030 30/20 Q1020 RMK VIS MIN 9999=
METAR LIMK 081055Z 34003KT 9999 BKN025 20/13 Q1023 RMK BKN VAL NIL
      VIS MIN 9999=
METAR LIPA 081055Z 21008KT 9999 FEW060 25/18 Q1022 RMK FEW VIS MIN
      9999 A3019 BLU=
METAR LIPB 081050Z 17011KT CAVOK 28/12 Q1021 RMK MON LIB VIS MIN 9999=
METAR LIPC 081055Z 11010KT CAVOK 28/14 Q1022 RMK FEW FEW200 VIS MIN
      9999 WIND THR12 11009KT BLU=
METAR LIPR 081045Z 08011KT CAVOK 28/17 Q1021 RMK SKC VIS MIN 9999 WIND
      THR31 09011KT BLU=
METAR LIPS 081055Z 20003KT 9999 FEW025 29/18 Q1022 RMK FEW VIS MIN
      9999 BLU=
METAR LIPX 081045Z 12003KT 9999 FEW040 29/13 Q1021 RMK FEW VIS MIN
      9999 BLU=
METAR LIQN 081050Z 36005KT CAVOK 27/17 Q1021 RMK VIS MIN 9999=
METAR LIRG 081055Z 27007KT 9999 SCT033 31/18 Q1019 RMK SCT MON NE LIB
      NC VIS MIN 9999 BLU=
METAR LIRH 081055Z 36005KT 9999 SCT035 29/19 Q1020 RMK SCT MON LIB
      NC VIS MIN 9999 WIND THR16 24006KT BLU=
METAR LIRK 081055Z 13010KT CAVOK 16/14 Q1027 RMK SCT SCT060 MON NE
      LIB NC VAL NIL NC VIS MIN 9999=
METAR LIRL 081055Z 24008KT 9999 FEW020 FEW025TCU 30/18 Q1018 RMK SCT
      MON LIB NC VIS MIN 9999 BLU=
METAR LIRM 081055Z 08008KT CAVOK 29/15 Q1019 RMK SKC VIS MIN 9999 WIND
      THR06 06007KT BLU=
METAR LIRT 081055Z 01009KT 9999 FEW015 17/07 Q1023 RMK FEW MON LIB
      VAL NIL VIS MIN 9999=
METAR LIRZ 081050Z 01007KT 330V060 CAVOK 30/11 Q1021 RMK VIS MIN 9999=
####018001610####
SAEU KAWN 081100 RRR
METAR EGXT 081050Z 23012KT 9999 FEW025 SCT012 BKN250 20/07 Q1018 BLU=
METAR LIMH 081055Z 06011KT CAVOK 05/M07 Q1039 RMK FEW FEW100 MON LIB
      VAL S CLD SCT VIS MIN 9999=
METAR LIMN 081055Z /////KT 9999 FEW030 27/15 Q1021 RMK FEW VIS MIN
      9999 BLU=
METAR LIMU 081055Z 05010KT 9999 FEW028 29/21 Q1020 RMK BKN SCT070 QUK
      2 QUL 1 E VIS MAR 15 KM VIS MIN 9999=
METAR LIMV 081055Z 36008KT 6000 FEW012 23/18 Q1023 RMK SCT SCT080 MON
      LIB NC VAL FOSCHIA VIS MIN 6000=
METAR LIMY 081055Z /////KT 7000 SCT026 SCT036 21/17 Q1023 RMK BKN VAL
      FOSCHIA VIS MIN 7000=
METAR LIPF 081055Z 27002KT 9999 FEW050 27/19 Q1021 RMK FEW VIS MIN
      9999=
METAR LIVD 081055Z 00000KT CAVOK 21/12 Q1024 RMK SKC VIS MIN 9999=
METAR LIVE 081055Z 18008KT CAVOK 20/10 Q1024 RMK SKC VIS MIN 9999=
METAR LIVF 081055Z 03003KT CAVOK 27/08 Q1022 RMK FEW FEW220 MON LIB
      VAL NIL VIS MIN 9999=
METAR LIVM 081055Z 14009KT CAVOK 27/20 Q1021 RMK SKC QUK 2 QUL 1 SE
      VIS MAR 30 KM VIS MIN 9999=
METAR LIVO 081055Z 17003KT 9999 FEW040 23/13 Q1022 RMK FEW VIS MIN
      9999=
METAR LIVR 081055Z /////KT 9999 FEW025 15/11 Q1028 RMK FEW MON CLD
      CIME VIS MIN 9999=
METAR LIVT 081055Z 28001KT CAVOK 24/17 Q1022 RMK SCT SCT070 QUK 1 QUL
      0 VIS MAR 20 KM VIS MIN 9999=
METAR LPFR 081100Z 26008KT 220V290 9999 SCT010 BKN012 23/20 Q1016=
METAR LPPR 081100Z 21009KT 170V260 4000 BR FEW002 BKN004 21/18 Q1015=
METAR LPPS 081100Z 03011KT 350V060 9999 FEW016 SCT030 22/15 Q1021=
METAR LPPT 081100Z 26007KT 220V290 CAVOK 27/19 Q1015 NOSIG=
####018000325####
SAUY SUMU 081100
METAR SUMU 081100Z 31006KT CAVOK 03/03 Q1018 NOSIG=
METAR SUDU 081100Z 33004KT 9999 FEW023 04/03 Q1019=
METAR SULS 081100Z 30005KT 9999 FEW016 06/03 Q1018=
METAR SUCA 081100Z 30007KT CAVOK 08/02 Q1018=
METAR SUAA 081100Z 32006KT CAVOK 04/02 Q1018=
METAR SUSO 081100Z 12004KT CAVOK 05/04 Q1020=
####018000327####
SAUY59 SUMU 081100
METAR SUMU 081100Z 31006KT CAVOK 03/03 Q1018 NOSIG=
METAR SUDU 081100Z 33004KT 9999 FEW023 04/03 Q1019=
METAR SULS 081100Z 30005KT 9999 FEW016 06/03 Q1018=
METAR SUCA 081100Z 30007KT CAVOK 08/02 Q1018=
METAR SUAA 081100Z 32006KT CAVOK 04/02 Q1018=
METAR SUSO 081100Z 12004KT CAVOK 05/04 Q1020=
####018000082####
SPUS53 KWBC 081108
SPECI
KGCK 081105Z AUTO 03011KT 10SM BKN007 17/16 A3022=
####018000088####
SPUS53 KWBC 081108
SPECI
KUIN 081105Z AUTO 00000KT 1 1/2SM BR OVC001 23/22 A3004=
####018000084####
SPUS72 KWBC 081108
SPECI
KACT 081106Z 06003KT 10SM SCT012 BKN017 26/23 A2999=
####018000082####
SPUS72 KWBC 081108
SPECI
KINK 081104Z AUTO 35007KT 10SM BKN017 21/19 A3007=
####018000093####
SAFR33 LFPW 081100 RRA
METAR LFKB 081100Z 11006KT 070V160 9999 FEW021 29/21 Q1020 NOSIG=
####018000082####
SPUS73 KWBC 081108
SPECI
KGCK 081105Z AUTO 03011KT 10SM BKN007 17/16 A3022=
####018000363####
SATH31 VTBB 081100
METAR VTCT 081100Z NIL=
METAR VTCN 081100Z NIL=
METAR VTCP 081100Z NIL=
METAR VTCH 081100Z NIL=
METAR VTPH 081100Z 14005KT 9999 SCT030 31/23 Q1006=
METAR VTPM 081100Z NIL=
METAR VTPP 081100Z 19004KT 9999 FEW028 35/23 Q1003=
METAR VTPO 081100Z NIL=
METAR VTCL 081100Z NIL=
METAR VTPB 081100Z NIL=
METAR VTPT 081100Z NIL=
####018000621####
SABY31 UMMN 081100
METAR UMBB 081100Z 30004G07MPS 8000 SCT031 23/12 Q1019 R29/CLRD//
NOSIG=
METAR UMGG 081100Z 24004MPS 9999 BKN030CB BKN100 28/16 Q1014
R28/CLRD// NOSIG=
METAR UMII 081100Z 18004MPS P6000 BKN020CB 23/16 Q1013 R23/CLRD//
TEMPO 2000 TSRA BKN005 =
METAR UMMG 081100Z 32007G10MPS 9999 SCT026 BKN200 23/13 Q1015
R35/CLRD// NOSIG=
METAR UMMM 081100Z 28005MPS 9999 OVC021 20/15 Q1015 R30/CLRD// NOSIG
RMK QFE742=
METAR UMMS 081100Z 28002MPS 250V310 9999 BKN020 20/16 Q1015
R31/CLRD// NOSIG=
METAR UMOO 081100Z 29005MPS 9999 BKN018CB BKN/// 24/18 Q1013
R31/290056 TEMPO 3000 -TSRA=
####018000081####
SPUS73 KWBC 081108
SPECI
KHIB 081105Z AUTO 00000KT 2SM BR CLR 09/09 A3004=
####018000607####
SAMS34 WMKK 081100
METAR 081100Z
METAR WBGB 081100Z 15003KT 9999 -RA SCT016 OVC140 25/24 Q1009 RETSRA=
METAR WBGR 081100Z 06010KT 5000 +TSRA SCT014 FEW015CB BKN150 25/24 Q1010=
METAR WBGS 081100Z 11003KT 9999 SCT018 BKN150 25/24 Q1010=
METAR WBGY 081100Z 29002KT 9999 SCT023 BKN150 26/24 Q1009=
METAR WBKL 081100Z 13005KT 3000 TSRA SCT010 FEW013CB SCT030 BKN130 26/25
     Q1009=
METAR WBKS 081100Z 34001KT 9999 FEW016 BKN300 28/26 Q1008=
METAR WBKT 081100Z 25003KT 9999 FEW015 FEW016CB SCT033 BKN270 24/23 Q1008
     RETS=
METAR WBKW 081100Z 10002KT 9999 FEW017 BKN300 29/25 Q1008=
####018000127####
SAIQ01 ORBI 081105
METAR ORBI 081100Z 30014KT CAVOK 44/08 Q1003 NOSIG=
METAR ORMM 081100Z 32018KT 8000 SKC 49/M04 Q0998=
####018000088####
SPUS73 KWBC 081108
SPECI
KUIN 081105Z AUTO 00000KT 1 1/2SM BR OVC001 23/22 A3004=
####018000383####
SAMG20 FMMI 081100
METAR FMNA 081100Z 12023KT 9999 SCT020 BKN040 28/17 Q1016=
METAR FMNM 081100Z ///10KT CAVOK 30/13 Q1013=
METAR FMMI 081100Z 11010KT 080V150 9999 BKN020 19/12 Q1025 NOSIG=
METAR FMMT 081100Z 22014KT 9999 SCT017 25/21 Q1021=
METAR FMSD 081100Z 06012KT 5000 RA SCT017 BKN033 19/18 Q1025=
METAR FMCH 081100Z 24015KT 9999 FEW025 SCT030 28/21 Q1018 NOSIG=
####018001274####
SAAL41 DAMM 081100
METAR DAAD 081100Z NIL=
METAR DAAE 081100Z 09009KT CAVOK 27/22 Q1019=
METAR DAAJ 081100Z NIL=
METAR DAAP 081100Z 26008KT CAVOK 40/12 Q1015=
METAR DAAS 081100Z 12007KT CAVOK 34/07 Q1024=
METAR DAAV 081100Z 36010KT CAVOK 30/21 Q1019=
METAR DAAY 081100Z 33004KT CAVOK 35/12 Q1025=
METAR DABT 081100Z 30012KT CAVOK 34/07 Q1023=
METAR DAFH 081100Z 12014KT CAVOK 35/16 Q1022=
METAR DAMH 081100Z 03004KT CAVOK 38/12 Q1015=
METAR DAOB 081100Z 06006KT CAVOK 37/06 Q1023=
METAR DAOF 081100Z 08010KT 4000 HZ NSC 41/06 Q1014=
METAR DAOI 081100Z 10008KT CAVOK 39/13 Q1017=
METAR DAOL 081100Z NIL=
METAR DAOR 081100Z 18004KT CAVOK 38/05 Q1023=
METAR DAOV 081100Z 02006KT CAVOK 40/09 Q1019=
METAR DATF 081100Z 36014KT CAVOK 39/08 Q1016=
METAR DATG 081100Z NIL=
METAR DATM 081100Z NIL=
METAR DAUA 081100Z NIL=
METAR DAUB 081100Z 13012KT CAVOK 35/15 Q1017=
METAR DAUE 081100Z 04016KT CAVOK 37/09 Q1020=
METAR DAUG 081100Z 15005KT CAVOK 36/10 Q1021=
METAR DAUI 081100Z NIL=
METAR DAUK 081100Z 18010KT CAVOK 35/15 Q1019=
METAR DAUL 081100Z 00000KT CAVOK 36/12 Q1022=
METAR DAUO 081100Z 15002KT CAVOK 35/17 Q1018=
METAR DAUT 081100Z ///18KT 4000 DRSA  NSC 40/09 Q1016=
METAR DAUU 081100Z 00000KT CAVOK 38/18 Q1018=
####018001879####
SAIY40 LIIB 081100
METAR LIMG 081050Z 07008KT 9999 SCT080 30/24 Q1021 RMK VIS MIN 9999=
METAR LIMK 081055Z 34003KT 9999 BKN025 20/13 Q1023 RMK BKN VAL NIL
      VIS MIN 9999=
METAR LIMN 081055Z /////KT 9999 FEW030 27/15 Q1021 RMK FEW VIS MIN
      9999 BLU=
METAR LIMP 081050Z 06004KT 330V120 CAVOK 28/14 Q1022 RMK VIS MIN
9999=
METAR LIMS 081055Z 12009KT 060V150 CAVOK 28/15 Q1021 RMK SKC VIS MIN
      9999 WIND THR30 10006KT BLU=
METAR LIMZ 081050Z 35005KT 8000 FEW025 BKN045 25/17 Q1024 RMK VIS
MIN 8000=
METAR LIPA 081055Z 21008KT 9999 FEW060 25/18 Q1022 RMK FEW VIS MIN
      9999 A3019 BLU=
METAR LIPB 081050Z 17011KT CAVOK 28/12 Q1021 RMK MON LIB VIS MIN
9999=
METAR LIPC 081055Z 11010KT CAVOK 28/14 Q1022 RMK FEW FEW200 VIS MIN
      9999 WIND THR12 11009KT BLU=
METAR LIPF 081055Z 27002KT 9999 FEW050 27/19 Q1021 RMK FEW VIS MIN
      9999=
METAR LIPH 081045Z 16004KT 9999 SCT025 27/20 Q1023 RMK SCT VIS MIN
      9999 WIND THR07 /////KT BLU=
METAR LIPI 081055Z 20005KT 9999 FEW030 26/19 Q1021 RMK FEW VIS MIN
     9999 WIND THR06 18004KT BLU=
METAR LIPL 081055Z 14004KT 9999 FEW035 27/18 Q1022 RMK SCT VIS MIN
      9999 BLU=
METAR LIPO 081050Z 20004KT 100V230 9999 FEW065 28/14 Q1021 RMK VIS
MIN 9999=
METAR LIPQ 081050Z VRB03KT CAVOK 26/15 Q1022=
METAR LIPR 081045Z 08011KT CAVOK 28/17 Q1021 RMK SKC VIS MIN 9999
      WIND THR31 09011KT BLU=
METAR LIPS 081055Z 20003KT 9999 FEW025 29/18 Q1022 RMK FEW VIS MIN
     9999 BLU=
METAR LIPX 081045Z 12003KT 9999 FEW040 29/13 Q1021 RMK FEW VIS MIN
      9999 BLU=
METAR LIPY 081050Z 06008KT 010V090 CAVOK 27/14 Q1021 RMK VIS MIN
9999=
METAR LIVC 081055Z 00000KT 9999 SCT000 14/11 Q1030 RMK SCT MON CLD
      CIME CUF VAL CLD SCT ELEV VIS MIN 9999=
METAR COR LIVP 081055Z VRB02KT 9999 BKN010 13/10 Q1029 RMK BKN MON W
      CIME INC VAL NE LIB VIS MIN 9999=
####018001077####
SAAE31 VTBB 081100
METAR VTBS 081100Z 17004KT 090V170 9999 FEW020 SCT035 BKN300 29/23
           Q1006 NOSIG=
METAR VTBD 081100Z 14006KT 9999 FEW020 SCT120 BKN300 31/23 Q1006
           NOSIG=
METAR VTCC 081100Z 21007KT 9999 FEW025CB SCT035 BKN300 34/21 Q1007
           A2974 CB N,NE,S,W=
METAR VTBU 081100Z 11002KT 9999 FEW020 BKN300 34/25 Q1006 A2973=
METAR VTSS 081100Z NIL=
METAR VTSP 081100Z 29009KT 9000 FEW020 SCT120 BKN300 29/24 Q1009
           A2980=
METAR VLVT 081100Z 27002KT 9999 FEW016 FEW050 32/24 Q1004=
METAR VYYY 081100Z 32005KT 8000 SCT018 FEW020CB SCT110 32/25 Q1006=
METAR VVTS 081100Z VRB01KT 9999 FEW015CB SCT017 29/23 Q1007 NOSIG=
METAR VVNB 081100Z NIL=
METAR VDPP 081100Z 25009KT 9999 SCT015 FEW017CB SCT040 31/22 Q1006
           CB:NE NW=
METAR VVDN 081100Z 25004KT 190V290 9999 FEW017CB SCT300 27/20 Q1006
           NOSIG=
METAR VYMD 081100Z NIL=
METAR VDSR 081100Z 18007KT 9999 SCT017 FEW020CB SCT040 32/23 Q1005
           CB:SE,NE=
METAR VVPB 081100Z 25011KT 9999 SCT020 BKN300 30/20 Q1006 NOSIG=
####018001858####
SAIY42 LIIB 081100
METAR LIBF 081050Z 33018KT CAVOK 28/07 Q1020 RMK VIS MIN 9999=
METAR LIEA 081050Z VRB03KT CAVOK 32/21 Q1019 RMK VIS MIN 9999=
METAR LIED 081055Z 15012KT 9999 33/18 Q1018 RMK FEW VIS MIN 9999 BLU=
METAR LIEO 081050Z 04011KT 9999 FEW030 30/20 Q1020 RMK VIS MIN
9999=
METAR LIMA 081050Z VRB03KT 9999 SCT040 25/16 Q1023 RMK VIS MIN 9999=
METAR LIQN 081050Z 36005KT CAVOK 27/17 Q1021 RMK VIS MIN 9999=
METAR LIQO 081055Z 00000KT 9999 FEW003 25/20 Q1021 RMK FEW VAL NIL NC
      VIS MIN 9999=
METAR LIQW 081055Z 19003KT 9999 FEW030 29/18 Q1020 RMK FEW VIS MIN
      9999 BLU=
METAR LIRE 081055Z 23010KT 9999 FEW020 28/20 Q1019 RMK FEW VIS MIN
      9999 WIND THR31 22010KT BLU=
METAR LIRG 081055Z 27007KT 9999 SCT033 31/18 Q1019 RMK SCT MON NE
     LIB NC VIS MIN 9999 BLU=
METAR LIRH 081055Z 36005KT 9999 SCT035 29/19 Q1020 RMK SCT MON LIB NC
      VIS MIN 9999 WIND THR16 24006KT BLU=
METAR LIRI 081050Z 02011KT CAVOK 29/11 Q1019 RMK VIS MIN 9999=
METAR LIRK 081055Z 13010KT CAVOK 16/14 Q1027 RMK SCT SCT060 MON NE
      LIB NC VAL NIL NC VIS MIN 9999=
METAR LIRL 081055Z 24008KT 9999 FEW020 FEW025TCU 30/18 Q1018 RMK SCT
      MON LIB NC VIS MIN 9999 BLU=
METAR LIRM 081055Z 08008KT CAVOK 29/15 Q1019 RMK SKC VIS MIN 9999
      WIND THR06 06007KT BLU=
METAR LIRS 081055Z 21010KT 9999 FEW040 31/14 Q1019 RMK SCT SCT200 VIS
      MIN 9999 WIND THR21 /////KT BLU=
METAR LIRT 081055Z 01009KT 9999 FEW015 17/07 Q1023 RMK FEW MON LIB
      VAL NIL VIS MIN 9999=
METAR LIRU 081050Z 25003KT 9999 SCT040 30/19 Q1021 RMK VIS MIN 9999=
METAR LIRV 081055Z 25005KT 9999 FEW028 29/18 Q1021 RMK FEW MON E SE
      LIB NC VIS MIN 9999 BLU=
METAR LIRX 081055Z 16004KT CAVOK 28/11 Q1020 RMK SKC VIS MIN 9999E
      VIS MAR 25 KM=
METAR LIRZ 081050Z 01007KT 330V060 CAVOK 30/11 Q1021 RMK VIS MIN
9999=
####018001111####
SAIY41 LIIB 081100
METAR LIMH 081055Z 06011KT CAVOK 05/M07 Q1039 RMK FEW FEW100 MON LIB
      VAL S CLD SCT VIS MIN 9999=
METAR LIMT 081100Z NIL=
METAR LIMU 081055Z 05010KT 9999 FEW028 29/21 Q1020 RMK BKN SCT070 QUK
      2 QUL 1 E VIS MAR 15 KM VIS MIN 9999=
METAR LIMV 081055Z 36008KT 6000 FEW012 23/18 Q1023 RMK SCT SCT080 MON
      LIB NC VAL FOSCHIA VIS MIN 6000=
METAR LIMY 081055Z /////KT 7000 SCT026 SCT036 21/17 Q1023 RMK BKN VAL
      FOSCHIA VIS MIN 7000=
METAR LIVD 081055Z 00000KT CAVOK 21/12 Q1024 RMK SKC VIS MIN 9999=
METAR LIVE 081055Z 18008KT CAVOK 20/10 Q1024 RMK SKC VIS MIN 9999=
METAR LIVF 081055Z 03003KT CAVOK 27/08 Q1022 RMK FEW FEW220 MON LIB
      VAL NIL VIS MIN 9999=
METAR LIVM 081055Z 14009KT CAVOK 27/20 Q1021 RMK SKC QUK 2 QUL 1 SE
      VIS MAR 30 KM VIS MIN 9999=
METAR LIVO 081055Z 17003KT 9999 FEW040 23/13 Q1022 RMK FEW VIS MIN
      9999=
METAR LIVR 081055Z /////KT 9999 FEW025 15/11 Q1028 RMK FEW MON CLD
      CIME VIS MIN 9999=
METAR LIVT 081055Z 28001KT CAVOK 24/17 Q1022 RMK SCT SCT070 QUK 1 QUL
      0 VIS MAR 20 KM VIS MIN 9999=
####018000469####
SAAL40 DAMM 081100
METAR DAAG 081100Z 04005KT 330V070 CAVOK 33/18 Q1019=
METAR DAAT 081100Z 11013KT 050V160 CAVOK 33/03 Q1022=
METAR DABB 081100Z 01012KT CAVOK 28/19 Q1019=
METAR DABC 081100Z 34008KT CAVOK 32/07 Q1023=
METAR DABS 081100Z 34006KT CAVOK 32/10 Q1023=
METAR DAON 081100Z 36008KT CAVOK 35/21 Q1017=
METAR DAOO 081100Z 36013KT CAVOK 27/21 Q1016=
METAR DAUH 081100Z 10014KT CAVOK 38/21 Q1018=
METAR DAUZ 081100Z 22005KT CAVOK 38/07 Q1017=
####018001469####
SAIY43 LIIB 081100
METAR LIBA 081055Z /////KT 9999 FEW040 28/10 Q1019 RMK FEW VIS MIN
      9999 WIND THR29 32011KT BLU=
METAR LIBC 081050Z 03021KT CAVOK 27/10 Q1018 RMK VIS MIN 9999=
METAR LIBD 081050Z 36015KT CAVOK 25/10 Q1020 RMK VIS MIN 9999=
METAR LIBG 081050Z 01018G29KT 320V030 9999 FEW028 27/08 Q1018 RMK
VIS MIN 9999=
METAR LIBN 081055Z 35020G30KT 9999 FEW030 26/11 Q1018 RMK FEW VIS MIN
      9999 WIND THR14 34018G28KT BLU=
METAR LIBP 081050Z 02008KT 350V090 CAVOK 26/07 Q1022 RMK VIS MIN
9999=
METAR LIBQ 081100Z NIL=
METAR LIBR 081045Z /////KT 9999 FEW020 25/15 Q1017 NOSIGNOSIG RMK FEW
      VIS MIN 9999 WIND THR13 WIND THR31 34018KT BLU=
METAR LIBV 081055Z 01020G31KT CAVOK 25/12 Q1017 RMK SKC VIS MIN 9999
      WIND THR14 35019KT BLU=
METAR LICA 081050Z 24011KT 9999 SCT020 27/23 Q1017 RMK VIS MIN 9999=
METAR LICC 081050Z 12011KT 8000 FEW040 29/20 Q1018 RMK VIS MIN 8000=
METAR LICD 081050Z 36008KT CAVOK 27/21 Q1019 RMK VIS MIN 9999=
METAR LICG 081055Z 31008KT 260V360 CAVOK 24/22 Q1019 RMK SKC VIS MIN
      9999 WIND THR08 VRB06KT WIND THR21 30006KT BLU=
METAR LICJ 081050Z 04016KT CAVOK 27/23 Q1018 RMK VIS MIN 9999=
METAR LICR 081050Z 20008KT 170V240 9999 FEW020 BKN040 27/19 Q1018
RMK VIS MIN 9999=
METAR LICT 081055Z 32013KT 9999 FEW022 30/26 Q1018 RMK FEW VIS MIN
      9999 WIND THR13 31009KT BLU=
METAR LICZ 081055Z 09015KT CAVOK 31/20 Q1017 RMK SKC VIS MIN 9999
      WIND THR28 //////KT BLU=
####018001125####
SANA35 KAWN 081100 RRC
METAR MKJS 081100Z 17003KT 9999 FEW024 BKN200 25/22 Q1012=
METAR SAZS 081100Z 32008KT 4000 RA BKN007 OVC040 01/00 Q1005=
METAR SCAR 081100Z VRB01KT 9999 OVC021 15/09 Q1016=
METAR SCDA 081100Z 36008KT 9999 OVC026 14/08 Q1017=
METAR SCFA 081100Z 00000KT 9999 OVC017 12/07 Q1016=
METAR SKBQ 081100Z 22004KT 2000 BR SCT004 25/25 A2987 RMK APRSM=
METAR SKCG 081100Z VRB02KT 9999 FEW012TCU 26/25 A2886 RMK TC/NNW=
METAR SKSP 081100Z 08006KT 9999 SCT015 28/25 A2982=
METAR SPHI 081100Z 17007KT 9999 SCT012 15/13 Q1014 RMK PP000=
METAR SPQU 081100Z 34005KT CAVOK 06/M09 Q1024 RMK PP000=
METAR SPRU 081100Z 16005KT 7000 OVC015 16/13 Q1013 RMK BIRD HAZARD
      RWY20 PP000=
METAR SPSO 081100Z 14003KT 8000 SKC 12/10 Q1013 RMK PP000=
METAR TFFF 081105Z 08011KT 9999 FEW020 SCT026 29/24 Q1014 NOSIG=
METAR COR TFFF 081106Z 08010KT 9999 FEW020 SCT026 29/24 Q1014 NOSIG=
METAR TFFR 081100Z VRB02KT 9999 FEW021 28/24 Q1015 NOSIG=
METAR TTPP 081100Z 00000KT 9000 FEW006 FEW010CB BKN036 BKN080 25/24
      Q1011 NOSIG=
METAR TVSV 081100Z 11013KT 9999 SCT021 BKN280 29/24 Q1014=
####018000584####
SAUS20 KNKA 081108
SPECI KCEC 081107Z AUTO 00000KT 4SM BR OVC003 10/09 A2998 RMK AO2=
SPECI KCOT 081107Z AUTO 04005KT 10SM BKN015 OVC055 25/23 A2990 RMK 
    AO2=
SPECI KCWF 081100Z 06005KT 7SM SKC 24/24 A2999=
SPECI KDAW 081107Z AUTO 16004KT 2SM BR 22/21 A3008 RMK AO2 $=
SPECI KFLD 081107Z AUTO 00000KT 6SM BR BKN009 22/20 A3001 RMK AO2 
    CIG 007V011=
SPECI KLEB 081107Z 00000KT 3SM HZ FEW001 24/21 A3006 RMK AO2=
SPECI KLVK 081107Z AUTO 28007KT 10SM OVC008 13/11 A2990 RMK AO2=
SPECI KVTA 081107Z AUTO 00000KT 2 1/2SM BR FEW065 20/19 A3009 RMK 
    AO2=
####018000252####
SAXX70 KAWN 081100 RRJ
METAR KQVE 081055Z AUTO 21510G15KT 9999 CLR 38/14 A2982 RMK AO2 SLP016=
METAR KQEX 081100Z AUTO 19003KT 4SM BR FEW039 SCT130 26/20 A2974 RMK
      A02=
METAR KQFT 081100Z AUTO 12002KT 2SM -RA VV004 25/21 A2983 RMK A02=
####018001642####
SAEU KAWN 081100 RRT
METAR LFMC 081100Z 11006KT 070V140 9999 FEW050 32/19 Q1020=
METAR LFOF 081100Z 20007KT 160V260 CAVOK 29/11 Q1018 NOSIG=
METAR LFOR 081100Z VRB02KT CAVOK 31/08 Q1019=
METAR LIMG 081050Z 07008KT 9999 SCT080 30/24 Q1021 RMK VIS MIN 9999=
METAR LIMS 081055Z 12009KT 060V150 CAVOK 28/15 Q1021 RMK SKC VIS MIN
      9999 WIND THR30 10006KT BLU=
METAR LIPH 081045Z 16004KT 9999 SCT025 27/20 Q1023 RMK SCT VIS MIN
      9999 WIND THR07 /////KT BLU=
METAR LIPI 081055Z 20005KT 9999 FEW030 26/19 Q1021 RMK FEW VIS MIN
      9999 WIND THR06 18004KT BLU=
METAR LIPL 081055Z 14004KT 9999 FEW035 27/18 Q1022 RMK SCT VIS MIN
      9999 BLU=
METAR LIPY 081050Z 06008KT 010V090 CAVOK 27/14 Q1021 RMK VIS MIN 9999=
METAR LIQO 081055Z 00000KT 9999 FEW003 25/20 Q1021 RMK FEW VAL NIL
      NC VIS MIN 9999=
METAR LIQW 081055Z 19003KT 9999 FEW030 29/18 Q1020 RMK FEW VIS MIN
      9999 BLU=
METAR LIRE 081055Z 23010KT 9999 FEW020 28/20 Q1019 RMK FEW VIS MIN
      9999 WIND THR31 22010KT BLU=
METAR LIRS 081055Z 21010KT 9999 FEW040 31/14 Q1019 RMK SCT SCT200 VIS
      MIN 9999 WIND THR21 /////KT BLU=
METAR LIRU 081050Z 25003KT 9999 SCT040 30/19 Q1021 RMK VIS MIN 9999=
METAR LIRV 081055Z 25005KT 9999 FEW028 29/18 Q1021 RMK FEW MON E SE
      LIB NC VIS MIN 9999 BLU=
METAR LIRX 081055Z 16004KT CAVOK 28/11 Q1020 RMK SKC VIS MIN 9999E
      VIS MAR 25 KM=
METAR LIVC 081055Z 00000KT 9999 SCT000 14/11 Q1030 RMK SCT MON CLD
      CIME CUF VAL CLD SCT ELEV VIS MIN 9999=
METAR COR LIVP 081055Z VRB02KT 9999 BKN010 13/10 Q1029 RMK BKN MON
      W CIME INC VAL NE LIB VIS MIN 9999=
####018000089####
SPCN47 CWAO 081106
SPECI CYNA 081106Z AUTO 10014KT 9SM OVC004 OVC045 13/12 A3004=

####018001810####
SASA KAWN 081100 RRD
METAR SAWG 081100Z 29016KT 9999 SCT025 SCT100 03/M06 Q0991=
METAR SBCB 081100Z 05004KT CAVOK 21/15 Q1018=
METAR SEGU 081100Z 20005KT 9999 BKN030 23/19 Q1011 NOSIG=
METAR SELT 081100Z VRB01KT 9999 FEW030 04/03 Q1032=
METAR SEMT 081100Z 17004KT 9999 BKN016 BKN100 22/20 Q1012=
METAR SEQU 081100Z 00000KT 9999 SCT100 09/07 Q1026 RMK A3032 NOSIG=
METAR SKBG 081100Z 00000KT 9999 SCT012 SCT080 19/19 A3003 RMK MIFG/S=
METAR SKCG 081100Z VRB02KT 9999 FEW012TCU 26/25 A2886 RMK TC/NNW=
METAR SKCL 081100Z 00000KT 9999 BKN020 BKN080 21/19 A3000=
METAR SKPE 081100Z VRB02KT 9999 FEW015 BKN080 18/16 A3010=
METAR SLCA 081100Z 00000KT 9999 BKN030 15/14 Q1020=
METAR SLCO 081100Z 00000KT 9999 SCT080 BKN200 23/22 Q1012=
METAR SLCP 081100Z 12003KT 9999 BKN017 OVC070 21/20 Q1017=
METAR SLET 081100Z 15012KT 9999 FEW023 SCT070 19/18 Q1015=
METAR SLJE 081100Z 19006KT 9999 BKN015 19/17 Q1017=
METAR SLJO 081100Z 00000KT 9999 FEW020 SCT080 BKN200 22/21 Q1012=
METAR SLMG 081100Z 03004KT 9999 FEW080 BKN200 23/21 Q1013=
METAR SLOR 081100Z 00000KT 9999 NSC M07/M09 Q1033=
METAR SLPS 081100Z 00000KT 9999 FEW023 BKN070 24/16 Q1012=
METAR SLRB 081100Z 00000KT 9999 BKN017 21/18 Q1017=
METAR SLRI 081100Z 00000KT 5000 FU SCT080 24/23 Q1012=
METAR SLRQ 081100Z 00000KT 9999 BKN017 FEW020CB 22/22 Q1012=
METAR SLRY 081100Z 00000KT 3000 BR SCT017 FEW023CB BKN200 22/22 Q1012=
METAR SLSA 081100Z 36004KT 9999 FEW020 FEW023CB BKN200 23/22 Q1011=
METAR SLSI 081100Z 00000KT 9999 BKN070 21/19 Q1015=
METAR SLSU 081100Z 05005KT 9999 SCT010 08/05 Q1028=
METAR SLVM 081100Z 00000KT 9999 FEW020 SCT070 16/15 Q1026=
METAR SLYA 081100Z 00000KT 9999 FEW023 12/10 Q1021=
METAR SUAA 081100Z 32006KT CAVOK 04/02 Q1018=
METAR SUCA 081100Z 30007KT CAVOK 08/02 Q1018=
####018000123####
SACN47 CWAO 081100 CCB
METAR CYGR 081100Z CCA 22015KT 12SM FEW040 BKN080 20/17 A3004 RMK
SC2AC5 CU ASOCTD SLP171=

####018000118####
SPCN46 CWAO 081108
SPECI CYQA 081108Z AUTO 14002KT 6SM BR FEW043 21/21 A3003 RMK SLP169
 DENSITY ALT 1700FT=

####018000133####
SABC40 FBSK 081100 RRA
METAR FBFT 081100Z 10015KT 9999 BKN015 20/10 Q1030=
METAR FBKE 081100Z /////KT 9999 FEW020 22/07 Q1027=
####018000100####
SAUS41 KPHI 081108
MTRNEL
SPECI KNEL 081107Z AUTO 14006KT 4SM HZ OVC005 25/22 A3003 RMK AO2 $
####018000092####
SAUS99 KWBC 081109
METAR
KMZZ 081055Z AUTO 00000KT 5SM BR BKN110 22/20 A3006 RMK AO2=
####018000544####
SPUS99 KWBC 081109
SPECI
KCEC 081107Z AUTO 00000KT 4SM BR OVC003 10/09 A2998 RMK AO2=
KCOT 081107Z AUTO 04005KT 10SM BKN015 OVC055 25/23 A2990 RMK
     AO2=
KCWF 081100Z 06005KT 7SM SKC 24/24 A2999=
KDAW 081107Z AUTO 16004KT 2SM BR 22/21 A3008 RMK AO2 $=
KFLD 081107Z AUTO 00000KT 6SM BR BKN009 22/20 A3001 RMK AO2 CIG
     007V011=
KLEB 081107Z 00000KT 3SM HZ FEW001 24/21 A3006 RMK AO2=
KLVK 081107Z AUTO 28007KT 10SM OVC008 13/11 A2990 RMK AO2=
KVTA 081107Z AUTO 00000KT 2 1/2SM BR FEW065 20/19 A3009 RMK
     AO2=
####018000536####
SABO SLLP 081100
METAR SLLP 081100Z 06003KT 9999 NSC M04/M05 Q1037=
METAR SLVR 081100Z 15013KT 9999 FEW030 BKN070 BKN200 19/18 Q1015=
METAR SLCB 081100Z 27003KT 3000SE FU FEW027 SCT200 05/03 Q1026=
METAR SLTJ 081100Z 00000KT 9999 FEW030 SCT200 06/04 Q1022=
METAR SLTR 081100Z 00000KT 8000 VCSH SCT015 FEW020CB BKN070 22/21
Q1013=
METAR SLSU 081100Z 05005KT 9999 SCT010 08/05 Q1028=
METAR SLCO 081100Z 00000KT 9999 SCT080 BKN200 23/22 Q1012=
METAR SLET 081100Z 15012KT 9999 FEW023 SCT070 19/18 Q1015=
METAR SLPS 081100Z NIL=
####018000067####
SAAG SADF 081100
METAR SADF 081100Z  00000KT CAVOK 04/02 Q1019=
####018000312####
SAAP32 FAPR 081100
METAR FABL 081100Z 34010KT 9999 FEW045 18/06 Q1032 NOSIG=
METAR FAJS 081100Z 06007KT 020V080 9999 SCT039 14/04 Q1035 NOSIG=
METAR FDMS 081100Z 00000KT 9999 BKN030 18/13 Q1031 NOSIG=
METAR FLLS 081100Z 05014KT 9999 BKN035 19/08 Q1027=
METAR FQBR 081100Z 18008KT 9999 SCT020 24/17 Q1026=
####018000083####
SABO SLLP 081100 RRA
METAR SLPS 081100Z 00000KT 9999 FEW023 BKN070 24/16 Q1012=
####018000086####
SANL33 EHDB 081055 RRA
METAR EHJR 081055Z AUTO 28013G13KT //// 16/15 Q1019 W15/S3=
####018000075####
SAQB31 LQTZ 081100
METAR
LQTZ 081100Z VRB02KT 9999 FEW040 21/// Q1023=
####018000319####
SAUY SUMU 081100
METAR SUMU 081100Z 31006KT CAVOK 03/03 Q1018 NOSIG=
METAR SUDU 081100Z 33004KT 9999 FEW023 04/03 Q1019=
METAR SULS 081100Z 30005KT 9999 FEW016 06/03 Q1018=
METAR SUCA 081100Z 30007KT CAVOK 08/02 Q1018=
METAR SUAA 081100Z 32006KT CAVOK 04/02 Q1018=
METAR SUSO 081100Z 12004KT CAVOK 05/04 Q1020=
####018000230####
SAGG31 UGTB 081100
METAR UGKO 081100Z 27004KT 9999 SCT050CB SCT100 31/23 Q1010 NOSIG=
METAR UGSB 081100Z 33006KT 9999 SCT020CB SCT070 28/22 Q1010 NOSIG=
METAR UGTB 081102Z 12009KT 9999 SCT066 34/16 Q1013 NOSIG RMK
31CLRD80=
####018000086####
SANL33 EHDB 081055 RRB
METAR EHSC 081055Z AUTO 26006G06KT 9999 17/15 Q1020 W///S2=
####018000325####
SAEW37 LEMM 081100
METAR LEBR 081100Z NIL=
METAR LEGA 081100Z 20019G31KT 150V260 9999 FEW060 37/13 Q1019=
METAR LEGT 081100Z 18004KT CAVOK 31/13 Q1020=
METAR LEMO 081100Z VRB03KT CAVOK 29/19
Q1016 NOSIG=
METAR LERI 081100Z 09007KT CAVOK 34/22 Q1018 NOSIG=
METAR LERT 081100Z 27005KT 240V330 CAVOK 26/20 Q1016 NOSIG=
####018000245####
SAEQ01 SEQU 081100
METAR
SEQU 081100Z 00000KT 9999 SCT100 09/07 Q1026 RMK A3032 NOSIG=
SEGU 081100Z 20005KT 9999 BKN030 23/19 Q1011 NOSIG=
SEMT 081100Z 17004KT 9999 BKN016 BKN100 22/20 Q1012=
SELT 081100Z VRB01KT 9999 FEW030 04/03 Q1032=
####018000067####
SAAG SAZM 081100
METAR SAZM 081100Z  32014KT CAVOK 06/01 Q1014=
####018000084####
SAEW35 LEMM 081100 CCA
METAR COR LEBZ 081100Z 19011KT 160V220 CAVOK 34/13 Q1015=
####018000086####
SANL33 EHDB 081055 RRC
METAR EHSA 081055Z AUTO 21006G07KT 9999 16/15 Q1019 W16/S2=
####018000086####
SAAI41 FHAW 081050
METAR FHAW 081050Z 13016KT 9999 FEW025 BKN035 27/20 Q1017 BLU=
####018000381####
SAPO31 LPMG 081100
METAR LPFR 081100Z 26008KT 220V290 9999 SCT010 BKN012 23/20 Q1016=
METAR LPMA 081100Z 22006KT 170V250 9999 FEW016 24/18 Q1020 RS15005KT
0520007KT 2326005KT=
METAR LPPR 081100Z 21009KT 170V260 4000 BR FEW002 BKN004 21/18 Q1015=
METAR LPPS 081100Z 03011KT 350V060 9999 FEW016 SCT030 22/15 Q1021=
METAR LPPT 081100Z 26007KT 220V290 CAVOK 27/19 Q1015 NOSIG=
####018000607####
SABY31 UMMN 081100
METAR UMBB 081100Z 30004G07MPS 8000 SCT031 23/12 Q1019 R29/CLRD//
NOSIG=
METAR UMGG 081100Z 24004MPS 9999 BKN030CB BKN100 28/16 Q1014
R28/CLRD// NOSIG=
METAR UMII 081100Z 18004MPS P6000 BKN020CB 23/16 Q1013 R23/CLRD//
TEMPO 2000 TSRA BKN005 =
METAR UMMG 081100Z 32007G10MPS 9999 SCT026 BKN200 23/13 Q1015
R35/CLRD// NOSIG=
METAR UMMM 081100Z 28005MPS 9999 OVC021 20/15 Q1015 R30/CLRD// NOSIG
RMK QFE742=
METAR UMMS 081100Z 28002MPS 250V310 9999 BKN020 20/16 Q1015
R31/CLRD// NOSIG=
METAR UMOO 081100Z 29005MPS 9999 BKN018CB BKN/// 24/18 Q1013
R31/290056 TEMPO 3000 -TSRA=
####018000087####
SAKN64 HKMO 081100
METAR HKJK 081100Z VRB02KT 9999 BKN020 OVC100 17/14 Q1023 NOSIG=
####018000350####
SAPO32 LPMG 081100
METAR LPAZ 081100Z 25004KT 220V280 9999 BKN016 BKN030 21/19 Q1025=
METAR LPFL 081100Z 19005KT 140V280 9999 FEW023 23/18 Q1022=
METAR LPHR 081100Z 24006KT 9999 SCT013 SCT035 22/18 Q1023=
METAR LPLA 081100Z 15005KT 9999 -SHRA FEW008 SCT016 BKN028 20/18
      Q1024=
METAR LPPD 081100Z 27004KT 9999 FEW017 BKN030 20/16 Q1024=
####018000068####
SAAG SAVC 081100
METAR SAVC 081100Z  23008KT CAVOK 06/M00 Q1000=
####018000074####
SAAG01 SABM 081100 RRB
METAR SAZM 081100Z  32014KT CAVOK 06/01 Q1014=
####018000107####
SAUS42 KWBC 081100 RRB
METAR
KGLE 081104Z AUTO 00000KT 10SM SCT022 SCT070 SCT100 26/23
     A3005=
####018000508####
SAUS43 KWBC 081100 RRB
METAR
K1H2 081105Z AUTO 00000KT 5SM BR CLR 24/23 A3004=
KAAA 081103Z AUTO 00000KT 1 1/4SM BR SCT041 SCT120 23/22 A3004=
KC09 081104Z AUTO 00000KT 1SM BR BKN049 BKN055 OVC065 21/21
     A3002=
KDKB 081101Z AUTO 19005KT 1 1/4SM BR OVC002 22/21 A3003=
KIKK 081105Z AUTO 00000KT 3SM BR BKN085 25/23 A3003=
KJOT 081106Z AUTO 00000KT 2SM BR CLR 23/22 A3002=
KLOT 081101Z AUTO 15004KT 2SM BR SCT065 OVC075 23/22 A3002=
KPPQ 081105Z AUTO 00000KT 7SM -RA CLR 23/22 A3005=
####018000098####
SAUS41 KAKQ 081109
MTRORF
SPECI KORF 081107Z 11006KT 10SM SCT010 BKN110 26/23 A2997 RMK AO2
####018000111####
SAUS20 KNKA 081108
SPECI KORE 081107Z AUTO 15006KT 6SM HZ BKN013 BKN080 BKN100 24/21 
    A3008 RMK AO2=
####018000084####
SANI20 DNMM 081100
METAR DNMM 081100Z 25007KT 9999 BKN013 30/25 Q1015 NOSIG=

####018001671####
SAEU KAWN 081100 RRU
METAR LECV 081100Z 03002KT 9999 FEW070 28/12 Q1023=
METAR LELO 081100Z 08008KT 030V120 CAVOK 31/17 Q1018=
METAR LFKB 081100Z 11006KT 070V160 9999 FEW021 29/21 Q1020 NOSIG=
METAR LFRJ 081100Z AUTO VRB04KT 9999NDV SCT021/// BKN210/// 22/16 Q1019=
METAR LFRL 081100Z 32007KT 280V010 9999 FEW018 SCT230 21/16 Q1019=
METAR LIBA 081055Z /////KT 9999 FEW040 28/10 Q1019 RMK FEW VIS MIN
      9999 WIND THR29 32011KT BLU=
METAR LIBC 081050Z 03021KT CAVOK 27/10 Q1018 RMK VIS MIN 9999=
METAR LIBD 081050Z 36015KT CAVOK 25/10 Q1020 RMK VIS MIN 9999=
METAR LIBG 081050Z 01018G29KT 320V030 9999 FEW028 27/08 Q1018 RMK VIS
      MIN 9999=
METAR LIBN 081055Z 35020G30KT 9999 FEW030 26/11 Q1018 RMK FEW VIS MIN
      9999 WIND THR14 34018G28KT BLU=
METAR LIBP 081050Z 02008KT 350V090 CAVOK 26/07 Q1022 RMK VIS MIN 9999=
METAR LIBV 081055Z 01020G31KT CAVOK 25/12 Q1017 RMK SKC VIS MIN 9999
      WIND THR14 35019KT BLU=
METAR LICA 081050Z 24011KT 9999 SCT020 27/23 Q1017 RMK VIS MIN 9999=
METAR LICC 081050Z 12011KT 8000 FEW040 29/20 Q1018 RMK VIS MIN 8000=
METAR LICD 081050Z 36008KT CAVOK 27/21 Q1019 RMK VIS MIN 9999=
METAR LICR 081050Z 20008KT 170V240 9999 FEW020 BKN040 27/19 Q1018 RMK
      VIS MIN 9999=
METAR LICZ 081055Z 09015KT CAVOK 31/20 Q1017 RMK SKC VIS MIN 9999 WIND
      THR28 //////KT BLU=
METAR LKKV 081100Z VRB03KT CAVOK 23/10 Q1024 RMK REG QNH 1021=
METAR LKMT 081100Z 05007KT 350V120 CAVOK 21/10 Q1023 NOSIG RMK REG
      QNH 1021=
METAR LKPR 081100Z 34004KT 290V030 CAVOK 23/09 Q1023 NOSIG RMK REG
      QNH 1021=
METAR LKTB 081100Z VRB06KT CAVOK 23/07 Q1023 NOSIG RMK REG QNH 1021=
####018001567####
SAZZ40 KAWN 081100 RRM
METAR CYBR 081100Z 27005KT 15SM FEW060 FEW240 10/10 A3007 RMK SC1CI0
      SLP190=
METAR DAOB 081100Z 06006KT CAVOK 37/06 Q1023=
METAR DAUO 081100Z 15002KT CAVOK 35/17 Q1018=
METAR DAUU 081100Z 00000KT CAVOK 38/18 Q1018=
METAR LKKV 081100Z VRB03KT CAVOK 23/10 Q1024 RMK REG QNH 1021=
METAR MYEG 081059Z AUTO 15004KT 10SM SCT019 SCT025 SCT033 27/24 A2993
      RMK AO2=
METAR OIII 081050Z 13008KT CAVOK 40/M03 Q1013 A2992 878/3=
METAR OITT 081050Z 04012KT CAVOK 38/03 Q1014 A2994=
METAR OJAQ 081100Z 36021KT CAVOK 38/25 Q1006=
METAR PHNG 081057Z 08007KT 10SM SCT020 BKN040 24/19 A3004 RMK AO2 RAE05
      SLP168 P0000 T02440194 $=
METAR SBCB 081100Z 05004KT CAVOK 21/15 Q1018=
METAR TDPD 081100Z 10006KT 9999 -SHRA SCT016 28/24 Q1015=
METAR TFFF 081105Z 08011KT 9999 FEW020 SCT026 29/24 Q1014 NOSIG=
METAR COR TFFF 081106Z 08010KT 9999 FEW020 SCT026 29/24 Q1014 NOSIG=
METAR TGPY 081100Z 07008KT 9000 SCT020 SCT280 FEW///CB 28/25 Q1013
      CB-SSE/SSW/HZ=
METAR UACC 081100Z 31005MPS 280V340 CAVOK 24/03 Q1008 220/0070 NOSIG
      RMK QFE725/0967=
METAR UATT 081100Z 06008MPS 9999 NSC 33/02 Q1010 13CLRD70 NOSIG RMK
      QFE738/0984=
METAR ZBHH 081100Z 22003MPS CAVOK 29/10 Q1008 NOSIG=
METAR ZHHH 081100Z 07002MPS 040V110 9999 SCT010 SCT030 25/25 Q1002
      NOSIG=
METAR ZSNJ 081100Z 15004MPS 110V200 2500 HZ BKN030 28/22 Q1004 TEMPO
      -SHRA FEW030CB=
METAR ZUCK 081100Z 13002MPS 3000 BR FEW033 29/25 Q1002 NOSIG=
METAR ZWSH 081100Z 18003MPS 100V220 CAVOK 32/02 Q1012 NOSIG=
####018000650####
SABN32 OBBI 081100
METAR OMAA 081100Z 03006KT 290V100 CAVOK 43/15 Q0998 A2948 NOSIG=
METAR OMAD 081100Z 27004KT CAVOK 44/18 Q0998 A2949=
METAR OMAL 081100Z 27004KT 210V350 7000 TS FEW045CB 42/25 Q1001
 A2956=
METAR OMDB 081100Z 33015KT 280V350 7000 NSC 40/24 Q0999 NOSIG=
METAR OMDW 081100Z 32015KT 8000 NSC 43/20 Q0999 NOSIG=
METAR OMFJ 081100Z 11009KT 040V140 7000 FEW020 35/27 Q1001 A2956=
METAR OMRK 081100Z 34010KT CAVOK 42/32 Q0998 A2948=
METAR OMSJ 081100Z 33012KT 290V360 6000 NSC 41/25 Q0999=
METAR OOMS 081100Z 05004KT 010V080 6000 -DZ SCT025
BKN120 33/28 Q1001 NO(IG=
METAR OOSA 081100Z AUTO 17008KT 28/23 Q1002=
####018000443####
SATH33 VTBB 081100
METAR VTUD 081100Z NIL=
METAR VTUI 081100Z NIL=
METAR VTUK 081100Z NIL=
METAR VTUU 081100Z 21004KT 9999 FEW019CB FEW023 BKN300 34/22 Q1005
           A2968 CB SW=
METAR VTUL 081100Z NIL=
METAR VTUO 081100Z NIL=
METAR VTUW 081100Z 00000KT 9999 FEW022CB SCT300 34/22 Q1005 A2968
           CB S RWY15=
METAR VTUQ 081100Z NIL=
METAR VTUV 081100Z NIL=
METAR VTUJ 081100Z NIL=
METAR VTBO 081100Z NIL=
####018000089####
SASW39 LSSW 081050 RRB
METAR LSMM 081050Z 26009KT 240V300 CAVOK 25/15 Q1022 RMK BLU=
####018000133####
SAEW40 LEMM 081100
METAR LEBG 081100Z 19007KT 150V260 CAVOK 33/09 Q1021=
METAR LEHC 081100Z 13007KT 070V170 CAVOK 33/17 Q1020=
####018000776####
SAUR30 UKMS 081100
METAR UKBB 081100Z 31004MPS 270V360 9999 FEW030
         BKN040 25/18 Q1014    88CLRD95 NOSIG=
METAR UKHH NIL=
METAR UKOO 081100Z 33003MPS 300V020 CAVOK 27/15 Q1014
          34090070 NOSIG=
METAR UKDE 081100Z 25002MPS 190V320 9999 SCT050 29/17
          Q1014 20CLRD70 NOSIG=
METAR UKDD 081100Z VRB02MPS 9999 SCT033CB BKN200
         29/18  Q1014 08090070 TEMPO VRB10G15MPS -TSRA
         SQ BKN020CB=
METAR UKFF 081100Z 03003MPS 350V060 CAVOK 28/16 Q1013
          01010070 NOSIG=
METAR UKLL 081100Z 33004MPS 250V030 CAVOK 19/11 Q1021
          31210365 NOSIG=
METAR UKCC 081100Z VRB02MPS CAVOK 30/16 Q1014
         08090070 NOSIG=
METAR UKDR 081100Z 00000MPS 9999 BKN033 OVC200 29/18 
         Q1013 1809//70 NOSIG=
####018000233####
SAGG31 UGTB 081100
METAR UGKO 081100Z 27004KT 9999 SCT050CB SCT100 31/23 Q1010 NOSIG=
METAR UGSB 081100Z 33006KT 9999 SCT020CB SCT070 28/22 Q1010 NOSIG= 
METAR UGTB 081102Z 12009KT 9999 SCT066 34/16 Q1013 NOSIG RMK 
31CLRD80=
####018000448####
SATH32 VTBB 081100
METAR VTSB 081100Z 00000KT 9999 SCT020TCU SCT120 33/26 Q1007 A2975
TCU E=
METAR VTSM 081100Z 33005KT 9999 FEW020 BKN300 33/25 Q1008 A2977=
METAR VTSF 081100Z 18005KT 150V210 9999 FEW017CB SCT018 BKN300 28/22
Q1007 A2976?RETS CB TO SW=
METAR VTSC 081100Z NIL=
METAR VTSK 081100Z NIL=
METAR VTST 081100Z NIL=
METAR VTSR 081100Z NIL=
METAR VTSG 081100Z NIL=
METAR VTSE 081100Z NIL=
METAR VTSH 081100Z NIL=
####018001479####
SAIY43 LIIB 081100
METAR LIBA 081055Z /////KT 9999 FEW040 28/10 Q1019 RMK FEW VIS MIN
      9999 WIND THR29 32011KT BLU=
METAR LIBC 081050Z 03021KT CAVOK 27/10 Q1018 RMK VIS MIN 9999=
METAR LIBD 081050Z 36015KT CAVOK 25/10 Q1020 RMK VIS MIN 9999=
METAR LIBG 081050Z 01018G29KT 320V030 9999 FEW028 27/08 Q1018 RMK
VIS MIN 9999=
METAR LIBN 081055Z 35020G30KT 9999 FEW030 26/11 Q1018 RMK FEW VIS MIN
      9999 WIND THR14 34018G28KT BLU=
METAR LIBP 081050Z 02008KT 350V090 CAVOK 26/07 Q1022 RMK VIS MIN
9999=
METAR LIBQ 081100Z NIL=
METAR LIBR 081045Z /////KT 9999 FEW020 25/15 Q1017 NOSIGNOSIG RMK FEW
      VIS MIN 9999 WIND THR13 WIND THR31 34018KT BLU=
METAR LIBV 081055Z 01020G31KT CAVOK 25/12 Q1017 RMK SKC VIS MIN 9999
      WIND THR14 35019KT BLU=
METAR LICA 081050Z 24011KT 9999 SCT020 27/23 Q1017 RMK VIS MIN 9999=
METAR LICC 081050Z 12011KT 8000 FEW040 29/20 Q1018 RMK VIS MIN 8000=
METAR LICD 081050Z 36008KT CAVOK 27/21 Q1019 RMK VIS MIN 9999=
METAR LICG 081055Z 31008KT 260V360 CAVOK 24/22 Q1019 RMK SKC VIS MIN
      9999 WIND THR08 VRB06KT WIND THR21 30006KT BLU=
METAR LICJ 081050Z 04016KT CAVOK 27/23 Q1018 RMK VIS MIN 9999=
METAR LICR 081050Z 20008KT 170V240 9999 FEW020 BKN040 27/19 Q1018
RMK VIS MIN 9999=
METAR LICT 081055Z 32013KT 9999 FEW022 30/26 Q1018 RMK FEW VIS MIN
      9999 WIND THR13 31009KT BLU=
METAR LICZ 081055Z 09015KT CAVOK 31/20 Q1017 RMK SKC VIS MIN 9999
      WIND THR28 //////KT BLU=
####018000081####
SPUS51 KWBC 081109
SPECI
KMPV 081106Z AUTO 00000KT 3SM BR CLR 22/20 A3012=
####018000083####
SPUS51 KWBC 081109
SPECI
KPNE 081106Z 12003KT 1 3/4SM BR BKN004 24/23 A3004=
####018000081####
SAUS72 KWBC 081100 RRD
METAR
TKPK 081100Z 06013KT 9999 FEW019 28/24 Q1015=
####018000746####
SAAO32 GOOY 081100
METAR GABS 081100Z 25007KT 210V280 9999 FEW030 31/22 Q1016 NOSIG=
METAR GGOV 081100Z 18007KT 130V230 9999 SCT014TCU FEW020CB BKN250    
               30/23 Q1013 NOSIG=
METAR GOOY 081100Z 18007KT 150V210 9999 SCT013 30/24 Q1012 NOSIG=
METAR DIAP 081100Z 21008KT 7000 SCT012 BKN070 28/24 Q1015 NOSIG=
METAR GQNN 081100Z 18012KT 6000 SCT020 30/23 Q1013 NOSIG=
METAR GQPP 081100Z 02003KT 8000 NSC 27/19 Q1012 NOSIG=
METAR GUCY 081100Z NIL=
METAR GVAC 081100Z 07011KT 9999 BKN014 25/19 Q1014 NOSIG=
METAR GFLL 081100Z 15006KT 9999 SCT015 FEW028CB 28/24 Q1014 CB-NE=
METAR GBYD 081100Z 22004KT 9999 SCT011 FEW020CB 32/26 Q1013  CB E-W=
METAR GLRB 081100Z 15006KT 9999 BKN018 FEW026CB 29/24 Q1015 CB-S=

####018000164####
SAUS73 KWBC 081100 RRD
METAR
KALN 081103Z AUTO 00000KT 5SM BR SCT037 BKN043 OVC055 25/24
     A3004=
KIKK 081105Z AUTO 00000KT 3SM BR BKN085 25/23 A3003=
####018001796####
SAIY42 LIIB 081100
METAR LIBF 081050Z 33018KT CAVOK 28/07 Q1020 RMK VIS MIN 9999=
METAR LIEA 081050Z VRB03KT CAVOK 32/21 Q1019 RMK VIS MIN 9999=
METAR LIED 081055Z 15012KT 9999 33/18 Q1018 RMK FEW VIS MIN 9999 BLU=
METAR LIEO 081050Z 04011KT 9999 FEW030 30/20 Q1020 RMK VIS MIN
9999=
METAR LIMA 081050Z VRB03KT 9999 SCT040 25/16 Q1023 RMK VIS MIN 9999=
METAR LIQN 081050Z 36005KT CAVOK 27/17 Q1021 RMK VIS MIN 9999=
METAR LIQO 081055Z 00000KT 9999 FEW003 25/20 Q1021 RMK FEW VAL NIL NC
      VIS MIN 9999=
METAR LIQW 081055Z 19003KT 9999 FEW030 29/18 Q1020 RMK FEW VIS MIN
      9999 BLU=
METAR LIRE 081055Z 23010KT 9999 FEW020 28/20 Q1019 RMK FEW VIS MIN
      9999 WIND THR31 22010KT BLU=
METAR LIRG 081055Z 27007KT 9999 SCT033 31/18 Q1019 RMK SCT MON NE
     LIB NC VIS MIN 9999 BLU=
METAR LIRH 081055Z 36005KT 9999 SCT035 29/19 Q1020 RMK SCT MON LIB NC
      VIS MIN 9999 WIND THR16 24006KT BLU=
METAR LIRI 081050Z 02011KT CAVOK 29/11 Q1019 RMK VIS MIN 9999=
METAR LIRK 081055Z 13010KT CAVOK 16/14 Q1027 RMK SCT SCT060 MON NE
      LIB NC VAL NIL NC VIS MIN 9999=
METAR LIRL 081055Z 24008KT 9999 FEW020 FEW025TCU 30/18 Q1018 RMK SCT
      MON LIB NC VIS MIN 9999 BLU=
METAR LIRM 081055Z 08008KT CAVOK 29/15 Q1019 RMK SKC VIS MIN 9999
      WIND THR06 06007KT BLU=
METAR LIRS 081055Z 21010KT 9999 FEW040 31/14 Q1019 RMK SCT SCT200 VIS
      MIN 9999 WIND THR21 /////KT BLU=
METAR LIRT 081055Z 01009KT 9999 FEW015 17/07 Q1023 RMK FEW MON LIB
      VAL NIL VIS MIN 9999=
METAR LIRU 081050Z 25003KT 9999 SCT040 30/19 Q1021 RMK VIS MIN 9999=
METAR LIRV 081055Z 25005KT 9999 FEW028 29/18 Q1021 RMK FEW MON E SE
      LIB NC VIS MIN 9999 BLU=
METAR LIRX 081055Z 16004KT CAVOK 28/11 Q1020 RMK SKC VIS MIN 9999E
      VIS MAR 25 KM=
####018001725####
SAIY40 LIIB 081100
METAR LIMG 081050Z 07008KT 9999 SCT080 30/24 Q1021 RMK VIS MIN 9999=
METAR LIMK 081055Z 34003KT 9999 BKN025 20/13 Q1023 RMK BKN VAL NIL
VIS MIN 9999=
METAR LIMN 081055Z /////KT 9999 FEW030 27/15 Q1021 RMK FEW VIS MIN
9999 BLU=
METAR LIMP 081050Z 06004KT 330V120 CAVOK 28/14 Q1022 RMK VIS MIN
9999=
METAR LIMS 081055Z 12009KT 060V150 CAVOK 28/15 Q1021 RMK SKC VIS MIN
9999 WIND THR30 10006KT BLU=
METAR LIMZ 081050Z 35005KT 8000 FEW025 BKN045 25/17 Q1024 RMK VIS
MIN 8000=
METAR LIPA 081055Z 21008KT 9999 FEW060 25/18 Q1022 RMK FEW VIS MIN
9999 A3019 BLU=
METAR LIPB 081050Z 17011KT CAVOK 28/12 Q1021 RMK MON LIB VIS MIN
9999=
METAR LIPC 081055Z 11010KT CAVOK 28/14 Q1022 RMK FEW FEW200 VIS MIN
9999 WIND THR12 11009KT BLU=
METAR LIPF 081055Z 27002KT 9999 FEW050 27/19 Q1021 RMK FEW VIS MIN
9999=
METAR LIPH 081045Z 16004KT 9999 SCT025 27/20 Q1023 RMK SCT VIS MIN
9999 WIND THR07 /////KT BLU=
METAR LIPI 081055Z 20005KT 9999 FEW030 26/19 Q1021 RMK FEW VIS MIN
9999 WIND THR06 18004KT BLU=
METAR LIPL 081055Z 14004KT 9999 FEW035 27/18 Q1022 RMK SCT VIS MIN
9999 BLU=
METAR LIPO 081050Z 20004KT 100V230 9999 FEW065 28/14 Q1021 RMK VIS
MIN 9999=
METAR LIPQ 081050Z VRB03KT CAVOK 26/15 Q1022=
METAR LIPR 081045Z 08011KT CAVOK 28/17 Q1021 RMK SKC VIS MIN 9999
WIND THR31 09011KT BLU=
METAR LIPS 081055Z 20003KT 9999 FEW025 29/18 Q1022 RMK FEW VIS MIN
9999 BLU=
METAR LIPX 081045Z 12003KT 9999 FEW040 29/13 Q1021 RMK FEW VIS MIN
9999 BLU=
METAR LIPY 081050Z 06008KT 010V090 CAVOK 27/14 Q1021 RMK VIS MIN
9999=
METAR LIVC 081055Z 00000KT 9999 SCT000 14/11 Q1030 RMK SCT MON CLD
CIME CUF VAL CLD SCT ELEV VIS MIN 9999=
METAR COR LIVP=
####018000072####
SAYE20 OYRN 081100
METAR OYRN 081100Z 20021KT 6000 NSC 31/24 Q1000=
####018000085####
SPUS72 KWBC 081109
SPECI
KCEW 081105Z AUTO 00000KT 2 1/2SM BR CLR 20/20 A3004=
####018000208####
SANZ31 NZKL 081100

METAR NZAA 081100Z 21007KT 9999 FEW025 09/07 Q1011 NOSIG=
METAR NZWN 081100Z 20029KT 9999 -RADZ FEW015 SCT030 BKN037 09/05
         Q1013 
CHECK
TEXT
NEW ENDING ADDED YBBBYFYX
####018001412####
SARS18 KAWN 081100 RRC
METAR BIKF 081100Z 02019KT 9999 FEW018 BKN032 BKN100 10/05 Q0994=
METAR UAAA 081100Z 20005MPS 9999 -SHRA BKN050CB OVC100 25/16 Q1014
      88CLRD65 TEMPO TS=
METAR UACC 081100Z 31005MPS 280V340 CAVOK 24/03 Q1008 220/0070 NOSIG
      RMK QFE725/0967=
METAR UATE 081100Z 01005G10MPS CAVOK 39/07 Q1010 300///70 NOSIG RMK
      QFE756/1008=
METAR UATT 081100Z 06008MPS 9999 NSC 33/02 Q1010 13CLRD70 NOSIG RMK
      QFE738/0984=
METAR UKBB 081100Z 31004MPS 270V360 9999 FEW030 BKN040 25/18 Q1014
      88CLRD95 NOSIG=
METAR UKFF 081100Z 03003MPS 350V060 CAVOK 28/16 Q1013 01010070 NOSIG=
METAR UKKK 081100Z 26003MPS 9999 BKN033 25/18 Q1015 26CLRD70 NOSIG=
METAR UKLL 081100Z 33004MPS 250V030 CAVOK 19/11 Q1021 31210365 NOSIG=
METAR UKOO 081100Z 33003MPS 300V020 CAVOK 27/15 Q1014 34090070 NOSIG=
METAR UMGG 081100Z 24004MPS 9999 BKN030CB BKN100 28/16 Q1014 R28/D
      NOSIG=
METAR UMII 081100Z 18004MPS P6000 BKN020CB 23/16 Q1013 R23/D TEMPO
      2000 TSRA BKN005=
METAR UMMM 081100Z 28005MPS 9999 OVC021 20/15 Q1015 R30/D NOSIG RMK
      QFE742=
METAR UMMS 081100Z 28002MPS 250V310 9999 BKN020 20/16 Q1015 R31/D NOSIG=
METAR UTAA 081100Z 11003MPS 9999 SKC 44/03 Q1007 NOSIG=
METAR UTDD 081100Z VRB01MPS 9999 FEW066 37/05 Q1009 09CLRD70 NOSIG
      RMK QFE689/0919=
METAR VTBD 081100Z 14006KT 9999 FEW020 SCT120 BKN300 31/23 Q1006 NOSIG=
####018000276####
SAGL KAWN 081100 RRA
METAR BIAR 081100Z 36020KT 9999 BKN020 08/06 Q0995=
METAR BIEG 081100Z 36014KT 7000 -SHRA VV007 08/08 Q0990=
METAR BIKF 081100Z 02019KT 9999 FEW018 BKN032 BKN100 10/05 Q0994=
METAR BIRK 081100Z 01020G30KT 280V030 9999 FEW020 SCT060 10/06 Q0993=
####018001376####
SPZZ40 KAWN 081109 RRA
SPECI CWSA 081025Z AUTO 23009KT 3/8SM VV001 17/17 A3021=
SPECI CWSA 081031Z AUTO 23009KT 1/8SM VV001 17/17 A3021=
SPECI CYNA 081106Z AUTO 10014KT 9SM OVC004 OVC045 13/12 A3004=
SPECI CYPH 081103Z AUTO 23014KT 1 3/8SM OVC003 06/06 A2980 RMK VSBY
      VRBL 0.6V9.+=
SPECI CYPH 081105Z AUTO 23015KT 4SM OVC003 06/06 A2980=
SPECI CYQA 081108Z AUTO 14002KT 6SM BR FEW043 21/21 A3003 RMK SLP169
      DENSITY ALT 1700FT=
SPECI EGUN 081103Z AUTO 24008KT 9999 BKN032 OVC120 21/17 A3007 RMK
      AO2 SLP170=
SPECI KCEF 081107Z AUTO 17007KT 10SM BKN008 24/22 A3006 RMK AO2 CIG
      008V011 SLP181 PWINO $=
SPECI KFRI 081103Z AUTO 02003KT 8SM BKN006 BKN016 BKN160 21/21 A3010
      RMK AO2 SLP183=
SPECI KLTS 081103Z AUTO 06004KT 10SM BKN021 BKN029 23/23 A3007 RMK
      AO2 SLP168 $=
SPECI KNFW 081103Z 11004KT 10SM BKN012 26/22 A3005 RMK AO2=
SPECI KNSE 081103Z 00000KT 3/4SM BR FEW001 SCT250 22/21 A3003 RMK AO2
      $=
SPECI KSZL 081100Z 00000KT 10SM BKN003 22/22 A3005 RMK AO2A SLP170
      $=
SPECI KWRI 081108Z AUTO 18004KT 1 3/4SM BR FEW001 24/24 A3001 RMK AO2
      SLP163 $=
SPECI RKJK 081103Z 31005KT 9999 -DZ FEW007 SCT070 SCT090 24/23 A2980
      RMK AO2A LTG DSNT W DZB1103 PRESRR SLP091 $=
SPECI RODN 081105Z AUTO 17013KT 9999 SCT017 BKN210 29/26 A2984 RMK
      AO2 CIG 018 RWY05 SLP106=
####018000084####
SPUS81 KWBC 081109
SPECI
KNEL 081107Z AUTO 14006KT 4SM HZ OVC005 25/22 A3003=
####018000739####
SAAO32 GOOY 081100
METAR GABS 081100Z 25007KT 210V280 9999 FEW030 31/22 Q1016 NOSIG=
METAR GGOV 081100Z 18007KT 130V230 9999 SCT014TCU FEW020CB BKN250
               30/23 Q1013 NOSIG=
METAR GOOY 081100Z 18007KT 150V210 9999 SCT013 30/24 Q1012 NOSIG=
METAR DIAP 081100Z 21008KT 7000 SCT012 BKN070 28/24 Q1015 NOSIG=
METAR GQNN 081100Z 18012KT 6000 SCT020 30/23 Q1013 NOSIG=
METAR GQPP 081100Z 02003KT 8000 NSC 27/19 Q1012 NOSIG=
METAR GUCY 081100Z NIL=
METAR GVAC 081100Z 07011KT 9999 BKN014 25/19 Q1014 NOSIG=
METAR GFLL 081100Z 15006KT 9999 SCT015 FEW028CB 28/24 Q1014 CB-NE=
METAR GBYD 081100Z 22004KT 9999 SCT011 FEW020CB 32/26 Q1013  CB E-W=
METAR GLRB 081100Z 15006KT 9999 BKN018 FEW026CB 29/24 Q1015 CB-S=
####018000078####
SPCN44 CWAO 081104
SPECI CYUS 081104Z AUTO ///// 9SM FEW092 11/ A2979=

####018000175####
SPUS90 KWBC 081110
SPECI KNEL 081107Z AUTO 14006KT 4SM HZ OVC005 25/22 A3003 RMK AO2
     $=
SPECI KORF 081107Z 11006KT 10SM SCT010 BKN110 26/23 A2997 RMK
     AO2=
####018000101####
SAUS90 KWBC 081100 RRF
METAR KMZZ 081055Z AUTO 00000KT 5SM BR BKN110 22/20 A3006 RMK
     AO2=
####018002987####
SAUS20 KNKA 081109
SPECI KAMA 081108Z 35012KT 5SM BR OVC003 17/17 A3020 RMK AO2 $=
METAR KASW 081105Z AUTO 00000KT 5SM BR CLR 22/20 A3005 RMK AO2 
     T02200204=
METAR KAXH 081105Z AUTO 06004KT 7SM SCT036 SCT055 26/24 A2990 RMK 
     AO2 LTG DSNT W T02620240=
METAR KBKD 081101Z AUTO 04004KT 1/4SM FG OVC002 23/23 A3003 RMK 
     AO2 T02330227=
METAR KBKS 081106Z AUTO 01006KT 10SM SCT005 SCT020 SCT050 26/25 
     A2982 RMK AO1 T02630250=
SPECI KBOK 081109Z AUTO 30003KT 1SM BR OVC002 09/09 A2997 RMK AO2 $=
METAR KBPC 081108Z AUTO 36004KT 10SM SCT006 BKN070 OVC120 18/17 
     A3017 RMK AO2=
METAR KBPG 081105Z AUTO 36007KT 7SM SCT120 21/20 A3010 RMK AO1 
     T02080198=
METAR KBYY 081106Z AUTO 07006KT 10SM SCT039 SCT049 SCT065 26/25 
     A2988 RMK AO2 T02580250=
METAR KC75 081104Z AUTO 00000KT 4SM BR SCT008 OVC014 24/24 A3003 
     RMK AO2=
METAR KCIR 081102Z AUTO 00000KT 10SM CLR 25/22 A3006 RMK AO2=
METAR KCPT 081105Z AUTO 11006KT 7SM -DZ FEW006 BKN015 OVC023 
     24/24 A3003 RMK AO2=
METAR KCVB 081104Z AUTO 03004KT 7SM OVC014 25/24 A2995 RMK AO2 
     T02480242=
METAR KCWC 081105Z AUTO 07004KT 10SM CLR 23/22 A3004 RMK AO2 
     T02310216=
SPECI KDGW 081108Z AUTO 00000KT 3SM BR CLR 06/05 A3035 RMK AO2 $=
METAR KDKR 081105Z AUTO 08004KT 7SM CLR 24/24 A3002 RMK AO2=
METAR KDNV 081105Z AUTO 00000KT 4SM BR SCT090 22/21 A3002 RMK AO2 
     T02180206=
METAR KDUX 081107Z AUTO 33009KT 10SM OVC006 17/16 A3022 RMK AO2 
     T01700160=
METAR KDZB 081105Z AUTO 00000KT 4SM BR BKN006 OVC012 24/24 A2997 
     RMK AO2 T02400240=
METAR KE38 081105Z AUTO 00000KT 10SM CLR 17/16 A3021 RMK AO2 
     T01700161=
METAR KEBG 081105Z AUTO 01006KT 10SM SCT005 BKN016 BKN095 26/25 
     A2980 RMK AO2 T02620248=
METAR KECU 081105Z AUTO 00000KT 6SM  BR FEW004 SCT011 22/21 A3008 
     RMK AO2=
METAR KENL 081104Z AUTO 20003KT 10SM SCT065 24/16 A3005 RMK AO2 
     T02420162=
METAR KERV 081105Z AUTO 08003KT 10SM BKN040 OVC049 23/21 A2999 
     RMK AO2 T02330212=
METAR KF05 081104Z AUTO 04003KT 10SM BKN031 24/22 A3005 RMK AO2 
     T02380223=
METAR KFEP 081105Z AUTO 21003KT 4SM BR CLR 22/20 A3004 RMK AO2 
     T02220202=
METAR KFOA 081105Z AUTO 00000KT 4SM BR CLR 25/25 A3005 RMK AO2 
     T02450245=
METAR KFWC 081105Z AUTO 00000KT 5SM BR CLR 23/22 A3005 RMK AO2=
SPECI KFWN 081108Z AUTO 00000KT 3SM BR CLR 22/21 A3005 RMK AO2=
METAR KFWS 081105Z AUTO 00000KT 7SM BKN007 OVC016 25/24 A3003 RMK 
     AO2 T02480235=
METAR KGBG 081105Z AUTO 00000KT 2 1/2SM BR BKN002 OVC006 23/22 
     A3004 RMK AO2=
METAR KGDJ 081104Z AUTO 00000KT 10SM SCT011 BKN031 OVC039 25/24 
     A3002 RMK AO2 T02530238=
METAR KGNC 081105Z AUTO 35005KT 10SM BKN008 OVC024 19/18 A3015 
     RMK AO2 T01940180=
METAR KGOP 081100Z AUTO 00000KT 10SM SCT006 SCT025 24/24 A3002 
     RMK AO2=
METAR KGVT 081105Z AUTO 11003KT 10SM BKN012 SCT019 OVC026 25/23 
     A3003 RMK AO2 LTG DSNT N=
####018000566####
SPXX60 KWBC 081110
SPECI
KNEL 081107Z AUTO 14006KT 4SM HZ OVC005 25/22 A3003 RMK AO2 $=
KCEF 081107Z AUTO 17007KT 10SM BKN008 24/22 A3006 RMK AO2 CIG
     008V011 SLP181 PWINO $=
KFRI 081103Z AUTO 02003KT 8SM BKN006 BKN016 BKN160 21/21 A3010 RMK
     AO2 SLP183=
KLTS 081103Z AUTO 06004KT 10SM BKN021 BKN029 23/23 A3007 RMK AO2
     SLP168 $=
KNFW 081103Z 11004KT 10SM BKN012 26/22 A3005 RMK AO2=
KSZL 081100Z 00000KT 10SM BKN003 22/22 A3005 RMK AO2A SLP170 $=
KWRI 081108Z AUTO 18004KT 1 3/4SM BR FEW001 24/24 A3001 RMK AO2
     SLP163 $=
####018001749####
SAIY40 LIIB 081100 RRA
METAR LIMG 081050Z 07008KT 9999 SCT080 30/24 Q1021 RMK VIS MIN 9999=
METAR LIMK 081055Z 34003KT 9999 BKN025 20/13 Q1023 RMK BKN VAL NIL
      VIS MIN 9999=
METAR LIMN 081055Z /////KT 9999 FEW030 27/15 Q1021 RMK FEW VIS MIN
      9999 BLU=
METAR LIMP 081050Z 06004KT 330V120 CAVOK 28/14 Q1022 RMK VIS MIN
9999=
METAR LIMS 081055Z 12009KT 060V150 CAVOK 28/15 Q1021 RMK SKC VIS MIN
      9999 WIND THR30 10006KT BLU=
METAR LIMZ 081050Z 35005KT 8000 FEW025 BKN045 25/17 Q1024 RMK VIS
MIN 8000=
METAR LIPA 081055Z 21008KT 9999 FEW060 25/18 Q1022 RMK FEW VIS MIN
      9999 A3019 BLU=
METAR LIPB 081050Z 17011KT CAVOK 28/12 Q1021 RMK MON LIB VIS MIN
9999=
METAR LIPC 081055Z 11010KT CAVOK 28/14 Q1022 RMK FEW FEW200 VIS MIN
      9999 WIND THR12 11009KT BLU=
METAR LIPF 081055Z 27002KT 9999 FEW050 27/19 Q1021 RMK FEW VIS MIN
      9999=
METAR LIPH 081045Z 16004KT 9999 SCT025 27/20 Q1023 RMK SCT VIS MIN
      9999 WIND THR07 /////KT BLU=
METAR LIPI 081055Z 20005KT 9999 FEW030 26/19 Q1021 RMK FEW VIS MIN
     9999 WIND THR06 18004KT BLU=
METAR LIPL 081055Z 14004KT 9999 FEW035 27/18 Q1022 RMK SCT VIS MIN
      9999 BLU=
METAR LIPO 081050Z 20004KT 100V230 9999 FEW065 28/14 Q1021 RMK VIS
MIN 9999=
METAR LIPQ 081050Z VRB03KT CAVOK 26/15 Q1022=
METAR LIPR 081045Z 08011KT CAVOK 28/17 Q1021 RMK SKC VIS MIN 9999
      WIND THR31 09011KT BLU=
METAR LIPS 081055Z 20003KT 9999 FEW025 29/18 Q1022 RMK FEW VIS MIN
     9999 BLU=
METAR LIPX 081045Z 12003KT 9999 FEW040 29/13 Q1021 RMK FEW VIS MIN
      9999 BLU=
METAR LIPY 081050Z 06008KT 010V090 CAVOK 27/14 Q1021 RMK VIS MIN
9999=
METAR LIVC 081055Z 00000KT 9999 SCT000 14/11 Q1030 RMK SCT MON CLD
      CIME CUF VAL CLD SCT ELEV VIS MIN 9999=
####018000136####
SAIY40 LIIB 081100 RRB
METAR COR LIVP 081055Z VRB02KT 9999 BKN010 13/10 Q1029 RMK BKN MON W
      CIME INC VAL NE LIB VIS MIN 9999=
####018000087####
SAAF31 KWBC 081100 RRA
METAR
DNMM 081100Z 25007KT 9999 BKN013 30/25 Q1015 NOSIG=
####018000392####
SAMG20 FMMI 081100
METAR 081100Z
METAR FMNA 081100Z 12023KT 9999 SCT020 BKN040 28/17 Q1016=
METAR FMNM 081100Z ///10KT CAVOK 30/13 Q1013=
METAR FMMI 081100Z 11010KT 080V150 9999 BKN020 19/12 Q1025 NOSIG=
METAR FMMT 081100Z 22014KT 9999 SCT017 25/21 Q1021=
METAR FMSD 081100Z 06012KT 5000 RA SCT017 BKN033 19/18 Q1025=
METAR FMCH 081100Z 24015KT 9999 FEW025 SCT030 28/21 Q1018 NOSIG=
####018001686####
SAIY40 LIIB 081100
METAR LIMG 081050Z 07008KT 9999 SCT080 30/24 Q1021 RMK VIS MIN 9999=
METAR LIMK 081055Z 34003KT 9999 BKN025 20/13 Q1023 RMK BKN VAL NIL
VIS MIN 9999=
METAR LIMN 081055Z /////KT 9999 FEW030 27/15 Q1021 RMK FEW VIS MIN
9999 BLU=
METAR LIMP 081050Z 06004KT 330V120 CAVOK 28/14 Q1022 RMK VIS MIN
9999=
METAR LIMS 081055Z 12009KT 060V150 CAVOK 28/15 Q1021 RMK SKC VIS MIN
9999 WIND THR30 10006KT BLU=
METAR LIMZ 081050Z 35005KT 8000 FEW025 BKN045 25/17 Q1024 RMK VIS
MIN 8000=
METAR LIPA 081055Z 21008KT 9999 FEW060 25/18 Q1022 RMK FEW VIS MIN
9999 A3019 BLU=
METAR LIPB 081050Z 17011KT CAVOK 28/12 Q1021 RMK MON LIB VIS MIN
9999=
METAR LIPC 081055Z 11010KT CAVOK 28/14 Q1022 RMK FEW FEW200 VIS MIN
9999 WIND THR12 11009KT BLU=
METAR LIPF 081055Z 27002KT 9999 FEW050 27/19 Q1021 RMK FEW VIS MIN
9999=
METAR LIPH 081045Z 16004KT 9999 SCT025 27/20 Q1023 RMK SCT VIS MIN
9999 WIND THR07 /////KT BLU=
METAR LIPI 081055Z 20005KT 9999 FEW030 26/19 Q1021 RMK FEW VIS MIN
9999 WIND THR06 18004KT BLU=
METAR LIPL 081055Z 14004KT 9999 FEW035 27/18 Q1022 RMK SCT VIS MIN
9999 BLU=
METAR LIPO 081050Z 20004KT 100V230 9999 FEW065 28/14 Q1021 RMK VIS
MIN 9999=
METAR LIPQ 081050Z VRB03KT CAVOK 26/15 Q1022=
METAR LIPR 081045Z 08011KT CAVOK 28/17 Q1021 RMK SKC VIS MIN 9999
WIND THR31 09011KT BLU=
METAR LIPS 081055Z 20003KT 9999 FEW025 29/18 Q1022 RMK FEW VIS MIN
9999 BLU=
METAR LIPX 081045Z 12003KT 9999 FEW040 29/13 Q1021 RMK FEW VIS MIN
9999 BLU=
METAR LIPY 081050Z 06008KT 010V090 CAVOK 27/14 Q1021 RMK VIS MIN
9999=
METAR LIVC 081055Z 00000KT 9999 SCT000 14/11 Q1030 RMK SCT MON CLD
CIME CUF VAL CLD SCT ELEV VIS MIN 9999=
METAR COR LIVP=
####018000659####
SAAG31 KWBC 081100
METAR
SAAG NIL=
SAAP NIL=
SAAR NIL=
SABE 081100Z 27009KT CAVOK 09/M01 Q1019=
SACO 081100Z 34010KT CAVOK 09/M08 Q1020=
SADD NIL=
SAEZ 081100Z 27001KT CAVOK 03/00 Q1019=
SAME 081100Z 00000KT CAVOK 03/M04 Q1015=
SARC NIL=
SARE 081100Z 14007KT 9999 BKN006 SCT100 10/09 Q1019=
SARF 081100Z 18008KT 9999 BKN006 SCT018 14/12 Q1017=
SARI NIL=
SARP 081100Z 07007KT 9999 SCT005 OVC015 15/13 Q1018=
SASA NIL=
SASJ 081100Z 00000KT CAVOK 10/08 Q1018=
SAWE NIL=
SAWG 081100Z 29016KT 9999 SCT025 SCT100 03/M06 Q0991=
SAZM 081100Z 32014KT CAVOK 06/01 Q1014=
SAZS 081100Z 32008KT 4000 RA BKN007 OVC040 01/00 Q1005=
####018000088####
SASW39 LSSW 081050 RRB
METAR LSMM 081050Z 26009KT 240V300 CAVOK 25/15 Q1022 RMK BLU=
####018000095####
SAAO32 KWBC 081100 RRB
METAR
GABS 081100Z 25007KT 210V280 9999 FEW030 31/22 Q1016 NOSIG=
####018000489####
SAAL31 KWBC 081100 RRA
METAR
DAAG 081100Z 04005KT 330V070 CAVOK 33/18 Q1019=
DAAT 081100Z 11013KT 050V160 CAVOK 33/03 Q1022=
DABB 081100Z 01012KT CAVOK 28/19 Q1019=
DABC 081100Z 34008KT CAVOK 32/07 Q1023=
DABS 081100Z 34006KT CAVOK 32/10 Q1023=
DAON 081100Z 36008KT CAVOK 35/21 Q1017=
DAOO 081100Z 36013KT CAVOK 27/21 Q1016=
DAUA 081100Z NIL=
DAUG 081100Z 15005KT CAVOK 36/10 Q1021=
DAUH 081100Z 10014KT CAVOK 38/21 Q1018=
DAUZ 081100Z 22005KT CAVOK 38/07 Q1017=
####018001452####
SAIY43 LIIB 081100
METAR LIBA 081055Z /////KT 9999 FEW040 28/10 Q1019 RMK FEW VIS MIN
      9999 WIND THR29 32011KT BLU=
METAR LIBC 081050Z 03021KT CAVOK 27/10 Q1018 RMK VIS MIN 9999=
METAR LIBD 081050Z 36015KT CAVOK 25/10 Q1020 RMK VIS MIN 9999=
METAR LIBG 081050Z 01018G29KT 320V030 9999 FEW028 27/08 Q1018 RMK
VIS MIN 9999=
METAR LIBN 081055Z 35020G30KT 9999 FEW030 26/11 Q1018 RMK FEW VIS MIN
      9999 WIND THR14 34018G28KT BLU=
METAR LIBP 081050Z 02008KT 350V090 CAVOK 26/07 Q1022 RMK VIS MIN
9999=
METAR LIBQ 081100Z NIL=
METAR LIBR 081045Z /////KT 9999 FEW020 25/15 Q1017 NOSIGNOSIG RMK FEW
      VIS MIN 9999 WIND THR13 WIND THR31 34018KT BLU=
METAR LIBV 081055Z 01020G31KT CAVOK 25/12 Q1017 RMK SKC VIS MIN 9999
      WIND THR14 35019KT BLU=
METAR LICA 081050Z 24011KT 9999 SCT020 27/23 Q1017 RMK VIS MIN 9999=
METAR LICC 081050Z 12011KT 8000 FEW040 29/20 Q1018 RMK VIS MIN 8000=
METAR LICD 081050Z 36008KT CAVOK 27/21 Q1019 RMK VIS MIN 9999=
METAR LICG 081055Z 31008KT 260V360 CAVOK 24/22 Q1019 RMK SKC VIS MIN
      9999 WIND THR08 VRB06KT WIND THR21 30006KT BLU=
METAR LICJ 081050Z 04016KT CAVOK 27/23 Q1018 RMK VIS MIN 9999=
METAR LICR 081050Z 20008KT 170V240 9999 FEW020 BKN040 27/19 Q1018
RMK VIS MIN 9999=
METAR LICT 081055Z 32013KT 9999 FEW022 30/26 Q1018 RMK FEW VIS MIN
      9999 WIND THR13 31009KT BLU=
METAR LICZ 081055Z 09015KT CAVOK 31/20 Q1017 RMK SKC VIS MIN 9999
      WIND THR28 //////KT BLU=
####018000460####
SAAL40 DAMM 081100
METAR DAAG 081100Z 04005KT 330V070 CAVOK 33/18 Q1019=
METAR DAAT 081100Z 11013KT 050V160 CAVOK 33/03 Q1022=
METAR DABB 081100Z 01012KT CAVOK 28/19 Q1019=
METAR DABC 081100Z 34008KT CAVOK 32/07 Q1023=
METAR DABS 081100Z 34006KT CAVOK 32/10 Q1023=
METAR DAON 081100Z 36008KT CAVOK 35/21 Q1017=
METAR DAOO 081100Z 36013KT CAVOK 27/21 Q1016=
METAR DAUH 081100Z 10014KT CAVOK 38/21 Q1018=
METAR DAUZ 081100Z 22005KT CAVOK 38/07 Q1017=
####018002509####
SAUS99 KWBC 081110
METAR
KASW 081105Z AUTO 00000KT 5SM BR CLR 22/20 A3005 RMK AO2
     T02200204=
KAXH 081105Z AUTO 06004KT 7SM SCT036 SCT055 26/24 A2990 RMK AO2
     LTG DSNT W T02620240=
KBKD 081101Z AUTO 04004KT 1/4SM FG OVC002 23/23 A3003 RMK AO2
     T02330227=
KBKS 081106Z AUTO 01006KT 10SM SCT005 SCT020 SCT050 26/25 A2982
     RMK AO1 T02630250=
KBPC 081108Z AUTO 36004KT 10SM SCT006 BKN070 OVC120 18/17 A3017
     RMK AO2=
KBPG 081105Z AUTO 36007KT 7SM SCT120 21/20 A3010 RMK AO1
     T02080198=
KBYY 081106Z AUTO 07006KT 10SM SCT039 SCT049 SCT065 26/25 A2988
     RMK AO2 T02580250=
KC75 081104Z AUTO 00000KT 4SM BR SCT008 OVC014 24/24 A3003 RMK
     AO2=
KCIR 081102Z AUTO 00000KT 10SM CLR 25/22 A3006 RMK AO2=
KCPT 081105Z AUTO 11006KT 7SM -DZ FEW006 BKN015 OVC023 24/24 A3003
     RMK AO2=
KCVB 081104Z AUTO 03004KT 7SM OVC014 25/24 A2995 RMK AO2
     T02480242=
KCWC 081105Z AUTO 07004KT 10SM CLR 23/22 A3004 RMK AO2
     T02310216=
KDKR 081105Z AUTO 08004KT 7SM CLR 24/24 A3002 RMK AO2=
KDNV 081105Z AUTO 00000KT 4SM BR SCT090 22/21 A3002 RMK AO2
     T02180206=
KDUX 081107Z AUTO 33009KT 10SM OVC006 17/16 A3022 RMK AO2
     T01700160=
KDZB 081105Z AUTO 00000KT 4SM BR BKN006 OVC012 24/24 A2997 RMK AO2
     T02400240=
KE38 081105Z AUTO 00000KT 10SM CLR 17/16 A3021 RMK AO2
     T01700161=
KEBG 081105Z AUTO 01006KT 10SM SCT005 BKN016 BKN095 26/25 A2980
     RMK AO2 T02620248=
KECU 081105Z AUTO 00000KT 6SM BR FEW004 SCT011 22/21 A3008 RMK
     AO2=
KENL 081104Z AUTO 20003KT 10SM SCT065 24/16 A3005 RMK AO2
     T02420162=
KERV 081105Z AUTO 08003KT 10SM BKN040 OVC049 23/21 A2999 RMK AO2
     T02330212=
KF05 081104Z AUTO 04003KT 10SM BKN031 24/22 A3005 RMK AO2
     T02380223=
KFEP 081105Z AUTO 21003KT 4SM BR CLR 22/20 A3004 RMK AO2
     T02220202=
KFOA 081105Z AUTO 00000KT 4SM BR CLR 25/25 A3005 RMK AO2
     T02450245=
KFWC 081105Z AUTO 00000KT 5SM BR CLR 23/22 A3005 RMK AO2=
KFWS 081105Z AUTO 00000KT 7SM BKN007 OVC016 25/24 A3003 RMK AO2
     T02480235=
KGBG 081105Z AUTO 00000KT 2 1/2SM BR BKN002 OVC006 23/22 A3004 RMK
     AO2=
KGDJ 081104Z AUTO 00000KT 10SM SCT011 BKN031 OVC039 25/24 A3002
     RMK AO2 T02530238=
KGNC 081105Z AUTO 35005KT 10SM BKN008 OVC024 19/18 A3015 RMK AO2
     T01940180=
KGOP 081100Z AUTO 00000KT 10SM SCT006 SCT025 24/24 A3002 RMK
     AO2=
KGVT 081105Z AUTO 11003KT 10SM BKN012 SCT019 OVC026 25/23 A3003
     RMK AO2 LTG DSNT N=
####018000131####
SAEW40 LEMM 081100
METAR LEBG 081100Z 19007KT 150V260 CAVOK 33/09 Q1021=
METAR LEHC 081100Z 13007KT 070V170 CAVOK 33/17 Q1020=
####018000377####
SAMG20 FMMI 081100
METAR FMNA 081100Z 12023KT 9999 SCT020 BKN040 28/17 Q1016=
METAR FMNM 081100Z ///10KT CAVOK 30/13 Q1013=
METAR FMMI 081100Z 11010KT 080V150 9999 BKN020 19/12 Q1025 NOSIG=
METAR FMMT 081100Z 22014KT 9999 SCT017 25/21 Q1021=
METAR FMSD 081100Z 06012KT 5000 RA SCT017 BKN033 19/18 Q1025=
METAR FMCH 081100Z 24015KT 9999 FEW025 SCT030 28/21 Q1018 NOSIG=
####018000198####
SAVN34 SVSR 081100
METAR
METAR SVSR 081100Z 18003KT 8000 -DZ FEW013CBE BKN016 24/24 Q1011=
METAR SVCL 081100Z NIL=
METAR SVPA 081100Z NIL=
METAR SVVP 081100Z 13004KT 9999 BKN013 24/23 Q1005=
####018000092####
SPUS80 KWBC 081110
SPECI
KORF 081107Z 11006KT 10SM SCT010 BKN110 26/23 A2997 RMK AO2=
####018000218####
SAXX60 KWBC 081100 RRH
METAR
TTPP 081100Z 00000KT 9000 FEW006 FEW010CB BKN036 BKN080 25/24
     Q1011 NOSIG=
PHNG 081057Z 08007KT 10SM SCT020 BKN040 24/19 A3004 RMK AO2 RAE05
     SLP168 P0000 T02440194 $=
####018000951####
SPUS70 KWBC 081110
SPECI
KCEC 081107Z AUTO 00000KT 4SM BR OVC003 10/09 A2998 RMK AO2=
KCOT 081107Z AUTO 04005KT 10SM BKN015 OVC055 25/23 A2990 RMK
     AO2=
KCWF 081100Z 06005KT 7SM SKC 24/24 A2999=
KDAW 081107Z AUTO 16004KT 2SM BR 22/21 A3008 RMK AO2 $=
KFLD 081107Z AUTO 00000KT 6SM BR BKN009 22/20 A3001 RMK AO2 CIG
     007V011=
KLEB 081107Z 00000KT 3SM HZ FEW001 24/21 A3006 RMK AO2=
KLVK 081107Z AUTO 28007KT 10SM OVC008 13/11 A2990 RMK AO2=
KVTA 081107Z AUTO 00000KT 2 1/2SM BR FEW065 20/19 A3009 RMK
     AO2=
KORE 081107Z AUTO 15006KT 6SM HZ BKN013 BKN080 BKN100 24/21 A3008
     RMK AO2=
KNSE 081103Z 00000KT 3/4SM BR FEW001 SCT250 22/21 A3003 RMK AO2
     $=
KAMA 081108Z 35012KT 5SM BR OVC003 17/17 A3020 RMK AO2 $=
KBOK 081109Z AUTO 30003KT 1SM BR OVC002 09/09 A2997 RMK AO2 $=
KDGW 081108Z AUTO 00000KT 3SM BR CLR 06/05 A3035 RMK AO2 $=
KFWN 081108Z AUTO 00000KT 3SM BR CLR 22/21 A3005 RMK AO2=
####018000087####
SAUS80 KWBC 081110
METAR
KCIR 081102Z AUTO 00000KT 10SM CLR 25/22 A3006 RMK AO2=
####018000216####
SAAG41 KWBC 081100
METAR
SAAC NIL=
SAAV NIL=
SAGS NIL=
SANE NIL=
SANT NIL=
SANU NIL=
SAOR NIL=
SARL NIL=
SATM NIL=
SAVC 081100Z 23008KT CAVOK 06/M00 Q1000=
SAVT NIL=
SAZB NIL=
SAZN NIL=
####018001245####
SAAL41 DAMM 081100
METAR DAAD 081100Z NIL=
METAR DAAE 081100Z 09009KT CAVOK 27/22 Q1019=
METAR DAAJ 081100Z NIL=
METAR DAAP 081100Z 26008KT CAVOK 40/12 Q1015=
METAR DAAS 081100Z 12007KT CAVOK 34/07 Q1024=
METAR DAAV 081100Z 36010KT CAVOK 30/21 Q1019=
METAR DAAY 081100Z 33004KT CAVOK 35/12 Q1025=
METAR DABT 081100Z 30012KT CAVOK 34/07 Q1023=
METAR DAFH 081100Z 12014KT CAVOK 35/16 Q1022=
METAR DAMH 081100Z 03004KT CAVOK 38/12 Q1015=
METAR DAOB 081100Z 06006KT CAVOK 37/06 Q1023=
METAR DAOF 081100Z 08010KT 4000 HZ NSC 41/06 Q1014=
METAR DAOI 081100Z 10008KT CAVOK 39/13 Q1017=
METAR DAOL 081100Z NIL=
METAR DAOR 081100Z 18004KT CAVOK 38/05 Q1023=
METAR DAOV 081100Z 02006KT CAVOK 40/09 Q1019=
METAR DATF 081100Z 36014KT CAVOK 39/08 Q1016=
METAR DATG 081100Z NIL=
METAR DATM 081100Z NIL=
METAR DAUA 081100Z NIL=
METAR DAUB 081100Z 13012KT CAVOK 35/15 Q1017=
METAR DAUE 081100Z 04016KT CAVOK 37/09 Q1020=
METAR DAUG 081100Z 15005KT CAVOK 36/10 Q1021=
METAR DAUI 081100Z NIL=
METAR DAUK 081100Z 18010KT CAVOK 35/15 Q1019=
METAR DAUL 081100Z 00000KT CAVOK 36/12 Q1022=
METAR DAUO 081100Z 15002KT CAVOK 35/17 Q1018=
METAR DAUT 081100Z ///18KT 4000 DRSA  NSC 40/09 Q1016=
METAR DAUU 081100Z 00000KT CAVOK 38/18 Q1018=
####018000094####
SAAF36 KWBC 081100 RRA
METAR
HKJK 081100Z VRB02KT 9999 BKN020 OVC100 17/14 Q1023 NOSIG=
####018001099####
SAIY41 LIIB 081100
METAR LIMH 081055Z 06011KT CAVOK 05/M07 Q1039 RMK FEW FEW100 MON LIB
      VAL S CLD SCT VIS MIN 9999=
METAR LIMT 081100Z NIL=
METAR LIMU 081055Z 05010KT 9999 FEW028 29/21 Q1020 RMK BKN SCT070 QUK
      2 QUL 1 E VIS MAR 15 KM VIS MIN 9999=
METAR LIMV 081055Z 36008KT 6000 FEW012 23/18 Q1023 RMK SCT SCT080 MON
      LIB NC VAL FOSCHIA VIS MIN 6000=
METAR LIMY 081055Z /////KT 7000 SCT026 SCT036 21/17 Q1023 RMK BKN VAL
      FOSCHIA VIS MIN 7000=
METAR LIVD 081055Z 00000KT CAVOK 21/12 Q1024 RMK SKC VIS MIN 9999=
METAR LIVE 081055Z 18008KT CAVOK 20/10 Q1024 RMK SKC VIS MIN 9999=
METAR LIVF 081055Z 03003KT CAVOK 27/08 Q1022 RMK FEW FEW220 MON LIB
      VAL NIL VIS MIN 9999=
METAR LIVM 081055Z 14009KT CAVOK 27/20 Q1021 RMK SKC QUK 2 QUL 1 SE
      VIS MAR 30 KM VIS MIN 9999=
METAR LIVO 081055Z 17003KT 9999 FEW040 23/13 Q1022 RMK FEW VIS MIN
      9999=
METAR LIVR 081055Z /////KT 9999 FEW025 15/11 Q1028 RMK FEW MON CLD
      CIME VIS MIN 9999=
METAR LIVT 081055Z 28001KT CAVOK 24/17 Q1022 RMK SCT SCT070 QUK 1 QUL
      0 VIS MAR 20 KM VIS MIN 9999=
####018000108####
SAUS70 KWBC 081100 RRK
METAR
KGOP 081100Z AUTO 00000KT 10SM SCT006 SCT025 24/24 A3002 RMK
     AO2=
####018000266####
SAAO33 KWBC 081100 RRA
METAR
GFLL 081100Z 15006KT 9999 SCT015 FEW028CB 28/24 Q1014 CB-NE=
GGOV 081100Z 18007KT 130V230 9999 SCT014TCU FEW020CB BKN250 30/23
     Q1013 NOSIG=
GLRB 081100Z 15006KT 9999 BKN018 FEW026CB 29/24 Q1015 CB-S=
GUCY 081100Z NIL=
####018000412####
SAAS31 KWBC 081105
METAR
VAAH NIL=
VABB NIL=
VABG NIL=
VAGO NIL=
VANP NIL=
VANY NIL=
VCBI NIL=
VECC NIL=
VEPT NIL=
VGEG NIL=
VGZR NIL=
VIAR NIL=
VIBN NIL=
VIDP NIL=
VNKT NIL=
VOBG NIL=
VOCI NIL=
VOHY NIL=
VOMM NIL=
VONY NIL=
VOTR NIL=
VOTV NIL=
VQPR NIL=
VQTU NIL=
VRMM NIL=
VTBS 081100Z 17004KT 090V170 9999 FEW020 SCT035 BKN300 29/23 Q1006
     NOSIG=
####018000745####
SARA36 RUMS 081100
METAR UWUU 081100Z 04004G08MPS 020V110 CAVOK 28/10 Q1015 82010060
NOSIG RMK QFE750/1000=
METAR USCC 081100Z 34004G07MPS 300V020 9999 FEW040 SCT200 25/01 Q1014
NOSIG RMK QFE740 27000070=
METAR USDD 081100Z 03008G12MPS CAVOK 17/01 Q1016 NOSIG RMK
QFE756/1008 SC060=
METAR USMU 081100Z 01005MPS 9999 SCT026CB OVC066 14/11 Q1006 NOSIG
RMK QFE748 09250345=
METAR USNN 081100Z 15004MPS P6000 FEW026 SCT200 17/10 Q1003 NOSIG RMK
QFE747 SC065=
METAR USRK 081100Z 34003MPS 6000 BKN022 OVC066 14/10 Q1004 NOSIG RMK
QFE747 351///55=
METAR USRR 081100Z 36003MPS 7000 OVC010 12/10 Q1004 TEMPO BKN007 RMK
QFE748 25////60=
METAR USSS 081100Z 33006G10MPS 300V010 CAVOK 25/02 Q1014 NOSIG RMK
QFE740 260///70=
####018000360####
SPUS99 KWBC 081110
SPECI
KORE 081107Z AUTO 15006KT 6SM HZ BKN013 BKN080 BKN100 24/21 A3008
     RMK AO2=
KAMA 081108Z 35012KT 5SM BR OVC003 17/17 A3020 RMK AO2 $=
KBOK 081109Z AUTO 30003KT 1SM BR OVC002 09/09 A2997 RMK AO2 $=
KDGW 081108Z AUTO 00000KT 3SM BR CLR 06/05 A3035 RMK AO2 $=
KFWN 081108Z AUTO 00000KT 3SM BR CLR 22/21 A3005 RMK AO2=
####018000398####
SARA33 RUMS 081100
METAR UIAA 081100Z 12004MPS 070V190 9999 VCTS BKN040CB OVC100 24/11
Q1007 NOSIG RMK Á˙ ‡˙ ÛÌÂ˝ Û˜ QFE697 29CLRD70=
METAR UIBB 081100Z 06003MPS 9999 BKN200 27/13 Q1006 NOSIG RMK
QFE711/0949 30CLRD60=
METAR UIII 081100Z VRB01MPS CAVOK 21/13 Q1006 NOSIG RMK QFE712/0950
12CLRD60=
METAR UIUU 081100Z 00000MPS 9999 SCT033CB OVC100 22/13 Q1007 NOSIG
RMK QFE711/0948=
####018000661####
SARA32 RUMS 081100
METAR UHHH 081100Z 02004MPS 9999 SCT033CB OVC100 17/15 Q1010 NOSIG
RMK QFE751/1002 55090060=
METAR UHMA 081100Z NIL=
METAR UHMM 081100Z 26002MPS 9999 OVC007 12/11 Q1016 RMK QFE747
88010070 MT OBSC=
METAR UHMP 081100Z NIL=
METAR UHNN 081100Z 05002MPS 9999 -SHRA FEW010 BKN024CB OVC070 11/10
Q1013 RMK QFE755=
METAR UHPP 081100Z VRB01MPS 9999 FEW010 07/05 Q1018 NOSIG RMK QBB300
QFE760/1013 SC070=
METAR UHSH 081100Z NIL=
METAR UHSS 081100Z 00000MPS 9999 BKN018 13/12 Q1011 NOSIG RMK MT OBSC
QFE757/1009 19CLRD70=
METAR UHWW 081100Z 18003MPS 9999 SCT013 BKN023 OVC090 17/14 Q1011
NOSIG RMK QFE757/1009 75CLRD70=
####018000388####
SARA33 RUMS 081100
METAR UIAA 081100Z 12004MPS 070V190 9999 VCTS BKN040CB OVC100 24/11
Q1007 NOSIG RMK     QFE697 29CLRD70=
METAR UIBB 081100Z 06003MPS 9999 BKN200 27/13 Q1006 NOSIG RMK
QFE711/0949 30CLRD60=
METAR UIII 081100Z VRB01MPS CAVOK 21/13 Q1006 NOSIG RMK QFE712/0950
12CLRD60=
METAR UIUU 081100Z 00000MPS 9999 SCT033CB OVC100 22/13 Q1007 NOSIG
RMK QFE711/0948=
####018002199####
SAUS20 KNKA 081109
METAR KGWB 081105Z AUTO 00000KT 3SM HZ CLR 22/17 A3006 RMK AO2=
METAR KGYB 081105Z AUTO 07005KT 7SM BKN008 BKN014 OVC095 25/24 
     A2998 RMK AO2 T02500240=
METAR KGYI 081104Z AUTO 14005KT 10SM SCT024 25/24 A3004 RMK AO2 
     LTG DSNT N T02500236=
SPECI KHBR 081108Z AUTO 06003KT 6SM BR FEW004 OVC070 23/22 A3008 RMK 
    AO2 TSE02=
METAR KHBV 081100Z AUTO 35004KT 10SM SCT005 SCT012 BKN017 25/24 
     A2987 RMK AO2 T02500236=
METAR KHHF 081105Z AUTO 36004KT 10SM -RA SCT036 BKN050 21/20 
     A3013 RMK AO2 T02110195=
METAR KHRX 081105Z AUTO 36009KT 7SM BKN007 OVC010 17/16 A3022 RMK 
     AO2 T01690161=
METAR KHSB 081105Z AUTO 00000KT 4SM BR CLR 22/21 A3005 RMK AO2=
METAR KIJX 081105Z AUTO 00000KT 2SM -DZ CLR 23/23 A3004 RMK AO2 
     T02330226=
METAR KINJ 081105Z AUTO 08005KT 4SM BR SCT028 25/23 A3001 RMK AO2 
     T02460228=
METAR KJAS 081106Z AUTO 07003KT 7SM SCT009 25/24 A3002 RMK AO2 
     T02450236=
METAR KJDD 081105Z AUTO 00000KT 4SM  BR OVC002 24/24 A3004 RMK AO2=
METAR KJSO 081110Z AUTO 09003KT 5SM BR BKN001 23/23 A3004 RMK AO2 
     LTG DSNT N T02330233=
METAR KJXI 081105Z AUTO 00000KT OVC002 24/24 A3005 RMK AO2=
SPECI KLFT 081108Z 08003KT 10SM BKN004 25/23 A3000 RMK AO2=
METAR KLNC 081105Z AUTO 11003KT 10SM SCT007 BKN012 BKN110 24/24 
     A3001 RMK AO2 T02440242=
SPECI KLNR 081108Z AUTO 00000KT 3/4SM BR OVC002 21/20 A3004 RMK AO2=
SPECI KMKG 081108Z 12003KT 1 3/4SM RA BR SCT036 BKN070 OVC095 23/22 
    A3002 RMK AO2 RAB02 P0001 $=
METAR KOLY 081103Z AUTO 00000KT 2 1/2SM BR CLR 23/22 A3005 RMK AO2=
SPECI KOWD 081108Z 14004KT 10SM FEW018 23/19 A3009 RMK AO2=
METAR KPEQ 081104Z AUTO RMK AO2 PWINO=
METAR KPNT 081105Z AUTO 00000KT 2SM BR SCT007 OVC048 22/22 A3004 
     RMK AO2=
METAR KPRG 081105Z AUTO 00000KT 4SM BR BKN120 22/21 A3005 RMK AO2 
     T02200215=
METAR KRCR 081107Z AUTO 15003KT 7SM CLR 25/22 A3005 RMK AO2=
METAR KRPJ 081105Z AUTO 00000KT 3SM BR BKN007 OVC013 21/20 A3004 
     RMK AO2 T02100199=
METAR KRSV 081102Z AUTO 00000KT 4SM BR CLR 23/23 A3006 RMK AO2 
     T02330225=
SPECI KSTC 081108Z AUTO 00000KT 1/2SM FG CLR 13/12 A3009 RMK AO2=
####018000970####
SARS32 RUMS 081100
METAR URKA 081100Z 08004MPS 9999 SCT026 29/19 Q1012 NOSIG RMK Û„ 065=
METAR URKK 081100Z 07005G08MPS 9999 SCT030 BKN300 30/20 Q1012 NOSIG
RMK QFE756 SC070=
METAR URKM 081100Z 12004MPS 9999 SCT040 BKN100 31/18 Q1012 NOSIG RMK
QFE741=
METAR URML 081100Z 04006MPS 9999 SKC 32/21 Q1012 NOSIG RMK QFE759 Á/Ô
Û„07=
METAR URMM 081100Z 11006G09MPS 9999 BKN043 31/19 Q1012 NOSIG RMK Á/Ô
SC070=
METAR URMN 081100Z 08001MPS 9999 BKN036CB BKN110 29/20 Q1013 NOSIG
RMK Á/Ô QFE723 SC07=
METAR URMT 081100Z 06005G08MPS 9999 SCT020 BKN100 28/16 Q1014 NOSIG
RMK QFE721 SC07=
METAR URRR 081100Z 13002MPS 070V190 9999 FEW033 30/14 Q1013 NOSIG RMK
SC070=
METAR URSS 081100Z 28004MPS 9999 FEW040 28/20 Q1010 NOSIG RMK Á/Ô
QFE756 06CLRD70=
METAR URWA 081100Z 28002MPS CAVOK 38/12 Q1011 NOSIG RMK SC07=
METAR URWI 081100Z 00000MPS CAVOK 31/16 Q1013 NOSIG RMK SC065=
METAR URWW 081100Z 34003G06MPS CAVOK 30/15 Q1014 NOSIG RMK SC070=
####018000406####
SARA35 RUMS 081100
METAR ULDD 081100Z NIL=
METAR UOHH 081100Z 02003MPS 9999 FEW030 SCT/// 12/03 Q1023 NOSIG RMK
QFE761 06090060=
METAR UOII 081100Z 16004MPS 9999 SCT033CB BKN040 24/14 Q1006 TEMPO
-TSRA RMK QFE752 30////60=
METAR UOOO 081100Z 03009G10MPS CAVOK 23/10 Q1010 NOSIG RMK QFE743
010///60=
METAR USCM 081100Z 07004MPS 020V150 9999 FEW050 27/01 Q1015 NOSIG
01090065 RMK QFE722=
####018000382####
SAAS32 KWBC 081105
METAR
RKPC 081100Z 09009KT 4500 BR SCT030 OVC120 25/20 Q1007 NOSIG=
RKPK 081100Z 14004KT 9999 FEW030 BKN200 24/17 Q1009 NOSIG=
RKSS 081100Z 18005KT 9999 -RA SCT030 OVC110 25/15 Q1008 NOSIG=
VHHH 081100Z 21009KT 140V230 9999 FEW015 SCT028 31/25 Q1006
     NOSIG=
VMMC NIL=
ZJSY 081100Z 14003MPS 110V180 9999 FEW016 30/26 Q1006 NOSIG=
ZKPY NIL=
####018000958####
SARS32 RUMS 081100
METAR URKA 081100Z 08004MPS 9999 SCT026 29/19 Q1012 NOSIG RMK  065=
METAR URKK 081100Z 07005G08MPS 9999 SCT030 BKN300 30/20 Q1012 NOSIG
RMK QFE756 SC070=
METAR URKM 081100Z 12004MPS 9999 SCT040 BKN100 31/18 Q1012 NOSIG RMK
QFE741=
METAR URML 081100Z 04006MPS 9999 SKC 32/21 Q1012 NOSIG RMK QFE759 /
07=
METAR URMM 081100Z 11006G09MPS 9999 BKN043 31/19 Q1012 NOSIG RMK /
SC070=
METAR URMN 081100Z 08001MPS 9999 BKN036CB BKN110 29/20 Q1013 NOSIG
RMK / QFE723 SC07=
METAR URMT 081100Z 06005G08MPS 9999 SCT020 BKN100 28/16 Q1014 NOSIG
RMK QFE721 SC07=
METAR URRR 081100Z 13002MPS 070V190 9999 FEW033 30/14 Q1013 NOSIG RMK
SC070=
METAR URSS 081100Z 28004MPS 9999 FEW040 28/20 Q1010 NOSIG RMK /
QFE756 06CLRD70=
METAR URWA 081100Z 28002MPS CAVOK 38/12 Q1011 NOSIG RMK SC07=
METAR URWI 081100Z 00000MPS CAVOK 31/16 Q1013 NOSIG RMK SC065=
METAR URWW 081100Z 34003G06MPS CAVOK 30/15 Q1014 NOSIG RMK SC070=
####018001019####
SARS35 RUMS 081100
METAR USPP 081100Z 32003MPS 270V360 CAVOK 28/08 Q1015 NOSIG RMK
QFE751/1001 21090060=
METAR UWKD 081100Z 25004MPS 220V300 9999 SCT033CB BKN070 32/12 Q1015
TEMPO VRB15MPS 3000 TSRA RMK QFE750/1000 792/0350=
METAR UWKE 081100Z 08003MPS 9999 FEW040 31/09 Q1016 NOSIG RMK
QFE745/0993 22090070=
METAR UWKS 081100Z 33003MPS 9999 BKN033CB 32/12 Q1016 NOSIG RMK
QFE747 SC0.60=
METAR UWLL 081100Z 07003MPS 9999 SCT050CB 31/11 Q1015 NOSIG RMK
QFE749/0999 SC065=
METAR UWLW 081100Z 01002MPS 8000 FEW040CB 33/14 Q1014 NOSIG 02CLRD60
RMK QFE755=
METAR UWOR 081100Z 05007PS CAVOK 29/02 Q1014 07CLRD65 NOSIG RMK
QFE735/0980=
METAR UWOO 081100Z 07007MPS P5000 FEW070 32/04 Q1012 08ÛLRD65 NOSIG
RMK QFE749/0998=
METAR UWPP 081100Z 12005MPS 9999 SCT033 BKN100 32/09 Q1014 NOSIG RMK
QFE746 11090060=
METAR UWSS 081100Z 09005MPS CAVOK 31/09 Q1014 NOSIG RMK QFE749
120///60=
METAR UWWW 081100Z 06008MPS 9999 SCT033 BKN200 32/09 Q1015 NOSIG RMK
QFE748/0998 05CLRD60 15//99//=
####018000500####
SARA31 RUMS 081100
METAR UEEE 081100Z 13001MPS 9999 SCT050CB OVC100 21/13 Q1007 NOSIG
RMK QFE747 2309//60=
METAR UELL 081100Z VRB01MPS 9999 VCFG BKN026CB OVC200 13/12 Q1012
TEMPO 0600 FG VV003 RMK QFE684 08CLRD70=
METAR UERP 081100Z 01004MPS 9999 BKN033CB BKN100 16/06 Q1014 NOSIG
RMK QFE717 35090065=
METAR UERR 081100Z 33002MPS 9999 BKN020CB OVC200 15/14 Q1012 NOSIG
RMK QFE728 24290255=
METAR UESO 081100Z NIL=
METAR UEST 081100Z 11002MPS CAVOK 05/03 Q1017 NOSIG RMK QFE762=
####018000964####
SARS31 RUMS 081100
METAR ULAA 081100Z 33003G06MPS 270V020 9999 FEW030CB 27/17 Q1015
TEMPO VRB14MPS TSRA RMK QFE760/1013 SC070=
METAR ULKK 081100Z 31002MPS 6000 SCT033 SCT099 32/16 Q1015 NOSIG RMK
QFE757=
METAR ULMM 081100Z 00000MPS 9999 BKN023 15/08 Q1018 NOSIG RMK QFE756
32190060=
METAR ULOL 081100Z NIL=
METAR ULOO 081100Z VRB02MPS P6000 SCT033 BKN200 28/18 Q1012 NOSIG RMK
QFE755=
METAR ULWW 081100Z 15005MPS 9999 SCT050TCU BKN/// 32/16 Q1016 NOSIG
RMK QFE751 15CLRD60=
METAR UMKK 081100Z 30007MPS P8000 FEW030 SCT200 22/15 Q1020 NOSIG RMK
QFE 764 SC07=
METAR UUBP 081100Z 00000MPS 9999 BKN033CB BKN/// 28/16 Q1013 NOSIG=
METAR UUOB 081100Z 21004MPS 9999 SCT040 BKN200 28/16 Q1014 NOSIG RMK
SC065=
METAR UUOK 081100Z 12002MPS 9999 BKN026 28/16 Q1012 NOSIG=
METAR UUOO 081100Z VRB01MPS 9999 SCT033 30/14 Q1014 NOSIG RMK
13090070=
METAR UWGG 081100Z 10003MPS 040V220 8000 FEW033 34/09 Q1016 NOSIG RMK
QFE755 18090070=
####018001018####
SARS35 RUMS 081100
METAR USPP 081100Z 32003MPS 270V360 CAVOK 28/08 Q1015 NOSIG RMK
QFE751/1001 21090060=
METAR UWKD 081100Z 25004MPS 220V300 9999 SCT033CB BKN070 32/12 Q1015
TEMPO VRB15MPS 3000 TSRA RMK QFE750/1000 792/0350=
METAR UWKE 081100Z 08003MPS 9999 FEW040 31/09 Q1016 NOSIG RMK
QFE745/0993 22090070=
METAR UWKS 081100Z 33003MPS 9999 BKN033CB 32/12 Q1016 NOSIG RMK
QFE747 SC0.60=
METAR UWLL 081100Z 07003MPS 9999 SCT050CB 31/11 Q1015 NOSIG RMK
QFE749/0999 SC065=
METAR UWLW 081100Z 01002MPS 8000 FEW040CB 33/14 Q1014 NOSIG 02CLRD60
RMK QFE755=
METAR UWOR 081100Z 05007PS CAVOK 29/02 Q1014 07CLRD65 NOSIG RMK
QFE735/0980=
METAR UWOO 081100Z 07007MPS P5000 FEW070 32/04 Q1012 08LRD65 NOSIG
RMK QFE749/0998=
METAR UWPP 081100Z 12005MPS 9999 SCT033 BKN100 32/09 Q1014 NOSIG RMK
QFE746 11090060=
METAR UWSS 081100Z 09005MPS CAVOK 31/09 Q1014 NOSIG RMK QFE749
120///60=
METAR UWWW 081100Z 06008MPS 9999 SCT033 BKN200 32/09 Q1015 NOSIG RMK
QFE748/0998 05CLRD60 15//99//=
####018000442####
SARS33 RUMS 081100
METAR ULLI 081100Z 11002MPS 010V170 9999 SCT040TCU BKN200 31/15 Q1013
NOSIG=
METAR UUDD 081100Z 14006MPS 9999 SCT043TCU BKN200 27/15 Q1015 TEMPO
TSRA=
METAR UUEE 081100Z 17004MPS 9999 SCT050CB BKN200 28/14 Q1015 NOSIG=
METAR UUEM 081100Z NIL=
METAR UUWW 081100Z 15002MPS 100V190 9999 SCT040 BKN100 26/16 Q1015
06000070 NOSIG=
METAR UUMO 081100Z VRB02MPS CAVOK 26/15 Q1015 NOSIG RMK QFE747/0996
SC060=
####018000271####
SARS34 RUMS 081100
METAR UUYH 081100Z 00000MPS CAVOK 27/08 Q1016 NOSIG RMK QFE 750
18CLRD60=
METAR UUYS 081100Z 16003MPS CAVOK 21/06 Q1016 NOSIG RMK QFE755
14CLRD60=
METAR UUYY 081100Z 12002MPS 9999 FEW033 BKN200 30/14 Q1016 NOSIG
01CLRD61 RMK QFE753/1004=
####018001493####
SAAS33 KWBC 081105
METAR
VBRR NIL=
VDPP 081100Z 25009KT 9999 SCT015 FEW017CB SCT040 31/22 Q1006 CB:NE
     NW=
VDSR 081100Z 18007KT 9999 SCT017 FEW020CB SCT040 32/23 Q1005
     CB:SE,NE=
VLVT 081100Z 27002KT 9999 FEW016 FEW050 32/24 Q1004=
VTBA NIL=
VTBD 081100Z 14006KT 9999 FEW020 SCT120 BKN300 31/23 Q1006
     NOSIG=
VTBU 081100Z 11002KT 9999 FEW020 BKN300 34/25 Q1006 A2973=
VTCC 081100Z 21007KT 9999 FEW025CB SCT035 BKN300 34/21 Q1007 A2974
     CB N,NE,S,W=
VTSP 081100Z 29009KT 9000 FEW020 SCT120 BKN300 29/24 Q1009
     A2980=
VTSS 081100Z NIL=
VVDN 081100Z 25004KT 190V290 9999 FEW017CB SCT300 27/20 Q1006
     NOSIG=
VVGL NIL=
VVNB 081100Z NIL=
VVTS 081100Z VRB01KT 9999 FEW015CB SCT017 29/23 Q1007 NOSIG=
WBGG 081100Z 26004KT 9999 TS FEW015CB SCT020 BKN150 25/23 Q1011
     NOSIG=
WBKK 081100Z 11005KT 9999 FEW014 SCT140 BKN270 25/24 Q1009
     NOSIG=
WMAM NIL=
WMKJ 081100Z 20004KT 9999 FEW022 SCT140 BKN300 28/25 Q1009=
WMKK 081100Z 19003KT 9999 FEW018 SCT140 BKN280 28/26 Q1008
     NOSIG=
WMKP 081100Z 25005KT 9999 FEW020 BKN280 30/25 Q1008 NOSIG=
WMSA 081100Z 28005KT 9999 FEW020 SCT140 BKN280 32/25 Q1008=
WPDL NIL=
WPEC NIL=
WSAP 081100Z 21004KT 9999 FEW016 SCT150 BKN300 30/24 Q1008=
WSSL 081100Z 24004KT 9999 FEW018 BKN280 29/23 Q1009=
WSSL 081100Z 24004KT 9999 FEW018 BKN280 29/23 Q1009 RMK 1030Z
     Q1008=
WSSS 081100Z 21004KT 160V250 9999 FEW016 FEW018TCU BKN280 29/25
     Q1009 NOSIG=
####018000792####
SARA34 RUMS 081100
METAR UNAA 081100Z 08003MPS 040V100 9999 SCT030CB BKN100 19/12 Q1011
RMK QFE736 202///55=
METAR UNBB 081100Z 19007MPS 9999 -SHRA BKN019CB 15/08 Q1010 NOSIG RMK
QFE735=
METAR UNEE 081100Z 27005MPS 9999 SCT026 BKN200 18/13 Q1008 NOSIG RMK
QFE734 23CLRD60=
METAR UNKL 081100Z 00000MPS 9999 SCT023CB OVC083 18/12 Q1010 NOSIG
RMK QFE732 29////60=
METAR UNNT 081100Z 24006MPS 9999 BKN060CB OVC100 20/01 Q1007 WS RWY25
NOSIG RMK QFE745/0994 25090070=
METAR UNOO 081100Z 33003MPS 9999 BKN025CB 13/10 Q1008 NOSIG 25CLRD06
RMK QFE748=
METAR UNWW 081100Z NIL=
METAR USTR 081100Z 34006G09MPS 9999 SCT046 19/05 Q1012 NOSIG RMK
QFE749/0999 30CLRD65=
METAR USHH 081100Z 32002G05MPS 280V010 9000 -SHRA SCT016CB OVC080
11/09 Q1009 NOSIG RMK QFE753 SC06=
####018000117####
SARA34 RUMS 081100 RRA
METAR UNWW 081100Z 24001MPS 9999 BKN026CB OVC100 16/08 Q1010 NOSIG
RMK QFE731 1929//60=
####018000098####
SAUZ31 UTTW 080830
METAR UTNU 080830Z 21002MPS 150V240 CAVOK 41/09 Q1008 R13/CLRD60 
NOSIG=
####018000127####
SAAW32 KWBC 081100 RRA
METAR
ORBI 081100Z 30014KT CAVOK 44/08 Q1003 NOSIG=
ORMM 081100Z 32018KT 8000 SKC 49/M04 Q0998=
####018002376####
SAUS70 KWBC 081110
METAR
KASW 081105Z AUTO 00000KT 5SM BR CLR 22/20 A3005 RMK AO2
     T02200204=
KAXH 081105Z AUTO 06004KT 7SM SCT036 SCT055 26/24 A2990 RMK AO2
     LTG DSNT W T02620240=
KBKD 081101Z AUTO 04004KT 1/4SM FG OVC002 23/23 A3003 RMK AO2
     T02330227=
KBKS 081106Z AUTO 01006KT 10SM SCT005 SCT020 SCT050 26/25 A2982
     RMK AO1 T02630250=
KBPC 081108Z AUTO 36004KT 10SM SCT006 BKN070 OVC120 18/17 A3017
     RMK AO2=
KBPG 081105Z AUTO 36007KT 7SM SCT120 21/20 A3010 RMK AO1
     T02080198=
KBYY 081106Z AUTO 07006KT 10SM SCT039 SCT049 SCT065 26/25 A2988
     RMK AO2 T02580250=
KC75 081104Z AUTO 00000KT 4SM BR SCT008 OVC014 24/24 A3003 RMK
     AO2=
KCPT 081105Z AUTO 11006KT 7SM -DZ FEW006 BKN015 OVC023 24/24 A3003
     RMK AO2=
KCVB 081104Z AUTO 03004KT 7SM OVC014 25/24 A2995 RMK AO2
     T02480242=
KCWC 081105Z AUTO 07004KT 10SM CLR 23/22 A3004 RMK AO2
     T02310216=
KDKR 081105Z AUTO 08004KT 7SM CLR 24/24 A3002 RMK AO2=
KDNV 081105Z AUTO 00000KT 4SM BR SCT090 22/21 A3002 RMK AO2
     T02180206=
KDUX 081107Z AUTO 33009KT 10SM OVC006 17/16 A3022 RMK AO2
     T01700160=
KDZB 081105Z AUTO 00000KT 4SM BR BKN006 OVC012 24/24 A2997 RMK AO2
     T02400240=
KE38 081105Z AUTO 00000KT 10SM CLR 17/16 A3021 RMK AO2
     T01700161=
KEBG 081105Z AUTO 01006KT 10SM SCT005 BKN016 BKN095 26/25 A2980
     RMK AO2 T02620248=
KECU 081105Z AUTO 00000KT 6SM BR FEW004 SCT011 22/21 A3008 RMK
     AO2=
KENL 081104Z AUTO 20003KT 10SM SCT065 24/16 A3005 RMK AO2
     T02420162=
KERV 081105Z AUTO 08003KT 10SM BKN040 OVC049 23/21 A2999 RMK AO2
     T02330212=
KF05 081104Z AUTO 04003KT 10SM BKN031 24/22 A3005 RMK AO2
     T02380223=
KFEP 081105Z AUTO 21003KT 4SM BR CLR 22/20 A3004 RMK AO2
     T02220202=
KFOA 081105Z AUTO 00000KT 4SM BR CLR 25/25 A3005 RMK AO2
     T02450245=
KFWC 081105Z AUTO 00000KT 5SM BR CLR 23/22 A3005 RMK AO2=
KFWS 081105Z AUTO 00000KT 7SM BKN007 OVC016 25/24 A3003 RMK AO2
     T02480235=
KGBG 081105Z AUTO 00000KT 2 1/2SM BR BKN002 OVC006 23/22 A3004 RMK
     AO2=
KGDJ 081104Z AUTO 00000KT 10SM SCT011 BKN031 OVC039 25/24 A3002
     RMK AO2 T02530238=
KGNC 081105Z AUTO 35005KT 10SM BKN008 OVC024 19/18 A3015 RMK AO2
     T01940180=
KGVT 081105Z AUTO 11003KT 10SM BKN012 SCT019 OVC026 25/23 A3003
     RMK AO2 LTG DSNT N=
####018000154####
SAAW33 KWBC 081100 RRB
METAR
OOMS 081100Z 05004KT 010V080 6000 -DZ SCT025 BKN120 33/28 Q1001
     NO(IG=
OOSA 081100Z AUTO 17008KT 28/23 Q1002=
####018000136####
SAAW32 KWBC 081030 RRD
METAR
OIII 081050Z 13008KT CAVOK 40/M03 Q1013 A2992 878/3=
OITT 081050Z 04012KT CAVOK 38/03 Q1014 A2994=
####018000053####
SABO41 KWBC 081100 RRB
METAR
SLPS 081100Z NIL=
####018000209####
SACA33 KWBC 081100 RRB
METAR
TDPD 081100Z 10006KT 9999 -SHRA SCT016 28/24 Q1015=
TFFF 081106Z 08010KT 9999 FEW020 SCT026 29/24 Q1014 NOSIG=
TFFF 081105Z 08011KT 9999 FEW020 SCT026 29/24 Q1014 NOSIG=
####018000291####
SAEE31 KWBC 081100 RRB
METAR
UMII 081100Z 18004MPS P6000 BKN020CB 23/16 Q1013 R23/CLRD// TEMPO
     2000 TSRA BKN005=
UMMM 081100Z 28005MPS 9999 OVC021 20/15 Q1015 R30/CLRD// NOSIG RMK
     QFE742=
UMMS 081100Z 28002MPS 250V310 9999 BKN020 20/16 Q1015 R31/CLRD//
     NOSIG=
####018000258####
SAEM31 KWBC 081100 RRB
METAR
LKMT 081100Z 05007KT 350V120 CAVOK 21/10 Q1023 NOSIG RMK REG QNH
     1021=
LKPR 081100Z 34004KT 290V030 CAVOK 23/09 Q1023 NOSIG RMK REG QNH
     1021=
LKTB 081100Z VRB06KT CAVOK 23/07 Q1023 NOSIG RMK REG QNH 1021=
####018000095####
SAFR31 KWBC 081100 RRB
METAR
LFKB 081100Z 11006KT 070V160 9999 FEW021 29/21 Q1020 NOSIG=
####018000120####
SPJP31 KWBC 081110
SPECI
RODN 081105Z AUTO 17013KT 9999 SCT017 BKN210 29/26 A2984 RMK AO2
CIG 018 RWY05 SLP106=
####018000081####
SAIQ31 KWBC 081100 RRA
METAR
ORBI 081100Z 30014KT CAVOK 44/08 Q1003 NOSIG=
####018000154####
SAIY31 KWBC 080950 RRF
METAR
LIBR 081045Z /////KT 9999 FEW020 25/15 Q1017 NOSIGNOSIG RMK FEW
     VIS MIN 9999 WIND THR13 WIND THR31 34018KT BLU=
####018000720####
SAIY31 KWBC 081050 RRC
METAR
LIBC 081050Z 03021KT CAVOK 27/10 Q1018 RMK VIS MIN 9999=
LIBD 081050Z 36015KT CAVOK 25/10 Q1020 RMK VIS MIN 9999=
LIBP 081050Z 02008KT 350V090 CAVOK 26/07 Q1022 RMK VIS MIN
     9999=
LICA 081050Z 24011KT 9999 SCT020 27/23 Q1017 RMK VIS MIN 9999=
LICC 081050Z 12011KT 8000 FEW040 29/20 Q1018 RMK VIS MIN 8000=
LICG 081055Z 31008KT 260V360 CAVOK 24/22 Q1019 RMK SKC VIS MIN
     9999 WIND THR08 VRB06KT WIND THR21 30006KT BLU=
LICJ 081050Z 04016KT CAVOK 27/23 Q1018 RMK VIS MIN 9999=
LICR 081050Z 20008KT 170V240 9999 FEW020 BKN040 27/19 Q1018 RMK
     VIS MIN 9999=
LICT 081055Z 32013KT 9999 FEW022 30/26 Q1018 RMK FEW VIS MIN 9999
     WIND THR13 31009KT BLU=
####018000589####
SAIY41 KWBC 081050 RRC
METAR
LIBA 081055Z /////KT 9999 FEW040 28/10 Q1019 RMK FEW VIS MIN 9999
     WIND THR29 32011KT BLU=
LIBG 081050Z 01018G29KT 320V030 9999 FEW028 27/08 Q1018 RMK VIS
     MIN 9999=
LIBN 081055Z 35020G30KT 9999 FEW030 26/11 Q1018 RMK FEW VIS MIN
     9999 WIND THR14 34018G28KT BLU=
LIBQ 081100Z NIL=
LIBV 081055Z 01020G31KT CAVOK 25/12 Q1017 RMK SKC VIS MIN 9999
     WIND THR14 35019KT BLU=
LICD 081050Z 36008KT CAVOK 27/21 Q1019 RMK VIS MIN 9999=
LICZ 081055Z 09015KT CAVOK 31/20 Q1017 RMK SKC VIS MIN 9999 WIND
     THR28 //////KT BLU=
####018000084####
SPUS31 KWBC 081110
SPECI
KORF 081107Z 11006KT 10SM SCT010 BKN110 26/23 A2997=
####018001530####
SAIY42 LIIB 081100
METAR LIBF 081050Z 33018KT CAVOK 28/07 Q1020 RMK VIS MIN 9999=
METAR LIEA 081050Z VRB03KT CAVOK 32/21 Q1019 RMK VIS MIN 9999=
METAR LIED 081055Z 15012KT 9999 33/18 Q1018 RMK FEW VIS MIN 9999 BLU=
METAR LIEO 081050Z 04011KT 9999 FEW030 30/20 Q1020 RMK VIS MIN
9999=
METAR LIMA 081050Z VRB03KT 9999 SCT040 25/16 Q1023 RMK VIS MIN 9999=
METAR LIQN 081050Z 36005KT CAVOK 27/17 Q1021 RMK VIS MIN 9999=
METAR LIQO 081055Z 00000KT 9999 FEW003 25/20 Q1021 RMK FEW VAL NIL NC
      VIS MIN 9999=
METAR LIQW 081055Z 19003KT 9999 FEW030 29/18 Q1020 RMK FEW VIS MIN
      9999 BLU=
METAR LIRE 081055Z 23010KT 9999 FEW020 28/20 Q1019 RMK FEW VIS MIN
      9999 WIND THR31 22010KT BLU=
METAR LIRG 081055Z 27007KT 9999 SCT033 31/18 Q1019 RMK SCT MON NE
     LIB NC VIS MIN 9999 BLU=
METAR LIRH 081055Z 36005KT 9999 SCT035 29/19 Q1020 RMK SCT MON LIB NC
      VIS MIN 9999 WIND THR16 24006KT BLU=
METAR LIRI 081050Z 02011KT CAVOK 29/11 Q1019 RMK VIS MIN 9999=
METAR LIRK 081055Z 13010KT CAVOK 16/14 Q1027 RMK SCT SCT060 MON NE
      LIB NC VAL NIL NC VIS MIN 9999=
METAR LIRL 081055Z 24008KT 9999 FEW020 FEW025TCU 30/18 Q1018 RMK SCT
      MON LIB NC VIS MIN 9999 BLU=
METAR LIRM 081055Z 08008KT CAVOK 29/15 Q1019 RMK SKC VIS MIN 9999
      WIND THR06 06007KT BLU=
METAR LIRS 081055Z 21010KT 9999 FEW040 31/14 Q1019 RMK SCT SCT200 VIS
      MIN 9999 WIND THR21 /////KT BLU=
METAR LIRT 081055Z 01009KT 9999 FEW015 17/07 Q1023 RMK FEW MON LIB
      VAL NIL VIS MIN 9999=
####018000125####
SATH32 VTBB 081100 RRA
METAR VTSG 081100Z VRB02KT 9000 FEW020 SCT120 BKN300 24/23 Q1009
           A2979 RWY32 INFO L=
####018000408####
SANZ31 KWBC 081100
METAR
NZAA 081100Z 21007KT 9999 FEW025 09/07 Q1011 NOSIG=
NZCH 081100Z 23012KT 9999 -SHRA FEW014 SCT035 BKN048 06/04 Q1016
     TEMPO 6000 SHRA=
NZOH NIL=
NZWN 081100Z 20029KT 9999 -RADZ FEW015 SCT030 BKN037 09/05 Q1013
     CHECK TEXT NEW ENDING ADDED YBBBYFYX=
NZWN 081100Z 20029KT 9999 -RADZ FEW015 SCT030 BKN037 09/05 Q1013
     WS R16 TEMPO 6000 SHRA=
NZWP NIL=
####018000532####
SARA31 KWBC 081100 RRB
METAR
UMBB 081100Z 30004G07MPS 8000 SCT031 23/12 Q1019 R29/CLRD//
     NOSIG=
UMGG 081100Z 24004MPS 9999 BKN030CB BKN100 28/16 Q1014 R28/CLRD//
     NOSIG=
UMII 081100Z 18004MPS P6000 BKN020CB 23/16 Q1013 R23/CLRD// TEMPO
     2000 TSRA BKN005=
UMMG 081100Z 32007G10MPS 9999 SCT026 BKN200 23/13 Q1015 R35/CLRD//
     NOSIG=
UMMM 081100Z 28005MPS 9999 OVC021 20/15 Q1015 R30/CLRD// NOSIG RMK
     QFE742=
UMMS 081100Z 28002MPS 250V310 9999 BKN020 20/16 Q1015 R31/CLRD//
     NOSIG=
####018000398####
SAPR41 KWBC 081100
METAR
SPCL NIL=
SPEC NIL=
SPEI NIL=
SPEO NIL=
SPGM NIL=
SPHI 081100Z 17007KT 9999 SCT012 15/13 Q1014 RMK PP000=
SPHO NIL=
SPHY NIL=
SPJA NIL=
SPJI NIL=
SPJL NIL=
SPJN NIL=
SPJR NIL=
SPME NIL=
SPMS NIL=
SPNC NIL=
SPPY NIL=
SPRU 081100Z 16005KT 7000 OVC015 16/13 Q1013 RMK BIRD HAZARD RWY20
     PP000=
SPST NIL=
SPTU NIL=
SPUR NIL=
####018000106####
SPXX61 KWBC 081110
SPECI
EGUN 081103Z AUTO 24008KT 9999 BKN032 OVC120 21/17 A3007 RMK AO2
SLP170=
####018000141####
SPXX62 KWBC 081110
SPECI
RKJK 081103Z 31005KT 9999 -DZ FEW007 SCT070 SCT090 24/23 A2980 RMK
AO2A LTG DSNT W DZB1103 PRESRR SLP091 $=
####018000120####
SPXX62 KWBC 081110
SPECI
RODN 081105Z AUTO 17013KT 9999 SCT017 BKN210 29/26 A2984 RMK AO2
CIG 018 RWY05 SLP106=
####018000331####
SASA32 KWBC 081100 RRA
METAR
SLTR 081100Z 00000KT 8000 VCSH SCT015 FEW020CB BKN070 22/21
     Q1013=
SUAA 081100Z 32006KT CAVOK 04/02 Q1018=
SUCA 081100Z 30007KT CAVOK 08/02 Q1018=
SULS 081100Z 30005KT 9999 FEW016 06/03 Q1018=
SUMU 081100Z 31006KT CAVOK 03/03 Q1018 NOSIG=
SUSO 081100Z 12004KT CAVOK 05/04 Q1020=
####018000082####
SPUS41 KWBC 081110
SPECI
KCEF 081107Z AUTO 17007KT 10SM BKN008 24/22 A3006=
####018000085####
SPCN51 CWAO 081104
SPECI CZCP 081104Z AUTO 28021G26KT 1/8SM DZ CLR 04/ A2985=

####018000081####
SASA42 KWBC 081100 RRB
METAR
SUDU 081100Z 33004KT 9999 FEW023 04/03 Q1019=
####018000127####
SAXX61 KWBC 081100 RRB
METAR
LICZ 081055Z 09015KT CAVOK 31/20 Q1017 RMK SKC VIS MIN 9999 WIND
     THR28 //////KT BLU=
####018000088####
SPUS41 KWBC 081110
SPECI
KWRI 081108Z AUTO 18004KT 1 3/4SM BR FEW001 24/24 A3001=
####018002764####
SAXX99 KWBC 081100 RRJ
METAR
CWBU 081100Z AUTO 26006KT 10/08 RMK AO1 SLP176 T00980081 55000=
DAAD 081100Z NIL=
DAAE 081100Z 09009KT CAVOK 27/22 Q1019=
DAAJ 081100Z NIL=
DAAP 081100Z 26008KT CAVOK 40/12 Q1015=
DAAS 081100Z 12007KT CAVOK 34/07 Q1024=
DAAV 081100Z 36010KT CAVOK 30/21 Q1019=
DAAY 081100Z 33004KT CAVOK 35/12 Q1025=
DABT 081100Z 30012KT CAVOK 34/07 Q1023=
DAFH 081100Z 12014KT CAVOK 35/16 Q1022=
DAOB 081100Z 06006KT CAVOK 37/06 Q1023=
DAOF 081100Z 08010KT 4000 HZ NSC 41/06 Q1014=
DAOL 081100Z NIL=
DAOR 081100Z 18004KT CAVOK 38/05 Q1023=
DAOV 081100Z 02006KT CAVOK 40/09 Q1019=
DATG 081100Z NIL=
DATM 081100Z NIL=
DAUB 081100Z 13012KT CAVOK 35/15 Q1017=
DAUE 081100Z 04016KT CAVOK 37/09 Q1020=
DAUI 081100Z NIL=
DAUK 081100Z 18010KT CAVOK 35/15 Q1019=
DAUL 081100Z 00000KT CAVOK 36/12 Q1022=
DAUO 081100Z 15002KT CAVOK 35/17 Q1018=
DAUT 081100Z ///18KT 4000 DRSA NSC 40/09 Q1016=
DAUU 081100Z 00000KT CAVOK 38/18 Q1018=
EGYD 081050Z 23012KT 9999 FEW040 SCT120 BKN250 20/09 Q1017
     NOSIG=
LKKV 081100Z VRB03KT CAVOK 23/10 Q1024 RMK REG QNH 1021=
SADF 081100Z 00000KT CAVOK 04/02 Q1019=
UMOO 081100Z 29005MPS 9999 BKN018CB BKN/// 24/18 Q1013 R31/290056
     TEMPO 3000 -TSRA=
VTBO 081100Z NIL=
VTCH 081100Z NIL=
VTCL 081100Z NIL=
VTCN 081100Z NIL=
VTCP 081100Z NIL=
VTCT 081100Z NIL=
VTPB 081100Z NIL=
VTPH 081100Z 14005KT 9999 SCT030 31/23 Q1006=
VTPM 081100Z NIL=
VTPO 081100Z NIL=
VTPP 081100Z 19004KT 9999 FEW028 35/23 Q1003=
VTPT 081100Z NIL=
VTSB 081100Z 00000KT 9999 SCT020TCU SCT120 33/26 Q1007 A2975 TCU
     E=
VTSC 081100Z NIL=
VTSE 081100Z NIL=
VTSF 081100Z 18005KT 150V210 9999 FEW017CB SCT018 BKN300 28/22
     Q1007 A2976 RETS CB TO SW=
VTSG 081100Z NIL=
VTSK 081100Z NIL=
VTSM 081100Z 33005KT 9999 FEW020 BKN300 33/25 Q1008 A2977=
VTSR 081100Z NIL=
VTST 081100Z NIL=
VTUD 081100Z NIL=
VTUI 081100Z NIL=
VTUJ 081100Z NIL=
VTUK 081100Z NIL=
VTUL 081100Z NIL=
VTUO 081100Z NIL=
VTUQ 081100Z NIL=
VTUU 081100Z 21004KT 9999 FEW019CB FEW023 BKN300 34/22 Q1005 A2968
     CB SW=
VTUV 081100Z NIL=
VTUW 081100Z 00000KT 9999 FEW022CB SCT300 34/22 Q1005 A2968 CB S
     RWY15=
WBGB 081100Z 15003KT 9999 -RA SCT016 OVC140 25/24 Q1009 RETSRA=
WBGR 081100Z 06010KT 5000 +TSRA SCT014 FEW015CB BKN150 25/24
     Q1010=
WBGS 081100Z 11003KT 9999 SCT018 BKN150 25/24 Q1010=
WBGY 081100Z 29002KT 9999 SCT023 BKN150 26/24 Q1009=
WBKL 081100Z 13005KT 3000 TSRA SCT010 FEW013CB SCT030 BKN130 26/25
     Q1009=
WBKS 081100Z 34001KT 9999 FEW016 BKN300 28/26 Q1008=
WBKT 081100Z 25003KT 9999 FEW015 FEW016CB SCT033 BKN270 24/23
     Q1008 RETS=
WBKW 081100Z 10002KT 9999 FEW017 BKN300 29/25 Q1008=
####018000172####
SAXX99 KWBC 081100 CCC
METAR
BGUK 081050Z 15003KT 9999 SKC 06/03 Q1010=
CYGR 081100Z CCA 22015KT 12SM FEW040 BKN080 20/17 A3004 RMK SC2AC5
     CU ASOCTD SLP171=
####018000577####
SAZA31 KWBC 081100
METAR
FABB NIL=
FABE NIL=
FABL 081100Z 34010KT 9999 FEW045 18/06 Q1032 NOSIG=
FABM NIL=
FACT 081100Z VRB02KT CAVOK 21/03 Q1019 NOSIG=
FADN NIL=
FAEL 081100Z 05010KT 020V080 9999 FEW040 22/11 Q1025=
FAGG 081100Z VRB02KT CAVOK 17/07 Q1021=
FAGM NIL=
FAJS 081100Z 06007KT 020V080 9999 SCT039 14/04 Q1035 NOSIG=
FAKT NIL=
FALW NIL=
FALZ NIL=
FAPB NIL=
FAPE 081100Z 04013KT CAVOK 17/10 Q1023 NOSIG=
FAPR NIL=
FASB NIL=
FAUP 081100Z 35021KT CAVOK 22/02 Q1026 NOSIG=
FAWH NIL=
FAWK 081100Z 05010 9999 FEW060 15/// Q1036=
####018000097####
SAUZ31 UTTW 080830
METAR UTNU 080830Z 21002MPS 150V240 CAVOK 41/09 Q1008 R13/CLRD60
NOSIG=
####018000138####
SAIY40 LIIB 081100 RRB
METAR COR LIVP 081055Z VRB02KT 9999 BKN010 13/10 Q1029 RMK BKN MON W
      CIME INC VAL NE LIB VIS MIN 9999=
####018000100####
SAIN33 VECC 081050 RRA
METAR VGEG 081050Z 20008KT 7000 FEW008 SCT016 28/25 Q1006
      NOSIG=
####018001787####
SAIY40 LIIB 081100 RRA
METAR LIMG 081050Z 07008KT 9999 SCT080 30/24 Q1021 RMK VIS MIN 9999=
METAR LIMK 081055Z 34003KT 9999 BKN025 20/13 Q1023 RMK BKN VAL NIL
      VIS MIN 9999=
METAR LIMN 081055Z /////KT 9999 FEW030 27/15 Q1021 RMK FEW VIS MIN
      9999 BLU=
METAR LIMP 081050Z 06004KT 330V120 CAVOK 28/14 Q1022 RMK VIS MIN
9999=
METAR LIMS 081055Z 12009KT 060V150 CAVOK 28/15 Q1021 RMK SKC VIS MIN
      9999 WIND THR30 10006KT BLU=
METAR LIMZ 081050Z 35005KT 8000 FEW025 BKN045 25/17 Q1024 RMK VIS
MIN 8000=
METAR LIPA 081055Z 21008KT 9999 FEW060 25/18 Q1022 RMK FEW VIS MIN
      9999 A3019 BLU=
METAR LIPB 081050Z 17011KT CAVOK 28/12 Q1021 RMK MON LIB VIS MIN
9999=
METAR LIPC 081055Z 11010KT CAVOK 28/14 Q1022 RMK FEW FEW200 VIS MIN
      9999 WIND THR12 11009KT BLU=
METAR LIPF 081055Z 27002KT 9999 FEW050 27/19 Q1021 RMK FEW VIS MIN
      9999=
METAR LIPH 081045Z 16004KT 9999 SCT025 27/20 Q1023 RMK SCT VIS MIN
      9999 WIND THR07 /////KT BLU=
METAR LIPI 081055Z 20005KT 9999 FEW030 26/19 Q1021 RMK FEW VIS MIN
     9999 WIND THR06 18004KT BLU=
METAR LIPL 081055Z 14004KT 9999 FEW035 27/18 Q1022 RMK SCT VIS MIN
      9999 BLU=
METAR LIPO 081050Z 20004KT 100V230 9999 FEW065 28/14 Q1021 RMK VIS
MIN 9999=
METAR LIPQ 081050Z VRB03KT CAVOK 26/15 Q1022=
METAR LIPR 081045Z 08011KT CAVOK 28/17 Q1021 RMK SKC VIS MIN 9999
      WIND THR31 09011KT BLU=
METAR LIPS 081055Z 20003KT 9999 FEW025 29/18 Q1022 RMK FEW VIS MIN
     9999 BLU=
METAR LIPX 081045Z 12003KT 9999 FEW040 29/13 Q1021 RMK FEW VIS MIN
      9999 BLU=
METAR LIPY 081050Z 06008KT 010V090 CAVOK 27/14 Q1021 RMK VIS MIN
9999=
METAR LIVC 081055Z 00000KT 9999 SCT000 14/11 Q1030 RMK SCT MON CLD
      CIME CUF VAL CLD SCT ELEV VIS MIN 9999=
####018000087####
SADO31 TDPD 081100
METAR TDCF 081100Z 15006KT 9999 -SHRA BKN016TCU 24/22 Q1014=
####018000089####
SPUS52 KWBC 081110
SPECI
KCOT 081107Z AUTO 04005KT 10SM BKN015 OVC055 25/23 A2990=
####018001591####
SAIY40 LIIB 081100
METAR LIMG 081050Z 07008KT 9999 SCT080 30/24 Q1021 RMK VIS MIN 9999=
METAR LIMK 081055Z 34003KT 9999 BKN025 20/13 Q1023 RMK BKN VAL NIL
      VIS MIN 9999=
METAR LIMN 081055Z /////KT 9999 FEW030 27/15 Q1021 RMK FEW VIS MIN
      9999 BLU=
METAR LIMP 081050Z 06004KT 330V120 CAVOK 28/14 Q1022 RMK VIS MIN
9999=
METAR LIMS 081055Z 12009KT 060V150 CAVOK 28/15 Q1021 RMK SKC VIS MIN
      9999 WIND THR30 10006KT BLU=
METAR LIMZ 081050Z 35005KT 8000 FEW025 BKN045 25/17 Q1024 RMK VIS
MIN 8000=
METAR LIPA 081055Z 21008KT 9999 FEW060 25/18 Q1022 RMK FEW VIS MIN
      9999 A3019 BLU=
METAR LIPB 081050Z 17011KT CAVOK 28/12 Q1021 RMK MON LIB VIS MIN
9999=
METAR LIPC 081055Z 11010KT CAVOK 28/14 Q1022 RMK FEW FEW200 VIS MIN
      9999 WIND THR12 11009KT BLU=
METAR LIPF 081055Z 27002KT 9999 FEW050 27/19 Q1021 RMK FEW VIS MIN
      9999=
METAR LIPH 081045Z 16004KT 9999 SCT025 27/20 Q1023 RMK SCT VIS MIN
      9999 WIND THR07 /////KT BLU=
METAR LIPI 081055Z 20005KT 9999 FEW030 26/19 Q1021 RMK FEW VIS MIN
     9999 WIND THR06 18004KT BLU=
METAR LIPL 081055Z 14004KT 9999 FEW035 27/18 Q1022 RMK SCT VIS MIN
      9999 BLU=
METAR LIPO 081050Z 20004KT 100V230 9999 FEW065 28/14 Q1021 RMK VIS
MIN 9999=
METAR LIPQ 081050Z VRB03KT CAVOK 26/15 Q1022=
METAR LIPR 081045Z 08011KT CAVOK 28/17 Q1021 RMK SKC VIS MIN 9999
      WIND THR31 09011KT BLU=
METAR LIPS 081055Z 20003KT 9999 FEW025 29/18 Q1022 RMK FEW VIS MIN
     9999 BLU=
METAR LIPX 081045Z 12003KT 9999 FEW040 29/13 Q1021 RMK FEW VIS MIN
      9999 BLU=
####018000080####
SAMN31 TNCM 081100
METAR TNCM 081100Z 09009KT 9999 FEW019 28/23 Q1016=  
####018000755####
SAHK31 VHHH 081100
METAR VHHH 081100Z 21009KT 140V230 9999 FEW015 SCT028 31/25 
Q1006 NOSIG=
METAR RCTP 081100Z 23011KT 9999 FEW025 BKN120 BKN200 29/24
Q1007 NOSIG=
METAR RCKH 081100Z 31004KT 240V350 9999 FEW013 BKN250 30/26
Q1009 NOSIG=
METAR RCSS 081100Z 27008KT 9999 FEW020 BKN035 BKN080 31/23
Q1007 NOSIG=
METAR VMMC 081100Z 19013KT 170V260 9999 FEW025 SCT090 30/26
     Q1006 NOSIG=
METAR RPLL 081100Z 10002KT 9999 FEW025TCU BKN300 31/25 Q1009 NOSIG 
           RMK TCU S A2980=
METAR RPVM 081100Z 16004KT 9999 FEW018CB BKN250 30/26 Q1010 A2982
           CB W W/ OCNL LTNG=
METAR RPMD 081100Z NIL=
METAR RPLB 081100Z 21006KT 9999 FEW020 BKN280 30/25 Q1009 NOSIG=
METAR RPLI 081100Z NIL=
METAR RPMZ 081100Z NIL=
####018000073####
SAUS81 KWBC 081108
&EHA SA 1108  AMOS 63/62/3505/M PK WND 07 073

####018000081####
SADL35 EDZO 081050 RRA
METAR EDHI 081050Z 23007KT 190V280 CAVOK 28/11 Q1019=
####018000471####
SPUS17 KAWN 081110 RRA
SPECI KCEF 081107Z AUTO 17007KT 10SM BKN008 24/22 A3006 RMK AO2 CIG
      008V011 SLP181 PWINO $=
SPECI KFRI 081103Z AUTO 02003KT 8SM BKN006 BKN016 BKN160 21/21 A3010
      RMK AO2 SLP183=
SPECI KLTS 081103Z AUTO 06004KT 10SM BKN021 BKN029 23/23 A3007 RMK
      AO2 SLP168 $=
SPECI KLTS 081106Z AUTO 08003KT 10SM BKN019 23/22 A3007 RMK AO2 CIG
      015V022 SLP168 $=
SPECI KNFW 081103Z 11004KT 10SM BKN012 26/22 A3005 RMK AO2=
####018000327####
SAXX60 KAWN 081100 RRB
METAR PHNG 081057Z 08007KT 10SM SCT020 BKN040 24/19 A3004 RMK AO2 RAE05
      SLP168 P0000 T02440194 $=
METAR RJOO 081100Z 21004KT 160V250 9999 FEW030 BKN/// 27/21 Q1009 RMK
      1CU030 A2980=
METAR RJTT 081100Z 18016KT 9999 FEW009 SCT014 BKN/// 25/22 Q1010 RMK
      1ST009 3CU014 A2983=
####018000326####
SANA14 KAWN 081100 RRD
METAR SEGU 081100Z 20005KT 9999 BKN030 23/19 Q1011 NOSIG=
METAR SKRG 081100Z 00000KT 2500 BCFG BKN003 BKN080 14/14 A3028=
METAR SKSP 081100Z 08006KT 9999 SCT015 28/25 A2982=
METAR TDPD 081100Z 10006KT 9999 -SHRA SCT016 28/24 Q1015=
METAR TVSV 081100Z 11013KT 9999 SCT021 BKN280 29/24 Q1014=
####018000084####
SPUS74 KWBC 081110
SPECI
KCEC 081107Z AUTO 00000KT 4SM BR OVC003 10/09 A2998=
####018000084####
SPUS81 KWBC 081110
SPECI
KORF 081107Z 11006KT 10SM SCT010 BKN110 26/23 A2997=
####018000608####
SAUS20 KNKA 081110
METAR KSLR 081102Z AUTO 11003KT 7SM SCT007 OVC037 25/24 A3005 RMK 
     AO2 LTG DSNT N T02500235=
METAR KSNK 081106Z AUTO 02008KT 7SM BKN003 OVC008 21/20 A3009 RMK 
     AO2 T02080200=
METAR KSOA 081100Z AUTO 36003KT 8SM 22/21 A3007 RMK AO2=
METAR KSWW 081105Z AUTO 03005KT 3/4SM OVC002 21/21 A3010 RMK AO1 
     T02130210=
METAR KT65 081105Z AUTO 35004KT 10SM SCT046 BKN055 BKN065 26/25 
     A2978 RMK AO2 T02550245=
METAR KT82 081105Z AUTO 09003KT 23/22 A3002 RMK AO1 T02250216=
METAR KUVA 081105Z AUTO 05005KT 10SM OVC023 24/23 A2996 RMK AO2 
     T02410230=
####018002968####
SAUS20 KNKA 081110
METAR K11R 081106Z AUTO 05004KT 7SM SCT080 24/23 A2995 RMK AO2 
     LTG DSNT N AND SE=
METAR K5C1 081106Z AUTO 05003KT 7SM BKN007 BKN011 OVC017 24/23 
     A2999 RMK AO1=
SPECI KARB 081109Z AUTO 00000KT 6SM BR CLR 21/20 A3004 RMK AO2=
METAR KCCA 081115Z AUTO 00000KT 7SM OVC006 23/23 A3007 RMK AO2 =
METAR KCDN 081115Z AUTO 00000KT 10SM CLR 24/20 A3000 RMK A02 P000 
     =
METAR KCKI 081115Z AUTO 00000KT 22/21 A2996 RMK AO2 PWINO=
SPECI KDVN 081109Z AUTO 30005KT 2 1/2SM BR OVC007 22/21 A3005 RMK 
    AO2 CIG 003V010=
SPECI KFRG 081109Z 16005KT 9SM BKN006 OVC010 24/23 A3005 RMK AO2 CIG 
    004V009=
METAR KJWY 081105Z AUTO 12004KT 7SM 25/23 A3002 RMK AO2 T02450227=
METAR KLBR 081105Z AUTO 00000KT 5SM OVC002 24/23 A3004 RMK AO2 
     T02390230=
METAR KLHB 081104Z AUTO 07004KT 5SM BR SCT009 25/23 A2997 RMK AO2 
     T02490231=
METAR KLRO 081115Z AUTO 00000KT 7SM CLR 23/19 A2996 RMK AO2 =
METAR KLUD 081105Z AUTO 00000KT 10SM CLR 24/23 A3003 RMK AO2 
     T02400225=
METAR KM30 081106Z AUTO 00000KT 10SM SCT120 22/21 A3006 RMK AO2=
METAR KMDD 081100Z AUTO 02005KT 7SM BKN002 BKN110 22/21 A3008 RMK 
     AO2 T02150205=
METAR KMKN 081100Z AUTO 00000KT 10SM 23/23 A3004 RMK AO2=
METAR KMKS 081115Z AUTO 00000KT 7SM CLR 22/20 A2996 RMK AO2 TSNO=
METAR KMNZ 081109Z AUTO 12004KT 10SM OVC009 24/24 A3002 RMK AO2 
     T02430240=
METAR KMQB 081105Z AUTO 28004KT 5SM BR OVC004 23/23 A3006 RMK AO2 
     T02300226=
METAR KMWA 081105Z AUTO 18003KT 10SM SCT100 24/23 A3007 RMK AO2 
     T02420232=
METAR KMZZ 081055Z AUTO 00000KT 5SM BR BKN110 22/20 A3006 RMK
     AO2=
SPECI KORF 081107Z 11006KT 10SM SCT010 BKN110 26/23 A2997 RMK
     AO2=
METAR KOSA 081104Z AUTO 00000KT 5SM CLR 24/24 A3005 RMK AO1 
     T02430238=
METAR KPEZ 081105Z AUTO 02004KT 10SM OVC009 25/24 A2992 RMK AO2 
     T02500235=
METAR KPKV 081106Z AUTO 08003KT 7SM -RA SCT020 BKN040 OVC070 
     24/22 A2986 RMK AO2 T02430224=
METAR KPPA 081105Z AUTO 36007KT 10SM SCT005 BKN060 BKN080 17/16 
     A3019 RMK AO2=
METAR KPSN 081105Z AUTO 09006KT 7SM 24/23 A3002 RMK AO2 T02410232=
METAR KPYX 081110Z AUTO 01006KT 7SM BKN090 OVC110 19/18 A3018 RMK 
     AO2 T01850175=
METAR KRAS 081105Z AUTO 13007KT 8SM SCT013 BKN025 OVC038 28/26 
     A2985 RMK AO2=
METAR KRBO 081105Z AUTO 01005KT 10SM CLR 26/25 A2983 RMK AO2 LTG 
     DSNT NE T02600248=
METAR KRFI 081105Z AUTO 00000KT 7SM CLR 24/23 A3002 RMK AO2 
     T02360226=
METAR KRPH 081105Z AUTO 00000KT 10SM CLR 22/21 A3002 RMK AO2 
     T02210209=
METAR KRWV 081100Z AUTO 00000KT 8SM BKN008 24/24 A2999 RMK AO2=
METAR KRYW 081105Z AUTO 10007KT 1 1/4SM +RA BKN002 OVC011 23/22 
     A2999 RMK AO2 P0005=
METAR KSAR 081105Z AUTO 19005KT 7SM OVC065 26/23 A3005 RMK AO2=
METAR KSEP 081105Z AUTO 00000KT 10SM SCT011 BKN032 BKN080 23/22 
     A3003 RMK AO1=
METAR KSLO 081103Z AUTO 19003KT 10SM CLR A3005 RMK AO2=
####018000073####
SAIN31 EGGY 081100
METAR VOBG 081100Z NIL=
METAR VOCI 081100Z NIL=
####018000082####
SAAL41 DAMM 081100 RRA
METAR DAUI 081100Z  08024KT 2600 BLSA NSC 43/05 Q1013=
