####018001803####
SAEU KAWN 081400 RRM
METAR LEAB 081400Z 15014KT CAVOK 35/M02 Q1021 NOSIG=
METAR LEAL 081400Z 10010KT 060V140 CAVOK 30/17 Q1019 NOSIG=
METAR LEBA 081400Z 28008KT 240V310 9999 FEW050 36/14 Q1014=
METAR LEBL 081400Z 20013KT CAVOK 29/19 Q1019 NOSIG=
METAR LEBZ 081400Z 26011KT 210V310 CAVOK 36/13 Q1014=
METAR LEIB 081400Z 08006KT 020V140 CAVOK 29/20 Q1019 NOSIG=
METAR LELN 081400Z 15008KT 060V200 9999 FEW050TCU 32/09 Q1018=
METAR LEPA 081400Z 23013KT CAVOK 30/16 Q1020 NOSIG=
METAR LESA 081400Z 17009KT 120V220 9999 FEW048 35/14 Q1017=
METAR LESO 081400Z VRB04KT CAVOK 27/21 Q1015=
METAR LETO 081400Z 22005KT 9999 -SHRA FEW040 FEW060CB 34/07 Q1018 NOSIG=
METAR LEVC 081400Z 13012KT CAVOK 32/11 Q1018 NOSIG=
METAR LEVS 081400Z 36010KT 320V040 CAVOK 29/13 Q1018=
METAR LEVX 081400Z 03005KT 8000 FEW030 22/18 Q1016=
METAR LEXJ 081400Z 25006KT 210V300 9999 FEW018 26/19 Q1016=
METAR LEZL 081400Z 21007KT 140V280 9999 FEW030 33/15 Q1015 NOSIG=
METAR LFBC 081400Z AUTO VRB05KT 9999NDV NSC 38/11 Q1014=
METAR LFBF 081400Z AUTO 12009KT 090V170 9999NDV // NSC 35/16 Q1017=
METAR LFBG 081400Z AUTO 11006KT 040V160 9999NDV NSC 35/11 Q1016=
METAR LFBM 081400Z 10010KT CAVOK 37/18 Q1015=
METAR LFSD 081400Z AUTO 15005KT 080V200 9999NDV NSC 32/11 Q1019=
METAR LFSF 081400Z AUTO 22005KT 180V270 9999NDV NSC 32/09 Q1019=
METAR LFSI 081400Z AUTO VRB04KT 9999NDV NSC 33/09 Q1019=
METAR LFSO 081400Z AUTO VRB04KT 9999NDV NSC 32/12 Q1020=
METAR LFSR 081400Z AUTO VRB04KT 9999NDV NSC 32/11 Q1018=
METAR LKCV 081400Z VRB02KT CAVOK 25/07 Q1022 NOSIG RMK BLU+ BLU+=
METAR LKNA 081400Z 34005KT CAVOK 23/08 Q1023 NOSIG RMK BLU+ BLU+=
METAR LKPD 081400Z VRB03KT CAVOK 26/05 Q1022 NOSIG RMK BLU+ BLU+=
METAR COR LKPO 081400Z 34003KT CAVOK 24/11 Q1022 NOSIG RMK BLU+ BLU+=
####018000721####
SAZA31 FAPR 081400
METAR FABL 081400Z 01008KT 340V050 9999 FEW050 18/02 Q1030 NOSIG=
METAR FACT 081400Z 15005KT CAVOK 22/06 Q1016 NOSIG=
METAR FAEL 081400Z 05011KT CAVOK 20/13 Q1023=
METAR FAGG 081400Z 14005KT CAVOK 20/07 Q1018=
METAR FAJS 081400Z 05010KT 9999 SCT045 16/03 Q1032 NOSIG=
METAR FALA 081400Z 36007KT 320V050 9999 FEW049 18/03 Q1031 NOSIG=
METAR FALE 081400Z 05018KT CAVOK 21/17 Q1026 NOSIG=
METAR FAMM 081400Z 02011KT 9999 SCT040 19/02 Q1029 NOSIG=
METAR FAPE 081400Z 05012KT CAVOK 18/12 Q1021 NOSIG=
METAR FAPN 081400Z AUTO 36003KT //// // ////// 21/03 Q1028=
METAR FAPP 081400Z 07009KT 9999 SCT040 FEW100 16/06 Q1030 NOSIG=
METAR FAUP 081400Z 36014KT CAVOK 25/01 Q1024 NOSIG=

####018000687####
SAPR82 SPIM 081400
METAR
SPHI 081400Z 16010KT 9999 SCT013 SCT100 18/13 Q1016 RMK
             BIRD HAZARD RWY 19/01 PP000=
METAR
SPIM 081400Z 19003KT 7000 FEW011 OVC022 17/13 Q1015 NOSIG 
         RMK BIRD HAZARD RWY15 PP000=
METAR
SPQT 081400Z /////KT 9999 SCT017 27/24 Q1013 NOSIG
             RMK BIRD HAZARD RWY 06/24 PP000=
METAR
SPQU 081400Z VRB03KT CAVOK 15/M10 Q1025 NOSIG RMK PP000=
METAR
SPRU 081400Z 19003KT 7000 OVC015 16/13 Q1015 RMK BIRD HAZARD
RWY20 PP000=
METAR
SPSO 081400Z 12004KT CAVOK 16/13 Q1015 RMK PP000=
METAR
SPTN 081400Z 20003KT 8000 OVC013 12/08 Q1014 RMK PP000=
METAR
SPZO 081400Z 00000KT 9999 FEW033 SCT046 11/03 Q1034 NOSIG RMK PP000=
####018001662####
SAXN17 KAWN 081400 RRE
METAR KDPG 081355Z 35003KT 50SM SCT170 BKN250 17/02 A3019 RMK SLP179
      FIRST T01740018=
METAR MNMG 081400Z 26006KT 9000 FEW015CB SCT018 24/23 Q1012 A2989 CB/W/NW/N/NE/E/SE
      RA/N/W/E/S=
METAR MROC 081400Z 23004KT 9999 2500SW BR SCT001 BKN120 21/21 A3005
      RMK FG BANK IN APCH RNY 07 TEMPO 4000 BR=
METAR MTPP 1400Z 10012G22KT 7000 FEW026 SCT200 31/24 Q1015/8 A2999=
METAR MUGM 081356Z 06003KT 9999 FEW040 BKN250 30/23 A2998 RMK SLP150
      T03000228=
METAR NTAA 081400Z AUTO 15006KT 9999NDV NCD 25/22 Q1014=
METAR PASY 081356Z AUTO 02016KT 8SM OVC002 A2974 RMK AO2 SLPNO TSNO
      PNO=
METAR RJAA 081400Z 15004KT 9999 FEW015 FEW020CB BKN100 22/22 Q1011
      NOSIG RMK 1CU015 1CB020 5AC100 A2986 LIGHTNING S=
METAR RJCC 081400Z 20003KT 1100 R01R/0800V1500N -DZ BR BKN002 17/17
      Q1010 RMK 7ST002 A2985=
METAR RJFF 081400Z 09003KT 070V180 8000 FEW020 BKN/// 25/21 Q1008 RMK
      1CU020 A2977=
METAR RJTT 081400Z 18010KT 9999 FEW008 SCT140 BKN/// 25/22 Q1010 RMK
      1ST008 4AC140 A2984=
METAR RKSS 081400Z 34005KT 8000 SCT030 OVC100 23/19 Q1009 BECMG 4500
      BR=
METAR ROAH 081400Z 19013KT 9999 FEW008 SCT010 BKN180 29/26 Q1011 RMK
      2ST008 3CU010 6AC180 A2986=
METAR SOCA 081400Z 11007KT 070V170 9999 BKN019 SCT043 29/24 Q1013 NOSIG=
METAR TBPB 081400Z 09020KT 9999 BKN014 BKN280 31/25 Q1014 NOSIG=
METAR TGPY 081400Z 11010KT 9999 SCT019 SCT035 BKN270 28/26 Q1013=
METAR TKPK 081400Z 06014KT 9999 FEW017 30/25 Q1016=
METAR TLPL 081400Z 08020KT 9999 FEW027 BKN280 31/24 Q1014=
METAR VHHH 081400Z 19007KT 150V240 9999 FEW020 SCT030 31/25 Q1008 NOSIG=
####018001744####
SASA KAWN 081400 RRC
METAR SBCB 081400Z 09011KT CAVOK 24/17 Q1018=
METAR SBCR 081400Z 31003KT CAVOK 28/13 Q1015=
METAR SBCY 081400Z 34010KT CAVOK 31/12 Q1015=
METAR SBFN 081400Z 10004KT 9999 SCT017 BKN100 27/24 Q1014=
METAR SBNT 081400Z 15007KT 9999 BKN023 BKN100 28/23 Q1015=
METAR SBPB 081400Z 06009KT 9999 FEW020 SCT100 32/22 Q1012=
METAR SBPL 081400Z 15010KT 9999 SCT023 27/18 Q1018=
METAR SBSL 081400Z 09005KT 9999 SCT017 31/23 Q1013=
METAR SBSV 081400Z 22009KT 4000 -RA BR BKN007 SCT017 BKN070 24/21 Q1018=
METAR SBTF 081400Z 12005KT 9999 FEW020 BKN100 31/25 Q1012=
METAR SCAP 081400Z 23009KT 9999 SCT040 04/M02 Q1015=
METAR SCBA 081400Z 31017KT 9999 FEW030 SCT035 M01/M04 Q1003=
METAR SCCI 081400Z 30021KT 9999 BKN018 M02/M04 Q0985 NOSIG=
METAR SCDA 081400Z 01006KT 9999 OVC026 15/08 Q1017=
METAR SCEL 081400Z 30004KT 5000 HZ FEW130 05/03 Q1023 NOSIG=
METAR SCGZ 081400Z 18003KT 9999 FEW046 SCT150 M02/M03 Q0983=
METAR SCNT 081400Z 32024G35KT 9999 BKN020 03/M05 Q0989=
METAR SCRD 081400Z 18012KT CAVOK 11/04 Q1021=
METAR SCTB 081400Z VRB02KT 9999 FEW090 08/05 Q1023 RMK/FU AL W=
METAR SLCB 081400Z 00000KT 6000 FEW027 18/08 Q1027=
METAR SLLP 081400Z VRB02KT 9999 FEW015 07/M02 Q1038=
METAR SLVR 081400Z 16012KT 9999 FEW027 BKN070 BKN200 21/16 Q1016=
METAR SUAA 081400Z 27006KT CAVOK 08/05 Q1019=
METAR SUSO 081400Z 12005KT CAVOK 11/05 Q1020=
METAR SVCR 081400Z 00000KT 9999 SCT016 BKN050 25/23 Q1013=
METAR SVJC 081400Z 10012KT 9999 FEW030 28/24 Q1012=
METAR SVLF 081400Z 00000KT 9999 SCT020 BKN040 XX/XX Q1014=
METAR SVMC 081400Z 36004KT 9999 SCT013 30/25 Q1012=
METAR SVSA 081400Z 00000KT 9999 BKN020 25/20 Q1016=
METAR SVVA 081400Z 09002KT 9999 SCT016 BKN100 26/24 Q1015=
####018000030####
SAZW40 FVHA 081400
NIL

####018000085####
SPAU32 YBBN 081400
SPECI YPPD 081400Z AUTO 03003KT 5000NDV // OVC029 22/21 Q1010=
####018000072####
SANO35 ENMI 081350 RRA
METAR ENRS 081350Z 17007KT CAVOK 15/10 Q1010=
####018000090####
SARM31 LUKK 081400
METAR LUKK 081400Z 35008KT 9999 SCT038 26/15 Q1015 26CLRD65
NOSIG=
####018000402####
SABU31 LBSM 081400
METAR LBSF 081400Z 28006MPS 9999 -RA SCT026 BKN040 17/12 Q1019
 NOSIG=
METAR LBWN 081400Z 30006MPS 260V350 9999 FEW030 SCT045 21/16
 Q1013 NOSIG=
METAR LBBG 081400Z 27006MPS 9000 RA SCT023 BKN038 OVC050 17/16
 Q1014 NOSIG=
METAR LBPD 081400Z 26004MPS 9999 -RA OVC040 17/15 Q1017 NOSIG=
METAR LBGO 081400Z 28003MPS 250V310 9999 -RA SCT013 BKN025
 OVC040 16/15 Q1017 NOSIG=
####018000084####
SACO20 SKBO 081358
METAR SKBQ 081400Z 20004KT 8000 SCT010 BKN070 28/26 A2992 HZ=
####018000386####
SASD31 OEJD 081400
METAR OEDF 081400Z 05012KT CAVOK 41/09 Q0999 NOSIG=
METAR OEDR 081400Z 03011KT 8000 SKC 39/21 Q0997 NOSIG=
METAR OEJN 081400Z 30012KT CAVOK 35/25 Q1001 NOSIG=
METAR OEMA 081400Z 09010KT 9999 SCT045 47/M04 Q1003 NOSIG=
METAR OERK 081400Z 01016KT 8000 SKC 42/M02 Q1006 NOSIG=
METAR OERY 081400Z 05020KT 6000 BLDU SKC 43/00 Q1006 NOSIG=
METAR OYSN 081400Z NIL=
####018000080####
SAMR20 TFFF 081400
METAR TFFF 081400Z 08015KT 9999 BKN028 30/25 Q1014 NOSIG=
####018000373####
SAIR33 OIII 081400
METAR OIBB 081400Z 22006KT CAVOK 36/24 Q0998 A2949=
METAR OIBL 081400Z NIL=
METAR OIBP 081400Z 19006KT 5000 HZ SKC 38/23 Q0998 A2950=
METAR OICK 081400Z NIL=
METAR OICS 081400Z NIL=
METAR OIHH 081400Z NIL=
METAR OINZ 081400Z 27006KT CAVOK 32/24 Q1010 A2983=
METAR OITL 081400Z 07022KT CAVOK 23/12 Q1017 A3003=
METAR OIZC 081400Z NIL=
####018000801####
SAJP51 RJTD 081400
METAR RJAA 081400Z 15004KT 9999 FEW015 FEW020CB BKN100 22/22 Q1011
           NOSIG=
METAR RJBB 081400Z 22007KT 9999 FEW008 BKN/// 26/22 Q1009 NOSIG=
METAR RJCC 081400Z 20003KT 1100 R01R/0800V1500N -DZ BR BKN002 17/17
           Q1010=
METAR RJFS 081400Z 31003KT 9999 FEW020 BKN/// 25/22 Q1008=
METAR RJFF 081400Z 09003KT 070V180 8000 FEW020 BKN/// 25/21 Q1008=
METAR RJFR 081400Z 06010KT 8000 FEW025 BKN/// 25/22 Q1008=
METAR RJGG 081400Z 13004KT 9999 FEW015 BKN/// 25/23 Q1010 NOSIG=
METAR RJOH 081400Z 06004KT 4500 BR FEW008 SCT020 BKN090 25/22 Q1009=
METAR RJTT 081400Z 18010KT 9999 FEW008 SCT140 BKN/// 25/22 Q1010=
METAR ROAH 081400Z 19013KT 9999 FEW008 SCT010 BKN180 29/26 Q1011=
METAR RJAH 081400Z 13004KT 100V160 9999 FEW030 BKN/// 24/23 Q1010=
####018000379####
SAEW37 LEMM 081400
METAR LEBR 081400Z AUTO 10011KT CAVOK 38/14 Q1016=
METAR LEGA 081400Z 18019KT 9999 FEW060TCU 38/13 Q1018=
METAR LEGT 081400Z 00000KT 9999 TSRA SCT025 FEW050CB 28/16 Q1017=
METAR LEMO 081400Z VRB04KT CAVOK 33/18
Q1015 NOSIG=
METAR LERI 081400Z 07012KT 020V110 CAVOK 33/20 Q1018 NOSIG=
METAR LERT 081400Z 29009KT 240V320 CAVOK 26/20 Q1016 NOSIG=
####018001821####
SAEW KAWN 081400 RRD
METAR LFBC 081400Z AUTO VRB05KT 9999NDV NSC 38/11 Q1014=
METAR LFBD 081400Z 09010KT CAVOK 35/13 Q1015 NOSIG=
METAR LFBF 081400Z AUTO 12009KT 090V170 9999NDV // NSC 35/16 Q1017=
METAR LFBG 081400Z AUTO 11006KT 040V160 9999NDV NSC 35/11 Q1016=
METAR LFBI 081400Z 20005KT 140V230 CAVOK 33/09 Q1017 NOSIG=
METAR LFBL 081400Z 16004KT 100V230 CAVOK 31/11 Q1019 NOSIG=
METAR LFBM 081400Z 10010KT CAVOK 37/18 Q1015=
METAR LFJL 081400Z AUTO VRB03KT 9999NDV NSC 31/07 Q1019=
METAR LFKS 081400Z AUTO 11005KT 060V140 9999NDV NSC 29/23 Q1020=
METAR LFLB 081400Z 34006KT 9999 FEW070 SCT260 32/17 Q1019 NOSIG=
METAR LFLS 081400Z 20006KT 150V290 9999 FEW050 32/10 Q1020 NOSIG=
METAR LFMI 081400Z AUTO 19013KT 9999NDV NSC 32/15 Q1019=
METAR LFML 081400Z 21012KT CAVOK 33/19 Q1019 NOSIG=
METAR LFMO 081400Z 20004KT 140V260 CAVOK 35/13 Q1019=
METAR LFMY 081400Z 20010KT 180V240 CAVOK 33/17 Q1019=
METAR LFOA 081400Z AUTO 15004KT 070V210 9999NDV NSC 33/06 Q1018=
METAR LFOC 081400Z AUTO 14005KT 030V190 9999NDV NSC 33/09 Q1018=
METAR LFOE 081400Z 20011KT CAVOK 32/08 Q1018=
METAR LFOH 081400Z AUTO 35009KT //// R23///// NSC 24/16 Q1019=
METAR LFPB 081400Z VRB05KT CAVOK 32/10 Q1018 NOSIG=
METAR LFPC 081400Z VRB06KT CAVOK 31/10 Q1018=
METAR LFPV 081400Z AUTO VRB04KT 9999NDV NSC 31/11 Q1019=
METAR LFQI 081400Z 26005KT 200V330 CAVOK 31/11 Q1018=
METAR LFSD 081400Z AUTO 15005KT 080V200 9999NDV NSC 32/11 Q1019=
METAR LFSF 081400Z AUTO 22005KT 180V270 9999NDV NSC 32/09 Q1019=
METAR LFSI 081400Z AUTO VRB04KT 9999NDV NSC 33/09 Q1019=
METAR LFSO 081400Z AUTO VRB04KT 9999NDV NSC 32/12 Q1020=
METAR LFSR 081400Z AUTO VRB04KT 9999NDV NSC 32/11 Q1018=
METAR LFSX 081400Z AUTO VRB02KT 9999NDV NSC 31/11 Q1020=
METAR LFYR 081400Z 17003KT 060V220 CAVOK 34/07 Q1017=
####018001726####
SAEU KAWN 081400 RRN
METAR LEMD 081400Z 32008KT 270V350 9999 SCT035CB 32/13 Q1018 WS ALL
      RWY NOSIG=
METAR LEMG 081400Z 16009KT 110V210 9999 FEW040 29/15 Q1017 NOSIG=
METAR LEPP 081400Z 17011KT 150V210 9999 FEW064 36/13 Q1017=
METAR LEVD 081400Z 19015KT 160V230 CAVOK 35/06 Q1017=
METAR LFBD 081400Z 09010KT CAVOK 35/13 Q1015 NOSIG=
METAR LFBI 081400Z 20005KT 140V230 CAVOK 33/09 Q1017 NOSIG=
METAR LFBL 081400Z 16004KT 100V230 CAVOK 31/11 Q1019 NOSIG=
METAR LFBO 081400Z 11012KT 070V130 CAVOK 36/11 Q1017 NOSIG=
METAR LFBT 081400Z 07006KT 030V110 9999 FEW083 BKN230 36/19 Q1017 NOSIG=
METAR LFBZ 081400Z 28012KT 240V310 9999 FEW010 SCT130 BKN240 25/22
      Q1016 TEMPO BKN010=
METAR LFJL 081400Z AUTO VRB03KT 9999NDV NSC 31/07 Q1019=
METAR LFKJ 081400Z 18011KT 9999 FEW030 FEW046TCU 31/23 Q1019 NOSIG=
METAR LFLB 081400Z 34006KT 9999 FEW070 SCT260 32/17 Q1019 NOSIG=
METAR LFLC 081400Z 10004KT 040V160 CAVOK 33/11 Q1019 NOSIG=
METAR LFLS 081400Z 20006KT 150V290 9999 FEW050 32/10 Q1020 NOSIG=
METAR LFML 081400Z 21012KT CAVOK 33/19 Q1019 NOSIG=
METAR LFOH 081400Z AUTO 35009KT //// R23///// NSC 24/16 Q1019=
METAR LFOP 081400Z VRB03KT CAVOK 31/12 Q1018 NOSIG=
METAR LFPB 081400Z VRB05KT CAVOK 32/10 Q1018 NOSIG=
METAR LFSN 081400Z VRB04KT CAVOK 32/14 Q1019 NOSIG=
METAR LRBS 081400Z 29005KT 260V320 9999 -RA FEW030 22/15 Q1016 TEMPO
      5000 RA=
METAR LRCK 081400Z 02011KT 340V070 9999 SCT040 26/16 Q1014 BECMG TSRA
      SCT035CB BKN040=
METAR LROP 081400Z 25005KT 220V280 9999 -SHRA FEW040CB 21/15 Q1016
      880///95 NOSIG=
METAR LRSB 081400Z 02006KT 330V060 9999 BKN033 OVC086 18/12 Q1020=
METAR LRTR 081400Z 36008KT 340V050 9999 SCT048 23/13 Q1020=
####018000736####
SAFR36 LFPW 081400
METAR LFBA 081400Z 11011KT 070V140 CAVOK 35/14 Q1016 NOSIG=
METAR LFBE 081400Z 09007KT 060V140 CAVOK 35/13 Q1016 NOSIG=
METAR LFGJ 081400Z AUTO 23005KT 140V310 9999NDV NSC 32/11 Q1019=
METAR LFJR 081400Z AUTO 14004KT 090V200 9999NDV NCD 34/08 Q1017=
METAR LFMD 081400Z AUTO 16005KT 120V200 9999NDV NSC 30/19 Q1020=
METAR LFMH 081400Z 11004KT 040V210 CAVOK 33/11 Q1020 NOSIG=
METAR LFOT 081400Z AUTO 12005KT 070V180 9999NDV NSC 33/07 Q1018=
METAR LFPN 081400Z 18006KT 130V210 CAVOK 32/10 Q1018 NOSIG=
METAR LFRC 081400Z AUTO 35007KT 320V030 9999NDV SCT017 20/15 Q1020=
METAR LFRG 081400Z AUTO 35006KT 300V040 9999NDV NSC 27/15 Q1019=
METAR LFRK 081400Z 33008KT 300V360 CAVOK 25/16 Q1019 NOSIG=
####018000570####
SAFR37 LFPW 081400
METAR LFAQ 081400Z AUTO 19008KT 160V220 9999NDV NSC 31/09 Q1018=
METAR LFBU 081400Z AUTO 15006KT 040V210 9999NDV NSC 35/10 Q1017=
METAR LFLN 081400Z AUTO 18005KT 110V230 9999NDV NSC 32/12 Q1019=
METAR LFPM 081400Z VRB04KT CAVOK 33/11 Q1018=
METAR LFRH 081400Z 01005KT 330V080 CAVOK 28/05 Q1016=
METAR LFRQ 081400Z 36007KT 310V060 CAVOK 26/17 Q1016 NOSIG=
METAR LFRT 081400Z 04008KT CAVOK 22/16 Q1018=
METAR LFSD 081400Z AUTO 15005KT 080V200 9999NDV NSC 32/11 Q1019=
METAR LFTW 081400Z AUTO 19008KT 130V230 9999NDV NSC 32/16 Q1020=
####018000412####
SARO31 LROM 081400
METAR LRBS 081400Z 29005KT 260V320 9999 -RA FEW030 22/15 Q1016
TEMPO 5000 RA=
METAR LRCK 081400Z 02011KT 340V070 9999 SCT040 26/16 Q1014 BECMG
TSRA SCT035CB BKN040=
METAR LROP 081400Z 25005KT 220V280 9999 -SHRA FEW040CB 21/15 Q1016
880///95 NOSIG=
METAR LRSB 081400Z 02006KT 330V060 9999 BKN033 OVC086 18/12 Q1020=
METAR LRTR 081400Z 36008KT 340V050 9999 SCT048 23/13 Q1020=
####018000777####
SAFR34 LFPW 081400
METAR LFCR 081400Z AUTO 15007KT 090V190 9999NDV NSC 34/09 Q1021=
METAR LFJL 081400Z AUTO VRB03KT 9999NDV NSC 31/07 Q1019=
METAR LFLP 081400Z AUTO 23009KT 200V270 9999NDV NSC 32/13 Q1021=
METAR LFLS 081400Z 20006KT 150V290 9999 FEW050 32/10 Q1020 NOSIG=
METAR LFLY 081400Z 22006KT 130V290 CAVOK 34/11 Q1019 NOSIG=
METAR LFMT 081400Z 20008KT CAVOK 29/14 Q1020 NOSIG=
METAR LFMU 081400Z AUTO 14008KT 110V190 9999NDV NSC 30/14 Q1020=
METAR LFOH 081400Z AUTO 35009KT //// R23///// NSC 24/16 Q1019=
METAR LFOK 081400Z AUTO VRB03KT 9999NDV NSC 33/10 Q1019=
METAR LFOP 081400Z VRB03KT CAVOK 31/12 Q1018 NOSIG=
METAR LFPB 081400Z VRB05KT CAVOK 32/10 Q1018 NOSIG=
METAR LFSN 081400Z VRB04KT CAVOK 32/14 Q1019 NOSIG=
METAR LFOB 081400Z NIL=
####018000820####
SAEW32 LEMM 081400
METAR LEAS 081400Z 08005KT 030V140 9999 FEW015 26/19 Q1015 NOSIG=
METAR LEBB 081400Z 30005KT 250V330 9999 FEW025 26/20 Q1016 TEMPO
SCT030CB=
METAR LECO 081400Z VRB08KT CAVOK 25/19 Q1016=
METAR LEGE 081400Z 16008KT 110V210 CAVOK 33/18 Q1019=
METAR LEST 081400Z 26011KT 210V290 9999 FEW035 27/20 Q1016 NOSIG=
METAR LEZG 081400Z 09008KT 060V120 9999 FEW035 FEW040CB SCT070
38/10 Q1016=
METAR LESO 081400Z VRB04KT CAVOK 27/21 Q1015=
METAR LEVT 081400Z VRB02KT 9999 FEW050 33/18 Q1017=
METAR LERS 081400Z 20009KT 170V240 CAVOK 30/12 Q1019=
METAR LEMH 081400Z 14006KT 050V200 CAVOK 29/21 Q1020=
METAR LEAM 081400Z 09015KT 070V130 9999 FEW050 38/07 Q1015=
METAR LEGR 081400Z 16013KT 120V200 9999 FEW060 39/06 Q1017=
METAR LERL 081400Z 15012KT 100V190 9999 FEW050 38/05 Q1017=
####018000472####
SATS40 DTTA 081400
METAR DTKA 081400Z 31008KT 270V350 9999 FEW020 27/20 Q1019 NOSIG=
METAR DTMB 081400Z 05012KT CAVOK 29/18 Q1018 NOSIG=
METAR DTNZ NIL=
METAR DTTA 081400Z 36010KT CAVOK 29/20 Q1019  NOSIG=
METAR DTTF 081400Z 13004KT CAVOK 37/12 Q1015 NOSIG=
METAR DTTJ 081400Z 08012KT CAVOK 30/20 Q1017 NOSIG=
METAR DTTR 081400Z 05010KT CAVOK 37/05 Q1018=
METAR DTTX 081400Z 13008KT CAVOK 30/21 Q1018 NOSIG=
METAR DTTZ 081400Z 04002KT CAVOK 37/22 Q1016 NOSIG=
####018000617####
SAFR35 LFPW 081400
METAR LFMI 081400Z AUTO 19013KT 9999NDV NSC 32/15 Q1019=
METAR LFMK 081400Z AUTO 08016KT 9999NDV NSC 34/13 Q1018=
METAR LFRD 081400Z AUTO 35007KT 330V040 9999NDV NSC 23/16 Q1019=
METAR LFRN 081400Z AUTO 24007KT 160V330 9999 2000NDV
R28/0450VP2000D FG NSC 32/10 Q1017=
METAR LFRO 081400Z AUTO 01009KT 330V050 9999NDV NSC 20/16 Q1019=
METAR LFRZ 081400Z AUTO 07004KT 320V120 9999NDV NSC 32/08 Q1015=
METAR LFSB 081400Z 31005KT 240V360 CAVOK 32/12 Q1020 NOSIG=
METAR LFST 081400Z VRB02KT CAVOK 32/10 Q1019 NOSIG=
METAR LFTH 081400Z 22007KT 170V250 9999 FEW026 28/23 Q1020 NOSIG=
####018000497####
SAKO31 RKSI 081400
METAR RKSI 081400Z 32003KT 270V350 8000 FEW030 OVC110 22/19 Q1009
           NOSIG=
METAR RKSS 081400Z 34005KT 8000 SCT030 OVC100 23/19 Q1009 BECMG 
           4500 BR =
METAR RKPC 081400Z 02002KT 4000 BR SCT030 OVC120 23/20 Q1009 NOSIG =
METAR RKPK 081400Z 26002KT 9999 SCT040 BKN200 23/19 Q1010 NOSIG =
METAR RKTU NIL= 
METAR RKTN NIL= 
METAR RKJB 081400Z AUTO 20005KT3000NDV NCD 24/19 Q1009 =
METAR RKNY 081400Z AUTO 30003KT3000NDV ///092 20/18 Q1009 =
####018000747####
SAMS33 WMKK 081400
METAR 081400Z
METAR WMAU 081400Z 17003KT 9999 FEW025 SCT150 BKN280 27/25 Q////
QFF1010=
METAR WMBA 081400Z 29002KT 9999 FEW030 SCT150 BKN280 28/25 Q1011=
METAR WMKA 081400Z 00000KT 9999 FEW030 BKN280 28/26 Q1011=
METAR WMKB 081400Z 28004KT 9000 FEW025 SCT140 BKN280 30/25 Q1011
NOSIG=
METAR WMKC 081400Z 00000KT 9999 FEW017CB BKN240 29/24 Q1011=
METAR WMKD 081400Z 11003KT 3000 TSRA FEW005 FEW017CB SCT024 BKN160
23/22
     Q1012 RETSRA NOSIG=
METAR WMKI 081400Z 16002KT 8000 FEW030 SCT140 BKN280 28/25 Q1011=
METAR WMKL 081400Z 34001KT 9999 FEW017CB BKN280 28/25 Q1011=
METAR WMKM 081400Z 00000KT 9999 FEW030 SCT140 BKN280 27/24 Q1011=
METAR WMKN 081400Z 19005KT 9999 FEW024 BKN250 25/22 Q1011=
####018000529####
SAFR33 LFPW 081400
METAR LFKB 081400Z 10005KT 060V140 9999 FEW028 29/21 Q1019 NOSIG=
METAR LFKF 081400Z 21007KT 180V260 9999 FEW033TCU 32/22 Q1019 NOSIG=
METAR LFKJ 081400Z 18011KT 9999 FEW030 FEW046TCU 31/23 Q1019 NOSIG=
METAR LFLC 081400Z 10004KT 040V160 CAVOK 33/11 Q1019 NOSIG=
METAR LFMP 081400Z 09009KT 060V130 9999 FEW060 BKN260 29/17 Q1019
NOSIG=
METAR LFMV 081400Z AUTO 26006KT 220V320 9999NDV NSC 35/16 Q1019=
METAR LFSL 081400Z AUTO 14005KT 090V190 9999NDV NSC 33/12 Q1019=
METAR LFKC 081400Z NIL=
####018000330####
SATS41 DTTA 081400
METAR DTTB 081400Z 36012KT CAVOK 30/18 Q1020=
METAR DTTD 081400Z 08006KT CAVOK 34/08 Q1018 RMK SIROCCO=
METAR DTTG 081400Z 08010KT CAVOK 33/16 Q1017 NOSIG=
METAR DTTK 081400Z 04004KT CAVOK 37/09 Q1016 SIROCCO=
METAR DTTL 081400Z 36008KT CAVOK 30/21 Q1018=
METAR DTTN 081400Z 31008KT CAVOK 35/15 Q1017=
####018000317####
SATS42 DTTA 081400
METAR DTTB 081400Z 36012KT CAVOK 30/18 Q1020=
METAR DTTD 081400Z 08006KT CAVOK 34/08 Q1018=
METAR DTTK 081400Z 04004KT CAVOK 37/09 Q1016 SIROCCO=
METAR DTTL 081400Z 36008KT CAVOK 30/21 Q1018=
METAR DTTN 081400Z 31008KT CAVOK 35/15 Q1017=
METAR DTTR 081400Z 05010KT CAVOK 37/05 Q1018=
####018000725####
SAFR32 LFPW 081400
METAR LFBD 081400Z 09010KT CAVOK 35/13 Q1015 NOSIG=
METAR LFBH 081400Z AUTO 31012KT 9999NDV NSC 27/17 Q1016=
METAR LFBI 081400Z 20005KT 140V230 CAVOK 33/09 Q1017 NOSIG=
METAR LFBL 081400Z 16004KT 100V230 CAVOK 31/11 Q1019 NOSIG=
METAR LFBO 081400Z 11012KT 070V130 CAVOK 36/11 Q1017 NOSIG=
METAR LFBP 081400Z 09008KT 060V120 CAVOK 35/19 Q1015 NOSIG=
METAR LFBT 081400Z 07006KT 030V110 9999 FEW083 BKN230 36/19 Q1017
NOSIG=
METAR LFBZ 081400Z 28012KT 240V310 9999 FEW010 SCT130 BKN240 25/22
Q1016 TEMPO BKN010=
METAR LFLB 081400Z 34006KT 9999 FEW070 SCT260 32/17 Q1019 NOSIG=
METAR LFLX 081400Z VRB03KT CAVOK 33/06 Q1017 NOSIG=
METAR LFML 081400Z 21012KT CAVOK 33/19 Q1019 NOSIG=
####018000486####
SATS32 DTTA 081400
METAR DTKA 081400Z 31008KT 270V350 9999 FEW020 27/20 Q1019 NOSIG=
METAR DTMB 081400Z 05012KT CAVOK 29/18 Q1018 NOSIG=
METAR DTNZ NIL=
METAR DTTA 081400Z 36010KT CAVOK 29/20 Q1019  NOSIG=
METAR DTTF 081400Z 13004KT CAVOK 37/12 Q1015 NOSIG=
METAR DTTG 081400Z 08010KT CAVOK 33/16 Q1017 NOSIG=
METAR DTTJ 081400Z 08012KT CAVOK 30/20 Q1017 NOSIG=
METAR DTTX 081400Z 13008KT CAVOK 30/21 Q1018 NOSIG=
METAR DTTZ 081400Z 04002KT CAVOK 37/22 Q1016 NOSIG=
####018000443####
SAFR31 LFPW 081400
METAR LFLL 081400Z 20007KT 150V240 CAVOK 33/11 Q1019 NOSIG=
METAR LFMN 081400Z 12004KT 9999 FEW016 29/23 Q1020 NOSIG=
METAR LFPG 081400Z VRB04KT CAVOK 32/09 Q1018 NOSIG=
METAR LFPO 081400Z 23007KT 140V310 CAVOK 32/08 Q1018 NOSIG=
METAR LFQQ 081400Z 21007KT 160V300 CAVOK 32/11 Q1018 NOSIG=
METAR LFRB 081400Z VRB03KT 9999 FEW033 26/08 Q1018 NOSIG=
METAR LFRS 081400Z 26006KT 210V310 CAVOK 32/13 Q1017 NOSIG=
####018000090####
SPUS31 KWBC 081405
SPECI
KORD 081402Z 24006KT 8SM SCT008 BKN039 OVC050 24/22 A3003=
####018000067####
SAUY SUCA 081400
METAR SUCA 081400Z 32005KT CAVOK 12/04 Q1018=
####018000069####
SAUY59 SUCA 081400
METAR SUCA 081400Z 32005KT CAVOK 12/04 Q1018=
####018001857####
SAEU KAWN 081400 RRO
METAR LFBP 081400Z 09008KT 060V120 CAVOK 35/19 Q1015 NOSIG=
METAR LFCR 081400Z AUTO 15007KT 090V190 9999NDV NSC 34/09 Q1021=
METAR LFKB 081400Z 10005KT 060V140 9999 FEW028 29/21 Q1019 NOSIG=
METAR LFKF 081400Z 21007KT 180V260 9999 FEW033TCU 32/22 Q1019 NOSIG=
METAR LFLL 081400Z 20007KT 150V240 CAVOK 33/11 Q1019 NOSIG=
METAR LFLX 081400Z VRB03KT CAVOK 33/06 Q1017 NOSIG=
METAR LFLY 081400Z 22006KT 130V290 CAVOK 34/11 Q1019 NOSIG=
METAR LFMK 081400Z AUTO 08016KT 9999NDV NSC 34/13 Q1018=
METAR LFMN 081400Z 12004KT 9999 FEW016 29/23 Q1020 NOSIG=
METAR LFMP 081400Z 09009KT 060V130 9999 FEW060 BKN260 29/17 Q1019 NOSIG=
METAR LFMT 081400Z 20008KT CAVOK 29/14 Q1020 NOSIG=
METAR LFMU 081400Z AUTO 14008KT 110V190 9999NDV NSC 30/14 Q1020=
METAR LFPM 081400Z VRB04KT CAVOK 33/11 Q1018=
METAR LFPN 081400Z 18006KT 130V210 CAVOK 32/10 Q1018 NOSIG=
METAR LFPO 081400Z 23007KT 140V310 CAVOK 32/08 Q1018 NOSIG=
METAR LFQQ 081400Z 21007KT 160V300 CAVOK 32/11 Q1018 NOSIG=
METAR LFRB 081400Z VRB03KT 9999 FEW033 26/08 Q1018 NOSIG=
METAR LFRD 081400Z AUTO 35007KT 330V040 9999NDV NSC 23/16 Q1019=
METAR LFRH 081400Z 01005KT 330V080 CAVOK 28/05 Q1016=
METAR LFRN 081400Z AUTO 24007KT 160V330 9999 2000NDV R28/0450VP2000D
      FG NSC 32/10 Q1017=
METAR LFRO 081400Z AUTO 01009KT 330V050 9999NDV NSC 20/16 Q1019=
METAR LFRQ 081400Z 36007KT 310V060 CAVOK 26/17 Q1016 NOSIG=
METAR LFRS 081400Z 26006KT 210V310 CAVOK 32/13 Q1017 NOSIG=
METAR LFRT 081400Z 04008KT CAVOK 22/16 Q1018=
METAR LFRZ 081400Z AUTO 07004KT 320V120 9999NDV NSC 32/08 Q1015=
METAR LFSB 081400Z 31005KT 240V360 CAVOK 32/12 Q1020 NOSIG=
METAR LFSL 081400Z AUTO 14005KT 090V190 9999NDV NSC 33/12 Q1019=
METAR LFST 081400Z VRB02KT CAVOK 32/10 Q1019 NOSIG=
METAR LFTH 081400Z 22007KT 170V250 9999 FEW026 28/23 Q1020 NOSIG=
####018001859####
SAEW KAWN 081400 RRE
METAR LFBO 081400Z 11012KT 070V130 CAVOK 36/11 Q1017 NOSIG=
METAR LFBP 081400Z 09008KT 060V120 CAVOK 35/19 Q1015 NOSIG=
METAR LFBT 081400Z 07006KT 030V110 9999 FEW083 BKN230 36/19 Q1017 NOSIG=
METAR LFBZ 081400Z 28012KT 240V310 9999 FEW010 SCT130 BKN240 25/22
      Q1016 TEMPO BKN010=
METAR LFCR 081400Z AUTO 15007KT 090V190 9999NDV NSC 34/09 Q1021=
METAR LFKB 081400Z 10005KT 060V140 9999 FEW028 29/21 Q1019 NOSIG=
METAR LFKF 081400Z 21007KT 180V260 9999 FEW033TCU 32/22 Q1019 NOSIG=
METAR LFKJ 081400Z 18011KT 9999 FEW030 FEW046TCU 31/23 Q1019 NOSIG=
METAR LFLC 081400Z 10004KT 040V160 CAVOK 33/11 Q1019 NOSIG=
METAR LFLX 081400Z VRB03KT CAVOK 33/06 Q1017 NOSIG=
METAR LFLY 081400Z 22006KT 130V290 CAVOK 34/11 Q1019 NOSIG=
METAR LFMK 081400Z AUTO 08016KT 9999NDV NSC 34/13 Q1018=
METAR LFMP 081400Z 09009KT 060V130 9999 FEW060 BKN260 29/17 Q1019 NOSIG=
METAR LFMT 081400Z 20008KT CAVOK 29/14 Q1020 NOSIG=
METAR LFMU 081400Z AUTO 14008KT 110V190 9999NDV NSC 30/14 Q1020=
METAR LFOP 081400Z VRB03KT CAVOK 31/12 Q1018 NOSIG=
METAR LFPM 081400Z VRB04KT CAVOK 33/11 Q1018=
METAR LFQQ 081400Z 21007KT 160V300 CAVOK 32/11 Q1018 NOSIG=
METAR LFRD 081400Z AUTO 35007KT 330V040 9999NDV NSC 23/16 Q1019=
METAR LFRN 081400Z AUTO 24007KT 160V330 9999 2000NDV R28/0450VP2000D
      FG NSC 32/10 Q1017=
METAR LFRO 081400Z AUTO 01009KT 330V050 9999NDV NSC 20/16 Q1019=
METAR LFRS 081400Z 26006KT 210V310 CAVOK 32/13 Q1017 NOSIG=
METAR LFRZ 081400Z AUTO 07004KT 320V120 9999NDV NSC 32/08 Q1015=
METAR LFSB 081400Z 31005KT 240V360 CAVOK 32/12 Q1020 NOSIG=
METAR LFSL 081400Z AUTO 14005KT 090V190 9999NDV NSC 33/12 Q1019=
METAR LFSN 081400Z VRB04KT CAVOK 32/14 Q1019 NOSIG=
METAR LFST 081400Z VRB02KT CAVOK 32/10 Q1019 NOSIG=
METAR LFTH 081400Z 22007KT 170V250 9999 FEW026 28/23 Q1020 NOSIG=
####018000669####
SARS18 KAWN 081400 RRB
METAR BIKF 081400Z 02020KT 9999 SCT024 BKN100 12/05 Q0995=
METAR LUKK 081400Z 35008KT 9999 SCT038 26/15 Q1015 26CLRD65 NOSIG=
METAR UHHH 081400Z METAR 02003MPS 9999 SCT023CB OVC100 16/15 Q1011
      NOSIG=
METAR UKBB 081400Z 32003MPS 9999 BKN040 26/17 Q1014 88CLRD95 NOSIG=
METAR UKFF 081400Z 28006MPS CAVOK 28/19 Q1012 01010070 NOSIG=
METAR UKKK 081400Z 28004MPS CAVOK 26/17 Q1015 26CLRD70 NOSIG=
METAR UKLL 081400Z 30003MPS 240V030 9999 SCT040 BKN100 20/12 Q1021
      31210365 NOSIG=
METAR UKOO 081400Z 35005MPS 310V030 CAVOK 27/14 Q1014 34090070 NOSIG=
METAR UTTT 081400Z 35002MPS CAVOK 37/08 Q1009 R08R/CLRD70 NOSIG=
####018000564####
SPZZ40 KAWN 081405
SPECI KLTS 081400Z AUTO 35006KT 10SM -RA SCT006 23/23 A3010 RMK AO2
      SLP176 VISNO RWY35L CHINO RWY35L $=
SPECI KNEL 081400Z AUTO 17007KT 7SM BKN012 BKN090 27/22 A3005 RMK AO2
      $=
SPECI OAKB 081400Z 35018G28KT 5000 -BLDU FEW070 32/M02 Q1013 BECMG
      9999 NSW RMK WHT BLU=
SPECI RODN 081403Z AUTO 17014KT 9999 SCT017 SCT027 BKN210 29/26 A2986
      RMK AO2 CIG 018 RWY05 SLP112=
SPECI YBTL 081400Z AUTO 13008KT 9999NDV // SCT010 OVC018 21/19 Q1017=
SPECI YPPD 081400Z AUTO 03003KT 5000NDV // OVC029 22/21 Q1010=
####018000133####
SAKA31 PTTP 081300
METAR PTTP 081255Z 18003KT 15SM SCT018TCU BKN300 24/23 
A2989 RMK TCU E-S-SW SLP121 T02410229 403050227=
####018000091####
SABA31 MYGF 081358
METAR MYGF 081400Z 11006KT 9999 SCT018CB 30/24 A2998 RMK CB S/SW
####018000114####
SAUS46 KLOX 081405 COR
MTRNXP
METAR KNXP 081356Z AUTO 29009KT CLR 25/00 A2994 RMK AO2 SLP100 
T02500000 $
####018000133####
SAKA31 PTTP 081358
METAR PTTP 081255Z 18003KT 15SM SCT018TCU BKN300 24/23 
A2989 RMK TCU E-S-SW SLP121 T02410229 403050227=
####018000091####
SPUS41 KWBC 081405
SPECI
KHVN 081402Z 11006KT 10SM SCT010 BKN025 OVC055 26/22 A3007=
####018000084####
SPUS41 KWBC 081405
SPECI
KORH 081402Z 20007KT 10SM SCT014 BKN019 24/20 A3013=
####018001779####
SAEW KAWN 081400 RRF
METAR ETIH 081355Z AUTO VRB03KT 9999 CLR 26/08 A3021 RMK AO2 SLP218
      T02610082=
METAR LFBA 081400Z 11011KT 070V140 CAVOK 35/14 Q1016 NOSIG=
METAR LFBE 081400Z 09007KT 060V140 CAVOK 35/13 Q1016 NOSIG=
METAR LFBY 081400Z 14006KT 070V180 CAVOK 37/19 Q1014=
METAR LFDB 081400Z 13006KT 080V170 CAVOK 35/14 Q1017=
METAR LFGJ 081400Z AUTO 23005KT 140V310 9999NDV NSC 32/11 Q1019=
METAR LFHP 081400Z VRB04KT CAVOK 30/10 Q1023=
METAR LFLD 081400Z 14006KT 090V190 CAVOK 34/10 Q1018=
METAR LFLL 081400Z 20007KT 150V240 CAVOK 33/11 Q1019 NOSIG=
METAR LFLM 081400Z 14005KT 070V240 CAVOK 32/14 Q1019=
METAR LFLN 081400Z AUTO 18005KT 110V230 9999NDV NSC 32/12 Q1019=
METAR LFLQ 081400Z 16006KT 110V210 CAVOK 35/11 Q1018=
METAR LFLV 081400Z VRB02KT CAVOK 33/12 Q1019=
METAR LFLW 081400Z 12005KT 060V180 CAVOK 32/03 Q1021=
METAR LFMD 081400Z AUTO 16005KT 120V200 9999NDV NSC 30/19 Q1020=
METAR LFMH 081400Z 11004KT 040V210 CAVOK 33/11 Q1020 NOSIG=
METAR LFMN 081400Z 12004KT 9999 FEW016 29/23 Q1020 NOSIG=
METAR LFOT 081400Z AUTO 12005KT 070V180 9999NDV NSC 33/07 Q1018=
METAR LFPG 081400Z VRB04KT CAVOK 32/09 Q1018 NOSIG=
METAR LFPN 081400Z 18006KT 130V210 CAVOK 32/10 Q1018 NOSIG=
METAR LFPO 081400Z 23007KT 140V310 CAVOK 32/08 Q1018 NOSIG=
METAR LFRB 081400Z VRB03KT 9999 FEW033 26/08 Q1018 NOSIG=
METAR LFRC 081400Z AUTO 35007KT 320V030 9999NDV SCT017 20/15 Q1020=
METAR LFRH 081400Z 01005KT 330V080 CAVOK 28/05 Q1016=
METAR LFRK 081400Z 33008KT 300V360 CAVOK 25/16 Q1019 NOSIG=
METAR LFRQ 081400Z 36007KT 310V060 CAVOK 26/17 Q1016 NOSIG=
METAR LFRT 081400Z 04008KT CAVOK 22/16 Q1018=
METAR LFTW 081400Z AUTO 19008KT 130V230 9999NDV NSC 32/16 Q1020=
METAR LFXA 081400Z 18006KT 110V260 CAVOK 33/13 Q1020=
####018000285####
SAUS90 KWBC 081400 RRC
METAR KHMS 081350Z 29005KT 15SM SKC 24/06 A2998 RMK SLP147
     T02410063 RSNK 21/02013=
METAR KNGP 081356Z COR 10007KT 7SM -RA FEW009 SCT016CB BKN025
     27/26 A2984 RMK AO2 RAB12 SLP105 CB DSNT NE AND SW TCU DSNT
     SE-S WR// P0007 T02730261 $=
####018000110####
SAUS90 KWBC 081400 CCD
METAR KNXP 081356Z AUTO 29009KT CLR 25/00 A2994 RMK AO2 SLP100
     T02500000 $=
####018000101####
SPUS90 KWBC 081406
SPECI KANJ 081403Z AUTO 26005KT 9SM SCT004 SCT012 19/18 A2998 RMK
     AO2=
####018000308####
SAIN33 VECC 081350
METAR VECC 081350Z 20007KT 4000 HZ SCT018 31/23 Q1004 NOSIG=
METAR VEPT 081350Z NIL=
METAR VGEG 081350Z 20004KT 6000 FEW018 SCT120 27/24 Q1006
      NOSIG=
METAR VGZR 081350Z 16010KT 4500 RA BKN012 FEW025CB BKN100 29/26
           Q1005 TEMPO TSRA=
METAR VNKT 081350Z NIL=
####018000078####
SADO31 TDPD 081400
METAR TDPD 081400Z 11003KT 9999 SCT018 31/24 Q1015=
####018000078####
SAMN31 TNCM 081400
METAR TNCM 081400Z 07013KT 9999 SCT021 30/23 Q1016=
####018000084####
SADO31 TDPD 081400

METAR TDCF 081400Z 30003KT 9999 SCT020TCU 30/22 Q1014=
####018000084####
SPUS42 KWBC 081405
SPECI
KMFE 081402Z 35010KT 10SM BKN010 OVC014 27/24 A2983=
####018001789####
SAEU KAWN 081400 RRP
METAR ETIH 081355Z AUTO VRB03KT 9999 CLR 26/08 A3021 RMK AO2 SLP218
      T02610082=
METAR LFBA 081400Z 11011KT 070V140 CAVOK 35/14 Q1016 NOSIG=
METAR LFBE 081400Z 09007KT 060V140 CAVOK 35/13 Q1016 NOSIG=
METAR LFBY 081400Z 14006KT 070V180 CAVOK 37/19 Q1014=
METAR LFCG 081400Z 07005KT 020V180 CAVOK 35/18 Q1018=
METAR LFDB 081400Z 13006KT 080V170 CAVOK 35/14 Q1017=
METAR LFDH 081400Z 09008KT 050V150 CAVOK 36/15 Q1016=
METAR LFGJ 081400Z AUTO 23005KT 140V310 9999NDV NSC 32/11 Q1019=
METAR LFHP 081400Z VRB04KT CAVOK 30/10 Q1023=
METAR LFLD 081400Z 14006KT 090V190 CAVOK 34/10 Q1018=
METAR LFLM 081400Z 14005KT 070V240 CAVOK 32/14 Q1019=
METAR LFLN 081400Z AUTO 18005KT 110V230 9999NDV NSC 32/12 Q1019=
METAR LFLQ 081400Z 16006KT 110V210 CAVOK 35/11 Q1018=
METAR LFLV 081400Z VRB02KT CAVOK 33/12 Q1019=
METAR LFLW 081400Z 12005KT 060V180 CAVOK 32/03 Q1021=
METAR LFMC 081400Z 10007KT 030V170 9999 FEW050 BKN230 33/18 Q1019=
METAR LFMD 081400Z AUTO 16005KT 120V200 9999NDV NSC 30/19 Q1020=
METAR LFMH 081400Z 11004KT 040V210 CAVOK 33/11 Q1020 NOSIG=
METAR LFOF 081400Z 17005KT 100V250 CAVOK 31/10 Q1018 NOSIG=
METAR LFOI 081400Z 25004KT 180V350 CAVOK 30/14 Q1018=
METAR LFOR 081400Z 20006KT 110V270 CAVOK 33/08 Q1018=
METAR LFOT 081400Z AUTO 12005KT 070V180 9999NDV NSC 33/07 Q1018=
METAR LFPG 081400Z VRB04KT CAVOK 32/09 Q1018 NOSIG=
METAR LFRC 081400Z AUTO 35007KT 320V030 9999NDV SCT017 20/15 Q1020=
METAR LFRJ 081400Z AUTO 36006KT 300V050 9999NDV FEW024/// 24/17 Q1018=
METAR LFRK 081400Z 33008KT 300V360 CAVOK 25/16 Q1019 NOSIG=
METAR LFRL 081400Z 31007KT 9999 FEW023 22/16 Q1018=
METAR LFTW 081400Z AUTO 19008KT 130V230 9999NDV NSC 32/16 Q1020=
METAR LFXA 081400Z 18006KT 110V260 CAVOK 33/13 Q1020=
####018000357####
SAPO31 LPMG 081400
METAR LPFR 081400Z 25010KT CAVOK 24/20 Q1016=
METAR LPMA 081400Z VRB08G18KT 9999 FEW016 24/17 Q1020 RS17008KT 
0520007KT 2336017KT=
METAR LPPR 081400Z 20007KT 160V230 9999 FEW006 SCT250 24/18 Q1016=
METAR LPPS 081400Z 03012KT 350V060 9999 FEW016 SCT030 22/15 Q1021=
METAR LPPT 081400Z 26010KT 9999 FEW030 29/19 Q1016 NOSIG=
####018000083####
SPUS53 KWBC 081405
SPECI
KDBQ 081402Z 01007KT 9SM FEW009 SCT013 23/21 A3007=
####018000096####
SPUS53 KWBC 081405
SPECI
KJLN 081402Z 09005KT 1SM RA BR FEW004 BKN013 OVC055 22/22 A3008=
####018000035####
SAQB31 LQTZ 081400
METAR
NIL
####018000137####
SAOM20 OOMS 081400
METAR OOMS 081400Z 06005KT 6000 SCT025 BKN100 33/27
Q1000 NOSIG=
METAR OOSA 081350Z AUTO 17005KT 28/23 Q1003=
####018000477####
SAIR32 OIII 081400
METAR OIAA 081400Z 33006KT 8000 SKC 48/05 Q0997=
METAR OIBK 081400Z 21004KT 5000 HZ SKC 37/24 Q0999 A2950=
METAR OICC 081400Z 22012KT CAVOK 41/M04 Q1012 A2991
864.4=
METAR OIGG 081400Z 02004KT CAVOK 31/21 Q1009 A2982=
METAR OIIE 081400Z 11014KT CAVOK 41/M06 Q1009 A2980
896.3 05:=
METAR OITR 081400Z 07006KT CAVOK 35/10 Q1012 A2988=
METAR OIYY 081400Z 05008KT CAVOK 40/M07 Q1012 A2990=
METAR OAKN 081400Z NIL=
METAR OAKB 081400Z NIL=
####018000470####
SAMS32 WMKK 081400
METAR 081400Z
METAR WBGG 081400Z 24004KT 9999 SCT020 BKN150 24/23 Q1013 NOSIG=
METAR WBKK 081400Z 11003KT 9999 FEW014 FEW017CB SCT140 BKN270 25/22 
Q1011
     NOSIG=
METAR WMKJ 081400Z 16001KT 9999 FEW022 BKN300 26/24 Q1011=
METAR WMKK 081400Z 00000KT 9999 FEW030 BKN280 27/25 Q1011 NOSIG=
METAR WMKP 081400Z 00000KT 9000 FEW025 SCT140 BKN270 29/25 Q1011 
NOSIG=
METAR WMSA 081400Z 24001KT 9000 FEW026 SCT140 BKN280 28/25 Q1011=
####018000625####
SAUS20 KNKA 081405
SPECI KBIV 081404Z AUTO 25004KT 1SM +RA BR OVC001 24/22 A3004 RMK 
    AO2 P0010=
METAR KCLS 081355Z AUTO 00000KT 10SM CLR 14/13 A2998 RMK AO2 =
METAR KCPK 081400Z AUTO 05008KT 10SM CLR 29/22 A2999 RMK AO2=
SPECI KDVN 081404Z AUTO 33004KT 10SM FEW007 24/21 A3006 RMK AO2=
METAR KGZL 081355Z AUTO 18004KT 10SM OVC025 25/23 A3006 RMK AO2 =
SPECI KILG 081404Z 18006KT 2SM FEW013 28/23 A3005 RMK AO2 SFC VIS 7=
SPECI KRKP 081404Z AUTO 06008KT 4SM VCTS -RA SCT009 BKN014 OVC027 
    A2988 RMK AO2 LTG DSNT SW P0003 FZRANO $=
SPECI KUTS 081404Z AUTO 00000KT 7SM SCT007 26/24 A3001 RMK AO2=
####018000139####
SAUS44 KFWD 081405
MTRNQI
SPECI KNQI 081404Z 02006KT 10SM BKN010CB BKN100 BKN280 28/26 A2985 
RMK AO2 CB DSNT NE AND E-SE AND NW $
####018000406####
SPUS99 KWBC 081406
SPECI
KBIV 081404Z AUTO 25004KT 1SM +RA BR OVC001 24/22 A3004 RMK AO2
     P0010=
KDVN 081404Z AUTO 33004KT 10SM FEW007 24/21 A3006 RMK AO2=
KILG 081404Z 18006KT 2SM FEW013 28/23 A3005 RMK AO2 SFC VIS 7=
KRKP 081404Z AUTO 06008KT 4SM VCTS -RA SCT009 BKN014 OVC027 A2988
     RMK AO2 LTG DSNT SW P0003 FZRANO $=
KUTS 081404Z AUTO 00000KT 7SM SCT007 26/24 A3001 RMK AO2=
####018000206####
SAUS99 KWBC 081406
METAR
KCLS 081355Z AUTO 00000KT 10SM CLR 14/13 A2998 RMK AO2=
KCPK 081400Z AUTO 05008KT 10SM CLR 29/22 A2999 RMK AO2=
KGZL 081355Z AUTO 18004KT 10SM OVC025 25/23 A3006 RMK AO2=
####018000079####
SAPF20 NTAA 081400
METAR NTAA 081400Z AUTO 15006KT 9999NDV NCD 25/22 Q1014=
####018000082####
SPAU32 YBBN 081400
SPECI YBMA 081400Z AUTO 00000KT 6000NDV // NCD 08/07 Q1020=
####018000092####
SPAU31 YBBN 081400
SPECI YBTL 081400Z AUTO 13008KT 9999NDV // SCT010 OVC018 21/19 Q1017=
####018000082####
SAHU31 LHBM 081400
METAR LHBP 081400Z 30005KT 250V360 CAVOK 25/12 Q1020 NOSIG=
####018000096####
SAFG20 SOCA 081400
METAR SOCA 081400Z 11007KT 070V170 9999 BKN019 SCT043 29/24 Q1013
NOSIG=
####018000081####
SABZ24 SBFL 081400
METAR SBFL 081400Z 15011KT 9999 FEW025 SCT100 21/16 Q1019=
####018000079####
SANC01 NWWW 081400
METAR NWWW 081400Z AUTO 13002KT 9999NDV NCD 16/15 Q1015=
####018000068####
SABZ24 SBPK 081400
METAR SBPK 081400Z 25009KT CAVOK 14/06 Q1021=
####018000082####
SAJM31 MKJS 081400
METAR MKJS 081400Z  11004KT 9999 FEW024 BKN220 30/22 Q1013=
####018000078####
SAUK38 EGGY 081350 RRA
METAR EGPU 081350Z 23019KT 9999 FEW023 16/12 Q1010=
####018000097####
SAAJ31 UBBB 081400
METAR UBBY 081400Z 13004KT 9999 NSC 34/15 Q1013 NOSIG
RMK R33/CLRD70 G/O=
####018000067####
SAAG SAST 081400
METAR SAST 081400Z  00000KT CAVOK 17/08 Q1017=
####018000066####
SAAG SASA 081400
METAR SASA 081400Z 14004KT CAVOK 13/07 Q1020=
####018000131####
SAMX54 MMMD 081400
METAR MMCT 081401Z RTD 10010KT 6SM  BKN080 27/26 A2990 
      RMK 8/030 HZY MSGTX MMMD=





TX OPMET V1
####018000092####
SACO20 SKBO 081359 CCK
METAR SKRG 081400Z VRB02KT 4000 -DZ BR BKN004 SCT080 15/14 A3033=
####018000260####
SAUY SUMU 081400
METAR SUMU 081400Z 27005KT CAVOK 13/05 Q1019 NOSIG=
METAR SUDU 081400Z 00000KT CAVOK 11/04 Q1020=
METAR SULS 081400Z 27011KT CAVOK 12/04 Q1019=
METAR SUAA 081400Z 27006KT CAVOK 08/05 Q1019=
METAR SUSO 081400Z 12005KT CAVOK 11/05 Q1020=
####018000074####
SAAG SAEZ 081400
METAR SAEZ 081400Z 33004KT 280V020 CAVOK 12/03 Q1018=
####018000435####
SAAF31 KWBC 081400
METAR
DBBB NIL=
DGAA NIL=
DGSI NIL=
DIAP 081400Z 22008KT 180V260 8000 SCT012 SCT070 29/25 Q1013
     NOSIG=
DIAV NIL=
DIBK NIL=
DIST NIL=
DNAA NIL=
DNCA NIL=
DNIL NIL=
DNKA NIL=
DNKN NIL=
DNMA NIL=
DNMM 081400Z 26013KT 9999 BKN012 FEW020CB 29/26 Q1014 NOSIG=
DNPO NIL=
DNSO NIL=
DRRN NIL=
DRZA NIL=
DXNG NIL=
DXXX 081400Z 20011KT 9999 FEW016 FEW025CB 28/23 Q1012 NOSIG=
####018000028####
SAAF32 KWBC 081400
NIL=
####018000116####
SPAW34 KWBC 081406
SPECI
OAKB 081400Z 35018G28KT 5000 -BLDU FEW070 32/M02 Q1013 BECMG 9999
NSW RMK WHT BLU=
####018000097####
SAGL31 BGSF 081350 RRA
METAR BGBW 081350Z 25008KT 220V290 9999 FEW040 14/05 Q1008 RMK 
1SC =
####018000028####
SAAA31 KWBC 081400
NIL=
####018000841####
SACH10 SCSC 081400
METAR
SCAR 081400Z VRB01KT 9999 OVC021 15/09 Q1016=
SCDA 081400Z 01006KT 9999 OVC026 15/08 Q1017=
SCFA 081400Z VRB02KT 9999 BKN023 14/07 Q1017 NOSIG=
SCCF 081400Z 10021KT CAVOK 09/M09 Q1025=
SCAT 081400Z 04006KT 020V080 5000 BR OVC006 10/09 Q1018=
SCIP 081400Z 10003KT 9999 SCT020 18/17 Q1023=
SCSE 081400Z 31003KT CAVOK 11/08 Q1018 NEFO PLAYA SKC=
SCEL 081400Z 30004KT 5000 HZ FEW130 05/03 Q1023 NOSIG=
SCIE 081400Z 29012KT 9999 BKN008 OVC012 13/11 Q1020=
SCTC 081400Z 30006KT 260V340 9999 FEW009 BKN015 11/09 Q1017=
SCJO 081400Z 18012KT 150V260 5000 SHRA SCT012 BKN030 09/07 
Q1014=
SCTE 081400Z 18007KT 9999 BKN009 BKN025 06/06 Q1016 NOSIG=
SCBA 081400Z 31017KT 9999 FEW030 SCT035 M01/M04 Q1003=
SCCI 081400Z 30021KT 9999 BKN018 M02/M04 Q0985 NOSIG=
SCNT 081400Z 32024G35KT 9999 BKN020 03/M05 Q0989=
####018000871####
SAGU31 MGGT 081400
METAR MGTK 081400Z 00000KT 9999 FEW010 OVC090 24/23 Q1013 A29.91=
METAR MGHT 081400Z 00000KT 9999 FEW006 SCT020 BKN090 17/15 QFE 817.0=
METAR MGPB 081400Z 00000KT 9000 --DZ BKN018 BKN090 25/24 Q1012
A29.88=
METAR MGGT 081400Z 00000KT CAVOK 19/14 Q1023 A30.21 BKN080 SCT200 VTO
TEND W NOSIG=
METAR MGSJ 081400Z 00000KT CAVOK 25/23 Q1013 A29.91 BKN080 BKN200=
METAR MGRT 081400Z 00000KT 9999 FEW018 OVC100 25/21 Q1014 A29.94
SANT
A MARIA EN ACTIVIDAD=
METAR MGQZ 081400Z 00000KT 7000 FEW008 BKN070 13/13 QFE 767.3 BR=
METAR MGCB 081400Z 29004KT 9999 FEW018 OVC070 20/18 QFE 868.9=
METAR MGZA 081400Z 00000KT CAVOK 25/23 QFE 987.2 FEW070 OVC100=
METAR MGES 081400Z 00000KT 9999 FEW014 OVC080 21/19 QFE 909.8=
METAR MGMT 081400Z 00000KT CAVOK 26/23 Q1007.5 SCT070 OVC200=
METAR MGTU 081400Z 00000KT 9999 FEW020 BKN070 26/23=
METAR MGCP=
####018000082####
SAVG31 TVSV 081400
METAR
TVSV 081400Z 11014KT 9999 SCT023 SCT280 31/26 Q1014=
####018000209####
SAVN25 SVCB 081400
METAR SVCB 081400Z 00000KT 9999 OVC015 XX/XX QXXXX=
METAR SVPR 081400Z 00000KT 9999 SCT035 XX/XX Q1015=
METAR SVST 081400Z 09008KT 7000 DZ OVC015 XX/XX Q1016=
METAR SVSE 081400Z NIL=
####018000366####
SAAF33 KWBC 081400
METAR
FLLI NIL=
FLLS 081400Z 07012KT 9/9 SCT045 FEW100 18/08 Q1027=
FLMF NIL=
FLND NIL=
FNHU NIL=
FNLU 081400Z 26010KT 9999 FEW021 24 /19 Q1011 NOSIG=
FQBR 081400Z 17009KT 9999 FEW020 24/19 Q1024=
FQMA NIL=
FVBU NIL=
FVCZ NIL=
FVFA NIL=
FVHA NIL=
FVMV NIL=
FVTL NIL=
FWCL NIL=
FWGL NIL=
FWKI NIL=
FWUU NIL=
####018000111####
SASW39 LSSW 081350 RRA
METAR LSMP 081350Z AUTO 32005KT 260V020 9999NDV NCD 30/15 Q1021 RMK
           BLU=
####018000346####
SAAF35 KWBC 081400
METAR
HDAM NIL=
HEAX NIL=
HEBA NIL=
HEBL NIL=
HECA NIL=
HEGN NIL=
HELX NIL=
HEMM NIL=
HEPS NIL=
HERN NIL=
HESC NIL=
HESN NIL=
HLLB 081350Z 35018KT 9999 FEW025 30/18 Q1016=
HLLS NIL=
HLLT 081350Z 36011KT 330V040 8000 SKC 31/18 Q1018=
HSKA NIL=
HSPN NIL=
HSSJ NIL=
HSSP NIL=
HSSS NIL=
####018000092####
SACO20 SKBO 081359 RRA
METAR SKRG 081400Z VRB02KT 4000 -DZ BR BKN004 SCT080 15/14 A3033=
####018000087####
SASR31 WSSS 081400
METAR WSSS 081400Z 23002KT 9999 FEW016 BKN300 28/24 Q1010 NOSIG=
####018000320####
SPXX60 KWBC 081406
SPECI
KLTS 081400Z AUTO 35006KT 10SM -RA SCT006 23/23 A3010 RMK AO2
     SLP176 VISNO RWY35L CHINO RWY35L $=
KNEL 081400Z AUTO 17007KT 7SM BKN012 BKN090 27/22 A3005 RMK AO2
     $=
KNQI 081404Z 02006KT 10SM BKN010CB BKN100 BKN280 28/26 A2985 RMK
     AO2 CB DSNT NE AND E-SE AND NW $=
####018000574####
SAAF34 KWBC 081400
METAR
FALA 081400Z 36007KT 320V050 9999 FEW049 18/03 Q1031 NOSIG=
FBDR NIL=
FBFT 081400Z 11011KT 9999 BKN020 20/10 Q1028=
FBGR NIL=
FBGZ NIL=
FBJW NIL=
FBKE 081400Z 10015KT CAVOK 23/06 Q1025=
FBMN 081400Z 12009KT CAVOK 25/04 Q1024=
FBMP NIL=
FBSK 081400Z 07016KT 9999 SCT020 20/07 Q1028 NOSIG=
FBSP NIL=
FBSW NIL=
FBTE NIL=
FBTS NIL=
FDMS 081400Z 00000KT 9999 SCT035 19/12 Q1029 NOSIG=
FEFF NIL=
FXMM NIL=
FXMU NIL=
FYWB 081400Z 32011KT CAVOK 33/08 Q1016=
FYWH 081400Z AUTO 02010KT //// // ////// 21/M01 Q1026=
####018000247####
SAPQ50 KWBC 081300 RRD
METAR
PTTP 081255Z 18003KT 15SM SCT018TCU BKN300 24/23 A2989 RMK TCU
     E-S-SW SLP121 T02410229 403050227=
PTTP 081255Z 18003KT 15SM SCT018TCU BKN300 24/23 A2989 RMK TCU
     E-S-SW SLP121 T02410229 403050227=
####018000335####
SAAF36 KWBC 081400
METAR
HAAB NIL=
HAAY NIL=
HADR NIL=
HBBA NIL=
HCMH NIL=
HCMI NIL=
HCMK NIL=
HCMM NIL=
HCMV NIL=
HEMA NIL=
HFFF NIL=
HKJK NIL=
HKMO NIL=
HKNA NIL=
HRYR 081400Z 13006KT 9999 SCT030 25/12 Q1019 NOSIG=
HTDA NIL=
HTKJ NIL=
HTZA NIL=
HUEN NIL=
HUKS NIL=
HUMA NIL=
HUSO NIL=
####018000120####
SAUS80 KWBC 081400 RRC
METAR
KHMS 081350Z 29005KT 15SM SKC 24/06 A2998 RMK SLP147 T02410063
     RSNK 21/02013=
####018002992####
SAUS70 KWBC 081400 RRH
METAR
KNSE 081356Z 33003KT 9SM FEW020 SCT250 29/24 A3004 RMK AO2 SLP157
     T02940239 $=
KGTU 081359Z 06005KT 3SM -RA BKN008 OVC014 25/22 A3005=
KNSE 081356Z 33003KT 9SM FEW020 SCT250 29/24 A3004 RMK AO2 SLP157
     T02940239 $=
KVVG 081355Z AUTO 00000KT 27/21 A3002 RMK AO2=
KW22 081400Z AUTO 00000KT 8SM CLR 28/19 A3014 RMK AO2=
KW45 081400Z AUTO 33003KT 10SM CLR 31/20 A3005 RMK AO2
     T03100198=
KWDR 081400Z AUTO 04003KT 10SM CLR 30/21 A3008 RMK AO1=
KXLL 081400Z AUTO 12004KT 7SM CLR 30/24 A3005 RMK AO2
     T02980236=
KXSA 081400Z AUTO 08008KT 10SM BKN018 30/22 A3001 RMK AO2
     PWINO=
KUXL 081400Z AUTO 08009KT 10SM OVC007 27/26 A3002 RMK AO2=
KBJC 081348Z 35007KT 8SM BKN006 OVC025 14/11 A3036=
KDRI 081400Z AUTO 09004KT 10SM BKN008 BKN013 26/26 A3005 RMK
     AO2=
KEYF 081400Z AUTO 00000KT 7SM CLR 30/21 A2996 RMK AO2
     T03000214=
KFFA 081358Z AUTO 06005KT 10SM CLR 27/22 A2997 RMK AO2
     T02710223=
KGAO 081400Z AUTO 06007KT SCT021 SCT026 30/25 A3003 RMK AO2
     PWINO=
KGWW 081400Z AUTO 03006KT 7SM SCT080 SCT095 29/22 A2998 RMK AO2
     T02860215=
KHNZ 081400Z AUTO 05005KT 7SM CLR 31/20 A3001 RMK AO2
     T03050201=
KIER 081400Z AUTO 10005KT 10SM SCT100 28/26 A3006 RMK AO2
     PWINO=
KIXA 081400Z AUTO 06004KT 10SM SCT100 29/21 A2998 RMK AO2
     T02940214=
KJFZ 081400Z AUTO 00000KT 8SM CLR 26/21 A3018 RMK=
KLDJ 081400Z AUTO 11006KT 5SM HZ SCT012 OVC033 27/23 A3004 RMK AO2
     T02650232=
KLHZ 081400Z AUTO 03005KT 10SM CLR 32/20 A3000 RMK AO2
     T03150200=
KLKU 081400Z AUTO 04003KT 7SM CLR 31/21 A3001 RMK AO2=
KLNP 081358Z AUTO 01005KT 10SM CLR 27/18 A3020 RMK AO1=
KMDQ 081400Z AUTO 02005KT 10SM CLR 29/22 A3009 RMK AO2
     T02920219=
KMKJ 081400Z AUTO 00000KT 10SM CLR 28/11 A3021 RMK AO1=
KMTV 081400Z AUTO 01004KT 7SM CLR 32/21 A3006 RMK AO2=
KMYR 081345Z COR 33010KT 8SM CLR 29/20 A2997=
KOKV 081400Z AUTO 34006KT 270V010 10SM CLR 32/18 A3005 RMK AO2
     T03190175=
KOMH 081400Z AUTO 36004KT 7SM CLR 31/23 A3004 RMK AO2
     T03090232=
KONX 081400Z AUTO 06008KT 10SM SCT017 28/22 A2999 RMK AO2
     T02810217=
KOPN 081400Z AUTO 00000KT 10SM CLR 31/24 A3006 RMK AO1=
KPCM 081400Z AUTO 00000KT 10SM CLR 28/22 A3004 RMK AO2=
KRCZ 081400Z AUTO 03003KT 7SM CLR 31/21 A2998 RMK AO2
     T03050205=
KRMN 081400Z AUTO 11005KT 5SM BR CLR 29/27 A3005 RMK AO2=
KSFQ 081400Z AUTO 03003KT 10SM CLR 28/24 A3000 RMK AO2=
KSHD 081400Z AUTO 00000KT 7SM CLR 31/19 A3008 RMK AO2=
KSVH 081400Z AUTO 02005KT 7SM CLR 31/18 A3006 RMK AO2
     T03050183=
KTBR 081400Z AUTO 30007KT 10SM CLR 30/20 A3000 RMK AO2
     T02970202=
KVDF 081356Z AUTO 00000KT 10SM CLR 28/22 A3002 RMK AO2=
KVUJ 081359Z AUTO 04005KT 10SM SCT075 32/21 A2999 RMK AO2=
KCLS 081355Z AUTO 00000KT 10SM CLR 14/13 A2998 RMK AO2=
KCPK 081400Z AUTO 05008KT 10SM CLR 29/22 A2999 RMK AO2=
KGZL 081355Z AUTO 18004KT 10SM OVC025 25/23 A3006 RMK AO2=
####018000698####
SAXX60 KWBC 081400 RRF
METAR
K79J 081356Z 00000KT 10SM CLR 31/23 A3004 RMK AO2 SLP166 T03110233
     $=
KDPG 081355Z 35003KT 50SM SCT170 BKN250 17/02 A3019 RMK SLP179
     FIRST T01740018=
KNGU 081359Z 06008KT 10SM SCT070 BKN100 28/22 A3001 RMK AO2 SLP162
     T02830217=
KNMM 081356Z 35004KT 10SM FEW250 30/22 A3007 RMK AO2 SLP189
     T03000217=
KNXX 081356Z 12007KT 5SM HZ FEW055 SCT200 27/21 A3006 RMK AO2
     SLP182 T02670211 $=
KPAM 081355Z 36005KT 10SM CLR 29/24 A3002 RMK AO2A SLP169
     T02900243=
KNGP 081356Z COR 10007KT 7SM -RA FEW009 SCT016CB BKN025 27/26
     A2984 RMK AO2 RAB12 SLP105 CB DSNT NE AND SW TCU DSNT SE-S
     WR// P0007 T02730261 $=
####018000189####
SAXX60 KWBC 081400 CCD
METAR
KNJK 081356Z 10003KT 10SM CLR 24/18 A2973 RMK AO2 SLP082
     T02440178=
KNXP 081356Z AUTO 29009KT CLR 25/00 A2994 RMK AO2 SLP100 T02500000
     $=
####018000267####
SAUS70 KWBC 081406
METAR
KFYJ 081403Z AUTO 09007KT 10SM SCT021 32/24 A3002 RMK AO1=
KHDC 081404Z AUTO 08004KT 10SM SCT009 30/27 A3006 RMK AO2=
KMLJ 081404Z AUTO 00000KT 10SM CLR 30/22 A3002 RMK AO2=
KOBE 081401Z AUTO 03008KT 10SM CLR 29/22 A3000 RMK AO2=
####018000875####
SAGU31 MGGT 081400
METAR
METAR MGTK 081400Z 00000KT 9999 FEW010 OVC090 24/23 Q1013 A29.91=
METAR MGHT 081400Z 00000KT 9999 FEW006 SCT020 BKN090 17/15 QFE 817.0=
METAR MGPB 081400Z 00000KT 9000 --DZ BKN018 BKN090 25/24 Q1012 A29.88=
METAR MGGT 081400Z 00000KT CAVOK 19/14 Q1023 A30.21 BKN080 SCT200 VTO TEND W NOSIG=
METAR MGSJ 081400Z 00000KT CAVOK 25/23 Q1013 A29.91 BKN080 BKN200=
METAR MGRT 081400Z 00000KT 9999  FEW018 OVC100 25/21 Q1014 A29.94 SANTA MARIA EN ACTIVIDAD=
METAR MGQZ 081400Z 00000KT 7000 FEW008 BKN070 13/13 QFE 767.3 BR=
METAR MGCB 081400Z 29004KT 9999 FEW018 OVC070 20/18 QFE 868.9=
METAR MGZA 081400Z 00000KT CAVOK 25/23 QFE 987.2 FEW070 OVC100=
METAR MGES 081400Z 00000KT 9999 FEW014 OVC080 21/19 QFE 909.8=
METAR MGMT 081400Z 00000KT CAVOK 26/23 Q1007.5 SCT070 OVC200=
METAR MGTU 081400Z 00000KT 9999 FEW020 BKN070 26/23=
METAR MGCP 
####018000722####
SPUS70 KWBC 081406
SPECI
KCFV 081403Z AUTO 08007KT 10SM SCT009 BKN110 24/22 A3007 RMK
     AO2=
KEWR 081403Z 19006KT 9SM FEW010 SCT015 BKN035 OVC130 27/24 A3005
     RMK AO2 SCT V BKN HAZE ALOFT=
KGOK 081404Z AUTO 36003KT 9SM BKN007 24/22 A3007 RMK AO2=
KTUL 081403Z 11004KT 10SM BKN006 BKN030 BKN090 24/23 A3005 RMK
     AO2=
KBIV 081404Z AUTO 25004KT 1SM +RA BR OVC001 24/22 A3004 RMK AO2
     P0010=
KDVN 081404Z AUTO 33004KT 10SM FEW007 24/21 A3006 RMK AO2=
KILG 081404Z 18006KT 2SM FEW013 28/23 A3005 RMK AO2 SFC VIS 7=
KRKP 081404Z AUTO 06008KT 4SM VCTS -RA SCT009 BKN014 OVC027 A2988
     RMK AO2 LTG DSNT SW P0003 FZRANO $=
KUTS 081404Z AUTO 00000KT 7SM SCT007 26/24 A3001 RMK AO2=
####018000028####
SAAL31 KWBC 081400
NIL=
####018000097####
SAGL41 BGSF 081350 RRB
METAR BGBW 081350Z 25008KT 220V290 9999 FEW040 14/05 Q1008 RMK 
1SC =
####018000103####
SPUS80 KWBC 081406
SPECI
KANJ 081403Z AUTO 26005KT 9SM SCT004 SCT012 19/18 A2998 RMK
     AO2=
####018000232####
SAPK31 OPKC 081400 RRA
METAR OPKC 081355Z 24010KTS 8000 SCT030 SCT100 33/24 Q1002 NOSIG=
METAR OPNH 081400Z 04506KT 6000M SCT035 SCT100 34/24 Q.1002=
METAR OPSK 081355Z 13004KTS 5000 HZ SCT040 BKN100 32/25 QNH 1001 R.H.
69PC=
####018000235####
SAAO32 KWBC 081400
METAR
GABS NIL=
GAGO NIL=
GAKY NIL=
GAMB NIL=
GANR NIL=
GATB NIL=
GQNI NIL=
GQNK NIL=
GQNN 081400Z 21012KT 6000 R05//////N NSC 32/21 Q1012 NOSIG=
GQNP NIL=
GQPH NIL=
GQPP NIL=
GQPV NIL=
####018001145####
SAAK31 KWBC 081400
METAR
PABR 081353Z 24016KT 10SM FEW150 SCT190 SCT250 07/03 A2997=
PACD 081353Z 11004KT 10SM FEW050 SCT180 06/04 A2988=
PAED 081355Z AUTO 00000KT 10SM FEW060 BKN070 OVC085 12/11
     A2999=
PAEI 081355Z AUTO 00000KT 10SM CLR 10/07 A3004=
PAEN 081353Z 04011KT 10SM OVC090 14/12 A2994=
PAFA 081353Z 05003KT 10SM FEW100 SCT200 11/08 A3004=
PAFS 081356Z AUTO 03005KT 10SM CLR 11/06 A2999=
PAFY NIL=
PAJN 081353Z 00000KT 10SM FEW140 BKN200 10/08 A3016=
PAKN 081354Z 35004KT 10SM SCT030 BKN060 08/08 A2990=
PAKT 081353Z AUTO 35010KT 10SM CLR 18/11 A3008=
PANC 081353Z 00000KT 10SM FEW045 BKN080 BKN200 12/12 A2999=
PAOM 081353Z 35008KT 10SM SCT200 12/08 A3007=
PAOR 081353Z 00000KT 10SM FEW070 11/08 A3007=
PAOT 081353Z 30009KT 10SM FEW038 SCT090 BKN200 11/06 A3011=
PARY 081356Z AUTO 36005KT 10SM CLR 15/07 A3005=
PASC 081353Z 24015KT 10SM OVC230 09/05 A3003=
PASG NIL=
PASI 081353Z 33003KT 1/4SM FG VV001 12/12 A3017=
PATQ 081356Z AUTO 24013KT 10SM CLR 09/03 A3002=
PAVD 081356Z 00000KT 10SM FEW001 BKN080 BKN120 10/07 A3009=
PAWG 081356Z 28004KT 10SM CLR 13/10 A3014=
PFYU NIL=
####018000953####
SAAO31 KWBC 081400
METAR
GCFV 081400Z 05013KT 9999 FEW020 24/19 Q1017=
GCHI 081400Z 36012KT 330V040 9999 FEW022 23/17 Q1019=
GCLA 081400Z 01012KT 340V050 9999 FEW020 26/18 Q1019=
GCLP 081400Z 02027KT 9999 FEW020 25/17 Q1017 NOSIG=
GCRR 081400Z 36019KT 330V040 9999 FEW025 26/18 Q1017=
GCTS 081400Z 10019KT CAVOK 25/17 Q1017 NOSIG=
GCXO 081400Z 29010KT 260V320 9999 FEW005 24/17 Q1020 NOSIG=
GEML 081400Z 10008KT 030V160 CAVOK 27/21 Q1016=
GMAA NIL=
GMAT NIL=
GMFF 081400Z 30008KT 8000 SCT030 SCT033CB SCT100 34/19 Q1017
     NOSIG=
GMFO 081400Z 24003KT 9999 FEW033TCU 45/09 Q1016 NOSIG=
GMME 081400Z 33007KT 6000 SCT010 SCT016 26/19 Q1016 NOSIG=
GMMN 081400Z VRB09KT CAVOK 29/18 Q1016 NOSIG=
GMMX 081400Z 31006KT 250V360 8000 FEW026TCU 38/15 Q1016 NOSIG=
GMOY NIL=
GMTA 081400Z 02010KT CAVOK 25/20 Q1016=
GMTN 081400Z NIL=
GMTT 081400Z 27007KT 240V300 8000 FEW016 SCT100 27/19 Q1016
     NOSIG=
GSAI NIL=
####018000028####
SAAU31 KWBC 081400
NIL=
####018000271####
SAAO33 KWBC 081400
METAR
GBYD NIL=
GFLL NIL=
GGOV NIL=
GLRB NIL=
GOGG NIL=
GOGS NIL=
GOOY 081400Z 15009KT 120V210 9999 SCT013 31/25 Q1012 NOSIG=
GOSS NIL=
GOTT NIL=
GOTY NIL=
GUCY NIL=
GUFH NIL=
GULB NIL=
GUNZ NIL=
GUOK NIL=
GUXD NIL=
####018000359####
SAAW31 KWBC 081400
METAR
LLBG NIL=
LLBS NIL=
LLET NIL=
LLJR NIL=
LLOV NIL=
LTAC NIL=
LTAF NIL=
LTAI NIL=
LTBA NIL=
LTBJ NIL=
LTBS NIL=
OEPS NIL=
OJAI 081400Z NIL=
OJAM 081400Z 29008KT 5000 HZ NSC 32/08 Q1011 NOSIG=
OJJR NIL=
OLBA 081400Z 24008KT 220V280 8000 FEW070 SCT200 28/19 Q1011
     NOSIG=
UGEE NIL=
UGGG NIL=
####018000812####
SAUR30 UKMS 081400
METAR UKBB 081400Z 32003MPS 9999 BKN040 26/17 Q1014
         88CLRD95 NOSIG=
METAR UKHH 081400Z 00000MPS 9999 SCT040 BKN200 30/13
         Q1014 080///65 NOSIG=
METAR UKOO 081400Z 35005MPS 310V030 CAVOK 27/14 Q1014
          34090070 NOSIG=
METAR UKDE 081400Z 20002MPS 120V260 CAVOK 30/16 Q1013
          20CLRD70 NOSIG=
METAR UKDD 081400Z VRB01MPS 9999 SCT033TCU 29/18
         Q1013  08090070 NOSIG=
METAR UKFF 081400Z 28006MPS CAVOK 28/19 Q1012
         01010070 NOSIG=
METAR UKLL 081400Z 30003MPS 240V030 9999 SCT040
         BKN100  20/12 Q1021 31210365 NOSIG=
METAR UKCC 081400Z 00000MPS CAVOK 29/15 Q1014
         08090070 NOSIG=
METAR UKDR 081400Z 33005MPS 9999 VCTS SCT033CB BKN200
          26/18 Q1013 1809//70 TEMPO 26006G14MPS
         3100 -TSRAGR BKN015CB=
####018001623####
SAAW32 KWBC 081400
METAR
OEDF 081400Z 05012KT CAVOK 41/09 Q0999 NOSIG=
OEDR 081400Z 03011KT 8000 SKC 39/21 Q0997 NOSIG=
OEJN 081400Z 30012KT CAVOK 35/25 Q1001 NOSIG=
OEMA 081400Z 09010KT 9999 SCT045 47/M04 Q1003 NOSIG=
OERK 081400Z 01016KT 8000 SKC 42/M02 Q1006 NOSIG=
OIAA 081400Z 33006KT 8000 SKC 48/05 Q0997=
OIAW 081400Z 24004KT CAVOK 48/05 Q0996 A2943=
OIBB 081400Z 22006KT CAVOK 36/24 Q0998 A2949=
OIBK 081400Z 21004KT 5000 HZ SKC 37/24 Q0999 A2950=
OICC 081400Z 22012KT CAVOK 41/M04 Q1012 A2991 864.4=
OICK 081400Z NIL=
OICS 081400Z NIL=
OIFM 081400Z 16006KT CAVOK 39/05 Q1015 A2997=
OIFP NIL=
OIGG 081400Z 02004KT CAVOK 31/21 Q1009 A2982=
OIHH 081400Z NIL=
OIII 081400Z NIL=
OIIM NIL=
OIIP NIL=
OIIX NIL=
OIKB 081400Z 17006KT 4000 HZ NSC 36/27 Q0999 A2951=
OIKK 081400Z 32006KT CAVOK 36/M02 Q1015 A2998=
OIMM 081400Z 04014KT CAVOK 37/00 Q1013 A2994=
OINN NIL=
OINR NIL=
OINZ 081400Z 27006KT CAVOK 32/24 Q1010 A2983=
OISM NIL=
OISS 081400Z 12006KT CAVOK 39/06 Q1012 A2989=
OITL 081400Z 07022KT CAVOK 23/12 Q1017 A3003=
OITR 081400Z 07006KT CAVOK 35/10 Q1012 A2988=
OITT 081400Z 23006KT CAVOK 38/03 Q1013 A2992=
OIYY 081400Z 05008KT CAVOK 40/M07 Q1012 A2990=
OIZH 081400Z 04010KT CAVOK 36/M03 Q1012 A2988=
OKBK 081400Z 34017KT 6000 -BLDU SKC 47/M03 Q0998 NOSIG=
ORBI 081400Z 31016KT CAVOK 44/06 Q1002 NOSIG=
ORBS NIL=
ORMM 081400Z 32013KT CAVOK 48/M01 Q0997=
OSAP 081400Z 29016KT CAVOK 33/16 Q1006=
OSDI 081400Z 24018KT CAVOK 37/08 Q1008=
OSLK 081400Z 23006KT 9999 SCT030 28/19 Q1009=
OTBD NIL=
OTBH NIL=
OTMA NIL=
OTMS NIL=
####018000112####
SAMX44 MMMD 081400
METAR MMCT 081401Z RTD 10010KT 6SM  BKN080 27/26 A2990 
      RMK 8/030 HZY MSGTX MMMD=
####018000420####
SAMC31 GMMC 081400
METAR GMAD 081400Z 25010KT 9999 FEW020 29/17 Q1014 NOSIG=
METAR GMFF 081400Z 30008KT 8000 SCT030 SCT033CB SCT100 34/19 Q1017
NOSIG=
METAR GMME 081400Z 33007KT 6000 SCT010 SCT016 26/19 Q1016 NOSIG=
METAR GMMN 081400Z VRB09KT CAVOK 29/18 Q1016 NOSIG=
METAR GMMX 081400Z 31006KT 250V360 8000 FEW026TCU 38/15 Q1016 NOSIG=
METAR GMTT 081400Z 27007KT 240V300 8000 FEW016 SCT100 27/19 Q1016
NOSIG=
####018000127####
SPJP31 KWBC 081406
SPECI
RODN 081403Z AUTO 17014KT 9999 SCT017 SCT027 BKN210 29/26 A2986
RMK AO2 CIG 018 RWY05 SLP112=
####018000090####
SAUZ31 UTTW 081300 CCA
METAR UTST 081400Z 27001MPS CAVOK 38/13 Q1004 R88/CLRD70 NOSIG=
####018000624####
SAAW33 KWBC 081400
METAR
OBBI NIL=
OMAA 081400Z 34009KT CAVOK 40/21 Q0998 A2948 NOSIG=
OMAL 081400Z 19006KT CAVOK 34/25 Q1002 A2959=
OMDB 081400Z 01012KT 7000 NSC 40/22 Q0998 NOSIG=
OMFJ 081400Z 12007KT 7000 NSC 34/24 Q1001 A2956=
OMRK 081400Z 34008KT CAVOK 40/35 Q0998 A2947=
OMSJ 081400Z 35006KT 7000 NSC 40/21 Q0999=
OOMA NIL=
OOMS 081400Z 06005KT 6000 SCT025 BKN100 33/27 Q1000 NOSIG=
OOSA NIL=
OOTH NIL=
OPMT NIL=
OYAA 081400Z 22006KT 6000 NSC 35/19 Q1000=
OYAR NIL=
OYHD NIL=
OYJA NIL=
OYMB 081400Z 02021KT 2000 SA FEW030 40/M07 Q1003=
OYSM NIL=
OYSN 081400Z NIL=
OYTZ NIL=
####018000074####
SAAW33 KWBC 081330 RRA
METAR
OOSA 081350Z AUTO 17005KT 28/23 Q1003=
####018000028####
SABO41 KWBC 081400
NIL=
####018000307####
SAAW42 KWBC 081400
METAR
OBAH NIL=
OBBI NIL=
OBBQ NIL=
OBSC NIL=
OBZI NIL=
OJAQ 081400Z 35014KT CAVOK 40/30 Q1005=
OKBC NIL=
OKTK NIL=
OKZK NIL=
OMAD 081400Z NIL=
OMAU NIL=
OMDZ NIL=
OMGK NIL=
OMMA NIL=
OMMS NIL=
OMSA NIL=
OMSQ NIL=
OMSR NIL=
OSAS NIL=
OSGN NIL=
####018000073####
SAAW34 KWBC 081345 RRE
METAR
OAKB 081400Z NIL=
OAKN 081400Z NIL=
####018000981####
SABZ31 KWBC 081400
METAR
SBBE 081400Z 13009KT 9999 FEW017 SCT100 31/22 Q1013=
SBBR 081400Z 07010KT 9999 FEW023 22/08 Q1024=
SBBV 081400Z 18005KT 9999 SCT020 SCT070 29/23 Q1014=
SBCF 081400Z 13006KT CAVOK 19/08 Q1023=
SBCG 081400Z 06013KT 9999 FEW040 28/08 Q1017=
SBEG 081400Z 00000KT CAVOK 29/22 Q1013=
SBFI 081400Z 16007KT 9999 FEW020 BKN100 19/15 Q1017=
SBFZ 081400Z 11011KT 9999 FEW020 SCT090 30/20 Q1014=
SBGL 081400Z 32001KT CAVOK 24/17 Q1018=
SBGR 081400Z 32007KT CAVOK 23/07 Q1022=
SBKP 081400Z 02005KT 9000 NSC 23/09 Q1022=
SBNT 081400Z 15007KT 9999 BKN023 BKN100 28/23 Q1015=
SBPA 081400Z 22002KT 9999 BKN015 BKN030 15/12 Q1021=
SBPS 081400Z 24005KT 9999 8000NE VCSH SCT020 BKN100 23/19
     Q1019=
SBRF 081400Z 18007KT 9999 FEW020 BKN070 27/22 Q1016=
SBSL 081400Z 09005KT 9999 SCT017 31/23 Q1013=
SBSN 081400Z 09013KT 9999 BKN020 30/24 Q1013=
SBSV 081400Z 22009KT 4000 -RA BR BKN007 SCT017 BKN070 24/21
     Q1018=
SBTT NIL=
####018001001####
SAAK32 KWBC 081400
METAR
PABA 081401Z AUTO 29016KT 10SM BKN040 07/04 A3001=
PABI 081353Z AUTO 00000KT 10SM CLR 11/07 A3008=
PACZ 081355Z AUTO 04010KT 10SM 10/08 A3003=
PACZ SA 1355 AWOS MM 10 50/47/0410/003=
PADK 081356Z 04016G19KT 7SM OVC015 07/07 A2946=
PADL 081356Z 28004KT 10SM FEW039 09/08 A2996=
PADQ 081353Z 30008KT 10SM FEW029 SCT042 OVC065 11/09 A2987=
PAEH 081355Z AUTO 13003KT 10SM OVC060 09/M28 A2997=
PAEH SA 1355 AWOS M60 OVC 10 49/-19/1303/997=
PAFB NIL=
PAGA 081358Z AUTO 00000KT 10SM CLR 10/08 A3007=
PAIM 081355Z 00000KT 10SM CLR120 09/06 A3008=
PALU 081355Z 21025KT 10SM FEW100 12/04 A3004=
PASV 081355Z AUTO 01003KT 10SM CLR 10/07 A2994=
PASV SA 1355 AWOS CLR BLO 120 10 50/44/0103/994=
PASY 081356Z AUTO 02016KT 8SM OVC002 A2974=
PATC 081355Z AUTO 36004KT 10SM CLR 09/06 A3013=
PATC SA 1355 AWOS CLR BLO 120 10 48/43/3604/013=
PATL 081355Z AUTO 06003KT 10SM CLR 12/06 A3000=
PATL SA 1355 AWOS CLR BLO 120 10 53/43/0603/000=
PBTI NIL=
####018000572####
SABZ41 KWBC 081400
METAR
SBAA NIL=
SBAF NIL=
SBAR 081400Z 18008KT 9999 SCT015 28/24 Q1017=
SBBG NIL=
SBBH NIL=
SBBI NIL=
SBBU NIL=
SBCJ 081400Z 07004KT CAVOK 28/17 Q1018=
SBCO NIL=
SBCR 081400Z 31003KT CAVOK 28/13 Q1015=
SBCT 081400Z 06004KT CAVOK 20/13 Q1022=
SBCV NIL=
SBCY 081400Z 34010KT CAVOK 31/12 Q1015=
SBCZ 081400Z 00000KT 9999 FEW020 BKN100 30/25 Q1014=
SBDN NIL=
SBFL NIL=
SBFN 081400Z 10004KT 9999 SCT017 BKN100 27/24 Q1014=
SBGO 081400Z 604010KT 9999 FEW020 27/11 Q1020=
SBGW NIL=
SBHT NIL=
SBIH NIL=
SBIL NIL=
####018000834####
SABZ42 KWBC 081400
METAR
SBJR NIL=
SBLO 081400Z 04002KT CAVOK 21/11 Q1021=
SBMA 081400Z 13006KT CAVOK 32/21 Q1014=
SBME NIL=
SBMN 081400Z 10005KT 9999 FEW015 30/24 Q1013=
SBMO 081400Z 17004KT 9999 SCT020 27/20 Q1017=
SBMQ 081400Z 07008KT 9999 SCT020 BKN100 31/26 Q1014=
SBMT NIL=
SBPC NIL=
SBPK 081400Z 25009KT CAVOK 14/06 Q1021=
SBPP 081400Z 01006KT CAVOK 27/12 Q1018=
SBPV 081400Z 05006KT CAVOK 30/23 Q1013=
SBRB 081400Z 01009KT CAVOK 31/23 Q1014=
SBRJ 081400Z 05002KT CAVOK 26/16 Q1017=
SBSC NIL=
SBSJ 081400Z 16007KT CAVOK 21/11 Q1022=
SBSM NIL=
SBSP 081400Z 35010KT CAVOK 22/07 Q1023=
SBST NIL=
SBTE 081400Z 30003KT 9999 BKN020 30/24 Q1014=
SBTU NIL=
SBUG 081400Z 10013KT 9999 FEW015 13/05 Q1021=
SBUR NIL=
SBVH NIL=
SBVT 081400Z 04007KT 9999 FEW026 27/19 Q1020=
SBYS NIL=
####018000795####
SACA31 KWBC 081400
METAR
MBJT NIL=
MBPV NIL=
MBSC NIL=
MKJP NIL=
MKJS NIL=
MUCM 081353Z 20006KT 180V260 9000 FEW020 29/23 Q1015=
MUCU 081353Z 16004KT 110V200 9999 SCT025CB 28/23 Q1016=
MUHA 081355Z 09004KT 040V170 8000 FEW040 29/24 Q1015=
MUVR 081400Z /////KT 9000 FEW020 29/23 Q1015=
MWCB 081400Z 16006KT 9999 SCT016 30/25 Q1014=
MWCR 081400Z 15009KT 9999 FEW018 BKN250 30/24 Q1014 NOSIG=
MYAM NIL=
MYAT NIL=
MYBS NIL=
MYEC NIL=
MYEG 081359Z AUTO 16006KT 10SM CLR 30/24 A2998 RMK AO2 LTG DSNT
     W=
MYEH NIL=
MYEM NIL=
MYGF 081400Z 11006KT 9999 SCT018CB 30/24 A2998 RMK CB S/SW=
MYGW NIL=
MYNN 081400Z 21003KT 9999 VCSH SCT014CB SCT015TCU BKN220 30/25
     A2997=
MYNN 081400Z 21003KT 9999 VCSH SCT014CB SCT015CB BKN220 30/25
     A2997=
####018000572####
SABZ43 KWBC 081400
METAR
SBAN NIL=
SBAT NIL=
SBBA NIL=
SBBQ NIL=
SBBW NIL=
SBCC NIL=
SBER NIL=
SBES NIL=
SBGA NIL=
SBIZ NIL=
SBJF NIL=
SBJP 081400Z 17009KT 9999 BKN020 BKN070 28/23 Q1015=
SBKG NIL=
SBLB NIL=
SBLP NIL=
SBMK NIL=
SBMS NIL=
SBMZ NIL=
SBPB 081400Z 06009KT 9999 FEW020 SCT100 32/22 Q1012=
SBPJ NIL=
SBPL 081400Z 15010KT 9999 SCT023 27/18 Q1018=
SBPN NIL=
SBQV NIL=
SBRP 081400Z 17004KT CAVOK 26/12 Q1020=
SBTF 081400Z 12005KT 9999 FEW020 BKN100 31/25 Q1012=
SBTK NIL=
SBUF NIL=
SBUI NIL=
SBUL NIL=
####018001112####
SACA32 KWBC 081400
METAR
MDLR 081400Z 11010KT 8000 FEW020 30/25 Q1016 DU/ALL QDS=
MDPC 081400Z 09010KT 9999 FEW018 28/25 Q1013 NOSIG=
MDPP 081400Z 09005KT 8000 FEW018 30/26 Q1017 DU/ALL QDS=
MDSD 081400Z 06005KT 9999 SCT020 30/24 Q1015=
MDST 081400Z 11008KT 5000 SCT020 28/26 Q1016 BR/ALL QDS=
MTCH NIL=
MTPP 1400Z 10012G22KT 7000 FEW026 SCT200 31/24 Q1015/8 A2999=
MTPP 1400Z 10012G22KT 7000 FEW026 SCT200 31/24 Q1015.8 A2999=
MTPP 081400Z 7000 FEW026 SCT200 31/24 Q1016 A2999=
TAPA 081400Z 07010KT 9999 SCT022 30/25 Q1016=
TIST 081353Z 06009KT 10SM CLR 31/24 A3001 RMK AO2 SLP164
     T03110244=
TISX 081353Z 12015G19KT 10SM SCT020 31/24 A3002 RMK AO2 SLP163
     T03110239=
TJBQ 081350Z 08008KT 10SM SCT020 31/26 A3003=
TJMZ 081350Z 04009KT 6SM HZ FEW040 33/26 A3002=
TJNR NIL=
TJPS 081350Z 10010KT 8SM FEW030 33/24 A2999 HZ ALQDS=
TJSJ 081356Z 08010KT 10SM FEW023 SCT036 31/24 A3002 RMK AO2 SLP163
     T03060244=
TKPK 081400Z 06014KT 9999 FEW017 30/25 Q1016=
TKPN 081400Z 11012KT 9999 -SHRA BKN018 30/24 Q1015=
TQPF NIL=
TRPM NIL=
TUPJ NIL=
TUPW NIL=
####018000508####
SACA33 KWBC 081400
METAR
TBPB 081400Z 09020KT 9999 BKN014 BKN280 31/25 Q1014 NOSIG=
TDPD NIL=
TDPR NIL=
TFFF 081400Z 08015KT 9999 BKN028 30/25 Q1014 NOSIG=
TFFG NIL=
TFFJ NIL=
TFFR NIL=
TGPY 081400Z 11010KT 9999 SCT019 SCT035 BKN270 28/26 Q1013=
TGPZ NIL=
TLPC 081400Z 10012KT 9999 FEW026 SCT280 31/25 Q1014=
TLPL 081400Z 08020KT 9999 FEW027 BKN280 31/24 Q1014=
TNCA NIL=
TNCB NIL=
TNCC NIL=
TNCE NIL=
TNCM NIL=
TTCP NIL=
TTPP NIL=
TVSM NIL=
TVSU NIL=
TVSV NIL=
####018000558####
SACA41 KWBC 081400
METAR
MKBK NIL=
MUBA NIL=
MUBY NIL=
MUCA NIL=
MUCL 081350Z 15007KT 9999 FEW018 29/26 Q1015=
MUCM 081353Z 20006KT 180V260 9000 FEW020 29/23 Q1015=
MUCU 081353Z 16004KT 110V200 9999 SCT025CB 28/23 Q1016=
MUGM 081356Z 06003KT 9999 FEW040 BKN250 30/23 A2998 RMK SLP150
     T03000228=
MUGT NIL=
MUHA 081355Z 09004KT 040V170 8000 FEW040 29/24 Q1015=
MUMO NIL=
MUMZ NIL=
MUNG NIL=
MUVR 081400Z /////KT 9000 FEW020 29/23 Q1015=
MUVT NIL=
MYEF NIL=
MYSM NIL=
TABS NIL=
TAOA NIL=
TBBI NIL=
TDCF NIL=
####018000346####
SACA42 KWBC 081400
METAR
TIST 081353Z 06009KT 10SM CLR 31/24 A3001=
TISX 081353Z 12015G19KT 10SM SCT020 31/24 A3002=
TJBQ 081350Z 08008KT 10SM SCT020 31/26 A3003=
TJMZ 081350Z 04009KT 6SM HZ FEW040 33/26 A3002=
TJNR NIL=
TJPS 081350Z 10010KT 8SM FEW030 33/24 A2999 HZ ALQDS=
TJSJ 081356Z 08010KT 10SM FEW023 SCT036 31/24 A3002=
####018001009####
SACA35 KWBC 081400
METAR
MGGI NIL=
MGPB NIL=
MGSJ NIL=
MHLC NIL=
MHLM 081400Z 20008KT 9999 -RA FEW004 SCT028 OVC080 26/25 Q1012
     A2989 NOSIG=
MHTG 081400Z 00000KT 5000 FEW006 BKN020 OVC080 21/20 Q1017 A3003
     NOSIG=
MNPC NIL=
MPBO NIL=
MPCH 081400Z 00000KT 9999 FEW010 SCT030 OVC080 Q1013=
MPDA 081400Z 00000KT(E) 9999 FEW004 SCT030 OVC200 25/24/Q1011=
MPMG 081400Z 18004KT 9999 SCT016 28/23 Q1013 TEMPO AT 1500
     SCT016TCU=
MPSA NIL=
MPTO 081400Z 00000KT 9999 BKN018 28/24 Q1012 NOSIG=
MRLB NIL=
MRLM NIL=
MROC 081400Z 23004KT 9999 2500SW BR SCT001 BKN120 21/21 A3005 RMK
     FG BANK IN APCH RNY 07 TEMPO 4000 BR=
MRPV NIL=
MSLP 081350Z 00000KT 9999 FEW020 BKN300 27/24 Q1011 A2988 DSTN CB
     TO S FEW110=
MSSS 081350Z 00000KT 9999 FEW020 BKN300 22/21 Q1015 A3000=
MZBZ 081400Z 18008KT 9999 FEW011 SCT080 BKN220 27/24 A2986 Q1011
     JP-S/SW NOSIG=
MZBZ 081400Z 18008KT 9999 FEW011 SCT080 BKN220 27/24 A2986 Q1011
     JP-S,SW NOSIG=
####018000942####
SACA45 KWBC 081400
METAR
MGFL NIL=
MGGT 081400Z 00000KT CAVOK 19/14 Q1023 A30/21 BKN080 SCT200 VTO
     TEND W NOSIG=
MGGT 081400Z 00000KT CAVOK 19/14 Q1023 A30.21 BKN080 SCT200 VTO
     TEND W NOSIG=
MGHT NIL=
MHAM 081400Z 00000KT 9999 SCT015 OVC070 25/25 REDZ=
MHCA 081400Z 20002KT 9999 SCT028TCU OVC070 22/22 TCU TD=
MHCH 081400Z 00000KT 9999 SCT006 BKN070 25/23 FEW028 BR HZ=
MHLE 081400Z 00000KT 9999 FEW022 SCT070 BKN200 17/17 Q1022=
MHNJ NIL=
MHNO 081400Z 00000KT 9999 FEW035 BKN090 21/// HZ=
MHPL NIL=
MHRO 081400Z 09011KT 9999 FEW018CB BKN200 29/25 Q1010 A2984
     NOSIG=
MHSR 081400Z 00000KT 9999 SCT025 BKN250 21/20 HZ=
MHTE 081400Z 00000KT 9999 BKN024TCU BKN080 25/22 Q1010 TCU TD
     HZ=
MHYR 081400Z 36002KT 9999 SCT020 BKN080 23/22 BR=
MNMG 081400Z 26006KT 9000 FEW015CB SCT018 24/23 Q1012 A2989
     CB/W/NW/N/NE/E/SE RA/N/W/E/S=
MNPC NIL=
MPSA NIL=
MRCH NIL=
MSAC NIL=
####018000028####
SACI31 KWBC 081400
NIL=
####018000686####
SACI32 KWBC 081400
METAR
ZBAA NIL=
ZBTJ NIL=
ZBYN NIL=
ZGGG NIL=
ZGNN NIL=
ZGSZ NIL=
ZHHH NIL=
ZKPY NIL=
ZLLL NIL=
ZMUB 081400Z 15012MPS 9999 -SHRA SCT030CB SCT033 16/11 Q1007 NOSIG
     RMK QFE648.7 72=
ZPPP NIL=
ZSAM NIL=
ZSHC NIL=
ZSNJ NIL=
ZSOF NIL=
ZSPD NIL=
ZSSS NIL=
ZUBD NIL=
ZUCD NIL=
ZUCK NIL=
ZUDF NIL=
ZUDS NIL=
ZUDX NIL=
ZUDZ NIL=
ZUFJ NIL=
ZUFL NIL=
ZUGH NIL=
ZUGY NIL=
ZULP NIL=
ZULS NIL=
ZULZ NIL=
ZUMY NIL=
ZUNC NIL=
ZUSN NIL=
ZUTR NIL=
ZUUU NIL=
ZUWF NIL=
ZUWX NIL=
ZUXC NIL=
ZUXJ NIL=
ZUXY NIL=
ZUYB NIL=
ZUZY NIL=
ZWTN NIL=
ZWWW NIL=
ZYHB NIL=
ZYTL NIL=
ZYYY NIL=
####018000028####
SACN31 KWBC 081400
NIL=
####018000028####
SACI41 KWBC 081400
NIL=
####018000127####
SPXX62 KWBC 081406
SPECI
RODN 081403Z AUTO 17014KT 9999 SCT017 SCT027 BKN210 29/26 A2986
RMK AO2 CIG 018 RWY05 SLP112=
####018000372####
SAHW31 KWBC 081400
METAR
PBKH NIL=
PHJR 081353Z VRB03KT 10SM FEW060 22/17 A3002=
PHKO 081353Z AUTO 13005KT 10SM OVC060 23/17 A2995=
PHLI 081353Z 07012KT 10SM FEW025 BKN055 OVC075 24/18 A3003=
PHNL 081353Z 05007KT 10SM SCT060 24/18 A3001=
PHOG 081354Z AUTO 05006KT 10SM SCT065 23/17 A3000=
PHTO 081353Z 24006KT 10SM FEW044 OVC055 21/18 A3002=
PNGF NIL=
####018000655####
SAEE31 KWBC 081400
METAR
EPGD 081400Z 08010KT 9999 FEW045 23/12 Q1021=
EPKK 081400Z VRB04KT CAVOK 24/06 Q1021=
EPKT 081400Z 01005KT CAVOK 23/08 Q1022=
EPPO 081400Z 28005KT CAVOK 26/07 Q1021=
EPQT NIL=
EPRZ 081400Z 31006KT 240V020 CAVOK 24/07 Q1021=
EPSC NIL=
EPWA 081400Z 30011KT 260V340 CAVOK 24/11 Q1020 NOSIG=
EYSA NIL=
UKBB 081400Z 32003MPS 9999 BKN040 26/17 Q1014 88CLRD95 NOSIG=
UKKK 081400Z 28004MPS CAVOK 26/17 Q1015 26CLRD70 NOSIG=
UKLL 081400Z 30003MPS 240V030 9999 SCT040 BKN100 20/12 Q1021
     31210365 NOSIG=
UKOO 081400Z 35005MPS 310V030 CAVOK 27/14 Q1014 34090070 NOSIG=
UMII NIL=
UMMM NIL=
UMMS NIL=
####018000763####
SAEE32 KWBC 081400
METAR
LBBG 081400Z 27006MPS 9000 RA SCT023 BKN038 OVC050 17/16 Q1014
     NOSIG=
LBPD 081400Z 26004MPS 9999 -RA OVC040 17/15 Q1017 NOSIG=
LBSF 081400Z 28006MPS 9999 -RA SCT026 BKN040 17/12 Q1019 NOSIG=
LBWN 081400Z 30006MPS 260V350 9999 FEW030 SCT045 21/16 Q1013
     NOSIG=
LHBP 081400Z 30005KT 250V360 CAVOK 25/12 Q1020 NOSIG=
LHTA NIL=
LRAR NIL=
LRBS 081400Z 29005KT 260V320 9999 -RA FEW030 22/15 Q1016 TEMPO
     5000 RA=
LRCK 081400Z 02011KT 340V070 9999 SCT040 26/16 Q1014 BECMG TSRA
     SCT035CB BKN040=
LROP 081400Z 25005KT 220V280 9999 -SHRA FEW040CB 21/15 Q1016
     880///95 NOSIG=
LRTC NIL=
LRTM NIL=
LRTR 081400Z 36008KT 340V050 9999 SCT048 23/13 Q1020=
LUCC NIL=
LUKK NIL=
LURN NIL=
####018001653####
SAEM31 KWBC 081400
METAR
KQLA NIL=
KQLH NIL=
KQLX NIL=
LATI 081400Z 01016G26KT 340V050 9999 FEW060 27/14 Q1016 NOSIG=
LDDU 081400Z 26012KT 230V300 9999 FEW045 25/14 Q1018 NOSIG=
LDDV NIL=
LDKT NIL=
LDOS 081400Z 29007KT 220V340 9999 FEW033 26/08 Q1021=
LDPL 081400Z 27011KT 240V300 CAVOK 26/11 Q1021 NOSIG=
LDRI 081400Z 29004KT 230V330 9999 FEW047 27/10 Q1021 NOSIG=
LDSP 081400Z 23011KT 190V260 CAVOK 29/09 Q1019 NOSIG=
LDZA 081400Z VRB04KT CAVOK 27/09 Q1021 NOSIG=
LDZD 081400Z 30014KT 260V350 CAVOK 28/07 Q1020=
LJLJ NIL=
LJMB NIL=
LJPZ NIL=
LKIB NIL=
LKMT 081400Z 03005KT 330V100 CAVOK 22/10 Q1022 NOSIG=
LKPR 081400Z 31003KT 260V360 CAVOK 26/10 Q1022 NOSIG=
LKTB 081400Z VRB03KT CAVOK 25/08 Q1021 NOSIG=
LKTT NIL=
LOAV NIL=
LOIH NIL=
LOIJ NIL=
LOLW NIL=
LOWG NIL=
LOWH NIL=
LOWI NIL=
LOWK NIL=
LOWL NIL=
LOWS NIL=
LOWW NIL=
LOWZ NIL=
LQSA 081400Z 32007KT 270V010 9999 SCT060 23/12 Q1023 NOSIG=
LWOH 081400Z 34008KT 9999 BKN050 19/09 Q1019=
LWSK 081400Z 33006KT 9999 BKN040 19/11 Q1020 NOSIG=
LYBE 081400Z 34012KT CAVOK 24/12 Q1021 NOSIG=
LYDU NIL=
LYLJ NIL=
LYMB NIL=
LYNI 081400Z 31011KT 9999 FEW020 BKN026 18/13 Q1021 NOSIG=
LYOH NIL=
LYOS NIL=
LYPG 081400Z 02017KT 360V060 9999 FEW040 28/09 Q1017 NOSIG=
LYPL NIL=
LYPR 081400Z NIL=
LYPZ NIL=
LYRI NIL=
LYSA NIL=
LYSK NIL=
LYSP NIL=
LYTI NIL=
LYTV 081400Z 12006KT 020V170 9999 FEW053 30/10 Q1017 NOSIG=
LYZA NIL=
LYZD NIL=
LZIB 081400Z 36008KT 300V090 CAVOK 26/07 Q1021=
LZKZ 081400Z 02011KT 350V060 CAVOK 24/07 Q1020 NOSIG=
LZTT 081400Z 07012KT 9999 FEW056 22/08 Q1022 NOSIG=
####018000082####
SABZ24 SBFL 081400
METAR SBFL 081400Z 15011KT 9999 FEW025 SCT100 21/16 Q1019=
####018001103####
SAFR31 KWBC 081400
METAR
LFAC NIL=
LFAT NIL=
LFBD 081400Z 09010KT CAVOK 35/13 Q1015 NOSIG=
LFBH 081400Z AUTO 31012KT 9999NDV NSC 27/17 Q1016=
LFBI 081400Z 20005KT 140V230 CAVOK 33/09 Q1017 NOSIG=
LFBO 081400Z 11012KT 070V130 CAVOK 36/11 Q1017 NOSIG=
LFBP 081400Z 09008KT 060V120 CAVOK 35/19 Q1015 NOSIG=
LFBT 081400Z 07006KT 030V110 9999 FEW083 BKN230 36/19 Q1017
     NOSIG=
LFBZ 081400Z 28012KT 240V310 9999 FEW010 SCT130 BKN240 25/22 Q1016
     TEMPO BKN010=
LFGJ 081400Z AUTO 23005KT 140V310 9999NDV NSC 32/11 Q1019=
LFKB 081400Z 10005KT 060V140 9999 FEW028 29/21 Q1019 NOSIG=
LFKC 081400Z NIL=
LFKJ 081400Z 18011KT 9999 FEW030 FEW046TCU 31/23 Q1019 NOSIG=
LFLB 081400Z 34006KT 9999 FEW070 SCT260 32/17 Q1019 NOSIG=
LFLC 081400Z 10004KT 040V160 CAVOK 33/11 Q1019 NOSIG=
LFLL 081400Z 20007KT 150V240 CAVOK 33/11 Q1019 NOSIG=
LFLS 081400Z 20006KT 150V290 9999 FEW050 32/10 Q1020 NOSIG=
LFLY 081400Z 22006KT 130V290 CAVOK 34/11 Q1019 NOSIG=
LFMD 081400Z AUTO 16005KT 120V200 9999NDV NSC 30/19 Q1020=
LFMH 081400Z 11004KT 040V210 CAVOK 33/11 Q1020 NOSIG=
####018000299####
SAEW31 KWBC 081400
METAR
LPAZ NIL=
LPFR 081400Z 25010KT CAVOK 24/20 Q1016=
LPFU NIL=
LPPD NIL=
LPPR 081400Z 20007KT 160V230 9999 FEW006 SCT250 24/18 Q1016=
LPPS 081400Z 03012KT 350V060 9999 FEW016 SCT030 22/15 Q1021=
LPPT 081400Z 26010KT 9999 FEW030 29/19 Q1016 NOSIG=
LXGB NIL=
####018001613####
SAFR32 KWBC 081400
METAR
LFML 081400Z 21012KT CAVOK 33/19 Q1019 NOSIG=
LFMN 081400Z 12004KT 9999 FEW016 29/23 Q1020 NOSIG=
LFMP 081400Z 09009KT 060V130 9999 FEW060 BKN260 29/17 Q1019
     NOSIG=
LFMT 081400Z 20008KT CAVOK 29/14 Q1020 NOSIG=
LFOB 081400Z NIL=
LFOH 081400Z AUTO 35009KT //// R23///// NSC 24/16 Q1019=
LFOT 081400Z AUTO 12005KT 070V180 9999NDV NSC 33/07 Q1018=
LFPB 081400Z VRB05KT CAVOK 32/10 Q1018 NOSIG=
LFPG 081400Z VRB04KT CAVOK 32/09 Q1018 NOSIG=
LFPN 081400Z 18006KT 130V210 CAVOK 32/10 Q1018 NOSIG=
LFPO 081400Z 23007KT 140V310 CAVOK 32/08 Q1018 NOSIG=
LFQQ 081400Z 21007KT 160V300 CAVOK 32/11 Q1018 NOSIG=
LFRB 081400Z VRB03KT 9999 FEW033 26/08 Q1018 NOSIG=
LFRC 081400Z AUTO 35007KT 320V030 9999NDV SCT017 20/15 Q1020=
LFRD 081400Z AUTO 35007KT 330V040 9999NDV NSC 23/16 Q1019=
LFRG NIL=
LFRK 081400Z 33008KT 300V360 CAVOK 25/16 Q1019 NOSIG=
LFRN 081400Z AUTO 24007KT 160V330 9999 2000NDV R28/0450VP2000D FG
     NSC 32/10 Q1017=
LFRO 081400Z AUTO 01009KT 330V050 9999NDV NSC 20/16 Q1019=
LFRQ 081400Z 36007KT 310V060 CAVOK 26/17 Q1016 NOSIG=
LFRS 081400Z 26006KT 210V310 CAVOK 32/13 Q1017 NOSIG=
LFRT 081400Z 04008KT CAVOK 22/16 Q1018=
LFRZ 081400Z AUTO 07004KT 320V120 9999NDV NSC 32/08 Q1015=
LFSB 081400Z 31005KT 240V360 CAVOK 32/12 Q1020 NOSIG=
LFSF 081400Z AUTO 22005KT 180V270 9999NDV NSC 32/09 Q1019=
LFSN 081400Z VRB04KT CAVOK 32/14 Q1019 NOSIG=
LFSR 081400Z AUTO VRB04KT 9999NDV NSC 32/11 Q1018=
LFST 081400Z VRB02KT CAVOK 32/10 Q1019 NOSIG=
LFTW 081400Z AUTO 19008KT 130V230 9999NDV NSC 32/16 Q1020=
LFVP NIL=
####018000304####
SAPA41 KWBC 081400
METAR
PGSN 081354Z 11009KT 10SM FEW023 28/24 A2992=
PGUA 081355Z AUTO 10009KT 10SM CLR 25/ A2991=
PGUM 081354Z 11008KT 10SM FEW020 28/24 A2990=
PJON NIL=
PKMJ NIL=
PKWA 081400Z AUTO 12004KT 10SM BKN026 BKN080 26/24 A2982=
PWAK 081356Z 08012KT 8SM FEW025 27/25 A2996=
####018001129####
SAFR41 KWBC 081400
METAR
LFAF NIL=
LFBA 081400Z 11011KT 070V140 CAVOK 35/14 Q1016 NOSIG=
LFBC 081400Z AUTO VRB05KT 9999NDV NSC 38/11 Q1014=
LFBL 081400Z 16004KT 100V230 CAVOK 31/11 Q1019 NOSIG=
LFBM 081400Z 10010KT CAVOK 37/18 Q1015=
LFKF 081400Z 21007KT 180V260 9999 FEW033TCU 32/22 Q1019 NOSIG=
LFLD 081400Z 14006KT 090V190 CAVOK 34/10 Q1018=
LFLV 081400Z VRB02KT CAVOK 33/12 Q1019=
LFOE 081400Z 20011KT CAVOK 32/08 Q1018=
LFOP 081400Z VRB03KT CAVOK 31/12 Q1018 NOSIG=
LFPB 081400Z VRB05KT CAVOK 32/10 Q1018 NOSIG=
LFPG 081400Z VRB04KT CAVOK 32/09 Q1018 NOSIG=
LFPV 081400Z AUTO VRB04KT 9999NDV NSC 31/11 Q1019=
LFQB NIL=
LFQQ 081400Z 21007KT 160V300 CAVOK 32/11 Q1018 NOSIG=
LFRH 081400Z 01005KT 330V080 CAVOK 28/05 Q1016=
LFRM NIL=
LFSC NIL=
LFSD 081400Z AUTO 15005KT 080V200 9999NDV NSC 32/11 Q1019=
LFSI 081400Z AUTO VRB04KT 9999NDV NSC 33/09 Q1019=
LFSL 081400Z AUTO 14005KT 090V190 9999NDV NSC 33/12 Q1019=
LFSO 081400Z AUTO VRB04KT 9999NDV NSC 32/12 Q1020=
LFSX 081400Z AUTO VRB02KT 9999NDV NSC 31/11 Q1020=
LFTH 081400Z 22007KT 170V250 9999 FEW026 28/23 Q1020 NOSIG=
####018000373####
SAHA31 KWBC 081400
METAR
KQHA 081355Z VRB01KT 9999 CLR 30/23 A2998 RMK AO2A LTG DSNT W
     SLP150=
MTCA NIL=
MTCH NIL=
MTEG NIL=
MTJA NIL=
MTJE NIL=
MTPP 1400Z 10012G22KT 7000 FEW026 SCT200 31/24 Q1015/8 A2999=
MTPP 1400Z 10012G22KT 7000 FEW026 SCT200 31/24 Q1015.8 A2999=
MTPP 081400Z 7000 FEW026 SCT200 31/24 Q1016 A2999=
MTPX NIL=
MTTP NIL=
####018000028####
SAID31 KWBC 081400
NIL=
####018000373####
SAIE31 KWBC 081400
METAR
EICK 081400Z 20010KT 9999 -RA BKN006 BKN012 BKN038 13/13 Q1016
     TEMPO 2000=
EIDB NIL=
EIDW 081400Z 22011KT 9999 FEW022 SCT040 BKN050 16/10 Q1015
     NOSIG=
EIKN 081400Z 21007KT 170V250 9999 FEW015 FEW018CB BKN030 BKN060
     14/11 Q1014 NOSIG=
EINN 081400Z 21006KT 9000 -RADZ FEW014 SCT018 BKN032 15/13 Q1015
     NOSIG=
####018000366####
SAIO31 KWBC 081400
METAR
FIMP NIL=
FIMR NIL=
FJDG NIL=
FMCH NIL=
FMCV NIL=
FMCZ NIL=
FMEE NIL=
FMMI NIL=
FMMT NIL=
FMNN NIL=
FSIA NIL=
FSSS NIL=
VRMM NIL=
VYMD NIL=
VYYY NIL=
WBGG 081400Z 24004KT 9999 SCT020 BKN150 24/23 Q1013 NOSIG=
WBKK 081400Z 11003KT 9999 FEW014 FEW017CB SCT140 BKN270 25/22
     Q1011 NOSIG=
WBSB NIL=
####018000823####
SAIQ31 KWBC 081400
METAR
KQAD 081355Z AUTO VRB05KT 6000 CLR 45/05 A2954 RMK AO2 SLP001
     T04540053 $=
KQAE 081355Z 36008G16KT 330V030 9000 HZ DU CLR 44/06 A2961 RMK
     SLP025=
KQEZ NIL=
KQMG 081355Z AUTO 08008KT 12SM BKN080 BKN150 21/15 A3019 RMK AO2
     SLP155 T02130148 $=
KQMH NIL=
KQTO 081355Z 29010G15KT 9999 CLR 44/06 A2958 RMK SLP015=
KQTU 081355Z 24010G15KT 9999 CLR 44/M02 A2959 RMK SLP002=
KQTW NIL=
KQTX 081355Z 23010G15KT 9999 CLR 43/M02 A2964 RMK SLP011=
KQTZ 081357Z 32010G17KT 9999 CLR 44/05 A2960 RMK SLP017 QNH1002MB
     ALSTG/SLP ESTMD WND DATA ESTMD=
KQVO NIL=
KQXJ 081355Z 31021G31KT 1600 BLDU BKN000 46/02 A2955 RMK DU BKN000
     SLP008 PA+365 DA+4080=
KQXN NIL=
ORBI 081400Z 31016KT CAVOK 44/06 Q1002 NOSIG=
ORER 081400Z 24007KT CAVOK 43/M02 Q1004=
####018000114####
SAFP20 LFVP 081400
METAR
METAR LFVP 081405Z 12004KT 0600 R26/1000V1600D FG OVC001 13/12
Q1022 NOSIG=
/=
####018000505####
SAIQ32 KWBC 081400
METAR
KQAJ 081355Z 27008G18KT 9999 CLR 44/03 A2967 RMK SLP030 WND DATA
     ESTMD ALSTG/SLP ESTMD=
KQAQ 081355Z 29011G17KT 8000 HZ FU CLR 45/07 A2961 RMK SLP025 PA
     +404 DA +3814=
KQAV NIL=
KQAX NIL=
KQAZ NIL=
KQCO NIL=
KQCT NIL=
KQMA NIL=
KQPA NIL=
KQPB NIL=
KQPC NIL=
KQPD NIL=
KQSE NIL=
KQSL 081355Z 31014KT 9999 CLR 44/03 A2963 RMK SLP023 Q1003MB=
KQTI 081355Z AUTO 23011G15KT 200V270 9999 CLR 43/M01 A2964 RMK AO2
     SLP013 T04311008=
####018000622####
SAPQ31 KWBC 081400
METAR
PGRO 081352Z 11012KT 7SM FEW020 27/24 A2992=
PGSN 081354Z 11009KT 10SM FEW023 28/24 A2992=
PGUM 081354Z 11008KT 10SM FEW020 28/24 A2990=
PGWT NIL=
PKMJ NIL=
PKMR 081357Z 08009KT 15SM FEW015 SCT045 BKN120 OVC300 28/24
     A2979=
PKRO NIL=
PKWA 081400Z AUTO 12004KT 10SM BKN026 BKN080 26/24 A2982=
PTKK 081350Z 05006KT 15SM FEW014 BKN120 OVC280 26/23 A2985=
PTKR 081351Z 09006KT 14SM SCT016CB OVC300 27/24 A2989=
PTPN NIL=
PTRO NIL=
PTSA NIL=
PTTP NIL=
PTYA 081352Z VRB05KT 12SM SCT016CB BKN130 OVC300 27/24 A2990=
PWAK 081356Z 08012KT 8SM FEW025 27/25 A2996=
####018000028####
SAJP41 KWBC 081400
NIL=
####018000091####
SAPQ31 KWBC 081300 RRC
METAR
PTTP 081255Z 18003KT 15SM SCT018TCU BKN300 24/23 A2989=
####018000084####
SPUS72 KWBC 081405
SPECI
KMFE 081402Z 35010KT 10SM BKN010 OVC014 27/24 A2983=
####018000810####
SAJP31 KWBC 081400
METAR
RJAA 081400Z 15004KT 9999 FEW015 FEW020CB BKN100 22/22 Q1011
     NOSIG=
RJAA 081400Z 15004KT 9999 FEW015 FEW020CB BKN100 22/22 Q1011 NOSIG
     RMK 1CU015 1CB020 5AC100 A2986 LIGHTNING S=
RJAH 081400Z 13004KT 100V160 9999 FEW030 BKN/// 24/23 Q1010=
RJCC 081400Z 20003KT 1100 R01R/0800V1500N -DZ BR BKN002 17/17
     Q1010=
RJCC 081400Z 20003KT 1100 R01R/0800V1500N -DZ BR BKN002 17/17
     Q1010 RMK 7ST002 A2985=
RJCH NIL=
RJFK NIL=
RJFT NIL=
RJFU NIL=
RJNN NIL=
RJOO NIL=
RJSS NIL=
RJTT 081400Z 18010KT 9999 FEW008 SCT140 BKN/// 25/22 Q1010=
RJTT 081400Z 18010KT 9999 FEW008 SCT140 BKN/// 25/22 Q1010 RMK
     1ST008 4AC140 A2984=
RODN 081355Z AUTO 18012KT 9999 SCT017 BKN024 OVC200 29/26 A2987
     RMK AO2 SCT V BKN SLP114 T02860263=
####018000312####
SAJP42 KWBC 081400
METAR
RJDK NIL=
RJDM NIL=
RJDO NIL=
RJDT NIL=
RJEB NIL=
RJEC NIL=
RJEO NIL=
RJER NIL=
RJFA NIL=
RJFC NIL=
RJFE NIL=
RJFG NIL=
RJFM NIL=
RJFN NIL=
RJFO NIL=
RJFR 081400Z 06010KT 8000 FEW025 BKN/// 25/22 Q1008=
RJFY NIL=
RJFZ NIL=
RJKA NIL=
RJKB NIL=
####018000331####
SAJP43 KWBC 081400
METAR
RJKI NIL=
RJKN NIL=
RJNF NIL=
RJNG NIL=
RJNH NIL=
RJNO NIL=
RJNT NIL=
RJNY NIL=
RJOA NIL=
RJOB NIL=
RJOC NIL=
RJOE NIL=
RJOF NIL=
RJOI 081400Z 00000KT 9000 HZ FEW045 SCT120 OVC230 26/22 A2982 RMK
     SLP098 LAST T02610217=
RJOK NIL=
RJOM NIL=
RJOP NIL=
RJOR NIL=
####018000028####
SAJP44 KWBC 081400
NIL=
####018000385####
SAKO31 KWBC 081400
METAR
RKNY 081400Z AUTO 30003KT3000NDV ///092 20/18 Q1009=
RKPC 081400Z 02002KT 4000 BR SCT030 OVC120 23/20 Q1009 NOSIG=
RKPK 081400Z 26002KT 9999 SCT040 BKN200 23/19 Q1010 NOSIG=
RKSI 081400Z 32003KT 270V350 8000 FEW030 OVC110 22/19 Q1009
     NOSIG=
RKSS 081400Z 34005KT 8000 SCT030 OVC100 23/19 Q1009 BECMG 4500
     BR=
RKTN NIL=
RKTU NIL=
####018000028####
SAKN41 KWBC 081400
NIL=
####018000212####
SAJP45 KWBC 081400
METAR
RJTJ NIL=
RJTK NIL=
RJTL NIL=
RJTO NIL=
RJTQ NIL=
RJTR NIL=
RJTU NIL=
RJTX NIL=
RJTY 081355Z AUTO 15004KT 9999 SCT018 24/22 A2990 RMK AO2 SLP117
     T02380217 $=
####018000028####
SAKO41 KWBC 081400
NIL=
####018000028####
SAMM31 KWBC 081400
NIL=
####018000027####
SALJ32 LJLJ 081400
NIL
####018000348####
SACZ43 LKPW 081400
METAR LKCV 081400Z VRB02KT CAVOK 25/07 Q1022 NOSIG=
METAR LKKB 081400Z VRB02KT CAVOK 25/08 Q1022 NOSIG=
METAR LKLN 081400Z AUTO VRB03KT CAVOK 26/09 Q1022=
METAR LKNA 081400Z 34005KT CAVOK 23/08 Q1023 NOSIG=
METAR LKPD 081400Z VRB03KT CAVOK 26/05 Q1022 NOSIG=
METAR COR LKPO 081400Z 34003KT CAVOK 24/11 Q1022 NOSIG=
####018000128####
SAMX31 KWBC 081445
METAR
MNMG 081400Z 26006KT 9000 FEW015CB SCT018 24/23 Q1012 A2989
     CB/W/NW/N/NE/E/SE RA/N/W/E/S=
####018001576####
SAZZ40 KAWN 081400 RRM
METAR BIKF 081400Z 02020KT 9999 SCT024 BKN100 12/05 Q0995=
METAR KDOV 081355Z VRB04KT 10SM SCT120 27/22 A3002 RMK AO2A SLP169
      T02690224 $=
METAR KNID 081356Z 00000KT 10SM CLR 22/04 A2989 RMK AO2 SLP100 T02170039
      $=
METAR KNSE 081356Z 33003KT 9SM FEW020 SCT250 29/24 A3004 RMK AO2 SLP157
      T02940239 $=
METAR KNUQ 081356Z AUTO 04003KT 10SM OVC011 15/12 A2994 RMK AO2 SLP141
      T01500122 TSNO=
METAR KVBG 081355Z 32004KT 4SM BR OVC004 12/11 A2995 RMK AO2 CIG 002V006
      SLP132 T01170111 $=
METAR MNMG 081400Z 26006KT 9000 FEW015CB SCT018 24/23 Q1012 A2989 CB/W/NW/N/NE/E/SE
      RA/N/W/E/S=
METAR MYGF 081400Z 11006KT 9999 SCT018CB 30/24 A2998 RMK CB S/SW=
METAR OIAW 081400Z 24004KT CAVOK 48/05 Q0996 A2943=
METAR OIFM 081400Z 16006KT CAVOK 39/05 Q1015 A2997=
METAR OIKB 081400Z 17006KT 4000 HZ NSC 36/27 Q0999 A2951=
METAR OIKK 081400Z 32006KT CAVOK 36/M02 Q1015 A2998=
METAR OIMM 081400Z 04014KT CAVOK 37/00 Q1013 A2994=
METAR OISS 081400Z 12006KT CAVOK 39/06 Q1012 A2989=
METAR OITT 081400Z 23006KT CAVOK 38/03 Q1013 A2992=
METAR OIZH 081400Z 04010KT CAVOK 36/M03 Q1012 A2988=
METAR ORBI 081400Z 31016KT CAVOK 44/06 Q1002 NOSIG=
METAR ORMM 081400Z 32013KT CAVOK 48/M01 Q0997=
METAR PABA 081401Z AUTO 29016KT 10SM BKN040 07/04 A3001 RMK AO2 SLP161
      T00670044=
METAR SBCB 081400Z 09011KT CAVOK 24/17 Q1018=
METAR SVJC 081400Z 10012KT 9999 FEW030 28/24 Q1012=
METAR TKPK 081400Z 06014KT 9999 FEW017 30/25 Q1016=
METAR TNCM 081400Z 07013KT 9999 SCT021 30/23 Q1016=
####018000169####
SACY31 LCLK 081400
METAR LCLK 081400Z 21017KT 9999 FEW030 29/23 Q1007 NOSIG=
METAR LCPH 081400Z 24008KT 210V280 9999 FEW020 29/23 Q1008=
METAR LCNC 081400Z NIL=
####018000468####
SAMS32 WMKK 081400
METAR 081400Z
METAR WBGG 081400Z 24004KT 9999 SCT020 BKN150 24/23 Q1013 NOSIG=
METAR WBKK 081400Z 11003KT 9999 FEW014 FEW017CB SCT140 BKN270 25/22
Q1011
     NOSIG=
METAR WMKJ 081400Z 16001KT 9999 FEW022 BKN300 26/24 Q1011=
METAR WMKK 081400Z 00000KT 9999 FEW030 BKN280 27/25 Q1011 NOSIG=
METAR WMKP 081400Z 00000KT 9000 FEW025 SCT140 BKN270 29/25 Q1011
NOSIG=
METAR WMSA 081400Z 24001KT 9000 FEW026 SCT140 BKN280 28/25 Q1011=
####018000448####
SAEW35 LEMM 081400
METAR LEAB 081400Z 15014KT CAVOK 35/M02 Q1021 NOSIG=
METAR LEBZ 081400Z 26011KT 210V310 CAVOK 36/13 Q1014=
METAR LELN 081400Z 15008KT 060V200 9999 FEW050TCU 32/09 Q1018=
METAR LESA 081400Z 17009KT 120V220 9999 FEW048 35/14 Q1017=
METAR LETO 081400Z 22005KT 9999 -SHRA FEW040 FEW060CB 34/07 Q1018
NOSIG=
METAR LEVD 081400Z 19015KT 160V230 CAVOK 35/06 Q1017=
METAR LEVS 081400Z 36010KT 320V040 CAVOK 29/13 Q1018=
####018000321####
SARO33 LROM 081400
METAR LRBC 081400Z 03008KT 350V060 9999 SCT023 BKN040 23/17 Q1017=
METAR LRCV 081400Z 30006KT 9999 SCT040 24/14 Q1017=
METAR LRIA 081400Z 31012KT 270V350 9999 SCT022 22/17 Q1017=
METAR LRSV 081400Z 32020KT 9999 FEW014 BKN049 17/14 Q1019=
METAR LRTC 081400Z 35012KT 9999 BKN040 24/17 Q1014=
####018000419####
SARO32 LROM 081400
METAR LRAR 081400Z 01008KT 330V070 9999 BKN045 23/13 Q1020=
METAR LRBM 081400Z 27006KT 220V330 9999 FEW043 BKN050 22/15 Q1019=
METAR LRCL 081400Z 31004KT 270V350 9999 FEW024 BKN040 19/13 Q1020
0821//95=
METAR LROD 081400Z 01010KT 340V040 CAVOK 22/12 Q1020=
METAR LRSM 081400Z 34006KT 310V020 9999 BKN044 23/13 Q1020=
METAR LRTM 081400Z 23004KT 200V270 9999 FEW033 BKN040 19/15 Q1020=
####018000393####
SAPL31 EPWA 081400
METAR EPWA 081400Z 30011KT 260V340 CAVOK 24/11 Q1020 NOSIG=
METAR EPGD 081400Z 08010KT 9999 FEW045 23/12 Q1021=
METAR EPKK 081400Z VRB04KT CAVOK 24/06 Q1021=
METAR EPPO 081400Z 28005KT CAVOK 26/07 Q1021=
METAR EPRZ 081400Z 31006KT 240V020 CAVOK 24/07 Q1021=
METAR EPBY 081400Z 29005KT 230V330 CAVOK 26/08 Q1021=
METAR EPZG 081400Z 22002KT CAVOK 27/07 Q1021=
####018000608####
SAEW31 LEMM 081400
METAR LEMD 081400Z 32008KT 270V350 9999 SCT035CB 32/13 Q1018   WS
ALL RWY NOSIG=
METAR LEBL 081400Z 20013KT CAVOK 29/19 Q1019 NOSIG=
METAR LEPA 081400Z 23013KT CAVOK 30/16 Q1020 NOSIG=
METAR LEZL 081400Z 21007KT 140V280 9999 FEW030 33/15 Q1015 NOSIG=
METAR LEMG 081400Z 16009KT 110V210 9999 FEW040 29/15 Q1017 NOSIG=
METAR LEVC 081400Z 13012KT CAVOK 32/11 Q1018 NOSIG=
METAR LEAL 081400Z 10010KT 060V140 CAVOK 30/17 Q1019 NOSIG=
METAR LEIB 081400Z 08006KT 020V140 CAVOK 29/20 Q1019 NOSIG=
METAR LELC 081400Z NIL=
METAR LEVX 081400Z 03005KT 8000 FEW030 22/18 Q1016=
####018000701####
SAKZ31 RUMS 081400
METAR UAAA 081400Z 16002MPS 140V200 9999 SCT050CB BKN100 25/13 Q1013
88CLRD65 TEMPO TS=
METAR UACC 081400Z 33007MPS CAVOK 22/03 Q1009 220/0070 NOSIG RMK
QFE725/0967=
METAR UAKK 081400Z 14003MPS 110V170 9999 SCT050CB BKN/// 20/08 Q1007
230///70 TEMPO TSRA RMK QFE709/0946=
METAR UAOO 081400Z NIL=
METAR UARR 081400Z NIL=
METAR UATE 081400Z 01008MPS CAVOK 38/07 Q1009 300///70 NOSIG RMK
QFE755/1007=
METAR UATG 081400Z 33006G09MPS CAVOK 39/08 Q1008 32CLRD70 NOSIG RMK
QFE758/1011 =
METAR UATT 081400Z 04006MPS 010V070 9999 NSC 32/01 Q1010 13CLRD70
NOSIG RMK QFE738/0985=
METAR UAUU 081400Z 35008MPS CAVOK 25/M03 Q1012 33CLRD70 NOSIG RMK
QFE743/0991=
####018000199####
SALJ31 LJLJ 081400
METAR LJLJ 081400Z 11004KT 060V170 9999 FEW043 25/10 Q1022 NOSIG=
METAR LJMB 081400Z VRB05KT 9999 FEW040 26/09 Q1021=
METAR LJPZ 081400Z 31008KT 280V340 CAVOK 26/12 Q1021=
####018000027####
SAKY31 RUMS 081400
NIL
####018000166####
SAAY31 RUMS 081400
METAR UDYZ 081400Z VRB02MPS 9999 FEW050 38/12 Q1007 09010070 NOSIG=
METAR UDSG 081400Z 07011MPS 9999 SCT050TCU 27/15 Q1015 02CLRD70
NOSIG=
####018000325####
SAPL32 EPWA 081400
METAR EPKT 081400Z 01005KT CAVOK 23/08 Q1022=
METAR EPLL 081400Z 33007KT 300V360 CAVOK 24/06 Q1022=
METAR EPSC 081400Z 08004KT CAVOK 26/10 Q1021=
METAR EPWR 081400Z VRB02KT CAVOK 26/08 Q1022=
METAR EPBY 081400Z 29005KT 230V330 CAVOK 26/08 Q1021=
METAR EPZG 081400Z 22002KT CAVOK 27/07 Q1021=
####018000866####
SANT31 KWBC 081400
METAR
BGBW 081355Z NIL=
BGBW 081350Z 25008KT 220V290 9999 FEW040 14/05 Q1008 RMK 1SC=
BGCO 081355Z NIL=
BGGH 081350Z 21005KT 9999 FEW008 BKN012 07/03 Q1009=
BGJN 081355Z NIL=
BGKK 081350Z 02003KT 9999 FEW100 SCT120 09/04 Q1009=
BGSF 081350Z 24007KT 170V260 9999 FEW040 SCT070 17/01 Q1007=
BGTL 081355Z AUTO 26004KT 9999 CLR 05/04 A2982 RMK AO2 SLP102
     T00540042=
BIAR 081400Z 35015KT 9999 BKN020 09/07 Q0996=
BIEG 081400Z 36011KT 4000 -RABR VV006 08/08 Q0992=
BIKF 081400Z 02020KT 9999 SCT024 BKN100 12/05 Q0995=
BIRK 081400Z 01020G30KT 290V180 9999 FEW020 SCT050 11/06 Q0994=
GVAC 081400Z 07009KT 9999 BKN015 BKN018 25/20 Q1013 NOSIG=
GVPR NIL=
LPBJ NIL=
LPLA 081400Z 00000KT 9999 SCT013 BKN028 21/19 Q1024=
TXKF 081355Z 12015KT 9999 SCT020CB SCT033 BKN130 BKN300 27/24
     Q1019 RMK CB DSNT SE-SW=
####018001347####
SAPA31 KWBC 081400
METAR
AGGG NIL=
AGGH NIL=
ANAU NIL=
AYPY NIL=
PGNT NIL=
PGRO 081352Z 11012KT 7SM FEW020 27/24 A2992=
PGSN 081354Z 11009KT 10SM FEW023 28/24 A2992 RMK AO2 SLP128
     T02780244 403720267=
PGUA 081355Z AUTO 10009KT 10SM CLR 25/ A2991 RMK AO2 RAB1325E1335
     SLP110 P0001 T0253 402960252 VISNO RWY24L $=
PGUM 081354Z 11008KT 10SM FEW020 28/24 A2990 RMK AO2 SLP117
     T02780244 403220261=
PGWT NIL=
PHJH NIL=
PHJR 081353Z VRB03KT 10SM FEW060 22/17 A3002 RMK AO2 SLP170
     T02220172=
PHMK 081354Z AUTO 03008KT 10SM FEW060 22/17 A3002 RMK AO2 SLP167
     T02170172 TSNO=
PJON NIL=
PKMJ NIL=
PKMR 081357Z 08009KT 15SM FEW015 SCT045 BKN120 OVC300 28/24 A2979
     RMK SLP088 T02780238=
PKWA 081400Z AUTO 12004KT 10SM BKN026 BKN080 26/24 A2982 RMK AO2
     T02580235=
PLCH NIL=
PMDY 081356Z AUTO 00000KT 10SM CLR 24/20 A3007 RMK AO2 TSNO
     T02380200 SLP488=
PTKK 081350Z 05006KT 15SM FEW014 BKN120 OVC280 26/23 A2985 RMK
     SLP111 T02610228=
PTKR 081351Z 09006KT 14SM SCT016CB OVC300 27/24 A2989 RMK CB ALQDS
     MOV W SLP121 T02720240=
PTPN NIL=
PTRO NIL=
PTSA NIL=
PTTP NIL=
PTYA 081352Z VRB05KT 12SM SCT016CB BKN130 OVC300 27/24 A2990 RMK
     LTGIC SW-W CB VC SE-SW-NW SLP123 T02740238=
PWAK 081356Z 08012KT 8SM FEW025 27/25 A2996 RMK AO2A=
####018000140####
SAPA31 KWBC 081300 RRD
METAR
PTTP 081255Z 18003KT 15SM SCT018TCU BKN300 24/23 A2989 RMK TCU
     E-S-SW SLP121 T02410229 403050227=
####018000335####
SAPH31 KWBC 081400
METAR
RPLB 081400Z 01006KT 9999 FEW020 SCT080 29/24 Q1011 NOSIG=
RPLC NIL=
RPLL 081400Z 22003KT 9000 FEW025 30/26 Q1011 NOSIG RMK A2986=
RPMC NIL=
RPMD NIL=
RPMK NIL=
RPML NIL=
RPMM NIL=
RPMT NIL=
RPMZ NIL=
RPUW NIL=
RPVM 081400Z 00000KT 9999 FEW020 BKN090 29/26 Q1011 A2986=
RPWD NIL=
####018000514####
SAPO31 KWBC 081400
METAR
LPAZ NIL=
LPBJ NIL=
LPFL NIL=
LPFR 081400Z 25010KT CAVOK 24/20 Q1016=
LPHR NIL=
LPLA 081400Z 00000KT 9999 SCT013 BKN028 21/19 Q1024=
LPMA 081400Z VRB08G18KT 9999 FEW016 24/17 Q1020 RS17008KT
     0520007KT 2336017KT=
LPMR NIL=
LPMT NIL=
LPOV NIL=
LPPD NIL=
LPPR 081400Z 20007KT 160V230 9999 FEW006 SCT250 24/18 Q1016=
LPPS 081400Z 03012KT 350V060 9999 FEW016 SCT030 22/15 Q1021=
LPPT 081400Z 26010KT 9999 FEW030 29/19 Q1016 NOSIG=
LPST NIL=
LPTN NIL=
####018001033####
SARA31 KWBC 081400
METAR
UAAA NIL=
UACC NIL=
UAFM NIL=
UAFO NIL=
UAFP NIL=
UAOO NIL=
UARR NIL=
UATE NIL=
UATG NIL=
UATT NIL=
UBBB 081400Z 35018KT CAVOK 30/29 Q1009 NOSIG RMK R88CLRD70=
UBBG 081400Z 09014KT 9999 FEW083 35/16 Q1009 NOSIG RMK
     R12L/CLRD70=
UBEE NIL=
UEEE NIL=
UGEE NIL=
UGEL NIL=
UGGG NIL=
UGGN NIL=
UGMM NIL=
UGSS NIL=
UHHH NIL=
UHMA NIL=
UHMD NIL=
UHME NIL=
UHML NIL=
UHMM NIL=
UHMO NIL=
UHMP NIL=
UHPP NIL=
UHSS NIL=
UHWW NIL=
UIAA NIL=
UIBB NIL=
UIII NIL=
UIUU NIL=
ULAA NIL=
UMBB NIL=
UMGG NIL=
UMII NIL=
UMMG NIL=
UMMM NIL=
UMMS NIL=
UNAA NIL=
UNNN NIL=
UNNT NIL=
USNN NIL=
UTAA NIL=
UTAK NIL=
UTAT NIL=
UTAV NIL=
UTDD NIL=
UTDL NIL=
UTEE NIL=
UTKA NIL=
UTKF NIL=
UTKK NIL=
UTNK NIL=
UTNN NIL=
UTNR NIL=
UTNU NIL=
UTSA NIL=
UTSB NIL=
UTSD NIL=
UTSK NIL=
UTSS NIL=
UTTA NIL=
UTTR NIL=
UTTT 081400Z 35002MPS CAVOK 37/08 Q1009 R08R/CLRD70 NOSIG=
UTTW NIL=
UUEE NIL=
####018000093####
SARA31 KWBC 081400 CCA
METAR
UTST 081400Z 27001MPS CAVOK 38/13 Q1004 R88/CLRD70 NOSIG=
####018001682####
SAUS31 KWBC 081400
METAR
KABQ 081356Z 10013G20KT 10SM FEW050 SCT100 BKN200 20/09 A3030=
KATL 081352Z 34005KT 10SM CLR 30/20 A3006=
KBGR 081353Z 18008KT 10SM FEW015 OVC045 23/20 A3010=
KBHM 081353Z 34003KT 10SM CLR 30/22 A3008=
KBNA 081353Z VRB05KT 10SM FEW060 SCT200 31/21 A3009=
KBOS 081354Z 15008KT 10SM SCT220 26/20 A3009=
KBWI 081354Z 12008KT 5SM HZ FEW024 31/22 A3002=
KCHS 081356Z 33007KT 8SM CLR 30/21 A2996=
KCLE 081351Z 19004KT 10SM FEW060 SCT100 29/19 A3007=
KCLT 081352Z 02007KT 6SM HZ CLR 31/19 A3003=
KCVG 081352Z 21005KT 6SM HZ FEW090 29/22 A3008=
KDEN 081353Z 05005KT 1 1/2SM BR BKN005 OVC008 15/14 A3033=
KDFW 081353Z 13004KT 10SM FEW013 BKN050 OVC060 26/24 A3004=
KDTW 081353Z 00000KT 8SM FEW200 30/22 A3003=
KEWR 081351Z 20008KT 8SM SCT008 BKN013 OVC025 27/24 A3005=
KFLL 081353Z 07008KT 10SM SCT023 30/24 A2996=
KIAD 081352Z 00000KT 6SM HZ CLR 31/23 A3002=
KIAH 081353Z 09008KT 6SM TSRA BR FEW007 SCT025CB BKN070 OVC130
     24/24 A2998=
KIND 081354Z 24007KT 9SM FEW180 SCT230 29/22 A3004=
KJAX 081356Z 29005KT 10SM CLR 28/20 A3002=
KJFK 081351Z 15006KT 8SM SCT020 BKN065 BKN130 BKN250 27/22
     A3006=
KLAS 081356Z 20007KT 10SM SCT150 27/M02 A2986=
KLGA 081351Z 18006KT 6SM -RA BKN014 BKN032 OVC049 27/23 A3004=
KLGC 081355Z AUTO 32003KT 10SM CLR 31/21 A3005=
KLIT 081353Z 26004KT 10SM SCT011 BKN150 BKN250 27/24 A3010=
KLOU 081353Z 14004KT 6SM HZ CLR 29/22 A3007=
KMCI 081353Z 03005KT 1 3/4SM BR BKN004 OVC015 24/23 A3011=
KMCO 081353Z VRB03KT 10SM SCT026 SCT250 27/19 A3002=
KMEM 081353Z 32004KT 10SM FEW150 SCT250 30/22 A3009=
KMIA 081353Z 07008KT 10SM BKN022TCU BKN130 BKN300 29/24 A2997=
####018000028####
SARS32 KWBC 081400
NIL=
####018000028####
SARS31 KWBC 081400
NIL=
####018000028####
SARS33 KWBC 081400
NIL=
####018000028####
SARS41 KWBC 081400
NIL=
####018001053####
SASA31 KWBC 081400
METAR
SEGU NIL=
SEQU NIL=
SKBO NIL=
SKBQ 081400Z 20004KT 8000 SCT010 BKN070 28/26 A2992 HZ=
SKCG NIL=
SKCL NIL=
SKLT NIL=
SKRG NIL=
SKSP NIL=
SMNI NIL=
SMZO NIL=
SMZY NIL=
SOCA 081400Z 11007KT 070V170 9999 BKN019 SCT043 29/24 Q1013
     NOSIG=
SPIM 081400Z 19003KT 7000 FEW011 OVC022 17/13 Q1015 NOSIG RMK BIRD
     HAZARD RWY15 PP000=
SPQT 081400Z /////KT 9999 SCT017 27/24 Q1013 NOSIG RMK BIRD HAZARD
     RWY 06/24 PP000=
SPQU 081400Z VRB03KT CAVOK 15/M10 Q1025 NOSIG RMK PP000=
SPSO 081400Z 12004KT CAVOK 16/13 Q1015 RMK PP000=
SPTN 081400Z 20003KT 8000 OVC013 12/08 Q1014 RMK PP000=
SPYL NIL=
SPZO 081400Z 00000KT 9999 FEW033 SCT046 11/03 Q1034 NOSIG RMK
     PP000=
SVBC 081400Z OOOOOKT 9999 SCT010 31/22 Q1014=
SVMC 081400Z 36004KT 9999 SCT013 30/25 Q1012=
SVMG 081400Z 07012KT 9999 SCT010 SCT080 30/25 Q1013 NOSIG=
SVMI 081400Z 00000KT 9999 FEW016 BKN300 27/24 Q1015 NOSIG=
SYCJ 081400Z 11012KT 9999 SCT019 SCT039 BKN300 28/26 Q1013 RESH
     NOSIG=
SYTM NIL=
####018001215####
SASA32 KWBC 081400
METAR
SCAR 081400Z VRB01KT 9999 OVC021 15/09 Q1016=
SCBA 081400Z 31017KT 9999 FEW030 SCT035 M01/M04 Q1003=
SCCF 081400Z 10021KT CAVOK 09/M09 Q1025=
SCCH 081400Z 03010KT 2000 DZ SCT010 OVC025 09/08 Q1021=
SCCI 081400Z 30021KT 9999 BKN018 M02/M04 Q0985 NOSIG=
SCDA 081400Z 01006KT 9999 OVC026 15/08 Q1017=
SCEL 081400Z 30004KT 5000 HZ FEW130 05/03 Q1023 NOSIG=
SCFA 081400Z VRB02KT 9999 BKN023 14/07 Q1017 NOSIG=
SCGE 081400Z 33005KT 5000 VCRA BKN003 10/10 Q1019=
SCIE 081400Z 29012KT 9999 BKN008 OVC012 13/11 Q1020=
SCIP 081400Z 10003KT 9999 SCT020 18/17 Q1023=
SCTE 081400Z 18007KT 9999 BKN009 BKN025 06/06 Q1016 NOSIG=
SGAS 081400Z 12006KT 9000 BKN010 OVC015 18/15 Q1016=
SGES 081400Z 15006KT 9999 FEW030 BKN080 20/17 Q1016=
SLCB 081400Z 00000KT 6000 FEW027 18/08 Q1027=
SLCZ NIL=
SLLP 081400Z VRB02KT 9999 FEW015 07/M02 Q1038=
SLTJ 081400Z 00000KT 9999 SKC 15/07 Q1021=
SLTR NIL=
SLVR 081400Z 16012KT 9999 FEW027 BKN070 BKN200 21/16 Q1016=
SUAA 081400Z 27006KT CAVOK 08/05 Q1019=
SUCA NIL=
SULS 081400Z 27011KT CAVOK 12/04 Q1019=
SUMU 081400Z 27005KT CAVOK 13/05 Q1019 NOSIG=
SUPE NIL=
SURV NIL=
SUSO 081400Z 12005KT CAVOK 11/05 Q1020=
####018000167####
SASA41 KWBC 081400
METAR
SEMT NIL=
SEPA NIL=
SKBG NIL=
SKMD NIL=
SKPE NIL=
SKSM NIL=
SKVG NIL=
SMJP 081400Z 10010KT 9999 SCT020 31/24 Q1013 NOSIG=
####018000331####
SASA42 KWBC 081400
METAR
SCAC NIL=
SCHA NIL=
SCSE 081400Z 31003KT CAVOK 11/08 Q1018 NEFO PLAYA SKC=
SCTC 081400Z 30006KT 260V340 9999 FEW009 BKN015 11/09 Q1017=
SCTI NIL=
SCVD 081400Z 26010KT 9999 BKN020TCU 10/09 Q1016 HR90=
SELT NIL=
SUAG NIL=
SUDU 081400Z 00000KT CAVOK 11/04 Q1020=
SUPU NIL=
SUTB NIL=
####018000028####
SASD41 KWBC 081400
NIL=
####018000313####
SASD43 KWBC 081400
METAR
OEMK NIL=
OEML NIL=
OEMU NIL=
OENG NIL=
OEOA NIL=
OEOF NIL=
OEOH NIL=
OEOS NIL=
OEOT NIL=
OEPA NIL=
OERC NIL=
OERF NIL=
OERG NIL=
OERL NIL=
OERR NIL=
OERX NIL=
OERY 081400Z 05020KT 6000 BLDU SKC 43/00 Q1006 NOSIG=
OESH NIL=
OESK NIL=
OESM NIL=
####018000028####
SASD42 KWBC 081400
NIL=
####018000092####
SAUS31 KWBC 081400 CCA
METAR
KLAX 081353Z 27006KT 7SM BCFG FEW009 OVC011 16/13 A2992=
####018000028####
SASD44 KWBC 081400
NIL=
####018001088####
SAUS31 KWBC 081400 RRA
METAR
KMSP 081353Z 27005KT 10SM CLR 23/16 A3011=
KMSY 081353Z 09005KT 10SM SCT022 BKN250 29/23 A3004=
KOAK 081353Z 29010KT 8SM OVC007 14/11 A2995=
KOKC 081352Z 33004KT 10SM BKN007 BKN200 26/23 A3007=
KONT 081353Z 20005KT 2SM BR OVC009 15/13 A2992=
KORD 081351Z 25004KT 6SM -RA BR FEW014 SCT026 OVC040 24/22
     A3003=
KORF 081351Z 07009KT 10SM FEW015 SCT080 BKN100 27/22 A2999=
KPBI 081353Z 06005KT 10SM BKN024CB BKN031 BKN055 32/28 A2997=
KPHF 081354Z 09008KT 10SM FEW021 28/22 A3001=
KPHL 081354Z 14005KT 7SM FEW028 SCT110 28/21 A3004=
KPHX 081351Z 05004KT 10SM SCT140 33/01 A2981=
KPIT 081351Z 00000KT 7SM FEW055 28/18 A3009=
KRDU 081351Z 36004KT 6SM HZ SCT080 BKN250 31/19 A2999=
KSAN 081351Z 31003KT 10SM OVC013 16/14 A2993=
KSEA 081353Z 02006KT 10SM CLR 21/12 A2997=
KSFO 081356Z 29009KT 10SM OVC008 13/10 A2995=
KSTL 081351Z 33003KT 10SM -RA FEW009 SCT025TCU BKN075 BKN250 26/24
     A3006=
KSWF NIL=
KTEB 081351Z 12006KT 3SM HZ FEW019 OVC025 27/22 A3004=
KTPA 081353Z 00000KT 10SM FEW030 SCT200 28/21 A3001=
####018001622####
SASP31 KWBC 081400
METAR
LEAL 081400Z 10010KT 060V140 CAVOK 30/17 Q1019 NOSIG=
LEAM 081400Z 09015KT 070V130 9999 FEW050 38/07 Q1015=
LEAS 081400Z 08005KT 030V140 9999 FEW015 26/19 Q1015 NOSIG=
LEBB 081400Z 30005KT 250V330 9999 FEW025 26/20 Q1016 TEMPO
     SCT030CB=
LEBL 081400Z 20013KT CAVOK 29/19 Q1019 NOSIG=
LECO 081400Z VRB08KT CAVOK 25/19 Q1016=
LEGE 081400Z 16008KT 110V210 CAVOK 33/18 Q1019=
LEGR 081400Z 16013KT 120V200 9999 FEW060 39/06 Q1017=
LEIB 081400Z 08006KT 020V140 CAVOK 29/20 Q1019 NOSIG=
LEJR 081400Z 22008KT 170V250 CAVOK 31/16 Q1015=
LELC 081400Z NIL=
LELL 081400Z 13007KT 090V170 CAVOK 31/13 Q1019=
LEMD 081400Z 32008KT 270V350 9999 SCT035CB 32/13 Q1018 WS ALL RWY
     NOSIG=
LEMG 081400Z 16009KT 110V210 9999 FEW040 29/15 Q1017 NOSIG=
LEMH 081400Z 14006KT 050V200 CAVOK 29/21 Q1020=
LEPA 081400Z 23013KT CAVOK 30/16 Q1020 NOSIG=
LEPP 081400Z 17011KT 150V210 9999 FEW064 36/13 Q1017=
LERS 081400Z 20009KT 170V240 CAVOK 30/12 Q1019=
LESO 081400Z VRB04KT CAVOK 27/21 Q1015=
LEST 081400Z 26011KT 210V290 9999 FEW035 27/20 Q1016 NOSIG=
LETO 081400Z 22005KT 9999 -SHRA FEW040 FEW060CB 34/07 Q1018
     NOSIG=
LEVC 081400Z 13012KT CAVOK 32/11 Q1018 NOSIG=
LEVD 081400Z 19015KT 160V230 CAVOK 35/06 Q1017=
LEVS 081400Z 36010KT 320V040 CAVOK 29/13 Q1018=
LEVT 081400Z VRB02KT 9999 FEW050 33/18 Q1017=
LEVX 081400Z 03005KT 8000 FEW030 22/18 Q1016=
LEXJ 081400Z 25006KT 210V300 9999 FEW018 26/19 Q1016=
LEZG 081400Z 09008KT 060V120 9999 FEW035 FEW040CB SCT070 38/10
     Q1016=
LEZL 081400Z 21007KT 140V280 9999 FEW030 33/15 Q1015 NOSIG=
####018000028####
SATN41 KWBC 081400
NIL=
####018000300####
SAUS20 KNKA 081406
SPECI KALI 081405Z AUTO 04011G16KT 10SM BKN007 BKN015 26/26 A2986 
    RMK AO2 CIG 005V010=
SPECI KDAL 081405Z 13007KT 9SM BKN015 BKN026 OVC047 26/24 A3004 RMK 
    AO2 BKN015 V SCT=
SPECI KTXK 081405Z VRB04KT 10SM BKN010 OVC080 26/23 A3008 RMK AO2 
    CIG 007V013=
####018000096####
SPUS73 KWBC 081405
SPECI
KJLN 081402Z 09005KT 1SM RA BR FEW004 BKN013 OVC055 22/22 A3008=
####018000631####
SATS31 KWBC 081400
METAR
DTMB 081400Z 05012KT CAVOK 29/18 Q1018 NOSIG=
DTTA 081400Z 36010KT CAVOK 29/20 Q1019 NOSIG=
DTTB 081400Z 36012KT CAVOK 30/18 Q1020=
DTTD 081400Z 08006KT CAVOK 34/08 Q1018=
DTTD 081400Z 08006KT CAVOK 34/08 Q1018 RMK SIROCCO=
DTTG 081400Z 08010KT CAVOK 33/16 Q1017 NOSIG=
DTTJ 081400Z 08012KT CAVOK 30/20 Q1017 NOSIG=
DTTK 081400Z 04004KT CAVOK 37/09 Q1016 SIROCCO=
DTTL 081400Z 36008KT CAVOK 30/21 Q1018=
DTTN 081400Z 31008KT CAVOK 35/15 Q1017=
DTTR 081400Z 05010KT CAVOK 37/05 Q1018=
DTTX 081400Z 13008KT CAVOK 30/21 Q1018 NOSIG=
DTTZ 081400Z 04002KT CAVOK 37/22 Q1016 NOSIG=
####018000089####
SPUS73 KWBC 081405
SPECI
KLAR 081402Z AUTO 00000KT 10SM BKN006 OVC017 10/09 A3042=
####018000098####
SAUK42 KWBC 081350 RRE
METAR
EGOV 081350Z 19016KT 9999 -RA FEW018 BKN080 17/13 Q1017 NOSIG=
####018000073####
SAUK41 KWBC 081350 RRE
METAR
EGDM 081350Z NIL=
EGDY 081350Z NIL=
####018000363####
SAVN42 KWBC 081400
METAR
SVPC 081400Z NIL=
SVPM 081400Z 00000KT 9999 BKN045 XX/XX Q1018=
SVPR NIL=
SVSA 081400Z 00000KT 9999 BKN020 25/20 Q1016=
SVSE NIL=
SVSO NIL=
SVSP NIL=
SVSR NIL=
SVST NIL=
SVSZ 081400Z 00000KT 9999 SCT020 SCT030 XX/XX Q1013=
SVTM NIL=
SVVA 081400Z 09002KT 9999 SCT016 BKN100 26/24 Q1015=
SVVL NIL=
SVVP NIL=
####018001371####
SAUR31 KWBC 081400
METAR
UKBB 081400Z 32003MPS 9999 BKN040 26/17 Q1014 88CLRD95 NOSIG=
UKCC 081400Z 00000MPS CAVOK 29/15 Q1014 08090070 NOSIG=
UKCW 081400Z 07002MPS 010V120 9999 BKN040 30/16 Q1014 2709//70
     NOSIG=
UKDD 081400Z VRB01MPS 9999 SCT033TCU 29/18 Q1013 08090070
     NOSIG=
UKDE 081400Z 20002MPS 120V260 CAVOK 30/16 Q1013 20CLRD70 NOSIG=
UKDR 081400Z 33005MPS 9999 VCTS SCT033CB BKN200 26/18 Q1013
     1809//70 TEMPO 26006G14MPS 3100 -TSRAGR BKN015CB=
UKFF 081400Z 28006MPS CAVOK 28/19 Q1012 01010070 NOSIG=
UKHH 081400Z 00000MPS 9999 SCT040 BKN200 30/13 Q1014 080///65
     NOSIG=
UKKE NIL=
UKKK 081400Z 28004MPS CAVOK 26/17 Q1015 26CLRD70 NOSIG=
UKKM 081400Z 29003MPS 240V360 9999 SCT042 26/17 Q1015 33CLRD70
     NOSIG=
UKLI 081400Z 30004MPS 260V020 9999 FEW021CB BKN030 18/15 Q1020
     28290565 NOSIG=
UKLL 081400Z 30003MPS 240V030 9999 SCT040 BKN100 20/12 Q1021
     31210365 NOSIG=
UKLN 081400Z 26003MPS 210V320 9999 BKN017 BKN033CB 16/14 Q1020
     3319//65 NOSIG=
UKLR 081400Z 30005MPS 270V340 9999 SCT030 BKN100 21/15 Q1018
     30090070 NOSIG=
UKLT NIL=
UKLU 081400Z 33003MPS 9999 SCT040 BKN200 23/11 Q1020 10090070
     NOSIG=
UKON 081400Z 33005MPS 290V360 9999 VCTS SCT033CB OVC200 28/17
     Q1013 05090075 NOSIG=
UKOO 081400Z 35005MPS 310V030 CAVOK 27/14 Q1014 34090070 NOSIG=
####018001452####
SAXX61 KWBC 081400
METAR
EDAD NIL=
EDAH 081350Z VRB03KT CAVOK 25/09 Q1021=
EDAR NIL=
EDAS NIL=
EDDS 081350Z VRB03KT CAVOK 29/08 Q1021 NOSIG=
EDEB NIL=
EDEH NIL=
EDEU NIL=
EDIC NIL=
EDID NIL=
EDIE NIL=
EDIH NIL=
EDIK NIL=
EDMA 081350Z 36004KT 250V080 CAVOK 28/09 Q1022=
EGPK 081350Z 24015KT 9999 FEW026 19/09 Q1014=
EGUA NIL=
EGUL 081355Z AUTO 25009KT 9999 FEW039 24/13 A3005 RMK AO2 SLP177
     T02390129=
EGUN 081355Z AUTO 25008KT 9999 SCT041 SCT140 24/15 A3006 RMK AO2
     SLP167 T02400149=
EGVA 081355Z AUTO 24006KT 9999 FEW120 SCT170 SCT190 SCT210 23/09
     A3006 RMK AO2 DZE1256 SLP178 T02290088=
EGVJ NIL=
EGWZ NIL=
ETAD 081355Z AUTO VRB04KT 9999 CLR 30/10 A3014 RMK AO2 SLP189
     T02970098 $=
ETAR 081355Z AUTO 24009KT 9999 CLR 31/15 A3011 RMK AO2 SLP189
     T03100151 $=
KQHT 081355Z 25007KT 9999 FEW150 SCT200 30/03 A2993 RMK SLP100 WND
     DATA ESTMD ALSTG/SLP ESTMD=
KQIR 081355Z AUTO 04011G17KT 9999 CLR 40/26 A2949 RMK AO2 SLP986
     T03960257=
KQJL NIL=
KQUZ NIL=
LEMO 081400Z VRB04KT CAVOK 33/18 Q1015 NOSIG=
LERT NIL=
LICZ NIL=
LIRN 081350Z 06006KT CAVOK 29/13 Q1018=
LIYW 081355Z AUTO VRB05KT 9999 FEW049 27/16 A3016 RMK AO2 SLP212
     T02710161=
LPLA 081400Z 00000KT 9999 SCT013 BKN028 21/19 Q1024=
LTAC 081350Z 04006KT 360V090 9999 TS FEW025CB BKN035 28/13 Q1011
     TEMPO -TSRA=
LTAG 081350Z 21012KT 9999 SCT035 31/20 Q1007 NOSIG=
####018001286####
SAXX62 KWBC 081400
METAR
FJDG NIL=
FUDG NIL=
PHBK 081356Z AUTO 15005KT 10SM BKN075 24/17 A3000 RMK AO2 SLP161
     T02440172 TSNO $=
PHHI 081355Z AUTO 06005KT 10SM BKN049 20/18 A3002 RMK AO2
     RAB1259E1309DZE1312 SLP156 P0000 T02040184=
PHNG 081357Z 10004KT 10SM SCT026 BKN040 24/20 A3002 RMK AO2 SLP160
     T02390200 $=
PHSF NIL=
PJON NIL=
PKMJ NIL=
PKWA 081400Z AUTO 12004KT 10SM BKN026 BKN080 26/24 A2982 RMK AO2
     T02580235=
PMDY 081356Z AUTO 00000KT 10SM CLR 24/20 A3007 RMK AO2 TSNO
     T02380200 SLP488=
PTSA NIL=
PWAK 081356Z 08012KT 8SM FEW025 27/25 A2996 RMK AO2A=
RJOI 081400Z 00000KT 9000 HZ FEW045 SCT120 OVC230 26/22 A2982 RMK
     SLP098 LAST T02610217=
RJTA NIL=
RJTX NIL=
RJTY 081355Z AUTO 15004KT 9999 SCT018 24/22 A2990 RMK AO2 SLP117
     T02380217 $=
RKJJ NIL=
RKJK NIL=
RKNC NIL=
RKPK 081400Z 26002KT 9999 SCT040 BKN200 23/19 Q1010 NOSIG=
RKSB NIL=
RKSG NIL=
RKSK NIL=
RKSM NIL=
RKSO 081355Z AUTO 07003KT 8000 R27/1400VP1500 -RA BR CLR 22/22
     A2980 RMK AO2 RAB1254DZE1254B1310E1312B1329E1341 SLP093 P0001
     T02220222 $=
RKST NIL=
RKSY NIL=
RKTG NIL=
RKTH NIL=
RODN 081355Z AUTO 18012KT 9999 SCT017 BKN024 OVC200 29/26 A2987
     RMK AO2 SCT V BKN SLP114 T02860263=
####018000077####
SAAL41 DAMM 081200 CCB
METAR COR DABT 081200Z 36010KT CAVOK 35/04 Q1022=
####018003747####
SAXX99 KWBC 081400
METAR
A29E NIL=
ANYN NIL=
APCL NIL=
ARND NIL=
ASSW NIL=
AT20 NIL=
ATAR NIL=
AVOK NIL=
AYMO NIL=
AZNZ NIL=
BAJO NIL=
BGAA 081350Z VRB04KT 0400 FG VV002 05/04 Q1009=
BGMQ 081350Z 24002KT 2200 BR VV003 06/05 Q1009=
BGQQ 081350Z 20003KT 9999 3000S VCFG BKN002 05/M00 Q1010 RMK
     6ST=
BGSS 081350Z 28010KT 240V300 9999 FEW003 06/06 Q1008=
BGUK 081350Z 31004KT 9999 VCFG SKC 06/03 Q1009=
BGUQ 081350Z 08012KT 9999 SKC 12/02 Q1009=
BH31 NIL=
BKPR 081400Z 34011KT 9999 SCT030 BKN060 17/10 Q1021 NOSIG RMK
     BLU=
BOVE NIL=
CHEC NIL=
CI41 NIL=
CMBB NIL=
CMBR NIL=
CMCT NIL=
CMCW NIL=
CMFM NIL=
CMGB NIL=
CMHN NIL=
CMHW NIL=
CMLA NIL=
CMPD NIL=
CMPL NIL=
CMRI NIL=
CMRU NIL=
CMRY NIL=
CMSB NIL=
CMSC NIL=
CMSX NIL=
CMYT NIL=
CPBT NIL=
CPEH NIL=
CPFI NIL=
CPIR NIL=
CPRO NIL=
CPRY NIL=
CPST NIL=
CPSV NIL=
CPXL NIL=
CQCM 081400Z 36010KT 6SM HZ FEW060 SCT180 39/19 A2953 RMK WND/ALTM
     ESTD CU1 AC3 T03930193=
CTAE NIL=
CTAL NIL=
CTCK NIL=
CTCW NIL=
CTWN NIL=
CWAE NIL=
CWBU NIL=
CWCA NIL=
CWCL NIL=
CWDL NIL=
CWEU NIL=
CWFD NIL=
CWGZ NIL=
CWHN NIL=
CWIK NIL=
CWIL NIL=
CWKM NIL=
CWKW NIL=
CWLI NIL=
CWLX NIL=
CWLY NIL=
CWMT NIL=
CWOB NIL=
CWRH NIL=
CWRX NIL=
CWSA NIL=
CWSW NIL=
CWTU NIL=
CWUP NIL=
CWUW NIL=
CWVD NIL=
CWVH NIL=
CWWU NIL=
CWXR NIL=
CWYK NIL=
CWYM NIL=
CWZZ NIL=
CXAK NIL=
CXDB NIL=
CXFM NIL=
CXHD NIL=
CXHP NIL=
CXMG NIL=
CXMO NIL=
CXOL NIL=
CXPL NIL=
CXSC NIL=
CXSL NIL=
CXSP NIL=
CXTH NIL=
CXVM NIL=
CXVW NIL=
CYAH NIL=
CYAM NIL=
CYAS NIL=
CYAY NIL=
CYAZ NIL=
CYBB NIL=
CYBC NIL=
CYBD NIL=
CYBK NIL=
CYBL NIL=
CYBN NIL=
CYBR NIL=
CYBU NIL=
CYBV NIL=
CYBW NIL=
CYBX NIL=
CYCB NIL=
CYCD NIL=
CYCG NIL=
CYCO NIL=
CYCP NIL=
CYCQ NIL=
CYCS NIL=
CYCX NIL=
CYCY NIL=
CYDA NIL=
CYDB NIL=
CYDC NIL=
CYDF NIL=
CYDN NIL=
CYDP NIL=
CYED NIL=
CYEK NIL=
CYEL NIL=
CYEN NIL=
CYET NIL=
CYEV NIL=
CYFO NIL=
CYFR NIL=
CYFS NIL=
CYGE NIL=
CYGH NIL=
CYGK NIL=
CYGP NIL=
CYGQ NIL=
CYGR NIL=
CYGT NIL=
CYGV NIL=
CYGW NIL=
CYGX NIL=
CYHA NIL=
CYHD NIL=
CYHE NIL=
CYHH NIL=
CYHI NIL=
CYHK NIL=
CYHM NIL=
CYHU NIL=
CYHY NIL=
CYIK NIL=
CYIO NIL=
CYIV NIL=
CYJF NIL=
CYKA NIL=
CYKD NIL=
CYKF NIL=
CYKG NIL=
CYKJ NIL=
CYKO NIL=
CYKQ NIL=
CYKY NIL=
CYKZ NIL=
CYLD NIL=
CYLJ NIL=
CYLK NIL=
CYLL NIL=
CYLT NIL=
CYLU NIL=
CYLW NIL=
CYMA NIL=
CYMJ NIL=
CYMM NIL=
CYMO NIL=
CYMT NIL=
CYMU NIL=
CYNA NIL=
CYNC NIL=
CYND NIL=
CYNE NIL=
CYNM NIL=
CYOA NIL=
CYOC NIL=
CYOD NIL=
CYOJ NIL=
CYOY NIL=
CYPA NIL=
CYPC NIL=
CYPE NIL=
CYPG NIL=
CYPH NIL=
CYPQ NIL=
CYPR NIL=
CYPW NIL=
CYPX NIL=
CYPY NIL=
CYQA NIL=
CYQD NIL=
CYQF NIL=
CYQH NIL=
CYQI NIL=
CYQK NIL=
CYQL NIL=
CYQR NIL=
CYQT NIL=
CYQU NIL=
CYQV NIL=
CYQW NIL=
CYQZ NIL=
CYRA NIL=
CYRJ NIL=
CYRL NIL=
CYRT NIL=
CYRV NIL=
CYSB NIL=
CYSC NIL=
CYSD NIL=
CYSF NIL=
CYSK NIL=
CYSL NIL=
CYSM NIL=
CYSN NIL=
CYSR NIL=
CYSY NIL=
CYTH NIL=
CYTJ NIL=
CYTQ NIL=
CYTS NIL=
CYTZ NIL=
CYUA NIL=
CYUB NIL=
CYUS NIL=
CYUT NIL=
CYUX NIL=
CYVC NIL=
CYVM NIL=
CYVO NIL=
CYVQ NIL=
CYVT NIL=
CYVV NIL=
CYWA NIL=
CYWH NIL=
CYWJ NIL=
CYWL NIL=
CYWO NIL=
CYWY NIL=
CYXC NIL=
CYXD NIL=
CYXE NIL=
CYXH NIL=
CYXJ NIL=
CYXL NIL=
CYXN NIL=
CYXP NIL=
CYXQ NIL=
CYXR NIL=
CYXS NIL=
CYXT NIL=
CYXZ NIL=
CYYB NIL=
CYYD NIL=
CYYE NIL=
CYYF NIL=
CYYG NIL=
CYYH NIL=
####018000090####
SPUS73 KWBC 081405
SPECI
KORD 081402Z 24006KT 8SM SCT008 BKN039 OVC050 24/22 A3003=
####018000338####
SAPO32 LPMG 081400
METAR LPAZ 081400Z 24006KT 9999 BKN016 BKN030 21/19 Q1025=
METAR LPFL 081400Z 20007KT 170V280 9999 FEW021TCU SCT040 24/17 Q1021=
METAR LPHR 081400Z 22006KT 9999 FEW015 23/19 Q1023=
METAR LPLA 081400Z 00000KT 9999 SCT013 BKN028 21/19 Q1024=
METAR LPPD 081400Z 19005KT 130V230 9999 FEW016 BKN030 21/16 Q1024=
####018000096####
SAUS46 KLOX 081406
MTRNLC
SPECI KNLC 081405Z 31006KT 10SM CLR 18/11 A2985 RMK AO2 RH/60 $
####018003718####
SAXX99 KWBC 081400 RRA
METAR
CYYL NIL=
CYYN NIL=
CYYU NIL=
CYYY NIL=
CYZE NIL=
CYZG NIL=
CYZH NIL=
CYZP NIL=
CYZR NIL=
CYZS NIL=
CYZT NIL=
CYZU NIL=
CYZW NIL=
CZCP NIL=
CZEM NIL=
CZEV NIL=
CZFA NIL=
CZFM NIL=
CZFN NIL=
CZFS NIL=
CZHY NIL=
CZMU NIL=
CZOL NIL=
CZPC NIL=
CZPS NIL=
CZSM NIL=
CZST NIL=
CZUM NIL=
DAAD NIL=
DAAE NIL=
DAAJ NIL=
DAAP NIL=
DAAS NIL=
DAAV NIL=
DAAY NIL=
DABO NIL=
DABT NIL=
DAFH NIL=
DAMR NIL=
DAOB NIL=
DAOF NIL=
DAOL NIL=
DAOR NIL=
DAOV NIL=
DATG NIL=
DATM NIL=
DAUB NIL=
DAUE NIL=
DAUI NIL=
DAUK NIL=
DAUL NIL=
DAUO NIL=
DAUS NIL=
DAUT NIL=
DAUU NIL=
DFFD NIL=
DFOO NIL=
DJ21 NIL=
DNEN NIL=
DNIB NIL=
DRZR NIL=
DTKA 081400Z 31008KT 270V350 9999 FEW020 27/20 Q1019 NOSIG=
DTTF 081400Z 13004KT CAVOK 37/12 Q1015 NOSIG=
DTTH NIL=
DUPE NIL=
EATR NIL=
EATZ NIL=
EDAC 081350Z 31003KT 210V020 CAVOK 28/13 Q1021=
EDDE 081350Z VRB02KT CAVOK 28/09 Q1021 NOSIG=
EDFH 081350Z 14007KT 080V180 CAVOK 28/11 Q1021=
EDGS 081350Z 24006KT CAVOK 26/10 Q1022=
EDHK NIL=
EDLV 081350Z 27005KT 200V360 CAVOK 32/10 Q1018=
EDOP 081350Z 18009KT 120V210 CAVOK 30/09 Q1019=
EDRZ 081350Z 14005KT 040V260 CAVOK 30/12 Q1021=
EDSB 081350Z 30004KT 250V360 CAVOK 32/10 Q1020=
EDTL 081350Z VRB04KT CAVOK 31/10 Q1019=
EEKA 081350Z 28008KT 250V320 CAVOK 23/12 Q1016=
EEKE 081350Z 33010KT 290V010 CAVOK 24/11 Q1016=
EEPU 081350Z NIL=
EETU 081350Z 27004KT 230V330 9999 FEW025CB SCT030 BKN130 21/20
     Q1013=
EFCA NIL=
EFET 081350Z AUTO 17007KT 120V220 9999 -RA OVC055 19/07 Q1013=
EFHA 081350Z AUTO VRB01KT 9999 FEW048 25/15 Q1014=
EFJO 081350Z AUTO 32006KT 280V020 CAVOK 29/16 Q1014=
EFKA 081350Z 20005KT 130V260 CAVOK 26/10 Q1014=
EFKI 081350Z AUTO 33005KT CAVOK 24/14 Q1015=
EFKS 081350Z AUTO VRB02KT CAVOK 22/09 Q1016=
EFKT 081350Z AUTO 18011KT 150V210 CAVOK 21/08 Q1014=
EFLP 081350Z AUTO 18007KT 110V250 CAVOK 31/11 Q1013=
EFMI 081350Z AUTO 35005KT 270V090 CAVOK 29/19 Q1013=
EFSA 081350Z VRB04KT 9999 FEW055TCU FEW055CB 30/16 Q1013=
EFSI 081350Z AUTO 25006KT 160V310 CAVOK 26/09 Q1014=
EFUT 081350Z AUTO 17007KT 140V220 CAVOK 30/12 Q1013=
EFVR 081355Z NIL=
EGCN 081350Z 23014KT 9999 FEW048 23/07 Q1017=
EGDX 081350Z 29007KT 9999 FEW020 20/11 Q1018 BLU=
EGEC 081350Z 25010KT 9999 FEW032 18/09 Q1013=
EGHK 081350Z 15006KT 9999 SCT018 18/15 Q1018 NOSIG=
EGMH 081350Z 12006KT 080V170 9999 FEW022 24/18 Q1018=
EGNO NIL=
EGNR 081350Z 26010KT 220V300 9999 SCT040 21/09 Q1017=
EGOM 081350Z 25014KT 9999 SCT030 SCT035 16/09 Q1015 BLU=
EGOP 081350Z 21008KT 9999 -RA FEW017 BKN080 17/15 Q1018 BLU=
EGPI 081350Z 23011KT 9999 FEW022 16/11 Q1013=
EGQA 081350Z 20015KT 9999 VCSH FEW020 SCT030 16/// Q1010 BLU=
EGTG 081350Z 28006KT 9999 FEW040 21/10 Q1018=
EGUB 081350Z NIL=
EGUB 081350Z 22008KT 9999 FEW040 BKN200 23/12 Q1018 BLU NOSIG=
EGUW 081350Z 23007KT 9999 SCT040 BKN250 24/13 Q1018 BLU NOSIG=
EGUY 081350Z 19008KT 9999 FEW040 SCT150 BKN200 23/10 Q1018 BLU=
EGVN 081350Z 24005KT 9999 FEW045 BKN220 23/08 Q1018 NOSIG=
EGVN 081350Z 24005KT 9999 FEW045 BKN220 23/08 Q1018 BLU NOSIG=
EGVO 081350Z 24009KT 9999 SCT030 BKN250 23/16 Q1018 BLU NOSIG=
EGVP 081350Z 21009KT 9999 FEW038 SCT180 23/13 Q1018 BLU=
EGWC 081350Z 23010KT 9999 BKN035 22/10 Q1018 BLU=
EGWU 081350Z 24008KT 9999 FEW037 BKN250 24/14 Q1018 NOSIG=
EGWU 081350Z 24008KT 9999 FEW037 BKN250 24/14 Q1018 BLU NOSIG=
EGXC 081350Z 26009KT CAVOK 24/08 Q1017 NOSIG=
EGXC 081350Z 26009KT CAVOK 24/08 Q1017 BLU NOSIG=
EGXD 081350Z 24014KT CAVOK 22/08 Q1016 BLU NOSIG=
EGXE 081350Z 25015KT CAVOK 20/10 Q1016 BLU NOSIG=
EGXG NIL=
####018003747####
SAXX99 KWBC 081400 RRB
METAR
EGXJ 081350Z 23010KT 9999 FEW040 BKN250 23/06 Q1017 BLU=
EGXT 081350Z 19009KT 9999 FEW044 BKN250 23/06 Q1017=
EGXT 081350Z 19009KT 9999 FEW044 BKN250 23/06 Q1017 BLU=
EGXU 081350Z 25011KT 9999 FEW045 BKN250 21/08 Q1016 BLU NOSIG=
EGXW 081350Z 26011KT CAVOK 22/07 Q1017 BLU NOSIG=
EGXX 081350Z AUTO 22008KT 9999NDV // FEW050/// ///// Q////=
EGXZ 081350Z 25016KT 9999 SCT035 BKN200 21/08 Q1016 BLU=
EGYC NIL=
EGYD 081350Z 25009KT CAVOK 23/10 Q1017 NOSIG=
EGYD 081350Z 25009KT CAVOK 23/10 Q1017 BLU NOSIG=
EGYE 081350Z 28008KT 9999 FEW040 SCT250 ///// Q1017 BLU=
EGYH 081350Z 22008KT 9999 FEW030 24/// Q1018 BLU=
EGYM 081350Z 23012KT 9999 FEW040 BKN220 24/12 Q1017 BLU NOSIG=
EGYP NIL=
EGYW NIL=
EKGF 081350Z 21007KT CAVOK 17/16 Q1018=
EKGF 081350Z NIL=
ENBS 081350Z 19011KT 9999 FEW030 16/08 Q1016=
ENBS 081350Z NIL=
ENDR 081350Z NIL=
ENHE 081350Z 20025KT CAVOK 15/11 Q1009=
ENHK 081350Z 13009KT 9999 FEW034 ASCT051 BKN100 1/08 Q1011=
ENSS 081350Z NIL=
EPLL NIL=
EPWR 081400Z VRB02KT CAVOK 26/08 Q1022=
EQAC NIL=
EQAV NIL=
EQBA NIL=
EQBC NIL=
EQBF NIL=
ERAR NIL=
ESGR 081350Z AUTO 21014KT 9999NDV BKN042/// 21/14 Q1018=
ESGT 081350Z 20012KT 9999 SCT015 BKN025 19/14 Q1018=
ESKM 081350Z NIL=
ESMQ 081350Z 16014KT CAVOK 24/14 Q1018=
ESMT 081350Z 23010KT 9000 -SHRA BKN048 21/15 Q1020=
ESNG 081350Z VRB02KT 6000 -RA SCT045 15/14 Q1014=
ESNK 081350Z AUTO 20011KT 9999NDV OVC043/// 22/13 Q1012=
ESNL 081350Z 13013KT 9999 SCT044 23/11 Q1012=
ESNX 081350Z AUTO 11006KT 9999NDV -RA FEW008/// 16/14 Q1013=
ESNY 081350Z AUTO 27008KT 230V310 9999 FEW047 25/14 Q1014=
ESOE 081350Z 22013KT 9999 SCT045 24/14 Q1017=
ESSF 081350Z NIL=
ESSK 081350Z NIL=
ESSL 081350Z 23006KT 190V260 CAVOK 25/13 Q1017=
ESTA 081350Z 16007KT CAVOK 23/15 Q1020=
ESTL 081350Z AUTO 22010KT 9999NDV OVC054/// 24/10 Q1020=
ESUD 081350Z NIL=
ESUT 081350Z AUTO 15011KT 9999NDV FEW059/// SCT098/// BKN120///
     20/11 Q1009=
ETER NIL=
ETGG NIL=
ETGY NIL=
ETGZ NIL=
ETHA NIL=
ETHB NIL=
ETHC NIL=
ETHE NIL=
ETHF NIL=
ETHL NIL=
ETHM NIL=
ETHN NIL=
ETHR NIL=
ETHS NIL=
ETME NIL=
ETMN NIL=
ETND NIL=
ETNH NIL=
ETNJ NIL=
ETNL NIL=
ETNN NIL=
ETNP NIL=
ETNS NIL=
ETNT NIL=
ETNU NIL=
ETNW NIL=
ETOU 081355Z AUTO 22003KT 9999 CLR 30/11 A3012 RMK AO2 SLP196
     T02990111=
ETSA NIL=
ETSB NIL=
ETSE NIL=
ETSH NIL=
ETSI NIL=
ETSL NIL=
ETSN NIL=
ETUO NIL=
ETWM NIL=
EVLA 081350Z AUTO VRB05KT 9999 NCD 22/15 Q1019=
EVVA 081350Z AUTO 32010KT CAVOK 21/17 Q1018=
EW09 NIL=
EW20 NIL=
EYAR NIL=
EYKA 081350Z 28008KT 250V340 9999 OVC027 17/14 Q1016=
EYPA 081350Z 33006KT CAVOK 21/15 Q1019=
EYZR NIL=
FAAB NIL=
FAGC 081400Z AUTO 36007KT //// // ////// 16/01 Q1031=
FAJB 081400Z AUTO 36001KT //// // ////// 16/02 Q1031=
FAKD NIL=
FAKM NIL=
FAMM 081400Z 02011KT 9999 SCT040 19/02 Q1029 NOSIG=
FANS NIL=
FAPP 081400Z 07009KT 9999 SCT040 FEW100 16/06 Q1030 NOSIG=
FAPS NIL=
FARG NIL=
FASI 081400Z AUTO 04005KT //// // ////// 18/M00 Q1031=
FASR NIL=
FAVE NIL=
FAVV 081400Z AUTO 03007KT //// // ////// 18/01 Q1029=
FBFG NIL=
FBGH NIL=
FBLT NIL=
FBPA NIL=
FBSN NIL=
FBWD NIL=
FDGZ NIL=
FDWD NIL=
FEFG NIL=
FKYS NIL=
FMEP NIL=
FMMS NIL=
FMNA NIL=
FMSD NIL=
FMST NIL=
FNBG NIL=
FNCA NIL=
FNCE NIL=
FNCZ NIL=
FNDU NIL=
FNGI NIL=
FNLB NIL=
FNMA NIL=
FNME NIL=
FNMI NIL=
FNMO NIL=
FNMQ NIL=
FNNG NIL=
FNSA NIL=
FNSP NIL=
FNSR NIL=
FNSU NIL=
FNTO NIL=
FNUB NIL=
FNUE NIL=
FNUG NIL=
FNZE NIL=
FOGM NIL=
FOGR NIL=
FOOB NIL=
FOOC NIL=
FOOD NIL=
FOOE NIL=
FOOK NIL=
FOOM NIL=
FOOR NIL=
####018003739####
SAXX99 KWBC 081400 RRC
METAR
FOOT NIL=
FOOY NIL=
FQCH NIL=
FQIN NIL=
FQLC 081400Z 11006KT 9999 BKN014 19/07 Q1025=
FQNP NIL=
FQPB NIL=
FQQL 081400Z 14009KT 9999 BKN020 SCT030 25/18 Q1023=
FQTE NIL=
FQTT NIL=
FQVL NIL=
FQXX NIL=
FTTA NIL=
FTTC NIL=
FTTD NIL=
FVKB NIL=
FVWN NIL=
FYGO NIL=
FYML NIL=
FYOA 081400Z 04012KT CAVOK 26/02 Q1019=
FYOJ NIL=
FYOW NIL=
FYWE NIL=
FYWW NIL=
FZAB NIL=
FZOA NIL=
FZOS NIL=
FZRF NIL=
FZSA NIL=
GDAB NIL=
GMAD 081400Z 25010KT 9999 FEW020 29/17 Q1014 NOSIG=
GMFM 081400Z 29007KT 6000 FEW026 32/19 Q1018=
GMMC 081400Z NIL=
GMML 081400Z NIL=
GMMW 081400Z 06015KT CAVOK 30/20 Q1016=
GMMZ 081400Z 14007KT 110V170 9999 FEW040 FEW050TCU 39/02 Q1023=
GOIT NIL=
HCMF NIL=
HEAR NIL=
HEAT NIL=
HEIS NIL=
HESH NIL=
HETB NIL=
HKMV NIL=
HLLM 081350Z 35010KT 7000 SKC 28/21 Q1019=
HTMT NIL=
HTSU NIL=
HUAR NIL=
HUGU NIL=
HUJI NIL=
HUKA NIL=
HUKB NIL=
HULI NIL=
HUMI NIL=
HUS0 NIL=
HUTO NIL=
HWRS NIL=
IKVG NIL=
JP30 NIL=
K4O4 NIL=
K5T6 NIL=
K8S0 NIL=
KARL NIL=
KAUD NIL=
KBFU NIL=
KBIT NIL=
KBRX NIL=
KBVR NIL=
KCBE 081353Z AUTO 00000KT 7SM CLR 27/20 A3010 RMK AO1=
KCHJ NIL=
KCMS NIL=
KCTD NIL=
KDHS NIL=
KDRC NIL=
KEGI 081355Z VRB02KT 10SM CLR 28/23 A3004 RMK AO2A SLP168
     T02830233 $=
KESN 081353Z 16006KT 6SM HZ SCT200 28/24 A3005=
KFIR NIL=
KFME 081354Z AUTO 10005KT 7SM CLR 27/22 A3004 RMK AO1=
KGYH 081355Z 00000KT 10SM CLR 32/19 A3005=
KHLD NIL=
KIDV NIL=
KIKA NIL=
KPAT NIL=
KPIN NIL=
KPUM NIL=
KRIM NIL=
KSGE NIL=
KSHC NIL=
KSIB NIL=
KSKL NIL=
KTMH NIL=
KVDW NIL=
LBGO 081400Z 28003MPS 250V310 9999 -RA SCT013 BKN025 OVC040 16/15
     Q1017 NOSIG=
LDLO 081400Z 31011KT CAVOK 28/10 Q1021=
LDSB 081400Z 32005KT CAVOK 24/11 Q1020=
LEAB 081400Z 15014KT CAVOK 35/M02 Q1021 NOSIG=
LEBA 081400Z 28008KT 240V310 9999 FEW050 36/14 Q1014=
LEBR NIL=
LEBZ 081400Z 26011KT 210V310 CAVOK 36/13 Q1014=
LEGA NIL=
LEGT NIL=
LELN 081400Z 15008KT 060V200 9999 FEW050TCU 32/09 Q1018=
LERI NIL=
LESA 081400Z 17009KT 120V220 9999 FEW048 35/14 Q1017=
LETO 081400Z 22005KT 9999 -SHRA FEW040 FEW060CB 34/07 Q1018
     NOSIG=
LFBE 081400Z 09007KT 060V140 CAVOK 35/13 Q1016 NOSIG=
LFBG 081400Z AUTO 11006KT 040V160 9999NDV NSC 35/11 Q1016=
LFCR 081400Z AUTO 15007KT 090V190 9999NDV NSC 34/09 Q1021=
LFJL 081400Z AUTO VRB03KT 9999NDV NSC 31/07 Q1019=
LFLX 081400Z VRB03KT CAVOK 33/06 Q1017 NOSIG=
LFMI 081400Z AUTO 19013KT 9999NDV NSC 32/15 Q1019=
LFMK 081400Z AUTO 08016KT 9999NDV NSC 34/13 Q1018=
LFMO 081400Z 20004KT 140V260 CAVOK 35/13 Q1019=
LFMU 081400Z AUTO 14008KT 110V190 9999NDV NSC 30/14 Q1020=
LFMV 081400Z AUTO 26006KT 220V320 9999NDV NSC 35/16 Q1019=
LFOA 081400Z AUTO 15004KT 070V210 9999NDV NSC 33/06 Q1018=
LFOJ NIL=
LFOK 081400Z AUTO VRB03KT 9999NDV NSC 33/10 Q1019=
LFQI 081400Z 26005KT 200V330 CAVOK 31/11 Q1018=
LGHI 081350Z 36012KT CAVOK 28/18 Q1011=
LGKC 081350Z NIL=
LGNX 081350Z NIL=
LGPA 081350Z NIL=
LGSO 081350Z NIL=
LHDC NIL=
LHKE NIL=
LHPP NIL=
LHSA NIL=
LHSN NIL=
LHUD NIL=
LICP NIL=
LIMP NIL=
LIMZ NIL=
LIRM NIL=
LKCS NIL=
LKCV 081400Z VRB02KT CAVOK 25/07 Q1022 NOSIG RMK BLU+ BLU+=
LKHO NIL=
LKKB NIL=
LKKU NIL=
LKKV 081400Z VRB03KT CAVOK 25/09 Q1022=
LKLB NIL=
LKLN NIL=
LKNA 081400Z 34005KT CAVOK 23/08 Q1023 NOSIG RMK BLU+ BLU+=
LKPD 081400Z VRB03KT CAVOK 26/05 Q1022 NOSIG RMK BLU+ BLU+=
LKPO 081400Z 34003KT CAVOK 24/11 Q1022 NOSIG RMK BLU+ BLU+=
LLIB 081350Z 03007KT CAVOK 34/14 Q1008=
LLSD 081350Z 29010KT 9999 SCT025 28/21 Q1009=
LOAG NIL=
LOAN NIL=
LOGG NIL=
LOLF NIL=
LOXA NIL=
####018003421####
SAXX99 KWBC 081400 RRE
METAR
SAVV NIL=
SAVY NIL=
SAWH NIL=
SAZR NIL=
SAZY NIL=
SCJO 081400Z 18012KT 150V260 5000 SHRA SCT012 BKN030 09/07
     Q1014=
SKAR NIL=
SKCC NIL=
SKEJ NIL=
SKIB NIL=
SKIP NIL=
SKLC NIL=
SKMR NIL=
SKMZ NIL=
SKNV NIL=
SKPC NIL=
SKPS NIL=
SKPV NIL=
SKRH NIL=
SKUC NIL=
SKUI NIL=
SKVP NIL=
SKVV NIL=
SLAS NIL=
SLET NIL=
SLGY NIL=
SLJV NIL=
SLSB NIL=
SLSM NIL=
SLTI NIL=
SSSA NIL=
STAC NIL=
SUME NIL=
SVCP 081400Z NIL=
SVCZ NIL=
SVGD NIL=
SVJM NIL=
SVLO NIL=
SVVG 081400Z 00000KT 9999 OVC040 XX/XX Q1013=
SYGO NIL=
T016 NIL=
T020 NIL=
T100 NIL=
TAAR NIL=
TEST NIL=
THIS NIL=
TNNC NIL=
TRPG 081400Z 07010KT 9999 SCT020 29/25 Q1017 RMK SLT HZ=
TSRA NIL=
TURE NIL=
TYAR NIL=
TZAR NIL=
UACK NIL=
UBBN 081400Z 12012KT 9999 NSC 37/09 Q1007 R14R/CLRD60 NOSIG RMK
     G/O QFE681=
UDYZ NIL=
UERP NIL=
UERR NIL=
UESO NIL=
UGKO NIL=
UGSB NIL=
UGSP NIL=
UHMG NIL=
UHNN NIL=
UHSH NIL=
ULDD NIL=
ULKK NIL=
ULOL NIL=
ULOO NIL=
ULWW NIL=
UMED NIL=
UMKK NIL=
UMOO NIL=
UNBB NIL=
UNEE NIL=
UNKL NIL=
UNOO NIL=
UNWW NIL=
UOII NIL=
URML NIL=
UTAN NIL=
UTKN NIL=
UTNC NIL=
UTO2 NIL=
UTO4 NIL=
UTO7 NIL=
UTO8 NIL=
UTTP NIL=
UWLL NIL=
UWOR NIL=
V130 NIL=
V150 NIL=
V290 NIL=
VCSH NIL=
VIBR NIL=
VIJP NIL=
VILK NIL=
VTBO NIL=
VTCH NIL=
VTCL NIL=
VTCN NIL=
VTCP NIL=
VTCT NIL=
VTPB NIL=
VTPH NIL=
VTPM NIL=
VTPO NIL=
VTPP NIL=
VTPT NIL=
VTSB NIL=
VTSC NIL=
VTSE NIL=
VTSF NIL=
VTSG NIL=
VTSK NIL=
VTSM NIL=
VTSR NIL=
VTST NIL=
VTUD NIL=
VTUI NIL=
VTUJ NIL=
VTUK NIL=
VTUL NIL=
VTUO NIL=
VTUQ NIL=
VTUU NIL=
VTUV NIL=
VTUW NIL=
W016 NIL=
W020 NIL=
W090 NIL=
W250 NIL=
WADD NIL=
WALL NIL=
WARR NIL=
WBGB NIL=
WBGR NIL=
WBGS NIL=
WBGY NIL=
WBGZ NIL=
WBKL NIL=
WBKS NIL=
WBKT NIL=
WBKW NIL=
WIHH NIL=
WMAU 081400Z 17003KT 9999 FEW025 SCT150 BKN280 27/25 Q////
     QFF1010=
WMBA 081400Z 29002KT 9999 FEW030 SCT150 BKN280 28/25 Q1011=
WMKA 081400Z 00000KT 9999 FEW030 BKN280 28/26 Q1011=
WMKB 081400Z 28004KT 9000 FEW025 SCT140 BKN280 30/25 Q1011
     NOSIG=
WMKC 081400Z 00000KT 9999 FEW017CB BKN240 29/24 Q1011=
WMKD 081400Z 11003KT 3000 TSRA FEW005 FEW017CB SCT024 BKN160 23/22
     Q1012 RETSRA NOSIG=
WMKI 081400Z 16002KT 8000 FEW030 SCT140 BKN280 28/25 Q1011=
WMKL 081400Z 34001KT 9999 FEW017CB BKN280 28/25 Q1011=
WMKM 081400Z 00000KT 9999 FEW030 SCT140 BKN280 27/24 Q1011=
WMKN 081400Z 19005KT 9999 FEW024 BKN250 25/22 Q1011=
WTAR NIL=
XX39 NIL=
XX99 NIL=
YAMB NIL=
YBHM NIL=
YCIN NIL=
YFRT NIL=
YMAV NIL=
YMLT NIL=
YPGV NIL=
YPKG NIL=
YPKU NIL=
YSTW 081400Z AUTO 16006KT 9999NDV // NCD 06/04 Q1024=
YSWG 081400Z AUTO 12005KT 9999NDV // NCD 03/01 Q1027=
YTEF 081400Z AUTO 03008KT //// // ////// 20/15 Q1012=
YTNK 081400Z AUTO 09007KT 9999NDV // NCD 14/11 Q1019=
YTRE 081400Z AUTO 25005KT //// // ////// 11/11 Q1026=
YWGT 081400Z AUTO 19003KT //// // ////// 02/02 Q1028=
YWHA 081400Z AUTO 03005KT 9999NDV // NCD 03/01 Q1024=
YWLM 081400Z AUTO 29005KT 9999NDV // ////// 09/09 Q1026=
ZBHH NIL=
ZBLA NIL=
ZBSJ NIL=
ZBYC NIL=
ZGHA NIL=
ZGKL NIL=
ZGOW NIL=
ZJHK NIL=
ZLXY NIL=
ZSQD NIL=
ZSTX NIL=
ZWSH NIL=
ZYCC NIL=
ZYMY NIL=
ZYTX NIL=
####018003749####
SAXX99 KWBC 081400 RRD
METAR
LOXN NIL=
LOXT 081350Z VRB05KT 50KM FEW100AC 27/13 Q1022 RMK FEW=
LOXZ 081350Z 07006KT 70KM FEW070CU 25/08 Q1022 NOSIG RMK FEW=
LPAR NIL=
LQBK 081400Z 29004KT 9999 SCT043 24/11 Q1021 NOSIG=
LQMO 081400Z 34011KT 9999 FEW045 29/09 Q1017=
LQTZ NIL=
LTAB 081350Z 21012KT 9999 TS FEW025CB BKN035 25/15 Q1011 RETSRA
     BECMG 03012KT TEMPO -TSRA RMK RWY06 22012KT=
LTAE 081350Z 32011KT 9999 -TSRA FEW030CB BKN035 21/17 Q1011 BECMG
     TL1450 NSW RMK RWY21 32009KT=
LTAZ 081350Z 16006KT 130V220 9999 FEW025CB SCT040 BKN090 34/10
     Q1008=
LTBR 081350Z 32013KT 9999 SCT035TCU BKN100 23/17 Q1012 TEMPO
     -TSRA=
LTBU 081350Z 31014KT 9999 SCT025TCU BKN100 17/14 Q1014 RESHRA=
LTCD NIL=
LTCF 081350Z 11012KT 080V140 CAVOK 30/08 Q1017=
LTFC NIL=
LTFH 081350Z 04009KT 010V080 9999 SCT036 BKN100 27/23 Q1009
     NOSIG=
LTFJ 081350Z 36015KT 9999 BKN030 22/17 Q1011 NOSIG=
LTFJ 081350Z NIL=
LWIS NIL=
LZKC NIL=
LZLU NIL=
LZNI NIL=
LZPE NIL=
LZPP 081400Z 36006KT 270V050 CAVOK 25/10 Q1021=
LZSL 081400Z 23004KT CAVOK 27/10 Q1020=
LZZI 081400Z 36007KT 310V050 CAVOK 24/08 Q1021=
MBCH NIL=
MDHE NIL=
METAR UHHH 081400Z 02003MPS 9999 SCT023CB OVC100 16/15 Q1011
     NOSIG=
METR NIL=
MGBP NIL=
MGGG NIL=
MGTK NIL=
MH31 NIL=
MH40 NIL=
MHTR 081400Z 00000KT 9999 FEW025 SCT080 BKN250 29/24 HZ=
MMAN NIL=
MMCB NIL=
MMCP 081351Z 09010KT 6SM BKN140 OVC300 27/22 A2981 RMK 8/032
     HZY=
MMCT NIL=
MMEP 081352Z 00000KT 3SM BR OVC003 22/21 A3002 RMK 8/7//=
MMIA NIL=
MMIO NIL=
MMIT 081357Z NIL=
MMLM NIL=
MMLO 081351Z 06005KT 8SM BKN025 OVC070 18/18 A3014 RMK 8/57/ LWR
     SC=
MMLT 081355Z 00000KT 8SM SKC 27/18 A2975=
MMMV NIL=
MMOX 081350Z RTD 07002KT 4SM SCT005 SCT015 OVC100 17/15 A3009 RMK
     8/72/ RA INMTE LWR ST/VIS S=
MMPA NIL=
MMPB NIL=
MMPG NIL=
MMPN NIL=
MMPS NIL=
MMQT NIL=
MMTB 081357Z NIL=
MMTG 081350Z 00000KT 5SM BCFG SCT006 BKN070 OVC300 24/24 A2993 RMK
     8/678 BCFG ARND ST OMTNS=
MMVA 081351Z 12006KT 7SM SCT010 SCT100 BKN200 28/25 A2979 RMK
     8/136=
MNBL NIL=
MNCH NIL=
MNJG NIL=
MNJU NIL=
MNRS NIL=
MO31 NIL=
MP31 NIL=
MPB0 NIL=
MSLU NIL=
MSSA NIL=
MSSM NIL=
MTAR NIL=
MUCC NIL=
MUCF 081358Z 19003KT 9999 FEW020 SCT200 29/24 Q1013=
MUHG 081350Z VRB02KT 9000 FEW020 30/22 Q1016=
MZ40 NIL=
N025 NIL=
N100 NIL=
N240 NIL=
N270 NIL=
NFLB NIL=
NFTL NIL=
NGTT NIL=
NVSC NIL=
NVSL NIL=
NVSS NIL=
NVVA NIL=
NVVW NIL=
OAHR 081355Z 02009KT CAVOK 37/M02 Q1010 RMK SKC VIS MIN 9999
     BLU=
OBBC NIL=
OBBD NIL=
OBBF NIL=
OBBH NIL=
OBBJ NIL=
OBBR NIL=
OEDM NIL=
OEKJ NIL=
OIIE 081400Z 11014KT CAVOK 41/M06 Q1009 A2980 896.3 05:=
OSDZ NIL=
OSIG NIL=
OSKL NIL=
OYAG NIL=
OYAM NIL=
OYAT NIL=
OYDM NIL=
OYHJ NIL=
OYIB NIL=
OYRN NIL=
OYSH NIL=
OYSQ 081400Z 23035G45KT 9999 FEW018 31/23 Q1005=
OYSY NIL=
P040 NIL=
P103 NIL=
P154 NIL=
PART NIL=
PCPN NIL=
PESI NIL=
PICE NIL=
PORT NIL=
PRXZ NIL=
RJBB 081400Z 22007KT 9999 FEW008 BKN/// 26/22 Q1009 NOSIG=
RJBH NIL=
RJBT NIL=
RJFS 081400Z 31003KT 9999 FEW020 BKN/// 25/22 Q1008=
RJGG 081400Z 13004KT 9999 FEW015 BKN/// 25/23 Q1010 NOSIG=
RJNW NIL=
RJOW NIL=
RJSF NIL=
RJSR NIL=
RJSY NIL=
RKJY NIL=
RKNN NIL=
RKNR NIL=
RKPM NIL=
RKPS NIL=
RKSC NIL=
RKTI NIL=
RKTL NIL=
RKTS NIL=
ROIG NIL=
ROKJ NIL=
ROMY NIL=
RORS NIL=
ROTM NIL=
ROYN NIL=
RPLI NIL=
RTAR NIL=
RTIR NIL=
RUMS NIL=
SAAJ NIL=
SABO NIL=
SADF NIL=
SADP NIL=
SAMM NIL=
SAMR NIL=
SANC NIL=
SANL NIL=
SAOC NIL=
SAOS NIL=
SAOU NIL=
SAPR NIL=
SAST NIL=
SATR NIL=
SAVE NIL=
####018001652####
SAUS41 KWBC 081400
METAR
K40B NIL=
KABE 081351Z 07005KT 6SM HZ CLR 29/22 A3004=
KAGC 081353Z 15003KT 5SM HZ CLR 28/19 A3009=
KAKR 081354Z AUTO 21005KT 10SM CLR 29/18 A3008=
KALB 081351Z 00000KT 6SM HZ FEW090 29/21 A3004=
KART 081356Z AUTO 25005KT 8SM CLR 28/22 A3003=
KAVP 081354Z 00000KT 7SM CLR 29/19 A3006=
KBAF 081353Z 16006KT 5SM BR OVC007 24/22 A3008=
KBDL 081351Z 16005KT 4SM HZ BKN012 OVC019 26/22 A3007=
KBDR 081352Z 10008KT 7SM SCT015 BKN050 26/23 A3006=
KBED 081356Z 18007KT 7SM SCT024 28/20 A3007=
KBTV 081354Z 20006KT 7SM CLR 29/22 A3001=
KBUF 081354Z 21005KT 10SM FEW095 29/19 A3004=
KBVY 081353Z 17006KT 10SM CLR 26/21 A3009=
KCAE 081356Z VRB04KT 10SM CLR 32/21 A2999=
KCAK 081351Z 24004KT 10SM CLR 28/18 A3009=
KCEF 081355Z 18005KT 7SM SCT014 BKN018 OVC080 26/23 A3007=
KCMH 081351Z 00000KT 6SM HZ CLR 28/21 A3007=
KCRQ 081353Z AUTO 00000KT 8SM SCT007 OVC015 17/14 A2991=
KCRW 081354Z 00000KT 5SM HZ CLR 27/21 A3010=
KCTZ 081400Z AUTO 02005KT 5SM HZ CLR 31/22 A2997=
KDAY 081356Z 23006KT 8SM CLR 29/19 A3009=
KDOV NIL=
KERI 081351Z 18005KT 9SM CLR 30/19 A3005=
KEWB 081353Z 13008KT 10SM BKN018 27/22 A3009=
KFDK 081353Z AUTO 00000KT 7SM CLR 34/22 A3005=
KFVE 081353Z AUTO 16004KT 5SM HZ BKN018 27/23 A3000=
KGON 081356Z 11008KT 5SM HZ FEW003 SCT022 25/21 A3007=
KGSO 081354Z 02007KT 5SM HZ CLR 31/19 A3004=
KGSP 081353Z VRB03KT 9SM CLR 31/19 A3004=
KHPN 081356Z 14006KT 2SM DZ BR BKN006 OVC012 26/23 A3007=
KHTS 081351Z 00000KT 6SM HZ CLR 28/21 A3009=
KHUL 081353Z AUTO 19008KT 150V220 6SM HZ CLR 26/21 A3003=
KHVN 081353Z 10007KT 080V140 10SM OVC055 26/22 A3007=
####018001110####
SAAU31 AMMC 081400
METAR YBAS 081400Z AUTO 09005KT 9999NDV // NCD 07/06 Q1021=
METAR YBBN 081400Z 21008KT 9999 SCT040 13/10 Q1020
     NOSIG=
METAR YBCS 081400Z 15007KT 9999 FEW025 SCT050 22/19 Q1016
     NOSIG=
METAR YBTL 081400Z AUTO 13008KT 9999NDV // SCT010 OVC018 21/19 Q1017=
METAR YMML 081400Z 36008KT CAVOK 04/03 Q1028
     FM1400 VRB03KT 4000 BR SKC=
METAR YPAD 081400Z 03005KT 9999 FEW047 05/03 Q1025
     NOSIG=
METAR YPCC 081400Z AUTO 14010KT 9999NDV // SCT023 OVC041 26/22 Q1014=
METAR YPDN 081400Z 18007KT CAVOK 24/21 Q1014=
METAR YPKU 081400Z AUTO 16005KT 9999NDV // NCD 22/16 Q1015=
METAR YPLM 081400Z AUTO 23003KT 9999NDV // SCT021 SCT039 OVC046 19/17 Q1010=
METAR YPPH 081400Z 01011KT 9999 -SHRA FEW022 SCT042 13/13 Q0996
     INTER 1400/1700 29030G50KT 2000 TSGS BKN010 FEW030CB=
METAR YPTN 081400Z AUTO 09005KT 9999NDV // NCD 22/15 Q1015=
METAR YPXM 081400Z AUTO 21005KT //// // NCD 22/19 Q1015=
METAR YSSY 081400Z 26010KT 9999 VCSH FEW010 SCT019 11/10 Q1027
     FM1400 22008KT 9999 -SHRA SCT020 BKN045
     INTER 1400/1700 5000 SHRA BKN010=

####018000087####
SAUS41 KWBC 081400 CCA
METAR
KRIC 081354Z 14007KT 9SM FEW150 SCT250 31/21 A3000=
####018001055####
SAUS41 KWBC 081400 RRA
METAR
KIAG 081353Z 24004KT 10SM FEW100 29/21 A3003=
KILG 081351Z 14004KT 2SM HZ BKN011 BKN016 27/23 A3005=
KILM 081353Z 04009KT 7SM CLR 31/22 A2994=
KINT 081354Z 01007KT 10SM CLR 30/18 A3005=
KLSV 081355Z AUTO 00000KT 10SM FEW150 24/M02 A2987=
KLUK 081353Z 00000KT 5SM HZ CLR 28/23 A3007=
KLWM 081354Z 20004KT 10SM FEW023 27/20 A3010=
KMDT 081356Z 22003KT 5SM HZ CLR 31/21 A3001=
KMMU NIL=
KMSS 081353Z AUTO 19004KT 7SM CLR 29/23 A3001=
KOGS NIL=
KOLD NIL=
KOQU 081350Z 11005KT 10SM SCT007 SCT200 27/ A3013=
KORH 081354Z 22007KT 10SM BKN014 OVC019 24/21 A3012=
KPQI 081355Z AUTO 13006KT 10SM CLR 26/22 A2999=
KPSM 081355Z 14010KT 10SM FEW020 SCT200 27/21 A3008=
KPVD 081351Z 16005KT 10SM BKN010 BKN013 25/21 A3010=
KPWM 081351Z 20005KT 10SM BKN014 BKN028 24/20 A3010=
KROC 081354Z 24005KT 9SM CLR 29/21 A3004=
KSCH NIL=
KSYR 081354Z 00000KT 8SM CLR 30/22 A3004=
KWDR 081400Z AUTO 04003KT 10SM CLR 30/21 A3008=
KWRI 081355Z AUTO 15008KT 10SM FEW015 SCT190 SCT210 27/23
     A3003=
####018001790####
SAEU KAWN 081400 RRQ
METAR LECV 081400Z 05004KT 9999 FEW060 31/14 Q1021=
METAR LEGT 081400Z 00000KT 9999 TSRA SCT025 FEW050CB 28/16 Q1017=
METAR LELO 081400Z 09010KT 060V120 9999 FEW050 33/16 Q1016=
METAR LERI 081400Z 07012KT 020V110 CAVOK 33/20 Q1018 NOSIG=
METAR LERT 081400Z 29009KT 240V320 CAVOK 26/20 Q1016 NOSIG=
METAR LFOW 081400Z VRB05KT CAVOK 31/12 Q1018=
METAR LFQG 081400Z 23006KT CAVOK 32/10 Q1018=
METAR LFRI 081400Z VRB03KT CAVOK 33/08 Q1017 NOSIG=
METAR LFRM 081400Z VRB04KT CAVOK 33/08 Q1017=
METAR LJLJ 081400Z 11004KT 060V170 9999 FEW043 25/10 Q1022 NOSIG=
METAR LJMB 081400Z VRB05KT 9999 FEW040 26/09 Q1021=
METAR LJPZ 081400Z 31008KT 280V340 CAVOK 26/12 Q1021=
METAR LKKV 081400Z VRB03KT CAVOK 25/09 Q1022 RMK REG QNH 1020=
METAR LKMT 081400Z 03005KT 330V100 CAVOK 22/10 Q1022 NOSIG RMK REG
      QNH 1020=
METAR LKPR 081400Z 31003KT 260V360 CAVOK 26/10 Q1022 NOSIG RMK REG
      QNH 1020=
METAR LKTB 081400Z VRB03KT CAVOK 25/08 Q1021 NOSIG RMK REG QNH 1020=
METAR LPFR 081400Z 25010KT CAVOK 24/20 Q1016=
METAR LPPR 081400Z 20007KT 160V230 9999 FEW006 SCT250 24/18 Q1016=
METAR LPPS 081400Z 03012KT 350V060 9999 FEW016 SCT030 22/15 Q1021=
METAR LPPT 081400Z 26010KT 9999 FEW030 29/19 Q1016 NOSIG=
METAR LRAR 081400Z 01008KT 330V070 9999 BKN045 23/13 Q1020=
METAR LRBC 081400Z 03008KT 350V060 9999 SCT023 BKN040 23/17 Q1017=
METAR LRBM 081400Z 27006KT 220V330 9999 FEW043 BKN050 22/15 Q1019=
METAR LRCL 081400Z 31004KT 270V350 9999 FEW024 BKN040 19/13 Q1020 0821//95=
METAR LRIA 081400Z 31012KT 270V350 9999 SCT022 22/17 Q1017=
METAR LROD 081400Z 01010KT 340V040 CAVOK 22/12 Q1020=
METAR LRSM 081400Z 34006KT 310V020 9999 BKN044 23/13 Q1020=
METAR LRTM 081400Z 23004KT 200V270 9999 FEW033 BKN040 19/15 Q1020=
####018000568####
SAUS17 KAWN 081400 RRD
METAR K79J 081356Z 00000KT 10SM CLR 31/23 A3004 RMK AO2 SLP166 T03110233
      $=
METAR KDOV 081355Z VRB04KT 10SM SCT120 27/22 A3002 RMK AO2A SLP169
      T02690224 $=
METAR KHIF 081355Z 09013KT 10SM CLR 19/06 A3015 RMK AO2A SLP106 T01910063
      $=
METAR KNJM 081357Z AUTO 06008KT 10SM CLR 29/24 A2994 RMK AO2 SLP142
      T02940239 $=
METAR KNUQ 081356Z AUTO 04003KT 10SM OVC011 15/12 A2994 RMK AO2 SLP141
      T01500122 TSNO=
METAR PABA 081401Z AUTO 29016KT 10SM BKN040 07/04 A3001 RMK AO2 SLP161
      T00670044=
####018000198####
SAXX70 KAWN 081400 RRH
METAR KQOX 081355Z AUTO 08009G20KT 030V140 9999 CLR 25/12 A3017 RMK
      AO2 SLP088 T02460118 $=
METAR KQVE 081355Z AUTO VRB02KT 9999 CLR 35/14 A2982 RMK AO2 SLP019=
####018000548####
SAMS31 WMKK 081400
METAR 081400Z
METAR WBGG 081400Z 24004KT 9999 SCT020 BKN150 24/23 Q1013 NOSIG=
METAR WBKK 081400Z 11003KT 9999 FEW014 FEW017CB SCT140 BKN270 25/22 
Q1011
     NOSIG=
METAR WBSB 081400Z 16004KT 9999 FEW005 FEW016CB BKN300 25/24 Q1010 
NOSIG=
METAR WMKK 081400Z 00000KT 9999 FEW030 BKN280 27/25 Q1011 NOSIG=
METAR WMKP 081400Z 00000KT 9000 FEW025 SCT140 BKN270 29/25 Q1011 
NOSIG=
METAR WSSL 081400Z VRB01KT 9999 FEW018 BKN280 28/23 Q1010=
METAR WSSS 081400Z 23002KT 9999 FEW016 BKN300 28/24 Q1010 NOSIG=
####018001107####
SAAU31 AMMC 081400
METAR YBAS 081400Z AUTO 09005KT 9999NDV // NCD 07/06 Q1021=
METAR YBBN 081400Z 21008KT 9999 SCT040 13/10 Q1020
     NOSIG=
METAR YBCS 081400Z 15007KT 9999 FEW025 SCT050 22/19 Q1016
     NOSIG=
METAR YBTL 081400Z AUTO 13008KT 9999NDV // SCT010 OVC018 21/19 Q1017=
METAR YMML 081400Z 36008KT CAVOK 04/03 Q1028
     FM1400 VRB03KT 4000 BR SKC=
METAR YPAD 081400Z 03005KT 9999 FEW047 05/03 Q1025
     NOSIG=
METAR YPCC 081400Z AUTO 14010KT 9999NDV // SCT023 OVC041 26/22 Q1014=
METAR YPDN 081400Z 18007KT CAVOK 24/21 Q1014=
METAR YPKU 081400Z AUTO 16005KT 9999NDV // NCD 22/16 Q1015=
METAR YPLM 081400Z AUTO 23003KT 9999NDV // SCT021 SCT039 OVC046 19/17 Q1010=
METAR YPPH 081400Z 01011KT 9999 -SHRA FEW022 SCT042 13/13 Q0996
     INTER 1400/1700 29030G50KT 2000 TSGS BKN010 FEW030CB=
METAR YPTN 081400Z AUTO 09005KT 9999NDV // NCD 22/15 Q1015=
METAR YPXM 081400Z AUTO 21005KT //// // NCD 22/19 Q1015=
METAR YSSY 081400Z 26010KT 9999 VCSH FEW010 SCT019 11/10 Q1027
     FM1400 22008KT 9999 -SHRA SCT020 BKN045
     INTER 1400/1700 5000 SHRA BKN010=
####018000088####
SPUS81 KWBC 081405
SPECI
KANJ 081403Z AUTO 26005KT 9SM SCT004 SCT012 19/18 A2998=
####018001668####
SAUS42 KWBC 081400
METAR
KAMA 081353Z 36008KT 10SM FEW003 SCT007 OVC020 18/17 A3023=
KAUS 081353Z 09004KT 4SM -RA BR BKN010 OVC014 26/24 A2998=
KBPP NIL=
KBPT 081353Z 08010KT 9SM BKN009 28/25 A2999=
KBQK 081357Z AUTO 30005KT 10SM CLR 29/23 A3002=
KBRO 081353Z 32006KT 10SM FEW033 SCT060 27/25 A2979=
KCHA 081353Z 00000KT 9SM CLR 30/20 A3008=
KCRP 081351Z COR 03006KT 10SM SCT022 SCT040 BKN060 27/25 A2985=
KCRP 081351Z 03006KT 10SM SCT022CB SCT040 BKN060 27/25 A2985=
KDAL 081353Z 12007KT 9SM BKN011 BKN036 OVC049 26/24 A3004=
KDRT 081353Z AUTO 00000KT 10SM BKN015 26/22 A2998=
KELP 081351Z 03011KT 10SM FEW035 SCT110 23/15 A3015=
KEYW 081353Z VRB05KT 10SM FEW017 29/24 A2997=
KFPR 081353Z 06004KT 10SM SCT030 29/21 A3000=
KFTW 081353Z 13009KT 10SM SCT009 BKN035 OVC060 26/24 A3004=
KFTY 081353Z 00000KT 8SM CLR 31/21 A3005=
KFXE 081353Z 07007KT 10SM FEW022 30/23 A2996=
KGLE NIL=
KGLS 081352Z 11014G21KT 10SM FEW017 BKN100 27/24 A2995=
KGPT 081353Z 03004KT 10SM FEW022 31/25 A3004=
KHOU 081353Z 06005KT 10SM -RA FEW035 BKN090 OVC130 26/23 A2996=
KHRL 081352Z 35010KT 10SM FEW008 SCT012 BKN021 26/26 A2979=
KHSV 081353Z 02009KT 10SM FEW250 31/22 A3009=
KLCH 081353Z 08009KT 6SM BR OVC006 27/25 A3001=
KLGC 081355Z AUTO 32003KT 10SM CLR 31/21 A3005=
KLRD 081356Z 04011KT 9SM FEW008 BKN044 28/24 A2991=
KMAF 081353Z 04008KT 10SM FEW007 SCT015 OVC022 22/20 A3013=
KMFE 081353Z 35009KT 10SM BKN008 OVC013 27/24 A2982=
KMOB 081356Z 36003KT 10SM SCT025 29/24 A3006=
KNEW 081353Z 07008KT 10SM SCT014 29/26 A3005=
KOPF 081353Z 07009KT 10SM FEW023 30/24 A2997=
KOPN 081400Z AUTO 00000KT 10SM CLR 31/24 A3006=
####018000083####
SPUS81 KWBC 081405
SPECI
KDBQ 081402Z 01007KT 9SM FEW009 SCT013 23/21 A3007=
####018000563####
SAUS42 KWBC 081400 RRA
METAR
KPDK 081353Z VRB03KT 10SM CLR 31/18 A3006=
KPFN NIL=
KPGL NIL=
KPIE 081353Z 08005KT 10SM CLR 27/22 A3001=
KPNS 081353Z 00000KT 10SM CLR 29/23 A3004=
KQAO NIL=
KRSW 081353Z 04006KT 10SM CLR 28/23 A2998=
KSAT 081353Z 05008KT 6SM BR BKN009 OVC045 26/23 A2997=
KSAV 081353Z 29008KT 10SM CLR 30/19 A3000=
KSHV 081356Z 14006KT 10SM BKN110 OVC280 27/24 A3006=
KSSI 081353Z AUTO 30007KT 10SM CLR 28/20 A3001=
KTMB 081353Z 09007KT 10SM CLR 32/25 A2997=
KTUL 081353Z 00000KT 10SM SCT006 BKN090 OVC100 24/23 A3004=
####018000180####
SAUS42 KWBC 081400 CCA
METAR
KBTR 081353Z 08004KT 10SM SCT005 BKN010 27/24 A3004=
KMGM 081353Z 00000KT 10SM CLR 31/22 A3003=
KTYS 081353Z 08004KT 6SM HZ CLR 29/20 A3008=
####018000760####
SACI31 ZBBB 081400
METAR ZBAA 081400Z 14003MPS CAVOK 29/18 Q1006 NOSIG=
METAR ZBSJ 081400Z 16002MPS 7000 NSC 26/21 Q1006 NOSIG=
METAR ZBTJ 081400Z 14003MPS CAVOK 26/18 Q1006 NOSIG=
METAR ZBYN 081400Z 08007MPS CAVOK 26/14 Q1009 NOSIG=
METAR ZGGG 081400Z 16003MPS 9999 SCT030 32/26 Q1007 NOSIG=
METAR ZSHC 081400Z VRB01MPS 5000 -RA BR FEW007 SCT026 26/23 Q1005
 NOSIG=
METAR ZSPD 081400Z 11007MPS 9999 SCT009 26/24 Q1005 NOSIG=
METAR ZSSS 081400Z 12004MPS 9999 SCT016 27/23 Q1005 NOSIG=
METAR ZWSH 081400Z 25003MPS 9999 FEW040CB SCT040 32/01 Q1013 NOSIG=
METAR ZWWW 081400Z 20006MPS 9999 FEW033CB 29/08 Q1011 NOSIG=
METAR ZYTL 081400Z 30003MPS 4000 BR NSC 23/20 Q1007 NOSIG=
METAR ZYTX 081400Z VRB01MPS 9999 FEW030 19/18 Q1007 NOSIG=
####018000096####
SPUS81 KWBC 081405
SPECI
KJLN 081402Z 09005KT 1SM RA BR FEW004 BKN013 OVC055 22/22 A3008=
####018000084####
SPUS81 KWBC 081405
SPECI
KORH 081402Z 20007KT 10SM SCT014 BKN019 24/20 A3013=
####018000082####
SAZW40 FVHA 081400 RRA
METAR FVHA 081400Z 10006KT CAVOK 18/04 Q1028 NOSIG=

####018000825####
SACI32 ZBBB 081400
METAR ZGKL 081400Z VRB01MPS CAVOK 29/26 Q1005 NOSIG=
METAR ZGNN 081400Z 10002MPS CAVOK 29/25 Q1005 NOSIG=
METAR ZGOW 081400Z 21006MPS 9999 FEW020 29/26 Q1009 NOSIG=
METAR ZGSZ 081400Z 17006MPS 140V200 9999 FEW020 30/25 Q1008 NOSIG=
METAR ZLXY 081400Z 09002MPS 060V120 1700 BR SCT030 OVC050 23/21
 Q1009 NOSIG=
METAR ZMUB 081400Z 15012MPS 9999 -SHRA SCT030CB SCT033 16/11 Q1007
 NOSIG RMK
 QFE648.7 72=
METAR ZPPP 081400Z 19004MPS 9999 FEW026 BKN050 22/17 Q1016 NOSIG=
METAR ZSAM 081400Z 19004MPS 9999 FEW023 29/25 Q1008 NOSIG=
METAR ZSFZ 081400Z 21004MPS 9999 FEW021 28/24 Q1006 NOSIG=
METAR ZSNB 081400Z 15002MPS 120V180 7000 -SHRA SCT030 25/24 Q1005
 NOSIG=
METAR ZSQD 081400Z 16003MPS 9999 FEW012 23/19 Q1007 NOSIG=
METAR ZUUU 081400Z 24001MPS CAVOK 28/25 Q1004 NOSIG=
####018001660####
SAUS43 KWBC 081400
METAR
KAZO 081353Z 00000KT 5SM HZ FEW065 SCT100 26/22 A3004=
KBDE 081353Z AUTO VRB04KT 10SM CLR 19/14 A3001=
KBTL 081353Z 07003KT 10SM CLR 27/21 A3004=
KBTM 081353Z AUTO 00000KT 10SM CLR 09/02 A3033=
KC09 NIL=
KC75 NIL=
KCGX NIL=
KCIU 081355Z AUTO 02010KT 10SM SCT006 OVC012 21/18 A3000=
KCMX 081353Z AUTO 28012KT 10SM FEW060 21/16 A3001=
KCOS 081354Z 17003KT 10SM CLR 15/12 A3037=
KCPR 081353Z 27003KT 10SM CLR 11/07 A3036=
KDET 081353Z 29005KT 10SM CLR 31/20 A3003=
KDKB NIL=
KDLH 081355Z 27008KT 10SM CLR 22/14 A3006=
KDNV NIL=
KDSM 081354Z 01009KT 10SM FEW015 SCT150 BKN250 23/18 A3012=
KELO 081353Z AUTO 25005KT 10SM CLR 20/14 A3003=
KENL NIL=
KFAR 081353Z 27005KT 10SM CLR 21/13 A3008=
KFEP NIL=
KFNT 081353Z AUTO 20004KT 10SM CLR 28/21 A3003=
KFOA NIL=
KFWC NIL=
KGBG NIL=
KGFK 081353Z 32006KT 10SM CLR 21/14 A3007=
KGRB 081353Z 30006KT 2 1/2SM BR FEW006 BKN017 23/21 A3001=
KGRM NIL=
KGRR 081353Z 00000KT 3SM -RA BR FEW008 BKN036 OVC095 24/22
     A3003=
KHSB NIL=
KICT 081353Z 36009KT 9SM OVC009 23/21 A3012=
KIGQ NIL=
KIJX NIL=
KIKK NIL=
KINL 081355Z AUTO 24006KT 10SM CLR 19/14 A3002=
KISN 081352Z 00000KT 10SM CLR 18/11 A3016=
KJOT NIL=
KLEX 081354Z 19006KT 5SM HZ CLR 29/19 A3010=
KLOT NIL=
KMBS 081353Z 25003KT 10SM SCT070 25/22 A3003=
KMDW 081351Z 23003KT 6SM BR FEW007 BKN023 OVC030 24/22 A3003=
KMKC 081354Z 00000KT 8SM OVC007 24/22 A3010=
KMKE 081352Z 27009KT 10SM FEW011 BKN019 BKN080 OVC200 24/21
     A3002=
KMLI 081352Z 36003KT 10SM BKN011 24/22 A3005=
KMOT 081354Z 23005KT 10SM BKN070 19/12 A3012=
KMQB NIL=
KMQT NIL=
####018000797####
SAUS43 KWBC 081400 RRA
METAR
KMWA 081354Z 23006KT 15SM SCT070 BKN110 BKN250 29/24 A3008=
KOLY NIL=
KOMA 081352Z 01007KT 10SM FEW022 BKN250 21/18 A3016=
KPHN 081355Z AUTO 25003KT 10SM CLR 29/21 A3002=
KPIA 081354Z 31003KT 10SM FEW008 OVC016 24/22 A3006=
KPNT NIL=
KPPQ NIL=
KPRG NIL=
KPTK 081353Z 23004KT 10SM FEW150 SCT240 30/21 A3003=
KPUB 081353Z 12005KT 10SM CLR 16/13 A3031=
KRAD NIL=
KSAR NIL=
KSAW 081350Z 35005KT 10SM BKN011 22/18 A2999=
KSDF 081356Z 18003KT 6SM HZ FEW065 SCT100 SCT150 30/21 A3007=
KSGF 081352Z 00000KT 10SM FEW009 BKN014 OVC047 24/22 A3009=
KSLO NIL=
KSTP 081353Z 32003KT 10SM CLR 23/17 A3011=
KSUS 081354Z 00000KT 10SM -RA SCT012 BKN150 25/23 A3005=
KTAZ NIL=
KTIP NIL=
KTOL 081352Z 00000KT 9SM CLR 29/21 A3004=
KVYS NIL=
####018000123####
SAUS43 KWBC 081400 CCA
METAR
K12C NIL=
K1H2 NIL=
KAAA NIL=
KAPN 081354Z 26003KT 9SM BKN047 OVC075 23/21 A3000=
####018001672####
SAUS44 KWBC 081400
METAR
K11R NIL=
KBFI 081353Z 35003KT 10SM CLR 20/14 A2996=
KBIL 081353Z 22008KT 10SM CLR 13/06 A3026=
KBKE 081353Z AUTO 00000KT 10SM CLR 11/08 A3014=
KBLI 081353Z AUTO 00000KT 10SM CLR 17/14 A2998=
KBOI 081353Z 15008KT 10SM CLR 20/06 A3010=
KBPG NIL=
KBYY NIL=
KCLM 081353Z AUTO A3000=
KCTB 081356Z AUTO 00000KT 10SM CLR 13/08 A3023=
KCXL NIL=
KDUG 081356Z AUTO 12013G18KT 10SM CLR 26/13 A3008=
KEKA NIL=
KFAT 081353Z 33005KT 10SM CLR 19/09 A2985=
KGDV 081355Z AUTO 18005KT 10SM CLR 17/09 A3019=
KGEG 081353Z 05007KT 10SM CLR 18/08 A3008=
KGGW 081353Z AUTO 32004KT 10SM CLR 15/11 A3017=
KGLH 081353Z 00000KT 10SM CLR 27/24 A3007=
KGPI 081355Z 35005KT 10SM CLR 16/08 A3019=
KGTF 081353Z 25003KT 10SM CLR 14/08 A3024=
KGWO 081353Z AUTO 00000KT 10SM CLR 29/23 A3008=
KHLN 081353Z 00000KT 10SM CLR 12/05 A3027=
KHQM 081353Z AUTO 28004KT 1/2SM FG 13/12 A2997=
KHVR 081353Z AUTO 26003KT 10SM CLR 14/10 A3021=
KIPL 081353Z AUTO 13007KT 10SM CLR 26/13 A2972=
KLBB 081353Z 07006KT 10SM SCT006 BKN037 OVC110 20/18 A3018=
KMSO 081353Z 17004KT 10SM CLR 13/07 A3022=
KMWH 081352Z 03006KT 10SM CLR 19/07 A3003=
KNOW NIL=
KNUW 081356Z 00000KT 10SM CLR 17/12 A2998=
KOLF 081353Z AUTO 22004KT 10SM CLR 17/11 A3017=
KOLM 081354Z AUTO 00000KT 10SM CLR 15/12 A2997=
KOLS 081354Z AUTO 05007KT 10SM CLR 27/11 A3002=
KOLV 081350Z 00000KT 7SM FEW250 30/24 A3010=
KPAE 081353Z AUTO 01003KT 10SM CLR 20/12 A2998=
KPDX 081353Z 00000KT 10SM FEW250 19/14 A2992=
KPMD 081353Z 00000KT 10SM CLR 19/01 A2992=
KRNO 081355Z 00000KT 10SM FEW100 BKN150 21/06 A3007=
KRNT 081353Z 00000KT 9SM CLR 17/13 A2996=
####018000441####
SAUS44 KWBC 081400 RRA
METAR
KSAC 081353Z 18006KT 10SM CLR 13/10 A2986=
KSCK 081355Z AUTO 03004KT 10SM CLR 14/11 A2986=
KSFF 081353Z 00000KT 10SM CLR 18/10 A3008=
KSJC 081353Z 00000KT 7SM FEW008 BKN011 OVC013 15/12 A2993=
KSLC 081353Z 14004KT 10SM FEW090 BKN130 22/07 A3012=
KSMF 081353Z 15009KT 10SM CLR 14/11 A2985=
KTIW 081353Z AUTO 00000KT 10SM CLR 20/12 A2996=
KTUS 081353Z 09005KT 10SM CLR 30/11 A2994=
KYUM NIL=
####018000085####
SAUS44 KWBC 081400 CCA
METAR
KSDM 081353Z AUTO 00000KT 8SM OVC010 16/13 A2992=
####018001302####
SAUS51 KWBC 081400
METAR
K40B NIL=
KACY 081354Z 12004KT 4SM -RA BR SCT022 BKN060 24/22 A3005=
KAUG 081353Z AUTO VRB04KT 10SM BKN011 OVC017 23/21 A3010=
KAVL 081354Z 35007KT 8SM CLR 27/19 A3015=
KBGM 081353Z 00000KT 7SM CLR 27/20 A3012=
KBKW 081351Z AUTO 03004KT 6SM HZ CLR 26/18 A3018=
KCBE 081353Z AUTO 00000KT 7SM CLR 27/20 A3010=
KCHH NIL=
KCON 081351Z AUTO 15008KT 7SM BKN016 27/21 A3008=
KDCA 081352Z 00000KT 5SM HZ SCT100 SCT250 31/22 A3001=
KEKN 081351Z AUTO 00000KT 6SM HZ CLR 24/18 A3016=
KESN 081353Z 16006KT 6SM HZ SCT200 28/24 A3005=
KGFL 081353Z AUTO 00000KT 6SM HZ FEW090 29/22 A3003=
KGSP 081353Z VRB03KT 9SM CLR 31/19 A3004=
KHAT NIL=
KHSS NIL=
KIPJ 081400Z AUTO 02003KT 10SM CLR 31/20 A3003=
KIPT 081354Z VRB05KT 9SM CLR 28/18 A3005=
KLYH 081354Z 02004KT 6SM HZ CLR 31/19 A3006=
KMHT 081353Z 20004KT 7SM BKN020 BKN043 BKN110 27/21 A3007=
KMPV 081351Z AUTO 17007KT 6SM HZ CLR 29/23 A3011=
KMWN 081353Z 24003KT 3SM BKN/// BKN002 17/15=
KMYR NIL=
KNYC 081351Z AUTO VRB04KT 5SM -RA FEW013 BKN018 OVC033 26/23
     A3008=
KPNE 081354Z 13006KT 7SM BKN015 27/23 A3005=
KROA 081354Z 01008KT 6SM HZ FEW085 31/17 A3009=
KSMQ 081353Z AUTO 19003KT 5SM HZ OVC022 27/23 A3003=
KWAL 081354Z 09009KT 10SM SCT013 BKN080 OVC120 28/21 A3003=
####018000081####
SAUS51 KWBC 081300 RRE
METAR
KMYR 081345Z COR 33010KT 8SM CLR 29/20 A2997=
####018000159####
SAFP20 LFVP 071700
METAR
METAR LFVP 071700Z 22007KT CAVOK 17/13 Q1018=
SAFP20 LFVP 071800
METAR
METAR LFVP 071800Z 25008KT CAVOK 18/14 Q1018=
/=
####018001672####
SAUS52 KWBC 081400
METAR
K3R1 NIL=
KAAF 081353Z AUTO 02006KT 10SM CLR 29/23 A3002=
KABR 081353Z AUTO 27007KT 10SM CLR 21/13 A3014=
KACT 081351Z 06006KT 8SM BKN010 BKN018 OVC060 26/24 A3003=
KAGS 081353Z 33010KT 10SM CLR 33/18 A2999=
KAHN 081351Z 00000KT 6SM HZ CLR 30/20 A3004=
KALI 081353Z AUTO 04009G15KT 10SM FEW007 SCT016 BKN024 26/25
     A2986=
KAUS 081353Z 09004KT 4SM -RA BR BKN010 OVC014 26/24 A2998=
KAYS 081400Z AUTO 30004KT 10SM CLR 29/23 A3002=
KBVE NIL=
KCAO 081355Z AUTO 36008KT 10SM FEW014 17/13 A3031=
KCDS 081353Z AUTO 05006KT 10SM CLR 24/21 A3012=
KCKL NIL=
KCLL 081353Z 09010KT 8SM OVC009 27/23 A2999=
KCNM 081353Z AUTO 32010KT 9SM -RA FEW007 BKN048 OVC100 19/19
     A3018=
KCOT 081353Z AUTO 04006KT 10SM OVC009 26/23 A2991=
KCSG 081351Z 00000KT 10SM CLR 30/21 A3004=
KCTY 081353Z AUTO 00000KT 27/23 A3002=
KDHT 081353Z AUTO 01013KT 10SM BKN007 BKN015 OVC020 18/17
     A3027=
KECP 081353Z 36003KT 10SM CLR 29/24 A3003=
KELD 081353Z AUTO 13003KT 9SM CLR 26/24 A3008=
KELP 081351Z 03011KT 10SM FEW035 SCT110 23/15 A3015=
KESF 081353Z AUTO 09004KT 10SM BKN005 27/24 A3006=
KFCL NIL=
KFSM 081353Z 06003KT 10SM OVC046 26/23 A3006=
KFYV 081353Z 20005KT 10SM SCT028 BKN034 OVC055 24/22 A3009=
KGAG 081353Z AUTO 02007KT 3SM RA BR OVC005 20/19 A3017=
KGDP 081351Z AUTO 06020KT 1 3/4SM BR SCT002 BKN006 17/17 A3026=
KHBR 081353Z AUTO 07004KT 8SM BKN007 23/22 A3011=
KHDO 081351Z AUTO 05009KT 10SM FEW017 27/23 A2998=
KHOT 081353Z AUTO 15004KT 10SM BKN010 OVC013 26/23 A3011=
KHRO 081353Z AUTO 18004KT 10SM BKN050 24/22 A3011=
KINK 081353Z AUTO 04008KT 10SM BKN024 OVC090 23/19 A3012=
####018000225####
SAUS52 KWBC 081400 CCA
METAR
KDAB 081353Z VRB03KT 10SM FEW026 SCT250 28/19 A3002=
KMCN 081353Z 30005KT 10SM CLR 30/19 A3004=
KTRI 081353Z 00000KT 5SM HZ CLR 27/19 A3012=
KTUP 081353Z 05004KT 10SM CLR 29/22 A3008=
####018001414####
SAUS52 KWBC 081400 RRA
METAR
KIPT 081354Z VRB05KT 9SM CLR 28/18 A3005=
KJAN 081354Z 06005KT 10SM CLR 28/23 A3008=
KJBR 081353Z AUTO 24005KT 10SM CLR 28/22 A3008=
KJCT 081351Z AUTO 07004KT 10SM BKN008 OVC022 24/22 A3004=
KJQF 081355Z 36005KT 10SM SCT100 31/18 A3002=
KLFK 081353Z AUTO 09007KT 10SM BKN010 27/24 A3003=
KLFT 081353Z VRB03KT 10SM OVC006 27/24 A3004=
KMEI 081358Z 01005KT 10SM CLR 29/23 A3007=
KMLC 081353Z AUTO 18005KT 10SM BKN009 BKN018 OVC032 25/23
     A3006=
KMLU 081353Z 07004KT 10SM CLR 28/24 A3008=
KMWL 081353Z AUTO 13005KT 10SM OVC033 25/23 A3004=
KPBF 081353Z AUTO 00000KT 10SM CLR 27/23 A3009=
KPNC 081353Z AUTO 36006KT 10SM BKN009 BKN042 24/22 A3008=
KPSX 081353Z AUTO 14014G23KT 3SM -RA BR FEW002 28/26 A2990=
KPWA 081353Z 35004KT 7SM SCT005 24/22 A3008=
KQAO NIL=
KRMG 081353Z AUTO 02004KT 10SM CLR 29/19 A3006=
KRSL 081353Z AUTO 35008KT 10SM OVC015 19/17 A3018=
KSEP NIL=
KSHV 081356Z 14006KT 10SM BKN110 OVC280 27/24 A3006=
KSPS 081352Z COR 00000KT 10SM SCT007 SCT220 26/22 A3005=
KSPS 081352Z 00000KT 10SM CLR 26/22 A3005=
KTLH 081353Z 33005KT 10SM CLR 29/22 A3003=
KTOP 081353Z 02007KT 9SM OVC007 24/22 A3012=
KVCT 081351Z 05008KT 1SM +RA BR BKN018 BKN022 OVC026 25/24
     A2992=
KVGT 081353Z 32007KT 10SM CLR 27/M02 A2988=
KVUJ 081359Z AUTO 04005KT 10SM SCT075 32/21 A2999=
KWRB 081355Z 36006KT 10SM CLR 30/22 A3003=
####018000312####
SAJP35 RJTD 081400
METAR RJAA 081400Z 15004KT 9999 FEW015 FEW020CB BKN100 22/22 Q1011
           NOSIG=
METAR RJBB 081400Z 22007KT 9999 FEW008 BKN/// 26/22 Q1009 NOSIG=
METAR RJTT 081400Z 18010KT 9999 FEW008 SCT140 BKN/// 25/22 Q1010=
METAR RJGG 081400Z 13004KT 9999 FEW015 BKN/// 25/23 Q1010 NOSIG=
####018000380####
SAJP31 RJTD 081400
METAR RJAA 081400Z 15004KT 9999 FEW015 FEW020CB BKN100 22/22 Q1011
           NOSIG=
METAR RJBB 081400Z 22007KT 9999 FEW008 BKN/// 26/22 Q1009 NOSIG=
METAR RJTT 081400Z 18010KT 9999 FEW008 SCT140 BKN/// 25/22 Q1010=
METAR ROAH 081400Z 19013KT 9999 FEW008 SCT010 BKN180 29/26 Q1011=
METAR RJGG 081400Z 13004KT 9999 FEW015 BKN/// 25/23 Q1010 NOSIG=
####018000669####
SAJP36 RJTD 081400
METAR RJAA 081400Z 15004KT 9999 FEW015 FEW020CB BKN100 22/22 Q1011
           NOSIG=
METAR RJBB 081400Z 22007KT 9999 FEW008 BKN/// 26/22 Q1009 NOSIG=
METAR RJTT 081400Z 18010KT 9999 FEW008 SCT140 BKN/// 25/22 Q1010=
METAR ROAH 081400Z 19013KT 9999 FEW008 SCT010 BKN180 29/26 Q1011=
METAR RJFF 081400Z 09003KT 070V180 8000 FEW020 BKN/// 25/21 Q1008=
METAR RJGG 081400Z 13004KT 9999 FEW015 BKN/// 25/23 Q1010 NOSIG=
METAR RJCC 081400Z 20003KT 1100 R01R/0800V1500N -DZ BR BKN002 17/17
           Q1010=
METAR RJNK 081400Z 20003KT 7000 FEW015 BKN/// 23/21 Q1009=
METAR RJAH 081400Z 13004KT 100V160 9999 FEW030 BKN/// 24/23 Q1010=
####018001571####
SANA35 KAWN 081400 RRC
METAR KDOV 081355Z VRB04KT 10SM SCT120 27/22 A3002 RMK AO2A SLP169
      T02690224 $=
METAR KNGU 081359Z 06008KT 10SM SCT070 BKN100 28/22 A3001 RMK AO2 SLP162
      T02830217=
METAR KNJM 081357Z AUTO 06008KT 10SM CLR 29/24 A2994 RMK AO2 SLP142
      T02940239 $=
METAR MKJS 081400Z 11004KT 9999 FEW024 BKN220 30/22 Q1013=
METAR MTPP 1400Z 10012G22KT 7000 FEW026 SCT200 31/24 Q1015/8 A2999=
METAR MUGM 081356Z 06003KT 9999 FEW040 BKN250 30/23 A2998 RMK SLP150
      T03000228=
METAR MYGF 081400Z 11006KT 9999 SCT018CB 30/24 A2998 RMK CB S/SW=
METAR SCAR 081400Z VRB01KT 9999 OVC021 15/09 Q1016=
METAR SCBA 081400Z 31017KT 9999 FEW030 SCT035 M01/M04 Q1003=
METAR SCDA 081400Z 01006KT 9999 OVC026 15/08 Q1017=
METAR SCEL 081400Z 30004KT 5000 HZ FEW130 05/03 Q1023 NOSIG=
METAR SCFA 081400Z VRB02KT 9999 BKN023 14/07 Q1017 NOSIG=
METAR SCIE 081400Z 29012KT 9999 BKN008 OVC012 13/11 Q1020=
METAR SCTE 081400Z 18007KT 9999 BKN009 BKN025 06/06 Q1016 NOSIG=
METAR SKBQ 081400Z 20004KT 8000 SCT010 BKN070 28/26 A2992 HZ=
METAR SPHI 081400Z 16010KT 9999 SCT013 SCT100 18/13 Q1016 RMK BIRD
      HAZARD RWY 19/01 PP000=
METAR SPQU 081400Z VRB03KT CAVOK 15/M10 Q1025 NOSIG RMK PP000=
METAR SPRU 081400Z 19003KT 7000 OVC015 16/13 Q1015 RMK BIRD HAZARD
      RWY20 PP000=
METAR SPSO 081400Z 12004KT CAVOK 16/13 Q1015 RMK PP000=
METAR TBPB 081400Z 09020KT 9999 BKN014 BKN280 31/25 Q1014 NOSIG=
METAR TNCM 081400Z 07013KT 9999 SCT021 30/23 Q1016=
METAR TVSV 081400Z 11014KT 9999 SCT023 SCT280 31/26 Q1014=
####018000180####
SAJP32 RJTD 081400
METAR RJFF 081400Z 09003KT 070V180 8000 FEW020 BKN/// 25/21 Q1008=
METAR RJCC 081400Z 20003KT 1100 R01R/0800V1500N -DZ BR BKN002 17/17
           Q1010=
####018000442####
SAJP37 RJTD 081400
METAR RJAA 081400Z 15004KT 9999 FEW015 FEW020CB BKN100 22/22 Q1011
           NOSIG=
METAR RJBB 081400Z 22007KT 9999 FEW008 BKN/// 26/22 Q1009 NOSIG=
METAR RJTT 081400Z 18010KT 9999 FEW008 SCT140 BKN/// 25/22 Q1010=
METAR RJFF 081400Z 09003KT 070V180 8000 FEW020 BKN/// 25/21 Q1008=
METAR RJGG 081400Z 13004KT 9999 FEW015 BKN/// 25/23 Q1010 NOSIG=
METAR RJFR 081400Z 06010KT 8000 FEW025 BKN/// 25/22 Q1008=
####018001687####
SAUS53 KWBC 081400
METAR
KAIA 081353Z AUTO 00000KT 10SM BKN060 16/13 A3031=
KAID NIL=
KALO 081354Z AUTO 34010KT 10SM CLR 22/19 A3009=
KALS 081352Z AUTO 27003KT 10SM CLR 12/08 A3043=
KANW 081350Z AUTO 29004KT 10SM CLR 19/14 A3026=
KBBW 081353Z AUTO 35006KT 10SM CLR 20/16 A3025=
KBFF 081353Z AUTO 00000KT 10SM SCT039 17/13 A3031=
KBIE 081350Z AUTO 03006KT 10SM SCT035 21/18 A3016=
KBIS 081352Z 31005KT 10SM CLR 19/11 A3016=
KBPI 081353Z AUTO 00000KT 10SM CLR 10/04 A3041=
KBRL 081353Z AUTO 6SM BR OVC004 23/22 A3007=
KCAG 081353Z AUTO 05003KT 10SM BKN120 11/07 A3034=
KCGI 081353Z 25005KT 10SM FEW110 28/24 A3006=
KCID 081352Z 34007KT 6SM BR SCT005 22/20 A3007=
KCNK 081355Z AUTO 35005KT 10SM OVC044 21/18 A3018=
KCNU 081352Z AUTO 00000KT 4SM BR OVC003 23/22 A3009=
KCOU 081354Z 13003KT 10SM FEW003 SCT014 OVC024 24/23 A3009=
KCYS 081353Z 22003KT 10SM SCT011 BKN040 14/12 A3037=
KCZD NIL=
KDBQ 081353Z 34005KT 9SM SCT011 24/21 A3007=
KDDC 081352Z AUTO 01011KT 7SM OVC005 19/17 A3020=
KDVL 081355Z AUTO 32010KT 10SM CLR 18/11 A3011=
KEAR 081355Z AUTO 01005KT 10SM FEW060 18/16 A3025=
KEHA NIL=
KEVV 081354Z VRB04KT 10SM CLR 31/23 A3007=
KF55 NIL=
KFNB 081353Z AUTO 02006KT 10SM FEW009 22/19 A3013=
KFSD 081356Z 00000KT 10SM CLR 21/16 A3018=
KFWA 081354Z 20006KT 9SM OVC050 28/21 A3005=
KGCC 081353Z AUTO 11003KT 10SM CLR 17/09 A3030=
KGCK 081354Z 02009KT 10SM BKN023 20/17 A3025=
KGJT 081353Z 07014KT 10SM CLR 22/07 A3021=
KGLD 081353Z AUTO 00000KT 10SM OVC038 17/16 A3031=
KGPZ 081355Z AUTO 29006KT 10SM CLR 20/14 A3007=
KGRI 081353Z 36005KT 10SM CLR 19/15 A3022=
KHON 081355Z AUTO 31004KT 10SM CLR 20/15 A3016=
####018001658####
SAUS53 KWBC 081400 RRA
METAR
KHSI 081353Z AUTO 04003KT 10SM CLR 19/16 A3022=
KHTL 081353Z AUTO 25006KT 6SM -RA BR FEW009 BKN041 OVC065 22/21
     A3005=
KIML 081353Z AUTO 02003KT 10SM SCT100 19/15 A3029=
KIRK 081355Z AUTO 01009KT 10SM FEW008 23/21 A3010=
KJAC 081351Z 00000KT 10SM SKC 11/01 A3038=
KJKL 081353Z AUTO 00000KT 5SM HZ CLR 27/22 A3013=
KJLN 081353Z 00000KT 1/2SM +RA FG FEW002 BKN013 OVC029 22/22
     A3009=
KJNX 081359Z AUTO 01006KT 10SM CLR 29/21 A2997=
KLAN 081353Z 00000KT 10SM SCT120 BKN200 27/21 A3003=
KLBF 081353Z AUTO 00000KT 10SM CLR 18/16 A3027=
KLIH NIL=
KLNC NIL=
KLNK 081354Z 01006KT 10SM CLR 21/18 A3018=
KLXV 081353Z AUTO 00000KT 10SM OVC008 07/05 A3053=
KMCK 081353Z AUTO 00000KT 10SM SCT049 18/16 A3027=
KMCW 081353Z AUTO 35009KT 10SM CLR 21/17 A3016=
KMFD 081352Z 27003KT 7SM CLR 29/19 A3010=
KMHK 081352Z 03009KT 7SM OVC008 22/20 A3013=
KMHN NIL=
KMKG 081355Z 20009KT 5SM BR BKN007 BKN030 OVC045 23/22 A3003=
KMMO NIL=
KMSN 081353Z 32004KT 8SM BKN008 24/21 A3003=
KODX 081353Z AUTO 32005KT 10SM BKN100 19/17 A3021=
KONL 081350Z AUTO 29004KT 10SM CLR 20/16 A3023=
KOTM 081353Z AUTO 35006KT 8SM SCT008 22/21 A3009=
KOVN NIL=
KPAH 081353Z 26004KT 10SM CLR 28/23 A3007=
KPKD 081353Z AUTO 28006KT 10SM CLR 20/14 A3009=
KRAP 081352Z 28004KT 10SM CLR 18/11 A3026=
KRFD 081354Z 32006KT 10SM FEW006 SCT013 BKN150 26/21 A3005=
KRIW 081353Z AUTO 33004KT 10SM CLR 14/06 A3035=
KRST 081354Z 35009KT 10SM CLR 22/17 A3013=
KSBN 081354Z 10005KT 7SM BKN090 23/22 A3004=
KSHR 081353Z AUTO 00000KT 10SM CLR 14/08 A3027=
KSLN 081353Z 36011KT 10SM BKN010 22/19 A3015=
####018000083####
SAUS53 KWBC 081400 CCA
METAR
KLND 081353Z AUTO 00000KT 10SM CLR 13/05 A3035=
####018000566####
SAUS53 KWBC 081400 RRB
METAR
KSPI 081352Z VRB03KT 10SM FEW010 SCT014 BKN027 26/23 A3006=
KSSM NIL=
KSTC 081353Z 30009KT 10SM CLR 23/14 A3010=
KSUX 081352Z 33004KT 10SM CLR 21/17 A3018=
KSVM NIL=
KTCS 081353Z AUTO 02010KT 10SM FEW110 19/14 A3022=
KTDF 081402Z AUTO 02003KT 5SM CLR 29/20 A3002=
KUDG 081355Z 35005KT 10SM CLR 31/20 A2999=
KUIN 081354Z AUTO 31003KT 10SM FEW004 SCT110 23/22 A3007=
KVIH 081353Z AUTO 00000KT 10SM OVC005 24/22 A3008=
KVTN 081352Z AUTO 26003KT 10SM CLR 19/13 A3026=
KYNG 081351Z 14004KT 8SM FEW065 28/18 A3009=
####018001606####
SAUS54 KWBC 081400
METAR
KAWH NIL=
KBFL 081354Z 00000KT 10SM CLR 22/12 A2986=
KBIH 081356Z AUTO 31003KT 10SM CLR 17/03 A3003=
KBNY NIL=
KBUO NIL=
KBZN 081356Z 00000KT 10SM CLR 13/06 A3030=
KCNY 081353Z AUTO 13006KT 10SM CLR 23/05 A3015=
KCQV NIL=
KCZK NIL=
KCZZ 081352Z AUTO 00000KT 09/09 A2990=
KELY NIL=
KEUG 081354Z 20007KT 10SM FEW170 SCT250 14/11 A2995=
KGNG NIL=
KHMM NIL=
KHMS 081350Z 29005KT 15SM SKC 24/06 A2998=
KHTH NIL=
KIGM NIL=
KINW 081356Z AUTO 10003KT 10SM FEW120 22/02 A3015=
KIZA NIL=
KJDN NIL=
KJNW NIL=
KJNX 081359Z AUTO 01006KT 10SM CLR 29/21 A2997=
KLGB 081353Z 33003KT 8SM OVC013 17/13 A2992=
KMEH 081356Z AUTO 00000KT 10SM CLR 09/06 A3013=
KMFR 081353Z 01003KT 10SM SCT110 19/12 A2993=
KMLD NIL=
KMLF 081352Z AUTO 00000KT 10SM CLR 13/04 A3015=
KMQM NIL=
KMWS NIL=
KOLM 081354Z AUTO 00000KT 10SM CLR 15/12 A2997=
KOWY NIL=
KPDT 081353Z 14004KT 10SM CLR 18/08 A3000=
KPFC NIL=
KPGA 081353Z AUTO 00000KT 10SM CLR 26/04 A3009=
KPIH 081353Z 00000KT 10SM CLR 11/06 A3019=
KPUC 081353Z AUTO 30003KT 10SM CLR 19/03 A3025=
KRBL 081354Z AUTO 16004KT 10SM CLR 22/14 A2985=
KRDD 081353Z 18008KT 10SM CLR 22/14 A2984=
KSHN 081353Z AUTO 00000KT 10SM CLR 14/12 A2994=
KSJN 081354Z AUTO 13007KT 10SM FEW110 22/07 A3021=
KSLC 081353Z 14004KT 10SM FEW090 BKN130 22/07 A3012=
KSOW 081350Z AUTO 19005KT 10SM SCT120 19/04 A3028=
KSVE NIL=
KTRK 081350Z 00000KT 10SM SCT050 BKN100 07/06 A3017=
KUIL 081353Z AUTO 00000KT 10SM CLR 16/11 A2997=
KWEY NIL=
KXCN NIL=
KYKM 081353Z 25005KT 10SM CLR 18/08 A3003=
####018000598####
SAUS54 KWBC 081400 CCA
METAR
KAST 081355Z AUTO 23003KT 3SM BR OVC003 12/11 A2997=
KBLU 081352Z AUTO 05003KT 10SM CLR 21/03 A3010=
KDRA 081355Z AUTO 00000KT 10SM CLR 23/M10 A2997=
KFLG 081356Z 00000KT 10SM SCT110 14/02 A3030=
KLWS 081356Z 07005KT 10SM CLR 17/09 A3005=
KMHS 081356Z AUTO 00000KT 10SM CLR 12/08 A3003=
KNUQ 081356Z AUTO 04003KT 10SM OVC011 15/12 A2994=
KSDB 081352Z AUTO 00000KT 10SM CLR 22/M02 A3003=
KSMP 081356Z AUTO 00000KT 10SM CLR 17/05 A3016=
KSMX 081351Z 30004KT 2 1/2SM BR BKN004 OVC008 12/11 A2994=
KWMC 081356Z AUTO 01005KT 10SM CLR 20/M04 A3009=
####018000854####
SAUS20 KNKA 081406
SPECI KAZO 081405Z 21004KT 1 3/4SM RA SCT030 BKN060 BKN100 25/22 
    A3005 RMK AO2 RAB1359 P0001=
METAR KBXK 081355Z AUTO 35003KT 10SM CLR 27/00 A2982 RMK AO1 =
SPECI KCEC 081405Z AUTO 34003KT 1 3/4SM BR OVC001 10/09 A2998 RMK 
    AO2=
METAR KCWA 081350Z 35004KT 10SM OVC005 21/20 A3007=
SPECI KDXR 081405Z 16003KT 3SM -RA BR FEW007 SCT016 OVC034 24/24 
    A3008 RMK AO2 P0001=
METAR KHOB 081350Z 01007KT 10SM SCT006 BKN100 20/19 A3018=
SPECI KLWD 081405Z AUTO 01007KT 10SM FEW007 22/20 A3012 RMK AO2=
SPECI KMFI 081405Z AUTO 34006KT 10SM FEW013 22/18 A3006 RMK AO2=
SPECI KODO 081406Z AUTO 03010G18KT 9SM FEW005 BKN013 OVC019 22/19 
    A3015 RMK AO2=
METAR KPAN 081415Z AUTO 12005KT 10SM FEW036 FEW065 23/06 A3018 RMK 
     AO1 =
METAR KRQO 081415Z AUTO 00000KT 5SM BR OVC003 23/23 A3009 RMK AO2=
####018000137####
SAOM32 OOMS 081400
METAR OOMS 081400Z 06005KT 6000 SCT025 BKN100 33/27
Q1000 NOSIG=
METAR OOSA 081350Z AUTO 17005KT 28/23 Q1003=
####018000408####
SAMG20 FMMI 081400
METAR FMNA 081400Z 12019KT 9999 FEW020 SCT040 25/17 Q1016=
METAR FMNM 081400Z 16006KT CAVOK 30/13 Q1016=
METAR FMMI 081400Z 15007KT 110V180 9999 SCT020 BKN023 16/14 Q1026
 NOSIG=
METAR FMMT 081400Z 22010KT 9999 VCSH SCT017 SCT033 22/20 Q1021=
METAR FMSD 081400Z 06010KT 8000 VCSH SCT017 BKN033 20/17 Q1025=
METAR FMCH 081400Z 22009KT 200V260 9999 FEW025 28/19 Q1018 NOSIG=
####018000198####
SATA31 RUMS 081400
METAR UTDD 081400Z 00000MPS 9999 SKC 35/06 Q1008 09CLRD70 NOSIG RMK
QFE689/0918=
METAR UTDL 081400Z 24004MPS 9999 FEW053CB FEW100 35/13 Q1008 NOSIG
RMK QFE719 8809//70=
####018001097####
SAIY41 LIIB 081400
METAR LIMH 081355Z 10001KT 9999 FEW000TCU 08/00 Q1040 RMK SCT MON CLD
      SCT VAL S CLD SCT VIS MIN 9999=
METAR LIMT 081400Z NIL=
METAR LIMU 081355Z 13003KT 9999 FEW030 29/25 Q1020 RMK SCT QUK 2 QUL
      1 E VIS MAR 20 KM VIS MIN 9999=
METAR LIMV 081355Z 34008KT 7000 SCT012 25/18 Q1022 RMK SCT MON LIB NC
      VAL FOSCHIA VIS MIN 7000=
METAR LIMY 081355Z /////KT 9000 SCT026 SCT046 24/16 Q1023 RMK BKN VAL
      FOSCHIA VIS MIN 9000=
METAR LIVD 081355Z 00000KT CAVOK 25/07 Q1023 RMK SKC VIS MIN 9999=
METAR LIVE 081355Z 19006KT CAVOK 22/11 Q1024 RMK SKC VIS MIN 9999=
METAR LIVF 081355Z 05004KT CAVOK 27/07 Q1022 RMK SKC MON LIB VAL NIL
      VIS MIN 9999=
METAR LIVM 081355Z 13010KT CAVOK 28/22 Q1021 RMK SKC QUK 2 QUL 1 SE
      VIS MAR 30 KM VIS MIN 9999=
METAR LIVO 081355Z 15003KT 9999 FEW040 26/12 Q1021 RMK FEW VIS MIN
      9999=
METAR LIVR 081355Z /////KT 9999 FEW030 18/15 Q1028 RMK FEW MON CLD
      CIME VIS MIN 9999=
METAR LIVT 081355Z 25001KT CAVOK 26/16 Q1021 RMK SKC QUK 1 QUL 0 VIS
      MAR 20 KM VIS MIN 9999=
####018000075####
SAEG31 HECA 081400
METAR HECA 081400Z 30010KT CAVOK 33/18 Q1010 NOSIG=
####018000424####
SAMG20 FMMI 081400
METAR 081400Z
METAR FMNA 081400Z 12019KT 9999 FEW020 SCT040 25/17 Q1016=
METAR FMNM 081400Z 16006KT CAVOK 30/13 Q1016=
METAR FMMI 081400Z 15007KT 110V180 9999 SCT020 BKN023 16/14 Q1026
 NOSIG=
METAR FMMT 081400Z 22010KT 9999 VCSH SCT017 SCT033 22/20 Q1021=
METAR FMSD 081400Z 06010KT 8000 VCSH SCT017 BKN033 20/17 Q1025=
METAR FMCH 081400Z 22009KT 200V260 9999 FEW025 28/19 Q1018 NOSIG=
####018000293####
SATR31 RUMS 081400
METAR UTAA 081400Z 11002MPS 9999 SKC 43/03 Q1007 NOSIG=
METAR UTAK 081400Z 30004MPS CAVOK 35/13 Q1008 NOSIG=
METAR UTAM 081400Z 01004MPS CAVOK 40/07 Q1004 NOSIG=
METAR UTAT 081400Z 12005MPS CAVOK 42/19 Q1006 NOSIG=
METAR UTAV 081400Z 03003MPS CAVOK 37/10 Q1005=
####018000194####
SAMC32 GMMC 081400 RRA
METAR GMMC 081400Z 02008KT 5000 SCT016 SCT026 25/20 Q1013=
METAR GMMH 081400Z 01022KT 8000 BKN080 24/17 Q1013=
METAR GMML 081400Z 03017KT 8000 SCT020 29/17 Q1016=
####018001696####
SAIY40 LIIB 081400
METAR LIMG 081350Z 08008KT 9999 SCT040 30/25 Q1020 RMK VIS MIN 9999=
METAR LIMK 081355Z 18002KT CAVOK 23/12 Q1023 RMK SKC VAL NIL VIS MIN
      9999=
METAR LIMN 081355Z /////KT CAVOK 28/16 Q1020 RMK FEW FEW200 VIS MIN
      9999 BLU=
METAR LIMP 081350Z 05006KT 010V100 CAVOK 30/15 Q1021 RMK VIS MIN
9999=
METAR LIMS 081355Z 07006KT 020V130 CAVOK 30/15 Q1020 RMK SKC VIS MIN
      9999 WIND THR30 07005KT BLU=
METAR LIMZ 081350Z 05005KT 8000 FEW035 SCT060 26/18 Q1022 RMK VIS
MIN 8000=
METAR LIPA 081400Z NIL=
METAR LIPB 081350Z 18015KT CAVOK 31/12 Q1018 RMK MON LIB VIS MIN
9999=
METAR LIPC 081400Z NIL=
METAR LIPF 081355Z 11003KT 9999 FEW050 29/19 Q1020 RMK FEW VIS MIN
      9999=
METAR LIPH 081345Z 14005KT 9999 FEW025 28/21 Q1021 RMK FEW VIS MIN
      9999 WIND THR07 /////KT BLU=
METAR LIPI 081355Z 19009KT 9999 FEW040 27/20 Q1021 RMK FEW VIS MIN
     9999 WIND THR06 25005KT BLU=
METAR LIPL 081355Z 16004KT 9999 FEW036 30/17 Q1021 RMK FEW VIS MIN
      9999 BLU=
METAR LIPO 081350Z 14004KT 100V200 CAVOK 29/13 Q1020 RMK VIS MIN
9999=
METAR LIPQ 081350Z 26004KT CAVOK 28/15 Q1021=
METAR LIPR 081345Z 07012KT CAVOK 28/19 Q1021 RMK SKC VIS MIN 9999
      WIND THR31 09011KT BLU=
METAR LIPS 081355Z 12004KT 9999 SCT030 28/18 Q1021 RMK SCT VIS MIN
      9999 BLU=
METAR LIPX 081345Z 23003KT 9999 FEW040 30/14 Q1020 RMK FEW VIS MIN
      9999 BLU=
METAR LIPY 081350Z 05010KT CAVOK 26/14 Q1021 RMK VIS MIN 9999=
METAR LIVC 081355Z 00000KT 9999 SCT001 16/11 Q1031 RMK SCT MON LIB
      VAL NIL VIS MIN 9999=
METAR LIVP 081355Z VRB03KT 9999 FEW003 15/11 Q1029 RMK FEW MON LIB
      VAL NIL VIS MIN 9999=
####018001844####
SAIY42 LIIB 081400
METAR LIBF 081350Z 33018KT CAVOK 28/07 Q1019 RMK VIS MIN 9999=
METAR LIEA 081350Z 28004KT 210V320 9999 FEW025 33/22 Q1019 RMK VIS
MIN 9999=
METAR LIED 081355Z 15020KT 9999 SCT018 32/16 Q1017 RMK SCT VIS MIN
      9999 BLU=
METAR LIEO 081350Z 05010KT CAVOK 31/21 Q1019 RMK VIS MIN 9999=
METAR LIMA 081350Z 00000KT 9999 FEW035 28/16 Q1021 RMK VIS MIN 9999=
METAR LIQN 081350Z 32005KT 9999 SCT045 30/17 Q1020 RMK VIS MIN 9999=
METAR LIQO 081355Z 19004KT 9999 SCT003 28/21 Q1022 RMK SCT VAL NIL NC
      VIS MIN 9999=
METAR LIQW 081355Z 20003KT 9999 FEW025 30/21 Q1020 RMK FEW VIS MIN
      9999 BLU=
METAR LIRE 081355Z 24008KT 9999 FEW020 28/20 Q1019 RMK FEW VIS MIN
      9999 WIND THR31 23009KT BLU=
METAR LIRG 081355Z 23010KT 9999 FEW030CB SCT033TCU 32/19 Q1019 RMK
     SCT MON NE LIB NC VIS MIN 9999 BLU=
METAR LIRH 081355Z 35006KT 9999 FEW035CB SCT040 30/20 Q1019 RMK BKN
      MON LIB NC VIS MIN 9999 WIND THR16 30010KT BLU=
METAR LIRI 081350Z 04004KT CAVOK 30/11 Q1018 RMK VIS MIN 9999=
METAR LIRK 081355Z 13008KT CAVOK 16/14 Q1027 RMK SCT SCT060 MON NE
      LIB NC VAL NIL NC VIS MIN 9999=
METAR LIRL 081355Z 24009KT 9999 FEW020 30/17 Q1019 RMK FEW MON LIB NC
      VIS MIN 9999 BLU=
METAR LIRM 081355Z 13005KT 9999 FEW020 30/15 Q1019 RMK FEW VIS MIN
      9999 WIND THR06 07004KT BLU=
METAR LIRS 081355Z 22012KT 9999 FEW040 30/19 Q1019 RMK FEW VIS MIN
      9999 WIND THR21 /////KT BLU=
METAR LIRT 081355Z 35010KT CAVOK 18/05 Q1023 RMK SKC MON LIB VAL NIL
      VIS MIN 9999=
METAR LIRU 081350Z 26010KT 9999 FEW040 30/17 Q1020 RMK VIS MIN 9999=
METAR LIRV 081355Z 26011KT 9999 SCT032 28/22 Q1020 RMK SCT MON E SE
      LIB NC VIS MIN 9999 BLU=
METAR LIRX 081400Z NIL=
METAR LIRZ 081350Z 01009KT 330V050 9999 FEW045 31/11 Q1020 RMK VIS
MIN 9999=
####018000756####
SPUS99 KWBC 081407
SPECI
KALI 081405Z AUTO 04011G16KT 10SM BKN007 BKN015 26/26 A2986 RMK
     AO2 CIG 005V010=
KDAL 081405Z 13007KT 9SM BKN015 BKN026 OVC047 26/24 A3004 RMK AO2
     BKN015 V SCT=
KTXK 081405Z VRB04KT 10SM BKN010 OVC080 26/23 A3008 RMK AO2 CIG
     007V013=
KAZO 081405Z 21004KT 1 3/4SM RA SCT030 BKN060 BKN100 25/22 A3005
     RMK AO2 RAB1359 P0001=
KCEC 081405Z AUTO 34003KT 1 3/4SM BR OVC001 10/09 A2998 RMK
     AO2=
KDXR 081405Z 16003KT 3SM -RA BR FEW007 SCT016 OVC034 24/24 A3008
     RMK AO2 P0001=
KLWD 081405Z AUTO 01007KT 10SM FEW007 22/20 A3012 RMK AO2=
KMFI 081405Z AUTO 34006KT 10SM FEW013 22/18 A3006 RMK AO2=
KODO 081406Z AUTO 03010G18KT 9SM FEW005 BKN013 OVC019 22/19 A3015
     RMK AO2=
####018000328####
SAUS99 KWBC 081407
METAR
KBXK 081355Z AUTO 35003KT 10SM CLR 27/00 A2982 RMK AO1=
KCWA 081350Z 35004KT 10SM OVC005 21/20 A3007=
KHOB 081350Z 01007KT 10SM SCT006 BKN100 20/19 A3018=
KPAN 081415Z AUTO 12005KT 10SM FEW036 FEW065 23/06 A3018 RMK
     AO1=
KRQO 081415Z AUTO 00000KT 5SM BR OVC003 23/23 A3009 RMK AO2=
####018000224####
SAVN34 SVSR 081400
METAR
METAR SVSR 081400Z NIL=
METAR SVCL 081400Z /////KT 6000 OVC013 DZ 25/25 Q1013=
METAR SVPA 081400Z 00000KT 9999 BKN055 26/24 Q1012=
METAR SVVP 081400Z 10006KT 9000 OVC013 DZ 25/24 Q1007=
DUPE
####018000547####
SABO SLLP 081400
METAR SLLP 081400Z VRB02KT 9999 FEW015 07/M02 Q1038=
METAR SLVR 081400Z 16012KT 9999 FEW027 BKN070 BKN200 21/16 Q1016=
METAR SLCB 081400Z 00000KT 6000 FEW027 18/08 Q1027=
METAR SLTJ 081400Z 00000KT 9999 SKC 15/07 Q1021=
METAR SLTR 081400Z 15010KT 6000 -RA FEW008 SCT017 FEW020CB OVC070
22/21 Q1015=
METAR SLSU 081400Z 01007KT 9999 SCT015 13/08 Q1029=
METAR SLCO 081400Z 34005KT 9999 FEW080 SCT200 29/24 Q1014=
METAR SLET 081400Z 14010KT 9999 FEW015 BKN080 21/17 Q1016=
METAR SLPS 081400Z 35008KT 9999 SKC 30/15 Q1013=
####018000243####
SACZ31 LKPW 081400
METAR LKKV 081400Z VRB03KT CAVOK 25/09 Q1022=
METAR LKMT 081400Z 03005KT 330V100 CAVOK 22/10 Q1022 NOSIG=
METAR LKPR 081400Z 31003KT 260V360 CAVOK 26/10 Q1022 NOSIG=
METAR LKTB 081400Z VRB03KT CAVOK 25/08 Q1021 NOSIG=
####018000530####
SAMC32 GMMC 081400
METAR GMFF 081400Z 30008KT 8000 SCT030 SCT033CB SCT100 34/19 Q1017
NOSIG=
METAR GMFK 081400Z 28002KT 9999 FEW026 39/07 Q1023=
METAR GMFM 081400Z 29007KT 6000 FEW026 32/19 Q1018=
METAR GMFO 081400Z 24003KT 9999 FEW033TCU 45/09 Q1016 NOSIG=
METAR GMMW 081400Z 06015KT CAVOK 30/20 Q1016=
METAR GMMZ 081400Z 14007KT 110V170 9999 FEW040 FEW050TCU 39/02 Q1023=
METAR GMTA 081400Z 02010KT CAVOK 25/20 Q1016=
METAR GMMC 081400Z NIL=
METAR GMMH 081400Z NIL=
METAR GMML 081400Z NIL=
METAR GMTN 081400Z NIL=
####018000098####
SAAJ31 UBBB 081400
METAR UBBG 081400Z 09014KT 9999 FEW083 35/16 Q1009 NOSIG RMK
R12L/CLRD70 =
####018000823####
SACI41 ZBBB 081400
METAR ZBHH 081400Z 07001MPS 9999 FEW040 FEW040TCU 25/11 Q1009 NOSIG=
METAR ZGHA 081400Z 18002MPS CAVOK 31/28 Q1002 NOSIG=
METAR ZHCC 081400Z 31003MPS 290V350 3000 BR NSC 26/23 Q1006 NOSIG=
METAR ZHHH 081400Z 07004MPS 9999 -RA SCT010 BKN030 25/25 Q1004
 NOSIG=
METAR ZJHK 081400Z 19003MPS CAVOK 29/25 Q1006 NOSIG=
METAR ZJSY 081400Z 13004MPS 9999 SCT015 30/27 Q1008 NOSIG=
METAR ZLLL 081400Z 02004MPS 9999 OVC046 19/07 Q1019 NOSIG=
METAR ZSNJ 081400Z 13001MPS 2000 BR BKN020 27/23 Q1004 NOSIG=
METAR ZSOF 081400Z 09001MPS 8000 SCT040 27/26 Q1004 NOSIG=
METAR ZUCK 081400Z VRB01MPS 3000 BR NSC 28/25 Q1003 NOSIG=
METAR ZYCC 081400Z 31003MPS 270V350 4000 -SHRA BR SCT004 FEW020TCU
 BKN020 19/18
 Q1007 NOSIG=
METAR ZYHB 081400Z 36003MPS 4000 -RA BR SCT033 19/17 Q1008 NOSIG=
####018000378####
SAAG01 SABM 081400 RRA
METAR SARE 081400Z 14009KT 9999 FEW008 13/09 Q1019=
METAR SARF 081400Z  16012KT 9999  OVC009  15/13
Q1018=
METAR SARP 081400Z  07006KT 9999  SCT005 BKN015
17/14 Q1018=
METAR SASJ 081400Z  00000KT CAVOK 17/09 Q1018=
METAR SAVC 081400Z  27014KT 9999  FEW040  06/M01
Q1002=
METAR SAWH 081400Z  00000KT 9999  FEW030 SCT100
00/M01 Q0982=
####018000097####
SPUS31 KWBC 081407
SPECI
KEWR 081403Z 19006KT 9SM FEW010 SCT015 BKN035 OVC130 27/24 A3005=
####018000118####
SABE31 TXKF 081354
METAR TXKF 081355Z 12015KT 9999 SCT020CB SCT033 BKN130
BKN300 27/24 Q1019 RMK CB DSNT SE-SW=
####018000122####
SABE31 TXKF 081354
METAR TXKF 081355Z 12015KT 9999 SCT020CB SCT033 BKN130
BKN300 27/24 Q1019 RMK CB DSNT SE-SW
/=
####018000479####
SAHU41 LHBM 081400
METAR LHDC 081345Z 36008KT 9999 FEW046 23/11 Q1021 NOSIG=
METAR LHKE 081345Z 28002MPS CAVOK 24/11 Q1020 NOSIG RMK BLU=
METAR LHPA 081345Z 34004MPS CAVOK 25/10 Q1022 NOSIG RMK BLU=
METAR LHPP 081345Z 32007KT CAVOK 24/13 Q1022 NOSIG=
METAR LHPR 081345Z 34008KT CAVOK 25/08 Q1022=
METAR LHSM 081345Z 31007KT CAVOK 25/09 Q1022 NOSIG=
METAR LHSN 081345Z VRB01MPS CAVOK 24/11 Q1020 NOSIG RMK BLU=
METAR LHUD 081345Z 36005KT 9999 SCT040 SCT050 24/14 Q1021=
####018000088####
SAGB20 GBYD 081400

METAR GBYD 081400Z 24006KT 9999 TS BKN012 FEW019CB 32/26 Q1012=
####018000076####
SPUS41 KWBC 081407
SPECI
KILG 081404Z 18006KT 2SM FEW013 28/23 A3005=
####018001664####
SAUS72 KWBC 081400
METAR
KABI 081352Z 00000KT 9SM OVC005 23/22 A3008=
KABQ 081356Z 10013G20KT 10SM FEW050 SCT100 BKN200 20/09 A3030=
KABY 081353Z 00000KT 10SM CLR 29/22 A3006=
KACT 081351Z 06006KT 8SM BKN010 BKN018 OVC060 26/24 A3003=
KAEX 081353Z AUTO 08004KT 10SM CLR 27/24 A3004=
KAFW 081353Z 13006KT 9SM FEW012 SCT055 BKN090 26/23 A3004=
KAHN 081351Z 00000KT 6SM HZ CLR 30/20 A3004=
KALI 081353Z AUTO 04009G15KT 10SM FEW007 SCT016 BKN024 26/25
     A2986=
KAMA 081353Z 36008KT 10SM FEW003 SCT007 OVC020 18/17 A3023=
KANB 081353Z AUTO 00000KT 9SM CLR 29/21 A3006=
KAPF 081353Z 05008KT 10SM FEW030 29/23 A2998=
KATL 081352Z 34005KT 10SM CLR 30/20 A3006=
KAUS 081353Z 09004KT 4SM -RA BR BKN010 OVC014 26/24 A2998=
KBFM 081353Z 00000KT 10SM FEW010 SCT050 29/24 A3006=
KBHM 081353Z 34003KT 10SM CLR 30/22 A3008=
KBNA 081353Z VRB05KT 10SM FEW060 SCT200 31/21 A3009=
KBPT 081353Z 08010KT 9SM BKN009 28/25 A2999=
KBQK 081357Z AUTO 30005KT 10SM CLR 29/23 A3002=
KBRO 081353Z 32006KT 10SM FEW033 SCT060 27/25 A2979=
KCEW 081353Z AUTO 00000KT 10SM CLR 29/24 A3005=
KCHA 081353Z 00000KT 9SM CLR 30/20 A3008=
KCLL 081353Z 09010KT 8SM OVC009 27/23 A2999=
KCNM 081353Z AUTO 32010KT 9SM -RA FEW007 BKN048 OVC100 19/19
     A3018=
KCRP 081351Z COR 03006KT 10SM SCT022 SCT040 BKN060 27/25 A2985=
KCRP 081351Z 03006KT 10SM SCT022CB SCT040 BKN060 27/25 A2985=
KCSG 081351Z 00000KT 10SM CLR 30/21 A3004=
KCSV 081353Z AUTO 00000KT 7SM CLR 29/19 A3016=
KDAL 081353Z 12007KT 9SM BKN011 BKN036 OVC049 26/24 A3004=
KDFW 081353Z 13004KT 10SM FEW013 BKN050 OVC060 26/24 A3004=
KDHN 081353Z 35003KT 10SM CLR 30/24 A3008=
####018000141####
SASG21 GOOY 081400
METAR GOSS 081400Z 26006KT 170V040 9999 SCT016 33/25 Q1012=
METAR GOTT 081400Z 22006KT 9999 BKN013 TCU 33/26 Q1013=
####018000075####
SAMT20 GQPP 081400
METAR GQPP 081400Z 15009KT CAVOK 27/19 Q1012 NOSIG=
####018001690####
SAUS72 KWBC 081400 RRA
METAR
KDLF 081355Z AUTO 04004KT 10SM FEW012 26/23 A2999=
KDMN 081353Z AUTO 06007KT 10SM CLR 22/13 A3016=
KELP 081351Z 03011KT 10SM FEW035 SCT110 23/15 A3015=
KESF 081353Z AUTO 09004KT 10SM BKN005 27/24 A3006=
KEYW 081353Z VRB05KT 10SM FEW017 29/24 A2997=
KFLL 081353Z 07008KT 10SM SCT023 30/24 A2996=
KFSM 081353Z 06003KT 10SM OVC046 26/23 A3006=
KFTW 081353Z 13009KT 10SM SCT009 BKN035 OVC060 26/24 A3004=
KFTY 081353Z 00000KT 8SM CLR 31/21 A3005=
KGGG 081353Z 13003KT 10SM CLR 26/24 A3006=
KGLS 081352Z 11014G21KT 10SM FEW017 BKN100 27/24 A2995=
KGNV 081353Z 00000KT 10SM CLR 28/21 A3002=
KGPT 081353Z 03004KT 10SM FEW022 31/25 A3004=
KGUP 081353Z AUTO 12006KT 10SM CLR 20/08 A3029=
KGWO 081353Z AUTO 00000KT 10SM CLR 29/23 A3008=
KHOT 081353Z AUTO 15004KT 10SM BKN010 OVC013 26/23 A3011=
KHOU 081353Z 06005KT 10SM -RA FEW035 BKN090 OVC130 26/23 A2996=
KHRL 081352Z 35010KT 10SM FEW008 SCT012 BKN021 26/26 A2979=
KHRO 081353Z AUTO 18004KT 10SM BKN050 24/22 A3011=
KHSV 081353Z 02009KT 10SM FEW250 31/22 A3009=
KIAH 081353Z 09008KT 6SM TSRA BR FEW007 SCT025CB BKN070 OVC130
     24/24 A2998=
KINK 081353Z AUTO 04008KT 10SM BKN024 OVC090 23/19 A3012=
KJAN 081354Z 06005KT 10SM CLR 28/23 A3008=
KJAX 081356Z 29005KT 10SM CLR 28/20 A3002=
KJBR 081353Z AUTO 24005KT 10SM CLR 28/22 A3008=
KLBB 081353Z 07006KT 10SM SCT006 BKN037 OVC110 20/18 A3018=
KLCH 081353Z 08009KT 6SM BR OVC006 27/25 A3001=
KLFT 081353Z VRB03KT 10SM OVC006 27/24 A3004=
KLIT 081353Z 26004KT 10SM SCT011 BKN150 BKN250 27/24 A3010=
KLRD 081356Z 04011KT 9SM FEW008 BKN044 28/24 A2991=
KLRU 081351Z AUTO 02008KT 10SM CLR 23/13 A3019=
####018000091####
SPUS42 KWBC 081407
SPECI
KTUL 081403Z 11004KT 10SM BKN006 BKN030 BKN090 24/23 A3005=
####018001656####
SAUS72 KWBC 081400 RRB
METAR
KMAF 081353Z 04008KT 10SM FEW007 SCT015 OVC022 22/20 A3013=
KMCO 081353Z VRB03KT 10SM SCT026 SCT250 27/19 A3002=
KMEI 081358Z 01005KT 10SM CLR 29/23 A3007=
KMEM 081353Z 32004KT 10SM FEW150 SCT250 30/22 A3009=
KMFE 081353Z 35009KT 10SM BKN008 OVC013 27/24 A2982=
KMIA 081353Z 07008KT 10SM BKN022TCU BKN130 BKN300 29/24 A2997=
KMKL 081353Z 34004KT 10SM CLR 29/23 A3009=
KMLB 081353Z 02004KT 10SM SCT025 28/19 A3001=
KMLC 081353Z AUTO 18005KT 10SM BKN009 BKN018 OVC032 25/23
     A3006=
KMLU 081353Z 07004KT 10SM CLR 28/24 A3008=
KMOB 081356Z 36003KT 10SM SCT025 29/24 A3006=
KMSL 081353Z AUTO 00000KT 10SM CLR 29/23 A3010=
KMSY 081353Z 09005KT 10SM SCT022 BKN250 29/23 A3004=
KNEW 081353Z 07008KT 10SM SCT014 29/26 A3005=
KNGP 081356Z COR 10007KT 7SM -RA FEW009 SCT016CB BKN025 27/26
     A2984=
KNGP 081356Z 10007KT 7SM -RA FEW009 SCT016CB BKN025 27/26
     A2984=
KOKC 081352Z 33004KT 10SM BKN007 BKN200 26/23 A3007=
KPBI 081353Z 06005KT 10SM BKN024CB BKN031 BKN055 32/28 A2997=
KPDK 081353Z VRB03KT 10SM CLR 31/18 A3006=
KPFN NIL=
KPIE 081353Z 08005KT 10SM CLR 27/22 A3001=
KPNS 081353Z 00000KT 10SM CLR 29/23 A3004=
KROW 081351Z 02006KT 10SM -RA OVC038 20/17 A3022=
KRSW 081353Z 04006KT 10SM CLR 28/23 A2998=
KSAT 081353Z 05008KT 6SM BR BKN009 OVC045 26/23 A2997=
KSFB 081353Z 08004KT 10SM SCT027 27/21 A3002=
KSHV 081356Z 14006KT 10SM BKN110 OVC280 27/24 A3006=
KSJT 081351Z 08006KT 6SM BR OVC004 23/22 A3007=
KSRQ 081353Z 07005KT 10SM CLR 28/23 A3000=
KSSI 081353Z AUTO 30007KT 10SM CLR 28/20 A3001=
KTCC 081353Z AUTO 05007KT 10SM OVC090 18/15 A3025=
####018000929####
SAUS72 KWBC 081400 RRC
METAR
KTCL 081353Z 36004KT 10SM CLR 31/22 A3005=
KTCS 081353Z AUTO 02010KT 10SM FEW110 19/14 A3022=
KTLH 081353Z 33005KT 10SM CLR 29/22 A3003=
KTPA 081353Z 00000KT 10SM FEW030 SCT200 28/21 A3001=
KTUL 081353Z 00000KT 10SM SCT006 BKN090 OVC100 24/23 A3004=
KTXK 081353Z 13004KT 10SM BKN007 OVC080 26/24 A3008=
KTYR 081353Z 11006KT 10SM FEW010 26/23 A3007=
KVCT 081351Z 05008KT 1SM +RA BR BKN018 BKN022 OVC026 25/24
     A2992=
KVLD 081353Z VRB03KT 10SM CLR 29/21 A3003=
KVRB 081353Z 04007KT 10SM FEW025 29/21 A2999=
TIST 081353Z 06009KT 10SM CLR 31/24 A3001=
TISX 081353Z 12015G19KT 10SM SCT020 31/24 A3002=
TJBQ 081350Z 08008KT 10SM SCT020 31/26 A3003=
TJMZ 081350Z 04009KT 6SM HZ FEW040 33/26 A3002=
TJPS 081350Z 10010KT 8SM FEW030 33/24 A2999 HZ ALQDS=
TJSJ 081356Z 08010KT 10SM FEW023 SCT036 31/24 A3002=
TKPK 081400Z 06014KT 9999 FEW017 30/25 Q1016=
TNCM NIL=
####018000372####
SAUS72 KWBC 081400 CCA
METAR
KBTR 081353Z 08004KT 10SM SCT005 BKN010 27/24 A3004=
KDAB 081353Z VRB03KT 10SM FEW026 SCT250 28/19 A3002=
KMCN 081353Z 30005KT 10SM CLR 30/19 A3004=
KMGM 081353Z 00000KT 10SM CLR 31/22 A3003=
KTRI 081353Z 00000KT 5SM HZ CLR 27/19 A3012=
KTUP 081353Z 05004KT 10SM CLR 29/22 A3008=
KTYS 081353Z 08004KT 6SM HZ CLR 29/20 A3008=
####018000596####
SACN60 CWAO 081400
PAC NIL=
PAF NIL=
PAT NIL=
PAZ NIL=
PBB NIL=
PBD NIL=
PBN NIL=
PCC NIL=
PCI NIL=
PDA NIL=
PDB NIL=
PDU NIL=
PEB NIL=
PEL NIL=
PET NIL=
PFA NIL=
PFB NIL=
PFM NIL=
PGC NIL=
PGI NIL=
PHA NIL=
PHE NIL=
PHR NIL=
PHU NIL=
PHW NIL=
PIA NIL=
PJT NIL=
PKA NIL=
PKI NIL=
PLA NIL=
PLC NIL=
PLF NIL=
PLG NIL=
PMA NIL=
PMB NIL=
PML NIL=
PMN NIL=
PNS NIL=
PPL NIL=
PRD NIL=
PRF NIL=
PRH NIL=
PRS NIL=
PRW NIL=
PSA NIL=
PSH NIL=
PSL NIL=
PSW NIL=
PTA NIL=
PTC NIL=
PVI NIL=
PWT NIL=

####018000431####
SACN70 CWAO 081400
PGF SA 1400 AUTO8 M M M 167/18/12/3006/M/ 3010 06MM=
PGH NIL=
PLE NIL=
POY SA 1400 AUTO8 M M M 177/16/11/2906/M/ 1011 53MM=
PQD SA 1400 AUTO8 M M M 142/16/10/2509/M/ 1001 08MM=
PSU SA 1400 AUTO8 M M M 197/21/16/2905/M/ 2004 18MM=
PYQ SA 1400 AUTO8 M M M 027/15/10/2607/M/ 8007 53MM=
WEX SA 1400 AUTO8 M M M 164/18/13/3308/M/ 3018 72MM=
WJD NIL=
WOO NIL=
WSZ NIL=
XMN NIL=
XWG NIL=

####018001255####
SACN50 CWAO 081400
VAS SA 1400 AUTO8 M M M M/16/06/1901/M/M M 12MM=
VLY SA 1400 AUTO8 M M M 192/13/10/1702/M/ 1011 42MM=
VMO SA 1400 AUTO8 M M M M/M/M/MMMM/M/ M MMMM=
VOA NIL=
VOB SA 1400 AUTO8 M M M 184/15/08/0000/M/ M003 90MM=
VOC SA 1400 AUTO8 M M M 181/13/10/1301/M/ 1003 46MM=
VOD SA 1400 AUTO8 M M M 180/12/05/0802/M/ 1002 59MM=
VOE NIL=
VOF SA 1400 AUTO8 M M M M/13/07/3502/M/M M 38MM=
VOG NIL=
VOH SA 1400 AUTO8 M M M M/15/02/0504/M/M M 03MM=
VOI NIL=
VOJ SA 1400 AUTO8 M M M M/19/M/0601/M/ M 6MMM=
VOK SA 1400 AUTO8 M M M M/14/07/0702/M/M M 48MM=
VOL NIL=
VOM SA 1400 AUTO8 M M M 153/22/11/3301/M/ 0003 78MM=
VOO SA 1400 AUTO8 M M M 166/17/11/1801/M/ M 21MM=
VOP NIL=
VOQ SA 1400 AUTO8 M M M 156/18/13/2901/M/ M007 07MM=
VOU SA 1400 AUTO8 M M M 153/19/11/3403/M/ M004 14MM=
VOV SA 1400 AUTO8 M M M M/11/08/0201/M/M M 06MM=
VOW NIL=
VOX NIL=
VOY NIL=
VOZ NIL=
VQZ NIL=
VSL NIL=
VTS SA 1400 AUTO8 M M M 156/21/13/3401/M/ 3005 25MM=
VWB SA 1400 AUTO8 M M M M/19/05/MMMM/M/M M 82MM=
VXS SA 1400 AUTO8 M M M 194/14/10/0301/M/ 1005 77MM=
WFG NIL=
WGP NIL=
WHC NIL=
WPN SA 1400 AUTO8 M M M M/16/M/0000/M/M M 2MMM=
WPU SA 1400 AUTO8 M M M 211/10/04/2701/M/ 1006 43MM=
ZKA NIL=

####018000079####
SACN78 CWAO 081000 RRG
WPC SA 1000 AUTO8 M M M M/23/20/2004/M/M M 90MM=

####018000086####
SACN40 CWAO 081400
METAR CYWH 081400Z 00000KT 15SM SKC 19/11 A2998 RMK SLP151=

####018001265####
SACN96 CWAO 081400
WXL SA 1400 AUTO8 M M M M/16/12/1903/M/ M 67MM=
WXN SA 1400 AUTO8 M M M 222/15/09/2603/M/ 6005 45MM=
WXP SA 1400 AUTO8 M M M 075/11/04/2711/M/ 8007 10MM=
WXS NIL=
WXW NIL=
WXZ SA 1400 AUTO8 M M M 149/18/16/2301/M/ 1007 43MM=
WYA NIL=
WYE NIL=
WYF NIL=
WYH NIL=
WYI SA 1400 AUTO8 M M M 187/11/09/1713/M/ 8020 61MM=
WYJ SA 1400 AUTO8 M M M M/22/12/3405/M/ M 91MM=
WYL SA 1400 AUTO8 M M M M/07/05/0501/M/ M 65MM=
WYQ SA 1400 AUTO8 M M M 166/11/11/0305/M/ 8003 25MM=
WYW NIL=
WYY SA 1400 AUTO8 M M M 181/16/13/3601/M/ 1006 30MM=
WZA NIL=
WZE NIL=
WZL NIL=
WZO SA 1400 AUTO8 M M M M/M/M/0309/M/M M MMMM=
WZQ NIL=
WZR NIL=
WZS SA 1400 AUTO8 M M M 153/25/22/1601/M/ 8005 39MM=
WZT NIL=
WZV NIL=
WZY NIL=
XBD NIL=
XBQ NIL=
XEL NIL=
XFV NIL=
XGM SA 1400 AUTO8 M 1.2 M 202/18/M/2008/M/ 0002 0MMM=
XHM NIL=
XKA NIL=
XKE NIL=
XND NIL=
XOA SA 1400 AUTO8 M M M 144/30/19/1703/M/ 8006 49MM=
XPS SA 1400 AUTO8  SCT M M M/17/13/3204/M/ SUNSH 10 M 31MM=
XPT NIL=
XWF SA 1400 AUTO8 M M M 200/16/08/3305/M/ 1006 76MM=
ZGH NIL=
ZOC SA 1400 AUTO8 M M M 193/08/07/0000/M/ 1007 20MM=
ZPK NIL=
ZQT NIL=
ZUB NIL=
ZUG NIL=
ZWN SA 1400 AUTO8 M M M 194/15/12/2104/M/ 7006 57MM=

####018002000####
SACN43 CWAO 081400
METAR CWHN 081400Z AUTO 31007G16KT 280V340 9SM FEW088 FEW098 16/11
A3001 RMK SLP169=
METAR CWLO NIL=
METAR CYBK 081400Z 02009KT 20SM BKN080 BKN210 12/10 A2971 RMK AC5CC2
SLP063=
METAR CYBR 081400Z 28006KT 15SM SCT050 BKN280 15/12 A3011 RMK CU3CI1
SLP202=
METAR CYBU NIL=
METAR CYDN 081400Z AUTO 27009KT 9SM FEW075 15/11 A3006 RMK SLP185=
METAR CYEN 081400Z 30005KT 15SM FEW090 FEW140 BKN250 15/13 A3015 RMK
AC1AC1CS3 HALO SLP214=
METAR CYET 081400Z AUTO 25004KT 9SM CLR 13/08 A3011 RMK SLP194=
METAR CYGX 081400Z 27010KT 15SM FEW025 FEW200 17/10 A2973 RMK SC1CI1
TR CU TR CI SLP073=
METAR CYKJ 081400Z AUTO 28007KT 9SM CLR 17/09 A2989 RMK SLP134=
METAR CYLL 081400Z 26012KT 15SM SCT085 BKN150 BKN250 17/12 A3007 RMK
AC4AC1CI1 ACC SLP187=
METAR CYMM 081400Z AUTO 26007KT 9SM CLR 16/11 A2998 RMK SLP159=
METAR CYNE 081400Z AUTO 31007KT 250V330 9SM CLR 17/11 A2989 RMK
SLP127=
METAR CYOJ 081400Z 00000KT 15SM FEW120 17/13 A2998 RMK AC1 SLP159=
METAR CYPA 081400Z 28004KT 15SM FEW050 SCT100 BKN250 14/11 A3005 RMK
SC2AC2CI2 SLP183=
METAR CYPG 081400Z 29009KT 15SM FEW050 FEW090 FEW250 17/10 A3008 RMK
CU1AC1CI1 TR CU AC SLP188=
METAR CYPY 081400Z AUTO 00000KT 9SM CLR 17/13 A2992 RMK SLP140=
METAR CYQF 081400Z 19005KT 15SM BKN250 14/09 A3013 RMK CI2 SLP209=
METAR CYQL 081400Z 25006KT 40SM FEW100 FEW240 15/11 A3018 RMK AC1CI1
SLP216=
METAR CYQR 081400Z 32002KT 15SM FEW075 BKN250 16/11 A3015 RMK AC1CI2
SLP217=
METAR CYQW 081400Z AUTO 24004KT 9SM 14/13 A3011 RMK DENSITY ALT
 1800FT CLD MISG=
METAR CYVC 081400Z 30007KT 15SM FEW040 FEW095 SCT250 16/10 A2995 RMK
SC1AC2CI1 SLP150=
METAR CYXD 081400Z AUTO 18002KT 9SM CLR 17/12 A3007 RMK SLP182=
METAR CYYL 081400Z AUTO 29009G17KT 250V310 9SM FEW061 16/08 A2980 RMK
 SLP100 DENSITY ALT 1600FT MAX WND 29017KT AT 1326Z=
METAR CYYN 081400Z AUTO 25006KT 9SM CLR 14/13 A3016 RMK SLP214=
METAR CYZH 081400Z AUTO 21002KT 9SM SCT087 16/13 A3003 RMK SLP174=

####018001840####
SACN42 CWAO 081400
METAR CYAZ 081400Z 00000KT 15SM SKC 15/13 A2997 RMK SLP147=
METAR CYBL 081400Z 30003KT 30SM SKC 19/11 A3002 RMK SLP163=
METAR CYBV 081400Z 29010G17KT 15SM FEW015 SCT220 17/13 A2995 RMK
SC2CS1 SLP145=
METAR CYCP 081400Z 00000KT 15SM FEW300 12/08 A3019 RMK CI0 SLP226=
METAR CYCQ 081400Z 00000KT 35SM FEW100 FEW220 13/08 A3011 RMK AC1CI1
TR AC SLP200=
METAR CYDB 081400Z 35002KT 30SM FEW100 SCT150 BKN240 07/03 A3009 RMK
AC1AC2CI2 ACSL E SLP212=
METAR CYDC 081400Z 00000KT 15SM SKC 13/07 A3016 RMK SLP202=
METAR CYDQ 081400Z AUTO 00000KT 9SM CLR 14/09 A3010 RMK SLP203
 DENSITY ALT 2300FT=
METAR CYEV 081400Z 30008KT 15SM BKN017 BKN060 08/05 A3007 RMK SC6SC1
SLP187=
METAR CYFO 081400Z 30009G15KT 15SM FEW070 18/10 A2993 RMK AC1 SLP141=
METAR CYHE 081400Z AUTO 10011KT 9SM CLR 18/12 A3005 RMK SLP175=
METAR CYIV 081400Z 30008KT 15SM FEW020 FEW080 SCT100 BKN250 16/13
A2984 RMK SC2AC0AC0CI0 SLP110=
METAR CYKY 081400Z 00000KT 15SM FEW100 BKN250 15/13 A3014 RMK AC1CI2
SLP211=
METAR CYMD NIL=
METAR CYPR 081400Z AUTO VRB02KT 9SM CLR 14/12 A3006 RMK SLP182=
METAR CYPS NIL=
METAR CYQD 081400Z 27009KT 15SM FEW030 FEW065 FEW090 FEW250 16/11
A2996 RMK SC1SC1AC1CC1 TR SC SLP150=
METAR CYQZ 081400Z AUTO 00000KT 9SM CLR 12/10 A3012 RMK SLP209=
METAR CYRV 081400Z AUTO 00000KT 6SM CLR 11/10 A3017 RMK SLP217=
METAR CYSE NIL=
METAR CYUA 081400Z AUTO 22009KT 9SM OVC033 07/ A3006 RMK SLP182=
METAR CYXC 081400Z 31003KT 25SM SKC 14/07 A3022 RMK SLP222=
METAR CYXE 081400Z 24009KT 15SM FEW110 BKN270 16/13 A3010 RMK AC1CI2
SLP202=
METAR CYXQ NIL=
METAR CYXS 081400Z AUTO 00000KT 9SM CLR 14/10 A3011 RMK SLP202
 DENSITY ALT 2400FT=
METAR CYZP 081400Z AUTO 28012KT 9SM CLR 15/12 A3009 RMK SLP192=
METAR CYZT 081400Z 00000KT 20SM SKC 14/11 A3005 RMK SLP174=

####018000756####
SACN59 CWAO 081400
NLB NIL=
NLD NIL=
NNR NIL=
NPK NIL=
NTK NIL=
PAA NIL=
PAH NIL=
PBA NIL=
PBE NIL=
PBH NIL=
PBL NIL=
PBR NIL=
PBS NIL=
PBT NIL=
PBV NIL=
PCA NIL=
PCM NIL=
PCR NIL=
PEA NIL=
PEH NIL=
PFI NIL=
PFO NIL=
PGE NIL=
PGL NIL=
PIR NIL=
PMR NIL=
PQL NIL=
PQU NIL=
PRA NIL=
PRL SA 1400 AUTO8 M M M M/18/13/MMMM/M/ M 68MM=
PRO NIL=
PRR NIL=
PRY NIL=
PSD NIL=
PSP NIL=
PST NIL=
PSV NIL=
PTH NIL=
PTR NIL=
PTU NIL=
PVA NIL=
PWB NIL=
PXL NIL=
WCT NIL=
WLB NIL=
XAK NIL=
XDB NIL=
XFM NIL=
XHD NIL=
XHP NIL=
XMG NIL=
XMO NIL=
XOL NIL=
XPL NIL=
XSC NIL=
XSL NIL=
XSP NIL=
XTH NIL=
XVM NIL=
XVW NIL=
ZMU NIL=
ZOL NIL=
ZPS NIL=

####018000079####
SACN78 CWAO 081200 RRF
WPC SA 1200 AUTO8 M M M M/23/19/2003/M/M M 44MM=

####018002043####
SACN47 CWAO 081400
METAR CYAM 081400Z 28008KT 10SM OVC003 18/18 A2999 RMK SF8 SLP153=
METAR CYFT 081400Z 24003KT 15SM BKN075 19/14 A2984 RMK AC7 SLP106=
METAR CYGP 081400Z 09005KT 15SM FEW040 BKN140 24/20 A2998 RMK CU2AC2
HZ SLP154=
METAR CYGR 081400Z 23017G22KT 15SM SCT040 BKN080 BKN100 21/18 A3004
RMK SC3AC1AC2 SLP172=
METAR CYHD 081400Z AUTO 28009KT 9SM FEW089 19/14 A2996 RMK SLP150=
METAR CYHU 081400Z AUTO 18004KT 150V230 9SM CLR 29/22 A2999 RMK
 SLP155 DENSITY ALT 1600FT RVR MISG=
METAR CYKO 081400Z 25012KT 1 1/2SM -DZ BR OVC001 07/07 A2966 RMK
FG2ST6 SLP046=
METAR CYMO 081400Z AUTO 31004KT 5SM -RA OVC020 19/18 A2989 RMK PCPN
2.0MM PAST HR SLP124=
METAR CYNA 081400Z AUTO 11008KT 9SM OVC006 OVC051 OVC055 OVC061 15/13
A3002 RMK SLP168=
METAR CYND 081400Z 00000KT 15SM SKC 30/22 A2999 RMK SLP155=
METAR CYPQ 081400Z AUTO ///// 9SM CLR 29/24 A3002 RMK SLP163=
METAR CYQT 081400Z 27004KT 20SM FEW025 23/17 A2998 RMK CF1 SLP153=
METAR CYRJ 081400Z 32002KT 12SM FEW025 SCT045 BKN220 27/20 A2996 RMK
CU1SC3CI0 SLP146=
METAR CYRL 081400Z 27009KT 15SM BKN012 BKN080 16/13 A2995 RMK SC6AC2
SLP144=
METAR CYTL 081400Z AUTO 26005KT 9SM BKN015 BKN084 18/15 A2977 RMK
SLP088=
METAR CYTS 081400Z 33010KT 8SM -SHRA FEW003 BKN030 OVC050 17/16 A2990
RMK SF2SC4SC2 SLP124=
METAR CYTZ 081400Z AUTO 22004KT 8SM CLR 25/21 A3001 RMK SLP162
 DENSITY ALT 1300FT RVR MISG=
METAR CYVP 081400Z 24010G15KT 15SM BKN026 BKN060 17/13 A2977 RMK
SC6SC1 SLP082=
METAR CYVV 081400Z 19005KT 10SM FEW050 SCT080 BKN150 29/22 A3000 RMK
SC2AC2AC1 TCU ASOCTD SLP156=
METAR CYWA 081400Z AUTO 10004KT 9SM CLR 27/22 A2998 RMK SLP153=
METAR CYXR 081400Z AUTO 20008KT 9SM FEW016 FEW051 25/23 A2990 RMK
SLP112=
METAR CYYY 081400Z 03006KT 5SM BR BKN004 OVC010 15/14 A3001 RMK
SF6SC2 SLP164=
METAR CYZE 081400Z AUTO 19008KT 180V260 9SM FEW007 SCT041 BKN081
 OVC100 21/20 A2998 RMK SLP154 DENSITY ALT 1400FT=
METAR CYZR 081400Z AUTO 22004KT 9SM CLR 30/22 A3001 RMK SLP158
 DENSITY ALT 2300FT=

####018001160####
SACN95 CWAO 081400
WTA NIL=
WTD NIL=
WTE NIL=
WTF NIL=
WTG SA 1400 AUTO8 M M M 162/14/M/0415/M/M PK WND 0420 1317Z M006
8MMM=
WTM NIL=
WTN NIL=
WTR NIL=
WTS NIL=
WTT NIL=
WTX NIL=
WTY SA 1400 AUTO8 M M M 146/25/22/2006/M/ 8002 87MM=
WUI NIL=
WUK NIL=
WUS NIL=
WUT NIL=
WUX SA 1400 AUTO7 M M M 145/24/21/0605/M/ 8007 81MM=
WUY NIL=
WVC NIL=
WVF SA 1400 AUTO8 M M M M/20/M/3506/M/M M 7MMM=
WVI SA 1400 AUTO8 M M M 176/17/12/2103/M/ 0002 53MM=
WVN SA 1400 AUTO8 M M M 220/17/11/3603/M/ 3007 64MM=
WVO NIL=
WVP NIL=
WVQ NIL=
WVT SA 1400 AUTO8 M M M 163/17/11/3207/M/0003 7003 69MM=
WVU NIL=
WVV SA 1400 AUTO8 M M M 157/22/09/3507/M/ 3006 86MM=
WVW SA 1400 AUTO8 M M M 204/14/11/1811/M/M PK WND 1818 1307Z 6011
67MM=
WVZ NIL=
WWA SA 1400 AUTO8 M M M 153/22/12/3501/M/ 1003 63MM=
WWB SA 1400 AUTO8 M M M 157/29/19/2603/M/M 8006 67MM=
WWC NIL=
WWE NIL=
WWF NIL=
WWK SA 1400 AUTO8 M M M 162/18/15/0601/M/ 1005 38MM=
WWN NIL=
WWO SA 1400 AUTO8 M M M M/06/04/0000/M/ M 32MM=
WWP NIL=
WXA NIL=
WXB NIL=
WXC NIL=
WXG NIL=
WZW SA 1400 AUTO8 M M M 222/10/06/2701/M/ 0001 33MM=

####018000342####
SACN87 CWAO 081400
WEK SA 1400 AUTO8 M M M 172/14/M/1702/M/ 3004 8MMM=
WEQ SA 1400 AUTO8 M M M 180/13/10/2207/M/ 2006 33MM=
WJD SA 1400 AUTO8 M M M 144/19/12/2907/M/ 3004 69MM=
WLP SA 1400 AUTO8 M M M 172/14/13/0902/M/ 3003 17MM=
WPU NIL=
WRO NIL=
WWL NIL=
WWS NIL=
WZG SA 1400 AUTO8 M M M 236/10/04/2205/M/ 0000 38MM=

####018000968####
SACN89 CWAO 081400
WAF NIL=
WAG NIL=
WAQ SA 1400 AUTO8 M M M M/15/12/3105/M/ M 31MM=
WAS SA 1400 AUTO8 M M M 149/20/11/0325/M/ 0005 85MM=
WAV NIL=
WAY NIL=
WBA NIL=
WBG NIL=
WBJ NIL=
WBL NIL=
WBM NIL=
WBO SA 1400 AUTO8 M M M 210/15/14/1702/M/ 6003 32MM=
WBS SA 1400 AUTO8 M M M M/27/20/2108/M/M M 77MM=
WBT SA 1400 AUTO8 M M M 170/13/13/1402/M/ 8003 11MM=
WBY NIL=
WBZ NIL=
WCF NIL=
WCG NIL=
WCH SA 1400 AUTO8 M M M 154/20/15/2405/M/ 0001 10MM=
WCI NIL=
WCJ SA 1400 AUTO8 M M M 140/17/15/3005/M/ 6005 59MM=
WCO NIL=
WCQ NIL=
WDB NIL=
WDD NIL=
WDE NIL=
WDF NIL=
WDI NIL=
WDJ SA 1400 AUTO8 M M M 216/16/10/3302/M/ 1012 08MM=
WDK NIL=
WDN NIL=
WDP NIL=
WDQ SA 1400 AUTO8 M M M 150/29/22/2503/M/M 8007 98MM=
WDR SA 1400 AUTO8 M M M M/16/M/3611/M/M M 3MMM=
WDT NIL=
WDU NIL=
WDV SA 1400 AUTO8 M M M 153/20/16/2305/M/ 5000 05MM=
WDW NIL=
WDZ SA 1400 AUTO8 M M M 197/14/10/1504/M/ 6005 10MM=

####018000856####
SACN91 CWAO 081400
WGR SA 1400 AUTO8 M M M 168/21/18/2316+24/M/ PK WND 2224 1354Z 1001
18MM=
WGT SA 1400 AUTO8 M M M 156/21/14/3206/M/M 1009 85MM=
WGW SA 1400 AUTO8 M M M 241/09/08/3601/M/M 0003 85MM=
WGX NIL=
WGY SA 1400 AUTO8 M M M 208/18/10/2603/M/ 8003 72MM=
WHA NIL=
WHD NIL=
WHI NIL=
WHL SA 1400 AUTO8 M M M 174/14/M/2407/M/ 3003 9MMM=
WHM SA 1400 AUTO8 M M M M/31/23/1901/M/M M 98MM=
WHQ NIL=
WHT SA 1400 AUTO8 M M M 208/09/04/1003/M/ 8005 34MM=
WHV NIL=
WID NIL=
WIG NIL=
WII NIL=
WIJ NIL=
WIN NIL=
WIO NIL=
WIP SA 1400 AUTO7 M M M M/13/M/3003/M/ M 3MMM=
WIS NIL=
WIT SA 1400 AUTO8 M M M M/29/22/2704/M/M M 73MM=
WIW NIL=
WIX NIL=
WIY NIL=
WIZ SA 1400 AUTO7 M M M M/30/24/2305/M/ M 98MM=
WJB NIL=
WJC SA 1400 AUTO8 M M M 053/09/08/MM17/M/0002 PK WND MM22 1355Z
3006 90MM=
WJH NIL=

####018001799####
SACN48 CWAO 081400
METAR CYAD 081400Z 00000KT 8SM -SHRA BKN050 OVC100 18/16 A2992 RMK
SC5AS3 SLP135=
METAR CYAH 081400Z 20005KT 15SM SCT093 BKN250 23/14 A2993 RMK AC4CI2
SLP140=
METAR CYAS 081400Z 27007KT 2SM BR OVC003 09/09 A2968 RMK FG2ST6
SLP058=
METAR CYBX 081400Z 24004KT 15SM OVC025 13/11 A3006 RMK SC8 SLP180=
METAR CYCL NIL=
METAR CYGV 081400Z AUTO 18007KT 9SM OVC007 OVC066 OVC079 14/12 A3002
RMK SLP168=
METAR CYHA 081400Z 12005KT 7SM -RA FEW002 FEW005 OVC025 07/06 A2968
RMK SF1ST1SC7 SLP053=
METAR CYIK 081400Z 07005KT 15SM SCT030 BKN070 BKN220 10/05 A2961 RMK
SC3AC2CS1 SLP031=
METAR CYKG 081400Z 00000KT 10SM -DZ OVC020 08/06 A2967 RMK SC7
SLP056=
METAR CYKQ NIL=
METAR CYLA NIL=
METAR CYMH 081400Z 16010KT 15SM FEW030 FEW090 BKN250 18/12 A2998 RMK
SC1AC1CI2 SLP153=
METAR CYML NIL=
METAR CYMT 081400Z 17009KT 15SM FEW030TCU FEW070 SCT200 27/18 A2996
RMK TCU1AC1CI1 SLP143=
METAR CYMU 081400Z 14005KT 15SM FEW004 OVC035 14/12 A2987 RMK SF2SC5
SLP119=
METAR CYNM 081400Z AUTO 16005KT 9SM FEW083 24/18 A2987 RMK SLP117=
METAR CYOY 081400Z AUTO 05002KT 8SM FEW071 25/20 A2999 RMK SLP156=
METAR CYPH 081400Z 24012G17KT 15SM BKN005 BKN070 10/09 A2981 RMK
ST3AC2 SLP097=
METAR CYPX 081400Z 24018KT 7SM VCFG OVC005 08/07 A2971 RMK ST8
SLP062=
METAR CYQI 081400Z 16007KT 8SM SCT002 20/20 A3019 RMK SF4 VIS S 2
SLP224=
METAR CYSK 081400Z 05007KT 15SM BKN020 BKN040 10/09 A2986 RMK SC6SC2
SLP113=
METAR CYSL 081400Z 16006KT 5SM HZ SKC 27/22 A3002 RMK SLP163=
METAR CYUY 081400Z 19009KT 15SM FEW020 SCT050 BKN090 BKN250 25/19
A2991 RMK CU1SC3AC3CI0 SLP126=
METAR CYWK 081400Z 25007KT 15SM FEW036 BKN300 25/16 A2994 RMK CU1CI2
SLP138=
METAR CYZG 081400Z 12007KT 4SM -DZ BR OVC014 11/10 A2962 RMK SC8
SLP040=

####018001707####
SACN44 CWAO 081400
METAR CWIQ NIL=
METAR CWRF 081400Z AUTO ///// 14/ A2970=
METAR CWVD 081400Z AUTO ///// 13/ A2981 RMK SLP121=
METAR CYBW 081400Z 34004KT 30SM BKN280 11/09 A3019 RMK CI0 SLP231=
METAR CYCY 081400Z 10006KT 25SM FEW040 SCT210 12/07 A2980 RMK CU1CI0
SN COV/NIL SLP092=
METAR CYED 081400Z AUTO 17002KT 9SM CLR 16/13 A3007 RMK SLP184=
METAR CYEK 081400Z 15002KT 15SM OVC003 08/08 A2960 RMK ST8 SLP023=
METAR CYIO 081400Z AUTO 25005KT 9SM BKN088 07/04 A2978 RMK SLP090=
METAR CYLJ NIL=
METAR CYLT 081400Z 17019G26KT 25SM FEW080 SCT240 17/06 A2962 RMK
AC1CI0 SLP033=
METAR CYMJ NIL=
METAR CYOD 081400Z 28004KT 15SM SCT070 BKN100 BKN250 18/14 A3003 RMK
AC3AC2CI0 SH S+SW SLP177=
METAR CYPE 081400Z 23008KT 15SM BKN060 BKN100 18/14 A3005 RMK SC4AC1
TCU EMBD SLP177=
METAR CYQV 081400Z AUTO 30009KT 9SM CLR 16/11 A3009 RMK SLP199=
METAR CYSF 081400Z AUTO 31010G18KT 9SM CLR 15/06 A2984 RMK SLP114
 DENSITY ALT 1000FT MAX WND 32018KT AT 1357Z=
METAR CYSM 081400Z 30003KT 15SM FEW080 SCT120 BKN220 17/11 A2992 RMK
AC2AC1CI1 SLP138=
METAR CYSR 081400Z 27005KT 40SM VCSH FEW010 FEW020 BKN070 BKN210
11/04 A2979 RMK SF1ST2AC2CI1 SHWRS NE SLP118=
METAR CYTH 081400Z 26007KT 15SM FEW024 FEW090 FEW230 16/10 A2980 RMK
CU1AC1CI1 SLP099=
METAR CYUB 081400Z 30011G16KT 15SM BKN010 05/01 A3003 RMK SC7 CIG
ESTD SLP170=
METAR CYUJ NIL=
METAR CYUS 081400Z AUTO ///// 9SM FEW090 14/ A2978 RMK SLP090=
METAR CYUX NIL=
METAR CYVT 081400Z 31007KT 15SM BKN070 BKN220 17/11 A2996 RMK AC6CI1
SLP153=
METAR CYXH 081400Z 22004KT 30SM BKN270 14/12 A3017 RMK CI0 SLP223=
METAR CYZU 081400Z 27002KT 15SM SCT070 BKN240 13/09 A3008 RMK AC2CI0
SLP190=

####018001808####
SACN41 CWAO 081400
METAR CBBC 081400Z AUTO 00000KT 9SM CLR 16/14 A3002 RMK SLP166=
METAR CYBD 081400Z 00000KT 15SM SKC 13/13 A3006 RMK SLP181=
METAR CYCD 081400Z 31005KT 30SM SKC 20/11 A3001 RMK SLP161=
METAR CYCG 081400Z 00000KT 15SM SKC 14/09 A3016 RMK SLP205=
METAR CYDA 081400Z 00000KT 20SM FEW240 08/05 A3009 RMK CI0 SLP201=
METAR CYGE 081400Z 36002KT 30SM FEW240 12/09 A3022 RMK CI0 SLP229=
METAR CYKA 081400Z 01002KT 40SM SKC 17/08 A3013 RMK SLP200=
METAR CYLW 081400Z AUTO 04002KT 9SM CLR 16/08 A3012 RMK SLP196
 DENSITY ALT 1600FT=
METAR CYMA 081400Z 00000KT 20SM FEW050 10/09 A3008 RMK SC1 SLP198=
METAR CYOC 081400Z 00000KT 20SM FEW002 SCT013 OVC030 08/07 A3007 RMK
SF2ST2SC4 SLP195=
METAR CYPW 081400Z 00000KT 50SM SKC 18/14 A3003 RMK SLP167=
METAR CYQH 081400Z 00000KT 40SM SKC 13/09 A3011 RMK SLP206=
METAR CYQU 081400Z 36004KT 25SM FEW100 SCT210 17/12 A3010 RMK AC1CI1
SLP196=
METAR CYSD 081400Z 22004KT 25SM BKN270 15/13 A3018 RMK CI2 SLP219=
METAR CYWL 081400Z 00000KT 15SM SKC 15/08 A3015 RMK SLP204=
METAR CYXJ 081400Z 24003KT 15SM FEW100 FEW200 17/10 A3011 RMK AC1CI0
SLP198=
METAR CYXT 081400Z 36008KT 20SM FEW250 16/11 A3008 RMK CI1 SLP186=
METAR CYXY 081400Z 00000KT 40SM FEW170 SCT260 13/05 A3014 RMK AC1CI2
SLP221=
METAR CYYD 081400Z 00000KT 25SM SKC 12/09 A3011 RMK SLP193=
METAR CYYE 081400Z 22003KT 30SM FEW210 17/08 A3003 RMK CI1 SLP172=
METAR CYYF 081400Z 36006KT 15SM SKC 19/09 A3010 RMK SLP189=
METAR CYZW 081400Z 00000KT 30SM FEW150 FEW250 10/07 A3016 RMK AC1CI0
SLP225=
METAR CYZY 081400Z AUTO 13002KT 9SM CLR 14/10 A3011 RMK SLP195=
METAR CZFA 081400Z 15003KT 30SM VCFG FEW060 11/10 A3010 RMK SC2
SLP206=
METAR CZMT 081400Z 29010KT 15SM FEW040 BKN200 16/10 A3012 RMK SC1CS2
CONTRAILS CC ASOCTD SLP200=

####018000079####
SACN78 CWAO 080900 RRE
WPC SA 0900 AUTO8 M M M M/23/20/2204/M/M M 12MM=

####018000147####
SACN44 CWAO 081400 CCA
METAR CYLJ 081400Z CCA 26009KT 15SM SCT090 BKN120 BKN250 16/14 A3002
RMK ACC4AC2CI1 SH N + SSE PTCHS VIRGA SLP172=

####018000486####
SACN82 CWAO 081400
MAN NIL=
MBR NIL=
MCT NIL=
MCW NIL=
MFM SA 1400 AUTO8 M M M 160/26/18/2107/M/ 8008 07MM=
MGB NIL=
MHB NIL=
MHN NIL=
MHW NIL=
MIN NIL=
MLA NIL=
MLI NIL=
MLT NIL=
MLU NIL=
MMY NIL=
MPD NIL=
MPL NIL=
MQK NIL=
MQP NIL=
MRF NIL=
MRI NIL=
MRU NIL=
MRY NIL=
MSB NIL=
MSC NIL=
MSI NIL=
MSR NIL=
MSX NIL=
MTH NIL=
MWD NIL=
MYT NIL=
WDM SA 1400 AUTO8 M M M 176/12/09/0505/M/ 6013 14MM=
WHP NIL=
WQB NIL=

####018000079####
SACN78 CWAO 081100 RRF
WPC SA 1100 AUTO8 M M M M/23/20/2005/M/M M 07MM=

####018001263####
SACN88 CWAO 081400
AAW NIL=
ABB SA 1400 AUTO7 M M M M/22/20/2009/M/M M 50MM=
ABF SA 1400 AUTO8 M M M 215/12/12/1009/M/ 5000 99MM=
ABR NIL=
ABT SA 1400 AUTO8 M M M M/27/19/2211+18/M/ PK WND 2418 1307Z M
90MM=
ACP NIL=
ACQ NIL=
ADS NIL=
AFC NIL=
AFY SA 1400 AUTO7 M M M M/22/19/MMMM/M/ M 56MM=
AHD NIL=
AHK NIL=
AHR SA 1400 AUTO8 M M M 183/23/20/2114+21/M/ PK WND 2121 1345Z 8001
37MM=
AHW NIL=
AJT NIL=
AKC NIL=
AMS NIL=
AOH SA 1400 AUTO8 M M M 191/25/19/2412+17/M/ PK WND 2317 1351Z 8007
48MM=
AOS SA 1400 AUTO7 M M M M/17/17/2110/M/M M 88MM=
APR SA 1400 AUTO8 M M M 202/21/18/2704/M/ 8001 60MM=
AQY NIL=
ARP NIL=
AVA NIL=
AWR NIL=
ERM NIL=
WAR NIL=
WBK SA 1400 AUTO8 M M M 188/25/19/2206/M/ 8001 45MM=
WBV SA 1400 AUTO8 M M M 221/16/16/2310/M/M 0002 86MM=
WDA NIL=
WDO NIL=
WHO SA 1400 AUTO8 M M M 099/16/12/2308/M/M 8018 92MM=
WNS NIL=
WRN SA 1400 AUTO8 M M M 201/19/16/2121+28/M/M PK WND 2027 1354Z
8006 24MM=
WSS NIL=
WXI NIL=
WZF NIL=
WZN NIL=
WZU SA 1400 AUTO7 M M M M/21/19/2212/M/ M 92MM=
XGD SA 1400 AUTO8 M M M 199/21/15/MMMM/M/ 8011 00MM=
XKT NIL=
XNP NIL=
ZCR NIL=
ZDB NIL=
ZSP SA 1400 AUTO8 M M M 173/25/20/2112+18/M/ PK WND 2218 1355Z 7004
08MM=

####018000112####
SACN86 CWAO 081400
WBE NIL=
WCU NIL=
WNL NIL=
WPO NIL=
WPS NIL=
WSI NIL=
WWX NIL=
WWZ NIL=

####018000109####
SACN48 CWAO 081400 CCA
METAR CYZG 081400Z CCA 12007KT 4SM -DZ BR OVC014 11/10 A2962 RMK SC8
SLP040=

####018000607####
SACN66 CWAO 081400
PIF SA 1400 AUTO8 M M M 125/17/09/2806/M/ 8003 73MM=
PIL SA 1400 AUTO8 M M M 169/16/12/2706/M/ 5001 33MM=
POX SA 1400 AUTO8 M M M 197/16/12/2409/M/ 3002 72MM=
PQW SA 1400 AUTO8 M M M 200/14/12/2403/M/ 2002 31MM=
WBD SA 1400 AUTO8 M M M 209/15/11/3005/M/ 1011 19MM=
WBU NIL=
WDC SA 1400 AUTO8 M M M 131/17/09/0106/M/ 1001 69MM=
WEH SA 1400 AUTO8 M M M 222/16/10/0703/M/ 3007 82MM=
WIK NIL=
WKO SA 1400 AUTO8 M M M 226/16/11/3505/M/ 3009 86MM=
WOY SA 1400 AUTO8 M M M 204/15/09/2707/M/ 3004 97MM=
XBK SA 1400 AUTO8 M M M 200/16/09/3303/M/ 1011 70MM=
ZHB NIL=

####018001718####
SACN45 CWAO 081400
METAR CYBB 081400Z 00000KT 15SM BKN100 13/07 A2981 RMK AC6 SLP095=
METAR CYCB 081400Z 34009KT 15SM FEW060 BKN140 12/08 A2983 RMK SC1AC1
SLP104=
METAR CYCO 081400Z 00000KT 13SM VCFG OVC013 07/06 A2988 RMK SC8
SLP120=
METAR CYCS NIL=
METAR CYFS 081400Z 00000KT 15SM FEW055 17/13 A2996 RMK SC2 SLP151=
METAR CYGH 081400Z 30006KT 15SM FEW015 OVC070 11/09 A3005 RMK CF2CU6
SLP181=
METAR CYGT 081400Z 00000KT 15SM FEW020 FEW040 FEW080 12/06 A2980 RMK
CU1SC1AC1 SLP096=
METAR CYHI NIL=
METAR CYHK NIL=
METAR CYHY 081400Z 00000KT 15SM FEW020 SCT070 BKN210 17/14 A2995 RMK
SC1AC3CI1 SLP146=
METAR CYJF 081400Z 22008KT 15SM FEW090 15/12 A2999 RMK AC1
26.5/11.7/0/0/TR AC SLP158=
METAR CYKD NIL=
METAR CYLC 081400Z 18002KT 15SM BKN060 BKN070 BKN100 16/02 A2973 RMK
SC5AS2AC1 SLP070=
METAR CYLK 081400Z 27004KT 25SM BKN030 BKN200 14/10 A2991 RMK SC5CI1
16.4/6.4/0.0 SLP138=
METAR CYOA 081400Z 33008KT 15SM FEW070 11/08 A2989 RMK AC1 SLP140=
METAR CYPC 081400Z 30018KT 15SM BKN012 BKN090 06/03 A2993 RMK SC6AC1
SLP136=
METAR CYRA NIL=
METAR CYRT 081400Z 07010KT 1/2SM -RA FG VV002 07/07 A2962 RMK FG8
SLP031=
METAR CYSY NIL=
METAR CYTE 081400Z 08009KT 15SM SCT070 08/04 A2973 RMK AC4 SLP072=
METAR CYUT NIL=
METAR CYVM 081400Z 18008KT 15SM FEW140 13/07 A2982 RMK AC1 SLP098=
METAR CYWJ 081400Z 30005KT 10SM -RA BKN070 BKN120 12/11 A2993 RMK
AC5AS2 CIG DFUS SLP145=
METAR CYWY 081400Z 00000KT 20SM FEW050 FEW070 18/13 A2996 RMK SC1AC1
25.0/15.0/1.0 SLP151=
METAR CYXN 081400Z 02005KT 3SM -RA BR OVC004 04/04 A2960 RMK FG3ST5
SLP024=
METAR CYXP 081400Z 26011KT 15SM FEW090 FEW150 11/05 A2980 RMK AC0AC1
SLP092=
METAR CYZS NIL=

####018001144####
SACN94 CWAO 081400
WQC SA 1400 AUTO8 M M M 171/15/12/3501/M/ 1009 74MM=
WQD NIL=
WQE NIL=
WQF NIL=
WQH SA 1400 AUTO8 M M M M/29/24/2407/M/ M 20MM=
WQK SA 1400 AUTO8 M M M M/M/M/MM06/M/M M MMMM=
WQL NIL=
WQM NIL=
WQO NIL=
WQP NIL=
WQQ NIL=
WQR NIL=
WQS NIL=
WQU NIL=
WQV NIL=
WQW NIL=
WQY NIL=
WQZ NIL=
WRA NIL=
WRD NIL=
WRE NIL=
WRJ NIL=
WRK SA 1400 AUTO8 M M M 166/29/21/2303/M/ 8007 82MM=
WRM SA 1400 AUTO8 M M M 205/13/09/3001/M/ 8002 16MM=
WRR NIL=
WRT NIL=
WRU NIL=
WRV SA 1400 AUTO8 M M M 179/17/13/2606/M/ 6002 76MM=
WRY NIL=
WRZ NIL=
WSB SA 1400 AUTO8 M M M M/21/M/0000/M/ M 5MMM=
WSD SA 1400 AUTO8 M M M 175/23/19/2114+19/M/0007 PK WND 2219 1351Z
8002 71MM=
WSF SA 1400 AUTO8 M M M 165/13/13/3503/M/ 8006 44MM=
WSG SA 1400 AUTO7 M M M 169/13/13/0103/M/ 8004 15MM=
WSK SA 1400 AUTO8 M M M 168/17/11/3503/M/ 1005 26MM=
WSL SA 1400 AUTO8 M M M 200/14/10/2003/M/ 1010 45MM=
WSN NIL=
WSP SA 1400 AUTO8 M M M 154/17/M/MM01/M/ 3004 4MMM=
WSQ NIL=
WSR NIL=
WST NIL=
WSU NIL=
WSV SA 1400 AUTO8 M M M 223/12/08/MMMM/M/ 0006 28MM=
WSX NIL=
WSY NIL=

####018000262####
SACN62 CWAO 081400
LWIS CYDL 081400Z AUTO 03003KT 10/05 A3020=
LWIS CYER 081400Z AUTO 00000KT 15/14 A2972=
LWIS CYLH 081400Z AUTO 23006KT 190V270 21/15 A2981=
LWIS CZMD 081400Z AUTO 23008KT 16/14 A2979=
LWIS CZSJ 081400Z AUTO 26007KT 15/14 A2982=

####018000776####
SACN90 CWAO 081400
WEA SA 1400 AUTO8 M M M 165/17/13/3007/M/ 1014 66MM=
WEB NIL=
WEC NIL=
WEE NIL=
WEF NIL=
WEI SA 1400 AUTO8 M M M 198/16/13/3603/M/ 1012 60MM=
WEL SA 1400 AUTO8 M M M M/21/13/3006/M/ M 98MM=
WEO NIL=
WEP SA 1400 AUTO8 M M M 180/21/19/2115+20/M/ PK WND 2121 1345Z 7003
42MM=
WER NIL=
WEW SA 1400 AUTO8 M M M 158/30/22/2601/M/ 8003 86MM=
WEZ NIL=
WFE SA 1400 AUTO8 M M M M/16/12/2301/M/ M 83MM=
WFF NIL=
WFJ NIL=
WFO NIL=
WFP NIL=
WFQ SA 1400 AUTO7 M M M M/29/23/2103/M/ M 97MM=
WFW NIL=
WFX NIL=
WFZ NIL=
WGB SA 1400 AUTO8 M M M 157/19/14/2809/M/ 1009 49MM=
WGD NIL=
WGF SA 1400 AUTO8 M M M M/16/14/0000/M/ M 34MM=
WGH NIL=
WGL SA 1400 AUTO8 M M M 169/26/25/2005/M/M 8004 33MM=
WGM NIL=
WGN NIL=

####018001415####
SACN51 CWAO 081400
METAR CWAE 081400Z 00000KT 15SM SKC 12/09 A3013 RMK SLP192=
METAR CWCA 081400Z 22010G16KT 15SM FEW020 SCT200 17/12 A2992 RMK
CU1CI2 TR CU SLP133=
METAR CWCL 081400Z AUTO 00000KT 9SM CLR 15/08 A3017 RMK SLP199=
METAR CWDL 081400Z 03002KT 15SM SKC 09/04 A3020 RMK 26.0/6.5/0/0/0
SLP223=
METAR CWIL 081400Z AUTO 34007KT 08/ A2981 RMK SLP102=
METAR CWKM 081400Z AUTO 11005KT 07/ A3002 RMK SLP172=
METAR CWKW 081400Z AUTO 10004KT 10/ A2971 RMK SLP078=
METAR CWLI 081400Z AUTO ///// 02/ A2999 RMK SLP166=
METAR CWLX 081400Z AUTO 21002KT 16/ A2977 RMK SLP092=
METAR CWLY 081400Z AUTO 17003KT 9SM CLR 14/10 A3010 RMK SLP191=
METAR CWOB 081400Z AUTO ///// 9SM CLR 14/ A2978 RMK SLP112=
METAR CWPX 081400Z AUTO 35009KT 10/ A2984 RMK SLP119=
METAR CWRX 081400Z AUTO 31005KT 10/ A2977=
METAR CWSW 081400Z 00000KT 20SM FEW260 09/07 A3027 RMK CI0 SLP247=
METAR CWUP 081400Z AUTO 10005KT 12/ A2981 RMK SLP109=
METAR CWUW 081400Z AUTO ///// 9SM CLR 15/ A2980 RMK SLP112=
METAR CWVH 081400Z AUTO 28014KT 04/ A3003 RMK SLP185=
METAR CWYK 081400Z AUTO ///// 13/ A2979 RMK SLP107=
METAR CWZZ 081400Z AUTO ///// 9SM SCT048 SCT056 BKN078 14/ A2973 RMK
SLP081=
METAR CZBF 081400Z 00000KT 9SM SCT006 BKN011 25/23 A3001 RMK SF3SC2
SLP162=
METAR CZCP 081400Z AUTO 28021KT 9SM OVC006 03/ A2987 RMK SLP123=
METAR CZST 081400Z 00000KT 15SM SKC 10/09 A3010 RMK SLP193=

####018000991####
SACN93 CWAO 081400
WMU NIL=
WMX NIL=
WMY NIL=
WMZ NIL=
WNC NIL=
WND NIL=
WNE NIL=
WNH SA 1400 AUTO8 M M M 162/16/14/3503/M/ 0000 67MM=
WNK NIL=
WNM SA 1400 AUTO8 M M M 205/16/13/MMMM/M/ 0006 51MM=
WNP SA 1400 AUTO8 M M M 200/17/12/0901/M/ 1010 38MM=
WNQ SA 1400 AUTO7 M M M 149/27/22/2703/M/ 8002 45MM=
WNR SA 1400 AUTO8 M M M M/10/00/2206/M/M M 91MM=
WNT NIL=
WNV NIL=
WNX NIL=
WNZ NIL=
WOC SA 1400 AUTO8 M M M 156/23/21/2902/M/ 0002 66MM=
WOD NIL=
WOE NIL=
WOG NIL=
WOI NIL=
WOJ NIL=
WOK NIL=
WON SA 1400 AUTO8 M M M 200/08/04/0802/M/ 1004 51MM=
WOQ NIL=
WOV NIL=
WOW NIL=
WPA NIL=
WPB NIL=
WPD NIL=
WPE SA 1400 AUTO8 M M M 207/15/14/2006/M/ 1002 51MM=
WPF SA 1400 AUTO8 M M M 144/16/12/0503/M/ 0004 92MM=
WPG NIL=
WPL SA 1400 AUTO8 M M M 117/17/14/2606/M/0004 PCPN 0.4MM PAST HR
5001 13MM=
WPR SA 1400 AUTO8 M M M 202/13/M/0000/M/M 0008 4MMM=
WPZ SA 1400 AUTO8 M M M 198/09/06/0000/M/ 0001 60MM=
WQA NIL=

####018000893####
SACN49 CWAO 081400
METAR CYAY 081400Z AUTO 20004KT 160V260 9SM FEW015 15/11 A3004 RMK
 SLP176=
METAR CYCX 081400Z 21008G16KT 12SM FEW030 BKN066 25/21 A3008 RMK
CF1AC5 DA+1526FT SLP184=
METAR CYDF 081400Z 00000KT 15SM OVC055 14/11 A3011 RMK SC8 SLP195=
METAR CYDP 081400Z 11002KT 15SM FEW100 SCT210 14/09 A2981 RMK AC1CI3
SLP094=
METAR CYGW 081400Z 32003KT 12SM FEW015 SCT080 OVC220 17/13 A2984 RMK
SC1AC3CS2 TCU EMBD E-SW SLP106=
METAR CYHH 081400Z 00000KT 15SM FEW065 BKN100 OVC160 25/15 A2990 RMK
SC2AC3AC2 SLP127=
METAR CYLU 081400Z 30004KT 2SM -DZ BR BCFG OVC003 14/13 A2974 RMK ST8
CIG RAG SLP075=
METAR CYNC 081400Z 00000KT 10SM -DZ SCT015 OVC030 18/17 A2988 RMK
ST3SC5 SLP121=
METAR CYSJ 081400Z 20011KT 1SM R23/P6000FT/N BR OVC002 18/15 A3015
RMK SF8 SLP210=
METAR CYTQ 081400Z 25022KT 12SM BKN016 15/12 A2974 RMK SC5 SLP073=
METAR CYYG NIL=

####018000921####
SACN92 CWAO 081400
WJI NIL=
WJK NIL=
WJL SA 1400 AUTO8 M M M 160/15/11/2206/M/ 6004 74MM=
WJM NIL=
WJN NIL=
WJO NIL=
WJP NIL=
WJR NIL=
WJT SA 1400 AUTO8 M M M 152/30/20/1401/M/ 8008 50MM=
WJU NIL=
WJV SA 1400 AUTO8 M M M 191/16/08/1107/M/ 1009 23MM=
WJW SA 1400 AUTO8 M M M 223/10/06/1804/M/ 1005 27MM=
WJX NIL=
WKA SA 1400 AUTO8 M M M M/M/M/0000/M/M M MMMM=
WKB SA 1400 AUTO8 M M M 193/15/14/1101/M/ 6004 17MM=
WKD NIL=
WKF SA 1400 AUTO8 M M M M/15/M/MMMM/M/ M 6MMM=
WKG NIL=
WKH SA 1400 AUTO8 M M M M/22/M/MMMM/M/M M 9MMM=
WKX NIL=
WLC SA 1400 AUTO8 M M M M/16/M/2903/M/M M 9MMM=
WLE NIL=
WLF NIL=
WLG NIL=
WLJ NIL=
WLK NIL=
WLM SA 1400 AUTO8 M M M M/20/11/3607/M/ M 98MM=
WLQ NIL=
WLU NIL=
WLV NIL=
WME NIL=
WMF NIL=
WMI NIL=
WMJ SA 1400 AUTO8 M M M 155/30/22/1804/M/ 8008 08MM=
WMM SA 1400 AUTO8 M M M 158/17/14/1101/M/ 1006 98MM=
WMQ NIL=

####018000101####
SACN63 CWAO 081400
NVQ NIL=
WMT NIL=
XAR NIL=
ZEV NIL=
ZFS NIL=
ZHY NIL=
ZSM NIL=

####018000122####
SACN46 CWAO 081400 CCA
METAR CYYB 081400Z CCA 21009KT 8SM FEW020 FEW120 FEW250 26/21 A2999
RMK CU1AC1CI0 SLP151=

####018001176####
SACN97 CWAO 081400
XAT NIL=
XBK NIL=
XBO NIL=
XCA SA 1400 AUTO8 M M M 142/22/18/1402/M/ 8005 81MM=
XCH NIL=
XCK SA 1400 AUTO7 M M M M/10/M/1002/M/M M 9MMM=
XDE NIL=
XDI NIL=
XDW NIL=
XEA SA 1400 AUTO8 M M M 142/17/11/2705/M/ 3006 93MM=
XEC NIL=
XEG NIL=
XET NIL=
XFA SA 1400 AUTO8 M M M 170/12/11/0000/M/ 3005 36MM=
XGH NIL=
XHA NIL=
XHF SA 1400 AUTO8 M M M M/30/21/MMMM/M/ M 75MM=
XHI NIL=
XIB SA 1400 AUTO7 M M M 175/22/17/3503/M/ 8004 78MM=
XLC NIL=
XLL NIL=
XLT SA 1400 AUTO8 M M M 139/26/22/0506/M/M 8008 62MM=
XLU NIL=
XMD NIL=
XMI SA 1400 AUTO8 M M M 217/21/19/2212/M/M PK WND 2317 1343Z 0004
67MM=
XMM NIL=
XMP NIL=
XMW NIL=
XMY NIL=
XNM SA 1400 AUTO7 M M M M/24/17/2609/M/ M 09MM=
XOX SA 1400 AUTO8 M M M 145/17/10/2906/M/ 6006 59MM=
XPV NIL=
XQA NIL=
XQT NIL=
XRH SA 1400 AUTO7 M M M M/18/15/1803/M/ M 12MM=
XSH SA 1400 AUTO7 M M M 149/29/21/1504/M/ 8003 69MM=
XSR SA 1400 AUTO8 M M M 183/17/09/MMMM/M/ 1006 60MM=
XSW SA 1400 AUTO7 M M M M/12/09/2109/M/ M 13MM=
XTL NIL=
XTN NIL=
XTP NIL=
XTV NIL=
XVG NIL=
XWN NIL=
XZU SA 1400 AUTO8 M M M 182/13/10/2002/M/ 8005 23MM=

####018000961####
SACN52 CWAO 081400
METAR CWEU NIL=
METAR CWFD 081400Z AUTO 01006KT 9SM 10/ RMK ALTM MISG=
METAR CWGZ NIL=
METAR CWKP 081400Z AUTO 29026KT 04/ A2984 RMK SLP129=
METAR CWRH 081400Z AUTO ///// 10/ A2975 RMK SLP096=
METAR CWSA 081400Z AUTO 22007KT 1 3/4SM OVC001 18/18 A3022 RMK VSBY
VRBL 1.2V3.5 SLP234=
METAR CWTU 081400Z AUTO 16010KT 12/ A2990 RMK SLP140=
METAR CWWU 081400Z 19004KT 15SM SCT018 BKN100 BKN200 18/14 A3020 RMK
SC3AC2CI1 SLP227=
METAR CWXR 081400Z AUTO 30003KT 05/ A2986 RMK SLP121=
METAR CWYM 081400Z AUTO 14010KT 12/ RMK ALTM MISG SLP121=
METAR CYPD 081400Z AUTO 25008KT 200V260 9SM CLR 27/16 A3012 RMK
 SLP199 DENSITY ALT 1600FT=
METAR CZEM NIL=
METAR CZFM 081400Z 18005KT 35SM -RA FEW015 BKN040 BKN070 09/08 A3009
RMK SF1SC2AC3 SLP192=
METAR CZFN NIL=
METAR CZPC 081400Z AUTO 28006KT 9SM CLR 13/11 A3021 RMK SLP224=
METAR CZUM 081400Z AUTO 26006KT 9SM FEW046 BKN075 BKN095 25/16 A2989
RMK SLP124=

####018002411####
SACN46 CWAO 081400
METAR CYBC 081400Z AUTO 27004KT 190V320 8SM OVC003 OVC081 16/15 A3002
RMK SLP168=
METAR CYBN 081400Z AUTO 25006KT 9SM CLR 31/21 A3001 RMK SLP157=
METAR CYEL 081400Z 23008KT 4SM BR OVC004 22/20 A2999 RMK SF8 WNDS
ESTD SLP153=
METAR CYFR 081400Z 00000KT 15SM FEW100 FEW140 BKN270 17/13 A2993 RMK
AC1AC2CI1 20.5/12.2/0/ SLP142=
METAR CYGK 081400Z 16004KT 7SM FEW080 25/22 A3003 RMK AC1 HZ VIS S 5
SLP169=
METAR CYGQ 081400Z 25006KT 15SM FEW009 FEW025 20/17 A2994 RMK SF2CU1
SLP139=
METAR CYHM 081400Z 26005KT 15SM SKC 29/22 A3005 RMK SLP172=
METAR CYKF 081400Z AUTO 19003KT 9SM CLR 29/19 A3005 RMK SLP169
 DENSITY ALT 2700FT=
METAR CYKL 081400Z AUTO 28013G18KT 9SM FEW033 FEW039 21/14 A2991 RMK
SLP137=
METAR CYKZ 081400Z 19003KT 8SM FEW260 30/23 A3002 RMK CI1 SLP162=
METAR CYLD 081400Z 36005KT 15SM FEW020 BKN035 OVC170 17/15 A2999 RMK
SC1SC7AS1 LWR SC TR SLP155=
METAR CYOO 081400Z AUTO 19004KT 090V200 6SM HZ CLR 28/22 A3002 RMK
 SLP163 DENSITY ALT 1900FT=
METAR CYPL 081400Z 25002KT 15SM SCT040 BKN100 BKN270 17/14 A2988 RETS
RMK CU4AC2CI0 CB NE SLP121=
METAR CYQA 081400Z AUTO 20004KT 160V240 9SM CLR 29/22 A3001 RMK
 SLP160 DENSITY ALT 2600FT=
METAR CYQK 081400Z 29006KT 15SM SCT015 BKN080 18/14 A3000 RMK CU4AC2
SLP161=
METAR CYRB NIL=
METAR CYSB 081400Z 21010KT 10SM FEW015 BKN130 BKN220 25/21 A2998 RMK
SF2AC3CI1 SLP148=
METAR CYSC 081400Z AUTO 24008KT 9SM CLR 29/23 A3002 RMK DENSITY ALT
 2400FT=
METAR CYSN 081400Z 24004KT 10SM SKC 30/20 A3002 RMK SLP162=
METAR CYSP 081400Z 22005KT 15SM FEW020 SCT036 BKN100 BKN230 19/17
A2997 RMK SC2SC2AC1CI1 CU ASOCT SLP152=
METAR CYVO 081400Z 19010G15KT 15SM FEW035 BKN076 BKN160 BKN280 BKN320
26/22 A2993 RMK CF1AC3AC1CC1CI1 SLP134=
METAR CYVQ 081400Z 31008KT 10SM -SHRA SCT008 BKN040 OVC080 13/12
A3001 RMK SC3SC4AC1 SLP165=
METAR CYXL 081400Z 29007KT 15SM FEW028 FEW100 20/13 A2995 RMK CU1AC1
SLP144=
METAR CYXU 081400Z 18009KT 12SM FEW030TCU 29/22 A3005 RMK TCU1 TCU
TOPS DSTNT N AND S HAZE SLP171=
METAR CYXZ 081400Z 00000KT 15SM BKN007 BKN030TCU 18/17 A2998 RMK
ST5TCU1 TR TCU SLP155=
METAR CYYB 081400Z 21009KT 15SM FEW020 FEW120 FEW250 26/21 A2999 RMK
CU1AC1CI0 SLP151=
METAR CYYH 081400Z 10002KT 15SM FEW030 BKN040 BKN210 15/07 A2980 RMK
SC2SC5CI0 SLP092=
METAR CYYU 081400Z 36002KT 12SM -SHRA OVC020 18/17 A2992 RMK SC8
SLP133=

####018000096####
SACN97 CWAO 081300 RRG
XNM SA 1300 AUTO7 M M M M/21/15/2609/M/ PK WND 2517 1213Z M 13MM=

####018000165####
SACN85 CWAO 081400
WBK NIL=
WHO NIL=
WPK SA 1400 AUTO8 M M M 157/27/M/1803/M/ 8011 2MMM=
WWE SA 1400 AUTO8 M M M 220/16/M/1909/M/ 0003 4MMM=
YGS NIL=

####018002466####
SACN31 CWAO 081400
METAR CYAW 081400Z 23010KT 12SM BKN004 OVC013 22/19 A3017 RMK SF6SC2
DA+950FT VIS LWR SEAWD 6 SM SLP219=
METAR CYBG 081400Z 06012KT 20SM FEW019 BKN090 24/19 A2997 RMK CU1AC7
SLP149=
METAR CYCH NIL=
METAR CYEG 081400Z 22002KT 15SM FEW120 FEW270 16/13 A3009 RMK AC1CI0
CONTRAILS ACC ASOCTD SLP195=
METAR CYFB 081400Z 10006KT 30SM FEW120 FEW250 12/04 A2977 RMK AC1CI1
SLP084=
METAR CYFC 081400Z AUTO 21014KT 9SM FEW019 25/20 A3007 RMK SLP184
 DENSITY ALT 1000FT MAX WND 23019KT AT 1358Z RVR MISG=
METAR CYGL 081400Z 18008KT 15SM -RA FEW050 OVC100 19/16 A2989 RMK
SC2AS6 SLP126=
METAR CYHZ 081400Z 22014KT 12SM BKN012 23/20 A3017 RMK SC6 SLP215=
METAR CYJT 081400Z 00000KT 12SM -SHRA FEW015 BKN030 OVC080 19/17
A3008 RMK SC1SC6AC2 SLP188=
METAR CYMX 081400Z 18003KT 15SM FEW035 30/21 A3001 RMK CF1 HAZY
SLP160=
METAR CYOW 081400Z 22002KT 15SM SKC 30/21 A3001 RMK SLP160=
METAR CYQB 081400Z 10005KT 7SM FEW012 SCT060 24/19 A3000 RMK SC2SC2
SLP160=
METAR CYQG 081400Z 28007KT 15SM FEW300 31/20 A3003 RMK CI1 SLP163=
METAR CYQM 081400Z 24017KT 15SM FEW025 FEW160 26/20 A3006 RMK CU1AC1
SLP181=
METAR CYQQ 081400Z 00000KT 20SM SKC 18/12 A3002 RMK SLP165=
METAR CYQX 081400Z 22008KT 20SM FEW053 BKN071 BKN100 21/16 A3012 RMK
SC1AC5AC2 SLP201=
METAR CYQY 081400Z 22006G16KT 15SM FEW180 FEW210 27/19 A3010 RMK
AC2CC1 SLP192=
METAR CYTR 081400Z 17003KT 7SM FEW100 29/21 A3001 RMK AC1 SLP162=
METAR CYUL 081400Z 21005KT 15SM FEW080 FEW210 28/22 A3000 RMK AC1CI0
SLP158=
METAR CYVR 081400Z 10005KT 30SM SKC 20/14 A2999 RMK SLP156=
METAR CYWG 081400Z 31011KT 15SM FEW020 FEW250 18/13 A3004 RMK CF1CI0
SLP175=
METAR CYXX 081400Z 02005KT 30SM SKC 21/12 A2999 RMK SLP157=
METAR CYYC 081400Z 00000KT 40SM FEW240 15/09 A3017 RMK CI0 CONTRAILS
/ HZ SLP219=
METAR CYYJ 081400Z 30005KT 30SM SKC 19/12 A2999 RMK SLP156=
METAR CYYQ 081400Z 26008KT 15SM FEW025 SCT080 15/11 A2964 RMK SC1AC2
SLP036=
METAR CYYR 081400Z 26007KT 15SM FEW023 BKN270 22/16 A2989 RMK CF2CI0
SLP124=
METAR CYYT 081400Z 17010KT 15SM BKN014 BKN100 14/11 A3022 RMK SC6AC2
SLP238=
METAR CYYZ 081400Z 23006KT 15SM FEW120 30/23 A3002 RMK AC1 SLP164=
METAR CYZF 081400Z 00000KT 15SM FEW110 FEW270 19/10 A2993 RMK AC1CI1
SLP140=
METAR CYZV 081400Z 17003KT 6SM BR SCT003 OVC006 15/14 A3005 RMK
SF3ST5 SLP177=
METAR CYZX 081400Z 22011G17KT 15SM SCT022 25/19 A3014 RMK SC3 WNDY
HILL 23007KT SLP207=

####018000079####
SACN78 CWAO 081300 RRF
WPC SA 1300 AUTO8 M M M M/25/21/1502/M/M M 35MM=

####018000970####
SACN78 CWAO 081400
TAE NIL=
TAG NIL=
TAL NIL=
TBO NIL=
TBT NIL=
TCK NIL=
TCW NIL=
TGT NIL=
TKG SA 1400 AUTO8 M M M 164/27/23/1703/M/ 8003 71MM=
TKR SA 1400 AUTO8 M M M 158/17/14/3108/M/ 3008 06MM=
TMS SA 1400 AUTO8 M M M 127/17/16/3208/M/0042 PCPN 0.9MM PAST HR
0006 24MM=
TNK NIL=
TPQ NIL=
TRA SA 1400 AUTO8 M M M 152/19/15/2706/M/ 3005 16MM=
TTR NIL=
TWL SA 1400 AUTO8 M M M 168/28/21/2003/M/M 8005 10MM=
TWN NIL=
TXR SA 1400 AUTO8 M M M 122/24/22/1911/M/ 8014 46MM=
TZR NIL=
WAJ NIL=
WBE NIL=
WKK NIL=
WLS SA 1400 AUTO8 M M M 169/24/22/1702/M/0055 PCPN 2.1MM PAST HR
8006 71MM=
WNB NIL=
WNL NIL=
WPC SA 1400 AUTO8 M M M M/25/20/1703/M/M M 56MM=
WPS NIL=
WWX NIL=
XBI SA 1400 AUTO8 M M M 166/29/23/2203/M/ 3001 67MM=
XRG SA 1400 AUTO8 M M M 170/29/21/2106/M/ 8003 22MM=
XZC NIL=
YLH SA 1400 AUTO M M M 100/21/15/2306/M/M 190V270 8014 83MM=
ZEL SA 1400 AUTO8 M M M 176/27/21/2705/M/ 8001 99MM=

####018000652####
SACN98 CWAO 081400
XAF NIL=
XAG NIL=
XAJ NIL=
XBA NIL=
XBR NIL=
XBW NIL=
XCD NIL=
XCP NIL=
XCS NIL=
XDK NIL=
XDP NIL=
XFR NIL=
XHR NIL=
XKI SA 1400 AUTO8 M M M 119/24/20/MMMM/M/ 6016 54MM=
XKM NIL=
XLB SA 1400 AUTO8 M M M 218/20/19/1704/M/ 0002 95MM=
XOY NIL=
XPA NIL=
XPC NIL=
XRB NIL=
XRL NIL=
XSE NIL=
XTD SA 1400 AUTO8 M M M 199/27/16/2214+23/M/ PK WND 2323 1353Z 8004
29MM=
XTO NIL=
XVN NIL=
XWB NIL=
XWM NIL=
XYH NIL=
XZV SA 1400 AUTO8 M M M 174/14/13/1903/M/ 8004 73MM=
ZKD NIL=
ZLW NIL=
ZMJ NIL=
ZPR NIL=
ZQH NIL=
ZQZ NIL=
ZRP NIL=
ZTB NIL=
ZZJ NIL=
ZZP NIL=

####018001109####
SAAU31 AMMC 081400
METAR YBAS 081400Z AUTO 09005KT 9999NDV // NCD 07/06 Q1021=
METAR YBBN 081400Z 21008KT 9999 SCT040 13/10 Q1020
     NOSIG=
METAR YBCS 081400Z 15007KT 9999 FEW025 SCT050 22/19 Q1016
     NOSIG=
METAR YBTL 081400Z AUTO 13008KT 9999NDV // SCT010 OVC018 21/19 Q1017=
METAR YMML 081400Z 36008KT CAVOK 04/03 Q1028
     FM1400 VRB03KT 4000 BR SKC=
METAR YPAD 081400Z 03005KT 9999 FEW047 05/03 Q1025
     NOSIG=
METAR YPCC 081400Z AUTO 14010KT 9999NDV // SCT023 OVC041 26/22 Q1014=
METAR YPDN 081400Z 18007KT CAVOK 24/21 Q1014=
METAR YPKU 081400Z AUTO 16005KT 9999NDV // NCD 22/16 Q1015=
METAR YPLM 081400Z AUTO 23003KT 9999NDV // SCT021 SCT039 OVC046 19/17
Q1010=
METAR YPPH 081400Z 01011KT 9999 -SHRA FEW022 SCT042 13/13 Q0996
     INTER 1400/1700 29030G50KT 2000 TSGS BKN010 FEW030CB=
METAR YPTN 081400Z AUTO 09005KT 9999NDV // NCD 22/15 Q1015=
METAR YPXM 081400Z AUTO 21005KT //// // NCD 22/19 Q1015=
METAR YSSY 081400Z 26010KT 9999 VCSH FEW010 SCT019 11/10 Q1027
     FM1400 22008KT 9999 -SHRA SCT020 BKN045
     INTER 1400/1700 5000 SHRA BKN010=
####018000142####
SACN42 CWAO 081400 CCA
METAR CYQD 081400Z CCA 27009KT 15SM FEW030 FEW065 FEW090 FEW250 16/11
A2996 RMK SC1SC1AC1CC1 TR SC CC SLP150=

####018001710####
SAZZ40 KAWN 081400 RRN
METAR K79J 081356Z 00000KT 10SM CLR 31/23 A3004 RMK AO2 SLP166 T03110233
      $=
METAR KNGP 081356Z COR 10007KT 7SM -RA FEW009 SCT016CB BKN025 27/26
      A2984 RMK AO2 RAB12 SLP105 CB DSNT NE AND SW TCU DSNT SE-S
      WR// P0007 T02730261 $=
METAR KNXP 081356Z AUTO 29009KT CLR 25/00 A2994 RMK AO2 SLP100 T02500000
      $=
METAR LKKV 081400Z VRB03KT CAVOK 25/09 Q1022 RMK REG QNH 1020=
METAR MGHT 081400Z 00000KT 9999 FEW006 SCT020 BKN090 17/15 QFE 817/0=
METAR MGPB 081400Z 00000KT 9000 --DZ BKN018 BKN090 25/24 Q1012 A29/88=
METAR MGQZ 081400Z 00000KT 7000 FEW008 BKN070 13/13 QFE 767/3 BR=
METAR MGSJ 081400Z 00000KT CAVOK 25/23 Q1013 A29/91 BKN080 BKN200=
METAR MGZA 081400Z 00000KT CAVOK 25/23 QFE 987/2 FEW070 OVC100=
METAR MKJS 081400Z 11004KT 9999 FEW024 BKN220 30/22 Q1013=
METAR MYEG 081359Z AUTO 16006KT 10SM CLR 30/24 A2998 RMK AO2 LTG DSNT
      W=
METAR PHNG 081357Z 10004KT 10SM SCT026 BKN040 24/20 A3002 RMK AO2 SLP160
      T02390200 $=
METAR TDCF 081400Z 30003KT 9999 SCT020TCU 30/22 Q1014=
METAR TDPD 081400Z 11003KT 9999 SCT018 31/24 Q1015=
METAR TVSV 081400Z 11014KT 9999 SCT023 SCT280 31/26 Q1014=
METAR UACC 081400Z 33007MPS CAVOK 22/03 Q1009 220/0070 NOSIG RMK QFE725/0967=
METAR UATT 081400Z 04006MPS 010V070 9999 NSC 32/01 Q1010 13CLRD70 NOSIG
      RMK QFE738/0985=
METAR WMKJ 081400Z 16001KT 9999 FEW022 BKN300 26/24 Q1011=
METAR WMKK 081400Z 00000KT 9999 FEW030 BKN280 27/25 Q1011 NOSIG=
METAR WMKP 081400Z 00000KT 9000 FEW025 SCT140 BKN270 29/25 Q1011 NOSIG=
METAR WMSA 081400Z 24001KT 9000 FEW026 SCT140 BKN280 28/25 Q1011=
METAR ZWSH 081400Z 25003MPS 9999 FEW040CB SCT040 32/01 Q1013 NOSIG=
####018000087####
SANL33 EHDB 081355 RRB
METAR EHSC 081355Z AUTO 17004G04KT 9999 18/16 Q1019 W///S2=
####018000078####
SADO31 TDPD 081400
METAR TDCF 081400Z 30003KT 9999 SCT020TCU 30/22 Q1014=
####018000087####
SANL33 EHDB 081355 RRA
METAR EHJR 081355Z AUTO 26009G10KT //// 16/15 Q1019 W16/S2=
####018000079####
SAGR33 LGAT 081350 RRA
METAR LGPA 081350Z 02016KT 9999 FEW025 26/17 Q1012=
####018000356####
SAPO31 LPMG 081400
METAR LPFR 081400Z 25010KT CAVOK 24/20 Q1016=
METAR LPMA 081400Z VRB08G18KT 9999 FEW016 24/17 Q1020 RS17008KT
0520007KT 2336017KT=
METAR LPPR 081400Z 20007KT 160V230 9999 FEW006 SCT250 24/18 Q1016=
METAR LPPS 081400Z 03012KT 350V060 9999 FEW016 SCT030 22/15 Q1021=
METAR LPPT 081400Z 26010KT 9999 FEW030 29/19 Q1016 NOSIG=
####018000087####
SANL33 EHDB 081355 RRC
METAR EHSA 081355Z AUTO 22007G08KT 9999 17/16 Q1019 W16/S2=
####018000101####
SAPK31 OPSK 081353
METAR OPSK 081355Z 13004KTS 5000 HZ SCT040 BKN100 32/25 QNH 1001 R.H.
69PC=
####018000131####
SAEW40 LEMM 081400
METAR LEBG 081400Z 14010KT 9999 SCT048 31/12 Q1020=
METAR LEHC 081400Z 11008KT 070V150 CAVOK 36/15 Q1020=
####018000075####
SADO31 TDPD 081400
METAR TDPD 081400Z 11003KT 9999 SCT018 31/24 Q1015=
####018000543####
SAMS34 WMKK 081400
METAR 081400Z
METAR WBGB 081400Z 13002KT 9999 -RA FEW005 SCT016 OVC140 25/24 Q1011=
METAR WBGR 081400Z 15004KT 9999 SCT014 BKN150 25/25 Q1011=
METAR WBGS 081400Z 16002KT 9999 SCT018 BKN150 25/24 Q1012=
METAR WBGY 081400Z 31002KT 9999 SCT020 BKN150 25/24 Q1012=
METAR WBKL 081400Z 19004KT 9999 FEW010 SCT140 BKN290 26/25 Q1010=
METAR WBKS 081400Z 13003KT 9999 FEW016 BKN300 27/25 Q1010=
METAR WBKT 081400Z 00000KT 9999 FEW006 BKN280 24/24 Q1011=
METAR WBKW 081400Z 30001KT 9999 FEW017 BKN300 26/24 Q1011=
####018000122####
SAUS44 KCRP 081407
MTRVCT
SPECI KVCT 081405Z 05007KT 4SM +RA BR FEW008 BKN017 OVC065 25/24 
A2992 RMK AO2 P0011 $
####018001670####
SAUS73 KWBC 081400
METAR
KABR 081353Z AUTO 27007KT 10SM CLR 21/13 A3014=
KALN 081350Z 00000KT 6SM BR SCT006 BKN022 OVC060 26/25 A3006=
KALO 081354Z AUTO 34010KT 10SM CLR 22/19 A3009=
KASE 081353Z 00000KT 10SM CLR 10/07 A3040=
KATY 081353Z AUTO 26003KT 10SM CLR 19/15 A3016=
KAXN 081353Z AUTO 29010KT 10SM CLR 21/16 A3013=
KAZO 081353Z 00000KT 5SM HZ FEW065 SCT100 26/22 A3004=
KBDE 081353Z AUTO VRB04KT 10SM CLR 19/14 A3001=
KBFF 081353Z AUTO 00000KT 10SM SCT039 17/13 A3031=
KBIS 081352Z 31005KT 10SM CLR 19/11 A3016=
KBJC NIL=
KBKF 081355Z 36004KT 3SM BR OVC002 14/14 A3035=
KBRL 081353Z AUTO 6SM BR OVC004 23/22 A3007=
KBTL 081353Z 07003KT 10SM CLR 27/21 A3004=
KCGI 081353Z 25005KT 10SM FEW110 28/24 A3006=
KCID 081352Z 34007KT 6SM BR SCT005 22/20 A3007=
KCIU 081355Z AUTO 02010KT 10SM SCT006 OVC012 21/18 A3000=
KCMI 081353Z 28004KT 10SM FEW020 SCT085 28/23 A3005=
KCMX 081353Z AUTO 28012KT 10SM FEW060 21/16 A3001=
KCOS 081354Z 17003KT 10SM CLR 15/12 A3037=
KCOU 081354Z 13003KT 10SM FEW003 SCT014 OVC024 24/23 A3009=
KCPR 081353Z 27003KT 10SM CLR 11/07 A3036=
KCYS 081353Z 22003KT 10SM SCT011 BKN040 14/12 A3037=
KDDC 081352Z AUTO 01011KT 7SM OVC005 19/17 A3020=
KDEC 081354Z 00000KT 10SM SCT007 28/23 A3005=
KDEN 081353Z 05005KT 1 1/2SM BR BKN005 OVC008 15/14 A3033=
KDET 081353Z 29005KT 10SM CLR 31/20 A3003=
KDLH 081355Z 27008KT 10SM CLR 22/14 A3006=
KDSM 081354Z 01009KT 10SM FEW015 SCT150 BKN250 23/18 A3012=
KDTW 081353Z 00000KT 8SM FEW200 30/22 A3003=
KEAU 081356Z 32006KT 10SM CLR 22/17 A3007=
KEGE 081350Z 00000KT 10SM SKC 12/09 A3040=
KELO 081353Z AUTO 25005KT 10SM CLR 20/14 A3003=
####018000921####
SAAE31 VTBB 081400
METAR VTBS 081400Z 18004KT 9999 FEW020TCU SCT120 BKN300 30/24 Q1008
            TCU W NOSIG=
METAR VTBD 081400Z 17008KT 9999 FEW020 SCT120 BKN300 30/24 Q1008
           NOSIG=
METAR VTCC 081400Z 03006KT 9999 FEW025CB SCT040 29/22 Q1009 A2981
           CB E,SE=
METAR VTBU 081400Z 15004KT 9999 FEW020 BKN300 31/26 Q1008 A2978=
METAR VTSS 081400Z NIL=
METAR VTSP 081400Z 30005KT 9000 FEW020 BKN300 28/24 Q1011 A2986
           NOSIG=
METAR VLVT 081400Z NIL=
METAR VYYY 081400Z NIL=
METAR VVTS 081400Z 23007KT 9999 -RA FEW015CB SCT017 25/22 Q1009
           NOSIG=
METAR VVNB 081400Z 13004KT 090V160 CAVOK 31/24 Q1003 NOSIG=
METAR VDPP 081400Z NIL=
METAR VVDN 081400Z 23006KT 9999 FEW017 SCT300 25/21 Q1008 NOSIG=
METAR VYMD 081400Z NIL=
METAR VDSR 081400Z 12004KT 8000 SCT017 SCT130 28/23 Q1009=
METAR VVPB 081400Z 19007KT 9999 FEW026 BKN300 28/21 Q1007 NOSIG=
####018001672####
SAUS73 KWBC 081400 RRA
METAR
KEVV 081354Z VRB04KT 10SM CLR 31/23 A3007=
KFAR 081353Z 27005KT 10SM CLR 21/13 A3008=
KFNT 081353Z AUTO 20004KT 10SM CLR 28/21 A3003=
KFSD 081356Z 00000KT 10SM CLR 21/16 A3018=
KFWA 081354Z 20006KT 9SM OVC050 28/21 A3005=
KGCK 081354Z 02009KT 10SM BKN023 20/17 A3025=
KGFK 081353Z 32006KT 10SM CLR 21/14 A3007=
KGJT 081353Z 07014KT 10SM CLR 22/07 A3021=
KGRB 081353Z 30006KT 2 1/2SM BR FEW006 BKN017 23/21 A3001=
KGRI 081353Z 36005KT 10SM CLR 19/15 A3022=
KGRR 081353Z 00000KT 3SM -RA BR FEW008 BKN036 OVC095 24/22
     A3003=
KGYY NIL=
KHIB 081353Z AUTO 26007KT 10SM CLR 21/16 A3006=
KHON 081355Z AUTO 31004KT 10SM CLR 20/15 A3016=
KHUF 081353Z 25004KT 10SM CLR 29/23 A3005=
KHUT 081352Z 02010KT 3SM BR OVC004 22/21 A3015=
KICT 081353Z 36009KT 9SM OVC009 23/21 A3012=
KIKK NIL=
KIND 081354Z 24007KT 9SM FEW180 SCT230 29/22 A3004=
KINL 081355Z AUTO 24006KT 10SM CLR 19/14 A3002=
KIRK 081355Z AUTO 01009KT 10SM FEW008 23/21 A3010=
KJAC 081351Z 00000KT 10SM SKC 11/01 A3038=
KJLN 081353Z 00000KT 1/2SM +RA FG FEW002 BKN013 OVC029 22/22
     A3009=
KJMS 081356Z AUTO 27007KT 10SM CLR 19/14 A3011=
KJXN 081356Z 00000KT 10SM CLR 28/21 A3004=
KLAN 081353Z 00000KT 10SM SCT120 BKN200 27/21 A3003=
KLAR 081353Z AUTO 00000KT 10SM BKN004 OVC017 09/08 A3042=
KLBF 081353Z AUTO 00000KT 10SM CLR 18/16 A3027=
KLBL 081355Z 35013KT 9SM OVC006 19/17 A3024=
KLEX 081354Z 19006KT 5SM HZ CLR 29/19 A3010=
KLNK 081354Z 01006KT 10SM CLR 21/18 A3018=
KLOU 081353Z 14004KT 6SM HZ CLR 29/22 A3007=
KLOZ 081353Z AUTO 00000KT 4SM HZ CLR 27/21 A3012=
KLSE 081353Z 33007KT 10SM CLR 23/18 A3007=
####018001685####
SAUS73 KWBC 081400 RRB
METAR
KMBS 081353Z 25003KT 10SM SCT070 25/22 A3003=
KMCI 081353Z 03005KT 1 3/4SM BR BKN004 OVC015 24/23 A3011=
KMDW 081351Z 23003KT 6SM BR FEW007 BKN023 OVC030 24/22 A3003=
KMHK 081352Z 03009KT 7SM OVC008 22/20 A3013=
KMKC 081354Z 00000KT 8SM OVC007 24/22 A3010=
KMKE 081352Z 27009KT 10SM FEW011 BKN019 BKN080 OVC200 24/21
     A3002=
KMKG 081355Z 20009KT 5SM BR BKN007 BKN030 OVC045 23/22 A3003=
KMLI 081352Z 36003KT 10SM BKN011 24/22 A3005=
KMOT 081354Z 23005KT 10SM BKN070 19/12 A3012=
KMSN 081353Z 32004KT 8SM BKN008 24/21 A3003=
KMSP 081353Z 27005KT 10SM CLR 23/16 A3011=
KOFF 081355Z AUTO 02005KT 10SM CLR 22/18 A3015=
KOMA 081352Z 01007KT 10SM FEW022 BKN250 21/18 A3016=
KORD 081351Z 25004KT 6SM -RA BR FEW014 SCT026 OVC040 24/22
     A3003=
KOSH 081353Z 31006KT 10SM OVC013 23/20 A3002=
KOTM 081353Z AUTO 35006KT 8SM SCT008 22/21 A3009=
KOWB 081356Z 27004KT 10SM CLR 32/24 A3008=
KPAH 081353Z 26004KT 10SM CLR 28/23 A3007=
KPIA 081354Z 31003KT 10SM FEW008 OVC016 24/22 A3006=
KPIR 081353Z AUTO 27003KT 10SM CLR 18/13 A3019=
KPLN 081354Z AUTO 26004KT 6SM -RA BR OVC005 22/21 A3000=
KPTK 081353Z 23004KT 10SM FEW150 SCT240 30/21 A3003=
KPUB 081353Z 12005KT 10SM CLR 16/13 A3031=
KRAP 081352Z 28004KT 10SM CLR 18/11 A3026=
KRFD 081354Z 32006KT 10SM FEW006 SCT013 BKN150 26/21 A3005=
KRKS 081354Z AUTO 07014KT 10SM CLR 11/07 A3037=
KRST 081354Z 35009KT 10SM CLR 22/17 A3013=
KSAW 081350Z 35005KT 10SM BKN011 22/18 A2999=
KSBN 081354Z 10005KT 7SM BKN090 23/22 A3004=
KSDF 081356Z 18003KT 6SM HZ FEW065 SCT100 SCT150 30/21 A3007=
KSGF 081352Z 00000KT 10SM FEW009 BKN014 OVC047 24/22 A3009=
####018000139####
SAUS73 KWBC 081400 CCA
METAR
KAPN 081354Z 26003KT 9SM BKN047 OVC075 23/21 A3000=
KSDM 081353Z AUTO 00000KT 8SM OVC010 16/13 A2992=
####018000684####
SAUS73 KWBC 081400 RRC
METAR
KSLN 081353Z 36011KT 10SM BKN010 22/19 A3015=
KSPI 081352Z VRB03KT 10SM FEW010 SCT014 BKN027 26/23 A3006=
KSTC 081353Z 30009KT 10SM CLR 23/14 A3010=
KSTJ 081353Z 02010KT 10SM OVC011 23/21 A3011=
KSTL 081351Z 33003KT 10SM -RA FEW009 SCT025TCU BKN075 BKN250 26/24
     A3006=
KSTP 081353Z 32003KT 10SM CLR 23/17 A3011=
KSUS 081354Z 00000KT 10SM -RA SCT012 BKN150 25/23 A3005=
KSUX 081352Z 33004KT 10SM CLR 21/17 A3018=
KTVC 081353Z 00000KT 7SM SCT006 BKN011 OVC030 23/22 A2999=
KUIN 081354Z AUTO 31003KT 10SM FEW004 SCT110 23/22 A3007=
KWRL 081353Z AUTO 00000KT 10SM CLR 15/05 A3029=
KYIP 081353Z VRB03KT 10SM CLR 31/21 A3004=
####018000189####
SARE20 FMEE 081400
METAR
FMCZ 081400Z 15009KT 9999 SCT023 26/19 Q1017=
FMEE 081400Z 12017KT 9999 FEW023 SCT060 21/15 Q1021 NOSIG=
FMEP 081404Z 11020G31KT 9999 FEW020 22/14 Q1021=
####018000080####
SARE03 FMEE 081400
METAR
FMEP 081404Z 11020G31KT 9999 FEW020 22/14 Q1021=
####018000087####
SAUS73 KWBC 081300 RRH
METAR
KBJC 081348Z 35007KT 8SM BKN006 OVC025 14/11 A3036=
####018000091####
SPUS72 KWBC 081407
SPECI
KTUL 081403Z 11004KT 10SM BKN006 BKN030 BKN090 24/23 A3005=
####018001664####
SAUS74 KWBC 081400
METAR
KACV 081353Z AUTO 00000KT 2SM R32/5000VP6000FT BR OVC001 10/09
     A2995=
KALW 081353Z 17004KT 10SM CLR 21/08 A3001=
KBFI 081353Z 35003KT 10SM CLR 20/14 A2996=
KBFL 081354Z 00000KT 10SM CLR 22/12 A2986=
KBIL 081353Z 22008KT 10SM CLR 13/06 A3026=
KBKE 081353Z AUTO 00000KT 10SM CLR 11/08 A3014=
KBLI 081353Z AUTO 00000KT 10SM CLR 17/14 A2998=
KBOI 081353Z 15008KT 10SM CLR 20/06 A3010=
KBTM 081353Z AUTO 00000KT 10SM CLR 09/02 A3033=
KBUR 081353Z 18003KT 4SM HZ OVC007 16/13 A2991=
KBYI 081353Z AUTO 12005KT 10SM CLR 16/06 A3016=
KBZN 081356Z 00000KT 10SM CLR 13/06 A3030=
KCDC 081353Z AUTO 00000KT 10SM CLR 14/04 A3018=
KCEC 081356Z AUTO 00000KT 3SM BR OVC001 10/09 A2998=
KCLM 081353Z AUTO A3000=
KCTB 081356Z AUTO 00000KT 10SM CLR 13/08 A3023=
KCXL NIL=
KEKO 081356Z AUTO 00000KT 10SM CLR 13/M02 A3015=
KEUG 081354Z 20007KT 10SM FEW170 SCT250 14/11 A2995=
KFAT 081353Z 33005KT 10SM CLR 19/09 A2985=
KGCN 081354Z 00000KT 10SM CLR 17/02 A3026=
KGEG 081353Z 05007KT 10SM CLR 18/08 A3008=
KGGW 081353Z AUTO 32004KT 10SM CLR 15/11 A3017=
KGTF 081353Z 25003KT 10SM CLR 14/08 A3024=
KHLN 081353Z 00000KT 10SM CLR 12/05 A3027=
KHQM 081353Z AUTO 28004KT 1/2SM FG 13/12 A2997=
KIDA 081353Z 01007KT 10SM CLR 13/07 A3022=
KIWA NIL=
KLAS 081356Z 20007KT 10SM SCT150 27/M02 A2986=
KLGB 081353Z 33003KT 8SM OVC013 17/13 A2992=
KLMT 081353Z 00000KT 10SM FEW050 SCT100 BKN200 16/11 A3008=
KLVM 081353Z AUTO 29003KT 10SM CLR 10/05 A3030=
KMFR 081353Z 01003KT 10SM SCT110 19/12 A2993=
KMLS 081353Z AUTO 16004KT 10SM CLR 16/11 A3021=
KMRY 081354Z 00000KT 10SM OVC006 13/10 A2995=
####018000329####
SAEQ01 SEQU 081400
METAR
SEQU 081400Z 33001KT 9999 FEW040 SCT300 16/08 Q1028 RMK A3036
GUSTY 25004G16KT RWY17 NOSIG=
SEGU 081400Z  19005KT 6000S 8000N -DZ FEW010 BKN020 OVC080
22/20 Q1013 TEMPO 8000N NOSIG=
SEMT 081400Z 21004KT 9999 BKN020 BKN100 24/19 Q1013=
SELT 081400Z VRB01KT 9999 FEW030 SCT300 12/07 Q1032=
####018001690####
SAUS74 KWBC 081400 RRA
METAR
KMSO 081353Z 17004KT 10SM CLR 13/07 A3022=
KMYV 081353Z AUTO 14004KT 10SM CLR 16/11 A2985=
KNTD NIL=
KOAK 081353Z 29010KT 8SM OVC007 14/11 A2995=
KOGD 081353Z 00000KT 10SM CLR 21/06 A3014=
KOLM 081354Z AUTO 00000KT 10SM CLR 15/12 A2997=
KONT 081353Z 20005KT 2SM BR OVC009 15/13 A2992=
KOTH 081355Z 00000KT 10SM OVC006 10/08 A3000=
KPAE 081353Z AUTO 01003KT 10SM CLR 20/12 A2998=
KPDX 081353Z 00000KT 10SM FEW250 19/14 A2992=
KPHX 081351Z 05004KT 10SM SCT140 33/01 A2981=
KPIH 081353Z 00000KT 10SM CLR 11/06 A3019=
KPMD 081353Z 00000KT 10SM CLR 19/01 A2992=
KPRB 081353Z AUTO 35003KT 7SM OVC005 12/11 A2993=
KPRC 081353Z 00000KT 10SM CLR 20/02 A3013=
KPSP 081353Z VRB04KT 10SM CLR 26/12 A2977=
KRBL 081354Z AUTO 16004KT 10SM CLR 22/14 A2985=
KRDD 081353Z 18008KT 10SM CLR 22/14 A2984=
KRDM 081356Z 16003KT 10SM CLR 14/03 A3009=
KRNO 081355Z 00000KT 10SM FEW100 BKN150 21/06 A3007=
KRNT 081353Z 00000KT 9SM CLR 17/13 A2996=
KSAC 081353Z 18006KT 10SM CLR 13/10 A2986=
KSAN 081351Z 31003KT 10SM OVC013 16/14 A2993=
KSBA 081353Z 20004KT 8SM OVC011 14/12 A2991=
KSBD 081353Z 00000KT 1 1/2SM BR OVC010 14/12 A2993=
KSBP 081356Z 27003KT 5SM BR OVC007 13/12 A2994=
KSCK 081355Z AUTO 03004KT 10SM CLR 14/11 A2986=
KSEA 081353Z 02006KT 10SM CLR 21/12 A2997=
KSFF 081353Z 00000KT 10SM CLR 18/10 A3008=
KSFO 081356Z 29009KT 10SM OVC008 13/10 A2995=
KSHR 081353Z AUTO 00000KT 10SM CLR 14/08 A3027=
KSJC 081353Z 00000KT 7SM FEW008 BKN011 OVC013 15/12 A2993=
KSLC 081353Z 14004KT 10SM FEW090 BKN130 22/07 A3012=
KSMF 081353Z 15009KT 10SM CLR 14/11 A2985=
KSNA 081353Z 22003KT 6SM HZ OVC015 18/13 A2992=
####018000380####
SAUS74 KWBC 081400 RRB
METAR
KSNS 081353Z 27003KT 6SM BR OVC009 13/11 A2994=
KTIW 081353Z AUTO 00000KT 10SM CLR 20/12 A2996=
KTUS 081353Z 09005KT 10SM CLR 30/11 A2994=
KTVL 081353Z AUTO 00000KT 10SM CLR 10/06 A3018=
KTWF 081353Z 07009KT 10SM CLR 18/04 A3015=
KUKI 081356Z AUTO 00000KT 10SM CLR 12/10 A2991=
KYKM 081353Z 25005KT 10SM CLR 18/08 A3003=
KYUM NIL=
####018000201####
SAUS74 KWBC 081400 CCA
METAR
KFLG 081356Z 00000KT 10SM SCT110 14/02 A3030=
KLAX 081353Z 27006KT 7SM BCFG FEW009 OVC011 16/13 A2992=
KSMX 081351Z 30004KT 2 1/2SM BR BKN004 OVC008 12/11 A2994=
####018001540####
SAEU KAWN 081400 RRS
METAR LIEA 081350Z 28004KT 210V320 9999 FEW025 33/22 Q1019 RMK VIS
      MIN 9999=
METAR LIED 081355Z 15020KT 9999 SCT018 32/16 Q1017 RMK SCT VIS MIN
      9999 BLU=
METAR LIEO 081350Z 05010KT CAVOK 31/21 Q1019 RMK VIS MIN 9999=
METAR LIMS 081355Z 07006KT 020V130 CAVOK 30/15 Q1020 RMK SKC VIS MIN
      9999 WIND THR30 07005KT BLU=
METAR LIPH 081345Z 14005KT 9999 FEW025 28/21 Q1021 RMK FEW VIS MIN
      9999 WIND THR07 /////KT BLU=
METAR LIPI 081355Z 19009KT 9999 FEW040 27/20 Q1021 RMK FEW VIS MIN
      9999 WIND THR06 25005KT BLU=
METAR LIQO 081355Z 19004KT 9999 SCT003 28/21 Q1022 RMK SCT VAL NIL
      NC VIS MIN 9999=
METAR LIQW 081355Z 20003KT 9999 FEW025 30/21 Q1020 RMK FEW VIS MIN
      9999 BLU=
METAR LIRG 081355Z 23010KT 9999 FEW030CB SCT033TCU 32/19 Q1019 RMK
      SCT MON NE LIB NC VIS MIN 9999 BLU=
METAR LIRL 081355Z 24009KT 9999 FEW020 30/17 Q1019 RMK FEW MON LIB
      NC VIS MIN 9999 BLU=
METAR LIRM 081355Z 13005KT 9999 FEW020 30/15 Q1019 RMK FEW VIS MIN
      9999 WIND THR06 07004KT BLU=
METAR LIRS 081355Z 22012KT 9999 FEW040 30/19 Q1019 RMK FEW VIS MIN
      9999 WIND THR21 /////KT BLU=
METAR LIRT 081355Z 35010KT CAVOK 18/05 Q1023 RMK SKC MON LIB VAL NIL
      VIS MIN 9999=
METAR LIRU 081350Z 26010KT 9999 FEW040 30/17 Q1020 RMK VIS MIN 9999=
METAR LIRV 081355Z 26011KT 9999 SCT032 28/22 Q1020 RMK SCT MON E SE
      LIB NC VIS MIN 9999 BLU=
METAR LIRZ 081350Z 01009KT 330V050 9999 FEW045 31/11 Q1020 RMK VIS
      MIN 9999=
####018001581####
SAEU KAWN 081400 RRR
METAR LIMG 081350Z 08008KT 9999 SCT040 30/25 Q1020 RMK VIS MIN 9999=
METAR LIMK 081355Z 18002KT CAVOK 23/12 Q1023 RMK SKC VAL NIL VIS MIN
      9999=
METAR LIMN 081355Z /////KT CAVOK 28/16 Q1020 RMK FEW FEW200 VIS MIN
      9999 BLU=
METAR LIPB 081350Z 18015KT CAVOK 31/12 Q1018 RMK MON LIB VIS MIN 9999=
METAR LIPF 081355Z 11003KT 9999 FEW050 29/19 Q1020 RMK FEW VIS MIN
      9999=
METAR LIPL 081355Z 16004KT 9999 FEW036 30/17 Q1021 RMK FEW VIS MIN
      9999 BLU=
METAR LIPR 081345Z 07012KT CAVOK 28/19 Q1021 RMK SKC VIS MIN 9999 WIND
      THR31 09011KT BLU=
METAR LIPS 081355Z 12004KT 9999 SCT030 28/18 Q1021 RMK SCT VIS MIN
      9999 BLU=
METAR LIPX 081345Z 23003KT 9999 FEW040 30/14 Q1020 RMK FEW VIS MIN
      9999 BLU=
METAR LIPY 081350Z 05010KT CAVOK 26/14 Q1021 RMK VIS MIN 9999=
METAR LIRK 081355Z 13008KT CAVOK 16/14 Q1027 RMK SCT SCT060 MON NE
      LIB NC VAL NIL NC VIS MIN 9999=
METAR LIVC 081355Z 00000KT 9999 SCT001 16/11 Q1031 RMK SCT MON LIB
      VAL NIL VIS MIN 9999=
METAR LIVP 081355Z VRB03KT 9999 FEW003 15/11 Q1029 RMK FEW MON LIB
      VAL NIL VIS MIN 9999=
METAR LPAZ 081400Z 24006KT 9999 BKN016 BKN030 21/19 Q1025=
METAR LPFL 081400Z 20007KT 170V280 9999 FEW021TCU SCT040 24/17 Q1021=
METAR LPHR 081400Z 22006KT 9999 FEW015 23/19 Q1023=
METAR LPPD 081400Z 19005KT 130V230 9999 FEW016 BKN030 21/16 Q1024=
METAR LRCV 081400Z 30006KT 9999 SCT040 24/14 Q1017=
METAR LRSV 081400Z 32020KT 9999 FEW014 BKN049 17/14 Q1019=
METAR LRTC 081400Z 35012KT 9999 BKN040 24/17 Q1014=
####018000282####
SPNA14 KAWN 081407
SPECI KNEL 081400Z AUTO 17007KT 7SM BKN012 BKN090 27/22 A3005 RMK AO2
      $=
SPECI KNQI 081404Z 02006KT 10SM BKN010CB BKN100 BKN280 28/26 A2985
      RMK AO2 CB DSNT NE AND E-SE AND NW $=
SPECI KNUC 081400Z 28003KT 7SM OVC012 15/12 A2994 RMK FIRST=
####018000323####
SAXX60 KAWN 081400 RRB
METAR PHNG 081357Z 10004KT 10SM SCT026 BKN040 24/20 A3002 RMK AO2 SLP160
      T02390200 $=
METAR RJSM 081400Z 09003KT 7000 FEW005 SCT/// 18/16 Q1010 RMK 1ST005
      A2984 WIND BY EQPT/10=
METAR RJTT 081400Z 18010KT 9999 FEW008 SCT140 BKN/// 25/22 Q1010 RMK
      1ST008 4AC140 A2984=
####018001040####
SAUK KAWN 081400 RRC
METAR EGDY 081350Z 21011KT 9999 FEW033 SCT100 BKN220 23/15 Q1018 BLU
      NOSIG=
METAR EGOP 081350Z 21008KT 9999 -RA FEW017 BKN080 17/15 Q1018 BLU=
METAR EGPU 081350Z 23019KT 9999 FEW023 16/12 Q1010=
METAR EGQK 081350Z 23021KT 9999 SCT030 BKN060 18/07 Q1010 BLU NOSIG=
METAR EGUB 081350Z 22008KT 9999 FEW040 BKN200 23/12 Q1018 BLU NOSIG=
METAR EGWC 081350Z 23010KT 9999 BKN035 22/10 Q1018 BLU=
METAR EGXX 081350Z AUTO 22008KT 9999NDV // FEW050/// ///// Q////=
METAR EGXZ 081350Z 25016KT 9999 SCT035 BKN200 21/08 Q1016 BLU=
METAR EGYE 081350Z 28008KT 9999 FEW040 SCT250 ///// Q1017 BLU=
METAR EGYH 081350Z 22008KT 9999 FEW030 24/// Q1018 BLU=
METAR EICK 081400Z 20010KT 9999 -RA BKN006 BKN012 BKN038 13/13 Q1016
      TEMPO 2000=
METAR EIDW 081400Z 22011KT 9999 FEW022 SCT040 BKN050 16/10 Q1015 NOSIG=
METAR EIKN 081400Z 21007KT 170V250 9999 FEW015 FEW018CB BKN030 BKN060
      14/11 Q1014 NOSIG=
METAR EINN 081400Z 21006KT 9000 -RADZ FEW014 SCT018 BKN032 15/13 Q1015
      NOSIG=
####018000171####
SABC40 FBSK 081400
METAR FBFT 081400Z 11011KT 9999 BKN020 20/10 Q1028=
METAR FBKE 081400Z 10015KT CAVOK 23/06 Q1025=
METAR FBMN 081400Z 12009KT CAVOK 25/04 Q1024=
####018001059####
SAUS75 KWBC 081400
METAR
PABR 081353Z 24016KT 10SM FEW150 SCT190 SCT250 07/03 A2997=
PABT 081353Z 31003KT 10SM FEW100 SCT140 11/08 A3007=
PACV 081353Z 14008G16KT 10SM FEW009 BKN032 OVC046 11/09 A3011=
PADL 081356Z 28004KT 10SM FEW039 09/08 A2996=
PADU 081358Z 09020G25KT 10SM -RA OVC021 08/04 A2975=
PAEN 081353Z 04011KT 10SM OVC090 14/12 A2994=
PAGA 081358Z AUTO 00000KT 10SM CLR 10/08 A3007=
PAGK 081353Z AUTO 36003KT 10SM SCT100 08/07 A3005=
PAGY 081353Z AUTO 00000KT 10SM CLR 11/09 A3018=
PAIL 081353Z 08003KT 1/4SM -RA FG BKN001 OVC070 08/08 A2995=
PAKN 081354Z 35004KT 10SM SCT030 BKN060 08/08 A2990=
PAKT 081353Z AUTO 35010KT 10SM CLR 18/11 A3008=
PASC 081353Z 24015KT 10SM OVC230 09/05 A3003=
PASI 081353Z 33003KT 1/4SM FG VV001 12/12 A3017=
PATA 081352Z AUTO 36004KT 10SM CLR 09/06 A3005=
PAUN 081356Z AUTO 06012KT 10SM CLR 13/04 A3001=
PAVD 081356Z 00000KT 10SM FEW001 BKN080 BKN120 10/07 A3009=
PHJH NIL=
PHMK 081354Z AUTO 03008KT 10SM FEW060 22/17 A3002=
PMDY 081356Z AUTO 00000KT 10SM CLR 24/20 A3007=
####018000095####
SPCN46 CWAO 081406
SPECI CYXZ 081406Z 18002KT 15SM SCT007 SCT030TCU RMK ST3TCU1 TR TCU=

####018000118####
SPUS90 KWBC 081408
SPECI KVCT 081405Z 05007KT 4SM +RA BR FEW008 BKN017 OVC065 25/24
     A2992 RMK AO2 P0011 $=
####018001701####
SAUS90 KWBC 081400 RRD
METAR KABE 081351Z 07005KT 6SM HZ CLR 29/22 A3004=
METAR KALB 081351Z 00000KT 6SM HZ FEW090 29/21 A3004=
METAR KART 081356Z AUTO 25005KT 8SM CLR 28/22 A3003=
METAR KAVP 081354Z 00000KT 7SM CLR 29/19 A3006=
METAR KBDL 081351Z 16005KT 4SM HZ BKN012 OVC019 26/22 A3007=
METAR KBDR 081352Z 10008KT 7SM SCT015 BKN050 26/23 A3006=
METAR KBTV 081354Z 20006KT 7SM CLR 29/22 A3001=
METAR KBUF 081354Z 21005KT 10SM FEW095 29/19 A3004=
METAR KCAE 081356Z VRB04KT 10SM CLR 32/21 A2999=
METAR KCAK 081351Z 24004KT 10SM CLR 28/18 A3009=
METAR KCMH 081351Z 00000KT 6SM HZ CLR 28/21 A3007=
METAR KCRQ 081353Z AUTO 00000KT 8SM SCT007 OVC015 17/14 A2991=
METAR KCRW 081354Z 00000KT 5SM HZ CLR 27/21 A3010=
METAR KDAY 081356Z 23006KT 8SM CLR 29/19 A3009=
METAR KERI 081351Z 18005KT 9SM CLR 30/19 A3005=
METAR KFDK 081353Z AUTO 00000KT 7SM CLR 34/22 A3005=
METAR KGSO 081354Z 02007KT 5SM HZ CLR 31/19 A3004=
METAR KGSP 081353Z VRB03KT 9SM CLR 31/19 A3004=
METAR KHTS 081351Z 00000KT 6SM HZ CLR 28/21 A3009=
METAR KHUL 081353Z AUTO 19008KT 150V220 6SM HZ CLR 26/21 A3003=
METAR KIAG 081353Z 24004KT 10SM FEW100 29/21 A3003=
METAR KILG 081351Z 14004KT 2SM HZ BKN011 BKN016 27/23 A3005=
METAR KILM 081353Z 04009KT 7SM CLR 31/22 A2994=
METAR KMSS 081353Z AUTO 19004KT 7SM CLR 29/23 A3001=
METAR KORH 081354Z 22007KT 10SM BKN014 OVC019 24/21 A3012=
METAR KPVD 081351Z 16005KT 10SM BKN010 BKN013 25/21 A3010=
METAR KPWM 081351Z 20005KT 10SM BKN014 BKN028 24/20 A3010=
METAR KROC 081354Z 24005KT 9SM CLR 29/21 A3004=
METAR KSYR 081354Z 00000KT 8SM CLR 30/22 A3004=
METAR KMZZ 081355Z AUTO 19003KT 7SM SCT065 SCT070 26/21 A3006 RMK
     AO2=
####018000085####
SAUS90 KWBC 081400 CCE
METAR KRIC 081354Z 14007KT 9SM FEW150 SCT250 31/21 A3000=
####018000098####
SAMG20 FMMI 081400
METAR FMMI 081400Z 15007KT 110V180 9999 SCT020 BKN023 16/14 Q1026
NOSIG=
####018000081####
SAMF20 TFFR 081400
METAR TFFR 081405Z 10014KT 9999 BKN030 31/24 Q1015 NOSIG=
####018000292####
SANZ31 NZKL 081400

METAR NZAA 081400Z 22011KT 9999 FEW025 10/07 Q1012 NOSIG=
METAR NZWN 081400Z 19029KT 9999 -SHRA FEW015 SCT030 BKN037 09/06
         Q1014 WS R16 TEMPO 6000 SHRA =
METAR NZCH 081400Z 23018KT 9999 RA FEW014 BKN025 BKN035 06/05 Q1017
         TEMPO 6000 SHRA =
####018001619####
SASA KAWN 081400 RRD
METAR SAEZ 081400Z 33004KT 280V020 CAVOK 12/03 Q1018=
METAR SASA 081400Z 14004KT CAVOK 13/07 Q1020=
METAR SBFL 081400Z 15011KT 9999 FEW025 SCT100 21/16 Q1019=
METAR SKBQ 081400Z 20004KT 8000 SCT010 BKN070 28/26 A2992 HZ=
METAR SKRG 081400Z VRB02KT 4000 -DZ BR BKN004 SCT080 15/14 A3033=
METAR SKRG 081400Z VRB02KT 4000 -DZ BR BKN004 SCT080 15/14 A3033=
METAR SLPS 081400Z 35008KT 9999 SKC 30/15 Q1013=
METAR SLTJ 081400Z 00000KT 9999 SKC 15/07 Q1021=
METAR SLTR 081400Z 15010KT 6000 -RA FEW008 SCT017 FEW020CB OVC070 22/21
      Q1015=
METAR SPHI 081400Z 16010KT 9999 SCT013 SCT100 18/13 Q1016 RMK BIRD
      HAZARD RWY 19/01 PP000=
METAR SPQT 081400Z /////KT 9999 SCT017 27/24 Q1013 NOSIG RMK BIRD HAZARD
      RWY 06/24 PP000=
METAR SPQU 081400Z VRB03KT CAVOK 15/M10 Q1025 NOSIG RMK PP000=
METAR SPRU 081400Z 19003KT 7000 OVC015 16/13 Q1015 RMK BIRD HAZARD
      RWY20 PP000=
METAR SPSO 081400Z 12004KT CAVOK 16/13 Q1015 RMK PP000=
METAR SPTN 081400Z 20003KT 8000 OVC013 12/08 Q1014 RMK PP000=
METAR SPZO 081400Z 00000KT 9999 FEW033 SCT046 11/03 Q1034 NOSIG RMK
      PP000=
METAR SUCA 081400Z 32005KT CAVOK 12/04 Q1018=
METAR SUDU 081400Z 00000KT CAVOK 11/04 Q1020=
METAR SULS 081400Z 27011KT CAVOK 12/04 Q1019=
METAR SUMU 081400Z 27005KT CAVOK 13/05 Q1019 NOSIG=
METAR SVCB 081400Z 00000KT 9999 OVC015 XX/XX QXXXX=
METAR SVCL 081400Z /////KT 6000 OVC013 DZ 25/25 Q1013=
METAR SVPR 081400Z 00000KT 9999 SCT035 XX/XX Q1015=
METAR SVST 081400Z 09008KT 7000 DZ OVC015 XX/XX Q1016=
METAR SVVP 081400Z 10006KT 9000 OVC013 DZ 25/24 Q1007=
####018000087####
SAAK41 KNKA 081407
METAR PAPO 081406Z 11011KT 10SM CLR 04/03 A3011 RMK VIA PHONE =
####018002211####
SAUS20 KNKA 081407
METAR K0F2 081404Z AUTO 11007KT 5SM RA SCT009 BKN019 OVC037 23/21 
     A3006 RMK AO2 P0002 T02270211=
METAR K11R 081404Z AUTO 10010KT 4SM +TSRA SCT014 SCT021 25/23 
     A3000 RMK AO2 LTG DSNT NE P0002=
METAR K1H2 081405Z AUTO 24007KT 10SM SCT043 29/24 A3005 RMK AO2 
     LTG DSNT W T02920240=
METAR K3T5 081404Z AUTO 08003KT 7SM -RA SCT021 BKN037 OVC070 
     25/24 A2996 RMK AO2 LTG DSNT NE P0001 T02510237=
METAR KAAA 081403Z AUTO 30003KT 10SM OVC010 24/23 A3005 RMK AO2 
     LTG DSNT S T02410225=
METAR KAJG 081405Z AUTO 25004KT 10SM SCT047 BKN055 29/24 A3006 
     RMK AO2 LTG DSNT W T02870239=
METAR KAPY 081403Z AUTO 36007KT 10SM SCT008 BKN036 OVC045 26/24 
     A2987 RMK AO2 T02580240=
METAR KAQO 081405Z AUTO 05007KT 9SM FEW011 SCT017 BKN022 26/23 
     A3005 RMK AO2=
METAR KARM 081405Z AUTO 06006KT 5SM RA SCT010 BKN055 OVC070 27/25 
     A2995 RMK AO2 LTG DSNT N T02700251=
METAR KBOW 081355Z 05004KT 15SM SCT016 27/21 A3003=
METAR KC09 081404Z AUTO 00000KT 7SM OVC023 23/22 A3003 RMK AO2=
METAR KCUL 081405Z AUTO 18005KT 10SM CLR 29/22 A3006 RMK AO2 LTG 
     DSNT NW T02900223=
METAR KGLE 081404Z AUTO 15007KT 10SM BKN010 BKN015 OVC024 26/23 
     A3008 RMK AO2=
METAR KIKK 081405Z AUTO 22003KT 7SM BKN008 OVC033 28/24 A3003 RMK 
     AO2=
METAR KLOT 081401Z AUTO 00000KT 5SM BR BKN023 BKN029 24/23 A3003 
     RMK AO2=
SPECI KMCI 081406Z 05007KT 3SM BR BKN006 OVC015 24/23 A3011 RMK AO2 
    SFC VIS 6=
METAR KORG 081405Z AUTO 07008KT 7SM BKN010 OVC014 17/14 A3001 RMK 
     AO2=
METAR KOXI 081405Z AUTO 00000KT 4SM SCT080 24/22 A3002 RMK AO1 
     T02410224=
METAR KOZA 081401Z AUTO 09007KT 10SM BKN020 BKN038 BKN049 25/22 
     A3010 RMK AO2 T02460218=
METAR KPPQ 081405Z AUTO 00000KT 10SM SCT005 BKN011 BKN024 24/23 
     A3008 RMK AO2 LTG DSNT SE=
METAR KPVW 081401Z AUTO 05008KT 10SM OVC007 21/19 A3018 RMK AO2=
METAR KRCR 081406Z AUTO 32004KT 4SM -RA SCT014 SCT030 BKN055 
     25/23 A3006 RMK AO2=
SPECI KRKP 081406Z AUTO 08009KT 2SM VCTS +RA SCT009 BKN014 OVC027 
    A2988 RMK AO2 LTG DSNT SW P0006 FZRANO $=
METAR KSFY 081405Z AUTO 33003KT 10SM SCT007 24/21 A3004 RMK AO2=
####018000144####
SASG21 GOOY 081400
METAR GOSS 081400Z 26006KT 170V040 9999 SCT016 33/25 Q1012=
METAR GOTT 081400Z 22006KT 9999 BKN013 TCU 33/26 Q1013=

####018001650####
SACN96 KWBC 081408
METAR CWXL 081400Z AUTO 19003KT 16/12 RMK AO1 T01560117=
METAR CWYJ 081400Z AUTO 34005KT 22/12 RMK AO1 T02190121=
METAR CWYL 081400Z AUTO 05001KT 07/05 RMK AO1 T00660045=
METAR CWYY 081400Z AUTO 36001KT 16/13 RMK AO1 SLP181 T01630130
51006=
CWZA RMK NIL=
CWZL RMK NIL=
METAR CWZO 081400Z AUTO 03009KT RMK AO1 =
CWZQ RMK NIL=
METAR CWZS 081400Z AUTO 16001KT 25/22 RMK AO1 SLP153 T02530219
58005=
CWZV RMK NIL=
CXHM RMK NIL=
CXKA RMK NIL=
CXKE RMK NIL=
METAR CWYJ 081400Z AUTO 34005KT 22/12 RMK AO1 T02190121=
METAR CWYL 081400Z AUTO 05001KT 07/05 RMK AO1 T00660045=
METAR CWYY 081400Z AUTO 36001KT 16/13 RMK AO1 SLP181 T01630130
51006=
CWZA RMK NIL=
CWZL RMK NIL=
METAR CWZO 081400Z AUTO 03009KT RMK AO1 =
CWZQ RMK NIL=
METAR CWZS 081400Z AUTO 16001KT 25/22 RMK AO1 SLP153 T02530219
58005=
CWZV RMK NIL=
CXHM RMK NIL=
CXKA RMK NIL=
CXKE RMK NIL=
METAR CWYJ 081400Z AUTO 34005KT 22/12 RMK AO1 T02190121=
METAR CWYL 081400Z AUTO 05001KT 07/05 RMK AO1 T00660045=
METAR CWYY 081400Z AUTO 36001KT 16/13 RMK AO1 SLP181 T01630130
51006=
CWZA RMK NIL=
CWZL RMK NIL=
METAR CWZO 081400Z AUTO 03009KT RMK AO1 =
CWZQ RMK NIL=
METAR CWZS 081400Z AUTO 16001KT 25/22 RMK AO1 SLP153 T02530219
58005=
CWZV RMK NIL=
CXHM RMK NIL=
CXKA RMK NIL=
CXKE RMK NIL=
METAR CWYY 081400Z AUTO 36001KT 16/13 RMK AO1 SLP181 T01630130
51006=
CWZA RMK NIL=
CWZL RMK NIL=
METAR CWZO 081400Z AUTO 03009KT RMK AO1 =
CWZQ RMK NIL=
METAR CWZS 081400Z AUTO 16001KT 25/22 RMK AO1 SLP153 T02530219
58005=
CWZV RMK NIL=
CXHM RMK NIL=
CXKA RMK NIL=
CXKE RMK NIL=
####018000324####
SAMX41 MMMX 081403
METAR MMBT 081355Z RTD 00000KT 5SM SCT030 OVC110 24/22 A2990
      RMK 8/46/ HZY VRB COND=
METAR MMIT 081400Z RTD 00000KT 5SM HZ BKN010 OVC070 27/25 A2978 RMK 
           8/66/ BINOVC =
METAR MMTB 081400Z RTD 00000KT 7SM FEW015 SCT018 BKN070 23/21 A2985 
           RMK 8/640 BCMIFG 2 QUAD =
####018000828####
SAUR31 UKMS 081400
METAR UKLR 081400Z 30005MPS 270V340 9999 SCT030
         BKN100  21/15 Q1018 30090070 NOSIG=
METAR UKLI 081400Z 30004MPS 260V020 9999 FEW021CB
         BKN030 18/15 Q1020 28290565 NOSIG=
METAR UKON 081400Z 33005MPS 290V360 9999 VCTS
         SCT033CB  OVC200 28/17 Q1013 05090075 NOSIG=
METAR UKCM 081400Z 12002MPS 090V160 CAVOK 29/15 Q1013
          20010065 NOSIG=
METAR UKCW 081400Z 07002MPS 010V120 9999 BKN040 30/16
          Q1014 2709//70 NOSIG=
METAR UKLU 081400Z 33003MPS 9999 SCT040 BKN200 23/11
         Q1020 10090070  NOSIG=
METAR UKKK 081400Z 28004MPS CAVOK 26/17 Q1015
         26CLRD70 NOSIG=
METAR UKKM 081400Z 29003MPS 240V360 9999 SCT042 26/17
         Q1015  33CLRD70 NOSIG=
METAR UKLN 081400Z 26003MPS 210V320 9999 BKN017
         BKN033CB 16/14 Q1020 3319//65 NOSIG=
####018000489####
SACN90 KWBC 081408
CWEB RMK NIL=
CWEE RMK NIL=
METAR CWEL 081400Z AUTO 30006KT 21/13 RMK AO1 T02090128=
METAR CWEW 081400Z AUTO 26001KT 30/22 RMK AO1 SLP158 T02980216
58003=
CWEZ RMK NIL=
CWFF RMK NIL=
CWFJ RMK NIL=
METAR CWFQ 081400Z AUTO 21003KT 29/23 RMK AO1 T02890227=
METAR CWGB 081400Z AUTO 28009KT 19/14 RMK AO1 SLP157 T01940139
51009=
CWGD RMK NIL=
CWGH RMK NIL=
METAR CWGL 081400Z AUTO 20005KT 26/25 RMK AO1 SLP169 T02630253
58004=
CWGM RMK NIL=
####018001672####
SACN94 KWBC 081408
METAR CWQH 081400Z AUTO 24007KT 29/24 RMK AO1 T02920240=
METAR CWQK 081400Z AUTO RMK AO1 =
CWQO RMK NIL=
CWQP RMK NIL=
CWQR RMK NIL=
CWQV RMK NIL=
CWRJ RMK NIL=
METAR CWRK 081400Z AUTO 23003KT 29/21 RMK AO1 SLP166 T02880212
58007=
CWRT RMK NIL=
CWRY RMK NIL=
CWRZ RMK NIL=
METAR CWSD 081400Z AUTO 21014G19KT 23/19 RMK AO1 8002 PK WND
22019/1351 SLP175 T02270191 50007=
METAR CWSG 081400Z AUTO 01003KT 13/13 RMK AO1 SLP169 T01310125
58004=
METAR CWSK 081400Z AUTO 35003KT 17/11 RMK AO1 SLP168 T01720106
51005=
METAR CWSL 081400Z AUTO 20003KT 14/10 RMK AO1 SLP200 T01440095
51010=
METAR CWSP 081400Z AUTO 17/ RMK AO1 SLP154 T0174 53004=
CWSR RMK NIL=
CWST RMK NIL=
METAR CWSD 081400Z AUTO 21014G19KT 23/19 RMK AO1 8002 PK WND
22019/1351 SLP175 T02270191 50007=
METAR CWSG 081400Z AUTO 01003KT 13/13 RMK AO1 SLP169 T01310125
58004=
METAR CWSK 081400Z AUTO 35003KT 17/11 RMK AO1 SLP168 T01720106
51005=
METAR CWSL 081400Z AUTO 20003KT 14/10 RMK AO1 SLP200 T01440095
51010=
METAR CWSP 081400Z AUTO 17/ RMK AO1 SLP154 T0174 53004=
CWSR RMK NIL=
CWST RMK NIL=
METAR CWSP 081400Z AUTO 17/ RMK AO1 SLP154 T0174 53004=
CWSR RMK NIL=
CWST RMK NIL=
METAR CWSP 081400Z AUTO 17/ RMK AO1 SLP154 T0174 53004=
CWSR RMK NIL=
CWST RMK NIL=
METAR CWSP 081400Z AUTO 17/ RMK AO1 SLP154 T0174 53004=
CWSR RMK NIL=
CWST RMK NIL=
METAR CWSP 081400Z AUTO 17/ RMK AO1 SLP154 T0174 53004=
CWSR RMK NIL=
CWST RMK NIL=
METAR CWSP 081400Z AUTO 17/ RMK AO1 SLP154 T0174 53004=
CWSR RMK NIL=
CWST RMK NIL=
CWND RMK NIL=
CWSR RMK NIL=
CWST RMK NIL=
CWSR RMK NIL=
CWST RMK NIL=
####018000068####
SAAG SACO 081400
METAR SACO 081400Z  02018KT CAVOK 16/M16 Q1019=
####018001997####
SAUS99 KWBC 081408
METAR
KMZZ 081355Z AUTO 19003KT 7SM SCT065 SCT070 26/21 A3006 RMK
     AO2=
PAPO 081406Z 11011KT 10SM CLR 04/03 A3011 RMK VIA PHONE=
K0F2 081404Z AUTO 11007KT 5SM RA SCT009 BKN019 OVC037 23/21 A3006
     RMK AO2 P0002 T02270211=
K11R 081404Z AUTO 10010KT 4SM +TSRA SCT014 SCT021 25/23 A3000 RMK
     AO2 LTG DSNT NE P0002=
K1H2 081405Z AUTO 24007KT 10SM SCT043 29/24 A3005 RMK AO2 LTG DSNT
     W T02920240=
K3T5 081404Z AUTO 08003KT 7SM -RA SCT021 BKN037 OVC070 25/24 A2996
     RMK AO2 LTG DSNT NE P0001 T02510237=
KAAA 081403Z AUTO 30003KT 10SM OVC010 24/23 A3005 RMK AO2 LTG DSNT
     S T02410225=
KAJG 081405Z AUTO 25004KT 10SM SCT047 BKN055 29/24 A3006 RMK AO2
     LTG DSNT W T02870239=
KAPY 081403Z AUTO 36007KT 10SM SCT008 BKN036 OVC045 26/24 A2987
     RMK AO2 T02580240=
KAQO 081405Z AUTO 05007KT 9SM FEW011 SCT017 BKN022 26/23 A3005 RMK
     AO2=
KARM 081405Z AUTO 06006KT 5SM RA SCT010 BKN055 OVC070 27/25 A2995
     RMK AO2 LTG DSNT N T02700251=
KBOW 081355Z 05004KT 15SM SCT016 27/21 A3003=
KC09 081404Z AUTO 00000KT 7SM OVC023 23/22 A3003 RMK AO2=
KCUL 081405Z AUTO 18005KT 10SM CLR 29/22 A3006 RMK AO2 LTG DSNT NW
     T02900223=
KGLE 081404Z AUTO 15007KT 10SM BKN010 BKN015 OVC024 26/23 A3008
     RMK AO2=
KIKK 081405Z AUTO 22003KT 7SM BKN008 OVC033 28/24 A3003 RMK
     AO2=
KLOT 081401Z AUTO 00000KT 5SM BR BKN023 BKN029 24/23 A3003 RMK
     AO2=
KORG 081405Z AUTO 07008KT 7SM BKN010 OVC014 17/14 A3001 RMK
     AO2=
KOXI 081405Z AUTO 00000KT 4SM SCT080 24/22 A3002 RMK AO1
     T02410224=
KOZA 081401Z AUTO 09007KT 10SM BKN020 BKN038 BKN049 25/22 A3010
     RMK AO2 T02460218=
KPPQ 081405Z AUTO 00000KT 10SM SCT005 BKN011 BKN024 24/23 A3008
     RMK AO2 LTG DSNT SE=
KPVW 081401Z AUTO 05008KT 10SM OVC007 21/19 A3018 RMK AO2=
KRCR 081406Z AUTO 32004KT 4SM -RA SCT014 SCT030 BKN055 25/23 A3006
     RMK AO2=
KSFY 081405Z AUTO 33003KT 10SM SCT007 24/21 A3004 RMK AO2=
####018000243####
SAGG31 UGTB 081400
METAR UGTB 081400Z 06010KT 9999 SCT050 SCT100 34/13 Q1013 NOSIG RMK
      13CLRD80=
METAR UGKO 081400Z 27010KT 9999 SCT033CB BKN100 29/23 Q1010 NOSIG=
METAR UGSB 081400Z 33004KT 9999 SCT023CB SCT070 27/23 Q1009 NOSIG=
####018001858####
SAUS70 KWBC 081408
METAR
PABA 081401Z AUTO 29016KT 10SM BKN040 07/04 A3001 RMK AO2 SLP161
     T00670044=
PABA 081401Z AUTO 29016KT 10SM BKN040 07/04 A3001 RMK AO2 SLP161
     T00670044=
KPAN 081415Z AUTO 12005KT 10SM FEW036 FEW065 23/06 A3018 RMK
     AO1=
KRQO 081415Z AUTO 00000KT 5SM BR OVC003 23/23 A3009 RMK AO2=
PAPO 081406Z 11011KT 10SM CLR 04/03 A3011 RMK VIA PHONE=
K0F2 081404Z AUTO 11007KT 5SM RA SCT009 BKN019 OVC037 23/21 A3006
     RMK AO2 P0002 T02270211=
K11R 081404Z AUTO 10010KT 4SM +TSRA SCT014 SCT021 25/23 A3000 RMK
     AO2 LTG DSNT NE P0002=
K1H2 081405Z AUTO 24007KT 10SM SCT043 29/24 A3005 RMK AO2 LTG DSNT
     W T02920240=
K3T5 081404Z AUTO 08003KT 7SM -RA SCT021 BKN037 OVC070 25/24 A2996
     RMK AO2 LTG DSNT NE P0001 T02510237=
KAAA 081403Z AUTO 30003KT 10SM OVC010 24/23 A3005 RMK AO2 LTG DSNT
     S T02410225=
KAJG 081405Z AUTO 25004KT 10SM SCT047 BKN055 29/24 A3006 RMK AO2
     LTG DSNT W T02870239=
KAQO 081405Z AUTO 05007KT 9SM FEW011 SCT017 BKN022 26/23 A3005 RMK
     AO2=
KARM 081405Z AUTO 06006KT 5SM RA SCT010 BKN055 OVC070 27/25 A2995
     RMK AO2 LTG DSNT N T02700251=
KC09 081404Z AUTO 00000KT 7SM OVC023 23/22 A3003 RMK AO2=
KGLE 081404Z AUTO 15007KT 10SM BKN010 BKN015 OVC024 26/23 A3008
     RMK AO2=
KIKK 081405Z AUTO 22003KT 7SM BKN008 OVC033 28/24 A3003 RMK
     AO2=
KLOT 081401Z AUTO 00000KT 5SM BR BKN023 BKN029 24/23 A3003 RMK
     AO2=
KORG 081405Z AUTO 07008KT 7SM BKN010 OVC014 17/14 A3001 RMK
     AO2=
KOXI 081405Z AUTO 00000KT 4SM SCT080 24/22 A3002 RMK AO1
     T02410224=
KOZA 081401Z AUTO 09007KT 10SM BKN020 BKN038 BKN049 25/22 A3010
     RMK AO2 T02460218=
KPPQ 081405Z AUTO 00000KT 10SM SCT005 BKN011 BKN024 24/23 A3008
     RMK AO2 LTG DSNT SE=
KPVW 081401Z AUTO 05008KT 10SM OVC007 21/19 A3018 RMK AO2=
####018001226####
SACN87 KWBC 081408
CWCT RMK NIL=
CWLB RMK NIL=
CWCT RMK NIL=
CWLB RMK NIL=
CWCT RMK NIL=
CWLB RMK NIL=
CWCT RMK NIL=
CWLB RMK NIL=
CWCT RMK NIL=
CWLB RMK NIL=
METAR CWEK 081400Z AUTO 17002KT 14/ RMK AO1 SLP172 T0138 53004=
METAR CWEQ 081400Z AUTO 22007KT 13/10 RMK AO1 SLP180 T01330103
52006=
METAR CWJD 081400Z AUTO 29007KT 19/12 RMK AO1 SLP144 T01860119
53004=
METAR CWLP 081400Z AUTO 09002KT 14/13 RMK AO1 SLP172 T01410127
53003=
CWPU RMK NIL=
CWRO RMK NIL=
CWWL RMK NIL=
CWWS RMK NIL=
METAR CWZG 081400Z AUTO 22005KT 10/04 RMK AO1 SLP236 T01030038
50000=
CWQS RMK NIL=
METAR CWRM 081400Z AUTO 30001KT 13/09 RMK AO1 SLP205 T01310086
58002=
CWRU RMK NIL=
METAR CWDC 081400Z AUTO 01006KT 17/09 RMK AO1 SLP131 T01660089
51001=
METAR CWEH 081400Z AUTO 07003KT 16/10 RMK AO1 SLP222 T01580102
53007=
METAR CWKO 081400Z AUTO 35005KT 16/11 RMK AO1 SLP226 T01580106
53009=
METAR CWOY 081400Z AUTO 27007KT 15/09 RMK AO1 SLP204 T01490087
53004=
CWME RMK NIL=
CWME RMK NIL=
CWME RMK NIL=
CWME RMK NIL=
METAR CWVT 081400Z AUTO 32007KT 17/11 RMK AO1 7003 SLP163
T01660109 50003=
METAR CWZW 081400Z AUTO 27001KT 10/06 RMK AO1 SLP222 T01030063
50001=
####018001308####
SACN86 KWBC 081408
METAR CWPC 081000Z AUTO 20004KT 23/20 RMK AO1 T02290200=
METAR CWPC 080900Z AUTO 22004KT 23/20 RMK AO1 T02310202=
CWBE RMK NIL=
CWCU RMK NIL=
CWNL RMK NIL=
CWPO RMK NIL=
CWPS RMK NIL=
CWSI RMK NIL=
CWWX RMK NIL=
CWWZ RMK NIL=
METAR CWPC 081100Z AUTO 20005KT 23/20 RMK AO1 T02300197=
METAR CWPC 081300Z AUTO 15002KT 25/21 RMK AO1 T02530205=
CWHP RMK NIL=
CTAE RMK NIL=
CTAL RMK NIL=
CTCK RMK NIL=
CTCW RMK NIL=
CTWN RMK NIL=
CWAJ RMK NIL=
CWBE RMK NIL=
METAR CWLS 081400Z AUTO 17002KT 24/22 RMK AO1 1PAST HR 8006 SLP169
P0008 T02370221 50055=
CWNB RMK NIL=
CWNL RMK NIL=
METAR CWPC 081400Z AUTO 17003KT 25/20 RMK AO1 T02450196=
CWPS RMK NIL=
CWWX RMK NIL=
CTWN RMK NIL=
CWAJ RMK NIL=
CWBE RMK NIL=
METAR CWLS 081400Z AUTO 17002KT 24/22 RMK AO1 1PAST HR 8006 SLP169
P0008 T02370221 50055=
CWNB RMK NIL=
CWNL RMK NIL=
METAR CWPC 081400Z AUTO 17003KT 25/20 RMK AO1 T02450196=
CWPS RMK NIL=
CWWX RMK NIL=
METAR CWPC 081200Z AUTO 20003KT 23/19 RMK AO1 T02340194=
CWNC RMK NIL=
CWNZ RMK NIL=
METAR CWDQ 081400Z AUTO 25003KT 29/22 RMK AO1 SLP150 T02890218
58007=
METAR CWDV 081400Z AUTO 23005KT 20/16 RMK AO1 SLP153 T02000155
55000=
METAR CWWB 081400Z AUTO 26003KT 29/19 RMK AO1 SLP157 T02860187
58006=
####018001548####
SAXX60 KWBC 081400 RRG
METAR
KDOV 081355Z VRB04KT 10SM SCT120 27/22 A3002 RMK AO2A SLP169
     T02690224 $=
KNID 081356Z 00000KT 10SM CLR 22/04 A2989 RMK AO2 SLP100 T02170039
     $=
KNUQ 081356Z AUTO 04003KT 10SM OVC011 15/12 A2994 RMK AO2 SLP141
     T01500122 TSNO=
KVBG 081355Z 32004KT 4SM BR OVC004 12/11 A2995 RMK AO2 CIG 002V006
     SLP132 T01170111 $=
K79J 081356Z 00000KT 10SM CLR 31/23 A3004 RMK AO2 SLP166 T03110233
     $=
KDOV 081355Z VRB04KT 10SM SCT120 27/22 A3002 RMK AO2A SLP169
     T02690224 $=
KHIF 081355Z 09013KT 10SM CLR 19/06 A3015 RMK AO2A SLP106
     T01910063 $=
KNJM 081357Z AUTO 06008KT 10SM CLR 29/24 A2994 RMK AO2 SLP142
     T02940239 $=
KNUQ 081356Z AUTO 04003KT 10SM OVC011 15/12 A2994 RMK AO2 SLP141
     T01500122 TSNO=
KDOV 081355Z VRB04KT 10SM SCT120 27/22 A3002 RMK AO2A SLP169
     T02690224 $=
KNGU 081359Z 06008KT 10SM SCT070 BKN100 28/22 A3001 RMK AO2 SLP162
     T02830217=
KNJM 081357Z AUTO 06008KT 10SM CLR 29/24 A2994 RMK AO2 SLP142
     T02940239 $=
K79J 081356Z 00000KT 10SM CLR 31/23 A3004 RMK AO2 SLP166 T03110233
     $=
KNGP 081356Z COR 10007KT 7SM -RA FEW009 SCT016CB BKN025 27/26
     A2984 RMK AO2 RAB12 SLP105 CB DSNT NE AND SW TCU DSNT SE-S
     WR// P0007 T02730261 $=
KNXP 081356Z AUTO 29009KT CLR 25/00 A2994 RMK AO2 SLP100 T02500000
     $=
PHNG 081357Z 10004KT 10SM SCT026 BKN040 24/20 A3002 RMK AO2 SLP160
     T02390200 $=
PHNG 081357Z 10004KT 10SM SCT026 BKN040 24/20 A3002 RMK AO2 SLP160
     T02390200 $=
####018001123####
SACN88 KWBC 081408
CWBK RMK NIL=
METAR CAHR 081400Z AUTO 21014G21KT 23/20 RMK AO1 PK WND 21021/1345
SLP183 T02330197 58001=
CERM RMK NIL=
CWAR RMK NIL=
METAR CWBK 081400Z AUTO 22006KT 25/19 RMK AO1 SLP188 T02540185
58001=
CWDA RMK NIL=
CWXI RMK NIL=
CWZN RMK NIL=
CXNP RMK NIL=
CZCR RMK NIL=
CZDB RMK NIL=
METAR CZSP 081400Z AUTO 21012G18KT 25/20 RMK AO1 PK WND 22018/1355
SLP173 T02500198 57004=
METAR CAHR 081400Z AUTO 21014G21KT 23/20 RMK AO1 PK WND 21021/1345
SLP183 T02330197 58001=
CERM RMK NIL=
CWAR RMK NIL=
METAR CWBK 081400Z AUTO 22006KT 25/19 RMK AO1 SLP188 T02540185
58001=
CWDA RMK NIL=
CWXI RMK NIL=
CWZN RMK NIL=
CXNP RMK NIL=
CZCR RMK NIL=
CZDB RMK NIL=
METAR CZSP 081400Z AUTO 21012G18KT 25/20 RMK AO1 PK WND 22018/1355
SLP173 T02500198 57004=
CWDA RMK NIL=
CWXI RMK NIL=
CWZN RMK NIL=
CXNP RMK NIL=
CZCR RMK NIL=
CZDB RMK NIL=
METAR CZSP 081400Z AUTO 21012G18KT 25/20 RMK AO1 PK WND 22018/1355
SLP173 T02500198 57004=
CZDB RMK NIL=
METAR CZSP 081400Z AUTO 21012G18KT 25/20 RMK AO1 PK WND 22018/1355
SLP173 T02500198 57004=
####018000081####
SAAF33 KWBC 081400 RRA
METAR
FVHA 081400Z 10006KT CAVOK 18/04 Q1028 NOSIG=
####018000222####
SPUS99 KWBC 081408
SPECI
KMCI 081406Z 05007KT 3SM BR BKN006 OVC015 24/23 A3011 RMK AO2 SFC
     VIS 6=
KRKP 081406Z AUTO 08009KT 2SM VCTS +RA SCT009 BKN014 OVC027 A2988
     RMK AO2 LTG DSNT SW P0006 FZRANO $=
####018000072####
SADN34 EKCH 081350 RRA
METAR EKGF 081350Z 21007KT CAVOK 17/16 Q1018=
####018001473####
SACN92 KWBC 081408
CWJI RMK NIL=
CWJM RMK NIL=
CWJO RMK NIL=
CWJR RMK NIL=
METAR CWJT 081400Z AUTO 14001KT 30/20 RMK AO1 SLP152 T02950200
58008=
CWJU RMK NIL=
METAR CWJV 081400Z AUTO 11007KT 16/08 RMK AO1 SLP191 T01620083
51009=
METAR CWJW 081400Z AUTO 18004KT 10/06 RMK AO1 SLP223 T01020057
51005=
CWJX RMK NIL=
CWKD RMK NIL=
CWKG RMK NIL=
METAR CWKH 081400Z AUTO 22/ RMK AO1 T0219=
CWKX RMK NIL=
METAR CWLC 081400Z AUTO 29003KT 16/ RMK AO1 T0159=
CWLE RMK NIL=
METAR CWLM 081400Z AUTO 36007KT 20/11 RMK AO1 T01990108=
CWLU RMK NIL=
METAR CWMJ 081400Z AUTO 18004KT 30/22 RMK AO1 SLP155 T03000218
58008=
METAR CWMM 081400Z AUTO 11001KT 17/14 RMK AO1 SLP158 T01690138
51006=
CWMQ RMK NIL=
METAR CWLM 081400Z AUTO 36007KT 20/11 RMK AO1 T01990108=
CWLU RMK NIL=
METAR CWMJ 081400Z AUTO 18004KT 30/22 RMK AO1 SLP155 T03000218
58008=
METAR CWMM 081400Z AUTO 11001KT 17/14 RMK AO1 SLP158 T01690138
51006=
CWMQ RMK NIL=
METAR CWLM 081400Z AUTO 36007KT 20/11 RMK AO1 T01990108=
CWLU RMK NIL=
METAR CWMJ 081400Z AUTO 18004KT 30/22 RMK AO1 SLP155 T03000218
58008=
METAR CWMM 081400Z AUTO 11001KT 17/14 RMK AO1 SLP158 T01690138
51006=
CWMQ RMK NIL=
METAR CWLM 081400Z AUTO 36007KT 20/11 RMK AO1 T01990108=
CWLU RMK NIL=
METAR CWMJ 081400Z AUTO 18004KT 30/22 RMK AO1 SLP155 T03000218
58008=
METAR CWMM 081400Z AUTO 11001KT 17/14 RMK AO1 SLP158 T01690138
51006=
CWMQ RMK NIL=
CWMQ RMK NIL=
####018000852####
SACN95 KWBC 081408
CWTA RMK NIL=
METAR CWTG 081400Z AUTO 04015KT 14/ RMK AO1 006 PK WND 04020/1317
SLP162 T0138=
CWTN RMK NIL=
CWTT RMK NIL=
METAR CWTY 081400Z AUTO 20006KT 25/22 RMK AO1 SLP146 T02480217
58002=
CWUS RMK NIL=
METAR CWUX 081400Z AUTO 06005KT 24/21 RMK AO1 SLP145 T02380211
58007=
METAR CWVF 081400Z AUTO 35006KT 20/ RMK AO1 T0197=
METAR CWVI 081400Z AUTO 21003KT 17/12 RMK AO1 SLP176 T01650123
50002=
METAR CWVN 081400Z AUTO 36003KT 17/11 RMK AO1 SLP220 T01660114
53007=
CWVP RMK NIL=
CWVQ RMK NIL=
CWVU RMK NIL=
METAR CWVV 081400Z AUTO 35007KT 22/09 RMK AO1 SLP157 T02180086
53006=
CWVZ RMK NIL=
METAR CWWA 081400Z AUTO 35001KT 22/12 RMK AO1 SLP153 T02160123
51003=
CWWF RMK NIL=
METAR CWWK 081400Z AUTO 06001KT 18/15 RMK AO1 SLP162 T01830148
51005=
CWXA RMK NIL=
CWXC RMK NIL=
####018000733####
SACN89 KWBC 081408
CWAF RMK NIL=
METAR CWAQ 081400Z AUTO 31005KT 15/12 RMK AO1 T01530121=
CWAV RMK NIL=
CWBA RMK NIL=
CWBG RMK NIL=
METAR CWBO 081400Z AUTO 17002KT 15/14 RMK AO1 SLP210 T01530142
56003=
METAR CWBS 081400Z AUTO 21008KT 27/20 RMK AO1 T02670197=
METAR CWBT 081400Z AUTO 14002KT 13/13 RMK AO1 SLP170 T01310131
58003=
CWBZ RMK NIL=
CWCF RMK NIL=
CWCG RMK NIL=
CWCI RMK NIL=
METAR CWCJ 081400Z AUTO 30005KT 17/15 RMK AO1 SLP140 T01650149
56005=
CWCO RMK NIL=
CWCQ RMK NIL=
CWDD RMK NIL=
CWDF RMK NIL=
METAR CWDJ 081400Z AUTO 33002KT 16/10 RMK AO1 SLP216 T01600098
51012=
CWDK RMK NIL=
CWDT RMK NIL=
METAR CWDZ 081400Z AUTO 15004KT 14/10 RMK AO1 SLP197 T01410100
56005=
####018001070####
SACN91 KWBC 081408
METAR CWGR 081400Z AUTO 23016G24KT 21/18 RMK AO1 PK WND 22024/1354
SLP168 T02110178 51001=
METAR CWGT 081400Z AUTO 32006KT 21/14 RMK AO1 SLP156 T02080135
51009=
METAR CWGW 081400Z AUTO 36001KT 09/08 RMK AO1 SLP241 T00880075
50003=
CWGX RMK NIL=
METAR CWGY 081400Z AUTO 26003KT 18/10 RMK AO1 SLP208 T01770102
58003=
CWHA RMK NIL=
CWHD RMK NIL=
CWHI RMK NIL=
METAR CWHL 081400Z AUTO 24007KT 14/ RMK AO1 SLP174 T0139 53003=
METAR CWHM 081400Z AUTO 19001KT 31/23 RMK AO1 T03090228=
CWHQ RMK NIL=
METAR CWHT 081400Z AUTO 10003KT 09/04 RMK AO1 SLP208 T00930044
58005=
CWHV RMK NIL=
CWID RMK NIL=
CWIG RMK NIL=
CWII RMK NIL=
CWIJ RMK NIL=
CWIN RMK NIL=
CWIO RMK NIL=
METAR CWIP 081400Z AUTO 30003KT 13/ RMK AO1 T0133=
CWIS RMK NIL=
METAR CWIT 081400Z AUTO 27004KT 29/22 RMK AO1 T02870223=
CWIW RMK NIL=
CWIX RMK NIL=
CWIY RMK NIL=
METAR CWIZ 081400Z AUTO 23005KT 30/24 RMK AO1 T02990238=
CWJB RMK NIL=
METAR CWJC 081400Z AUTO 09/08 RMK AO1 22 3006 SLP053 T00890080
50002=
CWJH RMK NIL=
####018001487####
SACN97 KWBC 081408
CXAT RMK NIL=
CXBK RMK NIL=
CXBO RMK NIL=
METAR CXCA 081400Z AUTO 14002KT 22/18 RMK AO1 SLP142 T02180181
58005=
CXCH RMK NIL=
METAR CXCK 081400Z AUTO 10002KT 10/ RMK AO1 T0099=
CXDE RMK NIL=
CXDI RMK NIL=
CXDW RMK NIL=
METAR CXEA 081400Z AUTO 27005KT 17/11 RMK AO1 SLP142 T01690113
53006=
CXEC RMK NIL=
CXEG RMK NIL=
CXET RMK NIL=
CXGH RMK NIL=
CXHA RMK NIL=
METAR CXHF 081400Z AUTO 30/21 RMK AO1 T02970205=
METAR CXIB 081400Z AUTO 35003KT 22/17 RMK AO1 SLP175 T02170168
58004=
CXLC RMK NIL=
CXLL RMK NIL=
CXMD RMK NIL=
METAR CXMI 081400Z AUTO 22012KT 21/19 RMK AO1 PK WND 23017/1343
SLP217 T02060187 50004=
CXMM RMK NIL=
CXMY RMK NIL=
METAR CXNM 081400Z AUTO 26009KT 24/17 RMK AO1 T02400169=
METAR CXOX 081400Z AUTO 29006KT 17/10 RMK AO1 SLP145 T01650099
56006=
CXPV RMK NIL=
CXQA RMK NIL=
CXQT RMK NIL=
METAR CXRH 081400Z AUTO 18003KT 18/15 RMK AO1 T01810152=
METAR CXSH 081400Z AUTO 15004KT 29/21 RMK AO1 SLP149 T02860209
58003=
METAR CXSR 081400Z AUTO 17/09 RMK AO1 SLP183 T01660090 51006=
METAR CXSW 081400Z AUTO 21009KT 12/09 RMK AO1 T01210093=
CXTN RMK NIL=
CXTP RMK NIL=
CXTV RMK NIL=
CXWN RMK NIL=
METAR CXZU 081400Z AUTO 20002KT 13/10 RMK AO1 SLP182 T01320103
58005=
METAR CXBK 081400Z AUTO 33003KT 16/09 RMK AO1 SLP200 T01570090
51011=
CXKT RMK NIL=
METAR CXNM 081300Z AUTO 26009KT 21/15 RMK AO1 PK WND 25017/1213
T02110153=
CXKT RMK NIL=
CXKT RMK NIL=
####018000291####
SANZ31 NZKL 081400

METAR NZAA 081400Z 22011KT 9999 FEW025 10/07 Q1012 NOSIG=
METAR NZWN 081400Z 19029KT 9999 -SHRA FEW015 SCT030 BKN037 09/06
         Q1014 WS R16 TEMPO 6000 SHRA =
METAR NZCH 081400Z 23018KT 9999 RA FEW014 BKN025 BKN035 06/05 Q1017
         TEMPO 6000 SHRA =
####018000799####
SPUS70 KWBC 081408
SPECI
KALI 081405Z AUTO 04011G16KT 10SM BKN007 BKN015 26/26 A2986 RMK
     AO2 CIG 005V010=
KTXK 081405Z VRB04KT 10SM BKN010 OVC080 26/23 A3008 RMK AO2 CIG
     007V013=
KAZO 081405Z 21004KT 1 3/4SM RA SCT030 BKN060 BKN100 25/22 A3005
     RMK AO2 RAB1359 P0001=
KCEC 081405Z AUTO 34003KT 1 3/4SM BR OVC001 10/09 A2998 RMK
     AO2=
KDXR 081405Z 16003KT 3SM -RA BR FEW007 SCT016 OVC034 24/24 A3008
     RMK AO2 P0001=
KMFI 081405Z AUTO 34006KT 10SM FEW013 22/18 A3006 RMK AO2=
KODO 081406Z AUTO 03010G18KT 9SM FEW005 BKN013 OVC019 22/19 A3015
     RMK AO2=
KMCI 081406Z 05007KT 3SM BR BKN006 OVC015 24/23 A3011 RMK AO2 SFC
     VIS 6=
KRKP 081406Z AUTO 08009KT 2SM VCTS +RA SCT009 BKN014 OVC027 A2988
     RMK AO2 LTG DSNT SW P0006 FZRANO $=
####018000067####
SAAG SAME 081400
METAR SAME 081400Z 36003KT CAVOK 09/M05 Q1015=
####018000369####
SAIE31 EIDB 081400
METAR EIDW 081400Z 22011KT 9999 FEW022 SCT040 BKN050 16/10 Q1015
     NOSIG=
METAR EINN 081400Z 21006KT 9000 -RADZ FEW014 SCT018 BKN032 15/13
     Q1015 NOSIG=
METAR EICK 081400Z 20010KT 9999 -RA BKN006 BKN012 BKN038 13/13 Q1016
     TEMPO 2000=
METAR EIKN 081400Z 21007KT 170V250 9999 FEW015 FEW018CB BKN030 BKN060
     14/11 Q1014 NOSIG=
####018001505####
SACN85 KWBC 081408
CWHO RMK NIL=
METAR CWPK 081400Z AUTO 18003KT 27/ RMK AO1 SLP157 T0272 58011=
METAR CWWE 081400Z AUTO 19009KT 16/ RMK AO1 SLP220 T0164 50003=
CYGS RMK NIL=
METAR CWWE 081400Z AUTO 19009KT 16/ RMK AO1 SLP220 T0164 50003=
CYGS RMK NIL=
CYGS RMK NIL=
METAR CWDM 081400Z AUTO 05005KT 12/09 RMK AO1 SLP176 T01210094
56013=
CWRA RMK NIL=
METAR CWSF 081400Z AUTO 35003KT 13/13 RMK AO1 SLP165 T01340134
58006=
METAR CWSF 081400Z AUTO 35003KT 13/13 RMK AO1 SLP165 T01340134
58006=
METAR CWNH 081400Z AUTO 35003KT 16/14 RMK AO1 SLP162 T01560137
50000=
CWBY RMK NIL=
METAR CWBV 081400Z AUTO 23010KT 16/16 RMK AO1 SLP221 T01580156
50002=
CWDO RMK NIL=
METAR CWHO 081400Z AUTO 23008KT 16/12 RMK AO1 SLP099 T01590122
58018=
METAR CWRN 081400Z AUTO 21021G28KT 19/16 RMK AO1 PK WND 20027/1354
SLP201 T01920164 58006=
CWSS RMK NIL=
METAR CWBV 081400Z AUTO 23010KT 16/16 RMK AO1 SLP221 T01580156
50002=
CWDO RMK NIL=
METAR CWHO 081400Z AUTO 23008KT 16/12 RMK AO1 SLP099 T01590122
58018=
METAR CWRN 081400Z AUTO 21021G28KT 19/16 RMK AO1 PK WND 20027/1354
SLP201 T01920164 58006=
CWSS RMK NIL=
CWEF RMK NIL=
METAR CWEP 081400Z AUTO 21015G20KT 21/19 RMK AO1 PK WND 21021/1345
SLP180 T02140192 57003=
CWER RMK NIL=
CWDO RMK NIL=
METAR CWHO 081400Z AUTO 23008KT 16/12 RMK AO1 SLP099 T01590122
58018=
METAR CWRN 081400Z AUTO 21021G28KT 19/16 RMK AO1 PK WND 20027/1354
SLP201 T01920164 58006=
CWSS RMK NIL=
CWWE RMK NIL=
####018000067####
SAAG SABE 081400
METAR SABE 081400Z  27008KT CAVOK 14/01 Q1019=
####018000471####
SACN78 KWBC 081408
CTNK RMK NIL=
METAR CTRA 081400Z AUTO 27006KT 19/15 RMK AO1 SLP152 T01910146
53005=
CWKK RMK NIL=
METAR CXBI 081400Z AUTO 22003KT 29/23 RMK AO1 SLP166 T02860227
53001=
CXZC RMK NIL=
METAR CZEL 081400Z AUTO 27005KT 27/21 RMK AO1 SLP176 T02690209
58001=
CWKK RMK NIL=
METAR CXBI 081400Z AUTO 22003KT 29/23 RMK AO1 SLP166 T02860227
53001=
CXZC RMK NIL=
METAR CZEL 081400Z AUTO 27005KT 27/21 RMK AO1 SLP176 T02690209
58001=
####018000771####
SACN93 KWBC 081408
CWMZ RMK NIL=
CWNE RMK NIL=
CWNK RMK NIL=
METAR CWNM 081400Z AUTO 16/13 RMK AO1 SLP205 T01550131 50006=
METAR CWNP 081400Z AUTO 09001KT 17/12 RMK AO1 SLP200 T01730118
51010=
METAR CWNQ 081400Z AUTO 27003KT 27/22 RMK AO1 SLP149 T02740215
58002=
CWNX RMK NIL=
METAR CWOC 081400Z AUTO 29002KT 23/21 RMK AO1 SLP156 T02260206
50002=
CWOD RMK NIL=
CWOE RMK NIL=
CWOQ RMK NIL=
CWPB RMK NIL=
CWPD RMK NIL=
METAR CWPE 081400Z AUTO 20006KT 15/14 RMK AO1 SLP207 T01450141
51002=
METAR CWPF 081400Z AUTO 05003KT 16/12 RMK AO1 SLP144 T01590122
50004=
METAR CWPR 081400Z AUTO 00000KT 13/ RMK AO1 SLP202 T0134 50008=
METAR CWPZ 081400Z AUTO 00000KT 09/06 RMK AO1 SLP198 T00860060
50001=
CWQA RMK NIL=
CWQA RMK NIL=
####018000090####
SPXX60 KWBC 081408
SPECI
KNLC 081405Z 31006KT 10SM CLR 18/11 A2985 RMK AO2 RH/60 $=
####018000075####
SAAF32 KWBC 081400 RRA
METAR
FMNM 081400Z 16006KT CAVOK 30/13 Q1016=
####018000270####
SPUS80 KWBC 081408
SPECI
KDAL 081405Z 13007KT 9SM BKN015 BKN026 OVC047 26/24 A3004 RMK AO2
     BKN015 V SCT=
KLWD 081405Z AUTO 01007KT 10SM FEW007 22/20 A3012 RMK AO2=
KVCT 081405Z 05007KT 4SM +RA BR FEW008 BKN017 OVC065 25/24 A2992
     RMK AO2 P0011 $=
####018000330####
SAUS70 KWBC 081400 RRI
METAR
KNSE 081356Z 33003KT 9SM FEW020 SCT250 29/24 A3004 RMK AO2 SLP157
     T02940239 $=
KBXK 081355Z AUTO 35003KT 10SM CLR 27/00 A2982 RMK AO1=
KCWA 081350Z 35004KT 10SM OVC005 21/20 A3007=
KHOB 081350Z 01007KT 10SM SCT006 BKN100 20/19 A3018=
KBOW 081355Z 05004KT 15SM SCT016 27/21 A3003=
####018000081####
SAAF35 KWBC 081400 RRA
METAR
HECA 081400Z 30010KT CAVOK 33/18 Q1010 NOSIG=
####018000121####
SAXX60 KWBC 081408
METAR
KAPY 081403Z AUTO 36007KT 10SM SCT008 BKN036 OVC045 26/24 A2987
     RMK AO2 T02580240=
####018000177####
SAUS80 KWBC 081408
METAR
KCUL 081405Z AUTO 18005KT 10SM CLR 29/22 A3006 RMK AO2 LTG DSNT NW
     T02900223=
KSFY 081405Z AUTO 33003KT 10SM SCT007 24/21 A3004 RMK AO2=
####018000201####
SAAO33 KWBC 081400 RRA
METAR
GBYD 081400Z 24006KT 9999 TS BKN012 FEW019CB 32/26 Q1012=
GOSS 081400Z 26006KT 170V040 9999 SCT016 33/25 Q1012=
GOTT 081400Z 22006KT 9999 BKN013 TCU 33/26 Q1013=
####018000081####
SAAO32 KWBC 081400 RRA
METAR
GQPP 081400Z 15009KT CAVOK 27/19 Q1012 NOSIG=
####018000965####
SAAU31 KWBC 081400 RRA
METAR
YBAS 081400Z AUTO 09005KT 9999NDV // NCD 07/06 Q1021=
YBBN 081400Z 21008KT 9999 SCT040 13/10 Q1020 NOSIG=
YBCS 081400Z 15007KT 9999 FEW025 SCT050 22/19 Q1016 NOSIG=
YBTL 081400Z AUTO 13008KT 9999NDV // SCT010 OVC018 21/19 Q1017=
YMML 081400Z 36008KT CAVOK 04/03 Q1028 FM1400 VRB03KT 4000 BR
     SKC=
YPAD 081400Z 03005KT 9999 FEW047 05/03 Q1025 NOSIG=
YPCC 081400Z AUTO 14010KT 9999NDV // SCT023 OVC041 26/22 Q1014=
YPDN 081400Z 18007KT CAVOK 24/21 Q1014=
YPLM 081400Z AUTO 23003KT 9999NDV // SCT021 SCT039 OVC046 19/17
     Q1010=
YPPH 081400Z 01011KT 9999 -SHRA FEW022 SCT042 13/13 Q0996 INTER
     1400/1700 29030G50KT 2000 TSGS BKN010 FEW030CB=
YPTN 081400Z AUTO 09005KT 9999NDV // NCD 22/15 Q1015=
YPXM 081400Z AUTO 21005KT //// // NCD 22/19 Q1015=
YSSY 081400Z 26010KT 9999 VCSH FEW010 SCT019 11/10 Q1027 FM1400
     22008KT 9999 -SHRA SCT020 BKN045 INTER 1400/1700 5000 SHRA
     BKN010=
####018000777####
SAAW34 KWBC 081345 RRF
METAR
UAAA 081400Z 16002MPS 140V200 9999 SCT050CB BKN100 25/13 Q1013
     88CLRD65 TEMPO TS=
UACC 081400Z 33007MPS CAVOK 22/03 Q1009 220/0070 NOSIG RMK
     QFE725/0967=
UAKK 081400Z 14003MPS 110V170 9999 SCT050CB BKN/// 20/08 Q1007
     230///70 TEMPO TSRA RMK QFE709/0946=
UAOO 081400Z NIL=
UARR 081400Z NIL=
UATE 081400Z 01008MPS CAVOK 38/07 Q1009 300///70 NOSIG RMK
     QFE755/1007=
UATG 081400Z 33006G09MPS CAVOK 39/08 Q1008 32CLRD70 NOSIG RMK
     QFE758/1011=
UATT 081400Z 04006MPS 010V070 9999 NSC 32/01 Q1010 13CLRD70 NOSIG
     RMK QFE738/0985=
UAUU 081400Z 35008MPS CAVOK 25/M03 Q1012 33CLRD70 NOSIG RMK
     QFE743/0991=
UTDD 081400Z 00000MPS 9999 SKC 35/06 Q1008 09CLRD70 NOSIG RMK
     QFE689/0918=
####018000181####
SABO41 KWBC 081400 RRA
METAR
SLCO 081400Z 34005KT 9999 FEW080 SCT200 29/24 Q1014=
SLPS 081400Z 35008KT 9999 SKC 30/15 Q1013=
SLSU 081400Z 01007KT 9999 SCT015 13/08 Q1029=
####018000088####
SABZ41 KWBC 081400 RRA
METAR
SBFL 081400Z 15011KT 9999 FEW025 SCT100 21/16 Q1019=
####018000088####
SACA31 KWBC 081400 RRA
METAR
MKJS 081400Z 11004KT 9999 FEW024 BKN220 30/22 Q1013=
####018000184####
SACA33 KWBC 081400 RRA
METAR
TDPD 081400Z 11003KT 9999 SCT018 31/24 Q1015=
TNCM 081400Z 07013KT 9999 SCT021 30/23 Q1016=
TVSV 081400Z 11014KT 9999 SCT023 SCT280 31/26 Q1014=
####018000307####
SACA35 KWBC 081400 RRA
METAR
MGPB 081400Z 00000KT 9000 --DZ BKN018 BKN090 25/24 Q1012
     A29/88=
MGPB 081400Z 00000KT 9000 --DZ BKN018 BKN090 25/24 Q1012
     A29.88=
MGSJ 081400Z 00000KT CAVOK 25/23 Q1013 A29/91 BKN080 BKN200=
MGSJ 081400Z 00000KT CAVOK 25/23 Q1013 A29.91 BKN080 BKN200=
####018000084####
SACA41 KWBC 081400 RRA
METAR
TDCF 081400Z 30003KT 9999 SCT020TCU 30/22 Q1014=
####018000165####
SACA45 KWBC 081400 RRA
METAR
MGHT 081400Z 00000KT 9999 FEW006 SCT020 BKN090 17/15 QFE 817/0=
MGHT 081400Z 00000KT 9999 FEW006 SCT020 BKN090 17/15 QFE 817.0=
####018001162####
SACI32 KWBC 081400 RRA
METAR
ZBAA 081400Z 14003MPS CAVOK 29/18 Q1006 NOSIG=
ZBTJ 081400Z 14003MPS CAVOK 26/18 Q1006 NOSIG=
ZBYN 081400Z 08007MPS CAVOK 26/14 Q1009 NOSIG=
ZGGG 081400Z 16003MPS 9999 SCT030 32/26 Q1007 NOSIG=
ZGNN 081400Z 10002MPS CAVOK 29/25 Q1005 NOSIG=
ZGSZ 081400Z 17006MPS 140V200 9999 FEW020 30/25 Q1008 NOSIG=
ZHHH 081400Z 07004MPS 9999 -RA SCT010 BKN030 25/25 Q1004 NOSIG=
ZLLL 081400Z 02004MPS 9999 OVC046 19/07 Q1019 NOSIG=
ZPPP 081400Z 19004MPS 9999 FEW026 BKN050 22/17 Q1016 NOSIG=
ZSAM 081400Z 19004MPS 9999 FEW023 29/25 Q1008 NOSIG=
ZSHC 081400Z VRB01MPS 5000 -RA BR FEW007 SCT026 26/23 Q1005
     NOSIG=
ZSNJ 081400Z 13001MPS 2000 BR BKN020 27/23 Q1004 NOSIG=
ZSOF 081400Z 09001MPS 8000 SCT040 27/26 Q1004 NOSIG=
ZSPD 081400Z 11007MPS 9999 SCT009 26/24 Q1005 NOSIG=
ZSSS 081400Z 12004MPS 9999 SCT016 27/23 Q1005 NOSIG=
ZUCK 081400Z VRB01MPS 3000 BR NSC 28/25 Q1003 NOSIG=
ZUUU 081400Z 24001MPS CAVOK 28/25 Q1004 NOSIG=
ZWWW 081400Z 20006MPS 9999 FEW033CB 29/08 Q1011 NOSIG=
ZYHB 081400Z 36003MPS 4000 -RA BR SCT033 19/17 Q1008 NOSIG=
ZYTL 081400Z 30003MPS 4000 BR NSC 23/20 Q1007 NOSIG=
####018003611####
SACN31 KWBC 081400 RRA
METAR
CYAW 081400Z 23010KT 12SM BKN004 OVC013 22/19 A3017 RMK SF6SC2
     DA+950FT VIS LWR SEAWD 6 SM SLP219=
CYBG 081400Z 06012KT 20SM FEW019 BKN090 24/19 A2997 RMK CU1AC7
     SLP149=
CYDQ 081400Z AUTO 00000KT 9SM CLR 14/09 A3010 RMK SLP203 DENSITY
     ALT 2300FT=
CYEG 081400Z 22002KT 15SM FEW120 FEW270 16/13 A3009 RMK AC1CI0
     CONTRAILS ACC ASOCTD SLP195=
CYFB 081400Z 10006KT 30SM FEW120 FEW250 12/04 A2977 RMK AC1CI1
     SLP084=
CYFC 081400Z AUTO 21014KT 9SM FEW019 25/20 A3007 RMK SLP184
     DENSITY ALT 1000FT MAX WND 23019KT AT 1358Z RVR MISG=
CYFT 081400Z 24003KT 15SM BKN075 19/14 A2984 RMK AC7 SLP106=
CYGL 081400Z 18008KT 15SM -RA FEW050 OVC100 19/16 A2989 RMK SC2AS6
     SLP126=
CYHZ 081400Z 22014KT 12SM BKN012 23/20 A3017 RMK SC6 SLP215=
CYJT 081400Z 00000KT 12SM -SHRA FEW015 BKN030 OVC080 19/17 A3008
     RMK SC1SC6AC2 SLP188=
CYKL 081400Z AUTO 28013G18KT 9SM FEW033 FEW039 21/14 A2991 RMK
     SLP137=
CYMH 081400Z 16010KT 15SM FEW030 FEW090 BKN250 18/12 A2998 RMK
     SC1AC1CI2 SLP153=
CYMX 081400Z 18003KT 15SM FEW035 30/21 A3001 RMK CF1 HAZY
     SLP160=
CYOW 081400Z 22002KT 15SM SKC 30/21 A3001 RMK SLP160=
CYPL 081400Z 25002KT 15SM SCT040 BKN100 BKN270 17/14 A2988 RETS
     RMK CU4AC2CI0 CB NE SLP121=
CYQB 081400Z 10005KT 7SM FEW012 SCT060 24/19 A3000 RMK SC2SC2
     SLP160=
CYQG 081400Z 28007KT 15SM FEW300 31/20 A3003 RMK CI1 SLP163=
CYQM 081400Z 24017KT 15SM FEW025 FEW160 26/20 A3006 RMK CU1AC1
     SLP181=
CYQQ 081400Z 00000KT 20SM SKC 18/12 A3002 RMK SLP165=
CYQX 081400Z 22008KT 20SM FEW053 BKN071 BKN100 21/16 A3012 RMK
     SC1AC5AC2 SLP201=
CYQY 081400Z 22006G16KT 15SM FEW180 FEW210 27/19 A3010 RMK AC2CC1
     SLP192=
CYSJ 081400Z 20011KT 1SM R23/P6000FT/N BR OVC002 18/15 A3015 RMK
     SF8 SLP210=
CYTE 081400Z 08009KT 15SM SCT070 08/04 A2973 RMK AC4 SLP072=
CYTL 081400Z AUTO 26005KT 9SM BKN015 BKN084 18/15 A2977 RMK
     SLP088=
CYTR 081400Z 17003KT 7SM FEW100 29/21 A3001 RMK AC1 SLP162=
CYUL 081400Z 21005KT 15SM FEW080 FEW210 28/22 A3000 RMK AC1CI0
     SLP158=
CYUY 081400Z 19009KT 15SM FEW020 SCT050 BKN090 BKN250 25/19 A2991
     RMK CU1SC3AC3CI0 SLP126=
CYVP 081400Z 24010G15KT 15SM BKN026 BKN060 17/13 A2977 RMK SC6SC1
     SLP082=
CYVR 081400Z 10005KT 30SM SKC 20/14 A2999 RMK SLP156=
CYWG 081400Z 31011KT 15SM FEW020 FEW250 18/13 A3004 RMK CF1CI0
     SLP175=
CYWK 081400Z 25007KT 15SM FEW036 BKN300 25/16 A2994 RMK CU1CI2
     SLP138=
CYXU 081400Z 18009KT 12SM FEW030TCU 29/22 A3005 RMK TCU1 TCU TOPS
     DSTNT N AND S HAZE SLP171=
CYXX 081400Z 02005KT 30SM SKC 21/12 A2999 RMK SLP157=
CYXY 081400Z 00000KT 40SM FEW170 SCT260 13/05 A3014 RMK AC1CI2
     SLP221=
CYYC 081400Z 00000KT 40SM FEW240 15/09 A3017 RMK CI0 CONTRAILS /
     HZ SLP219=
CYYJ 081400Z 30005KT 30SM SKC 19/12 A2999 RMK SLP156=
CYYQ 081400Z 26008KT 15SM FEW025 SCT080 15/11 A2964 RMK SC1AC2
     SLP036=
CYYR 081400Z 26007KT 15SM FEW023 BKN270 22/16 A2989 RMK CF2CI0
     SLP124=
CYYT 081400Z 17010KT 15SM BKN014 BKN100 14/11 A3022 RMK SC6AC2
     SLP238=
CYYZ 081400Z 23006KT 15SM FEW120 30/23 A3002 RMK AC1 SLP164=
CYZF 081400Z 00000KT 15SM FEW110 FEW270 19/10 A2993 RMK AC1CI1
     SLP140=
CYZV 081400Z 17003KT 6SM BR SCT003 OVC006 15/14 A3005 RMK SF3ST5
     SLP177=
CYZX 081400Z 22011G17KT 15SM SCT022 25/19 A3014 RMK SC3 WNDY HILL
     23007KT SLP207=
CYZY 081400Z AUTO 13002KT 9SM CLR 14/10 A3011 RMK SLP195=
CZBF 081400Z 00000KT 9SM SCT006 BKN011 25/23 A3001 RMK SF3SC2
     SLP162=
####018000075####
SAEE31 KWBC 081400 RRA
METAR
EPSC 081400Z 08004KT CAVOK 26/10 Q1021=
####018000200####
SAEE32 KWBC 081400 RRA
METAR
LRAR 081400Z 01008KT 330V070 9999 BKN045 23/13 Q1020=
LRTC 081400Z 35012KT 9999 BKN040 24/17 Q1014=
LRTM 081400Z 23004KT 200V270 9999 FEW033 BKN040 19/15 Q1020=
####018000418####
SAEM31 KWBC 081400 RRA
METAR
LJLJ 081400Z 11004KT 060V170 9999 FEW043 25/10 Q1022 NOSIG=
LJMB 081400Z VRB05KT 9999 FEW040 26/09 Q1021=
LJPZ 081400Z 31008KT 280V340 CAVOK 26/12 Q1021=
LKMT 081400Z 03005KT 330V100 CAVOK 22/10 Q1022 NOSIG RMK REG QNH
     1020=
LKPR 081400Z 31003KT 260V360 CAVOK 26/10 Q1022 NOSIG RMK REG QNH
     1020=
LKTB 081400Z VRB03KT CAVOK 25/08 Q1021 NOSIG RMK REG QNH 1020=
####018000151####
SAEW31 KWBC 081400 RRA
METAR
LPAZ 081400Z 24006KT 9999 BKN016 BKN030 21/19 Q1025=
LPPD 081400Z 19005KT 130V230 9999 FEW016 BKN030 21/16 Q1024=
####018000112####
SAFR32 KWBC 081400 RRA
METAR
LFVP 081405Z 12004KT 0600 R26/1000V1600D FG OVC001 13/12 Q1022
     NOSIG=
####018000075####
SAFR32 KWBC 071700 RRB
METAR
LFVP 071700Z 22007KT CAVOK 17/13 Q1018=
####018000075####
SAFR41 KWBC 081400 RRA
METAR
LFRM 081400Z VRB04KT CAVOK 33/08 Q1017=
####018000457####
SAIO31 KWBC 081400 RRA
METAR
FMCH 081400Z 22009KT 200V260 9999 FEW025 28/19 Q1018 NOSIG=
FMCZ 081400Z 15009KT 9999 SCT023 26/19 Q1017=
FMEE 081400Z 12017KT 9999 FEW023 SCT060 21/15 Q1021 NOSIG=
FMMI 081400Z 15007KT 110V180 9999 SCT020 BKN023 16/14 Q1026
     NOSIG=
FMMT 081400Z 22010KT 9999 VCSH SCT017 SCT033 22/20 Q1021=
VYMD 081400Z NIL=
VYYY 081400Z NIL=
WBSB 081400Z 16004KT 9999 FEW005 FEW016CB BKN300 25/24 Q1010
     NOSIG=
####018000305####
SAIY32 KWBC 081250 RRD
METAR
LIPH 081345Z 14005KT 9999 FEW025 28/21 Q1021 RMK FEW VIS MIN 9999
     WIND THR07 /////KT BLU=
LIPR 081345Z 07012KT CAVOK 28/19 Q1021 RMK SKC VIS MIN 9999 WIND
     THR31 09011KT BLU=
LIPX 081345Z 23003KT 9999 FEW040 30/14 Q1020 RMK FEW VIS MIN 9999
     BLU=
####018000237####
SAIY31 KWBC 081350 RRB
METAR
LIEA 081350Z 28004KT 210V320 9999 FEW025 33/22 Q1019 RMK VIS MIN
     9999=
LIEO 081350Z 05010KT CAVOK 31/21 Q1019 RMK VIS MIN 9999=
LIMG 081350Z 08008KT 9999 SCT040 30/25 Q1020 RMK VIS MIN 9999=
####018000113####
SAIY41 KWBC 081350 RRB
METAR
LIED 081355Z 15020KT 9999 SCT018 32/16 Q1017 RMK SCT VIS MIN 9999
     BLU=
####018000320####
SAIY32 KWBC 081350 RRB
METAR
LIPB 081350Z 18015KT CAVOK 31/12 Q1018 RMK MON LIB VIS MIN
     9999=
LIPO 081350Z 14004KT 100V200 CAVOK 29/13 Q1020 RMK VIS MIN
     9999=
LIPY 081350Z 05010KT CAVOK 26/14 Q1021 RMK VIS MIN 9999=
LIRZ 081350Z 01009KT 330V050 9999 FEW045 31/11 Q1020 RMK VIS MIN
     9999=
####018001091####
SAIY42 KWBC 081350 RRA
METAR
LIMH 081355Z 10001KT 9999 FEW000TCU 08/00 Q1040 RMK SCT MON CLD
     SCT VAL S CLD SCT VIS MIN 9999=
LIMK 081355Z 18002KT CAVOK 23/12 Q1023 RMK SKC VAL NIL VIS MIN
     9999=
LIMN 081355Z /////KT CAVOK 28/16 Q1020 RMK FEW FEW200 VIS MIN 9999
     BLU=
LIMS 081355Z 07006KT 020V130 CAVOK 30/15 Q1020 RMK SKC VIS MIN
     9999 WIND THR30 07005KT BLU=
LIMT 081400Z NIL=
LIMU 081355Z 13003KT 9999 FEW030 29/25 Q1020 RMK SCT QUK 2 QUL 1 E
     VIS MAR 20 KM VIS MIN 9999=
LIMV 081355Z 34008KT 7000 SCT012 25/18 Q1022 RMK SCT MON LIB NC
     VAL FOSCHIA VIS MIN 7000=
LIMY 081355Z /////KT 9000 SCT026 SCT046 24/16 Q1023 RMK BKN VAL
     FOSCHIA VIS MIN 9000=
LIPA 081400Z NIL=
LIPC 081400Z NIL=
LIPF 081355Z 11003KT 9999 FEW050 29/19 Q1020 RMK FEW VIS MIN
     9999=
LIPI 081355Z 19009KT 9999 FEW040 27/20 Q1021 RMK FEW VIS MIN 9999
     WIND THR06 25005KT BLU=
LIPL 081355Z 16004KT 9999 FEW036 30/17 Q1021 RMK FEW VIS MIN 9999
     BLU=
LIPS 081355Z 12004KT 9999 SCT030 28/18 Q1021 RMK SCT VIS MIN 9999
     BLU=
####018000113####
SAIY43 KWBC 081250 RRF
METAR
LIPX 081345Z 23003KT 9999 FEW040 30/14 Q1020 RMK FEW VIS MIN 9999
     BLU=
####018001984####
SAIY43 KWBC 081350 RRA
METAR
LIQN 081350Z 32005KT 9999 SCT045 30/17 Q1020 RMK VIS MIN 9999=
LIQO 081355Z 19004KT 9999 SCT003 28/21 Q1022 RMK SCT VAL NIL NC
     VIS MIN 9999=
LIQW 081355Z 20003KT 9999 FEW025 30/21 Q1020 RMK FEW VIS MIN 9999
     BLU=
LIRE 081355Z 24008KT 9999 FEW020 28/20 Q1019 RMK FEW VIS MIN 9999
     WIND THR31 23009KT BLU=
LIRG 081355Z 23010KT 9999 FEW030CB SCT033TCU 32/19 Q1019 RMK SCT
     MON NE LIB NC VIS MIN 9999 BLU=
LIRH 081355Z 35006KT 9999 FEW035CB SCT040 30/20 Q1019 RMK BKN MON
     LIB NC VIS MIN 9999 WIND THR16 30010KT BLU=
LIRK 081355Z 13008KT CAVOK 16/14 Q1027 RMK SCT SCT060 MON NE LIB
     NC VAL NIL NC VIS MIN 9999=
LIRL 081355Z 24009KT 9999 FEW020 30/17 Q1019 RMK FEW MON LIB NC
     VIS MIN 9999 BLU=
LIRS 081355Z 22012KT 9999 FEW040 30/19 Q1019 RMK FEW VIS MIN 9999
     WIND THR21 /////KT BLU=
LIRT 081355Z 35010KT CAVOK 18/05 Q1023 RMK SKC MON LIB VAL NIL VIS
     MIN 9999=
LIRU 081350Z 26010KT 9999 FEW040 30/17 Q1020 RMK VIS MIN 9999=
LIRV 081355Z 26011KT 9999 SCT032 28/22 Q1020 RMK SCT MON E SE LIB
     NC VIS MIN 9999 BLU=
LIRX 081400Z NIL=
LIRZ 081350Z 01009KT 330V050 9999 FEW045 31/11 Q1020 RMK VIS MIN
     9999=
LIVC 081355Z 00000KT 9999 SCT001 16/11 Q1031 RMK SCT MON LIB VAL
     NIL VIS MIN 9999=
LIVD 081355Z 00000KT CAVOK 25/07 Q1023 RMK SKC VIS MIN 9999=
LIVE 081355Z 19006KT CAVOK 22/11 Q1024 RMK SKC VIS MIN 9999=
LIVF 081355Z 05004KT CAVOK 27/07 Q1022 RMK SKC MON LIB VAL NIL VIS
     MIN 9999=
LIVM 081355Z 13010KT CAVOK 28/22 Q1021 RMK SKC QUK 2 QUL 1 SE VIS
     MAR 30 KM VIS MIN 9999=
LIVO 081355Z 15003KT 9999 FEW040 26/12 Q1021 RMK FEW VIS MIN
     9999=
LIVP 081355Z VRB03KT 9999 FEW003 15/11 Q1029 RMK FEW MON LIB VAL
     NIL VIS MIN 9999=
LIVR 081355Z /////KT 9999 FEW030 18/15 Q1028 RMK FEW MON CLD CIME
     VIS MIN 9999=
LIVT 081355Z 25001KT CAVOK 26/16 Q1021 RMK SKC QUK 1 QUL 0 VIS MAR
     20 KM VIS MIN 9999=
####018000280####
SACS31 MROC 081400
METAR
MRPV 081400Z 00000KT 9999 4000W BR BKN120 22/18 A3001
     RMK DUST APCH RNY 09 TNG FG SW W NW TEMPO 24004KT=
MRLB 081400Z 15005KT 9999 DZ FEW005 SCT012 BKN080 24/23 A2989=
MRLM 081400Z 20003KT 9999 FEWEW010 BKN110 25/23 A2988
     RMK RN DST NW=
####018000169####
SAUK51 EGGY 081350 RRA
METAR EGDY 081350Z 21011KT 9999 FEW033 SCT100 BKN220 23/15 Q1018
    NOSIG=
METAR EGUB 081350Z 22008KT 9999 FEW040 BKN200 23/12 Q1018 NOSIG=
####018000163####
SAMM31 KWBC 081400 RRA
METAR
LCLK 081400Z 21017KT 9999 FEW030 29/23 Q1007 NOSIG=
LCNC 081400Z NIL=
LCPH 081400Z 24008KT 210V280 9999 FEW020 29/23 Q1008=
####018000265####
SAPO31 KWBC 081400 RRA
METAR
LPAZ 081400Z 24006KT 9999 BKN016 BKN030 21/19 Q1025=
LPFL 081400Z 20007KT 170V280 9999 FEW021TCU SCT040 24/17 Q1021=
LPHR 081400Z 22006KT 9999 FEW015 23/19 Q1023=
LPPD 081400Z 19005KT 130V230 9999 FEW016 BKN030 21/16 Q1024=
####018000870####
SARA31 KWBC 081400 RRA
METAR
UAAA 081400Z 16002MPS 140V200 9999 SCT050CB BKN100 25/13 Q1013
     88CLRD65 TEMPO TS=
UACC 081400Z 33007MPS CAVOK 22/03 Q1009 220/0070 NOSIG RMK
     QFE725/0967=
UAOO 081400Z NIL=
UARR 081400Z NIL=
UATE 081400Z 01008MPS CAVOK 38/07 Q1009 300///70 NOSIG RMK
     QFE755/1007=
UATG 081400Z 33006G09MPS CAVOK 39/08 Q1008 32CLRD70 NOSIG RMK
     QFE758/1011=
UATT 081400Z 04006MPS 010V070 9999 NSC 32/01 Q1010 13CLRD70 NOSIG
     RMK QFE738/0985=
UTAA 081400Z 11002MPS 9999 SKC 43/03 Q1007 NOSIG=
UTAK 081400Z 30004MPS CAVOK 35/13 Q1008 NOSIG=
UTAT 081400Z 12005MPS CAVOK 42/19 Q1006 NOSIG=
UTAV 081400Z 03003MPS CAVOK 37/10 Q1005=
UTDD 081400Z 00000MPS 9999 SKC 35/06 Q1008 09CLRD70 NOSIG RMK
     QFE689/0918=
UTDL 081400Z 24004MPS 9999 FEW053CB FEW100 35/13 Q1008 NOSIG RMK
     QFE719 8809//70=
####018000090####
SPUS42 KWBC 081408
SPECI
KDAL 081405Z 13007KT 9SM BKN015 BKN026 OVC047 26/24 A3004=
####018000082####
SARS31 KWBC 081400 RRA
METAR
UTAM 081400Z 01004MPS CAVOK 40/07 Q1004 NOSIG=
####018000157####
SASA32 KWBC 081400 RRA
METAR
SLTR 081400Z 15010KT 6000 -RA FEW008 SCT017 FEW020CB OVC070 22/21
     Q1015=
SUCA 081400Z 32005KT CAVOK 12/04 Q1018=
####018000294####
SASA31 KWBC 081400 RRA
METAR
SEGU 081400Z 19005KT 6000S 8000N -DZ FEW010 BKN020 OVC080 22/20
     Q1013 TEMPO 8000N NOSIG=
SEQU 081400Z 33001KT 9999 FEW040 SCT300 16/08 Q1028 RMK A3036
     GUSTY 25004G16KT RWY17 NOSIG=
SKRG 081400Z VRB02KT 4000 -DZ BR BKN004 SCT080 15/14 A3033=
####018000088####
SASA41 KWBC 081400 RRA
METAR
SEMT 081400Z 21004KT 9999 BKN020 BKN100 24/19 Q1013=
####018000088####
SASA42 KWBC 081400 RRA
METAR
SELT 081400Z VRB01KT 9999 FEW030 SCT300 12/07 Q1032=
####018000097####
SPUS43 KWBC 081408
SPECI
KAZO 081405Z 21004KT 1 3/4SM RA SCT030 BKN060 BKN100 25/22 A3005=
####018000183####
SAVN42 KWBC 081400 RRA
METAR
SVPR 081400Z 00000KT 9999 SCT035 XX/XX Q1015=
SVST 081400Z 09008KT 7000 DZ OVC015 XX/XX Q1016=
SVVP 081400Z 10006KT 9000 OVC013 DZ 25/24 Q1007=
####018000089####
SAXX61 KWBC 081400 RRA
METAR
LERT 081400Z 29009KT 240V320 CAVOK 26/20 Q1016 NOSIG=
####018003700####
SAXX99 KWBC 081400 RRF
METAR
CWAE 081400Z 00000KT 15SM SKC 12/09 A3013 RMK SLP192=
CWCA 081400Z 22010G16KT 15SM FEW020 SCT200 17/12 A2992 RMK CU1CI2
     TR CU SLP133=
CWCL 081400Z AUTO 00000KT 9SM CLR 15/08 A3017 RMK SLP199=
CWDL 081400Z 03002KT 15SM SKC 09/04 A3020 RMK 26.0/6.5/0/0/0
     SLP223=
CWFD 081400Z AUTO 01006KT 9SM 10/ RMK ALTM MISG=
CWHN 081400Z AUTO 31007G16KT 280V340 9SM FEW088 FEW098 16/11 A3001
     RMK SLP169=
CWIL 081400Z AUTO 34007KT 08/ A2981 RMK SLP102=
CWKM 081400Z AUTO 11005KT 07/ A3002 RMK SLP172=
CWKW 081400Z AUTO 10004KT 10/ A2971 RMK SLP078=
CWLI 081400Z AUTO ///// 02/ A2999 RMK SLP166=
CWLX 081400Z AUTO 21002KT 16/ A2977 RMK SLP092=
CWLY 081400Z AUTO 17003KT 9SM CLR 14/10 A3010 RMK SLP191=
CWOB 081400Z AUTO ///// 9SM CLR 14/ A2978 RMK SLP112=
CWRH 081400Z AUTO ///// 10/ A2975 RMK SLP096=
CWRX 081400Z AUTO 31005KT 10/ A2977=
CWSA 081400Z AUTO 22007KT 1 3/4SM OVC001 18/18 A3022 RMK VSBY VRBL
     1.2V3.5 SLP234=
CWSW 081400Z 00000KT 20SM FEW260 09/07 A3027 RMK CI0 SLP247=
CWTU 081400Z AUTO 16010KT 12/ A2990 RMK SLP140=
CWUP 081400Z AUTO 10005KT 12/ A2981 RMK SLP109=
CWUW 081400Z AUTO ///// 9SM CLR 15/ A2980 RMK SLP112=
CWVD 081400Z AUTO ///// 13/ A2981 RMK SLP121=
CWVH 081400Z AUTO 28014KT 04/ A3003 RMK SLP185=
CWWU 081400Z 19004KT 15SM SCT018 BKN100 BKN200 18/14 A3020 RMK
     SC3AC2CI1 SLP227=
CWXR 081400Z AUTO 30003KT 05/ A2986 RMK SLP121=
CWYK 081400Z AUTO ///// 13/ A2979 RMK SLP107=
CWYM 081400Z AUTO 14010KT 12/ RMK ALTM MISG SLP121=
CWZZ 081400Z AUTO ///// 9SM SCT048 SCT056 BKN078 14/ A2973 RMK
     SLP081=
CYAH 081400Z 20005KT 15SM SCT093 BKN250 23/14 A2993 RMK AC4CI2
     SLP140=
CYAM 081400Z 28008KT 10SM OVC003 18/18 A2999 RMK SF8 SLP153=
CYAS 081400Z 27007KT 2SM BR OVC003 09/09 A2968 RMK FG2ST6
     SLP058=
CYAY 081400Z AUTO 20004KT 160V260 9SM FEW015 15/11 A3004 RMK
     SLP176=
CYAZ 081400Z 00000KT 15SM SKC 15/13 A2997 RMK SLP147=
CYBB 081400Z 00000KT 15SM BKN100 13/07 A2981 RMK AC6 SLP095=
CYBC 081400Z AUTO 27004KT 190V320 8SM OVC003 OVC081 16/15 A3002
     RMK SLP168=
CYBD 081400Z 00000KT 15SM SKC 13/13 A3006 RMK SLP181=
CYBK 081400Z 02009KT 20SM BKN080 BKN210 12/10 A2971 RMK AC5CC2
     SLP063=
CYBL 081400Z 30003KT 30SM SKC 19/11 A3002 RMK SLP163=
CYBN 081400Z AUTO 25006KT 9SM CLR 31/21 A3001 RMK SLP157=
CYBR 081400Z 28006KT 15SM SCT050 BKN280 15/12 A3011 RMK CU3CI1
     SLP202=
CYBV 081400Z 29010G17KT 15SM FEW015 SCT220 17/13 A2995 RMK SC2CS1
     SLP145=
CYBW 081400Z 34004KT 30SM BKN280 11/09 A3019 RMK CI0 SLP231=
CYBX 081400Z 24004KT 15SM OVC025 13/11 A3006 RMK SC8 SLP180=
CYCB 081400Z 34009KT 15SM FEW060 BKN140 12/08 A2983 RMK SC1AC1
     SLP104=
CYCD 081400Z 31005KT 30SM SKC 20/11 A3001 RMK SLP161=
CYCG 081400Z 00000KT 15SM SKC 14/09 A3016 RMK SLP205=
CYCO 081400Z 00000KT 13SM VCFG OVC013 07/06 A2988 RMK SC8
     SLP120=
CYCP 081400Z 00000KT 15SM FEW300 12/08 A3019 RMK CI0 SLP226=
CYCQ 081400Z 00000KT 35SM FEW100 FEW220 13/08 A3011 RMK AC1CI1 TR
     AC SLP200=
CYCX 081400Z 21008G16KT 12SM FEW030 BKN066 25/21 A3008 RMK CF1AC5
     DA+1526FT SLP184=
CYCY 081400Z 10006KT 25SM FEW040 SCT210 12/07 A2980 RMK CU1CI0 SN
     COV/NIL SLP092=
CYDA 081400Z 00000KT 20SM FEW240 08/05 A3009 RMK CI0 SLP201=
CYDB 081400Z 35002KT 30SM FEW100 SCT150 BKN240 07/03 A3009 RMK
     AC1AC2CI2 ACSL E SLP212=
CYDC 081400Z 00000KT 15SM SKC 13/07 A3016 RMK SLP202=
CYDF 081400Z 00000KT 15SM OVC055 14/11 A3011 RMK SC8 SLP195=
CYDN 081400Z AUTO 27009KT 9SM FEW075 15/11 A3006 RMK SLP185=
CYDP 081400Z 11002KT 15SM FEW100 SCT210 14/09 A2981 RMK AC1CI3
     SLP094=
####018003714####
SAXX99 KWBC 081400 RRG
METAR
CYED 081400Z AUTO 17002KT 9SM CLR 16/13 A3007 RMK SLP184=
CYEK 081400Z 15002KT 15SM OVC003 08/08 A2960 RMK ST8 SLP023=
CYEL 081400Z 23008KT 4SM BR OVC004 22/20 A2999 RMK SF8 WNDS ESTD
     SLP153=
CYEN 081400Z 30005KT 15SM FEW090 FEW140 BKN250 15/13 A3015 RMK
     AC1AC1CS3 HALO SLP214=
CYET 081400Z AUTO 25004KT 9SM CLR 13/08 A3011 RMK SLP194=
CYEV 081400Z 30008KT 15SM BKN017 BKN060 08/05 A3007 RMK SC6SC1
     SLP187=
CYFO 081400Z 30009G15KT 15SM FEW070 18/10 A2993 RMK AC1 SLP141=
CYFR 081400Z 00000KT 15SM FEW100 FEW140 BKN270 17/13 A2993 RMK
     AC1AC2CI1 20.5/12.2/0/ SLP142=
CYFS 081400Z 00000KT 15SM FEW055 17/13 A2996 RMK SC2 SLP151=
CYGE 081400Z 36002KT 30SM FEW240 12/09 A3022 RMK CI0 SLP229=
CYGH 081400Z 30006KT 15SM FEW015 OVC070 11/09 A3005 RMK CF2CU6
     SLP181=
CYGK 081400Z 16004KT 7SM FEW080 25/22 A3003 RMK AC1 HZ VIS S 5
     SLP169=
CYGP 081400Z 09005KT 15SM FEW040 BKN140 24/20 A2998 RMK CU2AC2 HZ
     SLP154=
CYGQ 081400Z 25006KT 15SM FEW009 FEW025 20/17 A2994 RMK SF2CU1
     SLP139=
CYGR 081400Z 23017G22KT 15SM SCT040 BKN080 BKN100 21/18 A3004 RMK
     SC3AC1AC2 SLP172=
CYGT 081400Z 00000KT 15SM FEW020 FEW040 FEW080 12/06 A2980 RMK
     CU1SC1AC1 SLP096=
CYGV 081400Z AUTO 18007KT 9SM OVC007 OVC066 OVC079 14/12 A3002 RMK
     SLP168=
CYGW 081400Z 32003KT 12SM FEW015 SCT080 OVC220 17/13 A2984 RMK
     SC1AC3CS2 TCU EMBD E-SW SLP106=
CYGX 081400Z 27010KT 15SM FEW025 FEW200 17/10 A2973 RMK SC1CI1 TR
     CU TR CI SLP073=
CYHA 081400Z 12005KT 7SM -RA FEW002 FEW005 OVC025 07/06 A2968 RMK
     SF1ST1SC7 SLP053=
CYHD 081400Z AUTO 28009KT 9SM FEW089 19/14 A2996 RMK SLP150=
CYHE 081400Z AUTO 10011KT 9SM CLR 18/12 A3005 RMK SLP175=
CYHH 081400Z 00000KT 15SM FEW065 BKN100 OVC160 25/15 A2990 RMK
     SC2AC3AC2 SLP127=
CYHM 081400Z 26005KT 15SM SKC 29/22 A3005 RMK SLP172=
CYHU 081400Z AUTO 18004KT 150V230 9SM CLR 29/22 A2999 RMK SLP155
     DENSITY ALT 1600FT RVR MISG=
CYHY 081400Z 00000KT 15SM FEW020 SCT070 BKN210 17/14 A2995 RMK
     SC1AC3CI1 SLP146=
CYIK 081400Z 07005KT 15SM SCT030 BKN070 BKN220 10/05 A2961 RMK
     SC3AC2CS1 SLP031=
CYIO 081400Z AUTO 25005KT 9SM BKN088 07/04 A2978 RMK SLP090=
CYIV 081400Z 30008KT 15SM FEW020 FEW080 SCT100 BKN250 16/13 A2984
     RMK SC2AC0AC0CI0 SLP110=
CYJF 081400Z 22008KT 15SM FEW090 15/12 A2999 RMK AC1
     26.5/11.7/0/0/TR AC SLP158=
CYKA 081400Z 01002KT 40SM SKC 17/08 A3013 RMK SLP200=
CYKF 081400Z AUTO 19003KT 9SM CLR 29/19 A3005 RMK SLP169 DENSITY
     ALT 2700FT=
CYKG 081400Z 00000KT 10SM -DZ OVC020 08/06 A2967 RMK SC7
     SLP056=
CYKJ 081400Z AUTO 28007KT 9SM CLR 17/09 A2989 RMK SLP134=
CYKO 081400Z 25012KT 1 1/2SM -DZ BR OVC001 07/07 A2966 RMK FG2ST6
     SLP046=
CYKY 081400Z 00000KT 15SM FEW100 BKN250 15/13 A3014 RMK AC1CI2
     SLP211=
CYKZ 081400Z 19003KT 8SM FEW260 30/23 A3002 RMK CI1 SLP162=
CYLD 081400Z 36005KT 15SM FEW020 BKN035 OVC170 17/15 A2999 RMK
     SC1SC7AS1 LWR SC TR SLP155=
CYLK 081400Z 27004KT 25SM BKN030 BKN200 14/10 A2991 RMK SC5CI1
     16.4/6.4/0.0 SLP138=
CYLL 081400Z 26012KT 15SM SCT085 BKN150 BKN250 17/12 A3007 RMK
     AC4AC1CI1 ACC SLP187=
CYLT 081400Z 17019G26KT 25SM FEW080 SCT240 17/06 A2962 RMK AC1CI0
     SLP033=
CYLU 081400Z 30004KT 2SM -DZ BR BCFG OVC003 14/13 A2974 RMK ST8
     CIG RAG SLP075=
CYLW 081400Z AUTO 04002KT 9SM CLR 16/08 A3012 RMK SLP196 DENSITY
     ALT 1600FT=
CYMA 081400Z 00000KT 20SM FEW050 10/09 A3008 RMK SC1 SLP198=
CYMM 081400Z AUTO 26007KT 9SM CLR 16/11 A2998 RMK SLP159=
CYMO 081400Z AUTO 31004KT 5SM -RA OVC020 19/18 A2989 RMK PCPN
     2.0MM PAST HR SLP124=
####018003736####
SAXX99 KWBC 081400 RRH
METAR
CYMT 081400Z 17009KT 15SM FEW030TCU FEW070 SCT200 27/18 A2996 RMK
     TCU1AC1CI1 SLP143=
CYMU 081400Z 14005KT 15SM FEW004 OVC035 14/12 A2987 RMK SF2SC5
     SLP119=
CYNA 081400Z AUTO 11008KT 9SM OVC006 OVC051 OVC055 OVC061 15/13
     A3002 RMK SLP168=
CYNC 081400Z 00000KT 10SM -DZ SCT015 OVC030 18/17 A2988 RMK ST3SC5
     SLP121=
CYND 081400Z 00000KT 15SM SKC 30/22 A2999 RMK SLP155=
CYNE 081400Z AUTO 31007KT 250V330 9SM CLR 17/11 A2989 RMK
     SLP127=
CYNM 081400Z AUTO 16005KT 9SM FEW083 24/18 A2987 RMK SLP117=
CYOA 081400Z 33008KT 15SM FEW070 11/08 A2989 RMK AC1 SLP140=
CYOC 081400Z 00000KT 20SM FEW002 SCT013 OVC030 08/07 A3007 RMK
     SF2ST2SC4 SLP195=
CYOD 081400Z 28004KT 15SM SCT070 BKN100 BKN250 18/14 A3003 RMK
     AC3AC2CI0 SH S+SW SLP177=
CYOJ 081400Z 00000KT 15SM FEW120 17/13 A2998 RMK AC1 SLP159=
CYOY 081400Z AUTO 05002KT 8SM FEW071 25/20 A2999 RMK SLP156=
CYPA 081400Z 28004KT 15SM FEW050 SCT100 BKN250 14/11 A3005 RMK
     SC2AC2CI2 SLP183=
CYPC 081400Z 30018KT 15SM BKN012 BKN090 06/03 A2993 RMK SC6AC1
     SLP136=
CYPE 081400Z 23008KT 15SM BKN060 BKN100 18/14 A3005 RMK SC4AC1 TCU
     EMBD SLP177=
CYPG 081400Z 29009KT 15SM FEW050 FEW090 FEW250 17/10 A3008 RMK
     CU1AC1CI1 TR CU AC SLP188=
CYPH 081400Z 24012G17KT 15SM BKN005 BKN070 10/09 A2981 RMK ST3AC2
     SLP097=
CYPQ 081400Z AUTO ///// 9SM CLR 29/24 A3002 RMK SLP163=
CYPR 081400Z AUTO VRB02KT 9SM CLR 14/12 A3006 RMK SLP182=
CYPW 081400Z 00000KT 50SM SKC 18/14 A3003 RMK SLP167=
CYPX 081400Z 24018KT 7SM VCFG OVC005 08/07 A2971 RMK ST8
     SLP062=
CYPY 081400Z AUTO 00000KT 9SM CLR 17/13 A2992 RMK SLP140=
CYQA 081400Z AUTO 20004KT 160V240 9SM CLR 29/22 A3001 RMK SLP160
     DENSITY ALT 2600FT=
CYQD 081400Z 27009KT 15SM FEW030 FEW065 FEW090 FEW250 16/11 A2996
     RMK SC1SC1AC1CC1 TR SC SLP150=
CYQF 081400Z 19005KT 15SM BKN250 14/09 A3013 RMK CI2 SLP209=
CYQH 081400Z 00000KT 40SM SKC 13/09 A3011 RMK SLP206=
CYQI 081400Z 16007KT 8SM SCT002 20/20 A3019 RMK SF4 VIS S 2
     SLP224=
CYQK 081400Z 29006KT 15SM SCT015 BKN080 18/14 A3000 RMK CU4AC2
     SLP161=
CYQL 081400Z 25006KT 40SM FEW100 FEW240 15/11 A3018 RMK AC1CI1
     SLP216=
CYQR 081400Z 32002KT 15SM FEW075 BKN250 16/11 A3015 RMK AC1CI2
     SLP217=
CYQT 081400Z 27004KT 20SM FEW025 23/17 A2998 RMK CF1 SLP153=
CYQU 081400Z 36004KT 25SM FEW100 SCT210 17/12 A3010 RMK AC1CI1
     SLP196=
CYQV 081400Z AUTO 30009KT 9SM CLR 16/11 A3009 RMK SLP199=
CYQW 081400Z AUTO 24004KT 9SM 14/13 A3011 RMK DENSITY ALT 1800FT
     CLD MISG=
CYQZ 081400Z AUTO 00000KT 9SM CLR 12/10 A3012 RMK SLP209=
CYRJ 081400Z 32002KT 12SM FEW025 SCT045 BKN220 27/20 A2996 RMK
     CU1SC3CI0 SLP146=
CYRL 081400Z 27009KT 15SM BKN012 BKN080 16/13 A2995 RMK SC6AC2
     SLP144=
CYRT 081400Z 07010KT 1/2SM -RA FG VV002 07/07 A2962 RMK FG8
     SLP031=
CYRV 081400Z AUTO 00000KT 6SM CLR 11/10 A3017 RMK SLP217=
CYSB 081400Z 21010KT 10SM FEW015 BKN130 BKN220 25/21 A2998 RMK
     SF2AC3CI1 SLP148=
CYSC 081400Z AUTO 24008KT 9SM CLR 29/23 A3002 RMK DENSITY ALT
     2400FT=
CYSD 081400Z 22004KT 25SM BKN270 15/13 A3018 RMK CI2 SLP219=
CYSF 081400Z AUTO 31010G18KT 9SM CLR 15/06 A2984 RMK SLP114
     DENSITY ALT 1000FT MAX WND 32018KT AT 1357Z=
CYSK 081400Z 05007KT 15SM BKN020 BKN040 10/09 A2986 RMK SC6SC2
     SLP113=
CYSL 081400Z 16006KT 5SM HZ SKC 27/22 A3002 RMK SLP163=
CYSM 081400Z 30003KT 15SM FEW080 SCT120 BKN220 17/11 A2992 RMK
     AC2AC1CI1 SLP138=
CYSN 081400Z 24004KT 10SM SKC 30/20 A3002 RMK SLP162=
CYSR 081400Z 27005KT 40SM VCSH FEW010 FEW020 BKN070 BKN210 11/04
     A2979 RMK SF1ST2AC2CI1 SHWRS NE SLP118=
####018003692####
SAXX99 KWBC 081400 RRI
METAR
CYTH 081400Z 26007KT 15SM FEW024 FEW090 FEW230 16/10 A2980 RMK
     CU1AC1CI1 SLP099=
CYTQ 081400Z 25022KT 12SM BKN016 15/12 A2974 RMK SC5 SLP073=
CYTS 081400Z 33010KT 8SM -SHRA FEW003 BKN030 OVC050 17/16 A2990
     RMK SF2SC4SC2 SLP124=
CYTZ 081400Z AUTO 22004KT 8SM CLR 25/21 A3001 RMK SLP162 DENSITY
     ALT 1300FT RVR MISG=
CYUA 081400Z AUTO 22009KT 9SM OVC033 07/ A3006 RMK SLP182=
CYUB 081400Z 30011G16KT 15SM BKN010 05/01 A3003 RMK SC7 CIG ESTD
     SLP170=
CYUS 081400Z AUTO ///// 9SM FEW090 14/ A2978 RMK SLP090=
CYVC 081400Z 30007KT 15SM FEW040 FEW095 SCT250 16/10 A2995 RMK
     SC1AC2CI1 SLP150=
CYVM 081400Z 18008KT 15SM FEW140 13/07 A2982 RMK AC1 SLP098=
CYVO 081400Z 19010G15KT 15SM FEW035 BKN076 BKN160 BKN280 BKN320
     26/22 A2993 RMK CF1AC3AC1CC1CI1 SLP134=
CYVQ 081400Z 31008KT 10SM -SHRA SCT008 BKN040 OVC080 13/12 A3001
     RMK SC3SC4AC1 SLP165=
CYVT 081400Z 31007KT 15SM BKN070 BKN220 17/11 A2996 RMK AC6CI1
     SLP153=
CYVV 081400Z 19005KT 10SM FEW050 SCT080 BKN150 29/22 A3000 RMK
     SC2AC2AC1 TCU ASOCTD SLP156=
CYWA 081400Z AUTO 10004KT 9SM CLR 27/22 A2998 RMK SLP153=
CYWH 081400Z 00000KT 15SM SKC 19/11 A2998 RMK SLP151=
CYWJ 081400Z 30005KT 10SM -RA BKN070 BKN120 12/11 A2993 RMK AC5AS2
     CIG DFUS SLP145=
CYWL 081400Z 00000KT 15SM SKC 15/08 A3015 RMK SLP204=
CYWY 081400Z 00000KT 20SM FEW050 FEW070 18/13 A2996 RMK SC1AC1
     25.0/15.0/1.0 SLP151=
CYXC 081400Z 31003KT 25SM SKC 14/07 A3022 RMK SLP222=
CYXD 081400Z AUTO 18002KT 9SM CLR 17/12 A3007 RMK SLP182=
CYXE 081400Z 24009KT 15SM FEW110 BKN270 16/13 A3010 RMK AC1CI2
     SLP202=
CYXH 081400Z 22004KT 30SM BKN270 14/12 A3017 RMK CI0 SLP223=
CYXJ 081400Z 24003KT 15SM FEW100 FEW200 17/10 A3011 RMK AC1CI0
     SLP198=
CYXL 081400Z 29007KT 15SM FEW028 FEW100 20/13 A2995 RMK CU1AC1
     SLP144=
CYXN 081400Z 02005KT 3SM -RA BR OVC004 04/04 A2960 RMK FG3ST5
     SLP024=
CYXP 081400Z 26011KT 15SM FEW090 FEW150 11/05 A2980 RMK AC0AC1
     SLP092=
CYXR 081400Z AUTO 20008KT 9SM FEW016 FEW051 25/23 A2990 RMK
     SLP112=
CYXS 081400Z AUTO 00000KT 9SM CLR 14/10 A3011 RMK SLP202 DENSITY
     ALT 2400FT=
CYXT 081400Z 36008KT 20SM FEW250 16/11 A3008 RMK CI1 SLP186=
CYXZ 081400Z 00000KT 15SM BKN007 BKN030TCU 18/17 A2998 RMK ST5TCU1
     TR TCU SLP155=
CYYB 081400Z 21009KT 15SM FEW020 FEW120 FEW250 26/21 A2999 RMK
     CU1AC1CI0 SLP151=
CYYD 081400Z 00000KT 25SM SKC 12/09 A3011 RMK SLP193=
CYYE 081400Z 22003KT 30SM FEW210 17/08 A3003 RMK CI1 SLP172=
CYYF 081400Z 36006KT 15SM SKC 19/09 A3010 RMK SLP189=
CYYH 081400Z 10002KT 15SM FEW030 BKN040 BKN210 15/07 A2980 RMK
     SC2SC5CI0 SLP092=
CYYL 081400Z AUTO 29009G17KT 250V310 9SM FEW061 16/08 A2980 RMK
     SLP100 DENSITY ALT 1600FT MAX WND 29017KT AT 1326Z=
CYYN 081400Z AUTO 25006KT 9SM CLR 14/13 A3016 RMK SLP214=
CYYU 081400Z 36002KT 12SM -SHRA OVC020 18/17 A2992 RMK SC8
     SLP133=
CYYY 081400Z 03006KT 5SM BR BKN004 OVC010 15/14 A3001 RMK SF6SC2
     SLP164=
CYZE 081400Z AUTO 19008KT 180V260 9SM FEW007 SCT041 BKN081 OVC100
     21/20 A2998 RMK SLP154 DENSITY ALT 1400FT=
CYZG 081400Z 12007KT 4SM -DZ BR OVC014 11/10 A2962 RMK SC8
     SLP040=
CYZH 081400Z AUTO 21002KT 9SM SCT087 16/13 A3003 RMK SLP174=
CYZP 081400Z AUTO 28012KT 9SM CLR 15/12 A3009 RMK SLP192=
CYZR 081400Z AUTO 22004KT 9SM CLR 30/22 A3001 RMK SLP158 DENSITY
     ALT 2300FT=
CYZT 081400Z 00000KT 20SM SKC 14/11 A3005 RMK SLP174=
CYZU 081400Z 27002KT 15SM SCT070 BKN240 13/09 A3008 RMK AC2CI0
     SLP190=
CYZW 081400Z 00000KT 30SM FEW150 FEW250 10/07 A3016 RMK AC1CI0
     SLP225=
####018000437####
SAXX99 KWBC 081400 CCA
METAR
CYLJ 081400Z CCA 26009KT 15SM SCT090 BKN120 BKN250 16/14 A3002 RMK
     ACC4AC2CI1 SH N + SSE PTCHS VIRGA SLP172=
CYQD 081400Z CCA 27009KT 15SM FEW030 FEW065 FEW090 FEW250 16/11
     A2996 RMK SC1SC1AC1CC1 TR SC CC SLP150=
CYYB 081400Z CCA 21009KT 8SM FEW020 FEW120 FEW250 26/21 A2999 RMK
     CU1AC1CI0 SLP151=
CYZG 081400Z CCA 12007KT 4SM -DZ BR OVC014 11/10 A2962 RMK SC8
     SLP040=
####018002993####
SAXX99 KWBC 081400 RRJ
METAR
CZCP 081400Z AUTO 28021KT 9SM OVC006 03/ A2987 RMK SLP123=
CZFA 081400Z 15003KT 30SM VCFG FEW060 11/10 A3010 RMK SC2
     SLP206=
CZFM 081400Z 18005KT 35SM -RA FEW015 BKN040 BKN070 09/08 A3009 RMK
     SF1SC2AC3 SLP192=
CZPC 081400Z AUTO 28006KT 9SM CLR 13/11 A3021 RMK SLP224=
CZST 081400Z 00000KT 15SM SKC 10/09 A3010 RMK SLP193=
CZUM 081400Z AUTO 26006KT 9SM FEW046 BKN075 BKN095 25/16 A2989 RMK
     SLP124=
EPLL 081400Z 33007KT 300V360 CAVOK 24/06 Q1022=
FMEP 081404Z 11020G31KT 9999 FEW020 22/14 Q1021=
FMNA 081400Z 12019KT 9999 FEW020 SCT040 25/17 Q1016=
FMSD 081400Z 06010KT 8000 VCSH SCT017 BKN033 20/17 Q1025=
GMMC 081400Z 02008KT 5000 SCT016 SCT026 25/20 Q1013=
GMML 081400Z 03017KT 8000 SCT020 29/17 Q1016=
LEGT 081400Z 00000KT 9999 TSRA SCT025 FEW050CB 28/16 Q1017=
LERI 081400Z 07012KT 020V110 CAVOK 33/20 Q1018 NOSIG=
LGPA 081350Z 02016KT 9999 FEW025 26/17 Q1012=
LIMP 081350Z 05006KT 010V100 CAVOK 30/15 Q1021 RMK VIS MIN
     9999=
LIMZ 081350Z 05005KT 8000 FEW035 SCT060 26/18 Q1022 RMK VIS MIN
     8000=
LIRM 081355Z 13005KT 9999 FEW020 30/15 Q1019 RMK FEW VIS MIN 9999
     WIND THR06 07004KT BLU=
LKCV 081400Z VRB02KT CAVOK 25/07 Q1022 NOSIG=
LKKB 081400Z VRB02KT CAVOK 25/08 Q1022 NOSIG=
LKKV 081400Z VRB03KT CAVOK 25/09 Q1022 RMK REG QNH 1020=
LKLN 081400Z AUTO VRB03KT CAVOK 26/09 Q1022=
LKNA 081400Z 34005KT CAVOK 23/08 Q1023 NOSIG=
LKPD 081400Z VRB03KT CAVOK 26/05 Q1022 NOSIG=
LKPO 081400Z 34003KT CAVOK 24/11 Q1022 NOSIG=
MGTK 081400Z 00000KT 9999 FEW010 OVC090 24/23 Q1013 A29.91=
MMCT 081401Z RTD 10010KT 6SM BKN080 27/26 A2990 RMK 8/030 HZY
     MSGTX MMMD=
SLET 081400Z 14010KT 9999 FEW015 BKN080 21/17 Q1016=
UDYZ 081400Z VRB02MPS 9999 FEW050 38/12 Q1007 09010070 NOSIG=
WBGB 081400Z 13002KT 9999 -RA FEW005 SCT016 OVC140 25/24 Q1011=
WBGR 081400Z 15004KT 9999 SCT014 BKN150 25/25 Q1011=
WBGS 081400Z 16002KT 9999 SCT018 BKN150 25/24 Q1012=
WBGY 081400Z 31002KT 9999 SCT020 BKN150 25/24 Q1012=
WBKL 081400Z 19004KT 9999 FEW010 SCT140 BKN290 26/25 Q1010=
WBKS 081400Z 13003KT 9999 FEW016 BKN300 27/25 Q1010=
WBKT 081400Z 00000KT 9999 FEW006 BKN280 24/24 Q1011=
WBKW 081400Z 30001KT 9999 FEW017 BKN300 26/24 Q1011=
YPKU 081400Z AUTO 16005KT 9999NDV // NCD 22/16 Q1015=
ZBHH 081400Z 07001MPS 9999 FEW040 FEW040TCU 25/11 Q1009 NOSIG=
ZBSJ 081400Z 16002MPS 7000 NSC 26/21 Q1006 NOSIG=
ZGHA 081400Z 18002MPS CAVOK 31/28 Q1002 NOSIG=
ZGKL 081400Z VRB01MPS CAVOK 29/26 Q1005 NOSIG=
ZGOW 081400Z 21006MPS 9999 FEW020 29/26 Q1009 NOSIG=
ZJHK 081400Z 19003MPS CAVOK 29/25 Q1006 NOSIG=
ZLXY 081400Z 09002MPS 060V120 1700 BR SCT030 OVC050 23/21 Q1009
     NOSIG=
ZSQD 081400Z 16003MPS 9999 FEW012 23/19 Q1007 NOSIG=
ZWSH 081400Z 25003MPS 9999 FEW040CB SCT040 32/01 Q1013 NOSIG=
ZYCC 081400Z 31003MPS 270V350 4000 -SHRA BR SCT004 FEW020TCU
     BKN020 19/18 Q1007 NOSIG=
ZYTX 081400Z VRB01MPS 9999 FEW030 19/18 Q1007 NOSIG=
####018001178####
SABO59 SLLP 081400
METAR SLCO 081400Z 34005KT 9999 FEW080 SCT200 29/24 Q1014=
METAR SLRY 081400Z 00000KT 9999 BKN012 FEW023CB BKN070 24/23 Q1015=
METAR SLRQ 081400Z 00000KT 9999 SCT006 OVC015 24/23 Q1014=
METAR SLOR 081400Z 35006KT 9999 SKC 06/M02 Q1036=
METAR SLRI 081400Z 36006KT 8000 SKC 30/24 Q1013=
METAR SLJO 081400Z 00000KT 9999 FEW080 SCT200 30/23 Q1013=
METAR SLMG 081400Z 03004KT 9999 FEW080 29/22 Q1015=
METAR SLSA 081400Z 03004KT 9999 SCT017 FEW023CB SCT070 BKN200 28/24
Q1013=
METAR SLSU 081400Z 01007KT 9999 SCT015 13/08 Q1029=
METAR SLPO 081400Z 24008KT 9999 SKC 05/M06 Q1036=
METAR SLVM 081400Z 12008KT 9999 SCT020 18/15 Q1026=
METAR SLTJ 081400Z 00000KT 9999 SKC 15/07 Q1021=
METAR SLYA 081400Z 18006KT 9999 FEW023 BKN070 16/12 Q1021=
METAR SLET 081400Z 14010KT 9999 FEW015 BKN080 21/17 Q1016=
METAR SLCP 081400Z 16005KT 9999 BKN007 OVC070 22/20 Q1018=
METAR SLSI 081400Z 18008KT 9999 FEW017 BKN070 25/21 Q1017=
METAR SLJE 081400Z 21006KT 9999 SCT017 26/20 Q1018=
METAR SLRB 081400Z 00000KT 9999 BKN017 25/19 Q1018=
METAR SLPS 081400Z 35008KT 9999 SKC 30/15 Q1013=
METAR SLCA 081400Z 18005KT 8000 BKN027 19/14 Q1020=
####018001176####
SABO SLLP 081400
METAR SLCO 081400Z 34005KT 9999 FEW080 SCT200 29/24 Q1014=
METAR SLRY 081400Z 00000KT 9999 BKN012 FEW023CB BKN070 24/23 Q1015=
METAR SLRQ 081400Z 00000KT 9999 SCT006 OVC015 24/23 Q1014=
METAR SLOR 081400Z 35006KT 9999 SKC 06/M02 Q1036=
METAR SLRI 081400Z 36006KT 8000 SKC 30/24 Q1013=
METAR SLJO 081400Z 00000KT 9999 FEW080 SCT200 30/23 Q1013=
METAR SLMG 081400Z 03004KT 9999 FEW080 29/22 Q1015=
METAR SLSA 081400Z 03004KT 9999 SCT017 FEW023CB SCT070 BKN200 28/24
Q1013=
METAR SLSU 081400Z 01007KT 9999 SCT015 13/08 Q1029=
METAR SLPO 081400Z 24008KT 9999 SKC 05/M06 Q1036=
METAR SLVM 081400Z 12008KT 9999 SCT020 18/15 Q1026=
METAR SLTJ 081400Z 00000KT 9999 SKC 15/07 Q1021=
METAR SLYA 081400Z 18006KT 9999 FEW023 BKN070 16/12 Q1021=
METAR SLET 081400Z 14010KT 9999 FEW015 BKN080 21/17 Q1016=
METAR SLCP 081400Z 16005KT 9999 BKN007 OVC070 22/20 Q1018=
METAR SLSI 081400Z 18008KT 9999 FEW017 BKN070 25/21 Q1017=
METAR SLJE 081400Z 21006KT 9999 SCT017 26/20 Q1018=
METAR SLRB 081400Z 00000KT 9999 BKN017 25/19 Q1018=
METAR SLPS 081400Z 35008KT 9999 SKC 30/15 Q1013=
METAR SLCA 081400Z 18005KT 8000 BKN027 19/14 Q1020=
####018000092####
SPUS52 KWBC 081408
SPECI
KALI 081405Z AUTO 04011G16KT 10SM BKN007 BKN015 26/26 A2986=
####018000097####
SPUS52 KWBC 081408
SPECI
KVCT 081405Z 05007KT 4SM +RA BR FEW008 BKN017 OVC065 25/24 A2992=
####018000552####
SAIR34 OIII 081400
METAR OIAG 081400Z 21004KT CAVOK 46/16 Q0998 A2948=
METAR OIAM 081400Z 19006KT CAVOK 43/18 Q0996 A2943=
METAR OICI 081400Z 30010KT CAVOK 37/M06 Q1013 A2993 864.1=
METAR OIKQ 081400Z 12010KT 7000 NSC 37/25 Q0999 A2950=
METAR OINN 081400Z 33010KT 9999 FEW035 SCT100 30/24 Q1009 A2980=
METAR OINR 081400Z 36006KT 9999 FEW033 30/23 Q1009 A2980=
METAR OISL 081400Z 21008KT 6000 FEW035CB SCT040 39/18 Q1003 A2964=
METAR OISY 081400Z 07006KT CAVOK 36/10 Q1017 A3003=
METAR OITZ 081400Z 12019KT CAVOK 37/M00 Q1014 A2995=
####018000092####
SPUS72 KWBC 081408
SPECI
KALI 081405Z AUTO 04011G16KT 10SM BKN007 BKN015 26/26 A2986=
####018000081####
SALJ32 LJLJ 081400 RRA
METAR LJCE 081400Z 21002KT CAVOK 26/08 Q1021 RMK BLU=
####018000084####
SAGL31 BGSF 081350 RRB
METAR BGJN 081350Z 31004KT 9999 VCFG FEW030 08/05 Q1009=
####018000199####
SATD31 TTPP 081400 RRA
METAR
TTPP 081400Z 00000KT 8000 -RA FEW004 FEW010CB SCT014 BKN035 26/25
Q1013 NOSIG=
TTCP 081400Z 09014KT 9999 -TSRA FEW010CB SCT015 BKN080 29/24 Q1014
TEMPO TSRA=
####018001263####
SAAL41 DAMM 081400
METAR DAAD 081400Z NIL=
METAR DAAE 081400Z 09010KT CAVOK 28/21 Q1019=
METAR DAAJ 081400Z 03010KT CAVOK 37/04 Q1018=
METAR DAAP 081400Z NIL=
METAR DAAS 081400Z 34008KT CAVOK 35/03 Q1024=
METAR DAAV 081400Z 02014KT CAVOK 29/24 Q1019=
METAR DAAY 081400Z 33010KT 9999 FEW033 38/10 Q1024=
METAR DABT 081400Z 34017KT CAVOK 36/03 Q1022=
METAR DAFH 081400Z 09008KT CAVOK 38/15 Q1021=
METAR DAMH 081400Z 04010KT CAVOK 41/13 Q1014=
METAR DAOB 081400Z 01007KT CAVOK 39/07 Q1022=
METAR DAOF 081400Z 18006KT 4500 HZ FEW046 45/// Q1013=
METAR DAOI 081400Z 08008KT CAVOK 44/06 Q1015=
METAR DAOL 081400Z NIL=
METAR DAOR 081400Z 29005KT CAVOK 40/05 Q1022=
METAR DAOV 081400Z 01010KT CAVOK 43/06 Q1018=
METAR DATF 081400Z 33012KT CAVOK 40/06 Q1015=
METAR DATG 081400Z NIL=
METAR DATM 081400Z NIL=
METAR DAUA 081400Z NIL=
METAR DAUB 081400Z 21010KT CAVOK 38/14 Q1015=
METAR DAUE 081400Z NIL=
METAR DAUG 081400Z 12008KT CAVOK 39/11 Q1019=
METAR DAUI 081400Z 07016KT 8000 NSC 46/08 Q1012=
METAR DAUK 081400Z NIL=
METAR DAUL 081400Z 00000KT CAVOK 39/12 Q1021=
METAR DAUO 081400Z 00000KT CAVOK 39/16 Q1016=
METAR DAUT 081400Z ///18KT 4000 DRSA NSC 44/08 Q1014=
METAR DAUU 081400Z 04010KT CAVOK 40/15 Q1016=
####018000083####
SAPK31 OPST 081350
METAR OPST 081400Z 18006KT 4000 HZ FEW040 37/20 Q1003 RH37=
####018000437####
SAAL40 DAMM 081400
METAR DAAG 081400Z 04017KT CAVOK 34/15 Q1018=
METAR DAAT 081400Z NIL=
METAR DABB 081400Z 02014KT CAVOK 26/21 Q1018=
METAR DABC 081400Z 33006KT CAVOK 34/08 Q1022=
METAR DABS 081400Z 02008KT CAVOK 35/06 Q1022=
METAR DAON 081400Z 02008KT 9999 FEW026 39/19 Q1015=
METAR DAOO 081400Z 36012KT CAVOK 35/22 Q1015=
METAR DAUH 081400Z 06010KT CAVOK 40/21 Q1016=
METAR DAUZ 081400Z 07010KT CAVOK 39/07 Q1015=
####018000360####
SATH31 VTBB 081400
METAR VTCT 081400Z 19005KT 9999 SCT030 25/23 Q1009 A2980 RMK/RWY03
INFO O=
METAR VTCN 081400Z NIL=
METAR VTCP 081400Z NIL=
METAR VTCH 081400Z NIL=
METAR VTPH 081400Z NIL=
METAR VTPM 081400Z NIL=
METAR VTPP 081400Z NIL=
METAR VTPO 081400Z NIL=
METAR VTCL 081400Z NIL=
METAR VTPB 081400Z NIL=
METAR VTPT 081400Z NIL=
####018000556####
SABY31 UMMN 081400
UMBB NIL=
METAR UMGG 081400Z 28004MPS 9999 SCT050CB BKN100 26/16 Q1014
R28/290550 NOSIG=
METAR UMII 081400Z 22004MPS P6000 BKN015CB 21/18 Q1014 R23/CLRD//
TEMPO 2000 SHRA BKN005 =
METAR UMMG 081400Z 31005G08MPS 9999 BKN023 BKN066 21/12 Q1016
R35/CLRD// NOSIG=
METAR UMMM 081400Z 25005G08MPS 9999 OVC013CB 17/14 Q1015 R30/CLRD//
NOSIG RMK QFE742=
METAR UMMS 081400Z 28002MPS 240V330 9999 OVC014 18/15 Q1015
R31/CLRD// NOSIG=
METAR UMOO 081400Z 31003MPS 9999 -SHRA BKN024CB BKN/// 22/18 Q1013
R31/290056 NOSIG=
####018000079####
SAEG31 HECA 081400 CCA
METAR HECA 081400Z 30012KT CAVOK 33/18 Q1010 NOSIG=
####018000105####
SAFR33 LFPW 081400 RRA
METAR LFKC 081400Z 36011KT 330V030 9999 FEW010 FEW043TCU 29/22
Q1019 NOSIG=
####018000356####
SATH32 VTBB 081400
METAR VTSB 081400Z 00000KT 9999 FEW020 28/25 Q1010 A2985=
METAR VTSM 081400Z 31003KT 9999 FEW020 BKN300 30/25 Q1010 A2984=
METAR VTSF 081400Z NIL=
METAR VTSC 081400Z NIL=
METAR VTSK 081400Z NIL=
METAR VTST 081400Z NIL=
METAR VTSR 081400Z NIL=
METAR VTSG 081400Z NIL=
METAR VTSE 081400Z NIL=
METAR VTSH 081400Z NIL=
####018000124####
SAUS41 KPHI 081408
MTRNEL
METAR KNEL 081406Z AUTO 16007KT 7SM BKN012 OVC095 27/21 A3004 RMK 
AO2 SLP172 T02720211 $
####018000119####
SAUS44 KFWD 081408
MTRHLR
SPECI KHLR 081406Z AUTO 03006KT 10SM BKN012 BKN023 OVC045 26/ A3003 
RMK AO2 T0261 $
####018001831####
SAIY42 LIIB 081400
METAR LIBF 081350Z 33018KT CAVOK 28/07 Q1019 RMK VIS MIN 9999=
METAR LIEA 081350Z 28004KT 210V320 9999 FEW025 33/22 Q1019 RMK VIS
MIN 9999=
METAR LIED 081355Z 15020KT 9999 SCT018 32/16 Q1017 RMK SCT VIS MIN
      9999 BLU=
METAR LIEO 081350Z 05010KT CAVOK 31/21 Q1019 RMK VIS MIN 9999=
METAR LIMA 081350Z 00000KT 9999 FEW035 28/16 Q1021 RMK VIS MIN 9999=
METAR LIQN 081350Z 32005KT 9999 SCT045 30/17 Q1020 RMK VIS MIN 9999=
METAR LIQO 081355Z 19004KT 9999 SCT003 28/21 Q1022 RMK SCT VAL NIL NC
      VIS MIN 9999=
METAR LIQW 081355Z 20003KT 9999 FEW025 30/21 Q1020 RMK FEW VIS MIN
      9999 BLU=
METAR LIRE 081355Z 24008KT 9999 FEW020 28/20 Q1019 RMK FEW VIS MIN
      9999 WIND THR31 23009KT BLU=
METAR LIRG 081355Z 23010KT 9999 FEW030CB SCT033TCU 32/19 Q1019 RMK
     SCT MON NE LIB NC VIS MIN 9999 BLU=
METAR LIRH 081355Z 35006KT 9999 FEW035CB SCT040 30/20 Q1019 RMK BKN
      MON LIB NC VIS MIN 9999 WIND THR16 30010KT BLU=
METAR LIRI 081350Z 04004KT CAVOK 30/11 Q1018 RMK VIS MIN 9999=
METAR LIRK 081355Z 13008KT CAVOK 16/14 Q1027 RMK SCT SCT060 MON NE
      LIB NC VAL NIL NC VIS MIN 9999=
METAR LIRL 081355Z 24009KT 9999 FEW020 30/17 Q1019 RMK FEW MON LIB NC
      VIS MIN 9999 BLU=
METAR LIRM 081355Z 13005KT 9999 FEW020 30/15 Q1019 RMK FEW VIS MIN
      9999 WIND THR06 07004KT BLU=
METAR LIRS 081355Z 22012KT 9999 FEW040 30/19 Q1019 RMK FEW VIS MIN
      9999 WIND THR21 /////KT BLU=
METAR LIRT 081355Z 35010KT CAVOK 18/05 Q1023 RMK SKC MON LIB VAL NIL
      VIS MIN 9999=
METAR LIRU 081350Z 26010KT 9999 FEW040 30/17 Q1020 RMK VIS MIN 9999=
METAR LIRV 081355Z 26011KT 9999 SCT032 28/22 Q1020 RMK SCT MON E SE
      LIB NC VIS MIN 9999 BLU=
METAR LIRX 081400Z NIL=
METAR LIRZ 081350Z 01009KT 330V050 9999 FEW045 31/11 Q1020 RMK VIS
MIN 9999=
####018001681####
SAIY40 LIIB 081400
METAR LIMG 081350Z 08008KT 9999 SCT040 30/25 Q1020 RMK VIS MIN 9999=
METAR LIMK 081355Z 18002KT CAVOK 23/12 Q1023 RMK SKC VAL NIL VIS MIN
      9999=
METAR LIMN 081355Z /////KT CAVOK 28/16 Q1020 RMK FEW FEW200 VIS MIN
      9999 BLU=
METAR LIMP 081350Z 05006KT 010V100 CAVOK 30/15 Q1021 RMK VIS MIN
9999=
METAR LIMS 081355Z 07006KT 020V130 CAVOK 30/15 Q1020 RMK SKC VIS MIN
      9999 WIND THR30 07005KT BLU=
METAR LIMZ 081350Z 05005KT 8000 FEW035 SCT060 26/18 Q1022 RMK VIS
MIN 8000=
METAR LIPA 081400Z NIL=
METAR LIPB 081350Z 18015KT CAVOK 31/12 Q1018 RMK MON LIB VIS MIN
9999=
METAR LIPC 081400Z NIL=
METAR LIPF 081355Z 11003KT 9999 FEW050 29/19 Q1020 RMK FEW VIS MIN
      9999=
METAR LIPH 081345Z 14005KT 9999 FEW025 28/21 Q1021 RMK FEW VIS MIN
      9999 WIND THR07 /////KT BLU=
METAR LIPI 081355Z 19009KT 9999 FEW040 27/20 Q1021 RMK FEW VIS MIN
     9999 WIND THR06 25005KT BLU=
METAR LIPL 081355Z 16004KT 9999 FEW036 30/17 Q1021 RMK FEW VIS MIN
      9999 BLU=
METAR LIPO 081350Z 14004KT 100V200 CAVOK 29/13 Q1020 RMK VIS MIN
9999=
METAR LIPQ 081350Z 26004KT CAVOK 28/15 Q1021=
METAR LIPR 081345Z 07012KT CAVOK 28/19 Q1021 RMK SKC VIS MIN 9999
      WIND THR31 09011KT BLU=
METAR LIPS 081355Z 12004KT 9999 SCT030 28/18 Q1021 RMK SCT VIS MIN
      9999 BLU=
METAR LIPX 081345Z 23003KT 9999 FEW040 30/14 Q1020 RMK FEW VIS MIN
      9999 BLU=
METAR LIPY 081350Z 05010KT CAVOK 26/14 Q1021 RMK VIS MIN 9999=
METAR LIVC 081355Z 00000KT 9999 SCT001 16/11 Q1031 RMK SCT MON LIB
      VAL NIL VIS MIN 9999=
METAR LIVP 081355Z VRB03KT 9999 FEW003 15/11 Q1029 RMK FEW MON LIB
      VAL NIL VIS MIN 9999=
####018001088####
SAIY41 LIIB 081400
METAR LIMH 081355Z 10001KT 9999 FEW000TCU 08/00 Q1040 RMK SCT MON CLD
      SCT VAL S CLD SCT VIS MIN 9999=
METAR LIMT 081400Z NIL=
METAR LIMU 081355Z 13003KT 9999 FEW030 29/25 Q1020 RMK SCT QUK 2 QUL
      1 E VIS MAR 20 KM VIS MIN 9999=
METAR LIMV 081355Z 34008KT 7000 SCT012 25/18 Q1022 RMK SCT MON LIB NC
      VAL FOSCHIA VIS MIN 7000=
METAR LIMY 081355Z /////KT 9000 SCT026 SCT046 24/16 Q1023 RMK BKN VAL
      FOSCHIA VIS MIN 9000=
METAR LIVD 081355Z 00000KT CAVOK 25/07 Q1023 RMK SKC VIS MIN 9999=
METAR LIVE 081355Z 19006KT CAVOK 22/11 Q1024 RMK SKC VIS MIN 9999=
METAR LIVF 081355Z 05004KT CAVOK 27/07 Q1022 RMK SKC MON LIB VAL NIL
      VIS MIN 9999=
METAR LIVM 081355Z 13010KT CAVOK 28/22 Q1021 RMK SKC QUK 2 QUL 1 SE
      VIS MAR 30 KM VIS MIN 9999=
METAR LIVO 081355Z 15003KT 9999 FEW040 26/12 Q1021 RMK FEW VIS MIN
      9999=
METAR LIVR 081355Z /////KT 9999 FEW030 18/15 Q1028 RMK FEW MON CLD
      CIME VIS MIN 9999=
METAR LIVT 081355Z 25001KT CAVOK 26/16 Q1021 RMK SKC QUK 1 QUL 0 VIS
      MAR 20 KM VIS MIN 9999=
####018001445####
SAIY43 LIIB 081400
METAR LIBA 081355Z /////KT CAVOK 29/09 Q1019 RMK FEW FEW200 VIS MIN
      9999 WIND THR29 30012KT 260V010 BLU=
METAR LIBC 081350Z 04018KT CAVOK 27/10 Q1017 RMK VIS MIN 9999=
METAR LIBD 081350Z 01016KT CAVOK 25/11 Q1020 RMK VIS MIN 9999=
METAR LIBG 081350Z 36016KT 320V040 CAVOK 27/09 Q1017 RMK VIS MIN
9999=
METAR LIBN 081400Z NIL=
METAR LIBP 081350Z 05005KT 350V110 CAVOK 26/08 Q1021 RMK VIS MIN
9999=
METAR LIBQ 081355Z 30006KT 9999 FEW008TCU SCT009 17/12 Q1024 RMK SCT
      MON LIB VAL NIL VIS MIN 9999=
METAR LIBR 081345Z /////KT CAVOK 26/14 Q1018 NOSIG RMK SKC VIS MIN
      9999 WIND THR13 WIND THR31 33020KT=
METAR LIBV 081355Z 01018KT CAVOK 25/12 Q1017 RMK SKC VIS MIN 9999
      WIND THR14 35016KT BLU=
METAR LICA 081350Z 29014KT 9999 FEW030 29/17 Q1017 RMK VIS MIN 9999=
METAR LICC 081350Z 11014KT CAVOK 28/20 Q1017 RMK VIS MIN 9999=
METAR LICD 081350Z 02009KT CAVOK 26/19 Q1018 RMK VIS MIN 9999=
METAR LICG 081355Z 01005KT 9999 FEW010 24/22 Q1019 RMK FEW VIS MIN
      9999 WIND THR08 36007KT WIND THR21 02006KT BLU=
METAR LICJ 081350Z 04014KT 9999 FEW018 28/23 Q1018 RMK VIS MIN 9999=
METAR LICR 081350Z 22006KT 200V270 9999 SCT025 27/20 Q1018 RMK VIS
MIN 9999=
METAR LICT 081355Z 33012KT 9999 FEW022 30/26 Q1017 RMK FEW VIS MIN
      9999 WIND THR13 33010KT BLU=
METAR LICZ 081355Z 08019KT 9999 FEW020 30/19 Q1017 RMK FEW VIS MIN
      9999 WIND THR28 //////KT BLU=
####018000090####
SPUS72 KWBC 081408
SPECI
KDAL 081405Z 13007KT 9SM BKN015 BKN026 OVC047 26/24 A3004=
####018000084####
SPUS72 KWBC 081408
SPECI
KTXK 081405Z VRB04KT 10SM BKN010 OVC080 26/23 A3008=
####018000097####
SPUS72 KWBC 081408
SPECI
KVCT 081405Z 05007KT 4SM +RA BR FEW008 BKN017 OVC065 25/24 A2992=
####018000097####
SPUS73 KWBC 081408
SPECI
KAZO 081405Z 21004KT 1 3/4SM RA SCT030 BKN060 BKN100 25/22 A3005=
####018000088####
SPUS74 KWBC 081408
SPECI
KCEC 081405Z AUTO 34003KT 1 3/4SM BR OVC001 10/09 A2998=
####018000090####
SPUS81 KWBC 081408
SPECI
KDAL 081405Z 13007KT 9SM BKN015 BKN026 OVC047 26/24 A3004=
####018000452####
SAIR35 OIII 081400
METAR OIAD 081400Z NIL=
METAR OIBJ 081400Z 23016KT 6000 SKC 35/19 Q1005 A2968=
METAR OIBS 081400Z 05006KT 7000 SKC 35/30 Q0998 A2950=
METAR OIHR 081400Z NIL=
METAR OIKM 081400Z NIL=
METAR OIKR 081400Z 30008KT CAVOK 36/M04 Q1014 A2994=
METAR OING 081400Z 25010KT 9999 FEW035 33/21 Q1010 A2983=
METAR OIZB 081400Z 31010KT CAVOK 43/02 Q1002 A2961=
METAR OIZI 081400Z 21012KT 6000 FEW045TCU FEW100 41/15 Q1003 A2962=
####018000082####
SPUS81 KWBC 081408
SPECI
KLWD 081405Z AUTO 01007KT 10SM FEW007 22/20 A3012=
####018000339####
SAGL KAWN 081400 RRA
METAR BGBW 081350Z 25008KT 220V290 9999 FEW040 14/05 Q1008 RMK 1SC=
METAR BIAR 081400Z 35015KT 9999 BKN020 09/07 Q0996=
METAR BIEG 081400Z 36011KT 4000 -RABR VV006 08/08 Q0992=
METAR BIKF 081400Z 02020KT 9999 SCT024 BKN100 12/05 Q0995=
METAR BIRK 081400Z 01020G30KT 290V180 9999 FEW020 SCT050 11/06 Q0994=
####018001012####
SANA14 KAWN 081400 RRD
METAR KNGP 081356Z COR 10007KT 7SM -RA FEW009 SCT016CB BKN025 27/26
      A2984 RMK AO2 RAB12 SLP105 CB DSNT NE AND SW TCU DSNT SE-S
      WR// P0007 T02730261 $=
METAR KNID 081356Z 00000KT 10SM CLR 22/04 A2989 RMK AO2 SLP100 T02170039
      $=
METAR KNSE 081356Z 33003KT 9SM FEW020 SCT250 29/24 A3004 RMK AO2 SLP157
      T02940239 $=
METAR KNXP 081356Z AUTO 29009KT CLR 25/00 A2994 RMK AO2 SLP100 T02500000
      $=
METAR KOSC 081354Z AUTO 29005KT 5SM -RA SCT018 BKN060 OVC075 23/21
      A3001 RMK AO2=
METAR KVBG 081355Z 32004KT 4SM BR OVC004 12/11 A2995 RMK AO2 CIG 002V006
      SLP132 T01170111 $=
METAR SEGU 081400Z 19005KT 6000S 8000N -DZ FEW010 BKN020 OVC080 22/20
      Q1013 TEMPO 8000N NOSIG=
METAR SKRG 081400Z VRB02KT 4000 -DZ BR BKN004 SCT080 15/14 A3033=
METAR SKRG 081400Z VRB02KT 4000 -DZ BR BKN004 SCT080 15/14 A3033=
METAR TDPD 081400Z 11003KT 9999 SCT018 31/24 Q1015=
METAR TVSV 081400Z 11014KT 9999 SCT023 SCT280 31/26 Q1014=
####018000097####
SPUS81 KWBC 081408
SPECI
KVCT 081405Z 05007KT 4SM +RA BR FEW008 BKN017 OVC065 25/24 A2992=
####018000189####
SAAK41 KNKA 081408
SPECI PACV 081406Z 14010G16KT 10SM SCT007 BKN011 OVC044 11/09 A3011 
    RMK AO2=
SPECI PALG 081404Z AUTO 00000KT 1SM BR BKN003 06/05 A2999 RMK AO2 
    TSNO =
####018002018####
SAUS20 KNKA 081408
METAR KGNC 081405Z AUTO 05009KT 10SM SCT007 BKN047 OVC100 21/20 
     A3017 RMK AO2 T02060195=
METAR KGOP 081400Z AUTO 07003KT 7SM BKN009 BKN017 BKN044 26/24 
     A3005 RMK AO2=
SPECI KGUY 081407Z AUTO 36008KT 9SM -RA BKN008 BKN018 OVC026 19/18 
    A3024 RMK AO2 RAB1358 CIG 005V015 P0000=
METAR KGVT 081405Z AUTO 14005KT 10SM BKN055 26/23 A3006 RMK AO2=
METAR KGWB 081405Z AUTO 23004KT 10SM SCT055 30/16 A3005 RMK AO2=
METAR KGYI 081404Z AUTO 15010KT 26/25 A3007 RMK AO2 T02550248 
     PWINO=
METAR KHBV 081400Z AUTO 01008KT 10SM SCT006 BKN012 OVC021 26/24 
     A2989 RMK AO2 T02560239=
METAR KHHF 081405Z AUTO 02005KT 10SM OVC070 21/20 A3016 RMK AO2 
     T02110203=
METAR KHRX 081405Z AUTO 02009KT 10SM SCT022 BKN028 OVC110 19/17 
     A3024 RMK AO2 T01890168=
METAR KHSB 081405Z AUTO 21006KT 10SM CLR 29/22 A3006 RMK AO2=
METAR KIGQ 081405Z AUTO 00000KT 2 1/2SM RA SCT003 SCT013 BKN023 
     24/23 A3003 RMK AO2 VIS 1 1/4V5 P0008=
METAR KIJX 081405Z AUTO 27003KT 10SM BKN005 BKN009 BKN017 24/23 
     A3007 RMK AO2 LTG DSNT SE T02430231=
METAR KINJ 081405Z AUTO 08008KT 7SM SCT008 SCT027 SCT040 26/23 
     A3004 RMK AO2 T02560232=
METAR KJAS 081405Z AUTO 09005KT 10SM SCT008 28/25 A3005 RMK AO2 
     T02800253=
SPECI KJLN 081407Z VRB03KT 2SM RA BR BKN013 BKN030 OVC055 22/22 
    A3009 RMK AO2 P0006=
METAR KMZZ 081355Z AUTO 19003KT 7SM SCT065 SCT070 26/21 A3006 RMK
     AO2=
METAR KOLY 081405Z AUTO 23003KT 10SM BKN043 29/24 A3005 RMK AO2 
     LTG DSNT NW=
SPECI KPBI 081407Z 07008KT 10SM SCT024CB BKN042 BKN050 32/28 A2997 
    RMK AO2 SCT V BKN CB OHD-SW-NE MOV SW=
METAR KPNT 081405Z AUTO 23004KT 10SM SCT009 OVC017 25/23 A3004 
     RMK AO2=
METAR KPRG 081405Z AUTO 26006KT 10SM CLR 28/23 A3005 RMK AO2 LTG 
     DSNT SW T02870236=
METAR KRPJ 081405Z AUTO 29007KT 10SM SCT009 BKN016 23/20 A3005 
     RMK AO2 T02290203=
METAR KRSV 081405Z AUTO 24004KT 10SM CLR 30/24 A3006 RMK AO2 
     T03020236=
####018002985####
SAUS20 KNKA 081408
METAR K3LF 081405Z AUTO 00000KT 10SM VCTS SCT075 SCT090 SCT120 
     24/22 A3006 RMK AO2 LTG DSNT E AND SE=
METAR K6R3 081401Z AUTO 10005KT 5SM BR OVC006 27/26 A3000 RMK AO2 
     LTG DSNT W T02660258=
METAR KASW 081405Z AUTO 30003KT 7SM OVC055 26/22 A3005 RMK AO2 
     T02550220=
METAR KAXH 081405Z AUTO 09004KT 10SM BKN036 BKN041 26/24 A2996 
     RMK AO2 LTG DSNT NW T02600235=
METAR KBBD 081405Z AUTO 07003KT 10SM BKN007 OVC034 24/22 A3006 RMK=
METAR KBEA 081403Z AUTO 05006KT 10SM BKN005 BKN042 BKN050 25/25 
     A2989 RMK AO2 LTG DSNT SE T02450245=
SPECI KBGD 081407Z AUTO 05006KT 10SM BKN008 OVC014 20/18 A3022 RMK 
    AO2 CIG 004V009=
METAR KBKD 081401Z AUTO 09004KT 10SM SCT004 OVC030 25/23 A3005 
     RMK AO2 T02520233=
METAR KBKS 081406Z AUTO 02007KT 10SM BKN006 OVC030 27/25 A2984 
     RMK AO1 T02700254=
METAR KBPC 081408Z AUTO 03006KT 10SM OVC008 20/19 A3019 RMK AO2=
METAR KBPG 081405Z AUTO 03008KT 7SM BKN006 OVC014 22/20 A3014 RMK 
     AO1 T02200201=
METAR KBYY 081406Z AUTO 07008KT 10SM SCT085 SCT100 28/27 A2993 
     RMK AO2 T02800266=
METAR KCIC 081350Z 13006KT 25SM SCT080 A2986=
METAR KCIR 081402Z AUTO 21003KT 10SM CLR 30/23 A3007 RMK AO2 LTG 
     DSNT N=
METAR KCPT 081405Z AUTO 10006KT 8SM BKN006 26/24 A3007 RMK AO2=
METAR KCVB 081404Z AUTO 05009KT 7SM OVC014 26/24 A2997 RMK AO2 
     T02630241=
METAR KCWC 081405Z AUTO 12009KT 10SM CLR 26/23 A3006 RMK AO2 
     T02610225=
SPECI KDFW 081407Z 13007KT 10SM SCT009 BKN050 OVC060 26/24 A3004 RMK 
    AO2=
METAR KDKB 081405Z AUTO 29008KT 10SM SCT009 BKN015 23/22 A3004 
     RMK AO2 T02320223=
METAR KDKR 081405Z AUTO 10005KT 6SM  BR CLR 26/26 A3006 RMK AO2=
METAR KDNV 081405Z AUTO 24006KT 10SM CLR 28/22 A3002 RMK AO2 
     T02760224=
METAR KDUX 081407Z AUTO 02006KT 7SM SCT005 OVC060 18/17 A3024 RMK 
     AO2 T01800172=
METAR KDZB 081405Z AUTO 07005KT 5SM BR BKN009 BKN016 OVC037 25/25 
     A3000 RMK AO2 T02540252=
METAR KE38 081405Z AUTO 00000KT 10SM CLR 21/19 A3024 RMK AO2 
     T02120186=
METAR KEBG 081406Z AUTO 02011KT 10SM BKN007 BKN031 OVC095 28/25 
     A2982 RMK AO2 T02760253=
METAR KECU 081405Z AUTO 06008KT 10SM CLR 24/22 A3011 RMK AO2=
METAR KENL 081404Z AUTO 23008KT 10SM SCT050 SCT090 28/19 A3006 
     RMK AO2 LTG DSNT N AND NW T02830194=
METAR KERV 081405Z AUTO 05003KT 4SM -RA SCT011 BKN031 OVC040 
     25/23 A3003 RMK AO2 T02470227=
METAR KF05 081404Z AUTO 05007KT 10SM SCT007 SCT012 BKN070 26/23 
     A3007 RMK AO2 T02620227=
METAR KFEP 081405Z AUTO 31005KT 10SM OVC004 24/21 A3006 RMK AO2 
     T02360210=
METAR KFOA 081405Z AUTO 21007KT 10SM CLR 31/27 A3005 RMK AO2 LTG 
     DSNT W T03110265=
METAR KFWC 081405Z AUTO 22004KT 10SM CLR 29/25 A3006 RMK AO2 LTG 
     DSNT NW=
METAR KGBG 081405Z AUTO 00000KT 3SM BR OVC008 23/22 A3006 RMK AO2=
METAR KGDJ 081404Z AUTO 07003KT 10SM BKN008 OVC049 26/24 A3005 
     RMK AO2 T02620238=
####018000656####
SPUS99 KWBC 081409
SPECI
PACV 081406Z 14010G16KT 10SM SCT007 BKN011 OVC044 11/09 A3011 RMK
     AO2=
PALG 081404Z AUTO 00000KT 1SM BR BKN003 06/05 A2999 RMK AO2
     TSNO=
KGUY 081407Z AUTO 36008KT 9SM -RA BKN008 BKN018 OVC026 19/18 A3024
     RMK AO2 RAB1358 CIG 005V015 P0000=
KJLN 081407Z VRB03KT 2SM RA BR BKN013 BKN030 OVC055 22/22 A3009
     RMK AO2 P0006=
KPBI 081407Z 07008KT 10SM SCT024CB BKN042 BKN050 32/28 A2997 RMK
     AO2 SCT V BKN CB OHD-SW-NE MOV SW=
KBGD 081407Z AUTO 05006KT 10SM BKN008 OVC014 20/18 A3022 RMK AO2
     CIG 004V009=
KDFW 081407Z 13007KT 10SM SCT009 BKN050 OVC060 26/24 A3004 RMK
     AO2=
####018003745####
SAUS99 KWBC 081409
METAR
KGNC 081405Z AUTO 05009KT 10SM SCT007 BKN047 OVC100 21/20 A3017
     RMK AO2 T02060195=
KGOP 081400Z AUTO 07003KT 7SM BKN009 BKN017 BKN044 26/24 A3005 RMK
     AO2=
KGVT 081405Z AUTO 14005KT 10SM BKN055 26/23 A3006 RMK AO2=
KGWB 081405Z AUTO 23004KT 10SM SCT055 30/16 A3005 RMK AO2=
KGYI 081404Z AUTO 15010KT 26/25 A3007 RMK AO2 T02550248 PWINO=
KHBV 081400Z AUTO 01008KT 10SM SCT006 BKN012 OVC021 26/24 A2989
     RMK AO2 T02560239=
KHHF 081405Z AUTO 02005KT 10SM OVC070 21/20 A3016 RMK AO2
     T02110203=
KHRX 081405Z AUTO 02009KT 10SM SCT022 BKN028 OVC110 19/17 A3024
     RMK AO2 T01890168=
KHSB 081405Z AUTO 21006KT 10SM CLR 29/22 A3006 RMK AO2=
KIGQ 081405Z AUTO 00000KT 2 1/2SM RA SCT003 SCT013 BKN023 24/23
     A3003 RMK AO2 VIS 1 1/4V5 P0008=
KIJX 081405Z AUTO 27003KT 10SM BKN005 BKN009 BKN017 24/23 A3007
     RMK AO2 LTG DSNT SE T02430231=
KINJ 081405Z AUTO 08008KT 7SM SCT008 SCT027 SCT040 26/23 A3004 RMK
     AO2 T02560232=
KJAS 081405Z AUTO 09005KT 10SM SCT008 28/25 A3005 RMK AO2
     T02800253=
KMZZ 081355Z AUTO 19003KT 7SM SCT065 SCT070 26/21 A3006 RMK
     AO2=
KOLY 081405Z AUTO 23003KT 10SM BKN043 29/24 A3005 RMK AO2 LTG DSNT
     NW=
KPNT 081405Z AUTO 23004KT 10SM SCT009 OVC017 25/23 A3004 RMK
     AO2=
KPRG 081405Z AUTO 26006KT 10SM CLR 28/23 A3005 RMK AO2 LTG DSNT SW
     T02870236=
KRPJ 081405Z AUTO 29007KT 10SM SCT009 BKN016 23/20 A3005 RMK AO2
     T02290203=
KRSV 081405Z AUTO 24004KT 10SM CLR 30/24 A3006 RMK AO2
     T03020236=
K3LF 081405Z AUTO 00000KT 10SM VCTS SCT075 SCT090 SCT120 24/22
     A3006 RMK AO2 LTG DSNT E AND SE=
K6R3 081401Z AUTO 10005KT 5SM BR OVC006 27/26 A3000 RMK AO2 LTG
     DSNT W T02660258=
KASW 081405Z AUTO 30003KT 7SM OVC055 26/22 A3005 RMK AO2
     T02550220=
KAXH 081405Z AUTO 09004KT 10SM BKN036 BKN041 26/24 A2996 RMK AO2
     LTG DSNT NW T02600235=
KBBD 081405Z AUTO 07003KT 10SM BKN007 OVC034 24/22 A3006 RMK=
KBEA 081403Z AUTO 05006KT 10SM BKN005 BKN042 BKN050 25/25 A2989
     RMK AO2 LTG DSNT SE T02450245=
KBKD 081401Z AUTO 09004KT 10SM SCT004 OVC030 25/23 A3005 RMK AO2
     T02520233=
KBKS 081406Z AUTO 02007KT 10SM BKN006 OVC030 27/25 A2984 RMK AO1
     T02700254=
KBPC 081408Z AUTO 03006KT 10SM OVC008 20/19 A3019 RMK AO2=
KBPG 081405Z AUTO 03008KT 7SM BKN006 OVC014 22/20 A3014 RMK AO1
     T02200201=
KBYY 081406Z AUTO 07008KT 10SM SCT085 SCT100 28/27 A2993 RMK AO2
     T02800266=
KCIC 081350Z 13006KT 25SM SCT080 A2986=
KCIR 081402Z AUTO 21003KT 10SM CLR 30/23 A3007 RMK AO2 LTG DSNT
     N=
KCPT 081405Z AUTO 10006KT 8SM BKN006 26/24 A3007 RMK AO2=
KCVB 081404Z AUTO 05009KT 7SM OVC014 26/24 A2997 RMK AO2
     T02630241=
KCWC 081405Z AUTO 12009KT 10SM CLR 26/23 A3006 RMK AO2
     T02610225=
KDKB 081405Z AUTO 29008KT 10SM SCT009 BKN015 23/22 A3004 RMK AO2
     T02320223=
KDKR 081405Z AUTO 10005KT 6SM BR CLR 26/26 A3006 RMK AO2=
KDNV 081405Z AUTO 24006KT 10SM CLR 28/22 A3002 RMK AO2
     T02760224=
KDUX 081407Z AUTO 02006KT 7SM SCT005 OVC060 18/17 A3024 RMK AO2
     T01800172=
KDZB 081405Z AUTO 07005KT 5SM BR BKN009 BKN016 OVC037 25/25 A3000
     RMK AO2 T02540252=
KE38 081405Z AUTO 00000KT 10SM CLR 21/19 A3024 RMK AO2
     T02120186=
KEBG 081406Z AUTO 02011KT 10SM BKN007 BKN031 OVC095 28/25 A2982
     RMK AO2 T02760253=
KECU 081405Z AUTO 06008KT 10SM CLR 24/22 A3011 RMK AO2=
KENL 081404Z AUTO 23008KT 10SM SCT050 SCT090 28/19 A3006 RMK AO2
     LTG DSNT N AND NW T02830194=
KERV 081405Z AUTO 05003KT 4SM -RA SCT011 BKN031 OVC040 25/23 A3003
     RMK AO2 T02470227=
KF05 081404Z AUTO 05007KT 10SM SCT007 SCT012 BKN070 26/23 A3007
     RMK AO2 T02620227=
####018000066####
SAUY SUCA 081400
METAR SUCA 081400Z 32005KT CAVOK 12/04 Q1018=
####018000067####
SAAG SARI 081400
METAR SARI 081400Z  00000KT CAVOK 19/17 Q1019=
####018000404####
SARO31 LROM 081400
METAR LRBS 081400Z 29005KT 260V320 9999 -RA FEW030 22/15 Q1016
TEMPO 5000 RA=
METAR LRCK 081400Z 02011KT 340V070 9999 SCT040 26/16 Q1014 BECMG
TSRA SCT035CB BKN040=
METAR LROP 081400Z 25005KT 220V280 9999 -SHRA FEW040CB 21/15 Q1016
880///95 NOSIG=
METAR LRSB 081400Z 02006KT 330V060 9999 BKN033 OVC086 18/12 Q1020=
METAR LRTR 081400Z 36008KT 340V050 9999 SCT048 23/13 Q1020=
####018000422####
SAUS99 KWBC 081409 RRA
METAR
KFEP 081405Z AUTO 31005KT 10SM OVC004 24/21 A3006 RMK AO2
     T02360210=
KFOA 081405Z AUTO 21007KT 10SM CLR 31/27 A3005 RMK AO2 LTG DSNT W
     T03110265=
KFWC 081405Z AUTO 22004KT 10SM CLR 29/25 A3006 RMK AO2 LTG DSNT
     NW=
KGBG 081405Z AUTO 00000KT 3SM BR OVC008 23/22 A3006 RMK AO2=
KGDJ 081404Z AUTO 07003KT 10SM BKN008 OVC049 26/24 A3005 RMK AO2
     T02620238=
####018000069####
SAAG SAWG 081400
METAR SAWG 081400Z  29012KT CAVOK M03/M07 Q0991=
####018000074####
SAAG01 SABM 081400 RRB
METAR SAZM 081400Z  32018KT CAVOK 12/03 Q1014=
####018000487####
SAKO31 RKSI 081400
METAR RKSI 081400Z 32003KT 270V350 8000 FEW030 OVC110 22/19 Q1009
           NOSIG=
METAR RKSS 081400Z 34005KT 8000 SCT030 OVC100 23/19 Q1009 BECMG 
           4500 BR =
METAR RKPC 081400Z 02002KT 4000 BR SCT030 OVC120 23/20 Q1009 NOSIG =
METAR RKPK 081400Z 26002KT 9999 SCT040 BKN200 23/19 Q1010 NOSIG =
METAR RKTU NIL= 
METAR RKTN NIL= 
METAR RKJB 081400Z AUTO 20005KT3000NDV NCD 24/19 Q1009 =
METAR RKNY 081400Z AUTO 30003KT3000NDV ///092 20/18 Q1009 =
####018000561####
SAFR37 LFPW 081400
METAR LFAQ 081400Z AUTO 19008KT 160V220 9999NDV NSC 31/09 Q1018=
METAR LFBU 081400Z AUTO 15006KT 040V210 9999NDV NSC 35/10 Q1017=
METAR LFLN 081400Z AUTO 18005KT 110V230 9999NDV NSC 32/12 Q1019=
METAR LFPM 081400Z VRB04KT CAVOK 33/11 Q1018=
METAR LFRH 081400Z 01005KT 330V080 CAVOK 28/05 Q1016=
METAR LFRQ 081400Z 36007KT 310V060 CAVOK 26/17 Q1016 NOSIG=
METAR LFRT 081400Z 04008KT CAVOK 22/16 Q1018=
METAR LFSD 081400Z AUTO 15005KT 080V200 9999NDV NSC 32/11 Q1019=
METAR LFTW 081400Z AUTO 19008KT 130V230 9999NDV NSC 32/16 Q1020=
####018000725####
SAFR36 LFPW 081400
METAR LFBA 081400Z 11011KT 070V140 CAVOK 35/14 Q1016 NOSIG=
METAR LFBE 081400Z 09007KT 060V140 CAVOK 35/13 Q1016 NOSIG=
METAR LFGJ 081400Z AUTO 23005KT 140V310 9999NDV NSC 32/11 Q1019=
METAR LFJR 081400Z AUTO 14004KT 090V200 9999NDV NCD 34/08 Q1017=
METAR LFMD 081400Z AUTO 16005KT 120V200 9999NDV NSC 30/19 Q1020=
METAR LFMH 081400Z 11004KT 040V210 CAVOK 33/11 Q1020 NOSIG=
METAR LFOT 081400Z AUTO 12005KT 070V180 9999NDV NSC 33/07 Q1018=
METAR LFPN 081400Z 18006KT 130V210 CAVOK 32/10 Q1018 NOSIG=
METAR LFRC 081400Z AUTO 35007KT 320V030 9999NDV SCT017 20/15 Q1020=
METAR LFRG 081400Z AUTO 35006KT 300V040 9999NDV NSC 27/15 Q1019=
METAR LFRK 081400Z 33008KT 300V360 CAVOK 25/16 Q1019 NOSIG=
####018000436####
SAFR31 LFPW 081400
METAR LFLL 081400Z 20007KT 150V240 CAVOK 33/11 Q1019 NOSIG=
METAR LFMN 081400Z 12004KT 9999 FEW016 29/23 Q1020 NOSIG=
METAR LFPG 081400Z VRB04KT CAVOK 32/09 Q1018 NOSIG=
METAR LFPO 081400Z 23007KT 140V310 CAVOK 32/08 Q1018 NOSIG=
METAR LFQQ 081400Z 21007KT 160V300 CAVOK 32/11 Q1018 NOSIG=
METAR LFRB 081400Z VRB03KT 9999 FEW033 26/08 Q1018 NOSIG=
METAR LFRS 081400Z 26006KT 210V310 CAVOK 32/13 Q1017 NOSIG=
####018000102####
SPEO32 EETN 081407
SPECI EETU 081407Z 30003KT 260V330 9999 TS FEW025CB SCT030 BKN120
22/20 Q1013=
####018000074####
SAAF18 LFPW 081400
METAR FIMP 081400Z 13014KT 9999 SCT016 22/16 Q1021=
####018000181####
SAAF17 LFPW 081400
METAR HLLB 081350Z 35018KT 9999 FEW025 30/18 Q1016=
METAR HLLS 081350Z O6O1OKT CAVOK  37/O9 Q1O15=
METAR HLLT 081350Z 36011KT 330V040 8000 SKC  31/18 Q1018=
####018000080####
SAMF20 TFFR 081400
METAR TFFR 081405Z 10014KT 9999 BKN030 31/24 Q1015 NOSIG=
####018000089####
SAAF05 LFPW 081400
METAR DNMM 081400Z 26013KT 9999 BKN012 FEW020CB 29/26 Q1014 NOSIG=
####018000597####
SAEW31 LEMM 081400
METAR LEMD 081400Z 32008KT 270V350 9999 SCT035CB 32/13 Q1018   WS
ALL RWY NOSIG=
METAR LEBL 081400Z 20013KT CAVOK 29/19 Q1019 NOSIG=
METAR LEPA 081400Z 23013KT CAVOK 30/16 Q1020 NOSIG=
METAR LEZL 081400Z 21007KT 140V280 9999 FEW030 33/15 Q1015 NOSIG=
METAR LEMG 081400Z 16009KT 110V210 9999 FEW040 29/15 Q1017 NOSIG=
METAR LEVC 081400Z 13012KT CAVOK 32/11 Q1018 NOSIG=
METAR LEAL 081400Z 10010KT 060V140 CAVOK 30/17 Q1019 NOSIG=
METAR LEIB 081400Z 08006KT 020V140 CAVOK 29/20 Q1019 NOSIG=
METAR LELC 081400Z NIL=
METAR LEVX 081400Z 03005KT 8000 FEW030 22/18 Q1016=
####018000086####
SPUS31 KWBC 081409
SPECI
KMCI 081406Z 05007KT 3SM BR BKN006 OVC015 24/23 A3011=
####018000081####
SAUS41 KWBC 081400 RRB
METAR
KDOV 081355Z VRB04KT 10SM SCT120 27/22 A3002=
####018001623####
SAEU KAWN 081400 RRT
METAR LEBG 081400Z 14010KT 9999 SCT048 31/12 Q1020=
METAR LFKC 081400Z 36011KT 330V030 9999 FEW010 FEW043TCU 29/22 Q1019
      NOSIG=
METAR LICZ 081355Z 08019KT 9999 FEW020 30/19 Q1017 RMK FEW VIS MIN
      9999 WIND THR28 //////KT BLU=
METAR LIMH 081355Z 10001KT 9999 FEW000TCU 08/00 Q1040 RMK SCT MON CLD
      SCT VAL S CLD SCT VIS MIN 9999=
METAR LIMU 081355Z 13003KT 9999 FEW030 29/25 Q1020 RMK SCT QUK 2 QUL
      1 E VIS MAR 20 KM VIS MIN 9999=
METAR LIMV 081355Z 34008KT 7000 SCT012 25/18 Q1022 RMK SCT MON LIB
      NC VAL FOSCHIA VIS MIN 7000=
METAR LIMY 081355Z /////KT 9000 SCT026 SCT046 24/16 Q1023 RMK BKN VAL
      FOSCHIA VIS MIN 9000=
METAR LIQN 081350Z 32005KT 9999 SCT045 30/17 Q1020 RMK VIS MIN 9999=
METAR LIRE 081355Z 24008KT 9999 FEW020 28/20 Q1019 RMK FEW VIS MIN
      9999 WIND THR31 23009KT BLU=
METAR LIRH 081355Z 35006KT 9999 FEW035CB SCT040 30/20 Q1019 RMK BKN
      MON LIB NC VIS MIN 9999 WIND THR16 30010KT BLU=
METAR LIVD 081355Z 00000KT CAVOK 25/07 Q1023 RMK SKC VIS MIN 9999=
METAR LIVE 081355Z 19006KT CAVOK 22/11 Q1024 RMK SKC VIS MIN 9999=
METAR LIVF 081355Z 05004KT CAVOK 27/07 Q1022 RMK SKC MON LIB VAL NIL
      VIS MIN 9999=
METAR LIVM 081355Z 13010KT CAVOK 28/22 Q1021 RMK SKC QUK 2 QUL 1 SE
      VIS MAR 30 KM VIS MIN 9999=
METAR LIVO 081355Z 15003KT 9999 FEW040 26/12 Q1021 RMK FEW VIS MIN
      9999=
METAR LIVR 081355Z /////KT 9999 FEW030 18/15 Q1028 RMK FEW MON CLD
      CIME VIS MIN 9999=
METAR LIVT 081355Z 25001KT CAVOK 26/16 Q1021 RMK SKC QUK 1 QUL 0 VIS
      MAR 20 KM VIS MIN 9999=
####018001591####
SAZZ40 KAWN 081400 RRO
METAR CWAE 081400Z 00000KT 15SM SKC 12/09 A3013 RMK SLP192=
METAR CYBR 081400Z 28006KT 15SM SCT050 BKN280 15/12 A3011 RMK CU3CI1
      SLP202=
METAR CYPC 081400Z 30018KT 15SM BKN012 BKN090 06/03 A2993 RMK SC6AC1
      SLP136=
METAR DAAY 081400Z 33010KT 9999 FEW033 38/10 Q1024=
METAR DAOR 081400Z 29005KT CAVOK 40/05 Q1022=
METAR DAUI 081400Z 07016KT 8000 NSC 46/08 Q1012=
METAR KNID 081356Z 00000KT 10SM CLR 22/04 A2989 RMK AO2 SLP100 T02170039
      $=
METAR KNUQ 081356Z AUTO 04003KT 10SM OVC011 15/12 A2994 RMK AO2 SLP141
      T01500122 TSNO=
METAR KNXP 081356Z AUTO 29009KT CLR 25/00 A2994 RMK AO2 SLP100 T02500000
      $=
METAR KVBG 081355Z 32004KT 4SM BR OVC004 12/11 A2995 RMK AO2 CIG 002V006
      SLP132 T01170111 $=
METAR MRLB 081400Z 15005KT 9999 DZ FEW005 SCT012 BKN080 24/23 A2989=
METAR MRLM 081400Z 20003KT 9999 FEWEW010 BKN110 25/23 A2988 RMK RN
      DST NW=
METAR MRPV 081400Z 00000KT 9999 4000W BR BKN120 22/18 A3001 RMK DUST
      APCH RNY 09 TNG FG SW W NW TEMPO 24004KT=
METAR TFFR 081405Z 10014KT 9999 BKN030 31/24 Q1015 NOSIG=
METAR TTCP 081400Z 09014KT 9999 -TSRA FEW010CB SCT015 BKN080 29/24
      Q1014 TEMPO TSRA=
METAR TXKF 081355Z 12015KT 9999 SCT020CB SCT033 BKN130 BKN300 27/24
      Q1019 RMK CB DSNT SE-SW /=
METAR ZBHH 081400Z 07001MPS 9999 FEW040 FEW040TCU 25/11 Q1009 NOSIG=
METAR ZHHH 081400Z 07004MPS 9999 -RA SCT010 BKN030 25/25 Q1004 NOSIG=
METAR ZSNJ 081400Z 13001MPS 2000 BR BKN020 27/23 Q1004 NOSIG=
METAR ZUCK 081400Z VRB01MPS 3000 BR NSC 28/25 Q1003 NOSIG=
####018000137####
SAIY43 LIIB 081400 RRA
METAR LIBN 081355Z 35023G33KT CAVOK 25/11 Q1017 RMK FEW FEW200 VIS
      MIN 9999 WIND THR14 34020G32KT BLU=
####018000107####
SAUS42 KWBC 081400 RRB
METAR
KGLE 081404Z AUTO 15007KT 10SM BKN010 BKN015 OVC024 26/23
     A3008=
####018000386####
SAUS43 KWBC 081400 RRB
METAR
K1H2 081405Z AUTO 24007KT 10SM SCT043 29/24 A3005=
KAAA 081403Z AUTO 30003KT 10SM OVC010 24/23 A3005=
KC09 081404Z AUTO 00000KT 7SM OVC023 23/22 A3003=
KIKK 081405Z AUTO 22003KT 7SM BKN008 OVC033 28/24 A3003=
KLOT 081401Z AUTO 00000KT 5SM BR BKN023 BKN029 24/23 A3003=
KPPQ 081405Z AUTO 00000KT 10SM SCT005 BKN011 BKN024 24/23
     A3008=
####018000098####
SAUS44 KWBC 081400 RRB
METAR
K11R 081404Z AUTO 10010KT 4SM +TSRA SCT014 SCT021 25/23 A3000=
####018000568####
SARA32 RUMS 081400
METAR UHHH 081400Z 02003MPS 9999 SCT023CB OVC100 16/15 Q1011 NOSIG
RMK QFE752/1002 55090060=
METAR UHMA 081400Z NIL=
METAR UHMM 081400Z 24001MPS 9999 OVC009 12/11 Q1016 RMK QFE747
88010070=
METAR UHMP 081400Z NIL=
METAR UHNN 081400Z 07002MPS 9999 FEW010 BKN024CB OVC070 11/10 Q1013
RMK QFE755=
METAR UHPP 081400Z NIL=
METAR UHSH 081400Z NIL=
METAR UHSS 081400Z 00000MPS 9999 BKN016 13/13 Q1011 RMK MT OBSC
QFE757/1009=
METAR UHWW 081400Z 12001MPS 9999 SCT013 BKN023CB OVC100 16/15 Q1011
NOSIG RMK QFE757/1010 75CLRD70=
####018000708####
SARA36 RUMS 081400
METAR UWUU 081400Z 35005MPS CAVOK 28/10 Q1014 82010060 NOSIG RMK
QFE750/1000=
METAR USCC 081400Z 35005G08MPS CAVOK 24/02 Q1013 NOSIG RMK QFE740
27000070=
METAR USDD 081400Z 05009G12MPS CAVOK 16/00 Q1015 NOSIG RMK
QFE755/1007 SC060=
METAR USMU 081400Z 02005MPS 9999 SCT037CB BKN066 15/13 Q1007 NOSIG
RMK QFE749 09250345=
METAR USNN 081400Z 13002MPS P6000 SCT026 17/11 Q1004 NOSIG RMK QFE748
SC065=
METAR USRK 081400Z 35004MPS 6000 BKN024CB OVC066 14/11 Q1004 NOSIG
RMK QFE747 351///55=
METAR USRR 081400Z 34003MPS 7000 OVC012 13/10 Q1005 TEMPO BKN007 RMK
QFE748 25////60=
METAR USSS 081400Z 36005G08MPS 330V030 CAVOK 25/00 Q1014 NOSIG RMK
QFE740 260///70=
####018000862####
SARA34 RUMS 081400
METAR UNAA 081400Z VRB01MPS 9999 SCT030CB BKN100 17/13 Q1012 NOSIG
RMK QFE736 022///55=
METAR UNBB 081400Z 14002MPS 9999 SCT040 SCT100 14/11 Q1009 NOSIG RMK
QFE735=
METAR UNEE 081400Z 22004MPS 9999 SCT033CB BKN066 OVC200 16/10 Q1009
NOSIG RMK QFE734 23CLRD60=
METAR UNKL 081400Z VRB02MPS 9999 SCT028CB BKN083 13/12 Q1011 NOSIG
RMK QFE732 29////55=
METAR UNNT 081400Z VRB02MPS 9999 BKN055CB BKN100 18/05 Q1007 NOSIG
RMK QFE745/0994 25090070=
METAR UNOO 081400Z 30004G07MPS 9999 BKN030CB 14/09 Q1008 NOSIG
25CLRD06 RMK QFE747=
METAR UNWW 081400Z 14002MPS 9999 SCT026 OVC130 13/09 Q1011 NOSIG RMK
QFE731 19CLRD70=
METAR USTR 081400Z 33002MPS CAVOK 19/07 Q1012 NOSIG RMK QFE749/0999
30CLRD65=
METAR USHH 081400Z 33003G07MPS 250V010 9999 -SHRA BKN010CB OVC080
10/09 Q1009 TEMPO 3000 BR BKN006 RMK QFE753 SC06=
####018000081####
SAEW34 LEMM 081400 RRA
METAR LEDA 081400Z 17007KT 120V210 CAVOK 38/14 Q1018=
####018000367####
SATH33 VTBB 081400
METAR VTUD 081400Z NIL=
METAR VTUI 081400Z NIL=
METAR VTUK 081400Z NIL=
METAR VTUU 081400Z 18003KT 9999 FEW023 BKN300 31/23 Q1007 A2976
           NOSIG=
METAR VTUL 081400Z NIL=
METAR VTUO 081400Z NIL=
METAR VTUW 081400Z NIL=
METAR VTUQ 081400Z NIL=
METAR VTUV 081400Z NIL=
METAR VTUJ 081400Z NIL=
METAR VTBO 081400Z NIL=
####018000481####
SARA31 RUMS 081400
METAR UEEE 081400Z 04003MPS 9999 SCT050CB OVC100 16/15 Q1008 NOSIG
RMK QFE748 23290150=
METAR UELL 081400Z VRB01MPS 0800 FG FEW030 BKN200 12/11 Q1012 TEMPO
0400 VV002 RMK QFE684 08290050=
METAR UERP 081400Z 03004MPS 9999 SCT040 12/06 Q1015 NOSIG RMK QFE717
35090065=
METAR UERR 081400Z VRB02MPS CAVOK 14/14 Q1012 NOSIG RMK QFE728
24CLRD60=
METAR UESO 081400Z NIL=
METAR UEST 081400Z 19002MPS 9999 -RA OVC130 05/03 Q1018 NOSIG RMK
QFE762=
####018001730####
SAIY42 LIIB 081400
METAR LIBF 081350Z 33018KT CAVOK 28/07 Q1019 RMK VIS MIN 9999=
METAR LIEA 081350Z 28004KT 210V320 9999 FEW025 33/22 Q1019 RMK VIS
MIN 9999=
METAR LIED 081355Z 15020KT 9999 SCT018 32/16 Q1017 RMK SCT VIS MIN
9999 BLU=
METAR LIEO 081350Z 05010KT CAVOK 31/21 Q1019 RMK VIS MIN 9999=
METAR LIMA 081350Z 00000KT 9999 FEW035 28/16 Q1021 RMK VIS MIN 9999=
METAR LIQN 081350Z 32005KT 9999 SCT045 30/17 Q1020 RMK VIS MIN 9999=
METAR LIQO 081355Z 19004KT 9999 SCT003 28/21 Q1022 RMK SCT VAL NIL NC
VIS MIN 9999=
METAR LIQW 081355Z 20003KT 9999 FEW025 30/21 Q1020 RMK FEW VIS MIN
9999 BLU=
METAR LIRE 081355Z 24008KT 9999 FEW020 28/20 Q1019 RMK FEW VIS MIN
9999 WIND THR31 23009KT BLU=
METAR LIRG 081355Z 23010KT 9999 FEW030CB SCT033TCU 32/19 Q1019 RMK
SCT MON NE LIB NC VIS MIN 9999 BLU=
METAR LIRH 081355Z 35006KT 9999 FEW035CB SCT040 30/20 Q1019 RMK BKN
MON LIB NC VIS MIN 9999 WIND THR16 30010KT BLU=
METAR LIRI 081350Z 04004KT CAVOK 30/11 Q1018 RMK VIS MIN 9999=
METAR LIRK 081355Z 13008KT CAVOK 16/14 Q1027 RMK SCT SCT060 MON NE
LIB NC VAL NIL NC VIS MIN 9999=
METAR LIRL 081355Z 24009KT 9999 FEW020 30/17 Q1019 RMK FEW MON LIB NC
VIS MIN 9999 BLU=
METAR LIRM 081355Z 13005KT 9999 FEW020 30/15 Q1019 RMK FEW VIS MIN
9999 WIND THR06 07004KT BLU=
METAR LIRS 081355Z 22012KT 9999 FEW040 30/19 Q1019 RMK FEW VIS MIN
9999 WIND THR21 /////KT BLU=
METAR LIRT 081355Z 35010KT CAVOK 18/05 Q1023 RMK SKC MON LIB VAL NIL
VIS MIN 9999=
METAR LIRU 081350Z 26010KT 9999 FEW040 30/17 Q1020 RMK VIS MIN 9999=
METAR LIRV 081355Z 26011KT 9999 SCT032 28/22 Q1020 RMK SCT MON E SE
LIB NC VIS MIN 9999 BLU=
METAR LIRX 081400Z NIL=
METAR LIRZ 081350Z 01009KT 330V050=
####018000907####
SARS32 RUMS 081400
METAR URKA 081400Z 06004MPS 9999 SCT026 29/20 Q1011 NOSIG RMK  065=
METAR URKK 081400Z 06006G09MPS CAVOK 30/20 Q1010 NOSIG RMK QFE755
SC070=
METAR URKM 081400Z 08004MPS 9999 SCT040 BKN100 29/17 Q1011 NOSIG RMK
QFE740=
METAR URML 081400Z 10005MPS 9999 FEW100 31/21 Q1012 NOSIG RMK QFE759
/ 07=
METAR URMM 081400Z 13004G07MPS 9999 BKN046 30/19 Q1012 NOSIG RMK 
 0M-200 / SC070=
METAR URMN 081400Z 08002MPS 9999 BKN032CB BKN110 28/18 Q1013 NOSIG
RMK / QFE723 SC07=
METAR URMT 081400Z 06005G08MPS 9999 SCT026CB BKN100 29/17 Q1014 NOSIG
RMK QFE720 SC07=
METAR URRR 081400Z 00000MPS 9999 FEW040 31/14 Q1013 NOSIG RMK SC070=
METAR URSS 081400Z 28003MPS 9999 FEW040 28/21 Q1008 NOSIG RMK /
QFE755 06CLRD70=
METAR URWA 081400Z 00000MPS CAVOK 37/12 Q1010 NOSIG RMK SC07=
METAR URWI 081400Z NIL=
METAR URWW 081400Z 34003MPS CAVOK 31/13 Q1013 NOSIG RMK SC070=
####018000379####
SARA35 RUMS 081400
METAR ULDD 081400Z NIL=
METAR UOHH 081400Z 06003MPS 9999 CAVOK 15/04 Q1023 NOSIG RMK QFE761=
METAR UOII 081400Z 00000MPS 9999 BKN026CB BKN100 18/17 Q1008 TEMPO
-TSRA RMK QFE753 12////60=
METAR UOOO 081400Z 03008G10MPS CAVOK 19/10 Q1010 NOSIG RMK QFE743
010///60=
METAR USCM 081400Z VRB02MPS 9999 FEW200 27/01 Q1014 NOSIG 01090065
RMK QFE722=
####018000466####
SARS33 RUMS 081400
METAR ULLI 081400Z 20002MPS 110V230 9999 SCT046CB BKN066 BKN200 27/18
Q1013 TEMPO TSRA=
METAR UUDD 081400Z 15005MPS 130V200 9999 FEW050TCU BKN200 29/15 Q1015
TEMPO VRB12MPS TSRA=
METAR UUEE 081400Z 16005MPS 9999 SCT050CB BKN200 29/13 Q1015 NOSIG=
METAR UUEM 081400Z NIL=
METAR UUWW 081400Z 17003MPS 120V210 CAVOK 28/15 Q1014 24000070 NOSIG=
METAR UUMO 081400Z 15003G06MPS 090V180 CAVOK 27/16 Q1015 NOSIG RMK
QFE746/0995 SC060=
####018000389####
SARA33 RUMS 081400
METAR UIAA 081400Z VRB02MPS 9999 VCTS SCT033CB OVC100 18/16 Q1008
NOSIG RMK     QFE698 29CLRD70=
METAR UIBB 081400Z 04003MPS 9999 BKN200 22/13 Q1006 NOSIG RMK
QFE712/0949 30CLRD60=
METAR UIII 081400Z 17004MPS CAVOK 17/10 Q1007 NOSIG RMK QFE713/0951
12CLRD60=
METAR UIUU 081400Z 00000MPS 9999 SCT033CB OVC100 20/15 Q1008 NOSIG
RMK QFE712/0949 26CLRD60=
####018000379####
SAME31 OLBA 081400
METAR OLBA 081400Z 24008KT 220V280 8000 FEW070 SCT200 28/19
     Q1011 NOSIG=
METAR OSDI 081400Z 24018KT CAVOK 37/08 Q1008=
METAR OSAP 081400Z 29016KT CAVOK 33/16 Q1006=
METAR OSLK 081400Z 23006KT 9999 SCT030 28/19 Q1009=
METAR OJAI NIL=
METAR OJAM 081400Z 29008KT 5000 HZ NSC 32/08 Q1011 NOSIG=
METAR OJAQ 081400Z 35014KT CAVOK 40/30 Q1005=
####018000928####
SARS31 RUMS 081400
METAR ULAA 081400Z 30004MPS 260V340 9999 FEW033 27/17 Q1016 TEMPO
VRB14MPS TSRA RMK QFE760/1014 SC070=
METAR ULKK 081400Z NIL=
METAR ULMM 081400Z 08004MPS 9999 SCT026 BKN080 16/09 Q1017 NOSIG RMK
QFE755 32190060=
METAR ULOL 081400Z NIL=
METAR ULOO 081400Z 32004MPS 5000 -TSRA BKN013CB OVC200 23/18 Q1012
NOSIG RMK QFE755=
METAR ULWW 081400Z 17004MPS 9999 SCT050TCU OVC/// 31/15 Q1016 NOSIG
RMK QFE751 15CLRD60=
METAR UMKK 081400Z 32007MPS P8000 FEW030 SCT200 22/13 Q1020 NOSIG RMK
QFE 764 SC07=
METAR UUBP 081400Z 08002MPS 9999 SCT033TCU SCT/// 26/19 Q1013 NOSIG=
METAR UUOB 081400Z 35003MPS 9999 BKN040CB BKN070 25/17 Q1015 NOSIG
RMK SC065=
METAR UUOK 081400Z 00000MPS 9999 BKN040 28/18 Q1012 NOSIG=
METAR UUOO 081400Z 00000MPS 9999 SCT033 BKN100 28/15 Q1014 NOSIG RMK
13090070=
METAR UWGG 081400Z 12003MPS 100V170 8000 FEW033 34/08 Q1015 NOSIG RMK
QFE754 18090070=
####018001455####
SAIY43 LIIB 081400
METAR LIBA 081355Z /////KT CAVOK 29/09 Q1019 RMK FEW FEW200 VIS MIN
      9999 WIND THR29 30012KT 260V010 BLU=
METAR LIBC 081350Z 04018KT CAVOK 27/10 Q1017 RMK VIS MIN 9999=
METAR LIBD 081350Z 01016KT CAVOK 25/11 Q1020 RMK VIS MIN 9999=
METAR LIBG 081350Z 36016KT 320V040 CAVOK 27/09 Q1017 RMK VIS MIN
9999=
METAR LIBN 081400Z NIL=
METAR LIBP 081350Z 05005KT 350V110 CAVOK 26/08 Q1021 RMK VIS MIN
9999=
METAR LIBQ 081355Z 30006KT 9999 FEW008TCU SCT009 17/12 Q1024 RMK SCT
      MON LIB VAL NIL VIS MIN 9999=
METAR LIBR 081345Z /////KT CAVOK 26/14 Q1018 NOSIG RMK SKC VIS MIN
      9999 WIND THR13 WIND THR31 33020KT=
METAR LIBV 081355Z 01018KT CAVOK 25/12 Q1017 RMK SKC VIS MIN 9999
      WIND THR14 35016KT BLU=
METAR LICA 081350Z 29014KT 9999 FEW030 29/17 Q1017 RMK VIS MIN 9999=
METAR LICC 081350Z 11014KT CAVOK 28/20 Q1017 RMK VIS MIN 9999=
METAR LICD 081350Z 02009KT CAVOK 26/19 Q1018 RMK VIS MIN 9999=
METAR LICG 081355Z 01005KT 9999 FEW010 24/22 Q1019 RMK FEW VIS MIN
      9999 WIND THR08 36007KT WIND THR21 02006KT BLU=
METAR LICJ 081350Z 04014KT 9999 FEW018 28/23 Q1018 RMK VIS MIN 9999=
METAR LICR 081350Z 22006KT 200V270 9999 SCT025 27/20 Q1018 RMK VIS
MIN 9999=
METAR LICT 081355Z 33012KT 9999 FEW022 30/26 Q1017 RMK FEW VIS MIN
      9999 WIND THR13 33010KT BLU=
METAR LICZ 081355Z 08019KT 9999 FEW020 30/19 Q1017 RMK FEW VIS MIN
      9999 WIND THR28 //////KT BLU=
####018000271####
SARS34 RUMS 081400
METAR UUYH 081400Z 18002MPS CAVOK 27/11 Q1015 NOSIG RMK QFE 750
18CLRD60=
METAR UUYS 081400Z 17003MPS CAVOK 21/06 Q1014 NOSIG RMK QFE754
14CLRD60=
METAR UUYY 081400Z VRB02MPS 9999 FEW036 OVC200 30/15 Q1015 NOSIG
19CLRD61 RMK QFE752/1003=
####018000789####
SAAO32 GOOY 081400
METAR GABS 081400Z VRB03KT 9999 SCT030 33/21 Q1014 NOSIG=
METAR GGOV 081400Z 18006KT 130V240 9999 SCT015TCU FEW020CB 31/24
                   Q1013 TEMPO TS=
METAR GOOY 081400Z 15009KT 120V210 9999 SCT013 31/25 Q1012 NOSIG=
METAR DIAP 081400Z 22008KT 180V260 8000 SCT012 SCT070 29/25 Q1013
NOSIG=
METAR GQNN 081400Z 21012KT 6000 R05//////N NSC 32/21 Q1012 NOSIG=
METAR GQPP 081400Z 15009KT CAVOK 27/19 Q1012 NOSIG=
METAR GUCY 081400Z 20010KT 9999 SCT016 30/25 Q1013=
METAR GVAC 081400Z 07009KT 9999 BKN015 BKN018 25/20 Q1013 NOSIG=
METAR GFLL 081400Z 23008KT 9999 SCT012 F
CHECK
TEXT
NEW ENDING ADDED GOOOYFYX=
METAR GBYD 081400Z 24006KT 9999 TS BKN012 FEW019CB 32/26 Q1012=
METAR GLRB 081400Z 20006KT 9999 BKN020 30/24 Q1013 NOSIG=

####018001009####
SAYE20 OYSC 081400
METAR OYAA 081400Z NIL=
METAR OYAG 081400Z 08017KT 9999 BKN025 28/24 Q1001=
METAR OYAM 081400Z NIL=
METAR OYAR 081400Z 06006KT 4000 DU SCT030 26/03 Q////=
METAR OYAS 081400Z 18006KT 6000 NSC 35/21 Q1003=
METAR OYAT 081400Z 14012KT CAVOK 37/11 Q0998=
METAR OYDM 081400Z 02013KT 6000 FEW030 SCT045 28/M00 Q////=
METAR OYHD 081400Z 28007KT 8000 NSC 34/28 Q1000=
METAR OYIB 081400Z 29006KT 5000 DU SCT025 27/17 Q1015=
METAR OYKD 081300Z 19008KT 8000 NSC 34/23 Q////=
METAR OYMB 081400Z 02021KT 2000 SA FEW030 40/M07 Q1003=
METAR OYMK 081400Z 32004KT CAVOK 33/29 Q////=
METAR OYMT 081400Z 36004KT 6000 SCT030 24/17 Q////=
METAR OYRN 081400Z 20012KT 6000 NSC 29/25 Q1001=
METAR OYSD 081400Z 09008KT 5000 DU SCT030 28/M04 Q////=
METAR OYSH 081400Z NIL=
METAR OYSN 081400Z 03013KT 4000 DU SCT030 29/M02 Q1020=
METAR OYSQ 081400Z NIL=
METAR OYSY 081400Z 07008KT 040V110 9000 FEW030TCU SCT200 42/09 Q1000=
METAR OYTZ 081400Z 33012KT 9999 SCT030 28/15 Q1008=
####018000906####
SARS32 RUMS 081400
METAR URKA 081400Z 06004MPS 9999 SCT026 29/20 Q1011 NOSIG RMK  065=
METAR URKK 081400Z 06006G09MPS CAVOK 30/20 Q1010 NOSIG RMK QFE755
SC070=
METAR URKM 081400Z 08004MPS 9999 SCT040 BKN100 29/17 Q1011 NOSIG RMK
QFE740=
METAR URML 081400Z 10005MPS 9999 FEW100 31/21 Q1012 NOSIG RMK QFE759
/ 07=
METAR URMM 081400Z 13004G07MPS 9999 BKN046 30/19 Q1012 NOSIG RMK
 0M-200 / SC070=
METAR URMN 081400Z 08002MPS 9999 BKN032CB BKN110 28/18 Q1013 NOSIG
RMK / QFE723 SC07=
METAR URMT 081400Z 06005G08MPS 9999 SCT026CB BKN100 29/17 Q1014 NOSIG
RMK QFE720 SC07=
METAR URRR 081400Z 00000MPS 9999 FEW040 31/14 Q1013 NOSIG RMK SC070=
METAR URSS 081400Z 28003MPS 9999 FEW040 28/21 Q1008 NOSIG RMK /
QFE755 06CLRD70=
METAR URWA 081400Z 00000MPS CAVOK 37/12 Q1010 NOSIG RMK SC07=
METAR URWI 081400Z NIL=
METAR URWW 081400Z 34003MPS CAVOK 31/13 Q1013 NOSIG RMK SC070=
####018000081####
SAUS72 KWBC 081400 RRD
METAR
TNCM 081400Z 07013KT 9999 SCT021 30/23 Q1016=
####018000092####
SAUS73 KWBC 081400 RRD
METAR
KIKK 081405Z AUTO 22003KT 7SM BKN008 OVC033 28/24 A3003=
####018000086####
SPUS73 KWBC 081409
SPECI
KMCI 081406Z 05007KT 3SM BR BKN006 OVC015 24/23 A3011=
####018000535####
SPUS17 KAWN 081409
SPECI KFSI 081404Z AUTO 02008KT 10SM BKN010 OVC015 26/22 A3006 RMK
      AO2 CIG 008V013 SLP164=
SPECI KFSI 081405Z AUTO 01007KT 10SM BKN009 BKN014 26/22 A3006 RMK
      AO2 CIG 008V012 BKN009 V SCT SLP164=
SPECI KFSI 081406Z AUTO 02007KT 10SM SCT009 BKN014 26/22 A3006 RMK
      AO2 CIG 013V018 BKN V OVC SLP164=
SPECI KLTS 081400Z AUTO 35006KT 10SM -RA SCT006 23/23 A3010 RMK AO2
      SLP176 VISNO RWY35L CHINO RWY35L $=
SPECI KLTS 081405Z 35006KT 10SM -RA SCT006 OVC040 23/23 A3009 RMK AO2A=
####018000221####
SAXX70 KAWN 081400 RRI
METAR KQOW 081355Z AUTO RMK AO2 SLPNO $=
METAR KQEX 081400Z AUTO 23005KT 3SM BR FEW100 25/20 A2978 RMK A02=
METAR KQFT 081400Z AUTO 13001KT 2SM BR FEW022 BKN027 22/20 A2987 RMK
      A02=
####018000398####
SAIR37 OIII 081400
METAR OIBQ 081400Z 00000KT CAVOK 36/26 Q0998 A2947=
METAR OIIK 081400Z 11012KT CAVOK 39/00 Q1012 A2991=
METAR OIMC 081400Z 01008KT CAVOK 41/10 Q1007 A2974=
METAR OIMD 081400Z 09010KT CAVOK 38/M00 Q1008 A2979=
METAR OIMQ 081400Z 08014KT CAVOK 38/04 Q1012 A2989=
METAR OISR 081400Z NIL=
METAR OITK 081400Z NIL=
METAR OITM 081400Z 27004KT CAVOK 37/08 Q1012 A2988=
####018000094####
SPUS81 KWBC 081409
SPECI
KHLR 081406Z AUTO 03006KT 10SM BKN012 BKN023 OVC045 26/ A3003=
####018000120####
SAUS90 KWBC 081410
METAR KNEL 081406Z AUTO 16007KT 7SM BKN012 OVC095 27/21 A3004 RMK
     AO2 SLP172 T02720211 $=
####018000121####
SPUS90 KWBC 081410
SPECI KNYC 081408Z AUTO VRB04KT 5SM -RA BR FEW018 BKN032 25/23
     A3008 RMK AO2 P0000 TSNO $=
####018000284####
SAUS20 KNKA 081409
SPECI KSSF 081408Z 05007KT 10SM FEW012 SCT022 SCT027 27/23 A2994 RMK 
    AO2=
METAR KSWW 081405Z AUTO 03003KT 1 1/4SM OVC004 22/21 A3013 RMK 
     AO1 T02180214=
METAR KT65 081405Z AUTO 02007KT 10SM BKN009 OVC090 28/25 A2981 
     RMK AO2 T02750253=
####018002933####
SAUS20 KNKA 081409
METAR KC75 081407Z AUTO 00000KT 10SM SCT006 SCT010 OVC019 24/23 
     A3005 RMK AO2=
SPECI KFLD 081408Z AUTO 31008KT 10SM SCT015 25/21 A3002 RMK AO2=
SPECI KGRR 081408Z 00000KT 3SM BR BKN008 BKN046 OVC095 24/22 A3003 
    RMK AO2 RAE1354=
SPECI KIAH 081408Z 09007KT 7SM RA FEW007 SCT022 BKN075 OVC130 24/24 
    A2999 RMK AO2 TSE08 TS MOV NW CB DSNT NW-N MOV NW P0003=
METAR KJDD 081405Z AUTO 00000KT 7SM SCT008 26/25 A3007 RMK AO2=
METAR KJOT 081407Z AUTO 00000KT 5SM BR CLR 24/23 A3003 RMK AO2=
METAR KJSO 081410Z AUTO 10005KT 7SM SCT006 SCT050 BKN110 25/24 
     A3007 RMK AO2 T02500240=
METAR KJWY 081405Z AUTO 12004KT 7SM 26/23 A3005 RMK AO2 T02600227=
METAR KJXI 081405Z AUTO 11003KT 26/24 A3008 RMK AO2=
METAR KLBR 081405Z AUTO 15005KT 10SM BKN007 BKN011 BKN055 26/23 
     A3007 RMK AO2 T02600230=
METAR KLHB 081404Z AUTO 07007KT 4SM HZ OVC011 27/24 A3001 RMK AO2 
     LTG DSNT SE T02660238=
METAR KLNC 081405Z AUTO 11004KT 10SM SCT008 BKN013 OVC080 26/24 
     A3005 RMK AO2 T02580240=
METAR KLUD 081405Z AUTO 12005KT 10SM BKN011 BKN029 26/22 A3007 
     RMK AO2 T02550224=
METAR KM30 081406Z AUTO 24005KT 10SM CLR 28/23 A3007 RMK AO2=
METAR KMDD 081400Z AUTO 05006KT 10SM OVC006 22/21 A3014 RMK AO2 
     T02200205=
SPECI KMHT 081408Z 16009KT 8SM BKN022 BKN045 27/21 A3007 RMK AO2=
METAR KMKN 081400Z AUTO 08005KT 10SM 25/23 A3007 RMK AO2=
METAR KMNZ 081410Z AUTO 09005KT 10SM OVC007 26/24 A3005 RMK AO2 
     T02550241=
METAR KMQB 081405Z AUTO 31006KT 10SM OVC008 24/22 A3009 RMK AO2 
     LTG DSNT SE T02350220=
METAR KOSA 081404Z AUTO 13007KT 10SM BKN008 26/24 A3008 RMK AO1 
     T02580240=
METAR KPEZ 081405Z AUTO 04007KT 10SM SCT011 BKN018 OVC033 26/23 
     A2994 RMK AO2 T02560231=
METAR KPKV 081406Z AUTO 05006KT 10SM SCT024 BKN042 OVC060 25/23 
     A2989 RMK AO2 T02450229=
METAR KPPA 081405Z AUTO 05008KT 10SM OVC005 19/18 A3022 RMK AO2=
METAR KPSN 081405Z AUTO 10006KT 7SM 26/24 A3005 RMK AO2 T02610242=
METAR KPYX 081410Z AUTO 32007KT 5SM OVC004 20/19 A3021 RMK AO2 
     T01950186=
METAR KRAS 081405Z AUTO 10007KT 7SM FEW044 28/26 A2988 RMK AO2=
METAR KRBO 081405Z AUTO 03008KT 10SM VCTS SCT090 SCT120 27/26 
     A2986 RMK AO2 T02680256=
METAR KRFI 081405Z AUTO 13005KT 5SM HZ BKN011 27/24 A3006 RMK AO2 
     T02660237=
METAR KRPH 081405Z AUTO 14005KT 10SM CLR 27/22 A3003 RMK AO2 
     T02660216=
METAR KRWV 081400Z AUTO 06004KT 5SM  BR OVC006 26/24 A3002 RMK AO2=
METAR KRYW 081405Z AUTO 07006KT 4SM BR OVC003 25/23 A3002 RMK AO2=
METAR KSAR 081405Z AUTO 22005KT 7SM CLR 28/24 A3006 RMK AO2 LTG 
     DSNT N=
METAR KSEP 081405Z AUTO 09006KT 7SM SCT006 SCT014 BKN034 24/22 
     A3006 RMK AO1=
METAR KSLR 081402Z AUTO 13006KT 7SM SCT012 OVC070 27/23 A3008 RMK 
     AO2 T02710230=
METAR KSNK 081406Z AUTO 05005KT 10SM BKN008 OVC011 22/21 A3013 
     RMK AO2 T02220206=
####018001760####
SAEU KAWN 081400 RRU
METAR COR LECV 081400Z 05004KT 9999 FEW060CB 31/14 Q1021=
METAR LIBA 081355Z /////KT CAVOK 29/09 Q1019 RMK FEW FEW200 VIS MIN
      9999 WIND THR29 30012KT 260V010 BLU=
METAR LIBC 081350Z 04018KT CAVOK 27/10 Q1017 RMK VIS MIN 9999=
METAR LIBD 081350Z 01016KT CAVOK 25/11 Q1020 RMK VIS MIN 9999=
METAR LIBG 081350Z 36016KT 320V040 CAVOK 27/09 Q1017 RMK VIS MIN 9999=
METAR LIBH 081355Z 35017G28KT CAVOK 29/09 Q1016 RMK SKC QUK 2 QUL 1
      NE VIS MAR 20 KM VIS MIN 9999=
METAR LIBP 081350Z 05005KT 350V110 CAVOK 26/08 Q1021 RMK VIS MIN 9999=
METAR LIBQ 081355Z 30006KT 9999 FEW008TCU SCT009 17/12 Q1024 RMK SCT
      MON LIB VAL NIL VIS MIN 9999=
METAR LIBR 081345Z /////KT CAVOK 26/14 Q1018 NOSIG RMK SKC VIS MIN
      9999 WIND THR13 WIND THR31 33020KT=
METAR LIBV 081355Z 01018KT CAVOK 25/12 Q1017 RMK SKC VIS MIN 9999 WIND
      THR14 35016KT BLU=
METAR LIBY 081355Z 35018G31KT CAVOK 25/08 Q1016 RMK SKC QUK 3 QUL 1
      N VIS MAR 20 KM VIS MIN 9999=
METAR LICA 081350Z 29014KT 9999 FEW030 29/17 Q1017 RMK VIS MIN 9999=
METAR LICC 081350Z 11014KT CAVOK 28/20 Q1017 RMK VIS MIN 9999=
METAR LICD 081350Z 02009KT CAVOK 26/19 Q1018 RMK VIS MIN 9999=
METAR LICF 081355Z 12001KT 9999 SCT030 FEW035CB 28/24 Q1017 RMK BKN
      QUK 1 QUL 0 VIS MAR 12 KM MON E CLD CIME NC MON W LIB NC VIS
      MIN 9999=
METAR LICG 081355Z 01005KT 9999 FEW010 24/22 Q1019 RMK FEW VIS MIN
      9999 WIND THR08 36007KT WIND THR21 02006KT BLU=
METAR LICJ 081350Z 04014KT 9999 FEW018 28/23 Q1018 RMK VIS MIN 9999=
METAR LICR 081350Z 22006KT 200V270 9999 SCT025 27/20 Q1018 RMK VIS
      MIN 9999=
METAR LICT 081355Z 33012KT 9999 FEW022 30/26 Q1017 RMK FEW VIS MIN
      9999 WIND THR13 33010KT BLU=
####018000086####
SAIR31 OIII 081400 RRA
METAR OIII 081400Z 15006KT CAVOK 40/M04 Q1012 A2989 877.5=
####018000085####
SPCN45 CWAO 081407
SPECI CYRT 081407Z 07014KT 3/4SM -DZ BR OVC001 RMK FG4ST4=

####018000078####
SPCN44 CWAO 081404
SPECI CYUS 081404Z AUTO ///// 9SM FEW089 14/ A2978=

####018001663####
SASA KAWN 081400 RRE
METAR SABE 081400Z 27008KT CAVOK 14/01 Q1019=
METAR SACO 081400Z 02018KT CAVOK 16/M16 Q1019=
METAR SAME 081400Z 36003KT CAVOK 09/M05 Q1015=
METAR SARI 081400Z 00000KT CAVOK 19/17 Q1019=
METAR SAWG 081400Z 29012KT CAVOK M03/M07 Q0991=
METAR SEGU 081400Z 19005KT 6000S 8000N -DZ FEW010 BKN020 OVC080 22/20
      Q1013 TEMPO 8000N NOSIG=
METAR SELT 081400Z VRB01KT 9999 FEW030 SCT300 12/07 Q1032=
METAR SEMT 081400Z 21004KT 9999 BKN020 BKN100 24/19 Q1013=
METAR SEQU 081400Z 33001KT 9999 FEW040 SCT300 16/08 Q1028 RMK A3036
      GUSTY 25004G16KT RWY17 NOSIG=
METAR SLCA 081400Z 18005KT 8000 BKN027 19/14 Q1020=
METAR SLCO 081400Z 34005KT 9999 FEW080 SCT200 29/24 Q1014=
METAR SLCP 081400Z 16005KT 9999 BKN007 OVC070 22/20 Q1018=
METAR SLET 081400Z 14010KT 9999 FEW015 BKN080 21/17 Q1016=
METAR SLJE 081400Z 21006KT 9999 SCT017 26/20 Q1018=
METAR SLJO 081400Z 00000KT 9999 FEW080 SCT200 30/23 Q1013=
METAR SLMG 081400Z 03004KT 9999 FEW080 29/22 Q1015=
METAR SLOR 081400Z 35006KT 9999 SKC 06/M02 Q1036=
METAR SLPO 081400Z 24008KT 9999 SKC 05/M06 Q1036=
METAR SLRB 081400Z 00000KT 9999 BKN017 25/19 Q1018=
METAR SLRI 081400Z 36006KT 8000 SKC 30/24 Q1013=
METAR SLRQ 081400Z 00000KT 9999 SCT006 OVC015 24/23 Q1014=
METAR SLRY 081400Z 00000KT 9999 BKN012 FEW023CB BKN070 24/23 Q1015=
METAR SLSA 081400Z 03004KT 9999 SCT017 FEW023CB SCT070 BKN200 28/24
      Q1013=
METAR SLSI 081400Z 18008KT 9999 FEW017 BKN070 25/21 Q1017=
METAR SLSU 081400Z 01007KT 9999 SCT015 13/08 Q1029=
METAR SLVM 081400Z 12008KT 9999 SCT020 18/15 Q1026=
METAR SLYA 081400Z 18006KT 9999 FEW023 BKN070 16/12 Q1021=
####018000084####
SPCN42 CWAO 081405
SPECI CYUA 081405Z AUTO 22009KT 9SM -RA OVC032 07/ A3005=

####018000125####
SAUS41 KOKX 081409
MTRNYC
SPECI KNYC 081408Z AUTO VRB04KT 5SM -RA BR FEW018 BKN032 25/23 A3008 
RMK AO2 P0000 TSNO $
####018002538####
SAUS99 KWBC 081410
METAR
KSWW 081405Z AUTO 03003KT 1 1/4SM OVC004 22/21 A3013 RMK AO1
     T02180214=
KT65 081405Z AUTO 02007KT 10SM BKN009 OVC090 28/25 A2981 RMK AO2
     T02750253=
KC75 081407Z AUTO 00000KT 10SM SCT006 SCT010 OVC019 24/23 A3005
     RMK AO2=
KJDD 081405Z AUTO 00000KT 7SM SCT008 26/25 A3007 RMK AO2=
KJOT 081407Z AUTO 00000KT 5SM BR CLR 24/23 A3003 RMK AO2=
KJSO 081410Z AUTO 10005KT 7SM SCT006 SCT050 BKN110 25/24 A3007 RMK
     AO2 T02500240=
KJWY 081405Z AUTO 12004KT 7SM 26/23 A3005 RMK AO2 T02600227=
KJXI 081405Z AUTO 11003KT 26/24 A3008 RMK AO2=
KLBR 081405Z AUTO 15005KT 10SM BKN007 BKN011 BKN055 26/23 A3007
     RMK AO2 T02600230=
KLHB 081404Z AUTO 07007KT 4SM HZ OVC011 27/24 A3001 RMK AO2 LTG
     DSNT SE T02660238=
KLNC 081405Z AUTO 11004KT 10SM SCT008 BKN013 OVC080 26/24 A3005
     RMK AO2 T02580240=
KLUD 081405Z AUTO 12005KT 10SM BKN011 BKN029 26/22 A3007 RMK AO2
     T02550224=
KM30 081406Z AUTO 24005KT 10SM CLR 28/23 A3007 RMK AO2=
KMDD 081400Z AUTO 05006KT 10SM OVC006 22/21 A3014 RMK AO2
     T02200205=
KMKN 081400Z AUTO 08005KT 10SM 25/23 A3007 RMK AO2=
KMNZ 081410Z AUTO 09005KT 10SM OVC007 26/24 A3005 RMK AO2
     T02550241=
KMQB 081405Z AUTO 31006KT 10SM OVC008 24/22 A3009 RMK AO2 LTG DSNT
     SE T02350220=
KOSA 081404Z AUTO 13007KT 10SM BKN008 26/24 A3008 RMK AO1
     T02580240=
KPEZ 081405Z AUTO 04007KT 10SM SCT011 BKN018 OVC033 26/23 A2994
     RMK AO2 T02560231=
KPKV 081406Z AUTO 05006KT 10SM SCT024 BKN042 OVC060 25/23 A2989
     RMK AO2 T02450229=
KPPA 081405Z AUTO 05008KT 10SM OVC005 19/18 A3022 RMK AO2=
KPSN 081405Z AUTO 10006KT 7SM 26/24 A3005 RMK AO2 T02610242=
KPYX 081410Z AUTO 32007KT 5SM OVC004 20/19 A3021 RMK AO2
     T01950186=
KRAS 081405Z AUTO 10007KT 7SM FEW044 28/26 A2988 RMK AO2=
KRBO 081405Z AUTO 03008KT 10SM VCTS SCT090 SCT120 27/26 A2986 RMK
     AO2 T02680256=
KRFI 081405Z AUTO 13005KT 5SM HZ BKN011 27/24 A3006 RMK AO2
     T02660237=
KRPH 081405Z AUTO 14005KT 10SM CLR 27/22 A3003 RMK AO2
     T02660216=
KRWV 081400Z AUTO 06004KT 5SM BR OVC006 26/24 A3002 RMK AO2=
KRYW 081405Z AUTO 07006KT 4SM BR OVC003 25/23 A3002 RMK AO2=
KSAR 081405Z AUTO 22005KT 7SM CLR 28/24 A3006 RMK AO2 LTG DSNT
     N=
KSEP 081405Z AUTO 09006KT 7SM SCT006 SCT014 BKN034 24/22 A3006 RMK
     AO1=
KSLR 081402Z AUTO 13006KT 7SM SCT012 OVC070 27/23 A3008 RMK AO2
     T02710230=
KSNK 081406Z AUTO 05005KT 10SM BKN008 OVC011 22/21 A3013 RMK AO2
     T02220206=
####018000444####
SPUS99 KWBC 081410
SPECI
KSSF 081408Z 05007KT 10SM FEW012 SCT022 SCT027 27/23 A2994 RMK
     AO2=
KFLD 081408Z AUTO 31008KT 10SM SCT015 25/21 A3002 RMK AO2=
KGRR 081408Z 00000KT 3SM BR BKN008 BKN046 OVC095 24/22 A3003 RMK
     AO2 RAE1354=
KIAH 081408Z 09007KT 7SM RA FEW007 SCT022 BKN075 OVC130 24/24
     A2999 RMK AO2 TSE08 TS MOV NW CB DSNT NW-N MOV NW P0003=
KMHT 081408Z 16009KT 8SM BKN022 BKN045 27/21 A3007 RMK AO2=
####018000156####
SPAU31 YBBN 081404
SPECI YPPH 081400Z 01011KT 9999 -SHRA FEW022 SCT042 13/13 Q0996
RMK WBD 0.3
INTER 1400/1700 29030G50KT 2000 TSGS BKN010 FEW030CB=
####018000440####
SAEW35 LEMM 081400
METAR LEAB 081400Z 15014KT CAVOK 35/M02 Q1021 NOSIG=
METAR LEBZ 081400Z 26011KT 210V310 CAVOK 36/13 Q1014=
METAR LELN 081400Z 15008KT 060V200 9999 FEW050TCU 32/09 Q1018=
METAR LESA 081400Z 17009KT 120V220 9999 FEW048 35/14 Q1017=
METAR LETO 081400Z 22005KT 9999 -SHRA FEW040 FEW060CB 34/07 Q1018
NOSIG=
METAR LEVD 081400Z 19015KT 160V230 CAVOK 35/06 Q1017=
METAR LEVS 081400Z 36010KT 320V040 CAVOK 29/13 Q1018=
####018000198####
SAEW36 LEMM 081400
METAR GCHI 081400Z 36012KT 330V040 9999 FEW022 23/17 Q1019=
METAR GCLA 081400Z 01012KT 340V050 9999 FEW020 26/18 Q1019=
METAR GEML 081400Z 10008KT 030V160 CAVOK 27/21 Q1016=
####018000342####
SACZ43 LKPW 081400
METAR LKCV 081400Z VRB02KT CAVOK 25/07 Q1022 NOSIG=
METAR LKKB 081400Z VRB02KT CAVOK 25/08 Q1022 NOSIG=
METAR LKLN 081400Z AUTO VRB03KT CAVOK 26/09 Q1022=
METAR LKNA 081400Z 34005KT CAVOK 23/08 Q1023 NOSIG=
METAR LKPD 081400Z VRB03KT CAVOK 26/05 Q1022 NOSIG=
METAR COR LKPO 081400Z 34003KT CAVOK 24/11 Q1022 NOSIG=
####018000792####
SAXX60 KWBC 081400 RRH
METAR
KNGP 081356Z COR 10007KT 7SM -RA FEW009 SCT016CB BKN025 27/26
     A2984 RMK AO2 RAB12 SLP105 CB DSNT NE AND SW TCU DSNT SE-S
     WR// P0007 T02730261 $=
KNID 081356Z 00000KT 10SM CLR 22/04 A2989 RMK AO2 SLP100 T02170039
     $=
KNXP 081356Z AUTO 29009KT CLR 25/00 A2994 RMK AO2 SLP100 T02500000
     $=
KVBG 081355Z 32004KT 4SM BR OVC004 12/11 A2995 RMK AO2 CIG 002V006
     SLP132 T01170111 $=
KNID 081356Z 00000KT 10SM CLR 22/04 A2989 RMK AO2 SLP100 T02170039
     $=
KNUQ 081356Z AUTO 04003KT 10SM OVC011 15/12 A2994 RMK AO2 SLP141
     T01500122 TSNO=
KNXP 081356Z AUTO 29009KT CLR 25/00 A2994 RMK AO2 SLP100 T02500000
     $=
KVBG 081355Z 32004KT 4SM BR OVC004 12/11 A2995 RMK AO2 CIG 002V006
     SLP132 T01170111 $=
####018000339####
SAEW34 LEMM 081400
METAR LEBA 081400Z 28008KT 240V310 9999 FEW050 36/14 Q1014=
METAR LEDA 081400Z NIL=
METAR LEJR 081400Z 22008KT 170V250 CAVOK 31/16 Q1015=
METAR LELL 081400Z 13007KT 090V170 CAVOK 31/13 Q1019=
METAR LEPP 081400Z 17011KT 150V210 9999 FEW064 36/13 Q1017=
METAR LEXJ 081400Z 25006KT 210V300 9999 FEW018 26/19 Q1016=
####018000117####
SPXX60 KWBC 081410
SPECI
KHLR 081406Z AUTO 03006KT 10SM BKN012 BKN023 OVC045 26/ A3003 RMK
     AO2 T0261 $=
####018000318####
SANM40 FYWW 081400
METAR FYKM 081400Z 09015KT CAVOK 24/08 Q1023=
METAR FYOA 081400Z 04012KT CAVOK 26/02 Q1019=
METAR FYRU 081400Z 05006KT CAVOK 25/03 Q1021=
METAR FYWB 081400Z 32011KT CAVOK 33/08 Q1016=
METAR FYWB 081400Z 32011KT CAVOK 33/08 Q1016=
METAR FYWH 081400Z AUTO 02010KT //// // ////// 21/M01 Q1026=
####018000106####
SPBO SLTR 081402
METAR SPECI SLTR 081402Z 15010KT 3000 -RA FEW008 SCT017 FEW020CB
OVC070 22/21 Q1015=
####018000087####
SAUS80 KWBC 081400 RRD
METAR
KMKN 081400Z AUTO 08005KT 10SM 25/23 A3007 RMK AO2=
####018000316####
SARO33 LROM 081400
METAR LRBC 081400Z 03008KT 350V060 9999 SCT023 BKN040 23/17 Q1017=
METAR LRCV 081400Z 30006KT 9999 SCT040 24/14 Q1017=
METAR LRIA 081400Z 31012KT 270V350 9999 SCT022 22/17 Q1017=
METAR LRSV 081400Z 32020KT 9999 FEW014 BKN049 17/14 Q1019=
METAR LRTC 081400Z 35012KT 9999 BKN040 24/17 Q1014=
####018000122####
SAXX60 KWBC 081410
METAR
KNEL 081406Z AUTO 16007KT 7SM BKN012 OVC095 27/21 A3004 RMK AO2
     SLP172 T02720211 $=
####018000081####
SAJM31 MKJP 081404
METAR MKJP 081400Z 12012KT 9999 FEW022 BKN260 29/21 Q1013=
####018000082####
SAAG SARP 081400
METAR SARP 081400Z  07006KT 9999  SCT005 BKN015
17/14 Q1018=
####018000076####
SAAG SARF 081400
METAR SARF 081400Z  16012KT 9999  OVC009  15/13
Q1018=
####018000412####
SARO32 LROM 081400
METAR LRAR 081400Z 01008KT 330V070 9999 BKN045 23/13 Q1020=
METAR LRBM 081400Z 27006KT 220V330 9999 FEW043 BKN050 22/15 Q1019=
METAR LRCL 081400Z 31004KT 270V350 9999 FEW024 BKN040 19/13 Q1020
0821//95=
METAR LROD 081400Z 01010KT 340V040 CAVOK 22/12 Q1020=
METAR LRSM 081400Z 34006KT 310V020 9999 BKN044 23/13 Q1020=
METAR LRTM 081400Z 23004KT 200V270 9999 FEW033 BKN040 19/15 Q1020=
####018000072####
SAAG SARE 081400
METAR SARE 081400Z 14009KT 9999 FEW008 13/09 Q1019=
####018000706####
SAZA31 FAPR 081400
METAR FABL 081400Z 01008KT 340V050 9999 FEW050 18/02 Q1030 NOSIG=
METAR FACT 081400Z 15005KT CAVOK 22/06 Q1016 NOSIG=
METAR FAEL 081400Z 05011KT CAVOK 20/13 Q1023=
METAR FAGG 081400Z 14005KT CAVOK 20/07 Q1018=
METAR FAJS 081400Z 05010KT 9999 SCT045 16/03 Q1032 NOSIG=
METAR FALA 081400Z 36007KT 320V050 9999 FEW049 18/03 Q1031 NOSIG=
METAR FALE 081400Z 05018KT CAVOK 21/17 Q1026 NOSIG=
METAR FAMM 081400Z 02011KT 9999 SCT040 19/02 Q1029 NOSIG=
METAR FAPE 081400Z 05012KT CAVOK 18/12 Q1021 NOSIG=
METAR FAPN 081400Z AUTO 36003KT //// // ////// 21/03 Q1028=
METAR FAPP 081400Z 07009KT 9999 SCT040 FEW100 16/06 Q1030 NOSIG=
METAR FAUP 081400Z 36014KT CAVOK 25/01 Q1024 NOSIG=
####018000896####
SPUS70 KWBC 081410
SPECI
PACV 081406Z 14010G16KT 10SM SCT007 BKN011 OVC044 11/09 A3011 RMK
     AO2=
PALG 081404Z AUTO 00000KT 1SM BR BKN003 06/05 A2999 RMK AO2
     TSNO=
KGUY 081407Z AUTO 36008KT 9SM -RA BKN008 BKN018 OVC026 19/18 A3024
     RMK AO2 RAB1358 CIG 005V015 P0000=
KPBI 081407Z 07008KT 10SM SCT024CB BKN042 BKN050 32/28 A2997 RMK
     AO2 SCT V BKN CB OHD-SW-NE MOV SW=
KBGD 081407Z AUTO 05006KT 10SM BKN008 OVC014 20/18 A3022 RMK AO2
     CIG 004V009=
KDFW 081407Z 13007KT 10SM SCT009 BKN050 OVC060 26/24 A3004 RMK
     AO2=
KSSF 081408Z 05007KT 10SM FEW012 SCT022 SCT027 27/23 A2994 RMK
     AO2=
KFLD 081408Z AUTO 31008KT 10SM SCT015 25/21 A3002 RMK AO2=
KIAH 081408Z 09007KT 7SM RA FEW007 SCT022 BKN075 OVC130 24/24
     A2999 RMK AO2 TSE08 TS MOV NW CB DSNT NW-N MOV NW P0003=
KMHT 081408Z 16009KT 8SM BKN022 BKN045 27/21 A3007 RMK AO2=
####018000067####
SAAG SASJ 081400
METAR SASJ 081400Z  00000KT CAVOK 17/09 Q1018=
####018000329####
SAUS80 KWBC 081410
METAR
KCIR 081402Z AUTO 21003KT 10SM CLR 30/23 A3007 RMK AO2 LTG DSNT
     N=
KPSN 081405Z AUTO 10006KT 7SM 26/24 A3005 RMK AO2 T02610242=
KRFI 081405Z AUTO 13005KT 5SM HZ BKN011 27/24 A3006 RMK AO2
     T02660237=
KSEP 081405Z AUTO 09006KT 7SM SCT006 SCT014 BKN034 24/22 A3006 RMK
     AO1=
####018003684####
SAUS70 KWBC 081410
METAR
KGNC 081405Z AUTO 05009KT 10SM SCT007 BKN047 OVC100 21/20 A3017
     RMK AO2 T02060195=
KGVT 081405Z AUTO 14005KT 10SM BKN055 26/23 A3006 RMK AO2=
KGWB 081405Z AUTO 23004KT 10SM SCT055 30/16 A3005 RMK AO2=
KGYI 081404Z AUTO 15010KT 26/25 A3007 RMK AO2 T02550248 PWINO=
KHHF 081405Z AUTO 02005KT 10SM OVC070 21/20 A3016 RMK AO2
     T02110203=
KHRX 081405Z AUTO 02009KT 10SM SCT022 BKN028 OVC110 19/17 A3024
     RMK AO2 T01890168=
KHSB 081405Z AUTO 21006KT 10SM CLR 29/22 A3006 RMK AO2=
KIGQ 081405Z AUTO 00000KT 2 1/2SM RA SCT003 SCT013 BKN023 24/23
     A3003 RMK AO2 VIS 1 1/4V5 P0008=
KIJX 081405Z AUTO 27003KT 10SM BKN005 BKN009 BKN017 24/23 A3007
     RMK AO2 LTG DSNT SE T02430231=
KINJ 081405Z AUTO 08008KT 7SM SCT008 SCT027 SCT040 26/23 A3004 RMK
     AO2 T02560232=
KJAS 081405Z AUTO 09005KT 10SM SCT008 28/25 A3005 RMK AO2
     T02800253=
KOLY 081405Z AUTO 23003KT 10SM BKN043 29/24 A3005 RMK AO2 LTG DSNT
     NW=
KPNT 081405Z AUTO 23004KT 10SM SCT009 OVC017 25/23 A3004 RMK
     AO2=
KPRG 081405Z AUTO 26006KT 10SM CLR 28/23 A3005 RMK AO2 LTG DSNT SW
     T02870236=
KRPJ 081405Z AUTO 29007KT 10SM SCT009 BKN016 23/20 A3005 RMK AO2
     T02290203=
KRSV 081405Z AUTO 24004KT 10SM CLR 30/24 A3006 RMK AO2
     T03020236=
K3LF 081405Z AUTO 00000KT 10SM VCTS SCT075 SCT090 SCT120 24/22
     A3006 RMK AO2 LTG DSNT E AND SE=
K6R3 081401Z AUTO 10005KT 5SM BR OVC006 27/26 A3000 RMK AO2 LTG
     DSNT W T02660258=
KASW 081405Z AUTO 30003KT 7SM OVC055 26/22 A3005 RMK AO2
     T02550220=
KAXH 081405Z AUTO 09004KT 10SM BKN036 BKN041 26/24 A2996 RMK AO2
     LTG DSNT NW T02600235=
KBBD 081405Z AUTO 07003KT 10SM BKN007 OVC034 24/22 A3006 RMK=
KBEA 081403Z AUTO 05006KT 10SM BKN005 BKN042 BKN050 25/25 A2989
     RMK AO2 LTG DSNT SE T02450245=
KBKD 081401Z AUTO 09004KT 10SM SCT004 OVC030 25/23 A3005 RMK AO2
     T02520233=
KBKS 081406Z AUTO 02007KT 10SM BKN006 OVC030 27/25 A2984 RMK AO1
     T02700254=
KBPC 081408Z AUTO 03006KT 10SM OVC008 20/19 A3019 RMK AO2=
KBPG 081405Z AUTO 03008KT 7SM BKN006 OVC014 22/20 A3014 RMK AO1
     T02200201=
KBYY 081406Z AUTO 07008KT 10SM SCT085 SCT100 28/27 A2993 RMK AO2
     T02800266=
KCPT 081405Z AUTO 10006KT 8SM BKN006 26/24 A3007 RMK AO2=
KCVB 081404Z AUTO 05009KT 7SM OVC014 26/24 A2997 RMK AO2
     T02630241=
KCWC 081405Z AUTO 12009KT 10SM CLR 26/23 A3006 RMK AO2
     T02610225=
KDKB 081405Z AUTO 29008KT 10SM SCT009 BKN015 23/22 A3004 RMK AO2
     T02320223=
KDKR 081405Z AUTO 10005KT 6SM BR CLR 26/26 A3006 RMK AO2=
KDNV 081405Z AUTO 24006KT 10SM CLR 28/22 A3002 RMK AO2
     T02760224=
KDUX 081407Z AUTO 02006KT 7SM SCT005 OVC060 18/17 A3024 RMK AO2
     T01800172=
KDZB 081405Z AUTO 07005KT 5SM BR BKN009 BKN016 OVC037 25/25 A3000
     RMK AO2 T02540252=
KE38 081405Z AUTO 00000KT 10SM CLR 21/19 A3024 RMK AO2
     T02120186=
KEBG 081406Z AUTO 02011KT 10SM BKN007 BKN031 OVC095 28/25 A2982
     RMK AO2 T02760253=
KECU 081405Z AUTO 06008KT 10SM CLR 24/22 A3011 RMK AO2=
KENL 081404Z AUTO 23008KT 10SM SCT050 SCT090 28/19 A3006 RMK AO2
     LTG DSNT N AND NW T02830194=
KERV 081405Z AUTO 05003KT 4SM -RA SCT011 BKN031 OVC040 25/23 A3003
     RMK AO2 T02470227=
KF05 081404Z AUTO 05007KT 10SM SCT007 SCT012 BKN070 26/23 A3007
     RMK AO2 T02620227=
KFEP 081405Z AUTO 31005KT 10SM OVC004 24/21 A3006 RMK AO2
     T02360210=
KFOA 081405Z AUTO 21007KT 10SM CLR 31/27 A3005 RMK AO2 LTG DSNT W
     T03110265=
KFWC 081405Z AUTO 22004KT 10SM CLR 29/25 A3006 RMK AO2 LTG DSNT
     NW=
KGBG 081405Z AUTO 00000KT 3SM BR OVC008 23/22 A3006 RMK AO2=
####018000081####
SAAF35 KWBC 081400 CCA
METAR
HECA 081400Z 30012KT CAVOK 33/18 Q1010 NOSIG=
####018000386####
SAPL31 EPWA 081400
METAR EPWA 081400Z 30011KT 260V340 CAVOK 24/11 Q1020 NOSIG=
METAR EPGD 081400Z 08010KT 9999 FEW045 23/12 Q1021=
METAR EPKK 081400Z VRB04KT CAVOK 24/06 Q1021=
METAR EPPO 081400Z 28005KT CAVOK 26/07 Q1021=
METAR EPRZ 081400Z 31006KT 240V020 CAVOK 24/07 Q1021=
METAR EPBY 081400Z 29005KT 230V330 CAVOK 26/08 Q1021=
METAR EPZG 081400Z 22002KT CAVOK 27/07 Q1021=
####018000083####
SAAG SAWH 081400
METAR SAWH 081400Z  00000KT 9999  FEW030 SCT100
00/M01 Q0982=
####018000087####
SAJM31 MKJS 081400
METAR MKJS 081400Z 11004KT 9999 FEW024 BKN220 30/22 Q1013=
DUPE
####018000298####
SPUS80 KWBC 081410
SPECI
KJLN 081407Z VRB03KT 2SM RA BR BKN013 BKN030 OVC055 22/22 A3009
     RMK AO2 P0006=
KGRR 081408Z 00000KT 3SM BR BKN008 BKN046 OVC095 24/22 A3003 RMK
     AO2 RAE1354=
KNYC 081408Z AUTO VRB04KT 5SM -RA BR FEW018 BKN032 25/23 A3008 RMK
     AO2 P0000 TSNO $=
####018000166####
SACY31 LCLK 081400
METAR LCLK 081400Z 21017KT 9999 FEW030 29/23 Q1007 NOSIG=
METAR LCPH 081400Z 24008KT 210V280 9999 FEW020 29/23 Q1008=
METAR LCNC 081400Z NIL=
####018002208####
SAUS70 KWBC 081410 RRA
METAR
KGDJ 081404Z AUTO 07003KT 10SM BKN008 OVC049 26/24 A3005 RMK AO2
     T02620238=
KSWW 081405Z AUTO 03003KT 1 1/4SM OVC004 22/21 A3013 RMK AO1
     T02180214=
KT65 081405Z AUTO 02007KT 10SM BKN009 OVC090 28/25 A2981 RMK AO2
     T02750253=
KC75 081407Z AUTO 00000KT 10SM SCT006 SCT010 OVC019 24/23 A3005
     RMK AO2=
KJDD 081405Z AUTO 00000KT 7SM SCT008 26/25 A3007 RMK AO2=
KJOT 081407Z AUTO 00000KT 5SM BR CLR 24/23 A3003 RMK AO2=
KJSO 081410Z AUTO 10005KT 7SM SCT006 SCT050 BKN110 25/24 A3007 RMK
     AO2 T02500240=
KJWY 081405Z AUTO 12004KT 7SM 26/23 A3005 RMK AO2 T02600227=
KJXI 081405Z AUTO 11003KT 26/24 A3008 RMK AO2=
KLBR 081405Z AUTO 15005KT 10SM BKN007 BKN011 BKN055 26/23 A3007
     RMK AO2 T02600230=
KLHB 081404Z AUTO 07007KT 4SM HZ OVC011 27/24 A3001 RMK AO2 LTG
     DSNT SE T02660238=
KLNC 081405Z AUTO 11004KT 10SM SCT008 BKN013 OVC080 26/24 A3005
     RMK AO2 T02580240=
KLUD 081405Z AUTO 12005KT 10SM BKN011 BKN029 26/22 A3007 RMK AO2
     T02550224=
KM30 081406Z AUTO 24005KT 10SM CLR 28/23 A3007 RMK AO2=
KMNZ 081410Z AUTO 09005KT 10SM OVC007 26/24 A3005 RMK AO2
     T02550241=
KMQB 081405Z AUTO 31006KT 10SM OVC008 24/22 A3009 RMK AO2 LTG DSNT
     SE T02350220=
KOSA 081404Z AUTO 13007KT 10SM BKN008 26/24 A3008 RMK AO1
     T02580240=
KPEZ 081405Z AUTO 04007KT 10SM SCT011 BKN018 OVC033 26/23 A2994
     RMK AO2 T02560231=
KPKV 081406Z AUTO 05006KT 10SM SCT024 BKN042 OVC060 25/23 A2989
     RMK AO2 T02450229=
KPPA 081405Z AUTO 05008KT 10SM OVC005 19/18 A3022 RMK AO2=
KPYX 081410Z AUTO 32007KT 5SM OVC004 20/19 A3021 RMK AO2
     T01950186=
KRAS 081405Z AUTO 10007KT 7SM FEW044 28/26 A2988 RMK AO2=
KRBO 081405Z AUTO 03008KT 10SM VCTS SCT090 SCT120 27/26 A2986 RMK
     AO2 T02680256=
KRPH 081405Z AUTO 14005KT 10SM CLR 27/22 A3003 RMK AO2
     T02660216=
KRYW 081405Z AUTO 07006KT 4SM BR OVC003 25/23 A3002 RMK AO2=
KSAR 081405Z AUTO 22005KT 7SM CLR 28/24 A3006 RMK AO2 LTG DSNT
     N=
KSLR 081402Z AUTO 13006KT 7SM SCT012 OVC070 27/23 A3008 RMK AO2
     T02710230=
KSNK 081406Z AUTO 05005KT 10SM BKN008 OVC011 22/21 A3013 RMK AO2
     T02220206=
####018000636####
SAUS70 KWBC 081400 RRJ
METAR
KNSE 081356Z 33003KT 9SM FEW020 SCT250 29/24 A3004 RMK AO2 SLP157
     T02940239 $=
KOSC 081354Z AUTO 29005KT 5SM -RA SCT018 BKN060 OVC075 23/21 A3001
     RMK AO2=
KGOP 081400Z AUTO 07003KT 7SM BKN009 BKN017 BKN044 26/24 A3005 RMK
     AO2=
KHBV 081400Z AUTO 01008KT 10SM SCT006 BKN012 OVC021 26/24 A2989
     RMK AO2 T02560239=
KMZZ 081355Z AUTO 19003KT 7SM SCT065 SCT070 26/21 A3006 RMK
     AO2=
KCIC 081350Z 13006KT 25SM SCT080 A2986=
KMDD 081400Z AUTO 05006KT 10SM OVC006 22/21 A3014 RMK AO2
     T02200205=
KRWV 081400Z AUTO 06004KT 5SM BR OVC006 26/24 A3002 RMK AO2=
####018000479####
SAAG31 KWBC 081400
METAR
SAAG NIL=
SAAP NIL=
SAAR NIL=
SABE 081400Z 27008KT CAVOK 14/01 Q1019=
SACO 081400Z 02018KT CAVOK 16/M16 Q1019=
SADD NIL=
SAEZ 081400Z 33004KT 280V020 CAVOK 12/03 Q1018=
SAME 081400Z 36003KT CAVOK 09/M05 Q1015=
SARC NIL=
SARE NIL=
SARF NIL=
SARI 081400Z 00000KT CAVOK 19/17 Q1019=
SARP NIL=
SASA 081400Z 14004KT CAVOK 13/07 Q1020=
SASJ NIL=
SAWE NIL=
SAWG 081400Z 29012KT CAVOK M03/M07 Q0991=
SAZM NIL=
SAZS NIL=
####018000125####
SAGW20 GGOV 081400
METAR GGOV 081400Z 18006KT 130V240 9999 SCT015TCU FEW020CB 31/24
                   Q1013 TEMPO TS=
####018000028####
SAAG41 KWBC 081400
NIL=
####018000087####
SAAO32 KWBC 081400 RRB
METAR
GABS 081400Z VRB03KT 9999 SCT030 33/21 Q1014 NOSIG=
####018000301####
SAAO33 KWBC 081400 RRB
METAR
GFLL 081400Z 23008KT 9999 SCT012 F CHECK TEXT NEW ENDING ADDED
     GOOOYFYX=
GGOV 081400Z 18006KT 130V240 9999 SCT015TCU FEW020CB 31/24 Q1013
     TEMPO TS=
GLRB 081400Z 20006KT 9999 BKN020 30/24 Q1013 NOSIG=
GUCY 081400Z 20010KT 9999 SCT016 30/25 Q1013=
####018000413####
SAAS31 KWBC 081405
METAR
VAAH NIL=
VABB NIL=
VABG NIL=
VAGO NIL=
VANP NIL=
VANY NIL=
VCBI NIL=
VECC NIL=
VEPT NIL=
VGEG NIL=
VGZR NIL=
VIAR NIL=
VIBN NIL=
VIDP NIL=
VNKT NIL=
VOBG NIL=
VOCI NIL=
VOHY NIL=
VOMM NIL=
VONY NIL=
VOTR NIL=
VOTV NIL=
VQPR NIL=
VQTU NIL=
VRMM NIL=
VTBS 081400Z 18004KT 9999 FEW020TCU SCT120 BKN300 30/24 Q1008 TCU
     W NOSIG=
####018000457####
SAAL31 KWBC 081400 RRA
METAR
DAAG 081400Z 04017KT CAVOK 34/15 Q1018=
DAAT 081400Z NIL=
DABB 081400Z 02014KT CAVOK 26/21 Q1018=
DABC 081400Z 33006KT CAVOK 34/08 Q1022=
DABS 081400Z 02008KT CAVOK 35/06 Q1022=
DAON 081400Z 02008KT 9999 FEW026 39/19 Q1015=
DAOO 081400Z 36012KT CAVOK 35/22 Q1015=
DAUA 081400Z NIL=
DAUG 081400Z 12008KT CAVOK 39/11 Q1019=
DAUH 081400Z 06010KT CAVOK 40/21 Q1016=
DAUZ 081400Z 07010KT CAVOK 39/07 Q1015=
####018000097####
SAUS41 KLWX 081409
MTRRSP
SPECI KRSP 081408Z AUTO 08003KT 4SM HZ CLR 29/18 A3011 RMK AO2 $
####018000026####
SAKY31 RUMS 081400
NIL
####018000319####
SAPL32 EPWA 081400
METAR EPKT 081400Z 01005KT CAVOK 23/08 Q1022=
METAR EPLL 081400Z 33007KT 300V360 CAVOK 24/06 Q1022=
METAR EPSC 081400Z 08004KT CAVOK 26/10 Q1021=
METAR EPWR 081400Z VRB02KT CAVOK 26/08 Q1022=
METAR EPBY 081400Z 29005KT 230V330 CAVOK 26/08 Q1021=
METAR EPZG 081400Z 22002KT CAVOK 27/07 Q1021=
####018000385####
SAAS32 KWBC 081405
METAR
RKPC 081400Z 02002KT 4000 BR SCT030 OVC120 23/20 Q1009 NOSIG=
RKPK 081400Z 26002KT 9999 SCT040 BKN200 23/19 Q1010 NOSIG=
RKSS 081400Z 34005KT 8000 SCT030 OVC100 23/19 Q1009 BECMG 4500
     BR=
VHHH 081400Z 19007KT 150V240 9999 FEW020 SCT030 31/25 Q1008
     NOSIG=
VMMC NIL=
ZJSY 081400Z 13004MPS 9999 SCT015 30/27 Q1008 NOSIG=
ZKPY NIL=
####018000288####
SATR31 RUMS 081400
METAR UTAA 081400Z 11002MPS 9999 SKC 43/03 Q1007 NOSIG=
METAR UTAK 081400Z 30004MPS CAVOK 35/13 Q1008 NOSIG=
METAR UTAM 081400Z 01004MPS CAVOK 40/07 Q1004 NOSIG=
METAR UTAT 081400Z 12005MPS CAVOK 42/19 Q1006 NOSIG=
METAR UTAV 081400Z 03003MPS CAVOK 37/10 Q1005=
####018000685####
SAKZ31 RUMS 081400
METAR UAAA 081400Z 16002MPS 140V200 9999 SCT050CB BKN100 25/13 Q1013
88CLRD65 TEMPO TS=
METAR UACC 081400Z 33007MPS CAVOK 22/03 Q1009 220/0070 NOSIG RMK
QFE725/0967=
METAR UAKK 081400Z 14003MPS 110V170 9999 SCT050CB BKN/// 20/08 Q1007
230///70 TEMPO TSRA RMK QFE709/0946=
METAR UAOO 081400Z NIL=
METAR UARR 081400Z NIL=
METAR UATE 081400Z 01008MPS CAVOK 38/07 Q1009 300///70 NOSIG RMK
QFE755/1007=
METAR UATG 081400Z 33006G09MPS CAVOK 39/08 Q1008 32CLRD70 NOSIG RMK
QFE758/1011 =
METAR UATT 081400Z 04006MPS 010V070 9999 NSC 32/01 Q1010 13CLRD70
NOSIG RMK QFE738/0985=
METAR UAUU 081400Z 35008MPS CAVOK 25/M03 Q1012 33CLRD70 NOSIG RMK
QFE743/0991=
####018000163####
SAAY31 RUMS 081400
METAR UDYZ 081400Z VRB02MPS 9999 FEW050 38/12 Q1007 09010070 NOSIG=
METAR UDSG 081400Z 07011MPS 9999 SCT050TCU 27/15 Q1015 02CLRD70
NOSIG=
####018001342####
SAAS33 KWBC 081405
METAR
VBRR NIL=
VDPP 081400Z NIL=
VDSR 081400Z 12004KT 8000 SCT017 SCT130 28/23 Q1009=
VLVT 081400Z NIL=
VTBA NIL=
VTBD 081400Z 17008KT 9999 FEW020 SCT120 BKN300 30/24 Q1008
     NOSIG=
VTBU 081400Z 15004KT 9999 FEW020 BKN300 31/26 Q1008 A2978=
VTCC 081400Z 03006KT 9999 FEW025CB SCT040 29/22 Q1009 A2981 CB
     E,SE=
VTSP 081400Z 30005KT 9000 FEW020 BKN300 28/24 Q1011 A2986
     NOSIG=
VTSS 081400Z NIL=
VVDN 081400Z 23006KT 9999 FEW017 SCT300 25/21 Q1008 NOSIG=
VVGL NIL=
VVNB 081400Z 13004KT 090V160 CAVOK 31/24 Q1003 NOSIG=
VVTS 081400Z 23007KT 9999 -RA FEW015CB SCT017 25/22 Q1009
     NOSIG=
WBGG 081400Z 24004KT 9999 SCT020 BKN150 24/23 Q1013 NOSIG=
WBKK 081400Z 11003KT 9999 FEW014 FEW017CB SCT140 BKN270 25/22
     Q1011 NOSIG=
WMAM NIL=
WMKJ 081400Z 16001KT 9999 FEW022 BKN300 26/24 Q1011=
WMKK 081400Z 00000KT 9999 FEW030 BKN280 27/25 Q1011 NOSIG=
WMKP 081400Z 00000KT 9000 FEW025 SCT140 BKN270 29/25 Q1011
     NOSIG=
WMSA 081400Z 24001KT 9000 FEW026 SCT140 BKN280 28/25 Q1011=
WPDL NIL=
WPEC NIL=
WSAP 081400Z 26001KT 9999 FEW016 BKN300 29/24 Q1010=
WSSL 081400Z VRB01KT 9999 FEW018 BKN280 28/23 Q1010=
WSSL 081400Z VRB01KT 9999 FEW018 BKN280 28/23 Q1010 RMK 1030Z
     Q1008=
WSSS 081400Z 23002KT 9999 FEW016 BKN300 28/24 Q1010 NOSIG=
####018000088####
SAAW32 KWBC 081400 RRA
METAR
OIII 081400Z 15006KT CAVOK 40/M04 Q1012 A2989 877.5=
####018000249####
SAAW33 KWBC 081400 RRA
METAR
OYAA 081400Z NIL=
OYAR 081400Z 06006KT 4000 DU SCT030 26/03 Q////=
OYHD 081400Z 28007KT 8000 NSC 34/28 Q1000=
OYSN 081400Z 03013KT 4000 DU SCT030 29/M02 Q1020=
OYTZ 081400Z 33012KT 9999 SCT030 28/15 Q1008=
####018000827####
SABO41 KWBC 081400 RRB
METAR
SLCA 081400Z 18005KT 8000 BKN027 19/14 Q1020=
SLCP 081400Z 16005KT 9999 BKN007 OVC070 22/20 Q1018=
SLJE 081400Z 21006KT 9999 SCT017 26/20 Q1018=
SLJO 081400Z 00000KT 9999 FEW080 SCT200 30/23 Q1013=
SLMG 081400Z 03004KT 9999 FEW080 29/22 Q1015=
SLOR 081400Z 35006KT 9999 SKC 06/M02 Q1036=
SLPO 081400Z 24008KT 9999 SKC 05/M06 Q1036=
SLRB 081400Z 00000KT 9999 BKN017 25/19 Q1018=
SLRI 081400Z 36006KT 8000 SKC 30/24 Q1013=
SLRQ 081400Z 00000KT 9999 SCT006 OVC015 24/23 Q1014=
SLRY 081400Z 00000KT 9999 BKN012 FEW023CB BKN070 24/23 Q1015=
SLSA 081400Z 03004KT 9999 SCT017 FEW023CB SCT070 BKN200 28/24
     Q1013=
SLSI 081400Z 18008KT 9999 FEW017 BKN070 25/21 Q1017=
SLVM 081400Z 12008KT 9999 SCT020 18/15 Q1026=
SLYA 081400Z 18006KT 9999 FEW023 BKN070 16/12 Q1021=
####018000290####
SACA35 KWBC 081400 RRB
METAR
MRLB 081400Z 15005KT 9999 DZ FEW005 SCT012 BKN080 24/23 A2989=
MRLM 081400Z 20003KT 9999 FEWEW010 BKN110 25/23 A2988 RMK RN DST
     NW=
MRPV 081400Z 00000KT 9999 4000W BR BKN120 22/18 A3001 RMK DUST
     APCH RNY 09 TNG FG SW W NW TEMPO 24004KT=
####018000175####
SACA33 KWBC 081400 RRB
METAR
TFFR 081405Z 10014KT 9999 BKN030 31/24 Q1015 NOSIG=
TTCP 081400Z 09014KT 9999 -TSRA FEW010CB SCT015 BKN080 29/24 Q1014
     TEMPO TSRA=
####018000296####
SAEE31 KWBC 081400 RRB
METAR
UMII 081400Z 22004MPS P6000 BKN015CB 21/18 Q1014 R23/CLRD// TEMPO
     2000 SHRA BKN005=
UMMM 081400Z 25005G08MPS 9999 OVC013CB 17/14 Q1015 R30/CLRD//
     NOSIG RMK QFE742=
UMMS 081400Z 28002MPS 240V330 9999 OVC014 18/15 Q1015 R31/CLRD//
     NOSIG=
####018000091####
SPUS31 KWBC 081410
SPECI
KDFW 081407Z 13007KT 10SM SCT009 BKN050 OVC060 26/24 A3004=
####018000112####
SAFR31 KWBC 081400 RRA
METAR
LFKC 081400Z 36011KT 330V030 9999 FEW010 FEW043TCU 29/22 Q1019
     NOSIG=
####018000081####
SAIO31 KWBC 081400 RRB
METAR
FIMP 081400Z 13014KT 9999 SCT016 22/16 Q1021=
####018000945####
SAIY41 KWBC 081350 RRC
METAR
LIBA 081355Z /////KT CAVOK 29/09 Q1019 RMK FEW FEW200 VIS MIN 9999
     WIND THR29 30012KT 260V010 BLU=
LIBG 081350Z 36016KT 320V040 CAVOK 27/09 Q1017 RMK VIS MIN
     9999=
LIBN 081400Z NIL=
LIBN 081355Z 35023G33KT CAVOK 25/11 Q1017 RMK FEW FEW200 VIS MIN
     9999 WIND THR14 34020G32KT BLU=
LIBQ 081355Z 30006KT 9999 FEW008TCU SCT009 17/12 Q1024 RMK SCT MON
     LIB VAL NIL VIS MIN 9999=
LIBV 081355Z 01018KT CAVOK 25/12 Q1017 RMK SKC VIS MIN 9999 WIND
     THR14 35016KT BLU=
LIBY 081355Z 35018G31KT CAVOK 25/08 Q1016 RMK SKC QUK 3 QUL 1 N
     VIS MAR 20 KM VIS MIN 9999=
LICD 081350Z 02009KT CAVOK 26/19 Q1018 RMK VIS MIN 9999=
LICF 081355Z 12001KT 9999 SCT030 FEW035CB 28/24 Q1017 RMK BKN QUK
     1 QUL 0 VIS MAR 12 KM MON E CLD CIME NC MON W LIB NC VIS MIN
     9999=
LICZ 081355Z 08019KT 9999 FEW020 30/19 Q1017 RMK FEW VIS MIN 9999
     WIND THR28 //////KT BLU=
####018000711####
SAIY31 KWBC 081350 RRC
METAR
LIBC 081350Z 04018KT CAVOK 27/10 Q1017 RMK VIS MIN 9999=
LIBD 081350Z 01016KT CAVOK 25/11 Q1020 RMK VIS MIN 9999=
LIBP 081350Z 05005KT 350V110 CAVOK 26/08 Q1021 RMK VIS MIN
     9999=
LICA 081350Z 29014KT 9999 FEW030 29/17 Q1017 RMK VIS MIN 9999=
LICC 081350Z 11014KT CAVOK 28/20 Q1017 RMK VIS MIN 9999=
LICG 081355Z 01005KT 9999 FEW010 24/22 Q1019 RMK FEW VIS MIN 9999
     WIND THR08 36007KT WIND THR21 02006KT BLU=
LICJ 081350Z 04014KT 9999 FEW018 28/23 Q1018 RMK VIS MIN 9999=
LICR 081350Z 22006KT 200V270 9999 SCT025 27/20 Q1018 RMK VIS MIN
     9999=
LICT 081355Z 33012KT 9999 FEW022 30/26 Q1017 RMK FEW VIS MIN 9999
     WIND THR13 33010KT BLU=
####018000139####
SAIY31 KWBC 081250 RRE
METAR
LIBR 081345Z /////KT CAVOK 26/14 Q1018 NOSIG RMK SKC VIS MIN 9999
     WIND THR13 WIND THR31 33020KT=
####018000065####
SAIY32 KWBC 081350 RRC
METAR
LIRZ 081350Z 01009KT 330V050=
####018000065####
SAIY43 KWBC 081350 RRB
METAR
LIRZ 081350Z 01009KT 330V050=
####018000121####
SAMX41 KWBC 081345 RRE
METAR
MMBT 081355Z RTD 00000KT 5SM SCT030 OVC110 24/22 A2990 RMK 8/46/
     HZY VRB COND=
####018000131####
SANT31 KWBC 081400 RRA
METAR
TXKF 081355Z 12015KT 9999 SCT020CB SCT033 BKN130 BKN300 27/24
     Q1019 RMK CB DSNT SE-SW /=
####018000293####
SANZ31 KWBC 081400
METAR
NZAA 081400Z 22011KT 9999 FEW025 10/07 Q1012 NOSIG=
NZCH 081400Z 23018KT 9999 RA FEW014 BKN025 BKN035 06/05 Q1017
     TEMPO 6000 SHRA=
NZOH NIL=
NZWN 081400Z 19029KT 9999 -SHRA FEW015 SCT030 BKN037 09/06 Q1014
     WS R16 TEMPO 6000 SHRA=
NZWP NIL=
####018000434####
SAPR41 KWBC 081400
METAR
SPCL NIL=
SPEC NIL=
SPEI NIL=
SPEO NIL=
SPGM NIL=
SPHI 081400Z 16010KT 9999 SCT013 SCT100 18/13 Q1016 RMK BIRD
     HAZARD RWY 19/01 PP000=
SPHO NIL=
SPHY NIL=
SPJA NIL=
SPJI NIL=
SPJL NIL=
SPJN NIL=
SPJR NIL=
SPME NIL=
SPMS NIL=
SPNC NIL=
SPPY NIL=
SPRU 081400Z 19003KT 7000 OVC015 16/13 Q1015 RMK BIRD HAZARD RWY20
     PP000=
SPST NIL=
SPTU NIL=
SPUR NIL=
####018000093####
SPUS31 KWBC 081410
SPECI
KPBI 081407Z 07008KT 10SM SCT024CB BKN042 BKN050 32/28 A2997=
####018001664####
SARS18 KAWN 081400 RRC
METAR UAAA 081400Z 16002MPS 140V200 9999 SCT050CB BKN100 25/13 Q1013
      88CLRD65 TEMPO TS=
METAR UACC 081400Z 33007MPS CAVOK 22/03 Q1009 220/0070 NOSIG RMK QFE725/0967=
METAR UATE 081400Z 01008MPS CAVOK 38/07 Q1009 300///70 NOSIG RMK QFE755/1007=
METAR UATT 081400Z 04006MPS 010V070 9999 NSC 32/01 Q1010 13CLRD70 NOSIG
      RMK QFE738/0985=
METAR UHHH 081400Z 02003MPS 9999 SCT023CB OVC100 16/15 Q1011 NOSIG
      RMK QFE752/1002 55090060=
METAR UHSS 081400Z 00000MPS 9999 BKN016 13/13 Q1011 RMK MT OBSC QFE757/1009=
METAR UHWW 081400Z 12001MPS 9999 SCT013 BKN023CB OVC100 16/15 Q1011
      NOSIG RMK QFE757/1010 75CLRD70=
METAR UMGG 081400Z 28004MPS 9999 SCT050CB BKN100 26/16 Q1014 R28/290550
      NOSIG=
METAR UMII 081400Z 22004MPS P6000 BKN015CB 21/18 Q1014 R23/D TEMPO
      2000 SHRA BKN005=
METAR UMKK 081400Z 32007MPS P8000 FEW030 SCT200 22/13 Q1020 NOSIG RMK
      QFE 764 SC07=
METAR UMMM 081400Z 25005G08MPS 9999 OVC013CB 17/14 Q1015 R30/D NOSIG
      RMK QFE742=
METAR UMMS 081400Z 28002MPS 240V330 9999 OVC014 18/15 Q1015 R31/D NOSIG=
METAR URKA 081400Z 06004MPS 9999 SCT026 29/20 Q1011 NOSIG RMK 065=
METAR URMM 081400Z 13004G07MPS 9999 BKN046 30/19 Q1012 NOSIG RMK 0M-200
      / SC070=
METAR URSS 081400Z 28003MPS 9999 FEW040 28/21 Q1008 NOSIG RMK / QFE755
      06CLRD70=
METAR UTAA 081400Z 11002MPS 9999 SKC 43/03 Q1007 NOSIG=
METAR UTDD 081400Z 00000MPS 9999 SKC 35/06 Q1008 09CLRD70 NOSIG RMK
      QFE689/0918=
METAR UUWW 081400Z 17003MPS 120V210 CAVOK 28/15 Q1014 24000070 NOSIG=
METAR VTBD 081400Z 17008KT 9999 FEW020 SCT120 BKN300 30/24 Q1008 NOSIG=
####018001764####
SARA31 KWBC 081400 RRB
METAR
UEEE 081400Z 04003MPS 9999 SCT050CB OVC100 16/15 Q1008 NOSIG RMK
     QFE748 23290150=
UHHH 081400Z 02003MPS 9999 SCT023CB OVC100 16/15 Q1011 NOSIG RMK
     QFE752/1002 55090060=
UHMA 081400Z NIL=
UHMM 081400Z 24001MPS 9999 OVC009 12/11 Q1016 RMK QFE747
     88010070=
UHMP 081400Z NIL=
UHPP 081400Z NIL=
UHSS 081400Z 00000MPS 9999 BKN016 13/13 Q1011 RMK MT OBSC
     QFE757/1009=
UHWW 081400Z 12001MPS 9999 SCT013 BKN023CB OVC100 16/15 Q1011
     NOSIG RMK QFE757/1010 75CLRD70=
UIAA 081400Z VRB02MPS 9999 VCTS SCT033CB OVC100 18/16 Q1008 NOSIG
     RMK QFE698 29CLRD70=
UIBB 081400Z 04003MPS 9999 BKN200 22/13 Q1006 NOSIG RMK
     QFE712/0949 30CLRD60=
UIII 081400Z 17004MPS CAVOK 17/10 Q1007 NOSIG RMK QFE713/0951
     12CLRD60=
UIUU 081400Z 00000MPS 9999 SCT033CB OVC100 20/15 Q1008 NOSIG RMK
     QFE712/0949 26CLRD60=
ULAA 081400Z 30004MPS 260V340 9999 FEW033 27/17 Q1016 TEMPO
     VRB14MPS TSRA RMK QFE760/1014 SC070=
UMGG 081400Z 28004MPS 9999 SCT050CB BKN100 26/16 Q1014 R28/290550
     NOSIG=
UMII 081400Z 22004MPS P6000 BKN015CB 21/18 Q1014 R23/CLRD// TEMPO
     2000 SHRA BKN005=
UMMG 081400Z 31005G08MPS 9999 BKN023 BKN066 21/12 Q1016 R35/CLRD//
     NOSIG=
UMMM 081400Z 25005G08MPS 9999 OVC013CB 17/14 Q1015 R30/CLRD//
     NOSIG RMK QFE742=
UMMS 081400Z 28002MPS 240V330 9999 OVC014 18/15 Q1015 R31/CLRD//
     NOSIG=
UNAA 081400Z VRB01MPS 9999 SCT030CB BKN100 17/13 Q1012 NOSIG RMK
     QFE736 022///55=
UNNT 081400Z VRB02MPS 9999 BKN055CB BKN100 18/05 Q1007 NOSIG RMK
     QFE745/0994 25090070=
USNN 081400Z 13002MPS P6000 SCT026 17/11 Q1004 NOSIG RMK QFE748
     SC065=
UUEE 081400Z 16005MPS 9999 SCT050CB BKN200 29/13 Q1015 NOSIG=
####018000781####
SARS31 KWBC 081400 RRB
METAR
UELL 081400Z VRB01MPS 0800 FG FEW030 BKN200 12/11 Q1012 TEMPO 0400
     VV002 RMK QFE684 08290050=
UEST 081400Z 19002MPS 9999 -RA OVC130 05/03 Q1018 NOSIG RMK
     QFE762=
ULLI 081400Z 20002MPS 110V230 9999 SCT046CB BKN066 BKN200 27/18
     Q1013 TEMPO TSRA=
ULMM 081400Z 08004MPS 9999 SCT026 BKN080 16/09 Q1017 NOSIG RMK
     QFE755 32190060=
UOHH 081400Z 06003MPS 9999 CAVOK 15/04 Q1023 NOSIG RMK QFE761=
UOOO 081400Z 03008G10MPS CAVOK 19/10 Q1010 NOSIG RMK QFE743
     010///60=
UUDD 081400Z 15005MPS 130V200 9999 FEW050TCU BKN200 29/15 Q1015
     TEMPO VRB12MPS TSRA=
UUEE 081400Z 16005MPS 9999 SCT050CB BKN200 29/13 Q1015 NOSIG=
UUEM 081400Z NIL=
UUWW 081400Z 17003MPS 120V210 CAVOK 28/15 Q1014 24000070 NOSIG=
####018000801####
SARS32 KWBC 081400 RRA
METAR
URKA 081400Z 06004MPS 9999 SCT026 29/20 Q1011 NOSIG RMK 065=
URKK 081400Z 06006G09MPS CAVOK 30/20 Q1010 NOSIG RMK QFE755
     SC070=
URKM 081400Z 08004MPS 9999 SCT040 BKN100 29/17 Q1011 NOSIG RMK
     QFE740=
URMM 081400Z 13004G07MPS 9999 BKN046 30/19 Q1012 NOSIG RMK 0M-200
     / SC070=
URMN 081400Z 08002MPS 9999 BKN032CB BKN110 28/18 Q1013 NOSIG RMK /
     QFE723 SC07=
URMT 081400Z 06005G08MPS 9999 SCT026CB BKN100 29/17 Q1014 NOSIG
     RMK QFE720 SC07=
URRR 081400Z 00000MPS 9999 FEW040 31/14 Q1013 NOSIG RMK SC070=
URSS 081400Z 28003MPS 9999 FEW040 28/21 Q1008 NOSIG RMK / QFE755
     06CLRD70=
URWA 081400Z 00000MPS CAVOK 37/12 Q1010 NOSIG RMK SC07=
URWI 081400Z NIL=
URWW 081400Z 34003MPS CAVOK 31/13 Q1013 NOSIG RMK SC070=
####018000712####
SARS33 KWBC 081400 RRA
METAR
USCC 081400Z 35005G08MPS CAVOK 24/02 Q1013 NOSIG RMK QFE740
     27000070=
USDD 081400Z 05009G12MPS CAVOK 16/00 Q1015 NOSIG RMK QFE755/1007
     SC060=
USMU 081400Z 02005MPS 9999 SCT037CB BKN066 15/13 Q1007 NOSIG RMK
     QFE749 09250345=
USNN 081400Z 13002MPS P6000 SCT026 17/11 Q1004 NOSIG RMK QFE748
     SC065=
USRK 081400Z 35004MPS 6000 BKN024CB OVC066 14/11 Q1004 NOSIG RMK
     QFE747 351///55=
USRR 081400Z 34003MPS 7000 OVC012 13/10 Q1005 TEMPO BKN007 RMK
     QFE748 25////60=
USSS 081400Z 36005G08MPS 330V030 CAVOK 25/00 Q1014 NOSIG RMK
     QFE740 260///70=
USTR 081400Z 33002MPS CAVOK 19/07 Q1012 NOSIG RMK QFE749/0999
     30CLRD65=
####018000748####
SARS41 KWBC 081400 RRA
METAR
UUBP 081400Z 08002MPS 9999 SCT033TCU SCT/// 26/19 Q1013 NOSIG=
UUEE 081400Z 16005MPS 9999 SCT050CB BKN200 29/13 Q1015 NOSIG=
UUEM 081400Z NIL=
UUOO 081400Z 00000MPS 9999 SCT033 BKN100 28/15 Q1014 NOSIG RMK
     13090070=
UUWW 081400Z 17003MPS 120V210 CAVOK 28/15 Q1014 24000070 NOSIG=
UUYH 081400Z 18002MPS CAVOK 27/11 Q1015 NOSIG RMK QFE 750
     18CLRD60=
UUYS 081400Z 17003MPS CAVOK 21/06 Q1014 NOSIG RMK QFE754
     14CLRD60=
UUYY 081400Z VRB02MPS 9999 FEW036 OVC200 30/15 Q1015 NOSIG
     19CLRD61 RMK QFE752/1003=
UWGG 081400Z 12003MPS 100V170 8000 FEW033 34/08 Q1015 NOSIG RMK
     QFE754 18090070=
UWUU 081400Z 35005MPS CAVOK 28/10 Q1014 82010060 NOSIG RMK
     QFE750/1000=
####018001563####
SAIY42 LIIB 081400
METAR LIBF 081350Z 33018KT CAVOK 28/07 Q1019 RMK VIS MIN 9999=
METAR LIEA 081350Z 28004KT 210V320 9999 FEW025 33/22 Q1019 RMK VIS
MIN 9999=
METAR LIED 081355Z 15020KT 9999 SCT018 32/16 Q1017 RMK SCT VIS MIN
      9999 BLU=
METAR LIEO 081350Z 05010KT CAVOK 31/21 Q1019 RMK VIS MIN 9999=
METAR LIMA 081350Z 00000KT 9999 FEW035 28/16 Q1021 RMK VIS MIN 9999=
METAR LIQN 081350Z 32005KT 9999 SCT045 30/17 Q1020 RMK VIS MIN 9999=
METAR LIQO 081355Z 19004KT 9999 SCT003 28/21 Q1022 RMK SCT VAL NIL NC
      VIS MIN 9999=
METAR LIQW 081355Z 20003KT 9999 FEW025 30/21 Q1020 RMK FEW VIS MIN
      9999 BLU=
METAR LIRE 081355Z 24008KT 9999 FEW020 28/20 Q1019 RMK FEW VIS MIN
      9999 WIND THR31 23009KT BLU=
METAR LIRG 081355Z 23010KT 9999 FEW030CB SCT033TCU 32/19 Q1019 RMK
     SCT MON NE LIB NC VIS MIN 9999 BLU=
METAR LIRH 081355Z 35006KT 9999 FEW035CB SCT040 30/20 Q1019 RMK BKN
      MON LIB NC VIS MIN 9999 WIND THR16 30010KT BLU=
METAR LIRI 081350Z 04004KT CAVOK 30/11 Q1018 RMK VIS MIN 9999=
METAR LIRK 081355Z 13008KT CAVOK 16/14 Q1027 RMK SCT SCT060 MON NE
      LIB NC VAL NIL NC VIS MIN 9999=
METAR LIRL 081355Z 24009KT 9999 FEW020 30/17 Q1019 RMK FEW MON LIB NC
      VIS MIN 9999 BLU=
METAR LIRM 081355Z 13005KT 9999 FEW020 30/15 Q1019 RMK FEW VIS MIN
      9999 WIND THR06 07004KT BLU=
METAR LIRS 081355Z 22012KT 9999 FEW040 30/19 Q1019 RMK FEW VIS MIN
      9999 WIND THR21 /////KT BLU=
METAR LIRT 081355Z 35010KT CAVOK 18/05 Q1023 RMK SKC MON LIB VAL NIL
      VIS MIN 9999=
####018001011####
SARS35 RUMS 081400
METAR USPP 081400Z 36003MPS CAVOK 27/11 Q1015 NOSIG RMK QFE750/1000
21090060=
METAR UWKD 081400Z 32003G06MPS 280V350 CAVOK 32/12 Q1014 TEMPO
VRB15MPS 3000 TSRA RMK QFE750/1000 79CLRD70=
METAR UWKE 081400Z 05004MPS 9999 FEW040 31/10 Q1015 NOSIG RMK
QFE744/0992 04090070=
METAR UWKS 081400Z 00000MPS 9999 BKN033CB 27/18 Q1016 NOSIG RMK
QFE746 SC0.60=
METAR UWLL 081400Z 06005MPS 9999 SCT050CB 32/10 Q1014 NOSIG RMK
QFE748/0998 SC065=
METAR UWLW 081400Z 33007G10MPS 8000 SCT040CB 30/15 Q1014 TEMPO
VRB14MPS 3000 -TSRA BKN015CB RMK QFE754=
METAR UWOR 081400Z 06005MPS CAVOK 28/00 Q1014 07CLRD65 NOSIG RMK
QFE735/0980=
METAR UWOO 081400Z 06004MPS P5000 FEW220 32/02 Q1012 26LRD65 NOSIG
RMK QFE748/0998=
METAR UWPP 081400Z 14004MPS 9999 SCT033CB BKN100 32/09 Q1013 NOSIG
RMK QFE745 11090060=
METAR UWSS 081400Z 07004MPS CAVOK 31/09 Q1014 NOSIG RMK QFE748
120///60=
METAR UWWW 081400Z 06005MPS CAVOK 32/08 Q1014 NOSIG RMK QFE748/0997
05CLRD60 15//99//=
####018000108####
SAUK41 KWBC 081350 RRF
METAR
EGDY 081350Z 21011KT 9999 FEW033 SCT100 BKN220 23/15 Q1018
     NOSIG=
####018000133####
SAXX61 KWBC 081400 RRB
METAR
LICZ 081355Z 08019KT 9999 FEW020 30/19 Q1017 RMK FEW VIS MIN 9999
     WIND THR28 //////KT BLU=
####018003712####
SAXX99 KWBC 081400 RRK
METAR
CMFM 081400Z AUTO 21007KT 26/18 RMK AO1 SLP160 T02600177 58008=
DAAD 081400Z NIL=
DAAE 081400Z 09010KT CAVOK 28/21 Q1019=
DAAJ 081400Z 03010KT CAVOK 37/04 Q1018=
DAAP 081400Z NIL=
DAAS 081400Z 34008KT CAVOK 35/03 Q1024=
DAAV 081400Z 02014KT CAVOK 29/24 Q1019=
DAAY 081400Z 33010KT 9999 FEW033 38/10 Q1024=
DABT 081400Z 34017KT CAVOK 36/03 Q1022=
DAFH 081400Z 09008KT CAVOK 38/15 Q1021=
DAOB 081400Z 01007KT CAVOK 39/07 Q1022=
DAOF 081400Z 18006KT 4500 HZ FEW046 45/// Q1013=
DAOL 081400Z NIL=
DAOR 081400Z 29005KT CAVOK 40/05 Q1022=
DAOV 081400Z 01010KT CAVOK 43/06 Q1018=
DATG 081400Z NIL=
DATM 081400Z NIL=
DAUB 081400Z 21010KT CAVOK 38/14 Q1015=
DAUE 081400Z NIL=
DAUI 081400Z 07016KT 8000 NSC 46/08 Q1012=
DAUK 081400Z NIL=
DAUL 081400Z 00000KT CAVOK 39/12 Q1021=
DAUO 081400Z 00000KT CAVOK 39/16 Q1016=
DAUT 081400Z ///18KT 4000 DRSA NSC 44/08 Q1014=
DAUU 081400Z 04010KT CAVOK 40/15 Q1016=
EGUB 081350Z 22008KT 9999 FEW040 BKN200 23/12 Q1018 NOSIG=
MMIT 081400Z RTD 00000KT 5SM HZ BKN010 OVC070 27/25 A2978 RMK
     8/66/ BINOVC=
MMTB 081400Z RTD 00000KT 7SM FEW015 SCT018 BKN070 23/21 A2985 RMK
     8/640 BCMIFG 2 QUAD=
OYAG 081400Z 08017KT 9999 BKN025 28/24 Q1001=
OYAM 081400Z NIL=
OYAT 081400Z 14012KT CAVOK 37/11 Q0998=
OYDM 081400Z 02013KT 6000 FEW030 SCT045 28/M00 Q////=
OYIB 081400Z 29006KT 5000 DU SCT025 27/17 Q1015=
OYRN 081400Z 20012KT 6000 NSC 29/25 Q1001=
OYSH 081400Z NIL=
OYSQ 081400Z NIL=
OYSY 081400Z 07008KT 040V110 9000 FEW030TCU SCT200 42/09 Q1000=
UERP 081400Z 03004MPS 9999 SCT040 12/06 Q1015 NOSIG RMK QFE717
     35090065=
UERR 081400Z VRB02MPS CAVOK 14/14 Q1012 NOSIG RMK QFE728
     24CLRD60=
UESO 081400Z NIL=
UHNN 081400Z 07002MPS 9999 FEW010 BKN024CB OVC070 11/10 Q1013 RMK
     QFE755=
UHSH 081400Z NIL=
ULDD 081400Z NIL=
ULKK 081400Z NIL=
ULOL 081400Z NIL=
ULOO 081400Z 32004MPS 5000 -TSRA BKN013CB OVC200 23/18 Q1012 NOSIG
     RMK QFE755=
ULWW 081400Z 17004MPS 9999 SCT050TCU OVC/// 31/15 Q1016 NOSIG RMK
     QFE751 15CLRD60=
UMKK 081400Z 32007MPS P8000 FEW030 SCT200 22/13 Q1020 NOSIG RMK
     QFE 764 SC07=
UMOO 081400Z 31003MPS 9999 -SHRA BKN024CB BKN/// 22/18 Q1013
     R31/290056 NOSIG=
UNBB 081400Z 14002MPS 9999 SCT040 SCT100 14/11 Q1009 NOSIG RMK
     QFE735=
UNEE 081400Z 22004MPS 9999 SCT033CB BKN066 OVC200 16/10 Q1009
     NOSIG RMK QFE734 23CLRD60=
UNKL 081400Z VRB02MPS 9999 SCT028CB BKN083 13/12 Q1011 NOSIG RMK
     QFE732 29////55=
UNOO 081400Z 30004G07MPS 9999 BKN030CB 14/09 Q1008 NOSIG 25CLRD06
     RMK QFE747=
UNWW 081400Z 14002MPS 9999 SCT026 OVC130 13/09 Q1011 NOSIG RMK
     QFE731 19CLRD70=
UOII 081400Z 00000MPS 9999 BKN026CB BKN100 18/17 Q1008 TEMPO -TSRA
     RMK QFE753 12////60=
URML 081400Z 10005MPS 9999 FEW100 31/21 Q1012 NOSIG RMK QFE759 /
     07=
VTBO 081400Z NIL=
VTCH 081400Z NIL=
VTCL 081400Z NIL=
VTCN 081400Z NIL=
VTCP 081400Z NIL=
VTCT 081400Z 19005KT 9999 SCT030 25/23 Q1009 A2980 RMK/RWY03 INFO
     O=
VTPB 081400Z NIL=
VTPH 081400Z NIL=
VTPM 081400Z NIL=
VTPO 081400Z NIL=
VTPP 081400Z NIL=
VTPT 081400Z NIL=
VTSB 081400Z 00000KT 9999 FEW020 28/25 Q1010 A2985=
VTSC 081400Z NIL=
VTSE 081400Z NIL=
VTSF 081400Z NIL=
VTSG 081400Z NIL=
VTSK 081400Z NIL=
VTSM 081400Z 31003KT 9999 FEW020 BKN300 30/25 Q1010 A2984=
VTSR 081400Z NIL=
VTST 081400Z NIL=
VTUD 081400Z NIL=
VTUI 081400Z NIL=
VTUJ 081400Z NIL=
VTUK 081400Z NIL=
VTUL 081400Z NIL=
VTUO 081400Z NIL=
VTUQ 081400Z NIL=
VTUU 081400Z 18003KT 9999 FEW023 BKN300 31/23 Q1007 A2976
     NOSIG=
VTUV 081400Z NIL=
VTUW 081400Z NIL=
####018000529####
SAZA31 KWBC 081400
METAR
FABB NIL=
FABE NIL=
FABL 081400Z 01008KT 340V050 9999 FEW050 18/02 Q1030 NOSIG=
FABM NIL=
FACT 081400Z 15005KT CAVOK 22/06 Q1016 NOSIG=
FADN NIL=
FAEL 081400Z 05011KT CAVOK 20/13 Q1023=
FAGG 081400Z 14005KT CAVOK 20/07 Q1018=
FAGM NIL=
FAJS 081400Z 05010KT 9999 SCT045 16/03 Q1032 NOSIG=
FAKT NIL=
FALW NIL=
FALZ NIL=
FAPB NIL=
FAPE 081400Z 05012KT CAVOK 18/12 Q1021 NOSIG=
FAPR NIL=
FASB NIL=
FAUP 081400Z 36014KT CAVOK 25/01 Q1024 NOSIG=
FAWH NIL=
FAWK NIL=
####018000927####
SARS32 RUMS 081400
METAR URKA 081400Z 06004MPS 9999 SCT026 29/20 Q1011 NOSIG RMK  065=
METAR URKK 081400Z 06006G09MPS CAVOK 30/20 Q1010 NOSIG RMK QFE755
SC070=
METAR URKM 081400Z 08004MPS 9999 SCT040 BKN100 29/17 Q1011 NOSIG RMK
QFE740=
METAR URML 081400Z 10005MPS 9999 FEW100 31/21 Q1012 NOSIG RMK QFE759
/ 07=
METAR URMM 081400Z 13004G07MPS 9999 BKN046 30/19 Q1012 NOSIG RMK 
 0M-200 / SC070=
METAR URMN 081400Z 08002MPS 9999 BKN032CB BKN110 28/18 Q1013 NOSIG
RMK / QFE723 SC07=
METAR URMT 081400Z 06005G08MPS 9999 SCT026CB BKN100 29/17 Q1014 NOSIG
RMK QFE720 SC07=
METAR URRR 081400Z 00000MPS 9999 FEW040 31/14 Q1013 NOSIG RMK SC070=
METAR URSS 081400Z 28003MPS 9999 FEW040 28/21 Q1008 NOSIG RMK /
QFE755 06CLRD70=
METAR URWA 081400Z 00000MPS CAVOK 37/12 Q1010 NOSIG RMK SC07=
METAR URWI 081400Z NIL=
METAR URWW 081400Z 34003MPS CAVOK 31/13 Q1013 NOSIG RMK SC070=
####018000399####
SARA33 RUMS 081400
METAR UIAA 081400Z VRB02MPS 9999 VCTS SCT033CB OVC100 18/16 Q1008
NOSIG RMK     QFE698 29CLRD70=
METAR UIBB 081400Z 04003MPS 9999 BKN200 22/13 Q1006 NOSIG RMK
QFE712/0949 30CLRD60=
METAR UIII 081400Z 17004MPS CAVOK 17/10 Q1007 NOSIG RMK QFE713/0951
12CLRD60=
METAR UIUU 081400Z 00000MPS 9999 SCT033CB OVC100 20/15 Q1008 NOSIG
RMK QFE712/0949 26CLRD60=
####018001597####
SAIY40 LIIB 081400
METAR LIMG 081350Z 08008KT 9999 SCT040 30/25 Q1020 RMK VIS MIN 9999=
METAR LIMK 081355Z 18002KT CAVOK 23/12 Q1023 RMK SKC VAL NIL VIS MIN
      9999=
METAR LIMN 081355Z /////KT CAVOK 28/16 Q1020 RMK FEW FEW200 VIS MIN
      9999 BLU=
METAR LIMP 081350Z 05006KT 010V100 CAVOK 30/15 Q1021 RMK VIS MIN
9999=
METAR LIMS 081355Z 07006KT 020V130 CAVOK 30/15 Q1020 RMK SKC VIS MIN
      9999 WIND THR30 07005KT BLU=
METAR LIMZ 081350Z 05005KT 8000 FEW035 SCT060 26/18 Q1022 RMK VIS
MIN 8000=
METAR LIPA 081400Z NIL=
METAR LIPB 081350Z 18015KT CAVOK 31/12 Q1018 RMK MON LIB VIS MIN
9999=
METAR LIPC 081400Z NIL=
METAR LIPF 081355Z 11003KT 9999 FEW050 29/19 Q1020 RMK FEW VIS MIN
      9999=
METAR LIPH 081345Z 14005KT 9999 FEW025 28/21 Q1021 RMK FEW VIS MIN
      9999 WIND THR07 /////KT BLU=
METAR LIPI 081355Z 19009KT 9999 FEW040 27/20 Q1021 RMK FEW VIS MIN
     9999 WIND THR06 25005KT BLU=
METAR LIPL 081355Z 16004KT 9999 FEW036 30/17 Q1021 RMK FEW VIS MIN
      9999 BLU=
METAR LIPO 081350Z 14004KT 100V200 CAVOK 29/13 Q1020 RMK VIS MIN
9999=
METAR LIPQ 081350Z 26004KT CAVOK 28/15 Q1021=
METAR LIPR 081345Z 07012KT CAVOK 28/19 Q1021 RMK SKC VIS MIN 9999
      WIND THR31 09011KT BLU=
METAR LIPS 081355Z 12004KT 9999 SCT030 28/18 Q1021 RMK SCT VIS MIN
      9999 BLU=
METAR LIPX 081345Z 23003KT 9999 FEW040 30/14 Q1020 RMK FEW VIS MIN
      9999 BLU=
METAR LIPY 081350Z 05010KT CAVOK 26/14 Q1021 RMK VIS MIN 9999=
METAR LIVC 081355Z 00000KT 9999 SCT001 16/11 Q1031 RMK SCT MON LIB
      VAL NIL VIS MIN 9999=
####018001012####
SARS35 RUMS 081400
METAR USPP 081400Z 36003MPS CAVOK 27/11 Q1015 NOSIG RMK QFE750/1000
21090060=
METAR UWKD 081400Z 32003G06MPS 280V350 CAVOK 32/12 Q1014 TEMPO
VRB15MPS 3000 TSRA RMK QFE750/1000 79CLRD70=
METAR UWKE 081400Z 05004MPS 9999 FEW040 31/10 Q1015 NOSIG RMK
QFE744/0992 04090070=
METAR UWKS 081400Z 00000MPS 9999 BKN033CB 27/18 Q1016 NOSIG RMK
QFE746 SC0.60=
METAR UWLL 081400Z 06005MPS 9999 SCT050CB 32/10 Q1014 NOSIG RMK
QFE748/0998 SC065=
METAR UWLW 081400Z 33007G10MPS 8000 SCT040CB 30/15 Q1014 TEMPO
VRB14MPS 3000 -TSRA BKN015CB RMK QFE754=
METAR UWOR 081400Z 06005MPS CAVOK 28/00 Q1014 07CLRD65 NOSIG RMK
QFE735/0980=
METAR UWOO 081400Z 06004MPS P5000 FEW220 32/02 Q1012 26LRD65 NOSIG
RMK QFE748/0998=
METAR UWPP 081400Z 14004MPS 9999 SCT033CB BKN100 32/09 Q1013 NOSIG
RMK QFE745 11090060=
METAR UWSS 081400Z 07004MPS CAVOK 31/09 Q1014 NOSIG RMK QFE748
120///60=
METAR UWWW 081400Z 06005MPS CAVOK 32/08 Q1014 NOSIG RMK QFE748/0997
05CLRD60 15//99//=
####018000095####
SPUS51 KWBC 081410
SPECI
KNYC 081408Z AUTO VRB04KT 5SM -RA BR FEW018 BKN032 25/23 A3008=
####018001538####
SAUS20 KNKA 081410
METAR KCCA 081415Z AUTO 00000KT 10SM BKN010 BKN016 25/23 A3010 RMK 
     AO2 =
METAR KCDN 081415Z AUTO 33003KT 10SM CLR 32/22 A2999 RMK A02 P000 
     =
METAR KCKI 081415Z AUTO 32004KT 10SM CLR 31/20 A2996 RMK AO2=
METAR KHQZ 081409Z AUTO 11005KT 10SM SCT013 OVC060 27/23 A3006 
     RMK AO2=
METAR KLRO 081415Z AUTO 33005KT 8SM CLR 29/21 A2995 RMK AO2 =
METAR KMKS 081415Z AUTO 34005KT 10SM CLR 30/20 A2996 RMK AO2 TSNO=
SPECI KRKP 081409Z AUTO 10010KT 1 1/2SM +RA SCT009 BKN027 OVC041 
    A2987 RMK AO2 LTG DSNT SW TSE07 P0007 FZRANO=
METAR KSLO 081405Z AUTO 24008KT 10SM BKN048 BKN110 29/23 A3006 
     RMK AO2 LTG DSNT N AND NW T02900225=
METAR KSOA 081400Z AUTO 08005KT 8SM 24/22 A3011 RMK AO2=
METAR KT82 081405Z AUTO 06005KT 24/22 A3005 RMK AO1 T02410219=
METAR KTAZ 081405Z AUTO 23003KT 10SM VCTS SCT015 27/23 A3005 RMK 
     AO2 LTG DSNT S=
METAR KTFP 081406Z AUTO 07003KT 10SM TS SCT012 BKN043 OVC055 
     27/26 A2987 RMK AO2 LTG DSNT NE AND W P0002 T02700257=
METAR KTIP 081405Z AUTO 24003KT 10SM CLR 28/25 A3005 RMK AO2 
     T02750247=
SPECI KTKI 081408Z 13005KT 7SM -RA BKN027 BKN049 25/24 A3006 RMK AO2 
    P0001=
METAR KTYQ 081405Z AUTO 21006KT 10SM CLR 28/22 A3006 RMK AO2=
METAR KUVA 081405Z AUTO 04010KT 10SM CLR 26/23 A2997 RMK AO2 
     T02620227=
METAR KVYS 081405Z AUTO 32004KT 10SM BKN009 BKN016 BKN026 25/22 
     A3004 RMK AO2 LTG DSNT S T02500217=
METAR KXBP 081405Z AUTO 14005KT 10SM OVC029 26/23 A3006 RMK AO2 
     T02590231=
####018000096####
SPUS53 KWBC 081410
SPECI
KJLN 081407Z VRB03KT 2SM RA BR BKN013 BKN030 OVC055 22/22 A3009=
####018000679####
SAHK31 VHHH 081400
METAR VHHH 081400Z 19007KT 150V240 9999 FEW020 SCT030 31/25 
Q1008 NOSIG=
METAR RCTP 081400Z 19008KT 160V220 9999 FEW025 SCT150 29/25
Q1007 NOSIG=
METAR RCKH 081400Z 27006KT 230V290 9999 FEW013 BKN300 29/26
Q1010 NOSIG=
METAR RCSS 081400Z 09005KT 9999 FEW030 SCT120 30/24 Q1007
NOSIG=
METAR VMMC 081400Z 19010KT 160V260 9999 FEW020 29/27 Q1008
     NOSIG=
METAR RPLL 081400Z 22003KT 9000 FEW025 30/26 Q1011 NOSIG RMK A2986=
METAR RPVM 081400Z 00000KT 9999 FEW020 BKN090 29/26 Q1011 A2986=
METAR RPMD 081400Z NIL=
METAR RPLB 081400Z 01006KT 9999 FEW020 SCT080 29/24 Q1011 NOSIG=
METAR RPLI 081400Z NIL=
METAR RPMZ 081400Z NIL=
####018000091####
SPUS72 KWBC 081410
SPECI
KDFW 081407Z 13007KT 10SM SCT009 BKN050 OVC060 26/24 A3004=
####018000093####
SPUS72 KWBC 081410
SPECI
KPBI 081407Z 07008KT 10SM SCT024CB BKN042 BKN050 32/28 A2997=
####018000096####
SPUS73 KWBC 081410
SPECI
KJLN 081407Z VRB03KT 2SM RA BR BKN013 BKN030 OVC055 22/22 A3009=
####018000073####
SAUS81 KWBC 081408
&EHA SA 1408  AMOS 63/60/0213/M PK WND 15 005

####018000094####
SPUS75 KWBC 081410
SPECI
PACV 081406Z 14010G16KT 10SM SCT007 BKN011 OVC044 11/09 A3011=
####018001498####
SAXN17 KAWN 081400 RRF
METAR MGSJ 081400Z 00000KT CAVOK 25/23 Q1013 A29/91 BKN080 BKN200=
METAR MKJS 081400Z 11004KT 9999 FEW024 BKN220 30/22 Q1013=
METAR MMBT 081355Z RTD 00000KT 5SM SCT030 OVC110 24/22 A2990 RMK 8/46/
      HZY VRB COND=
METAR MRLB 081400Z 15005KT 9999 DZ FEW005 SCT012 BKN080 24/23 A2989=
METAR MRLM 081400Z 20003KT 9999 FEWEW010 BKN110 25/23 A2988 RMK RN
      DST NW=
METAR MRPV 081400Z 00000KT 9999 4000W BR BKN120 22/18 A3001 RMK DUST
      APCH RNY 09 TNG FG SW W NW TEMPO 24004KT=
METAR MYGF 081400Z 11006KT 9999 SCT018CB 30/24 A2998 RMK CB S/SW /=
METAR PHNG 081357Z 10004KT 10SM SCT026 BKN040 24/20 A3002 RMK AO2 SLP160
      T02390200 $=
METAR RCKH 081400Z 27006KT 230V290 9999 FEW013 BKN300 29/26 Q1010 NOSIG=
METAR RCTP 081400Z 19008KT 160V220 9999 FEW025 SCT150 29/25 Q1007 NOSIG=
METAR SKBQ 081400Z 20004KT 8000 SCT010 BKN070 28/26 A2992 HZ=
METAR TFFR 081405Z 10014KT 9999 BKN030 31/24 Q1015 NOSIG=
METAR TNCM 081400Z 07013KT 9999 SCT021 30/23 Q1016=
METAR TTCP 081400Z 09014KT 9999 -TSRA FEW010CB SCT015 BKN080 29/24
      Q1014 TEMPO TSRA=
METAR TTPP 081400Z 00000KT 8000 -RA FEW004 FEW010CB SCT014 BKN035 26/25
      Q1013 NOSIG=
METAR TVSV 081400Z 11014KT 9999 SCT023 SCT280 31/26 Q1014=
METAR TXKF 081355Z 12015KT 9999 SCT020CB SCT033 BKN130 BKN300 27/24
      Q1019 RMK CB DSNT SE-SW /=
METAR YBBN 081400Z 21008KT 9999 SCT040 13/10 Q1020 NOSIG=
METAR ZGGG 081400Z 16003MPS 9999 SCT030 32/26 Q1007 NOSIG=
####018000789####
SAEW KAWN 081400 RRG
METAR LFCG 081400Z 07005KT 020V180 CAVOK 35/18 Q1018=
METAR LFDH 081400Z 09008KT 050V150 CAVOK 36/15 Q1016=
METAR LFKC 081400Z 36011KT 330V030 9999 FEW010 FEW043TCU 29/22 Q1019
      NOSIG=
METAR LFMC 081400Z 10007KT 030V170 9999 FEW050 BKN230 33/18 Q1019=
METAR LFOF 081400Z 17005KT 100V250 CAVOK 31/10 Q1018 NOSIG=
METAR LFOI 081400Z 25004KT 180V350 CAVOK 30/14 Q1018=
METAR LFOR 081400Z 20006KT 110V270 CAVOK 33/08 Q1018=
METAR LFOW 081400Z VRB05KT CAVOK 31/12 Q1018=
METAR LFQG 081400Z 23006KT CAVOK 32/10 Q1018=
METAR LFRI 081400Z VRB03KT CAVOK 33/08 Q1017 NOSIG=
METAR LFRJ 081400Z AUTO 36006KT 300V050 9999NDV FEW024/// 24/17 Q1018=
METAR LFRL 081400Z 31007KT 9999 FEW023 22/16 Q1018=
METAR LFRM 081400Z VRB04KT CAVOK 33/08 Q1017=
####018001374####
SPZZ40 KAWN 081410 RRA
SPECI CYRT 081407Z 07014KT 3/4SM -DZ BR OVC001 RMK FG4ST4=
SPECI CYUA 081405Z AUTO 22009KT 9SM -RA OVC032 07/ A3005=
SPECI CYUS 081404Z AUTO ///// 9SM FEW089 14/ A2978=
SPECI CYXZ 081406Z 18002KT 15SM SCT007 SCT030TCU RMK ST3TCU1 TR TCU=
SPECI DXXX 081403Z 20012KT 9999 TS FEW016 FEW025CB 28/24 Q1012 BECMG
      4500 TSRA=
SPECI EBBE 081405Z 26006KT 9999 SKC 31/09 Q1019 BLU FCST CANCEL=
SPECI EETU 081407Z 30003KT 260V330 9999 TS FEW025CB SCT030 BKN120 22/20
      Q1013=
SPECI KFSI 081404Z AUTO 02008KT 10SM BKN010 OVC015 26/22 A3006 RMK
      AO2 CIG 008V013 SLP164=
SPECI KFSI 081405Z AUTO 01007KT 10SM BKN009 BKN014 26/22 A3006 RMK
      AO2 CIG 008V012 BKN009 V SCT SLP164=
SPECI KFSI 081406Z AUTO 02007KT 10SM SCT009 BKN014 26/22 A3006 RMK
      AO2 CIG 013V018 BKN V OVC SLP164=
SPECI KLTS 081405Z 35006KT 10SM -RA SCT006 OVC040 23/23 A3009 RMK AO2A=
SPECI KNLC 081405Z 31006KT 10SM CLR 18/11 A2985 RMK AO2 RH/60 $=
SPECI KNQI 081404Z 02006KT 10SM BKN010CB BKN100 BKN280 28/26 A2985
      RMK AO2 CB DSNT NE AND E-SE AND NW $=
SPECI KTIK 081406Z AUTO 01004KT 10SM BKN008 25/22 A3007 RMK AO2 SLP172
      $=
PATC SP 1415 AWOS CLR BLO 120 10 46/43/0109/013=
SPECI YPPH 081400Z 01011KT 9999 -SHRA FEW022 SCT042 13/13 Q0996 RMK
      WBD 0.3 INTER 1400/1700 29030G50KT 2000 TSGS BKN010 FEW030CB=
####018000096####
SPUS81 KWBC 081410
SPECI
KJLN 081407Z VRB03KT 2SM RA BR BKN013 BKN030 OVC055 22/22 A3009=
