####018000203####
SPUS90 KWBC 081236
SPECI KVCT 081233Z 35003KT 2SM RA BR SCT016 BKN028 OVC046 24/24
     A2990 RMK AO2 P0026=
SPECI KJCT 081234Z AUTO 00000KT 6SM BR SCT004 OVC026 23/22 A3003
     RMK AO2 TSNO=
####018001515####
SPZZ40 KAWN 081235 RRG
SPECI CYSB 081231Z 20010KT 3SM BR OVC005 RMK FG3SF5 CIG RAG=
SPECI CYUA 081231Z AUTO 22007KT 3SM FEW013 BKN018 05/ A3006 RMK VSBY
      VRBL 2.9V8.0=
SPECI CYUA 081232Z AUTO 22007KT 5SM FEW011 OVC021 05/ A3006=
SPECI CZBF 081232Z 00000KT 3SM BR BKN005 OVC006 RMK SF6ST2=
SPECI KFAF 081232Z 09005KT 10SM SCT019 27/26 A3000 RMK AO2A SLP160=
SPECI KFRI 081232Z AUTO 35007KT 8SM BKN008 22/21 A3011 RMK AO2 BKN
      V SCT SLP186=
SPECI KGRK 081233Z 06005KT 7SM SCT008 BKN016 OVC023 27/24 A3000=
SPECI KHUA 081230Z 02005KT 12SM SKC 28/21 A3012 RMK FIRST=
SPECI KNGP 081231Z 00000KT 10SM SCT012 SCT022CB BKN045 27/25 A2982
      RMK AO2 RAE31 CB DSNT SE TCU DSNT S-SW WR// VCSH W-NW P0002 $=
SPECI KOZR 081231Z 00000KT 3SM BR FEW001 24/24 A3004 RMK AO2A=
SPECI KSKF 081234Z 03006KT 7SM -RA BKN016 BKN045 25/24 A2993 RMK AO2A
      $=
PACZ SP 1235 AWOS MM 10 51/47/0709/003=
PAEH SP 1235 AWOS CLR BLO 120 10 49/-19/0000/998=
PAIM SP 1235 AWOS CLR BLO 120 10 50/44/2703/008=
PALU SP 1235 AWOS CLR BLO 120 10 53/39/2126/005=
PATL SP 1235 AWOS CLR BLO 120 10 56/43/0504/999=
SPECI COR UMII 081230Z 21005MPS 6000 -SHRA BKN017CB 20/18 Q101 4 R23/D
      TEMPO 2000 BKN005=
SPECI UMII 081230Z 21005MPS 6000 -SHRA BKN017CB 20/18 Q1014 R23/D TEMPO
      2000 TS BKN005=
SPECI YSSY 081230Z 24008KT 7000 -SHRA FEW008 SCT030 BKN045 11/11 Q1027
      RMK VIS REDUCED TO EAST FM1250 22010KT 9999 -SHRA SCT025
      BKN040 INTER 1250/1530 5000 SHRA BKN010=
####018000106####
SAUK39 EGRR 081150 CCE
METAR COR EGQK 081150Z 22016G26KT 9999 FEW027 BKN050 18/08 Q1009 BLU
 NOSIG=
####018001861####
SAEU KAWN 081200 RRX
METAR EGQK 081150Z 22016G26KT 9999 FEW027 BKN050 18/08 Q1009 BLU NOSIG=
METAR EGQS 081150Z 22016KT 9999 FEW030 BKN050 16/10 Q1009 BLU NOSIG=
METAR EGXG 081150Z 26011KT 9999 SCT042 BKN200 20/08 Q1016 BLU=
METAR EGYD 081150Z 25012KT 9999 FEW045 BKN250 22/09 Q1017 BLU NOSIG=
METAR ETHC 081220Z 26008KT 9999 FEW140 30/09 Q1019 BLU/BLU/=
METAR LEGE 081230Z 19008KT 100V240 CAVOK 33/17 Q1019=
METAR LFLL 081230Z 23005KT 170V290 CAVOK 32/13 Q1020 NOSIG=
METAR LFMI 081230Z AUTO 19006KT 110V250 9999NDV NSC 34/14 Q1019=
METAR LFMK 081230Z AUTO 08016KT 9999NDV NSC 34/13 Q1019=
METAR LFMN 081230Z 12006KT 9999 FEW023 29/23 Q1020 NOSIG=
METAR LFMU 081230Z AUTO 15007KT 100V200 9999NDV NSC 29/15 Q1020=
METAR LFPG 081230Z 18007KT 110V220 CAVOK 31/09 Q1019 NOSIG=
METAR LFPO 081230Z 26005KT 190V350 CAVOK 31/09 Q1018 NOSIG=
METAR LFQQ 081230Z VRB05KT CAVOK 30/12 Q1018 NOSIG=
METAR LFRN 081230Z AUTO 27004KT 210V350 9999NDV NSC 30/12 Q1018=
METAR LFRZ 081230Z AUTO 21010KT 9999NDV NSC 32/10 Q1018=
METAR LFSB 081230Z VRB03KT CAVOK 31/11 Q1020 NOSIG=
METAR LFST 081230Z VRB04KT CAVOK 30/10 Q1020 NOSIG=
METAR LGZA 081220Z 32016KT CAVOK 29/08 Q1013=
METAR LJPZ 081230Z 30009KT CAVOK 26/10 Q1022=
METAR LPFR 081230Z 25010KT 220V280 9999 FEW012 24/20 Q1016=
METAR LPPR 081230Z 21007KT 180V240 5000 BR SCT004 BKN006 22/18 Q1015=
METAR LPPS 081230Z 02011KT 9999 FEW016 SCT030 22/15 Q1021=
METAR LPPT 081230Z 24007KT 190V270 9999 FEW025 29/19 Q1016 NOSIG=
METAR LRBS 081230Z 31003KT 260V010 9999 FEW025 21/15 Q1016 NOSIG=
METAR LRCK 081230Z 01011KT 300V040 9999 FEW035 25/16 Q1014 NOSIG=
METAR LROP 081230Z 28005KT 260V320 9999 FEW045CB 21/15 Q1016 880///95
      NOSIG=
METAR LRSB 081230Z AUTO 35006KT 310V020 9999 BKN038 17/13 Q1020=
METAR LRTR 081230Z 35009KT 320V020 9999 SCT037 24/15 Q1020=
####018000113####
SAUS44 KSJT 081235
MTRJCT
SPECI KJCT 081234Z AUTO 00000KT 6SM BR SCT004 OVC026 23/22 A3003 RMK 
AO2 TSNO
####018000098####
SAUZ31 UTTW 081230
METAR UTSS 081230Z 07005MPS 040V100 9999 NSC 35/12 Q1009
R88/CLRD70 NOSIG=
####018000098####
SAAJ31 UBBB 081230
METAR UBBG 081230Z 07014KT 9999 SCT083 36/16 Q1009 NOSIG RMK
R12L/CLRD70 =
####018001218####
SAUS99 KWBC 081236
METAR
KAWO 081235Z AUTO 00000KT 5SM CLR 12/12 A2998 RMK AO1=
KBDN 081235Z AUTO 22004KT 10SM CLR 12/03 A3012 RMK AO2=
KCGC 081235Z AUTO 00000KT 10SM CLR 24/22 A3001 RMK=
KCOE 081235Z AUTO 06008KT 10SM CLR 13/09 A3010 RMK AO1=
KCVO 081235Z AUTO 27006KT 10SM CLR 12/09 A2994 RMK AO1=
KDYB 081235Z AUTO 00000KT 10SM CLR 25/21 A2997 RMK AO1=
KFTN 081235Z AUTO 02004KT 10SM BKN008 OVC016 25/23 A2992 RMK
     AO1=
KGAI 081235Z 00000KT 5SM CLR 27/23 A3005 RMK AO1=
KGLY 081235Z AUTO 00000KT 5SM BR BKN006 23/23 A3007 RMK AO2=
KHEF 081235Z AUTO 08004KT 5SM FEW080 BKN100 28/22 A3002 RMK
     AO1=
KKLS 081235Z AUTO 00000KT 10SM CLR 14/12 A2994 RMK AO1=
KLGD 081235Z AUTO 32003KT 10SM CLR 08/04 A3007 RMK AO1=
KLKV 081235Z AUTO 33007KT 10SM CLR 11/00 A3013 RMK AO1=
KMNI 081235Z AUTO 32004KT 10SM CLR 27/23 A2997 RMK AO2=
KOTH 081235Z 26003KT 10SM OVC006 09/08 A3000 RMK AO1=
KPWT 081235Z AUTO 03009KT 10SM CLR 22/07 A2998 RMK AO1=
KSPA 081235Z AUTO 02004KT 10SM CLR 27/23 A3003 RMK AO2=
KSPL 081235Z AUTO 34008KT 27/25 A2975 RMK AO2 PWINO PNO=
KTEX 081233Z AUTO 14004KT 10SM SCT110 12/05 A3046 RMK AO2=
KUTA 081235Z AUTO 00000KT 10SM CLR 26/22 A3008 RMK AO2=
####018000412####
SARO32 LROM 081230
METAR LRAR 081230Z 04008KT 340V080 9999 SCT044 23/14 Q1020=
METAR LRBM 081230Z 32006KT 290V020 9999 FEW034 SCT043 20/14 Q1019=
METAR LRCL 081230Z 31006KT 280V350 9999 FEW022 BKN035 18/13 Q1021
0821//95=
METAR LROD 081230Z 34010KT 310V020 CAVOK 23/12 Q1020=
METAR LRSM 081230Z 36006KT 9999 BKN041 22/14 Q1020=
METAR LRTM 081230Z 28004KT 220V350 9999 FEW018 SCT028 BKN031 19/14
Q1020=
####018000335####
SARO33 LROM 081230
METAR LRBC 081230Z 01014KT 340V040 9999 FEW022 BKN033 22/17 Q1017=
METAR COR LRCV 081230Z VRB04KT 9999 FEW033 SCT040 23/14 Q1017=
METAR LRIA 081230Z 30012KT 9999 FEW020 SCT029 22/17 Q1017=
METAR LRSV 081230Z 31018KT 9999 SCT011 BKN044 16/14 Q1019=
METAR LRTC 081230Z 36010KT 9999 FEW030CB BKN040 24/17 Q1014=
####018000229####
SANM40 FYWW 081230
METAR FYWB 081230Z 04010G21KT 350V080 9999 R09/M0050VP1500U
     R27/M0050VP1500D VV/// 33/03 Q1014 =
METAR FYWB 081230Z 04010G21KT 350V080 9999 R09/M0050VP1500U
     R27/M0050VP1500D VV/// 33/03 Q1014 =
####018000096####
SAMG20 FMMI 081230
METAR FMMI 081230Z 10009KT 080V160 9999 BKN020 SCT023 18/13 Q1025
NOSIG=
####018000138####
SAAM20 FCBB 081200 RRA
METAR FOOG 081200Z /////KT 9999 SCT010 27/22 Q1015=
METAR FOON 081200Z 31008KT 7000 SCT023 BKN040 28/22 Q1016=
####018000091####
SAUK51 EGGY 081150 RRF
METAR EGXC 081150Z 24007KT 9999 FEW040 BKN250 22/07 Q1017 NOSIG=
####018000159####
SAAY31 RUMS 081230
METAR UDYZ 081230Z 11003MPS 080V140 9999 FEW050 38/12 Q1008 09010070
NOSIG=
METAR UDSG 081230Z 07009MPS 9999 SCT050TCU 02CLRD70 NOSIG=
####018000124####
SAKY31 RUMS 081230
METAR UAFM 081230Z 24009MPS 7000 NSC 32/07 Q1012 TEMPO 24007G12MPS
FCST WS=
METAR UAFO 081230Z NIL=
####018000208####
SATR31 RUMS 081230
METAR UTAA 081230Z 08002MPS 9999 SKC 44/02 Q1007 NOSIG=
METAR UTAK 081230Z NIL=
METAR UTAM 081230Z 01005MPS CAVOK 42/05 Q1005 NOSIG=
METAR UTAT 081230Z NIL=
METAR UTAV 081230Z NIL=
####018000922####
SPXX60 KWBC 081236
SPECI
KOZR 081231Z 00000KT 3SM BR FEW001 24/24 A3004 RMK AO2A=
KHUA 081230Z 02005KT 12SM SKC 28/21 A3012 RMK FIRST=
KFAF 081232Z 09005KT 10SM SCT019 27/26 A3000 RMK AO2A SLP160=
KFRI 081232Z AUTO 35007KT 8SM BKN008 22/21 A3011 RMK AO2 BKN V SCT
     SLP186=
KGRK 081233Z 06005KT 7SM SCT008 BKN016 OVC023 27/24 A3000=
KHUA 081230Z 02005KT 12SM SKC 28/21 A3012 RMK FIRST=
KNGP 081231Z 00000KT 10SM SCT012 SCT022CB BKN045 27/25 A2982 RMK
     AO2 RAE31 CB DSNT SE TCU DSNT S-SW WR// VCSH W-NW P0002 $=
KOZR 081231Z 00000KT 3SM BR FEW001 24/24 A3004 RMK AO2A=
KSKF 081234Z 03006KT 7SM -RA BKN016 BKN045 25/24 A2993 RMK AO2A
     $=
PACZ SP 1235 AWOS MM 10 51/47/0709/003=
PAEH SP 1235 AWOS CLR BLO 120 10 49/-19/0000/998=
PAIM SP 1235 AWOS CLR BLO 120 10 50/44/2703/008=
PALU SP 1235 AWOS CLR BLO 120 10 53/39/2126/005=
PATL SP 1235 AWOS CLR BLO 120 10 56/43/0504/999=
####018000963####
SPUS70 KWBC 081236
SPECI
KMKO 081232Z AUTO 14003KT 5SM BR OVC014 23/23 A3005 RMK AO2
     RAB23E32 P0000=
KAEX 081233Z AUTO 00000KT 10SM FEW006 25/24 A3003 RMK AO2=
KAUW 081233Z AUTO 32006KT 7SM OVC004 19/18 A3003 RMK AO2=
KBAZ 081233Z AUTO 04007KT 6SM -RA BR BKN009 OVC016 25/24 A2994 RMK
     AO2 RAB27 CIG 008V013 P0000=
KCEC 081233Z AUTO 25003KT 3SM BR OVC003 10/09 A2998 RMK AO2 CIG
     001V005=
KHQM 081233Z AUTO 27008KT 3/4SM BR 13/12 A2997 RMK AO2 $=
KJEF 081233Z 00000KT 1 3/4SM BR OVC003 24/23 A3006 RMK AO2=
KMKC 081233Z 01005KT 10SM BKN008 23/21 A3008 RMK AO2 CIG
     008V012=
KPKB 081233Z 00000KT 3SM BCFG BR CLR 23/21 A3012 RMK AO2 VIS N-E
     1/2=
KRWL 081233Z AUTO 07007KT 10SM OVC007 09/08 A3041 RMK AO2=
KSTS 081233Z AUTO 00000KT 10SM OVC004 12/10 A2992 RMK AO2=
KTAD 081233Z AUTO 28004KT 10SM SCT028 14/13 A3036 RMK AO2=
KJCT 081234Z AUTO 00000KT 6SM BR SCT004 OVC026 23/22 A3003 RMK AO2
     TSNO=
####018003208####
SAUS70 KWBC 081236
METAR
KAIK 081235Z AUTO 29004KT 10SM CLR 27/23 A3005 RMK AO2 PNO=
KARW 081235Z AUTO 28008KT 10SM CLR 27/18 A2999 RMK AO2=
KFDW 081235Z AUTO 30004KT 10SM CLR 26/18 A3002 RMK AO1=
KMEZ 081235Z AUTO 00000KT 2 1/2SM RA SCT011 BKN018 OVC031 25/23
     A3009 RMK AO2 P0001=
KOAJ 081235Z AUTO 04009KT 5SM CLR 27/23 A2996 RMK AO1=
KPSO 081235Z AUTO 00000KT 10SM SCT120 08/05 A3040 RMK AO2=
KSOP 081235Z AUTO 00000KT 8SM CLR 28/19 A2999 RMK AO1=
KUDG 081235Z 32004KT 10SM FEW100 27/19 A2999 RMK AO1=
KPMV 081230Z AUTO 33003KT 10SM CLR 20/19 A3015 RMK AO2
     T02010193=
KDUC 081234Z AUTO 05003KT 10SM CLR 23/23 A3005 RMK AO2=
KHDE 081230Z AUTO 36005KT 10SM OVC085 17/15 A3023 RMK AO2
     T01660148=
KHJH 081230Z AUTO 35005KT 10SM OVC029 20/18 A3017 RMK AO2
     T01950177=
KIBM 081230Z AUTO 00000KT 5SM BR SCT060 BKN070 OVC080 13/12 A3033
     RMK AO2 T01260118=
KJYR 081230Z AUTO 36003KT 10SM CLR 17/15 A3020 RMK AO2=
KL35 081232Z AUTO 00000KT 10SM CLR 06/M04 A3018 RMK AO2=
KLCG 081230Z AUTO 00000KT 10SM CLR 17/15 A3019 RMK AO2
     T01650152=
KLHM 081231Z AUTO 17005KT 10SM CLR 15/11 A2983 RMK AO1
     T01470110=
KLXN 081230Z AUTO 00000KT 10SM SCT050 17/16 A3024 RMK AO2
     T01730162=
KMLE 081230Z AUTO 00000KT 10SM SCT017 SCT060 20/17 A3015 RMK AO2
     T02000171=
KMMH 081230Z AUTO 31003KT 10SM CLR 07/01 A3023 RMK AO1=
KOGA 081230Z AUTO 00000KT 10SM OVC100 16/15 A3029 RMK AO2
     T01550145=
KONL 081230Z AUTO 00000KT 10SM CLR 17/16 A3022 RMK AO2
     T01700157=
KONP 081232Z AUTO 00000KT 4SM BR OVC004 11/10 A2999 RMK AO1=
KPNA 081230Z AUTO 30007KT 10SM SCT100 05/01 A3041 RMK AO2
     T00530013=
KPTT 081230Z AUTO 02008KT 4SM BR OVC004 20/19 A3017 RMK AO2=
KSUN 081231Z AUTO 32009KT 10SM CLR 10/00 A3025 RMK AO2=
KSZT 081230Z AUTO 26003KT 10SM CLR 09/08 A3011 RMK AO2=
KTIF 081230Z AUTO 29003KT 10SM SCT090 OVC120 16/15 A3028 RMK AO2
     T01600147=
KTRK 081230Z AUTO 15003KT 10SM CLR 08/06 A3016 RMK AO2=
KAWO 081235Z AUTO 00000KT 5SM CLR 12/12 A2998 RMK AO1=
KBDN 081235Z AUTO 22004KT 10SM CLR 12/03 A3012 RMK AO2=
KCGC 081235Z AUTO 00000KT 10SM CLR 24/22 A3001 RMK=
KCOE 081235Z AUTO 06008KT 10SM CLR 13/09 A3010 RMK AO1=
KCVO 081235Z AUTO 27006KT 10SM CLR 12/09 A2994 RMK AO1=
KDYB 081235Z AUTO 00000KT 10SM CLR 25/21 A2997 RMK AO1=
KFTN 081235Z AUTO 02004KT 10SM BKN008 OVC016 25/23 A2992 RMK
     AO1=
KGAI 081235Z 00000KT 5SM CLR 27/23 A3005 RMK AO1=
KGLY 081235Z AUTO 00000KT 5SM BR BKN006 23/23 A3007 RMK AO2=
KHEF 081235Z AUTO 08004KT 5SM FEW080 BKN100 28/22 A3002 RMK
     AO1=
KKLS 081235Z AUTO 00000KT 10SM CLR 14/12 A2994 RMK AO1=
KLGD 081235Z AUTO 32003KT 10SM CLR 08/04 A3007 RMK AO1=
KLKV 081235Z AUTO 33007KT 10SM CLR 11/00 A3013 RMK AO1=
KMNI 081235Z AUTO 32004KT 10SM CLR 27/23 A2997 RMK AO2=
KOTH 081235Z 26003KT 10SM OVC006 09/08 A3000 RMK AO1=
KPWT 081235Z AUTO 03009KT 10SM CLR 22/07 A2998 RMK AO1=
KSPA 081235Z AUTO 02004KT 10SM CLR 27/23 A3003 RMK AO2=
KSPL 081235Z AUTO 34008KT 27/25 A2975 RMK AO2 PWINO PNO=
KTEX 081233Z AUTO 14004KT 10SM SCT110 12/05 A3046 RMK AO2=
KUTA 081235Z AUTO 00000KT 10SM CLR 26/22 A3008 RMK AO2=
####018000682####
SAKZ31 RUMS 081230
METAR UAAA 081230Z 23002MPS 190V280 9999 SCT050CB BKN100 27/10 Q1013
88CLRD65 TEMPO TS=
METAR UACC 081230Z 33008MPS CAVOK 24/01 Q1008 220/0070 NOSIG RMK
QFE725/0967=
METAR UAKK 081230Z 07002MPS 020V100 9999 VCTS BKN050CB BKN/// 21/06
Q1009 230///70 TEMPO TSRA RMK QFE710/0947=
METAR UAOO 081230Z NIL=
METAR UARR 081230Z NIL=
METAR UATE 081230Z 01006MPS CAVOK 39/08 Q1009 300///70 NOSIG RMK
QFE755/1007=
METAR UATG 081230Z 33006G11MPS CAVOK 39/08 Q1008 32CLRD70 NOSIG RMK
QFE758/1011 =
METAR UATT 081230Z 09008MPS 9999 NSC 33/02 Q1010 13CLRD70 NOSIG RMK
QFE738/0984=
METAR UAUU 081230Z 33008MPS CAVOK 26/M03 Q1012 33CLRD70 NOSIG RMK
QFE743/0991=
####018000132####
SAAF34 KWBC 081200 RRE
METAR
FYWB 081230Z 04010G21KT 350V080 9999 R09/M0050VP1500U
     R27/M0050VP1500D VV/// 33/03 Q1014=
####018000821####
SAAO31 KWBC 081230
METAR
GCFV 081230Z 05015KT 9999 FEW020 23/19 Q1017=
GCHI NIL=
GCLA 081230Z 02011KT 340V050 9999 SCT020 25/17 Q1020=
GCLP 081230Z 03028KT 9999 FEW020 24/17 Q1017 NOSIG=
GCRR 081230Z 36017KT 320V020 9999 FEW020 27/18 Q1017=
GCTS 081230Z 10013KT 060V120 9999 FEW020 26/17 Q1017 NOSIG=
GCXO 081230Z 29010KT 9999 FEW005 23/17 Q1020 NOSIG=
GEML 081230Z 10009KT 050V120 9999 FEW012 27/21 Q1017=
GMAA NIL=
GMAT NIL=
GMFF 081230Z NIL=
GMFO NIL=
GMME 081230Z 35007KT 330V030 6000 SCT010 BKN016 25/19 Q1016
     NOSIG=
GMMN 081230Z 03009KT 350V070 9999 SCT016 BKN023 27/19 Q1017
     NOSIG=
GMMX 081230Z 28006KT 240V010 8000 FEW026 35/16 Q1016 NOSIG=
GMOY NIL=
GMTA NIL=
GMTN NIL=
GMTT 081230Z 25004KT 180V310 8000 SCT016 BKN230 27/20 Q1016
     NOSIG=
GSAI NIL=
####018000081####
SPAK32 KWBC 081236
SPECI
PAEH SP 1235 AWOS CLR BLO 120 10 49/-19/0000/998=
####018000071####
SPAK32 KWBC 081236
SPECI
PACZ SP 1235 AWOS MM 10 51/47/0709/003=
####018000198####
SPAU31 KWBC 081236
SPECI
YSSY 081230Z 24008KT 7000 -SHRA FEW008 SCT030 BKN045 11/11 Q1027
RMK VIS REDUCED TO EAST FM1250 22010KT 9999 -SHRA SCT025 BKN040
INTER 1250/1530 5000 SHRA BKN010=
####018000088####
SAAF32 KWBC 081200 RRF
METAR
FOON 081200Z 31008KT 7000 SCT023 BKN040 28/22 Q1016=
####018000080####
SPAK32 KWBC 081236
SPECI
PAIM SP 1235 AWOS CLR BLO 120 10 50/44/2703/008=
####018000085####
SAAF11 LFPW 081200 RRD
METAR FOON 081200Z 31008KT 7000 SCT023 BKN040 28/22 Q1016=
####018000028####
SAAS31 KWBC 081230
NIL=
####018000273####
SPUS80 KWBC 081236
SPECI
KSBN 081232Z 00000KT 2SM +TSRA BR SCT020 BKN035CB OVC055 23/22
     A3005 RMK AO2 TWR VIS 2 1/2 TSB25RAB1155 OCNL LTGIC OHD TS
     OHD MOV NE P0010=
KVCT 081233Z 35003KT 2SM RA BR SCT016 BKN028 OVC046 24/24 A2990
     RMK AO2 P0026=
####018000372####
SAPO31 LPMG 081230
METAR LPFR 081230Z 25010KT 220V280 9999 FEW012 24/20 Q1016=
METAR LPMA 081230Z 21006KT 180V250 9999 FEW016 24/18 Q1021 RS16005KT
0521005KT 2304013KT=
METAR LPPR 081230Z 21007KT 180V240 5000 BR SCT004 BKN006 22/18 Q1015=
METAR LPPS 081230Z 02011KT 9999 FEW016 SCT030 22/15 Q1021=
METAR LPPT 081230Z 24007KT 190V270 9999 FEW025 29/19 Q1016 NOSIG=
####018000104####
SAUS80 KWBC 081236
METAR
KSOW 081230Z AUTO 17004KT 10SM BKN100 BKN120 20/03 A3026 RMK
     AO2=
####018000080####
SPAK32 KWBC 081236
SPECI
PALU SP 1235 AWOS CLR BLO 120 10 53/39/2126/005=
####018000080####
SPAK32 KWBC 081236
SPECI
PATL SP 1235 AWOS CLR BLO 120 10 56/43/0504/999=
####018000405####
SAAS33 KWBC 081230
METAR
VBRR NIL=
VDPP NIL=
VDSR NIL=
VLVT NIL=
VTBA NIL=
VTBD NIL=
VTBU NIL=
VTCC NIL=
VTSP NIL=
VTSS NIL=
VVDN NIL=
VVGL NIL=
VVNB NIL=
VVTS NIL=
WBGG NIL=
WBKK NIL=
WMAM NIL=
WMKJ NIL=
WMKK NIL=
WMKP NIL=
WMSA NIL=
WPDL NIL=
WPEC NIL=
WSAP NIL=
WSSL NIL=
WSSS 081230Z 22004KT 180V250 9999 FEW016 SCT190 28/24 Q1009
     NOSIG=
####018000213####
SAAS32 KWBC 081230
METAR
RKPC NIL=
RKPK NIL=
RKSS NIL=
VHHH 081230Z 19006KT 140V250 9999 FEW015 31/25 Q1007 NOSIG=
VMMC 081230Z 19010KT 170V260 9999 FEW020 29/26 Q1006 NOSIG=
ZJSY NIL=
ZKPY NIL=
####018000028####
SAAW31 KWBC 081230
NIL=
####018000653####
SAAW32 KWBC 081230
METAR
OEDF NIL=
OEDR NIL=
OEJN NIL=
OEMA NIL=
OERK NIL=
OIAA NIL=
OIAW NIL=
OIBB NIL=
OIBK NIL=
OICC NIL=
OICK NIL=
OICS NIL=
OIFM NIL=
OIFP NIL=
OIGG NIL=
OIHH NIL=
OIII NIL=
OIIM NIL=
OIIP NIL=
OIIX NIL=
OIKB NIL=
OIKK NIL=
OIMM NIL=
OINN NIL=
OINR NIL=
OINZ NIL=
OISM NIL=
OISS NIL=
OITL NIL=
OITR NIL=
OITT NIL=
OIYY NIL=
OIZH NIL=
OKBK 081230Z 34019KT 6000 -BLDU SKC 48/M07 Q0999 NOSIG=
ORBI NIL=
ORBS NIL=
ORMM NIL=
OSAP NIL=
OSDI NIL=
OSLK NIL=
OTBD 081230Z 05009KT 020V080 6000 HZ NSC 36/30 Q0999 NOSIG=
OTBH NIL=
OTMA NIL=
OTMS NIL=
####018000028####
SAAW33 KWBC 081230
NIL=
####018000111####
SAAW34 KWBC 081215 RRB
METAR
UTSS 081230Z 07005MPS 040V100 9999 NSC 35/12 Q1009 R88/CLRD70
     NOSIG=
####018000115####
SPEE31 KWBC 081236
SPECI
UMII 081230Z 21005MPS 6000 -SHRA BKN017CB 20/18 Q1014 R23/D TEMPO
2000 TS BKN005=
####018000113####
SPEE31 KWBC 081236
SPECI
UMII 081230Z 21005MPS 6000 -SHRA BKN017CB 20/18 Q101 4 R23/D TEMPO
2000 BKN005=
####018000089####
SABX31 KWBC 081220 RRB
METAR
EBBE 081225Z 30005KT 9999 FEW060 30/09 Q1019 BLU BLU=
####018000630####
SAEE31 KWBC 081230
METAR
EPGD 081230Z VRB04KT CAVOK 25/13 Q1021=
EPKK 081230Z VRB04KT 9999 FEW060 24/07 Q1022=
EPKT 081230Z 02007KT CAVOK 23/07 Q1022=
EPPO 081230Z 31007KT 250V360 CAVOK 25/08 Q1022=
EPQT NIL=
EPRZ 081230Z 32008KT 280V350 9999 FEW046 22/11 Q1021=
EPSC NIL=
EPWA 081230Z 34011KT 290V030 CAVOK 23/10 Q1021 NOSIG=
EYSA NIL=
UKBB 081230Z 33002MPS 280V040 9999 BKN038 26/17 Q1014 88CLRD95
     NOSIG=
UKKK NIL=
UKLL 081230Z 30003MPS 250V010 9999 SCT033 BKN100 20/11 Q1021
     31210365 NOSIG=
UKOO 081230Z 32005MPS CAVOK 27/14 Q1014 34090070 NOSIG=
UMII NIL=
UMMM NIL=
UMMS NIL=
####018000716####
SAEE32 KWBC 081230
METAR
LBBG 081230Z 28004MPS 260V320 9999 BKN021 BKN030 18/15 Q1015 TEMPO
     SHRA=
LBPD 081230Z 26004MPS 9999 -RA SCT040 OVC065 17/14 Q1017 NOSIG=
LBSF 081230Z 28005MPS 9999 FEW030 BKN050 19/12 Q1018 NOSIG=
LBWN 081230Z 29006MPS 260V320 9999 FEW023 SCT040 20/16 Q1014
     NOSIG=
LHBP 081230Z 25008KT 200V290 CAVOK 24/10 Q1021 NOSIG=
LHTA NIL=
LRAR NIL=
LRBS 081230Z 31003KT 260V010 9999 FEW025 21/15 Q1016 NOSIG=
LRCK 081230Z 01011KT 300V040 9999 FEW035 25/16 Q1014 NOSIG=
LROP 081230Z 28005KT 260V320 9999 FEW045CB 21/15 Q1016 880///95
     NOSIG=
LRTC NIL=
LRTM NIL=
LRTR 081230Z 35009KT 320V020 9999 SCT037 24/15 Q1020=
LUCC NIL=
LUKK NIL=
LURN NIL=
####018001789####
SAEM31 KWBC 081230
METAR
KQLA NIL=
KQLH NIL=
KQLX NIL=
LATI 081230Z 02014G24KT 340V050 9999 FEW050 27/12 Q1016 NOSIG=
LDDU 081230Z 28012KT 230V340 9999 FEW045 26/10 Q1018 NOSIG=
LDDV NIL=
LDKT NIL=
LDOS 081230Z VRB05KT 9999 FEW033 25/08 Q1021 NOSIG=
LDPL 081230Z 25007KT 200V310 CAVOK 26/12 Q1022 NOSIG=
LDRI 081230Z 26005KT 190V330 9999 FEW047 26/10 Q1021 NOSIG=
LDSP 081230Z 23011KT 180V250 CAVOK 29/08 Q1020 NOSIG=
LDZA 081230Z VRB03KT CAVOK 26/07 Q1022 NOSIG=
LDZD 081230Z 29013KT 260V330 CAVOK 28/07 Q1020 NOSIG=
LJLJ 081230Z 13003KT 030V210 9999 FEW040 24/10 Q1022 NOSIG=
LJMB 081230Z VRB02KT 9999 FEW040 25/08 Q1022=
LJPZ 081230Z 30009KT CAVOK 26/10 Q1022=
LKIB NIL=
LKMT 081230Z 02005KT 280V090 CAVOK 22/09 Q1023 NOSIG=
LKPR 081230Z 35004KT 290V050 CAVOK 24/11 Q1023 NOSIG=
LKTB 081230Z 33006KT 280V040 CAVOK 25/08 Q1022 NOSIG=
LKTT NIL=
LOAV NIL=
LOIH NIL=
LOIJ NIL=
LOLW NIL=
LOWG NIL=
LOWH NIL=
LOWI NIL=
LOWK NIL=
LOWL NIL=
LOWS NIL=
LOWW NIL=
LOWZ NIL=
LQSA 081230Z 30005KT 200V040 9999 FEW050 SCT600 22/12 Q1023
     NOSIG=
LWOH 081230Z 34010KT 9999 FEW040 BKN050 20/10 Q1019=
LWSK 081230Z 35013KT 9999 BKN046 19/11 Q1020 NOSIG=
LYBE 081230Z 36012KT CAVOK 23/12 Q1021 NOSIG=
LYDU NIL=
LYLJ NIL=
LYMB NIL=
LYNI 081230Z 32012KT 9999 FEW020 SCT026 18/13 Q1021 NOSIG=
LYOH NIL=
LYOS NIL=
LYPG 081230Z 02017G27KT 9999 FEW040 28/08 Q1018 NOSIG=
LYPL NIL=
LYPR 081230Z NIL=
LYPZ NIL=
LYRI NIL=
LYSA NIL=
LYSK NIL=
LYSP NIL=
LYTI NIL=
LYTV 081230Z 02008KT 9999 FEW053 29/10 Q1017 NOSIG=
LYZA NIL=
LYZD NIL=
LZIB 081230Z VRB03KT CAVOK 26/08 Q1021=
LZKZ 081230Z 02010KT 310V060 CAVOK 24/05 Q1021 NOSIG=
LZTT 081230Z 07012KT 040V130 9999 FEW040 21/08 Q1022 NOSIG=
####018000316####
SAEW31 KWBC 081230
METAR
LPAZ NIL=
LPFR 081230Z 25010KT 220V280 9999 FEW012 24/20 Q1016=
LPFU NIL=
LPPD NIL=
LPPR 081230Z 21007KT 180V240 5000 BR SCT004 BKN006 22/18 Q1015=
LPPS 081230Z 02011KT 9999 FEW016 SCT030 22/15 Q1021=
LPPT 081230Z 24007KT 190V270 9999 FEW025 29/19 Q1016 NOSIG=
LXGB NIL=
####018000644####
SAFR31 KWBC 081230
METAR
LFAC NIL=
LFAT NIL=
LFBD 081230Z 11010KT 080V140 9999 FEW046 BKN230 34/13 Q1016
     NOSIG=
LFBH 081230Z AUTO 31007KT 280V340 9999NDV NSC 32/10 Q1017=
LFBI 081230Z NIL=
LFBO 081230Z 12010KT 080V160 CAVOK 35/13 Q1017 NOSIG=
LFBP 081230Z NIL=
LFBT 081230Z NIL=
LFBZ 081230Z NIL=
LFGJ NIL=
LFKB 081230Z 10006KT 060V140 9999 FEW025 29/21 Q1020 NOSIG=
LFKC 081230Z NIL=
LFKJ 081230Z 19010KT 9999 FEW030 FEW046TCU 30/23 Q1019 NOSIG=
LFLB 081230Z NIL=
LFLC 081230Z NIL=
LFLL 081230Z 23005KT 170V290 CAVOK 32/13 Q1020 NOSIG=
LFLS 081230Z NIL=
LFLY 081230Z NIL=
LFMD NIL=
LFMH NIL=
####018000984####
SAFR32 KWBC 081230
METAR
LFML 081230Z 27006KT CAVOK 33/18 Q1019 NOSIG=
LFMN 081230Z 12006KT 9999 FEW023 29/23 Q1020 NOSIG=
LFMP 081230Z NIL=
LFMT 081230Z NIL=
LFOB 081230Z NIL=
LFOH 081230Z AUTO 33008KT 9999NDV NSC 24/14 Q1019=
LFOT NIL=
LFPB 081230Z 18006KT 120V250 CAVOK 32/11 Q1018 NOSIG=
LFPG 081230Z 18007KT 110V220 CAVOK 31/09 Q1019 NOSIG=
LFPN NIL=
LFPO 081230Z 26005KT 190V350 CAVOK 31/09 Q1018 NOSIG=
LFQQ 081230Z VRB05KT CAVOK 30/12 Q1018 NOSIG=
LFRB 081230Z NIL=
LFRC NIL=
LFRD 081230Z AUTO 01007KT 310V040 9999NDV NSC 22/15 Q1019=
LFRG NIL=
LFRK NIL=
LFRN 081230Z AUTO 27004KT 210V350 9999NDV NSC 30/12 Q1018=
LFRO 081230Z AUTO 03006KT 340V070 9999NDV NSC 21/16 Q1019=
LFRQ NIL=
LFRS 081230Z NIL=
LFRT NIL=
LFRZ 081230Z AUTO 21010KT 9999NDV NSC 32/10 Q1018=
LFSB 081230Z VRB03KT CAVOK 31/11 Q1020 NOSIG=
LFSF NIL=
LFSN 081230Z NIL=
LFSR NIL=
LFST 081230Z VRB04KT CAVOK 30/10 Q1020 NOSIG=
LFTW NIL=
LFVP NIL=
####018000522####
SAFR41 KWBC 081230
METAR
LFAF NIL=
LFBA NIL=
LFBC NIL=
LFBL 081230Z NIL=
LFBM NIL=
LFKF 081230Z NIL=
LFLD NIL=
LFLV NIL=
LFOE NIL=
LFOP 081230Z NIL=
LFPB 081230Z 18006KT 120V250 CAVOK 32/11 Q1018 NOSIG=
LFPG 081230Z 18007KT 110V220 CAVOK 31/09 Q1019 NOSIG=
LFPV NIL=
LFQB NIL=
LFQQ 081230Z VRB05KT CAVOK 30/12 Q1018 NOSIG=
LFRH NIL=
LFRM NIL=
LFSC NIL=
LFSD NIL=
LFSI NIL=
LFSL 081230Z AUTO 11007KT 090V150 9999NDV NSC 31/13 Q1019=
LFSO NIL=
LFSX NIL=
LFTH 081230Z NIL=
####018000113####
SPRA31 KWBC 081236
SPECI
UMII 081230Z 21005MPS 6000 -SHRA BKN017CB 20/18 Q101 4 R23/D TEMPO
2000 BKN005=
####018000115####
SPRA31 KWBC 081236
SPECI
UMII 081230Z 21005MPS 6000 -SHRA BKN017CB 20/18 Q1014 R23/D TEMPO
2000 TS BKN005=
####018000075####
SAGR41 KWBC 081220 RRB
METAR
LGZA 081220Z 32016KT CAVOK 29/08 Q1013=
####018000028####
SAHA31 KWBC 081230
NIL=
####018000090####
SAUK39 EGRR 081150 RRX
METAR EGVO 081150Z AUTO 25008KT 9999NDV FEW014/// 21/16 Q1019=
####018000109####
SAIO31 KWBC 081200 RRF
METAR
FMMI 081230Z 10009KT 080V160 9999 BKN020 SCT023 18/13 Q1025
     NOSIG=
####018000372####
SAIE31 KWBC 081230
METAR
EICK 081230Z 19010KT 9999 -RA SCT008 BKN025 BKN060 14/13 Q1016
     NOSIG=
EIDB NIL=
EIDW 081230Z 23012G22KT 190V280 9999 FEW026 BKN050 BKN100 18/10
     Q1015 NOSIG=
EIKN 081230Z 20012KT 170V240 9999 FEW018CB BKN060 BKN100 14/10
     Q1013 NOSIG=
EINN 081230Z 20009KT 9999 -RADZ FEW015 SCT020 BKN038 15/13 Q1015
     NOSIG=
####018000028####
SAIQ31 KWBC 081230
NIL=
####018002962####
SAUS20 KNKA 081235
METAR KAFJ 081235Z AUTO 00000KT 5SM BKN060 24/21 A3012 RMK AO1=
METAR KAIZ 081235Z AUTO 00000KT 7SM OVC013 23/21 A3009 RMK AO1=
METAR KARG 081235Z AUTO 20006KT 10SM CLR 26/23 A3007 RMK AO1=
METAR KAUO 081235Z AUTO 32004KT 10SM CLR 27/22 A3005 RMK AO1=
METAR KBHB 081235Z AUTO 19008KT 3/4SM OVC002 18/18 A3014 RMK AO1=
METAR KBID 081235Z AUTO 09005KT 1/2SM OVC002 22/22 A3009 RMK AO1=
METAR KBKX 081235Z AUTO 00000KT 10SM CLR 17/15 A3017 RMK AO1=
METAR KBLM 081235Z AUTO 15005KT 10SM FEW018 BKN100 24/20 A3008 RMK 
    AO1=
METAR KBTP 081235Z AUTO 00000KT 5SM CLR 23/20 A3010 RMK AO1=
METAR KBVX 081235Z AUTO 00000KT 10SM CLR 24/22 A3009 RMK AO1=
METAR KCGZ 081235Z AUTO 00000KT 10SM CLR 25/00 A2982 RMK AO1=
METAR KCIU 081235Z AUTO 31004KT 5SM OVC003 20/19 A2998 RMK AO1=
METAR KCOD 081235Z 16007KT 10SM CLR 12/02 A3033 RMK AO1=
METAR KCVN 081235Z AUTO 01012KT 10SM FEW009 FEW016 16/14 A3025 RMK 
    AO1=
METAR KCWI 081235Z 31005KT 5SM OVC005 A3007 RMK AO1=
METAR KDVL 081235Z AUTO 31006KT 10SM SCT085 17/13 A3010 RMK AO1=
METAR KDYR 081235Z AUTO 00000KT 9SM CLR 27/21 A3008 RMK AO1=
METAR KEAR 081235Z AUTO 34004KT 10SM CLR 16/14 A3025 RMK AO1=
METAR KEEN 081235Z AUTO 18007KT 10SM SCT018 BKN110 25/22 A3008 RMK 
    AO1=
METAR KEGE 081235Z 07003KT 10SM CLR 09/08 A3039 RMK AO1=
METAR KEHR 081235Z AUTO 00000KT 10SM CLR 27/21 A3007 RMK AO1=
METAR KENV 081235Z 16004KT 10SM CLR 17/01 A3011 RMK AO1=
METAR KESC 081235Z AUTO 33004KT 10SM BKN004 BKN019 19/17 A2999 RMK 
    AO1=
METAR KEUL 081235Z AUTO 12004KT 10SM CLR 13/05 A3008 RMK AO1=
METAR KEWK 081235Z AUTO 04007KT 10SM OVC004 21/19 A3008 RMK AO1=
METAR KFAM 081235Z AUTO 00000KT 10SM BKN080 23/22 A3010 RMK AO1=
METAR KFKL 081235Z 10003KT 10SM CLR 24/19 A3014 RMK AO1=
METAR KFLP 081235Z AUTO 00000KT 10SM OVC065 23/22 A3008 RMK AO1=
METAR KFNL 081235Z AUTO 33003KT 3SM FEW006 OVC016 14/13 A3033 RMK 
    AO1=
METAR KFOD 081235Z AUTO 35006KT 10SM CLR 18/17 A3015 RMK AO1=
METAR KFRM 081235Z AUTO 10SM CLR 18/16 A3016 RMK AO1=
METAR KGAD 081235Z AUTO 34003KT 10SM CLR 24/20 A3007 RMK AO1=
METAR KGBD 081235Z AUTO 36008KT 10SM BKN008 BKN017 19/18 A3018 RMK 
    AO1=
METAR KGDV 081235Z AUTO 00000KT 10SM CLR 13/08 A3018 RMK AO1=
METAR KGPZ 081235Z AUTO 27006KT 10SM CLR 18/14 A3007 RMK AO1=
METAR KGUC 081235Z AUTO 05003KT 10SM CLR 06/03 A3046 RMK AO1=
METAR KGXY 081235Z AUTO 02004KT 6SM OVC045 15/12 A3032 RMK AO1=
METAR KHDN 081235Z 11007KT 10SM CLR 09/06 A3034 RMK AO1=
METAR KHEZ 081235Z AUTO 36003KT 7SM CLR 23/22 A3007 RMK AO1=
METAR KHNB 081235Z AUTO 00000KT 10SM CLR 26/23 A3007 RMK AO1=
METAR KHYI 081235Z AUTO 05008KT 6SM FEW024 BKN030 OVC034 A2995 RMK 
    AO1=
METAR KHYS 081235Z AUTO 35007KT 10SM SCT032 OVC039 18/16 A3021 RMK 
    AO1=
METAR KILE 081235Z 09004KT 9SM BKN006 OVC015 24/23 A3000 RMK AO1=
METAR KIWD 081235Z AUTO 32006KT 10SM BKN060 18/16 A3003 RMK AO1=
####018000346####
SAUS20 KNKA 081235
METAR KVIS 081235Z AUTO 31004KT 10SM CLR 18/11 A2982 RMK AO1=
METAR KWVL 081235Z AUTO 18004KT 3SM OVC003 21/19 A3007 RMK AO1=
METAR KWWD 081235Z AUTO 5SM FEW019 SCT055 BKN070 24/23 A3004 RMK AO1=
METAR KYKN 081235Z AUTO 00000KT 10SM CLR 18/16 A3019 RMK AO1=
METAR TUPJ 081200Z 12008KT 9999 FEW022 30/24 A3000 RMK =
####018002956####
SAUS20 KNKA 081235
METAR KJAC 081235Z AUTO 01004KT 10SM CLR 06/M01 A3037 RMK AO1=
METAR KJHW 081235Z AUTO 00000KT 10SM CLR 23/19 A3012 RMK AO1=
METAR KLBL 081235Z 01008KT 5SM OVC005 19/17 A3023 RMK AO1 P0001=
METAR KLCI 081235Z AUTO 23004KT 5SM BKN013 OVC025 25/21 A3008 RMK 
    AO1=
METAR KLEW 081235Z 00000KT 2SM OVC003 21/20 A3012 RMK AO1=
METAR KLPC 081235Z AUTO 00000KT 8SM OVC008 13/11 A2993 RMK AO1 PNO=
METAR KMBL 081235Z AUTO 00000KT 6SM OVC006 22/20 A3002 RMK AO1=
METAR KMJX 081235Z AUTO 00000KT 25/21 A3005 RMK AO1=
METAR KMKT 081235Z 28003KT 10SM CLR 18/16 A3013 RMK AO1=
METAR KMML 081235Z AUTO 28009KT 10SM CLR 18/14 A3015 RMK AO1=
METAR KMNM 081235Z AUTO 00000KT 8SM OVC017 21/20 A3000 RMK AO1=
METAR KMRF 081235Z AUTO 01005KT 10SM FEW110 15/14 A3020 RMK AO1=
METAR KMSV 081235Z AUTO 01004KT 10SM CLR 26/20 A3011 RMK AO1=
METAR KMTW 081235Z 00000KT 8SM FEW006 23/21 A3001 RMK AO1=
METAR KMVN 081235Z AUTO 20005KT 10SM OVC065 27/23 A3006 RMK AO1=
METAR KOCH 081235Z AUTO 11006KT 10SM SCT120 24/19 A3004 RMK AO1=
METAR KOKK 081235Z AUTO 18005KT 5SM BKN100 26/19 A3005 RMK AO1=
METAR KOLU 081235Z AUTO 33003KT 10SM BKN090 18/16 A3020 RMK AO1=
METAR KOTG 081235Z AUTO 29004KT 10SM CLR 17/15 A3017 RMK AO1=
SPECI KPIA 081234Z 00000KT 10SM BKN006 OVC012 23/22 A3004 RMK AO2 
    CIG 004V011=
METAR KPIB 081235Z AUTO 01004KT 10SM CLR 26/22 A3006 RMK AO1=
METAR KPQI 081235Z AUTO 13007KT 10SM CLR 24/20 A3001 RMK AO1=
METAR KPRX 081235Z 14007KT 5SM BKN004 OVC035 25/23 A3005 RMK AO1=
METAR KPTN 081235Z AUTO 08006KT 10SM CLR 26/M08 A3003 RMK AO1=
METAR KPTV 081235Z AUTO 18004KT 10SM CLR 17/11 A2986 RMK AO1=
METAR KPVC 081235Z 17010KT 10SM FEW012 24/21 A3012 RMK AO1=
METAR KPVU 081235Z 00000KT 10SM CLR 18/07 A3015 RMK AO1=
METAR KPWG 081235Z AUTO 05003KT 10SM BKN024 BKN032 OVC038 25/23 
    A3002 RMK AO1=
SPECI KPYM 081234Z AUTO 18005KT 10SM SCT012 26/21 A3011 RMK AO2=
METAR KRKD 081235Z AUTO 20006KT 1 1/4SM OVC002 19/18 A3012 RMK AO1=
METAR KRUT 081235Z AUTO 22003KT 7SM CLR 25/20 A3006 RMK AO1=
METAR KSDY 081235Z AUTO 17003KT 10SM BKN080 OVC120 13/09 A3017 RMK 
    AO1=
METAR KSFM 081235Z 18004KT 4SM OVC008 24/19 A3011 RMK AO1=
METAR KSFZ 081235Z AUTO 19004KT 10SM BKN011 24/21 A3010 RMK AO1=
METAR KSGT 081235Z 00000KT 10SM CLR A3008 RMK AO1=
METAR KSGU 081235Z AUTO 04006KT 10SM CLR 23/02 A2999 RMK AO1=
METAR KSKX 081235Z AUTO 01004KT 10SM CLR 11/06 A3040 RMK AO1=
METAR KSLG 081235Z AUTO 12005KT 10SM OVC019 23/21 A3008 RMK AO1=
METAR KSMN 081235Z AUTO 00000KT 10SM CLR 06/01 A3027 RMK AO1=
METAR KSQI 081235Z 00000KT 7SM OVC005 23/22 A3006 RMK AO1=
METAR KSUE 081235Z AUTO 27004KT 8SM OVC007 22/21 A3001 RMK AO1=
METAR KTPL 081235Z 07006KT 7SM BKN010 OVC013 24/23 A3000 RMK AO1 
     =
METAR KTVF 081235Z AUTO 25006KT 10SM FEW080 16/13 A3006 RMK AO1=
METAR KVBT 081235Z AUTO 15003KT 10SM BKN022 OVC034 23/21 A3005 RMK 
    AO1=
####018000028####
SAIQ32 KWBC 081230
NIL=
####018000028####
SAJP31 KWBC 081230
NIL=
####018000028####
SAJP41 KWBC 081230
NIL=
####018000028####
SAJP42 KWBC 081230
NIL=
####018000028####
SAJP43 KWBC 081230
NIL=
####018000028####
SAJP44 KWBC 081230
NIL=
####018000113####
SAKO31 KWBC 081200 RRA
METAR
RKSI 081230Z 27005KT 200V310 8000 -RA FEW030 OVC110 22/20 Q1009
     NOSIG=
####018000028####
SAJP45 KWBC 081230
NIL=
####018000195####
SAMM31 KWBC 081230
METAR
LCEN NIL=
LCLK 081230Z 19016KT 9999 FEW030 30/21 Q1008 NOSIG=
LCNC 081230Z NIL=
LCPH 081230Z 24006KT 200V290 9999 FEW030 29/23 Q1008=
LCRA NIL=
LMML NIL=
####018000095####
SANT31 KWBC 081200 RRC
METAR
BIKF 081230Z 03020KT 9999 FEW018 SCT035 BKN110 12/06 Q0995=
####018000365####
SAPO31 KWBC 081200 RRB
METAR
LPFR 081230Z 25010KT 220V280 9999 FEW012 24/20 Q1016=
LPMA 081230Z 21006KT 180V250 9999 FEW016 24/18 Q1021 RS16005KT
     0521005KT 2304013KT=
LPPR 081230Z 21007KT 180V240 5000 BR SCT004 BKN006 22/18 Q1015=
LPPS 081230Z 02011KT 9999 FEW016 SCT030 22/15 Q1021=
LPPT 081230Z 24007KT 190V270 9999 FEW025 29/19 Q1016 NOSIG=
####018000263####
SARA31 KWBC 081200 RRH
METAR
UBBG 081230Z 07014KT 9999 SCT083 36/16 Q1009 NOSIG RMK
     R12L/CLRD70=
UTNN 081230Z 25002MPS 220V280 CAVOK 43/06 Q1006 R33/CLRD70
     NOSIG=
UTSS 081230Z 07005MPS 040V100 9999 NSC 35/12 Q1009 R88/CLRD70
     NOSIG=
####018001428####
SASP31 KWBC 081230
METAR
LEAL 081230Z 08011KT CAVOK 31/16 Q1019 NOSIG=
LEAM 081230Z 08016KT CAVOK 39/03 Q1015=
LEAS 081230Z 06004KT 010V100 9999 FEW015 23/19 Q1017 TEMPO TSRA
     SCT025CB=
LEBB 081230Z 29012KT 260V320 8000 FEW020 26/21 Q1016 NOSIG=
LEBL 081230Z 20015KT CAVOK 28/21 Q1019 NOSIG=
LECO 081230Z 02008KT CAVOK 22/19 Q1015=
LEGE 081230Z 19008KT 100V240 CAVOK 33/17 Q1019=
LEGR 081230Z NIL=
LEIB 081230Z 09007KT 050V130 CAVOK 29/21 Q1020 NOSIG=
LEJR 081230Z 22005KT 130V300 CAVOK 32/14 Q1016=
LELC 081230Z NIL=
LELL 081230Z 11009KT 070V150 CAVOK 31/15 Q1019=
LEMD 081230Z 13009KT 070V180 9999 FEW070TCU 32/12 Q1018 NOSIG=
LEMG 081230Z 12007KT 090V160 9999 FEW040 29/14 Q1017 NOSIG=
LEMH 081230Z VRB05G17KT CAVOK 30/18 Q1020=
LEPA 081230Z 22013KT 180V250 CAVOK 30/15 Q1020 NOSIG=
LEPP 081230Z 13009KT 080V170 CAVOK 37/15 Q1018=
LERS 081230Z 21007KT 150V250 CAVOK 29/17 Q1020=
LESO 081230Z 03005KT 360V070 CAVOK 28/21 Q1015=
LEST 081230Z 06007KT CAVOK 27/19 Q1015 NOSIG=
LETO NIL=
LEVC 081230Z 08010KT 050V120 CAVOK 32/17 Q1018 NOSIG=
LEVD 081230Z 23007KT 190V300 CAVOK 34/08 Q1019=
LEVS 081230Z VRB05KT CAVOK 32/12 Q1018=
LEVT 081230Z NIL=
LEVX 081230Z 26011KT 8000 FEW030 25/19 Q1015=
LEXJ 081230Z 28012KT 250V310 9999 SCT018 25/20 Q1017=
LEZG 081230Z 09010KT 070V130 9999 FEW040 37/13 Q1017=
LEZL 081230Z 22008KT 190V260 9999 SCT025 32/16 Q1015 NOSIG=
####018000289####
SATS31 KWBC 081230
METAR
DTMB 081230Z 03011KT CAVOK 30/13 Q1018 NOSIG=
DTTA 081230Z 36010KT 330V040 CAVOK 30/20 Q1019 NOSIG=
DTTB NIL=
DTTD NIL=
DTTG NIL=
DTTJ 081230Z 08012KT CAVOK 30/20 Q1018 NOSIG=
DTTK NIL=
DTTL NIL=
DTTN NIL=
DTTR NIL=
DTTX NIL=
DTTZ NIL=
####018000173####
SAUK42 KWBC 081150 RRE
METAR
EGQK 081150Z 22016G26KT 9999 FEW027 BKN050 18/08 Q1009 BLU
     NOSIG=
EGQS 081150Z 22016KT 9999 FEW030 BKN050 16/10 Q1009 BLU NOSIG=
####018000829####
SAXX99 KWBC 081200 RRX
METAR
EGXG 081150Z 26011KT 9999 SCT042 BKN200 20/08 Q1016 BLU=
EGYD 081150Z 25012KT 9999 FEW045 BKN250 22/09 Q1017 BLU NOSIG=
EPWR 081230Z VRB03KT CAVOK 25/10 Q1023=
ETGY 081220Z 19004KT 9999 FEW080 BKN250 31/09 Q1019 BLU/=
ETHC 081220Z 26008KT 9999 FEW140 30/09 Q1019 BLU+BLU+=
LESA 081230Z 29005KT 240V320 9999 FEW048 34/16 Q1018=
LFCR 081230Z AUTO VRB05KT 9999NDV NSC 33/07 Q1021=
LFJL 081230Z AUTO VRB02KT 9999NDV NSC 30/06 Q1020=
LFLX 081230Z NIL=
LFMI 081230Z AUTO 19006KT 110V250 9999NDV NSC 34/14 Q1019=
LFMK 081230Z AUTO 08016KT 9999NDV NSC 34/13 Q1019=
LFMU 081230Z AUTO 15007KT 100V200 9999NDV NSC 29/15 Q1020=
LFMV 081230Z AUTO VRB05KT 9999NDV NSC 35/14 Q1019=
LFOK 081230Z AUTO 25005KT 180V320 9999NDV NSC 31/09 Q1019=
LKKV 081230Z VRB03KT CAVOK 24/09 Q1023=
####018000077####
SPUS43 KWBC 081236
SPECI
KMKC 081233Z 01005KT 10SM BKN008 23/21 A3008=
####018000079####
SPUS44 KWBC 081236
SPECI
KHQM 081233Z AUTO 27008KT 3/4SM BR 13/12 A2997=
####018000091####
SPUS52 KWBC 081236
SPECI
KJCT 081234Z AUTO 00000KT 6SM BR SCT004 OVC026 23/22 A3003=
####018000231####
SAUS53 KWBC 081200 RRJ
METAR
KANW 081230Z AUTO 29003KT 10SM CLR 17/15 A3025=
KBIE 081230Z AUTO 36007KT 10SM CLR 19/18 A3016=
KONL 081230Z AUTO 00000KT 10SM CLR 17/16 A3022=
KUDG 081235Z 32004KT 10SM FEW100 27/19 A2999=
####018000127####
SAKY31 RUMS 081230
METAR UAFM 081230Z 24009MPS 7000 NSC 32/07 Q1012 TEMPO 24007G12MPS
FCST WS=
METAR UAFO 081230Z NIL=
####018000075####
SAEG31 HECA 081230
METAR HECA 081230Z 32010KT CAVOK 33/17 Q1010 NOSIG=
####018000340####
SARO33 LROM 081230
METAR LRBC 081230Z 01014KT 340V040 9999 FEW022 BKN033 22/17 Q1017=
METAR COR LRCV 081230Z VRB04KT 9999 FEW033 SCT040 23/14 Q1017=
METAR LRIA 081230Z 30012KT 9999 FEW020 SCT029 22/17 Q1017=
METAR LRSV 081230Z 31018KT 9999 SCT011 BKN044 16/14 Q1019=
METAR LRTC 081230Z 36010KT 9999 FEW030CB BKN040 24/17 Q1014=
####018000192####
SATA31 RUMS 081230
METAR UTDD 081230Z 00000MPS 9999 FEW066 36/06 Q1008 09CLRD70 NOSIG
RMK QFE689/0918=
METAR UTDL 081230Z 25004MPS 9999 FEW053 38/08 Q1008 NOSIG RMK QFE719
8809//70=
####018000212####
SATR31 RUMS 081230
METAR UTAA 081230Z 08002MPS 9999 SKC 44/02 Q1007 NOSIG=
METAR UTAK 081230Z NIL=
METAR UTAM 081230Z 01005MPS CAVOK 42/05 Q1005 NOSIG=
METAR UTAT 081230Z NIL=
METAR UTAV 081230Z NIL=
####018000162####
SAAY31 RUMS 081230
METAR UDYZ 081230Z 11003MPS 080V140 9999 FEW050 38/12 Q1008 09010070
NOSIG=
METAR UDSG 081230Z 07009MPS 9999 SCT050TCU 02CLRD70 NOSIG=
####018000284####
SAPO32 LPMG 081230
METAR LPAZ 081230Z 26006KT 9999 BKN016 BKN030 21/19 Q1025=
METAR LPFL 081230Z 21008KT 180V260 9999 FEW023TCU SCT035 23/17 Q1022=
METAR LPHR 081230Z 22007KT 9999 SCT013 BKN035 23/19 Q1023=
METAR LPPD 081230Z 24004KT 210V290 9999 FEW017 BKN030 21/16 Q1024=
####018000420####
SARO32 LROM 081230
METAR LRAR 081230Z 04008KT 340V080 9999 SCT044 23/14 Q1020=
METAR LRBM 081230Z 32006KT 290V020 9999 FEW034 SCT043 20/14 Q1019=
METAR LRCL 081230Z 31006KT 280V350 9999 FEW022 BKN035 18/13 Q1021
0821//95=
METAR LROD 081230Z 34010KT 310V020 CAVOK 23/12 Q1020=
METAR LRSM 081230Z 36006KT 9999 BKN041 22/14 Q1020=
METAR LRTM 081230Z 28004KT 220V350 9999 FEW018 SCT028 BKN031 19/14
Q1020=
####018000698####
SAKZ31 RUMS 081230
METAR UAAA 081230Z 23002MPS 190V280 9999 SCT050CB BKN100 27/10 Q1013
88CLRD65 TEMPO TS=
METAR UACC 081230Z 33008MPS CAVOK 24/01 Q1008 220/0070 NOSIG RMK
QFE725/0967=
METAR UAKK 081230Z 07002MPS 020V100 9999 VCTS BKN050CB BKN/// 21/06
Q1009 230///70 TEMPO TSRA RMK QFE710/0947=
METAR UAOO 081230Z NIL=
METAR UARR 081230Z NIL=
METAR UATE 081230Z 01006MPS CAVOK 39/08 Q1009 300///70 NOSIG RMK
QFE755/1007=
METAR UATG 081230Z 33006G11MPS CAVOK 39/08 Q1008 32CLRD70 NOSIG RMK
QFE758/1011 =
METAR UATT 081230Z 09008MPS 9999 NSC 33/02 Q1010 13CLRD70 NOSIG RMK
QFE738/0984=
METAR UAUU 081230Z 33008MPS CAVOK 26/M03 Q1012 33CLRD70 NOSIG RMK
QFE743/0991=
####018000196####
SAUS54 KWBC 081200 RRE
METAR
KIZA 081229Z AUTO 00000KT 10SM OVC007 13/11 A2992=
KSOW 081230Z AUTO 17004KT 10SM BKN100 BKN120 20/03 A3026=
KTRK 081230Z AUTO 15003KT 10SM CLR 08/06 A3016=
####018000082####
SPUS72 KWBC 081236
SPECI
KAEX 081233Z AUTO 00000KT 10SM FEW006 25/24 A3003=
####018000083####
SAUS72 KWBC 081200 RRG
METAR
KLRU 081231Z AUTO 01008KT 10SM CLR 20/14 A3017=
####018000075####
SACN50 CWAO 081230
VOH SA 1230 AUTO8 M M M M/14/02/0703/M/M M 30MM=

####018000074####
SACN50 CWAO 081230
VOJ SA 1230 AUTO8 M M M M/17/M/0503/M/M M 1MMM=

####018000075####
SACN50 CWAO 081215
VOC SA 1215 AUTO8 M M M M/11/08/0000/M/M M 72MM=

####018000075####
SACN50 CWAO 081230
VOF SA 1230 AUTO8 M M M M/13/06/3602/M/M M 82MM=

####018000075####
SACN95 CWAO 081230
WWA SA 1230 AUTO8 M M M M/20/09/0202/M/M M 74MM=

####018000074####
SACN50 CWAO 081215
VOJ SA 1215 AUTO8 M M M M/17/M/0403/M/M M 0MMM=

####018000075####
SACN50 CWAO 081215
VOF SA 1215 AUTO8 M M M M/13/06/3502/M/M M 93MM=

####018000075####
SACN50 CWAO 081230
VOC SA 1230 AUTO8 M M M M/11/08/0000/M/M M 73MM=

####018000077####
SPUS73 KWBC 081236
SPECI
KMKC 081233Z 01005KT 10SM BKN008 23/21 A3008=
####018000084####
SPUS74 KWBC 081236
SPECI
KCEC 081233Z AUTO 25003KT 3SM BR OVC003 10/09 A2998=
####018001809####
SAEU KAWN 081200 RRX
METAR COR EGQK 081150Z 22016G26KT 9999 FEW027 BKN050 18/08 Q1009 BLU
      NOSIG=
METAR COR EGXC 081150Z 24007KT 9999 FEW040 BKN250 22/07 Q1017 BLU NOSIG=
METAR COR LFBD 081230Z 11010KT 080V140 9999 FEW046 BKN230 34/13 Q1016
      NOSIG=
METAR LFBO 081230Z 12010KT 080V160 CAVOK 35/13 Q1017 NOSIG=
METAR LFCR 081230Z AUTO VRB05KT 9999NDV NSC 33/07 Q1021=
METAR LFJL 081230Z AUTO VRB02KT 9999NDV NSC 30/06 Q1020=
METAR LFKB 081230Z 10006KT 060V140 9999 FEW025 29/21 Q1020 NOSIG=
METAR LFKJ 081230Z 19010KT 9999 FEW030 FEW046TCU 30/23 Q1019 NOSIG=
METAR LFML 081230Z 27006KT CAVOK 33/18 Q1019 NOSIG=
METAR LFOH 081230Z AUTO 33008KT 9999NDV NSC 24/14 Q1019=
METAR LFPB 081230Z 18006KT 120V250 CAVOK 32/11 Q1018 NOSIG=
METAR LFRD 081230Z AUTO 01007KT 310V040 9999NDV NSC 22/15 Q1019=
METAR LFRO 081230Z AUTO 03006KT 340V070 9999NDV NSC 21/16 Q1019=
METAR LFSL 081230Z AUTO 11007KT 090V150 9999NDV NSC 31/13 Q1019=
METAR LJLJ 081230Z 13003KT 030V210 9999 FEW040 24/10 Q1022 NOSIG=
METAR LJMB 081230Z VRB02KT 9999 FEW040 25/08 Q1022=
METAR LRAR 081230Z 04008KT 340V080 9999 SCT044 23/14 Q1020=
METAR LRBC 081230Z 01014KT 340V040 9999 FEW022 BKN033 22/17 Q1017=
METAR LRBM 081230Z 32006KT 290V020 9999 FEW034 SCT043 20/14 Q1019=
METAR LRCL 081230Z 31006KT 280V350 9999 FEW022 BKN035 18/13 Q1021 0821//95=
METAR COR LRCV 081230Z VRB04KT 9999 FEW033 SCT040 23/14 Q1017=
METAR LRIA 081230Z 30012KT 9999 FEW020 SCT029 22/17 Q1017=
METAR LROD 081230Z 34010KT 310V020 CAVOK 23/12 Q1020=
METAR LRSM 081230Z 36006KT 9999 BKN041 22/14 Q1020=
METAR LRSV 081230Z 31018KT 9999 SCT011 BKN044 16/14 Q1019=
METAR LRTC 081230Z 36010KT 9999 FEW030CB BKN040 24/17 Q1014=
METAR LRTM 081230Z 28004KT 220V350 9999 FEW018 SCT028 BKN031 19/14
      Q1020=
####018000685####
SACI31 ZBBB 081230
METAR ZBAA 081230Z 15003MPS CAVOK 31/12 Q1005 NOSIG=
ZBSJ NIL=
METAR ZBTJ 081230Z 14004MPS 100V170 CAVOK 27/17 Q1006 NOSIG=
METAR ZBYN 081230Z 09005MPS CAVOK 28/14 Q1008 NOSIG=
METAR ZGGG 081230Z 15003MPS 9999 SCT040 32/25 Q1006 NOSIG=
METAR ZSHC 081230Z VRB01MPS 5000 -RA BR SCT026 26/24 Q1004 NOSIG=
METAR ZSPD 081230Z 11007MPS 9999 BKN009 26/24 Q1005 NOSIG=
METAR ZSSS 081230Z 11005MPS 060V130 9999 BKN015 27/23 Q1005 BECMG
 BKN011
 OVC040=
ZWSH NIL=
METAR ZWWW 081230Z 24005MPS 9999 FEW033CB 31/07 Q1011 NOSIG=
METAR ZYTL 081230Z VRB02MPS 6000 SCT033 24/20 Q1007 NOSIG=
METAR ZYTX 081230Z 12002MPS 9999 FEW030TCU 20/18 Q1007 NOSIG=
####018000079####
SPUS74 KWBC 081236
SPECI
KHQM 081233Z AUTO 27008KT 3/4SM BR 13/12 A2997=
####018000153####
SAZA42 FAJS 081200 RRB
METAR FAWK 081200Z 00000KT CAVOK 16/// Q1035=
METAR FASK 081200Z 02010KT 9999 SCT030 17/// Q1032=
METAR FALM 081200Z NIL=
####018000109####
SAGG31 UGTB 081233
METAR UGTB 081233Z 08004KT 9999 SCT050 BKN100 34/17 Q1013 NOSIG RMK
      13CLRD80=
####018000784####
SAUR31 UKMS 081230
METAR UKLR 081230Z 31006MPS 260V350 9999 SCT030
         BKN100  22/15 Q1019 30090070 NOSIG=
METAR UKLI 081230Z 33003MPS 260V020 9999 SCT021CB
         BKN026 18/14 Q1020 28290565 NOSIG=
METAR UKON 081230Z 33004MPS 300V020 9999 FEW033CB
         OVC200 28/17 Q1013 05090075 NOSIG=
METAR UKCM 081230Z 14004MPS 100V200 CAVOK 29/14 Q1014
          20010065 NOSIG=
METAR UKCW 081230Z 13003MPS 070V210 9999 BKN040 30/15
          Q1014 2709//70 NOSIG=
METAR UKLU NIL=
METAR UKKK 081230Z 31003MPS 270V350 9999 BKN035 25/17
         Q1015  26CLRD70 NOSIG=
METAR UKKM 081230Z 35004MPS 310V010 9999 BKN038 25/16
         Q1015  33CLRD70 NOSIG=
METAR UKLN 081230Z 30006MPS 240V330 9999 BKN013
         BKN033CB 16/15 Q1020 3319//65 NOSIG=
####018000075####
SACN94 CWAO 081230
WSK SA 1230 AUTO8 M M M M/16/10/3403/M/M M 97MM=

####018000075####
SACN95 CWAO 081231
WTM SA 1231 AUTO8 M M M M/10/09/1707/M/M M 15MM=

####018000075####
SACN50 CWAO 081230
VWB SA 1230 AUTO8 M M M M/15/05/MMMM/M/M M 34MM=

####018000075####
SACN50 CWAO 081230
VOV SA 1230 AUTO8 M M M M/11/07/0202/M/M M 55MM=

####018000075####
SACN50 CWAO 081230
WHC SA 1230 AUTO8 M M M M/17/11/MMMM/M/M M 28MM=

####018000080####
SACN88 CWAO 081231
WDA SA 1231 AUTO8 M M M 185/10/09/1009/M/M 8014 74MM=

####018002554####
SAUS20 KNKA 081236
METAR K04W 081234Z AUTO 27005KT 10SM CLR 19/17 A3008 RMK AO2 
     T01890168=
METAR K0A9 081235Z AUTO 00000KT 10SM CLR 23/18 A3013 RMK=
METAR K20V 081236Z AUTO 00000KT 10SM CLR 06/03 A3044 RMK AO2=
METAR K4BM 081234Z AUTO 22009KT 3/4SM BR 03/03 A3061 RMK AO2=
METAR K5SM 081233Z AUTO 00000KT 10SM CLR 09/02 A3057 RMK AO2=
METAR K7BM 081236Z AUTO 27006KT 10SM CLR 08/04 A3054 RMK AO2=
METAR KAEG 081235Z AUTO 00000KT 10SM CLR 15/08 A3031 RMK AO1  =
SPECI KARA 081235Z 07007KT 3SM BR OVC003 26/25 A3002 RMK AO2=
SPECI KASH 081235Z 00000KT 7SM BKN016 OVC046 26/22 A3009 RMK AO2 =
METAR KBBP 081235Z AUTO 31003KT 10SM CLR 27/19 A2997 RMK AO2=
METAR KBDU 081237Z AUTO 27003KT 10SM BKN032 15/12 A3032 RMK AO2=
METAR KBKN 081235Z AUTO 36005KT 10SM CLR 23/22 A3006 RMK AO2 =
SPECI KBML 081235Z AUTO 00000KT 4SM HZ BKN001 24/22 A3010 RMK AO2=
METAR KC29 081235Z AUTO 27004KT 5SM OVC004 22/20 A3005 RMK AO2 
     T02170201=
METAR KCCU 081236Z AUTO 19018KT 10SM CLR 07/00 A3063 RMK AO2=
METAR KCIC 081235Z AUTO 13006KT 10SM CLR 19/13 A2984 RMK AO1 =
METAR KD39 081234Z AUTO 27005KT 10SM CLR 19/17 A3011 RMK AO2 
     T01920169=
METAR KDLL 081234Z AUTO 00000KT 10SM CLR 22/20 A3004 RMK AO2=
METAR KGGE 081235Z AUTO 30005KT 10SM SCT100 26/21 A2995 RMK AO2=
SPECI KICT 081235Z 01006KT 9SM SCT008 BKN080 BKN120 23/21 A3010 RMK 
    AO2 $=
SPECI KJCT 081234Z AUTO 00000KT 6SM BR SCT004 OVC026 23/22 A3003
     RMK AO2 TSNO=
SPECI KLAA 081235Z AUTO 11007KT 10SM -RA FEW005 SCT016 OVC100 17/16 
    A3027 RMK AO2 P0000=
SPECI KLFK 081235Z AUTO 08008KT 10SM FEW009 26/24 A3002 RMK AO2=
SPECI KLUK 081235Z 00000KT 2SM BR CLR 24/23 A3009 RMK AO2=
METAR KLUX 081235Z AUTO 00000KT 10SM CLR 26/25 A3004 RMK AO2=
METAR KMAO 081235Z AUTO 34005KT 10SM CLR 27/19 A2995 RMK AO2=
METAR KMER 081235Z AUTO 32007KT 10SM CLR 16/11 A2984 RMK AO1 =
SPECI KMMK 081235Z AUTO 15005KT 3SM HZ BKN012 OVC048 26/23 A3007 RMK 
    AO2=
METAR KMYP 081136Z AUTO 18009KT 10SM CLR 03/02 A3074 RMK AO2=
METAR KRCE 081235Z AUTO 05004KT 4SM BR OVC003 22/22 A3009 RMK AO2 
     =
METAR KSMS 081235Z AUTO 32008KT 10SM CLR 27/20 A2999 RMK AO2 =
SPECI KTTN 081235Z 00000KT 2SM HZ BKN009 BKN014 26/23 A3004 RMK AO2=
METAR KVTP 081240Z AUTO 00000KT 10SM CLR 06/04 A3055 RMK AO2=
METAR KWYS 081230Z AUTO 00000KT 10SM CLR 00/M02 A3038 RMK AO2=
METAR KX40 081235Z AUTO 05003KT 10SM CLR 26/23 A3002 RMK AO2 
     T02560233=
METAR KY51 081235Z AUTO 33005KT 7SM BKN007 20/19 A3007 RMK AO1 
     T02020193=
####018000079####
SPAL40 DAMM 081200
SPECI
DAUI 081145Z 07024KT 4000 DRSA NSC 45/07 Q1013=
####018001818####
SAEW KAWN 081200 RRM
METAR EBBE 081225Z 30005KT 9999 FEW060 30/09 Q1019 BLU BLU=
METAR ETGY 081220Z 19004KT 9999 FEW080 BKN250 31/09 Q1019 BLU/=
METAR ETHC 081220Z 26008KT 9999 FEW140 30/09 Q1019 BLU/BLU/=
METAR COR LFBD 081230Z 11010KT 080V140 9999 FEW046 BKN230 34/13 Q1016
      NOSIG=
METAR LFBO 081230Z 12010KT 080V160 CAVOK 35/13 Q1017 NOSIG=
METAR LFCR 081230Z AUTO VRB05KT 9999NDV NSC 33/07 Q1021=
METAR LFJL 081230Z AUTO VRB02KT 9999NDV NSC 30/06 Q1020=
METAR LFKB 081230Z 10006KT 060V140 9999 FEW025 29/21 Q1020 NOSIG=
METAR LFKJ 081230Z 19010KT 9999 FEW030 FEW046TCU 30/23 Q1019 NOSIG=
METAR LFLL 081230Z 23005KT 170V290 CAVOK 32/13 Q1020 NOSIG=
METAR LFMI 081230Z AUTO 19006KT 110V250 9999NDV NSC 34/14 Q1019=
METAR LFMK 081230Z AUTO 08016KT 9999NDV NSC 34/13 Q1019=
METAR LFML 081230Z 27006KT CAVOK 33/18 Q1019 NOSIG=
METAR LFMN 081230Z 12006KT 9999 FEW023 29/23 Q1020 NOSIG=
METAR LFMU 081230Z AUTO 15007KT 100V200 9999NDV NSC 29/15 Q1020=
METAR LFOE 081230Z VRB03KT CAVOK 32/09 Q1018=
METAR LFOH 081230Z AUTO 33008KT 9999NDV NSC 24/14 Q1019=
METAR LFOJ 081230Z VRB05KT CAVOK 31/13 Q1018=
METAR LFPB 081230Z 18006KT 120V250 CAVOK 32/11 Q1018 NOSIG=
METAR LFPG 081230Z 18007KT 110V220 CAVOK 31/09 Q1019 NOSIG=
METAR LFPO 081230Z 26005KT 190V350 CAVOK 31/09 Q1018 NOSIG=
METAR LFQQ 081230Z VRB05KT CAVOK 30/12 Q1018 NOSIG=
METAR LFRD 081230Z AUTO 01007KT 310V040 9999NDV NSC 22/15 Q1019=
METAR LFRN 081230Z AUTO 27004KT 210V350 9999NDV NSC 30/12 Q1018=
METAR LFRO 081230Z AUTO 03006KT 340V070 9999NDV NSC 21/16 Q1019=
METAR LFRZ 081230Z AUTO 21010KT 9999NDV NSC 32/10 Q1018=
METAR LFSB 081230Z VRB03KT CAVOK 31/11 Q1020 NOSIG=
METAR LFSL 081230Z AUTO 11007KT 090V150 9999NDV NSC 31/13 Q1019=
METAR LFST 081230Z VRB04KT CAVOK 30/10 Q1020 NOSIG=
####018000093####
SAUK39 EGRR 081150 RRX
METAR EGUB 081150Z AUTO 19009KT 9999NDV // BKN029/// 22/18 Q1018=
####018000090####
SAUK39 EGRR 081150 RRX
METAR EGOV 081150Z AUTO 20015KT 9999NDV FEW090/// 17/13 Q1017=
####018003745####
SAUS99 KWBC 081237
METAR
KJAC 081235Z AUTO 01004KT 10SM CLR 06/M01 A3037 RMK AO1=
KJHW 081235Z AUTO 00000KT 10SM CLR 23/19 A3012 RMK AO1=
KLBL 081235Z 01008KT 5SM OVC005 19/17 A3023 RMK AO1 P0001=
KLCI 081235Z AUTO 23004KT 5SM BKN013 OVC025 25/21 A3008 RMK
     AO1=
KLEW 081235Z 00000KT 2SM OVC003 21/20 A3012 RMK AO1=
KLPC 081235Z AUTO 00000KT 8SM OVC008 13/11 A2993 RMK AO1 PNO=
KMBL 081235Z AUTO 00000KT 6SM OVC006 22/20 A3002 RMK AO1=
KMJX 081235Z AUTO 00000KT 25/21 A3005 RMK AO1=
KMKT 081235Z 28003KT 10SM CLR 18/16 A3013 RMK AO1=
KMML 081235Z AUTO 28009KT 10SM CLR 18/14 A3015 RMK AO1=
KMNM 081235Z AUTO 00000KT 8SM OVC017 21/20 A3000 RMK AO1=
KMRF 081235Z AUTO 01005KT 10SM FEW110 15/14 A3020 RMK AO1=
KMSV 081235Z AUTO 01004KT 10SM CLR 26/20 A3011 RMK AO1=
KMTW 081235Z 00000KT 8SM FEW006 23/21 A3001 RMK AO1=
KMVN 081235Z AUTO 20005KT 10SM OVC065 27/23 A3006 RMK AO1=
KOCH 081235Z AUTO 11006KT 10SM SCT120 24/19 A3004 RMK AO1=
KOKK 081235Z AUTO 18005KT 5SM BKN100 26/19 A3005 RMK AO1=
KOLU 081235Z AUTO 33003KT 10SM BKN090 18/16 A3020 RMK AO1=
KOTG 081235Z AUTO 29004KT 10SM CLR 17/15 A3017 RMK AO1=
KPIB 081235Z AUTO 01004KT 10SM CLR 26/22 A3006 RMK AO1=
KPQI 081235Z AUTO 13007KT 10SM CLR 24/20 A3001 RMK AO1=
KPRX 081235Z 14007KT 5SM BKN004 OVC035 25/23 A3005 RMK AO1=
KPTN 081235Z AUTO 08006KT 10SM CLR 26/M08 A3003 RMK AO1=
KPTV 081235Z AUTO 18004KT 10SM CLR 17/11 A2986 RMK AO1=
KPVC 081235Z 17010KT 10SM FEW012 24/21 A3012 RMK AO1=
KPVU 081235Z 00000KT 10SM CLR 18/07 A3015 RMK AO1=
KPWG 081235Z AUTO 05003KT 10SM BKN024 BKN032 OVC038 25/23 A3002
     RMK AO1=
KRKD 081235Z AUTO 20006KT 1 1/4SM OVC002 19/18 A3012 RMK AO1=
KRUT 081235Z AUTO 22003KT 7SM CLR 25/20 A3006 RMK AO1=
KSDY 081235Z AUTO 17003KT 10SM BKN080 OVC120 13/09 A3017 RMK
     AO1=
KSFM 081235Z 18004KT 4SM OVC008 24/19 A3011 RMK AO1=
KSFZ 081235Z AUTO 19004KT 10SM BKN011 24/21 A3010 RMK AO1=
KSGT 081235Z 00000KT 10SM CLR A3008 RMK AO1=
KSGU 081235Z AUTO 04006KT 10SM CLR 23/02 A2999 RMK AO1=
KSKX 081235Z AUTO 01004KT 10SM CLR 11/06 A3040 RMK AO1=
KSLG 081235Z AUTO 12005KT 10SM OVC019 23/21 A3008 RMK AO1=
KSMN 081235Z AUTO 00000KT 10SM CLR 06/01 A3027 RMK AO1=
KSQI 081235Z 00000KT 7SM OVC005 23/22 A3006 RMK AO1=
KSUE 081235Z AUTO 27004KT 8SM OVC007 22/21 A3001 RMK AO1=
KTPL 081235Z 07006KT 7SM BKN010 OVC013 24/23 A3000 RMK AO1=
KTVF 081235Z AUTO 25006KT 10SM FEW080 16/13 A3006 RMK AO1=
KVBT 081235Z AUTO 15003KT 10SM BKN022 OVC034 23/21 A3005 RMK
     AO1=
KVIS 081235Z AUTO 31004KT 10SM CLR 18/11 A2982 RMK AO1=
KWVL 081235Z AUTO 18004KT 3SM OVC003 21/19 A3007 RMK AO1=
KWWD 081235Z AUTO 5SM FEW019 SCT055 BKN070 24/23 A3004 RMK AO1=
KYKN 081235Z AUTO 00000KT 10SM CLR 18/16 A3019 RMK AO1=
TUPJ 081200Z 12008KT 9999 FEW022 30/24 A3000 RMK=
KAFJ 081235Z AUTO 00000KT 5SM BKN060 24/21 A3012 RMK AO1=
KAIZ 081235Z AUTO 00000KT 7SM OVC013 23/21 A3009 RMK AO1=
KARG 081235Z AUTO 20006KT 10SM CLR 26/23 A3007 RMK AO1=
KAUO 081235Z AUTO 32004KT 10SM CLR 27/22 A3005 RMK AO1=
KBHB 081235Z AUTO 19008KT 3/4SM OVC002 18/18 A3014 RMK AO1=
KBID 081235Z AUTO 09005KT 1/2SM OVC002 22/22 A3009 RMK AO1=
KBKX 081235Z AUTO 00000KT 10SM CLR 17/15 A3017 RMK AO1=
KBLM 081235Z AUTO 15005KT 10SM FEW018 BKN100 24/20 A3008 RMK
     AO1=
KBTP 081235Z AUTO 00000KT 5SM CLR 23/20 A3010 RMK AO1=
KBVX 081235Z AUTO 00000KT 10SM CLR 24/22 A3009 RMK AO1=
KCGZ 081235Z AUTO 00000KT 10SM CLR 25/00 A2982 RMK AO1=
KCIU 081235Z AUTO 31004KT 5SM OVC003 20/19 A2998 RMK AO1=
KCOD 081235Z 16007KT 10SM CLR 12/02 A3033 RMK AO1=
KCVN 081235Z AUTO 01012KT 10SM FEW009 FEW016 16/14 A3025 RMK
     AO1=
KCWI 081235Z 31005KT 5SM OVC005 A3007 RMK AO1=
####018003745####
SAUS99 KWBC 081237 RRA
METAR
KDVL 081235Z AUTO 31006KT 10SM SCT085 17/13 A3010 RMK AO1=
KDYR 081235Z AUTO 00000KT 9SM CLR 27/21 A3008 RMK AO1=
KEAR 081235Z AUTO 34004KT 10SM CLR 16/14 A3025 RMK AO1=
KEEN 081235Z AUTO 18007KT 10SM SCT018 BKN110 25/22 A3008 RMK
     AO1=
KEGE 081235Z 07003KT 10SM CLR 09/08 A3039 RMK AO1=
KEHR 081235Z AUTO 00000KT 10SM CLR 27/21 A3007 RMK AO1=
KENV 081235Z 16004KT 10SM CLR 17/01 A3011 RMK AO1=
KESC 081235Z AUTO 33004KT 10SM BKN004 BKN019 19/17 A2999 RMK
     AO1=
KEUL 081235Z AUTO 12004KT 10SM CLR 13/05 A3008 RMK AO1=
KEWK 081235Z AUTO 04007KT 10SM OVC004 21/19 A3008 RMK AO1=
KFAM 081235Z AUTO 00000KT 10SM BKN080 23/22 A3010 RMK AO1=
KFKL 081235Z 10003KT 10SM CLR 24/19 A3014 RMK AO1=
KFLP 081235Z AUTO 00000KT 10SM OVC065 23/22 A3008 RMK AO1=
KFNL 081235Z AUTO 33003KT 3SM FEW006 OVC016 14/13 A3033 RMK
     AO1=
KFOD 081235Z AUTO 35006KT 10SM CLR 18/17 A3015 RMK AO1=
KFRM 081235Z AUTO 10SM CLR 18/16 A3016 RMK AO1=
KGAD 081235Z AUTO 34003KT 10SM CLR 24/20 A3007 RMK AO1=
KGBD 081235Z AUTO 36008KT 10SM BKN008 BKN017 19/18 A3018 RMK
     AO1=
KGDV 081235Z AUTO 00000KT 10SM CLR 13/08 A3018 RMK AO1=
KGPZ 081235Z AUTO 27006KT 10SM CLR 18/14 A3007 RMK AO1=
KGUC 081235Z AUTO 05003KT 10SM CLR 06/03 A3046 RMK AO1=
KGXY 081235Z AUTO 02004KT 6SM OVC045 15/12 A3032 RMK AO1=
KHDN 081235Z 11007KT 10SM CLR 09/06 A3034 RMK AO1=
KHEZ 081235Z AUTO 36003KT 7SM CLR 23/22 A3007 RMK AO1=
KHNB 081235Z AUTO 00000KT 10SM CLR 26/23 A3007 RMK AO1=
KHYI 081235Z AUTO 05008KT 6SM FEW024 BKN030 OVC034 A2995 RMK
     AO1=
KHYS 081235Z AUTO 35007KT 10SM SCT032 OVC039 18/16 A3021 RMK
     AO1=
KILE 081235Z 09004KT 9SM BKN006 OVC015 24/23 A3000 RMK AO1=
KIWD 081235Z AUTO 32006KT 10SM BKN060 18/16 A3003 RMK AO1=
KTEW 081232Z AUTO 00000KT 7SM CLR 24/21 A3005 RMK AO2=
KCVH 081230Z AUTO 00000KT 9SM OVC006 13/11 A2993 RMK AO1=
KFSO 081238Z AUTO 23003KT 7SM SCT060 27/23 A3002 RMK AO2=
KFBL 081234Z AUTO 00000KT 10SM CLR 18/16 A3013 RMK AO2=
KLYV 081238Z AUTO 00000KT 10SM CLR 16/14 A3018 RMK AO2=
KEFK 081236Z AUTO 20004KT 7SM CLR 26/21 A3007 RMK AO2=
KRRT 081234Z AUTO 23005KT 10SM SCT080 15/13 A3001 RMK AO2=
KTOB 081235Z AUTO 00000KT 10SM CLR 18/17 A3012 RMK AO2=
KLXL 081234Z AUTO 00000KT 10SM CLR 16/15 A3008 RMK AO2=
KEVM 081232Z AUTO 27003KT 10SM CLR 16/15 A3002 RMK AO1=
KELO 081233Z AUTO 23004KT 10SM CLR 17/15 A3003 RMK AO2=
KROX 081234Z AUTO 26004KT 10SM CLR 16/13 A3002 RMK AO2=
KSYN 081250Z AUTO 30004KT 10SM CLR 19/17 A3011 RMK AO2
     T01920170=
KVVV 081235Z AUTO 26004KT 10SM CLR 19/14 A3012 RMK AO2=
KROS 081235Z AUTO 00000KT 10SM CLR 18/15 A3009 RMK AO2
     T01790154=
KHCD 081232Z AUTO 27003KT 10SM CLR 16/15 A3013 RMK AO2
     T01550146=
KSGS 081233Z AUTO 31005KT 10SM CLR 20/16 A3011 RMK AO2
     T02020162=
KMJQ 081232Z AUTO 30004KT 10SM CLR 17/15 A3016 RMK AO2=
KHCO 081234Z AUTO 29006KT 10SM CLR 17/15 A3007 RMK AO2=
KLVN 081228Z AUTO 29004KT 10SM CLR 18/17 A3011 RMK AO2=
KPEX 081233Z AUTO 26005KT 10SM CLR 17/16 A3012 RMK AO2
     T01680158=
KJMR 081238Z AUTO 29004KT 10SM CLR 18/15 A3010 RMK AO2=
KJKJ 081234Z AUTO 24003KT 10SM CLR 17/15 A3008 RMK AO2=
KMVE 081234Z AUTO 29003KT 10SM CLR 18/16 A3011 RMK AO2=
KTKC 081233Z AUTO 25004KT 10SM CLR 18/14 A3016 RMK AO2
     T01800140=
KGYL 081234Z AUTO 27005KT 10SM CLR 18/16 A3012 RMK AO2
     T01750155=
KDXX 081234Z AUTO 00000KT 10SM CLR 18/17 A3011 RMK AO2=
KHZX 081231Z AUTO 25005KT 10SM CLR 17/15 A3008 RMK AO2=
KSAZ 081233Z AUTO 26005KT 10SM CLR 18/18 A3010 RMK AO2=
KONA 081231Z AUTO 33006KT 7SM CLR 21/17 A3007 RMK AO2=
KOVL 081234Z AUTO 29004KT 10SM CLR 16/13 A3012 RMK AO2
     T01610132=
####018000865####
SPUS99 KWBC 081237
SPECI
KPIA 081234Z 00000KT 10SM BKN006 OVC012 23/22 A3004 RMK AO2 CIG
     004V011=
KPYM 081234Z AUTO 18005KT 10SM SCT012 26/21 A3011 RMK AO2=
KARA 081235Z 07007KT 3SM BR OVC003 26/25 A3002 RMK AO2=
KASH 081235Z 00000KT 7SM BKN016 OVC046 26/22 A3009 RMK AO2=
KBML 081235Z AUTO 00000KT 4SM HZ BKN001 24/22 A3010 RMK AO2=
KICT 081235Z 01006KT 9SM SCT008 BKN080 BKN120 23/21 A3010 RMK AO2
     $=
KJCT 081234Z AUTO 00000KT 6SM BR SCT004 OVC026 23/22 A3003 RMK AO2
     TSNO=
KLAA 081235Z AUTO 11007KT 10SM -RA FEW005 SCT016 OVC100 17/16
     A3027 RMK AO2 P0000=
KLFK 081235Z AUTO 08008KT 10SM FEW009 26/24 A3002 RMK AO2=
KLUK 081235Z 00000KT 2SM BR CLR 24/23 A3009 RMK AO2=
KMMK 081235Z AUTO 15005KT 3SM HZ BKN012 OVC048 26/23 A3007 RMK
     AO2=
KTTN 081235Z 00000KT 2SM HZ BKN009 BKN014 26/23 A3004 RMK AO2=
####018002904####
SAUS99 KWBC 081237 RRB
METAR
KLJF 081232Z AUTO 27006KT 10SM CLR 19/16 A3013 RMK AO2=
KAEL 081231Z AUTO 31003KT 10SM CLR 18/17 A3012 RMK AO2=
K29G 081234Z AUTO 00000KT 7SM CLR 25/19 A3010 RMK AO2 T02510194
     PWINO=
KMRT 081233Z AUTO 24003KT 7SM CLR 25/20 A3012 RMK AO2
     T02530200=
KIKW 081234Z AUTO 00000KT 7SM BKN080 OVC090 23/21 A3002 RMK AO2
     T02320211=
KMDS 081220Z AUTO 27003KT 10SM CLR 18/17 A3018 RMK AO2=
KPQN 081233Z AUTO 31003KT 10SM CLR 18/14 A3018 RMK AO2=
KFGN 081234Z AUTO 26008KT 1/2SM -DZ OVC100 17/13 A2998 RMK AO2=
KPNM 081233Z AUTO 27005KT 10SM CLR 18/16 A3010 RMK AO2=
KPWC 081233Z AUTO 00000KT 10SM CLR 17/14 A3009 RMK AO2=
KFFM 081233Z AUTO 00000KT 10SM CLR 17/15 A3009 RMK AO2=
KGDB 081233Z AUTO 24004KT 10SM CLR 17/15 A3015 RMK AO2
     T01670150=
KAIT 081233Z AUTO 00000KT 10SM CLR 17/16 A3007 RMK AO2=
KGHW 081233Z AUTO 26009KT 10SM CLR 18/14 A3014 RMK AO2=
KMWM 081233Z AUTO 28004KT 10SM CLR 18/16 A3015 RMK AO2=
KULM 081235Z AUTO 29005KT 10SM CLR 17/15 A3013 RMK AO2=
KBBB 081233Z AUTO 24003KT 10SM CLR 17/16 A3012 RMK AO2=
KTWM 081233Z AUTO 28004KT 10SM CLR 19/14 A3002 RMK AO2=
KMGG 081235Z AUTO 26005KT 10SM CLR 19/16 A3012 RMK AO2
     T01860162=
KMOX 081230Z AUTO 27005KT 10SM CLR 18/16 A3008 RMK AO2=
K04W 081234Z AUTO 27005KT 10SM CLR 19/17 A3008 RMK AO2
     T01890168=
K0A9 081235Z AUTO 00000KT 10SM CLR 23/18 A3013 RMK=
K20V 081236Z AUTO 00000KT 10SM CLR 06/03 A3044 RMK AO2=
K4BM 081234Z AUTO 22009KT 3/4SM BR 03/03 A3061 RMK AO2=
K5SM 081233Z AUTO 00000KT 10SM CLR 09/02 A3057 RMK AO2=
K7BM 081236Z AUTO 27006KT 10SM CLR 08/04 A3054 RMK AO2=
KAEG 081235Z AUTO 00000KT 10SM CLR 15/08 A3031 RMK AO1=
KBBP 081235Z AUTO 31003KT 10SM CLR 27/19 A2997 RMK AO2=
KBDU 081237Z AUTO 27003KT 10SM BKN032 15/12 A3032 RMK AO2=
KBKN 081235Z AUTO 36005KT 10SM CLR 23/22 A3006 RMK AO2=
KC29 081235Z AUTO 27004KT 5SM OVC004 22/20 A3005 RMK AO2
     T02170201=
KCCU 081236Z AUTO 19018KT 10SM CLR 07/00 A3063 RMK AO2=
KCIC 081235Z AUTO 13006KT 10SM CLR 19/13 A2984 RMK AO1=
KD39 081234Z AUTO 27005KT 10SM CLR 19/17 A3011 RMK AO2
     T01920169=
KDLL 081234Z AUTO 00000KT 10SM CLR 22/20 A3004 RMK AO2=
KGGE 081235Z AUTO 30005KT 10SM SCT100 26/21 A2995 RMK AO2=
KLUX 081235Z AUTO 00000KT 10SM CLR 26/25 A3004 RMK AO2=
KMAO 081235Z AUTO 34005KT 10SM CLR 27/19 A2995 RMK AO2=
KMER 081235Z AUTO 32007KT 10SM CLR 16/11 A2984 RMK AO1=
KMYP 081136Z AUTO 18009KT 10SM CLR 03/02 A3074 RMK AO2=
KRCE 081235Z AUTO 05004KT 4SM BR OVC003 22/22 A3009 RMK AO2=
KSMS 081235Z AUTO 32008KT 10SM CLR 27/20 A2999 RMK AO2=
KVTP 081240Z AUTO 00000KT 10SM CLR 06/04 A3055 RMK AO2=
KWYS 081230Z AUTO 00000KT 10SM CLR 00/M02 A3038 RMK AO2=
KX40 081235Z AUTO 05003KT 10SM CLR 26/23 A3002 RMK AO2
     T02560233=
KY51 081235Z AUTO 33005KT 7SM BKN007 20/19 A3007 RMK AO1
     T02020193=
####018000085####
SAAM31 FCBB 081200 RRD
METAR FOON 081200Z 31008KT 7000 SCT023 BKN040 28/22 Q1016=
####018000152####
SAZA42 FAJS 081200 RRB
METAR FAWK 081200Z 00000KT CAVOK 16/// Q1035=
METAR FASK 081200Z 02010KT 9999 SCT030 17/// Q1032=
METAR FALM 081200Z NIL=
####018000280####
SAPO32 LPMG 081230
METAR LPAZ 081230Z 26006KT 9999 BKN016 BKN030 21/19 Q1025=
METAR LPFL 081230Z 21008KT 180V260 9999 FEW023TCU SCT035 23/17 Q1022=
METAR LPHR 081230Z 22007KT 9999 SCT013 BKN035 23/19 Q1023=
METAR LPPD 081230Z 24004KT 210V290 9999 FEW017 BKN030 21/16 Q1024=
####018000077####
SPAL40 DAMM 081200
SPECI
DAUI 081145Z 07024KT 4000 DRSA NSC 45/07 Q1013=
####018000086####
SANL33 EHDB 081225 RRA
METAR EHJR 081225Z AUTO 25006G07KT //// 17/15 Q1019 W15/S2=
####018000091####
SAUK51 EGGY 081150 RRG
METAR EGYD 081150Z 25012KT 9999 FEW045 BKN250 22/09 Q1017 NOSIG=
####018000767####
SAUR31 UKMS 081230
METAR UKLR 081230Z 31006MPS 260V350 9999 SCT030
         BKN100  22/15 Q1019 30090070 NOSIG=
METAR UKLI 081230Z 33003MPS 260V020 9999 SCT021CB
         BKN026 18/14 Q1020 28290565 NOSIG=
METAR UKON 081230Z 33004MPS 300V020 9999 FEW033CB
         OVC200 28/17 Q1013 05090075 NOSIG=
METAR UKCM 081230Z 14004MPS 100V200 CAVOK 29/14 Q1014
          20010065 NOSIG=
METAR UKCW 081230Z 13003MPS 070V210 9999 BKN040 30/15
          Q1014 2709//70 NOSIG=
METAR UKLU NIL=
METAR UKKK 081230Z 31003MPS 270V350 9999 BKN035 25/17
         Q1015  26CLRD70 NOSIG=
METAR UKKM 081230Z 35004MPS 310V010 9999 BKN038 25/16
         Q1015  33CLRD70 NOSIG=
METAR UKLN 081230Z 30006MPS 240V330 9999 BKN013
         BKN033CB 16/15 Q1020 3319//65 NOSIG=
####018000334####
SAAL31 DAAA 081230
METAR DAAG 081230Z 04012KT CAVOK 34/16 Q1018=
METAR DAAT 081230Z NIL=
METAR DABB 081230Z 01013KT CAVOK 28/20 Q1019=
METAR DABC 081230Z 35012KT CAVOK 34/07 Q1022=
METAR DAON 081230Z 02008KT 9999 FEW026 37/21 Q1018=
METAR DAOO 081230Z 36015KT CAVOK 29/22 Q1016=
METAR DAUH 081230Z 10010KT CAVOK 39/21 Q1017=
####018000671####
SACI31 ZBBB 081230
METAR ZBAA 081230Z 15003MPS CAVOK 31/12 Q1005 NOSIG=
ZBSJ NIL=
METAR ZBTJ 081230Z 14004MPS 100V170 CAVOK 27/17 Q1006 NOSIG=
METAR ZBYN 081230Z 09005MPS CAVOK 28/14 Q1008 NOSIG=
METAR ZGGG 081230Z 15003MPS 9999 SCT040 32/25 Q1006 NOSIG=
METAR ZSHC 081230Z VRB01MPS 5000 -RA BR SCT026 26/24 Q1004 NOSIG=
METAR ZSPD 081230Z 11007MPS 9999 BKN009 26/24 Q1005 NOSIG=
METAR ZSSS 081230Z 11005MPS 060V130 9999 BKN015 27/23 Q1005 BECMG
 BKN011
 OVC040=
ZWSH NIL=
METAR ZWWW 081230Z 24005MPS 9999 FEW033CB 31/07 Q1011 NOSIG=
METAR ZYTL 081230Z VRB02MPS 6000 SCT033 24/20 Q1007 NOSIG=
METAR ZYTX 081230Z 12002MPS 9999 FEW030TCU 20/18 Q1007 NOSIG=
####018000107####
SAGG31 UGTB 081233
METAR UGTB 081233Z 08004KT 9999 SCT050 BKN100 34/17 Q1013 NOSIG RMK
      13CLRD80=
####018000400####
SAPL31 EPWA 081230
METAR EPWA 081230Z 34011KT 290V030 CAVOK 23/10 Q1021 NOSIG=
METAR EPGD 081230Z VRB04KT CAVOK 25/13 Q1021=
METAR EPKK 081230Z VRB04KT 9999 FEW060 24/07 Q1022=
METAR EPPO 081230Z 31007KT 250V360 CAVOK 25/08 Q1022=
METAR EPRZ 081230Z 32008KT 280V350 9999 FEW046 22/11 Q1021=
METAR EPBY 081230Z VRB03KT CAVOK 25/08 Q1021=
METAR EPZG 081230Z 24006KT 160V300 CAVOK 26/06 Q1021=
####018000086####
SANL33 EHDB 081225 RRC
METAR EHSA 081225Z AUTO 20008G08KT 9999 17/16 Q1019 W16/S2=
####018000319####
SAPL32 EPWA 081230
METAR EPKT 081230Z 02007KT CAVOK 23/07 Q1022=
METAR EPLL 081230Z 34005KT 280V030 CAVOK 23/06 Q1022=
METAR EPSC 081230Z 00000KT CAVOK 25/11 Q1021=
METAR EPWR 081230Z VRB03KT CAVOK 25/10 Q1023=
METAR EPBY 081230Z VRB03KT CAVOK 25/08 Q1021=
METAR EPZG 081230Z 24006KT 160V300 CAVOK 26/06 Q1021=
####018000086####
SANL33 EHDB 081225 RRB
METAR EHSC 081225Z AUTO 22005G05KT 9999 18/16 Q1019 W///S2=
####018000095####
SAUK51 EGGY 081150 CCA
METAR COR EGXC 081150Z 24007KT 9999 FEW040 BKN250 22/07 Q1017 NOSIG=
####018001149####
SACN60 CWAO 081200 RRA
PAF SA 1200 AUTO8 M M M M/14/11/MMMM/M/ M 13MM=
PBB SA 1200 AUTO8 M M M M/12/10/MMMM/M/ M 39MM=
PBN SA 1200 AUTO8 M M M M/15/12/0102/M/0008 M 21MM=
PDB SA 1200 AUTO8 M M M M/13/11/MMMM/M/0007 M 23MM=
PEL SA 1200 AUTO8 M M M M/14/12/3501/M/0013 M 11MM=
PFA SA 1200 AUTO8 M M M M/12/10/MMMM/M/ M 10MM=
PFB SA 1200 AUTO8 M M M M/11/09/MMMM/M/ M 98MM=
PGC SA 1200 AUTO8 M M M M/12/09/1901/M/ M 70MM=
PHA SA 1200 AUTO8 M M M M/12/09/MMMM/M/0007 M 04MM=
PHW SA 1200 AUTO8 M M M M/17/09/2805/M/ M 56MM=
PJT SA 1200 AUTO8 M M M M/14/11/3001/M/0004 M 74MM=
PLC SA 1200 AUTO8 M M M M/14/12/3404/M/ M 53MM=
PLG SA 1200 AUTO8 M M M M/12/09/3105/M/M M 70MM=
PNS SA 1200 AUTO8 M M M M/11/09/MMMM/M/ M 43MM=
PRF SA 1200 AUTO8 M M M M/11/10/3204/M/ M 25MM=
PRW SA 1200 AUTO8 M M M M/14/12/MMMM/M/ M 28MM=
PSH SA 1200 AUTO8 M M M M/14/11/MMMM/M/ M 51MM=
PSW SA 1200 AUTO8 M M M M/10/08/2403/M/ M 13MM=
PTA SA 1200 AUTO8 M M M M/14/12/MMMM/M/ M 41MM=
PTC SA 1200 AUTO8 M M M M/10/09/MMMM/M/ M 86MM=
PVI SA 1200 AUTO8 M M M M/14/12/MMMM/M/ M 35MM=
PWT SA 1200 AUTO8 M M M M/11/10/MMMM/M/ M 95MM=

####018000138####
SACN88 CWAO 081200 RRD
WDA SA 1200 AUTO8 M M M 189/09/09/1109/M/ 8011 21MM=
ZCR SA 1200 AUTO8 M M M 163/18/17/0303/M/ 1011 82MM=

####018000147####
SACN82 CWAO 081200 RRB
MQK SA 1200 AUTO8 M M M M/06/M/1206/M/M M 1MMM=
MQP SA 1200 AUTO8 M M M M/07/07/2218/M/M PK WND 2222 1159Z M 98MM=

####018000478####
SACN59 CWAO 081200 RRF
PAH SA 1200 AUTO8 M M M M/11/10/MMMM/M/ M 31MM=
PBL SA 1200 AUTO8 M M M M/13/10/2401/M/ M 81MM=
PBV SA 1200 AUTO8 M M M M/10/08/MMMM/M/ M 11MM=
PGL SA 1200 AUTO8 M M M M/09/08/1606/M/ M 13MM=
PST SA 1200 AUTO8 M M M M/11/10/2107/M/ M 76MM=
PTH SA 1200 AUTO8 M M M M/12/09/MMMM/M/ M 43MM=
PVA SA 1200 AUTO8 M M M M/11/10/MMMM/M/ M 31MM=
XHP SA 1200 AUTO8 M M M M/15/11/2703/M/ M 14MM=
XMG SA 1200 AUTO8 M M M M/15/11/2807/M/ M 00MM=

####018000108####
SACN66 CWAO 081200 RRC
WIK SA 1200 AUTO8 M M M 200/12/11/2903/M/0003 PCPN 0.3MM PAST HR
3013 87MM=

####018000083####
SACN87 CWAO 081200 RRC
WZG SA 1200 AUTO8 M M M 246/04/02/1701/M/ 3005 13MM=

####018000078####
SACN98 CWAO 081200 RRF
XCD SA 1200 AUTO8 M M M M/11/10/2705/M/ M 58MM=

####018000139####
SACN95 CWAO 081200 RRD
WTM SA 1200 AUTO8 M M M 230/10/08/1808/M/M 1005 03MM=
WTX SA 1200 AUTO8 M M M 151/17/14/2406/M/ 1005 81MM=

####018000083####
SACN91 CWAO 081200 RRD
WIJ SA 1200 AUTO8 M M M 141/09/07/3005/M/ 0000 39MM=

####018000086####
SACN97 CWAO 081200 RRE
XEC SA 1200 AUTO8 M M M M/13/13/MMMM/M/ SUNSH 0 M 45MM=

####018000087####
SACN78 CWAO 081200 RRE
WKK SA 1200 AUTO8 M M M 142/18/16/2104/M/0009 8002 81MM=

####018000079####
SACN89 CWAO 081200 RRC
WAF SA 1200 AUTO8 M M M M/11/10/0303/M/M M 64MM=

####018000108####
SACN94 CWAO 081200 RRE
WSY SA 1200 AUTO8 M M M 095/05/04/1513/M/0006 PCPN 0.3MM PAST HR
7006 74MM=

####018000106####
SACN96 CWAO 081200 RRF
WZA SA 1200 AUTO8 M M M 156/22/11/0310+19/M/ PK WND 0420 1140Z 3006
54MM=

####018000108####
SACN93 CWAO 081200 RRD
WOI SA 1200 AUTO8 M M M 188/07/07/2303/M/0003 PCPN 0.3MM PAST HR
3007 86MM=

####018001021####
SAAE31 VTBB 081230
METAR VTBS 081230Z 17003KT 090V170 9999 FEW020 SCT120 BKN300 29/24 
           Q1006 NOSIG=
METAR VTBD 081230Z 18006KT 9999 FEW020 SCT120 BKN300 30/24 Q1006
           NOSIG=
METAR VTCC 081230Z 02011KT 9999 FEW025CB SCT035 BKN300 31/20 Q1007
           A2976 CB NE,E,SSE=
METAR VTBU 081230Z NIL=
METAR VTSS 081230Z 00000KT 9999 FEW020 BKN300 26/23 Q1010 A2983=
METAR VTSP 081230Z 29007KT 9000 FEW020 SCT120 BKN300 29/24 Q1010
           A2983=
METAR VLVT 081230Z NIL=
METAR VYYY 081230Z NIL=
METAR VVTS 081230Z 22009KT 9999 TS SCT015 SCT017CB 27/22 Q1009
           NOSIG=
METAR VVNB 081230Z 13010KT 9999 FEW030CB BKN130 31/22 Q1002 NOSIG=
METAR VDPP 081230Z 21007KT 9000 SCT015 FEW017CB SCT040 29/23 Q1008
           CB:NE NW=
METAR VVDN 081230Z 21009KT 180V240 9999 FEW017 SCT300 26/21 Q1007
           NOSIG=
METAR VYMD 081230Z NIL=
METAR VDSR 081230Z 18008KT 8000 TS SCT015 FEW020CB BKN040 27/23
           Q1007 CB:SW,SE,NE=
METAR VVPB 081230Z NIL=
####018000087####
SANL33 EHDB 081225 RRC
METAR EHSA 081225Z AUTO 20008G08KT 9999 17/16 Q1019 W16/S2=
####018000087####
SAEW32 LEMM 081230 RRA
METAR LEVT 081230Z 18006KT 120V230 9999 SCT040 33/15 Q1018=
####018000378####
SAPO31 LPMG 081230
METAR LPFR 081230Z 25010KT 220V280 9999 FEW012 24/20 Q1016=
METAR LPMA 081230Z 21006KT 180V250 9999 FEW016 24/18 Q1021 RS16005KT
0521005KT 2304013KT=
METAR LPPR 081230Z 21007KT 180V240 5000 BR SCT004 BKN006 22/18 Q1015=
METAR LPPS 081230Z 02011KT 9999 FEW016 SCT030 22/15 Q1021=
METAR LPPT 081230Z 24007KT 190V270 9999 FEW025 29/19 Q1016 NOSIG=
####018000325####
SAPL32 EPWA 081230
METAR EPKT 081230Z 02007KT CAVOK 23/07 Q1022=
METAR EPLL 081230Z 34005KT 280V030 CAVOK 23/06 Q1022=
METAR EPSC 081230Z 00000KT CAVOK 25/11 Q1021=
METAR EPWR 081230Z VRB03KT CAVOK 25/10 Q1023=
METAR EPBY 081230Z VRB03KT CAVOK 25/08 Q1021=
METAR EPZG 081230Z 24006KT 160V300 CAVOK 26/06 Q1021=
####018000407####
SAPL31 EPWA 081230
METAR EPWA 081230Z 34011KT 290V030 CAVOK 23/10 Q1021 NOSIG=
METAR EPGD 081230Z VRB04KT CAVOK 25/13 Q1021=
METAR EPKK 081230Z VRB04KT 9999 FEW060 24/07 Q1022=
METAR EPPO 081230Z 31007KT 250V360 CAVOK 25/08 Q1022=
METAR EPRZ 081230Z 32008KT 280V350 9999 FEW046 22/11 Q1021=
METAR EPBY 081230Z VRB03KT CAVOK 25/08 Q1021=
METAR EPZG 081230Z 24006KT 160V300 CAVOK 26/06 Q1021=
####018000341####
SAAL31 DAAA 081230
METAR DAAG 081230Z 04012KT CAVOK 34/16 Q1018=
METAR DAAT 081230Z NIL=
METAR DABB 081230Z 01013KT CAVOK 28/20 Q1019=
METAR DABC 081230Z 35012KT CAVOK 34/07 Q1022=
METAR DAON 081230Z 02008KT 9999 FEW026 37/21 Q1018=
METAR DAOO 081230Z 36015KT CAVOK 29/22 Q1016=
METAR DAUH 081230Z 10010KT CAVOK 39/21 Q1017=
####018000087####
SANL33 EHDB 081225 RRB
METAR EHSC 081225Z AUTO 22005G05KT 9999 18/16 Q1019 W///S2=
####018000087####
SANL33 EHDB 081225 RRA
METAR EHJR 081225Z AUTO 25006G07KT //// 17/15 Q1019 W15/S2=
####018000100####
SAUS45 KBOU 081237
MTRABH
SPECI KABH 081235Z AUTO 00000KT 6SM BR FEW001 12/11 A3037 RMK AO2 $
####018000132####
SASA KAWN 081200 RRI
METAR SGAS 081230Z 14008KT 8000 BKN010 OVC015 17/15 Q1016=
METAR SGES 081230Z 16008KT CAVOK 18/17 Q1016=
####018000833####
SAZZ40 KAWN 081200 RRU
METAR BGGH 081150Z 19005KT 140V240 9999 SCT004 OVC008 05/03 Q1009=
METAR BIKF 081230Z 03020KT 9999 FEW018 SCT035 BKN110 12/06 Q0995=
METAR LKKV 081230Z VRB03KT CAVOK 24/09 Q1023=
METAR TNCA 081200Z 07016KT 9999 SCT017 30/25 Q1012 NOSIG=
METAR TNCB 081200Z AUTO 08010KT //// ////// 29/25 Q1012=
METAR TNCC 081200Z 08014KT 9999 FEW017 29/25 Q1012 NOSIG=
METAR TNCE 081200Z 06012KT 9999 FEW018 29/25 Q1016=
METAR TUPJ 081200Z 12008KT 9999 FEW022 30/24 A3000 RMK=
METAR UACC 081230Z 33008MPS CAVOK 24/01 Q1008 220/0070 NOSIG RMK QFE725/0967=
METAR UAFM 081230Z 24009MPS 7000 NSC 32/07 Q1012 TEMPO 24007G12MPS
      FCST WS=
METAR UATT 081230Z 09008MPS 9999 NSC 33/02 Q1010 13CLRD70 NOSIG RMK
      QFE738/0984=
METAR WSSS 081230Z 22004KT 180V250 9999 FEW016 SCT190 28/24 Q1009 NOSIG=
####018000827####
SAXN17 KAWN 081200 RRJ
METAR RJAA 081230Z 13005KT 9999 FEW020 BKN/// 23/21 Q1011 NOSIG RMK
      1CU020 A2985=
METAR RJCC 081230Z 16003KT 0900 R19R/P1800N R01R/0800V1100D DZ VV002
      17/17 Q1010 RMK A2985=
METAR RJFF 081230Z 32004KT 8000 FEW020 SCT030 BKN/// 25/21 Q1009 RMK
      1CU020 3CU030 A2980=
METAR RJTT 081230Z 18014KT 9999 FEW008 SCT012 BKN150 25/22 Q1010 RMK
      1ST008 3CU012 6AC150 A2984=
METAR ROAH 081230Z 19015KT 9999 FEW010 SCT080 BKN150 29/27 Q1010 RMK
      2CU010 3AC080 7AC150 A2984=
METAR TNCA 081200Z 07016KT 9999 SCT017 30/25 Q1012 NOSIG=
METAR TNCB 081200Z AUTO 08010KT //// ////// 29/25 Q1012=
METAR TNCC 081200Z 08014KT 9999 FEW017 29/25 Q1012 NOSIG=
METAR TNCE 081200Z 06012KT 9999 FEW018 29/25 Q1016=
METAR ZGGG 081230Z 15003MPS 9999 SCT040 32/25 Q1006 NOSIG=
####018000422####
SAUS20 KNKA 081237
SPECI KHBR 081235Z AUTO 11004KT 2 1/2SM +RA BR FEW004 OVC008 23/22 
    A3010 RMK AO2 LTG DSNT W CIG 007V011 P0021=
SPECI KRKP 081236Z AUTO 01006KT 10SM BKN013 BKN026 OVC049 A2984 RMK 
    AO2 RAB17E34 P0000 FZRANO $=
METAR PAAK 081236Z AUTO 07022G29KT 10SM BKN024 BKN065 OVC070 07/04 
    A2953 RMK AO1 PNO=
METAR PAHP 081236Z AUTO 34005KT 10SM CLR 09/07 A3004 RMK AO1 PNO 
    TSNO=
####018000160####
SAXX70 KAWN 081200 RRS
METAR KQFW 081220Z AUTO 14002KT 7SM OVC015 24/20 A2992 RMK A02=
METAR KQEX 081230Z AUTO 19008KT 4SM BR SCT036 26/20 A2977 RMK A02=
####018001020####
SAAE31 VTBB 081230
METAR VTBS 081230Z 17003KT 090V170 9999 FEW020 SCT120 BKN300 29/24
           Q1006 NOSIG=
METAR VTBD 081230Z 18006KT 9999 FEW020 SCT120 BKN300 30/24 Q1006
           NOSIG=
METAR VTCC 081230Z 02011KT 9999 FEW025CB SCT035 BKN300 31/20 Q1007
           A2976 CB NE,E,SSE=
METAR VTBU 081230Z NIL=
METAR VTSS 081230Z 00000KT 9999 FEW020 BKN300 26/23 Q1010 A2983=
METAR VTSP 081230Z 29007KT 9000 FEW020 SCT120 BKN300 29/24 Q1010
           A2983=
METAR VLVT 081230Z NIL=
METAR VYYY 081230Z NIL=
METAR VVTS 081230Z 22009KT 9999 TS SCT015 SCT017CB 27/22 Q1009
           NOSIG=
METAR VVNB 081230Z 13010KT 9999 FEW030CB BKN130 31/22 Q1002 NOSIG=
METAR VDPP 081230Z 21007KT 9000 SCT015 FEW017CB SCT040 29/23 Q1008
           CB:NE NW=
METAR VVDN 081230Z 21009KT 180V240 9999 FEW017 SCT300 26/21 Q1007
           NOSIG=
METAR VYMD 081230Z NIL=
METAR VDSR 081230Z 18008KT 8000 TS SCT015 FEW020CB BKN040 27/23
           Q1007 CB:SW,SE,NE=
METAR VVPB 081230Z NIL=
####018000125####
SANI20 DNMM 081230
METAR DNMM 081230Z 22010KT 8000 BKN013 FEW020CB 30/25 Q1015
                   TEMPO 5000 -TSRA=

####018000523####
SAJP51 RJTD 081230
METAR RJAA 081230Z 13005KT 9999 FEW020 BKN/// 23/21 Q1011 NOSIG=
METAR RJBB 081230Z 23006KT 9999 FEW050 BKN/// 25/23 Q1009 NOSIG=
METAR RJCC 081230Z 16003KT 0900 R19R/P1800N R01R/0800V1100D DZ VV002
           17/17 Q1010=
METAR RJFF 081230Z 32004KT 8000 FEW020 SCT030 BKN/// 25/21 Q1009=
METAR RJGG 081230Z 13008KT 9999 FEW010 BKN/// 25/23 Q1010 NOSIG=
METAR RJTT 081230Z 18014KT 9999 FEW008 SCT012 BKN150 25/22 Q1010=
METAR ROAH 081230Z 19015KT 9999 FEW010 SCT080 BKN150 29/27 Q1010=
####018000102####
SAUS90 KWBC 081300
METAR KSYN 081250Z AUTO 30004KT 10SM CLR 19/17 A3011 RMK AO2
     T01920170=
####018003464####
SAUS90 KWBC 081238
METAR KTEW 081232Z AUTO 00000KT 7SM CLR 24/21 A3005 RMK AO2=
METAR KCVH 081230Z AUTO 00000KT 9SM OVC006 13/11 A2993 RMK AO1=
METAR KFSO 081238Z AUTO 23003KT 7SM SCT060 27/23 A3002 RMK AO2=
METAR KFBL 081234Z AUTO 00000KT 10SM CLR 18/16 A3013 RMK AO2=
METAR KLYV 081238Z AUTO 00000KT 10SM CLR 16/14 A3018 RMK AO2=
METAR KEFK 081236Z AUTO 20004KT 7SM CLR 26/21 A3007 RMK AO2=
METAR KRRT 081234Z AUTO 23005KT 10SM SCT080 15/13 A3001 RMK
     AO2=
METAR KTOB 081235Z AUTO 00000KT 10SM CLR 18/17 A3012 RMK AO2=
METAR KLXL 081234Z AUTO 00000KT 10SM CLR 16/15 A3008 RMK AO2=
METAR KEVM 081232Z AUTO 27003KT 10SM CLR 16/15 A3002 RMK AO1=
METAR KELO 081233Z AUTO 23004KT 10SM CLR 17/15 A3003 RMK AO2=
METAR KROX 081234Z AUTO 26004KT 10SM CLR 16/13 A3002 RMK AO2=
METAR KVVV 081235Z AUTO 26004KT 10SM CLR 19/14 A3012 RMK AO2=
METAR KROS 081235Z AUTO 00000KT 10SM CLR 18/15 A3009 RMK AO2
     T01790154=
METAR KHCD 081232Z AUTO 27003KT 10SM CLR 16/15 A3013 RMK AO2
     T01550146=
METAR KSGS 081233Z AUTO 31005KT 10SM CLR 20/16 A3011 RMK AO2
     T02020162=
METAR KMJQ 081232Z AUTO 30004KT 10SM CLR 17/15 A3016 RMK AO2=
METAR KHCO 081234Z AUTO 29006KT 10SM CLR 17/15 A3007 RMK AO2=
METAR KLVN 081228Z AUTO 29004KT 10SM CLR 18/17 A3011 RMK AO2=
METAR KPEX 081233Z AUTO 26005KT 10SM CLR 17/16 A3012 RMK AO2
     T01680158=
METAR KJMR 081238Z AUTO 29004KT 10SM CLR 18/15 A3010 RMK AO2=
METAR KJKJ 081234Z AUTO 24003KT 10SM CLR 17/15 A3008 RMK AO2=
METAR KMVE 081234Z AUTO 29003KT 10SM CLR 18/16 A3011 RMK AO2=
METAR KTKC 081233Z AUTO 25004KT 10SM CLR 18/14 A3016 RMK AO2
     T01800140=
METAR KGYL 081234Z AUTO 27005KT 10SM CLR 18/16 A3012 RMK AO2
     T01750155=
METAR KDXX 081234Z AUTO 00000KT 10SM CLR 18/17 A3011 RMK AO2=
METAR KHZX 081231Z AUTO 25005KT 10SM CLR 17/15 A3008 RMK AO2=
METAR KSAZ 081233Z AUTO 26005KT 10SM CLR 18/18 A3010 RMK AO2=
METAR KONA 081231Z AUTO 33006KT 7SM CLR 21/17 A3007 RMK AO2=
METAR KOVL 081234Z AUTO 29004KT 10SM CLR 16/13 A3012 RMK AO2
     T01610132=
METAR KLJF 081232Z AUTO 27006KT 10SM CLR 19/16 A3013 RMK AO2=
METAR KAEL 081231Z AUTO 31003KT 10SM CLR 18/17 A3012 RMK AO2=
METAR K29G 081234Z AUTO 00000KT 7SM CLR 25/19 A3010 RMK AO2
     T02510194 PWINO=
METAR KMRT 081233Z AUTO 24003KT 7SM CLR 25/20 A3012 RMK AO2
     T02530200=
METAR KIKW 081234Z AUTO 00000KT 7SM BKN080 OVC090 23/21 A3002 RMK
     AO2 T02320211=
METAR KMDS 081220Z AUTO 27003KT 10SM CLR 18/17 A3018 RMK AO2=
METAR KPQN 081233Z AUTO 31003KT 10SM CLR 18/14 A3018 RMK AO2=
METAR KFGN 081234Z AUTO 26008KT 1/2SM -DZ OVC100 17/13 A2998 RMK
     AO2=
METAR KPNM 081233Z AUTO 27005KT 10SM CLR 18/16 A3010 RMK AO2=
METAR KPWC 081233Z AUTO 00000KT 10SM CLR 17/14 A3009 RMK AO2=
METAR KFFM 081233Z AUTO 00000KT 10SM CLR 17/15 A3009 RMK AO2=
METAR KGDB 081233Z AUTO 24004KT 10SM CLR 17/15 A3015 RMK AO2
     T01670150=
METAR KAIT 081233Z AUTO 00000KT 10SM CLR 17/16 A3007 RMK AO2=
METAR KGHW 081233Z AUTO 26009KT 10SM CLR 18/14 A3014 RMK AO2=
METAR KMWM 081233Z AUTO 28004KT 10SM CLR 18/16 A3015 RMK AO2=
METAR KULM 081235Z AUTO 29005KT 10SM CLR 17/15 A3013 RMK AO2=
METAR KBBB 081233Z AUTO 24003KT 10SM CLR 17/16 A3012 RMK AO2=
METAR KTWM 081233Z AUTO 28004KT 10SM CLR 19/14 A3002 RMK AO2=
METAR KMGG 081235Z AUTO 26005KT 10SM CLR 19/16 A3012 RMK AO2
     T01860162=
METAR KMOX 081230Z AUTO 27005KT 10SM CLR 18/16 A3008 RMK AO2=
####018002872####
SAAK41 KNKA 081237
METAR PAAK 081236Z AUTO 07022G29KT 10SM BKN024 BKN065 OVC070 07/04 
    A2953 RMK AO1 PNO=
METAR PABL 081236Z AUTO 30003KT 10SM CLR 07/05 A3015 RMK AO1 PNO=
METAR PABV 081236Z AUTO 00000KT 10SM FEW090 11/08 RMK AO1 PNO=
METAR PADK 081236Z 04016KT 7SM SCT009 BKN020 OVC025 07/06 A2950 RMK 
    AO1 PNO=
METAR PADL 081236Z 30004KT 10SM SCT040 BKN080 OVC110 10/08 A2997 RMK 
    AO1 PNO TSNO=
METAR PAEM 081236Z AUTO 31005KT 10SM BKN085 OVC110 12/09 A3001 RMK 
    AO1 PNO=
METAR PAFE 081236Z AUTO 00000KT 10SM CLR 10/08 A3017 RMK AO1 PNO=
METAR PAFM 081236Z AUTO 00000KT 10SM CLR 11/07 A3009 RMK AO1 PNO=
METAR PAGL 081236Z AUTO 34006KT 10SM CLR 14/08 A3013 RMK AO1 PNO=
METAR PAGS 081236Z AUTO 00000KT 10SM CLR 08/07 A3018 RMK AO1 PNO=
METAR PAHP 081236Z AUTO 34005KT 10SM CLR 09/07 A3004 RMK AO1 PNO 
    TSNO=
METAR PAHY 081236Z AUTO 36003KT 10SM CLR 14/09 A3012 RMK AO1 PNO=
METAR PAII 081236Z AUTO 36004KT 10SM FEW075 OVC100 11/08 A2996 RMK 
    AO1 PNO=
METAR PAIN 081236Z AUTO 00000KT 10SM CLR 07/06 A3006 RMK AO1 PNO=
METAR PAJC 081236Z AUTO 20006KT 10SM OVC017 07/03 A2993 RMK AO1 PNO=
METAR PAKK 081236Z AUTO 01009KT 10SM CLR 12/07 A3005 RMK AO1 PNO=
METAR PAKP 081236Z AUTO 06008KT 10SM CLR 11/02 A3011 RMK AO1=
METAR PAMD 081236Z AUTO 08020KT 3SM BKN003 OVC014 09/08 A3003 RMK 
    AO1 PNO=
METAR PAMH 081236Z 00000KT 10SM CLR 14/04 A2998 RMK AO1 PNO=
METAR PAMM 081236Z AUTO 33007KT 10SM CLR 17/11 A3010 RMK AO1 PNO=
METAR PAMY 081236Z 28005KT 1/4SM OVC002 04/03 A3004 RMK AO1=
METAR PANI 081236Z AUTO 00000KT 9SM CLR 08/06 A3000 RMK AO1 PNO=
METAR PANV 081236Z AUTO 04008KT 10SM CLR 15/07 A2997 RMK AO1 PNO=
METAR PAPG 081236Z 03004KT 10SM CLR 10/09 A3014 RMK AO1 
      PNO=
METAR PAPH 081236Z AUTO 11004KT 7SM BKN002 BKN060 03/01 A2994 RMK 
    AO1 PNO=
METAR PARC 081236Z AUTO 00000KT 10SM CLR 09/02 A3006 RMK AO1 PNO=
METAR PASA 081236Z AUTO 00000KT 10SM CLR 06/03 A3018 RMK AO1 PNO=
METAR PASD 081236Z AUTO 11004KT 10SM SCT027 07/06 A2992 RMK AO1 PNO=
METAR PASH 081236Z AUTO 00000KT 10SM CLR 07/06 A3016 RMK AO1 PNO=
METAR PASK 081236Z 26007KT 10SM CLR 12/08 A3010 RMK AO1 PNO=
METAR PASL 081236Z AUTO 00000KT 10SM SCT095 BKN120 10/08 A3001 RMK 
    AO1 PNO=
METAR PASM 081236Z AUTO 04004KT 10SM OVC110 10/09 A3003 RMK AO1 PNO=
SPECI PASN 081235Z 06011KT 1 3/4SM BR BKN002 OVC044 05/05 A2993 RMK 
    AO2=
METAR PAUN 081236Z AUTO 06012KT 10SM CLR 13/04 A3000 RMK AO1 PNO=
METAR PAVD 081236Z 00000KT 10SM FEW060 OVC080 11/08 A3008 RMK AO1 
      PNO=
METAR PAWG 081236Z AUTO 27003KT 10SM CLR 12/09 A3013 RMK AO1 PNO=
METAR PAWN 081236Z AUTO 00000KT 10SM CLR 07/01 A3015 RMK AO1 PNO=
METAR PAWS 081236Z AUTO 02005KT 10SM FEW080 BKN100 11/09 A2998 RMK 
    AO1 PNO=
METAR PAZK 081236Z AUTO 06006KT 10SM CLR 08/04 A3007 RMK AO1 PNO=
####018002437####
SAUS20 KNKA 081237
METAR K1A6 081235Z AUTO 00000KT 2 1/2SM BR CLR 22/22 A3013 RMK AO2=
METAR K1P1 081235Z AUTO 00000KT 7SM CLR 27/22 A3007 RMK AO2 
     T02650221=
METAR K21D 081238Z AUTO 00000KT 10SM CLR 19/17 A3011 RMK AO2=
METAR KAIG 081235Z AUTO 34007KT 7SM OVC003 19/18 A3003 RMK AO2=
SPECI KAMA 081236Z 36006KT 4SM BR BKN005 OVC010 18/17 A3022 RMK AO2 
    CIG 003V007 $=
METAR KARV 081232Z AUTO 35004KT 10SM CLR 18/16 A3007 RMK AO2 
     T01810158=
METAR KBJI 081234Z AUTO 25006KT 10SM CLR 17/13 A3007 RMK AO2=
METAR KBUU 081234Z AUTO 29005KT 10SM SCT070 21/20 A3004 RMK AO2=
METAR KBWP 081231Z AUTO 27005KT 10SM CLR 17/15 A3010 RMK AO1 
     T01700151=
METAR KCLI 081235Z AUTO 33004KT 10SM CLR 23/20 A3001 RMK AO2=
METAR KCMR 081235Z AUTO 15006KT 10SM CLR 13/02 A3026 RMK AO1 =
METAR KCMY 081235Z AUTO 28004KT 10SM SCT011 22/19 A3006 RMK AO2 
     T02150186=
METAR KDVK 081237Z AUTO 00000KT 5SM 25/21 A3010 RMK AO1=
METAR KE80 081235Z AUTO 24004KT 10SM CLR 18/12 A3026 RMK AO2 
     T01780122=
METAR KEDC 081235Z AUTO 05005KT -RA 24/24 A2998 RMK AO2 P0003 =
METAR KEIK 081235Z AUTO 32006KT 10SM SCT006 BKN012 12/12 A3032 RMK 
     AO2=
METAR KEOE 081235Z AUTO 00000KT 10SM CLR 26/21 A3006 RMK AO2=
METAR KFMH 081235Z AUTO 16008KT 10SM BKN012 BKN019 24/21 A3012 RMK 
     AO2 =
METAR KHVS 081235Z AUTO 32004KT 10SM CLR 27/20 A2999 RMK AO2=
METAR KIFP 081235Z AUTO 00000KT 10SM CLR 26/00 A2977 RMK AO2 =
SPECI KJFK 081236Z 15007KT 10SM SCT009 BKN030 OVC130 26/22 A3006 RMK 
    AO2 RAB1159E10 P0000 $=
METAR KLCK 081235Z AUTO 00000KT 5SM HZ CLR 25/22 A3008 RMK AO2 
     T02500221=
METAR KMAN 081235Z AUTO 15004KT 10SM CLR 10/05 A3007 RMK AO1 =
METAR KMWO 081235Z AUTO 00000KT 4SM BR CLR 25/22 A3009 RMK AO2=
METAR KNQA 081235Z COR 00000KT 10SM FEW250 27/24 A3008 RMK=
SPECI KPHL 081236Z 00000KT 3SM BR SCT006 BKN130 BKN250 26/23 A3004 
    RMK AO2=
METAR KPVB 081233Z AUTO 00000KT 4SM OVC002 21/21 A3007 RMK AO1 
     T02130206=
METAR KPVF 081235Z AUTO 00000KT 10SM CLR 22/10 A2994 RMK AO1 =
METAR KRBW 081235Z AUTO 30006KT 10SM CLR 25/21 A2999 RMK AO2=
METAR KRZN 081234Z AUTO 00000KT 10SM CLR 19/16 A3009 RMK AO2 
     T01850160=
METAR KSRR 081235Z AUTO 00000KT 10SM OVC019 13/13 A3037 RMK AO2 =
METAR KTME 081235Z AUTO 06009KT 4SM FEW006 BKN070 25/25 A2996 RMK 
     AO1 =
METAR KUOX 081235Z AUTO 00000KT 10SM CLR 25/22 A3010 RMK AO2 =
####018000106####
SAUK39 EGRR 081150 RRX
METAR EGUW 081150Z 23009KT 9999 FEW028 BKN120 BKN250 23/14 Q1018 BLU
 NOSIG=
####018000084####
SAAE31 VTBB 081230 RRA
METAR VVPB 081230Z 20006KT 9999 SCT026 BKN300 29/ NOSIG=
####018000109####
SAKY31 RUMS 081230 RRA
METAR UAFO 081230Z 31003MPS 9999 FEW050CB SCT100 33/13 Q1017 NOSIG
RMK QFEM684=
####018003703####
SAUS99 KWBC 081238
METAR
PAAK 081236Z AUTO 07022G29KT 10SM BKN024 BKN065 OVC070 07/04 A2953
     RMK AO1 PNO=
PAHP 081236Z AUTO 34005KT 10SM CLR 09/07 A3004 RMK AO1 PNO
     TSNO=
PAAK 081236Z AUTO 07022G29KT 10SM BKN024 BKN065 OVC070 07/04 A2953
     RMK AO1 PNO=
PABL 081236Z AUTO 30003KT 10SM CLR 07/05 A3015 RMK AO1 PNO=
PABV 081236Z AUTO 00000KT 10SM FEW090 11/08 RMK AO1 PNO=
PADK 081236Z 04016KT 7SM SCT009 BKN020 OVC025 07/06 A2950 RMK AO1
     PNO=
PADL 081236Z 30004KT 10SM SCT040 BKN080 OVC110 10/08 A2997 RMK AO1
     PNO TSNO=
PAEM 081236Z AUTO 31005KT 10SM BKN085 OVC110 12/09 A3001 RMK AO1
     PNO=
PAFE 081236Z AUTO 00000KT 10SM CLR 10/08 A3017 RMK AO1 PNO=
PAFM 081236Z AUTO 00000KT 10SM CLR 11/07 A3009 RMK AO1 PNO=
PAGL 081236Z AUTO 34006KT 10SM CLR 14/08 A3013 RMK AO1 PNO=
PAGS 081236Z AUTO 00000KT 10SM CLR 08/07 A3018 RMK AO1 PNO=
PAHP 081236Z AUTO 34005KT 10SM CLR 09/07 A3004 RMK AO1 PNO
     TSNO=
PAHY 081236Z AUTO 36003KT 10SM CLR 14/09 A3012 RMK AO1 PNO=
PAII 081236Z AUTO 36004KT 10SM FEW075 OVC100 11/08 A2996 RMK AO1
     PNO=
PAIN 081236Z AUTO 00000KT 10SM CLR 07/06 A3006 RMK AO1 PNO=
PAJC 081236Z AUTO 20006KT 10SM OVC017 07/03 A2993 RMK AO1 PNO=
PAKK 081236Z AUTO 01009KT 10SM CLR 12/07 A3005 RMK AO1 PNO=
PAKP 081236Z AUTO 06008KT 10SM CLR 11/02 A3011 RMK AO1=
PAMD 081236Z AUTO 08020KT 3SM BKN003 OVC014 09/08 A3003 RMK AO1
     PNO=
PAMH 081236Z 00000KT 10SM CLR 14/04 A2998 RMK AO1 PNO=
PAMM 081236Z AUTO 33007KT 10SM CLR 17/11 A3010 RMK AO1 PNO=
PAMY 081236Z 28005KT 1/4SM OVC002 04/03 A3004 RMK AO1=
PANI 081236Z AUTO 00000KT 9SM CLR 08/06 A3000 RMK AO1 PNO=
PANV 081236Z AUTO 04008KT 10SM CLR 15/07 A2997 RMK AO1 PNO=
PAPG 081236Z 03004KT 10SM CLR 10/09 A3014 RMK AO1 PNO=
PAPH 081236Z AUTO 11004KT 7SM BKN002 BKN060 03/01 A2994 RMK AO1
     PNO=
PARC 081236Z AUTO 00000KT 10SM CLR 09/02 A3006 RMK AO1 PNO=
PASA 081236Z AUTO 00000KT 10SM CLR 06/03 A3018 RMK AO1 PNO=
PASD 081236Z AUTO 11004KT 10SM SCT027 07/06 A2992 RMK AO1 PNO=
PASH 081236Z AUTO 00000KT 10SM CLR 07/06 A3016 RMK AO1 PNO=
PASK 081236Z 26007KT 10SM CLR 12/08 A3010 RMK AO1 PNO=
PASL 081236Z AUTO 00000KT 10SM SCT095 BKN120 10/08 A3001 RMK AO1
     PNO=
PASM 081236Z AUTO 04004KT 10SM OVC110 10/09 A3003 RMK AO1 PNO=
PAUN 081236Z AUTO 06012KT 10SM CLR 13/04 A3000 RMK AO1 PNO=
PAVD 081236Z 00000KT 10SM FEW060 OVC080 11/08 A3008 RMK AO1
     PNO=
PAWG 081236Z AUTO 27003KT 10SM CLR 12/09 A3013 RMK AO1 PNO=
PAWN 081236Z AUTO 00000KT 10SM CLR 07/01 A3015 RMK AO1 PNO=
PAWS 081236Z AUTO 02005KT 10SM FEW080 BKN100 11/09 A2998 RMK AO1
     PNO=
PAZK 081236Z AUTO 06006KT 10SM CLR 08/04 A3007 RMK AO1 PNO=
K1A6 081235Z AUTO 00000KT 2 1/2SM BR CLR 22/22 A3013 RMK AO2=
K1P1 081235Z AUTO 00000KT 7SM CLR 27/22 A3007 RMK AO2
     T02650221=
K21D 081238Z AUTO 00000KT 10SM CLR 19/17 A3011 RMK AO2=
KAIG 081235Z AUTO 34007KT 7SM OVC003 19/18 A3003 RMK AO2=
KARV 081232Z AUTO 35004KT 10SM CLR 18/16 A3007 RMK AO2
     T01810158=
KBJI 081234Z AUTO 25006KT 10SM CLR 17/13 A3007 RMK AO2=
KBUU 081234Z AUTO 29005KT 10SM SCT070 21/20 A3004 RMK AO2=
KBWP 081231Z AUTO 27005KT 10SM CLR 17/15 A3010 RMK AO1
     T01700151=
KCLI 081235Z AUTO 33004KT 10SM CLR 23/20 A3001 RMK AO2=
KCMR 081235Z AUTO 15006KT 10SM CLR 13/02 A3026 RMK AO1=
KCMY 081235Z AUTO 28004KT 10SM SCT011 22/19 A3006 RMK AO2
     T02150186=
KDVK 081237Z AUTO 00000KT 5SM 25/21 A3010 RMK AO1=
KE80 081235Z AUTO 24004KT 10SM CLR 18/12 A3026 RMK AO2
     T01780122=
KEDC 081235Z AUTO 05005KT -RA 24/24 A2998 RMK AO2 P0003=
KEIK 081235Z AUTO 32006KT 10SM SCT006 BKN012 12/12 A3032 RMK
     AO2=
####018000994####
SAUS99 KWBC 081238 RRA
METAR
KEOE 081235Z AUTO 00000KT 10SM CLR 26/21 A3006 RMK AO2=
KFMH 081235Z AUTO 16008KT 10SM BKN012 BKN019 24/21 A3012 RMK
     AO2=
KHVS 081235Z AUTO 32004KT 10SM CLR 27/20 A2999 RMK AO2=
KIFP 081235Z AUTO 00000KT 10SM CLR 26/00 A2977 RMK AO2=
KLCK 081235Z AUTO 00000KT 5SM HZ CLR 25/22 A3008 RMK AO2
     T02500221=
KMAN 081235Z AUTO 15004KT 10SM CLR 10/05 A3007 RMK AO1=
KMWO 081235Z AUTO 00000KT 4SM BR CLR 25/22 A3009 RMK AO2=
KNQA 081235Z COR 00000KT 10SM FEW250 27/24 A3008 RMK=
KPVB 081233Z AUTO 00000KT 4SM OVC002 21/21 A3007 RMK AO1
     T02130206=
KPVF 081235Z AUTO 00000KT 10SM CLR 22/10 A2994 RMK AO1=
KRBW 081235Z AUTO 30006KT 10SM CLR 25/21 A2999 RMK AO2=
KRZN 081234Z AUTO 00000KT 10SM CLR 19/16 A3009 RMK AO2
     T01850160=
KSRR 081235Z AUTO 00000KT 10SM OVC019 13/13 A3037 RMK AO2=
KTME 081235Z AUTO 06009KT 4SM FEW006 BKN070 25/25 A2996 RMK
     AO1=
KUOX 081235Z AUTO 00000KT 10SM CLR 25/22 A3010 RMK AO2=
####018000580####
SPUS99 KWBC 081238
SPECI
KHBR 081235Z AUTO 11004KT 2 1/2SM +RA BR FEW004 OVC008 23/22 A3010
     RMK AO2 LTG DSNT W CIG 007V011 P0021=
KRKP 081236Z AUTO 01006KT 10SM BKN013 BKN026 OVC049 A2984 RMK AO2
     RAB17E34 P0000 FZRANO $=
PASN 081235Z 06011KT 1 3/4SM BR BKN002 OVC044 05/05 A2993 RMK
     AO2=
KAMA 081236Z 36006KT 4SM BR BKN005 OVC010 18/17 A3022 RMK AO2 CIG
     003V007 $=
KJFK 081236Z 15007KT 10SM SCT009 BKN030 OVC130 26/22 A3006 RMK AO2
     RAB1159E10 P0000 $=
KPHL 081236Z 00000KT 3SM BR SCT006 BKN130 BKN250 26/23 A3004 RMK
     AO2=
####018000095####
SACN87 KWBC 081238
METAR CWZG 081200Z AUTO 17001KT 04/02 RMK AO1 SLP246 T00410023
53005=
####018000080####
SACN89 KWBC 081238
METAR CWAF 081200Z AUTO 03003KT 11/10 RMK AO1 T01060104=
####018000317####
SACN88 KWBC 081238
METAR CWDA 081231Z AUTO 10009KT 10/09 RMK AO1 SLP185 T00970094
58014=
METAR CWDA 081200Z AUTO 11009KT 09/09 RMK AO1 SLP189 T00920091
58011=
METAR CZCR 081200Z AUTO 03003KT 18/17 RMK AO1 SLP163 T01780172
51011=
METAR CZCR 081200Z AUTO 03003KT 18/17 RMK AO1 SLP163 T01780172
51011=
####018000095####
SACN91 KWBC 081238
METAR CWIJ 081200Z AUTO 30005KT 09/07 RMK AO1 SLP141 T00930069
50000=
####018000080####
SACN94 KWBC 081238
METAR CWSK 081230Z AUTO 34003KT 16/10 RMK AO1 T01590097=
####018000336####
SABY31 UMMN 081230
METAR UMBB 081230Z 30005G08MPS 8000 SCT030 24/12 Q1019 NOSIG=
METAR UMGG 081230Z 24002MPS 9999 BKN043CB BKN100 24/21 Q1014
R28/290550 NOSIG=
METAR UMMM 081230Z 28006G09MPS 9999 OVC015CB 20/15 Q1015
R30/CLRD// NOSIG RMK QFE742=
METAR UMMS 081230Z 25004G07MPS 150V290 9999 OVC020 19/15
Q1015 R31/CLRD// NOSIG=
####018000124####
SAMX41 MMMX 081235
METAR MMMX 081223Z 16004KT 2 1/2SM -RA HZ SCT008 OVC020 15/14 A3019
      NOSIG RMK 8/7// VSBY TWR=
####018000100####
SACN78 KWBC 081238
METAR CWKK 081200Z AUTO 21004KT 18/16 RMK AO1 8002 SLP142
T01780161 50009=
####018000116####
SACN96 KWBC 081238
METAR CWZA 081200Z AUTO 03010G19KT 22/11 RMK AO1 PK WND 04020/1140
SLP156 T02150114 53006=
####018000080####
SACN95 KWBC 081238
METAR CWWA 081230Z AUTO 02002KT 20/09 RMK AO1 T01970094=
####018000091####
SAFR37 LFPW 081230 RRA
METAR LFAQ 081230Z AUTO 15007KT 120V210 9999NDV NSC 30/10 Q1019=
####018000080####
SACN97 KWBC 081238
METAR CXEC 081200Z AUTO 13/13 RMK AO1 SUNSH 0 T01340125=
####018000107####
SAKY31 RUMS 081230 RRA
METAR UAFO 081230Z 31003MPS 9999 FEW050CB SCT100 33/13 Q1017 NOSIG
RMK QFEM684=
####018000114####
SAAF31 KWBC 081200 RRE
METAR
DNMM 081230Z 22010KT 8000 BKN013 FEW020CB 30/25 Q1015 TEMPO 5000
     -TSRA=
####018000094####
SPXX60 KWBC 081238
SPECI
KABH 081235Z AUTO 00000KT 6SM BR FEW001 12/11 A3037 RMK AO2 $=
####018000513####
SAUS80 KWBC 081238
METAR
KDVL 081235Z AUTO 31006KT 10SM SCT085 17/13 A3010 RMK AO1=
KEAR 081235Z AUTO 34004KT 10SM CLR 16/14 A3025 RMK AO1=
KGPZ 081235Z AUTO 27006KT 10SM CLR 18/14 A3007 RMK AO1=
K4BM 081234Z AUTO 22009KT 3/4SM BR 03/03 A3061 RMK AO2=
KSMS 081235Z AUTO 32008KT 10SM CLR 27/20 A2999 RMK AO2=
PADK 081236Z 04016KT 7SM SCT009 BKN020 OVC025 07/06 A2950 RMK AO1
     PNO=
KCLI 081235Z AUTO 33004KT 10SM CLR 23/20 A3001 RMK AO2=
KDVK 081237Z AUTO 00000KT 5SM 25/21 A3010 RMK AO1=
####018003745####
SAUS70 KWBC 081238 RRB
METAR
PAFM 081236Z AUTO 00000KT 10SM CLR 11/07 A3009 RMK AO1 PNO=
PAGL 081236Z AUTO 34006KT 10SM CLR 14/08 A3013 RMK AO1 PNO=
PAGS 081236Z AUTO 00000KT 10SM CLR 08/07 A3018 RMK AO1 PNO=
PAHP 081236Z AUTO 34005KT 10SM CLR 09/07 A3004 RMK AO1 PNO
     TSNO=
PAHY 081236Z AUTO 36003KT 10SM CLR 14/09 A3012 RMK AO1 PNO=
PAII 081236Z AUTO 36004KT 10SM FEW075 OVC100 11/08 A2996 RMK AO1
     PNO=
PAIN 081236Z AUTO 00000KT 10SM CLR 07/06 A3006 RMK AO1 PNO=
PAJC 081236Z AUTO 20006KT 10SM OVC017 07/03 A2993 RMK AO1 PNO=
PAKK 081236Z AUTO 01009KT 10SM CLR 12/07 A3005 RMK AO1 PNO=
PAKP 081236Z AUTO 06008KT 10SM CLR 11/02 A3011 RMK AO1=
PAMD 081236Z AUTO 08020KT 3SM BKN003 OVC014 09/08 A3003 RMK AO1
     PNO=
PAMH 081236Z 00000KT 10SM CLR 14/04 A2998 RMK AO1 PNO=
PAMM 081236Z AUTO 33007KT 10SM CLR 17/11 A3010 RMK AO1 PNO=
PAMY 081236Z 28005KT 1/4SM OVC002 04/03 A3004 RMK AO1=
PANI 081236Z AUTO 00000KT 9SM CLR 08/06 A3000 RMK AO1 PNO=
PANV 081236Z AUTO 04008KT 10SM CLR 15/07 A2997 RMK AO1 PNO=
PAPG 081236Z 03004KT 10SM CLR 10/09 A3014 RMK AO1 PNO=
PAPH 081236Z AUTO 11004KT 7SM BKN002 BKN060 03/01 A2994 RMK AO1
     PNO=
PARC 081236Z AUTO 00000KT 10SM CLR 09/02 A3006 RMK AO1 PNO=
PASA 081236Z AUTO 00000KT 10SM CLR 06/03 A3018 RMK AO1 PNO=
PASD 081236Z AUTO 11004KT 10SM SCT027 07/06 A2992 RMK AO1 PNO=
PASH 081236Z AUTO 00000KT 10SM CLR 07/06 A3016 RMK AO1 PNO=
PASK 081236Z 26007KT 10SM CLR 12/08 A3010 RMK AO1 PNO=
PASL 081236Z AUTO 00000KT 10SM SCT095 BKN120 10/08 A3001 RMK AO1
     PNO=
PASM 081236Z AUTO 04004KT 10SM OVC110 10/09 A3003 RMK AO1 PNO=
PAUN 081236Z AUTO 06012KT 10SM CLR 13/04 A3000 RMK AO1 PNO=
PAVD 081236Z 00000KT 10SM FEW060 OVC080 11/08 A3008 RMK AO1
     PNO=
PAWG 081236Z AUTO 27003KT 10SM CLR 12/09 A3013 RMK AO1 PNO=
PAWN 081236Z AUTO 00000KT 10SM CLR 07/01 A3015 RMK AO1 PNO=
PAWS 081236Z AUTO 02005KT 10SM FEW080 BKN100 11/09 A2998 RMK AO1
     PNO=
PAZK 081236Z AUTO 06006KT 10SM CLR 08/04 A3007 RMK AO1 PNO=
K1A6 081235Z AUTO 00000KT 2 1/2SM BR CLR 22/22 A3013 RMK AO2=
K1P1 081235Z AUTO 00000KT 7SM CLR 27/22 A3007 RMK AO2
     T02650221=
K21D 081238Z AUTO 00000KT 10SM CLR 19/17 A3011 RMK AO2=
KAIG 081235Z AUTO 34007KT 7SM OVC003 19/18 A3003 RMK AO2=
KARV 081232Z AUTO 35004KT 10SM CLR 18/16 A3007 RMK AO2
     T01810158=
KBJI 081234Z AUTO 25006KT 10SM CLR 17/13 A3007 RMK AO2=
KBUU 081234Z AUTO 29005KT 10SM SCT070 21/20 A3004 RMK AO2=
KBWP 081231Z AUTO 27005KT 10SM CLR 17/15 A3010 RMK AO1
     T01700151=
KCMR 081235Z AUTO 15006KT 10SM CLR 13/02 A3026 RMK AO1=
KCMY 081235Z AUTO 28004KT 10SM SCT011 22/19 A3006 RMK AO2
     T02150186=
KE80 081235Z AUTO 24004KT 10SM CLR 18/12 A3026 RMK AO2
     T01780122=
KEDC 081235Z AUTO 05005KT -RA 24/24 A2998 RMK AO2 P0003=
KEIK 081235Z AUTO 32006KT 10SM SCT006 BKN012 12/12 A3032 RMK
     AO2=
KEOE 081235Z AUTO 00000KT 10SM CLR 26/21 A3006 RMK AO2=
KFMH 081235Z AUTO 16008KT 10SM BKN012 BKN019 24/21 A3012 RMK
     AO2=
KHVS 081235Z AUTO 32004KT 10SM CLR 27/20 A2999 RMK AO2=
KIFP 081235Z AUTO 00000KT 10SM CLR 26/00 A2977 RMK AO2=
KLCK 081235Z AUTO 00000KT 5SM HZ CLR 25/22 A3008 RMK AO2
     T02500221=
KMAN 081235Z AUTO 15004KT 10SM CLR 10/05 A3007 RMK AO1=
KMWO 081235Z AUTO 00000KT 4SM BR CLR 25/22 A3009 RMK AO2=
KNQA 081235Z COR 00000KT 10SM FEW250 27/24 A3008 RMK=
KPVB 081233Z AUTO 00000KT 4SM OVC002 21/21 A3007 RMK AO1
     T02130206=
KPVF 081235Z AUTO 00000KT 10SM CLR 22/10 A2994 RMK AO1=
KRBW 081235Z AUTO 30006KT 10SM CLR 25/21 A2999 RMK AO2=
KRZN 081234Z AUTO 00000KT 10SM CLR 19/16 A3009 RMK AO2
     T01850160=
KSRR 081235Z AUTO 00000KT 10SM OVC019 13/13 A3037 RMK AO2=
####018000081####
SAAF35 KWBC 081200 RRC
METAR
HECA 081230Z 32010KT CAVOK 33/17 Q1010 NOSIG=
####018000187####
SPUS80 KWBC 081238
SPECI
KPIA 081234Z 00000KT 10SM BKN006 OVC012 23/22 A3004 RMK AO2 CIG
     004V011=
PASN 081235Z 06011KT 1 3/4SM BR BKN002 OVC044 05/05 A2993 RMK
     AO2=
####018003719####
SAUS70 KWBC 081238 RRA
METAR
KDYR 081235Z AUTO 00000KT 9SM CLR 27/21 A3008 RMK AO1=
KEEN 081235Z AUTO 18007KT 10SM SCT018 BKN110 25/22 A3008 RMK
     AO1=
KEGE 081235Z 07003KT 10SM CLR 09/08 A3039 RMK AO1=
KEHR 081235Z AUTO 00000KT 10SM CLR 27/21 A3007 RMK AO1=
KENV 081235Z 16004KT 10SM CLR 17/01 A3011 RMK AO1=
KESC 081235Z AUTO 33004KT 10SM BKN004 BKN019 19/17 A2999 RMK
     AO1=
KEUL 081235Z AUTO 12004KT 10SM CLR 13/05 A3008 RMK AO1=
KEWK 081235Z AUTO 04007KT 10SM OVC004 21/19 A3008 RMK AO1=
KFAM 081235Z AUTO 00000KT 10SM BKN080 23/22 A3010 RMK AO1=
KFKL 081235Z 10003KT 10SM CLR 24/19 A3014 RMK AO1=
KFLP 081235Z AUTO 00000KT 10SM OVC065 23/22 A3008 RMK AO1=
KFNL 081235Z AUTO 33003KT 3SM FEW006 OVC016 14/13 A3033 RMK
     AO1=
KFOD 081235Z AUTO 35006KT 10SM CLR 18/17 A3015 RMK AO1=
KFRM 081235Z AUTO 10SM CLR 18/16 A3016 RMK AO1=
KGAD 081235Z AUTO 34003KT 10SM CLR 24/20 A3007 RMK AO1=
KGBD 081235Z AUTO 36008KT 10SM BKN008 BKN017 19/18 A3018 RMK
     AO1=
KGDV 081235Z AUTO 00000KT 10SM CLR 13/08 A3018 RMK AO1=
KGUC 081235Z AUTO 05003KT 10SM CLR 06/03 A3046 RMK AO1=
KGXY 081235Z AUTO 02004KT 6SM OVC045 15/12 A3032 RMK AO1=
KHDN 081235Z 11007KT 10SM CLR 09/06 A3034 RMK AO1=
KHEZ 081235Z AUTO 36003KT 7SM CLR 23/22 A3007 RMK AO1=
KHNB 081235Z AUTO 00000KT 10SM CLR 26/23 A3007 RMK AO1=
KHYI 081235Z AUTO 05008KT 6SM FEW024 BKN030 OVC034 A2995 RMK
     AO1=
KHYS 081235Z AUTO 35007KT 10SM SCT032 OVC039 18/16 A3021 RMK
     AO1=
KILE 081235Z 09004KT 9SM BKN006 OVC015 24/23 A3000 RMK AO1=
KIWD 081235Z AUTO 32006KT 10SM BKN060 18/16 A3003 RMK AO1=
K04W 081234Z AUTO 27005KT 10SM CLR 19/17 A3008 RMK AO2
     T01890168=
K0A9 081235Z AUTO 00000KT 10SM CLR 23/18 A3013 RMK=
K20V 081236Z AUTO 00000KT 10SM CLR 06/03 A3044 RMK AO2=
K5SM 081233Z AUTO 00000KT 10SM CLR 09/02 A3057 RMK AO2=
K7BM 081236Z AUTO 27006KT 10SM CLR 08/04 A3054 RMK AO2=
KAEG 081235Z AUTO 00000KT 10SM CLR 15/08 A3031 RMK AO1=
KBBP 081235Z AUTO 31003KT 10SM CLR 27/19 A2997 RMK AO2=
KBDU 081237Z AUTO 27003KT 10SM BKN032 15/12 A3032 RMK AO2=
KBKN 081235Z AUTO 36005KT 10SM CLR 23/22 A3006 RMK AO2=
KC29 081235Z AUTO 27004KT 5SM OVC004 22/20 A3005 RMK AO2
     T02170201=
KCCU 081236Z AUTO 19018KT 10SM CLR 07/00 A3063 RMK AO2=
KCIC 081235Z AUTO 13006KT 10SM CLR 19/13 A2984 RMK AO1=
KD39 081234Z AUTO 27005KT 10SM CLR 19/17 A3011 RMK AO2
     T01920169=
KDLL 081234Z AUTO 00000KT 10SM CLR 22/20 A3004 RMK AO2=
KGGE 081235Z AUTO 30005KT 10SM SCT100 26/21 A2995 RMK AO2=
KLUX 081235Z AUTO 00000KT 10SM CLR 26/25 A3004 RMK AO2=
KMAO 081235Z AUTO 34005KT 10SM CLR 27/19 A2995 RMK AO2=
KMER 081235Z AUTO 32007KT 10SM CLR 16/11 A2984 RMK AO1=
KMYP 081136Z AUTO 18009KT 10SM CLR 03/02 A3074 RMK AO2=
KRCE 081235Z AUTO 05004KT 4SM BR OVC003 22/22 A3009 RMK AO2=
KVTP 081240Z AUTO 00000KT 10SM CLR 06/04 A3055 RMK AO2=
KWYS 081230Z AUTO 00000KT 10SM CLR 00/M02 A3038 RMK AO2=
KX40 081235Z AUTO 05003KT 10SM CLR 26/23 A3002 RMK AO2
     T02560233=
KY51 081235Z AUTO 33005KT 7SM BKN007 20/19 A3007 RMK AO1
     T02020193=
PAAK 081236Z AUTO 07022G29KT 10SM BKN024 BKN065 OVC070 07/04 A2953
     RMK AO1 PNO=
PAHP 081236Z AUTO 34005KT 10SM CLR 09/07 A3004 RMK AO1 PNO
     TSNO=
PAAK 081236Z AUTO 07022G29KT 10SM BKN024 BKN065 OVC070 07/04 A2953
     RMK AO1 PNO=
PABL 081236Z AUTO 30003KT 10SM CLR 07/05 A3015 RMK AO1 PNO=
PABV 081236Z AUTO 00000KT 10SM FEW090 11/08 RMK AO1 PNO=
PADL 081236Z 30004KT 10SM SCT040 BKN080 OVC110 10/08 A2997 RMK AO1
     PNO TSNO=
PAEM 081236Z AUTO 31005KT 10SM BKN085 OVC110 12/09 A3001 RMK AO1
     PNO=
PAFE 081236Z AUTO 00000KT 10SM CLR 10/08 A3017 RMK AO1 PNO=
####018003693####
SAUS70 KWBC 081238
METAR
KJAC 081235Z AUTO 01004KT 10SM CLR 06/M01 A3037 RMK AO1=
KJHW 081235Z AUTO 00000KT 10SM CLR 23/19 A3012 RMK AO1=
KLBL 081235Z 01008KT 5SM OVC005 19/17 A3023 RMK AO1 P0001=
KLCI 081235Z AUTO 23004KT 5SM BKN013 OVC025 25/21 A3008 RMK
     AO1=
KLEW 081235Z 00000KT 2SM OVC003 21/20 A3012 RMK AO1=
KLPC 081235Z AUTO 00000KT 8SM OVC008 13/11 A2993 RMK AO1 PNO=
KMBL 081235Z AUTO 00000KT 6SM OVC006 22/20 A3002 RMK AO1=
KMJX 081235Z AUTO 00000KT 25/21 A3005 RMK AO1=
KMKT 081235Z 28003KT 10SM CLR 18/16 A3013 RMK AO1=
KMML 081235Z AUTO 28009KT 10SM CLR 18/14 A3015 RMK AO1=
KMNM 081235Z AUTO 00000KT 8SM OVC017 21/20 A3000 RMK AO1=
KMRF 081235Z AUTO 01005KT 10SM FEW110 15/14 A3020 RMK AO1=
KMSV 081235Z AUTO 01004KT 10SM CLR 26/20 A3011 RMK AO1=
KMTW 081235Z 00000KT 8SM FEW006 23/21 A3001 RMK AO1=
KMVN 081235Z AUTO 20005KT 10SM OVC065 27/23 A3006 RMK AO1=
KOCH 081235Z AUTO 11006KT 10SM SCT120 24/19 A3004 RMK AO1=
KOKK 081235Z AUTO 18005KT 5SM BKN100 26/19 A3005 RMK AO1=
KOLU 081235Z AUTO 33003KT 10SM BKN090 18/16 A3020 RMK AO1=
KOTG 081235Z AUTO 29004KT 10SM CLR 17/15 A3017 RMK AO1=
KPIB 081235Z AUTO 01004KT 10SM CLR 26/22 A3006 RMK AO1=
KPQI 081235Z AUTO 13007KT 10SM CLR 24/20 A3001 RMK AO1=
KPRX 081235Z 14007KT 5SM BKN004 OVC035 25/23 A3005 RMK AO1=
KPTN 081235Z AUTO 08006KT 10SM CLR 26/M08 A3003 RMK AO1=
KPTV 081235Z AUTO 18004KT 10SM CLR 17/11 A2986 RMK AO1=
KPVC 081235Z 17010KT 10SM FEW012 24/21 A3012 RMK AO1=
KPVU 081235Z 00000KT 10SM CLR 18/07 A3015 RMK AO1=
KPWG 081235Z AUTO 05003KT 10SM BKN024 BKN032 OVC038 25/23 A3002
     RMK AO1=
KRKD 081235Z AUTO 20006KT 1 1/4SM OVC002 19/18 A3012 RMK AO1=
KRUT 081235Z AUTO 22003KT 7SM CLR 25/20 A3006 RMK AO1=
KSDY 081235Z AUTO 17003KT 10SM BKN080 OVC120 13/09 A3017 RMK
     AO1=
KSFM 081235Z 18004KT 4SM OVC008 24/19 A3011 RMK AO1=
KSFZ 081235Z AUTO 19004KT 10SM BKN011 24/21 A3010 RMK AO1=
KSGT 081235Z 00000KT 10SM CLR A3008 RMK AO1=
KSGU 081235Z AUTO 04006KT 10SM CLR 23/02 A2999 RMK AO1=
KSKX 081235Z AUTO 01004KT 10SM CLR 11/06 A3040 RMK AO1=
KSLG 081235Z AUTO 12005KT 10SM OVC019 23/21 A3008 RMK AO1=
KSMN 081235Z AUTO 00000KT 10SM CLR 06/01 A3027 RMK AO1=
KSQI 081235Z 00000KT 7SM OVC005 23/22 A3006 RMK AO1=
KSUE 081235Z AUTO 27004KT 8SM OVC007 22/21 A3001 RMK AO1=
KTPL 081235Z 07006KT 7SM BKN010 OVC013 24/23 A3000 RMK AO1=
KTVF 081235Z AUTO 25006KT 10SM FEW080 16/13 A3006 RMK AO1=
KVBT 081235Z AUTO 15003KT 10SM BKN022 OVC034 23/21 A3005 RMK
     AO1=
KVIS 081235Z AUTO 31004KT 10SM CLR 18/11 A2982 RMK AO1=
KWVL 081235Z AUTO 18004KT 3SM OVC003 21/19 A3007 RMK AO1=
KWWD 081235Z AUTO 5SM FEW019 SCT055 BKN070 24/23 A3004 RMK AO1=
KYKN 081235Z AUTO 00000KT 10SM CLR 18/16 A3019 RMK AO1=
KAFJ 081235Z AUTO 00000KT 5SM BKN060 24/21 A3012 RMK AO1=
KAIZ 081235Z AUTO 00000KT 7SM OVC013 23/21 A3009 RMK AO1=
KARG 081235Z AUTO 20006KT 10SM CLR 26/23 A3007 RMK AO1=
KAUO 081235Z AUTO 32004KT 10SM CLR 27/22 A3005 RMK AO1=
KBHB 081235Z AUTO 19008KT 3/4SM OVC002 18/18 A3014 RMK AO1=
KBID 081235Z AUTO 09005KT 1/2SM OVC002 22/22 A3009 RMK AO1=
KBKX 081235Z AUTO 00000KT 10SM CLR 17/15 A3017 RMK AO1=
KBLM 081235Z AUTO 15005KT 10SM FEW018 BKN100 24/20 A3008 RMK
     AO1=
KBTP 081235Z AUTO 00000KT 5SM CLR 23/20 A3010 RMK AO1=
KBVX 081235Z AUTO 00000KT 10SM CLR 24/22 A3009 RMK AO1=
KCGZ 081235Z AUTO 00000KT 10SM CLR 25/00 A2982 RMK AO1=
KCIU 081235Z AUTO 31004KT 5SM OVC003 20/19 A2998 RMK AO1=
KCOD 081235Z 16007KT 10SM CLR 12/02 A3033 RMK AO1=
KCVN 081235Z AUTO 01012KT 10SM FEW009 FEW016 16/14 A3025 RMK
     AO1=
KCWI 081235Z 31005KT 5SM OVC005 A3007 RMK AO1=
####018001258####
SPUS70 KWBC 081238
SPECI
KPYM 081234Z AUTO 18005KT 10SM SCT012 26/21 A3011 RMK AO2=
KARA 081235Z 07007KT 3SM BR OVC003 26/25 A3002 RMK AO2=
KASH 081235Z 00000KT 7SM BKN016 OVC046 26/22 A3009 RMK AO2=
KBML 081235Z AUTO 00000KT 4SM HZ BKN001 24/22 A3010 RMK AO2=
KICT 081235Z 01006KT 9SM SCT008 BKN080 BKN120 23/21 A3010 RMK AO2
     $=
KJCT 081234Z AUTO 00000KT 6SM BR SCT004 OVC026 23/22 A3003 RMK AO2
     TSNO=
KLAA 081235Z AUTO 11007KT 10SM -RA FEW005 SCT016 OVC100 17/16
     A3027 RMK AO2 P0000=
KLFK 081235Z AUTO 08008KT 10SM FEW009 26/24 A3002 RMK AO2=
KLUK 081235Z 00000KT 2SM BR CLR 24/23 A3009 RMK AO2=
KMMK 081235Z AUTO 15005KT 3SM HZ BKN012 OVC048 26/23 A3007 RMK
     AO2=
KTTN 081235Z 00000KT 2SM HZ BKN009 BKN014 26/23 A3004 RMK AO2=
KHBR 081235Z AUTO 11004KT 2 1/2SM +RA BR FEW004 OVC008 23/22 A3010
     RMK AO2 LTG DSNT W CIG 007V011 P0021=
KRKP 081236Z AUTO 01006KT 10SM BKN013 BKN026 OVC049 A2984 RMK AO2
     RAB17E34 P0000 FZRANO $=
KAMA 081236Z 36006KT 4SM BR BKN005 OVC010 18/17 A3022 RMK AO2 CIG
     003V007 $=
KJFK 081236Z 15007KT 10SM SCT009 BKN030 OVC130 26/22 A3006 RMK AO2
     RAB1159E10 P0000 $=
KPHL 081236Z 00000KT 3SM BR SCT006 BKN130 BKN250 26/23 A3004 RMK
     AO2=
####018000165####
SAUS70 KWBC 081238 RRC
METAR
KTME 081235Z AUTO 06009KT 4SM FEW006 BKN070 25/25 A2996 RMK
     AO1=
KUOX 081235Z AUTO 00000KT 10SM CLR 25/22 A3010 RMK AO2=
####018000311####
SAAL31 KWBC 081200 RRD
METAR
DAAG 081230Z 04012KT CAVOK 34/16 Q1018=
DAAT 081230Z NIL=
DABB 081230Z 01013KT CAVOK 28/20 Q1019=
DABC 081230Z 35012KT CAVOK 34/07 Q1022=
DAON 081230Z 02008KT 9999 FEW026 37/21 Q1018=
DAOO 081230Z 36015KT CAVOK 29/22 Q1016=
DAUH 081230Z 10010KT CAVOK 39/21 Q1017=
####018000116####
SAAS31 KWBC 081230 RRA
METAR
VTBS 081230Z 17003KT 090V170 9999 FEW020 SCT120 BKN300 29/24 Q1006
     NOSIG=
####018000744####
SAAS33 KWBC 081230 RRA
METAR
VDPP 081230Z 21007KT 9000 SCT015 FEW017CB SCT040 29/23 Q1008 CB:NE
     NW=
VDSR 081230Z 18008KT 8000 TS SCT015 FEW020CB BKN040 27/23 Q1007
     CB:SW,SE,NE=
VLVT 081230Z NIL=
VTBD 081230Z 18006KT 9999 FEW020 SCT120 BKN300 30/24 Q1006
     NOSIG=
VTBU 081230Z NIL=
VTCC 081230Z 02011KT 9999 FEW025CB SCT035 BKN300 31/20 Q1007 A2976
     CB NE,E,SSE=
VTSP 081230Z 29007KT 9000 FEW020 SCT120 BKN300 29/24 Q1010
     A2983=
VTSS 081230Z 00000KT 9999 FEW020 BKN300 26/23 Q1010 A2983=
VVDN 081230Z 21009KT 180V240 9999 FEW017 SCT300 26/21 Q1007
     NOSIG=
VVNB 081230Z 13010KT 9999 FEW030CB BKN130 31/22 Q1002 NOSIG=
VVTS 081230Z 22009KT 9999 TS SCT015 SCT017CB 27/22 Q1009 NOSIG=
####018000777####
SAAW34 KWBC 081215 RRC
METAR
UAAA 081230Z 23002MPS 190V280 9999 SCT050CB BKN100 27/10 Q1013
     88CLRD65 TEMPO TS=
UACC 081230Z 33008MPS CAVOK 24/01 Q1008 220/0070 NOSIG RMK
     QFE725/0967=
UAKK 081230Z 07002MPS 020V100 9999 VCTS BKN050CB BKN/// 21/06
     Q1009 230///70 TEMPO TSRA RMK QFE710/0947=
UAOO 081230Z NIL=
UARR 081230Z NIL=
UATE 081230Z 01006MPS CAVOK 39/08 Q1009 300///70 NOSIG RMK
     QFE755/1007=
UATG 081230Z 33006G11MPS CAVOK 39/08 Q1008 32CLRD70 NOSIG RMK
     QFE758/1011=
UATT 081230Z 09008MPS 9999 NSC 33/02 Q1010 13CLRD70 NOSIG RMK
     QFE738/0984=
UAUU 081230Z 33008MPS CAVOK 26/M03 Q1012 33CLRD70 NOSIG RMK
     QFE743/0991=
UTDD 081230Z 00000MPS 9999 FEW066 36/06 Q1008 09CLRD70 NOSIG RMK
     QFE689/0918=
####018000242####
SACA33 KWBC 081200 RRB
METAR
TNCA 081200Z 07016KT 9999 SCT017 30/25 Q1012 NOSIG=
TNCB 081200Z AUTO 08010KT //// ////// 29/25 Q1012=
TNCC 081200Z 08014KT 9999 FEW017 29/25 Q1012 NOSIG=
TNCE 081200Z 06012KT 9999 FEW018 29/25 Q1016=
####018000085####
SACA32 KWBC 081200 RRC
METAR
TUPJ 081200Z 12008KT 9999 FEW022 30/24 A3000 RMK=
####018000556####
SACI32 KWBC 081200 RRC
METAR
ZBAA 081230Z 15003MPS CAVOK 31/12 Q1005 NOSIG=
ZBTJ 081230Z 14004MPS 100V170 CAVOK 27/17 Q1006 NOSIG=
ZBYN 081230Z 09005MPS CAVOK 28/14 Q1008 NOSIG=
ZGGG 081230Z 15003MPS 9999 SCT040 32/25 Q1006 NOSIG=
ZSHC 081230Z VRB01MPS 5000 -RA BR SCT026 26/24 Q1004 NOSIG=
ZSPD 081230Z 11007MPS 9999 BKN009 26/24 Q1005 NOSIG=
ZSSS 081230Z 11005MPS 060V130 9999 BKN015 27/23 Q1005 BECMG BKN011
     OVC040=
ZWWW 081230Z 24005MPS 9999 FEW033CB 31/07 Q1011 NOSIG=
ZYTL 081230Z VRB02MPS 6000 SCT033 24/20 Q1007 NOSIG=
####018000223####
SAEE32 KWBC 081230 RRA
METAR
LRAR 081230Z 04008KT 340V080 9999 SCT044 23/14 Q1020=
LRTC 081230Z 36010KT 9999 FEW030CB BKN040 24/17 Q1014=
LRTM 081230Z 28004KT 220V350 9999 FEW018 SCT028 BKN031 19/14
     Q1020=
####018000154####
SAEE31 KWBC 081230 RRA
METAR
EPSC 081230Z 00000KT CAVOK 25/11 Q1021=
UKKK 081230Z 31003MPS 270V350 9999 BKN035 25/17 Q1015 26CLRD70
     NOSIG=
####018000151####
SAEW31 KWBC 081230 RRA
METAR
LPAZ 081230Z 26006KT 9999 BKN016 BKN030 21/19 Q1025=
LPPD 081230Z 24004KT 210V290 9999 FEW017 BKN030 21/16 Q1024=
####018000075####
SAFR41 KWBC 081230 RRA
METAR
LFOE 081230Z VRB03KT CAVOK 32/09 Q1018=
####018000073####
SAIO31 KWBC 081200 RRG
METAR
VYMD 081230Z NIL=
VYYY 081230Z NIL=
####018000521####
SAJP31 KWBC 081230 RRA
METAR
RJAA 081230Z 13005KT 9999 FEW020 BKN/// 23/21 Q1011 NOSIG=
RJAA 081230Z 13005KT 9999 FEW020 BKN/// 23/21 Q1011 NOSIG RMK
     1CU020 A2985=
RJCC 081230Z 16003KT 0900 R19R/P1800N R01R/0800V1100D DZ VV002
     17/17 Q1010=
RJCC 081230Z 16003KT 0900 R19R/P1800N R01R/0800V1100D DZ VV002
     17/17 Q1010 RMK A2985=
RJTT 081230Z 18014KT 9999 FEW008 SCT012 BKN150 25/22 Q1010=
RJTT 081230Z 18014KT 9999 FEW008 SCT012 BKN150 25/22 Q1010 RMK
     1ST008 3CU012 6AC150 A2984=
####018000957####
SARA31 KWBC 081200 RRI
METAR
UAAA 081230Z 23002MPS 190V280 9999 SCT050CB BKN100 27/10 Q1013
     88CLRD65 TEMPO TS=
UACC 081230Z 33008MPS CAVOK 24/01 Q1008 220/0070 NOSIG RMK
     QFE725/0967=
UAFM 081230Z 24009MPS 7000 NSC 32/07 Q1012 TEMPO 24007G12MPS FCST
     WS=
UAFO 081230Z 31003MPS 9999 FEW050CB SCT100 33/13 Q1017 NOSIG RMK
     QFEM684=
UAFO 081230Z NIL=
UAOO 081230Z NIL=
UARR 081230Z NIL=
UATE 081230Z 01006MPS CAVOK 39/08 Q1009 300///70 NOSIG RMK
     QFE755/1007=
UATG 081230Z 33006G11MPS CAVOK 39/08 Q1008 32CLRD70 NOSIG RMK
     QFE758/1011=
UATT 081230Z 09008MPS 9999 NSC 33/02 Q1010 13CLRD70 NOSIG RMK
     QFE738/0984=
UTAA 081230Z 08002MPS 9999 SKC 44/02 Q1007 NOSIG=
UTAK 081230Z NIL=
UTAT 081230Z NIL=
UTAV 081230Z NIL=
UTDD 081230Z 00000MPS 9999 FEW066 36/06 Q1008 09CLRD70 NOSIG RMK
     QFE689/0918=
UTDL 081230Z 25004MPS 9999 FEW053 38/08 Q1008 NOSIG RMK QFE719
     8809//70=
####018000082####
SARS31 KWBC 081200 RRB
METAR
UTAM 081230Z 01005MPS CAVOK 42/05 Q1005 NOSIG=
####018000272####
SAPO31 KWBC 081200 RRC
METAR
LPAZ 081230Z 26006KT 9999 BKN016 BKN030 21/19 Q1025=
LPFL 081230Z 21008KT 180V260 9999 FEW023TCU SCT035 23/17 Q1022=
LPHR 081230Z 22007KT 9999 SCT013 BKN035 23/19 Q1023=
LPPD 081230Z 24004KT 210V290 9999 FEW017 BKN030 21/16 Q1024=
####018000089####
SASP31 KWBC 081230 RRA
METAR
LEVT 081230Z 18006KT 120V230 9999 SCT040 33/15 Q1018=
####018000092####
SAUK42 KWBC 081150 RRF
METAR
EGOV 081150Z AUTO 20015KT 9999NDV FEW090/// 17/13 Q1017=
####018000076####
SPUS41 KWBC 081238
SPECI
KLUK 081235Z 00000KT 2SM BR CLR 24/23 A3009=
####018000620####
SAUR31 KWBC 081150 RRB
METAR
UKCW 081230Z 13003MPS 070V210 9999 BKN040 30/15 Q1014 2709//70
     NOSIG=
UKKK 081230Z 31003MPS 270V350 9999 BKN035 25/17 Q1015 26CLRD70
     NOSIG=
UKKM 081230Z 35004MPS 310V010 9999 BKN038 25/16 Q1015 33CLRD70
     NOSIG=
UKLI 081230Z 33003MPS 260V020 9999 SCT021CB BKN026 18/14 Q1020
     28290565 NOSIG=
UKLN 081230Z 30006MPS 240V330 9999 BKN013 BKN033CB 16/15 Q1020
     3319//65 NOSIG=
UKLR 081230Z 31006MPS 260V350 9999 SCT030 BKN100 22/15 Q1019
     30090070 NOSIG=
UKON 081230Z 33004MPS 300V020 9999 FEW033CB OVC200 28/17 Q1013
     05090075 NOSIG=
####018000706####
SAXX99 KWBC 081200 RRX
METAR
EGUB 081150Z AUTO 19009KT 9999NDV // BKN029/// 22/18 Q1018=
EGUW 081150Z 23009KT 9999 FEW028 BKN120 BKN250 23/14 Q1018 BLU
     NOSIG=
EGVO 081150Z AUTO 25008KT 9999NDV FEW014/// 21/16 Q1019=
EGXC 081150Z 24007KT 9999 FEW040 BKN250 22/07 Q1017 NOSIG=
EGYD 081150Z 25012KT 9999 FEW045 BKN250 22/09 Q1017 NOSIG=
EPLL 081230Z 34005KT 280V030 CAVOK 23/06 Q1022=
LFOJ 081230Z VRB05KT CAVOK 31/13 Q1018=
RJBB 081230Z 23006KT 9999 FEW050 BKN/// 25/23 Q1009 NOSIG=
RJGG 081230Z 13008KT 9999 FEW010 BKN/// 25/23 Q1010 NOSIG=
UDYZ 081230Z 11003MPS 080V140 9999 FEW050 38/12 Q1008 09010070
     NOSIG=
ZYTX 081230Z 12002MPS 9999 FEW030TCU 20/18 Q1007 NOSIG=
####018000075####
SAZA31 KWBC 081200 RRB
METAR
FAWK 081200Z 00000KT CAVOK 16/// Q1035=
####018000090####
SPUS43 KWBC 081238
SPECI
KICT 081235Z 01006KT 9SM SCT008 BKN080 BKN120 23/21 A3010=
####018000084####
SPUS43 KWBC 081238
SPECI
KPIA 081234Z 00000KT 10SM BKN006 OVC012 23/22 A3004=
####018000082####
SPUS52 KWBC 081238
SPECI
KLFK 081235Z AUTO 08008KT 10SM FEW009 26/24 A3002=
####018000092####
SAFR37 LFPW 081230 RRA
METAR LFAQ 081230Z AUTO 15007KT 120V210 9999NDV NSC 30/10 Q1019=
####018000063####
SASU01 HSSS 081230
METAR HSSS 081230Z 11006KT CAVOK Q1007=
####018000343####
SABY31 UMMN 081230
METAR UMBB 081230Z 30005G08MPS 8000 SCT030 24/12 Q1019 NOSIG=
METAR UMGG 081230Z 24002MPS 9999 BKN043CB BKN100 24/21 Q1014
R28/290550 NOSIG=
METAR UMMM 081230Z 28006G09MPS 9999 OVC015CB 20/15 Q1015
R30/CLRD// NOSIG RMK QFE742=
METAR UMMS 081230Z 25004G07MPS 150V290 9999 OVC020 19/15
Q1015 R31/CLRD// NOSIG=
####018001815####
SAEU KAWN 081200 RRX
METAR EGOV 081150Z AUTO 20015KT 9999NDV FEW090/// 17/13 Q1017=
METAR EGUB 081150Z AUTO 19009KT 9999NDV // BKN029/// 22/18 Q1018=
METAR EGUW 081150Z 23009KT 9999 FEW028 BKN120 BKN250 23/14 Q1018 BLU
      NOSIG=
METAR EGVO 081150Z AUTO 25008KT 9999NDV FEW014/// 21/16 Q1019=
METAR LEVT 081230Z 18006KT 120V230 9999 SCT040 33/15 Q1018=
METAR LFBC 081230Z AUTO 11010KT 070V150 9999NDV NSC 37/10 Q1015=
METAR LFBF 081230Z AUTO 13009KT 090V180 9999NDV // NSC 34/16 Q1018=
METAR LFBG 081230Z AUTO 16008KT 130V200 9999NDV NSC 34/11 Q1017=
METAR LFBM 081230Z AUTO 10010KT 080V140 9999NDV NSC 36/18 Q1015=
METAR LFGJ 081230Z AUTO 19006KT 120V240 9999NDV NSC 31/11 Q1020=
METAR LFLN 081230Z AUTO 16005KT 090V210 9999NDV NSC 31/13 Q1019=
METAR LFMD 081230Z AUTO 18006KT 120V210 9999NDV NSC 29/23 Q1020=
METAR LFOA 081230Z AUTO VRB01KT 9999NDV NSC 32/13 Q1019=
METAR LFOC 081230Z AUTO 19006KT 130V250 9999NDV NSC 32/09 Q1018=
METAR LFOE 081230Z VRB03KT CAVOK 32/09 Q1018=
METAR LFOJ 081230Z VRB05KT CAVOK 31/13 Q1018=
METAR LFOT 081230Z AUTO VRB02KT 9999NDV NSC 32/11 Q1018=
METAR LFPC 081230Z 14008KT 070V190 CAVOK 30/11 Q1018=
METAR LFPM 081230Z VRB03KT CAVOK 31/11 Q1018=
METAR LFPV 081230Z AUTO 18006KT 140V240 9999NDV NSC 30/10 Q1019=
METAR LFQI 081230Z 22008KT 180V270 CAVOK 30/12 Q1018=
METAR LFRC 081230Z AUTO 01007KT 340V070 9999NDV SCT019 SCT027 21/16
      Q1020=
METAR LFSD 081230Z AUTO VRB04KT 9999NDV NSC 31/11 Q1020=
METAR LFTW 081230Z AUTO VRB06KT 9999NDV NSC 32/15 Q1020=
METAR LPAZ 081230Z 26006KT 9999 BKN016 BKN030 21/19 Q1025=
METAR LPFL 081230Z 21008KT 180V260 9999 FEW023TCU SCT035 23/17 Q1022=
METAR LPHR 081230Z 22007KT 9999 SCT013 BKN035 23/19 Q1023=
METAR LPPD 081230Z 24004KT 210V290 9999 FEW017 BKN030 21/16 Q1024=
####018000108####
SAGG31 UGTB 081233
METAR UGTB 081233Z 08004KT 9999 SCT050 BKN100 34/17 Q1013 NOSIG RMK
      13CLRD80=
####018000415####
SAAL40 DAMM 081230
METAR DAAG 081230Z 04012KT CAVOK 34/16 Q1018=
METAR DAAT 081230Z NIL=
METAR DABB 081230Z 01013KT CAVOK 28/20 Q1019=
METAR DABC 081230Z 35012KT CAVOK 34/07 Q1022=
METAR DABS 081230Z 04010KT CAVOK 34/06 Q1023=
METAR DAON 081230Z 02008KT 9999 FEW026 37/21 Q1018=
METAR DAOO 081230Z 36015KT CAVOK 29/22 Q1016=
METAR DAUH 081230Z 10010KT CAVOK 39/21 Q1017=
METAR DAUZ 081230Z NIL=
####018000090####
SPUS73 KWBC 081238
SPECI
KICT 081235Z 01006KT 9SM SCT008 BKN080 BKN120 23/21 A3010=
####018000084####
SPUS73 KWBC 081238
SPECI
KPIA 081234Z 00000KT 10SM BKN006 OVC012 23/22 A3004=
####018000084####
SPUS81 KWBC 081238
SPECI
KABH 081235Z AUTO 00000KT 6SM BR FEW001 12/11 A3037=
####018000084####
SPUS81 KWBC 081238
SPECI
KPIA 081234Z 00000KT 10SM BKN006 OVC012 23/22 A3004=
####018000080####
SACN88 CWAO 081231
WNS SA 1231 AUTO8 M M M 199/25/18/MMMM/M/M 8001 12MM=

####018000160####
SAGL KAWN 081200 RRB
METAR BGGH 081150Z 19005KT 140V240 9999 SCT004 OVC008 05/03 Q1009=
METAR BIKF 081230Z 03020KT 9999 FEW018 SCT035 BKN110 12/06 Q0995=
####018001883####
SAUS20 KNKA 081238
METAR K14Y 081239Z AUTO 23005KT 10SM CLR 18/16 A3011 RMK AO2 
     T01810160=
SPECI KBMQ 081237Z AUTO 07003KT 9SM BKN010 OVC022 24/22 A3003 RMK 
    AO2 RAB00E09 CIG 007V016 P0000 $=
SPECI KCNM 081237Z AUTO 32008KT 8SM -RA FEW009 OVC015 19/18 A3015 
    RMK AO2 P0006=
METAR KEFT 081235Z AUTO 31008KT 10SM SCT006 OVC015 22/20 A3006 
     RMK AO2 T02180195=
SPECI KESF 081237Z AUTO 00000KT 9SM SCT011 25/24 A3005 RMK AO2=
METAR KETB 081232Z AUTO 26006KT 10SM OVC009 23/21 A3003 RMK AO2 
     T02250205=
METAR KEZS 081235Z AUTO 32005KT 10SM SCT010 23/21 A3001 RMK AO2 
     T02280206=
METAR KGLW 081233Z AUTO 00000KT 7SM CLR 26/22 A3008 RMK AO2 
     T02560215=
METAR KHFJ 081235Z AUTO 00000KT 10SM SCT022 OVC029 23/22 A3006 
     RMK AO1=
METAR KLNL 081235Z AUTO 34003KT 10SM CLR 18/15 A3007 RMK AO2 
     T01810146=
METAR KMDZ 081235Z AUTO 32007KT 10SM BKN006 19/18 A3006 RMK AO2=
METAR KMRJ 081235Z AUTO 31003KT 3SM BR OVC003 22/20 A3006 RMK AO2 
     T02180202=
SPECI KOCF 081230Z 00000KT 6SM BR SKC 22/22 A3003=
METAR KOEO 081235Z AUTO 00000KT 10SM CLR 18/17 A3011 RMK AO2=
METAR KPBH 081235Z AUTO 00000KT 10SM BKN048 19/17 A3008 RMK AO2=
METAR KPCZ 081235Z AUTO 31005KT 7SM SCT006 BKN011 23/20 A3002 RMK 
     AO2 T02250201=
METAR KPDC 081233Z AUTO 30005KT 7SM OVC010 22/20 A3006 RMK AO2 
     T02170201=
METAR KRCX 081235Z AUTO 32007KT 10SM BKN050 19/17 A3009 RMK AO2 
     T01930171=
METAR KRNH 081236Z AUTO 31004KT 10SM CLR 19/17 A3011 RMK AO2 
     T01850166=
METAR KSYN 081250Z AUTO 30004KT 10SM CLR 19/17 A3011 RMK AO2
     T01920170=
METAR KUNI 081235Z AUTO 00000KT 7SM BKN065 25/19 A3009 RMK AO2 
     T02500186=
METAR KVES 081234Z AUTO 15004KT 7SM CLR 24/21 A3009 RMK AO2 
     T02410208=
METAR KY63 081240Z AUTO 00000KT 10SM CLR 17/16 A3011 RMK AO2 
     T01710160=
####018002956####
SAUS20 KNKA 081238
METAR K29G 081234Z AUTO 00000KT 7SM CLR 25/19 A3010 RMK AO2
     T02510194 PWINO=
METAR K4M9 081235Z AUTO 21007KT 8SM CLR 26/26 A3007 RMK AO2 =
METAR KAEJ 081235Z AUTO 00000KT 10SM SCT014 06/05 A3045 RMK AO2=
METAR KAEL 081231Z AUTO 31003KT 10SM CLR 18/17 A3012 RMK AO2=
METAR KAIT 081233Z AUTO 00000KT 10SM CLR 17/16 A3007 RMK AO2=
SPECI KAUG 081237Z AUTO VRB05KT 5SM BR OVC005 22/20 A3011 RMK AO2=
METAR KBBB 081233Z AUTO 24003KT 10SM CLR 17/16 A3012 RMK AO2=
METAR KBVU 081235Z AUTO 00000KT 10SM CLR 23/M01 A2988 RMK AO2 =
METAR KCVH 081230Z AUTO 00000KT 9SM OVC006 13/11 A2993 RMK AO1=
METAR KDXX 081234Z AUTO 00000KT 10SM CLR 18/17 A3011 RMK AO2=
METAR KEFK 081236Z AUTO 20004KT 7SM CLR 26/21 A3007 RMK AO2=
SPECI KEKQ 081236Z AUTO 00000KT 3SM BR CLR 23/21 A3012 RMK AO2 =
METAR KELO 081233Z AUTO 23004KT 10SM CLR 17/15 A3003 RMK AO2=
METAR KEVM 081232Z AUTO 27003KT 10SM CLR 16/15 A3002 RMK AO1=
METAR KFBL 081234Z AUTO 00000KT 10SM CLR 18/16 A3013 RMK AO2=
METAR KFFM 081233Z AUTO 00000KT 10SM CLR 17/15 A3009 RMK AO2=
METAR KFGN 081234Z AUTO 26008KT 1/2SM -DZ OVC100 17/13 A2998 RMK
     AO2=
METAR KFSO 081238Z AUTO 23003KT 7SM SCT060 27/23 A3002 RMK AO2=
METAR KGDB 081233Z AUTO 24004KT 10SM CLR 17/15 A3015 RMK AO2
     T01670150=
METAR KGHW 081233Z AUTO 26009KT 10SM CLR 18/14 A3014 RMK AO2=
METAR KGYL 081234Z AUTO 27005KT 10SM CLR 18/16 A3012 RMK AO2
     T01750155=
METAR KHCD 081232Z AUTO 27003KT 10SM CLR 16/15 A3013 RMK AO2
     T01550146=
METAR KHCO 081234Z AUTO 29006KT 10SM CLR 17/15 A3007 RMK AO2=
METAR KHYW 081235Z AUTO 00000KT 7SM CLR 27/23 A2994 RMK AO2=
METAR KHZX 081231Z AUTO 25005KT 10SM CLR 17/15 A3008 RMK AO2=
METAR KIKW 081234Z AUTO 00000KT 7SM BKN080 OVC090 23/21 A3002 RMK
     AO2 T02320211=
METAR KJKJ 081234Z AUTO 24003KT 10SM CLR 17/15 A3008 RMK AO2=
SPECI KJLN 081237Z 00000KT 1/2SM VCTS FG BKN004 BKN010 OVC070 22/22 
    A3009 RMK AO2 TSB22RAB15E22 FRQ LTGIC OVHD P0013=
METAR KJMR 081238Z AUTO 29004KT 10SM CLR 18/15 A3010 RMK AO2=
METAR KLJF 081232Z AUTO 27006KT 10SM CLR 19/16 A3013 RMK AO2=
METAR KLVN 081228Z AUTO 29004KT 10SM CLR 18/17 A3011 RMK AO2=
METAR KLXL 081234Z AUTO 00000KT 10SM CLR 16/15 A3008 RMK AO2=
METAR KLYV 081238Z AUTO 00000KT 10SM CLR 16/14 A3018 RMK AO2=
METAR KMCJ 081235Z AUTO 07007KT 2SM SCT001 OVC010 24/23 A2994 RMK 
     AO1 P0019 =
METAR KMDS 081220Z AUTO 27003KT 10SM CLR 18/17 A3018 RMK AO2=
METAR KMGG 081235Z AUTO 26005KT 10SM CLR 19/16 A3012 RMK AO2
     T01860162=
METAR KMJQ 081232Z AUTO 30004KT 10SM CLR 17/15 A3016 RMK AO2=
METAR KMOX 081230Z AUTO 27005KT 10SM CLR 18/16 A3008 RMK AO2=
METAR KMRT 081233Z AUTO 24003KT 7SM CLR 25/20 A3012 RMK AO2
     T02530200=
METAR KMVE 081234Z AUTO 29003KT 10SM CLR 18/16 A3011 RMK AO2=
METAR KMWM 081233Z AUTO 28004KT 10SM CLR 18/16 A3015 RMK AO2=
METAR KONA 081231Z AUTO 33006KT 7SM CLR 21/17 A3007 RMK AO2=
####018001379####
SAUS20 KNKA 081238
METAR KOVL 081234Z AUTO 29004KT 10SM CLR 16/13 A3012 RMK AO2
     T01610132=
METAR KPEX 081233Z AUTO 26005KT 10SM CLR 17/16 A3012 RMK AO2
     T01680158=
METAR KPNM 081233Z AUTO 27005KT 10SM CLR 18/16 A3010 RMK AO2=
METAR KPQN 081233Z AUTO 31003KT 10SM CLR 18/14 A3018 RMK AO2=
METAR KPWC 081233Z AUTO 00000KT 10SM CLR 17/14 A3009 RMK AO2=
SPECI KRAC 081237Z AUTO 25005KT 5SM -RA BR FEW008 BKN022 OVC037 
    23/22 A3004 RMK AO2 RAB1155 P0001=
METAR KRCM 081235Z AUTO 02003KT 7SM OVC006 22/22 A3007 RMK AO2=
METAR KROS 081235Z AUTO 00000KT 10SM CLR 18/15 A3009 RMK AO2
     T01790154=
METAR KROX 081234Z AUTO 26004KT 10SM CLR 16/13 A3002 RMK AO2=
METAR KRRT 081234Z AUTO 23005KT 10SM SCT080 15/13 A3001 RMK
     AO2=
METAR KSAZ 081233Z AUTO 26005KT 10SM CLR 18/18 A3010 RMK AO2=
METAR KSGS 081233Z AUTO 31005KT 10SM CLR 20/16 A3011 RMK AO2
     T02020162=
METAR KSNC 081235Z AUTO 15004KT 10SM OVC005 23/ A3010 RMK AO2 =
METAR KTEW 081232Z AUTO 00000KT 7SM CLR 24/21 A3005 RMK AO2=
METAR KTKC 081233Z AUTO 25004KT 10SM CLR 18/14 A3016 RMK AO2
     T01800140=
METAR KTOB 081235Z AUTO 00000KT 10SM CLR 18/17 A3012 RMK AO2=
METAR KTWM 081233Z AUTO 28004KT 10SM CLR 19/14 A3002 RMK AO2=
METAR KULM 081235Z AUTO 29005KT 10SM CLR 17/15 A3013 RMK AO2=
METAR KVVV 081235Z AUTO 26004KT 10SM CLR 19/14 A3012 RMK AO2=
####018000082####
SPCN48 CWAO 081237
SPECI CYPH 081237Z AUTO 24012KT 7SM OVC003 07/07 A2981=

####018000669####
SPUS99 KWBC 081239
SPECI
KBMQ 081237Z AUTO 07003KT 9SM BKN010 OVC022 24/22 A3003 RMK AO2
     RAB00E09 CIG 007V016 P0000 $=
KCNM 081237Z AUTO 32008KT 8SM -RA FEW009 OVC015 19/18 A3015 RMK
     AO2 P0006=
KESF 081237Z AUTO 00000KT 9SM SCT011 25/24 A3005 RMK AO2=
KOCF 081230Z 00000KT 6SM BR SKC 22/22 A3003=
KAUG 081237Z AUTO VRB05KT 5SM BR OVC005 22/20 A3011 RMK AO2=
KEKQ 081236Z AUTO 00000KT 3SM BR CLR 23/21 A3012 RMK AO2=
KJLN 081237Z 00000KT 1/2SM VCTS FG BKN004 BKN010 OVC070 22/22
     A3009 RMK AO2 TSB22RAB15E22 FRQ LTGIC OVHD P0013=
KRAC 081237Z AUTO 25005KT 5SM -RA BR FEW008 BKN022 OVC037 23/22
     A3004 RMK AO2 RAB1155 P0001=
####018003699####
SAUS99 KWBC 081239
METAR
K14Y 081239Z AUTO 23005KT 10SM CLR 18/16 A3011 RMK AO2
     T01810160=
KEFT 081235Z AUTO 31008KT 10SM SCT006 OVC015 22/20 A3006 RMK AO2
     T02180195=
KETB 081232Z AUTO 26006KT 10SM OVC009 23/21 A3003 RMK AO2
     T02250205=
KEZS 081235Z AUTO 32005KT 10SM SCT010 23/21 A3001 RMK AO2
     T02280206=
KGLW 081233Z AUTO 00000KT 7SM CLR 26/22 A3008 RMK AO2
     T02560215=
KHFJ 081235Z AUTO 00000KT 10SM SCT022 OVC029 23/22 A3006 RMK
     AO1=
KLNL 081235Z AUTO 34003KT 10SM CLR 18/15 A3007 RMK AO2
     T01810146=
KMDZ 081235Z AUTO 32007KT 10SM BKN006 19/18 A3006 RMK AO2=
KMRJ 081235Z AUTO 31003KT 3SM BR OVC003 22/20 A3006 RMK AO2
     T02180202=
KOEO 081235Z AUTO 00000KT 10SM CLR 18/17 A3011 RMK AO2=
KPBH 081235Z AUTO 00000KT 10SM BKN048 19/17 A3008 RMK AO2=
KPCZ 081235Z AUTO 31005KT 7SM SCT006 BKN011 23/20 A3002 RMK AO2
     T02250201=
KPDC 081233Z AUTO 30005KT 7SM OVC010 22/20 A3006 RMK AO2
     T02170201=
KRCX 081235Z AUTO 32007KT 10SM BKN050 19/17 A3009 RMK AO2
     T01930171=
KRNH 081236Z AUTO 31004KT 10SM CLR 19/17 A3011 RMK AO2
     T01850166=
KSYN 081250Z AUTO 30004KT 10SM CLR 19/17 A3011 RMK AO2
     T01920170=
KUNI 081235Z AUTO 00000KT 7SM BKN065 25/19 A3009 RMK AO2
     T02500186=
KVES 081234Z AUTO 15004KT 7SM CLR 24/21 A3009 RMK AO2
     T02410208=
KY63 081240Z AUTO 00000KT 10SM CLR 17/16 A3011 RMK AO2
     T01710160=
K29G 081234Z AUTO 00000KT 7SM CLR 25/19 A3010 RMK AO2 T02510194
     PWINO=
K4M9 081235Z AUTO 21007KT 8SM CLR 26/26 A3007 RMK AO2=
KAEJ 081235Z AUTO 00000KT 10SM SCT014 06/05 A3045 RMK AO2=
KAEL 081231Z AUTO 31003KT 10SM CLR 18/17 A3012 RMK AO2=
KAIT 081233Z AUTO 00000KT 10SM CLR 17/16 A3007 RMK AO2=
KBBB 081233Z AUTO 24003KT 10SM CLR 17/16 A3012 RMK AO2=
KBVU 081235Z AUTO 00000KT 10SM CLR 23/M01 A2988 RMK AO2=
KCVH 081230Z AUTO 00000KT 9SM OVC006 13/11 A2993 RMK AO1=
KDXX 081234Z AUTO 00000KT 10SM CLR 18/17 A3011 RMK AO2=
KEFK 081236Z AUTO 20004KT 7SM CLR 26/21 A3007 RMK AO2=
KELO 081233Z AUTO 23004KT 10SM CLR 17/15 A3003 RMK AO2=
KEVM 081232Z AUTO 27003KT 10SM CLR 16/15 A3002 RMK AO1=
KFBL 081234Z AUTO 00000KT 10SM CLR 18/16 A3013 RMK AO2=
KFFM 081233Z AUTO 00000KT 10SM CLR 17/15 A3009 RMK AO2=
KFGN 081234Z AUTO 26008KT 1/2SM -DZ OVC100 17/13 A2998 RMK AO2=
KFSO 081238Z AUTO 23003KT 7SM SCT060 27/23 A3002 RMK AO2=
KGDB 081233Z AUTO 24004KT 10SM CLR 17/15 A3015 RMK AO2
     T01670150=
KGHW 081233Z AUTO 26009KT 10SM CLR 18/14 A3014 RMK AO2=
KGYL 081234Z AUTO 27005KT 10SM CLR 18/16 A3012 RMK AO2
     T01750155=
KHCD 081232Z AUTO 27003KT 10SM CLR 16/15 A3013 RMK AO2
     T01550146=
KHCO 081234Z AUTO 29006KT 10SM CLR 17/15 A3007 RMK AO2=
KHYW 081235Z AUTO 00000KT 7SM CLR 27/23 A2994 RMK AO2=
KHZX 081231Z AUTO 25005KT 10SM CLR 17/15 A3008 RMK AO2=
KIKW 081234Z AUTO 00000KT 7SM BKN080 OVC090 23/21 A3002 RMK AO2
     T02320211=
KJKJ 081234Z AUTO 24003KT 10SM CLR 17/15 A3008 RMK AO2=
KJMR 081238Z AUTO 29004KT 10SM CLR 18/15 A3010 RMK AO2=
KLJF 081232Z AUTO 27006KT 10SM CLR 19/16 A3013 RMK AO2=
KLVN 081228Z AUTO 29004KT 10SM CLR 18/17 A3011 RMK AO2=
KLXL 081234Z AUTO 00000KT 10SM CLR 16/15 A3008 RMK AO2=
KLYV 081238Z AUTO 00000KT 10SM CLR 16/14 A3018 RMK AO2=
KMCJ 081235Z AUTO 07007KT 2SM SCT001 OVC010 24/23 A2994 RMK AO1
     P0019=
KMDS 081220Z AUTO 27003KT 10SM CLR 18/17 A3018 RMK AO2=
KMGG 081235Z AUTO 26005KT 10SM CLR 19/16 A3012 RMK AO2
     T01860162=
KMJQ 081232Z AUTO 30004KT 10SM CLR 17/15 A3016 RMK AO2=
KMOX 081230Z AUTO 27005KT 10SM CLR 18/16 A3008 RMK AO2=
KMRT 081233Z AUTO 24003KT 7SM CLR 25/20 A3012 RMK AO2
     T02530200=
####018001340####
SAUS99 KWBC 081239 RRA
METAR
KMVE 081234Z AUTO 29003KT 10SM CLR 18/16 A3011 RMK AO2=
KMWM 081233Z AUTO 28004KT 10SM CLR 18/16 A3015 RMK AO2=
KONA 081231Z AUTO 33006KT 7SM CLR 21/17 A3007 RMK AO2=
KOVL 081234Z AUTO 29004KT 10SM CLR 16/13 A3012 RMK AO2
     T01610132=
KPEX 081233Z AUTO 26005KT 10SM CLR 17/16 A3012 RMK AO2
     T01680158=
KPNM 081233Z AUTO 27005KT 10SM CLR 18/16 A3010 RMK AO2=
KPQN 081233Z AUTO 31003KT 10SM CLR 18/14 A3018 RMK AO2=
KPWC 081233Z AUTO 00000KT 10SM CLR 17/14 A3009 RMK AO2=
KRCM 081235Z AUTO 02003KT 7SM OVC006 22/22 A3007 RMK AO2=
KROS 081235Z AUTO 00000KT 10SM CLR 18/15 A3009 RMK AO2
     T01790154=
KROX 081234Z AUTO 26004KT 10SM CLR 16/13 A3002 RMK AO2=
KRRT 081234Z AUTO 23005KT 10SM SCT080 15/13 A3001 RMK AO2=
KSAZ 081233Z AUTO 26005KT 10SM CLR 18/18 A3010 RMK AO2=
KSGS 081233Z AUTO 31005KT 10SM CLR 20/16 A3011 RMK AO2
     T02020162=
KSNC 081235Z AUTO 15004KT 10SM OVC005 23/ A3010 RMK AO2=
KTEW 081232Z AUTO 00000KT 7SM CLR 24/21 A3005 RMK AO2=
KTKC 081233Z AUTO 25004KT 10SM CLR 18/14 A3016 RMK AO2
     T01800140=
KTOB 081235Z AUTO 00000KT 10SM CLR 18/17 A3012 RMK AO2=
KTWM 081233Z AUTO 28004KT 10SM CLR 19/14 A3002 RMK AO2=
KULM 081235Z AUTO 29005KT 10SM CLR 17/15 A3013 RMK AO2=
KVVV 081235Z AUTO 26004KT 10SM CLR 19/14 A3012 RMK AO2=
####018000406####
SAAL40 DAMM 081230
METAR DAAG 081230Z 04012KT CAVOK 34/16 Q1018=
METAR DAAT 081230Z NIL=
METAR DABB 081230Z 01013KT CAVOK 28/20 Q1019=
METAR DABC 081230Z 35012KT CAVOK 34/07 Q1022=
METAR DABS 081230Z 04010KT CAVOK 34/06 Q1023=
METAR DAON 081230Z 02008KT 9999 FEW026 37/21 Q1018=
METAR DAOO 081230Z 36015KT CAVOK 29/22 Q1016=
METAR DAUH 081230Z 10010KT CAVOK 39/21 Q1017=
METAR DAUZ 081230Z NIL=
####018000089####
SAUK51 EGGY 081150 RRH
METAR EGOV 081150Z AUTO 20015KT 9999NDV FEW090/// 17/13 Q1017=
####018000138####
SAAK31 KWBC 081200 RRB
METAR
PAVD 081236Z 00000KT 10SM FEW060 OVC080 11/08 A3008=
PAWG 081236Z AUTO 27003KT 10SM CLR 12/09 A3013=
####018000156####
SAAK32 KWBC 081200 RRB
METAR
PADK 081236Z 04016KT 7SM SCT009 BKN020 OVC025 07/06 A2950=
PADL 081236Z 30004KT 10SM SCT040 BKN080 OVC110 10/08 A2997=
####018000091####
SPUS31 KWBC 081239
SPECI
KJFK 081236Z 15007KT 10SM SCT009 BKN030 OVC130 26/22 A3006=
####018000093####
SPUS31 KWBC 081239
SPECI
KPHL 081236Z 00000KT 3SM BR SCT006 BKN130 BKN250 26/23 A3004=
####018000086####
SPUS42 KWBC 081239
SPECI
KAMA 081236Z 36006KT 4SM BR BKN005 OVC010 18/17 A3022=
####018000083####
SAUS41 KWBC 081200 RRF
METAR
KPQI 081235Z AUTO 13007KT 10SM CLR 24/20 A3001=
####018000135####
SAUS43 KWBC 081200 RRJ
METAR
KCIU 081235Z AUTO 31004KT 5SM OVC003 20/19 A2998=
KELO 081233Z AUTO 23004KT 10SM CLR 17/15 A3003=
####018000083####
SAUS44 KWBC 081200 RRF
METAR
KGDV 081235Z AUTO 00000KT 10SM CLR 13/08 A3018=
####018000099####
SPUS52 KWBC 081239
SPECI
KHBR 081235Z AUTO 11004KT 2 1/2SM +RA BR FEW004 OVC008 23/22 A3010=
####018000205####
SARA35 RUMS 081230
METAR ULDD 081230Z NIL=
METAR UOHH 081230Z NIL=
METAR UOII 081230Z NIL=
METAR UOOO 081230Z NIL=
METAR USCM 081230Z VRB02MPS 9999 SKC 27/01 Q1014 NOSIG 01090065 RMK
QFE722=
####018000398####
SARA33 RUMS 081230
METAR UIAA 081230Z 31004MPS 9999 VCTS BKN033CB OVC100 19/15 Q1009
NOSIG RMK     QFE698 29CLRD70=
METAR UIBB 081230Z 04002MPS 9999 BKN200 24/14 Q1006 NOSIG RMK
QFE711/0949 30CLRD60=
METAR UIII 081230Z 18003MPS CAVOK 18/11 Q1006 NOSIG RMK QFE713/0950
12CLRD60=
METAR UIUU 081230Z 26002MPS 9999 SCT033CB OVC100 21/14 Q1007 NOSIG
RMK QFE711/0949 26CLRD60=
####018000410####
SARA31 RUMS 081230
METAR UEEE 081230Z 25005MPS 9999 -SHRA BKN040CB OVC100 18/13 Q1009
NOSIG RMK QFE748 23290150=
METAR COR UELL 081230Z VRB01MPS 9999 SCT006 BKN030CB OVC200 12/12
Q1012 NOSIG RMK MT PT OBSC QFE685 08290050=
METAR UERP 081230Z NIL=
METAR UERR 081230Z 34002MPS 9999 FEW020CB SCT100 OVC200 15/14 Q1012
NOSIG RMK QFE728 24CLRD60=
METAR UESO 081230Z NIL=
METAR UEST 081230Z NIL=
####018000800####
SARA34 RUMS 081230
METAR UNAA 081230Z 05003MPS 9999 SCT030CB BKN100 19/11 Q1011 NOSIG
RMK QFE736 202///55=
METAR UNBB 081230Z NIL=
METAR UNEE 081230Z 00000MPS 9999 SCT026CB BKN066 19/08 Q1009 NOSIG
RMK QFE734 23CLRD60=
METAR UNKL 081230Z VRB02MPS 9999 BKN020CB OVC083 17/14 Q1010 TEMPO
2000 TSRA RMK QFE732 29////60=
METAR UNNT 081230Z 22003MPS 9999 BKN060CB BKN100 19/03 Q1007 NOSIG
RMK QFE745/0994 25090070=
METAR UNOO 081230Z 33003MPS 9999 BKN026CB 14/10 Q1008 NOSIG 25CLRD06
RMK QFE748=
METAR UNWW 081230Z 00000MPS 9999 BKN026CB OVC100 15/10 Q1010 NOSIG
RMK QFE731 1929//60=
METAR USTR 081230Z 04002MPS 9999 SCT046 18/06 Q1012 NOSIG RMK
QFE750/1000 30CLRD65=
METAR USHH 081230Z 34002G06MPS 300V010 9999 -SHRA SCT015CB OVC080
10/09 Q1009 NOSIG RMK QFE753 SC06=
####018000904####
SARS32 RUMS 081230
METAR URKA 081230Z 05005MPS 9999 SCT026 29/20 Q1012 NOSIG RMK  065=
METAR URKK 081230Z 05005G08MPS 9999 BKN043 30/20 Q1011 NOSIG RMK
QFE755 SC070=
METAR URKM 081230Z NIL=
METAR URML 081230Z 08005MPS 9999 FEW100 32/20 Q1012 NOSIG RMK QFE759
/ 07=
METAR URMM 081230Z 13005G09MPS 9999 BKN046 30/18 Q1012 NOSIG RMK /
SC070=
METAR URMN 081230Z 10003MPS 9999 BKN038CB BKN110 28/18 Q1013 NOSIG
RMK / QFE723 SC07=
METAR URMT 081230Z 04005G08MPS 9999 SCT020 BKN100 28/17 Q1014 NOSIG
RMK QFE720 SC07=
METAR URRR 081230Z VRB01MPS 9999 FEW036 31/14 Q1013 NOSIG RMK SC070=
METAR URSS 081230Z 29004G07MPS 9999 FEW040 28/22 Q1009 NOSIG RMK /
QFE755 06CLRD70=
METAR URWA 081230Z 00000MPS CAVOK 38/12 Q1011 NOSIG RMK SC07=
METAR URWI 081230Z 32002MPS CAVOK 31/16 Q1013 NOSIG RMK SC065=
METAR URWW 081230Z 32003G07MPS CAVOK 31/13 Q1014 NOSIG RMK SC070=
####018000404####
SARA32 RUMS 081230
METAR UHHH 081230Z 04003MPS 9999 SCT033CB OVC100 17/15 Q1011 NOSIG
RMK QFE752/1002 55090060=
METAR UHMA 081230Z NIL=
METAR UHMM 081230Z NIL=
METAR UHMP 081230Z NIL=
METAR UHNN 081230Z NIL=
METAR UHPP 081230Z NIL=
METAR UHSH 081230Z NIL=
METAR UHSS 081230Z NIL=
METAR UHWW 081230Z 00000MPS 9999 SCT013 BKN023CB OVC100 16/14 Q1011
NOSIG RMK QFE757/1010 75CLRD70=
####018000442####
SARS33 RUMS 081230
METAR ULLI 081230Z 13006MPS 9999 BKN040CB BKN066 BKN200 27/14 Q1013
NOSIG=
METAR UUDD 081230Z 15004MPS 110V190 9999 FEW050TCU BKN200 28/15 Q1015
TEMPO VRB12MPS TSRA=
METAR UUEE 081230Z 13005MPS 9999 SCT050CB BKN200 28/13 Q1015 NOSIG=
METAR UUEM 081230Z NIL=
METAR UUWW 081230Z 18004MPS 140V200 CAVOK 27/15 Q1015 24000070 NOSIG=
METAR UUMO 081230Z VRB02MPS CAVOK 28/16 Q1015 NOSIG RMK QFE746/0995
SC060=
####018000741####
SARA36 RUMS 081230
METAR UWUU 081230Z 36004G07MPS 310V010 CAVOK 28/09 Q1014 82010060
NOSIG RMK QFE750/1000=
METAR USCC 081230Z 34006G12MPS 310V010 9999 FEW040 FEW200 25/02 Q1013
NOSIG RMK QFE740 27000070=
METAR USDD 081230Z 04009MPS CAVOK 17/M00 Q1015 NOSIG RMK QFE755/1007
SC060=
METAR USMU 081230Z 01004MPS 9999 -SHRA SCT030CB OVC066 14/13 Q1006
NOSIG RMK QFE749 09250345=
METAR USNN 081230Z 16003MPS P6000 FEW026 SCT200 18/10 Q1003 NOSIG RMK
QFE747 SC065=
METAR USRK 081230Z 34004MPS 6000 BKN022 OVC066 14/11 Q1004 NOSIG RMK
QFE747 351///55=
METAR USRR 081230Z 36003MPS 7000 OVC012 13/11 Q1005 TEMPO BKN007 RMK
QFE748 25////60=
METAR USSS 081230Z 01006G10MPS CAVOK 25/01 Q1014 NOSIG RMK QFE740
260///70=
####018000717####
SARS31 RUMS 081230
METAR ULAA 081230Z 30004MPS 260V320 9999 FEW033 28/17 Q1015 TEMPO
TSRA RMK QFE760/1013 SC070=
METAR ULKK 081230Z NIL=
METAR ULMM 081230Z 34002MPS 300V020 9999 BKN026 16/08 Q1018 NOSIG RMK
QFE756 32190060=
METAR ULOL 081230Z NIL=
METAR ULOO 081230Z VRB02MPS P6000 TS SCT036CB BKN046 BKN200 29/18
Q1011 NOSIG RMK QFE755=
METAR ULWW 081230Z NIL=
METAR UMKK 081230Z 31007MPS P8000 FEW033 SCT200 22/15 Q1020 NOSIG RMK
QFE 764 SC07=
METAR UUBP 081230Z NIL=
METAR UUOB 081230Z NIL=
METAR UUOK 081230Z NIL=
METAR UUOO 081230Z 00000MPS 9999 BKN033CB 28/14 Q1014 NOSIG RMK
13090070=
METAR UWGG 081230Z 11002MPS 020V170 8000 FEW033 34/08 Q1015 NOSIG RMK
QFE754 18090070=
####018000834####
SARS35 RUMS 081230
METAR USPP 081230Z 01004MPS CAVOK 29/10 Q1015 NOSIG RMK QFE750/1001
21090060=
METAR UWKD 081230Z 30002MPS 9999 SCT050CB BKN070 31/13 Q1015 TEMPO
VRB15MPS 3000 TSRA RMK QFE750/1000 79CLRD70=
METAR UWKE 081230Z 02002MPS 9999 FEW040 31/09 Q1015 NOSIG RMK
QFE745/0993 22090070=
METAR UWKS 081230Z 03005MPS 9999 VCTS BKN033CB 28/16 Q1016 NOSIG RMK
QFE748 SC0.60=
METAR UWLL 081230Z 08003MPS 9999 SCT050CB 32/09 Q1015 NOSIG RMK
QFE749/0998 SC065=
METAR UWLW 081230Z NIL=
METAR UWOR 081230Z NIL=
METAR UWOO 081230Z NIL=
METAR UWPP 081230Z 14004MPS 9999 SCT033 BKN100 33/09 Q1013 NOSIG RMK
QFE745 11090060=
METAR UWSS 081230Z 07005MPS CAVOK 31/11 Q1014 NOSIG RMK QFE749
120///60=
METAR UWWW 081230Z 06005G08MPS 9999 FEW033 BKN200 32/07 Q1014 NOSIG
RMK QFE748/0997 05CLRD60 15//99//=
####018000279####
SARS34 RUMS 081230
METAR UUYH 081230Z 17002MPS CAVOK 27/11 Q1016 NOSIG RMK QFE 750
18CLRD60=
METAR UUYS 081230Z 17003MPS CAVOK 21/05 Q1015 NOSIG RMK QFE754
14CLRD60=
METAR UUYY 081230Z 22003MPS 180V250 9999 FEW033 OVC200 30/14 Q1015
NOSIG 19CLRD61 RMK QFE753/1004=
####018000237####
SAUS53 KWBC 081200 RRK
METAR
KDVL 081235Z AUTO 31006KT 10SM SCT085 17/13 A3010=
KEAR 081235Z AUTO 34004KT 10SM CLR 16/14 A3025=
KGPZ 081235Z AUTO 27006KT 10SM CLR 18/14 A3007=
KJAC 081235Z AUTO 01004KT 10SM CLR 06/M01 A3037=
####018000086####
SPUS72 KWBC 081239
SPECI
KAMA 081236Z 36006KT 4SM BR BKN005 OVC010 18/17 A3022=
####018000529####
SAAO32 GOOY 081230
METAR GABS 081230Z 23004KT 170V290 9999 FEW030 32/21 Q1015 NOSIG=
METAR GGOV 081230Z NIL=
METAR GOOY 081230Z 14010KT 110V180 9999 SCT013 31/24 Q1013 NOSIG=
METAR DIAP 081230Z 22005KT 180V290 7000 R21//////N SCT012 BKN070
29/25 Q1014 NOSIG=
METAR GQNN 081230Z 19012KT 160V220 6000 NSC 31/22 Q1013 NOSIG=
METAR GQPP 081230Z NIL=
METAR GUCY 081230Z NIL=
METAR GVAC 081230Z NIL=
METAR GFLL 081230Z NIL=
METAR GBYD 081230Z NIL=
METAR GLRB 081230Z 00000KT 9999 BKN018 30/24 Q1014 NOSIG=

####018000278####
SAUS73 KWBC 081200 RRG
METAR
KCIU 081235Z AUTO 31004KT 5SM OVC003 20/19 A2998=
KEGE 081235Z 07003KT 10SM CLR 09/08 A3039=
KELO 081233Z AUTO 23004KT 10SM CLR 17/15 A3003=
KJAC 081235Z AUTO 01004KT 10SM CLR 06/M01 A3037=
KLBL 081235Z 01008KT 5SM OVC005 19/17 A3023=
####018000081####
SAUS74 KWBC 081200 RRD
METAR
KOTH 081235Z 26003KT 10SM OVC006 09/08 A3000=
####018000200####
SAUS75 KWBC 081200 RRB
METAR
PADL 081236Z 30004KT 10SM SCT040 BKN080 OVC110 10/08 A2997=
PAUN 081236Z AUTO 06012KT 10SM CLR 13/04 A3000=
PAVD 081236Z 00000KT 10SM FEW060 OVC080 11/08 A3008=
####018000090####
SPUS81 KWBC 081239
SPECI
PASN 081235Z 06011KT 1 3/4SM BR BKN002 OVC044 05/05 A2993=
####018001243####
SAUK KAWN 081200 RRI
METAR EGOV 081150Z AUTO 20015KT 9999NDV FEW090/// 17/13 Q1017=
METAR COR EGQK 081150Z 22016G26KT 9999 FEW027 BKN050 18/08 Q1009 BLU
      NOSIG=
METAR EGQK 081150Z 22016G26KT 9999 FEW027 BKN050 18/08 Q1009 BLU NOSIG=
METAR EGQS 081150Z 22016KT 9999 FEW030 BKN050 16/10 Q1009 BLU NOSIG=
METAR EGUB 081150Z AUTO 19009KT 9999NDV // BKN029/// 22/18 Q1018=
METAR EGUW 081150Z 23009KT 9999 FEW028 BKN120 BKN250 23/14 Q1018 BLU
      NOSIG=
METAR EGVO 081150Z AUTO 25008KT 9999NDV FEW014/// 21/16 Q1019=
METAR COR EGXC 081150Z 24007KT 9999 FEW040 BKN250 22/07 Q1017 BLU NOSIG=
METAR EGXC 081150Z 24007KT 9999 FEW040 BKN250 22/07 Q1017 BLU NOSIG=
METAR EGXD 081150Z 24015KT 9999 FEW042 21/09 Q1016 BLU NOSIG=
METAR EGXG 081150Z 26011KT 9999 SCT042 BKN200 20/08 Q1016 BLU=
METAR EGYD 081150Z 25012KT 9999 FEW045 BKN250 22/09 Q1017 BLU NOSIG=
METAR EICK 081230Z 19010KT 9999 -RA SCT008 BKN025 BKN060 14/13 Q1016
      NOSIG=
METAR EIDW 081230Z 23012G22KT 190V280 9999 FEW026 BKN050 BKN100 18/10
      Q1015 NOSIG=
METAR EIKN 081230Z 20012KT 170V240 9999 FEW018CB BKN060 BKN100 14/10
      Q1013 NOSIG=
METAR EINN 081230Z 20009KT 9999 -RADZ FEW015 SCT020 BKN038 15/13 Q1015
      NOSIG=
####018001180####
SARS18 KAWN 081200 RRI
METAR BIKF 081230Z 03020KT 9999 FEW018 SCT035 BKN110 12/06 Q0995=
METAR UAAA 081230Z 23002MPS 190V280 9999 SCT050CB BKN100 27/10 Q1013
      88CLRD65 TEMPO TS=
METAR UACC 081230Z 33008MPS CAVOK 24/01 Q1008 220/0070 NOSIG RMK QFE725/0967=
METAR UAFM 081230Z 24009MPS 7000 NSC 32/07 Q1012 TEMPO 24007G12MPS
      FCST WS=
METAR UATE 081230Z 01006MPS CAVOK 39/08 Q1009 300///70 NOSIG RMK QFE755/1007=
METAR UATT 081230Z 09008MPS 9999 NSC 33/02 Q1010 13CLRD70 NOSIG RMK
      QFE738/0984=
METAR UKKK 081230Z 31003MPS 270V350 9999 BKN035 25/17 Q1015 26CLRD70
      NOSIG=
METAR UMGG 081230Z 24002MPS 9999 BKN043CB BKN100 24/21 Q1014 R28/290550
      NOSIG=
METAR UMMM 081230Z 28006G09MPS 9999 OVC015CB 20/15 Q1015 R30/D NOSIG
      RMK QFE742=
METAR UMMS 081230Z 25004G07MPS 150V290 9999 OVC020 19/15 Q1015 R31/D
      NOSIG=
METAR UTAA 081230Z 08002MPS 9999 SKC 44/02 Q1007 NOSIG=
METAR UTDD 081230Z 00000MPS 9999 FEW066 36/06 Q1008 09CLRD70 NOSIG
      RMK QFE689/0918=
METAR UTSS 081230Z 07005MPS 040V100 9999 NSC 35/12 Q1009 R88/70D NOSIG=
METAR VTBD 081230Z 18006KT 9999 FEW020 SCT120 BKN300 30/24 Q1006 NOSIG=
####018000132####
SAXX60 KAWN 081200 RRC
METAR RJTT 081230Z 18014KT 9999 FEW008 SCT012 BKN150 25/22 Q1010 RMK
      1ST008 3CU012 6AC150 A2984=
####018000354####
SPNA35 KAWN 081239 RRD
SPECI KJFK 081236Z 15007KT 10SM SCT009 BKN030 OVC130 26/22 A3006 RMK
      AO2 RAB1159E10 P0000 $=
SPECI KNGP 081231Z 00000KT 10SM SCT012 SCT022CB BKN045 27/25 A2982
      RMK AO2 RAE31 CB DSNT SE TCU DSNT S-SW WR// VCSH W-NW P0002 $=
SPECI KPHL 081236Z 00000KT 3SM BR SCT006 BKN130 BKN250 26/23 A3004
      RMK AO2=
####018000356####
SPNA14 KAWN 081239 RRF
SPECI KNGP 081231Z 00000KT 10SM SCT012 SCT022CB BKN045 27/25 A2982
      RMK AO2 RAE31 CB DSNT SE TCU DSNT S-SW WR// VCSH W-NW P0002 $=
SPECI KSKF 081234Z 03006KT 7SM -RA BKN016 BKN045 25/24 A2993 RMK AO2A
      $=
SPECI KTIK 081234Z AUTO 33004KT 10SM FEW006 SCT014 BKN030 23/23 A3006
      RMK AO2 FEW V SCT SLP167 $=
####018000093####
SAUK39 EGRR 081050 RRT
METAR EGWU 081050Z AUTO 25003KT 9999NDV // BKN019/// 21/15 Q1018=
####018000090####
SAUK39 EGRR 081050 RRU
METAR EGVN 081050Z AUTO 24006KT 9999NDV FEW027/// 21/10 Q1018=
####018000103####
SAUK39 EGRR 081050 RRS
METAR EGDM 081050Z AUTO 21004KT 9999NDV FEW017/// BKN030/// 19/15
 Q1019=
####018000526####
SAAO32 GOOY 081230
METAR GABS 081230Z 23004KT 170V290 9999 FEW030 32/21 Q1015 NOSIG=
METAR GGOV 081230Z NIL=
METAR GOOY 081230Z 14010KT 110V180 9999 SCT013 31/24 Q1013 NOSIG=
METAR DIAP 081230Z 22005KT 180V290 7000 R21//////N SCT012 BKN070
29/25 Q1014 NOSIG=
METAR GQNN 081230Z 19012KT 160V220 6000 NSC 31/22 Q1013 NOSIG=
METAR GQPP 081230Z NIL=
METAR GUCY 081230Z NIL=
METAR GVAC 081230Z NIL=
METAR GFLL 081230Z NIL=
METAR GBYD 081230Z NIL=
METAR GLRB 081230Z 00000KT 9999 BKN018 30/24 Q1014 NOSIG=
