####018000311####
SPUS90 KWBC 081020
SPECI KANJ 081016Z AUTO 00000KT 5SM BR SCT004 BKN008 OVC024 20/19
     A2995 RMK AO2 CIG 005V010=
SPECI KCOU 081017Z AUTO 01003KT 6SM BR BKN013 BKN100 23/22 A3005
     RMK AO2 TSNO=
SPECI KVCT 081018Z AUTO 06004KT 6SM -RA BR SCT028 BKN044 OVC080
     25/24 A2988 RMK AO2 P0005=
####018000488####
SPUS99 KWBC 081020
SPECI
KTRL 081018Z AUTO 13004KT 10SM SCT026 BKN031 BKN095 27/22 A3001
     RMK AO2=
KFTW 081019Z 14004KT 10SM SCT013 25/23 A2999 RMK AO2=
KHBR 081019Z AUTO 04006KT 6SM BR FEW004 BKN032 OVC055 23/22 A3007
     RMK AO2 LTG DSNT S=
KHWV 081018Z AUTO 00000KT 4SM BR SCT002 BKN070 24/23 A3005 RMK
     AO2=
KIMT 081018Z AUTO 00000KT 3SM BR OVC002 20/19 A2999 RMK AO2=
KLAR 081018Z AUTO 29003KT 3/4SM BR SCT002 BKN007 BKN019 06/06
     A3039 RMK AO2=
####018000112####
SAUS46 KSGX 081019
MTRNRS
SPECI KNRS 081018Z AUTO 29008KT 7SM SCT009 OVC014 16/14 A2990 RMK 
AO2 TSNO $
####018000122####
SAUS44 KEWX 081019
MTRATT
SPECI KATT 081018Z AUTO VRB03KT 10SM BKN009 OVC019 25/24 A2996 RMK 
AO2 RAE0956 P0000 $
####018000959####
SPXX60 KWBC 081020
SPECI
KNHK 081017Z 09004KT 3SM BR SCT010 26/23 A2999 RMK AO2=
KAFF 081015Z AUTO 17006KT 10SM SCT014 BKN027 12/11 A3040 RMK AO2
     SLP210=
KHST 081014Z AUTO 01003KT 10SM FEW013 SCT080 25/24 A2993 RMK AO2
     RAE1012DZB1012E1014 SLP136 $=
KNRB 081012Z 30003KT 10SM CLR 24/21 A2999 RMK AO2=
KRND 081016Z AUTO 05005KT 10SM SCT009 BKN014 25/23 A2993 RMK AO2
     CIG 009 RWY32R SLP126=
KSKF 081017Z 06006KT 10SM BKN012 BKN017 BKN027 25/ A2992 RMK AO2A
     SLP122 $=
KVOK 081017Z 28003KT 2 1/2SM R27/5000VP6000FT BR FEW200 17/17
     A3001 RMK AO2A SLP159=
KWRI 081016Z AUTO 14004KT M1/4SM R18/0300V1200FT R24/1200V1800FT
     FG VV001 23/23 A3001 RMK AO2 SLP163 $=
PALU SP 1015 AWOS CLR BLO 120 10 55/35/2013/010=
PASV SP 1015 AWOS M60 BKN 70 BKN 90 BKN 10 50/46/0000/997=
PATL SP 1015 AWOS CLR BLO 120 10 59/44/0206/000=
KNRS 081018Z AUTO 29008KT 7SM SCT009 OVC014 16/14 A2990 RMK AO2
     TSNO $=
####018000928####
SPUS70 KWBC 081020
SPECI
KTXK 081016Z AUTO 00000KT 2 1/2SM BR OVC001 23/23 A3005 RMK
     AO2=
KBED 081016Z AUTO 16005KT 4SM HZ SCT017 BKN042 OVC075 24/22 A3006
     RMK AO2=
KDWH 081017Z 06007KT 7SM SCT005 24/24 A2994 RMK AO2=
KHAO 081017Z AUTO 00000KT 1 1/2SM BR FEW001 21/19 A3009 RMK AO2
     VIS 3/4V2 1/2=
KPHF 081017Z 08005KT 2SM BR BKN080 25/24 A2998 RMK AO2=
KPKB 081017Z AUTO 00000KT 1SM BR OVC001 19/19 A3011 RMK AO2 TSNO
     RVRNO=
KTRL 081018Z AUTO 13004KT 10SM SCT026 BKN031 BKN095 27/22 A3001
     RMK AO2=
KFTW 081019Z 14004KT 10SM SCT013 25/23 A2999 RMK AO2=
KHBR 081019Z AUTO 04006KT 6SM BR FEW004 BKN032 OVC055 23/22 A3007
     RMK AO2 LTG DSNT S=
KHWV 081018Z AUTO 00000KT 4SM BR SCT002 BKN070 24/23 A3005 RMK
     AO2=
KIMT 081018Z AUTO 00000KT 3SM BR OVC002 20/19 A2999 RMK AO2=
KLAR 081018Z AUTO 29003KT 3/4SM BR SCT002 BKN007 BKN019 06/06
     A3039 RMK AO2=
####018000119####
SAIY41 LIIB 081000 RRB
METAR LIMT 080955Z /////KT 9999 BKN012TCU 15/12 Q1024 RMK BKN MON LIB
VAL NIL VIS MIN 9999=
####018000093####
SPNK31 MNMG 081015
SPECI
SPECI MNMG 081015Z 00000KT 9999 FEW020CB BKN020 CB/N/NW/W/NE/S=
####018003713####
SAUS70 KWBC 081020
METAR
K1P1 081015Z AUTO 00000KT 2SM BR OVC001 22/21 A3007 RMK AO2
     T02180207=
KBVU 081015Z AUTO 07004KT 10SM CLR 25/03 A2986 RMK AO2=
KE80 081015Z AUTO 25004KT 10SM CLR 18/11 A3023 RMK AO2
     T01810113=
KEDC 081015Z AUTO 08004KT OVC010 25/24 A2996 RMK AO2=
KEIK 081015Z AUTO 00000KT 5SM BR SCT008 SCT013 SCT040 11/11 A3032
     RMK AO2=
KEOE 081015Z AUTO 23003KT 10SM CLR 22/20 A3003 RMK AO2=
KFMH 081015Z AUTO 15005KT 8SM BKN004 BKN009 OVC013 21/20 A3010 RMK
     AO2=
KIFP 081015Z AUTO 00000KT 10SM CLR 29/00 A2974 RMK AO2=
KMAN 081015Z AUTO 18003KT 10SM CLR 13/07 A3004 RMK AO1=
KPVF 081015Z AUTO 03005KT 10SM FEW043 22/12 A2993 RMK AO1=
KRBW 081015Z AUTO 00000KT 10SM CLR 22/20 A2998 RMK AO2=
KRCM 081015Z AUTO 31005KT 4SM BR BKN002 OVC005 22/22 A3003 RMK
     AO2=
KTME 081015Z AUTO 04005KT 5SM 25/25 A2993 RMK AO1=
KUOX 081015Z AUTO 00000KT 10SM CLR 22/20 A3009 RMK AO2=
K14Y 081018Z AUTO 00000KT 10SM CLR 15/15 A3010 RMK AO2
     T01500145=
K1A6 081015Z AUTO 00000KT 3SM BR CLR 21/21 A3011 RMK AO2=
KAIG 081015Z AUTO 32008KT 4SM BR BKN003 18/17 A3002 RMK AO2=
KARV 081012Z AUTO 34003KT 10SM CLR 17/15 A3004 RMK AO2
     T01660149=
KATW 081015Z AUTO 23004KT 2 1/2SM BR OVC003 22/21 A3001 RMK
     AO2=
KBJI 081014Z AUTO 25006KT 10SM CLR 14/13 A3005 RMK AO2=
KBWP 081011Z AUTO 24004KT 10SM CLR 14/13 A3009 RMK AO1
     T01420129=
KCMY 081015Z AUTO 00000KT 10SM CLR 19/19 A3003 RMK AO2
     T01920185=
KCWA 081015Z AUTO 33007KT 10SM OVC003 19/19 A3002 RMK AO2
     T01920193=
KDLL 081016Z AUTO 26004KT 1 1/2SM BR OVC002 21/20 A3002 RMK
     AO2=
KEFT 081015Z AUTO 24005KT 10SM CLR 21/19 A3003 RMK AO2
     T02060188=
KEGV 081012Z AUTO 34006KT 10SM BKN008 19/19 A3003 RMK AO2
     T01850186=
KETB 081012Z AUTO 00000KT 5SM -DZ BKN120 21/21 A3000 RMK AO2
     T02140206=
KEZS 081015Z AUTO 00000KT 5SM BR OVC005 23/22 A2999 RMK AO2
     T02250217=
KGLW 081013Z AUTO 00000KT 5SM BR CLR 20/20 A3008 RMK AO2
     T02040195=
KHFJ 081015Z AUTO 00000KT 7SM SCT060 BKN095 22/22 A3003 RMK
     AO1=
KIWA 081016Z AUTO 02003KT 10SM CLR 33/00 A2980 RMK AO2=
KJVL 081015Z AUTO 21003KT 10SM CLR 22/20 A3001 RMK AO2
     T02160199=
KLCK 081015Z AUTO 00000KT 3SM BR CLR 22/21 A3008 RMK AO2
     T02160206=
KPVB 081013Z AUTO 24003KT 1/2SM OVC001 20/20 A3004 RMK AO1
     T02030196=
KRZN 081014Z AUTO 00000KT 10SM CLR 16/15 A3008 RMK AO2
     T01560148=
KUNI 081015Z AUTO 00000KT 4SM HZ CLR 21/17 A3008 RMK AO2
     T02120169=
KVES 081014Z AUTO 00000KT 2 1/2SM BR CLR 20/19 A3008 RMK AO2
     T01960189=
K4M9 081015Z AUTO 22005KT 7SM CLR 24/24 A3005 RMK AO2=
KAEJ 081015Z AUTO 00000KT 10SM SCT048 BKN090 BKN110 09/08 A3046
     RMK AO2=
KBBF 081115Z AUTO 12014G22KT 5SM HZ FEW022 SCT026 BKN050 29/27
     A2979 RMK A01=
KBQX 081015Z AUTO 12017G25KT 8SM FEW027 SCT035 BKN095 29/26 A2984
     RMK A01=
KDCM 081015Z AUTO 00000KT 7SM CLR 21/21 A3001 RMK AO2 LTG DSNT
     SE=
KDLP 081015Z AUTO 09010KT 10SM BKN015 BKN060 28/25 A2999 RMK
     A01=
KEHC 081015Z AUTO 12022KT 7SM FEW029 FEW042 29/26 A2991 RMK
     A01=
KEIR 081015Z AUTO VRB05G15KT 10SM FEW014 FEW019 28/25 A2996 RMK
     A01=
KEMK 081015Z AUTO 14025KT 7SM FEW020 SCT065 BKN075 28/25 A2985 RMK
     A01=
KGVX 081015Z AUTO 11025KT 8SM M40/ A2988 RMK A01=
KGYH 081015Z AUTO 00000KT 10SM CLR 23/20 A3003 RMK AO2=
KHQI 081015Z AUTO 11026KT 8SM FEW019 SCT065 BKN090 29/26 A2988 RMK
     A01=
KHXD 081015Z AUTO 22003KT 10SM CLR 23/21 A2999 RMK AO2 P0000=
KHYW 081015Z AUTO 00000KT 7SM SCT100 23/22 A2993 RMK AO2=
KIPN 081015Z AUTO 09014KT 10SM SCT021 SCT026 /56 A2999 RMK A01=
####018000363####
SAUS80 KWBC 081020
METAR
KSNC 081015Z AUTO 13005KT M1/4SM +RA OVC001 22/ A3008 RMK AO2
     P0003=
KCLI 081015Z AUTO 00000KT 3SM BR OVC005 22/21 A3000 RMK AO2=
KDVK 081017Z AUTO 00000KT 5SM 20/19 A3009 RMK AO1=
KMYT 081015Z AUTO 14011KT 120V180 10SM CLR 28/24 A2995 RMK A01=
KSCF 081020Z AUTO 15019KT 7SM FEW016 SCT021 29/26 A2990 RMK
     A01=
####018000075####
SAAF36 KWBC 081000 RRB
METAR
HEMA 081000Z 36017KT CAVOK 36/16 Q1006=
####018000080####
SPAK32 KWBC 081020
SPECI
PALU SP 1015 AWOS CLR BLO 120 10 55/35/2013/010=
####018000080####
SPAK32 KWBC 081020
SPECI
PATL SP 1015 AWOS CLR BLO 120 10 59/44/0206/000=
####018000087####
SAIY31 KWBC 080850 RRF
METAR
LIEE 080945Z 16010KT 9999 FEW020 28/19 Q1019 NOSIG=
####018000079####
SPUS31 KWBC 081020
SPECI
KPHF 081017Z 08005KT 2SM BR BKN080 25/24 A2998=
####018000099####
SPNT31 KWBC 081020
SPECI
BGTL 081016Z AUTO 00000KT 1600 BR VV002 04/04 A2984 RMK AO2 SLP109=
####018000088####
SASA41 KWBC 081000 RRC
METAR
SKPE 081000Z VRB02KT 9999 FEW010 SCT070 17/16 A3010=
####018000098####
SPUS41 KWBC 081020
SPECI
KBED 081016Z AUTO 16005KT 4SM HZ SCT017 BKN042 OVC075 24/22 A3006=
####018003191####
SAUS99 KWBC 081020
METAR
K4M9 081015Z AUTO 22005KT 7SM CLR 24/24 A3005 RMK AO2=
KAEJ 081015Z AUTO 00000KT 10SM SCT048 BKN090 BKN110 09/08 A3046
     RMK AO2=
KBBF 081115Z AUTO 12014G22KT 5SM HZ FEW022 SCT026 BKN050 29/27
     A2979 RMK A01=
KBQX 081015Z AUTO 12017G25KT 8SM FEW027 SCT035 BKN095 29/26 A2984
     RMK A01=
KDCM 081015Z AUTO 00000KT 7SM CLR 21/21 A3001 RMK AO2 LTG DSNT
     SE=
KDLP 081015Z AUTO 09010KT 10SM BKN015 BKN060 28/25 A2999 RMK
     A01=
KEDU 081015Z AUTO 15004KT 10SM CLR 14/10 A2982 RMK AO1=
KEHC 081015Z AUTO 12022KT 7SM FEW029 FEW042 29/26 A2991 RMK
     A01=
KEIR 081015Z AUTO VRB05G15KT 10SM FEW014 FEW019 28/25 A2996 RMK
     A01=
KEMK 081015Z AUTO 14025KT 7SM FEW020 SCT065 BKN075 28/25 A2985 RMK
     A01=
KGBK 081015Z AUTO 09012G19KT 10SM CLR 29/26 A2990 RMK A01=
KGVX 081015Z AUTO 11025KT 8SM M40/ A2988 RMK A01=
KGYH 081015Z AUTO 00000KT 10SM CLR 23/20 A3003 RMK AO2=
KHQI 081015Z AUTO 11026KT 8SM FEW019 SCT065 BKN090 29/26 A2988 RMK
     A01=
KHXD 081015Z AUTO 22003KT 10SM CLR 23/21 A2999 RMK AO2 P0000=
KHYW 081015Z AUTO 00000KT 7SM SCT100 23/22 A2993 RMK AO2=
KIPN 081015Z AUTO 09014KT 10SM SCT021 SCT026 /56 A2999 RMK A01=
KJZI 081015Z AUTO 27005KT 10SM CLR 23/23 A2996 RMK A02 P000=
KLNL 081015Z AUTO 33003KT 10SM BKN019 OVC027 18/16 A3005 RMK AO2
     T01760155=
KLUM 081015Z AUTO 29005KT 10SM CLR 18/17 A3006 RMK AO2=
KMCJ 081015Z AUTO 06006KT 6SM FEW023 25/24 A2989 RMK AO1=
KMDJ 081015Z AUTO 13012KT 10SM FEW017 BKN070 28/24 A2999 RMK
     A01=
KMDZ 081015Z AUTO 32004KT 5SM BR OVC004 19/18 A3003 RMK AO2=
KMHR 081015Z AUTO 18005KT 10SM CLR 13/10 A2985 RMK AO1=
KMIU 081015Z AUTO 14014KT 9SM FEW017 SCT049 BKN060 28/25 A2980 RMK
     A01=
KMRJ 081015Z AUTO 26003KT 4SM BR OVC006 21/19 A3004 RMK AO2
     T02070191=
KMWC 081015Z AUTO 00000KT 5SM -RA BKN007 BKN014 OVC065 21/20 A3001
     RMK AO2 P0001=
KMWO 081015Z AUTO 00000KT 2SM BR CLR 20/20 A3009 RMK AO2=
KMYT 081015Z AUTO 14011KT 120V180 10SM CLR 28/24 A2995 RMK A01=
KMZG 081015Z AUTO 00000KT 7SM FEW022 SCT040 BKN047 28/25 A2980 RMK
     A01=
KOEO 081015Z AUTO 00000KT 10SM CLR 17/16 A3009 RMK AO2=
KPBH 081015Z AUTO 00000KT 10SM CLR 19/18 A3004 RMK AO2=
KPCZ 081015Z AUTO 26004KT 3SM BR SCT010 22/21 A3000 RMK AO2
     T02220209=
KPDC 081013Z AUTO 29007KT 10SM CLR 22/21 A3003 RMK AO2
     T02170205=
KRCX 081015Z AUTO 32006KT 10SM CLR 18/16 A3006 RMK AO2
     T01790161=
KRNH 081016Z AUTO 30006KT 10SM CLR 17/16 A3009 RMK AO2
     T01700162=
KRPD 081014Z AUTO 00000KT 10SM OVC045 18/17 A3007 RMK AO2
     T01780168=
KRRL 081015Z AUTO 00000KT 1/2SM FG OVC002 17/17 A3003 RMK AO2
     T01740170=
KRYV 081015Z AUTO 00000KT 5SM BR SCT005 22/20 A3001 RMK AO2=
KSCF 081020Z AUTO 15019KT 7SM FEW016 SCT021 29/26 A2990 RMK
     A01=
KSPF 081015Z AUTO 00000KT 10SM CLR 11/08 A3028 RMK AO2=
KSTE 081015Z AUTO 00000KT 10SM CLR 20/19 A3002 RMK AO2=
KVBS 081015Z AUTO 12024KT 10SM BKN020 BKN027 BKN033 29/25 A2991
     RMK A01=
KVNP 081015Z AUTO VRB06G11KT 9SM 28/25 A2996 RMK A01=
KY63 081020Z AUTO 21004KT 10SM CLR 14/14 A3010 RMK AO2
     T01420135=
####018000094####
SPNK31 MNMG 081015
SPECI
SPECI MNMG 081015Z 00000KT 9999 FEW020CB BKN020 CB/N/NW/W/NE/S=
####018000087####
SAKN64 HKMO 081000
METAR HKJK 081000Z 17005KT 9999 BKN020 OVC100 17/14 Q1024 NOSIG=
####018000095####
SAUK51 EGGY 080950 CCB
METAR COR EGDY 080950Z 25005KT 9999 SCT035 BKN220 20/14 Q1018 NOSIG=
####018000110####
SAIY42 LIIB 081000 RRD
METAR LIQW 080955Z 17003KT 9999 FEW030 28/20 Q1020 RMK FEW VIS MIN
      9999 BLU=
####018000392####
SPUS80 KWBC 081020
SPECI
KANJ 081016Z AUTO 00000KT 5SM BR SCT004 BKN008 OVC024 20/19 A2995
     RMK AO2 CIG 005V010=
KCOU 081017Z AUTO 01003KT 6SM BR BKN013 BKN100 23/22 A3005 RMK AO2
     TSNO=
KVCT 081018Z AUTO 06004KT 6SM -RA BR SCT028 BKN044 OVC080 25/24
     A2988 RMK AO2 P0005=
KATT 081018Z AUTO VRB03KT 10SM BKN009 OVC019 25/24 A2996 RMK AO2
     RAE0956 P0000 $=
####018000148####
SAXX60 KWBC 081020
METAR
KGBK 081015Z AUTO 09012G19KT 10SM CLR 29/26 A2990 RMK A01=
KMHR 081015Z AUTO 18005KT 10SM CLR 13/10 A2985 RMK AO1=
####018001803####
SAUS70 KWBC 081020 RRA
METAR
KJZI 081015Z AUTO 27005KT 10SM CLR 23/23 A2996 RMK A02 P000=
KLNL 081015Z AUTO 33003KT 10SM BKN019 OVC027 18/16 A3005 RMK AO2
     T01760155=
KLUM 081015Z AUTO 29005KT 10SM CLR 18/17 A3006 RMK AO2=
KMCJ 081015Z AUTO 06006KT 6SM FEW023 25/24 A2989 RMK AO1=
KMDJ 081015Z AUTO 13012KT 10SM FEW017 BKN070 28/24 A2999 RMK
     A01=
KMDZ 081015Z AUTO 32004KT 5SM BR OVC004 19/18 A3003 RMK AO2=
KMIU 081015Z AUTO 14014KT 9SM FEW017 SCT049 BKN060 28/25 A2980 RMK
     A01=
KMRJ 081015Z AUTO 26003KT 4SM BR OVC006 21/19 A3004 RMK AO2
     T02070191=
KMWC 081015Z AUTO 00000KT 5SM -RA BKN007 BKN014 OVC065 21/20 A3001
     RMK AO2 P0001=
KMWO 081015Z AUTO 00000KT 2SM BR CLR 20/20 A3009 RMK AO2=
KMZG 081015Z AUTO 00000KT 7SM FEW022 SCT040 BKN047 28/25 A2980 RMK
     A01=
KOEO 081015Z AUTO 00000KT 10SM CLR 17/16 A3009 RMK AO2=
KPBH 081015Z AUTO 00000KT 10SM CLR 19/18 A3004 RMK AO2=
KPCZ 081015Z AUTO 26004KT 3SM BR SCT010 22/21 A3000 RMK AO2
     T02220209=
KPDC 081013Z AUTO 29007KT 10SM CLR 22/21 A3003 RMK AO2
     T02170205=
KRCX 081015Z AUTO 32006KT 10SM CLR 18/16 A3006 RMK AO2
     T01790161=
KRNH 081016Z AUTO 30006KT 10SM CLR 17/16 A3009 RMK AO2
     T01700162=
KRPD 081014Z AUTO 00000KT 10SM OVC045 18/17 A3007 RMK AO2
     T01780168=
KRRL 081015Z AUTO 00000KT 1/2SM FG OVC002 17/17 A3003 RMK AO2
     T01740170=
KRYV 081015Z AUTO 00000KT 5SM BR SCT005 22/20 A3001 RMK AO2=
KSPF 081015Z AUTO 00000KT 10SM CLR 11/08 A3028 RMK AO2=
KSTE 081015Z AUTO 00000KT 10SM CLR 20/19 A3002 RMK AO2=
KVBS 081015Z AUTO 12024KT 10SM BKN020 BKN027 BKN033 29/25 A2991
     RMK A01=
KVNP 081015Z AUTO VRB06G11KT 9SM 28/25 A2996 RMK A01=
KY63 081020Z AUTO 21004KT 10SM CLR 14/14 A3010 RMK AO2
     T01420135=
####018000428####
SAAF35 KWBC 081000 RRC
METAR
HEAX 081000Z 30012KT 9999 SCT020 29/22 Q1010=
HEBA 081000Z 33017KT 9999 FEW020 29/21 Q1012=
HEBL 081000Z 35014KT CAVOK 40/08 Q1010=
HECA 081000Z 32008KT CAVOK 32/17 Q1011=
HEGN 081000Z 35024KT CAVOK 37/10 Q1006=
HELX 081000Z 31008KT CAVOK 39/12 Q1008=
HEMM 081000Z 34012KT CAVO 29/20 Q1013=
HEPS 081000Z 34007KT 9999 SCT025 30/22 Q1010=
HESC 081000Z 04010KT CAVOK 31/11 Q1018=
####018000090####
SPAK32 KWBC 081020
SPECI
PASV SP 1015 AWOS M60 BKN 70 BKN 90 BKN 10 50/46/0000/997=
####018000028####
SAAW34 KWBC 081015
NIL=
####018000028####
SADL33 KWBC 081015
NIL=
####018000128####
SAIY42 KWBC 080950 RRB
METAR
LIMT 080955Z /////KT 9999 BKN012TCU 15/12 Q1024 RMK BKN MON LIB
     VAL NIL VIS MIN 9999=
####018000087####
SPNK31 MNMG 081015
SPECI
MNMG 081015Z 00000KT 9999 FEW020CB BKN020 CB/N/NW/W/NE/S=
####018000105####
SAAK27 PADN 081020
METAR PAWI 081017Z 22013KT 10SM CLR 07/03 A3002 RMK ASOS VIA PHONE=
$$



####018000099####
SPNT31 KWBC 081020
SPECI
BGTL 081014Z AUTO 00000KT 1200 BR VV002 04/04 A2984 RMK AO2 SLP109=
####018000121####
SARA31 KWBC 081000 RRE
METAR
UHMM 081000Z 27001MPS 6000 -DZ OVC006 12/11 Q1016 RMK QFE747
     88010070 MT OBSC=
####018000581####
SAXX99 KWBC 081000 RRP
METAR
CZEV 081000Z AUTO 30008KT 06/03 RMK AO1 PK WND 32017/0926 SLP182
     T00640028 51010=
CZHY 081000Z AUTO 29003KT 14/12 RMK AO1 SLP141 T01420117 53001=
CZSM 081000Z AUTO 25001KT 10/07 RMK AO1 SLP131 T00960071 55001=
EGYE 080950Z 24012KT 9999 FEW030 SCT100 ///// Q1018 BLU=
EYPA 081020Z 33006KT 240V030 CAVOK 21/16 Q1018 NOSIG=
HEAR 081000Z 33006KT CAVOK 31/21 Q1009=
HEAT 081000Z 35013KT CAVOK 34/12 Q1011=
HEIS 081000Z 30008KT CAVOK 32/16 Q1009=
HESH 081000Z 02014KT CAVOK 36/13 Q1006=
LGKC 080950Z VRB06KT CAVOK 30/20 Q1013=
####018000120####
SPUS41 KWBC 081020
SPECI
KWRI 081016Z AUTO 14004KT M1/4SM R18/0300V1200FT R24/1200V1800FT
FG VV001 23/23 A3001=
####018000104####
SPUS52 KWBC 081020
SPECI
KVCT 081018Z AUTO 06004KT 6SM -RA BR SCT028 BKN044 OVC080 25/24
A2988=
####018000083####
SALT33 EYVI 081020
METAR EYPA 081020Z 33006KT 240V030 CAVOK 21/16 Q1018 NOSIG=
####018000121####
SAIY41 LIIB 081000 RRB
METAR LIMT 080955Z /////KT 9999 BKN012TCU 15/12 Q1024 RMK BKN MON LIB
VAL NIL VIS MIN 9999=
####018000126####
SAIY41 LIIB 081000 RRA
METAR LIMT 080955Z /////KT 9999 BKN012TCU 15/12 Q1024 RMK BKN MON LIB
      VAL NIL VIS MIN 9999=
####018000112####
SAIY42 LIIB 081000 RRD
METAR LIQW 080955Z 17003KT 9999 FEW030 28/20 Q1020 RMK FEW VIS MIN
      9999 BLU=
####018000111####
SAIY42 LIIB 081000 RRD
METAR LIQW 080955Z 17003KT 9999 FEW030 28/20 Q1020 RMK FEW VIS MIN
      9999 BLU=
####018000119####
SAIY41 LIIB 081000 RRB
METAR LIMT 080955Z /////KT 9999 BKN012TCU 15/12 Q1024 RMK BKN MON LIB VAL NIL VIS MIN 9999=
####018000088####
SPUS72 KWBC 081020
SPECI
KTXK 081016Z AUTO 00000KT 2 1/2SM BR OVC001 23/23 A3005=
####018000104####
SPUS72 KWBC 081020
SPECI
KVCT 081018Z AUTO 06004KT 6SM -RA BR SCT028 BKN044 OVC080 25/24
A2988=
####018000651####
SASA KAWN 081000 RRF
METAR SAAR 081000Z 00000KT CAVOK 02/00 Q1018=
METAR SADF 081000Z 00000KT CAVOK 04/01 Q1019=
METAR SANT 081000Z 32008KT 9999 07/05 081002 SAVCYEYE=
METAR SAOC 081000Z 32008KT 9999 05/01 Q1015=
METAR SARC 081000Z 16008KT 8000 BKN007 10/09 Q1019=
METAR SARL 081000Z 16005KT 9999 06/05 Q1020=
METAR SAZM 081000Z 32008KT CAVOK 05/02 Q1014=
METAR SAZN 081000Z 27013KT CAVOK 09/02 Q1010=
METAR SBFL 081000Z 19010G20KT CAVOK 22/17 Q1016=
METAR SKPE 081000Z VRB02KT 9999 FEW010 SCT070 17/16 A3010=
METAR SLET 081000Z 16008KT 9999 SCT023 BKN070 20/18 Q1014=
METAR SVBM 081000Z 11008KT 8000 -DZ BKN013 21/21 Q////=
####018000216####
SAXN17 KAWN 081000 RRF
METAR MKJP 081000Z 11010KT 9999 FEW020 FEW022CB BKN220 27/19 Q1012=
METAR MYGF 081000Z 07003KT 9999 FEW020 SCT030 24/23 A2996 /=
METAR SVBM 081000Z 11008KT 8000 -DZ BKN013 21/21 Q////=
####018000348####
SAZZ40 KAWN 081000 RRQ
METAR KFMH 081015Z AUTO 15005KT 8SM BKN004 BKN009 OVC013 21/20 A3010
      RMK AO2=
METAR MKJP 081000Z 11010KT 9999 FEW020 FEW022CB BKN220 27/19 Q1012=
METAR MYGF 081000Z 07003KT 9999 FEW020 SCT030 24/23 A2996 /=
METAR SADF 081000Z 00000KT CAVOK 04/01 Q1019=
METAR TKPN 081000Z 09012KT 9999 SCT018 28/24 Q1014=
####018000158####
SANA35 KAWN 081000 RRE
METAR MKJP 081000Z 11010KT 9999 FEW020 FEW022CB BKN220 27/19 Q1012=
METAR MYGF 081000Z 07003KT 9999 FEW020 SCT030 24/23 A2996 /=
####018000104####
SPUS81 KWBC 081020
SPECI
KVCT 081018Z AUTO 06004KT 6SM -RA BR SCT028 BKN044 OVC080 25/24
A2988=
####018001255####
SAUS20 KNKA 081020
SPECI KACV 081019Z AUTO 00000KT 3SM BR OVC001 10/10 A2996 RMK AO2=
SPECI KBGM 081019Z 00000KT 2 1/2SM BR CLR 21/18 A3012 RMK AO2=
METAR KBUU 081017Z AUTO 21003KT 5SM BR SCT090 BKN120 21/20 A3001 
     RMK AO2=
SPECI KCNM 081019Z AUTO 33008KT 9SM -RA SCT011 BKN060 OVC080 19/19 
    A3012 RMK AO2 LTG DSNT SE TSE0955 P0005=
SPECI KFOK 081019Z AUTO 11005KT 5SM HZ SCT004 SCT011 BKN033 24/21 
    A3007 RMK AO2 TSNO=
SPECI KILG 081019Z AUTO 00000KT 2 1/2SM BR SCT006 24/23 A3003 RMK 
    AO2 $=
SPECI KITH 081019Z 08004KT 6SM BR CLR 20/18 A3011 RMK AO2 =
SPECI KLWD 081019Z AUTO 36008KT 6SM BR OVC002 21/21 A3008 RMK AO2 
    CIG 001V006=
SPECI KMHK 081019Z AUTO 00000KT 7SM FEW018 22/21 A3009 RMK AO2=
SPECI KOWD 081018Z AUTO 16005KT 10SM SCT016 BKN055 22/19 A3008 RMK 
    AO2=
METAR KSUW 081015Z AUTO 20004KT 10SM CLR 16/14 A3003 RMK AO2=
METAR KTKV 081015Z AUTO 00000KT 1/2SM FG OVC001 17/17 A3003 RMK 
     AO2 T01720165=
METAR KUES 081015Z AUTO 00000KT 5SM -RA SCT007 BKN080 OVC100 
     21/20 A3002 RMK AO2 T02100195=
METAR KUNU 081012Z AUTO 00000KT 3SM BR OVC003 21/19 A3002 RMK AO2 
     T02050194=
SPECI KUTS 081019Z AUTO 00000KT 6SM BR SCT004 BKN019 24/23 A2997 RMK 
    AO2=
####018000119####
SAUS46 KLOX 081020
MTR3A6
METAR K3A6 081110Z AUTO 36003KT 11/10 A2988 RMK AO1 SLP138 T01120101 10130 20110 58009
####018000107####
SPCN51 CWAO 081019
SPECI CZCP 081019Z AUTO 19009KT 9SM -RA SCT001 BKN012 BKN026 OVC041
07/ A2984=

####018000076####
SPCN47 CWAO 081019
SPECI CYAM 081019Z 15003KT 4SM BR OVC006 RMK SF8=

####018000118####
SAMH31 PKWA 081020
METAR PKWA 081020Z AUTO 07018G24KT 7SM -RA BKN009 BKN018 OVC039 25/23 A2987 RMK AO2 T02520234=
####018000259####
SACA31 TNCC 080800
METAR TNCC 0800Z 09013KT 9999 SCT017 28/25 Q1011 NOSIG=
METAR TNCA 080800Z 08012KT 9999 SCT016 29/25 Q1012 NOSIG=
METAR TNCB 080800Z AUTO /////KT //// ////// 28/25 Q1012 NOSIG=
METAR TNCE 080800Z AUTO 06007KT //// ////// 27/25 Q1015=
####018003708####
SAUS99 KWBC 081021
METAR
KFPK 081016Z AUTO 00000KT 5SM BR CLR 22/20 A3003 RMK AO2=
KMOP 081014Z AUTO 18004KT 10SM SCT085 OVC100 23/22 A3003 RMK
     AO2=
KCAD 081014Z AUTO 22004KT 10SM OVC110 22/20 A3003 RMK AO2=
KMGN 081015Z AUTO 27003KT 10SM SCT110 21/20 A2996 RMK AO2=
KHAI 081015Z AUTO 00000KT 3SM BR CLR 21/21 A3006 RMK AO2=
KLWA 081016Z AUTO 00000KT 5SM BR CLR 22/21 A3003 RMK AO2=
KDRM 081016Z AUTO 15004KT 1/2SM FG OVC002 20/20 A2995 RMK AO2=
KVLL 081014Z AUTO 25003KT 10SM CLR 25/21 A3006 RMK AO2=
KCFS 081015Z AUTO 00000KT 1SM BR VV007 20/20 A3002 RMK AO2=
KOZW 081015Z AUTO 00000KT 7SM CLR 23/20 A3005 RMK AO2=
KRNP 081015Z AUTO 28005KT 7SM SCT055 SCT070 23/21 A3004 RMK
     AO2=
KDUH 081014Z AUTO 00000KT 7SM SCT070 22/18 A3005 RMK AO2=
KJYM 081015Z AUTO 00000KT 5SM BR CLR 20/18 A3007 RMK AO2=
KBAX 081015Z AUTO 00000KT 4SM BR CLR 20/20 A3000 RMK AO2=
KIRS 081015Z AUTO 00000KT 7SM SCT060 21/19 A3005 RMK AO2=
KACB 081015Z AUTO 00000KT 10SM OVC100 24/21 A2997 RMK AO2=
KRQB 081014Z AUTO 20003KT 10SM OVC090 22/21 A3004 RMK AO2=
KOEB 081015Z AUTO 00000KT 7SM CLR 22/20 A3005 RMK AO2=
K4I3 081016Z AUTO 00000KT 7SM CLR 19/18 A3010 RMK AO2=
KAUM 081015Z AUTO 34005KT 7SM CLR 17/16 A3007 RMK AO2=
KFFX 081015Z AUTO 20003KT 5SM -RA SCT040 BKN070 OVC110 22/22 A3003
     RMK AO2=
KCNB 081018Z AUTO 24007KT 10SM CLR 17/13 A3014 RMK AO2
     T01650132=
KCKN 081015Z AUTO 22003KT 10SM CLR 13/12 A3005 RMK AO2=
KCFE 081015Z AUTO 00000KT 10SM CLR 17/16 A3011 RMK AO2
     T01710156=
KCQM 081017Z AUTO 00000KT 10SM CLR 14/13 A3003 RMK AO2=
KDTL 081015Z AUTO 00000KT 10SM CLR 16/11 A3009 RMK AO2=
KBDH 081015Z AUTO 00000KT 7SM CLR 14/14 A3013 RMK AO2=
KCBG 081015Z AUTO 00000KT 10SM CLR 16/13 A3008 RMK AO2=
KADC 081017Z AUTO 24005KT 10SM CLR 14/13 A3008 RMK AO2=
KHAF 081010Z AUTO 00000KT 9SM OVC006 12/10 A2993 RMK AO2=
KCKC 081015Z AUTO 30006KT 10SM CLR 15/13 A3003 RMK AO2=
KJYG 081015Z AUTO 28004KT 10SM CLR 16/16 A3013 RMK AO2=
KCOQ 081016Z AUTO 28005KT 10SM CLR 14/14 A3005 RMK AO2=
KACQ 081019Z AUTO 00000KT 1/4SM FG VV002 16/15 A3012 RMK AO2=
KRGK 081015Z AUTO 00000KT 10SM CLR 18/17 A3006 RMK AO2=
KFSE 081014Z AUTO 19004KT 10SM CLR 11/11 A3005 RMK AO2=
KY70 081015Z AUTO 00000KT 4SM -RA SCT065 SCT075 OVC110 23/22 A3003
     RMK AO2 T02260216=
KUKT 081010Z AUTO 00000KT 3SM CLR 20/20 A3004 RMK AO1=
KFKA 081023Z AUTO 33008KT 10SM CLR 19/18 A3007 RMK AO2
     T01850178=
KCVX 081015Z AUTO 22003KT 10SM SCT100 BKN110 22/20 A2998 RMK
     AO2=
KFKS 081015Z AUTO 00000KT 10SM OVC090 22/20 A2998 RMK AO2=
KSLH 081015Z AUTO 19003KT 10SM OVC110 21/21 A2996 RMK AO2=
KSJX 081016Z AUTO 24007KT 1 1/4SM BR OVC002 20/18 A2997 RMK
     AO2=
KLDM 081016Z AUTO 21006KT 10SM -RA BKN090 22/21 A3001 RMK AO2=
KGOV 081015Z AUTO 23003KT 10SM OVC100 22/22 A3001 RMK AO2=
KPZQ 081015Z AUTO 20007KT 7SM CLR 22/22 A2998 RMK AO2=
KHYX 081015Z AUTO 23004KT 7SM CLR 22/20 A3002 RMK AO2=
KPHN 081016Z AUTO 00000KT 1/4SM FG VV002 19/18 A3003 RMK AO2=
KONZ 081017Z AUTO 00000KT 10SM SCT075 24/20 A3003 RMK AO2=
KISQ 081016Z AUTO 31004KT 10SM -RA OVC006 20/18 A2997 RMK AO2=
KRMY 081015Z AUTO 00000KT 7SM CLR 21/19 A3005 RMK AO2=
KOSC 081014Z AUTO 28004KT 3SM BR SCT050 SCT060 21/19 A3001 RMK
     AO2=
KTTF 081013Z AUTO 00000KT 7SM SCT075 22/21 A3003 RMK AO2=
KAMN 081016Z AUTO 00000KT 5SM -RA SCT075 OVC085 22/22 A3003 RMK
     AO2=
KMCD 081015Z AUTO 00000KT 10SM BKN120 22/18 A2997 RMK AO2=
KERY 081016Z AUTO 27007KT 5SM BR OVC003 20/19 A2997 RMK AO2=
KDVP 081016Z AUTO 27003KT 10SM CLR 15/13 A3017 RMK AO2
     T01520134=
KCDD 081011Z AUTO 18004KT 10SM CLR 17/16 A3002 RMK AO2=
####018001019####
SAUS99 KWBC 081021 RRA
METAR
KFOZ 081013Z AUTO 00000KT 1/4SM FG OVC001 12/11 A3005 RMK AO2=
KAQP 081014Z AUTO 23004KT 10SM CLR 13/13 A3011 RMK AO2=
KETH 081014Z AUTO 25006KT 10SM CLR 17/15 A3010 RMK AO2=
KXVG 081016Z AUTO 23004KT 10SM CLR 16/15 A3004 RMK AO2=
KORB 081014Z AUTO 22003KT 10SM CLR 14/13 A3000 RMK AO2=
KMZH 081011Z AUTO 27003KT 10SM CLR 15/14 A3004 RMK AO2=
KBFW 081013Z AUTO 00000KT 10SM CLR 15/13 A3001 RMK AO2=
KVWU 081011Z AUTO 26007KT 10SM CLR 18/14 A3002 RMK AO2=
KOWA 081014Z AUTO 00000KT 7SM CLR 16/16 A3008 RMK AO2=
KCDA 081015Z AUTO 00000KT 1 1/4SM BR VV007 20/18 A3010 RMK AO2=
KBUU 081017Z AUTO 21003KT 5SM BR SCT090 BKN120 21/20 A3001 RMK
     AO2=
KSUW 081015Z AUTO 20004KT 10SM CLR 16/14 A3003 RMK AO2=
KTKV 081015Z AUTO 00000KT 1/2SM FG OVC001 17/17 A3003 RMK AO2
     T01720165=
KUES 081015Z AUTO 00000KT 5SM -RA SCT007 BKN080 OVC100 21/20 A3002
     RMK AO2 T02100195=
KUNU 081012Z AUTO 00000KT 3SM BR OVC003 21/19 A3002 RMK AO2
     T02050194=
####018000776####
SPUS99 KWBC 081021
SPECI
KACV 081019Z AUTO 00000KT 3SM BR OVC001 10/10 A2996 RMK AO2=
KBGM 081019Z 00000KT 2 1/2SM BR CLR 21/18 A3012 RMK AO2=
KCNM 081019Z AUTO 33008KT 9SM -RA SCT011 BKN060 OVC080 19/19 A3012
     RMK AO2 LTG DSNT SE TSE0955 P0005=
KFOK 081019Z AUTO 11005KT 5SM HZ SCT004 SCT011 BKN033 24/21 A3007
     RMK AO2 TSNO=
KILG 081019Z AUTO 00000KT 2 1/2SM BR SCT006 24/23 A3003 RMK AO2
     $=
KITH 081019Z 08004KT 6SM BR CLR 20/18 A3011 RMK AO2=
KLWD 081019Z AUTO 36008KT 6SM BR OVC002 21/21 A3008 RMK AO2 CIG
     001V006=
KMHK 081019Z AUTO 00000KT 7SM FEW018 22/21 A3009 RMK AO2=
KOWD 081018Z AUTO 16005KT 10SM SCT016 BKN055 22/19 A3008 RMK
     AO2=
KUTS 081019Z AUTO 00000KT 6SM BR SCT004 BKN019 24/23 A2997 RMK
     AO2=
####018000148####
SAMX52 MMGL 081000
METAR MMAS 081015Z RTD 00000KT 8SM  SCT020 BKN070 OVC200 17/14 A3005 
      RMK 8/537 HZ OCNL DROPS RTS=





TX OPMET V1
####018000097####
SALV31 EVRA 081020
METAR EVRA 081020Z 32010KT 280V360 9999 SCT010 OVC023 19/15 Q1015 
NOSIG=
####018000076####
SALT32 EYVI 081020
METAR EYKA 081020Z 28008KT 240V360 CAVOK 16/14 Q1016=
####018000074####
SAEO31 EETN 081020
METAR EETN 081020Z 32007KT CAVOK 24/18 Q1014 NOSIG=
####018000091####
SALT31 EYVI 081020
METAR EYVI 081020Z 29012KT 260V320 2600 RA OVC006 16/14 Q1015 NOSIG=
####018000110####
SAIY42 LIIB 081000 CCA
METAR LIQW 080955Z 17003KT 9999 FEW030 28/20 Q1020 RMK FEW VIS MIN
      9999 BLU=
####018000131####
SAAK31 KWBC 081000 RRA
METAR
PAVD 081016Z 00000KT 10SM OVC080 11/08 A3008=
PAWG 081016Z AUTO 32004KT 10SM CLR 13/10 A3014=
####018000089####
SPCA45 KWBC 081021
SPECI
MNMG 081015Z 00000KT 9999 FEW020CB BKN020 CB/N/NW/W/NE/S=
####018000143####
SAAK32 KWBC 081000 RRA
METAR
PADK 081016Z 05013KT 10SM FEW012 BKN023 OVC033 07/06 A2956=
PADL 081016Z 33007KT 10SM OVC075 10/08 A2998=
####018000113####
SAPA41 KWBC 081000 RRA
METAR
PKWA 081020Z AUTO 07018G24KT 7SM -RA BKN009 BKN018 OVC039 25/23
     A2987=
####018000113####
SAPQ31 KWBC 081000 RRA
METAR
PKWA 081020Z AUTO 07018G24KT 7SM -RA BKN009 BKN018 OVC039 25/23
     A2987=
####018000089####
SPMX31 KWBC 081021
SPECI
MNMG 081015Z 00000KT 9999 FEW020CB BKN020 CB/N/NW/W/NE/S=
####018000077####
SPUS42 KWBC 081021
SPECI
KFTW 081019Z 14004KT 10SM SCT013 25/23 A2999=
####018000107####
SAUS43 KMKX 081021
MTRMSN
SPECI KMSN 081019Z 00000KT 8SM SCT006 SCT020 BKN025 21/20 A3002 RMK 
AO2
####018000079####
SAID31 EGGY 081000 RRB
METAR WALL 081000Z 00000KT 9999 SCT022 27/25 Q1007=
####018000099####
SALV31 EVRA 081020
METAR EVRA 081020Z 32010KT 280V360 9999 SCT010 OVC023 19/15 Q1015 
NOSIG=
####018000077####
SAEO32 EETN 081020
METAR EEKE 081020Z 34009KT 310V010 CAVOK 22/14 Q1016=
####018000075####
SAEO31 EETN 081020
METAR EETN 081020Z 32007KT CAVOK 24/18 Q1014 NOSIG=
####018000077####
SALT32 EYVI 081020
METAR EYKA 081020Z 28008KT 240V360 CAVOK 16/14 Q1016=
####018000092####
SALT31 EYVI 081020
METAR EYVI 081020Z 29012KT 260V320 2600 RA OVC006 16/14 Q1015 NOSIG=
####018000112####
SAIY42 LIIB 081000 CCA
METAR LIQW 080955Z 17003KT 9999 FEW030 28/20 Q1020 RMK FEW VIS MIN
      9999 BLU=
####018000126####
SAMP31 LMMM 081030
METAR HLLT NIL=
METAR HLLB NIL=
METAR LMML 081015Z 04007KT 360V090 9999 FEW030 29/21 Q1019 NOSIG =
####018000098####
SPUS52 KWBC 081021
SPECI
KHBR 081019Z AUTO 04006KT 6SM BR FEW004 BKN032 OVC055 23/22 A3007=
####018000089####
SAUS43 KWBC 081000 RRE
METAR
KPHN 081016Z AUTO 00000KT 1/4SM FG VV002 19/18 A3003=
####018000589####
SABZ35 SBBR 081000
METAR SACO 081000Z  34008KT CAVOK 08/M03 Q1019=
METAR SAEZ 081000Z 29002KT CAVOK 04/M00 Q1019=
METAR SAME 081000Z 00000KT CAVOK 00/M03 Q1014=
METAR SEQU 081000Z 08001KT 9999 SCT100 08/07 Q1026=
METAR SGAS 081000Z 17010KT 9999 BKN008 OVC015 17/15 Q1015=
METAR SKBO 081000Z VRB02KT 7000 HZ BKN012 12/11 A3029=
METAR SKCL 081000Z 00000KT 9999 FEW025 BKN090 20/19 A3000=
METAR SLLP 081000Z 07006KT 9999 FEW010 M04/M05 Q1036=
METAR SPIM 081000Z AUTO 17003KT 6000 HZ FEW001 OVC024 16/14 Q1013
NOSIG=
METAR SUMU 081000Z 31005KT CAVOK 03/03 Q1018 NOSIG=
####018001482####
SABZ30 SBBR 081000
METAR SBAA 081000Z 29003KT CAVOK 19/18 Q1014=
METAR SBAM 081000Z NIL=
METAR SBBA 081000Z NIL=
METAR SBBC 081000Z NIL=
METAR SBBE 081000Z 10005KT 9999 FEW017 BKN080 25/22 Q1013=
METAR SBBV 081000Z 08002KT 9999 SCT025 SCT090 25/23 Q1012=
METAR SBCC 081000Z NIL=
METAR SBCI 081000Z 00000KT CAVOK 17/17 Q1014=
METAR SBCJ 081000Z 00000KT CAVOK 19/16 Q1017=
METAR SBCZ 081000Z 00000KT 8000 NSC 23/23 Q1011=
METAR SBEG 081000Z 00000KT 9999 FEW010 SCT100 25/22 Q1012=
METAR SBGM 081000Z NIL=
METAR SBHT 081000Z 00000KT CAVOK ///// Q1013=
METAR SBIH 081000Z 00000KT 9999 3000NE BCFG FEW006 23/22 Q1011=
METAR SBIZ 081000Z 00000KT 9999 FEW030 20/19 Q1014=
METAR SBLB 081000Z NIL=
METAR SBMA 081000Z 26004KT 7000 NSC ///// Q1013=
METAR SBMD 081000Z 06003KT 9999 FEW005 23/23 Q1013=
METAR SBMN 081000Z 07005KT 9999 FEW010 BKN100 26/24 Q1012=
METAR SBMQ 081000Z 34001KT 9999 FEW015 25/25 Q1013=
METAR SBMZ 081000Z NIL=
METAR SBOI 081000Z NIL=
METAR SBPV 081000Z 00000KT CAVOK 24/22 Q1012=
METAR SBRB 081000Z 00000KT CAVOK 22/22 Q1012=
METAR SBSL 081000Z 09003KT 9999 FEW017 BKN100 26/24 Q1013=
METAR SBSN 081000Z 16002KT CAVOK 23/22 Q1012=
METAR SBSY 081000Z NIL=
METAR SBTF 081000Z NIL=
METAR SBTK 081000Z NIL=
METAR SBTT 081000Z NIL=
METAR SBTU 081000Z 05008KT CAVOK 23/23 Q1015=
METAR SBUA 081000Z NIL=
METAR SBUI 081000Z NIL=
METAR SBXG 081000Z NIL=
METAR SBXV 081000Z NIL=
METAR SBYA 081000Z NIL=
####018000431####
SABZ32 SBBR 081000
METAR SBAN 081000Z 12007KT CAVOK 16/12 Q1022=
METAR SBBR 081000Z 33002KT CAVOK 13/09 Q1023=
METAR SBCG 081000Z 08009KT CAVOK 15/08 Q1016=
METAR SBCR 081000Z 15008KT CAVOK 23/13 Q1013=
METAR SBCY 081000Z 02007KT CAVOK 19/14 Q1014=
METAR SBGO 081000Z 00000KT CAVOK 14/10 Q1020=
METAR SBPJ 081000Z 09004KT CAVOK 18/12 Q1015=
METAR SBPN 081000Z 12002KT CAVOK 18/16 Q1015=
METAR SBPP 081000Z NIL=
####018002090####
SABZ33 SBBR 081000
METAR SBAF 081000Z 00000KT 8000 FEW020 16/14 Q1020=
METAR SBAQ 081000Z NIL=
METAR SBAS 081000Z NIL=
METAR SBAU 081000Z 13006KT CAVOK 16/10 Q1018=
METAR SBAX 081000Z NIL=
METAR SBBH 081000Z 10001KT CAVOK 10/09 Q1023=
METAR SBBI 081000Z 34001KT CAVOK 13/12 Q1020=
METAR SBBQ 081000Z 23002KT CAVOK 06/06 Q1025=
METAR SBBT 081000Z NIL=
METAR SBBU 081000Z 04003KT CAVOK 16/10 Q1020=
METAR SBBZ 081000Z NIL=
METAR SBCB 081000Z NIL=
METAR SBCF 081000Z 15002KT CAVOK 10/08 Q1023=
METAR SBCO 081000Z 22002KT 4000 -RA OVC020 16/15 Q1018=
METAR SBCP 081000Z 00000KT CAVOK 16/16 Q1020=
METAR SBDN 081000Z 06008KT CAVOK 19/08 Q1018=
METAR SBES 081000Z 03005KT CAVOK 14/12 Q1018=
METAR SBFS 081000Z NIL=
METAR SBGA 081000Z NIL=
METAR SBGL 081000Z 00000KT 7000 NSC 16/15 Q1019=
METAR SBGR 081000Z 08001KT CAVOK 10/09 Q1021=
METAR SBGU 081000Z NIL=
METAR SBGW 081000Z 07004KT CAVOK 10/09 Q1020=
METAR SBIP 081000Z NIL=
METAR SBJF 080900Z 36005KT CAVOK 13/10 Q1023=
METAR SBJR 081000Z 02005KT CAVOK 18/16 Q1018=
METAR SBKP 081000Z 09005KT 8000 NSC 10/08 Q1021=
METAR SBLN 081000Z NIL=
METAR SBLS 081000Z 15008KT CAVOK 13/10 Q1022=
METAR SBME 081000Z 35003KT CAVOK 14/14 Q1018=
METAR SBMK 080900Z 25001KT CAVOK 14/11 Q1022=
METAR SBML 081000Z NIL=
METAR SBMT 081000Z 00000KT CAVOK 11/09 Q1020=
METAR SBPR 081000Z 17004KT CAVOK 15/11 Q1023=
METAR SBRJ 081000Z 02004KT CAVOK 19/16 Q1018=
METAR SBRP 081000Z 10003KT CAVOK 11/08 Q1020=
METAR SBRQ 081000Z NIL=
METAR SBRS 081000Z NIL=
METAR SBSA 081000Z NIL=
METAR SBSC 081000Z 03010KT CAVOK 19/14 Q1018=
METAR SBSJ 081000Z 00000KT 9000 SCT012 10/09 Q1021=
METAR SBSP 081000Z 31004KT CAVOK 16/09 Q1021=
METAR SBSR 081000Z NIL=
METAR SBST 081000Z 00000KT 9999 SCT025 20/11 Q1016=
METAR SBTA 081000Z 00000KT 7000 NSC 09/07 Q1021=
METAR SBUL 081000Z 09006KT CAVOK 14/08 Q1021=
METAR SBUP 081000Z NIL=
METAR SBUR 081000Z 04005KT CAVOK 14/07 Q1021=
METAR SBVT 081000Z 28002KT CAVOK 18/16 Q1020=
METAR SBYS 081000Z 21001KT 5000 BR NSC 07/07 Q1021=
####018001116####
SABZ31 SBBR 081000
METAR SBAR 081000Z 23005KT CAVOK 23/23 Q1017=
METAR SBCV 081000Z NIL=
METAR SBFN 081000Z 12008KT 9999 SCT017 SCT100 27/23 Q1014=
METAR SBFZ 081000Z 15005KT 9999 SCT017 BKN100 25/21 Q1014=
METAR SBIL 081000Z 27006KT 8000 VCSH FEW020 SCT030 BKN070 22/21 Q101
8=
METAR SBJP 081000Z 23008KT 9999 FEW020 23/21 Q1016=
METAR SBJU 081000Z NIL=
METAR SBKG 081000Z 18003KT 9999 FEW007 BKN020 BKN100 21/20 Q1018=
METAR SBLE 081000Z NIL=
METAR SBLP 081000Z 00000KT CAVOK 16/14 Q1019=
METAR SBMO 081000Z 05003KT 3000 -DZ BR SCT006 SCT020 BKN100 21/21
Q1017=
METAR SBNT 081000Z 19006KT 9999 FEW020 BKN100 23/22 Q1015=
METAR SBPB 081000Z 07007KT 9999 SCT020 BKN100 28/22 Q1013=
METAR SBPL 081000Z 16008KT 9999 SCT020 22/19 Q1019=
METAR SBPS 081000Z 29005KT 4000 BR SCT003 BKN100 18/18 Q1019 RERA=
METAR SBRF 081000Z 24005KT 9999 FEW020 BKN070 23/21 Q1016=
METAR SBSL 081000Z 09003KT 9999 FEW017 BKN100 26/24 Q1013=
METAR SBSV 081000Z 25006KT 9999 4500NW -SHRA BKN011 SCT017 BKN070
23/21 Q1018=
METAR SBTC 081000Z NIL=
METAR SBTE 081000Z 16005KT CAVOK 26/24 Q1014=
####018000883####
SABZ34 SBBR 081000
METAR SBBG 081000Z NIL=
METAR SBBI 081000Z 34001KT CAVOK 13/12 Q1020=
METAR SBCA 081000Z 04012KT CAVOK 19/11 Q1018=
METAR SBCH 081000Z 00000KT CAVOK 15/13 Q1018=
METAR SBCO 081000Z 22002KT 4000 -RA OVC020 16/15 Q1018=
METAR SBCT 081000Z 21001KT CAVOK 10/09 Q1021=
METAR SBCX 081000Z NIL=
METAR SBFI 081000Z 24002KT 9999 FEW020 SCT100 15/13 Q1015=
METAR SBFL 081000Z 19010G20KT CAVOK 22/17 Q1016=
METAR SBJV 081000Z 00000KT 5000 BCFG BR NSC 16/16 Q1015=
METAR SBLO 081000Z 23002KT CAVOK 15/13 Q1019=
METAR SBMG 081000Z 03007KT CAVOK 20/11 Q1017=
METAR SBNF 081000Z 20004KT CAVOK 18/18 Q1015=
METAR SBNM 081000Z NIL=
METAR SBPA 081000Z 25002KT 9999 BKN021 OVC045 17/14 Q1018=
METAR SBPF 081000Z NIL=
METAR SBPG 081000Z NIL=
METAR SBPK 081000Z NIL=
METAR SBRG 081000Z NIL=
METAR SBSM 081000Z 29005KT 9999 BKN020 10/09 Q1020=
####018000077####
SPUS72 KWBC 081021
SPECI
KFTW 081019Z 14004KT 10SM SCT013 25/23 A2999=
####018000102####
SPUS73 KWBC 081021
SPECI
KLAR 081018Z AUTO 29003KT 3/4SM BR SCT002 BKN007 BKN019 06/06
A3039=
####018000222####
SAUS20 KNKA 081021
SPECI K4C0 081010Z 06006KT 7SM BKN004 22/21 A2994 =
METAR KBWD 081015Z AUTO 07003KT 10SM BKN016 BKN022 23/23 A3001 RMK 
     AO2 =
METAR KO22 081015Z AUTO 00000KT 10SM CLR 16/12 A2991 RMK AO1 =
####018000089####
SPUS81 KWBC 081021
SPECI
KATT 081018Z AUTO VRB03KT 10SM BKN009 OVC019 25/24 A2996=
####018000080####
SALY31 HLLT 081030
METAR HLLT 081020Z 30004KT 270V330 8000 SKC 31/19 Q1019=
####018000085####
SAKW35 OKBK 081030
METAR OKBK 081030Z 35019KT 8000 -BLDU SKC 47/M11 Q1000 NOSIG=
####018000083####
SAUS74 KWBC 081000 RRD
METAR
KIWA 081016Z AUTO 02003KT 10SM CLR 33/00 A2980=
####018000179####
SAUS75 KWBC 081000 RRA
METAR
PADL 081016Z 33007KT 10SM OVC075 10/08 A2998=
PAUN 081016Z AUTO 11006KT 10SM CLR 12/04 A3002=
PAVD 081016Z 00000KT 10SM OVC080 11/08 A3008=
####018000088####
SPUS81 KWBC 081021
SPECI
KNRS 081018Z AUTO 29008KT 7SM SCT009 OVC014 16/14 A2990=
####018000415####
SPUS17 KAWN 081021 RRB
SPECI KAFF 081015Z AUTO 17006KT 10SM SCT014 BKN027 12/11 A3040 RMK
      AO2 SLP210=
SPECI KAFF 081018Z AUTO 17006KT 10SM BKN014 BKN027 12/12 A3040 RMK
      AO2 BKN014 V SCT SLP213=
SPECI KHST 081014Z AUTO 01003KT 10SM FEW013 SCT080 25/24 A2993 RMK
      AO2 RAE1012DZB1012E1014 SLP136 $=
SPECI KNRS 081018Z AUTO 29008KT 7SM SCT009 OVC014 16/14 A2990 RMK AO2
      TSNO $=
####018000483####
SPNA35 KAWN 081021 RRB
SPECI KHST 081014Z AUTO 01003KT 10SM FEW013 SCT080 25/24 A2993 RMK
      AO2 RAE1012DZB1012E1014 SLP136 $=
SPECI KJFK 081016Z 12006KT 2SM BR BKN003 BKN120 BKN250 24/23 A3004
      RMK AO2 VIS SE-SW 1 1/2 $=
SPECI KNHK 081017Z 09004KT 3SM BR SCT010 26/23 A2999 RMK AO2=
SPECI KNRB 081012Z 30003KT 10SM CLR 24/21 A2999 RMK AO2=
SPECI KWRI 081016Z AUTO 14004KT M1/4SM R18/0300V1200FT R24/1200V1800FT
      FG VV001 23/23 A3001 RMK AO2 SLP163 $=
####018003715####
SAUS90 KWBC 081022
METAR KFPK 081016Z AUTO 00000KT 5SM BR CLR 22/20 A3003 RMK AO2=
METAR KMOP 081014Z AUTO 18004KT 10SM SCT085 OVC100 23/22 A3003 RMK
     AO2=
METAR KCAD 081014Z AUTO 22004KT 10SM OVC110 22/20 A3003 RMK
     AO2=
METAR KMGN 081015Z AUTO 27003KT 10SM SCT110 21/20 A2996 RMK
     AO2=
METAR KHAI 081015Z AUTO 00000KT 3SM BR CLR 21/21 A3006 RMK AO2=
METAR KLWA 081016Z AUTO 00000KT 5SM BR CLR 22/21 A3003 RMK AO2=
METAR KDRM 081016Z AUTO 15004KT 1/2SM FG OVC002 20/20 A2995 RMK
     AO2=
METAR KVLL 081014Z AUTO 25003KT 10SM CLR 25/21 A3006 RMK AO2=
METAR KCFS 081015Z AUTO 00000KT 1SM BR VV007 20/20 A3002 RMK
     AO2=
METAR KOZW 081015Z AUTO 00000KT 7SM CLR 23/20 A3005 RMK AO2=
METAR KRNP 081015Z AUTO 28005KT 7SM SCT055 SCT070 23/21 A3004 RMK
     AO2=
METAR KDUH 081014Z AUTO 00000KT 7SM SCT070 22/18 A3005 RMK AO2=
METAR KJYM 081015Z AUTO 00000KT 5SM BR CLR 20/18 A3007 RMK AO2=
METAR KBAX 081015Z AUTO 00000KT 4SM BR CLR 20/20 A3000 RMK AO2=
METAR KIRS 081015Z AUTO 00000KT 7SM SCT060 21/19 A3005 RMK AO2=
METAR KACB 081015Z AUTO 00000KT 10SM OVC100 24/21 A2997 RMK
     AO2=
METAR KRQB 081014Z AUTO 20003KT 10SM OVC090 22/21 A3004 RMK
     AO2=
METAR KOEB 081015Z AUTO 00000KT 7SM CLR 22/20 A3005 RMK AO2=
METAR K4I3 081016Z AUTO 00000KT 7SM CLR 19/18 A3010 RMK AO2=
METAR KAUM 081015Z AUTO 34005KT 7SM CLR 17/16 A3007 RMK AO2=
METAR KFFX 081015Z AUTO 20003KT 5SM -RA SCT040 BKN070 OVC110 22/22
     A3003 RMK AO2=
METAR KCNB 081018Z AUTO 24007KT 10SM CLR 17/13 A3014 RMK AO2
     T01650132=
METAR KCKN 081015Z AUTO 22003KT 10SM CLR 13/12 A3005 RMK AO2=
METAR KCFE 081015Z AUTO 00000KT 10SM CLR 17/16 A3011 RMK AO2
     T01710156=
METAR KCQM 081017Z AUTO 00000KT 10SM CLR 14/13 A3003 RMK AO2=
METAR KDTL 081015Z AUTO 00000KT 10SM CLR 16/11 A3009 RMK AO2=
METAR KBDH 081015Z AUTO 00000KT 7SM CLR 14/14 A3013 RMK AO2=
METAR KCBG 081015Z AUTO 00000KT 10SM CLR 16/13 A3008 RMK AO2=
METAR KADC 081017Z AUTO 24005KT 10SM CLR 14/13 A3008 RMK AO2=
METAR KHAF 081010Z AUTO 00000KT 9SM OVC006 12/10 A2993 RMK AO2=
METAR KCKC 081015Z AUTO 30006KT 10SM CLR 15/13 A3003 RMK AO2=
METAR KJYG 081015Z AUTO 28004KT 10SM CLR 16/16 A3013 RMK AO2=
METAR KCOQ 081016Z AUTO 28005KT 10SM CLR 14/14 A3005 RMK AO2=
METAR KACQ 081019Z AUTO 00000KT 1/4SM FG VV002 16/15 A3012 RMK
     AO2=
METAR KRGK 081015Z AUTO 00000KT 10SM CLR 18/17 A3006 RMK AO2=
METAR KFSE 081014Z AUTO 19004KT 10SM CLR 11/11 A3005 RMK AO2=
METAR KY70 081015Z AUTO 00000KT 4SM -RA SCT065 SCT075 OVC110 23/22
     A3003 RMK AO2 T02260216=
METAR KUKT 081010Z AUTO 00000KT 3SM CLR 20/20 A3004 RMK AO1=
METAR KFKA 081023Z AUTO 33008KT 10SM CLR 19/18 A3007 RMK AO2
     T01850178=
METAR KCVX 081015Z AUTO 22003KT 10SM SCT100 BKN110 22/20 A2998 RMK
     AO2=
METAR KFKS 081015Z AUTO 00000KT 10SM OVC090 22/20 A2998 RMK
     AO2=
METAR KSLH 081015Z AUTO 19003KT 10SM OVC110 21/21 A2996 RMK
     AO2=
METAR KSJX 081016Z AUTO 24007KT 1 1/4SM BR OVC002 20/18 A2997 RMK
     AO2=
METAR KLDM 081016Z AUTO 21006KT 10SM -RA BKN090 22/21 A3001 RMK
     AO2=
METAR KGOV 081015Z AUTO 23003KT 10SM OVC100 22/22 A3001 RMK
     AO2=
METAR KPZQ 081015Z AUTO 20007KT 7SM CLR 22/22 A2998 RMK AO2=
METAR KHYX 081015Z AUTO 23004KT 7SM CLR 22/20 A3002 RMK AO2=
METAR KPHN 081016Z AUTO 00000KT 1/4SM FG VV002 19/18 A3003 RMK
     AO2=
METAR KONZ 081017Z AUTO 00000KT 10SM SCT075 24/20 A3003 RMK
     AO2=
METAR KISQ 081016Z AUTO 31004KT 10SM -RA OVC006 20/18 A2997 RMK
     AO2=
METAR KRMY 081015Z AUTO 00000KT 7SM CLR 21/19 A3005 RMK AO2=
METAR KOSC 081014Z AUTO 28004KT 3SM BR SCT050 SCT060 21/19 A3001
     RMK AO2=
####018001235####
SAUS90 KWBC 081022 RRA
METAR KTTF 081013Z AUTO 00000KT 7SM SCT075 22/21 A3003 RMK AO2=
METAR KAMN 081016Z AUTO 00000KT 5SM -RA SCT075 OVC085 22/22 A3003
     RMK AO2=
METAR KMCD 081015Z AUTO 00000KT 10SM BKN120 22/18 A2997 RMK
     AO2=
METAR KERY 081016Z AUTO 27007KT 5SM BR OVC003 20/19 A2997 RMK
     AO2=
METAR KDVP 081016Z AUTO 27003KT 10SM CLR 15/13 A3017 RMK AO2
     T01520134=
METAR KCDD 081011Z AUTO 18004KT 10SM CLR 17/16 A3002 RMK AO2=
METAR KFOZ 081013Z AUTO 00000KT 1/4SM FG OVC001 12/11 A3005 RMK
     AO2=
METAR KAQP 081014Z AUTO 23004KT 10SM CLR 13/13 A3011 RMK AO2=
METAR KETH 081014Z AUTO 25006KT 10SM CLR 17/15 A3010 RMK AO2=
METAR KXVG 081016Z AUTO 23004KT 10SM CLR 16/15 A3004 RMK AO2=
METAR KORB 081014Z AUTO 22003KT 10SM CLR 14/13 A3000 RMK AO2=
METAR KMZH 081011Z AUTO 27003KT 10SM CLR 15/14 A3004 RMK AO2=
METAR KBFW 081013Z AUTO 00000KT 10SM CLR 15/13 A3001 RMK AO2=
METAR KVWU 081011Z AUTO 26007KT 10SM CLR 18/14 A3002 RMK AO2=
METAR KOWA 081014Z AUTO 00000KT 7SM CLR 16/16 A3008 RMK AO2=
METAR KCDA 081015Z AUTO 00000KT 1 1/4SM BR VV007 20/18 A3010 RMK
     AO2=
METAR K3A6 081110Z AUTO 36003KT 11/10 A2988 RMK AO1 SLP138
     T01120101 10130 20110 58009=
####018000380####
SPUS90 KWBC 081022
SPECI KATT 081018Z AUTO VRB03KT 10SM BKN009 OVC019 25/24 A2996 RMK
     AO2 RAE0956 P0000 $=
SPECI KNRS 081018Z AUTO 29008KT 7SM SCT009 OVC014 16/14 A2990 RMK
     AO2 TSNO $=
SPECI KMSN 081019Z 00000KT 8SM SCT006 SCT020 BKN025 21/20 A3002
     RMK AO2=
SPECI KLXV 081020Z AUTO 15003KT 10SM FEW009 BKN028 BKN095 07/06
     A3054 RMK AO2 TSNO=
####018000096####
SAUK39 EGRR 080950 CCE
METAR EGXU 080950Z 22007KT 9999 FEW029 SCT150 18/10 Q1016 BLU NOSIG=
####018000110####
SPCN43 CWAO 081020
SPECI CYPY 081020Z AUTO 27003KT 2 1/2SM FEW001 11/11 A2993 RMK VSBY
VRBL 1.0V9.+=

####018000111####
SAAE31 VTBB 081000 RRB
METAR VYYY 081000Z 28010G20KT 8000 BKN015 FEW018CB OVC110 32/25
           Q1006=
####018000118####
SAUS45 KPUB 081021
MTRLXV
SPECI KLXV 081020Z AUTO 15003KT 10SM FEW009 BKN028 BKN095 07/06 
A3054 RMK AO2 TSNO
####018000162####
SAUS99 KWBC 081022
METAR
KBWD 081015Z AUTO 07003KT 10SM BKN016 BKN022 23/23 A3001 RMK
     AO2=
KO22 081015Z AUTO 00000KT 10SM CLR 16/12 A2991 RMK AO1=
####018000076####
SPUS99 KWBC 081022
SPECI
K4C0 081010Z 06006KT 7SM BKN004 22/21 A2994=
####018000634####
SPUS70 KWBC 081022
SPECI
KACV 081019Z AUTO 00000KT 3SM BR OVC001 10/10 A2996 RMK AO2=
KBGM 081019Z 00000KT 2 1/2SM BR CLR 21/18 A3012 RMK AO2=
KCNM 081019Z AUTO 33008KT 9SM -RA SCT011 BKN060 OVC080 19/19 A3012
     RMK AO2 LTG DSNT SE TSE0955 P0005=
KFOK 081019Z AUTO 11005KT 5SM HZ SCT004 SCT011 BKN033 24/21 A3007
     RMK AO2 TSNO=
KILG 081019Z AUTO 00000KT 2 1/2SM BR SCT006 24/23 A3003 RMK AO2
     $=
KITH 081019Z 08004KT 6SM BR CLR 20/18 A3011 RMK AO2=
KOWD 081018Z AUTO 16005KT 10SM SCT016 BKN055 22/19 A3008 RMK
     AO2=
KUTS 081019Z AUTO 00000KT 6SM BR SCT004 BKN019 24/23 A2997 RMK
     AO2=
####018000202####
SAUS80 KWBC 081022
METAR
KTKV 081015Z AUTO 00000KT 1/2SM FG OVC001 17/17 A3003 RMK AO2
     T01720165=
K3A6 081110Z AUTO 36003KT 11/10 A2988 RMK AO1 SLP138 T01120101
     10130 20110 58009=
####018000553####
SAUS70 KWBC 081022
METAR
KFMH 081015Z AUTO 15005KT 8SM BKN004 BKN009 OVC013 21/20 A3010 RMK
     AO2=
KBUU 081017Z AUTO 21003KT 5SM BR SCT090 BKN120 21/20 A3001 RMK
     AO2=
KSUW 081015Z AUTO 20004KT 10SM CLR 16/14 A3003 RMK AO2=
KUES 081015Z AUTO 00000KT 5SM -RA SCT007 BKN080 OVC100 21/20 A3002
     RMK AO2 T02100195=
KUNU 081012Z AUTO 00000KT 3SM BR OVC003 21/19 A3002 RMK AO2
     T02050194=
KBWD 081015Z AUTO 07003KT 10SM BKN016 BKN022 23/23 A3001 RMK
     AO2=
KO22 081015Z AUTO 00000KT 10SM CLR 16/12 A2991 RMK AO1=
####018000381####
SPUS80 KWBC 081022
SPECI
KLWD 081019Z AUTO 36008KT 6SM BR OVC002 21/21 A3008 RMK AO2 CIG
     001V006=
KMHK 081019Z AUTO 00000KT 7SM FEW018 22/21 A3009 RMK AO2=
KMSN 081019Z 00000KT 8SM SCT006 SCT020 BKN025 21/20 A3002 RMK
     AO2=
K4C0 081010Z 06006KT 7SM BKN004 22/21 A2994=
KLXV 081020Z AUTO 15003KT 10SM FEW009 BKN028 BKN095 07/06 A3054
     RMK AO2 TSNO=
####018000094####
SAAF36 KWBC 081000 RRC
METAR
HKJK 081000Z 17005KT 9999 BKN020 OVC100 17/14 Q1024 NOSIG=
####018000053####
SABZ31 KWBC 081000 RRA
METAR
SBTT 081000Z NIL=
####018000602####
SABZ41 KWBC 081000 RRA
METAR
SBAA 081000Z 29003KT CAVOK 19/18 Q1014=
SBAF 081000Z 00000KT 8000 FEW020 16/14 Q1020=
SBBG 081000Z NIL=
SBBH 081000Z 10001KT CAVOK 10/09 Q1023=
SBBI 081000Z 34001KT CAVOK 13/12 Q1020=
SBBU 081000Z 04003KT CAVOK 16/10 Q1020=
SBCO 081000Z 22002KT 4000 -RA OVC020 16/15 Q1018=
SBCV 081000Z NIL=
SBDN 081000Z 06008KT CAVOK 19/08 Q1018=
SBGW 081000Z 07004KT CAVOK 10/09 Q1020=
SBHT 081000Z 00000KT CAVOK ///// Q1013=
SBIH 081000Z 00000KT 9999 3000NE BCFG FEW006 23/22 Q1011=
SBIL 081000Z 27006KT 8000 VCSH FEW020 SCT030 BKN070 22/21 Q101
     8=
####018000469####
SABZ42 KWBC 081000 RRA
METAR
SBJR 081000Z 02005KT CAVOK 18/16 Q1018=
SBME 081000Z 35003KT CAVOK 14/14 Q1018=
SBMT 081000Z 00000KT CAVOK 11/09 Q1020=
SBPK 081000Z NIL=
SBPP 081000Z NIL=
SBSC 081000Z 03010KT CAVOK 19/14 Q1018=
SBSM 081000Z 29005KT 9999 BKN020 10/09 Q1020=
SBST 081000Z 00000KT 9999 SCT025 20/11 Q1016=
SBTU 081000Z 05008KT CAVOK 23/23 Q1015=
SBUR 081000Z 04005KT CAVOK 14/07 Q1021=
SBYS 081000Z 21001KT 5000 BR NSC 07/07 Q1021=
####018000597####
SABZ43 KWBC 081000 RRA
METAR
SBAN 081000Z 12007KT CAVOK 16/12 Q1022=
SBBA 081000Z NIL=
SBBQ 081000Z 23002KT CAVOK 06/06 Q1025=
SBCC 081000Z NIL=
SBES 081000Z 03005KT CAVOK 14/12 Q1018=
SBGA 081000Z NIL=
SBIZ 081000Z 00000KT 9999 FEW030 20/19 Q1014=
SBKG 081000Z 18003KT 9999 FEW007 BKN020 BKN100 21/20 Q1018=
SBLB 081000Z NIL=
SBLP 081000Z 00000KT CAVOK 16/14 Q1019=
SBMZ 081000Z NIL=
SBPJ 081000Z 09004KT CAVOK 18/12 Q1015=
SBPN 081000Z 12002KT CAVOK 18/16 Q1015=
SBTF 081000Z NIL=
SBTK 081000Z NIL=
SBUI 081000Z NIL=
SBUL 081000Z 09006KT CAVOK 14/08 Q1021=
####018000099####
SAUS41 KAKQ 081021
MTRNUI
SPECI KNUI 081020Z AUTO 00000KT 1 1/2SM BR CLR 24/23 A2998 RMK AO2
####018000075####
SABZ43 KWBC 080900 RRB
METAR
SBMK 080900Z 25001KT CAVOK 14/11 Q1022=
####018000154####
SACA31 KWBC 081000 RRD
METAR
MKJP 081000Z 11010KT 9999 FEW020 FEW022CB BKN220 27/19 Q1012=
MYGF 081000Z 07003KT 9999 FEW020 SCT030 24/23 A2996 /=
####018000107####
SAIO31 KWBC 081000 RRD
METAR
VYYY 081000Z 28010G20KT 8000 BKN015 FEW018CB OVC110 32/25
     Q1006=
####018000088####
SPUS41 KWBC 081022
SPECI
KILG 081019Z AUTO 00000KT 2 1/2SM BR SCT006 24/23 A3003=
####018000113####
SAIY43 KWBC 080950 RRD
METAR
LIQW 080955Z 17003KT 9999 FEW030 28/20 Q1020 RMK FEW VIS MIN 9999
     BLU=
####018000095####
SAMM31 KWBC 081000 RRA
METAR
LMML 081015Z 04007KT 360V090 9999 FEW030 29/21 Q1019 NOSIG=
####018000129####
SAMX41 KWBC 081045
METAR
MMAS 081015Z RTD 00000KT 8SM SCT020 BKN070 OVC200 17/14 A3005 RMK
     8/537 HZ OCNL DROPS RTS=
####018000131####
SAPA31 KWBC 081000 RRC
METAR
PKWA 081020Z AUTO 07018G24KT 7SM -RA BKN009 BKN018 OVC039 25/23
     A2987 RMK AO2 T02520234=
####018000157####
SASA31 KWBC 081000 RRE
METAR
SEQU 081000Z 08001KT 9999 SCT100 08/07 Q1026=
SPIM 081000Z AUTO 17003KT 6000 HZ FEW001 OVC024 16/14 Q1013
     NOSIG=
####018000094####
SAUK41 KWBC 080950 CCB
METAR
EGDY 080950Z 25005KT 9999 SCT035 BKN220 20/14 Q1018 NOSIG=
####018000131####
SAXX62 KWBC 081000 RRB
METAR
PKWA 081020Z AUTO 07018G24KT 7SM -RA BKN009 BKN018 OVC039 25/23
     A2987 RMK AO2 T02520234=
####018000239####
SAXX99 KWBC 081000 RRQ
METAR
EEKE 081020Z 34009KT 310V010 CAVOK 22/14 Q1016=
EYKA 081020Z 28008KT 240V360 CAVOK 16/14 Q1016=
KGYH 081015Z AUTO 00000KT 10SM CLR 23/20 A3003 RMK AO2=
WALL 081000Z 00000KT 9999 SCT022 27/25 Q1007=
####018000080####
SPUS51 KWBC 081022
SPECI
KBGM 081019Z 00000KT 2 1/2SM BR CLR 21/18 A3012=
####018000099####
SPUS52 KWBC 081022
SPECI
KCNM 081019Z AUTO 33008KT 9SM -RA SCT011 BKN060 OVC080 19/19 A3012=
####018000087####
SAMD90 KWBC 081021
METAR KDMW 081019Z AUTO 00000KT 4SM HZ CLR 25/21 A3005 RMK AO2=
####018000100####
SAMD90 KWBC 081021
METAR K2W6 081021Z AUTO 00000KT 2 1/2SM 24/24 A3001 RMK AO1 SKY 
OBSCURED=
####018000108####
SAMD90 KWBC 081021
METAR KCGE 081019Z AUTO 08003KT 1 1/4SM SCT065 BKN075 OVC090 25/25 
A3001 RMK AO1=
####018000081####
SPUS53 KWBC 081022
SPECI
KMHK 081019Z AUTO 00000KT 7SM FEW018 22/21 A3009=
####018000088####
SAMD90 KWBC 081021
METAR K2G4 081020Z AUTO 00000KT 10SM SCT065 22/13 A3019 RMK AO1=
####018000084####
SAMD90 KWBC 081021
METAR KCBE 081021Z AUTO 00000KT 5SM CLR 20/18 A3011 RMK AO1=
####018000096####
SPUS53 KWBC 081022
SPECI
KLXV 081020Z AUTO 15003KT 10SM FEW009 BKN028 BKN095 07/06 A3054=
####018000090####
SPUS53 KWBC 081022
SPECI
KMSN 081019Z 00000KT 8SM SCT006 SCT020 BKN025 21/20 A3002=
####018000087####
SAMD90 KWBC 081021
METAR KCGS 081025Z AUTO 00000KT 5SM SCT110 26/23 A3001 RMK AO1=
####018002818####
SAUS20 KNKA 081021
METAR KAWG 081015Z AUTO 00000KT 5SM SCT003 OVC009 21/20 A3005 RMK 
     AO2=
METAR KAXA 081015Z AUTO 33004KT 10SM CLR 17/16 A3012 RMK AO2=
METAR KBNW 081015Z AUTO 33007KT 10SM CLR 20/17 A3011 RMK AO2=
SPECI KBVO 081020Z AUTO 00000KT 10SM BKN022 BKN048 22/22 A3005 RMK 
    AO2=
METAR KCAV 081015Z AUTO 31004KT 5SM CLR 19/18 A3011 RMK AO2=
METAR KCBF 081015Z AUTO 36006KT 10SM CLR 19/15 A3013 RMK AO2=
METAR KCCY 081015Z AUTO 32006KT 10SM CLR 20/17 A3008 RMK AO2=
METAR KCIN 081015Z AUTO 32003KT 7SM CLR 17/15 A3013 RMK AO2=
METAR KCNC 081015Z AUTO 33004KT 7SM CLR 20/18 A3008 RMK AO2=
METAR KCSQ 081015Z AUTO 02007KT 10SM BKN015 OVC070 20/19 A3012 
     RMK AO2=
METAR KDEH 081015Z AUTO 30003KT 3 1/2SM SCT004 20/18 A3008 RMK AO2=
METAR KDNS 081015Z AUTO 35003KT 10SM CLR 20/16 A3016 RMK AO2=
SPECI KDXR 081020Z AUTO 13003KT 1 3/4SM BR BKN003 BKN007 23/22 A3007 
    RMK AO2 CIG 002V006=
METAR KEOK 081015Z AUTO 00000KT 5SM HZ SCT001 22/19 A3004 RMK AO2=
METAR KFFL 081015Z AUTO 32006KT 10SM CLR 22/20 A3006 RMK AO2=
METAR KFSW 081015Z AUTO 00000KT 10SM BKN004 22/21 A3005 RMK AO2=
METAR KFXY 081015Z AUTO 30003KT 10SM CLR 17/16 A3011 RMK AO2=
METAR KGGI 081015Z AUTO 31003KT 7SM CLR 21/19 A3008 RMK AO2=
METAR KHNR 081015Z AUTO 00000KT 5SM CLR 17/17 A3016 RMK AO2=
METAR KI75 081015Z AUTO 34005KT 7SM SCT021 SCT044 20/19 A3008 RMK 
     AO2=
METAR KICL 081015Z AUTO 01004KT 7SM CLR 21/18 A3010 RMK AO2=
METAR KIFA 081015Z AUTO 32006KT 10SM SCT110 20/18 A3009 RMK AO2=
METAR KIIB 081015Z AUTO 31004KT 7SM CLR 20/19 A3006 RMK AO1=
METAR KIKV 081015Z AUTO 34004KT 10SM CLR 20/18 A3009 RMK AO2=
METAR KLRJ 081015Z AUTO 00000KT 5SM CLR 15/14 A3016 RMK AO2=
SPECI KMGJ 081020Z AUTO 00000KT 2 1/2SM BR CLR 22/20 A3004 RMK AO2=
METAR KMPZ 081015Z AUTO 31004KT 1 1/4SM OVC002 22/21 A3004 RMK AO2=
METAR KMUT 081015Z AUTO 00000KT 10SM OVC012 23/22 A3002 RMK AO2=
METAR KMXO 081015Z AUTO 30003KT 1 3/4SM BKN027 20/18 A3004 RMK AO2=
METAR KNSE 080956Z AUTO 00000KT 3/4SM BR CLR 23/21 A3002 RMK AO2 SLP149
      T02280211 $=
METAR KORC 081015Z AUTO 31003KT 10SM CLR 16/16 A3016 RMK AO2=
METAR KOXV 081015Z AUTO 33005KT 10SM CLR 21/20 A3008 RMK AO2=
METAR KPEA 081015Z AUTO 33003KT 10SM CLR 20/20 A3008 RMK AO2=
SPECI KPIL 081020Z AUTO VRB03KT 10SM FEW021 SCT033 28/26 A2976 RMK 
    AO2 RAE11 P0007 $=
METAR KRDK 081015Z AUTO 00000KT 7SM SCT090 21/18 A3011 RMK AO2=
METAR KSDA 081015Z AUTO 02006KT 5SM BKN005 21/19 A3011 RMK AO2=
METAR KSHL 081015Z AUTO 00000KT 2SM CLR 14/13 A3017 RMK AO2=
METAR KTNU 081015Z AUTO 35006KT 10SM CLR 21/18 A3008 RMK AO2=
METAR KVTI 081015Z AUTO 32004KT 7SM CLR 20/20 A3006 RMK AO2=
METAR KWRB 080955Z 34003KT 10SM -RA CLR 20/20 A3001 RMK AO2A RAB0858
      SLP161 P0000 T02050205=
####018001116####
SABZ01 SBBR 081000
METAR SBBE 081000Z 10005KT 9999 FEW017 BKN080 25/22 Q1013=
METAR SBBR 081000Z 33002KT CAVOK 13/09 Q1023=
METAR SBBV 081000Z 08002KT 9999 SCT025 SCT090 25/23 Q1012=
METAR SBCF 081000Z 15002KT CAVOK 10/08 Q1023=
METAR SBCG 081000Z 08009KT CAVOK 15/08 Q1016=
METAR SBCR 081000Z 15008KT CAVOK 23/13 Q1013=
METAR SBCT 081000Z 21001KT CAVOK 10/09 Q1021=
METAR SBEG 081000Z 00000KT 9999 FEW010 SCT100 25/22 Q1012=
METAR SBFI 081000Z 24002KT 9999 FEW020 SCT100 15/13 Q1015=
METAR SBFL 081000Z 19010G20KT CAVOK 22/17 Q1016=
METAR SBFZ 081000Z 15005KT 9999 SCT017 BKN100 25/21 Q1014=
METAR SBGR 081000Z 08001KT CAVOK 10/09 Q1021=
METAR SBKP 081000Z 09005KT 8000 NSC 10/08 Q1021=
METAR SBLO 081000Z 23002KT CAVOK 15/13 Q1019=
METAR SBMQ 081000Z 34001KT 9999 FEW015 25/25 Q1013=
METAR SBPA 081000Z 25002KT 9999 BKN021 OVC045 17/14 Q1018=
METAR SBPP 081000Z NIL=
METAR SBRB 081000Z 00000KT CAVOK 22/22 Q1012=
METAR SBSJ 081000Z 00000KT 9000 SCT012 10/09 Q1021=
METAR SBSL 081000Z 09003KT 9999 FEW017 BKN100 26/24 Q1013=
METAR SBSN 081000Z 16002KT CAVOK 23/22 Q1012=
####018000098####
SAEU31 BKPR 081030
METAR BKPR 081030Z 02005KT 9999 SCT030 BKN070 16/10 Q1021 NOSIG RMK
BLU=
####018000106####
SATU20 LTAA 080950 RRA
METAR LTBU 081020Z 33009KT 9999 SCT030 BKN100 22/13 Q1014 RMK RWY23
33010KT=
####018000183####
SASB31 VCCC 081010
VCBI 081010Z 22009KT 9000 TS FEW016 SCT019CB BKN100 29/25 Q1008
    NOSIG=
VRMM 081000Z 35011KT 9999 -SHRA FEW017TCU BKN110 29/24 Q1009 TEMPO
5000 -SHRA=
####018000111####
SAIY42 LIIB 081000 CCA
METAR LIQW 080955Z 17003KT 9999 FEW030 28/20 Q1020 RMK FEW VIS MIN
      9999 BLU=
####018000082####
SALY31 HLLT 081030
METAR HLLT 081020Z 
30004KT 270V330 8000 SKC 31/19 Q1019=
####018000099####
SPUS72 KWBC 081022
SPECI
KCNM 081019Z AUTO 33008KT 9SM -RA SCT011 BKN060 OVC080 19/19 A3012=
####018000124####
SAMP31 LMMM 081030
METAR HLLT NIL=
METAR HLLB NIL=
METAR LMML 081015Z 04007KT 360V090 9999 FEW030 29/21 Q1019 NOSIG =
####018000081####
SPUS73 KWBC 081022
SPECI
KMHK 081019Z AUTO 00000KT 7SM FEW018 22/21 A3009=
####018000090####
SPUS73 KWBC 081022
SPECI
KMSN 081019Z 00000KT 8SM SCT006 SCT020 BKN025 21/20 A3002=
####018000084####
SPUS74 KWBC 081022
SPECI
KACV 081019Z AUTO 00000KT 3SM BR OVC001 10/10 A2996=
####018000083####
SACN92 CWAO 080800 RRH
WJW SA 0800 AUTO8 M M M 210/09/06/2002/M/ 1012 25MM=

####018000083####
SACN92 CWAO 080700 RRJ
WJW SA 0700 AUTO8 M M M 206/11/06/2002/M/ 3013 08MM=

####018000077####
SACN89 CWAO 080900 RRH
WDP SA 0900 AUTO7 M M M M/16/M/MMMM/M/ M 8MMM=

####018000079####
SACN91 CWAO 081000 RRC
WIX SA 1000 AUTO7 M M M M/21/21/0801/M/M M 31MM=

####018000138####
SACN96 CWAO 081000 RRC
XKA SA 1000 AUTO8 M M M 116/19/16/2906/M/ 6005 65MM=
ZWN SA 1000 AUTO8 M M M 203/12/11/2207/M/ 8003 09MM=

####018000106####
SACN87 CWAO 081000 RRB
WRO SA 1000 AUTO8 M M M 190/13/11/2818+24/M/ PK WND 2924 0955Z 3001
53MM=

####018000163####
SACN97 CWAO 081000 RRC
XLU SA 1000 AUTO8 M M M 134/07/06/2501/M/ 3002 43MM=
XQA SA 1000 AUTO8 M M M 121/08/08/MMMM/M/0009 PCPN 0.9MM PAST HR
6016 77MM=

####018000138####
SACN92 CWAO 080900 RRH
WJW SA 0900 AUTO8 M M M 216/08/05/2003/M/ 1012 57MM=
WKD SA 0900 AUTO7 M M M 171/14/14/MMMM/M/ 5000 05MM=

####018000139####
SACN88 CWAO 081000 RRC
AJT SA 1000 AUTO8 M M M 180/18/15/0703/M/ 1003 66MM=
WDO SA 1000 AUTO8 M M M 206/10/09/1704/M/M 8001 08MM=

####018000083####
SACN97 CWAO 080900 RRH
XLU SA 0900 AUTO8 M M M 133/07/06/0000/M/ 2002 39MM=

####018000083####
SACN78 CWAO 081000 RRC
TNK SA 1000 AUTO8 M M M 171/17/17/0000/M/ 6002 36MM=

####018000078####
SACN59 CWAO 081000 RRC
XSC SA 1000 AUTO8 M M M M/12/10/2907/M/ M 98MM=

####018000482####
SACN98 CWAO 081000 RRC
XAF SA 1000 AUTO8 M M M M/13/11/2405/M/ M 48MM=
XBR SA 1000 AUTO8 M M M M/10/07/3009/M/ M 12MM=
XDP SA 1000 AUTO8 M M M M/11/10/0000/M/ M 34MM=
XFR SA 1000 AUTO8 M M M M/15/12/0411/M/0033 M 26MM=
XHR SA 1000 AUTO8 M M M M/13/09/2108/M/ M 92MM=
XKM SA 1000 AUTO8 M M M M/11/09/2306/M/ M 66MM=
XOY SA 1000 AUTO8 M M M M/10/08/2703/M/ M 11MM=
XPA SA 1000 AUTO8 M M M M/15/11/2003/M/ M 19MM=
XRL SA 1000 AUTO8 M M M M/13/11/2903/M/ M 76MM=

####018000140####
SPCN42 CWAO 081020
SPECI CYIV 081020Z 32004KT 10SM -SHRA FEW005 SCT035 BKN045 BKN050
OVC080 RETS RMK SF1SC3SC2SC2AC1 CB MOVG E FG=

####018000083####
SACN89 CWAO 081000 RRC
WBO SA 1000 AUTO8 M M M 217/10/10/1703/M/ 7002 55MM=

####018000138####
SACN92 CWAO 081000 RRC
WJU SA 1000 AUTO8 M M M 203/12/11/2809/M/ 3004 86MM=
WJW SA 1000 AUTO8 M M M 222/07/05/2002/M/ 3010 88MM=

####018000103####
SACN94 CWAO 081000 RRC
WRU SA 1000 AUTO8 M M M 154/13/12/3517/M/ PK WND 3521 0927Z 1001
40MM=

####018000093####
SAMD90 KWBC 081021
METAR KESN 081024Z AUTO 00000KT 1 1/4SM BR VV007 22/22 A3004 RMK AO2=
####018000088####
SAMD90 KWBC 081021
METAR KFME 081021Z AUTO 00000KT 2 1/2SM CLR 20/20 A3003 RMK AO1=
####018000084####
SAMD90 KWBC 081021
METAR KW29 081021Z AUTO 00000KT 2SM CLR 23/23 A3000 RMK AO1=
####018000090####
SAMD90 KWBC 081021
METAR KFDK 081017Z AUTO 00000KT 5SM HZ SCT100 24/21 A3004 RMK AO2=
####018000084####
SPUS81 KWBC 081022
SPECI
KLWD 081019Z AUTO 36008KT 6SM BR OVC002 21/21 A3008=
####018000096####
SPUS81 KWBC 081022
SPECI
KLXV 081020Z AUTO 15003KT 10SM FEW009 BKN028 BKN095 07/06 A3054=
####018000081####
SPUS81 KWBC 081022
SPECI
KMHK 081019Z AUTO 00000KT 7SM FEW018 22/21 A3009=
####018000090####
SPUS81 KWBC 081022
SPECI
KMSN 081019Z 00000KT 8SM SCT006 SCT020 BKN025 21/20 A3002=
####018000792####
SAEU KAWN 081000 RRX
METAR COR EGDY 080950Z 25005KT 9999 SCT035 BKN220 20/14 Q1018 BLU NOSIG=
METAR EGXU 080950Z 22007KT 9999 FEW029 SCT150 18/10 Q1016 BLU NOSIG=
METAR EGYE 080950Z 24012KT 9999 FEW030 SCT100 ///// Q1018 BLU=
METAR LGKC 080950Z VRB06KT CAVOK 30/20 Q1013=
METAR LIEE 080945Z 16010KT 9999 FEW020 28/19 Q1019 NOSIG=
METAR LIEE 080955Z 16010KT 9999 FEW020 28/19 Q1019 RMK FEW VIS MIN
      9999 WIND THR14 18012KT BLU=
METAR LIMT 080955Z /////KT 9999 BKN012TCU 15/12 Q1024 RMK BKN MON LIB
      VAL NIL VIS MIN 9999=
METAR LIQW 080955Z 17003KT 9999 FEW030 28/20 Q1020 RMK FEW VIS MIN
      9999 BLU=
METAR LIQW 080955Z 17003KT 9999 FEW030 28/20 Q1020 RMK FEW VIS MIN
      9999 BLU=
METAR LMML 081015Z 04007KT 360V090 9999 FEW030 29/21 Q1019 NOSIG=
####018000698####
SAXX70 KAWN 081000 RRO
METAR KQAE 080955Z 34010G17KT 9000 HZ CLR 43/06 A2964 RMK SLP033=
METAR KQFU 081000Z AUTO 21001KT 7SM -DZ OVC050 24/19 A2988 RMK A02=
METAR KQEI 081020Z AUTO 12004KT 7SM CLR 24/19 A2993 RMK A02=
METAR KQEN 081020Z AUTO 24006KT 7SM SCT070 20/16 A3040 RMK A02=
METAR KQEP 081020Z AUTO 04002KT 7SM SCT095 26/18 A2986 RMK A02=
METAR KQER 081020Z AUTO 24001KT 7SM DZ OVC045 24/19 A2988 RMK A02=
METAR KQES 081020Z AUTO 26003KT 7SM BKN120 23/20 A2983 RMK A02=
METAR KQEY 081020Z AUTO 30003KT 7SM FEW100 BKN110 27/17 A2958 RMK A02=
METAR KQFV 081020Z AUTO 04002KT 7SM OVC025 23/19 A3001 RMK A02=
METAR KQEV 081030Z AUTO 30002KT 7SM SCT085 27/20 A2978 RMK A02=
####018000086####
SPCN46 CWAO 081021
SPECI CYBC 081021Z AUTO 08003KT 3 1/2SM OVC000 13/12 A3002=

####018001744####
SAUS20 KNKA 081022
METAR K0R3 081019Z AUTO 00000KT 7SM CLR 25/25 A2998 RMK AO2 LTG 
     DSNT SW=
SPECI KABR 081021Z AUTO 00000KT 1 3/4SM BR CLR 14/13 A3013 RMK AO2=
SPECI KAQW 081021Z AUTO 00000KT 2SM BR SCT100 19/18 A3006 RMK AO2=
SPECI KBAZ 081021Z AUTO 04004KT 8SM -RA FEW010 BKN015 OVC050 25/24 
    A2992 RMK AO2 RAB09 P0001=
SPECI KBOK 081022Z AUTO 00000KT 1 3/4SM BR OVC002 09/09 A2996 RMK 
    AO2 VIS 1V3 $=
METAR KBQP 081027Z AUTO 07003KT 4SM BR CLR 24/24 A3005 RMK AO2=
METAR KCTZ 081020Z AUTO 00000KT 5SM BR CLR 23/21 A2994 RMK AO2=
METAR KCWV 081028Z AUTO 29003KT 10SM CLR 21/21 A3000 RMK AO2=
METAR KEBS 081015Z AUTO 33004KT 7SM CLR 18/17 A3011 RMK AO2=
METAR KFQD 081019Z AUTO 33003KT 10SM CLR 22/17 A3004 RMK AO2=
SPECI KHAO 081021Z AUTO 00000KT 2SM BR FEW001 21/19 A3009 RMK AO2=
SPECI KHIB 081021Z AUTO 00000KT 1/2SM FG CLR 08/08 A3004 RMK AO2=
METAR KHRJ 081021Z AUTO 33003KT 5SM HZ CLR 25/21 A2995 RMK AO2=
SPECI KJEF 081021Z AUTO 35003KT 10SM FEW004 SCT060 OVC090 23/22 
    A3003 RMK AO2 P0001=
METAR KJNX 081019Z AUTO 00000KT 4SM SCT120 21/21 A2995 RMK AO2=
METAR KJYL 081021Z AUTO 00000KT 10SM CLR 23/21 A3000 RMK AO2=
METAR KMQI 081016Z AUTO 07009KT 10SM CLR 25/23 A2995 RMK AO2=
SPECI KPQL 081021Z AUTO 00000KT 1/4SM FG VV001 23/23 A3002 RMK AO2=
SPECI KROW 081021Z AUTO 35005KT 10SM BKN029 BKN100 19/16 A3018 RMK 
    AO2 TSNO=
METAR KSME 081020Z AUTO 00000KT 4SM BR 21/19 A3009 RMK AO2=
METAR KTVK 081015Z AUTO 29003KT 9SM CLR 20/20 A3008 RMK AO2=
METAR KUKF 081021Z AUTO 00000KT 7SM CLR 21/17 A3008 RMK AO1=
METAR KUNV 081020Z AUTO 00000KT 4SM BR CLR 19/18 A3010 RMK AO2 
     T01880177=
SPECI KZZV 081021Z AUTO 00000KT 2SM BR CLR 19/18 A3009 RMK AO2=
####018000076####
SPUS31 KKCI 081018
SPECI
K9F2 081018Z 11007KT 7SM SCT030 27/24 A2999=
####018003112####
SAUS99 KWBC 081023
METAR
KAWG 081015Z AUTO 00000KT 5SM SCT003 OVC009 21/20 A3005 RMK
     AO2=
KAXA 081015Z AUTO 33004KT 10SM CLR 17/16 A3012 RMK AO2=
KBNW 081015Z AUTO 33007KT 10SM CLR 20/17 A3011 RMK AO2=
KCAV 081015Z AUTO 31004KT 5SM CLR 19/18 A3011 RMK AO2=
KCBF 081015Z AUTO 36006KT 10SM CLR 19/15 A3013 RMK AO2=
KCCY 081015Z AUTO 32006KT 10SM CLR 20/17 A3008 RMK AO2=
KCIN 081015Z AUTO 32003KT 7SM CLR 17/15 A3013 RMK AO2=
KCNC 081015Z AUTO 33004KT 7SM CLR 20/18 A3008 RMK AO2=
KCSQ 081015Z AUTO 02007KT 10SM BKN015 OVC070 20/19 A3012 RMK
     AO2=
KDEH 081015Z AUTO 30003KT 3 1/2SM SCT004 20/18 A3008 RMK AO2=
KDNS 081015Z AUTO 35003KT 10SM CLR 20/16 A3016 RMK AO2=
KEOK 081015Z AUTO 00000KT 5SM HZ SCT001 22/19 A3004 RMK AO2=
KFFL 081015Z AUTO 32006KT 10SM CLR 22/20 A3006 RMK AO2=
KFSW 081015Z AUTO 00000KT 10SM BKN004 22/21 A3005 RMK AO2=
KFXY 081015Z AUTO 30003KT 10SM CLR 17/16 A3011 RMK AO2=
KGGI 081015Z AUTO 31003KT 7SM CLR 21/19 A3008 RMK AO2=
KHNR 081015Z AUTO 00000KT 5SM CLR 17/17 A3016 RMK AO2=
KI75 081015Z AUTO 34005KT 7SM SCT021 SCT044 20/19 A3008 RMK
     AO2=
KICL 081015Z AUTO 01004KT 7SM CLR 21/18 A3010 RMK AO2=
KIFA 081015Z AUTO 32006KT 10SM SCT110 20/18 A3009 RMK AO2=
KIIB 081015Z AUTO 31004KT 7SM CLR 20/19 A3006 RMK AO1=
KIKV 081015Z AUTO 34004KT 10SM CLR 20/18 A3009 RMK AO2=
KLRJ 081015Z AUTO 00000KT 5SM CLR 15/14 A3016 RMK AO2=
KMPZ 081015Z AUTO 31004KT 1 1/4SM OVC002 22/21 A3004 RMK AO2=
KMUT 081015Z AUTO 00000KT 10SM OVC012 23/22 A3002 RMK AO2=
KMXO 081015Z AUTO 30003KT 1 3/4SM BKN027 20/18 A3004 RMK AO2=
KNSE 080956Z AUTO 00000KT 3/4SM BR CLR 23/21 A3002 RMK AO2 SLP149
     T02280211 $=
KORC 081015Z AUTO 31003KT 10SM CLR 16/16 A3016 RMK AO2=
KOXV 081015Z AUTO 33005KT 10SM CLR 21/20 A3008 RMK AO2=
KPEA 081015Z AUTO 33003KT 10SM CLR 20/20 A3008 RMK AO2=
KRDK 081015Z AUTO 00000KT 7SM SCT090 21/18 A3011 RMK AO2=
KSDA 081015Z AUTO 02006KT 5SM BKN005 21/19 A3011 RMK AO2=
KSHL 081015Z AUTO 00000KT 2SM CLR 14/13 A3017 RMK AO2=
KTNU 081015Z AUTO 35006KT 10SM CLR 21/18 A3008 RMK AO2=
KVTI 081015Z AUTO 32004KT 7SM CLR 20/20 A3006 RMK AO2=
KWRB 080955Z 34003KT 10SM -RA CLR 20/20 A3001 RMK AO2A RAB0858
     SLP161 P0000 T02050205=
K0R3 081019Z AUTO 00000KT 7SM CLR 25/25 A2998 RMK AO2 LTG DSNT
     SW=
KBQP 081027Z AUTO 07003KT 4SM BR CLR 24/24 A3005 RMK AO2=
KCTZ 081020Z AUTO 00000KT 5SM BR CLR 23/21 A2994 RMK AO2=
KCWV 081028Z AUTO 29003KT 10SM CLR 21/21 A3000 RMK AO2=
KEBS 081015Z AUTO 33004KT 7SM CLR 18/17 A3011 RMK AO2=
KFQD 081019Z AUTO 33003KT 10SM CLR 22/17 A3004 RMK AO2=
KHRJ 081021Z AUTO 33003KT 5SM HZ CLR 25/21 A2995 RMK AO2=
KJNX 081019Z AUTO 00000KT 4SM SCT120 21/21 A2995 RMK AO2=
KJYL 081021Z AUTO 00000KT 10SM CLR 23/21 A3000 RMK AO2=
KMQI 081016Z AUTO 07009KT 10SM CLR 25/23 A2995 RMK AO2=
KSME 081020Z AUTO 00000KT 4SM BR 21/19 A3009 RMK AO2=
KTVK 081015Z AUTO 29003KT 9SM CLR 20/20 A3008 RMK AO2=
KUKF 081021Z AUTO 00000KT 7SM CLR 21/17 A3008 RMK AO1=
KUNV 081020Z AUTO 00000KT 4SM BR CLR 19/18 A3010 RMK AO2
     T01880177=
####018001075####
SPUS99 KWBC 081023
SPECI
KBVO 081020Z AUTO 00000KT 10SM BKN022 BKN048 22/22 A3005 RMK
     AO2=
KDXR 081020Z AUTO 13003KT 1 3/4SM BR BKN003 BKN007 23/22 A3007 RMK
     AO2 CIG 002V006=
KMGJ 081020Z AUTO 00000KT 2 1/2SM BR CLR 22/20 A3004 RMK AO2=
KPIL 081020Z AUTO VRB03KT 10SM FEW021 SCT033 28/26 A2976 RMK AO2
     RAE11 P0007 $=
KABR 081021Z AUTO 00000KT 1 3/4SM BR CLR 14/13 A3013 RMK AO2=
KAQW 081021Z AUTO 00000KT 2SM BR SCT100 19/18 A3006 RMK AO2=
KBAZ 081021Z AUTO 04004KT 8SM -RA FEW010 BKN015 OVC050 25/24 A2992
     RMK AO2 RAB09 P0001=
KBOK 081022Z AUTO 00000KT 1 3/4SM BR OVC002 09/09 A2996 RMK AO2
     VIS 1V3 $=
KHAO 081021Z AUTO 00000KT 2SM BR FEW001 21/19 A3009 RMK AO2=
KHIB 081021Z AUTO 00000KT 1/2SM FG CLR 08/08 A3004 RMK AO2=
KJEF 081021Z AUTO 35003KT 10SM FEW004 SCT060 OVC090 23/22 A3003
     RMK AO2 P0001=
KPQL 081021Z AUTO 00000KT 1/4SM FG VV001 23/23 A3002 RMK AO2=
KROW 081021Z AUTO 35005KT 10SM BKN029 BKN100 19/16 A3018 RMK AO2
     TSNO=
KZZV 081021Z AUTO 00000KT 2SM BR CLR 19/18 A3009 RMK AO2=
####018000247####
SASW31 LSSW 081020
METAR LSZH 081020Z VRB02KT CAVOK 26/13 Q1022 NOSIG=
METAR LSGG 081020Z VRB02KT CAVOK 28/12 Q1022 NOSIG=
METAR LSZB 081020Z 33006KT 280V010 CAVOK 27/14 Q1022 NOSIG=
METAR LSZA 081020Z 19005KT 9999 SCT055 27/13 Q1023 NOSIG=
####018000073####
SAEW37 LEMM 081000 RRA
METAR LEGT 081000Z 00000KT CAVOK 31/13 Q1020=
####018000114####
SPTD31 TTPP 081014
SPECI
TTCP 081014Z 09006KT 7000 -SHRA VCSH FEW010CB SCT012TCU BKN035 24/23
Q1013 RERA=
 
####018000433####
SAPO61 LPAM 081000
METAR LPAR 081000Z /////KT CAVOK 24/18 Q1014 RMK ESTMD WND 18007KT=
METAR LPBJ 081000Z 19009KT 170V220 CAVOK 27/18 Q1016=
METAR LPMR 081000Z 27014KT 7000 SCT005 20/17 Q1014=
METAR LPMT 081000Z 22006KT CAVOK 25/18 Q1015=
METAR LPOV 081000Z 24008KT 9999 SCT007 21/18 Q1014=
METAR LPST 081000Z 30009KT 4000 BR BKN008 20/17 Q1016=
METAR LPLA 081000Z 22004KT 9999 VCSH FEW008 SCT016 BKN028 20/18
      Q1024=
####018000136####
SALV32 EVRA 081020
METAR EVLA 081020Z 31006KT 260V030 CAVOK 22/16 Q1018=
METAR EVVA 081020Z AUTO 34010KT 300V010 CAVOK 21/17 Q1018=
####018000269####
SACA31 TNCC 080900
METAR TNCC 080900Z 09010KT 9999 SCT017 28/25 Q1011 NOSIG=
METAR TNCA 080900Z 08014KT 050V110 9999 FEW016 29/24 Q1010 NOSIG=
METAR TNCB 080900Z AUTO /////KT //// ////// 28/25 Q1011 NOSIG=
METAR TNCE 080900Z AUTO 06008KT //// ////// 27/24 Q1015=
####018000132####
SPCN47 CWAO 081022
SPECI CYZE 081022Z AUTO 16007KT 4SM BR SCT002 BKN008 OVC160 20/20
 A2997 RMK SLP150 DENSITY ALT 1300FT=

####018000099####
SAAK48 PANC 081023
MTRASY
SPECI PASY 081021Z AUTO 02018KT 10SM OVC004 A2974 RMK AO2 TSNO PNO
####018000104####
SATU20 LTAA 080950 RRA
METAR LTBU 081020Z 33009KT 9999 SCT030 BKN100 22/13 Q1014 RMK RWY23 33010KT=
####018000086####
SAMP31 LMMM 081030 RRA
METAR HLLT 081020Z
30004KT 270V330 8000 SKC 31/19 Q1019=
####018000138####
SALV32 EVRA 081020
METAR EVLA 081020Z 31006KT 260V030 CAVOK 22/16 Q1018=
METAR EVVA 081020Z AUTO 34010KT 300V010 CAVOK 21/17 Q1018=
####018000086####
SAMP31 LMMM 081030 RRA
METAR HLLT 081020Z 
30004KT 270V330 8000 SKC 31/19 Q1019=
####018000085####
SAMP31 LMMM 081030 RRA
METAR HLLT 081020Z
30004KT 270V330 8000 SKC 31/19 Q1019=
####018000186####
SATU20 LTAA 080950 RRB
METAR LTAN 081020Z 32007KT 9999 FEW040 31/12 Q1011 NOSIG RMK RWY19
03008KT=
METAR LTAU 081020Z VRB03KT 9999 SCT040 31/12 Q1011 NOSIG RMK RWY07 
VRB02KT=
####018000251####
SASW31 LSSW 081020
METAR LSZH 081020Z VRB02KT CAVOK 26/13 Q1022 NOSIG=
METAR LSGG 081020Z VRB02KT CAVOK 28/12 Q1022 NOSIG=
METAR LSZB 081020Z 33006KT 280V010 CAVOK 27/14 Q1022 NOSIG=
METAR LSZA 081020Z 19005KT 9999 SCT055 27/13 Q1023 NOSIG=
####018000330####
SAIN31 VABB 081010
METAR VAAH 081010Z 19007KT 4000 HZ FEW018 SCT080 31/24 Q1003 BECMG
    5000=
METAR VOHS 081010Z 26013KT 5000 HZ SCT010 SCT015 BKN080 26/22 Q1010
    NOSIG=
METAR VOMM 081010Z 12006KT 4000 HZ SCT015 SCT100 OVC200 28/26 Q1008
     NOSIG=
METAR VOTR 081010Z VRB04KT 6000 SCT020 OVC100 34/23 Q1008=
####018000085####
SPUS81 KWBC 081023
SPECI
KNUI 081020Z AUTO 00000KT 1 1/2SM BR CLR 24/23 A2998=
####018000177####
SAUS17 KAWN 081000 RRG
METAR KFMH 081015Z AUTO 15005KT 8SM BKN004 BKN009 OVC013 21/20 A3010
      RMK AO2=
METAR KIWA 081016Z AUTO 02003KT 10SM CLR 33/00 A2980 RMK AO2=
####018000542####
SADL31 EDZO 081020
METAR EDDF 081020Z VRB03KT CAVOK 28/09 Q1021 NOSIG=
METAR EDDH 081020Z 16008KT CAVOK 28/12 Q1019 NOSIG=
METAR EDDK 081020Z 16005KT 120V190 CAVOK 29/10 Q1020 NOSIG=
METAR EDDL 081020Z 21005KT 180V250 CAVOK 29/09 Q1019 NOSIG=
METAR EDDM 081020Z 07007KT CAVOK 23/08 Q1023 NOSIG=
METAR EDDN 081020Z 13006KT 090V170 CAVOK 26/07 Q1022 NOSIG=
METAR EDDS 081020Z VRB03KT CAVOK 26/09 Q1022 NOSIG=
METAR EDDT 081020Z 16004KT CAVOK 25/06 Q1021 NOSIG=
METAR EDDV 081020Z 21006G17KT 170V260 CAVOK 28/10 Q1020 NOSIG=
####018000756####
SAUS90 KWBC 081024
METAR KDMW 081019Z AUTO 00000KT 4SM HZ CLR 25/21 A3005 RMK AO2=
METAR K2W6 081021Z AUTO 00000KT 2 1/2SM 24/24 A3001 RMK AO1 SKY
     OBSCURED=
METAR KCGE 081019Z AUTO 08003KT 1 1/4SM SCT065 BKN075 OVC090 25/25
     A3001 RMK AO1=
METAR KCBE 081021Z AUTO 00000KT 5SM CLR 20/18 A3011 RMK AO1=
METAR K2G4 081020Z AUTO 00000KT 10SM SCT065 22/13 A3019 RMK
     AO1=
METAR KCGS 081025Z AUTO 00000KT 5SM SCT110 26/23 A3001 RMK AO1=
METAR KESN 081024Z AUTO 00000KT 1 1/4SM BR VV007 22/22 A3004 RMK
     AO2=
METAR KFME 081021Z AUTO 00000KT 2 1/2SM CLR 20/20 A3003 RMK
     AO1=
METAR KFDK 081017Z AUTO 00000KT 5SM HZ SCT100 24/21 A3004 RMK
     AO2=
METAR KW29 081021Z AUTO 00000KT 2SM CLR 23/23 A3000 RMK AO1=
####018000227####
SPUS90 KWBC 081024
SPECI K9F2 081018Z 11007KT 7SM SCT030 27/24 A2999=
SPECI KMWT 081022Z AUTO 14003KT 10SM SCT002 23/22 A3005 RMK AO2
     TSNO=
SPECI KBKB 081022Z AUTO 00000KT 10SM BKN016 24/23 A2999 RMK
     AO2=
####018000269####
SAZZ40 KAWN 080700 RRW
METAR TNCA 080700Z 08012KT 9999 SCT016 29/25 Q1012 NOSIG=
METAR TNCB 080700Z AUTO /////KT //// ////// 28/25 Q1012 NOSIG=
METAR TNCC 080700Z 09010KT 9999 SCT017 28/26 Q1011 NOSIG=
METAR TNCE 080700Z AUTO 06009KT //// ////// 27/25 Q1015=
####018000494####
SARS18 KAWN 081000 RRF
METAR EETN 081020Z 32007KT CAVOK 24/18 Q1014 NOSIG=
METAR EVLA 081020Z 31006KT 260V030 CAVOK 22/16 Q1018=
METAR EVRA 081020Z 32010KT 280V360 9999 SCT010 OVC023 19/15 Q1015 NOSIG=
METAR EYKA 081020Z 28008KT 240V360 CAVOK 16/14 Q1016=
METAR EYPA 081020Z 33006KT 240V030 CAVOK 21/16 Q1018 NOSIG=
METAR EYVI 081020Z 29012KT 260V320 2600 RA OVC006 16/14 Q1015 NOSIG=
METAR UHMM 081000Z 27001MPS 6000 -DZ OVC006 12/11 Q1016 RMK QFE747
      88010070 MT OBSC=
####018000269####
SAXN17 KAWN 080700 RRN
METAR TNCA 080700Z 08012KT 9999 SCT016 29/25 Q1012 NOSIG=
METAR TNCB 080700Z AUTO /////KT //// ////// 28/25 Q1012 NOSIG=
METAR TNCC 080700Z 09010KT 9999 SCT017 28/26 Q1011 NOSIG=
METAR TNCE 080700Z AUTO 06009KT //// ////// 27/25 Q1015=
####018000399####
SADL32 EDZO 081020
METAR EDDB 081020Z VRB02KT CAVOK 26/07 Q1021 NOSIG=
METAR EDDC 081020Z VRB03KT CAVOK 24/09 Q1023 NOSIG=
METAR EDDE 081020Z 02002KT CAVOK 26/08 Q1022 NOSIG=
METAR EDDG 081020Z 24002KT CAVOK 30/10 Q1020 NOSIG=
METAR EDDP 081020Z 27003KT CAVOK 26/12 Q1022 NOSIG=
METAR EDDR 081020Z 19003KT CAVOK 27/12 Q1021 NOSIG=
METAR EDDW 081020Z 21007KT CAVOK 28/09 Q1019 NOSIG=
####018001550####
SPZZ40 KAWN 081023 RRE
SPECI CYAM 081019Z 15003KT 4SM BR OVC006 RMK SF8=
SPECI CYBC 081021Z AUTO 08003KT 3 1/2SM OVC000 13/12 A3002=
SPECI CYIV 081020Z 32004KT 10SM -SHRA FEW005 SCT035 BKN045 BKN050 OVC080
      RETS RMK SF1SC3SC2SC2AC1 CB MOVG E FG=
SPECI CYPY 081018Z AUTO 27003KT 3SM FEW001 11/11 A2993=
SPECI CYPY 081020Z AUTO 27003KT 2 1/2SM FEW001 11/11 A2993 RMK VSBY
      VRBL 1.0V9.+=
SPECI EKKA 081019Z 22005KT 190V260 7000 SHRA FEW018CB BKN045 17/15
      Q1018 TEMPO 4000 SCT020CB=
SPECI KAFF 081018Z AUTO 17006KT 10SM BKN014 BKN027 12/12 A3040 RMK
      AO2 BKN014 V SCT SLP213=
SPECI KEGI 081019Z AUTO 00000KT 1 1/2SM R18/1800V5000FT BR CLR 21/21
      A3002 RMK AO2 SLP166 $=
SPECI KEGI 081021Z AUTO 00000KT 2SM R18/2200V5500FT BR CLR 21/21 A3002
      RMK AO2 SLP166 $=
SPECI KNHK 081017Z 09004KT 3SM BR SCT010 26/23 A2999 RMK AO2=
SPECI KNRS 081018Z AUTO 29008KT 7SM SCT009 OVC014 16/14 A2990 RMK AO2
      TSNO $=
SPECI KPSM 081019Z 16006KT 7SM OVC010 22/21 A3007 RMK AO2A=
SPECI KRIV 081019Z AUTO 30006KT 4SM BR BKN002 12/11 A2990 RMK AO2 SLP122=
SPECI KVOK 081018Z 28003KT 2SM R27/3500VP6000FT BR FEW200 17/17 A3001
      RMK AO2A SLP159=
SPECI KVOK 081019Z 28003KT 1 1/2SM R27/3000VP6000FT BR CLR 17/17 A3001
      RMK AO2A SLP160=
SPECI KVOK 081020Z 27004KT 1 1/4SM R27/3000VP6000FT BR CLR 17/17 A3002
      RMK AO2A SLP160=
SPECI KVPS 081019Z 32001KT 4SM BR FEW002 23/23 A3002 RMK AO2A VIS NE
      2=
SPECI MNMG 081015Z 00000KT 9999 FEW020CB BKN020 CB/N/NW/W/NE/S=
####018000135####
SPCN46 CWAO 081023
SPECI CYKF 081023Z AUTO 00000KT 3/4SM BR CLR 19/19 A3006 RMK SLP177
 DENSITY ALT 1600FT VIS VRB 1/4-2 1/2=

####018001453####
SAUS20 KNKA 081023
METAR KIPJ 081020Z AUTO 00000KT 10SM CLR 20/17 A3003 RMK AO2 
     T02040171=
METAR KJES 081020Z AUTO 00000KT 4SM BR CLR 19/19 A3000 RMK AO2 
     T01900191=
METAR KJQF 081020Z AUTO 00000KT 10SM SCT100 22/18 A3001 RMK AO2 
     T02230182=
SPECI KLCH 081022Z AUTO 05004KT 9SM BKN026 25/23 A2997 RMK AO2=
METAR KLGC 081015Z AUTO 9SM CLR 21/ A3003 RMK AO1=
SPECI KLOZ 081022Z AUTO 00000KT 3SM BR CLR 19/19 A3010 RMK AO2=
METAR KLWB 081021Z AUTO 00000KT 3SM BR 19/18 A3017 RMK AO2=
METAR KMFV 081022Z AUTO 09003KT 7SM SCT006 OVC100 24/23 A2999 RMK 
     AO2=
METAR KMGR 081020Z AUTO 00000KT 10SM CLR 21/20 A3003 RMK AO2=
METAR KMRN 081019Z AUTO 00000KT 10SM BKN100 19/18 A3011 RMK AO2=
METAR KMWK 081022Z AUTO 00000KT 7SM OVC090 24/19 A3005 RMK AO2=
METAR KPSK 081022Z AUTO 00000KT 7SM CLR 23/17 A3015 RMK AO2=
METAR KPTB 081022Z AUTO 00000KT 4SM BR CLR 22/21 A2998 RMK AO2=
SPECI KRHI 081022Z AUTO 30003KT 9SM OVC003 18/18 A3004 RMK AO2=
METAR KRUQ 081021Z AUTO 00000KT 10SM BKN090 20/20 A3001 RMK AO2=
METAR KTDF 081022Z AUTO 00000KT 3SM BKN120 21/19 A3001 RMK AO1=
METAR KTNB 081022Z AUTO 00000KT 7SM CLR 16/14 A3020 RMK AO2=
METAR KTPF 081020Z AUTO 00000KT 10SM CLR 23/22 A2998 RMK AO2=
METAR KTSP 081015Z AUTO 00000KT 10SM CLR 12/05 A3003 RMK AO2 =
METAR KVUJ 081018Z AUTO 00000KT 10SM OVC100 22/19 A2998 RMK AO2=
METAR KW99 081019Z AUTO 00000KT 5SM HZ SCT090 21/17 A3009 RMK AO2=
####018002959####
SAUS20 KNKA 081023
METAR K3A1 081020Z AUTO 00000KT 7SM CLR 22/22 A3010 RMK AO2 
     T02170218=
METAR K3I2 081020Z AUTO 00000KT 1/2SM FG OVC001 18/18 A3009 RMK 
     AO2=
METAR K3J7 081020Z AUTO 00000KT 10SM CLR 22/21 A3000 RMK AO2=
METAR K47A 081020Z AUTO 00000KT 7SM CLR 20/18 A3006 RMK AO2 LTG 
     DSNT NE AND SW T01970175=
METAR K4A9 081020Z AUTO 01004KT 7SM CLR 20/18 A3006 RMK AO2 
     T01950179=
METAR K4R4 081020Z AUTO 00000KT M1/4SM FG OVC009 24/23 A3002 RMK 
     AO2 T02350227=
METAR K8A0 081019Z AUTO 00000KT 10SM CLR 24/22 A3007 RMK AO2=
METAR KACP 081019Z AUTO 00000KT 5SM BR CLR 24/24 A3000 RMK AO2 
     LTG DSNT SW=
METAR KAFP 081020Z AUTO 00000KT 10SM SCT100 20/18 A2998 RMK AO2 
     T02030181=
METAR KALX 081020Z AUTO 00000KT 7SM CLR 22/21 A3004 RMK AO1=
METAR KAVC 081020Z AUTO 00000KT 5SM HZ CLR 25/19 A3004 RMK AO2=
METAR KAYS 081020Z AUTO 00000KT 7SM CLR 21/20 A3001 RMK AO1=
METAR KBCB 081020Z AUTO 00000KT 5SM BR SCT060 OVC085 22/22 A3015 
     RMK AO2=
METAR KBGE 081021Z AUTO 00000KT 10SM SCT001 20/19 A3002 RMK AO2=
SPECI KBGR 081022Z 17007KT 1 1/2SM BR OVC005 21/20 A3008 RMK AO2=
METAR KBQK 081017Z AUTO 26004KT 10SM CLR 21/21 A3000 RMK AO1 
     T02130208 PNO=
METAR KCCO 081020Z AUTO 00000KT 4SM CLR 20/19 A3005 RMK AO1=
SPECI KCCR 081022Z AUTO 25004KT 10SM SCT011 13/09 A2990 RMK AO2=
METAR KCDH 081020Z AUTO 00000KT 7SM OVC002 22/22 A3005 RMK AO2=
SPECI KCNU 081022Z AUTO 35004KT 9SM SCT007 22/20 A3004 RMK AO2=
METAR KCTJ 081020Z AUTO 00000KT 10SM CLR 21/19 A3007 RMK AO2 
     T02060190=
METAR KDBN 081020Z AUTO 30006KT 10SM CLR 24/17 A2999 RMK AO1=
METAR KDNN 081018Z AUTO 00000KT 10SM CLR 20/20 A3005 RMK AO2=
METAR KDPL 081020Z AUTO 00000KT 7SM CLR 23/21 A2994 RMK AO2=
METAR KDQH 081020Z AUTO 00000KT 10SM CLR 23/19 A3001 RMK AO1=
METAR KDRI 081020Z AUTO 08003KT 10SM BKN013 OVC021 23/23 A3001 
     RMK AO2 LTG DSNT S=
METAR KEDE 081016Z AUTO 01004KT 1 1/2SM BR 24/23 A2995 RMK AO2=
METAR KEMV 081017Z AUTO 00000KT 3SM BR CLR 22/21 A2998 RMK AO2=
METAR KEXX 081019Z AUTO 00000KT 10SM CLR 21/18 A3000 RMK AO2=
METAR KEZF 081018Z AUTO 00000KT 5SM BR SCT080 SCT090 25/25 A2998 
     RMK AO2 T02490245=
METAR KF24 081019Z AUTO 7SM CLR 24/23 A3007 RMK AO2 T02400230=
METAR KFKN 081020Z AUTO 00000KT 2 1/2SM 24/23 A2997 RMK AO1=
SPECI KFSM 081022Z AUTO 00000KT 10SM FEW026 BKN034 24/22 A3003 RMK 
    AO2=
METAR KGHG 081020Z AUTO 00000KT 10SM FEW006 22/21 A3010 RMK AO2=
METAR KHLX 081021Z AUTO 32003KT 7SM CLR 24/21 A3017 RMK AO2=
METAR KHOE 081019Z AUTO 00000KT 10SM CLR 21/ A3001 RMK AO2 T0205=
METAR KHQU 081022Z AUTO 00000KT 7SM CLR 20/18 A3006 RMK AO1=
METAR KHSP 081020Z AUTO 06003KT 10SM SCT060 23/16 A3026 RMK AO2=
METAR KHUM 081020Z AUTO 1/2SM FG OVC018 23/23 A2999 RMK AO2=
METAR KHWY 081020Z AUTO 00000KT 4SM BR CLR 21/19 A2999 RMK AO2=
METAR KIDI 081020Z AUTO 00000KT 3SM CLR 18/18 A3011 RMK AO2=
####018001705####
SAEU KAWN 081000 RRX
METAR EDDB 081020Z VRB02KT CAVOK 26/07 Q1021 NOSIG=
METAR EDDC 081020Z VRB03KT CAVOK 24/09 Q1023 NOSIG=
METAR EDDE 081020Z 02002KT CAVOK 26/08 Q1022 NOSIG=
METAR EDDF 081020Z VRB03KT CAVOK 28/09 Q1021 NOSIG=
METAR EDDG 081020Z 24002KT CAVOK 30/10 Q1020 NOSIG=
METAR EDDH 081020Z 16008KT CAVOK 28/12 Q1019 NOSIG=
METAR EDDK 081020Z 16005KT 120V190 CAVOK 29/10 Q1020 NOSIG=
METAR EDDL 081020Z 21005KT 180V250 CAVOK 29/09 Q1019 NOSIG=
METAR EDDM 081020Z 07007KT CAVOK 23/08 Q1023 NOSIG=
METAR EDDN 081020Z 13006KT 090V170 CAVOK 26/07 Q1022 NOSIG=
METAR EDDP 081020Z 27003KT CAVOK 26/12 Q1022 NOSIG=
METAR EDDR 081020Z 19003KT CAVOK 27/12 Q1021 NOSIG=
METAR EDDS 081020Z VRB03KT CAVOK 26/09 Q1022 NOSIG=
METAR EDDT 081020Z 16004KT CAVOK 25/06 Q1021 NOSIG=
METAR EDDV 081020Z 21006G17KT 170V260 CAVOK 28/10 Q1020 NOSIG=
METAR EDDW 081020Z 21007KT CAVOK 28/09 Q1019 NOSIG=
METAR EHEH 081025Z AUTO 23007KT 9999NDV FEW120 BKN370 30/12 Q1019 BLU
      BLU=
METAR LEGT 081000Z 00000KT CAVOK 31/13 Q1020=
METAR LPAR 081000Z /////KT CAVOK 24/18 Q1014 RMK ESTMD WND 18007KT=
METAR LPBJ 081000Z 19009KT 170V220 CAVOK 27/18 Q1016=
METAR LPFL 081000Z 20007KT 170V240 9999 FEW023TCU BKN045 22/18 Q1022
      RMK WIND RWY36 20006KT 170V230 POS MID 19007KT 160V220=
METAR LPMR 081000Z 27014KT 7000 SCT005 20/17 Q1014=
METAR LPMT 081000Z 22006KT CAVOK 25/18 Q1015=
METAR LPST 081000Z 30009KT 4000 BR BKN008 20/17 Q1016=
METAR LSGG 081020Z VRB02KT CAVOK 28/12 Q1022 NOSIG=
METAR LSZA 081020Z 19005KT 9999 SCT055 27/13 Q1023 NOSIG=
METAR LSZB 081020Z 33006KT 280V010 CAVOK 27/14 Q1022 NOSIG=
METAR LSZH 081020Z VRB02KT CAVOK 26/13 Q1022 NOSIG=
####018000101####
SAUS44 KLZK 081023
MTRMWT
SPECI KMWT 081022Z AUTO 14003KT 10SM SCT002 23/22 A3005 RMK AO2 TSNO
####018000096####
SAUS44 KSHV 081023
MTRBKB
SPECI KBKB 081022Z AUTO 00000KT 10SM BKN016 24/23 A2999 RMK AO2
####018000080####
SPCN47 CWAO 081023
SPECI CYYY 081023Z 03002KT 2 1/2SM BR OVC003 RMK ST8=

####018000075####
SACN96 CWAO 081020
WZQ SA 1020 AUTO8 M M M M/22/17/1706/M/M M 06MM=

####018003565####
SAUS99 KWBC 081024
METAR
K3A1 081020Z AUTO 00000KT 7SM CLR 22/22 A3010 RMK AO2
     T02170218=
K3I2 081020Z AUTO 00000KT 1/2SM FG OVC001 18/18 A3009 RMK AO2=
K3J7 081020Z AUTO 00000KT 10SM CLR 22/21 A3000 RMK AO2=
K47A 081020Z AUTO 00000KT 7SM CLR 20/18 A3006 RMK AO2 LTG DSNT NE
     AND SW T01970175=
K4A9 081020Z AUTO 01004KT 7SM CLR 20/18 A3006 RMK AO2
     T01950179=
K4R4 081020Z AUTO 00000KT M1/4SM FG OVC009 24/23 A3002 RMK AO2
     T02350227=
K8A0 081019Z AUTO 00000KT 10SM CLR 24/22 A3007 RMK AO2=
KACP 081019Z AUTO 00000KT 5SM BR CLR 24/24 A3000 RMK AO2 LTG DSNT
     SW=
KAFP 081020Z AUTO 00000KT 10SM SCT100 20/18 A2998 RMK AO2
     T02030181=
KALX 081020Z AUTO 00000KT 7SM CLR 22/21 A3004 RMK AO1=
KAVC 081020Z AUTO 00000KT 5SM HZ CLR 25/19 A3004 RMK AO2=
KAYS 081020Z AUTO 00000KT 7SM CLR 21/20 A3001 RMK AO1=
KBCB 081020Z AUTO 00000KT 5SM BR SCT060 OVC085 22/22 A3015 RMK
     AO2=
KBGE 081021Z AUTO 00000KT 10SM SCT001 20/19 A3002 RMK AO2=
KBQK 081017Z AUTO 26004KT 10SM CLR 21/21 A3000 RMK AO1 T02130208
     PNO=
KCCO 081020Z AUTO 00000KT 4SM CLR 20/19 A3005 RMK AO1=
KCDH 081020Z AUTO 00000KT 7SM OVC002 22/22 A3005 RMK AO2=
KCTJ 081020Z AUTO 00000KT 10SM CLR 21/19 A3007 RMK AO2
     T02060190=
KDBN 081020Z AUTO 30006KT 10SM CLR 24/17 A2999 RMK AO1=
KDNN 081018Z AUTO 00000KT 10SM CLR 20/20 A3005 RMK AO2=
KDPL 081020Z AUTO 00000KT 7SM CLR 23/21 A2994 RMK AO2=
KDQH 081020Z AUTO 00000KT 10SM CLR 23/19 A3001 RMK AO1=
KDRI 081020Z AUTO 08003KT 10SM BKN013 OVC021 23/23 A3001 RMK AO2
     LTG DSNT S=
KEDE 081016Z AUTO 01004KT 1 1/2SM BR 24/23 A2995 RMK AO2=
KEMV 081017Z AUTO 00000KT 3SM BR CLR 22/21 A2998 RMK AO2=
KEXX 081019Z AUTO 00000KT 10SM CLR 21/18 A3000 RMK AO2=
KEZF 081018Z AUTO 00000KT 5SM BR SCT080 SCT090 25/25 A2998 RMK AO2
     T02490245=
KF24 081019Z AUTO 7SM CLR 24/23 A3007 RMK AO2 T02400230=
KFKN 081020Z AUTO 00000KT 2 1/2SM 24/23 A2997 RMK AO1=
KGHG 081020Z AUTO 00000KT 10SM FEW006 22/21 A3010 RMK AO2=
KHLX 081021Z AUTO 32003KT 7SM CLR 24/21 A3017 RMK AO2=
KHOE 081019Z AUTO 00000KT 10SM CLR 21/ A3001 RMK AO2 T0205=
KHQU 081022Z AUTO 00000KT 7SM CLR 20/18 A3006 RMK AO1=
KHSP 081020Z AUTO 06003KT 10SM SCT060 23/16 A3026 RMK AO2=
KHUM 081020Z AUTO 1/2SM FG OVC018 23/23 A2999 RMK AO2=
KHWY 081020Z AUTO 00000KT 4SM BR CLR 21/19 A2999 RMK AO2=
KIDI 081020Z AUTO 00000KT 3SM CLR 18/18 A3011 RMK AO2=
KIPJ 081020Z AUTO 00000KT 10SM CLR 20/17 A3003 RMK AO2
     T02040171=
KJES 081020Z AUTO 00000KT 4SM BR CLR 19/19 A3000 RMK AO2
     T01900191=
KJQF 081020Z AUTO 00000KT 10SM SCT100 22/18 A3001 RMK AO2
     T02230182=
KLGC 081015Z AUTO 9SM CLR 21/ A3003 RMK AO1=
KLWB 081021Z AUTO 00000KT 3SM BR 19/18 A3017 RMK AO2=
KMFV 081022Z AUTO 09003KT 7SM SCT006 OVC100 24/23 A2999 RMK
     AO2=
KMGR 081020Z AUTO 00000KT 10SM CLR 21/20 A3003 RMK AO2=
KMRN 081019Z AUTO 00000KT 10SM BKN100 19/18 A3011 RMK AO2=
KMWK 081022Z AUTO 00000KT 7SM OVC090 24/19 A3005 RMK AO2=
KPSK 081022Z AUTO 00000KT 7SM CLR 23/17 A3015 RMK AO2=
KPTB 081022Z AUTO 00000KT 4SM BR CLR 22/21 A2998 RMK AO2=
KRUQ 081021Z AUTO 00000KT 10SM BKN090 20/20 A3001 RMK AO2=
KTDF 081022Z AUTO 00000KT 3SM BKN120 21/19 A3001 RMK AO1=
KTNB 081022Z AUTO 00000KT 7SM CLR 16/14 A3020 RMK AO2=
KTPF 081020Z AUTO 00000KT 10SM CLR 23/22 A2998 RMK AO2=
KTSP 081015Z AUTO 00000KT 10SM CLR 12/05 A3003 RMK AO2=
KVUJ 081018Z AUTO 00000KT 10SM OVC100 22/19 A2998 RMK AO2=
KW99 081019Z AUTO 00000KT 5SM HZ SCT090 21/17 A3009 RMK AO2=
####018000467####
SPUS99 KWBC 081024
SPECI
KBGR 081022Z 17007KT 1 1/2SM BR OVC005 21/20 A3008 RMK AO2=
KCCR 081022Z AUTO 25004KT 10SM SCT011 13/09 A2990 RMK AO2=
KCNU 081022Z AUTO 35004KT 9SM SCT007 22/20 A3004 RMK AO2=
KFSM 081022Z AUTO 00000KT 10SM FEW026 BKN034 24/22 A3003 RMK
     AO2=
KLCH 081022Z AUTO 05004KT 9SM BKN026 25/23 A2997 RMK AO2=
KLOZ 081022Z AUTO 00000KT 3SM BR CLR 19/19 A3010 RMK AO2=
KRHI 081022Z AUTO 30003KT 9SM OVC003 18/18 A3004 RMK AO2=
####018000208####
SACN87 KWBC 081024
METAR CWRO 081000Z AUTO 28018G24KT 13/11 RMK AO1 PK WND 29024/0955
SLP190 T01250113 53001=
METAR CWRU 081000Z AUTO 35017KT 13/12 RMK AO1 PK WND 35021/0927
SLP154 T01340120 51001=
####018000095####
SACN85 KWBC 081024
METAR CWDO 081000Z AUTO 17004KT 10/09 RMK AO1 SLP206 T01000088
58001=
####018000095####
SACN89 KWBC 081024
METAR CWBO 081000Z AUTO 17003KT 10/10 RMK AO1 SLP217 T00950095
57002=
####018000154####
SACN96 KWBC 081024
METAR CXKA 081000Z AUTO 29006KT 19/16 RMK AO1 SLP116 T01860155
56005=
METAR CWZQ 081020Z AUTO 17006KT 22/17 RMK AO1 T02200166=
####018000080####
SACN91 KWBC 081024
METAR CWIX 081000Z AUTO 08001KT 21/21 RMK AO1 T02130211=
####018000455####
SACN92 KWBC 081024
METAR CWJW 080800Z AUTO 20002KT 09/06 RMK AO1 SLP210 T00920055
51012=
METAR CWJW 080700Z AUTO 20002KT 11/06 RMK AO1 SLP206 T01100058
53013=
METAR CWJW 080900Z AUTO 20003KT 08/05 RMK AO1 SLP216 T00750047
51012=
METAR CWKD 080900Z AUTO 14/14 RMK AO1 SLP171 T01400135 55000=
METAR CWJU 081000Z AUTO 28009KT 12/11 RMK AO1 SLP203 T01180106
53004=
METAR CWJW 081000Z AUTO 20002KT 07/05 RMK AO1 SLP222 T00680048
53010=
####018000095####
SACN78 KWBC 081024
METAR CTNK 081000Z AUTO 00000KT 17/17 RMK AO1 SLP171 T01730166
56002=
####018000193####
SACN97 KWBC 081024
METAR CXQA 081000Z AUTO 08/08 RMK AO1 9PAST HR 6016 SLP121 P0004
T00770077 50009=
METAR CXQA 081000Z AUTO 08/08 RMK AO1 9PAST HR 6016 SLP121 P0004
T00770077 50009=
####018000646####
SASN31 ESWI 081020
METAR ESGG 081020Z 21014KT 9999 FEW021 BKN038 19/14 Q1019=
METAR ESGJ 081020Z AUTO 21014KT 9999NDV FEW041/// SCT046/// 22/10
Q1019=
METAR ESGP 081020Z 20013KT 7000 -DZ FEW009 SCT015 BKN032 18/16
Q1018=
METAR ESGT 081020Z 22011KT 9999 BKN030 20/13 Q1018=
METAR ESMK 081020Z 22008KT CAVOK 25/13 Q1020=
METAR ESMQ 081020Z 18013KT CAVOK 23/12 Q1020=
METAR ESMS 081020Z 18011KT CAVOK 23/11 Q1021=
METAR ESMT 081020Z 18011KT CAVOK 22/14 Q1020=
METAR ESMX 081020Z 19010KT CAVOK 24/10 Q1020=
METAR ESTA 081020Z 17013KT CAVOK ///// Q1020=
METAR ESTL 081020Z AUTO 22009KT 140V250 9999NDV FEW026///
BKN056/// 23/12 Q1020=
####018000495####
SAFI31 EFHK 081020
METAR EFHK 081020Z 34006KT 300V020 9999 SCT040 SCT200 29/17 Q1014
NOSIG=
EFJY 081020Z VRB03KT 9999 SCT020 BKN080 22/17 Q1016=
METAR EFKU 081020Z AUTO 30007KT CAVOK 23/17 Q1015=
EFOU 081020Z VRB03KT 9999 FEW025 SCT200 21/13 Q1016=
METAR EFRO 081020Z AUTO 22004KT 130V300 CAVOK 20/09
 Q1016=
EFTP 081020Z 30004KT 210V010 9999 FEW040 25/14 Q1015=
METAR EFTU 081020Z AUTO 33006KT 290V010 CAVOK 26/06 Q1015=
EFVA 081020Z 18004KT 100V240 9999 FEW030 BKN200 24/12 Q1015=
####018000392####
SADL32 EDZO 081020
METAR EDDB 081020Z VRB02KT CAVOK 26/07 Q1021 NOSIG=
METAR EDDC 081020Z VRB03KT CAVOK 24/09 Q1023 NOSIG=
METAR EDDE 081020Z 02002KT CAVOK 26/08 Q1022 NOSIG=
METAR EDDG 081020Z 24002KT CAVOK 30/10 Q1020 NOSIG=
METAR EDDP 081020Z 27003KT CAVOK 26/12 Q1022 NOSIG=
METAR EDDR 081020Z 19003KT CAVOK 27/12 Q1021 NOSIG=
METAR EDDW 081020Z 21007KT CAVOK 28/09 Q1019 NOSIG=
####018000533####
SADL31 EDZO 081020
METAR EDDF 081020Z VRB03KT CAVOK 28/09 Q1021 NOSIG=
METAR EDDH 081020Z 16008KT CAVOK 28/12 Q1019 NOSIG=
METAR EDDK 081020Z 16005KT 120V190 CAVOK 29/10 Q1020 NOSIG=
METAR EDDL 081020Z 21005KT 180V250 CAVOK 29/09 Q1019 NOSIG=
METAR EDDM 081020Z 07007KT CAVOK 23/08 Q1023 NOSIG=
METAR EDDN 081020Z 13006KT 090V170 CAVOK 26/07 Q1022 NOSIG=
METAR EDDS 081020Z VRB03KT CAVOK 26/09 Q1022 NOSIG=
METAR EDDT 081020Z 16004KT CAVOK 25/06 Q1021 NOSIG=
METAR EDDV 081020Z 21006G17KT 170V260 CAVOK 28/10 Q1020 NOSIG=
####018000072####
SAEW37 LEMM 081000 RRA
METAR LEGT 081000Z 00000KT CAVOK 31/13 Q1020=
####018000146####
SADN32 EKCH 081020
METAR EKVJ 081020Z NIL=
METAR EKSB 081020Z NIL=
METAR EKSN 081020Z NIL=
METAR EKVD 081020Z NIL=
METAR EKOD 081020Z NIL=
####018000197####
SADN33 EKCH 081020
METAR EKKA 081020Z 22004KT 190V260 3500 SHRA FEW018CB BKN045
17/15 Q1018 TEMPO 6000 SCT020CB=
METAR EKSP 081020Z 22012KT 180V240 CAVOK 25/10 Q1018 NOSIG RMK
SCT097 BKN120=
####018000525####
SADN31 EKCH 081020
METAR EKCH 081020Z 18013KT 150V210 CAVOK 22/13 Q1021 NOSIG=
METAR EKBI 081020Z 20008KT 160V250 9999 FEW020 SCT075 BKN100
22/16 Q1018=
METAR EKYT 081020Z 21008KT 9999 FEW025 BKN030 21/15 Q1018 NOSIG=
METAR EKRK 081020Z AUTO 18008KT 150V220 9999NDV FEW050/// BKN065///
24/14 Q1020=
METAR EKAH 081020Z AUTO 20004KT 160V260 9999NDV -SHRA  BKN051///
21/15 Q1019=
METAR EKEB 081020Z AUTO 22008KT 9999NDV -SHRA  BKN044/// 20/15
Q1018=
METAR EKRN 081020Z AUTO 20005KT 170V240 9999NDV NCD 20/16 Q1022=
####018000462####
SAUS80 KWBC 081024
METAR
KCBE 081021Z AUTO 00000KT 5SM CLR 20/18 A3011 RMK AO1=
KVTI 081015Z AUTO 32004KT 7SM CLR 20/20 A3006 RMK AO2=
KESN 081024Z AUTO 00000KT 1 1/4SM BR VV007 22/22 A3004 RMK AO2=
KJNX 081019Z AUTO 00000KT 4SM SCT120 21/21 A2995 RMK AO2=
KAYS 081020Z AUTO 00000KT 7SM CLR 21/20 A3001 RMK AO1=
KDBN 081020Z AUTO 30006KT 10SM CLR 24/17 A2999 RMK AO1=
KJQF 081020Z AUTO 00000KT 10SM SCT100 22/18 A3001 RMK AO2
     T02230182=
####018000299####
SPUS80 KWBC 081024
SPECI
KNUI 081020Z AUTO 00000KT 1 1/2SM BR CLR 24/23 A2998 RMK AO2=
KROW 081021Z AUTO 35005KT 10SM BKN029 BKN100 19/16 A3018 RMK AO2
     TSNO=
KCNU 081022Z AUTO 35004KT 9SM SCT007 22/20 A3004 RMK AO2=
KMWT 081022Z AUTO 14003KT 10SM SCT002 23/22 A3005 RMK AO2 TSNO=
####018002871####
SAUS70 KWBC 081024 RRA
METAR
KACP 081019Z AUTO 00000KT 5SM BR CLR 24/24 A3000 RMK AO2 LTG DSNT
     SW=
KAFP 081020Z AUTO 00000KT 10SM SCT100 20/18 A2998 RMK AO2
     T02030181=
KALX 081020Z AUTO 00000KT 7SM CLR 22/21 A3004 RMK AO1=
KAVC 081020Z AUTO 00000KT 5SM HZ CLR 25/19 A3004 RMK AO2=
KBCB 081020Z AUTO 00000KT 5SM BR SCT060 OVC085 22/22 A3015 RMK
     AO2=
KBGE 081021Z AUTO 00000KT 10SM SCT001 20/19 A3002 RMK AO2=
KBQK 081017Z AUTO 26004KT 10SM CLR 21/21 A3000 RMK AO1 T02130208
     PNO=
KCCO 081020Z AUTO 00000KT 4SM CLR 20/19 A3005 RMK AO1=
KCDH 081020Z AUTO 00000KT 7SM OVC002 22/22 A3005 RMK AO2=
KCTJ 081020Z AUTO 00000KT 10SM CLR 21/19 A3007 RMK AO2
     T02060190=
KDNN 081018Z AUTO 00000KT 10SM CLR 20/20 A3005 RMK AO2=
KDPL 081020Z AUTO 00000KT 7SM CLR 23/21 A2994 RMK AO2=
KDQH 081020Z AUTO 00000KT 10SM CLR 23/19 A3001 RMK AO1=
KDRI 081020Z AUTO 08003KT 10SM BKN013 OVC021 23/23 A3001 RMK AO2
     LTG DSNT S=
KEDE 081016Z AUTO 01004KT 1 1/2SM BR 24/23 A2995 RMK AO2=
KEMV 081017Z AUTO 00000KT 3SM BR CLR 22/21 A2998 RMK AO2=
KEXX 081019Z AUTO 00000KT 10SM CLR 21/18 A3000 RMK AO2=
KEZF 081018Z AUTO 00000KT 5SM BR SCT080 SCT090 25/25 A2998 RMK AO2
     T02490245=
KF24 081019Z AUTO 7SM CLR 24/23 A3007 RMK AO2 T02400230=
KFKN 081020Z AUTO 00000KT 2 1/2SM 24/23 A2997 RMK AO1=
KGHG 081020Z AUTO 00000KT 10SM FEW006 22/21 A3010 RMK AO2=
KHLX 081021Z AUTO 32003KT 7SM CLR 24/21 A3017 RMK AO2=
KHOE 081019Z AUTO 00000KT 10SM CLR 21/ A3001 RMK AO2 T0205=
KHQU 081022Z AUTO 00000KT 7SM CLR 20/18 A3006 RMK AO1=
KHSP 081020Z AUTO 06003KT 10SM SCT060 23/16 A3026 RMK AO2=
KHUM 081020Z AUTO 1/2SM FG OVC018 23/23 A2999 RMK AO2=
KHWY 081020Z AUTO 00000KT 4SM BR CLR 21/19 A2999 RMK AO2=
KIDI 081020Z AUTO 00000KT 3SM CLR 18/18 A3011 RMK AO2=
KIPJ 081020Z AUTO 00000KT 10SM CLR 20/17 A3003 RMK AO2
     T02040171=
KJES 081020Z AUTO 00000KT 4SM BR CLR 19/19 A3000 RMK AO2
     T01900191=
KLGC 081015Z AUTO 9SM CLR 21/ A3003 RMK AO1=
KLWB 081021Z AUTO 00000KT 3SM BR 19/18 A3017 RMK AO2=
KMFV 081022Z AUTO 09003KT 7SM SCT006 OVC100 24/23 A2999 RMK
     AO2=
KMGR 081020Z AUTO 00000KT 10SM CLR 21/20 A3003 RMK AO2=
KMRN 081019Z AUTO 00000KT 10SM BKN100 19/18 A3011 RMK AO2=
KMWK 081022Z AUTO 00000KT 7SM OVC090 24/19 A3005 RMK AO2=
KPSK 081022Z AUTO 00000KT 7SM CLR 23/17 A3015 RMK AO2=
KPTB 081022Z AUTO 00000KT 4SM BR CLR 22/21 A2998 RMK AO2=
KRUQ 081021Z AUTO 00000KT 10SM BKN090 20/20 A3001 RMK AO2=
KTDF 081022Z AUTO 00000KT 3SM BKN120 21/19 A3001 RMK AO1=
KTNB 081022Z AUTO 00000KT 7SM CLR 16/14 A3020 RMK AO2=
KTPF 081020Z AUTO 00000KT 10SM CLR 23/22 A2998 RMK AO2=
KTSP 081015Z AUTO 00000KT 10SM CLR 12/05 A3003 RMK AO2=
KVUJ 081018Z AUTO 00000KT 10SM OVC100 22/19 A2998 RMK AO2=
KW99 081019Z AUTO 00000KT 5SM HZ SCT090 21/17 A3009 RMK AO2=
####018000129####
SAXX60 KWBC 081000 RRI
METAR
KWRB 080955Z 34003KT 10SM -RA CLR 20/20 A3001 RMK AO2A RAB0858
     SLP161 P0000 T02050205=
####018000804####
SPXX60 KWBC 081024
SPECI
KAFF 081018Z AUTO 17006KT 10SM BKN014 BKN027 12/12 A3040 RMK AO2
     BKN014 V SCT SLP213=
KNHK 081017Z 09004KT 3SM BR SCT010 26/23 A2999 RMK AO2=
KNRS 081018Z AUTO 29008KT 7SM SCT009 OVC014 16/14 A2990 RMK AO2
     TSNO $=
KPSM 081019Z 16006KT 7SM OVC010 22/21 A3007 RMK AO2A=
KRIV 081019Z AUTO 30006KT 4SM BR BKN002 12/11 A2990 RMK AO2
     SLP122=
KVOK 081018Z 28003KT 2SM R27/3500VP6000FT BR FEW200 17/17 A3001
     RMK AO2A SLP159=
KVOK 081019Z 28003KT 1 1/2SM R27/3000VP6000FT BR CLR 17/17 A3001
     RMK AO2A SLP160=
KVOK 081020Z 27004KT 1 1/4SM R27/3000VP6000FT BR CLR 17/17 A3002
     RMK AO2A SLP160=
KVPS 081019Z 32001KT 4SM BR FEW002 23/23 A3002 RMK AO2A VIS NE
     2=
KBKB 081022Z AUTO 00000KT 10SM BKN016 24/23 A2999 RMK AO2=
####018000121####
SAUS70 KWBC 081000 RRL
METAR
KNSE 080956Z AUTO 00000KT 3/4SM BR CLR 23/21 A3002 RMK AO2 SLP149
     T02280211 $=
####018003699####
SAUS70 KWBC 081024
METAR
K2W6 081021Z AUTO 00000KT 2 1/2SM 24/24 A3001 RMK AO1 SKY
     OBSCURED=
K2G4 081020Z AUTO 00000KT 10SM SCT065 22/13 A3019 RMK AO1=
KCGS 081025Z AUTO 00000KT 5SM SCT110 26/23 A3001 RMK AO1=
KAWG 081015Z AUTO 00000KT 5SM SCT003 OVC009 21/20 A3005 RMK
     AO2=
KAXA 081015Z AUTO 33004KT 10SM CLR 17/16 A3012 RMK AO2=
KBNW 081015Z AUTO 33007KT 10SM CLR 20/17 A3011 RMK AO2=
KCAV 081015Z AUTO 31004KT 5SM CLR 19/18 A3011 RMK AO2=
KCBF 081015Z AUTO 36006KT 10SM CLR 19/15 A3013 RMK AO2=
KCCY 081015Z AUTO 32006KT 10SM CLR 20/17 A3008 RMK AO2=
KCIN 081015Z AUTO 32003KT 7SM CLR 17/15 A3013 RMK AO2=
KCNC 081015Z AUTO 33004KT 7SM CLR 20/18 A3008 RMK AO2=
KCSQ 081015Z AUTO 02007KT 10SM BKN015 OVC070 20/19 A3012 RMK
     AO2=
KDEH 081015Z AUTO 30003KT 3 1/2SM SCT004 20/18 A3008 RMK AO2=
KDNS 081015Z AUTO 35003KT 10SM CLR 20/16 A3016 RMK AO2=
KEOK 081015Z AUTO 00000KT 5SM HZ SCT001 22/19 A3004 RMK AO2=
KFFL 081015Z AUTO 32006KT 10SM CLR 22/20 A3006 RMK AO2=
KFSW 081015Z AUTO 00000KT 10SM BKN004 22/21 A3005 RMK AO2=
KFXY 081015Z AUTO 30003KT 10SM CLR 17/16 A3011 RMK AO2=
KGGI 081015Z AUTO 31003KT 7SM CLR 21/19 A3008 RMK AO2=
KHNR 081015Z AUTO 00000KT 5SM CLR 17/17 A3016 RMK AO2=
KICL 081015Z AUTO 01004KT 7SM CLR 21/18 A3010 RMK AO2=
KIFA 081015Z AUTO 32006KT 10SM SCT110 20/18 A3009 RMK AO2=
KIIB 081015Z AUTO 31004KT 7SM CLR 20/19 A3006 RMK AO1=
KIKV 081015Z AUTO 34004KT 10SM CLR 20/18 A3009 RMK AO2=
KLRJ 081015Z AUTO 00000KT 5SM CLR 15/14 A3016 RMK AO2=
KMPZ 081015Z AUTO 31004KT 1 1/4SM OVC002 22/21 A3004 RMK AO2=
KMUT 081015Z AUTO 00000KT 10SM OVC012 23/22 A3002 RMK AO2=
KMXO 081015Z AUTO 30003KT 1 3/4SM BKN027 20/18 A3004 RMK AO2=
KORC 081015Z AUTO 31003KT 10SM CLR 16/16 A3016 RMK AO2=
KOXV 081015Z AUTO 33005KT 10SM CLR 21/20 A3008 RMK AO2=
KPEA 081015Z AUTO 33003KT 10SM CLR 20/20 A3008 RMK AO2=
KRDK 081015Z AUTO 00000KT 7SM SCT090 21/18 A3011 RMK AO2=
KSDA 081015Z AUTO 02006KT 5SM BKN005 21/19 A3011 RMK AO2=
KSHL 081015Z AUTO 00000KT 2SM CLR 14/13 A3017 RMK AO2=
KTNU 081015Z AUTO 35006KT 10SM CLR 21/18 A3008 RMK AO2=
KFDK 081017Z AUTO 00000KT 5SM HZ SCT100 24/21 A3004 RMK AO2=
KW29 081021Z AUTO 00000KT 2SM CLR 23/23 A3000 RMK AO1=
K0R3 081019Z AUTO 00000KT 7SM CLR 25/25 A2998 RMK AO2 LTG DSNT
     SW=
KBQP 081027Z AUTO 07003KT 4SM BR CLR 24/24 A3005 RMK AO2=
KCTZ 081020Z AUTO 00000KT 5SM BR CLR 23/21 A2994 RMK AO2=
KCWV 081028Z AUTO 29003KT 10SM CLR 21/21 A3000 RMK AO2=
KEBS 081015Z AUTO 33004KT 7SM CLR 18/17 A3011 RMK AO2=
KFQD 081019Z AUTO 33003KT 10SM CLR 22/17 A3004 RMK AO2=
KHRJ 081021Z AUTO 33003KT 5SM HZ CLR 25/21 A2995 RMK AO2=
KJYL 081021Z AUTO 00000KT 10SM CLR 23/21 A3000 RMK AO2=
KMQI 081016Z AUTO 07009KT 10SM CLR 25/23 A2995 RMK AO2=
KSME 081020Z AUTO 00000KT 4SM BR 21/19 A3009 RMK AO2=
KTVK 081015Z AUTO 29003KT 9SM CLR 20/20 A3008 RMK AO2=
KUKF 081021Z AUTO 00000KT 7SM CLR 21/17 A3008 RMK AO1=
KUNV 081020Z AUTO 00000KT 4SM BR CLR 19/18 A3010 RMK AO2
     T01880177=
KFMH 081015Z AUTO 15005KT 8SM BKN004 BKN009 OVC013 21/20 A3010 RMK
     AO2=
KIWA 081016Z AUTO 02003KT 10SM CLR 33/00 A2980 RMK AO2=
K3A1 081020Z AUTO 00000KT 7SM CLR 22/22 A3010 RMK AO2
     T02170218=
K3I2 081020Z AUTO 00000KT 1/2SM FG OVC001 18/18 A3009 RMK AO2=
K3J7 081020Z AUTO 00000KT 10SM CLR 22/21 A3000 RMK AO2=
K47A 081020Z AUTO 00000KT 7SM CLR 20/18 A3006 RMK AO2 LTG DSNT NE
     AND SW T01970175=
K4A9 081020Z AUTO 01004KT 7SM CLR 20/18 A3006 RMK AO2
     T01950179=
K4R4 081020Z AUTO 00000KT M1/4SM FG OVC009 24/23 A3002 RMK AO2
     T02350227=
K8A0 081019Z AUTO 00000KT 10SM CLR 24/22 A3007 RMK AO2=
####018001420####
SPUS70 KWBC 081024
SPECI
KBVO 081020Z AUTO 00000KT 10SM BKN022 BKN048 22/22 A3005 RMK
     AO2=
KDXR 081020Z AUTO 13003KT 1 3/4SM BR BKN003 BKN007 23/22 A3007 RMK
     AO2 CIG 002V006=
KMGJ 081020Z AUTO 00000KT 2 1/2SM BR CLR 22/20 A3004 RMK AO2=
KPIL 081020Z AUTO VRB03KT 10SM FEW021 SCT033 28/26 A2976 RMK AO2
     RAE11 P0007 $=
KABR 081021Z AUTO 00000KT 1 3/4SM BR CLR 14/13 A3013 RMK AO2=
KAQW 081021Z AUTO 00000KT 2SM BR SCT100 19/18 A3006 RMK AO2=
KBAZ 081021Z AUTO 04004KT 8SM -RA FEW010 BKN015 OVC050 25/24 A2992
     RMK AO2 RAB09 P0001=
KBOK 081022Z AUTO 00000KT 1 3/4SM BR OVC002 09/09 A2996 RMK AO2
     VIS 1V3 $=
KHAO 081021Z AUTO 00000KT 2SM BR FEW001 21/19 A3009 RMK AO2=
KHIB 081021Z AUTO 00000KT 1/2SM FG CLR 08/08 A3004 RMK AO2=
KJEF 081021Z AUTO 35003KT 10SM FEW004 SCT060 OVC090 23/22 A3003
     RMK AO2 P0001=
KPQL 081021Z AUTO 00000KT 1/4SM FG VV001 23/23 A3002 RMK AO2=
KZZV 081021Z AUTO 00000KT 2SM BR CLR 19/18 A3009 RMK AO2=
K9F2 081018Z 11007KT 7SM SCT030 27/24 A2999=
KBGR 081022Z 17007KT 1 1/2SM BR OVC005 21/20 A3008 RMK AO2=
KCCR 081022Z AUTO 25004KT 10SM SCT011 13/09 A2990 RMK AO2=
KFSM 081022Z AUTO 00000KT 10SM FEW026 BKN034 24/22 A3003 RMK
     AO2=
KLCH 081022Z AUTO 05004KT 9SM BKN026 25/23 A2997 RMK AO2=
KLOZ 081022Z AUTO 00000KT 3SM BR CLR 19/19 A3010 RMK AO2=
KRHI 081022Z AUTO 30003KT 9SM OVC003 18/18 A3004 RMK AO2=
####018000086####
SAAF35 KWBC 081000 RRD
METAR
HLLT 081020Z 30004KT 270V330 8000 SKC 31/19 Q1019=
####018000410####
SAAS31 KWBC 081005 RRC
METAR
VAAH 081010Z 19007KT 4000 HZ FEW018 SCT080 31/24 Q1003 BECMG
     5000=
VCBI 081010Z 22009KT 9000 TS FEW016 SCT019CB BKN100 29/25 Q1008
     NOSIG=
VOMM 081010Z 12006KT 4000 HZ SCT015 SCT100 OVC200 28/26 Q1008
     NOSIG=
VOTR 081010Z VRB04KT 6000 SCT020 OVC100 34/23 Q1008=
VRMM 081000Z 35011KT 9999 -SHRA FEW017TCU BKN110 29/24 Q1009 TEMPO
     5000 -SHRA=
####018000187####
SAAW41 KWBC 081050
METAR
LTAN 081020Z 32007KT 9999 FEW040 31/12 Q1011 NOSIG RMK RWY19
     03008KT=
LTAU 081020Z VRB03KT 9999 SCT040 31/12 Q1011 NOSIG RMK RWY07
     VRB02KT=
####018000114####
SPCA33 KWBC 081024
SPECI
TTCP 081014Z 09006KT 7000 -SHRA VCSH FEW010CB SCT012TCU BKN035
24/23 Q1013 RERA=
####018000121####
SPDN31 KWBC 081024
SPECI
EKKA 081019Z 22005KT 190V260 7000 SHRA FEW018CB BKN045 17/15 Q1018
TEMPO 4000 SCT020CB=
####018000253####
SACA33 KWBC 080700 RRD
METAR
TNCA 080700Z 08012KT 9999 SCT016 29/25 Q1012 NOSIG=
TNCB 080700Z AUTO /////KT //// ////// 28/25 Q1012 NOSIG=
TNCC 080700Z 09010KT 9999 SCT017 28/26 Q1011 NOSIG=
TNCE 080700Z AUTO 06009KT //// ////// 27/25 Q1015=
####018000428####
SADL33 KWBC 081015 RRA
METAR
EDDB 081020Z VRB02KT CAVOK 26/07 Q1021 NOSIG=
EDDC 081020Z VRB03KT CAVOK 24/09 Q1023 NOSIG=
EDDG 081020Z 24002KT CAVOK 30/10 Q1020 NOSIG=
EDDP 081020Z 27003KT CAVOK 26/12 Q1022 NOSIG=
EDDR 081020Z 19003KT CAVOK 27/12 Q1021 NOSIG=
EDDT 081020Z 16004KT CAVOK 25/06 Q1021 NOSIG=
EDDV 081020Z 21006G17KT 170V260 CAVOK 28/10 Q1020 NOSIG=
EDDW 081020Z 21007KT CAVOK 28/09 Q1019 NOSIG=
####018000121####
SAIO31 KWBC 081000 RRE
METAR
VRMM 081000Z 35011KT 9999 -SHRA FEW017TCU BKN110 29/24 Q1009 TEMPO
     5000 -SHRA=
####018000095####
SAIQ31 KWBC 081000 RRA
METAR
KQAE 080955Z 34010G17KT 9000 HZ CLR 43/06 A2964 RMK SLP033=
####018000132####
SAIY31 KWBC 080950 RRD
METAR
LIEE 080955Z 16010KT 9999 FEW020 28/19 Q1019 RMK FEW VIS MIN 9999
     WIND THR14 18012KT BLU=
####018000083####
SANT31 KWBC 081000 RRB
METAR
LPBJ 081000Z 19009KT 170V220 CAVOK 27/18 Q1016=
####018000400####
SAPO31 KWBC 081000 RRB
METAR
LPBJ 081000Z 19009KT 170V220 CAVOK 27/18 Q1016=
LPFL 081000Z 20007KT 170V240 9999 FEW023TCU BKN045 22/18 Q1022 RMK
     WIND RWY36 20006KT 170V230 POS MID 19007KT 160V220=
LPMR 081000Z 27014KT 7000 SCT005 20/17 Q1014=
LPMT 081000Z 22006KT CAVOK 25/18 Q1015=
LPOV 081000Z 24008KT 9999 SCT007 21/18 Q1014=
LPST 081000Z 30009KT 4000 BR BKN008 20/17 Q1016=
####018000081####
SAXX61 KWBC 081000 RRB
METAR
EDDS 081020Z VRB03KT CAVOK 26/09 Q1022 NOSIG=
####018000115####
SPCN46 CWAO 081023
SPECI CYQA 081023Z AUTO 15002KT 6SM BR CLR 19/19 A3003 RMK SLP171
 DENSITY ALT 1400FT=

####018000076####
SPUS41 KWBC 081024
SPECI
KPSM 081019Z 16006KT 7SM OVC010 22/21 A3007=
####018000632####
SAXX99 KWBC 081000 RRR
METAR
BKPR 081030Z 02005KT 9999 SCT030 BKN070 16/10 Q1021 NOSIG RMK
     BLU=
EDDE 081020Z 02002KT CAVOK 26/08 Q1022 NOSIG=
EVLA 081020Z 31006KT 260V030 CAVOK 22/16 Q1018=
EVVA 081020Z AUTO 34010KT 300V010 CAVOK 21/17 Q1018=
KCBE 081021Z AUTO 00000KT 5SM CLR 20/18 A3011 RMK AO1=
KESN 081024Z AUTO 00000KT 1 1/4SM BR VV007 22/22 A3004 RMK AO2=
KFME 081021Z AUTO 00000KT 2 1/2SM CLR 20/20 A3003 RMK AO1=
LEGT 081000Z 00000KT CAVOK 31/13 Q1020=
LPAR 081000Z /////KT CAVOK 24/18 Q1014 RMK ESTMD WND 18007KT=
LTBU 081020Z 33009KT 9999 SCT030 BKN100 22/13 Q1014 RMK RWY23
     33010KT=
####018000140####
SAUS41 KWBC 081000 RRD
METAR
KCTZ 081020Z AUTO 00000KT 5SM BR CLR 23/21 A2994=
KFDK 081017Z AUTO 00000KT 5SM HZ SCT100 24/21 A3004=
####018000076####
SPUS51 KWBC 081024
SPECI
KPSM 081019Z 16006KT 7SM OVC010 22/21 A3007=
####018000085####
SPUS52 KWBC 081024
SPECI
KABR 081021Z AUTO 00000KT 1 3/4SM BR CLR 14/13 A3013=
####018000140####
SAUS51 KWBC 081000 RRA
METAR
KCBE 081021Z AUTO 00000KT 5SM CLR 20/18 A3011=
KESN 081024Z AUTO 00000KT 1 1/4SM BR VV007 22/22 A3004=
####018000660####
SASN31 ESWI 081020
METAR ESGG 081020Z 21014KT 9999 FEW021 BKN038 19/14 Q1019=
METAR ESGJ 081020Z AUTO 21014KT 9999NDV FEW041/// SCT046/// 22/10
Q1019=
METAR ESGP 081020Z 20013KT 7000 -DZ FEW009 SCT015 BKN032 18/16
Q1018=
METAR ESGT 081020Z 22011KT 9999 BKN030 20/13 Q1018=
METAR ESMK 081020Z 22008KT CAVOK 25/13 Q1020=
METAR ESMQ 081020Z 18013KT CAVOK 23/12 Q1020=
METAR ESMS 081020Z 18011KT CAVOK 23/11 Q1021=
METAR ESMT 081020Z 18011KT CAVOK 22/14 Q1020=
METAR ESMX 081020Z 19010KT CAVOK 24/10 Q1020=
METAR ESTA 081020Z 17013KT CAVOK ///// Q1020=
METAR ESTL 081020Z AUTO 22009KT 140V250 9999NDV FEW026///
BKN056/// 23/12 Q1020=
####018000505####
SAFI31 EFHK 081020
METAR EFHK 081020Z 34006KT 300V020 9999 SCT040 SCT200 29/17 Q1014
NOSIG=
EFJY 081020Z VRB03KT 9999 SCT020 BKN080 22/17 Q1016=
METAR EFKU 081020Z AUTO 30007KT CAVOK 23/17 Q1015=
EFOU 081020Z VRB03KT 9999 FEW025 SCT200 21/13 Q1016=
METAR EFRO 081020Z AUTO 22004KT 130V300 CAVOK 20/09
 Q1016=
EFTP 081020Z 30004KT 210V010 9999 FEW040 25/14 Q1015=
METAR EFTU 081020Z AUTO 33006KT 290V010 CAVOK 26/06 Q1015=
EFVA 081020Z 18004KT 100V240 9999 FEW030 BKN200 24/12 Q1015=
####018000112####
SATU20 LTAA 080950 RRC
METAR LTBR 081020Z 34014KT 9999 SCT035 BKN100 28/15 Q1011 NOSIG RMK
RWY07 32009KT=
####018000085####
SAUS53 KWBC 081000 RRF
METAR
KJNX 081019Z AUTO 00000KT 4SM SCT120 21/21 A2995=
####018000085####
SAUS54 KWBC 081000 RRD
METAR
KJNX 081019Z AUTO 00000KT 4SM SCT120 21/21 A2995=
####018000201####
SADN33 EKCH 081020
METAR EKKA 081020Z 22004KT 190V260 3500 SHRA FEW018CB BKN045
17/15 Q1018 TEMPO 6000 SCT020CB=
METAR EKSP 081020Z 22012KT 180V240 CAVOK 25/10 Q1018 NOSIG RMK
SCT097 BKN120=
####018000261####
SADN34 EKCH 081020
METAR EKGF 081020Z 20010KT CAVOK 16/16 Q1017=
METAR EKHN 081020Z AUTO 21002KT 9999NDV FEW024/// FEW047///
SCT066/// BKN095/// 17/14 Q1019=
METAR EKHR 081020Z AUTO 23009KT 6000NDV -SHRA   FEW026/// SCT031///
OVC047/// 17/16 Q1018=
####018000151####
SADN32 EKCH 081020
METAR EKVJ 081020Z NIL=
METAR EKSB 081020Z NIL=
METAR EKSN 081020Z NIL=
METAR EKVD 081020Z NIL=
METAR EKOD 081020Z NIL=
####018000536####
SADN31 EKCH 081020
METAR EKCH 081020Z 18013KT 150V210 CAVOK 22/13 Q1021 NOSIG=
METAR EKBI 081020Z 20008KT 160V250 9999 FEW020 SCT075 BKN100
22/16 Q1018=
METAR EKYT 081020Z 21008KT 9999 FEW025 BKN030 21/15 Q1018 NOSIG=
METAR EKRK 081020Z AUTO 18008KT 150V220 9999NDV FEW050/// BKN065///
24/14 Q1020=
METAR EKAH 081020Z AUTO 20004KT 160V260 9999NDV -SHRA  BKN051///
21/15 Q1019=
METAR EKEB 081020Z AUTO 22008KT 9999NDV -SHRA  BKN044/// 20/15
Q1018=
METAR EKRN 081020Z AUTO 20005KT 170V240 9999NDV NCD 20/16 Q1022=
####018000089####
SPUS72 KWBC 081024
SPECI
KROW 081021Z AUTO 35005KT 10SM BKN029 BKN100 19/16 A3018=
####018000085####
SPUS73 KWBC 081024
SPECI
KABR 081021Z AUTO 00000KT 1 3/4SM BR CLR 14/13 A3013=
####018000083####
SPUS73 KWBC 081024
SPECI
KHIB 081021Z AUTO 00000KT 1/2SM FG CLR 08/08 A3004=
####018000114####
SAUS44 KSJT 081024 COR
MTRJCT
SPECI KJCT 081022Z AUTO 00000KT 8SM BKN014 OVC040 22/22 A3001 RMK 
AO2 TSNO
####018000078####
SACN87 CWAO 081022
WWL SA 1022 AUTO4 M M M 173/12/M/MMMM/M/ 3003 4MMM=

####018000082####
SPUS81 KWBC 081024
SPECI
KMWT 081022Z AUTO 14003KT 10SM SCT002 23/22 A3005=
####018000089####
SPUS81 KWBC 081024
SPECI
KROW 081021Z AUTO 35005KT 10SM BKN029 BKN100 19/16 A3018=
####018001530####
SAUS20 KNKA 081024
METAR KOMH 081020Z AUTO 00000KT 7SM CLR 24/21 A3003 RMK AO2 
     T02360207=
METAR KONX 081020Z AUTO 08004KT 10SM BKN012 BKN120 26/23 A2996 
     RMK AO2 T02570230=
METAR KOPN 081020Z AUTO 00000KT 10SM CLR 24/22 A3005 RMK AO1=
METAR KPCM 081020Z AUTO 00000KT 3SM BR CLR 22/21 A3001 RMK AO2=
METAR KRCZ 081020Z AUTO 00000KT 10SM CLR 24/18 A2996 RMK AO2 
     T02440182=
METAR KRMN 081020Z AUTO 00000KT 4SM BR SCT110 22/22 A3002 RMK AO2=
METAR KSFQ 081020Z AUTO 00000KT 2SM BR 25/24 A2996 RMK AO2 SKY 
     OBSCURED=
METAR KSHD 081020Z AUTO 00000KT 4SM BR CLR 21/18 A3008 RMK AO2=
METAR KSIF 081021Z AUTO 00000KT 4SM BR SCT090 22/21 A3002 RMK AO2=
METAR KSVH 081020Z AUTO 00000KT 10SM CLR 20/17 A3004 RMK AO2 
     T01970169=
METAR KTBR 081020Z AUTO 27004KT 10SM CLR 23/20 A2999 RMK AO2 
     T02250202=
METAR KTVI 081020Z AUTO 00000KT 10SM CLR 22/21 A3003 RMK AO2 
     T02150209=
METAR KVDF 081016Z AUTO 00000KT 4SM BR CLR 22/21 A2999 RMK AO2=
METAR KVDI 081023Z AUTO 23003KT 10SM CLR 22/21 A3001 RMK AO1=
METAR KVJI 081023Z AUTO 00000KT 4SM BR CLR 21/19 A3014 RMK AO2=
METAR KW22 081020Z AUTO 00000KT 1 3/4SM  BR CLR 19/19 A3013 RMK 
     AO2=
METAR KW45 081020Z AUTO 00000KT 5SM BR CLR 21/20 A3005 RMK AO2 
     T02140198=
METAR KWDR 081020Z AUTO 00000KT 10SM CLR 22/20 A3007 RMK AO1=
METAR KXLL 081020Z AUTO 00000KT 5SM BR CLR 24/22 A3004 RMK AO2 
     T02360220=
METAR KXSA 081020Z AUTO 00000KT 1 1/2SM SCT120 23/23 A2999 RMK 
     AO2 PWINO=
####018002920####
SAUS20 KNKA 081024
METAR K1A5 081020Z AUTO 00000KT 5SM BR CLR 16/15 A3015 RMK AO2 
     T01600148=
METAR KUXL 081020Z AUTO 06007KT 10SM CLR 26/25 A2997 RMK AO2 LTG 
     DSNT SW=
METAR KASJ 081019Z AUTO 25003KT 2 1/2SM HZ SCT110 24/21 A2996 RMK 
     AO2=
METAR KBIJ 081021Z AUTO 00000KT 10SM CLR 19/ A3002 RMK AO2=
METAR KCPC 081020Z AUTO 00000KT 10SM CLR 25/20 A2992 RMK AO2 
     T02510196=
METAR KCPK 081022Z AUTO 00000KT 3SM HZ SCT120 23/21 A2997 RMK AO2=
SPECI KCSM 081022Z AUTO 01007KT 7SM -RA FEW004 23/21 A3010 RMK AO2 
    RAB05 P0000=
METAR KCWF 081020Z AUTO 06005KT 7SM CLR 23/23 A2998 RMK AO2 LTG 
     DSNT SW=
METAR KEHO 081020Z AUTO 00000KT 10SM CLR 19/18 A3003 RMK AO2 
     T01900180=
METAR KEYF 081020Z AUTO 33003KT 10SM CLR 25/19 A2993 RMK AO2 
     T02500185=
METAR KFFA 081018Z AUTO 08007KT 10SM CLR 25/23 A2995 RMK AO2 
     T02470226=
METAR KGAO 081020Z AUTO 07003KT 10SM CLR 26/24 A3000 RMK AO2=
METAR KGEV 081023Z AUTO 34003KT 7SM CLR 24/17 A3019 RMK AO2=
METAR KGWW 081020Z AUTO 00000KT 5SM HZ CLR 24/21 A2995 RMK AO2 
     T02380209=
METAR KHBI 081022Z AUTO 00000KT 10SM CLR 22/17 A3002 RMK AO2=
METAR KHDC 081023Z AUTO 05003KT 10SM BKN014 26/26 A3003 RMK AO2=
METAR KHNZ 081020Z AUTO 01003KT 5SM HZ SCT110 24/19 A2999 RMK AO2 
     T02440190=
METAR KIER 081020Z AUTO 00000KT 10SM CLR 23/23 A3003 RMK AO2 PWINO=
METAR KISO 081020Z AUTO 00000KT 4SM HZ CLR 23/21 A2995 RMK AO2 
     T02330206=
METAR KIXA 081020Z AUTO 03005KT 4SM BR SCT120 22/20 A2997 RMK AO2 
     T02220198=
METAR KJGG 081020Z AUTO 00000KT 4SM CLR 27/25 A2999 RMK AO1=
METAR KJKA 081020Z AUTO 00000KT 4SM BR CLR 26/25 A3002 RMK AO2 
     T02550245=
METAR KJYO 081020Z AUTO 34004KT 7SM BKN110 27/20 A3002 RMK AO2=
METAR KLDJ 081020Z AUTO 00000KT 2 1/2SM BR CLR 25/23 A3002 RMK 
     AO2 T02450231=
METAR KLHZ 081020Z AUTO 00000KT 5SM HZ SCT120 23/19 A2998 RMK AO2 
     T02280194=
METAR KLKU 081020Z AUTO 00000KT 4SM HZ CLR 22/19 A3000 RMK AO2=
METAR KLNP 081018Z AUTO 00000KT 5SM CLR 21/18 A3019 RMK AO1=
METAR KLOM 081020Z AUTO 00000KT 2 1/2SM 22/21 A3003 RMK AO1 SKY 
     OBSCURED T02150205=
METAR KMDQ 081020Z AUTO 00000KT 7SM CLR 21/21 A3007 RMK AO2 
     T02130207=
METAR KMKJ 081020Z AUTO 00000KT 2SM CLR 17/07 A3021 RMK AO1=
METAR KMLJ 081024Z AUTO 00000KT 7SM CLR 21/21 A3002 RMK AO2=
METAR KMMU 081020Z AUTO 00000KT 2 1/2SM BR SCT100 21/20 RMK AO2 
     T02060202=
METAR KMQS 081020Z AUTO 00000KT 4SM CLR 23/22 A3006 RMK AO2 PWINO 
     PNO=
METAR KMTV 081020Z AUTO 00000KT 5SM BR CLR 21/21 A3005 RMK AO2=
METAR KMZZ 080955Z AUTO 00000KT 7SM SCT100 21/19 A3006 RMK AO2=
SPECI KNXX 081003Z 00000KT 3SM HZ CLR 23/20 A3004 RMK AO2 $=
METAR KOBE 081021Z AUTO 03005KT 10SM CLR 23/22 A2997 RMK AO2 LTG 
     DSNT S=
METAR KOKV 081020Z AUTO 00000KT 4SM HZ SCT095 22/19 A3005 RMK AO2 
     T02220185=
####018000115####
SAMO31 ZMUB 081030
METAR ZMUB 081030Z 15009MPS 9999 -RA FEW030CB BKN033 15/12 Q1008 
 NOSIG RMK QFE649.3 83=
####018001320####
SPNA14 KAWN 081024 RRC
SPECI KEGI 081018Z AUTO 00000KT 1 1/4SM R18/1800V4000FT BR CLR 21/21
      A3002 RMK AO2 SLP166 $=
SPECI KEGI 081019Z AUTO 00000KT 1 1/2SM R18/1800V5000FT BR CLR 21/21
      A3002 RMK AO2 SLP166 $=
SPECI KEGI 081021Z AUTO 00000KT 2SM R18/2200V5500FT BR CLR 21/21 A3002
      RMK AO2 SLP166 $=
SPECI KEGI 081022Z AUTO 00000KT 2 1/2SM R18/2200V5500FT BR CLR 21/21
      A3002 RMK AO2 VIS 1V5 SLP166 $=
SPECI KNHK 081017Z 09004KT 3SM BR SCT010 26/23 A2999 RMK AO2=
SPECI KPSM 081019Z 16006KT 7SM OVC010 22/21 A3007 RMK AO2A=
SPECI KRIV 081019Z AUTO 30006KT 4SM BR BKN002 12/11 A2990 RMK AO2 SLP122=
SPECI KRND 081023Z AUTO 05006KT 10SM BKN009 BKN014 25/23 A2993 RMK
      AO2 SLP125=
SPECI KVOK 081018Z 28003KT 2SM R27/3500VP6000FT BR FEW200 17/17 A3001
      RMK AO2A SLP159=
SPECI KVOK 081019Z 28003KT 1 1/2SM R27/3000VP6000FT BR CLR 17/17 A3001
      RMK AO2A SLP160=
SPECI KVOK 081020Z 27004KT 1 1/4SM R27/3000VP6000FT BR CLR 17/17 A3002
      RMK AO2A SLP160=
SPECI KVOK 081022Z 27004KT 1SM R27/3000VP6000FT BR CLR 17/17 A3002
      RMK AO2A SLP160=
SPECI KVPS 081019Z 32001KT 4SM BR FEW002 23/23 A3002 RMK AO2A VIS NE
      2=
SPECI KWRI 081022Z AUTO 00000KT 1/4SM R18/0400V1800FT R24/1400V1800FT
      FG VV001 23/23 A3001 RMK AO2 SLP162 $=
####018001645####
SAEW KAWN 081000 RRI
METAR EDDB 081020Z VRB02KT CAVOK 26/07 Q1021 NOSIG=
METAR EDDC 081020Z VRB03KT CAVOK 24/09 Q1023 NOSIG=
METAR EDDE 081020Z 02002KT CAVOK 26/08 Q1022 NOSIG=
METAR EDDF 081020Z VRB03KT CAVOK 28/09 Q1021 NOSIG=
METAR EDDG 081020Z 24002KT CAVOK 30/10 Q1020 NOSIG=
METAR EDDH 081020Z 16008KT CAVOK 28/12 Q1019 NOSIG=
METAR EDDK 081020Z 16005KT 120V190 CAVOK 29/10 Q1020 NOSIG=
METAR EDDL 081020Z 21005KT 180V250 CAVOK 29/09 Q1019 NOSIG=
METAR EDDM 081020Z 07007KT CAVOK 23/08 Q1023 NOSIG=
METAR EDDN 081020Z 13006KT 090V170 CAVOK 26/07 Q1022 NOSIG=
METAR EDDP 081020Z 27003KT CAVOK 26/12 Q1022 NOSIG=
METAR EDDR 081020Z 19003KT CAVOK 27/12 Q1021 NOSIG=
METAR EDDS 081020Z VRB03KT CAVOK 26/09 Q1022 NOSIG=
METAR EDDT 081020Z 16004KT CAVOK 25/06 Q1021 NOSIG=
METAR EDDV 081020Z 21006G17KT 170V260 CAVOK 28/10 Q1020 NOSIG=
METAR EDDW 081020Z 21007KT CAVOK 28/09 Q1019 NOSIG=
METAR EHEH 081025Z AUTO 23007KT 9999NDV FEW120 BKN370 30/12 Q1019 BLU
      BLU=
METAR EKAH 081020Z AUTO 20004KT 160V260 9999NDV -SHRA BKN051/// 21/15
      Q1019=
METAR EKCH 081020Z 18013KT 150V210 CAVOK 22/13 Q1021 NOSIG=
METAR EKKA 081020Z 22004KT 190V260 3500 SHRA FEW018CB BKN045 17/15
      Q1018 TEMPO 6000 SCT020CB=
METAR EKRN 081020Z AUTO 20005KT 170V240 9999NDV NCD 20/16 Q1022=
METAR EKSP 081020Z 22012KT 180V240 CAVOK 25/10 Q1018 NOSIG RMK SCT097
      BKN120=
METAR LSGG 081020Z VRB02KT CAVOK 28/12 Q1022 NOSIG=
METAR LSZA 081020Z 19005KT 9999 SCT055 27/13 Q1023 NOSIG=
METAR LSZB 081020Z 33006KT 280V010 CAVOK 27/14 Q1022 NOSIG=
METAR LSZH 081020Z VRB02KT CAVOK 26/13 Q1022 NOSIG=
####018000123####
SPCN31 CWAO 081024
SPECI CYFC 081024Z AUTO 19006KT 9SM SCT008 20/18 A3007 RMK SLP184
 DENSITY ALT 400FT RVR MISG=

####018000118####
SAUS41 KAKQ 081024
MTRWAL
SPECI KWAL 081020Z AUTO 12004KT 10SM FEW006 SCT075 BKN110 24/22 
A3000 RMK AO2 TSNO
####018000105####
SPCN47 CWAO 081023
SPECI CYNA 081023Z AUTO 10011KT 9SM OVC003 OVC045 OVC052 OVC073 13/12
A3004=

####018000285####
SASW32 LSSW 081020
METAR LSGC 081020Z 24004KT 160V300 CAVOK 24/12 Q1024=
METAR LSGS 081020Z 24007KT 9999 FEW100 28/13 Q1021=
METAR LSZG 081020Z VRB02KT CAVOK 27/13 Q1022 NOSIG=
METAR LSZR 081020Z NIL=
METAR LSZS 081020Z 22008KT CAVOK 22/11 Q1027=
METAR LSZC 081020Z NIL=
####018001682####
SAEU KAWN 081000 RRX
METAR EGBB 081020Z 24008KT 9999 FEW032 20/10 Q1018=
METAR EGCC 081020Z 21013KT 170V270 9999 SCT032 19/10 Q1017=
METAR EGHH 081020Z VRB03KT 9999 FEW008 SCT022 19/16 Q1018=
METAR EGJB 081020Z VRB03KT 9999 FEW007 BKN011 19/17 Q1019=
METAR EGJJ 081020Z 04004KT 350V100 9999 FEW015 21/18 Q1019 NOSIG=
METAR EGKB 081020Z 21004KT 160V270 9999 BKN025 21/15 Q1019=
METAR EGKK 081020Z 25005KT 200V360 9999 SCT024 22/15 Q1018=
METAR EGLF 081020Z VRB02KT 9999 SCT011 19/16 Q1019=
METAR EGLL 081020Z VRB03KT 9999 SCT014 SCT017 20/14 Q1019=
METAR EGMD 081020Z 28005KT 9999 FEW015 21/16 Q1019=
METAR EGMH 081020Z 22005KT 150V280 9999 FEW016 23/16 Q1019=
METAR EGPF 081020Z 23017KT 9999 FEW030 SCT040 16/10 Q1013=
METAR EGPH 081020Z 24013KT 9999 FEW030 17/09 Q1013=
METAR EGPK 081020Z 22015KT 9999 FEW024 17/10 Q1014=
METAR EGSS 081020Z VRB05KT 9999 BKN015 20/14 Q1019=
METAR EGTG 081020Z 27005KT 9999 FEW025 20/13 Q1019=
METAR EKAH 081020Z AUTO 20004KT 160V260 9999NDV -SHRA BKN051/// 21/15
      Q1019=
METAR EKBI 081020Z 20008KT 160V250 9999 FEW020 SCT075 BKN100 22/16
      Q1018=
METAR EKCH 081020Z 18013KT 150V210 CAVOK 22/13 Q1021 NOSIG=
METAR EKEB 081020Z AUTO 22008KT 9999NDV -SHRA BKN044/// 20/15 Q1018=
METAR EKKA 081020Z 22004KT 190V260 3500 SHRA FEW018CB BKN045 17/15
      Q1018 TEMPO 6000 SCT020CB=
METAR EKRK 081020Z AUTO 18008KT 150V220 9999NDV FEW050/// BKN065///
      24/14 Q1020=
METAR EKRN 081020Z AUTO 20005KT 170V240 9999NDV NCD 20/16 Q1022=
METAR EKSP 081020Z 22012KT 180V240 CAVOK 25/10 Q1018 NOSIG RMK SCT097
      BKN120=
METAR EKYT 081020Z 21008KT 9999 FEW025 BKN030 21/15 Q1018 NOSIG=
####018001836####
SAUK KAWN 081000 RRF
METAR EGAA 081020Z 24012KT 9999 SCT025 16/10 Q1014=
METAR EGBB 081020Z 24008KT 9999 FEW032 20/10 Q1018=
METAR EGCC 081020Z 21013KT 170V270 9999 SCT032 19/10 Q1017=
METAR EGGP 081020Z 23008KT 200V260 9999 FEW030 SCT045 18/10 Q1017=
METAR EGGW 081020Z 25004KT 200V280 9999 SCT025 20/13 Q1019=
METAR EGHD 081020Z VRB03KT 9999 FEW022 20/13 Q1019=
METAR EGHH 081020Z VRB03KT 9999 FEW008 SCT022 19/16 Q1018=
METAR EGJA 081020Z 21004KT 9999 FEW003 SCT006 BKN012 18/16 Q1019=
METAR EGJB 081020Z VRB03KT 9999 FEW007 BKN011 19/17 Q1019=
METAR EGJJ 081020Z 04004KT 350V100 9999 FEW015 21/18 Q1019 NOSIG=
METAR EGKB 081020Z 21004KT 160V270 9999 BKN025 21/15 Q1019=
METAR EGKK 081020Z 25005KT 200V360 9999 SCT024 22/15 Q1018=
METAR EGLC 081020Z 32005KT 290V350 9999 SCT020 SCT026 19/15 Q1019=
METAR EGLF 081020Z VRB02KT 9999 SCT011 19/16 Q1019=
METAR EGLL 081020Z VRB03KT 9999 SCT014 SCT017 20/14 Q1019=
METAR EGMC 081020Z 26006KT 210V290 9999 FEW025 22/16 Q1019=
METAR EGMD 081020Z 28005KT 9999 FEW015 21/16 Q1019=
METAR EGMH 081020Z 22005KT 150V280 9999 FEW016 23/16 Q1019=
METAR EGNM 081020Z 23009KT 180V280 9999 SCT025 18/09 Q1017=
METAR EGNV 081020Z 24013KT 9999 FEW022 SCT033 18/11 Q1016=
METAR EGNX 081020Z 21009KT 170V240 9999 FEW040 19/08 Q1018=
METAR EGPD 081020Z 22013KT 190V270 CAVOK 18/08 Q1010 NOSIG=
METAR EGPF 081020Z 23017KT 9999 FEW030 SCT040 16/10 Q1013=
METAR EGPH 081020Z 24013KT 9999 FEW030 17/09 Q1013=
METAR EGPK 081020Z 22015KT 9999 FEW024 17/10 Q1014=
METAR EGSS 081020Z VRB05KT 9999 BKN015 20/14 Q1019=
METAR EGTE 081020Z 19004KT 9999 FEW025 20/14 Q1018=
METAR EGTG 081020Z 27005KT 9999 FEW025 20/13 Q1019=
METAR EGXU 080950Z 22007KT 9999 FEW029 SCT150 18/10 Q1016 BLU NOSIG=
METAR EGYE 080950Z 24012KT 9999 FEW030 SCT100 ///// Q1018 BLU=
####018003693####
SAUS99 KWBC 081025
METAR
KOMH 081020Z AUTO 00000KT 7SM CLR 24/21 A3003 RMK AO2
     T02360207=
KONX 081020Z AUTO 08004KT 10SM BKN012 BKN120 26/23 A2996 RMK AO2
     T02570230=
KOPN 081020Z AUTO 00000KT 10SM CLR 24/22 A3005 RMK AO1=
KPCM 081020Z AUTO 00000KT 3SM BR CLR 22/21 A3001 RMK AO2=
KRCZ 081020Z AUTO 00000KT 10SM CLR 24/18 A2996 RMK AO2
     T02440182=
KRMN 081020Z AUTO 00000KT 4SM BR SCT110 22/22 A3002 RMK AO2=
KSFQ 081020Z AUTO 00000KT 2SM BR 25/24 A2996 RMK AO2 SKY
     OBSCURED=
KSHD 081020Z AUTO 00000KT 4SM BR CLR 21/18 A3008 RMK AO2=
KSIF 081021Z AUTO 00000KT 4SM BR SCT090 22/21 A3002 RMK AO2=
KSVH 081020Z AUTO 00000KT 10SM CLR 20/17 A3004 RMK AO2
     T01970169=
KTBR 081020Z AUTO 27004KT 10SM CLR 23/20 A2999 RMK AO2
     T02250202=
KTVI 081020Z AUTO 00000KT 10SM CLR 22/21 A3003 RMK AO2
     T02150209=
KVDF 081016Z AUTO 00000KT 4SM BR CLR 22/21 A2999 RMK AO2=
KVDI 081023Z AUTO 23003KT 10SM CLR 22/21 A3001 RMK AO1=
KVJI 081023Z AUTO 00000KT 4SM BR CLR 21/19 A3014 RMK AO2=
KW22 081020Z AUTO 00000KT 1 3/4SM BR CLR 19/19 A3013 RMK AO2=
KW45 081020Z AUTO 00000KT 5SM BR CLR 21/20 A3005 RMK AO2
     T02140198=
KWDR 081020Z AUTO 00000KT 10SM CLR 22/20 A3007 RMK AO1=
KXLL 081020Z AUTO 00000KT 5SM BR CLR 24/22 A3004 RMK AO2
     T02360220=
KXSA 081020Z AUTO 00000KT 1 1/2SM SCT120 23/23 A2999 RMK AO2
     PWINO=
K1A5 081020Z AUTO 00000KT 5SM BR CLR 16/15 A3015 RMK AO2
     T01600148=
KUXL 081020Z AUTO 06007KT 10SM CLR 26/25 A2997 RMK AO2 LTG DSNT
     SW=
KASJ 081019Z AUTO 25003KT 2 1/2SM HZ SCT110 24/21 A2996 RMK
     AO2=
KBIJ 081021Z AUTO 00000KT 10SM CLR 19/ A3002 RMK AO2=
KCPC 081020Z AUTO 00000KT 10SM CLR 25/20 A2992 RMK AO2
     T02510196=
KCPK 081022Z AUTO 00000KT 3SM HZ SCT120 23/21 A2997 RMK AO2=
KCWF 081020Z AUTO 06005KT 7SM CLR 23/23 A2998 RMK AO2 LTG DSNT
     SW=
KEHO 081020Z AUTO 00000KT 10SM CLR 19/18 A3003 RMK AO2
     T01900180=
KEYF 081020Z AUTO 33003KT 10SM CLR 25/19 A2993 RMK AO2
     T02500185=
KFFA 081018Z AUTO 08007KT 10SM CLR 25/23 A2995 RMK AO2
     T02470226=
KGAO 081020Z AUTO 07003KT 10SM CLR 26/24 A3000 RMK AO2=
KGEV 081023Z AUTO 34003KT 7SM CLR 24/17 A3019 RMK AO2=
KGWW 081020Z AUTO 00000KT 5SM HZ CLR 24/21 A2995 RMK AO2
     T02380209=
KHBI 081022Z AUTO 00000KT 10SM CLR 22/17 A3002 RMK AO2=
KHDC 081023Z AUTO 05003KT 10SM BKN014 26/26 A3003 RMK AO2=
KHNZ 081020Z AUTO 01003KT 5SM HZ SCT110 24/19 A2999 RMK AO2
     T02440190=
KIER 081020Z AUTO 00000KT 10SM CLR 23/23 A3003 RMK AO2 PWINO=
KISO 081020Z AUTO 00000KT 4SM HZ CLR 23/21 A2995 RMK AO2
     T02330206=
KIXA 081020Z AUTO 03005KT 4SM BR SCT120 22/20 A2997 RMK AO2
     T02220198=
KJGG 081020Z AUTO 00000KT 4SM CLR 27/25 A2999 RMK AO1=
KJKA 081020Z AUTO 00000KT 4SM BR CLR 26/25 A3002 RMK AO2
     T02550245=
KJYO 081020Z AUTO 34004KT 7SM BKN110 27/20 A3002 RMK AO2=
KLDJ 081020Z AUTO 00000KT 2 1/2SM BR CLR 25/23 A3002 RMK AO2
     T02450231=
KLHZ 081020Z AUTO 00000KT 5SM HZ SCT120 23/19 A2998 RMK AO2
     T02280194=
KLKU 081020Z AUTO 00000KT 4SM HZ CLR 22/19 A3000 RMK AO2=
KLNP 081018Z AUTO 00000KT 5SM CLR 21/18 A3019 RMK AO1=
KLOM 081020Z AUTO 00000KT 2 1/2SM 22/21 A3003 RMK AO1 SKY OBSCURED
     T02150205=
KMDQ 081020Z AUTO 00000KT 7SM CLR 21/21 A3007 RMK AO2
     T02130207=
KMKJ 081020Z AUTO 00000KT 2SM CLR 17/07 A3021 RMK AO1=
KMLJ 081024Z AUTO 00000KT 7SM CLR 21/21 A3002 RMK AO2=
KMMU 081020Z AUTO 00000KT 2 1/2SM BR SCT100 21/20 RMK AO2
     T02060202=
KMQS 081020Z AUTO 00000KT 4SM CLR 23/22 A3006 RMK AO2 PWINO
     PNO=
KMTV 081020Z AUTO 00000KT 5SM BR CLR 21/21 A3005 RMK AO2=
####018000169####
SPUS99 KWBC 081025
SPECI
KCSM 081022Z AUTO 01007KT 7SM -RA FEW004 23/21 A3010 RMK AO2 RAB05
     P0000=
KNXX 081003Z 00000KT 3SM HZ CLR 23/20 A3004 RMK AO2 $=
####018000249####
SAUS99 KWBC 081025 RRA
METAR
KMZZ 080955Z AUTO 00000KT 7SM SCT100 21/19 A3006 RMK AO2=
KOBE 081021Z AUTO 03005KT 10SM CLR 23/22 A2997 RMK AO2 LTG DSNT
     S=
KOKV 081020Z AUTO 00000KT 4SM HZ SCT095 22/19 A3005 RMK AO2
     T02220185=
####018000256####
SADN34 EKCH 081020
METAR EKGF 081020Z 20010KT CAVOK 16/16 Q1017=
METAR EKHN 081020Z AUTO 21002KT 9999NDV FEW024/// FEW047///
SCT066/// BKN095/// 17/14 Q1019=
METAR EKHR 081020Z AUTO 23009KT 6000NDV -SHRA   FEW026/// SCT031///
OVC047/// 17/16 Q1018=
####018000475####
SAUK31 EGGY 081020
METAR EGBB 081020Z 24008KT 9999 FEW032 20/10 Q1018=
METAR EGCC 081020Z 21013KT 170V270 9999 SCT032 19/10 Q1017=
METAR EGKK 081020Z 25005KT 200V360 9999 SCT024 22/15 Q1018=
METAR EGLL 081020Z VRB03KT 9999 SCT014 SCT017 20/14 Q1019=
METAR EGPF 081020Z 23017KT 9999 FEW030 SCT040 16/10 Q1013=
METAR EGPH 081020Z 24013KT 9999 FEW030 17/09 Q1013=
METAR EGPK 081020Z 22015KT 9999 FEW024 17/10 Q1014=
METAR EGSS 081020Z VRB05KT 9999 BKN015 20/14 Q1019=
####018000422####
SAUK35 EGGY 081020
METAR EGHH 081020Z VRB03KT 9999 FEW008 SCT022 19/16 Q1018=
METAR EGKA 081020Z NIL=
METAR EGKB 081020Z 21004KT 160V270 9999 BKN025 21/15 Q1019 =
METAR EGLF 081020Z VRB02KT 9999 SCT011 19/16 Q1019=
METAR EGMC 081020Z 26006KT 210V290 9999 FEW025 22/16 Q1019=
METAR EGMD 081020Z 28005KT 9999 FEW015 21/16 Q1019=
METAR EGMH 081020Z 22005KT 150V280 9999 FEW016 23/16 Q1019 =
METAR EGTC 081020Z NIL=
####018000515####
SAUK34 EGGY 081020
METAR EGHD 081020Z VRB03KT 9999 FEW022 20/13 Q1019=
METAR EGHE 081020Z NIL=
METAR COR EGHK 081020Z 14005KT 9999 FEW025 17/15 Q1018 NOSIG=
METAR EGHQ 081020Z 30008KT 9999 FEW024 17/12 Q1019=
METAR EGJA 081020Z 21004KT 9999 FEW003 SCT006 BKN012 18/16 Q1019=
METAR EGJB 081020Z VRB03KT 9999 FEW007 BKN011 19/17 Q1019=
METAR EGJJ 081020Z 04004KT 350V100 9999 FEW015 21/18 Q1019 NOSIG=
METAR EGTE 081020Z 19004KT 9999 FEW025 20/14 Q1018=
METAR EGTG 081020Z 27005KT 9999 FEW025 20/13 Q1019=
####018000279####
SASW32 LSSW 081020
METAR LSGC 081020Z 24004KT 160V300 CAVOK 24/12 Q1024=
METAR LSGS 081020Z 24007KT 9999 FEW100 28/13 Q1021=
METAR LSZG 081020Z VRB02KT CAVOK 27/13 Q1022 NOSIG=
METAR LSZR 081020Z NIL=
METAR LSZS 081020Z 22008KT CAVOK 22/11 Q1027=
METAR LSZC 081020Z NIL=
####018000445####
SASN35 ESWI 081020
METAR ESGL 081020Z AUTO 22012KT 9999NDV OVC031/// 22/15 Q1017=
METAR ESGR 081020Z AUTO 21012KT 9999NDV BKN043/// OVC055/// 22/14
Q1018=
METAR ESKM 081020Z NIL=
METAR ESNL 081020Z 14012KT CAVOK 19/11 Q1013=
METAR ESNX 081020Z AUTO 18007KT 9999NDV -RA VV015 16/12 Q1014=
METAR ESNY 081020Z AUTO 22010KT 190V260 9999 FEW040 SCT047 24/16
Q1014=
METAR ESSF 081020Z NIL=
METAR ESSK 081020Z NIL=
METAR ESUD 081020Z NIL=
####018000568####
SASN33 ESWI 081020
METAR ESNG 081020Z 14009KT 110V190 9999 FEW046 BKN067 20/09 Q1013=
METAR ESNK 081020Z AUTO 16010KT 9999NDV NCD 22/12 Q1012=
METAR ESNN 081020Z 13010KT 9999 FEW042 22/13 Q1013=
METAR ESNO 081020Z AUTO 13013KT 9999NDV FEW046/// 20/11 Q1014=
METAR ESNQ 081020Z 18009KT 9999 BKN058 17/09 Q1013=
METAR ESNS 081020Z AUTO 14011KT 9999NDV ////// 22/09 Q1015=
METAR ESNU 081020Z 15006KT 120V180 CAVOK 20/12 Q1015=
METAR ESNZ 081020Z 19010KT 9999 FEW042 SCT084 19/11 Q1012=
METAR ESUT 081020Z AUTO 15009KT 9999NDV SCT076/// OVC120/// 18/11
Q1011=
####018000184####
SASN34 ESWI 081020
METAR ESDF 081020Z 21008KT 180V260 CAVOK 23/12 Q1021=
METAR ESPA 081020Z 14011KT CAVOK 18/14 Q1016=
METAR ESSL 081020Z 23009KT 190V280 9999 SCT044 23/12 Q1018=
####018000171####
SAUK31 EGGY 081020 CCA
METAR COR EGCC 081020Z 21013KT 170V270 9999 SCT032 19/10 Q1017
    NOSIG=
METAR COR EGLL 081020Z VRB03KT 9999 SCT014 SCT017 20/14 Q1019 NOSIG=
####018000481####
SASN32 ESWI 081020
METAR ESKN 081020Z 25012KT 230V290 9999 FEW047 24/12 Q1018=
METAR ESOE 081020Z NIL=
METAR ESOK 081020Z 21010KT 9999 BKN021 18/14 Q1017=
METAR ESOW 081020Z 23011KT CAVOK 23/13 Q1017=
METAR ESSA 081020Z 23011KT 200V270 CAVOK 24/13 Q1017 NOSIG=
METAR ESSB 081020Z 26009KT 210V300 CAVOK 24/12 Q1017=
METAR ESSD 081020Z AUTO 24009KT 9999NDV BKN024/// 18/12 Q1016=
METAR ESSP 081020Z 25014KT CAVOK 23/12 Q1018=
METAR ESSV 081020Z 28007KT CAVOK 20/13 Q1019=
####018000384####
SAFI32 EFHK 081020
EFHA 081020Z VRB03KT 9999 FEW030 SCT200 22/16 Q1016=
EFHF 081020Z VRB05KT 9999 FEW039 BKN046 28/18 Q1014=
EFKA 081020Z 21004KT 180V250 9999 FEW040 BKN200 23/12 Q1015=
EFKK 081020Z 12004KT 040V190 CAVOK 23/12 Q1015=
EFMA 081020Z 19008KT 150V210 CAVOK 21/13 Q1016=
EFPO 081020Z VRB02KT CAVOK 25/10 Q1016=
EFSI 081020Z AUTO 16005KT 090V260 CAVOK 24/11 Q1015=
####018000083####
SPUS31 KWBC 081025
SPECI
KBGR 081022Z 17007KT 1 1/2SM BR OVC005 21/20 A3008=
####018000121####
SPCN31 KWBC 081025
SPECI
CYFC 081024Z AUTO 19006KT 9SM SCT008 20/18 A3007 RMK SLP184
DENSITY ALT 400FT RVR MISG=
####018000097####
SAUS41 KAKQ 081024
MTRNFE
SPECI KNFE 081023Z AUTO 07003KT 1SM HZ CLR 25/22 A2997 RMK AO2 $
####018000119####
SPUS41 KWBC 081025
SPECI
KWRI 081022Z AUTO 00000KT 1/4SM R18/0400V1800FT R24/1400V1800FT FG
VV001 23/23 A3001=
####018000081####
SPUS42 KWBC 081025
SPECI
KLCH 081022Z AUTO 05004KT 9SM BKN026 25/23 A2997=
####018000803####
SADL52 ETGT 081020
METAR
ETGQ NIL=
ETGZ 081020Z 13003KT 9999 23/08 Q1024
      BLU+=
ETHA 081020Z 07003KT 9999 FEW050 22/09 Q1023
      BLU+BLU+=
ETHL 081020Z 08004KT 9999 FEW140 24/08 Q1023
      BLU+BLU+=
ETHN 081020Z 12006KT 9999 FEW060 25/07 Q1023
      BLU+BLU+=
ETHR 081020Z 13006KT 9999 FEW180 25/06 Q1023
      BLU+BLU+=
ETNN 081020Z 20004KT 9999 FEW060 29/04 Q1020
      BLU+BLU+=
ETSA 081020Z 06004KT 9999 24/09 Q1023
      BLU+BLU+=
ETSB 081020Z 16006KT 9999 SCT290 26/09 Q1022
      BLU+BLU+=
ETSE 081020Z 09006KT 9999 FEW170 22/08 Q1023
      BLU+BLU+=
ETSI 081020Z 13007KT 9999 FEW120 24/07 Q1023
      BLU+BLU+=
ETSL 081020Z 06006KT 9999 FEW140 23/09 Q1023
      BLU+BLU+=
ETSN 081020Z 09006KT 9999 FEW160 24/08 Q1023
      BLU+BLU+=
####018000096####
SPUS51 KWBC 081025
SPECI
KWAL 081020Z AUTO 12004KT 10SM FEW006 SCT075 BKN110 24/22 A3000=
####018000089####
SPUS52 KWBC 081025
SPECI
KFSM 081022Z AUTO 00000KT 10SM FEW026 BKN034 24/22 A3003=
####018000092####
SPUS52 KWBC 081025 CCA
SPECI
KJCT 081022Z AUTO 00000KT 8SM BKN014 OVC040 22/22 A3001=
####018000404####
SAUS20 KNKA 081024
SPECI KGCK 081023Z AUTO 03007KT 10SM SCT013 BKN060 18/17 A3021 RMK 
    AO2=
SPECI KMTH 081023Z AUTO 04006KT 10SM SCT019 BKN040 A2992 RMK AO2 
    FZRANO $=
SPECI KORE 081023Z AUTO 00000KT 6SM BR BKN011 OVC085 23/22 A3008 RMK 
    AO2=
SPECI KRAL 081023Z AUTO 00000KT 5SM BR OVC009 15/13 A2990 RMK AO2=
SPECI KTHV 081023Z AUTO 00000KT 3SM BR CLR 21/20 A3003 RMK AO2=
####018000081####
SPUS53 KWBC 081025
SPECI
KCNU 081022Z AUTO 35004KT 9SM SCT007 22/20 A3004=
####018000089####
SPUS72 KWBC 081025
SPECI
KFSM 081022Z AUTO 00000KT 10SM FEW026 BKN034 24/22 A3003=
####018000081####
SPUS72 KWBC 081025
SPECI
KLCH 081022Z AUTO 05004KT 9SM BKN026 25/23 A2997=
####018000490####
SASN32 ESWI 081020
METAR ESKN 081020Z 25012KT 230V290 9999 FEW047 24/12 Q1018=
METAR ESOE 081020Z NIL=
METAR ESOK 081020Z 21010KT 9999 BKN021 18/14 Q1017=
METAR ESOW 081020Z 23011KT CAVOK 23/13 Q1017=
METAR ESSA 081020Z 23011KT 200V270 CAVOK 24/13 Q1017 NOSIG=
METAR ESSB 081020Z 26009KT 210V300 CAVOK 24/12 Q1017=
METAR ESSD 081020Z AUTO 24009KT 9999NDV BKN024/// 18/12 Q1016=
METAR ESSP 081020Z 25014KT CAVOK 23/12 Q1018=
METAR ESSV 081020Z 28007KT CAVOK 20/13 Q1019=
####018000428####
SAUK33 EGGY 081020
METAR EGGD 081020Z 23005KT 150V280 9999 SCT024 19/12 Q1019=
METAR EGGP 081020Z 23008KT 200V260 9999 FEW030 SCT045 18/10
    Q1017=
METAR EGHI 081020Z 03003KT 310V120 9999 BKN018 19/14 Q1019 =
METAR EGNS 081020Z NIL=
METAR EGNT 081020Z 24009KT 190V270 9999 SCT038 20/10 Q1014=
METAR EGNV 081020Z 24013KT 9999 FEW022 SCT033 18/11 Q1016=
METAR COR EGPB 081020Z 19015KT CAVOK 15/11 Q1007 NOSIG=
####018000456####
SASN35 ESWI 081020
METAR ESGL 081020Z AUTO 22012KT 9999NDV OVC031/// 22/15 Q1017=
METAR ESGR 081020Z AUTO 21012KT 9999NDV BKN043/// OVC055/// 22/14
Q1018=
METAR ESKM 081020Z NIL=
METAR ESNL 081020Z 14012KT CAVOK 19/11 Q1013=
METAR ESNX 081020Z AUTO 18007KT 9999NDV -RA VV015 16/12 Q1014=
METAR ESNY 081020Z AUTO 22010KT 190V260 9999 FEW040 SCT047 24/16
Q1014=
METAR ESSF 081020Z NIL=
METAR ESSK 081020Z NIL=
METAR ESUD 081020Z NIL=
####018000094####
SPCN31 CWAO 081024
SPECI CYZX 081024Z 23004KT 5SM BR BKN010 RMK SF6 WNDY HILL 20005KT=

####018000187####
SASN34 ESWI 081020
METAR ESDF 081020Z 21008KT 180V260 CAVOK 23/12 Q1021=
METAR ESPA 081020Z 14011KT CAVOK 18/14 Q1016=
METAR ESSL 081020Z 23009KT 190V280 9999 SCT044 23/12 Q1018=
####018000521####
SAUK32 EGGY 081020
METAR EGAA 081020Z 24012KT 9999 SCT025 16/10 Q1014=
METAR EGAC 081020Z 23012KT 9999 FEW022 SCT033 17/08 Q1014=
METAR EGFF 081020Z 20005KT 140V240 9999 FEW022 19/12 Q1019=
METAR EGGW 081020Z 25004KT 200V280 9999 SCT025 20/13 Q1019=
METAR EGLC 081020Z 32005KT 290V350 9999 SCT020 SCT026 19/15
    Q1019=
METAR EGNM 081020Z 23009KT 180V280 9999 SCT025 18/09 Q1017=
METAR EGNX 081020Z 21009KT 170V240 9999 FEW040 19/08 Q1018=
METAR EGPD 081020Z 22013KT 190V270 CAVOK 18/08 Q1010 NOSIG=
####018000430####
SAUK35 EGGY 081020
METAR EGHH 081020Z VRB03KT 9999 FEW008 SCT022 19/16 Q1018=
METAR EGKA 081020Z NIL=
METAR EGKB 081020Z 21004KT 160V270 9999 BKN025 21/15 Q1019 =
METAR EGLF 081020Z VRB02KT 9999 SCT011 19/16 Q1019=
METAR EGMC 081020Z 26006KT 210V290 9999 FEW025 22/16 Q1019=
METAR EGMD 081020Z 28005KT 9999 FEW015 21/16 Q1019=
METAR EGMH 081020Z 22005KT 150V280 9999 FEW016 23/16 Q1019 =
METAR EGTC 081020Z NIL=
####018000174####
SAUK31 EGGY 081020 CCA
METAR COR EGCC 081020Z 21013KT 170V270 9999 SCT032 19/10 Q1017
    NOSIG=
METAR COR EGLL 081020Z VRB03KT 9999 SCT014 SCT017 20/14 Q1019 NOSIG=
####018000114####
SAPK31 OPKC 081025
METAR OPKC 081030Z 14014KTS 8000 SCT020 SCT030 TCU 35/24 Q.1002
NE 30KTS TSRA FEW025 CB=
####018000578####
SASN33 ESWI 081020
METAR ESNG 081020Z 14009KT 110V190 9999 FEW046 BKN067 20/09 Q1013=
METAR ESNK 081020Z AUTO 16010KT 9999NDV NCD 22/12 Q1012=
METAR ESNN 081020Z 13010KT 9999 FEW042 22/13 Q1013=
METAR ESNO 081020Z AUTO 13013KT 9999NDV FEW046/// 20/11 Q1014=
METAR ESNQ 081020Z 18009KT 9999 BKN058 17/09 Q1013=
METAR ESNS 081020Z AUTO 14011KT 9999NDV ////// 22/09 Q1015=
METAR ESNU 081020Z 15006KT 120V180 CAVOK 20/12 Q1015=
METAR ESNZ 081020Z 19010KT 9999 FEW042 SCT084 19/11 Q1012=
METAR ESUT 081020Z AUTO 15009KT 9999NDV SCT076/// OVC120/// 18/11
Q1011=
####018000107####
SATU20 LTAA 080950 RRD
METAR LTCC 081020Z VRB06KT CAVOK 40/03 Q1006 NOSIG RMK RWY16 19008KT
160V230=
####018000181####
SATU20 LTAA 080950 RRB
METAR LTAN 081020Z 32007KT 9999 FEW040 31/12 Q1011 NOSIG RMK RWY19 03008KT=
METAR LTAU 081020Z VRB03KT 9999 SCT040 31/12 Q1011 NOSIG RMK RWY07 VRB02KT=
####018000084####
SAMP31 LMMM 081030 RRA
METAR HLLT 081020Z 30004KT 270V330 8000 SKC 31/19 Q1019=
####018000391####
SAFI32 EFHK 081020
EFHA 081020Z VRB03KT 9999 FEW030 SCT200 22/16 Q1016=
EFHF 081020Z VRB05KT 9999 FEW039 BKN046 28/18 Q1014=
EFKA 081020Z 21004KT 180V250 9999 FEW040 BKN200 23/12 Q1015=
EFKK 081020Z 12004KT 040V190 CAVOK 23/12 Q1015=
EFMA 081020Z 19008KT 150V210 CAVOK 21/13 Q1016=
EFPO 081020Z VRB02KT CAVOK 25/10 Q1016=
EFSI 081020Z AUTO 16005KT 090V260 CAVOK 24/11 Q1015=
####018000524####
SAUK34 EGGY 081020
METAR EGHD 081020Z VRB03KT 9999 FEW022 20/13 Q1019=
METAR EGHE 081020Z NIL=
METAR COR EGHK 081020Z 14005KT 9999 FEW025 17/15 Q1018 NOSIG=
METAR EGHQ 081020Z 30008KT 9999 FEW024 17/12 Q1019=
METAR EGJA 081020Z 21004KT 9999 FEW003 SCT006 BKN012 18/16 Q1019=
METAR EGJB 081020Z VRB03KT 9999 FEW007 BKN011 19/17 Q1019=
METAR EGJJ 081020Z 04004KT 350V100 9999 FEW015 21/18 Q1019 NOSIG=
METAR EGTE 081020Z 19004KT 9999 FEW025 20/14 Q1018=
METAR EGTG 081020Z 27005KT 9999 FEW025 20/13 Q1019=
####018000483####
SAUK31 EGGY 081020
METAR EGBB 081020Z 24008KT 9999 FEW032 20/10 Q1018=
METAR EGCC 081020Z 21013KT 170V270 9999 SCT032 19/10 Q1017=
METAR EGKK 081020Z 25005KT 200V360 9999 SCT024 22/15 Q1018=
METAR EGLL 081020Z VRB03KT 9999 SCT014 SCT017 20/14 Q1019=
METAR EGPF 081020Z 23017KT 9999 FEW030 SCT040 16/10 Q1013=
METAR EGPH 081020Z 24013KT 9999 FEW030 17/09 Q1013=
METAR EGPK 081020Z 22015KT 9999 FEW024 17/10 Q1014=
METAR EGSS 081020Z VRB05KT 9999 BKN015 20/14 Q1019=
####018000081####
SPUS73 KWBC 081025
SPECI
KLOZ 081022Z AUTO 00000KT 3SM BR CLR 19/19 A3010=
####018000077####
SARE03 FMEE 081000
METAR
FMEP 081000Z 12027KT 9999 FEW030 25/17 Q1021=
####018000081####
SPUS81 KWBC 081025
SPECI
KCNU 081022Z AUTO 35004KT 9SM SCT007 22/20 A3004=
####018000122####
SAUS41 KAKQ 081025 COR
MTRWAL
SPECI KWAL 081020Z AUTO 12004KT 10SM FEW006 SCT075 BKN110 24/22 
A3000 RMK AO2 TSNO
####018000096####
SPUS81 KWBC 081025
SPECI
KWAL 081020Z AUTO 12004KT 10SM FEW006 SCT075 BKN110 24/22 A3000=
####018001524####
SPZZ40 KAWN 081025 RRF
SPECI BGTL 081022Z AUTO 00000KT 2000 BR OVC002 04/04 A2984 RMK AO2
      SLP109=
SPECI CYKF 081023Z AUTO 00000KT 3/4SM BR CLR 19/19 A3006 RMK SLP177
      DENSITY ALT 1600FT VIS VRB 1/4-2 1/2=
SPECI CYNA 081023Z AUTO 10011KT 9SM OVC003 OVC045 OVC052 OVC073 13/12
      A3004=
SPECI CYQA 081023Z AUTO 15002KT 6SM BR CLR 19/19 A3003 RMK SLP171 DENSITY
      ALT 1400FT=
SPECI CYYY 081023Z 03002KT 2 1/2SM BR OVC003 RMK ST8=
SPECI CYZE 081022Z AUTO 16007KT 4SM BR SCT002 BKN008 OVC160 20/20 A2997
      RMK SLP150 DENSITY ALT 1300FT=
SPECI KDOV 081023Z AUTO 13004KT 3SM BR FEW006 24/ A3000 RMK AO2 SLP162
      $=
SPECI KEGI 081022Z AUTO 00000KT 2 1/2SM R18/2200V5500FT BR CLR 21/21
      A3002 RMK AO2 VIS 1V5 SLP166 $=
SPECI KRND 081023Z AUTO 05006KT 10SM BKN009 BKN014 25/23 A2993 RMK
      AO2 SLP125=
SPECI KVOK 081022Z 27004KT 1SM R27/3000VP6000FT BR CLR 17/17 A3002
      RMK AO2A SLP160=
SPECI KWRI 081022Z AUTO 00000KT 1/4SM R18/0400V1800FT R24/1400V1800FT
      FG VV001 23/23 A3001 RMK AO2 SLP162 $=
SPECI PASY 081021Z AUTO 02018KT 10SM OVC004 A2974 RMK AO2 TSNO PNO=
SPECI RKJK 081021Z 11005KT 9000 BR FEW030 24/22 A2978 RMK AO2A RAE1019DZB1019E1021
      SLP085 $=
SPECI RKJK 081022Z 10004KT 9000 TS FEW030CB 24/22 A2978 RMK AO2A=
SPECI RKSG 080959Z COR 00000KT 8000 BR FEW060 BKN080 26/25 A2978 RMK
      AO2A DZE0959 SLP085 $ COR 1020=
SPECI TTCP 081014Z 09006KT 7000 -SHRA VCSH FEW010CB SCT012TCU BKN035
      24/23 Q1013 RERA=
####018000203####
SANO37 ENMI 081020
METAR ENNO 081020Z NIL=
METAR ENOV 081020Z NIL=
METAR ENSD 081020Z NIL=
METAR ENSG 081020Z NIL=
METAR ENSN 081020Z NIL=
METAR ENSR 081020Z NIL=
METAR ENSS 081020Z NIL=
