####018000076####
SPUS52 KWBC 081435
SPECI
KACT 081431Z 07007KT 9SM FEW012 27/24 A3003=
####018000084####
SPUS53 KWBC 081435
SPECI
KRFD 081433Z 31010KT 10SM BKN017 BKN150 24/20 A3005=
####018000512####
SAFR36 LFPW 081430
METAR LFGJ 081430Z AUTO 19004KT 110V240 9999NDV NSC 32/12 Q1019=
METAR LFMD 081430Z AUTO 18005KT 140V240 9999NDV NSC 30/21 Q1020=
METAR LFOT 081430Z AUTO 12005KT 060V190 9999NDV NSC 34/08 Q1017=
METAR LFRC 081430Z AUTO 36007KT 330V030 9999NDV NSC 20/16 Q1019=
METAR LFRG 081430Z AUTO 35005KT 310V030 9999NDV NSC 28/15 Q1019=
METAR LFBA 081430Z NIL=
METAR LFBE 081430Z NIL=
METAR LFJR 081430Z NIL=
METAR LFMH 081430Z NIL=
METAR LFPN 081430Z NIL=
METAR LFRK 081430Z NIL=
####018000108####
SAGG31 UGTB 081430
METAR UGTB 081430Z 08011KT 9999 SCT050 SCT100 34/12 Q1013 NOSIG RMK
      13CLRD80=
####018000517####
SAFR35 LFPW 081430
METAR LFMI 081430Z AUTO 18011KT 9999NDV NSC 32/17 Q1019=
METAR LFMK 081430Z AUTO 09017KT 9999NDV NSC 34/13 Q1018=
METAR LFRD 081430Z AUTO 01009KT 9999NDV NSC 23/15 Q1018=
METAR LFRN 081430Z AUTO VRB05KT 9999NDV NSC 32/10 Q1016=
METAR LFRO 081430Z AUTO 02010KT 340V050 9999NDV NSC 20/16 Q1018=
METAR LFRZ 081430Z AUTO 18009KT 9999NDV NSC 32/08 Q1016=
METAR LFSB 081430Z VRB03KT CAVOK 32/12 Q1020 NOSIG=
METAR LFST 081430Z VRB03KT CAVOK 32/10 Q1019 NOSIG=
METAR LFTH 081430Z NIL=
####018000245####
SATS40 DTTA 081430
METAR DTMB 081430Z 07011KT CAVOK 30/19 Q1018 NOSIG=
METAR DTNZ 081430Z AUTO 10015KT CAVOK 28/19 Q1018=
METAR DTTA 081430Z 01012KT 340V040 CAVOK 29/20 Q1019  NOSIG=
METAR DTTJ 081430Z 08012KT CAVOK 30/21 Q1017 NOSIG=
####018000396####
SAFR32 LFPW 081430
METAR LFBH 081430Z AUTO 31011KT 9999NDV NSC 28/16 Q1016=
METAR LFBO 081430Z 14013KT CAVOK 36/12 Q1017 NOSIG=
METAR LFML 081430Z 18011KT CAVOK 32/18 Q1019 NOSIG=
METAR LFBD 081430Z NIL=
METAR LFBI 081430Z NIL=
METAR LFBL 081430Z NIL=
METAR LFBP 081430Z NIL=
METAR LFBT 081430Z NIL=
METAR LFBZ 081430Z NIL=
METAR LFLB 081430Z NIL=
METAR LFLX 081430Z NIL=
####018000089####
SAUK38 EGGY 081420 CCA
METAR COR EGPM 081420Z 22022KT 9999 FEW029 16/10 Q1007 NOSIG=
####018000477####
SAFR37 LFPW 081430
METAR LFAQ 081430Z AUTO VRB06KT 9999NDV NSC 31/09 Q1018=
METAR LFBU 081430Z AUTO 11007KT 060V180 9999NDV NSC 35/11 Q1017=
METAR LFLN 081430Z AUTO VRB02KT 9999NDV NSC 33/12 Q1019=
METAR LFRQ 081430Z AUTO 36012KT 9999NDV NSC 25/17 Q1015=
METAR LFSD 081430Z AUTO 17006KT 120V220 9999NDV NSC 32/12 Q1019=
METAR LFTW 081430Z AUTO 20008KT 150V230 9999NDV NSC 32/15 Q1020=
METAR LFPM 081430Z NIL=
METAR LFRH 081430Z NIL=
METAR LFRT 081430Z NIL=
####018000397####
SAFR33 LFPW 081430
METAR LFKB 081430Z 11004KT 040V180 9999 FEW028 30/21 Q1019 NOSIG=
METAR LFKJ 081430Z 19009KT 9999 FEW030 FEW046TCU 31/23 Q1019 NOSIG=
METAR LFMV 081430Z AUTO 26006KT 190V320 9999NDV NSC 35/16 Q1019=
METAR LFSL 081430Z AUTO 11005KT 080V170 9999NDV NSC 33/10 Q1019=
METAR LFKC 081430Z NIL=
METAR LFKF 081430Z NIL=
METAR LFLC 081430Z NIL=
METAR LFMP 081430Z NIL=
####018000088####
SAKO31 RKSI 081430
METAR RKSI 081430Z 09002KT 8000 FEW030 OVC110 22/19 Q1009 NOSIG=
####018000631####
SAFR34 LFPW 081430
METAR LFCR 081430Z AUTO 14008KT 100V180 9999NDV NSC 34/10 Q1021=
METAR LFJL 081430Z AUTO /////KT 9999NDV NSC 32/08 Q1019=
METAR LFLP 081430Z AUTO 24008KT 200V270 9999NDV NSC 31/15 Q1021=
METAR LFMU 081430Z AUTO 16008KT 110V190 9999NDV NSC 29/15 Q1020=
METAR LFOH 081430Z AUTO 35007KT //// R23///// NSC 26/14 Q1018=
METAR LFOK 081430Z AUTO 15005KT 120V180 9999NDV NSC 32/09 Q1019=
METAR LFPB 081430Z 22007KT 180V270 CAVOK 33/10 Q1017 NOSIG=
METAR LFLS 081430Z NIL=
METAR LFLY 081430Z NIL=
METAR LFMT 081430Z NIL=
METAR LFOB 081430Z NIL=
METAR LFOP 081430Z NIL=
METAR LFSN 081430Z NIL=
####018000830####
SAEW32 LEMM 081430
METAR LEAS 081430Z 05006KT 010V080 9999 FEW015 23/19 Q1015 NOSIG=
METAR LEBB 081430Z 29005KT 230V340 9999 FEW025 26/21 Q1016 TEMPO
SCT030CB=
METAR LECO 081430Z 31007KT 250V340 CAVOK 25/20 Q1016=
METAR LEGE 081430Z 18009KT 140V210 CAVOK 32/18 Q1019=
METAR LEST 081430Z 25007KT 210V290 9999 SCT035 27/20 Q1016 NOSIG=
METAR LEZG 081430Z 09006KT 9999 FEW035 FEW040CB SCT070 37/12
Q1016=
METAR LESO 081430Z VRB04KT CAVOK 27/21 Q1015=
METAR LEVT 081430Z 13003KT 090V160 9999 FEW050 33/17 Q1017=
METAR LERS 081430Z 19009KT 160V240 CAVOK 30/12 Q1019=
METAR LEMH 081430Z 17008KT 120V210 CAVOK 29/19 Q1020=
METAR LEAM 081430Z 09017KT 060V120 9999 FEW050 38/06 Q1015=
METAR LEGR 081430Z 15017KT 9999 FEW060 SCT080 39/06 Q1016=
METAR LERL 081430Z 18007G17KT 110V250 9999 FEW050 37/04 Q1017=
####018000629####
SAEW31 LEMM 081430
METAR LEMD 081430Z 34009KT 310V020 9999 SCT035CB 30/14 Q1018   WS
ALL RWY TEMPO SHRA=
METAR LEBL 081430Z 20013KT CAVOK 28/20 Q1019 NOSIG=
METAR LEPA 081430Z 23010KT 200V260 CAVOK 31/14 Q1019 NOSIG=
METAR LEZL 081430Z 22008KT 170V290 9999 FEW040 33/16 Q1015 NOSIG=
METAR LEMG 081430Z 16009KT 110V200 9999 FEW045 29/15 Q1016 NOSIG=
METAR LEVC 081430Z 12011KT 090V150 CAVOK 32/12 Q1018 NOSIG=
METAR LEAL 081430Z 07010KT 050V110 CAVOK 30/18 Q1019 NOSIG=
METAR LEIB 081430Z 09007KT 040V120 CAVOK 29/21 Q1019 NOSIG=
METAR LELC 081430Z NIL=
METAR LEVX 081430Z 36006KT 8000 FEW030 22/18 Q1016=
####018000405####
SARO31 LROM 081430
METAR LRBS 081430Z 28006KT 240V310 9999 -RA FEW006 21/17 Q1016
NOSIG=
METAR LRCK 081430Z 02012KT 350V060 9999 TS SCT035CB 25/16 Q1014
TEMPO 5000 TSRA=
METAR LROP 081430Z 25006KT 210V270 9999 -SHRA FEW018 SCT040CB 21/15
Q1016 880///95 NOSIG=
METAR LRSB 081430Z 03004KT 340V070 9999 BKN033 OVC086 18/13 Q1020=
METAR LRTR 081430Z 34010KT 310V020 9999 FEW048 24/14 Q1020=
####018000093####
SAUZ31 UTTW 081430
METAR UTSS 081430Z 08003MPS 9999 NSC 30/10 Q1010 R88/CLRD70 
NOSIG=
####018000169####
SACY31 LCLK 081430
METAR LCLK 081430Z 20017KT 9999 FEW030 29/23 Q1007 NOSIG=
METAR LCPH 081430Z 26008KT 200V290 9999 SCT015 29/24 Q1008=
METAR LCNC 081430Z NIL=
####018000381####
SAFR31 LFPW 081430
METAR LFLL 081430Z 23006KT 140V300 CAVOK 33/11 Q1019 NOSIG=
METAR LFMN 081430Z 15003KT 120V180 9999 FEW016 28/23 Q1020 NOSIG=
METAR LFPG 081430Z VRB04KT CAVOK 32/08 Q1018 NOSIG=
METAR LFPO 081430Z 09003KT 350V160 CAVOK 32/09 Q1018 NOSIG=
METAR LFQQ 081430Z 21009KT 160V270 CAVOK 32/12 Q1018 NOSIG=
METAR LFRB 081430Z NIL=
METAR LFRS 081430Z NIL=
####018000076####
SPUS72 KWBC 081435
SPECI
KACT 081431Z 07007KT 9SM FEW012 27/24 A3003=
####018001888####
SAEU KAWN 081400 RRX
METAR LFBC 081430Z AUTO 13007KT 060V170 9999NDV NSC 39/13 Q1014=
METAR LFBF 081430Z AUTO 12010KT 090V160 9999NDV // NSC 36/15 Q1017=
METAR LFBG 081430Z AUTO 14005KT 070V240 9999NDV NSC 35/11 Q1016=
METAR LFBM 081430Z AUTO 10009KT 080V150 6000NDV NSC 38/18 Q1014=
METAR LFBO 081430Z 14013KT CAVOK 36/12 Q1017 NOSIG=
METAR LFCR 081430Z AUTO 14008KT 100V180 9999NDV NSC 34/10 Q1021=
METAR LFKB 081430Z 11004KT 040V180 9999 FEW028 30/21 Q1019 NOSIG=
METAR LFKS 081430Z AUTO 11005KT 090V150 9999NDV NSC 29/22 Q1019=
METAR LFLL 081430Z 23006KT 140V300 CAVOK 33/11 Q1019 NOSIG=
METAR LFMI 081430Z AUTO 18011KT 9999NDV NSC 32/17 Q1019=
METAR LFML 081430Z 18011KT CAVOK 32/18 Q1019 NOSIG=
METAR LFMN 081430Z 15003KT 120V180 9999 FEW016 28/23 Q1020 NOSIG=
METAR LFMO 081430Z AUTO VRB05KT 9999NDV NSC 35/14 Q1019=
METAR LFMY 081430Z 21011KT CAVOK 32/18 Q1019=
METAR LFOA 081430Z AUTO 20005KT 120V270 9999NDV NSC 33/06 Q1018=
METAR LFOC 081430Z AUTO 21005KT 130V280 9999NDV NSC 34/08 Q1018=
METAR LFOE 081430Z 16005KT 090V210 CAVOK 33/08 Q1017=
METAR LFOH 081430Z AUTO 35007KT //// R23///// NSC 26/14 Q1018=
METAR LFPB 081430Z 22007KT 180V270 CAVOK 33/10 Q1017 NOSIG=
METAR LFPC 081430Z 14005KT 100V200 CAVOK 32/10 Q1018=
METAR LFPG 081430Z VRB04KT CAVOK 32/08 Q1018 NOSIG=
METAR LFPO 081430Z 09003KT 350V160 CAVOK 32/09 Q1018 NOSIG=
METAR LFPV 081430Z AUTO 19004KT 140V280 9999NDV NSC 31/09 Q1018=
METAR LFQQ 081430Z 21009KT 160V270 CAVOK 32/12 Q1018 NOSIG=
METAR LFSD 081430Z AUTO 17006KT 120V220 9999NDV NSC 32/12 Q1019=
METAR LFSF 081430Z AUTO VRB03KT 9999NDV NSC 33/08 Q1019=
METAR LFSI 081430Z AUTO VRB03KT 9999NDV NSC 33/09 Q1019=
METAR LFSO 081430Z AUTO VRB06KT 9999NDV NSC 32/12 Q1020=
METAR LFSR 081430Z AUTO VRB04KT 9999NDV NSC 33/11 Q1018=
METAR LFSX 081430Z AUTO 23006KT 180V280 9999NDV NSC 32/11 Q1020=
####018001876####
SAEW KAWN 081400 RRM
METAR LFBC 081430Z AUTO 13007KT 060V170 9999NDV NSC 39/13 Q1014=
METAR LFBF 081430Z AUTO 12010KT 090V160 9999NDV // NSC 36/15 Q1017=
METAR LFBG 081430Z AUTO 14005KT 070V240 9999NDV NSC 35/11 Q1016=
METAR LFBM 081430Z AUTO 10009KT 080V150 6000NDV NSC 38/18 Q1014=
METAR LFBO 081430Z 14013KT CAVOK 36/12 Q1017 NOSIG=
METAR LFCR 081430Z AUTO 14008KT 100V180 9999NDV NSC 34/10 Q1021=
METAR LFKS 081430Z AUTO 11005KT 090V150 9999NDV NSC 29/22 Q1019=
METAR LFLL 081430Z 23006KT 140V300 CAVOK 33/11 Q1019 NOSIG=
METAR LFMI 081430Z AUTO 18011KT 9999NDV NSC 32/17 Q1019=
METAR LFML 081430Z 18011KT CAVOK 32/18 Q1019 NOSIG=
METAR LFMN 081430Z 15003KT 120V180 9999 FEW016 28/23 Q1020 NOSIG=
METAR LFMO 081430Z AUTO VRB05KT 9999NDV NSC 35/14 Q1019=
METAR LFMY 081430Z 21011KT CAVOK 32/18 Q1019=
METAR LFOA 081430Z AUTO 20005KT 120V270 9999NDV NSC 33/06 Q1018=
METAR LFOC 081430Z AUTO 21005KT 130V280 9999NDV NSC 34/08 Q1018=
METAR LFOE 081430Z 16005KT 090V210 CAVOK 33/08 Q1017=
METAR LFOH 081430Z AUTO 35007KT //// R23///// NSC 26/14 Q1018=
METAR LFPB 081430Z 22007KT 180V270 CAVOK 33/10 Q1017 NOSIG=
METAR LFPC 081430Z 14005KT 100V200 CAVOK 32/10 Q1018=
METAR LFPG 081430Z VRB04KT CAVOK 32/08 Q1018 NOSIG=
METAR LFPO 081430Z 09003KT 350V160 CAVOK 32/09 Q1018 NOSIG=
METAR LFPV 081430Z AUTO 19004KT 140V280 9999NDV NSC 31/09 Q1018=
METAR LFQI 081430Z 25005KT 180V310 CAVOK 31/10 Q1018=
METAR LFQQ 081430Z 21009KT 160V270 CAVOK 32/12 Q1018 NOSIG=
METAR LFSD 081430Z AUTO 17006KT 120V220 9999NDV NSC 32/12 Q1019=
METAR LFSF 081430Z AUTO VRB03KT 9999NDV NSC 33/08 Q1019=
METAR LFSI 081430Z AUTO VRB03KT 9999NDV NSC 33/09 Q1019=
METAR LFSO 081430Z AUTO VRB06KT 9999NDV NSC 32/12 Q1020=
METAR LFSR 081430Z AUTO VRB04KT 9999NDV NSC 33/11 Q1018=
METAR LFSX 081430Z AUTO 23006KT 180V280 9999NDV NSC 32/11 Q1020=
####018000095####
SPUS73 KWBC 081435
SPECI
KDEN 081432Z 02004KT 1/4SM BR BKN007 BKN013 OVC039 16/14 A3034=
####018000098####
SPUS73 KWBC 081435
SPECI
KMKE 081432Z 29007KT 10SM FEW011 BKN014 BKN080 OVC200 26/21 A3001=
####018000084####
SPUS73 KWBC 081435
SPECI
KRFD 081433Z 31010KT 10SM BKN017 BKN150 24/20 A3005=
####018000093####
SPUS81 KWBC 081435
SPECI
KBDL 081432Z 18005KT 4SM HZ SCT014 BKN024 OVC030 27/22 A3006=
####018000084####
SPUS81 KWBC 081435
SPECI
KRFD 081433Z 31010KT 10SM BKN017 BKN150 24/20 A3005=
####018000243####
SPNA14 KAWN 081435 RRD
SPECI KNQI 081421Z COR 04007KT 6SM -RA BKN010CB BKN085 BKN280 28/26
      A2986 RMK AO2 RAB21 CB NE-SE-S MOV W P0000 $=
SPECI KTIK 081427Z AUTO 33008KT 10SM BKN009 26/23 A3007 RMK AO2 BKN
      V SCT SLP173 $=
####018000541####
SARS18 KAWN 081400 RRH
METAR BIKF 081430Z 03021KT 9999 SCT024 BKN100 13/06 Q0995=
METAR LUKK 081430Z 35007KT 9999 SCT040 26/15 Q1014 26CLRD65 NOSIG=
METAR UKBB 081430Z 33003MPS 9999 BKN040 26/17 Q1014 88CLRD95 NOSIG=
METAR COR UKFF 081430Z 27005MPS 250V310 9999 FEW033CB SCT050 28/18
      Q1012 01010070 NOSIG=
METAR UKLL 081430Z 34002MPS 280V060 9999 BKN036 20/12 Q1021 31210365
      NOSIG=
METAR UKOO 081430Z 36004MPS CAVOK 27/14 Q1014 34090070 NOSIG=
METAR UTTT 081430Z 36003MPS CAVOK 36/09 Q1009 R08R/CLRD70 NOSIG=
####018001541####
SPZZ40 KAWN 081435 RRF
SPECI CYUA 081430Z AUTO 22010KT 9SM -RA OVC025 OVC051 07/ A3006=
SPECI EBLB 081432Z 27005KT 9999 FEW220 28/09 Q1021 BLU FCST CANCEL=
SPECI EHGR 081433Z AUTO 31006KT 9999NDV FEW240 30/11 Q1018 BLU=
SPECI KFSI 081429Z AUTO 04007KT 10SM SCT015 27/22 A3007 RMK AO2 SLP165=
SPECI KNFW 081428Z 13005KT 10SM -RA FEW012 BKN024 OVC040 27/23 A3009
      RMK AO2 RAB18 P0000=
SPECI KNQI 081421Z COR 04007KT 6SM -RA BKN010CB BKN085 BKN280 28/26
      A2986 RMK AO2 RAB21 CB NE-SE-S MOV W P0000 $=
SPECI KTIK 081427Z AUTO 33008KT 10SM BKN009 26/23 A3007 RMK AO2 BKN
      V SCT SLP173 $=
SPECI MNBL 081420Z 02004KT 7000 TS SCT017CB SCT070 CBRA N/NE/E/SE=
SPECI OMAA 081429Z 10012KT 2000 DU NSC 40/19 Q1000 A2953 TEMPO 1500
      BLDU=
PACZ SP 1435 AWOS MM 10 50/47/0307/002=
PAEH SP 1435 AWOS M60 OVC 10 50/-18/0000/997=
SPECI PAFB 081430Z VRB01KT 7SM FEW100 FEW200 13/06 A3004=
SPECI RKSO 081432Z AUTO 11004KT 4800 R27/1200 BR CLR 22/ A2979 RMK
      AO2 RAE1401B1418E1428DZB1401E1432 SLP089 $=
SPECI YBRM 081430Z AUTO 01004KT 6000NDV // BKN024 OVC032 22/21 Q1012=
SPECI YBTL 081430Z AUTO 14008KT 9999NDV // BKN010 OVC014 21/18 Q1017=
SPECI YPEA 081433Z AUTO 34009KT 7000NDV // SCT021 BKN031 OVC072 13/12
      Q0997=
SPECI YPPD 081430Z AUTO 00000KT 8000NDV // SCT027 BKN030 OVC045 22/21
      Q1010=
SPECI YPPH 081430Z 35010KT 3000 -SHRA FEW009 BKN025 BKN058 13/13 Q0996
      FM1430 31014G25KT 9999 -SHRA BKN020 INTER 1430/1730
      29030G50KT 2000 TSGS BKN010 FEW030CB=
####018001822####
SAEU KAWN 081400 RRX
METAR COR EGPM 081420Z 22022KT 9999 FEW029 16/10 Q1007 NOSIG=
METAR LFGJ 081430Z AUTO 19004KT 110V240 9999NDV NSC 32/12 Q1019=
METAR LFJL 081430Z AUTO /////KT 9999NDV NSC 32/08 Q1019=
METAR LFKJ 081430Z 19009KT 9999 FEW030 FEW046TCU 31/23 Q1019 NOSIG=
METAR LFLN 081430Z AUTO VRB02KT 9999NDV NSC 33/12 Q1019=
METAR LFMD 081430Z AUTO 18005KT 140V240 9999NDV NSC 30/21 Q1020=
METAR LFMK 081430Z AUTO 09017KT 9999NDV NSC 34/13 Q1018=
METAR LFMU 081430Z AUTO 16008KT 110V190 9999NDV NSC 29/15 Q1020=
METAR LFOT 081430Z AUTO 12005KT 060V190 9999NDV NSC 34/08 Q1017=
METAR LFRC 081430Z AUTO 36007KT 330V030 9999NDV NSC 20/16 Q1019=
METAR LFRD 081430Z AUTO 01009KT 9999NDV NSC 23/15 Q1018=
METAR LFRN 081430Z AUTO VRB05KT 9999NDV NSC 32/10 Q1016=
METAR LFRO 081430Z AUTO 02010KT 340V050 9999NDV NSC 20/16 Q1018=
METAR LFRQ 081430Z AUTO 36012KT 9999NDV NSC 25/17 Q1015=
METAR LFSB 081430Z VRB03KT CAVOK 32/12 Q1020 NOSIG=
METAR LFSL 081430Z AUTO 11005KT 080V170 9999NDV NSC 33/10 Q1019=
METAR LFST 081430Z VRB03KT CAVOK 32/10 Q1019 NOSIG=
METAR LFTW 081430Z AUTO 20008KT 150V230 9999NDV NSC 32/15 Q1020=
METAR LPFR 081430Z 23009KT 200V260 CAVOK 25/20 Q1016=
METAR LPPR 081430Z 20008KT 160V220 9999 FEW006 FEW025CB BKN250 23/18
      Q1016=
METAR LPPS 081430Z 03010KT 360V070 9999 FEW016 SCT030 22/15 Q1021=
METAR LPPT 081430Z 25009KT 210V300 CAVOK 30/19 Q1016 NOSIG=
METAR LRBS 081430Z 28006KT 240V310 9999 -RA FEW006 21/17 Q1016 NOSIG=
METAR LRCK 081430Z 02012KT 350V060 9999 TS SCT035CB 25/16 Q1014 TEMPO
      5000 TSRA=
METAR LROP 081430Z 25006KT 210V270 9999 -SHRA FEW018 SCT040CB 21/15
      Q1016 880///95 NOSIG=
METAR LRSB 081430Z 03004KT 340V070 9999 BKN033 OVC086 18/13 Q1020=
METAR LRTR 081430Z 34010KT 310V020 9999 FEW048 24/14 Q1020=
####018000095####
SAUS90 KWBC 081436
METAR K3DU 081343Z 00000KT 20SM SKC 06/03 RMK NOSPECI
     T00580026=
####018000253####
SPUS90 KWBC 081436
SPECI KNFE 081432Z AUTO 09010KT 3SM HZ CLR 30/19 A2999 RMK AO2
     $=
SPECI KRFD 081433Z 31010KT 10SM BKN017 BKN150 24/20 A3005 RMK
     AO2=
SPECI KANJ 081434Z AUTO 26006KT 10SM SCT004 BKN011 20/18 A2998 RMK
     AO2=
####018000106####
SAUS43 KAPX 081435
MTRANJ
SPECI KANJ 081434Z AUTO 26006KT 10SM SCT004 BKN011 20/18 A2998 RMK 
AO2
####018000374####
SAIN31 VABB 081410
METAR VABB 081410Z 19007KT 3200 HZ SCT012 SCT018 FEW025TCU BKN100
     28/25 Q1007 TEMPO 1500 SHRA=
METAR VOHS 081410Z 26007KT 5000 HZ SCT020 BKN100 25/22 Q1011 NOSIG=
METAR VOMM 081410Z 16004KT 4000 HZ SCT015 BKN100 OVC200 28/26 Q1009
     NOSIG=
METAR VOTV 081410Z 30006KT 5000 HZ FEW015 FEW025CB BKN200 27/24
    Q1010 TEMPO0 4000M HZ=
####018002959####
SAUS20 KNKA 081435
METAR KHNB 081435Z AUTO 24004KT 10SM CLR 30/23 A3007 RMK AO1=
METAR KHYS 081435Z AUTO 03011KT 10SM OVC037 21/17 A3021 RMK AO1=
METAR KIWD 081435Z AUTO 01008KT 10SM CLR 22/15 A3003 RMK AO1=
METAR KJHW 081435Z AUTO 13003KT 10SM CLR 28/19 A3010 RMK AO1=
METAR KKLS 081435Z AUTO 35004KT 10SM BKN004 14/13 A2996 RMK AO1=
METAR KLBL 081435Z 36012KT 9SM OVC006 18/17 A3026 RMK AO1=
METAR KLCI 081435Z AUTO 21005KT 4SM OVC017 26/21 A3008 RMK AO1=
METAR KLEW 081435Z 15007KT 8SM OVC008 23/21 A3012 RMK AO1=
METAR KLGD 081435Z AUTO 00000KT 10SM CLR 16/07 A3009 RMK AO1=
METAR KLKV 081435Z AUTO 32008KT 10SM CLR 19/04 A3014 RMK AO1=
SPECI KLNK 081434Z 01009KT 10SM SCT015 22/18 A3018 RMK AO2=
METAR KLPC 081435Z AUTO 32006KT 9SM OVC008 13/11 A2995 RMK AO1 PNO=
SPECI KLVJ 081434Z AUTO 19012G18KT 2 1/2SM VCTS -RA FEW009 BKN033 
    OVC047 25/22 A3000 RMK AO2 TSB23RAB20 P0005=
METAR KMBL 081435Z AUTO 22003KT 8SM FEW004 OVC016 22/20 A3002 RMK 
    AO1=
SPECI KMHK 081434Z 02006KT 8SM OVC011 22/20 A3014 RMK AO2=
METAR KMJX 081435Z AUTO 13004G79KT 10SM SCT010 BKN060 OVC070 26/21 
    A3005 RMK AO1=
METAR KMKT 081435Z 32007KT 10SM CLR 22/17 A3013 RMK AO1=
METAR KMML 081435Z AUTO 27008KT 10SM CLR 23/16 A3014 RMK AO1=
METAR KMNM 081435Z AUTO 02006KT 10SM OVC013 22/19 A3000 RMK AO1=
METAR KMRF 081435Z AUTO 03007KT 10SM FEW055 22/16 A3021 RMK AO1=
METAR KMSV 081435Z AUTO 00000KT 10SM CLR 29/20 A3009 RMK AO1=
METAR KMTW 081435Z 29006KT 7SM OVC016 24/21 A3000 RMK AO1=
METAR KMVN 081435Z AUTO 24006KT 10SM FEW060 SCT075 BKN120 30/23 
    A3006 RMK AO1=
METAR KOKK 081435Z AUTO 22003KT 7SM FEW110 29/21 A3004 RMK AO1=
METAR KOLU 081435Z AUTO 01005KT 10SM CLR 22/16 A3021 RMK AO1=
METAR KOTG 081435Z AUTO 29006KT 10SM CLR 22/16 A3018 RMK AO1=
METAR KOTH 081435Z 00000KT 10SM OVC006 10/08 A3000 RMK AO1=
METAR KPIB 081435Z AUTO 08005KT 10SM FEW047 29/22 A3007 RMK AO1=
METAR KPQI 081435Z AUTO 13008KT 10SM CLR 28/22 A2998 RMK AO1=
METAR KPTN 081435Z AUTO 09008KT 10SM BKN015 BKN020 29/M05 A3005 RMK 
    AO1=
METAR KPTV 081435Z AUTO 17003KT 10SM CLR 19/12 A2989 RMK AO1=
METAR KPVC 081435Z 18012G17KT 10SM BKN017 27/22 A3010 RMK AO1=
METAR KPWT 081435Z AUTO 04009KT 10SM CLR 23/08 A2999 RMK AO1=
METAR KRKD 081435Z AUTO 21007KT 9SM OVC004 21/19 A3013 RMK AO1=
METAR KRUT 081435Z AUTO 00000KT 7SM CLR 29/23 A3004 RMK AO1=
METAR KSDY 081435Z AUTO 19003KT 10SM OVC100 17/11 A3018 RMK AO1=
METAR KSFM 081435Z 16005KT 10SM BKN039 OVC045 27/20 A3010 RMK AO1=
METAR KSFZ 081435Z AUTO 14004KT 10SM BKN017 25/21 A3009 RMK AO1=
METAR KSGT 081435Z 24003KT 10SM CLR 29/24 A3009 RMK AO1=
METAR KSGU 081435Z AUTO 00000KT 10SM CLR 25/02 A3002 RMK AO1=
METAR KSKX 081435Z AUTO 35003KT 10SM CLR 17/06 A3041 RMK AO1=
METAR KSLG 081435Z AUTO 15004KT 2 1/2SM BKN009 BKN015 OVC025 23/22 
    A3010 RMK AO1 P0028=
METAR KSMN 081435Z AUTO 00000KT 10SM CLR 12/04 A3028 RMK AO1=
####018002951####
SAUS20 KNKA 081435
METAR KAFJ 081435Z AUTO 00000KT 10SM CLR 28/20 A3010 RMK AO1=
METAR KAIZ 081435Z AUTO 00000KT 10SM SCT006 BKN012 24/22 A3009 RMK 
    AO1=
METAR KARG 081435Z AUTO 23006KT 10SM OVC095 28/23 A3008 RMK AO1=
METAR KAUO 081435Z AUTO 36004KT 10SM CLR 32/21 A3004 RMK AO1=
METAR KAWO 081435Z AUTO 00000KT 10SM CLR 18/14 A2999 RMK AO1=
METAR KBHB 081435Z AUTO 20008KT 10SM OVC004 21/19 A3014 RMK AO1=
METAR KBID 081435Z AUTO 05006KT 10SM OVC006 24/22 A3009 RMK AO1=
METAR KBKX 081435Z AUTO 25003KT 10SM CLR 22/16 A3018 RMK AO1=
METAR KBLM 081435Z AUTO 12007KT 090V150 10SM SCT016 SCT024 OVC060 
    26/19 A3008 RMK AO1=
METAR KBTP 081435Z AUTO 23003KT 9SM CLR 29/19 A3009 RMK AO1=
METAR KBVX 081435Z AUTO 25003KT 10SM OVC085 27/22 A3010 RMK AO1=
METAR KCGZ 081435Z AUTO 14003KT 10SM CLR 29/02 A2985 RMK AO1=
METAR KCIU 081435Z AUTO 01007KT 10SM BKN006 BKN013 21/18 A2999 RMK 
    AO1=
METAR KCOD 081435Z 00000KT 10SM CLR 16/03 A3034 RMK AO1=
METAR KCOE 081435Z AUTO 04012G16KT 10SM CLR 18/09 A3011 RMK AO1=
METAR KCVN 081435Z AUTO 05012KT 10SM FEW075 SCT085 19/14 A3026 RMK 
    AO1=
METAR KCVO 081435Z AUTO 00000KT 10SM CLR 16/10 A2996 RMK AO1=
METAR KCWI 081435Z 35004KT 10SM SCT010 24/22 A3007 RMK AO1=
METAR KDVL 081435Z AUTO 32008KT 10SM CLR 19/11 A3011 RMK AO1=
METAR KDYR 081435Z AUTO 26006KT 10SM CLR 29/22 A3008 RMK AO1=
METAR KEAR 081435Z AUTO 02004KT 10SM BKN100 19/16 A3026 RMK AO1=
METAR KEEN 081435Z AUTO 17007KT 10SM FEW060 SCT110 27/22 A3008 RMK 
    AO1=
METAR KEHR 081435Z AUTO 25003KT 10SM CLR 32/23 A3007 RMK AO1=
METAR KENV 081435Z 08003KT 10SM CLR 24/M01 A3013 RMK AO1=
METAR KESC 081435Z AUTO 34004KT 10SM OVC014 22/17 A2998 RMK AO1=
METAR KEUL 081435Z AUTO 00000KT 10SM CLR 18/07 A3011 RMK AO1=
METAR KEWK 081435Z AUTO 02010KT 10SM OVC010 23/19 A3012 RMK AO1=
METAR KFKL 081435Z 07004KT 10SM CLR 29/19 A3012 RMK AO1=
METAR KFLP 081435Z AUTO 00000KT 10SM BKN100 26/22 A3009 RMK AO1=
METAR KFNL 081435Z AUTO 36005KT 10SM FEW009 SCT016 OVC045 16/14 
    A3034 RMK AO1=
METAR KFOD 081435Z AUTO 02006KT 10SM CLR 22/17 A3015 RMK AO1=
METAR KFRM 081435Z AUTO 10SM CLR 22/16 A3017 RMK AO1=
METAR KGAD 081435Z AUTO 00000KT 10SM CLR 29/21 A3006 RMK AO1=
METAR KGAI 081435Z 13004KT 7SM CLR 31/23 A3005 RMK AO1 
     =
METAR KGBD 081435Z AUTO 02010KT 10SM OVC008 20/18 A3020 RMK AO1=
METAR KGDV 081435Z AUTO 00000KT 10SM FEW090 18/11 A3019 RMK AO1=
METAR KGPZ 081435Z AUTO 30007KT 10SM CLR 21/14 A3007 RMK AO1=
SPECI KGSH 081434Z AUTO 28006KT 2SM -RA BR FEW022 OVC055 24/22 A3006 
    RMK AO2 P0002=
METAR KGUC 081435Z AUTO 00000KT 10SM CLR 11/04 A3046 RMK AO1=
METAR KGXY 081435Z AUTO 07006KT 10SM SCT008 OVC017 16/13 A3034 RMK 
    AO1=
METAR KHDN 081435Z 10007KT 10SM SCT120 13/07 A3035 RMK AO1=
METAR KHEF 081435Z AUTO 03003KT 7SM CLR 31/23 A3001 RMK AO1=
METAR KHEZ 081435Z AUTO 06005KT 10SM CLR 28/23 A3008 RMK AO1=
####018000650####
SAUS20 KNKA 081435
METAR KSQI 081435Z 29005KT 10SM SCT016 BKN021 26/22 A3006 RMK AO1=
METAR KSUE 081435Z AUTO 33006KT 10SM OVC015 23/20 A3003 RMK AO1=
SPECI KTVC 081434Z VRB03KT 8SM FEW005 BKN009 OVC100 24/21 A2999 RMK 
    AO2=
METAR KTVF 081435Z AUTO 28008KT 10SM CLR 19/13 A3006 RMK AO1=
METAR KVBT 081435Z AUTO 19003KT 10SM OVC016 25/22 A3007 RMK AO1=
METAR KVIS 081435Z AUTO 00000KT 10SM CLR 19/11 A2985 RMK AO1=
METAR KWVL 081435Z AUTO 20004KT 10SM OVC015 24/21 A3006 RMK AO1=
METAR KWWD 081435Z AUTO 4SM FEW050 BKN060 OVC075 24/24 A3005 RMK AO1 
    P0009=
METAR KYKN 081435Z AUTO 00000KT 10SM CLR 22/16 A3019 RMK AO1=
####018003701####
SAUS99 KWBC 081436
METAR
KAFJ 081435Z AUTO 00000KT 10SM CLR 28/20 A3010 RMK AO1=
KAIZ 081435Z AUTO 00000KT 10SM SCT006 BKN012 24/22 A3009 RMK
     AO1=
KARG 081435Z AUTO 23006KT 10SM OVC095 28/23 A3008 RMK AO1=
KAUO 081435Z AUTO 36004KT 10SM CLR 32/21 A3004 RMK AO1=
KAWO 081435Z AUTO 00000KT 10SM CLR 18/14 A2999 RMK AO1=
KBHB 081435Z AUTO 20008KT 10SM OVC004 21/19 A3014 RMK AO1=
KBID 081435Z AUTO 05006KT 10SM OVC006 24/22 A3009 RMK AO1=
KBKX 081435Z AUTO 25003KT 10SM CLR 22/16 A3018 RMK AO1=
KBLM 081435Z AUTO 12007KT 090V150 10SM SCT016 SCT024 OVC060 26/19
     A3008 RMK AO1=
KBTP 081435Z AUTO 23003KT 9SM CLR 29/19 A3009 RMK AO1=
KBVX 081435Z AUTO 25003KT 10SM OVC085 27/22 A3010 RMK AO1=
KCGZ 081435Z AUTO 14003KT 10SM CLR 29/02 A2985 RMK AO1=
KCIU 081435Z AUTO 01007KT 10SM BKN006 BKN013 21/18 A2999 RMK
     AO1=
KCOD 081435Z 00000KT 10SM CLR 16/03 A3034 RMK AO1=
KCOE 081435Z AUTO 04012G16KT 10SM CLR 18/09 A3011 RMK AO1=
KCVN 081435Z AUTO 05012KT 10SM FEW075 SCT085 19/14 A3026 RMK
     AO1=
KCVO 081435Z AUTO 00000KT 10SM CLR 16/10 A2996 RMK AO1=
KCWI 081435Z 35004KT 10SM SCT010 24/22 A3007 RMK AO1=
KDVL 081435Z AUTO 32008KT 10SM CLR 19/11 A3011 RMK AO1=
KDYR 081435Z AUTO 26006KT 10SM CLR 29/22 A3008 RMK AO1=
KEAR 081435Z AUTO 02004KT 10SM BKN100 19/16 A3026 RMK AO1=
KEEN 081435Z AUTO 17007KT 10SM FEW060 SCT110 27/22 A3008 RMK
     AO1=
KEHR 081435Z AUTO 25003KT 10SM CLR 32/23 A3007 RMK AO1=
KENV 081435Z 08003KT 10SM CLR 24/M01 A3013 RMK AO1=
KESC 081435Z AUTO 34004KT 10SM OVC014 22/17 A2998 RMK AO1=
KEUL 081435Z AUTO 00000KT 10SM CLR 18/07 A3011 RMK AO1=
KEWK 081435Z AUTO 02010KT 10SM OVC010 23/19 A3012 RMK AO1=
KFKL 081435Z 07004KT 10SM CLR 29/19 A3012 RMK AO1=
KFLP 081435Z AUTO 00000KT 10SM BKN100 26/22 A3009 RMK AO1=
KFNL 081435Z AUTO 36005KT 10SM FEW009 SCT016 OVC045 16/14 A3034
     RMK AO1=
KFOD 081435Z AUTO 02006KT 10SM CLR 22/17 A3015 RMK AO1=
KFRM 081435Z AUTO 10SM CLR 22/16 A3017 RMK AO1=
KGAD 081435Z AUTO 00000KT 10SM CLR 29/21 A3006 RMK AO1=
KGAI 081435Z 13004KT 7SM CLR 31/23 A3005 RMK AO1=
KGBD 081435Z AUTO 02010KT 10SM OVC008 20/18 A3020 RMK AO1=
KGDV 081435Z AUTO 00000KT 10SM FEW090 18/11 A3019 RMK AO1=
KGPZ 081435Z AUTO 30007KT 10SM CLR 21/14 A3007 RMK AO1=
KGUC 081435Z AUTO 00000KT 10SM CLR 11/04 A3046 RMK AO1=
KGXY 081435Z AUTO 07006KT 10SM SCT008 OVC017 16/13 A3034 RMK
     AO1=
KHDN 081435Z 10007KT 10SM SCT120 13/07 A3035 RMK AO1=
KHEF 081435Z AUTO 03003KT 7SM CLR 31/23 A3001 RMK AO1=
KHEZ 081435Z AUTO 06005KT 10SM CLR 28/23 A3008 RMK AO1=
KHNB 081435Z AUTO 24004KT 10SM CLR 30/23 A3007 RMK AO1=
KHYS 081435Z AUTO 03011KT 10SM OVC037 21/17 A3021 RMK AO1=
KIWD 081435Z AUTO 01008KT 10SM CLR 22/15 A3003 RMK AO1=
KJHW 081435Z AUTO 13003KT 10SM CLR 28/19 A3010 RMK AO1=
KKLS 081435Z AUTO 35004KT 10SM BKN004 14/13 A2996 RMK AO1=
KLBL 081435Z 36012KT 9SM OVC006 18/17 A3026 RMK AO1=
KLCI 081435Z AUTO 21005KT 4SM OVC017 26/21 A3008 RMK AO1=
KLEW 081435Z 15007KT 8SM OVC008 23/21 A3012 RMK AO1=
KLGD 081435Z AUTO 00000KT 10SM CLR 16/07 A3009 RMK AO1=
KLKV 081435Z AUTO 32008KT 10SM CLR 19/04 A3014 RMK AO1=
KLPC 081435Z AUTO 32006KT 9SM OVC008 13/11 A2995 RMK AO1 PNO=
KMBL 081435Z AUTO 22003KT 8SM FEW004 OVC016 22/20 A3002 RMK
     AO1=
KMJX 081435Z AUTO 13004G79KT 10SM SCT010 BKN060 OVC070 26/21 A3005
     RMK AO1=
KMKT 081435Z 32007KT 10SM CLR 22/17 A3013 RMK AO1=
KMML 081435Z AUTO 27008KT 10SM CLR 23/16 A3014 RMK AO1=
KMNM 081435Z AUTO 02006KT 10SM OVC013 22/19 A3000 RMK AO1=
KMRF 081435Z AUTO 03007KT 10SM FEW055 22/16 A3021 RMK AO1=
KMSV 081435Z AUTO 00000KT 10SM CLR 29/20 A3009 RMK AO1=
####018001891####
SAUS99 KWBC 081436 RRA
METAR
KMTW 081435Z 29006KT 7SM OVC016 24/21 A3000 RMK AO1=
KMVN 081435Z AUTO 24006KT 10SM FEW060 SCT075 BKN120 30/23 A3006
     RMK AO1=
KOKK 081435Z AUTO 22003KT 7SM FEW110 29/21 A3004 RMK AO1=
KOLU 081435Z AUTO 01005KT 10SM CLR 22/16 A3021 RMK AO1=
KOTG 081435Z AUTO 29006KT 10SM CLR 22/16 A3018 RMK AO1=
KOTH 081435Z 00000KT 10SM OVC006 10/08 A3000 RMK AO1=
KPIB 081435Z AUTO 08005KT 10SM FEW047 29/22 A3007 RMK AO1=
KPQI 081435Z AUTO 13008KT 10SM CLR 28/22 A2998 RMK AO1=
KPTN 081435Z AUTO 09008KT 10SM BKN015 BKN020 29/M05 A3005 RMK
     AO1=
KPTV 081435Z AUTO 17003KT 10SM CLR 19/12 A2989 RMK AO1=
KPVC 081435Z 18012G17KT 10SM BKN017 27/22 A3010 RMK AO1=
KPWT 081435Z AUTO 04009KT 10SM CLR 23/08 A2999 RMK AO1=
KRKD 081435Z AUTO 21007KT 9SM OVC004 21/19 A3013 RMK AO1=
KRUT 081435Z AUTO 00000KT 7SM CLR 29/23 A3004 RMK AO1=
KSDY 081435Z AUTO 19003KT 10SM OVC100 17/11 A3018 RMK AO1=
KSFM 081435Z 16005KT 10SM BKN039 OVC045 27/20 A3010 RMK AO1=
KSFZ 081435Z AUTO 14004KT 10SM BKN017 25/21 A3009 RMK AO1=
KSGT 081435Z 24003KT 10SM CLR 29/24 A3009 RMK AO1=
KSGU 081435Z AUTO 00000KT 10SM CLR 25/02 A3002 RMK AO1=
KSKX 081435Z AUTO 35003KT 10SM CLR 17/06 A3041 RMK AO1=
KSLG 081435Z AUTO 15004KT 2 1/2SM BKN009 BKN015 OVC025 23/22 A3010
     RMK AO1 P0028=
KSMN 081435Z AUTO 00000KT 10SM CLR 12/04 A3028 RMK AO1=
KSQI 081435Z 29005KT 10SM SCT016 BKN021 26/22 A3006 RMK AO1=
KSUE 081435Z AUTO 33006KT 10SM OVC015 23/20 A3003 RMK AO1=
KTVF 081435Z AUTO 28008KT 10SM CLR 19/13 A3006 RMK AO1=
KVBT 081435Z AUTO 19003KT 10SM OVC016 25/22 A3007 RMK AO1=
KVIS 081435Z AUTO 00000KT 10SM CLR 19/11 A2985 RMK AO1=
KWVL 081435Z AUTO 20004KT 10SM OVC015 24/21 A3006 RMK AO1=
KWWD 081435Z AUTO 4SM FEW050 BKN060 OVC075 24/24 A3005 RMK AO1
     P0009=
KYKN 081435Z AUTO 00000KT 10SM CLR 22/16 A3019 RMK AO1=
####018000417####
SPUS99 KWBC 081436
SPECI
KGSH 081434Z AUTO 28006KT 2SM -RA BR FEW022 OVC055 24/22 A3006 RMK
     AO2 P0002=
KLNK 081434Z 01009KT 10SM SCT015 22/18 A3018 RMK AO2=
KLVJ 081434Z AUTO 19012G18KT 2 1/2SM VCTS -RA FEW009 BKN033 OVC047
     25/22 A3000 RMK AO2 TSB23RAB20 P0005=
KMHK 081434Z 02006KT 8SM OVC011 22/20 A3014 RMK AO2=
KTVC 081434Z VRB03KT 8SM FEW005 BKN009 OVC100 24/21 A2999 RMK
     AO2=
####018000425####
SARO32 LROM 081430
METAR LRAR 081430Z 36010KT 330V050 9999 BKN045 24/12 Q1020=
METAR LRBM 081430Z 27004KT 240V310 9999 BKN042 BKN065 21/15 Q1019=
METAR LRCL 081430Z 32004KT 280V350 9999 SCT026 SCT044 19/13 Q1020
0821//95=
METAR COR LROD 081430Z 35012KT 320V020 CAVOK 23/12 Q1020=
METAR LRSM 081430Z 35004KT 330V040 9999 BKN046 23/14 Q1020 01CLRD//=
METAR LRTM 081430Z 27004KT 220V330 9999 SCT030 BKN035 19/14 Q1020=
####018000161####
SANM40 FYWW 081430
METAR FYWB 081430Z 31011KT 9999 R09/M0050VP1500D VV/// 33/02 Q1014 =
METAR FYWB 081430Z 31011KT 9999 R09/M0050VP1500D VV/// 33/02 Q1014 =
####018000313####
SARO33 LROM 081430
METAR LRBC 081430Z 01012KT 340V040 9999 FEW024 BKN031 23/17 Q1017=
METAR LRCV 081430Z AUTO VRB02KT 9999 FEW044 25/13 Q1017=
METAR LRIA 081430Z 31014KT 9999 SCT020 21/17 Q1017=
METAR LRSV 081430Z 33015KT 9999 SCT013 BKN042 16/14 Q1019=
METAR LRTC 081430Z 35014KT 9999 SCT040 25/17 Q1014=
####018000082####
SARO33 LROM 081430 CCA
METAR COR LRCV 081430Z VRB02KT 9999 FEW044 25/13 Q1017=
####018000098####
SAAJ31 UBBB 081430
METAR UBBG 081430Z 08014KT 9999 FEW083 35/15 Q1009 NOSIG RMK
R12L/CLRD70 =
####018003631####
SAUS70 KWBC 081436 RRA
METAR
KFOD 081435Z AUTO 02006KT 10SM CLR 22/17 A3015 RMK AO1=
KFRM 081435Z AUTO 10SM CLR 22/16 A3017 RMK AO1=
KGAD 081435Z AUTO 00000KT 10SM CLR 29/21 A3006 RMK AO1=
KGAI 081435Z 13004KT 7SM CLR 31/23 A3005 RMK AO1=
KGBD 081435Z AUTO 02010KT 10SM OVC008 20/18 A3020 RMK AO1=
KGDV 081435Z AUTO 00000KT 10SM FEW090 18/11 A3019 RMK AO1=
KGUC 081435Z AUTO 00000KT 10SM CLR 11/04 A3046 RMK AO1=
KGXY 081435Z AUTO 07006KT 10SM SCT008 OVC017 16/13 A3034 RMK
     AO1=
KHDN 081435Z 10007KT 10SM SCT120 13/07 A3035 RMK AO1=
KHEF 081435Z AUTO 03003KT 7SM CLR 31/23 A3001 RMK AO1=
KHEZ 081435Z AUTO 06005KT 10SM CLR 28/23 A3008 RMK AO1=
KHNB 081435Z AUTO 24004KT 10SM CLR 30/23 A3007 RMK AO1=
KHYS 081435Z AUTO 03011KT 10SM OVC037 21/17 A3021 RMK AO1=
KIWD 081435Z AUTO 01008KT 10SM CLR 22/15 A3003 RMK AO1=
KJHW 081435Z AUTO 13003KT 10SM CLR 28/19 A3010 RMK AO1=
KKLS 081435Z AUTO 35004KT 10SM BKN004 14/13 A2996 RMK AO1=
KLBL 081435Z 36012KT 9SM OVC006 18/17 A3026 RMK AO1=
KLCI 081435Z AUTO 21005KT 4SM OVC017 26/21 A3008 RMK AO1=
KLEW 081435Z 15007KT 8SM OVC008 23/21 A3012 RMK AO1=
KLGD 081435Z AUTO 00000KT 10SM CLR 16/07 A3009 RMK AO1=
KLKV 081435Z AUTO 32008KT 10SM CLR 19/04 A3014 RMK AO1=
KLPC 081435Z AUTO 32006KT 9SM OVC008 13/11 A2995 RMK AO1 PNO=
KMBL 081435Z AUTO 22003KT 8SM FEW004 OVC016 22/20 A3002 RMK
     AO1=
KMJX 081435Z AUTO 13004G79KT 10SM SCT010 BKN060 OVC070 26/21 A3005
     RMK AO1=
KMKT 081435Z 32007KT 10SM CLR 22/17 A3013 RMK AO1=
KMML 081435Z AUTO 27008KT 10SM CLR 23/16 A3014 RMK AO1=
KMNM 081435Z AUTO 02006KT 10SM OVC013 22/19 A3000 RMK AO1=
KMRF 081435Z AUTO 03007KT 10SM FEW055 22/16 A3021 RMK AO1=
KMSV 081435Z AUTO 00000KT 10SM CLR 29/20 A3009 RMK AO1=
KMTW 081435Z 29006KT 7SM OVC016 24/21 A3000 RMK AO1=
KMVN 081435Z AUTO 24006KT 10SM FEW060 SCT075 BKN120 30/23 A3006
     RMK AO1=
KOKK 081435Z AUTO 22003KT 7SM FEW110 29/21 A3004 RMK AO1=
KOLU 081435Z AUTO 01005KT 10SM CLR 22/16 A3021 RMK AO1=
KOTG 081435Z AUTO 29006KT 10SM CLR 22/16 A3018 RMK AO1=
KOTH 081435Z 00000KT 10SM OVC006 10/08 A3000 RMK AO1=
KPIB 081435Z AUTO 08005KT 10SM FEW047 29/22 A3007 RMK AO1=
KPQI 081435Z AUTO 13008KT 10SM CLR 28/22 A2998 RMK AO1=
KPTN 081435Z AUTO 09008KT 10SM BKN015 BKN020 29/M05 A3005 RMK
     AO1=
KPTV 081435Z AUTO 17003KT 10SM CLR 19/12 A2989 RMK AO1=
KPVC 081435Z 18012G17KT 10SM BKN017 27/22 A3010 RMK AO1=
KPWT 081435Z AUTO 04009KT 10SM CLR 23/08 A2999 RMK AO1=
KRKD 081435Z AUTO 21007KT 9SM OVC004 21/19 A3013 RMK AO1=
KRUT 081435Z AUTO 00000KT 7SM CLR 29/23 A3004 RMK AO1=
KSDY 081435Z AUTO 19003KT 10SM OVC100 17/11 A3018 RMK AO1=
KSFM 081435Z 16005KT 10SM BKN039 OVC045 27/20 A3010 RMK AO1=
KSFZ 081435Z AUTO 14004KT 10SM BKN017 25/21 A3009 RMK AO1=
KSGT 081435Z 24003KT 10SM CLR 29/24 A3009 RMK AO1=
KSGU 081435Z AUTO 00000KT 10SM CLR 25/02 A3002 RMK AO1=
KSKX 081435Z AUTO 35003KT 10SM CLR 17/06 A3041 RMK AO1=
KSLG 081435Z AUTO 15004KT 2 1/2SM BKN009 BKN015 OVC025 23/22 A3010
     RMK AO1 P0028=
KSMN 081435Z AUTO 00000KT 10SM CLR 12/04 A3028 RMK AO1=
KSQI 081435Z 29005KT 10SM SCT016 BKN021 26/22 A3006 RMK AO1=
KSUE 081435Z AUTO 33006KT 10SM OVC015 23/20 A3003 RMK AO1=
KTVF 081435Z AUTO 28008KT 10SM CLR 19/13 A3006 RMK AO1=
KVBT 081435Z AUTO 19003KT 10SM OVC016 25/22 A3007 RMK AO1=
KVIS 081435Z AUTO 00000KT 10SM CLR 19/11 A2985 RMK AO1=
KWVL 081435Z AUTO 20004KT 10SM OVC015 24/21 A3006 RMK AO1=
KWWD 081435Z AUTO 4SM FEW050 BKN060 OVC075 24/24 A3005 RMK AO1
     P0009=
KYKN 081435Z AUTO 00000KT 10SM CLR 22/16 A3019 RMK AO1=
####018000096####
SAMG20 FMMI 081430
METAR FMMI 081430Z 13007KT 090V160 9999 SCT020 BKN023 15/14 Q1026
NOSIG=
####018000387####
SPUS80 KWBC 081436
SPECI
KRFD 081433Z 31010KT 10SM BKN017 BKN150 24/20 A3005 RMK AO2=
KCRP 081431Z 03013KT 2 1/2SM -TSRA BR FEW006 BKN020CB BKN040 26/25
     A2988 RMK AO2 TSB31RAB1356 TS OHD-N MOV NW CB E-SE MOV NW TCU
     DSNT NE S SW P0019=
KANJ 081434Z AUTO 26006KT 10SM SCT004 BKN011 20/18 A2998 RMK
     AO2=
KMHK 081434Z 02006KT 8SM OVC011 22/20 A3014 RMK AO2=
####018000342####
SAUS80 KWBC 081436
METAR
KSOW 081430Z AUTO 18005KT 10SM FEW090 BKN120 21/04 A3029 RMK
     AO2=
K3DU 081343Z 00000KT 20SM SKC 06/03 RMK NOSPECI T00580026=
KDVL 081435Z AUTO 32008KT 10SM CLR 19/11 A3011 RMK AO1=
KEAR 081435Z AUTO 02004KT 10SM BKN100 19/16 A3026 RMK AO1=
KGPZ 081435Z AUTO 30007KT 10SM CLR 21/14 A3007 RMK AO1=
####018000545####
SPXX60 KWBC 081436
SPECI
KFSI 081429Z AUTO 04007KT 10SM SCT015 27/22 A3007 RMK AO2
     SLP165=
KNFW 081428Z 13005KT 10SM -RA FEW012 BKN024 OVC040 27/23 A3009 RMK
     AO2 RAB18 P0000=
KNQI 081421Z COR 04007KT 6SM -RA BKN010CB BKN085 BKN280 28/26
     A2986 RMK AO2 RAB21 CB NE-SE-S MOV W P0000 $=
KTIK 081427Z AUTO 33008KT 10SM BKN009 26/23 A3007 RMK AO2 BKN V
     SCT SLP173 $=
PACZ SP 1435 AWOS MM 10 50/47/0307/002=
PAEH SP 1435 AWOS M60 OVC 10 50/-18/0000/997=
PAFB 081430Z VRB01KT 7SM FEW100 FEW200 13/06 A3004=
####018003741####
SAUS70 KWBC 081436
METAR
KPMV 081430Z AUTO 02006KT 10SM CLR 23/17 A3016 RMK AO2
     T02330173=
KDVO 081430Z AUTO 01004KT 10SM OVC008 13/12 A2994 RMK AO2=
KHDE 081430Z AUTO 02005KT 10SM CLR 20/16 A3024 RMK AO2
     T02000157=
KHJH 081430Z AUTO 36006KT 10SM CLR 21/18 A3019 RMK AO2
     T02080178=
KIBM 081430Z AUTO 00000KT 10SM SCT030 BKN038 OVC065 14/11 A3034
     RMK AO2 T01400110=
KJYR 081430Z AUTO 03005KT 10SM CLR 20/17 A3020 RMK AO2=
KL35 081432Z AUTO 07004KT 10SM CLR 12/M03 A3019 RMK AO2=
KLCG 081430Z AUTO 35003KT 10SM CLR 22/16 A3019 RMK AO2
     T02210155=
KLHM 081431Z AUTO 14007KT 10SM CLR 17/11 A2985 RMK AO1
     T01740112=
KLXN 081430Z AUTO 36004KT 10SM OVC055 19/17 A3025 RMK AO2
     T01930169=
KMLE 081430Z AUTO 01003KT 10SM CLR 23/15 A3016 RMK AO2
     T02250154=
KMMH 081430Z AUTO 00000KT 10SM CLR 12/04 A3024 RMK AO1=
KOAJ 081435Z AUTO 01006KT 8SM FEW120 29/24 A2997 RMK AO1=
KOGA 081430Z AUTO 00000KT 10SM BKN038 OVC100 18/16 A3030 RMK AO2
     T01760158=
KONL 081430Z AUTO 34004KT 10SM CLR 22/14 A3024 RMK AO2
     T02160142=
KONP 081432Z AUTO 00000KT 1/4SM FG OVC002 11/10 A3000 RMK AO1=
KPNA 081430Z AUTO 30009KT 10SM SCT090 SCT110 13/02 A3041 RMK AO2
     T01300022=
KPTT 081430Z AUTO 36009KT 5SM -RA OVC006 20/19 A3019 RMK AO2=
KSOP 081435Z AUTO 06005KT 9SM CLR 33/20 A2998 RMK AO1=
KSZT 081430Z AUTO 00000KT 10SM CLR 16/10 A3012 RMK AO2=
KTIF 081430Z AUTO 30003KT 10SM CLR 20/14 A3028 RMK AO2
     T02020142=
KUDG 081435Z 03005KT 10SM CLR 32/21 A2998 RMK AO1=
KBDN 081435Z AUTO 00000KT 10SM CLR 18/04 A3013 RMK AO2=
KCGC 081435Z AUTO 00000KT 10SM CLR 28/21 A3001 RMK=
KDYB 081435Z AUTO 33005KT 10SM CLR 31/22 A2996 RMK AO1=
KMNI 081435Z AUTO 32007KT 10SM CLR 33/25 A2995 RMK AO2=
KSPA 081435Z AUTO 00000KT 10SM CLR 32/25 A3002 RMK AO2=
KSPL 081435Z AUTO 00000KT BKN029 BKN036 27/25 A2976 RMK AO2 PWINO
     PNO=
KUTA 081435Z AUTO 00000KT 10SM CLR 30/22 A3009 RMK AO2=
KAFJ 081435Z AUTO 00000KT 10SM CLR 28/20 A3010 RMK AO1=
KAIZ 081435Z AUTO 00000KT 10SM SCT006 BKN012 24/22 A3009 RMK
     AO1=
KARG 081435Z AUTO 23006KT 10SM OVC095 28/23 A3008 RMK AO1=
KAUO 081435Z AUTO 36004KT 10SM CLR 32/21 A3004 RMK AO1=
KAWO 081435Z AUTO 00000KT 10SM CLR 18/14 A2999 RMK AO1=
KBHB 081435Z AUTO 20008KT 10SM OVC004 21/19 A3014 RMK AO1=
KBID 081435Z AUTO 05006KT 10SM OVC006 24/22 A3009 RMK AO1=
KBKX 081435Z AUTO 25003KT 10SM CLR 22/16 A3018 RMK AO1=
KBLM 081435Z AUTO 12007KT 090V150 10SM SCT016 SCT024 OVC060 26/19
     A3008 RMK AO1=
KBTP 081435Z AUTO 23003KT 9SM CLR 29/19 A3009 RMK AO1=
KBVX 081435Z AUTO 25003KT 10SM OVC085 27/22 A3010 RMK AO1=
KCGZ 081435Z AUTO 14003KT 10SM CLR 29/02 A2985 RMK AO1=
KCIU 081435Z AUTO 01007KT 10SM BKN006 BKN013 21/18 A2999 RMK
     AO1=
KCOD 081435Z 00000KT 10SM CLR 16/03 A3034 RMK AO1=
KCOE 081435Z AUTO 04012G16KT 10SM CLR 18/09 A3011 RMK AO1=
KCVN 081435Z AUTO 05012KT 10SM FEW075 SCT085 19/14 A3026 RMK
     AO1=
KCVO 081435Z AUTO 00000KT 10SM CLR 16/10 A2996 RMK AO1=
KCWI 081435Z 35004KT 10SM SCT010 24/22 A3007 RMK AO1=
KDYR 081435Z AUTO 26006KT 10SM CLR 29/22 A3008 RMK AO1=
KEEN 081435Z AUTO 17007KT 10SM FEW060 SCT110 27/22 A3008 RMK
     AO1=
KEHR 081435Z AUTO 25003KT 10SM CLR 32/23 A3007 RMK AO1=
KENV 081435Z 08003KT 10SM CLR 24/M01 A3013 RMK AO1=
KESC 081435Z AUTO 34004KT 10SM OVC014 22/17 A2998 RMK AO1=
KEUL 081435Z AUTO 00000KT 10SM CLR 18/07 A3011 RMK AO1=
KEWK 081435Z AUTO 02010KT 10SM OVC010 23/19 A3012 RMK AO1=
KFKL 081435Z 07004KT 10SM CLR 29/19 A3012 RMK AO1=
KFLP 081435Z AUTO 00000KT 10SM BKN100 26/22 A3009 RMK AO1=
KFNL 081435Z AUTO 36005KT 10SM FEW009 SCT016 OVC045 16/14 A3034
     RMK AO1=
####018000097####
SAAF34 KWBC 081400 RRE
METAR
FYWB 081430Z 31011KT 9999 R09/M0050VP1500D VV/// 33/02 Q1014=
####018000100####
SAKY31 RUMS 081430
METAR UAFM 081430Z 24005MPS CAVOK 29/08 Q1012 NOSIG=
METAR UAFO 081430Z NIL=
####018000786####
SPUS70 KWBC 081436
SPECI
KNFE 081432Z AUTO 09010KT 3SM HZ CLR 30/19 A2999 RMK AO2 $=
KCXO 081433Z 16009KT 3/4SM +RA BR SCT009 OVC015 24/23 A3002 RMK
     AO2 RAB23 P0016=
KAAO 081433Z AUTO 01008KT 10SM OVC008 22/20 A3014 RMK AO2 CIG
     005V014=
KDHT 081433Z AUTO 36008KT 10SM BKN010 OVC016 18/16 A3028 RMK
     AO2=
KPYM 081433Z AUTO VRB05KT 10SM BKN029 28/19 A3010 RMK AO2=
KSLN 081433Z 02011KT 10SM BKN010 22/19 A3016 RMK AO2=
KGSH 081434Z AUTO 28006KT 2SM -RA BR FEW022 OVC055 24/22 A3006 RMK
     AO2 P0002=
KLNK 081434Z 01009KT 10SM SCT015 22/18 A3018 RMK AO2=
KLVJ 081434Z AUTO 19012G18KT 2 1/2SM VCTS -RA FEW009 BKN033 OVC047
     25/22 A3000 RMK AO2 TSB23RAB20 P0005=
KTVC 081434Z VRB03KT 8SM FEW005 BKN009 OVC100 24/21 A2999 RMK
     AO2=
####018000792####
SAAO31 KWBC 081430
METAR
GCFV 081430Z 05013KT 9999 FEW020 24/19 Q1017=
GCHI NIL=
GCLA 081430Z 01012KT 330V050 9999 FEW020 25/18 Q1019=
GCLP 081430Z 03026KT 9999 FEW025 25/18 Q1017 NOSIG=
GCRR 081430Z 36017KT 9999 FEW025 26/19 Q1017=
GCTS 081430Z 09017KT 060V120 CAVOK 26/17 Q1017 NOSIG=
GCXO 081430Z 29011KT 250V320 9999 FEW005 23/17 Q1020 NOSIG=
GEML 081430Z 07007KT 030V120 CAVOK 26/21 Q1016=
GMAA NIL=
GMAT NIL=
GMFF 081430Z NIL=
GMFO NIL=
GMME 081430Z 33008KT 280V020 6000 SCT010 SCT016 26/19 Q1016
     NOSIG=
GMMN 081430Z 02010KT 340V050 CAVOK 29/19 Q1016 NOSIG=
GMMX 081430Z 30005KT 200V350 8000 FEW026TCU 38/15 Q1016 NOSIG=
GMOY NIL=
GMTA NIL=
GMTN NIL=
GMTT 081430Z 27007KT 240V300 8000 FEW016 SCT100 27/19 Q1016
     NOSIG=
GSAI NIL=
####018000227####
SAAS32 KWBC 081430
METAR
RKPC NIL=
RKPK NIL=
RKSS NIL=
VHHH 081430Z 21009KT 140V240 9999 FEW020 SCT030 31/25 Q1009
     NOSIG=
VMMC 081430Z 19012KT 170V260 9999 FEW018 29/27 Q1008 NOSIG=
ZJSY NIL=
ZKPY NIL=
####018000028####
SAAS31 KWBC 081430
NIL=
####018000299####
SAAS31 KWBC 081405 RRC
METAR
VABB 081410Z 19007KT 3200 HZ SCT012 SCT018 FEW025TCU BKN100 28/25
     Q1007 TEMPO 1500 SHRA=
VOMM 081410Z 16004KT 4000 HZ SCT015 BKN100 OVC200 28/26 Q1009
     NOSIG=
VOTV 081410Z 30006KT 5000 HZ FEW015 FEW025CB BKN200 27/24 Q1010
     TEMPO0 4000M HZ=
####018000099####
SPAW33 KWBC 081436
SPECI
OMAA 081429Z 10012KT 2000 DU NSC 40/19 Q1000 A2953 TEMPO 1500 BLDU=
####018000071####
SPAK32 KWBC 081436
SPECI
PACZ SP 1435 AWOS MM 10 50/47/0307/002=
####018000093####
SPBX31 KWBC 081436
SPECI
EBLB 081432Z 27005KT 9999 FEW220 28/09 Q1021 BLU FCST CANCEL=
####018000077####
SPAK32 KWBC 081436
SPECI
PAEH SP 1435 AWOS M60 OVC 10 50/-18/0000/997=
####018000083####
SPAK32 KWBC 081436
SPECI
PAFB 081430Z VRB01KT 7SM FEW100 FEW200 13/06 A3004=
####018000028####
SAAW31 KWBC 081430
NIL=
####018000404####
SAAS33 KWBC 081430
METAR
VBRR NIL=
VDPP NIL=
VDSR NIL=
VLVT NIL=
VTBA NIL=
VTBD NIL=
VTBU NIL=
VTCC NIL=
VTSP NIL=
VTSS NIL=
VVDN NIL=
VVGL NIL=
VVNB NIL=
VVTS NIL=
WBGG NIL=
WBKK NIL=
WMAM NIL=
WMKJ NIL=
WMKK NIL=
WMKP NIL=
WMSA NIL=
WPDL NIL=
WPEC NIL=
WSAP NIL=
WSSL NIL=
WSSS 081430Z 25001KT 9999 FEW016 SCT280 BKN300 27/24 Q1011
     NOSIG=
####018000157####
SAAS33 KWBC 081405 RRA
METAR
VDPP 081400Z 33003KT 9999 SCT020 28/22 Q1008=
VTSS 081400Z 00000KT 9999 FEW018CB BKN300 26/23 Q1011 A2987 CB
     NW=
####018000096####
SAAW34 KWBC 081415 RRC
METAR
UTSS 081430Z 08003MPS 9999 NSC 30/10 Q1010 R88/CLRD70 NOSIG=
####018000028####
SAAW33 KWBC 081430
NIL=
####018000639####
SAAW32 KWBC 081430
METAR
OEDF NIL=
OEDR NIL=
OEJN NIL=
OEMA NIL=
OERK NIL=
OIAA NIL=
OIAW NIL=
OIBB NIL=
OIBK NIL=
OICC NIL=
OICK NIL=
OICS NIL=
OIFM NIL=
OIFP NIL=
OIGG NIL=
OIHH NIL=
OIII NIL=
OIIM NIL=
OIIP NIL=
OIIX NIL=
OIKB NIL=
OIKK NIL=
OIMM NIL=
OINN NIL=
OINR NIL=
OINZ NIL=
OISM NIL=
OISS NIL=
OITL NIL=
OITR NIL=
OITT NIL=
OIYY NIL=
OIZH NIL=
OKBK 081430Z 34016KT 7000 SKC 47/M05 Q0999 NOSIG=
ORBI NIL=
ORBS NIL=
ORMM NIL=
OSAP NIL=
OSDI NIL=
OSLK NIL=
OTBD 081430Z 07007KT 4000 HZ NSC 35/28 Q0999 NOSIG=
OTBH NIL=
OTMA NIL=
OTMS NIL=
####018000086####
SAIN31 VABB 081340 RRA
METAR VOTR 081340Z VRB03KT 8000 FEW020 BKN250 32/24 Q1008=
####018000100####
SAAJ31 UBBB 081430
METAR UBBG 081430Z 08014KT 9999 FEW083 35/15 Q1009 NOSIG RMK
R12L/CLRD70 =
####018000212####
SATR31 RUMS 081430
METAR UTAA 081430Z 12003MPS 9999 SKC 42/04 Q1007 NOSIG=
METAR UTAK 081430Z NIL=
METAR UTAM 081430Z NIL=
METAR UTAT 081430Z 09006MPS CAVOK 41/18 Q1006 NOSIG=
METAR UTAV 081430Z NIL=
####018000198####
SATA31 RUMS 081430
METAR UTDD 081430Z 04002MPS 9999 SKC 31/12 Q1008 09CLRD70 NOSIG RMK
QFE689/0918=
METAR UTDL 081430Z 23004MPS 9999 FEW053CB FEW100 33/13 Q1008 NOSIG
RMK QFE719 8809//70=
####018000102####
SAKY31 RUMS 081430
METAR UAFM 081430Z 24005MPS CAVOK 29/08 Q1012 NOSIG=
METAR UAFO 081430Z NIL=
####018000161####
SAAY31 RUMS 081430
METAR UDYZ 081430Z 05007MPS 9999 FEW100 36/15 Q1007 09010070 NOSIG=
METAR UDSG 081430Z 07011G16MPS 9999 NSC 27/15 Q1015 02CLRD70 NOSIG=
####018000681####
SAKZ31 RUMS 081430
METAR UAAA 081430Z 14002MPS 9999 SCT050CB BKN100 24/14 Q1013 88CLRD65
TEMPO TS=
METAR UACC 081430Z 01008MPS 8000 FEW193 20/04 Q1009 040/0070 NOSIG
RMK QFE725/0967=
METAR UAKK 081430Z 16003MPS 9999 SCT050CB BKN/// 18/09 Q1008 230///70
NOSIG RMK QFE709/0946=
METAR UAOO 081430Z NIL=
METAR UARR 081430Z NIL=
METAR UATE 081430Z 01006G11MPS CAVOK 38/07 Q1009 300///70 NOSIG RMK
QFE755/1007=
METAR UATG 081430Z 34006G10MPS CAVOK 39/08 Q1008 32CLRD70 NOSIG RMK
QFE758/1011 =
METAR UATT 081430Z 03006MPS 9999 NSC 32/01 Q1011 13CLRD70 NOSIG RMK
QFE738/0985=
METAR UAUU 081430Z 36008MPS CAVOK 24/M03 Q1012 33CLRD70 NOSIG RMK
QFE744/0991=
####018000217####
SACI31 KWBC 081400 RRB
METAR
RCKH 081430Z 28005KT 9999 FEW013 BKN300 29/26 Q1010 NOSIG=
RCSS 081430Z 09005KT 9999 FEW030 SCT120 30/24 Q1007 NOSIG=
RCTP 081430Z 18006KT 150V210 9999 FEW025 29/24 Q1008 NOSIG=
####018000318####
SARO33 LROM 081430
METAR LRBC 081430Z 01012KT 340V040 9999 FEW024 BKN031 23/17 Q1017=
METAR LRCV 081430Z AUTO VRB02KT 9999 FEW044 25/13 Q1017=
METAR LRIA 081430Z 31014KT 9999 SCT020 21/17 Q1017=
METAR LRSV 081430Z 33015KT 9999 SCT013 BKN042 16/14 Q1019=
METAR LRTC 081430Z 35014KT 9999 SCT040 25/17 Q1014=
####018000387####
SAIE31 KWBC 081430
METAR
EICK 081430Z 20011KT 9999 -RA BKN006 BKN012 BKN038 13/13 Q1015
     TEMPO 2000=
EIDB NIL=
EIDW 081430Z 20011KT 170V230 9999 -SHRA FEW022 SCT040 BKN050 16/11
     Q1015 NOSIG=
EIKN 081430Z 21007KT 180V270 9999 FEW015 FEW018CB SCT030 BKN048
     14/12 Q1014 NOSIG=
EINN 081430Z 18008KT 8000 -RADZ FEW016 BKN026 BKN038 15/13 Q1015
     NOSIG=
####018000285####
SAPO32 LPMG 081430
METAR LPAZ 081430Z 24006KT 9999 SCT016 BKN028 22/20 Q1025=
METAR LPFL 081430Z 19006KT 130V250 9999 FEW021TCU SCT040 24/17 Q1021=
METAR LPHR 081430Z 21007KT 170V230 9999 FEW015 23/19 Q1023=
METAR LPPD 081430Z 19005KT 130V210 9999 FEW016 BKN030 21/17 Q1024=
####018000374####
SAPO31 LPMG 081430
METAR LPFR 081430Z 23009KT 200V260 CAVOK 25/20 Q1016=
METAR LPMA 081430Z 01014KT 9999 FEW018 24/17 Q1020 RS16001KT
0518005KT 2301016KT=
METAR LPPR 081430Z 20008KT 160V220 9999 FEW006 FEW025CB BKN250 23/18
Q1016=
METAR LPPS 081430Z 03010KT 360V070 9999 FEW016 SCT030 22/15 Q1021=
METAR LPPT 081430Z 25009KT 210V300 CAVOK 30/19 Q1016 NOSIG=
####018000028####
SAIQ31 KWBC 081430
NIL=
####018000199####
SALJ31 LJLJ 081430
METAR LJLJ 081430Z 13003KT 060V190 9999 FEW043 25/12 Q1021 NOSIG=
METAR LJMB 081430Z 19004KT 170V330 9999 FEW040 26/08 Q1021=
METAR LJPZ 081430Z 31008KT CAVOK 26/07 Q1021=
####018000325####
SAEW31 KWBC 081430
METAR
LPAZ NIL=
LPFR 081430Z 23009KT 200V260 CAVOK 25/20 Q1016=
LPFU NIL=
LPPD NIL=
LPPR 081430Z 20008KT 160V220 9999 FEW006 FEW025CB BKN250 23/18
     Q1016=
LPPS 081430Z 03010KT 360V070 9999 FEW016 SCT030 22/15 Q1021=
LPPT 081430Z 25009KT 210V300 CAVOK 30/19 Q1016 NOSIG=
LXGB NIL=
####018000382####
SAHK31 VHHH 081430
METAR VHHH 081430Z 21009KT 140V240 9999 FEW020 SCT030 31/25 
Q1009 NOSIG=
METAR RCTP 081430Z 18006KT 150V210 9999 FEW025 29/24 Q1008
NOSIG=
METAR RCKH 081430Z 28005KT 9999 FEW013 BKN300 29/26 Q1010
NOSIG=
METAR RCSS 081430Z 09005KT 9999 FEW030 SCT120 30/24 Q1007
NOSIG=
METAR VMMC 081430Z 19012KT 170V260 9999 FEW018 29/27 Q1008
     NOSIG=
####018000887####
SAFR41 KWBC 081430
METAR
LFAF NIL=
LFBA NIL=
LFBC 081430Z AUTO 13007KT 060V170 9999NDV NSC 39/13 Q1014=
LFBL 081430Z NIL=
LFBM 081430Z AUTO 10009KT 080V150 6000NDV NSC 38/18 Q1014=
LFKF 081430Z NIL=
LFLD NIL=
LFLV NIL=
LFOE 081430Z 16005KT 090V210 CAVOK 33/08 Q1017=
LFOP 081430Z NIL=
LFPB 081430Z 22007KT 180V270 CAVOK 33/10 Q1017 NOSIG=
LFPG 081430Z VRB04KT CAVOK 32/08 Q1018 NOSIG=
LFPV 081430Z AUTO 19004KT 140V280 9999NDV NSC 31/09 Q1018=
LFQB NIL=
LFQQ 081430Z 21009KT 160V270 CAVOK 32/12 Q1018 NOSIG=
LFRH NIL=
LFRM NIL=
LFSC NIL=
LFSD 081430Z AUTO 17006KT 120V220 9999NDV NSC 32/12 Q1019=
LFSI 081430Z AUTO VRB03KT 9999NDV NSC 33/09 Q1019=
LFSL 081430Z AUTO 11005KT 080V170 9999NDV NSC 33/10 Q1019=
LFSO 081430Z AUTO VRB06KT 9999NDV NSC 32/12 Q1020=
LFSX 081430Z AUTO 23006KT 180V280 9999NDV NSC 32/11 Q1020=
LFTH 081430Z NIL=
####018000596####
SAEE31 KWBC 081430
METAR
EPGD 081430Z 06009KT 030V090 CAVOK 23/12 Q1021=
EPKK 081430Z VRB05KT CAVOK 24/07 Q1022=
EPKT 081430Z 36006KT CAVOK 23/08 Q1022=
EPPO 081430Z VRB03KT CAVOK 26/06 Q1021=
EPQT NIL=
EPRZ 081430Z 33008KT 280V010 CAVOK 23/11 Q1021=
EPSC NIL=
EPWA 081430Z 33008KT 270V020 CAVOK 24/12 Q1020 NOSIG=
EYSA NIL=
UKBB 081430Z 33003MPS 9999 BKN040 26/17 Q1014 88CLRD95 NOSIG=
UKKK NIL=
UKLL 081430Z 34002MPS 280V060 9999 BKN036 20/12 Q1021 31210365
     NOSIG=
UKOO 081430Z 36004MPS CAVOK 27/14 Q1014 34090070 NOSIG=
UMII NIL=
UMMM NIL=
UMMS NIL=
####018000089####
SPNL31 KWBC 081436
SPECI
EHGR 081433Z AUTO 31006KT 9999NDV FEW240 30/11 Q1018 BLU=
####018000367####
SAPO31 LPMG 081430
METAR LPFR 081430Z 23009KT 200V260 CAVOK 25/20 Q1016=
METAR LPMA 081430Z 01014KT 9999 FEW018 24/17 Q1020 RS16001KT
0518005KT 2301016KT=
METAR LPPR 081430Z 20008KT 160V220 9999 FEW006 FEW025CB BKN250 23/18
Q1016=
METAR LPPS 081430Z 03010KT 360V070 9999 FEW016 SCT030 22/15 Q1021=
METAR LPPT 081430Z 25009KT 210V300 CAVOK 30/19 Q1016 NOSIG=
####018000077####
SALJ32 LJLJ 081430
METAR LJCE 081430Z 33002KT CAVOK 27/09 Q1021 RMK BLU=
####018000028####
SAJP31 KWBC 081430
NIL=
####018000028####
SAIQ32 KWBC 081430
NIL=
####018000109####
SAIO31 KWBC 081400 RRD
METAR
FMMI 081430Z 13007KT 090V160 9999 SCT020 BKN023 15/14 Q1026
     NOSIG=
####018000745####
SAEE32 KWBC 081430
METAR
LBBG 081430Z 27005MPS 8000 RA FEW013 OVC036 17/16 Q1014 WS R22
     NOSIG=
LBPD 081430Z 26006MPS 9999 -RA OVC050 16/14 Q1017 NOSIG=
LBSF 081430Z 28007MPS 9999 FEW035 BKN050 17/12 Q1019 NOSIG=
LBWN 081430Z 30005MPS 270V340 9999 FEW030 SCT045 20/16 Q1013
     NOSIG=
LHBP 081430Z 28006KT 250V340 CAVOK 25/09 Q1020 NOSIG=
LHTA NIL=
LRAR NIL=
LRBS 081430Z 28006KT 240V310 9999 -RA FEW006 21/17 Q1016 NOSIG=
LRCK 081430Z 02012KT 350V060 9999 TS SCT035CB 25/16 Q1014 TEMPO
     5000 TSRA=
LROP 081430Z 25006KT 210V270 9999 -SHRA FEW018 SCT040CB 21/15
     Q1016 880///95 NOSIG=
LRTC NIL=
LRTM NIL=
LRTR 081430Z 34010KT 310V020 9999 FEW048 24/14 Q1020=
LUCC NIL=
LUKK NIL=
LURN NIL=
####018001252####
SAFR32 KWBC 081430
METAR
LFML 081430Z 18011KT CAVOK 32/18 Q1019 NOSIG=
LFMN 081430Z 15003KT 120V180 9999 FEW016 28/23 Q1020 NOSIG=
LFMP 081430Z NIL=
LFMT 081430Z NIL=
LFOB 081430Z NIL=
LFOH 081430Z AUTO 35007KT //// R23///// NSC 26/14 Q1018=
LFOT 081430Z AUTO 12005KT 060V190 9999NDV NSC 34/08 Q1017=
LFPB 081430Z 22007KT 180V270 CAVOK 33/10 Q1017 NOSIG=
LFPG 081430Z VRB04KT CAVOK 32/08 Q1018 NOSIG=
LFPN NIL=
LFPO 081430Z 09003KT 350V160 CAVOK 32/09 Q1018 NOSIG=
LFQQ 081430Z 21009KT 160V270 CAVOK 32/12 Q1018 NOSIG=
LFRB 081430Z NIL=
LFRC 081430Z AUTO 36007KT 330V030 9999NDV NSC 20/16 Q1019=
LFRD 081430Z AUTO 01009KT 9999NDV NSC 23/15 Q1018=
LFRG NIL=
LFRK NIL=
LFRN 081430Z AUTO VRB05KT 9999NDV NSC 32/10 Q1016=
LFRO 081430Z AUTO 02010KT 340V050 9999NDV NSC 20/16 Q1018=
LFRQ 081430Z AUTO 36012KT 9999NDV NSC 25/17 Q1015=
LFRS 081430Z NIL=
LFRT NIL=
LFRZ 081430Z AUTO 18009KT 9999NDV NSC 32/08 Q1016=
LFSB 081430Z VRB03KT CAVOK 32/12 Q1020 NOSIG=
LFSF 081430Z AUTO VRB03KT 9999NDV NSC 33/08 Q1019=
LFSN 081430Z NIL=
LFSR 081430Z AUTO VRB04KT 9999NDV NSC 33/11 Q1018=
LFST 081430Z VRB03KT CAVOK 32/10 Q1019 NOSIG=
LFTW 081430Z AUTO 20008KT 150V230 9999NDV NSC 32/15 Q1020=
LFVP NIL=
####018000665####
SAKZ31 RUMS 081430
METAR UAAA 081430Z 14002MPS 9999 SCT050CB BKN100 24/14 Q1013 88CLRD65
TEMPO TS=
METAR UACC 081430Z 01008MPS 8000 FEW193 20/04 Q1009 040/0070 NOSIG
RMK QFE725/0967=
METAR UAKK 081430Z 16003MPS 9999 SCT050CB BKN/// 18/09 Q1008 230///70
NOSIG RMK QFE709/0946=
METAR UAOO 081430Z NIL=
METAR UARR 081430Z NIL=
METAR UATE 081430Z 01006G11MPS CAVOK 38/07 Q1009 300///70 NOSIG RMK
QFE755/1007=
METAR UATG 081430Z 34006G10MPS CAVOK 39/08 Q1008 32CLRD70 NOSIG RMK
QFE758/1011 =
METAR UATT 081430Z 03006MPS 9999 NSC 32/01 Q1011 13CLRD70 NOSIG RMK
QFE738/0985=
METAR UAUU 081430Z 36008MPS CAVOK 24/M03 Q1012 33CLRD70 NOSIG RMK
QFE744/0991=
####018001621####
SAEM31 KWBC 081430
METAR
KQLA NIL=
KQLH NIL=
KQLX NIL=
LATI 081430Z 01020G32KT 340V080 9999 FEW060 27/13 Q1016 NOSIG=
LDDU 081430Z 26010KT 230V310 9999 FEW045 25/14 Q1018 NOSIG=
LDDV NIL=
LDKT NIL=
LDOS 081430Z VRB04KT 9999 FEW033 26/08 Q1021=
LDPL 081430Z 26011KT 230V290 CAVOK 26/11 Q1021 NOSIG=
LDRI 081430Z VRB02KT 9999 FEW047 27/10 Q1021 NOSIG=
LDSP 081430Z 23013KT 190V260 CAVOK 29/10 Q1018 NOSIG=
LDZA 081430Z VRB03KT CAVOK 27/09 Q1021 NOSIG=
LDZD 081430Z 31015KT CAVOK 28/08 Q1020=
LJLJ NIL=
LJMB NIL=
LJPZ NIL=
LKIB NIL=
LKMT 081430Z 01004KT 270V080 CAVOK 22/10 Q1022 NOSIG=
LKPR 081430Z 31004KT 250V040 CAVOK 26/10 Q1022 NOSIG=
LKTB 081430Z VRB02KT CAVOK 26/08 Q1021 NOSIG=
LKTT NIL=
LOAV NIL=
LOIH NIL=
LOIJ NIL=
LOLW NIL=
LOWG NIL=
LOWH NIL=
LOWI NIL=
LOWK NIL=
LOWL NIL=
LOWS NIL=
LOWW NIL=
LOWZ NIL=
LQSA 081430Z 31006KT 260V360 9999 SCT060 23/12 Q1022 NOSIG=
LWOH 081430Z 01008KT 9999 BKN050 19/09 Q1019=
LWSK 081430Z 33005KT 9999 BKN040 19/11 Q1020 NOSIG=
LYBE 081430Z 33011KT CAVOK 24/12 Q1021 NOSIG=
LYDU NIL=
LYLJ NIL=
LYMB NIL=
LYNI 081430Z 32010KT 9999 FEW020 BKN026 20/14 Q1021 NOSIG=
LYOH NIL=
LYOS NIL=
LYPG 081430Z 02016KT 9999 FEW040 28/09 Q1017 NOSIG=
LYPL NIL=
LYPR 081430Z NIL=
LYPZ NIL=
LYRI NIL=
LYSA NIL=
LYSK NIL=
LYSP NIL=
LYTI NIL=
LYTV 081430Z 34003KT 9999 FEW053 30/10 Q1017 NOSIG=
LYZA NIL=
LYZD NIL=
LZIB 081430Z 33013KT 290V010 CAVOK 25/07 Q1021=
LZKZ 081430Z 01010KT 340V050 CAVOK 24/06 Q1020 NOSIG=
LZTT 081430Z 08012KT 050V120 9999 FEW060 21/07 Q1022 NOSIG=
####018000670####
SAFR31 KWBC 081430
METAR
LFAC NIL=
LFAT NIL=
LFBD 081430Z NIL=
LFBH 081430Z AUTO 31011KT 9999NDV NSC 28/16 Q1016=
LFBI 081430Z NIL=
LFBO 081430Z 14013KT CAVOK 36/12 Q1017 NOSIG=
LFBP 081430Z NIL=
LFBT 081430Z NIL=
LFBZ 081430Z NIL=
LFGJ 081430Z AUTO 19004KT 110V240 9999NDV NSC 32/12 Q1019=
LFKB 081430Z 11004KT 040V180 9999 FEW028 30/21 Q1019 NOSIG=
LFKC 081430Z NIL=
LFKJ 081430Z 19009KT 9999 FEW030 FEW046TCU 31/23 Q1019 NOSIG=
LFLB 081430Z NIL=
LFLC 081430Z NIL=
LFLL 081430Z 23006KT 140V300 CAVOK 33/11 Q1019 NOSIG=
LFLS 081430Z NIL=
LFLY 081430Z NIL=
LFMD 081430Z AUTO 18005KT 140V240 9999NDV NSC 30/21 Q1020=
LFMH NIL=
####018000028####
SAHA31 KWBC 081430
NIL=
####018000432####
SARO32 LROM 081430
METAR LRAR 081430Z 36010KT 330V050 9999 BKN045 24/12 Q1020=
METAR LRBM 081430Z 27004KT 240V310 9999 BKN042 BKN065 21/15 Q1019=
METAR LRCL 081430Z 32004KT 280V350 9999 SCT026 SCT044 19/13 Q1020
0821//95=
METAR COR LROD 081430Z 35012KT 320V020 CAVOK 23/12 Q1020=
METAR LRSM 081430Z 35004KT 330V040 9999 BKN046 23/14 Q1020 01CLRD//=
METAR LRTM 081430Z 27004KT 220V330 9999 SCT030 BKN035 19/14 Q1020=
####018000099####
SAHK31 VHHH 081430
METAR VHHH 081430Z 21009KT 140V240 9999 FEW020 SCT030 31/25 
Q1009 NOSIG=
####018000083####
SARO33 LROM 081430 CCA
METAR COR LRCV 081430Z VRB02KT 9999 FEW044 25/13 Q1017=
####018000208####
SATR31 RUMS 081430
METAR UTAA 081430Z 12003MPS 9999 SKC 42/04 Q1007 NOSIG=
METAR UTAK 081430Z NIL=
METAR UTAM 081430Z NIL=
METAR UTAT 081430Z 09006MPS CAVOK 41/18 Q1006 NOSIG=
METAR UTAV 081430Z NIL=
####018000159####
SAAY31 RUMS 081430
METAR UDYZ 081430Z 05007MPS 9999 FEW100 36/15 Q1007 09010070 NOSIG=
METAR UDSG 081430Z 07011G16MPS 9999 NSC 27/15 Q1015 02CLRD70 NOSIG=
####018000028####
SAJP41 KWBC 081430
NIL=
####018000028####
SAJP42 KWBC 081430
NIL=
####018000028####
SAJP43 KWBC 081430
NIL=
####018000028####
SAJP44 KWBC 081430
NIL=
####018000028####
SAJP45 KWBC 081430
NIL=
####018000138####
SPXX62 KWBC 081436
SPECI
RKSO 081432Z AUTO 11004KT 4800 R27/1200 BR CLR 22/ A2979 RMK AO2
RAE1401B1418E1428DZB1401E1432 SLP089 $=
####018000094####
SAKO31 KWBC 081400 RRA
METAR
RKSI 081430Z 09002KT 8000 FEW030 OVC110 22/19 Q1009 NOSIG=
####018000195####
SAMM31 KWBC 081430
METAR
LCEN NIL=
LCLK 081430Z 20017KT 9999 FEW030 29/23 Q1007 NOSIG=
LCNC 081430Z NIL=
LCPH 081430Z 26008KT 200V290 9999 SCT015 29/24 Q1008=
LCRA NIL=
LMML NIL=
####018000088####
SANT31 KWBC 081400 RRC
METAR
BIKF 081430Z 03021KT 9999 SCT024 BKN100 13/06 Q0995=
####018000366####
SAPO31 KWBC 081400 RRB
METAR
LPFR 081430Z 23009KT 200V260 CAVOK 25/20 Q1016=
LPMA 081430Z 01014KT 9999 FEW018 24/17 Q1020 RS16001KT 0518005KT
     2301016KT=
LPPR 081430Z 20008KT 160V220 9999 FEW006 FEW025CB BKN250 23/18
     Q1016=
LPPS 081430Z 03010KT 360V070 9999 FEW016 SCT030 22/15 Q1021=
LPPT 081430Z 25009KT 210V300 CAVOK 30/19 Q1016 NOSIG=
####018000216####
SARA31 KWBC 081400 RRJ
METAR
UTNU 081430Z 08002MPS CAVOK 36/22 Q1006 R31/CLRD60 NOSIG=
UTSS 081430Z 08003MPS 9999 NSC 30/10 Q1010 R88/CLRD70 NOSIG=
UTST 081430Z 29002MPS CAVOK 34/14 Q1004 R88/CLRD70 NOSIG=
####018001589####
SASP31 KWBC 081430
METAR
LEAL 081430Z 07010KT 050V110 CAVOK 30/18 Q1019 NOSIG=
LEAM 081430Z 09017KT 060V120 9999 FEW050 38/06 Q1015=
LEAS 081430Z 05006KT 010V080 9999 FEW015 23/19 Q1015 NOSIG=
LEBB 081430Z 29005KT 230V340 9999 FEW025 26/21 Q1016 TEMPO
     SCT030CB=
LEBL 081430Z 20013KT CAVOK 28/20 Q1019 NOSIG=
LECO 081430Z 31007KT 250V340 CAVOK 25/20 Q1016=
LEGE 081430Z 18009KT 140V210 CAVOK 32/18 Q1019=
LEGR 081430Z 15017KT 9999 FEW060 SCT080 39/06 Q1016=
LEIB 081430Z 09007KT 040V120 CAVOK 29/21 Q1019 NOSIG=
LEJR 081430Z 24007KT 210V280 CAVOK 30/17 Q1015=
LELC 081430Z NIL=
LELL 081430Z 12008KT 050V150 CAVOK 32/13 Q1019=
LEMD 081430Z 34009KT 310V020 9999 SCT035CB 30/14 Q1018 WS ALL RWY
     TEMPO SHRA=
LEMG 081430Z 16009KT 110V200 9999 FEW045 29/15 Q1016 NOSIG=
LEMH 081430Z 17008KT 120V210 CAVOK 29/19 Q1020=
LEPA 081430Z 23010KT 200V260 CAVOK 31/14 Q1019 NOSIG=
LEPP 081430Z 18010KT 140V210 9999 FEW064 37/14 Q1017=
LERS 081430Z 19009KT 160V240 CAVOK 30/12 Q1019=
LESO 081430Z VRB04KT CAVOK 27/21 Q1015=
LEST 081430Z 25007KT 210V290 9999 SCT035 27/20 Q1016 NOSIG=
LETO NIL=
LEVC 081430Z 12011KT 090V150 CAVOK 32/12 Q1018 NOSIG=
LEVD 081430Z 18013KT 140V210 CAVOK 34/07 Q1017=
LEVS 081430Z 30005KT 220V010 9999 -RA FEW050 29/13 Q1019=
LEVT 081430Z 13003KT 090V160 9999 FEW050 33/17 Q1017=
LEVX 081430Z 36006KT 8000 FEW030 22/18 Q1016=
LEXJ 081430Z 28007KT 250V310 9999 FEW018 25/19 Q1015=
LEZG 081430Z 09006KT 9999 FEW035 FEW040CB SCT070 37/12 Q1016=
LEZL 081430Z 22008KT 170V290 9999 FEW040 33/16 Q1015 NOSIG=
####018000289####
SATS31 KWBC 081430
METAR
DTMB 081430Z 07011KT CAVOK 30/19 Q1018 NOSIG=
DTTA 081430Z 01012KT 340V040 CAVOK 29/20 Q1019 NOSIG=
DTTB NIL=
DTTD NIL=
DTTG NIL=
DTTJ 081430Z 08012KT CAVOK 30/21 Q1017 NOSIG=
DTTK NIL=
DTTL NIL=
DTTN NIL=
DTTR NIL=
DTTX NIL=
DTTZ NIL=
####018000087####
SAUK42 KWBC 081420 CCA
METAR
EGPM 081420Z 22022KT 9999 FEW029 16/10 Q1007 NOSIG=
####018000842####
SAXX99 KWBC 081400 RRX
METAR
K4O4 081428Z AUTO 14007KT SCT001 SCT013 26/23 A3008 RMK AO2=
LESA 081430Z 18017KT 150V230 9999 FEW048 35/14 Q1017=
LFBG 081430Z AUTO 14005KT 070V240 9999NDV NSC 35/11 Q1016=
LFCR 081430Z AUTO 14008KT 100V180 9999NDV NSC 34/10 Q1021=
LFJL 081430Z AUTO /////KT 9999NDV NSC 32/08 Q1019=
LFLX 081430Z NIL=
LFMI 081430Z AUTO 18011KT 9999NDV NSC 32/17 Q1019=
LFMK 081430Z AUTO 09017KT 9999NDV NSC 34/13 Q1018=
LFMO 081430Z AUTO VRB05KT 9999NDV NSC 35/14 Q1019=
LFMU 081430Z AUTO 16008KT 110V190 9999NDV NSC 29/15 Q1020=
LFMV 081430Z AUTO 26006KT 190V320 9999NDV NSC 35/16 Q1019=
LFOA 081430Z AUTO 20005KT 120V270 9999NDV NSC 33/06 Q1018=
LFOK 081430Z AUTO 15005KT 120V180 9999NDV NSC 32/09 Q1019=
LFQI 081430Z 25005KT 180V310 CAVOK 31/10 Q1018=
LKKV 081430Z VRB01KT CAVOK 25/09 Q1022=
####018000089####
SPUS52 KWBC 081436
SPECI
KDHT 081433Z AUTO 36008KT 10SM BKN010 OVC016 18/16 A3028=
####018000077####
SPUS53 KWBC 081436
SPECI
KSLN 081433Z 02011KT 10SM BKN010 22/19 A3016=
####018000228####
SAUS53 KWBC 081400 RRH
METAR
KANW 081430Z AUTO 30004KT 10SM CLR 20/13 A3026=
KBIE 081430Z AUTO 04006KT 10SM CLR 22/19 A3016=
KONL 081430Z AUTO 34004KT 10SM CLR 22/14 A3024=
KUDG 081435Z 03005KT 10SM CLR 32/21 A2998=
####018000145####
SAUS54 KWBC 081400 RRD
METAR
KIZA 081429Z AUTO 00000KT 7SM OVC007 13/11 A2994=
KSOW 081430Z AUTO 18005KT 10SM FEW090 BKN120 21/04 A3029=
####018000083####
SAUS72 KWBC 081400 RRG
METAR
KLRU 081431Z AUTO 03007KT 10SM CLR 24/13 A3020=
####018000077####
SPUS73 KWBC 081436
SPECI
KSLN 081433Z 02011KT 10SM BKN010 22/19 A3016=
####018000089####
SPUS81 KWBC 081436
SPECI
KANJ 081434Z AUTO 26006KT 10SM SCT004 BKN011 20/18 A2998=
####018000127####
SANA14 KAWN 081400 RRH
METAR KNKX 081355Z 00000KT 7SM OVC011 16/14 A2992 RMK RAE02DZB02E52
      SLP125 P0000 T01610139=
####018000369####
SAZZ40 KAWN 081400 RRU
METAR BIKF 081430Z 03021KT 9999 SCT024 BKN100 13/06 Q0995=
METAR KNKX 081355Z 00000KT 7SM OVC011 16/14 A2992 RMK RAE02DZB02E52
      SLP125 P0000 T01610139=
METAR LKKV 081430Z VRB01KT CAVOK 25/09 Q1022=
METAR NTAA 081430Z AUTO VRB02KT 9999NDV NCD 25/22 Q1015=
METAR WSSS 081430Z 25001KT 9999 FEW016 SCT280 BKN300 27/24 Q1011 NOSIG=
####018000163####
SAXX70 KAWN 081400 RRR
METAR KQFW 081420Z AUTO 10001KT 7SM DZ CLR 22/20 A2993 RMK A02=
METAR KQEX 081430Z AUTO 21004KT 2SM -SHRA BKN039 25/20 A2978 RMK A02=
####018000075####
SACN95 CWAO 081431
WTM SA 1431 AUTO8 M M M M/11/09/1912/M/M M 88MM=

####018000080####
SACN88 CWAO 081431
WDA SA 1431 AUTO8 M M M 176/11/10/1011/M/M 6020 35MM=

####018000653####
SACI31 ZBBB 081430
METAR ZBAA 081430Z 13004MPS CAVOK 28/17 Q1006 NOSIG=
ZBSJ NIL=
METAR ZBTJ 081430Z 10002MPS CAVOK 26/18 Q1006 NOSIG=
METAR ZBYN 081430Z 09007MPS CAVOK 25/14 Q1009 NOSIG=
METAR ZGGG 081430Z 15003MPS 9999 SCT030 31/26 Q1008 NOSIG=
METAR ZSHC 081430Z VRB01MPS 5000 -RA BR NSC 26/23 Q1005 NOSIG=
METAR ZSPD 081430Z 11005MPS 9999 SCT009 26/24 Q1005 NOSIG=
METAR ZSSS 081430Z 12004MPS 9999 BKN016 27/23 Q1005 NOSIG=
ZWSH NIL=
METAR ZWWW 081430Z 20004MPS 9999 FEW033CB 29/08 Q1011 NOSIG=
METAR ZYTL 081430Z 29002MPS 260V320 5000 BR NSC 23/20 Q1007 NOSIG=
METAR ZYTX 081430Z 09002MPS 040V180 CAVOK 19/18 Q1007 NOSIG=
####018002485####
SAUS20 KNKA 081436
METAR K04W 081434Z AUTO 29006KT 10SM CLR 24/16 A3008 RMK AO2 
     T02370163=
METAR K0A9 081435Z AUTO VRB04KT 10SM CLR 29/19 A3011 RMK=
METAR K20V 081436Z AUTO 24003KT 10SM BKN011 10/06 A3045 RMK AO2=
METAR K4BM 081434Z AUTO 00000KT 10SM 07/05 A3064 RMK AO2=
METAR K5SM 081433Z AUTO 00000KT 10SM SCT110 12/03 A3059 RMK AO2=
METAR K7BM 081436Z AUTO 00000KT 7SM OVC002 10/08 A3054 RMK AO2=
METAR KAEG 081435Z AUTO 13014KT 10SM CLR 19/08 A3032 RMK AO1  =
METAR KBBP 081435Z AUTO 05006KT 10SM CLR 33/20 A2996 RMK AO2=
METAR KBDU 081437Z AUTO 01004KT 10SM OVC039 17/13 A3035 RMK AO2=
METAR KBKN 081435Z AUTO 02009KT 10SM CLR 25/22 A3008 RMK AO2 =
METAR KC29 081435Z AUTO 31006KT 10SM OVC012 25/20 A3005 RMK AO2 
     T02480204=
METAR KCCU 081436Z AUTO 26006KT 10SM CLR 11/02 A3066 RMK AO2=
METAR KCIC 081435Z AUTO 16006KT 10SM CLR 20/12 A2985 RMK AO1 =
SPECI KDMO 081435Z AUTO 01003KT 10SM FEW007 SCT014 OVC019 26/22 
    A3009 RMK AO2=
METAR KGGE 081435Z AUTO 32007KT 10SM CLR 31/22 A2993 RMK AO2=
METAR KHYI 081435Z AUTO 08007KT 5SM FEW018 SCT031 BKN046 25/23 A2998 
    RMK AO1 P0009=
METAR KILE 081435Z 07008KT 8SM SCT012 BKN026 OVC060 25/22 A3001 RMK 
    AO1=
SPECI KLRD 081434Z 03011KT 9SM FEW012 BKN018 BKN027 28/25 A2992 RMK 
    AO2 $=
METAR KLUX 081435Z AUTO 04003KT 10SM CLR 30/23 A3003 RMK AO2=
METAR KMAO 081435Z AUTO 04006KT 7SM CLR 31/21 A2995 RMK AO2=
SPECI KMCI 081435Z 03006KT 7SM FEW007 BKN012 BKN018 26/23 A3011 RMK 
    AO2=
METAR KMYP 081336Z AUTO 20006KT 10SM CLR 06/03 A3076 RMK AO2=
METAR KOCH 081435Z AUTO 12009KT 10SM OVC011 27/21 A3004 RMK AO1=
METAR KPRX 081435Z 17006KT 10SM SCT013 BKN060 OVC065 27/24 A3006 RMK 
    AO1=
METAR KPWG 081435Z AUTO 09007KT 10SM SCT012 BKN029 OVC055 27/23 
    A3004 RMK AO1=
METAR KRCE 081435Z AUTO 01004KT 10SM BKN011 25/23 A3010 RMK AO2 =
SPECI KRFD 081433Z 31010KT 10SM BKN017 BKN150 24/20 A3005 RMK
     AO2=
SPECI KRUE 081435Z AUTO 00000KT 10SM BKN012 BKN017 BKN043 28/24 
    A3009 RMK AO2=
METAR KSMS 081435Z AUTO 32005KT 10SM CLR 31/22 A2998 RMK AO2 =
METAR KTPL 081435Z 09010KT 8SM SCT010 BKN016 OVC055 26/24 A3002 RMK 
    AO1 
     =
METAR KVTP 081440Z AUTO 00000KT 10SM CLR 11/05 A3056 RMK AO2=
SPECI KWLD 081435Z AUTO 04009KT 10SM SCT010 25/22 A3012 RMK AO2=
METAR KWYS 081430Z AUTO 35003KT 10SM CLR 09/02 A3038 RMK AO2=
METAR KX40 081435Z AUTO 00000KT 10SM CLR 29/21 A3002 RMK AO2 
     T02910207=
####018000104####
SAAK41 KNKA 081436
SPECI PAIL 081434Z 00000KT 3/4SM -RA BR OVC001 08/08 A2996 RMK AO2 
    P0001=
####018000536####
SAAE31 VTBB 081430
METAR VTBS 081430Z NIL=
METAR VTBD 081430Z NIL=
METAR VTCC 081430Z 02009KT 9999 FEW025CB SCT040 30/21 Q1010 A2982
           CB SE=
METAR VTBU 081430Z NIL=
METAR VTSS 081430Z NIL=
METAR VTSP 081430Z 30007KT 7000 RA FEW020 BKN300 28/24 Q1011 A2988
           NOSIG=
METAR VLVT 081430Z NIL=
METAR VYYY 081430Z NIL=
METAR VVTS 081430Z NIL=
METAR VVNB 081430Z NIL=
METAR VDPP 081430Z NIL=
METAR VVDN 081430Z NIL=
METAR VYMD 081430Z NIL=
METAR VDSR 081430Z NIL=
METAR VVPB 081430Z NIL=
####018000085####
SAMD90 KWBC 081436
METAR K2G4 081435Z AUTO 00000KT 10SM CLR 26/15 A3019 RMK AO1=
####018000093####
SAMD90 KWBC 081436
METAR K2W6 081435Z AUTO 08007KT 050V130 10SM CLR 28/21 A3003 RMK AO1=
####018000088####
SAMD90 KWBC 081436
METAR KCGE 081433Z AUTO 13004KT 10SM BKN085 28/23 A3003 RMK AO1=
####018000084####
SAMD90 KWBC 081436
METAR KCGS 081440Z AUTO 15003KT 7SM CLR 32/22 A3001 RMK AO1=
####018000084####
SAMD90 KWBC 081436
METAR KCBE 081436Z AUTO 15003KT 7SM CLR 30/20 A3009 RMK AO1=
####018000085####
SAMD90 KWBC 081436
METAR KDMW 081434Z AUTO 00000KT 10SM CLR 31/22 A3005 RMK AO2=
####018000085####
SAMD90 KWBC 081436
METAR KFME 081436Z AUTO 09008KT 10SM CLR 28/22 A3004 RMK AO1=
####018000084####
SAMD90 KWBC 081436
METAR KFDK 081436Z AUTO 00000KT 7SM CLR 36/22 A3004 RMK AO2=
####018000085####
SAMD90 KWBC 081436
METAR KW29 081436Z AUTO 17004KT 10SM CLR 28/22 A3001 RMK AO1=
####018000501####
SAUS20 KNKA 081436
SPECI KBAF 081435Z 19004KT 6SM HZ OVC011 26/22 A3007 RMK AO2 
    RAB13E24 P0000=
SPECI KDTO 081436Z 16005KT 8SM -RA SCT014 SCT021 BKN030 26/24 A3006 
    RMK AO2 RAB36 P0000=
SPECI KFLD 081435Z AUTO 30007KT 10SM BKN019 25/20 A3002 RMK AO2=
SPECI KLAR 081435Z AUTO 17003KT 10SM SCT006 BKN017 10/09 A3042 RMK 
    AO2=
SPECI KLNR 081435Z AUTO 30005KT 10SM SCT013 SCT018 24/20 A3006 RMK 
    AO2=
SPECI KOVS 081435Z AUTO 00000KT 10SM BKN016 25/20 A3006 RMK AO2=
####018001823####
SAUS99 KWBC 081437
METAR
K04W 081434Z AUTO 29006KT 10SM CLR 24/16 A3008 RMK AO2
     T02370163=
K0A9 081435Z AUTO VRB04KT 10SM CLR 29/19 A3011 RMK=
K20V 081436Z AUTO 24003KT 10SM BKN011 10/06 A3045 RMK AO2=
K4BM 081434Z AUTO 00000KT 10SM 07/05 A3064 RMK AO2=
K5SM 081433Z AUTO 00000KT 10SM SCT110 12/03 A3059 RMK AO2=
K7BM 081436Z AUTO 00000KT 7SM OVC002 10/08 A3054 RMK AO2=
KAEG 081435Z AUTO 13014KT 10SM CLR 19/08 A3032 RMK AO1=
KBBP 081435Z AUTO 05006KT 10SM CLR 33/20 A2996 RMK AO2=
KBDU 081437Z AUTO 01004KT 10SM OVC039 17/13 A3035 RMK AO2=
KBKN 081435Z AUTO 02009KT 10SM CLR 25/22 A3008 RMK AO2=
KC29 081435Z AUTO 31006KT 10SM OVC012 25/20 A3005 RMK AO2
     T02480204=
KCCU 081436Z AUTO 26006KT 10SM CLR 11/02 A3066 RMK AO2=
KCIC 081435Z AUTO 16006KT 10SM CLR 20/12 A2985 RMK AO1=
KGGE 081435Z AUTO 32007KT 10SM CLR 31/22 A2993 RMK AO2=
KHYI 081435Z AUTO 08007KT 5SM FEW018 SCT031 BKN046 25/23 A2998 RMK
     AO1 P0009=
KILE 081435Z 07008KT 8SM SCT012 BKN026 OVC060 25/22 A3001 RMK
     AO1=
KLUX 081435Z AUTO 04003KT 10SM CLR 30/23 A3003 RMK AO2=
KMAO 081435Z AUTO 04006KT 7SM CLR 31/21 A2995 RMK AO2=
KMYP 081336Z AUTO 20006KT 10SM CLR 06/03 A3076 RMK AO2=
KOCH 081435Z AUTO 12009KT 10SM OVC011 27/21 A3004 RMK AO1=
KPRX 081435Z 17006KT 10SM SCT013 BKN060 OVC065 27/24 A3006 RMK
     AO1=
KPWG 081435Z AUTO 09007KT 10SM SCT012 BKN029 OVC055 27/23 A3004
     RMK AO1=
KRCE 081435Z AUTO 01004KT 10SM BKN011 25/23 A3010 RMK AO2=
KSMS 081435Z AUTO 32005KT 10SM CLR 31/22 A2998 RMK AO2=
KTPL 081435Z 09010KT 8SM SCT010 BKN016 OVC055 26/24 A3002 RMK
     AO1=
KVTP 081440Z AUTO 00000KT 10SM CLR 11/05 A3056 RMK AO2=
KWYS 081430Z AUTO 35003KT 10SM CLR 09/02 A3038 RMK AO2=
KX40 081435Z AUTO 00000KT 10SM CLR 29/21 A3002 RMK AO2
     T02910207=
####018000992####
SPUS99 KWBC 081437
SPECI
PAIL 081434Z 00000KT 3/4SM -RA BR OVC001 08/08 A2996 RMK AO2
     P0001=
KDMO 081435Z AUTO 01003KT 10SM FEW007 SCT014 OVC019 26/22 A3009
     RMK AO2=
KLRD 081434Z 03011KT 9SM FEW012 BKN018 BKN027 28/25 A2992 RMK AO2
     $=
KMCI 081435Z 03006KT 7SM FEW007 BKN012 BKN018 26/23 A3011 RMK
     AO2=
KRFD 081433Z 31010KT 10SM BKN017 BKN150 24/20 A3005 RMK AO2=
KRUE 081435Z AUTO 00000KT 10SM BKN012 BKN017 BKN043 28/24 A3009
     RMK AO2=
KWLD 081435Z AUTO 04009KT 10SM SCT010 25/22 A3012 RMK AO2=
KBAF 081435Z 19004KT 6SM HZ OVC011 26/22 A3007 RMK AO2 RAB13E24
     P0000=
KDTO 081436Z 16005KT 8SM -RA SCT014 SCT021 BKN030 26/24 A3006 RMK
     AO2 RAB36 P0000=
KFLD 081435Z AUTO 30007KT 10SM BKN019 25/20 A3002 RMK AO2=
KLAR 081435Z AUTO 17003KT 10SM SCT006 BKN017 10/09 A3042 RMK
     AO2=
KLNR 081435Z AUTO 30005KT 10SM SCT013 SCT018 24/20 A3006 RMK
     AO2=
KOVS 081435Z AUTO 00000KT 10SM BKN016 25/20 A3006 RMK AO2=
####018000753####
SAUR31 UKMS 081430
METAR UKLR 081430Z 30005MPS 250V330 9999 SCT030
         BKN100  22/15 Q1019 30090070 NOSIG=
METAR UKLI 081430Z 28002MPS 250V330 9999 FEW021CB
         BKN030 18/15 Q1020 28290565 NOSIG=
METAR UKON 081430Z 12005MPS 9999 SCT033CB OVC200
         28/17  Q1013 05090075 NOSIG=
METAR UKCM 081430Z 12002MPS 080V140 CAVOK 29/15 Q1013
          20010065 NOSIG=
METAR UKCW 081430Z 03002MPS 310V110 9999 BKN040 30/16
          Q1014 2709//70 NOSIG=
METAR UKLU 081430Z 03002MPS 9999 SCT040 BKN200 23/11
         Q1020 10090070  NOSIG=
METAR UKKK 081430Z 30002MPS 280V340 CAVOK 26/17 Q1015
         26CLRD70  NOSIG=
METAR UKKM NIL=
METAR UKLN 081430Z 28004MPS 230V310 9999 BKN017CB
         OVC100 16/14 Q1020 3319//65 NOSIG=
####018000086####
SANL33 EHDB 081425 RRA
METAR EHJR 081425Z AUTO 25005G07KT //// 16/15 Q1019 W16/S2=
####018000080####
SAQB31 LQBK 081430
METAR LQBK 081430Z 27004KT 9999 SCT043 24/11 Q1021 NOSIG=
####018000281####
SAPO32 LPMG 081430
METAR LPAZ 081430Z 24006KT 9999 SCT016 BKN028 22/20 Q1025=
METAR LPFL 081430Z 19006KT 130V250 9999 FEW021TCU SCT040 24/17 Q1021=
METAR LPHR 081430Z 21007KT 170V230 9999 FEW015 23/19 Q1023=
METAR LPPD 081430Z 19005KT 130V210 9999 FEW016 BKN030 21/17 Q1024=
####018000364####
SAAL31 DAAA 081430
METAR DAAG 081430Z 04017KT CAVOK 33/16 Q1018=
METAR DAAT 081430Z 11011KT 070V160 CAVOK 34/02 Q1021=
METAR DABB 081430Z 02015KT CAVOK 27/21 Q1019=
METAR DABC 081430Z 36012KT CAVOK 34/08 Q1022=
METAR DAON 081430Z 02010KT 9999 FEW026 39/19 Q1015=
METAR DAOO 081430Z 36010KT CAVOK 33/22 Q1015=
METAR DAUH 081430Z 06010KT CAVOK 40/21 Q1016=
####018000139####
SACN95 CWAO 081400 RRD
WTM SA 1400 AUTO8 M M M 227/11/09/1910/M/M 8003 88MM=
WTX SA 1400 AUTO8 M M M 158/19/15/2604/M/ 3007 13MM=

####018000083####
SACN91 CWAO 081400 RRD
WIJ SA 1400 AUTO8 M M M 137/12/08/3104/M/ 8004 70MM=

####018000079####
SACN89 CWAO 081400 RRC
WAF SA 1400 AUTO8 M M M M/12/11/0705/M/M M 53MM=

####018000486####
SACN59 CWAO 081400 RRF
PAH SA 1400 AUTO8 M M M M/17/13/MMMM/M/ M 90MM=
PBL SA 1400 AUTO8 M M M M/17/12/2506/M/ M 72MM=
PBV SA 1400 AUTO8 M M M M/14/11/MMMM/M/ M 31MM=
PGL SA 1400 AUTO8 M M M M/17/12/1904/M/ M 52MM=
PST SA 1400 AUTO8 M M M M/15/12/2206/M/0005 M 59MM=
PTH SA 1400 AUTO8 M M M M/17/12/MMMM/M/ M 71MM=
PVA SA 1400 AUTO8 M M M M/15/13/MMMM/M/ M 47MM=
XHP SA 1400 AUTO8 M M M M/15/12/1907/M/0006 M 82MM=
XMG SA 1400 AUTO8 M M M M/18/12/3205/M/ M 99MM=

####018000216####
SACN88 CWAO 081400 RRD
AVA SA 1400 AUTO8 M M M 213/15/11/1813+19/M/ 8013 74MM=
AWR SA 1400 AUTO8 M M M 190/22/18/1609/M/ PK WND 1621 1301Z 3007
39MM=
WDA SA 1400 AUTO8 M M M 179/10/09/1011/M/ 6019 31MM=

####018001079####
SACN60 CWAO 081400 RRB
PAF SA 1400 AUTO8 M M M M/18/13/MMMM/M/ M 71MM=
PBB SA 1400 AUTO8 M M M M/16/12/MMMM/M/ M 12MM=
PBN SA 1400 AUTO8 M M M M/15/12/2403/M/ M 30MM=
PDB SA 1400 AUTO8 M M M M/15/12/MMMM/M/ M 06MM=
PEL SA 1400 AUTO8 M M M M/15/13/2504/M/ M 49MM=
PFA SA 1400 AUTO8 M M M M/16/12/MMMM/M/ M 94MM=
PFB SA 1400 AUTO8 M M M M/16/11/MMMM/M/ M 69MM=
PGC SA 1400 AUTO8 M M M M/18/11/2601/M/ M 16MM=
PHA SA 1400 AUTO8 M M M M/16/12/MMMM/M/ M 08MM=
PJT SA 1400 AUTO8 M M M M/16/12/2407/M/ M 10MM=
PLC SA 1400 AUTO8 M M M M/17/14/2402/M/ M 55MM=
PLG SA 1400 AUTO8 M M M M/18/11/2701/M/M M 29MM=
PNS SA 1400 AUTO8 M M M M/17/12/MMMM/M/ M 31MM=
PRF SA 1400 AUTO8 M M M M/16/12/2104/M/ M 39MM=
PRW SA 1400 AUTO8 M M M M/17/13/MMMM/M/ M 94MM=
PSH SA 1400 AUTO8 M M M M/18/12/MMMM/M/ M 50MM=
PSW SA 1400 AUTO8 M M M M/17/11/2805/M/ M 89MM=
PTA SA 1400 AUTO8 M M M M/17/13/MMMM/M/ M 46MM=
PTC SA 1400 AUTO8 M M M M/19/12/MMMM/M/ M 25MM=
PVI SA 1400 AUTO8 M M M M/17/13/MMMM/M/ M 45MM=
PWT SA 1400 AUTO8 M M M M/16/13/MMMM/M/ M 36MM=

####018000083####
SACN78 CWAO 081400 RRE
WKK SA 1400 AUTO8 M M M 136/21/17/2203/M/ 8007 10MM=

####018000083####
SACN93 CWAO 081400 RRE
WOI SA 1400 AUTO8 M M M 184/07/07/2104/M/ 0000 08MM=

####018000078####
SACN98 CWAO 081400 RRF
XCD SA 1400 AUTO8 M M M M/18/12/2604/M/ M 49MM=

####018000147####
SACN82 CWAO 081400 RRC
MQK SA 1400 AUTO8 M M M M/07/M/1401/M/M M 0MMM=
MQP SA 1400 AUTO8 M M M M/07/07/2217/M/M PK WND 2322 1317Z M 41MM=

####018000077####
SPUS53 KWBC 081437
SPECI
KLNK 081434Z 01009KT 10SM SCT015 22/18 A3018=
####018000076####
SPUS53 KWBC 081437
SPECI
KMHK 081434Z 02006KT 8SM OVC011 22/20 A3014=
####018000087####
SANL33 EHDB 081425 RRA
METAR EHJR 081425Z AUTO 25005G07KT //// 16/15 Q1019 W16/S2=
####018000087####
SANL33 EHDB 081425 RRB
METAR EHSC 081425Z AUTO VRB03G04KT 9999 19/16 Q1019 W///S2=
####018000283####
SABY31 UMMN 081430
UMBB NIL=
METAR UMGG 081430Z 28005MPS 9999 BKN021CB BKN100 26/16 Q1014
R28/290550 NOSIG=
METAR UMMM 081430Z 25005G08MPS 5000 BR OVC013CB 17/14 Q1015
R30/CLRD// NOSIG RMK QFE742=
METAR UMMS 081430Z 28003MPS 9999 OVC013 18/15 Q1015
R31/CLRD// NOSIG=
####018000770####
SAUR31 UKMS 081430
METAR UKLR 081430Z 30005MPS 250V330 9999 SCT030
         BKN100  22/15 Q1019 30090070 NOSIG=
METAR UKLI 081430Z 28002MPS 250V330 9999 FEW021CB
         BKN030 18/15 Q1020 28290565 NOSIG=
METAR UKON 081430Z 12005MPS 9999 SCT033CB OVC200
         28/17  Q1013 05090075 NOSIG=
METAR UKCM 081430Z 12002MPS 080V140 CAVOK 29/15 Q1013
          20010065 NOSIG=
METAR UKCW 081430Z 03002MPS 310V110 9999 BKN040 30/16
          Q1014 2709//70 NOSIG=
METAR UKLU 081430Z 03002MPS 9999 SCT040 BKN200 23/11
         Q1020 10090070  NOSIG=
METAR UKKK 081430Z 30002MPS 280V340 CAVOK 26/17 Q1015
         26CLRD70  NOSIG=
METAR UKKM NIL=
METAR UKLN 081430Z 28004MPS 230V310 9999 BKN017CB
         OVC100 16/14 Q1020 3319//65 NOSIG=
####018000371####
SAAL31 DAAA 081430
METAR DAAG 081430Z 04017KT CAVOK 33/16 Q1018=
METAR DAAT 081430Z 11011KT 070V160 CAVOK 34/02 Q1021=
METAR DABB 081430Z 02015KT CAVOK 27/21 Q1019=
METAR DABC 081430Z 36012KT CAVOK 34/08 Q1022=
METAR DAON 081430Z 02010KT 9999 FEW026 39/19 Q1015=
METAR DAOO 081430Z 36010KT CAVOK 33/22 Q1015=
METAR DAUH 081430Z 06010KT CAVOK 40/21 Q1016=
####018000087####
SANL33 EHDB 081425 RRC
METAR EHSA 081425Z AUTO 24007G07KT 9999 17/16 Q1019 W16/S2=
####018000083####
SPAU32 YBBN 081436
SPECI YBMA 081436Z AUTO 00000KT 8000NDV // NCD 07/06 Q1020=
####018000096####
SATU31 LTAA 081420 RRA
METAR LTBA 081420Z 34018KT 9999 BKN035 22/16 Q1012 TEMPO 4000 -TSRA=
####018000077####
SPUS73 KWBC 081437
SPECI
KLNK 081434Z 01009KT 10SM SCT015 22/18 A3018=
####018000219####
SAUS44 KCRP 081437 COR
MTRCRP
SPECI KCRP 081431Z COR 03013KT 2 1/2SM -TSRA BR FEW006 BKN020CB 
BKN040 26/25 A2988 RMK AO2 TSB31RAB1356 OCNL LTGICCC OHD-N TS OHD-N 
MOV NW CB E-SE MOV NW TCU DSNT NE S SW P0019
####018000076####
SPUS73 KWBC 081437
SPECI
KMHK 081434Z 02006KT 8SM OVC011 22/20 A3014=
####018000090####
SPUS73 KWBC 081437
SPECI
KTVC 081434Z VRB03KT 8SM FEW005 BKN009 OVC100 24/21 A2999=
####018000076####
SPUS81 KWBC 081437
SPECI
KMHK 081434Z 02006KT 8SM OVC011 22/20 A3014=
####018000125####
SPUS17 KAWN 081437 RRE
SPECI KNFW 081428Z 13005KT 10SM -RA FEW012 BKN024 OVC040 27/23 A3009
      RMK AO2 RAB18 P0000=
####018000537####
SAJP51 RJTD 081430
METAR RJAA 081430Z 14003KT 9999 FEW010 FEW020CB BKN160 22/22 Q1011
           NOSIG=
METAR RJBB 081430Z 21006KT 9999 FEW008 BKN/// 26/23 Q1009 NOSIG=
METAR RJCC 081430Z 19003KT 1200 R01R/0600N BR BKN002 17/17 Q1011=
METAR RJFF 081430Z 15003KT 090V200 7000 FEW020 BKN/// 25/21 Q1008=
METAR RJGG 081430Z 13005KT 9999 FEW015 SCT020 BKN/// 25/23 Q1010
           NOSIG=
METAR RJTT 081430Z 19012KT 9999 FEW004 SCT012 BKN050 25/22 Q1010=
METAR ROAH 081430Z 19015KT 9999 FEW008 SCT010 BKN180 29/26 Q1010=
####018002897####
SAUS20 KNKA 081437
METAR K1A6 081435Z AUTO 00000KT 5SM HZ CLR 29/24 A3010 RMK AO2=
METAR K1P1 081435Z AUTO 08004KT 7SM BKN017 OVC022 28/23 A3007 RMK 
     AO2 T02820225=
METAR K21D 081438Z AUTO 31005KT 10SM CLR 23/16 A3011 RMK AO2=
METAR KAIG 081435Z AUTO 33005KT 10SM SCT017 22/18 A3004 RMK AO2=
METAR KARV 081432Z AUTO 32006KT 10SM CLR 22/18 A3007 RMK AO2 
     T02220177=
METAR KBJI 081434Z AUTO 25005KT 10SM CLR 21/13 A3007 RMK AO2=
SPECI KBMI 081437Z 26006KT 10SM BKN009 BKN065 25/23 A3007 RMK AO2 $=
SPECI KBRL 081436Z AUTO 7SM SCT007 SCT011 24/22 A3007 RMK AO2=
METAR KBUU 081434Z AUTO 29007KT 10SM SCT014 SCT024 23/20 A3003 
     RMK AO2=
METAR KBWP 081431Z AUTO 28005KT 10SM CLR 21/16 A3011 RMK AO1 
     T02100161=
METAR KCLI 081435Z AUTO 02006KT 10SM SCT016 24/19 A3002 RMK AO2=
METAR KCMR 081435Z AUTO 15006KT 10SM SCT110 22/03 A3028 RMK AO1 =
METAR KD39 081434Z AUTO 27008KT 10SM CLR 23/18 A3012 RMK AO2 
     T02330177=
METAR KDVK 081437Z AUTO 16003KT 10SM 31/19 A3009 RMK AO1=
METAR KE80 081435Z AUTO 26003KT 10SM CLR 21/11 A3029 RMK AO2 
     T02110114=
METAR KEDC 081435Z AUTO 11006KT RA 24/24 A3001 RMK AO2 P0010 =
METAR KEIK 081435Z AUTO 00000KT 10SM OVC017 14/12 A3034 RMK AO2=
METAR KEOE 081435Z AUTO 35003KT 10SM CLR 32/20 A3003 RMK AO2=
METAR KFMH 081435Z AUTO 17009G14KT 10SM BKN015 OVC022 25/21 A3011 
     RMK AO2 =
SPECI KHQM 081436Z AUTO 23004KT 1/2SM FG 13/13 A2998 RMK AO2 $=
METAR KHVS 081435Z AUTO 00000KT 10SM CLR 33/20 A2998 RMK AO2=
METAR KIFP 081435Z AUTO 00000KT 10SM CLR 28/02 A2980 RMK AO2 =
METAR KLCK 081435Z AUTO 00000KT 10SM CLR 30/21 A3006 RMK AO2 
     T03030214=
METAR KMAN 081435Z AUTO 14003KT 10SM CLR 18/05 A3009 RMK AO1 =
METAR KMWO 081435Z AUTO 24006KT 7SM CLR 32/23 A3008 RMK AO2=
METAR KNQA 081435Z COR 28005KT 10SM FEW150 32/24 A3008 RMK=
SPECI KPSF 081436Z AUTO VRB06KT 6SM HZ BKN023 28/22 A3008 RMK AO2=
METAR KPVB 081433Z AUTO 32005KT 10SM BKN011 BKN018 23/21 A3007 
     RMK AO1 T02330209=
METAR KPVF 081435Z AUTO 08004KT 10SM CLR 23/12 A2994 RMK AO1 =
METAR KRBW 081435Z AUTO 33008KT 10SM CLR 31/22 A2997 RMK AO2=
SPECI KRKP 081436Z AUTO 08007KT 9SM -RA FEW018 BKN044 OVC060 A2987 
    RMK AO2 TSE07 P0007 FZRANO=
METAR KRZN 081434Z AUTO 28007KT 10SM CLR 23/16 A3009 RMK AO2 
     T02270155=
METAR KSRR 081435Z AUTO 15003KT 10SM OVC005 14/13 A3040 RMK AO2 =
SPECI KSWO 081436Z 02006KT 10SM OVC006 26/22 A3007 RMK AO2 CIG 
    005V010=
METAR KTME 081435Z AUTO 07006KT 9SM SCT022 BKN030 OVC050 25/25 
     A2999 RMK AO1 =
METAR KUOX 081435Z AUTO 00000KT 10SM CLR 29/20 A3010 RMK AO2 =
METAR KY51 081435Z AUTO 31006KT 10SM SCT013 22/19 A3009 RMK AO1 
     T02210190=
METAR PAAK 081436Z AUTO 07023G35KT 9SM SCT021 BKN037 OVC110 07/03 
    A2947 RMK AO1 PNO=
METAR PAHP 081436Z AUTO 34003KT 10SM CLR 09/06 A3003 RMK AO1 PNO 
    TSNO=
####018002747####
SAAK41 KNKA 081437
METAR PAAK 081436Z AUTO 07023G35KT 9SM SCT021 BKN037 OVC110 07/03 
    A2947 RMK AO1 PNO=
METAR PABL 081436Z AUTO 00000KT 8SM CLR 05/04 A3015 RMK AO1 PNO=
METAR PABV 081436Z AUTO 16003KT 10SM OVC100 12/08 RMK AO1 PNO=
METAR PADK 081436Z 05022G30KT 6SM FEW007 SCT017 BKN025 06/06 A2944 
    RMK AO1 PNO=
METAR PADL 081436Z 31006KT 10SM CLR 10/08 A2995 RMK AO1 PNO TSNO=
METAR PAEM 081436Z AUTO 35008KT 10SM OVC075 12/10 A2999 RMK AO1 PNO=
METAR PAFE 081436Z AUTO 00000KT 10SM CLR 13/12 A3017 RMK AO1 PNO=
METAR PAFM 081436Z AUTO 00000KT 10SM CLR 12/09 A3010 RMK AO1 PNO=
METAR PAGL 081436Z AUTO 10SM CLR 13/08 RMK AO1 PNO=
METAR PAGS 081436Z AUTO 00000KT 10SM CLR 11/11 A3018 RMK AO1 PNO=
METAR PAHP 081436Z AUTO 34003KT 10SM CLR 09/06 A3003 RMK AO1 PNO 
    TSNO=
METAR PAHY 081436Z AUTO 00000KT 10SM CLR 15/10 A3012 RMK AO1 PNO=
METAR PAII 081436Z AUTO 00000KT 10SM CLR 08/07 A2996 RMK AO1 PNO=
METAR PAIN 081436Z AUTO 00000KT 10SM CLR 06/06 A3006 RMK AO1 PNO=
METAR PAJC 081436Z AUTO 00000KT 10SM FEW010 OVC017 07/03 A2992 RMK 
    AO1 PNO=
SPECI PAKF 081435Z AUTO 10007KT 10SM BKN020 OVC040 08/06 A2987 RMK 
    AO2=
METAR PAKK 081436Z AUTO 01010G17KT 10SM CLR 12/06 A3004 RMK AO1 PNO=
METAR PAKP 081436Z AUTO 01005KT 10SM CLR 09/02 A3011 RMK AO1=
METAR PAMD 081436Z AUTO 09015KT 3SM OVC004 10/08 A3005 RMK AO1 PNO=
METAR PAMH 081436Z 00000KT 10SM CLR 13/07 A2998 RMK AO1 PNO=
METAR PAMM 081436Z AUTO 00000KT 10SM CLR 17/11 A3011 RMK AO1 PNO=
METAR PAMY 081436Z 28005KT 1/2SM OVC001 02/01 A3004 RMK AO1=
METAR PANI 081436Z AUTO 00000KT 1/2SM OVC002 07/06 A3000 RMK AO1 PNO=
METAR PANV 081436Z AUTO 11004KT 10SM CLR 12/09 A2998 RMK AO1 PNO=
METAR PAPG 081436Z 04004KT 10SM CLR 13/10 A3014 RMK AO1 
    WEA: HIR THN SCT (JNC) PNO=
METAR PAPH 081436Z AUTO 13003KT 1 1/2SM OVC003 05/03 A2993 RMK AO1 
    PNO=
METAR PAPO 081436Z AUTO 12009KT 10SM CLR 04/03 A3010 RMK AO1 PNO=
METAR PARC 081436Z AUTO 00000KT 10SM CLR 09/02 A3006 RMK AO1 PNO=
METAR PASA 081436Z AUTO 00000KT 5SM SCT001 04/02 A3017 RMK AO1 PNO=
METAR PASD 081436Z AUTO 00000KT 10SM SCT028 06/05 A2991 RMK AO1 PNO=
METAR PASH 081436Z AUTO 00000KT 10SM CLR 08/04 A3016 RMK AO1 PNO=
METAR PASK 081436Z 27010G14KT 10SM CLR 12/09 A3010 RMK AO1 PNO=
METAR PASL 081436Z AUTO 00000KT 10SM CLR 11/08 A3001 RMK AO1 PNO=
METAR PASM 081436Z AUTO 09004KT 10SM SCT065 OVC095 11/09 A3002 RMK 
    AO1 PNO=
METAR PAUN 081436Z AUTO 06011KT 10SM CLR 13/04 A3000 RMK AO1 PNO=
METAR PAWG 081436Z 31003KT 10SM CLR 13/10 A3014 RMK AO1 
    WEA:NONE  RJ PNO=
METAR PAWS 081436Z AUTO 00000KT 10SM CLR 11/08 A2999 RMK AO1 PNO=
METAR PAZK 081436Z AUTO 06006KT 10SM CLR 09/04 A3008 RMK AO1 PNO=
####018000219####
SPUS90 KWBC 081438 CCA
SPECI KCRP 081431Z COR 03013KT 2 1/2SM -TSRA BR FEW006 BKN020CB
     BKN040 26/25 A2988 RMK AO2 TSB31RAB1356 OCNL LTGICCC OHD-N TS
     OHD-N MOV NW CB E-SE MOV NW TCU DSNT NE S SW P0019=
####018000619####
SAUS90 KWBC 081438
METAR K2G4 081435Z AUTO 00000KT 10SM CLR 26/15 A3019 RMK AO1=
METAR K2W6 081435Z AUTO 08007KT 050V130 10SM CLR 28/21 A3003 RMK
     AO1=
METAR KCGS 081440Z AUTO 15003KT 7SM CLR 32/22 A3001 RMK AO1=
METAR KCGE 081433Z AUTO 13004KT 10SM BKN085 28/23 A3003 RMK
     AO1=
METAR KCBE 081436Z AUTO 15003KT 7SM CLR 30/20 A3009 RMK AO1=
METAR KDMW 081434Z AUTO 00000KT 10SM CLR 31/22 A3005 RMK AO2=
METAR KFDK 081436Z AUTO 00000KT 7SM CLR 36/22 A3004 RMK AO2=
METAR KFME 081436Z AUTO 09008KT 10SM CLR 28/22 A3004 RMK AO1=
METAR KW29 081436Z AUTO 17004KT 10SM CLR 28/22 A3001 RMK AO1=
####018000095####
SACN91 KWBC 081438
METAR CWIJ 081400Z AUTO 31004KT 12/08 RMK AO1 SLP137 T01170080
58004=
####018000243####
SACN88 KWBC 081438
METAR CWDA 081431Z AUTO 10011KT 11/10 RMK AO1 SLP176 T01130095
56020=
METAR CWDA 081400Z AUTO 10011KT 10/09 RMK AO1 SLP179 T01030091
56019=
METAR CWDA 081400Z AUTO 10011KT 10/09 RMK AO1 SLP179 T01030091
56019=
####018000086####
SANL33 EHDB 081425 RRC
METAR EHSA 081425Z AUTO 24007G07KT 9999 17/16 Q1019 W16/S2=
####018000524####
SPUS99 KWBC 081438
SPECI
PAKF 081435Z AUTO 10007KT 10SM BKN020 OVC040 08/06 A2987 RMK
     AO2=
KBMI 081437Z 26006KT 10SM BKN009 BKN065 25/23 A3007 RMK AO2 $=
KBRL 081436Z AUTO 7SM SCT007 SCT011 24/22 A3007 RMK AO2=
KHQM 081436Z AUTO 23004KT 1/2SM FG 13/13 A2998 RMK AO2 $=
KPSF 081436Z AUTO VRB06KT 6SM HZ BKN023 28/22 A3008 RMK AO2=
KRKP 081436Z AUTO 08007KT 9SM -RA FEW018 BKN044 OVC060 A2987 RMK
     AO2 TSE07 P0007 FZRANO=
KSWO 081436Z 02006KT 10SM OVC006 26/22 A3007 RMK AO2 CIG
     005V010=
####018000995####
SAUS99 KWBC 081438 RRA
METAR
KLCK 081435Z AUTO 00000KT 10SM CLR 30/21 A3006 RMK AO2
     T03030214=
KMAN 081435Z AUTO 14003KT 10SM CLR 18/05 A3009 RMK AO1=
KMWO 081435Z AUTO 24006KT 7SM CLR 32/23 A3008 RMK AO2=
KNQA 081435Z COR 28005KT 10SM FEW150 32/24 A3008 RMK=
KPVB 081433Z AUTO 32005KT 10SM BKN011 BKN018 23/21 A3007 RMK AO1
     T02330209=
KPVF 081435Z AUTO 08004KT 10SM CLR 23/12 A2994 RMK AO1=
KRBW 081435Z AUTO 33008KT 10SM CLR 31/22 A2997 RMK AO2=
KRZN 081434Z AUTO 28007KT 10SM CLR 23/16 A3009 RMK AO2
     T02270155=
KSRR 081435Z AUTO 15003KT 10SM OVC005 14/13 A3040 RMK AO2=
KTME 081435Z AUTO 07006KT 9SM SCT022 BKN030 OVC050 25/25 A2999 RMK
     AO1=
KUOX 081435Z AUTO 00000KT 10SM CLR 29/20 A3010 RMK AO2=
KY51 081435Z AUTO 31006KT 10SM SCT013 22/19 A3009 RMK AO1
     T02210190=
PAAK 081436Z AUTO 07023G35KT 9SM SCT021 BKN037 OVC110 07/03 A2947
     RMK AO1 PNO=
PAHP 081436Z AUTO 34003KT 10SM CLR 09/06 A3003 RMK AO1 PNO
     TSNO=
####018000641####
SACI31 ZBBB 081430
METAR ZBAA 081430Z 13004MPS CAVOK 28/17 Q1006 NOSIG=
ZBSJ NIL=
METAR ZBTJ 081430Z 10002MPS CAVOK 26/18 Q1006 NOSIG=
METAR ZBYN 081430Z 09007MPS CAVOK 25/14 Q1009 NOSIG=
METAR ZGGG 081430Z 15003MPS 9999 SCT030 31/26 Q1008 NOSIG=
METAR ZSHC 081430Z VRB01MPS 5000 -RA BR NSC 26/23 Q1005 NOSIG=
METAR ZSPD 081430Z 11005MPS 9999 SCT009 26/24 Q1005 NOSIG=
METAR ZSSS 081430Z 12004MPS 9999 BKN016 27/23 Q1005 NOSIG=
ZWSH NIL=
METAR ZWWW 081430Z 20004MPS 9999 FEW033CB 29/08 Q1011 NOSIG=
METAR ZYTL 081430Z 29002MPS 260V320 5000 BR NSC 23/20 Q1007 NOSIG=
METAR ZYTX 081430Z 09002MPS 040V180 CAVOK 19/18 Q1007 NOSIG=
####018000080####
SACN89 KWBC 081438
METAR CWAF 081400Z AUTO 07005KT 12/11 RMK AO1 T01150113=
####018000082####
SPAU32 YBBN 081436
SPECI YBMA 081436Z AUTO 00000KT 8000NDV // NCD 07/06 Q1020=
####018000086####
SANL33 EHDB 081425 RRB
METAR EHSC 081425Z AUTO VRB03G04KT 9999 19/16 Q1019 W///S2=
####018003694####
SAUS99 KWBC 081438
METAR
PAAK 081436Z AUTO 07023G35KT 9SM SCT021 BKN037 OVC110 07/03 A2947
     RMK AO1 PNO=
PABL 081436Z AUTO 00000KT 8SM CLR 05/04 A3015 RMK AO1 PNO=
PABV 081436Z AUTO 16003KT 10SM OVC100 12/08 RMK AO1 PNO=
PADK 081436Z 05022G30KT 6SM FEW007 SCT017 BKN025 06/06 A2944 RMK
     AO1 PNO=
PADL 081436Z 31006KT 10SM CLR 10/08 A2995 RMK AO1 PNO TSNO=
PAEM 081436Z AUTO 35008KT 10SM OVC075 12/10 A2999 RMK AO1 PNO=
PAFE 081436Z AUTO 00000KT 10SM CLR 13/12 A3017 RMK AO1 PNO=
PAFM 081436Z AUTO 00000KT 10SM CLR 12/09 A3010 RMK AO1 PNO=
PAGL 081436Z AUTO 10SM CLR 13/08 RMK AO1 PNO=
PAGS 081436Z AUTO 00000KT 10SM CLR 11/11 A3018 RMK AO1 PNO=
PAHP 081436Z AUTO 34003KT 10SM CLR 09/06 A3003 RMK AO1 PNO
     TSNO=
PAHY 081436Z AUTO 00000KT 10SM CLR 15/10 A3012 RMK AO1 PNO=
PAII 081436Z AUTO 00000KT 10SM CLR 08/07 A2996 RMK AO1 PNO=
PAIN 081436Z AUTO 00000KT 10SM CLR 06/06 A3006 RMK AO1 PNO=
PAJC 081436Z AUTO 00000KT 10SM FEW010 OVC017 07/03 A2992 RMK AO1
     PNO=
PAKK 081436Z AUTO 01010G17KT 10SM CLR 12/06 A3004 RMK AO1 PNO=
PAKP 081436Z AUTO 01005KT 10SM CLR 09/02 A3011 RMK AO1=
PAMD 081436Z AUTO 09015KT 3SM OVC004 10/08 A3005 RMK AO1 PNO=
PAMH 081436Z 00000KT 10SM CLR 13/07 A2998 RMK AO1 PNO=
PAMM 081436Z AUTO 00000KT 10SM CLR 17/11 A3011 RMK AO1 PNO=
PAMY 081436Z 28005KT 1/2SM OVC001 02/01 A3004 RMK AO1=
PANI 081436Z AUTO 00000KT 1/2SM OVC002 07/06 A3000 RMK AO1 PNO=
PANV 081436Z AUTO 11004KT 10SM CLR 12/09 A2998 RMK AO1 PNO=
PAPG 081436Z 04004KT 10SM CLR 13/10 A3014 RMK AO1 WEA: HIR THN SCT
     (JNC) PNO=
PAPH 081436Z AUTO 13003KT 1 1/2SM OVC003 05/03 A2993 RMK AO1
     PNO=
PAPO 081436Z AUTO 12009KT 10SM CLR 04/03 A3010 RMK AO1 PNO=
PARC 081436Z AUTO 00000KT 10SM CLR 09/02 A3006 RMK AO1 PNO=
PASA 081436Z AUTO 00000KT 5SM SCT001 04/02 A3017 RMK AO1 PNO=
PASD 081436Z AUTO 00000KT 10SM SCT028 06/05 A2991 RMK AO1 PNO=
PASH 081436Z AUTO 00000KT 10SM CLR 08/04 A3016 RMK AO1 PNO=
PASK 081436Z 27010G14KT 10SM CLR 12/09 A3010 RMK AO1 PNO=
PASL 081436Z AUTO 00000KT 10SM CLR 11/08 A3001 RMK AO1 PNO=
PASM 081436Z AUTO 09004KT 10SM SCT065 OVC095 11/09 A3002 RMK AO1
     PNO=
PAUN 081436Z AUTO 06011KT 10SM CLR 13/04 A3000 RMK AO1 PNO=
PAWG 081436Z 31003KT 10SM CLR 13/10 A3014 RMK AO1 WEA:NONE RJ
     PNO=
PAWS 081436Z AUTO 00000KT 10SM CLR 11/08 A2999 RMK AO1 PNO=
PAZK 081436Z AUTO 06006KT 10SM CLR 09/04 A3008 RMK AO1 PNO=
K1A6 081435Z AUTO 00000KT 5SM HZ CLR 29/24 A3010 RMK AO2=
K1P1 081435Z AUTO 08004KT 7SM BKN017 OVC022 28/23 A3007 RMK AO2
     T02820225=
K21D 081438Z AUTO 31005KT 10SM CLR 23/16 A3011 RMK AO2=
KAIG 081435Z AUTO 33005KT 10SM SCT017 22/18 A3004 RMK AO2=
KARV 081432Z AUTO 32006KT 10SM CLR 22/18 A3007 RMK AO2
     T02220177=
KBJI 081434Z AUTO 25005KT 10SM CLR 21/13 A3007 RMK AO2=
KBUU 081434Z AUTO 29007KT 10SM SCT014 SCT024 23/20 A3003 RMK
     AO2=
KBWP 081431Z AUTO 28005KT 10SM CLR 21/16 A3011 RMK AO1
     T02100161=
KCLI 081435Z AUTO 02006KT 10SM SCT016 24/19 A3002 RMK AO2=
KCMR 081435Z AUTO 15006KT 10SM SCT110 22/03 A3028 RMK AO1=
KD39 081434Z AUTO 27008KT 10SM CLR 23/18 A3012 RMK AO2
     T02330177=
KDVK 081437Z AUTO 16003KT 10SM 31/19 A3009 RMK AO1=
KE80 081435Z AUTO 26003KT 10SM CLR 21/11 A3029 RMK AO2
     T02110114=
KEDC 081435Z AUTO 11006KT RA 24/24 A3001 RMK AO2 P0010=
KEIK 081435Z AUTO 00000KT 10SM OVC017 14/12 A3034 RMK AO2=
KEOE 081435Z AUTO 35003KT 10SM CLR 32/20 A3003 RMK AO2=
KFMH 081435Z AUTO 17009G14KT 10SM BKN015 OVC022 25/21 A3011 RMK
     AO2=
KHVS 081435Z AUTO 00000KT 10SM CLR 33/20 A2998 RMK AO2=
KIFP 081435Z AUTO 00000KT 10SM CLR 28/02 A2980 RMK AO2=
####018000276####
SABY31 UMMN 081430
UMBB NIL=
METAR UMGG 081430Z 28005MPS 9999 BKN021CB BKN100 26/16 Q1014
R28/290550 NOSIG=
METAR UMMM 081430Z 25005G08MPS 5000 BR OVC013CB 17/14 Q1015
R30/CLRD// NOSIG RMK QFE742=
METAR UMMS 081430Z 28003MPS 9999 OVC013 18/15 Q1015
R31/CLRD// NOSIG=
####018000095####
SACN78 KWBC 081438
METAR CWKK 081400Z AUTO 22003KT 21/17 RMK AO1 SLP136 T02110170
58007=
####018000388####
SAPL31 EPWA 081430
METAR EPWA 081430Z 33008KT 270V020 CAVOK 24/12 Q1020 NOSIG=
METAR EPGD 081430Z 06009KT 030V090 CAVOK 23/12 Q1021=
METAR EPKK 081430Z VRB05KT CAVOK 24/07 Q1022=
METAR EPPO 081430Z VRB03KT CAVOK 26/06 Q1021=
METAR EPRZ 081430Z 33008KT 280V010 CAVOK 23/11 Q1021=
METAR EPBY 081430Z 31005KT 240V360 CAVOK 27/08 Q1020=
METAR EPZG 081430Z 21004KT CAVOK 28/07 Q1021=
####018000092####
SPUS80 KWBC 081438
SPECI
KRFD 081433Z 31010KT 10SM BKN017 BKN150 24/20 A3005 RMK AO2=
####018000223####
SAXX60 KWBC 081400 RRN
METAR
KNKX 081355Z 00000KT 7SM OVC011 16/14 A2992 RMK RAE02DZB02E52
     SLP125 P0000 T01610139=
KNKX 081355Z 00000KT 7SM OVC011 16/14 A2992 RMK RAE02DZB02E52
     SLP125 P0000 T01610139=
####018002777####
SAUS70 KWBC 081438 RRA
METAR
PASA 081436Z AUTO 00000KT 5SM SCT001 04/02 A3017 RMK AO1 PNO=
PASD 081436Z AUTO 00000KT 10SM SCT028 06/05 A2991 RMK AO1 PNO=
PASH 081436Z AUTO 00000KT 10SM CLR 08/04 A3016 RMK AO1 PNO=
PASK 081436Z 27010G14KT 10SM CLR 12/09 A3010 RMK AO1 PNO=
PASL 081436Z AUTO 00000KT 10SM CLR 11/08 A3001 RMK AO1 PNO=
PASM 081436Z AUTO 09004KT 10SM SCT065 OVC095 11/09 A3002 RMK AO1
     PNO=
PAUN 081436Z AUTO 06011KT 10SM CLR 13/04 A3000 RMK AO1 PNO=
PAWG 081436Z 31003KT 10SM CLR 13/10 A3014 RMK AO1 WEA:NONE RJ
     PNO=
PAWS 081436Z AUTO 00000KT 10SM CLR 11/08 A2999 RMK AO1 PNO=
PAZK 081436Z AUTO 06006KT 10SM CLR 09/04 A3008 RMK AO1 PNO=
K1A6 081435Z AUTO 00000KT 5SM HZ CLR 29/24 A3010 RMK AO2=
K1P1 081435Z AUTO 08004KT 7SM BKN017 OVC022 28/23 A3007 RMK AO2
     T02820225=
K21D 081438Z AUTO 31005KT 10SM CLR 23/16 A3011 RMK AO2=
KAIG 081435Z AUTO 33005KT 10SM SCT017 22/18 A3004 RMK AO2=
KARV 081432Z AUTO 32006KT 10SM CLR 22/18 A3007 RMK AO2
     T02220177=
KBJI 081434Z AUTO 25005KT 10SM CLR 21/13 A3007 RMK AO2=
KBUU 081434Z AUTO 29007KT 10SM SCT014 SCT024 23/20 A3003 RMK
     AO2=
KBWP 081431Z AUTO 28005KT 10SM CLR 21/16 A3011 RMK AO1
     T02100161=
KCMR 081435Z AUTO 15006KT 10SM SCT110 22/03 A3028 RMK AO1=
KD39 081434Z AUTO 27008KT 10SM CLR 23/18 A3012 RMK AO2
     T02330177=
KE80 081435Z AUTO 26003KT 10SM CLR 21/11 A3029 RMK AO2
     T02110114=
KEDC 081435Z AUTO 11006KT RA 24/24 A3001 RMK AO2 P0010=
KEIK 081435Z AUTO 00000KT 10SM OVC017 14/12 A3034 RMK AO2=
KEOE 081435Z AUTO 35003KT 10SM CLR 32/20 A3003 RMK AO2=
KFMH 081435Z AUTO 17009G14KT 10SM BKN015 OVC022 25/21 A3011 RMK
     AO2=
KHVS 081435Z AUTO 00000KT 10SM CLR 33/20 A2998 RMK AO2=
KIFP 081435Z AUTO 00000KT 10SM CLR 28/02 A2980 RMK AO2=
KLCK 081435Z AUTO 00000KT 10SM CLR 30/21 A3006 RMK AO2
     T03030214=
KMAN 081435Z AUTO 14003KT 10SM CLR 18/05 A3009 RMK AO1=
KMWO 081435Z AUTO 24006KT 7SM CLR 32/23 A3008 RMK AO2=
KNQA 081435Z COR 28005KT 10SM FEW150 32/24 A3008 RMK=
KPVB 081433Z AUTO 32005KT 10SM BKN011 BKN018 23/21 A3007 RMK AO1
     T02330209=
KPVF 081435Z AUTO 08004KT 10SM CLR 23/12 A2994 RMK AO1=
KRBW 081435Z AUTO 33008KT 10SM CLR 31/22 A2997 RMK AO2=
KRZN 081434Z AUTO 28007KT 10SM CLR 23/16 A3009 RMK AO2
     T02270155=
KSRR 081435Z AUTO 15003KT 10SM OVC005 14/13 A3040 RMK AO2=
KTME 081435Z AUTO 07006KT 9SM SCT022 BKN030 OVC050 25/25 A2999 RMK
     AO1=
KUOX 081435Z AUTO 00000KT 10SM CLR 29/20 A3010 RMK AO2=
KY51 081435Z AUTO 31006KT 10SM SCT013 22/19 A3009 RMK AO1
     T02210190=
PAAK 081436Z AUTO 07023G35KT 9SM SCT021 BKN037 OVC110 07/03 A2947
     RMK AO1 PNO=
PAHP 081436Z AUTO 34003KT 10SM CLR 09/06 A3003 RMK AO1 PNO
     TSNO=
####018000101####
SPAU32 YBBN 081437
SPECI YPPD 081437Z AUTO 05002KT 9999NDV // SCT030 SCT039 BKN047 22/21
Q1010=
####018000327####
SAPL32 EPWA 081430
METAR EPKT 081430Z 36006KT CAVOK 23/08 Q1022=
METAR EPLL 081430Z 33006KT 280V020 CAVOK 24/06 Q1021=
METAR EPSC 081430Z 00000KT CAVOK 27/10 Q1021=
METAR EPWR 081430Z 25004KT 170V340 CAVOK 26/09 Q1022=
METAR EPBY 081430Z 31005KT 240V360 CAVOK 27/08 Q1020=
METAR EPZG 081430Z 21004KT CAVOK 28/07 Q1021=
####018001349####
SPUS70 KWBC 081438
SPECI
PAIL 081434Z 00000KT 3/4SM -RA BR OVC001 08/08 A2996 RMK AO2
     P0001=
KDMO 081435Z AUTO 01003KT 10SM FEW007 SCT014 OVC019 26/22 A3009
     RMK AO2=
KLRD 081434Z 03011KT 9SM FEW012 BKN018 BKN027 28/25 A2992 RMK AO2
     $=
KMCI 081435Z 03006KT 7SM FEW007 BKN012 BKN018 26/23 A3011 RMK
     AO2=
KRUE 081435Z AUTO 00000KT 10SM BKN012 BKN017 BKN043 28/24 A3009
     RMK AO2=
KWLD 081435Z AUTO 04009KT 10SM SCT010 25/22 A3012 RMK AO2=
KBAF 081435Z 19004KT 6SM HZ OVC011 26/22 A3007 RMK AO2 RAB13E24
     P0000=
KDTO 081436Z 16005KT 8SM -RA SCT014 SCT021 BKN030 26/24 A3006 RMK
     AO2 RAB36 P0000=
KFLD 081435Z AUTO 30007KT 10SM BKN019 25/20 A3002 RMK AO2=
KLAR 081435Z AUTO 17003KT 10SM SCT006 BKN017 10/09 A3042 RMK
     AO2=
KLNR 081435Z AUTO 30005KT 10SM SCT013 SCT018 24/20 A3006 RMK
     AO2=
KOVS 081435Z AUTO 00000KT 10SM BKN016 25/20 A3006 RMK AO2=
KBMI 081437Z 26006KT 10SM BKN009 BKN065 25/23 A3007 RMK AO2 $=
KBRL 081436Z AUTO 7SM SCT007 SCT011 24/22 A3007 RMK AO2=
KHQM 081436Z AUTO 23004KT 1/2SM FG 13/13 A2998 RMK AO2 $=
KPSF 081436Z AUTO VRB06KT 6SM HZ BKN023 28/22 A3008 RMK AO2=
KRKP 081436Z AUTO 08007KT 9SM -RA FEW018 BKN044 OVC060 A2987 RMK
     AO2 TSE07 P0007 FZRANO=
KSWO 081436Z 02006KT 10SM OVC006 26/22 A3007 RMK AO2 CIG
     005V010=
####018000396####
SAUS80 KWBC 081438
METAR
K4BM 081434Z AUTO 00000KT 10SM 07/05 A3064 RMK AO2=
KSMS 081435Z AUTO 32005KT 10SM CLR 31/22 A2998 RMK AO2=
KCBE 081436Z AUTO 15003KT 7SM CLR 30/20 A3009 RMK AO1=
PADK 081436Z 05022G30KT 6SM FEW007 SCT017 BKN025 06/06 A2944 RMK
     AO1 PNO=
KCLI 081435Z AUTO 02006KT 10SM SCT016 24/19 A3002 RMK AO2=
KDVK 081437Z AUTO 16003KT 10SM 31/19 A3009 RMK AO1=
####018000221####
SPUS80 KWBC 081438 CCA
SPECI
KCRP 081431Z COR 03013KT 2 1/2SM -TSRA BR FEW006 BKN020CB BKN040
     26/25 A2988 RMK AO2 TSB31RAB1356 OCNL LTGICCC OHD-N TS OHD-N
     MOV NW CB E-SE MOV NW TCU DSNT NE S SW P0019=
####018003692####
SAUS70 KWBC 081438
METAR
K04W 081434Z AUTO 29006KT 10SM CLR 24/16 A3008 RMK AO2
     T02370163=
K0A9 081435Z AUTO VRB04KT 10SM CLR 29/19 A3011 RMK=
K20V 081436Z AUTO 24003KT 10SM BKN011 10/06 A3045 RMK AO2=
K5SM 081433Z AUTO 00000KT 10SM SCT110 12/03 A3059 RMK AO2=
K7BM 081436Z AUTO 00000KT 7SM OVC002 10/08 A3054 RMK AO2=
KAEG 081435Z AUTO 13014KT 10SM CLR 19/08 A3032 RMK AO1=
KBBP 081435Z AUTO 05006KT 10SM CLR 33/20 A2996 RMK AO2=
KBDU 081437Z AUTO 01004KT 10SM OVC039 17/13 A3035 RMK AO2=
KBKN 081435Z AUTO 02009KT 10SM CLR 25/22 A3008 RMK AO2=
KC29 081435Z AUTO 31006KT 10SM OVC012 25/20 A3005 RMK AO2
     T02480204=
KCCU 081436Z AUTO 26006KT 10SM CLR 11/02 A3066 RMK AO2=
KCIC 081435Z AUTO 16006KT 10SM CLR 20/12 A2985 RMK AO1=
KGGE 081435Z AUTO 32007KT 10SM CLR 31/22 A2993 RMK AO2=
KHYI 081435Z AUTO 08007KT 5SM FEW018 SCT031 BKN046 25/23 A2998 RMK
     AO1 P0009=
KILE 081435Z 07008KT 8SM SCT012 BKN026 OVC060 25/22 A3001 RMK
     AO1=
KLUX 081435Z AUTO 04003KT 10SM CLR 30/23 A3003 RMK AO2=
KMAO 081435Z AUTO 04006KT 7SM CLR 31/21 A2995 RMK AO2=
KMYP 081336Z AUTO 20006KT 10SM CLR 06/03 A3076 RMK AO2=
KOCH 081435Z AUTO 12009KT 10SM OVC011 27/21 A3004 RMK AO1=
KPRX 081435Z 17006KT 10SM SCT013 BKN060 OVC065 27/24 A3006 RMK
     AO1=
KPWG 081435Z AUTO 09007KT 10SM SCT012 BKN029 OVC055 27/23 A3004
     RMK AO1=
KRCE 081435Z AUTO 01004KT 10SM BKN011 25/23 A3010 RMK AO2=
KTPL 081435Z 09010KT 8SM SCT010 BKN016 OVC055 26/24 A3002 RMK
     AO1=
KVTP 081440Z AUTO 00000KT 10SM CLR 11/05 A3056 RMK AO2=
KWYS 081430Z AUTO 35003KT 10SM CLR 09/02 A3038 RMK AO2=
KX40 081435Z AUTO 00000KT 10SM CLR 29/21 A3002 RMK AO2
     T02910207=
K2G4 081435Z AUTO 00000KT 10SM CLR 26/15 A3019 RMK AO1=
K2W6 081435Z AUTO 08007KT 050V130 10SM CLR 28/21 A3003 RMK AO1=
KCGS 081440Z AUTO 15003KT 7SM CLR 32/22 A3001 RMK AO1=
KFDK 081436Z AUTO 00000KT 7SM CLR 36/22 A3004 RMK AO2=
KW29 081436Z AUTO 17004KT 10SM CLR 28/22 A3001 RMK AO1=
PAAK 081436Z AUTO 07023G35KT 9SM SCT021 BKN037 OVC110 07/03 A2947
     RMK AO1 PNO=
PABL 081436Z AUTO 00000KT 8SM CLR 05/04 A3015 RMK AO1 PNO=
PABV 081436Z AUTO 16003KT 10SM OVC100 12/08 RMK AO1 PNO=
PADL 081436Z 31006KT 10SM CLR 10/08 A2995 RMK AO1 PNO TSNO=
PAEM 081436Z AUTO 35008KT 10SM OVC075 12/10 A2999 RMK AO1 PNO=
PAFE 081436Z AUTO 00000KT 10SM CLR 13/12 A3017 RMK AO1 PNO=
PAFM 081436Z AUTO 00000KT 10SM CLR 12/09 A3010 RMK AO1 PNO=
PAGL 081436Z AUTO 10SM CLR 13/08 RMK AO1 PNO=
PAGS 081436Z AUTO 00000KT 10SM CLR 11/11 A3018 RMK AO1 PNO=
PAHP 081436Z AUTO 34003KT 10SM CLR 09/06 A3003 RMK AO1 PNO
     TSNO=
PAHY 081436Z AUTO 00000KT 10SM CLR 15/10 A3012 RMK AO1 PNO=
PAII 081436Z AUTO 00000KT 10SM CLR 08/07 A2996 RMK AO1 PNO=
PAIN 081436Z AUTO 00000KT 10SM CLR 06/06 A3006 RMK AO1 PNO=
PAJC 081436Z AUTO 00000KT 10SM FEW010 OVC017 07/03 A2992 RMK AO1
     PNO=
PAKK 081436Z AUTO 01010G17KT 10SM CLR 12/06 A3004 RMK AO1 PNO=
PAKP 081436Z AUTO 01005KT 10SM CLR 09/02 A3011 RMK AO1=
PAMD 081436Z AUTO 09015KT 3SM OVC004 10/08 A3005 RMK AO1 PNO=
PAMH 081436Z 00000KT 10SM CLR 13/07 A2998 RMK AO1 PNO=
PAMM 081436Z AUTO 00000KT 10SM CLR 17/11 A3011 RMK AO1 PNO=
PAMY 081436Z 28005KT 1/2SM OVC001 02/01 A3004 RMK AO1=
PANI 081436Z AUTO 00000KT 1/2SM OVC002 07/06 A3000 RMK AO1 PNO=
PANV 081436Z AUTO 11004KT 10SM CLR 12/09 A2998 RMK AO1 PNO=
PAPG 081436Z 04004KT 10SM CLR 13/10 A3014 RMK AO1 WEA: HIR THN SCT
     (JNC) PNO=
PAPH 081436Z AUTO 13003KT 1 1/2SM OVC003 05/03 A2993 RMK AO1
     PNO=
PAPO 081436Z AUTO 12009KT 10SM CLR 04/03 A3010 RMK AO1 PNO=
PARC 081436Z AUTO 00000KT 10SM CLR 09/02 A3006 RMK AO1 PNO=
####018000098####
SAKY31 RUMS 081430 RRA
METAR UAFO 081430Z 03002MPS 9999 FEW050 29/15 Q1018 NOSIG RMK
QFEM685=
####018000341####
SAAL31 KWBC 081400 RRD
METAR
DAAG 081430Z 04017KT CAVOK 33/16 Q1018=
DAAT 081430Z 11011KT 070V160 CAVOK 34/02 Q1021=
DABB 081430Z 02015KT CAVOK 27/21 Q1019=
DABC 081430Z 36012KT CAVOK 34/08 Q1022=
DAON 081430Z 02010KT 9999 FEW026 39/19 Q1015=
DAOO 081430Z 36010KT CAVOK 33/22 Q1015=
DAUH 081430Z 06010KT CAVOK 40/21 Q1016=
####018000053####
SAAS31 KWBC 081430 RRA
METAR
VTBS 081430Z NIL=
####018000366####
SAAS33 KWBC 081430 RRA
METAR
VDPP 081430Z NIL=
VDSR 081430Z NIL=
VLVT 081430Z NIL=
VTBD 081430Z NIL=
VTBU 081430Z NIL=
VTCC 081430Z 02009KT 9999 FEW025CB SCT040 30/21 Q1010 A2982 CB
     SE=
VTSP 081430Z 30007KT 7000 RA FEW020 BKN300 28/24 Q1011 A2988
     NOSIG=
VTSS 081430Z NIL=
VVDN 081430Z NIL=
VVNB 081430Z NIL=
VVTS 081430Z NIL=
####018000088####
SAAS31 KWBC 081330 RRD
METAR
VOTR 081340Z VRB03KT 8000 FEW020 BKN250 32/24 Q1008=
####018000757####
SAAW34 KWBC 081415 RRD
METAR
UAAA 081430Z 14002MPS 9999 SCT050CB BKN100 24/14 Q1013 88CLRD65
     TEMPO TS=
UACC 081430Z 01008MPS 8000 FEW193 20/04 Q1009 040/0070 NOSIG RMK
     QFE725/0967=
UAKK 081430Z 16003MPS 9999 SCT050CB BKN/// 18/09 Q1008 230///70
     NOSIG RMK QFE709/0946=
UAOO 081430Z NIL=
UARR 081430Z NIL=
UATE 081430Z 01006G11MPS CAVOK 38/07 Q1009 300///70 NOSIG RMK
     QFE755/1007=
UATG 081430Z 34006G10MPS CAVOK 39/08 Q1008 32CLRD70 NOSIG RMK
     QFE758/1011=
UATT 081430Z 03006MPS 9999 NSC 32/01 Q1011 13CLRD70 NOSIG RMK
     QFE738/0985=
UAUU 081430Z 36008MPS CAVOK 24/M03 Q1012 33CLRD70 NOSIG RMK
     QFE744/0991=
UTDD 081430Z 04002MPS 9999 SKC 31/12 Q1008 09CLRD70 NOSIG RMK
     QFE689/0918=
####018000098####
SAAW31 KWBC 081400 RRC
METAR
LTBA 081420Z 34018KT 9999 BKN035 22/16 Q1012 TEMPO 4000 -TSRA=
####018000090####
SPUS31 KWBC 081438
SPECI
KMCI 081435Z 03006KT 7SM FEW007 BKN012 BKN018 26/23 A3011=
####018000524####
SACI32 KWBC 081400 RRC
METAR
ZBAA 081430Z 13004MPS CAVOK 28/17 Q1006 NOSIG=
ZBTJ 081430Z 10002MPS CAVOK 26/18 Q1006 NOSIG=
ZBYN 081430Z 09007MPS CAVOK 25/14 Q1009 NOSIG=
ZGGG 081430Z 15003MPS 9999 SCT030 31/26 Q1008 NOSIG=
ZSHC 081430Z VRB01MPS 5000 -RA BR NSC 26/23 Q1005 NOSIG=
ZSPD 081430Z 11005MPS 9999 SCT009 26/24 Q1005 NOSIG=
ZSSS 081430Z 12004MPS 9999 BKN016 27/23 Q1005 NOSIG=
ZWWW 081430Z 20004MPS 9999 FEW033CB 29/08 Q1011 NOSIG=
ZYTL 081430Z 29002MPS 260V320 5000 BR NSC 23/20 Q1007 NOSIG=
####018000079####
SPUS41 KWBC 081438
SPECI
KBAF 081435Z 19004KT 6SM HZ OVC011 26/22 A3007=
####018000193####
SAEM31 KWBC 081430 RRA
METAR
LJLJ 081430Z 13003KT 060V190 9999 FEW043 25/12 Q1021 NOSIG=
LJMB 081430Z 19004KT 170V330 9999 FEW040 26/08 Q1021=
LJPZ 081430Z 31008KT CAVOK 26/07 Q1021=
####018000151####
SAEW31 KWBC 081430 RRA
METAR
LPAZ 081430Z 24006KT 9999 SCT016 BKN028 22/20 Q1025=
LPPD 081430Z 19005KT 130V210 9999 FEW016 BKN030 21/17 Q1024=
####018000257####
SAEE31 KWBC 081430 RRA
METAR
UKKK 081430Z 30002MPS 280V340 CAVOK 26/17 Q1015 26CLRD70 NOSIG=
UMMM 081430Z 25005G08MPS 5000 BR OVC013CB 17/14 Q1015 R30/CLRD//
     NOSIG RMK QFE742=
UMMS 081430Z 28003MPS 9999 OVC013 18/15 Q1015 R31/CLRD// NOSIG=
####018000073####
SAIO31 KWBC 081400 RRE
METAR
VYMD 081430Z NIL=
VYYY 081430Z NIL=
####018000234####
SAJP31 KWBC 081430 RRA
METAR
RJAA 081430Z 14003KT 9999 FEW010 FEW020CB BKN160 22/22 Q1011
     NOSIG=
RJCC 081430Z 19003KT 1200 R01R/0600N BR BKN002 17/17 Q1011=
RJTT 081430Z 19012KT 9999 FEW004 SCT012 BKN050 25/22 Q1010=
####018000115####
SPUS42 KWBC 081438 CCA
SPECI
KCRP 081431Z COR 03013KT 2 1/2SM -TSRA BR FEW006 BKN020CB BKN040
26/25 A2988=
####018000273####
SAPO31 KWBC 081400 RRC
METAR
LPAZ 081430Z 24006KT 9999 SCT016 BKN028 22/20 Q1025=
LPFL 081430Z 19006KT 130V250 9999 FEW021TCU SCT040 24/17 Q1021=
LPHR 081430Z 21007KT 170V230 9999 FEW015 23/19 Q1023=
LPPD 081430Z 19005KT 130V210 9999 FEW016 BKN030 21/17 Q1024=
####018000053####
SARS31 KWBC 081400 RRC
METAR
UTAM 081430Z NIL=
####018001197####
SARA31 KWBC 081400 RRK
METAR
UAAA 081430Z 14002MPS 9999 SCT050CB BKN100 24/14 Q1013 88CLRD65
     TEMPO TS=
UACC 081430Z 01008MPS 8000 FEW193 20/04 Q1009 040/0070 NOSIG RMK
     QFE725/0967=
UAFM 081430Z 24005MPS CAVOK 29/08 Q1012 NOSIG=
UAFO 081430Z NIL=
UAOO 081430Z NIL=
UARR 081430Z NIL=
UATE 081430Z 01006G11MPS CAVOK 38/07 Q1009 300///70 NOSIG RMK
     QFE755/1007=
UATG 081430Z 34006G10MPS CAVOK 39/08 Q1008 32CLRD70 NOSIG RMK
     QFE758/1011=
UATT 081430Z 03006MPS 9999 NSC 32/01 Q1011 13CLRD70 NOSIG RMK
     QFE738/0985=
UBBG 081430Z 08014KT 9999 FEW083 35/15 Q1009 NOSIG RMK
     R12L/CLRD70=
UMGG 081430Z 28005MPS 9999 BKN021CB BKN100 26/16 Q1014 R28/290550
     NOSIG=
UMMM 081430Z 25005G08MPS 5000 BR OVC013CB 17/14 Q1015 R30/CLRD//
     NOSIG RMK QFE742=
UMMS 081430Z 28003MPS 9999 OVC013 18/15 Q1015 R31/CLRD// NOSIG=
UTAA 081430Z 12003MPS 9999 SKC 42/04 Q1007 NOSIG=
UTAK 081430Z NIL=
UTAT 081430Z 09006MPS CAVOK 41/18 Q1006 NOSIG=
UTAV 081430Z NIL=
UTDD 081430Z 04002MPS 9999 SKC 31/12 Q1008 09CLRD70 NOSIG RMK
     QFE689/0918=
UTDL 081430Z 23004MPS 9999 FEW053CB FEW100 33/13 Q1008 NOSIG RMK
     QFE719 8809//70=
####018000090####
SPUS42 KWBC 081438
SPECI
KLRD 081434Z 03011KT 9SM FEW012 BKN018 BKN027 28/25 A2992=
####018000598####
SAUR31 KWBC 081350 RRB
METAR
UKCW 081430Z 03002MPS 310V110 9999 BKN040 30/16 Q1014 2709//70
     NOSIG=
UKKK 081430Z 30002MPS 280V340 CAVOK 26/17 Q1015 26CLRD70 NOSIG=
UKLI 081430Z 28002MPS 250V330 9999 FEW021CB BKN030 18/15 Q1020
     28290565 NOSIG=
UKLN 081430Z 28004MPS 230V310 9999 BKN017CB OVC100 16/14 Q1020
     3319//65 NOSIG=
UKLR 081430Z 30005MPS 250V330 9999 SCT030 BKN100 22/15 Q1019
     30090070 NOSIG=
UKLU 081430Z 03002MPS 9999 SCT040 BKN200 23/11 Q1020 10090070
     NOSIG=
UKON 081430Z 12005MPS 9999 SCT033CB OVC200 28/17 Q1013 05090075
     NOSIG=
####018000459####
SAXX99 KWBC 081400 RRX
METAR
KCBE 081436Z AUTO 15003KT 7SM CLR 30/20 A3009 RMK AO1=
KFME 081436Z AUTO 09008KT 10SM CLR 28/22 A3004 RMK AO1=
LQBK 081430Z 27004KT 9999 SCT043 24/11 Q1021 NOSIG=
RJBB 081430Z 21006KT 9999 FEW008 BKN/// 26/23 Q1009 NOSIG=
RJGG 081430Z 13005KT 9999 FEW015 SCT020 BKN/// 25/23 Q1010
     NOSIG=
UDYZ 081430Z 05007MPS 9999 FEW100 36/15 Q1007 09010070 NOSIG=
ZYTX 081430Z 09002MPS 040V180 CAVOK 19/18 Q1007 NOSIG=
####018000206####
SPAU31 AMMC 081438
SPECI YPPH 081434Z 30019G30KT 2500 SHRA FEW009 BKN026 BKN048 13/13 Q0996
     FM1435 31014G25KT 9999 -SHRA BKN020
     INTER 1435/1735 29030G50KT 2000 TSGS BKN010 FEW030CB=


####018000200####
SPAU31 AMMC 081438
SPECI YPPH 081434Z 30019G30KT 2500 SHRA FEW009 BKN026 BKN048 13/13 Q0996
     FM1435 31014G25KT 9999 -SHRA BKN020
     INTER 1435/1735 29030G50KT 2000 TSGS BKN010 FEW030CB=
####018000115####
SPUS72 KWBC 081438 CCA
SPECI
KCRP 081431Z COR 03013KT 2 1/2SM -TSRA BR FEW006 BKN020CB BKN040
26/25 A2988=
####018000090####
SPUS72 KWBC 081438
SPECI
KLRD 081434Z 03011KT 9SM FEW012 BKN018 BKN027 28/25 A2992=
####018000100####
SAKY31 RUMS 081430 RRA
METAR UAFO 081430Z 03002MPS 9999 FEW050 29/15 Q1018 NOSIG RMK
QFEM685=
####018000089####
SPUS73 KWBC 081438
SPECI
KLAR 081435Z AUTO 17003KT 10SM SCT006 BKN017 10/09 A3042=
####018000090####
SPUS73 KWBC 081438
SPECI
KMCI 081435Z 03006KT 7SM FEW007 BKN012 BKN018 26/23 A3011=
####018000085####
SPUS75 KWBC 081438
SPECI
PAIL 081434Z 00000KT 3/4SM -RA BR OVC001 08/08 A2996=
####018000115####
SPUS81 KWBC 081438 CCA
SPECI
KCRP 081431Z COR 03013KT 2 1/2SM -TSRA BR FEW006 BKN020CB BKN040
26/25 A2988=
####018000102####
SPAU32 YBBN 081437
SPECI YPPD 081437Z AUTO 05002KT 9999NDV // SCT030 SCT039 BKN047 22/21
Q1010=
####018000445####
SAAL40 DAMM 081430
METAR DAAG 081430Z 04017KT CAVOK 33/16 Q1018=
METAR DAAT 081430Z 11011KT 070V160 CAVOK 34/02 Q1021=
METAR DABB 081430Z 02015KT CAVOK 27/21 Q1019=
METAR DABC 081430Z 36012KT CAVOK 34/08 Q1022=
METAR DABS 081430Z 34012KT CAVOK 35/06 Q1022=
METAR DAON 081430Z 02010KT 9999 FEW026 39/19 Q1015=
METAR DAOO 081430Z 36010KT CAVOK 33/22 Q1015=
METAR DAUH 081430Z 06010KT CAVOK 40/21 Q1016=
METAR DAUZ 081430Z NIL=
####018000395####
SAPL31 EPWA 081430
METAR EPWA 081430Z 33008KT 270V020 CAVOK 24/12 Q1020 NOSIG=
METAR EPGD 081430Z 06009KT 030V090 CAVOK 23/12 Q1021=
METAR EPKK 081430Z VRB05KT CAVOK 24/07 Q1022=
METAR EPPO 081430Z VRB03KT CAVOK 26/06 Q1021=
METAR EPRZ 081430Z 33008KT 280V010 CAVOK 23/11 Q1021=
METAR EPBY 081430Z 31005KT 240V360 CAVOK 27/08 Q1020=
METAR EPZG 081430Z 21004KT CAVOK 28/07 Q1021=
####018000333####
SAPL32 EPWA 081430
METAR EPKT 081430Z 36006KT CAVOK 23/08 Q1022=
METAR EPLL 081430Z 33006KT 280V020 CAVOK 24/06 Q1021=
METAR EPSC 081430Z 00000KT CAVOK 27/10 Q1021=
METAR EPWR 081430Z 25004KT 170V340 CAVOK 26/09 Q1022=
METAR EPBY 081430Z 31005KT 240V360 CAVOK 27/08 Q1020=
METAR EPZG 081430Z 21004KT CAVOK 28/07 Q1021=
####018000092####
SAAE31 VTBB 081430 RRA
METAR VTSS 081430Z 00000KT 9999 FEW020 BKN300 26/23 Q1011 A2987=
####018000080####
SACN88 CWAO 081431
WNS SA 1431 AUTO8 M M M 193/29/18/MMMM/M/M 8008 62MM=

####018000829####
SAXN17 KAWN 081400 RRJ
METAR RCKH 081430Z 28005KT 9999 FEW013 BKN300 29/26 Q1010 NOSIG=
METAR RCTP 081430Z 18006KT 150V210 9999 FEW025 29/24 Q1008 NOSIG=
METAR RJAA 081430Z 14003KT 9999 FEW010 FEW020CB BKN160 22/22 Q1011
      NOSIG RMK 1ST010 1CB020 7AC160 A2986 CB 90KM S MOV NE=
METAR RJCC 081430Z 19003KT 1200 R01R/0600N BR BKN002 17/17 Q1011 RMK
      7ST002 A2986=
METAR RJFF 081430Z 15003KT 090V200 7000 FEW020 BKN/// 25/21 Q1008 RMK
      1CU020 A2977=
METAR RJTT 081430Z 19012KT 9999 FEW004 SCT012 BKN050 25/22 Q1010 RMK
      1ST004 3CU012 5SC050 A2984=
METAR ROAH 081430Z 19015KT 9999 FEW008 SCT010 BKN180 29/26 Q1010 RMK
      2ST008 3CU010 6AC180 A2985=
METAR VHHH 081430Z 21009KT 140V240 9999 FEW020 SCT030 31/25 Q1009 NOSIG=
METAR ZGGG 081430Z 15003MPS 9999 SCT030 31/26 Q1008 NOSIG=
####018000084####
SAGL KAWN 081400 RRC
METAR BIKF 081430Z 03021KT 9999 SCT024 BKN100 13/06 Q0995=
####018002759####
SAUS20 KNKA 081438
METAR K14Y 081439Z AUTO 26008KT 10SM CLR 22/15 A3012 RMK AO2 
     T02230153=
METAR K2G4 081435Z AUTO 00000KT 10SM CLR 26/15 A3019 RMK AO1=
METAR K2W6 081435Z AUTO 08007KT 050V130 10SM CLR 28/21 A3003 RMK
     AO1=
SPECI KBIV 081437Z AUTO 18005KT 3/4SM +RA BR OVC001 24/22 A3004 RMK 
    AO2 P0037=
METAR KCBE 081436Z AUTO 15003KT 7SM CLR 30/20 A3009 RMK AO1=
METAR KCGE 081433Z AUTO 13004KT 10SM BKN085 28/23 A3003 RMK
     AO1=
METAR KCGS 081440Z AUTO 15003KT 7SM CLR 32/22 A3001 RMK AO1=
METAR KCMY 081435Z AUTO 30005KT 10SM SCT019 23/18 A3007 RMK AO2 
     T02340178=
SPECI KCRP 081431Z COR 03013KT 2 1/2SM -TSRA BR FEW006 BKN020CB
     BKN040 26/25 A2988 RMK AO2 TSB31RAB1356 OCNL LTGICCC OHD-N TS
     OHD-N MOV NW CB E-SE MOV NW TCU DSNT NE S SW P0019=
METAR KDLL 081435Z AUTO 32006KT 10SM BKN011 23/20 A3005 RMK AO2 
     T02290196=
METAR KFDK 081436Z AUTO 00000KT 7SM CLR 36/22 A3004 RMK AO2=
METAR KDMW 081434Z AUTO 00000KT 10SM CLR 31/22 A3005 RMK AO2=
METAR KEFT 081435Z AUTO 34004KT 10SM BKN008 25/21 A3005 RMK AO2 
     T02460205=
METAR KEGV 081432Z AUTO 00000KT 10SM CLR 21/17 A3006 RMK AO2 
     T02140174=
METAR KETB 081432Z AUTO 29006KT 10SM BKN016 BKN021 25/20 A3002 
     RMK AO2 P0001 T02450196=
METAR KEZS 081435Z AUTO 02004KT 10SM SCT016 25/21 A3002 RMK AO2 
     T02490206=
METAR KFME 081436Z AUTO 09008KT 10SM CLR 28/22 A3004 RMK AO1=
SPECI KFST 081437Z AUTO 36005KT 9SM BKN006 OVC013 22/21 A3012 RMK 
    AO2 RAE27 CIG 004V009 P0000=
SPECI KFTG 081430Z 04004KT 5SM BR BKN006 BKN011 OVC020 17/14 A3035=
METAR KGLW 081433Z AUTO 00000KT 10SM CLR 31/20 A3008 RMK AO2 
     T03120202=
METAR KHFJ 081435Z AUTO 00000KT 5SM SCT021 BKN037 OVC060 23/22 
     A3007 RMK AO1=
SPECI KIXD 081437Z 03004KT 8SM BKN008 OVC013 24/21 A3012 RMK AO2 CIG 
    008V011=
METAR KLUM 081435Z AUTO 33006KT 10SM CLR 22/16 A3009 RMK AO2=
METAR KMDZ 081435Z AUTO 01006KT 10SM CLR 22/18 A3007 RMK AO2=
METAR KMRJ 081435Z AUTO 35006KT 10SM OVC013 25/20 A3007 RMK AO2 
     T02480202=
METAR KOEO 081435Z AUTO 30003KT 10SM CLR 22/17 A3012 RMK AO2=
METAR KPBH 081435Z AUTO 30003KT 10SM CLR 22/17 A3009 RMK AO2=
METAR KPCZ 081435Z AUTO 29004KT 10SM BKN013 25/21 A3002 RMK AO2 
     T02530207=
METAR KPDC 081433Z AUTO 33007KT 10SM SCT012 25/21 A3006 RMK AO2 
     T02450208=
SPECI KSTJ 081437Z 03007KT 10SM BKN015 OVC021 23/20 A3012 RMK AO2=
METAR KUNI 081435Z AUTO 00000KT 10SM CLR 32/15 A3007 RMK AO2 
     T03170147=
METAR KVES 081434Z AUTO 19003KT 10SM CLR 30/21 A3007 RMK AO2 
     T02950214=
METAR KW29 081436Z AUTO 17004KT 10SM CLR 28/22 A3001 RMK AO1=
METAR KY63 081440Z AUTO 32005KT 7SM CLR 21/16 A3012 RMK AO2 
     T02060164=
####018000101####
SAAK41 KNKA 081438
SPECI PALG 081434Z AUTO 00000KT 10SM SCT003 06/05 A2999 RMK AO2 TSNO 
    =
####018000090####
SAUS43 KMKX 081438
MTRMSN
SPECI KMSN 081437Z VRB05KT 9SM SCT014 25/21 A3004 RMK AO2
####018000108####
SAUS44 KSHV 081438
MTRSHV
SPECI KSHV 081438Z 12005KT 10SM BKN013 BKN100 BKN280 28/24 A3006 RMK 
AO2
####018000136####
SAUS44 KEWX 081438
MTRATT
SPECI KATT 081437Z AUTO VRB04KT 4SM -RA BR FEW007 BKN018 OVC065 
25/24 A3000 RMK AO2 RAE1357B14 P0006
####018003684####
SAUS99 KWBC 081439
METAR
K14Y 081439Z AUTO 26008KT 10SM CLR 22/15 A3012 RMK AO2
     T02230153=
K2G4 081435Z AUTO 00000KT 10SM CLR 26/15 A3019 RMK AO1=
K2W6 081435Z AUTO 08007KT 050V130 10SM CLR 28/21 A3003 RMK AO1=
KCBE 081436Z AUTO 15003KT 7SM CLR 30/20 A3009 RMK AO1=
KCGE 081433Z AUTO 13004KT 10SM BKN085 28/23 A3003 RMK AO1=
KCGS 081440Z AUTO 15003KT 7SM CLR 32/22 A3001 RMK AO1=
KCMY 081435Z AUTO 30005KT 10SM SCT019 23/18 A3007 RMK AO2
     T02340178=
KDLL 081435Z AUTO 32006KT 10SM BKN011 23/20 A3005 RMK AO2
     T02290196=
KFDK 081436Z AUTO 00000KT 7SM CLR 36/22 A3004 RMK AO2=
KDMW 081434Z AUTO 00000KT 10SM CLR 31/22 A3005 RMK AO2=
KEFT 081435Z AUTO 34004KT 10SM BKN008 25/21 A3005 RMK AO2
     T02460205=
KEGV 081432Z AUTO 00000KT 10SM CLR 21/17 A3006 RMK AO2
     T02140174=
KETB 081432Z AUTO 29006KT 10SM BKN016 BKN021 25/20 A3002 RMK AO2
     P0001 T02450196=
KEZS 081435Z AUTO 02004KT 10SM SCT016 25/21 A3002 RMK AO2
     T02490206=
KFME 081436Z AUTO 09008KT 10SM CLR 28/22 A3004 RMK AO1=
KGLW 081433Z AUTO 00000KT 10SM CLR 31/20 A3008 RMK AO2
     T03120202=
KHFJ 081435Z AUTO 00000KT 5SM SCT021 BKN037 OVC060 23/22 A3007 RMK
     AO1=
KLUM 081435Z AUTO 33006KT 10SM CLR 22/16 A3009 RMK AO2=
KMDZ 081435Z AUTO 01006KT 10SM CLR 22/18 A3007 RMK AO2=
KMRJ 081435Z AUTO 35006KT 10SM OVC013 25/20 A3007 RMK AO2
     T02480202=
KOEO 081435Z AUTO 30003KT 10SM CLR 22/17 A3012 RMK AO2=
KPBH 081435Z AUTO 30003KT 10SM CLR 22/17 A3009 RMK AO2=
KPCZ 081435Z AUTO 29004KT 10SM BKN013 25/21 A3002 RMK AO2
     T02530207=
KPDC 081433Z AUTO 33007KT 10SM SCT012 25/21 A3006 RMK AO2
     T02450208=
KUNI 081435Z AUTO 00000KT 10SM CLR 32/15 A3007 RMK AO2
     T03170147=
KVES 081434Z AUTO 19003KT 10SM CLR 30/21 A3007 RMK AO2
     T02950214=
KW29 081436Z AUTO 17004KT 10SM CLR 28/22 A3001 RMK AO1=
KY63 081440Z AUTO 32005KT 7SM CLR 21/16 A3012 RMK AO2
     T02060164=
KPQN 081433Z AUTO 32007KT 10SM CLR 22/16 A3018 RMK AO2=
KFGN 081434Z AUTO 29008KT 1 3/4SM HZ BKN080 18/14 A3000 RMK AO2
     VIS 3/4V4=
KPNM 081433Z AUTO 28006KT 10SM CLR 23/16 A3010 RMK AO2=
KPWC 081433Z AUTO 27003KT 10SM CLR 21/14 A3010 RMK AO2=
KFFM 081433Z AUTO 29003KT 10SM CLR 20/16 A3009 RMK AO2=
KGDB 081431Z AUTO 26006KT 10SM CLR 22/17 A3015 RMK AO2
     T02210170=
KAIT 081433Z AUTO 25003KT 10SM CLR 22/19 A3007 RMK AO2=
KGHW 081433Z AUTO 27006KT 10SM CLR 22/15 A3014 RMK AO2=
KMWM 081433Z AUTO 31005KT 10SM CLR 23/16 A3015 RMK AO2=
KULM 081435Z AUTO 32006KT 10SM CLR 22/16 A3013 RMK AO2=
KBBB 081433Z AUTO 29005KT 10SM CLR 23/18 A3012 RMK AO2=
KTWM 081433Z AUTO 24006KT 10SM CLR 23/15 A3002 RMK AO2=
KMGG 081435Z AUTO 27006KT 10SM CLR 23/17 A3012 RMK AO2
     T02280169=
KMOX 081430Z AUTO 31008KT 10SM CLR 23/17 A3008 RMK AO2=
KTEW 081421Z AUTO 15003KT 10SM CLR 27/21 A3003 RMK AO2=
KCVH 081430Z AUTO 00000KT 5SM OVC008 13/12 A2994 RMK AO1=
KFSO 081438Z AUTO 22003KT 7SM CLR 31/24 A3000 RMK AO2=
KFBL 081434Z AUTO 28004KT 10SM CLR 22/16 A3014 RMK AO2=
KLYV 081438Z AUTO 27004KT 10SM CLR 22/15 A3018 RMK AO2=
KEFK 081436Z AUTO 19005KT 10SM CLR 29/21 A3005 RMK AO2=
KRRT 081434Z AUTO 27009KT 10SM CLR 19/14 A3004 RMK AO2=
KTOB 081435Z AUTO 00000KT 10SM CLR 22/17 A3013 RMK AO2=
KLXL 081434Z AUTO 26006KT 10SM CLR 22/14 A3009 RMK AO2=
KEVM 081432Z AUTO 25007KT 10SM CLR 23/16 A3003 RMK AO1=
KELO 081433Z AUTO 28008KT 10SM CLR 22/14 A3002 RMK AO2 LTG DSNT
     N=
KROX 081434Z AUTO 28008G14KT 10SM SCT085 20/16 A3004 RMK AO2=
KSYN 081450Z AUTO 31003KT 10SM CLR 23/17 A3011 RMK AO2
     T02250173=
KVVV 081436Z AUTO 27005KT 10SM CLR 23/16 A3012 RMK AO2=
####018001556####
SAUS99 KWBC 081439 RRA
METAR
KROS 081435Z AUTO 28004KT 10SM CLR 23/16 A3010 RMK AO2
     T02270163=
KHCD 081432Z AUTO 28006KT 10SM CLR 22/16 A3013 RMK AO2
     T02210162=
KSGS 081433Z AUTO 31007KT 10SM CLR 23/16 A3010 RMK AO2
     T02320164=
KMJQ 081432Z AUTO 30003KT 10SM CLR 21/16 A3018 RMK AO2=
KHCO 081434Z AUTO 33007KT 10SM CLR 19/16 A3009 RMK AO2=
KLVN 081428Z AUTO 27005KT 10SM CLR 22/18 A3011 RMK AO2=
KPEX 081433Z AUTO 27008KT 10SM CLR 23/16 A3013 RMK AO2
     T02270156=
KJMR 081438Z AUTO 26005KT 10SM CLR 22/15 A3011 RMK AO2=
KJKJ 081434Z AUTO 29005KT 10SM CLR 22/16 A3008 RMK AO2=
KMVE 081434Z AUTO 30005KT 10SM CLR 23/18 A3011 RMK AO2=
KTKC 081433Z AUTO 29006KT 10SM CLR 23/16 A3015 RMK AO2
     T02280156=
KGYL 081434Z AUTO 30008KT 10SM CLR 22/16 A3012 RMK AO2
     T02200160=
KDXX 081434Z AUTO 00000KT 10SM CLR 23/19 A3011 RMK AO2=
KHZX 081431Z AUTO 27006KT 10SM CLR 22/15 A3008 RMK AO2=
KSAZ 081434Z AUTO 23004KT 10SM CLR 22/19 A3010 RMK AO2=
KONA 081431Z AUTO 30006KT 10SM SCT019 23/17 A3008 RMK AO2=
KOVL 081434Z AUTO 30005KT 10SM CLR 22/16 A3013 RMK AO2
     T02200158=
KLJF 081432Z AUTO 28005KT 10SM CLR 23/17 A3013 RMK AO2=
KAEL 081431Z AUTO 35006KT 10SM CLR 21/17 A3013 RMK AO2=
K29G 081434Z AUTO 26004KT 10SM CLR 29/19 A3008 RMK AO2 T02880187
     PWINO=
KMRT 081433Z AUTO 23003KT 10SM CLR 30/19 A3010 RMK AO2
     T02980192=
KIKW 081433Z AUTO 29007KT 10SM SCT012 SCT120 25/21 A3001 RMK AO2
     T02510212=
KMDS 081425Z AUTO 26006KT 10SM CLR 21/16 A3018 RMK AO2=
####018000671####
SPUS99 KWBC 081439
SPECI
KBIV 081437Z AUTO 18005KT 3/4SM +RA BR OVC001 24/22 A3004 RMK AO2
     P0037=
KCRP 081431Z COR 03013KT 2 1/2SM -TSRA BR FEW006 BKN020CB BKN040
     26/25 A2988 RMK AO2 TSB31RAB1356 OCNL LTGICCC OHD-N TS OHD-N
     MOV NW CB E-SE MOV NW TCU DSNT NE S SW P0019=
KFST 081437Z AUTO 36005KT 9SM BKN006 OVC013 22/21 A3012 RMK AO2
     RAE27 CIG 004V009 P0000=
KFTG 081430Z 04004KT 5SM BR BKN006 BKN011 OVC020 17/14 A3035=
KIXD 081437Z 03004KT 8SM BKN008 OVC013 24/21 A3012 RMK AO2 CIG
     008V011=
KSTJ 081437Z 03007KT 10SM BKN015 OVC021 23/20 A3012 RMK AO2=
PALG 081434Z AUTO 00000KT 10SM SCT003 06/05 A2999 RMK AO2 TSNO=
####018000123####
SAKO31 RKSI 081400 RRA
METAR RKTU 081400Z 14004KT 8000 -RA BR BKN050 OVC100 22/20 A2983 RMK
CIG050 SLP102 8/72/ 9/53/=
####018000148####
SAMX51 MMMX 081438
METAR MMPA 081445Z 29005KT 5SM SCT030 SCT070 BKN280 29/24 A2988
      RMK SLP109 52015 905 8/133 HZY DSNT CB, TCU 1,2 QUAD=
####018000205####
SPAU31 YBBN 081438
SPECI YPPH 081434Z 30019G30KT 2500 SHRA FEW009 BKN026 BKN048
13/13 Q0996
RMK WBD 0.3
FM1435 31014G25KT 9999 -SHRA BKN020
INTER 1435/1735 29030G50KT 2000 TSGS BKN010 FEW030CB=
####018000097####
SAHK31 VHHH 081430
METAR VHHH 081430Z 21009KT 140V240 9999 FEW020 SCT030 31/25 
Q1009 NOSIG=
####018000436####
SAAL40 DAMM 081430
METAR DAAG 081430Z 04017KT CAVOK 33/16 Q1018=
METAR DAAT 081430Z 11011KT 070V160 CAVOK 34/02 Q1021=
METAR DABB 081430Z 02015KT CAVOK 27/21 Q1019=
METAR DABC 081430Z 36012KT CAVOK 34/08 Q1022=
METAR DABS 081430Z 34012KT CAVOK 35/06 Q1022=
METAR DAON 081430Z 02010KT 9999 FEW026 39/19 Q1015=
METAR DAOO 081430Z 36010KT CAVOK 33/22 Q1015=
METAR DAUH 081430Z 06010KT CAVOK 40/21 Q1016=
METAR DAUZ 081430Z NIL=
####018000192####
SPAU31 KWBC 081439
SPECI
YPPH 081434Z 30019G30KT 2500 SHRA FEW009 BKN026 BKN048 13/13 Q0996
FM1435 31014G25KT 9999 -SHRA BKN020 INTER 1435/1735 29030G50KT
2000 TSGS BKN010 FEW030CB=
####018000078####
SAAK31 KWBC 081400 RRB
METAR
PAWG 081436Z 31003KT 10SM CLR 13/10 A3014=
####018000142####
SAAK32 KWBC 081400 RRB
METAR
PADK 081436Z 05022G30KT 6SM FEW007 SCT017 BKN025 06/06 A2944=
PADL 081436Z 31006KT 10SM CLR 10/08 A2995=
####018000091####
SPUS42 KWBC 081439
SPECI
KSHV 081438Z 12005KT 10SM BKN013 BKN100 BKN280 28/24 A3006=
####018000278####
SARS34 RUMS 081430
METAR UUYH 081430Z 16002MPS CAVOK 27/11 Q1015 NOSIG RMK QFE 750
18CLRD60=
METAR UUYS 081430Z 16003MPS 9999 FEW033 OVC/// 21/06 Q1014 NOSIG RMK
QFE754 14CLRD60=
METAR UUYY 081430Z VRB01MPS 9999 FEW036 OVC200 30/14 Q1015 NOSIG
19CLRD61 RMK QFE752/1003=
####018000320####
SARA33 RUMS 081430
METAR UIAA 081430Z NIL=
METAR UIBB 081430Z 06003MPS 9999 FEW040 BKN200 22/12 Q1006 NOSIG RMK
QFE712/0949 30CLRD60=
METAR UIII 081430Z 00000MPS CAVOK 16/10 Q1007 NOSIG RMK QFE713/0951
12CLRD60=
METAR UIUU 081430Z 00000MPS 9999 -SHRA SCT033CB OVC100 19/15 Q1008
NOSIG RMK QFE712/0949 26CLRD60=
####018000313####
SARA31 RUMS 081430
METAR UEEE 081430Z 33002MPS 9999 SCT050CB OVC100 16/15 Q1008 NOSIG
RMK QFE748 23290150=
METAR UELL 081430Z VRB02MPS 0800 FG FEW030 BKN200 11/11 Q1012 TEMPO
0400 VV002 RMK QFE684 08290050=
METAR UERP 081430Z NIL=
METAR UERR 081430Z NIL=
METAR UESO 081430Z NIL=
METAR UEST 081430Z NIL=
####018000132####
SAUS41 KWBC 081400 RRF
METAR
KFDK 081436Z AUTO 00000KT 7SM CLR 36/22 A3004=
KPQI 081435Z AUTO 13008KT 10SM CLR 28/22 A2998=
####018000079####
SPUS44 KWBC 081439
SPECI
KHQM 081436Z AUTO 23004KT 1/2SM FG 13/13 A2998=
####018000143####
SAUS43 KWBC 081400 RRH
METAR
KCIU 081435Z AUTO 01007KT 10SM BKN006 BKN013 21/18 A2999=
KELO 081433Z AUTO 28008KT 10SM CLR 22/14 A3002=
####018000091####
SPUS52 KWBC 081439
SPECI
KSHV 081438Z 12005KT 10SM BKN013 BKN100 BKN280 28/24 A3006=
####018000080####
SPUS53 KWBC 081439
SPECI
KBRL 081436Z AUTO 7SM SCT007 SCT011 24/22 A3007=
####018000086####
SAUS44 KWBC 081400 RRF
METAR
KGDV 081435Z AUTO 00000KT 10SM FEW090 18/11 A3019=
####018000076####
SPUS53 KWBC 081439
SPECI
KMSN 081437Z VRB05KT 9SM SCT014 25/21 A3004=
####018000082####
SAUS51 KWBC 081400 RRC
METAR
KCBE 081436Z AUTO 15003KT 7SM CLR 30/20 A3009=
####018000186####
SAUS53 KWBC 081400 RRI
METAR
KDVL 081435Z AUTO 32008KT 10SM CLR 19/11 A3011=
KEAR 081435Z AUTO 02004KT 10SM BKN100 19/16 A3026=
KGPZ 081435Z AUTO 30007KT 10SM CLR 21/14 A3007=
####018000327####
SARA33 RUMS 081430
METAR UIAA 081430Z NIL=
METAR UIBB 081430Z 06003MPS 9999 FEW040 BKN200 22/12 Q1006 NOSIG RMK
QFE712/0949 30CLRD60=
METAR UIII 081430Z 00000MPS CAVOK 16/10 Q1007 NOSIG RMK QFE713/0951
12CLRD60=
METAR UIUU 081430Z 00000MPS 9999 -SHRA SCT033CB OVC100 19/15 Q1008
NOSIG RMK QFE712/0949 26CLRD60=
####018000321####
SARA31 RUMS 081430
METAR UEEE 081430Z 33002MPS 9999 SCT050CB OVC100 16/15 Q1008 NOSIG
RMK QFE748 23290150=
METAR UELL 081430Z VRB02MPS 0800 FG FEW030 BKN200 11/11 Q1012 TEMPO
0400 VV002 RMK QFE684 08290050=
METAR UERP 081430Z NIL=
METAR UERR 081430Z NIL=
METAR UESO 081430Z NIL=
METAR UEST 081430Z NIL=
####018000854####
SARS32 RUMS 081430
METAR URKA 081430Z 03005MPS 9999 SCT026 28/21 Q1011 NOSIG RMK  065=
METAR URKK 081430Z 07006MPS CAVOK 30/19 Q1010 NOSIG RMK QFE755 SC070=
METAR URKM 081430Z NIL=
METAR URML 081430Z 09003MPS 9999 FEW100 31/21 Q1012 NOSIG RMK QFE759
/ 07=
METAR URMM 081430Z 12005G07MPS 9999 BKN046 30/19 Q1012 NOSIG RMK 
 0M-200 / SC070=
METAR URMN 081430Z 09002MPS 9999 BKN032CB BKN110 28/18 Q1013 NOSIG
RMK / QFE723 SC07=
METAR URMT 081430Z 06005G08MPS 9999 SCT026CB BKN100 29/17 Q1014 NOSIG
RMK QFE720 SC07=
METAR URRR 081430Z 00000MPS 9999 FEW040 30/16 Q1013 NOSIG RMK SC070=
METAR URSS 081430Z 28003MPS 9999 FEW040 SCT300 28/22 Q1008 NOSIG RMK
/ QFE755 06CLRD70=
METAR URWA 081430Z 25002MPS CAVOK 37/12 Q1010 NOSIG RMK SC07=
METAR URWI 081430Z NIL=
METAR URWW 081430Z 33004MPS CAVOK 30/13 Q1013 NOSIG RMK SC070=
####018000846####
SARA34 RUMS 081430
METAR UNAA 081430Z 00000MPS 9999 SCT030CB BKN100 16/14 Q1012 NOSIG
RMK QFE736 022///55=
METAR UNBB 081430Z 15004MPS 9999 SCT040 SCT100 14/11 Q1009 NOSIG RMK
QFE735=
METAR UNEE 081430Z 21004MPS 9999 SCT033CB BKN066 OVC200 16/10 Q1009
NOSIG RMK QFE734 23CLRD60=
METAR UNKL 081430Z 00000MPS 9999 SCT030CB BKN083 13/12 Q1011 NOSIG
RMK QFE732 29////55=
METAR UNNT 081430Z 25004MPS 9999 BKN065CB 18/04 Q1007 NOSIG RMK
QFE745/0994 25090070=
METAR UNOO 081430Z 31005MPS 9999 BKN025CB 14/10 Q1008 NOSIG 25CLRD06
RMK QFE747=
METAR UNWW 081430Z 14002MPS 9999 SCT026 OVC130 13/11 Q1011 NOSIG RMK
QFE731 19CLRD70=
METAR USTR 081430Z 34003MPS CAVOK 19/07 Q1012 NOSIG RMK QFE749/0999
30CLRD65=
METAR USHH 081430Z 34003G06MPS 290V080 9999 BKN012CB OVC080 10/09
Q1009 TEMPO 3000 BR BKN006 RMK QFE753 SC06=
####018000125####
SAKO31 RKSI 081400 RRA
METAR RKTU 081400Z 14004KT 8000 -RA BR BKN050 OVC100 22/20 A2983 RMK
CIG050 SLP102 8/72/ 9/53/=
####018000284####
SARS34 RUMS 081430
METAR UUYH 081430Z 16002MPS CAVOK 27/11 Q1015 NOSIG RMK QFE 750
18CLRD60=
METAR UUYS 081430Z 16003MPS 9999 FEW033 OVC/// 21/06 Q1014 NOSIG RMK
QFE754 14CLRD60=
METAR UUYY 081430Z VRB01MPS 9999 FEW036 OVC200 30/14 Q1015 NOSIG
19CLRD61 RMK QFE752/1003=
####018000091####
SPUS72 KWBC 081439
SPECI
KSHV 081438Z 12005KT 10SM BKN013 BKN100 BKN280 28/24 A3006=
####018000080####
SPUS73 KWBC 081439
SPECI
KBRL 081436Z AUTO 7SM SCT007 SCT011 24/22 A3007=
####018000076####
SPUS73 KWBC 081439
SPECI
KMSN 081437Z VRB05KT 9SM SCT014 25/21 A3004=
####018000079####
SPUS74 KWBC 081439
SPECI
KHQM 081436Z AUTO 23004KT 1/2SM FG 13/13 A2998=
####018000585####
SAUS20 KNKA 081438
METAR K4M9 081435Z AUTO 24005KT 10SM CLR 28/24 A3007 RMK AO2 =
METAR KAEJ 081435Z AUTO 00000KT 10SM OVC016 11/08 A3046 RMK AO2=
METAR KBVU 081435Z AUTO 14003KT 10SM CLR 28/M02 A2991 RMK AO2 =
METAR KDCM 081435Z AUTO 36005KT 7SM CLR 32/25 A3001 RMK AO2=
METAR KHYW 081435Z AUTO 03005KT 5SM HZ CLR 31/25 A2994 RMK AO2=
METAR KMCJ 081435Z AUTO 07008KT 5SM FEW047 25/24 A2995 RMK AO1 =
METAR KRCM 081435Z AUTO 34005KT 10SM SCT010 BKN016 BKN085 24/23 
     A3009 RMK AO2=
METAR KSNC 081435Z AUTO 14004KT 10SM BKN015 OVC024 25/24 A3010 RMK 
     AO2 =
####018000511####
SAAO32 GOOY 081430
METAR GABS 081430Z VRB01KT 9999 SCT030 33/21 Q1013 NOSIG=
METAR GGOV 081430Z NIL=
METAR GOOY 081430Z 16009KT 130V190 9999 SCT013 31/25 Q1012 NOSIG=
METAR DIAP 081430Z 22008KT 190V250 8000  SCT012 SCT070 29/25 Q1013
NOSIG=
METAR GQNN 081430Z 21012KT 180V240 6000 NSC 32/21 Q1011 NOSIG=
METAR GQPP 081430Z NIL=
METAR GUCY 081430Z NIL=
METAR GVAC 081430Z NIL=
METAR GFLL 081430Z NIL=
METAR GBYD 081430Z NIL=
METAR GLRB 081430Z 21008KT 9999 BKN020 30/25 Q1012 NOSIG=

####018000104####
SPUS81 KWBC 081439
SPECI
KATT 081437Z AUTO VRB04KT 4SM -RA BR FEW007 BKN018 OVC065 25/24
A3000=
####018000190####
SAUS73 KWBC 081400 RRG
METAR
KCIU 081435Z AUTO 01007KT 10SM BKN006 BKN013 21/18 A2999=
KELO 081433Z AUTO 28008KT 10SM CLR 22/14 A3002=
KLBL 081435Z 36012KT 9SM OVC006 18/17 A3026=
####018000081####
SAUS74 KWBC 081400 RRD
METAR
KOTH 081435Z 00000KT 10SM OVC006 10/08 A3000=
####018000128####
SAUS75 KWBC 081400 RRB
METAR
PADL 081436Z 31006KT 10SM CLR 10/08 A2995=
PAUN 081436Z AUTO 06011KT 10SM CLR 13/04 A3000=
####018000076####
SPUS81 KWBC 081439
SPECI
KMSN 081437Z VRB05KT 9SM SCT014 25/21 A3004=
####018000091####
SPUS81 KWBC 081439
SPECI
KSHV 081438Z 12005KT 10SM BKN013 BKN100 BKN280 28/24 A3006=
####018000208####
SARA35 RUMS 081430
METAR ULDD 081430Z NIL=
METAR UOHH 081430Z NIL=
METAR UOII 081430Z NIL=
METAR UOOO 081430Z NIL=
METAR USCM 081430Z 00000MPS 9999 FEW200 27/02 Q1014 NOSIG 01090065
RMK QFE722=
####018000509####
SARA36 RUMS 081430
METAR UWUU 081430Z 35004MPS CAVOK 28/10 Q1014 82010060 NOSIG RMK
QFE750/1000=
METAR USCC 081430Z 01004G07MPS CAVOK 24/02 Q1013 NOSIG RMK QFE740
27000070=
METAR USDD 081430Z NIL=
METAR USMU 081430Z NIL=
METAR USNN 081430Z 12003MPS P6000 SCT026 17/10 Q1004 NOSIG RMK QFE748
SC065=
METAR USRK 081430Z NIL=
METAR USRR 081430Z 35003MPS 7000 OVC013 13/11 Q1005 TEMPO BKN007 RMK
QFE749 25////60=
METAR USSS 081430Z 01005MPS CAVOK 24/01 Q1014 NOSIG RMK QFE740
260///70=
####018000709####
SARS31 RUMS 081430
METAR ULAA 081430Z 31003MPS 260V360 9999 FEW033 26/17 Q1015 TEMPO
VRB14MPS TSRA RMK QFE760/1014 SC070=
METAR ULKK 081430Z NIL=
METAR ULMM 081430Z 09002MPS 050V180 9999 SCT026 BKN080 17/09 Q1017
NOSIG RMK QFE756 32190060=
METAR ULOL 081430Z NIL=
METAR ULOO 081430Z VRB02MPS P6000 -RA SCT030CB OVC200 22/19 Q1012
NOSIG RMK QFE755=
METAR ULWW 081430Z NIL=
METAR UMKK 081430Z 31006MPS P8000 FEW030 SCT200 22/15 Q1020 NOSIG RMK
QFE 764 SC07=
METAR UUBP 081430Z NIL=
METAR UUOB 081430Z NIL=
METAR UUOK 081430Z NIL=
METAR UUOO 081430Z VRB02MPS CAVOK 29/14 Q1014 NOSIG RMK 13090070=
METAR UWGG 081430Z VRB02MPS 8000 FEW033 34/09 Q1015 NOSIG RMK QFE754
18090070=
####018000404####
SARA32 RUMS 081430
METAR UHHH 081430Z 03003MPS 9999 SCT020CB OVC100 15/15 Q1010 NOSIG
RMK QFE751/1002 55090060=
METAR UHMA 081430Z NIL=
METAR UHMM 081430Z NIL=
METAR UHMP 081430Z NIL=
METAR UHNN 081430Z NIL=
METAR UHPP 081430Z NIL=
METAR UHSH 081430Z NIL=
METAR UHSS 081430Z NIL=
METAR UHWW 081430Z 08002MPS 9999 SCT013 BKN023CB OVC100 17/15 Q1011
NOSIG RMK QFE757/1010 75CLRD70=
####018000853####
SARS32 RUMS 081430
METAR URKA 081430Z 03005MPS 9999 SCT026 28/21 Q1011 NOSIG RMK  065=
METAR URKK 081430Z 07006MPS CAVOK 30/19 Q1010 NOSIG RMK QFE755 SC070=
METAR URKM 081430Z NIL=
METAR URML 081430Z 09003MPS 9999 FEW100 31/21 Q1012 NOSIG RMK QFE759
/ 07=
METAR URMM 081430Z 12005G07MPS 9999 BKN046 30/19 Q1012 NOSIG RMK
 0M-200 / SC070=
METAR URMN 081430Z 09002MPS 9999 BKN032CB BKN110 28/18 Q1013 NOSIG
RMK / QFE723 SC07=
METAR URMT 081430Z 06005G08MPS 9999 SCT026CB BKN100 29/17 Q1014 NOSIG
RMK QFE720 SC07=
METAR URRR 081430Z 00000MPS 9999 FEW040 30/16 Q1013 NOSIG RMK SC070=
METAR URSS 081430Z 28003MPS 9999 FEW040 SCT300 28/22 Q1008 NOSIG RMK
/ QFE755 06CLRD70=
METAR URWA 081430Z 25002MPS CAVOK 37/12 Q1010 NOSIG RMK SC07=
METAR URWI 081430Z NIL=
METAR URWW 081430Z 33004MPS CAVOK 30/13 Q1013 NOSIG RMK SC070=
####018000808####
SARS35 RUMS 081430
METAR USPP 081430Z 36002MPS CAVOK 27/11 Q1015 NOSIG RMK QFE750/1000
21090060=
METAR UWKD 081430Z 28004MPS 240V300 CAVOK 32/12 Q1014 TEMPO VRB15MPS
3000 TSRA RMK QFE750/1000 79CLRD70=
METAR UWKE 081430Z 06004MPS 9999 FEW040 31/10 Q1015 NOSIG RMK
QFE744/0992 04090070=
METAR UWKS 081430Z 00000MPS 9999 BKN033CB 28/17 Q1016 NOSIG RMK
QFE746 SC0.60=
METAR UWLL 081430Z 06005MPS 9999 SCT050CB 31/12 Q1014 NOSIG RMK
QFE748/0998 SC065=
METAR UWLW 081430Z NIL=
METAR UWOR 081430Z NIL=
METAR UWOO 081430Z NIL=
METAR UWPP 081430Z 16003MPS 9999 SCT033CB BKN100 32/09 Q1013 NOSIG
RMK QFE745 11090060=
METAR UWSS 081430Z 07004MPS CAVOK 31/09 Q1014 NOSIG RMK QFE748
120///60=
METAR UWWW 081430Z 06003MPS CAVOK 31/08 Q1014 NOSIG RMK QFE747/0997
05CLRD60 15//99//=
####018000487####
SARS33 RUMS 081430
METAR ULLI 081430Z 11002MPS 9999 SCT046CB BKN066 BKN200 27/17 Q1012
TEMPO TSRA=
METAR UUDD 081430Z 15005MPS 120V180 9999 FEW050TCU BKN200 28/15 Q1015
TEMPO VRB12MPS TSRA=
METAR UUEE 081430Z 16005MPS 120V200 9999 VCTS SCT050CB BKN200 29/11
Q1015 NOSIG=
METAR UUEM 081430Z NIL=
METAR UUWW 081430Z 17003MPS 130V210 9999 SCT050CB BKN200 27/15 Q1015
24000070 NOSIG=
METAR UUMO 081430Z 20003MPS 140V240 CAVOK 27/15 Q1015 NOSIG RMK
QFE746/0995 SC060=
####018000461####
SAUK KAWN 081400 RRH
METAR COR EGPM 081420Z 22022KT 9999 FEW029 16/10 Q1007 NOSIG=
METAR EICK 081430Z 20011KT 9999 -RA BKN006 BKN012 BKN038 13/13 Q1015
      TEMPO 2000=
METAR EIDW 081430Z 20011KT 170V230 9999 -SHRA FEW022 SCT040 BKN050
      16/11 Q1015 NOSIG=
METAR EIKN 081430Z 21007KT 180V270 9999 FEW015 FEW018CB SCT030 BKN048
      14/12 Q1014 NOSIG=
METAR EINN 081430Z 18008KT 8000 -RADZ FEW016 BKN026 BKN038 15/13 Q1015
      NOSIG=
####018000132####
SAXX60 KAWN 081400 RRC
METAR RJTT 081430Z 19012KT 9999 FEW004 SCT012 BKN050 25/22 Q1010 RMK
      1ST004 3CU012 5SC050 A2984=
####018001291####
SAEW KAWN 081400 RRN
METAR LFGJ 081430Z AUTO 19004KT 110V240 9999NDV NSC 32/12 Q1019=
METAR LFJL 081430Z AUTO /////KT 9999NDV NSC 32/08 Q1019=
METAR LFKB 081430Z 11004KT 040V180 9999 FEW028 30/21 Q1019 NOSIG=
METAR LFKJ 081430Z 19009KT 9999 FEW030 FEW046TCU 31/23 Q1019 NOSIG=
METAR LFLN 081430Z AUTO VRB02KT 9999NDV NSC 33/12 Q1019=
METAR LFMD 081430Z AUTO 18005KT 140V240 9999NDV NSC 30/21 Q1020=
METAR LFMK 081430Z AUTO 09017KT 9999NDV NSC 34/13 Q1018=
METAR LFMU 081430Z AUTO 16008KT 110V190 9999NDV NSC 29/15 Q1020=
METAR LFOT 081430Z AUTO 12005KT 060V190 9999NDV NSC 34/08 Q1017=
METAR LFRC 081430Z AUTO 36007KT 330V030 9999NDV NSC 20/16 Q1019=
METAR LFRD 081430Z AUTO 01009KT 9999NDV NSC 23/15 Q1018=
METAR LFRJ 081430Z AUTO 01010KT 340V040 9999NDV FEW024/// 23/17 Q1017=
METAR LFRN 081430Z AUTO VRB05KT 9999NDV NSC 32/10 Q1016=
METAR LFRO 081430Z AUTO 02010KT 340V050 9999NDV NSC 20/16 Q1018=
METAR LFRQ 081430Z AUTO 36012KT 9999NDV NSC 25/17 Q1015=
METAR LFRZ 081430Z AUTO 18009KT 9999NDV NSC 32/08 Q1016=
METAR LFSB 081430Z VRB03KT CAVOK 32/12 Q1020 NOSIG=
METAR LFSL 081430Z AUTO 11005KT 080V170 9999NDV NSC 33/10 Q1019=
METAR LFST 081430Z VRB03KT CAVOK 32/10 Q1019 NOSIG=
METAR LFTW 081430Z AUTO 20008KT 150V230 9999NDV NSC 32/15 Q1020=
####018000108####
SPXX70 KAWN 081400
SPECI KQGX 081434Z 09026G29KT 0800 R13/P1200 HZ FEW007 41/20 A2955
      RMK AO2A=
####018000096####
SPCN46 CWAO 081438
SPECI CYBC 081438Z AUTO 27002KT 7SM OVC005 OVC043 OVC061 17/15 A3001=

####018000092####
SPCN46 CWAO 081437
SPECI CYEL 081437Z 27008KT 4SM -SHRA BR OVC005 RMK SF8 WNDS ESTD=

####018000508####
SAAO32 GOOY 081430
METAR GABS 081430Z VRB01KT 9999 SCT030 33/21 Q1013 NOSIG=
METAR GGOV 081430Z NIL=
METAR GOOY 081430Z 16009KT 130V190 9999 SCT013 31/25 Q1012 NOSIG=
METAR DIAP 081430Z 22008KT 190V250 8000  SCT012 SCT070 29/25 Q1013
NOSIG=
METAR GQNN 081430Z 21012KT 180V240 6000 NSC 32/21 Q1011 NOSIG=
METAR GQPP 081430Z NIL=
METAR GUCY 081430Z NIL=
METAR GVAC 081430Z NIL=
METAR GFLL 081430Z NIL=
METAR GBYD 081430Z NIL=
METAR GLRB 081430Z 21008KT 9999 BKN020 30/25 Q1012 NOSIG=
####018000114####
SAAK41 KNKA 081439
SPECI PASO 081437Z AUTO 00000KT 10SM BKN004 BKN060 OVC100 09/09 
    A2993 RMK AO2 TSNO=
