####018000118####
SAUS43 KUNR 081355
MTRCUT
METAR KCUT 081353Z AUTO 00000KT 10SM CLR 14/08 A3036 RMK AO2 SLP236 
T01440078 TSNO
####018000343####
SANO37 ENMI 081350
METAR ENNO 081350Z 14011G18KT 9999 SCT025 BKN075 20/14 Q1013=
METAR ENOV 081350Z VRB07G17KT 9999 VCSH FEW040 SCT055TCU 18/08 Q1011
           =
METAR ENSD 081350Z NIL=
METAR ENSG 081350Z NIL=
METAR ENSN 081350Z 19012KT 150V220 8000 SCT007 BKN11 17/15 Q1015=
METAR ENSR 081350Z NIL=
METAR ENSS 081350Z NIL=
####018000707####
SADL34 EDZO 081350
METAR EDAC 081350Z 31003KT 210V020 CAVOK 28/13 Q1021=
METAR EDAH 081350Z VRB03KT CAVOK 25/09 Q1021=
METAR EDGS 081350Z 24006KT CAVOK 26/10 Q1022=
METAR EDHL 081350Z 22007KT 170V280 CAVOK 30/13 Q1019=
METAR EDLN 081350Z 24004KT 180V300 CAVOK 32/11 Q1018=
METAR EDLP 081350Z VRB03KT CAVOK 32/11 Q1019=
METAR EDLW 081350Z 28006KT 230V320 CAVOK 31/10 Q1019=
METAR EDMA 081350Z 36004KT 250V080 CAVOK 28/09 Q1022=
METAR EDNY 081350Z 26006KT CAVOK 29/11 Q1021=
METAR EDQM 081350Z VRB03KT CAVOK 25/06 Q1023=
METAR EDRZ 081350Z 14005KT 040V260 CAVOK 30/12 Q1021=
METAR EDSB 081350Z 30004KT 250V360 CAVOK 32/10 Q1020=
METAR EDXW 081350Z 23008KT 9999 FEW040 20/16 Q1019=
####018000615####
SANO31 ENMI 081350
METAR ENAN 081350Z 31008KT 9999 VCTS NSC 14/10 Q1010=
METAR ENBR 081350Z 19013KT 9999 FEW020 SCT040 16/10 Q1014 NOSIG =
METAR ENBO 081350Z 25006KT 9999 FEW040CB SCT080 14/10 Q1011 TEMPO TS
           SHRA BKN030CB=
METAR ENDU 081350Z VRB02KT 9999 VCSH FEW050 SCT060 BKN180 17/11
           Q1010=
METAR ENGM 081341Z 19010KT 160V220 9999 FEW014 BKN017 17/14 Q1015
           NOSIG=
METAR ENOL 081350Z VRB02KT 9999 SCT040 21/07 Q1010 NOSIG=
METAR ENVA 081350Z 32013KT 9999 FEW040CB FEW060 20/13 Q1010 NOSIG =
METAR ENZV 081350Z 20011KT 9999 SCT020 BKN150 18/12 Q1015 NOSIG=
####018000555####
SANO32 ENMI 081350
METAR ENAL 081350Z 23016KT 9999 VCSH SCT047TCU SCT070 17/10 Q1010=
METAR ENCN 081350Z 19012KT 9999 FEW010 BKN070 17/15 Q1016=
METAR ENHD 081350Z 21012KT 9999 FEW035 16/12 Q1015=
METAR ENRO 081350Z 12006KT 080V220 9999 SCT050 BKN100 18/10 Q1011=
METAR ENRY 081350Z 19010KT 150V230 9999 -RA SCT007 BKN011 17/15
           Q1016=
METAR ENSB 081350Z 26014KT 9999 FEW010 SCT035 BKN0090 09/05 Q1009 =
METAR ENTC 081350Z 03008KT 9999 FEW065 SCT090 19/08 Q1010 NOSIG=
METAR ENTO 081350Z 20012KT 9000 -DZ BKN005 16/15 Q1016=
####018000300####
SANO38 ENMI 081350
METAR ENDR 081350Z NIL=
METAR ENEK 081350Z 22011KT CAVOK 16/12 Q1016 W15/S3=
METAR ENGC 081350Z 19025KT CAVOK 13/11 Q1009=
METAR ENHE 081350Z 20025KT CAVOK 15/11 Q1009=
METAR ENOA 081350Z 20023KT 9999 FEW045 13/11 Q1011=
METAR ENSL 081350Z 22021KT CAVOK 14/11 Q1013=
####018000410####
SANO34 ENMI 081350
METAR ENBN 081350Z 34006KT 9999 FEW050 SCT070 18/11 Q1011=
METAR ENBV 081350Z 09017KT 9999 FEW038 12/10 Q1015=
METAR ENDI 081350Z NIL=
METAR ENFG 081350Z 19010KT 9999 VCSH SCT022 17/09 Q1013=
METAR ENHF 081350Z 22003KT 9999 FEW035 BKN080 20/09 Q1011 =
METAR ENRA 081350Z 12002KT 9999 VCSH SCT050 SCT070 17/12 Q1010=
METAR ENSH 081350Z 35012KT 9999 FEW020 BKN050 16/10 Q1010=
####018000109####
SPCN48 CWAO 081352
SPECI CYQI 081352Z 18004KT 1SM BR BKN002 RMK FG2SF5 VIS N 8 RVR RWY
24 P6000 FT=

####018000189####
SADL35 EDZO 081350
METAR EDMO 081350Z 05007KT 010V070 CAVOK 26/09 Q1022=
METAR EDOP 081350Z 18009KT 120V210 CAVOK 30/09 Q1019=
METAR EDTD 081350Z 12005KT 060V190 CAVOK 28/13 Q1022=
####018000341####
SADL33 EDZO 081350
METAR EDFE 081350Z 09002KT CAVOK 31/10 Q1019=
METAR EDFH 081350Z 14007KT 080V180 CAVOK 28/11 Q1021=
METAR EDFM 081350Z 29003KT 160V060 CAVOK 32/10 Q1019=
METAR EDLV 081350Z 27005KT 200V360 CAVOK 32/10 Q1018=
METAR EDTL 081350Z VRB04KT CAVOK 31/10 Q1019=
METAR EDVK 081350Z 21006KT 170V240 CAVOK 28/10 Q1021=
####018000125####
SABA31 MYNN 081354 CCA
METAR MYNN 081400Z 21003KT 9999 VCSH SCT014CB SCT015TCU BKN220 
30/25 A2997=


NNNN


####018000118####
SAUS45 KFGZ 081355
MTRRQE
METAR KRQE 081353Z AUTO 00000KT 10SM CLR 19/08 A3030 RMK AO2 SLP131 
T01940078 TSNO
####018000080####
SAPS31 NIUE 081400
METAR NIUE 081400Z AUTO 14004KT //// ////// 23/21 Q1014=
####018000089####
SPCN46 CWAO 081354
SPECI CYBC 081354Z AUTO 24002KT 8SM OVC003 OVC081 16/14 A3002=

####018000108####
SAUS44 KMRX 081355
MTRNIP
METAR KNIP 081353Z 29003KT 10SM CLR 27/20 A3003 RMK AO2 SLP163 
T02720200
####018000115####
SAUS44 KLCH 081355
MTRP92
METAR KP92 081353Z AUTO VRB04KT 28/26 A3001 RMK AO2 SLP163 T02830256 
PWINO TSNO
####018000116####
SAUS45 KLKN 081355
MTRP68
METAR KP68 081353Z AUTO 20003KT 14/M01 A3018 RMK AO2 SLP139 
T01391011 PWINO TSNO
####018000839####
SAAK41 KNKA 081355
METAR PAQT 081353Z AUTO 24013KT 10SM CLR 09/04 A3006 RMK AO2 SLP180 
    T00940044 TSNO=
METAR PASC 081353Z 24015KT 10SM OVC230 09/05 A3003 RMK AO2 SLP168 
    T00890050=
METAR PASI 081353Z 33003KT 1/4SM FG VV001 12/12 A3017 RMK AO2 SLP216 
    T01220117=
METAR PASN 081353Z 06010KT 1/2SM FG OVC001 05/05 A2992 RMK AO2 
    SLP133 T00500050=
METAR PASO 081353Z AUTO 00000KT 10SM OVC004 09/09 A2992 RMK AO2 
    RAB1254E06 SLP133 P0001 T00940089 TSNO=
METAR PATK 081353Z AUTO 00000KT 10SM CLR 10/09 A2999 RMK AO2 SLP156 
    T01000089 TSNO=
METAR PATO 081353Z AUTO 11020G37KT 070V140 8SM -RA FEW021 OVC029 
    12/10 A3002 RMK AO2 PK WND 08037/1352 SLP164 P0001 T01170100 
    TSNO=
METAR PAYA 081353Z 00000KT 10SM OVC007 12/10 A3018 RMK AO2 SLP219 
    BAY TWR WND 090MMKT T01170100=
####018000131####
SACA01 KMSC 081355
METAR TJMZ 081350Z 04009KT 6SM HZ FEW040 33/26 A3002=
METAR TJBQ 081350Z 08008KT 10SM SCT020 31/26 A3003=
####018002965####
SAAK41 KNKA 081355
METAR PAAQ 081353Z AUTO 17004KT 10SM CLR 12/08 A3000 RMK AO2 SLP154 
    T01220083 TSNO=
METAR PABE 081353Z 33003KT 10SM SCT035 SCT090 OVC120 10/10 A3000 RMK 
    AO2 SLP168 T00990097 PNO $=
METAR PABI 081353Z AUTO 00000KT 10SM CLR 11/07 A3008 RMK AO2 SLP185 
    T01110072 TSNO=
METAR PABR 081353Z 24016KT 10SM FEW150 SCT190 SCT250 07/03 A2997 RMK 
    AO2 PK WND 24026/1338 SLP148 T00670028 $=
METAR PABT 081353Z 31003KT 10SM FEW100 SCT140 11/08 A3007 RMK AO2 
    SLP188 T01110083=
METAR PACD 081353Z 11004KT 10SM FEW050 SCT180 06/04 A2988 RMK AO2 
    SLP120 T00560039 $=
METAR PACV 081353Z 14008G16KT 10SM FEW009 BKN032 OVC046 11/09 A3011 
    RMK AO2 SLP195 T01110094=
METAR PADE 081353Z AUTO 21004KT 10SM CLR 03/03 A3013 RMK AO2 SLP202 
    T00330028 TSNO=
METAR PADQ 081353Z 30008KT 10SM FEW029 SCT042 OVC065 11/09 A2987 RMK 
    AO2 SLP115 T01060089 $=
METAR PAEG 081353Z AUTO 00000KT 10SM CLR 09/05 A3005 RMK AO2 SLP177 
    T00890050 TSNO=
METAR PAEN 081353Z 04011KT 10SM OVC090 14/12 A2994 RMK AO2 SLP138 
    T01440117=
METAR PAFA 081353Z 05003KT 10SM FEW100 SCT200 11/08 A3004 RMK AO2 
    SLP175 T01110078=
METAR PAGK 081353Z AUTO 36003KT 10SM SCT100 08/07 A3005 RMK AO2 
    SLP179 T00830067 TSNO=
METAR PAGY 081353Z AUTO 00000KT 10SM CLR 11/09 A3018 RMK AO2 SLP221 
    T01060089 TSNO=
METAR PAHO 081353Z AUTO 09003KT 10SM OVC110 11/08 A2993 RMK AO2 
    SLP136 T01060078 TSNO=
METAR PAIL 081353Z 08003KT 1/4SM -RA FG BKN001 OVC070 08/08 A2995 
    RMK AO2 RAE02B31 SLP145 P0000 T00830083=
METAR PAJN 081353Z 00000KT 10SM FEW140 BKN200 10/08 A3016 RMK AO2 
    SLP214 T01000083=
METAR PAKT 081353Z AUTO 35010KT 10SM CLR 18/11 A3008 RMK AO2 SLP187 
    T01780111 TSNO=
METAR PAKV 081353Z AUTO 00000KT 10SM CLR 07/06 A3010 RMK AO2 SLP196 
    T00670056 TSNO=
METAR PAKW 081353Z AUTO 00000KT 10SM CLR 12/11 A3012 RMK AO2 SLP200 
    T01220111 TSNO=
METAR PALH 081353Z 04003KT 10SM SCT065 BKN080 OVC090 13/11 A3000 RMK 
    AO2 RAE53 SLP160 P0001 T01330111=
METAR PAMC 081353Z 25004KT 10SM FEW080 SCT200 11/07 A2999 RMK AO2 
    SLP158 T01110072=
METAR PAMR 081353Z 09004KT 10SM -RA FEW020 SCT070 BKN085 BKN200 
    13/11 A2999 RMK AO2 SLP157 P0000 T01280111 $=
METAR PANC 081353Z 00000KT 10SM FEW045 BKN080 BKN200 12/12 A2999 RMK 
    AO2 RAB04E43 SLP157 P0001 T01220117=
METAR PANN 081353Z AUTO 00000KT 10SM CLR 09/08 A3001 RMK AO2 
    RAB24E35 SLP167 P0000 T00890078 TSNO=
METAR PANT 081353Z 33005KT 10SM CLR 18/12 A3007 RMK AO2 SLP184 
    T01780117=
METAR PAOM 081353Z 35008KT 10SM SCT200 12/08 A3007 RMK AO2 SLP184 
    T01220078=
METAR PAOR 081353Z 00000KT 10SM FEW070 11/08 A3007 RMK AO2 SLP180 
    T01060083=
METAR PAOT 081353Z 30009KT 10SM FEW038 SCT090 BKN200 11/06 A3011 RMK 
    AO2 SLP197 T01110056=
METAR PAPB 081353Z AUTO 06017G22KT 10SM OVC046 06/06 A2989 RMK AO2 
    SLP109 T00610056 TSNO=
####018000409####
SANO35 ENMI 081350
METAR ENMS 081350Z 36003KT 9999 VCSH FEW040CB SCT070 19/10 Q1009 =
METAR ENRM 081350Z NIL=
METAR ENRS 081350Z NIL=
METAR ENSK 081350Z 28012KT 9999 VCSH FEW025CB SCT040 BKN070 13/11
           Q1011 RESHRA=
METAR ENSO 081350Z 18009KT 120V220 9999 FEW030 18/09 Q1014=
METAR ENST 081350Z 01006KT 340V050 CAVOK 19/11 Q1010=
METAR ENVD 081350Z 11011KT 9999 FEW022 13/08 Q1017=
####018000551####
SANO33 ENMI 081350
METAR ENAT 081350Z 18007KT 140V210 9999 FEW035 SCT045 BKN080 23/06
           Q1011=
METAR ENBL 081350Z 23011KT 9999 FEW025 SCT035 BKN050 16/09 Q1011=
METAR ENEV 081350Z 09007KT 9999 BKN055 20/09 Q1009 =
METAR ENFL 081350Z 20011KT 140V250 9999 FEW013 SCT050 17/12 Q1012=
METAR ENKB 081350Z 27010KT 9999 FEW045TCU SCT093 16/10 Q1011=
METAR ENKR 081350Z 16005KT 9999 FEW025 17/10 Q1016 =
METAR ENML 081350Z 27008KT 9999 VCSH FEW040 SCT060 21/08 Q1010=
METAR ENNA 081350Z 16013KT 9999 FEW045CB SCT070 23/09 Q1012 =
####018000348####
SANO36 ENMI 081350
METAR ENBS 081350Z NIL=
METAR ENHK 081350Z 13009KT 9999 FEW034 ASCT051 BKN100 1/08 Q1011=
METAR ENHV 081350Z VRB02KT CAVOK 13/08 Q1012 =
METAR ENLK 081350Z 00000KT CAVOK 17/10 Q1010=
METAR ENMH 081350Z NIL=
METAR ENNK 081350Z VRB02KT 9999 BKN075 18/12 Q1009 =
METAR ENNM 081350Z VRB02KT 9999 SCT045 19/12 Q1010 =
####018000117####
SAMO31 ZMUB 081400
METAR ZMUB 081400Z 15012MPS 9999 -SHRA SCT030CB SCT033 16/11 Q1007 
 NOSIG RMK QFE648.7 72=
####018001838####
SAEU KAWN 081400 RRB
METAR EDHL 081350Z 22007KT 170V280 CAVOK 30/13 Q1019=
METAR EDLP 081350Z VRB03KT CAVOK 32/11 Q1019=
METAR EDLW 081350Z 28006KT 230V320 CAVOK 31/10 Q1019=
METAR EDXW 081350Z 23008KT 9999 FEW040 20/16 Q1019=
METAR COR EGCC 081350Z 20009KT 160V230 9999 SCT038 21/10 Q1017 NOSIG=
METAR EGGD 081350Z 28006KT 250V320 9999 FEW035 20/10 Q1019=
METAR EGHD 081350Z 19009KT 150V240 9999 FEW020 20/14 Q1019=
METAR EGHH 081350Z 19008KT 9999 FEW026 22/16 Q1018=
METAR EGHI 081350Z 21008KT 160V270 9999 FEW028 SCT048 22/13 Q1018=
METAR EGJA 081350Z 31007KT 280V340 FEW010 20/17 Q1020=
METAR EGJB 081350Z 29006KT 260V330 9999 FEW013 20/16 Q1019=
METAR EGJJ 081350Z 30010KT 260V330 9999 FEW012 21/17 Q1019 NOSIG=
METAR EGKA 081350Z 21011KT 9999 4000W VCFG FEW006 20/17 Q1019=
METAR EGKB 081350Z 22008KT 170V240 9999 BKN035 25/13 Q1019=
METAR EGLF 081350Z 25007KT 200V290 9999 FEW028 SCT034 23/15 Q1018=
METAR EGLL 081350Z 24009KT 9999 FEW034 SCT040 25/14 Q1018=
METAR EGMC 081350Z 24006KT 190V270 9999 FEW040 26/15 Q1018=
METAR EGMD 081350Z 20010KT 9999 FEW020 21/16 Q1019=
METAR EGMH 081350Z 12006KT 080V170 9999 FEW022 24/18 Q1018=
METAR EGNT 081350Z 26014KT 9999 FEW045 20/07 Q1014=
METAR COR EGPB 081350Z 20013KT 9999 FEW030 15/11 Q1008 NOSIG=
METAR EGPF 081350Z 22020KT 9999 FEW030 17/10 Q1013=
METAR EGTC 081350Z 24009KT 190V280 9999 FEW045 23/11 Q1018=
METAR EGTE 081350Z 17013KT 9999 FEW030 21/15 Q1018=
METAR EGTG 081350Z 28006KT 9999 FEW040 21/10 Q1018=
METAR ETOR 081355Z 18006KT 9999 FEW200 35/10 A3010 RMK BLU=
METAR LOWI 081350Z 08006KT 030V120 9999 FEW080 29/14 Q1020 NOSIG=
METAR LOWK 081350Z VRB02KT 9999 FEW060 27/11 Q1021 NOSIG=
METAR LOWS 081350Z VRB04KT 9999 FEW060 26/08 Q1022 NOSIG=
METAR LQSA 081400Z 32007KT 270V010 9999 SCT060 23/12 Q1023 NOSIG=
####018000110####
SAUS43 KIWX 081355
MTRFWA
METAR KFWA 081354Z 20006KT 9SM OVC050 28/21 A3005 RMK AO2 SLP170 
T02830211
####018000125####
SAUS43 KLSX 081355
MTRCOU
METAR KCOU 081354Z 13003KT 10SM FEW003 SCT014 OVC024 24/23 A3009 RMK 
AO2 SLP180 T02390228
####018000112####
SAUS41 KCAR 081355
MTRCAR
METAR KCAR 081354Z AUTO 18004KT 9SM CLR 27/22 A3001 RMK AO2 SLP160 
T02670217
####018000122####
SAUS43 KIWX 081355
MTRSBN
METAR KSBN 081354Z 10005KT 7SM BKN090 23/22 A3004 RMK AO2 RAE38 
SLP166 P0005 T02330217
####018000115####
SAUS41 KPHI 081355
MTR12N
METAR K12N 081354Z AUTO 00000KT 29/22 A3006 RMK AO2 SLP168 T02890217 
PWINO TSNO
####018000111####
SAUS41 KGYX 081355
MTRNKT
METAR KNKT 081354Z 07010KT 10SM FEW018 29/23 A2994 RMK AO2 SLP137 
T02890233
####018000101####
SAUS41 KBOX 081355
MTRMQE
METAR KMQE 081354Z AUTO 15007KT 26/19 A3011 RMK AO1 SLP200 T02610189
####018000107####
SAUS41 KBTV 081355
MTR1V4
METAR K1V4 081354Z AUTO 28/22 A3004 RMK AO2 SLP158 T02780222 PWINO 
TSNO
####018000109####
SAUS41 KBGM 081355
MTRAVP
METAR KAVP 081354Z 00000KT 7SM CLR 29/19 A3006 RMK AO2 SLP167 
T02890189 $
####018001684####
SAEW KAWN 081400 RRA
METAR EDAC 081350Z 31003KT 210V020 CAVOK 28/13 Q1021=
METAR EDAH 081350Z VRB03KT CAVOK 25/09 Q1021=
METAR EDHL 081350Z 22007KT 170V280 CAVOK 30/13 Q1019=
METAR EDLN 081350Z 24004KT 180V300 CAVOK 32/11 Q1018=
METAR EDLP 081350Z VRB03KT CAVOK 32/11 Q1019=
METAR EDLW 081350Z 28006KT 230V320 CAVOK 31/10 Q1019=
METAR EDMA 081350Z 36004KT 250V080 CAVOK 28/09 Q1022=
METAR EDNY 081350Z 26006KT CAVOK 29/11 Q1021=
METAR EDQM 081350Z VRB03KT CAVOK 25/06 Q1023=
METAR EDSB 081350Z 30004KT 250V360 CAVOK 32/10 Q1020=
METAR EDXW 081350Z 23008KT 9999 FEW040 20/16 Q1019=
METAR EGJJ 081350Z 30010KT 260V330 9999 FEW012 21/17 Q1019 NOSIG=
METAR EKAH 081350Z AUTO 21002KT 9999NDV BKN100/// 22/15 Q1019=
METAR EKBI 081350Z 25007KT 210V280 8000 -SHRA FEW017 BKN055 20/19 Q1019=
METAR EKCH 081350Z 17012KT CAVOK 22/15 Q1020 NOSIG=
METAR EKEB 081350Z AUTO 18008KT 8000NDV -SHRA FEW003/// BKN053/// 19/17
      Q1018 RESHRA=
METAR EKKA 081350Z 21005KT 170V230 9999 SCT007 FEW010TCU BKN012 19/17
      Q1018=
METAR EKOD 081350Z 19008KT CAVOK 26/12 Q1019=
METAR EKRK 081350Z AUTO 22011KT 9999NDV BKN050/// 24/11 Q1020=
METAR EKRN 081350Z AUTO 20004KT 180V240 9999NDV NCD 20/15 Q1022=
METAR EKSB 081350Z 24006KT 190V260 CAVOK 26/13 Q1018=
METAR EKSN 081350Z 27004KT 9999 -RA SCT018 BKN031 15/13 Q1018=
METAR EKSP 081350Z 27012KT 9999 -RA FEW025 BKN100 21/14 Q1019=
METAR EKVD 081350Z 27008KT 9999 FEW025 SCT050 BKN100 20/16 Q1019=
METAR EKVJ 081350Z 20006KT 9000 SCT006 BKN010 BKN020 20/17 Q1018=
METAR EKYT 081350Z 23009KT 4500 -SHRA SCT010TCU BKN018 18/18 Q1018=
METAR ETOR 081355Z 18006KT 9999 FEW200 35/10 A3010 RMK BLU=
####018003664####
SAUS99 KWBC 081356 RRC
METAR
KMLB 081353Z 02004KT 10SM SCT025 28/19 A3001 RMK AO2 SLP160
     T02830194=
KMNI 081355Z AUTO 35009KT 10SM CLR 32/24 A2997 RMK AO2=
KPNS 081353Z 00000KT 10SM CLR 29/23 A3004 RMK AO2 SLP173
     T02940233=
KPTT 081350Z AUTO 01008KT 4SM BR OVC006 20/19 A3017 RMK AO2=
KPVD 081351Z 16005KT 10SM BKN010 BKN013 25/21 A3010=
KPWA 081353Z 35004KT 7SM SCT005 24/22 A3008 RMK AO2 SLP169
     T02440217=
KRBD 081353Z 10005KT 10SM BKN006 OVC060 26/24 A3005 RMK AO2 SLP165
     T02560239=
KSEE 081347Z 27005KT 4SM BR OVC009 16/13 A2992=
KSOW 081350Z AUTO 19005KT 10SM SCT120 19/04 A3028 RMK AO2=
KPQN 081353Z AUTO 32006KT 10SM CLR 21/15 A3017 RMK AO2=
KFGN 081354Z AUTO 29005KT 2SM HZ BKN070 18/14 A2999 RMK AO2 VIS
     3/4V5=
KPNM 081353Z AUTO 27007KT 10SM CLR 22/16 A3011 RMK AO2=
KPWC 081353Z AUTO 28006KT 10SM CLR 19/14 A3009 RMK AO2=
KFFM 081353Z AUTO 32003KT 10SM CLR 19/16 A3009 RMK AO2=
KGDB 081353Z AUTO 25005KT 10SM CLR 20/17 A3015 RMK AO2
     T02030166=
KAIT 081353Z AUTO 26005KT 10SM CLR 21/19 A3007 RMK AO2=
KGHW 081353Z AUTO 27006KT 10SM CLR 21/15 A3015 RMK AO2=
KMWM 081353Z AUTO 30005KT 10SM CLR 22/17 A3015 RMK AO2=
KULM 081355Z AUTO 31005KT 10SM CLR 21/16 A3014 RMK AO2=
KBBB 081353Z AUTO 27004KT 10SM CLR 21/17 A3012 RMK AO2=
KTWM 081353Z AUTO 24009KT 10SM CLR 22/16 A3003 RMK AO2 LTG DSNT
     S=
KMGG 081355Z AUTO 27005KT 10SM CLR 22/17 A3013 RMK AO2
     T02170167=
KMOX 081350Z AUTO 27007KT 10SM CLR 22/17 A3008 RMK AO2=
PAQT 081353Z AUTO 24013KT 10SM CLR 09/04 A3006 RMK AO2 SLP180
     T00940044 TSNO=
PASC 081353Z 24015KT 10SM OVC230 09/05 A3003 RMK AO2 SLP168
     T00890050=
PASI 081353Z 33003KT 1/4SM FG VV001 12/12 A3017 RMK AO2 SLP216
     T01220117=
PASN 081353Z 06010KT 1/2SM FG OVC001 05/05 A2992 RMK AO2 SLP133
     T00500050=
PASO 081353Z AUTO 00000KT 10SM OVC004 09/09 A2992 RMK AO2
     RAB1254E06 SLP133 P0001 T00940089 TSNO=
PATK 081353Z AUTO 00000KT 10SM CLR 10/09 A2999 RMK AO2 SLP156
     T01000089 TSNO=
PATO 081353Z AUTO 11020G37KT 070V140 8SM -RA FEW021 OVC029 12/10
     A3002 RMK AO2 PK WND 08037/1352 SLP164 P0001 T01170100
     TSNO=
PAYA 081353Z 00000KT 10SM OVC007 12/10 A3018 RMK AO2 SLP219 BAY
     TWR WND 090MMKT T01170100=
PAAQ 081353Z AUTO 17004KT 10SM CLR 12/08 A3000 RMK AO2 SLP154
     T01220083 TSNO=
PABE 081353Z 33003KT 10SM SCT035 SCT090 OVC120 10/10 A3000 RMK AO2
     SLP168 T00990097 PNO $=
PABI 081353Z AUTO 00000KT 10SM CLR 11/07 A3008 RMK AO2 SLP185
     T01110072 TSNO=
PABR 081353Z 24016KT 10SM FEW150 SCT190 SCT250 07/03 A2997 RMK AO2
     PK WND 24026/1338 SLP148 T00670028 $=
PABT 081353Z 31003KT 10SM FEW100 SCT140 11/08 A3007 RMK AO2 SLP188
     T01110083=
PACD 081353Z 11004KT 10SM FEW050 SCT180 06/04 A2988 RMK AO2 SLP120
     T00560039 $=
PACV 081353Z 14008G16KT 10SM FEW009 BKN032 OVC046 11/09 A3011 RMK
     AO2 SLP195 T01110094=
PADE 081353Z AUTO 21004KT 10SM CLR 03/03 A3013 RMK AO2 SLP202
     T00330028 TSNO=
PADQ 081353Z 30008KT 10SM FEW029 SCT042 OVC065 11/09 A2987 RMK AO2
     SLP115 T01060089 $=
PAEG 081353Z AUTO 00000KT 10SM CLR 09/05 A3005 RMK AO2 SLP177
     T00890050 TSNO=
PAEN 081353Z 04011KT 10SM OVC090 14/12 A2994 RMK AO2 SLP138
     T01440117=
PAFA 081353Z 05003KT 10SM FEW100 SCT200 11/08 A3004 RMK AO2 SLP175
     T01110078=
PAGK 081353Z AUTO 36003KT 10SM SCT100 08/07 A3005 RMK AO2 SLP179
     T00830067 TSNO=
PAGY 081353Z AUTO 00000KT 10SM CLR 11/09 A3018 RMK AO2 SLP221
     T01060089 TSNO=
PAHO 081353Z AUTO 09003KT 10SM OVC110 11/08 A2993 RMK AO2 SLP136
     T01060078 TSNO=
####018003709####
SAUS99 KWBC 081356 RRB
METAR
KRNT 081353Z 00000KT 9SM CLR 17/13 A2996 RMK AO2 SLP150
     T01670133=
KRSL 081353Z AUTO 35008KT 10SM OVC015 19/17 A3018 RMK AO2 SLP209
     T01940172=
KRSW 081353Z 04006KT 10SM CLR 28/23 A2998 RMK AO2 SLP151
     T02830228=
KRUE 081353Z AUTO 00000KT 10SM SCT045 27/23 A3009 RMK AO2 SLP180
     P0003 T02670233=
KRVS 081353Z 00000KT 10SM BKN023 24/23 A3005 RMK AO2 SLP180
     T02390228=
KRWF 081353Z AUTO 30007KT 10SM CLR 21/16 A3013 RMK AO2 SLP200
     T02110161=
KRWI 081353Z AUTO 05005KT 5SM HZ CLR 28/21 A2998 RMK AO2 RAB26E35
     SLP152 P0000 T02830206=
KRWL 081353Z AUTO 06006KT 10SM CLR 11/07 A3041 RMK AO2 SLP229
     T01110072=
KRXE 081353Z AUTO 07006KT 10SM CLR 12/06 A3025 RMK AO2 SLP206
     T01220056=
KSAC 081353Z 18006KT 10SM CLR 13/10 A2986 RMK AO2 SLP112
     T01330100=
KSAF 081353Z 11003KT 10SM CLR 16/10 A3036 RMK AO2 SLP193
     T01560100=
KZZV 081353Z AUTO 21003KT 7SM CLR 28/22 A3009 RMK AO2 SLP179
     T02780217=
KSPA 081355Z AUTO 36004KT 10SM CLR 30/23 A3003 RMK AO2=
KSPL 081355Z AUTO 00000KT 27/26 A2975 RMK AO2 PWINO PNO=
KSSI 081353Z AUTO 30007KT 10SM CLR 28/20 A3001 RMK AO2 SLP162
     T02780200=
KSZT 081350Z AUTO 00000KT 10SM CLR 14/10 A3012 RMK AO2=
KTEX 081354Z AUTO 00000KT 10SM CLR 14/04 A3047 RMK AO2=
KTIF 081350Z AUTO 30004KT 10SM BKN120 19/14 A3028 RMK AO2
     T01850144=
KTRL 081353Z AUTO 11006KT 10SM BKN012 BKN070 28/23 A3005 RMK AO2
     SLP169 T02780228=
KUTA 081355Z AUTO 00000KT 10SM CLR 28/22 A3009 RMK AO2=
KABY 081353Z 00000KT 10SM CLR 29/22 A3006 RMK AO2 SLP176
     T02890217=
KAMG 081353Z AUTO 29006KT 10SM CLR 29/20 A3002 RMK AO2 SLP164
     T02890200=
KBDN 081355Z AUTO 20004KT 10SM CLR 14/03 A3012 RMK AO2=
KBRO 081353Z 32006KT 10SM FEW033 SCT060 27/25 A2979 RMK AO2 SLP085
     T02670250=
KCEW 081353Z AUTO 00000KT 10SM CLR 29/24 A3005 RMK AO2 SLP173
     T02940244=
KCGC 081355Z AUTO 00000KT 10SM CLR 28/22 A3002 RMK=
KCRE 081353Z 02006KT 8SM CLR 31/22 A2993 RMK AO2 SLP136
     T03110217=
KCRG 081353Z 26005KT 10SM CLR 28/19 A3002 RMK AO2 SLP166
     T02780194=
KCUB 081353Z AUTO 33004KT 10SM CLR 32/20 A3000 RMK AO2 SLP156
     T03170200=
KDAL 081353Z 12007KT 9SM BKN011 BKN036 OVC049 26/24 A3004 RMK AO2
     RAE11 SLP166 CIG 009V016 P0000 T02610239=
KDFW 081353Z 13004KT 10SM FEW013 BKN050 OVC060 26/24 A3004 RMK AO2
     RAE31 SLP163 P0000 T02560239=
KDTN 081353Z 10005KT 10SM FEW090 27/24 A3006 RMK AO2 SLP177
     T02670239=
KDYB 081355Z AUTO 31006KT 10SM CLR 30/21 A2996 RMK AO1=
KECP 081353Z 36003KT 10SM CLR 29/24 A3003 RMK AO2 SLP178
     T02940239=
KEGE 081350Z 00000KT 10SM SKC 12/09 A3040=
KEKM 081355Z 00000KT 2 1/2SM VCTS RA SCT030 BKN049 OVC070 24/23
     A3005 RMK AO2=
KELD 081353Z AUTO 13003KT 9SM CLR 26/24 A3008 RMK AO2 SLP181
     T02560239=
KFLO 081353Z 33005KT 10SM CLR 31/20 A2996 RMK AO2 SLP141
     T03060200=
KGEU 081349Z 00000KT 20SM SCT120 SCT200 29/04 A2982=
KGKJ 081353Z AUTO 00000KT 10SM CLR 28/19 A3010 RMK AO2 SLP179
     T02830189=
KGNV 081353Z 00000KT 10SM CLR 28/21 A3002 RMK AO2 SLP164
     T02780211=
KGOK 081353Z AUTO 32004KT 10SM SCT007 24/22 A3007 RMK AO2 SLP172
     T02440217=
KINK 081353Z AUTO 04008KT 10SM BKN024 OVC090 23/19 A3012 RMK AO2
     RAB1255E09 SLP158 P0000 T02280194 TSNO=
KL35 081353Z AUTO 00000KT 10SM CLR 08/M03 A3019 RMK AO2=
KLAW 081353Z 01006KT 10SM FEW090 26/23 A3006 RMK AO2 SLP169
     T02610228=
KLBB 081353Z 07006KT 10SM SCT006 BKN037 OVC110 20/18 A3018 RMK AO2
     SLP177 T02000183=
KMAF 081353Z 04008KT 10SM FEW007 SCT015 OVC022 22/20 A3013 RMK AO2
     SLP162 T02170200=
####018000177####
SAUS98 KWBC 081356
METAR PATC 081355Z AUTO 36004KT 10SM CLR 09/06 A3013 RMK AO1
T00890062=
METAR PAEH 081355Z AUTO 13003KT 10SM OVC060 09/M28 A2997 RMK AO1
T00941283=
####018001432####
SAUS99 KWBC 081356 RRD
METAR
PAIL 081353Z 08003KT 1/4SM -RA FG BKN001 OVC070 08/08 A2995 RMK
     AO2 RAE02B31 SLP145 P0000 T00830083=
PAJN 081353Z 00000KT 10SM FEW140 BKN200 10/08 A3016 RMK AO2 SLP214
     T01000083=
PAKT 081353Z AUTO 35010KT 10SM CLR 18/11 A3008 RMK AO2 SLP187
     T01780111 TSNO=
PAKV 081353Z AUTO 00000KT 10SM CLR 07/06 A3010 RMK AO2 SLP196
     T00670056 TSNO=
PAKW 081353Z AUTO 00000KT 10SM CLR 12/11 A3012 RMK AO2 SLP200
     T01220111 TSNO=
PALH 081353Z 04003KT 10SM SCT065 BKN080 OVC090 13/11 A3000 RMK AO2
     RAE53 SLP160 P0001 T01330111=
PAMC 081353Z 25004KT 10SM FEW080 SCT200 11/07 A2999 RMK AO2 SLP158
     T01110072=
PAMR 081353Z 09004KT 10SM -RA FEW020 SCT070 BKN085 BKN200 13/11
     A2999 RMK AO2 SLP157 P0000 T01280111 $=
PANC 081353Z 00000KT 10SM FEW045 BKN080 BKN200 12/12 A2999 RMK AO2
     RAB04E43 SLP157 P0001 T01220117=
PANN 081353Z AUTO 00000KT 10SM CLR 09/08 A3001 RMK AO2 RAB24E35
     SLP167 P0000 T00890078 TSNO=
PANT 081353Z 33005KT 10SM CLR 18/12 A3007 RMK AO2 SLP184
     T01780117=
PAOM 081353Z 35008KT 10SM SCT200 12/08 A3007 RMK AO2 SLP184
     T01220078=
PAOR 081353Z 00000KT 10SM FEW070 11/08 A3007 RMK AO2 SLP180
     T01060083=
PAOT 081353Z 30009KT 10SM FEW038 SCT090 BKN200 11/06 A3011 RMK AO2
     SLP197 T01110056=
PAPB 081353Z AUTO 06017G22KT 10SM OVC046 06/06 A2989 RMK AO2
     SLP109 T00610056 TSNO=
####018003703####
SAUS90 KWBC 081400
METAR KABI 081352Z 00000KT 9SM OVC005 23/22 A3008 RMK AO2 SLP165
     T02280217=
METAR K9V9 081352Z AUTO 25005KT 18/14 A3020 RMK AO2 SLP220
     T01830139 PWINO TSNO=
METAR KP69 081352Z AUTO 00000KT 11/10 A3014 RMK AO2 SLP195
     T01110100 PWINO TSNO=
METAR KCZZ 081352Z AUTO 00000KT 09/09 A2990 RMK AO2 SLP102
     T00940094 PWINO TSNO=
METAR KN60 081352Z AUTO 25003KT 18/14 A3014 RMK AO1 SLP202
     T01780139=
METAR KCGS 081355Z AUTO 00000KT 7SM SCT110 31/23 A3002 RMK AO1=
METAR K2G4 081350Z AUTO 34004KT 10SM CLR 25/15 A3019 RMK AO1=
METAR KCBE 081353Z AUTO 00000KT 7SM CLR 27/20 A3010 RMK AO1=
METAR K2W6 081353Z AUTO 10006KT 10SM BKN016 BKN022 BKN070 27/23
     A3004 RMK AO1=
METAR KCGE 081351Z AUTO 14007KT 10SM CLR 28/23 A3003 RMK AO1=
METAR KFDK 081353Z AUTO 00000KT 7SM CLR 34/22 A3005 RMK AO2=
METAR KW29 081353Z AUTO 16008KT 7SM CLR 28/22 A3002 RMK AO1=
METAR KDMW 081352Z AUTO 14003KT 7SM CLR 31/22 A3005 RMK AO2=
METAR KFME 081354Z AUTO 10005KT 7SM CLR 27/22 A3004 RMK AO1=
METAR KUIL 081353Z AUTO 00000KT 10SM CLR 16/11 A2997 RMK AO2
     SLP146 T01560111 TSNO=
METAR KRTN 081353Z AUTO 35005KT 10SM CLR 17/11 A3038 RMK AO2
     SLP216 T01720106 TSNO=
METAR KCQC 081353Z AUTO 08008KT 10SM SCT110 13/10 A3040 RMK AO2
     SLP229 T01280100 TSNO=
METAR KFAR 081353Z 27005KT 10SM CLR 21/13 A3008 RMK AO2 SLP185
     T02110133=
METAR KTLH 081353Z 33005KT 10SM CLR 29/22 A3003 RMK AO2 SLP168
     T02890222=
METAR K6R6 081353Z AUTO 05004KT 23/21 A3005 RMK AO2 SLP142 P0001
     T02280211 PWINO TSNO=
METAR KSAV 081353Z 29008KT 10SM CLR 30/19 A3000 RMK AO2 SLP156
     T03000194 $=
METAR KHTL 081353Z AUTO 25006KT 6SM -RA BR FEW009 BKN041 OVC065
     22/21 A3005 RMK AO2 SLP170 P0003 T02220211=
METAR KMSN 081353Z 32004KT 8SM BKN008 24/21 A3003 RMK AO2 SLP164
     T02390211=
METAR KMWT 081353Z AUTO 00000KT 10SM FEW017 BKN049 26/23 A3008 RMK
     AO2 SLP177 T02560233 TSNO=
METAR KGNT 081353Z AUTO 15012KT 17/09 A3034 RMK AO2 SLP183
     T01720094 PWINO TSNO=
METAR KMSY 081353Z 09005KT 10SM SCT022 BKN250 29/23 A3004 RMK AO2
     SLP175 T02890233=
METAR KBTV 081354Z 20006KT 7SM CLR 29/22 A3001 RMK AO2 SLP161
     T02940222=
METAR KCHA 081353Z 00000KT 9SM CLR 30/20 A3008 RMK AO2 SLP177
     T03000200=
METAR KDNK 081353Z AUTO 09006KT 9SM SCT011 27/23 A3004 RMK AO2
     SLP169 T02720233=
METAR KSGR 081353Z 07007KT 10SM FEW039 SCT085 25/23 A2996 RMK AO2
     SLP152 T02500228=
METAR KRNM 081353Z AUTO 00000KT 5SM BR OVC004 14/13 A2992 RMK AO2
     SLP122 T01390128 TSNO=
METAR KCTY 081353Z AUTO 00000KT 27/23 A3002 RMK AO2 SLP165
     T02720228 PWINO TSNO=
METAR K40J 081353Z AUTO 31004KT 28/22 A3002 RMK AO2 SLP164
     T02780222 PWINO TSNO=
METAR KCRP 081351Z COR 03006KT 10SM SCT022 SCT040 BKN060 27/25
     A2985 RMK AO2 RAE31 SLP106 CB DSNT E TCU DSNT NE SE S SW
     P0001 T02670250 $=
METAR KTCS 081353Z AUTO 02010KT 10SM FEW110 19/14 A3022 RMK AO2
     SLP165 T01940139 TSNO=
METAR PGUM 081354Z 11008KT 10SM FEW020 28/24 A2990 RMK AO2 SLP117
     T02780244 403220261=
METAR KLXV 081353Z AUTO 00000KT 10SM OVC008 07/05 A3053 RMK AO2
     CIG 005V012 SLP213 T00670050 TSNO=
METAR KRIL 081353Z AUTO 00000KT 10SM CLR 16/07 A3029 RMK AO2
     SLP201 T01560072 TSNO=
METAR KJAN 081354Z 06005KT 10SM CLR 28/23 A3008 RMK AO2 SLP180
     T02830228=
METAR KPQN 081353Z AUTO 32006KT 10SM CLR 21/15 A3017 RMK AO2=
METAR KFGN 081354Z AUTO 29005KT 2SM HZ BKN070 18/14 A2999 RMK AO2
     VIS 3/4V5=
METAR KPNM 081353Z AUTO 27007KT 10SM CLR 22/16 A3011 RMK AO2=
METAR KPWC 081353Z AUTO 28006KT 10SM CLR 19/14 A3009 RMK AO2=
####018001788####
SAUS90 KWBC 081400 RRA
METAR KFFM 081353Z AUTO 32003KT 10SM CLR 19/16 A3009 RMK AO2=
METAR KGDB 081353Z AUTO 25005KT 10SM CLR 20/17 A3015 RMK AO2
     T02030166=
METAR KAIT 081353Z AUTO 26005KT 10SM CLR 21/19 A3007 RMK AO2=
METAR KGHW 081353Z AUTO 27006KT 10SM CLR 21/15 A3015 RMK AO2=
METAR KMWM 081353Z AUTO 30005KT 10SM CLR 22/17 A3015 RMK AO2=
METAR KULM 081355Z AUTO 31005KT 10SM CLR 21/16 A3014 RMK AO2=
METAR KBBB 081353Z AUTO 27004KT 10SM CLR 21/17 A3012 RMK AO2=
METAR KTWM 081353Z AUTO 24009KT 10SM CLR 22/16 A3003 RMK AO2 LTG
     DSNT S=
METAR KMGG 081355Z AUTO 27005KT 10SM CLR 22/17 A3013 RMK AO2
     T02170167=
METAR KMOX 081350Z AUTO 27007KT 10SM CLR 22/17 A3008 RMK AO2=
METAR KCUT 081353Z AUTO 00000KT 10SM CLR 14/08 A3036 RMK AO2
     SLP236 T01440078 TSNO=
METAR KRQE 081353Z AUTO 00000KT 10SM CLR 19/08 A3030 RMK AO2
     SLP131 T01940078 TSNO=
METAR KP92 081353Z AUTO VRB04KT 28/26 A3001 RMK AO2 SLP163
     T02830256 PWINO TSNO=
METAR KP68 081353Z AUTO 20003KT 14/M01 A3018 RMK AO2 SLP139
     T01391011 PWINO TSNO=
METAR KFWA 081354Z 20006KT 9SM OVC050 28/21 A3005 RMK AO2 SLP170
     T02830211=
METAR KCAR 081354Z AUTO 18004KT 9SM CLR 27/22 A3001 RMK AO2 SLP160
     T02670217=
METAR KSBN 081354Z 10005KT 7SM BKN090 23/22 A3004 RMK AO2 RAE38
     SLP166 P0005 T02330217=
METAR KCOU 081354Z 13003KT 10SM FEW003 SCT014 OVC024 24/23 A3009
     RMK AO2 SLP180 T02390228=
METAR K1V4 081354Z AUTO 28/22 A3004 RMK AO2 SLP158 T02780222 PWINO
     TSNO=
METAR KMQE 081354Z AUTO 15007KT 26/19 A3011 RMK AO1 SLP200
     T02610189=
METAR KAVP 081354Z 00000KT 7SM CLR 29/19 A3006 RMK AO2 SLP167
     T02890189 $=
METAR K12N 081354Z AUTO 00000KT 29/22 A3006 RMK AO2 SLP168
     T02890217 PWINO TSNO=
####018000228####
SAUS90 KWBC 081400 CCA
METAR KSNT 081351Z AUTO 00000KT 05/01 A3035 RMK AO2 SLP196
     T00500006 PWINO TSNO=
METAR KSMX 081351Z 30004KT 2 1/2SM BR BKN004 OVC008 12/11 A2994
     RMK AO2 CIG 002V007 SLP141 T01170111 $=
####018003697####
SAUS99 KWBC 081356
METAR
KSAN 081351Z 31003KT 10SM OVC013 16/14 A2993 RMK AO2 SLP135
     T01610139=
KSAT 081353Z 05008KT 6SM BR BKN009 OVC045 26/23 A2997 RMK AO2
     RAB09E35 SLP130 SHRA VC E P0000 T02560233=
KSBA 081353Z 20004KT 8SM OVC011 14/12 A2991 RMK AO2 SLP130
     T01440122 $=
KSBM 081353Z AUTO VRB03KT 10SM BKN010 25/22 A3001 RMK AO2 SLP157
     T02500217=
KSDL 081353Z 00000KT 10SM CLR 29/09 A2985 RMK AO2 SLP076
     T02940094=
KSEA 081353Z 02006KT 10SM CLR 21/12 A2997 RMK AO2 SLP152
     T02060122=
KSEG 081353Z AUTO 08004KT 7SM CLR 33/19 A3003 RMK AO2 SLP166
     T03280189=
KSFF 081353Z 00000KT 10SM CLR 18/10 A3008 RMK AO2 SLP170
     T01780100=
KSHN 081353Z AUTO 00000KT 10SM CLR 14/12 A2994 RMK AO2 SLP138
     T01390117=
KSHR 081353Z AUTO 00000KT 10SM CLR 14/08 A3027 RMK AO2 SLP231
     T01390083=
KSIY 081353Z AUTO 00000KT 10SM CLR 17/09 A2999 RMK AO2 SLP140
     T01670089 $=
KSJC 081353Z 00000KT 7SM FEW008 BKN011 OVC013 15/12 A2993 RMK AO2
     SLP135 T01500117=
KSLC 081353Z 14004KT 10SM FEW090 BKN130 22/07 A3012 RMK AO2 SLP144
     T02170072=
KSLN 081353Z 36011KT 10SM BKN010 22/19 A3015 RMK AO2 SLP198
     T02170194=
KSMF 081353Z 15009KT 10SM CLR 14/11 A2985 RMK AO2 SLP107
     T01390106=
KSMQ 081353Z AUTO 19003KT 5SM HZ OVC022 27/23 A3003 RMK AO2 SLP167
     T02720228=
KSNA 081353Z 22003KT 6SM HZ OVC015 18/13 A2992 RMK AO2 SLP129
     T01830128=
KSNS 081353Z 27003KT 6SM BR OVC009 13/11 A2994 RMK AO2 SLP147
     T01280106=
KSNY 081353Z AUTO 04004KT 10SM FEW003 SCT042 17/15 A3033 RMK AO2
     SLP238 T01720150=
KSPB 081353Z AUTO 00000KT 9SM CLR 17/14 A2992 RMK AO2 SLP130
     T01670139 $=
KSPG 081353Z 09005KT 10SM CLR 27/22 A3000 RMK AO2 SLP158
     T02720222=
KSPW 081353Z AUTO 32004KT 10SM CLR 21/16 A3017 RMK AO2 SLP211
     T02110161=
KSRQ 081353Z 07005KT 10SM CLR 28/23 A3000 RMK AO2 SLP157
     T02780228=
KSSF 081353Z 05011G15KT 10SM SCT012 BKN027 27/23 A2994 RMK AO2
     SLP127 T02670233=
KSTC 081353Z 30009KT 10SM CLR 23/14 A3010 RMK AO2 SLP198
     T02330139=
KSTJ 081353Z 02010KT 10SM OVC011 23/21 A3011 RMK AO2 SLP190
     T02280206=
KSTP 081353Z 32003KT 10SM CLR 23/17 A3011 RMK AO2 SLP191
     T02280167=
KSTS 081353Z 00000KT 10SM OVC004 12/10 A2992 RMK AO2 SLP125
     T01170100=
KSWO 081353Z 01005KT 9SM OVC004 24/22 A3007 RMK AO2 SLP171
     T02440222=
KTCC 081353Z AUTO 05007KT 10SM OVC090 18/15 A3025 RMK AO2 SLP191
     T01780150=
KTCL 081353Z 36004KT 10SM CLR 31/22 A3005 RMK AO2 SLP174
     T03110222=
KTDZ 081353Z AUTO 24005KT 10SM CLR 30/21 A3004 RMK AO2 SLP167
     T03000206=
KTHV 081353Z AUTO 00000KT 6SM HZ CLR 30/22 A3003 RMK AO2 SLP165
     T03000222=
KTIW 081353Z AUTO 00000KT 10SM CLR 20/12 A2996 RMK AO2 SLP141
     T02000122=
KTMB 081353Z 09007KT 10SM CLR 32/25 A2997 RMK AO2 SLP147
     T03170250=
KTOI 081353Z 00000KT 10SM CLR 29/24 A3005 RMK AO2 SLP169
     T02940239=
KTOP 081353Z 02007KT 9SM OVC007 24/22 A3012 RMK AO2 SLP190
     T02390217=
KTOR 081353Z AUTO 32004KT 10SM CLR 14/11 A3031 RMK AO2 SLP234
     T01440111=
KTPA 081353Z 00000KT 10SM FEW030 SCT200 28/21 A3001 RMK AO2 SLP162
     T02780206=
KTTD 081353Z AUTO 00000KT 10SM CLR 18/15 A2991 RMK AO2 SLP127
     T01830150=
KTTN 081353Z 18006KT 2 1/2SM HZ BKN013 BKN022 28/23 A3004 RMK AO2
     SLP164 T02830233=
KTUL 081353Z 00000KT 10SM SCT006 BKN090 OVC100 24/23 A3004 RMK AO2
     SLP166 T02440233=
KTUS 081353Z 09005KT 10SM CLR 30/11 A2994 RMK AO2 SLP082
     T03000106=
KTVC 081353Z 00000KT 7SM SCT006 BKN011 OVC030 23/22 A2999 RMK AO2
     RAB01E51 SLP153 P0001 T02280217=
####018003724####
SAUS99 KWBC 081356 RRA
METAR
KTVL 081353Z AUTO 00000KT 10SM CLR 10/06 A3018 RMK AO2 SLP160
     T01000056=
KTVR 081353Z AUTO 00000KT 10SM CLR 28/23 A3007 RMK AO2 SLP189
     T02780233=
KTWF 081353Z 07009KT 10SM CLR 18/04 A3015 RMK AO2 SLP157
     T01780039=
KUAO 081353Z AUTO 00000KT 10SM CLR 17/12 A2994 RMK AO2 SLP136
     T01720122=
KUES 081345Z 28007KT 10SM OVC012 22/19 A3004=
KUNO 081353Z AUTO 22005KT 10SM BKN055 BKN085 25/22 A3011 RMK AO2
     SLP180 T02500222 TSNO=
KUTS 081353Z AUTO 09003KT 7SM BKN007 25/24 A3001 RMK AO2 CIG
     005V010 SLP157 T02500239=
KUUU 081353Z AUTO 11006KT 10SM OVC005 23/21 A3011 RMK AO2 SLP192
     T02330211=
KVCB 081353Z AUTO 23004KT 10SM CLR 15/10 A2985 RMK AO2 SLP107
     T01500100=
KVEL 081353Z AUTO 00000KT 10SM CLR 18/06 A3027 RMK AO2 SLP189
     T01780061=
KVGT 081353Z 32007KT 10SM CLR 27/M02 A2988 RMK AO2 SLP080
     T02721022=
KVIH 081353Z AUTO 00000KT 10SM OVC005 24/22 A3008 RMK AO2 RAE12
     CIG 003V007 SLP175 P0000 T02440222=
KVPC 081353Z AUTO 00000KT 8SM CLR 28/21 A3007 RMK AO2 SLP169
     T02780211=
KVPZ 081353Z AUTO 14006KT 4SM -RA BR SCT027 24/23 A3004 RMK AO2
     RAB14 SLP167 P0000 T02390228=
KVRB 081353Z 04007KT 10SM FEW025 29/21 A2999 RMK AO2 SLP155
     T02890206=
KVUO 081353Z AUTO 00000KT 10SM CLR 18/14 A2992 RMK AO2 SLP130
     T01830139=
KWRL 081353Z AUTO 00000KT 10SM CLR 15/05 A3029 RMK AO2 SLP223
     T01500050=
KWST 081353Z AUTO 09005KT 10SM FEW006 SCT010 26/22 A3009 RMK AO2
     SLP188 T02560217=
KWVI 081353Z AUTO 00000KT 9SM OVC007 13/11 A2995 RMK AO2 SLP141
     T01280106=
KXNA 081353Z 17004KT 10SM OVC015 23/22 A3010 RMK AO2 SLP177
     T02330217=
KYIP 081353Z VRB03KT 10SM CLR 31/21 A3004 RMK AO2 SLP164 T03060206
     $=
KYKM 081353Z 25005KT 10SM CLR 18/08 A3003 RMK AO2 SLP160
     T01780078=
KPOF 081353Z AUTO 24005KT 10SM FEW065 29/23 A3006 RMK AO2 SLP174
     T02890233=
KPOU 081353Z 13008KT 7SM CLR 29/22 A3004 RMK AO2 SLP167
     T02890222=
KPQL 081353Z 00000KT 10SM CLR 28/24 A3005 RMK AO2 SLP176
     T02830244=
KPRB 081353Z AUTO 35003KT 7SM OVC005 12/11 A2993 RMK AO2 SLP131
     T01220106=
KPRC 081353Z 00000KT 10SM CLR 20/02 A3013 RMK AO2 SLP111
     T02000017=
KPSC 081353Z 00000KT 10SM CLR 18/11 A2999 RMK AO2 SLP153
     T01830111=
KPSP 081353Z VRB04KT 10SM CLR 26/12 A2977 RMK AO2 SLP077
     T02560117=
KPSX 081353Z AUTO 14014G23KT 3SM -RA BR FEW002 28/26 A2990 RMK AO2
     RAE13B52 SLP125 P0004 T02780256=
KPTK 081353Z 23004KT 10SM FEW150 SCT240 30/21 A3003 RMK AO2 SLP159
     T03000206=
KPUB 081353Z 12005KT 10SM CLR 16/13 A3031 RMK AO2 SLP216
     T01610128=
KPUC 081353Z AUTO 30003KT 10SM CLR 19/03 A3025 RMK AO2 SLP161
     T01940028 TSNO=
KPUW 081353Z AUTO 09008KT 10SM CLR 18/08 A3008 RMK AO2 SLP169
     T01830078=
KRAC 081353Z AUTO 28006KT 10SM SCT010 OVC017 24/22 A3004 RMK AO2
     SLP166 T02440217=
KRAL 081353Z 00000KT 3SM BR OVC007 15/13 A2993 RMK AO2 SLP121
     T01500128=
KRBG 081353Z AUTO 00000KT 10SM CLR 16/12 A2995 RMK AO2 SLP139
     T01610117=
KRDD 081353Z 18008KT 10SM CLR 22/14 A2984 RMK AO2 SLP099
     T02220144=
KRHI 081353Z AUTO 32006KT 10SM CLR 21/16 A3007 RMK AO2 SLP178
     T02060161=
KRHV 081350Z 27006KT 4SM BR OVC009 15/12 A2993=
KRIW 081353Z AUTO 33004KT 10SM CLR 14/06 A3035 RMK AO2 SLP227
     T01390061=
KRKP 081353Z AUTO 00000KT 2SM VCTS +RA FEW011 BKN027 OVC055 A2987
     RMK AO2 VIS 1 1/2V5 LTG DSNT SW TSB52RAE05B32 SLP118 P0025
     FZRANO $=
KRME 081353Z 00000KT 8SM CLR 28/21 A3007 RMK AO2 SLP174
     T02830211=
KRMG 081353Z AUTO 02004KT 10SM CLR 29/19 A3006 RMK AO2 SLP168
     T02940189=
####018000139####
SAKA31 PTYA 081400
METAR PTYA 081352Z VRB05KT 12SM SCT016CB BKN130 OVC300 27/24 A2990
RMK LTGIC SW-W CB VC SE-SW-NW SLP123 T02740238=
####018000121####
SAMX53 MMMZ 081400
METAR MMCN 081353Z 00000KT 10SM  BKN080 BKN200 27/19 A2974 
      RMK 8/055 RTS=





TX_OPMET
####018000139####
SAPY SGAS 081400
METAR SGAS 081400Z 12006KT 9000 BKN010 OVC015 18/15 Q1016=
METAR SGES 081400Z 15006KT 9999 FEW030 BKN080 20/17 Q1016=
####018000546####
SANO32 ENMI 081350
METAR ENAL 081350Z 23016KT 9999 VCSH SCT047TCU SCT070 17/10 Q1010=
METAR ENCN 081350Z 19012KT 9999 FEW010 BKN070 17/15 Q1016=
METAR ENHD 081350Z 21012KT 9999 FEW035 16/12 Q1015=
METAR ENRO 081350Z 12006KT 080V220 9999 SCT050 BKN100 18/10 Q1011=
METAR ENRY 081350Z 19010KT 150V230 9999 -RA SCT007 BKN011 17/15
           Q1016=
METAR ENSB 081350Z 26014KT 9999 FEW010 SCT035 BKN0090 09/05 Q1009 =
METAR ENTC 081350Z 03008KT 9999 FEW065 SCT090 19/08 Q1010 NOSIG=
METAR ENTO 081350Z 20012KT 9000 -DZ BKN005 16/15 Q1016=
####018000335####
SANO37 ENMI 081350
METAR ENNO 081350Z 14011G18KT 9999 SCT025 BKN075 20/14 Q1013=
METAR ENOV 081350Z VRB07G17KT 9999 VCSH FEW040 SCT055TCU 18/08 Q1011
           =
METAR ENSD 081350Z NIL=
METAR ENSG 081350Z NIL=
METAR ENSN 081350Z 19012KT 150V220 8000 SCT007 BKN11 17/15 Q1015=
METAR ENSR 081350Z NIL=
METAR ENSS 081350Z NIL=
####018000101####
SAUK31 EGGY 081350 CCA
METAR COR EGCC 081350Z 20009KT 160V230 9999 SCT038 21/10 Q1017
    NOSIG=
####018000363####
SABX31 EBBR 081350
METAR EBAW 081350Z 24006KT 160V290 CAVOK 31/13 Q1018 NOSIG=
METAR EBBR 081350Z 17006KT 130V200 CAVOK 30/11 Q1019 NOSIG=
METAR EBCI 081350Z VRB06KT CAVOK 30/10 Q1019 NOSIG=
METAR EBLG 081350Z VRB02KT CAVOK 31/08 Q1019 NOSIG=
METAR EBOS 081350Z 34005KT 310V020 CAVOK 22/15 Q1019 NOSIG=
METAR ELLX 081350Z VRB04KT CAVOK 30/08 Q1020 NOSIG=
####018000092####
SPUS70 KWBC 081356
SPECI
KISP 081352Z 12007KT 10SM SCT016 BKN130 27/20 A3005 RMK AO2=
####018003695####
SAUS70 KWBC 081400 RRF
METAR
KHRO 081353Z AUTO 18004KT 10SM BKN050 24/22 A3011 RMK AO2 SLP181
     T02440217=
KHUF 081353Z 25004KT 10SM CLR 29/23 A3005 RMK AO2 SLP170 T02890228
     $=
KHUL 081353Z AUTO 19008KT 150V220 6SM HZ CLR 26/21 A3003 RMK AO2
     SLP168 T02560211=
KHVN 081353Z 10007KT 080V140 10SM OVC055 26/22 A3007 RMK AO2
     SLP182 T02610222=
KHWO 081353Z AUTO 07006KT 10SM CLR 31/23 A2998 RMK AO2 SLP151
     T03060233=
KHYR 081353Z AUTO VRB03KT 10SM CLR 22/16 A3009 RMK AO2 SLP184
     T02170156=
KHZY 081353Z AUTO 19005KT 10SM FEW090 28/21 A3008 RMK AO2 SLP178
     T02830206=
KIAH 081353Z 09008KT 6SM TSRA BR FEW007 SCT025CB BKN070 OVC130
     24/24 A2998 RMK AO2 SLP153 OCNL LTGIC VC NW-N E TS VC NW-NE E
     MOV NW P0018 T02440239=
KIBM 081350Z AUTO 00000KT 10SM BKN035 OVC075 14/11 A3033 RMK AO2
     T01360110=
KICR 081353Z AUTO 29006KT 10SM CLR 21/12 A3023 RMK AO2 SLP224
     T02110122 TSNO $=
KICT 081353Z 36009KT 9SM OVC009 23/21 A3012 RMK AO2 SLP187
     T02330211=
KIDA 081353Z 01007KT 10SM CLR 13/07 A3022 RMK AO2 SLP198
     T01330072=
KILM 081353Z 04009KT 7SM CLR 31/22 A2994 RMK AO2 SLP138
     T03060222=
KIML 081353Z AUTO 02003KT 10SM SCT100 19/15 A3029 RMK AO2 SLP239
     T01890150=
KIPL 081353Z AUTO 13007KT 10SM CLR 26/13 A2972 RMK AO2 SLP065
     T02560133=
KITR 081353Z AUTO 00000KT 10SM BKN006 BKN075 OVC100 17/15 A3032
     RMK AO2 RAB09E34 SLP230 P0000 T01670150=
KLPR 081353Z AUTO 19005KT 8SM CLR 29/21 A3006 RMK AO2 SLP172
     T02940206=
KLSE 081353Z 33007KT 10SM CLR 23/18 A3007 RMK AO2 SLP172
     T02330183=
KLUK 081353Z 00000KT 5SM HZ CLR 28/23 A3007 RMK AO2 SLP178
     T02830233=
KLVJ 081353Z AUTO 06004KT 8SM CLR 26/23 A2997 RMK AO2 RAE01B21E50
     SLP149 P0000 T02560233=
KLVK 081353Z 28005KT 10SM OVC008 13/11 A2992 RMK AO2 SLP129
     T01330111=
KLVM 081353Z AUTO 29003KT 10SM CLR 10/05 A3030 RMK AO2 SLP233
     T01000050=
KLVS 081353Z AUTO 01006KT 10SM SCT014 12/10 A3041 RMK AO2 SLP220
     T01170100 TSNO=
KLWV 081353Z AUTO 27004KT 7SM FEW044 29/23 A3005 RMK AO2 SLP170
     T02940228=
KLXN 081350Z AUTO 33003KT 10SM BKN065 BKN100 19/17 A3025 RMK AO2
     T01920168=
KLXT 081353Z AUTO 05005KT 10SM OVC008 23/21 A3011 RMK AO2 SLP189
     T02280206=
KMAE 081353Z AUTO 29004KT 10SM CLR 17/11 A2985 RMK AO2 SLP106
     T01670106=
KMBS 081353Z 25003KT 10SM SCT070 25/22 A3003 RMK AO2 SLP163
     T02500217=
KMCB 081353Z AUTO 10SM 27/23 A3008 RMK AO2 SLP178 T02720233 $=
KMCE 081353Z AUTO 29005KT 10SM CLR 17/11 A2985 RMK AO2 SLP105
     T01670106=
KMCI 081353Z 03005KT 1 3/4SM BR BKN004 OVC015 24/23 A3011 RMK AO2
     SFC VIS 6 SLP186 T02440228=
KMCK 081353Z AUTO 00000KT 10SM SCT049 18/16 A3027 RMK AO2 SLP235
     T01830161=
KMCO 081353Z VRB03KT 10SM SCT026 SCT250 27/19 A3002 RMK AO2 SLP163
     T02720194=
KMCW 081353Z AUTO 35009KT 10SM CLR 21/17 A3016 RMK AO2 SLP202
     T02060172=
KMEM 081353Z 32004KT 10SM FEW150 SCT250 30/22 A3009 RMK AO2 SLP183
     T03000217=
KMFE 081353Z 35009KT 10SM BKN008 OVC013 27/24 A2982 RMK AO2 SLP096
     T02670244=
KMFR 081353Z 01003KT 10SM SCT110 19/12 A2993 RMK AO2 SLP122
     T01890122=
KMGW 081353Z 00000KT 6SM HZ CLR 27/18 A3012 RMK AO2 SLP185
     T02720183=
KMGY 081353Z AUTO 21005KT 6SM HZ CLR 28/21 A3008 RMK AO2 SLP176
     T02780211=
KMHE 081353Z AUTO 28006KT 10SM CLR 21/15 A3019 RMK AO2 SLP216
     T02110150 TSNO=
KMHT 081353Z 20004KT 7SM BKN020 BKN043 BKN110 27/21 A3007 RMK AO2
     SLP189 T02720211=
KMIA 081353Z 07008KT 10SM BKN022TCU BKN130 BKN300 29/24 A2997 RMK
     AO2 SLP148 TCU N-OHD-SE-S T02940239=
####018000092####
SADN32 EKCH 081350 RRA
METAR EKVD 081350Z 27008KT 9999 FEW025 SCT050 BKN100 20/16 Q1019=
####018000090####
SAOS32 LOWM 081350
METAR LOXZ 081350Z 07006KT 70KM FEW070CU 25/08 Q1022 NOSIG RMK FEW=
####018000073####
SASD20 OEJD 081300 RRB
METAR OEKJ 081300Z 02015KT CAVOK 44/M04 Q1005=
####018000321####
SAFI33 EFHK 081350
EFJO 081350Z AUTO 32006KT 280V020 CAVOK 29/16 Q1014=
EFLP 081350Z AUTO 18007KT 110V250 CAVOK 31/11 Q1013=
EFMI 081350Z AUTO 35005KT 270V090 CAVOK 29/19 Q1013=
EFSA 081350Z VRB04KT 9999 FEW055TCU FEW055CB 30/16 Q1013=
EFUT 081350Z AUTO 17007KT 140V220 CAVOK 30/12 Q1013=
METAR EFVR 081355Z NIL=
####018003714####
SAUS70 KWBC 081400 RRE
METAR
KHEI 081353Z AUTO 24006KT 10SM CLR 17/11 A3021 RMK AO2 SLP218
     T01720106=
KHFD 081353Z 16006KT 7SM BKN017 27/22 A3006 RMK AO2 SLP180
     T02720222=
KHGR 081353Z 00000KT 5SM HZ CLR 31/18 A3004 RMK AO2 SLP173
     T03110178=
KHHR 081353Z 24003KT 9SM OVC012 17/13 A2992 RMK AO2 SLP130
     T01670133=
KHIB 081353Z AUTO 26007KT 10SM CLR 21/16 A3006 RMK AO2 SLP177
     T02110156=
KHIO 081353Z 00000KT 10SM CLR 16/13 A2992 RMK AO2 SLP127
     T01610133=
KHJH 081350Z AUTO 35004KT 10SM BKN035 20/18 A3018 RMK AO2
     T02000176=
KESF 081353Z AUTO 09004KT 10SM BKN005 27/24 A3006 RMK AO2 SLP176
     T02670239=
KEVW 081353Z AUTO 07008KT 10SM CLR 13/04 A3035 RMK AO2 SLP191
     T01280044 TSNO=
KEWB 081353Z 13008KT 10SM BKN018 27/22 A3009 RMK AO2 SLP188
     T02720217=
KEYE 081353Z AUTO 25005KT 10SM CLR 28/22 A3005 RMK AO2 SLP168
     T02830217=
KEYW 081353Z VRB05KT 10SM FEW017 29/24 A2997 RMK AO2 SLP147
     T02940244=
KFAY 081353Z AUTO 04008KT 7SM CLR 31/21 A2996 RMK AO2 SLP139
     T03060211=
KFCM 081353Z 27004KT 10SM CLR 22/16 A3011 RMK AO2 SLP191
     T02220156=
KFDY 081353Z AUTO 24003KT 8SM CLR 29/21 A3005 RMK AO2 SLP165
     T02890211=
KFFC 081353Z AUTO 00000KT 10SM CLR 30/19 A3006 RMK AO2 SLP172
     T03000194=
KFFT 081353Z AUTO 19006KT 4SM HZ CLR 29/21 A3008 RMK AO2 SLP177
     T02940206=
KFHR 081353Z AUTO 00000KT 10SM CLR 20/12 A2999 RMK AO2 SLP154
     T02000122=
KFLD 081353Z AUTO 30008KT 10SM BKN015 24/21 A3002 RMK AO2 SLP160
     T02440211=
KFLL 081353Z 07008KT 10SM SCT023 30/24 A2996 RMK AO2 SLP144
     T03000244=
KFMY 081353Z 06007KT 10SM CLR 28/23 A2998 RMK AO2 SLP152
     T02830228=
KFOE 081353Z 02005KT 7SM OVC005 23/21 A3012 RMK AO2 SLP190
     T02280211=
KFOK 081353Z 13007KT 10SM CLR 27/19 A3008 RMK AO2 SLP185
     T02670189=
KFPR 081353Z 06004KT 10SM SCT030 29/21 A3000 RMK AO2 SLP157
     T02940211=
KFRG 081353Z 14007KT 10SM SCT008 OVC017 26/23 A3006 RMK AO2 SLP179
     T02610228=
KFSM 081353Z 06003KT 10SM OVC046 26/23 A3006 RMK AO2 RAB15E28
     SLP173 P0000 T02610228=
KFST 081353Z AUTO 34005KT 6SM -RA BR FEW014 BKN050 OVC080 22/20
     A3012 RMK AO2 RAB25 SLP153 P0000 T02170200=
KFTY 081353Z 00000KT 8SM CLR 31/21 A3005 RMK AO2 SLP166
     T03060206=
KFUL 081353Z 00000KT 7SM OVC015 17/13 A2991 RMK AO2 SLP126
     T01720128=
KFVE 081353Z AUTO 16004KT 5SM HZ BKN018 27/23 A3000 RMK AO2 SLP152
     T02670233=
KFWN 081353Z AUTO 00000KT 6SM HZ CLR 29/23 A3005 RMK AO2 SLP172
     T02890228=
KFXE 081353Z 07007KT 10SM FEW022 30/23 A2996 RMK AO2 SLP149
     T03000233=
KFYV 081353Z 20005KT 10SM SCT028 BKN034 OVC055 24/22 A3009 RMK AO2
     SLP175 T02440222=
KGAG 081353Z AUTO 02007KT 3SM RA BR OVC005 20/19 A3017 RMK AO2
     SLP191 P0002 T02000194=
KHJO 081353Z AUTO 30003KT 10SM CLR 19/11 A2985 RMK AO2 SLP108
     T01890111=
KHKA 081353Z AUTO 24005KT 6SM HZ CLR 29/22 A3008 RMK AO2 SLP184
     T02940222=
KHKS 081353Z 04004KT 10SM CLR 29/23 A3008 RMK AO2 SLP178
     T02940228=
KHKY 081353Z 31004KT 10SM CLR 29/19 A3006 RMK AO2 SLP154 T02940189
     PNO=
KHLG 081353Z 14003KT 7SM CLR 28/21 A3010 RMK AO2 SLP183
     T02830206=
KHLN 081353Z 00000KT 10SM CLR 12/05 A3027 RMK AO2 SLP242
     T01170050=
KHOT 081353Z AUTO 15004KT 10SM BKN010 OVC013 26/23 A3011 RMK AO2
     CIG 007V011 SLP188 T02560233=
KHOU 081353Z 06005KT 10SM -RA FEW035 BKN090 OVC130 26/23 A2996 RMK
     AO2 SLP151 P0002 T02560233=
KHQM 081353Z AUTO 28004KT 1/2SM FG 13/12 A2997 RMK AO2 SLP154
     T01280122 $=
KHRI 081353Z AUTO 13005KT 10SM CLR 17/08 A2998 RMK AO2 SLP146
     T01670083=
####018000224####
SAUS80 KWBC 081400 CCA
METAR
KSNT 081351Z AUTO 00000KT 05/01 A3035 RMK AO2 SLP196 T00500006
     PWINO TSNO=
KSMX 081351Z 30004KT 2 1/2SM BR BKN004 OVC008 12/11 A2994 RMK AO2
     CIG 002V007 SLP141 T01170111 $=
####018003727####
SAUS70 KWBC 081400 RRC
METAR
KCPR 081353Z 27003KT 10SM CLR 11/07 A3036 RMK AO2 SLP239 T01110072
     $=
KCPS 081353Z 30004KT 10SM FEW018 SCT022 BKN044 28/23 A3005 RMK AO2
     SLP171 T02780228=
KCSV 081353Z AUTO 00000KT 7SM CLR 29/19 A3016 RMK AO2 SLP186
     T02890189=
KCXO 081353Z VRB03KT 9SM BKN007 26/24 A2999 RMK AO2 CIG 006V010
     SLP151 T02560239=
KRTN 081353Z AUTO 35005KT 10SM CLR 17/11 A3038 RMK AO2 SLP216
     T01720106 TSNO=
KCYS 081353Z 22003KT 10SM SCT011 BKN040 14/12 A3037 RMK AO2 SLP233
     T01390117=
KDAG 081353Z AUTO 25010KT 10SM CLR 23/02 A2988 RMK AO2 SLP090
     T02330022 TSNO $=
KDAN 081353Z AUTO 04006KT 5SM HZ CLR 32/19 A3002 RMK AO2 SLP153
     T03220189=
KDCU 081353Z AUTO 04005KT 10SM CLR 31/21 A3009 RMK AO2 SLP180
     T03060206=
KDEN 081353Z 05005KT 1 1/2SM BR BKN005 OVC008 15/14 A3033 RMK AO2
     SFC VIS 3 CIG 002V006 SLP219 T01500144=
KDET 081353Z 29005KT 10SM CLR 31/20 A3003 RMK AO2 SLP161 T03110200
     $=
KDEW 081353Z AUTO 02010KT 10SM CLR 18/08 A3008 RMK AO2 SLP173
     T01780078=
KDFI 081353Z AUTO 19004KT 8SM CLR 29/21 A3005 RMK AO2 SLP167
     T02890206=
KDGW 081353Z AUTO 00000KT 1 1/4SM BR OVC001 08/08 A3036 RMK AO2
     SLP254 T00830078 $=
KDHT 081353Z AUTO 01013KT 10SM BKN007 BKN015 OVC020 18/17 A3027
     RMK AO2 CIG 005V011 SLP201 T01830167=
KDKK 081353Z AUTO 20006KT 10SM CLR 31/18 A3005 RMK AO2 SLP170
     T03060178=
KDLN 081353Z AUTO 22007KT 10SM CLR 09/05 A3031 RMK AO2 SLP226
     T00940050=
KDLS 081353Z AUTO 00000KT 10SM CLR 17/07 A2999 RMK AO2 SLP152
     T01670072=
KDMO 081353Z AUTO 00000KT 10SM BKN005 OVC014 24/22 A3009 RMK AO2
     CIG 004V009 SLP181 T02440222=
KDNL 081353Z AUTO 31005KT 10SM CLR 32/17 A3001 RMK AO2 SLP157
     T03220167=
KDRO 081353Z AUTO 00000KT 10SM CLR 16/06 A3035 RMK AO2 SLP202
     T01610056=
KDTW 081353Z 00000KT 8SM FEW200 30/22 A3003 RMK AO2 SLP162
     T03000217=
KDVO 081350Z AUTO 00000KT 10SM OVC010 12/12 A2994 RMK AO2=
KDVT 081353Z 08005KT 10SM CLR 32/07 A2983 RMK AO2 SLP071
     T03220072=
KDWH 081353Z 08004KT 6SM -RA BR BKN031 BKN060 24/23 A2999 RMK AO2
     RAB04 SLP154 P0013 T02390228=
KDXR 081353Z 16003KT 2 1/2SM -RA BR BKN007 BKN014 OVC036 24/23
     A3009 RMK AO2 RAE04B20 SLP183 P0002 T02440233=
KEEO 081353Z AUTO 07003KT 10SM FEW110 14/06 A3034 RMK AO2 SLP202
     T01390061 $=
KEET 081353Z AUTO 05003KT 10SM CLR 31/21 A3006 RMK AO2 SLP169
     T03060211=
KELM 081353Z 00000KT 7SM CLR 28/21 A3007 RMK AO2 SLP174
     T02780206=
KELN 081353Z AUTO 10004KT 10SM CLR 16/08 A3007 RMK AO2 SLP168
     T01610078 $=
KENW 081353Z 27009KT 10SM FEW011 BKN019 24/21 A3003 RMK AO2 SLP165
     T02390211=
KEPH 081353Z AUTO 33007KT 10SM CLR 22/06 A3002 RMK AO2 SLP156
     T02220056=
KEQY 081353Z AUTO 02009KT 7SM CLR 29/19 A3001 RMK AO2 SLP158
     T02890189=
KOPF 081353Z 07009KT 10SM FEW023 30/24 A2997 RMK AO2 SLP148
     T03000244=
KORL 081353Z 00000KT 10SM CLR 27/19 A3002 RMK AO2 SLP168
     T02720194=
KOSH 081353Z 31006KT 10SM OVC013 23/20 A3002 RMK AO2 SLP151
     T02330200=
KOSU 081353Z 28003KT 7SM CLR 29/21 A3008 RMK AO2 SLP177
     T02890206=
KOTM 081353Z AUTO 35006KT 8SM SCT008 22/21 A3009 RMK AO2 SLP184
     T02220206=
KOVE 081353Z AUTO 14004KT 10SM CLR 18/12 A2986 RMK AO2 SLP114
     T01780117 TSNO=
KOVS 081353Z AUTO 31004KT 10SM BKN013 BKN017 23/20 A3006 RMK AO2
     SLP178 T02330200=
KOWD 081353Z VRB04KT 10SM FEW023 27/19 A3009 RMK AO2 SLP188
     T02720194=
KOXB 081353Z AUTO 08007KT 10SM FEW090 27/24 A3003 RMK AO2 SLP168
     T02720244 $=
KPAE 081353Z AUTO 01003KT 10SM CLR 20/12 A2998 RMK AO2 SLP149
     T02000117=
####018003741####
SAUS80 KWBC 081400 RRA
METAR
KLWD 081353Z AUTO 02006KT 10SM CLR 22/20 A3012 RMK AO2 SLP192
     T02170200=
KODX 081353Z AUTO 32005KT 10SM BKN100 19/17 A3021 RMK AO2 SLP227
     T01890167=
KJBR 081353Z AUTO 24005KT 10SM CLR 28/22 A3008 RMK AO2 SLP182
     T02830222 $=
KJLN 081353Z 00000KT 1/2SM +RA FG FEW002 BKN013 OVC029 22/22 A3009
     RMK AO2 TSE48RAB48 SLP180 P0041 T02170217=
KLAN 081353Z 00000KT 10SM SCT120 BKN200 27/21 A3003 RMK AO2 SLP162
     T02720211 $=
KLIT 081353Z 26004KT 10SM SCT011 BKN150 BKN250 27/24 A3010 RMK AO2
     SLP191 T02670239=
KMWT 081353Z AUTO 00000KT 10SM FEW017 BKN049 26/23 A3008 RMK AO2
     SLP177 T02560233 TSNO=
KGNT 081353Z AUTO 15012KT 17/09 A3034 RMK AO2 SLP183 T01720094
     PWINO TSNO=
KBTV 081354Z 20006KT 7SM CLR 29/22 A3001 RMK AO2 SLP161
     T02940222=
KNUI 081353Z AUTO 10008KT 10SM SCT070 28/22 A3001 RMK AO2 SLP162
     T02780217=
KCHA 081353Z 00000KT 9SM CLR 30/20 A3008 RMK AO2 SLP177
     T03000200=
KRNM 081353Z AUTO 00000KT 5SM BR OVC004 14/13 A2992 RMK AO2 SLP122
     T01390128 TSNO=
KCTY 081353Z AUTO 00000KT 27/23 A3002 RMK AO2 SLP165 T02720228
     PWINO TSNO=
K40J 081353Z AUTO 31004KT 28/22 A3002 RMK AO2 SLP164 T02780222
     PWINO TSNO=
KSAN 081351Z 31003KT 10SM OVC013 16/14 A2993 RMK AO2 SLP135
     T01610139=
KSAT 081353Z 05008KT 6SM BR BKN009 OVC045 26/23 A2997 RMK AO2
     RAB09E35 SLP130 SHRA VC E P0000 T02560233=
KSEA 081353Z 02006KT 10SM CLR 21/12 A2997 RMK AO2 SLP152
     T02060122=
KSTC 081353Z 30009KT 10SM CLR 23/14 A3010 RMK AO2 SLP198
     T02330139=
KTUS 081353Z 09005KT 10SM CLR 30/11 A2994 RMK AO2 SLP082
     T03000106=
KYKM 081353Z 25005KT 10SM CLR 18/08 A3003 RMK AO2 SLP160
     T01780078=
KPOF 081353Z AUTO 24005KT 10SM FEW065 29/23 A3006 RMK AO2 SLP174
     T02890233=
KRIW 081353Z AUTO 33004KT 10SM CLR 14/06 A3035 RMK AO2 SLP227
     T01390061=
KRMG 081353Z AUTO 02004KT 10SM CLR 29/19 A3006 RMK AO2 SLP168
     T02940189=
PHTO 081353Z 24006KT 10SM FEW044 OVC055 21/18 A3002 RMK AO2 RAE08
     SLP163 P0002 T02060183=
PHKO 081353Z AUTO 13005KT 10SM OVC060 23/17 A2995 RMK AO2 SLP143
     T02330172 TSNO=
PHLI 081353Z 07012KT 10SM FEW025 BKN055 OVC075 24/18 A3003 RMK AO2
     SLP167 T02390183 $=
KCRP 081351Z COR 03006KT 10SM SCT022 SCT040 BKN060 27/25 A2985 RMK
     AO2 RAE31 SLP106 CB DSNT E TCU DSNT NE SE S SW P0001
     T02670250 $=
KTCS 081353Z AUTO 02010KT 10SM FEW110 19/14 A3022 RMK AO2 SLP165
     T01940139 TSNO=
KLXV 081353Z AUTO 00000KT 10SM OVC008 07/05 A3053 RMK AO2 CIG
     005V012 SLP213 T00670050 TSNO=
KSAN 081351Z 31003KT 10SM OVC013 16/14 A2993 RMK AO2 SLP135
     T01610139=
KJAN 081354Z 06005KT 10SM CLR 28/23 A3008 RMK AO2 SLP180
     T02830228=
KDAL 081353Z 12007KT 9SM BKN011 BKN036 OVC049 26/24 A3004 RMK AO2
     RAE11 SLP166 CIG 009V016 P0000 T02610239=
KLBB 081353Z 07006KT 10SM SCT006 BKN037 OVC110 20/18 A3018 RMK AO2
     SLP177 T02000183=
KPVD 081351Z 16005KT 10SM BKN010 BKN013 25/21 A3010=
KSOW 081350Z AUTO 19005KT 10SM SCT120 19/04 A3028 RMK AO2=
KCUT 081353Z AUTO 00000KT 10SM CLR 14/08 A3036 RMK AO2 SLP236
     T01440078 TSNO=
KRQE 081353Z AUTO 00000KT 10SM CLR 19/08 A3030 RMK AO2 SLP131
     T01940078 TSNO=
PAQT 081353Z AUTO 24013KT 10SM CLR 09/04 A3006 RMK AO2 SLP180
     T00940044 TSNO=
PASN 081353Z 06010KT 1/2SM FG OVC001 05/05 A2992 RMK AO2 SLP133
     T00500050=
PATK 081353Z AUTO 00000KT 10SM CLR 10/09 A2999 RMK AO2 SLP156
     T01000089 TSNO=
PAYA 081353Z 00000KT 10SM OVC007 12/10 A3018 RMK AO2 SLP219 BAY
     TWR WND 090MMKT T01170100=
KP92 081353Z AUTO VRB04KT 28/26 A3001 RMK AO2 SLP163 T02830256
     PWINO TSNO=
####018003609####
SAUS70 KWBC 081400 RRK
METAR
KDFW 081353Z 13004KT 10SM FEW013 BKN050 OVC060 26/24 A3004 RMK AO2
     RAE31 SLP163 P0000 T02560239=
KDTN 081353Z 10005KT 10SM FEW090 27/24 A3006 RMK AO2 SLP177
     T02670239=
KDYB 081355Z AUTO 31006KT 10SM CLR 30/21 A2996 RMK AO1=
KECP 081353Z 36003KT 10SM CLR 29/24 A3003 RMK AO2 SLP178
     T02940239=
KEGE 081350Z 00000KT 10SM SKC 12/09 A3040=
KEKM 081355Z 00000KT 2 1/2SM VCTS RA SCT030 BKN049 OVC070 24/23
     A3005 RMK AO2=
KELD 081353Z AUTO 13003KT 9SM CLR 26/24 A3008 RMK AO2 SLP181
     T02560239=
KFLO 081353Z 33005KT 10SM CLR 31/20 A2996 RMK AO2 SLP141
     T03060200=
KGEU 081349Z 00000KT 20SM SCT120 SCT200 29/04 A2982=
KGKJ 081353Z AUTO 00000KT 10SM CLR 28/19 A3010 RMK AO2 SLP179
     T02830189=
KGNV 081353Z 00000KT 10SM CLR 28/21 A3002 RMK AO2 SLP164
     T02780211=
KGOK 081353Z AUTO 32004KT 10SM SCT007 24/22 A3007 RMK AO2 SLP172
     T02440217=
KINK 081353Z AUTO 04008KT 10SM BKN024 OVC090 23/19 A3012 RMK AO2
     RAB1255E09 SLP158 P0000 T02280194 TSNO=
KL35 081353Z AUTO 00000KT 10SM CLR 08/M03 A3019 RMK AO2=
KLAW 081353Z 01006KT 10SM FEW090 26/23 A3006 RMK AO2 SLP169
     T02610228=
KMAF 081353Z 04008KT 10SM FEW007 SCT015 OVC022 22/20 A3013 RMK AO2
     SLP162 T02170200=
KMLB 081353Z 02004KT 10SM SCT025 28/19 A3001 RMK AO2 SLP160
     T02830194=
KMNI 081355Z AUTO 35009KT 10SM CLR 32/24 A2997 RMK AO2=
KPNS 081353Z 00000KT 10SM CLR 29/23 A3004 RMK AO2 SLP173
     T02940233=
KPTT 081350Z AUTO 01008KT 4SM BR OVC006 20/19 A3017 RMK AO2=
KPWA 081353Z 35004KT 7SM SCT005 24/22 A3008 RMK AO2 SLP169
     T02440217=
KRBD 081353Z 10005KT 10SM BKN006 OVC060 26/24 A3005 RMK AO2 SLP165
     T02560239=
KSEE 081347Z 27005KT 4SM BR OVC009 16/13 A2992=
PASC 081353Z 24015KT 10SM OVC230 09/05 A3003 RMK AO2 SLP168
     T00890050=
PASI 081353Z 33003KT 1/4SM FG VV001 12/12 A3017 RMK AO2 SLP216
     T01220117=
PASO 081353Z AUTO 00000KT 10SM OVC004 09/09 A2992 RMK AO2
     RAB1254E06 SLP133 P0001 T00940089 TSNO=
PATO 081353Z AUTO 11020G37KT 070V140 8SM -RA FEW021 OVC029 12/10
     A3002 RMK AO2 PK WND 08037/1352 SLP164 P0001 T01170100
     TSNO=
PAAQ 081353Z AUTO 17004KT 10SM CLR 12/08 A3000 RMK AO2 SLP154
     T01220083 TSNO=
PABR 081353Z 24016KT 10SM FEW150 SCT190 SCT250 07/03 A2997 RMK AO2
     PK WND 24026/1338 SLP148 T00670028 $=
PACV 081353Z 14008G16KT 10SM FEW009 BKN032 OVC046 11/09 A3011 RMK
     AO2 SLP195 T01110094=
PADE 081353Z AUTO 21004KT 10SM CLR 03/03 A3013 RMK AO2 SLP202
     T00330028 TSNO=
PAEG 081353Z AUTO 00000KT 10SM CLR 09/05 A3005 RMK AO2 SLP177
     T00890050 TSNO=
PAEN 081353Z 04011KT 10SM OVC090 14/12 A2994 RMK AO2 SLP138
     T01440117=
PAGK 081353Z AUTO 36003KT 10SM SCT100 08/07 A3005 RMK AO2 SLP179
     T00830067 TSNO=
PAGY 081353Z AUTO 00000KT 10SM CLR 11/09 A3018 RMK AO2 SLP221
     T01060089 TSNO=
PAIL 081353Z 08003KT 1/4SM -RA FG BKN001 OVC070 08/08 A2995 RMK
     AO2 RAE02B31 SLP145 P0000 T00830083=
PAKT 081353Z AUTO 35010KT 10SM CLR 18/11 A3008 RMK AO2 SLP187
     T01780111 TSNO=
PAKV 081353Z AUTO 00000KT 10SM CLR 07/06 A3010 RMK AO2 SLP196
     T00670056 TSNO=
PAKW 081353Z AUTO 00000KT 10SM CLR 12/11 A3012 RMK AO2 SLP200
     T01220111 TSNO=
PALH 081353Z 04003KT 10SM SCT065 BKN080 OVC090 13/11 A3000 RMK AO2
     RAE53 SLP160 P0001 T01330111=
PAMR 081353Z 09004KT 10SM -RA FEW020 SCT070 BKN085 BKN200 13/11
     A2999 RMK AO2 SLP157 P0000 T01280111 $=
PAPB 081353Z AUTO 06017G22KT 10SM OVC046 06/06 A2989 RMK AO2
     SLP109 T00610056 TSNO=
####018003697####
SAUS70 KWBC 081400 RRA
METAR
PATA 081352Z AUTO 36004KT 10SM CLR 09/06 A3005 RMK AO2 SLP177
     T00890056 TSNO=
PHJR 081353Z VRB03KT 10SM FEW060 22/17 A3002 RMK AO2 SLP170
     T02220172=
KAWM 081353Z AUTO VRB04KT 10SM CLR 29/22 A3007 RMK AO2 SLP179
     T02890222=
KAXN 081353Z AUTO 29010KT 10SM CLR 21/16 A3013 RMK AO2 SLP199
     T02110156=
KAZO 081353Z 00000KT 5SM HZ FEW065 SCT100 26/22 A3004 RMK AO2
     SLP165 T02610217=
KBAF 081353Z 16006KT 5SM BR OVC007 24/22 A3008 RMK AO2 SLP182
     T02440222=
KBBW 081353Z AUTO 35006KT 10SM CLR 20/16 A3025 RMK AO2 SLP229
     T02000156=
KBCE 081353Z AUTO 00000KT 10SM CLR 15/03 A3035 RMK AO2 SLP156
     T01500028 TSNO=
KBDE 081353Z AUTO VRB04KT 10SM CLR 19/14 A3001 RMK AO2 SLP163
     T01940139=
KBEH 081353Z AUTO 14004KT 10SM FEW031 BKN041 OVC065 24/22 A3002
     RMK AO2 LTG DSNT E SLP162 T02440217 $=
KBFD 081353Z AUTO 12004KT 9SM CLR 27/18 A3014 RMK AO2 SLP187
     T02720178=
KBFI 081353Z 35003KT 10SM CLR 20/14 A2996 RMK AO2 SLP145
     T02000139=
KBFM 081353Z 00000KT 10SM FEW010 SCT050 29/24 A3006 RMK AO2 SLP178
     T02890239=
KBGM 081353Z 00000KT 7SM CLR 27/20 A3012 RMK AO2 SLP184
     T02720200=
KBGR 081353Z 18008KT 10SM FEW015 OVC045 23/20 A3010 RMK AO2 SLP189
     T02330200=
KBHK 081353Z AUTO 25007KT 10SM FEW100 19/11 A3022 RMK AO2 SLP216
     T01940106=
KBHM 081353Z 34003KT 10SM CLR 30/22 A3008 RMK AO2 SLP177
     T03000222=
KBIE 081350Z AUTO 03006KT 10SM SCT035 21/18 A3016 RMK AO2
     T02070182=
KBIV 081353Z AUTO 30003KT 1 1/2SM +RA BR OVC001 24/22 A3004 RMK
     AO2 RAB15 SLP168 P0016 T02390222=
KBKE 081353Z AUTO 00000KT 10SM CLR 11/08 A3014 RMK AO2 SLP186
     T01060078=
KBKL 081353Z 21007KT 9SM FEW070 32/18 A3004 RMK AO2 SLP165
     T03170178=
KBLI 081353Z AUTO 00000KT 10SM CLR 17/14 A2998 RMK AO2 SLP157
     T01720144=
KBMG 081353Z 25006KT 28/23 A3007 RMK AO2 SLP171 T02830228 $=
KBMQ 081353Z AUTO 08007KT 8SM FEW013 SCT041 BKN050 25/22 A3004 RMK
     AO2 SLP155 T02500222=
KBNA 081353Z VRB05KT 10SM FEW060 SCT200 31/21 A3009 RMK AO2 SLP182
     T03110206 $=
KBOI 081353Z 15008KT 10SM CLR 20/06 A3010 RMK AO2 SLP163
     T02000056=
KBPI 081353Z AUTO 00000KT 10SM CLR 10/04 A3041 RMK AO2 SLP218
     T01000039=
KBPK 081353Z AUTO VRB03KT 9SM FEW037 SCT070 OVC090 24/22 A3009 RMK
     AO2 SLP179 T02440222=
KBPT 081353Z 08010KT 9SM BKN009 28/25 A2999 RMK AO2 SLP155
     T02780250=
KBRD 081353Z AUTO 26005KT 10SM CLR 21/14 A3009 RMK AO2 SLP185
     T02110144=
KBRL 081353Z AUTO 6SM BR OVC004 23/22 A3007 RMK AO2 CIG 004V010
     SLP178 T02330217=
KBTA 081350Z AUTO 36007KT 10SM CLR 20/17 A3016 RMK AO2
     T02040170=
K36U 081357Z AUTO 00000KT 10SM CLR 14/07 A3025 RMK AO2=
KPMV 081350Z AUTO 36004KT 10SM CLR 22/19 A3015 RMK AO2
     T02220189=
KABR 081353Z AUTO 27007KT 10SM CLR 21/13 A3014 RMK AO2 SLP201
     T02110133=
KACK 081353Z 13011KT 10SM CLR 23/19 A3010 RMK AO2 SLP193
     T02280194=
KACV 081353Z AUTO 00000KT 2SM R32/5000VP6000FT BR OVC001 10/09
     A2995 RMK AO2 SLP149 T01000094=
KADG 081353Z AUTO 00000KT 8SM CLR 29/21 A3005 RMK AO2 SLP171
     T02890211=
KAEX 081353Z AUTO 08004KT 10SM CLR 27/24 A3004 RMK AO2 SLP174
     T02670244=
KAFK 081350Z AUTO 04007KT 10SM CLR 22/19 A3014 RMK AO2
     T02190193=
KAGC 081353Z 15003KT 5SM HZ CLR 28/19 A3009 RMK AO2 SLP182
     T02830194=
KAGS 081353Z 33010KT 10SM CLR 33/18 A2999 RMK AO2 SLP154
     T03330178=
KAIA 081353Z AUTO 00000KT 10SM BKN060 16/13 A3031 RMK AO2 SLP237
     T01610128=
KAKO 081353Z AUTO 16006KT 4SM BR OVC003 15/14 A3033 RMK AO2 SLP237
     T01500144 TSNO=
####018000107####
SAUS41 KLWX 081355
MTRDMH
METAR KDMH 081354Z AUTO 30/22 A3003 RMK AO2 SLP168 T03000222 PWINO 
TSNO
####018000604####
SANO31 ENMI 081350
METAR ENAN 081350Z 31008KT 9999 VCTS NSC 14/10 Q1010=
METAR ENBR 081350Z 19013KT 9999 FEW020 SCT040 16/10 Q1014 NOSIG =
METAR ENBO 081350Z 25006KT 9999 FEW040CB SCT080 14/10 Q1011 TEMPO TS
           SHRA BKN030CB=
METAR ENDU 081350Z VRB02KT 9999 VCSH FEW050 SCT060 BKN180 17/11
           Q1010=
METAR ENGM 081341Z 19010KT 160V220 9999 FEW014 BKN017 17/14 Q1015
           NOSIG=
METAR ENOL 081350Z VRB02KT 9999 SCT040 21/07 Q1010 NOSIG=
METAR ENVA 081350Z 32013KT 9999 FEW040CB FEW060 20/13 Q1010 NOSIG =
METAR ENZV 081350Z 20011KT 9999 SCT020 BKN150 18/12 Q1015 NOSIG=
####018003689####
SAUS70 KWBC 081400 RRI
METAR
KSTP 081353Z 32003KT 10SM CLR 23/17 A3011 RMK AO2 SLP191
     T02280167=
KSTS 081353Z 00000KT 10SM OVC004 12/10 A2992 RMK AO2 SLP125
     T01170100=
KSWO 081353Z 01005KT 9SM OVC004 24/22 A3007 RMK AO2 SLP171
     T02440222=
KTCC 081353Z AUTO 05007KT 10SM OVC090 18/15 A3025 RMK AO2 SLP191
     T01780150=
KTCL 081353Z 36004KT 10SM CLR 31/22 A3005 RMK AO2 SLP174
     T03110222=
KTDZ 081353Z AUTO 24005KT 10SM CLR 30/21 A3004 RMK AO2 SLP167
     T03000206=
KTHV 081353Z AUTO 00000KT 6SM HZ CLR 30/22 A3003 RMK AO2 SLP165
     T03000222=
KTIW 081353Z AUTO 00000KT 10SM CLR 20/12 A2996 RMK AO2 SLP141
     T02000122=
KTMB 081353Z 09007KT 10SM CLR 32/25 A2997 RMK AO2 SLP147
     T03170250=
KTOI 081353Z 00000KT 10SM CLR 29/24 A3005 RMK AO2 SLP169
     T02940239=
KTOP 081353Z 02007KT 9SM OVC007 24/22 A3012 RMK AO2 SLP190
     T02390217=
KTOR 081353Z AUTO 32004KT 10SM CLR 14/11 A3031 RMK AO2 SLP234
     T01440111=
KTPA 081353Z 00000KT 10SM FEW030 SCT200 28/21 A3001 RMK AO2 SLP162
     T02780206=
KTTD 081353Z AUTO 00000KT 10SM CLR 18/15 A2991 RMK AO2 SLP127
     T01830150=
KTTN 081353Z 18006KT 2 1/2SM HZ BKN013 BKN022 28/23 A3004 RMK AO2
     SLP164 T02830233=
KTUL 081353Z 00000KT 10SM SCT006 BKN090 OVC100 24/23 A3004 RMK AO2
     SLP166 T02440233=
KTVC 081353Z 00000KT 7SM SCT006 BKN011 OVC030 23/22 A2999 RMK AO2
     RAB01E51 SLP153 P0001 T02280217=
KTVL 081353Z AUTO 00000KT 10SM CLR 10/06 A3018 RMK AO2 SLP160
     T01000056=
KTVR 081353Z AUTO 00000KT 10SM CLR 28/23 A3007 RMK AO2 SLP189
     T02780233=
KTWF 081353Z 07009KT 10SM CLR 18/04 A3015 RMK AO2 SLP157
     T01780039=
KUAO 081353Z AUTO 00000KT 10SM CLR 17/12 A2994 RMK AO2 SLP136
     T01720122=
KUES 081345Z 28007KT 10SM OVC012 22/19 A3004=
KUNO 081353Z AUTO 22005KT 10SM BKN055 BKN085 25/22 A3011 RMK AO2
     SLP180 T02500222 TSNO=
KUTS 081353Z AUTO 09003KT 7SM BKN007 25/24 A3001 RMK AO2 CIG
     005V010 SLP157 T02500239=
KUUU 081353Z AUTO 11006KT 10SM OVC005 23/21 A3011 RMK AO2 SLP192
     T02330211=
KVCB 081353Z AUTO 23004KT 10SM CLR 15/10 A2985 RMK AO2 SLP107
     T01500100=
KVEL 081353Z AUTO 00000KT 10SM CLR 18/06 A3027 RMK AO2 SLP189
     T01780061=
KVGT 081353Z 32007KT 10SM CLR 27/M02 A2988 RMK AO2 SLP080
     T02721022=
KVIH 081353Z AUTO 00000KT 10SM OVC005 24/22 A3008 RMK AO2 RAE12
     CIG 003V007 SLP175 P0000 T02440222=
KVPC 081353Z AUTO 00000KT 8SM CLR 28/21 A3007 RMK AO2 SLP169
     T02780211=
KVPZ 081353Z AUTO 14006KT 4SM -RA BR SCT027 24/23 A3004 RMK AO2
     RAB14 SLP167 P0000 T02390228=
KVRB 081353Z 04007KT 10SM FEW025 29/21 A2999 RMK AO2 SLP155
     T02890206=
KVUO 081353Z AUTO 00000KT 10SM CLR 18/14 A2992 RMK AO2 SLP130
     T01830139=
KWRL 081353Z AUTO 00000KT 10SM CLR 15/05 A3029 RMK AO2 SLP223
     T01500050=
KWST 081353Z AUTO 09005KT 10SM FEW006 SCT010 26/22 A3009 RMK AO2
     SLP188 T02560217=
KWVI 081353Z AUTO 00000KT 9SM OVC007 13/11 A2995 RMK AO2 SLP141
     T01280106=
KXNA 081353Z 17004KT 10SM OVC015 23/22 A3010 RMK AO2 SLP177
     T02330217=
KYIP 081353Z VRB03KT 10SM CLR 31/21 A3004 RMK AO2 SLP164 T03060206
     $=
KPOU 081353Z 13008KT 7SM CLR 29/22 A3004 RMK AO2 SLP167
     T02890222=
KPQL 081353Z 00000KT 10SM CLR 28/24 A3005 RMK AO2 SLP176
     T02830244=
KPRB 081353Z AUTO 35003KT 7SM OVC005 12/11 A2993 RMK AO2 SLP131
     T01220106=
KPRC 081353Z 00000KT 10SM CLR 20/02 A3013 RMK AO2 SLP111
     T02000017=
KPSC 081353Z 00000KT 10SM CLR 18/11 A2999 RMK AO2 SLP153
     T01830111=
KPSP 081353Z VRB04KT 10SM CLR 26/12 A2977 RMK AO2 SLP077
     T02560117=
####018000381####
SAOS31 LOWM 081350
METAR LOWW 081350Z 33009KT 280V020 CAVOK 25/09 Q1022 NOSIG=
METAR LOWL 081350Z VRB03KT CAVOK 25/10 Q1022 NOSIG=
METAR LOWS 081350Z VRB04KT 9999 FEW060 26/08 Q1022 NOSIG=
METAR LOWI 081350Z 08006KT 030V120 9999 FEW080 29/14 Q1020 NOSIG=
METAR LOWG 081350Z 11004KT 030V190 CAVOK 27/10 Q1022 NOSIG=
METAR LOWK 081350Z VRB02KT 9999 FEW060 27/11 Q1021 NOSIG=
####018000294####
SANO38 ENMI 081350
METAR ENDR 081350Z NIL=
METAR ENEK 081350Z 22011KT CAVOK 16/12 Q1016 W15/S3=
METAR ENGC 081350Z 19025KT CAVOK 13/11 Q1009=
METAR ENHE 081350Z 20025KT CAVOK 15/11 Q1009=
METAR ENOA 081350Z 20023KT 9999 FEW045 13/11 Q1011=
METAR ENSL 081350Z 22021KT CAVOK 14/11 Q1013=
####018000087####
SAVN22 SVMI 081400
METAR SVMI 081400Z 00000KT 9999 FEW016 BKN300 27/24 Q1015 NOSIG=
####018000170####
SAPQ50 KWBC 081400 RRA
METAR
PGRO 081352Z 11012KT 7SM FEW020 27/24 A2992=
PGUM 081354Z 11008KT 10SM FEW020 28/24 A2990 RMK AO2 SLP117
     T02780244 403220261=
####018003678####
SAUS70 KWBC 081400
METAR
KOAJ 081355Z AUTO 06010KT 9SM CLR 30/24 A2997 RMK AO1=
KODO 081353Z AUTO 04008G16KT 8SM BKN005 OVC011 21/20 A3015 RMK AO2
     SLP167 T02110200=
KOQU 081350Z 11005KT 10SM SCT007 SCT200 27/ A3013=
KORE 081352Z AUTO 16005KT 6SM HZ OVC012 24/22 A3009 RMK AO2
     RAB19E30 SLP187 P0000 T02440217=
KPYM 081352Z AUTO 17005KT 9SM SCT024 SCT031 28/19 A3010 RMK AO2
     SLP192 T02780194=
KRAP 081352Z 28004KT 10SM CLR 18/11 A3026 RMK AO2 SLP234
     T01780111=
KSOP 081355Z AUTO 02004KT 7SM CLR 31/21 A2999 RMK AO1=
KTAN 081352Z AUTO 13009KT 10SM BKN020 27/21 A3008 RMK AO2 SLP184
     T02720206=
KTKI 081353Z 13005KT 8SM -RA FEW010 BKN049 BKN070 25/24 A3005 RMK
     AO2 RAE1258B53 SLP172 P0000 T02500244=
KTXK 081353Z 13004KT 10SM BKN007 OVC080 26/24 A3008 RMK AO2 SLP181
     T02610244=
KTYR 081353Z 11006KT 10SM FEW010 26/23 A3007 RMK AO2 SLP175
     T02610233=
KUDG 081355Z 35005KT 10SM CLR 31/20 A2999 RMK AO1=
KAFN 081352Z AUTO 17006KT 7SM BKN010 OVC080 24/21 A3012 RMK AO2
     CIG 008V013 SLP198 T02390206=
KAFW 081353Z 13006KT 9SM FEW012 SCT055 BKN090 26/23 A3004 RMK AO2
     RAB30E42 SLP156 P0000 T02610233=
KAIK 081355Z AUTO 29007KT 10SM CLR 31/25 A3004 RMK AO2 PNO=
KAQW 081352Z AUTO 00000KT 6SM HZ CLR 29/22 A3006 RMK AO2 SLP174
     T02890222=
KARW 081355Z AUTO 28008KT 260V320 10SM CLR 30/19 A2998 RMK AO2=
KBLF 081352Z AUTO 27003KT 6SM HZ CLR 26/19 A3020 RMK AO2 SLP182
     T02610189=
KBML 081352Z AUTO 00000KT 6SM HZ CLR 28/22 A3008 RMK AO2 SLP180
     T02830217=
KCDS 081353Z AUTO 05006KT 10SM CLR 24/21 A3012 RMK AO2 LTG DSNT E
     SLP177 T02390206=
KCQX 081352Z AUTO 13007KT 110V180 10SM SCT005 SCT024 24/20 A3012
     RMK AO2 SLP201 T02440200=
KCRS 081353Z AUTO 09007KT 10SM FEW011 BKN065 26/23 A3003 RMK AO2
     SLP165 T02610233=
KCSM 081353Z 36005KT 10SM -RA FEW008 SCT100 23/21 A3014 RMK AO2
     RAB1258E27B46 SLP183 P0000 T02280206=
KCVG 081352Z 21005KT 6SM HZ FEW090 29/22 A3008 RMK AO2 SLP175
     T02940217=
KDEQ 081353Z AUTO 08003KT 10SM BKN007 OVC045 26/24 A3006 RMK AO2
     SLP175 T02560239=
KDTO 081353Z 14007KT 10SM FEW010 26/23 A3005 RMK AO2 RAB33E46
     SLP165 P0000 T02610233=
KFDR 081353Z AUTO 03006KT 10SM 26/23 A3005 RMK AO2 SLP159
     T02560233=
KFDW 081355Z AUTO 32003KT 10SM CLR 30/19 A3001 RMK AO1=
KFIT 081352Z AUTO 15007KT 10SM FEW022 BKN047 28/21 A3009 RMK AO2
     SLP188 T02780211=
KFTW 081353Z 13009KT 10SM SCT009 BKN035 OVC060 26/24 A3004 RMK AO2
     RAB32E50 SLP160 P0000 T02560239=
KGGG 081353Z 13003KT 10SM CLR 26/24 A3006 RMK AO2 SLP172
     T02610239=
KGKY 081353Z 12008KT 10SM SCT008 BKN055 26/24 A3005 RMK AO2 SLP165
     T02560239=
KGLY 081355Z AUTO 00000KT 9SM SCT008 OVC014 24/23 A3009 RMK
     AO2=
KHBR 081353Z AUTO 07004KT 8SM BKN007 23/22 A3011 RMK AO2 RAE48 CIG
     003V009 SLP179 P0003 T02280222=
KIEN 081352Z AUTO 00000KT 10SM CLR 16/13 A3029 RMK AO2 SLP241
     T01560128=
KIJD 081352Z AUTO 14003KT 8SM BKN016 26/21 A3009 RMK AO2 SLP188
     T02560211=
KMEZ 081355Z AUTO 18003KT 5SM HZ BKN013 BKN018 OVC055 26/23 A3011
     RMK AO2=
KMLC 081353Z AUTO 18005KT 10SM BKN009 BKN018 OVC032 25/23 A3006
     RMK AO2 CIG 008V013 SLP170 T02500233=
KMWL 081353Z AUTO 13005KT 10SM OVC033 25/23 A3004 RMK AO2 SLP157
     T02500233=
KCGS 081355Z AUTO 00000KT 7SM SCT110 31/23 A3002 RMK AO1=
K2G4 081350Z AUTO 34004KT 10SM CLR 25/15 A3019 RMK AO1=
K2W6 081353Z AUTO 10006KT 10SM BKN016 BKN022 BKN070 27/23 A3004
     RMK AO1=
KFDK 081353Z AUTO 00000KT 7SM CLR 34/22 A3005 RMK AO2=
KW29 081353Z AUTO 16008KT 7SM CLR 28/22 A3002 RMK AO1=
####018000103####
SPEQ00 SEQU 081330
SPECI
SEGU 081340Z  20005KT  8000S 9999N -DZ BKN040 OVC100  23/19
Q1012 NOSIG=
####018000403####
SANO34 ENMI 081350
METAR ENBN 081350Z 34006KT 9999 FEW050 SCT070 18/11 Q1011=
METAR ENBV 081350Z 09017KT 9999 FEW038 12/10 Q1015=
METAR ENDI 081350Z NIL=
METAR ENFG 081350Z 19010KT 9999 VCSH SCT022 17/09 Q1013=
METAR ENHF 081350Z 22003KT 9999 FEW035 BKN080 20/09 Q1011 =
METAR ENRA 081350Z 12002KT 9999 VCSH SCT050 SCT070 17/12 Q1010=
METAR ENSH 081350Z 35012KT 9999 FEW020 BKN050 16/10 Q1010=
####018000125####
SAVN23 SVBC 081400
METAR SVBC 081400Z OOOOOKT 9999 SCT010 31/22 Q1014=
METAR SVMT 081400Z NIL= 
METAR SVHG 081400Z NIL=
####018000702####
SAGL41 BGSF 081350
METAR BGSF 081350Z 24007KT 170V260 9999 FEW040 SCT070 17/01 Q1007=
METAR BGBW 081355Z NIL=
METAR BGGH 081350Z 21005KT 9999 FEW008 BKN012 07/03 Q1009=
METAR BGJN 081355Z NIL=
METAR BGKK 081350Z 02003KT 9999 FEW100 SCT120 09/04 Q1009=
METAR BGCO 081355Z NIL=
METAR BGSS 081350Z 28010KT 240V300 9999 FEW003 06/06 Q1008=
METAR BGAA 081350Z VRB04KT 0400 FG VV002 05/04 Q1009=
METAR BGUQ 081350Z 08012KT 9999 SKC 12/02 Q1009=
METAR BGMQ 081350Z 24002KT 2200 BR VV003 06/05 Q1009=
METAR BGUK 081350Z 31004KT 9999 VCFG SKC 06/03 Q1009=
METAR BGQQ 081350Z 20003KT 9999 3000S VCFG BKN002 05/M00 Q1010 
RMK 6ST =
METAR BGPT 081350Z 31005KT 280V340 3000 BCFG BKN003 05/04 Q1009=
####018003689####
SAUS70 KWBC 081400 RRG
METAR
KMIC 081353Z 30006KT 10SM CLR 23/16 A3010 RMK AO2 SLP188
     T02280161=
KMIE 081353Z 21007KT 10SM BKN075 28/20 A3006 RMK AO2 SLP167
     T02830200=
KMIW 081353Z AUTO 35009KT 10SM CLR 22/19 A3011 RMK AO2 SLP189
     T02220194=
KMKL 081353Z 34004KT 10SM CLR 29/23 A3009 RMK AO2 SLP183
     T02890233=
KMLE 081350Z AUTO 00000KT 10SM CLR 21/16 A3015 RMK AO2
     T02130161=
KMLP 081353Z AUTO 12008G17KT 10SM CLR 13/02 A3027 RMK AO2 SLP160
     T01280017 TSNO=
KMLS 081353Z AUTO 16004KT 10SM CLR 16/11 A3021 RMK AO2 SLP218
     T01610106=
KMLT 081353Z AUTO VRB06KT 6SM HZ OVC015 24/21 A3007 RMK AO2 SLP185
     T02390206=
KMMH 081350Z AUTO 00000KT 10SM CLR 09/02 A3024 RMK AO1=
KMMK 081353Z AUTO 15004KT 4SM HZ BKN016 BKN021 OVC034 27/22 A3007
     RMK AO2 SLP180 T02670222=
KMMV 081353Z AUTO 26004KT 10SM CLR 14/11 A2994 RMK AO2 SLP137
     T01390106=
KMNN 081353Z AUTO 26003KT 9SM CLR 28/21 A3008 RMK AO2 SLP178
     T02830211=
KMOD 081353Z 36004KT 10SM CLR 16/11 A2985 RMK AO2 SLP108
     T01560111=
KMPO 081353Z AUTO 07006KT 8SM FEW100 28/21 A3012 RMK AO2 SLP184
     T02780206=
KMRB 081353Z AUTO 00000KT 5SM HZ CLR 30/19 A3004 RMK AO2 SLP166
     T03000189=
KMSL 081353Z AUTO 00000KT 10SM CLR 29/23 A3010 RMK AO2 SLP186
     T02940228=
KMSO 081353Z 17004KT 10SM CLR 13/07 A3022 RMK AO2 SLP218
     T01280067=
KMSP 081353Z 27005KT 10SM CLR 23/16 A3011 RMK AO2 SLP193
     T02280161=
KMSS 081353Z AUTO 19004KT 7SM CLR 29/23 A3001 RMK AO2 SLP159
     T02890233=
KMSY 081353Z 09005KT 10SM SCT022 BKN250 29/23 A3004 RMK AO2 SLP175
     T02890233=
KMTH 081353Z AUTO 05007KT 10SM CLR 27/24 A2996 RMK AO2
     TSB08E23UPB01E10 SLP143 P0000 T02720239 $=
KMTJ 081353Z AUTO 00000KT 10SM CLR 17/06 A3029 RMK AO2 SLP181
     T01720056=
KMTO 081353Z AUTO 21007KT 10SM FEW100 27/24 A3005 RMK AO2 SLP168
     T02720239=
KMVY 081353Z 15011G16KT 10SM CLR 27/21 A3010 RMK AO2 SLP191
     T02670206=
KMWC 081350Z 28006KT 10SM BKN011 BKN033 22/20 A3003=
KMYF 081353Z 35004KT 5SM BR OVC007 16/14 A2992 RMK AO2 CIG 006V010
     SLP128 T01560144=
KMYV 081353Z AUTO 14004KT 10SM CLR 16/11 A2985 RMK AO2 SLP111
     T01610111=
KNEW 081353Z 07008KT 10SM SCT014 29/26 A3005 RMK AO2 SLP167
     T02890256=
KOAK 081353Z 29010KT 8SM OVC007 14/11 A2995 RMK AO2 SLP141
     T01440106=
KOGA 081350Z AUTO 00000KT 10SM SCT090 OVC110 17/15 A3030 RMK AO2
     T01700153=
KOGD 081353Z 00000KT 10SM CLR 21/06 A3014 RMK AO2 SLP147 T02060061
     $=
KOJC 081353Z 01006KT 10SM BKN012 BKN070 24/21 A3010 RMK AO2 SLP183
     T02440211=
KOLF 081353Z AUTO 22004KT 10SM CLR 17/11 A3017 RMK AO2 SLP211
     T01670111=
KOMK 081353Z AUTO 01009KT 10SM CLR 18/08 A3007 RMK AO2 SLP174
     T01830083=
KONL 081350Z AUTO 29004KT 10SM CLR 20/16 A3023 RMK AO2
     T02000158=
KONO 081353Z AUTO 00000KT 10SM CLR 14/06 A3009 RMK AO2 SLP177
     T01440061=
KONT 081353Z 20005KT 2SM BR OVC009 15/13 A2992 RMK AO2 SLP124
     T01500128=
KIWI 081353Z AUTO VRB05KT 10SM FEW095 24/19 A3012 RMK AO2 SLP198
     T02440194=
KIXD 081353Z 03005KT 10SM SCT010 SCT024 24/21 A3012 RMK AO2 SLP188
     T02390206=
KJAC 081351Z 00000KT 10SM SKC 11/01 A3038=
KJCT 081351Z AUTO 07004KT 10SM BKN008 OVC022 24/22 A3004 RMK AO2
     CIG 007V011 SLP134 T02440222 TSNO=
KJEF 081353Z 00000KT 10SM BKN005 OVC012 24/23 A3007 RMK AO2 SLP169
     T02440228=
KJER 081353Z AUTO 08012KT 10SM CLR 14/04 A3015 RMK AO2 SLP176
     T01440039=
KJKL 081353Z AUTO 00000KT 5SM HZ CLR 27/22 A3013 RMK AO2 SLP185
     T02670217=
KJYR 081350Z AUTO 01007KT 10SM CLR 19/17 A3019 RMK AO2=
####018000086####
SAUK35 EGGY 081350 RRA
METAR EGMC 081350Z 24006KT 190V270 9999 FEW040 26/15 Q1018=
####018000081####
SABZ24 SBFI 081400
METAR SBFI 081400Z 16007KT 9999 FEW020 BKN100 19/15 Q1017=
####018002032####
SAUS80 KWBC 081400 RRB
METAR
KP68 081353Z AUTO 20003KT 14/M01 A3018 RMK AO2 SLP139 T01391011
     PWINO TSNO=
PABE 081353Z 33003KT 10SM SCT035 SCT090 OVC120 10/10 A3000 RMK AO2
     SLP168 T00990097 PNO $=
PABT 081353Z 31003KT 10SM FEW100 SCT140 11/08 A3007 RMK AO2 SLP188
     T01110083=
PACD 081353Z 11004KT 10SM FEW050 SCT180 06/04 A2988 RMK AO2 SLP120
     T00560039 $=
PADQ 081353Z 30008KT 10SM FEW029 SCT042 OVC065 11/09 A2987 RMK AO2
     SLP115 T01060089 $=
PAFA 081353Z 05003KT 10SM FEW100 SCT200 11/08 A3004 RMK AO2 SLP175
     T01110078=
PAHO 081353Z AUTO 09003KT 10SM OVC110 11/08 A2993 RMK AO2 SLP136
     T01060078 TSNO=
PAJN 081353Z 00000KT 10SM FEW140 BKN200 10/08 A3016 RMK AO2 SLP214
     T01000083=
PAMC 081353Z 25004KT 10SM FEW080 SCT200 11/07 A2999 RMK AO2 SLP158
     T01110072=
PANC 081353Z 00000KT 10SM FEW045 BKN080 BKN200 12/12 A2999 RMK AO2
     RAB04E43 SLP157 P0001 T01220117=
PANN 081353Z AUTO 00000KT 10SM CLR 09/08 A3001 RMK AO2 RAB24E35
     SLP167 P0000 T00890078 TSNO=
PANT 081353Z 33005KT 10SM CLR 18/12 A3007 RMK AO2 SLP184
     T01780117=
PAOM 081353Z 35008KT 10SM SCT200 12/08 A3007 RMK AO2 SLP184
     T01220078=
PAOR 081353Z 00000KT 10SM FEW070 11/08 A3007 RMK AO2 SLP180
     T01060083=
PAOT 081353Z 30009KT 10SM FEW038 SCT090 BKN200 11/06 A3011 RMK AO2
     SLP197 T01110056=
KFWA 081354Z 20006KT 9SM OVC050 28/21 A3005 RMK AO2 SLP170
     T02830211=
KCAR 081354Z AUTO 18004KT 9SM CLR 27/22 A3001 RMK AO2 SLP160
     T02670217=
KSBN 081354Z 10005KT 7SM BKN090 23/22 A3004 RMK AO2 RAE38 SLP166
     P0005 T02330217=
KCOU 081354Z 13003KT 10SM FEW003 SCT014 OVC024 24/23 A3009 RMK AO2
     SLP180 T02390228=
K1V4 081354Z AUTO 28/22 A3004 RMK AO2 SLP158 T02780222 PWINO
     TSNO=
KMQE 081354Z AUTO 15007KT 26/19 A3011 RMK AO1 SLP200 T02610189=
KAVP 081354Z 00000KT 7SM CLR 29/19 A3006 RMK AO2 SLP167 T02890189
     $=
K12N 081354Z AUTO 00000KT 29/22 A3006 RMK AO2 SLP168 T02890217
     PWINO TSNO=
####018003707####
SAUS70 KWBC 081400 RRB
METAR
KALI 081353Z AUTO 04009G15KT 10SM FEW007 SCT016 BKN024 26/25 A2986
     RMK AO2 RAE45 SLP107 P0007 T02560250=
KALN 081350Z 00000KT 6SM BR SCT006 BKN022 OVC060 26/25 A3006=
KALW 081353Z 17004KT 10SM CLR 21/08 A3001 RMK AO2 SLP151
     T02060078=
KAMA 081353Z 36008KT 10SM FEW003 SCT007 OVC020 18/17 A3023 RMK AO2
     SLP198 T01780167=
KAMW 081353Z AUTO 35008KT 10SM FEW080 22/19 A3013 RMK AO2 SLP196
     T02220189=
KANB 081353Z AUTO 00000KT 9SM CLR 29/21 A3006 RMK AO2 SLP168
     T02890211=
KANW 081350Z AUTO 29004KT 10SM CLR 19/14 A3026 RMK AO2
     T01860142=
KAOH 081353Z AUTO 19004KT 10SM 29/22 A3007 RMK AO2 SLP173
     T02890217 $=
KAOO 081353Z AUTO 00000KT 5SM HZ CLR 28/18 A3011 RMK AO2 SLP183
     T02780183=
KAPA 081353Z 36007KT 2 1/2SM BR BKN002 BKN070 14/12 A3036 RMK AO2
     SFC VIS 4 SLP238 T01390122=
KAPF 081353Z 05008KT 10SM FEW030 29/23 A2998 RMK AO2 SLP152
     T02890233=
KARA 081353Z 09009KT 8SM BKN007 27/25 A3003 RMK AO2 CIG 005V011
     SLP169 T02720250=
KARB 081353Z VRB03KT 10SM CLR 29/21 A3004 RMK AO2 SLP163
     T02890211=
KASD 081353Z AUTO 07006KT 10SM CLR 29/25 A3004 RMK AO2 SLP172
     T02890250=
KASE 081353Z 00000KT 10SM CLR 10/07 A3040 RMK AO2 SLP195
     T01000067=
KASX 081353Z AUTO 25004KT 10SM CLR 22/17 A3006 RMK AO2 SLP177
     T02220167=
KATY 081353Z AUTO 26003KT 10SM CLR 19/15 A3016 RMK AO2 SLP205
     T01940150=
KAUG 081353Z AUTO VRB04KT 10SM BKN011 OVC017 23/21 A3010 RMK AO2
     SLP193 T02330206=
KAUH 081350Z AUTO 01004KT 10SM CLR 19/15 A3020 RMK AO2
     T01900154=
KAUN 081350Z AUTO 00000KT 10SM CLR 19/15 A2988 RMK AO1=
KAUS 081353Z 09004KT 4SM -RA BR BKN010 OVC014 26/24 A2998 RMK AO2
     RAB42 CIG 006V012 SLP142 P0000 T02610239=
KBTL 081353Z 07003KT 10SM CLR 27/21 A3004 RMK AO2 LTG DSNT W
     SLP165 T02720211=
KBTM 081353Z AUTO 00000KT 10SM CLR 09/02 A3033 RMK AO2 SLP235
     T00940017=
KBUR 081353Z 18003KT 4SM HZ OVC007 16/13 A2991 RMK AO2 SLP120
     T01560128=
KBVN 081350Z AUTO 34003KT 10SM CLR 20/15 A3021 RMK AO2
     T01970154=
KBVO 081353Z 07003KT 10SM FEW011 24/22 A3007 RMK AO2 SLP173
     T02390217=
KBVY 081353Z 17006KT 10SM CLR 26/21 A3009 RMK AO2 SLP183 T02560206
     PNO=
KBWG 081353Z AUTO 00000KT 10SM CLR 29/22 A3009 RMK AO2 SLP180
     T02940217=
KBYG 081353Z AUTO 00000KT 10SM CLR 17/04 A3031 RMK AO2 SLP220
     T01720044=
KBYI 081353Z AUTO 12005KT 10SM CLR 16/06 A3016 RMK AO2 SLP173
     T01560061=
KCAG 081353Z AUTO 05003KT 10SM BKN120 11/07 A3034 RMK AO2 SLP226
     T01110072=
KCCR 081353Z 22005KT 10SM SCT012 13/09 A2991 RMK AO2 SLP116
     T01280094=
KCDC 081353Z AUTO 00000KT 10SM CLR 14/04 A3018 RMK AO2 SLP144
     T01440039=
KCDW 081353Z VRB04KT 5SM HZ FEW031 28/23 A3005 RMK AO2 SLP178
     T02780228=
KCEZ 081353Z AUTO 33003KT 10SM CLR 19/07 A3027 RMK AO2 SLP167
     T01940072=
KCGI 081353Z 25005KT 10SM FEW110 28/24 A3006 RMK AO2 SLP174
     T02780239=
KCHO 081353Z VRB03KT 4SM HZ CLR 32/19 A3002 RMK AO2 SLP158
     T03220194=
KCKB 081353Z 00000KT 6SM HZ CLR 27/19 A3011 RMK AO2 SLP178
     T02670194=
KCLM 081353Z AUTO A3000 RMK AO2 SLPNO PWINO FZRANO $=
KCMI 081353Z 28004KT 10SM FEW020 SCT085 28/23 A3005 RMK AO2 SLP169
     T02780233=
KCMX 081353Z AUTO 28012KT 10SM FEW060 21/16 A3001 RMK AO2 SLP161
     T02110161=
KCNM 081353Z AUTO 32010KT 9SM -RA FEW007 BKN048 OVC100 19/19 A3018
     RMK AO2 SLP176 P0006 T01940189=
KCNO 081353Z 23003KT 2 1/2SM BR OVC009 15/13 A2994 RMK AO2 SLP133
     T01500128=
KCOT 081353Z AUTO 04006KT 10SM OVC009 26/23 A2991 RMK AO2 RAE1257
     SLP121 P0000 T02560233=
####018003745####
SAUS70 KWBC 081400 RRH
METAR
KLAA 081353Z AUTO 13008KT 10SM -RA SCT005 BKN011 OVC017 17/16
     A3028 RMK AO2 SLP218 P0001 T01670161=
KLAR 081353Z AUTO 00000KT 10SM BKN004 OVC017 09/08 A3042 RMK AO2
     CIG 002V008 SLP231 T00940083=
KLBF 081353Z AUTO 00000KT 10SM CLR 18/16 A3027 RMK AO2 SLP235
     T01780156=
KLCG 081350Z AUTO 00000KT 10SM CLR 20/17 A3019 RMK AO2
     T02020168=
KLBX 081353Z AUTO 00000KT 10SM FEW065 26/25 A2993 RMK AO2 RAE52
     SLP136 P0005 T02610250=
KLCH 081353Z 08009KT 6SM BR OVC006 27/25 A3001 RMK AO2 SLP170
     T02720250=
KLEB 081353Z 19003KT 5SM HZ OVC013 27/22 A3006 RMK AO2 SLP168
     T02720222=
KLEE 081353Z 00000KT 10SM CLR 27/20 A3003 RMK AO2 SLP169
     T02720200=
KLFK 081353Z AUTO 09007KT 10SM BKN010 27/24 A3003 RMK AO2 SLP164
     T02720244=
KLFT 081353Z VRB03KT 10SM OVC006 27/24 A3004 RMK AO2 CIG 004V010
     SLP170 T02670244=
KLGB 081353Z 33003KT 8SM OVC013 17/13 A2992 RMK AO2 SLP130
     T01670133=
KLHM 081351Z AUTO 16004KT 10SM CLR 16/11 A2985 RMK AO1
     T01600111=
KLHQ 081353Z AUTO 27005KT 5SM HZ CLR 28/22 A3009 RMK AO2 SLP181
     T02830217=
KLHX 081353Z AUTO 00000KT 10SM FEW021 OVC026 17/14 A3031 RMK AO2
     SLP213 T01720139 PNO=
KLLQ 081353Z AUTO 00000KT 10SM CLR 27/24 A3010 RMK AO2 SLP189
     T02670239=
KLMT 081353Z 00000KT 10SM FEW050 SCT100 BKN200 16/11 A3008 RMK AO2
     SLP136 T01610106=
KLNS 081353Z 12003KT 4SM HZ CLR 30/22 A3003 RMK AO2 SLP164
     T03000217=
KLOL 081353Z AUTO 02007KT 10SM CLR 21/M04 A3003 RMK AO2 SLP120
     T02111039=
KLOU 081353Z 14004KT 6SM HZ CLR 29/22 A3007 RMK AO2 SLP176
     T02890217=
KLOZ 081353Z AUTO 00000KT 4SM HZ CLR 27/21 A3012 RMK AO2 SLP184
     T02670211=
KMSY 081353Z 09005KT 10SM SCT022 BKN250 29/23 A3004 RMK AO2 SLP175
     T02890233=
KSGR 081353Z 07007KT 10SM FEW039 SCT085 25/23 A2996 RMK AO2 SLP152
     T02500228=
KSBA 081353Z 20004KT 8SM OVC011 14/12 A2991 RMK AO2 SLP130
     T01440122 $=
KSBM 081353Z AUTO VRB03KT 10SM BKN010 25/22 A3001 RMK AO2 SLP157
     T02500217=
KSDL 081353Z 00000KT 10SM CLR 29/09 A2985 RMK AO2 SLP076
     T02940094=
KSEG 081353Z AUTO 08004KT 7SM CLR 33/19 A3003 RMK AO2 SLP166
     T03280189=
KSFF 081353Z 00000KT 10SM CLR 18/10 A3008 RMK AO2 SLP170
     T01780100=
KSHN 081353Z AUTO 00000KT 10SM CLR 14/12 A2994 RMK AO2 SLP138
     T01390117=
KSHR 081353Z AUTO 00000KT 10SM CLR 14/08 A3027 RMK AO2 SLP231
     T01390083=
KSIY 081353Z AUTO 00000KT 10SM CLR 17/09 A2999 RMK AO2 SLP140
     T01670089 $=
KSJC 081353Z 00000KT 7SM FEW008 BKN011 OVC013 15/12 A2993 RMK AO2
     SLP135 T01500117=
KSLC 081353Z 14004KT 10SM FEW090 BKN130 22/07 A3012 RMK AO2 SLP144
     T02170072=
KSLN 081353Z 36011KT 10SM BKN010 22/19 A3015 RMK AO2 SLP198
     T02170194=
KSMF 081353Z 15009KT 10SM CLR 14/11 A2985 RMK AO2 SLP107
     T01390106=
KSMQ 081353Z AUTO 19003KT 5SM HZ OVC022 27/23 A3003 RMK AO2 SLP167
     T02720228=
KSNA 081353Z 22003KT 6SM HZ OVC015 18/13 A2992 RMK AO2 SLP129
     T01830128=
KSNS 081353Z 27003KT 6SM BR OVC009 13/11 A2994 RMK AO2 SLP147
     T01280106=
KSNY 081353Z AUTO 04004KT 10SM FEW003 SCT042 17/15 A3033 RMK AO2
     SLP238 T01720150=
KSPB 081353Z AUTO 00000KT 9SM CLR 17/14 A2992 RMK AO2 SLP130
     T01670139 $=
KSPG 081353Z 09005KT 10SM CLR 27/22 A3000 RMK AO2 SLP158
     T02720222=
KSPW 081353Z AUTO 32004KT 10SM CLR 21/16 A3017 RMK AO2 SLP211
     T02110161=
KSRQ 081353Z 07005KT 10SM CLR 28/23 A3000 RMK AO2 SLP157
     T02780228=
KSSF 081353Z 05011G15KT 10SM SCT012 BKN027 27/23 A2994 RMK AO2
     SLP127 T02670233=
KSTJ 081353Z 02010KT 10SM OVC011 23/21 A3011 RMK AO2 SLP190
     T02280206=
####018000133####
SAUS41 KLWX 081355
MTRRSP
METAR KRSP 081354Z AUTO 00000KT 2 1/2SM HZ CLR 29/19 A3011 RMK AO2 
VIS 1 3/4V5 SLP180 T02890194 $
####018000340####
SPXX60 KWBC 081356
SPECI
KFRI 081353Z AUTO 02007KT 10SM OVC008 22/20 A3014 RMK AO2 CIG
     007V010 SLP194 $=
KLTS 081348Z AUTO 35005KT 8SM R35L/5500VP6000FT R35R/5500VP6000FT
     RA OVC006 23/23 A3009 RMK AO2 RAB1322DZB1313E1322 SLP175
     $=
KNFG 081348Z AUTO 00000KT 10SM SCT011 OVC018 16/14 A2991 RMK AO2
     TSNO=
####018001847####
SAXX60 KWBC 081400
METAR
KNZY 081352Z 34004KT 8SM FEW008 OVC013 18/13 A2991 RMK AO2 DZE50
     SLP129 P0000 T01780133 $=
KNRB 081352Z VRB03KT 10SM CLR 28/19 A3002 RMK AO2 SLP165
     T02780194=
KIAG 081353Z 24004KT 10SM FEW100 29/21 A3003 RMK AO2 SLP161
     T02940206=
KDNK 081353Z AUTO 09006KT 9SM SCT011 27/23 A3004 RMK AO2 SLP169
     T02720233=
PHNL 081353Z 05007KT 10SM SCT060 24/18 A3001 RMK AO2 SLP160
     T02390178=
KNQX 081353Z 03005KT 10SM SCT022 BKN100 BKN200 30/25 A2996 RMK AO2
     SLP145 T2 SET T03000250 $=
KHMN 081355Z 15007KT 10SM CLR 21/15 A3017 RMK AO2A SLP132
     T02110148 $=
KHUA 081351Z 03010KT 12SM SKC 30/21 A3012 RMK AO2A SLP187 P0485
     T02990213 $=
KLRF 081355Z AUTO VRB05KT 10SM CLR 27/23 A3009 RMK AO2 SLP188
     T02710233=
KNFW 081352Z 12008KT 10SM SCT012 BKN024 OVC040 27/22 A3008 RMK AO2
     SLP168 RAE20 P0000 T02670222=
KNHK 081352Z 10009KT 10SM SCT012 SCT070 28/22 A3002 RMK AO2 SLP165
     T02830222=
KNZY 081352Z 34004KT 8SM FEW008 OVC013 18/13 A2991 RMK AO2 DZE50
     SLP129 P0000 T01780133 $=
KPOB 081355Z AUTO 04004KT 10SM CLR 31/22 A2997 RMK AO2 SLP148
     T03130224 $=
KNHK 081352Z 10009KT 10SM SCT012 SCT070 28/22 A3002 RMK AO2 SLP165
     T02830222=
KNZY 081352Z 34004KT 8SM FEW008 OVC013 18/13 A2991 RMK AO2 DZE50
     SLP129 P0000 T01780133 $=
KPOB 081355Z AUTO 04004KT 10SM CLR 31/22 A2997 RMK AO2 SLP148
     T03130224 $=
KNIP 081353Z 29003KT 10SM CLR 27/20 A3003 RMK AO2 SLP163
     T02720200=
PABI 081353Z AUTO 00000KT 10SM CLR 11/07 A3008 RMK AO2 SLP185
     T01110072 TSNO=
KNKT 081354Z 07010KT 10SM FEW018 29/23 A2994 RMK AO2 SLP137
     T02890233=
PATC 081355Z AUTO 36004KT 10SM CLR 09/06 A3013 RMK AO1
     T00890062=
PAEH 081355Z AUTO 13003KT 10SM OVC060 09/M28 A2997 RMK AO1
     T00941283=
####018003705####
SAUS80 KWBC 081400
METAR
K9V9 081352Z AUTO 25005KT 18/14 A3020 RMK AO2 SLP220 T01830139
     PWINO TSNO=
KTOL 081352Z 00000KT 9SM CLR 29/21 A3004 RMK AO2 SLP165
     T02940211=
KALS 081352Z AUTO 27003KT 10SM CLR 12/08 A3043 RMK AO2 SLP234
     T01170083=
KBDR 081352Z 10008KT 7SM SCT015 BKN050 26/23 A3006 RMK AO2 SLP180
     T02610228=
KMFD 081352Z 27003KT 7SM CLR 29/19 A3010 RMK AO2 SLP180
     T02890189=
KMLU 081353Z 07004KT 10SM CLR 28/24 A3008 RMK AO2 SLP184
     T02830244=
KP69 081352Z AUTO 00000KT 11/10 A3014 RMK AO2 SLP195 T01110100
     PWINO TSNO=
KCZZ 081352Z AUTO 00000KT 09/09 A2990 RMK AO2 SLP102 T00940094
     PWINO TSNO=
KN60 081352Z AUTO 25003KT 18/14 A3014 RMK AO1 SLP202 T01780139=
KCBE 081353Z AUTO 00000KT 7SM CLR 27/20 A3010 RMK AO1=
KUIL 081353Z AUTO 00000KT 10SM CLR 16/11 A2997 RMK AO2 SLP146
     T01560111 TSNO=
KBFF 081353Z AUTO 00000KT 10SM SCT039 17/13 A3031 RMK AO2 SLP234
     T01720128=
KBIL 081353Z 22008KT 10SM CLR 13/06 A3026 RMK AO2 SLP227
     T01330061=
KCDR 081353Z AUTO 26004KT 10SM CLR 15/12 A3030 RMK AO2 SLP249
     T01500117=
KCLL 081353Z 09010KT 8SM OVC009 27/23 A2999 RMK AO2 CIG 007V012
     SLP150 T02670233=
KCNY 081353Z AUTO 13006KT 10SM CLR 23/05 A3015 RMK AO2 SLP146
     T02280050=
KCRP 081351Z 03006KT 10SM SCT022CB SCT040 BKN060 27/25 A2985 RMK
     AO2 RAE31 SLP106 CB DSNT E TCU DSNT NE SE S SW P0001
     T02670250 $=
KCRQ 081353Z AUTO 00000KT 8SM SCT007 OVC015 17/14 A2991 RMK AO2
     SLP125 T01720139 TSNO=
KCQC 081353Z AUTO 08008KT 10SM SCT110 13/10 A3040 RMK AO2 SLP229
     T01280100 TSNO=
KFAR 081353Z 27005KT 10SM CLR 21/13 A3008 RMK AO2 SLP185
     T02110133=
KTLH 081353Z 33005KT 10SM CLR 29/22 A3003 RMK AO2 SLP168
     T02890222=
K6R6 081353Z AUTO 05004KT 23/21 A3005 RMK AO2 SLP142 P0001
     T02280211 PWINO TSNO=
KSAV 081353Z 29008KT 10SM CLR 30/19 A3000 RMK AO2 SLP156 T03000194
     $=
KHTL 081353Z AUTO 25006KT 6SM -RA BR FEW009 BKN041 OVC065 22/21
     A3005 RMK AO2 SLP170 P0003 T02220211=
KMSN 081353Z 32004KT 8SM BKN008 24/21 A3003 RMK AO2 SLP164
     T02390211=
KDBQ 081353Z 34005KT 9SM SCT011 24/21 A3007 RMK AO2 SLP176
     T02390206=
KDMN 081353Z AUTO 06007KT 10SM CLR 22/13 A3016 RMK AO2 SLP141
     T02170128=
KDRT 081353Z AUTO 00000KT 10SM BKN015 26/22 A2998 RMK AO2 SLP134
     T02610222=
KEMP 081353Z AUTO 04007KT 10SM FEW033 BKN045 23/19 A3011 RMK AO2
     SLP189 T02280194=
KORF 081351Z 07009KT 10SM FEW015 SCT080 BKN100 27/22 A2999 RMK AO2
     RAE1257 SLP155 P0000 T02720217=
KPDX 081353Z 00000KT 10SM FEW250 19/14 A2992 RMK AO2 SLP131
     T01890139=
KPGA 081353Z AUTO 00000KT 10SM CLR 26/04 A3009 RMK AO2 SLP115
     T02560039=
KGRR 081353Z 00000KT 3SM -RA BR FEW008 BKN036 OVC095 24/22 A3003
     RMK AO2 RAB41 SLP163 P0000 T02440222=
KFAT 081353Z 33005KT 10SM CLR 19/09 A2985 RMK AO2 SLP105 MTNS
     OBSCD DSNT N E-SE T01940094=
KFMN 081353Z 00000KT 10SM CLR 19/06 A3027 RMK AO2 SLP181
     T01940061=
KFNB 081353Z AUTO 02006KT 10SM FEW009 22/19 A3013 RMK AO2 SLP193
     T02220194=
KFNT 081353Z AUTO 20004KT 10SM CLR 28/21 A3003 RMK AO2 SLP161
     T02830211=
KGCC 081353Z AUTO 11003KT 10SM CLR 17/09 A3030 RMK AO2 SLP226
     T01670089=
KGEG 081353Z 05007KT 10SM CLR 18/08 A3008 RMK AO2 SLP167
     T01780083=
KHLC 081353Z AUTO 03005KT 10SM SCT090 19/15 A3023 RMK AO2 SLP222
     T01940150=
KHSI 081353Z AUTO 04003KT 10SM CLR 19/16 A3022 RMK AO2 SLP224
     T01890156=
KHSV 081353Z 02009KT 10SM FEW250 31/22 A3009 RMK AO2 SLP180
     T03110222 $=
KHVR 081353Z AUTO 26003KT 10SM CLR 14/10 A3021 RMK AO2 SLP223
     T01440100=
####018003723####
SAUS70 KWBC 081400 RRD
METAR
KPAH 081353Z 26004KT 10SM CLR 28/23 A3007 RMK AO2 SLP176
     T02830233=
KPBF 081353Z AUTO 00000KT 10SM CLR 27/23 A3009 RMK AO2 SLP188
     T02720233=
KPBG 081353Z AUTO 14006KT 7SM CLR 28/22 A3000 RMK AO2 SLP157
     T02780222=
KPBI 081353Z 06005KT 10SM BKN024CB BKN031 BKN055 32/28 A2997 RMK
     AO2 RAE05 SLP147 CB OHD-SW-NE MOV SW P0000 T03170279 $=
KPDK 081353Z VRB03KT 10SM CLR 31/18 A3006 RMK AO2 SLP157
     T03110183=
KPDT 081353Z 14004KT 10SM CLR 18/08 A3000 RMK AO2 SLP143
     T01780083=
KPEO 081353Z AUTO 23004KT 7SM CLR 29/22 A3007 RMK AO2 SLP175
     T02890222=
KPGD 081353Z AUTO 05008KT 10SM CLR 28/22 A3002 RMK AO2 SLP166
     T02780222 TSNO=
KPHD 081353Z AUTO 14003KT 7SM CLR 27/19 A3009 RMK AO2 SLP181
     T02720189=
KPIE 081353Z 08005KT 10SM CLR 27/22 A3001 RMK AO2 SLP162
     T02670217=
KPIH 081353Z 00000KT 10SM CLR 11/06 A3019 RMK AO2 SLP188
     T01110056=
KPIL 081353Z AUTO 36009KT 10SM -RA SCT016 SCT022 BKN030 28/26
     A2977 RMK AO2 RAB24 SLP079 P0002 T02830261=
KPIR 081353Z AUTO 27003KT 10SM CLR 18/13 A3019 RMK AO2 SLP214
     T01830133=
KPKB 081353Z 00000KT 6SM HZ CLR 27/21 A3012 RMK AO2 SLP189
     T02720211=
KPKD 081353Z AUTO 28006KT 10SM CLR 20/14 A3009 RMK AO2 SLP188
     T02000144=
KPMD 081353Z 00000KT 10SM CLR 19/01 A2992 RMK AO2 SLP105 T01890006
     $=
KPMP 081353Z 08008KT 10SM CLR 30/24 A2997 RMK AO2 SLP149
     T03000244=
KPNA 081350Z AUTO 30005KT 10SM BKN090 10/02 A3041 RMK AO2
     T00950022=
KPNC 081353Z AUTO 36006KT 10SM BKN009 BKN042 24/22 A3008 RMK AO2
     CIG 006V011 SLP175 T02440222=
KGEY 081353Z AUTO 00000KT 7SM CLR 14/05 A3028 RMK AO2 SLP228
     T01390050=
KGEZ 081353Z AUTO 19007KT 7SM CLR 28/22 A3005 RMK AO2 SLP167
     T02780217=
KGFK 081353Z 32006KT 10SM CLR 21/14 A3007 RMK AO2 SLP181
     T02060139=
KGFL 081353Z AUTO 00000KT 6SM HZ FEW090 29/22 A3003 RMK AO2 SLP165
     T02940222=
KGGW 081353Z AUTO 32004KT 10SM CLR 15/11 A3017 RMK AO2 SLP214
     T01500106 TSNO=
KGIF 081353Z AUTO 05005KT 10SM CLR 28/21 A3003 RMK AO2 SLP167
     T02780211 TSNO=
KGJT 081353Z 07014KT 10SM CLR 22/07 A3021 RMK AO2 SLP158
     T02170067=
KGLD 081353Z AUTO 00000KT 10SM OVC038 17/16 A3031 RMK AO2 SLP235
     T01720156=
KGLH 081353Z 00000KT 10SM CLR 27/24 A3007 RMK AO2 SLP188
     T02720239=
KGLR 081353Z AUTO 26005KT 8SM -RA SCT010 BKN060 22/21 A3003 RMK
     AO2 SLP164 P0005 T02170206=
KGMU 081353Z 05004KT 9SM CLR 32/18 A3006 RMK AO2 SLP165
     T03170183=
KGPT 081353Z 03004KT 10SM FEW022 31/25 A3004 RMK AO2 SLP172
     T03060250=
KGRB 081353Z 30006KT 2 1/2SM BR FEW006 BKN017 23/21 A3001 RMK AO2
     SLP159 T02330211=
KGRI 081353Z 36005KT 10SM CLR 19/15 A3022 RMK AO2 SLP223
     T01890150=
KGSH 081353Z AUTO 28004KT 4SM -RA FEW016 BKN055 BKN085 25/22 A3005
     RMK AO2 LTG DSNT SW AND W RAB07 SLP171 P0000 T02500222=
KGSP 081353Z VRB03KT 9SM CLR 31/19 A3004 RMK AO2 SLP156
     T03110189=
KGTF 081353Z 25003KT 10SM CLR 14/08 A3024 RMK AO2 SLP219
     T01440078=
KGUP 081353Z AUTO 12006KT 10SM CLR 20/08 A3029 RMK AO2 SLP071
     T02000083=
KGUY 081353Z AUTO 35006KT 10SM BKN011 BKN019 OVC026 19/18 A3023
     RMK AO2 RAB35E49 CIG 008V013 SLP199 P0000 T01890178=
KGVL 081353Z AUTO 02007KT 10SM CLR 30/19 A3009 RMK AO2 SLP169
     T03000194=
KGWO 081353Z AUTO 00000KT 10SM CLR 29/23 A3008 RMK AO2 SLP182
     T02890228=
KHAO 081353Z AUTO 00000KT 4SM HZ CLR 29/23 A3008 RMK AO2 SLP180
     T02890228=
KHBG 081353Z AUTO VRB03KT 10SM CLR 29/24 A3007 RMK AO2 SLP178
     T02890239=
KHDE 081350Z AUTO 02004KT 10SM BKN095 19/15 A3023 RMK AO2
     T01850152=
####018003703####
SAUS70 KWBC 081400 RRJ
METAR
KPSX 081353Z AUTO 14014G23KT 3SM -RA BR FEW002 28/26 A2990 RMK AO2
     RAE13B52 SLP125 P0004 T02780256=
KPTK 081353Z 23004KT 10SM FEW150 SCT240 30/21 A3003 RMK AO2 SLP159
     T03000206=
KPUB 081353Z 12005KT 10SM CLR 16/13 A3031 RMK AO2 SLP216
     T01610128=
KPUC 081353Z AUTO 30003KT 10SM CLR 19/03 A3025 RMK AO2 SLP161
     T01940028 TSNO=
KPUW 081353Z AUTO 09008KT 10SM CLR 18/08 A3008 RMK AO2 SLP169
     T01830078=
KRAC 081353Z AUTO 28006KT 10SM SCT010 OVC017 24/22 A3004 RMK AO2
     SLP166 T02440217=
KRAL 081353Z 00000KT 3SM BR OVC007 15/13 A2993 RMK AO2 SLP121
     T01500128=
KRBG 081353Z AUTO 00000KT 10SM CLR 16/12 A2995 RMK AO2 SLP139
     T01610117=
KRDD 081353Z 18008KT 10SM CLR 22/14 A2984 RMK AO2 SLP099
     T02220144=
KRHI 081353Z AUTO 32006KT 10SM CLR 21/16 A3007 RMK AO2 SLP178
     T02060161=
KRHV 081350Z 27006KT 4SM BR OVC009 15/12 A2993=
KRKP 081353Z AUTO 00000KT 2SM VCTS +RA FEW011 BKN027 OVC055 A2987
     RMK AO2 VIS 1 1/2V5 LTG DSNT SW TSB52RAE05B32 SLP118 P0025
     FZRANO $=
KRME 081353Z 00000KT 8SM CLR 28/21 A3007 RMK AO2 SLP174
     T02830211=
KRNT 081353Z 00000KT 9SM CLR 17/13 A2996 RMK AO2 SLP150
     T01670133=
KRSL 081353Z AUTO 35008KT 10SM OVC015 19/17 A3018 RMK AO2 SLP209
     T01940172=
KRSW 081353Z 04006KT 10SM CLR 28/23 A2998 RMK AO2 SLP151
     T02830228=
KRUE 081353Z AUTO 00000KT 10SM SCT045 27/23 A3009 RMK AO2 SLP180
     P0003 T02670233=
KRVS 081353Z 00000KT 10SM BKN023 24/23 A3005 RMK AO2 SLP180
     T02390228=
KRWF 081353Z AUTO 30007KT 10SM CLR 21/16 A3013 RMK AO2 SLP200
     T02110161=
KRWI 081353Z AUTO 05005KT 5SM HZ CLR 28/21 A2998 RMK AO2 RAB26E35
     SLP152 P0000 T02830206=
KRWL 081353Z AUTO 06006KT 10SM CLR 11/07 A3041 RMK AO2 SLP229
     T01110072=
KRXE 081353Z AUTO 07006KT 10SM CLR 12/06 A3025 RMK AO2 SLP206
     T01220056=
KSAC 081353Z 18006KT 10SM CLR 13/10 A2986 RMK AO2 SLP112
     T01330100=
KSAF 081353Z 11003KT 10SM CLR 16/10 A3036 RMK AO2 SLP193
     T01560100=
KZZV 081353Z AUTO 21003KT 7SM CLR 28/22 A3009 RMK AO2 SLP179
     T02780217=
PHJR 081353Z VRB03KT 10SM FEW060 22/17 A3002 RMK AO2 SLP170
     T02220172=
KRIL 081353Z AUTO 00000KT 10SM CLR 16/07 A3029 RMK AO2 SLP201
     T01560072 TSNO=
KBAF 081353Z 16006KT 5SM BR OVC007 24/22 A3008 RMK AO2 SLP182
     T02440222=
PHJR 081353Z VRB03KT 10SM FEW060 22/17 A3002 RMK AO2 SLP170
     T02220172=
KSPA 081355Z AUTO 36004KT 10SM CLR 30/23 A3003 RMK AO2=
KSPL 081355Z AUTO 00000KT 27/26 A2975 RMK AO2 PWINO PNO=
KSSI 081353Z AUTO 30007KT 10SM CLR 28/20 A3001 RMK AO2 SLP162
     T02780200=
KSZT 081350Z AUTO 00000KT 10SM CLR 14/10 A3012 RMK AO2=
KTEX 081354Z AUTO 00000KT 10SM CLR 14/04 A3047 RMK AO2=
KTIF 081350Z AUTO 30004KT 10SM BKN120 19/14 A3028 RMK AO2
     T01850144=
KTRL 081353Z AUTO 11006KT 10SM BKN012 BKN070 28/23 A3005 RMK AO2
     SLP169 T02780228=
KUTA 081355Z AUTO 00000KT 10SM CLR 28/22 A3009 RMK AO2=
KABY 081353Z 00000KT 10SM CLR 29/22 A3006 RMK AO2 SLP176
     T02890217=
KAMG 081353Z AUTO 29006KT 10SM CLR 29/20 A3002 RMK AO2 SLP164
     T02890200=
KBDN 081355Z AUTO 20004KT 10SM CLR 14/03 A3012 RMK AO2=
KBRO 081353Z 32006KT 10SM FEW033 SCT060 27/25 A2979 RMK AO2 SLP085
     T02670250=
KCEW 081353Z AUTO 00000KT 10SM CLR 29/24 A3005 RMK AO2 SLP173
     T02940244=
KCGC 081355Z AUTO 00000KT 10SM CLR 28/22 A3002 RMK=
KCRE 081353Z 02006KT 8SM CLR 31/22 A2993 RMK AO2 SLP136
     T03110217=
KCRG 081353Z 26005KT 10SM CLR 28/19 A3002 RMK AO2 SLP166
     T02780194=
KCUB 081353Z AUTO 33004KT 10SM CLR 32/20 A3000 RMK AO2 SLP156
     T03170200=
####018000082####
SPAU32 YBBN 081354
SPECI YBMA 081354Z AUTO 00000KT 7000NDV // NCD 08/07 Q1020=
####018000032####
SAAW41 KWBC 081350 RRD
NIL=
####018000078####
SAMZ40 FQMA 081400
METAR FQBR 081400Z 17009KT 9999 FEW020 24/19 Q1024=

####018000028####
SABX31 KWBC 081350
NIL=
####018000142####
SACA31 KWBC 081300 RRC
METAR
MWCB 081300Z 16006KT 9999 SCT016 30/25 Q1014=
MWCR 081300Z 15009KT 9999 FEW018 BKN250 30/24 Q1014 NOSIG=
####018000868####
SAMX43 MMMZ 081400
METAR MMCL 081340Z 16004KT 8SM  SCT020 OVC080 27/23 A2978 
      RMK 8/47/ HZY=
METAR MMCN 081353Z 00000KT 10SM  BKN080 BKN200 27/19 A2974 
      RMK 8/055 RTS=
METAR MMDO 081345Z 00000KT 12SM  OVC020 18/16 A3015 
      RMK 8/4// BINOVC LWR ST=
METAR MMHO 081346Z 00000KT 10SM  BKN080 29/12 A2982 RMK 8/050 HZY=
METAR MMLM 081345Z 00000KT 10SM  SKC 26/20 A2980 RMK ISOL AC HZY=
METAR MMLP 081342Z 18010KT 10SM  SKC 19/15 A2980 RMK ISOL AC=
METAR MMLT 081355Z 00000KT 8SM  SKC 27/18 A2975=
METAR MMML 081340Z 12006KT 12SM  SKC 25/14 A2972 RMK SC-ST-NE RTS=
METAR MMMZ 081346Z 02003KT 10SM  FEW012 BKN030 OVC070 27/22 A2978 
      RMK 8/47/ HZY=
METAR MMSD 081343Z 03004KT 12SM  SKC 23/15 A2979=
METAR MMSL 081342Z 01005KT 10SM  SKC 27/13 A2976 RMK CI=
METAR MMTJ 081345Z 00000KT 3SM BR  OVC008 16/14 A2995 RMK 8/6//=
####018000542####
SANO33 ENMI 081350
METAR ENAT 081350Z 18007KT 140V210 9999 FEW035 SCT045 BKN080 23/06
           Q1011=
METAR ENBL 081350Z 23011KT 9999 FEW025 SCT035 BKN050 16/09 Q1011=
METAR ENEV 081350Z 09007KT 9999 BKN055 20/09 Q1009 =
METAR ENFL 081350Z 20011KT 140V250 9999 FEW013 SCT050 17/12 Q1012=
METAR ENKB 081350Z 27010KT 9999 FEW045TCU SCT093 16/10 Q1011=
METAR ENKR 081350Z 16005KT 9999 FEW025 17/10 Q1016 =
METAR ENML 081350Z 27008KT 9999 VCSH FEW040 SCT060 21/08 Q1010=
METAR ENNA 081350Z 16013KT 9999 FEW045CB SCT070 23/09 Q1012 =
####018000401####
SANO35 ENMI 081350
METAR ENMS 081350Z 36003KT 9999 VCSH FEW040CB SCT070 19/10 Q1009 =
METAR ENRM 081350Z NIL=
METAR ENRS 081350Z NIL=
METAR ENSK 081350Z 28012KT 9999 VCSH FEW025CB SCT040 BKN070 13/11
           Q1011 RESHRA=
METAR ENSO 081350Z 18009KT 120V220 9999 FEW030 18/09 Q1014=
METAR ENST 081350Z 01006KT 340V050 CAVOK 19/11 Q1010=
METAR ENVD 081350Z 11011KT 9999 FEW022 13/08 Q1017=
####018000698####
SADL31 KWBC 081350
METAR
EDBB NIL=
EDBT NIL=
EDCK NIL=
EDDF 081350Z 18006KT 130V220 CAVOK 31/11 Q1019 NOSIG=
EDDH 081350Z 26009KT CAVOK 29/10 Q1018 NOSIG=
EDDK 081350Z 17003G13KT CAVOK 32/09 Q1018 NOSIG=
EDDL 081350Z 23004KT 210V310 CAVOK 31/07 Q1018 NOSIG=
EDDM 081350Z 04004KT 010V110 CAVOK 25/08 Q1022 NOSIG=
EDDN 081350Z VRB02KT CAVOK 28/07 Q1021 NOSIG=
EDDS 081350Z VRB03KT CAVOK 29/08 Q1021 NOSIG=
EDDW 081350Z 26010KT 210V280 CAVOK 31/08 Q1018 NOSIG=
EDFE 081350Z 09002KT CAVOK 31/10 Q1019=
EDFM 081350Z 29003KT 160V060 CAVOK 32/10 Q1019=
EDHI NIL=
EDHL 081350Z 22007KT 170V280 CAVOK 30/13 Q1019=
EDKB NIL=
EDKS NIL=
EDLE NIL=
EDLG NIL=
EDLI NIL=
####018000519####
SADL32 KWBC 081350
METAR
EDLN 081350Z 24004KT 180V300 CAVOK 32/11 Q1018=
EDLP 081350Z VRB03KT CAVOK 32/11 Q1019=
EDLS NIL=
EDLW 081350Z 28006KT 230V320 CAVOK 31/10 Q1019=
EDMA 081350Z 36004KT 250V080 CAVOK 28/09 Q1022=
EDML NIL=
EDMO 081350Z 05007KT 010V070 CAVOK 26/09 Q1022=
EDMS NIL=
EDQD NIL=
EDQM 081350Z VRB03KT CAVOK 25/06 Q1023=
EDRS NIL=
EDRT NIL=
EDTB NIL=
EDTD 081350Z 12005KT 060V190 CAVOK 28/13 Q1022=
EDTF NIL=
EDTK NIL=
EDTO NIL=
EDTY NIL=
EDTZ NIL=
EDVE NIL=
####018000173####
SADL33 KWBC 081345 RRB
METAR
EDNY 081350Z 26006KT CAVOK 29/11 Q1021=
EDVK 081350Z 21006KT 170V240 CAVOK 28/10 Q1021=
EDXW 081350Z 23008KT 9999 FEW040 20/16 Q1019=
####018001313####
SADN31 KWBC 081350
METAR
EKAH 081350Z AUTO 21002KT 9999NDV BKN100/// 22/15 Q1019=
EKBI 081350Z 25007KT 210V280 8000 -SHRA FEW017 BKN055 20/19
     Q1019=
EKCH 081350Z 17012KT CAVOK 22/15 Q1020 NOSIG=
EKEB 081350Z AUTO 18008KT 8000NDV -SHRA FEW003/// BKN053/// 19/17
     Q1018 RESHRA=
EKHO NIL=
EKKA 081350Z 21005KT 170V230 9999 SCT007 FEW010TCU BKN012 19/17
     Q1018=
EKMB NIL=
EKOD 081350Z 19008KT CAVOK 26/12 Q1019=
EKRK 081350Z AUTO 22011KT 9999NDV BKN050/// 24/11 Q1020=
EKRN 081350Z AUTO 20004KT 180V240 9999NDV NCD 20/15 Q1022=
EKSB 081350Z 24006KT 190V260 CAVOK 26/13 Q1018=
EKSN 081350Z 27004KT 9999 -RA SCT018 BKN031 15/13 Q1018=
EKSP 081350Z 27012KT 9999 -RA FEW025 BKN100 21/14 Q1019=
EKSV NIL=
EKTS NIL=
EKVA NIL=
EKVD 081350Z 27008KT 9999 FEW025 SCT050 BKN100 20/16 Q1019=
EKVD 081350Z NIL=
EKVG 081352Z 20010KT 170V240 9999 -SHRA SCT006 BKN010 BKN014 11/09
     Q0995 RMK/RWY 13/31 CLOSED DUE WIP/ SEE NOTAM E0050/10 WIND
     850FT VRB05G24KT=
EKVG 081352Z 20010KT 170V240 9999 -SHRA SCT006 BKN010 BKN014 11/09
     Q0995 RMK/RWY 13/31 CLOSED DUE WIP. SEE NOTAM E0050/10 WIND
     850FT VRB05G24KT=
EKVJ 081350Z 20006KT 9000 SCT006 BKN010 BKN020 20/17 Q1018=
EKVL NIL=
EKYT 081350Z 23009KT 4500 -SHRA SCT010TCU BKN018 18/18 Q1018=
####018000203####
SAEM31 KWBC 081330 RRC
METAR
LOWI 081350Z 08006KT 030V120 9999 FEW080 29/14 Q1020 NOSIG=
LOWK 081350Z VRB02KT 9999 FEW060 27/11 Q1021 NOSIG=
LOWS 081350Z VRB04KT 9999 FEW060 26/08 Q1022 NOSIG=
####018001519####
SAEN31 KWBC 081350
METAR
EETN 081350Z 30009KT CAVOK 26/18 Q1014 NOSIG=
EFHF 081350Z 35007KT 310V030 9999 SCT049CB 28/18 Q1013=
EFHK 081350Z 32006KT 9999 FEW028 FEW040CB BKN060 28/17 Q1013 BECMG
     TS=
EFIV NIL=
EFJY 081350Z 07002KT 9999 SCT035 SCT200 25/16 Q1014=
EFKE NIL=
EFKK 081350Z AUTO 24006KT 170V310 CAVOK 26/09 Q1014=
EFKU 081350Z AUTO 36004KT CAVOK 25/17 Q1014=
EFMA 081350Z 20010KT 170V230 CAVOK 21/14 Q1016=
EFOU 081350Z VRB03KT 9999 FEW040 BKN200 23/11 Q1014=
EFPN NIL=
EFPO 081350Z AUTO 27010KT 230V300 CAVOK 24/11 Q1015=
EFRO 081350Z AUTO 12005KT 070V170 CAVOK 21/09 Q1015=
EFTN NIL=
EFTP 081350Z 30007KT 230V350 9999 FEW045 26/13 Q1015=
EFTU 081350Z AUTO 31009KT 270V350 CAVOK 25/11 Q1015=
EFVA 081350Z 26007KT 220V320 9999 FEW030 SCT200 25/12 Q1014=
ENBO 081350Z 25006KT 9999 FEW040CB SCT080 14/10 Q1011 TEMPO TS
     SHRA BKN030CB=
ENBR 081350Z 19013KT 9999 FEW020 SCT040 16/10 Q1014 NOSIG=
ENCN 081350Z 19012KT 9999 FEW010 BKN070 17/15 Q1016=
ENEB NIL=
ENFB NIL=
ENGM NIL=
ENHD 081350Z 21012KT 9999 FEW035 16/12 Q1015=
ENKR 081350Z 16005KT 9999 FEW025 17/10 Q1016=
ENSB 081350Z 26014KT 9999 FEW010 SCT035 BKN0090 09/05 Q1009=
ENTC 081350Z 03008KT 9999 FEW065 SCT090 19/08 Q1010 NOSIG=
ENVA 081350Z 32013KT 9999 FEW040CB FEW060 20/13 Q1010 NOSIG=
ENZV 081350Z 20011KT 9999 SCT020 BKN150 18/12 Q1015 NOSIG=
EVRA 081350Z 31010KT 270V340 9999 OVC030 21/16 Q1016 NOSIG=
EYVI 081350Z 29010KT 270V330 4000 BR OVC005 15/14 Q1015 NOSIG=
####018000109####
SAEN31 KWBC 081320 RRB
METAR
ENGM 081341Z 19010KT 160V220 9999 FEW014 BKN017 17/14 Q1015
     NOSIG=
####018000028####
SAGR31 KWBC 081350
NIL=
####018000081####
SAGR31 KWBC 081320 RRB
METAR
LGAD 081320Z 29009KT 9999 FEW020 27/14 Q1014=
####018000028####
SAGR41 KWBC 081350
NIL=
####018000028####
SAIY31 KWBC 081350
NIL=
####018000028####
SAIY32 KWBC 081350
NIL=
####018000028####
SAIY42 KWBC 081350
NIL=
####018000028####
SAIY41 KWBC 081350
NIL=
####018000028####
SAIY43 KWBC 081350
NIL=
####018000377####
SAMX31 KWBC 081345 RRE
METAR
MMCZ 081342Z 10008KT 6SM SCT015 BKN100 BKN200 27/24 A2990 RMK
     8/569 HZY=
MMMD 081345Z 11008KT 5SM SCT005 BKN080 BKN140 18/18 A2988 RMK
     8/570 HZY CI=
MMTP 081348Z 00000KT 15SM SCT020 BKN160 OVC250 25/23 A2990 RMK
     8/176=
MMUN 081342Z 13008KT 6SM BKN016TCU BKN090 OVC280 29/25 A2991 RMK
     8/277 HZ LWR SC BINOVC=
####018000497####
SAMX41 KWBC 081345 RRB
METAR
MMCE 081345Z 15008KT 7SM SCT010 BKN070 BKN200 27/25 A2981 RMK
     8/136=
MMCM 081345Z 12010KT 7SM BKN020 BKN050 OVC100 26/22 A2980 RMK
     8/53/=
MMCU 081345Z 06008KT 10SM BKN030 BKN100 23/12 A3014 RMK 8/570
     CUPOTS/W=
MMCV 081346Z 25010KT 12SM BKN040 BKN090 25/24 A2988 RMK 8/570=
MMMT 081345Z 22010KT 10SM BKN015 BKN050 OVC100 25/23 A2980 RMK
     8/57/=
MMRX 081345Z 33008KT 6SM BKN008 OVC015 27/25 A2983 RMK 8/8// -RA
     OCNL HZ=
####018000091####
SAMX42 KWBC 081345 RRB
METAR
MMTC 081345Z 27006KT 10SM BKN030 22/18 A3005 RMK 8/500=
####018000342####
SANL31 KWBC 081350
METAR
EHAM NIL=
EHBD NIL=
EHBK NIL=
EHDL NIL=
EHEH 081355Z AUTO 31004KT 9999NDV NCD 32/12 Q1018 BLU BLU=
EHGG NIL=
EHGR NIL=
EHHO NIL=
EHHV NIL=
EHKD NIL=
EHLE NIL=
EHLW NIL=
EHMZ NIL=
EHRD NIL=
EHSB NIL=
EHTE NIL=
EHTW NIL=
EHTX NIL=
EHVB NIL=
EHVK NIL=
EHVL NIL=
EHWO NIL=
####018000974####
SANO41 KWBC 081350
METAR
ENAL 081350Z 23016KT 9999 VCSH SCT047TCU SCT070 17/10 Q1010=
ENAN 081350Z 31008KT 9999 VCTS NSC 14/10 Q1010=
ENAT 081350Z 18007KT 140V210 9999 FEW035 SCT045 BKN080 23/06
     Q1011=
ENBL 081350Z 23011KT 9999 FEW025 SCT035 BKN050 16/09 Q1011=
ENBN 081350Z 34006KT 9999 FEW050 SCT070 18/11 Q1011=
ENBV 081350Z 09017KT 9999 FEW038 12/10 Q1015=
ENDI 081350Z NIL=
ENDU 081350Z VRB02KT 9999 VCSH FEW050 SCT060 BKN180 17/11
     Q1010=
ENEK 081350Z 22011KT CAVOK 16/12 Q1016 W15/S3=
ENEV 081350Z 09007KT 9999 BKN055 20/09 Q1009=
ENFG 081350Z 19010KT 9999 VCSH SCT022 17/09 Q1013=
ENFL 081350Z 20011KT 140V250 9999 FEW013 SCT050 17/12 Q1012=
ENFR NIL=
ENGC 081350Z 19025KT CAVOK 13/11 Q1009=
ENHF 081350Z 22003KT 9999 FEW035 BKN080 20/09 Q1011=
ENHV 081350Z VRB02KT CAVOK 13/08 Q1012=
ENKB 081350Z 27010KT 9999 FEW045TCU SCT093 16/10 Q1011=
ENLI NIL=
ENLK 081350Z 00000KT CAVOK 17/10 Q1010=
ENMH 081350Z NIL=
####018001245####
SANO42 KWBC 081350
METAR
ENML 081350Z 27008KT 9999 VCSH FEW040 SCT060 21/08 Q1010=
ENMS 081350Z 36003KT 9999 VCSH FEW040CB SCT070 19/10 Q1009=
ENNA 081350Z 16013KT 9999 FEW045CB SCT070 23/09 Q1012=
ENNK 081350Z VRB02KT 9999 BKN075 18/12 Q1009=
ENNM 081350Z VRB02KT 9999 SCT045 19/12 Q1010=
ENNO 081350Z 14011G18KT 9999 SCT025 BKN075 20/14 Q1013=
ENOA 081350Z 20023KT 9999 FEW045 13/11 Q1011=
ENOL 081350Z VRB02KT 9999 SCT040 21/07 Q1010 NOSIG=
ENOV 081350Z VRB07G17KT 9999 VCSH FEW040 SCT055TCU 18/08 Q1011=
ENRA 081350Z 12002KT 9999 VCSH SCT050 SCT070 17/12 Q1010=
ENRM 081350Z NIL=
ENRO 081350Z 12006KT 080V220 9999 SCT050 BKN100 18/10 Q1011=
ENRS 081350Z NIL=
ENRY 081350Z 19010KT 150V230 9999 -RA SCT007 BKN011 17/15
     Q1016=
ENSD 081350Z NIL=
ENSG 081350Z NIL=
ENSH 081350Z 35012KT 9999 FEW020 BKN050 16/10 Q1010=
ENSK 081350Z 28012KT 9999 VCSH FEW025CB SCT040 BKN070 13/11 Q1011
     RESHRA=
ENSN 081350Z 19012KT 150V220 8000 SCT007 BKN11 17/15 Q1015=
ENSO 081350Z 18009KT 120V220 9999 FEW030 18/09 Q1014=
ENSR 081350Z NIL=
ENST 081350Z 01006KT 340V050 CAVOK 19/11 Q1010=
ENSV NIL=
ENTO 081350Z 20012KT 9000 -DZ BKN005 16/15 Q1016=
ENVD 081350Z 11011KT 9999 FEW022 13/08 Q1017=
####018000028####
SAOM43 KWBC 081350
NIL=
####018001181####
SASN31 KWBC 081350
METAR
ESDB NIL=
ESDF 081350Z 20010KT CAVOK 23/12 Q1020=
ESGG 081350Z 20013KT 4500 -RA BR SCT005 BKN007 16/15 Q1019
     REDZ=
ESGJ 081350Z 23012KT 9999 FEW046 SCT082 22/10 Q1019=
ESGP 081350Z 19014KT 6000 -RA FEW008 SCT013 BKN022 17/15 Q1019
     REDZ=
ESKN 081350Z 24012KT 200V280 9999 SCT049 26/13 Q1017=
ESMK 081350Z 22009KT 190V240 CAVOK 26/10 Q1020=
ESMS 081350Z 20010KT CAVOK 24/10 Q1021=
ESMX 081350Z 21009KT CAVOK 24/12 Q1019=
ESNN 081350Z AUTO 19004KT 150V230 9999NDV FEW042/// 22/13
     Q1012=
ESNO 081350Z 15010KT CAVOK 21/12 Q1013=
ESNQ 081350Z 17013KT 9999 -RA FEW032 SCT042 15/12 Q1012 REDZ=
ESNS 081350Z AUTO 15008KT 9999NDV ////// 23/09 Q1013=
ESNU 081350Z 17009KT CAVOK 20/13 Q1014=
ESOK 081350Z 17008KT 140V210 9999 BKN025 21/14 Q1017=
ESOW 081350Z 23011KT 9999 SCT047 23/13 Q1017=
ESPA 081350Z 15010KT CAVOK 18/14 Q1015=
ESPC NIL=
ESSA 081350Z 24011KT 9999 SCT045 25/14 Q1016 NOSIG=
ESSB 081350Z 26009KT 9999 SCT047 25/13 Q1016=
ESSD 081350Z AUTO 22009KT 9999NDV BKN027/// 20/13 Q1016=
ESSN NIL=
ESSP 081350Z 27009KT 220V310 CAVOK 25/13 Q1017=
ESSV 081350Z 26009KT CAVOK 23/10 Q1019=
####018002929####
SAUS20 KNKA 081355
METAR KAAO 081354Z AUTO 36010KT 10SM OVC006 22/21 A3012 RMK AO2 
    SLP187 T02220206=
METAR KAFJ 081355Z AUTO 00000KT 8SM CLR 27/20 A3012 RMK AO1=
METAR KAIZ 081355Z AUTO 00000KT 7SM BKN009 BKN036 OVC055 23/22 A3008 
    RMK AO1 P0002=
METAR KAKH 081354Z AUTO 01008KT 7SM CLR 31/18 A3003 RMK AO2 SLP159 
    T03110183=
METAR KAKR 081354Z AUTO 21005KT 10SM CLR 29/18 A3008 RMK AO2 SLP175 
    T02890183=
METAR KALO 081354Z AUTO 34010KT 10SM CLR 22/19 A3009 RMK AO2 SLP186 
    T02220194=
METAR KAPC 081354Z 26009KT 10SM OVC006 12/10 A2992 RMK AO2 SLP123 
    T01170100=
METAR KARG 081355Z AUTO 22006KT 10SM OVC095 27/23 A3008 RMK AO1=
METAR KAUO 081355Z AUTO 03005KT 10SM CLR 31/21 A3005 RMK AO1=
METAR KAUW 081354Z AUTO 31005KT 10SM SCT006 BKN012 21/18 A3004 RMK 
    AO2 SLP172 P0001 T02060183=
METAR KAVL 081354Z 35007KT 8SM CLR 27/19 A3015 RMK AO2 SLP179 
    T02670189=
METAR KAWO 081355Z AUTO 00000KT 10SM CLR 16/14 A2999 RMK AO1=
METAR KBFL 081354Z 00000KT 10SM CLR 22/12 A2986 RMK AO2 SLP106 
    T02170117=
METAR KBHB 081355Z AUTO 19010KT 7SM OVC003 19/18 A3014 RMK AO1=
METAR KBID 081355Z AUTO 09006KT 10SM OVC005 23/22 A3009 RMK AO1=
METAR KBKX 081355Z AUTO 26005KT 10SM CLR 21/16 A3017 RMK AO1=
METAR KBLM 081355Z AUTO 16008KT 10SM BKN012 BKN060 OVC075 26/19 
    A3008 RMK AO1=
METAR KBOS 081354Z 15008KT 10SM SCT220 26/20 A3009 RMK AO2 SLP190 
    T02610200=
METAR KBTP 081355Z AUTO 16003KT 8SM CLR 27/21 A3010 RMK AO1=
METAR KBUF 081354Z 21005KT 10SM FEW095 29/19 A3004 RMK AO2 SLP168 
    ACC S T02940189=
METAR KBUY 081354Z AUTO 01007KT 5SM HZ CLR 32/19 A3001 RMK AO2 
    SLP153 T03170194=
METAR KBVX 081355Z AUTO 25005KT 10SM BKN085 OVC110 27/22 A3009 RMK 
    AO1=
METAR KBWI 081354Z 12008KT 5SM HZ FEW024 31/22 A3002 RMK AO2 SLP164 
    T03060222=
METAR KCEU 081354Z AUTO 00000KT 9SM CLR 30/21 A3006 RMK AO2 SLP165 
    T03000211=
METAR KCGZ 081355Z AUTO 00000KT 10SM CLR 28/01 A2984 RMK AO1=
SPECI KCID 081354Z 33007KT 7SM BKN007 22/20 A3007 RMK AO2 CIG 
    006V010=
METAR KCIU 081355Z AUTO 02010KT 10SM SCT006 OVC012 21/18 A3000 RMK 
    AO1=
METAR KCOD 081355Z 00000KT 10SM CLR 13/03 A3034 RMK AO1=
METAR KCOE 081355Z AUTO 05008KT 10SM CLR 17/09 A3010 RMK AO1=
METAR KCOS 081354Z 17003KT 10SM CLR 15/12 A3037 RMK AO2 SLP230 
    T01500117=
METAR KCRW 081354Z 00000KT 5SM HZ CLR 27/21 A3010 RMK AO2 SLP182 
    T02720206=
METAR KCVN 081355Z AUTO 04014KT 10SM CLR 18/14 A3026 RMK AO1=
METAR KCVO 081355Z AUTO 28004KT 10SM CLR 13/10 A2995 RMK AO1=
METAR KCWI 081355Z 34004KT 10SM SCT005 A3006 RMK AO1=
METAR KDDH 081354Z AUTO 00000KT 5SM HZ CLR 28/22 A3006 RMK AO2 
    SLP173 T02780217=
METAR KDEC 081354Z 00000KT 10SM SCT007 28/23 A3005 RMK AO2 SLP170 
    T02780228=
METAR KDSM 081354Z 01009KT 10SM FEW015 SCT150 BKN250 23/18 A3012 RMK 
    AO2 SLP191 T02330183=
####018000309####
SAHW31 KMSC 081355
METAR PHMK 081354Z AUTO 03008KT 10SM FEW060 22/17 A3002 RMK AO2 
    SLP167 T02170172 TSNO=
METAR PHOG 081354Z AUTO 05006KT 10SM SCT065 23/17 A3000 RMK AO2 
    SLP164 T02280167 TSNO=
METAR PGSN 081354Z 11009KT 10SM FEW023 28/24 A2992 RMK AO2 SLP128 
    T02780244 403720267=
####018002474####
SAUS20 KNKA 081355
METAR KRUT 081355Z AUTO 00000KT 7SM CLR 28/22 A3005 RMK AO1=
METAR KSBY 081354Z 11004KT 10SM SCT065 26/22 A3003 RMK AO2 SLP172 
    T02560222=
METAR KSDY 081355Z AUTO 16003KT 10SM BKN100 17/11 A3018 RMK AO1=
METAR KSET 081354Z AUTO 00000KT 7SM OVC008 26/24 A3005 RMK AO2 RAE47 
    SLP171 P0001 T02560244=
METAR KSFM 081355Z 19004KT 8SM FEW012 OVC036 25/19 A3010 RMK AO1=
METAR KSFZ 081355Z AUTO 20003KT 10SM FEW019 24/20 A3009 RMK AO1=
METAR KSGT 081355Z 22003KT 10SM CLR A3009 RMK AO1=
METAR KSGU 081355Z AUTO 00000KT 10SM CLR 23/01 A3001 RMK AO1=
METAR KSJN 081354Z AUTO 13007KT 10SM FEW110 22/07 A3021 RMK AO2 
    SLP124 T02220067=
METAR KSKX 081355Z AUTO 35010KT 10SM CLR 15/07 A3041 RMK AO1=
METAR KSLG 081355Z AUTO 18005KT 10SM OVC015 24/22 A3010 RMK AO1=
METAR KSMN 081355Z AUTO 00000KT 10SM CLR 10/04 A3028 RMK AO1=
METAR KSQI 081355Z 30006KT 10SM FEW009 OVC019 24/22 A3007 RMK AO1=
METAR KSUE 081355Z AUTO 34006KT 10SM BKN018 OVC043 22/21 A3002 RMK 
    AO1=
METAR KSUS 081354Z 00000KT 10SM -RA SCT012 BKN150 25/23 A3005 RMK 
    AO2 SLP165 P0003 T02500233=
METAR KSYR 081354Z 00000KT 8SM CLR 30/22 A3004 RMK AO2 SLP166 
    T03000217=
METAR KTAD 081354Z AUTO 30003KT 10SM CLR 16/12 A3035 RMK AO2 SLP224 
    T01560122=
METAR KTPL 081355Z 08007KT 5SM BKN009 OVC015 25/23 A3002 RMK AO1 
     =
METAR KTQE 081354Z AUTO 36007KT 10SM CLR 22/18 A3017 RMK AO2 SLP203 
    T02170178=
METAR KTVF 081355Z AUTO 27008KT 10SM CLR 18/13 A3006 RMK AO1=
METAR KUIN 081354Z AUTO 31003KT 10SM FEW004 SCT110 23/22 A3007 RMK 
    AO2 SLP178 T02330217=
METAR KUZA 081354Z AUTO 02005KT 6SM HZ CLR 29/20 A3002 RMK AO2 
    SLP151 T02940200=
METAR KVAY 081354Z AUTO 13006KT 8SM FEW015 BKN110 27/22 A3004 RMK 
    AO2 SLP172 T02720222=
METAR KVBT 081355Z AUTO 17005KT 10SM OVC016 24/21 A3007 RMK AO1=
METAR KVIS 081355Z AUTO 30004KT 10SM CLR 18/11 A2984 RMK AO1=
METAR KVQQ 081350Z 00000KT 10SM CLR 28/22 A3002 =
METAR KVSF 081354Z AUTO 00000KT 6SM HZ OVC014 26/22 A3009 RMK AO2 
    SLP185 T02560217=
METAR KVTA 081354Z AUTO 00000KT 7SM CLR 28/21 A3008 RMK AO2 SLP177 
    T02780211=
METAR KWLD 081354Z AUTO 02010KT 10SM BKN010 24/21 A3011 RMK AO2 CIG 
    008V012 SLP187 P0001 T02390211=
METAR KWVL 081355Z AUTO 19005KT 7SM OVC006 22/20 A3007 RMK AO1=
METAR KWWD 081355Z AUTO 9SM OVC060 24/24 A3005 RMK AO1=
METAR KYKN 081355Z AUTO 24004KT 10SM CLR 21/16 A3020 RMK AO1=
####018002953####
SAUS20 KNKA 081355
METAR KDSV 081354Z AUTO 11005KT 10SM CLR 29/20 A3007 RMK AO2 SLP184 
    T02890200=
METAR KDVL 081355Z AUTO 32010KT 10SM CLR 18/11 A3011 RMK AO1=
METAR KDYL 081354Z AUTO 17005KT 6SM HZ BKN016 27/23 A3005 RMK AO2 
    SLP167 T02670228 TSNO=
METAR KDYR 081355Z AUTO 26004KT 10SM CLR 29/22 A3009 RMK AO1=
METAR KEAR 081355Z AUTO 01005KT 10SM FEW060 18/16 A3025 RMK AO1=
METAR KECG 081354Z 05010KT 10SM CLR 29/21 A2998 RMK AO2 SLP151 
    T02940211=
METAR KEEN 081355Z AUTO 19007KT 10SM FEW019 FEW048 27/22 A3008 RMK 
    AO1=
METAR KEHR 081355Z AUTO 22004KT 10SM CLR 31/22 A3007 RMK AO1=
METAR KENV 081355Z 00000KT 10SM CLR 21/01 A3012 RMK AO1=
METAR KESC 081355Z AUTO 30007KT 9SM BKN010 22/17 A2999 RMK AO1=
METAR KEUG 081354Z 20007KT 10SM FEW170 SCT250 14/11 A2995 RMK AO2 
    SLP138 T01390106=
METAR KEUL 081355Z AUTO 00000KT 10SM CLR 16/07 A3010 RMK AO1=
METAR KEVV 081354Z VRB04KT 10SM CLR 31/23 A3007 RMK AO2 SLP177 
    T03060228=
METAR KEWK 081355Z AUTO 03010KT 10SM OVC008 22/19 A3011 RMK AO1=
METAR KEWN 081354Z 05008KT 9SM FEW015 28/24 A2996 RMK AO2 SLP145 
    T02780239=
METAR KFAM 081355Z AUTO 22005KT 6SM OVC100 26/23 A3010 RMK AO1=
METAR KFIG 081354Z AUTO 00000KT 7SM FEW070 27/19 A3011 RMK AO2 
    SLP185 T02670194=
METAR KFKL 081355Z 10005KT 10SM CLR 28/19 A3013 RMK AO1=
METAR KFLP 081355Z AUTO 20004KT 10SM FEW070 SCT110 25/22 A3009 RMK 
    AO1=
METAR KFNL 081355Z AUTO 34006KT 10SM FEW014 OVC047 15/14 A3034 RMK 
    AO1=
METAR KFOD 081355Z AUTO 35006KT 10SM CLR 21/17 A3015 RMK AO1=
METAR KFRM 081355Z AUTO 10SM CLR 21/17 A3017 RMK AO1=
METAR KFZY 081354Z AUTO 24004KT 8SM CLR 29/22 A3004 RMK AO2 SLP168 
    T02890217 $=
METAR KGAD 081355Z AUTO 02005KT 10SM CLR 28/20 A3007 RMK AO1=
METAR KGAI 081355Z 15006KT 7SM CLR 29/23 A3005 RMK AO1 
     =
METAR KGBD 081355Z AUTO 01010G14KT 10SM OVC008 19/18 A3019 RMK AO1=
METAR KGCK 081354Z 02009KT 10SM BKN023 20/17 A3025 RMK AO2 SLP217 
    T02000167=
METAR KGCN 081354Z 00000KT 10SM CLR 17/02 A3026 RMK AO2 SLP140 
    T01670017=
METAR KGDV 081355Z AUTO 18005KT 10SM CLR 17/09 A3019 RMK AO1=
METAR KGED 081354Z AUTO 11005KT 10SM CLR 26/22 A3004 RMK AO2 SLP172 
    T02560222=
METAR KGPZ 081355Z AUTO 29006KT 10SM CLR 20/14 A3007 RMK AO1=
METAR KGUC 081355Z AUTO 00000KT 10SM CLR 10/02 A3047 RMK AO1=
METAR KGXY 081355Z AUTO 07006KT 7SM SCT008 BKN015 OVC021 16/13 A3033 
    RMK AO1=
METAR KGYH 081355Z 00000KT 10SM CLR 32/19 A3005=
METAR KHDN 081355Z 12006KT 10SM BKN120 12/07 A3035 RMK AO1=
METAR KHEF 081355Z AUTO 09005KT 7SM CLR 30/23 A3002 RMK AO1=
METAR KHEZ 081355Z AUTO 11003KT 10SM CLR 27/23 A3008 RMK AO1=
METAR KHNB 081355Z AUTO 00000KT 10SM CLR 29/23 A3007 RMK AO1=
METAR KHWD 081354Z 31006KT 10SM OVC007 13/11 A2993 RMK AO2 SLP146 
    T01330111=
METAR KHYI 081355Z AUTO 06009KT 3SM BKN009 BKN015 OVC050 26/24 A2997 
    RMK AO1 P0001=
####018002995####
SAUS20 KNKA 081355
METAR KHYS 081355Z AUTO 03009KT 10SM OVC037 19/17 A3020 RMK AO1=
METAR KILE 081355Z 07009KT 6SM BKN008 BKN014 OVC020 25/23 A3001 RMK 
    AO1=
METAR KILN 081354Z AUTO 19004KT 5SM HZ CLR 28/21 A3009 RMK AO2 
    SLP176 T02830211=
METAR KIMT 081354Z AUTO 02003KT 10SM CLR 23/19 A3001 RMK AO2 SLP159 
    T02330189=
METAR KIND 081354Z 24007KT 9SM FEW180 SCT230 29/22 A3004 RMK AO2 
    SLP165 T02890222=
METAR KINT 081354Z 01007KT 10SM CLR 30/18 A3005 RMK AO2 SLP161 
    T03000183=
METAR KIPT 081354Z VRB05KT 9SM CLR 28/18 A3005 RMK AO2 SLP169 
    T02780178=
METAR KISW 081354Z AUTO 32004KT 10SM OVC007 21/19 A3006 RMK AO2 
    SLP176 T02060189 TSNO=
METAR KIWD 081355Z AUTO 33007KT 10SM CLR 21/16 A3003 RMK AO1=
METAR KIZG 081354Z AUTO VRB04KT 7SM BKN016 OVC047 26/21 A3009 RMK 
    AO2 SLP188 T02610211=
METAR KJHW 081355Z AUTO 16003KT 10SM CLR 27/19 A3011 RMK AO1=
METAR KJST 081354Z AUTO 00000KT 6SM HZ CLR 27/18 A3014 RMK AO2 
    SLP187 T02670178=
METAR KKLS 081355Z AUTO 32003KT 10SM CLR 14/13 A2996 RMK AO1=
METAR KLAF 081354Z 25003KT 8SM CLR 28/23 A3003 RMK AO2 SLP164 
    T02830233=
METAR KLBL 081355Z 35013KT 9SM OVC006 19/17 A3024 RMK AO1 P0002=
METAR KLBT 081354Z AUTO 05007KT 6SM HZ FEW085 31/21 A2996 RMK AO2 
    SLP142 T03060206=
METAR KLCI 081355Z AUTO 25005KT 4SM BKN017 OVC028 26/21 A3008 RMK 
    AO1=
METAR KLEW 081355Z 16004KT 5SM OVC006 22/21 A3012 RMK AO1=
METAR KLEX 081354Z 19006KT 5SM HZ CLR 29/19 A3010 RMK AO2 SLP182 
    T02940189=
METAR KLGD 081355Z AUTO 00000KT 10SM CLR 14/07 A3009 RMK AO1=
METAR KLKV 081355Z AUTO 32005KT 10SM CLR 17/03 A3013 RMK AO1=
METAR KLNK 081354Z 01006KT 10SM CLR 21/18 A3018 RMK AO2 SLP210 
    T02110178=
METAR KLPC 081355Z AUTO 00000KT 8SM OVC008 13/11 A2994 RMK AO1 PNO=
METAR KLWM 081354Z 20004KT 10SM FEW023 27/20 A3010 RMK AO2 SLP191 
    T02720200=
METAR KLWT 081354Z AUTO 00000KT 10SM CLR 14/08 A3027 RMK AO2 SLP224 
    T01390078=
METAR KLYH 081354Z 02004KT 6SM HZ CLR 31/19 A3006 RMK AO2 SLP165 
    T03110189=
METAR KMBL 081355Z AUTO 27004KT 5SM OVC006 22/20 A3003 RMK AO1=
METAR KMFI 081354Z AUTO 33007KT 10SM BKN013 23/19 A3006 RMK AO2 
    SLP172 T02280189=
METAR KMGJ 081354Z AUTO VRB03KT 7SM CLR 28/22 A3005 RMK AO2 SLP172 
    T02830217=
METAR KMIV 081354Z AUTO 14006KT 10SM FEW014 26/22 A3003 RMK AO2 
    SLP165 T02610217=
METAR KMJX 081355Z AUTO 16003KT 10SM BKN010 OVC060 25/22 A3004 RMK 
    AO1=
METAR KMKC 081354Z 00000KT 8SM OVC007 24/22 A3010 RMK AO2 CIG 
    006V010 SLP183 T02390217=
METAR KMKO 081353Z AUTO 00000KT 9SM -RA OVC003 24/23 A3007 RMK AO2 
    RAB34 CIG 003V008 SLP175 P0000 T02390228=
METAR KMKT 081355Z 31005KT 10SM CLR 20/17 A3014 RMK AO1=
METAR KMML 081355Z AUTO 28007KT 10SM CLR 22/16 A3015 RMK AO1=
METAR KMNM 081355Z AUTO 35005KT 10SM OVC015 22/19 A3000 RMK AO1=
METAR KMOT 081354Z 23005KT 10SM BKN070 19/12 A3012 RMK AO2 SLP197 
    T01890117=
####018000115####
SAUS41 KOKX 081355
MTRMTP
METAR KMTP 081354Z AUTO 07006KT 23/20 A3009 RMK AO2 SLP190 T02280200 
PWINO TSNO
####018000544####
SASW31 KWBC 081350
METAR
LSGC 081350Z VRB04KT CAVOK 27/14 Q1024=
LSGG 081350Z 25006KT 210V330 9999 FEW060 BKN250 32/11 Q1021
     NOSIG=
LSGL NIL=
LSGN NIL=
LSGS 081350Z 24013KT 210V280 9999 FEW120 SCT250 31/13 Q1019=
LSZA 081350Z 19008KT 9999 FEW055 29/17 Q1021 NOSIG=
LSZB 081350Z NIL=
LSZD NIL=
LSZG 081350Z VRB03KT 9999 FEW050 30/13 Q1021 NOSIG=
LSZH 081350Z VRB03KT CAVOK 29/12 Q1021 NOSIG=
LSZL NIL=
LSZR 081350Z VRB02KT CAVOK 27/07 Q1021 NOSIG RMK K=
LSZS 081350Z 29012KT 260V320 9999 FEW070 25/05 Q1026=
####018000110####
SAUS42 KRAH 081355
MTRGSO
METAR KGSO 081354Z 02007KT 5SM HZ CLR 31/19 A3004 RMK AO2 SLP157 
T03110189
####018000130####
SAUS41 KPHI 081355
MTRACY
METAR KACY 081354Z 12004KT 4SM -RA BR SCT022 BKN060 24/22 A3005 RMK 
AO2 SLP176 P0003 T02390222
####018002961####
SAUS20 KNKA 081355
METAR KMRF 081355Z AUTO 03008KT 10SM CLR 21/16 A3021 RMK AO1=
METAR KMRY 081354Z 00000KT 10SM OVC006 13/10 A2995 RMK AO2 SLP154 
    T01280100=
METAR KMSV 081355Z AUTO 13004KT 10SM CLR 29/19 A3010 RMK AO1=
METAR KMTW 081355Z 27004KT 7SM SCT010 OVC014 23/22 A3001 RMK AO1=
METAR KMVL 081354Z AUTO 15003KT 6SM HZ CLR 29/23 A3006 RMK AO2 
    SLP175 T02890228=
METAR KMVN 081355Z AUTO 24008KT 10SM BKN060 29/23 A3006 RMK AO1=
SPECI KNFG 081348Z AUTO 00000KT 10SM SCT011 OVC018 16/14 A2991 RMK
      AO2 TSNO=
METAR KOCH 081355Z AUTO 12009KT 10SM SCT011 OVC110 26/19 A3004 RMK 
    AO1=
METAR KOFP 081354Z AUTO VRB05KT 6SM HZ FEW090 31/22 A3002 RMK AO2 
    SLP163 T03060217=
METAR KOKK 081355Z AUTO 17003KT 5SM FEW070 OVC085 A3004 RMK AO1=
METAR KOLM 081354Z AUTO 00000KT 10SM CLR 15/12 A2997 RMK AO2 SLP146 
    T01500122=
METAR KOLS 081354Z AUTO 05007KT 10SM CLR 27/11 A3002 RMK AO2 SLP082 
    T02720106=
METAR KOLU 081355Z AUTO 36004KT 10SM CLR 21/16 A3020 RMK AO1=
METAR KORH 081354Z 22007KT 10SM BKN014 OVC019 24/21 A3012 RMK AO2 
    SLP194 T02390206=
METAR KOTG 081355Z AUTO 30008KT 10SM CLR 21/16 A3017 RMK AO1=
METAR KOTH 081355Z 00000KT 10SM OVC006 10/08 A3000 RMK AO1=
METAR KPHF 081354Z 09008KT 10SM FEW021 28/22 A3001 RMK AO2 SLP161 
    T02780217=
METAR KPHL 081354Z 14005KT 7SM FEW028 SCT110 28/21 A3004 RMK AO2 
    SLP173 T02830211=
METAR KPIA 081354Z 31003KT 10SM FEW008 OVC016 24/22 A3006 RMK AO2 
    SLP173 T02390217=
METAR KPIB 081355Z AUTO 01003KT 10SM CLR 28/22 A3008 RMK AO1=
METAR KPLN 081354Z AUTO 26004KT 6SM -RA BR OVC005 22/21 A3000 RMK 
    AO2 CIG 005V009 SLP157 P0002 T02170211=
METAR KPNE 081354Z 13006KT 7SM BKN015 27/23 A3005 RMK AO2 SLP176 
    T02720233=
METAR KPQI 081355Z AUTO 13006KT 10SM CLR 26/22 A2999 RMK AO1=
METAR KPRX 081355Z 16006KT 8SM FEW009 SCT018 OVC049 26/23 A3006 RMK 
    AO1=
METAR KPSF 081354Z AUTO VRB03KT 6SM HZ CLR 27/22 A3009 RMK AO2 
    SLP157 T02720217=
METAR KPTN 081355Z AUTO 10008KT 10SM SCT012 29/M06 A3005 RMK AO1=
METAR KPTV 081355Z AUTO 16003KT 10SM CLR 18/11 A2988 RMK AO1=
METAR KPTW 081354Z AUTO VRB03KT 5SM HZ CLR 31/21 A3005 RMK AO2 
    SLP169 T03110211=
METAR KPVC 081355Z 17009G17KT 150V210 10SM FEW015 26/22 A3011 RMK 
    AO1=
METAR KPWG 081355Z AUTO 08005KT 10SM BKN011 BKN019 OVC050 26/23 
    A3003 RMK AO1=
METAR KPWT 081355Z AUTO 03008KT 10SM CLR 23/07 A2999 RMK AO1=
METAR KRBL 081354Z AUTO 16004KT 10SM CLR 22/14 A2985 RMK AO2 SLP104 
    T02170144=
METAR KRDG 081354Z 13003KT 8SM CLR 31/21 A3002 RMK AO2 SLP166 
    T03060211=
METAR KRKD 081355Z AUTO 21009KT 7SM OVC003 20/19 A3013 RMK AO1=
METAR KRKS 081354Z AUTO 07014KT 10SM CLR 11/07 A3037 RMK AO2 SLP219 
    T01110067=
METAR KROC 081354Z 24005KT 9SM CLR 29/21 A3004 RMK AO2 SLP169 
    T02890211=
METAR KRST 081354Z 35009KT 10SM CLR 22/17 A3013 RMK AO2 SLP198 
    T02170172=
####018000106####
SPEQ00 SEQU 081330
SPECI
SEGU 081340Z  20005KT  8000S 9999N -DZ BKN040 OVC100  23/19
Q1012 NOSIG=
####018000125####
SAUS41 KLWX 081355
MTRNAK
METAR KNAK 081354Z AUTO 14009KT 3SM HZ FEW015 27/23 A3003 RMK AO2 
SLP169 T02720233 TSNO $
####018000113####
SAUS44 KSHV 081355
MTRBKB
METAR KBKB 081354Z AUTO VRB04KT 10SM CLR 28/24 A3002 RMK AO2 SLP191 
T02780239
####018001093####
SAUK31 KWBC 081350
METAR
EGAA 081350Z 22012KT 9999 SCT035 18/10 Q1014=
EGBB 081350Z 21009KT 180V250 CAVOK 23/08 Q1017=
EGCC 081350Z 20009KT 160V230 9999 SCT038 21/10 Q1017=
EGFF 081350Z 28006KT 240V310 9999 FEW030 20/11 Q1019=
EGGD 081350Z 28006KT 250V320 9999 FEW035 20/10 Q1019=
EGGP 081350Z NIL=
EGGW 081350Z 23006KT 170V270 9999 FEW040 24/12 Q1018=
EGHD 081350Z 19009KT 150V240 9999 FEW020 20/14 Q1019=
EGHH 081350Z 19008KT 9999 FEW026 22/16 Q1018=
EGHI 081350Z 21008KT 160V270 9999 FEW028 SCT048 22/13 Q1018=
EGJB 081350Z 29006KT 260V330 9999 FEW013 20/16 Q1019=
EGJJ 081350Z 30010KT 260V330 9999 FEW012 21/17 Q1019 NOSIG=
EGKA 081350Z 21011KT 9999 4000W VCFG FEW006 20/17 Q1019=
EGKB 081350Z 22008KT 170V240 9999 BKN035 25/13 Q1019=
EGKK 081350Z 23008KT 180V280 9999 SCT048 26/13 Q1018=
EGLF 081350Z 25007KT 200V290 9999 FEW028 SCT034 23/15 Q1018=
EGLL 081350Z 24009KT 9999 FEW034 SCT040 25/14 Q1018=
EGMC 081350Z 24006KT 190V270 9999 FEW040 26/15 Q1018=
EGMC 081350Z NIL=
EGMD 081350Z 20010KT 9999 FEW020 21/16 Q1019=
EGNH NIL=
EGNJ NIL=
####018000095####
SAUK31 KWBC 081350 CCA
METAR
EGCC 081350Z 20009KT 160V230 9999 SCT038 21/10 Q1017 NOSIG=
####018001519####
SAZZ40 KAWN 081400 RRB
METAR KBAD 081355Z AUTO 14005KT 10SM FEW095 26/24 A3007 RMK AO2 SLP181
      T02590240 $=
METAR KBUR 081353Z 18003KT 4SM HZ OVC007 16/13 A2991 RMK AO2 SLP120
      T01560128=
METAR KDAA 081355Z AUTO 15004KT 10SM CLR 30/23 A3001 RMK AO2 SLP164
      T03030233=
METAR KFBG 081355Z AUTO 03005KT 10SM CLR 32/22 A2997 RMK AO2 SLP147
      T03160217 $=
METAR KFHU 081355Z VRB06KT 50SM FEW120 25/13 A3011 RMK SLP119=
METAR KGBN 081355Z 17002KT 12SM FEW170 28/M01 A2979 RMK SLP068 FIRST=
METAR KGRF 081355Z AUTO 14003KT 10SM CLR 15/12 A2996 RMK AO2 SLP146
      T01450119 $=
METAR KGUS 081355Z AUTO 25006KT 10SM CLR 26/22 A3004 RMK AO2 RAE1300
      SLP167 P0000 T02610221 $=
METAR KIAB 081355Z AUTO 02009KT 10SM OVC008 23/21 A3012 RMK AO2 SLP190
      T02280213=
METAR KMGE 081355Z 34006KT 10SM CLR 30/20 A3007 RMK AO2A SLP169 T03030199
      $=
METAR KOFF 081355Z AUTO 02005KT 10SM CLR 22/18 A3015 RMK AO2 SLP198
      T02210180 $=
METAR KOZR 081355Z 00000KT 10SM CLR 29/26 A3004 RMK AO2A SLP169 T02910258=
METAR KSUU 081355Z AUTO 23019KT 10SM CLR 12/10 A2985 RMK AO2 PK WND
      23026/1338 SLP108 T01230103 RVRNO $=
METAR KTOI 081353Z 00000KT 10SM CLR 29/24 A3005 RMK AO2 SLP169 T02940239=
METAR MGGT 081400Z 00000KT CAVOK 19/14 Q1023 A30/21 BKN080 SCT200 VTO
      TEND W NOSIG=
METAR TIST 081353Z 06009KT 10SM CLR 31/24 A3001 RMK AO2 SLP164 T03110244=
METAR TISX 081353Z 12015G19KT 10SM SCT020 31/24 A3002 RMK AO2 SLP163
      T03110239=
####018000627####
SAUK32 KWBC 081350
METAR
EGNM 081350Z 26010KT 9999 SCT035 18/09 Q1017=
EGNS 081350Z NIL=
EGNT 081350Z 26014KT 9999 FEW045 20/07 Q1014=
EGNV 081350Z 24018KT 9999 FEW040 22/09 Q1016=
EGNX 081350Z 22010KT 190V250 CAVOK 22/07 Q1017=
EGPA NIL=
EGPB 081350Z 20013KT 9999 FEW030 15/11 Q1008 NOSIG=
EGPC NIL=
EGPD 081350Z 22010KT 9999 FEW048 18/08 Q1011 NOSIG=
EGPF 081350Z 22020KT 9999 FEW030 17/10 Q1013=
EGPH 081350Z 23017KT 9999 SCT045 19/07 Q1013=
EGPK 081350Z 24015KT 9999 FEW026 19/09 Q1014=
EGSH NIL=
EGTE 081350Z 17013KT 9999 FEW030 21/15 Q1018=
EGTG 081350Z 28006KT 9999 FEW040 21/10 Q1018=
####018000491####
SAUK41 KWBC 081350
METAR
EGAC 081350Z 20014KT 9999 FEW033 SCT042 19/09 Q1014=
EGAE NIL=
EGBE NIL=
EGBJ NIL=
EGDC NIL=
EGDG NIL=
EGDL NIL=
EGDM NIL=
EGDN NIL=
EGDP NIL=
EGDR NIL=
EGDY NIL=
EGFH NIL=
EGGP 081350Z NIL=
EGGW 081350Z 23006KT 170V270 9999 FEW040 24/12 Q1018=
EGHE 081350Z NIL=
EGJA 081350Z 31007KT 280V340 FEW010 20/17 Q1020=
EGLC 081350Z 28004KT 210V320 9999 SCT035 25/14 Q1018=
EGNC NIL=
EGNT 081350Z 26014KT 9999 FEW045 20/07 Q1014=
####018000405####
SAUK42 KWBC 081350
METAR
EGOS NIL=
EGOV NIL=
EGPC NIL=
EGPE NIL=
EGPF 081350Z 22020KT 9999 FEW030 17/10 Q1013=
EGPL NIL=
EGPM NIL=
EGPN NIL=
EGPO NIL=
EGPT NIL=
EGPU NIL=
EGPW NIL=
EGQJ NIL=
EGQK NIL=
EGQL NIL=
EGQM NIL=
EGQS NIL=
EGSC NIL=
EGSS 081350Z 23008KT 200V270 9999 SCT030 24/15 Q1018=
EGTC 081350Z 24009KT 190V280 9999 FEW045 23/11 Q1018=
EGTI NIL=
####018000028####
SAUR31 KWBC 081350
NIL=
####018000216####
SAXX99 KWBC 081300 RRX
METAR
K4O4 081348Z AUTO 15005KT 10SM SCT001 SCT008 26/23 A3008 RMK
     AO2=
MMAN 081345Z 30008KT 15SM SCT040 SCT080 28/24 A2992 RMK 8/570=
OEKJ 081300Z 02015KT CAVOK 44/M04 Q1005=
####018000075####
SACN88 CWAO 081330
AHD SA 1330 AUTO7 M M M M/23/18/2305/M/M M 23MM=

####018000369####
SABX31 EBBR 081350
METAR EBAW 081350Z 24006KT 160V290 CAVOK 31/13 Q1018 NOSIG=
METAR EBBR 081350Z 17006KT 130V200 CAVOK 30/11 Q1019 NOSIG=
METAR EBCI 081350Z VRB06KT CAVOK 30/10 Q1019 NOSIG=
METAR EBLG 081350Z VRB02KT CAVOK 31/08 Q1019 NOSIG=
METAR EBOS 081350Z 34005KT 310V020 CAVOK 22/15 Q1019 NOSIG=
METAR ELLX 081350Z VRB04KT CAVOK 30/08 Q1020 NOSIG=
####018000387####
SAOS31 LOWM 081350
METAR LOWW 081350Z 33009KT 280V020 CAVOK 25/09 Q1022 NOSIG=
METAR LOWL 081350Z VRB03KT CAVOK 25/10 Q1022 NOSIG=
METAR LOWS 081350Z VRB04KT 9999 FEW060 26/08 Q1022 NOSIG=
METAR LOWI 081350Z 08006KT 030V120 9999 FEW080 29/14 Q1020 NOSIG=
METAR LOWG 081350Z 11004KT 030V190 CAVOK 27/10 Q1022 NOSIG=
METAR LOWK 081350Z VRB02KT 9999 FEW060 27/11 Q1021 NOSIG=
####018000105####
SATU31 LTAA 081320 CCA
METAR LTFJ 081320Z 01014KT 9999 BKN030 22/17 Q1012 TEMPO FM1400 4000 
TSRA=
####018000327####
SAFI33 EFHK 081350
EFJO 081350Z AUTO 32006KT 280V020 CAVOK 29/16 Q1014=
EFLP 081350Z AUTO 18007KT 110V250 CAVOK 31/11 Q1013=
EFMI 081350Z AUTO 35005KT 270V090 CAVOK 29/19 Q1013=
EFSA 081350Z VRB04KT 9999 FEW055TCU FEW055CB 30/16 Q1013=
EFUT 081350Z AUTO 17007KT 140V220 CAVOK 30/12 Q1013=
METAR EFVR 081355Z NIL=
####018000088####
SAVN22 SVMI 081400
METAR SVMI 081400Z 00000KT 9999 FEW016 BKN300 27/24 Q1015 NOSIG=
####018000091####
SAOS32 LOWM 081350
METAR LOXZ 081350Z 07006KT 70KM FEW070CU 25/08 Q1022 NOSIG RMK FEW=
####018001692####
SAEU KAWN 081400 RRC
METAR EBAW 081350Z 24006KT 160V290 CAVOK 31/13 Q1018 NOSIG=
METAR EBBR 081350Z 17006KT 130V200 CAVOK 30/11 Q1019 NOSIG=
METAR EBCI 081350Z VRB06KT CAVOK 30/10 Q1019 NOSIG=
METAR EBLG 081350Z VRB02KT CAVOK 31/08 Q1019 NOSIG=
METAR EBOS 081350Z 34005KT 310V020 CAVOK 22/15 Q1019 NOSIG=
METAR EDAC 081350Z 31003KT 210V020 CAVOK 28/13 Q1021=
METAR EDAH 081350Z VRB03KT CAVOK 25/09 Q1021=
METAR EDFH 081350Z 14007KT 080V180 CAVOK 28/11 Q1021=
METAR EDLN 081350Z 24004KT 180V300 CAVOK 32/11 Q1018=
METAR EDMA 081350Z 36004KT 250V080 CAVOK 28/09 Q1022=
METAR EDMO 081350Z 05007KT 010V070 CAVOK 26/09 Q1022=
METAR EDNY 081350Z 26006KT CAVOK 29/11 Q1021=
METAR EDOP 081350Z 18009KT 120V210 CAVOK 30/09 Q1019=
METAR EDQM 081350Z VRB03KT CAVOK 25/06 Q1023=
METAR EDSB 081350Z 30004KT 250V360 CAVOK 32/10 Q1020=
METAR EDTL 081350Z VRB04KT CAVOK 31/10 Q1019=
METAR EDVK 081350Z 21006KT 170V240 CAVOK 28/10 Q1021=
METAR EKVD 081350Z 27008KT 9999 FEW025 SCT050 BKN100 20/16 Q1019=
METAR ELLX 081350Z VRB04KT CAVOK 30/08 Q1020 NOSIG=
METAR ENEK 081350Z 22011KT CAVOK 16/12 Q1016 W15/S3=
METAR ENGC 081350Z 19025KT CAVOK 13/11 Q1009=
METAR ENHE 081350Z 20025KT CAVOK 15/11 Q1009=
METAR ENOA 081350Z 20023KT 9999 FEW045 13/11 Q1011=
METAR ENRY 081350Z 19010KT 150V230 9999 -RA SCT007 BKN011 17/15 Q1016=
METAR ENSN 081350Z 19012KT 150V220 8000 SCT007 BKN11 17/15 Q1015=
METAR ETEB 081355Z AUTO 00000KT 9999 CLR 27/09 A3018 RMK AO2 SLP203
      T02690089=
METAR LOWG 081350Z 11004KT 030V190 CAVOK 27/10 Q1022 NOSIG=
METAR LOWL 081350Z VRB03KT CAVOK 25/10 Q1022 NOSIG=
METAR LOWW 081350Z 33009KT 280V020 CAVOK 25/09 Q1022 NOSIG=
####018001502####
SAUS17 KAWN 081400
METAR KADW 081355Z AUTO 10008KT 10SM SCT095 30/23 A3002 RMK AO2 SLP165
      T02970234=
METAR KBAD 081355Z AUTO 14005KT 10SM FEW095 26/24 A3007 RMK AO2 SLP181
      T02590240 $=
METAR KBLV 081355Z AUTO 26004KT 10SM CLR 27/24 A3005 RMK AO2 CIG 075
      RWY32L SLP174 T02670242=
METAR KCBM 081355Z AUTO 04007KT 10SM CLR 29/23 A3007 RMK AO2 SLP183
      T02930229 $=
METAR KDAA 081355Z AUTO 15004KT 10SM CLR 30/23 A3001 RMK AO2 SLP164
      T03030233=
METAR KFBG 081355Z AUTO 03005KT 10SM CLR 32/22 A2997 RMK AO2 SLP147
      T03160217 $=
METAR KFHU 081355Z VRB06KT 50SM FEW120 25/13 A3011 RMK SLP119=
METAR KGBN 081355Z 17002KT 12SM FEW170 28/M01 A2979 RMK SLP068 FIRST=
METAR KGRF 081355Z AUTO 14003KT 10SM CLR 15/12 A2996 RMK AO2 SLP146
      T01450119 $=
METAR KGUS 081355Z AUTO 25006KT 10SM CLR 26/22 A3004 RMK AO2 RAE1300
      SLP167 P0000 T02610221 $=
METAR KHMN 081355Z 15007KT 10SM CLR 21/15 A3017 RMK AO2A SLP132 T02110148
      $=
METAR KIAB 081355Z AUTO 02009KT 10SM OVC008 23/21 A3012 RMK AO2 SLP190
      T02280213=
METAR KIWA 081347Z 08009KT 45SM FEW120 33/09 A2984=
METAR KLRF 081355Z AUTO VRB05KT 10SM CLR 27/23 A3009 RMK AO2 SLP188
      T02710233=
METAR KMGE 081355Z 34006KT 10SM CLR 30/20 A3007 RMK AO2A SLP169 T03030199
      $=
METAR KMTC 081355Z 23006KT 10SM FEW240 32/22 A3001 RMK SLP166=
METAR KNFW 081352Z 12008KT 10SM SCT012 BKN024 OVC040 27/22 A3008 RMK
      AO2 SLP168 RAE20 P0000 T02670222=
####018000084####
SAZB40 FLLS 081400
METAR FLLS 081400Z 07012KT 9/9 SCT045 FEW100 18/08 Q1027=

####018002050####
SAUS20 KNKA 081356
METAR K0A9 081355Z AUTO 00000KT 10SM CLR 27/18 A3012 RMK=
METAR K4BM 081354Z AUTO 23005KT M1/4SM -SN 04/04 A3063 RMK AO2=
METAR K5SM 081353Z AUTO 00000KT 10SM CLR 11/03 A3059 RMK AO2=
METAR K7BM 081356Z AUTO 00000KT 10SM BKN002 08/07 A3054 RMK AO2=
METAR KAAF 081353Z AUTO 02006KT 10SM CLR 29/23 A3002 RMK AO2 SLP165 
    T02940233=
METAR KAEG 081355Z AUTO 14015KT 10SM CLR 18/08 A3032 RMK AO1  =
METAR KASG 081348Z 16006KT 10SM BKN020 OVC043 24/21 A3010=
METAR KBBP 081355Z AUTO 32004KT 10SM CLR 31/20 A2996 RMK AO2=
METAR KBDU 081357Z AUTO 00000KT 10SM OVC036 17/12 A3034 RMK AO2=
METAR KBKN 081355Z AUTO 02008KT 10SM CLR 23/22 A3008 RMK AO2 =
METAR KCCU 081356Z AUTO 19010KT 10SM CLR 08/01 A3064 RMK AO2=
METAR KCIC 081355Z AUTO 14005KT 10SM CLR 19/12 A2985 RMK AO1 =
METAR KDHN 081353Z 35003KT 10SM CLR 30/24 A3008 RMK AO2 SLP178 
    T03000239=
METAR KDTS 081353Z AUTO 36004KT 10SM CLR 29/23 A3003 RMK AO2 SLP167 
    T02890233=
METAR KGGE 081355Z AUTO 32005KT 10SM CLR 30/22 A2994 RMK AO2=
METAR KGZH 081353Z AUTO 00000KT 10SM CLR 29/23 A3006 RMK AO2 SLP174 
    T02890233=
METAR KLUX 081355Z AUTO 00000KT 10SM CLR 29/24 A3004 RMK AO2=
METAR KMAI 081353Z AUTO 00000KT 10SM CLR 29/24 A3003 RMK AO2 SLP166 
    T02940239=
METAR KMAO 081355Z AUTO 01006KT 10SM CLR 30/21 A2995 RMK AO2=
METAR KMYP 081256Z AUTO 20011KT 10SM CLR 05/03 A3075 RMK AO2=
METAR KOGB 081353Z AUTO 34004KT 10SM CLR 31/21 A2999 RMK AO2 SLP153 
    T03110206=
METAR KPSO 081355Z AUTO 00000KT 10SM CLR 15/05 A3041 RMK AO2=
METAR KRCE 081355Z AUTO 00000KT 9SM BKN006 24/22 A3009 RMK AO2 =
METAR KSMS 081355Z AUTO 33004KT 9SM CLR 29/21 A2998 RMK AO2 =
METAR KSUN 081353Z 30012KT 30SM SKC 11/01 A3026=
METAR KVLD 081353Z VRB03KT 10SM CLR 29/21 A3003 RMK AO2 SLP174 
    T02940206=
METAR KVTP 081400Z AUTO 00000KT 10SM CLR 10/04 A3056 RMK AO2=
METAR KWYS 081350Z AUTO 00000KT 10SM CLR 07/01 A3038 RMK AO2=
METAR KX40 081355Z AUTO 00000KT 10SM SCT018 29/22 A3003 RMK AO2 
     T02850223=
####018000125####
SAUS46 KLOX 081356 COR
MTRSDB
METAR KSDB 081352Z AUTO 00000KT 10SM CLR 22/M02 A3003 RMK AO2 SLP111 
T02221022 TSNO $
####018001858####
SAEU KAWN 081400 RRD
METAR ENAL 081350Z 23016KT 9999 VCSH SCT047TCU SCT070 17/10 Q1010=
METAR ENAN 081350Z 31008KT 9999 VCTS NSC 14/10 Q1010=
METAR ENAT 081350Z 18007KT 140V210 9999 FEW035 SCT045 BKN080 23/06
      Q1011=
METAR ENBL 081350Z 23011KT 9999 FEW025 SCT035 BKN050 16/09 Q1011=
METAR ENBN 081350Z 34006KT 9999 FEW050 SCT070 18/11 Q1011=
METAR ENBO 081350Z 25006KT 9999 FEW040CB SCT080 14/10 Q1011 TEMPO TS
      SHRA BKN030CB=
METAR ENBR 081350Z 19013KT 9999 FEW020 SCT040 16/10 Q1014 NOSIG=
METAR ENBV 081350Z 09017KT 9999 FEW038 12/10 Q1015=
METAR ENCN 081350Z 19012KT 9999 FEW010 BKN070 17/15 Q1016=
METAR ENDU 081350Z VRB02KT 9999 VCSH FEW050 SCT060 BKN180 17/11 Q1010=
METAR ENFG 081350Z 19010KT 9999 VCSH SCT022 17/09 Q1013=
METAR ENFL 081350Z 20011KT 140V250 9999 FEW013 SCT050 17/12 Q1012=
METAR ENHD 081350Z 21012KT 9999 FEW035 16/12 Q1015=
METAR ENHF 081350Z 22003KT 9999 FEW035 BKN080 20/09 Q1011=
METAR ENKR 081350Z 16005KT 9999 FEW025 17/10 Q1016=
METAR ENML 081350Z 27008KT 9999 VCSH FEW040 SCT060 21/08 Q1010=
METAR ENNA 081350Z 16013KT 9999 FEW045CB SCT070 23/09 Q1012=
METAR ENNO 081350Z 14011G18KT 9999 SCT025 BKN075 20/14 Q1013=
METAR ENOL 081350Z VRB02KT 9999 SCT040 21/07 Q1010 NOSIG=
METAR ENOV 081350Z VRB07G17KT 9999 VCSH FEW040 SCT055TCU 18/08 Q1011=
METAR ENRA 081350Z 12002KT 9999 VCSH SCT050 SCT070 17/12 Q1010=
METAR ENRO 081350Z 12006KT 080V220 9999 SCT050 BKN100 18/10 Q1011=
METAR ENSB 081350Z 26014KT 9999 FEW010 SCT035 BKN0090 09/05 Q1009=
METAR ENSH 081350Z 35012KT 9999 FEW020 BKN050 16/10 Q1010=
METAR ENTC 081350Z 03008KT 9999 FEW065 SCT090 19/08 Q1010 NOSIG=
METAR ENTO 081350Z 20012KT 9000 -DZ BKN005 16/15 Q1016=
METAR ENVA 081350Z 32013KT 9999 FEW040CB FEW060 20/13 Q1010 NOSIG=
METAR ENZV 081350Z 20011KT 9999 SCT020 BKN150 18/12 Q1015 NOSIG=
####018001432####
SAXN17 KAWN 081400 RRA
METAR MGGT 081400Z 00000KT CAVOK 19/14 Q1023 A30/21 BKN080 SCT200 VTO
      TEND W NOSIG=
METAR MMCE 081345Z 15008KT 7SM SCT010 BKN070 BKN200 27/25 A2981 RMK
      8/136=
METAR MMCM 081345Z 12010KT 7SM BKN020 BKN050 OVC100 26/22 A2980 RMK
      8/53/=
METAR MMCP 081351Z 09010KT 6SM BKN140 OVC300 27/22 A2981 RMK 8/032
      HZY=
METAR MMMD 081345Z 11008KT 5SM SCT005 BKN080 BKN140 18/18 A2988 RMK
      8/570 HZY CI=
METAR MMMT 081345Z 22010KT 10SM BKN015 BKN050 OVC100 25/23 A2980 RMK
      8/57/=
METAR MMTG 081350Z 00000KT 5SM BCFG SCT006 BKN070 OVC300 24/24 A2993
      RMK 8/678 BCFG ARND ST OMTNS=
METAR MMTP 081348Z 00000KT 15SM SCT020 BKN160 OVC250 25/23 A2990 RMK
      8/176=
METAR MMVA 081351Z 12006KT 7SM SCT010 SCT100 BKN200 28/25 A2979 RMK
      8/136=
METAR MYNN 081400Z 21003KT 9999 VCSH SCT014CB SCT015TCU BKN220 30/25
      A2997=
METAR MYNN 081400Z 21003KT 9999 VCSH SCT014CB SCT015CB BKN220 30/25
      A2997=
PACZ SA 1355 AWOS MM 10 50/47/0410/003=
METAR PAEI 081355Z AUTO 00000KT 10SM CLR 10/07 A3004 RMK AO2 SLP175
      T00980068 $=
METAR PALU 081355Z 21025KT 10SM FEW100 12/04 A3004 RMK SLPNO BWC LOW=
PATL SA 1355 AWOS CLR BLO 120 10 53/43/0603/000=
METAR PHJR 081353Z VRB03KT 10SM FEW060 22/17 A3002 RMK AO2 SLP170 T02220172=
METAR PTKK 081350Z 05006KT 15SM FEW014 BKN120 OVC280 26/23 A2985 RMK
      SLP111 T02610228=
####018000263####
SPUS17 KAWN 081356 RRH
SPECI KFRI 081353Z AUTO 02007KT 10SM OVC008 22/20 A3014 RMK AO2 CIG
      007V010 SLP194 $=
SPECI KLTS 081348Z AUTO 35005KT 8SM R35L/5500VP6000FT R35R/5500VP6000FT
      RA OVC006 23/23 A3009 RMK AO2 RAB1322DZB1313E1322 SLP175 $=
####018001546####
SAZZ40 KAWN 081400 RRC
METAR ETAD 081355Z AUTO VRB04KT 9999 CLR 30/10 A3014 RMK AO2 SLP189
      T02970098 $=
METAR KADW 081355Z AUTO 10008KT 10SM SCT095 30/23 A3002 RMK AO2 SLP165
      T02970234=
METAR KBKF 081355Z 36004KT 3SM BR OVC002 14/14 A3035 RMK SLP238=
METAR KCBM 081355Z AUTO 04007KT 10SM CLR 29/23 A3007 RMK AO2 SLP183
      T02930229 $=
METAR KFRI 081355Z AUTO 02009KT 10SM OVC008 22/20 A3014 RMK AO2 CIG
      007V010 SLP195 T02160203 $=
METAR KGRK 081355Z 07007KT 6SM BR BKN008 BKN015 27/27 A3002 RMK SLP146=
METAR KMTC 081355Z 23006KT 10SM FEW240 32/22 A3001 RMK SLP166=
METAR KMUO 081355Z AUTO 08006KT 10SM CLR 17/01 A3011 RMK AO2 SLP171
      T01690010=
METAR KTTS 081355Z VRB04KT 10SM SCT029 SCT290 28/22 A3001 RMK SLP162
      3CU /3/ 1CI /4/=
METAR KWRB 081355Z 36006KT 10SM CLR 30/22 A3003 RMK AO2A SLP166 T02970219
      $=
METAR MYNN 081400Z 21003KT 9999 VCSH SCT014CB SCT015TCU BKN220 30/25
      A2997=
METAR MYNN 081400Z 21003KT 9999 VCSH SCT014CB SCT015CB BKN220 30/25
      A2997=
METAR PABI 081353Z AUTO 00000KT 10SM CLR 11/07 A3008 RMK AO2 SLP185
      T01110072 TSNO=
METAR PAEI 081355Z AUTO 00000KT 10SM CLR 10/07 A3004 RMK AO2 SLP175
      T00980068 $=
METAR PASC 081353Z 24015KT 10SM OVC230 09/05 A3003 RMK AO2 SLP168 T00890050=
METAR PHHI 081355Z AUTO 06005KT 10SM BKN049 20/18 A3002 RMK AO2 RAB1259E1309DZE1312
      SLP156 P0000 T02040184=
METAR TJBQ 081350Z 08008KT 10SM SCT020 31/26 A3003=
METAR TJMZ 081350Z 04009KT 6SM HZ FEW040 33/26 A3002=
####018000710####
SAXX70 KAWN 081400 RRC
METAR KQEX 081350Z AUTO 21006KT 3SM BR FEW041 SCT100 25/20 A2978 RMK
      A02=
METAR KQBL 081355Z AUTO VRB01KT 10SM CLR 29/23 A3007 RMK AO2 SLP181
      T02930234=
METAR KQHY 081355Z AUTO VRB01KT 12SM CLR 28/23 A3007 RMK AO2 SLP180
      T02830228=
METAR KQMG 081355Z AUTO 08008KT 12SM BKN080 BKN150 21/15 A3019 RMK
      AO2 SLP155 T02130148 $=
METAR KQSL 081355Z 31014KT 9999 CLR 44/03 A2963 RMK SLP023 Q1003MB=
METAR KQTI 081355Z AUTO 23011G15KT 200V270 9999 CLR 43/M01 A2964 RMK
      AO2 SLP013 T04311008=
METAR KQTO 081355Z 29010G15KT 9999 CLR 44/06 A2958 RMK SLP015=
METAR KQXR 081355Z AUTO 33015G25KT 9999 CLR 47/ A2946 RMK AO2 SLP976
      T0474=
####018001516####
SANA35 KAWN 081400
METAR KADW 081355Z AUTO 10008KT 10SM SCT095 30/23 A3002 RMK AO2 SLP165
      T02970234=
METAR KBAD 081355Z AUTO 14005KT 10SM FEW095 26/24 A3007 RMK AO2 SLP181
      T02590240 $=
METAR KBRO 081353Z 32006KT 10SM FEW033 SCT060 27/25 A2979 RMK AO2 SLP085
      T02670250=
METAR KFLL 081353Z 07008KT 10SM SCT023 30/24 A2996 RMK AO2 SLP144 T03000244=
METAR KJFK 081351Z 15006KT 8SM SCT020 BKN065 BKN130 BKN250 27/22 A3006
      RMK AO2 RAB21E41 SLP178 P0000 T02720222=
METAR KMCO 081353Z VRB03KT 10SM SCT026 SCT250 27/19 A3002 RMK AO2 SLP163
      T02720194=
METAR KNHK 081352Z 10009KT 10SM SCT012 SCT070 28/22 A3002 RMK AO2 SLP165
      T02830222=
METAR KOFF 081355Z AUTO 02005KT 10SM CLR 22/18 A3015 RMK AO2 SLP198
      T02210180 $=
METAR KPBI 081353Z 06005KT 10SM BKN024CB BKN031 BKN055 32/28 A2997
      RMK AO2 RAE05 SLP147 CB OHD-SW-NE MOV SW P0000 T03170279 $=
METAR KPOB 081355Z AUTO 04004KT 10SM CLR 31/22 A2997 RMK AO2 SLP148
      T03130224 $=
METAR MWCR 081400Z 15009KT 9999 FEW018 BKN250 30/24 Q1014 NOSIG=
METAR MYNN 081400Z 21003KT 9999 VCSH SCT014CB SCT015TCU BKN220 30/25
      A2997=
METAR MYNN 081400Z 21003KT 9999 VCSH SCT014CB SCT015CB BKN220 30/25
      A2997=
METAR SPIM 081400Z 19003KT 7000 FEW011 OVC022 17/13 Q1015 NOSIG RMK
      BIRD HAZARD RWY15 PP000=
METAR TIST 081353Z 06009KT 10SM CLR 31/24 A3001 RMK AO2 SLP164 T03110244=
METAR TISX 081353Z 12015G19KT 10SM SCT020 31/24 A3002 RMK AO2 SLP163
      T03110239=
####018000082####
SABZ24 SBFI 081400
METAR SBFI 081400Z 16007KT 9999 FEW020 BKN100 19/15 Q1017=
####018000079####
SANO36 ENMI 081350 RRA
METAR ENBS 081350Z 19011KT 9999 FEW030 16/08 Q1016=
####018000120####
SAUS44 KMRX 081356
MTROQT
METAR KOQT 081353Z AUTO 00000KT 6SM HZ CLR 29/21 A3011 RMK AO2 
SLP174 T02890211 TSNO
####018000079####
SAYE20 OYMB 081400
METAR OYMB 081400Z 02021KT 2000 SA FEW030 40/M07 Q1003=
####018000092####
SAFJ31 NFFN 081400
METAR NFFN 081400Z 12006KT 40KM FEW030 20/18 Q1013 NOSIG RMK RR NIL=
####018000075####
SAMJ41 LWOH 081400
METAR LWOH 081400Z 34008KT 9999 BKN050 19/09 Q1019=
####018002917####
SAUS20 KNKA 081356
METAR K2G4 081350Z AUTO 34004KT 10SM CLR 25/15 A3019 RMK AO1=
METAR K2W6 081353Z AUTO 10006KT 10SM BKN016 BKN022 BKN070 27/23
     A3004 RMK AO1=
METAR KABI 081352Z 00000KT 9SM OVC005 23/22 A3008 RMK AO2 SLP165
     T02280217=
METAR KAIT 081353Z AUTO 26005KT 10SM CLR 21/19 A3007 RMK AO2=
METAR KAVP 081354Z 00000KT 7SM CLR 29/19 A3006 RMK AO2 SLP167
     T02890189 $=
METAR KBBB 081353Z AUTO 27004KT 10SM CLR 21/17 A3012 RMK AO2=
METAR KBMI 081356Z 27006KT 10SM BKN012 BKN070 25/22 A3007 RMK AO2 
    T02500222 SLP168 $=
METAR KBOK 081356Z AUTO 00000KT M1/4SM FG OVC002 09/09 A2998 RMK AO2 
    T00940094 RAB35E48 P0000 SLP154 $=
METAR KBTV 081354Z 20006KT 7SM CLR 29/22 A3001 RMK AO2 SLP161
     T02940222=
METAR KCBE 081353Z AUTO 00000KT 7SM CLR 27/20 A3010 RMK AO1=
METAR KCGE 081351Z AUTO 14007KT 10SM CLR 28/23 A3003 RMK AO1=
METAR KCGS 081355Z AUTO 00000KT 7SM SCT110 31/23 A3002 RMK AO1=
METAR KCHA 081353Z 00000KT 9SM CLR 30/20 A3008 RMK AO2 SLP177
     T03000200=
METAR KCNK 081355Z AUTO 35005KT 10SM OVC044 21/18 A3018 RMK AO2 
    SLP208 T02110183=
METAR KCRP 081351Z COR 03006KT 10SM SCT022 SCT040 BKN060 27/25
     A2985 RMK AO2 RAE31 SLP106 CB DSNT E TCU DSNT NE SE S SW
     P0001 T02670250 $=
METAR KDLH 081355Z 27008KT 10SM CLR 22/14 A3006 RMK AO2 SLP177 
    T02170139=
METAR KFDK 081353Z AUTO 00000KT 7SM CLR 34/22 A3005 RMK AO2=
METAR KDMW 081352Z AUTO 14003KT 7SM CLR 31/22 A3005 RMK AO2=
METAR KEAT 081355Z AUTO 30005KT 10SM CLR 18/06 A3006 RMK AO2 SLP168 
    T01780061=
METAR KFFM 081353Z AUTO 32003KT 10SM CLR 19/16 A3009 RMK AO2=
METAR KFGN 081354Z AUTO 29005KT 2SM HZ BKN070 18/14 A2999 RMK AO2
     VIS 3/4V5=
METAR KFME 081354Z AUTO 10005KT 7SM CLR 27/22 A3004 RMK AO1=
METAR KFWA 081354Z 20006KT 9SM OVC050 28/21 A3005 RMK AO2 SLP170
     T02830211=
METAR KGDB 081353Z AUTO 25005KT 10SM CLR 20/17 A3015 RMK AO2
     T02030166=
METAR KGHW 081353Z AUTO 27006KT 10SM CLR 21/15 A3015 RMK AO2=
METAR KGPI 081355Z 35005KT 10SM CLR 16/08 A3019 RMK AO2 SLP207 
    T01560083=
METAR KIRK 081355Z AUTO 01009KT 10SM FEW008 23/21 A3010 RMK AO2 
    SLP188 T02280206=
METAR KLIC 081355Z AUTO 14005KT 10SM FEW004 14/14 A3035 RMK AO2 
    SLP227 T01440139=
METAR KLLJ 081355Z AUTO 00000KT 10SM FEW090 12/01 A3029 RMK AO2 
    SLP206 T01170011=
METAR KLXV 081353Z AUTO 00000KT 10SM OVC008 07/05 A3053 RMK AO2
     CIG 005V012 SLP213 T00670050 TSNO=
METAR KLZU 081350Z 00000KT 10SM SKC 30/20 A3006=
METAR KMER 081355Z 30007KT 10SM SKC 17/12 A2985=
METAR KMGG 081355Z AUTO 27005KT 10SM CLR 22/17 A3013 RMK AO2
     T02170167=
SPECI KMHT 081355Z 21005KT 7SM SCT020 BKN045 27/21 A3007 RMK AO2=
METAR KMKG 081355Z 20009KT 5SM BR BKN007 BKN030 OVC045 23/22 A3003 
    RMK AO2 RAB03E55 SLP164 P0004 T02330217=
METAR KMOX 081350Z AUTO 27007KT 10SM CLR 22/17 A3008 RMK AO2=
####018000207####
SAAK41 KNKA 081356
METAR PAHN 081354Z AUTO VRB03KT 10SM CLR 12/09 A3017 RMK AO2 SLP220 
    T01170094 TSNO=
METAR PAKN 081354Z 35004KT 10SM SCT030 BKN060 08/08 A2990 RMK AO2 
    SLP126 T00830078=
####018001564####
SAUS20 KNKA 081356
METAR KMSN 081353Z 32004KT 8SM BKN008 24/21 A3003 RMK AO2 SLP164
     T02390211=
METAR KMWA 081354Z 23006KT 15SM SCT070 BKN110 BKN250 29/24 A3008=
METAR KMWM 081353Z AUTO 30005KT 10SM CLR 22/17 A3015 RMK AO2=
METAR KMWT 081353Z AUTO 00000KT 10SM FEW017 BKN049 26/23 A3008 RMK
     AO2 SLP177 T02560233 TSNO=
METAR KOWB 081356Z 27004KT 10SM CLR 32/24 A3008 RMK AO2 T03160238 
    SLP179=
METAR KPNM 081353Z AUTO 27007KT 10SM CLR 22/16 A3011 RMK AO2=
METAR KPQN 081353Z AUTO 32006KT 10SM CLR 21/15 A3017 RMK AO2=
METAR KPWC 081353Z AUTO 28006KT 10SM CLR 19/14 A3009 RMK AO2=
METAR KRIL 081353Z AUTO 00000KT 10SM CLR 16/07 A3029 RMK AO2
     SLP201 T01560072 TSNO=
METAR KRNO 081355Z 00000KT 10SM FEW100 BKN150 21/06 A3007 RMK AO2 
    SLP124 VIRGA DSNT NE NW T02060056=
METAR KSAV 081353Z 29008KT 10SM CLR 30/19 A3000 RMK AO2 SLP156
     T03000194 $=
METAR KSBN 081354Z 10005KT 7SM BKN090 23/22 A3004 RMK AO2 RAE38
     SLP166 P0005 T02330217=
METAR KSCK 081355Z AUTO 03004KT 10SM CLR 14/11 A2986 RMK AO2 SLP110 
    T01440111=
METAR KSGR 081353Z 07007KT 10SM FEW039 SCT085 25/23 A2996 RMK AO2
     SLP152 T02500228=
METAR KTLH 081353Z 33005KT 10SM CLR 29/22 A3003 RMK AO2 SLP168
     T02890222=
METAR KTWM 081353Z AUTO 24009KT 10SM CLR 22/16 A3003 RMK AO2 LTG
     DSNT S=
METAR KUCP 081356Z AUTO 00000KT 10SM CLR 28/19 A3009 RMK AO2 
    T02830194 SLP195 $=
METAR KULM 081355Z AUTO 31005KT 10SM CLR 21/16 A3014 RMK AO2=
METAR KW29 081353Z AUTO 16008KT 7SM CLR 28/22 A3002 RMK AO1=
####018001565####
SANA14 KAWN 081400 RRA
METAR KGTB 081355Z AUTO VRB05KT 10SM CLR 30/22 A3004 RMK AO2 SLP170
      T03020222=
METAR KNIP 081353Z 29003KT 10SM CLR 27/20 A3003 RMK AO2 SLP163 T02720200=
METAR KNKT 081354Z 07010KT 10SM FEW018 29/23 A2994 RMK AO2 SLP137 T02890233=
METAR KNQX 081353Z 03005KT 10SM SCT022 BKN100 BKN200 30/25 A2996 RMK
      AO2 SLP145 T2 SET T03000250 $=
METAR KNRB 081352Z VRB03KT 10SM CLR 28/19 A3002 RMK AO2 SLP165 T02780194=
METAR KNSI 081356Z 30004KT 7SM OVC011 12/11 A2991 RMK SLP132 T01220106=
METAR KOFF 081355Z AUTO 02005KT 10SM CLR 22/18 A3015 RMK AO2 SLP198
      T02210180 $=
METAR KOZR 081355Z 00000KT 10SM CLR 29/26 A3004 RMK AO2A SLP169 T02910258=
METAR KSSC 081355Z AUTO 31007KT 10SM CLR 30/21 A2997 RMK AO2 SLP146
      T03020213 $=
METAR KSUU 081355Z AUTO 23019KT 10SM CLR 12/10 A2985 RMK AO2 PK WND
      23026/1338 SLP108 T01230103 RVRNO $=
METAR KSZL 081355Z 36006KT 10SM SCT009 25/23 A3008 RMK AO2A DZE1324
      SLP181 T02450226 $=
METAR KTCM 081355Z AUTO 00000KT 10SM CLR 15/13 A2997 RMK AO2 SLP148
      T01470128=
METAR KTIK 081355Z AUTO 01003KT 10SM BKN007 24/22 A3007 RMK AO2 SLP172
      T02410225 $=
METAR KTTS 081355Z VRB04KT 10SM SCT029 SCT290 28/22 A3001 RMK SLP162
      3CU /3/ 1CI /4/=
METAR KVAD 081355Z AUTO 33007KT 9SM CLR 29/20 A3003 RMK AO2 SLP167
      T02910204 $=
METAR KWRB 081355Z 36006KT 10SM CLR 30/22 A3003 RMK AO2A SLP166 T02970219
      $=
METAR KWRI 081355Z AUTO 15008KT 10SM FEW015 SCT190 SCT210 27/23 A3003
      RMK AO2 SLP169 T02660226 $=
####018001599####
SAZZ40 KAWN 081400 RRD
METAR ETOU 081355Z AUTO 22003KT 9999 CLR 30/11 A3012 RMK AO2 SLP196
      T02990111=
METAR KAFF 081355Z AUTO 00000KT 10SM CLR 14/11 A3038 RMK AO2 SLP205
      T01360106=
METAR KFSI 081355Z AUTO 01004KT 10SM BKN009 BKN017 OVC085 25/23 A3006
      RMK AO2 CIG 008V012 SLP164 T02510227=
METAR KFTK 081355Z AUTO 00000KT 10SM FEW080 29/23 A3008 RMK AO2 SLP180
      T02890227=
METAR KGTB 081355Z AUTO VRB05KT 10SM CLR 30/22 A3004 RMK AO2 SLP170
      T03020222=
METAR KHST 081355Z AUTO 09008KT 10SM CLR 30/25 A2997 RMK AO2 SLP150
      T03030247=
METAR KMUI 081355Z AUTO VRB06KT 10SM CLR 32/19 A3003 RMK AO2 SLP166
      T03210192 $=
METAR KNIP 081353Z 29003KT 10SM CLR 27/20 A3003 RMK AO2 SLP163 T02720200=
METAR KNKT 081354Z 07010KT 10SM FEW018 29/23 A2994 RMK AO2 SLP137 T02890233=
METAR KNQX 081353Z 03005KT 10SM SCT022 BKN100 BKN200 30/25 A2996 RMK
      AO2 SLP145 T2 SET T03000250 $=
METAR KNRB 081352Z VRB03KT 10SM CLR 28/19 A3002 RMK AO2 SLP165 T02780194=
METAR KNSI 081356Z 30004KT 7SM OVC011 12/11 A2991 RMK SLP132 T01220106=
METAR KSSC 081355Z AUTO 31007KT 10SM CLR 30/21 A2997 RMK AO2 SLP146
      T03020213 $=
METAR KSZL 081355Z 36006KT 10SM SCT009 25/23 A3008 RMK AO2A DZE1324
      SLP181 T02450226 $=
METAR KTCM 081355Z AUTO 00000KT 10SM CLR 15/13 A2997 RMK AO2 SLP148
      T01470128=
METAR KWRI 081355Z AUTO 15008KT 10SM FEW015 SCT190 SCT210 27/23 A3003
      RMK AO2 SLP169 T02660226 $=
METAR RODN 081355Z AUTO 18012KT 9999 SCT017 BKN024 OVC200 29/26 A2987
      RMK AO2 SCT V BKN SLP114 T02860263=
####018000125####
SAUS43 KLOT 081356
MTRRFD
METAR KRFD 081354Z 32006KT 10SM FEW006 SCT013 BKN150 26/21 A3005 RMK 
AO2 SLP172 T02560206
####018000121####
SAUS45 KABQ 081356
MTRCAO
METAR KCAO 081355Z AUTO 36008KT 10SM FEW014 17/13 A3031 RMK AO2 
SLP209 T01720133 TSNO
####018000146####
SAUS43 KAPX 081356
MTRANJ
METAR KANJ 081355Z AUTO 27006KT 9SM BKN004 BKN012 19/18 A2998 RMK 
AO2 RAE11 CIG 003V008 SLP146 P0000 T01940183
####018000118####
SAUS43 KABR 081356
MTRMBG
METAR KMBG 081355Z AUTO 26004KT 10SM CLR 19/11 A3016 RMK AO2 SLP204 
T01940106 TSNO
####018000118####
SAUS44 KSHV 081356
MTRSHV
METAR KSHV 081356Z 14006KT 10SM BKN110 OVC280 27/24 A3006 RMK AO2 
SLP175 T02670239
####018000113####
SAUS43 KFSD 081356
MTRHON
METAR KHON 081355Z AUTO 31004KT 10SM CLR 20/15 A3016 RMK AO2 SLP210 
T02000150
####018000113####
SAUS43 KDLH 081356
MTRINL
METAR KINL 081355Z AUTO 24006KT 10SM CLR 19/14 A3002 RMK AO2 SLP164 
T01890144
####018000118####
SAUS43 KUNR 081356
MTRPHP
METAR KPHP 081355Z AUTO VRB06KT 10SM CLR 18/12 A3023 RMK AO2 SLP221 
T01830117 TSNO
####018000131####
SABE31 TXKF 081347
METAR TXKF 081255Z 17020KT 6000 -SHRA FEW009 SCT015TCU
BKN050 BKN300 23/22 Q1020 RMK TCU N & DSNT SW
/=
####018000127####
SABE31 TXKF 081347
METAR TXKF 081255Z 17020KT 6000 -SHRA FEW009 SCT015TCU
BKN050 BKN300 23/22 Q1020 RMK TCU N & DSNT SW=
####018003731####
SAUS99 KWBC 081357
METAR
KDSV 081354Z AUTO 11005KT 10SM CLR 29/20 A3007 RMK AO2 SLP184
     T02890200=
KDVL 081355Z AUTO 32010KT 10SM CLR 18/11 A3011 RMK AO1=
KDYL 081354Z AUTO 17005KT 6SM HZ BKN016 27/23 A3005 RMK AO2 SLP167
     T02670228 TSNO=
KDYR 081355Z AUTO 26004KT 10SM CLR 29/22 A3009 RMK AO1=
KEAR 081355Z AUTO 01005KT 10SM FEW060 18/16 A3025 RMK AO1=
KECG 081354Z 05010KT 10SM CLR 29/21 A2998 RMK AO2 SLP151
     T02940211=
KEEN 081355Z AUTO 19007KT 10SM FEW019 FEW048 27/22 A3008 RMK
     AO1=
KEHR 081355Z AUTO 22004KT 10SM CLR 31/22 A3007 RMK AO1=
KENV 081355Z 00000KT 10SM CLR 21/01 A3012 RMK AO1=
KESC 081355Z AUTO 30007KT 9SM BKN010 22/17 A2999 RMK AO1=
KEUG 081354Z 20007KT 10SM FEW170 SCT250 14/11 A2995 RMK AO2 SLP138
     T01390106=
KEUL 081355Z AUTO 00000KT 10SM CLR 16/07 A3010 RMK AO1=
KEVV 081354Z VRB04KT 10SM CLR 31/23 A3007 RMK AO2 SLP177
     T03060228=
KEWK 081355Z AUTO 03010KT 10SM OVC008 22/19 A3011 RMK AO1=
KEWN 081354Z 05008KT 9SM FEW015 28/24 A2996 RMK AO2 SLP145
     T02780239=
KFAM 081355Z AUTO 22005KT 6SM OVC100 26/23 A3010 RMK AO1=
KFIG 081354Z AUTO 00000KT 7SM FEW070 27/19 A3011 RMK AO2 SLP185
     T02670194=
KFKL 081355Z 10005KT 10SM CLR 28/19 A3013 RMK AO1=
KFLP 081355Z AUTO 20004KT 10SM FEW070 SCT110 25/22 A3009 RMK
     AO1=
KFNL 081355Z AUTO 34006KT 10SM FEW014 OVC047 15/14 A3034 RMK
     AO1=
KFOD 081355Z AUTO 35006KT 10SM CLR 21/17 A3015 RMK AO1=
KFRM 081355Z AUTO 10SM CLR 21/17 A3017 RMK AO1=
KFZY 081354Z AUTO 24004KT 8SM CLR 29/22 A3004 RMK AO2 SLP168
     T02890217 $=
KGAD 081355Z AUTO 02005KT 10SM CLR 28/20 A3007 RMK AO1=
KGAI 081355Z 15006KT 7SM CLR 29/23 A3005 RMK AO1=
KGBD 081355Z AUTO 01010G14KT 10SM OVC008 19/18 A3019 RMK AO1=
KGCK 081354Z 02009KT 10SM BKN023 20/17 A3025 RMK AO2 SLP217
     T02000167=
KGCN 081354Z 00000KT 10SM CLR 17/02 A3026 RMK AO2 SLP140
     T01670017=
KGDV 081355Z AUTO 18005KT 10SM CLR 17/09 A3019 RMK AO1=
KGED 081354Z AUTO 11005KT 10SM CLR 26/22 A3004 RMK AO2 SLP172
     T02560222=
KGPZ 081355Z AUTO 29006KT 10SM CLR 20/14 A3007 RMK AO1=
KGUC 081355Z AUTO 00000KT 10SM CLR 10/02 A3047 RMK AO1=
KGXY 081355Z AUTO 07006KT 7SM SCT008 BKN015 OVC021 16/13 A3033 RMK
     AO1=
KGYH 081355Z 00000KT 10SM CLR 32/19 A3005=
KHDN 081355Z 12006KT 10SM BKN120 12/07 A3035 RMK AO1=
KHEF 081355Z AUTO 09005KT 7SM CLR 30/23 A3002 RMK AO1=
KHEZ 081355Z AUTO 11003KT 10SM CLR 27/23 A3008 RMK AO1=
KHNB 081355Z AUTO 00000KT 10SM CLR 29/23 A3007 RMK AO1=
KHWD 081354Z 31006KT 10SM OVC007 13/11 A2993 RMK AO2 SLP146
     T01330111=
KHYI 081355Z AUTO 06009KT 3SM BKN009 BKN015 OVC050 26/24 A2997 RMK
     AO1 P0001=
KRUT 081355Z AUTO 00000KT 7SM CLR 28/22 A3005 RMK AO1=
KSBY 081354Z 11004KT 10SM SCT065 26/22 A3003 RMK AO2 SLP172
     T02560222=
KSDY 081355Z AUTO 16003KT 10SM BKN100 17/11 A3018 RMK AO1=
KSET 081354Z AUTO 00000KT 7SM OVC008 26/24 A3005 RMK AO2 RAE47
     SLP171 P0001 T02560244=
KSFM 081355Z 19004KT 8SM FEW012 OVC036 25/19 A3010 RMK AO1=
KSFZ 081355Z AUTO 20003KT 10SM FEW019 24/20 A3009 RMK AO1=
KSGT 081355Z 22003KT 10SM CLR A3009 RMK AO1=
KSGU 081355Z AUTO 00000KT 10SM CLR 23/01 A3001 RMK AO1=
KSJN 081354Z AUTO 13007KT 10SM FEW110 22/07 A3021 RMK AO2 SLP124
     T02220067=
KSKX 081355Z AUTO 35010KT 10SM CLR 15/07 A3041 RMK AO1=
KSLG 081355Z AUTO 18005KT 10SM OVC015 24/22 A3010 RMK AO1=
KSMN 081355Z AUTO 00000KT 10SM CLR 10/04 A3028 RMK AO1=
KSQI 081355Z 30006KT 10SM FEW009 OVC019 24/22 A3007 RMK AO1=
KSUE 081355Z AUTO 34006KT 10SM BKN018 OVC043 22/21 A3002 RMK
     AO1=
KSUS 081354Z 00000KT 10SM -RA SCT012 BKN150 25/23 A3005 RMK AO2
     SLP165 P0003 T02500233=
####018003717####
SAUS99 KWBC 081357 RRB
METAR
KMKO 081353Z AUTO 00000KT 9SM -RA OVC003 24/23 A3007 RMK AO2 RAB34
     CIG 003V008 SLP175 P0000 T02390228=
KMKT 081355Z 31005KT 10SM CLR 20/17 A3014 RMK AO1=
KMML 081355Z AUTO 28007KT 10SM CLR 22/16 A3015 RMK AO1=
KMNM 081355Z AUTO 35005KT 10SM OVC015 22/19 A3000 RMK AO1=
KMOT 081354Z 23005KT 10SM BKN070 19/12 A3012 RMK AO2 SLP197
     T01890117=
KAAO 081354Z AUTO 36010KT 10SM OVC006 22/21 A3012 RMK AO2 SLP187
     T02220206=
KAFJ 081355Z AUTO 00000KT 8SM CLR 27/20 A3012 RMK AO1=
KAIZ 081355Z AUTO 00000KT 7SM BKN009 BKN036 OVC055 23/22 A3008 RMK
     AO1 P0002=
KAKH 081354Z AUTO 01008KT 7SM CLR 31/18 A3003 RMK AO2 SLP159
     T03110183=
KAKR 081354Z AUTO 21005KT 10SM CLR 29/18 A3008 RMK AO2 SLP175
     T02890183=
KALO 081354Z AUTO 34010KT 10SM CLR 22/19 A3009 RMK AO2 SLP186
     T02220194=
KAPC 081354Z 26009KT 10SM OVC006 12/10 A2992 RMK AO2 SLP123
     T01170100=
KARG 081355Z AUTO 22006KT 10SM OVC095 27/23 A3008 RMK AO1=
KAUO 081355Z AUTO 03005KT 10SM CLR 31/21 A3005 RMK AO1=
KAUW 081354Z AUTO 31005KT 10SM SCT006 BKN012 21/18 A3004 RMK AO2
     SLP172 P0001 T02060183=
KAVL 081354Z 35007KT 8SM CLR 27/19 A3015 RMK AO2 SLP179
     T02670189=
KAWO 081355Z AUTO 00000KT 10SM CLR 16/14 A2999 RMK AO1=
KBFL 081354Z 00000KT 10SM CLR 22/12 A2986 RMK AO2 SLP106
     T02170117=
KBHB 081355Z AUTO 19010KT 7SM OVC003 19/18 A3014 RMK AO1=
KBID 081355Z AUTO 09006KT 10SM OVC005 23/22 A3009 RMK AO1=
KBKX 081355Z AUTO 26005KT 10SM CLR 21/16 A3017 RMK AO1=
KBLM 081355Z AUTO 16008KT 10SM BKN012 BKN060 OVC075 26/19 A3008
     RMK AO1=
KBOS 081354Z 15008KT 10SM SCT220 26/20 A3009 RMK AO2 SLP190
     T02610200=
KBTP 081355Z AUTO 16003KT 8SM CLR 27/21 A3010 RMK AO1=
KBUF 081354Z 21005KT 10SM FEW095 29/19 A3004 RMK AO2 SLP168 ACC S
     T02940189=
KBUY 081354Z AUTO 01007KT 5SM HZ CLR 32/19 A3001 RMK AO2 SLP153
     T03170194=
KBVX 081355Z AUTO 25005KT 10SM BKN085 OVC110 27/22 A3009 RMK
     AO1=
KBWI 081354Z 12008KT 5SM HZ FEW024 31/22 A3002 RMK AO2 SLP164
     T03060222=
KCEU 081354Z AUTO 00000KT 9SM CLR 30/21 A3006 RMK AO2 SLP165
     T03000211=
KCGZ 081355Z AUTO 00000KT 10SM CLR 28/01 A2984 RMK AO1=
KCIU 081355Z AUTO 02010KT 10SM SCT006 OVC012 21/18 A3000 RMK
     AO1=
KCOD 081355Z 00000KT 10SM CLR 13/03 A3034 RMK AO1=
KCOE 081355Z AUTO 05008KT 10SM CLR 17/09 A3010 RMK AO1=
KCOS 081354Z 17003KT 10SM CLR 15/12 A3037 RMK AO2 SLP230
     T01500117=
KCRW 081354Z 00000KT 5SM HZ CLR 27/21 A3010 RMK AO2 SLP182
     T02720206=
KCVN 081355Z AUTO 04014KT 10SM CLR 18/14 A3026 RMK AO1=
KCVO 081355Z AUTO 28004KT 10SM CLR 13/10 A2995 RMK AO1=
KCWI 081355Z 34004KT 10SM SCT005 A3006 RMK AO1=
KDDH 081354Z AUTO 00000KT 5SM HZ CLR 28/22 A3006 RMK AO2 SLP173
     T02780217=
KDEC 081354Z 00000KT 10SM SCT007 28/23 A3005 RMK AO2 SLP170
     T02780228=
KDSM 081354Z 01009KT 10SM FEW015 SCT150 BKN250 23/18 A3012 RMK AO2
     SLP191 T02330183=
KMRF 081355Z AUTO 03008KT 10SM CLR 21/16 A3021 RMK AO1=
KMRY 081354Z 00000KT 10SM OVC006 13/10 A2995 RMK AO2 SLP154
     T01280100=
KMSV 081355Z AUTO 13004KT 10SM CLR 29/19 A3010 RMK AO1=
KMTW 081355Z 27004KT 7SM SCT010 OVC014 23/22 A3001 RMK AO1=
KMVL 081354Z AUTO 15003KT 6SM HZ CLR 29/23 A3006 RMK AO2 SLP175
     T02890228=
KMVN 081355Z AUTO 24008KT 10SM BKN060 29/23 A3006 RMK AO1=
KOCH 081355Z AUTO 12009KT 10SM SCT011 OVC110 26/19 A3004 RMK
     AO1=
KOFP 081354Z AUTO VRB05KT 6SM HZ FEW090 31/22 A3002 RMK AO2 SLP163
     T03060217=
KOKK 081355Z AUTO 17003KT 5SM FEW070 OVC085 A3004 RMK AO1=
KOLM 081354Z AUTO 00000KT 10SM CLR 15/12 A2997 RMK AO2 SLP146
     T01500122=
####018003733####
SAUS99 KWBC 081357 RRC
METAR
KOLS 081354Z AUTO 05007KT 10SM CLR 27/11 A3002 RMK AO2 SLP082
     T02720106=
KOLU 081355Z AUTO 36004KT 10SM CLR 21/16 A3020 RMK AO1=
KORH 081354Z 22007KT 10SM BKN014 OVC019 24/21 A3012 RMK AO2 SLP194
     T02390206=
KOTG 081355Z AUTO 30008KT 10SM CLR 21/16 A3017 RMK AO1=
KOTH 081355Z 00000KT 10SM OVC006 10/08 A3000 RMK AO1=
KPHF 081354Z 09008KT 10SM FEW021 28/22 A3001 RMK AO2 SLP161
     T02780217=
KPHL 081354Z 14005KT 7SM FEW028 SCT110 28/21 A3004 RMK AO2 SLP173
     T02830211=
KPIA 081354Z 31003KT 10SM FEW008 OVC016 24/22 A3006 RMK AO2 SLP173
     T02390217=
KPIB 081355Z AUTO 01003KT 10SM CLR 28/22 A3008 RMK AO1=
KPLN 081354Z AUTO 26004KT 6SM -RA BR OVC005 22/21 A3000 RMK AO2
     CIG 005V009 SLP157 P0002 T02170211=
KPNE 081354Z 13006KT 7SM BKN015 27/23 A3005 RMK AO2 SLP176
     T02720233=
KPQI 081355Z AUTO 13006KT 10SM CLR 26/22 A2999 RMK AO1=
KPRX 081355Z 16006KT 8SM FEW009 SCT018 OVC049 26/23 A3006 RMK
     AO1=
KPSF 081354Z AUTO VRB03KT 6SM HZ CLR 27/22 A3009 RMK AO2 SLP157
     T02720217=
KPTN 081355Z AUTO 10008KT 10SM SCT012 29/M06 A3005 RMK AO1=
KPTV 081355Z AUTO 16003KT 10SM CLR 18/11 A2988 RMK AO1=
KPTW 081354Z AUTO VRB03KT 5SM HZ CLR 31/21 A3005 RMK AO2 SLP169
     T03110211=
KPVC 081355Z 17009G17KT 150V210 10SM FEW015 26/22 A3011 RMK
     AO1=
KPWG 081355Z AUTO 08005KT 10SM BKN011 BKN019 OVC050 26/23 A3003
     RMK AO1=
KPWT 081355Z AUTO 03008KT 10SM CLR 23/07 A2999 RMK AO1=
KRBL 081354Z AUTO 16004KT 10SM CLR 22/14 A2985 RMK AO2 SLP104
     T02170144=
KRDG 081354Z 13003KT 8SM CLR 31/21 A3002 RMK AO2 SLP166
     T03060211=
KRKD 081355Z AUTO 21009KT 7SM OVC003 20/19 A3013 RMK AO1=
KRKS 081354Z AUTO 07014KT 10SM CLR 11/07 A3037 RMK AO2 SLP219
     T01110067=
KROC 081354Z 24005KT 9SM CLR 29/21 A3004 RMK AO2 SLP169
     T02890211=
KRST 081354Z 35009KT 10SM CLR 22/17 A3013 RMK AO2 SLP198
     T02170172=
K0A9 081355Z AUTO 00000KT 10SM CLR 27/18 A3012 RMK=
K4BM 081354Z AUTO 23005KT M1/4SM -SN 04/04 A3063 RMK AO2=
K5SM 081353Z AUTO 00000KT 10SM CLR 11/03 A3059 RMK AO2=
K7BM 081356Z AUTO 00000KT 10SM BKN002 08/07 A3054 RMK AO2=
KAAF 081353Z AUTO 02006KT 10SM CLR 29/23 A3002 RMK AO2 SLP165
     T02940233=
KAEG 081355Z AUTO 14015KT 10SM CLR 18/08 A3032 RMK AO1=
KASG 081348Z 16006KT 10SM BKN020 OVC043 24/21 A3010=
KBBP 081355Z AUTO 32004KT 10SM CLR 31/20 A2996 RMK AO2=
KBDU 081357Z AUTO 00000KT 10SM OVC036 17/12 A3034 RMK AO2=
KBKN 081355Z AUTO 02008KT 10SM CLR 23/22 A3008 RMK AO2=
KCCU 081356Z AUTO 19010KT 10SM CLR 08/01 A3064 RMK AO2=
KCIC 081355Z AUTO 14005KT 10SM CLR 19/12 A2985 RMK AO1=
KDHN 081353Z 35003KT 10SM CLR 30/24 A3008 RMK AO2 SLP178
     T03000239=
KDTS 081353Z AUTO 36004KT 10SM CLR 29/23 A3003 RMK AO2 SLP167
     T02890233=
KGGE 081355Z AUTO 32005KT 10SM CLR 30/22 A2994 RMK AO2=
KGZH 081353Z AUTO 00000KT 10SM CLR 29/23 A3006 RMK AO2 SLP174
     T02890233=
KLUX 081355Z AUTO 00000KT 10SM CLR 29/24 A3004 RMK AO2=
KMAI 081353Z AUTO 00000KT 10SM CLR 29/24 A3003 RMK AO2 SLP166
     T02940239=
KMAO 081355Z AUTO 01006KT 10SM CLR 30/21 A2995 RMK AO2=
KMYP 081256Z AUTO 20011KT 10SM CLR 05/03 A3075 RMK AO2=
KOGB 081353Z AUTO 34004KT 10SM CLR 31/21 A2999 RMK AO2 SLP153
     T03110206=
KPSO 081355Z AUTO 00000KT 10SM CLR 15/05 A3041 RMK AO2=
KRCE 081355Z AUTO 00000KT 9SM BKN006 24/22 A3009 RMK AO2=
KSMS 081355Z AUTO 33004KT 9SM CLR 29/21 A2998 RMK AO2=
KSUN 081353Z 30012KT 30SM SKC 11/01 A3026=
KVLD 081353Z VRB03KT 10SM CLR 29/21 A3003 RMK AO2 SLP174
     T02940206=
KVTP 081400Z AUTO 00000KT 10SM CLR 10/04 A3056 RMK AO2=
KWYS 081350Z AUTO 00000KT 10SM CLR 07/01 A3038 RMK AO2=
####018003720####
SAUS99 KWBC 081357 RRD
METAR
KX40 081355Z AUTO 00000KT 10SM SCT018 29/22 A3003 RMK AO2
     T02850223=
K2G4 081350Z AUTO 34004KT 10SM CLR 25/15 A3019 RMK AO1=
K2W6 081353Z AUTO 10006KT 10SM BKN016 BKN022 BKN070 27/23 A3004
     RMK AO1=
KABI 081352Z 00000KT 9SM OVC005 23/22 A3008 RMK AO2 SLP165
     T02280217=
KAIT 081353Z AUTO 26005KT 10SM CLR 21/19 A3007 RMK AO2=
KAVP 081354Z 00000KT 7SM CLR 29/19 A3006 RMK AO2 SLP167 T02890189
     $=
KBBB 081353Z AUTO 27004KT 10SM CLR 21/17 A3012 RMK AO2=
KBMI 081356Z 27006KT 10SM BKN012 BKN070 25/22 A3007 RMK AO2
     T02500222 SLP168 $=
KBOK 081356Z AUTO 00000KT M1/4SM FG OVC002 09/09 A2998 RMK AO2
     T00940094 RAB35E48 P0000 SLP154 $=
KBTV 081354Z 20006KT 7SM CLR 29/22 A3001 RMK AO2 SLP161
     T02940222=
KCBE 081353Z AUTO 00000KT 7SM CLR 27/20 A3010 RMK AO1=
KCGE 081351Z AUTO 14007KT 10SM CLR 28/23 A3003 RMK AO1=
KCGS 081355Z AUTO 00000KT 7SM SCT110 31/23 A3002 RMK AO1=
KCHA 081353Z 00000KT 9SM CLR 30/20 A3008 RMK AO2 SLP177
     T03000200=
KCNK 081355Z AUTO 35005KT 10SM OVC044 21/18 A3018 RMK AO2 SLP208
     T02110183=
KCRP 081351Z COR 03006KT 10SM SCT022 SCT040 BKN060 27/25 A2985 RMK
     AO2 RAE31 SLP106 CB DSNT E TCU DSNT NE SE S SW P0001
     T02670250 $=
KDLH 081355Z 27008KT 10SM CLR 22/14 A3006 RMK AO2 SLP177
     T02170139=
KFDK 081353Z AUTO 00000KT 7SM CLR 34/22 A3005 RMK AO2=
KDMW 081352Z AUTO 14003KT 7SM CLR 31/22 A3005 RMK AO2=
KEAT 081355Z AUTO 30005KT 10SM CLR 18/06 A3006 RMK AO2 SLP168
     T01780061=
KFFM 081353Z AUTO 32003KT 10SM CLR 19/16 A3009 RMK AO2=
KFGN 081354Z AUTO 29005KT 2SM HZ BKN070 18/14 A2999 RMK AO2 VIS
     3/4V5=
KFME 081354Z AUTO 10005KT 7SM CLR 27/22 A3004 RMK AO1=
KFWA 081354Z 20006KT 9SM OVC050 28/21 A3005 RMK AO2 SLP170
     T02830211=
KGDB 081353Z AUTO 25005KT 10SM CLR 20/17 A3015 RMK AO2
     T02030166=
KGHW 081353Z AUTO 27006KT 10SM CLR 21/15 A3015 RMK AO2=
KGPI 081355Z 35005KT 10SM CLR 16/08 A3019 RMK AO2 SLP207
     T01560083=
KIRK 081355Z AUTO 01009KT 10SM FEW008 23/21 A3010 RMK AO2 SLP188
     T02280206=
KLIC 081355Z AUTO 14005KT 10SM FEW004 14/14 A3035 RMK AO2 SLP227
     T01440139=
KLLJ 081355Z AUTO 00000KT 10SM FEW090 12/01 A3029 RMK AO2 SLP206
     T01170011=
KLXV 081353Z AUTO 00000KT 10SM OVC008 07/05 A3053 RMK AO2 CIG
     005V012 SLP213 T00670050 TSNO=
KLZU 081350Z 00000KT 10SM SKC 30/20 A3006=
KMER 081355Z 30007KT 10SM SKC 17/12 A2985=
KMGG 081355Z AUTO 27005KT 10SM CLR 22/17 A3013 RMK AO2
     T02170167=
KMKG 081355Z 20009KT 5SM BR BKN007 BKN030 OVC045 23/22 A3003 RMK
     AO2 RAB03E55 SLP164 P0004 T02330217=
KMOX 081350Z AUTO 27007KT 10SM CLR 22/17 A3008 RMK AO2=
PAHN 081354Z AUTO VRB03KT 10SM CLR 12/09 A3017 RMK AO2 SLP220
     T01170094 TSNO=
PAKN 081354Z 35004KT 10SM SCT030 BKN060 08/08 A2990 RMK AO2 SLP126
     T00830078=
KMSN 081353Z 32004KT 8SM BKN008 24/21 A3003 RMK AO2 SLP164
     T02390211=
KMWA 081354Z 23006KT 15SM SCT070 BKN110 BKN250 29/24 A3008=
KMWM 081353Z AUTO 30005KT 10SM CLR 22/17 A3015 RMK AO2=
KMWT 081353Z AUTO 00000KT 10SM FEW017 BKN049 26/23 A3008 RMK AO2
     SLP177 T02560233 TSNO=
KOWB 081356Z 27004KT 10SM CLR 32/24 A3008 RMK AO2 T03160238
     SLP179=
KPNM 081353Z AUTO 27007KT 10SM CLR 22/16 A3011 RMK AO2=
KPQN 081353Z AUTO 32006KT 10SM CLR 21/15 A3017 RMK AO2=
KPWC 081353Z AUTO 28006KT 10SM CLR 19/14 A3009 RMK AO2=
KRIL 081353Z AUTO 00000KT 10SM CLR 16/07 A3029 RMK AO2 SLP201
     T01560072 TSNO=
KRNO 081355Z 00000KT 10SM FEW100 BKN150 21/06 A3007 RMK AO2 SLP124
     VIRGA DSNT NE NW T02060056=
KSAV 081353Z 29008KT 10SM CLR 30/19 A3000 RMK AO2 SLP156 T03000194
     $=
####018000645####
SAUS99 KWBC 081357 RRE
METAR
KSBN 081354Z 10005KT 7SM BKN090 23/22 A3004 RMK AO2 RAE38 SLP166
     P0005 T02330217=
KSCK 081355Z AUTO 03004KT 10SM CLR 14/11 A2986 RMK AO2 SLP110
     T01440111=
KSGR 081353Z 07007KT 10SM FEW039 SCT085 25/23 A2996 RMK AO2 SLP152
     T02500228=
KTLH 081353Z 33005KT 10SM CLR 29/22 A3003 RMK AO2 SLP168
     T02890222=
KTWM 081353Z AUTO 24009KT 10SM CLR 22/16 A3003 RMK AO2 LTG DSNT
     S=
KUCP 081356Z AUTO 00000KT 10SM CLR 28/19 A3009 RMK AO2 T02830194
     SLP195 $=
KULM 081355Z AUTO 31005KT 10SM CLR 21/16 A3014 RMK AO2=
KW29 081353Z AUTO 16008KT 7SM CLR 28/22 A3002 RMK AO1=
####018000245####
SPUS99 KWBC 081357
SPECI
KCID 081354Z 33007KT 7SM BKN007 22/20 A3007 RMK AO2 CIG
     006V010=
KNFG 081348Z AUTO 00000KT 10SM SCT011 OVC018 16/14 A2991 RMK AO2
     TSNO=
KMHT 081355Z 21005KT 7SM SCT020 BKN045 27/21 A3007 RMK AO2=
####018003653####
SAUS99 KWBC 081357 RRA
METAR
KSYR 081354Z 00000KT 8SM CLR 30/22 A3004 RMK AO2 SLP166
     T03000217=
KTAD 081354Z AUTO 30003KT 10SM CLR 16/12 A3035 RMK AO2 SLP224
     T01560122=
KTPL 081355Z 08007KT 5SM BKN009 OVC015 25/23 A3002 RMK AO1=
KTQE 081354Z AUTO 36007KT 10SM CLR 22/18 A3017 RMK AO2 SLP203
     T02170178=
KTVF 081355Z AUTO 27008KT 10SM CLR 18/13 A3006 RMK AO1=
KUIN 081354Z AUTO 31003KT 10SM FEW004 SCT110 23/22 A3007 RMK AO2
     SLP178 T02330217=
KUZA 081354Z AUTO 02005KT 6SM HZ CLR 29/20 A3002 RMK AO2 SLP151
     T02940200=
KVAY 081354Z AUTO 13006KT 8SM FEW015 BKN110 27/22 A3004 RMK AO2
     SLP172 T02720222=
KVBT 081355Z AUTO 17005KT 10SM OVC016 24/21 A3007 RMK AO1=
KVIS 081355Z AUTO 30004KT 10SM CLR 18/11 A2984 RMK AO1=
KVQQ 081350Z 00000KT 10SM CLR 28/22 A3002=
KVSF 081354Z AUTO 00000KT 6SM HZ OVC014 26/22 A3009 RMK AO2 SLP185
     T02560217=
KVTA 081354Z AUTO 00000KT 7SM CLR 28/21 A3008 RMK AO2 SLP177
     T02780211=
KWLD 081354Z AUTO 02010KT 10SM BKN010 24/21 A3011 RMK AO2 CIG
     008V012 SLP187 P0001 T02390211=
KWVL 081355Z AUTO 19005KT 7SM OVC006 22/20 A3007 RMK AO1=
KWWD 081355Z AUTO 9SM OVC060 24/24 A3005 RMK AO1=
KYKN 081355Z AUTO 24004KT 10SM CLR 21/16 A3020 RMK AO1=
KHYS 081355Z AUTO 03009KT 10SM OVC037 19/17 A3020 RMK AO1=
KILE 081355Z 07009KT 6SM BKN008 BKN014 OVC020 25/23 A3001 RMK
     AO1=
KILN 081354Z AUTO 19004KT 5SM HZ CLR 28/21 A3009 RMK AO2 SLP176
     T02830211=
KIMT 081354Z AUTO 02003KT 10SM CLR 23/19 A3001 RMK AO2 SLP159
     T02330189=
KIND 081354Z 24007KT 9SM FEW180 SCT230 29/22 A3004 RMK AO2 SLP165
     T02890222=
KINT 081354Z 01007KT 10SM CLR 30/18 A3005 RMK AO2 SLP161
     T03000183=
KIPT 081354Z VRB05KT 9SM CLR 28/18 A3005 RMK AO2 SLP169
     T02780178=
KISW 081354Z AUTO 32004KT 10SM OVC007 21/19 A3006 RMK AO2 SLP176
     T02060189 TSNO=
KIWD 081355Z AUTO 33007KT 10SM CLR 21/16 A3003 RMK AO1=
KIZG 081354Z AUTO VRB04KT 7SM BKN016 OVC047 26/21 A3009 RMK AO2
     SLP188 T02610211=
KJHW 081355Z AUTO 16003KT 10SM CLR 27/19 A3011 RMK AO1=
KJST 081354Z AUTO 00000KT 6SM HZ CLR 27/18 A3014 RMK AO2 SLP187
     T02670178=
KKLS 081355Z AUTO 32003KT 10SM CLR 14/13 A2996 RMK AO1=
KLAF 081354Z 25003KT 8SM CLR 28/23 A3003 RMK AO2 SLP164
     T02830233=
KLBL 081355Z 35013KT 9SM OVC006 19/17 A3024 RMK AO1 P0002=
KLBT 081354Z AUTO 05007KT 6SM HZ FEW085 31/21 A2996 RMK AO2 SLP142
     T03060206=
KLCI 081355Z AUTO 25005KT 4SM BKN017 OVC028 26/21 A3008 RMK
     AO1=
KLEW 081355Z 16004KT 5SM OVC006 22/21 A3012 RMK AO1=
KLEX 081354Z 19006KT 5SM HZ CLR 29/19 A3010 RMK AO2 SLP182
     T02940189=
KLGD 081355Z AUTO 00000KT 10SM CLR 14/07 A3009 RMK AO1=
KLKV 081355Z AUTO 32005KT 10SM CLR 17/03 A3013 RMK AO1=
KLNK 081354Z 01006KT 10SM CLR 21/18 A3018 RMK AO2 SLP210
     T02110178=
KLPC 081355Z AUTO 00000KT 8SM OVC008 13/11 A2994 RMK AO1 PNO=
KLWM 081354Z 20004KT 10SM FEW023 27/20 A3010 RMK AO2 SLP191
     T02720200=
KLWT 081354Z AUTO 00000KT 10SM CLR 14/08 A3027 RMK AO2 SLP224
     T01390078=
KLYH 081354Z 02004KT 6SM HZ CLR 31/19 A3006 RMK AO2 SLP165
     T03110189=
KMBL 081355Z AUTO 27004KT 5SM OVC006 22/20 A3003 RMK AO1=
KMFI 081354Z AUTO 33007KT 10SM BKN013 23/19 A3006 RMK AO2 SLP172
     T02280189=
KMGJ 081354Z AUTO VRB03KT 7SM CLR 28/22 A3005 RMK AO2 SLP172
     T02830217=
KMIV 081354Z AUTO 14006KT 10SM FEW014 26/22 A3003 RMK AO2 SLP165
     T02610217=
KMJX 081355Z AUTO 16003KT 10SM BKN010 OVC060 25/22 A3004 RMK
     AO1=
KMKC 081354Z 00000KT 8SM OVC007 24/22 A3010 RMK AO2 CIG 006V010
     SLP183 T02390217=
####018000341####
SANO36 ENMI 081350
METAR ENBS 081350Z NIL=
METAR ENHK 081350Z 13009KT 9999 FEW034 ASCT051 BKN100 1/08 Q1011=
METAR ENHV 081350Z VRB02KT CAVOK 13/08 Q1012 =
METAR ENLK 081350Z 00000KT CAVOK 17/10 Q1010=
METAR ENMH 081350Z NIL=
METAR ENNK 081350Z VRB02KT 9999 BKN075 18/12 Q1009 =
METAR ENNM 081350Z VRB02KT 9999 SCT045 19/12 Q1010 =
####018000958####
SAMX42 MMGL 081400
METAR MMAS 081340Z 03004KT 8SM SCT020 BKN070 OVC200 18/14 A3010 
      RMK 8/537 HZ BINOVC=
METAR MMEP 081352Z 00000KT 3SM BR OVC003 22/21 A3002 RMK 8/7//=
METAR MMGL 081349Z 00000KT 10SM FEW010 BKN080 OVC300 19/17 A3006 RMK 8/577=
METAR MMIA 081345Z 00000KT 5SM DZ SCT020 OVC100 22/20 A2993 RMK 8/76/=
METAR MMLO 081351Z 06005KT 8SM BKN025 OVC070 18/18 A3014 RMK 8/57/ LWR SC=
METAR MMMM 081346Z 00000KT 4SM FEW010 BKN015 OVC070 17/15 A3011 
      RMK 8/57/ HZY ST LWR HILL=
METAR MMPN 081345Z 00000KT 2 1/2SM BR SCT003 BKN010 OVC030 17/16 A3006
      RMK 8/7// LOW ST 1-2 QUAD=
METAR MMPR 081349Z 00000KT 10SM BKN025 OVC080 26/23 A2982 
      RMK 8/57/ LWR CLDS 3-4 QUADS=
METAR MMSP 081348Z 00000KT 7SM FEW010 BKN015 BKN080 19/18 A3014 
      RMK 8/530 HZY MSGTX MMMM=
METAR MMZC 081341Z 09009KT 8SM BKN030 17/12 A3021 RMK 8/700=
METAR MMZO 081351Z 00000KT 10SM BKN100 BKN250 24/23 A2977 RMK 8/035 HZY=
####018000083####
SACY42 EGRR 081350
METAR LCRA 081350Z 23011KT 9000 HZ FEW040 27/21 Q1007 NOSIG=
####018000073####
SAEW LEMO 081400
METAR LEMO 081400Z VRB04KT CAVOK 33/18
Q1015 NOSIG=
####018000078####
SANO36 ENMI 081350 RRA
METAR ENBS 081350Z 19011KT 9999 FEW030 16/08 Q1016=
####018000623####
SAIY32 LIIB 081350
METAR LIBD 081350Z 01016KT CAVOK 25/11 Q1020=
METAR LIBR 081345Z /////KT CAVOK 26/14 Q1018 NOSIG=
METAR LICC 081350Z 11014KT CAVOK 28/20 Q1017=
METAR LICJ 081350Z 04014KT 9999 FEW018 28/23 Q1018=
METAR LIPB 081350Z 18015KT CAVOK 31/12 Q1018=
METAR LIPE 081350Z 09007KT 050V120 CAVOK 30/14 Q1020=
METAR LIPH 081345Z 14005KT 9999 FEW025 28/21 Q1021=
METAR LIPK 081350Z 08008KT CAVOK 29/12 Q1020=
METAR LIPQ 081350Z 26004KT CAVOK 28/15 Q1021=
METAR LIPR 081345Z 07012KT CAVOK 28/19 Q1021=
METAR LIPX 081345Z 23003KT 9999 FEW040 30/14 Q1020=
METAR LIPZ 081350Z 13007KT 9999 FEW040 26/18 Q1021=
####018000080####
SAZB40 FLLS 081400
METAR FLLS 081400Z 07012KT 9/9 SCT045 FEW100 18/08 Q1027=
####018001282####
SAMX41 MMMX 081352
METAR MMMX 081345Z 00000KT 4SM SCT006 BKN010 OVC020 15/14 A3022
      TEMPO 4 SM -RA HZ SCT008 OVC020 RMK 8/7// HZY OCNL DROPS=
METAR MMAA 081341Z 00000KT 8SM SCT010 SCT080 OVC100 27/22 A2980 RMK 8/27/
      BINOVC=
METAR MMCB 081346Z 00000KT 3/4SM BR  BKN004 OVC100 19/16 A3005 
      RMK 60025 8/77/ -RA B25 E35=
METAR MMOX 081348Z 03002KT 4SM FEW005 SCT015 BKN080 OVC120 17/15 A3009
      RMK 8/77/ LWR VIS/ST S=
METAR MMPA 081345Z RTD 34004KT 5SM SCT030 SCT070 BKN280 27/24 A2987
      RMK 8/133 HZY DSNT CB, TCU 1,2 QUAD=
METAR MMPB 081343Z 17006KT 3SM -RA BR  FEW003 BKN006 OVC100 14/14 
      A3021 RMK 6//// 8/72/ VRBL CONDS=
METAR MMPS 081340Z 00000KT 10SM BKN015 OVC280 26/21 A2996 RMK 8/606 HZY=
METAR MMQT 081345Z 08008KT 5SM FEW007 BKN015 BKN120 17/15 A3020 RMK 8/860=
METAR MMTM 081342Z 24006KT 7SM  SCT010 BKN035 OVC200 26/23 A2982 
      RMK 8/807 AC/BINOVC DZ OCNL=
METAR MMTO 081345Z 05004KT 1SM -RA BR BKN005 OVC008 12/10 A3027
      RMK 60185 8/7//=
METAR MMVR 081345Z 00000KT 6SM  FEW010 BKN090 OVC250 25/25 A2980 
      RMK 8/467 HZ DSNT CB NW=
METAR MMZH 081340Z 00000KT 7SM SCT020 BKN100 BKN250 25/22 A2980 RMK 8/232=
METAR MMBT 081357Z NIL=
METAR MMIT 081357Z NIL=
METAR MMTB 081357Z NIL=
####018000088####
SAHW31 PWAK 081356
METAR PWAK 081356Z 08012KT 8SM FEW025 27/25 A2996 
RMK AO2A
=
####018000091####
SAFJ31 NFFN 081400
METAR NFFN 081400Z 12006KT 40KM FEW030 20/18 Q1013 NOSIG RMK RR NIL=
####018000068####
SABZ23 SBGL 081400
METAR SBGL 081400Z 32001KT CAVOK 24/17 Q1018=
####018000109####
SABH31 MZBZ 081400
METAR MZBZ 081400Z 18008KT 9999 FEW011 SCT080 BKN220 27/24 A2986
Q1011 JP-S,SW NOSIG=
####018000067####
SAAG SANT 081400
METAR SANT 081400Z  18003KT 8000  13/06 Q1018=
####018000082####
SPAU32 YBBN 081356
SPECI YBMA 081356Z AUTO 00000KT 6000NDV // NCD 08/07 Q1020=
####018000078####
SAUK34 EGGY 081350 RRA
METAR EGHE 081350Z 20011KT 9999 SCT025 19/14 Q1018=
####018000078####
SASW31 LSSW 081350 RRA
METAR LSZB 081350Z VRB03KT CAVOK 31/12 Q1021 NOSIG=
####018000351####
SAFI34 EFHK 081350
EFET 081350Z AUTO 17007KT 120V220 9999 -RA OVC055 19/07 Q1013=
EFIV 081350Z 16006KT 130V280 CAVOK 22/07 Q1015=
EFKE 081350Z AUTO 21007KT CAVOK 21/11 Q1015=
EFKI 081350Z AUTO 33005KT CAVOK 24/14 Q1015=
EFKS 081350Z AUTO VRB02KT CAVOK 22/09 Q1016=
EFKT 081350Z AUTO 18011KT 150V210 CAVOK 21/08 Q1014=
METAR EFSO 081356Z NIL=
####018000068####
SABZ18 SBSJ 081400
METAR SBSJ 081400Z 16007KT CAVOK 21/11 Q1022=
####018001671####
SAUK39 EGRR 081350
METAR EGDL 081350Z 24007KT 9999 FEW040 SCT150 BKN200 22/09 Q1018
 BLU NOSIG=
METAR EGDR 081350Z 20009KT 9999 FEW022 BKN100 19/14 Q1019 BLU NOSIG=
METAR EGDX 081350Z 29007KT 9999 FEW020 20/11 Q1018 BLU=
METAR EGOM 081350Z 25014KT 9999 SCT030 SCT035 16/09 Q1015 BLU=
METAR EGOS 081350Z 24012KT 9999 SCT045 SCT120 BKN200 21/09 Q1017 BLU
 NOSIG=
METAR EGOV 081350Z 19016KT 9999 -RA FEW018 BKN080 17/13 Q1017 BLU
 NOSIG=
METAR EGOW 081350Z 26013KT 9999 FEW036 BKN250 20/11 Q1017 BLU=
METAR EGQA 081350Z 20015KT 9999 VCSH FEW020 SCT030 16/// Q1010 BLU=
METAR EGQL 081350Z 24021KT 9999 FEW045 SCT150 BKN250 21/06 Q1012 BLU
 NOSIG=
METAR EGQS 081350Z 24020KT 9999 FEW030 BKN060 17/07 Q1010 BLU TEMPO
 7000 -SHRA WHT=
METAR EGUW 081350Z 23007KT 9999 SCT040 BKN250 24/13 Q1018 BLU NOSIG=
METAR EGVN 081350Z 24005KT 9999 FEW045 BKN220 23/08 Q1018 BLU NOSIG=
METAR EGVO 081350Z 24009KT 9999 SCT030 BKN250 23/16 Q1018 BLU NOSIG=
METAR EGVP 081350Z 21009KT 9999 FEW038 SCT180 23/13 Q1018 BLU=
METAR EGWU 081350Z 24008KT 9999 FEW037 BKN250 24/14 Q1018 BLU NOSIG=
METAR EGXC 081350Z 26009KT CAVOK 24/08 Q1017 BLU NOSIG=
METAR EGXD 081350Z 24014KT CAVOK 22/08 Q1016 BLU NOSIG=
METAR EGXE 081350Z 25015KT CAVOK 20/10 Q1016 BLU NOSIG=
METAR EGXJ 081350Z 23010KT 9999 FEW040 BKN250 23/06 Q1017 BLU=
METAR EGXT 081350Z 19009KT 9999 FEW044 BKN250 23/06 Q1017 BLU=
METAR EGXU 081350Z 25011KT 9999 FEW045 BKN250 21/08 Q1016 BLU NOSIG=
METAR EGXW 081350Z 26011KT CAVOK 22/07 Q1017 BLU NOSIG=
METAR EGYD 081350Z 25009KT CAVOK 23/10 Q1017 BLU NOSIG=
METAR EGYM 081350Z 23012KT 9999 FEW040 BKN220 24/12 Q1017 BLU NOSIG=
####018000752####
SAIY31 LIIB 081350
METAR LIEA 081350Z 28004KT 210V320 9999 FEW025 33/22 Q1019=
METAR LIEE 081345Z 15013KT 9999 FEW020 28/20 Q1018 NOSIG=
METAR LIEO 081350Z 05010KT CAVOK 31/21 Q1019=
METAR LIMC 081350Z 23007KT 170V270 9999 FEW025 28/17 Q1021 NOSIG=
METAR LIME 081350Z 26005KT 200V330 9999 SCT050 28/16 Q1021=
METAR LIMF 081350Z 08004KT CAVOK 27/16 Q1021=
METAR LIMJ 081350Z 18005KT 9999 FEW035 29/24 Q1020=
METAR LIML 081350Z 16004KT 100V240 9999 FEW030 29/15 Q1021 NOSIG=
METAR LIRA 081345Z 25007KT 150V330 9999 FEW018 31/17 Q1019=
METAR LIRF 081350Z 23012KT 210V270 CAVOK 29/18 Q1019 NOSIG=
METAR LIRN 081350Z 06006KT CAVOK 29/13 Q1018=
METAR LIRP 081345Z 26007KT CAVOK 31/18 Q1019 NOSIG=
METAR LIRQ 081350Z VRB04KT CAVOK 32/16 Q1019=
####018000080####
SASM20 SMJP 081400
METAR SMJP 081400Z 10010KT 9999 SCT020 31/24 Q1013 NOSIG=
####018000269####
SAZA42 FAJS 081400
METAR FAVV 081400Z AUTO 03007KT //// // ////// 18/01 Q1029=
METAR FAJB 081400Z AUTO 36001KT //// // ////// 16/02 Q1031=
METAR FASI 081400Z AUTO 04005KT //// // ////// 18/M00 Q1031=
METAR FAGC 081400Z AUTO 36007KT //// // ////// 16/01 Q1031=
####018000270####
SAZA42 FAJS 081400
METAR FAVV 081400Z AUTO 03007KT //// // ////// 18/01 Q1029=
METAR FAJB 081400Z AUTO 36001KT //// // ////// 16/02 Q1031=
METAR FASI 081400Z AUTO 04005KT //// // ////// 18/M00 Q1031=
METAR FAGC 081400Z AUTO 36007KT //// // ////// 16/01 Q1031=
####018000103####
SPSA31 KWBC 081357
SPECI
SEGU 081340Z 20005KT 8000S 9999N -DZ BKN040 OVC100 23/19 Q1012
NOSIG=
####018000116####
SAUS44 KSHV 081356
MTRPOE
METAR KPOE 081355Z AUTO 11006KT 10SM FEW010 28/24 A3004 RMK AO2 
SLP172 T02780239
####018000069####
SABZ23 SBGL 081400
METAR SBGL 081400Z 32001KT CAVOK 24/17 Q1018=
####018000108####
SAUS42 KJAX 081357
MTRJAX
METAR KJAX 081356Z 29005KT 10SM CLR 28/20 A3002 RMK AO2 SLP165 
T02780200
####018000108####
SAUS46 KSGX 081356
MTRNJK
METAR KNJK 081356Z 10003KT 10SM CLR 24/18 A2973 RMK AO2 SLP082 
T02440178
####018000120####
SAUS44 KLIX 081356
MTRNBG
METAR KNBG 081355Z 10006KT 10SM SCT015 BKN250 28/24 A3004 RMK AO2 
SLP173 T02830244 $
####018000124####
SAUS46 KSGX 081357 COR
MTRSDM
METAR KSDM 081353Z AUTO 00000KT 8SM OVC010 16/13 A2992 RMK AO2 
SLP128 T01610133 TSNO
####018000118####
SAUS42 TJSJ 081357
MTRSJU
METAR TJSJ 081356Z 08010KT 10SM FEW023 SCT036 31/24 A3002 RMK AO2 
SLP163 T03060244
####018000358####
SAFI34 EFHK 081350
EFET 081350Z AUTO 17007KT 120V220 9999 -RA OVC055 19/07 Q1013=
EFIV 081350Z 16006KT 130V280 CAVOK 22/07 Q1015=
EFKE 081350Z AUTO 21007KT CAVOK 21/11 Q1015=
EFKI 081350Z AUTO 33005KT CAVOK 24/14 Q1015=
EFKS 081350Z AUTO VRB02KT CAVOK 22/09 Q1016=
EFKT 081350Z AUTO 18011KT 150V210 CAVOK 21/08 Q1014=
METAR EFSO 081356Z NIL=
####018000088####
SAPK31 OPPS 081359
METAR OPPS 081355Z NE-12KTS 6000 HZ FEW040 FEW100 37/25 Q1001.8=
####018000635####
SAIY32 LIIB 081350
METAR LIBD 081350Z 01016KT CAVOK 25/11 Q1020=
METAR LIBR 081345Z /////KT CAVOK 26/14 Q1018 NOSIG=
METAR LICC 081350Z 11014KT CAVOK 28/20 Q1017=
METAR LICJ 081350Z 04014KT 9999 FEW018 28/23 Q1018=
METAR LIPB 081350Z 18015KT CAVOK 31/12 Q1018=
METAR LIPE 081350Z 09007KT 050V120 CAVOK 30/14 Q1020=
METAR LIPH 081345Z 14005KT 9999 FEW025 28/21 Q1021=
METAR LIPK 081350Z 08008KT CAVOK 29/12 Q1020=
METAR LIPQ 081350Z 26004KT CAVOK 28/15 Q1021=
METAR LIPR 081345Z 07012KT CAVOK 28/19 Q1021=
METAR LIPX 081345Z 23003KT 9999 FEW040 30/14 Q1020=
METAR LIPZ 081350Z 13007KT 9999 FEW040 26/18 Q1021=
####018000765####
SAIY31 LIIB 081350
METAR LIEA 081350Z 28004KT 210V320 9999 FEW025 33/22 Q1019=
METAR LIEE 081345Z 15013KT 9999 FEW020 28/20 Q1018 NOSIG=
METAR LIEO 081350Z 05010KT CAVOK 31/21 Q1019=
METAR LIMC 081350Z 23007KT 170V270 9999 FEW025 28/17 Q1021 NOSIG=
METAR LIME 081350Z 26005KT 200V330 9999 SCT050 28/16 Q1021=
METAR LIMF 081350Z 08004KT CAVOK 27/16 Q1021=
METAR LIMJ 081350Z 18005KT 9999 FEW035 29/24 Q1020=
METAR LIML 081350Z 16004KT 100V240 9999 FEW030 29/15 Q1021 NOSIG=
METAR LIRA 081345Z 25007KT 150V330 9999 FEW018 31/17 Q1019=
METAR LIRF 081350Z 23012KT 210V270 CAVOK 29/18 Q1019 NOSIG=
METAR LIRN 081350Z 06006KT CAVOK 29/13 Q1018=
METAR LIRP 081345Z 26007KT CAVOK 31/18 Q1019 NOSIG=
METAR LIRQ 081350Z VRB04KT CAVOK 32/16 Q1019=
####018000079####
SAUK34 EGGY 081350 RRA
METAR EGHE 081350Z 20011KT 9999 SCT025 19/14 Q1018=
####018000085####
SAUK33 EGGY 081350 RRA
METAR EGNS 081350Z 19010KT 9999 FEW020 16/12 Q1016 NOSIG=
####018000079####
SASW31 LSSW 081350 RRA
METAR LSZB 081350Z VRB03KT CAVOK 31/12 Q1021 NOSIG=
####018001633####
SAEU KAWN 081400 RRE
METAR EGUL 081355Z AUTO 25009KT 9999 FEW039 24/13 A3005 RMK AO2 SLP177
      T02390129=
METAR EGUN 081355Z AUTO 25008KT 9999 SCT041 SCT140 24/15 A3006 RMK
      AO2 SLP167 T02400149=
METAR ENEV 081350Z 09007KT 9999 BKN055 20/09 Q1009=
METAR ENHK 081350Z 13009KT 9999 FEW034 ASCT051 BKN100 1/08 Q1011=
METAR ENHV 081350Z VRB02KT CAVOK 13/08 Q1012=
METAR ENKB 081350Z 27010KT 9999 FEW045TCU SCT093 16/10 Q1011=
METAR ENLK 081350Z 00000KT CAVOK 17/10 Q1010=
METAR ENMS 081350Z 36003KT 9999 VCSH FEW040CB SCT070 19/10 Q1009=
METAR ENNK 081350Z VRB02KT 9999 BKN075 18/12 Q1009=
METAR ENNM 081350Z VRB02KT 9999 SCT045 19/12 Q1010=
METAR ENSK 081350Z 28012KT 9999 VCSH FEW025CB SCT040 BKN070 13/11 Q1011
      RESHRA=
METAR ENSO 081350Z 18009KT 120V220 9999 FEW030 18/09 Q1014=
METAR ENST 081350Z 01006KT 340V050 CAVOK 19/11 Q1010=
METAR ENVD 081350Z 11011KT 9999 FEW022 13/08 Q1017=
METAR ETAD 081355Z AUTO VRB04KT 9999 CLR 30/10 A3014 RMK AO2 SLP189
      T02970098 $=
METAR ETIC 081356Z AUTO VRB04KT 9999 CLR 28/09 A3017 RMK AO2 SLP206
      T02780088 $=
METAR ETOU 081355Z AUTO 22003KT 9999 CLR 30/11 A3012 RMK AO2 SLP196
      T02990111=
METAR LIEE 081345Z 15013KT 9999 FEW020 28/20 Q1018 NOSIG=
METAR LIMC 081350Z 23007KT 170V270 9999 FEW025 28/17 Q1021 NOSIG=
METAR LIML 081350Z 16004KT 100V240 9999 FEW030 29/15 Q1021 NOSIG=
METAR LIRA 081345Z 25007KT 150V330 9999 FEW018 31/17 Q1019=
METAR LIRF 081350Z 23012KT 210V270 CAVOK 29/18 Q1019 NOSIG=
METAR LSZB 081350Z VRB03KT CAVOK 31/12 Q1021 NOSIG=
METAR LWOH 081400Z 34008KT 9999 BKN050 19/09 Q1019=
####018001457####
SAZZ40 KAWN 081400 RRE
METAR BGTL 081355Z AUTO 26004KT 9999 CLR 05/04 A2982 RMK AO2 SLP102
      T00540042=
METAR KBAB 081355Z AUTO 14005KT 10SM CLR 16/11 A2985 RMK AO2 SLP107
      T01610112 $=
METAR KBIX 081355Z AUTO 03004KT 10SM CLR 28/25 A3005 RMK AO2 SLP177
      T02850245=
METAR KDTS 081353Z AUTO 36004KT 10SM CLR 29/23 A3003 RMK AO2 SLP167
      T02890233=
METAR KLHW 081355Z 29006KT 10SM CLR 30/20 A2999 RMK AO2A SLP158 T02990200=
METAR KLTS 081355Z AUTO 35005KT 8SM R35L/5500VP6000FT R35R/5500FT RA
      OVC006 23/23 A3009 RMK AO2 RAB1322DZB1313E1322 SLP176 P0005
      T02310230 $=
METAR KMCF 081355Z AUTO 06004KT 10SM CLR 27/24 A3001 RMK AO2 SLP165
      T02720237=
METAR KMMT 081355Z 29006KT 10SM CLR 31/21 A2999 RMK AO2A RAB1256E1305
      SLP154 P0000 T03100213=
METAR KMXF 081355Z AUTO 00000KT 10SM CLR 30/24 A3003 RMK AO2 SLP168
      T03000242=
METAR KSKA 081355Z AUTO 07007KT 10SM CLR 18/10 A3008 RMK AO2 SLP173
      T01750096=
METAR KSVN 081355Z 28007KT 10SM SKC 30/21 A2998 RMK SLP155=
METAR KTBN 081355Z 25004KT 10SM SCT005 OVC039 25/21 A3010 RMK AO2A
      SLP175 T0247 $=
METAR KTIK 081355Z AUTO 01003KT 10SM BKN007 24/22 A3007 RMK AO2 SLP172
      T02410225 $=
METAR KVAD 081355Z AUTO 33007KT 9SM CLR 29/20 A3003 RMK AO2 SLP167
      T02910204 $=
METAR PGUA 081355Z AUTO 10009KT 10SM CLR 25/ A2991 RMK AO2 RAB1325E1335
      SLP110 P0001 T0253 402960252 VISNO RWY24L $=
####018001499####
SAUS17 KAWN 081400 RRA
METAR KAFF 081355Z AUTO 00000KT 10SM CLR 14/11 A3038 RMK AO2 SLP205
      T01360106=
METAR KBAB 081355Z AUTO 14005KT 10SM CLR 16/11 A2985 RMK AO2 SLP107
      T01610112 $=
METAR KBIX 081355Z AUTO 03004KT 10SM CLR 28/25 A3005 RMK AO2 SLP177
      T02850245=
METAR KBKF 081355Z 36004KT 3SM BR OVC002 14/14 A3035 RMK SLP238=
METAR KFRI 081355Z AUTO 02009KT 10SM OVC008 22/20 A3014 RMK AO2 CIG
      007V010 SLP195 T02160203 $=
METAR KFSI 081355Z AUTO 01004KT 10SM BKN009 BKN017 OVC085 25/23 A3006
      RMK AO2 CIG 008V012 SLP164 T02510227=
METAR KFTK 081355Z AUTO 00000KT 10SM FEW080 29/23 A3008 RMK AO2 SLP180
      T02890227=
METAR KGRK 081355Z 07007KT 6SM BR BKN008 BKN015 27/27 A3002 RMK SLP146=
METAR KHFF 081355Z AUTO 04009KT 10SM CLR 32/19 A2999 RMK AO2 SLP153
      T03210190 $=
METAR KHST 081355Z AUTO 09008KT 10SM CLR 30/25 A2997 RMK AO2 SLP150
      T03030247=
METAR KLHW 081355Z 29006KT 10SM CLR 30/20 A2999 RMK AO2A SLP158 T02990200=
METAR KLTS 081355Z AUTO 35005KT 8SM R35L/5500VP6000FT R35R/5500FT RA
      OVC006 23/23 A3009 RMK AO2 RAB1322DZB1313E1322 SLP176 P0005
      T02310230 $=
METAR KMCF 081355Z AUTO 06004KT 10SM CLR 27/24 A3001 RMK AO2 SLP165
      T02720237=
METAR KMUI 081355Z AUTO VRB06KT 10SM CLR 32/19 A3003 RMK AO2 SLP166
      T03210192 $=
METAR KMUO 081355Z AUTO 08006KT 10SM CLR 17/01 A3011 RMK AO2 SLP171
      T01690010=
METAR KSVN 081355Z 28007KT 10SM SKC 30/21 A2998 RMK SLP155=
####018000103####
SATU31 LTAA 081320 CCA
METAR LTFJ 081320Z 01014KT 9999 BKN030 22/17 Q1012 TEMPO FM1400 4000
TSRA=
####018000086####
SAUS54 KWBC 081300 RRJ
METAR
KIZA 081349Z AUTO 00000KT 10SM OVC007 13/11 A2993=
####018000083####
SACN89 CWAO 081300 RRF
WCI SA 1300 AUTO8 M M M 155/15/14/1503/M/ 2008 63MM=

####018000083####
SACN92 CWAO 081300 RRF
WJN SA 1300 AUTO8 M M M 168/04/03/2508/M/ 8004 65MM=

####018000083####
SACN90 CWAO 081300 RRF
WFZ SA 1300 AUTO8 M M M 132/08/07/3002/M/ 3001 36MM=

####018000628####
SACN59 CWAO 081300 RRI
PAA SA 1300 AUTO8 M M M M/15/11/2406/M/ M 23MM=
PBA SA 1300 AUTO8 M M M M/11/08/MMMM/M/ M 54MM=
PBE SA 1300 AUTO8 M M M M/11/10/1701/M/ M 17MM=
PBS SA 1300 AUTO8 M M M M/13/11/2804/M/ M 44MM=
PBT SA 1300 AUTO8 M M M M/11/09/2508/M/ M 18MM=
PCA SA 1300 AUTO8 M M M M/15/12/2304/M/ M 11MM=
PEH SA 1300 AUTO8 M M M M/14/12/2002/M/ M 55MM=
PGE SA 1300 AUTO8 M M M M/14/12/2403/M/ M 76MM=
PIR SA 1300 AUTO8 M M M M/13/11/2301/M/ M 75MM=
PQL SA 1300 AUTO8 M M M M/12/10/2205/M/ M 03MM=
PRA SA 1300 AUTO8 M M M M/13/11/MMMM/M/ M 19MM=
PXL SA 1300 AUTO8 M M M M/11/10/1702/M/ M 44MM=

####018000139####
SACN96 CWAO 081300 RRG
WYW SA 1300 AUTO8 M M M 137/21/15/2506/M/ 8005 55MM=
XEL SA 1300 AUTO8 M M M 135/16/12/3107/M/M 1005 56MM=

####018000104####
SACN93 CWAO 081300 RRF
WND SA 1300 AUTO8 M M M 153/05/04/3013/M/M PK WND 3120 1204Z 0002
06MM=

####018000653####
SACN60 CWAO 081300 RRE
PET SA 1300 AUTO8 M M M M/12/10/MMMM/M/ M 74MM=
PFM SA 1300 AUTO8 M M M M/10/09/MMMM/M/ M 45MM=
PHU SA 1300 AUTO8 M M M M/14/12/MMMM/M/ M 17MM=
PIA SA 1300 AUTO8 M M M M/14/11/MMMM/M/0008 PCPN 0.8MM PAST HR M
00MM=
PKA SA 1300 AUTO8 M M M M/14/11/MMMM/M/ M 11MM=
PKI SA 1300 AUTO8 M M M M/14/12/MMMM/M/ M 76MM=
PLA SA 1300 AUTO8 M M M M/10/09/MMMM/M/ M 66MM=
PMA SA 1300 AUTO8 M M M M/15/11/MMMM/M/ M 02MM=
PMB SA 1300 AUTO8 M M M M/13/09/MMMM/M/ M 03MM=
PML SA 1300 AUTO8 M M M M/12/10/MMMM/M/ M 00MM=
PPL SA 1300 AUTO8 M M M M/12/10/MMMM/M/ M 38MM=
PRH SA 1300 AUTO8 M M M M/12/11/MMMM/M/ M 92MM=

####018000152####
SAUS45 KABQ 081357
MTRABQ
METAR KABQ 081356Z 10013G20KT 10SM FEW050 SCT100 BKN200 20/09 A3030 
RMK AO2 SLP181 MTN TOPS OBSC NE AND SE T02000094
####018000127####
SAUS43 KLMK 081357
MTRSDF
METAR KSDF 081356Z 18003KT 6SM HZ FEW065 SCT100 SCT150 30/21 A3007 
RMK AO2 SLP175 T03000206
####018000107####
SAUS42 KCHS 081357
MTRCHS
METAR KCHS 081356Z 33007KT 8SM CLR 30/21 A2996 RMK AO2 SLP144 
T03000206
####018000072####
SALY31 HLLM 081400
METAR HLLM 081350Z 35010KT 7000 SKC 28/21 Q1019=
####018001707####
SAXN17 KAWN 081400 RRB
METAR MMCN 081353Z 00000KT 10SM BKN080 BKN200 27/19 A2974 RMK 8/055
      RTS=
METAR MMDO 081345Z 00000KT 12SM OVC020 18/16 A3015 RMK 8/4// BINOVC
      LWR ST=
METAR MMHO 081346Z 00000KT 10SM BKN080 29/12 A2982 RMK 8/050 HZY=
METAR MMLM 081345Z 00000KT 10SM SKC 26/20 A2980 RMK ISOL AC HZY=
METAR MMLT 081355Z 00000KT 8SM SKC 27/18 A2975=
METAR MMMZ 081346Z 02003KT 10SM FEW012 BKN030 OVC070 27/22 A2978 RMK
      8/47/ HZY=
METAR MMTJ 081345Z 00000KT 3SM BR OVC008 16/14 A2995 RMK 8/6//=
METAR PAED 081355Z AUTO 00000KT 10SM FEW060 BKN070 OVC085 12/11 A2999
      RMK AO2 RAE1256B1316E1325DZB1256E1258B1325E1352 SLP157 P0000
      T01210106 $=
METAR PAEH 081355Z AUTO 13003KT 10SM OVC060 09/M28 A2997 RMK AO1 T00941283=
METAR PAIM 081355Z 00000KT 10SM CLR120 09/06 A3008 RMK SLPNO BWC LOW=
PASV SA 1355 AWOS CLR BLO 120 10 50/44/0103/994=
METAR PGUA 081355Z AUTO 10009KT 10SM CLR 25/ A2991 RMK AO2 RAB1325E1335
      SLP110 P0001 T0253 402960252 VISNO RWY24L $=
METAR PHHI 081355Z AUTO 06005KT 10SM BKN049 20/18 A3002 RMK AO2 RAB1259E1309DZE1312
      SLP156 P0000 T02040184=
METAR PTYA 081352Z VRB05KT 12SM SCT016CB BKN130 OVC300 27/24 A2990
      RMK LTGIC SW-W CB VC SE-SW-NW SLP123 T02740238=
METAR RJTY 081355Z AUTO 15004KT 9999 SCT018 24/22 A2990 RMK AO2 SLP117
      T02380217 $=
METAR RKSO 081355Z AUTO 07003KT 8000 R27/1400VP1500 -RA BR CLR 22/22
      A2980 RMK AO2 RAB1254DZE1254B1310E1312B1329E1341 SLP093
      P0001 T02220222 $=
METAR RODN 081355Z AUTO 18012KT 9999 SCT017 BKN024 OVC200 29/26 A2987
      RMK AO2 SCT V BKN SLP114 T02860263=
METAR SVMI 081400Z 00000KT 9999 FEW016 BKN300 27/24 Q1015 NOSIG=
####018000085####
SAMZ40 FQMA 081400
METAR FQQL 081400Z 14009KT 9999 BKN020 SCT030 25/18 Q1023=

####018002930####
SAUS20 KNKA 081357
METAR KSDF 081356Z 18003KT 6SM HZ FEW065 SCT100 SCT150 30/21 A3007 
    RMK AO2 SLP175 T03000206=
METAR K04W 081354Z AUTO 26007KT 10SM CLR 23/17 A3009 RMK AO2 
     T02250172=
METAR K1M4 081356Z AUTO 04005KT 10SM CLR 29/22 A3013 RMK AO2 
    T02940222 SLP197=
METAR K1P1 081355Z AUTO 06004KT 10SM OVC020 27/22 A3008 RMK AO2 
     T02730221=
METAR K21D 081358Z AUTO 29005KT 10SM CLR 22/16 A3011 RMK AO2=
METAR KAND 081356Z AUTO 02006KT 10SM 31/20 A3003 RMK AO2 SLP157 
    T03110200 $=
METAR KART 081356Z AUTO 25005KT 8SM CLR 28/22 A3003 RMK AO2 SLP162 
    T02830222=
METAR KBED 081356Z 18007KT 7SM SCT024 28/20 A3007 RMK AO2 SLP194 
    T02780200=
METAR KBJI 081354Z AUTO 27007KT 10SM CLR 20/13 A3007 RMK AO2=
METAR KBUU 081354Z AUTO 28006KT 10SM SCT027 SCT034 22/19 A3003 
     RMK AO2=
METAR KBZN 081356Z 00000KT 10SM CLR 13/06 A3030 RMK AO2 SLP228 
    T01330061=
METAR KC29 081355Z AUTO 30006KT 5SM OVC004 23/21 A3005 RMK AO2 
     P0001 T02300207=
METAR KCEC 081356Z AUTO 00000KT 3SM BR OVC001 10/09 A2998 RMK AO2 
    SLP153 T01000094=
METAR KCMR 081355Z AUTO 16006KT 10SM CLR 18/03 A3027 RMK AO1 =
METAR KD39 081354Z AUTO 27008KT 10SM CLR 22/18 A3012 RMK AO2 
     T02210178=
METAR KDIK 081356Z AUTO 23003KT 10SM CLR 18/13 A3017 RMK AO2 SLP205 
    T01830128=
METAR KDLL 081355Z AUTO 30004KT 10SM OVC011 22/19 A3005 RMK AO2=
METAR KDUG 081356Z AUTO 12013G18KT 10SM CLR 26/13 A3008 RMK AO2 
    SLP104 T02560128 $=
METAR KDUJ 081356Z AUTO 00000KT 9SM CLR 27/19 A3012 RMK AO2 SLP184 
    T02670189=
METAR KE80 081355Z AUTO 00000KT 10SM CLR 20/12 A3028 RMK AO2 
     T01960120=
METAR KEDC 081355Z AUTO 07007KT 25/25 A3000 RMK AO2 =
METAR KEED 081356Z AUTO 00000KT 10SM CLR 28/M01 A2980 RMK AO2 SLP053 
    T02781011 TSNO=
METAR KEIK 081355Z AUTO 34003KT 10SM BKN010 OVC017 13/12 A3034 RMK 
     AO2=
METAR KEKO 081356Z AUTO 00000KT 10SM CLR 13/M02 A3015 RMK AO2 SLP156 
    T01331022=
METAR KFBG 081355Z AUTO 03005KT 10SM CLR 32/22 A2997 RMK AO2 SLP147
      T03160217 $=
METAR KFMH 081355Z AUTO 16008KT 10SM BKN015 BKN020 25/21 A3011 RMK 
     AO2 =
METAR KGON 081356Z 11008KT 5SM HZ FEW003 SCT022 25/21 A3007 RMK AO2 
    SLP183 T02500211=
METAR KGRD 081356Z AUTO 00000KT 10SM CLR 30/21 A3004 RMK AO2 SLP162 
    T03000211=
METAR KGTB 081355Z AUTO VRB05KT 10SM CLR 30/22 A3004 RMK AO2 SLP170
      T03020222=
METAR KGUS 081355Z AUTO 25006KT 10SM CLR 26/22 A3004 RMK AO2 RAE1300
      SLP167 P0000 T02610221 $=
METAR KHND 081356Z 19007KT 10SM CLR 26/M03 A2992 RMK AO2 T02611027 
    SLP076=
METAR KHVS 081355Z AUTO 00000KT 10SM CLR 31/21 A2999 RMK AO2=
METAR KHYA 081356Z 15007KT 10SM CLR 24/21 A3010 RMK AO2 SLP194 
    T02440206=
METAR KIFP 081355Z AUTO 00000KT 10SM CLR 29/00 A2979 RMK AO2 =
METAR KIGX 081356Z AUTO 02004KT 6SM HZ CLR 30/20 A3001 RMK AO2 
    SLP154 T03000200=
####018000608####
SASA KAWN 081400
METAR SBBR 081400Z 07010KT 9999 FEW023 22/08 Q1024=
METAR SBFI 081400Z 16007KT 9999 FEW020 BKN100 19/15 Q1017=
METAR SBFZ 081400Z 11011KT 9999 FEW020 SCT090 30/20 Q1014=
METAR SGAS 081400Z 12006KT 9000 BKN010 OVC015 18/15 Q1016=
METAR SGES 081400Z 15006KT 9999 FEW030 BKN080 20/17 Q1016=
METAR SPIM 081400Z 19003KT 7000 FEW011 OVC022 17/13 Q1015 NOSIG RMK
      BIRD HAZARD RWY15 PP000=
METAR SVBC 081400Z OOOOOKT 9999 SCT010 31/22 Q1014=
METAR SVMG 081400Z 07012KT 9999 SCT010 SCT080 30/25 Q1013 NOSIG=
METAR SVMI 081400Z 00000KT 9999 FEW016 BKN300 27/24 Q1015 NOSIG=
####018001423####
SAXX60 KAWN 081400
METAR NSTU 081350Z 10012KT 10SM SCT016 BKN040 28/26 A2987 RMK SHRAB24E48
      SLP115 T02770262=
METAR PGSN 081354Z 11009KT 10SM FEW023 28/24 A2992 RMK AO2 SLP128 T02780244
      403720267=
METAR PGUA 081355Z AUTO 10009KT 10SM CLR 25/ A2991 RMK AO2 RAB1325E1335
      SLP110 P0001 T0253 402960252 VISNO RWY24L $=
METAR PGUM 081354Z 11008KT 10SM FEW020 28/24 A2990 RMK AO2 SLP117 T02780244
      403220261=
METAR PHHI 081355Z AUTO 06005KT 10SM BKN049 20/18 A3002 RMK AO2 RAB1259E1309DZE1312
      SLP156 P0000 T02040184=
METAR PHJR 081353Z VRB03KT 10SM FEW060 22/17 A3002 RMK AO2 SLP170 T02220172=
METAR PHKO 081353Z AUTO 13005KT 10SM OVC060 23/17 A2995 RMK AO2 SLP143
      T02330172 TSNO=
METAR PHMK 081354Z AUTO 03008KT 10SM FEW060 22/17 A3002 RMK AO2 SLP167
      T02170172 TSNO=
METAR PHNL 081353Z 05007KT 10SM SCT060 24/18 A3001 RMK AO2 SLP160 T02390178=
METAR PHOG 081354Z AUTO 05006KT 10SM SCT065 23/17 A3000 RMK AO2 SLP164
      T02280167 TSNO=
METAR PHTO 081353Z 24006KT 10SM FEW044 OVC055 21/18 A3002 RMK AO2 RAE08
      SLP163 P0002 T02060183=
METAR PTKK 081350Z 05006KT 15SM FEW014 BKN120 OVC280 26/23 A2985 RMK
      SLP111 T02610228=
METAR RJTY 081355Z AUTO 15004KT 9999 SCT018 24/22 A2990 RMK AO2 SLP117
      T02380217 $=
METAR RODN 081355Z AUTO 18012KT 9999 SCT017 BKN024 OVC200 29/26 A2987
      RMK AO2 SCT V BKN SLP114 T02860263=
####018000127####
SAAK17 KAWN 081400 RRB
PASV SA 1355 AWOS CLR BLO 120 10 50/44/0103/994=
PATL SA 1355 AWOS CLR BLO 120 10 53/43/0603/000=
####018000094####
SAXX70 KAWN 081300 RRX
METAR KQFW 081340Z AUTO 18003KT 7SM -SHRA CLR 21/19 A2993 RMK A02=
####018000483####
SAUS90 KWBC 081400 CCA
METAR KSDB 081352Z AUTO 00000KT 10SM CLR 22/M02 A3003 RMK AO2
     SLP111 T02221022 TSNO $=
METAR KSDM 081353Z AUTO 00000KT 8SM OVC010 16/13 A2992 RMK AO2
     SLP128 T01610133 TSNO=
METAR KLAX 081353Z 27006KT 7SM BCFG FEW009 OVC011 16/13 A2992 RMK
     AO2 SLP130 T01610128=
METAR KTRI 081353Z 00000KT 5SM HZ CLR 27/19 A3012 RMK AO2 SLP178
     T02720194=
METAR KTYS 081353Z 08004KT 6SM HZ CLR 29/20 A3008 RMK AO2 SLP173
     T02890200=
####018003035####
SAUS90 KWBC 081400
METAR PATC 081355Z AUTO 36004KT 10SM CLR 09/06 A3013 RMK AO1
     T00890062=
METAR PAEH 081355Z AUTO 13003KT 10SM OVC060 09/M28 A2997 RMK AO1
     T00941283=
METAR KDMH 081354Z AUTO 30/22 A3003 RMK AO2 SLP168 T03000222 PWINO
     TSNO=
METAR KMTP 081354Z AUTO 07006KT 23/20 A3009 RMK AO2 SLP190
     T02280200 PWINO TSNO=
METAR KBKB 081354Z AUTO VRB04KT 10SM CLR 28/24 A3002 RMK AO2
     SLP191 T02780239=
METAR KNAK 081354Z AUTO 14009KT 3SM HZ FEW015 27/23 A3003 RMK AO2
     SLP169 T02720233 TSNO $=
METAR KGSO 081354Z 02007KT 5SM HZ CLR 31/19 A3004 RMK AO2 SLP157
     T03110189=
METAR KACY 081354Z 12004KT 4SM -RA BR SCT022 BKN060 24/22 A3005
     RMK AO2 SLP176 P0003 T02390222=
METAR KOQT 081353Z AUTO 00000KT 6SM HZ CLR 29/21 A3011 RMK AO2
     SLP174 T02890211 TSNO=
METAR KRFD 081354Z 32006KT 10SM FEW006 SCT013 BKN150 26/21 A3005
     RMK AO2 SLP172 T02560206=
METAR KANJ 081355Z AUTO 27006KT 9SM BKN004 BKN012 19/18 A2998 RMK
     AO2 RAE11 CIG 003V008 SLP146 P0000 T01940183=
METAR KCAO 081355Z AUTO 36008KT 10SM FEW014 17/13 A3031 RMK AO2
     SLP209 T01720133 TSNO=
METAR KPHP 081355Z AUTO VRB06KT 10SM CLR 18/12 A3023 RMK AO2
     SLP221 T01830117 TSNO=
METAR KSHV 081356Z 14006KT 10SM BKN110 OVC280 27/24 A3006 RMK AO2
     SLP175 T02670239=
METAR KHON 081355Z AUTO 31004KT 10SM CLR 20/15 A3016 RMK AO2
     SLP210 T02000150=
METAR KINL 081355Z AUTO 24006KT 10SM CLR 19/14 A3002 RMK AO2
     SLP164 T01890144=
METAR KMBG 081355Z AUTO 26004KT 10SM CLR 19/11 A3016 RMK AO2
     SLP204 T01940106 TSNO=
METAR TJSJ 081356Z 08010KT 10SM FEW023 SCT036 31/24 A3002 RMK AO2
     SLP163 T03060244=
METAR KJAX 081356Z 29005KT 10SM CLR 28/20 A3002 RMK AO2 SLP165
     T02780200=
METAR KPOE 081355Z AUTO 11006KT 10SM FEW010 28/24 A3004 RMK AO2
     SLP172 T02780239=
METAR KABQ 081356Z 10013G20KT 10SM FEW050 SCT100 BKN200 20/09
     A3030 RMK AO2 SLP181 MTN TOPS OBSC NE AND SE T02000094=
METAR KCHS 081356Z 33007KT 8SM CLR 30/21 A2996 RMK AO2 SLP144
     T03000206=
METAR KSDF 081356Z 18003KT 6SM HZ FEW065 SCT100 SCT150 30/21 A3007
     RMK AO2 SLP175 T03000206=
METAR KGNR 081356Z AUTO VRB06KT 22/21 A3009 RMK AO1 SLP183
     T02170206=
METAR KMEH 081356Z AUTO 00000KT 10SM CLR 09/06 A3013 RMK AO2
     SLP181 T00940061 TSNO=
METAR KP60 081356Z AUTO 00000KT 08/01 A3045 RMK AO2 SLP246
     T00830006 PWINO TSNO=
METAR KCDJ 081356Z AUTO 06004KT 24/22 A3011 RMK AO2 SLP184
     T02390217 PWINO TSNO=
METAR KGNA 081356Z AUTO 00000KT 19/16 A3000 RMK AO2 SLP153
     T01890161 PWINO TSNO=
METAR KCAE 081356Z VRB04KT 10SM CLR 32/21 A2999 RMK AO2 SLP152
     T03170206=
METAR KROC 081354Z 24005KT 9SM CLR 29/21 A3004 RMK AO2 SLP169
     T02890211=
METAR KNBT 081356Z AUTO 05011KT 7SM CLR 29/ A2995 RMK AO2 SLP146
     T0289 TSNO $=
METAR PACZ 081355Z AUTO 04010KT 10SM 10/08 A3003 RMK AO1
     T01000084=
METAR PATL 081355Z AUTO 06003KT 10SM CLR 12/06 A3000 RMK AO1
     T01170062=
####018000126####
SAUS46 KLOX 081357 COR
MTRLAX
METAR KLAX 081353Z 27006KT 7SM BCFG FEW009 OVC011 16/13 A2992 RMK 
AO2 SLP130 T01610128
####018000107####
SACA01 KMSC 081357
METAR MYNN 081400Z 21003KT 9999 VCSH SCT014CB SCT015TCU BKN220 30/25
      A2997=
####018002907####
SAUS20 KNKA 081357
METAR KINW 081356Z AUTO 10003KT 10SM FEW120 22/02 A3015 RMK AO2 
    SLP125 T02170017 $=
METAR KJMS 081356Z AUTO 27007KT 10SM CLR 19/14 A3011 RMK AO2 SLP193 
    T01940139=
METAR KLAS 081356Z 20007KT 10SM SCT150 27/M02 A2986 RMK AO2 SLP079 
    T02721017=
METAR KLRF 081355Z AUTO VRB05KT 10SM CLR 27/23 A3009 RMK AO2 SLP188
      T02710233=
METAR KM19 081356Z AUTO VRB05KT 10SM CLR 28/23 A3009 RMK AO2 
    T02830233 SLP187=
METAR KMAN 081355Z AUTO 14003KT 10SM CLR 15/03 A3009 RMK AO1 =
METAR KMOB 081356Z 36003KT 10SM SCT025 29/24 A3006 RMK AO2 SLP176 
    T02890239=
METAR KMQY 081356Z 04004KT 10SM CLR 32/22 A3010 RMK AO2 T03160222 
    SLP181=
METAR KMRH 081356Z AUTO 05009KT 10SM FEW023 BKN120 30/23 A2994 RMK 
    AO2 SLP137 T03000233 TSNO=
METAR KNQA 081355Z COR 32005KT 10SM FEW150 31/24 A3009 RMK=
METAR KNQX 081353Z 03005KT 10SM SCT022 BKN100 BKN200 30/25 A2996 RMK
      AO2 SLP145 T2 SET T03000250 $=
METAR KNRB 081352Z VRB03KT 10SM CLR 28/19 A3002 RMK AO2 SLP165 T02780194=
METAR KOFK 081356Z AUTO 33003KT 10SM CLR 21/15 A3021 RMK AO2 SLP222 
    T02110150=
METAR KOZR 081355Z 00000KT 10SM CLR 29/26 A3004 RMK AO2A SLP169 T02910258=
METAR KPVF 081355Z AUTO 07005KT 10SM CLR 22/10 A2994 RMK AO1 =
METAR KRDM 081356Z 16003KT 10SM CLR 14/03 A3009 RMK AO2 SLP163 
    T01440033 $=
METAR KSBP 081356Z 27003KT 5SM BR OVC007 13/12 A2994 RMK AO2 SLP138 
    T01280117=
METAR KSFO 081356Z 29009KT 10SM OVC008 13/10 A2995 RMK AO2 SLP140 
    T01330100=
METAR KSGH 081356Z 00000KT 5SM HZ CLR 29/22 A3010 RMK AO2 T02880222 
    SLP183=
METAR KSLE 081356Z 14004KT 10SM CLR 15/12 A2992 RMK AO2 SLP132 
    T01500117=
METAR KSRC 081356Z AUTO 21006KT 10SM CLR 27/23 A3010 RMK AO2 TSNO 
    T02720233 SLP193=
METAR KSRR 081355Z AUTO 00000KT 10SM OVC006 14/13 A3038 RMK AO2 =
METAR KSSC 081355Z AUTO 31007KT 10SM CLR 30/21 A2997 RMK AO2 SLP146
      T03020213 $=
METAR KTME 081355Z AUTO 06008KT 10SM FEW012 FEW041 SCT080 25/25 
     A2998 RMK AO1 =
METAR KTPH 081356Z AUTO 01009KT 10SM CLR 17/M03 A3013 RMK AO2 SLP125 
    T01671033=
METAR KTTS 081355Z VRB04KT 10SM SCT029 SCT290 28/22 A3001 RMK SLP162
      3CU /3/ 1CI /4/=
METAR KUKI 081356Z AUTO 00000KT 10SM CLR 12/10 A2991 RMK AO2 SLP123 
    T01170100=
METAR KUOX 081355Z AUTO 00000KT 10SM CLR 28/22 A3010 RMK AO2 =
METAR KVAD 081355Z AUTO 33007KT 9SM CLR 29/20 A3003 RMK AO2 SLP167
      T02910204 $=
METAR KWJF 081356Z 00000KT 10SM CLR 17/04 A2992 RMK AO2 SLP114 
    T01670039=
METAR KWRB 081355Z 36006KT 10SM CLR 30/22 A3003 RMK AO2A SLP166 T02970219
      $=
METAR KY51 081355Z AUTO 30007KT 10SM BKN011 23/20 A3009 RMK AO1 
     T02250195=
METAR PAAK 081356Z AUTO 07025G33KT 10SM FEW015 BKN027 OVC085 07/03 
    A2949 RMK AO1 PNO=
METAR PAHP 081356Z AUTO 33006KT 10SM CLR 09/07 A3003 RMK AO1 PNO 
    TSNO=
####018001563####
SAXN17 KAWN 081300 RRM
METAR MMAA 081341Z 00000KT 8SM SCT010 SCT080 OVC100 27/22 A2980 RMK
      8/27/ BINOVC=
METAR MMCL 081340Z 16004KT 8SM SCT020 OVC080 27/23 A2978 RMK 8/47/
      HZY=
METAR MMCS 081340Z 09008KT 10SM FEW030 SCT080 23/17 A3013 RMK 8/570
      HZY=
METAR MMCZ 081342Z 10008KT 6SM SCT015 BKN100 BKN200 27/24 A2990 RMK
      8/569 HZY=
METAR MMLP 081342Z 18010KT 10SM SKC 19/15 A2980 RMK ISOL AC=
METAR MMMA 081344Z 33007KT 5SM FEW008 SCT015 BKN065 BKN200 26/25 A2980
      RMK 8/859 HZ DZ INTMNT VRB COND=
METAR MMMV 081340Z 25005KT 8SM HZ BKN050 23/18 A2998 RMK 8/200=
METAR MMMY 081341Z 31009KT 15SM FEW030 SCT070 26/22 A2989 RMK 8/570=
METAR MMNL 081343Z 02006KT 6SM SCT007 SCT020 BKN100 27/24 A2989 RMK
      8/570 DZ INTMT=
METAR MMPB 081343Z 17006KT 3SM -RA BR FEW003 BKN006 OVC100 14/14 A3021
      RMK 6//// 8/72/ VRBL CONDS=
METAR MMPG 081340Z 03005KT 10SM SCT020 SCT200 28/23 A3000 RMK 8/102=
METAR MMPS 081340Z 00000KT 10SM BKN015 OVC280 26/21 A2996 RMK 8/606
      HZY=
METAR MMSD 081343Z 03004KT 12SM SKC 23/15 A2979=
METAR MMTM 081342Z 24006KT 7SM SCT010 BKN035 OVC200 26/23 A2982 RMK
      8/807 AC/BINOVC DZ OCNL=
METAR MMUN 081342Z 13008KT 6SM BKN016TCU BKN090 OVC280 29/25 A2991
      RMK 8/277 HZ LWR SC BINOVC=
METAR MMZC 081341Z 09009KT 8SM BKN030 17/12 A3021 RMK 8/700=
METAR MMZH 081340Z 00000KT 7SM SCT020 BKN100 BKN250 25/22 A2980 RMK
      8/232=
METAR TXKF 081255Z 17020KT 6000 -SHRA FEW009 SCT015TCU BKN050 BKN300
      23/22 Q1020 RMK TCU N / DSNT SW /=
####018001552####
SAZZ40 KAWN 081400 RRF
METAR EFKI 081350Z AUTO 33005KT CAVOK 24/14 Q1015=
METAR ETAR 081355Z AUTO 24009KT 9999 CLR 31/15 A3011 RMK AO2 SLP189
      T03100151 $=
METAR KDLF 081355Z AUTO 04004KT 10SM FEW012 26/23 A2999 RMK AO2 SLP140
      T02570225 $=
METAR KEGI 081355Z VRB02KT 10SM CLR 28/23 A3004 RMK AO2A SLP168 T02830233
      $=
METAR KLSF 081355Z 00000KT 10SM SKC 29/22 A3003 RMK AO2A DZE1317 SLP169
      P0000 T02880219 $=
METAR KLSV 081355Z AUTO 00000KT 10SM FEW150 24/M02 A2987 RMK AO2 SLP095
      T02421024 PWINO=
METAR KLUF 081355Z 05003KT 10SM SCT170 29/07 A2981 RMK AO2A SLP062
      T02900070 $=
METAR KMIB 081355Z AUTO 29004KT 10SM CLR 18/13 A3012 RMK AO2 SLP198
      T01800132 $=
METAR KRIV 081355Z 00000KT 1 1/2SM BR OVC003 13/13 A2993 RMK AO2A SLP133
      T01340127=
METAR KVOK 081355Z 33006KT 10SM BKN010 22/22 A3006 RMK AO2A SLP174=
METAR KXMR 081355Z AUTO 03008KT 10SM FEW029 28/21 A3000 RMK AO2 DZB1301E1311
      SLP160 P0000 T02820210=
METAR LEMO 081400Z VRB04KT CAVOK 33/18 Q1015 NOSIG=
METAR MHSC 081355Z AUTO VRB03KT 9999 FEW150 SCT210 23/19 A2997 RMK
      AO2 SLP113 T02320193 $=
METAR MZBZ 081400Z 18008KT 9999 FEW011 SCT080 BKN220 27/24 A2986 Q1011
      JP-S/SW NOSIG=
METAR NFFN 081400Z 12006KT 40KM FEW030 20/18 Q1013 NOSIG RMK RR NIL=
METAR PAED 081355Z AUTO 00000KT 10SM FEW060 BKN070 OVC085 12/11 A2999
      RMK AO2 RAE1256B1316E1325DZB1256E1258B1325E1352 SLP157 P0000
      T01210106 $=
METAR PWAK 081356Z 08012KT 8SM FEW025 27/25 A2996 RMK AO2A=
####018001840####
SAUK KAWN 081400 RRA
METAR COR EGCC 081350Z 20009KT 160V230 9999 SCT038 21/10 Q1017 NOSIG=
METAR EGDR 081350Z 20009KT 9999 FEW022 BKN100 19/14 Q1019 BLU NOSIG=
METAR EGHE 081350Z 20011KT 9999 SCT025 19/14 Q1018=
METAR EGKA 081350Z 21011KT 9999 4000W VCFG FEW006 20/17 Q1019=
METAR EGKB 081350Z 22008KT 170V240 9999 BKN035 25/13 Q1019=
METAR EGLF 081350Z 25007KT 200V290 9999 FEW028 SCT034 23/15 Q1018=
METAR EGMC 081350Z 24006KT 190V270 9999 FEW040 26/15 Q1018=
METAR EGNS 081350Z 19010KT 9999 FEW020 16/12 Q1016 NOSIG=
METAR EGOM 081350Z 25014KT 9999 SCT030 SCT035 16/09 Q1015 BLU=
METAR EGOS 081350Z 24012KT 9999 SCT045 SCT120 BKN200 21/09 Q1017 BLU
      NOSIG=
METAR EGOV 081350Z 19016KT 9999 -RA FEW018 BKN080 17/13 Q1017 BLU NOSIG=
METAR EGQA 081350Z 20015KT 9999 VCSH FEW020 SCT030 16/// Q1010 BLU=
METAR EGQS 081350Z 24020KT 9999 FEW030 BKN060 17/07 Q1010 BLU TEMPO
      7000 -SHRA WHT=
METAR EGTC 081350Z 24009KT 190V280 9999 FEW045 23/11 Q1018=
METAR EGUL 081355Z AUTO 25009KT 9999 FEW039 24/13 A3005 RMK AO2 SLP177
      T02390129=
METAR EGUN 081355Z AUTO 25008KT 9999 SCT041 SCT140 24/15 A3006 RMK
      AO2 SLP167 T02400149=
METAR EGVN 081350Z 24005KT 9999 FEW045 BKN220 23/08 Q1018 BLU NOSIG=
METAR EGVO 081350Z 24009KT 9999 SCT030 BKN250 23/16 Q1018 BLU NOSIG=
METAR EGWU 081350Z 24008KT 9999 FEW037 BKN250 24/14 Q1018 BLU NOSIG=
METAR EGXC 081350Z 26009KT CAVOK 24/08 Q1017 BLU NOSIG=
METAR EGXE 081350Z 25015KT CAVOK 20/10 Q1016 BLU NOSIG=
METAR EGXJ 081350Z 23010KT 9999 FEW040 BKN250 23/06 Q1017 BLU=
METAR EGXT 081350Z 19009KT 9999 FEW044 BKN250 23/06 Q1017 BLU=
METAR EGXU 081350Z 25011KT 9999 FEW045 BKN250 21/08 Q1016 BLU NOSIG=
METAR EGXW 081350Z 26011KT CAVOK 22/07 Q1017 BLU NOSIG=
METAR EGYM 081350Z 23012KT 9999 FEW040 BKN220 24/12 Q1017 BLU NOSIG=
####018001661####
SAEU KAWN 081400 RRF
METAR EGDR 081350Z 20009KT 9999 FEW022 BKN100 19/14 Q1019 BLU NOSIG=
METAR EGHE 081350Z 20011KT 9999 SCT025 19/14 Q1018=
METAR EGNS 081350Z 19010KT 9999 FEW020 16/12 Q1016 NOSIG=
METAR EGOV 081350Z 19016KT 9999 -RA FEW018 BKN080 17/13 Q1017 BLU NOSIG=
METAR EGQA 081350Z 20015KT 9999 VCSH FEW020 SCT030 16/// Q1010 BLU=
METAR EGXU 081350Z 25011KT 9999 FEW045 BKN250 21/08 Q1016 BLU NOSIG=
METAR ENBS 081350Z 19011KT 9999 FEW030 16/08 Q1016=
METAR ETAR 081355Z AUTO 24009KT 9999 CLR 31/15 A3011 RMK AO2 SLP189
      T03100151 $=
METAR LEMO 081400Z VRB04KT CAVOK 33/18 Q1015 NOSIG=
METAR LIBD 081350Z 01016KT CAVOK 25/11 Q1020=
METAR LIBR 081345Z /////KT CAVOK 26/14 Q1018 NOSIG=
METAR LICC 081350Z 11014KT CAVOK 28/20 Q1017=
METAR LICJ 081350Z 04014KT 9999 FEW018 28/23 Q1018=
METAR LIEA 081350Z 28004KT 210V320 9999 FEW025 33/22 Q1019=
METAR LIEO 081350Z 05010KT CAVOK 31/21 Q1019=
METAR LIME 081350Z 26005KT 200V330 9999 SCT050 28/16 Q1021=
METAR LIMF 081350Z 08004KT CAVOK 27/16 Q1021=
METAR LIMJ 081350Z 18005KT 9999 FEW035 29/24 Q1020=
METAR LIPB 081350Z 18015KT CAVOK 31/12 Q1018=
METAR LIPE 081350Z 09007KT 050V120 CAVOK 30/14 Q1020=
METAR LIPH 081345Z 14005KT 9999 FEW025 28/21 Q1021=
METAR LIPK 081350Z 08008KT CAVOK 29/12 Q1020=
METAR LIPQ 081350Z 26004KT CAVOK 28/15 Q1021=
METAR LIPR 081345Z 07012KT CAVOK 28/19 Q1021=
METAR LIPX 081345Z 23003KT 9999 FEW040 30/14 Q1020=
METAR LIPZ 081350Z 13007KT 9999 FEW040 26/18 Q1021=
METAR LIRN 081350Z 06006KT CAVOK 29/13 Q1018=
METAR LIRP 081345Z 26007KT CAVOK 31/18 Q1019 NOSIG=
METAR LIRQ 081350Z VRB04KT CAVOK 32/16 Q1019=
####018001584####
SAXN17 KAWN 081400 RRC
METAR MMCB 081346Z 00000KT 3/4SM BR BKN004 OVC100 19/16 A3005 RMK 60025
      8/77/ -RA B25 E35=
METAR MMEP 081352Z 00000KT 3SM BR OVC003 22/21 A3002 RMK 8/7//=
METAR MMGL 081349Z 00000KT 10SM FEW010 BKN080 OVC300 19/17 A3006 RMK
      8/577=
METAR MMIA 081345Z 00000KT 5SM DZ SCT020 OVC100 22/20 A2993 RMK 8/76/=
METAR MMLO 081351Z 06005KT 8SM BKN025 OVC070 18/18 A3014 RMK 8/57/
      LWR SC=
METAR MMMM 081346Z 00000KT 4SM FEW010 BKN015 OVC070 17/15 A3011 RMK
      8/57/ HZY ST LWR HILL=
METAR MMMX 081345Z 00000KT 4SM SCT006 BKN010 OVC020 15/14 A3022 TEMPO
      4 SM -RA HZ SCT008 OVC020 RMK 8/7// HZY OCNL DROPS=
METAR MMOX 081348Z 03002KT 4SM FEW005 SCT015 BKN080 OVC120 17/15 A3009
      RMK 8/77/ LWR VIS/ST S=
METAR MMPN 081345Z 00000KT 2 1/2SM BR SCT003 BKN010 OVC030 17/16 A3006
      RMK 8/7// LOW ST 1-2 QUAD=
METAR MMPR 081349Z 00000KT 10SM BKN025 OVC080 26/23 A2982 RMK 8/57/
      LWR CLDS 3-4 QUADS=
METAR MMQT 081345Z 08008KT 5SM FEW007 BKN015 BKN120 17/15 A3020 RMK
      8/860=
METAR MMSP 081348Z 00000KT 7SM FEW010 BKN015 BKN080 19/18 A3014 RMK
      8/530 HZY MSGTX MMMM=
METAR MMTO 081345Z 05004KT 1SM -RA BR BKN005 OVC008 12/10 A3027 RMK
      60185 8/7//=
METAR MMVR 081345Z 00000KT 6SM FEW010 BKN090 OVC250 25/25 A2980 RMK
      8/467 HZ DSNT CB NW=
METAR MZBZ 081400Z 18008KT 9999 FEW011 SCT080 BKN220 27/24 A2986 Q1011
      JP-S/SW NOSIG=
METAR NFFN 081400Z 12006KT 40KM FEW030 20/18 Q1013 NOSIG RMK RR NIL=
METAR PWAK 081356Z 08012KT 8SM FEW025 27/25 A2996 RMK AO2A=
####018000114####
SAUS44 KMRX 081357 COR
MTRTYS
METAR KTYS 081353Z 08004KT 6SM HZ CLR 29/20 A3008 RMK AO2 SLP173 
T02890200
####018000114####
SAUS44 KMRX 081357 COR
MTRTRI
METAR KTRI 081353Z 00000KT 5SM HZ CLR 27/19 A3012 RMK AO2 SLP178 
T02720194
####018000118####
SAUS46 KPDT 081357
MTRMEH
METAR KMEH 081356Z AUTO 00000KT 10SM CLR 09/06 A3013 RMK AO2 SLP181 
T00940061 TSNO
####018000110####
SAUS41 KAKQ 081357
MTRNCA
METAR KNCA 081356Z 05006KT 6SM HZ CLR 30/24 A2995 RMK AO2 SLP142 
T03000244
####018000112####
SAUS46 KSGX 081357 COR
MTRNJK
METAR KNJK 081356Z 10003KT 10SM CLR 24/18 A2973 RMK AO2 SLP082 
T02440178
####018000101####
SAUS41 KCAR 081357
MTRGNR
METAR KGNR 081356Z AUTO VRB06KT 22/21 A3009 RMK AO1 SLP183 T02170206
####018000115####
SAUS45 KRIW 081357
MTRP60
METAR KP60 081356Z AUTO 00000KT 08/01 A3045 RMK AO2 SLP246 T00830006 
PWINO TSNO
####018000115####
SAUS43 KDLH 081357
MTRGNA
METAR KGNA 081356Z AUTO 00000KT 19/16 A3000 RMK AO2 SLP153 T01890161 
PWINO TSNO
####018000115####
SAUS43 KEAX 081357
MTRCDJ
METAR KCDJ 081356Z AUTO 06004KT 24/22 A3011 RMK AO2 SLP184 T02390217 
PWINO TSNO
####018000179####
SAHW31 KMSC 081357
METAR PMDY 081356Z AUTO 00000KT 10SM CLR 24/20 A3007 RMK AO2 TSNO 
    T02380200 SLP488=
METAR PWAK 081356Z 08012KT 8SM FEW025 27/25 A2996 
RMK AO2A=
####018002945####
SAAK41 KNKA 081357
METAR PAAK 081356Z AUTO 07025G33KT 10SM FEW015 BKN027 OVC085 07/03 
    A2949 RMK AO1 PNO=
METAR PABL 081356Z AUTO 23003KT 1/2SM VV005 04/03 A3015 RMK AO1 PNO=
METAR PABV 081356Z AUTO 19003KT 10SM FEW065 BKN100 BKN120 11/07 RMK 
    AO1 PNO=
METAR PADK 081356Z 04016G19KT 7SM OVC015 07/07 A2946 RMK AO1 PNO=
METAR PADL 081356Z 28004KT 10SM FEW039 09/08 A2996 RMK AO1 PNO TSNO=
METAR PAEM 081356Z AUTO 33005KT 10SM OVC075 12/09 A3000 RMK AO1 PNO=
METAR PAFE 081356Z AUTO 07004KT 10SM CLR 11/09 A3017 RMK AO1 PNO=
METAR PAFM 081356Z AUTO 29003KT 10SM CLR 11/08 A3009 RMK AO1 PNO=
METAR PAGL 081356Z AUTO 10SM CLR 13/08 A3014 RMK AO1 PNO=
METAR PAGS 081356Z AUTO 00000KT 10SM CLR 09/08 A3018 RMK AO1 PNO=
METAR PAHP 081356Z AUTO 33006KT 10SM CLR 09/07 A3003 RMK AO1 PNO 
    TSNO=
METAR PAHY 081356Z AUTO 36003KT 10SM CLR 15/10 A3012 RMK AO1 PNO=
METAR PAII 081356Z AUTO 01003KT 10SM CLR 09/07 A2997 RMK AO1 PNO=
METAR PAIN 081356Z AUTO 00000KT 10SM CLR 06/05 A3006 RMK AO1 PNO=
METAR PAJC 081356Z AUTO 19005KT 10SM FEW010 OVC017 06/03 A2992 RMK 
    AO1 PNO=
METAR PAKK 081356Z AUTO 01011G16KT 10SM CLR 11/06 A3004 RMK AO1 PNO=
METAR PAKP 081356Z AUTO 02005KT 10SM CLR 08/02 A3010 RMK AO1=
METAR PAMD 081356Z AUTO 08017KT 2SM OVC003 09/08 A3004 RMK AO1 PNO=
METAR PAMH 081356Z 00000KT 10SM CLR 13/06 A2998 RMK AO1 PNO=
METAR PAMM 081356Z AUTO 33007KT 10SM CLR 17/11 A3010 RMK AO1 PNO=
METAR PAMY 081356Z 28005KT 1/2SM OVC001 03/02 A3005 RMK AO1=
METAR PANI 081356Z AUTO 00000KT 1 1/2SM OVC002 06/04 A3000 RMK AO1 
    PNO=
METAR PANV 081356Z AUTO 06006KT 10SM CLR 13/08 A2998 RMK AO1 PNO=
METAR PAOU 081356Z AUTO 08006KT 1/2SM FG OVC004 06/06 A2992 RMK AO2 
    PWINO TSNO T00610055 SLP136 $=
METAR PAPG 081356Z 00000KT 10SM CLR 13/10 A3014 RMK AO1 
      PNO=
METAR PAPH 081356Z AUTO 16005KT 3/4SM OVC004 03/01 A2994 RMK AO1 PNO=
METAR PAPN 081356Z AUTO 00000KT 5SM BR BKN018 08/08 A2993 RMK AO2 
    PWINO TSNO T00830083 SLP140 $=
METAR PARC 081356Z AUTO 00000KT 10SM CLR 08/02 A3006 RMK AO1 PNO=
METAR PASA 081356Z AUTO 00000KT M1/4SM OVC001 03/01 A3018 RMK AO1 
    PNO=
METAR PASD 081356Z AUTO 00000KT 10SM BKN031 06/05 A2992 RMK AO1 PNO=
METAR PASH 081356Z AUTO 00000KT 10SM CLR 07/05 A3016 RMK AO1 PNO=
METAR PASK 081356Z 26007KT 10SM CLR 12/09 A3010 RMK AO1 PNO=
METAR PASL 081356Z AUTO 35003KT 10SM FEW090 11/08 A3000 RMK AO1 PNO=
METAR PASM 081356Z AUTO 04003KT 10SM SCT075 OVC100 10/09 A3002 RMK 
    AO1 PNO=
METAR PASX 081356Z 11005KT 10SM OVC070 13/09 A2995 RMK AO1 PNO=
METAR PAUN 081356Z AUTO 06012KT 10SM CLR 13/04 A3001 RMK AO1 PNO=
METAR PAVD 081356Z 00000KT 10SM FEW001 BKN080 BKN120 10/07 A3009 RMK 
    AO1 
    1347Z WEA: NONE TWR WND 18004KT FIRST PNO=
METAR PAWG 081356Z 28004KT 10SM CLR 13/10 A3014 RMK AO1 
    WEA:NONE  RJ PNO=
METAR PAWN 081356Z AUTO 34005KT 10SM CLR 08/01 A3015 RMK AO1 PNO=
####018000157####
SAAK41 KNKA 081357
METAR PAWS 081356Z AUTO 00000KT 10SM CLR 12/08 A2998 RMK AO1 PNO=
METAR PAZK 081356Z AUTO 02006KT 10SM CLR 08/03 A3007 RMK AO1 PNO=
####018000113####
SAUS42 KMHX 081357
MTRNBT
METAR KNBT 081356Z AUTO 05011KT 7SM CLR 29/ A2995 RMK AO2 SLP146 
T0289 TSNO $
####018000108####
SAUS42 KCAE 081357
MTRCAE
METAR KCAE 081356Z VRB04KT 10SM CLR 32/21 A2999 RMK AO2 SLP152 
T03170206
####018000120####
SAUS41 KLWX 081357
MTRNYG
METAR KNYG 081356Z 08004KT 6SM HZ FEW100 BKN150 29/23 A3001 RMK AO2 
SLP164 T02940233
####018000107####
SAUS41 KBUF 081357
MTRROC
METAR KROC 081354Z 24005KT 9SM CLR 29/21 A3004 RMK AO2 SLP169 
T02890211
####018000122####
SAUS41 KAKQ 081357
MTRNXX
METAR KNXX 081356Z 12007KT 5SM HZ FEW055 SCT200 27/21 A3006 RMK AO2 
SLP182 T02670211 $
####018001755####
SAEU KAWN 081400 RRG
METAR EGDL 081350Z 24007KT 9999 FEW040 SCT150 BKN200 22/09 Q1018 BLU
      NOSIG=
METAR EGDX 081350Z 29007KT 9999 FEW020 20/11 Q1018 BLU=
METAR EGOM 081350Z 25014KT 9999 SCT030 SCT035 16/09 Q1015 BLU=
METAR EGOS 081350Z 24012KT 9999 SCT045 SCT120 BKN200 21/09 Q1017 BLU
      NOSIG=
METAR EGQL 081350Z 24021KT 9999 FEW045 SCT150 BKN250 21/06 Q1012 BLU
      NOSIG=
METAR EGQS 081350Z 24020KT 9999 FEW030 BKN060 17/07 Q1010 BLU TEMPO
      7000 -SHRA WHT=
METAR EGUW 081350Z 23007KT 9999 SCT040 BKN250 24/13 Q1018 BLU NOSIG=
METAR EGVA 081355Z AUTO 24006KT 9999 FEW120 SCT170 SCT190 SCT210 23/09
      A3006 RMK AO2 DZE1256 SLP178 T02290088=
METAR EGVN 081350Z 24005KT 9999 FEW045 BKN220 23/08 Q1018 BLU NOSIG=
METAR EGVO 081350Z 24009KT 9999 SCT030 BKN250 23/16 Q1018 BLU NOSIG=
METAR EGVP 081350Z 21009KT 9999 FEW038 SCT180 23/13 Q1018 BLU=
METAR EGWU 081350Z 24008KT 9999 FEW037 BKN250 24/14 Q1018 BLU NOSIG=
METAR EGXC 081350Z 26009KT CAVOK 24/08 Q1017 BLU NOSIG=
METAR EGXD 081350Z 24014KT CAVOK 22/08 Q1016 BLU NOSIG=
METAR EGXE 081350Z 25015KT CAVOK 20/10 Q1016 BLU NOSIG=
METAR EGXJ 081350Z 23010KT 9999 FEW040 BKN250 23/06 Q1017 BLU=
METAR EGXT 081350Z 19009KT 9999 FEW044 BKN250 23/06 Q1017 BLU=
METAR EGXW 081350Z 26011KT CAVOK 22/07 Q1017 BLU NOSIG=
METAR EGYD 081350Z 25009KT CAVOK 23/10 Q1017 BLU NOSIG=
METAR EGYM 081350Z 23012KT 9999 FEW040 BKN220 24/12 Q1017 BLU NOSIG=
METAR EHAM 081355Z 25007KT 190V310 CAVOK 27/15 Q1019 NOSIG=
METAR EHBK 081355Z AUTO 17007KT 130V230 9999NDV NSC 31/11 Q1018 NOSIG=
METAR EHGR 081355Z AUTO 10005G15KT 9999NDV NCD 30/11 Q1018 BLU BLU=
METAR ETIK 081355Z AUTO 00000KT 9999 CLR 28/10 A3016 RMK AO2 SLP198
      T02840100 $=
####018001646####
SAEW KAWN 081400 RRB
METAR EBAW 081350Z 24006KT 160V290 CAVOK 31/13 Q1018 NOSIG=
METAR EBBR 081350Z 17006KT 130V200 CAVOK 30/11 Q1019 NOSIG=
METAR EBCI 081350Z VRB06KT CAVOK 30/10 Q1019 NOSIG=
METAR EBLG 081350Z VRB02KT CAVOK 31/08 Q1019 NOSIG=
METAR EBOS 081350Z 34005KT 310V020 CAVOK 22/15 Q1019 NOSIG=
METAR EDFH 081350Z 14007KT 080V180 CAVOK 28/11 Q1021=
METAR EDMO 081350Z 05007KT 010V070 CAVOK 26/09 Q1022=
METAR EDOP 081350Z 18009KT 120V210 CAVOK 30/09 Q1019=
METAR EDTL 081350Z VRB04KT CAVOK 31/10 Q1019=
METAR EDVK 081350Z 21006KT 170V240 CAVOK 28/10 Q1021=
METAR EHAM 081355Z 25007KT 190V310 CAVOK 27/15 Q1019 NOSIG=
METAR EHBK 081355Z AUTO 17007KT 130V230 9999NDV NSC 31/11 Q1018 NOSIG=
METAR EHGG 081355Z AUTO 23011KT 200V270 9999NDV NSC 27/13 Q1018 NOSIG=
METAR EHGR 081355Z AUTO 10005G15KT 9999NDV NCD 30/11 Q1018 BLU BLU=
METAR EHRD 081355Z 27006KT 220V310 CAVOK 27/16 Q1018 NOSIG=
METAR EHVK 081355Z AUTO 24005KT 9999NDV NCD 31/11 Q1018 BLU BLU=
METAR ELLX 081350Z VRB04KT CAVOK 30/08 Q1020 NOSIG=
METAR ETAD 081355Z AUTO VRB04KT 9999 CLR 30/10 A3014 RMK AO2 SLP189
      T02970098 $=
METAR ETAR 081355Z AUTO 24009KT 9999 CLR 31/15 A3011 RMK AO2 SLP189
      T03100151 $=
METAR ETEB 081355Z AUTO 00000KT 9999 CLR 27/09 A3018 RMK AO2 SLP203
      T02690089=
METAR ETIC 081356Z AUTO VRB04KT 9999 CLR 28/09 A3017 RMK AO2 SLP206
      T02780088 $=
METAR ETIK 081355Z AUTO 00000KT 9999 CLR 28/10 A3016 RMK AO2 SLP198
      T02840100 $=
METAR ETOU 081355Z AUTO 22003KT 9999 CLR 30/11 A3012 RMK AO2 SLP196
      T02990111=
METAR LSZB 081350Z VRB03KT CAVOK 31/12 Q1021 NOSIG=
####018003709####
SAUS99 KWBC 081358 RRA
METAR
KOFK 081356Z AUTO 33003KT 10SM CLR 21/15 A3021 RMK AO2 SLP222
     T02110150=
KOZR 081355Z 00000KT 10SM CLR 29/26 A3004 RMK AO2A SLP169
     T02910258=
KPVF 081355Z AUTO 07005KT 10SM CLR 22/10 A2994 RMK AO1=
KRDM 081356Z 16003KT 10SM CLR 14/03 A3009 RMK AO2 SLP163 T01440033
     $=
KSBP 081356Z 27003KT 5SM BR OVC007 13/12 A2994 RMK AO2 SLP138
     T01280117=
KSFO 081356Z 29009KT 10SM OVC008 13/10 A2995 RMK AO2 SLP140
     T01330100=
KSGH 081356Z 00000KT 5SM HZ CLR 29/22 A3010 RMK AO2 T02880222
     SLP183=
KSLE 081356Z 14004KT 10SM CLR 15/12 A2992 RMK AO2 SLP132
     T01500117=
KSRC 081356Z AUTO 21006KT 10SM CLR 27/23 A3010 RMK AO2 TSNO
     T02720233 SLP193=
KSRR 081355Z AUTO 00000KT 10SM OVC006 14/13 A3038 RMK AO2=
KSSC 081355Z AUTO 31007KT 10SM CLR 30/21 A2997 RMK AO2 SLP146
     T03020213 $=
KTME 081355Z AUTO 06008KT 10SM FEW012 FEW041 SCT080 25/25 A2998
     RMK AO1=
KTPH 081356Z AUTO 01009KT 10SM CLR 17/M03 A3013 RMK AO2 SLP125
     T01671033=
KTTS 081355Z VRB04KT 10SM SCT029 SCT290 28/22 A3001 RMK SLP162 3CU
     /3/ 1CI /4/=
KUKI 081356Z AUTO 00000KT 10SM CLR 12/10 A2991 RMK AO2 SLP123
     T01170100=
KUOX 081355Z AUTO 00000KT 10SM CLR 28/22 A3010 RMK AO2=
KVAD 081355Z AUTO 33007KT 9SM CLR 29/20 A3003 RMK AO2 SLP167
     T02910204 $=
KWJF 081356Z 00000KT 10SM CLR 17/04 A2992 RMK AO2 SLP114
     T01670039=
KWRB 081355Z 36006KT 10SM CLR 30/22 A3003 RMK AO2A SLP166
     T02970219 $=
KY51 081355Z AUTO 30007KT 10SM BKN011 23/20 A3009 RMK AO1
     T02250195=
PAAK 081356Z AUTO 07025G33KT 10SM FEW015 BKN027 OVC085 07/03 A2949
     RMK AO1 PNO=
PAHP 081356Z AUTO 33006KT 10SM CLR 09/07 A3003 RMK AO1 PNO
     TSNO=
PAWS 081356Z AUTO 00000KT 10SM CLR 12/08 A2998 RMK AO1 PNO=
PAZK 081356Z AUTO 02006KT 10SM CLR 08/03 A3007 RMK AO1 PNO=
PAAK 081356Z AUTO 07025G33KT 10SM FEW015 BKN027 OVC085 07/03 A2949
     RMK AO1 PNO=
PABL 081356Z AUTO 23003KT 1/2SM VV005 04/03 A3015 RMK AO1 PNO=
PABV 081356Z AUTO 19003KT 10SM FEW065 BKN100 BKN120 11/07 RMK AO1
     PNO=
PADK 081356Z 04016G19KT 7SM OVC015 07/07 A2946 RMK AO1 PNO=
PADL 081356Z 28004KT 10SM FEW039 09/08 A2996 RMK AO1 PNO TSNO=
PAEM 081356Z AUTO 33005KT 10SM OVC075 12/09 A3000 RMK AO1 PNO=
PAFE 081356Z AUTO 07004KT 10SM CLR 11/09 A3017 RMK AO1 PNO=
PAFM 081356Z AUTO 29003KT 10SM CLR 11/08 A3009 RMK AO1 PNO=
PAGL 081356Z AUTO 10SM CLR 13/08 A3014 RMK AO1 PNO=
PAGS 081356Z AUTO 00000KT 10SM CLR 09/08 A3018 RMK AO1 PNO=
PAHP 081356Z AUTO 33006KT 10SM CLR 09/07 A3003 RMK AO1 PNO
     TSNO=
PAHY 081356Z AUTO 36003KT 10SM CLR 15/10 A3012 RMK AO1 PNO=
PAII 081356Z AUTO 01003KT 10SM CLR 09/07 A2997 RMK AO1 PNO=
PAIN 081356Z AUTO 00000KT 10SM CLR 06/05 A3006 RMK AO1 PNO=
PAJC 081356Z AUTO 19005KT 10SM FEW010 OVC017 06/03 A2992 RMK AO1
     PNO=
PAKK 081356Z AUTO 01011G16KT 10SM CLR 11/06 A3004 RMK AO1 PNO=
PAKP 081356Z AUTO 02005KT 10SM CLR 08/02 A3010 RMK AO1=
PAMD 081356Z AUTO 08017KT 2SM OVC003 09/08 A3004 RMK AO1 PNO=
PAMH 081356Z 00000KT 10SM CLR 13/06 A2998 RMK AO1 PNO=
PAMM 081356Z AUTO 33007KT 10SM CLR 17/11 A3010 RMK AO1 PNO=
PAMY 081356Z 28005KT 1/2SM OVC001 03/02 A3005 RMK AO1=
PANI 081356Z AUTO 00000KT 1 1/2SM OVC002 06/04 A3000 RMK AO1
     PNO=
PANV 081356Z AUTO 06006KT 10SM CLR 13/08 A2998 RMK AO1 PNO=
PAOU 081356Z AUTO 08006KT 1/2SM FG OVC004 06/06 A2992 RMK AO2
     PWINO TSNO T00610055 SLP136 $=
PAPG 081356Z 00000KT 10SM CLR 13/10 A3014 RMK AO1 PNO=
PAPH 081356Z AUTO 16005KT 3/4SM OVC004 03/01 A2994 RMK AO1 PNO=
PAPN 081356Z AUTO 00000KT 5SM BR BKN018 08/08 A2993 RMK AO2 PWINO
     TSNO T00830083 SLP140 $=
####018003679####
SAUS99 KWBC 081358
METAR
KSDF 081356Z 18003KT 6SM HZ FEW065 SCT100 SCT150 30/21 A3007 RMK
     AO2 SLP175 T03000206=
K04W 081354Z AUTO 26007KT 10SM CLR 23/17 A3009 RMK AO2
     T02250172=
K1M4 081356Z AUTO 04005KT 10SM CLR 29/22 A3013 RMK AO2 T02940222
     SLP197=
K1P1 081355Z AUTO 06004KT 10SM OVC020 27/22 A3008 RMK AO2
     T02730221=
K21D 081358Z AUTO 29005KT 10SM CLR 22/16 A3011 RMK AO2=
KAND 081356Z AUTO 02006KT 10SM 31/20 A3003 RMK AO2 SLP157
     T03110200 $=
KART 081356Z AUTO 25005KT 8SM CLR 28/22 A3003 RMK AO2 SLP162
     T02830222=
KBED 081356Z 18007KT 7SM SCT024 28/20 A3007 RMK AO2 SLP194
     T02780200=
KBJI 081354Z AUTO 27007KT 10SM CLR 20/13 A3007 RMK AO2=
KBUU 081354Z AUTO 28006KT 10SM SCT027 SCT034 22/19 A3003 RMK
     AO2=
KBZN 081356Z 00000KT 10SM CLR 13/06 A3030 RMK AO2 SLP228
     T01330061=
KC29 081355Z AUTO 30006KT 5SM OVC004 23/21 A3005 RMK AO2 P0001
     T02300207=
KCEC 081356Z AUTO 00000KT 3SM BR OVC001 10/09 A2998 RMK AO2 SLP153
     T01000094=
KCMR 081355Z AUTO 16006KT 10SM CLR 18/03 A3027 RMK AO1=
KD39 081354Z AUTO 27008KT 10SM CLR 22/18 A3012 RMK AO2
     T02210178=
KDIK 081356Z AUTO 23003KT 10SM CLR 18/13 A3017 RMK AO2 SLP205
     T01830128=
KDLL 081355Z AUTO 30004KT 10SM OVC011 22/19 A3005 RMK AO2=
KDUG 081356Z AUTO 12013G18KT 10SM CLR 26/13 A3008 RMK AO2 SLP104
     T02560128 $=
KDUJ 081356Z AUTO 00000KT 9SM CLR 27/19 A3012 RMK AO2 SLP184
     T02670189=
KE80 081355Z AUTO 00000KT 10SM CLR 20/12 A3028 RMK AO2
     T01960120=
KEDC 081355Z AUTO 07007KT 25/25 A3000 RMK AO2=
KEED 081356Z AUTO 00000KT 10SM CLR 28/M01 A2980 RMK AO2 SLP053
     T02781011 TSNO=
KEIK 081355Z AUTO 34003KT 10SM BKN010 OVC017 13/12 A3034 RMK
     AO2=
KEKO 081356Z AUTO 00000KT 10SM CLR 13/M02 A3015 RMK AO2 SLP156
     T01331022=
KFBG 081355Z AUTO 03005KT 10SM CLR 32/22 A2997 RMK AO2 SLP147
     T03160217 $=
KFMH 081355Z AUTO 16008KT 10SM BKN015 BKN020 25/21 A3011 RMK
     AO2=
KGON 081356Z 11008KT 5SM HZ FEW003 SCT022 25/21 A3007 RMK AO2
     SLP183 T02500211=
KGRD 081356Z AUTO 00000KT 10SM CLR 30/21 A3004 RMK AO2 SLP162
     T03000211=
KGTB 081355Z AUTO VRB05KT 10SM CLR 30/22 A3004 RMK AO2 SLP170
     T03020222=
KGUS 081355Z AUTO 25006KT 10SM CLR 26/22 A3004 RMK AO2 RAE1300
     SLP167 P0000 T02610221 $=
KHND 081356Z 19007KT 10SM CLR 26/M03 A2992 RMK AO2 T02611027
     SLP076=
KHVS 081355Z AUTO 00000KT 10SM CLR 31/21 A2999 RMK AO2=
KHYA 081356Z 15007KT 10SM CLR 24/21 A3010 RMK AO2 SLP194
     T02440206=
KIFP 081355Z AUTO 00000KT 10SM CLR 29/00 A2979 RMK AO2=
KIGX 081356Z AUTO 02004KT 6SM HZ CLR 30/20 A3001 RMK AO2 SLP154
     T03000200=
KINW 081356Z AUTO 10003KT 10SM FEW120 22/02 A3015 RMK AO2 SLP125
     T02170017 $=
KJMS 081356Z AUTO 27007KT 10SM CLR 19/14 A3011 RMK AO2 SLP193
     T01940139=
KLAS 081356Z 20007KT 10SM SCT150 27/M02 A2986 RMK AO2 SLP079
     T02721017=
KLRF 081355Z AUTO VRB05KT 10SM CLR 27/23 A3009 RMK AO2 SLP188
     T02710233=
KM19 081356Z AUTO VRB05KT 10SM CLR 28/23 A3009 RMK AO2 T02830233
     SLP187=
KMAN 081355Z AUTO 14003KT 10SM CLR 15/03 A3009 RMK AO1=
KMOB 081356Z 36003KT 10SM SCT025 29/24 A3006 RMK AO2 SLP176
     T02890239=
KMQY 081356Z 04004KT 10SM CLR 32/22 A3010 RMK AO2 T03160222
     SLP181=
KMRH 081356Z AUTO 05009KT 10SM FEW023 BKN120 30/23 A2994 RMK AO2
     SLP137 T03000233 TSNO=
KNQA 081355Z COR 32005KT 10SM FEW150 31/24 A3009 RMK=
KNQX 081353Z 03005KT 10SM SCT022 BKN100 BKN200 30/25 A2996 RMK AO2
     SLP145 T2 SET T03000250 $=
KNRB 081352Z VRB03KT 10SM CLR 28/19 A3002 RMK AO2 SLP165
     T02780194=
####018000095####
SACN89 KWBC 081358
METAR CWCI 081300Z AUTO 15003KT 15/14 RMK AO1 SLP155 T01460143
52008=
####018000876####
SAUS99 KWBC 081358 RRB
METAR
PARC 081356Z AUTO 00000KT 10SM CLR 08/02 A3006 RMK AO1 PNO=
PASA 081356Z AUTO 00000KT M1/4SM OVC001 03/01 A3018 RMK AO1
     PNO=
PASD 081356Z AUTO 00000KT 10SM BKN031 06/05 A2992 RMK AO1 PNO=
PASH 081356Z AUTO 00000KT 10SM CLR 07/05 A3016 RMK AO1 PNO=
PASK 081356Z 26007KT 10SM CLR 12/09 A3010 RMK AO1 PNO=
PASL 081356Z AUTO 35003KT 10SM FEW090 11/08 A3000 RMK AO1 PNO=
PASM 081356Z AUTO 04003KT 10SM SCT075 OVC100 10/09 A3002 RMK AO1
     PNO=
PASX 081356Z 11005KT 10SM OVC070 13/09 A2995 RMK AO1 PNO=
PAUN 081356Z AUTO 06012KT 10SM CLR 13/04 A3001 RMK AO1 PNO=
PAVD 081356Z 00000KT 10SM FEW001 BKN080 BKN120 10/07 A3009 RMK AO1
     1347Z WEA: NONE TWR WND 18004KT FIRST PNO=
PAWG 081356Z 28004KT 10SM CLR 13/10 A3014 RMK AO1 WEA:NONE RJ
     PNO=
PAWN 081356Z AUTO 34005KT 10SM CLR 08/01 A3015 RMK AO1 PNO=
####018000113####
SACN94 KWBC 081358
METAR CWND 081300Z AUTO 30013KT 05/04 RMK AO1 PK WND 31020/1204
SLP153 T00500036 50002=
####018000167####
SAUS98 KWBC 081358
METAR PACZ 081355Z AUTO 04010KT 10SM 10/08 A3003 RMK AO1 T01000084=
METAR PATL 081355Z AUTO 06003KT 10SM CLR 12/06 A3000 RMK AO1
T01170062=
####018000074####
SABZ21 SBAR 081400
METAR SBAR 081400Z 18008KT 9999 SCT015 28/24 Q1017=
####018003740####
SAXX60 KWBC 081400
METAR
KRSP 081354Z AUTO 00000KT 2 1/2SM HZ CLR 29/19 A3011 RMK AO2 VIS 1
     3/4V5 SLP180 T02890194 $=
KECG 081354Z 05010KT 10SM CLR 29/21 A2998 RMK AO2 SLP151
     T02940211=
KFZY 081354Z AUTO 24004KT 8SM CLR 29/22 A3004 RMK AO2 SLP168
     T02890217 $=
KBKB 081354Z AUTO VRB04KT 10SM CLR 28/24 A3002 RMK AO2 SLP191
     T02780239=
KBAD 081355Z AUTO 14005KT 10SM FEW095 26/24 A3007 RMK AO2 SLP181
     T02590240 $=
KDAA 081355Z AUTO 15004KT 10SM CLR 30/23 A3001 RMK AO2 SLP164
     T03030233=
KFBG 081355Z AUTO 03005KT 10SM CLR 32/22 A2997 RMK AO2 SLP147
     T03160217 $=
KFHU 081355Z VRB06KT 50SM FEW120 25/13 A3011 RMK SLP119=
KGBN 081355Z 17002KT 12SM FEW170 28/M01 A2979 RMK SLP068 FIRST=
KGRF 081355Z AUTO 14003KT 10SM CLR 15/12 A2996 RMK AO2 SLP146
     T01450119 $=
KGUS 081355Z AUTO 25006KT 10SM CLR 26/22 A3004 RMK AO2 RAE1300
     SLP167 P0000 T02610221 $=
KIAB 081355Z AUTO 02009KT 10SM OVC008 23/21 A3012 RMK AO2 SLP190
     T02280213=
KMGE 081355Z 34006KT 10SM CLR 30/20 A3007 RMK AO2A SLP169
     T03030199 $=
KOFF 081355Z AUTO 02005KT 10SM CLR 22/18 A3015 RMK AO2 SLP198
     T02210180 $=
KOZR 081355Z 00000KT 10SM CLR 29/26 A3004 RMK AO2A SLP169
     T02910258=
KSUU 081355Z AUTO 23019KT 10SM CLR 12/10 A2985 RMK AO2 PK WND
     23026/1338 SLP108 T01230103 RVRNO $=
KADW 081355Z AUTO 10008KT 10SM SCT095 30/23 A3002 RMK AO2 SLP165
     T02970234=
KBAD 081355Z AUTO 14005KT 10SM FEW095 26/24 A3007 RMK AO2 SLP181
     T02590240 $=
KBLV 081355Z AUTO 26004KT 10SM CLR 27/24 A3005 RMK AO2 CIG 075
     RWY32L SLP174 T02670242=
KCBM 081355Z AUTO 04007KT 10SM CLR 29/23 A3007 RMK AO2 SLP183
     T02930229 $=
KDAA 081355Z AUTO 15004KT 10SM CLR 30/23 A3001 RMK AO2 SLP164
     T03030233=
KFBG 081355Z AUTO 03005KT 10SM CLR 32/22 A2997 RMK AO2 SLP147
     T03160217 $=
KFHU 081355Z VRB06KT 50SM FEW120 25/13 A3011 RMK SLP119=
KGBN 081355Z 17002KT 12SM FEW170 28/M01 A2979 RMK SLP068 FIRST=
KGRF 081355Z AUTO 14003KT 10SM CLR 15/12 A2996 RMK AO2 SLP146
     T01450119 $=
KGUS 081355Z AUTO 25006KT 10SM CLR 26/22 A3004 RMK AO2 RAE1300
     SLP167 P0000 T02610221 $=
KHMN 081355Z 15007KT 10SM CLR 21/15 A3017 RMK AO2A SLP132
     T02110148 $=
KIAB 081355Z AUTO 02009KT 10SM OVC008 23/21 A3012 RMK AO2 SLP190
     T02280213=
KLRF 081355Z AUTO VRB05KT 10SM CLR 27/23 A3009 RMK AO2 SLP188
     T02710233=
KMGE 081355Z 34006KT 10SM CLR 30/20 A3007 RMK AO2A SLP169
     T03030199 $=
KMTC 081355Z 23006KT 10SM FEW240 32/22 A3001 RMK SLP166=
KNFW 081352Z 12008KT 10SM SCT012 BKN024 OVC040 27/22 A3008 RMK AO2
     SLP168 RAE20 P0000 T02670222=
KDTS 081353Z AUTO 36004KT 10SM CLR 29/23 A3003 RMK AO2 SLP167
     T02890233=
KADW 081355Z AUTO 10008KT 10SM SCT095 30/23 A3002 RMK AO2 SLP165
     T02970234=
KBAD 081355Z AUTO 14005KT 10SM FEW095 26/24 A3007 RMK AO2 SLP181
     T02590240 $=
KNHK 081352Z 10009KT 10SM SCT012 SCT070 28/22 A3002 RMK AO2 SLP165
     T02830222=
KOFF 081355Z AUTO 02005KT 10SM CLR 22/18 A3015 RMK AO2 SLP198
     T02210180 $=
KPOB 081355Z AUTO 04004KT 10SM CLR 31/22 A2997 RMK AO2 SLP148
     T03130224 $=
KADW 081355Z AUTO 10008KT 10SM SCT095 30/23 A3002 RMK AO2 SLP165
     T02970234=
KBKF 081355Z 36004KT 3SM BR OVC002 14/14 A3035 RMK SLP238=
KCBM 081355Z AUTO 04007KT 10SM CLR 29/23 A3007 RMK AO2 SLP183
     T02930229 $=
KFRI 081355Z AUTO 02009KT 10SM OVC008 22/20 A3014 RMK AO2 CIG
     007V010 SLP195 T02160203 $=
KGRK 081355Z 07007KT 6SM BR BKN008 BKN015 27/27 A3002 RMK
     SLP146=
KMTC 081355Z 23006KT 10SM FEW240 32/22 A3001 RMK SLP166=
KMUO 081355Z AUTO 08006KT 10SM CLR 17/01 A3011 RMK AO2 SLP171
     T01690010=
####018003722####
SAXX60 KWBC 081400 RRA
METAR
KWRB 081355Z 36006KT 10SM CLR 30/22 A3003 RMK AO2A SLP166
     T02970219 $=
PABI 081353Z AUTO 00000KT 10SM CLR 11/07 A3008 RMK AO2 SLP185
     T01110072 TSNO=
PAEI 081355Z AUTO 00000KT 10SM CLR 10/07 A3004 RMK AO2 SLP175
     T00980068 $=
PHHI 081355Z AUTO 06005KT 10SM BKN049 20/18 A3002 RMK AO2
     RAB1259E1309DZE1312 SLP156 P0000 T02040184=
KAFF 081355Z AUTO 00000KT 10SM CLR 14/11 A3038 RMK AO2 SLP205
     T01360106=
KFSI 081355Z AUTO 01004KT 10SM BKN009 BKN017 OVC085 25/23 A3006
     RMK AO2 CIG 008V012 SLP164 T02510227=
KFTK 081355Z AUTO 00000KT 10SM FEW080 29/23 A3008 RMK AO2 SLP180
     T02890227=
KGTB 081355Z AUTO VRB05KT 10SM CLR 30/22 A3004 RMK AO2 SLP170
     T03020222=
KHST 081355Z AUTO 09008KT 10SM CLR 30/25 A2997 RMK AO2 SLP150
     T03030247=
KMUI 081355Z AUTO VRB06KT 10SM CLR 32/19 A3003 RMK AO2 SLP166
     T03210192 $=
KNIP 081353Z 29003KT 10SM CLR 27/20 A3003 RMK AO2 SLP163
     T02720200=
KNKT 081354Z 07010KT 10SM FEW018 29/23 A2994 RMK AO2 SLP137
     T02890233=
KNQX 081353Z 03005KT 10SM SCT022 BKN100 BKN200 30/25 A2996 RMK AO2
     SLP145 T2 SET T03000250 $=
KNRB 081352Z VRB03KT 10SM CLR 28/19 A3002 RMK AO2 SLP165
     T02780194=
KNSI 081356Z 30004KT 7SM OVC011 12/11 A2991 RMK SLP132
     T01220106=
KSSC 081355Z AUTO 31007KT 10SM CLR 30/21 A2997 RMK AO2 SLP146
     T03020213 $=
KSZL 081355Z 36006KT 10SM SCT009 25/23 A3008 RMK AO2A DZE1324
     SLP181 T02450226 $=
KTCM 081355Z AUTO 00000KT 10SM CLR 15/13 A2997 RMK AO2 SLP148
     T01470128=
KWRI 081355Z AUTO 15008KT 10SM FEW015 SCT190 SCT210 27/23 A3003
     RMK AO2 SLP169 T02660226 $=
KGTB 081355Z AUTO VRB05KT 10SM CLR 30/22 A3004 RMK AO2 SLP170
     T03020222=
KNIP 081353Z 29003KT 10SM CLR 27/20 A3003 RMK AO2 SLP163
     T02720200=
KNKT 081354Z 07010KT 10SM FEW018 29/23 A2994 RMK AO2 SLP137
     T02890233=
KNQX 081353Z 03005KT 10SM SCT022 BKN100 BKN200 30/25 A2996 RMK AO2
     SLP145 T2 SET T03000250 $=
KNRB 081352Z VRB03KT 10SM CLR 28/19 A3002 RMK AO2 SLP165
     T02780194=
KNSI 081356Z 30004KT 7SM OVC011 12/11 A2991 RMK SLP132
     T01220106=
KOFF 081355Z AUTO 02005KT 10SM CLR 22/18 A3015 RMK AO2 SLP198
     T02210180 $=
KOZR 081355Z 00000KT 10SM CLR 29/26 A3004 RMK AO2A SLP169
     T02910258=
KSSC 081355Z AUTO 31007KT 10SM CLR 30/21 A2997 RMK AO2 SLP146
     T03020213 $=
KSUU 081355Z AUTO 23019KT 10SM CLR 12/10 A2985 RMK AO2 PK WND
     23026/1338 SLP108 T01230103 RVRNO $=
KSZL 081355Z 36006KT 10SM SCT009 25/23 A3008 RMK AO2A DZE1324
     SLP181 T02450226 $=
KTCM 081355Z AUTO 00000KT 10SM CLR 15/13 A2997 RMK AO2 SLP148
     T01470128=
KTIK 081355Z AUTO 01003KT 10SM BKN007 24/22 A3007 RMK AO2 SLP172
     T02410225 $=
KVAD 081355Z AUTO 33007KT 9SM CLR 29/20 A3003 RMK AO2 SLP167
     T02910204 $=
KWRB 081355Z 36006KT 10SM CLR 30/22 A3003 RMK AO2A SLP166
     T02970219 $=
KWRI 081355Z AUTO 15008KT 10SM FEW015 SCT190 SCT210 27/23 A3003
     RMK AO2 SLP169 T02660226 $=
KNBG 081355Z 10006KT 10SM SCT015 BKN250 28/24 A3004 RMK AO2 SLP173
     T02830244 $=
KPOE 081355Z AUTO 11006KT 10SM FEW010 28/24 A3004 RMK AO2 SLP172
     T02780239=
KNJK 081356Z 10003KT 10SM CLR 24/18 A2973 RMK AO2 SLP082
     T02440178=
KAFF 081355Z AUTO 00000KT 10SM CLR 14/11 A3038 RMK AO2 SLP205
     T01360106=
KBAB 081355Z AUTO 14005KT 10SM CLR 16/11 A2985 RMK AO2 SLP107
     T01610112 $=
KBIX 081355Z AUTO 03004KT 10SM CLR 28/25 A3005 RMK AO2 SLP177
     T02850245=
KBKF 081355Z 36004KT 3SM BR OVC002 14/14 A3035 RMK SLP238=
KFRI 081355Z AUTO 02009KT 10SM OVC008 22/20 A3014 RMK AO2 CIG
     007V010 SLP195 T02160203 $=
####018001299####
SAXX60 KWBC 081400 RRC
METAR
KMIB 081355Z AUTO 29004KT 10SM CLR 18/13 A3012 RMK AO2 SLP198
     T01800132 $=
KRIV 081355Z 00000KT 1 1/2SM BR OVC003 13/13 A2993 RMK AO2A SLP133
     T01340127=
KVOK 081355Z 33006KT 10SM BKN010 22/22 A3006 RMK AO2A SLP174=
KXMR 081355Z AUTO 03008KT 10SM FEW029 28/21 A3000 RMK AO2
     DZB1301E1311 SLP160 P0000 T02820210=
MHSC 081355Z AUTO VRB03KT 9999 FEW150 SCT210 23/19 A2997 RMK AO2
     SLP113 T02320193 $=
PAED 081355Z AUTO 00000KT 10SM FEW060 BKN070 OVC085 12/11 A2999
     RMK AO2 RAE1256B1316E1325DZB1256E1258B1325E1352 SLP157 P0000
     T01210106 $=
PWAK 081356Z 08012KT 8SM FEW025 27/25 A2996 RMK AO2A=
KNCA 081356Z 05006KT 6SM HZ CLR 30/24 A2995 RMK AO2 SLP142
     T03000244=
PMDY 081356Z AUTO 00000KT 10SM CLR 24/20 A3007 RMK AO2 TSNO
     T02380200 SLP488=
PWAK 081356Z 08012KT 8SM FEW025 27/25 A2996 RMK AO2A=
KNYG 081356Z 08004KT 6SM HZ FEW100 BKN150 29/23 A3001 RMK AO2
     SLP164 T02940233=
KNXX 081356Z 12007KT 5SM HZ FEW055 SCT200 27/21 A3006 RMK AO2
     SLP182 T02670211 $=
KNBT 081356Z AUTO 05011KT 7SM CLR 29/ A2995 RMK AO2 SLP146 T0289
     TSNO $=
PACZ 081355Z AUTO 04010KT 10SM 10/08 A3003 RMK AO1 T01000084=
PATL 081355Z AUTO 06003KT 10SM CLR 12/06 A3000 RMK AO1
     T01170062=
####018003704####
SAUS70 KWBC 081400 RRD
METAR
KBBB 081353Z AUTO 27004KT 10SM CLR 21/17 A3012 RMK AO2=
KBMI 081356Z 27006KT 10SM BKN012 BKN070 25/22 A3007 RMK AO2
     T02500222 SLP168 $=
KBOK 081356Z AUTO 00000KT M1/4SM FG OVC002 09/09 A2998 RMK AO2
     T00940094 RAB35E48 P0000 SLP154 $=
KCGS 081355Z AUTO 00000KT 7SM SCT110 31/23 A3002 RMK AO1=
KFDK 081353Z AUTO 00000KT 7SM CLR 34/22 A3005 RMK AO2=
KEAT 081355Z AUTO 30005KT 10SM CLR 18/06 A3006 RMK AO2 SLP168
     T01780061=
KFFM 081353Z AUTO 32003KT 10SM CLR 19/16 A3009 RMK AO2=
KFGN 081354Z AUTO 29005KT 2SM HZ BKN070 18/14 A2999 RMK AO2 VIS
     3/4V5=
KGDB 081353Z AUTO 25005KT 10SM CLR 20/17 A3015 RMK AO2
     T02030166=
KGHW 081353Z AUTO 27006KT 10SM CLR 21/15 A3015 RMK AO2=
KLLJ 081355Z AUTO 00000KT 10SM FEW090 12/01 A3029 RMK AO2 SLP206
     T01170011=
KLZU 081350Z 00000KT 10SM SKC 30/20 A3006=
KMER 081355Z 30007KT 10SM SKC 17/12 A2985=
KMGG 081355Z AUTO 27005KT 10SM CLR 22/17 A3013 RMK AO2
     T02170167=
KMOX 081350Z AUTO 27007KT 10SM CLR 22/17 A3008 RMK AO2=
PAHN 081354Z AUTO VRB03KT 10SM CLR 12/09 A3017 RMK AO2 SLP220
     T01170094 TSNO=
PAKN 081354Z 35004KT 10SM SCT030 BKN060 08/08 A2990 RMK AO2 SLP126
     T00830078=
KMWA 081354Z 23006KT 15SM SCT070 BKN110 BKN250 29/24 A3008=
KMWM 081353Z AUTO 30005KT 10SM CLR 22/17 A3015 RMK AO2=
KOWB 081356Z 27004KT 10SM CLR 32/24 A3008 RMK AO2 T03160238
     SLP179=
KPNM 081353Z AUTO 27007KT 10SM CLR 22/16 A3011 RMK AO2=
KPQN 081353Z AUTO 32006KT 10SM CLR 21/15 A3017 RMK AO2=
KPWC 081353Z AUTO 28006KT 10SM CLR 19/14 A3009 RMK AO2=
KRIL 081353Z AUTO 00000KT 10SM CLR 16/07 A3029 RMK AO2 SLP201
     T01560072 TSNO=
KSGR 081353Z 07007KT 10SM FEW039 SCT085 25/23 A2996 RMK AO2 SLP152
     T02500228=
KTWM 081353Z AUTO 24009KT 10SM CLR 22/16 A3003 RMK AO2 LTG DSNT
     S=
KUCP 081356Z AUTO 00000KT 10SM CLR 28/19 A3009 RMK AO2 T02830194
     SLP195 $=
KULM 081355Z AUTO 31005KT 10SM CLR 21/16 A3014 RMK AO2=
KW29 081353Z AUTO 16008KT 7SM CLR 28/22 A3002 RMK AO1=
KTTS 081355Z VRB04KT 10SM SCT029 SCT290 28/22 A3001 RMK SLP162 3CU
     /3/ 1CI /4/=
KHFF 081355Z AUTO 04009KT 10SM CLR 32/19 A2999 RMK AO2 SLP153
     T03210190 $=
KSDF 081356Z 18003KT 6SM HZ FEW065 SCT100 SCT150 30/21 A3007 RMK
     AO2 SLP175 T03000206=
KSDF 081356Z 18003KT 6SM HZ FEW065 SCT100 SCT150 30/21 A3007 RMK
     AO2 SLP175 T03000206=
K04W 081354Z AUTO 26007KT 10SM CLR 23/17 A3009 RMK AO2
     T02250172=
K1M4 081356Z AUTO 04005KT 10SM CLR 29/22 A3013 RMK AO2 T02940222
     SLP197=
K1P1 081355Z AUTO 06004KT 10SM OVC020 27/22 A3008 RMK AO2
     T02730221=
K21D 081358Z AUTO 29005KT 10SM CLR 22/16 A3011 RMK AO2=
KAND 081356Z AUTO 02006KT 10SM 31/20 A3003 RMK AO2 SLP157
     T03110200 $=
KART 081356Z AUTO 25005KT 8SM CLR 28/22 A3003 RMK AO2 SLP162
     T02830222=
KBED 081356Z 18007KT 7SM SCT024 28/20 A3007 RMK AO2 SLP194
     T02780200=
KBJI 081354Z AUTO 27007KT 10SM CLR 20/13 A3007 RMK AO2=
KBUU 081354Z AUTO 28006KT 10SM SCT027 SCT034 22/19 A3003 RMK
     AO2=
KC29 081355Z AUTO 30006KT 5SM OVC004 23/21 A3005 RMK AO2 P0001
     T02300207=
KCEC 081356Z AUTO 00000KT 3SM BR OVC001 10/09 A2998 RMK AO2 SLP153
     T01000094=
KCMR 081355Z AUTO 16006KT 10SM CLR 18/03 A3027 RMK AO1=
KD39 081354Z AUTO 27008KT 10SM CLR 22/18 A3012 RMK AO2
     T02210178=
KDIK 081356Z AUTO 23003KT 10SM CLR 18/13 A3017 RMK AO2 SLP205
     T01830128=
KDLL 081355Z AUTO 30004KT 10SM OVC011 22/19 A3005 RMK AO2=
KDUG 081356Z AUTO 12013G18KT 10SM CLR 26/13 A3008 RMK AO2 SLP104
     T02560128 $=
KDUJ 081356Z AUTO 00000KT 9SM CLR 27/19 A3012 RMK AO2 SLP184
     T02670189=
####018003717####
SAUS70 KWBC 081400 RRA
METAR
KUZA 081354Z AUTO 02005KT 6SM HZ CLR 29/20 A3002 RMK AO2 SLP151
     T02940200=
KVAY 081354Z AUTO 13006KT 8SM FEW015 BKN110 27/22 A3004 RMK AO2
     SLP172 T02720222=
KVBT 081355Z AUTO 17005KT 10SM OVC016 24/21 A3007 RMK AO1=
KVIS 081355Z AUTO 30004KT 10SM CLR 18/11 A2984 RMK AO1=
KVQQ 081350Z 00000KT 10SM CLR 28/22 A3002=
KVSF 081354Z AUTO 00000KT 6SM HZ OVC014 26/22 A3009 RMK AO2 SLP185
     T02560217=
KVTA 081354Z AUTO 00000KT 7SM CLR 28/21 A3008 RMK AO2 SLP177
     T02780211=
KWLD 081354Z AUTO 02010KT 10SM BKN010 24/21 A3011 RMK AO2 CIG
     008V012 SLP187 P0001 T02390211=
KWVL 081355Z AUTO 19005KT 7SM OVC006 22/20 A3007 RMK AO1=
KWWD 081355Z AUTO 9SM OVC060 24/24 A3005 RMK AO1=
KYKN 081355Z AUTO 24004KT 10SM CLR 21/16 A3020 RMK AO1=
KHYS 081355Z AUTO 03009KT 10SM OVC037 19/17 A3020 RMK AO1=
KILE 081355Z 07009KT 6SM BKN008 BKN014 OVC020 25/23 A3001 RMK
     AO1=
KILN 081354Z AUTO 19004KT 5SM HZ CLR 28/21 A3009 RMK AO2 SLP176
     T02830211=
KIMT 081354Z AUTO 02003KT 10SM CLR 23/19 A3001 RMK AO2 SLP159
     T02330189=
KIND 081354Z 24007KT 9SM FEW180 SCT230 29/22 A3004 RMK AO2 SLP165
     T02890222=
KINT 081354Z 01007KT 10SM CLR 30/18 A3005 RMK AO2 SLP161
     T03000183=
KIPT 081354Z VRB05KT 9SM CLR 28/18 A3005 RMK AO2 SLP169
     T02780178=
KISW 081354Z AUTO 32004KT 10SM OVC007 21/19 A3006 RMK AO2 SLP176
     T02060189 TSNO=
KIWD 081355Z AUTO 33007KT 10SM CLR 21/16 A3003 RMK AO1=
KIZG 081354Z AUTO VRB04KT 7SM BKN016 OVC047 26/21 A3009 RMK AO2
     SLP188 T02610211=
KJHW 081355Z AUTO 16003KT 10SM CLR 27/19 A3011 RMK AO1=
KJST 081354Z AUTO 00000KT 6SM HZ CLR 27/18 A3014 RMK AO2 SLP187
     T02670178=
KKLS 081355Z AUTO 32003KT 10SM CLR 14/13 A2996 RMK AO1=
KLAF 081354Z 25003KT 8SM CLR 28/23 A3003 RMK AO2 SLP164
     T02830233=
KLBL 081355Z 35013KT 9SM OVC006 19/17 A3024 RMK AO1 P0002=
KLBT 081354Z AUTO 05007KT 6SM HZ FEW085 31/21 A2996 RMK AO2 SLP142
     T03060206=
KLCI 081355Z AUTO 25005KT 4SM BKN017 OVC028 26/21 A3008 RMK
     AO1=
KLEW 081355Z 16004KT 5SM OVC006 22/21 A3012 RMK AO1=
KLGD 081355Z AUTO 00000KT 10SM CLR 14/07 A3009 RMK AO1=
KLKV 081355Z AUTO 32005KT 10SM CLR 17/03 A3013 RMK AO1=
KLNK 081354Z 01006KT 10SM CLR 21/18 A3018 RMK AO2 SLP210
     T02110178=
KLPC 081355Z AUTO 00000KT 8SM OVC008 13/11 A2994 RMK AO1 PNO=
KLWM 081354Z 20004KT 10SM FEW023 27/20 A3010 RMK AO2 SLP191
     T02720200=
KLWT 081354Z AUTO 00000KT 10SM CLR 14/08 A3027 RMK AO2 SLP224
     T01390078=
KMBL 081355Z AUTO 27004KT 5SM OVC006 22/20 A3003 RMK AO1=
KMFI 081354Z AUTO 33007KT 10SM BKN013 23/19 A3006 RMK AO2 SLP172
     T02280189=
KMGJ 081354Z AUTO VRB03KT 7SM CLR 28/22 A3005 RMK AO2 SLP172
     T02830217=
KMIV 081354Z AUTO 14006KT 10SM FEW014 26/22 A3003 RMK AO2 SLP165
     T02610217=
KMJX 081355Z AUTO 16003KT 10SM BKN010 OVC060 25/22 A3004 RMK
     AO1=
KMKC 081354Z 00000KT 8SM OVC007 24/22 A3010 RMK AO2 CIG 006V010
     SLP183 T02390217=
KMKO 081353Z AUTO 00000KT 9SM -RA OVC003 24/23 A3007 RMK AO2 RAB34
     CIG 003V008 SLP175 P0000 T02390228=
KMKT 081355Z 31005KT 10SM CLR 20/17 A3014 RMK AO1=
KMML 081355Z AUTO 28007KT 10SM CLR 22/16 A3015 RMK AO1=
KMNM 081355Z AUTO 35005KT 10SM OVC015 22/19 A3000 RMK AO1=
KMOT 081354Z 23005KT 10SM BKN070 19/12 A3012 RMK AO2 SLP197
     T01890117=
KAAO 081354Z AUTO 36010KT 10SM OVC006 22/21 A3012 RMK AO2 SLP187
     T02220206=
KAFJ 081355Z AUTO 00000KT 8SM CLR 27/20 A3012 RMK AO1=
KAIZ 081355Z AUTO 00000KT 7SM BKN009 BKN036 OVC055 23/22 A3008 RMK
     AO1 P0002=
KAKH 081354Z AUTO 01008KT 7SM CLR 31/18 A3003 RMK AO2 SLP159
     T03110183=
####018003691####
SAXX60 KWBC 081400 RRB
METAR
KFSI 081355Z AUTO 01004KT 10SM BKN009 BKN017 OVC085 25/23 A3006
     RMK AO2 CIG 008V012 SLP164 T02510227=
KFTK 081355Z AUTO 00000KT 10SM FEW080 29/23 A3008 RMK AO2 SLP180
     T02890227=
KGRK 081355Z 07007KT 6SM BR BKN008 BKN015 27/27 A3002 RMK
     SLP146=
KHST 081355Z AUTO 09008KT 10SM CLR 30/25 A2997 RMK AO2 SLP150
     T03030247=
KLHW 081355Z 29006KT 10SM CLR 30/20 A2999 RMK AO2A SLP158
     T02990200=
KLTS 081355Z AUTO 35005KT 8SM R35L/5500VP6000FT R35R/5500FT RA
     OVC006 23/23 A3009 RMK AO2 RAB1322DZB1313E1322 SLP176 P0005
     T02310230 $=
KMCF 081355Z AUTO 06004KT 10SM CLR 27/24 A3001 RMK AO2 SLP165
     T02720237=
KMUI 081355Z AUTO VRB06KT 10SM CLR 32/19 A3003 RMK AO2 SLP166
     T03210192 $=
KMUO 081355Z AUTO 08006KT 10SM CLR 17/01 A3011 RMK AO2 SLP171
     T01690010=
KSVN 081355Z 28007KT 10SM SKC 30/21 A2998 RMK SLP155=
KBAB 081355Z AUTO 14005KT 10SM CLR 16/11 A2985 RMK AO2 SLP107
     T01610112 $=
KBIX 081355Z AUTO 03004KT 10SM CLR 28/25 A3005 RMK AO2 SLP177
     T02850245=
KDTS 081353Z AUTO 36004KT 10SM CLR 29/23 A3003 RMK AO2 SLP167
     T02890233=
KLHW 081355Z 29006KT 10SM CLR 30/20 A2999 RMK AO2A SLP158
     T02990200=
KLTS 081355Z AUTO 35005KT 8SM R35L/5500VP6000FT R35R/5500FT RA
     OVC006 23/23 A3009 RMK AO2 RAB1322DZB1313E1322 SLP176 P0005
     T02310230 $=
KMCF 081355Z AUTO 06004KT 10SM CLR 27/24 A3001 RMK AO2 SLP165
     T02720237=
KMMT 081355Z 29006KT 10SM CLR 31/21 A2999 RMK AO2A RAB1256E1305
     SLP154 P0000 T03100213=
KMXF 081355Z AUTO 00000KT 10SM CLR 30/24 A3003 RMK AO2 SLP168
     T03000242=
KSKA 081355Z AUTO 07007KT 10SM CLR 18/10 A3008 RMK AO2 SLP173
     T01750096=
KSVN 081355Z 28007KT 10SM SKC 30/21 A2998 RMK SLP155=
KTBN 081355Z 25004KT 10SM SCT005 OVC039 25/21 A3010 RMK AO2A
     SLP175 T0247 $=
KTIK 081355Z AUTO 01003KT 10SM BKN007 24/22 A3007 RMK AO2 SLP172
     T02410225 $=
KVAD 081355Z AUTO 33007KT 9SM CLR 29/20 A3003 RMK AO2 SLP167
     T02910204 $=
PGUA 081355Z AUTO 10009KT 10SM CLR 25/ A2991 RMK AO2 RAB1325E1335
     SLP110 P0001 T0253 402960252 VISNO RWY24L $=
KFBG 081355Z AUTO 03005KT 10SM CLR 32/22 A2997 RMK AO2 SLP147
     T03160217 $=
KGTB 081355Z AUTO VRB05KT 10SM CLR 30/22 A3004 RMK AO2 SLP170
     T03020222=
KGUS 081355Z AUTO 25006KT 10SM CLR 26/22 A3004 RMK AO2 RAE1300
     SLP167 P0000 T02610221 $=
PGUA 081355Z AUTO 10009KT 10SM CLR 25/ A2991 RMK AO2 RAB1325E1335
     SLP110 P0001 T0253 402960252 VISNO RWY24L $=
PHHI 081355Z AUTO 06005KT 10SM BKN049 20/18 A3002 RMK AO2
     RAB1259E1309DZE1312 SLP156 P0000 T02040184=
PHNL 081353Z 05007KT 10SM SCT060 24/18 A3001 RMK AO2 SLP160
     T02390178=
KLRF 081355Z AUTO VRB05KT 10SM CLR 27/23 A3009 RMK AO2 SLP188
     T02710233=
KNQX 081353Z 03005KT 10SM SCT022 BKN100 BKN200 30/25 A2996 RMK AO2
     SLP145 T2 SET T03000250 $=
KNRB 081352Z VRB03KT 10SM CLR 28/19 A3002 RMK AO2 SLP165
     T02780194=
KOZR 081355Z 00000KT 10SM CLR 29/26 A3004 RMK AO2A SLP169
     T02910258=
KSSC 081355Z AUTO 31007KT 10SM CLR 30/21 A2997 RMK AO2 SLP146
     T03020213 $=
KVAD 081355Z AUTO 33007KT 9SM CLR 29/20 A3003 RMK AO2 SLP167
     T02910204 $=
KWRB 081355Z 36006KT 10SM CLR 30/22 A3003 RMK AO2A SLP166
     T02970219 $=
KDLF 081355Z AUTO 04004KT 10SM FEW012 26/23 A2999 RMK AO2 SLP140
     T02570225 $=
KLSF 081355Z 00000KT 10SM SKC 29/22 A3003 RMK AO2A DZE1317 SLP169
     P0000 T02880219 $=
KLSV 081355Z AUTO 00000KT 10SM FEW150 24/M02 A2987 RMK AO2 SLP095
     T02421024 PWINO=
KLUF 081355Z 05003KT 10SM SCT170 29/07 A2981 RMK AO2A SLP062
     T02900070 $=
####018003681####
SAUS80 KWBC 081400
METAR
KDMH 081354Z AUTO 30/22 A3003 RMK AO2 SLP168 T03000222 PWINO
     TSNO=
KDVL 081355Z AUTO 32010KT 10SM CLR 18/11 A3011 RMK AO1=
KEAR 081355Z AUTO 01005KT 10SM FEW060 18/16 A3025 RMK AO1=
KGPZ 081355Z AUTO 29006KT 10SM CLR 20/14 A3007 RMK AO1=
KSUS 081354Z 00000KT 10SM -RA SCT012 BKN150 25/23 A3005 RMK AO2
     SLP165 P0003 T02500233=
KSYR 081354Z 00000KT 8SM CLR 30/22 A3004 RMK AO2 SLP166
     T03000217=
KLEX 081354Z 19006KT 5SM HZ CLR 29/19 A3010 RMK AO2 SLP182
     T02940189=
KLYH 081354Z 02004KT 6SM HZ CLR 31/19 A3006 RMK AO2 SLP165
     T03110189=
KBUF 081354Z 21005KT 10SM FEW095 29/19 A3004 RMK AO2 SLP168 ACC S
     T02940189=
KCOS 081354Z 17003KT 10SM CLR 15/12 A3037 RMK AO2 SLP230
     T01500117=
KCRW 081354Z 00000KT 5SM HZ CLR 27/21 A3010 RMK AO2 SLP182
     T02720206=
KDSM 081354Z 01009KT 10SM FEW015 SCT150 BKN250 23/18 A3012 RMK AO2
     SLP191 T02330183=
PHOG 081354Z AUTO 05006KT 10SM SCT065 23/17 A3000 RMK AO2 SLP164
     T02280167 TSNO=
KORH 081354Z 22007KT 10SM BKN014 OVC019 24/21 A3012 RMK AO2 SLP194
     T02390206=
KPIA 081354Z 31003KT 10SM FEW008 OVC016 24/22 A3006 RMK AO2 SLP173
     T02390217=
KROC 081354Z 24005KT 9SM CLR 29/21 A3004 RMK AO2 SLP169
     T02890211=
KMTP 081354Z AUTO 07006KT 23/20 A3009 RMK AO2 SLP190 T02280200
     PWINO TSNO=
KNAK 081354Z AUTO 14009KT 3SM HZ FEW015 27/23 A3003 RMK AO2 SLP169
     T02720233 TSNO $=
KGSO 081354Z 02007KT 5SM HZ CLR 31/19 A3004 RMK AO2 SLP157
     T03110189=
KACY 081354Z 12004KT 4SM -RA BR SCT022 BKN060 24/22 A3005 RMK AO2
     SLP176 P0003 T02390222=
K4BM 081354Z AUTO 23005KT M1/4SM -SN 04/04 A3063 RMK AO2=
KAAF 081353Z AUTO 02006KT 10SM CLR 29/23 A3002 RMK AO2 SLP165
     T02940233=
KSMS 081355Z AUTO 33004KT 9SM CLR 29/21 A2998 RMK AO2=
KOQT 081353Z AUTO 00000KT 6SM HZ CLR 29/21 A3011 RMK AO2 SLP174
     T02890211 TSNO=
KABI 081352Z 00000KT 9SM OVC005 23/22 A3008 RMK AO2 SLP165
     T02280217=
KAVP 081354Z 00000KT 7SM CLR 29/19 A3006 RMK AO2 SLP167 T02890189
     $=
KBTV 081354Z 20006KT 7SM CLR 29/22 A3001 RMK AO2 SLP161
     T02940222=
KCBE 081353Z AUTO 00000KT 7SM CLR 27/20 A3010 RMK AO1=
KCHA 081353Z 00000KT 9SM CLR 30/20 A3008 RMK AO2 SLP177
     T03000200=
KCNK 081355Z AUTO 35005KT 10SM OVC044 21/18 A3018 RMK AO2 SLP208
     T02110183=
KCRP 081351Z COR 03006KT 10SM SCT022 SCT040 BKN060 27/25 A2985 RMK
     AO2 RAE31 SLP106 CB DSNT E TCU DSNT NE SE S SW P0001
     T02670250 $=
KDLH 081355Z 27008KT 10SM CLR 22/14 A3006 RMK AO2 SLP177
     T02170139=
KFWA 081354Z 20006KT 9SM OVC050 28/21 A3005 RMK AO2 SLP170
     T02830211=
KGPI 081355Z 35005KT 10SM CLR 16/08 A3019 RMK AO2 SLP207
     T01560083=
KIRK 081355Z AUTO 01009KT 10SM FEW008 23/21 A3010 RMK AO2 SLP188
     T02280206=
KLIC 081355Z AUTO 14005KT 10SM FEW004 14/14 A3035 RMK AO2 SLP227
     T01440139=
KLXV 081353Z AUTO 00000KT 10SM OVC008 07/05 A3053 RMK AO2 CIG
     005V012 SLP213 T00670050 TSNO=
KMKG 081355Z 20009KT 5SM BR BKN007 BKN030 OVC045 23/22 A3003 RMK
     AO2 RAB03E55 SLP164 P0004 T02330217=
KMSN 081353Z 32004KT 8SM BKN008 24/21 A3003 RMK AO2 SLP164
     T02390211=
KMWT 081353Z AUTO 00000KT 10SM FEW017 BKN049 26/23 A3008 RMK AO2
     SLP177 T02560233 TSNO=
KRNO 081355Z 00000KT 10SM FEW100 BKN150 21/06 A3007 RMK AO2 SLP124
     VIRGA DSNT NE NW T02060056=
KSAV 081353Z 29008KT 10SM CLR 30/19 A3000 RMK AO2 SLP156 T03000194
     $=
KSBN 081354Z 10005KT 7SM BKN090 23/22 A3004 RMK AO2 RAE38 SLP166
     P0005 T02330217=
KSCK 081355Z AUTO 03004KT 10SM CLR 14/11 A2986 RMK AO2 SLP110
     T01440111=
####018003709####
SAUS70 KWBC 081400 RRC
METAR
KPTV 081355Z AUTO 16003KT 10SM CLR 18/11 A2988 RMK AO1=
KPTW 081354Z AUTO VRB03KT 5SM HZ CLR 31/21 A3005 RMK AO2 SLP169
     T03110211=
KPVC 081355Z 17009G17KT 150V210 10SM FEW015 26/22 A3011 RMK
     AO1=
KPWG 081355Z AUTO 08005KT 10SM BKN011 BKN019 OVC050 26/23 A3003
     RMK AO1=
KPWT 081355Z AUTO 03008KT 10SM CLR 23/07 A2999 RMK AO1=
KRBL 081354Z AUTO 16004KT 10SM CLR 22/14 A2985 RMK AO2 SLP104
     T02170144=
KRDG 081354Z 13003KT 8SM CLR 31/21 A3002 RMK AO2 SLP166
     T03060211=
KRKD 081355Z AUTO 21009KT 7SM OVC003 20/19 A3013 RMK AO1=
KRKS 081354Z AUTO 07014KT 10SM CLR 11/07 A3037 RMK AO2 SLP219
     T01110067=
KRST 081354Z 35009KT 10SM CLR 22/17 A3013 RMK AO2 SLP198
     T02170172=
KBUR 081353Z 18003KT 4SM HZ OVC007 16/13 A2991 RMK AO2 SLP120
     T01560128=
KTOI 081353Z 00000KT 10SM CLR 29/24 A3005 RMK AO2 SLP169
     T02940239=
TIST 081353Z 06009KT 10SM CLR 31/24 A3001 RMK AO2 SLP164
     T03110244=
TISX 081353Z 12015G19KT 10SM SCT020 31/24 A3002 RMK AO2 SLP163
     T03110239=
KIWA 081347Z 08009KT 45SM FEW120 33/09 A2984=
K0A9 081355Z AUTO 00000KT 10SM CLR 27/18 A3012 RMK=
K5SM 081353Z AUTO 00000KT 10SM CLR 11/03 A3059 RMK AO2=
K7BM 081356Z AUTO 00000KT 10SM BKN002 08/07 A3054 RMK AO2=
KAEG 081355Z AUTO 14015KT 10SM CLR 18/08 A3032 RMK AO1=
KASG 081348Z 16006KT 10SM BKN020 OVC043 24/21 A3010=
KBBP 081355Z AUTO 32004KT 10SM CLR 31/20 A2996 RMK AO2=
KBDU 081357Z AUTO 00000KT 10SM OVC036 17/12 A3034 RMK AO2=
KBKN 081355Z AUTO 02008KT 10SM CLR 23/22 A3008 RMK AO2=
KCCU 081356Z AUTO 19010KT 10SM CLR 08/01 A3064 RMK AO2=
KCIC 081355Z AUTO 14005KT 10SM CLR 19/12 A2985 RMK AO1=
KDHN 081353Z 35003KT 10SM CLR 30/24 A3008 RMK AO2 SLP178
     T03000239=
KGGE 081355Z AUTO 32005KT 10SM CLR 30/22 A2994 RMK AO2=
KGZH 081353Z AUTO 00000KT 10SM CLR 29/23 A3006 RMK AO2 SLP174
     T02890233=
KLUX 081355Z AUTO 00000KT 10SM CLR 29/24 A3004 RMK AO2=
KMAI 081353Z AUTO 00000KT 10SM CLR 29/24 A3003 RMK AO2 SLP166
     T02940239=
KMAO 081355Z AUTO 01006KT 10SM CLR 30/21 A2995 RMK AO2=
KOGB 081353Z AUTO 34004KT 10SM CLR 31/21 A2999 RMK AO2 SLP153
     T03110206=
KPSO 081355Z AUTO 00000KT 10SM CLR 15/05 A3041 RMK AO2=
KRCE 081355Z AUTO 00000KT 9SM BKN006 24/22 A3009 RMK AO2=
KSUN 081353Z 30012KT 30SM SKC 11/01 A3026=
KVLD 081353Z VRB03KT 10SM CLR 29/21 A3003 RMK AO2 SLP174
     T02940206=
KWYS 081350Z AUTO 00000KT 10SM CLR 07/01 A3038 RMK AO2=
KX40 081355Z AUTO 00000KT 10SM SCT018 29/22 A3003 RMK AO2
     T02850223=
KBRO 081353Z 32006KT 10SM FEW033 SCT060 27/25 A2979 RMK AO2 SLP085
     T02670250=
KFLL 081353Z 07008KT 10SM SCT023 30/24 A2996 RMK AO2 SLP144
     T03000244=
KJFK 081351Z 15006KT 8SM SCT020 BKN065 BKN130 BKN250 27/22 A3006
     RMK AO2 RAB21E41 SLP178 P0000 T02720222=
KMCO 081353Z VRB03KT 10SM SCT026 SCT250 27/19 A3002 RMK AO2 SLP163
     T02720194=
KPBI 081353Z 06005KT 10SM BKN024CB BKN031 BKN055 32/28 A2997 RMK
     AO2 RAE05 SLP147 CB OHD-SW-NE MOV SW P0000 T03170279 $=
TIST 081353Z 06009KT 10SM CLR 31/24 A3001 RMK AO2 SLP164
     T03110244=
TISX 081353Z 12015G19KT 10SM SCT020 31/24 A3002 RMK AO2 SLP163
     T03110239=
KTTS 081355Z VRB04KT 10SM SCT029 SCT290 28/22 A3001 RMK SLP162 3CU
     /3/ 1CI /4/=
PASC 081353Z 24015KT 10SM OVC230 09/05 A3003 RMK AO2 SLP168
     T00890050=
TJBQ 081350Z 08008KT 10SM SCT020 31/26 A3003=
TJMZ 081350Z 04009KT 6SM HZ FEW040 33/26 A3002=
K2G4 081350Z AUTO 34004KT 10SM CLR 25/15 A3019 RMK AO1=
K2W6 081353Z AUTO 10006KT 10SM BKN016 BKN022 BKN070 27/23 A3004
     RMK AO1=
KAIT 081353Z AUTO 26005KT 10SM CLR 21/19 A3007 RMK AO2=
####018000110####
SAXX60 KWBC 081400 CCA
METAR
KNJK 081356Z 10003KT 10SM CLR 24/18 A2973 RMK AO2 SLP082
     T02440178=
####018000091####
SAUS70 KWBC 071400 RRO
METAR
KVTP 081400Z AUTO 00000KT 10SM CLR 10/04 A3056 RMK AO2=
####018000461####
SAUS80 KWBC 081400 CCA
METAR
KSDB 081352Z AUTO 00000KT 10SM CLR 22/M02 A3003 RMK AO2 SLP111
     T02221022 TSNO $=
KSDM 081353Z AUTO 00000KT 8SM OVC010 16/13 A2992 RMK AO2 SLP128
     T01610133 TSNO=
KLAX 081353Z 27006KT 7SM BCFG FEW009 OVC011 16/13 A2992 RMK AO2
     SLP130 T01610128=
KTRI 081353Z 00000KT 5SM HZ CLR 27/19 A3012 RMK AO2 SLP178
     T02720194=
KTYS 081353Z 08004KT 6SM HZ CLR 29/20 A3008 RMK AO2 SLP173
     T02890200=
####018000511####
SAPQ50 KWBC 081400 RRB
METAR
PTYA 081352Z VRB05KT 12SM SCT016CB BKN130 OVC300 27/24 A2990 RMK
     LTGIC SW-W CB VC SE-SW-NW SLP123 T02740238=
PGSN 081354Z 11009KT 10SM FEW023 28/24 A2992 RMK AO2 SLP128
     T02780244 403720267=
PGSN 081354Z 11009KT 10SM FEW023 28/24 A2992 RMK AO2 SLP128
     T02780244 403720267=
PGUM 081354Z 11008KT 10SM FEW020 28/24 A2990 RMK AO2 SLP117
     T02780244 403220261=
PTKK 081350Z 05006KT 15SM FEW014 BKN120 OVC280 26/23 A2985 RMK
     SLP111 T02610228=
####018000109####
SPXX60 KWBC 081358
SPECI
KNFG 081348Z AUTO 00000KT 10SM SCT011 OVC018 16/14 A2991 RMK AO2
     TSNO=
####018000103####
SPUS80 KWBC 081358
SPECI
KCID 081354Z 33007KT 7SM BKN007 22/20 A3007 RMK AO2 CIG
     006V010=
####018003743####
SAUS70 KWBC 081400 RRB
METAR
KAKR 081354Z AUTO 21005KT 10SM CLR 29/18 A3008 RMK AO2 SLP175
     T02890183=
KALO 081354Z AUTO 34010KT 10SM CLR 22/19 A3009 RMK AO2 SLP186
     T02220194=
KAPC 081354Z 26009KT 10SM OVC006 12/10 A2992 RMK AO2 SLP123
     T01170100=
KARG 081355Z AUTO 22006KT 10SM OVC095 27/23 A3008 RMK AO1=
KAUO 081355Z AUTO 03005KT 10SM CLR 31/21 A3005 RMK AO1=
KAUW 081354Z AUTO 31005KT 10SM SCT006 BKN012 21/18 A3004 RMK AO2
     SLP172 P0001 T02060183=
KAVL 081354Z 35007KT 8SM CLR 27/19 A3015 RMK AO2 SLP179
     T02670189=
KAWO 081355Z AUTO 00000KT 10SM CLR 16/14 A2999 RMK AO1=
KBFL 081354Z 00000KT 10SM CLR 22/12 A2986 RMK AO2 SLP106
     T02170117=
KBHB 081355Z AUTO 19010KT 7SM OVC003 19/18 A3014 RMK AO1=
KBID 081355Z AUTO 09006KT 10SM OVC005 23/22 A3009 RMK AO1=
KBKX 081355Z AUTO 26005KT 10SM CLR 21/16 A3017 RMK AO1=
KBLM 081355Z AUTO 16008KT 10SM BKN012 BKN060 OVC075 26/19 A3008
     RMK AO1=
KBOS 081354Z 15008KT 10SM SCT220 26/20 A3009 RMK AO2 SLP190
     T02610200=
KBTP 081355Z AUTO 16003KT 8SM CLR 27/21 A3010 RMK AO1=
KBUY 081354Z AUTO 01007KT 5SM HZ CLR 32/19 A3001 RMK AO2 SLP153
     T03170194=
KBVX 081355Z AUTO 25005KT 10SM BKN085 OVC110 27/22 A3009 RMK
     AO1=
KBWI 081354Z 12008KT 5SM HZ FEW024 31/22 A3002 RMK AO2 SLP164
     T03060222=
KCEU 081354Z AUTO 00000KT 9SM CLR 30/21 A3006 RMK AO2 SLP165
     T03000211=
KCGZ 081355Z AUTO 00000KT 10SM CLR 28/01 A2984 RMK AO1=
KCIU 081355Z AUTO 02010KT 10SM SCT006 OVC012 21/18 A3000 RMK
     AO1=
KCOD 081355Z 00000KT 10SM CLR 13/03 A3034 RMK AO1=
KCOE 081355Z AUTO 05008KT 10SM CLR 17/09 A3010 RMK AO1=
KCVN 081355Z AUTO 04014KT 10SM CLR 18/14 A3026 RMK AO1=
KCVO 081355Z AUTO 28004KT 10SM CLR 13/10 A2995 RMK AO1=
KCWI 081355Z 34004KT 10SM SCT005 A3006 RMK AO1=
KDDH 081354Z AUTO 00000KT 5SM HZ CLR 28/22 A3006 RMK AO2 SLP173
     T02780217=
KDEC 081354Z 00000KT 10SM SCT007 28/23 A3005 RMK AO2 SLP170
     T02780228=
PHMK 081354Z AUTO 03008KT 10SM FEW060 22/17 A3002 RMK AO2 SLP167
     T02170172 TSNO=
KMRF 081355Z AUTO 03008KT 10SM CLR 21/16 A3021 RMK AO1=
KMRY 081354Z 00000KT 10SM OVC006 13/10 A2995 RMK AO2 SLP154
     T01280100=
KMSV 081355Z AUTO 13004KT 10SM CLR 29/19 A3010 RMK AO1=
KMTW 081355Z 27004KT 7SM SCT010 OVC014 23/22 A3001 RMK AO1=
KMVL 081354Z AUTO 15003KT 6SM HZ CLR 29/23 A3006 RMK AO2 SLP175
     T02890228=
KMVN 081355Z AUTO 24008KT 10SM BKN060 29/23 A3006 RMK AO1=
KOCH 081355Z AUTO 12009KT 10SM SCT011 OVC110 26/19 A3004 RMK
     AO1=
KOFP 081354Z AUTO VRB05KT 6SM HZ FEW090 31/22 A3002 RMK AO2 SLP163
     T03060217=
KOKK 081355Z AUTO 17003KT 5SM FEW070 OVC085 A3004 RMK AO1=
KOLM 081354Z AUTO 00000KT 10SM CLR 15/12 A2997 RMK AO2 SLP146
     T01500122=
KOLS 081354Z AUTO 05007KT 10SM CLR 27/11 A3002 RMK AO2 SLP082
     T02720106=
KOLU 081355Z AUTO 36004KT 10SM CLR 21/16 A3020 RMK AO1=
KOTG 081355Z AUTO 30008KT 10SM CLR 21/16 A3017 RMK AO1=
KOTH 081355Z 00000KT 10SM OVC006 10/08 A3000 RMK AO1=
KPHF 081354Z 09008KT 10SM FEW021 28/22 A3001 RMK AO2 SLP161
     T02780217=
KPHL 081354Z 14005KT 7SM FEW028 SCT110 28/21 A3004 RMK AO2 SLP173
     T02830211=
KPIB 081355Z AUTO 01003KT 10SM CLR 28/22 A3008 RMK AO1=
KPLN 081354Z AUTO 26004KT 6SM -RA BR OVC005 22/21 A3000 RMK AO2
     CIG 005V009 SLP157 P0002 T02170211=
KPNE 081354Z 13006KT 7SM BKN015 27/23 A3005 RMK AO2 SLP176
     T02720233=
KPQI 081355Z AUTO 13006KT 10SM CLR 26/22 A2999 RMK AO1=
KPRX 081355Z 16006KT 8SM FEW009 SCT018 OVC049 26/23 A3006 RMK
     AO1=
KPSF 081354Z AUTO VRB03KT 6SM HZ CLR 27/22 A3009 RMK AO2 SLP157
     T02720217=
KPTN 081355Z AUTO 10008KT 10SM SCT012 29/M06 A3005 RMK AO1=
####018000091####
SPUS70 KWBC 081358
SPECI
KMHT 081355Z 21005KT 7SM SCT020 BKN045 27/21 A3007 RMK AO2=
####018000091####
SAUS70 KWBC 081300 RRK
METAR
KMYP 081256Z AUTO 20011KT 10SM CLR 05/03 A3075 RMK AO2=
####018001866####
SAUS70 KWBC 081400 RRF
METAR
PAHY 081356Z AUTO 36003KT 10SM CLR 15/10 A3012 RMK AO1 PNO=
PAII 081356Z AUTO 01003KT 10SM CLR 09/07 A2997 RMK AO1 PNO=
PAIN 081356Z AUTO 00000KT 10SM CLR 06/05 A3006 RMK AO1 PNO=
PAJC 081356Z AUTO 19005KT 10SM FEW010 OVC017 06/03 A2992 RMK AO1
     PNO=
PAKK 081356Z AUTO 01011G16KT 10SM CLR 11/06 A3004 RMK AO1 PNO=
PAKP 081356Z AUTO 02005KT 10SM CLR 08/02 A3010 RMK AO1=
PAMD 081356Z AUTO 08017KT 2SM OVC003 09/08 A3004 RMK AO1 PNO=
PAMH 081356Z 00000KT 10SM CLR 13/06 A2998 RMK AO1 PNO=
PAMM 081356Z AUTO 33007KT 10SM CLR 17/11 A3010 RMK AO1 PNO=
PAMY 081356Z 28005KT 1/2SM OVC001 03/02 A3005 RMK AO1=
PANI 081356Z AUTO 00000KT 1 1/2SM OVC002 06/04 A3000 RMK AO1
     PNO=
PANV 081356Z AUTO 06006KT 10SM CLR 13/08 A2998 RMK AO1 PNO=
PAOU 081356Z AUTO 08006KT 1/2SM FG OVC004 06/06 A2992 RMK AO2
     PWINO TSNO T00610055 SLP136 $=
PAPG 081356Z 00000KT 10SM CLR 13/10 A3014 RMK AO1 PNO=
PAPH 081356Z AUTO 16005KT 3/4SM OVC004 03/01 A2994 RMK AO1 PNO=
PARC 081356Z AUTO 00000KT 10SM CLR 08/02 A3006 RMK AO1 PNO=
PASA 081356Z AUTO 00000KT M1/4SM OVC001 03/01 A3018 RMK AO1
     PNO=
PASD 081356Z AUTO 00000KT 10SM BKN031 06/05 A2992 RMK AO1 PNO=
PASH 081356Z AUTO 00000KT 10SM CLR 07/05 A3016 RMK AO1 PNO=
PASK 081356Z 26007KT 10SM CLR 12/09 A3010 RMK AO1 PNO=
PASL 081356Z AUTO 35003KT 10SM FEW090 11/08 A3000 RMK AO1 PNO=
PASM 081356Z AUTO 04003KT 10SM SCT075 OVC100 10/09 A3002 RMK AO1
     PNO=
PASX 081356Z 11005KT 10SM OVC070 13/09 A2995 RMK AO1 PNO=
PAUN 081356Z AUTO 06012KT 10SM CLR 13/04 A3001 RMK AO1 PNO=
PAVD 081356Z 00000KT 10SM FEW001 BKN080 BKN120 10/07 A3009 RMK AO1
     1347Z WEA: NONE TWR WND 18004KT FIRST PNO=
PAWG 081356Z 28004KT 10SM CLR 13/10 A3014 RMK AO1 WEA:NONE RJ
     PNO=
PAWN 081356Z AUTO 34005KT 10SM CLR 08/01 A3015 RMK AO1 PNO=
####018003744####
SAUS70 KWBC 081400 RRE
METAR
KE80 081355Z AUTO 00000KT 10SM CLR 20/12 A3028 RMK AO2
     T01960120=
KEDC 081355Z AUTO 07007KT 25/25 A3000 RMK AO2=
KEED 081356Z AUTO 00000KT 10SM CLR 28/M01 A2980 RMK AO2 SLP053
     T02781011 TSNO=
KEIK 081355Z AUTO 34003KT 10SM BKN010 OVC017 13/12 A3034 RMK
     AO2=
KEKO 081356Z AUTO 00000KT 10SM CLR 13/M02 A3015 RMK AO2 SLP156
     T01331022=
KFMH 081355Z AUTO 16008KT 10SM BKN015 BKN020 25/21 A3011 RMK
     AO2=
KGON 081356Z 11008KT 5SM HZ FEW003 SCT022 25/21 A3007 RMK AO2
     SLP183 T02500211=
KGRD 081356Z AUTO 00000KT 10SM CLR 30/21 A3004 RMK AO2 SLP162
     T03000211=
KHND 081356Z 19007KT 10SM CLR 26/M03 A2992 RMK AO2 T02611027
     SLP076=
KHVS 081355Z AUTO 00000KT 10SM CLR 31/21 A2999 RMK AO2=
KHYA 081356Z 15007KT 10SM CLR 24/21 A3010 RMK AO2 SLP194
     T02440206=
KIFP 081355Z AUTO 00000KT 10SM CLR 29/00 A2979 RMK AO2=
KIGX 081356Z AUTO 02004KT 6SM HZ CLR 30/20 A3001 RMK AO2 SLP154
     T03000200=
PHJR 081353Z VRB03KT 10SM FEW060 22/17 A3002 RMK AO2 SLP170
     T02220172=
PHMK 081354Z AUTO 03008KT 10SM FEW060 22/17 A3002 RMK AO2 SLP167
     T02170172 TSNO=
KJMS 081356Z AUTO 27007KT 10SM CLR 19/14 A3011 RMK AO2 SLP193
     T01940139=
KLAS 081356Z 20007KT 10SM SCT150 27/M02 A2986 RMK AO2 SLP079
     T02721017=
KM19 081356Z AUTO VRB05KT 10SM CLR 28/23 A3009 RMK AO2 T02830233
     SLP187=
KMAN 081355Z AUTO 14003KT 10SM CLR 15/03 A3009 RMK AO1=
KMQY 081356Z 04004KT 10SM CLR 32/22 A3010 RMK AO2 T03160222
     SLP181=
KMRH 081356Z AUTO 05009KT 10SM FEW023 BKN120 30/23 A2994 RMK AO2
     SLP137 T03000233 TSNO=
KNQA 081355Z COR 32005KT 10SM FEW150 31/24 A3009 RMK=
KPVF 081355Z AUTO 07005KT 10SM CLR 22/10 A2994 RMK AO1=
KRDM 081356Z 16003KT 10SM CLR 14/03 A3009 RMK AO2 SLP163 T01440033
     $=
KSBP 081356Z 27003KT 5SM BR OVC007 13/12 A2994 RMK AO2 SLP138
     T01280117=
KSGH 081356Z 00000KT 5SM HZ CLR 29/22 A3010 RMK AO2 T02880222
     SLP183=
KSLE 081356Z 14004KT 10SM CLR 15/12 A2992 RMK AO2 SLP132
     T01500117=
KSRC 081356Z AUTO 21006KT 10SM CLR 27/23 A3010 RMK AO2 TSNO
     T02720233 SLP193=
KSRR 081355Z AUTO 00000KT 10SM OVC006 14/13 A3038 RMK AO2=
KTME 081355Z AUTO 06008KT 10SM FEW012 FEW041 SCT080 25/25 A2998
     RMK AO1=
KTPH 081356Z AUTO 01009KT 10SM CLR 17/M03 A3013 RMK AO2 SLP125
     T01671033=
KTTS 081355Z VRB04KT 10SM SCT029 SCT290 28/22 A3001 RMK SLP162 3CU
     /3/ 1CI /4/=
KUKI 081356Z AUTO 00000KT 10SM CLR 12/10 A2991 RMK AO2 SLP123
     T01170100=
KUOX 081355Z AUTO 00000KT 10SM CLR 28/22 A3010 RMK AO2=
KWJF 081356Z 00000KT 10SM CLR 17/04 A2992 RMK AO2 SLP114
     T01670039=
KY51 081355Z AUTO 30007KT 10SM BKN011 23/20 A3009 RMK AO1
     T02250195=
PAAK 081356Z AUTO 07025G33KT 10SM FEW015 BKN027 OVC085 07/03 A2949
     RMK AO1 PNO=
PAHP 081356Z AUTO 33006KT 10SM CLR 09/07 A3003 RMK AO1 PNO
     TSNO=
PAWS 081356Z AUTO 00000KT 10SM CLR 12/08 A2998 RMK AO1 PNO=
PAZK 081356Z AUTO 02006KT 10SM CLR 08/03 A3007 RMK AO1 PNO=
PAAK 081356Z AUTO 07025G33KT 10SM FEW015 BKN027 OVC085 07/03 A2949
     RMK AO1 PNO=
PABL 081356Z AUTO 23003KT 1/2SM VV005 04/03 A3015 RMK AO1 PNO=
PABV 081356Z AUTO 19003KT 10SM FEW065 BKN100 BKN120 11/07 RMK AO1
     PNO=
PADL 081356Z 28004KT 10SM FEW039 09/08 A2996 RMK AO1 PNO TSNO=
PAEM 081356Z AUTO 33005KT 10SM OVC075 12/09 A3000 RMK AO1 PNO=
PAFE 081356Z AUTO 07004KT 10SM CLR 11/09 A3017 RMK AO1 PNO=
PAFM 081356Z AUTO 29003KT 10SM CLR 11/08 A3009 RMK AO1 PNO=
PAGL 081356Z AUTO 10SM CLR 13/08 A3014 RMK AO1 PNO=
PAGS 081356Z AUTO 00000KT 10SM CLR 09/08 A3018 RMK AO1 PNO=
PAHP 081356Z AUTO 33006KT 10SM CLR 09/07 A3003 RMK AO1 PNO
     TSNO=
####018002500####
SAUS80 KWBC 081400 RRA
METAR
KTLH 081353Z 33005KT 10SM CLR 29/22 A3003 RMK AO2 SLP168
     T02890222=
KRFD 081354Z 32006KT 10SM FEW006 SCT013 BKN150 26/21 A3005 RMK AO2
     SLP172 T02560206=
KANJ 081355Z AUTO 27006KT 9SM BKN004 BKN012 19/18 A2998 RMK AO2
     RAE11 CIG 003V008 SLP146 P0000 T01940183=
KCAO 081355Z AUTO 36008KT 10SM FEW014 17/13 A3031 RMK AO2 SLP209
     T01720133 TSNO=
KPHP 081355Z AUTO VRB06KT 10SM CLR 18/12 A3023 RMK AO2 SLP221
     T01830117 TSNO=
KSHV 081356Z 14006KT 10SM BKN110 OVC280 27/24 A3006 RMK AO2 SLP175
     T02670239=
KHON 081355Z AUTO 31004KT 10SM CLR 20/15 A3016 RMK AO2 SLP210
     T02000150=
KINL 081355Z AUTO 24006KT 10SM CLR 19/14 A3002 RMK AO2 SLP164
     T01890144=
KMBG 081355Z AUTO 26004KT 10SM CLR 19/11 A3016 RMK AO2 SLP204
     T01940106 TSNO=
TJSJ 081356Z 08010KT 10SM FEW023 SCT036 31/24 A3002 RMK AO2 SLP163
     T03060244=
KJAX 081356Z 29005KT 10SM CLR 28/20 A3002 RMK AO2 SLP165
     T02780200=
KABQ 081356Z 10013G20KT 10SM FEW050 SCT100 BKN200 20/09 A3030 RMK
     AO2 SLP181 MTN TOPS OBSC NE AND SE T02000094=
KCHS 081356Z 33007KT 8SM CLR 30/21 A2996 RMK AO2 SLP144
     T03000206=
KBZN 081356Z 00000KT 10SM CLR 13/06 A3030 RMK AO2 SLP228
     T01330061=
PHKO 081353Z AUTO 13005KT 10SM OVC060 23/17 A2995 RMK AO2 SLP143
     T02330172 TSNO=
PHOG 081354Z AUTO 05006KT 10SM SCT065 23/17 A3000 RMK AO2 SLP164
     T02280167 TSNO=
PHTO 081353Z 24006KT 10SM FEW044 OVC055 21/18 A3002 RMK AO2 RAE08
     SLP163 P0002 T02060183=
KINW 081356Z AUTO 10003KT 10SM FEW120 22/02 A3015 RMK AO2 SLP125
     T02170017 $=
KMOB 081356Z 36003KT 10SM SCT025 29/24 A3006 RMK AO2 SLP176
     T02890239=
KOFK 081356Z AUTO 33003KT 10SM CLR 21/15 A3021 RMK AO2 SLP222
     T02110150=
KSFO 081356Z 29009KT 10SM OVC008 13/10 A2995 RMK AO2 SLP140
     T01330100=
KGNR 081356Z AUTO VRB06KT 22/21 A3009 RMK AO1 SLP183 T02170206=
KMEH 081356Z AUTO 00000KT 10SM CLR 09/06 A3013 RMK AO2 SLP181
     T00940061 TSNO=
KP60 081356Z AUTO 00000KT 08/01 A3045 RMK AO2 SLP246 T00830006
     PWINO TSNO=
KCDJ 081356Z AUTO 06004KT 24/22 A3011 RMK AO2 SLP184 T02390217
     PWINO TSNO=
KGNA 081356Z AUTO 00000KT 19/16 A3000 RMK AO2 SLP153 T01890161
     PWINO TSNO=
PADK 081356Z 04016G19KT 7SM OVC015 07/07 A2946 RMK AO1 PNO=
KCAE 081356Z VRB04KT 10SM CLR 32/21 A2999 RMK AO2 SLP152
     T03170206=
KROC 081354Z 24005KT 9SM CLR 29/21 A3004 RMK AO2 SLP169
     T02890211=
####018003673####
SAUS70 KWBC 081400
METAR
KDSV 081354Z AUTO 11005KT 10SM CLR 29/20 A3007 RMK AO2 SLP184
     T02890200=
KDYL 081354Z AUTO 17005KT 6SM HZ BKN016 27/23 A3005 RMK AO2 SLP167
     T02670228 TSNO=
KDYR 081355Z AUTO 26004KT 10SM CLR 29/22 A3009 RMK AO1=
KEEN 081355Z AUTO 19007KT 10SM FEW019 FEW048 27/22 A3008 RMK
     AO1=
KEHR 081355Z AUTO 22004KT 10SM CLR 31/22 A3007 RMK AO1=
KENV 081355Z 00000KT 10SM CLR 21/01 A3012 RMK AO1=
KESC 081355Z AUTO 30007KT 9SM BKN010 22/17 A2999 RMK AO1=
KEUG 081354Z 20007KT 10SM FEW170 SCT250 14/11 A2995 RMK AO2 SLP138
     T01390106=
KEUL 081355Z AUTO 00000KT 10SM CLR 16/07 A3010 RMK AO1=
KEVV 081354Z VRB04KT 10SM CLR 31/23 A3007 RMK AO2 SLP177
     T03060228=
KEWK 081355Z AUTO 03010KT 10SM OVC008 22/19 A3011 RMK AO1=
KEWN 081354Z 05008KT 9SM FEW015 28/24 A2996 RMK AO2 SLP145
     T02780239=
KFAM 081355Z AUTO 22005KT 6SM OVC100 26/23 A3010 RMK AO1=
KFIG 081354Z AUTO 00000KT 7SM FEW070 27/19 A3011 RMK AO2 SLP185
     T02670194=
KFKL 081355Z 10005KT 10SM CLR 28/19 A3013 RMK AO1=
KFLP 081355Z AUTO 20004KT 10SM FEW070 SCT110 25/22 A3009 RMK
     AO1=
KFNL 081355Z AUTO 34006KT 10SM FEW014 OVC047 15/14 A3034 RMK
     AO1=
KFOD 081355Z AUTO 35006KT 10SM CLR 21/17 A3015 RMK AO1=
KFRM 081355Z AUTO 10SM CLR 21/17 A3017 RMK AO1=
KGAD 081355Z AUTO 02005KT 10SM CLR 28/20 A3007 RMK AO1=
KGAI 081355Z 15006KT 7SM CLR 29/23 A3005 RMK AO1=
KGBD 081355Z AUTO 01010G14KT 10SM OVC008 19/18 A3019 RMK AO1=
KGCK 081354Z 02009KT 10SM BKN023 20/17 A3025 RMK AO2 SLP217
     T02000167=
KGCN 081354Z 00000KT 10SM CLR 17/02 A3026 RMK AO2 SLP140
     T01670017=
KGDV 081355Z AUTO 18005KT 10SM CLR 17/09 A3019 RMK AO1=
KGED 081354Z AUTO 11005KT 10SM CLR 26/22 A3004 RMK AO2 SLP172
     T02560222=
KGUC 081355Z AUTO 00000KT 10SM CLR 10/02 A3047 RMK AO1=
KGXY 081355Z AUTO 07006KT 7SM SCT008 BKN015 OVC021 16/13 A3033 RMK
     AO1=
KGYH 081355Z 00000KT 10SM CLR 32/19 A3005=
KHDN 081355Z 12006KT 10SM BKN120 12/07 A3035 RMK AO1=
KHEF 081355Z AUTO 09005KT 7SM CLR 30/23 A3002 RMK AO1=
KHEZ 081355Z AUTO 11003KT 10SM CLR 27/23 A3008 RMK AO1=
KHNB 081355Z AUTO 00000KT 10SM CLR 29/23 A3007 RMK AO1=
KHWD 081354Z 31006KT 10SM OVC007 13/11 A2993 RMK AO2 SLP146
     T01330111=
KHYI 081355Z AUTO 06009KT 3SM BKN009 BKN015 OVC050 26/24 A2997 RMK
     AO1 P0001=
KRUT 081355Z AUTO 00000KT 7SM CLR 28/22 A3005 RMK AO1=
KSBY 081354Z 11004KT 10SM SCT065 26/22 A3003 RMK AO2 SLP172
     T02560222=
KSDY 081355Z AUTO 16003KT 10SM BKN100 17/11 A3018 RMK AO1=
KSET 081354Z AUTO 00000KT 7SM OVC008 26/24 A3005 RMK AO2 RAE47
     SLP171 P0001 T02560244=
KSFM 081355Z 19004KT 8SM FEW012 OVC036 25/19 A3010 RMK AO1=
KSFZ 081355Z AUTO 20003KT 10SM FEW019 24/20 A3009 RMK AO1=
KSGT 081355Z 22003KT 10SM CLR A3009 RMK AO1=
KSGU 081355Z AUTO 00000KT 10SM CLR 23/01 A3001 RMK AO1=
KSJN 081354Z AUTO 13007KT 10SM FEW110 22/07 A3021 RMK AO2 SLP124
     T02220067=
KSKX 081355Z AUTO 35010KT 10SM CLR 15/07 A3041 RMK AO1=
KSLG 081355Z AUTO 18005KT 10SM OVC015 24/22 A3010 RMK AO1=
KSMN 081355Z AUTO 00000KT 10SM CLR 10/04 A3028 RMK AO1=
KSQI 081355Z 30006KT 10SM FEW009 OVC019 24/22 A3007 RMK AO1=
KSUE 081355Z AUTO 34006KT 10SM BKN018 OVC043 22/21 A3002 RMK
     AO1=
KTAD 081354Z AUTO 30003KT 10SM CLR 16/12 A3035 RMK AO2 SLP224
     T01560122=
KTPL 081355Z 08007KT 5SM BKN009 OVC015 25/23 A3002 RMK AO1=
KTQE 081354Z AUTO 36007KT 10SM CLR 22/18 A3017 RMK AO2 SLP203
     T02170178=
KTVF 081355Z AUTO 27008KT 10SM CLR 18/13 A3006 RMK AO1=
KUIN 081354Z AUTO 31003KT 10SM FEW004 SCT110 23/22 A3007 RMK AO2
     SLP178 T02330217=
####018000075####
SALY31 HLLB 081400
METAR HLLB 081350Z 35018KT 9999 FEW025 30/18 Q1016=
####018000111####
SAUS44 KMRX 081357
MTRNMM
METAR KNMM 081356Z 35004KT 10SM FEW250 30/22 A3007 RMK AO2 SLP189 
T03000217
####018000116####
SAUS42 KCHS 081357
MTRNBC
METAR KNBC 081356Z 30006KT 6SM HZ CLR 29/21 A2998 RMK AO2 SLP152 
T02940206 PNO $
####018000116####
SAUS44 KSHV 081357
MTRAQV
METAR KAQV 081356Z AUTO VRB05KT 10SM FEW008 27/24 A3004 RMK AO2 
SLP169 T02720239
####018000115####
SAUS43 KMQT 081357
MTRP53
METAR KP53 081356Z AUTO 03004KT 19/18 A2999 RMK AO2 SLP155 T01940183 
PWINO TSNO
####018000094####
SAAW34 KWBC 081345 RRB
METAR
OPPS 081355Z NE-12KTS 6000 HZ FEW040 FEW100 37/25 Q1001.8=
####018000115####
SAUS44 KBMX 081357
MTRPRN
METAR KPRN 081356Z AUTO 03003KT 10SM CLR 31/24 A3004 RMK AO2 SLP167 
T03060239 $
####018000112####
SAUS44 KMEG 081357 COR
MTRTUP
METAR KTUP 081353Z 05004KT 10SM CLR 29/22 A3008 RMK AO2 SLP182 
T02890222
####018000345####
SABX31 KWBC 081350 RRA
METAR
EBAW 081350Z 24006KT 160V290 CAVOK 31/13 Q1018 NOSIG=
EBBR 081350Z 17006KT 130V200 CAVOK 30/11 Q1019 NOSIG=
EBCI 081350Z VRB06KT CAVOK 30/10 Q1019 NOSIG=
EBLG 081350Z VRB02KT CAVOK 31/08 Q1019 NOSIG=
EBOS 081350Z 34005KT 310V020 CAVOK 22/15 Q1019 NOSIG=
ELLX 081350Z VRB04KT CAVOK 30/08 Q1020 NOSIG=
####018000130####
SAEN31 KWBC 081350 RRA
METAR
EFIV 081350Z 16006KT 130V280 CAVOK 22/07 Q1015=
EFKE 081350Z AUTO 21007KT CAVOK 21/11 Q1015=
####018000193####
SAEM31 KWBC 081330 RRD
METAR
LOWG 081350Z 11004KT 030V190 CAVOK 27/10 Q1022 NOSIG=
LOWL 081350Z VRB03KT CAVOK 25/10 Q1022 NOSIG=
LOWW 081350Z 33009KT 280V020 CAVOK 25/09 Q1022 NOSIG=
####018000533####
SAIY31 KWBC 081350 RRA
METAR
LIBD 081350Z 01016KT CAVOK 25/11 Q1020=
LICC 081350Z 11014KT CAVOK 28/20 Q1017=
LICJ 081350Z 04014KT 9999 FEW018 28/23 Q1018=
LIEA 081350Z 28004KT 210V320 9999 FEW025 33/22 Q1019=
LIEO 081350Z 05010KT CAVOK 31/21 Q1019=
LIMC 081350Z 23007KT 170V270 9999 FEW025 28/17 Q1021 NOSIG=
LIME 081350Z 26005KT 200V330 9999 SCT050 28/16 Q1021=
LIMF 081350Z 08004KT CAVOK 27/16 Q1021=
LIMJ 081350Z 18005KT 9999 FEW035 29/24 Q1020=
LIML 081350Z 16004KT 100V240 9999 FEW030 29/15 Q1021 NOSIG=
####018000135####
SAIY31 KWBC 081250 RRD
METAR
LIBR 081345Z /////KT CAVOK 26/14 Q1018 NOSIG=
LIEE 081345Z 15013KT 9999 FEW020 28/20 Q1018 NOSIG=
####018000275####
SAIY32 KWBC 081250 RRC
METAR
LIPH 081345Z 14005KT 9999 FEW025 28/21 Q1021=
LIPR 081345Z 07012KT CAVOK 28/19 Q1021=
LIPX 081345Z 23003KT 9999 FEW040 30/14 Q1020=
LIRA 081345Z 25007KT 150V330 9999 FEW018 31/17 Q1019=
LIRP 081345Z 26007KT CAVOK 31/18 Q1019 NOSIG=
####018000355####
SAIY32 KWBC 081350 RRA
METAR
LIPB 081350Z 18015KT CAVOK 31/12 Q1018=
LIPE 081350Z 09007KT 050V120 CAVOK 30/14 Q1020=
LIPK 081350Z 08008KT CAVOK 29/12 Q1020=
LIPQ 081350Z 26004KT CAVOK 28/15 Q1021=
LIPZ 081350Z 13007KT 9999 FEW040 26/18 Q1021=
LIRF 081350Z 23012KT 210V270 CAVOK 29/18 Q1019 NOSIG=
LIRQ 081350Z VRB04KT CAVOK 32/16 Q1019=
####018000081####
SAIY43 KWBC 081250 RRE
METAR
LIPX 081345Z 23003KT 9999 FEW040 30/14 Q1020=
####018000095####
SAIY41 KWBC 081350 RRA
METAR
LIMC 081350Z 23007KT 170V270 9999 FEW025 28/17 Q1021 NOSIG=
####018000090####
SAMM31 KWBC 081330 RRB
METAR
LCRA 081350Z 23011KT 9000 HZ FEW040 27/21 Q1007 NOSIG=
####018000749####
SAMX31 KWBC 081345 RRF
METAR
MMAA 081341Z 00000KT 8SM SCT010 SCT080 OVC100 27/22 A2980 RMK
     8/27/ BINOVC=
MMGL 081349Z 00000KT 10SM FEW010 BKN080 OVC300 19/17 A3006 RMK
     8/577=
MMMX 081345Z 00000KT 4SM SCT006 BKN010 OVC020 15/14 A3022 TEMPO 4
     SM -RA HZ SCT008 OVC020 RMK 8/7// HZY OCNL DROPS=
MMMY 081341Z 31009KT 15SM FEW030 SCT070 26/22 A2989 RMK 8/570=
MMMZ 081346Z 02003KT 10SM FEW012 BKN030 OVC070 27/22 A2978 RMK
     8/47/ HZY=
MMPR 081349Z 00000KT 10SM BKN025 OVC080 26/23 A2982 RMK 8/57/ LWR
     CLDS 3-4 QUADS=
MMTM 081342Z 24006KT 7SM SCT010 BKN035 OVC200 26/23 A2982 RMK
     8/807 AC/BINOVC DZ OCNL=
MMVR 081345Z 00000KT 6SM FEW010 BKN090 OVC250 25/25 A2980 RMK
     8/467 HZ DSNT CB NW=
####018000845####
SAMX41 KWBC 081345 RRC
METAR
MMBT 081357Z NIL=
MMCL 081340Z 16004KT 8SM SCT020 OVC080 27/23 A2978 RMK 8/47/
     HZY=
MMCN 081353Z 00000KT 10SM BKN080 BKN200 27/19 A2974 RMK 8/055
     RTS=
MMCS 081340Z 09008KT 10SM FEW030 SCT080 23/17 A3013 RMK 8/570
     HZY=
MMDO 081345Z 00000KT 12SM OVC020 18/16 A3015 RMK 8/4// BINOVC LWR
     ST=
MMGL 081349Z 00000KT 10SM FEW010 BKN080 OVC300 19/17 A3006 RMK
     8/577=
MMHO 081346Z 00000KT 10SM BKN080 29/12 A2982 RMK 8/050 HZY=
MMLP 081342Z 18010KT 10SM SKC 19/15 A2980 RMK ISOL AC=
MMMA 081344Z 33007KT 5SM FEW008 SCT015 BKN065 BKN200 26/25 A2980
     RMK 8/859 HZ DZ INTMNT VRB COND=
MMMM 081346Z 00000KT 4SM FEW010 BKN015 OVC070 17/15 A3011 RMK
     8/57/ HZY ST LWR HILL=
MMNL 081343Z 02006KT 6SM SCT007 SCT020 BKN100 27/24 A2989 RMK
     8/570 DZ INTMT=
####018000450####
SAMX42 KWBC 081345 RRC
METAR
MMSD 081343Z 03004KT 12SM SKC 23/15 A2979=
MMSP 081348Z 00000KT 7SM FEW010 BKN015 BKN080 19/18 A3014 RMK
     8/530 HZY MSGTX MMMM=
MMTJ 081345Z 00000KT 3SM BR OVC008 16/14 A2995 RMK 8/6//=
MMTO 081345Z 05004KT 1SM -RA BR BKN005 OVC008 12/10 A3027 RMK
     60185 8/7//=
MMZC 081341Z 09009KT 8SM BKN030 17/12 A3021 RMK 8/700=
MMZH 081340Z 00000KT 7SM SCT020 BKN100 BKN250 25/22 A2980 RMK
     8/232=
####018000418####
SANL31 KWBC 081350 RRA
METAR
EHAM 081355Z 25007KT 190V310 CAVOK 27/15 Q1019 NOSIG=
EHBK 081355Z AUTO 17007KT 130V230 9999NDV NSC 31/11 Q1018
     NOSIG=
EHGG 081355Z AUTO 23011KT 200V270 9999NDV NSC 27/13 Q1018
     NOSIG=
EHGR 081355Z AUTO 10005G15KT 9999NDV NCD 30/11 Q1018 BLU BLU=
EHRD 081355Z 27006KT 220V310 CAVOK 27/16 Q1018 NOSIG=
EHVK 081355Z AUTO 24005KT 9999NDV NCD 31/11 Q1018 BLU BLU=
####018000140####
SANT31 KWBC 081300 RRE
METAR
TXKF 081255Z 17020KT 6000 -SHRA FEW009 SCT015TCU BKN050 BKN300
     23/22 Q1020 RMK TCU N / DSNT SW /=
####018000082####
SPCN52 CWAO 081353
SPECI CWSA 081353Z AUTO 23006KT 1SM OVC001 18/18 A3022=

####018000081####
SASW31 KWBC 081350 RRA
METAR
LSZB 081350Z VRB03KT CAVOK 31/12 Q1021 NOSIG=
####018000087####
SAUK32 KWBC 081350 RRA
METAR
EGNS 081350Z 19010KT 9999 FEW020 16/12 Q1016 NOSIG=
####018000225####
SAUK41 KWBC 081350 RRA
METAR
EGDL 081350Z 24007KT 9999 FEW040 SCT150 BKN200 22/09 Q1018 BLU
     NOSIG=
EGDR 081350Z 20009KT 9999 FEW022 BKN100 19/14 Q1019 BLU NOSIG=
EGHE 081350Z 20011KT 9999 SCT025 19/14 Q1018=
####018000354####
SAUK42 KWBC 081350 RRA
METAR
EGOS 081350Z 24012KT 9999 SCT045 SCT120 BKN200 21/09 Q1017 BLU
     NOSIG=
EGOV 081350Z 19016KT 9999 -RA FEW018 BKN080 17/13 Q1017 BLU
     NOSIG=
EGQL 081350Z 24021KT 9999 FEW045 SCT150 BKN250 21/06 Q1012 BLU
     NOSIG=
EGQS 081350Z 24020KT 9999 FEW030 BKN060 17/07 Q1010 BLU TEMPO 7000
     -SHRA WHT=
####018000111####
SAXX99 KWBC 081300 CCF
METAR
LTFJ 081320Z 01014KT 9999 BKN030 22/17 Q1012 TEMPO FM1400 4000
     TSRA=
####018000842####
SAXX99 KWBC 081300 RRX
METAR
MMCB 081346Z 00000KT 3/4SM BR BKN004 OVC100 19/16 A3005 RMK 60025
     8/77/ -RA B25 E35=
MMIA 081345Z 00000KT 5SM DZ SCT020 OVC100 22/20 A2993 RMK
     8/76/=
MMLM 081345Z 00000KT 10SM SKC 26/20 A2980 RMK ISOL AC HZY=
MMMV 081340Z 25005KT 8SM HZ BKN050 23/18 A2998 RMK 8/200=
MMOX 081348Z 03002KT 4SM FEW005 SCT015 BKN080 OVC120 17/15 A3009
     RMK 8/77/ LWR VIS/ST S=
MMPB 081343Z 17006KT 3SM -RA BR FEW003 BKN006 OVC100 14/14 A3021
     RMK 6//// 8/72/ VRBL CONDS=
MMPG 081340Z 03005KT 10SM SCT020 SCT200 28/23 A3000 RMK 8/102=
MMPN 081345Z 00000KT 2 1/2SM BR SCT003 BKN010 OVC030 17/16 A3006
     RMK 8/7// LOW ST 1-2 QUAD=
MMPS 081340Z 00000KT 10SM BKN015 OVC280 26/21 A2996 RMK 8/606
     HZY=
MMQT 081345Z 08008KT 5SM FEW007 BKN015 BKN120 17/15 A3020 RMK
     8/860=
####018000120####
SAUS46 KSGX 081357
MTRNRS
METAR KNRS 081356Z 32006KT 10SM FEW008 OVC014 17/14 A2992 RMK AO2 
SLP131 T01670144 $
####018000115####
SAUS46 KLOX 081358
MTR9L2
METAR K9L2 081356Z AUTO 00000KT 10SM CLR 18/03 A2991 RMK AO2 SLP107 
T01780028 $
####018000123####
SAHW40 PHFO 081357
MTRBKH
METAR PHBK 081356Z AUTO 15005KT 10SM BKN075 24/17 A3000 RMK AO2 
SLP161 T02440172 TSNO $
####018000126####
SAUS46 KLOX 081358 COR
MTRLAX
METAR KLAX 081353Z 27006KT 7SM BCFG FEW009 OVC011 16/13 A2992 RMK 
AO2 SLP130 T01610128
####018000123####
SAUS46 KSGX 081358
MTRNXF
METAR KNXF 081356Z AUTO 31004KT 5SM HZ OVC017 17/13 A2991 RMK AO2 
SLP215 T01670128 TSNO
####018000076####
SPUS53 KWBC 081358
SPECI
KCID 081354Z 33007KT 7SM BKN007 22/20 A3007=
####018000187####
SAUS44 KCRP 081358
MTRNGP
METAR KNGP 081356Z 10007KT 7SM -RA FEW009 SCT016CB BKN025 27/26 
A2984 RMK AO2 RAB12 SLP105 CB DSNT SW TCU NE-OHD-W TCU DSNT N WR// 
P0007 T02730261 $
####018000121####
SAUS41 KAKQ 081358
MTRNFE
METAR KNFE 081356Z AUTO 09005KT 2 1/2SM HZ CLR 29/19 A2999 RMK AO2 
SLP157 T02940194 $
####018000073####
SADL34 EDZO 081350 RRA
METAR EDJA 081350Z VRB02KT CAVOK 27/11 Q1022=
####018000118####
SAUS46 KLOX 081358
MTRBIH
METAR KBIH 081356Z AUTO 31003KT 10SM CLR 17/03 A3003 RMK AO2 SLP116 
T01670028 TSNO
####018000115####
SAUS43 KDDC 081358
MTRP28
METAR KP28 081356Z AUTO 36008KT 22/20 A3014 RMK AO2 SLP193 T02220200 
PWINO TSNO
####018000115####
SAUS46 KMTR 081358
MTRBAN
METAR KBAN 081356Z AUTO 00000KT CLR 06/02 A3022 RMK AO2 SLP159 
T00610017 TSNO $
####018000156####
SAUS44 KFWD 081358
MTRNQI
METAR KNQI 081356Z 02006KT 10SM FEW010CB BKN100 BKN280 28/25 A2985 
RMK AO2 SLP104 CB DSNT NE AND E-SE AND NW T02830250 $
####018000137####
SAUS44 KFWD 081358
MTRHLR
METAR KHLR 081356Z AUTO 04007KT 9SM FEW009 BKN018 OVC043 26/ A3002 
RMK AO2 RAE04 SLP159 P0000 T0261 $
####018000127####
SAUS41 KAKQ 081358
MTRNTU
METAR KNTU 081356Z 07008KT 10SM FEW020 SCT100 SCT200 28/22 A2999 RMK 
AO2 SLP157 T02830217 $
####018000101####
SAUS43 KUNR 081358
MTR2WX
METAR K2WX 081356Z AUTO 27010KT 18/11 A3018 RMK AO1 SLP202 T01830111
####018000124####
SAUS42 KMLB 081358 COR
MTRDAB
METAR KDAB 081353Z VRB03KT 10SM FEW026 SCT250 28/19 A3002 RMK AO2 
SLP163 T02830194 $
####018000083####
SPAU32 YBBN 081356
SPECI YBMA 081356Z AUTO 00000KT 6000NDV // NCD 08/07 Q1020=
####018000115####
SAUS43 KABR 081358
MTR8D3
METAR K8D3 081356Z AUTO 28008KT 23/14 A3010 RMK AO2 SLP177 T02280144 
PWINO TSNO
####018000076####
SPUS73 KWBC 081358
SPECI
KCID 081354Z 33007KT 7SM BKN007 22/20 A3007=
####018002051####
SAUS20 KNKA 081357
METAR KBIX 081355Z AUTO 03004KT 10SM CLR 28/25 A3005 RMK AO2 SLP177
      T02850245=
METAR KBJJ 081356Z AUTO VRB03KT 9SM CLR 28/19 A3010 RMK AO2 SLP181 
    T02830189=
METAR KCTB 081356Z AUTO 00000KT 10SM CLR 13/08 A3023 RMK AO2 SLP216 
    T01330083=
METAR KCXY 081356Z 33003KT 6SM HZ CLR 31/21 A3002 RMK AO2 SLP163 
    T03060206=
METAR KDAY 081356Z 23006KT 8SM CLR 29/19 A3009 RMK AO2 SLP179 
    T02890189=
METAR KEAU 081356Z 32006KT 10SM CLR 22/17 A3007 RMK AO2 SLP180 
    T02170167=
METAR KELZ 081356Z AUTO 00000KT 10SM CLR 27/21 A3015 RMK AO2 SLP194 
    T02720206=
METAR KHFF 081355Z AUTO 04009KT 10SM CLR 32/19 A2999 RMK AO2 SLP153
      T03210190 $=
METAR KHPN 081356Z 14006KT 2SM DZ BR BKN006 OVC012 26/23 A3007 RMK 
    AO2 SLP174 P0000 T02560228=
METAR KHUA 081355Z 03010KT 12SM SKC 30/21 A3012=
METAR KHWV 081356Z AUTO 15007KT 10SM CLR 28/21 A3007 RMK AO2 SLP181 
    T02780211=
METAR KISO 081355Z 04007KT 4SM HZ CLR 28/23 A2998=
METAR KISP 081356Z 13005KT 10SM SCT016 BKN130 27/20 A3005 RMK AO2 
    SLP174 T02670200=
METAR KITH 081356Z 00000KT 10SM FEW040 29/21 A3009 RMK AO2 T02940211 
    SLP181=
METAR KJXN 081356Z 00000KT 10SM CLR 28/21 A3004 RMK AO2 SLP166 
    T02780206=
METAR KLNR 081356Z AUTO 29004KT 9SM FEW012 BKN018 24/20 A3006 RMK 
    AO2 SLP168 T02390200=
METAR KMCF 081355Z AUTO 06004KT 10SM CLR 27/24 A3001 RMK AO2 SLP165
      T02720237=
METAR KMDT 081356Z 22003KT 5SM HZ CLR 31/21 A3001 RMK AO2 SLP160 
    T03110211=
METAR KPVU 081350Z VRB05KT 15SM SCT120 19/09 A3016=
METAR KSGJ 081358Z 31006KT 10SM CLR 27/21 A3002 RMK AO2 SLP166 
    T02720211=
METAR KSPS 081352Z COR 00000KT 10SM SCT007 SCT220 26/22 A3005 RMK 
    AO2 SLP161 T02560222=
METAR KSQL 081351Z 30008KT 10SM OVC012 13/10 A2994=
METAR PGUA 081355Z AUTO 10009KT 10SM CLR 25/ A2991 RMK AO2 RAB1325E1335
      SLP110 P0001 T0253 402960252 VISNO RWY24L $=
METAR TJSJ 081356Z 08010KT 10SM FEW023 SCT036 31/24 A3002 RMK AO2 
    SLP163 T03060244=
####018000121####
SAUS45 KPUB 081358
MTRSPD
METAR KSPD 081356Z AUTO 07008KT 16/15 A3030 RMK AO2 SLP208 P0002 
T01610150 PWINO TSNO
####018000120####
SAUS43 KFSD 081358
MTRFSD
METAR KFSD 081356Z 00000KT 10SM CLR 21/16 A3018 RMK AO2 SLP213 SCT 
ABV 120 T02110156
####018000112####
SAUS44 KBMX 081358 COR
MTRMGM
METAR KMGM 081353Z 00000KT 10SM CLR 31/22 A3003 RMK AO2 SLP164 
T03110222
####018001437####
SAUS17 KAWN 081400 RRB
METAR KCEF 081355Z 18005KT 7SM SCT014 BKN018 OVC080 26/23 A3007 RMK
      AO2A SLP183 P0000 T02560226 $=
METAR KDLF 081355Z AUTO 04004KT 10SM FEW012 26/23 A2999 RMK AO2 SLP140
      T02570225 $=
METAR KDYS 081355Z 05003KT 10SM OVC007 23/22 A3008 RMK AO2A CIG 005V008
      SLP167 T02250220 $=
METAR KEFD 081350Z 06004KT 4SM -RA SCT006 BKN020 OVC250 26/25 A2998=
METAR KEND 081355Z 03007KT 10SM SCT010 BKN090 BKN200 24/22 A3009 RMK
      AO2A SLP179 T02390219=
METAR KFCS 081355Z AUTO 07003KT 10SM CLR 16/11 A3035 RMK AO2 SLP210
      T01600110=
METAR KFMH 081355Z AUTO 16008KT 10SM BKN015 BKN020 25/21 A3011 RMK
      AO2=
METAR KGSB 081355Z 05008KT 10SM CLR 29/20 A2996 RMK AO2A WND DATA ESTMD
      SLP145 T02940202 $=
METAR KHRT 081355Z VRB01KT 10SM CLR 29/25 A3003 RMK AO2A SLP171 T02860250
      $=
METAR KLSF 081355Z 00000KT 10SM SKC 29/22 A3003 RMK AO2A DZE1317 SLP169
      P0000 T02880219 $=
METAR KLSV 081355Z AUTO 00000KT 10SM FEW150 24/M02 A2987 RMK AO2 SLP095
      T02421024 PWINO=
METAR KLUF 081355Z 05003KT 10SM SCT170 29/07 A2981 RMK AO2A SLP062
      T02900070 $=
METAR KMIB 081355Z AUTO 29004KT 10SM CLR 18/13 A3012 RMK AO2 SLP198
      T01800132 $=
METAR KMMT 081355Z 29006KT 10SM CLR 31/21 A2999 RMK AO2A RAB1256E1305
      SLP154 P0000 T03100213=
METAR KMXF 081355Z AUTO 00000KT 10SM CLR 30/24 A3003 RMK AO2 SLP168
      T03000242=
####018001542####
SANA35 KAWN 081400 RRA
METAR KBIX 081355Z AUTO 03004KT 10SM CLR 28/25 A3005 RMK AO2 SLP177
      T02850245=
METAR KBOS 081354Z 15008KT 10SM SCT220 26/20 A3009 RMK AO2 SLP190 T02610200=
METAR KGSB 081355Z 05008KT 10SM CLR 29/20 A2996 RMK AO2A WND DATA ESTMD
      SLP145 T02940202 $=
METAR KHST 081355Z AUTO 09008KT 10SM CLR 30/25 A2997 RMK AO2 SLP150
      T03030247=
METAR KMCF 081355Z AUTO 06004KT 10SM CLR 27/24 A3001 RMK AO2 SLP165
      T02720237=
METAR KNIP 081353Z 29003KT 10SM CLR 27/20 A3003 RMK AO2 SLP163 T02720200=
METAR KNKT 081354Z 07010KT 10SM FEW018 29/23 A2994 RMK AO2 SLP137 T02890233=
METAR KNQX 081353Z 03005KT 10SM SCT022 BKN100 BKN200 30/25 A2996 RMK
      AO2 SLP145 T2 SET T03000250 $=
METAR KNRB 081352Z VRB03KT 10SM CLR 28/19 A3002 RMK AO2 SLP165 T02780194=
METAR KPHL 081354Z 14005KT 7SM FEW028 SCT110 28/21 A3004 RMK AO2 SLP173
      T02830211=
METAR KSAV 081353Z 29008KT 10SM CLR 30/19 A3000 RMK AO2 SLP156 T03000194
      $=
METAR KSSC 081355Z AUTO 31007KT 10SM CLR 30/21 A2997 RMK AO2 SLP146
      T03020213 $=
METAR KSYR 081354Z 00000KT 8SM CLR 30/22 A3004 RMK AO2 SLP166 T03000217=
METAR KVAD 081355Z AUTO 33007KT 9SM CLR 29/20 A3003 RMK AO2 SLP167
      T02910204 $=
METAR KWRI 081355Z AUTO 15008KT 10SM FEW015 SCT190 SCT210 27/23 A3003
      RMK AO2 SLP169 T02660226 $=
METAR MMVR 081345Z 00000KT 6SM FEW010 BKN090 OVC250 25/25 A2980 RMK
      8/467 HZ DSNT CB NW=
METAR MYNN 081400Z 21003KT 9999 VCSH SCT014CB SCT015TCU BKN220 30/25
      A2997=
####018000076####
SPUS81 KWBC 081358
SPECI
KCID 081354Z 33007KT 7SM BKN007 22/20 A3007=
####018000117####
SAUS45 KRIW 081358 COR
MTRLND
METAR KLND 081353Z AUTO 00000KT 10SM CLR 13/05 A3035 RMK AO2 SLP228 
T01280050
####018000081####
SAZA42 FAJS 081400
METAR FAJS 081400Z 05010KT 9999 SCT045 16/03 Q1032 NOSIG=
####018000112####
SAUS46 KSGX 081358 COR
MTRNJK
METAR KNJK 081356Z 10003KT 10SM CLR 24/18 A2973 RMK AO2 SLP082 
T02440178
####018000299####
SAGL KAWN 081400
METAR BGGH 081350Z 21005KT 9999 FEW008 BKN012 07/03 Q1009=
METAR BGKK 081350Z 02003KT 9999 FEW100 SCT120 09/04 Q1009=
METAR BGSF 081350Z 24007KT 170V260 9999 FEW040 SCT070 17/01 Q1007=
METAR BGTL 081355Z AUTO 26004KT 9999 CLR 05/04 A2982 RMK AO2 SLP102
      T00540042=
####018000152####
SAEU KAWN 081300 RRX
METAR ENGM 081341Z 19010KT 160V220 9999 FEW014 BKN017 17/14 Q1015 NOSIG=
METAR LGAD 081320Z 29009KT 9999 FEW020 27/14 Q1014=
####018000955####
SAXX70 KAWN 081400 RRD
METAR KQAD 081355Z AUTO VRB05KT 6000 CLR 45/05 A2954 RMK AO2 SLP001
      T04540053 $=
METAR KQAQ 081355Z 29011G17KT 8000 HZ FU CLR 45/07 A2961 RMK SLP025
      PA +404 DA +3814=
METAR KQAY 081355Z AUTO 36015G23KT 7000 FEW024 47/M02 A2950 RMK AO2
      PK WND 35027/1312 SLP984 T04691020 $=
METAR KQCQ 081355Z 32017G28KT 9999 CLR 47/M02 A2953 RMK SLP997=
METAR KQD9 081355Z 10006KT 9999 BKN080 BKN160 33/15 A2986 RMK SLP029
      WND DATA ESTMD ALSTG/SLP ESTMD=
METAR KQDP 081355Z AUTO 22011G17KT 5SM CLR 34/11 A2985 RMK AO2 SLP004
      T03430108 $=
METAR KQIU 081355Z AUTO VRB04KT 9999 CLR 26/10 A3016 RMK AO2 SLP097=
METAR KQTX 081355Z 23010G15KT 9999 CLR 43/M02 A2964 RMK SLP011=
METAR KQXJ 081355Z 31021G31KT 1600 BLDU BKN000 46/02 A2955 RMK DU BKN000
      SLP008 PA+365 DA+4080=
METAR KQTZ 081357Z 32010G17KT 9999 CLR 44/05 A2960 RMK SLP017 QNH1002MB
      ALSTG/SLP ESTMD WND DATA ESTMD=
####018001465####
SAZZ40 KAWN 081400 RRG
METAR KCEF 081355Z 18005KT 7SM SCT014 BKN018 OVC080 26/23 A3007 RMK
      AO2A SLP183 P0000 T02560226 $=
METAR KDYS 081355Z 05003KT 10SM OVC007 23/22 A3008 RMK AO2A CIG 005V008
      SLP167 T02250220 $=
METAR KEND 081355Z 03007KT 10SM SCT010 BKN090 BKN200 24/22 A3009 RMK
      AO2A SLP179 T02390219=
METAR KFCS 081355Z AUTO 07003KT 10SM CLR 16/11 A3035 RMK AO2 SLP210
      T01600110=
METAR KFMH 081355Z AUTO 16008KT 10SM BKN015 BKN020 25/21 A3011 RMK
      AO2=
METAR KGSB 081355Z 05008KT 10SM CLR 29/20 A2996 RMK AO2A WND DATA ESTMD
      SLP145 T02940202 $=
METAR KHRT 081355Z VRB01KT 10SM CLR 29/25 A3003 RMK AO2A SLP171 T02860250
      $=
METAR KLFI 081355Z 08007KT 10SM FEW013 BKN100 BKN250 27/17 A3001 RMK
      AO2A SLP164 T02730174 $=
METAR KPSM 081355Z 14010KT 10SM FEW020 SCT200 27/21 A3008 RMK AO2A
      SLP188 T02660206=
METAR KRCA 081355Z 29003KT 25SM CLR 18/12 A3026 RMK AO2A SLP232 T01790118
      $=
METAR KSGH 081356Z 00000KT 5SM HZ CLR 29/22 A3010 RMK AO2 T02880222
      SLP183=
METAR KSKF 081355Z 05010KT 7SM -SHRA FEW002 BKN014 OVC040 26/24 A2995
      RMK AO2A SLP132 P0004 T02590242 $=
METAR KSLI 081355Z 23005KT 5SM BR OVC013 16/14 A2992 RMK AO2A SLP132
      T01640137=
METAR KVBG 081355Z 32004KT 4SM OVC004 12/11 A2994 RMK AO2 CIG 002V006
      SLP132 T01170111 FIRST=
METAR MYNN 081400Z 21003KT 9999 VCSH SCT014CB SCT015TCU BKN220 30/25
      A2997=
####018000063####
SAOR01 ORSU 081355
ORSU 081400Z 25010KT CAVOK 41/M06 Q1009
####018000129####
SACN99 CQCM 081400
METAR CQCM 081400Z  36010KT 6SM HZ FEW060 SCT180 39/19
A2953 RMK WND/ALTM ESTD CU1 AC3 T03930193=


####018000125####
SAUS41 KAKQ 081358
MTRWAL
METAR KWAL 081354Z 09009KT 10SM SCT013 BKN080 OVC120 28/21 A3003 RMK 
AO2 SLP164 T02780211
####018001033####
SAUS20 KNKA 081358
METAR KROG 081357Z 00000KT 10SM OVC018 24/22 A3011 RMK AO2 PK WND 
    18031/1350 SLP181 T02390222=
METAR KRZN 081354Z AUTO 26005KT 10SM CLR 22/17 A3009 RMK AO2 
     T02150165=
METAR KSHV 081356Z 14006KT 10SM BKN110 OVC280 27/24 A3006 RMK AO2
     SLP175 T02670239=
METAR KSME 081355Z AUTO 00000KT 5SM HZ 29/22 A3010 RMK AO2=
METAR KTRI 081353Z 00000KT 5SM HZ CLR 27/19 A3012 RMK AO2 SLP178
     T02720194=
METAR KTYS 081353Z 08004KT 6SM HZ CLR 29/20 A3008 RMK AO2 SLP173
     T02890200=
METAR KUNI 081355Z AUTO 00000KT 7SM CLR 30/18 A3009 RMK AO2 
     T02990175=
METAR KVES 081354Z AUTO 19003KT 10SM CLR 28/22 A3008 RMK AO2 
     T02780216=
METAR KY63 081400Z AUTO 27005KT 10SM CLR 20/17 A3011 RMK AO2 
     T01960166=
METAR PACM 081356Z AUTO 00000KT 10SM CLR 11/09 A3005 RMK AO2 TSNO 
    T01050088 SLP173 $=
METAR PAGN 081356Z AUTO 00000KT CLR RMK AO2 PWINO TSNO SLPNO $=
METAR PATQ 081356Z AUTO 24013KT 10SM CLR 09/03 A3002 RMK AO2 TSNO 
    T00880033 SLP171 $=
####018000083####
SACA01 KMSC 081358
METAR TJPS 081350Z 10010KT 8SM FEW030 33/24 A2999 HZ ALQDS=
####018002964####
SAUS20 KNKA 081358
METAR KABQ 081356Z 10013G20KT 10SM FEW050 SCT100 BKN200 20/09
     A3030 RMK AO2 SLP181 MTN TOPS OBSC NE AND SE T02000094=
METAR KLAX 081353Z 27006KT 7SM BCFG FEW009 OVC011 16/13 A2992 RMK
     AO2 SLP130 T01610128=
METAR KJAX 081356Z 29005KT 10SM CLR 28/20 A3002 RMK AO2 SLP165
     T02780200=
METAR K14Y 081359Z AUTO 26006KT 7SM CLR 21/16 A3012 RMK AO2 
     T02100156=
METAR K1A6 081355Z AUTO 00000KT 5SM HZ CLR 27/24 A3012 RMK AO2=
METAR KAIG 081355Z AUTO 35004KT 10SM SCT013 21/18 A3004 RMK AO2=
METAR KAJO 081356Z AUTO 00000KT 4SM BR BKN011 16/14 A2993 RMK AO2 
    T01550138 BKN V OVC SLP131 $=
METAR KARV 081352Z AUTO 30006KT 10SM CLR 21/18 RMK AO2 T02120179=
METAR KBWP 081351Z AUTO 29005KT 10SM CLR 20/16 A3011 RMK AO1 
     T02000155=
METAR KCAE 081356Z VRB04KT 10SM CLR 32/21 A2999 RMK AO2 SLP152
     T03170206=
METAR KCHS 081356Z 33007KT 8SM CLR 30/21 A2996 RMK AO2 SLP144
     T03000206=
METAR KCLI 081355Z AUTO 33006KT 10SM CLR 24/19 A3002 RMK AO2=
METAR KCMY 081355Z AUTO 31006KT 10SM SCT015 23/18 A3007 RMK AO2 
     T02300180=
METAR KDIJ 081356Z AUTO 04004KT 10SM CLR 14/04 A3032 RMK AO2 
    T01440044 SLP187 $=
METAR KDVK 081357Z AUTO 21003KT 10SM 30/20 A3010 RMK AO1=
METAR KEFT 081355Z AUTO 31005KT 10SM OVC004 24/20 A3005 RMK AO2 
     T02350202=
METAR KEGV 081352Z AUTO 32009KT 10SM BKN048 21/17 A3006 RMK AO2 
     T02090172=
METAR KEKQ 081356Z AUTO 00000KT 5SM HZ CLR 28/22 A3012 RMK AO2 
    T02830222 SLP194=
METAR KESN 081353Z 16006KT 6SM HZ SCT200 28/24 A3005=
METAR KETB 081352Z AUTO 29006KT 10SM BKN009 OVC016 23/20 A3002 
     RMK AO2 T02280204=
METAR KEZS 081355Z AUTO 01006KT 10SM SCT014 25/21 A3002 RMK AO2 
     T02460207=
METAR KGLW 081353Z AUTO 00000KT 10SM CLR 30/20 A3009 RMK AO2 
     T02960200=
METAR KGPM 081350Z 11006KT 10SM SCT025 BKN045 26/23 A3004=
SPECI KGRB 081357Z 31006KT 7SM BKN006 OVC017 23/21 A3001 RMK AO2=
METAR KGSO 081354Z 02007KT 5SM HZ CLR 31/19 A3004 RMK AO2 SLP157
     T03110189=
METAR KHFJ 081355Z AUTO 00000KT 10SM BKN050 24/23 A3006 RMK AO1=
METAR KJQF 081355Z 36005KT 10SM SCT100 31/18 A3002=
METAR KLCK 081355Z AUTO 00000KT 10SM CLR 29/22 A3007 RMK AO2 
     T02900216=
METAR KLNL 081355Z AUTO 34004KT 10SM SCT050 20/15 A3008 RMK AO2 
     T01950148=
METAR KLRD 081356Z 04011KT 9SM FEW008 BKN044 28/24 A2991 RMK AO2 
    T02770244 BKN V SCT SLP116 $=
METAR KLUM 081355Z AUTO 34006KT 10SM CLR 21/16 A3009 RMK AO2=
METAR KM89 081356Z AUTO 00000KT 6SM BR OVC004 25/24 A3010 RMK AO2 
    T02500238 SLP204=
METAR KMDZ 081355Z AUTO 34008KT 10SM CLR 21/17 A3007 RMK AO2=
METAR KMWO 081355Z AUTO 24005KT 7SM CLR 28/21 A3008 RMK AO2=
METAR KOLV 081350Z 00000KT 7SM FEW250 30/24 A3010=
METAR KPVB 081353Z AUTO 31004KT 10SM BKN009 23/21 A3007 RMK AO1 
     T02260205=
METAR KRFD 081354Z 32006KT 10SM FEW006 SCT013 BKN150 26/21 A3005
     RMK AO2 SLP172 T02560206=
####018000101####
SAAT31 TKPN 181400
METAR TKPN 081400Z 11012KT 9999 -SHRA BKN018 30/24 Q1015= RMK
PRO-1343-COND
####018000569####
SAHO31 MHTG 081400
METAR
MHAM 081400Z 00000KT 9999 SCT015 OVC070 25/25 REDZ=
MHTR 081400Z 00000KT 9999 FEW025 SCT080 BKN250 29/24 HZ=
MHTE 081400Z 00000KT 9999 BKN024TCU BKN080 25/22 Q1010 TCU TD HZ=
MHYR 081400Z 36002KT 9999 SCT020 BKN080 23/22 BR=
MHPL 081400Z NIL=
MHCA 081400Z 20002KT 9999 SCT028TCU OVC070 22/22 TCU TD=
MHSR 081400Z 00000KT 9999 SCT025 BKN250 21/20 HZ=
MHNO 081400Z 00000KT 9999 FEW035 BKN090 21/// HZ=
MHLE 081400Z 00000KT 9999 FEW022 SCT070 BKN200 17/17 Q1022=
MHCH 081400Z 00000KT 9999 SCT006 BKN070 25/23 FEW028 BR HZ=
####018000060####
SAUS45 KTFX 081358
MTR8S0
METAR K8S0 081255Z 36002KT 
####018000120####
SAUS41 KAKQ 081358
MTRAKQ
METAR KAKQ 081354Z AUTO 00000KT 4SM HZ CLR 29/23 A3000 RMK AO2 
SLP158 T02890233 TSNO
####018000113####
SAUS41 KRNK 081358
MTRROA
METAR KROA 081354Z 01008KT 6SM HZ FEW085 31/17 A3009 RMK AO2 SLP173 
T03060167
####018000072####
SAYE20 OYRN 081400
METAR OYRN 081400Z 20012KT 6000 NSC 29/25 Q1001=
####018000081####
SAMJ41 LWSK 081400
METAR LWSK 081400Z 33006KT 9999 BKN040 19/11 Q1020 NOSIG=
####018000095####
SAYE20 OYSY 081400
METAR OYSY 081400Z 07008KT 040V110 9000 FEW030TCU SCT200 42/09
Q1000=
####018000069####
SAYE20 OYAT 081400
METAR OYAT 081400Z 14012KT CAVOK 37/11 Q0998=
####018000075####
SAYE20 OYAG 081400
METAR OYAG 081400Z 08017KT 9999 BKN025 28/24 Q1001=
####018000115####
SAUS43 KUNR 081358
MTRD07
METAR KD07 081356Z AUTO 29006KT 21/12 A3022 RMK AO2 SLP222 T02060117 
PWINO TSNO
####018001395####
SANA14 KAWN 081400 RRB
METAR KEGI 081355Z VRB02KT 10SM CLR 28/23 A3004 RMK AO2A SLP168 T02830233
      $=
METAR KNYG 081356Z 08004KT 6SM HZ FEW100 BKN150 29/23 A3001 RMK AO2
      SLP164 T02940233=
METAR KPOE 081355Z AUTO 11006KT 10SM FEW010 28/24 A3004 RMK AO2 SLP172
      T02780239=
METAR KPSM 081355Z 14010KT 10SM FEW020 SCT200 27/21 A3008 RMK AO2A
      SLP188 T02660206=
METAR KRCA 081355Z 29003KT 25SM CLR 18/12 A3026 RMK AO2A SLP232 T01790118
      $=
METAR KRDR 081355Z 32007KT 10SM CLR 20/15 A3008 RMK AO2A SLP196 T02040145
      $=
METAR KRIV 081355Z 00000KT 1 1/2SM BR OVC003 13/13 A2993 RMK AO2A SLP133
      T01340127=
METAR KSGH 081356Z 00000KT 5SM HZ CLR 29/22 A3010 RMK AO2 T02880222
      SLP183=
METAR KSKA 081355Z AUTO 07007KT 10SM CLR 18/10 A3008 RMK AO2 SLP173
      T01750096=
METAR KSKF 081355Z 05010KT 7SM -SHRA FEW002 BKN014 OVC040 26/24 A2995
      RMK AO2A SLP132 P0004 T02590242 $=
METAR KSLI 081355Z 23005KT 5SM BR OVC013 16/14 A2992 RMK AO2A SLP132
      T01640137=
METAR KTBN 081355Z 25004KT 10SM SCT005 OVC039 25/21 A3010 RMK AO2A
      SLP175 T0247 $=
METAR KVBG 081355Z 32004KT 4SM OVC004 12/11 A2994 RMK AO2 CIG 002V006
      SLP132 T01170111 FIRST=
METAR KVOK 081355Z 33006KT 10SM BKN010 22/22 A3006 RMK AO2A SLP174=
METAR KVPS 081355Z 33003KT 10SM FEW250 29/24 A3004 RMK SLP173 T02880238
      $=
####018000871####
SAAK41 KNKA 081358
METAR PACM 081356Z AUTO 00000KT 10SM CLR 11/09 A3005 RMK AO2 TSNO 
    T01050088 SLP173 $=
METAR PAGN 081356Z AUTO 00000KT CLR RMK AO2 PWINO TSNO SLPNO $=
METAR PAHC 081356Z AUTO 07003KT 10SM CLR 07/07 A2998 RMK AO2 TSNO 
    T00720066 SLP155 $=
METAR PAIG 081356Z AUTO 18003KT 10SM BKN100 09/08 A2993 RMK AO2 
    PWINO TSNO T00880083 BKN V SCT SLP138 $=
METAR PAMO 081356Z AUTO 36009KT 10SM OVC100 12/09 A3002 RMK AO2 TSNO 
    T01160094 SLP165 $=
METAR PAOH 081356Z AUTO 00000KT 9SM CLR 09/09 A3018 RMK AO2 TSNO 
    T00880088 SLP222=
METAR PAPM 081356Z AUTO 08003KT RA OVC060 07/07 A2998 RMK AO2 TSNO 
    T00720066 P0000 SLP153 $=
METAR PARS 081356Z AUTO 00000KT BKN065 08/08 A2999 RMK AO2 TSNO 
    T00830077 SLP161 $=
METAR PATQ 081356Z AUTO 24013KT 10SM CLR 09/03 A3002 RMK AO2 TSNO 
    T00880033 SLP171 $=
####018003709####
SAUS99 KWBC 081359
METAR
KBIX 081355Z AUTO 03004KT 10SM CLR 28/25 A3005 RMK AO2 SLP177
     T02850245=
KBJJ 081356Z AUTO VRB03KT 9SM CLR 28/19 A3010 RMK AO2 SLP181
     T02830189=
KCTB 081356Z AUTO 00000KT 10SM CLR 13/08 A3023 RMK AO2 SLP216
     T01330083=
KCXY 081356Z 33003KT 6SM HZ CLR 31/21 A3002 RMK AO2 SLP163
     T03060206=
KDAY 081356Z 23006KT 8SM CLR 29/19 A3009 RMK AO2 SLP179
     T02890189=
KEAU 081356Z 32006KT 10SM CLR 22/17 A3007 RMK AO2 SLP180
     T02170167=
KELZ 081356Z AUTO 00000KT 10SM CLR 27/21 A3015 RMK AO2 SLP194
     T02720206=
KHFF 081355Z AUTO 04009KT 10SM CLR 32/19 A2999 RMK AO2 SLP153
     T03210190 $=
KHPN 081356Z 14006KT 2SM DZ BR BKN006 OVC012 26/23 A3007 RMK AO2
     SLP174 P0000 T02560228=
KHUA 081355Z 03010KT 12SM SKC 30/21 A3012=
KHWV 081356Z AUTO 15007KT 10SM CLR 28/21 A3007 RMK AO2 SLP181
     T02780211=
KISO 081355Z 04007KT 4SM HZ CLR 28/23 A2998=
KISP 081356Z 13005KT 10SM SCT016 BKN130 27/20 A3005 RMK AO2 SLP174
     T02670200=
KITH 081356Z 00000KT 10SM FEW040 29/21 A3009 RMK AO2 T02940211
     SLP181=
KJXN 081356Z 00000KT 10SM CLR 28/21 A3004 RMK AO2 SLP166
     T02780206=
KLNR 081356Z AUTO 29004KT 9SM FEW012 BKN018 24/20 A3006 RMK AO2
     SLP168 T02390200=
KMCF 081355Z AUTO 06004KT 10SM CLR 27/24 A3001 RMK AO2 SLP165
     T02720237=
KMDT 081356Z 22003KT 5SM HZ CLR 31/21 A3001 RMK AO2 SLP160
     T03110211=
KPVU 081350Z VRB05KT 15SM SCT120 19/09 A3016=
KSGJ 081358Z 31006KT 10SM CLR 27/21 A3002 RMK AO2 SLP166
     T02720211=
KSPS 081352Z COR 00000KT 10SM SCT007 SCT220 26/22 A3005 RMK AO2
     SLP161 T02560222=
KSQL 081351Z 30008KT 10SM OVC012 13/10 A2994=
PGUA 081355Z AUTO 10009KT 10SM CLR 25/ A2991 RMK AO2 RAB1325E1335
     SLP110 P0001 T0253 402960252 VISNO RWY24L $=
TJSJ 081356Z 08010KT 10SM FEW023 SCT036 31/24 A3002 RMK AO2 SLP163
     T03060244=
KTEW 081353Z AUTO 00000KT 10SM CLR 27/21 A3003 RMK AO2=
KCVH 081350Z AUTO 00000KT 6SM OVC008 13/11 A2994 RMK AO1=
KFSO 081358Z AUTO 00000KT 7SM CLR 30/25 A3001 RMK AO2=
KFBL 081354Z AUTO 30005KT 10SM CLR 21/16 A3013 RMK AO2=
KLYV 081358Z AUTO 00000KT 10SM CLR 20/16 A3018 RMK AO2=
KEFK 081356Z AUTO 21007KT 7SM CLR 28/22 A3005 RMK AO2=
KRRT 081354Z AUTO 27008KT 10SM CLR 18/14 A3003 RMK AO2 LTG DSNT
     NE=
KTOB 081354Z AUTO 33003KT 10SM CLR 20/17 A3013 RMK AO2=
KLXL 081354Z AUTO 27005KT 10SM CLR 21/14 A3009 RMK AO2=
KEVM 081352Z AUTO 26007KT 10SM CLR 20/15 A3003 RMK AO1=
KELO 081353Z AUTO 25005KT 10SM CLR 20/14 A3003 RMK AO2 LTG DSNT
     N=
KROX 081354Z AUTO 28008KT 10SM CLR 18/15 A3004 RMK AO2=
KSYN 081410Z AUTO 30006KT 10SM CLR 22/17 A3011 RMK AO2
     T02170173=
KVVV 081356Z AUTO 26005KT 10SM CLR 21/16 A3012 RMK AO2=
KROS 081355Z AUTO 29004KT 10SM CLR 22/16 A3010 RMK AO2
     T02150164=
KHCD 081351Z AUTO 28005KT 10SM CLR 20/15 A3013 RMK AO2
     T01990154=
KSGS 081353Z AUTO 31003KT 10SM CLR 22/16 A3011 RMK AO2
     T02200162=
KMJQ 081352Z AUTO 31004KT 10SM CLR 20/16 A3017 RMK AO2=
KHCO 081354Z AUTO 33007KT 10SM CLR 19/16 A3009 RMK AO2=
KLVN 081348Z AUTO 27005KT 10SM CLR 21/17 A3012 RMK AO2=
KPEX 081353Z AUTO 27008KT 10SM CLR 21/16 A3012 RMK AO2
     T02130162=
KJMR 081358Z AUTO 28005KT 10SM CLR 21/15 A3011 RMK AO2=
KJKJ 081354Z AUTO 30004KT 10SM CLR 21/17 A3008 RMK AO2=
KMVE 081354Z AUTO 30004KT 10SM CLR 21/18 A3011 RMK AO2 LTG DSNT
     N=
KTKC 081353Z AUTO 29005KT 10SM CLR 21/15 A3015 RMK AO2
     T02120153=
KGYL 081354Z AUTO 28007KT 10SM CLR 21/16 A3013 RMK AO2
     T02080161=
KDXX 081354Z AUTO 00000KT 10SM CLR 21/19 A3011 RMK AO2=
KHZX 081351Z AUTO 26003KT 10SM CLR 21/15 A3008 RMK AO2=
####018003747####
SAUS99 KWBC 081359 RRA
METAR
KSAZ 081353Z AUTO 26006KT 10SM CLR 20/19 A3010 RMK AO2=
KONA 081350Z AUTO 33008KT 10SM SCT015 23/18 A3008 RMK AO2=
KOVL 081354Z AUTO 29005KT 10SM CLR 20/15 A3013 RMK AO2
     T01950145=
KLJF 081352Z AUTO 30006KT 10SM CLR 22/17 A3013 RMK AO2=
KAEL 081351Z AUTO 33007KT 10SM CLR 20/17 A3014 RMK AO2=
K29G 081354Z AUTO 00000KT 10SM CLR 28/18 A3009 RMK AO2 T02800184
     PWINO=
KMRT 081353Z AUTO 22004KT 10SM CLR 29/20 A3011 RMK AO2
     T02910198=
KIKW 081353Z AUTO 27005KT 10SM BKN070 OVC080 25/21 A3001 RMK AO2
     T02470214=
KMDS 081345Z AUTO 29008KT 10SM CLR 20/16 A3018 RMK AO2=
KROG 081357Z 00000KT 10SM OVC018 24/22 A3011 RMK AO2 PK WND
     18031/1350 SLP181 T02390222=
KRZN 081354Z AUTO 26005KT 10SM CLR 22/17 A3009 RMK AO2
     T02150165=
KSHV 081356Z 14006KT 10SM BKN110 OVC280 27/24 A3006 RMK AO2 SLP175
     T02670239=
KSME 081355Z AUTO 00000KT 5SM HZ 29/22 A3010 RMK AO2=
KTRI 081353Z 00000KT 5SM HZ CLR 27/19 A3012 RMK AO2 SLP178
     T02720194=
KTYS 081353Z 08004KT 6SM HZ CLR 29/20 A3008 RMK AO2 SLP173
     T02890200=
KUNI 081355Z AUTO 00000KT 7SM CLR 30/18 A3009 RMK AO2
     T02990175=
KVES 081354Z AUTO 19003KT 10SM CLR 28/22 A3008 RMK AO2
     T02780216=
KY63 081400Z AUTO 27005KT 10SM CLR 20/17 A3011 RMK AO2
     T01960166=
PACM 081356Z AUTO 00000KT 10SM CLR 11/09 A3005 RMK AO2 TSNO
     T01050088 SLP173 $=
PAGN 081356Z AUTO 00000KT CLR RMK AO2 PWINO TSNO SLPNO $=
PATQ 081356Z AUTO 24013KT 10SM CLR 09/03 A3002 RMK AO2 TSNO
     T00880033 SLP171 $=
KABQ 081356Z 10013G20KT 10SM FEW050 SCT100 BKN200 20/09 A3030 RMK
     AO2 SLP181 MTN TOPS OBSC NE AND SE T02000094=
KLAX 081353Z 27006KT 7SM BCFG FEW009 OVC011 16/13 A2992 RMK AO2
     SLP130 T01610128=
KJAX 081356Z 29005KT 10SM CLR 28/20 A3002 RMK AO2 SLP165
     T02780200=
K14Y 081359Z AUTO 26006KT 7SM CLR 21/16 A3012 RMK AO2
     T02100156=
K1A6 081355Z AUTO 00000KT 5SM HZ CLR 27/24 A3012 RMK AO2=
KAIG 081355Z AUTO 35004KT 10SM SCT013 21/18 A3004 RMK AO2=
KAJO 081356Z AUTO 00000KT 4SM BR BKN011 16/14 A2993 RMK AO2
     T01550138 BKN V OVC SLP131 $=
KARV 081352Z AUTO 30006KT 10SM CLR 21/18 RMK AO2 T02120179=
KBWP 081351Z AUTO 29005KT 10SM CLR 20/16 A3011 RMK AO1
     T02000155=
KCAE 081356Z VRB04KT 10SM CLR 32/21 A2999 RMK AO2 SLP152
     T03170206=
KCHS 081356Z 33007KT 8SM CLR 30/21 A2996 RMK AO2 SLP144
     T03000206=
KCLI 081355Z AUTO 33006KT 10SM CLR 24/19 A3002 RMK AO2=
KCMY 081355Z AUTO 31006KT 10SM SCT015 23/18 A3007 RMK AO2
     T02300180=
KDIJ 081356Z AUTO 04004KT 10SM CLR 14/04 A3032 RMK AO2 T01440044
     SLP187 $=
KDVK 081357Z AUTO 21003KT 10SM 30/20 A3010 RMK AO1=
KEFT 081355Z AUTO 31005KT 10SM OVC004 24/20 A3005 RMK AO2
     T02350202=
KEGV 081352Z AUTO 32009KT 10SM BKN048 21/17 A3006 RMK AO2
     T02090172=
KEKQ 081356Z AUTO 00000KT 5SM HZ CLR 28/22 A3012 RMK AO2 T02830222
     SLP194=
KESN 081353Z 16006KT 6SM HZ SCT200 28/24 A3005=
KETB 081352Z AUTO 29006KT 10SM BKN009 OVC016 23/20 A3002 RMK AO2
     T02280204=
KEZS 081355Z AUTO 01006KT 10SM SCT014 25/21 A3002 RMK AO2
     T02460207=
KGLW 081353Z AUTO 00000KT 10SM CLR 30/20 A3009 RMK AO2
     T02960200=
KGPM 081350Z 11006KT 10SM SCT025 BKN045 26/23 A3004=
KGSO 081354Z 02007KT 5SM HZ CLR 31/19 A3004 RMK AO2 SLP157
     T03110189=
KHFJ 081355Z AUTO 00000KT 10SM BKN050 24/23 A3006 RMK AO1=
KJQF 081355Z 36005KT 10SM SCT100 31/18 A3002=
KLCK 081355Z AUTO 00000KT 10SM CLR 29/22 A3007 RMK AO2
     T02900216=
KLNL 081355Z AUTO 34004KT 10SM SCT050 20/15 A3008 RMK AO2
     T01950148=
KLRD 081356Z 04011KT 9SM FEW008 BKN044 28/24 A2991 RMK AO2
     T02770244 BKN V SCT SLP116 $=
####018003704####
SAUS99 KWBC 081359 RRB
METAR
KLUM 081355Z AUTO 34006KT 10SM CLR 21/16 A3009 RMK AO2=
KM89 081356Z AUTO 00000KT 6SM BR OVC004 25/24 A3010 RMK AO2
     T02500238 SLP204=
KMDZ 081355Z AUTO 34008KT 10SM CLR 21/17 A3007 RMK AO2=
KMWO 081355Z AUTO 24005KT 7SM CLR 28/21 A3008 RMK AO2=
KOLV 081350Z 00000KT 7SM FEW250 30/24 A3010=
KPVB 081353Z AUTO 31004KT 10SM BKN009 23/21 A3007 RMK AO1
     T02260205=
KRFD 081354Z 32006KT 10SM FEW006 SCT013 BKN150 26/21 A3005 RMK AO2
     SLP172 T02560206=
KFPK 081356Z AUTO 00000KT 10SM CLR 26/21 A3002 RMK AO2=
KMOP 081354Z AUTO 28005KT 10SM -RA SCT028 SCT039 SCT048 23/23
     A3002 RMK AO2=
KCAD 081354Z AUTO 27004KT 5SM -RA SCT008 BKN021 OVC039 22/21 A3004
     RMK AO2=
KMGN 081355Z AUTO 26003KT 2 1/2SM RA SCT002 OVC008 21/20 A3000 RMK
     AO2=
KHAI 081355Z AUTO 00000KT 5SM RA SCT034 SCT039 BKN046 25/22 A3005
     RMK AO2=
KLWA 081356Z AUTO 00000KT 10SM BKN034 OVC060 24/21 A3003 RMK
     AO2=
KDRM 081356Z AUTO 25004KT 4SM -DZ OVC004 21/21 A2998 RMK AO2=
KVLL 081354Z AUTO 24005KT 10SM CLR 31/18 A3005 RMK AO2=
KCFS 081355Z AUTO 29007KT 10SM SCT060 28/21 A3002 RMK AO2=
KOZW 081355Z AUTO 00000KT 10SM CLR 28/20 A3004 RMK AO2=
KRNP 081355Z AUTO 00000KT 10SM CLR 28/21 A3002 RMK AO2=
KDUH 081355Z AUTO 26003KT 10SM CLR 31/20 A3004 RMK AO2=
KJYM 081355Z AUTO 00000KT 10SM CLR 27/21 A3006 RMK AO2=
KBAX 081355Z AUTO 00000KT 10SM SCT095 27/23 A3000 RMK AO2=
KIRS 081355Z AUTO 14003KT 10SM SCT060 27/22 A3003 RMK AO2=
KACB 081355Z AUTO 00000KT 7SM -RA SCT009 SCT012 BKN049 23/22 A3001
     RMK AO2=
KRQB 081354Z AUTO 00000KT 7SM BKN005 OVC046 23/22 A3003 RMK
     AO2=
KOEB 081355Z AUTO 13003KT 10SM CLR 27/22 A3004 RMK AO2=
K4I3 081356Z AUTO 00000KT 10SM CLR 28/22 A3009 RMK AO2=
KAUM 081355Z AUTO 33008KT 10SM CLR 21/17 A3012 RMK AO2=
KFFX 081355Z AUTO 21005KT 7SM -DZ SCT009 BKN028 OVC034 23/22 A3002
     RMK AO2=
KCNB 081358Z AUTO 25007KT 10SM CLR 22/15 A3014 RMK AO2
     T02230152=
KCKN 081355Z AUTO 29006KT 10SM CLR 19/15 A3008 RMK AO2=
KCFE 081355Z AUTO 27006KT 10SM CLR 22/16 A3013 RMK AO2
     T02150164=
KCQM 081357Z AUTO 27005KT 10SM CLR 19/16 A3005 RMK AO2 LTG DSNT
     NE=
KDTL 081355Z AUTO 27006KT 10SM CLR 20/11 A3011 RMK AO2=
KBDH 081355Z AUTO 28007KT 10SM CLR 20/16 A3013 RMK AO2=
KCBG 081355Z AUTO 28008KT 10SM CLR 22/17 A3010 RMK AO2=
KADC 081357Z AUTO 26004KT 10SM CLR 19/15 A3010 RMK AO2=
KHAF 081350Z AUTO 33003KT 7SM OVC006 12/10 A2996 RMK AO2=
KCKC 081355Z AUTO 26006KT 10SM CLR 21/13 A3005 RMK AO2=
KJYG 081354Z AUTO 00000KT 10SM CLR 22/19 A3016 RMK AO2=
KCOQ 081356Z AUTO 27006KT 10SM CLR 21/18 A3007 RMK AO2=
KACQ 081359Z AUTO 30006KT 10SM CLR 20/17 A3016 RMK AO2=
KRGK 081355Z AUTO 32005KT 10SM CLR 22/17 A3009 RMK AO2=
KFSE 081354Z AUTO 24006KT 10SM CLR 18/14 A3007 RMK AO2=
KY70 081355Z AUTO 00000KT 7SM SCT009 BKN047 BKN110 26/23 A3002 RMK
     AO2 T02610225=
KUKT 081350Z AUTO 00000KT 9SM CLR 29/21 A3006 RMK AO1=
KFKA 081403Z AUTO 35008KT 10SM CLR 21/18 A3012 RMK AO2
     T02080176=
PACM 081356Z AUTO 00000KT 10SM CLR 11/09 A3005 RMK AO2 TSNO
     T01050088 SLP173 $=
PAGN 081356Z AUTO 00000KT CLR RMK AO2 PWINO TSNO SLPNO $=
PAHC 081356Z AUTO 07003KT 10SM CLR 07/07 A2998 RMK AO2 TSNO
     T00720066 SLP155 $=
PAIG 081356Z AUTO 18003KT 10SM BKN100 09/08 A2993 RMK AO2 PWINO
     TSNO T00880083 BKN V SCT SLP138 $=
PAMO 081356Z AUTO 36009KT 10SM OVC100 12/09 A3002 RMK AO2 TSNO
     T01160094 SLP165 $=
PAOH 081356Z AUTO 00000KT 9SM CLR 09/09 A3018 RMK AO2 TSNO
     T00880088 SLP222=
PAPM 081356Z AUTO 08003KT RA OVC060 07/07 A2998 RMK AO2 TSNO
     T00720066 P0000 SLP153 $=
####018000209####
SAUS99 KWBC 081359 RRC
METAR
PARS 081356Z AUTO 00000KT BKN065 08/08 A2999 RMK AO2 TSNO
     T00830077 SLP161 $=
PATQ 081356Z AUTO 24013KT 10SM CLR 09/03 A3002 RMK AO2 TSNO
     T00880033 SLP171 $=
####018000091####
SPUS99 KWBC 081359
SPECI
KGRB 081357Z 31006KT 7SM BKN006 OVC017 23/21 A3001 RMK AO2=
####018000122####
SAUS44 KLIX 081358 COR
MTRBTR
METAR KBTR 081353Z 08004KT 10SM SCT005 BKN010 27/24 A3004 RMK AO2 
SLP171 T02670244
####018000112####
SAUS45 KPSR 081359
MTRNYL
METAR KNYL 081355Z 11005KT 10SM FEW120 29/M01 A2975 RMK AO2 SLP070 
T02891011
####018001564####
SAZZ40 KAWN 081400 RRH
METAR KEDW 081355Z VRB02KT 90SM FEW100 17/03 A2990 RMK AO2A SLP080
      T01690028=
METAR KFAF 081355Z 07005KT 10SM FEW180 29/22 A3000 RMK AO2A SLP160
      T02850221=
METAR KFFO 081355Z 00000KT 7SM CLR 29/21 A3008 RMK AO2A SLP178=
METAR KHOP 081355Z AUTO 27004KT 10SM CLR 31/22 A3009 RMK AO2 SLP184
      T03050223=
METAR KHUA 081355Z 03010KT 12SM SKC 30/21 A3012=
METAR KNBG 081355Z 10006KT 10SM SCT015 BKN250 28/24 A3004 RMK AO2 SLP173
      T02830244 $=
METAR KNCA 081356Z 05006KT 6SM HZ CLR 30/24 A2995 RMK AO2 SLP142 T03000244=
METAR KNJK 081356Z 10003KT 10SM CLR 24/18 A2973 RMK AO2 SLP082 T02440178=
METAR KNJK 081356Z 10003KT 10SM CLR 24/18 A2973 RMK AO2 SLP082 T02440178=
METAR KNXX 081356Z 12007KT 5SM HZ FEW055 SCT200 27/21 A3006 RMK AO2
      SLP182 T02670211 $=
METAR KNYG 081356Z 08004KT 6SM HZ FEW100 BKN150 29/23 A3001 RMK AO2
      SLP164 T02940233=
METAR KPOE 081355Z AUTO 11006KT 10SM FEW010 28/24 A3004 RMK AO2 SLP172
      T02780239=
METAR KRDR 081355Z 32007KT 10SM CLR 20/15 A3008 RMK AO2A SLP196 T02040145
      $=
METAR KVPS 081355Z 33003KT 10SM FEW250 29/24 A3004 RMK SLP173 T02880238
      $=
METAR KWJF 081356Z 00000KT 10SM CLR 17/04 A2992 RMK AO2 SLP114 T01670039=
METAR LQBK 081400Z 29004KT 9999 SCT043 24/11 Q1021 NOSIG=
METAR ORSU 081400Z 25010KT CAVOK 41/M06 Q1009=
METAR PMDY 081356Z AUTO 00000KT 10SM CLR 24/20 A3007 RMK AO2 TSNO T02380200
      SLP488=
METAR TJSJ 081356Z 08010KT 10SM FEW023 SCT036 31/24 A3002 RMK AO2 SLP163
      T03060244=
####018001795####
SAEU KAWN 081400 RRH
METAR EDHL 081350Z 22007KT 170V280 CAVOK 30/13 Q1019 RMK U=
METAR EDLN 081350Z 24004KT 180V300 CAVOK 32/11 Q1018 RMK ATIS S=
METAR EDLP 081350Z VRB03KT CAVOK 32/11 Q1019 RMK RWY24 TRL60 RG ATIS
      X=
METAR EDLW 081350Z 28006KT 230V320 CAVOK 31/10 Q1019 RMK ATIS V=
METAR EDNY 081350Z 26006KT CAVOK 29/11 Q1021 RMK ATIS U=
METAR EDXW 081350Z 23008KT 9999 FEW040 20/16 Q1019 RMK ATIS INFO A=
METAR EHDL 081355Z AUTO 19005KT 9999NDV SCT070 30/12 Q1018 BLU=
METAR EHGG 081355Z AUTO 23011KT 200V270 9999NDV NSC 27/13 Q1018 NOSIG=
METAR EHKD 081355Z AUTO 25009KT 9999NDV SCT074/// BKN230/// 22/16 Q1019
      BLU BLU=
METAR EHLW 081355Z AUTO 24010KT 9999NDV SCT120 25/18 Q1018 BLU BLU=
METAR EHRD 081355Z 27006KT 220V310 CAVOK 27/16 Q1018 NOSIG=
METAR EHVK 081355Z AUTO 24005KT 9999NDV NCD 31/11 Q1018 BLU BLU=
METAR EHVL 081355Z AUTO 25010KT 9999NDV BKN079 OVC084 20/15 Q1019 BLU=
METAR EHWO 081355Z AUTO 25006KT 9999NDV FEW130 29/14 Q1018 BLU BLU=
METAR LGBL 081350Z 05008KT 9999 FEW030 SCT080 27/11 Q1013 NOSIG BLU=
METAR LGKO 081350Z 30019KT CAVOK 27/18 Q1009=
METAR LGLR 081350Z 02012KT 9999 FEW030 28/09 Q1014 NOSIG RMK FEW080
      BLU=
METAR LGPZ 081350Z 26014KT 9999 FEW025 29/18 Q1013 NOSIG BLU=
METAR LGRX 081350Z 26009KT 9999 FEW020 27/16 Q1012 NOSIG BLU=
METAR LGSM 081350Z 35010KT 9999 FEW030 31/16 Q1009=
METAR LGSR 081350Z 02013KT 9999 FEW025 26/18 Q1010 NOSIG BLU=
METAR LGSY 081350Z 33010KT 9999 FEW015 SCT020 25/13 Q1013 NOSIG RMK
      SCT080 BLU=
METAR LGTG 081350Z 01012KT 9999 FEW030 SCT070 26/10 Q1013 NOSIG BLU=
METAR LOXT 081350Z VRB05KT 50KM FEW100AC 27/13 Q1022 RMK FEW=
METAR LQBK 081400Z 29004KT 9999 SCT043 24/11 Q1021 NOSIG=
METAR LWSK 081400Z 33006KT 9999 BKN040 19/11 Q1020 NOSIG=
####018000120####
SAHW40 PHFO 081359
MTRNGF
METAR PHNG 081357Z 10004KT 10SM SCT026 BKN040 24/20 A3002 RMK AO2 
SLP160 T02390200 $
####018000122####
SAUS46 KPQR 081359 COR
MTRAST
METAR KAST 081355Z AUTO 23003KT 3SM BR OVC003 12/11 A2997 RMK AO2 
SLP150 T01220111
####018001308####
SAUS20 KNKA 081358
METAR K4M9 081355Z AUTO 24007KT 10SM CLR 28/25 A3007 RMK AO2 =
METAR KAEJ 081355Z AUTO 00000KT 10SM OVC016 10/08 A3046 RMK AO2=
METAR KBCT 081353Z AUTO 10008KT 10SM SCT024 32/24 A2998 =
METAR KBVU 081355Z AUTO 00000KT 10SM CLR 26/M02 A2991 RMK AO2 =
METAR KCEF 081355Z 18005KT 7SM SCT014 BKN018 OVC080 26/23 A3007 RMK
      AO2A SLP183 P0000 T02560226 $=
METAR KDCM 081355Z AUTO 35004KT 7SM CLR 30/25 A3002 RMK AO2=
METAR KEFD 081350Z 06004KT 4SM -RA SCT006 BKN020 OVC250 26/25 A2998=
METAR KHRT 081355Z VRB01KT 10SM CLR 29/25 A3003 RMK AO2A SLP171 T02860250
      $=
METAR KHYW 081355Z AUTO 01007KT 5SM HZ CLR 30/24 A2995 RMK AO2=
METAR KLUF 081355Z 05003KT 10SM SCT170 29/07 A2981 RMK AO2A SLP062
      T02900070 $=
METAR KMCJ 081355Z AUTO 07008KT 5SM CLR 24/23 A2994 RMK AO1 P0001 
     =
METAR KMMT 081355Z 29006KT 10SM CLR 31/21 A2999 RMK AO2A RAB1256E1305
      SLP154 P0000 T03100213=
METAR KMXF 081355Z AUTO 00000KT 10SM CLR 30/24 A3003 RMK AO2 SLP168
      T03000242=
METAR KRBW 081355Z AUTO 31006KT 10SM CLR 30/21 A2998 RMK AO2=
METAR KRCM 081355Z AUTO 35004KT 10SM OVC008 23/23 A3009 RMK AO2=
METAR KSBD 081353Z 00000KT 1 1/2SM BR OVC010 14/12 A2993=
METAR KSNC 081355Z AUTO 14005KT 10SM BKN011 OVC019 24/24 A3010 RMK 
     AO2 =
####018000081####
SALI20 GLRB 081400
METAR GLRB 081400Z 20006KT 9999 BKN020 30/24 Q1013 NOSIG=
####018000295####
SANL31 EHDB 081355
METAR EHAM 081355Z 25007KT 190V310 CAVOK 27/15 Q1019 NOSIG=
METAR EHBK 081355Z AUTO 17007KT 130V230 9999NDV NSC 31/11 Q1018
NOSIG=
METAR EHGG 081355Z AUTO 23011KT 200V270 9999NDV NSC 27/13 Q1018
NOSIG=
METAR EHRD 081355Z 27006KT 220V310 CAVOK 27/16 Q1018 NOSIG=
####018000088####
SACV20 GVAC 081400
METAR GVAC 081400Z 07009KT 9999 BKN015 BKN018 25/20 Q1013 NOSIG=
####018000650####
SAGR31 LGAT 081350
METAR LGAD 081350Z 31009KT 9999 FEW020 27/14 Q1014=
METAR LGAV 081350Z 06015KT 9999 FEW025 BKN035 26/12 Q1013 NOSIG=
METAR LGIR 081350Z 01006KT 9999 SCT020 28/24 Q1011 NOSIG=
METAR LGKL 081350Z 28014KT 9999 FEW030 32/09 Q1011=
METAR LGKO 081350Z 30019KT CAVOK 27/18 Q1009=
METAR LGKR 081350Z 31023KT CAVOK 27/12 Q1012 NOSIG=
METAR LGLM 081350Z 04013KT 9999 FEW008 SCT020 22/15 Q1014=
METAR LGRP 081350Z 25012KT 9999 FEW020 29/19 Q1007 NOSIG=
METAR LGSA 081350Z 04012KT 9999 FEW020 31/18 Q1012=
METAR LGSM 081350Z 35010KT 9999 FEW030 31/16 Q1009=
METAR LGTS 081350Z 33017G27KT 9999 FEW030 25/11 Q1016 NOSIG=
####018000091####
SAAJ31 UBBB 081400
METAR UBBB 081400Z 35018KT CAVOK 30/29 Q1009 NOSIG RMK
R88CLRD70=
####018000075####
SAQB31 LQMO 081400
METAR LQMO 081400Z 34011KT 9999 FEW045 29/09 Q1017=
####018000077####
SALY31 HLLB 081400
METAR HLLB 081350Z 
35018KT 9999 FEW025 30/18 Q1016=
####018000179####
SANL32 EHDB 081355
METAR EHEH 081355Z AUTO 31004KT 9999NDV NCD 32/12 Q1018 
BLU BLU=
METAR EHKD 081355Z AUTO 25009KT 9999NDV SCT074/// BKN230/// 22/16
Q1019 
BLU BLU=
####018000080####
SAMP31 LMMM 081400 RRB
METAR HLLB 081350Z
35018KT 9999 FEW025 30/18 Q1016=
####018000545####
SAGR32 LGAT 081350
METAR LGAL 081350Z 03005KT 9999 FEW020TCU SCT025 BKN080 20/16 Q1015=
METAR LGEL 081350Z 36011G21KT 9999 FEW025 SCT080 28/12 Q1012 NOSIG=
METAR LGKV 081350Z 35005KT 9999 SCT030TCU BKN100 18/17 Q1014=
METAR LGMT 081350Z 34018G30KT 310V010 9999 SCT030 27/18 Q1011=
METAR LGPZ 081350Z 26014KT 9999 FEW025 29/18 Q1013 NOSIG=
METAR LGRX 081350Z 26009KT 9999 FEW020 27/16 Q1012 NOSIG=
METAR LGSK 081350Z NIL=
METAR LGSR 081350Z 02013KT 9999 FEW025 26/18 Q1010 NOSIG=
METAR LGZA 081350Z 32017KT CAVOK 28/11 Q1013=
####018000074####
SALY31 HLLM 081400
METAR HLLM 081350Z 
35010KT 7000 SKC 28/21 Q1019=
####018000081####
SAMP31 LMMM 081400 RRB
METAR HLLB 081350Z
35018KT 9999 FEW025 30/18 Q1016=
####018000327####
SAGR33 LGAT 081350
METAR LGHI 081350Z 36012KT CAVOK 28/18 Q1011=
METAR LGKC 081350Z NIL=
METAR LGKF 081350Z 33020KT CAVOK 26/15 Q1013=
METAR LGKP 081350Z NIL=
METAR LGKZ 081350Z NIL=
METAR LGMK 081350Z 36020KT 9999 FEW015 24/17 Q1012=
METAR LGNX 081350Z NIL=
METAR LGPA 081350Z NIL=
METAR LGSO 081350Z NIL=
####018000081####
SAMP31 LMMM 081400 RRB
METAR HLLB 081350Z 
35018KT 9999 FEW025 30/18 Q1016=
####018000081####
SACV20 GVBA 081400
METAR GVBA 081400Z 04008KT 9999 BKN015 28/20 Q1013 NOSIG=
####018000153####
SARS18 KAWN 081400 RRA
METAR ESSA 081350Z 24011KT 9999 SCT045 25/14 Q1016 NOSIG=
METAR UBBB 081400Z 35018KT CAVOK 30/29 Q1009 NOSIG RMK R88CLRD70=
####018000820####
SPZZ40 KAWN 081359 RRK
SPECI CWSA 081353Z AUTO 23006KT 1SM OVC001 18/18 A3022=
SPECI CYAS 081352Z 28003KT 1SM BR OVC003 RMK FG3ST5=
SPECI CYBC 081354Z AUTO 24002KT 8SM OVC003 OVC081 16/14 A3002=
SPECI CYQI 081352Z 18004KT 1SM BR BKN002 RMK FG2SF5 VIS N 8 RVR RWY
      24 P6000 FT=
SPECI CYTL 081352Z AUTO 25005KT 9SM BKN015 BKN084 18/15 A2977=
SPECI PAED 081352Z AUTO 00000KT 10SM BKN065 OVC080 12/11 A2999 RMK
      AO2 RAE1256B1316E1325DZB1256E1258B1325E1352 SLP158 $=
SPECI RJFN 081344Z 35004KT 4000 -SHRA BR FEW020 SCT035 BKN060 24/23
      Q1009 RMK 2CU020 3CU035 7SC060 A2982 VIS SW-W 3500M=
SPECI RJNH 081350Z 02004KT 350V050 9999 FEW006 SCT020 24/23 Q1010 RMK
      1CU006 4CU020 A2983 1CU006 SE-S=
SPECI SEGU 081340Z 20005KT 8000S 9999N -DZ BKN040 OVC100 23/19 Q1012
      NOSIG=
####018000075####
SAMA20 FIMP 081400
METAR FIMP 081400Z 13014KT 9999 SCT016 22/16 Q1021=
####018000124####
SAUS44 KBMX 081359 COR
MTRLOR
METAR KLOR 081353Z AUTO 00000KT 10SM CLR 29/23 A3003 RMK AO2 SLP165 
T02890228 TSNO $
####018000118####
SAUS46 KREV 081359
MTRNFL
METAR KNFL 081356Z 00000KT 10SM FEW130 SCT160 19/00 A3003 RMK AO2 
SLP138 T01890000
####018000108####
SAUS46 KPQR 081359
MTRNUW
METAR KNUW 081356Z 00000KT 10SM CLR 17/12 A2998 RMK AO2 SLP157 
T01720117
####018000123####
SAUS45 KREV 081359 COR
MTRDRA
METAR KDRA 081355Z AUTO 00000KT 10SM CLR 23/M10 A2997 RMK AO2 SLP096 
T02331100 TSNO
####018000086####
SAAI41 FHAW 081350
METAR FHAW 081350Z 12014KT 9999 FEW030 BKN050 28/19 Q1015 BLU=
####018000107####
SAUS46 KLOX 081359
MTR3A6
METAR K3A6 081450Z AUTO 36002KT 12/11 A2989 RMK AO1 SLP142 T01150108 54000
####018000102####
SAAH10 OAKN 081400
METAR OAKN 081350Z 26008KT 9999 FEW170 40/05 Q1006 BLU NOSIG RMK A2972 DA7100=
####018000101####
SAAJ31 UBBB 081400
UBBN 081400Z 12012KT 9999 NSC 37/09 Q1007 R14R/CLRD60 NOSIG
RMK G/O QFE681=
####018000072####
SAYE20 OYAS 081400
METAR OYAS 081400Z 18006KT 6000 NSC 35/21 Q1003=
####018000131####
SAHW31 KMSC 081359
METAR PHNY 081356Z AUTO 00000KT BKN043 BKN050 19/17 A3005 RMK AO2 
    TSNO T01880172 BKN V SCT SLP155 $=
####018000165####
SAUS20 KNKA 081359
METAR KXFL 081350Z 00000KT 10SM CLR 28/22 A3002=
METAR KY50 081356Z AUTO 36006KT 10SM BKN013 23/21 A3004 RMK AO2 
    T02330211 SLP166 $=
####018000498####
SAAK41 KNKA 081359
METAR PAFS 081356Z AUTO 03005KT 10SM CLR 11/06 A2999 RMK AO2 TSNO 
    T01110055 SLP162 $=
METAR PAIW 081357Z AUTO 00000KT 10SM CLR 08/06 A3016 RMK AO2 SLP307 
    T00780061=
METAR PAMB 081356Z AUTO 34003KT 10SM BKN040 OVC080 11/08 A2991 RMK 
    AO2 PWINO TSNO T01050083 SLP133 $=
METAR PAVA 081357Z AUTO 02009KT 10SM CLR 10/08 A3006 RMK AO2 SLP182 
    T01000083=
METAR PPIZ 081356Z AUTO 20007KT 10SM CLR 06/02 A3007 RMK AO2 TSNO 
    T00610022 SLP185 $=
####018002961####
SAUS20 KNKA 081359
METAR KBBF 081455Z AUTO 13018KT 8SM FEW032 FEW050 29/26 A2984 RMK
     A01=
METAR KBQX 081355Z AUTO 12017G26KT 8SM SCT024 SCT034 SCT042 29/25
     A2989 RMK A01=
SPECI KDGW 081358Z AUTO 00000KT 3SM BR OVC001 08/08 A3036 RMK AO2 $=
METAR KDLP 081355Z AUTO 10014KT 9SM FEW022 SCT027 SCT034 29/24
     A3002 RMK A01=
METAR KEDU 081355Z AUTO 00000KT 10SM CLR 14/10 A2985 RMK AO1=
METAR KEHC 081355Z AUTO 12021KT 6SM HZ FEW018 SCT026 29/25 A2997
     RMK A01=
METAR KEMK 081355Z AUTO 14021G30KT 3/4SM HZ SCT005 BKN026 OVC044
     28/25 A2991 RMK A01=
METAR KGBK 081355Z AUTO 09014G23KT 10SM FEW021 29/25 A2995 RMK A01=
METAR KGVX 081355Z AUTO 13025KT 9SM BKN080 M40/ A2993 RMK A01=
METAR KHQI 081355Z AUTO 11021G29KT 1/2SM BR SCT003 BKN021 OVC036
     28/26 A2993 RMK A01 VIS 1/4V3=
METAR KIPN 081355Z AUTO 07013KT 10SM FEW025 57/50 A3002 RMK A01=
METAR KMDJ 081355Z AUTO 11013KT 10SM SCT024 SCT030 29/24 A3003 RMK
     A01=
METAR KMEI 081358Z 01005KT 10SM CLR 29/23 A3007 RMK AO2 SLP176 
    T02940228=
METAR KMHR 081355Z AUTO 17004KT 10SM CLR 13/10 A2987 RMK AO1=
METAR KMIU 081355Z AUTO 13025KT 1SM HZ FEW004 BKN019 OVC055 27/25
     A2983 RMK A01 VIS 1/4V5=
METAR KMRJ 081355Z AUTO 32004KT 10SM BKN007 BKN013 24/21 A3007 
     RMK AO2 T02360205=
METAR KMYT 081355Z AUTO 11014KT 10SM FEW021 FEW026 28/24 A2999 RMK
     A01=
METAR KMZG 081355Z AUTO 00000KT 9SM FEW022 FEW028 SCT041 29/25
     A2985 RMK A01=
SPECI KNEW 081358Z 08010KT 10SM BKN014 BKN021 29/25 A3005 RMK AO2=
METAR KOEO 081355Z AUTO 27004KT 10SM CLR 21/17 A3012 RMK AO2=
METAR KPBH 081355Z AUTO 00000KT 10SM SCT050 22/18 A3008 RMK AO2 
     LTG DSNT N=
METAR KPCZ 081355Z AUTO 27005KT 10SM CLR 25/21 A3002 RMK AO2 
     T02450207=
METAR KPDC 081353Z AUTO 30005KT 10SM OVC010 23/20 A3006 RMK AO2 
     T02310203=
METAR KPSM 081355Z 14010KT 10SM FEW020 SCT200 27/21 A3008 RMK AO2A
      SLP188 T02660206=
METAR KRCX 081355Z AUTO 34005KT 10SM CLR 21/17 A3010 RMK AO2 
     T02100165=
METAR KRNH 081356Z AUTO 29005KT 10SM CLR 21/17 A3011 RMK AO2 
     T02100171=
METAR KRPD 081354Z AUTO 29006KT 10SM CLR 21/17 A3011 RMK AO2 
     T02130170=
METAR KRRL 081355Z AUTO 35003KT 10SM SCT014 21/18 A3007 RMK AO2 
     LTG DSNT N T02120179=
METAR KRYV 081355Z AUTO 27004KT 10SM BKN009 24/21 A3003 RMK AO2=
METAR KSCF 081400Z AUTO 13019KT 9SM 28/25 A2994 RMK A01=
METAR KSTE 081355Z AUTO 32003KT 10SM BKN013 22/19 A3005 RMK AO2=
METAR KSUW 081355Z AUTO 24007KT 10SM CLR 22/16 A3003 RMK AO2=
METAR KTKV 081355Z AUTO 32003KT 10SM CLR 20/16 A3007 RMK AO2 
     T02040161=
SPECI KTTN 081358Z 16007KT 3SM HZ SCT013 BKN020 28/23 A3004 RMK AO2=
METAR KUNU 081352Z AUTO 27006KT 10SM SCT010 23/20 A3004 RMK AO2 
     T02340195=
METAR KVBS 081355Z AUTO 11022KT 10SM FEW019 29/25 A2997 RMK A01=
METAR KVNP 081355Z AUTO 09015G20KT 7SM FEW012 BKN019 BKN025 28/26
     A3001 RMK A01=
####018001812####
SAEU KAWN 081400 RRI
METAR EGAE 081350Z 23010KT 9999 FEW020 BKN040 18/10 Q1012=
METAR EGBJ 081350Z 23008KT 200V280 9999 FEW045 23/07 Q1018=
METAR EGNC 081350Z 23016KT 190V270 9999 SCT035 19/09 Q1015=
METAR EGNH 081350Z 24012KT 9999 FEW031 19/11 Q1017=
METAR EGNJ 081350Z 22010KT 9999 SCT040 23/09 Q1017=
METAR EGPE 081350Z 22019G29KT 180V240 9999 FEW018 SCT045 18/09 Q1010=
METAR EGPL 081350Z 22021KT 9999 FEW018 16/12 Q1009=
METAR COR EGPM 081350Z 22020KT 9999 FEW026 16/10 Q1007 NOSIG=
METAR EGPN 081350Z 24020KT 9999 SCT045 18/11 Q1012=
METAR EGPO 081350Z 22024G35KT 9999 VCSH FEW024 SCT034 18/10 Q1007=
METAR EGSC 081350Z 21006KT 090V270 9999 FEW038 23/12 Q1018=
METAR COR EGSH 081350Z 23008KT 190V280 9999 SCT033 25/13 Q1018 NOSIG=
METAR GVAC 081400Z 07009KT 9999 BKN015 BKN018 25/20 Q1013 NOSIG=
METAR LGAD 081350Z 31009KT 9999 FEW020 27/14 Q1014=
METAR LGAL 081350Z 03005KT 9999 FEW020TCU SCT025 BKN080 20/16 Q1015=
METAR LGEL 081350Z 36011G21KT 9999 FEW025 SCT080 28/12 Q1012 NOSIG=
METAR LGHI 081350Z 36012KT CAVOK 28/18 Q1011=
METAR LGIR 081350Z 01006KT 9999 SCT020 28/24 Q1011 NOSIG=
METAR LGKF 081350Z 33020KT CAVOK 26/15 Q1013=
METAR LGKL 081350Z 28014KT 9999 FEW030 32/09 Q1011=
METAR LGKR 081350Z 31023KT CAVOK 27/12 Q1012 NOSIG=
METAR LGKV 081350Z 35005KT 9999 SCT030TCU BKN100 18/17 Q1014=
METAR LGLM 081350Z 04013KT 9999 FEW008 SCT020 22/15 Q1014=
METAR LGMK 081350Z 36020KT 9999 FEW015 24/17 Q1012=
METAR LGMT 081350Z 34018G30KT 310V010 9999 SCT030 27/18 Q1011=
METAR LGRP 081350Z 25012KT 9999 FEW020 29/19 Q1007 NOSIG=
METAR LGSA 081350Z 04012KT 9999 FEW020 31/18 Q1012=
METAR LGTS 081350Z 33017G27KT 9999 FEW030 25/11 Q1016 NOSIG=
METAR LGZA 081350Z 32017KT CAVOK 28/11 Q1013=
METAR LQMO 081400Z 34011KT 9999 FEW045 29/09 Q1017=
