####018000258####
SAGG31 UGTB 080900
METAR UGSB 080900Z 28006KT 9999 FEW023CB SCT070 28/24 Q1010 NOSIG=
METAR UGKO 080900Z VRB04KT 9999 SCT033CB BKN100 31/23 Q1012
           BECMG 27006KT=      
METAR UGTB 080900Z VRB04KT 9999 SCT066 33/18 Q1014 NOSIG RMK 
31CLRD80=
####018000084####
SPUS41 KWBC 080905
SPECI
KBDR 080902Z AUTO 10006KT 1SM BR OVC002 24/23 A3003=
####018000081####
SPUS41 KWBC 080905
SPECI
KDOV 080900Z AUTO 00000KT 2SM BR CLR 24/24 A2999=
####018000084####
SPUS41 KWBC 080905
SPECI
KLWM 080902Z AUTO 19003KT 5SM BR OVC010 24/22 A3008=
####018000704####
SAFR36 LFPW 080900
METAR LFBA 080900Z 11008KT CAVOK 26/16 Q1018 NOSIG=
METAR LFBE 080900Z 06007KT 030V090 CAVOK 26/18 Q1018 NOSIG=
METAR LFGJ 080900Z AUTO 22005KT 160V280 9999NDV NSC 25/15 Q1021=
METAR LFJR 080900Z AUTO 17003KT 100V230 9999NDV NCD 28/13 Q1018=
METAR LFMD 080900Z AUTO 17006KT 130V200 9999NDV NSC 29/21 Q1020=
METAR LFMH 080900Z 15004KT 090V220 CAVOK 26/13 Q1021 NOSIG=
METAR LFOT 080900Z AUTO 11004KT 050V160 9999NDV NSC 28/11 Q1019=
METAR LFPN 080900Z VRB05KT CAVOK 28/12 Q1019 NOSIG=
METAR LFRC 080900Z AUTO VRB03KT 9999NDV BKN014 19/15 Q1019=
METAR LFRG 080900Z AUTO VRB03KT 9999NDV NSC 25/10 Q1019=
METAR LFRK 080900Z 32005KT 260V030 CAVOK 24/14 Q1019 NOSIG=
####018000459####
SAFR31 LFPW 080900
METAR LFLL 080900Z 12004KT 070V200 CAVOK 27/14 Q1021 NOSIG=
METAR LFMN 080900Z 09006KT 9999 FEW023 28/22 Q1020 NOSIG=
METAR LFPG 080900Z 19006KT 140V230 CAVOK 27/11 Q1019 NOSIG=
METAR LFPO 080900Z 21005KT 150V250 CAVOK 27/12 Q1019 NOSIG=
METAR LFQQ 080900Z 22004KT 180V280 CAVOK 26/14 Q1019 NOSIG=
METAR LFRB 080900Z 12003KT 070V170 9999 BKN010 18/15 Q1019 NOSIG=
METAR LFRS 080900Z 17003KT 090V200 CAVOK 26/13 Q1018 NOSIG=
####018000522####
SATS32 DTTA 080900
METAR DTKA 080900Z 32010KT 9999 FEW023 27/20 Q1020 NOSIG=
METAR DTMB 080900Z 01008KT CAVOK 27/17 Q1019 NOSIG=
METAR DTNZ 080900Z 08009KT CAVOK 29/15 Q1019=
METAR DTTA 080900Z 29005KT 230V010 9999 FEW026 29/16 Q1019  NOSIG=
METAR DTTF 080900Z 17004KT CAVOK 31/15 Q1018 NOSIG=
METAR DTTG 080900Z 09012KT CAVOK 29/15 Q1019 NOSIG=
METAR DTTJ 080900Z 10004KT CAVOK 29/22 Q1019 NOSIG=
METAR DTTX 080900Z 07004KT CAVOK 29/19 Q1019 NOSIG=
METAR DTTZ 080900Z 10012KT CAVOK 31/22 Q1019 NOSIG=
####018000586####
SAFR35 LFPW 080900
METAR LFMI 080900Z AUTO VRB02KT 9999NDV NSC 31/13 Q1020=
METAR LFMK 080900Z 08014KT CAVOK 29/14 Q1019 NOSIG=
METAR LFRD 080900Z AUTO 01006KT 340V050 9999NDV SCT013 19/15 Q1019=
METAR LFRN 080900Z AUTO 32007KT 290V350 9999NDV NSC 22/15 Q1019=
METAR LFRO 080900Z AUTO 02003KT 330V070 9999NDV BKN016 19/16 Q1019=
METAR LFRZ 080900Z AUTO 05004KT 350V110 9999NDV NSC 25/14 Q1018=
METAR LFSB 080900Z 10004KT 040V200 CAVOK 27/10 Q1021 NOSIG=
METAR LFST 080900Z VRB03KT CAVOK 26/13 Q1020 NOSIG=
METAR LFTH 080900Z 15005KT 110V190 CAVOK 29/20 Q1020 NOSIG=
####018000089####
SAMG20 FMMI 080900
METAR FMMI 080900Z 12010KT 080V160 9999 BKN020 18/12 Q1027 NOSIG=
####018000685####
SAKO31 RKSI 080900
METAR RKSI 080900Z 25003KT 9999 FEW040 OVC120 24/18 Q1008 TEMPO
           -RA=
METAR RKSS 080900Z 32003KT 9999 FEW030 OVC120 25/17 Q1008 TEMPO RA =
METAR RKPC 080900Z 07012KT 4500 BR SCT030 BKN150 24/21 Q1008 NOSIG =
METAR RKPK 080900Z 12007KT 9999 SCT030 BKN200 25/17 Q1009 NOSIG =
METAR RKTU 080900Z 29004KT 9000 SCT030 SCT100 BKN200 28/19 Q1008 
           NOSIG =
METAR RKTN 080900Z 24003KT 9000 -TSRA FEW025CB BKN040 OVC200 26/22
           Q1007 NOSIG RMK OCNL LTGCC TS SW MOV SE=
METAR RKJB 080900Z 35007KT 320V040 8000 FEW025 BKN130 26/17 Q1008 
           NOSIG =
METAR RKNY 080900Z 13006KT 9999 SCT012 OVC020 21/18 Q1008 NOSIG =
####018000769####
SAEW32 LEMM 080900
METAR LEAS 080900Z VRB02KT 9999 4000S SCT002 SCT008 BKN013 20/19
Q1017 TEMPO 4000 TSRA SCT025CB=
METAR LEBB 080900Z VRB01KT 8000 NSC 27/21 Q1015 NOSIG=
METAR LECO 080900Z VRB01KT 8000 FEW002 SCT010 20/20 Q1015 RERA=
METAR LEGE 080900Z VRB02KT CAVOK 30/20 Q1019=
METAR LEST 080900Z 10008KT 070V130 9999 FEW018 18/17 Q1016 NOSIG=
METAR LEZG 080900Z 09008KT CAVOK 29/17 Q1019=
METAR LESO 080900Z 02005KT 340V070 CAVOK 24/19 Q1015=
METAR LEVT 080900Z NIL=
METAR LERS 080900Z 18005KT 110V220 CAVOK 27/19 Q1019=
METAR LEMH 080900Z 20006KT 170V250 CAVOK 28/21 Q1020=
METAR LEAM 080900Z 10015KT CAVOK 34/07 Q1017=
METAR LEGR 080900Z 10003KT 060V120 9999 FEW060 30/15 Q1018=
METAR LERL 080900Z 05006KT 020V130 CAVOK 31/11 Q1019=
####018000519####
SAFR33 LFPW 080900
METAR LFKB 080900Z 09006KT 050V120 9000 FEW020 29/23 Q1019 NOSIG=
METAR LFKC 080900Z 35007KT 310V030 9999 FEW016 27/22 Q1020 NOSIG=
METAR LFKF 080900Z VRB04KT 9999 SCT033 30/22 Q1019 NOSIG=
METAR LFKJ 080900Z 24007KT 9999 FEW026 27/22 Q1020 NOSIG=
METAR LFLC 080900Z 23003KT 160V270 CAVOK 26/16 Q1020 NOSIG=
METAR LFMP 080900Z 07006KT 040V110 CAVOK 28/17 Q1019 NOSIG=
METAR LFMV 080900Z AUTO VRB03KT 9999NDV NSC 30/17 Q1020=
METAR LFSL 080900Z AUTO 11008KT 9999NDV NSC 26/14 Q1020=
####018000574####
SAFR32 LFPW 080900
METAR LFBD 080900Z 07009KT CAVOK 29/13 Q1017 NOSIG=
METAR LFBH 080900Z AUTO 20004KT 160V290 9999NDV NSC 29/13 Q1018=
METAR LFBI 080900Z 12003KT 040V180 CAVOK 27/14 Q1019 NOSIG=
METAR LFBO 080900Z 12005KT 070V160 CAVOK 28/13 Q1019 NOSIG=
METAR LFBP 080900Z VRB03KT CAVOK 30/20 Q1017 NOSIG=
METAR LFBZ 080900Z 08005KT CAVOK 26/21 Q1016 NOSIG=
METAR LFLB 080900Z VRB01KT 9999 FEW060 26/16 Q1021 NOSIG=
METAR LFML 080900Z 29004KT CAVOK 30/18 Q1019 BECMG 22015KT=
METAR LFBL 080900Z NIL=
METAR LFBT 080900Z NIL=
METAR LFLX 080900Z NIL=
####018000075####
SAEG31 HECA 080900
METAR HECA 080900Z 33006KT CAVOK 31/19 Q1011 NOSIG=
####018000801####
SAFR34 LFPW 080900
METAR LFCR 080900Z AUTO 13005KT 080V190 9999NDV NSC 28/11 Q1022=
METAR LFJL 080900Z AUTO VRB03KT 9999NDV NSC 26/10 Q1021=
METAR LFLP 080900Z AUTO VRB02KT 9999NDV NSC 26/12 Q1022=
METAR LFLS 080900Z VRB02KT CAVOK 27/16 Q1022 NOSIG=
METAR LFLY 080900Z VRB02KT CAVOK 28/12 Q1021 NOSIG=
METAR LFMT 080900Z 07005KT 040V100 CAVOK 29/15 Q1020 NOSIG=
METAR LFMU 080900Z AUTO 09008KT 050V140 9999NDV NSC 29/13 Q1020=
METAR LFOB 080900Z 20006KT 160V240 CAVOK 27/12 Q1019 NOSIG=
METAR LFOH 080900Z AUTO 35012KT 9999NDV NSC 20/11 Q1020=
METAR LFOK 080900Z AUTO 21005KT 180V250 9999NDV NSC 27/13 Q1020=
METAR LFOP 080900Z VRB01KT CAVOK 25/12 Q1019 NOSIG=
METAR LFPB 080900Z 18005KT 120V250 CAVOK 28/11 Q1019 NOSIG=
METAR LFSN 080900Z VRB01KT CAVOK 27/14 Q1020 NOSIG=
####018000582####
SAFR37 LFPW 080900
METAR LFAQ 080900Z AUTO 21007KT 9999NDV NSC 25/11 Q1020=
METAR LFBU 080900Z AUTO 12005KT 070V160 9999NDV NSC 29/14 Q1019=
METAR LFLN 080900Z AUTO 16003KT 100V230 9999NDV NSC 26/15 Q1020=
METAR LFPM 080900Z VRB02KT CAVOK 28/14 Q1019=
METAR LFRH 080900Z 05004KT 340V130 CAVOK 22/15 Q1018=
METAR LFRQ 080900Z 06006KT 010V090 9999 FEW020 SCT230 21/15 Q1018
NOSIG=
METAR LFRT 080900Z VRB03KT 9999 BKN011 SCT250 18/15 Q1019=
METAR LFSD 080900Z AUTO 09003KT 030V170 9999NDV NSC 26/14 Q1020=
METAR LFTW 080900Z AUTO VRB02KT 9999NDV NSC 29/14 Q1020=
####018000315####
SATS42 DTTA 080900
METAR DTTB 080900Z 31010KT 9999 FEW020 28/18 Q1020=
METAR DTTD 080900Z 12004KT CAVOK 26/17 Q1021=
METAR DTTK 080900Z 36004KT CAVOK 30/16 Q1019=
METAR DTTL 080900Z 28006KT CAVOK 28/19 Q1019=
METAR DTTN 080900Z 17004KT CAVOK 30/16 Q1019=
METAR DTTR 080900Z 09012KT CAVOK 29/12 Q1020=
####018000366####
SARO31 LROM 080900
METAR LRBS 080900Z VRB02KT 9999 FEW018 BKN046 20/15 Q1016 NOSIG=
METAR LRCK 080900Z 02011KT 350V060 9999 SCT035 22/14 Q1015 NOSIG=
METAR LROP 080900Z VRB02KT 9999 FEW040CB BKN044 20/14 Q1016
880///95 NOSIG=
METAR LRSB 080900Z 36006KT 9999 BKN030 OVC083 15/12 Q1020=
METAR LRTR 080900Z 36007KT 320V050 9999 FEW025 SCT042 20/14 Q1020=
####018000516####
SATS40 DTTA 080900
METAR DTKA 080900Z 32010KT 9999 FEW023 27/20 Q1020 NOSIG=
METAR DTMB 080900Z 01008KT CAVOK 27/17 Q1019 NOSIG=
METAR DTNZ 080900Z 08009KT CAVOK 29/15 Q1019=
METAR DTTA 080900Z 29005KT 230V010 9999 FEW026 29/16 Q1019  NOSIG=
METAR DTTF 080900Z 17004KT CAVOK 31/15 Q1018 NOSIG=
METAR DTTJ 080900Z 10004KT CAVOK 29/22 Q1019 NOSIG=
METAR DTTR 080900Z 09012KT CAVOK 29/12 Q1020=
METAR DTTX 080900Z 07004KT CAVOK 29/19 Q1019 NOSIG=
METAR DTTZ 080900Z 10012KT CAVOK 31/22 Q1019 NOSIG=
####018000492####
SAIR34 OIII 080900
METAR OIAG 080900Z NIL=
METAR OIAM 080900Z 18010KT 8000 SKC 41/11 Q0998 A2950=
METAR OICI 080900Z 24006KT CAVOK 37/M02 Q1013 A2992 864.0=
METAR OIKQ 080900Z 09014KT 6000 NSC 37/27 Q1000 A2955=
METAR OINN 080900Z 33016KT 9999 FEW035 31/25 Q1010 A2984=
METAR OINR 080900Z 35014KT 9999 FEW030TCU 31/24 Q1010 A2983=
METAR OISL 080900Z 21004KT 5000 DU FEW040TCU 40/20 Q1005 A2969=
METAR OISY 080900Z NIL=
METAR OITZ 080900Z 15014KT CAVOK 36/M02 Q1016 A3002=
####018000552####
SAUS17 KAWN 080900 RRD
METAR K79J 080856Z AUTO 00000KT 10SM CLR 24/22 A3002 RMK AO2 SLP159
      T02440217 56005 TSNO $=
METAR KADW 080855Z 00000KT 10SM BKN075 25/23 A2999 RMK AO2A SLP155
      T02520231 55001 $=
METAR KHRT 080855Z AUTO 00000KT 10SM CLR 23/23 A3000 RMK AO2 SLP162
      T02330232 56008 $=
METAR KNJM 080857Z AUTO 01005KT 10SM CLR 26/20 A2990 RMK AO2 SLP130
      T02610200 56005 $=
METAR PABA 080901Z AUTO 22005KT 10SM SCT005 OVC055 04/04 A3005 RMK
      AO2 RAE0824 SLP175 P0000 60000 T00440039 400440044 50004=
####018000442####
SAXX70 KAWN 080900 RRG
METAR KQEJ 080850Z AUTO 19002KT 7SM CLR 27/18 A2990 RMK A02=
METAR KQBS 080855Z 35015G28KT 5000 BLDU FEW000 SCT020 47/M02 A2949
      RMK DU FEW000 SCT020 SLP993 WND/ALSTG/SLP/QNH ESTMD QNH998
      57010=
METAR KQIR 080855Z COR 06010KT 8000 HZ CLR 41/26 A2953 RMK AO2 SLP997
      T04090258 58011 COR 0902=
METAR KQOX 080855Z AUTO VRB03KT 9999 CLR 30/02 A3021 RMK AO2 SLP087
      T03000018 57016 $=
####018000362####
SAPO31 LPMG 080900
METAR LPFR 080900Z 25004KT 180V300 9000 SCT009 BKN011 23/20 Q1016=
METAR LPMA 080900Z 16004KT 110V250 9999 FEW016 23/18 Q1020 RS13001KT 
0512002KT 2321003KT=
METAR LPPR 080900Z VRB03KT 5000 BR SCT250 24/19 Q1013=
METAR LPPS 080900Z 03009KT 9999 FEW016 SCT030 21/15 Q1020=
METAR LPPT 080900Z VRB03KT 8000 FEW120 26/18 Q1015 NOSIG=
####018000075####
SACA01 KMSC 080905
METAR MYNN 080900Z 00000KT 9999 SCT015 26/26 A2993=
####018002531####
SAUS20 KNKA 080905
METAR KUXL 080900Z AUTO 08007KT 10SM CLR 26/24 A2997 RMK AO2=
METAR KCLS 080855Z AUTO 00000KT 10SM CLR 14/13 A2995 RMK AO2 =
SPECI KCMX 080904Z AUTO 30005KT 10SM SCT010 BKN018 BKN060 18/18 
    A2998 RMK AO2=
METAR KGAO 080900Z AUTO 07003KT 10SM CLR 27/25 A2999 RMK AO2=
METAR KGZL 080855Z AUTO 14005KT 10SM BKN034 BKN085 24/23 A3002 RMK 
     AO2 =
METAR KHQU 080902Z AUTO 00000KT 10SM CLR 21/19 A3005 RMK AO1=
METAR KIER 080900Z AUTO 00000KT 10SM CLR 23/23 A3001 RMK AO2 PWINO=
METAR KIXA 080900Z AUTO 04003KT 7SM CLR 23/19 A2995 RMK AO2 
     T02260192=
METAR KJFZ 080900Z AUTO 00000KT 8SM FEW065 22/21 A3016 RMK=
METAR KLDJ 080900Z AUTO 00000KT 4SM BR SCT002 25/23 A3001 RMK AO2 
     T02450232=
METAR KLHZ 080900Z AUTO 00000KT 7SM SCT080 BKN110 23/19 A2996 RMK 
     AO2 T02310192=
SPECI KMFE 080904Z AUTO 35008KT 10SM BKN006 26/24 A2980 RMK AO2=
METAR KMKJ 080900Z AUTO 00000KT 1 3/4SM CLR 18/08 A3021 RMK AO1 
     VIS 1V3=
METAR KMRN 080902Z AUTO 00000KT 7SM CLR 18/17 A3009 RMK AO2=
METAR KMTV 080900Z AUTO 00000KT 5SM BR CLR 22/21 A3004 RMK AO2=
METAR KNFG 080856Z AUTO 00000KT 10SM OVC015 16/13 A2990 RMK AO2 SLP124
      T01610133 58005 TSNO=
METAR KNXX 080856Z AUTO 00000KT 5SM HZ CLR 24/20 A3003 RMK AO2 SLP172
      T02390200 53001 $=
METAR KOBE 080902Z AUTO 00000KT 10SM CLR 23/22 A2996 RMK AO2=
METAR KOCW 080901Z AUTO 00000KT 3SM HZ CLR 24/19 A2993 RMK AO2=
METAR KOKV 080900Z AUTO 00000KT 7SM CLR 23/19 A3004 RMK AO2 
     T02250187=
METAR KOMH 080900Z AUTO 00000KT 10SM CLR 26/20 A3002 RMK AO2 
     T02620201=
METAR KPCM 080900Z AUTO 00000KT 5SM BR CLR 22/22 A2999 RMK AO2=
METAR KRCZ 080900Z AUTO 00000KT 10SM CLR 24/19 A2996 RMK AO2 
     T02370187=
METAR KRMN 080900Z AUTO 00000KT 5SM BR SCT120 23/23 A3000 RMK AO2=
METAR KRUQ 080902Z AUTO 00000KT 10SM BKN100 21/20 A3000 RMK AO2=
METAR KSFQ 080900Z AUTO 36003KT 3SM BR SCT006 24/23 A2996 RMK AO2=
METAR KSHD 080900Z AUTO 00000KT 7SM CLR 21/18 A3007 RMK AO2=
METAR KTBR 080900Z AUTO 00000KT 10SM CLR 23/20 A2998 RMK AO2 
     T02270201=
METAR KVDF 080856Z AUTO 00000KT 5SM BR CLR 22/21 A2998 RMK AO2=
METAR KVVG 080855Z AUTO 00000KT 21/21 A2999 RMK AO2=
METAR KW22 080900Z AUTO 00000KT 4SM  BR CLR 20/20 A3012 RMK AO2=
METAR KWDR 080900Z AUTO 00000KT 10SM CLR 23/20 A3006 RMK AO1=
METAR KXLL 080900Z AUTO 00000KT 7SM CLR 24/22 A3003 RMK AO2 
     T02390220=
METAR KXSA 080900Z AUTO 00000KT 5SM SCT090 BKN120 25/23 A2998 RMK 
     AO2 PWINO=
####018001659####
SAZZ40 KAWN 080900 RRM
METAR BIAR 080900Z 35018KT 9999 BKN020 09/06 Q0994=
METAR BIEG 080900Z 01014KT 2000 VCSH VV003 08/08 Q0990=
METAR BIKF 080900Z 02024KT 9999 FEW017 SCT030 BKN080 11/04 Q0993=
METAR BIRK 080900Z 01023KT 350V180 9999 FEW020 SCT050 10/06 Q0991=
METAR K79J 080856Z AUTO 00000KT 10SM CLR 24/22 A3002 RMK AO2 SLP159
      T02440217 56005 TSNO $=
METAR KNSE 080856Z AUTO 00000KT 2 1/2SM BR FEW004 23/21 A3002 RMK AO2
      SLP150 T02280211 55005 $=
METAR LKKV 080900Z VRB02KT CAVOK 21/10 Q1024=
METAR OIAW 080900Z 24008KT CAVOK 45/09 Q0998 A2949=
METAR OIFM 080900Z 12006KT CAVOK 38/05 Q1017 A3004=
METAR OIKB 080900Z 20012KT 5000 HZ NSC 38/25 Q1001 A2956=
METAR OIKK 080900Z 09006KT CAVOK 35/00 Q1017 A3004=
METAR OIMM 080900Z 06012KT CAVOK 38/M02 Q1015 A2997=
METAR OISS 080900Z 36012KT CAVOK 38/08 Q1014 A2995=
METAR OITT 080900Z 09014KT CAVOK 35/04 Q1015 A2998=
METAR RJAW 080900Z 11009KT 9999 FEW015 BKN250 28/25 Q1015 RMK 2CU015
      A2998=
METAR RJSM 080900Z 05004KT 9999 FEW010 SCT040 22/18 Q1008 RMK 1ST010
      3SC040 A2979 WIND BY EQPT/10 FCST 0915 TEMPO 1215 3000 BR
      SCT001ST BKN003ST=
METAR TTCP 080900Z 10011KT 3000 SHRA VCSH FEW010CB SCT014 BKN038 24/23
      Q1012 RETS TEMPO SHRA=
METAR TTPP 080900Z 00000KT 8000 -SHRA VCSH FEW016 SCT036 BKN280 26/25
      Q1011 TEMPO SHRA=
METAR WMKJ 080900Z 26002KT 9999 FEW018 BKN280 29/25 Q1008=
METAR WMKK 080900Z 20005KT 160V250 9999 FEW018 SCT140 BKN280 30/26
      Q1008 NOSIG=
METAR WMKP 080900Z 24008KT 9999 FEW020 BKN280 31/25 Q1008 NOSIG=
METAR WMSA 080900Z 28004KT 9999 FEW020 SCT140 BKN280 33/25 Q1008 NOSIG=
####018000455####
SAIR35 OIII 080900
METAR OIAD 080900Z NIL=
METAR OIBJ 080900Z 22014KT 4000 SA SKC 36/18 Q1006 A2973=
METAR OIBS 080900Z 07008KT 6000 SKC 34/29 Q1000 A2955=
METAR OIHR 080900Z NIL=
METAR OIKM 080900Z NIL=
METAR OIKR 080900Z 36010KT CAVOK 36/M02 Q1016 A3002=
METAR OING 080900Z 27014KT 9999 FEW035 36/18 Q1011 A2986=
METAR OIZB 080900Z 31018KT CAVOK 43/02 Q1004 A2967=
METAR OIZI 080900Z 00000KT 7000 FEW045TCU FEW200 42/16 Q1004 A2965=
####018000277####
SAIN33 VECC 080850
METAR VECC 080850Z 21010KT 4000 HZ SCT018 FEW030CB SCT100 33/25 Q1005
    TEMPO TL0920 1500 TSRA=
METAR VEPT 080850Z 09006KT 5000 HZ SCT020 SCT025 37/23 Q1002
    NOSIG=
METAR VGEG 080850Z NIL=
METAR VGZR 080850Z NIL=
METAR VNKT 080850Z NIL=
####018000124####
SAUS90 KWBC 080900 RRD
METAR KHMS 080850Z 28009KT 15SM SKC 22/06 A2995 RMK SLP140
     T02210063 52010 RSNK 21/04019=
####018000085####
SPUS53 KWBC 080905
SPECI
KSTC 080902Z AUTO 00000KT 1 3/4SM BR CLR 14/12 A3008=
####018001859####
SAEW KAWN 080900 RRE
METAR LFBO 080900Z 12005KT 070V160 CAVOK 28/13 Q1019 NOSIG=
METAR LFBP 080900Z VRB03KT CAVOK 30/20 Q1017 NOSIG=
METAR LFCR 080900Z AUTO 13005KT 080V190 9999NDV NSC 28/11 Q1022=
METAR LFJL 080900Z AUTO VRB03KT 9999NDV NSC 26/10 Q1021=
METAR LFKB 080900Z 09006KT 050V120 9000 FEW020 29/23 Q1019 NOSIG=
METAR LFKC 080900Z 35007KT 310V030 9999 FEW016 27/22 Q1020 NOSIG=
METAR LFKF 080900Z VRB04KT 9999 SCT033 30/22 Q1019 NOSIG=
METAR LFKJ 080900Z 24007KT 9999 FEW026 27/22 Q1020 NOSIG=
METAR LFLB 080900Z VRB01KT 9999 FEW060 26/16 Q1021 NOSIG=
METAR LFLC 080900Z 23003KT 160V270 CAVOK 26/16 Q1020 NOSIG=
METAR LFLL 080900Z 12004KT 070V200 CAVOK 27/14 Q1021 NOSIG=
METAR LFLS 080900Z VRB02KT CAVOK 27/16 Q1022 NOSIG=
METAR LFLY 080900Z VRB02KT CAVOK 28/12 Q1021 NOSIG=
METAR LFML 080900Z 29004KT CAVOK 30/18 Q1019 BECMG 22015KT=
METAR LFMN 080900Z 09006KT 9999 FEW023 28/22 Q1020 NOSIG=
METAR LFMP 080900Z 07006KT 040V110 CAVOK 28/17 Q1019 NOSIG=
METAR LFMT 080900Z 07005KT 040V100 CAVOK 29/15 Q1020 NOSIG=
METAR LFMU 080900Z AUTO 09008KT 050V140 9999NDV NSC 29/13 Q1020=
METAR LFOB 080900Z 20006KT 160V240 CAVOK 27/12 Q1019 NOSIG=
METAR LFOH 080900Z AUTO 35012KT 9999NDV NSC 20/11 Q1020=
METAR LFOP 080900Z VRB01KT CAVOK 25/12 Q1019 NOSIG=
METAR LFPB 080900Z 18005KT 120V250 CAVOK 28/11 Q1019 NOSIG=
METAR LFPG 080900Z 19006KT 140V230 CAVOK 27/11 Q1019 NOSIG=
METAR LFPO 080900Z 21005KT 150V250 CAVOK 27/12 Q1019 NOSIG=
METAR LFQQ 080900Z 22004KT 180V280 CAVOK 26/14 Q1019 NOSIG=
METAR LFRB 080900Z 12003KT 070V170 9999 BKN010 18/15 Q1019 NOSIG=
METAR LFRS 080900Z 17003KT 090V200 CAVOK 26/13 Q1018 NOSIG=
METAR LFRZ 080900Z AUTO 05004KT 350V110 9999NDV NSC 25/14 Q1018=
METAR LFSL 080900Z AUTO 11008KT 9999NDV NSC 26/14 Q1020=
METAR LFSN 080900Z VRB01KT CAVOK 27/14 Q1020 NOSIG=
####018001872####
SAEU KAWN 080900 RRP
METAR LEGT 080900Z 05006KT CAVOK 27/12 Q1019=
METAR LERI 080900Z VRB02KT CAVOK 31/20 Q1019 NOSIG=
METAR LERT 080900Z 30007KT 260V320 9000 NSC 24/20 Q1016 NOSIG=
METAR LFBO 080900Z 12005KT 070V160 CAVOK 28/13 Q1019 NOSIG=
METAR LFBP 080900Z VRB03KT CAVOK 30/20 Q1017 NOSIG=
METAR LFCR 080900Z AUTO 13005KT 080V190 9999NDV NSC 28/11 Q1022=
METAR LFKC 080900Z 35007KT 310V030 9999 FEW016 27/22 Q1020 NOSIG=
METAR LFKJ 080900Z 24007KT 9999 FEW026 27/22 Q1020 NOSIG=
METAR LFLB 080900Z VRB01KT 9999 FEW060 26/16 Q1021 NOSIG=
METAR LFLC 080900Z 23003KT 160V270 CAVOK 26/16 Q1020 NOSIG=
METAR LFLS 080900Z VRB02KT CAVOK 27/16 Q1022 NOSIG=
METAR LFLY 080900Z VRB02KT CAVOK 28/12 Q1021 NOSIG=
METAR LFMP 080900Z 07006KT 040V110 CAVOK 28/17 Q1019 NOSIG=
METAR LFMU 080900Z AUTO 09008KT 050V140 9999NDV NSC 29/13 Q1020=
METAR LFPB 080900Z 18005KT 120V250 CAVOK 28/11 Q1019 NOSIG=
METAR LFPG 080900Z 19006KT 140V230 CAVOK 27/11 Q1019 NOSIG=
METAR LFPO 080900Z 21005KT 150V250 CAVOK 27/12 Q1019 NOSIG=
METAR LFQQ 080900Z 22004KT 180V280 CAVOK 26/14 Q1019 NOSIG=
METAR LFRB 080900Z 12003KT 070V170 9999 BKN010 18/15 Q1019 NOSIG=
METAR LFRD 080900Z AUTO 01006KT 340V050 9999NDV SCT013 19/15 Q1019=
METAR LFRZ 080900Z AUTO 05004KT 350V110 9999NDV NSC 25/14 Q1018=
METAR LFSB 080900Z 10004KT 040V200 CAVOK 27/10 Q1021 NOSIG=
METAR LFSN 080900Z VRB01KT CAVOK 27/14 Q1020 NOSIG=
METAR LPPR 080900Z VRB03KT 5000 BR SCT250 24/19 Q1013=
METAR LPPS 080900Z 03009KT 9999 FEW016 SCT030 21/15 Q1020=
METAR LPPT 080900Z VRB03KT 8000 FEW120 26/18 Q1015 NOSIG=
METAR LRBS 080900Z VRB02KT 9999 FEW018 BKN046 20/15 Q1016 NOSIG=
METAR LRCK 080900Z 02011KT 350V060 9999 SCT035 22/14 Q1015 NOSIG=
METAR LRSB 080900Z 36006KT 9999 BKN030 OVC083 15/12 Q1020=
METAR LRTR 080900Z 36007KT 320V050 9999 FEW025 SCT042 20/14 Q1020=
####018001789####
SAEU KAWN 080900 RRO
METAR EIDW 080900Z 23012KT 9999 FEW023 SCT130 BKN180 16/11 Q1015 NOSIG=
METAR ETIH 080855Z AUTO 00000KT 9999 CLR 22/10 A3024 RMK AO2 SLP231
      T02180099 51003=
METAR LEAB 080900Z 15012KT CAVOK 30/06 Q1022 NOSIG=
METAR LEBZ 080900Z 12009KT 080V150 CAVOK 30/15 Q1015=
METAR LELN 080900Z 11004KT 050V140 CAVOK 27/12 Q1020=
METAR LEXJ 080900Z 26004KT 220V340 6000 SCT015 SCT020 24/20 Q1016=
METAR LFBF 080900Z AUTO 11009KT 080V160 9999NDV // NSC 28/15 Q1019=
METAR LFKS 080900Z AUTO 07009KT 040V100 9999NDV NSC 29/23 Q1020=
METAR LFMI 080900Z AUTO VRB02KT 9999NDV NSC 31/13 Q1020=
METAR LFMK 080900Z 08014KT CAVOK 29/14 Q1019 NOSIG=
METAR LFMO 080900Z VRB03KT CAVOK 29/16 Q1020=
METAR LFMY 080900Z VRB02KT CAVOK 31/17 Q1020=
METAR LFOA 080900Z AUTO 12005KT 080V190 9999NDV NSC 28/12 Q1019=
METAR LFOC 080900Z AUTO 19004KT 100V260 9999NDV NSC 28/11 Q1019=
METAR LFOJ 080900Z VRB02KT CAVOK 28/14 Q1019=
METAR LFPC 080900Z 18004KT 140V210 CAVOK 27/13 Q1019=
METAR LFPV 080900Z AUTO /////KT 9999NDV NSC 26/11 Q1020=
METAR LFQI 080900Z 23006KT 190V320 CAVOK 26/13 Q1019=
METAR LFRN 080900Z AUTO 32007KT 290V350 9999NDV NSC 22/15 Q1019=
METAR LFRO 080900Z AUTO 02003KT 330V070 9999NDV BKN016 19/16 Q1019=
METAR LFSI 080900Z AUTO VRB02KT 9999NDV NSC 27/13 Q1020=
METAR LFSO 080900Z AUTO 27005KT 230V320 9999NDV NSC 27/11 Q1021=
METAR LFSR 080900Z AUTO VRB02KT 9999NDV NSC 28/13 Q1019=
METAR LFST 080900Z VRB03KT CAVOK 26/13 Q1020 NOSIG=
METAR LFSX 080900Z AUTO 14005KT 080V170 9999NDV NSC 26/14 Q1021=
METAR LFTH 080900Z 15005KT 110V190 CAVOK 29/20 Q1020 NOSIG=
METAR LFYR 080900Z VRB01KT CAVOK 28/14 Q1019=
METAR LKKV 080900Z VRB02KT CAVOK 21/10 Q1024=
METAR LKPR 080900Z 23004KT 150V270 CAVOK 21/10 Q1024 NOSIG=
####018000082####
SAZW40 FVHA 080900 RRA
METAR FVBU 080900Z 11016KT 9999 BKN020 15/97 Q1933=

####018001821####
SAEW KAWN 080900 RRD
METAR ETIH 080855Z AUTO 00000KT 9999 CLR 22/10 A3024 RMK AO2 SLP231
      T02180099 51003=
METAR LFBC 080900Z AUTO 09010KT 9999NDV NSC 31/12 Q1016=
METAR LFBF 080900Z AUTO 11009KT 080V160 9999NDV // NSC 28/15 Q1019=
METAR LFBG 080900Z AUTO 10004KT 060V150 9999NDV NSC 28/16 Q1018=
METAR LFBM 080900Z AUTO 11009KT 080V140 9999NDV NSC 30/16 Q1016=
METAR LFKS 080900Z AUTO 07009KT 040V100 9999NDV NSC 29/23 Q1020=
METAR LFMI 080900Z AUTO VRB02KT 9999NDV NSC 31/13 Q1020=
METAR LFMK 080900Z 08014KT CAVOK 29/14 Q1019 NOSIG=
METAR LFMO 080900Z VRB03KT CAVOK 29/16 Q1020=
METAR LFMY 080900Z VRB02KT CAVOK 31/17 Q1020=
METAR LFOA 080900Z AUTO 12005KT 080V190 9999NDV NSC 28/12 Q1019=
METAR LFOC 080900Z AUTO 19004KT 100V260 9999NDV NSC 28/11 Q1019=
METAR LFOJ 080900Z VRB02KT CAVOK 28/14 Q1019=
METAR LFPC 080900Z 18004KT 140V210 CAVOK 27/13 Q1019=
METAR LFPV 080900Z AUTO /////KT 9999NDV NSC 26/11 Q1020=
METAR LFQI 080900Z 23006KT 190V320 CAVOK 26/13 Q1019=
METAR LFRD 080900Z AUTO 01006KT 340V050 9999NDV SCT013 19/15 Q1019=
METAR LFRN 080900Z AUTO 32007KT 290V350 9999NDV NSC 22/15 Q1019=
METAR LFRO 080900Z AUTO 02003KT 330V070 9999NDV BKN016 19/16 Q1019=
METAR LFSB 080900Z 10004KT 040V200 CAVOK 27/10 Q1021 NOSIG=
METAR LFSD 080900Z AUTO 09003KT 030V170 9999NDV NSC 26/14 Q1020=
METAR LFSF 080900Z AUTO 00000KT 9999NDV NSC 26/10 Q1020=
METAR LFSI 080900Z AUTO VRB02KT 9999NDV NSC 27/13 Q1020=
METAR LFSO 080900Z AUTO 27005KT 230V320 9999NDV NSC 27/11 Q1021=
METAR LFSR 080900Z AUTO VRB02KT 9999NDV NSC 28/13 Q1019=
METAR LFST 080900Z VRB03KT CAVOK 26/13 Q1020 NOSIG=
METAR LFSX 080900Z AUTO 14005KT 080V170 9999NDV NSC 26/14 Q1021=
METAR LFTH 080900Z 15005KT 110V190 CAVOK 29/20 Q1020 NOSIG=
METAR LFYR 080900Z VRB01KT CAVOK 28/14 Q1019=
####018000085####
SPUS73 KWBC 080905
SPECI
KSTC 080902Z AUTO 00000KT 1 3/4SM BR CLR 14/12 A3008=
####018000084####
SPUS81 KWBC 080905
SPECI
KBDR 080902Z AUTO 10006KT 1SM BR OVC002 24/23 A3003=
####018000085####
SPUS81 KWBC 080905
SPECI
KSTC 080902Z AUTO 00000KT 1 3/4SM BR CLR 14/12 A3008=
####018000085####
SAIR33 OIII 080900 RRA
METAR OIBL 080850Z 12012KT 4000 HZ SKC 38/27 Q1000 A2954=
####018000082####
SAYE20 OYAG 080900
METAR OYAG 080900Z 12008KT 9999 SCT025 BKN070 29/24 Q1002=
####018000486####
SAIR32 OIII 080900
METAR OIAA 080900Z 30012KT 4000 DU SKC 46/07 Q0999=
METAR OIBK 080900Z 13010KT 5000 HZ SKC 38/24 Q1000 A2955=
METAR OICC 080900Z 34004KT CAVOK 38/M02 Q1013 A2994
865.3=
METAR OIGG 080900Z 35008KT 9999 FEW025 32/21 Q1011 A2988=
METAR OIIE 080900Z 12014KT CAVOK 39/M08 Q1011 A2988
898.8 05:=
METAR OITR 080900Z 35006KT CAVOK 32/12 Q1014 A2996=
METAR OIYY 080900Z 36008KT CAVOK 40/M06 Q1014 A2995=
METAR OAKN 080900Z NIL=
METAR OAKB 080900Z NIL=
####018000179####
SAOM20 OOMS 080900
METAR OOMS 080900Z 06007KT 020V090 6000 BKN025 BKN120
32/29 Q1001 NOSIG=
METAR OOSA 080850Z 13009KT 100V160 8000 SCT010 OVC020
28/24 Q1003 NOSIG  05=
####018000186####
SARS34 RUMS 080830
METAR UUYS 080830Z 16003MPS CAVOK 20/07 Q1017 NOSIG RMK QFE756
14CLRD60=
METAR UUYY 080830Z VRB01MPS 9999 SCT026 29/15 Q1016 NOSIG 19CLRD61
RMK QFE753/1004=
####018000077####
SAQB31 LQTZ 080900
METAR
LQTZ 080900Z VRB02KT 9999 FEW040 17/// Q1023=
####018000117####
SAHW31 KMSC 080905
SPECI PHTO 080904Z AUTO 21004KT 10SM -RA BKN025 OVC038 22/19 A3006 
    RMK AO2 P0000 TSNO=
####018000464####
SAIR36 OIII 080900
METAR OIBA 080900Z 03010KT 5000 HZ SKC 35/30 Q1000 A2953=
METAR OIBV 080900Z NIL=
METAR OIFS 080900Z 09012KT CAVOK 34/01 Q1022 A3019 797.6=
METAR OIIP 080900Z 12014KT 6000 SKC 37/01 Q1014=
METAR OIMB 080900Z 06008KT CAVOK 36/07 Q1015 A2999=
METAR OIMN 080900Z 26008KT CAVOK 35/10 Q1014 A2996=
METAR OIMS 080900Z NIL=
METAR OIMT 080900Z 01016KT CAVOK 42/M04 Q1007 A2975=
METAR OIZJ 080900Z 11016KT 7000 NSC 32/28 Q1001 A2958=
####018002177####
SAUS99 KWBC 080906
METAR
KUXL 080900Z AUTO 08007KT 10SM CLR 26/24 A2997 RMK AO2=
KCLS 080855Z AUTO 00000KT 10SM CLR 14/13 A2995 RMK AO2=
KGAO 080900Z AUTO 07003KT 10SM CLR 27/25 A2999 RMK AO2=
KGZL 080855Z AUTO 14005KT 10SM BKN034 BKN085 24/23 A3002 RMK
     AO2=
KHQU 080902Z AUTO 00000KT 10SM CLR 21/19 A3005 RMK AO1=
KIER 080900Z AUTO 00000KT 10SM CLR 23/23 A3001 RMK AO2 PWINO=
KIXA 080900Z AUTO 04003KT 7SM CLR 23/19 A2995 RMK AO2
     T02260192=
KJFZ 080900Z AUTO 00000KT 8SM FEW065 22/21 A3016 RMK=
KLDJ 080900Z AUTO 00000KT 4SM BR SCT002 25/23 A3001 RMK AO2
     T02450232=
KLHZ 080900Z AUTO 00000KT 7SM SCT080 BKN110 23/19 A2996 RMK AO2
     T02310192=
KMKJ 080900Z AUTO 00000KT 1 3/4SM CLR 18/08 A3021 RMK AO1 VIS
     1V3=
KMRN 080902Z AUTO 00000KT 7SM CLR 18/17 A3009 RMK AO2=
KMTV 080900Z AUTO 00000KT 5SM BR CLR 22/21 A3004 RMK AO2=
KNFG 080856Z AUTO 00000KT 10SM OVC015 16/13 A2990 RMK AO2 SLP124
     T01610133 58005 TSNO=
KNXX 080856Z AUTO 00000KT 5SM HZ CLR 24/20 A3003 RMK AO2 SLP172
     T02390200 53001 $=
KOBE 080902Z AUTO 00000KT 10SM CLR 23/22 A2996 RMK AO2=
KOCW 080901Z AUTO 00000KT 3SM HZ CLR 24/19 A2993 RMK AO2=
KOKV 080900Z AUTO 00000KT 7SM CLR 23/19 A3004 RMK AO2
     T02250187=
KOMH 080900Z AUTO 00000KT 10SM CLR 26/20 A3002 RMK AO2
     T02620201=
KPCM 080900Z AUTO 00000KT 5SM BR CLR 22/22 A2999 RMK AO2=
KRCZ 080900Z AUTO 00000KT 10SM CLR 24/19 A2996 RMK AO2
     T02370187=
KRMN 080900Z AUTO 00000KT 5SM BR SCT120 23/23 A3000 RMK AO2=
KRUQ 080902Z AUTO 00000KT 10SM BKN100 21/20 A3000 RMK AO2=
KSFQ 080900Z AUTO 36003KT 3SM BR SCT006 24/23 A2996 RMK AO2=
KSHD 080900Z AUTO 00000KT 7SM CLR 21/18 A3007 RMK AO2=
KTBR 080900Z AUTO 00000KT 10SM CLR 23/20 A2998 RMK AO2
     T02270201=
KVDF 080856Z AUTO 00000KT 5SM BR CLR 22/21 A2998 RMK AO2=
KVVG 080855Z AUTO 00000KT 21/21 A2999 RMK AO2=
KW22 080900Z AUTO 00000KT 4SM BR CLR 20/20 A3012 RMK AO2=
KWDR 080900Z AUTO 00000KT 10SM CLR 23/20 A3006 RMK AO1=
KXLL 080900Z AUTO 00000KT 7SM CLR 24/22 A3003 RMK AO2
     T02390220=
KXSA 080900Z AUTO 00000KT 5SM SCT090 BKN120 25/23 A2998 RMK AO2
     PWINO=
####018000172####
SPUS99 KWBC 080906
SPECI
KCMX 080904Z AUTO 30005KT 10SM SCT010 BKN018 BKN060 18/18 A2998
     RMK AO2=
KMFE 080904Z AUTO 35008KT 10SM BKN006 26/24 A2980 RMK AO2=
####018000081####
SAJM31 MKJP 080900
METAR MKJP 080900Z 09011KT 9999 SCT020 BKN220 27/19 Q1012=
####018000358####
SAIE31 EIDB 080900
METAR EIDW 080900Z 23012KT 9999 FEW023 SCT130 BKN180 16/11 Q1015
     NOSIG=
METAR EINN 080900Z 17010KT 9999 -RA FEW014 BKN050 BKN090 15/12 Q1015
     NOSIG=
METAR EICK 080900Z 21011KT 9999 FEW008 SCT014 BKN050 14/12 Q1016
     NOSIG=
METAR EIKN 080900Z 22008KT 180V250 9999 FEW015 FEW018CB SCT050 BKN200
     13/10 Q1013 NOSIG=
####018000091####
SAUK51 EGGY 080850 RRB
METAR EGDY 080850Z 27003KT 9999 FEW010 BKN140 19/14 Q1018 NOSIG=
####018000166####
SACY31 LCLK 080900
METAR LCLK 080900Z 20014KT 9999 FEW025 30/22 Q1008 NOSIG=
METAR LCPH 080900Z 20006KT 150V260 9999 FEW030 28/22 Q1009=
METAR LCNC 080900Z NIL=
####018000074####
SAJM31 MKJS 080900
METAR MKJS 080900Z 00000KT 9999 FEW022 25/22 Q1012=
####018000250####
SAGG31 UGTB 080900
METAR UGSB 080900Z 28006KT 9999 FEW023CB SCT070 28/24 Q1010 NOSIG=
METAR UGKO 080900Z VRB04KT 9999 SCT033CB BKN100 31/23 Q1012
           BECMG 27006KT=
METAR UGTB 080900Z VRB04KT 9999 SCT066 33/18 Q1014 NOSIG RMK
31CLRD80=
####018000098####
SAAJ31 UBBB 080900
METAR UBBG 080900Z 07006KT 9999 SCT083 34/17 Q1011 NOSIG RMK
R30R/CLRD70 =
####018000398####
SAMX34 MMMD 080900
METAR MMUN 080843Z 12005KT 6SM  SCT015 SCT090 BKN300 28/24 A2986 
      RMK SLP111 57017 911 8/538 HZY=
METAR MMMD 080848Z 11005KT 7SM  BKN070 22/22 A2982 
      RMK SLP093 57005 911 8/060=
METAR MMCZ 080853Z 09010KT 6SM  FEW015 BKN200 26/24 A2985 
      RMK SLP117 54000 917 8/508 HZY=
METAR MMTP 080840Z 00000KT 10SM BKN020 BKN100 25/22 A2988
      RMK 8/170=
####018000087####
SACO20 SKBO 080901 CCA
METAR SKBO 080900Z 00000KT 6000 HZ BKN012 12/11 A3028 NOSIG=
####018000360####
SARO31 LROM 080900
METAR LRBS 080900Z VRB02KT 9999 FEW018 BKN046 20/15 Q1016 NOSIG=
METAR LRCK 080900Z 02011KT 350V060 9999 SCT035 22/14 Q1015 NOSIG=
METAR LROP 080900Z VRB02KT 9999 FEW040CB BKN044 20/14 Q1016
880///95 NOSIG=
METAR LRSB 080900Z 36006KT 9999 BKN030 OVC083 15/12 Q1020=
METAR LRTR 080900Z 36007KT 320V050 9999 FEW025 SCT042 20/14 Q1020=
####018000080####
SAEO32 EGGY 080850 RRA
METAR EEKE 080850Z 35008KT 310V010 CAVOK 21/14 Q1016=
####018000028####
SAAA31 KWBC 080900
NIL=
####018000388####
SAAF31 KWBC 080900
METAR
DBBB NIL=
DGAA NIL=
DGSI NIL=
DIAP 080900Z VRB02KT 6000 SCT005 BKN012 BKN080 26/25 Q1015 TEMPO
     BKN012 BKN070=
DIAV NIL=
DIBK NIL=
DIST NIL=
DNAA NIL=
DNCA NIL=
DNIL NIL=
DNKA NIL=
DNKN NIL=
DNMA NIL=
DNMM 080900Z 24010KT 9999 BKN011 27/25 Q1016 NOSIG=
DNPO NIL=
DNSO NIL=
DRRN NIL=
DRZA NIL=
DXNG NIL=
DXXX NIL=
####018000028####
SAAF32 KWBC 080900
NIL=
####018000572####
SAFR37 LFPW 080900
METAR LFAQ 080900Z AUTO 21007KT 9999NDV NSC 25/11 Q1020=
METAR LFBU 080900Z AUTO 12005KT 070V160 9999NDV NSC 29/14 Q1019=
METAR LFLN 080900Z AUTO 16003KT 100V230 9999NDV NSC 26/15 Q1020=
METAR LFPM 080900Z VRB02KT CAVOK 28/14 Q1019=
METAR LFRH 080900Z 05004KT 340V130 CAVOK 22/15 Q1018=
METAR LFRQ 080900Z 06006KT 010V090 9999 FEW020 SCT230 21/15 Q1018
NOSIG=
METAR LFRT 080900Z VRB03KT 9999 BKN011 SCT250 18/15 Q1019=
METAR LFSD 080900Z AUTO 09003KT 030V170 9999NDV NSC 26/14 Q1020=
METAR LFTW 080900Z AUTO VRB02KT 9999NDV NSC 29/14 Q1020=
####018000673####
SAKO31 RKSI 080900
METAR RKSI 080900Z 25003KT 9999 FEW040 OVC120 24/18 Q1008 TEMPO
           -RA=
METAR RKSS 080900Z 32003KT 9999 FEW030 OVC120 25/17 Q1008 TEMPO RA =
METAR RKPC 080900Z 07012KT 4500 BR SCT030 BKN150 24/21 Q1008 NOSIG =
METAR RKPK 080900Z 12007KT 9999 SCT030 BKN200 25/17 Q1009 NOSIG =
METAR RKTU 080900Z 29004KT 9000 SCT030 SCT100 BKN200 28/19 Q1008 
           NOSIG =
METAR RKTN 080900Z 24003KT 9000 -TSRA FEW025CB BKN040 OVC200 26/22
           Q1007 NOSIG RMK OCNL LTGCC TS SW MOV SE=
METAR RKJB 080900Z 35007KT 320V040 8000 FEW025 BKN130 26/17 Q1008 
           NOSIG =
METAR RKNY 080900Z 13006KT 9999 SCT012 OVC020 21/18 Q1008 NOSIG =
####018000780####
SPUS70 KWBC 080906
SPECI
KELM 080902Z AUTO 00000KT 1/4SM FG VV002 17/17 A3008 RMK AO2
     RVRNO=
KACT 080903Z 09004KT 10SM SCT014 BKN019 26/23 A2998 RMK AO2=
KAMA 080903Z 04006KT 1SM -RA BKN020 BKN070 OVC100 17/16 A3018 RMK
     AO2 SFC VIS 9 P0001 $=
KFWN 080903Z AUTO 00000KT 3SM BR CLR 21/20 A3004 RMK AO2=
KGUY 080903Z AUTO 10006KT 5SM RA BR SCT010 OVC016 19/18 A3021 RMK
     AO2 LTG DSNT E P0002=
KISP 080903Z 15005KT 3SM BR BKN003 OVC060 24/22 A3001 RMK AO2=
KLUK 080903Z AUTO 00000KT 2SM R21L/2400VP6000FT BR CLR 22/21 A3007
     RMK AO2=
KMIV 080903Z AUTO 09004KT 1SM BR BKN003 24/23 A3000 RMK AO2=
KCMX 080904Z AUTO 30005KT 10SM SCT010 BKN018 BKN060 18/18 A2998
     RMK AO2=
KMFE 080904Z AUTO 35008KT 10SM BKN006 26/24 A2980 RMK AO2=
####018000543####
SAAF33 KWBC 080900
METAR
FLLI NIL=
FLLS 080900Z 07026KT 9999 BKN025 18/08 Q1029=
FLMF NIL=
FLND NIL=
FNHU NIL=
FNLU 080900Z VRB03KT 8000 SCT018 BKN020 23/19 Q1015 NSG=
FQBR 080900Z 19013KT 9999FEW020 23/17 Q1027=
FQMA 080900Z 20004KT 150V240 9999 BKN020 23/17 Q1031 NOSIG=
FVBU 080900Z 11016KT 9999 BKN020 15/97 Q1933=
FVBU 080900Z NIL=
FVCZ 080900Z NIL=
FVFA 080900Z NIL=
FVHA 080900Z 14012KT 9999 SCT035 15/05 Q1031 NOSIG=
FVMV 080900Z NIL=
FVTL 080900Z NIL=
FWCL NIL=
FWGL NIL=
FWKI NIL=
FWUU NIL=
####018002019####
SAXX60 KWBC 080900 RRE
METAR
KHUA 080855Z AUTO RMK AO2 SLPNO $=
KNEL 080900Z AUTO 00000KT 3SM BR BKN080 22/20 A3001 RMK AO2 SLP161
     T02220200 58002 $=
KNGU 080859Z 12003KT 5SM BR BKN130 26/24 A2996 RMK AO2 SLP146
     T02560239 55003=
KRCA 080855Z 00000KT 6SM HZ CLR 12/09 A3024 RMK AO2A SLP229
     T01230088 53001 $=
KNEL 080900Z AUTO 00000KT 3SM BR BKN080 22/20 A3001 RMK AO2 SLP161
     T02220200 58002 $=
KNFG 080856Z AUTO 00000KT 10SM OVC015 16/13 A2990 RMK AO2 SLP124
     T01610133 58005 TSNO=
KNGU 080859Z 12003KT 5SM BR BKN130 26/24 A2996 RMK AO2 SLP146
     T02560239 55003=
KNLC 080856Z AUTO 29007KT 10SM CLR 19/12 A2982 RMK AO2 SLP096
     T01890117 50005 TSNO $=
KNTD 080856Z AUTO 28008KT 10SM OVC013 15/13 A2990 RMK AO2 SLP125
     6//// T01500128 58002 TSNO PNO VISNO N $=
KNTU 080856Z 09003KT 10SM CLR 26/23 A2995 RMK AO2 SLP143 T02560233
     55000 CHINO RWY 05R $=
KNUW 080856Z 30003KT 10SM CLR 16/11 A2996 RMK AO2 SLP150 T01560111
     51007 $=
KNXP 080856Z AUTO 30008KT CLR 26/M01 A2990 RMK AO2 SLP085
     T02561006 53007 $=
KNXX 080856Z AUTO 00000KT 5SM HZ CLR 24/20 A3003 RMK AO2 SLP172
     T02390200 53001 $=
KRCA 080855Z 00000KT 6SM HZ CLR 12/09 A3024 RMK AO2A SLP229
     T01230088 53001 $=
K79J 080856Z AUTO 00000KT 10SM CLR 24/22 A3002 RMK AO2 SLP159
     T02440217 56005 TSNO $=
KADW 080855Z 00000KT 10SM BKN075 25/23 A2999 RMK AO2A SLP155
     T02520231 55001 $=
KHRT 080855Z AUTO 00000KT 10SM CLR 23/23 A3000 RMK AO2 SLP162
     T02330232 56008 $=
KNJM 080857Z AUTO 01005KT 10SM CLR 26/20 A2990 RMK AO2 SLP130
     T02610200 56005 $=
KNFG 080856Z AUTO 00000KT 10SM OVC015 16/13 A2990 RMK AO2 SLP124
     T01610133 58005 TSNO=
KNXX 080856Z AUTO 00000KT 5SM HZ CLR 24/20 A3003 RMK AO2 SLP172
     T02390200 53001 $=
K79J 080856Z AUTO 00000KT 10SM CLR 24/22 A3002 RMK AO2 SLP159
     T02440217 56005 TSNO $=
TTPP 080900Z 00000KT 8000 -SHRA VCSH FEW016 SCT036 BKN280 26/25
     Q1011 TEMPO SHRA=
####018000199####
SPAU31 YBBN 080904
SPECI YSSY 080900Z 23012KT 7000 SHRA FEW006 SCT020 BKN035 12/12
Q1027
RMK VIS REDUCED TO NORTH
FM0900 19015KT 9999 -SHRA SCT025 BKN040
INTER 0900/1200 5000 SHRA BKN010=
####018000119####
SPUS80 KWBC 080906
SPECI
PHTO 080904Z AUTO 21004KT 10SM -RA BKN025 OVC038 22/19 A3006 RMK
     AO2 P0000 TSNO=
####018000693####
SAFR36 LFPW 080900
METAR LFBA 080900Z 11008KT CAVOK 26/16 Q1018 NOSIG=
METAR LFBE 080900Z 06007KT 030V090 CAVOK 26/18 Q1018 NOSIG=
METAR LFGJ 080900Z AUTO 22005KT 160V280 9999NDV NSC 25/15 Q1021=
METAR LFJR 080900Z AUTO 17003KT 100V230 9999NDV NCD 28/13 Q1018=
METAR LFMD 080900Z AUTO 17006KT 130V200 9999NDV NSC 29/21 Q1020=
METAR LFMH 080900Z 15004KT 090V220 CAVOK 26/13 Q1021 NOSIG=
METAR LFOT 080900Z AUTO 11004KT 050V160 9999NDV NSC 28/11 Q1019=
METAR LFPN 080900Z VRB05KT CAVOK 28/12 Q1019 NOSIG=
METAR LFRC 080900Z AUTO VRB03KT 9999NDV BKN014 19/15 Q1019=
METAR LFRG 080900Z AUTO VRB03KT 9999NDV NSC 25/10 Q1019=
METAR LFRK 080900Z 32005KT 260V030 CAVOK 24/14 Q1019 NOSIG=
####018000214####
SPXX60 KWBC 080906
SPECI
KDOV 080900Z AUTO 00000KT 2SM BR CLR 24/24 A2999 RMK AO2 VIS 1/2
     RWY19 SLP157=
PHHI 080901Z AUTO 02006KT 10SM FEW037 SCT047 SCT060 22/18 A3007
     RMK AO2 RAE0901 SLP171=
####018000262####
SAUS80 KWBC 080900 RRC
METAR
KHMS 080850Z 28009KT 15SM SKC 22/06 A2995 RMK SLP140 T02210063
     52010 RSNK 21/04019=
KDBN 080900Z AUTO 30003KT 10SM CLR 24/18 A3000 RMK AO1=
KJQF 080900Z AUTO 00000KT 10SM SCT100 23/18 A2999 RMK AO2
     T02260180=
####018001549####
SAUS70 KWBC 080900 RRH
METAR
KIER 080900Z AUTO 00000KT 10SM CLR 23/23 A3001 RMK AO2 PWINO=
KIXA 080900Z AUTO 04003KT 7SM CLR 23/19 A2995 RMK AO2
     T02260192=
KJFZ 080900Z AUTO 00000KT 8SM FEW065 22/21 A3016 RMK=
KLDJ 080900Z AUTO 00000KT 4SM BR SCT002 25/23 A3001 RMK AO2
     T02450232=
KLHZ 080900Z AUTO 00000KT 7SM SCT080 BKN110 23/19 A2996 RMK AO2
     T02310192=
KMKJ 080900Z AUTO 00000KT 1 3/4SM CLR 18/08 A3021 RMK AO1 VIS
     1V3=
KMTV 080900Z AUTO 00000KT 5SM BR CLR 22/21 A3004 RMK AO2=
KOKV 080900Z AUTO 00000KT 7SM CLR 23/19 A3004 RMK AO2
     T02250187=
KOMH 080900Z AUTO 00000KT 10SM CLR 26/20 A3002 RMK AO2
     T02620201=
KPCM 080900Z AUTO 00000KT 5SM BR CLR 22/22 A2999 RMK AO2=
KRCZ 080900Z AUTO 00000KT 10SM CLR 24/19 A2996 RMK AO2
     T02370187=
KRMN 080900Z AUTO 00000KT 5SM BR SCT120 23/23 A3000 RMK AO2=
KSFQ 080900Z AUTO 36003KT 3SM BR SCT006 24/23 A2996 RMK AO2=
KSHD 080900Z AUTO 00000KT 7SM CLR 21/18 A3007 RMK AO2=
KTBR 080900Z AUTO 00000KT 10SM CLR 23/20 A2998 RMK AO2
     T02270201=
KVDF 080856Z AUTO 00000KT 5SM BR CLR 22/21 A2998 RMK AO2=
KVVG 080855Z AUTO 00000KT 21/21 A2999 RMK AO2=
KW22 080900Z AUTO 00000KT 4SM BR CLR 20/20 A3012 RMK AO2=
KWDR 080900Z AUTO 00000KT 10SM CLR 23/20 A3006 RMK AO1=
KXLL 080900Z AUTO 00000KT 7SM CLR 24/22 A3003 RMK AO2
     T02390220=
KXSA 080900Z AUTO 00000KT 5SM SCT090 BKN120 25/23 A2998 RMK AO2
     PWINO=
KNSE 080856Z AUTO 00000KT 2 1/2SM BR FEW004 23/21 A3002 RMK AO2
     SLP150 T02280211 55005 $=
####018000074####
SAET20 HAAB 080900
METAR HAAB 080900Z 21004KT 9999 BKN025 20/13 Q1025=
####018000452####
SAFR31 LFPW 080900
METAR LFLL 080900Z 12004KT 070V200 CAVOK 27/14 Q1021 NOSIG=
METAR LFMN 080900Z 09006KT 9999 FEW023 28/22 Q1020 NOSIG=
METAR LFPG 080900Z 19006KT 140V230 CAVOK 27/11 Q1019 NOSIG=
METAR LFPO 080900Z 21005KT 150V250 CAVOK 27/12 Q1019 NOSIG=
METAR LFQQ 080900Z 22004KT 180V280 CAVOK 26/14 Q1019 NOSIG=
METAR LFRB 080900Z 12003KT 070V170 9999 BKN010 18/15 Q1019 NOSIG=
METAR LFRS 080900Z 17003KT 090V200 CAVOK 26/13 Q1018 NOSIG=
####018000481####
SAAF34 KWBC 080900
METAR
FALA 080900Z 07006KT 040V120 9999 SCT030 15/07 Q1035 NOSIG=
FBDR NIL=
FBFT 080900Z 10015KT 9999 BKN015 19/11 Q1032=
FBGR NIL=
FBGZ NIL=
FBJW NIL=
FBKE 080900Z 09017KT CAVOK 20/07 Q1028=
FBMN 080900Z 09015KT CAVOK 21/06 Q1029=
FBMP NIL=
FBSK NIL=
FBSP NIL=
FBSW NIL=
FBTE NIL=
FBTS NIL=
FDMS NIL=
FEFF NIL=
FXMM NIL=
FXMU NIL=
FYWB 080900Z 07025KT 9999 VV/// 30/04 Q1017=
FYWH 080900Z 01013KT CAVOK 17/M00 Q1030=
####018003726####
SAUS70 KWBC 080900 RRG
METAR
PAGA 080858Z AUTO 01004KT 10SM CLR 16/07 A3006 RMK AO2 SLP225
     T01610072 402220083 51005=
KOSC 080854Z AUTO 00000KT 7SM CLR 19/18 A2999 RMK AO2=
K3A1 080900Z AUTO 00000KT 10SM CLR 22/22 A3009 RMK AO2
     T02170218=
K4A9 080900Z AUTO 00000KT 10SM CLR 20/18 A3006 RMK AO2
     T02030184=
K4R4 080900Z AUTO 00000KT 4SM BR SCT010 24/24 A3002 RMK AO2
     T02440236=
K8A0 080859Z AUTO 01004KT 10SM CLR 24/22 A3006 RMK AO2=
KAFP 080900Z AUTO 22003KT 10SM CLR 20/18 A2997 RMK AO2
     T02000180=
KALX 080900Z AUTO 00000KT 10SM CLR 23/21 A3003 RMK AO1=
KCCO 080900Z AUTO 00000KT 4SM CLR 21/20 A3004 RMK AO1=
KCDH 080900Z AUTO 00000KT 1/2SM FG OVC001 22/22 A3004 RMK AO2=
KCPC 080900Z AUTO 28003KT 10SM CLR 27/20 A2991 RMK AO2
     T02650195=
KCWF 080900Z AUTO 08006KT 7SM CLR 24/24 A2998 RMK AO2=
KDNN 080858Z AUTO 00000KT 10SM CLR 20/20 A3004 RMK AO2=
KDQH 080900Z AUTO 00000KT 10SM CLR 22/19 A3001 RMK AO1=
KDRI 080900Z AUTO 00000KT 10SM BKN014 23/23 A3001 RMK AO2=
KEHO 080900Z AUTO 00000KT 7SM CLR 20/18 A3001 RMK AO2
     T01950176=
KEYF 080900Z AUTO 31004KT 10SM CLR 26/18 A2992 RMK AO2
     T02580183=
KEZF 080858Z AUTO 00000KT 7SM BKN120 27/25 A2997 RMK AO2
     T02650245=
KF24 080859Z AUTO 10SM CLR 25/23 A3006 RMK AO2 T02450232=
KFFA 080858Z AUTO 08006KT 10SM SCT008 25/23 A2994 RMK AO2
     T02490232=
KFKN 080900Z AUTO 00000KT 5SM 24/22 A2997 RMK AO1=
KGHG 080900Z AUTO 15004KT 10SM BKN005 BKN028 21/20 A3009 RMK
     AO2=
KGWW 080900Z AUTO 00000KT 7SM CLR 24/21 A2993 RMK AO2
     T02390207=
KHNZ 080900Z AUTO 00000KT 5SM HZ SCT095 SCT120 23/19 A2998 RMK AO2
     T02310191=
KHOE 080859Z AUTO 00000KT 10SM CLR 21/ A3001 RMK AO2 T0210=
KHSP 080900Z AUTO 07006KT 10SM SCT060 23/15 A3026 RMK AO2=
KHUM 080900Z AUTO 1 1/4SM BR VV007 25/25 A2998 RMK AO2=
KHWY 080900Z AUTO 12004KT 7SM CLR 22/19 A2999 RMK AO2=
KIDI 080900Z AUTO 00000KT 5SM CLR 19/19 A3010 RMK AO2=
KIPJ 080900Z AUTO 00000KT 10SM CLR 20/17 A3001 RMK AO2
     T01960173=
KISO 080900Z AUTO 03003KT 7SM CLR 24/20 A2993 RMK AO2
     T02380204=
KJES 080900Z AUTO 00000KT 10SM CLR 19/19 A3000 RMK AO2
     T01860187=
KJGG 080900Z AUTO 00000KT 5SM SCT120 27/25 A2998 RMK AO1=
KJKA 080900Z AUTO 00000KT 7SM CLR 26/25 A3002 RMK AO2
     T02620254=
KJYO 080900Z AUTO 00000KT 7SM SCT100 27/19 A3000 RMK AO2=
KLGC 080855Z AUTO 9SM CLR 21/ A3002 RMK AO1=
KLKU 080900Z AUTO 34004KT 7SM CLR 26/19 A2999 RMK AO2=
KLNP 080858Z AUTO 00000KT 7SM CLR 21/19 A3017 RMK AO1=
KLOM 080900Z AUTO 00000KT 5SM CLR 22/21 A3001 RMK AO1
     T02180205=
KMDQ 080900Z AUTO 00000KT 7SM CLR 22/21 A3006 RMK AO2
     T02170211=
KMGR 080900Z AUTO 00000KT 10SM CLR 22/20 A3002 RMK AO2=
KMMU 080900Z AUTO 00000KT 3SM BR SCT110 20/19 RMK AO2
     T01980194=
KMQS 080900Z AUTO 00000KT 7SM CLR 23/21 A3005 RMK AO2 PWINO
     PNO=
KONX 080900Z AUTO 07005KT 10SM SCT009 SCT090 BKN110 26/24 A2995
     RMK AO2 T02560235=
KOPN 080900Z AUTO 00000KT 10SM CLR 24/22 A3004 RMK AO1=
KSIF 080900Z AUTO 00000KT 7SM BKN090 22/21 A3001 RMK AO2=
KSVH 080900Z AUTO 00000KT 10SM CLR 21/16 A3003 RMK AO2
     T02090157=
KTPF 080900Z AUTO 07003KT 10SM CLR 24/23 A2998 RMK AO2=
KTVI 080900Z AUTO 00000KT 10SM CLR 22/21 A3002 RMK AO2
     T02200211=
KVUJ 080858Z AUTO 00000KT 10SM BKN090 21/18 A2997 RMK AO2=
KW45 080900Z AUTO 00000KT 7SM SCT100 23/19 A3004 RMK AO2
     T02310191=
KUXL 080900Z AUTO 08007KT 10SM CLR 26/24 A2997 RMK AO2=
KCLS 080855Z AUTO 00000KT 10SM CLR 14/13 A2995 RMK AO2=
KGAO 080900Z AUTO 07003KT 10SM CLR 27/25 A2999 RMK AO2=
KGZL 080855Z AUTO 14005KT 10SM BKN034 BKN085 24/23 A3002 RMK
     AO2=
####018001245####
SAUS70 KWBC 080906
METAR
PABA 080901Z AUTO 22005KT 10SM SCT005 OVC055 04/04 A3005 RMK AO2
     RAE0824 SLP175 P0000 60000 T00440039 400440044 50004=
KBQP 080909Z AUTO 00000KT 3SM BR CLR 24/24 A3003 RMK AO2=
KDPL 080901Z AUTO 00000KT 7SM CLR 23/22 A2993 RMK AO2=
KGEV 080901Z AUTO 36003KT 10SM CLR 23/17 A3019 RMK AO2=
KHBI 080902Z AUTO 00000KT CLR 22/17 A3001 RMK AO2 PWINO=
KHLX 080901Z AUTO 00000KT 10SM CLR 24/21 A3016 RMK AO2=
KMFV 080902Z AUTO 00000KT 4SM BR SCT006 OVC110 25/24 A2998 RMK
     AO2=
KMLJ 080903Z AUTO 00000KT 5SM BR CLR 22/22 A3001 RMK AO2=
KPSK 080902Z AUTO 00000KT 7SM CLR 25/17 A3014 RMK AO2=
KPTB 080902Z AUTO 00000KT 4SM BR CLR 22/21 A2997 RMK AO2=
KTDF 080902Z AUTO 00000KT 5SM CLR 22/19 A3000 RMK AO1=
KVJI 080903Z AUTO 00000KT 5SM BR SCT075 22/19 A3013 RMK AO2=
PABA 080901Z AUTO 22005KT 10SM SCT005 OVC055 04/04 A3005 RMK AO2
     RAE0824 SLP175 P0000 60000 T00440039 400440044 50004=
KHQU 080902Z AUTO 00000KT 10SM CLR 21/19 A3005 RMK AO1=
KMRN 080902Z AUTO 00000KT 7SM CLR 18/17 A3009 RMK AO2=
KOBE 080902Z AUTO 00000KT 10SM CLR 23/22 A2996 RMK AO2=
KOCW 080901Z AUTO 00000KT 3SM HZ CLR 24/19 A2993 RMK AO2=
KRUQ 080902Z AUTO 00000KT 10SM BKN100 21/20 A3000 RMK AO2=
####018000086####
SAUS80 KWBC 080906
METAR
KJNX 080901Z AUTO 00000KT 5SM CLR 21/21 A2993 RMK AO2=
####018000111####
SAUK51 EGGY 080850 CCA
METAR COR EGXT 080850Z 23011KT 9999 -RA FEW020 BKN090 BKN120 17/10
    Q1018 NOSIG=
####018000368####
SAAF35 KWBC 080900
METAR
HDAM NIL=
HEAX NIL=
HEBA NIL=
HEBL NIL=
HECA 080900Z 33006KT CAVOK 31/19 Q1011 NOSIG=
HEGN NIL=
HELX NIL=
HEMM NIL=
HEPS NIL=
HERN NIL=
HESC NIL=
HESN NIL=
HLLB 080850Z 32018KT CAVOK 30/16 Q1016=
HLLS NIL=
HLLT 080850Z 00000KT 7000 SKC 28/19 Q1019=
HSKA NIL=
HSPN NIL=
HSSJ NIL=
HSSP NIL=
HSSS NIL=
####018000371####
SAAF36 KWBC 080900
METAR
HAAB 080900Z 21004KT 9999 BKN025 20/13 Q1025=
HAAY NIL=
HADR NIL=
HBBA NIL=
HCMH NIL=
HCMI NIL=
HCMK NIL=
HCMM NIL=
HCMV NIL=
HEMA NIL=
HFFF NIL=
HKJK NIL=
HKMO NIL=
HKNA NIL=
HRYR 080900Z 13011KT 9999 SCT030 22/12 Q1023 NOSIG=
HTDA NIL=
HTKJ NIL=
HTZA NIL=
HUEN NIL=
HUKS NIL=
HUMA NIL=
HUSO NIL=
####018000028####
SAAL31 KWBC 080900
NIL=
####018001136####
SAAK31 KWBC 080900
METAR
PABR 080853Z 26014KT 10SM BKN200 06/03 A3000=
PACD 080853Z 16004KT 10SM CLR 06/03 A2994=
PAED 080855Z AUTO 00000KT 10SM BKN080 12/10 A3001=
PAEI 080855Z AUTO 00000KT 10SM CLR 12/06 A3004=
PAEN 080853Z AUTO 02010KT 10SM FEW060 OVC080 14/11 A2997=
PAFA 080853Z 03003KT 10SM FEW070 SCT200 14/09 A3003=
PAFS 080856Z AUTO VRB04KT 10SM CLR 16/06 A3000=
PAFY NIL=
PAJN 080853Z 00000KT 10SM FEW250 12/09 A3019=
PAKN 080854Z 34003KT 10SM SCT045 BKN055 10/09 A2991=
PAKT 080853Z AUTO 31004KT 10SM CLR 18/12 A3008=
PANC 080853Z 17003KT 10SM -RA FEW055 BKN070 BKN120 BKN200 12/11
     A3000=
PAOM 080853Z 04010KT 10SM FEW045 SCT065 SCT095 16/09 A3009=
PAOR 080853Z 00000KT 10SM FEW070 11/09 A3008=
PAOT 080853Z 28010KT 10SM FEW040 SCT090 BKN200 12/07 A3013=
PARY 080856Z AUTO VRB03KT 10SM CLR 17/07 A3006=
PASC 080853Z 22013KT 10SM BKN036 BKN070 OVC210 11/07 A3000=
PASG NIL=
PASI 080853Z 00000KT 10SM CLR 13/12 A3018=
PATQ 080856Z AUTO 26013KT 10SM CLR 09/03 A3004=
PAVD 080856Z 00000KT 10SM OVC090 11/08 A3009=
PAWG 080856Z AUTO 00000KT 10SM CLR 14/11 A3013=
PFYU NIL=
####018001034####
SAAO31 KWBC 080900
METAR
GCFV 080900Z 04012KT 9999 SCT018 22/19 Q1017=
GCHI 080900Z 03012KT 340V080 9999 SCT013 OVC020 21/19 Q1018=
GCLA 080900Z 02012KT 350V050 9999 BKN020 22/17 Q1019=
GCLP 080900Z 01021KT 350V050 9999 SCT018 23/17 Q1017 NOSIG=
GCRR 080900Z 01016G26KT 330V040 9999 SCT018 23/18 Q1017=
GCTS 080900Z 06014KT 020V080 9999 BKN014 22/18 Q1017 NOSIG=
GCXO 080900Z 29015KT 0100 R30/0200V0500U R12/0150N FG OVC000 17/17
     Q1020 NOSIG=
GEML 080900Z 07006KT 010V110 CAVOK 25/20 Q1017=
GMAA NIL=
GMAT NIL=
GMFF 080900Z 34005KT 8000 FEW033 26/20 Q1017 NOSIG=
GMFO 080900Z 23004KT 170V300 9999 FEW030 SCT100 37/11 Q1018
     NOSIG=
GMME 080900Z 34004KT 300V020 6000 OVC010 23/19 Q1016 NOSIG=
GMMN 080900Z 01007KT 340V080 9000 SCT010 BKN023 24/19 Q1016
     NOSIG=
GMMX 080900Z 26004KT 210V320 6000 FEW026 26/19 Q1016 NOSIG=
GMOY NIL=
GMTA 080900Z 36004KT CAVOK 23/19 Q1016=
GMTN 080900Z NIL=
GMTT 080900Z 30006KT 260V340 8000 FEW010 SCT016 24/20 Q1016
     NOSIG=
GSAI NIL=
####018000227####
SAAO32 KWBC 080900
METAR
GABS NIL=
GAGO NIL=
GAKY NIL=
GAMB NIL=
GANR NIL=
GATB NIL=
GQNI NIL=
GQNK NIL=
GQNN 080900Z 20009KT 6000 SCT010 28/23 Q1012 NOSIG=
GQNP NIL=
GQPH NIL=
GQPP NIL=
GQPV NIL=
####018000080####
SAAF05 LFPW 080900
METAR DNMM 080900Z 24010KT 9999 BKN011 27/25 Q1016 NOSIG=
####018000563####
SAEW31 LEMM 080900
METAR LEMD 080900Z 07006KT 020V120 CAVOK 28/13 Q1019 NOSIG=
METAR LEBL 080900Z 20014KT CAVOK 27/21 Q1019 NOSIG=
METAR LEPA 080900Z VRB02KT CAVOK 30/10 Q1020 NOSIG=
METAR LEZL 080900Z NIL=
METAR LEMG 080900Z 18001KT 9999 FEW030 30/15 Q1016 NOSIG=
METAR LEVC 080900Z 07003KT 330V130 CAVOK 29/19 Q1019 NOSIG=
METAR LEAL 080900Z 08003KT 050V130 CAVOK 30/15 Q1019 NOSIG=
METAR LEIB 080900Z 07009KT 030V110 CAVOK 28/22 Q1019 NOSIG=
METAR LELC 080900Z 04010KT 010V100 CAVOK 29/12 Q1019 NOSIG=
METAR LEVX 080900Z VRB02KT CAVOK 24/21 Q1014=
####018000074####
SAAF18 LFPW 080900
METAR FIMP 080900Z 13016KT 9999 SCT016 25/16 Q1022=
####018000408####
SAEW35 LEMM 080900
METAR LEAB 080900Z 15012KT CAVOK 30/06 Q1022 NOSIG=
METAR LEBZ 080900Z 12009KT 080V150 CAVOK 30/15 Q1015=
METAR LELN 080900Z 11004KT 050V140 CAVOK 27/12 Q1020=
METAR LESA 080900Z 00000KT CAVOK 31/16 Q1019=
METAR LETO 080900Z 05008KT 020V080 9999 FEW040 29/11 Q1019 NOSIG=
METAR LEVD 080900Z 16006KT 100V210 CAVOK 29/11 Q1019=
METAR LEVS 080900Z 01004KT 300V080 CAVOK 28/13 Q1019=
####018000087####
SAHK31 VHHH 080900
METAR VHHH 080900Z 22013KT 9999 FEW020 SCT030 33/24 Q1006 NOSIG=
####018000271####
SAAO33 KWBC 080900
METAR
GBYD NIL=
GFLL NIL=
GGOV NIL=
GLRB NIL=
GOGG NIL=
GOGS NIL=
GOOY 080900Z 16006KT 140V200 9999 SCT013 29/24 Q1012 NOSIG=
GOSS NIL=
GOTT NIL=
GOTY NIL=
GUCY NIL=
GUFH NIL=
GULB NIL=
GUNZ NIL=
GUOK NIL=
GUXD NIL=
####018000166####
SAAF17 LFPW 080900
METAR HLLB 080850Z 32018KT CAVOK 30/16 Q1016=
METAR HLLS 080850Z 11O14KT CAVOK  33/11 Q1O17=
METAR HLLT 080850Z 00000KT 7000 SKC 28/19 Q1019=
####018000028####
SAAU31 KWBC 080900
NIL=
####018000390####
SAAW31 KWBC 080900
METAR
LLBG NIL=
LLBS NIL=
LLET NIL=
LLJR NIL=
LLOV NIL=
LTAC NIL=
LTAF NIL=
LTAI NIL=
LTBA NIL=
LTBJ NIL=
LTBS NIL=
OEPS NIL=
OJAI 080900Z 29009KT CAVOK 31/04 Q1012 NOSIG=
OJAI 080900Z NIL=
OJAM 080900Z 19004KT 6000 NSC 31/05 Q1012 NOSIG=
OJJR NIL=
OLBA 080900Z 24008KT 210V270 8000 FEW080 29/19 Q1011 NOSIG=
UGEE NIL=
UGGG NIL=
####018000081####
SAAK31 KWBC 080300 RRC
METAR
PACD 080253Z 16009KT 10SM OVC047 12/04 A2993=
####018001661####
SAAW32 KWBC 080900
METAR
OEDF 080900Z 36014KT 8000 NSC 45/03 Q1000 NOSIG=
OEDR 080900Z 01012KT 8000 SKC 44/09 Q0999 NOSIG=
OEJN 080900Z 31012KT CAVOK 37/25 Q1001 NOSIG=
OEMA 080900Z 10008KT CAVOK 45/00 Q1006 NOSIG=
OERK 080900Z 02017KT 5000 BLDU SKC 42/M01 Q1008 NOSIG=
OIAA 080900Z 30012KT 4000 DU SKC 46/07 Q0999=
OIAW 080900Z 24008KT CAVOK 45/09 Q0998 A2949=
OIBB 080900Z 21012KT 7000 HZ SKC 36/25 Q1000 A2953=
OIBK 080900Z 13010KT 5000 HZ SKC 38/24 Q1000 A2955=
OICC 080900Z 34004KT CAVOK 38/M02 Q1013 A2994 865.3=
OICK 080900Z NIL=
OICS 080900Z 20004KT 9000 SKC 38/02 Q1013 A2992=
OIFM 080900Z 12006KT CAVOK 38/05 Q1017 A3004=
OIFP NIL=
OIGG 080900Z 35008KT 9999 FEW025 32/21 Q1011 A2988=
OIHH 080900Z NIL=
OIII 080900Z NIL=
OIIM NIL=
OIIP NIL=
OIIX NIL=
OIKB 080900Z 20012KT 5000 HZ NSC 38/25 Q1001 A2956=
OIKK 080900Z 09006KT CAVOK 35/00 Q1017 A3004=
OIMM 080900Z 06012KT CAVOK 38/M02 Q1015 A2997=
OINN NIL=
OINR NIL=
OINZ 080900Z 28008KT 9999 FEW030 34/23 Q1010 A2985=
OISM NIL=
OISS 080900Z 36012KT CAVOK 38/08 Q1014 A2995=
OITL 080900Z 06020KT CAVOK 25/14 Q1019 A3009=
OITR 080900Z 35006KT CAVOK 32/12 Q1014 A2996=
OITT 080900Z 09014KT CAVOK 35/04 Q1015 A2998=
OIYY 080900Z 36008KT CAVOK 40/M06 Q1014 A2995=
OIZH 080900Z NIL=
OKBK 080900Z 35017KT CAVOK 47/M10 Q1001 NOSIG=
ORBI 080900Z 30016KT CAVOK 44/05 Q1003 NOSIG=
ORBS NIL=
ORMM NIL=
OSAP 080900Z 28016KT CAVOK 32/18 Q1007=
OSDI 080900Z 20018KT CAVOK 34/07 Q1010=
OSLK 080900Z 21004KT 9999 FEW026 SCT030 28/21 Q1009=
OTBD 080900Z 03010KT 360V070 6000 NSC 36/29 Q1000 NOSIG=
OTBH NIL=
OTMA NIL=
OTMS NIL=
####018000710####
SAAW33 KWBC 080900
METAR
OBBI 080900Z 01008KT 7000 NSC 39/20 Q1000 BECMG 8000=
OMAA 080900Z 21004KT CAVOK 43/17 Q0999 A2952 NOSIG=
OMAL 080900Z 27007KT 180V360 8000 NSC 41/26 Q1002 A2960=
OMDB 080900Z 33010KT 8000 NSC 43/22 Q1000 NOSIG=
OMFJ 080900Z 09008KT 040V130 7000 FEW020 34/27 Q1002 A2959=
OMRK 080900Z 16009KT CAVOK 42/30 Q0999 A2950=
OMSJ 080900Z 31010KT 280V010 6000 NSC 42/24 Q1000=
OOMA NIL=
OOMS 080900Z 06007KT 020V090 6000 BKN025 BKN120 32/29 Q1001
     NOSIG=
OOSA NIL=
OOTH NIL=
OPMT NIL=
OYAA 080900Z 21013KT 6000 NSC 33/22 Q1003=
OYAR NIL=
OYHD NIL=
OYJA NIL=
OYMB 080900Z 04025KT 6000 FEW030 40/M02 Q1006=
OYSM NIL=
OYSN 080900Z NIL=
OYTZ NIL=
####018000112####
SAAW33 KWBC 080830 RRA
METAR
OOSA 080850Z 13009KT 100V160 8000 SCT010 OVC020 28/24 Q1003 NOSIG
     05=
####018000073####
SAAW34 KWBC 080845 RRD
METAR
OAKB 080900Z NIL=
OAKN 080900Z NIL=
####018000387####
SAAW42 KWBC 080900
METAR
OBAH NIL=
OBBI 080900Z 01008KT 7000 NSC 39/20 Q1000 BECMG 8000=
OBBQ NIL=
OBSC NIL=
OBZI NIL=
OJAQ 080900Z 36018KT CAVOK 35/24 Q1008=
OKBC NIL=
OKTK NIL=
OKZK NIL=
OMAD 080900Z 21004KT 120V260 CAVOK 42/18 Q0999 A2953=
OMAU NIL=
OMDZ NIL=
OMGK NIL=
OMMA NIL=
OMMS NIL=
OMSA NIL=
OMSQ NIL=
OMSR NIL=
OSAS NIL=
OSGN NIL=
####018000028####
SABO41 KWBC 080900
NIL=
####018000946####
SABZ31 KWBC 080900
METAR
SBBE 080900Z 11004KT 9999 FEW017 BKN080 25/22 Q1012=
SBBR 080900Z 26002KT CAVOK 14/09 Q1022=
SBBV 080900Z 27002KT 9999 SCT025 SCT090 25/23 Q1012=
SBCF 080900Z 17003KT CAVOK 10/08 Q1023=
SBCG 080900Z 12004KT CAVOK 15/09 Q1016=
SBEG 080900Z 08001KT 9999 FEW010 SCT100 25/22 Q1011=
SBFI 080900Z 19002KT 8000 FEW020 SCT100 16/13 Q1014=
SBFZ 080900Z 15006KT 9999 SCT017 BKN100 24/20 Q1014=
SBGL 080900Z 00000KT CAVOK 15/13 Q1018=
SBGR 080900Z 08003KT CAVOK 11/10 Q1020=
SBKP 080900Z 08003KT CAVOK 10/08 Q1020=
SBNT 080900Z 20005KT 9999 FEW020 SCT070 22/21 Q1014=
SBPA 080900Z 18003KT 9999 BKN025 OVC045 17/14 Q1018=
SBPS 080900Z 28003KT 2000 RA BR BKN005 BKN100 17/17 Q1018=
SBRF 080900Z 24003KT 9999 SCT020 BKN070 22/21 Q1015=
SBSL 080900Z 10003KT 9999 FEW017 SCT100 26/23 Q1013=
SBSN 080900Z 14002KT CAVOK 23/22 Q1011=
SBSV 080900Z 28003KT 9999 SCT017 SCT070 21/20 Q1017=
SBTT NIL=
####018000545####
SABZ41 KWBC 080900
METAR
SBAA NIL=
SBAF NIL=
SBAR 080900Z 23004KT CAVOK 22/22 Q1016=
SBBG NIL=
SBBH NIL=
SBBI NIL=
SBBU NIL=
SBCJ 080900Z 00000KT CAVOK 19/16 Q1016=
SBCO NIL=
SBCR NIL=
SBCT 080900Z 09002KT CAVOK 10/10 Q1020=
SBCV NIL=
SBCY 080900Z 02005KT CAVOK 20/14 Q1014=
SBCZ 080900Z 00000KT 8000 SCT020 23/23 Q1011=
SBDN NIL=
SBFL 080900Z 13013KT CAVOK 22/16 Q1015=
SBFN 080900Z 15004KT 9999 SCT017 26/23 Q1014=
SBGO 080900Z 01002KT CAVOK 14/10 Q1020=
SBGW NIL=
SBHT NIL=
SBIH NIL=
SBIL NIL=
####018000821####
SABZ42 KWBC 080900
METAR
SBJR NIL=
SBLO 080900Z 12001KT CAVOK 16/13 Q1018=
SBMA 080900Z 26004KT CAVOK ///// Q1012=
SBME NIL=
SBMN 080900Z 04006KT 9999 FEW010 BKN100 26/23 Q1011=
SBMO 080900Z 30002KT 9999 SCT020 BKN100 21/21 Q1016=
SBMQ 080900Z 34002KT CAVOK 25/25 Q1012=
SBMT NIL=
SBPC NIL=
SBPK NIL=
SBPP NIL=
SBPV 080900Z 00000KT CAVOK 23/22 Q1012=
SBRB 080900Z 00000KT CAVOK 22/22 Q1011=
SBRB 080900Z 00000KT CAVOK 23/23 Q1011=
SBRJ 080900Z 01004KT CAVOK 19/16 Q1018=
SBSC NIL=
SBSJ 080900Z 00000KT 5000 BR SCT010 12/11 Q1022=
SBSM NIL=
SBSP 080900Z 00000KT CAVOK 16/09 Q1020=
SBST NIL=
SBTE 080900Z 19002KT 9999 FEW020 BKN090 25/24 Q1013=
SBTU NIL=
SBUG 080900Z 14002KT CAVOK 06/05 Q1020=
SBUR NIL=
SBVH NIL=
SBVT 080900Z 30004KT CAVOK 17/15 Q1020=
SBYS NIL=
####018000437####
SABZ43 KWBC 080900
METAR
SBAN NIL=
SBAT NIL=
SBBA NIL=
SBBQ NIL=
SBBW NIL=
SBCC NIL=
SBER NIL=
SBES NIL=
SBGA NIL=
SBIZ NIL=
SBJF NIL=
SBJP 080900Z 21004KT CAVOK 22/21 Q1015=
SBKG NIL=
SBLB NIL=
SBLP NIL=
SBMK NIL=
SBMS NIL=
SBMZ NIL=
SBPB NIL=
SBPJ NIL=
SBPL NIL=
SBPN NIL=
SBQV NIL=
SBRP 080900Z 12001KT CAVOK 11/09 Q1019=
SBTF NIL=
SBTK NIL=
SBUF NIL=
SBUI NIL=
SBUL NIL=
####018001130####
SAAK32 KWBC 080900
METAR
PABA 080901Z AUTO 22005KT 10SM SCT005 OVC055 04/04 A3005=
PABI 080853Z AUTO 00000KT 10SM CLR 14/08 A3008=
PACZ 080855Z AUTO 00000KT 10SM 11/08 A3007=
PACZ SA 0855 AWOS MM 10 51/47/0000/007=
PADK 080856Z 05010KT 7SM FEW016 BKN022 OVC029 07/06 A2959=
PADL 080856Z 32008KT 10SM SCT070 11/08 A2998=
PADQ 080853Z 30004KT 4SM -RA BR BKN016 OVC026 10/09 A2983=
PAEH 080855Z AUTO 00000KT 10SM OVC018 09/M28 A3001=
PAEH SA 0855 AWOS M18 OVC 10 49/-19/0000/001=
PAFB NIL=
PAGA 080858Z AUTO 01004KT 10SM CLR 16/07 A3006=
PAIM 080855Z AUTO 32004KT 10SM CLR 14/07 A3009=
PAIM SA 0855 AWOS CLR BLO 120 10 57/45/3204/009=
PALU 080855Z AUTO 22012G24KT 10SM CLR 13/02 A3011=
PALU SA 0855 AWOS CLR BLO 120 10 55/35/2212G24/ 011=
PASV 080855Z AUTO 00000KT 10SM SCT090 10/08 A2997=
PASV SA 0855 AWOS 90 SCT 10 50/47/0000/997=
PASY 080856Z AUTO 02016KT 10SM OVC006 A2974=
PATC 080855Z AUTO 01005KT 10SM CLR 09/06 A3016=
PATC SA 0855 AWOS CLR BLO 120 10 49/43/0105/016=
PATL 080855Z AUTO 02005KT 10SM CLR 16/06 A3000=
PATL SA 0855 AWOS CLR BLO 120 10 60/43/0205/000=
PBTI NIL=
####018000502####
SACA31 KWBC 080900
METAR
MBJT NIL=
MBPV NIL=
MBSC NIL=
MKJP NIL=
MKJS NIL=
MUCM NIL=
MUCU 080857Z 04004KT 9000 FEW020 25/23 Q1015=
MUHA 080855Z 00000KT 8000 FEW018 24/23 Q1013=
MUVR 080853Z 00000KT 8000 SCT020 BKN200 25/23 Q1014=
MWCB NIL=
MWCR NIL=
MYAM NIL=
MYAT NIL=
MYBS NIL=
MYEC NIL=
MYEG 080859Z AUTO 15008KT 10SM SCT020 BKN028 BKN040 27/24 A2992
     RMK AO2=
MYEH NIL=
MYEM NIL=
MYGF NIL=
MYGW NIL=
MYNN 080900Z 00000KT 9999 SCT015 26/26 A2993=
####018000768####
SACA32 KWBC 080900
METAR
MDLR NIL=
MDPC 080900Z 00000KT 9999 FEW018 24/22 Q1012=
MDPP 080900Z 00000KT 9999 FEW016 22/22 Q1016=
MDSD 080900Z 04004KT 9999 SCT018 24/23 Q1014=
MDST 080900Z 15005KT 9999 FEW016 23/22 Q1014=
MTCH NIL=
MTPP NIL=
TAPA NIL=
TIST 080853Z AUTO 08005KT 10SM CLR 28/24 A2997 RMK AO2 SLP148
     T02780244 56001 TSNO=
TISX 080853Z 08008KT 10SM CLR 27/24 A2996 RMK AO2 SLP145 T02720239
     58005=
TJBQ NIL=
TJMZ NIL=
TJNR NIL=
TJPS 080850Z 05005KT 8/SM FEW030 24/23 A2997 RMK HZ ALQDS=
TJPS 080850Z 05005KT 8`SM FEW030 24/23 A2997 RMK HZ ALQDS=
TJSJ 080856Z 00000KT 10SM FEW022 SCT035 27/24 A2998 RMK AO2 SLP150
     T02720244 55000=
TKPK NIL=
TKPN NIL=
TQPF NIL=
TRPM NIL=
TUPJ NIL=
TUPW NIL=
####018000636####
SACA33 KWBC 080900
METAR
TBPB 080900Z 08017KT 9999 BKN014 28/24 Q1012 NOSIG=
TDPD NIL=
TDPR NIL=
TFFF 080900Z AUTO 08010KT 9999NDV FEW012/// SCT025/// 28/24
     Q1013=
TFFG NIL=
TFFJ NIL=
TFFR 080900Z 00000KT 9999 FEW021 25/24 Q1014 NOSIG=
TGPY NIL=
TGPZ NIL=
TLPC NIL=
TLPL 080900Z 10022KT 9999 SCT024 BKN300 29/24 Q1013=
TNCA NIL=
TNCB NIL=
TNCC NIL=
TNCE NIL=
TNCM NIL=
TTCP 080900Z 10011KT 3000 SHRA VCSH FEW010CB SCT014 BKN038 24/23
     Q1012 RETS TEMPO SHRA=
TTPP 080900Z 00000KT 8000 -SHRA VCSH FEW016 SCT036 BKN280 26/25
     Q1011 TEMPO SHRA=
TVSM NIL=
TVSU NIL=
TVSV NIL=
####018000762####
SACA35 KWBC 080900
METAR
MGGI NIL=
MGPB 080900Z 00000KT 9999 TS FEW016 FEW025CB OVC080 24/23 Q1009
     A2980 CB/TS/LTNG N=
MGSJ 080900Z 00000KT 9999 FEW018 OVC090 23/23 Q1011 A2985=
MHLC 080900Z 00000KT 9999 FEW026 SCT200 25/24 Q1009 A2980
     NOSIG=
MHLM 080900Z 00000KT 9999 FEW028CB BKN080 26/24 Q1009 A2980
     NOSIG=
MHTG 080900Z 00000KT 9999 BKN025 SCT080 19/18 Q1016 A3000
     NOSIG=
MNPC NIL=
MPBO NIL=
MPCH NIL=
MPDA NIL=
MPMG NIL=
MPSA NIL=
MPTO 080900Z 00000KT 9000 DZ SCT018 SCT090 25/24 Q1010 RWY
     DAMP=
MRLB NIL=
MRLM NIL=
MROC 080900Z 00000KT 3000 -RA BR FEW002 SCT005 BKN012 19/19
     A3001=
MRPV NIL=
MSLP 080850Z 03003KT 9999 SCT023 BKN060 25/23 Q1010 A2985=
MSSS NIL=
MZBZ NIL=
####018000347####
SAIR37 OIII 080900
METAR OIBQ 080900Z 27008KT 7000 SKC 36/23 Q1000 A2953=
METAR OIIK 080900Z 12014KT CAVOK 38/02 Q1015 A2997=
METAR OIMC 080900Z NIL=
METAR OIMD 080900Z NIL=
METAR OIMQ 080900Z NIL=
METAR OISR 080900Z 20006KT 6000 SKC 43/18 Q1003 A2963=
METAR OITK 080900Z NIL=
METAR OITM 080900Z 15006KT CAVOK 35/08 Q1014 A2995=
####018000463####
SACA41 KWBC 080900
METAR
MKBK NIL=
MUBA NIL=
MUBY NIL=
MUCA NIL=
MUCL NIL=
MUCM NIL=
MUCU 080857Z 04004KT 9000 FEW020 25/23 Q1015=
MUGM 080856Z 33004KT 9999 CLR 25/22 A2995 RMK SLP140 T02500222
     56004=
MUGT NIL=
MUHA 080855Z 00000KT 8000 FEW018 24/23 Q1013=
MUMO NIL=
MUMZ NIL=
MUNG NIL=
MUVR 080853Z 00000KT 8000 SCT020 BKN200 25/23 Q1014=
MUVT NIL=
MYEF NIL=
MYSM NIL=
TABS NIL=
TAOA NIL=
TBBI NIL=
TDCF NIL=
####018000411####
SACA45 KWBC 080900
METAR
MGFL NIL=
MGGT 080900Z 19004KT 9999 FEW015 SCT100 17/14 Q1022 A3018
     NOSIG=
MGHT 080900Z 00000KT 9999 OVC012 16/16 QFE 816/2=
MGHT 080900Z 00000KT 9999 OVC012 16/16 QFE 816.2=
MHAM NIL=
MHCA NIL=
MHCH NIL=
MHLE NIL=
MHNJ NIL=
MHNO NIL=
MHPL NIL=
MHRO NIL=
MHSR NIL=
MHTE NIL=
MHYR NIL=
MNMG NIL=
MNPC NIL=
MPSA NIL=
MRCH NIL=
MSAC NIL=
####018000028####
SACI31 KWBC 080900
NIL=
####018000311####
SACA42 KWBC 080900
METAR
TIST 080853Z AUTO 08005KT 10SM CLR 28/24 A2997=
TISX 080853Z 08008KT 10SM CLR 27/24 A2996=
TJBQ NIL=
TJMZ NIL=
TJNR NIL=
TJPS 080850Z 05005KT 8/SM FEW030 24/23 A2997=
TJPS 080850Z 05005KT 8`SM FEW030 24/23 A2997=
TJSJ 080856Z 00000KT 10SM FEW022 SCT035 27/24 A2998=
####018000686####
SACI32 KWBC 080900
METAR
ZBAA NIL=
ZBTJ NIL=
ZBYN NIL=
ZGGG NIL=
ZGNN NIL=
ZGSZ NIL=
ZHHH NIL=
ZKPY NIL=
ZLLL NIL=
ZMUB 080900Z 15011MPS 9999 -SHRA SCT027CB SCT030 16/12 Q1008 NOSIG
     RMK QFE649.4 80=
ZPPP NIL=
ZSAM NIL=
ZSHC NIL=
ZSNJ NIL=
ZSOF NIL=
ZSPD NIL=
ZSSS NIL=
ZUBD NIL=
ZUCD NIL=
ZUCK NIL=
ZUDF NIL=
ZUDS NIL=
ZUDX NIL=
ZUDZ NIL=
ZUFJ NIL=
ZUFL NIL=
ZUGH NIL=
ZUGY NIL=
ZULP NIL=
ZULS NIL=
ZULZ NIL=
ZUMY NIL=
ZUNC NIL=
ZUSN NIL=
ZUTR NIL=
ZUUU NIL=
ZUWF NIL=
ZUWX NIL=
ZUXC NIL=
ZUXJ NIL=
ZUXY NIL=
ZUYB NIL=
ZUZY NIL=
ZWTN NIL=
ZWWW NIL=
ZYHB NIL=
ZYTL NIL=
ZYYY NIL=
####018000028####
SACI41 KWBC 080900
NIL=
####018000028####
SACN31 KWBC 080900
NIL=
####018000442####
SAHW31 KWBC 080900
METAR
PBKH NIL=
PHJR 080853Z 06003KT 10SM FEW055 23/18 A3006=
PHKO 080853Z AUTO 17006KT 10SM CLR 24/16 A2999=
PHLI 080853Z 07012KT 10SM FEW016 BKN050 OVC065 24/19 A3007=
PHNL 080853Z 03006KT 10SM FEW032 SCT050 24/18 A3005=
PHOG 080854Z 04010KT 10SM FEW055 24/17 A3004=
PHTO 080904Z AUTO 21004KT 10SM -RA BKN025 OVC038 22/19 A3006=
PHTO 080853Z AUTO 16005KT 8SM RA SCT025 BKN038 22/19 A3006=
PNGF NIL=
####018000704####
SAEE31 KWBC 080900
METAR
EPGD 080900Z 30008KT CAVOK 21/11 Q1021=
EPKK 080900Z 33006KT 290V020 9999 FEW046 21/09 Q1022=
EPKT 080900Z 34008KT CAVOK 20/08 Q1023=
EPPO 080900Z 32006KT 250V020 CAVOK 21/09 Q1023=
EPQT NIL=
EPRZ 080900Z 32011KT 280V350 9999 FEW033 20/10 Q1021=
EPSC NIL=
EPWA 080900Z 29010KT 250V350 9999 FEW033 20/12 Q1021 NOSIG=
EYSA NIL=
UKBB 080900Z 31003MPS 250V350 9999 BKN023 24/18 Q1014 88CLRD95
     NOSIG=
UKKK 080900Z 26002MPS 210V350 9999 BKN019 22/18 Q1015 26CLRD70
     NOSIG=
UKLL 080900Z 31004MPS 260V020 9999 OVC040 17/12 Q1020 31210365
     NOSIG=
UKOO 080900Z 36004MPS CAVOK 25/16 Q1014 34090070 NOSIG=
UMII NIL=
UMMM NIL=
UMMS NIL=
####018000714####
SAEE32 KWBC 080900
METAR
LBBG 080900Z 27007MPS 9999 FEW038 BKN072 BKN110 18/15 Q1015
     NOSIG=
LBPD 080900Z 26005MPS 230V290 9999 SCT050 BKN060 16/12 Q1016
     NOSIG=
LBSF 080900Z 27006MPS 9999 BKN038 16/11 Q1018 NOSIG=
LBWN 080900Z 27005G10MPS 240V300 9999 SCT024 19/15 Q1014 NOSIG=
LHBP 080900Z 21006KT 130V290 9999 FEW046 22/11 Q1022 NOSIG=
LHTA NIL=
LRAR NIL=
LRBS 080900Z VRB02KT 9999 FEW018 BKN046 20/15 Q1016 NOSIG=
LRCK 080900Z 02011KT 350V060 9999 SCT035 22/14 Q1015 NOSIG=
LROP 080900Z VRB02KT 9999 FEW040CB BKN044 20/14 Q1016 880///95
     NOSIG=
LRTC NIL=
LRTM NIL=
LRTR 080900Z 36007KT 320V050 9999 FEW025 SCT042 20/14 Q1020=
LUCC NIL=
LUKK NIL=
LURN NIL=
####018001681####
SAEM31 KWBC 080900
METAR
KQLA NIL=
KQLH NIL=
KQLX NIL=
LATI 080900Z 34008KT 330V130 CAVOK 26/12 Q1016 NOSIG=
LDDU 080900Z VRB10KT 9999 FEW043 25/05 Q1019 NOSIG=
LDDV NIL=
LDKT NIL=
LDOS 080900Z VRB04KT 9999 FEW033 22/10 Q1022 NOSIG=
LDPL 080900Z 08007KT 050V130 CAVOK 24/10 Q1022 NOSIG=
LDRI 080900Z 26006KT 210V330 CAVOK 24/10 Q1022 NOSIG=
LDSP 080900Z 16005KT 120V210 CAVOK 26/05 Q1020 NOSIG=
LDZA 080900Z VRB02KT 9999 FEW045 24/10 Q1023 NOSIG=
LDZD 080900Z 28005KT 200V350 CAVOK 26/05 Q1021 NOSIG=
LJLJ NIL=
LJMB NIL=
LJPZ NIL=
LKIB NIL=
LKMT 080900Z VRB03KT 9999 FEW046 19/10 Q1023 NOSIG=
LKPR 080900Z 23004KT 150V270 CAVOK 21/10 Q1024 NOSIG=
LKTB 080900Z 29005KT 240V350 CAVOK 21/08 Q1023 NOSIG=
LKTT NIL=
LOAV NIL=
LOIH NIL=
LOIJ NIL=
LOLW NIL=
LOWG NIL=
LOWH NIL=
LOWI NIL=
LOWK NIL=
LOWL NIL=
LOWS NIL=
LOWW NIL=
LOWZ NIL=
LQSA 080900Z 30006KT 250V340 9999 FEW040 BKN050 19/11 Q1023
     NOSIG=
LWOH 080900Z 01008KT 330V060 9999 FEW033 20/07 Q1019=
LWSK 080900Z 35010KT 9999 BKN050 17/10 Q1020 NOSIG=
LYBE 080900Z 31008KT CAVOK 19/14 Q1022 NOSIG=
LYDU NIL=
LYLJ NIL=
LYMB NIL=
LYNI 080900Z 33007KT 300V360 9999 SCT020 OVC033 16/13 Q1020
     NOSIG=
LYOH NIL=
LYOS NIL=
LYPG 080900Z 01016KT 9999 FEW040 26/07 Q1017 NOSIG=
LYPL NIL=
LYPR 080900Z NIL=
LYPZ NIL=
LYRI NIL=
LYSA NIL=
LYSK NIL=
LYSP NIL=
LYTI NIL=
LYTV 080900Z 29005KT 240V340 9999 FEW053 26/08 Q1018 NOSIG=
LYZA NIL=
LYZD NIL=
LZIB 080900Z 01009KT 340V050 CAVOK 23/06 Q1022=
LZKZ 080900Z 02010KT 330V060 9999 FEW045 21/11 Q1021 NOSIG=
LZTT 080900Z VRB03KT 9999 FEW040 19/07 Q1022 NOSIG=
####018000300####
SAEW31 KWBC 080900
METAR
LPAZ NIL=
LPFR 080900Z 25004KT 180V300 9000 SCT009 BKN011 23/20 Q1016=
LPFU NIL=
LPPD NIL=
LPPR 080900Z VRB03KT 5000 BR SCT250 24/19 Q1013=
LPPS 080900Z 03009KT 9999 FEW016 SCT030 21/15 Q1020=
LPPT 080900Z VRB03KT 8000 FEW120 26/18 Q1015 NOSIG=
LXGB NIL=
####018000866####
SAFR31 KWBC 080900
METAR
LFAC NIL=
LFAT NIL=
LFBD 080900Z 07009KT CAVOK 29/13 Q1017 NOSIG=
LFBH 080900Z AUTO 20004KT 160V290 9999NDV NSC 29/13 Q1018=
LFBI 080900Z 12003KT 040V180 CAVOK 27/14 Q1019 NOSIG=
LFBO 080900Z 12005KT 070V160 CAVOK 28/13 Q1019 NOSIG=
LFBP 080900Z VRB03KT CAVOK 30/20 Q1017 NOSIG=
LFBT 080900Z NIL=
LFBZ 080900Z 08005KT CAVOK 26/21 Q1016 NOSIG=
LFGJ NIL=
LFKB 080900Z 09006KT 050V120 9000 FEW020 29/23 Q1019 NOSIG=
LFKC 080900Z 35007KT 310V030 9999 FEW016 27/22 Q1020 NOSIG=
LFKJ 080900Z 24007KT 9999 FEW026 27/22 Q1020 NOSIG=
LFLB 080900Z VRB01KT 9999 FEW060 26/16 Q1021 NOSIG=
LFLC 080900Z 23003KT 160V270 CAVOK 26/16 Q1020 NOSIG=
LFLL 080900Z 12004KT 070V200 CAVOK 27/14 Q1021 NOSIG=
LFLS 080900Z VRB02KT CAVOK 27/16 Q1022 NOSIG=
LFLY 080900Z VRB02KT CAVOK 28/12 Q1021 NOSIG=
LFMD NIL=
LFMH NIL=
####018001318####
SAFR32 KWBC 080900
METAR
LFML 080900Z 29004KT CAVOK 30/18 Q1019 BECMG 22015KT=
LFMN 080900Z 09006KT 9999 FEW023 28/22 Q1020 NOSIG=
LFMP 080900Z 07006KT 040V110 CAVOK 28/17 Q1019 NOSIG=
LFMT 080900Z 07005KT 040V100 CAVOK 29/15 Q1020 NOSIG=
LFOB 080900Z 20006KT 160V240 CAVOK 27/12 Q1019 NOSIG=
LFOH 080900Z AUTO 35012KT 9999NDV NSC 20/11 Q1020=
LFOT NIL=
LFPB 080900Z 18005KT 120V250 CAVOK 28/11 Q1019 NOSIG=
LFPG 080900Z 19006KT 140V230 CAVOK 27/11 Q1019 NOSIG=
LFPN NIL=
LFPO 080900Z 21005KT 150V250 CAVOK 27/12 Q1019 NOSIG=
LFQQ 080900Z 22004KT 180V280 CAVOK 26/14 Q1019 NOSIG=
LFRB 080900Z 12003KT 070V170 9999 BKN010 18/15 Q1019 NOSIG=
LFRC NIL=
LFRD 080900Z AUTO 01006KT 340V050 9999NDV SCT013 19/15 Q1019=
LFRG NIL=
LFRK NIL=
LFRN 080900Z AUTO 32007KT 290V350 9999NDV NSC 22/15 Q1019=
LFRO 080900Z AUTO 02003KT 330V070 9999NDV BKN016 19/16 Q1019=
LFRQ NIL=
LFRS 080900Z 17003KT 090V200 CAVOK 26/13 Q1018 NOSIG=
LFRT NIL=
LFRZ 080900Z AUTO 05004KT 350V110 9999NDV NSC 25/14 Q1018=
LFSB 080900Z 10004KT 040V200 CAVOK 27/10 Q1021 NOSIG=
LFSF 080900Z AUTO 00000KT 9999NDV NSC 26/10 Q1020=
LFSN 080900Z VRB01KT CAVOK 27/14 Q1020 NOSIG=
LFSR 080900Z AUTO VRB02KT 9999NDV NSC 28/13 Q1019=
LFST 080900Z VRB03KT CAVOK 26/13 Q1020 NOSIG=
LFTW NIL=
LFVP NIL=
####018000099####
SPUS41 KWBC 080906
SPECI
KLUK 080903Z AUTO 00000KT 2SM R21L/2400VP6000FT BR CLR 22/21 A3007=
####018000302####
SAPA41 KWBC 080900
METAR
PGSN 080854Z 09010KT 10SM FEW025 28/24 A2989=
PGUA 080855Z AUTO 09013KT 10SM SCT017 27/ A2989=
PGUM 080854Z 09010KT 10SM FEW021 SCT027 SCT041 28/24 A2988=
PJON NIL=
PKMJ NIL=
PKWA 080900Z AUTO 11012KT 3SM RA SCT006 BKN017 OVC046 25/23
     A2986=
PWAK NIL=
####018000084####
SABC40 FBSK 080900
METAR FBSK 080900Z 08016KT 9999 BKN020 17/09 Q1033 NOSIG=

####018000939####
SAFR41 KWBC 080900
METAR
LFAF NIL=
LFBA NIL=
LFBC 080900Z AUTO 09010KT 9999NDV NSC 31/12 Q1016=
LFBL 080900Z NIL=
LFBM 080900Z AUTO 11009KT 080V140 9999NDV NSC 30/16 Q1016=
LFKF 080900Z VRB04KT 9999 SCT033 30/22 Q1019 NOSIG=
LFLD NIL=
LFLV NIL=
LFOE NIL=
LFOP 080900Z VRB01KT CAVOK 25/12 Q1019 NOSIG=
LFPB 080900Z 18005KT 120V250 CAVOK 28/11 Q1019 NOSIG=
LFPG 080900Z 19006KT 140V230 CAVOK 27/11 Q1019 NOSIG=
LFPV 080900Z AUTO /////KT 9999NDV NSC 26/11 Q1020=
LFQB NIL=
LFQQ 080900Z 22004KT 180V280 CAVOK 26/14 Q1019 NOSIG=
LFRH NIL=
LFRM NIL=
LFSC NIL=
LFSD 080900Z AUTO 09003KT 030V170 9999NDV NSC 26/14 Q1020=
LFSI 080900Z AUTO VRB02KT 9999NDV NSC 27/13 Q1020=
LFSL 080900Z AUTO 11008KT 9999NDV NSC 26/14 Q1020=
LFSO 080900Z AUTO 27005KT 230V320 9999NDV NSC 27/11 Q1021=
LFSX 080900Z AUTO 14005KT 080V170 9999NDV NSC 26/14 Q1021=
LFTH 080900Z 15005KT 110V190 CAVOK 29/20 Q1020 NOSIG=
####018000028####
SAID31 KWBC 080900
NIL=
####018000028####
SAHA31 KWBC 080900
NIL=
####018000362####
SAIE31 KWBC 080900
METAR
EICK 080900Z 21011KT 9999 FEW008 SCT014 BKN050 14/12 Q1016
     NOSIG=
EIDB NIL=
EIDW 080900Z 23012KT 9999 FEW023 SCT130 BKN180 16/11 Q1015
     NOSIG=
EIKN 080900Z 22008KT 180V250 9999 FEW015 FEW018CB SCT050 BKN200
     13/10 Q1013 NOSIG=
EINN 080900Z 17010KT 9999 -RA FEW014 BKN050 BKN090 15/12 Q1015
     NOSIG=
####018000502####
SAIO31 KWBC 080900
METAR
FIMP NIL=
FIMR NIL=
FJDG NIL=
FMCH NIL=
FMCV NIL=
FMCZ NIL=
FMEE NIL=
FMMI 080900Z 12010KT 080V160 9999 BKN020 18/12 Q1027 NOSIG=
FMMT NIL=
FMNN NIL=
FSIA NIL=
FSSS NIL=
VRMM NIL=
VYMD NIL=
VYYY NIL=
WBGG 080900Z 25006KT 9999 SCT020 BKN150 27/24 Q1008 RESH NOSIG=
WBKK 080900Z 09008KT 9999 -TSRA FEW013 FEW016CB SCT035 OVC260
     25/23 Q1008 NOSIG=
WBSB 080900Z 25005KT 9999 FEW015 FEW016CB BKN140 29/24 Q1007 TEMPO
     6000 SHRA=
####018000094####
SPUS42 KWBC 080906
SPECI
KAMA 080903Z 04006KT 1SM -RA BKN020 BKN070 OVC100 17/16 A3018=
####018000804####
SAPQ31 KWBC 080900
METAR
PGRO 080851Z 10017KT 7SM FEW015 FEW030 28/25 A2988=
PGSN 080854Z 09010KT 10SM FEW025 28/24 A2989=
PGUM 080854Z 09010KT 10SM FEW021 SCT027 SCT041 28/24 A2988=
PGWT 080852Z 10007KT 7SM FEW015 FEW040 SCT100 25/24 A2988=
PKMJ NIL=
PKMR 080854Z 08011KT 15SM SCT014 BKN045 BKN120 OVC300 27/24
     A2981=
PKRO NIL=
PKWA 080900Z AUTO 11012KT 3SM RA SCT006 BKN017 OVC046 25/23
     A2986=
PTKK 080858Z VRB03KT 15SM FEW012 BKN120 OVC280 25/23 A2983=
PTKR 080853Z 06003KT 15SM FEW018CB SCT120 OVC300 28/23 A2982=
PTPN NIL=
PTRO 080851Z 00000KT 14SM FEW009 SCT016TCU BKN120 BKN300 27/24
     A2985=
PTSA NIL=
PTTP 080855Z 19003KT 15SM FEW018 SCT300 26/24 A2986=
PTYA 080853Z 05008KT 12SM FEW016CB SCT030 BKN130 OVC300 27/23
     A2983=
PWAK NIL=
####018000914####
SAIQ31 KWBC 080900
METAR
KQAD 080855Z AUTO VRB06KT 3700 HZ CLR 43/04 A2958 RMK AO2 SLP014
     T04340037 54000 $=
KQAE 080855Z 32011G15KT 9000 HZ CLR 42/08 A2965 RMK SLP037
     55000=
KQEZ NIL=
KQMG 080855Z AUTO 02014KT 12SM SCT130 21/14 A3014 RMK AO2 SLP134
     T02050140 58002 $=
KQMH NIL=
KQTO 080855Z 32012G23KT 9999 CLR 44/04 A2961 RMK SLP025 56010=
KQTU 080855Z 32012KT 9999 CLR 42/04 A2966 RMK SLP023 57005=
KQTW NIL=
KQTX NIL=
KQTZ 080855Z 32009G18KT 9000 HZ CLR 44/04 A2963 RMK SLP027
     QNH1003MB ALSTG/SLP ESTMD WND DATA ESTMD 56003=
KQTZ 080855Z 32009G18KT 9000 HZ CLR 44/04 A2963 RMK SLP027
     QNH1003MB ALSTG/SLP ESTMD WND DATA ESTMD=
KQVO NIL=
KQXJ 080855Z 33017G29KT 2000 BLDU BKN000 46/M02 A2957 RMK DU
     BKN000 SLP015 58007 PA+346 DA+3931=
KQXN NIL=
ORBI 080900Z 30016KT CAVOK 44/05 Q1003 NOSIG=
ORER 080900Z 17004KT 8000 SKC 41/01 Q1005=
####018000639####
SAIQ32 KWBC 080900
METAR
KQAJ 080858Z COR 32008KT 9999 CLR 39/07 A2973 RMK SLP052 WND DATA
     ESTMD ALSTG/SLP ESTMD 58003 COR 0900=
KQAJ 080858Z 32008KT 9999 CLR 39/00 A2973 RMK SLP052 WND DATA
     ESTMD ALSTG/SLP ESTMD 58003=
KQAQ 080855Z 33008G16KT 8000 HZ CLR 44/07 A2965 RMK SLP035 PA +375
     DA +3678 55007=
KQAV NIL=
KQAX NIL=
KQAZ NIL=
KQCO NIL=
KQCT NIL=
KQMA NIL=
KQPA NIL=
KQPB NIL=
KQPC NIL=
KQPD NIL=
KQSE NIL=
KQSL 080855Z 32010G16KT 9999 CLR 43/02 A2968 RMK SLP037 Q1005MB
     57003=
KQTI 080855Z AUTO VRB04KT 9999 FEW180 42/00 A2969 RMK AO2 SLP028
     T04230004 57006 $=
####018000755####
SAJP31 KWBC 080900
METAR
RJAA 080900Z 20006KT 160V230 9999 FEW025 BKN/// 27/22 Q1009
     NOSIG=
RJAH 080900Z 17007KT 150V220 9999 FEW030 SCT270 28/23 Q1008=
RJCC 080900Z 15006KT 2200 -DZ BR BKN002 18/17 Q1009=
RJCH 080900Z VRB01KT 9999 FEW002 SCT050 21/19 Q1009=
RJFK 080900Z 19008KT 150V220 9999 FEW030 BKN/// 27/18 Q1010=
RJFT 080900Z 24005KT 9999 FEW030 BKN040 BKN/// 26/21 Q1009=
RJFU 080900Z 25007KT 9999 FEW025 SCT150 BKN/// 26/23 Q1008=
RJNN NIL=
RJOO 080900Z 22007KT 170V260 9999 FEW030 BKN/// 29/19 Q1007=
RJSS 080900Z 10007KT 9999 FEW015 SCT050 BKN/// 25/21 Q1010=
RJTT 080900Z 18017KT 9999 FEW025 BKN/// 26/22 Q1009=
RODN 080855Z AUTO 18011KT 9999 FEW021 SCT200 29/26 A2981 RMK AO2
     SLP095 T02930259 55000=
####018000701####
SAJP41 KWBC 080900
METAR
RJAF NIL=
RJAI NIL=
RJAK NIL=
RJAM NIL=
RJAO NIL=
RJAT NIL=
RJAW 080900Z 11009KT 9999 FEW015 BKN250 28/25 Q1015 RMK 2CU015
     A2998=
RJBD 080900Z 17006KT 140V200 9999 FEW010 SCT030 BKN/// 26/23
     Q1008=
RJCA NIL=
RJCB 080900Z 14006KT 9999 SCT007 BKN010 19/17 Q1009=
RJCJ NIL=
RJCK 080900Z VRB01KT 0600 R17/P1800N DZ VV001 16/15 Q1009=
RJCM 080900Z 03007KT 9999 FEW003 SCT010 BKN080 17/15 Q1009=
RJCN 080900Z 12004KT 6000 -TSRA FEW001 BKN005 SCT030CB 14/14
     Q1009=
RJCO NIL=
RJCR NIL=
RJCT NIL=
RJCW 080900Z 09009KT 9999 FEW004 BKN006 14/12 Q1009=
RJDB NIL=
RJDC 080900Z 08005KT 8000 FEW030 SCT160 BKN/// 26/22 Q1008=
####018000685####
SAJP42 KWBC 080900
METAR
RJDK NIL=
RJDM NIL=
RJDO NIL=
RJDT 080900Z 03004KT 340V080 9999 FEW008 SCT020 BKN/// 23/21
     Q1009=
RJEB NIL=
RJEC 080900Z 31006KT 280V340 9999 FEW015 BKN035 BKN070 21/18
     Q1009=
RJEO NIL=
RJER NIL=
RJFA NIL=
RJFC NIL=
RJFE NIL=
RJFG 080900Z 22003KT 150V270 9999 FEW060 SCT100 BKN120 24/23
     Q1009=
RJFM 080900Z 15006KT 120V180 6000 FEW020 SCT040 BKN/// 26/23
     Q1008=
RJFN NIL=
RJFO 080900Z VRB02KT 8000 FEW030 SCT100 BKN/// 26/23 Q1008=
RJFR 080900Z 12003KT 9999 FEW030 BKN/// 27/21 Q1008=
RJFY NIL=
RJFZ NIL=
RJKA 080900Z 22008KT 8000 -SHRA FEW008 SCT013 OVC180 27/26
     Q1009=
RJKB NIL=
####018000658####
SAJP43 KWBC 080900
METAR
RJKI NIL=
RJKN NIL=
RJNF NIL=
RJNG NIL=
RJNH NIL=
RJNO NIL=
RJNT 080900Z 36006KT 9999 FEW020 BKN030 BKN/// 28/21 Q1009=
RJNY NIL=
RJOA 080900Z VRB02KT 9999 FEW030CB BKN/// 26/21 Q1010=
RJOB 080900Z 13004KT 9999 FEW035 BKN/// 26/21 Q1009=
RJOC 080900Z 34006KT 9000 FEW010 SCT020 BKN030 25/20 Q1008=
RJOE NIL=
RJOF NIL=
RJOI 080900Z 15005KT 9000 HZ FEW120 BKN230 27/22 A2978 RMK SLP083
     T02720222 53001=
RJOK 080900Z 17004KT 130V200 9999 FEW030 BKN/// 27/23 Q1008=
RJOM 080900Z 26004KT 230V300 9999 FEW025 BKN/// 25/23 Q1008=
RJOP NIL=
RJOR 080900Z 01005KT 8000 FEW025 BKN/// 25/23 Q1008=
####018000588####
SAJP44 KWBC 080900
METAR
RJOS NIL=
RJOT 080900Z VRB01KT 9999 FEW025 SCT080 BKN/// 27/22 Q1008=
RJOY 080900Z 26007KT 230V300 9999 FEW030 BKN/// 30/20 Q1007=
RJOZ NIL=
RJSA 080900Z 28003KT 9999 FEW010 SCT020 FEW035TCU BKN070 23/20
     Q1010=
RJSC 080900Z 36008KT 9999 FEW025 BKN/// 27/20 Q1009=
RJSD NIL=
RJSH NIL=
RJSI 080900Z 25003KT 190V360 9999 FEW020CB BKN/// 28/19 Q1009=
RJSO NIL=
RJST NIL=
RJSU NIL=
RJTA NIL=
RJTC NIL=
RJTE NIL=
RJTF 080900Z NIL=
RJTH 080900Z 23009KT 200V260 9999 -SHRA FEW009 SCT030 BKN045 23/22
     Q1012=
RJTI NIL=
####018000215####
SAJP45 KWBC 080900
METAR
RJTJ NIL=
RJTK NIL=
RJTL NIL=
RJTO NIL=
RJTQ NIL=
RJTR NIL=
RJTU NIL=
RJTX NIL=
RJTY 080855Z AUTO 17008KT 9999 CLR 28/22 A2985 RMK AO2 SLP100
     T02800217 53004 $=
####018000028####
SAKN41 KWBC 080900
NIL=
####018000028####
SAKO41 KWBC 080900
NIL=
####018000530####
SAKO31 KWBC 080900
METAR
RKNY 080900Z 13006KT 9999 SCT012 OVC020 21/18 Q1008 NOSIG=
RKPC 080900Z 07012KT 4500 BR SCT030 BKN150 24/21 Q1008 NOSIG=
RKPK 080900Z 12007KT 9999 SCT030 BKN200 25/17 Q1009 NOSIG=
RKSI 080900Z 25003KT 9999 FEW040 OVC120 24/18 Q1008 TEMPO -RA=
RKSS 080900Z 32003KT 9999 FEW030 OVC120 25/17 Q1008 TEMPO RA=
RKTN 080900Z 24003KT 9000 -TSRA FEW025CB BKN040 OVC200 26/22 Q1007
     NOSIG RMK OCNL LTGCC TS SW MOV SE=
RKTU 080900Z 29004KT 9000 SCT030 SCT100 BKN200 28/19 Q1008
     NOSIG=
####018000195####
SAMM31 KWBC 080900
METAR
LCEN NIL=
LCLK 080900Z 20014KT 9999 FEW025 30/22 Q1008 NOSIG=
LCNC 080900Z NIL=
LCPH 080900Z 20006KT 150V260 9999 FEW030 28/22 Q1009=
LCRA NIL=
LMML NIL=
####018000110####
SAFP20 LFVP 080900
METAR
METAR LFVP 080900Z VRB02KT 9999 SCT003 BKN015 BKN083 11/11 Q1022
NOSIG=
/=
####018000348####
SAPO32 LPMG 080900
METAR LPAZ 080900Z VRB02KT 9999 FEW008 BKN016 BKN030 20/19 Q1024=
METAR LPFL 080900Z 20006KT 9999 FEW023 BKN045 22/17 Q1022=
METAR LPHR 080900Z 21003KT 180V240 9999 FEW016 SCT035 22/19 Q1023=
METAR LPLA 080900Z 00000KT 9999 FEW008 SCT016 BKN028 19/18 Q1024=
METAR LPPD 080900Z 29005KT 9999 FEW017 BKN030 20/15 Q1024=
####018000086####
SANT31 KWBC 080900 CCA
METAR
BGJN 080850Z 36003KT 9999 VCFG FEW200 06/05 Q1010=
####018000941####
SANT31 KWBC 080900
METAR
BGBW 080850Z 27003KT 9999 FEW070 10/05 Q1009 RMK 2AC=
BGCO 080850Z 01013KT 9999 VCSH FEW016 SCT061 BKN110 05/01
     Q1008=
BGGH 080850Z 27003KT 9999 OVC003 04/03 Q1010=
BGJN 080850Z AUTO 36003KT 1000NDV FG VV001/// 06/05 Q1010=
BGKK 080850Z VRB02KT 9999 FEW130 BKN160 07/03 Q1008=
BGSF 080850Z 07007KT 030V100 9999 BKN060 09/02 Q1009=
BGTL 080855Z AUTO 00000KT 0400 FG VV001 04/04 A2984 RMK AO2 SLP111
     T00380037 58001=
BIAR 080900Z 35018KT 9999 BKN020 09/06 Q0994=
BIEG 080900Z 01014KT 2000 VCSH VV003 08/08 Q0990=
BIKF 080900Z 02024KT 9999 FEW017 SCT030 BKN080 11/04 Q0993=
BIRK 080900Z 01023KT 350V180 9999 FEW020 SCT050 10/06 Q0991=
GVAC 080900Z 06008KT 9999 SCT014 BKN016 24/19 Q1013 NOSIG=
GVPR NIL=
LPBJ NIL=
LPLA 080900Z 00000KT 9999 FEW008 SCT016 BKN028 19/18 Q1024=
TXKF 080855Z 16013KT 9999 VCSH SCT013TCU BKN042 BKN170 BKN300
     25/22 Q1018 RMK TCU W-NW=
####018001653####
SAPA31 KWBC 080900
METAR
AGGG NIL=
AGGH NIL=
ANAU NIL=
AYPY NIL=
PGNT NIL=
PGRO 080851Z 10017KT 7SM FEW015 FEW030 28/25 A2988=
PGSN 080854Z 09010KT 10SM FEW025 28/24 A2989 RMK AO2 SLPNO 60000
     T02780244 53012=
PGUA 080855Z AUTO 09013KT 10SM SCT017 27/ A2989 RMK AO2 SCT V BKN
     SLP102 T0273 53009 VISNO RWY24L $=
PGUM 080854Z 09010KT 10SM FEW021 SCT027 SCT041 28/24 A2988 RMK AO2
     SLP110 T02830244 53010=
PGWT 080852Z 10007KT 7SM FEW015 FEW040 SCT100 25/24 A2988=
PHJH NIL=
PHJR 080853Z 06003KT 10SM FEW055 23/18 A3006 RMK AO2 SLP184
     T02330183 53009=
PHMK 080854Z AUTO 05007G17KT 10SM FEW025 SCT039 23/19 A3006 RMK
     AO2 SLP180 T02280189 52009 TSNO=
PJON NIL=
PKMJ NIL=
PKMR 080854Z 08011KT 15SM SCT014 BKN045 BKN120 OVC300 27/24 A2981
     RMK SHRAE34 SLP098 60027 8/878 T02660240 52019=
PKWA 080900Z AUTO 11012KT 3SM RA SCT006 BKN017 OVC046 25/23 A2986
     RMK AO2 P0021 T02520234=
PLCH NIL=
PMDY 080856Z AUTO 00000KT 10SM CLR 25/20 A3012 RMK AO2 TSNO 51006
     T02500200 SLP506=
PTKK 080858Z VRB03KT 15SM FEW012 BKN120 OVC280 25/23 A2983 RMK
     SLP101 60002 8/121 T02500229 53005=
PTKR 080853Z 06003KT 15SM FEW018CB SCT120 OVC300 28/23 A2982 RMK
     CB DSNT NW-NE SLP097 8/378 T02820230 53007=
PTPN NIL=
PTRO 080851Z 00000KT 14SM FEW009 SCT016TCU BKN120 BKN300 27/24
     A2985 RMK TCU VC ALQDS=
PTSA NIL=
PTTP 080855Z 19003KT 15SM FEW018 SCT300 26/24 A2986 RMK SLP111
     8/101 T02580242 52017=
PTYA 080853Z 05008KT 12SM FEW016CB SCT030 BKN130 OVC300 27/23
     A2983 RMK CB VC SE AND W SLP103 60001 8/377 T02670232
     53008=
PWAK NIL=
####018000382####
SAPH31 KWBC 080900
METAR
RPLB NIL=
RPLC NIL=
RPLL 080900Z 13004KT 9999 FEW023CB FEW025 BKN300 33/25 Q1008 NOSIG
     RMK CB SSW A2977=
RPMC NIL=
RPMD NIL=
RPMK NIL=
RPML NIL=
RPMM NIL=
RPMT NIL=
RPMZ 080900Z 16004KT 9999 FEW018CB SCT350 32/26 Q1009 CB N=
RPUW NIL=
RPVM 080900Z 06004KT 9999 FEW018CB OVC250 31/26 Q1008 A2978 CB
     SSE=
RPWD NIL=
####018000527####
SAPO31 KWBC 080900
METAR
LPAZ NIL=
LPBJ NIL=
LPFL NIL=
LPFR 080900Z 25004KT 180V300 9000 SCT009 BKN011 23/20 Q1016=
LPHR NIL=
LPLA 080900Z 00000KT 9999 FEW008 SCT016 BKN028 19/18 Q1024=
LPMA 080900Z 16004KT 110V250 9999 FEW016 23/18 Q1020 RS13001KT
     0512002KT 2321003KT=
LPMR NIL=
LPMT NIL=
LPOV NIL=
LPPD NIL=
LPPR 080900Z VRB03KT 5000 BR SCT250 24/19 Q1013=
LPPS 080900Z 03009KT 9999 FEW016 SCT030 21/15 Q1020=
LPPT 080900Z VRB03KT 8000 FEW120 26/18 Q1015 NOSIG=
LPST NIL=
LPTN NIL=
####018001647####
SAUS31 KWBC 080900
METAR
KABQ 080856Z 08012KT 10SM BKN130 BKN200 20/09 A3025=
KATL 080852Z 00000KT 10SM CLR 24/19 A3004=
KBGR 080853Z 19006KT 3SM BR OVC003 20/19 A3007=
KBHM 080853Z 00000KT 9SM CLR 24/22 A3005=
KBNA 080853Z 00000KT 10SM BKN085 25/22 A3007=
KBOS 080854Z 15005KT 10SM BKN019 23/19 A3006=
KBWI 080854Z 06003KT 6SM HZ SCT080 SCT200 27/22 A2999=
KCHS 080856Z 29007KT 9SM CLR 24/19 A2996=
KCLE 080851Z 00000KT 8SM CLR 22/18 A3008=
KCLT 080852Z 35003KT 10SM CLR 21/17 A3000=
KCVG 080852Z 00000KT 6SM HZ CLR 23/19 A3007=
KDEN 080853Z 16005KT 4SM BR BKN024 BKN100 14/14 A3032=
KDFW 080853Z 15005KT 10SM SCT019 SCT090 BKN220 26/23 A2998=
KDTW 080853Z 22004KT 5SM HZ FEW150 24/21 A3003=
KEWR 080851Z 00000KT 6SM BR BKN110 BKN250 26/24 A3001=
KFLL 080853Z 07006KT 10SM FEW020 28/24 A2991=
KIAD 080852Z 02005KT 7SM FEW100 27/19 A2999=
KIAH 080853Z 05006KT 8SM FEW020 SCT035 BKN130 26/24 A2993=
KIND 080854Z 18003KT 9SM BKN085 OVC110 26/20 A3003=
KJAX 080856Z 00000KT 9SM CLR 19/19 A2999=
KJFK 080851Z 00000KT 4SM BR SCT006 BKN090 BKN130 25/23 A3002=
KLAS 080856Z 22010KT 10SM CLR 29/M05 A2980=
KLAX 080853Z 24007KT 10SM OVC012 16/13 A2991=
KLGA 080851Z 12004KT 6SM HZ SCT110 BKN250 27/22 A3001=
KLGC 080855Z AUTO 9SM CLR 21/ A3002=
KLIT 080853Z 00000KT 7SM CLR BKN150 24/23 A3005=
KLOU 080853Z AUTO 00000KT 6SM HZ CLR 24/21 A3005=
KMCI 080853Z 28003KT 10SM FEW041 BKN130 23/22 A3006=
KMCO 080853Z 36003KT 10SM FEW120 22/21 A2999=
KMEM 080853Z 00000KT 10SM FEW250 25/22 A3006=
KMIA 080853Z 03004KT 10SM FEW030 SCT250 28/24 A2992=
KMSP 080853Z 29003KT 10SM FEW090 18/17 A3007=
####018001060####
SARA31 KWBC 080900
METAR
UAAA NIL=
UACC NIL=
UAFM NIL=
UAFO NIL=
UAFP NIL=
UAOO NIL=
UARR NIL=
UATE NIL=
UATG NIL=
UATT NIL=
UBBB 080900Z 34022KT CAVOK 31/28 Q1011 NOSIG RMK R88CLRD70=
UBBG 080900Z 07006KT 9999 SCT083 34/17 Q1011 NOSIG RMK
     R30R/CLRD70=
UBEE NIL=
UEEE NIL=
UGEE NIL=
UGEL NIL=
UGGG NIL=
UGGN NIL=
UGMM NIL=
UGSS NIL=
UHHH NIL=
UHMA NIL=
UHMD NIL=
UHME NIL=
UHML NIL=
UHMM NIL=
UHMO NIL=
UHMP NIL=
UHPP NIL=
UHSS NIL=
UHWW NIL=
UIAA NIL=
UIBB NIL=
UIII NIL=
UIUU NIL=
ULAA NIL=
UMBB NIL=
UMGG NIL=
UMII NIL=
UMMG NIL=
UMMM NIL=
UMMS NIL=
UNAA NIL=
UNNN NIL=
UNNT NIL=
USNN NIL=
UTAA NIL=
UTAK NIL=
UTAT NIL=
UTAV NIL=
UTDD NIL=
UTDL NIL=
UTEE NIL=
UTKA NIL=
UTKF NIL=
UTKK NIL=
UTNK NIL=
UTNN NIL=
UTNR NIL=
UTNU NIL=
UTSA NIL=
UTSB NIL=
UTSD NIL=
UTSK NIL=
UTSS NIL=
UTST NIL=
UTTA NIL=
UTTR NIL=
UTTT 080900Z 29003MPS 230V360 CAVOK 38/08 Q1010 R08R/CLRD70
     NOSIG=
UTTW NIL=
UUEE NIL=
####018000028####
SARS31 KWBC 080900
NIL=
####018000028####
SARS32 KWBC 080900
NIL=
####018000028####
SARS33 KWBC 080900
NIL=
####018000028####
SARS41 KWBC 080900
NIL=
####018001076####
SASA31 KWBC 080900
METAR
SEGU NIL=
SEQU NIL=
SKBO 080900Z 00000KT 6000 HZ BKN012 12/11 A3028 NOSIG=
SKBO 080900Z 0000KT 6000 HZ BKN012 12/11 A3028 NOSIG=
SKBQ 080900Z 15004KT 3000 BR SCT002 25/25 A2987 RMK APRSM=
SKLT NIL=
SKRG 080900Z 00000KT 6000 BKN007 BKN080 14/14 A3025 RMK HZ=
SKSP NIL=
SMNI NIL=
SMZO NIL=
SMZY NIL=
SOCA 080900Z 00000KT 9999 FEW011 SCT026 BKN040 25/24 Q1012
     NOSIG=
SPIM 080900Z VRB02KT 6000 OVC022 16/14 Q1013 NOSIG RMK PP000=
SPQT 080900Z ///// 9999 VCFG SKC 24/23 Q1010 TEMPO BR RMK
     PP000=
SPQU 080900Z 00000KT CAVOK 06/M09 Q1024 RMK PP000=
SPSO 080900Z 00000KT 8000 SCT014 12/10 Q1013 RMK PP000=
SPTN 080900Z 00000KT 8000 SCT007 OVC012 11/09 Q1014 RMK PP000=
SPYL NIL=
SPZO 080900Z 00000KT 9999 SKC 05/01 Q1031 RMK PP000=
SVBC NIL=
SVMC 080900Z NIL=
SVMG 080900Z 09009KT 9999 FEW010 26/25 Q1012 NOSIG=
SVMI 080900Z 02002KT 9999 FEW016 SCT100 25/23 Q1013 NOSIG=
SYCJ 080900Z 00000KT 9000 SCT016 23/23 Q1011=
SYCJ 080900Z 00000KT 9000 SCT016 23/23 Q1016 TEMPO 4000 VCFG=
SYTM NIL=
####018000143####
SASA31 KWBC 080900 CCA
METAR
SKCG 080900Z VRB02KT 9999 FEW012 BKN070 26/25 A2987=
SKCL 080900Z 00000KT 9999 FEW025 BKN090 20/19 A2999=
####018000998####
SAUS31 KWBC 080900 RRA
METAR
KMSY 080853Z 00000KT 10SM FEW016 SCT250 27/23 A3000=
KOAK 080853Z 29009KT 10SM OVC011 15/11 A2994=
KOKC 080852Z 33005KT 10SM SCT027 BKN050 BKN150 23/22 A3004=
KONT 080853Z 24004KT 6SM BR OVC010 15/13 A2990=
KORD 080851Z 00000KT 10SM FEW038 BKN080 OVC100 23/22 A3002=
KORF 080851Z 09003KT 6SM BR CLR 26/24 A2995=
KPBI 080853Z 06004KT 10SM SCT023 BKN035 BKN250 28/24 A2992=
KPHF 080854Z 09004KT 4SM BR SCT080 25/24 A2996=
KPHL 080854Z 00000KT 6SM HZ SCT180 25/22 A3001=
KPHX 080851Z 32008KT 10SM CLR 34/00 A2975=
KPIT 080851Z 00000KT 7SM CLR 22/18 A3008=
KRDU 080851Z 05003KT 6SM HZ FEW090 23/18 A2996=
KSAN 080851Z 32006KT 9SM FEW010 OVC015 16/14 A2991=
KSEA 080853Z 36007KT 10SM CLR 20/11 A2996=
KSFO 080856Z 27012KT 10SM BKN008 OVC016 14/11 A2993=
KSTL 080851Z 25004KT 9SM FEW022 SCT046 SCT090 BKN150 BKN250 26/23
     A3003=
KSWF NIL=
KTEB 080851Z 00000KT 5SM HZ CLR 26/22 A3000=
KTPA 080853Z 00000KT 10SM CLR 24/21 A2998=
####018000895####
SASA32 KWBC 080900
METAR
SCAR 080900Z 26001KT 9999 OVC023 15/09 Q1016=
SCBA 080900Z AUTO 27009KT CAVOK M01/M03 Q0999=
SCCF NIL=
SCCH NIL=
SCCI 080900Z 35010KT 9999 SCT025 M03/M05 Q0987 NOSIG=
SCDA 080900Z 01009KT 9999 OVC026 15/08 Q1017=
SCEL 080900Z 00000KT 4000 BR BKN130 03/01 Q1021 NOSIG=
SCFA 080900Z 08005KT 9999 OVC015 12/08 Q1015=
SCGE NIL=
SCIE 080900Z 31011KT 5000 -SHRA BKN005 OVC020 13/11 Q1019=
SCIP 080900Z 03002KT 7000 -SHRA SCT012 OVC020 18/17 Q1024 TEMPO
     5000 -SHRA=
SCTE 080900Z 30008KT 6000 VCSH BKN030 09/07 Q1007 NOSIG=
SGAS 080900Z 16007KT 9999 BKN010 OVC017 17/15 Q1015=
SGES 080900Z 17004KT CAVOK 16/15 Q1015=
SLCB NIL=
SLCZ NIL=
SLLP NIL=
SLTJ NIL=
SLTR NIL=
SLVR NIL=
SUAA NIL=
SUCA NIL=
SULS 080900Z 29009KT CAVOK 08/04 Q1016=
SUMU 080900Z 33006KT CAVOK 04/03 Q1017 NOSIG=
SUPE NIL=
SURV NIL=
SUSO NIL=
####018000169####
SASA41 KWBC 080900
METAR
SEMT NIL=
SEPA NIL=
SKBG NIL=
SKMD NIL=
SKPE NIL=
SKSM NIL=
SKVG NIL=
SMJP 080900Z 00000KT 9999 FEW018CB 23/23 Q1012 NOSIG=
####018000081####
SASA32 KWBC 080900 CCA
METAR
SCDA 080900Z 01009KT 9999 OVC026 14/08 Q1017=
####018000224####
SASA42 KWBC 080900
METAR
SCAC NIL=
SCHA NIL=
SCSE NIL=
SCTC 080900Z 34007KT 280V020 9999 SCT015 OVC025 11/10 Q1013
     RERA=
SCTI NIL=
SCVD NIL=
SELT NIL=
SUAG NIL=
SUDU NIL=
SUPU NIL=
SUTB NIL=
####018000028####
SASD41 KWBC 080900
NIL=
####018000028####
SASD42 KWBC 080900
NIL=
####018000311####
SASD43 KWBC 080900
METAR
OEMK NIL=
OEML NIL=
OEMU NIL=
OENG NIL=
OEOA NIL=
OEOF NIL=
OEOH NIL=
OEOS NIL=
OEOT NIL=
OEPA NIL=
OERC NIL=
OERF NIL=
OERG NIL=
OERL NIL=
OERR NIL=
OERX NIL=
OERY 080900Z 04018KT 5000 SA NSC 43/01 Q1008 NOSIG=
OESH NIL=
OESK NIL=
OESM NIL=
####018000028####
SASD44 KWBC 080900
NIL=
####018001511####
SASP31 KWBC 080900
METAR
LEAL 080900Z 08003KT 050V130 CAVOK 30/15 Q1019 NOSIG=
LEAM 080900Z 10015KT CAVOK 34/07 Q1017=
LEAS 080900Z VRB02KT 9999 4000S SCT002 SCT008 BKN013 20/19 Q1017
     TEMPO 4000 TSRA SCT025CB=
LEBB 080900Z VRB01KT 8000 NSC 27/21 Q1015 NOSIG=
LEBL 080900Z 20014KT CAVOK 27/21 Q1019 NOSIG=
LECO 080900Z VRB01KT 8000 FEW002 SCT010 20/20 Q1015 RERA=
LEGE 080900Z VRB02KT CAVOK 30/20 Q1019=
LEGR 080900Z 10003KT 060V120 9999 FEW060 30/15 Q1018=
LEIB 080900Z 07009KT 030V110 CAVOK 28/22 Q1019 NOSIG=
LEJR 080900Z VRB02KT CAVOK 25/19 Q1016=
LELC 080900Z 04010KT 010V100 CAVOK 29/12 Q1019 NOSIG=
LELL 080900Z 25003KT 160V330 CAVOK 29/13 Q1019=
LEMD 080900Z 07006KT 020V120 CAVOK 28/13 Q1019 NOSIG=
LEMG 080900Z 18001KT 9999 FEW030 30/15 Q1016 NOSIG=
LEMH 080900Z 20006KT 170V250 CAVOK 28/21 Q1020=
LEPA 080900Z VRB02KT CAVOK 30/10 Q1020 NOSIG=
LEPP 080900Z 27001KT 9999 FEW060 29/15 Q1019=
LERS 080900Z 18005KT 110V220 CAVOK 27/19 Q1019=
LESO 080900Z 02005KT 340V070 CAVOK 24/19 Q1015=
LEST 080900Z 10008KT 070V130 9999 FEW018 18/17 Q1016 NOSIG=
LETO 080900Z 05008KT 020V080 9999 FEW040 29/11 Q1019 NOSIG=
LEVC 080900Z 07003KT 330V130 CAVOK 29/19 Q1019 NOSIG=
LEVD 080900Z 16006KT 100V210 CAVOK 29/11 Q1019=
LEVS 080900Z 01004KT 300V080 CAVOK 28/13 Q1019=
LEVT 080900Z NIL=
LEVX 080900Z VRB02KT CAVOK 24/21 Q1014=
LEXJ 080900Z 26004KT 220V340 6000 SCT015 SCT020 24/20 Q1016=
LEZG 080900Z 09008KT CAVOK 29/17 Q1019=
LEZL 080900Z NIL=
####018000028####
SATN41 KWBC 080900
NIL=
####018000589####
SATS31 KWBC 080900
METAR
DTMB 080900Z 01008KT CAVOK 27/17 Q1019 NOSIG=
DTTA 080900Z 29005KT 230V010 9999 FEW026 29/16 Q1019 NOSIG=
DTTB 080900Z 31010KT 9999 FEW020 28/18 Q1020=
DTTD 080900Z 12004KT CAVOK 26/17 Q1021=
DTTG 080900Z 09012KT CAVOK 29/15 Q1019 NOSIG=
DTTJ 080900Z 10004KT CAVOK 29/22 Q1019 NOSIG=
DTTK 080900Z 36004KT CAVOK 30/16 Q1019=
DTTL 080900Z 28006KT CAVOK 28/19 Q1019=
DTTN 080900Z 17004KT CAVOK 30/16 Q1019=
DTTR 080900Z 09012KT CAVOK 29/12 Q1020=
DTTX 080900Z 07004KT CAVOK 29/19 Q1019 NOSIG=
DTTZ 080900Z 10012KT CAVOK 31/22 Q1019 NOSIG=
####018001403####
SAUR31 KWBC 080900
METAR
UKBB 080900Z 31003MPS 250V350 9999 BKN023 24/18 Q1014 88CLRD95
     NOSIG=
UKCC 080900Z VRB01MPS CAVOK 28/17 Q1015 08090070 NOSIG=
UKCW 080900Z VRB01MPS 9999 BKN040 29/15 Q1014 2709//70 NOSIG=
UKDD 080900Z VRB01MPS 9999 BKN033CB 28/19 Q1014 08090070 TEMPO
     VRB10G15MPS -TSRA SQ BKN020CB=
UKDE 080900Z 24003MPS 170V320 9999 SCT050 28/17 Q1014 20CLRD70
     NOSIG=
UKDR 080900Z VRB02MPS 9999 BKN033 OVC200 27/19 Q1013 1809//70
     NOSIG=
UKFF 080900Z 09002MPS 340V140 9999 FEW040 27/17 Q1013 19010070
     NOSIG=
UKHH 080900Z 21003MPS 150V260 9999 BKN040 BKN200 28/16 Q1014
     080///65 NOSIG=
UKKE NIL=
UKKK 080900Z 26002MPS 210V350 9999 BKN019 22/18 Q1015 26CLRD70
     NOSIG=
UKKM 080900Z 30002MPS 9000 BKN030 23/18 Q1014 33CLRD70 NOSIG=
UKLI 080900Z 29002MPS 250V320 9999 -SHRA BKN012CB BKN021 15/14
     Q1020 28290565 NOSIG=
UKLL 080900Z 31004MPS 260V020 9999 OVC040 17/12 Q1020 31210365
     NOSIG=
UKLN 080900Z 29005MPS 250V350 9999 BKN012 BKN033CB 15/14 Q1019
     3309//70 TEMPO 1000 TSRA BKN003 BKN020CB=
UKLR 080900Z 29004MPS 270V340 9999 BKN023 BKN100 20/15 Q1018
     30090070 NOSIG=
UKLT NIL=
UKLU 080900Z 36006MPS 9999 SCT040 21/10 Q1020 10290060 NOSIG=
UKON 080900Z 33003MPS 260V010 9999 FEW033 OVC200 26/19 Q1013
     05090075 NOSIG=
UKOO 080900Z 36004MPS CAVOK 25/16 Q1014 34090070 NOSIG=
####018000028####
SAVN42 KWBC 080900
NIL=
####018001755####
SAXX61 KWBC 080900
METAR
EDAD NIL=
EDAH 080850Z 15006KT 120V180 CAVOK 21/11 Q1022=
EDAR NIL=
EDAS NIL=
EDDS 080850Z 14004KT CAVOK 24/09 Q1022 NOSIG=
EDEB NIL=
EDEH NIL=
EDEU NIL=
EDIC NIL=
EDID NIL=
EDIE NIL=
EDIH NIL=
EDIK NIL=
EDMA 080850Z 13008KT 100V160 CAVOK 22/09 Q1023=
EGPK 080850Z 22015KT 9999 SCT025 16/10 Q1013=
EGUA NIL=
EGUL 080855Z AUTO 26007KT 9999 OVC026 18/15 A3007 RMK AO2 DZE0823
     SLP183 P0000 60000 T01780150 51011=
EGUN 080855Z AUTO 29007KT 9999 SCT008 SCT013 BKN020 OVC027 18/18
     A3007 RMK AO2 RAB0751E0801 CIG 017V024 SLP173 P0000 60001
     T01760176 51010=
EGVA 080855Z AUTO 26004KT 9999 FEW170 17/13 A3008 RMK AO2
     RAB0839E0853DZB0853E0855 CLDS LWR RWY27 SLP184 P0000 60000
     T01650130 50002=
EGVJ NIL=
EGWZ NIL=
ETAD 080855Z AUTO 00000KT 9999 CLR 26/09 A3017 RMK AO2 SLP199
     T02620088 53001 $=
ETAR 080855Z AUTO 05003KT 9999 CLR 25/14 A3014 RMK AO2 SLP200
     T02540145 58002 $=
KQHT 080855Z 32007G13KT 9999 SCT150 34/M10 A2993 RMK SLP096 WND
     DATA ESTMD ALSTG/SLP ESTMD 58010=
KQIR 080855Z COR 06010KT 8000 HZ CLR 41/26 A2953 RMK AO2 SLP997
     T04090258 58011 COR 0902=
KQIR 080855Z AUTO 06010KT 9999 FEW070 SCT100 BKN120 BKN140 OVC170
     41/26 A2953 RMK AO2 CIG 090 RWY16 SLP997 T04090258 58011=
KQJL NIL=
KQUZ NIL=
LEMO 080900Z 27004KT 240V340 9999 FEW050 26/19 Q1016 NOSIG=
LERT 080900Z 30007KT 260V320 9000 NSC 24/20 Q1016 NOSIG=
LICZ NIL=
LIRN 080850Z 05009KT CAVOK 26/14 Q1018=
LIYW 080855Z AUTO 21007KT 9999 OVC060 24/13 A3021 RMK AO2 SLP228
     T02420131 51005=
LPLA 080900Z 00000KT 9999 FEW008 SCT016 BKN028 19/18 Q1024=
LTAC 080850Z 03012KT 360V080 9999 SCT040 26/15 Q1013 NOSIG=
LTAG NIL=
####018001217####
SAXX62 KWBC 080900
METAR
FJDG NIL=
FUDG NIL=
PHBK 080856Z AUTO 00000KT 10SM OVC075 26/18 A3003 RMK AO2 SLP172
     T02560178 51012 TSNO $=
PHHI 080855Z AUTO 04005KT 8SM -RA SCT036 BKN048 BKN060 22/19 A3007
     RMK AO2 RAB0847 SLP171 P0001 60001 T02180185 52009=
PHNG 080857Z 07007G14KT 10SM SCT026 BKN040 24/21 A3006 RMK AO2
     SLP174 T02440206 52010 $=
PHSF NIL=
PJON NIL=
PKMJ NIL=
PKWA 080900Z AUTO 11012KT 3SM RA SCT006 BKN017 OVC046 25/23 A2986
     RMK AO2 P0021 T02520234=
PMDY 080856Z AUTO 00000KT 10SM CLR 25/20 A3012 RMK AO2 TSNO 51006
     T02500200 SLP506=
PTSA NIL=
PWAK NIL=
RJOI 080900Z 15005KT 9000 HZ FEW120 BKN230 27/22 A2978 RMK SLP083
     T02720222 53001=
RJTA NIL=
RJTX NIL=
RJTY 080855Z AUTO 17008KT 9999 CLR 28/22 A2985 RMK AO2 SLP100
     T02800217 53004 $=
RKJJ NIL=
RKJK NIL=
RKNC NIL=
RKPK 080900Z 12007KT 9999 SCT030 BKN200 25/17 Q1009 NOSIG=
RKSB NIL=
RKSG NIL=
RKSK NIL=
RKSM NIL=
RKSO 080855Z AUTO 00000KT 9999 CLR 26/24 A2975 RMK AO2 SLP075
     T02610242 58005 $=
RKST NIL=
RKSY NIL=
RKTG NIL=
RKTH NIL=
RODN 080855Z AUTO 18011KT 9999 FEW021 SCT200 29/26 A2981 RMK AO2
     SLP095 T02930259 55000=
####018003746####
SAXX99 KWBC 080900
METAR
A29E NIL=
ANYN NIL=
APCL NIL=
ARND NIL=
ASSW NIL=
AT20 NIL=
ATAR NIL=
AVOK NIL=
AYMO NIL=
AZNZ NIL=
BAJO NIL=
BGAA 080855Z NIL=
BGMQ 080850Z AUTO 12005KT 090V150 1000NDV BR OVC002/// 05/04
     Q1009=
BGQQ 080850Z AUTO 15004KT 120V180 4300NDV BR ///003/// 04/// Q1011
     RMK ///=
BGSS 080850Z 17003KT 0400 FG VV001 04/04 Q1009=
BGUK 080850Z AUTO 13001KT 9999NDV NCD 06/03 Q1010=
BGUQ 080855Z NIL=
BH31 NIL=
BKPR 080900Z 36013KT 9999 SCT040 BKN070 16/10 Q1020 NOSIG RMK
     BLU=
BOVE NIL=
CHEC NIL=
CI41 NIL=
CMBB NIL=
CMBR NIL=
CMCT NIL=
CMCW NIL=
CMFM NIL=
CMGB NIL=
CMHN NIL=
CMHW NIL=
CMLA NIL=
CMPD NIL=
CMPL NIL=
CMRI NIL=
CMRU NIL=
CMRY NIL=
CMSB NIL=
CMSC NIL=
CMSX NIL=
CMYT NIL=
CPBT NIL=
CPEH NIL=
CPFI NIL=
CPIR NIL=
CPRO NIL=
CPRY NIL=
CPST NIL=
CPSV NIL=
CPXL NIL=
CQCM NIL=
CTAE NIL=
CTAL NIL=
CTCK NIL=
CTCW NIL=
CTWN NIL=
CWAE NIL=
CWBU NIL=
CWCA NIL=
CWCL NIL=
CWDL NIL=
CWEU NIL=
CWFD NIL=
CWGZ NIL=
CWHN NIL=
CWIK NIL=
CWIL NIL=
CWKM NIL=
CWKW NIL=
CWLI NIL=
CWLX NIL=
CWLY NIL=
CWMT NIL=
CWOB NIL=
CWRH NIL=
CWRX NIL=
CWSA NIL=
CWSW NIL=
CWTU NIL=
CWUP NIL=
CWUW NIL=
CWVD NIL=
CWVH NIL=
CWWU NIL=
CWXR NIL=
CWYK NIL=
CWYM NIL=
CWZZ NIL=
CXAK NIL=
CXDB NIL=
CXFM NIL=
CXHD NIL=
CXHP NIL=
CXMG NIL=
CXMO NIL=
CXOL NIL=
CXPL NIL=
CXSC NIL=
CXSL NIL=
CXSP NIL=
CXTH NIL=
CXVM NIL=
CXVW NIL=
CYAH NIL=
CYAM NIL=
CYAS NIL=
CYAY NIL=
CYAZ NIL=
CYBB NIL=
CYBC NIL=
CYBD NIL=
CYBK NIL=
CYBL NIL=
CYBN NIL=
CYBR NIL=
CYBU NIL=
CYBV NIL=
CYBW NIL=
CYBX NIL=
CYCB NIL=
CYCD NIL=
CYCG NIL=
CYCO NIL=
CYCP NIL=
CYCQ NIL=
CYCS NIL=
CYCX NIL=
CYCY NIL=
CYDA NIL=
CYDB NIL=
CYDC NIL=
CYDF NIL=
CYDN NIL=
CYDP NIL=
CYED NIL=
CYEK NIL=
CYEL NIL=
CYEN NIL=
CYET NIL=
CYEV NIL=
CYFO NIL=
CYFR NIL=
CYFS NIL=
CYGE NIL=
CYGH NIL=
CYGK NIL=
CYGP NIL=
CYGQ NIL=
CYGR NIL=
CYGT NIL=
CYGV NIL=
CYGW NIL=
CYGX NIL=
CYHA NIL=
CYHD NIL=
CYHE NIL=
CYHH NIL=
CYHI NIL=
CYHK NIL=
CYHM NIL=
CYHU NIL=
CYHY NIL=
CYIK NIL=
CYIO NIL=
CYIV NIL=
CYJF NIL=
CYKA NIL=
CYKD NIL=
CYKF NIL=
CYKG NIL=
CYKJ NIL=
CYKO NIL=
CYKQ NIL=
CYKY NIL=
CYKZ NIL=
CYLD NIL=
CYLJ NIL=
CYLK NIL=
CYLL NIL=
CYLT NIL=
CYLU NIL=
CYLW NIL=
CYMA NIL=
CYMJ NIL=
CYMM NIL=
CYMO NIL=
CYMT NIL=
CYMU NIL=
CYNA NIL=
CYNC NIL=
CYND NIL=
CYNE NIL=
CYNM NIL=
CYOA NIL=
CYOC NIL=
CYOD NIL=
CYOJ NIL=
CYOY NIL=
CYPA NIL=
CYPC NIL=
CYPE NIL=
CYPG NIL=
CYPH NIL=
CYPQ NIL=
CYPR NIL=
CYPW NIL=
CYPX NIL=
CYPY NIL=
CYQA NIL=
CYQD NIL=
CYQF NIL=
CYQH NIL=
CYQI NIL=
CYQK NIL=
CYQL NIL=
CYQR NIL=
CYQT NIL=
CYQU NIL=
CYQV NIL=
CYQW NIL=
CYQZ NIL=
CYRA NIL=
CYRJ NIL=
CYRL NIL=
CYRT NIL=
CYRV NIL=
CYSB NIL=
CYSC NIL=
CYSD NIL=
CYSF NIL=
CYSK NIL=
CYSL NIL=
CYSM NIL=
CYSN NIL=
CYSR NIL=
CYSY NIL=
CYTH NIL=
CYTJ NIL=
CYTQ NIL=
CYTS NIL=
CYTZ NIL=
CYUA NIL=
CYUB NIL=
CYUS NIL=
CYUT NIL=
CYUX NIL=
CYVC NIL=
CYVM NIL=
CYVO NIL=
CYVQ NIL=
CYVT NIL=
CYVV NIL=
CYWA NIL=
CYWH NIL=
CYWJ NIL=
CYWL NIL=
CYWO NIL=
CYWY NIL=
CYXC NIL=
CYXD NIL=
CYXE NIL=
CYXH NIL=
CYXJ NIL=
CYXL NIL=
CYXN NIL=
CYXP NIL=
CYXQ NIL=
CYXR NIL=
CYXS NIL=
CYXT NIL=
CYXZ NIL=
CYYB NIL=
CYYD NIL=
CYYE NIL=
CYYF NIL=
CYYG NIL=
CYYH NIL=
CYYL NIL=
CYYN NIL=
CYYU NIL=
CYYY NIL=
CYZE NIL=
CYZG NIL=
CYZH NIL=
CYZP NIL=
CYZR NIL=
####018000084####
SPUS52 KWBC 080906
SPECI
KACT 080903Z 09004KT 10SM SCT014 BKN019 26/23 A2998=
####018003695####
SAXX99 KWBC 080900 RRA
METAR
CYZS NIL=
CYZT NIL=
CYZU NIL=
CYZW NIL=
CZCP NIL=
CZEM NIL=
CZEV NIL=
CZFA NIL=
CZFM NIL=
CZFN NIL=
CZFS NIL=
CZHY NIL=
CZMU NIL=
CZOL NIL=
CZPC NIL=
CZPS NIL=
CZSM NIL=
CZST NIL=
CZUM NIL=
DAAD NIL=
DAAE NIL=
DAAJ NIL=
DAAP NIL=
DAAS NIL=
DAAV NIL=
DAAY NIL=
DABO NIL=
DABT NIL=
DAFH NIL=
DAMR NIL=
DAOB NIL=
DAOF NIL=
DAOL NIL=
DAOR NIL=
DAOV NIL=
DATG NIL=
DATM NIL=
DAUB NIL=
DAUE NIL=
DAUI NIL=
DAUK NIL=
DAUL NIL=
DAUO NIL=
DAUS NIL=
DAUT NIL=
DAUU NIL=
DFFD NIL=
DFOO NIL=
DJ21 NIL=
DNEN NIL=
DNIB NIL=
DRZR NIL=
DTKA 080900Z 32010KT 9999 FEW023 27/20 Q1020 NOSIG=
DTTF 080900Z 17004KT CAVOK 31/15 Q1018 NOSIG=
DTTH NIL=
DUPE NIL=
EATR NIL=
EATZ NIL=
EDAC 080850Z 25004KT CAVOK 23/12 Q1022=
EDDE 080850Z 30001KT CAVOK 24/09 Q1022 NOSIG=
EDFH 080850Z 12007KT 090V160 CAVOK 24/11 Q1022=
EDGS 080850Z 17007KT 130V220 CAVOK 22/09 Q1023=
EDHK NIL=
EDLV 080850Z 21005KT 160V290 CAVOK 28/12 Q1019=
EDOP 080850Z 19007KT 150V220 CAVOK 25/10 Q1021=
EDRZ 080850Z 13006KT 090V160 CAVOK 26/12 Q1021=
EDSB 080850Z 34004KT 260V030 CAVOK 25/13 Q1021=
EDTL 080850Z 23003KT CAVOK 25/13 Q1020=
EEKA 080850Z 32007KT 270V340 CAVOK 20/14 Q1016=
EEKE 080850Z 35008KT 310V010 CAVOK 21/14 Q1016=
EEKE 080850Z NIL=
EEPU 080850Z 33006KT 290V030 CAVOK 22/18 Q1014=
EETU 080850Z 34004KT 210V030 9999 SCT016TCU SCT025 25/20 Q1013=
EFCA NIL=
EFET 080850Z AUTO 17010KT 110V220 CAVOK 19/08 Q1014=
EFHA 080850Z 36002KT 9999 SCT008 BKN070 BKN200 19/17 Q1016=
EFJO 080850Z 04004KT 010V070 CAVOK 23/19 Q1015=
EFKA 080850Z VRB01KT 9999 FEW022 BKN200 22/16 Q1016=
EFKI 080850Z AUTO 32004KT 280V360 CAVOK 20/14 Q1016=
EFKS 080850Z 04002KT 9999 BKN021 16/11 Q1017=
EFKT 080850Z AUTO 16009KT 100V190 9999 SCT040 BKN129 20/10
     Q1015=
EFLP 080850Z 11007KT 040V170 CAVOK 29/16 Q1014=
EFMI 080850Z AUTO 34003KT 9999 FEW037 26/19 Q1014=
EFSA 080850Z 35003KT 9999 FEW025 26/19 Q1014=
EFSI 080850Z AUTO VRB03KT 9999 FEW036 23/14 Q1015=
EFUT 080850Z VRB04KT CAVOK 29/16 Q1014=
EFVR 080855Z NIL=
EGCN 080850Z 23010KT 9999 FEW044 17/11 Q1017=
EGDX 080850Z 22006KT 9999 FEW017 BKN090 18/12 Q1019 BLU=
EGEC 080850Z 21012KT 9999 FEW025 16/10 Q1012=
EGHK 080850Z 15004KT 9999 FEW020 17/15 Q1018 NOSIG=
EGMH 080850Z 26008KT 230V290 9999 FEW014 21/16 Q1019=
EGNO NIL=
EGNR 080850Z 24011KT 9999 FEW020 18/11 Q1017=
EGOM 080850Z 23011KT 9999 SCT016 SCT030 BKN065 14/10 Q1014 WHT=
EGOP 080850Z 22008KT 9999 FEW025 BKN090 18/14 Q1018 BLU=
EGPI 080850Z 21017KT 9999 FEW020 SCT040 15/11 Q1012=
EGQA 080850Z 20015KT 9999 -SHRA FEW018 SCT050 14/// Q1008 BLU=
EGTG 080850Z 25005KT 9999 SCT018 SCT027 17/13 Q1019=
EGUB 080850Z 31004KT 9999 FEW010 OVC030 18/13 Q1018 NOSIG=
EGUB 080850Z NIL=
EGUB 080850Z 31004KT 9999 FEW010 OVC030 18/13 Q1018 BLU NOSIG=
EGUW 080850Z 25009KT 9999 FEW010 BKN014 BKN080 19/15 Q1018 GRN
     TEMPO 4000 -RADZ SCT005 YLO1=
EGUY 080850Z 24009KT 9999 FEW032 SCT120 BKN150 18/10 Q1019 BLU=
EGVN 080850Z 24003KT 9999 -RA FEW023 BKN070 BKN100 17/12 Q1018
     NOSIG=
EGVN 080850Z 24003KT 9999 -RA FEW023 BKN070 BKN100 17/12 Q1018 BLU
     NOSIG=
EGVO 080850Z 33004KT 3700 -DZ OVC003 16/15 Q1019 YLO2 BECMG BKN012
     GRN=
EGVP 080850Z 16002KT 9999 FEW007 BKN027 17/15 Q1018 BLU TEMPO
     SCT012 GRN=
EGWC 080850Z 20006KT 9999 FEW020 BKN090 16/09 Q1019 BLU=
EGWU 080850Z 31005KT 9999 FEW006 SCT012 OVC016 17/15 Q1019 RERA
     REDZ BECMG FEW010 BKN016=
EGWU 080850Z 31005KT 9999 FEW006 SCT012 OVC016 17/15 Q1019 RERA
     REDZ GRN BECMG FEW010 BKN016 WHT=
####018003741####
SAXX99 KWBC 080900 RRB
METAR
EGXC 080850Z 24009KT 9999 -RA FEW025 SCT090 OVC120 17/11 Q1017
     NOSIG=
EGXC 080850Z NIL=
EGXC 080850Z 24009KT 9999 -RA FEW025 SCT090 OVC120 17/11 Q1017 BLU
     NOSIG=
EGXD 080850Z 21006KT 9999 FEW024 BKN110 17/12 Q1016 BLU NOSIG=
EGXE 080850Z 22008KT 9999 FEW025 BKN100 BKN200 17/12 Q1016 BLU
     NOSIG=
EGXG 080850Z 22007KT 9999 FEW025 BKN200 17/10 Q1016 BLU=
EGXJ 080850Z 24009KT 9999 FEW025 BKN100 17/10 Q1017 BLU=
EGXT 080850Z 23011KT 9999 -RA FEW020 BKN090 BKN120 17/10 Q1018
     NOSIG=
EGXT 080850Z NIL=
EGXT 080850Z 23011KT 9999 -RA FEW020 BKN090 BKN120 17/10 Q1018 BLU
     NOSIG=
EGXU 080850Z 24008KT 9999 FEW024 SCT090 BKN130 17/10 Q1016 BLU=
EGXW 080850Z 26009KT CAVOK 17/10 Q1017 BLU NOSIG=
EGXX 080850Z AUTO 22010KT 9999NDV // NCD ///// Q////=
EGXZ 080850Z 21007KT 9999 SCT020 OVC250 17/12 Q1016 WHT=
EGYC NIL=
EGYD 080850Z 24012KT CAVOK 17/10 Q1017 NOSIG=
EGYD 080850Z NIL=
EGYD 080850Z 24012KT CAVOK 17/10 Q1017 BLU NOSIG=
EGYE 080850Z 24008KT 9999 FEW030 BKN080 ///// Q1017 BLU=
EGYH 080850Z 24015KT 9999 FEW030 BKN120 18/// Q1018 BLU=
EGYM 080850Z 26010KT 9999 FEW012 BKN034 BKN120 18/10 Q1018 BLU
     NOSIG=
EGYP NIL=
EGYW NIL=
EKGF 080850Z 21014KT CAVOK 16/16 Q1017=
ENBS 080850Z VRB02KT 9999 FEW002 SCT012 BKN020 12/08 Q1017=
ENDR 080850Z NIL=
ENHE NIL=
ENHK 080850Z 10013KT 9999 FEW035 BKN080 15/08 Q1012=
ENSS 080850Z NIL=
EPLL NIL=
EPWR 080900Z VRB04KT CAVOK 23/10 Q1023=
EQAC NIL=
EQAV NIL=
EQBA NIL=
EQBC NIL=
EQBF NIL=
ERAR NIL=
ESGR 080850Z AUTO 20009KT 9999NDV BKN041/// OVC160/// 20/14
     Q1018=
ESGT 080850Z 23012KT 9999 -RA BKN035 19/13 Q1017=
ESKM 080850Z NIL=
ESMQ 080850Z 17008KT 9999 SCT045 23/13 Q1020=
ESMT 080850Z 18010KT CAVOK 21/14 Q1020=
ESNG 080850Z 15009KT CAVOK 20/09 Q1014=
ESNK 080850Z AUTO 15010KT 9999NDV NCD 21/13 Q1012=
ESNL 080850Z 14012KT 9999 FEW040 OVC079 19/11 Q1013=
ESNX 080850Z AUTO 16013KT 9999NDV BKN070/// 18/11 Q1014=
ESNY 080850Z AUTO 18007KT 150V210 9999 SKC 23/15 Q1014=
ESOE 080850Z NIL=
ESSF 080850Z NIL=
ESSK 080850Z NIL=
ESSL 080850Z 25010KT 220V300 9999 BKN041 22/11 Q1019=
ESTA 080850Z 17011KT CAVOK 20/15 Q1020=
ESTL 080850Z AUTO 19010KT 9999NDV FEW045/// 22/13 Q1020=
ESUD 080850Z NIL=
ESUT 080850Z AUTO 13008KT 9999NDV OVC130/// 18/11 Q1010=
ETER NIL=
ETGG NIL=
ETGY NIL=
ETGZ NIL=
ETHA NIL=
ETHB NIL=
ETHC NIL=
ETHE NIL=
ETHF NIL=
ETHL NIL=
ETHM NIL=
ETHN NIL=
ETHR NIL=
ETHS NIL=
ETME NIL=
ETMN NIL=
ETND NIL=
ETNH NIL=
ETNJ NIL=
ETNL NIL=
ETNN NIL=
ETNP NIL=
ETNS NIL=
ETNT NIL=
ETNU NIL=
ETNW NIL=
ETOU 080855Z AUTO VRB03KT 9999 CLR 25/11 A3016 RMK AO2 SLP208
     T02530113 50002=
ETSA NIL=
ETSB NIL=
ETSE NIL=
ETSH NIL=
ETSI NIL=
ETSL NIL=
ETSN NIL=
ETUO 080850Z 18007KT CAVOK 27/12 Q1020 BLU NOSIG=
ETWM NIL=
EVLA 080850Z 32005KT 280V060 CAVOK 22/16 Q1018=
EVVA 080850Z AUTO 33012KT 300V360 CAVOK 21/17 Q1017=
EW09 NIL=
EW20 NIL=
EYAR NIL=
EYKA 080850Z 29009KT 220V010 CAVOK 17/14 Q1015=
EYPA 080850Z 34006G17KT 280V030 CAVOK 21/15 Q1018 NOSIG=
EYZR NIL=
FAAB NIL=
FAGC 080900Z AUTO 07008KT //// // ////// 13/05 Q1035=
FAJB 080900Z AUTO 07004KT //// // ////// 14/06 Q1035=
FAKD NIL=
FAKM NIL=
FAMM 080900Z 02014KT 9999 FEW040 17/05 Q1033 NOSIG=
FANS NIL=
FAPP 080900Z 10008KT 9999 BKN025 14/08 Q1033 NOSIG=
FAPS NIL=
FARG NIL=
FASI 080900Z AUTO 08007KT //// // ////// 14/04 Q1035=
FASR NIL=
FAVE NIL=
FAVV 080900Z AUTO 05010KT //// // ////// 14/06 Q1033=
FBFG NIL=
FBGH NIL=
FBLT NIL=
FBPA NIL=
FBSN NIL=
FBWD NIL=
FDGZ NIL=
FDWD NIL=
FEFG NIL=
FKYS NIL=
####018003746####
SAXX99 KWBC 080900 RRC
METAR
FMEP 080900Z 12027KT 9999 FEW015 25/16 Q1021=
FMMS NIL=
FMNA NIL=
FMSD NIL=
FMST NIL=
FNBG NIL=
FNCA NIL=
FNCE NIL=
FNCZ NIL=
FNDU NIL=
FNGI NIL=
FNLB NIL=
FNMA NIL=
FNME NIL=
FNMI NIL=
FNMO NIL=
FNMQ NIL=
FNNG NIL=
FNSA NIL=
FNSP NIL=
FNSR NIL=
FNSU NIL=
FNTO NIL=
FNUB NIL=
FNUE NIL=
FNUG NIL=
FNZE NIL=
FOGM NIL=
FOGR NIL=
FOOB NIL=
FOOC NIL=
FOOD NIL=
FOOE NIL=
FOOK NIL=
FOOM NIL=
FOOR NIL=
FOOT NIL=
FOOY NIL=
FQCH NIL=
FQIN NIL=
FQLC 080900Z 16008KT 9999 SCT014 16/09 Q1028=
FQNP NIL=
FQPB NIL=
FQQL 080900Z 16009KT 9999 SCT020 27/19 Q1025=
FQTE NIL=
FQTT NIL=
FQVL NIL=
FQXX NIL=
FTTA NIL=
FTTC NIL=
FTTD NIL=
FVKB 080900Z NIL=
FVWN 080900Z NIL=
FYGO NIL=
FYML NIL=
FYOA 080900Z 08018KT CAVOK 22/03 Q1024=
FYOJ NIL=
FYOW NIL=
FYWE NIL=
FYWW 080900Z 04009KT CAVOK 17/M01 Q1028=
FZAB NIL=
FZOA NIL=
FZOS NIL=
FZRF NIL=
FZSA NIL=
GDAB NIL=
GMAD 080900Z VRB02KT 8000 SCT020 24/18 Q1014=
GMFM 080900Z NIL=
GMMC 080900Z NIL=
GMML 080900Z NIL=
GMMW 080900Z 06008KT CAVOK 27/20 Q1017=
GMMZ 080900Z NIL=
GOIT NIL=
HCMF NIL=
HEAR NIL=
HEAT NIL=
HEIS NIL=
HESH NIL=
HETB NIL=
HKMV NIL=
HLLM NIL=
HTMT NIL=
HTSU NIL=
HUAR NIL=
HUGU NIL=
HUJI NIL=
HUKA NIL=
HUKB NIL=
HULI NIL=
HUMI NIL=
HUS0 NIL=
HUTO NIL=
HWRS NIL=
IKVG NIL=
JP30 NIL=
K4O4 NIL=
K5T6 NIL=
K8S0 NIL=
KARL NIL=
KAUD NIL=
KBFU NIL=
KBIT NIL=
KBRX NIL=
KBVR NIL=
KCBE 080856Z AUTO 00000KT 7SM CLR 21/18 A3010 RMK AO1=
KCHJ NIL=
KCMS NIL=
KCTD NIL=
KDHS NIL=
KDRC NIL=
KEGI 080855Z AUTO 00000KT 2 1/2SM R18/2400V4500FT BR CLR 23/22
     A3002 RMK AO2 VIS 1 1/4V5 SLP165 T02270223 56007 $=
KESN 080900Z AUTO 00000KT 3SM BR CLR 23/23 A3003 RMK AO2=
KFIR NIL=
KFME 080857Z AUTO 00000KT 4SM CLR 20/20 A3002 RMK AO1=
KGYH 080855Z AUTO 00000KT 10SM CLR 23/19 A3001 RMK AO2=
KHLD NIL=
KIDV NIL=
KIKA NIL=
KPAT NIL=
KPIN NIL=
KPUM NIL=
KRIM NIL=
KSGE NIL=
KSHC NIL=
KSIB NIL=
KSKL NIL=
KTMH NIL=
KVDW NIL=
LBGO 080900Z VRB01MPS 9000 RA BKN033 OVC040 15/14 Q1017 NOSIG=
LDLO 080900Z 02009KT CAVOK 26/09 Q1022=
LDSB 080900Z 02012KT CAVOK 20/07 Q1020=
LEAB 080900Z 15012KT CAVOK 30/06 Q1022 NOSIG=
LEBA 080900Z 30003KT 240V350 9999 FEW050 29/14 Q1015=
LEBR NIL=
LEBZ 080900Z 12009KT 080V150 CAVOK 30/15 Q1015=
LEGA NIL=
LEGT 080900Z 05006KT CAVOK 27/12 Q1019=
LELN 080900Z 11004KT 050V140 CAVOK 27/12 Q1020=
LERI 080900Z VRB02KT CAVOK 31/20 Q1019 NOSIG=
LESA 080900Z 00000KT CAVOK 31/16 Q1019=
LETO 080900Z 05008KT 020V080 9999 FEW040 29/11 Q1019 NOSIG=
LFBE NIL=
LFBG 080900Z AUTO 10004KT 060V150 9999NDV NSC 28/16 Q1018=
LFCR 080900Z AUTO 13005KT 080V190 9999NDV NSC 28/11 Q1022=
LFJL 080900Z AUTO VRB03KT 9999NDV NSC 26/10 Q1021=
LFLX 080900Z NIL=
LFMI 080900Z AUTO VRB02KT 9999NDV NSC 31/13 Q1020=
LFMK 080900Z 08014KT CAVOK 29/14 Q1019 NOSIG=
LFMO 080900Z VRB03KT CAVOK 29/16 Q1020=
LFMU 080900Z AUTO 09008KT 050V140 9999NDV NSC 29/13 Q1020=
LFMV 080900Z AUTO VRB03KT 9999NDV NSC 30/17 Q1020=
LFOA 080900Z AUTO 12005KT 080V190 9999NDV NSC 28/12 Q1019=
LFOJ 080900Z VRB02KT CAVOK 28/14 Q1019=
LFOK 080900Z AUTO 21005KT 180V250 9999NDV NSC 27/13 Q1020=
LFQI 080900Z 23006KT 190V320 CAVOK 26/13 Q1019=
LGHI 080850Z 01015KT 9999 FEW020 26/18 Q1011=
LGKC 080850Z NIL=
LGNX 080850Z 36020G30KT 9999 FEW020 26/19 Q1011=
LGPA 080850Z 02020KT CAVOK 28/19 Q1011=
LGPA 080850Z NIL=
LGSO 080850Z 36020KT 9999 FEW018 26/19 Q1012=
LHDC NIL=
LHKE NIL=
LHPP NIL=
LHSA NIL=
LHSN NIL=
LHUD NIL=
LICP NIL=
LIMP NIL=
LIMZ NIL=
LIRM NIL=
####018003715####
SAXX99 KWBC 080900 RRD
METAR
LKCS NIL=
LKCV 080900Z VRB03KT 9999 FEW045 SCT220 21/08 Q1024 NOSIG RMK BLU+
     BLU+=
LKHO NIL=
LKKB NIL=
LKKU NIL=
LKKV 080900Z VRB02KT CAVOK 21/10 Q1024=
LKLB NIL=
LKLN NIL=
LKNA 080900Z 36004KT 360V160 9999 FEW046 19/06 Q1024 NOSIG RMK
     BLU+ BLU+=
LKPD 080900Z 02004KT 300V110 9999 FEW035 22/07 Q1023 NOSIG RMK
     BLU+ BLU+=
LKPO 080900Z VRB02KT 9999 FEW045 20/10 Q1023 NOSIG RMK BLU+
     BLU+=
LLIB 080850Z 15008KT CAVOK 30/16 Q1010=
LLSD 080850Z 25010KT 9999 FEW025 28/21 Q1009=
LOAG NIL=
LOAN NIL=
LOGG NIL=
LOLF NIL=
LOXA NIL=
LOXN NIL=
LOXT 080850Z VRB02KT 50KM FEW050CU 22/11 Q1023 NOSIG RMK FEW=
LOXZ 080850Z VRB02KT 70KM SKC 19/10 Q1024 NOSIG RMK SKC=
LOXZ 080850Z NIL=
LPAR NIL=
LQBK 080900Z 02003KT 9999 FEW036 22/10 Q1022 NOSIG=
LQMO 080900Z 33010KT 9999 FEW045 26/08 Q1018=
LQTZ 080900Z VRB02KT 9999 FEW040 17/// Q1023=
LTAB NIL=
LTAE NIL=
LTAZ 080850Z 07006KT 350V130 CAVOK 30/14 Q1012=
LTBR 080850Z 36009KT 9999 FEW035 SCT100 27/15 Q1011 NOSIG=
LTBU 080850Z 34013KT 9999 SCT030 BKN100 21/10 Q1014=
LTCD NIL=
LTCF 080850Z 06008KT 020V090 CAVOK 28/12 Q1019=
LTFC NIL=
LTFH 080850Z 30008KT 9999 SCT036 BKN100 26/23 Q1011 NOSIG=
LTFJ 080850Z 01018KT 9999 BKN030 23/16 Q1012 NOSIG=
LTFJ 080850Z NIL=
LWIS NIL=
LZKC 080900Z 01009KT 330V080 9999 SCT038 21/11 Q1020=
LZLU 080900Z 21005KT 150V280 9999 FEW045 22/10 Q1021=
LZNI 080900Z 34013KT 300V030 9999 FEW050 23/07 Q1021=
LZPE 080900Z 34005KT 260V100 9999 FEW040 23/09 Q1021=
LZPE 080900Z NIL=
LZPP 080900Z 36009KT 310V050 9999 FEW040 22/11 Q1022=
LZSL 080900Z 12002KT CAVOK 23/09 Q1021=
LZZI 080900Z 06008KT 010V120 9999 FEW050 21/07 Q1023=
MBCH NIL=
MDHE NIL=
METAR UHHH 080900Z 03003MPS 9999 BKN030CB OVC100 18/15 Q1010
     NOSIG=
METR NIL=
MGBP NIL=
MGGG NIL=
MGTK 080900Z 00000KT 9999 FEW012 OVC090 23/23 Q1010 A2983=
MH31 NIL=
MH40 NIL=
MHTR NIL=
MMAN NIL=
MMCB NIL=
MMCP NIL=
MMCT NIL=
MMEP NIL=
MMIA NIL=
MMIO NIL=
MMIT NIL=
MMLM NIL=
MMLO NIL=
MMLT NIL=
MMMV NIL=
MMOX NIL=
MMPA NIL=
MMPB NIL=
MMPG NIL=
MMPN NIL=
MMPS NIL=
MMQT NIL=
MMTB NIL=
MMTG NIL=
MMVA NIL=
MNBL NIL=
MNCH NIL=
MNJG NIL=
MNJU NIL=
MNRS NIL=
MO31 NIL=
MP31 NIL=
MPB0 NIL=
MSLU NIL=
MSSA NIL=
MSSM NIL=
MTAR NIL=
MUCC NIL=
MUCF NIL=
MUHG 080851Z 18004KT 130V220 CAVOK 25/22 Q1015=
MZ40 NIL=
N025 NIL=
N100 NIL=
N240 NIL=
N270 NIL=
NFLB NIL=
NFTL NIL=
NGTT NIL=
NVSC NIL=
NVSL NIL=
NVSS NIL=
NVVA NIL=
NVVW NIL=
OAHR 080855Z 35014KT CAVOK 39/M03 Q1011 RMK SKC VIS MIN 9999
     BLU=
OBBC NIL=
OBBD NIL=
OBBF NIL=
OBBH NIL=
OBBJ NIL=
OBBR NIL=
OEDM NIL=
OEKJ NIL=
OIIE 080900Z 12014KT CAVOK 39/M08 Q1011 A2988 898.8 05:=
OSDZ 080900Z 14006KT CAVOK 36/14 Q1006=
OSIG NIL=
OSKL 080900Z 17008KT CAVOK 39/05 Q1005=
OYAG NIL=
OYAM NIL=
OYAT NIL=
OYDM NIL=
OYHJ NIL=
OYIB NIL=
OYRN NIL=
OYSH NIL=
OYSQ 080900Z 18045G55KT 9999 FEW018 SCT200 32/24 Q1006=
OYSY NIL=
P040 NIL=
P103 NIL=
P154 NIL=
PART NIL=
PCPN NIL=
PESI NIL=
PICE NIL=
PORT NIL=
PRXZ NIL=
RJBB 080900Z 25010KT 9999 FEW030 BKN/// 27/22 Q1007 NOSIG=
RJBH 080900Z 21007KT 9999 FEW030 BKN/// 27/20 Q1007=
RJBT 080900Z 02006KT 9999 SCT020 BKN/// 25/20 Q1009=
RJFS 080900Z 23008KT 9999 FEW035 BKN/// 28/23 Q1007=
RJGG 080900Z 14010KT 9999 FEW015 BKN/// 26/22 Q1008 NOSIG=
RJNW 080900Z 30003KT 260V010 9999 FEW030 SCT/// 25/20 Q1010=
RJOW 080900Z 01003KT 340V050 5000 BR FEW010 SCT015 BKN035 24/21
     Q1009 RETS=
RJSF 080900Z 12004KT 9999 FEW020 SCT030 BKN120 24/20 Q1011=
####018000359####
SAXX99 KWBC 080900 RRF
METAR
YWHA 080900Z AUTO 14001KT 9999NDV // NCD 08/03 Q1024=
YWLM 080900Z 23007KT 9999 SCT020 BKN045 12/12 Q1025 INTER
     0900/1000 SHRA BKN010=
ZBHH NIL=
ZBLA NIL=
ZBSJ NIL=
ZBYC NIL=
ZGHA NIL=
ZGKL NIL=
ZGOW NIL=
ZJHK NIL=
ZLXY NIL=
ZSQD NIL=
ZSTX NIL=
ZWSH NIL=
ZYCC NIL=
ZYMY NIL=
ZYTX NIL=
####018003735####
SAXX99 KWBC 080900 RRE
METAR
RJSR 080900Z 30004KT 270V330 9999 FEW025 SCT/// 24/21 Q1009=
RJSY 080900Z 31004KT 270V350 9999 FEW070 BKN/// 26/21 Q1010=
RKJY NIL=
RKNN NIL=
RKNR NIL=
RKPM NIL=
RKPS NIL=
RKSC NIL=
RKTI NIL=
RKTL NIL=
RKTS NIL=
ROIG 080900Z 19013KT 9999 FEW015 BKN/// 30/26 Q1008=
ROKJ NIL=
ROMY 080900Z 21014KT 9999 FEW015 SCT150 BKN/// 30/26 Q1008=
RORS 080900Z 20010KT 9999 FEW016 BKN/// 30/26 Q1008=
ROTM 080858Z 22013G19KT 9999 SCT020 BKN100 BKN180 27/26 A2982 RMK
     SLP084 T02670261 57003=
ROYN NIL=
RPLI NIL=
RTAR NIL=
RTIR NIL=
RUMS NIL=
SAAJ NIL=
SABO NIL=
SADF NIL=
SADP NIL=
SAMM NIL=
SAMR NIL=
SANC NIL=
SANL NIL=
SAOC NIL=
SAOS NIL=
SAOU NIL=
SAPR NIL=
SAST NIL=
SATR NIL=
SAVE NIL=
SAVV NIL=
SAVY NIL=
SAWH 080900Z 25004KT 9999 FEW040 BKN100 01/M01 Q0985=
SAZR NIL=
SAZY NIL=
SCJO NIL=
SKAR NIL=
SKCC NIL=
SKEJ NIL=
SKIB NIL=
SKIP NIL=
SKLC NIL=
SKMR NIL=
SKMZ NIL=
SKNV NIL=
SKPC NIL=
SKPS NIL=
SKPV NIL=
SKRH NIL=
SKUC NIL=
SKUI NIL=
SKVP NIL=
SKVV NIL=
SLAS NIL=
SLET NIL=
SLGY NIL=
SLJV NIL=
SLSB NIL=
SLSM NIL=
SLTI NIL=
SSSA NIL=
STAC NIL=
SUME NIL=
SVCP NIL=
SVCZ NIL=
SVGD NIL=
SVJM NIL=
SVLO NIL=
SVVG NIL=
SYGO NIL=
T016 NIL=
T020 NIL=
T100 NIL=
TAAR NIL=
TEST NIL=
THIS NIL=
TNNC NIL=
TRPG NIL=
TSRA NIL=
TURE NIL=
TYAR NIL=
TZAR NIL=
UACK NIL=
UBBN 080900Z 14006KT 9999 NSC 36/11 Q1010 R14R/CLRD60 NOSIG RMK
     G/O QFE683=
UDYZ NIL=
UERP NIL=
UERR NIL=
UESO NIL=
UGKO NIL=
UGSB NIL=
UGSP NIL=
UHMG NIL=
UHNN NIL=
UHSH NIL=
ULDD NIL=
ULKK NIL=
ULOL NIL=
ULOO NIL=
ULWW NIL=
UMED NIL=
UMKK NIL=
UMOO NIL=
UNBB NIL=
UNEE NIL=
UNKL NIL=
UNOO NIL=
UNWW NIL=
UOII NIL=
URML NIL=
UTAN NIL=
UTKN NIL=
UTNC NIL=
UTO2 NIL=
UTO4 NIL=
UTO7 NIL=
UTO8 NIL=
UTTP NIL=
UWLL NIL=
UWOR NIL=
V130 NIL=
V150 NIL=
V290 NIL=
VCSH NIL=
VIBR NIL=
VIJP NIL=
VILK NIL=
VTBO NIL=
VTCH NIL=
VTCL NIL=
VTCN NIL=
VTCP NIL=
VTCT NIL=
VTPB NIL=
VTPH NIL=
VTPM NIL=
VTPO NIL=
VTPP NIL=
VTPT NIL=
VTSB NIL=
VTSC NIL=
VTSE NIL=
VTSF NIL=
VTSG NIL=
VTSK NIL=
VTSM NIL=
VTSR NIL=
VTST NIL=
VTUD NIL=
VTUI NIL=
VTUJ NIL=
VTUK NIL=
VTUL NIL=
VTUO NIL=
VTUQ NIL=
VTUU NIL=
VTUV NIL=
VTUW NIL=
W016 NIL=
W020 NIL=
W090 NIL=
W250 NIL=
WADD NIL=
WALL NIL=
WARR NIL=
WBGB NIL=
WBGR NIL=
WBGS NIL=
WBGY NIL=
WBGZ NIL=
WBKL NIL=
WBKS NIL=
WBKT NIL=
WBKW NIL=
WIHH NIL=
WMAU 080900Z 07004KT 9999 FEW020 SCT140 BKN270 30/25 Q////
     QFF1008=
WMBA 080900Z 20006KT 9999 FEW022 BKN280 31/24 Q1008=
WMKA 080900Z 25006KT 9999 FEW020 SCT300 31/26 Q1008=
WMKB 080900Z 29009KT 250V340 9999 FEW020 BKN280 31/25 Q1008
     NOSIG=
WMKC 080900Z 01005KT 9999 FEW017CB BKN250 32/23 Q1007=
WMKD 080900Z 17003KT 9999 FEW017CB BKN280 32/25 Q1007 NOSIG=
WMKI 080900Z 18003KT 9999 FEW020 SCT280 32/26 Q1008=
WMKL 080900Z 25006KT 190V330 9999 FEW020 BKN300 31/26 Q1008=
WMKM 080900Z 23004KT 9999 FEW022 BKN140 31/24 Q1008=
WMKN 080900Z 05005KT 9999 FEW017CB SCT018 BKN250 31/26 Q1007=
WTAR NIL=
XX39 NIL=
XX99 NIL=
YAMB NIL=
YBHM NIL=
YCIN NIL=
YFRT NIL=
YMAV NIL=
YMLT NIL=
YPGV NIL=
YPKG NIL=
YPKU NIL=
YSTW 080900Z AUTO 15008KT 9999NDV // NCD 10/06 Q1024=
YSWG 080900Z AUTO 15005KT 9999NDV // NCD 06/04 Q1026=
YTEF 080900Z AUTO 03010KT //// // ////// 22/15 Q1011=
YTNK 080900Z AUTO 11004KT 9999NDV // NCD 17/12 Q1018=
YTRE 080900Z AUTO 24006KT //// // ////// 13/12 Q1025=
YWGT 080900Z AUTO 00000KT //// // ////// 06/05 Q1027=
####018000077####
SALJ32 LJLJ 080900
METAR LJCE 080900Z 09004KT CAVOK 24/09 Q1023 RMK BLU=
####018000436####
SACZ43 LKPW 080900
METAR LKCV 080900Z VRB03KT 9999 FEW045 SCT220 21/08 Q1024
           NOSIG=
METAR LKKB 080900Z VRB01KT 9999 FEW041 22/09 Q1023 NOSIG=
METAR LKLN 080900Z AUTO VRB02KT CAVOK 20/14 Q1024=
METAR LKNA 080900Z 36004KT 360V160 9999 FEW046 19/06 Q1024
           NOSIG=
METAR LKPD 080900Z 02004KT 300V110 9999 FEW035 22/07 Q1023
           NOSIG=
METAR LKPO 080900Z VRB02KT 9999 FEW045 20/10 Q1023 NOSIG=
####018000089####
SAUK33 EGGY 080850 CCA
METAR COR EGPB 080850Z 19016KT 9999 FEW012 14/11 Q1006 NOSIG=
####018000366####
SAEW33 LEMM 080900
METAR GCLP 080900Z 01021KT 350V050 9999 SCT018 23/17 Q1017 NOSIG=
METAR GCXO 080900Z 29015KT 0100 R30/0200V0500U R12/0150N FG
OVC000 17/17 Q1020 NOSIG=
METAR GCTS 080900Z 06014KT 020V080 9999 BKN014 22/18 Q1017 NOSIG=
METAR GCRR 080900Z 01016G26KT 330V040 9999 SCT018 23/18 Q1017=
METAR GCFV 080900Z 04012KT 9999 SCT018 22/19 Q1017=
####018000086####
SAUK37 EGGY 080850 RRA
METAR EGNC 080850Z 26012KT 9999 SCT030 SCT045 15/11 Q1015=
####018000191####
SALJ31 LJLJ 080900
METAR LJLJ 080900Z VRB03KT 9999 FEW050 21/08 Q1024 NOSIG=
METAR LJMB 080900Z VRB02KT 9999 FEW040 23/09 Q1023=
METAR LJPZ 080900Z 30003KT 260V350 CAVOK 24/09 Q1022=
####018000419####
SARO32 LROM 080900
METAR LRAR 080900Z 05008KT 9999 SCT031 21/16 Q1020=
METAR LRBM 080900Z VRB02KT 9999 FEW007 BKN014 17/16 Q1019 1019//95=
METAR LRCL 080900Z 29006KT 9999 FEW011 BKN015 OVC021 15/12 Q1020
0821//95=
METAR LROD 080900Z 01010KT 330V040 9999 FEW035 21/14 Q1021=
METAR LRSM 080900Z 06010KT 9999 SCT020 20/14 Q1020=
METAR LRTM 080900Z 23006KT 9999 FEW009 SCT013 BKN020 16/13 Q1020
07CLRD//=
####018000316####
SATS41 DTTA 080900
METAR DTTB 080900Z 31010KT 9999 FEW020 28/18 Q1020=
METAR DTTD 080900Z 12004KT CAVOK 26/17 Q1021=
METAR DTTG 080900Z 09012KT CAVOK 29/15 Q1019 NOSIG=
METAR DTTK 080900Z 36004KT CAVOK 30/16 Q1019=
METAR DTTL 080900Z 28006KT CAVOK 28/19 Q1019=
METAR DTTN 080900Z 17004KT CAVOK 30/16 Q1019=
####018000401####
SAUS20 KNKA 080905
SPECI KEKQ 080903Z AUTO 00000KT 2SM BR CLR 19/18 A3010 RMK AO2 =
SPECI KGNV 080903Z AUTO 00000KT 1 3/4SM BR SCT001 20/19 A3000 RMK 
    AO2=
METAR KHRT 080855Z AUTO 00000KT 10SM CLR 23/23 A3000 RMK AO2 SLP162
      T02330232 56008 $=
SPECI KMPV 080904Z AUTO 00000KT 2SM BR CLR 20/19 A3011 RMK AO2=
SPECI KVAY 080904Z AUTO 00000KT 1/4SM FG VV005 23/23 A3001 RMK AO2=
####018000349####
SARO33 LROM 080900
METAR LRBC 080900Z 35012KT 9999 FEW034 SCT050 23/17 Q1016=
METAR LRCV 080900Z 34004KT 310V010 9999 FEW023 SCT038 20/14 Q1017=
METAR LRIA 080900Z 32006KT 270V020 9999 FEW019 SCT034 23/17 Q1017=
METAR COR LRSV 080900Z 32014KT 9999 BKN008 16/14 Q1018=
METAR LRTC 080900Z 36012KT 330V030 9999 FEW030CB BKN040 22/17 Q1014=
####018000502####
SAMS32 WMKK 080900
METAR 080900Z
METAR WBGG 080900Z 25006KT 9999 SCT020 BKN150 27/24 Q1008 RESH NOSIG=
METAR WBKK 080900Z 09008KT 9999 -TSRA FEW013 FEW016CB SCT035 OVC260
25/23
     Q1008 NOSIG=
METAR WMKJ 080900Z 26002KT 9999 FEW018 BKN280 29/25 Q1008=
METAR WMKK 080900Z 20005KT 160V250 9999 FEW018 SCT140 BKN280 30/26
Q1008
     NOSIG=
METAR WMKP 080900Z 24008KT 9999 FEW020 BKN280 31/25 Q1008 NOSIG=
METAR WMSA 080900Z 28004KT 9999 FEW020 SCT140 BKN280 33/25 Q1008
NOSIG=
####018001648####
SAUS41 KWBC 080900
METAR
K40B NIL=
KABE 080851Z 34004KT 7SM CLR 22/20 A3002=
KAGC 080853Z 00000KT 4SM HZ CLR 23/19 A3008=
KAKR 080854Z AUTO 00000KT 5SM BR CLR 20/18 A3008=
KALB 080851Z 00000KT 5SM HZ CLR 23/21 A3002=
KART 080856Z AUTO 00000KT 7SM CLR 23/20 A3002=
KAVP 080854Z AUTO 11003KT 7SM CLR 21/18 A3006=
KBAF 080853Z 17003KT 9SM SCT075 OVC110 24/21 A3003=
KBDL 080851Z 15003KT 5SM HZ BKN080 24/21 A3002=
KBDR 080852Z AUTO 09008KT 1/2SM FG OVC002 24/23 A3003=
KBED 080856Z AUTO 00000KT 5SM BR BKN017 OVC039 24/22 A3004=
KBTV 080854Z 00000KT 5SM BR CLR 23/22 A3001=
KBUF 080854Z 18004KT 8SM FEW090 22/19 A3005=
KBVY 080853Z 16004KT 9SM OVC013 22/20 A3006=
KCAE 080856Z 25003KT 10SM CLR 23/19 A2998=
KCAK 080851Z 00000KT 8SM CLR 22/17 A3009=
KCEF 080855Z AUTO 16005KT 10SM SCT100 24/22 A3003=
KCMH 080851Z 00000KT 9SM CLR 23/19 A3007=
KCRQ 080853Z AUTO 27003KT 9SM OVC009 17/14 A2989=
KCRW 080854Z 00000KT 4SM BR CLR 21/20 A3007=
KCTZ 080900Z AUTO 00000KT 7SM CLR 24/22 A2992=
KDAY 080856Z 00000KT 8SM CLR 23/18 A3009=
KDOV 080855Z AUTO 00000KT 3SM BR CLR 24/24 A2999=
KERI 080851Z 18003KT 7SM CLR 22/19 A3006=
KEWB 080853Z AUTO 13005KT 4SM BR OVC002 22/21 A3006=
KFDK NIL=
KFVE 080853Z AUTO 20005KT 3SM BR CLR 22/22 A3000=
KGON 080856Z AUTO 00000KT 10SM OVC011 23/21 A3004=
KGSO 080854Z 33004KT 8SM FEW090 26/18 A3001=
KGSP 080853Z AUTO 00000KT 10SM CLR 24/19 A3001=
KHPN 080856Z 00000KT 2 1/2SM BR FEW110 23/21 A3003=
KHTS 080851Z 00000KT 2 1/2SM BR CLR 22/21 A3007=
KHUL 080853Z AUTO 20006KT 5SM BR CLR 21/18 A3002=
KHVN 080853Z AUTO 10005KT 2SM HZ OVC002 24/23 A3003=
####018001115####
SAUS41 KWBC 080900 RRA
METAR
KIAG 080853Z AUTO 21003KT 6SM BR CLR 23/21 A3004=
KILG 080851Z AUTO 11004KT 4SM BR CLR 24/22 A3002=
KILM 080853Z AUTO 28005KT 10SM CLR 26/19 A2989=
KINT 080854Z AUTO 00000KT 10SM BKN095 24/17 A3002=
KLSV 080855Z AUTO 34003KT 10SM CLR 26/M04 A2982=
KLUK 080853Z AUTO 00000KT 1 3/4SM R21L/3500VP6000FT BR CLR 22/21
     A3006=
KLWM 080854Z AUTO 20003KT 5SM HZ OVC008 24/21 A3007=
KMDT 080856Z 00000KT 6SM HZ CLR 26/21 A3000=
KMMU 080900Z AUTO 00000KT 3SM BR SCT110 20/19=
KMSS 080853Z AUTO 22003KT 6SM BR CLR 23/21 A3001=
KOGS NIL=
KOLD NIL=
KOQU NIL=
KORH 080854Z AUTO 16005KT 3SM BR BKN002 OVC080 22/21 A3009=
KPQI 080855Z AUTO 16004KT 10SM CLR 21/18 A2998=
KPSM 080855Z 14006KT 2 1/2SM BR OVC005 22/21 A3005=
KPVD NIL=
KPWM 080851Z 16003KT 8SM OVC006 21/19 A3007=
KRIC 080854Z 00000KT 7SM CLR 25/21 A2998=
KROC 080854Z 21005KT 8SM FEW070 BKN100 23/20 A3004=
KSCH NIL=
KSYR 080854Z 15003KT 7SM FEW048 SCT090 SCT200 22/20 A3004=
KWDR NIL=
KWRI 080855Z AUTO 12004KT M1/4SM R18/0500V0600FT R24/0500V0600FT
     FG VV001 23/23 A2999=
####018001663####
SAUS42 KWBC 080900
METAR
KAMA 080853Z 02005KT 1SM -RA SCT020 SCT080 OVC110 17/16 A3018=
KAUS 080853Z 05005KT 10SM BKN016 BKN021 OVC033 26/23 A2995=
KBPP NIL=
KBPT 080853Z 09011KT 10SM FEW024 26/24 A2994=
KBQK 080857Z AUTO 26004KT 10SM CLR 22/22 A3000=
KBRO 080853Z 33005KT 10SM FEW016 SCT022 27/26 A2977=
KCHA 080853Z 00000KT 10SM CLR 23/19 A3005=
KCRP 080851Z 03013G19KT 3SM +TSRA BR FEW010 BKN018CB OVC047 26/25
     A2983=
KDAL 080853Z 16007KT 10SM FEW014 OVC230 26/23 A2999=
KDRT 080853Z AUTO 08003KT 10SM CLR 24/22 A2993=
KELP 080851Z 35012KT 10SM FEW060 SCT080 BKN100 22/15 A3011=
KEYW 080853Z AUTO 07004KT 10SM CLR 28/25 A2992=
KFPR 080853Z AUTO 00000KT 10SM CLR 23/22 A2996=
KFTW 080853Z 14008KT 10SM FEW014 25/23 A2998=
KFTY 080853Z 00000KT 9SM CLR 21/18 A3003=
KFXE NIL=
KGLE NIL=
KGLS 080852Z AUTO 11018G24KT 10SM FEW024 SCT031 28/23 A2990=
KGPT 080853Z AUTO 00000KT 8SM CLR 26/24 A3000=
KHOU 080853Z 10007KT 10SM FEW030 BKN130 BKN250 27/23 A2991=
KHRL 080852Z AUTO 34004KT 8SM -RA SCT019 BKN024 BKN030 26/26
     A2978=
KHSV 080853Z 00000KT 10SM CLR 24/23 A3005=
KLCH 080853Z AUTO 08006KT 10SM CLR 26/23 A2997=
KLGC 080855Z AUTO 9SM CLR 21/ A3002=
KLRD 080856Z AUTO 03006KT 10SM BKN012 OVC017 27/25 A2989=
KMAF 080853Z AUTO 00000KT 10SM OVC110 22/20 A3007=
KMFE 080853Z AUTO 36007KT 10SM SCT006 SCT017 26/24 A2980=
KMOB 080856Z 00000KT 8SM CLR 24/23 A3003=
KNEW 080853Z AUTO 12003KT 10SM FEW015 27/25 A3000=
KOPF 080853Z AUTO 04003KT 10SM FEW020 27/24 A2993=
KOPN 080900Z AUTO 00000KT 10SM CLR 24/22 A3004=
KPDK 080853Z AUTO 00000KT 10SM CLR 22/19 A3004=
KPFN NIL=
KPGL NIL=
####018000158####
SAAY31 RUMS 080900
METAR UDYZ 080900Z VRB02MPS 9999 FEW050 35/13 Q1010 09010070 NOSIG=
METAR UDSG 080900Z 07005MPS 9999 NSC 30/13 Q1016 02CLRD70 NOSIG=
####018000102####
SAKY31 RUMS 080900
METAR UAFM 080900Z 30005MPS CAVOK 33/05 Q1012 NOSIG=
METAR UAFO 080900Z NIL=
####018000689####
SAKZ31 RUMS 080900
METAR UAAA 080900Z 03004MPS 010V070 9999 FEW050CB BKN100 30/10 Q1013
88CLRD65 TEMPO TS=
METAR UACC 080900Z 26004MPS 220V310 CAVOK 25/03 Q1009 220/0070 NOSIG
RMK QFE726/0968=
METAR UAKK 080900Z VRB01MPS CAVOK 24/03 Q1010 230///70 NOSIG RMK
QFE711/0948=
METAR UAOO 080900Z NIL=
METAR UARR 080900Z NIL=
METAR UATE 080900Z 30006MPS 270V340 CAVOK 36/17 Q1010 300///70 NOSIG
RMK QFE756/1008=
METAR UATG 080900Z 35006G10MPS CAVOK 39/10 Q1009 32CLRD70 NOSIG RMK
QFE759/1012 =
METAR UATT 080900Z 05010MPS 9999 NSC 32/04 Q1011 13CLRD70 NOSIG RMK
QFE738/0985=
METAR UAUU 080900Z 34006MPS 300V360 CAVOK 26/M01 Q1013 33CLRD70 NOSIG
RMK QFE744/0992=
####018000195####
SATA31 RUMS 080900
METAR UTDD 080900Z VRB01MPS 9999 FEW066 36/05 Q1010 09CLRD70 NOSIG
RMK QFE690/0920=
METAR UTDL 080900Z 05002MPS 9999 FEW056TCU 36/09 Q1008 NOSIG RMK
QFE718 8809//70=
####018000261####
SATR31 RUMS 080900
METAR UTAA 080900Z NIL=
METAR UTAK 080900Z 32003MPS CAVOK 37/17 Q1008 NOSIG=
METAR UTAM 080900Z 04006MPS CAVOK 40/07 Q1007 NOSIG=
METAR UTAT 080900Z 16005MPS CAVOK 43/19 Q1007 NOSIG=
METAR UTAV 080900Z 02004MPS CAVOK 40/11 Q1006=
####018000176####
SAUS42 KWBC 080900 CCA
METAR
KBTR 080853Z 07003KT 7SM FEW013 SCT200 24/23 A2999=
KMGM 080853Z 24004KT 10SM CLR 24/23 A3002=
KTYS 080853Z 00000KT 9SM CLR 24/19 A3006=
####018000534####
SAUS42 KWBC 080900 RRA
METAR
KPIE 080853Z AUTO 10003KT 10SM CLR 24/21 A2998=
KPNS 080853Z AUTO 00000KT 7SM CLR 24/23 A3001=
KQAO NIL=
KRSW 080853Z 04004KT 10SM CLR 24/22 A2995=
KSAT 080853Z 06005KT 7SM -RA BKN014 BKN040 BKN250 26/23 A2995=
KSAV 080853Z 26003KT 10SM FEW024 21/19 A2999=
KSHV 080856Z 11003KT 10SM SCT180 BKN280 24/24 A3001=
KSSI 080853Z AUTO 26005KT 10SM CLR 23/21 A2999=
KTMB 080853Z AUTO 00000KT 10SM CLR 27/24 A2992=
KTUL 080853Z 35004KT 6SM -TSRA BR SCT008 BKN060 OVC075 23/22
     A3000=
####018001775####
SAEU KAWN 080900 RRQ
METAR LFBD 080900Z 07009KT CAVOK 29/13 Q1017 NOSIG=
METAR LFBI 080900Z 12003KT 040V180 CAVOK 27/14 Q1019 NOSIG=
METAR LFBZ 080900Z 08005KT CAVOK 26/21 Q1016 NOSIG=
METAR LFCG 080900Z 12003KT 060V180 CAVOK 29/17 Q1019=
METAR LFDB 080900Z 09005KT 040V130 CAVOK 27/16 Q1019=
METAR LFDH 080900Z 11005KT 070V160 CAVOK 29/16 Q1018=
METAR LFJL 080900Z AUTO VRB03KT 9999NDV NSC 26/10 Q1021=
METAR LFKB 080900Z 09006KT 050V120 9000 FEW020 29/23 Q1019 NOSIG=
METAR LFKF 080900Z VRB04KT 9999 SCT033 30/22 Q1019 NOSIG=
METAR LFLL 080900Z 12004KT 070V200 CAVOK 27/14 Q1021 NOSIG=
METAR LFLN 080900Z AUTO 16003KT 100V230 9999NDV NSC 26/15 Q1020=
METAR LFMC 080900Z VRB02KT 9999 FEW033 30/20 Q1020=
METAR LFML 080900Z 29004KT CAVOK 30/18 Q1019 BECMG 22015KT=
METAR LFMN 080900Z 09006KT 9999 FEW023 28/22 Q1020 NOSIG=
METAR LFMT 080900Z 07005KT 040V100 CAVOK 29/15 Q1020 NOSIG=
METAR LFOB 080900Z 20006KT 160V240 CAVOK 27/12 Q1019 NOSIG=
METAR LFOF 080900Z 18004KT 140V230 CAVOK 26/13 Q1019 NOSIG=
METAR LFOH 080900Z AUTO 35012KT 9999NDV NSC 20/11 Q1020=
METAR LFOP 080900Z VRB01KT CAVOK 25/12 Q1019 NOSIG=
METAR LFOR 080900Z VRB04KT CAVOK 28/11 Q1019=
METAR LFPM 080900Z VRB02KT CAVOK 28/14 Q1019=
METAR LFRH 080900Z 05004KT 340V130 CAVOK 22/15 Q1018=
METAR LFRQ 080900Z 06006KT 010V090 9999 FEW020 SCT230 21/15 Q1018 NOSIG=
METAR LFRS 080900Z 17003KT 090V200 CAVOK 26/13 Q1018 NOSIG=
METAR LFRT 080900Z VRB03KT 9999 BKN011 SCT250 18/15 Q1019=
METAR LFSL 080900Z AUTO 11008KT 9999NDV NSC 26/14 Q1020=
METAR LFTW 080900Z AUTO VRB02KT 9999NDV NSC 29/14 Q1020=
METAR LPFR 080900Z 25004KT 180V300 9000 SCT009 BKN011 23/20 Q1016=
METAR LROP 080900Z VRB02KT 9999 FEW040CB BKN044 20/14 Q1016 880///95
      NOSIG=
####018001699####
SAUS43 KWBC 080900
METAR
K12C NIL=
K1H2 NIL=
KAAA NIL=
KAPN 080854Z AUTO 15004KT 4SM BR CLR 19/19 A2998=
KAZO 080853Z AUTO 00000KT 5SM BR CLR 23/21 A3004=
KBDE 080853Z AUTO 00000KT 10SM CLR 15/13 A2999=
KBTL 080853Z AUTO 00000KT 9SM FEW060 23/21 A3005=
KBTM 080853Z AUTO 00000KT 10SM CLR 07/01 A3031=
KC09 NIL=
KC75 NIL=
KCGX NIL=
KCIU 080855Z AUTO 21005KT 7SM OVC120 19/18 A2995=
KCMX 080853Z AUTO 32004KT 9SM FEW002 SCT016 BKN060 18/18 A2998=
KCOS 080854Z 23004KT 9SM FEW029 OVC085 13/12 A3039=
KCPR 080853Z AUTO 00000KT 10SM CLR 04/04 A3034=
KDET 080853Z 00000KT 9SM CLR 25/21 A3003=
KDKB NIL=
KDLH 080855Z 30006KT 10SM CLR 16/14 A3004=
KDNV NIL=
KDSM 080854Z 35006KT 10SM CLR 22/19 A3007=
KELO 080853Z AUTO 00000KT 10SM CLR 13/13 A3002=
KENL NIL=
KFAR 080853Z 21003KT 10SM CLR 16/12 A3006=
KFEP NIL=
KFNT 080853Z AUTO 00000KT 8SM CLR 23/21 A3003=
KFOA NIL=
KFWC NIL=
KGBG NIL=
KGFK 080853Z 25005KT 10SM CLR 15/13 A3003=
KGRB 080853Z AUTO 00000KT 4SM BR CLR 21/19 A2996=
KGRM NIL=
KGRR 080853Z AUTO 00000KT 5SM BR BKN070 OVC085 24/22 A3004=
KHSB NIL=
KICT 080853Z 05003KT 10SM SCT080 OVC200 22/20 A3008=
KIGQ NIL=
KIJX NIL=
KIKK NIL=
KINL 080855Z AUTO 22003KT 10SM FEW090 12/11 A3000=
KISN 080852Z 00000KT 10SM CLR 14/11 A3012=
KJOT NIL=
KLEX 080854Z AUTO 00000KT 5SM HZ CLR 22/18 A3008=
KLOT NIL=
KMBS 080853Z 22005KT 10SM CLR 24/22 A3001=
KMDW 080851Z 00000KT 7SM -RA FEW015 BKN060 OVC095 24/22 A3002=
KMKC 080854Z 32003KT 10SM CLR 23/21 A3004=
KMKE 080852Z 16005KT 7SM -RA BKN080 OVC100 23/22 A3000=
KMLI 080852Z 00000KT 9SM BKN009 23/22 A3001=
KMOT 080854Z AUTO 21007KT 10SM CLR 14/12 A3008=
####018000774####
SAUS43 KWBC 080900 RRA
METAR
KMQB NIL=
KMQT NIL=
KMWA NIL=
KOLY NIL=
KOMA 080852Z 34007KT 10SM FEW019 SCT130 20/19 A3012=
KPHN 080855Z AUTO 00000KT 1/4SM FG VV002 20/18 A3002=
KPIA 080854Z 18003KT 4SM BR BKN012 BKN045 BKN100 23/22 A3002=
KPNT NIL=
KPPQ NIL=
KPRG NIL=
KPTK 080853Z 00000KT 7SM SCT250 24/22 A3003=
KPUB 080853Z AUTO 00000KT 10SM BKN038 OVC050 16/13 A3034=
KRAD NIL=
KSAR NIL=
KSAW 080859Z AUTO 29003KT 5SM BR OVC001 18/17 A2997=
KSDF 080856Z 12004KT 7SM CLR 27/21 A3005=
KSGF 080852Z 18003KT 10SM FEW022 BKN035 BKN043 23/22 A3005=
KSLO NIL=
KSTP 080853Z 32005KT 10SM CLR 19/17 A3006=
KSUS 080854Z AUTO 00000KT 10SM FEW050 24/23 A3000=
KTAZ NIL=
KTIP NIL=
KTOL 080852Z 00000KT 9SM CLR 22/18 A3004=
KVYS NIL=
####018000084####
SPUS72 KWBC 080906
SPECI
KACT 080903Z 09004KT 10SM SCT014 BKN019 26/23 A2998=
####018000094####
SPUS72 KWBC 080906
SPECI
KAMA 080903Z 04006KT 1SM -RA BKN020 BKN070 OVC100 17/16 A3018=
####018000080####
SAIR33 OIII 080900 RRB
METAR OIHH 080850Z 21014KT CAVOK 38/M04 Q1015 A3000=
####018001665####
SAUS44 KWBC 080900
METAR
K11R NIL=
KBFI 080853Z 00000KT 10SM CLR 21/12 A2994=
KBIL 080853Z 00000KT 10SM CLR 16/06 A3023=
KBKE 080853Z AUTO 24004KT 10SM CLR 09/07 A3011=
KBLI 080853Z AUTO 00000KT 10SM CLR 16/14 A2996=
KBOI 080853Z 12005KT 10SM CLR 20/07 A3005=
KBPG NIL=
KBYY NIL=
KCLM 080853Z AUTO A2997=
KCTB 080856Z AUTO 33004KT 10SM CLR 10/06 A3024=
KCXL NIL=
KDUG 080856Z AUTO 08021G27KT 10SM CLR 26/12 A3000=
KEKA NIL=
KFAT 080853Z 31007KT 10SM CLR 23/08 A2981=
KGDV 080855Z AUTO 21006KT 10SM CLR 11/07 A3016=
KGEG 080853Z 00000KT 10SM CLR 18/08 A3007=
KGGW 080853Z AUTO 28003KT 10SM BKN090 12/09 A3013=
KGLH 080853Z AUTO 00000KT 7SM CLR 22/22 A3004=
KGPI 080855Z AUTO 29005KT 10SM CLR 10/07 A3016=
KGTF 080853Z 00000KT 10SM CLR 08/06 A3023=
KGWO 080853Z AUTO 00000KT 10SM CLR 22/22 A3005=
KHLN 080853Z AUTO 28004KT 10SM CLR 12/04 A3024=
KHQM 080853Z AUTO 00000KT 10SM 18/13 A2992=
KHVR 080853Z AUTO 00000KT 10SM CLR 11/09 A3019=
KIPL 080853Z AUTO 15004KT 10SM CLR 27/08 A2968=
KLBB 080853Z 35008KT 10SM FEW010 SCT080 BKN120 OVC150 21/18
     A3013=
KMSO 080853Z AUTO 00000KT 10SM CLR 11/06 A3019=
KMWH 080852Z AUTO 01007KT 10SM CLR 17/07 A3001=
KNOW NIL=
KNUW 080856Z 30003KT 10SM CLR 16/11 A2996=
KOLF 080853Z AUTO 27003KT 10SM CLR 10/08 A3014=
KOLM 080854Z AUTO 00000KT 10SM CLR 15/12 A2994=
KOLS 080854Z AUTO 00000KT 10SM SCT110 26/06 A2997=
KOLV 080855Z AUTO 00000KT 9SM CLR 23/23 A3007=
KPAE 080853Z AUTO 02003KT 10SM CLR 20/12 A2997=
KPDX 080853Z 00000KT 10SM CLR 21/15 A2988=
KPMD 080853Z AUTO 19006KT 10SM CLR 18/04 A2990=
KRNO 080855Z 03003KT 10SM SCT150 22/04 A3004=
####018000537####
SAUS44 KWBC 080900 RRA
METAR
KRNT 080853Z AUTO 12003KT 10SM CLR 19/14 A2994=
KSAC 080853Z 18005KT 10SM CLR 14/10 A2983=
KSCK 080855Z AUTO 32003KT 10SM CLR 16/12 A2984=
KSDM 080853Z AUTO 00000KT 10SM OVC012 16/13 A2990=
KSFF 080853Z AUTO 00000KT 10SM CLR 14/09 A3006=
KSJC 080853Z AUTO 35003KT 10SM OVC015 15/11 A2992=
KSLC 080853Z 16005KT 10SM FEW130 19/07 A3008=
KSMF 080853Z 14011KT 10SM CLR 15/11 A2982=
KTIW 080853Z AUTO 02004KT 10SM FEW090 22/12 A2994=
KTUS 080853Z 23006KT 10SM CLR 31/07 A2988=
KYUM NIL=
####018000824####
SACI31 ZBBB 080900
METAR ZBAA 080900Z VRB02MPS CAVOK 36/10 Q1003 NOSIG=
METAR ZBSJ 080900Z 12002MPS CAVOK 34/16 Q1003 NOSIG=
METAR ZBTJ 080900Z 15008MPS CAVOK 31/17 Q1004 NOSIG=
METAR ZBYN 080900Z 11004MPS CAVOK 31/12 Q1007 BECMG 09005MPS=
METAR ZGGG 080900Z 14006MPS 9999 FEW050TCU SCT050 35/26 Q1004 NOSIG=
METAR ZSHC 080900Z 00000MPS 5000 -SHRA BR BKN020 FEW033CB 28/23
 Q1005 TEMPO
 TSRA SCT033CB=
METAR ZSPD 080900Z 09006MPS 060V120 9999 BKN013 27/24 Q1006 NOSIG=
METAR ZSSS 080900Z 09004MPS 050V130 9999 BKN026 29/23 Q1005 NOSIG=
METAR ZWSH 080900Z 14003MPS 070V210 CAVOK 33/00 Q1014 NOSIG=
METAR ZWWW 080900Z 01003MPS 330V050 9999 FEW050CB 33/07 Q1010 NOSIG=
METAR ZYTL 080900Z 28004MPS 240V330 9999 SCT033 28/18 Q1006 NOSIG=
METAR ZYTX 080900Z 32002MPS 9999 FEW030CB 25/18 Q1006 NOSIG=
####018001314####
SAUS51 KWBC 080900
METAR
K40B NIL=
KACY 080854Z 00000KT 4SM BR CLR 23/22 A3002=
KAUG 080853Z AUTO 00000KT 7SM OVC007 21/19 A3008=
KAVL 080854Z AUTO 00000KT 10SM CLR 18/18 A3013=
KBGM 080853Z AUTO 03003KT 5SM HZ CLR 22/18 A3012=
KBKW 080851Z AUTO 00000KT 4SM BR SCT080 20/18 A3016=
KCBE 080856Z AUTO 00000KT 7SM CLR 21/18 A3010=
KCHH NIL=
KCON 080851Z AUTO 00000KT 6SM BR OVC050 23/21 A3005=
KDCA 080852Z 06006KT 7SM FEW060 28/22 A2999=
KEKN 080851Z AUTO 00000KT 2SM BR FEW080 17/16 A3015=
KESN 080900Z AUTO 00000KT 3SM BR CLR 23/23 A3003=
KGFL 080853Z AUTO 00000KT 1/2SM FG FEW100 20/20 A3002=
KGSP 080853Z AUTO 00000KT 10SM CLR 24/19 A3001=
KHAT NIL=
KHSS NIL=
KIPJ 080900Z AUTO 00000KT 10SM CLR 20/17 A3001=
KIPT 080854Z AUTO 00000KT 8SM CLR 20/17 A3005=
KLYH 080854Z AUTO 34004KT 6SM HZ CLR 25/18 A3004=
KMHT 080853Z 13006KT 3SM BR BKN070 24/22 A3003=
KMPV 080851Z AUTO 00000KT 3SM BR CLR 20/19 A3011=
KMWN 080853Z 34002KT 7SM FEW000 FEW003 FEW020 FEW050 15/14=
KMYR 080855Z AUTO 28009KT 10SM CLR 26/19 A2996=
KNYC 080851Z AUTO VRB03KT 6SM HZ SCT100 26/23 A3004=
KPNE 080854Z 00000KT 5SM BR CLR 24/23 A3002=
KROA 080854Z 28003KT 7SM CLR 24/18 A3007=
KSMQ 080853Z AUTO 00000KT 3SM BR CLR 22/21 A3000=
KWAL 080854Z AUTO 12003KT 10SM OVC095 24/22 A2998=
####018001682####
SAUS52 KWBC 080900
METAR
K3R1 NIL=
KAAF 080853Z AUTO 00000KT 9SM CLR 23/22 A2999=
KABR 080853Z AUTO 21003KT 10SM CLR 15/14 A3012=
KACT 080851Z 09004KT 10SM BKN014 26/23 A2998=
KAGS 080853Z AUTO 00000KT 10SM CLR 24/19 A2998=
KAHN 080851Z AUTO 00000KT 8SM CLR 22/19 A3002=
KALI 080853Z AUTO 01007KT 10SM FEW036 BKN048 BKN095 26/24
     A2983=
KAUS 080853Z 05005KT 10SM BKN016 BKN021 OVC033 26/23 A2995=
KAYS 080900Z AUTO 00000KT 2SM CLR 22/21 A3000=
KBVE NIL=
KCAO 080855Z AUTO 04012KT 10SM -RA SCT070 OVC095 16/13 A3029=
KCDS 080853Z AUTO 36004KT 10SM SCT034 23/21 A3010=
KCKL NIL=
KCLL 080853Z 06005KT 10SM CLR 26/23 A2995=
KCNM 080853Z AUTO 00000KT 5SM RA BR OVC007 20/19 A3012=
KCOT 080853Z AUTO 05007KT 10SM FEW014 BKN043 25/23 A2989=
KCSG 080851Z 00000KT 10SM CLR 25/20 A3002=
KCTY 080853Z AUTO 00000KT 21/20 A2999=
KDHT 080853Z AUTO 36012KT 10SM -RA SCT030 BKN037 OVC080 17/14
     A3026=
KECP 080853Z AUTO 29003KT 5SM BR CLR 23/23 A3001=
KELD 080853Z AUTO 00000KT 1/2SM FG VV001 23/23 A3003=
KELP 080851Z 35012KT 10SM FEW060 SCT080 BKN100 22/15 A3011=
KESF 080853Z AUTO 00000KT 7SM FEW013 23/22 A3001=
KFCL NIL=
KFSM 080853Z AUTO 02003KT 10SM OVC034 24/22 A3002=
KFYV 080853Z AUTO 00000KT 10SM FEW036 22/21 A3006=
KGAG 080853Z AUTO 05007KT 10SM -RA FEW030 21/19 A3012=
KGDP 080851Z AUTO 06018KT 1/4SM FG OVC004 17/17 A3022=
KHBR 080853Z AUTO 03004KT 10SM FEW033 SCT060 SCT070 23/22
     A3007=
KHDO 080851Z AUTO 07007KT 10SM BKN022 24/23 A2996=
KHOT 080853Z AUTO 00000KT 10SM OVC010 24/23 A3005=
KHRO 080853Z AUTO 16003KT 4SM BR FEW090 22/21 A3006=
KINK 080853Z AUTO 03004KT 10SM BKN095 22/19 A3005=
####018000094####
SAEU KAWN 080800 RRX
METAR LGLR 080820Z 32007KT 9999 FEW035 SCT080 25/10 Q1015 NOSIG BLU=
####018000317####
SPUS17 KAWN 080906
SPECI KDOV 080900Z AUTO 00000KT 2SM BR CLR 24/24 A2999 RMK AO2 VIS
      1/2 RWY19 SLP157=
SPECI KDOV 080903Z AUTO 00000KT 1 3/4SM BR CLR 24/24 A2999 RMK AO2
      VIS 1/2 RWY19 SLP158=
SPECI KDOV 080904Z AUTO 00000KT 1 3/4SM BR FEW006 24/24 A2999 RMK AO2
      VIS 1/2 RWY19 SLP157=
####018000335####
SAGL KAWN 080900 RRA
METAR COR BGJN 080850Z 36003KT 9999 VCFG FEW200 06/05 Q1010=
METAR BIAR 080900Z 35018KT 9999 BKN020 09/06 Q0994=
METAR BIEG 080900Z 01014KT 2000 VCSH VV003 08/08 Q0990=
METAR BIKF 080900Z 02024KT 9999 FEW017 SCT030 BKN080 11/04 Q0993=
METAR BIRK 080900Z 01023KT 350V180 9999 FEW020 SCT050 10/06 Q0991=
####018000317####
SPNA35 KAWN 080906
SPECI KDOV 080900Z AUTO 00000KT 2SM BR CLR 24/24 A2999 RMK AO2 VIS
      1/2 RWY19 SLP157=
SPECI KDOV 080903Z AUTO 00000KT 1 3/4SM BR CLR 24/24 A2999 RMK AO2
      VIS 1/2 RWY19 SLP158=
SPECI KDOV 080904Z AUTO 00000KT 1 3/4SM BR FEW006 24/24 A2999 RMK AO2
      VIS 1/2 RWY19 SLP157=
####018000225####
SAUS52 KWBC 080900 CCA
METAR
KDAB 080853Z 00000KT 10SM CLR 21/19 A2999=
KMCN 080853Z AUTO 00000KT 10SM CLR 21/20 A3002=
KTRI 080853Z 00000KT 6SM BR CLR 21/19 A3010=
KTUP 080853Z AUTO 00000KT 10SM CLR 24/22 A3005=
####018001347####
SAUS52 KWBC 080900 RRA
METAR
KIPT 080854Z AUTO 00000KT 8SM CLR 20/17 A3005=
KJAN 080854Z 00000KT 10SM CLR 24/22 A3004=
KJBR 080853Z AUTO 00000KT 10SM CLR 25/23 A3004=
KJCT 080851Z AUTO 00000KT 9SM SCT017 SCT025 22/21 A3001=
KJQF 080900Z AUTO 00000KT 10SM SCT100 23/18 A2999=
KLFK 080853Z AUTO 10005KT 10SM CLR 24/23 A2999=
KLFT 080853Z AUTO 07003KT 10SM CLR 25/23 A2999=
KMEI 080858Z AUTO 00000KT 10SM FEW110 23/22 A3004=
KMLC 080853Z AUTO 16003KT 10SM FEW013 24/23 A3002=
KMLU 080853Z AUTO 00000KT 9SM CLR 25/23 A3003=
KMWL 080853Z AUTO 00000KT 10SM CLR 23/21 A2999=
KPBF 080853Z AUTO 00000KT 7SM CLR 24/23 A3005=
KPNC 080853Z AUTO 04003KT 9SM FEW038 BKN060 22/22 A3005=
KPSX 080853Z AUTO 10007KT 9SM CLR 27/26 A2986=
KPWA 080853Z 01005KT 8SM CLR 23/21 A3005=
KQAO NIL=
KRMG 080853Z AUTO 00000KT 9SM CLR 21/19 A3003=
KRSL 080853Z AUTO 36007KT 10SM OVC016 19/18 A3015=
KSEP NIL=
KSHV 080856Z 11003KT 10SM SCT180 BKN280 24/24 A3001=
KSPS 080852Z 05006KT 10SM FEW034 23/22 A3002=
KTLH 080853Z 09004KT 10SM CLR 23/22 A3001=
KTOP 080853Z AUTO 33003KT 10SM OVC095 22/21 A3006=
KVCT 080851Z AUTO 07012G18KT 8SM FEW011 BKN050 OVC070 26/25
     A2988=
KVGT 080853Z AUTO 33004KT 10SM CLR 27/M04 A2984=
KVUJ 080858Z AUTO 00000KT 10SM BKN090 21/18 A2997=
KWRB 080855Z 14004KT 10SM CLR 21/21 A3002=
####018001660####
SAUS53 KWBC 080900
METAR
KAIA 080853Z AUTO 00000KT 10SM FEW027 SCT075 OVC095 16/14
     A3028=
KAID NIL=
KALO 080854Z AUTO 30006KT 9SM CLR 19/19 A3003=
KALS 080852Z AUTO 00000KT 10SM CLR 09/07 A3040=
KANW 080850Z AUTO 00000KT 10SM OVC110 17/15 A3023=
KBBW 080853Z AUTO 00000KT 10SM OVC070 17/16 A3022=
KBFF 080853Z AUTO 00000KT 10SM OVC085 16/14 A3029=
KBIE 080850Z AUTO 35007KT 10SM CLR 19/18 A3012=
KBIS 080852Z AUTO 00000KT 10SM CLR 13/10 A3013=
KBPI 080853Z AUTO 29004KT 10SM CLR 08/02 A3039=
KBRL 080853Z AUTO 10SM FEW001 22/22 A3002=
KCAG 080853Z AUTO 06012KT 10SM CLR 13/07 A3029=
KCGI 080853Z AUTO 00000KT 8SM CLR 24/23 A3003=
KCID 080852Z AUTO 32004KT 10SM CLR 20/19 A3002=
KCNK 080855Z AUTO 01005KT 10SM SCT014 OVC030 20/19 A3014=
KCNU 080852Z AUTO 33004KT 10SM FEW049 SCT110 21/20 A3005=
KCOU 080854Z AUTO 31003KT 8SM -RA BKN003 BKN070 23/22 A3004=
KCYS 080853Z AUTO 11004KT 6SM BR OVC004 12/12 A3036=
KCZD NIL=
KDBQ 080853Z AUTO 00000KT 7SM CLR 20/19 A3003=
KDDC 080852Z AUTO 01007KT 6SM BR CLR 18/17 A3017=
KDVL 080855Z AUTO 26006KT 10SM SCT095 15/12 A3006=
KEAR 080855Z AUTO 33008KT 10SM CLR 15/14 A3022=
KEHA NIL=
KEVV 080854Z AUTO 00000KT 10SM SCT080 25/22 A3005=
KF55 NIL=
KFNB 080853Z AUTO 34003KT 9SM BKN023 BKN035 22/21 A3008=
KFSD 080856Z 00000KT 10SM CLR 16/14 A3015=
KFWA 080854Z 24004KT 10SM CLR 23/21 A3006=
KGCC 080853Z AUTO 00000KT 10SM CLR 11/07 A3028=
KGCK 080854Z AUTO 04009KT 10SM FEW043 SCT070 18/17 A3020=
KGJT 080853Z AUTO 10009KT 10SM CLR 21/06 A3016=
KGLD 080853Z AUTO 03004KT 10SM OVC037 17/16 A3028=
KGPZ 080855Z AUTO 19003KT 10SM CLR 14/12 A3005=
####018001658####
SAUS53 KWBC 080900 RRA
METAR
KGRI 080853Z AUTO 32006KT 10SM CLR 15/14 A3019=
KHON 080855Z AUTO 23005KT 10SM CLR 16/13 A3014=
KHSI 080853Z AUTO 35005KT 10SM CLR 16/14 A3018=
KHTL 080853Z AUTO 21003KT 10SM FEW047 BKN080 OVC100 23/21
     A3003=
KIML 080853Z AUTO 00000KT 10SM CLR 17/14 A3026=
KIRK 080855Z AUTO 34003KT 4SM BR SCT095 19/19 A3006=
KJAC 080855Z AUTO 36006KT 10SM CLR 09/M01 A3033=
KJKL 080853Z AUTO 00000KT 5SM HZ CLR 23/19 A3010=
KJLN 080853Z 13004KT 2 1/2SM RA BR SCT005 SCT014 OVC026 23/23
     A3004=
KJNX 080901Z AUTO 00000KT 5SM CLR 21/21 A2993=
KLAN 080853Z 00000KT 7SM SCT110 24/22 A3003=
KLBF 080853Z AUTO 00000KT 10SM BKN065 OVC080 17/16 A3024=
KLIH NIL=
KLNC NIL=
KLND 080853Z AUTO 27004KT 10SM CLR 11/03 A3032=
KLNK 080854Z AUTO 34005KT 10SM CLR 18/17 A3015=
KLXV 080853Z AUTO 00000KT 10SM OVC029 07/06 A3054=
KMCK 080853Z AUTO 00000KT 10SM FEW044 BKN080 16/16 A3024=
KMCW 080853Z AUTO 32006KT 10SM CLR 18/17 A3010=
KMFD 080852Z AUTO 18003KT 6SM HZ CLR 20/17 A3010=
KMHK 080852Z AUTO 33003KT 10SM BKN120 21/20 A3009=
KMHN NIL=
KMKG 080855Z 23003KT 5SM BR SCT060 BKN120 23/22 A3004=
KMMO NIL=
KMSN 080853Z 00000KT 10SM FEW007 OVC110 22/21 A2999=
KODX 080853Z AUTO 31005KT 10SM OVC080 16/14 A3019=
KONL 080850Z AUTO 26003KT 10SM SCT090 OVC110 16/15 A3021=
KOTM 080853Z AUTO 32004KT 5SM BR CLR 21/20 A3004=
KOVN NIL=
KPAH 080853Z AUTO 00000KT 10SM CLR 23/22 A3003=
KPKD 080853Z AUTO 22003KT 10SM CLR 14/13 A3007=
KRAP 080852Z AUTO 29006KT 10SM CLR 12/09 A3025=
KRFD 080854Z 17007KT 8SM FEW009 OVC080 22/21 A3001=
KRIW 080853Z AUTO 36005KT 10SM CLR 11/04 A3033=
####018000809####
SAUS53 KWBC 080900 RRB
METAR
KRST 080854Z AUTO 31005KT 9SM CLR 18/18 A3007=
KSBN 080854Z 32008KT 7SM FEW060 23/21 A3005=
KSHR 080853Z AUTO 33003KT 10SM CLR 08/06 A3026=
KSLN 080853Z AUTO 33006KT 5SM BR CLR 21/20 A3011=
KSPI 080852Z AUTO 00000KT 10SM FEW055 BKN090 24/23 A3003=
KSSM NIL=
KSTC 080853Z AUTO 00000KT 2SM BR CLR 14/12 A3008=
KSUX 080852Z 32005KT 10SM CLR 17/16 A3015=
KSVM NIL=
KTCS 080853Z AUTO 06005KT 10SM -RA BKN095 OVC110 19/16 A3020=
KTDF 080902Z AUTO 00000KT 5SM CLR 22/19 A3000=
KUDG 080855Z 33004KT 10SM SCT090 25/18 A2997=
KUIN 080854Z AUTO 00000KT 10SM SCT034 SCT049 BKN060 23/22
     A3002=
KVIH 080853Z AUTO 00000KT 9SM BKN035 BKN110 23/21 A3004=
KVTN 080852Z AUTO 00000KT 10SM BKN120 16/15 A3023=
KYNG 080851Z 11004KT 4SM BR HZ CLR 18/17 A3008=
####018000896####
SACI32 ZBBB 080900
METAR ZGKL 080900Z 20005MPS CAVOK 34/24 Q1002 NOSIG=
METAR ZGNN 080900Z 14006MPS 110V180 9999 TS FEW026CB SCT026 34/25
 Q1002 TEMPO
 -TSRA FEW030CB SCT033=
METAR ZGOW 080900Z 19007MPS 9999 FEW020 32/26 Q1005 NOSIG=
METAR ZGSZ 080900Z 17008MPS 130V190 9999 FEW020 33/25 Q1005 NOSIG=
METAR ZLXY 080900Z 08002MPS 030V130 1700 BR FEW010 OVC060 24/21
 Q1007 NOSIG=
METAR ZMUB 080900Z 15011MPS 9999 -SHRA SCT027CB SCT030 16/12 Q1008
 NOSIG RMK
 QFE649.4 80=
METAR ZPPP 080900Z 19004MPS 9999 FEW026 OVC040 23/17 Q1015 NOSIG=
METAR ZSAM 080900Z 19007MPS CAVOK 33/25 Q1004 NOSIG=
METAR ZSFZ 080900Z 19010MPS CAVOK 29/24 Q1004 NOSIG=
METAR ZSNB 080900Z 12005MPS 9999 SCT030 FEW050CB 28/24 Q1004 TEMPO
 2500 -TSRA
 SCT020 FEW033CB OVC050=
METAR ZSQD 080900Z 17004MPS CAVOK 27/17 Q1006 NOSIG=
METAR ZUUU 080900Z VRB01MPS 6000 NSC 28/24 Q1002 NOSIG=
####018001683####
SAUS54 KWBC 080900
METAR
KAST 080855Z AUTO 24006KT 7SM OVC003 12/11 A2994=
KAWH NIL=
KBFL 080854Z AUTO 36006KT 10SM CLR 24/11 A2982=
KBIH 080856Z AUTO 36005KT 10SM CLR 14/02 A2998=
KBLU 080852Z AUTO 00000KT 10SM CLR 21/08 A3010=
KBNY NIL=
KBUO NIL=
KBZN 080856Z AUTO 18004KT 10SM CLR 10/04 A3026=
KCNY 080853Z AUTO 05009KT 10SM CLR 22/04 A3010=
KCQV NIL=
KCZK NIL=
KCZZ 080852Z AUTO 02004KT 09/08 A2988=
KDRA 080855Z AUTO 31003KT 10SM CLR 22/M12 A2992=
KELY 080853Z AUTO 18006KT 10SM CLR 10/M04 A3020=
KEUG 080854Z 19009KT 10SM CLR 14/11 A2991=
KFLG NIL=
KGNG NIL=
KHMM NIL=
KHMS 080850Z 28009KT 15SM SKC 22/06 A2995=
KHTH NIL=
KIGM NIL=
KINW 080856Z AUTO 28004KT 10SM FEW120 23/01 A3008=
KIZA NIL=
KJDN NIL=
KJNW NIL=
KJNX 080901Z AUTO 00000KT 5SM CLR 21/21 A2993=
KLGB 080853Z 33003KT 10SM OVC017 17/13 A2991=
KLWS 080856Z AUTO 14004KT 10SM CLR 17/05 A3002=
KMEH 080856Z AUTO 00000KT 10SM CLR 07/06 A3011=
KMFR 080853Z AUTO 00000KT 10SM CLR 24/12 A2988=
KMHS 080856Z AUTO 00000KT 10SM CLR 14/07 A3000=
KMLD NIL=
KMLF 080852Z AUTO 15003KT 10SM CLR 13/01 A3009=
KMQM NIL=
KMWS NIL=
KNUQ 080856Z AUTO 03007KT 10SM OVC013 16/12 A2993=
KOLM 080854Z AUTO 00000KT 10SM CLR 15/12 A2994=
KOWY NIL=
KPDT 080853Z AUTO 16008KT 10SM CLR 18/08 A2997=
KPFC NIL=
KPGA 080853Z AUTO 00000KT 10SM CLR 27/00 A3003=
KPIH 080853Z AUTO 22006KT 10SM CLR 10/01 A3016=
KPUC 080853Z AUTO 31004KT 10SM CLR 16/02 A3021=
KRBL 080854Z AUTO 33004KT 10SM CLR 23/17 A2983=
KRDD 080853Z AUTO 01004KT 10SM CLR 24/15 A2983=
KSDB 080852Z AUTO 33008KT 10SM CLR 19/03 A3003=
KSHN 080853Z AUTO 00000KT 10SM CLR 13/11 A2993=
####018000083####
SAUS54 KWBC 080900 CCA
METAR
KSMP 080856Z AUTO 00000KT 10SM CLR 17/03 A3016=
####018000483####
SAUS54 KWBC 080900 RRA
METAR
KSJN 080854Z AUTO 07008KT 10SM OVC100 23/03 A3016=
KSLC 080853Z 16005KT 10SM FEW130 19/07 A3008=
KSMX 080851Z AUTO 00000KT 9SM OVC009 13/11 A2992=
KSOW 080850Z AUTO 07005KT 10SM FEW039 SCT100 23/02 A3024=
KSVE NIL=
KTRK 080850Z AUTO 21003KT 10SM CLR 12/08 A3016=
KUIL 080853Z AUTO 07003KT 10SM CLR 16/11 A2993=
KWEY NIL=
KWMC 080856Z AUTO 05015KT 10SM CLR 21/M06 A3004=
KXCN NIL=
KYKM 080853Z AUTO 28007KT 10SM CLR 14/07 A3000=
####018001727####
SAEW KAWN 080900 RRF
METAR LFBD 080900Z 07009KT CAVOK 29/13 Q1017 NOSIG=
METAR LFBI 080900Z 12003KT 040V180 CAVOK 27/14 Q1019 NOSIG=
METAR LFBY 080900Z 11006KT 070V140 CAVOK 28/19 Q1016=
METAR LFBZ 080900Z 08005KT CAVOK 26/21 Q1016 NOSIG=
METAR LFCG 080900Z 12003KT 060V180 CAVOK 29/17 Q1019=
METAR LFDB 080900Z 09005KT 040V130 CAVOK 27/16 Q1019=
METAR LFDH 080900Z 11005KT 070V160 CAVOK 29/16 Q1018=
METAR LFHP 080900Z VRB02KT CAVOK 24/15 Q1023=
METAR LFLD 080900Z 11005KT 060V150 CAVOK 27/14 Q1019=
METAR LFLM 080900Z VRB03KT CAVOK 26/13 Q1021=
METAR LFLN 080900Z AUTO 16003KT 100V230 9999NDV NSC 26/15 Q1020=
METAR LFLQ 080900Z VRB02KT CAVOK 27/13 Q1020=
METAR LFLV 080900Z VRB02KT CAVOK 26/16 Q1020=
METAR LFLW 080900Z 15006KT 110V190 CAVOK 26/12 Q1022=
METAR LFMC 080900Z VRB02KT 9999 FEW033 30/20 Q1020=
METAR LFOF 080900Z 18004KT 140V230 CAVOK 26/13 Q1019 NOSIG=
METAR LFOR 080900Z VRB04KT CAVOK 28/11 Q1019=
METAR LFOW 080900Z 20005KT 160V240 CAVOK 26/13 Q1019=
METAR LFPM 080900Z VRB02KT CAVOK 28/14 Q1019=
METAR LFQB 080900Z 14004KT 090V210 CAVOK 29/11 Q1019=
METAR LFQG 080900Z 14006KT 080V200 CAVOK 26/16 Q1019=
METAR LFRH 080900Z 05004KT 340V130 CAVOK 22/15 Q1018=
METAR LFRI 080900Z 15004KT 090V190 CAVOK 28/13 Q1018 NOSIG=
METAR LFRJ 080900Z AUTO 05004KT 020V110 9999NDV BKN012/// 20/16 Q1019=
METAR LFRL 080900Z 04005KT 010V080 9999 FEW013 BKN230 20/16 Q1019=
METAR LFRM 080900Z 13003KT 080V170 CAVOK 27/15 Q1018=
METAR LFRQ 080900Z 06006KT 010V090 9999 FEW020 SCT230 21/15 Q1018 NOSIG=
METAR LFRT 080900Z VRB03KT 9999 BKN011 SCT250 18/15 Q1019=
METAR LFTW 080900Z AUTO VRB02KT 9999NDV NSC 29/14 Q1020=
METAR LFXA 080900Z VRB02KT CAVOK 27/14 Q1021=
####018000717####
SAJP36 RJTD 080900 RRA
METAR RJFT 080900Z 24005KT 9999 FEW030 BKN040 BKN/// 26/21 Q1009=
METAR RJNS 080900Z 16005KT 120V200 9999 FEW020 SCT/// 25/22 Q1010=
METAR RJSS 080900Z 10007KT 9999 FEW015 SCT050 BKN/// 25/21 Q1010=
METAR RJOA 080900Z VRB02KT 9999 FEW030CB BKN/// 26/21 Q1010=
METAR RJOB 080900Z 13004KT 9999 FEW035 BKN/// 26/21 Q1009=
METAR RJOT 080900Z VRB01KT 9999 FEW025 SCT080 BKN/// 27/22 Q1008=
METAR RJFO 080900Z VRB02KT 8000 FEW030 SCT100 BKN/// 26/23 Q1008=
METAR RJNT 080900Z 36006KT 9999 FEW020 BKN030 BKN/// 28/21 Q1009=
METAR RJSA 080900Z 28003KT 9999 FEW010 SCT020 FEW035TCU BKN070 23/20
           Q1010=
METAR RJSF 080900Z 12004KT 9999 FEW020 SCT030 BKN120 24/20 Q1011=
####018000654####
SAJP35 RJTD 080900
METAR RJAA 080900Z 20006KT 160V230 9999 FEW025 BKN/// 27/22 Q1009
           NOSIG=
METAR RJBB 080900Z 25010KT 9999 FEW030 BKN/// 27/22 Q1007 NOSIG=
METAR RJTT 080900Z 18017KT 9999 FEW025 BKN/// 26/22 Q1009=
METAR RJOO 080900Z 22007KT 170V260 9999 FEW030 BKN/// 29/19 Q1007=
METAR RJGG 080900Z 14010KT 9999 FEW015 BKN/// 26/22 Q1008 NOSIG=
METAR RJSN 080900Z 30009KT 9999 FEW020 BKN/// 26/23 Q1009=
METAR RJCH 080900Z VRB01KT 9999 FEW002 SCT050 21/19 Q1009=
METAR RJSA 080900Z 28003KT 9999 FEW010 SCT020 FEW035TCU BKN070 23/20
           Q1010=
METAR RJSF 080900Z 12004KT 9999 FEW020 SCT030 BKN120 24/20 Q1011=
####018000686####
SAJP36 RJTD 080900
METAR RJAA 080900Z 20006KT 160V230 9999 FEW025 BKN/// 27/22 Q1009
           NOSIG=
METAR RJBB 080900Z 25010KT 9999 FEW030 BKN/// 27/22 Q1007 NOSIG=
METAR RJTT 080900Z 18017KT 9999 FEW025 BKN/// 26/22 Q1009=
METAR RJOO 080900Z 22007KT 170V260 9999 FEW030 BKN/// 29/19 Q1007=
METAR ROAH 080900Z 20011KT 9999 FEW010 SCT080 BKN/// 29/27 Q1009=
METAR RJFF 080900Z 32009KT 5000 BR NSC 26/21 Q1008=
METAR RJGG 080900Z 14010KT 9999 FEW015 BKN/// 26/22 Q1008 NOSIG=
METAR RJCC 080900Z 15006KT 2200 -DZ BR BKN002 18/17 Q1009=
METAR RJFK 080900Z 19008KT 150V220 9999 FEW030 BKN/// 27/18 Q1010=
METAR RJSN 080900Z 30009KT 9999 FEW020 BKN/// 26/23 Q1009=
####018000655####
SAJP32 RJTD 080900
METAR RJFF 080900Z 32009KT 5000 BR NSC 26/21 Q1008=
METAR RJCC 080900Z 15006KT 2200 -DZ BR BKN002 18/17 Q1009=
METAR RJFK 080900Z 19008KT 150V220 9999 FEW030 BKN/// 27/18 Q1010=
METAR RJSN 080900Z 30009KT 9999 FEW020 BKN/// 26/23 Q1009=
METAR RJFT 080900Z 24005KT 9999 FEW030 BKN040 BKN/// 26/21 Q1009=
METAR RJFU 080900Z 25007KT 9999 FEW025 SCT150 BKN/// 26/23 Q1008=
METAR RJCH 080900Z VRB01KT 9999 FEW002 SCT050 21/19 Q1009=
METAR RJSS 080900Z 10007KT 9999 FEW015 SCT050 BKN/// 25/21 Q1010=
METAR RJOA 080900Z VRB02KT 9999 FEW030CB BKN/// 26/21 Q1010=
METAR RJOB 080900Z 13004KT 9999 FEW035 BKN/// 26/21 Q1009=
####018000339####
SAJP36 RJTD 080900 RRB
METAR RJOM 080900Z 26004KT 230V300 9999 FEW025 BKN/// 25/23 Q1008=
METAR RJEC 080900Z 31006KT 280V340 9999 FEW015 BKN035 BKN070 21/18
           Q1009=
METAR RJSK 080900Z 30006KT 9999 FEW030 BKN/// 25/21 Q1010=
METAR RJAH 080900Z 17007KT 150V220 9999 FEW030 SCT270 28/23 Q1008=
METAR RJNK 080900Z NIL=
####018000694####
SAJP37 RJTD 080900
METAR RJAA 080900Z 20006KT 160V230 9999 FEW025 BKN/// 27/22 Q1009
           NOSIG=
METAR RJBB 080900Z 25010KT 9999 FEW030 BKN/// 27/22 Q1007 NOSIG=
METAR RJTT 080900Z 18017KT 9999 FEW025 BKN/// 26/22 Q1009=
METAR RJOO 080900Z 22007KT 170V260 9999 FEW030 BKN/// 29/19 Q1007=
METAR RJFF 080900Z 32009KT 5000 BR NSC 26/21 Q1008=
METAR RJGG 080900Z 14010KT 9999 FEW015 BKN/// 26/22 Q1008 NOSIG=
METAR RJFK 080900Z 19008KT 150V220 9999 FEW030 BKN/// 27/18 Q1010=
METAR RJFU 080900Z 25007KT 9999 FEW025 SCT150 BKN/// 26/23 Q1008=
METAR RJCH 080900Z VRB01KT 9999 FEW002 SCT050 21/19 Q1009=
METAR RJNS 080900Z 16005KT 120V200 9999 FEW020 SCT/// 25/22 Q1010=
####018000441####
SAJP31 RJTD 080900
METAR RJAA 080900Z 20006KT 160V230 9999 FEW025 BKN/// 27/22 Q1009
           NOSIG=
METAR RJBB 080900Z 25010KT 9999 FEW030 BKN/// 27/22 Q1007 NOSIG=
METAR RJTT 080900Z 18017KT 9999 FEW025 BKN/// 26/22 Q1009=
METAR RJOO 080900Z 22007KT 170V260 9999 FEW030 BKN/// 29/19 Q1007=
METAR ROAH 080900Z 20011KT 9999 FEW010 SCT080 BKN/// 29/27 Q1009=
METAR RJGG 080900Z 14010KT 9999 FEW015 BKN/// 26/22 Q1008 NOSIG=
####018000086####
SAJP37 RJTD 080900 RRA
METAR RJFR 080900Z 12003KT 9999 FEW030 BKN/// 27/21 Q1008=
####018000161####
SAJP32 RJTD 080900 RRA
METAR RJOT 080900Z VRB01KT 9999 FEW025 SCT080 BKN/// 27/22 Q1008=
METAR RJFO 080900Z VRB02KT 8000 FEW030 SCT100 BKN/// 26/23 Q1008=
####018001765####
SAEU KAWN 080900 RRR
METAR EGNC 080850Z 26012KT 9999 SCT030 SCT045 15/11 Q1015=
METAR COR EGXT 080850Z 23011KT 9999 -RA FEW020 BKN090 BKN120 17/10
      Q1018 NOSIG=
METAR LFBA 080900Z 11008KT CAVOK 26/16 Q1018 NOSIG=
METAR LFBE 080900Z 06007KT 030V090 CAVOK 26/18 Q1018 NOSIG=
METAR LFBY 080900Z 11006KT 070V140 CAVOK 28/19 Q1016=
METAR LFGJ 080900Z AUTO 22005KT 160V280 9999NDV NSC 25/15 Q1021=
METAR LFHP 080900Z VRB02KT CAVOK 24/15 Q1023=
METAR LFLD 080900Z 11005KT 060V150 CAVOK 27/14 Q1019=
METAR LFLM 080900Z VRB03KT CAVOK 26/13 Q1021=
METAR LFLQ 080900Z VRB02KT CAVOK 27/13 Q1020=
METAR LFLV 080900Z VRB02KT CAVOK 26/16 Q1020=
METAR LFLW 080900Z 15006KT 110V190 CAVOK 26/12 Q1022=
METAR LFMD 080900Z AUTO 17006KT 130V200 9999NDV NSC 29/21 Q1020=
METAR LFMH 080900Z 15004KT 090V220 CAVOK 26/13 Q1021 NOSIG=
METAR LFOT 080900Z AUTO 11004KT 050V160 9999NDV NSC 28/11 Q1019=
METAR LFOW 080900Z 20005KT 160V240 CAVOK 26/13 Q1019=
METAR LFPN 080900Z VRB05KT CAVOK 28/12 Q1019 NOSIG=
METAR LFQB 080900Z 14004KT 090V210 CAVOK 29/11 Q1019=
METAR LFQG 080900Z 14006KT 080V200 CAVOK 26/16 Q1019=
METAR LFRC 080900Z AUTO VRB03KT 9999NDV BKN014 19/15 Q1019=
METAR LFRI 080900Z 15004KT 090V190 CAVOK 28/13 Q1018 NOSIG=
METAR LFRJ 080900Z AUTO 05004KT 020V110 9999NDV BKN012/// 20/16 Q1019=
METAR LFRK 080900Z 32005KT 260V030 CAVOK 24/14 Q1019 NOSIG=
METAR LFRL 080900Z 04005KT 010V080 9999 FEW013 BKN230 20/16 Q1019=
METAR LFRM 080900Z 13003KT 080V170 CAVOK 27/15 Q1018=
METAR LFXA 080900Z VRB02KT CAVOK 27/14 Q1021=
METAR LPAZ 080900Z VRB02KT 9999 FEW008 BKN016 BKN030 20/19 Q1024=
METAR LPFL 080900Z 20006KT 9999 FEW023 BKN045 22/17 Q1022=
METAR LPHR 080900Z 21003KT 180V240 9999 FEW016 SCT035 22/19 Q1023=
####018001687####
SANA35 KAWN 080900 RRC
METAR KNGU 080859Z 12003KT 5SM BR BKN130 26/24 A2996 RMK AO2 SLP146
      T02560239 55003=
METAR KNJM 080857Z AUTO 01005KT 10SM CLR 26/20 A2990 RMK AO2 SLP130
      T02610200 56005 $=
METAR MKJP 080900Z 09011KT 9999 SCT020 BKN220 27/19 Q1012=
METAR MKJS 080900Z 00000KT 9999 FEW022 25/22 Q1012=
METAR MMVR 080846Z 24005KT 7SM BKN012CB OVC080 23/23 A2980 RMK SLP079
      57005 917 61575 8/96/ INTMT +RA OCNL LTGICCG ALQDS VRB COND=
METAR MYNN 080900Z 00000KT 9999 SCT015 26/26 A2993=
METAR SAWH 080900Z 25004KT 9999 FEW040 BKN100 01/M01 Q0985=
METAR SCAR 080900Z 26001KT 9999 OVC023 15/09 Q1016=
METAR SCBA 080900Z AUTO 27009KT CAVOK M01/M03 Q0999=
METAR SCDA 080900Z 01009KT 9999 OVC026 14/08 Q1017=
METAR SCDA 080900Z 01009KT 9999 OVC026 15/08 Q1017=
METAR SCEL 080900Z 00000KT 4000 BR BKN130 03/01 Q1021 NOSIG=
METAR SCFA 080900Z 08005KT 9999 OVC015 12/08 Q1015=
METAR SCIE 080900Z 31011KT 5000 -SHRA BKN005 OVC020 13/11 Q1019=
METAR SCTE 080900Z 30008KT 6000 VCSH BKN030 09/07 Q1007 NOSIG=
METAR SKBQ 080900Z 15004KT 3000 BR SCT002 25/25 A2987 RMK APRSM=
METAR SKCG 080900Z VRB02KT 9999 FEW012 BKN070 26/25 A2987=
METAR SPHI 080900Z 17008KT CAVOK 15/13 Q1014 RMK PP000=
METAR SPQU 080900Z 00000KT CAVOK 06/M09 Q1024 RMK PP000=
METAR SPRU 080900Z 16006KT 6000 OVC016 16/13 Q1013 RMK BIRD HAZARD
      RWY20 PP000=
METAR SPSO 080900Z 00000KT 8000 SCT014 12/10 Q1013 RMK PP000=
METAR TFFF 080900Z AUTO 08010KT 9999NDV FEW012/// SCT025/// 28/24 Q1013=
METAR TFFR 080900Z 00000KT 9999 FEW021 25/24 Q1014 NOSIG=
METAR TTPP 080900Z 00000KT 8000 -SHRA VCSH FEW016 SCT036 BKN280 26/25
      Q1011 TEMPO SHRA=
####018000123####
SABE31 TXKF 080855
METAR TXKF 080855Z 16013KT 9999 VCSH SCT013TCU BKN042
BKN170 BKN300 25/22 Q1018 RMK TCU W-NW
/=
####018001663####
SAUS72 KWBC 080900
METAR
KABI 080852Z 12005KT 10SM CLR 22/21 A3004=
KABQ 080856Z 08012KT 10SM BKN130 BKN200 20/09 A3025=
KABY 080853Z 00000KT 10SM CLR 22/20 A3003=
KACT 080851Z 09004KT 10SM BKN014 26/23 A2998=
KAEX 080853Z AUTO 00000KT 10SM CLR 24/23 A2999=
KAFW 080853Z 15003KT 10SM FEW017 BKN021 26/23 A2999=
KAHN 080851Z AUTO 00000KT 8SM CLR 22/19 A3002=
KALI 080853Z AUTO 01007KT 10SM FEW036 BKN048 BKN095 26/24
     A2983=
KAMA 080853Z 02005KT 1SM -RA SCT020 SCT080 OVC110 17/16 A3018=
KANB 080853Z AUTO 00000KT 9SM CLR 22/21 A3004=
KAPF 080853Z AUTO 04005KT 10SM CLR 25/23 A2995=
KATL 080852Z 00000KT 10SM CLR 24/19 A3004=
KAUS 080853Z 05005KT 10SM BKN016 BKN021 OVC033 26/23 A2995=
KBFM 080853Z 00000KT 8SM CLR 24/23 A3003=
KBHM 080853Z 00000KT 9SM CLR 24/22 A3005=
KBNA 080853Z 00000KT 10SM BKN085 25/22 A3007=
KBPT 080853Z 09011KT 10SM FEW024 26/24 A2994=
KBQK 080857Z AUTO 26004KT 10SM CLR 22/22 A3000=
KBRO 080853Z 33005KT 10SM FEW016 SCT022 27/26 A2977=
KCEW 080853Z AUTO 00000KT 6SM BR CLR 21/21 A3003=
KCHA 080853Z 00000KT 10SM CLR 23/19 A3005=
KCLL 080853Z 06005KT 10SM CLR 26/23 A2995=
KCNM 080853Z AUTO 00000KT 5SM RA BR OVC007 20/19 A3012=
KCRP 080851Z 03013G19KT 3SM +TSRA BR FEW010 BKN018CB OVC047 26/25
     A2983=
KCSG 080851Z 00000KT 10SM CLR 25/20 A3002=
KCSV 080853Z AUTO 00000KT 8SM CLR 21/17 A3013=
KDAL 080853Z 16007KT 10SM FEW014 OVC230 26/23 A2999=
KDFW 080853Z 15005KT 10SM SCT019 SCT090 BKN220 26/23 A2998=
KDHN 080853Z AUTO 00000KT 10SM CLR 23/22 A3006=
KDLF 080855Z AUTO 29003KT 10SM CLR 24/23 A2995=
KDMN 080853Z AUTO 05012G19KT 10SM -RA SCT060 21/13 A3012=
####018000153####
SAUS44 KCRP 080906
MTRCRP
SPECI KCRP 080905Z 05006KT 9SM -TSRA FEW009 SCT021CB BKN055 26/24 
A2982 RMK AO2 OCNL LTGIC NE NW TS NE NW MOV W P0039
####018001697####
SAUS72 KWBC 080900 RRA
METAR
KELP 080851Z 35012KT 10SM FEW060 SCT080 BKN100 22/15 A3011=
KESF 080853Z AUTO 00000KT 7SM FEW013 23/22 A3001=
KEYW 080853Z AUTO 07004KT 10SM CLR 28/25 A2992=
KFLL 080853Z 07006KT 10SM FEW020 28/24 A2991=
KFSM 080853Z AUTO 02003KT 10SM OVC034 24/22 A3002=
KFTW 080853Z 14008KT 10SM FEW014 25/23 A2998=
KFTY 080853Z 00000KT 9SM CLR 21/18 A3003=
KGGG 080853Z AUTO 10003KT 10SM CLR 24/24 A3001=
KGLS 080852Z AUTO 11018G24KT 10SM FEW024 SCT031 28/23 A2990=
KGNV 080853Z AUTO 00000KT 1/2SM FG VV001 19/18 A3000=
KGPT 080853Z AUTO 00000KT 8SM CLR 26/24 A3000=
KGUP 080853Z AUTO 09003KT 10SM BKN110 18/06 A3025=
KGWO 080853Z AUTO 00000KT 10SM CLR 22/22 A3005=
KHOT 080853Z AUTO 00000KT 10SM OVC010 24/23 A3005=
KHOU 080853Z 10007KT 10SM FEW030 BKN130 BKN250 27/23 A2991=
KHRL 080852Z AUTO 34004KT 8SM -RA SCT019 BKN024 BKN030 26/26
     A2978=
KHRO 080853Z AUTO 16003KT 4SM BR FEW090 22/21 A3006=
KHSV 080853Z 00000KT 10SM CLR 24/23 A3005=
KIAH 080853Z 05006KT 8SM FEW020 SCT035 BKN130 26/24 A2993=
KINK 080853Z AUTO 03004KT 10SM BKN095 22/19 A3005=
KJAN 080854Z 00000KT 10SM CLR 24/22 A3004=
KJAX 080856Z 00000KT 9SM CLR 19/19 A2999=
KJBR 080853Z AUTO 00000KT 10SM CLR 25/23 A3004=
KLBB 080853Z 35008KT 10SM FEW010 SCT080 BKN120 OVC150 21/18
     A3013=
KLCH 080853Z AUTO 08006KT 10SM CLR 26/23 A2997=
KLFT 080853Z AUTO 07003KT 10SM CLR 25/23 A2999=
KLIT 080853Z 00000KT 7SM CLR BKN150 24/23 A3005=
KLRD 080856Z AUTO 03006KT 10SM BKN012 OVC017 27/25 A2989=
KLRU 080851Z AUTO 04008KT 10SM BKN120 19/15 A3016=
KMAF 080853Z AUTO 00000KT 10SM OVC110 22/20 A3007=
KMCO 080853Z 36003KT 10SM FEW120 22/21 A2999=
####018001667####
SAUS72 KWBC 080900 RRB
METAR
KMEI 080858Z AUTO 00000KT 10SM FEW110 23/22 A3004=
KMEM 080853Z 00000KT 10SM FEW250 25/22 A3006=
KMFE 080853Z AUTO 36007KT 10SM SCT006 SCT017 26/24 A2980=
KMIA 080853Z 03004KT 10SM FEW030 SCT250 28/24 A2992=
KMKL 080853Z AUTO 00000KT 10SM CLR 22/21 A3007=
KMLB 080853Z AUTO 00000KT 10SM CLR 22/21 A2997=
KMLC 080853Z AUTO 16003KT 10SM FEW013 24/23 A3002=
KMLU 080853Z AUTO 00000KT 9SM CLR 25/23 A3003=
KMOB 080856Z 00000KT 8SM CLR 24/23 A3003=
KMSL 080853Z AUTO 00000KT 10SM FEW065 23/22 A3007=
KMSY 080853Z 00000KT 10SM FEW016 SCT250 27/23 A3000=
KNEW 080853Z AUTO 12003KT 10SM FEW015 27/25 A3000=
KNGP 080856Z AUTO 11011KT 10SM FEW018 BKN050 28/26 A2980=
KOKC 080852Z 33005KT 10SM SCT027 BKN050 BKN150 23/22 A3004=
KPBI 080853Z 06004KT 10SM SCT023 BKN035 BKN250 28/24 A2992=
KPDK 080853Z AUTO 00000KT 10SM CLR 22/19 A3004=
KPFN NIL=
KPIE 080853Z AUTO 10003KT 10SM CLR 24/21 A2998=
KPNS 080853Z AUTO 00000KT 7SM CLR 24/23 A3001=
KROW 080851Z AUTO 01005KT 10SM -RA FEW070 OVC100 20/16 A3016=
KRSW 080853Z 04004KT 10SM CLR 24/22 A2995=
KSAT 080853Z 06005KT 7SM -RA BKN014 BKN040 BKN250 26/23 A2995=
KSFB NIL=
KSHV 080856Z 11003KT 10SM SCT180 BKN280 24/24 A3001=
KSJT 080851Z AUTO 00000KT 10SM CLR 22/20 A3001=
KSRQ 080853Z 07005KT 10SM CLR 23/22 A2996=
KSSI 080853Z AUTO 26005KT 10SM CLR 23/21 A2999=
KTCC 080853Z AUTO 36007KT 10SM SCT011 BKN090 OVC120 18/16
     A3022=
KTCL 080853Z AUTO 00000KT 5SM BR CLR 24/23 A3003=
KTCS 080853Z AUTO 06005KT 10SM -RA BKN095 OVC110 19/16 A3020=
KTLH 080853Z 09004KT 10SM CLR 23/22 A3001=
KTPA 080853Z 00000KT 10SM CLR 24/21 A2998=
####018000085####
SAIR33 OIII 080200 RRA
METAR OIBP 080200Z 00000KT 2500 HZ SKC 28/23 Q1000 A2953=
####018000829####
SAUS20 KNKA 080906
SPECI KBJJ 080905Z AUTO 00000KT 1 3/4SM BR CLR 18/17 A3010 RMK AO2=
SPECI KBOS 080905Z 16004KT 10SM SCT019 22/19 A3007 RMK AO2=
METAR KFYJ 080904Z AUTO 00000KT 3SM SCT120 26/24 A2998 RMK AO1=
SPECI KGOK 080905Z AUTO 01003KT 10SM BKN025 OVC050 23/22 A3004 RMK 
    AO2=
METAR KHDC 080905Z AUTO 07003KT 10SM CLR 26/26 A3002 RMK AO2=
SPECI KLAR 080905Z AUTO 28003KT 9SM SCT005 BKN017 08/08 A3039 RMK 
    AO2=
SPECI KRHI 080905Z AUTO 00000KT 10SM SCT003 18/18 A3002 RMK AO2=
SPECI KRVS 080905Z 00000KT 5SM VCTS RA BR BKN015 BKN065 OVC090 23/23 
    A3001 RMK AO2 LTG DSNT ALQDS TSB0859 P0004=
SPECI KRWL 080905Z AUTO 06008KT 3SM BR SCT001 08/07 A3038 RMK AO2=
METAR KTNB 080904Z AUTO 00000KT 7SM CLR 16/14 A3020 RMK AO2=
METAR KVDI 080904Z AUTO 00000KT 10SM CLR 22/21 A3000 RMK AO1=
####018000368####
SAUS72 KWBC 080900 CCA
METAR
KBTR 080853Z 07003KT 7SM FEW013 SCT200 24/23 A2999=
KDAB 080853Z 00000KT 10SM CLR 21/19 A2999=
KMCN 080853Z AUTO 00000KT 10SM CLR 21/20 A3002=
KMGM 080853Z 24004KT 10SM CLR 24/23 A3002=
KTRI 080853Z 00000KT 6SM BR CLR 21/19 A3010=
KTUP 080853Z AUTO 00000KT 10SM CLR 24/22 A3005=
KTYS 080853Z 00000KT 9SM CLR 24/19 A3006=
####018000686####
SAUS72 KWBC 080900 RRC
METAR
KTUL 080853Z 35004KT 6SM -TSRA BR SCT008 BKN060 OVC075 23/22
     A3000=
KTXK 080853Z AUTO 00000KT 6SM BR OVC003 23/23 A3003=
KTYR 080853Z AUTO 16003KT 9SM CLR 24/24 A3002=
KVCT 080851Z AUTO 07012G18KT 8SM FEW011 BKN050 OVC070 26/25
     A2988=
KVLD 080853Z AUTO 00000KT 7SM CLR 19/18 A3001=
KVRB 080853Z AUTO 00000KT 10SM FEW030 23/21 A2996=
TIST 080853Z AUTO 08005KT 10SM CLR 28/24 A2997=
TISX 080853Z 08008KT 10SM CLR 27/24 A2996=
TJBQ NIL=
TJMZ NIL=
TJPS 080850Z 05005KT 8/SM FEW030 24/23 A2997=
TJPS 080850Z 05005KT 8`SM FEW030 24/23 A2997=
TJSJ 080856Z 00000KT 10SM FEW022 SCT035 27/24 A2998=
TKPK NIL=
TNCM NIL=
####018000352####
SAUS99 KWBC 080907
METAR
KHRT 080855Z AUTO 00000KT 10SM CLR 23/23 A3000 RMK AO2 SLP162
     T02330232 56008 $=
KFYJ 080904Z AUTO 00000KT 3SM SCT120 26/24 A2998 RMK AO1=
KHDC 080905Z AUTO 07003KT 10SM CLR 26/26 A3002 RMK AO2=
KTNB 080904Z AUTO 00000KT 7SM CLR 16/14 A3020 RMK AO2=
KVDI 080904Z AUTO 00000KT 10SM CLR 22/21 A3000 RMK AO1=
####018000796####
SPUS99 KWBC 080907
SPECI
KEKQ 080903Z AUTO 00000KT 2SM BR CLR 19/18 A3010 RMK AO2=
KGNV 080903Z AUTO 00000KT 1 3/4SM BR SCT001 20/19 A3000 RMK
     AO2=
KMPV 080904Z AUTO 00000KT 2SM BR CLR 20/19 A3011 RMK AO2=
KVAY 080904Z AUTO 00000KT 1/4SM FG VV005 23/23 A3001 RMK AO2=
KBJJ 080905Z AUTO 00000KT 1 3/4SM BR CLR 18/17 A3010 RMK AO2=
KBOS 080905Z 16004KT 10SM SCT019 22/19 A3007 RMK AO2=
KGOK 080905Z AUTO 01003KT 10SM BKN025 OVC050 23/22 A3004 RMK
     AO2=
KLAR 080905Z AUTO 28003KT 9SM SCT005 BKN017 08/08 A3039 RMK
     AO2=
KRHI 080905Z AUTO 00000KT 10SM SCT003 18/18 A3002 RMK AO2=
KRVS 080905Z 00000KT 5SM VCTS RA BR BKN015 BKN065 OVC090 23/23
     A3001 RMK AO2 LTG DSNT ALQDS TSB0859 P0004=
KRWL 080905Z AUTO 06008KT 3SM BR SCT001 08/07 A3038 RMK AO2=
####018000205####
SAEW36 LEMM 080900
METAR GCHI 080900Z 03012KT 340V080 9999 SCT013 OVC020 21/19 Q1018=
METAR GCLA 080900Z 02012KT 350V050 9999 BKN020 22/17 Q1019=
METAR GEML 080900Z 07006KT 010V110 CAVOK 25/20 Q1017=
####018000083####
SAGB20 GBYD 080900

METAR GBYD 080900Z VRB03KT 9999 SCT011 SCT120 28/25 Q1012=
####018000360####
SAEW34 LEMM 080900
METAR LEBA 080900Z 30003KT 240V350 9999 FEW050 29/14 Q1015=
METAR LEDA 080900Z 10005KT 040V180 CAVOK 30/15 Q1020=
METAR LEJR 080900Z VRB02KT CAVOK 25/19 Q1016=
METAR LELL 080900Z 25003KT 160V330 CAVOK 29/13 Q1019=
METAR LEPP 080900Z 27001KT 9999 FEW060 29/15 Q1019=
METAR LEXJ 080900Z 26004KT 220V340 6000 SCT015 SCT020 24/20 Q1016=
####018000068####
SABZ24 SBCR 080900
METAR SBCR 080900Z 16007KT CAVOK 23/15 Q1013=
####018000206####
SAEW36 LEMM 080900
METAR GCHI 080900Z 03012KT 340V080 9999 SCT013 OVC020 21/19 Q1018=
METAR GCLA 080900Z 02012KT 350V050 9999 BKN020 22/17 Q1019=
METAR GEML 080900Z 07006KT 010V110 CAVOK 25/20 Q1017=
####018001672####
SAUS73 KWBC 080900
METAR
KABR 080853Z AUTO 21003KT 10SM CLR 15/14 A3012=
KALN NIL=
KALO 080854Z AUTO 30006KT 9SM CLR 19/19 A3003=
KAPN 080854Z AUTO 15004KT 4SM BR CLR 19/19 A2998=
KASE 080853Z 33004KT 5SM -RA BR SCT032 OVC060 08/07 A3047=
KATY 080853Z AUTO 23007KT 10SM CLR 16/13 A3014=
KAXN 080853Z AUTO 22005KT 10SM CLR 16/14 A3011=
KAZO 080853Z AUTO 00000KT 5SM BR CLR 23/21 A3004=
KBDE 080853Z AUTO 00000KT 10SM CLR 15/13 A2999=
KBFF 080853Z AUTO 00000KT 10SM OVC085 16/14 A3029=
KBIS 080852Z AUTO 00000KT 10SM CLR 13/10 A3013=
KBJC 080857Z AUTO 21005KT 3SM BR CLR 13/12 A3033=
KBKF 080855Z 16005KT 7SM BKN010 BKN060 14/14 A3033=
KBRL 080853Z AUTO 10SM FEW001 22/22 A3002=
KBTL 080853Z AUTO 00000KT 9SM FEW060 23/21 A3005=
KCGI 080853Z AUTO 00000KT 8SM CLR 24/23 A3003=
KCID 080852Z AUTO 32004KT 10SM CLR 20/19 A3002=
KCIU 080855Z AUTO 21005KT 7SM OVC120 19/18 A2995=
KCMI 080853Z AUTO 00000KT 5SM BR FEW050 SCT075 BKN110 23/22
     A3004=
KCMX 080853Z AUTO 32004KT 9SM FEW002 SCT016 BKN060 18/18 A2998=
KCOS 080854Z 23004KT 9SM FEW029 OVC085 13/12 A3039=
KCOU 080854Z AUTO 31003KT 8SM -RA BKN003 BKN070 23/22 A3004=
KCPR 080853Z AUTO 00000KT 10SM CLR 04/04 A3034=
KCYS 080853Z AUTO 11004KT 6SM BR OVC004 12/12 A3036=
KDDC 080852Z AUTO 01007KT 6SM BR CLR 18/17 A3017=
KDEC 080854Z AUTO 00000KT 10SM FEW075 25/22 A3003=
KDEN 080853Z 16005KT 4SM BR BKN024 BKN100 14/14 A3032=
KDET 080853Z 00000KT 9SM CLR 25/21 A3003=
KDLH 080855Z 30006KT 10SM CLR 16/14 A3004=
KDSM 080854Z 35006KT 10SM CLR 22/19 A3007=
KDTW 080853Z 22004KT 5SM HZ FEW150 24/21 A3003=
KEAU 080856Z AUTO 28003KT 10SM CLR 19/18 A3001=
####018000312####
SAAG01 SABM 080900 RRA
METAR SABE 080900Z  27010KT CAVOK 09/M02 Q1019=
METAR SARI 080900Z  23004KT 8000  SKC  15/15 Q1018=
METAR SASA 080900Z 36004KT 9999 FEW025 BKN100 11/08 Q 1020=
METAR SASJ 080900Z  32003KT 9999  FEW040  09/07
Q1018=
METAR SAZS 080900Z  32017KT 4000 +RA BKN008  02/01
Q1005=
####018001699####
SAUS73 KWBC 080900 RRA
METAR
KEGE 080855Z 07007KT 10SM CLR 10/09 A3039=
KELO 080853Z AUTO 00000KT 10SM CLR 13/13 A3002=
KEVV 080854Z AUTO 00000KT 10SM SCT080 25/22 A3005=
KFAR 080853Z 21003KT 10SM CLR 16/12 A3006=
KFNT 080853Z AUTO 00000KT 8SM CLR 23/21 A3003=
KFSD 080856Z 00000KT 10SM CLR 16/14 A3015=
KFWA 080854Z 24004KT 10SM CLR 23/21 A3006=
KGCK 080854Z AUTO 04009KT 10SM FEW043 SCT070 18/17 A3020=
KGFK 080853Z 25005KT 10SM CLR 15/13 A3003=
KGJT 080853Z AUTO 10009KT 10SM CLR 21/06 A3016=
KGRB 080853Z AUTO 00000KT 4SM BR CLR 21/19 A2996=
KGRI 080853Z AUTO 32006KT 10SM CLR 15/14 A3019=
KGRR 080853Z AUTO 00000KT 5SM BR BKN070 OVC085 24/22 A3004=
KGYY NIL=
KHIB 080853Z AUTO 00000KT 1/2SM FG OVC001 09/09 A3005=
KHON 080855Z AUTO 23005KT 10SM CLR 16/13 A3014=
KHUF 080853Z 13003KT 7SM FEW060 SCT070 BKN110 24/22 A3004=
KHUT 080852Z AUTO 35005KT 10SM FEW011 SCT021 21/20 A3012=
KICT 080853Z 05003KT 10SM SCT080 OVC200 22/20 A3008=
KIKK NIL=
KIND 080854Z 18003KT 9SM BKN085 OVC110 26/20 A3003=
KINL 080855Z AUTO 22003KT 10SM FEW090 12/11 A3000=
KIRK 080855Z AUTO 34003KT 4SM BR SCT095 19/19 A3006=
KJAC 080855Z AUTO 36006KT 10SM CLR 09/M01 A3033=
KJLN 080853Z 13004KT 2 1/2SM RA BR SCT005 SCT014 OVC026 23/23
     A3004=
KJMS 080856Z AUTO 23003KT 10SM CLR 13/13 A3009=
KJXN 080856Z 00000KT 7SM CLR 21/21 A3004=
KLAN 080853Z 00000KT 7SM SCT110 24/22 A3003=
KLAR 080853Z AUTO 29004KT 7SM FEW003 SCT017 08/07 A3039=
KLBF 080853Z AUTO 00000KT 10SM BKN065 OVC080 17/16 A3024=
KLBL 080855Z 06010KT 10SM BKN035 OVC042 19/17 A3021=
KLEX 080854Z AUTO 00000KT 5SM HZ CLR 22/18 A3008=
KLNK 080854Z AUTO 34005KT 10SM CLR 18/17 A3015=
####018001671####
SAUS73 KWBC 080900 RRB
METAR
KLOU 080853Z AUTO 00000KT 6SM HZ CLR 24/21 A3005=
KLOZ 080853Z AUTO 00000KT 3SM BR CLR 20/19 A3009=
KLSE 080853Z AUTO 00000KT 10SM CLR 21/19 A3001=
KMBS 080853Z 22005KT 10SM CLR 24/22 A3001=
KMCI 080853Z 28003KT 10SM FEW041 BKN130 23/22 A3006=
KMDW 080851Z 00000KT 7SM -RA FEW015 BKN060 OVC095 24/22 A3002=
KMHK 080852Z AUTO 33003KT 10SM BKN120 21/20 A3009=
KMKC 080854Z 32003KT 10SM CLR 23/21 A3004=
KMKE 080852Z 16005KT 7SM -RA BKN080 OVC100 23/22 A3000=
KMKG 080855Z 23003KT 5SM BR SCT060 BKN120 23/22 A3004=
KMLI 080852Z 00000KT 9SM BKN009 23/22 A3001=
KMOT 080854Z AUTO 21007KT 10SM CLR 14/12 A3008=
KMSN 080853Z 00000KT 10SM FEW007 OVC110 22/21 A2999=
KMSP 080853Z 29003KT 10SM FEW090 18/17 A3007=
KOFF 080855Z AUTO 35005KT 10SM CLR 20/20 A3011=
KOMA 080852Z 34007KT 10SM FEW019 SCT130 20/19 A3012=
KORD 080851Z 00000KT 10SM FEW038 BKN080 OVC100 23/22 A3002=
KOSH 080853Z AUTO 22003KT 9SM FEW006 22/21 A2997=
KOTM 080853Z AUTO 32004KT 5SM BR CLR 21/20 A3004=
KOWB 080856Z AUTO 00000KT 10SM BKN065 26/23 A3005=
KPAH 080853Z AUTO 00000KT 10SM CLR 23/22 A3003=
KPIA 080854Z 18003KT 4SM BR BKN012 BKN045 BKN100 23/22 A3002=
KPIR 080853Z AUTO 21005KT 10SM CLR 14/13 A3016=
KPLN 080854Z AUTO 00000KT 10SM OVC110 21/21 A2997=
KPTK 080853Z 00000KT 7SM SCT250 24/22 A3003=
KPUB 080853Z AUTO 00000KT 10SM BKN038 OVC050 16/13 A3034=
KRAP 080852Z AUTO 29006KT 10SM CLR 12/09 A3025=
KRFD 080854Z 17007KT 8SM FEW009 OVC080 22/21 A3001=
KRKS 080854Z AUTO 08012KT 10SM CLR 10/06 A3033=
KRST 080854Z AUTO 31005KT 9SM CLR 18/18 A3007=
KSAW 080859Z AUTO 29003KT 5SM BR OVC001 18/17 A2997=
####018000088####
SPUS41 KWBC 080907
SPECI
KDOV 080904Z AUTO 00000KT 1 3/4SM BR FEW006 24/24 A2999=
####018000085####
SPUS41 KWBC 080907
SPECI
KDOV 080903Z AUTO 00000KT 1 3/4SM BR CLR 24/24 A2999=
####018000072####
SAKB31 PLCH 080900
METAR PLCH 080900Z 12020KT 20KM SKC 26/24 Q1011 =
####018000907####
SAUS73 KWBC 080900 RRC
METAR
KSBN 080854Z 32008KT 7SM FEW060 23/21 A3005=
KSDF 080856Z 12004KT 7SM CLR 27/21 A3005=
KSDM 080853Z AUTO 00000KT 10SM OVC012 16/13 A2990=
KSGF 080852Z 18003KT 10SM FEW022 BKN035 BKN043 23/22 A3005=
KSLN 080853Z AUTO 33006KT 5SM BR CLR 21/20 A3011=
KSPI 080852Z AUTO 00000KT 10SM FEW055 BKN090 24/23 A3003=
KSTC 080853Z AUTO 00000KT 2SM BR CLR 14/12 A3008=
KSTJ 080853Z AUTO 28003KT 6SM BR FEW120 23/21 A3006=
KSTL 080851Z 25004KT 9SM FEW022 SCT046 SCT090 BKN150 BKN250 26/23
     A3003=
KSTP 080853Z 32005KT 10SM CLR 19/17 A3006=
KSUS 080854Z AUTO 00000KT 10SM FEW050 24/23 A3000=
KSUX 080852Z 32005KT 10SM CLR 17/16 A3015=
KTVC 080853Z AUTO 19003KT 10SM BKN120 23/19 A2997=
KUIN 080854Z AUTO 00000KT 10SM SCT034 SCT049 BKN060 23/22
     A3002=
KWRL 080853Z AUTO 00000KT 10SM CLR 13/04 A3026=
KYIP 080853Z 00000KT 4SM BR CLR 22/21 A3004=
####018000098####
SPUS42 KWBC 080907
SPECI
KCRP 080905Z 05006KT 9SM -TSRA FEW009 SCT021CB BKN055 26/24 A2982=
####018000082####
SPUS42 KWBC 080907
SPECI
KMFE 080904Z AUTO 35008KT 10SM BKN006 26/24 A2980=
####018000093####
SPAU31 AMMC 080907
SPECI YSRI 080906Z AUTO 19006KT 8000NDV // BKN031 OVC039 12/10 Q1027=
####018000096####
SPUS43 KWBC 080907
SPECI
KCMX 080904Z AUTO 30005KT 10SM SCT010 BKN018 BKN060 18/18 A2998=
####018000099####
SPAU31 AMMC 080907
SPECI YSRI 080906Z AUTO 19006KT 8000NDV // BKN031 OVC039 12/10 Q1027=


####018001652####
SAUS74 KWBC 080900
METAR
KACV 080853Z AUTO 00000KT 5SM BR OVC001 10/10 A2996=
KALW 080853Z AUTO 11006KT 10SM CLR 17/08 A2996=
KBFI 080853Z 00000KT 10SM CLR 21/12 A2994=
KBFL 080854Z AUTO 36006KT 10SM CLR 24/11 A2982=
KBIL 080853Z 00000KT 10SM CLR 16/06 A3023=
KBKE 080853Z AUTO 24004KT 10SM CLR 09/07 A3011=
KBLI 080853Z AUTO 00000KT 10SM CLR 16/14 A2996=
KBOI 080853Z 12005KT 10SM CLR 20/07 A3005=
KBTM 080853Z AUTO 00000KT 10SM CLR 07/01 A3031=
KBUR 080853Z 17003KT 8SM OVC009 16/13 A2991=
KBYI 080853Z AUTO 02007KT 10SM CLR 11/03 A3012=
KBZN 080856Z AUTO 18004KT 10SM CLR 10/04 A3026=
KCDC 080853Z AUTO 20003KT 10SM CLR 14/00 A3013=
KCEC 080856Z AUTO 00000KT 2 1/2SM BR OVC003 10/09 A2997=
KCLM 080853Z AUTO A2997=
KCTB 080856Z AUTO 33004KT 10SM CLR 10/06 A3024=
KCXL NIL=
KEKO 080856Z AUTO 28003KT 10SM CLR 17/M05 A3011=
KEUG 080854Z 19009KT 10SM CLR 14/11 A2991=
KFAT 080853Z 31007KT 10SM CLR 23/08 A2981=
KFLG NIL=
KGCN 080854Z AUTO 00000KT 10SM CLR 09/M03 A3023=
KGEG 080853Z 00000KT 10SM CLR 18/08 A3007=
KGGW 080853Z AUTO 28003KT 10SM BKN090 12/09 A3013=
KGTF 080853Z 00000KT 10SM CLR 08/06 A3023=
KHLN 080853Z AUTO 28004KT 10SM CLR 12/04 A3024=
KHQM 080853Z AUTO 00000KT 10SM 18/13 A2992=
KIDA 080853Z AUTO 35008KT 10SM CLR 09/06 A3018=
KIWA 080856Z AUTO 05005KT 10SM CLR 31/04 A2979=
KLAS 080856Z 22010KT 10SM CLR 29/M05 A2980=
KLAX 080853Z 24007KT 10SM OVC012 16/13 A2991=
KLGB 080853Z 33003KT 10SM OVC017 17/13 A2991=
KLMT 080853Z AUTO 21004KT 10SM FEW090 19/10 A3004=
KLVM 080853Z AUTO 26003KT 10SM CLR 06/03 A3028=
KMFR 080853Z AUTO 00000KT 10SM CLR 24/12 A2988=
####018001677####
SAUS74 KWBC 080900 RRA
METAR
KMLS 080853Z AUTO 00000KT 10SM CLR 14/09 A3019=
KMRY 080854Z AUTO 35003KT 10SM OVC010 13/10 A2994=
KMSO 080853Z AUTO 00000KT 10SM CLR 11/06 A3019=
KMYV 080853Z AUTO 17006KT 10SM CLR 18/12 A2982=
KNTD 080856Z AUTO 28008KT 10SM OVC013 15/13 A2990=
KOAK 080853Z 29009KT 10SM OVC011 15/11 A2994=
KOGD 080853Z 17008KT 10SM CLR 20/06 A3009=
KOLM 080854Z AUTO 00000KT 10SM CLR 15/12 A2994=
KONT 080853Z 24004KT 6SM BR OVC010 15/13 A2990=
KOTH 080855Z 25003KT 10SM OVC008 11/08 A3000=
KPAE 080853Z AUTO 02003KT 10SM CLR 20/12 A2997=
KPDX 080853Z 00000KT 10SM CLR 21/15 A2988=
KPHX 080851Z 32008KT 10SM CLR 34/00 A2975=
KPIH 080853Z AUTO 22006KT 10SM CLR 10/01 A3016=
KPMD 080853Z AUTO 19006KT 10SM CLR 18/04 A2990=
KPRB 080853Z AUTO 30003KT 10SM CLR 13/11 A2990=
KPRC 080853Z AUTO 20004KT 10SM CLR 19/04 A3009=
KPSP 080853Z 30004KT 10SM CLR 27/10 A2973=
KRBL 080854Z AUTO 33004KT 10SM CLR 23/17 A2983=
KRDD 080853Z AUTO 01004KT 10SM CLR 24/15 A2983=
KRDM 080856Z AUTO 18003KT 10SM CLR 12/03 A3006=
KRNO 080855Z 03003KT 10SM SCT150 22/04 A3004=
KRNT 080853Z AUTO 12003KT 10SM CLR 19/14 A2994=
KSAC 080853Z 18005KT 10SM CLR 14/10 A2983=
KSAN 080851Z 32006KT 9SM FEW010 OVC015 16/14 A2991=
KSBA 080853Z 00000KT 9SM OVC019 12/11 A2991=
KSBD NIL=
KSBP 080856Z AUTO 29004KT 10SM OVC009 13/11 A2991=
KSCK 080855Z AUTO 32003KT 10SM CLR 16/12 A2984=
KSEA 080853Z 36007KT 10SM CLR 20/11 A2996=
KSFF 080853Z AUTO 00000KT 10SM CLR 14/09 A3006=
KSFO 080856Z 27012KT 10SM BKN008 OVC016 14/11 A2993=
KSHR 080853Z AUTO 33003KT 10SM CLR 08/06 A3026=
KSJC 080853Z AUTO 35003KT 10SM OVC015 15/11 A2992=
####018000589####
SAUS74 KWBC 080900 RRB
METAR
KSLC 080853Z 16005KT 10SM FEW130 19/07 A3008=
KSMF 080853Z 14011KT 10SM CLR 15/11 A2982=
KSMX 080851Z AUTO 00000KT 9SM OVC009 13/11 A2992=
KSNA 080853Z 34003KT 8SM OVC017 18/12 A2991=
KSNS 080853Z AUTO 26005KT 10SM OVC011 13/11 A2993=
KTIW 080853Z AUTO 02004KT 10SM FEW090 22/12 A2994=
KTUS 080853Z 23006KT 10SM CLR 31/07 A2988=
KTVL 080853Z AUTO 00000KT 10SM CLR 12/06 A3016=
KTWF 080853Z AUTO 00000KT 10SM CLR 13/M03 A3012=
KUKI 080856Z AUTO 11003KT 10SM CLR 14/11 A2991=
KYKM 080853Z AUTO 28007KT 10SM CLR 14/07 A3000=
KYUM NIL=
####018000085####
SAIR33 OIII 080300 RRD
METAR OIBP 080200Z 00000KT 2500 HZ SKC 30/24 Q1000 A2954=
####018000085####
SAIR33 OIII 080100 RRA
METAR OIBP 080100Z 00000KT 3000 HZ SKC 30/24 Q0999 A2952=
####018000387####
SACN70 CWAO 080900
PGF SA 0900 AUTO8 M M M 148/14/13/2302/M/ 3001 15MM=
PGH NIL=
PLE NIL=
POY SA 0900 AUTO8 M M M 155/13/12/2806/M/ 3006 49MM=
PQD SA 0900 AUTO8 M M M 139/12/09/2606/M/ 8002 23MM=
PSU NIL=
PYQ SA 0900 AUTO8 M M M 036/11/10/2406/M/ 6008 55MM=
WEX SA 0900 AUTO8 M M M 138/13/12/2605/M/ 5002 17MM=
WJD NIL=
WOO NIL=
WSZ NIL=
XMN NIL=
XWG NIL=

####018000640####
SACN60 CWAO 080900
PAC NIL=
PAF NIL=
PAT NIL=
PAZ NIL=
PBB NIL=
PBD NIL=
PBN NIL=
PCC NIL=
PCI SA 0900 AUTO8 M M M 215/14/09/MMMM/M/ 8006 52MM=
PDA NIL=
PDB NIL=
PDU NIL=
PEB NIL=
PEL NIL=
PET NIL=
PFA NIL=
PFB NIL=
PFM NIL=
PGC NIL=
PGI NIL=
PHA NIL=
PHE NIL=
PHR NIL=
PHU NIL=
PHW NIL=
PIA NIL=
PJT NIL=
PKA NIL=
PKI NIL=
PLA NIL=
PLC NIL=
PLF NIL=
PLG NIL=
PMA NIL=
PMB NIL=
PML NIL=
PMN NIL=
PNS NIL=
PPL NIL=
PRD NIL=
PRF NIL=
PRH NIL=
PRS NIL=
PRW NIL=
PSA NIL=
PSH NIL=
PSL NIL=
PSW NIL=
PTA NIL=
PTC NIL=
PVI NIL=
PWT NIL=

####018001383####
SACN50 CWAO 080900
VAS SA 0900 AUTO8 M M M M/19/06/2202/M/M M 45MM=
VLY SA 0900 AUTO8 M M M 171/18/09/1703/M/ 1021 37MM=
VMO SA 0900 AUTO8 M M M M/M/M/MMMM/M/M M MMMM=
VOA NIL=
VOB SA 0900 AUTO8 M M M 178/17/06/0000/M/ 1006 63MM=
VOC SA 0900 AUTO8 M M M 176/13/09/0000/M/ 2007 17MM=
VOD SA 0900 AUTO8 M M M 179/11/04/0602/M/ 2007 22MM=
VOE NIL=
VOF SA 0900 AUTO8 M M M M/14/06/3502/M/M M 71MM=
VOG NIL=
VOH SA 0900 AUTO8 M M M M/15/02/0504/M/M M 19MM=
VOI NIL=
VOJ SA 0900 AUTO8 M M M M/17/M/0603/M/ M 0MMM=
VOK SA 0900 AUTO8 M M M M/15/06/0502/M/M M 84MM=
VOL NIL=
VOM SA 0900 AUTO8 M M M 141/23/09/3202/M/ 2005 65MM=
VOO SA 0900 AUTO8 M M M 155/15/11/3301/M/ 1008 08MM=
VOP SA 0900 AUTO8 M M M 155/17/12/3401/M/ 3008 66MM=
VOQ SA 0900 AUTO8 M M M 142/18/11/2702/M/ 3008 54MM=
VOU SA 0900 AUTO8 M M M 140/18/10/0402/M/ M 29MM=
VOV SA 0900 AUTO8 M M M M/12/07/0201/M/M M 77MM=
VOW NIL=
VOX NIL=
VOY SA 0900 AUTO8 M M M M/12/07/3302/M/M M 17MM=
VOZ NIL=
VQZ SA 0900 AUTO8 M M M 189/11/09/0301/M/ 1008 16MM=
VSL NIL=
VTS SA 0900 AUTO8 M M M 146/23/09/2301/M/ 1005 91MM=
VWB NIL=
VXS SA 0900 AUTO8 M M M 188/11/09/2203/M/ 3006 75MM=
WFG NIL=
WGP NIL=
WHC SA 0900 AUTO8 M M M M/20/13/MMMM/M/ M 69MM=
WPN SA 0900 AUTO8 M M M M/14/M/0000/M/M M 8MMM=
WPU SA 0900 AUTO8 M M M 198/10/03/3101/M/ 3010 76MM=
ZKA NIL=

####018000112####
SACN86 CWAO 080900
WBE NIL=
WCU NIL=
WNL NIL=
WPO NIL=
WPS NIL=
WSI NIL=
WWX NIL=
WWZ NIL=

####018000145####
SACN63 CWAO 080900
NVQ NIL=
WMT NIL=
XAR SA 0900 AUTO8 M M M 021/07/07/0703/M/ 6004 29MM=
ZEV NIL=
ZFS NIL=
ZHY NIL=
ZSM NIL=

####018001051####
SACN95 CWAO 080900
WTA NIL=
WTD NIL=
WTE NIL=
WTF NIL=
WTG NIL=
WTM NIL=
WTN SA 0900 AUTO8 M M M 158/16/16/0000/M/ 2008 16MM=
WTR NIL=
WTS NIL=
WTT NIL=
WTX NIL=
WTY SA 0900 AUTO8 M M M 144/24/21/2403/M/ 3004 01MM=
WUI NIL=
WUK NIL=
WUS NIL=
WUT NIL=
WUX NIL=
WUY SA 0900 AUTO7 M M M 145/21/19/1303/M/ 6009 41MM=
WVC NIL=
WVF SA 0900 AUTO8 M M M M/24/M/0805/M/M M 7MMM=
WVI NIL=
WVN NIL=
WVO SA 0900 AUTO8 M M M M/12/11/2503/M/ M 06MM=
WVP NIL=
WVQ NIL=
WVT SA 0900 AUTO8 M M M 167/15/09/2703/M/ 8002 75MM=
WVU NIL=
WVV NIL=
WVW SA 0900 AUTO8 M M M 206/09/08/1911+17/M/M PK WND 1917 0859Z
8001 79MM=
WVZ NIL=
WWA SA 0900 AUTO8 M M M 147/20/09/0102/M/ 3011 93MM=
WWB SA 0900 AUTO8 M M M 158/25/21/2305/M/M 6007 52MM=
WWC NIL=
WWE NIL=
WWF NIL=
WWK SA 0900 AUTO8 M M M 152/19/14/0101/M/ 2010 81MM=
WWN NIL=
WWO NIL=
WWP NIL=
WXA SA 0900 AUTO8 M M M 230/04/03/0000/M/ 8002 10MM=
WXB NIL=
WXC NIL=
WXG NIL=
WZW SA 0900 AUTO8 M M M 221/09/05/0602/M/ 3003 97MM=

####018001199####
SACN94 CWAO 080900
WQC SA 0900 AUTO8 M M M 157/14/13/3202/M/ 1009 25MM=
WQD NIL=
WQE NIL=
WQF NIL=
WQH NIL=
WQK SA 0900 AUTO8 M M M M/M/M/MM01/M/M M MMMM=
WQL NIL=
WQM NIL=
WQO NIL=
WQP NIL=
WQQ SA 0900 AUTO8 M M M M/10/10/1902/M/ M 46MM=
WQR NIL=
WQS NIL=
WQU NIL=
WQV NIL=
WQW NIL=
WQY NIL=
WQZ NIL=
WRA NIL=
WRD NIL=
WRE NIL=
WRJ NIL=
WRK NIL=
WRM SA 0900 AUTO8 M M M 208/09/08/1302/M/ 8005 68MM=
WRR NIL=
WRT SA 0900 AUTO8 M M M M/05/05/0000/M/ M 44MM=
WRU NIL=
WRV SA 0900 AUTO8 M M M 192/12/11/2504/M/ 5000 71MM=
WRY SA 0900 AUTO8 M M M 223/09/08/3105/M/ 5000 49MM=
WRZ SA 0900 AUTO8 M M M 150/15/M/3204/M/ 1012 8MMM=
WSB SA 0900 AUTO8 M M M M/21/M/3401/M/ M 9MMM=
WSD SA 0900 AUTO8 M M M 175/18/17/2110/M/ 3005 08MM=
WSF SA 0900 AUTO8 M M M 169/12/12/2808/M/ 1016 88MM=
WSG NIL=
WSK SA 0900 AUTO8 M M M 158/16/11/0202/M/ 1014 03MM=
WSL SA 0900 AUTO8 M M M 181/14/09/2002/M/ 1013 71MM=
WSN SA 0900 AUTO8 M M M 175/20/19/MMMM/M/ 6004 47MM=
WSP SA 0900 AUTO8 M M M 149/14/M/MM01/M/ 3004 0MMM=
WSQ NIL=
WSR NIL=
WST NIL=
WSU NIL=
WSV SA 0900 AUTO8 M M M 214/08/06/MMMM/M/ 1015 04MM=
WSX NIL=
WSY NIL=

####018000113####
SACN31 CWAO 080900 CCA
METAR CYEG 080900Z CCA 19006KT 15SM FEW100 BKN240 13/12 A3011 RMK
AC1CI4 SLP198=

####018000083####
SACN94 CWAO 080800 RRG
WSD SA 0800 AUTO8 M M M 172/18/17/2110/M/ 3003 18MM=

####018000262####
SACN62 CWAO 080900
LWIS CYDL 080900Z AUTO 08002KT 11/05 A3018=
LWIS CYER 080900Z AUTO 17004KT 12/11 A2978=
LWIS CYLH 080900Z AUTO 23002KT 14/13 A2986=
LWIS CZMD 080900Z AUTO 23005KT 130V280 14/14 A2982=
LWIS CZSJ 080900Z AUTO 27002KT 14/13 A2982=

####018000800####
SACN59 CWAO 080900
NLB NIL=
NLD NIL=
NNR NIL=
NPK NIL=
NTK NIL=
PAA NIL=
PAH NIL=
PBA NIL=
PBE NIL=
PBH NIL=
PBL NIL=
PBR NIL=
PBS NIL=
PBT NIL=
PBV NIL=
PCA NIL=
PCM NIL=
PCR NIL=
PEA NIL=
PEH NIL=
PFI NIL=
PFO NIL=
PGE NIL=
PGL NIL=
PIR NIL=
PMR NIL=
PQL NIL=
PQU NIL=
PRA NIL=
PRL SA 0900 AUTO8 M M M M/11/10/MMMM/M/ M 32MM=
PRO NIL=
PRR NIL=
PRY NIL=
PSD NIL=
PSP NIL=
PST NIL=
PSV NIL=
PTH NIL=
PTR NIL=
PTU NIL=
PVA NIL=
PWB NIL=
PXL NIL=
WCT SA 0900 AUTO8 M M M 218/09/08/2606/M/ 7001 26MM=
WLB NIL=
XAK NIL=
XDB NIL=
XFM NIL=
XHD NIL=
XHP NIL=
XMG NIL=
XMO NIL=
XOL NIL=
XPL NIL=
XSC NIL=
XSL NIL=
XSP NIL=
XTH NIL=
XVM NIL=
XVW NIL=
ZMU NIL=
ZOL NIL=
ZPS NIL=

####018000651####
SACN66 CWAO 080900
PIF SA 0900 AUTO8 M M M 129/14/09/2707/M/ 7006 69MM=
PIL SA 0900 AUTO8 M M M 178/10/09/2102/M/ 8001 71MM=
POX SA 0900 AUTO8 M M M 195/10/09/2605/M/ 3001 34MM=
PQW SA 0900 AUTO8 M M M 202/10/08/1904/M/ 1001 90MM=
WBD SA 0900 AUTO8 M M M 190/10/09/3005/M/ 3002 82MM=
WBU SA 0900 AUTO8 M M M 176/10/08/2907/M/ 8002 63MM=
WDC SA 0900 AUTO8 M M M 133/11/08/0702/M/ 5003 94MM=
WEH SA 0900 AUTO8 M M M 217/09/06/1305/M/ 1001 89MM=
WIK NIL=
WKO SA 0900 AUTO8 M M M 211/10/08/2706/M/ 3002 31MM=
WOY SA 0900 AUTO8 M M M 193/09/08/2905/M/ 8001 47MM=
XBK NIL=
ZHB SA 0900 AUTO8 M M M 167/10/09/2503/M/ 4000 27MM=

####018001107####
SACN93 CWAO 080900
WMU NIL=
WMX SA 0900 AUTO8 M M M M/15/10/MMMM/M/ M 81MM=
WMY NIL=
WMZ NIL=
WNC NIL=
WND NIL=
WNE SA 0900 AUTO8 M M M 164/20/17/2316/M/ PK WND 2220 0847Z 3008
33MM=
WNH SA 0900 AUTO8 M M M 158/12/11/3403/M/ 3002 13MM=
WNK NIL=
WNM SA 0900 AUTO8 M M M 196/13/12/MMMM/M/ 1013 57MM=
WNP SA 0900 AUTO8 M M M 186/14/10/0401/M/ 1014 03MM=
WNQ SA 0900 AUTO7 M M M 147/23/21/1303/M/ 3003 50MM=
WNR SA 0900 AUTO8 M M M M/08/03/2501/M/M M 43MM=
WNT NIL=
WNV NIL=
WNX NIL=
WNZ SA 0900 AUTO8 M M M 139/18/14/2404/M/ 5004 06MM=
WOC SA 0900 AUTO8 M M M 150/16/15/1501/M/ 1009 55MM=
WOD SA 0900 AUTO8 M M M 133/18/M/0102/M/ 3002 2MMM=
WOE SA 0900 AUTO8 M M M M/11/07/3406/M/ M 41MM=
WOG NIL=
WOI NIL=
WOJ NIL=
WOK NIL=
WON SA 0900 AUTO8 M M M 191/08/06/0201/M/ 3009 39MM=
WOQ NIL=
WOV NIL=
WOW NIL=
WPA NIL=
WPB NIL=
WPD NIL=
WPE NIL=
WPF SA 0900 AUTO8 M M M 139/16/13/0504/M/ 3006 55MM=
WPG NIL=
WPL NIL=
WPR SA 0900 AUTO8 M M M 188/14/M/0000/M/M 1018 5MMM=
WPZ SA 0900 AUTO8 M M M 193/07/05/3101/M/ 1007 01MM=
WQA NIL=

####018000772####
SACN89 CWAO 080900
WAF NIL=
WAG NIL=
WAQ NIL=
WAS SA 0900 AUTO8 M M M 129/23/10/0430/M/ 8003 00MM=
WAV NIL=
WAY NIL=
WBA NIL=
WBG NIL=
WBJ NIL=
WBL NIL=
WBM NIL=
WBO NIL=
WBS SA 0900 AUTO8 M M M M/24/21/2406/M/M M 80MM=
WBT NIL=
WBY NIL=
WBZ SA 0900 AUTO8 M M M 152/24/21/2503/M/ 3001 54MM=
WCF NIL=
WCG NIL=
WCH NIL=
WCI NIL=
WCJ SA 0900 AUTO8 M M M 145/16/16/0102/M/0004 PCPN 0.2MM PAST HR
5002 37MM=
WCO SA 0900 AUTO8 M M M 149/24/21/1702/M/ 6004 98MM=
WCQ NIL=
WDB NIL=
WDD NIL=
WDE NIL=
WDF NIL=
WDI SA 0900 AUTO8 M M M M/11/11/0000/M/ M 49MM=
WDJ NIL=
WDK NIL=
WDN NIL=
WDP NIL=
WDQ NIL=
WDR SA 0900 AUTO8 M M M M/17/M/1502/M/M M 7MMM=
WDT NIL=
WDU NIL=
WDV NIL=
WDW NIL=
WDZ NIL=

####018000122####
SACN85 CWAO 080900
WBK NIL=
WHO NIL=
WPK SA 0900 AUTO8 M M M 167/16/M/0000/M/ 8004 9MMM=
WWE NIL=
YGS NIL=

####018000677####
SACN98 CWAO 080900
XAF NIL=
XAG NIL=
XAJ NIL=
XBA NIL=
XBR NIL=
XBW NIL=
XCD NIL=
XCP NIL=
XCS NIL=
XDK NIL=
XDP NIL=
XFR NIL=
XHR NIL=
XKI NIL=
XKM NIL=
XLB SA 0900 AUTO8 M M M 212/17/16/1602/M/ 3012 03MM=
XOY NIL=
XPA NIL=
XPC NIL=
XRB NIL=
XRL NIL=
XSE NIL=
XTD SA 0900 AUTO8 M M M 202/18/17/2303/M/ 3007 76MM=
XTO SA 0900 AUTO8 M M M 162/25/23/MMMM/M/ 6006 80MM=
XVN SA 0900 AUTO8 M M M 152/23/21/2105/M/ 6004 43MM=
XWB NIL=
XWM NIL=
XYH NIL=
XZV SA 0900 AUTO8 M M M 174/12/12/1302/M/0003 3005 33MM=
ZKD NIL=
ZLW NIL=
ZMJ NIL=
ZPR NIL=
ZQH NIL=
ZQZ NIL=
ZRP NIL=
ZTB NIL=
ZZJ NIL=
ZZP NIL=

####018000771####
SACN91 CWAO 080900
WGR NIL=
WGT SA 0900 AUTO8 M M M 144/20/16/3607/M/M 3011 00MM=
WGW SA 0900 AUTO8 M M M 232/09/07/0103/M/M 1013 64MM=
WGX NIL=
WGY NIL=
WHA NIL=
WHD NIL=
WHI NIL=
WHL SA 0900 AUTO8 M M M 168/14/M/2405/M/ 1002 3MMM=
WHM SA 0900 AUTO8 M M M M/23/22/2202/M/M M 38MM=
WHQ NIL=
WHT SA 0900 AUTO8 M M M 218/08/04/0902/M/ 1009 44MM=
WHV SA 0900 AUTO8 M M M 159/21/20/1602/M/ 3003 34MM=
WID NIL=
WIG NIL=
WII NIL=
WIJ NIL=
WIN NIL=
WIO NIL=
WIP NIL=
WIS SA 0900 AUTO8 M M M 169/17/17/0000/M/ 4000 37MM=
WIT SA 0900 AUTO8 M M M M/24/20/2803/M/M M 63MM=
WIW NIL=
WIX NIL=
WIY NIL=
WIZ NIL=
WJB SA 0900 AUTO8 M M M M/18/17/0606/M/ M 10MM=
WJC SA 0900 AUTO8 M M M 048/09/08/MM12/M/ 8010 61MM=
WJH NIL=

####018000838####
SACN92 CWAO 080900
WJI NIL=
WJK NIL=
WJL NIL=
WJM NIL=
WJN NIL=
WJO NIL=
WJP NIL=
WJR SA 0900 AUTO8 M M M 200/16/M/2402/M/ 1011 0MMM=
WJT SA 0900 AUTO8 M M M 156/17/16/0401/M/ 8002 92MM=
WJU NIL=
WJV SA 0900 AUTO8 M M M 172/17/08/1109/M/ 1011 54MM=
WJW NIL=
WJX NIL=
WKA NIL=
WKB SA 0900 AUTO8 M M M 195/13/11/1304/M/ 8004 55MM=
WKD NIL=
WKF SA 0900 AUTO8 M M M M/18/M/MMMM/M/ M 4MMM=
WKG NIL=
WKH SA 0900 AUTO8 M M M M/22/M/MMMM/M/M M 1MMM=
WKX NIL=
WLC SA 0900 AUTO8 M M M M/15/M/2005/M/M M 7MMM=
WLE NIL=
WLF SA 0900 AUTO8 M M M 118/13/12/2203/M/ 8009 23MM=
WLG NIL=
WLJ NIL=
WLK NIL=
WLM SA 0900 AUTO8 M M M M/21/09/2404/M/ M 21MM=
WLQ NIL=
WLU NIL=
WLV NIL=
WME NIL=
WMF NIL=
WMI NIL=
WMJ NIL=
WMM SA 0900 AUTO8 M M M 147/15/13/1401/M/ 1010 27MM=
WMQ NIL=

####018000530####
SACN82 CWAO 080900
MAN NIL=
MBR NIL=
MCT NIL=
MCW NIL=
MFM NIL=
MGB NIL=
MHB NIL=
MHN NIL=
MHW NIL=
MIN NIL=
MLA NIL=
MLI NIL=
MLT NIL=
MLU SA 0900 AUTO8 M M M 155/23/22/0000/M/ 3005 83MM=
MMY NIL=
MPD NIL=
MPL NIL=
MQK NIL=
MQP NIL=
MRF NIL=
MRI NIL=
MRU NIL=
MRY NIL=
MSB NIL=
MSC NIL=
MSI SA 0900 AUTO8 M M M 166/23/22/1703/M/ 3002 40MM=
MSR NIL=
MSX NIL=
MTH SA 0900 AUTO8 M M M 164/21/21/1902/M/ 3002 05MM=
MWD NIL=
MYT NIL=
WDM NIL=
WHP NIL=
WQB NIL=

####018000298####
SACN87 CWAO 080900
WEK SA 0900 AUTO8 M M M 160/13/M/1408/M/ 1009 9MMM=
WEQ SA 0900 AUTO8 M M M 166/08/07/1905/M/ 8001 43MM=
WJD NIL=
WLP SA 0900 AUTO8 M M M 166/13/12/3207/M/ 2006 87MM=
WPU NIL=
WRO NIL=
WWL NIL=
WWS NIL=
WZG SA 0900 AUTO8 M M M 232/08/04/0000/M/ 1008 16MM=

####018001724####
SACN46 CWAO 080900
METAR CYBC 080900Z AUTO 08004KT 050V110 1/8SM OVC000 13/13 A3001 RMK
SLP164=
METAR CYBN 080900Z AUTO 00000KT 6SM CLR 20/18 A3003 RMK SLP165=
METAR CYEL NIL=
METAR CYFR NIL=
METAR CYGK NIL=
METAR CYGQ 080900Z 32002KT 10SM -RA OVC060 18/17 A2997 RMK SC8
SLP148=
METAR CYHM 080900Z 21004KT 10SM FEW080 21/21 A3005 RMK AC1 SLP171=
METAR CYKF 080900Z AUTO 00000KT 2SM BR CLR 19/19 A3005 RMK SLP173
 DENSITY ALT 1600FT=
METAR CYKL 080900Z AUTO 17004KT 120V200 9SM BKN074 BKN096 14/12 A2989
RMK SLP129=
METAR CYKZ 080900Z 35003KT 10SM FEW100 23/21 A3003 RMK AC2 SLP166=
METAR CYLD NIL=
METAR CYOO 080900Z AUTO 05002KT 4SM BR SCT091 22/21 A3001 RMK SLP163
 DENSITY ALT 1200FT=
METAR CYPL NIL=
METAR CYQA 080900Z AUTO 00000KT 2 1/2SM BR CLR 19/19 A3003 RMK SLP170
 DENSITY ALT 1400FT=
METAR CYQK 080900Z 26004KT 15SM FEW120 16/12 A2997 RMK AC1 SLP148=
METAR CYRB 080900Z 17007KT 15SM FEW240 10/01 A2978 RMK CI1 SLP089=
METAR CYSB 080900Z 18002KT 3SM BR BKN028 BKN120 21/21 A3001 RMK
SC6AC1 VIS HIER N SLP158=
METAR CYSC 080900Z AUTO 11003KT 3SM BR BKN071 BKN092 21/20 A3003 RMK
 SLP167 DENSITY ALT 1500FT=
METAR CYSN NIL=
METAR CYSP NIL=
METAR CYVO 080900Z AUTO 21004KT 9SM CLR 19/18 A2998 RMK SLP154=
METAR CYVQ 080900Z 00000KT 30SM FEW040 SCT080 SCT270 13/12 A2994 RMK
SC2AC2CI1 SLP139=
METAR CYXL 080900Z 21004KT 15SM FEW070 17/15 A2994 RMK AC1 SLP141=
METAR CYXU 080900Z 00000KT 10SM MIFG SKC 20/19 A3006 RMK SLP174=
METAR CYXZ NIL=
METAR CYYB 080900Z 21004KT 9SM MIFG SCT006 SCT030 BKN110 BKN250 21/20
A3004 RMK SF2SC1AC1CI1 SLP167=
METAR CYYH 080900Z 02005KT 15SM FEW025 BKN040 12/07 A2982 RMK SC1SC5
SLP100=
METAR CYYU NIL=

####018001219####
SACN51 CWAO 080900
METAR CWAE NIL=
METAR CWCA 080900Z 20008KT 15SM FEW030 BKN200 12/08 A3002 RMK SC1CI2
SLP166=
METAR CWCL 080900Z AUTO 00000KT 9SM CLR 11/05 A3015 RMK SLP199=
METAR CWDL NIL=
METAR CWIL 080900Z AUTO 31011KT 05/ A2982 RMK SLP104=
METAR CWKM 080900Z AUTO 26004KT 04/ A3008 RMK SLP190=
METAR CWKW 080900Z AUTO 13011KT 12/ A2976 RMK SLP094=
METAR CWLI 080900Z AUTO ///// 03/ A2995 RMK SLP153=
METAR CWLX 080900Z AUTO 00000KT 14/ A2982 RMK SLP109=
METAR CWLY 080900Z AUTO 18003KT 9SM CLR 18/09 A3004 RMK SLP170=
METAR CWOB 080900Z AUTO ///// 9SM CLR 13/ A2981 RMK SLP121=
METAR CWPX 080900Z AUTO 35013KT 08/ A2984 RMK SLP120=
METAR CWRX 080900Z AUTO 34004KT 07/ A2982=
METAR CWSW NIL=
METAR CWUP 080900Z AUTO 13003KT 13/ A2982 RMK SLP112=
METAR CWUW 080900Z AUTO ///// 9SM FEW089 12/ A2983 RMK SLP124=
METAR CWVH 080900Z AUTO 29018KT 04/ A3001 RMK SLP179=
METAR CWYK 080900Z AUTO ///// 09/ A2983 RMK SLP124=
METAR CWZZ 080900Z AUTO ///// 1/8SM OVC023 OVC037 OVC069 10/ A2980
RMK SLP109=
METAR CZBF 080900Z 00000KT 3/4SM BR VV004 18/18 A3000 RMK FG8 SLP158=
METAR CZCP 080900Z AUTO 16007KT 9SM SCT014 BKN021 OVC055 06/ A2986
RMK SLP119=
METAR CZST NIL=

####018001305####
SACN97 CWAO 080900
XAT NIL=
XBK NIL=
XBO NIL=
XCA SA 0900 AUTO8 M M M 148/16/16/1302/M/0012 PCPN 0.3MM PAST HR
8008 48MM=
XCH NIL=
XCK SA 0900 AUTO7 M M M M/13/M/3503/M/M M 9MMM=
XDE NIL=
XDI SA 0900 AUTO8 M M M 153/20/18/0000/M/ 7004 03MM=
XDW SA 0900 AUTO8 M M M M/14/12/2710/M/ M 32MM=
XEA SA 0900 AUTO8 M M M 132/13/12/1901/M/ 6006 30MM=
XEC NIL=
XEG NIL=
XET NIL=
XFA SA 0900 AUTO8 M M M 163/15/11/2803/M/ 1011 65MM=
XGH NIL=
XHA NIL=
XHF NIL=
XHI NIL=
XIB SA 0900 AUTO7 M M M 177/22/17/2509/M/ 5000 26MM=
XLC NIL=
XLL NIL=
XLT NIL=
XLU NIL=
XMD NIL=
XMI SA 0900 AUTO8 M M M 212/16/16/1806/M/M 3015 36MM=
XMM NIL=
XMP SA 0900 AUTO8 M M M M/M/M/1807/M/ M MMMM=
XMW NIL=
XMY SA 0900 AUTO8 M M M M/18/17/MMMM/M/ M 67MM=
XNM NIL=
XOX SA 0900 AUTO8 M M M 159/12/09/2304/M/ 7003 72MM=
XPV NIL=
XQA NIL=
XQT NIL=
XRH SA 0900 AUTO7 M M M M/14/12/1303/M/ M 52MM=
XSH SA 0900 AUTO7 M M M 146/23/20/3203/M/ 3003 25MM=
XSR SA 0900 AUTO8 M M M 178/16/08/MMMM/M/ 3004 52MM=
XSW SA 0900 AUTO7 M M M M/07/07/1602/M/ M 06MM=
XTL NIL=
XTN NIL=
XTP SA 0900 AUTO8 M M M 225/09/08/1805/M/ 8003 62MM=
XTV NIL=
XVG SA 0900 AUTO8 M M M 162/15/09/1906/M/ 8004 87MM=
XWN NIL=
XZU SA 0900 AUTO8 M M M 187/13/10/2703/M/ 0000 08MM=

####018001644####
SACN47 CWAO 080900
METAR CYAM 080900Z 09004KT 12SM OVC006 20/19 A2994 RMK SF8 SLP136=
METAR CYFT 080900Z 20003KT 15SM FEW020 SCT070 BKN210 15/11 A2992 RMK
SC2AC2CI3 SLP134=
METAR CYGP NIL=
METAR CYGR 080900Z 22011G17KT 15SM BKN040 BKN250 20/16 A3003 RMK
SC7CI1 SLP170=
METAR CYHD 080900Z AUTO 21006KT 9SM FEW047 16/14 A2995 RMK SLP145=
METAR CYHU 080900Z AUTO 24006KT 8SM BKN081 25/21 A2998 RMK SLP152
 DENSITY ALT 1200FT RVR MISG=
METAR CYKO NIL=
METAR CYMO 080900Z AUTO 00000KT 9SM FEW074 18/15 A2986 RMK SLP112=
METAR CYNA 080900Z AUTO 09011KT 9SM OVC006 13/12 A3005 RMK SLP175=
METAR CYND NIL=
METAR CYPQ 080900Z AUTO ///// 7SM CLR 20/20 A3003 RMK SLP167=
METAR CYQT 080900Z 29002KT 15SM BKN055 18/17 A2998 RMK SC6 SLP151=
METAR CYRJ NIL=
METAR CYRL 080900Z 27006KT 12SM OVC014 16/13 A2992 RMK SC7 SLP132=
METAR CYTL 080900Z AUTO 22006KT 9SM CLR 16/14 A2981 RMK SLP100=
METAR CYTS 080900Z 00000KT 15SM SCT058 BKN150 OVC210 19/18 A2993 RMK
SC4AC2CI1 SLP134=
METAR CYTZ 080900Z AUTO VRB02KT 3SM BR CLR 20/19 A3001 RMK SLP161
 DENSITY ALT 700FT RVR MISG=
METAR CYVP 080900Z 28006KT 15SM OVC015 15/13 A2976 RMK SC8 SLP077=
METAR CYVV 080900Z 00000KT 4SM BR SKC 21/19 A3002 RMK SLP163=
METAR CYWA 080900Z AUTO 00000KT 9SM CLR 19/18 A3000 RMK SLP160=
METAR CYXR 080900Z AUTO 14003KT 9SM CLR 19/19 A2995 RMK SLP130=
METAR CYYY 080900Z 00000KT 2SM BR BKN004 OVC009 12/12 A3001 RMK
SF6SF2 SLP164=
METAR CYZE 080900Z AUTO 15004KT 110V170 3/8SM FG VV002 20/20 A2997
 RMK SLP151 DENSITY ALT 1300FT=
METAR CYZR 080900Z AUTO 17003KT 9SM CLR 22/18 A3002 RMK SLP162
 DENSITY ALT 1400FT=

####018001024####
SACN88 CWAO 080900
AAW NIL=
ABB SA 0900 AUTO7 M M M M/18/17/2104/M/M M 64MM=
ABF SA 0900 AUTO8 M M M 213/12/12/1009/M/ 3002 05MM=
ABR NIL=
ABT NIL=
ACP NIL=
ACQ NIL=
ADS NIL=
AFC SA 0900 AUTO8 M M M 180/19/18/1405/M/ 3007 36MM=
AFY NIL=
AHD NIL=
AHK NIL=
AHR NIL=
AHW NIL=
AJT NIL=
AKC SA 0900 AUTO7 M M M M/21/18/MMMM/M/ M 57MM=
AMS NIL=
AOH NIL=
AOS NIL=
APR NIL=
AQY NIL=
ARP SA 0900 AUTO8 M M M 163/19/18/3601/M/ 3011 61MM=
AVA SA 0900 AUTO8 M M M 224/08/08/1617/M/ 8005 46MM=
AWR NIL=
ERM NIL=
WAR NIL=
WBK SA 0900 AUTO8 M M M 188/18/17/1904/M/ 1005 10MM=
WBV SA 0900 AUTO8 M M M 212/15/15/2212/M/M 3003 75MM=
WDA NIL=
WDO NIL=
WHO NIL=
WNS NIL=
WRN SA 0900 AUTO8 M M M 200/16/16/2112/M/M 1006 96MM=
WSS NIL=
WXI NIL=
WZF NIL=
WZN NIL=
WZU SA 0900 AUTO7 M M M M/16/16/1403/M/ M 31MM=
XGD SA 0900 AUTO8 M M M 215/10/09/MMMM/M/ 6003 77MM=
XKT NIL=
XNP NIL=
ZCR NIL=
ZDB NIL=
ZSP SA 0900 AUTO8 M M M 171/20/16/2008/M/ 0001 63MM=

####018002187####
SACN31 CWAO 080900
METAR CYAW NIL=
METAR CYBG 080900Z 05005KT 1 1/2SM BR SCT078 SCT240 19/18 A2998 RMK
AC3CI1 SLP151=
METAR CYCH NIL=
METAR CYEG NIL=
METAR CYFB 080900Z 00000KT 30SM FEW250 09/05 A2981 RMK CI2 SLP097=
METAR CYFC 080900Z AUTO 19009KT 7SM OVC006 19/18 A3006 RMK SLP181
 DENSITY ALT 300FT RVR MISG=
METAR CYGL 080900Z 13005KT 15SM FEW012 FEW030 BKN060 BKN230 18/14
A2991 RMK CU1SC1SC6CI0 DIST SH W SLP132=
METAR CYHZ 080900Z 18007KT 1/2SM R23/3000VP6000FT/D FG SCT250 16/16
A3015 RMK FG2CI1 SLP209=
METAR CYJT 080900Z 06006KT 15SM SCT028 BKN070 18/16 A3008 RMK SC4AC3
SLP186=
METAR CYMX 080900Z 00000KT 10SM FEW080 23/19 A3000 RMK AC1 SLP157=
METAR CYOW 080900Z 25003KT 15SM FEW070 24/20 A3000 RMK AC1 SLP159=
METAR CYQB 080900Z 07005KT 5SM BR BKN005 OVC070 19/17 A3001 RMK
ST6AC2 SLP161=
METAR CYQG 080900Z 23005KT 15SM FEW270 26/21 A3003 RMK CI2 SLP163=
METAR CYQM 080900Z 20007KT 15SM FEW008 FEW075 FEW130 SCT260 17/16
A3006 RMK SF1ACC1AC1CI1 SLP181=
METAR CYQQ 080900Z 29002KT 20SM SKC 21/13 A2997 RMK SLP150=
METAR CYQX 080900Z 15009KT 15SM BKN004 OVC029 10/09 A3015 RMK SF7SC1
SLP215=
METAR CYQY 080900Z 24005KT 15SM BKN120 BKN240 17/16 A3010 RMK AC6CC1
SLP195=
METAR CYTR 080900Z 00000KT 3SM HZ FEW100 22/19 A3001 RMK AC0 SLP162=
METAR CYUL NIL=
METAR CYVR 080900Z 36003KT 30SM SKC 18/12 A2996 RMK SLP147=
METAR CYWG 080900Z 27006KT 15SM FEW078 14/13 A2997 RMK AC1 SLP150=
METAR CYXX NIL=
METAR CYYC 080900Z 21004KT 15SM SCT110 14/09 A3020 RMK AC2 SLP220=
METAR CYYJ 080900Z 23005KT 30SM SKC 15/12 A2996 RMK SLP147=
METAR CYYQ 080900Z 26007KT 15SM FEW060 11/10 A2966 RMK SC1 SLP046=
METAR CYYR 080900Z 18010KT 15SM BKN020 15/12 A2997 RMK SC7 SLP152=
METAR CYYT 080900Z 15005KT 1/4SM R16/3000V6000FT/D R29/1400V3000FT/U
FG VV001 08/08 A3024 RMK FG8 SLP243=
METAR CYYZ 080900Z 27003KT 15SM FEW100 25/23 A3002 RMK AC1 SLP162=
METAR CYZF 080900Z 00000KT 15SM BKN110 BKN210 15/09 A2994 RMK AC4CI1
SLP142=
METAR CYZV 080900Z 14003KT 1/4SM R09/2400FT/N -DZ FG VV002 12/12
A3005 RMK FG8 SLP176=
METAR CYZX 080900Z 00000KT 2SM BR OVC006 17/16 A3013 RMK SF8 WNDY
HILL 22005KT SLP204=

####018000873####
SACN78 CWAO 080900
TAE NIL=
TAG NIL=
TAL NIL=
TBO NIL=
TBT SA 0900 AUTO8 M M M 180/18/18/0802/M/ 6007 31MM=
TCK NIL=
TCW NIL=
TGT NIL=
TKG SA 0900 AUTO8 M M M 161/21/20/0101/M/ 5003 50MM=
TKR SA 0900 AUTO8 M M M 145/16/12/2605/M/ 5006 84MM=
TMS NIL=
TNK NIL=
TPQ NIL=
TRA SA 0900 AUTO8 M M M 143/15/13/2403/M/ 6005 84MM=
TTR SA 0900 AUTO8 M M M 163/19/18/1501/M/ 7008 02MM=
TWL SA 0900 AUTO8 M M M 171/23/21/2102/M/M 6003 62MM=
TWN NIL=
TXR NIL=
TZR NIL=
WAJ SA 0900 AUTO8 M M M 162/25/21/MMMM/M/M 8005 92MM=
WBE SA 0900 AUTO8 M M M 168/19/18/0901/M/ 5011 60MM=
WKK NIL=
WLS NIL=
WNB NIL=
WNL NIL=
WPC NIL=
WPS NIL=
WWX NIL=
XBI NIL=
XRG NIL=
XZC SA 0900 AUTO8 M M M 112/18/15/0000/M/ 6014 91MM=
YLH SA 0900 AUTO M M M 117/14/13/2302/M/M 8010 58MM=
ZEL SA 0900 AUTO8 M M M 178/20/20/0701/M/ 7006 06MM=

####018000915####
SACN90 CWAO 080900
WEA NIL=
WEB NIL=
WEC NIL=
WEE NIL=
WEF NIL=
WEI SA 0900 AUTO8 M M M 186/13/11/2405/M/ 3006 64MM=
WEL SA 0900 AUTO8 M M M M/20/13/2903/M/ M 04MM=
WEO NIL=
WEP SA 0900 AUTO8 M M M 177/18/18/2216+21/M/ PK WND 2121 0847Z 1003
06MM=
WER SA 0900 AUTO8 M M M M/M/M/0415/M/M PK WND 0419 0803Z M MMMM=
WEW NIL=
WEZ SA 0900 AUTO8 M M M 144/19/11/2208/M/ 3008 93MM=
WFE SA 0900 AUTO8 M M M M/15/11/2402/M/ M 88MM=
WFF SA 0900 AUTO8 M M M 189/10/07/2707/M/ 5001 83MM=
WFJ NIL=
WFO NIL=
WFP NIL=
WFQ SA 0900 AUTO7 M M M M/23/22/0000/M/ M 55MM=
WFW SA 0900 AUTO7 M M M 163/14/14/0401/M/ 1009 87MM=
WFX NIL=
WFZ NIL=
WGB SA 0900 AUTO8 M M M 140/22/12/2807/M/ 3006 51MM=
WGD NIL=
WGF SA 0900 AUTO8 M M M M/13/13/0000/M/ M 11MM=
WGH NIL=
WGL SA 0900 AUTO8 M M M 171/23/23/1102/M/M 6005 88MM=
WGM SA 0900 AUTO8 M M M M/07/05/2206/M/ M 94MM=
WGN NIL=

####018001289####
SACN42 CWAO 080900
METAR CYAZ NIL=
METAR CYBL NIL=
METAR CYBV NIL=
METAR CYCP NIL=
METAR CYCQ NIL=
METAR CYDB 080900Z AUTO 00000KT 9SM CLR 11/03 A3010 RMK SLP209=
METAR CYDC NIL=
METAR CYDQ 080900Z AUTO 00000KT 9SM CLR 11/08 A3004 RMK SLP184=
METAR CYEV 080900Z 31012KT 15SM BKN019 07/04 A3005 RMK SC7 SLP180=
METAR CYFO NIL=
METAR CYHE 080900Z AUTO 08007KT 010V100 9SM CLR 20/13 A3000 RMK
SLP160=
METAR CYIV 080900Z 29008KT 12SM BKN037 OVC050 15/14 A2981 RMK SC6SC1
FG SLP101=
METAR CYKY 080900Z 24002KT 15SM FEW150 FEW250 11/11 A3015 RMK AC1CI0
SLP210=
METAR CYMD NIL=
METAR CYPR 080900Z AUTO VRB02KT 9SM CLR 13/12 A3005 RMK SLP176=
METAR CYPS NIL=
METAR CYQD 080900Z 27007KT 15SM FEW070 12/10 A2995 RMK AC1 SLP147=
METAR CYQZ 080900Z AUTO VRB02KT 9SM CLR 11/09 A3008 RMK SLP195=
METAR CYRV 080900Z AUTO 00000KT 6SM CLR 13/11 A3012 RMK SLP199=
METAR CYSE NIL=
METAR CYUA 080900Z AUTO 28008KT 2 5/8SM -UP OVC004 05/ A3009 RMK
SLP193=
METAR CYXC NIL=
METAR CYXE 080900Z 27005KT 15SM FEW250 10/10 A3010 RMK CI1 SLP202=
METAR CYXQ NIL=
METAR CYXS 080900Z AUTO 22003KT 9SM CLR 11/09 A3008 RMK SLP198=
METAR CYZP 080900Z AUTO 26013KT 9SM CLR 16/13 A3007 RMK SLP184=
METAR CYZT 080900Z 00000KT 15SM SKC 14/11 A3003 RMK SLP169=

####018000890####
SACN52 CWAO 080900
METAR CWEU 080900Z 13009KT 40SM FEW150 BKN200 BKN240 13/02 A2968 RMK
AC0CS0CI1 SLP051=
METAR CWFD 080900Z AUTO 03002KT 9SM 11/ RMK ALTM MISG=
METAR CWGZ NIL=
METAR CWKP 080900Z AUTO 23003KT 06/ A2985 RMK SLP134=
METAR CWRH 080900Z AUTO ///// 09/ A2980 RMK SLP113=
METAR CWSA 080900Z AUTO 22007KT 1/8SM VV001 16/16 A3019 RMK SLP225=
METAR CWTU 080900Z AUTO 17019G26KT 10/ A2997 RMK SLP162=
METAR CWWU 080900Z 19005KT 15SM OVC022 11/09 A3023 RMK SC8 SLP238=
METAR CWXR 080900Z AUTO 16009KT 06/ A2990 RMK SLP132=
METAR CWYM 080900Z AUTO 12005KT 12/ RMK ALTM MISG SLP128=
METAR CYPD 080900Z AUTO VRB02KT 9SM FEW200 17/17 A3011 RMK SLP199
 DENSITY ALT 400FT=
METAR CZEM NIL=
METAR CZFM NIL=
METAR CZFN NIL=
METAR CZPC 080900Z AUTO 27008KT 9SM CLR 08/08 A3024 RMK SLP238=
METAR CZUM 080900Z AUTO 00000KT 9SM CLR 13/12 A2992 RMK SLP140=

####018001066####
SACN41 CWAO 080900
METAR CBBC 080900Z AUTO 00000KT 9SM CLR 14/12 A3000 RMK SLP158=
METAR CYBD NIL=
METAR CYCD NIL=
METAR CYCG NIL=
METAR CYDA NIL=
METAR CYGE NIL=
METAR CYKA 080900Z 00000KT 40SM SKC 18/09 A3007 RMK SLP179=
METAR CYLW 080900Z AUTO 01002KT 9SM CLR 12/07 A3006 RMK SLP182=
METAR CYMA 080900Z 00000KT 20SM FEW050 10/08 A3006 RMK SC1 SLP194=
METAR CYOC NIL=
METAR CYPW NIL=
METAR CYQH 080900Z 06004KT 30SM FEW030 FEW090 12/08 A3010 RMK SC1AC1
SLP200=
METAR CYQU 080900Z 00000KT 25SM FEW100 SCT250 15/11 A3005 RMK AC1CI0
SLP179=
METAR CYSD NIL=
METAR CYWL 080900Z 00000KT 15SM SKC 14/07 A3012 RMK SLP194=
METAR CYXJ NIL=
METAR CYXT 080900Z 30006KT 20SM FEW250 19/11 A3006 RMK CI0 SLP180=
METAR CYXY 080900Z 00000KT 40SM FEW120 12/05 A3014 RMK AC1 SLP218=
METAR CYYD 080900Z AUTO VRB02KT 9SM CLR 13/09 A3008=
METAR CYYE NIL=
METAR CYYF 080900Z 00000KT 15SM SKC 15/07 A3006 RMK SLP175=
METAR CYZW NIL=
METAR CYZY 080900Z AUTO 00000KT 9SM CLR 14/09 A3007 RMK SLP186=
METAR CZFA NIL=
METAR CZMT NIL=

####018001712####
SACN43 CWAO 080900
METAR CWHN 080900Z AUTO 25004KT 9SM CLR 13/10 A3003 RMK SLP178=
METAR CWLO NIL=
METAR CYBK 080900Z 01006KT 20SM BKN020 OVC045 09/09 A2970 RMK SC6SC2
SLP060=
METAR CYBR 080900Z 26007KT 15SM FEW240 11/11 A3005 RMK CI0 SLP183=
METAR CYBU NIL=
METAR CYDN 080900Z AUTO 25005KT 9SM CLR 10/09 A3001 RMK SLP167=
METAR CYEN 080900Z 26003KT 15SM FEW040 SCT250 12/10 A3010 RMK SC2CI0
SLP199=
METAR CYET 080900Z AUTO 29003KT 9SM CLR 10/06 A3012 RMK SLP199=
METAR CYGX 080900Z 24006KT 15SM FEW025 12/10 A2977 RMK SC1 SLP086=
METAR CYKJ 080900Z AUTO 26005KT 9SM CLR 10/06 A2991 RMK SLP148=
METAR CYLL 080900Z AUTO 24007KT 9SM CLR 11/10 A3009 RMK SLP198=
METAR CYMM 080900Z AUTO 19003KT 9SM FEW074 FEW090 13/10 A2998 RMK
SLP159=
METAR CYNE 080900Z AUTO 30005KT 260V330 9SM CLR 13/11 A2988 RMK
SLP123=
METAR CYOJ NIL=
METAR CYPA 080900Z 27006KT 15SM FEW100 BKN250 11/09 A3007 RMK AC1CI2
SLP190=
METAR CYPG NIL=
METAR CYPY 080900Z AUTO 27003KT 1 5/8SM CLR 11/11 A2992 RMK VSBY VRBL
0.5V9.0 SLP139=
METAR CYQF 080900Z 20002KT 15SM SCT250 10/07 A3016 RMK CI0 SLP222=
METAR CYQL 080900Z AUTO 00000KT 9SM BKN099 12/11 A3019 RMK SLP219=
METAR CYQR 080900Z 01006KT 15SM BKN250 12/10 A3010 RMK CI1 SLP198=
METAR CYQW 080900Z AUTO 19005KT 9SM CLR 10/09 A3012 RMK SLP212=
METAR CYVC 080900Z 00000KT 15SM FEW040 12/09 A2999 RMK SC1 SLP163=
METAR CYXD 080900Z AUTO 21006KT 9SM CLR 16/12 A3008 RMK SLP189=
METAR CYYL 080900Z AUTO 23007KT 9SM BKN096 OVC110 12/09 A2982 RMK
 SLP109 DENSITY ALT 1200FT=
METAR CYYN 080900Z AUTO 25007KT 9SM CLR 13/11 A3014 RMK SLP205=
METAR CYZH 080900Z AUTO 07002KT 9SM -RA FEW035 FEW042 FEW083 16/13
A3005 RMK SLP181=

####018000538####
SACN49 CWAO 080900
METAR CYAY 080900Z AUTO 15009KT 9SM OVC003 08/07 A3011 RMK SLP197=
METAR CYCX 080900Z 19005KT 12SM OVC006 19/18 A3007 RMK SC7 DA+784FT
SLP182=
METAR CYDF 080900Z 00000KT 15SM FEW008 BKN035 OVC054 11/09 A3014 RMK
SF2SC3SC3 SLP207=
METAR CYDP 080900Z 07002KT 15SM SCT100 07/06 A2989 RMK AC4 SLP121=
METAR CYGW NIL=
METAR CYHH NIL=
METAR CYLU NIL=
METAR CYNC NIL=
METAR CYSJ 080900Z 18006KT 1/2SM R23/4000VP6000FT/D FG OVC003 15/14
A3011 RMK FG3ST5 SLP197=
METAR CYTQ NIL=
METAR CYYG NIL=

####018000113####
SACN52 CWAO 080900 CCA
METAR CWWU 080900Z CCA 19005KT 15SM OVC022 11/09 A3023 RMK SC8 FG BNK
NE SLP238=

####018001170####
SACN96 CWAO 080900
WXL NIL=
WXN SA 0900 AUTO8 M M M 232/13/07/2402/M/ 8003 13MM=
WXP SA 0900 AUTO8 M M M 087/10/04/0903/M/ 8006 07MM=
WXS NIL=
WXW NIL=
WXZ NIL=
WYA NIL=
WYE NIL=
WYF NIL=
WYH NIL=
WYI SA 0900 AUTO8 M M M 207/09/08/1713/M/ 7005 56MM=
WYJ SA 0900 AUTO8 M M M M/17/12/0000/M/ M 04MM=
WYL SA 0900 AUTO8 M M M M/05/03/0603/M/ M 48MM=
WYQ SA 0900 AUTO8 M M M 164/10/10/3602/M/ 3005 37MM=
WYW NIL=
WYY NIL=
WZA NIL=
WZE NIL=
WZL NIL=
WZO SA 0900 AUTO8 M M M M/M/M/0101/M/M M MMMM=
WZQ NIL=
WZR NIL=
WZS SA 0900 AUTO8 M M M 147/19/19/3607/M/ 5000 48MM=
WZT NIL=
WZV NIL=
WZY NIL=
XBD SA 0900 AUTO8 M M M 168/15/11/2503/M/ 7006 64MM=
XBQ NIL=
XEL NIL=
XFV NIL=
XGM SA 0900 AUTO8 M 0.1 M 189/15/M/1904/M/ 2004 1MMM=
XHM NIL=
XKA NIL=
XKE SA 0900 AUTO8 M M M 153/21/20/2001/M/ 0000 05MM=
XND NIL=
XOA SA 0900 AUTO8 M M M 145/22/20/2802/M/ 5000 49MM=
XPS SA 0900 AUTO8 M M M M/15/12/2505/M/ M 63MM=
XPT NIL=
XWF SA 0900 AUTO8 M M M 187/16/07/2802/M/ 1010 59MM=
ZGH NIL=
ZOC SA 0900 AUTO8 M M M 179/09/07/0705/M/ 1021 68MM=
ZPK NIL=
ZQT NIL=
ZUB NIL=
ZUG NIL=
ZWN NIL=

####018001049####
SACN48 CWAO 080900
METAR CYAD NIL=
METAR CYAH 080900Z AUTO 00000KT 9SM CLR 12/12 A2997 RMK SLP153=
METAR CYAS NIL=
METAR CYBX NIL=
METAR CYCL NIL=
METAR CYGV 080900Z AUTO 08008KT 9SM OVC004 14/12 A3004 RMK SLP174=
METAR CYHA NIL=
METAR CYIK NIL=
METAR CYKG NIL=
METAR CYKQ NIL=
METAR CYLA NIL=
METAR CYMH 080900Z AUTO 15003KT 9SM BKN005 OVC032 07/06 A3010 RMK
SLP195=
METAR CYML NIL=
METAR CYMT NIL=
METAR CYMU NIL=
METAR CYNM 080900Z AUTO 17002KT 9SM CLR 18/15 A2994 RMK SLP140=
METAR CYOY 080900Z AUTO 12004KT 9SM FEW056 FEW079 SCT090 19/16 A2999
RMK SLP156=
METAR CYPH 080900Z AUTO 24019KT 1/2SM VV001 05/05 A2979 RMK SLP089=
METAR CYPX NIL=
METAR CYQI 080900Z 15003KT 1/8SM FG VV001 17/17 A3014 RMK FG8 RVR RWY
24 1100 FT SLP208=
METAR CYSK NIL=
METAR CYSL 080900Z 17005KT 8SM OVC140 21/20 A3001 RMK AC8 SLP161=
METAR CYUY 080900Z 00000KT 15SM FEW060 FEW160 SCT240 18/16 A2997 RMK
CF1AC2CI0 SLP148=
METAR CYWK 080900Z 19005KT 15SM SCT300 17/15 A2997 RMK CI1 SLP148=
METAR CYZG NIL=

####018001047####
SAUS75 KWBC 080900
METAR
PABR 080853Z 26014KT 10SM BKN200 06/03 A3000=
PABT 080853Z 00000KT 10SM SCT120 13/12 A3006=
PACV 080853Z 10009KT 10SM -RA BKN055 OVC085 16/10 A3008=
PADL 080856Z 32008KT 10SM SCT070 11/08 A2998=
PADU 080858Z AUTO 10012KT 10SM -RA BKN023 OVC029 09/06 A2985=
PAEN 080853Z AUTO 02010KT 10SM FEW060 OVC080 14/11 A2997=
PAGA 080858Z AUTO 01004KT 10SM CLR 16/07 A3006=
PAGK 080853Z AUTO 06003KT 10SM BKN075 08/06 A3008=
PAGY 080853Z AUTO 00000KT 10SM CLR 11/10 A3021=
PAIL 080853Z AUTO 04006KT 10SM SCT075 10/08 A2993=
PAKN 080854Z 34003KT 10SM SCT045 BKN055 10/09 A2991=
PAKT 080853Z AUTO 31004KT 10SM CLR 18/12 A3008=
PASC 080853Z 22013KT 10SM BKN036 BKN070 OVC210 11/07 A3000=
PASI 080853Z 00000KT 10SM CLR 13/12 A3018=
PATA 080852Z AUTO 00000KT 10SM CLR 13/07 A3005=
PAUN 080856Z AUTO 10004KT 10SM CLR 13/06 A3002=
PAVD 080856Z 00000KT 10SM OVC090 11/08 A3009=
PHJH NIL=
PHMK 080854Z AUTO 05007G17KT 10SM FEW025 SCT039 23/19 A3006=
PMDY 080856Z AUTO 00000KT 10SM CLR 25/20 A3012=
####018001174####
SACN44 CWAO 080900
METAR CWIQ NIL=
METAR CWRF 080900Z AUTO ///// 12/ A2971=
METAR CWVD 080900Z AUTO ///// 13/ A2983 RMK SLP126=
METAR CYBW NIL=
METAR CYCY 080900Z AUTO 00000KT 9SM FEW064 FEW077 09/07 A2982 RMK
SLP100=
METAR CYED 080900Z AUTO 22005KT 9SM CLR 14/12 A3008 RMK SLP190=
METAR CYEK 080900Z AUTO 07003KT 9SM OVC049 OVC066 07/07 A2959 RMK
SLP021=
METAR CYIO 080900Z AUTO 19004KT 9SM OVC083 09/07 A2980 RMK SLP097=
METAR CYLJ NIL=
METAR CYLT NIL=
METAR CYMJ NIL=
METAR CYOD 080900Z 24004KT 10SM -SHRA OVC080 14/12 A3005 RMK AC8
SLP184=
METAR CYPE 080900Z 31010G16KT 15SM -SHRA BKN060CB 16/13 A3008 RETS
RMK CB7 SLP189=
METAR CYQV 080900Z AUTO 28007KT 9SM CLR 10/09 A3005 RMK SLP186=
METAR CYSF 080900Z AUTO 27003KT 9SM SCT091 10/07 A2984 RMK SLP115=
METAR CYSM NIL=
LWIS CYSR 080900Z AUTO 26006KT 10/06 A2982=
METAR CYTH 080900Z 26006KT 15SM FEW065 FEW085 FEW240 09/08 A2982 RMK
SC1AC1CI1 SLP105=
METAR CYUB NIL=
METAR CYUJ NIL=
METAR CYUS 080900Z AUTO ///// 9SM CLR 10/ A2980 RMK SLP095=
METAR CYUX NIL=
METAR CYVT NIL=
METAR CYXH 080900Z AUTO 23006KT 9SM CLR 10/10 A3017 RMK SLP217=
METAR CYZU NIL=

####018000042####
SACN40 CWAO 080900
METAR CYWH NIL=

####018001139####
SACN45 CWAO 080900
METAR CYBB NIL=
METAR CYCB 080900Z 25007KT 15SM FEW040 SCT120 SCT220 05/04 A2984 RMK
SC1AC1CI0 SLP108=
METAR CYCO 080900Z 12007KT 15SM SCT037 BKN170 10/08 A2988 RMK SC2AC2
SLP118=
METAR CYCS NIL=
METAR CYFS 080900Z 33002KT 15SM BKN045 BKN210 15/14 A3000 RMK SC4CI0
SLP162=
METAR CYGH NIL=
METAR CYGT 080900Z 00000KT 15SM BKN040 BKN080 10/04 A2984 RMK SC5AC2
14.0/7.5/0.0 SLP108=
METAR CYHI NIL=
METAR CYHK 080900Z AUTO 02011KT 9SM CLR 09/07 A2980 RMK SLP094=
METAR CYHY 080900Z 33003KT 15SM BKN045 BKN230 16/14 A2995 RMK SC4CS2
SLP145=
METAR CYJF NIL=
METAR CYKD NIL=
METAR CYLC NIL=
METAR CYLK NIL=
METAR CYOA NIL=
METAR CYPC NIL=
METAR CYRA NIL=
METAR CYRT 080900Z 10004KT 3/8SM -DZ FG VV001 06/05 A2960 RMK FG8
SLP027=
METAR CYSY NIL=
METAR CYTE 080900Z AUTO 09010KT 9SM CLR 06/03 A2975 RMK SLP078=
METAR CYUT NIL=
METAR CYVM 080900Z AUTO 00000KT CLR 04/03 A2983 RMK SLP104=
METAR CYWJ NIL=
METAR CYWY NIL=
METAR CYXN NIL=
LWIS CYXP 080900Z AUTO 09004KT 10/04 A2983=
METAR CYZS 080900Z 06013KT 15SM BKN070 BKN210 11/03 A2969 RMK AC6CI1
SLP058=

####018000171####
SANG31 AMMC 080900
METAR AYMO 080900Z AUTO 00000KT //// // ////// 27/23 Q1009=
METAR AYPY 080900Z 18015KT 9999 SCT040 BKN140 26/23 Q1009
     RMKS: HZ IN AREA=

####018000087####
SANL33 EHDB 080855 RRB
METAR EHSC 080855Z AUTO 27013G13KT 9999 17/15 Q1019 W///S2=
####018000133####
SAEW40 LEMM 080900
METAR LEBG 080900Z 01006KT 330V070 CAVOK 28/15 Q1020=
METAR LEHC 080900Z 09008KT 060V150 CAVOK 31/14 Q1021=
####018000087####
SANL33 EHDB 080855 RRA
METAR EHJR 080855Z AUTO 26017G17KT //// 16/15 Q1018 W15/S3=
####018000087####
SANL33 EHDB 080855 RRC
METAR EHSA 080855Z AUTO 24008G10KT 9999 16/15 Q1019 W16/S2=
####018000437####
SAPL31 EPWA 080900
METAR EPWA 080900Z 29010KT 250V350 9999 FEW033 20/12 Q1021
      NOSIG=
METAR EPGD 080900Z 30008KT CAVOK 21/11 Q1021=
METAR EPKK 080900Z 33006KT 290V020 9999 FEW046 21/09 Q1022=
METAR EPPO 080900Z 32006KT 250V020 CAVOK 21/09 Q1023=
METAR EPRZ 080900Z 32011KT 280V350 9999 FEW033 20/10 Q1021=
METAR EPBY 080900Z 30008KT 240V360 CAVOK 21/10 Q1022=
METAR EPZG 080900Z 19006KT 130V260 CAVOK 23/08 Q1023=
####018000082####
SALC31 TLPL 080900
METAR TLPL 080900Z 10022KT 9999 SCT024 BKN300 29/24 Q1013=
####018000584####
SABY31 UMMN 080900
METAR UMBB 080900Z 27003MPS 8000 NSC 21/13 Q1018 R29/CLRD// NOSIG=
METAR UMGG 080900Z 21003MPS 9999 SCT019CB BKN100 26/18 Q1013
R28/190055 NOSIG=
METAR UMII 080900Z 16003MPS P6000 BKN015 21/18 Q1013 R23/CLRD// NOSIG
=
METAR UMMG 080900Z 30005G08MPS 9999 FEW026 BKN200 22/13 Q1016
R17/CLRD// NOSIG=
METAR UMMM 080900Z 29005MPS 9999 BKN018 19/15 Q1014 R30/290050 NOSIG
RMK QFE741=
METAR UMMS 080900Z 28004G07MPS 250V310 9999 BKN015 19/16 Q1014
R31/CLRD// NOSIG=
METAR UMOO 080900Z 33001MPS 9999 BKN012 BKN/// 21/18 Q1012 R31/290056
NOSIG=
####018000362####
SAPO31 LPMG 080900
METAR LPFR 080900Z 25004KT 180V300 9000 SCT009 BKN011 23/20 Q1016=
METAR LPMA 080900Z 16004KT 110V250 9999 FEW016 23/18 Q1020 RS13001KT
0512002KT 2321003KT=
METAR LPPR 080900Z VRB03KT 5000 BR SCT250 24/19 Q1013=
METAR LPPS 080900Z 03009KT 9999 FEW016 SCT030 21/15 Q1020=
METAR LPPT 080900Z VRB03KT 8000 FEW120 26/18 Q1015 NOSIG=
####018000325####
SAPL32 EPWA 080900
METAR EPKT 080900Z 34008KT CAVOK 20/08 Q1023=
METAR EPLL 080900Z 31005KT CAVOK 20/07 Q1022=
METAR EPSC 080900Z 16002KT CAVOK 22/12 Q1022=
METAR EPWR 080900Z VRB04KT CAVOK 23/10 Q1023=
METAR EPBY 080900Z 30008KT 240V360 CAVOK 21/10 Q1022=
METAR EPZG 080900Z 19006KT 130V260 CAVOK 23/08 Q1023=
####018000103####
SAKY31 RUMS 080900 RRA
METAR UAFO 080900Z 00000MPS 9999 FEW050TCU 33/18 Q1018 NOSIG RMK
QFEM685=
####018001062####
SAIY41 LIIB 080900
METAR LIMH 080855Z 06012KT CAVOK 06/M09 Q1038 RMK SKC MON LIB VAL S
      CLD SCT VIS MIN 9999=
METAR LIMT 080855Z /////KT 8000 BKN012 14/12 Q1024 RMK BKN MON LIB
      VAL NIL VIS MIN 8000=
METAR LIMU 080900Z NIL=
METAR LIMV 080855Z 03009KT 6000 FEW012 21/18 Q1022 RMK BKN BKN080 MON
      N INVIS S LIB CUF VAL FOSCHIA VIS MIN 3000N=
METAR LIMY 080855Z /////KT 5000 BR BKN026 BKN036 21/19 Q1023 RMK OVC
      VAL FOSCHIA VIS MIN 5000=
METAR LIVD 080855Z 00000KT CAVOK 19/12 Q1025 RMK SKC VIS MIN 9999=
METAR LIVE 080900Z NIL=
METAR LIVF 080855Z 12004KT CAVOK 25/08 Q1022 RMK FEW FEW220 MON LIB
      VAL NIL VIS MIN 9999=
METAR LIVM 080855Z 15007KT CAVOK 26/22 Q1021 RMK FEW FEW200 QUK 2 QUL
      1 E VIS MAR 30 KM VIS MIN 9999=
METAR LIVO 080855Z 20003KT 9999 FEW040 20/11 Q1023 RMK FEW VIS MIN
      9999=
METAR LIVR 080855Z /////KT 9999 SCT020 12/10 Q1028 RMK SCT MON CLD
      SCT VIS MIN 9999=
METAR LIVT 080855Z 26002KT CAVOK 24/15 Q1022 RMK BKN BKN070 QUK 1 QUL
      0 VIS MAR 20 KM VIS MIN 9999=
####018001787####
SAIY42 LIIB 080900
METAR LIBF 080850Z 32013KT 9999 FEW050 26/09 Q1020 RMK VIS MIN 9999=
METAR LIEA 080850Z 03004KT 300V110 CAVOK 29/21 Q1019 RMK VIS MIN
9999=
METAR LIED 080855Z 16006KT CAVOK 31/12 Q1018 RMK SKC VIS MIN 9999
      BLU=
METAR LIEO 080850Z 03007KT 350V070 9999 FEW030 30/15 Q1020 RMK VIS
MIN 9999=
METAR LIMA 080850Z 00000KT 9999 SCT040 23/16 Q1023 RMK VIS MIN 9999=
METAR LIQN 080850Z 00000KT CAVOK 25/16 Q1021 RMK VIS MIN 9999=
METAR LIQO 080855Z 00000KT CAVOK 23/14 Q1021 RMK FEW FEW200 VAL NIL
      NC VIS MIN 9999=
METAR LIQW 080855Z 13004KT CAVOK 28/19 Q1020 RMK SKC VIS MIN 9999
      BLU=
METAR LIRE 080855Z 21008KT 9999 FEW020 27/18 Q1019 RMK SCT VIS MIN
      9999 WIND THR31 20009KT BLU=
METAR LIRG 080855Z 25002KT 9999 FEW035 29/19 Q1019 RMK SCT MON NE
     LIB NC VIS MIN 9999 BLU=
METAR LIRH 080855Z 16002KT 9999 FEW035 26/18 Q1020 RMK FEW MON LIB NC
      VIS MIN 9999 WIND THR16 14003KT BLU=
METAR LIRI 080850Z 04013KT CAVOK 28/11 Q1019 RMK VIS MIN 9999=
METAR LIRK 080855Z 14007KT CAVOK 16/12 Q1026 RMK SKC MON NE LIB NC
      VAL NIL NC VIS MIN 9999=
METAR LIRL 080855Z 27004KT 9999 FEW020 28/21 Q1018 RMK FEW MON LIB NC
      VIS MIN 9999 BLU=
METAR LIRM 080855Z 06011KT CAVOK 28/16 Q1019 RMK SKC VIS MIN 9999
      WIND THR06 04011KT BLU=
METAR LIRS 080855Z 21002KT CAVOK 30/10 Q1019 RMK FEW FEW200 VIS MIN
      9999 WIND THR21 /////KT BLU=
METAR LIRT 080855Z 36007KT 9999 FEW013 16/07 Q1023 RMK FEW MON LIB
      VAL NIL VIS MIN 9999=
METAR LIRU 080850Z VRB01KT 9999 FEW040 30/19 Q1019 RMK VIS MIN 9999=
METAR LIRV 080855Z 01004KT 9999 FEW024 26/17 Q1020 RMK FEW MON E SE
      LIB NC VIS MIN 9999 BLU=
METAR LIRX 080900Z NIL=
METAR LIRZ 080850Z VRB02KT CAVOK 28/12 Q1021 RMK VIS MIN 9999=
####018000142####
SAIY41 LIIB 080900 RRA
METAR LIMU 080855Z 06004KT 9999 FEW023 28/22 Q1020 RMK BKN SCT070 QUK
      2 QUL 1 S VIS MAR 15 KM VIS MIN 9999=
####018001513####
SAIY43 LIIB 080900
METAR LIBA 080855Z /////KT 9999 FEW040 27/11 Q1019 RMK FEW VIS MIN
      9999 WIND THR29 30009KT BLU=
METAR LIBC 080850Z 03020KT CAVOK 26/12 Q1018 RMK VIS MIN 9999=
METAR LIBD 080850Z 36011KT 9999 FEW030 25/12 Q1020 RMK VIS MIN 9999=
METAR LIBG 080850Z 36018KT 330V040 CAVOK 26/08 Q1018 RMK VIS MIN
9999=
METAR LIBN 080855Z 36016G26KT 9999 FEW030 25/12 Q1017 RMK FEW VIS MIN
      9999 WIND THR14 36017KT BLU=
METAR LIBP 080850Z VRB03KT CAVOK 25/07 Q1022 RMK VIS MIN 9999=
METAR LIBQ 080855Z 06007KT 9999 FEW009 15/11 Q1024 RMK FEW MON LIB
      VAL NIL VIS MIN 9999=
METAR LIBR 080845Z /////KT CAVOK 25/15 Q1017 NOSIG RMK SKC VIS MIN
      9999 WIND THR13 WIND THR31 33021KT BLU=
METAR LIBV 080855Z 36017KT 9999 FEW030 24/12 Q1017 RMK FEW VIS MIN
      9999 WIND THR14 36015KT BLU=
METAR LICA 080850Z 22009KT 9999 FEW020 SCT060 27/23 Q1017 RMK VIS
MIN 9999=
METAR LICC 080850Z 09005KT CAVOK 29/20 Q1018 RMK VIS MIN 9999=
METAR LICD 080850Z 36011KT 220V360 CAVOK 26/21 Q1019 RMK VIS MIN
9999=
METAR LICG 080855Z 32008KT 9999 SCT020 23/20 Q1019 RMK SCT VIS MIN
      9999 WIND THR08 32005KT WIND THR21 VRB07KT BLU=
METAR LICJ 080850Z 04015KT CAVOK 27/22 Q1018 RMK VIS MIN 9999=
METAR LICR 080850Z 35010KT 9999 FEW020 SCT040 30/19 Q1018 RMK VIS
MIN 9999=
METAR LICT 080855Z 33007KT CAVOK 30/22 Q1018 RMK SKC VIS MIN 9999
      WIND THR13 33007KT BLU=
METAR LICZ 080855Z 10011KT CAVOK 30/18 Q1018 RMK SKC VIS MIN 9999
      WIND THR28 //////KT BLU=
####018001909####
SAIY40 LIIB 080900
METAR LIMG 080850Z 03007KT 9999 BKN080 30/25 Q1020 RMK VIS MIN 9999=
METAR LIMK 080855Z 35003KT 9999 BKN025 19/13 Q1023 RMK OVC SCT080 VAL
      NIL VIS MIN 9999=
METAR LIMN 080855Z /////KT 9999 FEW050 26/15 Q1022 RMK SCT SCT080 VIS
      MIN 9999 BLU=
METAR LIMP 080850Z 10007KT 040V130 CAVOK 26/16 Q1022 RMK VIS MIN
9999=
METAR LIMS 080855Z 11009KT 040V150 CAVOK 26/17 Q1021 RMK FEW FEW200
      VIS MIN 9999 WIND THR30 09005KT BLU=
METAR LIMZ 080850Z 34004KT 8000 SCT015 BKN045 22/19 Q1023 RMK VIS
MIN 8000=
METAR LIPA 080855Z 23006KT 9999 SCT045 24/16 Q1022 RMK SCT VIS MIN
      9999 A3020 BLU=
METAR LIPB 080850Z 16008KT 9999 FEW060 26/12 Q1022 RMK MON LIB VIS
MIN 9999=
METAR LIPC 080855Z 16007KT CAVOK 27/12 Q1021 RMK FEW FEW200 VIS MIN
      9999 WIND THR12 13006KT BLU=
METAR LIPF 080855Z 10003KT 9999 FEW050 25/19 Q1021 RMK FEW VIS MIN
      9999=
METAR LIPH 080845Z 01002KT 9999 SCT035 BKN070 24/18 Q1022 RMK BKN VIS
      MIN 9999 WIND THR07 /////KT BLU=
METAR LIPI 080855Z 12006KT 9999 FEW030 SCT050 25/17 Q1022 RMK BKN
     VIS MIN 9999 WIND THR06 16005KT BLU=
METAR LIPL 080855Z 11006KT 060V180 9999 SCT060 26/20 Q1022 RMK BKN
      VIS MIN 9999 BLU=
METAR LIPO 080850Z 07006KT 040V140 9999 BKN065 25/16 Q1022 RMK VIS
MIN 9999=
METAR LIPQ 080850Z VRB02KT 9999 FEW030 BKN050 25/14 Q1023=
METAR LIPR 080845Z 12006KT CAVOK 27/16 Q1021 RMK SKC VIS MIN 9999
      WIND THR31 13005KT BLU=
METAR LIPS 080855Z 02004KT 9999 BKN060 24/16 Q1022 RMK BKN VIS MIN
      9999 BLU=
METAR LIPX 080845Z 10007KT 9999 SCT080 27/14 Q1021 RMK SCT VIS MIN
      9999 BLU=
METAR LIPY 080850Z VRB05KT CAVOK 26/10 Q1021 RMK VIS MIN 9999=
METAR LIVC 080855Z 03007KT 9999 FEW000 13/11 Q1030 RMK FEW MON LIB
      VAL NIL VIS MIN 9999=
METAR LIVP 080855Z VRB02KT 3000 0900E FG VV/// 11/09 Q1028 RMK MON
      INVIS VAL INVIS VIS MIN 0900E=
####018000098####
SPUS72 KWBC 080907
SPECI
KCRP 080905Z 05006KT 9SM -TSRA FEW009 SCT021CB BKN055 26/24 A2982=
####018000087####
SAMZ40 FQMA 080900
METAR
FQCH 080900Z /////KT 9999 BKN011 SCT017 19/10 Q1031=

####018000095####
SASV40 FDMS 080900
METAR FDMS 080900Z 00000KT 9000 -DZ FEW012 OVC030 17/12 Q1032 NOSIG=

####018000082####
SPUS72 KWBC 080907
SPECI
KMFE 080904Z AUTO 35008KT 10SM BKN006 26/24 A2980=
####018000096####
SPUS73 KWBC 080907
SPECI
KCMX 080904Z AUTO 30005KT 10SM SCT010 BKN018 BKN060 18/18 A2998=
####018000078####
SAMT20 GQPP 080900
METAR GQPP 080900Z 35010KT 8000 NSC 23/20 Q1012 NOSIG=
####018000200####
SABO SLLP 080900
METAR SLLP 080900Z 08006KT 4000E VCFG FEW002 M03/M03 Q1036=
METAR SLVR 080900Z 15008KT 9999 FEW010 BKN017 OVC070 20/19 Q1014=
METAR SLCB 080900Z 00000KT 8000 NSC 07/01 Q1025=
####018000200####
SABO SLLP 080900
METAR SLLP 080900Z 08006KT 4000E VCFG FEW002 M03/M03 Q1036=
METAR SLCB 080900Z 00000KT 8000 NSC 07/01 Q1025=
METAR SLVR 080900Z 15008KT 9999 FEW010 BKN017 OVC070 20/19 Q1014=
####018000265####
SAEQ01 SEQU 080809
METAR
SEQU 080800Z 00000KT 9999 SCT100 08/07 Q1027 RMK A3033 NOSIG=
SAEQ01 SEQU 080900
METAR
SEGU 080900Z 20006KT 9999 BKN030 23/19 Q1011 NOSIG=
SEMT 080900Z 16003KT 9999 OVC016 23/20 Q1012=
SAEQ00 SEQU 080905
METAR
SELT NIL=
####018000202####
SABO59 SLLP 080900
METAR SLLP 080900Z 08006KT 4000E VCFG FEW002 M03/M03 Q1036=
METAR SLVR 080900Z 15008KT 9999 FEW010 BKN017 OVC070 20/19 Q1014=
METAR SLCB 080900Z 00000KT 8000 NSC 07/01 Q1025=
####018000041####
SAEQ00 SEQU 080905
METAR
SELT NIL=
####018000131####
SAEQ01 SEQU 080900
METAR
SEGU 080900Z 20006KT 9999 BKN030 23/19 Q1011 NOSIG=
SEMT 080900Z 16003KT 9999 OVC016 23/20 Q1012=
####018000093####
SAEQ01 SEQU 080809
METAR
SEQU 080800Z 00000KT 9999 SCT100 08/07 Q1027 RMK A3033 NOSIG=
####018000202####
SABO59 SLLP 080900
METAR SLLP 080900Z 08006KT 4000E VCFG FEW002 M03/M03 Q1036=
METAR SLCB 080900Z 00000KT 8000 NSC 07/01 Q1025=
METAR SLVR 080900Z 15008KT 9999 FEW010 BKN017 OVC070 20/19 Q1014=
####018000098####
SPUS81 KWBC 080907
SPECI
KCRP 080905Z 05006KT 9SM -TSRA FEW009 SCT021CB BKN055 26/24 A2982=
####018000190####
SARE20 FMEE 080900
METAR
FMCZ 080900Z 14014KT 9999 BKN025 26/19 Q1018=
FMEE 080900Z 13021KT 9999 FEW023 24/17 Q1022 TEMPO 13028G38KT=
FMEP 080900Z 12027KT 9999 FEW015 25/16 Q1021=
####018000399####
SAUS20 KNKA 080907
SPECI KBGD 080906Z AUTO 03005KT 10SM -RA SCT022 BKN070 OVC110 18/18 
    A3018 RMK AO2 RAB0853 P0000=
METAR KBXK 080855Z AUTO 00000KT 10SM CLR 27/01 A2976 RMK AO1 =
SPECI KCOT 080906Z AUTO 05004KT 10SM BKN014 OVC045 25/23 A2990 RMK 
    AO2=
METAR KORG 080905Z AUTO 08008KT 7SM CLR 17/15 A2996 RMK AO2=
METAR KRQO 080915Z AUTO 00000KT 7SM CLR 22/22 A3006 RMK AO2=
####018000104####
SAAK41 KNKA 080907
SPECI PASN 080905Z 07011KT 10SM FEW004 SCT035 OVC045 06/05 A2995 RMK 
    AO2=
####018000254####
SANZ31 NZKL 080900


METAR NZAA 080900Z  NIL=
METAR NZWN 080900Z 20033KT 9999 -RADZ FEW015 SCT023 BKN033 09/05
         Q1011 WS R16 NOSIG =
METAR NZCH 080900Z 24007KT 9999 SHRA FEW014 SCT035 BKN060 06/05 Q1015
         TEMPO 6000 SHRA =
####018000912####
SACI41 ZBBB 080900
METAR ZBHH 080900Z VRB02MPS 9999 FEW040 30/10 Q1008 NOSIG=
METAR ZGHA 080900Z 18002MPS 140V200 9999 FEW040TCU FEW040 34/28
 Q0999 NOSIG=
METAR ZHCC 080900Z 09001MPS 2800 HZ NSC 29/24 Q1005 NOSIG=
METAR ZHHH 080900Z 08005MPS 040V120 6000 -RA FEW010 FEW030TCU 24/24
 Q1001
 RETSRA NOSIG=
METAR ZJHK 080900Z 13004MPS 080V160 9999 FEW030CB 35/24 Q1004 NOSIG=
METAR ZJSY 080900Z 16003MPS 130V210 9999 FEW016 31/27 Q1005 NOSIG=
METAR ZLLL 080900Z 01007MPS 9999 FEW023 25/10 Q1016 NOSIG=
METAR ZSNJ 080900Z 11004MPS 3500 HZ BKN033 29/22 Q1003 TEMPO 2000 
-TSRA
 FEW030CB=
METAR ZSOF 080900Z 21002MPS 160V240 8000 -RA BKN020 27/26 Q1003
 NOSIG=
METAR ZUCK 080900Z 11002MPS 080V150 3300 BR SCT020 29/25 Q1001
 NOSIG=
METAR ZYCC 080900Z 01005MPS 9999 SCT007 FEW023TCU BKN023 20/18 Q1006
 NOSIG=
METAR ZYHB 080900Z 03003MPS 5000 -RA BR BKN033 19/18 Q1008 NOSIG=
####018001591####
SAUS90 KWBC 080900 RRE
METAR KABE 080851Z 34004KT 7SM CLR 22/20 A3002=
METAR KALB 080851Z 00000KT 5SM HZ CLR 23/21 A3002=
METAR KART 080856Z AUTO 00000KT 7SM CLR 23/20 A3002=
METAR KAVP 080854Z AUTO 11003KT 7SM CLR 21/18 A3006=
METAR KBDL 080851Z 15003KT 5SM HZ BKN080 24/21 A3002=
METAR KBDR 080852Z AUTO 09008KT 1/2SM FG OVC002 24/23 A3003=
METAR KBTV 080854Z 00000KT 5SM BR CLR 23/22 A3001=
METAR KBUF 080854Z 18004KT 8SM FEW090 22/19 A3005=
METAR KCAE 080856Z 25003KT 10SM CLR 23/19 A2998=
METAR KCAK 080851Z 00000KT 8SM CLR 22/17 A3009=
METAR KCMH 080851Z 00000KT 9SM CLR 23/19 A3007=
METAR KCRQ 080853Z AUTO 27003KT 9SM OVC009 17/14 A2989=
METAR KCRW 080854Z 00000KT 4SM BR CLR 21/20 A3007=
METAR KDAY 080856Z 00000KT 8SM CLR 23/18 A3009=
METAR KERI 080851Z 18003KT 7SM CLR 22/19 A3006=
METAR KGSO 080854Z 33004KT 8SM FEW090 26/18 A3001=
METAR KGSP 080853Z AUTO 00000KT 10SM CLR 24/19 A3001=
METAR KHTS 080851Z 00000KT 2 1/2SM BR CLR 22/21 A3007=
METAR KHUL 080853Z AUTO 20006KT 5SM BR CLR 21/18 A3002=
METAR KIAG 080853Z AUTO 21003KT 6SM BR CLR 23/21 A3004=
METAR KILG 080851Z AUTO 11004KT 4SM BR CLR 24/22 A3002=
METAR KILM 080853Z AUTO 28005KT 10SM CLR 26/19 A2989=
METAR KMSS 080853Z AUTO 22003KT 6SM BR CLR 23/21 A3001=
METAR KORH 080854Z AUTO 16005KT 3SM BR BKN002 OVC080 22/21
     A3009=
METAR KPWM 080851Z 16003KT 8SM OVC006 21/19 A3007=
METAR KRIC 080854Z 00000KT 7SM CLR 25/21 A2998=
METAR KROC 080854Z 21005KT 8SM FEW070 BKN100 23/20 A3004=
METAR KSYR 080854Z 15003KT 7SM FEW048 SCT090 SCT200 22/20
     A3004=
####018000149####
SPUS90 KWBC 080908
SPECI KCRP 080905Z 05006KT 9SM -TSRA FEW009 SCT021CB BKN055 26/24
     A2982 RMK AO2 OCNL LTGIC NE NW TS NE NW MOV W P0039=
####018000085####
SAIR33 OIII 080400 RRE
METAR OIBP 080400Z 00000KT 3000 HZ SKC 33/26 Q1000 A2955=
####018000072####
SAGD31 TGPY 080900
METAR TGPY 080900Z 08007KT 9999 FEW021 28/25 Q1012=####018000171####
SABC40 FBSK 080900
METAR FBFT 080900Z 10015KT 9999 BKN015 19/11 Q1032=
METAR FBKE 080900Z 09017KT CAVOK 20/07 Q1028=
METAR FBMN 080900Z 09015KT CAVOK 21/06 Q1029=
####018001538####
SAXN17 KAWN 080900 RRD
METAR MKJP 080900Z 09011KT 9999 SCT020 BKN220 27/19 Q1012=
METAR MKJS 080900Z 00000KT 9999 FEW022 25/22 Q1012=
METAR MMCZ 080853Z 09010KT 6SM FEW015 BKN200 26/24 A2985 RMK SLP117
      54000 917 8/508 HZY=
METAR PHNG 080857Z 07007G14KT 10SM SCT026 BKN040 24/21 A3006 RMK AO2
      SLP174 T02440206 52010 $=
METAR PLCH 080900Z 12020KT 20KM SKC 26/24 Q1011=
METAR RJAA 080900Z 20006KT 160V230 9999 FEW025 BKN/// 27/22 Q1009 NOSIG=
METAR RJCC 080900Z 15006KT 2200 -DZ BR BKN002 18/17 Q1009=
METAR RJFF 080900Z 32009KT 5000 BR NSC 26/21 Q1008=
METAR RJFK 080900Z 19008KT 150V220 9999 FEW030 BKN/// 27/18 Q1010 RMK
      1CU030 A2984=
METAR RJOO 080900Z 22007KT 170V260 9999 FEW030 BKN/// 29/19 Q1007=
METAR RJTT 080900Z 18017KT 9999 FEW025 BKN/// 26/22 Q1009 RMK 1CU025
      A2981=
METAR RKSS 080900Z 32003KT 9999 FEW030 OVC120 25/17 Q1008 TEMPO RA=
METAR ROAH 080900Z 20011KT 9999 FEW010 SCT080 BKN/// 29/27 Q1009=
METAR SKBO 080900Z 00000KT 6000 HZ BKN012 12/11 A3028 NOSIG=
METAR SKBO 080900Z 00000KT 6000 HZ BKN012 12/11 A3028 NOSIG=
METAR TLPL 080900Z 10022KT 9999 SCT024 BKN300 29/24 Q1013=
METAR TTCP 080900Z 10011KT 3000 SHRA VCSH FEW010CB SCT014 BKN038 24/23
      Q1012 RETS TEMPO SHRA=
METAR TTPP 080900Z 00000KT 8000 -SHRA VCSH FEW016 SCT036 BKN280 26/25
      Q1011 TEMPO SHRA=
METAR TXKF 080855Z 16013KT 9999 VCSH SCT013TCU BKN042 BKN170 BKN300
      25/22 Q1018 RMK TCU W-NW /=
METAR ZGGG 080900Z 14006MPS 9999 FEW050TCU SCT050 35/26 Q1004 NOSIG=
####018000085####
SAIR33 OIII 080500 RRE
METAR OIBP 080500Z 00000KT 3000 HZ SKC 35/25 Q1000 A2956=
####018000281####
SPUS99 KWBC 080908
SPECI
KBGD 080906Z AUTO 03005KT 10SM -RA SCT022 BKN070 OVC110 18/18
     A3018 RMK AO2 RAB0853 P0000=
KCOT 080906Z AUTO 05004KT 10SM BKN014 OVC045 25/23 A2990 RMK
     AO2=
PASN 080905Z 07011KT 10SM FEW004 SCT035 OVC045 06/05 A2995 RMK
     AO2=
####018000201####
SAUS99 KWBC 080908
METAR
KBXK 080855Z AUTO 00000KT 10SM CLR 27/01 A2976 RMK AO1=
KORG 080905Z AUTO 08008KT 7SM CLR 17/15 A2996 RMK AO2=
KRQO 080915Z AUTO 00000KT 7SM CLR 22/22 A3006 RMK AO2=
####018000253####
SANZ31 NZKL 080900


METAR NZAA 080900Z  NIL=
METAR NZWN 080900Z 20033KT 9999 -RADZ FEW015 SCT023 BKN033 09/05
         Q1011 WS R16 NOSIG =
METAR NZCH 080900Z 24007KT 9999 SHRA FEW014 SCT035 BKN060 06/05 Q1015
         TEMPO 6000 SHRA =
####018000464####
SANM40 FYWW 080900
METAR FYGF 080900Z 06008KT CAVOK 20/16 Q////=
METAR FYKM 080900Z 10004KT 9999 FEW050 20/09 Q1027=
METAR FYKT 080900Z 02014KT CAVOK 22/02 Q1027=
METAR FYOA 080900Z 08018KT CAVOK 22/03 Q1024=
METAR FYRU 080900Z 09007KT CAVOK 20/05 Q1026=
METAR FYWB 080900Z 07025KT 9999 VV/// 30/04 Q1017 =
METAR FYWB 080900Z 07025KT 9999 VV/// 30/04 Q1017 =
METAR FYWH 080900Z 01013KT CAVOK 17/M00 Q1030=
METAR FYWW 080900Z 04009KT CAVOK 17/M01 Q1028=
####018001581####
SACN88 KWBC 080908
CAHR RMK NIL=
CERM RMK NIL=
CWAR RMK NIL=
METAR CWBK 080900Z AUTO 19004KT 18/17 RMK AO1 SLP188 T01810170
51005=
CWDA RMK NIL=
CWXI RMK NIL=
CWZN RMK NIL=
CXNP RMK NIL=
CZCR RMK NIL=
CZDB RMK NIL=
METAR CZSP 080900Z AUTO 20008KT 20/16 RMK AO1 SLP171 T01960163
50001=
CERM RMK NIL=
CWAR RMK NIL=
METAR CWBK 080900Z AUTO 19004KT 18/17 RMK AO1 SLP188 T01810170
51005=
CWDA RMK NIL=
CWXI RMK NIL=
CWZN RMK NIL=
CXNP RMK NIL=
CZCR RMK NIL=
CZDB RMK NIL=
METAR CZSP 080900Z AUTO 20008KT 20/16 RMK AO1 SLP171 T01960163
50001=
CXNP RMK NIL=
CZCR RMK NIL=
CZDB RMK NIL=
METAR CZSP 080900Z AUTO 20008KT 20/16 RMK AO1 SLP171 T01960163
50001=
CXNP RMK NIL=
CZCR RMK NIL=
CZDB RMK NIL=
METAR CZSP 080900Z AUTO 20008KT 20/16 RMK AO1 SLP171 T01960163
50001=
CXNP RMK NIL=
CZCR RMK NIL=
CZDB RMK NIL=
METAR CZSP 080900Z AUTO 20008KT 20/16 RMK AO1 SLP171 T01960163
50001=
CXNP RMK NIL=
CZCR RMK NIL=
CZDB RMK NIL=
METAR CZSP 080900Z AUTO 20008KT 20/16 RMK AO1 SLP171 T01960163
50001=
CXNP RMK NIL=
CZCR RMK NIL=
CZDB RMK NIL=
METAR CZSP 080900Z AUTO 20008KT 20/16 RMK AO1 SLP171 T01960163
50001=
CXNP RMK NIL=
CZCR RMK NIL=
CZDB RMK NIL=
METAR CZSP 080900Z AUTO 20008KT 20/16 RMK AO1 SLP171 T01960163
50001=
CXNP RMK NIL=
CZCR RMK NIL=
CZDB RMK NIL=
METAR CZSP 080900Z AUTO 20008KT 20/16 RMK AO1 SLP171 T01960163
50001=
CXNP RMK NIL=
CZCR RMK NIL=
CZDB RMK NIL=
METAR CZSP 080900Z AUTO 20008KT 20/16 RMK AO1 SLP171 T01960163
50001=
CWBK RMK NIL=
####018000668####
SACN95 KWBC 080908
CWTA RMK NIL=
CWTG RMK NIL=
METAR CWTN 080900Z AUTO 00000KT 16/16 RMK AO1 SLP158 T01610156
52008=
CWTT RMK NIL=
METAR CWTY 080900Z AUTO 24003KT 24/21 RMK AO1 SLP144 T02400211
53004=
CWUS RMK NIL=
CWUX RMK NIL=
METAR CWVF 080900Z AUTO 08005KT 24/ RMK AO1 T0237=
CWVI RMK NIL=
CWVN RMK NIL=
CWVP RMK NIL=
CWVQ RMK NIL=
CWVU RMK NIL=
CWVV RMK NIL=
CWVZ RMK NIL=
METAR CWWA 080900Z AUTO 01002KT 20/09 RMK AO1 SLP147 T01990093
53011=
CWWF RMK NIL=
METAR CWWK 080900Z AUTO 01001KT 19/14 RMK AO1 SLP152 T01880141
52010=
METAR CWXA 080900Z AUTO 00000KT 04/03 RMK AO1 SLP230 T00410030
58002=
CWXC RMK NIL=
####018001002####
SACN91 KWBC 080908
CWGR RMK NIL=
METAR CWGT 080900Z AUTO 36007KT 20/16 RMK AO1 SLP144 T02000160
53011=
METAR CWGW 080900Z AUTO 01003KT 09/07 RMK AO1 SLP232 T00860074
51013=
CWGX RMK NIL=
CWGY RMK NIL=
CWHA RMK NIL=
CWHD RMK NIL=
CWHI RMK NIL=
METAR CWHL 080900Z AUTO 24005KT 14/ RMK AO1 SLP168 T0143 51002=
METAR CWHM 080900Z AUTO 22002KT 23/22 RMK AO1 T02330218=
CWHQ RMK NIL=
METAR CWHT 080900Z AUTO 09002KT 08/04 RMK AO1 SLP218 T00840044
51009=
METAR CWHV 080900Z AUTO 16002KT 21/20 RMK AO1 SLP159 T02130204
53003=
CWID RMK NIL=
CWIG RMK NIL=
CWII RMK NIL=
CWIJ RMK NIL=
CWIN RMK NIL=
CWIO RMK NIL=
CWIP RMK NIL=
METAR CWIS 080900Z AUTO 00000KT 17/17 RMK AO1 SLP169 T01730167
54000=
METAR CWIT 080900Z AUTO 28003KT 24/20 RMK AO1 T02360203=
CWIW RMK NIL=
CWIX RMK NIL=
CWIY RMK NIL=
CWIZ RMK NIL=
METAR CWJB 080900Z AUTO 06006KT 18/17 RMK AO1 T01810170=
METAR CWJC 080900Z AUTO 09/08 RMK AO1 SLP048 T00860081 58010=
CWJH RMK NIL=
####018000690####
SACN89 KWBC 080908
CWAF RMK NIL=
CWAQ RMK NIL=
CWAV RMK NIL=
CWBA RMK NIL=
CWBG RMK NIL=
CWBO RMK NIL=
METAR CWBS 080900Z AUTO 24006KT 24/21 RMK AO1 T02380210=
CWBT RMK NIL=
METAR CWBZ 080900Z AUTO 25003KT 24/21 RMK AO1 SLP152 T02350214
53001=
CWCF RMK NIL=
CWCG RMK NIL=
CWCI RMK NIL=
METAR CWCJ 080900Z AUTO 01002KT 16/16 RMK AO1 2PAST HR 5002 SLP145
P0001 T01630157 50004=
METAR CWCO 080900Z AUTO 17002KT 24/21 RMK AO1 SLP149 T02390208
56004=
CWCQ RMK NIL=
CWDD RMK NIL=
CWDF RMK NIL=
CWDJ RMK NIL=
CWDK RMK NIL=
CWDT RMK NIL=
CWDZ RMK NIL=
CWDT RMK NIL=
CWDZ RMK NIL=
CWDT RMK NIL=
CWDZ RMK NIL=
CWDT RMK NIL=
CWDZ RMK NIL=
####018000411####
SARO32 LROM 080900
METAR LRAR 080900Z 05008KT 9999 SCT031 21/16 Q1020=
METAR LRBM 080900Z VRB02KT 9999 FEW007 BKN014 17/16 Q1019 1019//95=
METAR LRCL 080900Z 29006KT 9999 FEW011 BKN015 OVC021 15/12 Q1020
0821//95=
METAR LROD 080900Z 01010KT 330V040 9999 FEW035 21/14 Q1021=
METAR LRSM 080900Z 06010KT 9999 SCT020 20/14 Q1020=
METAR LRTM 080900Z 23006KT 9999 FEW009 SCT013 BKN020 16/13 Q1020
07CLRD//=
####018001841####
SACN90 KWBC 080908
CWEB RMK NIL=
CWEE RMK NIL=
METAR CWEL 080900Z AUTO 29003KT 20/13 RMK AO1 T02000134=
CWEW RMK NIL=
METAR CWEZ 080900Z AUTO 22008KT 19/11 RMK AO1 SLP144 T01890113
53008=
METAR CWFF 080900Z AUTO 27007KT 10/07 RMK AO1 SLP189 T00980073
55001=
CWFJ RMK NIL=
METAR CWFQ 080900Z AUTO 00000KT 23/22 RMK AO1 T02250215=
METAR CWGB 080900Z AUTO 28007KT 22/12 RMK AO1 SLP140 T02150121
53006=
CWGD RMK NIL=
CWGH RMK NIL=
METAR CWGL 080900Z AUTO 11002KT 23/23 RMK AO1 SLP171 T02280228
56005=
METAR CWGM 080900Z AUTO 22006KT 07/05 RMK AO1 T00690054=
METAR CWEL 080900Z AUTO 29003KT 20/13 RMK AO1 T02000134=
CWEW RMK NIL=
METAR CWEZ 080900Z AUTO 22008KT 19/11 RMK AO1 SLP144 T01890113
53008=
METAR CWFF 080900Z AUTO 27007KT 10/07 RMK AO1 SLP189 T00980073
55001=
CWFJ RMK NIL=
METAR CWFQ 080900Z AUTO 00000KT 23/22 RMK AO1 T02250215=
METAR CWGB 080900Z AUTO 28007KT 22/12 RMK AO1 SLP140 T02150121
53006=
CWGD RMK NIL=
CWGH RMK NIL=
METAR CWGL 080900Z AUTO 11002KT 23/23 RMK AO1 SLP171 T02280228
56005=
METAR CWGM 080900Z AUTO 22006KT 07/05 RMK AO1 T00690054=
CWGH RMK NIL=
METAR CWGL 080900Z AUTO 11002KT 23/23 RMK AO1 SLP171 T02280228
56005=
METAR CWGM 080900Z AUTO 22006KT 07/05 RMK AO1 T00690054=
CWGH RMK NIL=
METAR CWGL 080900Z AUTO 11002KT 23/23 RMK AO1 SLP171 T02280228
56005=
METAR CWGM 080900Z AUTO 22006KT 07/05 RMK AO1 T00690054=
CWGH RMK NIL=
METAR CWGL 080900Z AUTO 11002KT 23/23 RMK AO1 SLP171 T02280228
56005=
METAR CWGM 080900Z AUTO 22006KT 07/05 RMK AO1 T00690054=
CWGH RMK NIL=
METAR CWGL 080900Z AUTO 11002KT 23/23 RMK AO1 SLP171 T02280228
56005=
METAR CWGM 080900Z AUTO 22006KT 07/05 RMK AO1 T00690054=
METAR CWGM 080900Z AUTO 22006KT 07/05 RMK AO1 T00690054=
METAR CWGM 080900Z AUTO 22006KT 07/05 RMK AO1 T00690054=
####018000786####
SACN94 KWBC 080908
CWND RMK NIL=
METAR CWSD 080800Z AUTO 21010KT 18/17 RMK AO1 SLP172 T01810168
53003=
CWQH RMK NIL=
METAR CWQK 080900Z AUTO RMK AO1 =
CWQO RMK NIL=
CWQP RMK NIL=
CWQR RMK NIL=
CWQV RMK NIL=
CWRJ RMK NIL=
CWRK RMK NIL=
METAR CWRT 080900Z AUTO 00000KT 05/05 RMK AO1 T00540054=
METAR CWRY 080900Z AUTO 31005KT 09/08 RMK AO1 SLP223 T00940079
55000=
METAR CWRZ 080900Z AUTO 32004KT 15/ RMK AO1 SLP150 T0148 51012=
METAR CWSD 080900Z AUTO 21010KT 18/17 RMK AO1 SLP175 T01800168
53005=
CWSG RMK NIL=
METAR CWSK 080900Z AUTO 02002KT 16/11 RMK AO1 SLP158 T01600113
51014=
METAR CWSL 080900Z AUTO 20002KT 14/09 RMK AO1 SLP181 T01370091
51013=
METAR CWSP 080900Z AUTO 14/ RMK AO1 SLP149 T0140 53004=
CWSR RMK NIL=
CWST RMK NIL=
####018001099####
SACN85 KWBC 080908
METAR CWBV 080900Z AUTO 22012KT 15/15 RMK AO1 SLP212 T01470145
53003=
CWDO RMK NIL=
CWHO RMK NIL=
METAR CWRN 080900Z AUTO 21012KT 16/16 RMK AO1 SLP200 T01590156
51006=
CWSS RMK NIL=
CWDM RMK NIL=
METAR CWBV 080900Z AUTO 22012KT 15/15 RMK AO1 SLP212 T01470145
53003=
CWDO RMK NIL=
CWHO RMK NIL=
METAR CWRN 080900Z AUTO 21012KT 16/16 RMK AO1 SLP200 T01590156
51006=
CWSS RMK NIL=
CWEF RMK NIL=
METAR CWEP 080900Z AUTO 22016G21KT 18/18 RMK AO1 PK WND 21021/0847
SLP177 T01800176 51003=
METAR CWER 080900Z AUTO 04015KT RMK AO1 PK WND 04019/0803=
METAR CWEP 080900Z AUTO 22016G21KT 18/18 RMK AO1 PK WND 21021/0847
SLP177 T01800176 51003=
METAR CWER 080900Z AUTO 04015KT RMK AO1 PK WND 04019/0803=
CWBY RMK NIL=
CWWE RMK NIL=
METAR CWNH 080900Z AUTO 34003KT 12/11 RMK AO1 SLP158 T01210113
53002=
CWHO RMK NIL=
METAR CWPK 080900Z AUTO 00000KT 16/ RMK AO1 SLP167 T0159 58004=
CWWE RMK NIL=
CYGS RMK NIL=
CWWE RMK NIL=
CYGS RMK NIL=
CWRA RMK NIL=
METAR CWSF 080900Z AUTO 28008KT 12/12 RMK AO1 SLP169 T01180118
51016=
####018000796####
SACN92 KWBC 080908
CWJI RMK NIL=
CWJM RMK NIL=
CWJO RMK NIL=
METAR CWJR 080900Z AUTO 24002KT 16/ RMK AO1 SLP200 T0160 51011=
METAR CWJT 080900Z AUTO 04001KT 17/16 RMK AO1 SLP156 T01690162
58002=
CWJU RMK NIL=
METAR CWJV 080900Z AUTO 11009KT 17/08 RMK AO1 SLP172 T01650084
51011=
CWJW RMK NIL=
CWJX RMK NIL=
CWKD RMK NIL=
CWKG RMK NIL=
METAR CWKH 080900Z AUTO 22/ RMK AO1 T0221=
CWKX RMK NIL=
METAR CWLC 080900Z AUTO 20005KT 15/ RMK AO1 T0147=
CWLE RMK NIL=
METAR CWLM 080900Z AUTO 24004KT 21/09 RMK AO1 T02120091=
CWLU RMK NIL=
CWMJ RMK NIL=
METAR CWMM 080900Z AUTO 14001KT 15/13 RMK AO1 SLP147 T01520127
51010=
CWMQ RMK NIL=
CWLU RMK NIL=
CWMJ RMK NIL=
METAR CWMM 080900Z AUTO 14001KT 15/13 RMK AO1 SLP147 T01520127
51010=
CWMQ RMK NIL=
####018001303####
SACN96 KWBC 080908
CWXL RMK NIL=
METAR CWYJ 080900Z AUTO 00000KT 17/12 RMK AO1 T01700124=
METAR CWYL 080900Z AUTO 06003KT 05/03 RMK AO1 T00540028=
CWYY RMK NIL=
CWZA RMK NIL=
CWZL RMK NIL=
METAR CWZO 080900Z AUTO 01001KT RMK AO1 =
CWZQ RMK NIL=
METAR CWZS 080900Z AUTO 36007KT 19/19 RMK AO1 SLP147 T01940188
55000=
CWZV RMK NIL=
CXHM RMK NIL=
CXKA RMK NIL=
METAR CXKE 080900Z AUTO 20001KT 21/20 RMK AO1 SLP153 T02100195
50000=
METAR CWYJ 080900Z AUTO 00000KT 17/12 RMK AO1 T01700124=
METAR CWYL 080900Z AUTO 06003KT 05/03 RMK AO1 T00540028=
CWYY RMK NIL=
CWZA RMK NIL=
CWZL RMK NIL=
METAR CWZO 080900Z AUTO 01001KT RMK AO1 =
CWZQ RMK NIL=
METAR CWZS 080900Z AUTO 36007KT 19/19 RMK AO1 SLP147 T01940188
55000=
CWZV RMK NIL=
CXHM RMK NIL=
CXKA RMK NIL=
METAR CXKE 080900Z AUTO 20001KT 21/20 RMK AO1 SLP153 T02100195
50000=
METAR CWYJ 080900Z AUTO 00000KT 17/12 RMK AO1 T01700124=
METAR CWYL 080900Z AUTO 06003KT 05/03 RMK AO1 T00540028=
CWYY RMK NIL=
CWZA RMK NIL=
CWZL RMK NIL=
METAR CWZO 080900Z AUTO 01001KT RMK AO1 =
CWZQ RMK NIL=
METAR CWZS 080900Z AUTO 36007KT 19/19 RMK AO1 SLP147 T01940188
55000=
CWZV RMK NIL=
CXHM RMK NIL=
CXKA RMK NIL=
METAR CXKE 080900Z AUTO 20001KT 21/20 RMK AO1 SLP153 T02100195
50000=
####018001128####
SACN93 KWBC 080908
CWMZ RMK NIL=
METAR CWNE 080900Z AUTO 23016KT 20/17 RMK AO1 PK WND 22020/0847
SLP164 T02030173 53008=
CWNK RMK NIL=
METAR CWNM 080900Z AUTO 13/12 RMK AO1 SLP196 T01250117 51013=
METAR CWNP 080900Z AUTO 04001KT 14/10 RMK AO1 SLP186 T01400103
51014=
METAR CWNQ 080900Z AUTO 13003KT 23/21 RMK AO1 SLP147 T02250210
53003=
CWNX RMK NIL=
METAR CWOC 080900Z AUTO 15001KT 16/15 RMK AO1 SLP150 T01550145
51009=
METAR CWOD 080900Z AUTO 01002KT 18/ RMK AO1 SLP133 T0182 53002=
METAR CWOE 080900Z AUTO 34006KT 11/07 RMK AO1 T01140071=
CWOQ RMK NIL=
CWPB RMK NIL=
CWPD RMK NIL=
CWPE RMK NIL=
METAR CWPF 080900Z AUTO 05004KT 16/13 RMK AO1 SLP139 T01550125
53006=
METAR CWPR 080900Z AUTO 00000KT 14/ RMK AO1 SLP188 T0135 51018=
METAR CWPZ 080900Z AUTO 31001KT 07/05 RMK AO1 SLP193 T00700051
51007=
CWQA RMK NIL=
CWPD RMK NIL=
CWPE RMK NIL=
METAR CWPF 080900Z AUTO 05004KT 16/13 RMK AO1 SLP139 T01550125
53006=
METAR CWPR 080900Z AUTO 00000KT 14/ RMK AO1 SLP188 T0135 51018=
METAR CWPZ 080900Z AUTO 31001KT 07/05 RMK AO1 SLP193 T00700051
51007=
CWQA RMK NIL=
####018000291####
SACN78 KWBC 080908
CTNK RMK NIL=
METAR CTRA 080900Z AUTO 24003KT 15/13 RMK AO1 SLP143 T01480134
56005=
CWKK RMK NIL=
CXBI RMK NIL=
METAR CXZC 080900Z AUTO 00000KT 18/15 RMK AO1 SLP112 T01790151
56014=
METAR CZEL 080900Z AUTO 07001KT 20/20 RMK AO1 SLP178 T02000196
57006=
####018001653####
SACN87 KWBC 080908
METAR CWCT 080900Z AUTO 26006KT 09/08 RMK AO1 SLP218 T00920076
57001=
CWLB RMK NIL=
METAR CWDC 080900Z AUTO 07002KT 11/08 RMK AO1 SLP133 T01090084
55003=
METAR CWEH 080900Z AUTO 13005KT 09/06 RMK AO1 SLP217 T00880059
51001=
METAR CWKO 080900Z AUTO 27006KT 10/08 RMK AO1 SLP211 T01030081
53002=
METAR CWOY 080900Z AUTO 29005KT 09/08 RMK AO1 SLP193 T00940077
58001=
METAR CWDC 080900Z AUTO 07002KT 11/08 RMK AO1 SLP133 T01090084
55003=
METAR CWEH 080900Z AUTO 13005KT 09/06 RMK AO1 SLP217 T00880059
51001=
METAR CWKO 080900Z AUTO 27006KT 10/08 RMK AO1 SLP211 T01030081
53002=
METAR CWOY 080900Z AUTO 29005KT 09/08 RMK AO1 SLP193 T00940077
58001=
METAR CWEK 080900Z AUTO 14008KT 13/ RMK AO1 SLP160 T0129 51009=
METAR CWEQ 080900Z AUTO 19005KT 08/07 RMK AO1 SLP166 T00840073
58001=
CWJD RMK NIL=
METAR CWLP 080900Z AUTO 32007KT 13/12 RMK AO1 SLP166 T01280117
52006=
CWPU RMK NIL=
CWRO RMK NIL=
CWWL RMK NIL=
CWWS RMK NIL=
METAR CWZG 080900Z AUTO 00000KT 08/04 RMK AO1 SLP232 T00810036
51008=
METAR CWDC 080900Z AUTO 07002KT 11/08 RMK AO1 SLP133 T01090084
55003=
METAR CWEH 080900Z AUTO 13005KT 09/06 RMK AO1 SLP217 T00880059
51001=
METAR CWKO 080900Z AUTO 27006KT 10/08 RMK AO1 SLP211 T01030081
53002=
METAR CWOY 080900Z AUTO 29005KT 09/08 RMK AO1 SLP193 T00940077
58001=
CWME RMK NIL=
CWME RMK NIL=
METAR CWVT 080900Z AUTO 27003KT 15/09 RMK AO1 SLP167 T01470085
58002=
METAR CWZW 080900Z AUTO 06002KT 09/05 RMK AO1 SLP221 T00890047
53003=
CWQS RMK NIL=
METAR CWRM 080900Z AUTO 13002KT 09/08 RMK AO1 SLP208 T00860078
58005=
CWRU RMK NIL=
####018000771####
SACN86 KWBC 080908
CWHP RMK NIL=
CWBE RMK NIL=
CWCU RMK NIL=
CWNL RMK NIL=
CWPO RMK NIL=
CWPS RMK NIL=
CWSI RMK NIL=
CWWX RMK NIL=
CWWZ RMK NIL=
CWDQ RMK NIL=
CWDV RMK NIL=
CWDQ RMK NIL=
CWDV RMK NIL=
CWDQ RMK NIL=
CWDV RMK NIL=
CWDQ RMK NIL=
CWDV RMK NIL=
METAR CWWB 080900Z AUTO 23005KT 25/21 RMK AO1 SLP158 T02450212
56007=
CWNC RMK NIL=
METAR CWNZ 080900Z AUTO 24004KT 18/14 RMK AO1 SLP139 T01800136
55004=
CTAE RMK NIL=
CTAL RMK NIL=
CTCK RMK NIL=
CTCW RMK NIL=
CTWN RMK NIL=
METAR CWAJ 080900Z AUTO 25/21 RMK AO1 SLP162 T02490212 58005=
METAR CWBE 080900Z AUTO 09001KT 19/18 RMK AO1 SLP168 T01860180
55011=
CWLS RMK NIL=
CWNB RMK NIL=
CWNL RMK NIL=
CWPC RMK NIL=
CWPS RMK NIL=
CWWX RMK NIL=
####018001972####
SACN97 KWBC 080908
CXKT RMK NIL=
CXKT RMK NIL=
CXKT RMK NIL=
CXKT RMK NIL=
CXKT RMK NIL=
CXBK RMK NIL=
CXKT RMK NIL=
CXBK RMK NIL=
CXKT RMK NIL=
CXBK RMK NIL=
CXKT RMK NIL=
CXKT RMK NIL=
CXKT RMK NIL=
CXAT RMK NIL=
CXBK RMK NIL=
CXBO RMK NIL=
METAR CXCA 080900Z AUTO 13002KT 16/16 RMK AO1 3PAST HR 8008 SLP148
P0001 T01640158 50012=
CXCH RMK NIL=
METAR CXCK 080900Z AUTO 35003KT 13/ RMK AO1 T0129=
CXDE RMK NIL=
METAR CXDI 080900Z AUTO 00000KT 20/18 RMK AO1 SLP153 T02000183
57004=
METAR CXDW 080900Z AUTO 27010KT 14/12 RMK AO1 T01430122=
METAR CXEA 080900Z AUTO 19001KT 13/12 RMK AO1 SLP132 T01330120
56006=
CXEC RMK NIL=
CXEG RMK NIL=
CXET RMK NIL=
CXGH RMK NIL=
CXHA RMK NIL=
CXHF RMK NIL=
METAR CXIB 080900Z AUTO 25009KT 22/17 RMK AO1 SLP177 T02220166
55000=
CXLC RMK NIL=
CXLL RMK NIL=
CXMD RMK NIL=
METAR CXMI 080900Z AUTO 18006KT 16/16 RMK AO1 SLP212 T01630156
53015=
CXMM RMK NIL=
METAR CXMY 080900Z AUTO 18/17 RMK AO1 T01760167=
CXNM RMK NIL=
METAR CXOX 080900Z AUTO 23004KT 12/09 RMK AO1 SLP159 T01170092
57003=
CXPV RMK NIL=
CXQA RMK NIL=
CXQT RMK NIL=
METAR CXRH 080900Z AUTO 13003KT 14/12 RMK AO1 T01350122=
METAR CXSH 080900Z AUTO 32003KT 23/20 RMK AO1 SLP146 T02320195
53003=
METAR CXSR 080900Z AUTO 16/08 RMK AO1 SLP178 T01550082 53004=
METAR CXSW 080900Z AUTO 16002KT 07/07 RMK AO1 T00700066=
CXTN RMK NIL=
METAR CXTP 080900Z AUTO 18005KT 09/08 RMK AO1 SLP225 T00860082
58003=
CXTV RMK NIL=
CXWN RMK NIL=
METAR CXZU 080900Z AUTO 27003KT 13/10 RMK AO1 SLP187 T01300098
50000=
CXWN RMK NIL=
METAR CXZU 080900Z AUTO 27003KT 13/10 RMK AO1 SLP187 T01300098
50000=
CXWN RMK NIL=
METAR CXZU 080900Z AUTO 27003KT 13/10 RMK AO1 SLP187 T01300098
50000=
CXWN RMK NIL=
METAR CXZU 080900Z AUTO 27003KT 13/10 RMK AO1 SLP187 T01300098
50000=
CXWN RMK NIL=
METAR CXZU 080900Z AUTO 27003KT 13/10 RMK AO1 SLP187 T01300098
50000=
####018000091####
SAUS70 KWBC 080900 RRI
METAR
KBXK 080855Z AUTO 00000KT 10SM CLR 27/01 A2976 RMK AO1=
####018000392####
SAXX60 KWBC 080900 RRF
METAR
KHRT 080855Z AUTO 00000KT 10SM CLR 23/23 A3000 RMK AO2 SLP162
     T02330232 56008 $=
KNGU 080859Z 12003KT 5SM BR BKN130 26/24 A2996 RMK AO2 SLP146
     T02560239 55003=
KNJM 080857Z AUTO 01005KT 10SM CLR 26/20 A2990 RMK AO2 SLP130
     T02610200 56005 $=
TTPP 080900Z 00000KT 8000 -SHRA VCSH FEW016 SCT036 BKN280 26/25
     Q1011 TEMPO SHRA=
####018000971####
SPUS70 KWBC 080908
SPECI
KEKQ 080903Z AUTO 00000KT 2SM BR CLR 19/18 A3010 RMK AO2=
KGNV 080903Z AUTO 00000KT 1 3/4SM BR SCT001 20/19 A3000 RMK
     AO2=
KMPV 080904Z AUTO 00000KT 2SM BR CLR 20/19 A3011 RMK AO2=
KVAY 080904Z AUTO 00000KT 1/4SM FG VV005 23/23 A3001 RMK AO2=
KBJJ 080905Z AUTO 00000KT 1 3/4SM BR CLR 18/17 A3010 RMK AO2=
KBOS 080905Z 16004KT 10SM SCT019 22/19 A3007 RMK AO2=
KGOK 080905Z AUTO 01003KT 10SM BKN025 OVC050 23/22 A3004 RMK
     AO2=
KLAR 080905Z AUTO 28003KT 9SM SCT005 BKN017 08/08 A3039 RMK
     AO2=
KRHI 080905Z AUTO 00000KT 10SM SCT003 18/18 A3002 RMK AO2=
KRVS 080905Z 00000KT 5SM VCTS RA BR BKN015 BKN065 OVC090 23/23
     A3001 RMK AO2 LTG DSNT ALQDS TSB0859 P0004=
KRWL 080905Z AUTO 06008KT 3SM BR SCT001 08/07 A3038 RMK AO2=
KBGD 080906Z AUTO 03005KT 10SM -RA SCT022 BKN070 OVC110 18/18
     A3018 RMK AO2 RAB0853 P0000=
KCOT 080906Z AUTO 05004KT 10SM BKN014 OVC045 25/23 A2990 RMK
     AO2=
####018000228####
SPUS80 KWBC 080908
SPECI
KCRP 080905Z 05006KT 9SM -TSRA FEW009 SCT021CB BKN055 26/24 A2982
     RMK AO2 OCNL LTGIC NE NW TS NE NW MOV W P0039=
PASN 080905Z 07011KT 10SM FEW004 SCT035 OVC045 06/05 A2995 RMK
     AO2=
####018000376####
SAUS70 KWBC 080908
METAR
KFYJ 080904Z AUTO 00000KT 3SM SCT120 26/24 A2998 RMK AO1=
KHDC 080905Z AUTO 07003KT 10SM CLR 26/26 A3002 RMK AO2=
KTNB 080904Z AUTO 00000KT 7SM CLR 16/14 A3020 RMK AO2=
KVDI 080904Z AUTO 00000KT 10SM CLR 22/21 A3000 RMK AO1=
KORG 080905Z AUTO 08008KT 7SM CLR 17/15 A2996 RMK AO2=
KRQO 080915Z AUTO 00000KT 7SM CLR 22/22 A3006 RMK AO2=
####018000085####
SAIR33 OIII 080600 RRE
METAR OIBP 080600Z 00000KT 4000 HZ SKC 39/20 Q1000 A2955=
####018000095####
SPAU31 KWBC 080908
SPECI
YSRI 080906Z AUTO 19006KT 8000NDV // BKN031 OVC039 12/10 Q1027=
####018000152####
SAAF34 KWBC 080900 RRA
METAR
FBSK 080900Z 08016KT 9999 BKN020 17/09 Q1033 NOSIG=
FDMS 080900Z 00000KT 9000 -DZ FEW012 OVC030 17/12 Q1032 NOSIG=
####018000084####
SAAO32 KWBC 080900 RRA
METAR
GQPP 080900Z 35010KT 8000 NSC 23/20 Q1012 NOSIG=
####018000081####
SABC40 FBSK 080900
METAR FBSK 080900Z 08016KT 9999 BKN020 17/09 Q1033 NOSIG=
####018000085####
SAIR33 OIII 080700 RRC
METAR OIBP 080700Z 21008KT 4000 HZ SKC 40/21 Q1000 A2954=
####018000088####
SAAO33 KWBC 080900 RRA
METAR
GBYD 080900Z VRB03KT 9999 SCT011 SCT120 28/25 Q1012=
####018000082####
SAAW32 KWBC 080830 RRB
METAR
OIHH 080850Z 21014KT CAVOK 38/M04 Q1015 A3000=
####018000768####
SAAW34 KWBC 080845 RRE
METAR
UAAA 080900Z 03004MPS 010V070 9999 FEW050CB BKN100 30/10 Q1013
     88CLRD65 TEMPO TS=
UACC 080900Z 26004MPS 220V310 CAVOK 25/03 Q1009 220/0070 NOSIG RMK
     QFE726/0968=
UAKK 080900Z VRB01MPS CAVOK 24/03 Q1010 230///70 NOSIG RMK
     QFE711/0948=
UAOO 080900Z NIL=
UARR 080900Z NIL=
UATE 080900Z 30006MPS 270V340 CAVOK 36/17 Q1010 300///70 NOSIG RMK
     QFE756/1008=
UATG 080900Z 35006G10MPS CAVOK 39/10 Q1009 32CLRD70 NOSIG RMK
     QFE759/1012=
UATT 080900Z 05010MPS 9999 NSC 32/04 Q1011 13CLRD70 NOSIG RMK
     QFE738/0985=
UAUU 080900Z 34006MPS 300V360 CAVOK 26/M01 Q1013 33CLRD70 NOSIG
     RMK QFE744/0992=
UTDD 080900Z VRB01MPS 9999 FEW066 36/05 Q1010 09CLRD70 NOSIG RMK
     QFE690/0920=
####018000129####
SABO59 SLLP 080900
METAR SLRI 080900Z 00000KT 3000 BR SKC 24/24 Q1011=
METAR SLCA 080900Z 00000KT 9999 BKN036 15/14 Q1020=
####018000127####
SABO SLLP 080900
METAR SLRI 080900Z 00000KT 3000 BR SKC 24/24 Q1011=
METAR SLCA 080900Z 00000KT 9999 BKN036 15/14 Q1020=
####018000075####
SABZ41 KWBC 080900 RRA
METAR
SBCR 080900Z 16007KT CAVOK 23/15 Q1013=
####018000136####
SACA31 KWBC 080900 RRA
METAR
MKJP 080900Z 09011KT 9999 SCT020 BKN220 27/19 Q1012=
MKJS 080900Z 00000KT 9999 FEW022 25/22 Q1012=
####018000077####
SPUS31 KWBC 080908
SPECI
KBOS 080905Z 16004KT 10SM SCT019 22/19 A3007=
####018001365####
SACI32 KWBC 080900 RRA
METAR
ZBAA 080900Z VRB02MPS CAVOK 36/10 Q1003 NOSIG=
ZBTJ 080900Z 15008MPS CAVOK 31/17 Q1004 NOSIG=
ZBYN 080900Z 11004MPS CAVOK 31/12 Q1007 BECMG 09005MPS=
ZGGG 080900Z 14006MPS 9999 FEW050TCU SCT050 35/26 Q1004 NOSIG=
ZGNN 080900Z 14006MPS 110V180 9999 TS FEW026CB SCT026 34/25 Q1002
     TEMPO -TSRA FEW030CB SCT033=
ZGSZ 080900Z 17008MPS 130V190 9999 FEW020 33/25 Q1005 NOSIG=
ZHHH 080900Z 08005MPS 040V120 6000 -RA FEW010 FEW030TCU 24/24
     Q1001 RETSRA NOSIG=
ZLLL 080900Z 01007MPS 9999 FEW023 25/10 Q1016 NOSIG=
ZPPP 080900Z 19004MPS 9999 FEW026 OVC040 23/17 Q1015 NOSIG=
ZSAM 080900Z 19007MPS CAVOK 33/25 Q1004 NOSIG=
ZSHC 080900Z 00000MPS 5000 -SHRA BR BKN020 FEW033CB 28/23 Q1005
     TEMPO TSRA SCT033CB=
ZSNJ 080900Z 11004MPS 3500 HZ BKN033 29/22 Q1003 TEMPO 2000 -TSRA
     FEW030CB=
ZSOF 080900Z 21002MPS 160V240 8000 -RA BKN020 27/26 Q1003
     NOSIG=
ZSPD 080900Z 09006MPS 060V120 9999 BKN013 27/24 Q1006 NOSIG=
ZSSS 080900Z 09004MPS 050V130 9999 BKN026 29/23 Q1005 NOSIG=
ZUCK 080900Z 11002MPS 080V150 3300 BR SCT020 29/25 Q1001 NOSIG=
ZUUU 080900Z VRB01MPS 6000 NSC 28/24 Q1002 NOSIG=
ZWWW 080900Z 01003MPS 330V050 9999 FEW050CB 33/07 Q1010 NOSIG=
ZYHB 080900Z 03003MPS 5000 -RA BR BKN033 19/18 Q1008 NOSIG=
ZYTL 080900Z 28004MPS 240V330 9999 SCT033 28/18 Q1006 NOSIG=
####018003071####
SACN31 KWBC 080900 RRA
METAR
CYBG 080900Z 05005KT 1 1/2SM BR SCT078 SCT240 19/18 A2998 RMK
     AC3CI1 SLP151=
CYDQ 080900Z AUTO 00000KT 9SM CLR 11/08 A3004 RMK SLP184=
CYFB 080900Z 00000KT 30SM FEW250 09/05 A2981 RMK CI2 SLP097=
CYFC 080900Z AUTO 19009KT 7SM OVC006 19/18 A3006 RMK SLP181
     DENSITY ALT 300FT RVR MISG=
CYFT 080900Z 20003KT 15SM FEW020 SCT070 BKN210 15/11 A2992 RMK
     SC2AC2CI3 SLP134=
CYGL 080900Z 13005KT 15SM FEW012 FEW030 BKN060 BKN230 18/14 A2991
     RMK CU1SC1SC6CI0 DIST SH W SLP132=
CYHZ 080900Z 18007KT 1/2SM R23/3000VP6000FT/D FG SCT250 16/16
     A3015 RMK FG2CI1 SLP209=
CYJT 080900Z 06006KT 15SM SCT028 BKN070 18/16 A3008 RMK SC4AC3
     SLP186=
CYKL 080900Z AUTO 17004KT 120V200 9SM BKN074 BKN096 14/12 A2989
     RMK SLP129=
CYMH 080900Z AUTO 15003KT 9SM BKN005 OVC032 07/06 A3010 RMK
     SLP195=
CYMX 080900Z 00000KT 10SM FEW080 23/19 A3000 RMK AC1 SLP157=
CYOW 080900Z 25003KT 15SM FEW070 24/20 A3000 RMK AC1 SLP159=
CYQB 080900Z 07005KT 5SM BR BKN005 OVC070 19/17 A3001 RMK ST6AC2
     SLP161=
CYQG 080900Z 23005KT 15SM FEW270 26/21 A3003 RMK CI2 SLP163=
CYQM 080900Z 20007KT 15SM FEW008 FEW075 FEW130 SCT260 17/16 A3006
     RMK SF1ACC1AC1CI1 SLP181=
CYQQ 080900Z 29002KT 20SM SKC 21/13 A2997 RMK SLP150=
CYQX 080900Z 15009KT 15SM BKN004 OVC029 10/09 A3015 RMK SF7SC1
     SLP215=
CYQY 080900Z 24005KT 15SM BKN120 BKN240 17/16 A3010 RMK AC6CC1
     SLP195=
CYRB 080900Z 17007KT 15SM FEW240 10/01 A2978 RMK CI1 SLP089=
CYSJ 080900Z 18006KT 1/2SM R23/4000VP6000FT/D FG OVC003 15/14
     A3011 RMK FG3ST5 SLP197=
CYTE 080900Z AUTO 09010KT 9SM CLR 06/03 A2975 RMK SLP078=
CYTL 080900Z AUTO 22006KT 9SM CLR 16/14 A2981 RMK SLP100=
CYTR 080900Z 00000KT 3SM HZ FEW100 22/19 A3001 RMK AC0 SLP162=
CYUY 080900Z 00000KT 15SM FEW060 FEW160 SCT240 18/16 A2997 RMK
     CF1AC2CI0 SLP148=
CYVP 080900Z 28006KT 15SM OVC015 15/13 A2976 RMK SC8 SLP077=
CYVR 080900Z 36003KT 30SM SKC 18/12 A2996 RMK SLP147=
CYWG 080900Z 27006KT 15SM FEW078 14/13 A2997 RMK AC1 SLP150=
CYWK 080900Z 19005KT 15SM SCT300 17/15 A2997 RMK CI1 SLP148=
CYXU 080900Z 00000KT 10SM MIFG SKC 20/19 A3006 RMK SLP174=
CYXY 080900Z 00000KT 40SM FEW120 12/05 A3014 RMK AC1 SLP218=
CYYC 080900Z 21004KT 15SM SCT110 14/09 A3020 RMK AC2 SLP220=
CYYJ 080900Z 23005KT 30SM SKC 15/12 A2996 RMK SLP147=
CYYQ 080900Z 26007KT 15SM FEW060 11/10 A2966 RMK SC1 SLP046=
CYYR 080900Z 18010KT 15SM BKN020 15/12 A2997 RMK SC7 SLP152=
CYYT 080900Z 15005KT 1/4SM R16/3000V6000FT/D R29/1400V3000FT/U FG
     VV001 08/08 A3024 RMK FG8 SLP243=
CYYZ 080900Z 27003KT 15SM FEW100 25/23 A3002 RMK AC1 SLP162=
CYZF 080900Z 00000KT 15SM BKN110 BKN210 15/09 A2994 RMK AC4CI1
     SLP142=
CYZV 080900Z 14003KT 1/4SM R09/2400FT/N -DZ FG VV002 12/12 A3005
     RMK FG8 SLP176=
CYZX 080900Z 00000KT 2SM BR OVC006 17/16 A3013 RMK SF8 WNDY HILL
     22005KT SLP204=
CYZY 080900Z AUTO 00000KT 9SM CLR 14/09 A3007 RMK SLP186=
CZBF 080900Z 00000KT 3/4SM BR VV004 18/18 A3000 RMK FG8 SLP158=
####018000117####
SACN31 KWBC 080900 CCA
METAR
CYEG 080900Z CCA 19006KT 15SM FEW100 BKN240 13/12 A3011 RMK AC1CI4
     SLP198=
####018000317####
SAEE31 KWBC 080900 RRA
METAR
EPSC 080900Z 16002KT CAVOK 22/12 Q1022=
UMII 080900Z 16003MPS P6000 BKN015 21/18 Q1013 R23/CLRD//
     NOSIG=
UMMM 080900Z 29005MPS 9999 BKN018 19/15 Q1014 R30/290050 NOSIG RMK
     QFE741=
UMMS 080900Z 28004G07MPS 250V310 9999 BKN015 19/16 Q1014
     R31/CLRD// NOSIG=
####018000150####
SAEW31 KWBC 080900 RRA
METAR
LPAZ 080900Z VRB02KT 9999 FEW008 BKN016 BKN030 20/19 Q1024=
LPPD 080900Z 29005KT 9999 FEW017 BKN030 20/15 Q1024=
####018000211####
SAFR31 KWBC 080900 RRA
METAR
LFGJ 080900Z AUTO 22005KT 160V280 9999NDV NSC 25/15 Q1021=
LFMD 080900Z AUTO 17006KT 130V200 9999NDV NSC 29/21 Q1020=
LFMH 080900Z 15004KT 090V220 CAVOK 26/13 Q1021 NOSIG=
####018000185####
SAEM31 KWBC 080900 RRA
METAR
LJLJ 080900Z VRB03KT 9999 FEW050 21/08 Q1024 NOSIG=
LJMB 080900Z VRB02KT 9999 FEW040 23/09 Q1023=
LJPZ 080900Z 30003KT 260V350 CAVOK 24/09 Q1022=
####018000513####
SAFR32 KWBC 080900 RRA
METAR
LFOT 080900Z AUTO 11004KT 050V160 9999NDV NSC 28/11 Q1019=
LFPN 080900Z VRB05KT CAVOK 28/12 Q1019 NOSIG=
LFRC 080900Z AUTO VRB03KT 9999NDV BKN014 19/15 Q1019=
LFRK 080900Z 32005KT 260V030 CAVOK 24/14 Q1019 NOSIG=
LFRQ 080900Z 06006KT 010V090 9999 FEW020 SCT230 21/15 Q1018
     NOSIG=
LFRT 080900Z VRB03KT 9999 BKN011 SCT250 18/15 Q1019=
LFTW 080900Z AUTO VRB02KT 9999NDV NSC 29/14 Q1020=
LFVP 080900Z VRB02KT 9999 SCT003 BKN015 BKN083 11/11 Q1022
     NOSIG=
####018000323####
SAFR41 KWBC 080900 RRA
METAR
LFBA 080900Z 11008KT CAVOK 26/16 Q1018 NOSIG=
LFLD 080900Z 11005KT 060V150 CAVOK 27/14 Q1019=
LFLV 080900Z VRB02KT CAVOK 26/16 Q1020=
LFQB 080900Z 14004KT 090V210 CAVOK 29/11 Q1019=
LFRH 080900Z 05004KT 340V130 CAVOK 22/15 Q1018=
LFRM 080900Z 13003KT 080V170 CAVOK 27/15 Q1018=
####018000103####
SAUS44 KMOB 080907 COR
MTRNSE
SPECI KNSE 080903Z AUTO 00000KT 3/4SM BR CLR 23/21 A3002 RMK AO2 $
####018000194####
SAIO31 KWBC 080900 RRA
METAR
FIMP 080900Z 13016KT 9999 SCT016 25/16 Q1022=
FMCZ 080900Z 14014KT 9999 BKN025 26/19 Q1018=
FMEE 080900Z 13021KT 9999 FEW023 24/17 Q1022 TEMPO 13028G38KT=
####018000922####
SAIY31 KWBC 080850 RRB
METAR
LIBC 080850Z 03020KT CAVOK 26/12 Q1018 RMK VIS MIN 9999=
LIBD 080850Z 36011KT 9999 FEW030 25/12 Q1020 RMK VIS MIN 9999=
LIBP 080850Z VRB03KT CAVOK 25/07 Q1022 RMK VIS MIN 9999=
LICA 080850Z 22009KT 9999 FEW020 SCT060 27/23 Q1017 RMK VIS MIN
     9999=
LICC 080850Z 09005KT CAVOK 29/20 Q1018 RMK VIS MIN 9999=
LICG 080855Z 32008KT 9999 SCT020 23/20 Q1019 RMK SCT VIS MIN 9999
     WIND THR08 32005KT WIND THR21 VRB07KT BLU=
LICJ 080850Z 04015KT CAVOK 27/22 Q1018 RMK VIS MIN 9999=
LICR 080850Z 35010KT 9999 FEW020 SCT040 30/19 Q1018 RMK VIS MIN
     9999=
LICT 080855Z 33007KT CAVOK 30/22 Q1018 RMK SKC VIS MIN 9999 WIND
     THR13 33007KT BLU=
LIEA 080850Z 03004KT 300V110 CAVOK 29/21 Q1019 RMK VIS MIN
     9999=
LIEO 080850Z 03007KT 350V070 9999 FEW030 30/15 Q1020 RMK VIS MIN
     9999=
LIMG 080850Z 03007KT 9999 BKN080 30/25 Q1020 RMK VIS MIN 9999=
####018000312####
SAIY32 KWBC 080750 RRD
METAR
LIPH 080845Z 01002KT 9999 SCT035 BKN070 24/18 Q1022 RMK BKN VIS
     MIN 9999 WIND THR07 /////KT BLU=
LIPR 080845Z 12006KT CAVOK 27/16 Q1021 RMK SKC VIS MIN 9999 WIND
     THR31 13005KT BLU=
LIPX 080845Z 10007KT 9999 SCT080 27/14 Q1021 RMK SCT VIS MIN 9999
     BLU=
####018000143####
SAIY31 KWBC 080750 RRE
METAR
LIBR 080845Z /////KT CAVOK 25/15 Q1017 NOSIG RMK SKC VIS MIN 9999
     WIND THR13 WIND THR31 33021KT BLU=
####018000427####
SACZ43 LKPW 080900
METAR LKCV 080900Z VRB03KT 9999 FEW045 SCT220 21/08 Q1024
           NOSIG=
METAR LKKB 080900Z VRB01KT 9999 FEW041 22/09 Q1023 NOSIG=
METAR LKLN 080900Z AUTO VRB02KT CAVOK 20/14 Q1024=
METAR LKNA 080900Z 36004KT 360V160 9999 FEW046 19/06 Q1024
           NOSIG=
METAR LKPD 080900Z 02004KT 300V110 9999 FEW035 22/07 Q1023
           NOSIG=
METAR LKPO 080900Z VRB02KT 9999 FEW045 20/10 Q1023 NOSIG=
####018001805####
SAEU KAWN 080900 RRS
METAR COR EGPB 080850Z 19016KT 9999 FEW012 14/11 Q1006 NOSIG=
METAR LECV 080900Z VRB02KT 9999 FEW070 26/11 Q1022=
METAR LELO 080900Z 10009KT 070V130 CAVOK 28/17 Q1018=
METAR LIBA 080855Z /////KT 9999 FEW040 27/11 Q1019 RMK FEW VIS MIN
      9999 WIND THR29 30009KT BLU=
METAR LIBC 080850Z 03020KT CAVOK 26/12 Q1018 RMK VIS MIN 9999=
METAR LIBN 080855Z 36016G26KT 9999 FEW030 25/12 Q1017 RMK FEW VIS MIN
      9999 WIND THR14 36017KT BLU=
METAR LIBP 080850Z VRB03KT CAVOK 25/07 Q1022 RMK VIS MIN 9999=
METAR LIBV 080855Z 36017KT 9999 FEW030 24/12 Q1017 RMK FEW VIS MIN
      9999 WIND THR14 36015KT BLU=
METAR LICA 080850Z 22009KT 9999 FEW020 SCT060 27/23 Q1017 RMK VIS MIN
      9999=
METAR LIMU 080855Z 06004KT 9999 FEW023 28/22 Q1020 RMK BKN SCT070 QUK
      2 QUL 1 S VIS MAR 15 KM VIS MIN 9999=
METAR LJLJ 080900Z VRB03KT 9999 FEW050 21/08 Q1024 NOSIG=
METAR LJMB 080900Z VRB02KT 9999 FEW040 23/09 Q1023=
METAR LJPZ 080900Z 30003KT 260V350 CAVOK 24/09 Q1022=
METAR LPPD 080900Z 29005KT 9999 FEW017 BKN030 20/15 Q1024=
METAR LRAR 080900Z 05008KT 9999 SCT031 21/16 Q1020=
METAR LRBC 080900Z 35012KT 9999 FEW034 SCT050 23/17 Q1016=
METAR LRBM 080900Z VRB02KT 9999 FEW007 BKN014 17/16 Q1019 1019//95=
METAR LRCL 080900Z 29006KT 9999 FEW011 BKN015 OVC021 15/12 Q1020 0821//95=
METAR LRCV 080900Z 34004KT 310V010 9999 FEW023 SCT038 20/14 Q1017=
METAR LRIA 080900Z 32006KT 270V020 9999 FEW019 SCT034 23/17 Q1017=
METAR LROD 080900Z 01010KT 330V040 9999 FEW035 21/14 Q1021=
METAR LRSM 080900Z 06010KT 9999 SCT020 20/14 Q1020=
METAR COR LRSV 080900Z 32014KT 9999 BKN008 16/14 Q1018=
METAR LRTC 080900Z 36012KT 330V030 9999 FEW030CB BKN040 22/17 Q1014=
METAR LRTM 080900Z 23006KT 9999 FEW009 SCT013 BKN020 16/13 Q1020 07CLRD//=
####018000344####
SARO33 LROM 080900
METAR LRBC 080900Z 35012KT 9999 FEW034 SCT050 23/17 Q1016=
METAR LRCV 080900Z 34004KT 310V010 9999 FEW023 SCT038 20/14 Q1017=
METAR LRIA 080900Z 32006KT 270V020 9999 FEW019 SCT034 23/17 Q1017=
METAR COR LRSV 080900Z 32014KT 9999 BKN008 16/14 Q1018=
METAR LRTC 080900Z 36012KT 330V030 9999 FEW030CB BKN040 22/17 Q1014=
####018000707####
SAZA31 FAPR 080900
METAR FABL 080900Z 34012KT CAVOK 15/05 Q1034 NOSIG=
METAR FACT 080900Z VRB02KT CAVOK 16/05 Q1021 NOSIG=
METAR FAEL 080900Z 04008KT 010V080 CAVOK 19/09 Q1028=
METAR FAGG 080900Z VRB01KT 9999 FEW040 15/05 Q1023=
METAR FAJS 080900Z 07011KT 040V110 9999 SCT012 13/07 Q1037 NOSIG=
METAR FALA 080900Z 07006KT 040V120 9999 SCT030 15/07 Q1035 NOSIG=
METAR FALE 080900Z 04006KT CAVOK 21/12 Q1031 NOSIG=
METAR FAMM 080900Z 02014KT 9999 FEW040 17/05 Q1033 NOSIG=
METAR FAPE 080900Z 02009KT CAVOK 14/11 Q1026 NOSIG=
METAR FAPN 080900Z AUTO 07002KT //// // ////// 17/07 Q1033=
METAR FAPP 080900Z 10008KT 9999 BKN025 14/08 Q1033 NOSIG=
METAR FAUP 080900Z 01020KT CAVOK 21/03 Q1028 NOSIG=
####018000741####
SAIY41 KWBC 080850 RRB
METAR
LIBA 080855Z /////KT 9999 FEW040 27/11 Q1019 RMK FEW VIS MIN 9999
     WIND THR29 30009KT BLU=
LIBG 080850Z 36018KT 330V040 CAVOK 26/08 Q1018 RMK VIS MIN
     9999=
LIBN 080855Z 36016G26KT 9999 FEW030 25/12 Q1017 RMK FEW VIS MIN
     9999 WIND THR14 36017KT BLU=
LIBQ 080855Z 06007KT 9999 FEW009 15/11 Q1024 RMK FEW MON LIB VAL
     NIL VIS MIN 9999=
LIBV 080855Z 36017KT 9999 FEW030 24/12 Q1017 RMK FEW VIS MIN 9999
     WIND THR14 36015KT BLU=
LICD 080850Z 36011KT 220V360 CAVOK 26/21 Q1019 RMK VIS MIN
     9999=
LICZ 080855Z 10011KT CAVOK 30/18 Q1018 RMK SKC VIS MIN 9999 WIND
     THR28 //////KT BLU=
LIED 080855Z 16006KT CAVOK 31/12 Q1018 RMK SKC VIS MIN 9999
     BLU=
####018000311####
SAIY32 KWBC 080850 RRB
METAR
LIPB 080850Z 16008KT 9999 FEW060 26/12 Q1022 RMK MON LIB VIS MIN
     9999=
LIPO 080850Z 07006KT 040V140 9999 BKN065 25/16 Q1022 RMK VIS MIN
     9999=
LIPY 080850Z VRB05KT CAVOK 26/10 Q1021 RMK VIS MIN 9999=
LIRZ 080850Z VRB02KT CAVOK 28/12 Q1021 RMK VIS MIN 9999=
####018001387####
SAIY42 KWBC 080850 RRA
METAR
LIMH 080855Z 06012KT CAVOK 06/M09 Q1038 RMK SKC MON LIB VAL S CLD
     SCT VIS MIN 9999=
LIMK 080855Z 35003KT 9999 BKN025 19/13 Q1023 RMK OVC SCT080 VAL
     NIL VIS MIN 9999=
LIMN 080855Z /////KT 9999 FEW050 26/15 Q1022 RMK SCT SCT080 VIS
     MIN 9999 BLU=
LIMS 080855Z 11009KT 040V150 CAVOK 26/17 Q1021 RMK FEW FEW200 VIS
     MIN 9999 WIND THR30 09005KT BLU=
LIMT 080855Z /////KT 8000 BKN012 14/12 Q1024 RMK BKN MON LIB VAL
     NIL VIS MIN 8000=
LIMU 080900Z NIL=
LIMU 080855Z 06004KT 9999 FEW023 28/22 Q1020 RMK BKN SCT070 QUK 2
     QUL 1 S VIS MAR 15 KM VIS MIN 9999=
LIMV 080855Z 03009KT 6000 FEW012 21/18 Q1022 RMK BKN BKN080 MON N
     INVIS S LIB CUF VAL FOSCHIA VIS MIN 3000N=
LIMY 080855Z /////KT 5000 BR BKN026 BKN036 21/19 Q1023 RMK OVC VAL
     FOSCHIA VIS MIN 5000=
LIPA 080855Z 23006KT 9999 SCT045 24/16 Q1022 RMK SCT VIS MIN 9999
     A3020 BLU=
LIPC 080855Z 16007KT CAVOK 27/12 Q1021 RMK FEW FEW200 VIS MIN 9999
     WIND THR12 13006KT BLU=
LIPF 080855Z 10003KT 9999 FEW050 25/19 Q1021 RMK FEW VIS MIN
     9999=
LIPI 080855Z 12006KT 9999 FEW030 SCT050 25/17 Q1022 RMK BKN VIS
     MIN 9999 WIND THR06 16005KT BLU=
LIPL 080855Z 11006KT 060V180 9999 SCT060 26/20 Q1022 RMK BKN VIS
     MIN 9999 BLU=
LIPS 080855Z 02004KT 9999 BKN060 24/16 Q1022 RMK BKN VIS MIN 9999
     BLU=
####018001916####
SAIY43 KWBC 080850 RRA
METAR
LIQN 080850Z 00000KT CAVOK 25/16 Q1021 RMK VIS MIN 9999=
LIQO 080855Z 00000KT CAVOK 23/14 Q1021 RMK FEW FEW200 VAL NIL NC
     VIS MIN 9999=
LIQW 080855Z 13004KT CAVOK 28/19 Q1020 RMK SKC VIS MIN 9999
     BLU=
LIRE 080855Z 21008KT 9999 FEW020 27/18 Q1019 RMK SCT VIS MIN 9999
     WIND THR31 20009KT BLU=
LIRG 080855Z 25002KT 9999 FEW035 29/19 Q1019 RMK SCT MON NE LIB NC
     VIS MIN 9999 BLU=
LIRH 080855Z 16002KT 9999 FEW035 26/18 Q1020 RMK FEW MON LIB NC
     VIS MIN 9999 WIND THR16 14003KT BLU=
LIRK 080855Z 14007KT CAVOK 16/12 Q1026 RMK SKC MON NE LIB NC VAL
     NIL NC VIS MIN 9999=
LIRL 080855Z 27004KT 9999 FEW020 28/21 Q1018 RMK FEW MON LIB NC
     VIS MIN 9999 BLU=
LIRS 080855Z 21002KT CAVOK 30/10 Q1019 RMK FEW FEW200 VIS MIN 9999
     WIND THR21 /////KT BLU=
LIRT 080855Z 36007KT 9999 FEW013 16/07 Q1023 RMK FEW MON LIB VAL
     NIL VIS MIN 9999=
LIRU 080850Z VRB01KT 9999 FEW040 30/19 Q1019 RMK VIS MIN 9999=
LIRV 080855Z 01004KT 9999 FEW024 26/17 Q1020 RMK FEW MON E SE LIB
     NC VIS MIN 9999 BLU=
LIRX 080900Z NIL=
LIRZ 080850Z VRB02KT CAVOK 28/12 Q1021 RMK VIS MIN 9999=
LIVC 080855Z 03007KT 9999 FEW000 13/11 Q1030 RMK FEW MON LIB VAL
     NIL VIS MIN 9999=
LIVD 080855Z 00000KT CAVOK 19/12 Q1025 RMK SKC VIS MIN 9999=
LIVE 080900Z NIL=
LIVF 080855Z 12004KT CAVOK 25/08 Q1022 RMK FEW FEW220 MON LIB VAL
     NIL VIS MIN 9999=
LIVM 080855Z 15007KT CAVOK 26/22 Q1021 RMK FEW FEW200 QUK 2 QUL 1
     E VIS MAR 30 KM VIS MIN 9999=
LIVO 080855Z 20003KT 9999 FEW040 20/11 Q1023 RMK FEW VIS MIN
     9999=
LIVP 080855Z VRB02KT 3000 0900E FG VV/// 11/09 Q1028 RMK MON INVIS
     VAL INVIS VIS MIN 0900E=
LIVR 080855Z /////KT 9999 SCT020 12/10 Q1028 RMK SCT MON CLD SCT
     VIS MIN 9999=
LIVT 080855Z 26002KT CAVOK 24/15 Q1022 RMK BKN BKN070 QUK 1 QUL 0
     VIS MAR 20 KM VIS MIN 9999=
####018000113####
SAIY43 KWBC 080750 RRF
METAR
LIPX 080845Z 10007KT 9999 SCT080 27/14 Q1021 RMK SCT VIS MIN 9999
     BLU=
####018000199####
SAJP31 KWBC 080900 RRA
METAR
RJFK 080900Z 19008KT 150V220 9999 FEW030 BKN/// 27/18 Q1010 RMK
     1CU030 A2984=
RJTT 080900Z 18017KT 9999 FEW025 BKN/// 26/22 Q1009 RMK 1CU025
     A2981=
####018000125####
SAMX31 KWBC 080845 RRD
METAR
MMCZ 080853Z 09010KT 6SM FEW015 BKN200 26/24 A2985 RMK SLP117
     54000 917 8/508 HZY=
####018000132####
SANT31 KWBC 080900 RRA
METAR
TXKF 080855Z 16013KT 9999 VCSH SCT013TCU BKN042 BKN170 BKN300
     25/22 Q1018 RMK TCU W-NW /=
####018000268####
SAPO31 KWBC 080900 RRA
METAR
LPAZ 080900Z VRB02KT 9999 FEW008 BKN016 BKN030 20/19 Q1024=
LPFL 080900Z 20006KT 9999 FEW023 BKN045 22/17 Q1022=
LPHR 080900Z 21003KT 180V240 9999 FEW016 SCT035 22/19 Q1023=
LPPD 080900Z 29005KT 9999 FEW017 BKN030 20/15 Q1024=
####018000157####
SAPA31 KWBC 080900 RRA
METAR
AYPY 080900Z 18015KT 9999 SCT040 BKN140 26/23 Q1009 RMKS: HZ IN
     AREA=
PLCH 080900Z 12020KT 20KM SKC 26/24 Q1011=
####018000097####
SASA31 KWBC 080800 RRG
METAR
SEQU 080800Z 00000KT 9999 SCT100 08/07 Q1027 RMK A3033 NOSIG=
####018000196####
SASA32 KWBC 080900 RRA
METAR
SLCB 080900Z 00000KT 8000 NSC 07/01 Q1025=
SLLP 080900Z 08006KT 4000E VCFG FEW002 M03/M03 Q1036=
SLVR 080900Z 15008KT 9999 FEW010 BKN017 OVC070 20/19 Q1014=
####018001459####
SARA31 KWBC 080900 RRA
METAR
UAAA 080900Z 03004MPS 010V070 9999 FEW050CB BKN100 30/10 Q1013
     88CLRD65 TEMPO TS=
UACC 080900Z 26004MPS 220V310 CAVOK 25/03 Q1009 220/0070 NOSIG RMK
     QFE726/0968=
UAFM 080900Z 30005MPS CAVOK 33/05 Q1012 NOSIG=
UAFO 080900Z 00000MPS 9999 FEW050TCU 33/18 Q1018 NOSIG RMK
     QFEM685=
UAFO 080900Z NIL=
UAOO 080900Z NIL=
UARR 080900Z NIL=
UATE 080900Z 30006MPS 270V340 CAVOK 36/17 Q1010 300///70 NOSIG RMK
     QFE756/1008=
UATG 080900Z 35006G10MPS CAVOK 39/10 Q1009 32CLRD70 NOSIG RMK
     QFE759/1012=
UATT 080900Z 05010MPS 9999 NSC 32/04 Q1011 13CLRD70 NOSIG RMK
     QFE738/0985=
UMBB 080900Z 27003MPS 8000 NSC 21/13 Q1018 R29/CLRD// NOSIG=
UMGG 080900Z 21003MPS 9999 SCT019CB BKN100 26/18 Q1013 R28/190055
     NOSIG=
UMII 080900Z 16003MPS P6000 BKN015 21/18 Q1013 R23/CLRD//
     NOSIG=
UMMG 080900Z 30005G08MPS 9999 FEW026 BKN200 22/13 Q1016 R17/CLRD//
     NOSIG=
UMMM 080900Z 29005MPS 9999 BKN018 19/15 Q1014 R30/290050 NOSIG RMK
     QFE741=
UMMS 080900Z 28004G07MPS 250V310 9999 BKN015 19/16 Q1014
     R31/CLRD// NOSIG=
UTAA 080900Z NIL=
UTAK 080900Z 32003MPS CAVOK 37/17 Q1008 NOSIG=
UTAT 080900Z 16005MPS CAVOK 43/19 Q1007 NOSIG=
UTAV 080900Z 02004MPS CAVOK 40/11 Q1006=
UTDD 080900Z VRB01MPS 9999 FEW066 36/05 Q1010 09CLRD70 NOSIG RMK
     QFE690/0920=
UTDL 080900Z 05002MPS 9999 FEW056TCU 36/09 Q1008 NOSIG RMK QFE718
     8809//70=
####018000082####
SARS31 KWBC 080900 RRA
METAR
UTAM 080900Z 04006MPS CAVOK 40/07 Q1007 NOSIG=
####018000081####
SASA41 KWBC 080900 RRA
METAR
SEMT 080900Z 16003KT 9999 OVC016 23/20 Q1012=
####018000087####
SASA31 KWBC 080900 RRA
METAR
SEGU 080900Z 20006KT 9999 BKN030 23/19 Q1011 NOSIG=
####018000087####
SAUK32 KWBC 080850 CCA
METAR
EGPB 080850Z 19016KT 9999 FEW012 14/11 Q1006 NOSIG=
####018000149####
SAUK41 KWBC 080850 RRE
METAR
EGDY 080850Z 27003KT 9999 FEW010 BKN140 19/14 Q1018 NOSIG=
EGNC 080850Z 26012KT 9999 SCT030 SCT045 15/11 Q1015=
####018000127####
SAXX61 KWBC 080900 RRA
METAR
LICZ 080855Z 10011KT CAVOK 30/18 Q1018 RMK SKC VIS MIN 9999 WIND
     THR28 //////KT BLU=
####018003733####
SAXX99 KWBC 080900 RRH
METAR
CYHY 080900Z 33003KT 15SM BKN045 BKN230 16/14 A2995 RMK SC4CS2
     SLP145=
CYIO 080900Z AUTO 19004KT 9SM OVC083 09/07 A2980 RMK SLP097=
CYIV 080900Z 29008KT 12SM BKN037 OVC050 15/14 A2981 RMK SC6SC1 FG
     SLP101=
CYKA 080900Z 00000KT 40SM SKC 18/09 A3007 RMK SLP179=
CYKF 080900Z AUTO 00000KT 2SM BR CLR 19/19 A3005 RMK SLP173
     DENSITY ALT 1600FT=
CYKJ 080900Z AUTO 26005KT 9SM CLR 10/06 A2991 RMK SLP148=
CYKY 080900Z 24002KT 15SM FEW150 FEW250 11/11 A3015 RMK AC1CI0
     SLP210=
CYKZ 080900Z 35003KT 10SM FEW100 23/21 A3003 RMK AC2 SLP166=
CYLL 080900Z AUTO 24007KT 9SM CLR 11/10 A3009 RMK SLP198=
CYLW 080900Z AUTO 01002KT 9SM CLR 12/07 A3006 RMK SLP182=
CYMA 080900Z 00000KT 20SM FEW050 10/08 A3006 RMK SC1 SLP194=
CYMM 080900Z AUTO 19003KT 9SM FEW074 FEW090 13/10 A2998 RMK
     SLP159=
CYMO 080900Z AUTO 00000KT 9SM FEW074 18/15 A2986 RMK SLP112=
CYNA 080900Z AUTO 09011KT 9SM OVC006 13/12 A3005 RMK SLP175=
CYNE 080900Z AUTO 30005KT 260V330 9SM CLR 13/11 A2988 RMK
     SLP123=
CYNM 080900Z AUTO 17002KT 9SM CLR 18/15 A2994 RMK SLP140=
CYOD 080900Z 24004KT 10SM -SHRA OVC080 14/12 A3005 RMK AC8
     SLP184=
CYOY 080900Z AUTO 12004KT 9SM FEW056 FEW079 SCT090 19/16 A2999 RMK
     SLP156=
CYPA 080900Z 27006KT 15SM FEW100 BKN250 11/09 A3007 RMK AC1CI2
     SLP190=
CYPE 080900Z 31010G16KT 15SM -SHRA BKN060CB 16/13 A3008 RETS RMK
     CB7 SLP189=
CYPH 080900Z AUTO 24019KT 1/2SM VV001 05/05 A2979 RMK SLP089=
CYPQ 080900Z AUTO ///// 7SM CLR 20/20 A3003 RMK SLP167=
CYPR 080900Z AUTO VRB02KT 9SM CLR 13/12 A3005 RMK SLP176=
CYPY 080900Z AUTO 27003KT 1 5/8SM CLR 11/11 A2992 RMK VSBY VRBL
     0.5V9.0 SLP139=
CYQA 080900Z AUTO 00000KT 2 1/2SM BR CLR 19/19 A3003 RMK SLP170
     DENSITY ALT 1400FT=
CYQD 080900Z 27007KT 15SM FEW070 12/10 A2995 RMK AC1 SLP147=
CYQF 080900Z 20002KT 15SM SCT250 10/07 A3016 RMK CI0 SLP222=
CYQH 080900Z 06004KT 30SM FEW030 FEW090 12/08 A3010 RMK SC1AC1
     SLP200=
CYQI 080900Z 15003KT 1/8SM FG VV001 17/17 A3014 RMK FG8 RVR RWY 24
     1100 FT SLP208=
CYQK 080900Z 26004KT 15SM FEW120 16/12 A2997 RMK AC1 SLP148=
CYQL 080900Z AUTO 00000KT 9SM BKN099 12/11 A3019 RMK SLP219=
CYQR 080900Z 01006KT 15SM BKN250 12/10 A3010 RMK CI1 SLP198=
CYQT 080900Z 29002KT 15SM BKN055 18/17 A2998 RMK SC6 SLP151=
CYQU 080900Z 00000KT 25SM FEW100 SCT250 15/11 A3005 RMK AC1CI0
     SLP179=
CYQV 080900Z AUTO 28007KT 9SM CLR 10/09 A3005 RMK SLP186=
CYQW 080900Z AUTO 19005KT 9SM CLR 10/09 A3012 RMK SLP212=
CYQZ 080900Z AUTO VRB02KT 9SM CLR 11/09 A3008 RMK SLP195=
CYRL 080900Z 27006KT 12SM OVC014 16/13 A2992 RMK SC7 SLP132=
CYRT 080900Z 10004KT 3/8SM -DZ FG VV001 06/05 A2960 RMK FG8
     SLP027=
CYRV 080900Z AUTO 00000KT 6SM CLR 13/11 A3012 RMK SLP199=
CYSB 080900Z 18002KT 3SM BR BKN028 BKN120 21/21 A3001 RMK SC6AC1
     VIS HIER N SLP158=
CYSC 080900Z AUTO 11003KT 3SM BR BKN071 BKN092 21/20 A3003 RMK
     SLP167 DENSITY ALT 1500FT=
CYSF 080900Z AUTO 27003KT 9SM SCT091 10/07 A2984 RMK SLP115=
CYSL 080900Z 17005KT 8SM OVC140 21/20 A3001 RMK AC8 SLP161=
CYTH 080900Z 26006KT 15SM FEW065 FEW085 FEW240 09/08 A2982 RMK
     SC1AC1CI1 SLP105=
CYTS 080900Z 00000KT 15SM SCT058 BKN150 OVC210 19/18 A2993 RMK
     SC4AC2CI1 SLP134=
CYTZ 080900Z AUTO VRB02KT 3SM BR CLR 20/19 A3001 RMK SLP161
     DENSITY ALT 700FT RVR MISG=
CYUA 080900Z AUTO 28008KT 2 5/8SM -UP OVC004 05/ A3009 RMK
     SLP193=
CYUS 080900Z AUTO ///// 9SM CLR 10/ A2980 RMK SLP095=
CYVC 080900Z 00000KT 15SM FEW040 12/09 A2999 RMK SC1 SLP163=
CYVM 080900Z AUTO 00000KT CLR 04/03 A2983 RMK SLP104=
CYVO 080900Z AUTO 21004KT 9SM CLR 19/18 A2998 RMK SLP154=
####018003725####
SAXX99 KWBC 080900 RRG
METAR
AYMO 080900Z AUTO 00000KT //// // ////// 27/23 Q1009=
CWCA 080900Z 20008KT 15SM FEW030 BKN200 12/08 A3002 RMK SC1CI2
     SLP166=
CWCL 080900Z AUTO 00000KT 9SM CLR 11/05 A3015 RMK SLP199=
CWEU 080900Z 13009KT 40SM FEW150 BKN200 BKN240 13/02 A2968 RMK
     AC0CS0CI1 SLP051=
CWFD 080900Z AUTO 03002KT 9SM 11/ RMK ALTM MISG=
CWHN 080900Z AUTO 25004KT 9SM CLR 13/10 A3003 RMK SLP178=
CWIL 080900Z AUTO 31011KT 05/ A2982 RMK SLP104=
CWKM 080900Z AUTO 26004KT 04/ A3008 RMK SLP190=
CWKW 080900Z AUTO 13011KT 12/ A2976 RMK SLP094=
CWLI 080900Z AUTO ///// 03/ A2995 RMK SLP153=
CWLX 080900Z AUTO 00000KT 14/ A2982 RMK SLP109=
CWLY 080900Z AUTO 18003KT 9SM CLR 18/09 A3004 RMK SLP170=
CWOB 080900Z AUTO ///// 9SM CLR 13/ A2981 RMK SLP121=
CWRH 080900Z AUTO ///// 09/ A2980 RMK SLP113=
CWRX 080900Z AUTO 34004KT 07/ A2982=
CWSA 080900Z AUTO 22007KT 1/8SM VV001 16/16 A3019 RMK SLP225=
CWTU 080900Z AUTO 17019G26KT 10/ A2997 RMK SLP162=
CWUP 080900Z AUTO 13003KT 13/ A2982 RMK SLP112=
CWUW 080900Z AUTO ///// 9SM FEW089 12/ A2983 RMK SLP124=
CWVD 080900Z AUTO ///// 13/ A2983 RMK SLP126=
CWVH 080900Z AUTO 29018KT 04/ A3001 RMK SLP179=
CWWU 080900Z 19005KT 15SM OVC022 11/09 A3023 RMK SC8 SLP238=
CWXR 080900Z AUTO 16009KT 06/ A2990 RMK SLP132=
CWYK 080900Z AUTO ///// 09/ A2983 RMK SLP124=
CWYM 080900Z AUTO 12005KT 12/ RMK ALTM MISG SLP128=
CWZZ 080900Z AUTO ///// 1/8SM OVC023 OVC037 OVC069 10/ A2980 RMK
     SLP109=
CYAH 080900Z AUTO 00000KT 9SM CLR 12/12 A2997 RMK SLP153=
CYAM 080900Z 09004KT 12SM OVC006 20/19 A2994 RMK SF8 SLP136=
CYAY 080900Z AUTO 15009KT 9SM OVC003 08/07 A3011 RMK SLP197=
CYBC 080900Z AUTO 08004KT 050V110 1/8SM OVC000 13/13 A3001 RMK
     SLP164=
CYBK 080900Z 01006KT 20SM BKN020 OVC045 09/09 A2970 RMK SC6SC2
     SLP060=
CYBN 080900Z AUTO 00000KT 6SM CLR 20/18 A3003 RMK SLP165=
CYBR 080900Z 26007KT 15SM FEW240 11/11 A3005 RMK CI0 SLP183=
CYCB 080900Z 25007KT 15SM FEW040 SCT120 SCT220 05/04 A2984 RMK
     SC1AC1CI0 SLP108=
CYCO 080900Z 12007KT 15SM SCT037 BKN170 10/08 A2988 RMK SC2AC2
     SLP118=
CYCX 080900Z 19005KT 12SM OVC006 19/18 A3007 RMK SC7 DA+784FT
     SLP182=
CYCY 080900Z AUTO 00000KT 9SM FEW064 FEW077 09/07 A2982 RMK
     SLP100=
CYDB 080900Z AUTO 00000KT 9SM CLR 11/03 A3010 RMK SLP209=
CYDF 080900Z 00000KT 15SM FEW008 BKN035 OVC054 11/09 A3014 RMK
     SF2SC3SC3 SLP207=
CYDN 080900Z AUTO 25005KT 9SM CLR 10/09 A3001 RMK SLP167=
CYDP 080900Z 07002KT 15SM SCT100 07/06 A2989 RMK AC4 SLP121=
CYED 080900Z AUTO 22005KT 9SM CLR 14/12 A3008 RMK SLP190=
CYEK 080900Z AUTO 07003KT 9SM OVC049 OVC066 07/07 A2959 RMK
     SLP021=
CYEN 080900Z 26003KT 15SM FEW040 SCT250 12/10 A3010 RMK SC2CI0
     SLP199=
CYET 080900Z AUTO 29003KT 9SM CLR 10/06 A3012 RMK SLP199=
CYEV 080900Z 31012KT 15SM BKN019 07/04 A3005 RMK SC7 SLP180=
CYFS 080900Z 33002KT 15SM BKN045 BKN210 15/14 A3000 RMK SC4CI0
     SLP162=
CYGQ 080900Z 32002KT 10SM -RA OVC060 18/17 A2997 RMK SC8
     SLP148=
CYGR 080900Z 22011G17KT 15SM BKN040 BKN250 20/16 A3003 RMK SC7CI1
     SLP170=
CYGT 080900Z 00000KT 15SM BKN040 BKN080 10/04 A2984 RMK SC5AC2
     14.0/7.5/0.0 SLP108=
CYGV 080900Z AUTO 08008KT 9SM OVC004 14/12 A3004 RMK SLP174=
CYGX 080900Z 24006KT 15SM FEW025 12/10 A2977 RMK SC1 SLP086=
CYHD 080900Z AUTO 21006KT 9SM FEW047 16/14 A2995 RMK SLP145=
CYHE 080900Z AUTO 08007KT 010V100 9SM CLR 20/13 A3000 RMK
     SLP160=
CYHK 080900Z AUTO 02011KT 9SM CLR 09/07 A2980 RMK SLP094=
CYHM 080900Z 21004KT 10SM FEW080 21/21 A3005 RMK AC1 SLP171=
CYHU 080900Z AUTO 24006KT 8SM BKN081 25/21 A2998 RMK SLP152
     DENSITY ALT 1200FT RVR MISG=
####018000117####
SAXX99 KWBC 080900 CCA
METAR
CWWU 080900Z CCA 19005KT 15SM OVC022 11/09 A3023 RMK SC8 FG BNK NE
     SLP238=
####018003576####
SAXX99 KWBC 080900 RRI
METAR
CYVQ 080900Z 00000KT 30SM FEW040 SCT080 SCT270 13/12 A2994 RMK
     SC2AC2CI1 SLP139=
CYVV 080900Z 00000KT 4SM BR SKC 21/19 A3002 RMK SLP163=
CYWA 080900Z AUTO 00000KT 9SM CLR 19/18 A3000 RMK SLP160=
CYWL 080900Z 00000KT 15SM SKC 14/07 A3012 RMK SLP194=
CYXD 080900Z AUTO 21006KT 9SM CLR 16/12 A3008 RMK SLP189=
CYXE 080900Z 27005KT 15SM FEW250 10/10 A3010 RMK CI1 SLP202=
CYXH 080900Z AUTO 23006KT 9SM CLR 10/10 A3017 RMK SLP217=
CYXL 080900Z 21004KT 15SM FEW070 17/15 A2994 RMK AC1 SLP141=
CYXR 080900Z AUTO 14003KT 9SM CLR 19/19 A2995 RMK SLP130=
CYXS 080900Z AUTO 22003KT 9SM CLR 11/09 A3008 RMK SLP198=
CYXT 080900Z 30006KT 20SM FEW250 19/11 A3006 RMK CI0 SLP180=
CYYB 080900Z 21004KT 9SM MIFG SCT006 SCT030 BKN110 BKN250 21/20
     A3004 RMK SF2SC1AC1CI1 SLP167=
CYYD 080900Z AUTO VRB02KT 9SM CLR 13/09 A3008=
CYYF 080900Z 00000KT 15SM SKC 15/07 A3006 RMK SLP175=
CYYH 080900Z 02005KT 15SM FEW025 BKN040 12/07 A2982 RMK SC1SC5
     SLP100=
CYYL 080900Z AUTO 23007KT 9SM BKN096 OVC110 12/09 A2982 RMK SLP109
     DENSITY ALT 1200FT=
CYYN 080900Z AUTO 25007KT 9SM CLR 13/11 A3014 RMK SLP205=
CYYY 080900Z 00000KT 2SM BR BKN004 OVC009 12/12 A3001 RMK SF6SF2
     SLP164=
CYZE 080900Z AUTO 15004KT 110V170 3/8SM FG VV002 20/20 A2997 RMK
     SLP151 DENSITY ALT 1300FT=
CYZH 080900Z AUTO 07002KT 9SM -RA FEW035 FEW042 FEW083 16/13 A3005
     RMK SLP181=
CYZP 080900Z AUTO 26013KT 9SM CLR 16/13 A3007 RMK SLP184=
CYZR 080900Z AUTO 17003KT 9SM CLR 22/18 A3002 RMK SLP162 DENSITY
     ALT 1400FT=
CYZS 080900Z 06013KT 15SM BKN070 BKN210 11/03 A2969 RMK AC6CI1
     SLP058=
CYZT 080900Z 00000KT 15SM SKC 14/11 A3003 RMK SLP169=
CZCP 080900Z AUTO 16007KT 9SM SCT014 BKN021 OVC055 06/ A2986 RMK
     SLP119=
CZPC 080900Z AUTO 27008KT 9SM CLR 08/08 A3024 RMK SLP238=
CZUM 080900Z AUTO 00000KT 9SM CLR 13/12 A2992 RMK SLP140=
EPLL 080900Z 31005KT CAVOK 20/07 Q1022=
FQCH 080900Z /////KT 9999 BKN011 SCT017 19/10 Q1031=
LFBE 080900Z 06007KT 030V090 CAVOK 26/18 Q1018 NOSIG=
LIMP 080850Z 10007KT 040V130 CAVOK 26/16 Q1022 RMK VIS MIN
     9999=
LIMZ 080850Z 34004KT 8000 SCT015 BKN045 22/19 Q1023 RMK VIS MIN
     8000=
LIRM 080855Z 06011KT CAVOK 28/16 Q1019 RMK SKC VIS MIN 9999 WIND
     THR06 04011KT BLU=
LKCV 080900Z VRB03KT 9999 FEW045 SCT220 21/08 Q1024 NOSIG=
LKKB 080900Z VRB01KT 9999 FEW041 22/09 Q1023 NOSIG=
LKLN 080900Z AUTO VRB02KT CAVOK 20/14 Q1024=
LKNA 080900Z 36004KT 360V160 9999 FEW046 19/06 Q1024 NOSIG=
LKPD 080900Z 02004KT 300V110 9999 FEW035 22/07 Q1023 NOSIG=
LKPO 080900Z VRB02KT 9999 FEW045 20/10 Q1023 NOSIG=
LWIS CYXP 080900Z AUTO 09004KT 10/04 A2983=
LWIS CYSR 080900Z AUTO 26006KT 10/06 A2982=
UDYZ 080900Z VRB02MPS 9999 FEW050 35/13 Q1010 09010070 NOSIG=
UMOO 080900Z 33001MPS 9999 BKN012 BKN/// 21/18 Q1012 R31/290056
     NOSIG=
ZBHH 080900Z VRB02MPS 9999 FEW040 30/10 Q1008 NOSIG=
ZBSJ 080900Z 12002MPS CAVOK 34/16 Q1003 NOSIG=
ZGHA 080900Z 18002MPS 140V200 9999 FEW040TCU FEW040 34/28 Q0999
     NOSIG=
ZGKL 080900Z 20005MPS CAVOK 34/24 Q1002 NOSIG=
ZGOW 080900Z 19007MPS 9999 FEW020 32/26 Q1005 NOSIG=
ZJHK 080900Z 13004MPS 080V160 9999 FEW030CB 35/24 Q1004 NOSIG=
ZLXY 080900Z 08002MPS 030V130 1700 BR FEW010 OVC060 24/21 Q1007
     NOSIG=
ZSQD 080900Z 17004MPS CAVOK 27/17 Q1006 NOSIG=
ZWSH 080900Z 14003MPS 070V210 CAVOK 33/00 Q1014 NOSIG=
ZYCC 080900Z 01005MPS 9999 SCT007 FEW023TCU BKN023 20/18 Q1006
     NOSIG=
ZYTX 080900Z 32002MPS 9999 FEW030CB 25/18 Q1006 NOSIG=
####018001045####
SAAE31 VTBB 080900
METAR VTBS 080900Z 34004KT 7000 -TSRA FEW020CB SCT035 BKN120 30/23 
           Q1006 TS NW NOSIG=
METAR VTBD 080900Z 29010KT 9999 FEW020CB BKN300 35/21 Q1005 CB SE
           NOSIG=
METAR VTCC 080900Z 23007KT 9999 FEW035 BKN300 34/21 Q1006 A2973=
METAR VTBU 080900Z NIL=
METAR VTSS 080900Z 25007KT 9999 VCSH FEW018CB SCT020 33/21 Q1007
           A2974 CB N=
METAR VTSP 080900Z 26011KT 8000 FEW018 SCT120 BKN300 30/24 Q1009
           A2980=
METAR VLVT 080900Z NIL=
METAR VYYY 080900Z NIL=
METAR VVTS 080900Z 35007KT 270V030 9999 FEW015TCU SCT017 31/23
           Q1006            TEMPO    TL0900 5000 SHRA=
METAR VVNB 080900Z NIL=
METAR VDPP 080900Z 05002KT 9999 SCT015 FEW017CB 33/23 Q1005 CB:E N
           NW SW=
METAR VVDN 080900Z 13009KT 100V190 9999 FEW017CB SCT300 33/21 Q1007
           NOSIG=
METAR VYMD 080900Z NIL=
METAR VDSR 080900Z 32004KT 9999 SCT015 FEW018CB SCT040 34/23 Q1004
           CB:S,E=
METAR VVPB 080900Z 16006KT 9999 SCT020 BKN300 35/21 Q1004 NOSIG=
####018000085####
SAIR33 OIII 080800 RRD
METAR OIBP 080800Z 17008KT 4000 HZ SKC 40/20 Q1000 A2954=
####018000085####
SAIR33 OIII 080900 RRC
METAR OIBP 080900Z 21008KT 4000 HZ SKC 40/23 Q0999 A2953=
####018000081####
SPUS51 KWBC 080908
SPECI
KMPV 080904Z AUTO 00000KT 2SM BR CLR 20/19 A3011=
####018000087####
SAFR32 LFPW 080900 RRA
METAR LFLX 080900Z 12005KT 080V170 CAVOK 27/14 Q1019 NOSIG=
####018000093####
SPAU32 YBBN 080907
SPECI YSRI 080906Z AUTO 19006KT 8000NDV // BKN031 OVC039 12/10 Q1027=
####018001637####
SAEU KAWN 080900 RRU
METAR LEBG 080900Z 01006KT 330V070 CAVOK 28/15 Q1020=
METAR LIBD 080850Z 36011KT 9999 FEW030 25/12 Q1020 RMK VIS MIN 9999=
METAR LICG 080855Z 32008KT 9999 SCT020 23/20 Q1019 RMK SCT VIS MIN
      9999 WIND THR08 32005KT WIND THR21 VRB07KT BLU=
METAR LICT 080855Z 33007KT CAVOK 30/22 Q1018 RMK SKC VIS MIN 9999 WIND
      THR13 33007KT BLU=
METAR LICZ 080855Z 10011KT CAVOK 30/18 Q1018 RMK SKC VIS MIN 9999 WIND
      THR28 //////KT BLU=
METAR LIED 080855Z 16006KT CAVOK 31/12 Q1018 RMK SKC VIS MIN 9999 BLU=
METAR LIMG 080850Z 03007KT 9999 BKN080 30/25 Q1020 RMK VIS MIN 9999=
METAR LIMT 080855Z /////KT 8000 BKN012 14/12 Q1024 RMK BKN MON LIB
      VAL NIL VIS MIN 8000=
METAR LIPB 080850Z 16008KT 9999 FEW060 26/12 Q1022 RMK MON LIB VIS
      MIN 9999=
METAR LIQO 080855Z 00000KT CAVOK 23/14 Q1021 RMK FEW FEW200 VAL NIL
      NC VIS MIN 9999=
METAR LIRE 080855Z 21008KT 9999 FEW020 27/18 Q1019 RMK SCT VIS MIN
      9999 WIND THR31 20009KT BLU=
METAR LIRG 080855Z 25002KT 9999 FEW035 29/19 Q1019 RMK SCT MON NE LIB
      NC VIS MIN 9999 BLU=
METAR LIRK 080855Z 14007KT CAVOK 16/12 Q1026 RMK SKC MON NE LIB NC
      VAL NIL NC VIS MIN 9999=
METAR LIRT 080855Z 36007KT 9999 FEW013 16/07 Q1023 RMK FEW MON LIB
      VAL NIL VIS MIN 9999=
METAR LIRZ 080850Z VRB02KT CAVOK 28/12 Q1021 RMK VIS MIN 9999=
METAR LIVC 080855Z 03007KT 9999 FEW000 13/11 Q1030 RMK FEW MON LIB
      VAL NIL VIS MIN 9999=
METAR LIVD 080855Z 00000KT CAVOK 19/12 Q1025 RMK SKC VIS MIN 9999=
METAR LIVR 080855Z /////KT 9999 SCT020 12/10 Q1028 RMK SCT MON CLD
      SCT VIS MIN 9999=
####018001649####
SAEU KAWN 080900 RRT
METAR LIBG 080850Z 36018KT 330V040 CAVOK 26/08 Q1018 RMK VIS MIN 9999=
METAR LIBQ 080855Z 06007KT 9999 FEW009 15/11 Q1024 RMK FEW MON LIB
      VAL NIL VIS MIN 9999=
METAR LIBR 080845Z /////KT CAVOK 25/15 Q1017 NOSIG RMK SKC VIS MIN
      9999 WIND THR13 WIND THR31 33021KT BLU=
METAR LICC 080850Z 09005KT CAVOK 29/20 Q1018 RMK VIS MIN 9999=
METAR LICD 080850Z 36011KT 220V360 CAVOK 26/21 Q1019 RMK VIS MIN 9999=
METAR LICJ 080850Z 04015KT CAVOK 27/22 Q1018 RMK VIS MIN 9999=
METAR LICR 080850Z 35010KT 9999 FEW020 SCT040 30/19 Q1018 RMK VIS MIN
      9999=
METAR LIMH 080855Z 06012KT CAVOK 06/M09 Q1038 RMK SKC MON LIB VAL S
      CLD SCT VIS MIN 9999=
METAR LIMN 080855Z /////KT 9999 FEW050 26/15 Q1022 RMK SCT SCT080 VIS
      MIN 9999 BLU=
METAR LIMS 080855Z 11009KT 040V150 CAVOK 26/17 Q1021 RMK FEW FEW200
      VIS MIN 9999 WIND THR30 09005KT BLU=
METAR LIPC 080855Z 16007KT CAVOK 27/12 Q1021 RMK FEW FEW200 VIS MIN
      9999 WIND THR12 13006KT BLU=
METAR LIPI 080855Z 12006KT 9999 FEW030 SCT050 25/17 Q1022 RMK BKN VIS
      MIN 9999 WIND THR06 16005KT BLU=
METAR LIQN 080850Z 00000KT CAVOK 25/16 Q1021 RMK VIS MIN 9999=
METAR LIQW 080855Z 13004KT CAVOK 28/19 Q1020 RMK SKC VIS MIN 9999 BLU=
METAR LIRM 080855Z 06011KT CAVOK 28/16 Q1019 RMK SKC VIS MIN 9999 WIND
      THR06 04011KT BLU=
METAR LIRS 080855Z 21002KT CAVOK 30/10 Q1019 RMK FEW FEW200 VIS MIN
      9999 WIND THR21 /////KT BLU=
METAR LIRU 080850Z VRB01KT 9999 FEW040 30/19 Q1019 RMK VIS MIN 9999=
METAR LIRV 080855Z 01004KT 9999 FEW024 26/17 Q1020 RMK FEW MON E SE
      LIB NC VIS MIN 9999 BLU=
####018001607####
SAEU KAWN 080900 RRV
METAR LIEA 080850Z 03004KT 300V110 CAVOK 29/21 Q1019 RMK VIS MIN 9999=
METAR LIMV 080855Z 03009KT 6000 FEW012 21/18 Q1022 RMK BKN BKN080 MON
      N INVIS S LIB CUF VAL FOSCHIA VIS MIN 3000N=
METAR LIMY 080855Z /////KT 5000 BR BKN026 BKN036 21/19 Q1023 RMK OVC
      VAL FOSCHIA VIS MIN 5000=
METAR LIPA 080855Z 23006KT 9999 SCT045 24/16 Q1022 RMK SCT VIS MIN
      9999 A3020 BLU=
METAR LIPH 080845Z 01002KT 9999 SCT035 BKN070 24/18 Q1022 RMK BKN VIS
      MIN 9999 WIND THR07 /////KT BLU=
METAR LIPL 080855Z 11006KT 060V180 9999 SCT060 26/20 Q1022 RMK BKN
      VIS MIN 9999 BLU=
METAR LIPR 080845Z 12006KT CAVOK 27/16 Q1021 RMK SKC VIS MIN 9999 WIND
      THR31 13005KT BLU=
METAR LIPS 080855Z 02004KT 9999 BKN060 24/16 Q1022 RMK BKN VIS MIN
      9999 BLU=
METAR LIPY 080850Z VRB05KT CAVOK 26/10 Q1021 RMK VIS MIN 9999=
METAR LIRH 080855Z 16002KT 9999 FEW035 26/18 Q1020 RMK FEW MON LIB
      NC VIS MIN 9999 WIND THR16 14003KT BLU=
METAR LIRL 080855Z 27004KT 9999 FEW020 28/21 Q1018 RMK FEW MON LIB
      NC VIS MIN 9999 BLU=
METAR LIVF 080855Z 12004KT CAVOK 25/08 Q1022 RMK FEW FEW220 MON LIB
      VAL NIL VIS MIN 9999=
METAR LIVM 080855Z 15007KT CAVOK 26/22 Q1021 RMK FEW FEW200 QUK 2 QUL
      1 E VIS MAR 30 KM VIS MIN 9999=
METAR LIVO 080855Z 20003KT 9999 FEW040 20/11 Q1023 RMK FEW VIS MIN
      9999=
METAR LIVP 080855Z VRB02KT 3000 0900E FG VV/// 11/09 Q1028 RMK MON
      INVIS VAL INVIS VIS MIN 0900E=
METAR LIVT 080855Z 26002KT CAVOK 24/15 Q1022 RMK BKN BKN070 QUK 1 QUL
      0 VIS MAR 20 KM VIS MIN 9999=
####018000088####
SPUS72 KWBC 080908
SPECI
KGNV 080903Z AUTO 00000KT 1 3/4SM BR SCT001 20/19 A3000=
####018000088####
SPUS73 KWBC 080908
SPECI
KLAR 080905Z AUTO 28003KT 9SM SCT005 BKN017 08/08 A3039=
####018001926####
SAIY40 LIIB 080900
METAR LIMG 080850Z 03007KT 9999 BKN080 30/25 Q1020 RMK VIS MIN 9999=
METAR LIMK 080855Z 35003KT 9999 BKN025 19/13 Q1023 RMK OVC SCT080 VAL
      NIL VIS MIN 9999=
METAR LIMN 080855Z /////KT 9999 FEW050 26/15 Q1022 RMK SCT SCT080 VIS
      MIN 9999 BLU=
METAR LIMP 080850Z 10007KT 040V130 CAVOK 26/16 Q1022 RMK VIS MIN
9999=
METAR LIMS 080855Z 11009KT 040V150 CAVOK 26/17 Q1021 RMK FEW FEW200
      VIS MIN 9999 WIND THR30 09005KT BLU=
METAR LIMZ 080850Z 34004KT 8000 SCT015 BKN045 22/19 Q1023 RMK VIS
MIN 8000=
METAR LIPA 080855Z 23006KT 9999 SCT045 24/16 Q1022 RMK SCT VIS MIN
      9999 A3020 BLU=
METAR LIPB 080850Z 16008KT 9999 FEW060 26/12 Q1022 RMK MON LIB VIS
MIN 9999=
METAR LIPC 080855Z 16007KT CAVOK 27/12 Q1021 RMK FEW FEW200 VIS MIN
      9999 WIND THR12 13006KT BLU=
METAR LIPF 080855Z 10003KT 9999 FEW050 25/19 Q1021 RMK FEW VIS MIN
      9999=
METAR LIPH 080845Z 01002KT 9999 SCT035 BKN070 24/18 Q1022 RMK BKN VIS
      MIN 9999 WIND THR07 /////KT BLU=
METAR LIPI 080855Z 12006KT 9999 FEW030 SCT050 25/17 Q1022 RMK BKN
     VIS MIN 9999 WIND THR06 16005KT BLU=
METAR LIPL 080855Z 11006KT 060V180 9999 SCT060 26/20 Q1022 RMK BKN
      VIS MIN 9999 BLU=
METAR LIPO 080850Z 07006KT 040V140 9999 BKN065 25/16 Q1022 RMK VIS
MIN 9999=
METAR LIPQ 080850Z VRB02KT 9999 FEW030 BKN050 25/14 Q1023=
METAR LIPR 080845Z 12006KT CAVOK 27/16 Q1021 RMK SKC VIS MIN 9999
      WIND THR31 13005KT BLU=
METAR LIPS 080855Z 02004KT 9999 BKN060 24/16 Q1022 RMK BKN VIS MIN
      9999 BLU=
METAR LIPX 080845Z 10007KT 9999 SCT080 27/14 Q1021 RMK SCT VIS MIN
      9999 BLU=
METAR LIPY 080850Z VRB05KT CAVOK 26/10 Q1021 RMK VIS MIN 9999=
METAR LIVC 080855Z 03007KT 9999 FEW000 13/11 Q1030 RMK FEW MON LIB
      VAL NIL VIS MIN 9999=
METAR LIVP 080855Z VRB02KT 3000 0900E FG VV/// 11/09 Q1028 RMK MON
      INVIS VAL INVIS VIS MIN 0900E=
####018001071####
SAIY41 LIIB 080900
METAR LIMH 080855Z 06012KT CAVOK 06/M09 Q1038 RMK SKC MON LIB VAL S
      CLD SCT VIS MIN 9999=
METAR LIMT 080855Z /////KT 8000 BKN012 14/12 Q1024 RMK BKN MON LIB
      VAL NIL VIS MIN 8000=
METAR LIMU 080900Z NIL=
METAR LIMV 080855Z 03009KT 6000 FEW012 21/18 Q1022 RMK BKN BKN080 MON
      N INVIS S LIB CUF VAL FOSCHIA VIS MIN 3000N=
METAR LIMY 080855Z /////KT 5000 BR BKN026 BKN036 21/19 Q1023 RMK OVC
      VAL FOSCHIA VIS MIN 5000=
METAR LIVD 080855Z 00000KT CAVOK 19/12 Q1025 RMK SKC VIS MIN 9999=
METAR LIVE 080900Z NIL=
METAR LIVF 080855Z 12004KT CAVOK 25/08 Q1022 RMK FEW FEW220 MON LIB
      VAL NIL VIS MIN 9999=
METAR LIVM 080855Z 15007KT CAVOK 26/22 Q1021 RMK FEW FEW200 QUK 2 QUL
      1 E VIS MAR 30 KM VIS MIN 9999=
METAR LIVO 080855Z 20003KT 9999 FEW040 20/11 Q1023 RMK FEW VIS MIN
      9999=
METAR LIVR 080855Z /////KT 9999 SCT020 12/10 Q1028 RMK SCT MON CLD
      SCT VIS MIN 9999=
METAR LIVT 080855Z 26002KT CAVOK 24/15 Q1022 RMK BKN BKN070 QUK 1 QUL
      0 VIS MAR 20 KM VIS MIN 9999=
####018000179####
SAOM32 OOMS 080900
METAR OOMS 080900Z 06007KT 020V090 6000 BKN025 BKN120
32/29 Q1001 NOSIG=
METAR OOSA 080850Z 13009KT 100V160 8000 SCT010 OVC020
28/24 Q1003 NOSIG  05=
####018000086####
SAIR31 OIII 080900 RRA
METAR OIII 080900Z 11006KT CAVOK 38/M02 Q1014 A2995 879.3=
####018000143####
SAIY41 LIIB 080900 RRA
METAR LIMU 080855Z 06004KT 9999 FEW023 28/22 Q1020 RMK BKN SCT070 QUK
      2 QUL 1 S VIS MAR 15 KM VIS MIN 9999=
####018001800####
SAIY42 LIIB 080900
METAR LIBF 080850Z 32013KT 9999 FEW050 26/09 Q1020 RMK VIS MIN 9999=
METAR LIEA 080850Z 03004KT 300V110 CAVOK 29/21 Q1019 RMK VIS MIN
9999=
METAR LIED 080855Z 16006KT CAVOK 31/12 Q1018 RMK SKC VIS MIN 9999
      BLU=
METAR LIEO 080850Z 03007KT 350V070 9999 FEW030 30/15 Q1020 RMK VIS
MIN 9999=
METAR LIMA 080850Z 00000KT 9999 SCT040 23/16 Q1023 RMK VIS MIN 9999=
METAR LIQN 080850Z 00000KT CAVOK 25/16 Q1021 RMK VIS MIN 9999=
METAR LIQO 080855Z 00000KT CAVOK 23/14 Q1021 RMK FEW FEW200 VAL NIL
      NC VIS MIN 9999=
METAR LIQW 080855Z 13004KT CAVOK 28/19 Q1020 RMK SKC VIS MIN 9999
      BLU=
METAR LIRE 080855Z 21008KT 9999 FEW020 27/18 Q1019 RMK SCT VIS MIN
      9999 WIND THR31 20009KT BLU=
METAR LIRG 080855Z 25002KT 9999 FEW035 29/19 Q1019 RMK SCT MON NE
     LIB NC VIS MIN 9999 BLU=
METAR LIRH 080855Z 16002KT 9999 FEW035 26/18 Q1020 RMK FEW MON LIB NC
      VIS MIN 9999 WIND THR16 14003KT BLU=
METAR LIRI 080850Z 04013KT CAVOK 28/11 Q1019 RMK VIS MIN 9999=
METAR LIRK 080855Z 14007KT CAVOK 16/12 Q1026 RMK SKC MON NE LIB NC
      VAL NIL NC VIS MIN 9999=
METAR LIRL 080855Z 27004KT 9999 FEW020 28/21 Q1018 RMK FEW MON LIB NC
      VIS MIN 9999 BLU=
METAR LIRM 080855Z 06011KT CAVOK 28/16 Q1019 RMK SKC VIS MIN 9999
      WIND THR06 04011KT BLU=
METAR LIRS 080855Z 21002KT CAVOK 30/10 Q1019 RMK FEW FEW200 VIS MIN
      9999 WIND THR21 /////KT BLU=
METAR LIRT 080855Z 36007KT 9999 FEW013 16/07 Q1023 RMK FEW MON LIB
      VAL NIL VIS MIN 9999=
METAR LIRU 080850Z VRB01KT 9999 FEW040 30/19 Q1019 RMK VIS MIN 9999=
METAR LIRV 080855Z 01004KT 9999 FEW024 26/17 Q1020 RMK FEW MON E SE
      LIB NC VIS MIN 9999 BLU=
METAR LIRX 080900Z NIL=
METAR LIRZ 080850Z VRB02KT CAVOK 28/12 Q1021 RMK VIS MIN 9999=
####018000093####
SAEW31 LEMM 080900 RRA
METAR LEZL 080900Z 28006KT 230V330 9999 SCT020 28/17 Q1016 NOSIG=
####018000085####
SAIR35 OIII 080900 RRA
METAR OIAD 080900Z 00000KT 4000 HZ SKC 45/18 Q1000 A2953=
####018001290####
SAAL41 DAMM 080900
METAR DAAD 080900Z 00000KT CAVOK 32/14 Q1022=
METAR DAAE 080900Z NIL=
METAR DAAJ 080900Z 09012KT CAVOK 33/07 Q1021=
METAR DAAP 080900Z 16016KT CAVOK 38/10 Q1016=
METAR DAAS 080900Z 20003KT CAVOK 29/12 Q1025=
METAR DAAV 080900Z NIL=
METAR DAAY 080900Z 00000KT 9999 FEW033 31/13 Q1025=
METAR DABT 080900Z NIL=
METAR DAFH 080900Z 15012KT CAVOK 32/17 Q1023=
METAR DAMH 080900Z 06010KT CAVOK 34/13 Q1016=
METAR DAOB 080900Z 24003KT CAVOK 33/10 Q1023=
METAR DAOF 080900Z 15004KT 3500 HZ NSC 36/07 Q1013=
METAR DAOI 080900Z 10003KT CAVOK 31/17 Q1018=
METAR DAOL 080900Z 34006KT CAVOK 33/22 Q1016=
METAR DAOR 080900Z 18004KT CAVOK 35/04 Q1023=
METAR DAOV 080900Z 18004KT CAVOK 34/12 Q1019=
METAR DATF 080900Z 05014KT CAVOK 35/08 Q1017=
METAR DATG 080900Z NIL=
METAR DATM 080900Z 14013KT CAVOK 37/M01 Q1012=
METAR DAUA 080900Z 02030KT 0700 BLSA NSC 39/07 Q1014=
METAR DAUB 080900Z NIL=
METAR DAUE 080900Z 05012KT CAVOK 34/12 Q1020=
METAR DAUG 080900Z 00000KT CAVOK 34/12 Q1021=
METAR DAUI 080900Z 06031KT 0300 BLSA VV/// 39/07 Q1013=
METAR DAUK 080900Z 14006KT CAVOK 32/18 Q1017=
METAR DAUL 080900Z NIL=
METAR DAUO 080900Z 13008KT CAVOK 32/16 Q1018=
METAR DAUT 080900Z NIL=
METAR DAUU 080900Z 11012KT CAVOK 35/18 Q1018=
####018000461####
SAAL40 DAMM 080900
METAR DAAG 080900Z 35003KT 290V030 CAVOK 31/16 Q1019=
METAR DAAT 080900Z 13018KT CAVOK 32/03 Q1022=
METAR DABB 080900Z 01007KT CAVOK 29/14 Q1019=
METAR DABC 080900Z 00000KT CAVOK 28/11 Q1023=
METAR DABS 080900Z 34010KT CAVOK 29/10 Q1023=
METAR DAON 080900Z 36004KT CAVOK 34/20 Q1017=
METAR DAOO 080900Z 36012KT CAVOK 29/21 Q1016=
METAR DAUH 080900Z 10014KT CAVOK 35/20 Q1018=
METAR DAUZ 080900Z 14014KT CAVOK 35/07 Q1017=
####018000108####
SAGM31 PGUM 080908
MTRGUM
SPECI PGUM 080907Z 09009KT 10SM SCT021 BKN027 BKN037 28/24 A2988 RMK 
AO2
####018000089####
SPCN48 CWAO 080906
SPECI CYMH 080906Z AUTO 16005KT 9SM SCT005 BKN032 07/06 A3010=

####018000086####
SAXN17 KAWN 080800 RRL
METAR SKCG 080800Z 11004KT 9999 FEW012 SCT070 28/26 A2988=
####018000086####
SANA35 KAWN 080800 RRI
METAR SKCG 080800Z 11004KT 9999 FEW012 SCT070 28/26 A2988=
####018000589####
SAXX60 KAWN 080900 RRB
METAR PHNG 080857Z 07007G14KT 10SM SCT026 BKN040 24/21 A3006 RMK AO2
      SLP174 T02440206 52010 $=
METAR PTKK 080858Z VRB03KT 15SM FEW012 BKN120 OVC280 25/23 A2983 RMK
      SLP101 60002 8/121 T02500229 53005=
METAR RJOO 080900Z 22007KT 170V260 9999 FEW030 BKN/// 29/19 Q1007 RMK
      1CU030 A2975=
METAR RJSM 080900Z 05004KT 9999 FEW010 SCT040 22/18 Q1008 RMK 1ST010
      3SC040 A2979 WIND BY EQPT/10 FCST 0915 TEMPO 1215 3000 BR
      SCT001ST BKN003ST=
METAR RJTT 080900Z 18017KT 9999 FEW025 BKN/// 26/22 Q1009 RMK 1CU025
      A2981=
####018000154####
SASA KAWN 080800 RRH
METAR SEQU 080800Z 00000KT 9999 SCT100 08/07 Q1027 RMK A3033 NOSIG=
METAR SKCG 080800Z 11004KT 9999 FEW012 SCT070 28/26 A2988=
####018000242####
SAXX70 KAWN 080900 RRH
METAR KQVE 080855Z AUTO 22509G17KT 9999 FEW190 38/14 A2986 RMK AO2
      SLP026=
METAR KQEX 080900Z AUTO 02003KT 7SM CLR 29/18 A2974 RMK A02=
METAR KQFT 080900Z AUTO 13001KT 5SM BR OVC040 27/20 A2981 RMK A02=
####018000203####
SPXX70 KAWN 080900
SPECI KQDM 080903Z AUTO 15010G16KT 10SM VCTS FEW065 28/12 A3022 RMK
      AO2 SLP106 PWINO $=
SPECI KQMG 080903Z AUTO 03012KT 12SM FEW029 21/14 A3015 RMK AO2 SLP136
      $=
####018000106####
SAUS46 KLOX 080908
MTRVBG
SPECI KVBG 080906Z AUTO 00000KT 10SM SCT006 12/11 A2993 RMK AO2 TSNO 
$
####018000886####
SAHK31 VHHH 080900
METAR VHHH 080900Z 22013KT 9999 FEW020 SCT030 33/24 Q1006 NOSIG=
METAR RCTP 080900Z 24017KT 9999 FEW025 BKN100 BKN200 30/25
Q1006 NOSIG=
METAR RCKH 080900Z 27009KT 210V310 9999 FEW013 SCT020 BKN200 32/26
Q1008 NOSIG=
METAR RCSS 080900Z 31006KT 280V010 9999 FEW020 BKN035 BKN080 32/23
Q1006 NOSIG=
METAR VMMC 080900Z 19014KT 170V260 9999 FEW015 SCT030 BKN090
     31/27 Q1006 NOSIG=
METAR RPLL 080900Z 13004KT 9999 FEW023CB FEW025 BKN300 33/25 Q1008
           NOSIG RMK CB SSW A2977=
METAR RPVM 080900Z 06004KT 9999 FEW018CB OVC250 31/26 Q1008 A2978
           CB SSE=
METAR RPMD 080900Z
20008KT 9999 FEW015CB SCT290 31/26 1007 CB NW/SE=
METAR RPLB 080900 23009KT 9999 FEW020 OVC280 31/24 Q1008=
METAR RPLI 080900Z 25004KT 9999 FEW019CB BKN100 31/27 Q1008 NOSIG=
METAR RPMZ 080900Z 16004KT 9999 FEW018CB SCT350 32/26 Q1009 CB N=
####018001044####
SAAE31 VTBB 080900
METAR VTBS 080900Z 34004KT 7000 -TSRA FEW020CB SCT035 BKN120 30/23
           Q1006 TS NW NOSIG=
METAR VTBD 080900Z 29010KT 9999 FEW020CB BKN300 35/21 Q1005 CB SE
           NOSIG=
METAR VTCC 080900Z 23007KT 9999 FEW035 BKN300 34/21 Q1006 A2973=
METAR VTBU 080900Z NIL=
METAR VTSS 080900Z 25007KT 9999 VCSH FEW018CB SCT020 33/21 Q1007
           A2974 CB N=
METAR VTSP 080900Z 26011KT 8000 FEW018 SCT120 BKN300 30/24 Q1009
           A2980=
METAR VLVT 080900Z NIL=
METAR VYYY 080900Z NIL=
METAR VVTS 080900Z 35007KT 270V030 9999 FEW015TCU SCT017 31/23
           Q1006            TEMPO    TL0900 5000 SHRA=
METAR VVNB 080900Z NIL=
METAR VDPP 080900Z 05002KT 9999 SCT015 FEW017CB 33/23 Q1005 CB:E N
           NW SW=
METAR VVDN 080900Z 13009KT 100V190 9999 FEW017CB SCT300 33/21 Q1007
           NOSIG=
METAR VYMD 080900Z NIL=
METAR VDSR 080900Z 32004KT 9999 SCT015 FEW018CB SCT040 34/23 Q1004
           CB:S,E=
METAR VVPB 080900Z 16006KT 9999 SCT020 BKN300 35/21 Q1004 NOSIG=
####018000098####
SAUS41 KLWX 080908
MTRNHK
SPECI KNHK 080907Z AUTO 11004KT 5SM BR FEW009 26/24 A2998 RMK AO2
####018001634####
SAZZ40 KAWN 080900 RRN
METAR CYBR 080900Z 26007KT 15SM FEW240 11/11 A3005 RMK CI0 SLP183=
METAR DAAJ 080900Z 09012KT CAVOK 33/07 Q1021=
METAR K79J 080856Z AUTO 00000KT 10SM CLR 24/22 A3002 RMK AO2 SLP159
      T02440217 56005 TSNO $=
METAR KNSE 080856Z AUTO 00000KT 2 1/2SM BR FEW004 23/21 A3002 RMK AO2
      SLP150 T02280211 55005 $=
METAR LKKV 080900Z VRB02KT CAVOK 21/10 Q1024 RMK REG QNH 1021=
METAR MKJP 080900Z 09011KT 9999 SCT020 BKN220 27/19 Q1012=
METAR MKJS 080900Z 00000KT 9999 FEW022 25/22 Q1012=
METAR MYEG 080859Z AUTO 15008KT 10SM SCT020 BKN028 BKN040 27/24 A2992
      RMK AO2=
METAR OIII 080900Z 11006KT CAVOK 38/M02 Q1014 A2995 879/3=
METAR PHNG 080857Z 07007G14KT 10SM SCT026 BKN040 24/21 A3006 RMK AO2
      SLP174 T02440206 52010 $=
METAR TGPY 080900Z 08007KT 9999 FEW021 28/25 Q1012=
METAR TLPL 080900Z 10022KT 9999 SCT024 BKN300 29/24 Q1013=
METAR TXKF 080855Z 16013KT 9999 VCSH SCT013TCU BKN042 BKN170 BKN300
      25/22 Q1018 RMK TCU W-NW /=
METAR UACC 080900Z 26004MPS 220V310 CAVOK 25/03 Q1009 220/0070 NOSIG
      RMK QFE726/0968=
METAR UAFM 080900Z 30005MPS CAVOK 33/05 Q1012 NOSIG=
METAR UATT 080900Z 05010MPS 9999 NSC 32/04 Q1011 13CLRD70 NOSIG RMK
      QFE738/0985=
METAR ZBHH 080900Z VRB02MPS 9999 FEW040 30/10 Q1008 NOSIG=
METAR ZHHH 080900Z 08005MPS 040V120 6000 -RA FEW010 FEW030TCU 24/24
      Q1001 RETSRA NOSIG=
METAR ZSNJ 080900Z 11004MPS 3500 HZ BKN033 29/22 Q1003 TEMPO 2000 -TSRA
      FEW030CB=
METAR ZUCK 080900Z 11002MPS 080V150 3300 BR SCT020 29/25 Q1001 NOSIG=
METAR ZWSH 080900Z 14003MPS 070V210 CAVOK 33/00 Q1014 NOSIG=
####018000683####
SAUS20 KNKA 080908
METAR KOZA 080901Z AUTO 00000KT 10SM -RA SCT041 BKN050 BKN070 
     22/21 A3005 RMK AO2 T02220214=
METAR KPAN 080915Z AUTO 10003KT 10SM FEW120 23/04 A3012 RMK AO1 =
METAR KPEQ 080903Z AUTO 00000KT 10SM OVC110 23/21 A3005 RMK AO2=
SPECI KPIL 080907Z AUTO 10SM FEW055 BKN085 29/25 A2977 RMK AO2 
    RAB0856E07 P0000 $=
METAR KPPQ 080905Z AUTO 00000KT 2 1/2SM RA SCT023 BKN033 OVC050 
     23/23 A3004 RMK AO2 P0001=
METAR KPVW 080901Z AUTO 35013G16KT 10SM CLR 18/16 A3014 RMK AO2=
METAR KRCR 080905Z AUTO 00000KT 1 1/4SM BR VV007 23/21 A3005 RMK 
     AO2=
METAR KSFY 080905Z AUTO 00000KT 4SM BR BKN009 BKN013 22/22 A3001 
     RMK AO2=
####018002947####
SAUS20 KNKA 080908
METAR K0F2 080904Z AUTO 00000KT 10SM SCT023 SCT036 24/22 A3002 
     RMK AO2 T02350218=
METAR K11R 080904Z AUTO 06005KT 7SM CLR 25/24 A2994 RMK AO2=
METAR K1H2 080905Z AUTO 00000KT 7SM CLR 24/23 A3004 RMK AO2 
     T02420233=
METAR K3LF 080903Z AUTO 00000KT 7SM SCT049 SCT060 23/22 A3003 RMK 
     AO2=
METAR K3T5 080904Z AUTO 03003KT 7SM SCT017 BKN024 25/24 A2992 RMK 
     AO2 T02520236=
METAR K6R3 080901Z AUTO 00000KT 7SM SCT019 SCT026 SCT055 24/24 
     A2995 RMK AO2 T02430243=
METAR KAAA 080903Z AUTO 00000KT 2 1/2SM BR SCT043 SCT055 SCT070 
     23/22 A3003 RMK AO2 T02250218=
METAR KADS 080903Z AUTO 15005KT 10SM CLR 25/22 A3000 RMK AO2 
     T02490220=
METAR KAJG 080905Z AUTO 00000KT 10SM CLR 23/22 A3004 RMK AO2 
     T02300218=
METAR KALN 080903Z AUTO 00000KT 10SM SCT033 SCT043 BKN070 25/24 
     A3002 RMK AO2 T02470240=
METAR KAPY 080903Z AUTO 00000KT 10SM OVC013 25/24 A2984 RMK AO2 
     T02540242=
METAR KAQO 080905Z AUTO 14006KT OVC050 26/23 A3001 RMK AO2=
SPECI KARB 080907Z AUTO 00000KT 1SM BR CLR 20/19 A3003 RMK AO2=
METAR KARM 080905Z AUTO 07007G14KT 7SM RA SCT028 SCT045 BKN070 
     27/25 A2989 RMK AO2 T02650248=
METAR KAXH 080905Z AUTO 08003KT 10SM CLR 26/24 A2990 RMK AO2 
     T02600240=
METAR KBBD 080905Z AUTO 06003KT 10SM CLR 22/21 A3001 RMK=
METAR KBEA 080903Z AUTO 02004KT 10SM BKN008 BKN022 BKN050 25/25 
     A2986 RMK AO2 T02500251=
METAR KBKD 080901Z AUTO 00000KT 5SM BR CLR 24/23 A3001 RMK AO2 
     T02350228=
METAR KC09 080904Z AUTO 00000KT 2 1/2SM BR CLR 21/21 A3002 RMK AO2=
METAR KC75 080903Z AUTO 00000KT 5SM BR SCT014 SCT047 BKN065 24/24 
     A3001 RMK AO2=
METAR KCIR 080902Z AUTO 00000KT 10SM SCT047 24/22 A3004 RMK AO2=
SPECI KCRP 080905Z 05006KT 9SM -TSRA FEW009 SCT021CB BKN055 26/24
     A2982 RMK AO2 OCNL LTGIC NE NW TS NE NW MOV W P0039=
METAR KCUL 080905Z AUTO 00000KT 7SM CLR 23/21 A3004 RMK AO2 
     T02250205=
METAR KDKB 080901Z AUTO 16003KT 5SM BR OVC013 21/21 A3002 RMK AO2 
     T02130209=
METAR KDKR 080905Z AUTO 06004KT 7SM CLR 24/24 A3001 RMK AO2=
METAR KDNV 080905Z AUTO 00000KT 7SM SCT065 BKN100 23/21 A3001 RMK 
     AO2 T02260207=
METAR KGPM 080911Z AUTO 15004KT 10SM CLR 26/23 A2999 RMK AO2=
SPECI KGUY 080907Z AUTO 10005KT 4SM RA BR FEW008 OVC015 19/18 A3021 
    RMK AO2 LTG DSNT E P0003=
METAR KHQZ 080906Z AUTO 14003KT 10SM OVC015 25/23 A3001 RMK AO2=
METAR KIKK 080905Z AUTO 36005KT 4SM -RA SCT055 BKN075 BKN100 
     26/23 A3002 RMK AO2 P0001=
SPECI KJLN 080907Z 00000KT 3/4SM +RA BR FEW005 BKN017 OVC025 23/23 
    A3004 RMK AO2 P0030=
METAR KJOT 080906Z AUTO 00000KT 3SM BR 23/22 A3001 RMK AO2=
METAR KLOT 080901Z AUTO 00000KT 3SM BR BKN080 22/22 A3001 RMK AO2=
SPECI KM89 080906Z AUTO 00000KT 4SM BR OVC004 24/24 A3004 RMK AO2 
    CIG 003V007=
METAR KOXI 080905Z AUTO 00000KT 5SM SCT055 21/20 A3002 RMK AO1 
     T02080196=
####018000567####
SPUS99 KWBC 080909
SPECI
KPIL 080907Z AUTO 10SM FEW055 BKN085 29/25 A2977 RMK AO2
     RAB0856E07 P0000 $=
KARB 080907Z AUTO 00000KT 1SM BR CLR 20/19 A3003 RMK AO2=
KCRP 080905Z 05006KT 9SM -TSRA FEW009 SCT021CB BKN055 26/24 A2982
     RMK AO2 OCNL LTGIC NE NW TS NE NW MOV W P0039=
KGUY 080907Z AUTO 10005KT 4SM RA BR FEW008 OVC015 19/18 A3021 RMK
     AO2 LTG DSNT E P0003=
KJLN 080907Z 00000KT 3/4SM +RA BR FEW005 BKN017 OVC025 23/23 A3004
     RMK AO2 P0030=
KM89 080906Z AUTO 00000KT 4SM BR OVC004 24/24 A3004 RMK AO2 CIG
     003V007=
####018002789####
SAUS99 KWBC 080909
METAR
KOZA 080901Z AUTO 00000KT 10SM -RA SCT041 BKN050 BKN070 22/21
     A3005 RMK AO2 T02220214=
KPAN 080915Z AUTO 10003KT 10SM FEW120 23/04 A3012 RMK AO1=
KPEQ 080903Z AUTO 00000KT 10SM OVC110 23/21 A3005 RMK AO2=
KPPQ 080905Z AUTO 00000KT 2 1/2SM RA SCT023 BKN033 OVC050 23/23
     A3004 RMK AO2 P0001=
KPVW 080901Z AUTO 35013G16KT 10SM CLR 18/16 A3014 RMK AO2=
KRCR 080905Z AUTO 00000KT 1 1/4SM BR VV007 23/21 A3005 RMK AO2=
KSFY 080905Z AUTO 00000KT 4SM BR BKN009 BKN013 22/22 A3001 RMK
     AO2=
K0F2 080904Z AUTO 00000KT 10SM SCT023 SCT036 24/22 A3002 RMK AO2
     T02350218=
K11R 080904Z AUTO 06005KT 7SM CLR 25/24 A2994 RMK AO2=
K1H2 080905Z AUTO 00000KT 7SM CLR 24/23 A3004 RMK AO2
     T02420233=
K3LF 080903Z AUTO 00000KT 7SM SCT049 SCT060 23/22 A3003 RMK
     AO2=
K3T5 080904Z AUTO 03003KT 7SM SCT017 BKN024 25/24 A2992 RMK AO2
     T02520236=
K6R3 080901Z AUTO 00000KT 7SM SCT019 SCT026 SCT055 24/24 A2995 RMK
     AO2 T02430243=
KAAA 080903Z AUTO 00000KT 2 1/2SM BR SCT043 SCT055 SCT070 23/22
     A3003 RMK AO2 T02250218=
KADS 080903Z AUTO 15005KT 10SM CLR 25/22 A3000 RMK AO2
     T02490220=
KAJG 080905Z AUTO 00000KT 10SM CLR 23/22 A3004 RMK AO2
     T02300218=
KALN 080903Z AUTO 00000KT 10SM SCT033 SCT043 BKN070 25/24 A3002
     RMK AO2 T02470240=
KAPY 080903Z AUTO 00000KT 10SM OVC013 25/24 A2984 RMK AO2
     T02540242=
KAQO 080905Z AUTO 14006KT OVC050 26/23 A3001 RMK AO2=
KARM 080905Z AUTO 07007G14KT 7SM RA SCT028 SCT045 BKN070 27/25
     A2989 RMK AO2 T02650248=
KAXH 080905Z AUTO 08003KT 10SM CLR 26/24 A2990 RMK AO2
     T02600240=
KBBD 080905Z AUTO 06003KT 10SM CLR 22/21 A3001 RMK=
KBEA 080903Z AUTO 02004KT 10SM BKN008 BKN022 BKN050 25/25 A2986
     RMK AO2 T02500251=
KBKD 080901Z AUTO 00000KT 5SM BR CLR 24/23 A3001 RMK AO2
     T02350228=
KC09 080904Z AUTO 00000KT 2 1/2SM BR CLR 21/21 A3002 RMK AO2=
KC75 080903Z AUTO 00000KT 5SM BR SCT014 SCT047 BKN065 24/24 A3001
     RMK AO2=
KCIR 080902Z AUTO 00000KT 10SM SCT047 24/22 A3004 RMK AO2=
KCUL 080905Z AUTO 00000KT 7SM CLR 23/21 A3004 RMK AO2
     T02250205=
KDKB 080901Z AUTO 16003KT 5SM BR OVC013 21/21 A3002 RMK AO2
     T02130209=
KDKR 080905Z AUTO 06004KT 7SM CLR 24/24 A3001 RMK AO2=
KDNV 080905Z AUTO 00000KT 7SM SCT065 BKN100 23/21 A3001 RMK AO2
     T02260207=
KGPM 080911Z AUTO 15004KT 10SM CLR 26/23 A2999 RMK AO2=
KHQZ 080906Z AUTO 14003KT 10SM OVC015 25/23 A3001 RMK AO2=
KIKK 080905Z AUTO 36005KT 4SM -RA SCT055 BKN075 BKN100 26/23 A3002
     RMK AO2 P0001=
KJOT 080906Z AUTO 00000KT 3SM BR 23/22 A3001 RMK AO2=
KLOT 080901Z AUTO 00000KT 3SM BR BKN080 22/22 A3001 RMK AO2=
KOXI 080905Z AUTO 00000KT 5SM SCT055 21/20 A3002 RMK AO1
     T02080196=
####018000072####
SAAG SARI 080900
METAR SARI 080900Z  23004KT 8000  SKC  15/15 Q1018=
####018000068####
SAAG SAVC 080900
METAR SAVC 080900Z  27011KT CAVOK 05/M02 Q0998=
####018000182####
SARS34 RUMS 080830
METAR UUYS 080830Z 16003MPS CAVOK 20/07 Q1017 NOSIG RMK QFE756
14CLRD60=
METAR UUYY 080830Z VRB01MPS 9999 SCT026 29/15 Q1016 NOSIG 19CLRD61
RMK QFE753/1004=
####018000076####
SAAG SASJ 080900
METAR SASJ 080900Z  32003KT 9999  FEW040  09/07
Q1018=
####018000085####
SAUK37 EGGY 080850 RRA
METAR EGNC 080850Z 26012KT 9999 SCT030 SCT045 15/11 Q1015=
####018000131####
SAEW40 LEMM 080900
METAR LEBG 080900Z 01006KT 330V070 CAVOK 28/15 Q1020=
METAR LEHC 080900Z 09008KT 060V150 CAVOK 31/14 Q1021=
####018000088####
SAMG20 FMMI 080900
METAR FMMI 080900Z 12010KT 080V160 9999 BKN020 18/12 Q1027 NOSIG=
####018000077####
SAMA21 FIMP 080900
METAR FIMR  080900Z 12018KT 9999 SCT020  26/17 Q1020=
####018000100####
SAKY31 RUMS 080900
METAR UAFM 080900Z 30005MPS CAVOK 33/05 Q1012 NOSIG=
METAR UAFO 080900Z NIL=
####018000086####
SANL33 EHDB 080855 RRA
METAR EHJR 080855Z AUTO 26017G17KT //// 16/15 Q1018 W15/S3=
####018000086####
SANL33 EHDB 080855 RRC
METAR EHSA 080855Z AUTO 24008G10KT 9999 16/15 Q1019 W16/S2=
####018000673####
SAKZ31 RUMS 080900
METAR UAAA 080900Z 03004MPS 010V070 9999 FEW050CB BKN100 30/10 Q1013
88CLRD65 TEMPO TS=
METAR UACC 080900Z 26004MPS 220V310 CAVOK 25/03 Q1009 220/0070 NOSIG
RMK QFE726/0968=
METAR UAKK 080900Z VRB01MPS CAVOK 24/03 Q1010 230///70 NOSIG RMK
QFE711/0948=
METAR UAOO 080900Z NIL=
METAR UARR 080900Z NIL=
METAR UATE 080900Z 30006MPS 270V340 CAVOK 36/17 Q1010 300///70 NOSIG
RMK QFE756/1008=
METAR UATG 080900Z 35006G10MPS CAVOK 39/10 Q1009 32CLRD70 NOSIG RMK
QFE759/1012 =
METAR UATT 080900Z 05010MPS 9999 NSC 32/04 Q1011 13CLRD70 NOSIG RMK
QFE738/0985=
METAR UAUU 080900Z 34006MPS 300V360 CAVOK 26/M01 Q1013 33CLRD70 NOSIG
RMK QFE744/0992=
####018000068####
SAVN23 SVBC 080900
METAR SVBC 080900Z 00000KT CAVOK 24/22 Q1012=
####018000086####
SANL33 EHDB 080855 RRB
METAR EHSC 080855Z AUTO 27013G13KT 9999 17/15 Q1019 W///S2=
####018000156####
SAAY31 RUMS 080900
METAR UDYZ 080900Z VRB02MPS 9999 FEW050 35/13 Q1010 09010070 NOSIG=
METAR UDSG 080900Z 07005MPS 9999 NSC 30/13 Q1016 02CLRD70 NOSIG=
####018000256####
SATR31 RUMS 080900
METAR UTAA 080900Z NIL=
METAR UTAK 080900Z 32003MPS CAVOK 37/17 Q1008 NOSIG=
METAR UTAM 080900Z 04006MPS CAVOK 40/07 Q1007 NOSIG=
METAR UTAT 080900Z 16005MPS CAVOK 43/19 Q1007 NOSIG=
METAR UTAV 080900Z 02004MPS CAVOK 40/11 Q1006=
####018000298####
SABO SLLP 080900
METAR SLLP 080900Z 08006KT 4000E VCFG FEW002 M03/M03 Q1036=
METAR SLVR 080900Z 15008KT 9999 FEW010 BKN017 OVC070 20/19 Q1014=
METAR SLCB 080900Z 00000KT 8000 NSC 07/01 Q1025=
METAR SLTR 080900Z 36008KT 6000 -TSRA BKN010 FEW017CB OVC070 23/23
Q1013=
METAR SLET 080900Z NIL=
####018000075####
SAQB31 LQTZ 080900
METAR
LQTZ 080900Z VRB02KT 9999 FEW040 17/// Q1023=
####018000123####
SAAG01 SABM 080900 RRB
METAR SADF 080900Z  00000KT CAVOK 03/02 Q1019=
METAR SAME 080900Z 00000KT CAVOK 00/M04 Q1014=
####018000088####
SPCN31 KWBC 080909
SPECI
CYMH 080906Z AUTO 16005KT 9SM SCT005 BKN032 07/06 A3010=
####018000099####
SPIQ31 KWBC 080909
SPECI
KQMG 080903Z AUTO 03012KT 12SM FEW029 21/14 A3015 RMK AO2 SLP136 $=
####018000095####
SAPA41 KWBC 080900 RRA
METAR
PGUM 080907Z 09009KT 10SM SCT021 BKN027 BKN037 28/24 A2988=
####018000095####
SAPQ31 KWBC 080900 RRA
METAR
PGUM 080907Z 09009KT 10SM SCT021 BKN027 BKN037 28/24 A2988=
####018000319####
SAPL32 EPWA 080900
METAR EPKT 080900Z 34008KT CAVOK 20/08 Q1023=
METAR EPLL 080900Z 31005KT CAVOK 20/07 Q1022=
METAR EPSC 080900Z 16002KT CAVOK 22/12 Q1022=
METAR EPWR 080900Z VRB04KT CAVOK 23/10 Q1023=
METAR EPBY 080900Z 30008KT 240V360 CAVOK 21/10 Q1022=
METAR EPZG 080900Z 19006KT 130V260 CAVOK 23/08 Q1023=
####018000313####
SAAP32 FAPR 080900
METAR FABL 080900Z 34012KT CAVOK 15/05 Q1034 NOSIG=
METAR FAJS 080900Z 07011KT 040V110 9999 SCT012 13/07 Q1037 NOSIG=
METAR FLLS 080900Z 07026KT 9999 BKN025 18/08 Q1029=
METAR FQBR 080900Z 19013KT 9999FEW020 23/17 Q1027=
METAR FQMA 080900Z 20004KT 150V240 9999 BKN020 23/17 Q1031 NOSIG=
####018001486####
SAEU KAWN 080900 RRW
METAR LEZL 080900Z 28006KT 230V330 9999 SCT020 28/17 Q1016 NOSIG=
METAR LFLX 080900Z 12005KT 080V170 CAVOK 27/14 Q1019 NOSIG=
METAR LIBH 080855Z 33013G25KT CAVOK 26/09 Q1017 RMK SKC QUK 2 QUL 1
      E VIS MAR 20 KM VIS MIN 9999=
METAR LIBY 080855Z 35018KT 9999 FEW020 25/10 Q1016 RMK FEW QUK 3 QUL
      1 N VIS MAR 20 KM VIS MIN 9999=
METAR LICF 080855Z 35001KT 9999 FEW030 30/25 Q1017 RMK BKN SCT080 QUK
      1 QUL 0 VIS MAR 10 KM MON LIB NC VIS MIN 9999=
METAR LICL 080855Z 25008KT CAVOK 25/22 Q1018 RMK SKC QUK 1 QUL 0 VIS
      MAR 14 KM VIS MIN 9999=
METAR LIEC 080855Z 04015KT 9999 FEW020 27/24 Q1019 RMK FEW QUK 2 QUL
      0 VIS MAR 15 KM VIS MIN 9999=
METAR LIEE 080855Z 16005KT CAVOK 27/17 Q1019 RMK VIS MIN 9999 WIND
      THR14 20004KT BLU=
METAR LIEO 080850Z 03007KT 350V070 9999 FEW030 30/15 Q1020 RMK VIS
      MIN 9999=
METAR LIMK 080855Z 35003KT 9999 BKN025 19/13 Q1023 RMK OVC SCT080 VAL
      NIL VIS MIN 9999=
METAR LIPF 080855Z 10003KT 9999 FEW050 25/19 Q1021 RMK FEW VIS MIN
      9999=
METAR LIPX 080845Z 10007KT 9999 SCT080 27/14 Q1021 RMK SCT VIS MIN
      9999 BLU=
METAR LKKV 080900Z VRB02KT CAVOK 21/10 Q1024 RMK REG QNH 1021=
METAR LKMT 080900Z VRB03KT 9999 FEW046 19/10 Q1023 NOSIG RMK REG QNH
      1021=
METAR LKPR 080900Z 23004KT 150V270 CAVOK 21/10 Q1024 NOSIG RMK REG
      QNH 1021=
METAR LKTB 080900Z 29005KT 240V350 CAVOK 21/08 Q1023 NOSIG RMK REG
      QNH 1021=
####018000429####
SAPL31 EPWA 080900
METAR EPWA 080900Z 29010KT 250V350 9999 FEW033 20/12 Q1021
      NOSIG=
METAR EPGD 080900Z 30008KT CAVOK 21/11 Q1021=
METAR EPKK 080900Z 33006KT 290V020 9999 FEW046 21/09 Q1022=
METAR EPPO 080900Z 32006KT 250V020 CAVOK 21/09 Q1023=
METAR EPRZ 080900Z 32011KT 280V350 9999 FEW033 20/10 Q1021=
METAR EPBY 080900Z 30008KT 240V360 CAVOK 21/10 Q1022=
METAR EPZG 080900Z 19006KT 130V260 CAVOK 23/08 Q1023=
####018000083####
SAUS41 KWBC 080900 RRB
METAR
KWDR 080900Z AUTO 00000KT 10SM CLR 23/20 A3006=
####018000107####
SAAH10 OAKN 080900
METAR OAKN 080850Z 31005KT 9000 HZ FEW120 41/09 Q1009 BLU NOSIG RMK
A2979 DA7100=
####018001525####
SAIY43 LIIB 080900
METAR LIBA 080855Z /////KT 9999 FEW040 27/11 Q1019 RMK FEW VIS MIN
      9999 WIND THR29 30009KT BLU=
METAR LIBC 080850Z 03020KT CAVOK 26/12 Q1018 RMK VIS MIN 9999=
METAR LIBD 080850Z 36011KT 9999 FEW030 25/12 Q1020 RMK VIS MIN 9999=
METAR LIBG 080850Z 36018KT 330V040 CAVOK 26/08 Q1018 RMK VIS MIN
9999=
METAR LIBN 080855Z 36016G26KT 9999 FEW030 25/12 Q1017 RMK FEW VIS MIN
      9999 WIND THR14 36017KT BLU=
METAR LIBP 080850Z VRB03KT CAVOK 25/07 Q1022 RMK VIS MIN 9999=
METAR LIBQ 080855Z 06007KT 9999 FEW009 15/11 Q1024 RMK FEW MON LIB
      VAL NIL VIS MIN 9999=
METAR LIBR 080845Z /////KT CAVOK 25/15 Q1017 NOSIG RMK SKC VIS MIN
      9999 WIND THR13 WIND THR31 33021KT BLU=
METAR LIBV 080855Z 36017KT 9999 FEW030 24/12 Q1017 RMK FEW VIS MIN
      9999 WIND THR14 36015KT BLU=
METAR LICA 080850Z 22009KT 9999 FEW020 SCT060 27/23 Q1017 RMK VIS
MIN 9999=
METAR LICC 080850Z 09005KT CAVOK 29/20 Q1018 RMK VIS MIN 9999=
METAR LICD 080850Z 36011KT 220V360 CAVOK 26/21 Q1019 RMK VIS MIN
9999=
METAR LICG 080855Z 32008KT 9999 SCT020 23/20 Q1019 RMK SCT VIS MIN
      9999 WIND THR08 32005KT WIND THR21 VRB07KT BLU=
METAR LICJ 080850Z 04015KT CAVOK 27/22 Q1018 RMK VIS MIN 9999=
METAR LICR 080850Z 35010KT 9999 FEW020 SCT040 30/19 Q1018 RMK VIS
MIN 9999=
METAR LICT 080855Z 33007KT CAVOK 30/22 Q1018 RMK SKC VIS MIN 9999
      WIND THR13 33007KT BLU=
METAR LICZ 080855Z 10011KT CAVOK 30/18 Q1018 RMK SKC VIS MIN 9999
      WIND THR28 //////KT BLU=
####018000363####
SATH31 VTBB 080900
METAR VTCT 080900Z NIL=
METAR VTCN 080900Z NIL=
METAR VTCP 080900Z NIL=
METAR VTCH 080900Z NIL=
METAR VTPH 080900Z 13005KT 9999 FEW030 33/22 Q1006=
METAR VTPM 080900Z NIL=
METAR VTPP 080900Z NIL=
METAR VTPO 080900Z 21005KT 9999 SCT022 36/25 Q1003=
METAR VTCL 080900Z NIL=
METAR VTPB 080900Z NIL=
METAR VTPT 080900Z NIL=
####018000533####
SATH32 VTBB 080900
METAR VTSB 080900Z NIL=
METAR VTSM 080900Z 32012KT 9999 FEW020CB BKN300 33/26 Q1008 A2978
CB SW=
METAR VTSF 080900Z 04009KT 330V080 9999 FEW018CB SCT300 32/24 Q1007
A2975 CB TO SW AND W=
METAR VTSC 080900Z NIL=
METAR VTSK 080900Z NIL=
METAR VTST 080900Z NIL=
METAR VTSR 080900Z NIL=
METAR VTSG 080900Z 30013G24KT 260V360 4000 TSRA SCT010CB BKN110
BKN300 23/20 Q1009 A2981 TS OVER AD RWY32 INFO J=
METAR VTSE 080900Z NIL=
METAR VTSH 080900Z 03010KT 9999 FEW020 SCT300 34/23 Q1006 A2973=
####018000089####
SPUS52 KWBC 080909
SPECI
KCOT 080906Z AUTO 05004KT 10SM BKN014 OVC045 25/23 A2990=
####018000099####
SPUS53 KWBC 080909
SPECI
KJLN 080907Z 00000KT 3/4SM +RA BR FEW005 BKN017 OVC025 23/23 A3004=
####018000956####
SARS32 RUMS 080900
METAR URKA 080900Z 05005MPS 9999 SCT026 28/18 Q1013 NOSIG RMK  065=
METAR URKK 080900Z 08005G08MPS 040V110 9999 SCT030 SCT300 28/17 Q1013
NOSIG RMK QFE756 SC070=
METAR URKM 080900Z 10002MPS 9999 SCT040 BKN100 20/18 Q1013 NOSIG RMK
QFE741=
METAR URML 080900Z 03004G09MPS 9999 SKC 31/21 Q1013 NOSIG RMK QFE759
/ 07=
METAR URMM 080900Z 09004G07MPS 9999 BKN040 29/20 Q1013 NOSIG RMK /
SC070=
METAR URMN 080900Z 10004MPS 9999 SCT026 BKN110 27/20 Q1014 NOSIG RMK
/ QFE724 SC07=
METAR URMT 080900Z 08006G09MPS 9999 SCT020 27/17 Q1015 NOSIG RMK
QFE721 SC07=
METAR URRR 080900Z 10003G06MPS 9999 FEW026 29/15 Q1014 NOSIG RMK
SC070=
METAR URSS 080900Z 30002MPS 9999 FEW040 28/21 Q1011 NOSIG RMK /
QFE757 06CLRD70=
METAR URWA 01003MPS CAVOK 36/10 Q1011 NOSIG RMK SC07=
METAR URWI 080900Z 00000MPS CAVOK 29/16 Q1014 NOSIG RMK SC065=
METAR URWW 080900Z 35003MPS CAVOK 28/18 Q1014 NOSIG RMK SC070=
####018000264####
SARS34 RUMS 080900
METAR UUYH 080900Z 25002MPS CAVOK 25/08 Q1017 NOSIG RMK QFE 751
18CLRD60=
METAR UUYS 080900Z 16003MPS CAVOK 21/07 Q1017 NOSIG RMK QFE756
14CLRD60=
METAR UUYY 080900Z VRB01MPS 9999 SCT030 29/12 Q1016 NOSIG 01CLRD61
RMK QFE753/1004=
####018000551####
SARA31 RUMS 080900
METAR UEEE 080900Z 00000MPS 9999 SCT050CB BKN100 24/08 Q1008 NOSIG
RMK QFE747 2309//60=
METAR UELL 080900Z 33006MPS 9999 -TSRA BKN024CB CB OVC200 16/15 Q1010
NOSIG RMK QFE683 08CLRD70=
METAR UERP 080900Z 03005MPS 9999 SCT033CB BKN100 16/06 Q1014 NOSIG
RMK QFE716 35090065=
METAR UERR 080900Z 32004MPS 9999 BKN020CB 14/14 Q1011 NOSIG RMK
QFE727 24290255=
METAR UESO 080900Z 26009G13MPS 9999 OVC008 07/05 Q1004 NOSIG RMK
QFE751 SC060=
METAR UEST 080900Z 14003MPS CAVOK 07/02 Q1016 NOSIG RMK QFE761
21000060=
####018000738####
SARA36 RUMS 080900
METAR UWUU 080900Z 01004G08MPS CAVOK 27/08 Q1016 82010060 NOSIG RMK
QFE751/1001 MOD TURB 500-1600=
METAR USCC 080900Z 34008G12MPS 9999 SCT040 25/02 Q1014 NOSIG RMK
QFE740 27000070=
METAR USDD 080900Z 05008G11MPS CAVOK 17/01 Q1016 NOSIG RMK
QFE756/1008 SC060=
METAR USMU 080900Z 01006G11MPS 9999 SCT024CB OVC066 12/10 Q1005 NOSIG
RMK QFE748 09250345=
METAR USNN 080900Z 16006MPS P6000 SCT026 BKN200 18/11 Q1002 NOSIG RMK
QFE747 SC065=
METAR USRK 080900Z 34004MPS 6000 BKN016 OVC066 13/11 Q1002 NOSIG RMK
QFE746 351///55=
METAR USRR 080900Z 34004G07MPS 7000 OVC010 12/10 Q1004 TEMPO BKN005
RMK QFE747 25////60=
METAR USSS 080900Z 33007G10MPS CAVOK 24/02 Q1015 NOSIG RMK QFE740
260///70=
####018000876####
SARA34 RUMS 080900
METAR UNAA 080900Z 02005MPS 9999 SCT026CB BKN100 17/13 Q1010 TEMPO
34010G15MPS 2000 TSRA RMK QFE735 202///55=
METAR UNBB 080900Z 18008MPS 9999 BKN033CB 18/07 Q1009 NOSIG RMK
QFE734=
METAR UNEE 080900Z 26007MPS 9999 SCT026 BKN200 19/11 Q1008 NOSIG RMK
QFE733 23CLRD60=
METAR UNKL 080900Z VRB02MPS 9999 -SHRA SCT010 BKN020CB OVC083 16/14
Q1008 NOSIG RMK QFE731 29////55=
METAR UNNT 080900Z 23004MPS 190V260 9999 BKN050CB BKN100 21/04 Q1007
NOSIG RMK QFE745/0994 25090070=
METAR UNOO 080900Z 30006MPS 9999 BKN023 14/09 Q1007 NOSIG 25CLRD06
RMK QFE747=
METAR UNWW 080900Z 29004MPS 9999 BKN026CB OVC130 20/10 Q1009 NOSIG
RMK QFE730 19CLRD70=
METAR USTR 080900Z 32008G11MPS CAVOK 20/03 Q1011 NOSIG RMK
QFE749/0998 30CLRD65=
METAR USHH 080900Z 33003G08MPS 250V020 6000 -SHRA BKN018CB OVC080
10/09 Q1009 NOSIG RMK QFE753 SC06=
####018000405####
SARS33 RUMS 080900
METAR ULLI 080900Z 10002MPS 040V150 CAVOK 30/19 Q1013 NOSIG=
METAR UUDD 080900Z 15004MPS 130V190 CAVOK 27/15 Q1015 NOSIG=
METAR UUEE 080900Z 12004MPS 080V170 9999 SCT050TCU BKN200 28/14 Q1015
NOSIG=
METAR UUEM 080900Z NIL=
METAR UUWW 080900Z 13003MPS CAVOK 24/17 Q1015 06000070 NOSIG=
METAR UUMO 080900Z 12003MPS 070V180 CAVOK 25/16 Q1015 NOSIG RMK
QFE746/0995 SC060=
####018001030####
SARS35 RUMS 080900
METAR USPP 080900Z 33003MPS 280V360 CAVOK 26/10 Q1016 NOSIG RMK
QFE751/1001 21090060=
METAR UWKD 080900Z 13009G12MPS 9999 VCTS -SHRA BKN033CB BKN070 28/12
Q1015 TEMPO VRB15MPS 3000 TSRA RMK QFE752/1003 112/0350=
METAR UWKE 080900Z 12002MPS 9999 FEW040 30/11 Q1016 NOSIG RMK
QFE745/0993 22090070=
METAR UWKS 080900Z 31002MPS 170V050 CAVOK 32/12 Q1016 NOSIG RMK
QFE747 SC0.60=
METAR UWLL 080900Z 11002MPS CAVOK 31/10 Q1016 NOSIG RMK QFE749/0999
SC065=
METAR UWLW 080900Z 02003MPS 8000 FEW040 32/14 Q1015 NOSIG 02CLRD60
RMK QFE755=
METAR UWOR 080900Z 05010MPS CAVOK 28/03 Q1014 07CLRD65 NOSIG RMK
QFE735/0981=
METAR UWOO 080900Z 05006MPS P5000 SCT070 31/04 Q1012 08LRD65 NOSIG
RMK QFE749/0998=
METAR UWPP 080900Z 13004MPS 9999 SCT033 BKN100 30/09 Q1014 NOSIG RMK
QFE746 11090060=
METAR UWSS 080900Z 05006MPS 9999 FEW050TCU BKN066 30/13 Q1015 NOSIG
RMK QFE749 120///60=
METAR UWWW 080900Z 06005G08MPS 010V120 CAVOK 31/09 Q1016 NOSIG RMK
QFE749/0998 05CLRD60 15//99//=
####018000405####
SARA33 RUMS 080900
METAR UIAA 080900Z 03006MPS 9999 VCTS BKN043CB OVC200 25/10 Q1006
NOSIG RMK     QFE696 29CLRD70=
METAR UIBB 080900Z 07004MPS 9999 FEW033 BKN200 28/12 Q1005 NOSIG RMK
QFE711/0948 30CLRD60=
METAR UIII 080900Z 16004MPS CAVOK 22/13 Q1006 NOSIG RMK QFE712/0950
12CLRD60=
METAR UIUU 080900Z 25004MPS 210V280 9999 SCT040CB OVC100 22/14 Q1007
NOSIG RMK QFE711/0948=
####018000959####
SARS31 RUMS 080900
METAR ULAA 080900Z 32003G06MPS 260V020 9999 FEW030TCU FEW/// 27/20
Q1015 NOSIG RMK QFE760/1013 SC070=
METAR ULKK 080900Z VRB01MPS 6000 SCT033 SCT099 31/16 Q1015 NOSIG RMK
QFE757=
METAR ULMM 080900Z 35003MPS 320V030 9999 BKN018 14/08 Q1017 NOSIG RMK
QFE756 32190060=
METAR ULOL 080900Z NIL=
METAR ULOO 080900Z VRB01MPS P6000 SCT035 BKN200 27/17 Q1012 NOSIG RMK
QFE755=
METAR ULWW 080900Z 15004G07MPS 9999 FEW050 BKN/// 31/17 Q1016 NOSIG
RMK QFE751 15CLRD60=
METAR UMKK 080900Z 30005MPS P8000 SCT200 23/13 Q1019 NOSIG RMK QFE
763 SC07=
METAR UUBP 080900Z 19002MPS 9999 SCT033CB BKN/// 26/18 Q1013 NOSIG=
METAR UUOB 080900Z 20003MPS 9999 SCT040 BKN200 27/17 Q1014 NOSIG RMK
SC065=
METAR UUOK 080900Z VRB02MPS 9999 BKN040 28/18 Q1012 NOSIG=
METAR UUOO 080900Z VRB02MPS 9999 SCT033 28/14 Q1014 NOSIG RMK
13090070=
METAR UWGG 080900Z 14004MPS 090V180 8000 FEW033 33/08 Q1016 NOSIG RMK
QFE755 18090070=
####018000449####
SARA35 RUMS 080900
METAR ULDD 080900Z 08009MPS CAVOK 06/02 Q1018 NOSIG RMK QFE763=
METAR UOHH 080900Z 02002MPS 9999 FEW030 SCT/// 12/03 Q1023 NOSIG RMK
QFE761 06090060=
METAR UOII 080900Z 13004MPS 9999 FEW033CB BKN040 29/17 Q1005 TEMPO
-TSRA RMK QFE751 30////60=
METAR UOOO 080900Z 03007G09MPS CAVOK 23/10 Q1010 NOSIG RMK QFE743
010///60=
METAR USCM 080900Z 03003G08MPS 350V070 9999 FEW050 25/01 Q1015 NOSIG
01090065 RMK QFE723=
####018000676####
SARA32 RUMS 080900
METAR UHHH 080900Z 03003MPS 9999 BKN030CB OVC100 18/15 Q1010 NOSIG
RMK QFE751/1001 55090060=
METAR UHMA 080900Z NIL=
METAR UHMM 080900Z 25003MPS 9999 BKN006 OVC026 13/11 Q1016 RMK QFE747
88010070 MT OBSC=
METAR UHMP 080900Z NIL=
METAR UHNN 080900Z 07004MPS 9999 -SHRA FEW010 BKN025CB OVC070 12/11
Q1012 RMK QFE754=
METAR UHPP 080900Z 19004MPS 9999 FEW010 10/06 Q1017 NOSIG RMK QBB300
QFE759/1012 MT OBS SC070=
METAR UHSH 080900Z NIL=
METAR UHSS 080900Z 16003MPS 9999 BKN021 14/12 Q1011 NOSIG RMK MT OBSC
QFE757/1009 19CLRD70=
METAR UHWW 080900Z 22005MPS 190V260 9999 BKN015 OVC070 19/16 Q1009
NOSIG RMK QFE756/1008 75CLRD70=
####018000801####
SAAO32 GOOY 080900
METAR GABS 080900Z 23005KT CAVOK 28/23 Q1016 NOSIG=
METAR GGOV 080900Z 18005KT 140V220 9999 SCT015TCU FEW020CB SCT100    
               28/25 Q1013 TEMPO TS=
METAR GOOY 080900Z 16006KT 140V200 9999 SCT013 29/24 Q1012 NOSIG=
METAR DIAP 080900Z VRB02KT 6000 SCT005 BKN012 BKN080 26/25 Q1015
TEMPO BKN012 BKN070=
METAR GQNN 080900Z 20009KT 6000 SCT010 28/23 Q1012 NOSIG=
METAR GQPP 080900Z 35010KT 8000 NSC 23/20 Q1012 NOSIG=
METAR GUCY 080900Z 09010KT 9999 SCT015 BKN116 27/24 Q1014=
METAR GVAC 080900Z 06008KT 9999 SCT014 BKN016 24/19 Q1013 NOSIG=
METAR GFLL 080900Z 09008KT 9999 SCT011 FEW028CB 24/23 Q1014 CB-NE=
METAR GBYD 080900Z VRB03KT 9999 SCT011 SCT120 28/25 Q1012=
METAR GLRB 080900Z 00000KT 9999 SCT014 FEW025CB BKN100 26/23 Q1015
 CB-SW=

####018000099####
SPUS73 KWBC 080909
SPECI
KJLN 080907Z 00000KT 3/4SM +RA BR FEW005 BKN017 OVC025 23/23 A3004=
####018000297####
SANA14 KAWN 080900 RRD
METAR KNSE 080856Z AUTO 00000KT 2 1/2SM BR FEW004 23/21 A3002 RMK AO2
      SLP150 T02280211 55005 $=
METAR KNSE 080856Z AUTO 00000KT 2 1/2SM BR FEW004 23/21 A3002 RMK AO2
      SLP150 T02280211 55005 $=
METAR SEGU 080900Z 20006KT 9999 BKN030 23/19 Q1011 NOSIG=
####018000099####
SPUS81 KWBC 080909
SPECI
KJLN 080907Z 00000KT 3/4SM +RA BR FEW005 BKN017 OVC025 23/23 A3004=
####018000996####
SASA KAWN 080900 RRC
METAR SACO 080900Z 36009KT CAVOK 09/M01 Q1019=
METAR SARE 080900Z 16005KT CAVOK 09/08 Q1018=
METAR SARF 080900Z 18009KT 9999 OVC007 14/13 Q1017=
METAR SARP 080900Z 11002KT 9999 BKN005 OVC015 14/13 Q1017=
METAR SBCR 080900Z 16007KT CAVOK 23/15 Q1013=
METAR SEGU 080900Z 20006KT 9999 BKN030 23/19 Q1011 NOSIG=
METAR SEMT 080900Z 16003KT 9999 OVC016 23/20 Q1012=
METAR SKBO 080900Z 00000KT 6000 HZ BKN012 12/11 A3028 NOSIG=
METAR SKBO 080900Z 00000KT 6000 HZ BKN012 12/11 A3028 NOSIG=
METAR SKCG 080900Z VRB02KT 9999 FEW012 BKN070 26/25 A2987=
METAR SKCL 080900Z 00000KT 9999 FEW025 BKN090 20/19 A2999=
METAR SLCA 080900Z 00000KT 9999 BKN036 15/14 Q1020=
METAR SLCB 080900Z 00000KT 8000 NSC 07/01 Q1025=
METAR SLLP 080900Z 08006KT 4000E VCFG FEW002 M03/M03 Q1036=
METAR SLRI 080900Z 00000KT 3000 BR SKC 24/24 Q1011=
METAR SLVR 080900Z 15008KT 9999 FEW010 BKN017 OVC070 20/19 Q1014=
METAR SMJP 080900Z 00000KT 9999 FEW018CB 23/23 Q1012 NOSIG=
####018000091####
SPUS81 KWBC 080909
SPECI
PASN 080905Z 07011KT 10SM FEW004 SCT035 OVC045 06/05 A2995=
####018000720####
SAAM31 FCBB 080900
METAR FCBB 080900Z 24005KT 200V300 6000  BKN014 25/19 Q1016 NOSIG=
METAR FCPP 080900Z 16006KT 7000 SCT013 BKN026 24/21 Q1015 NOSIG=
METAR FKKD 080900Z 12003KT 8000 TS BKN013 FEW016CB BKN120 27/25 Q1015
           BECMG NSW BKN016 FEW020CB BKN120=
METAR FEFF 080900Z VRB03KT 9999 SCT020 SCT300 27/24 Q1015 NOSIG=
METAR FOOL 080900Z 15006KT 120V190 8000 SCT010 OVC040 26/21 Q1016
           NOSIG=
METAR FGSL 080900Z VRB01KT 9999 SCT013 FEW020CB BKN130 27/26
           Q1015 NOSIG=
METAR FZAA 080900Z 24004KT 4000 BR FEW016 25/19 Q1014 BECMG 6000=
METAR FNLU 080900Z VRB03KT 8000 SCT018 BKN020 23/19 Q1015 NSG=
METAR FPST 080900Z 16006KT 9999 FEW025 BKN100 27/21 Q1015 NOSIG=
####018000794####
SAAO32 GOOY 080900
METAR GABS 080900Z 23005KT CAVOK 28/23 Q1016 NOSIG=
METAR GGOV 080900Z 18005KT 140V220 9999 SCT015TCU FEW020CB SCT100
               28/25 Q1013 TEMPO TS=
METAR GOOY 080900Z 16006KT 140V200 9999 SCT013 29/24 Q1012 NOSIG=
METAR DIAP 080900Z VRB02KT 6000 SCT005 BKN012 BKN080 26/25 Q1015
TEMPO BKN012 BKN070=
METAR GQNN 080900Z 20009KT 6000 SCT010 28/23 Q1012 NOSIG=
METAR GQPP 080900Z 35010KT 8000 NSC 23/20 Q1012 NOSIG=
METAR GUCY 080900Z 09010KT 9999 SCT015 BKN116 27/24 Q1014=
METAR GVAC 080900Z 06008KT 9999 SCT014 BKN016 24/19 Q1013 NOSIG=
METAR GFLL 080900Z 09008KT 9999 SCT011 FEW028CB 24/23 Q1014 CB-NE=
METAR GBYD 080900Z VRB03KT 9999 SCT011 SCT120 28/25 Q1012=
METAR GLRB 080900Z 00000KT 9999 SCT014 FEW025CB BKN100 26/23 Q1015
 CB-SW=
####018001118####
SARS18 KAWN 080900 RRC
METAR BIKF 080900Z 02024KT 9999 FEW017 SCT030 BKN080 11/04 Q0993=
METAR UAAA 080900Z 03004MPS 010V070 9999 FEW050CB BKN100 30/10 Q1013
      88CLRD65 TEMPO TS=
METAR UACC 080900Z 26004MPS 220V310 CAVOK 25/03 Q1009 220/0070 NOSIG
      RMK QFE726/0968=
METAR UAFM 080900Z 30005MPS CAVOK 33/05 Q1012 NOSIG=
METAR UATE 080900Z 30006MPS 270V340 CAVOK 36/17 Q1010 300///70 NOSIG
      RMK QFE756/1008=
METAR UATT 080900Z 05010MPS 9999 NSC 32/04 Q1011 13CLRD70 NOSIG RMK
      QFE738/0985=
METAR UKKK 080900Z 26002MPS 210V350 9999 BKN019 22/18 Q1015 26CLRD70
      NOSIG=
METAR UMGG 080900Z 21003MPS 9999 SCT019CB BKN100 26/18 Q1013 R28/190055
      NOSIG=
METAR UMII 080900Z 16003MPS P6000 BKN015 21/18 Q1013 R23/D NOSIG=
METAR UMMM 080900Z 29005MPS 9999 BKN018 19/15 Q1014 R30/290050 NOSIG
      RMK QFE741=
METAR UMMS 080900Z 28004G07MPS 250V310 9999 BKN015 19/16 Q1014 R31/D
      NOSIG=
METAR UTDD 080900Z VRB01MPS 9999 FEW066 36/05 Q1010 09CLRD70 NOSIG
      RMK QFE690/0920=
METAR VTBD 080900Z 29010KT 9999 FEW020CB BKN300 35/21 Q1005 CB SE NOSIG=
####018000813####
SPZZ40 KAWN 080909 RRA
SPECI BGTL 080906Z AUTO 00000KT 0400 FG VV001 04/04 A2984 RMK AO2 SLP110=
SPECI CYMH 080906Z AUTO 16005KT 9SM SCT005 BKN032 07/06 A3010=
SPECI KDOV 080903Z AUTO 00000KT 1 3/4SM BR CLR 24/24 A2999 RMK AO2
      VIS 1/2 RWY19 SLP158=
SPECI KDOV 080904Z AUTO 00000KT 1 3/4SM BR FEW006 24/24 A2999 RMK AO2
      VIS 1/2 RWY19 SLP157=
SPECI KSZL 080904Z 31003KT 9SM -RA BKN050 23/23 A3004 RMK AO2A RAB0904
      SLP164 $=
SPECI PAED 080905Z AUTO 00000KT 10SM -RA BKN080 12/10 A3000 RMK AO2
      RAB0905 SLP160 $=
SPECI YSRI 080906Z AUTO 19006KT 8000NDV // BKN031 OVC039 12/10 Q1027=
SPECI YSSY 080900Z 23012KT 7000 SHRA FEW006 SCT020 BKN035 12/12 Q1027
      RMK VIS REDUCED TO NORTH FM0900 19015KT 9999 -SHRA SCT025
      BKN040 INTER 0900/1200 5000 SHRA BKN010=
####018000571####
SAUK KAWN 080900 RRD
METAR EGNC 080850Z 26012KT 9999 SCT030 SCT045 15/11 Q1015=
METAR COR EGPB 080850Z 19016KT 9999 FEW012 14/11 Q1006 NOSIG=
METAR COR EGXT 080850Z 23011KT 9999 -RA FEW020 BKN090 BKN120 17/10
      Q1018 NOSIG=
METAR EICK 080900Z 21011KT 9999 FEW008 SCT014 BKN050 14/12 Q1016 NOSIG=
METAR EIDW 080900Z 23012KT 9999 FEW023 SCT130 BKN180 16/11 Q1015 NOSIG=
METAR EIKN 080900Z 22008KT 180V250 9999 FEW015 FEW018CB SCT050 BKN200
      13/10 Q1013 NOSIG=
METAR EINN 080900Z 17010KT 9999 -RA FEW014 BKN050 BKN090 15/12 Q1015
      NOSIG=
####018000119####
SABE31 TXKF 080855
METAR TXKF 080855Z 16013KT 9999 VCSH SCT013TCU BKN042
BKN170 BKN300 25/22 Q1018 RMK TCU W-NW=
####018000094####
SPCN51 CWAO 080901
SPECI CWZZ 080901Z AUTO ///// 1/8SM OVC023 OVC037 OVC069 10/ A2980=

####018000075####
SPCN44 CWAO 080904
SPECI CYUS 080904Z AUTO ///// 9SM CLR 10/ A2980=

####018000185####
SPUS90 KWBC 080910
SPECI PGUM 080907Z 09009KT 10SM SCT021 BKN027 BKN037 28/24 A2988
     RMK AO2=
SPECI KVBG 080906Z AUTO 00000KT 10SM SCT006 12/11 A2993 RMK AO2
     TSNO $=
####018001720####
SAUS20 KNKA 080909
METAR KIJX 080905Z AUTO 00000KT 2SM +RA SCT001 SCT007 OVC026 
     24/23 A3003 RMK AO2 P0001 T02350226=
METAR KINJ 080905Z AUTO 11005KT 10SM CLR 25/23 A2999 RMK AO2 
     T02470226=
SPECI KITR 080908Z AUTO 00000KT 10SM BKN005 OVC030 17/15 A3029 RMK 
    AO2=
METAR KJAS 080905Z AUTO 05003KT 7SM CLR 25/24 A3000 RMK AO2 
     T02470237=
METAR KJDD 080905Z AUTO 00000KT 3SM  BR FEW013 24/24 A3002 RMK AO2=
METAR KJSO 080910Z AUTO 00000KT 1SM BR OVC001 24/24 A3003 RMK AO2 
     T02360236=
METAR KJWY 080905Z AUTO 00000KT 7SM 24/23 A3001 RMK AO2 T02400225=
METAR KJXI 080905Z AUTO 00000KT BKN003 25/25 A3003 RMK AO2=
METAR KLBR 080905Z AUTO 00000KT 7SM BKN004 BKN008 BKN017 24/23 
     A3002 RMK AO2 T02400230=
METAR KLHB 080903Z AUTO 08003KT 5SM BR CLR 25/24 A2997 RMK AO2 
     T02510235=
METAR KLNC 080905Z AUTO 00000KT 10SM BKN012 24/24 A3000 RMK AO2 
     T02410240=
METAR KM30 080906Z AUTO 00000KT 10SM CLR 22/21 A3004 RMK AO2=
METAR KNSE 080856Z AUTO 00000KT 2 1/2SM BR FEW004 23/21 A3002 RMK AO2
      SLP150 T02280211 55005 $=
METAR KOLY 080903Z AUTO 00000KT 5SM BR CLR 23/22 A3003 RMK AO2=
METAR KPNT 080905Z AUTO 00000KT 2 1/2SM BR SCT029 BKN036 OVC085 
     23/22 A3002 RMK AO2=
METAR KPRG 080905Z AUTO 00000KT 4SM BR CLR 22/21 A3004 RMK AO2 
     T02200212=
SPECI KROG 080908Z AUTO 00000KT 10SM BKN025 23/22 A3007 RMK AO2=
METAR KRPJ 080905Z AUTO 17004KT 4SM BR OVC015 21/20 A3002 RMK AO2 
     T02070197=
METAR KRSV 080902Z AUTO 00000KT 5SM BR CLR 23/22 A3005 RMK AO2 
     T02330223=
SPECI KRWL 080908Z AUTO 07006KT 2SM BR BKN001 08/08 A3038 RMK AO2=
SPECI KUCP 080909Z AUTO 00000KT 1/4SM FG CLR 18/18 A3009 RMK AO2 $=
####018002956####
SAUS20 KNKA 080909
METAR KASW 080905Z AUTO 00000KT 5SM BR CLR 21/20 A3005 RMK AO2 
     T02100200=
METAR KBKS 080906Z AUTO 01004KT 10SM CLR 26/25 A2981 RMK AO1 
     T02620248=
METAR KBPC 080908Z AUTO 35004KT 10SM SCT037 BKN120 18/17 A3016 
     RMK AO2=
METAR KBPG 080905Z AUTO 32005KT 10SM CLR 22/20 A3009 RMK AO1 
     T02190204=
METAR KBYY 080906Z AUTO 10012G19KT 5SM -RA SCT018 BKN034 OVC065 
     27/26 A2987 RMK AO2 T02700257=
METAR KCPT 080905Z AUTO 11006KT 10SM CLR 24/24 A3001 RMK AO2=
SPECI KCQX 080908Z AUTO 20003KT 3/4SM BR VV001 19/19 A3009 RMK AO2=
METAR KCVB 080904Z AUTO 07004KT 10SM BKN019 BKN025 OVC032 26/23 
     A2995 RMK AO2 T02550234=
METAR KCWC 080905Z AUTO 05004KT 10SM CLR 24/22 A3002 RMK AO2 
     T02360218=
METAR KDUX 080907Z AUTO 31009KT 10SM -RA SCT012 BKN028 OVC043 
     17/16 A3022 RMK AO2 T01690158=
METAR KDZB 080905Z AUTO 00000KT 5SM BR BKN014 OVC021 24/24 A2997 
     RMK AO2 T02370238=
METAR KE38 080905Z AUTO 00000KT 10SM SCT100 18/16 A3019 RMK AO2 
     T01760158=
METAR KEBG 080906Z AUTO 00000KT 10SM BKN110 26/25 A2980 RMK AO2 
     T02630248=
METAR KECU 080905Z AUTO 00000KT 10SM CLR 22/21 A3007 RMK AO2=
METAR KENL 080904Z AUTO 18003KT 10SM CLR 24/16 A3004 RMK AO2 
     T02400160=
METAR KERV 080905Z AUTO 09005KT 10SM SCT012 SCT026 OVC034 24/21 
     A3000 RMK AO2 T02350214=
METAR KF05 080904Z AUTO 02003KT 10SM BKN034 24/22 A3005 RMK AO2 
     T02400221=
METAR KFEP 080905Z AUTO 31004KT 5SM BR BKN003 BKN075 OVC085 22/20 
     A3001 RMK AO2 T02220202=
METAR KFOA 080905Z AUTO 00000KT 7SM CLR 25/25 A3004 RMK AO2 
     T02500248=
METAR KFWC 080905Z AUTO 00000KT 7SM CLR 23/22 A3004 RMK AO2=
METAR KFWS 080905Z AUTO 13004KT 10SM CLR 25/24 A3000 RMK AO2 
     T02480235=
METAR KGBG 080905Z AUTO 27003KT 5SM BR OVC002 23/22 A3001 RMK AO2=
METAR KGDJ 080904Z AUTO 11006KT 10SM SCT014 SCT019 BKN029 26/24 
     A3000 RMK AO2 T02600235=
SPECI KGLH 080908Z AUTO 00000KT 1 1/2SM BR CLR 21/21 A3004 RMK AO2=
METAR KGNC 080905Z AUTO 07005KT 1 1/2SM +RA BKN009 BKN022 OVC050 
     20/19 A3014 RMK AO2 P0012 T01970189=
METAR KGOP 080900Z AUTO 00000KT 10SM BKN013 BKN021 25/23 A3000 
     RMK AO2=
METAR KGVT 080905Z AUTO 16007KT 10SM CLR 25/23 A3001 RMK AO2=
METAR KGWB 080905Z AUTO 00000KT 5SM HZ CLR 22/17 A3006 RMK AO2=
METAR KGYB 080905Z AUTO 05004KT 7SM OVC006 25/24 A2998 RMK AO2 
     T02460240=
METAR KGYI 080904Z AUTO 16005KT 10SM CLR 25/24 A3002 RMK AO2 
     T02530236=
METAR KHBV 080900Z AUTO 03004KT 10SM OVC005 25/24 A2986 RMK AO2 
     T02510238=
METAR KHHF 080905Z AUTO 01008KT 10SM -RA BKN014 BKN020 OVC110 
     22/20 A3012 RMK AO2 T02220201=
METAR KHRX 080905Z AUTO 00000KT 10SM SCT065 BKN085 OVC100 17/17 
     A3018 RMK AO2 T01730165=
METAR KHSB 080905Z AUTO 00000KT 5SM BR CLR 22/21 A3004 RMK AO2=
SPECI KIJD 080908Z AUTO VRB03KT 1 3/4SM BR OVC001 23/23 A3006 RMK 
    AO2=
####018003672####
SAUS99 KWBC 080910
METAR
KIJX 080905Z AUTO 00000KT 2SM +RA SCT001 SCT007 OVC026 24/23 A3003
     RMK AO2 P0001 T02350226=
KINJ 080905Z AUTO 11005KT 10SM CLR 25/23 A2999 RMK AO2
     T02470226=
KJAS 080905Z AUTO 05003KT 7SM CLR 25/24 A3000 RMK AO2
     T02470237=
KJDD 080905Z AUTO 00000KT 3SM BR FEW013 24/24 A3002 RMK AO2=
KJSO 080910Z AUTO 00000KT 1SM BR OVC001 24/24 A3003 RMK AO2
     T02360236=
KJWY 080905Z AUTO 00000KT 7SM 24/23 A3001 RMK AO2 T02400225=
KJXI 080905Z AUTO 00000KT BKN003 25/25 A3003 RMK AO2=
KLBR 080905Z AUTO 00000KT 7SM BKN004 BKN008 BKN017 24/23 A3002 RMK
     AO2 T02400230=
KLHB 080903Z AUTO 08003KT 5SM BR CLR 25/24 A2997 RMK AO2
     T02510235=
KLNC 080905Z AUTO 00000KT 10SM BKN012 24/24 A3000 RMK AO2
     T02410240=
KM30 080906Z AUTO 00000KT 10SM CLR 22/21 A3004 RMK AO2=
KNSE 080856Z AUTO 00000KT 2 1/2SM BR FEW004 23/21 A3002 RMK AO2
     SLP150 T02280211 55005 $=
KOLY 080903Z AUTO 00000KT 5SM BR CLR 23/22 A3003 RMK AO2=
KPNT 080905Z AUTO 00000KT 2 1/2SM BR SCT029 BKN036 OVC085 23/22
     A3002 RMK AO2=
KPRG 080905Z AUTO 00000KT 4SM BR CLR 22/21 A3004 RMK AO2
     T02200212=
KRPJ 080905Z AUTO 17004KT 4SM BR OVC015 21/20 A3002 RMK AO2
     T02070197=
KRSV 080902Z AUTO 00000KT 5SM BR CLR 23/22 A3005 RMK AO2
     T02330223=
KASW 080905Z AUTO 00000KT 5SM BR CLR 21/20 A3005 RMK AO2
     T02100200=
KBKS 080906Z AUTO 01004KT 10SM CLR 26/25 A2981 RMK AO1
     T02620248=
KBPC 080908Z AUTO 35004KT 10SM SCT037 BKN120 18/17 A3016 RMK
     AO2=
KBPG 080905Z AUTO 32005KT 10SM CLR 22/20 A3009 RMK AO1
     T02190204=
KBYY 080906Z AUTO 10012G19KT 5SM -RA SCT018 BKN034 OVC065 27/26
     A2987 RMK AO2 T02700257=
KCPT 080905Z AUTO 11006KT 10SM CLR 24/24 A3001 RMK AO2=
KCVB 080904Z AUTO 07004KT 10SM BKN019 BKN025 OVC032 26/23 A2995
     RMK AO2 T02550234=
KCWC 080905Z AUTO 05004KT 10SM CLR 24/22 A3002 RMK AO2
     T02360218=
KDUX 080907Z AUTO 31009KT 10SM -RA SCT012 BKN028 OVC043 17/16
     A3022 RMK AO2 T01690158=
KDZB 080905Z AUTO 00000KT 5SM BR BKN014 OVC021 24/24 A2997 RMK AO2
     T02370238=
KE38 080905Z AUTO 00000KT 10SM SCT100 18/16 A3019 RMK AO2
     T01760158=
KEBG 080906Z AUTO 00000KT 10SM BKN110 26/25 A2980 RMK AO2
     T02630248=
KECU 080905Z AUTO 00000KT 10SM CLR 22/21 A3007 RMK AO2=
KENL 080904Z AUTO 18003KT 10SM CLR 24/16 A3004 RMK AO2
     T02400160=
KERV 080905Z AUTO 09005KT 10SM SCT012 SCT026 OVC034 24/21 A3000
     RMK AO2 T02350214=
KF05 080904Z AUTO 02003KT 10SM BKN034 24/22 A3005 RMK AO2
     T02400221=
KFEP 080905Z AUTO 31004KT 5SM BR BKN003 BKN075 OVC085 22/20 A3001
     RMK AO2 T02220202=
KFOA 080905Z AUTO 00000KT 7SM CLR 25/25 A3004 RMK AO2
     T02500248=
KFWC 080905Z AUTO 00000KT 7SM CLR 23/22 A3004 RMK AO2=
KFWS 080905Z AUTO 13004KT 10SM CLR 25/24 A3000 RMK AO2
     T02480235=
KGBG 080905Z AUTO 27003KT 5SM BR OVC002 23/22 A3001 RMK AO2=
KGDJ 080904Z AUTO 11006KT 10SM SCT014 SCT019 BKN029 26/24 A3000
     RMK AO2 T02600235=
KGNC 080905Z AUTO 07005KT 1 1/2SM +RA BKN009 BKN022 OVC050 20/19
     A3014 RMK AO2 P0012 T01970189=
KGOP 080900Z AUTO 00000KT 10SM BKN013 BKN021 25/23 A3000 RMK
     AO2=
KGVT 080905Z AUTO 16007KT 10SM CLR 25/23 A3001 RMK AO2=
KGWB 080905Z AUTO 00000KT 5SM HZ CLR 22/17 A3006 RMK AO2=
KGYB 080905Z AUTO 05004KT 7SM OVC006 25/24 A2998 RMK AO2
     T02460240=
KGYI 080904Z AUTO 16005KT 10SM CLR 25/24 A3002 RMK AO2
     T02530236=
KHBV 080900Z AUTO 03004KT 10SM OVC005 25/24 A2986 RMK AO2
     T02510238=
KHHF 080905Z AUTO 01008KT 10SM -RA BKN014 BKN020 OVC110 22/20
     A3012 RMK AO2 T02220201=
####018000494####
SPUS99 KWBC 080910
SPECI
KITR 080908Z AUTO 00000KT 10SM BKN005 OVC030 17/15 A3029 RMK
     AO2=
KROG 080908Z AUTO 00000KT 10SM BKN025 23/22 A3007 RMK AO2=
KRWL 080908Z AUTO 07006KT 2SM BR BKN001 08/08 A3038 RMK AO2=
KUCP 080909Z AUTO 00000KT 1/4SM FG CLR 18/18 A3009 RMK AO2 $=
KCQX 080908Z AUTO 20003KT 3/4SM BR VV001 19/19 A3009 RMK AO2=
KGLH 080908Z AUTO 00000KT 1 1/2SM BR CLR 21/21 A3004 RMK AO2=
KIJD 080908Z AUTO VRB03KT 1 3/4SM BR OVC001 23/23 A3006 RMK
     AO2=
####018000185####
SAUS99 KWBC 080910 RRA
METAR
KHRX 080905Z AUTO 00000KT 10SM SCT065 BKN085 OVC100 17/17 A3018
     RMK AO2 T01730165=
KHSB 080905Z AUTO 00000KT 5SM BR CLR 22/21 A3004 RMK AO2=
####018000039####
SAEQ00 SEQU 080905
METAR
SELT NIL=
####018000325####
SAEW37 LEMM 080900
METAR LEBR 080900Z NIL=
METAR LEGA 080900Z 06005KT CAVOK 32/14 Q1019=
METAR LEGT 080900Z 05006KT CAVOK 27/12 Q1019=
METAR LEMO 080900Z 27004KT 240V340 9999 FEW050 26/19
Q1016 NOSIG=
METAR LERI 080900Z VRB02KT CAVOK 31/20 Q1019 NOSIG=
METAR LERT 080900Z 30007KT 260V320 9000 NSC 24/20 Q1016 NOSIG=
####018000091####
SAEQ01 SEQU 080809
METAR
SEQU 080800Z 00000KT 9999 SCT100 08/07 Q1027 RMK A3033 NOSIG=
####018000128####
SAEQ01 SEQU 080900
METAR
SEGU 080900Z 20006KT 9999 BKN030 23/19 Q1011 NOSIG=
SEMT 080900Z 16003KT 9999 OVC016 23/20 Q1012=
####018000079####
SAAG SAZS 080900
METAR SAZS 080900Z  32017KT 4000 +RA BKN008  02/01
Q1005=
####018000356####
SAPO31 LPMG 080900
METAR LPFR 080900Z 25004KT 180V300 9000 SCT009 BKN011 23/20 Q1016=
METAR LPMA 080900Z 16004KT 110V250 9999 FEW016 23/18 Q1020 RS13001KT
0512002KT 2321003KT=
METAR LPPR 080900Z VRB03KT 5000 BR SCT250 24/19 Q1013=
METAR LPPS 080900Z 03009KT 9999 FEW016 SCT030 21/15 Q1020=
METAR LPPT 080900Z VRB03KT 8000 FEW120 26/18 Q1015 NOSIG=
####018000068####
SAAG SABE 080900
METAR SABE 080900Z  27010KT CAVOK 09/M02 Q1019=
####018000810####
SACI31 ZBBB 080900
METAR ZBAA 080900Z VRB02MPS CAVOK 36/10 Q1003 NOSIG=
METAR ZBSJ 080900Z 12002MPS CAVOK 34/16 Q1003 NOSIG=
METAR ZBTJ 080900Z 15008MPS CAVOK 31/17 Q1004 NOSIG=
METAR ZBYN 080900Z 11004MPS CAVOK 31/12 Q1007 BECMG 09005MPS=
METAR ZGGG 080900Z 14006MPS 9999 FEW050TCU SCT050 35/26 Q1004 NOSIG=
METAR ZSHC 080900Z 00000MPS 5000 -SHRA BR BKN020 FEW033CB 28/23
 Q1005 TEMPO
 TSRA SCT033CB=
METAR ZSPD 080900Z 09006MPS 060V120 9999 BKN013 27/24 Q1006 NOSIG=
METAR ZSSS 080900Z 09004MPS 050V130 9999 BKN026 29/23 Q1005 NOSIG=
METAR ZWSH 080900Z 14003MPS 070V210 CAVOK 33/00 Q1014 NOSIG=
METAR ZWWW 080900Z 01003MPS 330V050 9999 FEW050CB 33/07 Q1010 NOSIG=
METAR ZYTL 080900Z 28004MPS 240V330 9999 SCT033 28/18 Q1006 NOSIG=
METAR ZYTX 080900Z 32002MPS 9999 FEW030CB 25/18 Q1006 NOSIG=
####018000080####
SAAG SASA 080900
METAR SASA 080900Z 36004KT 9999 FEW025 BKN100 11/08 Q 1020=
####018000086####
SPAK31 KWBC 080910
SPECI
PAED 080905Z AUTO 00000KT 10SM -RA BKN080 12/10 A3000=
####018000067####
SAAG SAME 080900
METAR SAME 080900Z 00000KT CAVOK 00/M04 Q1014=
####018000539####
SAAF32 KWBC 080900 RRA
METAR
FCBB 080900Z 24005KT 200V300 6000 BKN014 25/19 Q1016 NOSIG=
FCPP 080900Z 16006KT 7000 SCT013 BKN026 24/21 Q1015 NOSIG=
FGSL 080900Z VRB01KT 9999 SCT013 FEW020CB BKN130 27/26 Q1015
     NOSIG=
FKKD 080900Z 12003KT 8000 TS BKN013 FEW016CB BKN120 27/25 Q1015
     BECMG NSW BKN016 FEW020CB BKN120=
FOOL 080900Z 15006KT 120V190 8000 SCT010 OVC040 26/21 Q1016
     NOSIG=
FPST 080900Z 16006KT 9999 FEW025 BKN100 27/21 Q1015 NOSIG=
FZAA 080900Z 24004KT 4000 BR FEW016 25/19 Q1014 BECMG 6000=
####018000141####
SAPQ50 KWBC 080900 RRC
METAR
PTKK 080858Z VRB03KT 15SM FEW012 BKN120 OVC280 25/23 A2983 RMK
     SLP101 60002 8/121 T02500229 53005=
####018000067####
SAAG SADF 080900
METAR SADF 080900Z  00000KT CAVOK 03/02 Q1019=
####018000107####
SAXX60 KWBC 080910
METAR
KAPY 080903Z AUTO 00000KT 10SM OVC013 25/24 A2984 RMK AO2
     T02540242=
####018000106####
SPPQ50 KWBC 080910
SPECI
PGUM 080907Z 09009KT 10SM SCT021 BKN027 BKN037 28/24 A2988 RMK
     AO2=
####018001785####
SAIY40 LIIB 080900 RRA
METAR LIMG 080850Z 03007KT 9999 BKN080 30/25 Q1020 RMK VIS MIN 9999=
METAR LIMK 080855Z 35003KT 9999 BKN025 19/13 Q1023 RMK OVC SCT080 VAL
      NIL VIS MIN 9999=
METAR LIMN 080855Z /////KT 9999 FEW050 26/15 Q1022 RMK SCT SCT080 VIS
      MIN 9999 BLU=
METAR LIMP 080850Z 10007KT 040V130 CAVOK 26/16 Q1022 RMK VIS MIN
9999=
METAR LIMS 080855Z 11009KT 040V150 CAVOK 26/17 Q1021 RMK FEW FEW200
      VIS MIN 9999 WIND THR30 09005KT BLU=
METAR LIMZ 080850Z 34004KT 8000 SCT015 BKN045 22/19 Q1023 RMK VIS
MIN 8000=
METAR LIPA 080855Z 23006KT 9999 SCT045 24/16 Q1022 RMK SCT VIS MIN
      9999 A3020 BLU=
METAR LIPB 080850Z 16008KT 9999 FEW060 26/12 Q1022 RMK MON LIB VIS
MIN 9999=
METAR LIPC 080855Z 16007KT CAVOK 27/12 Q1021 RMK FEW FEW200 VIS MIN
      9999 WIND THR12 13006KT BLU=
METAR LIPF 080855Z 10003KT 9999 FEW050 25/19 Q1021 RMK FEW VIS MIN
      9999=
METAR LIPH 080845Z 01002KT 9999 SCT035 BKN070 24/18 Q1022 RMK BKN VIS
      MIN 9999 WIND THR07 /////KT BLU=
METAR LIPI 080855Z 12006KT 9999 FEW030 SCT050 25/17 Q1022 RMK BKN
     VIS MIN 9999 WIND THR06 16005KT BLU=
METAR LIPL 080855Z 11006KT 060V180 9999 SCT060 26/20 Q1022 RMK BKN
      VIS MIN 9999 BLU=
METAR LIPO 080850Z 07006KT 040V140 9999 BKN065 25/16 Q1022 RMK VIS
MIN 9999=
METAR LIPQ 080850Z VRB02KT 9999 FEW030 BKN050 25/14 Q1023=
METAR LIPR 080845Z 12006KT CAVOK 27/16 Q1021 RMK SKC VIS MIN 9999
      WIND THR31 13005KT BLU=
METAR LIPS 080855Z 02004KT 9999 BKN060 24/16 Q1022 RMK BKN VIS MIN
      9999 BLU=
METAR LIPX 080845Z 10007KT 9999 SCT080 27/14 Q1021 RMK SCT VIS MIN
      9999 BLU=
METAR LIPY 080850Z VRB05KT CAVOK 26/10 Q1021 RMK VIS MIN 9999=
METAR LIVC 080855Z 03007KT 9999 FEW000 13/11 Q1030 RMK FEW MON LIB
      VAL NIL VIS MIN 9999=
####018000242####
SPUS80 KWBC 080910
SPECI
KCRP 080905Z 05006KT 9SM -TSRA FEW009 SCT021CB BKN055 26/24 A2982
     RMK AO2 OCNL LTGIC NE NW TS NE NW MOV W P0039=
KJLN 080907Z 00000KT 3/4SM +RA BR FEW005 BKN017 OVC025 23/23 A3004
     RMK AO2 P0030=
####018000114####
SAMX51 MMMX 080906
SPECI MMMX 080906Z 00000KT 2SM -RA SCT008 BKN020 OVC070 15/14 A3018
      NOSIG RMK 8/47/=
####018002301####
SAUS70 KWBC 080910 RRA
METAR
KBKS 080906Z AUTO 01004KT 10SM CLR 26/25 A2981 RMK AO1
     T02620248=
KBPC 080908Z AUTO 35004KT 10SM SCT037 BKN120 18/17 A3016 RMK
     AO2=
KBPG 080905Z AUTO 32005KT 10SM CLR 22/20 A3009 RMK AO1
     T02190204=
KBYY 080906Z AUTO 10012G19KT 5SM -RA SCT018 BKN034 OVC065 27/26
     A2987 RMK AO2 T02700257=
KCPT 080905Z AUTO 11006KT 10SM CLR 24/24 A3001 RMK AO2=
KCVB 080904Z AUTO 07004KT 10SM BKN019 BKN025 OVC032 26/23 A2995
     RMK AO2 T02550234=
KCWC 080905Z AUTO 05004KT 10SM CLR 24/22 A3002 RMK AO2
     T02360218=
KDUX 080907Z AUTO 31009KT 10SM -RA SCT012 BKN028 OVC043 17/16
     A3022 RMK AO2 T01690158=
KDZB 080905Z AUTO 00000KT 5SM BR BKN014 OVC021 24/24 A2997 RMK AO2
     T02370238=
KE38 080905Z AUTO 00000KT 10SM SCT100 18/16 A3019 RMK AO2
     T01760158=
KEBG 080906Z AUTO 00000KT 10SM BKN110 26/25 A2980 RMK AO2
     T02630248=
KECU 080905Z AUTO 00000KT 10SM CLR 22/21 A3007 RMK AO2=
KENL 080904Z AUTO 18003KT 10SM CLR 24/16 A3004 RMK AO2
     T02400160=
KERV 080905Z AUTO 09005KT 10SM SCT012 SCT026 OVC034 24/21 A3000
     RMK AO2 T02350214=
KF05 080904Z AUTO 02003KT 10SM BKN034 24/22 A3005 RMK AO2
     T02400221=
KFEP 080905Z AUTO 31004KT 5SM BR BKN003 BKN075 OVC085 22/20 A3001
     RMK AO2 T02220202=
KFOA 080905Z AUTO 00000KT 7SM CLR 25/25 A3004 RMK AO2
     T02500248=
KFWC 080905Z AUTO 00000KT 7SM CLR 23/22 A3004 RMK AO2=
KFWS 080905Z AUTO 13004KT 10SM CLR 25/24 A3000 RMK AO2
     T02480235=
KGBG 080905Z AUTO 27003KT 5SM BR OVC002 23/22 A3001 RMK AO2=
KGDJ 080904Z AUTO 11006KT 10SM SCT014 SCT019 BKN029 26/24 A3000
     RMK AO2 T02600235=
KGNC 080905Z AUTO 07005KT 1 1/2SM +RA BKN009 BKN022 OVC050 20/19
     A3014 RMK AO2 P0012 T01970189=
KGVT 080905Z AUTO 16007KT 10SM CLR 25/23 A3001 RMK AO2=
KGWB 080905Z AUTO 00000KT 5SM HZ CLR 22/17 A3006 RMK AO2=
KGYB 080905Z AUTO 05004KT 7SM OVC006 25/24 A2998 RMK AO2
     T02460240=
KGYI 080904Z AUTO 16005KT 10SM CLR 25/24 A3002 RMK AO2
     T02530236=
KHHF 080905Z AUTO 01008KT 10SM -RA BKN014 BKN020 OVC110 22/20
     A3012 RMK AO2 T02220201=
KHRX 080905Z AUTO 00000KT 10SM SCT065 BKN085 OVC100 17/17 A3018
     RMK AO2 T01730165=
KHSB 080905Z AUTO 00000KT 5SM BR CLR 22/21 A3004 RMK AO2=
####018000582####
SAUS70 KWBC 080900 RRJ
METAR
KNSE 080856Z AUTO 00000KT 2 1/2SM BR FEW004 23/21 A3002 RMK AO2
     SLP150 T02280211 55005 $=
KNSE 080856Z AUTO 00000KT 2 1/2SM BR FEW004 23/21 A3002 RMK AO2
     SLP150 T02280211 55005 $=
KNSE 080856Z AUTO 00000KT 2 1/2SM BR FEW004 23/21 A3002 RMK AO2
     SLP150 T02280211 55005 $=
KNSE 080856Z AUTO 00000KT 2 1/2SM BR FEW004 23/21 A3002 RMK AO2
     SLP150 T02280211 55005 $=
KGOP 080900Z AUTO 00000KT 10SM BKN013 BKN021 25/23 A3000 RMK
     AO2=
KHBV 080900Z AUTO 03004KT 10SM OVC005 25/24 A2986 RMK AO2
     T02510238=
####018000819####
SPUS70 KWBC 080910
SPECI
KPIL 080907Z AUTO 10SM FEW055 BKN085 29/25 A2977 RMK AO2
     RAB0856E07 P0000 $=
KARB 080907Z AUTO 00000KT 1SM BR CLR 20/19 A3003 RMK AO2=
KGUY 080907Z AUTO 10005KT 4SM RA BR FEW008 OVC015 19/18 A3021 RMK
     AO2 LTG DSNT E P0003=
KM89 080906Z AUTO 00000KT 4SM BR OVC004 24/24 A3004 RMK AO2 CIG
     003V007=
KITR 080908Z AUTO 00000KT 10SM BKN005 OVC030 17/15 A3029 RMK
     AO2=
KROG 080908Z AUTO 00000KT 10SM BKN025 23/22 A3007 RMK AO2=
KRWL 080908Z AUTO 07006KT 2SM BR BKN001 08/08 A3038 RMK AO2=
KUCP 080909Z AUTO 00000KT 1/4SM FG CLR 18/18 A3009 RMK AO2 $=
KCQX 080908Z AUTO 20003KT 3/4SM BR VV001 19/19 A3009 RMK AO2=
KGLH 080908Z AUTO 00000KT 1 1/2SM BR CLR 21/21 A3004 RMK AO2=
KIJD 080908Z AUTO VRB03KT 1 3/4SM BR OVC001 23/23 A3006 RMK
     AO2=
####018000527####
SPXX60 KWBC 080910
SPECI
KVBG 080906Z AUTO 00000KT 10SM SCT006 12/11 A2993 RMK AO2 TSNO
     $=
KNHK 080907Z AUTO 11004KT 5SM BR FEW009 26/24 A2998 RMK AO2=
KDOV 080903Z AUTO 00000KT 1 3/4SM BR CLR 24/24 A2999 RMK AO2 VIS
     1/2 RWY19 SLP158=
KDOV 080904Z AUTO 00000KT 1 3/4SM BR FEW006 24/24 A2999 RMK AO2
     VIS 1/2 RWY19 SLP157=
KSZL 080904Z 31003KT 9SM -RA BKN050 23/23 A3004 RMK AO2A RAB0904
     SLP164 $=
PAED 080905Z AUTO 00000KT 10SM -RA BKN080 12/10 A3000 RMK AO2
     RAB0905 SLP160 $=
####018000241####
SAUS80 KWBC 080910
METAR
KSFY 080905Z AUTO 00000KT 4SM BR BKN009 BKN013 22/22 A3001 RMK
     AO2=
KCIR 080902Z AUTO 00000KT 10SM SCT047 24/22 A3004 RMK AO2=
KCUL 080905Z AUTO 00000KT 7SM CLR 23/21 A3004 RMK AO2
     T02250205=
####018000087####
SPCN51 CWAO 080908
SPECI CZCP 080908Z AUTO 16005KT 9SM BKN014 BKN055 06/ A2985=

####018000092####
SPAU32 YBBN 080907
SPECI YSRI 080906Z AUTO 19006KT 8000NDV // BKN031 OVC039 12/10 Q1027=
####018000216####
SAAG41 KWBC 080900
METAR
SAAC NIL=
SAAV NIL=
SAGS NIL=
SANE NIL=
SANT NIL=
SANU NIL=
SAOR NIL=
SARL NIL=
SATM NIL=
SAVC 080900Z 27011KT CAVOK 05/M02 Q0998=
SAVT NIL=
SAZB NIL=
SAZN NIL=
####018003708####
SAUS70 KWBC 080910
METAR
KOZA 080901Z AUTO 00000KT 10SM -RA SCT041 BKN050 BKN070 22/21
     A3005 RMK AO2 T02220214=
KPAN 080915Z AUTO 10003KT 10SM FEW120 23/04 A3012 RMK AO1=
KPEQ 080903Z AUTO 00000KT 10SM OVC110 23/21 A3005 RMK AO2=
KPPQ 080905Z AUTO 00000KT 2 1/2SM RA SCT023 BKN033 OVC050 23/23
     A3004 RMK AO2 P0001=
KPVW 080901Z AUTO 35013G16KT 10SM CLR 18/16 A3014 RMK AO2=
K0F2 080904Z AUTO 00000KT 10SM SCT023 SCT036 24/22 A3002 RMK AO2
     T02350218=
K11R 080904Z AUTO 06005KT 7SM CLR 25/24 A2994 RMK AO2=
K1H2 080905Z AUTO 00000KT 7SM CLR 24/23 A3004 RMK AO2
     T02420233=
K3LF 080903Z AUTO 00000KT 7SM SCT049 SCT060 23/22 A3003 RMK
     AO2=
K3T5 080904Z AUTO 03003KT 7SM SCT017 BKN024 25/24 A2992 RMK AO2
     T02520236=
K6R3 080901Z AUTO 00000KT 7SM SCT019 SCT026 SCT055 24/24 A2995 RMK
     AO2 T02430243=
KAAA 080903Z AUTO 00000KT 2 1/2SM BR SCT043 SCT055 SCT070 23/22
     A3003 RMK AO2 T02250218=
KADS 080903Z AUTO 15005KT 10SM CLR 25/22 A3000 RMK AO2
     T02490220=
KAJG 080905Z AUTO 00000KT 10SM CLR 23/22 A3004 RMK AO2
     T02300218=
KALN 080903Z AUTO 00000KT 10SM SCT033 SCT043 BKN070 25/24 A3002
     RMK AO2 T02470240=
KAQO 080905Z AUTO 14006KT OVC050 26/23 A3001 RMK AO2=
KARM 080905Z AUTO 07007G14KT 7SM RA SCT028 SCT045 BKN070 27/25
     A2989 RMK AO2 T02650248=
KAXH 080905Z AUTO 08003KT 10SM CLR 26/24 A2990 RMK AO2
     T02600240=
KBBD 080905Z AUTO 06003KT 10SM CLR 22/21 A3001 RMK=
KBEA 080903Z AUTO 02004KT 10SM BKN008 BKN022 BKN050 25/25 A2986
     RMK AO2 T02500251=
KBKD 080901Z AUTO 00000KT 5SM BR CLR 24/23 A3001 RMK AO2
     T02350228=
KC09 080904Z AUTO 00000KT 2 1/2SM BR CLR 21/21 A3002 RMK AO2=
KC75 080903Z AUTO 00000KT 5SM BR SCT014 SCT047 BKN065 24/24 A3001
     RMK AO2=
KDKB 080901Z AUTO 16003KT 5SM BR OVC013 21/21 A3002 RMK AO2
     T02130209=
KDKR 080905Z AUTO 06004KT 7SM CLR 24/24 A3001 RMK AO2=
KDNV 080905Z AUTO 00000KT 7SM SCT065 BKN100 23/21 A3001 RMK AO2
     T02260207=
KGPM 080911Z AUTO 15004KT 10SM CLR 26/23 A2999 RMK AO2=
KHQZ 080906Z AUTO 14003KT 10SM OVC015 25/23 A3001 RMK AO2=
KIKK 080905Z AUTO 36005KT 4SM -RA SCT055 BKN075 BKN100 26/23 A3002
     RMK AO2 P0001=
KJOT 080906Z AUTO 00000KT 3SM BR 23/22 A3001 RMK AO2=
KLOT 080901Z AUTO 00000KT 3SM BR BKN080 22/22 A3001 RMK AO2=
KOXI 080905Z AUTO 00000KT 5SM SCT055 21/20 A3002 RMK AO1
     T02080196=
KIJX 080905Z AUTO 00000KT 2SM +RA SCT001 SCT007 OVC026 24/23 A3003
     RMK AO2 P0001 T02350226=
KINJ 080905Z AUTO 11005KT 10SM CLR 25/23 A2999 RMK AO2
     T02470226=
KJAS 080905Z AUTO 05003KT 7SM CLR 25/24 A3000 RMK AO2
     T02470237=
KJDD 080905Z AUTO 00000KT 3SM BR FEW013 24/24 A3002 RMK AO2=
KJSO 080910Z AUTO 00000KT 1SM BR OVC001 24/24 A3003 RMK AO2
     T02360236=
KJWY 080905Z AUTO 00000KT 7SM 24/23 A3001 RMK AO2 T02400225=
KJXI 080905Z AUTO 00000KT BKN003 25/25 A3003 RMK AO2=
KLBR 080905Z AUTO 00000KT 7SM BKN004 BKN008 BKN017 24/23 A3002 RMK
     AO2 T02400230=
KLHB 080903Z AUTO 08003KT 5SM BR CLR 25/24 A2997 RMK AO2
     T02510235=
KLNC 080905Z AUTO 00000KT 10SM BKN012 24/24 A3000 RMK AO2
     T02410240=
KM30 080906Z AUTO 00000KT 10SM CLR 22/21 A3004 RMK AO2=
KOLY 080903Z AUTO 00000KT 5SM BR CLR 23/22 A3003 RMK AO2=
KPNT 080905Z AUTO 00000KT 2 1/2SM BR SCT029 BKN036 OVC085 23/22
     A3002 RMK AO2=
KPRG 080905Z AUTO 00000KT 4SM BR CLR 22/21 A3004 RMK AO2
     T02200212=
KRPJ 080905Z AUTO 17004KT 4SM BR OVC015 21/20 A3002 RMK AO2
     T02070197=
KRSV 080902Z AUTO 00000KT 5SM BR CLR 23/22 A3005 RMK AO2
     T02330223=
KASW 080905Z AUTO 00000KT 5SM BR CLR 21/20 A3005 RMK AO2
     T02100200=
####018000094####
SAAF34 KWBC 080900 RRB
METAR
FEFF 080900Z VRB03KT 9999 SCT020 SCT300 27/24 Q1015 NOSIG=
####018000343####
SAPO32 LPMG 080900
METAR LPAZ 080900Z VRB02KT 9999 FEW008 BKN016 BKN030 20/19 Q1024=
METAR LPFL 080900Z 20006KT 9999 FEW023 BKN045 22/17 Q1022=
METAR LPHR 080900Z 21003KT 180V240 9999 FEW016 SCT035 22/19 Q1023=
METAR LPLA 080900Z 00000KT 9999 FEW008 SCT016 BKN028 19/18 Q1024=
METAR LPPD 080900Z 29005KT 9999 FEW017 BKN030 20/15 Q1024=
####018001050####
SAIY41 LIIB 080900
METAR LIMH 080855Z 06012KT CAVOK 06/M09 Q1038 RMK SKC MON LIB VAL S
      CLD SCT VIS MIN 9999=
METAR LIMT 080855Z /////KT 8000 BKN012 14/12 Q1024 RMK BKN MON LIB
      VAL NIL VIS MIN 8000=
METAR LIMU 080900Z NIL=
METAR LIMV 080855Z 03009KT 6000 FEW012 21/18 Q1022 RMK BKN BKN080 MON
      N INVIS S LIB CUF VAL FOSCHIA VIS MIN 3000N=
METAR LIMY 080855Z /////KT 5000 BR BKN026 BKN036 21/19 Q1023 RMK OVC
      VAL FOSCHIA VIS MIN 5000=
METAR LIVD 080855Z 00000KT CAVOK 19/12 Q1025 RMK SKC VIS MIN 9999=
METAR LIVE 080900Z NIL=
METAR LIVF 080855Z 12004KT CAVOK 25/08 Q1022 RMK FEW FEW220 MON LIB
      VAL NIL VIS MIN 9999=
METAR LIVM 080855Z 15007KT CAVOK 26/22 Q1021 RMK FEW FEW200 QUK 2 QUL
      1 E VIS MAR 30 KM VIS MIN 9999=
METAR LIVO 080855Z 20003KT 9999 FEW040 20/11 Q1023 RMK FEW VIS MIN
      9999=
METAR LIVR 080855Z /////KT 9999 SCT020 12/10 Q1028 RMK SCT MON CLD
      SCT VIS MIN 9999=
METAR LIVT 080855Z 26002KT CAVOK 24/15 Q1022 RMK BKN BKN070 QUK 1 QUL
      0 VIS MAR 20 KM VIS MIN 9999=
####018000466####
SAAG31 KWBC 080900
METAR
SAAG NIL=
SAAP NIL=
SAAR NIL=
SABE NIL=
SACO 080900Z 36009KT CAVOK 09/M01 Q1019=
SADD NIL=
SAEZ NIL=
SAME NIL=
SARC NIL=
SARE 080900Z 16005KT CAVOK 09/08 Q1018=
SARF 080900Z 18009KT 9999 OVC007 14/13 Q1017=
SARI 080900Z 23004KT 8000 SKC 15/15 Q1018=
SARP 080900Z 11002KT 9999 BKN005 OVC015 14/13 Q1017=
SASA NIL=
SASJ 080900Z 32003KT 9999 FEW040 09/07 Q1018=
SAWE NIL=
SAWG NIL=
SAZM NIL=
SAZS NIL=
####018000571####
SABY31 UMMN 080900
METAR UMBB 080900Z 27003MPS 8000 NSC 21/13 Q1018 R29/CLRD// NOSIG=
METAR UMGG 080900Z 21003MPS 9999 SCT019CB BKN100 26/18 Q1013
R28/190055 NOSIG=
METAR UMII 080900Z 16003MPS P6000 BKN015 21/18 Q1013 R23/CLRD// NOSIG
=
METAR UMMG 080900Z 30005G08MPS 9999 FEW026 BKN200 22/13 Q1016
R17/CLRD// NOSIG=
METAR UMMM 080900Z 29005MPS 9999 BKN018 19/15 Q1014 R30/290050 NOSIG
RMK QFE741=
METAR UMMS 080900Z 28004G07MPS 250V310 9999 BKN015 19/16 Q1014
R31/CLRD// NOSIG=
METAR UMOO 080900Z 33001MPS 9999 BKN012 BKN/// 21/18 Q1012 R31/290056
NOSIG=
####018000511####
SAAL31 KWBC 080900 RRA
METAR
DAAG 080900Z 35003KT 290V030 CAVOK 31/16 Q1019=
DAAT 080900Z 13018KT CAVOK 32/03 Q1022=
DABB 080900Z 01007KT CAVOK 29/14 Q1019=
DABC 080900Z 00000KT CAVOK 28/11 Q1023=
DABS 080900Z 34010KT CAVOK 29/10 Q1023=
DAON 080900Z 36004KT CAVOK 34/20 Q1017=
DAOO 080900Z 36012KT CAVOK 29/21 Q1016=
DAUA 080900Z 02030KT 0700 BLSA NSC 39/07 Q1014=
DAUG 080900Z 00000KT CAVOK 34/12 Q1021=
DAUH 080900Z 10014KT CAVOK 35/20 Q1018=
DAUZ 080900Z 14014KT CAVOK 35/07 Q1017=
####018000131####
SAIY40 LIIB 080900 RRB
METAR LIVP 080855Z VRB02KT 3000 0900E FG VV/// 11/09 Q1028 RMK MON
      INVIS VAL INVIS VIS MIN 0900E=
####018000324####
SAXX60 KWBC 080900 RRG
METAR
PHNG 080857Z 07007G14KT 10SM SCT026 BKN040 24/21 A3006 RMK AO2
     SLP174 T02440206 52010 $=
K79J 080856Z AUTO 00000KT 10SM CLR 24/22 A3002 RMK AO2 SLP159
     T02440217 56005 TSNO $=
PHNG 080857Z 07007G14KT 10SM SCT026 BKN040 24/21 A3006 RMK AO2
     SLP174 T02440206 52010 $=
####018001687####
SAIY40 LIIB 080900
METAR LIMG 080850Z 03007KT 9999 BKN080 30/25 Q1020 RMK VIS MIN 9999=
METAR LIMK 080855Z 35003KT 9999 BKN025 19/13 Q1023 RMK OVC SCT080 VAL
NIL VIS MIN 9999=
METAR LIMN 080855Z /////KT 9999 FEW050 26/15 Q1022 RMK SCT SCT080 VIS
MIN 9999 BLU=
METAR LIMP 080850Z 10007KT 040V130 CAVOK 26/16 Q1022 RMK VIS MIN
9999=
METAR LIMS 080855Z 11009KT 040V150 CAVOK 26/17 Q1021 RMK FEW FEW200
VIS MIN 9999 WIND THR30 09005KT BLU=
METAR LIMZ 080850Z 34004KT 8000 SCT015 BKN045 22/19 Q1023 RMK VIS
MIN 8000=
METAR LIPA 080855Z 23006KT 9999 SCT045 24/16 Q1022 RMK SCT VIS MIN
9999 A3020 BLU=
METAR LIPB 080850Z 16008KT 9999 FEW060 26/12 Q1022 RMK MON LIB VIS
MIN 9999=
METAR LIPC 080855Z 16007KT CAVOK 27/12 Q1021 RMK FEW FEW200 VIS MIN
9999 WIND THR12 13006KT BLU=
METAR LIPF 080855Z 10003KT 9999 FEW050 25/19 Q1021 RMK FEW VIS MIN
9999=
METAR LIPH 080845Z 01002KT 9999 SCT035 BKN070 24/18 Q1022 RMK BKN VIS
MIN 9999 WIND THR07 /////KT BLU=
METAR LIPI 080855Z 12006KT 9999 FEW030 SCT050 25/17 Q1022 RMK BKN
VIS MIN 9999 WIND THR06 16005KT BLU=
METAR LIPL 080855Z 11006KT 060V180 9999 SCT060 26/20 Q1022 RMK BKN
VIS MIN 9999 BLU=
METAR LIPO 080850Z 07006KT 040V140 9999 BKN065 25/16 Q1022 RMK VIS
MIN 9999=
METAR LIPQ 080850Z VRB02KT 9999 FEW030 BKN050 25/14 Q1023=
METAR LIPR 080845Z 12006KT CAVOK 27/16 Q1021 RMK SKC VIS MIN 9999
WIND THR31 13005KT BLU=
METAR LIPS 080855Z 02004KT 9999 BKN060 24/16 Q1022 RMK BKN VIS MIN
9999 BLU=
METAR LIPX 080845Z 10007KT 9999 SCT080 27/14 Q1021 RMK SCT VIS MIN
9999 BLU=
METAR LIPY 080850Z VRB05KT CAVOK 26/10 Q1021 RMK VIS MIN 9999=
METAR LIVC 080855Z 03007KT 9999 FEW000 13/11 Q1030 RMK FEW MON LIB
VAL=
####018000097####
SPUS70 KWBC 080910 CCA
SPECI
KNSE 080903Z AUTO 00000KT 3/4SM BR CLR 23/21 A3002 RMK AO2 $=
####018000101####
SAKY31 RUMS 080900 RRA
METAR UAFO 080900Z 00000MPS 9999 FEW050TCU 33/18 Q1018 NOSIG RMK
QFEM685=
####018000198####
SPAU31 KWBC 080910
SPECI
YSSY 080900Z 23012KT 7000 SHRA FEW006 SCT020 BKN035 12/12 Q1027
RMK VIS REDUCED TO NORTH FM0900 19015KT 9999 -SHRA SCT025 BKN040
INTER 0900/1200 5000 SHRA BKN010=
####018000081####
SAAO32 KWBC 080900 RRB
METAR
GABS 080900Z 23005KT CAVOK 28/23 Q1016 NOSIG=
####018000319####
SAAO33 KWBC 080900 RRB
METAR
GFLL 080900Z 09008KT 9999 SCT011 FEW028CB 24/23 Q1014 CB-NE=
GGOV 080900Z 18005KT 140V220 9999 SCT015TCU FEW020CB SCT100 28/25
     Q1013 TEMPO TS=
GLRB 080900Z 00000KT 9999 SCT014 FEW025CB BKN100 26/23 Q1015
     CB-SW=
GUCY 080900Z 09010KT 9999 SCT015 BKN116 27/24 Q1014=
####018000418####
SAAS31 KWBC 080905
METAR
VAAH NIL=
VABB NIL=
VABG NIL=
VAGO NIL=
VANP NIL=
VANY NIL=
VCBI NIL=
VECC NIL=
VEPT NIL=
VGEG NIL=
VGZR NIL=
VIAR NIL=
VIBN NIL=
VIDP NIL=
VNKT NIL=
VOBG NIL=
VOCI NIL=
VOHY NIL=
VOMM NIL=
VONY NIL=
VOTR NIL=
VOTV NIL=
VQPR NIL=
VQTU NIL=
VRMM NIL=
VTBS 080900Z 34004KT 7000 -TSRA FEW020CB SCT035 BKN120 30/23 Q1006
     TS NW NOSIG=
####018001569####
SARS18 KAWN 080900 RRD
METAR UELL 080900Z 33006MPS 9999 -TSRA BKN024CB CB OVC200 16/15 Q1010
      NOSIG RMK QFE683 08CLRD70=
METAR UHPP 080900Z 19004MPS 9999 FEW010 10/06 Q1017 NOSIG RMK QBB300
      QFE759/1012 MT OBS SC070=
METAR UHSS 080900Z 16003MPS 9999 BKN021 14/12 Q1011 NOSIG RMK MT OBSC
      QFE757/1009 19CLRD70=
METAR UHWW 080900Z 22005MPS 190V260 9999 BKN015 OVC070 19/16 Q1009
      NOSIG RMK QFE756/1008 75CLRD70=
METAR UIAA 080900Z 03006MPS 9999 VCTS BKN043CB OVC200 25/10 Q1006 NOSIG
      RMK QFE696 29CLRD70=
METAR UIBB 080900Z 07004MPS 9999 FEW033 BKN200 28/12 Q1005 NOSIG RMK
      QFE711/0948 30CLRD60=
METAR UIII 080900Z 16004MPS CAVOK 22/13 Q1006 NOSIG RMK QFE712/0950
      12CLRD60=
METAR UIUU 080900Z 25004MPS 210V280 9999 SCT040CB OVC100 22/14 Q1007
      NOSIG RMK QFE711/0948=
METAR ULWW 080900Z 15004G07MPS 9999 FEW050 BKN/// 31/17 Q1016 NOSIG
      RMK QFE751 15CLRD60=
METAR UMKK 080900Z 30005MPS P8000 SCT200 23/13 Q1019 NOSIG RMK QFE
      763 SC07=
METAR URKA 080900Z 05005MPS 9999 SCT026 28/18 Q1013 NOSIG RMK 065=
METAR URMM 080900Z 09004G07MPS 9999 BKN040 29/20 Q1013 NOSIG RMK /
      SC070=
METAR URSS 080900Z 30002MPS 9999 FEW040 28/21 Q1011 NOSIG RMK / QFE757
      06CLRD70=
METAR UUWW 080900Z 13003MPS CAVOK 24/17 Q1015 06000070 NOSIG=
METAR UWGG 080900Z 14004MPS 090V180 8000 FEW033 33/08 Q1016 NOSIG RMK
      QFE755 18090070=
METAR UWKD 080900Z 13009G12MPS 9999 VCTS -SHRA BKN033CB BKN070 28/12
      Q1015 TEMPO VRB15MPS 3000 TSRA RMK QFE752/1003 112/0350=
####018001765####
SAIY42 LIIB 080900
METAR LIBF 080850Z 32013KT 9999 FEW050 26/09 Q1020 RMK VIS MIN 9999=
METAR LIEA 080850Z 03004KT 300V110 CAVOK 29/21 Q1019 RMK VIS MIN
9999=
METAR LIED 080855Z 16006KT CAVOK 31/12 Q1018 RMK SKC VIS MIN 9999
      BLU=
METAR LIEO 080850Z 03007KT 350V070 9999 FEW030 30/15 Q1020 RMK VIS
MIN 9999=
METAR LIMA 080850Z 00000KT 9999 SCT040 23/16 Q1023 RMK VIS MIN 9999=
METAR LIQN 080850Z 00000KT CAVOK 25/16 Q1021 RMK VIS MIN 9999=
METAR LIQO 080855Z 00000KT CAVOK 23/14 Q1021 RMK FEW FEW200 VAL NIL
      NC VIS MIN 9999=
METAR LIQW 080855Z 13004KT CAVOK 28/19 Q1020 RMK SKC VIS MIN 9999
      BLU=
METAR LIRE 080855Z 21008KT 9999 FEW020 27/18 Q1019 RMK SCT VIS MIN
      9999 WIND THR31 20009KT BLU=
METAR LIRG 080855Z 25002KT 9999 FEW035 29/19 Q1019 RMK SCT MON NE
     LIB NC VIS MIN 9999 BLU=
METAR LIRH 080855Z 16002KT 9999 FEW035 26/18 Q1020 RMK FEW MON LIB NC
      VIS MIN 9999 WIND THR16 14003KT BLU=
METAR LIRI 080850Z 04013KT CAVOK 28/11 Q1019 RMK VIS MIN 9999=
METAR LIRK 080855Z 14007KT CAVOK 16/12 Q1026 RMK SKC MON NE LIB NC
      VAL NIL NC VIS MIN 9999=
METAR LIRL 080855Z 27004KT 9999 FEW020 28/21 Q1018 RMK FEW MON LIB NC
      VIS MIN 9999 BLU=
METAR LIRM 080855Z 06011KT CAVOK 28/16 Q1019 RMK SKC VIS MIN 9999
      WIND THR06 04011KT BLU=
METAR LIRS 080855Z 21002KT CAVOK 30/10 Q1019 RMK FEW FEW200 VIS MIN
      9999 WIND THR21 /////KT BLU=
METAR LIRT 080855Z 36007KT 9999 FEW013 16/07 Q1023 RMK FEW MON LIB
      VAL NIL VIS MIN 9999=
METAR LIRU 080850Z VRB01KT 9999 FEW040 30/19 Q1019 RMK VIS MIN 9999=
METAR LIRV 080855Z 01004KT 9999 FEW024 26/17 Q1020 RMK FEW MON E SE
      LIB NC VIS MIN 9999 BLU=
METAR LIRX 080900Z NIL=
METAR LIRZ 080850Z VRB02KT CAVOK 28/12 Q1021 RMK VIS MIN 9999=
####018001537####
SAAS33 KWBC 080905
METAR
VBRR NIL=
VDPP 080900Z 05002KT 9999 SCT015 FEW017CB 33/23 Q1005 CB:E N NW
     SW=
VDSR 080900Z 32004KT 9999 SCT015 FEW018CB SCT040 34/23 Q1004
     CB:S,E=
VLVT 080900Z NIL=
VTBA NIL=
VTBD 080900Z 29010KT 9999 FEW020CB BKN300 35/21 Q1005 CB SE
     NOSIG=
VTBU 080900Z NIL=
VTCC 080900Z 23007KT 9999 FEW035 BKN300 34/21 Q1006 A2973=
VTSP 080900Z 26011KT 8000 FEW018 SCT120 BKN300 30/24 Q1009
     A2980=
VTSS 080900Z 25007KT 9999 VCSH FEW018CB SCT020 33/21 Q1007 A2974
     CB N=
VVDN 080900Z 13009KT 100V190 9999 FEW017CB SCT300 33/21 Q1007
     NOSIG=
VVGL NIL=
VVNB 080900Z NIL=
VVTS 080900Z 35007KT 270V030 9999 FEW015TCU SCT017 31/23 Q1006
     TEMPO TL0900 5000 SHRA=
WBGG 080900Z 25006KT 9999 SCT020 BKN150 27/24 Q1008 RESH NOSIG=
WBKK 080900Z 09008KT 9999 -TSRA FEW013 FEW016CB SCT035 OVC260
     25/23 Q1008 NOSIG=
WMAM NIL=
WMKJ 080900Z 26002KT 9999 FEW018 BKN280 29/25 Q1008=
WMKK 080900Z 20005KT 160V250 9999 FEW018 SCT140 BKN280 30/26 Q1008
     NOSIG=
WMKP 080900Z 24008KT 9999 FEW020 BKN280 31/25 Q1008 NOSIG=
WMSA 080900Z 28004KT 9999 FEW020 SCT140 BKN280 33/25 Q1008
     NOSIG=
WPDL NIL=
WPEC NIL=
WSAP 080900Z 08004KT 9999 -SHRA FEW018TCU BKN150 31/25 Q1008=
WSSL 080900Z 26005KT 220V290 9999 -RA FEW018 SCT180 BKN250 30/24
     Q1008=
WSSL 080900Z 26005KT 220V290 9999 -RA FEW018 SCT180 BKN250 30/24
     Q1008 RMK 0830Z Q1008=
WSSS 080900Z 22003KT 100V260 9999 FEW017 SCT160 BKN270 30/25 Q1008
     NOSIG=
####018000437####
SAAS32 KWBC 080905
METAR
RKPC 080900Z 07012KT 4500 BR SCT030 BKN150 24/21 Q1008 NOSIG=
RKPK 080900Z 12007KT 9999 SCT030 BKN200 25/17 Q1009 NOSIG=
RKSS 080900Z 32003KT 9999 FEW030 OVC120 25/17 Q1008 TEMPO RA=
VHHH 080900Z 22013KT 9999 FEW020 SCT030 33/24 Q1006 NOSIG=
VMMC 080900Z 19014KT 170V260 9999 FEW015 SCT030 BKN090 31/27 Q1006
     NOSIG=
ZJSY 080900Z 16003MPS 130V210 9999 FEW016 31/27 Q1005 NOSIG=
ZKPY NIL=
####018000141####
SAIY41 LIIB 080900 RRA
METAR LIMU 080855Z 06004KT 9999 FEW023 28/22 Q1020 RMK BKN SCT070 QUK
      2 QUL 1 S VIS MAR 15 KM VIS MIN 9999=
####018000143####
SAAW32 KWBC 080900 RRA
METAR
OIII 080900Z 11006KT CAVOK 38/M02 Q1014 A2995 879/3=
OIII 080900Z 11006KT CAVOK 38/M02 Q1014 A2995 879.3=
####018000129####
SABO41 KWBC 080900 RRA
METAR
SLCA 080900Z 00000KT 9999 BKN036 15/14 Q1020=
SLRI 080900Z 00000KT 3000 BR SKC 24/24 Q1011=
####018000081####
SACA33 KWBC 080900 RRA
METAR
TGPY 080900Z 08007KT 9999 FEW021 28/25 Q1012=
####018000274####
SACI31 KWBC 080900 RRA
METAR
RCKH 080900Z 27009KT 210V310 9999 FEW013 SCT020 BKN200 32/26 Q1008
     NOSIG=
RCSS 080900Z 31006KT 280V010 9999 FEW020 BKN035 BKN080 32/23 Q1006
     NOSIG=
RCTP 080900Z 24017KT 9999 FEW025 BKN100 BKN200 30/25 Q1006
     NOSIG=
####018000271####
SAEM31 KWBC 080900 RRB
METAR
LKMT 080900Z VRB03KT 9999 FEW046 19/10 Q1023 NOSIG RMK REG QNH
     1021=
LKPR 080900Z 23004KT 150V270 CAVOK 21/10 Q1024 NOSIG RMK REG QNH
     1021=
LKTB 080900Z 29005KT 240V350 CAVOK 21/08 Q1023 NOSIG RMK REG QNH
     1021=
####018000224####
SAEE32 KWBC 080900 RRA
METAR
LRAR 080900Z 05008KT 9999 SCT031 21/16 Q1020=
LRTC 080900Z 36012KT 330V030 9999 FEW030CB BKN040 22/17 Q1014=
LRTM 080900Z 23006KT 9999 FEW009 SCT013 BKN020 16/13 Q1020
     07CLRD//=
####018000121####
SAIO31 KWBC 080900 RRB
METAR
FIMR 080900Z 12018KT 9999 SCT020 26/17 Q1020=
VYMD 080900Z NIL=
VYYY 080900Z NIL=
####018000122####
SAIY31 KWBC 080850 RRC
METAR
LIEE 080855Z 16005KT CAVOK 27/17 Q1019 RMK VIS MIN 9999 WIND THR14
     20004KT BLU=
####018000257####
SAIY41 KWBC 080850 RRC
METAR
LIBY 080855Z 35018KT 9999 FEW020 25/10 Q1016 RMK FEW QUK 3 QUL 1 N
     VIS MAR 20 KM VIS MIN 9999=
LICF 080855Z 35001KT 9999 FEW030 30/25 Q1017 RMK BKN SCT080 QUK 1
     QUL 0 VIS MAR 10 KM MON LIB NC VIS MIN 9999=
####018000099####
SPNT31 KWBC 080910
SPECI
BGTL 080906Z AUTO 00000KT 0400 FG VV001 04/04 A2984 RMK AO2 SLP110=
####018000120####
SAJP31 KWBC 080900 RRB
METAR
RJOO 080900Z 22007KT 170V260 9999 FEW030 BKN/// 29/19 Q1007 RMK
     1CU030 A2975=
####018000251####
SANZ31 KWBC 080900
METAR
NZAA 080900Z NIL=
NZCH 080900Z 24007KT 9999 SHRA FEW014 SCT035 BKN060 06/05 Q1015
     TEMPO 6000 SHRA=
NZOH NIL=
NZWN 080900Z 20033KT 9999 -RADZ FEW015 SCT023 BKN033 09/05 Q1011
     WS R16 NOSIG=
NZWP NIL=
####018000110####
SAPA31 KWBC 080900 RRB
METAR
PGUM 080907Z 09009KT 10SM SCT021 BKN027 BKN037 28/24 A2988 RMK
     AO2=
####018000152####
SAPH31 KWBC 080900 RRA
METAR
RPLB 080900 23009KT 9999 FEW020 OVC280 31/24 Q1008=
RPMD 080900Z 20008KT 9999 FEW015CB SCT290 31/26 1007 CB NW/SE=
####018001515####
SARA31 KWBC 080900 RRB
METAR
UEEE 080900Z 00000MPS 9999 SCT050CB BKN100 24/08 Q1008 NOSIG RMK
     QFE747 2309//60=
UHHH 080900Z 03003MPS 9999 BKN030CB OVC100 18/15 Q1010 NOSIG RMK
     QFE751/1001 55090060=
UHMA 080900Z NIL=
UHMM 080900Z 25003MPS 9999 BKN006 OVC026 13/11 Q1016 RMK QFE747
     88010070 MT OBSC=
UHMP 080900Z NIL=
UHPP 080900Z 19004MPS 9999 FEW010 10/06 Q1017 NOSIG RMK QBB300
     QFE759/1012 MT OBS SC070=
UHSS 080900Z 16003MPS 9999 BKN021 14/12 Q1011 NOSIG RMK MT OBSC
     QFE757/1009 19CLRD70=
UHWW 080900Z 22005MPS 190V260 9999 BKN015 OVC070 19/16 Q1009 NOSIG
     RMK QFE756/1008 75CLRD70=
UIAA 080900Z 03006MPS 9999 VCTS BKN043CB OVC200 25/10 Q1006 NOSIG
     RMK     QFE696 29CLRD70=
UIBB 080900Z 07004MPS 9999 FEW033 BKN200 28/12 Q1005 NOSIG RMK
     QFE711/0948 30CLRD60=
UIII 080900Z 16004MPS CAVOK 22/13 Q1006 NOSIG RMK QFE712/0950
     12CLRD60=
UIUU 080900Z 25004MPS 210V280 9999 SCT040CB OVC100 22/14 Q1007
     NOSIG RMK QFE711/0948=
ULAA 080900Z 32003G06MPS 260V020 9999 FEW030TCU FEW/// 27/20 Q1015
     NOSIG RMK QFE760/1013 SC070=
UNAA 080900Z 02005MPS 9999 SCT026CB BKN100 17/13 Q1010 TEMPO
     34010G15MPS 2000 TSRA RMK QFE735 202///55=
UNNT 080900Z 23004MPS 190V260 9999 BKN050CB BKN100 21/04 Q1007
     NOSIG RMK QFE745/0994 25090070=
USNN 080900Z 16006MPS P6000 SCT026 BKN200 18/11 Q1002 NOSIG RMK
     QFE747 SC065=
UUEE 080900Z 12004MPS 080V170 9999 SCT050TCU BKN200 28/14 Q1015
     NOSIG=
####018000854####
SARS32 KWBC 080900 RRA
METAR
URKA 080900Z 05005MPS 9999 SCT026 28/18 Q1013 NOSIG RMK  065=
URKK 080900Z 08005G08MPS 040V110 9999 SCT030 SCT300 28/17 Q1013
     NOSIG RMK QFE756 SC070=
URKM 080900Z 10002MPS 9999 SCT040 BKN100 20/18 Q1013 NOSIG RMK
     QFE741=
URMM 080900Z 09004G07MPS 9999 BKN040 29/20 Q1013 NOSIG RMK /
     SC070=
URMN 080900Z 10004MPS 9999 SCT026 BKN110 27/20 Q1014 NOSIG RMK /
     QFE724 SC07=
URMT 080900Z 08006G09MPS 9999 SCT020 27/17 Q1015 NOSIG RMK QFE721
     SC07=
URRR 080900Z 10003G06MPS 9999 FEW026 29/15 Q1014 NOSIG RMK
     SC070=
URSS 080900Z 30002MPS 9999 FEW040 28/21 Q1011 NOSIG RMK / QFE757
     06CLRD70=
URWA 01003MPS CAVOK 36/10 Q1011 NOSIG RMK SC07=
URWI 080900Z 00000MPS CAVOK 29/16 Q1014 NOSIG RMK SC065=
URWW 080900Z 35003MPS CAVOK 28/18 Q1014 NOSIG RMK SC070=
####018000739####
SARS31 KWBC 080900 RRB
METAR
UELL 080900Z 33006MPS 9999 -TSRA BKN024CB CB OVC200 16/15 Q1010
     NOSIG RMK QFE683 08CLRD70=
UEST 080900Z 14003MPS CAVOK 07/02 Q1016 NOSIG RMK QFE761
     21000060=
ULLI 080900Z 10002MPS 040V150 CAVOK 30/19 Q1013 NOSIG=
ULMM 080900Z 35003MPS 320V030 9999 BKN018 14/08 Q1017 NOSIG RMK
     QFE756 32190060=
UOHH 080900Z 02002MPS 9999 FEW030 SCT/// 12/03 Q1023 NOSIG RMK
     QFE761 06090060=
UOOO 080900Z 03007G09MPS CAVOK 23/10 Q1010 NOSIG RMK QFE743
     010///60=
UUDD 080900Z 15004MPS 130V190 CAVOK 27/15 Q1015 NOSIG=
UUEE 080900Z 12004MPS 080V170 9999 SCT050TCU BKN200 28/14 Q1015
     NOSIG=
UUEM 080900Z NIL=
UUWW 080900Z 13003MPS CAVOK 24/17 Q1015 06000070 NOSIG=
####018000075####
SASA31 KWBC 080900 RRB
METAR
SVBC 080900Z 00000KT CAVOK 24/22 Q1012=
####018001430####
SARS41 KWBC 080900 RRA
METAR
UUBP 080900Z 19002MPS 9999 SCT033CB BKN/// 26/18 Q1013 NOSIG=
UUEE 080900Z 12004MPS 080V170 9999 SCT050TCU BKN200 28/14 Q1015
     NOSIG=
UUEM 080900Z NIL=
UUOO 080900Z VRB02MPS 9999 SCT033 28/14 Q1014 NOSIG RMK
     13090070=
UUWW 080900Z 13003MPS CAVOK 24/17 Q1015 06000070 NOSIG=
UUYH 080900Z 25002MPS CAVOK 25/08 Q1017 NOSIG RMK QFE 751
     18CLRD60=
UUYS 080900Z 16003MPS CAVOK 21/07 Q1017 NOSIG RMK QFE756
     14CLRD60=
UUYY 080900Z VRB01MPS 9999 SCT030 29/12 Q1016 NOSIG 01CLRD61 RMK
     QFE753/1004=
UWGG 080900Z 14004MPS 090V180 8000 FEW033 33/08 Q1016 NOSIG RMK
     QFE755 18090070=
UWKD 080900Z 13009G12MPS 9999 VCTS -SHRA BKN033CB BKN070 28/12
     Q1015 TEMPO VRB15MPS 3000 TSRA RMK QFE752/1003 112/0350=
UWKE 080900Z 12002MPS 9999 FEW040 30/11 Q1016 NOSIG RMK
     QFE745/0993 22090070=
UWLW 080900Z 02003MPS 8000 FEW040 32/14 Q1015 NOSIG 02CLRD60 RMK
     QFE755=
UWOO 080900Z 05006MPS P5000 SCT070 31/04 Q1012 08LRD65 NOSIG RMK
     QFE749/0998=
UWPP 080900Z 13004MPS 9999 SCT033 BKN100 30/09 Q1014 NOSIG RMK
     QFE746 11090060=
UWSS 080900Z 05006MPS 9999 FEW050TCU BKN066 30/13 Q1015 NOSIG RMK
     QFE749 120///60=
UWUU 080900Z 01004G08MPS CAVOK 27/08 Q1016 82010060 NOSIG RMK
     QFE751/1001 MOD TURB 500-1600=
UWWW 080900Z 06005G08MPS 010V120 CAVOK 31/09 Q1016 NOSIG RMK
     QFE749/0998 05CLRD60 15//99//=
####018000392####
SAPR41 KWBC 080900
METAR
SPCL NIL=
SPEC NIL=
SPEI NIL=
SPEO NIL=
SPGM NIL=
SPHI 080900Z 17008KT CAVOK 15/13 Q1014 RMK PP000=
SPHO NIL=
SPHY NIL=
SPJA NIL=
SPJI NIL=
SPJL NIL=
SPJN NIL=
SPJR NIL=
SPME NIL=
SPMS NIL=
SPNC NIL=
SPPY NIL=
SPRU 080900Z 16006KT 6000 OVC016 16/13 Q1013 RMK BIRD HAZARD RWY20
     PP000=
SPST NIL=
SPTU NIL=
SPUR NIL=
####018000110####
SASA32 KWBC 080900 RRB
METAR
SLTR 080900Z 36008KT 6000 -TSRA BKN010 FEW017CB OVC070 23/23
     Q1013=
####018000813####
SARS33 KWBC 080900 RRA
METAR
USCC 080900Z 34008G12MPS 9999 SCT040 25/02 Q1014 NOSIG RMK QFE740
     27000070=
USDD 080900Z 05008G11MPS CAVOK 17/01 Q1016 NOSIG RMK QFE756/1008
     SC060=
USMU 080900Z 01006G11MPS 9999 SCT024CB OVC066 12/10 Q1005 NOSIG
     RMK QFE748 09250345=
USNN 080900Z 16006MPS P6000 SCT026 BKN200 18/11 Q1002 NOSIG RMK
     QFE747 SC065=
USPP 080900Z 33003MPS 280V360 CAVOK 26/10 Q1016 NOSIG RMK
     QFE751/1001 21090060=
USRK 080900Z 34004MPS 6000 BKN016 OVC066 13/11 Q1002 NOSIG RMK
     QFE746 351///55=
USRR 080900Z 34004G07MPS 7000 OVC010 12/10 Q1004 TEMPO BKN005 RMK
     QFE747 25////60=
USSS 080900Z 33007G10MPS CAVOK 24/02 Q1015 NOSIG RMK QFE740
     260///70=
USTR 080900Z 32008G11MPS CAVOK 20/03 Q1011 NOSIG RMK QFE749/0998
     30CLRD65=
####018000095####
SASP31 KWBC 080900 RRA
METAR
LEZL 080900Z 28006KT 230V330 9999 SCT020 28/17 Q1016 NOSIG=
####018003414####
SAXX99 KWBC 080900 RRJ
METAR
CWBU 080900Z AUTO 29007KT 10/08 RMK AO1 SLP176 T00960083 58002=
DAAD 080900Z 00000KT CAVOK 32/14 Q1022=
DAAE 080900Z NIL=
DAAJ 080900Z 09012KT CAVOK 33/07 Q1021=
DAAP 080900Z 16016KT CAVOK 38/10 Q1016=
DAAS 080900Z 20003KT CAVOK 29/12 Q1025=
DAAV 080900Z NIL=
DAAY 080900Z 00000KT 9999 FEW033 31/13 Q1025=
DABT 080900Z NIL=
DAFH 080900Z 15012KT CAVOK 32/17 Q1023=
DAOB 080900Z 24003KT CAVOK 33/10 Q1023=
DAOF 080900Z 15004KT 3500 HZ NSC 36/07 Q1013=
DAOL 080900Z 34006KT CAVOK 33/22 Q1016=
DAOR 080900Z 18004KT CAVOK 35/04 Q1023=
DAOV 080900Z 18004KT CAVOK 34/12 Q1019=
DATG 080900Z NIL=
DATM 080900Z 14013KT CAVOK 37/M01 Q1012=
DAUB 080900Z NIL=
DAUE 080900Z 05012KT CAVOK 34/12 Q1020=
DAUI 080900Z 06031KT 0300 BLSA VV/// 39/07 Q1013=
DAUK 080900Z 14006KT CAVOK 32/18 Q1017=
DAUL 080900Z NIL=
DAUO 080900Z 13008KT CAVOK 32/16 Q1018=
DAUT 080900Z NIL=
DAUU 080900Z 11012KT CAVOK 35/18 Q1018=
LFLX 080900Z 12005KT 080V170 CAVOK 27/14 Q1019 NOSIG=
LKKV 080900Z VRB02KT CAVOK 21/10 Q1024 RMK REG QNH 1021=
RPLI 080900Z 25004KT 9999 FEW019CB BKN100 31/27 Q1008 NOSIG=
SLET 080900Z NIL=
UERP 080900Z 03005MPS 9999 SCT033CB BKN100 16/06 Q1014 NOSIG RMK
     QFE716 35090065=
UERR 080900Z 32004MPS 9999 BKN020CB 14/14 Q1011 NOSIG RMK QFE727
     24290255=
UESO 080900Z 26009G13MPS 9999 OVC008 07/05 Q1004 NOSIG RMK QFE751
     SC060=
UHNN 080900Z 07004MPS 9999 -SHRA FEW010 BKN025CB OVC070 12/11
     Q1012 RMK QFE754=
UHSH 080900Z NIL=
ULDD 080900Z 08009MPS CAVOK 06/02 Q1018 NOSIG RMK QFE763=
ULKK 080900Z VRB01MPS 6000 SCT033 SCT099 31/16 Q1015 NOSIG RMK
     QFE757=
ULOL 080900Z NIL=
ULOO 080900Z VRB01MPS P6000 SCT035 BKN200 27/17 Q1012 NOSIG RMK
     QFE755=
ULWW 080900Z 15004G07MPS 9999 FEW050 BKN/// 31/17 Q1016 NOSIG RMK
     QFE751 15CLRD60=
UMKK 080900Z 30005MPS P8000 SCT200 23/13 Q1019 NOSIG RMK QFE 763
     SC07=
UNBB 080900Z 18008MPS 9999 BKN033CB 18/07 Q1009 NOSIG RMK
     QFE734=
UNEE 080900Z 26007MPS 9999 SCT026 BKN200 19/11 Q1008 NOSIG RMK
     QFE733 23CLRD60=
UNKL 080900Z VRB02MPS 9999 -SHRA SCT010 BKN020CB OVC083 16/14
     Q1008 NOSIG RMK QFE731 29////55=
UNOO 080900Z 30006MPS 9999 BKN023 14/09 Q1007 NOSIG 25CLRD06 RMK
     QFE747=
UNWW 080900Z 29004MPS 9999 BKN026CB OVC130 20/10 Q1009 NOSIG RMK
     QFE730 19CLRD70=
UOII 080900Z 13004MPS 9999 FEW033CB BKN040 29/17 Q1005 TEMPO -TSRA
     RMK QFE751 30////60=
URML 080900Z 03004G09MPS 9999 SKC 31/21 Q1013 NOSIG RMK QFE759 /
     07=
UWLL 080900Z 11002MPS CAVOK 31/10 Q1016 NOSIG RMK QFE749/0999
     SC065=
UWOR 080900Z 05010MPS CAVOK 28/03 Q1014 07CLRD65 NOSIG RMK
     QFE735/0981=
VTCH 080900Z NIL=
VTCL 080900Z NIL=
VTCN 080900Z NIL=
VTCP 080900Z NIL=
VTCT 080900Z NIL=
VTPB 080900Z NIL=
VTPH 080900Z 13005KT 9999 FEW030 33/22 Q1006=
VTPM 080900Z NIL=
VTPO 080900Z 21005KT 9999 SCT022 36/25 Q1003=
VTPP 080900Z NIL=
VTPT 080900Z NIL=
VTSB 080900Z NIL=
VTSC 080900Z NIL=
VTSE 080900Z NIL=
VTSF 080900Z 04009KT 330V080 9999 FEW018CB SCT300 32/24 Q1007
     A2975 CB TO SW AND W=
VTSG 080900Z 30013G24KT 260V360 4000 TSRA SCT010CB BKN110 BKN300
     23/20 Q1009 A2981 TS OVER AD RWY32 INFO J=
VTSK 080900Z NIL=
VTSM 080900Z 32012KT 9999 FEW020CB BKN300 33/26 Q1008 A2978 CB
     SW=
VTSR 080900Z NIL=
VTST 080900Z NIL=
####018000573####
SAZA31 KWBC 080900
METAR
FABB NIL=
FABE NIL=
FABL 080900Z 34012KT CAVOK 15/05 Q1034 NOSIG=
FABM NIL=
FACT 080900Z VRB02KT CAVOK 16/05 Q1021 NOSIG=
FADN NIL=
FAEL 080900Z 04008KT 010V080 CAVOK 19/09 Q1028=
FAGG 080900Z VRB01KT 9999 FEW040 15/05 Q1023=
FAGM NIL=
FAJS 080900Z 07011KT 040V110 9999 SCT012 13/07 Q1037 NOSIG=
FAKT NIL=
FALW NIL=
FALZ NIL=
FAPB NIL=
FAPE 080900Z 02009KT CAVOK 14/11 Q1026 NOSIG=
FAPR NIL=
FASB NIL=
FAUP 080900Z 01020KT CAVOK 21/03 Q1028 NOSIG=
FAWH NIL=
FAWK 080900Z 09010KT 9999 FEW060 13/// Q1038=
####018001029####
SARS35 RUMS 080900
METAR USPP 080900Z 33003MPS 280V360 CAVOK 26/10 Q1016 NOSIG RMK
QFE751/1001 21090060=
METAR UWKD 080900Z 13009G12MPS 9999 VCTS -SHRA BKN033CB BKN070 28/12
Q1015 TEMPO VRB15MPS 3000 TSRA RMK QFE752/1003 112/0350=
METAR UWKE 080900Z 12002MPS 9999 FEW040 30/11 Q1016 NOSIG RMK
QFE745/0993 22090070=
METAR UWKS 080900Z 31002MPS 170V050 CAVOK 32/12 Q1016 NOSIG RMK
QFE747 SC0.60=
METAR UWLL 080900Z 11002MPS CAVOK 31/10 Q1016 NOSIG RMK QFE749/0999
SC065=
METAR UWLW 080900Z 02003MPS 8000 FEW040 32/14 Q1015 NOSIG 02CLRD60
RMK QFE755=
METAR UWOR 080900Z 05010MPS CAVOK 28/03 Q1014 07CLRD65 NOSIG RMK
QFE735/0981=
METAR UWOO 080900Z 05006MPS P5000 SCT070 31/04 Q1012 08LRD65 NOSIG
RMK QFE749/0998=
METAR UWPP 080900Z 13004MPS 9999 SCT033 BKN100 30/09 Q1014 NOSIG RMK
QFE746 11090060=
METAR UWSS 080900Z 05006MPS 9999 FEW050TCU BKN066 30/13 Q1015 NOSIG
RMK QFE749 120///60=
METAR UWWW 080900Z 06005G08MPS 010V120 CAVOK 31/09 Q1016 NOSIG RMK
QFE749/0998 05CLRD60 15//99//=
####018000075####
SASU01 HSSS 080900
METAR HSSS 080900Z 09010KT CAVOK 38/10 Q1019 NOSIG=
####018000721####
SAAM31 FCBB 080900
METAR FCBB 080900Z 24005KT 200V300 6000  BKN014 25/19 Q1016 NOSIG=
METAR FCPP 080900Z 16006KT 7000 SCT013 BKN026 24/21 Q1015 NOSIG=
METAR FKKD 080900Z 12003KT 8000 TS BKN013 FEW016CB BKN120 27/25 Q1015
           BECMG NSW BKN016 FEW020CB BKN120=
METAR FEFF 080900Z VRB03KT 9999 SCT020 SCT300 27/24 Q1015 NOSIG=
METAR FOOL 080900Z 15006KT 120V190 8000 SCT010 OVC040 26/21 Q1016
           NOSIG=
METAR FGSL 080900Z VRB01KT 9999 SCT013 FEW020CB BKN130 27/26
           Q1015 NOSIG=
METAR FZAA 080900Z 24004KT 4000 BR FEW016 25/19 Q1014 BECMG 6000=
METAR FNLU 080900Z VRB03KT 8000 SCT018 BKN020 23/19 Q1015 NSG =
METAR FPST 080900Z 16006KT 9999 FEW025 BKN100 27/21 Q1015 NOSIG=
####018000343####
SAAL31 DAAA 080900
METAR DAAG 080900Z 35003KT 290V030 CAVOK 31/16 Q1019=
METAR DAAT 080900Z NIL=
METAR DABB 080900Z 01007KT CAVOK 29/14 Q1019=
METAR DABC 080900Z 00000KT CAVOK 28/11 Q1023=
METAR DAON 080900Z 36004KT CAVOK 34/20 Q1017=
METAR DAOO 080900Z 36012KT CAVOK 29/21 Q1016=
METAR DAUH 080900Z 10014KT CAVOK 35/20 Q1018=
####018000944####
SARS32 RUMS 080900
METAR URKA 080900Z 05005MPS 9999 SCT026 28/18 Q1013 NOSIG RMK  065=
METAR URKK 080900Z 08005G08MPS 040V110 9999 SCT030 SCT300 28/17 Q1013
NOSIG RMK QFE756 SC070=
METAR URKM 080900Z 10002MPS 9999 SCT040 BKN100 20/18 Q1013 NOSIG RMK
QFE741=
METAR URML 080900Z 03004G09MPS 9999 SKC 31/21 Q1013 NOSIG RMK QFE759
/ 07=
METAR URMM 080900Z 09004G07MPS 9999 BKN040 29/20 Q1013 NOSIG RMK /
SC070=
METAR URMN 080900Z 10004MPS 9999 SCT026 BKN110 27/20 Q1014 NOSIG RMK
/ QFE724 SC07=
METAR URMT 080900Z 08006G09MPS 9999 SCT020 27/17 Q1015 NOSIG RMK
QFE721 SC07=
METAR URRR 080900Z 10003G06MPS 9999 FEW026 29/15 Q1014 NOSIG RMK
SC070=
METAR URSS 080900Z 30002MPS 9999 FEW040 28/21 Q1011 NOSIG RMK /
QFE757 06CLRD70=
METAR URWA 01003MPS CAVOK 36/10 Q1011 NOSIG RMK SC07=
METAR URWI 080900Z 00000MPS CAVOK 29/16 Q1014 NOSIG RMK SC065=
METAR URWW 080900Z 35003MPS CAVOK 28/18 Q1014 NOSIG RMK SC070=
####018000108####
SATH32 VTBB 080900 RRA
METAR VTSB 080900Z 22006KT 9999 SCT020TCU 33/23 Q1007 A2974 TCU
           SW=
####018000075####
SAGD31 TGPY 080900
METAR TGPY 080900Z 08007KT 9999 FEW021 28/25 Q1012=
####018001535####
SAIY42 LIIB 080900
METAR LIBF 080850Z 32013KT 9999 FEW050 26/09 Q1020 RMK VIS MIN 9999=
METAR LIEA 080850Z 03004KT 300V110 CAVOK 29/21 Q1019 RMK VIS MIN
9999=
METAR LIED 080855Z 16006KT CAVOK 31/12 Q1018 RMK SKC VIS MIN 9999
      BLU=
METAR LIEO 080850Z 03007KT 350V070 9999 FEW030 30/15 Q1020 RMK VIS
MIN 9999=
METAR LIMA 080850Z 00000KT 9999 SCT040 23/16 Q1023 RMK VIS MIN 9999=
METAR LIQN 080850Z 00000KT CAVOK 25/16 Q1021 RMK VIS MIN 9999=
METAR LIQO 080855Z 00000KT CAVOK 23/14 Q1021 RMK FEW FEW200 VAL NIL
      NC VIS MIN 9999=
METAR LIQW 080855Z 13004KT CAVOK 28/19 Q1020 RMK SKC VIS MIN 9999
      BLU=
METAR LIRE 080855Z 21008KT 9999 FEW020 27/18 Q1019 RMK SCT VIS MIN
      9999 WIND THR31 20009KT BLU=
METAR LIRG 080855Z 25002KT 9999 FEW035 29/19 Q1019 RMK SCT MON NE
     LIB NC VIS MIN 9999 BLU=
METAR LIRH 080855Z 16002KT 9999 FEW035 26/18 Q1020 RMK FEW MON LIB NC
      VIS MIN 9999 WIND THR16 14003KT BLU=
METAR LIRI 080850Z 04013KT CAVOK 28/11 Q1019 RMK VIS MIN 9999=
METAR LIRK 080855Z 14007KT CAVOK 16/12 Q1026 RMK SKC MON NE LIB NC
      VAL NIL NC VIS MIN 9999=
METAR LIRL 080855Z 27004KT 9999 FEW020 28/21 Q1018 RMK FEW MON LIB NC
      VIS MIN 9999 BLU=
METAR LIRM 080855Z 06011KT CAVOK 28/16 Q1019 RMK SKC VIS MIN 9999
      WIND THR06 04011KT BLU=
METAR LIRS 080855Z 21002KT CAVOK 30/10 Q1019 RMK FEW FEW200 VIS MIN
      9999 WIND THR21 /////KT BLU=
METAR LIRT 080855Z 36007KT 9999 FEW013 16/07 Q1023 RMK FEW MON LIB
      VAL NIL VIS MIN 9999=
####018000395####
SARA33 RUMS 080900
METAR UIAA 080900Z 03006MPS 9999 VCTS BKN043CB OVC200 25/10 Q1006
NOSIG RMK     QFE696 29CLRD70=
METAR UIBB 080900Z 07004MPS 9999 FEW033 BKN200 28/12 Q1005 NOSIG RMK
QFE711/0948 30CLRD60=
METAR UIII 080900Z 16004MPS CAVOK 22/13 Q1006 NOSIG RMK QFE712/0950
12CLRD60=
METAR UIUU 080900Z 25004MPS 210V280 9999 SCT040CB OVC100 22/14 Q1007
NOSIG RMK QFE711/0948=
####018000086####
SATH33 VTBB 080900 RRA
METAR VTBO 080900Z 16004KT 8000 SCT020 BKN100 28/25 Q1007=
####018000079####
SATH31 VTBB 080900 RRA
METAR VTPP 080900Z 22006KT 9999 FEW025 36/23 Q1004=
####018000660####
SATH33 VTBB 080900
METAR VTUD 080900Z VRB04KT 9999 SCT035 BKN300 35/21 Q1004 A2966
           INFO K RWY30=
METAR VTUI 080900Z NIL=
METAR VTUK 080900Z 18003KT 110V260 9999 FEW018 CB SCT022 35/22
           Q1004 A2967 CB N RWY21 INFO K=
METAR VTUU 080900Z 26006KT 9999 FEW025 BKN300 36/22 Q1004 A2966
           NOSIG=
METAR VTUL 080900Z NIL=
METAR VTUO 080900Z 23002KT 9999 FEW016 SCT300 35/23 Q1004 A2968
           INFO J RWY 22=
METAR VTUW 080900Z VRB03KT 9999 FEW020CB FEW024 SCT300 34/23 Q1005
           A2969 CB S  RWY15=
METAR VTUQ 080900Z NIL=
METAR VTUV 080900Z NIL=
METAR VTUJ 080900Z NIL=
METAR VTBO 080900Z NIL=
####018000121####
SPBE20 TXKF 080908
SPECI TXKF 080906Z 17017KT 8000 -SHRA BKN013TCU BKN042
BKN170 BKN300 25/23 Q1018 RMK TCU W-N
####018001724####
SAIY40 LIIB 080900
METAR LIMG 080850Z 03007KT 9999 BKN080 30/25 Q1020 RMK VIS MIN 9999=
METAR LIMK 080855Z 35003KT 9999 BKN025 19/13 Q1023 RMK OVC SCT080 VAL
NIL VIS MIN 9999=
METAR LIMN 080855Z /////KT 9999 FEW050 26/15 Q1022 RMK SCT SCT080 VIS
MIN 9999 BLU=
METAR LIMP 080850Z 10007KT 040V130 CAVOK 26/16 Q1022 RMK VIS MIN
9999=
METAR LIMS 080855Z 11009KT 040V150 CAVOK 26/17 Q1021 RMK FEW FEW200
VIS MIN 9999 WIND THR30 09005KT BLU=
METAR LIMZ 080850Z 34004KT 8000 SCT015 BKN045 22/19 Q1023 RMK VIS
MIN 8000=
METAR LIPA 080855Z 23006KT 9999 SCT045 24/16 Q1022 RMK SCT VIS MIN
9999 A3020 BLU=
METAR LIPB 080850Z 16008KT 9999 FEW060 26/12 Q1022 RMK MON LIB VIS
MIN 9999=
METAR LIPC 080855Z 16007KT CAVOK 27/12 Q1021 RMK FEW FEW200 VIS MIN
9999 WIND THR12 13006KT BLU=
METAR LIPF 080855Z 10003KT 9999 FEW050 25/19 Q1021 RMK FEW VIS MIN
9999=
METAR LIPH 080845Z 01002KT 9999 SCT035 BKN070 24/18 Q1022 RMK BKN VIS
MIN 9999 WIND THR07 /////KT BLU=
METAR LIPI 080855Z 12006KT 9999 FEW030 SCT050 25/17 Q1022 RMK BKN
VIS MIN 9999 WIND THR06 16005KT BLU=
METAR LIPL 080855Z 11006KT 060V180 9999 SCT060 26/20 Q1022 RMK BKN
VIS MIN 9999 BLU=
METAR LIPO 080850Z 07006KT 040V140 9999 BKN065 25/16 Q1022 RMK VIS
MIN 9999=
METAR LIPQ 080850Z VRB02KT 9999 FEW030 BKN050 25/14 Q1023=
METAR LIPR 080845Z 12006KT CAVOK 27/16 Q1021 RMK SKC VIS MIN 9999
WIND THR31 13005KT BLU=
METAR LIPS 080855Z 02004KT 9999 BKN060 24/16 Q1022 RMK BKN VIS MIN
9999 BLU=
METAR LIPX 080845Z 10007KT 9999 SCT080 27/14 Q1021 RMK SCT VIS MIN
9999 BLU=
METAR LIPY 080850Z VRB05KT CAVOK 26/10 Q1021 RMK VIS MIN 9999=
METAR LIVC 080855Z 03007KT 9999 FEW000 13/11 Q1030 RMK FEW MON LIB
VAL=
####018001567####
SAIY40 LIIB 080900
METAR LIMG 080850Z 03007KT 9999 BKN080 30/25 Q1020 RMK VIS MIN 9999=
METAR LIMK 080855Z 35003KT 9999 BKN025 19/13 Q1023 RMK OVC SCT080 VAL
      NIL VIS MIN 9999=
METAR LIMN 080855Z /////KT 9999 FEW050 26/15 Q1022 RMK SCT SCT080 VIS
      MIN 9999 BLU=
METAR LIMP 080850Z 10007KT 040V130 CAVOK 26/16 Q1022 RMK VIS MIN
9999=
METAR LIMS 080855Z 11009KT 040V150 CAVOK 26/17 Q1021 RMK FEW FEW200
      VIS MIN 9999 WIND THR30 09005KT BLU=
METAR LIMZ 080850Z 34004KT 8000 SCT015 BKN045 22/19 Q1023 RMK VIS
MIN 8000=
METAR LIPA 080855Z 23006KT 9999 SCT045 24/16 Q1022 RMK SCT VIS MIN
      9999 A3020 BLU=
METAR LIPB 080850Z 16008KT 9999 FEW060 26/12 Q1022 RMK MON LIB VIS
MIN 9999=
METAR LIPC 080855Z 16007KT CAVOK 27/12 Q1021 RMK FEW FEW200 VIS MIN
      9999 WIND THR12 13006KT BLU=
METAR LIPF 080855Z 10003KT 9999 FEW050 25/19 Q1021 RMK FEW VIS MIN
      9999=
METAR LIPH 080845Z 01002KT 9999 SCT035 BKN070 24/18 Q1022 RMK BKN VIS
      MIN 9999 WIND THR07 /////KT BLU=
METAR LIPI 080855Z 12006KT 9999 FEW030 SCT050 25/17 Q1022 RMK BKN
     VIS MIN 9999 WIND THR06 16005KT BLU=
METAR LIPL 080855Z 11006KT 060V180 9999 SCT060 26/20 Q1022 RMK BKN
      VIS MIN 9999 BLU=
METAR LIPO 080850Z 07006KT 040V140 9999 BKN065 25/16 Q1022 RMK VIS
MIN 9999=
METAR LIPQ 080850Z VRB02KT 9999 FEW030 BKN050 25/14 Q1023=
METAR LIPR 080845Z 12006KT CAVOK 27/16 Q1021 RMK SKC VIS MIN 9999
      WIND THR31 13005KT BLU=
METAR LIPS 080855Z 02004KT 9999 BKN060 24/16 Q1022 RMK BKN VIS MIN
      9999 BLU=
####018000133####
SAIY40 LIIB 080900 RRB
METAR LIVP 080855Z VRB02KT 3000 0900E FG VV/// 11/09 Q1028 RMK MON
      INVIS VAL INVIS VIS MIN 0900E=
####018001822####
SAIY40 LIIB 080900 RRA
METAR LIMG 080850Z 03007KT 9999 BKN080 30/25 Q1020 RMK VIS MIN 9999=
METAR LIMK 080855Z 35003KT 9999 BKN025 19/13 Q1023 RMK OVC SCT080 VAL
      NIL VIS MIN 9999=
METAR LIMN 080855Z /////KT 9999 FEW050 26/15 Q1022 RMK SCT SCT080 VIS
      MIN 9999 BLU=
METAR LIMP 080850Z 10007KT 040V130 CAVOK 26/16 Q1022 RMK VIS MIN
9999=
METAR LIMS 080855Z 11009KT 040V150 CAVOK 26/17 Q1021 RMK FEW FEW200
      VIS MIN 9999 WIND THR30 09005KT BLU=
METAR LIMZ 080850Z 34004KT 8000 SCT015 BKN045 22/19 Q1023 RMK VIS
MIN 8000=
METAR LIPA 080855Z 23006KT 9999 SCT045 24/16 Q1022 RMK SCT VIS MIN
      9999 A3020 BLU=
METAR LIPB 080850Z 16008KT 9999 FEW060 26/12 Q1022 RMK MON LIB VIS
MIN 9999=
METAR LIPC 080855Z 16007KT CAVOK 27/12 Q1021 RMK FEW FEW200 VIS MIN
      9999 WIND THR12 13006KT BLU=
METAR LIPF 080855Z 10003KT 9999 FEW050 25/19 Q1021 RMK FEW VIS MIN
      9999=
METAR LIPH 080845Z 01002KT 9999 SCT035 BKN070 24/18 Q1022 RMK BKN VIS
      MIN 9999 WIND THR07 /////KT BLU=
METAR LIPI 080855Z 12006KT 9999 FEW030 SCT050 25/17 Q1022 RMK BKN
     VIS MIN 9999 WIND THR06 16005KT BLU=
METAR LIPL 080855Z 11006KT 060V180 9999 SCT060 26/20 Q1022 RMK BKN
      VIS MIN 9999 BLU=
METAR LIPO 080850Z 07006KT 040V140 9999 BKN065 25/16 Q1022 RMK VIS
MIN 9999=
METAR LIPQ 080850Z VRB02KT 9999 FEW030 BKN050 25/14 Q1023=
METAR LIPR 080845Z 12006KT CAVOK 27/16 Q1021 RMK SKC VIS MIN 9999
      WIND THR31 13005KT BLU=
METAR LIPS 080855Z 02004KT 9999 BKN060 24/16 Q1022 RMK BKN VIS MIN
      9999 BLU=
METAR LIPX 080845Z 10007KT 9999 SCT080 27/14 Q1021 RMK SCT VIS MIN
      9999 BLU=
METAR LIPY 080850Z VRB05KT CAVOK 26/10 Q1021 RMK VIS MIN 9999=
METAR LIVC 080855Z 03007KT 9999 FEW000 13/11 Q1030 RMK FEW MON LIB
      VAL NIL VIS MIN 9999=
####018000073####
SAUS81 KWBC 080908
&EHA SA 0908  AMOS 65/62/3603/M PK WND 05 008

####018000096####
SPXX70 KAWN 080900 RRA
SPECI KQRH 080910Z AUTO VRB04KT 9999 CLR 36/24 A2963 RMK AO2 SLP031=
####018000068####
SAXX70 KAWN 080900 RRI
METAR KQOW 080855Z AUTO RMK AO2 SLPNO $=
####018000132####
SAGW20 GGOV 080900
METAR GGOV 080900Z 18005KT 140V220 9999 SCT015TCU FEW020CB SCT100    
               28/25 Q1013 TEMPO TS=
####018000079####
SAEW32 LEMM 080900 RRA
METAR LEVT 080900Z 22001KT 9999 FEW035 29/18 Q1018=
