####018000412####
SAUK38 EGGY 081420
METAR EGEC 081420Z NIL=
METAR EGPA 081420Z 24012KT 9999 -RADZ FEW020CB SCT028 BKN035
    14/12 Q1009 RERA=
METAR EGPC 081420Z 21014G24KT 170V240 9999 SHRA SCT020 16/11
    Q1009=
METAR EGPL 081420Z 22020KT 9999 FEW018 15/12 Q1009=
METAR EGPM 081420Z 22022KT 9999 FEW029 16/10 Q1007=
METAR EGPO 081420Z 22025KT 9999 VCSH FEW022CB SCT034 18/10 Q1007=
METAR EGPU 081420Z NIL=
####018000399####
SAUK36 EGGY 081420
METAR EGBE 081420Z NIL=
METAR EGBJ 081420Z 23008KT 9999 FEW045 23/08 Q1018=
METAR EGCN 081420Z 25014KT 9999 FEW049 23/09 Q1018=
METAR EGDL 081420Z NIL=
METAR EGSC 081420Z 22008KT 150V260 9999 FEW042 24/12 Q1018=
METAR EGSD 081420Z NIL=
METAR COR EGSH 081420Z 23009KT 170V280 9999 SCT034 26/13 Q1018
    NOSIG=
METAR EGVN 081420Z NIL=
METAR EGWU 081420Z NIL=
####018000082####
SANG31 AMMC 081400 RRA
METAR AYPY 081400Z 18016KT 9999 BKN040 25/22 Q1010=

####018000095####
SARA31 KWBC 081400 RRG
METAR
UBBB 081430Z 34018KT CAVOK 30/29 Q1010 NOSIG RMK R88CLRD70=
####018000057####
SAXX99 KWBC 081300 RRX
METAR
K8S0 081325Z 08002KT=
####018000423####
SAXX99 KWBC 081400 RRV
METAR
EGUB 081350Z AUTO 22008KT 9999NDV // FEW044/// SCT190/// 24/12
     Q1018=
ETND 081420Z 22006KT 9999 FEW070 BKN280 30/10 Q1018 BLU/=
ETND 081420Z 22006KT 9999 FEW070 BKN280 30/10 Q1018 BLU+=
ETNS 081420Z 26010KT 9999 BKN110 BKN190 27/09 Q1019 BLU BLU=
ETNT 081420Z 29009KT 9999 SCT060 SCT120 27/15 Q1018 BLU/BLU/=
ETNT 081420Z 29009KT 9999 SCT060 SCT120 27/15 Q1018 BLU+BLU+=
####018000913####
SAUS43 KWBC 081400 RRF
METAR
K1H2 081425Z AUTO 24010KT 10SM VCTS SCT043 BKN100 30/24 A3005=
KAAA 081423Z AUTO 28004KT 10SM SCT008 BKN012 OVC120 25/23
     A3005=
KC09 081424Z AUTO 23003KT 10SM SCT012 SCT020 BKN025 24/22
     A3003=
KDKB 081425Z AUTO 32006KT 10SM SCT009 SCT015 SCT024 24/23
     A3004=
KDNV 081425Z AUTO 21004KT 10SM CLR 28/22 A3001=
KENL 081424Z AUTO 24005KT 10SM VCTS SCT080 28/20 A3005=
KFEP 081425Z AUTO 29004KT 10SM BKN008 OVC012 24/21 A3005=
KFOA 081425Z AUTO 20005KT 10SM VCTS CLR 31/27 A3005=
KJOT 081426Z AUTO 20003KT 7SM SCT009 SCT026 26/23 A3003=
KLOT 081421Z AUTO 25003KT 10SM SCT009 SCT015 BKN022 25/23
     A3003=
KOLY 081425Z AUTO 19005KT 10SM SCT043 31/24 A3005=
KPNT 081425Z AUTO 27005KT 10SM SCT011 OVC017 25/23 A3004=
KPPQ 081425Z AUTO 29003KT 10SM SCT013 BKN024 BKN030 24/23
     A3008=
KPRG 081425Z AUTO 24005KT 10SM CLR 28/23 A3005=
####018000085####
SAZA42 FAJS 081430 RRA
METAR FAJS 081430Z 06009KT 9999 FEW040 15/02 Q1032 NOSIG=
####018000212####
SAUS44 KWBC 081400 RRE
METAR
K11R 081425Z AUTO 08007KT 5SM -RA SCT021 SCT027 SCT037 25/23
     A3000=
KBPG 081425Z AUTO 03008KT 10SM OVC008 22/20 A3015=
KBYY 081426Z AUTO 08007KT 7SM CLR 29/27 A2992=
####018000101####
SAAJ31 UBBB 081430
UBBN 081430Z 12014KT 9999 NSC 36/09 Q1007 R14R/CLRD60 NOSIG
RMK G/O QFE681=
####018000081####
SAMP31 LMMM 081430 RRB
METAR HLLB 081425Z
32025KT 9999 FEW025 30/18 Q1016=
####018000660####
SANL33 EHDB 081425
METAR EHAK 081425Z AUTO 23009KT 9999NDV 16/13 Q1017=
METAR EHDV 081425Z NIL=
METAR EHFD 081425Z AUTO 22012KT 9999NDV SCT040/// 17/15 Q1019=
METAR EHFZ 081425Z AUTO 23009KT 9999NDV 17/15 Q1019=
METAR EHJA 081425Z AUTO 22008KT 9999NDV 16/13 Q1018=
METAR EHJR 081425Z NIL=
METAR EHKV 081425Z AUTO 25010KT 9999NDV SCT029/// 17/15 Q1019=
METAR EHMA 081425Z AUTO 26013KT 9999NDV 22/17 Q1019=
METAR EHMG 081425Z AUTO 25010KT 9999NDV 17/15 Q1019=
METAR EHPG 081425Z AUTO 20010KT 180V240 9999NDV ///////// 16/15
Q1019=
METAR EHQE 081425Z AUTO 22010KT 9999NDV 16/15 Q1019=
METAR EHSA 081425Z NIL=
METAR EHSC 081425Z NIL=
####018000090####
SAUZ31 UTTT 081430
METAR UTTT 081430Z 36003MPS CAVOK 36/09 Q1009 R08R/CLRD70
NOSIG=
####018000124####
SAUS44 KMAF 081430
MTRNFW
SPECI KNFW 081428Z 13005KT 10SM -RA FEW012 BKN024 OVC040 27/23 A3009 
RMK AO2 RAB18 P0000
####018000091####
SPUS53 KWBC 081430
SPECI
KGCK 081427Z 34009KT 10SM BKN013 BKN017 OVC025 19/17 A3026=
####018000100####
SPAU31 AMMC 081430
SPECI YPPD 081430Z AUTO 00000KT 8000NDV // SCT027 BKN030 OVC045 22/21 Q1010=
####018000106####
SPAU31 AMMC 081430
SPECI YPPD 081430Z AUTO 00000KT 8000NDV // SCT027 BKN030 OVC045 22/21 Q1010=


####018000091####
SPUS73 KWBC 081430
SPECI
KGCK 081427Z 34009KT 10SM BKN013 BKN017 OVC025 19/17 A3026=
####018000099####
SPAU31 AMMC 081430
SPECI YBRM 081430Z AUTO 01004KT 6000NDV // BKN024 OVC032 22/21 Q1012=


####018000093####
SPAU31 AMMC 081430
SPECI YBRM 081430Z AUTO 01004KT 6000NDV // BKN024 OVC032 22/21 Q1012=
####018000073####
SAUS81 KWBC 081428
&EHA SA 1428  AMOS 63/61/0210/M PK WND 15 005

####018001598####
SPZZ40 KAWN 081430 RRE
SPECI CWSA 081421Z AUTO 22008KT 4SM OVC001 19/19 A3021=
SPECI CYAS 081420Z 25004KT 8SM BKN003 OVC026 RMK ST7SC1=
SPECI CYDF 081425Z 22004KT 10SM -SHRA BKN053 OVC068 RMK SC6AC2=
SPECI CYTL 081423Z AUTO 26006KT 9SM FEW015 FEW084 SCT097 19/15 A2977=
SPECI CYUS 081428Z AUTO ///// 9SM FEW089 14/ A2978=
SPECI KEND 081425Z 02007KT 10SM BKN010 BKN080 24/22 A3010 RMK AO2A=
SPECI KFSI 081426Z AUTO 01007KT 10SM BKN015 27/22 A3007 RMK AO2 CIG
      012V019 SLP165=
SPECI KGRK 081427Z 05007KT BKN008 BKN017 27/24 A3002=
SPECI KHLR 081424Z AUTO 07005KT 9SM SCT009 BKN014 OVC060 26/ A3003
      RMK AO2 T0261 $=
SPECI KHOP 081426Z AUTO 28007KT 10SM CLR 31/23 A3009 RMK AO2 DZB1416E1426
      SLP183=
SPECI KLTS 081420Z 33006KT 10SM SCT006 SCT010 BKN015 BKN075 23/23 A3010
      RMK AO2A RAE1409DZB1409E1420 SLP177 VISNO RWY35L CHINO RWY35L $=
SPECI KTIK 081423Z AUTO 36005KT 10SM SCT009 25/22 A3007 RMK AO2 SLP172
      $=
SPECI LETO 081424Z 23004KT 160V320 9999 FEW040CB 34/07 Q1017 NOSIG=
SPECI COR LETO 081425Z 22004KT 160V320 9999 SCT040CB 34/07 Q1017 NOSIG=
SPECI PAED 081428Z AUTO 00000KT 10SM -DZ SCT065 SCT080 12/11 A2999
      RMK AO2 DZB1428 SLP156 $=
PATC SP 1435 AWOS CLR BLO 120 10 46/43/0210/013=
SPECI RJCJ 081418Z 20003KT 2500 -DZ BR SCT001 OVC002 17/17 Q1010 RMK
      3ST001 8ST002 A2985=
SPECI RJTE 081418Z 19004KT 8000 -SHRA SCT006 FEW010CB SCT015 BKN100
      23/22 Q1011 RETS RMK 3ST006 1CB010 3CU015 7AC100 A2986 CB E=
SPECI SOCA 081427Z 08007KT 030V120 9000 BKN019 SCT043 27/25 Q1013 NOSIG
      RMK B2=
####018000329####
SAXX70 KAWN 081400 RRO
METAR KQEL 081420Z AUTO 03002KT 2SM DZ SCT030 21/20 A2976 RMK A02=
METAR KQEQ 081420Z AUTO 16002KT 3SM BR BKN080 22/20 A2983 RMK A02=
METAR KQEW 081420Z AUTO 24003KT 7SM DZ BKN038 24/21 A2985 RMK A02=
METAR KQFT 081420Z AUTO 18001KT 2SM -SHRA BR FEW001 SCT002 BKN025 22/20
      A2987 RMK A02=
####018000099####
SPAU31 AMMC 081430
SPECI YBTL 081430Z AUTO 14008KT 9999NDV // BKN010 OVC014 21/18 Q1017=


####018000093####
SPAU31 AMMC 081430
SPECI YBTL 081430Z AUTO 14008KT 9999NDV // BKN010 OVC014 21/18 Q1017=
####018002967####
SAUS20 KNKA 081430
SPECI KAUS 081429Z 07009KT 3SM RA BR SCT009 BKN015 OVC024 26/24 
    A2999 RMK AO2 P0037=
SPECI KAZO 081429Z 00000KT 3SM BR SCT020 BKN065 OVC080 24/23 A3004 
    RMK AO2 RAB1359E23 P0002=
METAR KCCA 081435Z AUTO 00000KT 10SM FEW009 SCT012 OVC090 26/23 
     A3010 RMK AO2 =
METAR KCDN 081435Z AUTO 34005KT 10SM CLR 33/21 A2999 RMK A02 P000 
     =
METAR KCKI 081435Z AUTO 31004KT 10SM CLR 31/21 A2995 RMK AO2=
SPECI KCMI 081429Z 24005KT 10SM BKN019 BKN095 28/23 A3005 RMK AO2=
METAR KFWC 081425Z AUTO 23006KT 10SM VCTS SCT050 30/25 A3005 RMK 
     AO2 LTG DSNT NW=
METAR KGLE 081427Z AUTO 15005KT 10SM SCT011 BKN018 OVC030 26/23 
     A3008 RMK AO2=
SPECI KGRB 081429Z 32005KT 10SM BKN019 24/21 A3000 RMK AO2=
METAR KIKK 081425Z AUTO 21003KT 7SM BKN010 BKN027 BKN048 28/24 
     A3003 RMK AO2=
SPECI KLNK 081429Z 36008KT 10SM BKN013 22/18 A3018 RMK AO2=
METAR KLRO 081435Z AUTO 32007KT 8SM CLR 30/21 A2995 RMK AO2 =
SPECI KLVJ 081429Z AUTO 19008KT 9SM VCTS -RA FEW021 BKN034 OVC047 
    26/23 A3000 RMK AO2 LTG DSNT S TSB23RAB20 PRESRR P0000=
METAR KMKS 081435Z AUTO 35006KT 7SM CLR 31/21 A2995 RMK AO2 TSNO=
SPECI KMWT 081426Z AUTO 00000KT 10SM SCT017 BKN060 26/23 A3009 RMK
     AO2 TSNO=
SPECI KPWK 081429Z 27006KT 10SM SCT013 BKN025 OVC055 26/22 A3004 RMK 
    AO2=
METAR KRAS 081425Z AUTO 10008KT 5SM  BR SCT020 SCT029 BKN042 
     29/27 A2988 RMK AO2=
METAR KRFI 081425Z AUTO 13003KT 5SM HZ BKN011 BKN110 27/24 A3006 
     RMK AO2 T02730239=
METAR KRWV 081420Z AUTO 08006KT 5SM  BR OVC006 26/24 A3003 RMK AO2=
METAR KRYW 081425Z AUTO 05004KT 5SM BR OVC007 25/23 A3003 RMK AO2=
METAR KSAR 081425Z AUTO 24006KT 7SM VCTS CLR 28/24 A3006 RMK AO2 
     LTG DSNT N=
METAR KSLO 081425Z AUTO 25007KT 10SM VCTS BKN050 OVC100 29/23 
     A3006 RMK AO2 LTG DSNT N AND NW T02900225=
METAR KSLR 081422Z AUTO 13007KT 7SM SCT014 BKN070 BKN080 27/23 
     A3008 RMK AO2 T02720228=
METAR KSNK 081426Z AUTO 05006KT 10SM OVC009 22/21 A3013 RMK AO2 
     T02220205=
METAR KSOA 081420Z AUTO 07006KT 8SM 25/22 A3011 RMK AO2=
METAR KSWW 081425Z AUTO 03004KT 1 1/4SM OVC002 22/22 A3013 RMK 
     AO1 T02200216=
METAR KT65 081425Z AUTO 02006KT 7SM RA OVC011 28/25 A2981 RMK AO2 
     T02750254=
METAR KT82 081425Z AUTO 07004KT 24/22 A3005 RMK AO1 T02410218=
METAR KTAZ 081425Z AUTO 24003KT 10SM VCTS CLR 27/24 A3004 RMK AO2 
     LTG DSNT S=
METAR KTFP 081425Z AUTO 04003KT 10SM SCT017 BKN039 OVC055 28/26 
     A2986 RMK AO2 P0007 T02770261=
METAR KTIP 081425Z AUTO 23005KT 10SM CLR 28/25 A3005 RMK AO2 LTG 
     DSNT SW T02820251=
METAR KTYQ 081425Z AUTO 23007KT 10SM CLR 29/22 A3006 RMK AO2=
METAR KUVA 081425Z AUTO 04008KT 10SM CLR 26/23 A2997 RMK AO2 
     T02630227=
METAR KVYS 081425Z AUTO 33007KT 10SM BKN014 OVC027 25/22 A3004 
     RMK AO2 T02500215=
METAR KXBP 081425Z AUTO 13004KT 10SM BKN031 OVC040 26/23 A3007 
     RMK AO2 T02590229=
####018000077####
SPCN48 CWAO 081428
SPECI CYLA 081428Z 26016G22KT 15SM BKN014 RMK SC7=

####018000480####
SAHU41 LHBM 081430
METAR LHDC 081415Z 35008KT 9999 FEW046 24/12 Q1020 NOSIG=
METAR LHKE 081415Z 30004MPS CAVOK 26/12 Q1020 NOSIG RMK BLU=
METAR LHPA 081415Z 33004MPS CAVOK 25/10 Q1022 NOSIG RMK BLU=
METAR LHPP 081415Z 31006KT CAVOK 24/13 Q1022 NOSIG=
METAR LHPR 081415Z 34009KT CAVOK 25/08 Q1022=
METAR LHSM 081415Z 33008KT CAVOK 26/09 Q1022 NOSIG=
METAR LHSN 081415Z 30001MPS CAVOK 24/11 Q1020 NOSIG RMK BLU=
METAR LHUD 081415Z 34007KT 9999 FEW040 24/13 Q1021=
####018000315####
SABN31 OBBI 081400
METAR OBBI 081400Z 05008KT 4500 HZ SKC 35/26 Q0999 NOSIG=
METAR OEDF 081400Z 05012KT CAVOK 41/09 Q0999 NOSIG=
METAR OEDR 081400Z 03011KT 8000 SKC 39/21 Q0997 NOSIG=
METAR OTBD 081400Z 06007KT 4000 HZ NSC 36/29 Q0999 NOSIG=
METAROKBK 081400Z 34017KT 6000 -BLDU SKC 47/M03 Q0998 NOSIG=
####018000105####
SATG20 DXXX 081430
METAR DXXX 081430Z 21011KT 9999 TS FEW016 FEW025CB 28/23 Q1012 BECMG
4500 TSRA=
####018000089####
SASG20 GOOY 081430
METAR GOOY 081430Z 16009KT 130V190 9999 SCT013 31/25 Q1012 NOSIG=
####018001110####
SPUS99 KWBC 081431
SPECI
KBMI 081429Z 26008KT 10SM FEW012 BKN017 BKN065 25/23 A3007 RMK AO2
     $=
KFST 081428Z AUTO 36005KT 9SM SCT006 BKN013 OVC055 22/21 A3012 RMK
     AO2 RAE27 P0000=
KGUY 081428Z AUTO 02009KT 6SM -RA BR SCT008 OVC012 19/18 A3024 RMK
     AO2 RAB1358 P0000=
KISP 081428Z 14008KT 10SM BKN021 BKN130 BKN250 28/19 A3004 RMK
     AO2=
KMKO 081428Z AUTO 00000KT 7SM -RA FEW003 OVC010 24/23 A3007 RMK
     AO2 CIG 007V012 P0000=
KAUS 081429Z 07009KT 3SM RA BR SCT009 BKN015 OVC024 26/24 A2999
     RMK AO2 P0037=
KAZO 081429Z 00000KT 3SM BR SCT020 BKN065 OVC080 24/23 A3004 RMK
     AO2 RAB1359E23 P0002=
KCMI 081429Z 24005KT 10SM BKN019 BKN095 28/23 A3005 RMK AO2=
KGRB 081429Z 32005KT 10SM BKN019 24/21 A3000 RMK AO2=
KLNK 081429Z 36008KT 10SM BKN013 22/18 A3018 RMK AO2=
KLVJ 081429Z AUTO 19008KT 9SM VCTS -RA FEW021 BKN034 OVC047 26/23
     A3000 RMK AO2 LTG DSNT S TSB23RAB20 PRESRR P0000=
KMWT 081426Z AUTO 00000KT 10SM SCT017 BKN060 26/23 A3009 RMK AO2
     TSNO=
KPWK 081429Z 27006KT 10SM SCT013 BKN025 OVC055 26/22 A3004 RMK
     AO2=
####018002095####
SAUS99 KWBC 081431
METAR
KCCA 081435Z AUTO 00000KT 10SM FEW009 SCT012 OVC090 26/23 A3010
     RMK AO2=
KCDN 081435Z AUTO 34005KT 10SM CLR 33/21 A2999 RMK A02 P000=
KCKI 081435Z AUTO 31004KT 10SM CLR 31/21 A2995 RMK AO2=
KFWC 081425Z AUTO 23006KT 10SM VCTS SCT050 30/25 A3005 RMK AO2 LTG
     DSNT NW=
KGLE 081427Z AUTO 15005KT 10SM SCT011 BKN018 OVC030 26/23 A3008
     RMK AO2=
KIKK 081425Z AUTO 21003KT 7SM BKN010 BKN027 BKN048 28/24 A3003 RMK
     AO2=
KLRO 081435Z AUTO 32007KT 8SM CLR 30/21 A2995 RMK AO2=
KMKS 081435Z AUTO 35006KT 7SM CLR 31/21 A2995 RMK AO2 TSNO=
KRAS 081425Z AUTO 10008KT 5SM BR SCT020 SCT029 BKN042 29/27 A2988
     RMK AO2=
KRFI 081425Z AUTO 13003KT 5SM HZ BKN011 BKN110 27/24 A3006 RMK AO2
     T02730239=
KRWV 081420Z AUTO 08006KT 5SM BR OVC006 26/24 A3003 RMK AO2=
KRYW 081425Z AUTO 05004KT 5SM BR OVC007 25/23 A3003 RMK AO2=
KSAR 081425Z AUTO 24006KT 7SM VCTS CLR 28/24 A3006 RMK AO2 LTG
     DSNT N=
KSLO 081425Z AUTO 25007KT 10SM VCTS BKN050 OVC100 29/23 A3006 RMK
     AO2 LTG DSNT N AND NW T02900225=
KSLR 081422Z AUTO 13007KT 7SM SCT014 BKN070 BKN080 27/23 A3008 RMK
     AO2 T02720228=
KSNK 081426Z AUTO 05006KT 10SM OVC009 22/21 A3013 RMK AO2
     T02220205=
KSOA 081420Z AUTO 07006KT 8SM 25/22 A3011 RMK AO2=
KSWW 081425Z AUTO 03004KT 1 1/4SM OVC002 22/22 A3013 RMK AO1
     T02200216=
KT65 081425Z AUTO 02006KT 7SM RA OVC011 28/25 A2981 RMK AO2
     T02750254=
KT82 081425Z AUTO 07004KT 24/22 A3005 RMK AO1 T02410218=
KTAZ 081425Z AUTO 24003KT 10SM VCTS CLR 27/24 A3004 RMK AO2 LTG
     DSNT S=
KTFP 081425Z AUTO 04003KT 10SM SCT017 BKN039 OVC055 28/26 A2986
     RMK AO2 P0007 T02770261=
KTIP 081425Z AUTO 23005KT 10SM CLR 28/25 A3005 RMK AO2 LTG DSNT SW
     T02820251=
KTYQ 081425Z AUTO 23007KT 10SM CLR 29/22 A3006 RMK AO2=
KUVA 081425Z AUTO 04008KT 10SM CLR 26/23 A2997 RMK AO2
     T02630227=
KVYS 081425Z AUTO 33007KT 10SM BKN014 OVC027 25/22 A3004 RMK AO2
     T02500215=
KXBP 081425Z AUTO 13004KT 10SM BKN031 OVC040 26/23 A3007 RMK AO2
     T02590229=
####018000084####
SAZA42 FAJS 081430 RRA
METAR FAJS 081430Z 06009KT 9999 FEW040 15/02 Q1032 NOSIG=
####018000472####
SAHU41 LHBM 081430
METAR LHDC 081415Z 35008KT 9999 FEW046 24/12 Q1020 NOSIG=
METAR LHKE 081415Z 30004MPS CAVOK 26/12 Q1020 NOSIG RMK BLU=
METAR LHPA 081415Z 33004MPS CAVOK 25/10 Q1022 NOSIG RMK BLU=
METAR LHPP 081415Z 31006KT CAVOK 24/13 Q1022 NOSIG=
METAR LHPR 081415Z 34009KT CAVOK 25/08 Q1022=
METAR LHSM 081415Z 33008KT CAVOK 26/09 Q1022 NOSIG=
METAR LHSN 081415Z 30001MPS CAVOK 24/11 Q1020 NOSIG RMK BLU=
METAR LHUD 081415Z 34007KT 9999 FEW040 24/13 Q1021=
####018000090####
SARM31 LUKK 081430
METAR LUKK 081430Z 35007KT 9999 SCT040 26/15 Q1014 26CLRD65
NOSIG=
####018000101####
SPAU32 YBBN 081430
SPECI YPPD 081430Z AUTO 00000KT 8000NDV // SCT027 BKN030 OVC045 22/21
Q1010=
####018000390####
SABU31 LBSM 081430
METAR LBSF 081430Z 28007MPS 9999 FEW035 BKN050 17/12 Q1019
 NOSIG=
METAR LBWN 081430Z 30005MPS 270V340 9999 FEW030 SCT045 20/16
 Q1013 NOSIG=
METAR LBBG 081430Z 27005MPS 8000 RA FEW013 OVC036 17/16 Q1014 WS
 R22 NOSIG=
METAR LBPD 081430Z 26006MPS 9999 -RA OVC050 16/14 Q1017 NOSIG=
METAR LBGO 081430Z 28002MPS 6000 -RA SCT010 BKN025 OVC040 16/15
 Q1018 NOSIG=
####018000092####
SPAU32 YBBN 081430
SPECI YBRM 081430Z AUTO 01004KT 6000NDV // BKN024 OVC032 22/21 Q1012=
####018000092####
SPAU31 YBBN 081430
SPECI YBTL 081430Z AUTO 14008KT 9999NDV // BKN010 OVC014 21/18 Q1017=
####018000097####
SAIV20 DIAP 081430
METAR DIAP 081430Z 22008KT 190V250 8000  SCT012 SCT070 29/25 Q1013
NOSIG=
####018000078####
SAUK35 EGGY 081420 RRA
METAR EGLF 081420Z 26007KT 9999 SCT030 24/15 Q1018=
####018000082####
SPAU32 YBBN 081430
SPECI YBMA 081430Z AUTO 00000KT 7000NDV // NCD 07/06 Q1020=
####018000091####
SAUK51 EGGY 081350 RRB
METAR EGDM 081350Z 21011KT 9999 SCT033 BKN200 24/14 Q1018 NOSIG=
####018000093####
SPAK31 KWBC 081431
SPECI
PAED 081428Z AUTO 00000KT 10SM -DZ SCT065 SCT080 12/11 A2999=
####018000095####
SPAU31 KWBC 081431
SPECI
YBRM 081430Z AUTO 01004KT 6000NDV // BKN024 OVC032 22/21 Q1012=
####018000104####
SPAU31 KWBC 081431
SPECI
YPPD 081430Z AUTO 00000KT 8000NDV // SCT027 BKN030 OVC045 22/21
Q1010=
####018000095####
SPAU31 KWBC 081431
SPECI
YBTL 081430Z AUTO 14008KT 9999NDV // BKN010 OVC014 21/18 Q1017=
####018000080####
SPAK32 KWBC 081431
SPECI
PATC SP 1435 AWOS CLR BLO 120 10 46/43/0210/013=
####018000117####
SPJP41 KWBC 081431
SPECI
RJCJ 081418Z 20003KT 2500 -DZ BR SCT001 OVC002 17/17 Q1010 RMK
3ST001 8ST002 A2985=
####018000156####
SPJP44 KWBC 081431
SPECI
RJTE 081418Z 19004KT 8000 -SHRA SCT006 FEW010CB SCT015 BKN100
23/22 Q1011 RETS RMK 3ST006 1CB010 3CU015 7AC100 A2986 CB E=
####018000108####
SAGM31 PGUM 081431
MTRGUM
SPECI PGUM 081430Z 12008KT 10SM BKN022 BKN028 BKN037 28/24 A2990 RMK 
AO2
####018000438####
SATU32 LTAA 081420
METAR LTAN 081420Z 32009KT 9999 SCT040 33/07 Q1009 NOSIG=
METAR LTAU 081420Z 28008KT 250V310 9999 SCT040 33/11 Q1008 TEMPO 
FM1600 -TSRA=
METAR LTBR 081420Z 31014KT 9999 SCT035TCU BKN100 23/18 Q1012 TEMPO 
-TSRA=
METAR LTBU 081420Z 31015KT 9999 SCT025TCU BKN100 16/14 Q1014=
METAR LTCC 081420Z 15008KT 110V190 CAVOK 40/02 Q1005 NOSIG=
METAR LTCE 081420Z 11004KT 040V140 9999 SCT030 30/09 Q1016 NOSIG=
####018000099####
SAIV20 DIAP 081430
METAR DIAP 081430Z 22008KT 190V250 8000  SCT012 SCT070 29/25 Q1013
NOSIG=
####018000093####
SPAU32 YBBN 081430
SPECI YBRM 081430Z AUTO 01004KT 6000NDV // BKN024 OVC032 22/21 Q1012=
####018000434####
SARH31 LDZM 081430
METAR LDSP 081430Z 23013KT 190V260 CAVOK 29/10 Q1018 NOSIG =
METAR LDPL 081430Z 26011KT 230V290 CAVOK 26/11 Q1021 NOSIG =
METAR LDDU 081430Z 26010KT 230V310 9999 FEW045 25/14 Q1018 NOSIG =
METAR LDZA 081430Z VRB03KT CAVOK 27/09 Q1021 NOSIG =
METAR LDZD 081430Z 31015KT CAVOK 28/08 Q1020 =
METAR LDRI 081430Z VRB02KT 9999 FEW047 27/10 Q1021 NOSIG=
METAR LDOS 081430Z VRB04KT 9999 FEW033 26/08 Q1021=
####018000928####
SATU31 LTAA 081420
METAR LTAC 081420Z 25017KT 9999 -TSRA FEW025CB BKN035 22/16 Q1012 
RETS BECMG TL1520 03013KT NSW=
METAR LTAF 081420Z /////KT 9999 SCT035 30/20 Q1007 NOSIG=
METAR LTAI 081420Z 18009KT 9999 SCT030 28/22 Q1007 NOSIG=
METAR LTAJ 081420Z 24014KT CAVOK 34/16 Q1007 NOSIG=
METAR LTAZ 081420Z NIL=
METAR LTBA 081420Z NIL=
METAR LTBJ 081420Z 34022KT 9999 FEW030 27/14 Q1010 NOSIG=
METAR LTBS 081420Z 20010KT 9999 FEW030 31/20 Q1006 BECMG TL1600 
35009KT=
METAR LTCF 081420Z 10012KT CAVOK 29/07 Q1017=
METAR LTCG 081420Z 06006KT 020V080 9999 FEW015 SCT035 BKN100 27/22 
Q1009 NOSIG=
METAR LTCI 081420Z VRB02KT CAVOK 28/09 Q1015 NOSIG=
METAR LTCS 081420Z 17011KT 150V210 CAVOK 37/04 Q1008=
METAR LTFE 081420Z 26020KT 9999 FEW035 31/18 Q1008 NOSIG=
METAR LTFH 081420Z 05009KT 020V090 9999 SCT036 BKN100 27/22 Q1009 
NOSIG=
METAR LTFJ 081420Z 36013KT 9999 BKN030 22/18 Q1011 NOSIG=
####018000079####
SAUK35 EGGY 081420 RRA
METAR EGLF 081420Z 26007KT 9999 SCT030 24/15 Q1018=
####018000102####
SPAU32 YBBN 081430
SPECI YPPD 081430Z AUTO 00000KT 8000NDV // SCT027 BKN030 OVC045 22/21
Q1010=
####018000399####
SABU31 LBSM 081430
METAR LBSF 081430Z 28007MPS 9999 FEW035 BKN050 17/12 Q1019
 NOSIG=
METAR LBWN 081430Z 30005MPS 270V340 9999 FEW030 SCT045 20/16
 Q1013 NOSIG=
METAR LBBG 081430Z 27005MPS 8000 RA FEW013 OVC036 17/16 Q1014 WS
 R22 NOSIG=
METAR LBPD 081430Z 26006MPS 9999 -RA OVC050 16/14 Q1017 NOSIG=
METAR LBGO 081430Z 28002MPS 6000 -RA SCT010 BKN025 OVC040 16/15
 Q1018 NOSIG=
####018000092####
SARM31 LUKK 081430
METAR LUKK 081430Z 35007KT 9999 SCT040 26/15 Q1014 26CLRD65
NOSIG=
####018000429####
SATU32 LTAA 081420
METAR LTAN 081420Z 32009KT 9999 SCT040 33/07 Q1009 NOSIG=
METAR LTAU 081420Z 28008KT 250V310 9999 SCT040 33/11 Q1008 TEMPO
FM1600 -TSRA=
METAR LTBR 081420Z 31014KT 9999 SCT035TCU BKN100 23/18 Q1012 TEMPO
-TSRA=
METAR LTBU 081420Z 31015KT 9999 SCT025TCU BKN100 16/14 Q1014=
METAR LTCC 081420Z 15008KT 110V190 CAVOK 40/02 Q1005 NOSIG=
METAR LTCE 081420Z 11004KT 040V140 9999 SCT030 30/09 Q1016 NOSIG=
####018000081####
SAMP31 LMMM 081430 RRB
METAR HLLB 081425Z 
32025KT 9999 FEW025 30/18 Q1016=
####018000106####
SATU33 LTAA 081420
METAR LCEN 081420Z 15011KT 9999 SCT025 32/18 Q1007 NOSIG=
METAR LCGK 081420Z NIL=
####018000077####
SALY31 HLLB 081430
METAR HLLB 081425Z 
32025KT 9999 FEW025 30/18 Q1016=
####018000906####
SATU31 LTAA 081420
METAR LTAC 081420Z 25017KT 9999 -TSRA FEW025CB BKN035 22/16 Q1012
RETS BECMG TL1520 03013KT NSW=
METAR LTAF 081420Z /////KT 9999 SCT035 30/20 Q1007 NOSIG=
METAR LTAI 081420Z 18009KT 9999 SCT030 28/22 Q1007 NOSIG=
METAR LTAJ 081420Z 24014KT CAVOK 34/16 Q1007 NOSIG=
METAR LTAZ 081420Z NIL=
METAR LTBA 081420Z NIL=
METAR LTBJ 081420Z 34022KT 9999 FEW030 27/14 Q1010 NOSIG=
METAR LTBS 081420Z 20010KT 9999 FEW030 31/20 Q1006 BECMG TL1600
35009KT=
METAR LTCF 081420Z 10012KT CAVOK 29/07 Q1017=
METAR LTCG 081420Z 06006KT 020V080 9999 FEW015 SCT035 BKN100 27/22
Q1009 NOSIG=
METAR LTCI 081420Z VRB02KT CAVOK 28/09 Q1015 NOSIG=
METAR LTCS 081420Z 17011KT 150V210 CAVOK 37/04 Q1008=
METAR LTFE 081420Z 26020KT 9999 FEW035 31/18 Q1008 NOSIG=
METAR LTFH 081420Z 05009KT 020V090 9999 SCT036 BKN100 27/22 Q1009
NOSIG=
METAR LTFJ 081420Z 36013KT 9999 BKN030 22/18 Q1011 NOSIG=
####018000080####
SAMP31 LMMM 081430 RRB
METAR HLLB 081425Z
32025KT 9999 FEW025 30/18 Q1016=
####018000080####
SAPF20 NTAA 081430
METAR NTAA 081430Z AUTO VRB02KT 9999NDV NCD 25/22 Q1015=
####018000173####
SAUS20 KNKA 081431
SPECI KARA 081430Z 09008KT 10SM SCT015 SCT020 28/25 A3004 RMK AO2=
SPECI KDTO 081428Z 15007KT 10SM SCT014 BKN021 BKN060 27/23 A3005 RMK 
    AO2=
####018000088####
SANC01 NWWW 081430
METAR NWWW 081430Z AUTO 01003KT 330V040 9999NDV NCD 16/15 Q1015=
####018000092####
SASG20 GOOY 081430
METAR GOOY 081430Z 16009KT 130V190 9999 SCT013 31/25 Q1012 NOSIG=

####018000091####
SAZZ40 KAWN 081400 RRT
METAR EFKI 081420Z AUTO VRB04KT 9999 FEW037 SCT097 24/15 Q1015=
####018000125####
SPNA35 KAWN 081431 RRB
SPECI KACY 081424Z 11004KT 1 1/2SM +RA BR FEW001 BKN017 BKN065 24/23
      A3006 RMK AO2 P0006=
####018000097####
SASR31 WSSS 081430
METAR WSSS 081430Z 25001KT 9999 FEW016 SCT280 BKN300 27/24 Q1011
NOSIG=
####018001808####
SAEU KAWN 081400 RRX
METAR EBBE 081425Z AUTO 24006KT 9999 // SKC 31/10 Q1018 BLU=
METAR EBBL 081425Z 27006KT 9999 FEW060 BKN220 33/10 Q1018 BLU BLU=
METAR EBCV 081425Z AUTO 20007KT 9999 // SKC 30/11 Q1019 BLU=
METAR EBDT 081425Z 16006KT 9999 FEW070 BKN220 32/10 Q1018 BLU=
METAR EBFN 081425Z VRB03KT 9999 FEW042 BKN200 25/17 Q1019 BLU BLU=
METAR EBFS 081425Z 26005KT 9999 FEW250 30/09 Q1020 BLU BLU=
METAR EBLB 081425Z 27005KT 9999 FEW220 28/09 Q1021 BLU BLU=
METAR EBLH 081425Z 25008KT 9999 FEW250 32/11 Q1019 BLU BLU=
METAR EGAE 081420Z 21011KT 9999 FEW022 19/10 Q1012=
METAR EGBJ 081420Z 23008KT 9999 FEW045 23/08 Q1018=
METAR EGNH 081420Z 24011KT 9999 FEW031 19/11 Q1017=
METAR EGNJ 081420Z 23014KT 200V260 9999 SCT040 24/08 Q1017=
METAR EGPA 081420Z 24012KT 9999 -RADZ FEW020CB SCT028 BKN035 14/12
      Q1009 RERA=
METAR EGPC 081420Z 21014G24KT 170V240 9999 SHRA SCT020 16/11 Q1009=
METAR EGPE 081420Z 21020KT 9999 FEW018 SCT048 17/09 Q1010=
METAR EGPL 081420Z 22020KT 9999 FEW018 15/12 Q1009=
METAR EGPM 081420Z 22022KT 9999 FEW029 16/10 Q1007=
METAR EGPN 081420Z 24020KT 9999 SCT045 19/11 Q1012=
METAR EGPO 081420Z 22025KT 9999 VCSH FEW022CB SCT034 18/10 Q1007=
METAR EGSC 081420Z 22008KT 150V260 9999 FEW042 24/12 Q1018=
METAR COR EGSH 081420Z 23009KT 170V280 9999 SCT034 26/13 Q1018 NOSIG=
METAR LDDU 081430Z 26010KT 230V310 9999 FEW045 25/14 Q1018 NOSIG=
METAR LDPL 081430Z 26011KT 230V290 CAVOK 26/11 Q1021 NOSIG=
METAR LDRI 081430Z VRB02KT 9999 FEW047 27/10 Q1021 NOSIG=
METAR LDSP 081430Z 23013KT 190V260 CAVOK 29/10 Q1018 NOSIG=
METAR LDZA 081430Z VRB03KT CAVOK 27/09 Q1021 NOSIG=
METAR LDZD 081430Z 31015KT CAVOK 28/08 Q1020=
METAR LHPP 081415Z 31006KT CAVOK 24/13 Q1022 NOSIG=
METAR LHUD 081415Z 34007KT 9999 FEW040 24/13 Q1021=
####018000081####
SAAL40 DAMM 081330 RRA
METAR DAAT 081330Z 14011KT 100V160 CAVOK 34/02 Q1021=
####018000165####
SPUS90 KWBC 081432
SPECI PGUM 081430Z 12008KT 10SM BKN022 BKN028 BKN037 28/24 A2990
     RMK AO2=
SPECI KMSN 081430Z 30005KT 9SM BKN012 24/21 A3004 RMK AO2=
####018000091####
SPCN42 CWAO 081430
SPECI CYUA 081430Z AUTO 22010KT 9SM -RA OVC025 OVC051 07/ A3006=

####018000090####
SAUS43 KMKX 081431
MTRMSN
SPECI KMSN 081430Z 30005KT 9SM BKN012 24/21 A3004 RMK AO2
####018000593####
SAUS20 KNKA 081431
METAR KBNL 081435Z AUTO 34009KT 10SM CLR 33/19 A2999 RMK AO2 =
METAR KCQW 081435Z AUTO 32003KT 4SM  HZ CLR 32/19 A2997 RMK AO2 =
SPECI KDFW 081431Z 12006KT 10SM -RA BKN009 BKN014 OVC060 26/24 A3005 
    RMK AO2 RAB08 CIG 006V012 P0000=
SPECI KLAA 081430Z AUTO 11005KT 10SM BKN007 OVC013 17/16 A3029 RMK 
    AO2 RAE02 CIG 005V009 P0000=
SPECI KLHX 081430Z AUTO 00000KT 10SM BKN012 BKN021 OVC028 18/14 
    A3031 RMK AO2 PNO=
METAR KLKR 081435Z AUTO 00000KT 7SM CLR 31/23 A3000 RMK AO2 =
SPECI KPNC 081430Z AUTO 02009KT 10SM BKN011 25/22 A3009 RMK AO2=
####018000520####
SPUS99 KWBC 081432
SPECI
KARA 081430Z 09008KT 10SM SCT015 SCT020 28/25 A3004 RMK AO2=
KDTO 081428Z 15007KT 10SM SCT014 BKN021 BKN060 27/23 A3005 RMK
     AO2=
KDFW 081431Z 12006KT 10SM -RA BKN009 BKN014 OVC060 26/24 A3005 RMK
     AO2 RAB08 CIG 006V012 P0000=
KLAA 081430Z AUTO 11005KT 10SM BKN007 OVC013 17/16 A3029 RMK AO2
     RAE02 CIG 005V009 P0000=
KLHX 081430Z AUTO 00000KT 10SM BKN012 BKN021 OVC028 18/14 A3031
     RMK AO2 PNO=
KPNC 081430Z AUTO 02009KT 10SM BKN011 25/22 A3009 RMK AO2=
####018000096####
SAUS98 KWBC 081432
METAR KEHA 081428Z AUTO 02010KT 17/16 RMK AO1 PK WND 15 005
T01720162=
####018000079####
SAPF20 NTAA 081430
METAR NTAA 081430Z AUTO VRB02KT 9999NDV NCD 25/22 Q1015=
####018000106####
SPPQ50 KWBC 081432
SPECI
PGUM 081430Z 12008KT 10SM BKN022 BKN028 BKN037 28/24 A2990 RMK
     AO2=
####018000087####
SANC01 NWWW 081430
METAR NWWW 081430Z AUTO 01003KT 330V040 9999NDV NCD 16/15 Q1015=
####018000095####
SAAO33 KWBC 081400 RRC
METAR
GOOY 081430Z 16009KT 130V190 9999 SCT013 31/25 Q1012 NOSIG=
####018002130####
SAUS70 KWBC 081432
METAR
KCCA 081435Z AUTO 00000KT 10SM FEW009 SCT012 OVC090 26/23 A3010
     RMK AO2=
KCDN 081435Z AUTO 34005KT 10SM CLR 33/21 A2999 RMK A02 P000=
KCKI 081435Z AUTO 31004KT 10SM CLR 31/21 A2995 RMK AO2=
KFWC 081425Z AUTO 23006KT 10SM VCTS SCT050 30/25 A3005 RMK AO2 LTG
     DSNT NW=
KGLE 081427Z AUTO 15005KT 10SM SCT011 BKN018 OVC030 26/23 A3008
     RMK AO2=
KIKK 081425Z AUTO 21003KT 7SM BKN010 BKN027 BKN048 28/24 A3003 RMK
     AO2=
KLRO 081435Z AUTO 32007KT 8SM CLR 30/21 A2995 RMK AO2=
KMKS 081435Z AUTO 35006KT 7SM CLR 31/21 A2995 RMK AO2 TSNO=
KRAS 081425Z AUTO 10008KT 5SM BR SCT020 SCT029 BKN042 29/27 A2988
     RMK AO2=
KRWV 081420Z AUTO 08006KT 5SM BR OVC006 26/24 A3003 RMK AO2=
KRYW 081425Z AUTO 05004KT 5SM BR OVC007 25/23 A3003 RMK AO2=
KSAR 081425Z AUTO 24006KT 7SM VCTS CLR 28/24 A3006 RMK AO2 LTG
     DSNT N=
KSLO 081425Z AUTO 25007KT 10SM VCTS BKN050 OVC100 29/23 A3006 RMK
     AO2 LTG DSNT N AND NW T02900225=
KSLR 081422Z AUTO 13007KT 7SM SCT014 BKN070 BKN080 27/23 A3008 RMK
     AO2 T02720228=
KSNK 081426Z AUTO 05006KT 10SM OVC009 22/21 A3013 RMK AO2
     T02220205=
KSWW 081425Z AUTO 03004KT 1 1/4SM OVC002 22/22 A3013 RMK AO1
     T02200216=
KT65 081425Z AUTO 02006KT 7SM RA OVC011 28/25 A2981 RMK AO2
     T02750254=
KT82 081425Z AUTO 07004KT 24/22 A3005 RMK AO1 T02410218=
KTAZ 081425Z AUTO 24003KT 10SM VCTS CLR 27/24 A3004 RMK AO2 LTG
     DSNT S=
KTFP 081425Z AUTO 04003KT 10SM SCT017 BKN039 OVC055 28/26 A2986
     RMK AO2 P0007 T02770261=
KTIP 081425Z AUTO 23005KT 10SM CLR 28/25 A3005 RMK AO2 LTG DSNT SW
     T02820251=
KTYQ 081425Z AUTO 23007KT 10SM CLR 29/22 A3006 RMK AO2=
KUVA 081425Z AUTO 04008KT 10SM CLR 26/23 A2997 RMK AO2
     T02630227=
KVYS 081425Z AUTO 33007KT 10SM BKN014 OVC027 25/22 A3004 RMK AO2
     T02500215=
KXBP 081425Z AUTO 13004KT 10SM BKN031 OVC040 26/23 A3007 RMK AO2
     T02590229=
KBNL 081435Z AUTO 34009KT 10SM CLR 33/19 A2999 RMK AO2=
KCQW 081435Z AUTO 32003KT 4SM HZ CLR 32/19 A2997 RMK AO2=
KLKR 081435Z AUTO 00000KT 7SM CLR 31/23 A3000 RMK AO2=
####018000192####
SAAF31 KWBC 081400 RRD
METAR
DIAP 081430Z 22008KT 190V250 8000 SCT012 SCT070 29/25 Q1013
     NOSIG=
DXXX 081430Z 21011KT 9999 TS FEW016 FEW025CB 28/23 Q1012 BECMG
     4500 TSRA=
####018000080####
SAAL31 DAAA 081330 RRA
METAR DAAT 081330Z 14011KT 100V160 CAVOK 34/02 Q1021=
####018000164####
SPUS80 KWBC 081432
SPECI
KMWT 081426Z AUTO 00000KT 10SM SCT017 BKN060 26/23 A3009 RMK AO2
     TSNO=
KMSN 081430Z 30005KT 9SM BKN012 24/21 A3004 RMK AO2=
####018000095####
SASR31 WSSS 081430
METAR WSSS 081430Z 25001KT 9999 FEW016 SCT280 BKN300 27/24 Q1011
NOSIG=
####018000204####
SAUS99 KWBC 081432
METAR
KBNL 081435Z AUTO 34009KT 10SM CLR 33/19 A2999 RMK AO2=
KCQW 081435Z AUTO 32003KT 4SM HZ CLR 32/19 A2997 RMK AO2=
KLKR 081435Z AUTO 00000KT 7SM CLR 31/23 A3000 RMK AO2=
####018000080####
SALI20 GLRB 081430
METAR GLRB 081430Z 21008KT 9999 BKN020 30/25 Q1012 NOSIG=
####018000083####
SAAL31 KWBC 081300 RRF
METAR
DAAT 081330Z 14011KT 100V160 CAVOK 34/02 Q1021=
####018000074####
SAEW LEJR 081430
METAR LEJR 081430Z 24007KT 210V280 CAVOK 30/17 Q1015=
####018000222####
SAAW34 KWBC 081415 RRB
METAR
OPGD 081430Z NIL=
OPLA 081425Z 14010KT 6000 SCT040 36/23 Q1003=
OPNH 081430Z NIL=
OPPS 081430Z NIL=
OPSK 081430Z NIL=
UTTT 081430Z 36003MPS CAVOK 36/09 Q1009 R08R/CLRD70 NOSIG=
####018000639####
SAGR31 LGAT 081420
METAR LGAD 081420Z 31009KT 9999 FEW020 27/14 Q1014=
METAR LGAV 081420Z 06019KT 9999 FEW025 BKN035 25/13 Q1013 NOSIG=
METAR LGIR 081420Z 02007KT 9999 SCT020 28/24 Q1011 NOSIG=
METAR LGKL 081420Z 28013KT 9999 FEW030 32/09 Q1011=
METAR LGKO 081420Z 31019KT CAVOK 27/18 Q1009=
METAR LGKR 081420Z 30020KT CAVOK 27/12 Q1012 NOSIG=
METAR LGLM 081420Z 03011KT 9999 FEW008 SCT020 22/15 Q1014=
METAR LGRP 081420Z 24015KT 9999 FEW020 29/20 Q1007 NOSIG=
METAR LGSA 081420Z 04012KT 9999 FEW020 31/18 Q1012=
METAR LGSM 081420Z 36009KT 9999 FEW030 30/16 Q1009=
METAR LGTS 081420Z 35016G26KT 9999 FEW030 24/11 Q1016 NOSIG=
####018000080####
SAAL40 DAMM 081330 RRA
METAR DAAT 081330Z 14011KT 100V160 CAVOK 34/02 Q1021=
####018000089####
SAUK37 EGGY 081420 RRA
METAR EGNC 081420Z 23015G27KT 200V260 9999 SCT035 19/09 Q1015=
####018000391####
SAAW31 KWBC 081400 RRB
METAR
LTAC 081420Z 25017KT 9999 -TSRA FEW025CB BKN035 22/16 Q1012 RETS
     BECMG TL1520 03013KT NSW=
LTAF 081420Z /////KT 9999 SCT035 30/20 Q1007 NOSIG=
LTAI 081420Z 18009KT 9999 SCT030 28/22 Q1007 NOSIG=
LTBA 081420Z NIL=
LTBJ 081420Z 34022KT 9999 FEW030 27/14 Q1010 NOSIG=
LTBS 081420Z 20010KT 9999 FEW030 31/20 Q1006 BECMG TL1600
     35009KT=
####018000082####
SAHU31 LHBM 081430
METAR LHBP 081430Z 28006KT 250V340 CAVOK 25/09 Q1020 NOSIG=
####018000866####
SPXX60 KWBC 081432
SPECI
KNFW 081428Z 13005KT 10SM -RA FEW012 BKN024 OVC040 27/23 A3009 RMK
     AO2 RAB18 P0000=
KEND 081425Z 02007KT 10SM BKN010 BKN080 24/22 A3010 RMK AO2A=
KFSI 081426Z AUTO 01007KT 10SM BKN015 27/22 A3007 RMK AO2 CIG
     012V019 SLP165=
KGRK 081427Z 05007KT BKN008 BKN017 27/24 A3002=
KHLR 081424Z AUTO 07005KT 9SM SCT009 BKN014 OVC060 26/ A3003 RMK
     AO2 T0261 $=
KHOP 081426Z AUTO 28007KT 10SM CLR 31/23 A3009 RMK AO2
     DZB1416E1426 SLP183=
KLTS 081420Z 33006KT 10SM SCT006 SCT010 BKN015 BKN075 23/23 A3010
     RMK AO2A RAE1409DZB1409E1420 SLP177 VISNO RWY35L CHINO RWY35L
     $=
KTIK 081423Z AUTO 36005KT 10SM SCT009 25/22 A3007 RMK AO2 SLP172
     $=
PAED 081428Z AUTO 00000KT 10SM -DZ SCT065 SCT080 12/11 A2999 RMK
     AO2 DZB1428 SLP156 $=
PATC SP 1435 AWOS CLR BLO 120 10 46/43/0210/013=
####018000444####
SABX31 KWBC 081420 RRB
METAR
EBBE 081425Z AUTO 24006KT 9999 // SKC 31/10 Q1018 BLU=
EBBL 081425Z 27006KT 9999 FEW060 BKN220 33/10 Q1018 BLU BLU=
EBCV 081425Z AUTO 20007KT 9999 // SKC 30/11 Q1019 BLU=
EBDT 081425Z 16006KT 9999 FEW070 BKN220 32/10 Q1018 BLU=
EBFN 081425Z VRB03KT 9999 FEW042 BKN200 25/17 Q1019 BLU BLU=
EBFS 081425Z 26005KT 9999 FEW250 30/09 Q1020 BLU BLU=
EBLB 081425Z 27005KT 9999 FEW220 28/09 Q1021 BLU BLU=
####018000169####
SAUS80 KWBC 081432
METAR
KRFI 081425Z AUTO 13003KT 5SM HZ BKN011 BKN110 27/24 A3006 RMK AO2
     T02730239=
KSOA 081420Z AUTO 07006KT 8SM 25/22 A3011 RMK AO2=
####018001521####
SPUS70 KWBC 081432
SPECI
KBMI 081429Z 26008KT 10SM FEW012 BKN017 BKN065 25/23 A3007 RMK AO2
     $=
KFST 081428Z AUTO 36005KT 9SM SCT006 BKN013 OVC055 22/21 A3012 RMK
     AO2 RAE27 P0000=
KGUY 081428Z AUTO 02009KT 6SM -RA BR SCT008 OVC012 19/18 A3024 RMK
     AO2 RAB1358 P0000=
KISP 081428Z 14008KT 10SM BKN021 BKN130 BKN250 28/19 A3004 RMK
     AO2=
KMKO 081428Z AUTO 00000KT 7SM -RA FEW003 OVC010 24/23 A3007 RMK
     AO2 CIG 007V012 P0000=
KAUS 081429Z 07009KT 3SM RA BR SCT009 BKN015 OVC024 26/24 A2999
     RMK AO2 P0037=
KAZO 081429Z 00000KT 3SM BR SCT020 BKN065 OVC080 24/23 A3004 RMK
     AO2 RAB1359E23 P0002=
KCMI 081429Z 24005KT 10SM BKN019 BKN095 28/23 A3005 RMK AO2=
KGRB 081429Z 32005KT 10SM BKN019 24/21 A3000 RMK AO2=
KLNK 081429Z 36008KT 10SM BKN013 22/18 A3018 RMK AO2=
KLVJ 081429Z AUTO 19008KT 9SM VCTS -RA FEW021 BKN034 OVC047 26/23
     A3000 RMK AO2 LTG DSNT S TSB23RAB20 PRESRR P0000=
KPWK 081429Z 27006KT 10SM SCT013 BKN025 OVC055 26/22 A3004 RMK
     AO2=
KARA 081430Z 09008KT 10SM SCT015 SCT020 28/25 A3004 RMK AO2=
KDTO 081428Z 15007KT 10SM SCT014 BKN021 BKN060 27/23 A3005 RMK
     AO2=
KDFW 081431Z 12006KT 10SM -RA BKN009 BKN014 OVC060 26/24 A3005 RMK
     AO2 RAB08 CIG 006V012 P0000=
KLAA 081430Z AUTO 11005KT 10SM BKN007 OVC013 17/16 A3029 RMK AO2
     RAE02 CIG 005V009 P0000=
KLHX 081430Z AUTO 00000KT 10SM BKN012 BKN021 OVC028 18/14 A3031
     RMK AO2 PNO=
KPNC 081430Z AUTO 02009KT 10SM BKN011 25/22 A3009 RMK AO2=
####018000520####
SAAW41 KWBC 081450 RRC
METAR
LTAJ 081420Z 24014KT CAVOK 34/16 Q1007 NOSIG=
LTAN 081420Z 32009KT 9999 SCT040 33/07 Q1009 NOSIG=
LTAU 081420Z 28008KT 250V310 9999 SCT040 33/11 Q1008 TEMPO FM1600
     -TSRA=
LTCC 081420Z 15008KT 110V190 CAVOK 40/02 Q1005 NOSIG=
LTCE 081420Z 11004KT 040V140 9999 SCT030 30/09 Q1016 NOSIG=
LTCG 081420Z 06006KT 020V080 9999 FEW015 SCT035 BKN100 27/22 Q1009
     NOSIG=
LTCI 081420Z VRB02KT CAVOK 28/09 Q1015 NOSIG=
LTFE 081420Z 26020KT 9999 FEW035 31/18 Q1008 NOSIG=
####018000087####
SAMM31 KWBC 081400 RRC
METAR
LCEN 081420Z 15011KT 9999 SCT025 32/18 Q1007 NOSIG=
####018000158####
SAPA31 KWBC 081400 RRD
METAR
AYPY 081400Z 18016KT 9999 BKN040 25/22 Q1010=
PGUM 081430Z 12008KT 10SM BKN022 BKN028 BKN037 28/24 A2990 RMK
     AO2=
####018000086####
SAPA32 KWBC 081400 RRA
METAR
NTAA 081430Z AUTO VRB02KT 9999NDV NCD 25/22 Q1015=
####018000094####
SARA31 KWBC 081400 RRH
METAR
UTTT 081430Z 36003MPS CAVOK 36/09 Q1009 R08R/CLRD70 NOSIG=
####018000096####
SPUS42 KWBC 081432
SPECI
KAUS 081429Z 07009KT 3SM RA BR SCT009 BKN015 OVC024 26/24 A2999=
####018000185####
SAUK31 KWBC 081420 RRA
METAR
EGLF 081420Z 26007KT 9999 SCT030 24/15 Q1018=
EGNH 081420Z 24011KT 9999 FEW031 19/11 Q1017=
EGNJ 081420Z 23014KT 200V260 9999 SCT040 24/08 Q1017=
####018000241####
SAUK32 KWBC 081420 RRA
METAR
EGPA 081420Z 24012KT 9999 -RADZ FEW020CB SCT028 BKN035 14/12 Q1009
     RERA=
EGPC 081420Z 21014G24KT 170V240 9999 SHRA SCT020 16/11 Q1009=
EGSH 081420Z 23009KT 170V280 9999 SCT034 26/13 Q1018 NOSIG=
####018000189####
SAUK41 KWBC 081420 RRB
METAR
EGAE 081420Z 21011KT 9999 FEW022 19/10 Q1012=
EGBE 081420Z NIL=
EGBJ 081420Z 23008KT 9999 FEW045 23/08 Q1018=
EGDL 081420Z NIL=
EGNC 081420Z NIL=
####018000094####
SAUK41 KWBC 081350 RRI
METAR
EGDM 081350Z 21011KT 9999 SCT033 BKN200 24/14 Q1018 NOSIG=
####018000434####
SAUK42 KWBC 081420 RRA
METAR
EGPC 081420Z 21014G24KT 170V240 9999 SHRA SCT020 16/11 Q1009=
EGPE 081420Z 21020KT 9999 FEW018 SCT048 17/09 Q1010=
EGPL 081420Z 22020KT 9999 FEW018 15/12 Q1009=
EGPM 081420Z 22022KT 9999 FEW029 16/10 Q1007=
EGPN 081420Z 24020KT 9999 SCT045 19/11 Q1012=
EGPO 081420Z 22025KT 9999 VCSH FEW022CB SCT034 18/10 Q1007=
EGPU 081420Z NIL=
EGSC 081420Z 22008KT 150V260 9999 FEW042 24/12 Q1018=
####018000133####
SAXX61 KWBC 081400 RRG
METAR
LTAC 081420Z 25017KT 9999 -TSRA FEW025CB BKN035 22/16 Q1012 RETS
     BECMG TL1520 03013KT NSW=
####018000093####
SPUS43 KWBC 081432
SPECI
KAZO 081429Z 00000KT 3SM BR SCT020 BKN065 OVC080 24/23 A3004=
####018000965####
SAXX99 KWBC 081400 RRW
METAR
EGCN 081420Z 25014KT 9999 FEW049 23/09 Q1018=
EGEC 081420Z NIL=
EGNR 081420Z 24011KT 9999 SCT040 21/09 Q1017=
EGPI 081420Z NIL=
EGVN 081420Z NIL=
EGWU 081420Z NIL=
LBGO 081430Z 28002MPS 6000 -RA SCT010 BKN025 OVC040 16/15 Q1018
     NOSIG=
LHDC 081415Z 35008KT 9999 FEW046 24/12 Q1020 NOSIG=
LHKE 081415Z 30004MPS CAVOK 26/12 Q1020 NOSIG RMK BLU=
LHPP 081415Z 31006KT CAVOK 24/13 Q1022 NOSIG=
LHSN 081415Z 30001MPS CAVOK 24/11 Q1020 NOSIG RMK BLU=
LHUD 081415Z 34007KT 9999 FEW040 24/13 Q1021=
LTAZ 081420Z NIL=
LTBR 081420Z 31014KT 9999 SCT035TCU BKN100 23/18 Q1012 TEMPO
     -TSRA=
LTBU 081420Z 31015KT 9999 SCT025TCU BKN100 16/14 Q1014=
LTCF 081420Z 10012KT CAVOK 29/07 Q1017=
LTFH 081420Z 05009KT 020V090 9999 SCT036 BKN100 27/22 Q1009
     NOSIG=
LTFJ 081420Z 36013KT 9999 BKN030 22/18 Q1011 NOSIG=
UBBN 081430Z 12014KT 9999 NSC 36/09 Q1007 R14R/CLRD60 NOSIG RMK
     G/O QFE681=
####018000077####
SPUS43 KWBC 081432
SPECI
KGRB 081429Z 32005KT 10SM BKN019 24/21 A3000=
####018000087####
SAZA31 KWBC 081400 RRA
METAR
FAJS 081430Z 06009KT 9999 FEW040 15/02 Q1032 NOSIG=
####018000081####
SALI20 GLRB 081430
METAR GLRB 081430Z 21008KT 9999 BKN020 30/25 Q1012 NOSIG=
####018000080####
SANC01 NWWM 081430
METAR NWWM 081430Z AUTO 33003KT 9999NDV NCD 16/15 Q1014=
####018000207####
SASQ31 LZIB 081430
METAR LZIB 081430Z 33013KT 290V010 CAVOK 25/07 Q1021=
METAR LZKZ 081430Z 01010KT 340V050 CAVOK 24/06 Q1020 NOSIG=
METAR LZTT 081430Z 08012KT 050V120 9999 FEW060 21/07 Q1022 NOSIG=
####018000090####
SAUK37 EGGY 081420 RRA
METAR EGNC 081420Z 23015G27KT 200V260 9999 SCT035 19/09 Q1015=
####018000083####
SAHU31 LHBM 081430
METAR LHBP 081430Z 28006KT 250V340 CAVOK 25/09 Q1020 NOSIG=
####018000086####
SANC01 NWWL 081430
METAR NWWL 081430Z AUTO 00000KT 9999NDV BKN041/// 13/13 Q1015=
####018000080####
SANC01 NWWU 081430
METAR NWWU 081430Z AUTO 20003KT 9999NDV NCD 17/17 Q1015=
####018000083####
SPAU32 YBBN 081430
SPECI YBMA 081430Z AUTO 00000KT 7000NDV // NCD 07/06 Q1020=
####018000096####
SPUS52 KWBC 081432
SPECI
KAUS 081429Z 07009KT 3SM RA BR SCT009 BKN015 OVC024 26/24 A2999=
####018000077####
SPUS53 KWBC 081432
SPECI
KLNK 081429Z 36008KT 10SM BKN013 22/18 A3018=
####018000076####
SPUS53 KWBC 081432
SPECI
KMSN 081430Z 30005KT 9SM BKN012 24/21 A3004=
####018000075####
SACN50 CWAO 081430
VOY SA 1430 AUTO8 M M M M/12/07/3501/M/M M 82MM=

####018000075####
SACN50 CWAO 081415
VOK SA 1415 AUTO8 M M M M/14/07/0701/M/M M 88MM=

####018000075####
SACN50 CWAO 081415
VOY SA 1415 AUTO8 M M M M/12/08/0000/M/M M 76MM=

####018000283####
SACN98 CWAO 081400 RRE
XAG SA 1400 AUTO8 M M M M/15/14/2204/M/ M 32MM=
XAJ SA 1400 AUTO8 M M M M/17/14/2505/M/ M 20MM=
XBA SA 1400 AUTO8 M M M M/17/14/2202/M/ M 05MM=
XCS SA 1400 AUTO8 M M M M/16/12/2106/M/ M 79MM=
XYH SA 1400 AUTO8 M M M 134/14/12/3402/M/ 8010 05MM=

####018000075####
SACN50 CWAO 081415
VOV SA 1415 AUTO8 M M M M/12/08/0201/M/M M 87MM=

####018000074####
SACN50 CWAO 081430
VOJ SA 1430 AUTO8 M M M M/18/M/0502/M/M M 2MMM=

####018000075####
SACN50 CWAO 081430
VOF SA 1430 AUTO8 M M M M/16/08/3501/M/M M 36MM=

####018000208####
SACN96 CWAO 081400 RRD
WYF SA 1400 AUTO8 M M M 102/06/05/2604/M/ 5001 90MM=
WZV SA 1400 AUTO8 M M M M/M/M/3217/M/M PK WND 3219 1341Z 1004 MMMM=
XBD SA 1400 AUTO8 M M M 157/17/12/2204/M/ 0000 78MM=

####018000797####
SACN59 CWAO 081400 RRE
PFI SA 1400 AUTO8 M M M M/15/12/2104/M/ M 29MM=
PRO SA 1400 AUTO8 M M M M/15/13/1903/M/ M 17MM=
PRY SA 1400 AUTO8 M M M M/15/09/2505/M/ M 82MM=
PSV SA 1400 AUTO8 M M M M/15/11/2107/M/ M 34MM=
XAK SA 1400 AUTO8 M M M M/18/12/2006/M/ M 06MM=
XFM SA 1400 AUTO8 M M M M/16/11/1904/M/ M 25MM=
XHD SA 1400 AUTO8 M M M M/16/12/2507/M/ PK WND 3317 1300Z M 29MM=
XMO SA 1400 AUTO8 M M M M/15/11/2005/M/ M 14MM=
XOL SA 1400 AUTO8 M M M M/15/10/2409/M/ M 85MM=
XPL SA 1400 AUTO8 M M M M/15/12/1603/M/ M 93MM=
XSL SA 1400 AUTO8 M M M M/17/12/1802/M/M M 41MM=
XSP SA 1400 AUTO8 M M M M/14/12/1804/M/ M 50MM=
XVM SA 1400 AUTO8 M M M M/15/12/3307/M/ M 80MM=
ZOL SA 1400 AUTO8 M M M M/18/12/2002/M/ M 70MM=
ZPS SA 1400 AUTO8 M M M M/16/10/2507/M/ M 20MM=

####018000252####
SACN94 CWAO 081400 RRE
WQO SA 1400 AUTO8 M M M M/12/M/0307/M/M M 1MMM=
WQR SA 1400 AUTO8 M M M M/12/12/1408/M/M M 22MM=
WQS SA 1400 AUTO8 M M M M/12/M/3616/M/ PK WND 3518 1354Z M 4MMM=
WRR SA 1400 AUTO8 M M M 188/06/06/3302/M/M 3003 45MM=

####018000080####
SACN87 CWAO 081400 RRB
WWS SA 1400 AUTO8 M M M 144/17/13/2811/M/ M 86MM=

####018000075####
SACN50 CWAO 081430
VOV SA 1430 AUTO8 M M M M/14/09/0701/M/M M 96MM=

####018000135####
SACN78 CWAO 081400 RRD
WNB SA 1400 AUTO8 M M M M/M/M/MM07/M/M 8002 MMMM=
WPS SA 1400 AUTO8 M M M 155/25/M/1909/M/M 8004 8MMM=

####018000083####
SACN97 CWAO 081400 RRD
XTV SA 1400 AUTO8 M M M 177/07/M/2810/M/M 3004 6MMM=

####018000083####
SACN90 CWAO 081400 RRD
WEC SA 1400 AUTO8 M M M 128/21/15/2005/M/ 1001 79MM=

####018000096####
SPUS72 KWBC 081432
SPECI
KAUS 081429Z 07009KT 3SM RA BR SCT009 BKN015 OVC024 26/24 A2999=
####018000093####
SPUS73 KWBC 081432
SPECI
KAZO 081429Z 00000KT 3SM BR SCT020 BKN065 OVC080 24/23 A3004=
####018000081####
SAMJ41 LWSK 081430
METAR LWSK 081430Z 33005KT 9999 BKN040 19/11 Q1020 NOSIG=
####018000555####
SABN32 OBBI 081400
METAR OMAA 081400Z 34009KT CAVOK 40/21 Q0998 A2948 NOSIG=
METAR OMAD 081400Z NIL=
METAR OMAL 081400Z 19006KT CAVOK 34/25 Q1002 A2959=
METAR OMDB 081400Z 01012KT 7000 NSC 40/22 Q0998 NOSIG=
METAR OMDW 081400Z 36013KT 9999 FEW030 38/23 Q0999 NOSIG=
METAR OMFJ 081400Z 12007KT 7000 NSM 34/24 Q1001 A2956=
METAR OMRK 081400Z 34008KT CAVOK 40/35 Q0998 A2947=
METAROMSJ 081400Z 35006KT 7000 NSC 40/21 Q0999=
METAR OOMS 081400Z 0'005KT 6000 SCT025 BKN10, 33/27
Q1000 NOSIG=
METAR OOSA 081400Z AUTO 17005KT 28/23 Q1003=
####018000084####
SPUS73 KWBC 081432
SPECI
KCMI 081429Z 24005KT 10SM BKN019 BKN095 28/23 A3005=
####018000077####
SPUS73 KWBC 081432
SPECI
KGRB 081429Z 32005KT 10SM BKN019 24/21 A3000=
####018000077####
SPUS73 KWBC 081432
SPECI
KLNK 081429Z 36008KT 10SM BKN013 22/18 A3018=
####018000076####
SPUS73 KWBC 081432
SPECI
KMSN 081430Z 30005KT 9SM BKN012 24/21 A3004=
####018000076####
SPUS81 KWBC 081432
SPECI
KMSN 081430Z 30005KT 9SM BKN012 24/21 A3004=
####018000505####
SPUS17 KAWN 081432 RRD
SPECI KEND 081425Z 02007KT 10SM BKN010 BKN080 24/22 A3010 RMK AO2A=
SPECI KFSI 081426Z AUTO 01007KT 10SM BKN015 27/22 A3007 RMK AO2 CIG
      012V019 SLP165=
SPECI KFSI 081429Z AUTO 04007KT 10SM SCT015 27/22 A3007 RMK AO2 SLP165=
SPECI KGRK 081427Z 05007KT BKN008 BKN017 27/24 A3002=
SPECI KHLR 081424Z AUTO 07005KT 9SM SCT009 BKN014 OVC060 26/ A3003
      RMK AO2 T0261 $=
SPECI KHOP 081426Z AUTO 28007KT 10SM CLR 31/23 A3009 RMK AO2 DZB1416E1426
      SLP183=
####018001579####
SAEW KAWN 081400 RRL
METAR EBBE 081425Z AUTO 24006KT 9999 // SKC 31/10 Q1018 BLU=
METAR EBBL 081425Z 27006KT 9999 FEW060 BKN220 33/10 Q1018 BLU BLU=
METAR EBCV 081425Z AUTO 20007KT 9999 // SKC 30/11 Q1019 BLU=
METAR EBDT 081425Z 16006KT 9999 FEW070 BKN220 32/10 Q1018 BLU=
METAR EBFN 081425Z VRB03KT 9999 FEW042 BKN200 25/17 Q1019 BLU BLU=
METAR EBFS 081425Z 26005KT 9999 FEW250 30/09 Q1020 BLU BLU=
METAR EBLB 081425Z 27005KT 9999 FEW220 28/09 Q1021 BLU BLU=
METAR EBLH 081425Z 25008KT 9999 FEW250 32/11 Q1019 BLU BLU=
METAR EDHL 081420Z 27006KT 220V310 CAVOK 29/13 Q1018 RMK V=
METAR EDLW 081420Z 25008KT 210V290 CAVOK 31/11 Q1019 RMK ATIS W=
METAR EDNY 081420Z VRB03KT CAVOK 30/11 Q1021 RMK ATIS V=
METAR EHBK 081425Z AUTO VRB03KT 9999NDV NCD 31/11 Q1018 NOSIG=
METAR EHDL 081425Z AUTO 17005KT 9999NDV NCD 31/13 Q1018 BLU=
METAR EHGR 081425Z AUTO 08004KT 9999NDV FEW360 31/11 Q1018 BLU BLU=
METAR EHKD 081425Z AUTO 25009KT 9999NDV BKN075/// BKN080/// 21/16 Q1019
      BLU BLU=
METAR EHLW 081425Z AUTO 24008KT 9999NDV OVC160 25/17 Q1018 BLU BLU=
METAR EHRD 081425Z 30006KT 210V020 CAVOK 27/14 Q1018 NOSIG=
METAR EHVK 081425Z AUTO 22005G18KT 9999NDV FEW270 32/11 Q1018 BLU BLU=
METAR EHVL 081425Z AUTO 26011KT 9999NDV FEW077 BKN089 BKN160 20/16
      Q1019 BLU=
METAR EHWO 081425Z AUTO 28007KT 9999NDV FEW380 29/14 Q1018 BLU=
METAR ETND 081420Z 22006KT 9999 FEW070 BKN280 30/10 Q1018 BLU/=
METAR ETNS 081420Z 26010KT 9999 BKN110 BKN190 27/09 Q1019 BLU BLU=
METAR ETNT 081420Z 29009KT 9999 SCT060 SCT120 27/15 Q1018 BLU/BLU/=
####018000520####
SAXX70 KAWN 081400 RRP
METAR KQEN 081430Z AUTO 25007KT 5SM BR BKN070 BKN100 19/16 A3041 RMK
      A02=
METAR KQEP 081430Z AUTO 00000KT 5SM -RA OVC055 21/18 A2989 RMK A02=
METAR KQER 081430Z AUTO 12002KT 2SM -SHRA BR SCT003 21/19 A2991 RMK
      A02=
METAR KQES 081430Z AUTO 19003KT 5SM BR FEW110 FEW130 21/19 A2986 RMK
      A02=
METAR KQEY 081430Z AUTO 19001KT 7SM -SHRA FEW046 BKN060 23/19 A2962
      RMK A02=
METAR KQEV 081440Z AUTO 24001KT 5SM -SHRA SCT043 BKN080 21/18 A2981
      RMK A02=
####018000086####
SAMT20 GQNN 081430
METAR GQNN 081430Z 21012KT 180V240 6000 NSC 32/21 Q1011 NOSIG=
####018000360####
SAMC31 GMMC 081430
METAR GMME 081430Z 33008KT 280V020 6000 SCT010 SCT016 26/19 Q1016
NOSIG=
METAR GMMN 081430Z 02010KT 340V050 CAVOK 29/19 Q1016 NOSIG=
METAR GMMX 081430Z 30005KT 200V350 8000 FEW026TCU 38/15 Q1016 NOSIG=
METAR GMTT 081430Z 27007KT 240V300 8000 FEW016 SCT100 27/19 Q1016
NOSIG=
METAR GMAD 081430Z NIL=
METAR GMFF 081430Z NIL=
####018000075####
SACN50 CWAO 081430
VWB SA 1430 AUTO8 M M M M/20/06/MMMM/M/M M 96MM=

####018000075####
SACN50 CWAO 081430
VOU SA 1430 AUTO8 M M M M/21/11/3402/M/M M 22MM=

####018000075####
SACN50 CWAO 081430
VOK SA 1430 AUTO8 M M M M/14/07/0501/M/M M 33MM=

####018000075####
SACN50 CWAO 081430
WHC SA 1430 AUTO8 M M M M/19/13/MMMM/M/M M 03MM=

####018000075####
SACN94 CWAO 081430
WSK SA 1430 AUTO8 M M M M/19/10/3304/M/M M 90MM=

####018000075####
SACN50 CWAO 081430
VOD SA 1430 AUTO8 M M M M/12/05/1003/M/M M 41MM=

####018000192####
SAUS44 KCRP 081432
MTRCRP
SPECI KCRP 081431Z 03013KT 2 1/2SM -TSRA BR FEW006 BKN020CB BKN040 
26/25 A2988 RMK AO2 TSB31RAB1356 TS OHD-N MOV NW CB E-SE MOV NW TCU 
DSNT NE S SW P0019
####018000107####
SAAK41 KNKA 081432
SPECI PAWD 081430Z AUTO 00000KT 10SM BKN023 OVC055 11/09 A2998 RMK 
    AO2 TSNO=
####018000093####
SANI20 DNMM 081430
METAR DNMM 081430Z 24016KT 9999 BKN012 FEW020CB 28/25 Q1014 NOSIG=

####018000075####
SACN88 CWAO 081430
WZU SA 1430 AUTO7 M M M M/21/19/2208/M/M M 44MM=

####018001701####
SAEU KAWN 081400 RRX
METAR EGLF 081420Z 26007KT 9999 SCT030 24/15 Q1018=
METAR EGNC 081420Z 23015G27KT 200V260 9999 SCT035 19/09 Q1015=
METAR EPWR 081430Z 25004KT 170V340 CAVOK 26/09 Q1022=
METAR LBBG 081430Z 27005MPS 8000 RA FEW013 OVC036 17/16 Q1014 WS R22
      NOSIG=
METAR LBGO 081430Z 28002MPS 6000 -RA SCT010 BKN025 OVC040 16/15 Q1018
      NOSIG=
METAR LBPD 081430Z 26006MPS 9999 -RA OVC050 16/14 Q1017 NOSIG=
METAR LBSF 081430Z 28007MPS 9999 FEW035 BKN050 17/12 Q1019 NOSIG=
METAR LBWN 081430Z 30005MPS 270V340 9999 FEW030 SCT045 20/16 Q1013
      NOSIG=
METAR LEJR 081430Z 24007KT 210V280 CAVOK 30/17 Q1015=
METAR LGAD 081420Z 31009KT 9999 FEW020 27/14 Q1014=
METAR LGIR 081420Z 02007KT 9999 SCT020 28/24 Q1011 NOSIG=
METAR LGKL 081420Z 28013KT 9999 FEW030 32/09 Q1011=
METAR LGKO 081420Z 31019KT CAVOK 27/18 Q1009=
METAR LGKR 081420Z 30020KT CAVOK 27/12 Q1012 NOSIG=
METAR LGLM 081420Z 03011KT 9999 FEW008 SCT020 22/15 Q1014=
METAR LGRP 081420Z 24015KT 9999 FEW020 29/20 Q1007 NOSIG=
METAR LGSA 081420Z 04012KT 9999 FEW020 31/18 Q1012=
METAR LGSM 081420Z 36009KT 9999 FEW030 30/16 Q1009=
METAR LGTS 081420Z 35016G26KT 9999 FEW030 24/11 Q1016 NOSIG=
METAR LHBP 081430Z 28006KT 250V340 CAVOK 25/09 Q1020 NOSIG=
METAR LHDC 081415Z 35008KT 9999 FEW046 24/12 Q1020 NOSIG=
METAR LHKE 081415Z 30004MPS CAVOK 26/12 Q1020 NOSIG RMK BLU=
METAR LHPA 081415Z 33004MPS CAVOK 25/10 Q1022 NOSIG RMK BLU=
METAR LHSN 081415Z 30001MPS CAVOK 24/11 Q1020 NOSIG RMK BLU=
METAR LWSK 081430Z 33005KT 9999 BKN040 19/11 Q1020 NOSIG=
METAR LZIB 081430Z 33013KT 290V010 CAVOK 25/07 Q1021=
METAR LZTT 081430Z 08012KT 050V120 9999 FEW060 21/07 Q1022 NOSIG=
####018001562####
SAUS20 KNKA 081432
METAR K1F0 081427Z AUTO 00000KT 25/24 A3005 RMK AO2 PWINO=
METAR K36U 081435Z AUTO 00000KT 10SM CLR 15/07 A3025 RMK AO2=
METAR KADH 081430Z AUTO 00000KT 10SM BKN006 24/22 A3007 RMK AO2=
METAR KALM 081430Z AUTO 18006KT 10SM CLR 22/14 A3018 RMK AO2=
METAR KATS 081430Z AUTO 02009KT 10SM -RA BKN027 OVC035 19/18 
     A3021 RMK AO2=
METAR KCHK 081431Z AUTO 01005KT 4SM BR OVC002 23/23 A3007 RMK AO2=
METAR KCQB 081430Z AUTO 01003KT 10SM 24/24 A3007 RMK AO2 TSNO=
METAR KDUC 081432Z AUTO 05007KT 10SM SCT017 27/23 A3007 RMK AO2=
METAR KGCM 081435Z AUTO 06005KT 10SM BKN007 BKN010 OVC100 24/23 
     A3009 RMK AO2=
METAR KGMJ 081434Z AUTO 00000KT OVC008 26/25 A3008 RMK AO2 P0001 
     PWINO=
METAR KIDP 081430Z AUTO 36005KT 10SM SCT008 BKN031 BKN038 24/22 
     A3008 RMK AO2=
METAR KJSV 081430Z AUTO 00000KT 10SM BKN032 BKN046 OVC060 26/23 
     A3007 RMK AO2=
METAR KJWG 081430Z AUTO 04008KT 10SM BKN008 BKN080 23/23 A3013 
     RMK AO2=
SPECI KMSN 081430Z 30005KT 9SM BKN012 24/21 A3004 RMK AO2=
METAR KOKM 081431Z AUTO 07003KT 7SM SCT004 BKN009 OVC033 26/25 
     A3006 RMK AO1=
METAR KONM 081427Z AUTO 34006KT 10SM SCT090 20/15 A3027 RMK AO2 
     T01980148=
SPECI KPIL 081431Z AUTO 31008KT 9SM -RA FEW007 SCT013 BKN019 28/26 
    A2976 RMK AO2 P0000=
SPECI KRAC 081431Z AUTO 29005KT 10SM SCT015 26/21 A3003 RMK AO2=
SPECI KSET 081431Z AUTO 00000KT 10SM FEW006 BKN012 27/24 A3005 RMK 
    AO2=
SPECI KVIH 081431Z AUTO 00000KT 10SM SCT005 BKN017 OVC060 26/23 
    A3008 RMK AO2=
####018001078####
SAUS99 KWBC 081433
METAR
K1F0 081427Z AUTO 00000KT 25/24 A3005 RMK AO2 PWINO=
K36U 081435Z AUTO 00000KT 10SM CLR 15/07 A3025 RMK AO2=
KADH 081430Z AUTO 00000KT 10SM BKN006 24/22 A3007 RMK AO2=
KALM 081430Z AUTO 18006KT 10SM CLR 22/14 A3018 RMK AO2=
KATS 081430Z AUTO 02009KT 10SM -RA BKN027 OVC035 19/18 A3021 RMK
     AO2=
KCHK 081431Z AUTO 01005KT 4SM BR OVC002 23/23 A3007 RMK AO2=
KCQB 081430Z AUTO 01003KT 10SM 24/24 A3007 RMK AO2 TSNO=
KDUC 081432Z AUTO 05007KT 10SM SCT017 27/23 A3007 RMK AO2=
KGCM 081435Z AUTO 06005KT 10SM BKN007 BKN010 OVC100 24/23 A3009
     RMK AO2=
KGMJ 081434Z AUTO 00000KT OVC008 26/25 A3008 RMK AO2 P0001
     PWINO=
KIDP 081430Z AUTO 36005KT 10SM SCT008 BKN031 BKN038 24/22 A3008
     RMK AO2=
KJSV 081430Z AUTO 00000KT 10SM BKN032 BKN046 OVC060 26/23 A3007
     RMK AO2=
KJWG 081430Z AUTO 04008KT 10SM BKN008 BKN080 23/23 A3013 RMK
     AO2=
KOKM 081431Z AUTO 07003KT 7SM SCT004 BKN009 OVC033 26/25 A3006 RMK
     AO1=
KONM 081427Z AUTO 34006KT 10SM SCT090 20/15 A3027 RMK AO2
     T01980148=
####018000473####
SPUS99 KWBC 081433
SPECI
PAWD 081430Z AUTO 00000KT 10SM BKN023 OVC055 11/09 A2998 RMK AO2
     TSNO=
KMSN 081430Z 30005KT 9SM BKN012 24/21 A3004 RMK AO2=
KPIL 081431Z AUTO 31008KT 9SM -RA FEW007 SCT013 BKN019 28/26 A2976
     RMK AO2 P0000=
KRAC 081431Z AUTO 29005KT 10SM SCT015 26/21 A3003 RMK AO2=
KSET 081431Z AUTO 00000KT 10SM FEW006 BKN012 27/24 A3005 RMK
     AO2=
KVIH 081431Z AUTO 00000KT 10SM SCT005 BKN017 OVC060 26/23 A3008
     RMK AO2=
####018000508####
SAGR32 LGAT 081420
METAR LGAL 081420Z 00000KT 9999 FEW020TCU SCT025 BKN080 20/16 Q1015=
METAR LGEL 081420Z 36013G23KT 9999 FEW025 BKN080 27/12 Q1012=
METAR LGKV 081420Z 35005KT 9999 SCT030TCU BKN100 18/17 Q1014=
METAR LGMT 081420Z 36020G32KT 310V020 9999 SCT030 27/18 Q1011=
METAR LGPZ 081420Z 26013KT 9999 FEW025 29/18 Q1013 NOSIG=
METAR LGRX 081420Z 26009KT 9999 FEW020 27/16 Q1012 NOSIG=
METAR LGSK 081420Z NIL=
METAR LGSR 081420Z 02013KT 9999 FEW025 26/18 Q1010 NOSIG=
METAR LGZA 081420Z NIL=
####018000072####
SAGR32 LGAT 081420 RRA
METAR LGZA 081420Z 32016KT CAVOK 28/11 Q1012=
####018000274####
SAGR33 LGAT 081420
METAR LGHI 081420Z NIL=
METAR LGKC 081420Z NIL=
METAR LGKF 081420Z NIL=
METAR LGKP 081420Z NIL=
METAR LGKZ 081420Z NIL=
METAR LGMK 081420Z 36022KT 9999 FEW015 24/17 Q1012=
METAR LGNX 081420Z NIL=
METAR LGPA 081420Z NIL=
METAR LGSO 081420Z NIL=
####018000090####
SAUZ31 UTTW 081430
METAR UTSA 081430Z 01004MPS 9999 NSC 36/06 Q1008 R88/CLRD70
NOSIG=
####018000086####
SAUZ31 UTTW 081430
METAR UTSB 081430Z 01003MPS CAVOK 35/10 Q1007 R01/CLRD70 NOSIG=
####018000352####
SAMC31 GMMC 081430
METAR GMME 081430Z 33008KT 280V020 6000 SCT010 SCT016 26/19 Q1016
NOSIG=
METAR GMMN 081430Z 02010KT 340V050 CAVOK 29/19 Q1016 NOSIG=
METAR GMMX 081430Z 30005KT 200V350 8000 FEW026TCU 38/15 Q1016 NOSIG=
METAR GMTT 081430Z 27007KT 240V300 8000 FEW016 SCT100 27/19 Q1016
NOSIG=
METAR GMAD 081430Z NIL=
METAR GMFF 081430Z NIL=
####018000820####
SAUR30 UKMS 081430
METAR UKBB 081430Z 33003MPS 9999 BKN040 26/17 Q1014
         88CLRD95 NOSIG=
METAR UKHH 081430Z VRB02MPS 9999 SCT040 BKN200 30/12
         Q1014 080///65 NOSIG=
METAR UKOO 081430Z 36004MPS CAVOK 27/14 Q1014
         34090070 NOSIG=
METAR UKDE 081430Z VRB02MPS CAVOK 30/17 Q1013
         20CLRD70 NOSIG=
METAR UKDD 081430Z VRB01MPS 9999 FEW033TCU SCT200
         29/16 Q1014 08090070 NOSIG=
METAR COR UKFF 081430Z 27005MPS 250V310 9999 FEW033CB
         SCT050 28/18 Q1012 01010070 NOSIG=
METAR UKLL 081430Z 34002MPS 280V060 9999 BKN036 20/12
          Q1021 31210365 NOSIG=
METAR UKCC 081430Z 00000MPS CAVOK 29/16 Q1014
         08090070 NOSIG=
METAR UKDR 081430Z 29004MPS 9999 VCTS SCT033CB BKN200
          26/18 Q1014 1809//70 TEMPO 30006G14MPS
         3100 -TSRAGR BKN015CB=
####018000089####
SASN31 ESWI 081420 RRA
METAR ESMT 081420Z VRB05KT 4000 -RA FEW030 BKN060 18/16 Q1020=
####018000091####
SPPA41 KWBC 081433
SPECI
PGUM 081430Z 12008KT 10SM BKN022 BKN028 BKN037 28/24 A2990=
####018000091####
SPPQ31 KWBC 081433
SPECI
PGUM 081430Z 12008KT 10SM BKN022 BKN028 BKN037 28/24 A2990=
####018000095####
SAPA41 KWBC 081400 RRB
METAR
PGUM 081430Z 12008KT 10SM BKN022 BKN028 BKN037 28/24 A2990=
####018000099####
SPPA31 KWBC 081433
SPECI
PGUM 081430Z 12008KT 10SM BKN022 BKN028 BKN037 28/24 A2990 RMK AO2=
####018000095####
SPUS31 KWBC 081433
SPECI
KDFW 081431Z 12006KT 10SM -RA BKN009 BKN014 OVC060 26/24 A3005=
####018000095####
SAPQ31 KWBC 081400 RRD
METAR
PGUM 081430Z 12008KT 10SM BKN022 BKN028 BKN037 28/24 A2990=
####018000107####
SPUS42 KWBC 081433
SPECI
KCRP 081431Z 03013KT 2 1/2SM -TSRA BR FEW006 BKN020CB BKN040 26/25
A2988=
####018000650####
SAGR31 LGAT 081420
METAR LGAD 081420Z 31009KT 9999 FEW020 27/14 Q1014=
METAR LGAV 081420Z 06019KT 9999 FEW025 BKN035 25/13 Q1013 NOSIG=
METAR LGIR 081420Z 02007KT 9999 SCT020 28/24 Q1011 NOSIG=
METAR LGKL 081420Z 28013KT 9999 FEW030 32/09 Q1011=
METAR LGKO 081420Z 31019KT CAVOK 27/18 Q1009=
METAR LGKR 081420Z 30020KT CAVOK 27/12 Q1012 NOSIG=
METAR LGLM 081420Z 03011KT 9999 FEW008 SCT020 22/15 Q1014=
METAR LGRP 081420Z 24015KT 9999 FEW020 29/20 Q1007 NOSIG=
METAR LGSA 081420Z 04012KT 9999 FEW020 31/18 Q1012=
METAR LGSM 081420Z 36009KT 9999 FEW030 30/16 Q1009=
METAR LGTS 081420Z 35016G26KT 9999 FEW030 24/11 Q1016 NOSIG=
####018000079####
SAMP31 LMMM 081430 RRB
METAR HLLB 081425Z 32025KT 9999 FEW025 30/18 Q1016=
####018000107####
SAUS42 KWBC 081400 RRD
METAR
KGLE 081427Z AUTO 15005KT 10SM SCT011 BKN018 OVC030 26/23
     A3008=
####018000082####
SPUS52 KWBC 081433
SPECI
KPNC 081430Z AUTO 02009KT 10SM BKN011 25/22 A3009=
####018000794####
SAUS43 KWBC 081400 RRG
METAR
KC75 081428Z AUTO 00000KT 10SM BKN022 BKN110 25/24 A3004=
KFWC 081425Z AUTO 23006KT 10SM VCTS SCT050 30/25 A3005=
KGBG 081425Z AUTO 00000KT 4SM BR BKN008 OVC013 23/22 A3006=
KHSB 081425Z AUTO 23003KT 10SM SCT100 29/21 A3006=
KIGQ 081425Z AUTO 00000KT 4SM BR SCT007 BKN031 24/23 A3003=
KIJX 081425Z AUTO 29004KT 7SM VCTS SCT007 BKN011 25/23 A3007=
KIKK 081425Z AUTO 21003KT 7SM BKN010 BKN027 BKN048 28/24 A3003=
KMQB 081425Z AUTO 33006KT 7SM OVC008 24/22 A3009=
KSAR 081425Z AUTO 24006KT 7SM VCTS CLR 28/24 A3006=
KSLO 081425Z AUTO 25007KT 10SM VCTS BKN050 OVC100 29/23 A3006=
KTAZ 081425Z AUTO 24003KT 10SM VCTS CLR 27/24 A3004=
KTIP 081425Z AUTO 23005KT 10SM CLR 28/25 A3005=
KVYS 081425Z AUTO 33007KT 10SM BKN014 OVC027 25/22 A3004=
####018000841####
SAUR30 UKMS 081430
METAR UKBB 081430Z 33003MPS 9999 BKN040 26/17 Q1014
         88CLRD95 NOSIG=
METAR UKHH 081430Z VRB02MPS 9999 SCT040 BKN200 30/12 
         Q1014 080///65 NOSIG=
METAR UKOO 081430Z 36004MPS CAVOK 27/14 Q1014
         34090070 NOSIG=
METAR UKDE 081430Z VRB02MPS CAVOK 30/17 Q1013
         20CLRD70 NOSIG=
METAR UKDD 081430Z VRB01MPS 9999 FEW033TCU SCT200 
         29/16 Q1014 08090070 NOSIG=
METAR COR UKFF 081430Z 27005MPS 250V310 9999 FEW033CB
         SCT050 28/18 Q1012 01010070 NOSIG=
METAR UKLL 081430Z 34002MPS 280V060 9999 BKN036 20/12
          Q1021 31210365 NOSIG=
METAR UKCC 081430Z 00000MPS CAVOK 29/16 Q1014
         08090070 NOSIG=
METAR UKDR 081430Z 29004MPS 9999 VCTS SCT033CB BKN200
          26/18 Q1014 1809//70 TEMPO 30006G14MPS
         3100 -TSRAGR BKN015CB=
####018000081####
SAAL31 DAAA 081330 RRA
METAR DAAT 081330Z 14011KT 100V160 CAVOK 34/02 Q1021=
####018000075####
SACN50 CWAO 081430
VOB SA 1430 AUTO8 M M M M/16/08/1702/M/M M 59MM=

####018000517####
SAGR32 LGAT 081420
METAR LGAL 081420Z 00000KT 9999 FEW020TCU SCT025 BKN080 20/16 Q1015=
METAR LGEL 081420Z 36013G23KT 9999 FEW025 BKN080 27/12 Q1012=
METAR LGKV 081420Z 35005KT 9999 SCT030TCU BKN100 18/17 Q1014=
METAR LGMT 081420Z 36020G32KT 310V020 9999 SCT030 27/18 Q1011=
METAR LGPZ 081420Z 26013KT 9999 FEW025 29/18 Q1013 NOSIG=
METAR LGRX 081420Z 26009KT 9999 FEW020 27/16 Q1012 NOSIG=
METAR LGSK 081420Z NIL=
METAR LGSR 081420Z 02013KT 9999 FEW025 26/18 Q1010 NOSIG=
METAR LGZA 081420Z NIL=
####018000075####
SACN50 CWAO 081430
VOH SA 1430 AUTO8 M M M M/16/02/0305/M/M M 80MM=

####018000073####
SAGR32 LGAT 081420 RRA
METAR LGZA 081420Z 32016KT CAVOK 28/11 Q1012=
####018000283####
SAGR33 LGAT 081420
METAR LGHI 081420Z NIL=
METAR LGKC 081420Z NIL=
METAR LGKF 081420Z NIL=
METAR LGKP 081420Z NIL=
METAR LGKZ 081420Z NIL=
METAR LGMK 081420Z 36022KT 9999 FEW015 24/17 Q1012=
METAR LGNX 081420Z NIL=
METAR LGPA 081420Z NIL=
METAR LGSO 081420Z NIL=
####018000092####
SAUZ31 UTTW 081430
METAR UTSA 081430Z 01004MPS 9999 NSC 36/06 Q1008 R88/CLRD70
NOSIG=
####018000093####
SAUZ31 UTTW 081430
METAR UTSA 081430Z 01004MPS 9999 NSC 36/06 Q1008 R88/CLRD70 
NOSIG=
####018000075####
SACN95 CWAO 081430
WWA SA 1430 AUTO8 M M M M/24/13/3401/M/M M 06MM=

####018000087####
SAUZ31 UTTW 081430
METAR UTSB 081430Z 01003MPS CAVOK 35/10 Q1007 R01/CLRD70 NOSIG=
####018000100####
SPAU31 AMMC 081433
SPECI YPEA 081433Z AUTO 34009KT 7000NDV // SCT021 BKN031 OVC072 13/12 Q0997=
####018000074####
SACN50 CWAO 081430
WPN SA 1430 AUTO8 M M M M/17/M/2801/M/M M 8MMM=

####018000106####
SPAU31 AMMC 081433
SPECI YPEA 081433Z AUTO 34009KT 7000NDV // SCT021 BKN031 OVC072 13/12 Q0997=


####018000087####
SAUZ31 UTTW 081430
METAR UTNN 081430Z 17001MPS CAVOK 42/08 Q1005 R33/CLRD70 NOSIG=
####018000099####
SAUS52 KWBC 081400 RRD
METAR
KSEP 081425Z AUTO 07003KT 2SM SCT006 BKN021 OVC034 24/22 A3007=
####018000107####
SPUS72 KWBC 081433
SPECI
KCRP 081431Z 03013KT 2 1/2SM -TSRA BR FEW006 BKN020CB BKN040 26/25
A2988=
####018000095####
SPUS72 KWBC 081433
SPECI
KDFW 081431Z 12006KT 10SM -RA BKN009 BKN014 OVC060 26/24 A3005=
####018000142####
SAUS53 KWBC 081400 RRG
METAR
KEHA 081428Z AUTO 02010KT 17/16=
KLNC 081425Z AUTO 10005KT 10SM SCT008 SCT013 BKN018 26/24
     A3005=
####018000106####
SAUS20 KNKA 081433
SPECI KACT 081431Z 07007KT 9SM FEW012 27/24 A3003 RMK AO2 RAB1355E05 
    P0000=
####018000107####
SPUS81 KWBC 081433
SPECI
KCRP 081431Z 03013KT 2 1/2SM -TSRA BR FEW006 BKN020CB BKN040 26/25
A2988=
####018000839####
SAUR30 UKMS 081430
METAR UKBB 081430Z 33003MPS 9999 BKN040 26/17 Q1014
         88CLRD95 NOSIG=
METAR UKHH 081430Z VRB02MPS 9999 SCT040 BKN200 30/12
         Q1014 080///65 NOSIG=
METAR UKOO 081430Z 36004MPS CAVOK 27/14 Q1014
         34090070 NOSIG=
METAR UKDE 081430Z VRB02MPS CAVOK 30/17 Q1013
         20CLRD70 NOSIG=
METAR UKDD 081430Z VRB01MPS 9999 FEW033TCU SCT200
         29/16 Q1014 08090070 NOSIG=
METAR COR UKFF 081430Z 27005MPS 250V310 9999 FEW033CB
         SCT050 28/18 Q1012 01010070 NOSIG=
METAR UKLL 081430Z 34002MPS 280V060 9999 BKN036 20/12
          Q1021 31210365 NOSIG=
METAR UKCC 081430Z 00000MPS CAVOK 29/16 Q1014
         08090070 NOSIG=
METAR UKDR 081430Z 29004MPS 9999 VCTS SCT033CB BKN200
          26/18 Q1014 1809//70 TEMPO 30006G14MPS
         3100 -TSRAGR BKN015CB=
####018000075####
SAEG31 HECA 081430
METAR HECA 081430Z 31012KT CAVOK 33/18 Q1010 NOSIG=
####018000103####
SPMC32 GMMC 081400 RRA
GMFF 081431Z 32007KT 8000 TS SCT030 SCT033CB SCT100 32/19 Q1018 M9
NOSIG=
####018000099####
SAUS73 KWBC 081400 RRF
METAR
KIKK 081425Z AUTO 21003KT 7SM BKN010 BKN027 BKN048 28/24 A3003=
####018000266####
SAXN17 KAWN 081400 RRI
METAR AYPY 081400Z 18016KT 9999 BKN040 25/22 Q1010=
METAR NFTV 081400Z 16006KT 9999 SCT016 BKN040 23/21 Q1014=
METAR NTAA 081430Z AUTO VRB02KT 9999NDV NCD 25/22 Q1015=
METAR NWWW 081430Z AUTO 01003KT 330V040 9999NDV NCD 16/15 Q1015=
####018000101####
SAUS90 KWBC 081434
METAR KEHA 081428Z AUTO 02010KT 17/16 RMK AO1 PK WND 15 005
     T01720162=
####018000303####
SPUS90 KWBC 081434
SPECI KCRP 081431Z 03013KT 2 1/2SM -TSRA BR FEW006 BKN020CB BKN040
     26/25 A2988 RMK AO2 TSB31RAB1356 TS OHD-N MOV NW CB E-SE MOV
     NW TCU DSNT NE S SW P0019=
SPECI KATT 081431Z AUTO VRB03KT 3SM -RA BR SCT010 BKN014 OVC060
     25/24 A3000 RMK AO2 RAE1357B14 P0006=
####018000081####
SAQT99 OTBD 081430
METAR OTBD 081430Z 07007KT 4000 HZ NSC 35/28 Q0999 NOSIG=
####018000136####
SAUS44 KEWX 081433
MTRATT
SPECI KATT 081431Z AUTO VRB03KT 3SM -RA BR SCT010 BKN014 OVC060 
25/24 A3000 RMK AO2 RAE1357B14 P0006
####018000455####
SAUS20 KNKA 081433
METAR KSRE 081430Z AUTO 00000KT 10SM CLR 25/24 A3007 RMK AO2=
METAR KSVC 081430Z AUTO 09007KT 10SM BKN100 20/13 A3025 RMK AO2=
METAR KTEX 081431Z AUTO 00000KT 10SM CLR 16/05 A3047 RMK AO2=
METAR KTMK 081433Z AUTO 00000KT 7SM OVC004 12/12 A2998 RMK AO2=
METAR KTQH 081435Z AUTO 00000KT 7SM OVC010 23/23 A3008 RMK AO2=
METAR KWWR 081429Z AUTO 35007KT 7SM RA BKN005 BKN045 OVC090 22/21 
     A3019 RMK AO2 P0002 T02150205=
####018002968####
SAUS20 KNKA 081433
METAR K4O4 081428Z AUTO 14007KT SCT001 SCT013 26/23 A3008 RMK AO2=
METAR KAFK 081430Z AUTO 02008KT 10SM CLR 23/19 A3015 RMK AO2 
     T02300192=
METAR KAIK 081435Z AUTO 31008KT 10SM CLR 32/25 A3004 RMK AO2 PNO=
METAR KANW 081430Z AUTO 30004KT 10SM CLR 20/13 A3026 RMK AO2 
     T02000132=
METAR KARW 081435Z AUTO 33008KT 10SM CLR 31/20 A2997 RMK AO2=
METAR KAUH 081430Z AUTO 04004KT 10SM CLR 21/15 A3021 RMK AO2 
     T02050149=
METAR KAUN 081430Z AUTO 00000KT 10SM CLR 22/16 A2989 RMK AO1=
METAR KAXS 081430Z AUTO 31004KT 5SM RA SCT012 BKN034 OVC055 23/22 
     A3011 RMK AO2 LTG DSNT NW P0007 T02300220=
METAR KAXX 081430Z AUTO 00000KT 10SM CLR 11/06 A3049 RMK AO2=
SPECI KBDL 081432Z 18005KT 4SM HZ SCT014 BKN024 OVC030 27/22 A3006 
    RMK AO2=
METAR KBIE 081430Z AUTO 04006KT 10SM CLR 22/19 A3016 RMK AO2 
     T02190187=
METAR KBTA 081430Z AUTO 01006KT 10SM CLR 22/17 A3017 RMK AO2 
     T02150169=
METAR KBVN 081430Z AUTO 33004KT 10SM CLR 22/16 A3021 RMK AO2 
     T02160163=
METAR KBVS 081430Z AUTO 03004KT 10SM CLR 21/13 A2999 RMK A01 P000=
METAR KCLK 081433Z AUTO 03011KT 10SM SCT009 SCT060 23/20 A3011 
     RMK AO2=
METAR KCUH 081430Z AUTO 06003KT 10SM BKN006 OVC010 25/23 A3007 
     RMK AO2=
SPECI KDAW 081432Z AUTO 16005KT 7SM SCT017 SCT042 28/21 A3008 RMK 
    AO2=
SPECI KDEN 081432Z 02004KT 1/4SM BR BKN007 BKN013 OVC039 16/14 A3034 
    RMK AO2 SFC VIS 3 CIG 004V009=
METAR KDUA 081437Z AUTO 17008KT 10SM BKN010 BKN029 OVC033 27/24 
     A3007 RMK AO2=
METAR KFDW 081435Z AUTO 00000KT 10SM CLR 32/18 A3000 RMK AO1=
METAR KFET 081430Z AUTO 03003KT 10SM CLR 22/17 A3018 RMK AO2=
METAR KGCD 081430Z AUTO 13008KT 10SM CLR 17/03 A3014 RMK AO2 
     T01740029=
METAR KGLY 081435Z AUTO 00000KT 9SM FEW017 25/23 A3008 RMK AO2 =
METAR KIZA 081429Z AUTO 00000KT 7SM OVC007 13/11 A2994 RMK AO2=
METAR KLAM 081430Z AUTO 00000KT 10SM CLR 16/08 A3042 RMK AO2=
METAR KLRU 081431Z AUTO 03007KT 10SM CLR 24/13 A3020 RMK AO2=
METAR KMEZ 081435Z AUTO 21003KT 7SM SCT018 SCT030 OVC035 27/23 
     A3011 RMK AO2=
SPECI KMKE 081432Z 29007KT 10SM FEW011 BKN014 BKN080 OVC200 26/21 
    A3001 RMK AO2=
METAR KOJA 081430Z AUTO 03005KT 10SM BKN009 23/22 A3011 RMK AO2=
METAR KORS 081430Z AUTO 00000KT 10SM CLR 19/16 A2997 RMK AO2=
METAR KOUN 081432Z AUTO 02005KT 10SM BKN011 BKN080 28/23 A3008 
     RMK AO2=
METAR KPLU 081430Z AUTO 00000KT 10SM FEW048 FEW065 17/14 A2996 
     RMK AO2=
SPECI KPPF 081432Z AUTO 00000KT 10SM BKN009 25/22 A3010 RMK AO2=
METAR KPSO 081435Z AUTO 00000KT 10SM CLR 16/04 A3042 RMK AO2=
METAR KPTS 081430Z AUTO 22003KT 10SM -RA SCT003 SCT008 BKN013 
     24/24 A3008 RMK AO2 LTG DSNT SE P0001 T02350237=
METAR KPVJ 081428Z AUTO 00000KT 10SM OVC009 27/24 A3007 RMK AO2=
METAR KRKR 081432Z AUTO 18006KT 10SM BKN080 29/25 A3006 RMK AO2=
METAR KSNL 081432Z AUTO 02004KT 10SM SCT006 OVC014 26/23 A3008 
     RMK AO2=
####018000509####
SPUS99 KWBC 081434
SPECI
KACT 081431Z 07007KT 9SM FEW012 27/24 A3003 RMK AO2 RAB1355E05
     P0000=
KBDL 081432Z 18005KT 4SM HZ SCT014 BKN024 OVC030 27/22 A3006 RMK
     AO2=
KDAW 081432Z AUTO 16005KT 7SM SCT017 SCT042 28/21 A3008 RMK
     AO2=
KDEN 081432Z 02004KT 1/4SM BR BKN007 BKN013 OVC039 16/14 A3034 RMK
     AO2 SFC VIS 3 CIG 004V009=
KMKE 081432Z 29007KT 10SM FEW011 BKN014 BKN080 OVC200 26/21 A3001
     RMK AO2=
KPPF 081432Z AUTO 00000KT 10SM BKN009 25/22 A3010 RMK AO2=
####018002728####
SAUS99 KWBC 081434
METAR
KSRE 081430Z AUTO 00000KT 10SM CLR 25/24 A3007 RMK AO2=
KSVC 081430Z AUTO 09007KT 10SM BKN100 20/13 A3025 RMK AO2=
KTEX 081431Z AUTO 00000KT 10SM CLR 16/05 A3047 RMK AO2=
KTMK 081433Z AUTO 00000KT 7SM OVC004 12/12 A2998 RMK AO2=
KTQH 081435Z AUTO 00000KT 7SM OVC010 23/23 A3008 RMK AO2=
KWWR 081429Z AUTO 35007KT 7SM RA BKN005 BKN045 OVC090 22/21 A3019
     RMK AO2 P0002 T02150205=
K4O4 081428Z AUTO 14007KT SCT001 SCT013 26/23 A3008 RMK AO2=
KAFK 081430Z AUTO 02008KT 10SM CLR 23/19 A3015 RMK AO2
     T02300192=
KAIK 081435Z AUTO 31008KT 10SM CLR 32/25 A3004 RMK AO2 PNO=
KANW 081430Z AUTO 30004KT 10SM CLR 20/13 A3026 RMK AO2
     T02000132=
KARW 081435Z AUTO 33008KT 10SM CLR 31/20 A2997 RMK AO2=
KAUH 081430Z AUTO 04004KT 10SM CLR 21/15 A3021 RMK AO2
     T02050149=
KAUN 081430Z AUTO 00000KT 10SM CLR 22/16 A2989 RMK AO1=
KAXS 081430Z AUTO 31004KT 5SM RA SCT012 BKN034 OVC055 23/22 A3011
     RMK AO2 LTG DSNT NW P0007 T02300220=
KAXX 081430Z AUTO 00000KT 10SM CLR 11/06 A3049 RMK AO2=
KBIE 081430Z AUTO 04006KT 10SM CLR 22/19 A3016 RMK AO2
     T02190187=
KBTA 081430Z AUTO 01006KT 10SM CLR 22/17 A3017 RMK AO2
     T02150169=
KBVN 081430Z AUTO 33004KT 10SM CLR 22/16 A3021 RMK AO2
     T02160163=
KBVS 081430Z AUTO 03004KT 10SM CLR 21/13 A2999 RMK A01 P000=
KCLK 081433Z AUTO 03011KT 10SM SCT009 SCT060 23/20 A3011 RMK
     AO2=
KCUH 081430Z AUTO 06003KT 10SM BKN006 OVC010 25/23 A3007 RMK
     AO2=
KDUA 081437Z AUTO 17008KT 10SM BKN010 BKN029 OVC033 27/24 A3007
     RMK AO2=
KFDW 081435Z AUTO 00000KT 10SM CLR 32/18 A3000 RMK AO1=
KFET 081430Z AUTO 03003KT 10SM CLR 22/17 A3018 RMK AO2=
KGCD 081430Z AUTO 13008KT 10SM CLR 17/03 A3014 RMK AO2
     T01740029=
KGLY 081435Z AUTO 00000KT 9SM FEW017 25/23 A3008 RMK AO2=
KIZA 081429Z AUTO 00000KT 7SM OVC007 13/11 A2994 RMK AO2=
KLAM 081430Z AUTO 00000KT 10SM CLR 16/08 A3042 RMK AO2=
KLRU 081431Z AUTO 03007KT 10SM CLR 24/13 A3020 RMK AO2=
KMEZ 081435Z AUTO 21003KT 7SM SCT018 SCT030 OVC035 27/23 A3011 RMK
     AO2=
KOJA 081430Z AUTO 03005KT 10SM BKN009 23/22 A3011 RMK AO2=
KORS 081430Z AUTO 00000KT 10SM CLR 19/16 A2997 RMK AO2=
KOUN 081432Z AUTO 02005KT 10SM BKN011 BKN080 28/23 A3008 RMK
     AO2=
KPLU 081430Z AUTO 00000KT 10SM FEW048 FEW065 17/14 A2996 RMK
     AO2=
KPSO 081435Z AUTO 00000KT 10SM CLR 16/04 A3042 RMK AO2=
KPTS 081430Z AUTO 22003KT 10SM -RA SCT003 SCT008 BKN013 24/24
     A3008 RMK AO2 LTG DSNT SE P0001 T02350237=
KPVJ 081428Z AUTO 00000KT 10SM OVC009 27/24 A3007 RMK AO2=
KRKR 081432Z AUTO 18006KT 10SM BKN080 29/25 A3006 RMK AO2=
KSNL 081432Z AUTO 02004KT 10SM SCT006 OVC014 26/23 A3008 RMK
     AO2=
####018000116####
SPNK31 MNMG 081420
SPECI
SPECI MNBL 081420Z 02004KT 7000 TS SCT017CB SCT070
                  CBRA N/NE/E/SE =
####018000306####
SACN87 KWBC 081434
METAR CWQS 081400Z AUTO 36016KT 12/ RMK AO1 PK WND 35018/1354
T0124=
METAR CWWS 081400Z AUTO 28011KT 17/13 RMK AO1 SLP144 T01680126=
METAR CWQS 081400Z AUTO 36016KT 12/ RMK AO1 PK WND 35018/1354
T0124=
METAR CWQS 081400Z AUTO 36016KT 12/ RMK AO1 PK WND 35018/1354
T0124=
####018000192####
SACN94 KWBC 081434
METAR CWQO 081400Z AUTO 03007KT 12/ RMK AO1 T0121=
METAR CWQR 081400Z AUTO 14008KT 12/12 RMK AO1 T01220122=
METAR CWSK 081430Z AUTO 33004KT 19/10 RMK AO1 T01890100=
####018000080####
SACN95 KWBC 081434
METAR CWWA 081430Z AUTO 34001KT 24/13 RMK AO1 T02400126=
####018000107####
SPAO31 KWBC 081434
SPECI
GMFF 081431Z 32007KT 8000 TS SCT030 SCT033CB SCT100 32/19 Q1018 M9
NOSIG=
####018000819####
SPUS70 KWBC 081434
SPECI
PAWD 081430Z AUTO 00000KT 10SM BKN023 OVC055 11/09 A2998 RMK AO2
     TSNO=
KPIL 081431Z AUTO 31008KT 9SM -RA FEW007 SCT013 BKN019 28/26 A2976
     RMK AO2 P0000=
KRAC 081431Z AUTO 29005KT 10SM SCT015 26/21 A3003 RMK AO2=
KSET 081431Z AUTO 00000KT 10SM FEW006 BKN012 27/24 A3005 RMK
     AO2=
KVIH 081431Z AUTO 00000KT 10SM SCT005 BKN017 OVC060 26/23 A3008
     RMK AO2=
KACT 081431Z 07007KT 9SM FEW012 27/24 A3003 RMK AO2 RAB1355E05
     P0000=
KDAW 081432Z AUTO 16005KT 7SM SCT017 SCT042 28/21 A3008 RMK
     AO2=
KDEN 081432Z 02004KT 1/4SM BR BKN007 BKN013 OVC039 16/14 A3034 RMK
     AO2 SFC VIS 3 CIG 004V009=
KMKE 081432Z 29007KT 10SM FEW011 BKN014 BKN080 OVC200 26/21 A3001
     RMK AO2=
KPPF 081432Z AUTO 00000KT 10SM BKN009 25/22 A3010 RMK AO2=
####018000101####
SPAU32 YBBN 081433
SPECI YPEA 081433Z AUTO 34009KT 7000NDV // SCT021 BKN031 OVC072 13/12
Q0997=
####018000110####
SPNK31 MNMG 081420
SPECI
MNBL 081420Z 02004KT 7000 TS SCT017CB SCT070
                  CBRA N/NE/E/SE =
####018000243####
SACZ31 LKPW 081430
METAR LKKV 081430Z VRB01KT CAVOK 25/09 Q1022=
METAR LKMT 081430Z 01004KT 270V080 CAVOK 22/10 Q1022 NOSIG=
METAR LKPR 081430Z 31004KT 250V040 CAVOK 26/10 Q1022 NOSIG=
METAR LKTB 081430Z VRB02KT CAVOK 26/08 Q1021 NOSIG=
####018003603####
SAUS70 KWBC 081434
METAR
K1F0 081427Z AUTO 00000KT 25/24 A3005 RMK AO2 PWINO=
K36U 081435Z AUTO 00000KT 10SM CLR 15/07 A3025 RMK AO2=
KADH 081430Z AUTO 00000KT 10SM BKN006 24/22 A3007 RMK AO2=
KALM 081430Z AUTO 18006KT 10SM CLR 22/14 A3018 RMK AO2=
KATS 081430Z AUTO 02009KT 10SM -RA BKN027 OVC035 19/18 A3021 RMK
     AO2=
KCHK 081431Z AUTO 01005KT 4SM BR OVC002 23/23 A3007 RMK AO2=
KCQB 081430Z AUTO 01003KT 10SM 24/24 A3007 RMK AO2 TSNO=
KDUC 081432Z AUTO 05007KT 10SM SCT017 27/23 A3007 RMK AO2=
KGCM 081435Z AUTO 06005KT 10SM BKN007 BKN010 OVC100 24/23 A3009
     RMK AO2=
KGMJ 081434Z AUTO 00000KT OVC008 26/25 A3008 RMK AO2 P0001
     PWINO=
KIDP 081430Z AUTO 36005KT 10SM SCT008 BKN031 BKN038 24/22 A3008
     RMK AO2=
KJSV 081430Z AUTO 00000KT 10SM BKN032 BKN046 OVC060 26/23 A3007
     RMK AO2=
KJWG 081430Z AUTO 04008KT 10SM BKN008 BKN080 23/23 A3013 RMK
     AO2=
KOKM 081431Z AUTO 07003KT 7SM SCT004 BKN009 OVC033 26/25 A3006 RMK
     AO1=
KONM 081427Z AUTO 34006KT 10SM SCT090 20/15 A3027 RMK AO2
     T01980148=
KSRE 081430Z AUTO 00000KT 10SM CLR 25/24 A3007 RMK AO2=
KSVC 081430Z AUTO 09007KT 10SM BKN100 20/13 A3025 RMK AO2=
KTEX 081431Z AUTO 00000KT 10SM CLR 16/05 A3047 RMK AO2=
KTMK 081433Z AUTO 00000KT 7SM OVC004 12/12 A2998 RMK AO2=
KTQH 081435Z AUTO 00000KT 7SM OVC010 23/23 A3008 RMK AO2=
KWWR 081429Z AUTO 35007KT 7SM RA BKN005 BKN045 OVC090 22/21 A3019
     RMK AO2 P0002 T02150205=
K4O4 081428Z AUTO 14007KT SCT001 SCT013 26/23 A3008 RMK AO2=
KAFK 081430Z AUTO 02008KT 10SM CLR 23/19 A3015 RMK AO2
     T02300192=
KAIK 081435Z AUTO 31008KT 10SM CLR 32/25 A3004 RMK AO2 PNO=
KANW 081430Z AUTO 30004KT 10SM CLR 20/13 A3026 RMK AO2
     T02000132=
KARW 081435Z AUTO 33008KT 10SM CLR 31/20 A2997 RMK AO2=
KAUH 081430Z AUTO 04004KT 10SM CLR 21/15 A3021 RMK AO2
     T02050149=
KAUN 081430Z AUTO 00000KT 10SM CLR 22/16 A2989 RMK AO1=
KAXS 081430Z AUTO 31004KT 5SM RA SCT012 BKN034 OVC055 23/22 A3011
     RMK AO2 LTG DSNT NW P0007 T02300220=
KAXX 081430Z AUTO 00000KT 10SM CLR 11/06 A3049 RMK AO2=
KBIE 081430Z AUTO 04006KT 10SM CLR 22/19 A3016 RMK AO2
     T02190187=
KBTA 081430Z AUTO 01006KT 10SM CLR 22/17 A3017 RMK AO2
     T02150169=
KBVN 081430Z AUTO 33004KT 10SM CLR 22/16 A3021 RMK AO2
     T02160163=
KBVS 081430Z AUTO 03004KT 10SM CLR 21/13 A2999 RMK A01 P000=
KCLK 081433Z AUTO 03011KT 10SM SCT009 SCT060 23/20 A3011 RMK
     AO2=
KCUH 081430Z AUTO 06003KT 10SM BKN006 OVC010 25/23 A3007 RMK
     AO2=
KDUA 081437Z AUTO 17008KT 10SM BKN010 BKN029 OVC033 27/24 A3007
     RMK AO2=
KFDW 081435Z AUTO 00000KT 10SM CLR 32/18 A3000 RMK AO1=
KFET 081430Z AUTO 03003KT 10SM CLR 22/17 A3018 RMK AO2=
KGCD 081430Z AUTO 13008KT 10SM CLR 17/03 A3014 RMK AO2
     T01740029=
KGLY 081435Z AUTO 00000KT 9SM FEW017 25/23 A3008 RMK AO2=
KLAM 081430Z AUTO 00000KT 10SM CLR 16/08 A3042 RMK AO2=
KLRU 081431Z AUTO 03007KT 10SM CLR 24/13 A3020 RMK AO2=
KMEZ 081435Z AUTO 21003KT 7SM SCT018 SCT030 OVC035 27/23 A3011 RMK
     AO2=
KOJA 081430Z AUTO 03005KT 10SM BKN009 23/22 A3011 RMK AO2=
KORS 081430Z AUTO 00000KT 10SM CLR 19/16 A2997 RMK AO2=
KOUN 081432Z AUTO 02005KT 10SM BKN011 BKN080 28/23 A3008 RMK
     AO2=
KPLU 081430Z AUTO 00000KT 10SM FEW048 FEW065 17/14 A2996 RMK
     AO2=
KPSO 081435Z AUTO 00000KT 10SM CLR 16/04 A3042 RMK AO2=
KPVJ 081428Z AUTO 00000KT 10SM OVC009 27/24 A3007 RMK AO2=
KRKR 081432Z AUTO 18006KT 10SM BKN080 29/25 A3006 RMK AO2=
KSNL 081432Z AUTO 02004KT 10SM SCT006 OVC014 26/23 A3008 RMK
     AO2=
####018000088####
SACN96 KWBC 081434
METAR CWZV 081400Z AUTO 32017KT RMK AO1 PK WND 32019/1341 51004=
####018000104####
SPAU31 KWBC 081434
SPECI
YPEA 081433Z AUTO 34009KT 7000NDV // SCT021 BKN031 OVC072 13/12
Q0997=
####018000128####
SACN86 KWBC 081434
METAR CWNB 081400Z AUTO RMK AO1 58002=
METAR CWPS 081400Z AUTO 19009KT 25/ RMK AO1 SLP155 T0248 58004=
####018000096####
SAAF31 KWBC 081400 RRE
METAR
DNMM 081430Z 24016KT 9999 BKN012 FEW020CB 28/25 Q1014 NOSIG=
####018000101####
SPMC31 GMMC 081400 RRA
GMFF 081431Z 32007KT 8000 TS SCT030 SCT033CB SCT100 32/19 Q1018 M9
NOSIG=
####018000101####
SPMC32 GMMC 081400 RRA
GMFF 081431Z 32007KT 8000 TS SCT030 SCT033CB SCT100 32/19 Q1018 M9
NOSIG=
####018000087####
SACN97 KWBC 081434
METAR CXTV 081400Z AUTO 28010KT 07/ RMK AO1 SLP177 T0066 53004=
####018000383####
SAIE31 EIDB 081430
METAR EIDW 081430Z 20011KT 170V230 9999 -SHRA FEW022 SCT040 BKN050
     16/11 Q1015 NOSIG=
METAR EINN 081430Z 18008KT 8000 -RADZ FEW016 BKN026 BKN038 15/13
     Q1015 NOSIG=
METAR EICK 081430Z 20011KT 9999 -RA BKN006 BKN012 BKN038 13/13 Q1015
     TEMPO 2000=
METAR EIKN 081430Z 21007KT 180V270 9999 FEW015 FEW018CB SCT030 BKN048
     14/12 Q1014 NOSIG=
####018000277####
SAUS80 KWBC 081434
METAR
KEHA 081428Z AUTO 02010KT 17/16 RMK AO1 PK WND 15 005
     T01720162=
KIZA 081429Z AUTO 00000KT 7SM OVC007 13/11 A2994 RMK AO2=
KPTS 081430Z AUTO 22003KT 10SM -RA SCT003 SCT008 BKN013 24/24
     A3008 RMK AO2 LTG DSNT SE P0001 T02350237=
####018000081####
SAAF35 KWBC 081400 RRF
METAR
HECA 081430Z 31012KT CAVOK 33/18 Q1010 NOSIG=
####018000433####
SPUS80 KWBC 081434
SPECI
KCRP 081431Z 03013KT 2 1/2SM -TSRA BR FEW006 BKN020CB BKN040 26/25
     A2988 RMK AO2 TSB31RAB1356 TS OHD-N MOV NW CB E-SE MOV NW TCU
     DSNT NE S SW P0019=
KMSN 081430Z 30005KT 9SM BKN012 24/21 A3004 RMK AO2=
KATT 081431Z AUTO VRB03KT 3SM -RA BR SCT010 BKN014 OVC060 25/24
     A3000 RMK AO2 RAE1357B14 P0006=
KBDL 081432Z 18005KT 4SM HZ SCT014 BKN024 OVC030 27/22 A3006 RMK
     AO2=
####018000372####
SAHK31 VHHH 081430
METAR VHHH 081430Z 21009KT 140V240 9999 FEW020 SCT030 31/25 
Q1009 NOSIG=
METAR RCTP 081430Z 18006KT 150V210 9999 FEW025 29/24 Q1008
NOSIG=
METAR RCKH 081430Z 28005KT 9999 FEW013 BKN300 29/26 Q1010
NOSIG=
METAR RCSS 081430Z 09005KT 9999 FEW030 SCT120 30/24 Q1007
NOSIG=
METAR VMMC 081430Z 19012KT 170V260 9999 FEW018 29/27 Q1008
     NOSIG=
####018000092####
SAAO32 KWBC 081400 RRC
METAR
GQNN 081430Z 21012KT 180V240 6000 NSC 32/21 Q1011 NOSIG=
####018000145####
SAAW33 KWBC 081400 RRD
METAR
OMFJ 081400Z 12007KT 7000 NSM 34/24 Q1001 A2956=
OOMS 081400Z 0'005KT 6000 SCT025 BKN10, 33/27 Q1000 NOSIG=
####018000910####
SAGR31 KWBC 081420 RRA
METAR
LGAD 081420Z 31009KT 9999 FEW020 27/14 Q1014=
LGAL 081420Z 00000KT 9999 FEW020TCU SCT025 BKN080 20/16 Q1015=
LGAV 081420Z 06019KT 9999 FEW025 BKN035 25/13 Q1013 NOSIG=
LGEL 081420Z 36013G23KT 9999 FEW025 BKN080 27/12 Q1012=
LGIR 081420Z 02007KT 9999 SCT020 28/24 Q1011 NOSIG=
LGKF 081420Z NIL=
LGKL 081420Z 28013KT 9999 FEW030 32/09 Q1011=
LGKO 081420Z 31019KT CAVOK 27/18 Q1009=
LGKR 081420Z 30020KT CAVOK 27/12 Q1012 NOSIG=
LGKV 081420Z 35005KT 9999 SCT030TCU BKN100 18/17 Q1014=
LGLM 081420Z 03011KT 9999 FEW008 SCT020 22/15 Q1014=
LGMT 081420Z 36020G32KT 310V020 9999 SCT030 27/18 Q1011=
LGRP 081420Z 24015KT 9999 FEW020 29/20 Q1007 NOSIG=
LGSA 081420Z 04012KT 9999 FEW020 31/18 Q1012=
LGSM 081420Z 36009KT 9999 FEW030 30/16 Q1009=
LGSR 081420Z 02013KT 9999 FEW025 26/18 Q1010 NOSIG=
LGTS 081420Z 35016G26KT 9999 FEW030 24/11 Q1016 NOSIG=
####018000311####
SAGR41 KWBC 081420 RRA
METAR
LGKP 081420Z NIL=
LGKZ 081420Z NIL=
LGMK 081420Z 36022KT 9999 FEW015 24/17 Q1012=
LGPZ 081420Z 26013KT 9999 FEW025 29/18 Q1013 NOSIG=
LGRX 081420Z 26009KT 9999 FEW020 27/16 Q1012 NOSIG=
LGSK 081420Z NIL=
LGZA 081420Z 32016KT CAVOK 28/11 Q1012=
LGZA 081420Z NIL=
####018000149####
SAPA32 KWBC 081400 RRB
METAR
NFTV 081400Z 16006KT 9999 SCT016 BKN040 23/21 Q1014=
NWWW 081430Z AUTO 01003KT 330V040 9999NDV NCD 16/15 Q1015=
####018000216####
SARA31 KWBC 081400 RRI
METAR
UTNN 081430Z 17001MPS CAVOK 42/08 Q1005 R33/CLRD70 NOSIG=
UTSA 081430Z 01004MPS 9999 NSC 36/06 Q1008 R88/CLRD70 NOSIG=
UTSB 081430Z 01003MPS CAVOK 35/10 Q1007 R01/CLRD70 NOSIG=
####018000092####
SAUK41 KWBC 081420 RRC
METAR
EGNC 081420Z 23015G27KT 200V260 9999 SCT035 19/09 Q1015=
####018000716####
SAUR31 KWBC 081350 RRA
METAR
UKBB 081430Z 33003MPS 9999 BKN040 26/17 Q1014 88CLRD95 NOSIG=
UKCC 081430Z 00000MPS CAVOK 29/16 Q1014 08090070 NOSIG=
UKDD 081430Z VRB01MPS 9999 FEW033TCU SCT200 29/16 Q1014 08090070
     NOSIG=
UKDE 081430Z VRB02MPS CAVOK 30/17 Q1013 20CLRD70 NOSIG=
UKDR 081430Z 29004MPS 9999 VCTS SCT033CB BKN200 26/18 Q1014
     1809//70 TEMPO 30006G14MPS 3100 -TSRAGR BKN015CB=
UKFF 081430Z 27005MPS 250V310 9999 FEW033CB SCT050 28/18 Q1012
     01010070 NOSIG=
UKHH 081430Z VRB02MPS 9999 SCT040 BKN200 30/12 Q1014 080///65
     NOSIG=
UKLL 081430Z 34002MPS 280V060 9999 BKN036 20/12 Q1021 31210365
     NOSIG=
UKOO 081430Z 36004MPS CAVOK 27/14 Q1014 34090070 NOSIG=
####018000262####
SAXX99 KWBC 081400 RRX
METAR
EPWR 081430Z 25004KT 170V340 CAVOK 26/09 Q1022=
ESMT 081420Z VRB05KT 4000 -RA FEW030 BKN060 18/16 Q1020=
GMAD 081430Z NIL=
LGHI 081420Z NIL=
LGKC 081420Z NIL=
LGNX 081420Z NIL=
LGPA 081420Z NIL=
LGSO 081420Z NIL=
####018000166####
SACY31 LCLK 081430
METAR LCLK 081430Z 20017KT 9999 FEW030 29/23 Q1007 NOSIG=
METAR LCPH 081430Z 26008KT 200V290 9999 SCT015 29/24 Q1008=
METAR LCNC 081430Z NIL=
####018000082####
SAIL31 BICC 081430
METAR BIKF 081430Z 03021KT 9999 SCT024 BKN100 13/06 Q0995=
####018000247####
SACZ31 LKPW 081430
METAR LKKV 081430Z VRB01KT CAVOK 25/09 Q1022=
METAR LKMT 081430Z 01004KT 270V080 CAVOK 22/10 Q1022 NOSIG=
METAR LKPR 081430Z 31004KT 250V040 CAVOK 26/10 Q1022 NOSIG=
METAR LKTB 081430Z VRB02KT CAVOK 26/08 Q1021 NOSIG=
####018000526####
SAYG31 LYBM 081430
METAR LYBE 081430Z 33011KT CAVOK 24/12 Q1021 NOSIG=
METAR LYBT 081430Z 32010KT 280V020 CAVOK 24/13 Q1021 NOSIG=
METAR LYKV 081430Z 32006KT 9999 SCT035 20/16 Q1022 NOSIG=
METAR LYNI 081430Z 32010KT 9999 FEW020 BKN026 20/14 Q1021 NOSIG=
METAR LYPG 081430Z 02016KT 9999 FEW040 28/09 Q1017 NOSIG=
METAR LYPR 081430Z NIL=
METAR LYTV 081430Z 34003KT 9999 FEW053 30/10 Q1017 NOSIG=
METAR LYUZ 081430Z 31004KT 260V020 9999 BKN020 15/11 Q1024=
METAR LYVR 081430Z VRB07KT 9999 BKN033 24/14 Q1020=
####018000092####
SAAB31 LATI 081430
METAR LATI 081430Z 01020G32KT 340V080 9999 FEW060 27/13 Q1016 NOSIG=
####018000391####
SAIE31 EIDB 081430
METAR EIDW 081430Z 20011KT 170V230 9999 -SHRA FEW022 SCT040 BKN050
     16/11 Q1015 NOSIG=
METAR EINN 081430Z 18008KT 8000 -RADZ FEW016 BKN026 BKN038 15/13
     Q1015 NOSIG=
METAR EICK 081430Z 20011KT 9999 -RA BKN006 BKN012 BKN038 13/13 Q1015
     TEMPO 2000=
METAR EIKN 081430Z 21007KT 180V270 9999 FEW015 FEW018CB SCT030 BKN048
     14/12 Q1014 NOSIG=
####018000832####
SAEW32 LEMM 081430
METAR LEAS 081430Z 05006KT 010V080 9999 FEW015 23/19 Q1015 NOSIG=
METAR LEBB 081430Z 29005KT 230V340 9999 FEW025 26/21 Q1016 TEMPO 
SCT030CB=
METAR LECO 081430Z 31007KT 250V340 CAVOK 25/20 Q1016=
METAR LEGE 081430Z 18009KT 140V210 CAVOK 32/18 Q1019=
METAR LEST 081430Z 25007KT 210V290 9999 SCT035 27/20 Q1016 NOSIG=
METAR LEZG 081430Z 09006KT 9999 FEW035 FEW040CB SCT070 37/12 
Q1016=
METAR LESO 081430Z VRB04KT CAVOK 27/21 Q1015=
METAR LEVT 081430Z 13003KT 090V160 9999 FEW050 33/17 Q1017=
METAR LERS 081430Z 19009KT 160V240 CAVOK 30/12 Q1019=
METAR LEMH 081430Z 17008KT 120V210 CAVOK 29/19 Q1020=
METAR LEAM 081430Z 09017KT 060V120 9999 FEW050 38/06 Q1015=
METAR LEGR 081430Z 15017KT 9999 FEW060 SCT080 39/06 Q1016=
METAR LERL 081430Z 18007G17KT 110V250 9999 FEW050 37/04 Q1017=
####018000102####
SPAU32 YBBN 081433
SPECI YPEA 081433Z AUTO 34009KT 7000NDV // SCT021 BKN031 OVC072 13/12
Q0997=
####018000090####
SASN31 ESWI 081420 RRA
METAR ESMT 081420Z VRB05KT 4000 -RA FEW030 BKN060 18/16 Q1020=
####018000103####
SPMC31 GMMC 081400 RRA
GMFF 081431Z 32007KT 8000 TS SCT030 SCT033CB SCT100 32/19 Q1018 M9
NOSIG=
####018000097####
SAUS41 KAKQ 081434
MTRNFE
SPECI KNFE 081432Z AUTO 09010KT 3SM HZ CLR 30/19 A2999 RMK AO2 $
####018000096####
SPUS53 KWBC 081434
SPECI
KVIH 081431Z AUTO 00000KT 10SM SCT005 BKN017 OVC060 26/23 A3008=
####018000087####
SAUZ31 UTTW 081430
METAR UTST 081430Z 29002MPS CAVOK 34/14 Q1004 R88/CLRD70 NOSIG=
####018000205####
SAEW35 LEMM 081430
METAR LESA 081430Z 18017KT 150V230 9999 FEW048 35/14 Q1017=
METAR LEVD 081430Z 18013KT 140V210 CAVOK 34/07 Q1017=
METAR LEVS 081430Z 30005KT 220V010 9999 -RA FEW050 29/13 Q1019=
####018000630####
SAEW31 LEMM 081430
METAR LEMD 081430Z 34009KT 310V020 9999 SCT035CB 30/14 Q1018   WS 
ALL RWY TEMPO SHRA=
METAR LEBL 081430Z 20013KT CAVOK 28/20 Q1019 NOSIG=
METAR LEPA 081430Z 23010KT 200V260 CAVOK 31/14 Q1019 NOSIG=
METAR LEZL 081430Z 22008KT 170V290 9999 FEW040 33/16 Q1015 NOSIG=
METAR LEMG 081430Z 16009KT 110V200 9999 FEW045 29/15 Q1016 NOSIG=
METAR LEVC 081430Z 12011KT 090V150 CAVOK 32/12 Q1018 NOSIG=
METAR LEAL 081430Z 07010KT 050V110 CAVOK 30/18 Q1019 NOSIG=
METAR LEIB 081430Z 09007KT 040V120 CAVOK 29/21 Q1019 NOSIG=
METAR LELC 081430Z NIL=
METAR LEVX 081430Z 36006KT 8000 FEW030 22/18 Q1016=
####018000319####
SAEW33 LEMM 081430
METAR GCLP 081430Z 03026KT 9999 FEW025 25/18 Q1017 NOSIG=
METAR GCXO 081430Z 29011KT 250V320 9999 FEW005 23/17 Q1020 NOSIG=
METAR GCTS 081430Z 09017KT 060V120 CAVOK 26/17 Q1017 NOSIG=
METAR GCRR 081430Z 36017KT 9999 FEW025 26/19 Q1017=
METAR GCFV 081430Z 05013KT 9999 FEW020 24/19 Q1017=
####018000509####
SAGR32 LGAT 081420
METAR LGAL 081420Z 00000KT 9999 FEW020TCU SCT025 BKN080 20/16 Q1015=
METAR LGEL 081420Z 36013G23KT 9999 FEW025 BKN080 27/12 Q1012=
METAR LGKV 081420Z 35005KT 9999 SCT030TCU BKN100 18/17 Q1014=
METAR LGMT 081420Z 36020G32KT 310V020 9999 SCT030 27/18 Q1011=
METAR LGPZ 081420Z 26013KT 9999 FEW025 29/18 Q1013 NOSIG=
METAR LGRX 081420Z 26009KT 9999 FEW020 27/16 Q1012 NOSIG=
METAR LGSK 081420Z NIL=
METAR LGSR 081420Z 02013KT 9999 FEW025 26/18 Q1010 NOSIG=
METAR LGZA 081420Z NIL=
####018000113####
SAAE31 VTBB 081400 RRA
METAR VTSS 081400Z 00000KT 9999 FEW018CB BKN300 26/23 Q1011 A2987
           CB NW=
####018000139####
SAEW36 LEMM 081430
METAR GCLA 081430Z 01012KT 330V050 9999 FEW020 25/18 Q1019=
METAR GEML 081430Z 07007KT 030V120 CAVOK 26/21 Q1016=
####018001884####
SAUS20 KNKA 081434
METAR KPMV 081430Z AUTO 02006KT 10SM CLR 23/17 A3016 RMK AO2 
     T02330173=
SPECI KCXO 081433Z 16009KT 3/4SM +RA BR SCT009 OVC015 24/23 A3002 
    RMK AO2 RAB23 P0016=
METAR KDVO 081430Z AUTO 01004KT 10SM OVC008 13/12 A2994 RMK AO2=
METAR KHDE 081430Z AUTO 02005KT 10SM CLR 20/16 A3024 RMK AO2 
     T02000157=
METAR KHJH 081430Z AUTO 36006KT 10SM CLR 21/18 A3019 RMK AO2 
     T02080178=
METAR KIBM 081430Z AUTO 00000KT 10SM SCT030 BKN038 OVC065 14/11 
     A3034 RMK AO2 T01400110=
METAR KJYR 081430Z AUTO 03005KT 10SM CLR 20/17 A3020 RMK AO2=
METAR KL35 081432Z AUTO 07004KT 10SM CLR 12/M03 A3019 RMK AO2=
METAR KLCG 081430Z AUTO 35003KT 10SM CLR 22/16 A3019 RMK AO2 
     T02210155=
METAR KLHM 081431Z AUTO 14007KT 10SM CLR 17/11 A2985 RMK AO1 
     T01740112=
METAR KLXN 081430Z AUTO 36004KT 10SM OVC055 19/17 A3025 RMK AO2 
     T01930169=
METAR KMLE 081430Z AUTO 01003KT 10SM CLR 23/15 A3016 RMK AO2 
     T02250154=
METAR KMMH 081430Z AUTO 00000KT 10SM CLR 12/04 A3024 RMK AO1=
METAR KOAJ 081435Z AUTO 01006KT 8SM FEW120 29/24 A2997 RMK AO1=
METAR KOGA 081430Z AUTO 00000KT 10SM BKN038 OVC100 18/16 A3030 
     RMK AO2 T01760158=
METAR KONL 081430Z AUTO 34004KT 10SM CLR 22/14 A3024 RMK AO2 
     T02160142=
METAR KONP 081432Z AUTO 00000KT 1/4SM FG OVC002 11/10 A3000 RMK 
     AO1=
METAR KPNA 081430Z AUTO 30009KT 10SM SCT090 SCT110 13/02 A3041 
     RMK AO2 T01300022=
METAR KPTT 081430Z AUTO 36009KT 5SM -RA OVC006 20/19 A3019 RMK AO2=
METAR KSOP 081435Z AUTO 06005KT 9SM CLR 33/20 A2998 RMK AO1=
METAR KSOW 081430Z AUTO 18005KT 10SM FEW090 BKN120 21/04 A3029 
     RMK AO2=
METAR KSZT 081430Z AUTO 00000KT 10SM CLR 16/10 A3012 RMK AO2=
METAR KTIF 081430Z AUTO 30003KT 10SM CLR 20/14 A3028 RMK AO2 
     T02020142=
METAR KUDG 081435Z 03005KT 10SM CLR 32/21 A2998 RMK AO1=
####018000313####
SAEW34 LEMM 081430
METAR LEDA 081430Z 18006KT 120V220 CAVOK 38/15 Q1018=
METAR LEJR 081430Z 24007KT 210V280 CAVOK 30/17 Q1015=
METAR LELL 081430Z 12008KT 050V150 CAVOK 32/13 Q1019=
METAR LEPP 081430Z 18010KT 140V210 9999 FEW064 37/14 Q1017=
METAR LEXJ 081430Z 28007KT 250V310 9999 FEW018 25/19 Q1015=
####018000104####
SPUS81 KWBC 081434
SPECI
KATT 081431Z AUTO VRB03KT 3SM -RA BR SCT010 BKN014 OVC060 25/24
A3000=
####018000950####
SAUK KAWN 081400 RRG
METAR EGAE 081420Z 21011KT 9999 FEW022 19/10 Q1012=
METAR EGBJ 081420Z 23008KT 9999 FEW045 23/08 Q1018=
METAR EGLF 081420Z 26007KT 9999 SCT030 24/15 Q1018=
METAR EGNC 081420Z 23015G27KT 200V260 9999 SCT035 19/09 Q1015=
METAR EGNH 081420Z 24011KT 9999 FEW031 19/11 Q1017=
METAR EGNJ 081420Z 23014KT 200V260 9999 SCT040 24/08 Q1017=
METAR EGPA 081420Z 24012KT 9999 -RADZ FEW020CB SCT028 BKN035 14/12
      Q1009 RERA=
METAR EGPC 081420Z 21014G24KT 170V240 9999 SHRA SCT020 16/11 Q1009=
METAR EGPE 081420Z 21020KT 9999 FEW018 SCT048 17/09 Q1010=
METAR EGPL 081420Z 22020KT 9999 FEW018 15/12 Q1009=
METAR EGPM 081420Z 22022KT 9999 FEW029 16/10 Q1007=
METAR EGPN 081420Z 24020KT 9999 SCT045 19/11 Q1012=
METAR EGPO 081420Z 22025KT 9999 VCSH FEW022CB SCT034 18/10 Q1007=
METAR EGSC 081420Z 22008KT 150V260 9999 FEW042 24/12 Q1018=
METAR COR EGSH 081420Z 23009KT 170V280 9999 SCT034 26/13 Q1018 NOSIG=
####018000436####
SAXX70 KAWN 081400 RRQ
METAR KQEJ 081420Z AUTO 20001KT 2SM -RA BR BKN003 BKN045 21/19 A2996
      RMK A02=
METAR KQEL 081430Z AUTO 04002KT 2SM -SHRA BR FEW028 21/20 A2975 RMK
      A02=
METAR KQEQ 081430Z AUTO 17002KT 3SM BR SCT080 22/20 A2983 RMK A02=
METAR KQEW 081430Z AUTO 27005KT 7SM -SHRA SCT037 BKN085 24/20 A2985
      RMK A02=
METAR KQFB 081430Z AUTO 14004KT 3SM BR FEW008 SCT023 23/19 A2995 RMK
      A02=
####018000079####
SAAE31 VTBB 081400 RRB
METAR VDPP 081400Z 33003KT 9999 SCT020 28/22 Q1008=
####018001722####
SAEU KAWN 081400 RRX
METAR EICK 081430Z 20011KT 9999 -RA BKN006 BKN012 BKN038 13/13 Q1015
      TEMPO 2000=
METAR EINN 081430Z 18008KT 8000 -RADZ FEW016 BKN026 BKN038 15/13 Q1015
      NOSIG=
METAR EPGD 081430Z 06009KT 030V090 CAVOK 23/12 Q1021=
METAR EPKK 081430Z VRB05KT CAVOK 24/07 Q1022=
METAR EPKT 081430Z 36006KT CAVOK 23/08 Q1022=
METAR EPPO 081430Z VRB03KT CAVOK 26/06 Q1021=
METAR EPRZ 081430Z 33008KT 280V010 CAVOK 23/11 Q1021=
METAR EPWA 081430Z 33008KT 270V020 CAVOK 24/12 Q1020 NOSIG=
METAR LATI 081430Z 01020G32KT 340V080 9999 FEW060 27/13 Q1016 NOSIG=
METAR LEAM 081430Z 09017KT 060V120 9999 FEW050 38/06 Q1015=
METAR LERS 081430Z 19009KT 160V240 CAVOK 30/12 Q1019=
METAR LGAL 081420Z 00000KT 9999 FEW020TCU SCT025 BKN080 20/16 Q1015=
METAR LGEL 081420Z 36013G23KT 9999 FEW025 BKN080 27/12 Q1012=
METAR LGKV 081420Z 35005KT 9999 SCT030TCU BKN100 18/17 Q1014=
METAR LGMK 081420Z 36022KT 9999 FEW015 24/17 Q1012=
METAR LGMT 081420Z 36020G32KT 310V020 9999 SCT030 27/18 Q1011=
METAR LGPZ 081420Z 26013KT 9999 FEW025 29/18 Q1013 NOSIG=
METAR LGRX 081420Z 26009KT 9999 FEW020 27/16 Q1012 NOSIG=
METAR LGSR 081420Z 02013KT 9999 FEW025 26/18 Q1010 NOSIG=
METAR LGZA 081420Z 32016KT CAVOK 28/11 Q1012=
METAR LKKV 081430Z VRB01KT CAVOK 25/09 Q1022=
METAR LKMT 081430Z 01004KT 270V080 CAVOK 22/10 Q1022 NOSIG=
METAR LKPR 081430Z 31004KT 250V040 CAVOK 26/10 Q1022 NOSIG=
METAR LKTB 081430Z VRB02KT CAVOK 26/08 Q1021 NOSIG=
METAR LYBE 081430Z 33011KT CAVOK 24/12 Q1021 NOSIG=
METAR LYNI 081430Z 32010KT 9999 FEW020 BKN026 20/14 Q1021 NOSIG=
METAR LYPG 081430Z 02016KT 9999 FEW040 28/09 Q1017 NOSIG=
METAR LYTV 081430Z 34003KT 9999 FEW053 30/10 Q1017 NOSIG=
####018000204####
SPAU31 AMMC 081434
SPECI YPPH 081430Z 35010KT 3000 -SHRA FEW009 BKN025 BKN058 13/13 Q0996
     FM1430 31014G25KT 9999 -SHRA BKN020
     INTER 1430/1730 29030G50KT 2000 TSGS BKN010 FEW030CB=


####018000198####
SPAU31 AMMC 081434
SPECI YPPH 081430Z 35010KT 3000 -SHRA FEW009 BKN025 BKN058 13/13 Q0996
     FM1430 31014G25KT 9999 -SHRA BKN020
     INTER 1430/1730 29030G50KT 2000 TSGS BKN010 FEW030CB=
####018000109####
SAGG31 UGTB 081430
METAR UGTB 081430Z 08011KT 9999 SCT050 SCT100 34/12 Q1013 NOSIG RMK
      13CLRD80=
####018000087####
SAUZ31 UTTW 081430
METAR UTNU 081430Z 08002MPS CAVOK 36/22 Q1006 R31/CLRD60 NOSIG=
####018000092####
SAUZ31 UTTW 081430
METAR UTSS 081430Z 08003MPS 9999 NSC 30/10 Q1010 R88/CLRD70
NOSIG=
####018000098####
SAUS43 KLOT 081434
MTRRFD
SPECI KRFD 081433Z 31010KT 10SM BKN017 BKN150 24/20 A3005 RMK AO2
####018000145####
SAUS45 KMSO 081434
MTR3DU

METAR K3DU 081343Z 00000KT 20SM SKC 06/03 RMK NOSPECI 
T00580026       












####018001790####
SAEU KAWN 081400 RRX
METAR EIDW 081430Z 20011KT 170V230 9999 -SHRA FEW022 SCT040 BKN050
      16/11 Q1015 NOSIG=
METAR EIKN 081430Z 21007KT 180V270 9999 FEW015 FEW018CB SCT030 BKN048
      14/12 Q1014 NOSIG=
METAR LEAL 081430Z 07010KT 050V110 CAVOK 30/18 Q1019 NOSIG=
METAR LEAS 081430Z 05006KT 010V080 9999 FEW015 23/19 Q1015 NOSIG=
METAR LEBB 081430Z 29005KT 230V340 9999 FEW025 26/21 Q1016 TEMPO SCT030CB=
METAR LEBL 081430Z 20013KT CAVOK 28/20 Q1019 NOSIG=
METAR LECO 081430Z 31007KT 250V340 CAVOK 25/20 Q1016=
METAR LEGE 081430Z 18009KT 140V210 CAVOK 32/18 Q1019=
METAR LEGR 081430Z 15017KT 9999 FEW060 SCT080 39/06 Q1016=
METAR LEIB 081430Z 09007KT 040V120 CAVOK 29/21 Q1019 NOSIG=
METAR LEMD 081430Z 34009KT 310V020 9999 SCT035CB 30/14 Q1018 WS ALL
      RWY TEMPO SHRA=
METAR LEMG 081430Z 16009KT 110V200 9999 FEW045 29/15 Q1016 NOSIG=
METAR LEMH 081430Z 17008KT 120V210 CAVOK 29/19 Q1020=
METAR LEPA 081430Z 23010KT 200V260 CAVOK 31/14 Q1019 NOSIG=
METAR LEPP 081430Z 18010KT 140V210 9999 FEW064 37/14 Q1017=
METAR LESA 081430Z 18017KT 150V230 9999 FEW048 35/14 Q1017=
METAR LESO 081430Z VRB04KT CAVOK 27/21 Q1015=
METAR LEST 081430Z 25007KT 210V290 9999 SCT035 27/20 Q1016 NOSIG=
METAR LEVC 081430Z 12011KT 090V150 CAVOK 32/12 Q1018 NOSIG=
METAR LEVD 081430Z 18013KT 140V210 CAVOK 34/07 Q1017=
METAR LEVS 081430Z 30005KT 220V010 9999 -RA FEW050 29/13 Q1019=
METAR LEVT 081430Z 13003KT 090V160 9999 FEW050 33/17 Q1017=
METAR LEVX 081430Z 36006KT 8000 FEW030 22/18 Q1016=
METAR LEXJ 081430Z 28007KT 250V310 9999 FEW018 25/19 Q1015=
METAR LEZG 081430Z 09006KT 9999 FEW035 FEW040CB SCT070 37/12 Q1016=
METAR LEZL 081430Z 22008KT 170V290 9999 FEW040 33/16 Q1015 NOSIG=
METAR LFQI 081430Z 25005KT 180V310 CAVOK 31/10 Q1018=
####018000098####
SAMG20 FMMI 081430
METAR FMMI 081430Z 13007KT 090V160 9999 SCT020 BKN023 15/14 Q1026
NOSIG=
####018000956####
SAUS20 KNKA 081434
SPECI KAAO 081433Z AUTO 01008KT 10SM OVC008 22/20 A3014 RMK AO2 CIG 
    005V014=
METAR KBDN 081435Z AUTO 00000KT 10SM CLR 18/04 A3013 RMK AO2 =
METAR KCGC 081435Z AUTO 00000KT 10SM CLR 28/21 A3001 RMK=
SPECI KCRP 081431Z 03013KT 2 1/2SM -TSRA BR FEW006 BKN020CB BKN040
     26/25 A2988 RMK AO2 TSB31RAB1356 TS OHD-N MOV NW CB E-SE MOV
     NW TCU DSNT NE S SW P0019=
SPECI KDHT 081433Z AUTO 36008KT 10SM BKN010 OVC016 18/16 A3028 RMK 
    AO2=
METAR KDYB 081435Z AUTO 33005KT 10SM CLR 31/22 A2996 RMK AO1=
METAR KMNI 081435Z AUTO 32007KT 10SM CLR 33/25 A2995 RMK AO2=
SPECI KPYM 081433Z AUTO VRB05KT 10SM BKN029 28/19 A3010 RMK AO2=
SPECI KSLN 081433Z 02011KT 10SM BKN010 22/19 A3016 RMK AO2=
METAR KSPA 081435Z AUTO 00000KT 10SM CLR 32/25 A3002 RMK AO2=
METAR KSPL 081435Z AUTO 00000KT BKN029 BKN036 27/25 A2976 RMK AO2 
     PWINO PNO =
METAR KUTA 081435Z AUTO 00000KT 10SM CLR 30/22 A3009 RMK AO2=
####018000556####
SPUS99 KWBC 081435
SPECI
KCXO 081433Z 16009KT 3/4SM +RA BR SCT009 OVC015 24/23 A3002 RMK
     AO2 RAB23 P0016=
KAAO 081433Z AUTO 01008KT 10SM OVC008 22/20 A3014 RMK AO2 CIG
     005V014=
KCRP 081431Z 03013KT 2 1/2SM -TSRA BR FEW006 BKN020CB BKN040 26/25
     A2988 RMK AO2 TSB31RAB1356 TS OHD-N MOV NW CB E-SE MOV NW TCU
     DSNT NE S SW P0019=
KDHT 081433Z AUTO 36008KT 10SM BKN010 OVC016 18/16 A3028 RMK
     AO2=
KPYM 081433Z AUTO VRB05KT 10SM BKN029 28/19 A3010 RMK AO2=
KSLN 081433Z 02011KT 10SM BKN010 22/19 A3016 RMK AO2=
####018002061####
SAUS99 KWBC 081435
METAR
KPMV 081430Z AUTO 02006KT 10SM CLR 23/17 A3016 RMK AO2
     T02330173=
KDVO 081430Z AUTO 01004KT 10SM OVC008 13/12 A2994 RMK AO2=
KHDE 081430Z AUTO 02005KT 10SM CLR 20/16 A3024 RMK AO2
     T02000157=
KHJH 081430Z AUTO 36006KT 10SM CLR 21/18 A3019 RMK AO2
     T02080178=
KIBM 081430Z AUTO 00000KT 10SM SCT030 BKN038 OVC065 14/11 A3034
     RMK AO2 T01400110=
KJYR 081430Z AUTO 03005KT 10SM CLR 20/17 A3020 RMK AO2=
KL35 081432Z AUTO 07004KT 10SM CLR 12/M03 A3019 RMK AO2=
KLCG 081430Z AUTO 35003KT 10SM CLR 22/16 A3019 RMK AO2
     T02210155=
KLHM 081431Z AUTO 14007KT 10SM CLR 17/11 A2985 RMK AO1
     T01740112=
KLXN 081430Z AUTO 36004KT 10SM OVC055 19/17 A3025 RMK AO2
     T01930169=
KMLE 081430Z AUTO 01003KT 10SM CLR 23/15 A3016 RMK AO2
     T02250154=
KMMH 081430Z AUTO 00000KT 10SM CLR 12/04 A3024 RMK AO1=
KOAJ 081435Z AUTO 01006KT 8SM FEW120 29/24 A2997 RMK AO1=
KOGA 081430Z AUTO 00000KT 10SM BKN038 OVC100 18/16 A3030 RMK AO2
     T01760158=
KONL 081430Z AUTO 34004KT 10SM CLR 22/14 A3024 RMK AO2
     T02160142=
KONP 081432Z AUTO 00000KT 1/4SM FG OVC002 11/10 A3000 RMK AO1=
KPNA 081430Z AUTO 30009KT 10SM SCT090 SCT110 13/02 A3041 RMK AO2
     T01300022=
KPTT 081430Z AUTO 36009KT 5SM -RA OVC006 20/19 A3019 RMK AO2=
KSOP 081435Z AUTO 06005KT 9SM CLR 33/20 A2998 RMK AO1=
KSOW 081430Z AUTO 18005KT 10SM FEW090 BKN120 21/04 A3029 RMK
     AO2=
KSZT 081430Z AUTO 00000KT 10SM CLR 16/10 A3012 RMK AO2=
KTIF 081430Z AUTO 30003KT 10SM CLR 20/14 A3028 RMK AO2
     T02020142=
KUDG 081435Z 03005KT 10SM CLR 32/21 A2998 RMK AO1=
KBDN 081435Z AUTO 00000KT 10SM CLR 18/04 A3013 RMK AO2=
KCGC 081435Z AUTO 00000KT 10SM CLR 28/21 A3001 RMK=
KDYB 081435Z AUTO 33005KT 10SM CLR 31/22 A2996 RMK AO1=
KMNI 081435Z AUTO 32007KT 10SM CLR 33/25 A2995 RMK AO2=
KSPA 081435Z AUTO 00000KT 10SM CLR 32/25 A3002 RMK AO2=
KSPL 081435Z AUTO 00000KT BKN029 BKN036 27/25 A2976 RMK AO2 PWINO
     PNO=
KUTA 081435Z AUTO 00000KT 10SM CLR 30/22 A3009 RMK AO2=
####018000397####
SARO31 LROM 081430
METAR LRBS 081430Z 28006KT 240V310 9999 -RA FEW006 21/17 Q1016
NOSIG=
METAR LRCK 081430Z 02012KT 350V060 9999 TS SCT035CB 25/16 Q1014
TEMPO 5000 TSRA=
METAR LROP 081430Z 25006KT 210V270 9999 -SHRA FEW018 SCT040CB 21/15
Q1016 880///95 NOSIG=
METAR LRSB 081430Z 03004KT 340V070 9999 BKN033 OVC086 18/13 Q1020=
METAR LRTR 081430Z 34010KT 310V020 9999 FEW048 24/14 Q1020=
####018000088####
SAUK38 EGGY 081420 CCA
METAR COR EGPM 081420Z 22022KT 9999 FEW029 16/10 Q1007 NOSIG=
####018000501####
SAFR36 LFPW 081430
METAR LFGJ 081430Z AUTO 19004KT 110V240 9999NDV NSC 32/12 Q1019=
METAR LFMD 081430Z AUTO 18005KT 140V240 9999NDV NSC 30/21 Q1020=
METAR LFOT 081430Z AUTO 12005KT 060V190 9999NDV NSC 34/08 Q1017=
METAR LFRC 081430Z AUTO 36007KT 330V030 9999NDV NSC 20/16 Q1019=
METAR LFRG 081430Z AUTO 35005KT 310V030 9999NDV NSC 28/15 Q1019=
METAR LFBA 081430Z NIL=
METAR LFBE 081430Z NIL=
METAR LFJR 081430Z NIL=
METAR LFMH 081430Z NIL=
METAR LFPN 081430Z NIL=
METAR LFRK 081430Z NIL=
####018000374####
SAFR31 LFPW 081430
METAR LFLL 081430Z 23006KT 140V300 CAVOK 33/11 Q1019 NOSIG=
METAR LFMN 081430Z 15003KT 120V180 9999 FEW016 28/23 Q1020 NOSIG=
METAR LFPG 081430Z VRB04KT CAVOK 32/08 Q1018 NOSIG=
METAR LFPO 081430Z 09003KT 350V160 CAVOK 32/09 Q1018 NOSIG=
METAR LFQQ 081430Z 21009KT 160V270 CAVOK 32/12 Q1018 NOSIG=
METAR LFRB 081430Z NIL=
METAR LFRS 081430Z NIL=
####018000087####
SAKO31 RKSI 081430
METAR RKSI 081430Z 09002KT 8000 FEW030 OVC110 22/19 Q1009 NOSIG=
####018000107####
SAGG31 UGTB 081430
METAR UGTB 081430Z 08011KT 9999 SCT050 SCT100 34/12 Q1013 NOSIG RMK
      13CLRD80=
####018000468####
SAFR37 LFPW 081430
METAR LFAQ 081430Z AUTO VRB06KT 9999NDV NSC 31/09 Q1018=
METAR LFBU 081430Z AUTO 11007KT 060V180 9999NDV NSC 35/11 Q1017=
METAR LFLN 081430Z AUTO VRB02KT 9999NDV NSC 33/12 Q1019=
METAR LFRQ 081430Z AUTO 36012KT 9999NDV NSC 25/17 Q1015=
METAR LFSD 081430Z AUTO 17006KT 120V220 9999NDV NSC 32/12 Q1019=
METAR LFTW 081430Z AUTO 20008KT 150V230 9999NDV NSC 32/15 Q1020=
METAR LFPM 081430Z NIL=
METAR LFRH 081430Z NIL=
METAR LFRT 081430Z NIL=
####018000618####
SAEW31 LEMM 081430
METAR LEMD 081430Z 34009KT 310V020 9999 SCT035CB 30/14 Q1018   WS
ALL RWY TEMPO SHRA=
METAR LEBL 081430Z 20013KT CAVOK 28/20 Q1019 NOSIG=
METAR LEPA 081430Z 23010KT 200V260 CAVOK 31/14 Q1019 NOSIG=
METAR LEZL 081430Z 22008KT 170V290 9999 FEW040 33/16 Q1015 NOSIG=
METAR LEMG 081430Z 16009KT 110V200 9999 FEW045 29/15 Q1016 NOSIG=
METAR LEVC 081430Z 12011KT 090V150 CAVOK 32/12 Q1018 NOSIG=
METAR LEAL 081430Z 07010KT 050V110 CAVOK 30/18 Q1019 NOSIG=
METAR LEIB 081430Z 09007KT 040V120 CAVOK 29/21 Q1019 NOSIG=
METAR LELC 081430Z NIL=
METAR LEVX 081430Z 36006KT 8000 FEW030 22/18 Q1016=
####018000308####
SAEW34 LEMM 081430
METAR LEDA 081430Z 18006KT 120V220 CAVOK 38/15 Q1018=
METAR LEJR 081430Z 24007KT 210V280 CAVOK 30/17 Q1015=
METAR LELL 081430Z 12008KT 050V150 CAVOK 32/13 Q1019=
METAR LEPP 081430Z 18010KT 140V210 9999 FEW064 37/14 Q1017=
METAR LEXJ 081430Z 28007KT 250V310 9999 FEW018 25/19 Q1015=
####018000090####
SAUZ31 UTTW 081430
METAR UTSS 081430Z 08003MPS 9999 NSC 30/10 Q1010 R88/CLRD70
NOSIG=
####018000202####
SAEW35 LEMM 081430
METAR LESA 081430Z 18017KT 150V230 9999 FEW048 35/14 Q1017=
METAR LEVD 081430Z 18013KT 140V210 CAVOK 34/07 Q1017=
METAR LEVS 081430Z 30005KT 220V010 9999 -RA FEW050 29/13 Q1019=
####018000086####
SAUZ31 UTTW 081430
METAR UTNU 081430Z 08002MPS CAVOK 36/22 Q1006 R31/CLRD60 NOSIG=
####018000137####
SAEW36 LEMM 081430
METAR GCLA 081430Z 01012KT 330V050 9999 FEW020 25/18 Q1019=
METAR GEML 081430Z 07007KT 030V120 CAVOK 26/21 Q1016=
####018000203####
SPAU31 YBBN 081434
SPECI YPPH 081430Z 35010KT 3000 -SHRA FEW009 BKN025 BKN058 13/13
Q0996
RMK WBD 0.3
FM1430 31014G25KT 9999 -SHRA BKN020
INTER 1430/1730 29030G50KT 2000 TSGS BKN010 FEW030CB=
####018000084####
SAIN90 VECC 081420
METAR VECC 081420Z 19009KT 4000 HZ SCT018 31/24 Q1005 NOSIG=
####018000190####
SPAU31 KWBC 081435
SPECI
YPPH 081430Z 35010KT 3000 -SHRA FEW009 BKN025 BKN058 13/13 Q0996
FM1430 31014G25KT 9999 -SHRA BKN020 INTER 1430/1730 29030G50KT
2000 TSGS BKN010 FEW030CB=
####018000166####
SANM40 FYWW 081430
METAR FYWB 081430Z 31011KT 9999 R09/M0050VP1500D VV/// 33/02 Q1014 =
METAR FYWB 081430Z 31011KT 9999 R09/M0050VP1500D VV/// 33/02 Q1014 =

####018000095####
SPUS31 KWBC 081435
SPECI
KDEN 081432Z 02004KT 1/4SM BR BKN007 BKN013 OVC039 16/14 A3034=
####018000093####
SPUS41 KWBC 081435
SPECI
KBDL 081432Z 18005KT 4SM HZ SCT014 BKN024 OVC030 27/22 A3006=
####018000098####
SPUS43 KWBC 081435
SPECI
KMKE 081432Z 29007KT 10SM FEW011 BKN014 BKN080 OVC200 26/21 A3001=
####018000075####
SACN88 CWAO 081430
ABB SA 1430 AUTO7 M M M M/22/20/2109/M/M M 63MM=

####018000375####
SAPO31 LPMG 081430
METAR LPFR 081430Z 23009KT 200V260 CAVOK 25/20 Q1016=
METAR LPMA 081430Z 01014KT 9999 FEW018 24/17 Q1020 RS16001KT 
0518005KT 2301016KT=
METAR LPPR 081430Z 20008KT 160V220 9999 FEW006 FEW025CB BKN250 23/18
Q1016=
METAR LPPS 081430Z 03010KT 360V070 9999 FEW016 SCT030 22/15 Q1021=
METAR LPPT 081430Z 25009KT 210V300 CAVOK 30/19 Q1016 NOSIG=
####018000075####
SACN50 CWAO 081430
VOC SA 1430 AUTO8 M M M M/16/10/0000/M/M M 01MM=

