####018000901####
SPUS99 KWBC 081125
SPECI
KACT 081122Z 07003KT 10SM BKN012 BKN017 26/24 A2999 RMK AO2=
KCSM 081122Z AUTO 02007KT 10SM OVC011 23/21 A3011 RMK AO2=
KPIA 081123Z 23004KT 1 1/2SM BR FEW002 BKN014 OVC023 23/22 A3004
     RMK AO2=
KSSF 081123Z AUTO 03006KT 10SM SCT019 BKN025 OVC042 26/23 A2993
     RMK AO2=
KUCP 081124Z AUTO 00000KT 2SM BR CLR 20/19 A3011 RMK AO2 $=
KASH 081123Z VRB05KT 5SM HZ BKN010 BKN041 24/22 A3009 RMK AO2=
KDGW 081123Z AUTO 01004KT 3SM BR FEW001 SCT010 04/04 A3034 RMK AO2
     $=
KEMP 081123Z AUTO 32006KT 5SM BR BKN006 BKN011 OVC023 22/20 A3008
     RMK AO2 CIG 003V008=
KJLN 081123Z 35004KT 10SM BKN024 OVC090 23/22 A3007 RMK AO2
     TSE1056 LTG DSNT N=
KLVJ 081123Z AUTO 12008G17KT 2SM +TSRA BR BKN018 BKN036 OVC060
     25/23 A2994 RMK AO2 PK WND 13026/1101 TSB20RAB02 P0032=
KMQY 081123Z AUTO 00000KT 2 1/2SM BR CLR 24/23 A3009 RMK AO2=
####018003438####
SAUS99 KWBC 081125
METAR
KOPN 081120Z AUTO 00000KT 10SM CLR 24/22 A3005 RMK AO1=
KPCM 081120Z AUTO 04004KT 10SM CLR 23/22 A3001 RMK AO2=
KRCZ 081120Z AUTO 00000KT 10SM CLR 24/19 A2997 RMK AO2
     T02410190=
KRMN 081120Z AUTO 00000KT 4SM BR CLR 23/23 A3003 RMK AO2=
KSFQ 081120Z AUTO 07006KT 2 1/2SM BR CLR 26/24 A2998 RMK AO2=
KSHD 081120Z AUTO 00000KT 4SM HZ CLR 23/19 A3009 RMK AO2=
KSVH 081120Z AUTO 00000KT 10SM SCT095 21/18 A3005 RMK AO2
     T02110183=
KTBR 081120Z AUTO 25004KT 10SM CLR 24/20 A3000 RMK AO2
     T02370203=
KTDF 081122Z AUTO 00000KT 4SM SCT095 22/21 A3001 RMK AO1=
KTVI 081120Z AUTO 00000KT 10SM CLR 22/21 A3004 RMK AO2
     T02200211=
KVDF 081116Z AUTO 00000KT 7SM CLR 22/21 A3000 RMK AO2=
KVJI 081122Z AUTO 00000KT 3SM BR 22/19 A3015 RMK AO2=
KVUJ 081119Z AUTO 00000KT 10SM SCT080 BKN110 24/21 A2999 RMK
     AO2=
KVVG 081115Z AUTO 00000KT 21/20 A3000 RMK AO2=
KW22 081120Z AUTO 00000KT 2SM BR CLR 19/19 A3014 RMK AO2=
KW45 081120Z AUTO 00000KT 7SM CLR 24/20 A3006 RMK AO2
     T02380195=
KWDR 081120Z AUTO 00000KT 10SM CLR 23/20 A3007 RMK AO1=
KXLL 081120Z AUTO 34004KT 5SM HZ CLR 25/23 A3004 RMK AO2
     T02530229=
KXSA 081120Z AUTO 07003KT 3SM CLR 26/25 A2999 RMK AO2 PWINO=
K8A0 081119Z AUTO 00000KT 7SM CLR 23/22 A3008 RMK AO2=
KUXL 081120Z AUTO 06008KT 10SM BKN009 BKN014 26/25 A2998 RMK
     AO2=
KACP 081120Z AUTO 00000KT 4SM BR CLR 24/24 A3001 RMK AO2=
KAFP 081120Z AUTO 00000KT 10SM BKN110 22/18 A2998 RMK AO2
     T02210184=
KALX 081120Z AUTO 00000KT 10SM CLR 22/21 A3005 RMK AO1=
KCPC 081120Z AUTO 00000KT 10SM CLR 25/19 A2993 RMK AO2
     T02540191=
KEHO 081120Z AUTO 00000KT 10SM CLR 20/18 A3004 RMK AO2
     T02030183=
KEYF 081120Z AUTO 00000KT 7SM CLR 25/20 A2994 RMK AO2
     T02500196=
KFFA 081118Z AUTO 07006KT 10SM SCT008 SCT012 26/23 A2997 RMK AO2
     T02550226=
KGAO 081120Z AUTO 07005KT 10SM SCT017 27/25 A3000 RMK AO2=
KGWW 081120Z AUTO 05004KT 5SM HZ CLR 25/21 A2996 RMK AO2
     T02460208=
KHDC 081123Z AUTO 06003KT 7SM SCT014 25/25 A3004 RMK AO2=
KHNZ 081120Z AUTO 00000KT 4SM HZ SCT120 24/20 A3000 RMK AO2
     T02350198=
KIER 081120Z AUTO 00000KT 7SM CLR 23/23 A3003 RMK AO2 PWINO=
KIXA 081120Z AUTO 02003KT 5SM HZ SCT080 24/21 A2997 RMK AO2
     T02410207=
KJKA 081120Z AUTO 00000KT 1SM BR VV007 26/25 A3003 RMK AO2
     T02560247=
KJYO 081120Z AUTO 33003KT 7SM SCT110 28/20 A3002 RMK AO2=
KLDJ 081120Z AUTO 13004KT 2 1/2SM BR OVC002 25/23 A3004 RMK AO2
     T02460232=
KLHZ 081120Z AUTO 00000KT 5SM HZ SCT120 25/20 A2999 RMK AO2
     T02460200=
KLKU 081120Z AUTO 00000KT 5SM HZ CLR 25/21 A3000 RMK AO2=
KLNP 081118Z AUTO 00000KT 4SM CLR 21/19 A3019 RMK AO1=
KLOM 081120Z AUTO 00000KT 5SM CLR 25/22 A3004 RMK AO1
     T02470221=
KLWB 081122Z AUTO 00000KT 4SM BR CLR 21/18 A3017 RMK AO2=
KMDQ 081120Z AUTO 00000KT 7SM CLR 22/21 A3008 RMK AO2
     T02230213=
KMKJ 081120Z AUTO 00000KT 2 1/2SM CLR 18/08 A3022 RMK AO1=
KMQS 081120Z AUTO 00000KT 4SM CLR 25/22 A3006 RMK AO2 PWINO
     PNO=
KMTV 081120Z AUTO 00000KT 5SM BR CLR 23/22 A3006 RMK AO2=
KOBE 081121Z AUTO 00000KT 10SM CLR 23/23 A2998 RMK AO2 LTG DSNT
     SE=
KOCW 081121Z AUTO 05005KT 2SM HZ CLR 26/21 A2996 RMK AO2=
KOMH 081120Z AUTO 00000KT 7SM CLR 26/21 A3003 RMK AO2
     T02570211=
KONX 081120Z AUTO 08005KT 10SM SCT010 OVC100 26/23 A2998 RMK AO2
     T02600225=
####018000083####
SPAK31 KWBC 081125
SPECI
PASI 081121Z 00000KT 1 3/4SM BR OVC002 13/12 A3018=
####018000079####
SPUS41 KWBC 081125
SPECI
KORH 081122Z 17006KT 5SM BR OVC006 23/22 A3012=
####018000098####
SPUS42 KWBC 081125
SPECI
KGLS 081122Z 10015G22KT 10SM -RA FEW012 SCT026 OVC049 25/23 A2993=
####018000081####
SPUS51 KWBC 081125
SPECI
KGFL 081122Z AUTO 00000KT 3SM BR CLR 24/23 A3004=
####018001796####
SAEU KAWN 081100 RRX
METAR EGBB 081120Z 26010KT 210V300 9999 FEW035 21/09 Q1018=
METAR EGCC 081120Z 23008KT 190V270 9999 FEW034 SCT046 19/10 Q1017=
METAR EGFF 081120Z 23005KT 160V320 9999 FEW029 20/10 Q1018=
METAR EGGD 081120Z VRB06KT 9999 FEW033 20/10 Q1019=
METAR EGGP 081120Z 23008KT 190V250 9999 SCT040 19/10 Q1017=
METAR EGHE 081120Z 19008KT 9999 FEW018 18/13 Q1019=
METAR EGJA 081120Z 27003KT 9999 SCT006 18/16 Q1019=
METAR EGJB 081120Z 21006KT 160V230 9999 FEW014 20/17 Q1019=
METAR EGJJ 081120Z 36006KT 320V030 9999 FEW015 22/17 Q1019 NOSIG=
METAR EGKK 081120Z 20006KT 160V260 9999 SCT030 24/14 Q1018=
METAR EGLC 081120Z 30004KT 260V030 9999 FEW024 22/14 Q1018=
METAR EGLF 081120Z VRB04KT 9999 SCT019 SCT037 21/15 Q1019=
METAR EGLL 081120Z 24007KT 180V270 9999 SCT020 SCT035 22/14 Q1019=
METAR EGNT 081120Z 24012KT 9999 SCT038 19/09 Q1015=
METAR EGNV 081120Z 22014KT 190V250 9999 SCT033 20/11 Q1016=
METAR COR EGPB 081120Z 20015KT 9999 FEW020 15/11 Q1007 NOSIG=
METAR EGPD 081120Z 21014KT 9999 SCT040 18/08 Q1010 NOSIG=
METAR EGPF 081120Z 21018KT 9999 FEW030 SCT040 17/10 Q1013=
METAR EGPH 081120Z 23015G27KT 200V280 9999 FEW035 18/09 Q1013=
METAR EGPK 081120Z 23017KT 9999 FEW024 19/09 Q1014=
METAR EGTE 081120Z 18009KT 130V210 9999 FEW022 21/14 Q1018=
METAR EKAH 081120Z AUTO 14005KT 110V210 9999NDV RESHRA BKN055/// 21/18
      Q1019=
METAR EKEB 081120Z AUTO 22008KT 200V270 9999NDV -SHRA FEW032/// BKN075///
      20/16 Q1018=
METAR EKKA 081120Z 20005KT 170V230 3500 SHRA SCT018CB BKN030 17/16
      Q1018 TEMPO 6000 -SHRA=
METAR EKRN 081120Z AUTO 21005KT 190V250 9999NDV NCD 21/15 Q1022=
METAR EKSP 081120Z 22013KT CAVOK 26/09 Q1018 NOSIG RMK BKN090=
METAR EKVJ 081120Z 20008KT 5000 -RA SCT006 BKN010 BKN020 20/17 Q1018=
####018001824####
SAUK KAWN 081100 RRF
METAR EGAA 081120Z 24011KT 9999 SCT031 17/09 Q1014=
METAR EGBB 081120Z 26010KT 210V300 9999 FEW035 21/09 Q1018=
METAR EGCC 081120Z 23008KT 190V270 9999 FEW034 SCT046 19/10 Q1017=
METAR EGFF 081120Z 23005KT 160V320 9999 FEW029 20/10 Q1018=
METAR EGGD 081120Z VRB06KT 9999 FEW033 20/10 Q1019=
METAR EGGP 081120Z 23008KT 190V250 9999 SCT040 19/10 Q1017=
METAR EGGW 081120Z 23006KT 200V270 9999 BKN024 20/13 Q1019=
METAR EGHD 081120Z 21006KT 9999 FEW022 20/13 Q1019=
METAR EGHE 081120Z 19008KT 9999 FEW018 18/13 Q1019=
METAR EGHH 081120Z 18004KT 9999 SCT029 21/16 Q1018=
METAR EGJA 081120Z 27003KT 9999 SCT006 18/16 Q1019=
METAR EGJB 081120Z 21006KT 160V230 9999 FEW014 20/17 Q1019=
METAR EGJJ 081120Z 36006KT 320V030 9999 FEW015 22/17 Q1019 NOSIG=
METAR EGKB 081120Z 22005KT 140V280 9999 BKN025 23/14 Q1019=
METAR EGKK 081120Z 20006KT 160V260 9999 SCT030 24/14 Q1018=
METAR EGLC 081120Z 30004KT 260V030 9999 FEW024 22/14 Q1018=
METAR EGLF 081120Z VRB04KT 9999 SCT019 SCT037 21/15 Q1019=
METAR EGLL 081120Z 24007KT 180V270 9999 SCT020 SCT035 22/14 Q1019=
METAR EGMC 081120Z 23006KT 160V310 9999 FEW029 23/14 Q1018=
METAR EGMD 081120Z 20008KT 9999 FEW018 21/16 Q1019=
METAR EGMH 081120Z 14009KT 9999 FEW020 22/17 Q1019=
METAR EGNM 081120Z 25011KT 190V290 9999 SCT025 19/09 Q1016=
METAR EGNT 081120Z 24012KT 9999 SCT038 19/09 Q1015=
METAR EGNV 081120Z 22014KT 190V250 9999 SCT033 20/11 Q1016=
METAR COR EGPB 081120Z 20015KT 9999 FEW020 15/11 Q1007 NOSIG=
METAR EGPD 081120Z 21014KT 9999 SCT040 18/08 Q1010 NOSIG=
METAR EGPF 081120Z 21018KT 9999 FEW030 SCT040 17/10 Q1013=
METAR EGPH 081120Z 23015G27KT 200V280 9999 FEW035 18/09 Q1013=
METAR EGPK 081120Z 23017KT 9999 FEW024 19/09 Q1014=
METAR EGTE 081120Z 18009KT 130V210 9999 FEW022 21/14 Q1018=
####018000220####
SATU20 LTAA 081050 RRB
METAR LTAU 081120Z 26004KT 200V310 9999 SCT040 33/12 Q1010 NOSIG RMK RWY07 20006KT 140V300=
METAR LTBR 081120Z 34016KT 9999 SCT035TCU BKN100 26/17 Q1011 TEMPO FM1200 -TSRA RMK RWY07 31011KT=
####018000105####
SATU20 LTAA 081050 RRC
METAR LTAN 081120Z 02007KT 9999 SCT040 31/14 Q1011 NOSIG RMK RWY19
01002KT=
####018000422####
SAUK35 EGGY 081120
METAR EGHH 081120Z 18004KT 9999 SCT029 21/16 Q1018=
METAR EGKA 081120Z NIL=
METAR EGKB 081120Z 22005KT 140V280 9999 BKN025 23/14 Q1019 =
METAR EGLF 081120Z VRB04KT 9999 SCT019 SCT037 21/15 Q1019=
METAR EGMC 081120Z 23006KT 160V310 9999 FEW029 23/14 Q1018=
METAR EGMD 081120Z 20008KT 9999 FEW018 21/16 Q1019=
METAR EGMH 081120Z 14009KT 9999 FEW020 22/17 Q1019 =
METAR EGTC 081120Z NIL=
####018000530####
SASN33 ESWI 081120
METAR ESNG 081120Z NIL=
METAR ESNK 081120Z AUTO 16009KT 9999NDV FEW042/// 23/13 Q1012=
METAR ESNN 081120Z 15013KT 9999 BKN039 20/14 Q1013=
METAR ESNO 081120Z AUTO 15012KT 9999NDV FEW086/// 21/13 Q1014=
METAR ESNQ 081120Z 17005KT 130V200 CAVOK 18/09 Q1013=
METAR ESNS 081120Z AUTO 12012KT 100V170 9999NDV ////// 22/09 Q1014=
METAR ESNU 081120Z 13008KT CAVOK 20/12 Q1015=
METAR ESNZ 081120Z 17008KT CAVOK 20/11 Q1012=
METAR ESUT 081120Z AUTO 14011KT 9999NDV FEW044/// OVC072/// 19/10
Q1010=
####018000369####
SAUK33 EGGY 081120
METAR EGGD 081120Z VRB06KT 9999 FEW033 20/10 Q1019=
METAR EGGP 081120Z 23008KT 190V250 9999 SCT040 19/10 Q1017=
METAR EGHI 081120Z NIL=
METAR EGNS 081120Z NIL=
METAR EGNT 081120Z 24012KT 9999 SCT038 19/09 Q1015=
METAR EGNV 081120Z 22014KT 190V250 9999 SCT033 20/11 Q1016=
METAR COR EGPB 081120Z 20015KT 9999 FEW020 15/11 Q1007 NOSIG=
####018000187####
SASN34 ESWI 081120
METAR ESDF 081120Z 20010KT 170V240 CAVOK 23/11 Q1020=
METAR ESPA 081120Z 14011KT CAVOK 19/14 Q1016=
METAR ESSL 081120Z 23008KT 180V270 9999 SCT044 23/12 Q1018=
####018000411####
SAFI32 EFHK 081120
EFHA 081120Z 09004KT 020V160 9999 FEW030TCU BKN200 23/16 Q1015=
EFHF 081120Z 34006KT 270V020 9999 FEW047TCU SCT055 28/17 Q1014=
EFKA 081120Z 23006KT 170V260 9999 FEW045 BKN200 24/11 Q1015=
EFKK 081120Z 20005KT 110V290 9999 SCT048 25/10 Q1015=
EFMA 081120Z 20008KT CAVOK 21/13 Q1016=
EFPO 081120Z 27007KT 230V300 CAVOK 23/13 Q1016=
EFSI 081120Z AUTO VRB04KT CAVOK 24/12 Q1015=
####018000472####
SASN35 ESWI 081120
METAR ESGL 081120Z AUTO 21012KT 9999NDV BKN033/// 21/15 Q1017=
METAR ESGR 081120Z AUTO 23012KT 9999NDV SCT047/// 23/13 Q1018=
METAR ESKM 081120Z NIL=
METAR ESNL 081120Z AUTO 14011KT 9999NDV SCT039/// BKN061/// 20/11
Q1013=
METAR ESNX 081120Z AUTO 18003KT 9999NDV -RA FEW009/// SCT014///
15/13 Q1014=
METAR ESNY 081120Z AUTO 26011KT 9999 FEW041 24/16 Q1014=
METAR ESSF 081120Z NIL=
METAR ESSK 081120Z NIL=
METAR ESUD 081120Z NIL=
####018000406####
SANI20 DNMM 081100 CCA
METAR DNIM 081100Z 30006KT 9999 BKN015 31/24 Q1014=
METAR DNIB 081100Z 28008KT 9999 SCT015 28/23 Q1015=
METAR DNMA 081100Z 21007KT 9999 SCT012 30/24 Q1012=
METAR DNAA 081100Z 27008KT 9999 BKN013 28/22 Q1014 NOSIG=
METAR DNEN 081100Z 21008KT 9999 BKN011 29/23 Q1013=
METAR DNKT 081100Z 27007KT CAVOK 31/21 Q1012=
METAR DNIL 081100Z 21009KT 9999 BKN010 28/23 Q1013=

####018000225####
SADN34 EKCH 081120
METAR EKGF 081120Z NIL=
METAR EKHN 081120Z AUTO VRB02KT 9999NDV BKN043/// BKN088///
18/15 Q1019=
METAR EKHR 081120Z AUTO 20009KT 5000NDV -SHRA  FEW023/// SCT038///
BKN055/// 17/17 Q1018 RESHRA=
####018000492####
SAUK32 EGGY 081120
METAR EGAA 081120Z 24011KT 9999 SCT031 17/09 Q1014=
METAR EGAC 081120Z 22015KT 9999 FEW023 SCT039 18/08 Q1014=
METAR EGFF 081120Z 23005KT 160V320 9999 FEW029 20/10 Q1018=
METAR EGGW 081120Z 23006KT 200V270 9999 BKN024 20/13 Q1019=
METAR EGLC 081120Z 30004KT 260V030 9999 FEW024 22/14 Q1018=
METAR EGNM 081120Z 25011KT 190V290 9999 SCT025 19/09 Q1016=
METAR EGNX 081120Z 24012KT CAVOK 21/08 Q1018=
METAR EGPD 081120Z 21014KT 9999 SCT040 18/08 Q1010 NOSIG=
####018000495####
SASN32 ESWI 081120
METAR ESKN 081120Z 32010G22KT 290V020 9999 SCT048 24/13 Q1018=
METAR ESOE 081120Z NIL=
METAR ESOK 081120Z 22007KT 9999 BKN022 18/14 Q1017=
METAR ESOW 081120Z 24012KT CAVOK 24/13 Q1017=
METAR ESSA 081120Z 24012KT CAVOK 24/13 Q1016 NOSIG=
METAR ESSB 081120Z 23007KT 190V270 CAVOK 25/11 Q1017=
METAR ESSD 081120Z AUTO 26009KT 220V280 9999NDV BKN027/// 20/13
Q1016=
METAR ESSP 081120Z 26014KT CAVOK 24/12 Q1018=
METAR ESSV 081120Z 27006KT CAVOK 21/12 Q1019=
####018000501####
SAUK31 EGGY 081120
METAR EGBB 081120Z 26010KT 210V300 9999 FEW035 21/09 Q1018=
METAR EGCC 081120Z 23008KT 190V270 9999 FEW034 SCT046 19/10
    Q1017=
METAR EGKK 081120Z 20006KT 160V260 9999 SCT030 24/14 Q1018=
METAR EGLL 081120Z 24007KT 180V270 9999 SCT020 SCT035 22/14
    Q1019=
METAR EGPF 081120Z 21018KT 9999 FEW030 SCT040 17/10 Q1013=
METAR EGPH 081120Z 23015G27KT 200V280 9999 FEW035 18/09 Q1013=
METAR EGPK 081120Z 23017KT 9999 FEW024 19/09 Q1014=
METAR EGSS 081120Z NIL=
####018000491####
SAUK34 EGGY 081120
METAR EGHD 081120Z 21006KT 9999 FEW022 20/13 Q1019=
METAR EGHE 081120Z 19008KT 9999 FEW018 18/13 Q1019=
METAR COR EGHK 081120Z 15007KT 9999 FEW022 17/15 Q1018 NOSIG=
METAR EGHQ 081120Z NIL=
METAR EGJA 081120Z 27003KT 9999 SCT006 18/16 Q1019=
METAR EGJB 081120Z 21006KT 160V230 9999 FEW014 20/17 Q1019=
METAR EGJJ 081120Z 36006KT 320V030 9999 FEW015 22/17 Q1019 NOSIG=
METAR EGTE 081120Z 18009KT 130V210 9999 FEW022 21/14 Q1018=
METAR EGTG 081120Z NIL=
####018000089####
SAZA42 FAJS 081130
METAR FAJS 081130Z 05009KT 010V080 9999 SCT042 16/03 Q1034 NOSIG=
####018000098####
SPUS72 KWBC 081125
SPECI
KGLS 081122Z 10015G22KT 10SM -RA FEW012 SCT026 OVC049 25/23 A2993=
####018000091####
SAAK41 KNKA 081125
METAR PAWI 081122Z 21015KT 10SM CLR 07/04 A3001 RMK ASOS VIA PHONE=
####018000564####
SAUS20 KNKA 081125
METAR KCLS 081115Z AUTO 00000KT 10SM CLR 12/12 A2996 RMK AO2 =
METAR KCPK 081120Z AUTO 00000KT 7SM SCT009 SCT110 25/23 A2998 RMK 
     AO2=
METAR KGZL 081115Z AUTO 14003KT 9SM OVC045 24/23 A3004 RMK AO2 =
SPECI KHBR 081123Z AUTO 00000KT 6SM -RA BR BKN004 OVC070 23/22 A3009 
    RMK AO2 TSE02RAB15 P0001=
METAR KJFZ 081120Z AUTO 00000KT 4SM CLR 21/20 A3017 RMK=
SPECI KMFE 081124Z 33006KT 10SM FEW006 BKN016 BKN033 26/24 A2981 RMK 
    AO2=
METAR KOKV 081120Z AUTO 00000KT 5SM HZ CLR 25/20 A3005 RMK AO2 
     T02460196=
####018000120####
SAUS41 KCAR 081125
MTR40B
METAR K40B 081125Z AUTO 00000KT 26/22 A3003 RMK AO1 SLP158
     T02580216 52003 P0001
####018000083####
SPUS75 KWBC 081125
SPECI
PASI 081121Z 00000KT 1 3/4SM BR OVC002 13/12 A3018=
####018000077####
SPUS81 KWBC 081125
SPECI
KNAK 081122Z AUTO 12003KT 2SM HZ 26/23 A3001=
####018000079####
SPUS81 KWBC 081125
SPECI
KORH 081122Z 17006KT 5SM BR OVC006 23/22 A3012=
####018000341####
SADL33 EDZO 081120
METAR EDFE 081120Z VRB03KT CAVOK 28/11 Q1020=
METAR EDFH 081120Z 13007KT 090V220 CAVOK 27/11 Q1022=
METAR EDFM 081120Z 21004KT 150V130 CAVOK 31/10 Q1020=
METAR EDLV 081120Z 23007KT 170V260 CAVOK 32/11 Q1019=
METAR EDTL 081120Z VRB05KT CAVOK 29/12 Q1020=
METAR EDVK 081120Z 20007KT 160V250 CAVOK 26/09 Q1021=
####018000712####
SADL34 EDZO 081120
METAR EDAC 081120Z VRB03KT CAVOK 26/10 Q1022=
METAR EDAH 081120Z 16005KT 120V220 CAVOK 24/09 Q1022=
METAR EDGS 081120Z 17006KT 090V240 CAVOK 24/10 Q1022=
METAR EDHL 081120Z 20007G20KT 140V260 CAVOK 28/11 Q1019=
METAR EDLN 081120Z VRB05KT CAVOK 30/10 Q1019=
METAR EDLP 081120Z 18006KT 120V260 CAVOK 29/11 Q1020=
METAR EDLW 081120Z 22008KT 160V280 CAVOK 30/10 Q1020=
METAR EDMA 081120Z 14005KT 040V200 CAVOK 25/09 Q1022=
METAR EDNY 081120Z 19006KT CAVOK 26/13 Q1022=
METAR EDQM 081120Z VRB04KT CAVOK 23/07 Q1023=
METAR EDRZ 081120Z 17006KT 100V200 CAVOK 29/11 Q1021=
METAR EDSB 081120Z 35005KT 270V040 CAVOK 29/10 Q1021=
METAR EDXW 081120Z 22012KT CAVOK 22/13 Q1018=
####018000237####
SADL35 EDZO 081120
METAR EDHI 081120Z 25009KT 220V290 CAVOK 28/12 Q1019=
METAR EDMO 081120Z VRB04KT CAVOK 25/08 Q1023=
METAR EDOP 081120Z 18008KT 150V230 CAVOK 28/10 Q1020=
METAR EDTD 081120Z 20005KT 160V280 CAVOK 25/08 Q1023=
####018000711####
SADL52 ETGT 081120
METAR
ETGQ NIL=
ETGZ 081120Z VRB02KT 9999 FEW330 24/08 Q1024
      BLU+=
ETHA 081120Z 06004KT 9999 FEW055 23/09 Q1023
      BLU+BLU+=
ETHL 081120Z 04004KT 9999 FEW140 25/08 Q1022
      BLU+BLU+=
ETHN NIL=
ETHR 081120Z 13005KT 9999 FEW160 26/06 Q1022
      BLU+BLU+=
ETNN 081120Z 13004KT 9999 FEW060 SCT300 30/04 Q1019
      BLU+BLU+=
ETSA 081120Z 23004KT 9999 25/09 Q1023
      BLU+BLU+=
ETSB 081120Z 12004KT 9999 FEW300 26/09 Q1022
      BLU+BLU+=
ETSE 081120Z 13005KT 9999 FEW170 23/08 Q1023
      BLU+BLU+=
ETSI NIL=
ETSL 081120Z 08005KT 9999 FEW040 24/08 Q1023
      BLU+BLU+=
ETSN 081120Z 09005KT 9999 FEW160 25/08 Q1022
      BLU+BLU+=
####018000507####
SARS18 KAWN 081100 RRF
METAR EETN 081120Z 32009KT 280V350 CAVOK 24/17 Q1014 NOSIG=
METAR EFHK 081120Z 32007KT 300V360 9999 SCT045 28/18 Q1014 NOSIG=
METAR ESSA 081120Z 24012KT CAVOK 24/13 Q1016 NOSIG=
METAR EVLA 081120Z 31005KT 270V030 CAVOK 23/15 Q1018=
METAR EVRA 081120Z 31009KT 280V350 9999 OVC021 20/15 Q1016 NOSIG=
METAR EYKA 081120Z 29006KT 240V350 9000 -RA BKN029 OVC036 17/14 Q1016=
METAR EYVI 081120Z 29012KT 250V320 1400 R02/P1500N SHRA BKN004 OVC012CB
      15/14 Q1015 NOSIG=
####018000590####
SANO32 ENMI 081120
METAR ENAL 081120Z 29004KT 260V330 9999 VCSH SCT055 BKN095 16/12
           Q1009=
METAR ENCN 081120Z 17007KT 9999 FEW005 SCT010 OVC035 17/16 Q1016=
METAR ENHD 081120Z 20012KT 9999 FEW020 SCT170 16/12 Q1014=
METAR ENRO 081120Z AUTO 21012KT 150V240 9999NDV SCT057/// BKN076///
           OVC130/// 17/04 Q1011=
METAR ENRY 081120Z 18011KT 150V210 9999 SCT007 BKN012 17/15 Q1016
           TEMPO SCT008 BKN015=
METAR ENSB 081120Z NIL=
METAR ENTC 081120Z 29004KT 9999 FEW065 19/07 Q1011=
METAR ENTO 081120Z 18011KT 9000 -DZ FEW004 BKN007 16/15 Q1016=
####018000203####
SANO36 ENMI 081120
METAR ENBS 081120Z NIL=
METAR ENHK 081120Z NIL=
METAR ENHV 081120Z NIL=
METAR ENLK 081120Z NIL=
METAR ENMH 081120Z NIL=
METAR ENNK 081120Z NIL=
METAR ENNM 081120Z NIL=
####018000698####
SANO31 ENMI 081120
METAR ENAN 081120Z 31008KT 9999 FEW045 BKN200 16/09 Q1011 NOSIG=
METAR ENBR 081120Z 20011KT 9999 FEW020 SCT060 18/12 Q1013 NOSIG =
METAR ENBO 081120Z 31004KT 210V050 9999 SCT050TCU 16/10 Q1010 TEMPO
           SHRA SCT030CB=
METAR ENDU 081120Z 18009KT 140V230 9999 -SHRA SCT050 BKN070 20/07
           Q1010 NOSIG=
METAR ENGM 081114Z 18010KT 9999 VCSH FEW008 SCT018 BKN095 17/15 Q1014
           NOSIG=
METAR ENOL 081120Z 36004KT 300V060 9999 FEW025TCU BKN090 19/08 Q1010
           NOSIG=
METAR ENVA 081120Z 26005KT 230V320 9999 TSRA SCT040CB SCT070 20/12
           Q1009 TEMPO NSW =
METAR ENZV 081120Z 20012KT 9999 FEW018 SCT190 18/12 Q1015 NOSIG=
####018000231####
SANO35 ENMI 081120
METAR ENMS 081120Z NIL=
METAR ENRM 081120Z NIL=
METAR ENRS 081120Z NIL=
METAR ENSK 081120Z NIL=
METAR ENSO 081120Z 19010KT 9999 SCT025 18/11 Q1013=
METAR ENST 081120Z NIL=
METAR ENVD 081120Z NIL=
####018000203####
SANO34 ENMI 081120
METAR ENBN 081120Z NIL=
METAR ENBV 081120Z NIL=
METAR ENDI 081120Z NIL=
METAR ENFG 081120Z NIL=
METAR ENHF 081120Z NIL=
METAR ENRA 081120Z NIL=
METAR ENSH 081120Z NIL=
####018000249####
SANO38 ENMI 081120
METAR ENDR 081120Z NIL=
METAR ENEK 081120Z NIL=
METAR ENGC 081120Z NIL=
METAR ENHE 081120Z 18022KT CAVOK 15/11 Q1008=
METAR ENOA 081120Z 20023KT 9999 FEW035 13/11 Q1010=
METAR ENSL 081120Z 23024KT CAVOK 14/10 Q1012=
####018000093####
SAMD90 KWBC 081125
METAR K2W6 081124Z AUTO 09003KT 3SM 25/25 A3002 RMK AO1 SKY OBSCURED=
####018000084####
SAMD90 KWBC 081125
METAR KCBE 081125Z AUTO 00000KT 5SM CLR 22/19 A3011 RMK AO1=
####018000089####
SAMD90 KWBC 081125
METAR KCGE 081122Z AUTO 09004KT 3/4SM OVC002 25/25 A3002 RMK AO1=
####018000085####
SAMD90 KWBC 081125
METAR K2G4 081125Z AUTO 00000KT 10SM CLR 23/13 A3019 RMK AO1=
####018000382####
SANO33 ENMI 081120
METAR ENAT 081120Z NIL=
METAR ENBL 081120Z 21012G24KT 9999 VCSH SCT040TCU SCT070 16/08
           Q1011=
METAR ENEV 081120Z NIL=
METAR ENFL 081120Z NIL=
METAR ENKB 081120Z 18006KT 9999 FEW049 23/07 Q1009=
METAR ENKR 081120Z NIL=
METAR ENML 081120Z VRB03KT 9999 SCT060 20/07 Q1009=
METAR ENNA 081120Z 15013KT 9999 FEW045CB SCT070 22/09 Q1013 =
####018000203####
SANO37 ENMI 081120
METAR ENNO 081120Z NIL=
METAR ENOV 081120Z NIL=
METAR ENSD 081120Z NIL=
METAR ENSG 081120Z NIL=
METAR ENSN 081120Z NIL=
METAR ENSR 081120Z NIL=
METAR ENSS 081120Z NIL=
####018000093####
SAIN90 VECC 081120
METAR VECC 081120Z 22012KT 4500 HZ SCT018 FEW030CB 33/24 Q1004 NOSIG=
####018000087####
SAMD90 KWBC 081125
METAR KDMW 081125Z AUTO 12003KT 5SM HZ CLR 26/22 A3005 RMK AO2=
####018000084####
SAMD90 KWBC 081125
METAR KCGS 081130Z AUTO 00000KT 5SM CLR 27/24 A3001 RMK AO1=
####018000087####
SAMD90 KWBC 081125
METAR KFME 081127Z AUTO 09005KT 5SM SCT110 23/23 A3003 RMK AO1=
####018000084####
SAMD90 KWBC 081125
METAR KW29 081125Z AUTO 11006KT 3SM CLR 25/23 A3001 RMK AO1=
####018000651####
SAUS90 KWBC 081126
METAR K40B 081125Z AUTO 00000KT 26/22 A3003 RMK AO1 SLP158
     T02580216 52003 P0001=
METAR K2W6 081124Z AUTO 09003KT 3SM 25/25 A3002 RMK AO1 SKY
     OBSCURED=
METAR KCBE 081125Z AUTO 00000KT 5SM CLR 22/19 A3011 RMK AO1=
METAR K2G4 081125Z AUTO 00000KT 10SM CLR 23/13 A3019 RMK AO1=
METAR KCGE 081122Z AUTO 09004KT 3/4SM OVC002 25/25 A3002 RMK
     AO1=
METAR KCGS 081130Z AUTO 00000KT 5SM CLR 27/24 A3001 RMK AO1=
METAR KDMW 081125Z AUTO 12003KT 5SM HZ CLR 26/22 A3005 RMK AO2=
METAR KW29 081125Z AUTO 11006KT 3SM CLR 25/23 A3001 RMK AO1=
METAR KFME 081127Z AUTO 09005KT 5SM SCT110 23/23 A3003 RMK AO1=
####018000095####
SPUS90 KWBC 081126
SPECI KNAK 081122Z AUTO 12003KT 2SM HZ 26/23 A3001 RMK AO2
     TSNO=
####018000119####
SAUS44 KFWD 081125
MTRHLR
SPECI KHLR 081124Z AUTO 06004KT 10SM FEW009 SCT037 BKN047 25/ A3000 
RMK AO2 T0250 $
####018000079####
SACN87 KWBC 081126
METAR CWWL 081122Z AUTO 13/ RMK AO1 SLP171 T0125 50001=
####018000080####
SACN96 KWBC 081126
METAR CWZQ 081120Z AUTO 18007KT 24/17 RMK AO1 T02360172=
####018000204####
SPUS99 KWBC 081126
SPECI
KHBR 081123Z AUTO 00000KT 6SM -RA BR BKN004 OVC070 23/22 A3009 RMK
     AO2 TSE02RAB15 P0001=
KMFE 081124Z 33006KT 10SM FEW006 BKN016 BKN033 26/24 A2981 RMK
     AO2=
####018000415####
SAUS99 KWBC 081126
METAR
PAWI 081122Z 21015KT 10SM CLR 07/04 A3001 RMK ASOS VIA PHONE=
KCLS 081115Z AUTO 00000KT 10SM CLR 12/12 A2996 RMK AO2=
KCPK 081120Z AUTO 00000KT 7SM SCT009 SCT110 25/23 A2998 RMK
     AO2=
KGZL 081115Z AUTO 14003KT 9SM OVC045 24/23 A3004 RMK AO2=
KJFZ 081120Z AUTO 00000KT 4SM CLR 21/20 A3017 RMK=
KOKV 081120Z AUTO 00000KT 5SM HZ CLR 25/20 A3005 RMK AO2
     T02460196=
####018000084####
SPCO20 SKBO 081120
SPECI SKBQ 081120Z 00000KT 4000 BR SCT010 BKN070 25/25 A2988=
####018000078####
SAAF17 LFPW 081100 RRB
METAR HLLB 081050Z 33020KT 9999 FEW025 31/17 Q1016=
####018000080####
SAID31 WIII 081100
METAR WABB 081100Z 32004KT 9999 SCT018 26/23 Q1010 NOSIG=
####018000358####
SPUS80 KWBC 081126
SPECI
KNAK 081122Z AUTO 12003KT 2SM HZ 26/23 A3001 RMK AO2 TSNO=
KPIA 081123Z 23004KT 1 1/2SM BR FEW002 BKN014 OVC023 23/22 A3004
     RMK AO2=
KEMP 081123Z AUTO 32006KT 5SM BR BKN006 BKN011 OVC023 22/20 A3008
     RMK AO2 CIG 003V008=
KJLN 081123Z 35004KT 10SM BKN024 OVC090 23/22 A3007 RMK AO2
     TSE1056 LTG DSNT N=
####018003747####
SAUS70 KWBC 081126
METAR
KOPN 081120Z AUTO 00000KT 10SM CLR 24/22 A3005 RMK AO1=
KPCM 081120Z AUTO 04004KT 10SM CLR 23/22 A3001 RMK AO2=
KRCZ 081120Z AUTO 00000KT 10SM CLR 24/19 A2997 RMK AO2
     T02410190=
KRMN 081120Z AUTO 00000KT 4SM BR CLR 23/23 A3003 RMK AO2=
KSFQ 081120Z AUTO 07006KT 2 1/2SM BR CLR 26/24 A2998 RMK AO2=
KSHD 081120Z AUTO 00000KT 4SM HZ CLR 23/19 A3009 RMK AO2=
KSVH 081120Z AUTO 00000KT 10SM SCT095 21/18 A3005 RMK AO2
     T02110183=
KTBR 081120Z AUTO 25004KT 10SM CLR 24/20 A3000 RMK AO2
     T02370203=
KTDF 081122Z AUTO 00000KT 4SM SCT095 22/21 A3001 RMK AO1=
KTVI 081120Z AUTO 00000KT 10SM CLR 22/21 A3004 RMK AO2
     T02200211=
KVDF 081116Z AUTO 00000KT 7SM CLR 22/21 A3000 RMK AO2=
KVJI 081122Z AUTO 00000KT 3SM BR 22/19 A3015 RMK AO2=
KVUJ 081119Z AUTO 00000KT 10SM SCT080 BKN110 24/21 A2999 RMK
     AO2=
KVVG 081115Z AUTO 00000KT 21/20 A3000 RMK AO2=
KW22 081120Z AUTO 00000KT 2SM BR CLR 19/19 A3014 RMK AO2=
KW45 081120Z AUTO 00000KT 7SM CLR 24/20 A3006 RMK AO2
     T02380195=
KWDR 081120Z AUTO 00000KT 10SM CLR 23/20 A3007 RMK AO1=
KXLL 081120Z AUTO 34004KT 5SM HZ CLR 25/23 A3004 RMK AO2
     T02530229=
KXSA 081120Z AUTO 07003KT 3SM CLR 26/25 A2999 RMK AO2 PWINO=
K8A0 081119Z AUTO 00000KT 7SM CLR 23/22 A3008 RMK AO2=
KUXL 081120Z AUTO 06008KT 10SM BKN009 BKN014 26/25 A2998 RMK
     AO2=
KACP 081120Z AUTO 00000KT 4SM BR CLR 24/24 A3001 RMK AO2=
KAFP 081120Z AUTO 00000KT 10SM BKN110 22/18 A2998 RMK AO2
     T02210184=
KALX 081120Z AUTO 00000KT 10SM CLR 22/21 A3005 RMK AO1=
KCPC 081120Z AUTO 00000KT 10SM CLR 25/19 A2993 RMK AO2
     T02540191=
KEHO 081120Z AUTO 00000KT 10SM CLR 20/18 A3004 RMK AO2
     T02030183=
KEYF 081120Z AUTO 00000KT 7SM CLR 25/20 A2994 RMK AO2
     T02500196=
KFFA 081118Z AUTO 07006KT 10SM SCT008 SCT012 26/23 A2997 RMK AO2
     T02550226=
KGAO 081120Z AUTO 07005KT 10SM SCT017 27/25 A3000 RMK AO2=
KGWW 081120Z AUTO 05004KT 5SM HZ CLR 25/21 A2996 RMK AO2
     T02460208=
KHDC 081123Z AUTO 06003KT 7SM SCT014 25/25 A3004 RMK AO2=
KHNZ 081120Z AUTO 00000KT 4SM HZ SCT120 24/20 A3000 RMK AO2
     T02350198=
KIER 081120Z AUTO 00000KT 7SM CLR 23/23 A3003 RMK AO2 PWINO=
KIXA 081120Z AUTO 02003KT 5SM HZ SCT080 24/21 A2997 RMK AO2
     T02410207=
KJKA 081120Z AUTO 00000KT 1SM BR VV007 26/25 A3003 RMK AO2
     T02560247=
KJYO 081120Z AUTO 33003KT 7SM SCT110 28/20 A3002 RMK AO2=
KLDJ 081120Z AUTO 13004KT 2 1/2SM BR OVC002 25/23 A3004 RMK AO2
     T02460232=
KLHZ 081120Z AUTO 00000KT 5SM HZ SCT120 25/20 A2999 RMK AO2
     T02460200=
KLKU 081120Z AUTO 00000KT 5SM HZ CLR 25/21 A3000 RMK AO2=
KLNP 081118Z AUTO 00000KT 4SM CLR 21/19 A3019 RMK AO1=
KLOM 081120Z AUTO 00000KT 5SM CLR 25/22 A3004 RMK AO1
     T02470221=
KLWB 081122Z AUTO 00000KT 4SM BR CLR 21/18 A3017 RMK AO2=
KMDQ 081120Z AUTO 00000KT 7SM CLR 22/21 A3008 RMK AO2
     T02230213=
KMKJ 081120Z AUTO 00000KT 2 1/2SM CLR 18/08 A3022 RMK AO1=
KMQS 081120Z AUTO 00000KT 4SM CLR 25/22 A3006 RMK AO2 PWINO
     PNO=
KMTV 081120Z AUTO 00000KT 5SM BR CLR 23/22 A3006 RMK AO2=
KOBE 081121Z AUTO 00000KT 10SM CLR 23/23 A2998 RMK AO2 LTG DSNT
     SE=
KOCW 081121Z AUTO 05005KT 2SM HZ CLR 26/21 A2996 RMK AO2=
KOMH 081120Z AUTO 00000KT 7SM CLR 26/21 A3003 RMK AO2
     T02570211=
KONX 081120Z AUTO 08005KT 10SM SCT010 OVC100 26/23 A2998 RMK AO2
     T02600225=
PAWI 081122Z 21015KT 10SM CLR 07/04 A3001 RMK ASOS VIA PHONE=
KCLS 081115Z AUTO 00000KT 10SM CLR 12/12 A2996 RMK AO2=
KCPK 081120Z AUTO 00000KT 7SM SCT009 SCT110 25/23 A2998 RMK
     AO2=
KGZL 081115Z AUTO 14003KT 9SM OVC045 24/23 A3004 RMK AO2=
KJFZ 081120Z AUTO 00000KT 4SM CLR 21/20 A3017 RMK=
####018000808####
SPUS70 KWBC 081126
SPECI
KACT 081122Z 07003KT 10SM BKN012 BKN017 26/24 A2999 RMK AO2=
KCSM 081122Z AUTO 02007KT 10SM OVC011 23/21 A3011 RMK AO2=
KSSF 081123Z AUTO 03006KT 10SM SCT019 BKN025 OVC042 26/23 A2993
     RMK AO2=
KUCP 081124Z AUTO 00000KT 2SM BR CLR 20/19 A3011 RMK AO2 $=
KASH 081123Z VRB05KT 5SM HZ BKN010 BKN041 24/22 A3009 RMK AO2=
KDGW 081123Z AUTO 01004KT 3SM BR FEW001 SCT010 04/04 A3034 RMK AO2
     $=
KLVJ 081123Z AUTO 12008G17KT 2SM +TSRA BR BKN018 BKN036 OVC060
     25/23 A2994 RMK AO2 PK WND 13026/1101 TSB20RAB02 P0032=
KMQY 081123Z AUTO 00000KT 2 1/2SM BR CLR 24/23 A3009 RMK AO2=
KHBR 081123Z AUTO 00000KT 6SM -RA BR BKN004 OVC070 23/22 A3009 RMK
     AO2 TSE02RAB15 P0001=
KMFE 081124Z 33006KT 10SM FEW006 BKN016 BKN033 26/24 A2981 RMK
     AO2=
####018000117####
SPXX60 KWBC 081126
SPECI
KHLR 081124Z AUTO 06004KT 10SM FEW009 SCT037 BKN047 25/ A3000 RMK
     AO2 T0250 $=
####018000171####
SAUS80 KWBC 081126
METAR
K40B 081125Z AUTO 00000KT 26/22 A3003 RMK AO1 SLP158 T02580216
     52003 P0001=
KCBE 081125Z AUTO 00000KT 5SM CLR 22/19 A3011 RMK AO1=
####018000348####
SAUS70 KWBC 081126 RRA
METAR
KOKV 081120Z AUTO 00000KT 5SM HZ CLR 25/20 A3005 RMK AO2
     T02460196=
K2W6 081124Z AUTO 09003KT 3SM 25/25 A3002 RMK AO1 SKY OBSCURED=
K2G4 081125Z AUTO 00000KT 10SM CLR 23/13 A3019 RMK AO1=
KCGS 081130Z AUTO 00000KT 5SM CLR 27/24 A3001 RMK AO1=
KW29 081125Z AUTO 11006KT 3SM CLR 25/23 A3001 RMK AO1=
####018000112####
SAAW41 KWBC 081150 RRA
METAR
LTAN 081120Z 02007KT 9999 SCT040 31/14 Q1011 NOSIG RMK RWY19
     01002KT=
####018000028####
SABX31 KWBC 081120
NIL=
####018000096####
SABX31 KWBC 081050 RRC
METAR
EBFN 081055Z 31007KT 9999 FEW042 BKN200 21/17 Q1020 BLU BLU=
####018001821####
SAEW KAWN 081100 RRJ
METAR EDFH 081120Z 13007KT 090V220 CAVOK 27/11 Q1022=
METAR EDTL 081120Z VRB05KT CAVOK 29/12 Q1020=
METAR EDVK 081120Z 20007KT 160V250 CAVOK 26/09 Q1021=
METAR EGJJ 081120Z 36006KT 320V030 9999 FEW015 22/17 Q1019 NOSIG=
METAR EHEH 081125Z AUTO 23007KT 9999NDV BKN350 30/12 Q1019 BLU BLU=
METAR EKAH 081120Z AUTO 14005KT 110V210 9999NDV RESHRA BKN055/// 21/18
      Q1019=
METAR EKEB 081120Z AUTO 22008KT 200V270 9999NDV -SHRA FEW032/// BKN075///
      20/16 Q1018=
METAR EKKA 081120Z 20005KT 170V230 3500 SHRA SCT018CB BKN030 17/16
      Q1018 TEMPO 6000 -SHRA=
METAR EKRN 081120Z AUTO 21005KT 190V250 9999NDV NCD 21/15 Q1022=
METAR EKSP 081120Z 22013KT CAVOK 26/09 Q1018 NOSIG RMK BKN090=
METAR EKVJ 081120Z 20008KT 5000 -RA SCT006 BKN010 BKN020 20/17 Q1018=
METAR ETGG 081120Z 20011KT 9999 SCT090 BKN140 26/11 Q1019 BLU=
METAR ETGZ 081120Z VRB02KT 9999 FEW330 24/08 Q1024 BLU/=
METAR ETHA 081120Z 06004KT 9999 FEW055 23/09 Q1023 BLU/BLU/=
METAR ETHB 081120Z 20005KT 9999 FEW120 29/10 Q1019 BLU/BLU/=
METAR ETHC 081120Z 23006KT 9999 FEW140 30/08 Q1019 BLU/BLU/=
METAR ETHE 081120Z 23005KT 9999 FEW070 BKN260 29/10 Q1019 BLU/BLU/=
METAR ETHR 081120Z 13005KT 9999 FEW160 26/06 Q1022 BLU/BLU/=
METAR ETNH 081120Z 22009KT 9999 FEW060 SCT120 BKN280 27/09 Q1019 BLU/BLU/
      TEMPO BLU=
METAR ETNL 081120Z 16006KT 9999 FEW060 SCT180 26/10 Q1020 BLU/BLU/=
METAR ETNN 081120Z 13004KT 9999 FEW060 SCT300 30/04 Q1019 BLU/BLU/=
METAR ETNT 081120Z 26009KT 9999 FEW050 SCT120 30/12 Q1018 BLU/BLU/=
METAR ETNU 081120Z 13004KT 9999 FEW100 SCT150 25/10 Q1021 BLU/BLU/=
METAR ETSB 081120Z 12004KT 9999 FEW300 26/09 Q1022 BLU/BLU/=
METAR ETSE 081120Z 13005KT 9999 FEW170 23/08 Q1023 BLU/BLU/=
METAR ETSN 081120Z 09005KT 9999 FEW160 25/08 Q1022 BLU/BLU/=
####018001834####
SAEU KAWN 081100 RRX
METAR EDFH 081120Z 13007KT 090V220 CAVOK 27/11 Q1022=
METAR EDTL 081120Z VRB05KT CAVOK 29/12 Q1020=
METAR EGAA 081120Z 24011KT 9999 SCT031 17/09 Q1014=
METAR EGAC 081120Z 22015KT 9999 FEW023 SCT039 18/08 Q1014=
METAR EGGW 081120Z 23006KT 200V270 9999 BKN024 20/13 Q1019=
METAR EGHD 081120Z 21006KT 9999 FEW022 20/13 Q1019=
METAR EGHH 081120Z 18004KT 9999 SCT029 21/16 Q1018=
METAR EGKB 081120Z 22005KT 140V280 9999 BKN025 23/14 Q1019=
METAR EGMC 081120Z 23006KT 160V310 9999 FEW029 23/14 Q1018=
METAR EGMD 081120Z 20008KT 9999 FEW018 21/16 Q1019=
METAR EGMH 081120Z 14009KT 9999 FEW020 22/17 Q1019=
METAR EGNM 081120Z 25011KT 190V290 9999 SCT025 19/09 Q1016=
METAR EGNX 081120Z 24012KT CAVOK 21/08 Q1018=
METAR EHEH 081125Z AUTO 23007KT 9999NDV BKN350 30/12 Q1019 BLU BLU=
METAR ETGG 081120Z 20011KT 9999 SCT090 BKN140 26/11 Q1019 BLU=
METAR ETGZ 081120Z VRB02KT 9999 FEW330 24/08 Q1024 BLU/=
METAR ETHA 081120Z 06004KT 9999 FEW055 23/09 Q1023 BLU/BLU/=
METAR ETHB 081120Z 20005KT 9999 FEW120 29/10 Q1019 BLU/BLU/=
METAR ETHC 081120Z 23006KT 9999 FEW140 30/08 Q1019 BLU/BLU/=
METAR ETHE 081120Z 23005KT 9999 FEW070 BKN260 29/10 Q1019 BLU/BLU/=
METAR ETHR 081120Z 13005KT 9999 FEW160 26/06 Q1022 BLU/BLU/=
METAR ETNH 081120Z 22009KT 9999 FEW060 SCT120 BKN280 27/09 Q1019 BLU/BLU/
      TEMPO BLU=
METAR ETNL 081120Z 16006KT 9999 FEW060 SCT180 26/10 Q1020 BLU/BLU/=
METAR ETNN 081120Z 13004KT 9999 FEW060 SCT300 30/04 Q1019 BLU/BLU/=
METAR ETNT 081120Z 26009KT 9999 FEW050 SCT120 30/12 Q1018 BLU/BLU/=
METAR ETNU 081120Z 13004KT 9999 FEW100 SCT150 25/10 Q1021 BLU/BLU/=
METAR ETSB 081120Z 12004KT 9999 FEW300 26/09 Q1022 BLU/BLU/=
METAR ETSE 081120Z 13005KT 9999 FEW170 23/08 Q1023 BLU/BLU/=
METAR ETSN 081120Z 09005KT 9999 FEW160 25/08 Q1022 BLU/BLU/=
####018000511####
SADL32 KWBC 081120
METAR
EDLN 081120Z VRB05KT CAVOK 30/10 Q1019=
EDLP 081120Z 18006KT 120V260 CAVOK 29/11 Q1020=
EDLS NIL=
EDLW 081120Z 22008KT 160V280 CAVOK 30/10 Q1020=
EDMA 081120Z 14005KT 040V200 CAVOK 25/09 Q1022=
EDML NIL=
EDMO 081120Z VRB04KT CAVOK 25/08 Q1023=
EDMS NIL=
EDQD NIL=
EDQM 081120Z VRB04KT CAVOK 23/07 Q1023=
EDRS NIL=
EDRT NIL=
EDTB NIL=
EDTD 081120Z 20005KT 160V280 CAVOK 25/08 Q1023=
EDTF NIL=
EDTK NIL=
EDTO NIL=
EDTY NIL=
EDTZ NIL=
EDVE NIL=
####018000736####
SADL31 KWBC 081120
METAR
EDBB NIL=
EDBT NIL=
EDCK NIL=
EDDF 081120Z 14004KT 060V180 CAVOK 28/09 Q1020 NOSIG=
EDDH 081120Z 20006KT 170V230 CAVOK 28/10 Q1019 NOSIG=
EDDK 081120Z 19006KT 060V180 CAVOK 31/11 Q1020 NOSIG=
EDDL 081120Z 26007KT 200V280 CAVOK 29/08 Q1019 NOSIG=
EDDM 081120Z 08006KT CAVOK 24/08 Q1023 NOSIG=
EDDN 081120Z VRB01KT CAVOK 26/08 Q1022 NOSIG=
EDDS 081120Z 09001KT CAVOK 27/07 Q1021 NOSIG=
EDDW 081120Z 22008KT CAVOK 30/09 Q1019 NOSIG=
EDFE 081120Z VRB03KT CAVOK 28/11 Q1020=
EDFM 081120Z 21004KT 150V130 CAVOK 31/10 Q1020=
EDHI 081120Z 25009KT 220V290 CAVOK 28/12 Q1019=
EDHL 081120Z 20007G20KT 140V260 CAVOK 28/11 Q1019=
EDKB NIL=
EDKS NIL=
EDLE NIL=
EDLG NIL=
EDLI NIL=
####018000167####
SADL33 KWBC 081115 RRB
METAR
EDNY 081120Z 19006KT CAVOK 26/13 Q1022=
EDVK 081120Z 20007KT 160V250 CAVOK 26/09 Q1021=
EDXW 081120Z 22012KT CAVOK 22/13 Q1018=
####018000904####
SADN31 KWBC 081120
METAR
EKAH 081120Z AUTO 14005KT 110V210 9999NDV RESHRA BKN055/// 21/18
     Q1019=
EKBI 081120Z 22007KT 190V250 9999 VCSH FEW025CB BKN075 21/16
     Q1019=
EKCH 081120Z 17013KT CAVOK 22/14 Q1020 NOSIG=
EKEB 081120Z AUTO 22008KT 200V270 9999NDV -SHRA FEW032///
     BKN075/// 20/16 Q1018=
EKHO NIL=
EKKA 081120Z 20005KT 170V230 3500 SHRA SCT018CB BKN030 17/16 Q1018
     TEMPO 6000 -SHRA=
EKMB NIL=
EKOD 081120Z NIL=
EKRK 081120Z AUTO 21012KT 180V240 9999NDV BKN070/// 25/11
     Q1019=
EKRN 081120Z AUTO 21005KT 190V250 9999NDV NCD 21/15 Q1022=
EKSB 081120Z NIL=
EKSN 081120Z NIL=
EKSP 081120Z 22013KT CAVOK 26/09 Q1018 NOSIG RMK BKN090=
EKSV NIL=
EKTS NIL=
EKVA NIL=
EKVD 081120Z NIL=
EKVG NIL=
EKVJ 081120Z 20008KT 5000 -RA SCT006 BKN010 BKN020 20/17 Q1018=
EKVL NIL=
EKYT 081120Z 21011KT 9999 FEW022 BKN026 20/15 Q1018 NOSIG=
####018000113####
SAEN31 KWBC 081050 RRB
METAR
ENGM 081114Z 18010KT 9999 VCSH FEW008 SCT018 BKN095 17/15 Q1014
     NOSIG=
####018001510####
SAEN31 KWBC 081120
METAR
EETN 081120Z 32009KT 280V350 CAVOK 24/17 Q1014 NOSIG=
EFHF 081120Z 34006KT 270V020 9999 FEW047TCU SCT055 28/17 Q1014=
EFHK 081120Z 32007KT 300V360 9999 SCT045 28/18 Q1014 NOSIG=
EFIV NIL=
EFJY 081120Z VRB02KT 9999 SCT025 SCT080 23/16 Q1015=
EFKE NIL=
EFKK 081120Z 20005KT 110V290 9999 SCT048 25/10 Q1015=
EFKU 081120Z AUTO 31007KT 280V350 9999NDV FEW017 FEW069 SCT137
     24/17 Q1015=
EFMA 081120Z 20008KT CAVOK 21/13 Q1016=
EFOU 081120Z 19005KT 150V240 9999 FEW030 BKN200 22/13 Q1015=
EFPN NIL=
EFPO 081120Z 27007KT 230V300 CAVOK 23/13 Q1016=
EFRO 081120Z AUTO 09006KT 9999NDV FEW044 20/08 Q1016=
EFTN NIL=
EFTP 081120Z VRB04KT 9999 FEW040 25/15 Q1015=
EFTU 081120Z AUTO VRB03KT CAVOK 26/08 Q1015=
EFVA 081120Z 17005KT 9999 FEW030 BKN200 24/11 Q1015=
ENBO 081120Z 31004KT 210V050 9999 SCT050TCU 16/10 Q1010 TEMPO SHRA
     SCT030CB=
ENBR 081120Z 20011KT 9999 FEW020 SCT060 18/12 Q1013 NOSIG=
ENCN 081120Z 17007KT 9999 FEW005 SCT010 OVC035 17/16 Q1016=
ENEB NIL=
ENFB NIL=
ENGM NIL=
ENHD 081120Z 20012KT 9999 FEW020 SCT170 16/12 Q1014=
ENKR 081120Z NIL=
ENSB 081120Z NIL=
ENTC 081120Z 29004KT 9999 FEW065 19/07 Q1011=
ENVA 081120Z 26005KT 230V320 9999 TSRA SCT040CB SCT070 20/12 Q1009
     TEMPO NSW=
ENZV 081120Z 20012KT 9999 FEW018 SCT190 18/12 Q1015 NOSIG=
EVRA 081120Z 31009KT 280V350 9999 OVC021 20/15 Q1016 NOSIG=
EYVI 081120Z 29012KT 250V320 1400 R02/P1500N SHRA BKN004 OVC012CB
     15/14 Q1015 NOSIG=
####018000028####
SAGR31 KWBC 081120
NIL=
####018000028####
SAGR41 KWBC 081120
NIL=
####018000028####
SAIY31 KWBC 081120
NIL=
####018000028####
SAIY41 KWBC 081120
NIL=
####018000489####
SAUS20 KNKA 081125
SPECI KBIV 081124Z AUTO 00000KT 4SM -RA BR SCT001 BKN050 24/22 A3004 
    RMK AO2 RAB19 P0000=
SPECI KCEW 081123Z AUTO 00000KT 6SM BR BKN001 21/21 A3004 RMK AO2=
SPECI KCNU 081124Z AUTO 01003KT 1/2SM FG OVC001 22/21 A3006 RMK AO2=
SPECI KLHQ 081124Z AUTO 00000KT 2SM BR CLR 21/20 A3010 RMK AO2=
SPECI KLNR 081124Z AUTO 00000KT 1 1/4SM BR OVC002 21/20 A3004 RMK 
    AO2=
SPECI KORE 081124Z AUTO 15003KT 6SM HZ SCT013 SCT075 24/21 A3009 RMK 
    AO2=
####018000028####
SAIY32 KWBC 081120
NIL=
####018000028####
SAIY42 KWBC 081120
NIL=
####018000028####
SAIY43 KWBC 081120
NIL=
####018000645####
SANO41 KWBC 081120
METAR
ENAL 081120Z 29004KT 260V330 9999 VCSH SCT055 BKN095 16/12
     Q1009=
ENAN 081120Z 31008KT 9999 FEW045 BKN200 16/09 Q1011 NOSIG=
ENAT 081120Z NIL=
ENBL 081120Z 21012G24KT 9999 VCSH SCT040TCU SCT070 16/08 Q1011=
ENBN 081120Z NIL=
ENBV 081120Z NIL=
ENDI 081120Z NIL=
ENDU 081120Z 18009KT 140V230 9999 -SHRA SCT050 BKN070 20/07 Q1010
     NOSIG=
ENEK 081120Z NIL=
ENEV 081120Z NIL=
ENFG 081120Z NIL=
ENFL 081120Z NIL=
ENFR NIL=
ENGC 081120Z NIL=
ENHF 081120Z NIL=
ENHV 081120Z NIL=
ENKB 081120Z 18006KT 9999 FEW049 23/07 Q1009=
ENLI NIL=
ENLK 081120Z NIL=
ENMH 081120Z NIL=
####018000028####
SANL31 KWBC 081120
NIL=
####018000884####
SANO42 KWBC 081120
METAR
ENML 081120Z VRB03KT 9999 SCT060 20/07 Q1009=
ENMS 081120Z NIL=
ENNA 081120Z 15013KT 9999 FEW045CB SCT070 22/09 Q1013=
ENNK 081120Z NIL=
ENNM 081120Z NIL=
ENNO 081120Z NIL=
ENOA 081120Z 20023KT 9999 FEW035 13/11 Q1010=
ENOL 081120Z 36004KT 300V060 9999 FEW025TCU BKN090 19/08 Q1010
     NOSIG=
ENOV 081120Z NIL=
ENRA 081120Z NIL=
ENRM 081120Z NIL=
ENRO 081120Z AUTO 21012KT 150V240 9999NDV SCT057/// BKN076///
     OVC130/// 17/04 Q1011=
ENRS 081120Z NIL=
ENRY 081120Z 18011KT 150V210 9999 SCT007 BKN012 17/15 Q1016 TEMPO
     SCT008 BKN015=
ENSD 081120Z NIL=
ENSG 081120Z NIL=
ENSH 081120Z NIL=
ENSK 081120Z NIL=
ENSN 081120Z NIL=
ENSO 081120Z 19010KT 9999 SCT025 18/11 Q1013=
ENSR 081120Z NIL=
ENST 081120Z NIL=
ENSV NIL=
ENTO 081120Z 18011KT 9000 -DZ FEW004 BKN007 16/15 Q1016=
ENVD 081120Z NIL=
####018000109####
SARA31 KWBC 081100 RRE
METAR
UAFO 081100Z 00000MPS 9999 FEW050CB 34/12 Q1017 NOSIG RMK
     QFEM684=
####018000747####
SAPA32 KWBC 081100
METAR
NCRG 081100Z 03006KT 9999 SCT014 BKN290 25/24 Q1017=
NFFN 081100Z 14006KT 40KM FEW030 21/19 Q1014 NOSIG RMK RR NIL=
NFNA 081100Z 00000KT 40KM FEW024 21/20 Q1014 RMK RR NIL DEW
     HVY=
NFTF 081100Z 17002KT 9999 FEW015 19/18 Q1015=
NFTV NIL=
NGFU 081100Z 08007KT 50KM FEW020 28/25 Q1010=
NGTA NIL=
NIUE 081100Z AUTO 13006KT //// ////// 24/24 Q1015=
NLWW NIL=
NSFA 081100Z 09004KT 45KM FEW020 26/24 Q1012 RMK DEW=
NSFI NIL=
NSFU NIL=
NSMA NIL=
NSTU 081050Z 09011KT 10SM SCT016 SCT045 28/26 A2990 RMK SLP125
     T02780262 403000260=
NTAA 081100Z 05004KT 9999 FEW023 25/22 Q1015 WS ALL RWY NOSIG=
NTTG NIL=
NTTO NIL=
NVVV NIL=
NWWW 081100Z AUTO 00000KT 9999NDV NCD 18/15 Q1017=
####018001208####
SADL51 ETGT 081120
METAR
EDHK 081120Z 22008KT 9999 FEW050 BKN110 27/09 Q1019
      BLU BLU=
ETGG 081120Z 20011KT 9999 SCT090 BKN140 26/11 Q1019
      BLU=
ETGY NIL=
ETHB 081120Z 20005KT 9999 FEW120 29/10 Q1019
      BLU+BLU+=
ETHC 081120Z 23006KT 9999 FEW140 30/08 Q1019
      BLU+BLU+=
ETHE 081120Z 23005KT 9999 FEW070 BKN260 29/10 Q1019
      BLU+BLU+=
ETHF 081120Z 18006KT 9999 FEW300 27/10 Q1021
      BLU+BLU+=
ETHS NIL=
ETMN 081120Z 25009KT 9999 BKN110 BKN270 28/10 Q1019
      BLU BLU+ TEMPO BLU=
ETND 081120Z 17005KT 9999 FEW060 SCT280 29/12 Q1019
      BLU+=
ETNH 081120Z 22009KT 9999 FEW060 SCT120 BKN280 27/09 Q1019
      BLU+BLU+ TEMPO BLU=
ETNJ NIL=
ETNL 081120Z 16006KT 9999 FEW060 SCT180 26/10 Q1020
      BLU+BLU+=
ETNS 081120Z 20010KT 9999 BKN100 SCT220 27/06 Q1019
      BLU BLU=
ETNT 081120Z 26009KT 9999 FEW050 SCT120 30/12 Q1018
      BLU+BLU+=
ETNU 081120Z 13004KT 9999 FEW100 SCT150 25/10 Q1021
      BLU+BLU+=
ETNW 081120Z 27005KT 9999 FEW130 SCT280 29/10 Q1019
      BLU+BLU+=
ETSH 081120Z 06004KT 9999 FEW150 SCT250 27/07 Q1021
      BLU+BLU+=
ETWM 081120Z 25006KT 9999 FEW070 BKN210 30/08 Q1019
      BLU+=
####018000106####
SAUZ31 UTTW 081100 RRA
METAR UTFN 081100Z 16002MPS 9999 SCT050CB FEW100 37/13 Q1010
R28/CLRD70 NOSIG=
####018000136####
SALV32 EVRA 081120
METAR EVLA 081120Z 31005KT 270V030 CAVOK 23/15 Q1018=
METAR EVVA 081120Z AUTO 33010KT 300V020 CAVOK 22/17 Q1018=
####018000085####
SPAU32 YBBN 081121
SPECI YBRM 081119Z 06005KT 9000 -DZ FEW022 BKN044 23/23 Q1011=
####018001209####
SASN31 KWBC 081120
METAR
ESDB NIL=
ESDF 081120Z 20010KT 170V240 CAVOK 23/11 Q1020=
ESGG 081120Z 19012KT 3300 SHRA BR FEW003 SCT015 BKN018CB 16/14
     Q1019=
ESGJ 081120Z AUTO 22013KT 9999NDV FEW043/// SCT062/// 23/11
     Q1019=
ESGP 081120Z 19013KT 9999 SCT007 BKN009 OVC066 17/16 Q1019 RERA
     REDZ=
ESKN 081120Z 32010G22KT 290V020 9999 SCT048 24/13 Q1018=
ESMK 081120Z 23008KT 190V280 CAVOK 26/12 Q1020=
ESMS 081120Z 18010KT 160V220 CAVOK 23/10 Q1021=
ESMX 081120Z 23010KT 200V280 CAVOK 24/11 Q1020=
ESNN 081120Z 15013KT 9999 BKN039 20/14 Q1013=
ESNO 081120Z AUTO 15012KT 9999NDV FEW086/// 21/13 Q1014=
ESNQ 081120Z 17005KT 130V200 CAVOK 18/09 Q1013=
ESNS 081120Z AUTO 12012KT 100V170 9999NDV ////// 22/09 Q1014=
ESNU 081120Z 13008KT CAVOK 20/12 Q1015=
ESOK 081120Z 22007KT 9999 BKN022 18/14 Q1017=
ESOW 081120Z 24012KT CAVOK 24/13 Q1017=
ESPA 081120Z 14011KT CAVOK 19/14 Q1016=
ESPC NIL=
ESSA 081120Z 24012KT CAVOK 24/13 Q1016 NOSIG=
ESSB 081120Z 23007KT 190V270 CAVOK 25/11 Q1017=
ESSD 081120Z AUTO 26009KT 220V280 9999NDV BKN027/// 20/13
     Q1016=
ESSN NIL=
ESSP 081120Z 26014KT CAVOK 24/12 Q1018=
ESSV 081120Z 27006KT CAVOK 21/12 Q1019=
####018000119####
SAIY41 LIIB 081100 CCA
METAR LIMT 081055Z /////KT 9999 BKN012TCU 15/13 Q1025 RMK BKN MON LIB
VAL NIL VIS MIN 9999=
####018000261####
SASW31 LSSW 081120
METAR LSZH 081120Z VRB03KT CAVOK 27/10 Q1022 NOSIG=
METAR LSGG 081120Z 25003KT 160V330 9999 FEW080 30/12 Q1021 NOSIG=
METAR LSZB 081120Z VRB03KT CAVOK 29/13 Q1021 NOSIG=
METAR LSZA 081120Z 17006KT 140V200 9999 SCT055 28/14 Q1022 NOSIG=
####018000533####
SASW31 KWBC 081120
METAR
LSGC 081120Z 17005KT 120V220 9999 FEW049 26/13 Q1024=
LSGG 081120Z 25003KT 160V330 9999 FEW080 30/12 Q1021 NOSIG=
LSGL NIL=
LSGN NIL=
LSGS 081120Z 25012KT 9999 FEW100 29/14 Q1020=
LSZA 081120Z 17006KT 140V200 9999 SCT055 28/14 Q1022 NOSIG=
LSZB 081120Z VRB03KT CAVOK 29/13 Q1021 NOSIG=
LSZD NIL=
LSZG 081120Z NIL=
LSZH 081120Z VRB03KT CAVOK 27/10 Q1022 NOSIG=
LSZL NIL=
LSZR 081120Z 29004KT 250V320 CAVOK 24/16 Q1022 NOSIG RMK H=
LSZS 081120Z 21006KT 180V250 CAVOK 24/11 Q1026=
####018001024####
SAUK31 KWBC 081120
METAR
EGAA 081120Z 24011KT 9999 SCT031 17/09 Q1014=
EGBB 081120Z 26010KT 210V300 9999 FEW035 21/09 Q1018=
EGCC 081120Z 23008KT 190V270 9999 FEW034 SCT046 19/10 Q1017=
EGFF 081120Z 23005KT 160V320 9999 FEW029 20/10 Q1018=
EGGD 081120Z VRB06KT 9999 FEW033 20/10 Q1019=
EGGP 081120Z 23008KT 190V250 9999 SCT040 19/10 Q1017=
EGGW 081120Z 23006KT 200V270 9999 BKN024 20/13 Q1019=
EGHD 081120Z 21006KT 9999 FEW022 20/13 Q1019=
EGHH 081120Z 18004KT 9999 SCT029 21/16 Q1018=
EGHI 081120Z NIL=
EGJB 081120Z 21006KT 160V230 9999 FEW014 20/17 Q1019=
EGJJ 081120Z 36006KT 320V030 9999 FEW015 22/17 Q1019 NOSIG=
EGKA 081120Z NIL=
EGKB 081120Z 22005KT 140V280 9999 BKN025 23/14 Q1019=
EGKK 081120Z 20006KT 160V260 9999 SCT030 24/14 Q1018=
EGLF 081120Z VRB04KT 9999 SCT019 SCT037 21/15 Q1019=
EGLL 081120Z 24007KT 180V270 9999 SCT020 SCT035 22/14 Q1019=
EGMC 081120Z 23006KT 160V310 9999 FEW029 23/14 Q1018=
EGMD 081120Z 20008KT 9999 FEW018 21/16 Q1019=
EGNH NIL=
EGNJ NIL=
####018000552####
SAUK41 KWBC 081120
METAR
EGAC 081120Z 22015KT 9999 FEW023 SCT039 18/08 Q1014=
EGAE NIL=
EGBE NIL=
EGBJ NIL=
EGDC NIL=
EGDG NIL=
EGDL NIL=
EGDM NIL=
EGDN NIL=
EGDP NIL=
EGDR NIL=
EGDY NIL=
EGFH NIL=
EGGP 081120Z 23008KT 190V250 9999 SCT040 19/10 Q1017=
EGGW 081120Z 23006KT 200V270 9999 BKN024 20/13 Q1019=
EGHE 081120Z 19008KT 9999 FEW018 18/13 Q1019=
EGJA 081120Z 27003KT 9999 SCT006 18/16 Q1019=
EGLC 081120Z 30004KT 260V030 9999 FEW024 22/14 Q1018=
EGNC NIL=
EGNT 081120Z 24012KT 9999 SCT038 19/09 Q1015=
####018000633####
SAUK32 KWBC 081120
METAR
EGNM 081120Z 25011KT 190V290 9999 SCT025 19/09 Q1016=
EGNS 081120Z NIL=
EGNT 081120Z 24012KT 9999 SCT038 19/09 Q1015=
EGNV 081120Z 22014KT 190V250 9999 SCT033 20/11 Q1016=
EGNX 081120Z 24012KT CAVOK 21/08 Q1018=
EGPA NIL=
EGPB 081120Z 20015KT 9999 FEW020 15/11 Q1007 NOSIG=
EGPC NIL=
EGPD 081120Z 21014KT 9999 SCT040 18/08 Q1010 NOSIG=
EGPF 081120Z 21018KT 9999 FEW030 SCT040 17/10 Q1013=
EGPH 081120Z 23015G27KT 200V280 9999 FEW035 18/09 Q1013=
EGPK 081120Z 23017KT 9999 FEW024 19/09 Q1014=
EGSH NIL=
EGTE 081120Z 18009KT 130V210 9999 FEW022 21/14 Q1018=
EGTG 081120Z NIL=
####018000340####
SAUK42 KWBC 081120
METAR
EGOS NIL=
EGOV NIL=
EGPC NIL=
EGPE NIL=
EGPF 081120Z 21018KT 9999 FEW030 SCT040 17/10 Q1013=
EGPL NIL=
EGPM NIL=
EGPN NIL=
EGPO NIL=
EGPT NIL=
EGPU NIL=
EGPW NIL=
EGQJ NIL=
EGQK NIL=
EGQL NIL=
EGQM NIL=
EGQS NIL=
EGSC NIL=
EGSS 081120Z NIL=
EGTC 081120Z NIL=
EGTI NIL=
####018000181####
SAXX61 KWBC 081100 RRF
METAR
EDAH 081120Z 16005KT 120V220 CAVOK 24/09 Q1022=
EDMA 081120Z 14005KT 040V200 CAVOK 25/09 Q1022=
EGPK 081120Z 23017KT 9999 FEW024 19/09 Q1014=
####018000081####
SAXX99 KWBC 081100 CCH
METAR
DNEN 081100Z 21008KT 9999 BKN011 29/23 Q1013=
####018002458####
SAXX99 KWBC 081100 RRR
METAR
CWIK 081100Z AUTO 34002KT 12/11 RMK AO1 SLP193 T01150108 53007=
EDAC 081120Z VRB03KT CAVOK 26/10 Q1022=
EDFH 081120Z 13007KT 090V220 CAVOK 27/11 Q1022=
EDGS 081120Z 17006KT 090V240 CAVOK 24/10 Q1022=
EDLV 081120Z 23007KT 170V260 CAVOK 32/11 Q1019=
EDOP 081120Z 18008KT 150V230 CAVOK 28/10 Q1020=
EDRZ 081120Z 17006KT 100V200 CAVOK 29/11 Q1021=
EDSB 081120Z 35005KT 270V040 CAVOK 29/10 Q1021=
EDTL 081120Z VRB05KT CAVOK 29/12 Q1020=
EFHA 081120Z 09004KT 020V160 9999 FEW030TCU BKN200 23/16 Q1015=
EFKA 081120Z 23006KT 170V260 9999 FEW045 BKN200 24/11 Q1015=
EFSI 081120Z AUTO VRB04KT CAVOK 24/12 Q1015=
EGHK 081120Z 15007KT 9999 FEW022 17/15 Q1018 NOSIG=
EGMH 081120Z 14009KT 9999 FEW020 22/17 Q1019=
EGTG 081120Z NIL=
EKGF 081120Z NIL=
ENBS 081120Z NIL=
ENDR 081120Z NIL=
ENHE 081120Z 18022KT CAVOK 15/11 Q1008=
ENHK 081120Z NIL=
ENSS 081120Z NIL=
ESGR 081120Z AUTO 23012KT 9999NDV SCT047/// 23/13 Q1018=
ESGT 081120Z 22013KT 9999 BKN027 20/13 Q1018=
ESKM 081120Z NIL=
ESMQ 081120Z 17012KT CAVOK 23/13 Q1019=
ESMT 081120Z AUTO 18013KT 9999NDV BKN054/// 22/14 Q1019=
ESNG 081120Z NIL=
ESNK 081120Z AUTO 16009KT 9999NDV FEW042/// 23/13 Q1012=
ESNL 081120Z AUTO 14011KT 9999NDV SCT039/// BKN061/// 20/11
     Q1013=
ESNX 081120Z AUTO 18003KT 9999NDV -RA FEW009/// SCT014/// 15/13
     Q1014=
ESNY 081120Z AUTO 26011KT 9999 FEW041 24/16 Q1014=
ESOE 081120Z NIL=
ESSF 081120Z NIL=
ESSK 081120Z NIL=
ESSL 081120Z 23008KT 180V270 9999 SCT044 23/12 Q1018=
ESTA 081120Z 16011KT 140V200 CAVOK 23/15 Q1020=
ESTL 081120Z AUTO 21009KT 170V240 9999NDV BKN053/// 23/12
     Q1020=
ESUD 081120Z NIL=
ESUT 081120Z AUTO 14011KT 9999NDV FEW044/// OVC072/// 19/10
     Q1010=
ETGZ 081120Z VRB02KT 9999 FEW330 24/08 Q1024 BLU+=
ETHA 081120Z 06004KT 9999 FEW055 23/09 Q1023 BLU+BLU+=
ETHL 081120Z 04004KT 9999 FEW140 25/08 Q1022 BLU+BLU+=
ETHR 081120Z 13005KT 9999 FEW160 26/06 Q1022 BLU+BLU+=
ETNN 081120Z 13004KT 9999 FEW060 SCT300 30/04 Q1019 BLU+BLU+=
ETSA 081120Z 23004KT 9999 25/09 Q1023 BLU+BLU+=
ETSB 081120Z 12004KT 9999 FEW300 26/09 Q1022 BLU+BLU+=
ETSE 081120Z 13005KT 9999 FEW170 23/08 Q1023 BLU+BLU+=
ETSL 081120Z 08005KT 9999 FEW040 24/08 Q1023 BLU+BLU+=
ETSN 081120Z 09005KT 9999 FEW160 25/08 Q1022 BLU+BLU+=
KCBE 081125Z AUTO 00000KT 5SM CLR 22/19 A3011 RMK AO1=
KFME 081127Z AUTO 09005KT 5SM SCT110 23/23 A3003 RMK AO1=
####018000095####
SAZA31 KWBC 081100 RRA
METAR
FAJS 081130Z 05009KT 010V080 9999 SCT042 16/03 Q1034 NOSIG=
####018000097####
SPUS43 KWBC 081126
SPECI
KPIA 081123Z 23004KT 1 1/2SM BR FEW002 BKN014 OVC023 23/22 A3004=
####018000084####
SPUS52 KWBC 081126
SPECI
KACT 081122Z 07003KT 10SM BKN012 BKN017 26/24 A2999=
####018000091####
SPCN31 CWAO 081125
SPECI CYZX 081125Z 21006KT 8SM OVC009 RMK SF7 WNDY HILL 22007KT=

####018000084####
SPUS53 KWBC 081126
SPECI
KJLN 081123Z 35004KT 10SM BKN024 OVC090 23/22 A3007=
####018000092####
SALI20 GLRB 081130
METAR GLRB 081130Z 20007KT 9999 BKN018 FEW026CB 30/25 Q1015
 CB-S=
####018000115####
SAGL31 BGSF 081050 CCA
METAR COR BGJN 081050Z 32004KT 280V360 9999 0600NE PRFG FEW100 
07/05 Q1009 RMK 1AC =
####018000307####
SAFI33 EFHK 081120
EFJO 081120Z AUTO 07003KT CAVOK 27/18 Q1015=
EFLP 081120Z AUTO 17005KT 100V240 CAVOK 31/15 Q1014=
EFMI 081120Z AUTO 17003KT 9999 FEW048 29/19 Q1014=
EFSA 081120Z 12003KT CAVOK 29/16 Q1014=
EFUT 081122Z 15006KT 100V190 9999 VCSH FEW050CB 30/17 Q1013=
METAR EFVR 081125Z NIL=
####018000377####
SABX31 EBBR 081120
METAR EBAW 081120Z 19006KT 140V240 CAVOK 29/12 Q1019 NOSIG=
METAR EBBR 081120Z 27007KT 230V320 CAVOK 29/11 Q1020 NOSIG=
METAR EBCI 081120Z VRB02KT CAVOK 30/10 Q1020 NOSIG=
METAR EBLG 081120Z 24004KT 120V290 CAVOK 30/08 Q1020 NOSIG=
METAR EBOS 081120Z 33007KT 290V360 CAVOK 21/16 Q1020 NOSIG=
METAR ELLX 081120Z VRB02KT CAVOK 28/08 Q1021 NOSIG=
####018000091####
SAOS32 LOWM 081120
METAR LOXZ 081120Z 08005KT 70KM FEW060CU 23/10 Q1023 NOSIG RMK FEW=
####018000085####
SAUK33 EGGY 081120 RRA
METAR EGNS 081120Z 20011KT 9999 FEW025 17/11 Q1016 NOSIG=
####018000395####
SAOS31 LOWM 081120
METAR LOWW 081120Z 31007KT 280V350 9999 FEW055 23/09 Q1023 NOSIG=
METAR LOWL 081120Z 13005KT 060V190 CAVOK 23/09 Q1023 NOSIG=
METAR LOWS 081120Z VRB04KT 9999 FEW070 24/09 Q1022 NOSIG=
METAR LOWI 081120Z 09006KT 020V140 CAVOK 26/13 Q1021 NOSIG=
METAR LOWG 081120Z 05005KT 330V120 CAVOK 26/10 Q1023 NOSIG=
METAR LOWK 081120Z VRB02KT 9999 FEW060 24/11 Q1022 NOSIG=
####018000110####
SAUK31 EGGY 081120 CCA
METAR COR EGLL 081120Z 24007KT 180V270 9999 SCT020 SCT035 22/14
    Q1019 NOSIG=
####018000102####
SAAK27 PADN 081124
METAR PAQT 081124Z 24008KT 10SM CLR 08/06 A3006 RMK ASOS VIA PHONE=
$$


####018001733####
SAEU KAWN 081100 RRX
METAR EDAH 081120Z 16005KT 120V220 CAVOK 24/09 Q1022=
METAR EDHI 081120Z 25009KT 220V290 CAVOK 28/12 Q1019=
METAR EDHK 081120Z 22008KT 9999 FEW050 BKN110 27/09 Q1019 BLU BLU=
METAR EDHL 081120Z 20007G20KT 140V260 CAVOK 28/11 Q1019=
METAR EDLN 081120Z VRB05KT CAVOK 30/10 Q1019=
METAR EDLP 081120Z 18006KT 120V260 CAVOK 29/11 Q1020=
METAR EDLW 081120Z 22008KT 160V280 CAVOK 30/10 Q1020=
METAR EDMA 081120Z 14005KT 040V200 CAVOK 25/09 Q1022=
METAR EDQM 081120Z VRB04KT CAVOK 23/07 Q1023=
METAR EDSB 081120Z 35005KT 270V040 CAVOK 29/10 Q1021=
METAR EDVK 081120Z 20007KT 160V250 CAVOK 26/09 Q1021=
METAR EDXW 081120Z 22012KT CAVOK 22/13 Q1018=
METAR ENAL 081120Z 29004KT 260V330 9999 VCSH SCT055 BKN095 16/12 Q1009=
METAR ENBO 081120Z 31004KT 210V050 9999 SCT050TCU 16/10 Q1010 TEMPO
      SHRA SCT030CB=
METAR ENOL 081120Z 36004KT 300V060 9999 FEW025TCU BKN090 19/08 Q1010
      NOSIG=
METAR ENSO 081120Z 19010KT 9999 SCT025 18/11 Q1013=
METAR ENTO 081120Z 18011KT 9000 -DZ FEW004 BKN007 16/15 Q1016=
METAR ETHF 081120Z 18006KT 9999 FEW300 27/10 Q1021 BLU/BLU/=
METAR ETHL 081120Z 04004KT 9999 FEW140 25/08 Q1022 BLU/BLU/=
METAR ETMN 081120Z 25009KT 9999 BKN110 BKN270 28/10 Q1019 BLU BLU/
      TEMPO BLU=
METAR ETND 081120Z 17005KT 9999 FEW060 SCT280 29/12 Q1019 BLU/=
METAR ETNS 081120Z 20010KT 9999 BKN100 SCT220 27/06 Q1019 BLU BLU=
METAR ETNW 081120Z 27005KT 9999 FEW130 SCT280 29/10 Q1019 BLU/BLU/=
METAR ETSA 081120Z 23004KT 9999 25/09 Q1023 BLU/BLU/=
METAR ETSH 081120Z 06004KT 9999 FEW150 SCT250 27/07 Q1021 BLU/BLU/=
METAR ETSL 081120Z 08005KT 9999 FEW040 24/08 Q1023 BLU/BLU/=
METAR ETWM 081120Z 25006KT 9999 FEW070 BKN210 30/08 Q1019 BLU/=
####018000084####
SPUS72 KWBC 081126
SPECI
KACT 081122Z 07003KT 10SM BKN012 BKN017 26/24 A2999=
####018000084####
SPUS73 KWBC 081126
SPECI
KJLN 081123Z 35004KT 10SM BKN024 OVC090 23/22 A3007=
####018000097####
SPUS73 KWBC 081126
SPECI
KPIA 081123Z 23004KT 1 1/2SM BR FEW002 BKN014 OVC023 23/22 A3004=
####018000098####
SPUS81 KWBC 081126
SPECI
KEMP 081123Z AUTO 32006KT 5SM BR BKN006 BKN011 OVC023 22/20 A3008=
####018000084####
SPUS81 KWBC 081126
SPECI
KJLN 081123Z 35004KT 10SM BKN024 OVC090 23/22 A3007=
####018000097####
SPUS81 KWBC 081126
SPECI
KPIA 081123Z 23004KT 1 1/2SM BR FEW002 BKN014 OVC023 23/22 A3004=
####018001745####
SAEW KAWN 081100 RRK
METAR EBBR 081120Z 27007KT 230V320 CAVOK 29/11 Q1020 NOSIG=
METAR EBLG 081120Z 24004KT 120V290 CAVOK 30/08 Q1020 NOSIG=
METAR EBOS 081120Z 33007KT 290V360 CAVOK 21/16 Q1020 NOSIG=
METAR EDAC 081120Z VRB03KT CAVOK 26/10 Q1022=
METAR EDAH 081120Z 16005KT 120V220 CAVOK 24/09 Q1022=
METAR EDHI 081120Z 25009KT 220V290 CAVOK 28/12 Q1019=
METAR EDHK 081120Z 22008KT 9999 FEW050 BKN110 27/09 Q1019 BLU BLU=
METAR EDHL 081120Z 20007G20KT 140V260 CAVOK 28/11 Q1019=
METAR EDLN 081120Z VRB05KT CAVOK 30/10 Q1019=
METAR EDLP 081120Z 18006KT 120V260 CAVOK 29/11 Q1020=
METAR EDLW 081120Z 22008KT 160V280 CAVOK 30/10 Q1020=
METAR EDMA 081120Z 14005KT 040V200 CAVOK 25/09 Q1022=
METAR EDMO 081120Z VRB04KT CAVOK 25/08 Q1023=
METAR EDNY 081120Z 19006KT CAVOK 26/13 Q1022=
METAR EDOP 081120Z 18008KT 150V230 CAVOK 28/10 Q1020=
METAR EDQM 081120Z VRB04KT CAVOK 23/07 Q1023=
METAR EDSB 081120Z 35005KT 270V040 CAVOK 29/10 Q1021=
METAR EDXW 081120Z 22012KT CAVOK 22/13 Q1018=
METAR ELLX 081120Z VRB02KT CAVOK 28/08 Q1021 NOSIG=
METAR ETHF 081120Z 18006KT 9999 FEW300 27/10 Q1021 BLU/BLU/=
METAR ETHL 081120Z 04004KT 9999 FEW140 25/08 Q1022 BLU/BLU/=
METAR ETMN 081120Z 25009KT 9999 BKN110 BKN270 28/10 Q1019 BLU BLU/
      TEMPO BLU=
METAR ETND 081120Z 17005KT 9999 FEW060 SCT280 29/12 Q1019 BLU/=
METAR ETNS 081120Z 20010KT 9999 BKN100 SCT220 27/06 Q1019 BLU BLU=
METAR ETNW 081120Z 27005KT 9999 FEW130 SCT280 29/10 Q1019 BLU/BLU/=
METAR ETSA 081120Z 23004KT 9999 25/09 Q1023 BLU/BLU/=
METAR ETSH 081120Z 06004KT 9999 FEW150 SCT250 27/07 Q1021 BLU/BLU/=
METAR ETSL 081120Z 08005KT 9999 FEW040 24/08 Q1023 BLU/BLU/=
METAR ETWM 081120Z 25006KT 9999 FEW070 BKN210 30/08 Q1019 BLU/=
####018001660####
SAEU KAWN 081100 RRX
METAR EBBR 081120Z 27007KT 230V320 CAVOK 29/11 Q1020 NOSIG=
METAR EBCI 081120Z VRB02KT CAVOK 30/10 Q1020 NOSIG=
METAR EBLG 081120Z 24004KT 120V290 CAVOK 30/08 Q1020 NOSIG=
METAR EBOS 081120Z 33007KT 290V360 CAVOK 21/16 Q1020 NOSIG=
METAR EDAC 081120Z VRB03KT CAVOK 26/10 Q1022=
METAR EDMO 081120Z VRB04KT CAVOK 25/08 Q1023=
METAR EDNY 081120Z 19006KT CAVOK 26/13 Q1022=
METAR EDOP 081120Z 18008KT 150V230 CAVOK 28/10 Q1020=
METAR ELLX 081120Z VRB02KT CAVOK 28/08 Q1021 NOSIG=
METAR ENAN 081120Z 31008KT 9999 FEW045 BKN200 16/09 Q1011 NOSIG=
METAR ENBL 081120Z 21012G24KT 9999 VCSH SCT040TCU SCT070 16/08 Q1011=
METAR ENBR 081120Z 20011KT 9999 FEW020 SCT060 18/12 Q1013 NOSIG=
METAR ENCN 081120Z 17007KT 9999 FEW005 SCT010 OVC035 17/16 Q1016=
METAR ENDU 081120Z 18009KT 140V230 9999 -SHRA SCT050 BKN070 20/07 Q1010
      NOSIG=
METAR ENGM 081114Z 18010KT 9999 VCSH FEW008 SCT018 BKN095 17/15 Q1014
      NOSIG=
METAR ENHD 081120Z 20012KT 9999 FEW020 SCT170 16/12 Q1014=
METAR ENHE 081120Z 18022KT CAVOK 15/11 Q1008=
METAR ENML 081120Z VRB03KT 9999 SCT060 20/07 Q1009=
METAR ENNA 081120Z 15013KT 9999 FEW045CB SCT070 22/09 Q1013=
METAR ENOA 081120Z 20023KT 9999 FEW035 13/11 Q1010=
METAR ENRO 081120Z AUTO 21012KT 150V240 9999NDV SCT057/// BKN076///
      OVC130/// 17/04 Q1011=
METAR ENRY 081120Z 18011KT 150V210 9999 SCT007 BKN012 17/15 Q1016 TEMPO
      SCT008 BKN015=
METAR ENTC 081120Z 29004KT 9999 FEW065 19/07 Q1011=
METAR ENVA 081120Z 26005KT 230V320 9999 TSRA SCT040CB SCT070 20/12
      Q1009 TEMPO NSW=
METAR ENZV 081120Z 20012KT 9999 FEW018 SCT190 18/12 Q1015 NOSIG=
####018000098####
SADL52 ETGT 081120 RRA
METAR
ETHN 081120Z 33005KT 9999 FEW300 25/08 Q1022
      BLU+BLU+=
####018000254####
SADL36 EDZO 081120
METAR EDHK 081120Z 22008KT 9999 FEW050 BKN110 27/09 Q1019
      BLU BLU=
METAR ETNL 081120Z 16006KT 9999 FEW060 SCT180 26/10 Q1020
      BLU+BLU+=
METAR ETNU 081120Z 13004KT 9999 FEW100 SCT150 25/10 Q1021
      BLU+BLU+=
####018000317####
SASA KAWN 081100 RRH
METAR SBAA 081100Z 31005KT CAVOK 23/20 Q1015=
METAR SBCC 081100Z 12004KT CAVOK 22/18 Q1016=
METAR SBIH 081100Z 00000KT 9999 FEW007 25/23 Q1012=
METAR SBIZ 081100Z 00000KT CAVOK 23/20 Q1014=
METAR SBUL 081100Z 08005KT CAVOK 18/08 Q1021=
METAR SBVH 081100Z 03005KT CAVOK 20/16 Q1016=
####018000468####
SAZZ40 KAWN 081100 RRQ
METAR EFKU 081120Z AUTO 31007KT 280V350 9999NDV FEW017 FEW069 SCT137
      24/17 Q1015=
METAR EFOU 081120Z 19005KT 150V240 9999 FEW030 BKN200 22/13 Q1015=
METAR EGMH 081120Z 14009KT 9999 FEW020 22/17 Q1019=
METAR OKBK 081130Z 34020KT 7000 -BLDU SKC 48/M08 Q0999 NOSIG=
METAR SBJF 081100Z 36004KT CAVOK 15/11 Q1023=
METAR SBKG 081100Z 19008KT 9999 SCT012 BKN015 BKN100 22/20 Q1018=
METAR SBMK 081100Z 00000KT CAVOK 17/13 Q1022=
####018001219####
SPZZ40 KAWN 081126 RRE
SPECI CYMO 081123Z AUTO 28010G16KT 2 1/2SM RA OVC019 OVC093 20/15 A2988
      RMK VSBY VRBL 1.7V4.0=
SPECI KEGI 081122Z AUTO 00000KT 2 1/2SM BR CLR 21/21 A3003 RMK AO2
      VIS 1 1/2V5 SLP169 $=
SPECI KEGI 081123Z AUTO 00000KT 1 3/4SM R18/2600VP6000FT BR CLR 21/21
      A3003 RMK AO2 VIS 1/2V5 SLP169 $=
SPECI KEGI 081124Z AUTO 00000KT 1SM R18/1200VP6000FT BR CLR 21/21 A3003
      RMK AO2 VIS 1/4V5 SLP169 $=
SPECI KGRK 081119Z 06005KT 7SM SCT009 BKN013 BKN029 26/24 A2999=
SPECI KLTS 081118Z 05007KT 6SM R35L/5500FT -TSRA BR FEW007 SCT014 BKN021
      23/22 A3007 RMK AO2A TS 3N MOV N=
SPECI KSLI 081122Z AUTO 00000KT 10SM OVC014 17/14 A2990 RMK AO2 SLP125=
SPECI KTIK 081120Z AUTO 02005KT 10SM FEW007 OVC013 23/22 A3005 RMK
      AO2 SLP164 $=
SPECI MHSC 081120Z AUTO 14003KT 9999 SCT065 22/19 A2994 RMK AO2 RAB1110E1120
      SLP100 $=
SPECI RJCK 081118Z 21005KT 0400 R17/0800V1200U +DZ VV001 16/15 Q1010
      RMK A2985=
SPECI RJOH 081114Z 07004KT 6000 TS FEW010 SCT015 BKN025 FEW025CB 25/22
      Q1010 RMK 2CU010 3CU015 5CU025 2CB025 A2983 FBL TS 15KM S
      MOV NE CB 10KM S=
SPECI YBRM 081119Z 06005KT 9000 -DZ FEW022 BKN044 23/23 Q1011=
####018000130####
SPCN47 CWAO 081126
SPECI CYTZ 081126Z AUTO 00000KT 2 1/4SM BR BKN002 20/20 A3002 RMK
 SLP166 DENSITY ALT 700FT RVR MISG=

####018000075####
SACN95 CWAO 081115
WWA SA 1115 AUTO8 M M M M/19/09/3602/M/M M 33MM=

####018001299####
SACO20 SKBO 081100
METAR
SKAR 081100Z NIL=
SKBG 081100Z 00000KT 9999 SCT012 CST080 19/19 A3003=
SKBO 081100Z VRB02KT 1200 PRFG BKN010 11/10 A3031=
SKBQ 081100Z 22004KT 2000 BR SCT004 25/25 A2987=
SKCC 081100Z 36004KT 9999 SCT015 SCT090 XX/XX A2997=
SKCG 081100Z VRB02KT 9999 FEW012TCU 26/25 A2986=
SKCL 081100Z 00000KT 9999 BKN020 BKN080 21/19 A3000=
SKEJ 081100Z 00000KT 2000SW BCFG BKN010 24/24 A2988=
SKIB 081100Z NIL=
SKIP 081100Z 00000KT 5000 BCFG BKN016 SCT070 10/09 A3037=
SKLC 081100Z 00000KT 9999 MIFG FEW015 24/24 A2986=
SKLT 081100Z 00000KT 9999 SCT015 BKN080 24/24 A2988=
SKMD 081100Z 00000KT 6000 BKN030 SCT080 18/16 A3008=
SKMR 081100Z 00000KT 9999 FEW015 SCT080 24/23 A2984=
SKMZ 081100Z NIL=
SKNV 081100Z 00000KT 9999 FEW007 OVC090 23/22 A2992=
SKPC 081100Z NIL=
SKPE 081100Z VRB02KT 9999 FEW015 BKN080 18/16 A3010=
SKPS 081100Z 19004KT 5000N 9999S VCFG OVC020 15/14 A3018=
SKPV 081100Z NIL=
SKRG 081100Z 00000KT 2500 BCFG BKN003 BKN080 14/14 A3028=
SKRH 081100Z 07004KT 9999 TSRA FEW020CB OVC090 23/22 A2988=
SKSM 081100Z NIL=
SKSP 081100Z 08006KT 9999 SCT015 28/25 A2982=
SKUC 081100Z NIL=
SKUI 081100Z NIL=
SKVP 081100Z 03006KT 9000 BKN010 SCT080 23/23 A2994=
SKVV 081100Z 00000KT 9999 SCT023 BKN080 XX/XX A2993=
NNNN
####018000124####
SAUS41 KGYX 081126
MTRNKT
METAR KNKT 081054Z COR 04006KT 4SM BR FEW001 BKN160 26/24 A2993 RMK 
AO2 SLP132 T02610239
####018000461####
SPUS99 KWBC 081127
SPECI
KBIV 081124Z AUTO 00000KT 4SM -RA BR SCT001 BKN050 24/22 A3004 RMK
     AO2 RAB19 P0000=
KCEW 081123Z AUTO 00000KT 6SM BR BKN001 21/21 A3004 RMK AO2=
KCNU 081124Z AUTO 01003KT 1/2SM FG OVC001 22/21 A3006 RMK AO2=
KLHQ 081124Z AUTO 00000KT 2SM BR CLR 21/20 A3010 RMK AO2=
KLNR 081124Z AUTO 00000KT 1 1/4SM BR OVC002 21/20 A3004 RMK
     AO2=
KORE 081124Z AUTO 15003KT 6SM HZ SCT013 SCT075 24/21 A3009 RMK
     AO2=
####018000085####
SAAO32 GOOY 081100 RRA
METAR GUCY 081100Z 14008KT 9999 FEW016 SCT116 29/24 Q1014=
####018000101####
SAAM31 FCBB 081100 RRD
METAR FGSL 081100Z 26007KT 9999 BKN013 FEW020CB BKN130 27/26
Q1015 NOSIG=
####018000096####
SAQB31 LQSM 081130
METAR LQSA 081130Z 30007KT 260V350 9999 FEW050 BKN065 21/11 Q1023
NOSIG=
####018000709####
SASN31 ESWI 081120
METAR ESGG 081120Z 19012KT 3300 SHRA BR FEW003 SCT015 BKN018CB
16/14 Q1019=
METAR ESGJ 081120Z AUTO 22013KT 9999NDV FEW043/// SCT062/// 23/11
Q1019=
METAR ESGP 081120Z 19013KT 9999 SCT007 BKN009 OVC066 17/16 Q1019
RERA REDZ=
METAR ESGT 081120Z 22013KT 9999 BKN027 20/13 Q1018=
METAR ESMK 081120Z 23008KT 190V280 CAVOK 26/12 Q1020=
METAR ESMQ 081120Z 17012KT CAVOK 23/13 Q1019=
METAR ESMS 081120Z 18010KT 160V220 CAVOK 23/10 Q1021=
METAR ESMT 081120Z AUTO 18013KT 9999NDV BKN054/// 22/14 Q1019=
METAR ESMX 081120Z 23010KT 200V280 CAVOK 24/11 Q1020=
METAR ESTA 081120Z 16011KT 140V200 CAVOK 23/15 Q1020=
METAR ESTL 081120Z AUTO 21009KT 170V240 9999NDV BKN053/// 23/12
Q1020=
####018000408####
SADL32 EDZO 081120
METAR EDDB 081120Z 14003KT CAVOK 26/06 Q1021 NOSIG=
METAR EDDC 081120Z 29003KT CAVOK 25/09 Q1022 NOSIG=
METAR EDDE 081120Z VRB03KT CAVOK 26/08 Q1022 NOSIG=
METAR EDDG 081120Z 21005KT 140V240 CAVOK 29/09 Q1019 NOSIG=
METAR EDDP 081120Z 23004KT 210V270 CAVOK 26/09 Q1021 NOSIG=
METAR EDDR 081120Z 16002KT CAVOK 28/10 Q1021 NOSIG=
METAR EDDW 081120Z 22008KT CAVOK 30/09 Q1019 NOSIG=
####018000078####
SAAM31 FCBB 081100 RRA
METAR FOOG 081100Z /////KT 9999 SCT010 27/22 Q1016=
####018000505####
SAFI31 EFHK 081120
METAR EFHK 081120Z 32007KT 300V360 9999 SCT045 28/18 Q1014 NOSIG=
EFJY 081120Z VRB02KT 9999 SCT025 SCT080 23/16 Q1015=
METAR EFKU 081120Z AUTO 31007KT 280V350 9999NDV 
FEW017 FEW069 SCT137 24/17 Q1015=
EFOU 081120Z 19005KT 150V240 9999 FEW030 BKN200 22/13 Q1015=
METAR EFRO 081120Z AUTO 09006KT 9999NDV FEW044 
20/08 Q1016=
EFTP 081120Z VRB04KT 9999 FEW040 25/15 Q1015=
METAR EFTU 081120Z AUTO VRB03KT CAVOK 26/08 Q1015=
EFVA 081120Z 17005KT 9999 FEW030 BKN200 24/11 Q1015=
####018000192####
SADN32 EKCH 081120
METAR EKVJ 081120Z 20008KT 5000 -RA SCT006 BKN010 BKN020 20/17 Q1018=
METAR EKSB 081120Z NIL=
METAR EKSN 081120Z NIL=
METAR EKVD 081120Z NIL=
METAR EKOD 081120Z NIL=
####018000530####
SADL31 EDZO 081120
METAR EDDF 081120Z 14004KT 060V180 CAVOK 28/09 Q1020 NOSIG=
METAR EDDH 081120Z 20006KT 170V230 CAVOK 28/10 Q1019 NOSIG=
METAR EDDK 081120Z 19006KT 060V180 CAVOK 31/11 Q1020 NOSIG=
METAR EDDL 081120Z 26007KT 200V280 CAVOK 29/08 Q1019 NOSIG=
METAR EDDM 081120Z 08006KT CAVOK 24/08 Q1023 NOSIG=
METAR EDDN 081120Z VRB01KT CAVOK 26/08 Q1022 NOSIG=
METAR EDDS 081120Z 09001KT CAVOK 27/07 Q1021 NOSIG=
METAR EDDT 081120Z 16006KT CAVOK 27/05 Q1021 NOSIG=
METAR EDDV 081120Z 23007KT CAVOK 29/10 Q1019 NOSIG=
####018000112####
SAMX55 MMMY 081100
METAR MMCV 081124Z RTD 00000KT 12SM  SCT220 23/23 A2985 RMK 8/005 RTS=





TX OPMET V1
####018000078####
SAAF11 LFPW 081100 RRC
METAR FOOG 081100Z /////KT 9999 SCT010 27/22 Q1016=
####018000161####
SAAF27 LFPW 081100 RRB
METAR FGSL 081100Z 26007KT 9999 BKN013 FEW020CB BKN130 27/26
Q1015 NOSIG=
METAR GUCY 081100Z 14008KT 9999 FEW016 SCT116 29/24 Q1014=
####018000491####
SAUK31 EGGY 081120
METAR EGBB 081120Z 26010KT 210V300 9999 FEW035 21/09 Q1018=
METAR EGCC 081120Z 23008KT 190V270 9999 FEW034 SCT046 19/10
    Q1017=
METAR EGKK 081120Z 20006KT 160V260 9999 SCT030 24/14 Q1018=
METAR EGLL 081120Z 24007KT 180V270 9999 SCT020 SCT035 22/14
    Q1019=
METAR EGPF 081120Z 21018KT 9999 FEW030 SCT040 17/10 Q1013=
METAR EGPH 081120Z 23015G27KT 200V280 9999 FEW035 18/09 Q1013=
METAR EGPK 081120Z 23017KT 9999 FEW024 19/09 Q1014=
METAR EGSS 081120Z NIL=
####018000220####
SADN34 EKCH 081120
METAR EKGF 081120Z NIL=
METAR EKHN 081120Z AUTO VRB02KT 9999NDV BKN043/// BKN088///
18/15 Q1019=
METAR EKHR 081120Z AUTO 20009KT 5000NDV -SHRA  FEW023/// SCT038///
BKN055/// 17/17 Q1018 RESHRA=
####018000526####
SADN31 EKCH 081120
METAR EKCH 081120Z 17013KT CAVOK 22/14 Q1020 NOSIG=
METAR EKBI 081120Z 22007KT 190V250 9999 VCSH FEW025CB BKN075
21/16 Q1019=
METAR EKYT 081120Z 21011KT 9999 FEW022 BKN026 20/15 Q1018 NOSIG=
METAR EKRK 081120Z AUTO 21012KT 180V240 9999NDV BKN070/// 25/11
Q1019=
METAR EKAH 081120Z AUTO 14005KT 110V210 9999NDV RESHRA  BKN055///
21/18 Q1019=
METAR EKEB 081120Z AUTO 22008KT 200V270 9999NDV -SHRA  FEW032///
BKN075/// 20/16 Q1018=
METAR EKRN 081120Z AUTO 21005KT 190V250 9999NDV NCD 21/15 Q1022=
####018000178####
SADN33 EKCH 081120
METAR EKKA 081120Z 20005KT 170V230 3500 SHRA SCT018CB BKN030
17/16 Q1018 TEMPO 6000 -SHRA=
METAR EKSP 081120Z 22013KT CAVOK 26/09 Q1018 NOSIG RMK BKN090=
####018000461####
SASN35 ESWI 081120
METAR ESGL 081120Z AUTO 21012KT 9999NDV BKN033/// 21/15 Q1017=
METAR ESGR 081120Z AUTO 23012KT 9999NDV SCT047/// 23/13 Q1018=
METAR ESKM 081120Z NIL=
METAR ESNL 081120Z AUTO 14011KT 9999NDV SCT039/// BKN061/// 20/11
Q1013=
METAR ESNX 081120Z AUTO 18003KT 9999NDV -RA FEW009/// SCT014///
15/13 Q1014=
METAR ESNY 081120Z AUTO 26011KT 9999 FEW041 24/16 Q1014=
METAR ESSF 081120Z NIL=
METAR ESSK 081120Z NIL=
METAR ESUD 081120Z NIL=
####018000404####
SAFI32 EFHK 081120
EFHA 081120Z 09004KT 020V160 9999 FEW030TCU BKN200 23/16 Q1015=
EFHF 081120Z 34006KT 270V020 9999 FEW047TCU SCT055 28/17 Q1014=
EFKA 081120Z 23006KT 170V260 9999 FEW045 BKN200 24/11 Q1015=
EFKK 081120Z 20005KT 110V290 9999 SCT048 25/10 Q1015=
EFMA 081120Z 20008KT CAVOK 21/13 Q1016=
EFPO 081120Z 27007KT 230V300 CAVOK 23/13 Q1016=
EFSI 081120Z AUTO VRB04KT CAVOK 24/12 Q1015=
####018000337####
SASW32 LSSW 081120
METAR LSGC 081120Z 17005KT 120V220 9999 FEW049 26/13 Q1024=
METAR LSGS 081120Z 25012KT 9999 FEW100 29/14 Q1020=
METAR LSZG 081120Z NIL=
METAR LSZR 081120Z 29004KT 250V320 CAVOK 24/16 Q1022 NOSIG RMK H=
METAR LSZS 081120Z 21006KT 180V250 CAVOK 24/11 Q1026=
METAR LSZC 081120Z 08004KT 030V120 CAVOK 26/15 Q1022=
####018000100####
SAKY31 RUMS 081100 RRA
METAR UAFO 081100Z 00000MPS 9999 FEW050CB 34/12 Q1017 NOSIG RMK
QFEM684=
####018000482####
SAUK34 EGGY 081120
METAR EGHD 081120Z 21006KT 9999 FEW022 20/13 Q1019=
METAR EGHE 081120Z 19008KT 9999 FEW018 18/13 Q1019=
METAR COR EGHK 081120Z 15007KT 9999 FEW022 17/15 Q1018 NOSIG=
METAR EGHQ 081120Z NIL=
METAR EGJA 081120Z 27003KT 9999 SCT006 18/16 Q1019=
METAR EGJB 081120Z 21006KT 160V230 9999 FEW014 20/17 Q1019=
METAR EGJJ 081120Z 36006KT 320V030 9999 FEW015 22/17 Q1019 NOSIG=
METAR EGTE 081120Z 18009KT 130V210 9999 FEW022 21/14 Q1018=
METAR EGTG 081120Z NIL=
####018000520####
SASN33 ESWI 081120
METAR ESNG 081120Z NIL=
METAR ESNK 081120Z AUTO 16009KT 9999NDV FEW042/// 23/13 Q1012=
METAR ESNN 081120Z 15013KT 9999 BKN039 20/14 Q1013=
METAR ESNO 081120Z AUTO 15012KT 9999NDV FEW086/// 21/13 Q1014=
METAR ESNQ 081120Z 17005KT 130V200 CAVOK 18/09 Q1013=
METAR ESNS 081120Z AUTO 12012KT 100V170 9999NDV ////// 22/09 Q1014=
METAR ESNU 081120Z 13008KT CAVOK 20/12 Q1015=
METAR ESNZ 081120Z 17008KT CAVOK 20/11 Q1012=
METAR ESUT 081120Z AUTO 14011KT 9999NDV FEW044/// OVC072/// 19/10
Q1010=
####018000090####
SPCN31 KWBC 081127
SPECI
CYZX 081125Z 21006KT 8SM OVC009 RMK SF7 WNDY HILL 22007KT=
####018000184####
SASN34 ESWI 081120
METAR ESDF 081120Z 20010KT 170V240 CAVOK 23/11 Q1020=
METAR ESPA 081120Z 14011KT CAVOK 19/14 Q1016=
METAR ESSL 081120Z 23008KT 180V270 9999 SCT044 23/12 Q1018=
####018000485####
SASN32 ESWI 081120
METAR ESKN 081120Z 32010G22KT 290V020 9999 SCT048 24/13 Q1018=
METAR ESOE 081120Z NIL=
METAR ESOK 081120Z 22007KT 9999 BKN022 18/14 Q1017=
METAR ESOW 081120Z 24012KT CAVOK 24/13 Q1017=
METAR ESSA 081120Z 24012KT CAVOK 24/13 Q1016 NOSIG=
METAR ESSB 081120Z 23007KT 190V270 CAVOK 25/11 Q1017=
METAR ESSD 081120Z AUTO 26009KT 220V280 9999NDV BKN027/// 20/13
Q1016=
METAR ESSP 081120Z 26014KT CAVOK 24/12 Q1018=
METAR ESSV 081120Z 27006KT CAVOK 21/12 Q1019=
####018000414####
SAUK35 EGGY 081120
METAR EGHH 081120Z 18004KT 9999 SCT029 21/16 Q1018=
METAR EGKA 081120Z NIL=
METAR EGKB 081120Z 22005KT 140V280 9999 BKN025 23/14 Q1019 =
METAR EGLF 081120Z VRB04KT 9999 SCT019 SCT037 21/15 Q1019=
METAR EGMC 081120Z 23006KT 160V310 9999 FEW029 23/14 Q1018=
METAR EGMD 081120Z 20008KT 9999 FEW018 21/16 Q1019=
METAR EGMH 081120Z 14009KT 9999 FEW020 22/17 Q1019 =
METAR EGTC 081120Z NIL=
####018000978####
SAUS20 KNKA 081126
METAR K2G4 081125Z AUTO 00000KT 10SM CLR 23/13 A3019 RMK AO1=
METAR K2W6 081124Z AUTO 09003KT 3SM 25/25 A3002 RMK AO1 SKY
     OBSCURED=
METAR KCBE 081125Z AUTO 00000KT 5SM CLR 22/19 A3011 RMK AO1=
METAR KCGE 081122Z AUTO 09004KT 3/4SM OVC002 25/25 A3002 RMK
     AO1=
METAR KCGS 081130Z AUTO 00000KT 5SM CLR 27/24 A3001 RMK AO1=
METAR KDMW 081125Z AUTO 12003KT 5SM HZ CLR 26/22 A3005 RMK AO2=
SPECI KDYL 081125Z AUTO 00000KT 2 1/2SM BR CLR 23/22 A3004 RMK AO2 
    TSNO=
METAR KFME 081127Z AUTO 09005KT 5SM SCT110 23/23 A3003 RMK AO1=
SPECI KMAF 081126Z 01006KT 10SM SCT005 21/20 A3008 RMK AO2=
SPECI KPLN 081125Z AUTO 00000KT 10SM -RA BKN009 OVC095 22/21 A2998 
    RMK AO2 CIG 007V011 P0000=
SPECI KPQL 081125Z 00000KT 3SM BR SCT001 BKN012 23/23 A3003 RMK AO2=
SPECI KPWK 081125Z 17004KT 2 1/2SM -RA BR SCT028 OVC065 23/22 A3003 
    RMK AO2 RAB1056 P0003=
METAR KW29 081125Z AUTO 11006KT 3SM CLR 25/23 A3001 RMK AO1=
####018000107####
SPJP41 KWBC 081127
SPECI
RJCK 081118Z 21005KT 0400 R17/0800V1200U +DZ VV001 16/15 Q1010 RMK
A2985=
####018000176####
SPJP43 KWBC 081127
SPECI
RJOH 081114Z 07004KT 6000 TS FEW010 SCT015 BKN025 FEW025CB 25/22
Q1010 RMK 2CU010 3CU015 5CU025 2CB025 A2983 FBL TS 15KM S MOV NE
CB 10KM S=
####018000086####
SAAG01 SABM 081100 RRC
METAR SAWE 081100Z  27007KT 9999  SCT050  M02/M02
Q0987=
####018000087####
SPSA31 KWBC 081127
SPECI
SKBQ 081120Z 00000KT 4000 BR SCT010 BKN070 25/25 A2988=
####018000371####
SABX31 EBBR 081120
METAR EBAW 081120Z 19006KT 140V240 CAVOK 29/12 Q1019 NOSIG=
METAR EBBR 081120Z 27007KT 230V320 CAVOK 29/11 Q1020 NOSIG=
METAR EBCI 081120Z VRB02KT CAVOK 30/10 Q1020 NOSIG=
METAR EBLG 081120Z 24004KT 120V290 CAVOK 30/08 Q1020 NOSIG=
METAR EBOS 081120Z 33007KT 290V360 CAVOK 21/16 Q1020 NOSIG=
METAR ELLX 081120Z VRB02KT CAVOK 28/08 Q1021 NOSIG=
####018000080####
SAUS31 KWBC 081100 RRB
METAR
KLGC 081115Z AUTO 00000KT 6SM CLR 21/ A3004=
####018000091####
SPUS42 KWBC 081127
SPECI
KMFE 081124Z 33006KT 10SM FEW006 BKN016 BKN033 26/24 A2981=
####018000124####
SAUS41 KWBC 081100 RRD
METAR
K40B 081125Z AUTO 00000KT 26/22 A3003=
KWDR 081120Z AUTO 00000KT 10SM CLR 23/20 A3007=
####018000541####
SANL40 EHWX 081125
METAR EHDL 081125Z AUTO 24008KT 9999NDV NCD 29/12 Q1019 
BLU=
METAR EHEH 081125Z AUTO 23007KT 9999NDV BKN350 30/12 Q1019 
BLU BLU=
METAR EHGR 081125Z AUTO 25008KT 9999NDV SCT130 29/11 Q1018 
BLU BLU=
METAR EHLW 081125Z AUTO 24009KT 9999NDV FEW022 OVC068 23/17 Q1019 
BLU BLU=
METAR EHVK 081125Z AUTO 21005KT 9999NDV NCD 30/11 Q1019 
BLU BLU=
METAR EHVL 081125Z AUTO 23011KT 9999NDV FEW059 BKN066 BKN260 21/17
Q1019 
BLU=
METAR EHWO 081125Z AUTO 28006KT 9999NDV FEW390 27/12 Q1019 
BLU BLU=
####018000180####
SAUS42 KWBC 081100 RRC
METAR
KBQK 081117Z AUTO 30004KT 10SM CLR 22/21 A3001=
KLGC 081115Z AUTO 00000KT 6SM CLR 21/ A3004=
KOPN 081120Z AUTO 00000KT 10SM CLR 24/22 A3005=
####018000083####
SACN93 CWAO 081100 RRD
WPA SA 1100 AUTO8 M M M 208/04/03/MMMM/M/ 8001 28MM=

####018000138####
SACN97 CWAO 081100 RRD
XDI SA 1100 AUTO8 M M M 157/21/19/0000/M/ 3003 72MM=
XET SA 1100 AUTO8 M M M 165/22/21/3003/M/ 0000 87MM=

####018000159####
SACN50 CWAO 081100 RRD
VTS SA 1100 AUTO8 M M M 150/20/10/2701/M/ 3004 41MM=
WFG SA 1100 AUTO8 M M M 170/14/11/3419/M/M PK WND 3424 1007Z 8002
79MM=

####018000138####
SACN92 CWAO 081100 RRD
WJR SA 1100 AUTO8 M M M 205/15/M/3302/M/ 3008 3MMM=
WME SA 1100 AUTO8 M M M 155/19/14/0706/M/M 3005 37MM=

####018000138####
SACN78 CWAO 081100 RRC
TKR SA 1100 AUTO8 M M M 149/15/13/2706/M/ 3004 75MM=
XZC SA 1100 AUTO8 M M M 113/18/16/2202/M/ 5003 23MM=

####018000098####
SACN96 CWAO 081100 RRC
WZV SA 1100 AUTO8 M M M M/M/M/3314/M/M PK WND 3220 1004Z 5000 MMMM=

####018000183####
SACN98 CWAO 081100 RRD
XCP SA 1100 AUTO8 M M M M/10/09/2904/M/ M 29MM=
XPC SA 1100 AUTO8 M M M 145/23/22/1503/M/ 6003 56MM=
XWM SA 1100 AUTO8 M M M M/10/09/0000/M/ M 38MM=

####018000119####
SACN45 CWAO 081100 RRB
METAR CYZS 081100Z 07010KT 15SM FEW070 OVC210 13/03 A2968 RMK AC2CI4
CC ASOCTD SLP055=

####018000128####
SACN59 CWAO 081100 RRC
XDB SA 1100 AUTO8 M M M M/09/05/2207/M/ M 91MM=
XTH SA 1100 AUTO8 M M M M/13/10/2108/M/ M 69MM=

####018000095####
SPUS52 KWBC 081127
SPECI
KHBR 081123Z AUTO 00000KT 6SM -RA BR BKN004 OVC070 23/22 A3009=
####018000673####
SAEG31 HECA 081100
METAR HEBL 081100Z 01015KT CAVOK       40/08 Q1009 NOSIG=
METAR HEAX 081100Z 31012KT 9999 SCT020 29/22 Q1010 NOSIG=
METAR HEMM 081100Z 33010KT CAVOK       29/20 Q1012 NOSIG=
METAR HEPS 081100Z 33007KT 9999 FEW025 30/22 Q1010 NOSIG=
METAR HELX 081100Z 33008KT CAVOK       39/11 Q1007 NOSIG=
METAR HESN 081100Z NIL=
METAR HEGN 081100Z 35024KT CAVOK       37/10 Q1006 NOSIG=
METAR HESH 081100Z 02014KT CAVOK       37/11 Q1006 NOSIG=
METAR HEBA 081100Z NIL=
METAR HEMA 081100Z 01020KT CAVOK       36/17 Q1005 NOSIG=
METAR HETB 081100Z 34004KT CAVOK       33/10 Q1012 NOSIG=
METAR HESC 081100Z 06010KT CAVOK       32/11 Q1018 NOSIG=
####018000673####
SAEG32 HECA 081100
METAR HEBL 081100Z 01015KT CAVOK       40/08 Q1009 NOSIG=
METAR HEAX 081100Z 31012KT 9999 SCT020 29/22 Q1010 NOSIG=
METAR HEMM 081100Z 33010KT CAVOK       29/20 Q1012 NOSIG=
METAR HEPS 081100Z 33007KT 9999 FEW025 30/22 Q1010 NOSIG=
METAR HELX 081100Z 33008KT CAVOK       39/11 Q1007 NOSIG=
METAR HESN 081100Z NIL=
METAR HEGN 081100Z 35024KT CAVOK       37/10 Q1006 NOSIG=
METAR HESH 081100Z 02014KT CAVOK       37/11 Q1006 NOSIG=
METAR HEBA 081100Z NIL=
METAR HEMA 081100Z 01020KT CAVOK       36/17 Q1005 NOSIG=
METAR HETB 081100Z 34004KT CAVOK       33/10 Q1012 NOSIG=
METAR HESC 081100Z 06010KT CAVOK       32/11 Q1018 NOSIG=
####018000087####
SAUK34 EGGY 081120 RRA
METAR EGHQ 081120Z 30006KT 270V330 9999 FEW025 18/12 Q1019=
####018000087####
SAAO33 DRRN 081100 RRB
METAR DFFD 081100Z 35005KT 320V030 CAVOK 29/22 Q1015 NOSIG=
####018000648####
SAPS31 NFFN 081100
METAR NCRG 081100Z 03006KT 9999 SCT014 BKN290 25/24 Q1017=
METAR NFFN 081100Z 14006KT 40KM FEW030 21/19 Q1014 NOSIG RMK RR NIL=
METAR NFNA 081100Z 00000KT 40KM FEW024 21/20 Q1014 RMK RR NIL DEW 
HVY=
METAR NGFU 081100Z 08007KT 50KM FEW020 28/25 Q1010=
METAR NGTA 081100Z NIL=
METAR NIUE 081100Z AUTO 13006KT //// ////// 24/24 Q1015=
METAR NSFA 081100Z 09004KT 45KM FEW020 26/24 Q1012 RMK DEW=
METAR NSTU 081050Z 09011KT 10SM SCT016 SCT045 28/26 A2990 RMK SLP125 
T02780262 403000260=
METAR NTAA 081100Z 05004KT 9999 FEW023 25/22 Q1015 WS ALL RWY NOSIG=
METAR NWWW 081100Z NIL=
METAR PLCH 081100Z NIL=
####018000649####
SAGR31 LGAT 081120
METAR LGAD 081120Z 31011KT 9999 FEW020 27/18 Q1014=
METAR LGAV 081120Z 03015KT 350V060 9999 SCT030 26/13
  Q1013 NOSIG=
METAR LGIR 081120Z 35007KT 9999 FEW020 29/24 Q1011 NOSIG=
METAR LGKL 081120Z 33009KT 9999 FEW030 33/11 Q1011=
METAR LGKO 081120Z 31019KT CAVOK 30/18 Q1009=
METAR LGKR 081120Z 32018KT CAVOK 28/10 Q1013 NOSIG=
METAR LGLM 081120Z 05011KT 9999 FEW008 BKN020 21/16 Q1013=
METAR LGRP 081120Z 25015KT CAVOK 30/18 Q1008 NOSIG=
METAR LGSA 081120Z 29010KT 9999 FEW020 33/14 Q1011=
METAR LGSM 081120Z 34012KT 9999 FEW020 31/14 Q1010=
METAR LGTS 081120Z 34019G29KT 9999 SCT025 24/12 Q1016 NOSIG=
####018000360####
SAFI34 EFHK 081120
EFET 081120Z AUTO 17011KT 120V220 CAVOK 20/06 Q1014=
EFIV 081120Z AUTO VRB04KT 9999 SCT045 21/11 Q1016=
EFKE 081120Z 20008KT 160V240 9999 BKN031 21/12 Q1015=
EFKI 081120Z AUTO 32004KT CAVOK 22/13 Q1016=
EFKS 081120Z AUTO VRB04KT CAVOK 19/10 Q1017=
EFKT 081120Z AUTO 19009KT 140V220 CAVOK 22/08 Q1015=
METAR EFSO 081126Z NIL=
####018000753####
SAIY31 LIIB 081120
METAR LIEA 081120Z 20005KT 150V270 9999 FEW025 32/22 Q1019=
METAR LIEE 081115Z 16012KT 9999 FEW020 28/20 Q1019 NOSIG=
METAR LIEO 081120Z 04012KT CAVOK 30/22 Q1020=
METAR LIMC 081120Z VRB03KT 9999 FEW035 27/15 Q1022 NOSIG=
METAR LIME 081120Z VRB05KT 9999 BKN050 27/15 Q1022=
METAR LIMF 081120Z 03003KT 9999 FEW030 BKN050 25/15 Q1023=
METAR LIMJ 081120Z 16004KT 9999 FEW019 SCT035 29/25 Q1020=
METAR LIML 081120Z 14006KT 9999 FEW030 28/16 Q1021 NOSIG=
METAR LIRA 081115Z 22008KT 170V330 9999 SCT018 30/18 Q1019=
METAR LIRF 081120Z 22012KT CAVOK 29/18 Q1020 NOSIG=
METAR LIRN 081120Z 05009KT CAVOK 28/13 Q1019=
METAR LIRP 081115Z 12004KT CAVOK 30/15 Q1020 NOSIG=
METAR LIRQ 081120Z VRB02KT CAVOK 31/13 Q1020=
####018000654####
SAPS32 NFFN 081100
METAR NFNA 081100Z 00000KT 40KM FEW024 21/20 Q1014 RMK RR NIL DEW 
HVY=
METAR NFTF 081100Z 17002KT 9999 FEW015 19/18 Q1015=
METAR NFTL 081100Z NIL=
METAR NFTV 081100Z NIL=
METAR NLWW 081100Z AUTO 12005KT 100V160 9999NDV SCT018/// 27/24 
Q1011=
METAR NSAP 081100Z NIL=
METAR NSFA 081100Z 09004KT 45KM FEW020 26/24 Q1012 RMK DEW=
METAR NSTU 081050Z 09011KT 10SM SCT016 SCT045 28/26 A2990 RMK SLP125 
T02780262 403000260=
METAR NTAA 081100Z 05004KT 9999 FEW023 25/22 Q1015 WS ALL RWY NOSIG=
METAR NVSS 081100Z NIL=
METAR NVVV 081100Z VRB02KT 9999 SCT022 BKN045 22/21 Q1015 RMK NIL=
METAR NWWW 081100Z NIL=
####018000084####
SAEG31 HECA 081000 CCA
ETAR HETB 081000Z 00000KT CAVOK       32/10 Q1013 NOSIG=
####018000551####
SAIY32 LIIB 081120
METAR LIBD 081120Z 01016KT CAVOK 25/11 Q1020=
METAR LIBR 081115Z /////KT CAVOK 25/13 Q1017 NOSIG=
METAR LICC 081120Z 10010KT 8000 FEW040 29/21 Q1018=
METAR LICJ 081120Z 04015KT 9999 FEW018 27/23 Q1018=
METAR LIPE 081120Z 10007KT 030V150 CAVOK 29/15 Q1021=
METAR LIPH 081115Z 17005KT 9999 BKN025 28/20 Q1022=
METAR LIPQ 081120Z 30004KT 9999 FEW040 26/14 Q1022=
METAR LIPR 081115Z 08011KT CAVOK 28/17 Q1021=
METAR LIPX 081115Z 12006KT 9999 FEW040 29/13 Q1021=
METAR LIPZ 081120Z 13009KT 9999 FEW040 26/17 Q1022=
####018000176####
SAUS51 KWBC 081100 RRA
METAR
K40B 081125Z AUTO 00000KT 26/22 A3003=
KCBE 081125Z AUTO 00000KT 5SM CLR 22/19 A3011=
KIPJ 081120Z AUTO 30003KT 10SM SCT090 23/17 A3003=
####018000143####
SAUS52 KWBC 081100 RRC
METAR
KAYS 081120Z AUTO 00000KT 10SM CLR 22/21 A3002=
KVUJ 081119Z AUTO 00000KT 10SM SCT080 BKN110 24/21 A2999=
####018000134####
SAUS53 KWBC 081100 RRF
METAR
KJNX 081120Z AUTO 00000KT 5SM CLR 23/23 A2996=
KTDF 081122Z AUTO 00000KT 4SM SCT095 22/21 A3001=
####018000082####
SAUS54 KWBC 081100 RRC
METAR
KJNX 081120Z AUTO 00000KT 5SM CLR 23/23 A2996=
####018000091####
SPUS72 KWBC 081127
SPECI
KMFE 081124Z 33006KT 10SM FEW006 BKN016 BKN033 26/24 A2981=
####018000091####
SAAK41 KNKA 081127
METAR PAQT 081124Z 24008KT 10SM CLR 08/06 A3006 RMK ASOS VIA PHONE=
####018001388####
SAUS20 KNKA 081127
METAR K11R 081124Z AUTO 05004KT 7SM SCT008 SCT080 24/23 A2995 RMK 
     AO2=
METAR K1H2 081125Z AUTO 21003KT 7SM CLR 25/23 A3005 RMK AO2 
     T02460231=
METAR KAAA 081123Z AUTO 00000KT 1 1/4SM RA SCT039 BKN055 OVC070 
     23/22 A3004 RMK AO2 T02250217=
METAR KBXK 081115Z AUTO 36006KT 10SM CLR 24/M03 A2977 RMK AO1 =
METAR KC75 081123Z AUTO 00000KT 4SM BR SCT008 SCT014 OVC019 24/24 
     A3003 RMK AO2=
SPECI KDWH 081126Z 05008KT 7SM SCT005 24/24 A2994 RMK AO2=
METAR KGPM 081131Z AUTO 00000KT 10SM SCT011 BKN016 BKN043 26/23 
     A3002 RMK AO2=
METAR KHQZ 081126Z AUTO 11003KT 10SM SCT120 24/23 A3003 RMK AO2=
SPECI KIAH 081116Z 06009KT 4SM BR BKN004 BKN027 OVC130 25/24 A2995=
METAR KIKK 081125Z AUTO 00000KT 4SM HZ SCT085 BKN095 26/23 A3003 
     RMK AO2 LTG DSNT SE=
SPECI KIXD 081126Z 35003KT 1 1/4SM BR FEW003 21/20 A3007 RMK AO2=
METAR KJOT 081126Z AUTO 00000KT 1 3/4SM BR VV007 23/22 A3002 RMK 
     AO2=
METAR KORG 081125Z AUTO 07007KT 7SM OVC008 16/14 A2998 RMK AO2=
METAR KPAN 081135Z AUTO 08003KT 10SM CLR 21/03 A3013 RMK AO1 =
METAR KPVW 081121Z AUTO 02004KT 10SM SCT120 18/17 A3014 RMK AO2=
METAR KRCR 081125Z AUTO 17003KT 7SM CLR 26/22 A3005 RMK AO2=
METAR KRQO 081135Z AUTO 00000KT 1 3/4SM BR OVC001 23/23 A3007 RMK 
     AO2=
SPECI KUIN 081126Z AUTO 31004KT 1/4SM FG OVC001 23/22 A3005 RMK AO2=
####018000083####
SAUS72 KWBC 081100 RRG
METAR
KBQK 081117Z AUTO 30004KT 10SM CLR 22/21 A3001=
####018000076####
SPCN47 CWAO 081126
SPECI CYAM 081126Z 26004KT 2SM BR OVC004 RMK SF8=

####018000094####
SPUS81 KWBC 081127
SPECI
KHLR 081124Z AUTO 06004KT 10SM FEW009 SCT037 BKN047 25/ A3000=
####018000089####
SAEW KAWN 081000 RRP
METAR COR EBBE 081025Z 32005KT 9999 FEW250 29/10 Q1020 BLU BLU=
####018001721####
SAEU KAWN 081100 RRX
METAR EBAW 081120Z 19006KT 140V240 CAVOK 29/12 Q1019 NOSIG=
METAR COR EGLL 081120Z 24007KT 180V270 9999 SCT020 SCT035 22/14 Q1019
      NOSIG=
METAR EGNS 081120Z 20011KT 9999 FEW025 17/11 Q1016 NOSIG=
METAR ENKB 081120Z 18006KT 9999 FEW049 23/07 Q1009=
METAR ETHN 081120Z 33005KT 9999 FEW300 25/08 Q1022 BLU/BLU/=
METAR LIBD 081120Z 01016KT CAVOK 25/11 Q1020=
METAR LIBR 081115Z /////KT CAVOK 25/13 Q1017 NOSIG=
METAR LICJ 081120Z 04015KT 9999 FEW018 27/23 Q1018=
METAR LIEA 081120Z 20005KT 150V270 9999 FEW025 32/22 Q1019=
METAR LIEE 081115Z 16012KT 9999 FEW020 28/20 Q1019 NOSIG=
METAR LIEO 081120Z 04012KT CAVOK 30/22 Q1020=
METAR LIMC 081120Z VRB03KT 9999 FEW035 27/15 Q1022 NOSIG=
METAR LIME 081120Z VRB05KT 9999 BKN050 27/15 Q1022=
METAR LIMF 081120Z 03003KT 9999 FEW030 BKN050 25/15 Q1023=
METAR LIMJ 081120Z 16004KT 9999 FEW019 SCT035 29/25 Q1020=
METAR LIML 081120Z 14006KT 9999 FEW030 28/16 Q1021 NOSIG=
METAR LIPE 081120Z 10007KT 030V150 CAVOK 29/15 Q1021=
METAR LIPQ 081120Z 30004KT 9999 FEW040 26/14 Q1022=
METAR LIRA 081115Z 22008KT 170V330 9999 SCT018 30/18 Q1019=
METAR LIRF 081120Z 22012KT CAVOK 29/18 Q1020 NOSIG=
METAR LIRN 081120Z 05009KT CAVOK 28/13 Q1019=
METAR LIRP 081115Z 12004KT CAVOK 30/15 Q1020 NOSIG=
METAR LIRQ 081120Z VRB02KT CAVOK 31/13 Q1020=
METAR LOWG 081120Z 05005KT 330V120 CAVOK 26/10 Q1023 NOSIG=
METAR LOWI 081120Z 09006KT 020V140 CAVOK 26/13 Q1021 NOSIG=
METAR LOWK 081120Z VRB02KT 9999 FEW060 24/11 Q1022 NOSIG=
METAR LOWL 081120Z 13005KT 060V190 CAVOK 23/09 Q1023 NOSIG=
METAR LOWS 081120Z VRB04KT 9999 FEW070 24/09 Q1022 NOSIG=
METAR LOWW 081120Z 31007KT 280V350 9999 FEW055 23/09 Q1023 NOSIG=
####018000091####
SANA14 KAWN 081100 RRE
METAR KOSC 081114Z AUTO 22003KT 5SM BR CLR 22/21 A3000 RMK AO2=
####018000089####
SAEU KAWN 081000 RRX
METAR COR EBBE 081025Z 32005KT 9999 FEW250 29/10 Q1020 BLU BLU=
####018000130####
SPCN47 CWAO 081127
SPECI CYTZ 081127Z AUTO 00000KT 2 1/4SM BR SCT002 20/20 A3002 RMK
 SLP166 DENSITY ALT 700FT RVR MISG=

####018000125####
SAUS44 KCRP 081127
MTRVCT
SPECI KVCT 081126Z AUTO 33005KT 1SM +RA BR BKN003 BKN015 OVC023 
25/24 A2989 RMK AO2 P0086
####018000103####
SPCN49 CWAO 081127
SPECI CYAY 081127Z AUTO 16008KT 9SM SCT005 OVC017 09/08 A3009 RMK
 SLP191=

####018000121####
SPUS90 KWBC 081128
SPECI KVCT 081126Z AUTO 33005KT 1SM +RA BR BKN003 BKN015 OVC023
     25/24 A2989 RMK AO2 P0086=
####018000068####
SAUS90 KWBC 081128
METAR K40B 081125Z AUTO 00000KT 26/22 A3003=
####018000087####
SACN92 KWBC 081128
METAR CWJR 081100Z AUTO 33002KT 15/ RMK AO1 SLP205 T0153 53008=
####018000095####
SACN87 KWBC 081128
METAR CWME 081100Z AUTO 07006KT 19/14 RMK AO1 SLP155 T01930137
53005=
####018000663####
SPUS99 KWBC 081128
SPECI
KDYL 081125Z AUTO 00000KT 2 1/2SM BR CLR 23/22 A3004 RMK AO2
     TSNO=
KMAF 081126Z 01006KT 10SM SCT005 21/20 A3008 RMK AO2=
KPLN 081125Z AUTO 00000KT 10SM -RA BKN009 OVC095 22/21 A2998 RMK
     AO2 CIG 007V011 P0000=
KPQL 081125Z 00000KT 3SM BR SCT001 BKN012 23/23 A3003 RMK AO2=
KPWK 081125Z 17004KT 2 1/2SM -RA BR SCT028 OVC065 23/22 A3003 RMK
     AO2 RAB1056 P0003=
KDWH 081126Z 05008KT 7SM SCT005 24/24 A2994 RMK AO2=
KIAH 081116Z 06009KT 4SM BR BKN004 BKN027 OVC130 25/24 A2995=
KIXD 081126Z 35003KT 1 1/4SM BR FEW003 21/20 A3007 RMK AO2=
KUIN 081126Z AUTO 31004KT 1/4SM FG OVC001 23/22 A3005 RMK AO2=
####018001567####
SAUS99 KWBC 081128
METAR
K2G4 081125Z AUTO 00000KT 10SM CLR 23/13 A3019 RMK AO1=
K2W6 081124Z AUTO 09003KT 3SM 25/25 A3002 RMK AO1 SKY OBSCURED=
KCBE 081125Z AUTO 00000KT 5SM CLR 22/19 A3011 RMK AO1=
KCGE 081122Z AUTO 09004KT 3/4SM OVC002 25/25 A3002 RMK AO1=
KCGS 081130Z AUTO 00000KT 5SM CLR 27/24 A3001 RMK AO1=
KDMW 081125Z AUTO 12003KT 5SM HZ CLR 26/22 A3005 RMK AO2=
KFME 081127Z AUTO 09005KT 5SM SCT110 23/23 A3003 RMK AO1=
KW29 081125Z AUTO 11006KT 3SM CLR 25/23 A3001 RMK AO1=
PAQT 081124Z 24008KT 10SM CLR 08/06 A3006 RMK ASOS VIA PHONE=
K11R 081124Z AUTO 05004KT 7SM SCT008 SCT080 24/23 A2995 RMK
     AO2=
K1H2 081125Z AUTO 21003KT 7SM CLR 25/23 A3005 RMK AO2
     T02460231=
KAAA 081123Z AUTO 00000KT 1 1/4SM RA SCT039 BKN055 OVC070 23/22
     A3004 RMK AO2 T02250217=
KBXK 081115Z AUTO 36006KT 10SM CLR 24/M03 A2977 RMK AO1=
KC75 081123Z AUTO 00000KT 4SM BR SCT008 SCT014 OVC019 24/24 A3003
     RMK AO2=
KGPM 081131Z AUTO 00000KT 10SM SCT011 BKN016 BKN043 26/23 A3002
     RMK AO2=
KHQZ 081126Z AUTO 11003KT 10SM SCT120 24/23 A3003 RMK AO2=
KIKK 081125Z AUTO 00000KT 4SM HZ SCT085 BKN095 26/23 A3003 RMK AO2
     LTG DSNT SE=
KJOT 081126Z AUTO 00000KT 1 3/4SM BR VV007 23/22 A3002 RMK AO2=
KORG 081125Z AUTO 07007KT 7SM OVC008 16/14 A2998 RMK AO2=
KPAN 081135Z AUTO 08003KT 10SM CLR 21/03 A3013 RMK AO1=
KPVW 081121Z AUTO 02004KT 10SM SCT120 18/17 A3014 RMK AO2=
KRCR 081125Z AUTO 17003KT 7SM CLR 26/22 A3005 RMK AO2=
KRQO 081135Z AUTO 00000KT 1 3/4SM BR OVC001 23/23 A3007 RMK
     AO2=
####018000169####
SACN97 KWBC 081128
METAR CXDI 081100Z AUTO 00000KT 21/19 RMK AO1 SLP157 T02070192
53003=
METAR CXET 081100Z AUTO 30003KT 22/21 RMK AO1 SLP165 T02180207
50000=
####018000080####
SACN95 KWBC 081128
METAR CWWA 081115Z AUTO 36002KT 19/09 RMK AO1 T01930093=
####018000095####
SACN78 KWBC 081128
METAR CXZC 081100Z AUTO 22002KT 18/16 RMK AO1 SLP113 T01820163
55003=
####018000579####
SANO32 ENMI 081120
METAR ENAL 081120Z 29004KT 260V330 9999 VCSH SCT055 BKN095 16/12
           Q1009=
METAR ENCN 081120Z 17007KT 9999 FEW005 SCT010 OVC035 17/16 Q1016=
METAR ENHD 081120Z 20012KT 9999 FEW020 SCT170 16/12 Q1014=
METAR ENRO 081120Z AUTO 21012KT 150V240 9999NDV SCT057/// BKN076///
           OVC130/// 17/04 Q1011=
METAR ENRY 081120Z 18011KT 150V210 9999 SCT007 BKN012 17/15 Q1016
           TEMPO SCT008 BKN015=
METAR ENSB 081120Z NIL=
METAR ENTC 081120Z 29004KT 9999 FEW065 19/07 Q1011=
METAR ENTO 081120Z 18011KT 9000 -DZ FEW004 BKN007 16/15 Q1016=
####018000188####
SPUS80 KWBC 081128
SPECI
KCNU 081124Z AUTO 01003KT 1/2SM FG OVC001 22/21 A3006 RMK AO2=
KVCT 081126Z AUTO 33005KT 1SM +RA BR BKN003 BKN015 OVC023 25/24
     A2989 RMK AO2 P0086=
####018000126####
SAXX60 KWBC 081100 RRM
METAR
KNKT 081054Z COR 04006KT 4SM BR FEW001 BKN160 26/24 A2993 RMK AO2
     SLP132 T02610239=
####018001267####
SAUS70 KWBC 081128
METAR
K2G4 081125Z AUTO 00000KT 10SM CLR 23/13 A3019 RMK AO1=
K2W6 081124Z AUTO 09003KT 3SM 25/25 A3002 RMK AO1 SKY OBSCURED=
KCGS 081130Z AUTO 00000KT 5SM CLR 27/24 A3001 RMK AO1=
KW29 081125Z AUTO 11006KT 3SM CLR 25/23 A3001 RMK AO1=
K11R 081124Z AUTO 05004KT 7SM SCT008 SCT080 24/23 A2995 RMK
     AO2=
K1H2 081125Z AUTO 21003KT 7SM CLR 25/23 A3005 RMK AO2
     T02460231=
KAAA 081123Z AUTO 00000KT 1 1/4SM RA SCT039 BKN055 OVC070 23/22
     A3004 RMK AO2 T02250217=
KBXK 081115Z AUTO 36006KT 10SM CLR 24/M03 A2977 RMK AO1=
KC75 081123Z AUTO 00000KT 4SM BR SCT008 SCT014 OVC019 24/24 A3003
     RMK AO2=
KGPM 081131Z AUTO 00000KT 10SM SCT011 BKN016 BKN043 26/23 A3002
     RMK AO2=
KHQZ 081126Z AUTO 11003KT 10SM SCT120 24/23 A3003 RMK AO2=
KIKK 081125Z AUTO 00000KT 4SM HZ SCT085 BKN095 26/23 A3003 RMK AO2
     LTG DSNT SE=
KJOT 081126Z AUTO 00000KT 1 3/4SM BR VV007 23/22 A3002 RMK AO2=
KORG 081125Z AUTO 07007KT 7SM OVC008 16/14 A2998 RMK AO2=
KPAN 081135Z AUTO 08003KT 10SM CLR 21/03 A3013 RMK AO1=
KPVW 081121Z AUTO 02004KT 10SM SCT120 18/17 A3014 RMK AO2=
KRQO 081135Z AUTO 00000KT 1 3/4SM BR OVC001 23/23 A3007 RMK
     AO2=
KOSC 081114Z AUTO 22003KT 5SM BR CLR 22/21 A3000 RMK AO2=
####018000421####
SAAF35 KWBC 081100 RRD
METAR
HEAX 081100Z 31012KT 9999 SCT020 29/22 Q1010 NOSIG=
HEBA 081100Z NIL=
HEBL 081100Z 01015KT CAVOK 40/08 Q1009 NOSIG=
HEGN 081100Z 35024KT CAVOK 37/10 Q1006 NOSIG=
HELX 081100Z 33008KT CAVOK 39/11 Q1007 NOSIG=
HEMM 081100Z 33010KT CAVOK 29/20 Q1012 NOSIG=
HEPS 081100Z 33007KT 9999 FEW025 30/22 Q1010 NOSIG=
HESC 081100Z 06010KT CAVOK 32/11 Q1018 NOSIG=
HESN 081100Z NIL=
####018001030####
SPUS70 KWBC 081128
SPECI
KBIV 081124Z AUTO 00000KT 4SM -RA BR SCT001 BKN050 24/22 A3004 RMK
     AO2 RAB19 P0000=
KCEW 081123Z AUTO 00000KT 6SM BR BKN001 21/21 A3004 RMK AO2=
KLHQ 081124Z AUTO 00000KT 2SM BR CLR 21/20 A3010 RMK AO2=
KLNR 081124Z AUTO 00000KT 1 1/4SM BR OVC002 21/20 A3004 RMK
     AO2=
KORE 081124Z AUTO 15003KT 6SM HZ SCT013 SCT075 24/21 A3009 RMK
     AO2=
KDYL 081125Z AUTO 00000KT 2 1/2SM BR CLR 23/22 A3004 RMK AO2
     TSNO=
KMAF 081126Z 01006KT 10SM SCT005 21/20 A3008 RMK AO2=
KPLN 081125Z AUTO 00000KT 10SM -RA BKN009 OVC095 22/21 A2998 RMK
     AO2 CIG 007V011 P0000=
KPQL 081125Z 00000KT 3SM BR SCT001 BKN012 23/23 A3003 RMK AO2=
KPWK 081125Z 17004KT 2 1/2SM -RA BR SCT028 OVC065 23/22 A3003 RMK
     AO2 RAB1056 P0003=
KDWH 081126Z 05008KT 7SM SCT005 24/24 A2994 RMK AO2=
KIAH 081116Z 06009KT 4SM BR BKN004 BKN027 OVC130 25/24 A2995=
KIXD 081126Z 35003KT 1 1/4SM BR FEW003 21/20 A3007 RMK AO2=
KUIN 081126Z AUTO 31004KT 1/4SM FG OVC001 23/22 A3005 RMK AO2=
####018000088####
SACN96 KWBC 081128
METAR CWZV 081100Z AUTO 33014KT RMK AO1 PK WND 32020/1004 55000=
####018000449####
SPXX60 KWBC 081128
SPECI
KGRK 081119Z 06005KT 7SM SCT009 BKN013 BKN029 26/24 A2999=
KLTS 081118Z 05007KT 6SM R35L/5500FT -TSRA BR FEW007 SCT014 BKN021
     23/22 A3007 RMK AO2A TS 3N MOV N=
KSLI 081122Z AUTO 00000KT 10SM OVC014 17/14 A2990 RMK AO2
     SLP125=
KTIK 081120Z AUTO 02005KT 10SM FEW007 OVC013 23/22 A3005 RMK AO2
     SLP164 $=
MHSC 081120Z AUTO 14003KT 9999 SCT065 22/19 A2994 RMK AO2
     RAB1110E1120 SLP100 $=
####018000150####
SAUS80 KWBC 081128
METAR
KCBE 081125Z AUTO 00000KT 5SM CLR 22/19 A3011 RMK AO1=
PAQT 081124Z 24008KT 10SM CLR 08/06 A3006 RMK ASOS VIA PHONE=
####018000081####
SAAF36 KWBC 081100 RRD
METAR
HEMA 081100Z 01020KT CAVOK 36/17 Q1005 NOSIG=
####018000353####
SABX31 KWBC 081120 RRA
METAR
EBAW 081120Z 19006KT 140V240 CAVOK 29/12 Q1019 NOSIG=
EBBR 081120Z 27007KT 230V320 CAVOK 29/11 Q1020 NOSIG=
EBCI 081120Z VRB02KT CAVOK 30/10 Q1020 NOSIG=
EBLG 081120Z 24004KT 120V290 CAVOK 30/08 Q1020 NOSIG=
EBOS 081120Z 33007KT 290V360 CAVOK 21/16 Q1020 NOSIG=
ELLX 081120Z VRB02KT CAVOK 28/08 Q1021 NOSIG=
####018000371####
SAEM31 KWBC 081100 RRD
METAR
LOWG 081120Z 05005KT 330V120 CAVOK 26/10 Q1023 NOSIG=
LOWI 081120Z 09006KT 020V140 CAVOK 26/13 Q1021 NOSIG=
LOWK 081120Z VRB02KT 9999 FEW060 24/11 Q1022 NOSIG=
LOWL 081120Z 13005KT 060V190 CAVOK 23/09 Q1023 NOSIG=
LOWS 081120Z VRB04KT 9999 FEW070 24/09 Q1022 NOSIG=
LOWW 081120Z 31007KT 280V350 9999 FEW055 23/09 Q1023 NOSIG=
####018000142####
SAEN31 KWBC 081120 RRA
METAR
EFIV 081120Z AUTO VRB04KT 9999 SCT045 21/11 Q1016=
EFKE 081120Z 20008KT 160V240 9999 BKN031 21/12 Q1015=
####018001731####
SAEU KAWN 081100 RRX
METAR EGSS 081120Z 23007KT 9999 BKN021 21/15 Q1018=
METAR EHAM 081125Z 30008KT 230V340 9999 FEW035 24/16 Q1019 NOSIG=
METAR EHBK 081125Z AUTO VRB06KT 9999NDV NCD 29/11 Q1019 NOSIG=
METAR EHDL 081125Z AUTO 24008KT 9999NDV NCD 29/12 Q1019 BLU=
METAR EHGG 081125Z AUTO 26011KT 220V300 9999NDV NSC 27/13 Q1019 NOSIG=
METAR EHGR 081125Z AUTO 25008KT 9999NDV SCT130 29/11 Q1018 BLU BLU=
METAR EHLW 081125Z AUTO 24009KT 9999NDV FEW022 OVC068 23/17 Q1019 BLU
      BLU=
METAR EHRD 081125Z 28005KT 240V340 CAVOK 24/15 Q1019 NOSIG=
METAR EHVK 081125Z AUTO 21005KT 9999NDV NCD 30/11 Q1019 BLU BLU=
METAR EHVL 081125Z AUTO 23011KT 9999NDV FEW059 BKN066 BKN260 21/17
      Q1019 BLU=
METAR EHWO 081125Z AUTO 28006KT 9999NDV FEW390 27/12 Q1019 BLU BLU=
METAR ETHS 081120Z 23009KT 9999 FEW130 29/07 Q1019 BLU/BLU/=
METAR LGAD 081120Z 31011KT 9999 FEW020 27/18 Q1014=
METAR LGIR 081120Z 35007KT 9999 FEW020 29/24 Q1011 NOSIG=
METAR LGKL 081120Z 33009KT 9999 FEW030 33/11 Q1011=
METAR LGKO 081120Z 31019KT CAVOK 30/18 Q1009=
METAR LGKR 081120Z 32018KT CAVOK 28/10 Q1013 NOSIG=
METAR LGLM 081120Z 05011KT 9999 FEW008 BKN020 21/16 Q1013=
METAR LGRP 081120Z 25015KT CAVOK 30/18 Q1008 NOSIG=
METAR LGRX 081120Z 27013KT 9999 FEW025 28/16 Q1012 NOSIG=
METAR LGSA 081120Z 29010KT 9999 FEW020 33/14 Q1011=
METAR LGSM 081120Z 34012KT 9999 FEW020 31/14 Q1010=
METAR LGTS 081120Z 34019G29KT 9999 SCT025 24/12 Q1016 NOSIG=
METAR LICC 081120Z 10010KT 8000 FEW040 29/21 Q1018=
METAR LIPH 081115Z 17005KT 9999 BKN025 28/20 Q1022=
METAR LIPR 081115Z 08011KT CAVOK 28/17 Q1021=
METAR LIPX 081115Z 12006KT 9999 FEW040 29/13 Q1021=
METAR LIPZ 081120Z 13009KT 9999 FEW040 26/17 Q1022=
####018000591####
SAGR31 KWBC 081120 RRA
METAR
LGAD 081120Z 31011KT 9999 FEW020 27/18 Q1014=
LGAV 081120Z 03015KT 350V060 9999 SCT030 26/13 Q1013 NOSIG=
LGIR 081120Z 35007KT 9999 FEW020 29/24 Q1011 NOSIG=
LGKL 081120Z 33009KT 9999 FEW030 33/11 Q1011=
LGKO 081120Z 31019KT CAVOK 30/18 Q1009=
LGKR 081120Z 32018KT CAVOK 28/10 Q1013 NOSIG=
LGLM 081120Z 05011KT 9999 FEW008 BKN020 21/16 Q1013=
LGRP 081120Z 25015KT CAVOK 30/18 Q1008 NOSIG=
LGSA 081120Z 29010KT 9999 FEW020 33/14 Q1011=
LGSM 081120Z 34012KT 9999 FEW020 31/14 Q1010=
LGTS 081120Z 34019G29KT 9999 SCT025 24/12 Q1016 NOSIG=
####018000637####
SAIY31 KWBC 081120 RRA
METAR
LIBD 081120Z 01016KT CAVOK 25/11 Q1020=
LIBR 081115Z /////KT CAVOK 25/13 Q1017 NOSIG=
LICC 081120Z 10010KT 8000 FEW040 29/21 Q1018=
LICJ 081120Z 04015KT 9999 FEW018 27/23 Q1018=
LIEA 081120Z 20005KT 150V270 9999 FEW025 32/22 Q1019=
LIEE 081115Z 16012KT 9999 FEW020 28/20 Q1019 NOSIG=
LIEO 081120Z 04012KT CAVOK 30/22 Q1020=
LIMC 081120Z VRB03KT 9999 FEW035 27/15 Q1022 NOSIG=
LIME 081120Z VRB05KT 9999 BKN050 27/15 Q1022=
LIMF 081120Z 03003KT 9999 FEW030 BKN050 25/15 Q1023=
LIMJ 081120Z 16004KT 9999 FEW019 SCT035 29/25 Q1020=
LIML 081120Z 14006KT 9999 FEW030 28/16 Q1021 NOSIG=
####018000511####
SAIY32 KWBC 081120 RRA
METAR
LIPE 081120Z 10007KT 030V150 CAVOK 29/15 Q1021=
LIPH 081115Z 17005KT 9999 BKN025 28/20 Q1022=
LIPQ 081120Z 30004KT 9999 FEW040 26/14 Q1022=
LIPR 081115Z 08011KT CAVOK 28/17 Q1021=
LIPX 081115Z 12006KT 9999 FEW040 29/13 Q1021=
LIPZ 081120Z 13009KT 9999 FEW040 26/17 Q1022=
LIRA 081115Z 22008KT 170V330 9999 SCT018 30/18 Q1019=
LIRF 081120Z 22012KT CAVOK 29/18 Q1020 NOSIG=
LIRP 081115Z 12004KT CAVOK 30/15 Q1020 NOSIG=
LIRQ 081120Z VRB02KT CAVOK 31/13 Q1020=
####018000087####
SAIY41 KWBC 081120 RRA
METAR
LIMC 081120Z VRB03KT 9999 FEW035 27/15 Q1022 NOSIG=
####018000081####
SAIY43 KWBC 081120 RRA
METAR
LIPX 081115Z 12006KT 9999 FEW040 29/13 Q1021=
####018000502####
SANL31 KWBC 081120 RRA
METAR
EHDL 081125Z AUTO 24008KT 9999NDV NCD 29/12 Q1019 BLU=
EHEH 081125Z AUTO 23007KT 9999NDV BKN350 30/12 Q1019 BLU BLU=
EHGR 081125Z AUTO 25008KT 9999NDV SCT130 29/11 Q1018 BLU BLU=
EHLW 081125Z AUTO 24009KT 9999NDV FEW022 OVC068 23/17 Q1019 BLU
     BLU=
EHVK 081125Z AUTO 21005KT 9999NDV NCD 30/11 Q1019 BLU BLU=
EHVL 081125Z AUTO 23011KT 9999NDV FEW059 BKN066 BKN260 21/17 Q1019
     BLU=
EHWO 081125Z AUTO 28006KT 9999NDV FEW390 27/12 Q1019 BLU BLU=
####018000088####
SASA41 KWBC 081100 RRC
METAR
SKBG 081100Z 00000KT 9999 SCT012 CST080 19/19 A3003=
####018000109####
SAUK31 KWBC 081120 CCA
METAR
EGLL 081120Z 24007KT 180V270 9999 SCT020 SCT035 22/14 Q1019
     NOSIG=
####018000087####
SAUK32 KWBC 081120 RRA
METAR
EGNS 081120Z 20011KT 9999 FEW025 17/11 Q1016 NOSIG=
####018000086####
SAXX61 KWBC 081000 CCA
METAR
ETAR HETB 081000Z 00000KT CAVOK 32/10 Q1013 NOSIG=
####018000075####
SAXX61 KWBC 081100 RRG
METAR
LIRN 081120Z 05009KT CAVOK 28/13 Q1019=
####018002749####
SAXX99 KWBC 081100 RRS
METAR
CYZS 081100Z 07010KT 15SM FEW070 OVC210 13/03 A2968 RMK AC2CI4 CC
     ASOCTD SLP055=
DFFD 081100Z 35005KT 320V030 CAVOK 29/22 Q1015 NOSIG=
EDHK 081120Z 22008KT 9999 FEW050 BKN110 27/09 Q1019 BLU BLU=
EFET 081120Z AUTO 17011KT 120V220 CAVOK 20/06 Q1014=
EFJO 081120Z AUTO 07003KT CAVOK 27/18 Q1015=
EFKI 081120Z AUTO 32004KT CAVOK 22/13 Q1016=
EFKS 081120Z AUTO VRB04KT CAVOK 19/10 Q1017=
EFKT 081120Z AUTO 19009KT 140V220 CAVOK 22/08 Q1015=
EFLP 081120Z AUTO 17005KT 100V240 CAVOK 31/15 Q1014=
EFMI 081120Z AUTO 17003KT 9999 FEW048 29/19 Q1014=
EFSA 081120Z 12003KT CAVOK 29/16 Q1014=
EFUT 081122Z 15006KT 100V190 9999 VCSH FEW050CB 30/17 Q1013=
EFVR 081125Z NIL=
ETGG 081120Z 20011KT 9999 SCT090 BKN140 26/11 Q1019 BLU=
ETGZ 081120Z VRB02KT 9999 FEW330 24/08 Q1024 BLU/=
ETHB 081120Z 20005KT 9999 FEW120 29/10 Q1019 BLU/BLU/=
ETHC 081120Z 23006KT 9999 FEW140 30/08 Q1019 BLU/BLU/=
ETHE 081120Z 23005KT 9999 FEW070 BKN260 29/10 Q1019 BLU+BLU+=
ETHE 081120Z 23005KT 9999 FEW070 BKN260 29/10 Q1019 BLU/BLU/=
ETHF 081120Z 18006KT 9999 FEW300 27/10 Q1021 BLU+BLU+=
ETHN 081120Z 33005KT 9999 FEW300 25/08 Q1022 BLU+BLU+=
ETMN 081120Z 25009KT 9999 BKN110 BKN270 28/10 Q1019 BLU BLU/ TEMPO
     BLU=
ETMN 081120Z 25009KT 9999 BKN110 BKN270 28/10 Q1019 BLU BLU+ TEMPO
     BLU=
ETND 081120Z 17005KT 9999 FEW060 SCT280 29/12 Q1019 BLU/=
ETND 081120Z 17005KT 9999 FEW060 SCT280 29/12 Q1019 BLU+=
ETNH 081120Z 22009KT 9999 FEW060 SCT120 BKN280 27/09 Q1019
     BLU+BLU+ TEMPO BLU=
ETNH 081120Z 22009KT 9999 FEW060 SCT120 BKN280 27/09 Q1019
     BLU/BLU/ TEMPO BLU=
ETNL 081120Z 16006KT 9999 FEW060 SCT180 26/10 Q1020 BLU+BLU+=
ETNL 081120Z 16006KT 9999 FEW060 SCT180 26/10 Q1020 BLU/BLU/=
ETNN 081120Z 13004KT 9999 FEW060 SCT300 30/04 Q1019 BLU/BLU/=
ETNS 081120Z 20010KT 9999 BKN100 SCT220 27/06 Q1019 BLU BLU=
ETNT 081120Z 26009KT 9999 FEW050 SCT120 30/12 Q1018 BLU+BLU+=
ETNT 081120Z 26009KT 9999 FEW050 SCT120 30/12 Q1018 BLU/BLU/=
ETNU 081120Z 13004KT 9999 FEW100 SCT150 25/10 Q1021 BLU+BLU+=
ETNU 081120Z 13004KT 9999 FEW100 SCT150 25/10 Q1021 BLU/BLU/=
ETNW 081120Z 27005KT 9999 FEW130 SCT280 29/10 Q1019 BLU/BLU/=
ETNW 081120Z 27005KT 9999 FEW130 SCT280 29/10 Q1019 BLU+BLU+=
ETSA 081120Z 23004KT 9999 25/09 Q1023 BLU/BLU/=
ETSH 081120Z 06004KT 9999 FEW150 SCT250 27/07 Q1021 BLU/BLU/=
ETSH 081120Z 06004KT 9999 FEW150 SCT250 27/07 Q1021 BLU+BLU+=
ETWM 081120Z 25006KT 9999 FEW070 BKN210 30/08 Q1019 BLU/=
ETWM 081120Z 25006KT 9999 FEW070 BKN210 30/08 Q1019 BLU+=
HESH 081100Z 02014KT CAVOK 37/11 Q1006 NOSIG=
HETB 081100Z 34004KT CAVOK 33/10 Q1012 NOSIG=
LOXZ 081120Z 08005KT 70KM FEW060CU 23/10 Q1023 NOSIG RMK FEW=
####018000113####
SAGL41 BGSF 081050 CCC
METAR COR BGJN 081050Z 32004KT 280V360 9999 0600NE PRFG FEW100 
07/05 Q1009 RMK 1AC =
####018000113####
SAGL31 BGSF 081050 CCA
METAR COR BGJN 081050Z 32004KT 280V360 9999 0600NE PRFG FEW100 
07/05 Q1009 RMK 1AC =
####018000104####
SPUS52 KWBC 081128
SPECI
KVCT 081126Z AUTO 33005KT 1SM +RA BR BKN003 BKN015 OVC023 25/24
A2989=
####018000086####
SPUS53 KWBC 081128
SPECI
KCNU 081124Z AUTO 01003KT 1/2SM FG OVC001 22/21 A3006=
####018000082####
SAMJ41 LWOH 081130
METAR LWOH 081130Z 34009KT 9999 FEW040 BKN047 19/09 Q1019=
####018000079####
SAUK31 EGGY 081120 RRA
METAR EGSS 081120Z 23007KT 9999 BKN021 21/15 Q1018=
####018000117####
SAPK31 OPKC 081130
METAR OPKC 081125Z 17014KTS 8000 SCT030TCU SCT100 34/24 Q1002 TEMPO
NE 30KTS TSRA FEW025CB=
####018000283####
SAGR33 LGAT 081120
METAR LGHI 081120Z NIL=
METAR LGKC 081120Z NIL=
METAR LGKF 081120Z NIL=
METAR LGKP 081120Z NIL=
METAR LGKZ 081120Z NIL=
METAR LGMK 081120Z 36021KT 9999 FEW012 24/17 Q1012=
METAR LGNX 081120Z NIL=
METAR LGPA 081120Z NIL=
METAR LGSO 081120Z NIL=
####018000491####
SAGR32 LGAT 081120
METAR LGAL 081120Z 36009KT 9999 FEW008 FEW020TCU BKN025 20/18
      Q1015=
METAR LGEL 081120Z 34013G23KT CAVOK 28/12 Q1011=
METAR LGKV 081120Z 16006KT 9999 FEW020CB SCT025TCU BKN100
      22/13 Q1013=
METAR LGMT 081120Z 36014KT 9999 FEW030 SCT160 26/19 Q1011=
METAR LGPZ 081120Z 24011KT 9999 FEW025 27/18 Q1013 NOSIG=
METAR LGRX 081120Z 27013KT 9999 FEW025 28/16 Q1012 NOSIG=
METAR LGSK 081120Z NIL=
METAR LGSR 081120Z NIL=
METAR LGZA 081120Z NIL=
####018000291####
SANL31 EHDB 081125
METAR EHAM 081125Z 30008KT 230V340 9999 FEW035 24/16 Q1019 NOSIG=
METAR EHBK 081125Z AUTO VRB06KT 9999NDV NCD 29/11 Q1019 NOSIG=
METAR EHGG 081125Z AUTO 26011KT 220V300 9999NDV NSC 27/13 Q1019
NOSIG=
METAR EHRD 081125Z 28005KT 240V340 CAVOK 24/15 Q1019 NOSIG=
####018000098####
SADL51 ETGT 081120 RRA
METAR
ETHS 081120Z 23009KT 9999 FEW130 29/07 Q1019
      BLU+BLU+=
####018000080####
SAKY31 RUMS 081100 RRB
METAR UAFM 081100Z 29004MPS CAVOK 33/06 Q1012 NOSIG=
####018000084####
SPUS72 KWBC 081128
SPECI
KCEW 081123Z AUTO 00000KT 6SM BR BKN001 21/21 A3004=
####018000104####
SPUS72 KWBC 081128
SPECI
KVCT 081126Z AUTO 33005KT 1SM +RA BR BKN003 BKN015 OVC023 25/24
A2989=
####018000086####
SPUS81 KWBC 081128
SPECI
KCNU 081124Z AUTO 01003KT 1/2SM FG OVC001 22/21 A3006=
####018000073####
SADL34 EDZO 081120 RRA
METAR EDJA 081120Z VRB03KT CAVOK 25/11 Q1023=
####018000104####
SPUS81 KWBC 081128
SPECI
KVCT 081126Z AUTO 33005KT 1SM +RA BR BKN003 BKN015 OVC023 25/24
A2989=
####018000751####
SPNA14 KAWN 081128 RRD
SPECI KEGI 081122Z AUTO 00000KT 2 1/2SM BR CLR 21/21 A3003 RMK AO2
      VIS 1 1/2V5 SLP169 $=
SPECI KEGI 081123Z AUTO 00000KT 1 3/4SM R18/2600VP6000FT BR CLR 21/21
      A3003 RMK AO2 VIS 1/2V5 SLP169 $=
SPECI KEGI 081124Z AUTO 00000KT 1SM R18/1200VP6000FT BR CLR 21/21 A3003
      RMK AO2 VIS 1/4V5 SLP169 $=
SPECI KEGI 081125Z AUTO 00000KT 3/4SM R18/1200VP6000FT BR CLR 21/21
      A3003 RMK AO2 VIS 1/4V5 SLP169 $=
SPECI KRND 081127Z AUTO 03005KT 8SM -DZ SCT013 BKN060 25/24 A2994 RMK
      AO2 DZB1118 SCT V BKN CLDS LWR RWY32R SLP128=
SPECI KSLI 081122Z AUTO 00000KT 10SM OVC014 17/14 A2990 RMK AO2 SLP125=
SPECI KTIK 081120Z AUTO 02005KT 10SM FEW007 OVC013 23/22 A3005 RMK
      AO2 SLP164 $=
####018000060####
SAUS45 KTFX 081128
MTR8S0
METAR K8S0 081025Z 26006KT 
####018002961####
SAUS20 KNKA 081128
METAR K0F2 081124Z AUTO 00000KT 10SM SCT050 SCT075 OVC085 23/22 
     A3004 RMK AO2 T02310220=
METAR K3LF 081123Z AUTO 00000KT 3SM BR SCT037 OVC070 23/22 A3005 
     RMK AO2=
METAR K3T5 081124Z AUTO 07004KT 5SM +RA BKN008 BKN016 OVC110 
     26/24 A2993 RMK AO2 T02550240=
METAR K6R3 081121Z AUTO 08003KT 2SM -RA SCT006 BKN014 OVC080 
     24/24 A2998 RMK AO2 VIS 1 1/4V5 P0007 T02420242=
METAR KAJG 081125Z AUTO 00000KT 5SM BR CLR 23/22 A3005 RMK AO2 
     T02270219=
METAR KALN 081123Z AUTO 00000KT 5SM BR SCT037 BKN044 BKN060 25/25 
     A3004 RMK AO2 T02480245=
METAR KAPY 081123Z AUTO 34004KT 5SM RA SCT007 BKN019 OVC032 26/25 
     A2985 RMK AO2 T02550245=
METAR KAQO 081125Z AUTO 00000KT 24/23 A3002 RMK AO2=
METAR KARM 081125Z AUTO 06003KT 7SM -RA SCT027 SCT041 BKN095 
     26/24 A2991 RMK AO2 LTG DSNT N P0001 T02560240=
METAR KASW 081125Z AUTO 00000KT 7SM SCT055 SCT070 24/21 A3005 RMK 
     AO2 T02420209=
METAR KAXH 081125Z AUTO 13008G15KT 7SM SCT024 BKN048 OVC060 27/24 
     A2992 RMK AO2 LTG DSNT E T02650235=
METAR KBBD 081125Z AUTO 06003KT 10SM FEW018 22/21 A3003 RMK=
METAR KBEA 081123Z AUTO 06007KT 10SM SCT006 SCT022 BKN027 25/25 
     A2987 RMK AO2 T02480248=
METAR KBKD 081121Z AUTO 06003KT 1/2SM FG OVC002 23/23 A3004 RMK 
     AO2 T02320227=
METAR KBKS 081126Z AUTO 36004KT 10SM CLR 26/25 A2981 RMK AO1 
     T02610247=
METAR KBPC 081128Z AUTO 01004KT 10SM SCT006 BKN032 OVC095 19/18 
     A3017 RMK AO2=
METAR KBPG 081125Z AUTO 02005KT 7SM CLR 21/20 A3011 RMK AO1 
     T02090196=
SPECI KBVY 081127Z 16007KT 10SM SCT007 23/20 A3009 RMK AO2 PNO=
METAR KBYY 081126Z AUTO 07008KT 7SM SCT022 SCT029 SCT037 26/25 
     A2989 RMK AO2 T02600252=
METAR KC09 081124Z AUTO 00000KT 1 1/4SM BR SCT039 BKN050 OVC065 
     21/21 A3003 RMK AO2 LTG DSNT E=
SPECI KCEC 081127Z AUTO 00000KT 5SM BR SCT001 OVC005 10/09 A2998 RMK 
    AO2=
METAR KCIR 081122Z AUTO 00000KT 10SM CLR 25/22 A3006 RMK AO2=
METAR KCPT 081125Z AUTO 10004KT 9SM FEW008 BKN015 OVC023 24/24 
     A3004 RMK AO2=
METAR KCUL 081125Z AUTO 00000KT 4SM CLR 23/21 A3005 RMK AO2 
     T02300212=
METAR KCVB 081124Z AUTO 03003KT 10SM SCT014 BKN044 25/24 A2995 
     RMK AO2 T02470242=
METAR KCWC 081125Z AUTO 07003KT 10SM CLR 23/22 A3004 RMK AO2 
     T02300216=
SPECI KCYS 081127Z AUTO 19003KT 9SM BKN008 OVC041 12/12 A3037 RMK 
    AO2 CIG 005V009 TSNO=
METAR KDKB 081121Z AUTO 22005KT 1 1/2SM BR OVC002 22/21 A3004 RMK 
     AO2 LTG DSNT E T02150210=
METAR KDKR 081125Z AUTO 09005KT 7SM CLR 24/24 A3003 RMK AO2=
METAR KDNV 081125Z AUTO 00000KT 3SM BR SCT120 22/21 A3002 RMK AO2 
     T02240211=
METAR KDUX 081127Z AUTO 34010KT 10SM OVC006 17/16 A3022 RMK AO2 
     T01700162=
METAR KDZB 081125Z AUTO 00000KT 4SM RA OVC014 24/24 A2998 RMK AO2 
     P0001 T02400240=
METAR KE38 081125Z AUTO 00000KT 10SM CLR 16/16 A3021 RMK AO2 
     T01620157=
####018002058####
SAUS20 KNKA 081128
METAR KECU 081125Z AUTO 08004KT 7SM BKN004 22/22 A3008 RMK AO2=
METAR KENL 081124Z AUTO 19004KT 10SM BKN048 BKN065 26/17 A3005 
     RMK AO2 T02550173=
METAR KERV 081125Z AUTO 09003KT 10SM SCT010 SCT042 SCT050 23/21 
     A3000 RMK AO2 T02330213=
METAR KF05 081124Z AUTO 07003KT 10SM SCT035 SCT041 24/22 A3005 
     RMK AO2 T02380222=
METAR KFEP 081125Z AUTO 00000KT 5SM BR CLR 22/20 A3004 RMK AO2 
     T02220202=
METAR KFOA 081125Z AUTO 00000KT 4SM BR CLR 25/25 A3005 RMK AO2 
     T02460246=
METAR KFWS 081125Z AUTO 00000KT 7SM DZ BKN007 OVC015 25/24 A3004 
     RMK AO2 T02480235=
METAR KGBG 081125Z AUTO 27004KT 5SM BR OVC004 23/22 A3004 RMK AO2=
METAR KGDJ 081124Z AUTO 08003KT 10SM BKN006 BKN010 OVC031 26/24 
     A3003 RMK AO2 T02550239=
METAR KGLE 081124Z AUTO 00000KT 10SM -RA SCT026 SCT060 BKN090 
     25/22 A3005 RMK AO2=
SPECI KGLH 081127Z AUTO 00000KT 1/2SM FG CLR 22/22 A3006 RMK AO2=
METAR KGNC 081125Z AUTO 01006KT 5SM +RA SCT004 BKN010 OVC030 
     19/18 A3015 RMK AO2 P0006 T01920181=
METAR KHBV 081120Z AUTO 35004KT 10SM SCT004 SCT012 SCT019 25/24 
     A2987 RMK AO2 T02470235=
METAR KHSB 081125Z AUTO 00000KT 4SM BR CLR 22/21 A3006 RMK AO2=
SPECI KISP 081127Z 14005KT 7SM SCT005 BKN011 OVC120 26/22 A3005 RMK 
    AO2=
METAR KOLY 081123Z AUTO 00000KT 3SM BR CLR 23/23 A3004 RMK AO2=
METAR KOXI 081125Z AUTO 28010KT 2 1/2SM SCT013 BKN050 OVC100 
     22/21 A3005 RMK AO1 T02220210=
METAR KOZA 081121Z AUTO 00000KT 10SM SCT120 22/21 A3007 RMK AO2 
     T02200213=
METAR KPNT 081125Z AUTO 14003KT 2SM BR SCT007 BKN041 OVC075 22/22 
     A3003 RMK AO2 LTG DSNT E=
METAR KPRG 081125Z AUTO 00000KT 3SM BR SCT120 22/22 A3005 RMK AO2 
     T02300223=
METAR KRPJ 081125Z AUTO 25003KT 3SM BR SCT007 OVC014 21/20 A3005 
     RMK AO2 T02100200=
METAR KRSV 081122Z AUTO 00000KT 4SM BR CLR 24/23 A3006 RMK AO2 
     T02420231=
METAR KSFY 081125Z AUTO 25003KT 5SM BR OVC009 23/21 A3004 RMK AO2=
SPECI KTZR 081130Z 00000KT 3SM BR SKC 22/20 A3009=
####018000081####
SPCN45 CWAO 081127
SPECI CYRT 081127Z 06008KT 1/2SM -DZ FG VV001 RMK FG8=

####018003729####
SAUS99 KWBC 081129
METAR
K0F2 081124Z AUTO 00000KT 10SM SCT050 SCT075 OVC085 23/22 A3004
     RMK AO2 T02310220=
K3LF 081123Z AUTO 00000KT 3SM BR SCT037 OVC070 23/22 A3005 RMK
     AO2=
K3T5 081124Z AUTO 07004KT 5SM +RA BKN008 BKN016 OVC110 26/24 A2993
     RMK AO2 T02550240=
K6R3 081121Z AUTO 08003KT 2SM -RA SCT006 BKN014 OVC080 24/24 A2998
     RMK AO2 VIS 1 1/4V5 P0007 T02420242=
KAJG 081125Z AUTO 00000KT 5SM BR CLR 23/22 A3005 RMK AO2
     T02270219=
KALN 081123Z AUTO 00000KT 5SM BR SCT037 BKN044 BKN060 25/25 A3004
     RMK AO2 T02480245=
KAPY 081123Z AUTO 34004KT 5SM RA SCT007 BKN019 OVC032 26/25 A2985
     RMK AO2 T02550245=
KAQO 081125Z AUTO 00000KT 24/23 A3002 RMK AO2=
KARM 081125Z AUTO 06003KT 7SM -RA SCT027 SCT041 BKN095 26/24 A2991
     RMK AO2 LTG DSNT N P0001 T02560240=
KASW 081125Z AUTO 00000KT 7SM SCT055 SCT070 24/21 A3005 RMK AO2
     T02420209=
KAXH 081125Z AUTO 13008G15KT 7SM SCT024 BKN048 OVC060 27/24 A2992
     RMK AO2 LTG DSNT E T02650235=
KBBD 081125Z AUTO 06003KT 10SM FEW018 22/21 A3003 RMK=
KBEA 081123Z AUTO 06007KT 10SM SCT006 SCT022 BKN027 25/25 A2987
     RMK AO2 T02480248=
KBKD 081121Z AUTO 06003KT 1/2SM FG OVC002 23/23 A3004 RMK AO2
     T02320227=
KBKS 081126Z AUTO 36004KT 10SM CLR 26/25 A2981 RMK AO1
     T02610247=
KBPC 081128Z AUTO 01004KT 10SM SCT006 BKN032 OVC095 19/18 A3017
     RMK AO2=
KBPG 081125Z AUTO 02005KT 7SM CLR 21/20 A3011 RMK AO1
     T02090196=
KBYY 081126Z AUTO 07008KT 7SM SCT022 SCT029 SCT037 26/25 A2989 RMK
     AO2 T02600252=
KC09 081124Z AUTO 00000KT 1 1/4SM BR SCT039 BKN050 OVC065 21/21
     A3003 RMK AO2 LTG DSNT E=
KCIR 081122Z AUTO 00000KT 10SM CLR 25/22 A3006 RMK AO2=
KCPT 081125Z AUTO 10004KT 9SM FEW008 BKN015 OVC023 24/24 A3004 RMK
     AO2=
KCUL 081125Z AUTO 00000KT 4SM CLR 23/21 A3005 RMK AO2
     T02300212=
KCVB 081124Z AUTO 03003KT 10SM SCT014 BKN044 25/24 A2995 RMK AO2
     T02470242=
KCWC 081125Z AUTO 07003KT 10SM CLR 23/22 A3004 RMK AO2
     T02300216=
KDKB 081121Z AUTO 22005KT 1 1/2SM BR OVC002 22/21 A3004 RMK AO2
     LTG DSNT E T02150210=
KDKR 081125Z AUTO 09005KT 7SM CLR 24/24 A3003 RMK AO2=
KDNV 081125Z AUTO 00000KT 3SM BR SCT120 22/21 A3002 RMK AO2
     T02240211=
KDUX 081127Z AUTO 34010KT 10SM OVC006 17/16 A3022 RMK AO2
     T01700162=
KDZB 081125Z AUTO 00000KT 4SM RA OVC014 24/24 A2998 RMK AO2 P0001
     T02400240=
KE38 081125Z AUTO 00000KT 10SM CLR 16/16 A3021 RMK AO2
     T01620157=
KECU 081125Z AUTO 08004KT 7SM BKN004 22/22 A3008 RMK AO2=
KENL 081124Z AUTO 19004KT 10SM BKN048 BKN065 26/17 A3005 RMK AO2
     T02550173=
KERV 081125Z AUTO 09003KT 10SM SCT010 SCT042 SCT050 23/21 A3000
     RMK AO2 T02330213=
KF05 081124Z AUTO 07003KT 10SM SCT035 SCT041 24/22 A3005 RMK AO2
     T02380222=
KFEP 081125Z AUTO 00000KT 5SM BR CLR 22/20 A3004 RMK AO2
     T02220202=
KFOA 081125Z AUTO 00000KT 4SM BR CLR 25/25 A3005 RMK AO2
     T02460246=
KFWS 081125Z AUTO 00000KT 7SM DZ BKN007 OVC015 25/24 A3004 RMK AO2
     T02480235=
KGBG 081125Z AUTO 27004KT 5SM BR OVC004 23/22 A3004 RMK AO2=
KGDJ 081124Z AUTO 08003KT 10SM BKN006 BKN010 OVC031 26/24 A3003
     RMK AO2 T02550239=
KGLE 081124Z AUTO 00000KT 10SM -RA SCT026 SCT060 BKN090 25/22
     A3005 RMK AO2=
KGNC 081125Z AUTO 01006KT 5SM +RA SCT004 BKN010 OVC030 19/18 A3015
     RMK AO2 P0006 T01920181=
KHBV 081120Z AUTO 35004KT 10SM SCT004 SCT012 SCT019 25/24 A2987
     RMK AO2 T02470235=
KHSB 081125Z AUTO 00000KT 4SM BR CLR 22/21 A3006 RMK AO2=
KOLY 081123Z AUTO 00000KT 3SM BR CLR 23/23 A3004 RMK AO2=
KOXI 081125Z AUTO 28010KT 2 1/2SM SCT013 BKN050 OVC100 22/21 A3005
     RMK AO1 T02220210=
####018000513####
SAUS99 KWBC 081129 RRA
METAR
KOZA 081121Z AUTO 00000KT 10SM SCT120 22/21 A3007 RMK AO2
     T02200213=
KPNT 081125Z AUTO 14003KT 2SM BR SCT007 BKN041 OVC075 22/22 A3003
     RMK AO2 LTG DSNT E=
KPRG 081125Z AUTO 00000KT 3SM BR SCT120 22/22 A3005 RMK AO2
     T02300223=
KRPJ 081125Z AUTO 25003KT 3SM BR SCT007 OVC014 21/20 A3005 RMK AO2
     T02100200=
KRSV 081122Z AUTO 00000KT 4SM BR CLR 24/23 A3006 RMK AO2
     T02420231=
KSFY 081125Z AUTO 25003KT 5SM BR OVC009 23/21 A3004 RMK AO2=
####018000442####
SPUS99 KWBC 081129
SPECI
KBVY 081127Z 16007KT 10SM SCT007 23/20 A3009 RMK AO2 PNO=
KCEC 081127Z AUTO 00000KT 5SM BR SCT001 OVC005 10/09 A2998 RMK
     AO2=
KCYS 081127Z AUTO 19003KT 9SM BKN008 OVC041 12/12 A3037 RMK AO2
     CIG 005V009 TSNO=
KGLH 081127Z AUTO 00000KT 1/2SM FG CLR 22/22 A3006 RMK AO2=
KISP 081127Z 14005KT 7SM SCT005 BKN011 OVC120 26/22 A3005 RMK
     AO2=
KTZR 081130Z 00000KT 3SM BR SKC 22/20 A3009=
####018000088####
SAZA42 FAJS 081130
METAR FAJS 081130Z 05009KT 010V080 9999 SCT042 16/03 Q1034 NOSIG=
####018000196####
SANO36 ENMI 081120
METAR ENBS 081120Z NIL=
METAR ENHK 081120Z NIL=
METAR ENHV 081120Z NIL=
METAR ENLK 081120Z NIL=
METAR ENMH 081120Z NIL=
METAR ENNK 081120Z NIL=
METAR ENNM 081120Z NIL=
####018000301####
SAFI33 EFHK 081120
EFJO 081120Z AUTO 07003KT CAVOK 27/18 Q1015=
EFLP 081120Z AUTO 17005KT 100V240 CAVOK 31/15 Q1014=
EFMI 081120Z AUTO 17003KT 9999 FEW048 29/19 Q1014=
EFSA 081120Z 12003KT CAVOK 29/16 Q1014=
EFUT 081122Z 15006KT 100V190 9999 VCSH FEW050CB 30/17 Q1013=
METAR EFVR 081125Z NIL=
####018000090####
SAOS32 LOWM 081120
METAR LOXZ 081120Z 08005KT 70KM FEW060CU 23/10 Q1023 NOSIG RMK FEW=
####018000389####
SAOS31 LOWM 081120
METAR LOWW 081120Z 31007KT 280V350 9999 FEW055 23/09 Q1023 NOSIG=
METAR LOWL 081120Z 13005KT 060V190 CAVOK 23/09 Q1023 NOSIG=
METAR LOWS 081120Z VRB04KT 9999 FEW070 24/09 Q1022 NOSIG=
METAR LOWI 081120Z 09006KT 020V140 CAVOK 26/13 Q1021 NOSIG=
METAR LOWG 081120Z 05005KT 330V120 CAVOK 26/10 Q1023 NOSIG=
METAR LOWK 081120Z VRB02KT 9999 FEW060 24/11 Q1022 NOSIG=
####018000090####
SALI20 GLRB 081130
METAR GLRB 081130Z 20007KT 9999 BKN018 FEW026CB 30/25 Q1015
 CB-S=
####018000224####
SANO35 ENMI 081120
METAR ENMS 081120Z NIL=
METAR ENRM 081120Z NIL=
METAR ENRS 081120Z NIL=
METAR ENSK 081120Z NIL=
METAR ENSO 081120Z 19010KT 9999 SCT025 18/11 Q1013=
METAR ENST 081120Z NIL=
METAR ENVD 081120Z NIL=
####018000078####
SAAG SAWE 081100
METAR SAWE 081100Z  27007KT 9999  SCT050  M02/M02
Q0987=
####018000243####
SANO38 ENMI 081120
METAR ENDR 081120Z NIL=
METAR ENEK 081120Z NIL=
METAR ENGC 081120Z NIL=
METAR ENHE 081120Z 18022KT CAVOK 15/11 Q1008=
METAR ENOA 081120Z 20023KT 9999 FEW035 13/11 Q1010=
METAR ENSL 081120Z 23024KT CAVOK 14/10 Q1012=
####018000353####
SAFI34 EFHK 081120
EFET 081120Z AUTO 17011KT 120V220 CAVOK 20/06 Q1014=
EFIV 081120Z AUTO VRB04KT 9999 SCT045 21/11 Q1016=
EFKE 081120Z 20008KT 160V240 9999 BKN031 21/12 Q1015=
EFKI 081120Z AUTO 32004KT CAVOK 22/13 Q1016=
EFKS 081120Z AUTO VRB04KT CAVOK 19/10 Q1017=
EFKT 081120Z AUTO 19009KT 140V220 CAVOK 22/08 Q1015=
METAR EFSO 081126Z NIL=
####018000248####
SADL36 EDZO 081120
METAR EDHK 081120Z 22008KT 9999 FEW050 BKN110 27/09 Q1019
      BLU BLU=
METAR ETNL 081120Z 16006KT 9999 FEW060 SCT180 26/10 Q1020
      BLU+BLU+=
METAR ETNU 081120Z 13004KT 9999 FEW100 SCT150 25/10 Q1021
      BLU+BLU+=
####018000373####
SANO33 ENMI 081120
METAR ENAT 081120Z NIL=
METAR ENBL 081120Z 21012G24KT 9999 VCSH SCT040TCU SCT070 16/08
           Q1011=
METAR ENEV 081120Z NIL=
METAR ENFL 081120Z NIL=
METAR ENKB 081120Z 18006KT 9999 FEW049 23/07 Q1009=
METAR ENKR 081120Z NIL=
METAR ENML 081120Z VRB03KT 9999 SCT060 20/07 Q1009=
METAR ENNA 081120Z 15013KT 9999 FEW045CB SCT070 22/09 Q1013 =
####018000084####
SAAG05 SABM 081100 RRA
METAR SAWE 081100Z  27007KT 9999  SCT050  M02/M02
Q0987=
####018000086####
SAUK34 EGGY 081120 RRA
METAR EGHQ 081120Z 30006KT 270V330 9999 FEW025 18/12 Q1019=
####018000196####
SANO37 ENMI 081120
METAR ENNO 081120Z NIL=
METAR ENOV 081120Z NIL=
METAR ENSD 081120Z NIL=
METAR ENSG 081120Z NIL=
METAR ENSN 081120Z NIL=
METAR ENSR 081120Z NIL=
METAR ENSS 081120Z NIL=
####018000082####
SAAF05 LFPW 081100 CCA
METAR COR DNEN 081100Z 21008KT 9999 BKN011 29/23 Q1013=
####018000196####
SANO34 ENMI 081120
METAR ENBN 081120Z NIL=
METAR ENBV 081120Z NIL=
METAR ENDI 081120Z NIL=
METAR ENFG 081120Z NIL=
METAR ENHF 081120Z NIL=
METAR ENRA 081120Z NIL=
METAR ENSH 081120Z NIL=
####018000685####
SANO31 ENMI 081120
METAR ENAN 081120Z 31008KT 9999 FEW045 BKN200 16/09 Q1011 NOSIG=
METAR ENBR 081120Z 20011KT 9999 FEW020 SCT060 18/12 Q1013 NOSIG =
METAR ENBO 081120Z 31004KT 210V050 9999 SCT050TCU 16/10 Q1010 TEMPO
           SHRA SCT030CB=
METAR ENDU 081120Z 18009KT 140V230 9999 -SHRA SCT050 BKN070 20/07
           Q1010 NOSIG=
METAR ENGM 081114Z 18010KT 9999 VCSH FEW008 SCT018 BKN095 17/15 Q1014
           NOSIG=
METAR ENOL 081120Z 36004KT 300V060 9999 FEW025TCU BKN090 19/08 Q1010
           NOSIG=
METAR ENVA 081120Z 26005KT 230V320 9999 TSRA SCT040CB SCT070 20/12
           Q1009 TEMPO NSW =
METAR ENZV 081120Z 20012KT 9999 FEW018 SCT190 18/12 Q1015 NOSIG=
####018000086####
SAAO33 DRRN 081100 RRB
METAR DFFD 081100Z 35005KT 320V030 CAVOK 29/22 Q1015 NOSIG=
####018000093####
SPUS31 KWBC 081129
SPECI
KIAH 081116Z 06009KT 4SM BR BKN004 BKN027 OVC130 25/24 A2995=
####018000108####
SAUK31 EGGY 081120 CCA
METAR COR EGLL 081120Z 24007KT 180V270 9999 SCT020 SCT035 22/14
    Q1019 NOSIG=
####018000086####
SAAF08 LFPW 081100 RRB
METAR DFFD 081100Z 35005KT 320V030 CAVOK 29/22 Q1015 NOSIG=
####018000077####
SPUS42 KWBC 081129
SPECI
KMAF 081126Z 01006KT 10SM SCT005 21/20 A3008=
####018000541####
SAIY32 LIIB 081120
METAR LIBD 081120Z 01016KT CAVOK 25/11 Q1020=
METAR LIBR 081115Z /////KT CAVOK 25/13 Q1017 NOSIG=
METAR LICC 081120Z 10010KT 8000 FEW040 29/21 Q1018=
METAR LICJ 081120Z 04015KT 9999 FEW018 27/23 Q1018=
METAR LIPE 081120Z 10007KT 030V150 CAVOK 29/15 Q1021=
METAR LIPH 081115Z 17005KT 9999 BKN025 28/20 Q1022=
METAR LIPQ 081120Z 30004KT 9999 FEW040 26/14 Q1022=
METAR LIPR 081115Z 08011KT CAVOK 28/17 Q1021=
METAR LIPX 081115Z 12006KT 9999 FEW040 29/13 Q1021=
METAR LIPZ 081120Z 13009KT 9999 FEW040 26/17 Q1022=
####018000740####
SAIY31 LIIB 081120
METAR LIEA 081120Z 20005KT 150V270 9999 FEW025 32/22 Q1019=
METAR LIEE 081115Z 16012KT 9999 FEW020 28/20 Q1019 NOSIG=
METAR LIEO 081120Z 04012KT CAVOK 30/22 Q1020=
METAR LIMC 081120Z VRB03KT 9999 FEW035 27/15 Q1022 NOSIG=
METAR LIME 081120Z VRB05KT 9999 BKN050 27/15 Q1022=
METAR LIMF 081120Z 03003KT 9999 FEW030 BKN050 25/15 Q1023=
METAR LIMJ 081120Z 16004KT 9999 FEW019 SCT035 29/25 Q1020=
METAR LIML 081120Z 14006KT 9999 FEW030 28/16 Q1021 NOSIG=
METAR LIRA 081115Z 22008KT 170V330 9999 SCT018 30/18 Q1019=
METAR LIRF 081120Z 22012KT CAVOK 29/18 Q1020 NOSIG=
METAR LIRN 081120Z 05009KT CAVOK 28/13 Q1019=
METAR LIRP 081115Z 12004KT CAVOK 30/15 Q1020 NOSIG=
METAR LIRQ 081120Z VRB02KT CAVOK 31/13 Q1020=
####018000086####
SPUS53 KWBC 081129
SPECI
KUIN 081126Z AUTO 31004KT 1/4SM FG OVC001 23/22 A3005=
####018000638####
SAGR31 LGAT 081120
METAR LGAD 081120Z 31011KT 9999 FEW020 27/18 Q1014=
METAR LGAV 081120Z 03015KT 350V060 9999 SCT030 26/13
  Q1013 NOSIG=
METAR LGIR 081120Z 35007KT 9999 FEW020 29/24 Q1011 NOSIG=
METAR LGKL 081120Z 33009KT 9999 FEW030 33/11 Q1011=
METAR LGKO 081120Z 31019KT CAVOK 30/18 Q1009=
METAR LGKR 081120Z 32018KT CAVOK 28/10 Q1013 NOSIG=
METAR LGLM 081120Z 05011KT 9999 FEW008 BKN020 21/16 Q1013=
METAR LGRP 081120Z 25015KT CAVOK 30/18 Q1008 NOSIG=
METAR LGSA 081120Z 29010KT 9999 FEW020 33/14 Q1011=
METAR LGSM 081120Z 34012KT 9999 FEW020 31/14 Q1010=
METAR LGTS 081120Z 34019G29KT 9999 SCT025 24/12 Q1016 NOSIG=
####018000275####
SAGR33 LGAT 081120
METAR LGHI 081120Z NIL=
METAR LGKC 081120Z NIL=
METAR LGKF 081120Z NIL=
METAR LGKP 081120Z NIL=
METAR LGKZ 081120Z NIL=
METAR LGMK 081120Z 36021KT 9999 FEW012 24/17 Q1012=
METAR LGNX 081120Z NIL=
METAR LGPA 081120Z NIL=
METAR LGSO 081120Z NIL=
####018000481####
SAGR32 LGAT 081120
METAR LGAL 081120Z 36009KT 9999 FEW008 FEW020TCU BKN025 20/18
      Q1015=
METAR LGEL 081120Z 34013G23KT CAVOK 28/12 Q1011=
METAR LGKV 081120Z 16006KT 9999 FEW020CB SCT025TCU BKN100
      22/13 Q1013=
METAR LGMT 081120Z 36014KT 9999 FEW030 SCT160 26/19 Q1011=
METAR LGPZ 081120Z 24011KT 9999 FEW025 27/18 Q1013 NOSIG=
METAR LGRX 081120Z 27013KT 9999 FEW025 28/16 Q1012 NOSIG=
METAR LGSK 081120Z NIL=
METAR LGSR 081120Z NIL=
METAR LGZA 081120Z NIL=
####018000084####
SANI20 DNMM 081130
METAR DNMM 081130Z 24010KT 9999 BKN013 30/25 Q1015 NOSIG=

####018000093####
SPUS72 KWBC 081129
SPECI
KIAH 081116Z 06009KT 4SM BR BKN004 BKN027 OVC130 25/24 A2995=
####018000077####
SPUS72 KWBC 081129
SPECI
KMAF 081126Z 01006KT 10SM SCT005 21/20 A3008=
####018000106####
SPAU31 AMMC 081129
SPECI YPPD 081129Z AUTO 27010KT 7000NDV // SCT010 BKN052 OVC074 22/20 Q1010=


####018000251####
SATU20 LTAA 081050 RRD
METAR LTCC 081120Z 23014KT CAVOK 41/02 Q1005 NOSIG RMK RWY16 12007KT
090V160=
METAR LTCE 081120Z 34005KT 290V020 9999 SCT030 31/08 Q1017 NOSIG RMK 
RWY08R 01006KT 340V060 RWY26R 36003KT 280V080 RWY08L 04005KT 360V070=
####018000085####
SAGR32 LGAT 081120 RRA
METAR LGSR 081120Z 35017KT 9999 FEW020 27/19 Q1011 NOSIG=
####018000100####
SPAU31 AMMC 081129
SPECI YPPD 081129Z AUTO 27010KT 7000NDV // SCT010 BKN052 OVC074 22/20 Q1010=
####018000182####
SANL32 EHDB 081125
METAR EHEH 081125Z AUTO 23007KT 9999NDV BKN350 30/12 Q1019 
BLU BLU=
METAR EHKD 081125Z AUTO 23008KT 9999NDV BKN067/// BKN130/// 22/16
Q1019 
BLU BLU=
####018000093####
SPUS73 KWBC 081129
SPECI
KPLN 081125Z AUTO 00000KT 10SM -RA BKN009 OVC095 22/21 A2998=
####018000086####
SPUS73 KWBC 081129
SPECI
KUIN 081126Z AUTO 31004KT 1/4SM FG OVC001 23/22 A3005=
####018000078####
SPCN44 CWAO 081128
SPECI CYUS 081128Z AUTO ///// 9SM FEW094 11/ A2979=

####018000674####
SAUS20 KNKA 081129
METAR KRAS 081125Z AUTO 12010G14KT 1 1/4SM -RA BKN001 BKN022 
     OVC030 27/26 A2985 RMK AO2 P0005=
METAR KRBO 081125Z AUTO 01007KT 10SM VCTS CLR 26/25 A2983 RMK AO2 
     LTG DSNT SE T02600250=
METAR KRFI 081125Z AUTO 00000KT 4SM BR CLR 24/23 A3003 RMK AO2 
     T02370227=
SPECI KRKP 081128Z AUTO 14009KT 2 1/2SM -RA SCT015 BKN030 OVC037 
    A2984 RMK AO2 VIS 1V5 LTG DSNT NW RAB1056 P0015 FZRANO $=
METAR KRPH 081125Z AUTO 00000KT 10SM CLR 22/21 A3002 RMK AO2 
     T02180208=
METAR KSEP 081125Z AUTO 00000KT 7SM SCT032 SCT090 SCT120 23/21 
     A3003 RMK AO1=
SPECI KWDG 081120Z 33006KT 7SM BKN130 22/22 A3004 RMK FIRST=
####018002942####
SAUS20 KNKA 081129
SPECI KCLL 081128Z AUTO 06007KT 10SM BKN007 25/23 A2997 RMK AO2 CIG 
    006V010=
METAR KEBG 081126Z AUTO 00000KT 10SM -DZ SCT005 BKN010 BKN095 
     26/25 A2980 RMK AO2 T02620248=
METAR KGOP 081120Z AUTO 00000KT 10SM SCT009 SCT025 24/24 A3002 
     RMK AO2=
METAR KGVT 081125Z AUTO 00000KT 10SM SCT012 SCT027 OVC035 25/23 
     A3004 RMK AO2=
METAR KGWB 081125Z AUTO 00000KT 4SM HZ CLR 23/18 A3006 RMK AO2=
METAR KGYB 081125Z AUTO 07005KT 7SM OVC008 25/24 A2999 RMK AO2 
     T02480240=
METAR KGYI 081125Z AUTO 14004KT 10SM SCT024 25/24 A3004 RMK AO2 
     T02500236=
METAR KHHF 081125Z AUTO 00000KT 10SM -RA SCT040 OVC048 21/20 
     A3013 RMK AO2 T02110200 PNO=
METAR KHRX 081125Z AUTO 01009G16KT 10SM SCT007 OVC014 17/16 A3022 
     RMK AO2 T01680161=
METAR KIJX 081125Z AUTO 00000KT 2SM -DZ CLR 23/23 A3004 RMK AO2 
     T02340227=
METAR KINJ 081125Z AUTO 07003KT 7SM CLR 25/23 A3001 RMK AO2 
     T02450227=
METAR KJAS 081126Z AUTO 06004KT 7SM SCT009 25/24 A3003 RMK AO2 
     T02450236=
METAR KJDD 081125Z AUTO 00000KT 3SM  BR OVC001 24/24 A3004 RMK AO2=
METAR KJSO 081130Z AUTO 10003KT 7SM CLR 23/23 A3005 RMK AO2 
     T02330233=
METAR KJWY 081125Z AUTO 11003KT 7SM 25/23 A3002 RMK AO2 T02450228=
METAR KJXI 081125Z AUTO 00000KT BKN002 BKN006 24/24 A3005 RMK AO2=
METAR KLBR 081125Z AUTO 00000KT 5SM SCT004 OVC036 24/23 A3005 RMK 
     AO2 T02390230=
METAR KLHB 081123Z AUTO 06004KT 5SM BR CLR 25/23 A2998 RMK AO2 
     T02500231=
METAR KLNC 081125Z AUTO 00000KT 7SM SCT028 BKN110 24/24 A3002 RMK 
     AO2 T02430242=
METAR KLOT 081122Z AUTO 00000KT 2 1/2SM -RA BKN050 OVC065 23/22 
     A3002 RMK AO2 LTG DSNT E=
METAR KLUD 081125Z AUTO 00000KT 10SM CLR 24/23 A3004 RMK AO2 
     T02400225=
METAR KM30 081126Z AUTO 00000KT 10SM SCT120 22/21 A3006 RMK AO2=
METAR KMDD 081120Z AUTO 02007KT 5SM BR BKN002 BKN110 21/20 A3009 
     RMK AO2 T02120203=
METAR KMKN 081120Z AUTO 00000KT 10SM 23/23 A3004 RMK AO2=
METAR KMNZ 081129Z AUTO 11005KT 10SM SCT009 OVC014 24/24 A3002 
     RMK AO2 T02430240=
METAR KMQB 081125Z AUTO 30003KT 7SM OVC004 23/23 A3006 RMK AO2 
     T02270225=
METAR KMWA 081125Z AUTO 00000KT 10SM SCT090 25/24 A3007 RMK AO2 
     T02470237=
METAR KOSA 081124Z AUTO 00000KT 4SM CLR 24/24 A3005 RMK AO1 
     T02410237=
METAR KPEQ 081125Z AUTO 33005KT 10SM 22/21 A3007 RMK AO2=
METAR KPEZ 081125Z AUTO 03006KT 10SM OVC013 25/24 A2992 RMK AO2 
     T02500235=
METAR KPKV 081126Z AUTO 00000KT 7SM SCT020 SCT070 BKN110 25/23 
     A2987 RMK AO2 T02450228=
METAR KPPA 081125Z AUTO 36010KT 10SM SCT005 BKN065 OVC080 17/17 
     A3019 RMK AO2=
METAR KPPQ 081126Z AUTO 00000KT 10SM SCT080 23/22 A3005 RMK AO2 
     P0001=
METAR KPSN 081125Z AUTO 09006KT 10SM 24/23 A3002 RMK AO2 T02420233=
METAR KPYX 081130Z AUTO 36006KT 7SM SCT011 SCT090 OVC120 18/17 
     A3018 RMK AO2 T01840174=
####018000333####
SAUK KAWN 081100 RRG
METAR EGAC 081120Z 22015KT 9999 FEW023 SCT039 18/08 Q1014=
METAR COR EGLL 081120Z 24007KT 180V270 9999 SCT020 SCT035 22/14 Q1019
      NOSIG=
METAR EGNS 081120Z 20011KT 9999 FEW025 17/11 Q1016 NOSIG=
METAR EGNX 081120Z 24012KT CAVOK 21/08 Q1018=
METAR EGSS 081120Z 23007KT 9999 BKN021 21/15 Q1018=
####018000091####
SAAJ31 UBBB 081130
METAR UBBB 081130Z 35020KT CAVOK 33/23 Q1010 NOSIG RMK
R88CLRD70=
####018000096####
SAUK39 EGRR 081050 RRJ
METAR EGDY 081050Z 24005KT 9999 FEW035 BKN220 22/14 Q1018 BLU NOSIG=
####018001700####
SPZZ40 KAWN 081129 RRF
SPECI CYAM 081126Z 26004KT 2SM BR OVC004 RMK SF8=
SPECI CYAY 081127Z AUTO 16008KT 9SM SCT005 OVC017 09/08 A3009 RMK SLP191=
SPECI CYRT 081127Z 06008KT 1/2SM -DZ FG VV001 RMK FG8=
SPECI CYTZ 081126Z AUTO 00000KT 2 1/4SM BR BKN002 20/20 A3002 RMK SLP166
      DENSITY ALT 700FT RVR MISG=
SPECI CYTZ 081127Z AUTO 00000KT 2 1/4SM BR SCT002 20/20 A3002 RMK SLP166
      DENSITY ALT 700FT RVR MISG=
SPECI CYUS 081128Z AUTO ///// 9SM FEW094 11/ A2979=
SPECI CYZX 081125Z 21006KT 8SM OVC009 RMK SF7 WNDY=
SPECI EGUN 081125Z AUTO 26008KT 9999 BKN029 OVC035 21/17 A3007 RMK
      AO2 CIG 027V030 SLP171=
SPECI KAFF 081125Z AUTO 00000KT 10SM SCT024 12/11 A3039 RMK AO2 SLP207=
SPECI KEGI 081125Z AUTO 00000KT 3/4SM R18/1200VP6000FT BR CLR 21/21
      A3003 RMK AO2 VIS 1/4V5 SLP169 $=
SPECI KFRI 081126Z AUTO 02005KT 6SM BR SCT006 BKN010 OVC019 22/22 A3010
      RMK AO2 OVC V BKN SLP183=
SPECI KHLR 081124Z AUTO 06004KT 10SM FEW009 SCT037 BKN047 25/ A3000
      RMK AO2 T0250 $=
SPECI KHST 081127Z AUTO 35003KT 10SM FEW032 27/25 A2994 RMK AO2 DZB1118E1127
      SLP142 $=
SPECI KRND 081127Z AUTO 03005KT 8SM -DZ SCT013 BKN060 25/24 A2994 RMK
      AO2 DZB1118 SCT V BKN CLDS LWR RWY32R SLP128=
SPECI KRND 081128Z AUTO 03005KT 8SM -DZ BKN012 BKN060 25/24 A2994 RMK
      AO2 DZB1118 CLDS LWR RWY32R SLP128=
SPECI PGUA 081128Z AUTO 10010G22KT 10SM R06R/5500VP6000FT R06L/4000VP6000FT
      SCT018 BKN028 26/ A2992 RMK AO2 PK WND 09026/1115
      RAB1118E1128 SLP114 VISNO RWY24L $=
SPECI SKBQ 081120Z 00000KT 4000 BR SCT010 BKN070 25/25 A2988=
SPECI YPPD 081129Z AUTO 27010KT 7000NDV // SCT010 BKN052 OVC074 22/20
      Q1010=
####018000051####
SAUS90 KWBC 081130
METAR K8S0 081025Z 26006KT=
####018000637####
SAGR31 LGAT 081120
METAR LGAD 081120Z 31011KT 9999 FEW020 27/18 Q1014=
METAR LGAV 081120Z 03015KT 350V060 9999 SCT030 26/13
  Q1013 NOSIG=
METAR LGIR 081120Z 35007KT 9999 FEW020 29/24 Q1011 NOSIG=
METAR LGKL 081120Z 33009KT 9999 FEW030 33/11 Q1011=
METAR LGKO 081120Z 31019KT CAVOK 30/18 Q1009=
METAR LGKR 081120Z 32018KT CAVOK 28/10 Q1013 NOSIG=
METAR LGLM 081120Z 05011KT 9999 FEW008 BKN020 21/16 Q1013=
METAR LGRP 081120Z 25015KT CAVOK 30/18 Q1008 NOSIG=
METAR LGSA 081120Z 29010KT 9999 FEW020 33/14 Q1011=
METAR LGSM 081120Z 34012KT 9999 FEW020 31/14 Q1010=
METAR LGTS 081120Z 34019G29KT 9999 SCT025 24/12 Q1016 NOSIG=
####018000292####
SPUS99 KWBC 081130
SPECI
KRKP 081128Z AUTO 14009KT 2 1/2SM -RA SCT015 BKN030 OVC037 A2984
     RMK AO2 VIS 1V5 LTG DSNT NW RAB1056 P0015 FZRANO $=
KWDG 081120Z 33006KT 7SM BKN130 22/22 A3004 RMK FIRST=
KCLL 081128Z AUTO 06007KT 10SM BKN007 25/23 A2997 RMK AO2 CIG
     006V010=
####018003056####
SAUS99 KWBC 081130
METAR
KRAS 081125Z AUTO 12010G14KT 1 1/4SM -RA BKN001 BKN022 OVC030
     27/26 A2985 RMK AO2 P0005=
KRBO 081125Z AUTO 01007KT 10SM VCTS CLR 26/25 A2983 RMK AO2 LTG
     DSNT SE T02600250=
KRFI 081125Z AUTO 00000KT 4SM BR CLR 24/23 A3003 RMK AO2
     T02370227=
KRPH 081125Z AUTO 00000KT 10SM CLR 22/21 A3002 RMK AO2
     T02180208=
KSEP 081125Z AUTO 00000KT 7SM SCT032 SCT090 SCT120 23/21 A3003 RMK
     AO1=
KEBG 081126Z AUTO 00000KT 10SM -DZ SCT005 BKN010 BKN095 26/25
     A2980 RMK AO2 T02620248=
KGOP 081120Z AUTO 00000KT 10SM SCT009 SCT025 24/24 A3002 RMK
     AO2=
KGVT 081125Z AUTO 00000KT 10SM SCT012 SCT027 OVC035 25/23 A3004
     RMK AO2=
KGWB 081125Z AUTO 00000KT 4SM HZ CLR 23/18 A3006 RMK AO2=
KGYB 081125Z AUTO 07005KT 7SM OVC008 25/24 A2999 RMK AO2
     T02480240=
KGYI 081125Z AUTO 14004KT 10SM SCT024 25/24 A3004 RMK AO2
     T02500236=
KHHF 081125Z AUTO 00000KT 10SM -RA SCT040 OVC048 21/20 A3013 RMK
     AO2 T02110200 PNO=
KHRX 081125Z AUTO 01009G16KT 10SM SCT007 OVC014 17/16 A3022 RMK
     AO2 T01680161=
KIJX 081125Z AUTO 00000KT 2SM -DZ CLR 23/23 A3004 RMK AO2
     T02340227=
KINJ 081125Z AUTO 07003KT 7SM CLR 25/23 A3001 RMK AO2
     T02450227=
KJAS 081126Z AUTO 06004KT 7SM SCT009 25/24 A3003 RMK AO2
     T02450236=
KJDD 081125Z AUTO 00000KT 3SM BR OVC001 24/24 A3004 RMK AO2=
KJSO 081130Z AUTO 10003KT 7SM CLR 23/23 A3005 RMK AO2
     T02330233=
KJWY 081125Z AUTO 11003KT 7SM 25/23 A3002 RMK AO2 T02450228=
KJXI 081125Z AUTO 00000KT BKN002 BKN006 24/24 A3005 RMK AO2=
KLBR 081125Z AUTO 00000KT 5SM SCT004 OVC036 24/23 A3005 RMK AO2
     T02390230=
KLHB 081123Z AUTO 06004KT 5SM BR CLR 25/23 A2998 RMK AO2
     T02500231=
KLNC 081125Z AUTO 00000KT 7SM SCT028 BKN110 24/24 A3002 RMK AO2
     T02430242=
KLOT 081122Z AUTO 00000KT 2 1/2SM -RA BKN050 OVC065 23/22 A3002
     RMK AO2 LTG DSNT E=
KLUD 081125Z AUTO 00000KT 10SM CLR 24/23 A3004 RMK AO2
     T02400225=
KM30 081126Z AUTO 00000KT 10SM SCT120 22/21 A3006 RMK AO2=
KMDD 081120Z AUTO 02007KT 5SM BR BKN002 BKN110 21/20 A3009 RMK AO2
     T02120203=
KMKN 081120Z AUTO 00000KT 10SM 23/23 A3004 RMK AO2=
KMNZ 081129Z AUTO 11005KT 10SM SCT009 OVC014 24/24 A3002 RMK AO2
     T02430240=
KMQB 081125Z AUTO 30003KT 7SM OVC004 23/23 A3006 RMK AO2
     T02270225=
KMWA 081125Z AUTO 00000KT 10SM SCT090 25/24 A3007 RMK AO2
     T02470237=
KOSA 081124Z AUTO 00000KT 4SM CLR 24/24 A3005 RMK AO1
     T02410237=
KPEQ 081125Z AUTO 33005KT 10SM 22/21 A3007 RMK AO2=
KPEZ 081125Z AUTO 03006KT 10SM OVC013 25/24 A2992 RMK AO2
     T02500235=
KPKV 081126Z AUTO 00000KT 7SM SCT020 SCT070 BKN110 25/23 A2987 RMK
     AO2 T02450228=
KPPA 081125Z AUTO 36010KT 10SM SCT005 BKN065 OVC080 17/17 A3019
     RMK AO2=
KPPQ 081126Z AUTO 00000KT 10SM SCT080 23/22 A3005 RMK AO2
     P0001=
KPSN 081125Z AUTO 09006KT 10SM 24/23 A3002 RMK AO2 T02420233=
KPYX 081130Z AUTO 36006KT 7SM SCT011 SCT090 OVC120 18/17 A3018 RMK
     AO2 T01840174=
####018000123####
SAXX60 KWBC 081130
METAR
KAPY 081123Z AUTO 34004KT 5SM RA SCT007 BKN019 OVC032 26/25 A2985
     RMK AO2 T02550245=
####018000109####
SPUS80 KWBC 081130
SPECI
KCLL 081128Z AUTO 06007KT 10SM BKN007 25/23 A2997 RMK AO2 CIG
     006V010=
####018000442####
SAUS20 KNKA 081129
SPECI KDDC 081128Z AUTO 36008KT 2 1/2SM BR OVC003 18/17 A3018 RMK 
    AO2=
SPECI KEWR 081128Z 22003KT 4SM BR BKN007 BKN100 BKN250 26/25 A3004 
    RMK AO2 BKN007 V SCT=
SPECI KFLD 081128Z AUTO 00000KT 7SM SCT009 BKN015 22/21 A3001 RMK 
    AO2=
SPECI KODO 081127Z AUTO 02009KT 7SM BKN003 OVC110 21/19 A3010 RMK 
    AO2=
SPECI KSET 081128Z AUTO 00000KT 5SM BR SCT008 OVC038 24/24 A3003 RMK 
    AO2=
####018003028####
SAUS70 KWBC 081130 RRA
METAR
KPRG 081125Z AUTO 00000KT 3SM BR SCT120 22/22 A3005 RMK AO2
     T02300223=
KRPJ 081125Z AUTO 25003KT 3SM BR SCT007 OVC014 21/20 A3005 RMK AO2
     T02100200=
KRSV 081122Z AUTO 00000KT 4SM BR CLR 24/23 A3006 RMK AO2
     T02420231=
KRAS 081125Z AUTO 12010G14KT 1 1/4SM -RA BKN001 BKN022 OVC030
     27/26 A2985 RMK AO2 P0005=
KRBO 081125Z AUTO 01007KT 10SM VCTS CLR 26/25 A2983 RMK AO2 LTG
     DSNT SE T02600250=
KRPH 081125Z AUTO 00000KT 10SM CLR 22/21 A3002 RMK AO2
     T02180208=
KEBG 081126Z AUTO 00000KT 10SM -DZ SCT005 BKN010 BKN095 26/25
     A2980 RMK AO2 T02620248=
KGOP 081120Z AUTO 00000KT 10SM SCT009 SCT025 24/24 A3002 RMK
     AO2=
KGVT 081125Z AUTO 00000KT 10SM SCT012 SCT027 OVC035 25/23 A3004
     RMK AO2=
KGWB 081125Z AUTO 00000KT 4SM HZ CLR 23/18 A3006 RMK AO2=
KGYB 081125Z AUTO 07005KT 7SM OVC008 25/24 A2999 RMK AO2
     T02480240=
KGYI 081125Z AUTO 14004KT 10SM SCT024 25/24 A3004 RMK AO2
     T02500236=
KHHF 081125Z AUTO 00000KT 10SM -RA SCT040 OVC048 21/20 A3013 RMK
     AO2 T02110200 PNO=
KHRX 081125Z AUTO 01009G16KT 10SM SCT007 OVC014 17/16 A3022 RMK
     AO2 T01680161=
KIJX 081125Z AUTO 00000KT 2SM -DZ CLR 23/23 A3004 RMK AO2
     T02340227=
KINJ 081125Z AUTO 07003KT 7SM CLR 25/23 A3001 RMK AO2
     T02450227=
KJAS 081126Z AUTO 06004KT 7SM SCT009 25/24 A3003 RMK AO2
     T02450236=
KJDD 081125Z AUTO 00000KT 3SM BR OVC001 24/24 A3004 RMK AO2=
KJSO 081130Z AUTO 10003KT 7SM CLR 23/23 A3005 RMK AO2
     T02330233=
KJWY 081125Z AUTO 11003KT 7SM 25/23 A3002 RMK AO2 T02450228=
KJXI 081125Z AUTO 00000KT BKN002 BKN006 24/24 A3005 RMK AO2=
KLBR 081125Z AUTO 00000KT 5SM SCT004 OVC036 24/23 A3005 RMK AO2
     T02390230=
KLHB 081123Z AUTO 06004KT 5SM BR CLR 25/23 A2998 RMK AO2
     T02500231=
KLNC 081125Z AUTO 00000KT 7SM SCT028 BKN110 24/24 A3002 RMK AO2
     T02430242=
KLOT 081122Z AUTO 00000KT 2 1/2SM -RA BKN050 OVC065 23/22 A3002
     RMK AO2 LTG DSNT E=
KLUD 081125Z AUTO 00000KT 10SM CLR 24/23 A3004 RMK AO2
     T02400225=
KM30 081126Z AUTO 00000KT 10SM SCT120 22/21 A3006 RMK AO2=
KMDD 081120Z AUTO 02007KT 5SM BR BKN002 BKN110 21/20 A3009 RMK AO2
     T02120203=
KMNZ 081129Z AUTO 11005KT 10SM SCT009 OVC014 24/24 A3002 RMK AO2
     T02430240=
KMQB 081125Z AUTO 30003KT 7SM OVC004 23/23 A3006 RMK AO2
     T02270225=
KMWA 081125Z AUTO 00000KT 10SM SCT090 25/24 A3007 RMK AO2
     T02470237=
KOSA 081124Z AUTO 00000KT 4SM CLR 24/24 A3005 RMK AO1
     T02410237=
KPEQ 081125Z AUTO 33005KT 10SM 22/21 A3007 RMK AO2=
KPEZ 081125Z AUTO 03006KT 10SM OVC013 25/24 A2992 RMK AO2
     T02500235=
KPKV 081126Z AUTO 00000KT 7SM SCT020 SCT070 BKN110 25/23 A2987 RMK
     AO2 T02450228=
KPPA 081125Z AUTO 36010KT 10SM SCT005 BKN065 OVC080 17/17 A3019
     RMK AO2=
KPPQ 081126Z AUTO 00000KT 10SM SCT080 23/22 A3005 RMK AO2
     P0001=
KPYX 081130Z AUTO 36006KT 7SM SCT011 SCT090 OVC120 18/17 A3018 RMK
     AO2 T01840174=
####018003676####
SAUS70 KWBC 081130
METAR
K0F2 081124Z AUTO 00000KT 10SM SCT050 SCT075 OVC085 23/22 A3004
     RMK AO2 T02310220=
K3LF 081123Z AUTO 00000KT 3SM BR SCT037 OVC070 23/22 A3005 RMK
     AO2=
K3T5 081124Z AUTO 07004KT 5SM +RA BKN008 BKN016 OVC110 26/24 A2993
     RMK AO2 T02550240=
K6R3 081121Z AUTO 08003KT 2SM -RA SCT006 BKN014 OVC080 24/24 A2998
     RMK AO2 VIS 1 1/4V5 P0007 T02420242=
KAJG 081125Z AUTO 00000KT 5SM BR CLR 23/22 A3005 RMK AO2
     T02270219=
KALN 081123Z AUTO 00000KT 5SM BR SCT037 BKN044 BKN060 25/25 A3004
     RMK AO2 T02480245=
KAQO 081125Z AUTO 00000KT 24/23 A3002 RMK AO2=
KARM 081125Z AUTO 06003KT 7SM -RA SCT027 SCT041 BKN095 26/24 A2991
     RMK AO2 LTG DSNT N P0001 T02560240=
KASW 081125Z AUTO 00000KT 7SM SCT055 SCT070 24/21 A3005 RMK AO2
     T02420209=
KAXH 081125Z AUTO 13008G15KT 7SM SCT024 BKN048 OVC060 27/24 A2992
     RMK AO2 LTG DSNT E T02650235=
KBBD 081125Z AUTO 06003KT 10SM FEW018 22/21 A3003 RMK=
KBEA 081123Z AUTO 06007KT 10SM SCT006 SCT022 BKN027 25/25 A2987
     RMK AO2 T02480248=
KBKD 081121Z AUTO 06003KT 1/2SM FG OVC002 23/23 A3004 RMK AO2
     T02320227=
KBKS 081126Z AUTO 36004KT 10SM CLR 26/25 A2981 RMK AO1
     T02610247=
KBPC 081128Z AUTO 01004KT 10SM SCT006 BKN032 OVC095 19/18 A3017
     RMK AO2=
KBPG 081125Z AUTO 02005KT 7SM CLR 21/20 A3011 RMK AO1
     T02090196=
KBYY 081126Z AUTO 07008KT 7SM SCT022 SCT029 SCT037 26/25 A2989 RMK
     AO2 T02600252=
KC09 081124Z AUTO 00000KT 1 1/4SM BR SCT039 BKN050 OVC065 21/21
     A3003 RMK AO2 LTG DSNT E=
KCPT 081125Z AUTO 10004KT 9SM FEW008 BKN015 OVC023 24/24 A3004 RMK
     AO2=
KCVB 081124Z AUTO 03003KT 10SM SCT014 BKN044 25/24 A2995 RMK AO2
     T02470242=
KCWC 081125Z AUTO 07003KT 10SM CLR 23/22 A3004 RMK AO2
     T02300216=
KDKB 081121Z AUTO 22005KT 1 1/2SM BR OVC002 22/21 A3004 RMK AO2
     LTG DSNT E T02150210=
KDKR 081125Z AUTO 09005KT 7SM CLR 24/24 A3003 RMK AO2=
KDNV 081125Z AUTO 00000KT 3SM BR SCT120 22/21 A3002 RMK AO2
     T02240211=
KDUX 081127Z AUTO 34010KT 10SM OVC006 17/16 A3022 RMK AO2
     T01700162=
KDZB 081125Z AUTO 00000KT 4SM RA OVC014 24/24 A2998 RMK AO2 P0001
     T02400240=
KE38 081125Z AUTO 00000KT 10SM CLR 16/16 A3021 RMK AO2
     T01620157=
KECU 081125Z AUTO 08004KT 7SM BKN004 22/22 A3008 RMK AO2=
KENL 081124Z AUTO 19004KT 10SM BKN048 BKN065 26/17 A3005 RMK AO2
     T02550173=
KERV 081125Z AUTO 09003KT 10SM SCT010 SCT042 SCT050 23/21 A3000
     RMK AO2 T02330213=
KF05 081124Z AUTO 07003KT 10SM SCT035 SCT041 24/22 A3005 RMK AO2
     T02380222=
KFEP 081125Z AUTO 00000KT 5SM BR CLR 22/20 A3004 RMK AO2
     T02220202=
KFOA 081125Z AUTO 00000KT 4SM BR CLR 25/25 A3005 RMK AO2
     T02460246=
KFWS 081125Z AUTO 00000KT 7SM DZ BKN007 OVC015 25/24 A3004 RMK AO2
     T02480235=
KGBG 081125Z AUTO 27004KT 5SM BR OVC004 23/22 A3004 RMK AO2=
KGDJ 081124Z AUTO 08003KT 10SM BKN006 BKN010 OVC031 26/24 A3003
     RMK AO2 T02550239=
KGLE 081124Z AUTO 00000KT 10SM -RA SCT026 SCT060 BKN090 25/22
     A3005 RMK AO2=
KGNC 081125Z AUTO 01006KT 5SM +RA SCT004 BKN010 OVC030 19/18 A3015
     RMK AO2 P0006 T01920181=
KHBV 081120Z AUTO 35004KT 10SM SCT004 SCT012 SCT019 25/24 A2987
     RMK AO2 T02470235=
KHSB 081125Z AUTO 00000KT 4SM BR CLR 22/21 A3006 RMK AO2=
KOLY 081123Z AUTO 00000KT 3SM BR CLR 23/23 A3004 RMK AO2=
KOXI 081125Z AUTO 28010KT 2 1/2SM SCT013 BKN050 OVC100 22/21 A3005
     RMK AO1 T02220210=
KOZA 081121Z AUTO 00000KT 10SM SCT120 22/21 A3007 RMK AO2
     T02200213=
KPNT 081125Z AUTO 14003KT 2SM BR SCT007 BKN041 OVC075 22/22 A3003
     RMK AO2 LTG DSNT E=
####018000625####
SPUS70 KWBC 081130
SPECI
KBVY 081127Z 16007KT 10SM SCT007 23/20 A3009 RMK AO2 PNO=
KCEC 081127Z AUTO 00000KT 5SM BR SCT001 OVC005 10/09 A2998 RMK
     AO2=
KCYS 081127Z AUTO 19003KT 9SM BKN008 OVC041 12/12 A3037 RMK AO2
     CIG 005V009 TSNO=
KGLH 081127Z AUTO 00000KT 1/2SM FG CLR 22/22 A3006 RMK AO2=
KISP 081127Z 14005KT 7SM SCT005 BKN011 OVC120 26/22 A3005 RMK
     AO2=
KTZR 081130Z 00000KT 3SM BR SKC 22/20 A3009=
KRKP 081128Z AUTO 14009KT 2 1/2SM -RA SCT015 BKN030 OVC037 A2984
     RMK AO2 VIS 1V5 LTG DSNT NW RAB1056 P0015 FZRANO $=
KWDG 081120Z 33006KT 7SM BKN130 22/22 A3004 RMK FIRST=
####018000783####
SPXX60 KWBC 081130
SPECI
KAFF 081125Z AUTO 00000KT 10SM SCT024 12/11 A3039 RMK AO2
     SLP207=
KFRI 081126Z AUTO 02005KT 6SM BR SCT006 BKN010 OVC019 22/22 A3010
     RMK AO2 OVC V BKN SLP183=
KHLR 081124Z AUTO 06004KT 10SM FEW009 SCT037 BKN047 25/ A3000 RMK
     AO2 T0250 $=
KHST 081127Z AUTO 35003KT 10SM FEW032 27/25 A2994 RMK AO2
     DZB1118E1127 SLP142 $=
KRND 081127Z AUTO 03005KT 8SM -DZ SCT013 BKN060 25/24 A2994 RMK
     AO2 DZB1118 SCT V BKN CLDS LWR RWY32R SLP128=
KRND 081128Z AUTO 03005KT 8SM -DZ BKN012 BKN060 25/24 A2994 RMK
     AO2 DZB1118 CLDS LWR RWY32R SLP128=
PGUA 081128Z AUTO 10010G22KT 10SM R06R/5500VP6000FT
     R06L/4000VP6000FT SCT018 BKN028 26/ A2992 RMK AO2 PK WND
     09026/1115 RAB1118E1128 SLP114 VISNO RWY24L $=
####018000500####
SAUS80 KWBC 081130
METAR
KCIR 081122Z AUTO 00000KT 10SM CLR 25/22 A3006 RMK AO2=
KCUL 081125Z AUTO 00000KT 4SM CLR 23/21 A3005 RMK AO2
     T02300212=
KSFY 081125Z AUTO 25003KT 5SM BR OVC009 23/21 A3004 RMK AO2=
KRFI 081125Z AUTO 00000KT 4SM BR CLR 24/23 A3003 RMK AO2
     T02370227=
KSEP 081125Z AUTO 00000KT 7SM SCT032 SCT090 SCT120 23/21 A3003 RMK
     AO1=
KMKN 081120Z AUTO 00000KT 10SM 23/23 A3004 RMK AO2=
KPSN 081125Z AUTO 09006KT 10SM 24/23 A3002 RMK AO2 T02420233=
####018000087####
SAAF31 KWBC 081100 RRD
METAR
DNMM 081130Z 24010KT 9999 BKN013 30/25 Q1015 NOSIG=
####018000286####
SANL31 EHDB 081125
METAR EHAM 081125Z 30008KT 230V340 9999 FEW035 24/16 Q1019 NOSIG=
METAR EHBK 081125Z AUTO VRB06KT 9999NDV NCD 29/11 Q1019 NOSIG=
METAR EHGG 081125Z AUTO 26011KT 220V300 9999NDV NSC 27/13 Q1019
NOSIG=
METAR EHRD 081125Z 28005KT 240V340 CAVOK 24/15 Q1019 NOSIG=
####018000083####
SAAG31 KWBC 081100 RRB
METAR
SAWE 081100Z 27007KT 9999 SCT050 M02/M02 Q0987=
####018000078####
SAUK31 EGGY 081120 RRA
METAR EGSS 081120Z 23007KT 9999 BKN021 21/15 Q1018=
####018000104####
SPAU31 KWBC 081130
SPECI
YPPD 081129Z AUTO 27010KT 7000NDV // SCT010 BKN052 OVC074 22/20
Q1010=
####018000480####
SAGR32 LGAT 081120
METAR LGAL 081120Z 36009KT 9999 FEW008 FEW020TCU BKN025 20/18
      Q1015=
METAR LGEL 081120Z 34013G23KT CAVOK 28/12 Q1011=
METAR LGKV 081120Z 16006KT 9999 FEW020CB SCT025TCU BKN100
      22/13 Q1013=
METAR LGMT 081120Z 36014KT 9999 FEW030 SCT160 26/19 Q1011=
METAR LGPZ 081120Z 24011KT 9999 FEW025 27/18 Q1013 NOSIG=
METAR LGRX 081120Z 27013KT 9999 FEW025 28/16 Q1012 NOSIG=
METAR LGSK 081120Z NIL=
METAR LGSR 081120Z NIL=
METAR LGZA 081120Z NIL=
####018000128####
SAAW34 KWBC 081115 RRA
METAR
OPKC 081125Z 17014KTS 8000 SCT030TCU SCT100 34/24 Q1002 TEMPO NE
     30KTS TSRA FEW025CB=
####018000263####
SAAW41 KWBC 081150 RRB
METAR
LTCC 081120Z 23014KT CAVOK 41/02 Q1005 NOSIG RMK RWY16 12007KT
     090V160=
LTCE 081120Z 34005KT 290V020 9999 SCT030 31/08 Q1017 NOSIG RMK
     RWY08R 01006KT 340V060 RWY26R 36003KT 280V080 RWY08L 04005KT
     360V070=
####018000274####
SAGR33 LGAT 081120
METAR LGHI 081120Z NIL=
METAR LGKC 081120Z NIL=
METAR LGKF 081120Z NIL=
METAR LGKP 081120Z NIL=
METAR LGKZ 081120Z NIL=
METAR LGMK 081120Z 36021KT 9999 FEW012 24/17 Q1012=
METAR LGNX 081120Z NIL=
METAR LGPA 081120Z NIL=
METAR LGSO 081120Z NIL=
####018000084####
SAAF17 LFPW 081100 RRC
METAR HETB 081100Z 34004KT CAVOK       33/10 Q1012 NOSIG=
####018000079####
SAKY31 RUMS 081100 RRB
METAR UAFM 081100Z 29004MPS CAVOK 33/06 Q1012 NOSIG=
####018000086####
SPPR00 SPIM 081125
SPECI
SPQT 081125Z ///// 9999 3000SW MIFG SCT100 24/23 Q1011= 
####018000128####
SPPA41 KWBC 081130
SPECI
PGUA 081128Z AUTO 10010G22KT 10SM R06R/5500VP6000FT
R06L/4000VP6000FT SCT018 BKN028 26/ A2992=
####018000077####
SPCN31 KWBC 081130
SPECI
CYZX 081125Z 21006KT 8SM OVC009 RMK SF7 WNDY=
####018000366####
SAGR31 KWBC 081120 RRB
METAR
LGAL 081120Z 36009KT 9999 FEW008 FEW020TCU BKN025 20/18 Q1015=
LGEL 081120Z 34013G23KT CAVOK 28/12 Q1011=
LGKF 081120Z NIL=
LGKV 081120Z 16006KT 9999 FEW020CB SCT025TCU BKN100 22/13
     Q1013=
LGMT 081120Z 36014KT 9999 FEW030 SCT160 26/19 Q1011=
LGSR 081120Z 35017KT 9999 FEW020 27/19 Q1011 NOSIG=
LGSR 081120Z NIL=
####018000269####
SAGR41 KWBC 081120 RRA
METAR
LGKP 081120Z NIL=
LGKZ 081120Z NIL=
LGMK 081120Z 36021KT 9999 FEW012 24/17 Q1012=
LGPZ 081120Z 24011KT 9999 FEW025 27/18 Q1013 NOSIG=
LGRX 081120Z 27013KT 9999 FEW025 28/16 Q1012 NOSIG=
LGSK 081120Z NIL=
LGZA 081120Z NIL=
####018000191####
SPPA31 KWBC 081130
SPECI
PGUA 081128Z AUTO 10010G22KT 10SM R06R/5500VP6000FT
R06L/4000VP6000FT SCT018 BKN028 26/ A2992 RMK AO2 PK WND
09026/1115 RAB1118E1128 SLP114 VISNO RWY24L $=
####018000086####
SPCN48 CWAO 081128
SPECI CYGV 081128Z AUTO 08004KT 3 1/2SM OVC001 14/12 A3003=

####018000118####
SPXX61 KWBC 081130
SPECI
EGUN 081125Z AUTO 26008KT 9999 BKN029 OVC035 21/17 A3007 RMK AO2
CIG 027V030 SLP171=
####018000106####
SANG31 AMMC 081100 RRA
METAR AYPY 081100Z 18010KT 9999 BKN040 26/23 Q1010
     RMKS: HZ IN AREA=

####018000077####
SPUS41 KWBC 081130
SPECI
KBVY 081127Z 16007KT 10SM SCT007 23/20 A3009=
####018000368####
SANL31 KWBC 081120 RRB
METAR
EHAM 081125Z 30008KT 230V340 9999 FEW035 24/16 Q1019 NOSIG=
EHBK 081125Z AUTO VRB06KT 9999NDV NCD 29/11 Q1019 NOSIG=
EHGG 081125Z AUTO 26011KT 220V300 9999NDV NSC 27/13 Q1019
     NOSIG=
EHKD 081125Z AUTO 23008KT 9999NDV BKN067/// BKN130/// 22/16 Q1019
     BLU BLU=
EHRD 081125Z 28005KT 240V340 CAVOK 24/15 Q1019 NOSIG=
####018000116####
SANT31 KWBC 081100 CCA
METAR
BGJN 081050Z 32004KT 280V360 9999 0600NE PRFG FEW100 07/05 Q1009
     RMK 1AC=
####018000144####
SARA31 KWBC 081100 RRF
METAR
UAFM 081100Z 29004MPS CAVOK 33/06 Q1012 NOSIG=
UBBB 081130Z 35020KT CAVOK 33/23 Q1010 NOSIG RMK R88CLRD70=
####018000716####
SANL33 EHDB 081125
METAR EHAK 081125Z AUTO 21008KT 9999NDV 17/12 Q1016=
METAR EHDV 081125Z NIL=
METAR EHFD 081125Z AUTO 22013KT 9999NDV FEW022/// SCT026/// BKN031///
16/15 Q1018=
METAR EHFZ 081125Z AUTO 23011KT 9999NDV SCT023/// BKN028/// 16/15
Q1018=
METAR EHJA 081125Z AUTO 24012KT 9999NDV SCT042/// SCT046/// 16/14
Q1018=
METAR EHJR 081125Z NIL=
METAR EHKV 081125Z AUTO 26012KT 9999NDV OVC018/// 16/15 Q1019=
METAR EHMA 081125Z AUTO 23011KT 9999NDV 21/17 Q1019=
METAR EHMG 081125Z AUTO 22014KT 9999NDV 17/15 Q1018=
METAR EHPG 081125Z AUTO 22010KT 9999NDV ///////// 16/15 Q1019=
METAR EHQE 081125Z AUTO 23011KT 9999NDV 16/15 Q1019=
METAR EHSA 081125Z NIL=
METAR EHSC 081125Z NIL=
####018000340####
SAUK38 EGGY 081120
METAR EGEC 081120Z NIL=
METAR EGPA 081120Z 21012KT 9999 SCT048 17/11 Q1007=
METAR EGPC 081120Z 20017G27KT 9999 FEW020 16/11 Q1008=
METAR EGPL 081120Z NIL=
METAR COR EGPM 081120Z 22024G36KT 9999 SCT030 17/10 Q1006 NOSIG=
METAR EGPO 081120Z 21019KT 9999 FEW014CB SCT030 15/11 Q1006=
METAR EGPU 081120Z NIL=
####018000301####
SAPK31 OPKC 081130
METAR OPGD 081130Z NIL=
METAR OPKC 081125Z 17014KTS 8000 SCT030TCU SCT100 34/24 Q1002 TEMPO
NE 30KTS TSRA FEW025CB=
METAR OPLA 081125Z 09006KT 6000 SCT040 37/23 Q1003=
METAR OPNH 081130Z NIL=
METAR OPPS 081130Z NIL=
METAR OPRN 081130Z NIL=
METAR OPSK 081130Z NIL=
####018000434####
SAUK37 EGGY 081120
METAR EGAE 081120Z 24016KT 9999 FEW020 BKN040 17/11 Q1013=
METAR EGNC 081120Z NIL=
METAR EGNH 081120Z 24011KT 9999 FEW024 18/11 Q1017=
METAR EGNJ 081120Z 23013KT 190V260 9999 SCT033 21/11 Q1017=
METAR EGNR 081120Z 24011KT 220V290 9999 SCT030 21/10 Q1017=
METAR EGPE 081120Z 22019KT 9999 FEW012 SCT036 17/09 Q1009=
METAR EGPI 081120Z NIL=
METAR EGPN 081120Z 23015KT 9999 FEW032 SCT045 17/11 Q1012=
####018000378####
SAUK36 EGGY 081120
METAR EGBE 081120Z NIL=
METAR EGBJ 081120Z 25006KT 190V280 9999 FEW035 21/09 Q1018=
METAR EGCN 081120Z 25012KT 9999 FEW041 21/10 Q1017=
METAR EGDL 081120Z NIL=
METAR EGSC 081120Z NIL=
METAR EGSD 081120Z NIL=
METAR COR EGSH 081120Z 25007KT 220V290 9999 SCT017 SCT020 22/15
    Q1018 NOSIG=
METAR EGVN 081120Z NIL=
METAR EGWU 081120Z NIL=
####018000102####
SPAU32 YBBN 081129
SPECI YPPD 081129Z AUTO 27010KT 7000NDV // SCT010 BKN052 OVC074 22/20
Q1010=
####018000098####
SAUK41 KWBC 081050 RRD
METAR
EGDY 081050Z 24005KT 9999 FEW035 BKN220 22/14 Q1018 BLU NOSIG=
####018000081####
SAUK42 KWBC 081120 RRA
METAR
EGSS 081120Z 23007KT 9999 BKN021 21/15 Q1018=
####018000190####
SAXX99 KWBC 081100 RRT
METAR
ETHS 081120Z 23009KT 9999 FEW130 29/07 Q1019 BLU/BLU/=
LGHI 081120Z NIL=
LGKC 081120Z NIL=
LGNX 081120Z NIL=
LGPA 081120Z NIL=
LGSO 081120Z NIL=
####018000057####
SAXX99 KWBC 081000 RRX
METAR
K8S0 081025Z 26006KT=
####018000111####
SAUS42 KWBC 081100 RRD
METAR
KGLE 081124Z AUTO 00000KT 10SM -RA SCT026 SCT060 BKN090 25/22
     A3005=
####018000100####
SPAU31 AMMC 081130
SPECI YPPD 081130Z AUTO 27009KT 3000NDV // SCT010 BKN024 OVC074 22/20 Q1010=
####018001006####
SAUS43 KWBC 081100 RRG
METAR
K1H2 081125Z AUTO 21003KT 7SM CLR 25/23 A3005=
KAAA 081123Z AUTO 00000KT 1 1/4SM RA SCT039 BKN055 OVC070 23/22
     A3004=
KC09 081124Z AUTO 00000KT 1 1/4SM BR SCT039 BKN050 OVC065 21/21
     A3003=
KC75 081123Z AUTO 00000KT 4SM BR SCT008 SCT014 OVC019 24/24
     A3003=
KDKB 081121Z AUTO 22005KT 1 1/2SM BR OVC002 22/21 A3004=
KDNV 081125Z AUTO 00000KT 3SM BR SCT120 22/21 A3002=
KENL 081124Z AUTO 19004KT 10SM BKN048 BKN065 26/17 A3005=
KFEP 081125Z AUTO 00000KT 5SM BR CLR 22/20 A3004=
KFOA 081125Z AUTO 00000KT 4SM BR CLR 25/25 A3005=
KGBG 081125Z AUTO 27004KT 5SM BR OVC004 23/22 A3004=
KHSB 081125Z AUTO 00000KT 4SM BR CLR 22/21 A3006=
KIKK 081125Z AUTO 00000KT 4SM HZ SCT085 BKN095 26/23 A3003=
KJOT 081126Z AUTO 00000KT 1 3/4SM BR VV007 23/22 A3002=
KOLY 081123Z AUTO 00000KT 3SM BR CLR 23/23 A3004=
KPNT 081125Z AUTO 14003KT 2SM BR SCT007 BKN041 OVC075 22/22
     A3003=
KPRG 081125Z AUTO 00000KT 3SM BR SCT120 22/22 A3005=
####018000207####
SAUS44 KWBC 081100 RRE
METAR
K11R 081124Z AUTO 05004KT 7SM SCT008 SCT080 24/23 A2995=
KBPG 081125Z AUTO 02005KT 7SM CLR 21/20 A3011=
KBYY 081126Z AUTO 07008KT 7SM SCT022 SCT029 SCT037 26/25 A2989=
####018000088####
SPUS53 KWBC 081130
SPECI
KCYS 081127Z AUTO 19003KT 9SM BKN008 OVC041 12/12 A3037=
####018000106####
SPAU31 AMMC 081130
SPECI YPPD 081130Z AUTO 27009KT 3000NDV // SCT010 BKN024 OVC074 22/20 Q1010=


####018000088####
SPUS73 KWBC 081130
SPECI
KCYS 081127Z AUTO 19003KT 9SM BKN008 OVC041 12/12 A3037=
####018000091####
SPUS74 KWBC 081130
SPECI
KCEC 081127Z AUTO 00000KT 5SM BR SCT001 OVC005 10/09 A2998=
