####018003714####
SAUS90 KWBC 081300
METAR KP69 081252Z AUTO 00000KT 11/10 A3014 RMK AO2 SLP193
     T01060100 PWINO TSNO $=
METAR K9V9 081252Z AUTO 27009KT 17/13 A3020 RMK AO2 SLP217
     T01670133 PWINO TSNO=
METAR KSDB 081252Z AUTO 29004KT 10SM CLR 21/M01 A3003 RMK AO2
     SLP110 T02061006 TSNO $=
METAR KCZZ 081252Z AUTO 00000KT 08/07 A2989 RMK AO2 SLP097
     T00780072 PWINO TSNO=
METAR KUIL 081253Z AUTO 00000KT 10SM CLR 14/10 A2995 RMK AO2
     SLP142 T01440100 TSNO=
METAR KRTN 081253Z AUTO 35004KT 10SM CLR 14/10 A3037 RMK AO2
     SLP221 T01390100 TSNO=
METAR KCQC 081253Z AUTO 08008KT 10SM CLR 11/09 A3038 RMK AO2
     SLP229 T01110094 TSNO=
METAR KLND 081253Z AUTO 00000KT 10SM FEW120 10/04 A3035 RMK AO2
     SLP231 T01000044=
METAR K6R6 081253Z AUTO 06006KT 22/19 A3004 RMK AO2 SLP136
     T02220194 PWINO TSNO=
METAR KBNO 081253Z AUTO 35003KT 10SM CLR 06/M01 A3015 RMK AO2
     SLP181 T00611006 TSNO=
METAR KCTY 081253Z AUTO VRB03KT 25/23 A3002 RMK AO2 SLP166
     T02500233 PWINO TSNO $=
METAR KMSN 081253Z VRB03KT 6SM BR OVC006 22/21 A3004 RMK AO2 CIG
     004V009 SLP167 T02170206=
METAR KDNK 081253Z AUTO 08005KT 7SM FEW005 25/23 A3004 RMK AO2
     SLP168 T02500228=
METAR KMWT 081253Z AUTO 00000KT 10SM CLR 25/23 A3007 RMK AO2
     SLP171 T02500233 TSNO=
METAR KSAV 081253Z 29007KT 10SM CLR 27/20 A3000 RMK AO2 SLP158
     T02670200 $=
METAR KELY 081253Z AUTO 17008KT 10SM CLR 06/M03 A3024 RMK AO2
     SLP148 T00611028 $=
METAR KCHA 081253Z 00000KT 10SM CLR 27/19 A3009 RMK AO2 SLP180
     T02670194=
METAR KSGR 081253Z 07007KT 10SM FEW012 SCT080 25/23 A2995 RMK AO2
     RAB30E42 SLP148 P0000 T02500233=
METAR KHTL 081253Z AUTO 24005KT 4SM -RA BR FEW010 BKN019 OVC070
     22/21 A3005 RMK AO2 RAB14 SLP170 P0002 T02220211=
METAR KP92 081253Z AUTO VRB04KT 27/26 A3000 RMK AO2 SLP158
     T02670256 PWINO TSNO=
METAR KOQT 081253Z AUTO 00000KT 5SM HZ CLR 26/21 A3011 RMK AO2
     SLP177 T02560211 TSNO=
METAR KLAX 081253Z 00000KT 7SM BCFG OVC012 16/13 A2991 RMK AO2
     SLP127 T01610128=
METAR KJAN 081254Z 00000KT 10SM CLR 26/23 A3007 RMK AO2 SLP178
     T02610233=
METAR KMSY 081253Z 11004KT 10SM FEW016 SCT250 28/24 A3003 RMK AO2
     SLP172 T02830239=
METAR KBTV 081254Z 19004KT 7SM CLR 28/22 A3002 RMK AO2 SLP163
     T02830217=
METAR KTCS 081253Z AUTO 36005KT 10SM SCT100 18/14 A3021 RMK AO2
     SLP162 T01830139 TSNO=
METAR KTLH 081253Z 33006KT 10SM BCFG CLR 27/23 A3004 RMK AO2
     SLP170 T02670233=
METAR PGUM 081254Z 11008KT 10SM CLR 27/24 A2992 RMK AO2 SLP123
     T02720244=
METAR KLXV 081253Z AUTO 00000KT 10SM OVC004 06/05 A3052 RMK AO2
     SLP214 T00560050 TSNO=
METAR KCUT 081253Z AUTO 00000KT 10SM CLR 10/08 A3036 RMK AO2
     SLP242 T01000078 TSNO=
METAR KRQE 081253Z AUTO 11003KT 10SM CLR 16/07 A3029 RMK AO2
     SLP130 T01610067 TSNO=
METAR KFAR 081253Z 23005KT 10SM CLR 18/13 A3008 RMK AO2 SLP185
     T01830133=
METAR KSDM 081253Z AUTO 00000KT 10SM OVC010 16/13 A2991 RMK AO2
     SLP125 T01610133 TSNO=
METAR K40J 081253Z AUTO 33003KT 24/22 A3003 RMK AO2 SLP167
     T02440217 PWINO TSNO=
METAR KFWA 081254Z 20003KT 8SM FEW060 27/21 A3006 RMK AO2 SLP172
     T02720211=
METAR KAPN 081254Z VRB03KT 4SM -RA BR SCT035 BKN048 OVC060 23/21
     A3001 RMK AO2 RAB17 SLP158 P0001 T02280211=
METAR KSBN 081254Z 13003KT 5SM -RA BR FEW035 BKN060 OVC075 23/22
     A3006 RMK AO2 TSB25E45RAB1155 SLP172 OCNL LTGIC DSNT SW CB
     DSNT SW P0015 T02330217=
METAR KCOU 081254Z 00000KT 10SM FEW003 OVC011 23/22 A3009 RMK AO2
     CIG 006V013 SLP180 T02330222=
METAR K1V4 081254Z AUTO 25/21 A3005 RMK AO2 SLP161 T02500211 PWINO
     TSNO=
####018000459####
SAUS90 KWBC 081300 RRA
METAR KAVP 081254Z 00000KT 6SM HZ CLR 27/19 A3008 RMK AO2 SLP171
     T02670189 $=
METAR KMQE 081254Z AUTO 16008KT 25/19 A3011 RMK AO1 SLP202
     T02500189=
METAR KBKB 081254Z AUTO 00000KT 10SM SCT004 26/24 A3002 RMK AO2
     SLP190 T02610239=
METAR KCAR 081254Z AUTO 18007KT 9SM CLR 25/21 A3001 RMK AO2 SLP163
     T02500211=
METAR K12N 081254Z AUTO 00000KT 27/22 A3007 RMK AO2 SLP171
     T02720217 PWINO TSNO=
####018000110####
SAUS43 KIWX 081255
MTRFWA
METAR KFWA 081254Z 20003KT 8SM FEW060 27/21 A3006 RMK AO2 SLP172 
T02720211
####018000186####
SAUS43 KIWX 081255
MTRSBN
METAR KSBN 081254Z 13003KT 5SM -RA BR FEW035 BKN060 OVC075 23/22 
A3006 RMK AO2 TSB25E45RAB1155 SLP172 OCNL LTGIC DSNT SW CB DSNT SW 
P0015 T02330217
####018000143####
SAUS43 KAPX 081255
MTRAPN
METAR KAPN 081254Z VRB03KT 4SM -RA BR SCT035 BKN048 OVC060 23/21 
A3001 RMK AO2 RAB17 SLP158 P0001 T02280211
####018000130####
SAUS43 KLSX 081255
MTRCOU
METAR KCOU 081254Z 00000KT 10SM FEW003 OVC011 23/22 A3009 RMK AO2 
CIG 006V013 SLP180 T02330222
####018000366####
SANO35 ENMI 081250
METAR ENMS 081250Z NIL=
METAR ENRM 081250Z NIL=
METAR ENRS 081250Z NIL=
METAR ENSK 081250Z 28012KT 9999 VCSH FEW020CB SCT040 BKN060 17/11
           Q1010 RESHRA=
METAR ENSO 081250Z 21007KT 140V270 9999 SCT030 19/11 Q1014=
METAR ENST 081250Z 02008KT 350V060 CAVOK 19/11 Q1010=
METAR ENVD 081250Z 11010KT 9999 FEW022 12/08 Q1017=
####018000261####
SANO36 ENMI 081250
METAR ENBS 081250Z 18012KT 9999 FEW030 15/07 Q1016=
METAR ENHK 081250Z NIL=
METAR ENHV 081250Z NIL=
METAR ENLK 081250Z NIL=
METAR ENMH 081250Z 15012KT 9999 FEW015 18/10 Q1014=
METAR ENNK 081250Z 03007KT 9999 BKN070 17/12 Q1009=
####018000318####
SAHW31 KMSC 081255
METAR PHMK 081254Z AUTO 05006KT 10SM BKN050 22/18 A3002 RMK AO2 
    SLP167 T02170178 TSNO=
METAR PHOG 081254Z AUTO 03010KT 10SM CLR 23/17 A3000 RMK AO2 SLP165 
    T02280172 TSNO=
METAR PGSN 081254Z 10012KT 10SM FEW019 SCT026 28/24 A2992 RMK AO2 
    RAB09E21 SLP129 P0000 T02780244=
####018002986####
SAAK41 KNKA 081255
METAR PAAQ 081253Z AUTO 12008KT 10SM CLR 13/08 A2999 RMK AO2 
    RAB28E38 SLP152 P0000 T01280083 TSNO=
METAR PABE 081253Z 33005KT 10SM OVC120 10/10 A3000 RMK AO2 SLP168 
    T00990096 PNO $=
METAR PABI 081253Z AUTO 00000KT 10SM CLR 10/07 A3008 RMK AO2 SLP186 
    T01000072 TSNO=
METAR PABR 081253Z 24017KT 10SM FEW150 SCT190 SCT250 07/03 A2997 RMK 
    AO2 SLP150 T00670028 $=
METAR PABT 081253Z 00000KT 10SM SCT100 09/08 A3007 RMK AO2 SLP189 
    T00940078=
METAR PACD 081253Z 10SM FEW050 SCT180 05/04 A2989 RMK AO2 SLP123 
    T00500039 $=
METAR PACV 081253Z 15010G17KT 10SM BKN031 OVC041 11/10 A3009 RMK AO2 
    SLP190 T01110100=
METAR PADE 081253Z AUTO 21004KT 10SM CLR 04/03 A3013 RMK AO2 SLP202 
    T00390028 TSNO=
METAR PADQ 081253Z 30005KT 10SM FEW017 BKN034 OVC049 11/09 A2986 RMK 
    AO2 SLP112 T01060089 $=
METAR PAEG 081253Z AUTO 00000KT 10SM CLR 04/03 A3005 RMK AO2 SLP180 
    T00390028 TSNO=
METAR PAEN 081253Z AUTO 04011KT 10SM BKN100 14/12 A2993 RMK AO2 
    SLP135 T01390117 TSNO=
METAR PAFA 081253Z 34003KT 10SM FEW100 SCT200 11/07 A3004 RMK AO2 
    SLP174 T01110072=
METAR PAGK 081253Z AUTO 36003KT 10SM SCT110 07/05 A3006 RMK AO2 
    SLP183 T00670050 TSNO=
METAR PAGY 081253Z AUTO 00000KT 10SM CLR 09/09 A3019 RMK AO2 SLP224 
    T00940089 TSNO=
METAR PAHO 081253Z AUTO 09007KT 10SM OVC110 12/07 A2992 RMK AO2 
    SLP132 T01170072 TSNO=
METAR PAIL 081253Z AUTO 36003KT 1/2SM -RA FG FEW025 OVC070 08/08 
    A2994 RMK AO2 RAB34 SLP140 P0000 T00780078 TSNO=
METAR PAJN 081253Z 00000KT 10SM BKN200 09/08 A3018 RMK AO2 SLP219 
    T00890078=
METAR PAKT 081253Z AUTO VRB03KT 10SM CLR 16/11 A3008 RMK AO2 SLP185 
    T01610111 TSNO=
METAR PAKV 081253Z AUTO 00000KT 10SM CLR 06/05 A3010 RMK AO2 SLP195 
    T00560050 TSNO=
METAR PAKW 081253Z AUTO 00000KT 10SM CLR 12/10 A3013 RMK AO2 SLP202 
    T01220100 TSNO=
METAR PALH 081253Z 16003KT 10SM -RA OVC085 13/11 A2999 RMK AO2 
    SLP155 P0001 T01330111=
METAR PAMC 081253Z 00000KT 10SM FEW080 SCT200 11/08 A2998 RMK AO2 
    SLP156 T01060078=
METAR PAMR 081253Z 00000KT 10SM -RA FEW060 SCT075 BKN085 BKN200 
    12/11 A2997 RMK AO2 RAB1154 SLP151 P0000 T01220106 $=
METAR PANC 081253Z 00000KT 10SM OVC080 12/11 A2997 RMK AO2 RAE40 
    SLP151 P0000 T01170111=
METAR PANN 081253Z AUTO 00000KT 10SM CLR 09/08 A3001 RMK AO2 SLP167 
    T00890078 TSNO=
METAR PANT 081253Z 34007KT 10SM CLR 18/11 A3006 RMK AO2 SLP180 
    T01780111=
METAR PAOM 081253Z 35009KT 10SM FEW200 13/08 A3007 RMK AO2 SLP184 
    T01280078=
METAR PAOR 081253Z 00000KT 10SM FEW070 08/08 A3007 RMK AO2 SLP184 
    T00830078=
METAR PAOT 081253Z 29010KT 10SM FEW038 SCT090 BKN200 11/07 A3011 RMK 
    AO2 SLP197 T01110067=
METAR PAPB 081253Z AUTO 08015KT 10SM OVC046 07/05 A2990 RMK AO2 
    SLP113 T00720050 TSNO=
METAR PAQT 081253Z AUTO 24011KT 10SM CLR 08/04 A3006 RMK AO2 SLP181 
    T00830044 TSNO=
####018000869####
SAAK41 KNKA 081255
METAR PASC 081253Z 24012KT 10SM OVC230 08/05 A3003 RMK AO2 SLP170 
    T00830050=
METAR PASI 081253Z 00000KT 1/4SM FG VV001 12/12 A3017 RMK AO2 SLP215 
    T01220117=
METAR PASN 081253Z 06011KT 3/4SM BR VV001 05/05 A2993 RMK AO2 SLP136 
    T00500050=
METAR PASO 081253Z AUTO 00000KT 10SM FEW003 OVC110 09/09 A2991 RMK 
    AO2 RAE1159 SLP129 P0000 T00940094 TSNO=
METAR PATK 081253Z AUTO 00000KT 10SM CLR 11/10 A2997 RMK AO2 SLP151 
    T01110100 TSNO=
METAR PATO 081253Z AUTO 09017G37KT 10SM -RA FEW020 BKN027 OVC035 
    12/10 A2999 RMK AO2 PK WND 09042/1221 SLP157 P0006 T01220100 
    TSNO $=
METAR PAWD 081253Z AUTO 36003KT 10SM FEW014 OVC060 09/09 A2996 RMK 
    AO2 SLP146 T00940089 TSNO=
METAR PAYA 081253Z 00000KT 10SM BKN110 11/09 A3018 RMK AO2 RAB28E46 
    SLP218 BAY TWR WND 140MMKT P0000 T01110094=
####018001756####
SAEU KAWN 081300 RRC
METAR EDAC 081250Z 22005KT 160V250 CAVOK 27/12 Q1021=
METAR EDFH 081250Z 16006KT 050V210 CAVOK 28/12 Q1021=
METAR EDHI 081250Z 23009KT 190V270 CAVOK 30/11 Q1019=
METAR EDHL 081250Z 22008KT 170V280 CAVOK 30/14 Q1019=
METAR EDLN 081250Z 26005KT 200V310 CAVOK 31/10 Q1019=
METAR EDLP 081250Z VRB04KT CAVOK 30/10 Q1020=
METAR EDLW 081250Z VRB05KT CAVOK 30/10 Q1020=
METAR EDMA 081250Z VRB02KT 170V170 CAVOK 26/09 Q1022=
METAR EDMO 081250Z 01006KT 320V040 CAVOK 25/09 Q1022=
METAR EDNY 081250Z 18005KT CAVOK 28/11 Q1021=
METAR EDOP 081250Z 18008KT 120V230 CAVOK 30/09 Q1020=
METAR EDQM 081250Z VRB03KT CAVOK 24/07 Q1023=
METAR EDSB 081250Z 34006KT 260V060 CAVOK 31/12 Q1020=
METAR EDTL 081250Z 26005KT 180V320 CAVOK 30/07 Q1019=
METAR EDVK 081250Z 22005KT 170V270 CAVOK 27/09 Q1021=
METAR EGAA 081250Z 21011KT 9999 FEW032 16/09 Q1014=
METAR EGAC 081250Z 21012KT 190V250 9999 FEW024 SCT040 18/09 Q1014=
METAR EGHH 081250Z 19009KT 9999 7000S FEW026 21/15 Q1019=
METAR EGKA 081250Z 19008KT 9999 FEW020 21/17 Q1019=
METAR EGKB 081250Z 22008KT 170V260 9999 BKN035 25/14 Q1019=
METAR EGLC 081250Z 27006KT 210V330 9999 SCT030 24/14 Q1018=
METAR COR EGLL 081250Z 26008KT 200V310 9999 BKN035 24/14 Q1018 NOSIG=
METAR EGMH 081250Z 13010KT 9999 FEW020 21/17 Q1019=
METAR EGNX 081250Z 26010KT 230V300 CAVOK 22/08 Q1018=
METAR COR EGPB 081250Z 20014KT CAVOK 15/11 Q1007 NOSIG=
METAR EGPD 081250Z 23012KT 190V260 9999 FEW047 19/08 Q1011 NOSIG=
METAR EGTC 081250Z 21010KT 170V260 9999 FEW040 22/12 Q1018=
METAR EHEH 081255Z AUTO 20007KT 9999NDV FEW350 31/11 Q1018 BLU BLU=
METAR ETOR 081255Z 19005KT 9999 FEW200 34/09 A3012 RMK BLU=
METAR LEMO 081300Z 26005KT 190V300 CAVOK 32/18 Q1016 NOSIG=
####018001671####
SAZZ40 KAWN 081300 RRB
METAR KBAD 081255Z AUTO 14004KT 10SM FEW090 25/24 A3006 RMK AO2 SLP178
      T02490241 $=
METAR KBAF 081253Z 16004KT 4SM HZ OVC011 24/22 A3008 RMK AO2 SLP183
      T02440217=
METAR KBUR 081253Z 35005KT 6SM HZ OVC007 16/13 A2990 RMK AO2 SLP115
      T01560128=
METAR KCEF 081255Z 13003KT 6SM -RA BR OVC011 25/22 A3008 RMK AO2A SLP186
      T02460224 $=
METAR KDAA 081255Z AUTO 13004KT 9SM CLR 29/24 A3002 RMK AO2 SLP166
      T02890235=
METAR KDTS 081253Z AUTO 35003KT 10SM CLR 28/24 A3003 RMK AO2 SLP167
      T02780244=
METAR KFHU 081255Z 09005KT 50SM FEW050 FEW120 22/12 A3009 RMK SLP111=
METAR KGRF 081255Z AUTO 14003KT 10SM CLR 12/10 A2995 RMK AO2 SLP144
      T01190100 $=
METAR KGUS 081255Z AUTO 23005KT 10SM -RA SCT060 25/23 A3005 RMK AO2
      RAB1250 SLP169 P0000 T02520230 $=
METAR KMGE 081255Z 33003KT 10SM CLR 28/21 A3007 RMK AO2A SLP168 T02770205
      $=
METAR KNSI 081256Z 27003KT 7SM OVC013 12/10 A2991 RMK SLP129 T01220100=
METAR KOZR 081255Z 00000KT 10SM CLR 25/25 A3004 RMK AO2A SLP169 T02500250=
METAR KSUU 081255Z AUTO 23019G24KT 10SM CLR 12/10 A2984 RMK AO2 PK
      WND 25026/1226 SLP106 T01170101 RVRNO $=
METAR LEMO 081300Z 26005KT 190V300 CAVOK 32/18 Q1016 NOSIG=
METAR MGGT 081300Z 00000KT CAVOK 17/14 Q1023 A3021 SCT080 BKN100 NOSIG=
METAR MROC 081300Z 01002KT 9999 4000S BR BKN120 21/21 A3004 FOG BANK
      S SSW TEMPO 24006KT=
METAR PHJR 081253Z 00000KT 10SM SCT060 22/17 A3001 RMK AO2 SLP170 T02220172=
METAR TIST 081253Z 09012KT 10SM CLR 30/24 A3000 RMK AO2 SLP160 T03000244=
METAR TISX 081253Z 09011KT 10SM SCT022 29/24 A3000 RMK AO2 SLP158 T02940239=
####018000112####
SAUS41 KCAR 081255
MTRCAR
METAR KCAR 081254Z AUTO 18007KT 9SM CLR 25/21 A3001 RMK AO2 SLP163 
T02500211
####018000115####
SAUS41 KPHI 081255
MTR12N
METAR K12N 081254Z AUTO 00000KT 27/22 A3007 RMK AO2 SLP171 T02720217 
PWINO TSNO
####018000107####
SAUS41 KBTV 081255
MTR1V4
METAR K1V4 081254Z AUTO 25/21 A3005 RMK AO2 SLP161 T02500211 PWINO 
TSNO
####018000124####
SAUS41 KGYX 081255
MTRNKT
METAR KNKT 081254Z 06011KT 8SM FEW014 BKN060 BKN150 27/24 A2995 RMK 
AO2 SLP139 T02720239
####018000101####
SAUS41 KBOX 081255
MTRMQE
METAR KMQE 081254Z AUTO 16008KT 25/19 A3011 RMK AO1 SLP202 T02500189
####018000116####
SAUS44 KSHV 081255
MTRBKB
METAR KBKB 081254Z AUTO 00000KT 10SM SCT004 26/24 A3002 RMK AO2 
SLP190 T02610239
####018000112####
SAUS41 KBGM 081255
MTRAVP
METAR KAVP 081254Z 00000KT 6SM HZ CLR 27/19 A3008 RMK AO2 SLP171 
T02670189 $
####018003674####
SAUS99 KWBC 081256
METAR
KCDW 081253Z 00000KT 4SM HZ BKN019 27/23 A3005 RMK AO2 SLP180
     T02720228=
KCEZ 081253Z AUTO VRB04KT 10SM CLR 15/06 A3026 RMK AO2 SLP169
     T01500061=
KCGC 081255Z AUTO 00000KT 10SM CLR 25/22 A3002 RMK=
KCGI 081253Z 25003KT 10SM BKN100 27/24 A3005 RMK AO2 SLP173
     T02720239=
KCKB 081253Z 00000KT 4SM HZ CLR 24/19 A3011 RMK AO2 SLP179
     T02440194=
KCNY 081253Z AUTO 14003KT 10SM CLR 21/05 A3014 RMK AO2 SLP142
     T02110050=
KCPR 081253Z 33003KT 10SM CLR 07/06 A3035 RMK AO2 SLP242 T00720056
     $=
KCRE 081253Z 36009KT 9SM CLR 29/21 A2993 RMK AO2 SLP136
     T02890206=
KCRG 081253Z 30004KT 10SM CLR 27/21 A3002 RMK AO2 SLP164
     T02670211=
KCRS 081253Z AUTO 08005KT 10SM FEW010 BKN023 OVC080 26/24 A3002
     RMK AO2 SLP161 T02560239=
KCSM 081253Z AUTO 01004KT 8SM FEW025 23/21 A3013 RMK AO2 LTG DSNT
     SW SLP180 T02280206=
KCSV 081253Z AUTO 00000KT 7SM CLR 27/18 A3016 RMK AO2 SLP187
     T02670183=
KCUB 081253Z AUTO VRB03KT 10SM CLR 29/20 A3001 RMK AO2 SLP159
     T02940200=
KCYS 081253Z 00000KT 10SM OVC016 13/11 A3037 RMK AO2 SLP236
     T01280111=
KDEN 081253Z 05003KT 1/4SM R35L/2400V6000FT BR OVC003 14/14 A3033
     RMK AO2 SFC VIS 1 1/4 SLP217 T01440139=
KDEQ 081253Z AUTO VRB03KT 10SM BKN005 OVC050 24/23 A3005 RMK AO2
     SLP171 T02440233=
KDET 081253Z AUTO 23004KT 10SM CLR 29/21 A3003 RMK AO2 SLP161
     T02940211 TSNO $=
KDFI 081253Z AUTO 18003KT 7SM CLR 27/21 A3006 RMK AO2 SLP171
     T02670211=
KDFW 081253Z 15004KT 4SM -RA BR BKN010 BKN026 OVC070 25/24 A3003
     RMK AO2 RAE08B46 SLP159 P0001 T02500239=
KDGW 081253Z AUTO 00000KT 2SM BR FEW001 07/06 A3036 RMK AO2 SLP257
     T00670061 $=
KDHN 081253Z 00000KT 10SM CLR 27/23 A3008 RMK AO2 SLP178
     T02670228=
KDKK 081253Z AUTO 21005KT 10SM CLR 29/19 A3006 RMK AO2 SLP173
     T02890189=
KDLN 081253Z AUTO 21008KT 10SM CLR 07/03 A3031 RMK AO2 SLP227
     T00720033=
KDNL 081253Z AUTO 31008KT 10SM CLR 31/17 A3002 RMK AO2 SLP160
     T03060172=
KDRO 081253Z AUTO 00000KT 10SM CLR 11/06 A3033 RMK AO2 SLP199
     T01110056=
KDTS 081253Z AUTO 35003KT 10SM CLR 28/24 A3003 RMK AO2 SLP167
     T02780244=
KDTW 081253Z 21003KT 6SM HZ FEW150 28/21 A3003 RMK AO2 SLP163
     T02830211=
KDXR 081253Z 00000KT 1 3/4SM -RA BR OVC003 24/23 A3009 RMK AO2
     RAB35 SLP184 P0001 T02390233=
KDYB 081255Z AUTO 00000KT 10SM CLR 26/21 A2997 RMK AO1=
KEEO 081253Z AUTO 11003KT 10SM CLR 11/06 A3033 RMK AO2 SLP199
     T01060056 $=
KELM 081253Z 20004KT 6SM HZ CLR 24/20 A3008 RMK AO2 SLP179
     T02390200=
KEQY 081253Z AUTO 35004KT 8SM FEW090 29/19 A3001 RMK AO2 SLP157
     T02890189=
KEVW 081253Z AUTO 09011KT 10SM CLR 10/04 A3034 RMK AO2 SLP190
     T01000039 TSNO=
KHBR 081253Z AUTO 05005KT 3SM -RA BR OVC008 23/22 A3010 RMK AO2
     LTG DSNT W CIG 005V010 SLP176 P0026 T02280222=
KHFD 081253Z 16006KT 5SM HZ BKN014 27/23 A3006 RMK AO2 SLP180
     T02670228=
KHJO 081253Z AUTO 33006KT 10SM CLR 17/12 A2984 RMK AO2 SLP105
     T01720117=
KHLN 081253Z 00000KT 10SM CLR 10/04 A3026 RMK AO2 SLP240
     T01000039=
KHUF 081253Z 25005KT 9SM CLR 28/23 A3006 RMK AO2 SLP172 T02780233
     $=
KHUL 081253Z AUTO 17007KT 110V190 5SM HZ CLR 24/20 A3004 RMK AO2
     SLP170 T02390200=
KHVN 081253Z 11007KT 8SM BKN007 BKN015 OVC026 24/22 A3007 RMK AO2
     SLP184 T02440217=
KHVR 081253Z AUTO 24003KT 10SM CLR 10/09 A3021 RMK AO2 SLP223
     T01000089=
KHWO 081253Z AUTO 08009KT 10SM FEW023 30/24 A2997 RMK AO2 SLP150
     T03000239=
KHZY 081253Z AUTO 19006KT 9SM CLR 26/20 A3009 RMK AO2 SLP181
     T02560200=
####018003691####
SAUS99 KWBC 081256 RRB
METAR
KGGW 081253Z AUTO 29004KT 10SM CLR 13/09 A3017 RMK AO2 SLP211
     T01280094 TSNO $=
KGIF 081253Z AUTO 07004KT 10SM CLR 26/22 A3003 RMK AO2 SLP167
     T02610217 TSNO=
KGJT 081253Z 09010KT 10SM CLR 20/07 A3020 RMK AO2 SLP154
     T02000067=
KGKJ 081253Z AUTO 00000KT 10SM CLR 27/19 A3011 RMK AO2 SLP183
     T02720194=
KGKY 081253Z 12004KT 10SM SCT010 OVC016 26/24 A3004 RMK AO2
     RAB27E48 SLP161 P0000 T02560239=
KGMU 081253Z 00000KT 9SM CLR 30/18 A3006 RMK AO2 SLP165
     T03000178=
KGNV 081253Z 00000KT 10SM CLR 26/22 A3002 RMK AO2 SLP163
     T02560222=
KGOK 081253Z AUTO 00000KT 6SM BR FEW003 BKN024 23/22 A3006 RMK AO2
     SLP170 T02280217=
KGTF 081253Z 22004KT 10SM CLR 11/07 A3023 RMK AO2 SLP222 T01060067
     $=
KGZH 081253Z AUTO 00000KT 10SM CLR 26/23 A3006 RMK AO2 SLP174
     T02610233=
KHAO 081253Z AUTO 00000KT 3SM HZ CLR 27/22 A3009 RMK AO2 SLP183
     T02670222=
KABY 081253Z 00000KT 10SM CLR 26/21 A3006 RMK AO2 SLP176
     T02560206=
KACK 081253Z 12010KT 10SM SCT029 22/19 A3011 RMK AO2 SLP195
     T02170194=
KADG 081253Z AUTO 00000KT 6SM HZ CLR 26/20 A3006 RMK AO2 SLP174
     T02560200=
KAFW 081253Z 13005KT 9SM FEW011 SCT070 BKN120 26/23 A3003 RMK AO2
     RAE1158 SLP153 P0000 T02560233=
KAGC 081253Z 00000KT 3SM HZ CLR 27/19 A3010 RMK AO2 SLP184 VIS E 2
     T02670194=
KAIA 081253Z AUTO 02003KT 10SM SCT034 OVC047 15/13 A3031 RMK AO2
     SLP238 T01500133 $=
KAKO 081253Z AUTO 14009KT 5SM BR BKN005 OVC041 14/14 A3033 RMK AO2
     SLP237 T01440139 TSNO=
KANE 081250Z 28004KT 12SM SKC 20/17 A3011=
KAOH 081253Z AUTO 21003KT 7SM 26/21 A3008 RMK AO2 SLP177 T02610211
     $=
KAPA 081253Z 32005KT 10SM FEW030 SCT070 SCT120 14/11 A3034 RMK AO2
     SLP230 T01440111=
KAPF 081253Z 05007KT 10SM CLR 28/23 A2998 RMK AO2 SLP152
     T02780233=
KARB 081253Z 27005KT 10SM CLR 27/21 A3005 RMK AO2 SLP166
     T02720206=
KASE 081253Z 00000KT 10SM FEW100 07/06 A3039 RMK AO2 SLP202
     T00720056=
KAUG 081253Z AUTO 19003KT 5SM BR OVC005 22/20 A3011 RMK AO2 SLP195
     T02170200=
KBAF 081253Z 16004KT 4SM HZ OVC011 24/22 A3008 RMK AO2 SLP183
     T02440217=
KBBW 081253Z AUTO 00000KT 10SM SCT090 SCT120 18/16 A3024 RMK AO2
     SLP227 T01780161=
KBCE 081253Z AUTO 00000KT 10SM SCT120 11/02 A3034 RMK AO2 SLP158
     T01110017 TSNO=
KBDN 081255Z AUTO 21006KT 10SM CLR 12/03 A3012 RMK AO2=
KBGM 081253Z 00000KT 5SM HZ CLR 26/20 A3013 RMK AO2 SLP188
     T02560200=
KBGR 081253Z 19008KT 160V240 10SM BKN009 23/20 A3010 RMK AO2 CIG
     006V012 SLP190 T02280200=
KBHK 081253Z AUTO 25007KT 10SM CLR 16/09 A3022 RMK AO2 SLP219
     T01560094=
KBIL 081253Z 23005KT 10SM FEW120 13/06 A3026 RMK AO2 SLP227
     T01280056=
KBKL 081253Z 19006KT 6SM HZ FEW065 28/18 A3005 RMK AO2 SLP169
     T02830183=
KBMG 081253Z 24004KT 10SM CLR 27/23 A3006 RMK AO2 SLP171
     T02670228=
KBOI 081253Z 14004KT 10SM CLR 17/06 A3008 RMK AO2 SLP158
     T01670061=
KBPI 081253Z AUTO 00000KT 10SM BKN100 08/02 A3041 RMK AO2 SLP215
     T00780017=
KBTM 081253Z AUTO 00000KT 10SM CLR 06/01 A3033 RMK AO2 SLP240
     T00560006=
KBVY 081253Z 18009KT 10SM CLR 24/19 A3009 RMK AO2 SLP185 T02440194
     PNO=
KBYG 081253Z AUTO 25007KT 10SM CLR 14/03 A3031 RMK AO2 SLP223
     T01390028=
KBYI 081253Z AUTO VRB03KT 10SM CLR 11/05 A3015 RMK AO2 SLP175
     T01060050=
KCAG 081253Z AUTO 00000KT 10SM BKN110 09/07 A3034 RMK AO2 SLP225
     T00940067=
KCDC 081253Z AUTO 17003KT 10SM CLR 15/03 A3017 RMK AO2 SLP136
     T01500028 $=
KCDR 081253Z AUTO 24004KT 10SM CLR 12/10 A3030 RMK AO2 SLP252
     T01220100=
####018003705####
SAUS99 KWBC 081256 RRA
METAR
KIAG 081253Z 23006KT 8SM FEW100 27/21 A3005 RMK AO2 SLP166
     T02670211=
KIDA 081253Z 36008KT 10SM CLR 09/06 A3022 RMK AO2 SLP200
     T00940056=
KIML 081253Z AUTO 00000KT 10SM FEW027 BKN095 17/15 A3029 RMK AO2
     SLP239 T01720150=
KINK 081253Z AUTO 02006KT 10SM OVC023 22/20 A3010 RMK AO2 SLP150
     T02220200 TSNO=
KITR 081253Z AUTO 00000KT 10SM FEW032 OVC045 17/15 A3031 RMK AO2
     RAE53 SLP225 P0000 T01670150=
KIWI 081253Z AUTO VRB03KT 10SM BKN009 23/20 A3013 RMK AO2 CIG
     007V012 SLP200 T02330200=
KJER 081253Z AUTO 07011KT 10SM CLR 14/01 A3014 RMK AO2 SLP171
     T01390011=
KJKL 081253Z AUTO 00000KT 4SM HZ CLR 25/21 A3013 RMK AO2 SLP186
     T02500211=
KLAA 081253Z AUTO 10005KT 10SM -RA SCT016 OVC095 17/16 A3027 RMK
     AO2 SLP216 P0000 T01670156=
KLAN 081253Z 21004KT 9SM FEW120 SCT200 26/21 A3005 RMK AO2 SLP168
     T02560211 $=
KLAR 081253Z AUTO 00000KT 6SM BR OVC004 08/08 A3041 RMK AO2 SLP232
     T00780078=
KLBB 081253Z 06006KT 10SM FEW040 SCT055 BKN110 BKN250 20/17 A3016
     RMK AO2 SLP169 T02000172=
KLEB 081253Z 24004KT 5SM HZ OVC013 27/22 A3007 RMK AO2 SLP168
     T02670222=
KLEE 081253Z 06004KT 10SM CLR 26/22 A3003 RMK AO2 SLP167
     T02610217=
KLHQ 081253Z AUTO 00000KT 5SM HZ CLR 26/21 A3010 RMK AO2 SLP183
     T02610211=
KLHX 081253Z AUTO 00000KT 10SM CLR 16/14 A3030 RMK AO2 SLP213
     T01610144 PNO $=
KLNS 081253Z VRB03KT 4SM HZ CLR 28/22 A3003 RMK AO2 SLP166
     T02830217=
KLOU 081253Z 18003KT 5SM HZ CLR 27/22 A3007 RMK AO2 SLP176
     T02670217=
KLOZ 081253Z AUTO 00000KT 3SM HZ CLR 24/21 A3012 RMK AO2 RAB10E22
     SLP186 P0000 T02390206=
KLPR 081253Z AUTO 20004KT 8SM CLR 27/20 A3007 RMK AO2 SLP175
     T02720200=
KLUK 081253Z 00000KT 2SM HZ CLR 26/23 A3008 RMK AO2 SLP182
     T02560228=
KLVM 081253Z AUTO 31004KT 10SM CLR 07/04 A3031 RMK AO2 SLP238
     T00670039=
KEWB 081253Z 13007KT 10SM BKN006 OVC011 24/21 A3010 RMK AO2 SLP192
     T02390211=
KEYE 081253Z AUTO 21003KT 7SM CLR 27/21 A3006 RMK AO2 SLP169
     T02720211=
KEYW 081253Z 04005KT 10SM SCT085 29/24 A2996 RMK AO2 SLP146
     T02890244=
KFDY 081253Z AUTO 24004KT 6SM HZ CLR 27/21 A3006 RMK AO2 SLP168
     T02670211=
KFFT 081253Z AUTO 17003KT 4SM HZ CLR 27/21 A3009 RMK AO2 SLP178
     T02720211=
KFLD 081253Z AUTO 00000KT 10SM OVC007 23/21 A3002 RMK AO2 CIG
     004V010 SLP162 T02280211=
KFLL 081253Z 08008KT 10SM SCT021 29/24 A2995 RMK AO2 SLP142
     T02940239=
KFLO 081253Z 33005KT 10SM CLR 28/19 A2996 RMK AO2 SLP142
     T02830194=
KFMY 081253Z 05005KT 10SM CLR 27/23 A2998 RMK AO2 SLP154
     T02720228=
KFNT 081253Z AUTO 00000KT 9SM CLR 27/21 A3004 RMK AO2 SLP167
     T02720211=
KFOK 081253Z 11006KT 10SM SCT033 26/21 A3009 RMK AO2 SLP187
     T02560206=
KFPR 081253Z 06006KT 10SM SCT040 28/21 A2999 RMK AO2 SLP155
     T02830211=
KFRG 081253Z 16008KT 8SM BKN012 OVC019 25/23 A3007 RMK AO2
     RAB1155E18 SLP182 P0001 T02500233=
KFTN 081255Z AUTO 03006KT 10SM BKN008 BKN017 OVC025 25/23 A2993
     RMK AO1=
KFVE 081253Z AUTO 16004KT 5SM HZ FEW060 26/23 A3001 RMK AO2 SLP155
     T02560228=
KFWN 081253Z AUTO 00000KT 4SM HZ CLR 27/23 A3006 RMK AO2 SLP176
     T02720228=
KFXE 081253Z 07008KT 10SM SCT023 29/23 A2996 RMK AO2 SLP147
     T02940233=
KGCC 081253Z AUTO 15004KT 10SM CLR 12/08 A3030 RMK AO2 SLP229
     T01220083=
KGEY 081253Z AUTO 00000KT 10SM CLR 11/03 A3028 RMK AO2 SLP231
     T01060033=
KGEZ 081253Z AUTO 19006KT 7SM BKN070 27/21 A3005 RMK AO2 SLP168
     T02670206=
KGFL 081253Z AUTO 18003KT 5SM HZ FEW090 27/22 A3004 RMK AO2 SLP168
     T02670217=
####018003719####
SAUS99 KWBC 081256 RRC
METAR
KSPG 081253Z 08005KT 10SM CLR 27/22 A3000 RMK AO2 SLP159
     T02720222=
KSPL 081255Z AUTO 35007KT 28/25 A2976 RMK AO2 PWINO PNO=
KSRQ 081253Z 08004KT 10SM CLR 27/23 A2999 RMK AO2 SLP156
     T02670228=
KTDZ 081253Z AUTO 24004KT 10SM FEW080 28/21 A3005 RMK AO2 SLP169
     T02780206=
KTHV 081253Z AUTO 10003KT 5SM HZ CLR 28/22 A3003 RMK AO2 SLP168
     T02780217=
KTMB 081253Z 05004KT 10SM CLR 29/25 A2996 RMK AO2 SLP144
     T02940250=
KTOI 081253Z 00000KT 9SM CLR 26/23 A3005 RMK AO2 SLP169
     T02560233=
KTOR 081253Z AUTO 00000KT 10SM BKN026 11/10 A3031 RMK AO2 SLP241
     T01110100=
KTPA 081253Z 00000KT 10SM FEW200 27/21 A3002 RMK AO2 SLP164
     T02670211=
KTTN 081253Z 18004KT 2SM HZ BKN011 27/23 A3004 RMK AO2 SLP166
     T02670228=
KTVL 081253Z AUTO 00000KT 10SM CLR 08/05 A3017 RMK AO2 SLP161
     T00830050=
KTWF 081253Z 10011KT 10SM CLR 16/01 A3014 RMK AO2 SLP152
     T01610006=
KUTA 081255Z AUTO 00000KT 10SM CLR 26/22 A3008 RMK AO2=
KUUU 081253Z AUTO VRB03KT 10SM OVC003 22/21 A3011 RMK AO2 SLP196
     T02220211=
KVEL 081253Z AUTO 00000KT 10SM CLR 16/06 A3026 RMK AO2 SLP186
     T01560061=
KVLD 081253Z 00000KT 10SM CLR 27/21 A3003 RMK AO2 SLP175
     T02670211=
KVRB 081253Z 04007KT 10SM CLR 28/21 A2999 RMK AO2 SLP154
     T02780206=
KWRL 081253Z AUTO 24003KT 10SM CLR 11/05 A3029 RMK AO2 SLP228
     T01110050=
KWST 081253Z AUTO 09005KT 9SM BKN006 23/21 A3010 RMK AO2 CIG
     003V008 SLP191 T02330211=
KYIP 081253Z 24003KT 10SM CLR 28/21 A3005 RMK AO2 SLP165 T02830206
     $=
KZZV 081253Z AUTO 00000KT 6SM HZ SCT065 24/21 A3010 RMK AO2 SLP182
     T02440211=
KOSU 081253Z 00000KT 5SM HZ CLR 27/21 A3009 RMK AO2 SLP181
     T02720211=
KOWD 081253Z 18007KT 10SM CLR 26/19 A3010 RMK AO2 SLP191
     T02610189=
KOXB 081253Z AUTO 07006KT 10SM FEW090 27/24 A3002 RMK AO2 SLP167
     T02670244=
KPBG 081253Z AUTO 12005KT 6SM HZ CLR 27/22 A3001 RMK AO2 SLP161
     T02670222=
KPBI 081253Z 00000KT 7SM -RA FEW012 BKN022CB BKN055 27/26 A2996
     RMK AO2 SLP144 CB OHD-E-S MOV SW P0016 T02670261 $=
KPEO 081253Z AUTO 23005KT 6SM HZ CLR 26/21 A3009 RMK AO2 SLP179
     T02610211=
KPGD 081253Z AUTO 07007KT 10SM CLR 26/23 A3002 RMK AO2 SLP165
     T02610228 TSNO=
KPHD 081253Z AUTO 00000KT 4SM HZ CLR 24/19 A3009 RMK AO2 SLP183
     T02440194=
KPIE 081253Z 06004KT 10SM FEW033 26/22 A3001 RMK AO2 SLP163
     T02610222=
KPIH 081253Z 00000KT 10SM CLR 07/03 A3019 RMK AO2 SLP189
     T00720028=
KPKB 081253Z 00000KT 4SM BCFG BR CLR 24/21 A3012 RMK AO2 SLP190
     VIS N-E 1/2 T02390211=
KPMP 081253Z 08008KT 10SM CLR 29/24 A2996 RMK AO2 SLP147
     T02940239=
KPNC 081253Z AUTO 00000KT 8SM OVC028 23/22 A3007 RMK AO2 SLP173
     T02280217=
KPOU 081253Z 11005KT 6SM HZ CLR 27/22 A3004 RMK AO2 SLP168
     T02720222=
KPRB 081253Z AUTO 34003KT 8SM OVC005 12/11 A2992 RMK AO2 SLP127
     T01170106=
KPSO 081255Z AUTO 00000KT 10SM BKN120 10/06 A3040 RMK AO2=
KPTK 081253Z 30005KT 9SM FEW150 SCT240 28/21 A3004 RMK AO2 SLP164
     T02780211=
KPUB 081253Z 00000KT 10SM CLR 15/13 A3031 RMK AO2 SLP215
     T01500133=
KPUC 081253Z AUTO 33003KT 10SM CLR 13/02 A3025 RMK AO2 SLP182
     T01330022 TSNO=
KPUW 081253Z AUTO 06003KT 10SM CLR 14/07 A3008 RMK AO2 SLP172
     T01390072=
KRBD 081253Z 12003KT 10SM BKN008 OVC048 25/24 A3003 RMK AO2
     RAB1156E19B39E52 SLP161 P0001 T02500239=
KRIW 081253Z AUTO 00000KT 10SM CLR 11/06 A3035 RMK AO2 SLP230
     T01110061=
KRME 081253Z 30003KT 7SM CLR 26/22 A3008 RMK AO2 SLP179 T02610217
     $=
KRSW 081253Z 03006KT 10SM CLR 27/22 A2999 RMK AO2 SLP151
     T02670222=
####018003746####
SAUS99 KWBC 081256 RRD
METAR
KRWL 081253Z AUTO 06006KT 10SM OVC007 09/07 A3041 RMK AO2 SLP234
     T00940072=
KRXE 081253Z AUTO 04006KT 10SM CLR 09/05 A3024 RMK AO2 SLP207
     T00890050=
KSEG 081253Z AUTO 06003KT 6SM HZ CLR 29/18 A3005 RMK AO2 SLP173
     T02940183=
KSHN 081253Z AUTO 00000KT 10SM CLR 11/09 A2994 RMK AO2 SLP137
     T01060089=
KSHR 081253Z AUTO 00000KT 10SM CLR 09/07 A3027 RMK AO2 SLP235
     T00940067=
KSLC 081253Z 00000KT 10SM FEW090 BKN130 18/08 A3011 RMK AO2 SLP145
     VIRGA DSNT W-NE T01830083=
KSMQ 081253Z AUTO 00000KT 4SM HZ FEW014 26/23 A3003 RMK AO2 SLP168
     T02610233=
KSNY 081253Z AUTO 35003KT 10SM SCT090 16/14 A3033 RMK AO2 SLP237
     T01610144 $=
KSPA 081255Z AUTO 04004KT 10SM CLR 28/23 A3003 RMK AO2=
KLWV 081253Z AUTO 26003KT 7SM CLR 28/23 A3005 RMK AO2 SLP171
     T02780233=
KMAE 081253Z AUTO 30005KT 10SM CLR 16/10 A2984 RMK AO2 SLP100
     T01560100=
KMAF 081253Z 03008KT 10SM BKN005 OVC013 21/20 A3012 RMK AO2 SLP156
     T02110200=
KMBS 081253Z 26005KT 10SM SCT110 24/22 A3003 RMK AO2 SLP164
     T02390217=
KMCK 081253Z AUTO 00000KT 10SM CLR 17/16 A3026 RMK AO2 SLP232
     T01720161=
KMCO 081253Z VRB05KT 10SM FEW018 FEW250 27/21 A3001 RMK AO2 SLP162
     T02670206=
KMGY 081253Z AUTO 18003KT 5SM HZ CLR 27/22 A3009 RMK AO2 SLP177
     T02670217=
KMHT 081253Z 20005KT 5SM HZ BKN014 26/22 A3007 RMK AO2 SLP192
     T02560217=
KMIA 081253Z 05007KT 10SM SCT018TCU SCT130 SCT300 30/24 A2996 RMK
     AO2 SLP145 CB DSNT S TCU NE AND SE AND SW T03000244=
KMIE 081253Z 20006KT 10SM FEW065 BKN080 27/19 A3007 RMK AO2 SLP170
     T02720194=
KMLC 081253Z AUTO 18003KT 10SM BKN009 BKN021 OVC031 24/23 A3005
     RMK AO2 SLP168 T02440233=
KMLS 081253Z AUTO 15003KT 10SM CLR 13/11 A3021 RMK AO2 SLP217
     T01330106=
KMLT 081253Z AUTO 17004KT 6SM HZ OVC011 23/20 A3008 RMK AO2 SLP187
     T02330200=
KMLU 081253Z 09004KT 10SM CLR 26/24 A3008 RMK AO2 SLP184
     T02610239=
KMMK 081253Z AUTO 15006KT 3SM HZ BKN014 OVC020 26/22 A3007 RMK AO2
     SLP182 T02560222=
KMNI 081255Z AUTO 31006KT 10SM CLR 28/23 A2997 RMK AO2=
KMNN 081253Z AUTO 17004KT 6SM HZ CLR 25/21 A3009 RMK AO2 SLP181
     T02500211=
KMPO 081253Z AUTO 03005KT 5SM HZ FEW090 28/19 A3012 RMK AO2 SLP182
     T02780189=
KMSO 081253Z 12004KT 10SM CLR 11/07 A3022 RMK AO2 SLP218 T01060072
     $=
KMSS 081253Z AUTO 25004KT 7SM CLR 27/23 A3002 RMK AO2 SLP163
     T02720228=
KMTH 081253Z AUTO 04006KT 10SM FEW090 A2995 RMK AO2 LTG DSNT NE
     UPE27RAB18E28 SLP143 P0000 FZRANO $=
KMTJ 081253Z AUTO 15003KT 10SM CLR 15/05 A3028 RMK AO2 SLP181
     T01500050=
KMVY 081253Z 16011KT 10SM CLR 26/21 A3010 RMK AO2 SLP192
     T02560206=
KMWA 081253Z 23005KT 15SM BKN070 BKN250 27/24 A3007=
KMWL 081253Z AUTO 12006KT 10SM SCT022 BKN031 24/23 A3003 RMK AO2
     SLP154 T02440228 $=
KODO 081253Z AUTO 03010G18KT 5SM BR OVC003 21/20 A3013 RMK AO2 CIG
     003V008 SLP163 T02110200=
KOGB 081253Z AUTO 33005KT 10SM CLR 27/20 A2999 RMK AO2 SLP153
     T02720200=
KOGD 081253Z 20004KT 10SM CLR 18/06 A3013 RMK AO2 SLP145
     T01830061=
KOLF 081253Z AUTO 00000KT 10SM CLR 13/09 A3017 RMK AO2 SLP213
     T01330094=
KONO 081253Z AUTO 27003KT 10SM CLR 11/06 A3008 RMK AO2 SLP174
     T01110056=
KOPF 081253Z 06009KT 10SM FEW023 29/24 A2996 RMK AO2 SLP146
     T02890244=
KORL 081253Z 02004KT 10SM CLR 26/21 A3002 RMK AO2 SLP166
     T02610211=
KOLU 081255Z AUTO 00000KT 10SM FEW100 18/15 A3020 RMK AO1=
KORH 081254Z 19005KT 10SM OVC011 24/21 A3013 RMK AO2 SLP195
     T02390206=
KOTG 081255Z AUTO 30006KT 10SM CLR 18/16 A3017 RMK AO1=
KOTH 081255Z 23003KT 10SM OVC006 09/08 A3000 RMK AO1=
####018003726####
SAUS99 KWBC 081256 RRE
METAR
KPHF 081254Z 11005KT 10SM CLR 27/23 A3001 RMK AO2 SLP160
     T02670228=
KPHL 081254Z 13004KT 4SM HZ SCT008 BKN110 BKN250 27/23 A3004 RMK
     AO2 SLP172 T02670228=
KPIA 081254Z 30004KT 10SM OVC006 23/22 A3005 RMK AO2 CIG 004V009
     SLP170 T02330217=
KPIB 081255Z AUTO 01005KT 10SM CLR 27/22 A3007 RMK AO1=
KPIL 081253Z AUTO 34005KT 10SM FEW042 28/26 A2976 RMK AO2 SLP078
     T02780256=
KPLN 081254Z AUTO 26004KT 6SM -RA BR OVC007 22/21 A3000 RMK AO2
     RAB05 CIG 005V011 SLP155 P0001 T02170206=
KPQI 081255Z AUTO 14008KT 10SM CLR 24/20 A3000 RMK AO1=
KPSF 081254Z AUTO 00000KT 5SM HZ CLR 25/21 A3009 RMK AO2 SLP157
     T02500211=
KPTN 081255Z AUTO 08006KT 10SM FEW006 26/M07 A3004 RMK AO1=
KPTV 081255Z AUTO 17004KT 10SM CLR 17/11 A2986 RMK AO1=
KPTW 081254Z AUTO VRB03KT 5SM HZ CLR 29/21 A3005 RMK AO2 SLP171
     T02940211=
KPVC 081255Z 17009KT 10SM FEW012 25/21 A3012 RMK AO1=
KPVU 081255Z 17005KT 10SM CLR 18/07 A3016 RMK AO1=
KPWT 081255Z AUTO 02008KT 10SM CLR 22/07 A2998 RMK AO1=
KRBL 081254Z AUTO 18003KT 10SM CLR 21/14 A2985 RMK AO2 SLP103
     T02060139=
KRDG 081254Z 00000KT 7SM CLR 28/21 A3003 RMK AO2 SLP170
     T02830211=
KRKD 081255Z AUTO 22008KT 2SM OVC002 19/18 A3013 RMK AO1=
KRKS 081254Z AUTO 05007KT 10SM FEW120 09/06 A3036 RMK AO2 SLP221
     T00890061=
KRST 081254Z 34010KT 10SM CLR 20/18 A3013 RMK AO2 SLP199
     T02000178=
KRUT 081255Z AUTO 00000KT 7SM CLR 26/21 A3006 RMK AO1=
KSBY 081254Z 09007KT 10SM CLR 26/22 A3003 RMK AO2 SLP171
     T02610217=
KSDY 081255Z AUTO 18003KT 10SM SCT080 13/10 A3018 RMK AO1=
KSET 081254Z AUTO 00000KT 7SM -RA OVC004 25/24 A3005 RMK AO2
     TSB1156E11RAB1157E16B49 SLP169 P0000 T02500239=
KSFM 081255Z 15006KT 5SM OVC008 24/19 A3011 RMK AO1=
KSFZ 081255Z AUTO 13007KT 10SM OVC013 24/21 A3010 RMK AO1=
KSGT 081255Z 00000KT 7SM CLR A3008 RMK AO1=
KSGU 081255Z AUTO 03006KT 10SM CLR 22/03 A2999 RMK AO1=
KSJN 081254Z AUTO 14006KT 10SM CLR 21/06 A3019 RMK AO2 SLP120
     T02110061=
KSKX 081255Z AUTO 36006KT 10SM CLR 12/06 A3040 RMK AO1=
KSLG 081255Z AUTO 13003KT 10SM BKN017 OVC038 23/21 A3009 RMK AO1
     LTG DSNT N=
KSMN 081255Z AUTO 00000KT 10SM CLR 07/02 A3028 RMK AO1=
KSOW 081250Z AUTO 21003KT 10SM OVC110 19/04 A3026 RMK AO2=
KSQI 081255Z 28004KT 8SM FEW006 OVC017 23/22 A3006 RMK AO1
     P0001=
KECG 081254Z 09009KT 10SM BKN110 28/22 A2998 RMK AO2 SLP151
     T02780222=
KEEN 081255Z AUTO 20010KT 10SM FEW016 SCT023 BKN110 26/22 A3009
     RMK AO1=
KEHR 081255Z AUTO 19003KT 10SM CLR 28/22 A3007 RMK AO1=
KENV 081255Z 20004KT 10SM CLR 17/01 A3011 RMK AO1=
KESC 081255Z AUTO 32005KT 10SM OVC004 20/17 A2999 RMK AO1=
KEUG 081254Z 20006KT 10SM FEW150 SCT300 12/10 A2994 RMK AO2 SLP136
     T01220100=
KEUL 081255Z AUTO 17003KT 10SM CLR 12/05 A3009 RMK AO1=
KEVV 081254Z 21003KT 10SM CLR 28/22 A3007 RMK AO2 SLP177
     T02830222=
KEWK 081255Z AUTO 01009KT 10SM OVC005 21/19 A3009 RMK AO1=
KEWN 081254Z 05007KT 4SM BR FEW100 27/24 A2996 RMK AO2 SLP146
     T02670244=
KFAM 081255Z AUTO 23003KT 10SM OVC080 24/22 A3011 RMK AO1=
KFKL 081255Z 10004KT 10SM CLR 26/19 A3014 RMK AO1 54000=
KFLP 081255Z AUTO 00000KT 10SM BKN065 OVC080 23/22 A3008 RMK
     AO1=
KFNL 081255Z AUTO 35004KT 5SM SCT004 OVC016 14/14 A3032 RMK
     AO1=
KFOD 081255Z AUTO 35005KT 10SM CLR 19/17 A3015 RMK AO1=
KFRM 081255Z AUTO 10SM CLR 19/16 A3017 RMK AO1=
KFWS 081251Z 00000KT 5SM BR SCT005 OVC026 25/23 A3005=
KFZY 081254Z AUTO 23003KT 8SM CLR 28/22 A3005 RMK AO2 SLP171
     T02780217=
KGAD 081255Z AUTO 36003KT 10SM CLR 25/20 A3007 RMK AO1=
KGAI 081255Z 00000KT 5SM CLR 27/23 A3006 RMK AO1=
####018003702####
SAUS99 KWBC 081256 RRF
METAR
KGBD 081255Z AUTO 35010G14KT 10SM BKN008 OVC035 19/18 A3018 RMK
     AO1=
KGCK 081254Z 01010KT 10SM SCT017 18/16 A3024 RMK AO2 SLP213
     T01830161=
KGDV 081255Z AUTO 18003KT 10SM CLR 14/09 A3018 RMK AO1=
KGED 081254Z AUTO 12005KT 10SM FEW065 26/22 A3004 RMK AO2 SLP170
     T02560217=
KGPZ 081255Z AUTO 27006KT 10SM CLR 18/14 A3007 RMK AO1=
KGUC 081255Z AUTO 01004KT 10SM CLR 07/03 A3046 RMK AO1=
KGXY 081255Z AUTO 06005KT 6SM FEW007 SCT014 OVC045 16/13 A3032 RMK
     AO1=
KHDN 081255Z 10006KT 10SM CLR 09/06 A3035 RMK AO1=
KHEF 081255Z AUTO 00000KT 6SM CLR 28/22 A3003 RMK AO1=
KHEZ 081255Z AUTO 00000KT 9SM CLR 24/23 A3007 RMK AO1=
KHNB 081255Z AUTO 00000KT 10SM CLR 27/23 A3007 RMK AO1=
KHWD 081254Z AUTO 32005KT 10SM OVC007 14/11 A2992 RMK AO2 SLP142
     T01390111=
KHYS 081255Z AUTO 01010KT 10SM OVC037 18/16 A3021 RMK AO1=
KILN 081254Z AUTO 00000KT 4SM HZ CLR 26/22 A3010 RMK AO2 SLP180
     T02560217=
KIMT 081254Z AUTO 35003KT 10SM FEW009 22/19 A3001 RMK AO2 SLP158
     T02170189=
KIND 081254Z 22006KT 8SM FEW060 BKN210 27/21 A3004 RMK AO2 SLP165
     T02720211=
KINT 081254Z 02006KT 10SM CLR 28/18 A3005 RMK AO2 SLP162
     T02830183=
KIPT 081254Z 25004KT 7SM CLR 25/18 A3006 RMK AO2 SLP174
     T02500183=
KISW 081254Z AUTO 28003KT 10SM OVC007 21/19 A3006 RMK AO2 SLP173
     T02060189 TSNO=
KAAO 081254Z AUTO 36008KT 9SM OVC004 22/21 A3010 RMK AO2 SLP182
     T02170206=
KAFJ 081255Z AUTO 00000KT 6SM OVC060 24/20 A3012 RMK AO1 52003=
KAIZ 081255Z AUTO 00000KT 8SM OVC013 23/21 A3009 RMK AO1 P0001=
KAKH 081254Z AUTO 35004KT 9SM CLR 29/18 A3003 RMK AO2 SLP159
     T02940183=
KALO 081254Z AUTO 34008KT 10SM CLR 21/19 A3009 RMK AO2 SLP184
     T02110194=
KAPC 081254Z AUTO 27009KT 10SM OVC006 12/11 A2991 RMK AO2 SLP120
     T01170106=
KARG 081255Z AUTO 23008KT 10SM SCT085 26/23 A3007 RMK AO1=
KAUO 081255Z AUTO 33005KT 10SM CLR 28/22 A3005 RMK AO1=
KAUW 081254Z AUTO 34005KT 9SM OVC004 20/19 A3003 RMK AO2 SLP167
     T02000189=
KAVL 081254Z 36004KT 7SM CLR 24/18 A3015 RMK AO2 SLP180
     T02440183=
KAWO 081255Z AUTO 00000KT 5SM CLR 13/13 A2998 RMK AO1=
KBAK 081250Z 17004KT 7SM SCT065 BKN110 25/22 A3007=
KBFL 081254Z AUTO 00000KT 10SM CLR 20/11 A2986 RMK AO2 SLP104
     T02000111=
KBHB 081255Z AUTO 20009KT 3/4SM OVC002 18/18 A3014 RMK AO1=
KBID 081255Z AUTO 08004KT 1SM OVC002 22/22 A3009 RMK AO1=
KBKX 081255Z AUTO 00000KT 10SM CLR 19/15 A3018 RMK AO1=
KBLM 081255Z AUTO 14005KT 10SM BKN021 BKN090 25/20 A3008 RMK
     AO1=
KBOS 081254Z 14006KT 10SM SCT230 24/20 A3010 RMK AO2 SLP193
     T02440200=
KBTP 081255Z AUTO 00000KT 5SM CLR 24/21 A3011 RMK AO1 52003=
KBUY 081254Z AUTO 00000KT 4SM HZ CLR 29/19 A3001 RMK AO2 SLP153
     T02890194=
KBVX 081255Z AUTO 17004KT 10SM CLR 25/22 A3009 RMK AO1=
KBWI 081254Z 13005KT 5SM HZ FEW110 29/22 A3001 RMK AO2 SLP161
     T02940217=
KCEU 081254Z AUTO 00000KT 9SM CLR 28/21 A3005 RMK AO2 SLP164
     T02780211=
KCGZ 081255Z AUTO 00000KT 10SM CLR 27/01 A2982 RMK AO1=
KCIU 081255Z AUTO 32006KT 9SM BKN005 OVC009 20/18 A2999 RMK
     AO1=
KCOD 081255Z 15004KT 10SM CLR 13/02 A3033 RMK AO1=
KCOE 081255Z AUTO 07007KT 10SM CLR 14/09 A3010 RMK AO1=
KCOS 081254Z 11004KT 10SM CLR 13/12 A3036 RMK AO2 SLP229
     T01330117=
KCRW 081254Z 00000KT 3SM HZ CLR 24/21 A3010 RMK AO2 SLP182 VIS N 2
     T02390206=
KCVN 081255Z AUTO 01011KT 10SM FEW014 17/14 A3025 RMK AO1=
KCVO 081255Z AUTO 27005KT 10SM CLR 12/09 A2994 RMK AO1=
KCWI 081255Z 31006KT 2 1/2SM OVC004 A3007 RMK AO1=
KDDH 081254Z AUTO 00000KT 5SM HZ CLR 26/21 A3007 RMK AO2 SLP175
     T02610211=
####018003717####
SAUS99 KWBC 081256 RRH
METAR
KSZT 081250Z AUTO 00000KT 10SM CLR 10/08 A3012 RMK AO2=
KTAD 081254Z AUTO 30003KT 10SM CLR 14/13 A3035 RMK AO2 SLP226
     T01440128=
KTIF 081250Z AUTO 30003KT 10SM BKN120 17/15 A3028 RMK AO2
     T01650147=
KTQE 081254Z AUTO 36007KT 10SM CLR 20/17 A3017 RMK AO2 SLP204
     T02000172=
KTRK 081250Z AUTO 00000KT 10SM CLR 08/06 A3017 RMK AO2=
KTVF 081255Z AUTO 26007KT 10SM CLR 17/13 A3006 RMK AO1=
KUIN 081254Z AUTO 30006KT 10SM BKN005 OVC010 23/22 A3007 RMK AO2
     CIG 003V008 SLP177 T02280222=
KUZA 081254Z AUTO 36004KT 8SM CLR 28/19 A3003 RMK AO2 SLP154
     T02780194=
KVBT 081255Z AUTO 16003KT 10SM OVC020 24/21 A3006 RMK AO1 LTG DSNT
     NW=
KVIS 081255Z AUTO 00000KT 10SM CLR 18/11 A2983 RMK AO1=
KVSF 081254Z AUTO 00000KT 5SM HZ OVC012 24/22 A3009 RMK AO2 SLP186
     T02440217=
KVTA 081254Z AUTO 00000KT 6SM HZ CLR 25/21 A3009 RMK AO2 SLP180
     T02500206=
KWLD 081254Z AUTO 03005KT 10SM CLR 23/21 A3010 RMK AO2 SLP182
     T02280206=
KWVL 081255Z AUTO 19003KT 4SM OVC004 21/19 A3007 RMK AO1=
KWWD 081255Z AUTO 7SM FEW048 SCT060 OVC090 24/24 A3004 RMK AO1=
KYKN 081255Z AUTO 25004KT 10SM CLR 19/16 A3020 RMK AO1=
PAAQ 081253Z AUTO 12008KT 10SM CLR 13/08 A2999 RMK AO2 RAB28E38
     SLP152 P0000 T01280083 TSNO=
PABE 081253Z 33005KT 10SM OVC120 10/10 A3000 RMK AO2 SLP168
     T00990096 PNO $=
PABI 081253Z AUTO 00000KT 10SM CLR 10/07 A3008 RMK AO2 SLP186
     T01000072 TSNO=
PABR 081253Z 24017KT 10SM FEW150 SCT190 SCT250 07/03 A2997 RMK AO2
     SLP150 T00670028 $=
PABT 081253Z 00000KT 10SM SCT100 09/08 A3007 RMK AO2 SLP189
     T00940078=
PACD 081253Z 10SM FEW050 SCT180 05/04 A2989 RMK AO2 SLP123
     T00500039 $=
PACV 081253Z 15010G17KT 10SM BKN031 OVC041 11/10 A3009 RMK AO2
     SLP190 T01110100=
PADE 081253Z AUTO 21004KT 10SM CLR 04/03 A3013 RMK AO2 SLP202
     T00390028 TSNO=
PADQ 081253Z 30005KT 10SM FEW017 BKN034 OVC049 11/09 A2986 RMK AO2
     SLP112 T01060089 $=
PAEG 081253Z AUTO 00000KT 10SM CLR 04/03 A3005 RMK AO2 SLP180
     T00390028 TSNO=
PAEN 081253Z AUTO 04011KT 10SM BKN100 14/12 A2993 RMK AO2 SLP135
     T01390117 TSNO=
PAFA 081253Z 34003KT 10SM FEW100 SCT200 11/07 A3004 RMK AO2 SLP174
     T01110072=
PAGK 081253Z AUTO 36003KT 10SM SCT110 07/05 A3006 RMK AO2 SLP183
     T00670050 TSNO=
PAGY 081253Z AUTO 00000KT 10SM CLR 09/09 A3019 RMK AO2 SLP224
     T00940089 TSNO=
PAHO 081253Z AUTO 09007KT 10SM OVC110 12/07 A2992 RMK AO2 SLP132
     T01170072 TSNO=
PAIL 081253Z AUTO 36003KT 1/2SM -RA FG FEW025 OVC070 08/08 A2994
     RMK AO2 RAB34 SLP140 P0000 T00780078 TSNO=
PAJN 081253Z 00000KT 10SM BKN200 09/08 A3018 RMK AO2 SLP219
     T00890078=
PAKT 081253Z AUTO VRB03KT 10SM CLR 16/11 A3008 RMK AO2 SLP185
     T01610111 TSNO=
PAKV 081253Z AUTO 00000KT 10SM CLR 06/05 A3010 RMK AO2 SLP195
     T00560050 TSNO=
PAKW 081253Z AUTO 00000KT 10SM CLR 12/10 A3013 RMK AO2 SLP202
     T01220100 TSNO=
PALH 081253Z 16003KT 10SM -RA OVC085 13/11 A2999 RMK AO2 SLP155
     P0001 T01330111=
PAMC 081253Z 00000KT 10SM FEW080 SCT200 11/08 A2998 RMK AO2 SLP156
     T01060078=
PAMR 081253Z 00000KT 10SM -RA FEW060 SCT075 BKN085 BKN200 12/11
     A2997 RMK AO2 RAB1154 SLP151 P0000 T01220106 $=
PANC 081253Z 00000KT 10SM OVC080 12/11 A2997 RMK AO2 RAE40 SLP151
     P0000 T01170111=
PANN 081253Z AUTO 00000KT 10SM CLR 09/08 A3001 RMK AO2 SLP167
     T00890078 TSNO=
PANT 081253Z 34007KT 10SM CLR 18/11 A3006 RMK AO2 SLP180
     T01780111=
PAOM 081253Z 35009KT 10SM FEW200 13/08 A3007 RMK AO2 SLP184
     T01280078=
PAOR 081253Z 00000KT 10SM FEW070 08/08 A3007 RMK AO2 SLP184
     T00830078=
####018003734####
SAUS99 KWBC 081256 RRG
METAR
KDEC 081254Z 00000KT 7SM FEW007 SCT070 27/23 A3006 RMK AO2 SLP171
     T02670233=
KDSM 081254Z 34008KT 10SM FEW009 BKN250 22/19 A3011 RMK AO2 SLP190
     T02220189=
KDVL 081255Z AUTO 30007KT 10SM FEW085 17/12 A3010 RMK AO1=
KDYL 081254Z AUTO 00000KT 6SM HZ CLR 26/22 A3005 RMK AO2 SLP167
     T02610222 TSNO=
KDYR 081255Z AUTO 00000KT 10SM CLR 28/22 A3008 RMK AO1=
KEAR 081255Z AUTO 36006KT 10SM CLR 16/14 A3025 RMK AO1=
KIWD 081255Z AUTO 32005KT 10SM BKN060 19/16 A3003 RMK AO1=
KIZG 081254Z AUTO 09004KT 6SM HZ OVC012 25/21 A3010 RMK AO2 SLP189
     T02500206=
KJAC 081255Z AUTO 36003KT 10SM CLR 07/00 A3038 RMK AO1=
KJHW 081255Z AUTO 16003KT 10SM CLR 24/20 A3012 RMK AO1 54000=
KKLS 081255Z AUTO 32003KT 10SM CLR 14/13 A2994 RMK AO1=
KLAF 081254Z 24003KT 7SM CLR 26/22 A3004 RMK AO2 SLP166
     T02610222=
KLBL 081255Z 36014KT 5SM OVC005 19/17 A3023 RMK AO1 P0002=
KLBT 081254Z AUTO 04005KT 7SM CLR 28/20 A2995 RMK AO2 SLP141
     T02830200=
KLCI 081255Z AUTO 23004KT 5SM BKN013 OVC025 25/21 A3008 RMK
     AO1=
KLEW 081255Z 17004KT 1 3/4SM OVC003 21/20 A3012 RMK AO1=
KLEX 081254Z 17003KT 4SM HZ CLR 27/20 A3010 RMK AO2 SLP182
     T02670200=
KLGD 081255Z AUTO 33006KT 10SM CLR 09/06 A3007 RMK AO1=
KLKV 081255Z AUTO 32005KT 10SM CLR 11/01 A3013 RMK AO1=
KLNK 081254Z 36007KT 10SM CLR 19/17 A3017 RMK AO2 SLP209
     T01940172=
KLPC 081255Z AUTO 00000KT 7SM OVC008 13/11 A2993 RMK AO1 PNO=
KLWM 081254Z VRB04KT 10SM FEW019 BKN044 27/21 A3011 RMK AO2 SLP194
     T02670206=
KLWT 081254Z AUTO 13004KT 10SM CLR 10/06 A3027 RMK AO2 SLP229
     T01000061=
KLYH 081254Z 36005KT 6SM HZ CLR 29/19 A3006 RMK AO2 SLP167
     T02890189=
KMBL 081255Z AUTO 28007KT 4SM OVC005 22/20 A3003 RMK AO1 P0004=
KMFI 081254Z AUTO 33006KT 2SM BR OVC003 19/19 A3005 RMK AO2 SLP170
     T01940189=
KMGJ 081254Z AUTO 00000KT 7SM CLR 28/21 A3005 RMK AO2 SLP173
     T02780211=
KMIV 081254Z AUTO 11005KT 10SM FEW060 26/21 A3003 RMK AO2 SLP167
     T02560211=
KMJX 081255Z AUTO 10003KT FEW010 SCT060 BKN090 25/22 A3005 RMK
     AO1=
KMKC 081254Z 36003KT 10SM OVC008 23/21 A3009 RMK AO2 SLP180
     T02330211=
KMKT 081255Z 30004KT 10SM CLR 18/16 A3013 RMK AO1=
KMML 081255Z AUTO 28009KT 10SM CLR 19/14 A3015 RMK AO1=
KMNM 081255Z AUTO 34003KT 10SM FEW009 OVC015 22/19 A3001 RMK
     AO1=
KMOT 081254Z 23005KT 10SM FEW080 16/12 A3012 RMK AO2 SLP196
     T01560117=
KMRF 081255Z AUTO 01006KT 10SM CLR 17/15 A3020 RMK AO1=
KMRY 081254Z 28004KT 10SM OVC006 13/10 A2994 RMK AO2 SLP150
     T01280100=
KMSV 081255Z AUTO 01003KT 10SM CLR 27/20 A3011 RMK AO1=
KMTW 081255Z 23004KT 8SM BKN008 23/21 A3001 RMK AO1=
KMVL 081254Z AUTO VRB04KT 6SM HZ FEW055 27/22 A3007 RMK AO2 SLP178
     T02670222=
KMVN 081255Z AUTO 21006KT 9SM OVC065 27/23 A3006 RMK AO1=
KOFP 081254Z AUTO VRB03KT 5SM HZ CLR 29/22 A3002 RMK AO2 SLP163
     T02940217=
KOKK 081255Z AUTO 22004KT 5SM FEW060 SCT080 OVC090 26/19 A3005 RMK
     AO1 54000=
KOLM 081254Z AUTO 00000KT 10SM CLR 12/10 A2996 RMK AO2 SLP144
     T01170100=
KOLS 081254Z AUTO VRB03KT 10SM CLR 24/09 A3000 RMK AO2 SLP080
     T02390094=
KSTL 081251Z COR 24004KT 10SM FEW009 BKN025TCU BKN080 BKN150
     BKN250 26/23 A3007 RMK AO2 SLP168 TCU W-NE VCSH W-N
     T02610233=
KSUE 081255Z AUTO 29004KT 3SM OVC005 22/21 A3000 RMK AO1=
KSUN 081253Z 29010G14KT 30SM SKC 10/01 A3025=
KSUN 081251Z AUTO 31007KT 10SM CLR 10/00 A3026 RMK AO2=
KSUS 081254Z 24003KT 10SM -RA OVC024 24/23 A3005 RMK AO2 SLP166
     P0018 T02440233=
KSWF 081254Z VRB04KT 4SM HZFT BKN100 27/22 A3008=
KSYR 081254Z 00000KT 7SM CLR 28/21 A3005 RMK AO2 SLP170
     T02830211=
####018001104####
SAUS99 KWBC 081256 RRI
METAR
PAOT 081253Z 29010KT 10SM FEW038 SCT090 BKN200 11/07 A3011 RMK AO2
     SLP197 T01110067=
PAPB 081253Z AUTO 08015KT 10SM OVC046 07/05 A2990 RMK AO2 SLP113
     T00720050 TSNO=
PAQT 081253Z AUTO 24011KT 10SM CLR 08/04 A3006 RMK AO2 SLP181
     T00830044 TSNO=
PASC 081253Z 24012KT 10SM OVC230 08/05 A3003 RMK AO2 SLP170
     T00830050=
PASI 081253Z 00000KT 1/4SM FG VV001 12/12 A3017 RMK AO2 SLP215
     T01220117=
PASN 081253Z 06011KT 3/4SM BR VV001 05/05 A2993 RMK AO2 SLP136
     T00500050=
PASO 081253Z AUTO 00000KT 10SM FEW003 OVC110 09/09 A2991 RMK AO2
     RAE1159 SLP129 P0000 T00940094 TSNO=
PATK 081253Z AUTO 00000KT 10SM CLR 11/10 A2997 RMK AO2 SLP151
     T01110100 TSNO=
PATO 081253Z AUTO 09017G37KT 10SM -RA FEW020 BKN027 OVC035 12/10
     A2999 RMK AO2 PK WND 09042/1221 SLP157 P0006 T01220100 TSNO
     $=
PAWD 081253Z AUTO 36003KT 10SM FEW014 OVC060 09/09 A2996 RMK AO2
     SLP146 T00940089 TSNO=
PAYA 081253Z 00000KT 10SM BKN110 11/09 A3018 RMK AO2 RAB28E46
     SLP218 BAY TWR WND 140MMKT P0000 T01110094=
####018000119####
SACS31 MROC 081300
METAR
MROC 081300Z 01002KT 9999 4000S BR BKN120 21/21 A3004
     FOG BANK S SSW TEMPO 24006KT=
####018000112####
SAKA31 PTKK 081300
METAR PTKK 081252Z VRB04KT 15SM FEW014 BKN120 OVC280 26/23 A2985 RMK
 SLP111 T02620229=
####018000088####
SAUK31 EGGY 081250 CCB
METAR COR EGCC 081250Z 19009KT 9999 SCT038 19/10 Q1017 NOSIG=
####018000593####
SANO32 ENMI 081250
METAR ENAL 081250Z 24009KT 210V280 9999 VCSH FEW040TCU SCT060 16/11
           Q1010=
METAR ENCN 081250Z 19009KT 9999 FEW010 OVC040 17/15 Q1016=
METAR ENHD 081250Z 21012KT 9999 FEW035 SCT060 16/12 Q1015=
METAR ENRO 081250Z 17004KT 140V240 9999 FEW025 SCT045 BKN080 12/09
           Q1011=
METAR ENRY 081250Z 18011KT 9999 -RA SCT006 BKN008 17/15 Q1016 TEMPO
           SCT008 BKN015=
METAR ENSB 081250Z 27011KT 9999 FEW015 SCT025 BKN035 09/05 Q1009 =
METAR ENTC 081250Z 01005KT 9999 FEW065 SCT082 18/09 Q1010=
METAR ENTO 081250Z 19011KT 9999 BKN008 16/15 Q1016=
####018000387####
SAOS31 LOWM 081250
METAR LOWW 081250Z 34008KT 300V010 9999 FEW060 24/08 Q1022 NOSIG=
METAR LOWL 081250Z VRB02KT CAVOK 25/10 Q1022 NOSIG=
METAR LOWS 081250Z VRB04KT 9999 FEW070 25/08 Q1022 NOSIG=
METAR LOWI 081250Z 10006KT 030V150 9999 FEW080 28/14 Q1020 NOSIG=
METAR LOWG 081250Z 17004KT 110V240 CAVOK 27/11 Q1022 NOSIG=
METAR LOWK 081250Z VRB03KT 9999 FEW060 26/10 Q1022 NOSIG=
####018000272####
SANO38 ENMI 081250
METAR ENDR 081250Z NIL=
METAR ENEK 081250Z 23012KT CAVOK 16/12 Q1016 W15/S3=
METAR ENGC 081250Z 19025KT CAVOK 13/11 Q1009=
METAR ENHE 081250Z 18021KT 9999 SCT040 15/11 Q1009=
METAR ENOA 081250Z NIL=
METAR ENSL 081250Z 22023KT CAVOK 14/11 Q1013=
####018000371####
SABX31 EBBR 081250
METAR EBAW 081250Z 25007KT 180V330 CAVOK 30/12 Q1019 NOSIG=
METAR EBBR 081250Z 20005KT 150V290 CAVOK 30/11 Q1019 NOSIG=
METAR EBCI 081250Z VRB02KT CAVOK 30/10 Q1019 NOSIG=
METAR EBLG 081250Z VRB04KT CAVOK 30/08 Q1019 NOSIG=
METAR EBOS 081250Z 35006KT 320V030 CAVOK 22/16 Q1019 NOSIG=
METAR ELLX 081250Z 17005KT 130V230 CAVOK 30/08 Q1020 NOSIG=
####018000078####
SAUK34 EGGY 081250 RRA
METAR EGHK 081250Z 15006KT 9999 SCT020 18/15 Q1018=
####018000698####
SAGL41 BGSF 081250
METAR BGSF 081250Z 08005KT 040V120 9999 FEW070 15/01 Q1007=
METAR BGBW 081250Z 26006KT 230V290 9999 FEW040 14/05 Q1008 RMK 
1SC =
METAR BGGH 081255Z NIL=
METAR BGJN 081255Z NIL=
METAR BGKK 081250Z 26004KT 9999 FEW080 SCT120 08/04 Q1009=
METAR BGCO 081250Z 01017KT 9999 SCT064 BKN120 09/02 Q1008 RMK 
LAST=
METAR BGSS 081250Z 24003KT 9999 0900SE VCFG SCT000 04/04 Q1008=
METAR BGAA 081250Z 33003KT 0400 FG VV002 04/03 Q1009=
METAR BGUQ 081250Z 08011KT 9999 SKC 10/06 Q1009=
METAR BGMQ 081250Z 20005KT 1300 BR VV003 05/05 Q1009=
METAR BGUK 081250Z 30005KT 9999 SKC 05/03 Q1009=
METAR BGQQ 081255Z NIL=
METAR BGPT 081250Z 28005KT 260V320 0900 FG VV003 04/04 Q1009=
####018000402####
SANO37 ENMI 081250
METAR ENNO 081250Z 14011G19KT 9999 SCT025 BKN075 20/14 Q1013=
METAR ENOV 081250Z 24005KT 210V300 9999 VCSH FEW040 SCT052 17/07
           Q1010 =
METAR ENSD 081250Z NIL=
METAR ENSG 081250Z 24010KT 200V270 9999 SCT055 17/06 Q1012=
METAR ENSN 081250Z 18010KT 120V210 7000 OVC007 16/15 Q1016=
METAR ENSR 081250Z 30005KT 9999 FEW050 SCT070 19/09 Q1011=
METAR ENSS 081250Z NIL=
####018000090####
SAOS32 LOWM 081250
METAR LOXZ 081250Z 06004KT 70KM FEW060CU 25/11 Q1022 NOSIG RMK FEW=
####018000519####
SANO33 ENMI 081250
METAR ENAT 081250Z 17006KT 140V240 9999 FEW045 BKN080 23/09 Q1011 =
METAR ENBL 081250Z NIL=
METAR ENEV 081250Z 10007KT 070V130 9999 FEW059 BKN078 21/09 Q1009 =
METAR ENFL 081250Z 20015KT 9999 FEW015 SCT050 17/12 Q1012=
METAR ENKB 081250Z 27015G25KT 9999 FEW045TCU FEW054 SCT064 18/09
           Q1010=
METAR ENKR 081250Z 19008KT 160V230 9999 FEW020 16/10 Q1017 =
METAR ENML 081250Z 27010KT 9999 VCSH FEW040 BKN060 20/07 Q1010=
METAR ENNA 081250Z 16016KT 9999 FEW045CB SCT070 22/09 Q1012 =
####018000322####
SAFI33 EFHK 081250
EFJO 081250Z AUTO 36004KT 310V070 CAVOK 28/18 Q1014=
EFLP 081250Z AUTO 17007KT 100V230 CAVOK 31/12 Q1013=
EFMI 081250Z AUTO 36004KT 290V110 9999 FEW044 28/19 Q1013=
EFSA 081250Z VRB02KT 9999 FEW055TCU FEW055CB 30/17 Q1013=
EFUT 081250Z 16008KT 070V220 CAVOK 30/14 Q1013=
METAR EFVR 081255Z NIL=
####018000432####
SANO34 ENMI 081250
METAR ENBN 081250Z 35006KT 320V060 9999 FEW040 SCT070 19/11 Q1010=
METAR ENBV 081250Z 09016KT 9999 FEW025 11/08 Q1015=
METAR ENDI 081250Z NIL=
METAR ENFG 081250Z 19015KT 9999 FEW020 BKN035 16/08 Q1013=
METAR ENHF 081250Z 24003KT 200V260 CAVOK 20/09 Q1012 =
METAR ENRA 081250Z VRB03KT 9999 TS SCT050CB SCT070 15/11 Q1010=
METAR ENSH 081250Z 34007KT 9999 VCSH FEW030 BKN050 14/12 Q1010
           RESHRA=
####018000072####
SADN32 EKCH 081250 RRA
METAR EKVD 081250Z 28012KT CAVOK 22/15 Q1019=
####018000255####
SANO36 ENMI 081250
METAR ENBS 081250Z 18012KT 9999 FEW030 15/07 Q1016=
METAR ENHK 081250Z NIL=
METAR ENHV 081250Z NIL=
METAR ENLK 081250Z NIL=
METAR ENMH 081250Z 15012KT 9999 FEW015 18/10 Q1014=
METAR ENNK 081250Z 03007KT 9999 BKN070 17/12 Q1009=
####018000080####
SAQB31 LQBK 081300
METAR LQBK 081300Z 35004KT 9999 SCT040 24/11 Q1021 NOSIG=
####018000076####
SPAK32 KWBC 081256
SPECI
PASY 081243Z AUTO 02017KT 9999 OVC002 A2974=
####018003649####
SAUS70 KWBC 081300 RRE
METAR
KPDK 081253Z 02003KT 10SM CLR 28/18 A3006 RMK AO2 SLP156
     T02830183=
KPDT 081253Z 09004KT 10SM CLR 14/07 A2999 RMK AO2 SLP139
     T01440072=
KPIR 081253Z AUTO 24006KT 10SM CLR 16/12 A3019 RMK AO2 SLP213
     T01560122=
KPKD 081253Z AUTO 27006KT 10SM CLR 17/14 A3009 RMK AO2 SLP188
     T01720144=
KPMD 081253Z 17003KT 10SM CLR 15/02 A2992 RMK AO2 SLP104 T01500022
     $=
KPNA 081250Z AUTO 30005KT 10SM BKN100 07/02 A3041 RMK AO2
     T00680015=
KPQL 081253Z 36004KT 10SM BKN012 26/25 A3005 RMK AO2 SLP176
     T02560250=
KPRC 081253Z 00000KT 10SM SCT060 17/01 A3012 RMK AO2 SLP110
     T01720006=
KPSC 081253Z AUTO 00000KT 10SM CLR 16/11 A2998 RMK AO2 SLP151
     T01560106=
KPSP 081253Z 00000KT 10SM CLR 23/13 A2976 RMK AO2 SLP074
     T02280133=
KPSX 081253Z AUTO 10014G22KT 6SM RA BR CLR 26/24 A2988 RMK AO2
     RAE15B51 SLP117 P0001 T02610239=
KPTT 081250Z AUTO 36011KT 4SM BR BKN006 OVC010 20/19 A3016 RMK
     AO2=
KRAL 081253Z AUTO 22003KT 4SM BR OVC007 15/13 A2991 RMK AO2 SLP115
     T01500128=
KRBG 081253Z AUTO 00000KT 10SM CLR 16/12 A2994 RMK AO2 SLP135
     T01610117=
KRDD 081253Z AUTO 17004KT 10SM CLR 22/16 A2983 RMK AO2 SLP094
     T02170156=
KRHI 081253Z AUTO VRB03KT 10SM CLR 20/16 A3006 RMK AO2 SLP174
     T02000161=
KRKP 081253Z AUTO 04007KT 3/4SM +RA FEW010 BKN015 OVC021 A2985 RMK
     AO2 RAB17 SLP111 P0018 FZRANO $=
KRNT 081253Z AUTO 00000KT 9SM CLR 16/13 A2995 RMK AO2 SLP148
     T01560133=
KRSL 081253Z AUTO 35009KT 10SM OVC013 19/17 A3018 RMK AO2 SLP208
     T01890172=
KRUE 081253Z AUTO 17003KT 10SM SCT037 25/23 A3008 RMK AO2 SLP177
     T02500233=
KRVS 081253Z 00000KT 10SM OVC021 23/22 A3004 RMK AO2 SLP176
     T02330222=
PATA 081252Z AUTO 35004KT 10SM CLR 07/04 A3005 RMK AO2 SLP177
     T00670044 TSNO=
PHJR 081253Z 00000KT 10SM SCT060 22/17 A3001 RMK AO2 SLP170
     T02220172=
KRTN 081253Z AUTO 35004KT 10SM CLR 14/10 A3037 RMK AO2 SLP221
     T01390100 TSNO=
KSGR 081253Z 07007KT 10SM FEW012 SCT080 25/23 A2995 RMK AO2
     RAB30E42 SLP148 P0000 T02500233=
KMSY 081253Z 11004KT 10SM FEW016 SCT250 28/24 A3003 RMK AO2 SLP172
     T02830239=
KCDW 081253Z 00000KT 4SM HZ BKN019 27/23 A3005 RMK AO2 SLP180
     T02720228=
KCEZ 081253Z AUTO VRB04KT 10SM CLR 15/06 A3026 RMK AO2 SLP169
     T01500061=
KCGC 081255Z AUTO 00000KT 10SM CLR 25/22 A3002 RMK=
KCGI 081253Z 25003KT 10SM BKN100 27/24 A3005 RMK AO2 SLP173
     T02720239=
KCKB 081253Z 00000KT 4SM HZ CLR 24/19 A3011 RMK AO2 SLP179
     T02440194=
KCPR 081253Z 33003KT 10SM CLR 07/06 A3035 RMK AO2 SLP242 T00720056
     $=
KCRE 081253Z 36009KT 9SM CLR 29/21 A2993 RMK AO2 SLP136
     T02890206=
KCRG 081253Z 30004KT 10SM CLR 27/21 A3002 RMK AO2 SLP164
     T02670211=
KCRS 081253Z AUTO 08005KT 10SM FEW010 BKN023 OVC080 26/24 A3002
     RMK AO2 SLP161 T02560239=
KCSM 081253Z AUTO 01004KT 8SM FEW025 23/21 A3013 RMK AO2 LTG DSNT
     SW SLP180 T02280206=
KCSV 081253Z AUTO 00000KT 7SM CLR 27/18 A3016 RMK AO2 SLP187
     T02670183=
KCUB 081253Z AUTO VRB03KT 10SM CLR 29/20 A3001 RMK AO2 SLP159
     T02940200=
KCYS 081253Z 00000KT 10SM OVC016 13/11 A3037 RMK AO2 SLP236
     T01280111=
KDEN 081253Z 05003KT 1/4SM R35L/2400V6000FT BR OVC003 14/14 A3033
     RMK AO2 SFC VIS 1 1/4 SLP217 T01440139=
KDEQ 081253Z AUTO VRB03KT 10SM BKN005 OVC050 24/23 A3005 RMK AO2
     SLP171 T02440233=
KDET 081253Z AUTO 23004KT 10SM CLR 29/21 A3003 RMK AO2 SLP161
     T02940211 TSNO $=
KDFI 081253Z AUTO 18003KT 7SM CLR 27/21 A3006 RMK AO2 SLP171
     T02670211=
####018003720####
SAUS70 KWBC 081300 RRG
METAR
KEYE 081253Z AUTO 21003KT 7SM CLR 27/21 A3006 RMK AO2 SLP169
     T02720211=
KEYW 081253Z 04005KT 10SM SCT085 29/24 A2996 RMK AO2 SLP146
     T02890244=
KFDY 081253Z AUTO 24004KT 6SM HZ CLR 27/21 A3006 RMK AO2 SLP168
     T02670211=
KFFT 081253Z AUTO 17003KT 4SM HZ CLR 27/21 A3009 RMK AO2 SLP178
     T02720211=
KFLD 081253Z AUTO 00000KT 10SM OVC007 23/21 A3002 RMK AO2 CIG
     004V010 SLP162 T02280211=
KFLL 081253Z 08008KT 10SM SCT021 29/24 A2995 RMK AO2 SLP142
     T02940239=
KFLO 081253Z 33005KT 10SM CLR 28/19 A2996 RMK AO2 SLP142
     T02830194=
KFMY 081253Z 05005KT 10SM CLR 27/23 A2998 RMK AO2 SLP154
     T02720228=
KFOK 081253Z 11006KT 10SM SCT033 26/21 A3009 RMK AO2 SLP187
     T02560206=
KFPR 081253Z 06006KT 10SM SCT040 28/21 A2999 RMK AO2 SLP155
     T02830211=
KFRG 081253Z 16008KT 8SM BKN012 OVC019 25/23 A3007 RMK AO2
     RAB1155E18 SLP182 P0001 T02500233=
KFTN 081255Z AUTO 03006KT 10SM BKN008 BKN017 OVC025 25/23 A2993
     RMK AO1=
KFVE 081253Z AUTO 16004KT 5SM HZ FEW060 26/23 A3001 RMK AO2 SLP155
     T02560228=
KFWN 081253Z AUTO 00000KT 4SM HZ CLR 27/23 A3006 RMK AO2 SLP176
     T02720228=
KFXE 081253Z 07008KT 10SM SCT023 29/23 A2996 RMK AO2 SLP147
     T02940233=
KGEY 081253Z AUTO 00000KT 10SM CLR 11/03 A3028 RMK AO2 SLP231
     T01060033=
KGEZ 081253Z AUTO 19006KT 7SM BKN070 27/21 A3005 RMK AO2 SLP168
     T02670206=
KGFL 081253Z AUTO 18003KT 5SM HZ FEW090 27/22 A3004 RMK AO2 SLP168
     T02670217=
KGGW 081253Z AUTO 29004KT 10SM CLR 13/09 A3017 RMK AO2 SLP211
     T01280094 TSNO $=
KGIF 081253Z AUTO 07004KT 10SM CLR 26/22 A3003 RMK AO2 SLP167
     T02610217 TSNO=
KGJT 081253Z 09010KT 10SM CLR 20/07 A3020 RMK AO2 SLP154
     T02000067=
KGKJ 081253Z AUTO 00000KT 10SM CLR 27/19 A3011 RMK AO2 SLP183
     T02720194=
KGKY 081253Z 12004KT 10SM SCT010 OVC016 26/24 A3004 RMK AO2
     RAB27E48 SLP161 P0000 T02560239=
KGMU 081253Z 00000KT 9SM CLR 30/18 A3006 RMK AO2 SLP165
     T03000178=
KGNV 081253Z 00000KT 10SM CLR 26/22 A3002 RMK AO2 SLP163
     T02560222=
KGOK 081253Z AUTO 00000KT 6SM BR FEW003 BKN024 23/22 A3006 RMK AO2
     SLP170 T02280217=
KGTF 081253Z 22004KT 10SM CLR 11/07 A3023 RMK AO2 SLP222 T01060067
     $=
KGZH 081253Z AUTO 00000KT 10SM CLR 26/23 A3006 RMK AO2 SLP174
     T02610233=
KHAO 081253Z AUTO 00000KT 3SM HZ CLR 27/22 A3009 RMK AO2 SLP183
     T02670222=
KABY 081253Z 00000KT 10SM CLR 26/21 A3006 RMK AO2 SLP176
     T02560206=
KACK 081253Z 12010KT 10SM SCT029 22/19 A3011 RMK AO2 SLP195
     T02170194=
KADG 081253Z AUTO 00000KT 6SM HZ CLR 26/20 A3006 RMK AO2 SLP174
     T02560200=
KAFW 081253Z 13005KT 9SM FEW011 SCT070 BKN120 26/23 A3003 RMK AO2
     RAE1158 SLP153 P0000 T02560233=
KAGC 081253Z 00000KT 3SM HZ CLR 27/19 A3010 RMK AO2 SLP184 VIS E 2
     T02670194=
KAIA 081253Z AUTO 02003KT 10SM SCT034 OVC047 15/13 A3031 RMK AO2
     SLP238 T01500133 $=
KAKO 081253Z AUTO 14009KT 5SM BR BKN005 OVC041 14/14 A3033 RMK AO2
     SLP237 T01440139 TSNO=
KANE 081250Z 28004KT 12SM SKC 20/17 A3011=
KAOH 081253Z AUTO 21003KT 7SM 26/21 A3008 RMK AO2 SLP177 T02610211
     $=
KAPA 081253Z 32005KT 10SM FEW030 SCT070 SCT120 14/11 A3034 RMK AO2
     SLP230 T01440111=
KAPF 081253Z 05007KT 10SM CLR 28/23 A2998 RMK AO2 SLP152
     T02780233=
KARB 081253Z 27005KT 10SM CLR 27/21 A3005 RMK AO2 SLP166
     T02720206=
KASE 081253Z 00000KT 10SM FEW100 07/06 A3039 RMK AO2 SLP202
     T00720056=
KAUG 081253Z AUTO 19003KT 5SM BR OVC005 22/20 A3011 RMK AO2 SLP195
     T02170200=
KBAF 081253Z 16004KT 4SM HZ OVC011 24/22 A3008 RMK AO2 SLP183
     T02440217=
####018003697####
SAUS70 KWBC 081300 RRB
METAR
KMCW 081253Z AUTO 34008KT 10SM CLR 19/18 A3015 RMK AO2 SLP198
     T01940178=
KMEM 081253Z 00000KT 10SM FEW150 SCT250 28/22 A3008 RMK AO2 SLP181
     T02830217=
KMFE 081253Z 34009KT 10SM BKN008 BKN033 BKN041 26/24 A2980 RMK AO2
     CIG 007V012 SLP090 T02610244=
KMFR 081253Z AUTO 00000KT 10SM CLR 20/12 A2992 RMK AO2 SLP117
     T02000122=
KMGW 081253Z 00000KT 5SM HZ CLR 25/20 A3012 RMK AO2 SLP187
     T02500200=
KMHE 081253Z AUTO 23004KT 10SM CLR 19/15 A3018 RMK AO2 SLP212
     T01940150 TSNO=
KMIC 081253Z 29004KT 10SM CLR 21/16 A3010 RMK AO2 SLP188
     T02110161=
KMIW 081253Z AUTO 35007KT 10SM CLR 21/19 A3010 RMK AO2 SLP188
     T02060189=
KMKL 081253Z 28003KT 10SM CLR 27/23 A3009 RMK AO2 SLP184
     T02670233=
KMLE 081250Z AUTO 35003KT 10SM BKN021 20/17 A3015 RMK AO2
     T02010172=
KMLP 081253Z AUTO 11009G17KT 10SM CLR 12/02 A3027 RMK AO2 SLP159
     T01220017 TSNO=
KMMH 081250Z AUTO 30007KT 10SM CLR 07/01 A3023 RMK AO1=
KMMV 081253Z AUTO 25004KT 10SM CLR 13/10 A2993 RMK AO2 SLP132
     T01280100=
KMOD 081253Z AUTO 35004KT 10SM CLR 14/11 A2984 RMK AO2 SLP105
     T01440106=
KMRB 081253Z AUTO 00000KT 5SM HZ CLR 28/19 A3005 RMK AO2 SLP168
     T02780189=
KMSL 081253Z AUTO 31003KT 10SM CLR 26/23 A3010 RMK AO2 SLP186
     T02610228=
KMSP 081253Z 00000KT 10SM CLR 21/17 A3011 RMK AO2 SLP194
     T02060167=
KMSY 081253Z 11004KT 10SM FEW016 SCT250 28/24 A3003 RMK AO2 SLP172
     T02830239=
KMTO 081253Z AUTO 23003KT 10SM CLR 26/23 A3005 RMK AO2 SLP169
     T02610233=
KMYF 081253Z AUTO 31006KT 10SM OVC015 16/14 A2991 RMK AO2 SLP125
     T01610139 TSNO=
KMYV 081253Z AUTO 15003KT 10SM CLR 15/11 A2984 RMK AO2 SLP108
     T01500106=
KNEW 081253Z 07009KT 10SM SCT017 28/26 A3004 RMK AO2 SLP164
     T02780256=
KOAK 081253Z 31007KT 8SM OVC007 14/11 A2994 RMK AO2 SLP136
     T01440111=
KOGA 081250Z AUTO 00000KT 10SM SCT080 OVC100 16/15 A3029 RMK AO2
     T01590147=
KOJC 081253Z 02006KT 10SM CLR 24/20 A3009 RMK AO2 SLP178
     T02390200=
KOMK 081253Z AUTO 33006KT 10SM CLR 14/08 A3006 RMK AO2 SLP173
     T01440083=
KONL 081250Z AUTO 00000KT 10SM CLR 18/16 A3022 RMK AO2
     T01800156=
KONT 081253Z 22004KT 3SM BR OVC010 15/13 A2991 RMK AO2 SLP117
     T01500128=
KGLR 081253Z AUTO 25006KT 2SM -RA BR FEW007 BKN048 OVC060 21/21
     A3003 RMK AO2 SLP164 P0004 T02110206=
KGPT 081253Z 01004KT 10SM CLR 28/25 A3004 RMK AO2 SLP172
     T02830250=
KGRB 081253Z 30004KT 3SM BR OVC004 22/21 A3001 RMK AO2 CIG 003V007
     SLP158 T02220211=
KGRI 081253Z 36004KT 10SM CLR 17/15 A3022 RMK AO2 SLP222
     T01720150=
KGSH 081253Z AUTO 17005KT 5SM HZ CLR 26/21 A3005 RMK AO2 LTG DSNT
     NW SLP168 T02610211=
KGSP 081253Z 00000KT 10SM CLR 28/19 A3004 RMK AO2 SLP157
     T02830189=
KGUP 081253Z AUTO 00000KT 10SM CLR 17/07 A3028 RMK AO2 SLP076
     T01720072=
KGUY 081253Z AUTO 34004KT 10SM BKN017 BKN022 OVC110 18/17 A3022
     RMK AO2 RAE48 SLP191 P0002 T01830172=
KGVL 081253Z AUTO 31004KT 10SM CLR 27/19 A3009 RMK AO2 SLP170
     T02720189=
KGWO 081253Z AUTO 06003KT 10SM CLR 26/23 A3007 RMK AO2 SLP181
     T02610228=
KHBG 081253Z AUTO 00000KT 9SM CLR 26/24 A3006 RMK AO2 SLP176
     T02610244=
KHDE 081250Z AUTO 01004KT 10SM SCT085 17/15 A3023 RMK AO2
     T01700150=
KHEI 081253Z AUTO 00000KT 10SM CLR 14/11 A3021 RMK AO2 SLP220
     T01390111=
KHGR 081253Z 00000KT 5SM HZ CLR 28/18 A3005 RMK AO2 SLP176
     T02830178=
KHHR 081253Z 00000KT 10SM OVC012 17/13 A2991 RMK AO2 SLP128
     T01670133=
KHIB 081253Z AUTO 21005KT 10SM CLR 18/16 A3005 RMK AO2 SLP176
     T01780156=
####018003749####
SAUS70 KWBC 081300 RRD
METAR
KSTP 081253Z 31006KT 10SM CLR 21/16 A3011 RMK AO2 SLP191
     T02110161=
KSTS 081253Z AUTO VRB03KT 10SM OVC004 12/10 A2992 RMK AO2 SLP125
     T01170100=
KSWO 081253Z 32004KT 8SM FEW004 23/22 A3005 RMK AO2 SLP165
     T02330217=
KTCC 081253Z AUTO 05008KT 10SM FEW018 OVC075 18/16 A3025 RMK AO2
     SLP187 T01780156=
KTCL 081253Z 00000KT 10SM CLR 28/23 A3005 RMK AO2 SLP175
     T02830228=
KTIW 081253Z AUTO 00000KT 10SM CLR 18/12 A2996 RMK AO2 SLP141
     T01780117=
KTOP 081253Z 36007KT 7SM OVC007 23/22 A3009 RMK AO2 SLP181
     T02330217=
KTTD 081253Z AUTO 27003KT 10SM CLR 17/14 A2989 RMK AO2 SLP123
     T01670144=
KTUL 081253Z 35005KT 10SM FEW015 SCT030 BKN080 23/23 A3003 RMK AO2
     SLP162 T02330228=
KIBM 081250Z AUTO 00000KT 7SM SCT025 BKN060 OVC075 13/12 A3033 RMK
     AO2 T01270118=
KICR 081253Z AUTO 25005KT 10SM CLR 18/12 A3022 RMK AO2 SLP224
     T01830117 TSNO $=
KICT 081253Z 36008KT 10SM BKN008 BKN080 BKN120 23/21 A3011 RMK AO2
     SLP181 T02280211 $=
KILM 081253Z 05007KT 7SM CLR 28/22 A2994 RMK AO2 SLP137
     T02830217=
KIPL 081253Z AUTO 00000KT 9SM CLR 23/15 A2971 RMK AO2 SLP063
     T02330150=
KIWA 081247Z 09005KT 45SM FEW120 SCT200 29/06 A2983 RMK FIRST=
KIXD 081253Z 36008KT 10SM CLR 23/20 A3010 RMK AO2 SLP180
     T02330200=
KJCT 081251Z AUTO 00000KT 6SM BR FEW004 BKN026 23/22 A3003 RMK AO2
     SLP131 T02280217 TSNO=
KJEF 081253Z 02003KT 2SM BR OVC003 24/23 A3006 RMK AO2 SLP166
     T02390228=
KJYR 081250Z AUTO 36003KT 10SM CLR 17/16 A3019 RMK AO2=
KLBF 081253Z AUTO 31004KT 10SM CLR 17/16 A3027 RMK AO2 SLP233
     T01670156=
KLCG 081250Z AUTO 00000KT 10SM CLR 17/16 A3020 RMK AO2
     T01710155=
KLBX 081253Z AUTO 11013G28KT 2 1/2SM -RA BR SCT017 BKN029 BKN047
     26/24 A2993 RMK AO2 PK WND 11028/1250 RAB52 SLP134 P0004
     T02610239=
KLCH 081253Z 07007KT 9SM BKN006 OVC021 26/24 A3000 RMK AO2 SLP166
     T02610239=
KLFK 081253Z AUTO 09007KT 10SM FEW010 27/24 A3002 RMK AO2 SLP160
     T02670239=
KLFT 081253Z 00000KT 10SM OVC004 26/24 A3003 RMK AO2 SLP168
     T02560244=
KLGB 081253Z 30004KT 9SM OVC013 17/13 A2991 RMK AO2 SLP128
     T01670128=
KLHM 081251Z AUTO 17003KT 10SM CLR 15/11 A2984 RMK AO1
     T01450110=
KLLQ 081253Z AUTO 14003KT 10SM CLR 24/23 A3009 RMK AO2 SLP185
     T02440233=
KLMT 081253Z AUTO 00000KT 10SM CLR 16/09 A3007 RMK AO2 SLP132
     T01610089=
KLOL 081253Z AUTO 36007KT 10SM CLR 19/M04 A3002 RMK AO2 SLP116
     T01941044=
KLSE 081253Z 34009KT 10SM CLR 22/18 A3006 RMK AO2 SLP169
     T02220183=
KLVJ 081253Z AUTO 08007KT 8SM -RA FEW075 BKN095 25/23 A2996 RMK
     AO2 LTG DSNT N AND NW TSB00E25RAB1157 SLP143 P0010
     T02500228=
KLVK 081253Z AUTO 29007KT 10SM OVC008 13/11 A2991 RMK AO2 SLP125
     T01330111=
KLVS 081253Z AUTO 02006KT 10SM CLR 11/09 A3040 RMK AO2 SLP220
     T01110089 TSNO=
KLXN 081250Z AUTO 00000KT 10SM CLR 18/16 A3025 RMK AO2
     T01760164=
KLXT 081253Z AUTO 01009KT 10SM BKN075 23/21 A3010 RMK AO2 SLP183
     T02280206=
KOSH 081253Z 26005KT 8SM SCT004 23/21 A3001 RMK AO2 SLP148
     T02330206=
KOTM 081253Z AUTO 35006KT 7SM CLR 21/20 A3008 RMK AO2 SLP182
     T02110200=
KOUN 081253Z AUTO 35004KT 10SM BKN028 26/23 A3007 RMK AO2=
KOVE 081253Z AUTO 13008KT 10SM CLR 17/12 A2987 RMK AO2 SLP114
     T01720117 TSNO=
KOVS 081253Z AUTO 28004KT 10SM OVC009 22/20 A3006 RMK AO2 CIG
     005V014 SLP177 T02220200=
KPAE 081253Z AUTO 00000KT 10SM CLR 18/12 A2998 RMK AO2 SLP147
     T01830117=
KPAH 081253Z 24005KT 10SM CLR 27/23 A3006 RMK AO2 SLP175
     T02720228=
KPBF 081253Z AUTO 00000KT 10SM CLR 26/23 A3008 RMK AO2 SLP183
     T02610228=
####018003733####
SAUS70 KWBC 081300 RRI
METAR
KPHD 081253Z AUTO 00000KT 4SM HZ CLR 24/19 A3009 RMK AO2 SLP183
     T02440194=
KPIE 081253Z 06004KT 10SM FEW033 26/22 A3001 RMK AO2 SLP163
     T02610222=
KPIH 081253Z 00000KT 10SM CLR 07/03 A3019 RMK AO2 SLP189
     T00720028=
KPKB 081253Z 00000KT 4SM BCFG BR CLR 24/21 A3012 RMK AO2 SLP190
     VIS N-E 1/2 T02390211=
KPMP 081253Z 08008KT 10SM CLR 29/24 A2996 RMK AO2 SLP147
     T02940239=
KPNC 081253Z AUTO 00000KT 8SM OVC028 23/22 A3007 RMK AO2 SLP173
     T02280217=
KPOU 081253Z 11005KT 6SM HZ CLR 27/22 A3004 RMK AO2 SLP168
     T02720222=
KPRB 081253Z AUTO 34003KT 8SM OVC005 12/11 A2992 RMK AO2 SLP127
     T01170106=
KPSO 081255Z AUTO 00000KT 10SM BKN120 10/06 A3040 RMK AO2=
KPTK 081253Z 30005KT 9SM FEW150 SCT240 28/21 A3004 RMK AO2 SLP164
     T02780211=
KPUB 081253Z 00000KT 10SM CLR 15/13 A3031 RMK AO2 SLP215
     T01500133=
KPUC 081253Z AUTO 33003KT 10SM CLR 13/02 A3025 RMK AO2 SLP182
     T01330022 TSNO=
KPUW 081253Z AUTO 06003KT 10SM CLR 14/07 A3008 RMK AO2 SLP172
     T01390072=
KRBD 081253Z 12003KT 10SM BKN008 OVC048 25/24 A3003 RMK AO2
     RAB1156E19B39E52 SLP161 P0001 T02500239=
KRME 081253Z 30003KT 7SM CLR 26/22 A3008 RMK AO2 SLP179 T02610217
     $=
KRSW 081253Z 03006KT 10SM CLR 27/22 A2999 RMK AO2 SLP151
     T02670222=
KRWL 081253Z AUTO 06006KT 10SM OVC007 09/07 A3041 RMK AO2 SLP234
     T00940072=
KRXE 081253Z AUTO 04006KT 10SM CLR 09/05 A3024 RMK AO2 SLP207
     T00890050=
KSEG 081253Z AUTO 06003KT 6SM HZ CLR 29/18 A3005 RMK AO2 SLP173
     T02940183=
KSHN 081253Z AUTO 00000KT 10SM CLR 11/09 A2994 RMK AO2 SLP137
     T01060089=
KSHR 081253Z AUTO 00000KT 10SM CLR 09/07 A3027 RMK AO2 SLP235
     T00940067=
KSLC 081253Z 00000KT 10SM FEW090 BKN130 18/08 A3011 RMK AO2 SLP145
     VIRGA DSNT W-NE T01830083=
KSMQ 081253Z AUTO 00000KT 4SM HZ FEW014 26/23 A3003 RMK AO2 SLP168
     T02610233=
KSNY 081253Z AUTO 35003KT 10SM SCT090 16/14 A3033 RMK AO2 SLP237
     T01610144 $=
KSPA 081255Z AUTO 04004KT 10SM CLR 28/23 A3003 RMK AO2=
KLWV 081253Z AUTO 26003KT 7SM CLR 28/23 A3005 RMK AO2 SLP171
     T02780233=
KMAE 081253Z AUTO 30005KT 10SM CLR 16/10 A2984 RMK AO2 SLP100
     T01560100=
KMAF 081253Z 03008KT 10SM BKN005 OVC013 21/20 A3012 RMK AO2 SLP156
     T02110200=
KMBS 081253Z 26005KT 10SM SCT110 24/22 A3003 RMK AO2 SLP164
     T02390217=
KMCK 081253Z AUTO 00000KT 10SM CLR 17/16 A3026 RMK AO2 SLP232
     T01720161=
KMCO 081253Z VRB05KT 10SM FEW018 FEW250 27/21 A3001 RMK AO2 SLP162
     T02670206=
KMGY 081253Z AUTO 18003KT 5SM HZ CLR 27/22 A3009 RMK AO2 SLP177
     T02670217=
KMHT 081253Z 20005KT 5SM HZ BKN014 26/22 A3007 RMK AO2 SLP192
     T02560217=
KMIA 081253Z 05007KT 10SM SCT018TCU SCT130 SCT300 30/24 A2996 RMK
     AO2 SLP145 CB DSNT S TCU NE AND SE AND SW T03000244=
KMIE 081253Z 20006KT 10SM FEW065 BKN080 27/19 A3007 RMK AO2 SLP170
     T02720194=
KMLC 081253Z AUTO 18003KT 10SM BKN009 BKN021 OVC031 24/23 A3005
     RMK AO2 SLP168 T02440233=
KMLS 081253Z AUTO 15003KT 10SM CLR 13/11 A3021 RMK AO2 SLP217
     T01330106=
KMLT 081253Z AUTO 17004KT 6SM HZ OVC011 23/20 A3008 RMK AO2 SLP187
     T02330200=
KMMK 081253Z AUTO 15006KT 3SM HZ BKN014 OVC020 26/22 A3007 RMK AO2
     SLP182 T02560222=
KMNI 081255Z AUTO 31006KT 10SM CLR 28/23 A2997 RMK AO2=
KMNN 081253Z AUTO 17004KT 6SM HZ CLR 25/21 A3009 RMK AO2 SLP181
     T02500211=
KMPO 081253Z AUTO 03005KT 5SM HZ FEW090 28/19 A3012 RMK AO2 SLP182
     T02780189=
KMSO 081253Z 12004KT 10SM CLR 11/07 A3022 RMK AO2 SLP218 T01060072
     $=
KMSS 081253Z AUTO 25004KT 7SM CLR 27/23 A3002 RMK AO2 SLP163
     T02720228=
####018000302####
SAPQ50 KWBC 081300 RRA
METAR
PGUM 081254Z 11008KT 10SM CLR 27/24 A2992 RMK AO2 SLP123
     T02720244=
PGSN 081254Z 10012KT 10SM FEW019 SCT026 28/24 A2992 RMK AO2
     RAB09E21 SLP129 P0000 T02780244=
PTKK 081252Z VRB04KT 15SM FEW014 BKN120 OVC280 26/23 A2985 RMK
     SLP111 T02620229=
####018002908####
SAUS80 KWBC 081300 RRB
METAR
KEAR 081255Z AUTO 36006KT 10SM CLR 16/14 A3025 RMK AO1=
KLEX 081254Z 17003KT 4SM HZ CLR 27/20 A3010 RMK AO2 SLP182
     T02670200=
KLYH 081254Z 36005KT 6SM HZ CLR 29/19 A3006 RMK AO2 SLP167
     T02890189=
KSUS 081254Z 24003KT 10SM -RA OVC024 24/23 A3005 RMK AO2 SLP166
     P0018 T02440233=
KSYR 081254Z 00000KT 7SM CLR 28/21 A3005 RMK AO2 SLP170
     T02830211=
KFWA 081254Z 20003KT 8SM FEW060 27/21 A3006 RMK AO2 SLP172
     T02720211=
KAPN 081254Z VRB03KT 4SM -RA BR SCT035 BKN048 OVC060 23/21 A3001
     RMK AO2 RAB17 SLP158 P0001 T02280211=
KSBN 081254Z 13003KT 5SM -RA BR FEW035 BKN060 OVC075 23/22 A3006
     RMK AO2 TSB25E45RAB1155 SLP172 OCNL LTGIC DSNT SW CB DSNT SW
     P0015 T02330217=
KCOU 081254Z 00000KT 10SM FEW003 OVC011 23/22 A3009 RMK AO2 CIG
     006V013 SLP180 T02330222=
PABE 081253Z 33005KT 10SM OVC120 10/10 A3000 RMK AO2 SLP168
     T00990096 PNO $=
PABT 081253Z 00000KT 10SM SCT100 09/08 A3007 RMK AO2 SLP189
     T00940078=
PACD 081253Z 10SM FEW050 SCT180 05/04 A2989 RMK AO2 SLP123
     T00500039 $=
PADQ 081253Z 30005KT 10SM FEW017 BKN034 OVC049 11/09 A2986 RMK AO2
     SLP112 T01060089 $=
PAFA 081253Z 34003KT 10SM FEW100 SCT200 11/07 A3004 RMK AO2 SLP174
     T01110072=
PAHO 081253Z AUTO 09007KT 10SM OVC110 12/07 A2992 RMK AO2 SLP132
     T01170072 TSNO=
PAJN 081253Z 00000KT 10SM BKN200 09/08 A3018 RMK AO2 SLP219
     T00890078=
PAMC 081253Z 00000KT 10SM FEW080 SCT200 11/08 A2998 RMK AO2 SLP156
     T01060078=
PANC 081253Z 00000KT 10SM OVC080 12/11 A2997 RMK AO2 RAE40 SLP151
     P0000 T01170111=
PANN 081253Z AUTO 00000KT 10SM CLR 09/08 A3001 RMK AO2 SLP167
     T00890078 TSNO=
PANT 081253Z 34007KT 10SM CLR 18/11 A3006 RMK AO2 SLP180
     T01780111=
PAOM 081253Z 35009KT 10SM FEW200 13/08 A3007 RMK AO2 SLP184
     T01280078=
PAOR 081253Z 00000KT 10SM FEW070 08/08 A3007 RMK AO2 SLP184
     T00830078=
PAOT 081253Z 29010KT 10SM FEW038 SCT090 BKN200 11/07 A3011 RMK AO2
     SLP197 T01110067=
PAQT 081253Z AUTO 24011KT 10SM CLR 08/04 A3006 RMK AO2 SLP181
     T00830044 TSNO=
PHOG 081254Z AUTO 03010KT 10SM CLR 23/17 A3000 RMK AO2 SLP165
     T02280172 TSNO=
PASN 081253Z 06011KT 3/4SM BR VV001 05/05 A2993 RMK AO2 SLP136
     T00500050=
PATK 081253Z AUTO 00000KT 10SM CLR 11/10 A2997 RMK AO2 SLP151
     T01110100 TSNO=
PAYA 081253Z 00000KT 10SM BKN110 11/09 A3018 RMK AO2 RAB28E46
     SLP218 BAY TWR WND 140MMKT P0000 T01110094=
K1V4 081254Z AUTO 25/21 A3005 RMK AO2 SLP161 T02500211 PWINO
     TSNO=
KAVP 081254Z 00000KT 6SM HZ CLR 27/19 A3008 RMK AO2 SLP171
     T02670189 $=
KMQE 081254Z AUTO 16008KT 25/19 A3011 RMK AO1 SLP202 T02500189=
KCAR 081254Z AUTO 18007KT 9SM CLR 25/21 A3001 RMK AO2 SLP163
     T02500211=
K12N 081254Z AUTO 00000KT 27/22 A3007 RMK AO2 SLP171 T02720217
     PWINO TSNO=
####018003727####
SAUS70 KWBC 081300 RRK
METAR
KEUG 081254Z 20006KT 10SM FEW150 SCT300 12/10 A2994 RMK AO2 SLP136
     T01220100=
KEUL 081255Z AUTO 17003KT 10SM CLR 12/05 A3009 RMK AO1=
KEVV 081254Z 21003KT 10SM CLR 28/22 A3007 RMK AO2 SLP177
     T02830222=
KEWK 081255Z AUTO 01009KT 10SM OVC005 21/19 A3009 RMK AO1=
KEWN 081254Z 05007KT 4SM BR FEW100 27/24 A2996 RMK AO2 SLP146
     T02670244=
KFAM 081255Z AUTO 23003KT 10SM OVC080 24/22 A3011 RMK AO1=
KFKL 081255Z 10004KT 10SM CLR 26/19 A3014 RMK AO1 54000=
KFLP 081255Z AUTO 00000KT 10SM BKN065 OVC080 23/22 A3008 RMK
     AO1=
KFNL 081255Z AUTO 35004KT 5SM SCT004 OVC016 14/14 A3032 RMK
     AO1=
KFOD 081255Z AUTO 35005KT 10SM CLR 19/17 A3015 RMK AO1=
KFRM 081255Z AUTO 10SM CLR 19/16 A3017 RMK AO1=
KFWS 081251Z 00000KT 5SM BR SCT005 OVC026 25/23 A3005=
KGAD 081255Z AUTO 36003KT 10SM CLR 25/20 A3007 RMK AO1=
KGAI 081255Z 00000KT 5SM CLR 27/23 A3006 RMK AO1=
KGBD 081255Z AUTO 35010G14KT 10SM BKN008 OVC035 19/18 A3018 RMK
     AO1=
KGCK 081254Z 01010KT 10SM SCT017 18/16 A3024 RMK AO2 SLP213
     T01830161=
KGDV 081255Z AUTO 18003KT 10SM CLR 14/09 A3018 RMK AO1=
KGED 081254Z AUTO 12005KT 10SM FEW065 26/22 A3004 RMK AO2 SLP170
     T02560217=
KGUC 081255Z AUTO 01004KT 10SM CLR 07/03 A3046 RMK AO1=
KGXY 081255Z AUTO 06005KT 6SM FEW007 SCT014 OVC045 16/13 A3032 RMK
     AO1=
KHDN 081255Z 10006KT 10SM CLR 09/06 A3035 RMK AO1=
KHEF 081255Z AUTO 00000KT 6SM CLR 28/22 A3003 RMK AO1=
KHEZ 081255Z AUTO 00000KT 9SM CLR 24/23 A3007 RMK AO1=
KHNB 081255Z AUTO 00000KT 10SM CLR 27/23 A3007 RMK AO1=
KHWD 081254Z AUTO 32005KT 10SM OVC007 14/11 A2992 RMK AO2 SLP142
     T01390111=
KHYS 081255Z AUTO 01010KT 10SM OVC037 18/16 A3021 RMK AO1=
KILN 081254Z AUTO 00000KT 4SM HZ CLR 26/22 A3010 RMK AO2 SLP180
     T02560217=
KIMT 081254Z AUTO 35003KT 10SM FEW009 22/19 A3001 RMK AO2 SLP158
     T02170189=
KIND 081254Z 22006KT 8SM FEW060 BKN210 27/21 A3004 RMK AO2 SLP165
     T02720211=
KINT 081254Z 02006KT 10SM CLR 28/18 A3005 RMK AO2 SLP162
     T02830183=
KIPT 081254Z 25004KT 7SM CLR 25/18 A3006 RMK AO2 SLP174
     T02500183=
KISW 081254Z AUTO 28003KT 10SM OVC007 21/19 A3006 RMK AO2 SLP173
     T02060189 TSNO=
KAAO 081254Z AUTO 36008KT 9SM OVC004 22/21 A3010 RMK AO2 SLP182
     T02170206=
KAFJ 081255Z AUTO 00000KT 6SM OVC060 24/20 A3012 RMK AO1 52003=
KAIZ 081255Z AUTO 00000KT 8SM OVC013 23/21 A3009 RMK AO1 P0001=
KAKH 081254Z AUTO 35004KT 9SM CLR 29/18 A3003 RMK AO2 SLP159
     T02940183=
KALO 081254Z AUTO 34008KT 10SM CLR 21/19 A3009 RMK AO2 SLP184
     T02110194=
KAPC 081254Z AUTO 27009KT 10SM OVC006 12/11 A2991 RMK AO2 SLP120
     T01170106=
KARG 081255Z AUTO 23008KT 10SM SCT085 26/23 A3007 RMK AO1=
KAUO 081255Z AUTO 33005KT 10SM CLR 28/22 A3005 RMK AO1=
KAUW 081254Z AUTO 34005KT 9SM OVC004 20/19 A3003 RMK AO2 SLP167
     T02000189=
KAVL 081254Z 36004KT 7SM CLR 24/18 A3015 RMK AO2 SLP180
     T02440183=
KAWO 081255Z AUTO 00000KT 5SM CLR 13/13 A2998 RMK AO1=
KBAK 081250Z 17004KT 7SM SCT065 BKN110 25/22 A3007=
KBFL 081254Z AUTO 00000KT 10SM CLR 20/11 A2986 RMK AO2 SLP104
     T02000111=
KBHB 081255Z AUTO 20009KT 3/4SM OVC002 18/18 A3014 RMK AO1=
KBID 081255Z AUTO 08004KT 1SM OVC002 22/22 A3009 RMK AO1=
KBKX 081255Z AUTO 00000KT 10SM CLR 19/15 A3018 RMK AO1=
KBLM 081255Z AUTO 14005KT 10SM BKN021 BKN090 25/20 A3008 RMK
     AO1=
KBOS 081254Z 14006KT 10SM SCT230 24/20 A3010 RMK AO2 SLP193
     T02440200=
KBTP 081255Z AUTO 00000KT 5SM CLR 24/21 A3011 RMK AO1 52003=
KBUY 081254Z AUTO 00000KT 4SM HZ CLR 29/19 A3001 RMK AO2 SLP153
     T02890194=
KBVX 081255Z AUTO 17004KT 10SM CLR 25/22 A3009 RMK AO1=
####018000358####
SANO35 ENMI 081250
METAR ENMS 081250Z NIL=
METAR ENRM 081250Z NIL=
METAR ENRS 081250Z NIL=
METAR ENSK 081250Z 28012KT 9999 VCSH FEW020CB SCT040 BKN060 17/11
           Q1010 RESHRA=
METAR ENSO 081250Z 21007KT 140V270 9999 SCT030 19/11 Q1014=
METAR ENST 081250Z 02008KT 350V060 CAVOK 19/11 Q1010=
METAR ENVD 081250Z 11010KT 9999 FEW022 12/08 Q1017=
####018003690####
SAUS70 KWBC 081300
METAR
KDHT 081253Z AUTO 36010KT 10SM OVC007 18/17 A3025 RMK AO2 SLP191
     T01780167=
KDLS 081253Z AUTO 00000KT 10SM CLR 14/06 A2998 RMK AO2 SLP149
     T01440061=
KDMO 081253Z AUTO 00000KT 10SM FEW002 OVC008 24/22 A3009 RMK AO2
     SLP181 T02390222=
KDVO 081250Z AUTO 32006KT 10SM OVC012 12/12 A2993 RMK AO2=
KDVT 081253Z 00000KT 10SM CLR 27/00 A2981 RMK AO2 SLP067
     T02720000=
KDWH 081253Z 06007KT 8SM FEW007 BKN070 BKN090 25/24 RMK AO2 LTG
     DSNT SE AND S SLPNO T02500239 $=
KEET 081253Z AUTO 35003KT 8SM CLR 28/22 A3006 RMK AO2 SLP171
     T02780222=
KEGE 081250Z 00000KT 10SM SKC 09/08 A3040=
KELN 081253Z AUTO 06004KT 10SM CLR 12/07 A3006 RMK AO2 SLP166
     T01220067 $=
KENW 081253Z 26005KT 10SM SCT010 BKN029 BKN040 23/22 A3003 RMK AO2
     SLP166 T02330217 $=
KEPH 081253Z AUTO 34005KT 10SM CLR 21/04 A3002 RMK AO2 SLP154
     T02060044=
KESF 081253Z AUTO 08003KT 10SM CLR 26/24 A3005 RMK AO2 SLP174
     T02560239=
KFAY 081253Z AUTO 02007KT 7SM CLR 29/20 A2996 RMK AO2 SLP138
     T02890200=
KFCM 081253Z 28005KT 10SM CLR 21/16 A3011 RMK AO2 SLP192
     T02060156=
KFFC 081253Z AUTO 00000KT 10SM CLR 26/19 A3006 RMK AO2 SLP171
     T02560194=
KFHR 081253Z AUTO 00000KT 10SM CLR 14/11 A2999 RMK AO2 SLP153
     T01390106=
KFOE 081253Z 36007KT 7SM OVC005 22/21 A3010 RMK AO2 SLP182
     T02220206 $=
KFSM 081253Z 09003KT 10SM CLR 26/23 A3005 RMK AO2 SLP171
     T02560228=
KFST 081253Z AUTO 14003KT 10SM BKN095 OVC110 22/19 A3009 RMK AO2
     SLP141 T02170194=
KFTY 081253Z 00000KT 8SM CLR 27/19 A3006 RMK AO2 SLP166
     T02670194=
KFUL 081253Z 00000KT 9SM OVC017 17/12 A2990 RMK AO2 SLP124
     T01720122=
KFYV 081253Z 00000KT 10SM BKN018 OVC024 23/22 A3009 RMK AO2 SLP175
     T02330217=
KGAG 081253Z AUTO 36007KT 10SM -RA OVC009 21/19 A3016 RMK AO2
     RAB27 SLP187 P0000 T02060194=
KGFK 081253Z 31006KT 10SM FEW080 18/14 A3006 RMK AO2 SLP179
     T01780144=
KGLD 081253Z AUTO 08003KT 10SM SCT003 OVC016 17/16 A3032 RMK AO2
     SLP235 T01670161=
KGLH 081253Z 00000KT 10SM CLR 26/24 A3007 RMK AO2 SLP186
     T02610239=
KBMQ 081253Z AUTO 07004KT 8SM FEW008 BKN024 OVC038 24/22 A3003 RMK
     AO2 RAB00E09 SLP150 P0000 T02440222 $=
KBNA 081253Z 00000KT 10SM FEW038 SCT180 SCT250 28/22 A3009 RMK AO2
     SLP182 T02830217=
KBPK 081253Z AUTO 00000KT 8SM OVC070 23/22 A3008 RMK AO2 SLP176
     T02330222=
KBPT 081253Z 08008KT 9SM BKN009 OVC015 27/25 A2998 RMK AO2 CIG
     007V012 SLP151 T02670250=
KBRD 081253Z AUTO 25006KT 10SM CLR 19/14 A3008 RMK AO2 SLP183
     T01890139=
KBRL 081253Z AUTO 7SM OVC004 23/22 A3005 RMK AO2 SLP172
     T02330217=
KBRO 081253Z 32007KT 10SM SCT005 BKN011 BKN026 26/25 A2977 RMK AO2
     RAB09E45 SLP078 P0000 T02610250=
KBTA 081250Z AUTO 36006KT 10SM SCT020 20/17 A3016 RMK AO2
     T01950173=
KBTL 081253Z 00000KT 10SM CLR 26/21 A3006 RMK AO2 SLP170
     T02610211=
KBUR 081253Z 35005KT 6SM HZ OVC007 16/13 A2990 RMK AO2 SLP115
     T01560128=
KBVN 081250Z AUTO 31003KT 10SM BKN110 17/16 A3021 RMK AO2
     T01730156=
KBVO 081253Z 00000KT 10SM FEW030 OVC060 23/22 A3007 RMK AO2 SLP172
     T02330217=
KBWG 081253Z AUTO 00000KT 10SM CLR 27/22 A3009 RMK AO2 SLP182
     T02720222=
KCCR 081253Z AUTO 24005KT 10SM FEW012 12/09 A2991 RMK AO2 SLP114
     T01220094=
KCHO 081253Z 00000KT 4SM HZ CLR 30/20 A3003 RMK AO2 SLP159
     T03000200=
KCLM 081253Z AUTO A2999 RMK AO2 SLPNO PWINO FZRANO $=
KCMI 081253Z 25005KT 10SM CLR 26/23 A3005 RMK AO2 SLP170
     T02610228=
KCMX 081253Z AUTO 30003KT 10SM SCT110 21/16 A3000 RMK AO2 SLP157
     T02060161=
####018000617####
SAIY32 LIIB 081250
METAR LIBD 081250Z 36014KT CAVOK 25/12 Q1020=
METAR LIBR 081245Z /////KT CAVOK 25/13 Q1018 NOSIG=
METAR LICC 081250Z 11013KT CAVOK 28/20 Q1018=
METAR LICJ 081250Z 04015KT 9999 FEW018 28/23 Q1018=
METAR LIPB 081250Z 18013KT CAVOK 30/12 Q1019=
METAR LIPE 081250Z 07007KT 030V120 CAVOK 30/14 Q1020=
METAR LIPH 081245Z 13004KT 9999 SCT025 27/20 Q1022=
METAR LIPK 081250Z 08008KT CAVOK 28/11 Q1020=
METAR LIPQ 081250Z 28004KT CAVOK 27/14 Q1022=
METAR LIPR 081245Z 08011KT CAVOK 28/19 Q1021=
METAR LIPX 081245Z 20005KT 9999 FEW040 30/14 Q1021=
METAR LIPZ 081250Z 13007KT CAVOK 28/19 Q1022=
####018000651####
SANO31 ENMI 081250
METAR ENAN 081250Z 02006KT 9999 FEW045 SCT090 BKN200 16/10 Q1010
           NOSIG=
METAR ENBR 081250Z 18013KT 9999 FEW025 SCT040 17/11 Q1014 NOSIG =
METAR ENBO 081250Z 30007KT 260V330 9999 FEW050CB 13/10 Q1011 TEMPO
           SHRA=
METAR ENDU 081250Z VRB01KT 9999 -SHRA FEW050 BKN070 19/10 Q1010=
METAR ENGM 081240Z 18017KT 9999 FEW017 SCT026 BKN055 17/13 Q1015
           NOSIG=
METAR ENOL 081250Z 04004KT 340V110 9999 FEW025TCU SCT050 20/06 Q1010
           NOSIG=
METAR ENVA 081250Z 34012KT 9999 FEW040CB SCT070 19/11 Q1009 TEMPO
           SHRA =
METAR ENZV 081250Z 21011KT 9999 SCT020 BKN150 18/12 Q1015 NOSIG=
####018000141####
SPUS70 KWBC 081256
SPECI
KSTL 081253Z 24003KT 10SM FEW009 BKN025TCU BKN075 BKN150 BKN250
     26/23 A3006 RMK AO2 TCU W-NE VCSH W-N=
####018000518####
SPXX60 KWBC 081256
SPECI
KHLR 081252Z AUTO 09003KT 9SM OVC007 26/ A3001 RMK AO2 T0256 $=
KCEF 081252Z 13002KT 6SM -RA BR OVC011 25/22 A3008 RMK AO2A SLP186
     $=
KGUS 081250Z AUTO 19006KT 10SM -RA FEW060 26/22 A3004 RMK AO2
     RAB1250 CLDS LWR RWY05 SLP167 $=
KLSF 081238Z COR 00000KT 10SM CLR 26/22 A3003 RMK AO2 SLP169 COR
     1242$=
PASY 081243Z AUTO 02017KT 9999 OVC002 A2974 RMK AO2 TSNO PNO=
PHHI 081254Z AUTO 01004KT 10SM BKN036 OVC044 20/18 A3002 RMK AO2
     DZB1241E1254 SLP156=
####018003708####
SAUS70 KWBC 081300 RRL
METAR
KBWI 081254Z 13005KT 5SM HZ FEW110 29/22 A3001 RMK AO2 SLP161
     T02940217=
KCEU 081254Z AUTO 00000KT 9SM CLR 28/21 A3005 RMK AO2 SLP164
     T02780211=
KCGZ 081255Z AUTO 00000KT 10SM CLR 27/01 A2982 RMK AO1=
KCIU 081255Z AUTO 32006KT 9SM BKN005 OVC009 20/18 A2999 RMK
     AO1=
KCOD 081255Z 15004KT 10SM CLR 13/02 A3033 RMK AO1=
KCOE 081255Z AUTO 07007KT 10SM CLR 14/09 A3010 RMK AO1=
KCVN 081255Z AUTO 01011KT 10SM FEW014 17/14 A3025 RMK AO1=
KCVO 081255Z AUTO 27005KT 10SM CLR 12/09 A2994 RMK AO1=
KCWI 081255Z 31006KT 2 1/2SM OVC004 A3007 RMK AO1=
KDDH 081254Z AUTO 00000KT 5SM HZ CLR 26/21 A3007 RMK AO2 SLP175
     T02610211=
KDEC 081254Z 00000KT 7SM FEW007 SCT070 27/23 A3006 RMK AO2 SLP171
     T02670233=
KDYL 081254Z AUTO 00000KT 6SM HZ CLR 26/22 A3005 RMK AO2 SLP167
     T02610222 TSNO=
KDYR 081255Z AUTO 00000KT 10SM CLR 28/22 A3008 RMK AO1=
KIWD 081255Z AUTO 32005KT 10SM BKN060 19/16 A3003 RMK AO1=
KIZG 081254Z AUTO 09004KT 6SM HZ OVC012 25/21 A3010 RMK AO2 SLP189
     T02500206=
KJAC 081255Z AUTO 36003KT 10SM CLR 07/00 A3038 RMK AO1=
KJHW 081255Z AUTO 16003KT 10SM CLR 24/20 A3012 RMK AO1 54000=
KKLS 081255Z AUTO 32003KT 10SM CLR 14/13 A2994 RMK AO1=
KLAF 081254Z 24003KT 7SM CLR 26/22 A3004 RMK AO2 SLP166
     T02610222=
KLBL 081255Z 36014KT 5SM OVC005 19/17 A3023 RMK AO1 P0002=
KLBT 081254Z AUTO 04005KT 7SM CLR 28/20 A2995 RMK AO2 SLP141
     T02830200=
KLCI 081255Z AUTO 23004KT 5SM BKN013 OVC025 25/21 A3008 RMK
     AO1=
KLEW 081255Z 17004KT 1 3/4SM OVC003 21/20 A3012 RMK AO1=
KLGD 081255Z AUTO 33006KT 10SM CLR 09/06 A3007 RMK AO1=
KLKV 081255Z AUTO 32005KT 10SM CLR 11/01 A3013 RMK AO1=
KLNK 081254Z 36007KT 10SM CLR 19/17 A3017 RMK AO2 SLP209
     T01940172=
KLPC 081255Z AUTO 00000KT 7SM OVC008 13/11 A2993 RMK AO1 PNO=
KLWM 081254Z VRB04KT 10SM FEW019 BKN044 27/21 A3011 RMK AO2 SLP194
     T02670206=
KLWT 081254Z AUTO 13004KT 10SM CLR 10/06 A3027 RMK AO2 SLP229
     T01000061=
KMBL 081255Z AUTO 28007KT 4SM OVC005 22/20 A3003 RMK AO1 P0004=
KMFI 081254Z AUTO 33006KT 2SM BR OVC003 19/19 A3005 RMK AO2 SLP170
     T01940189=
KMGJ 081254Z AUTO 00000KT 7SM CLR 28/21 A3005 RMK AO2 SLP173
     T02780211=
KMIV 081254Z AUTO 11005KT 10SM FEW060 26/21 A3003 RMK AO2 SLP167
     T02560211=
KMJX 081255Z AUTO 10003KT FEW010 SCT060 BKN090 25/22 A3005 RMK
     AO1=
KMKC 081254Z 36003KT 10SM OVC008 23/21 A3009 RMK AO2 SLP180
     T02330211=
KMKT 081255Z 30004KT 10SM CLR 18/16 A3013 RMK AO1=
KMML 081255Z AUTO 28009KT 10SM CLR 19/14 A3015 RMK AO1=
KMNM 081255Z AUTO 34003KT 10SM FEW009 OVC015 22/19 A3001 RMK
     AO1=
KMOT 081254Z 23005KT 10SM FEW080 16/12 A3012 RMK AO2 SLP196
     T01560117=
KMRF 081255Z AUTO 01006KT 10SM CLR 17/15 A3020 RMK AO1=
KMRY 081254Z 28004KT 10SM OVC006 13/10 A2994 RMK AO2 SLP150
     T01280100=
KMSV 081255Z AUTO 01003KT 10SM CLR 27/20 A3011 RMK AO1=
KMTW 081255Z 23004KT 8SM BKN008 23/21 A3001 RMK AO1=
KMVL 081254Z AUTO VRB04KT 6SM HZ FEW055 27/22 A3007 RMK AO2 SLP178
     T02670222=
KMVN 081255Z AUTO 21006KT 9SM OVC065 27/23 A3006 RMK AO1=
KOFP 081254Z AUTO VRB03KT 5SM HZ CLR 29/22 A3002 RMK AO2 SLP163
     T02940217=
KOKK 081255Z AUTO 22004KT 5SM FEW060 SCT080 OVC090 26/19 A3005 RMK
     AO1 54000=
KOLM 081254Z AUTO 00000KT 10SM CLR 12/10 A2996 RMK AO2 SLP144
     T01170100=
KOLS 081254Z AUTO VRB03KT 10SM CLR 24/09 A3000 RMK AO2 SLP080
     T02390094=
KSTL 081251Z COR 24004KT 10SM FEW009 BKN025TCU BKN080 BKN150
     BKN250 26/23 A3007 RMK AO2 SLP168 TCU W-NE VCSH W-N
     T02610233=
KSUE 081255Z AUTO 29004KT 3SM OVC005 22/21 A3000 RMK AO1=
####018003740####
SAUS70 KWBC 081300 RRF
METAR
KDFW 081253Z 15004KT 4SM -RA BR BKN010 BKN026 OVC070 25/24 A3003
     RMK AO2 RAE08B46 SLP159 P0001 T02500239=
KDGW 081253Z AUTO 00000KT 2SM BR FEW001 07/06 A3036 RMK AO2 SLP257
     T00670061 $=
KDHN 081253Z 00000KT 10SM CLR 27/23 A3008 RMK AO2 SLP178
     T02670228=
KDKK 081253Z AUTO 21005KT 10SM CLR 29/19 A3006 RMK AO2 SLP173
     T02890189=
KDLN 081253Z AUTO 21008KT 10SM CLR 07/03 A3031 RMK AO2 SLP227
     T00720033=
KDNL 081253Z AUTO 31008KT 10SM CLR 31/17 A3002 RMK AO2 SLP160
     T03060172=
KDRO 081253Z AUTO 00000KT 10SM CLR 11/06 A3033 RMK AO2 SLP199
     T01110056=
KDTW 081253Z 21003KT 6SM HZ FEW150 28/21 A3003 RMK AO2 SLP163
     T02830211=
KDXR 081253Z 00000KT 1 3/4SM -RA BR OVC003 24/23 A3009 RMK AO2
     RAB35 SLP184 P0001 T02390233=
KDYB 081255Z AUTO 00000KT 10SM CLR 26/21 A2997 RMK AO1=
KEEO 081253Z AUTO 11003KT 10SM CLR 11/06 A3033 RMK AO2 SLP199
     T01060056 $=
KELM 081253Z 20004KT 6SM HZ CLR 24/20 A3008 RMK AO2 SLP179
     T02390200=
KEQY 081253Z AUTO 35004KT 8SM FEW090 29/19 A3001 RMK AO2 SLP157
     T02890189=
KEVW 081253Z AUTO 09011KT 10SM CLR 10/04 A3034 RMK AO2 SLP190
     T01000039 TSNO=
KHBR 081253Z AUTO 05005KT 3SM -RA BR OVC008 23/22 A3010 RMK AO2
     LTG DSNT W CIG 005V010 SLP176 P0026 T02280222=
KHFD 081253Z 16006KT 5SM HZ BKN014 27/23 A3006 RMK AO2 SLP180
     T02670228=
KHJO 081253Z AUTO 33006KT 10SM CLR 17/12 A2984 RMK AO2 SLP105
     T01720117=
KHLN 081253Z 00000KT 10SM CLR 10/04 A3026 RMK AO2 SLP240
     T01000039=
KHUF 081253Z 25005KT 9SM CLR 28/23 A3006 RMK AO2 SLP172 T02780233
     $=
KHUL 081253Z AUTO 17007KT 110V190 5SM HZ CLR 24/20 A3004 RMK AO2
     SLP170 T02390200=
KHVN 081253Z 11007KT 8SM BKN007 BKN015 OVC026 24/22 A3007 RMK AO2
     SLP184 T02440217=
KHWO 081253Z AUTO 08009KT 10SM FEW023 30/24 A2997 RMK AO2 SLP150
     T03000239=
KHZY 081253Z AUTO 19006KT 9SM CLR 26/20 A3009 RMK AO2 SLP181
     T02560200=
KIDA 081253Z 36008KT 10SM CLR 09/06 A3022 RMK AO2 SLP200
     T00940056=
KIML 081253Z AUTO 00000KT 10SM FEW027 BKN095 17/15 A3029 RMK AO2
     SLP239 T01720150=
KINK 081253Z AUTO 02006KT 10SM OVC023 22/20 A3010 RMK AO2 SLP150
     T02220200 TSNO=
KITR 081253Z AUTO 00000KT 10SM FEW032 OVC045 17/15 A3031 RMK AO2
     RAE53 SLP225 P0000 T01670150=
KIWI 081253Z AUTO VRB03KT 10SM BKN009 23/20 A3013 RMK AO2 CIG
     007V012 SLP200 T02330200=
KJER 081253Z AUTO 07011KT 10SM CLR 14/01 A3014 RMK AO2 SLP171
     T01390011=
KJKL 081253Z AUTO 00000KT 4SM HZ CLR 25/21 A3013 RMK AO2 SLP186
     T02500211=
KLAA 081253Z AUTO 10005KT 10SM -RA SCT016 OVC095 17/16 A3027 RMK
     AO2 SLP216 P0000 T01670156=
KLAR 081253Z AUTO 00000KT 6SM BR OVC004 08/08 A3041 RMK AO2 SLP232
     T00780078=
KLEB 081253Z 24004KT 5SM HZ OVC013 27/22 A3007 RMK AO2 SLP168
     T02670222=
KLEE 081253Z 06004KT 10SM CLR 26/22 A3003 RMK AO2 SLP167
     T02610217=
KLHQ 081253Z AUTO 00000KT 5SM HZ CLR 26/21 A3010 RMK AO2 SLP183
     T02610211=
KLHX 081253Z AUTO 00000KT 10SM CLR 16/14 A3030 RMK AO2 SLP213
     T01610144 PNO $=
KLNS 081253Z VRB03KT 4SM HZ CLR 28/22 A3003 RMK AO2 SLP166
     T02830217=
KLOU 081253Z 18003KT 5SM HZ CLR 27/22 A3007 RMK AO2 SLP176
     T02670217=
KLOZ 081253Z AUTO 00000KT 3SM HZ CLR 24/21 A3012 RMK AO2 RAB10E22
     SLP186 P0000 T02390206=
KLPR 081253Z AUTO 20004KT 8SM CLR 27/20 A3007 RMK AO2 SLP175
     T02720200=
KLUK 081253Z 00000KT 2SM HZ CLR 26/23 A3008 RMK AO2 SLP182
     T02560228=
KLVM 081253Z AUTO 31004KT 10SM CLR 07/04 A3031 RMK AO2 SLP238
     T00670039=
KEWB 081253Z 13007KT 10SM BKN006 OVC011 24/21 A3010 RMK AO2 SLP192
     T02390211=
####018003709####
SAUS80 KWBC 081300
METAR
KP69 081252Z AUTO 00000KT 11/10 A3014 RMK AO2 SLP193 T01060100
     PWINO TSNO $=
K9V9 081252Z AUTO 27009KT 17/13 A3020 RMK AO2 SLP217 T01670133
     PWINO TSNO=
KSDB 081252Z AUTO 29004KT 10SM CLR 21/M01 A3003 RMK AO2 SLP110
     T02061006 TSNO $=
KDMN 081253Z AUTO 05009KT 10SM CLR 22/13 A3014 RMK AO2 SLP124
     T02170128=
KDRT 081253Z AUTO 00000KT 8SM OVC015 24/23 A2997 RMK AO2 SLP133
     T02440228=
KEMP 081253Z AUTO 01005KT 10SM FEW009 BKN029 22/20 A3010 RMK AO2
     SLP185 T02220200=
KFAT 081253Z 31009KT 10SM CLR 19/09 A2984 RMK AO2 SLP099
     T01890094=
KFMN 081253Z 09005KT 10SM CLR 18/06 A3026 RMK AO2 SLP179
     T01780056=
KFNB 081253Z AUTO 36007KT 10SM BKN009 22/19 A3011 RMK AO2 CIG
     007V012 SLP187 T02170194=
KGEG 081253Z 04006KT 10SM CLR 16/08 A3008 RMK AO2 SLP168
     T01610083=
KCLL 081253Z 06008KT 7SM OVC007 26/23 A2997 RMK AO2 SLP145
     T02560228=
KCRP 081251Z 04008KT 5SM RA BR SCT022CB BKN040 BKN049 26/25 A2985
     RMK AO2 TSE18 SLP106 TS MOV W CB N MOV W P0002 T02610250
     $=
KCRQ 081253Z AUTO 00000KT 5SM HZ FEW007 OVC013 17/14 A2990 RMK AO2
     SLP124 T01670139=
KDBQ 081253Z 00000KT 6SM BR SCT005 SCT021 22/21 A3007 RMK AO2
     SLP178 T02170206=
KABI 081252Z 12003KT 7SM OVC008 22/21 A3008 RMK AO2 CIG 005V011
     SLP164 T02220211=
KBFF 081253Z AUTO 00000KT 10SM FEW042 BKN055 15/13 A3031 RMK AO2
     SLP235 T01500128=
KODX 081253Z AUTO 32003KT 10SM FEW090 17/16 A3022 RMK AO2 SLP229
     T01720161=
KORF 081251Z 07006KT 10SM -RA FEW016 BKN080 BKN100 27/21 A2999 RMK
     AO2 RAB38 SLP156 P0000 T02670211=
KGRR 081253Z 00000KT 2 1/2SM BR FEW006 SCT050 OVC130 24/22 A3004
     RMK AO2 SLP165 T02440222=
KHLC 081253Z AUTO 03003KT 10SM OVC029 19/15 A3023 RMK AO2 SLP221
     T01890150=
KHSI 081253Z AUTO 01004KT 10SM CLR 17/15 A3021 RMK AO2 SLP219
     T01670150=
KHSV 081253Z 04005KT 10SM FEW250 30/22 A3009 RMK AO2 SLP179
     T03000222 $=
KYKM 081253Z 29006KT 10SM CLR 12/08 A3003 RMK AO2 SLP162
     T01170078=
KSAN 081251Z 32004KT 8SM OVC015 16/14 A2993 RMK AO2 SLP133
     T01610139=
KSAT 081253Z 04006KT 8SM BKN013 BKN060 OVC250 26/24 A2995 RMK AO2
     RAE21 SLP124 P0000 T02560239=
KSEA 081253Z 35005KT 10SM CLR 18/12 A2997 RMK AO2 SLP151 T01780122
     $=
KSTC 081253Z 26004KT 10SM CLR 19/16 A3010 RMK AO2 SLP198
     T01940156=
KTUS 081253Z 15005KT 10SM CLR 28/10 A2993 RMK AO2 SLP078
     T02830100=
KJBR 081253Z AUTO 23005KT 10SM CLR 27/22 A3007 RMK AO2 SLP179
     T02720222 $=
KJLN 081253Z 33005KT 1/2SM VCTS FG BKN004 BKN010 OVC070 22/22
     A3008 RMK AO2 TSB22RAB15E22 SLP176 FRQ LTGCG VC P0037
     T02170217=
KLIT 081253Z 25003KT 10SM FEW008 BKN150 BKN250 25/23 A3009 RMK AO2
     SLP187 T02500233 $=
KLWD 081253Z AUTO 01007KT 10SM SCT007 21/20 A3011 RMK AO2 SLP189
     T02110200=
KPDX 081253Z 28003KT 10SM FEW080 17/13 A2991 RMK AO2 SLP128
     T01720128=
KPGA 081253Z AUTO 27003KT 10SM CLR 23/02 A3008 RMK AO2 SLP111
     T02330022=
KPOF 081253Z AUTO 23005KT 10SM CLR 27/24 A3006 RMK AO2 SLP172
     T02720239=
KPVD 081251Z 16006KT 10SM BKN100 24/20 A3011=
KRMG 081253Z AUTO 00000KT 10SM CLR 26/19 A3006 RMK AO2 SLP169
     T02560189=
KCZZ 081252Z AUTO 00000KT 08/07 A2989 RMK AO2 SLP097 T00780072
     PWINO TSNO=
KUIL 081253Z AUTO 00000KT 10SM CLR 14/10 A2995 RMK AO2 SLP142
     T01440100 TSNO=
KCQC 081253Z AUTO 08008KT 10SM CLR 11/09 A3038 RMK AO2 SLP229
     T01110094 TSNO=
KLND 081253Z AUTO 00000KT 10SM FEW120 10/04 A3035 RMK AO2 SLP231
     T01000044=
K6R6 081253Z AUTO 06006KT 22/19 A3004 RMK AO2 SLP136 T02220194
     PWINO TSNO=
####018000028####
SABX31 KWBC 081250
NIL=
####018000032####
SAAW41 KWBC 081250 RRD
NIL=
####018003719####
SAUS70 KWBC 081300 RRC
METAR
KHIO 081253Z 00000KT 10SM CLR 14/11 A2990 RMK AO2 SLP123
     T01390111=
KHJH 081250Z AUTO 02003KT 10SM BKN029 OVC036 20/17 A3018 RMK AO2
     T01950174=
KHKA 081253Z AUTO 23003KT 6SM HZ CLR 28/23 A3008 RMK AO2 SLP183
     T02780228=
KHKS 081253Z 06003KT 10SM CLR 27/23 A3008 RMK AO2 SLP176
     T02670228=
KHKY 081253Z 31005KT 10SM CLR 27/18 A3006 RMK AO2 SLP155 T02670183
     PNO=
KHLG 081253Z 00000KT 4SM HZ CLR 25/21 A3010 RMK AO2 SLP184
     T02500211=
KHOT 081253Z AUTO 00000KT 9SM OVC012 25/23 A3009 RMK AO2 SLP183
     T02500233=
KHOU 081253Z 08006KT 9SM -RA FEW010 BKN090 OVC110 24/22 A2995 RMK
     AO2 RAB00 SLP148 OCNL LTGIC NW-N P0008 T02440222=
KHQM 081253Z AUTO 27004KT 1/2SM FG 13/12 A2996 RMK AO2 SLP150
     T01280122 $=
KHRI 081253Z AUTO 17003KT 10SM CLR 11/07 A2997 RMK AO2 SLP144
     T01110072=
KHRO 081253Z AUTO 15003KT 10SM SCT046 BKN100 24/22 A3011 RMK AO2
     SLP179 T02390217=
KHYR 081253Z AUTO 00000KT 10SM CLR 20/16 A3009 RMK AO2 SLP184
     T02000156=
KTVC 081253Z 00000KT 7SM BKN014 OVC028 22/21 A3000 RMK AO2
     RAB07E50 SLP155 P0001 T02220211=
KTVR 081253Z AUTO 00000KT 10SM CLR 26/23 A3007 RMK AO2 SLP188
     T02560228=
KUAO 081253Z AUTO 00000KT 10SM CLR 17/12 A2992 RMK AO2 SLP131
     T01670122=
KUNO 081253Z AUTO 23006KT 10SM OVC080 24/22 A3011 RMK AO2 SLP180
     T02440217 TSNO=
KUTS 081253Z AUTO 09003KT 6SM BR BKN007 BKN100 24/23 A2999 RMK AO2
     CIG 005V009 SLP152 T02440233=
KVCB 081253Z AUTO 23004KT 10SM CLR 15/10 A2984 RMK AO2 SLP102
     T01500100=
KVGT 081253Z 00000KT 10SM CLR 26/M04 A2987 RMK AO2 SLP077
     T02561044=
KVIH 081253Z AUTO 00000KT 8SM -RA OVC015 24/22 A3007 RMK AO2 RAB36
     SLP171 P0001 T02390222=
KVPC 081253Z AUTO 00000KT 8SM CLR 24/21 A3007 RMK AO2 SLP169
     T02390206=
KVPZ 081253Z AUTO 10005KT 3SM BR SCT050 OVC090 24/23 A3004 RMK AO2
     SLP167 T02390228=
KVUO 081253Z AUTO 00000KT 10SM CLR 16/13 A2991 RMK AO2 SLP127
     T01560133=
KWVI 081253Z AUTO 00000KT 10SM OVC007 13/11 A2994 RMK AO2 SLP138
     T01280111=
KXNA 081253Z 17005KT 10SM OVC019 23/22 A3009 RMK AO2 RAB13E22
     SLP174 P0000 T02330217=
KRWF 081253Z AUTO 30005KT 10SM CLR 19/15 A3014 RMK AO2 SLP202
     T01890150=
KRWI 081253Z AUTO 03006KT 5SM HZ CLR 27/21 A2999 RMK AO2 SLP152
     T02720211=
KSAC 081253Z 18003KT 10SM CLR 13/10 A2985 RMK AO2 SLP108
     T01330100=
KSAF 081253Z AUTO 31003KT 10SM CLR 14/11 A3034 RMK AO2 SLP194
     T01390111=
KSBA 081253Z 00000KT 9SM OVC011 14/12 A2991 RMK AO2 SLP127
     T01440122 $=
KSBM 081253Z AUTO 23004KT 10SM 23/21 A3001 RMK AO2 SLP159
     T02280211 $=
KSDL 081253Z 00000KT 10SM CLR 29/06 A2983 RMK AO2 SLP070
     T02890061=
KSFF 081253Z 00000KT 10SM CLR 13/11 A3008 RMK AO2 SLP172
     T01330106=
KSIY 081253Z AUTO 00000KT 10SM CLR 15/07 A2999 RMK AO2 SLP138
     T01500072 $=
KSJC 081253Z 00000KT 7SM FEW008 BKN011 OVC013 15/12 A2992 RMK AO2
     SLP132 T01500117=
KSLN 081253Z 35011KT 5SM BR OVC006 21/19 A3014 RMK AO2 CIG 004V008
     SLP194 T02110194=
KSMF 081253Z 15008KT 10SM CLR 13/11 A2984 RMK AO2 SLP103
     T01330106=
KSNA 081253Z 00000KT 8SM OVC015 18/13 A2991 RMK AO2 SLP126
     T01830128=
KSNS 081253Z 28003KT 8SM OVC009 13/11 A2993 RMK AO2 SLP144
     T01280106=
KSPB 081253Z AUTO 23003KT 9SM CLR 14/12 A2990 RMK AO2 SLP125
     T01390117 $=
KSPW 081253Z AUTO 30006KT 10SM CLR 19/16 A3017 RMK AO2 SLP211
     T01890161=
KSSF 081253Z 05007KT 10SM FEW010 SCT017 BKN028 27/23 A2993 RMK AO2
     SLP122 T02670233=
KSTJ 081253Z 01008KT 9SM OVC009 23/21 A3009 RMK AO2 CIG 006V013
     SLP182 T02280206=
####018003716####
SAUS70 KWBC 081300 RRH
METAR
KBBW 081253Z AUTO 00000KT 10SM SCT090 SCT120 18/16 A3024 RMK AO2
     SLP227 T01780161=
KBCE 081253Z AUTO 00000KT 10SM SCT120 11/02 A3034 RMK AO2 SLP158
     T01110017 TSNO=
KBDN 081255Z AUTO 21006KT 10SM CLR 12/03 A3012 RMK AO2=
KBGM 081253Z 00000KT 5SM HZ CLR 26/20 A3013 RMK AO2 SLP188
     T02560200=
KBGR 081253Z 19008KT 160V240 10SM BKN009 23/20 A3010 RMK AO2 CIG
     006V012 SLP190 T02280200=
KBHK 081253Z AUTO 25007KT 10SM CLR 16/09 A3022 RMK AO2 SLP219
     T01560094=
KBKL 081253Z 19006KT 6SM HZ FEW065 28/18 A3005 RMK AO2 SLP169
     T02830183=
KBMG 081253Z 24004KT 10SM CLR 27/23 A3006 RMK AO2 SLP171
     T02670228=
KBOI 081253Z 14004KT 10SM CLR 17/06 A3008 RMK AO2 SLP158
     T01670061=
KBPI 081253Z AUTO 00000KT 10SM BKN100 08/02 A3041 RMK AO2 SLP215
     T00780017=
KBTM 081253Z AUTO 00000KT 10SM CLR 06/01 A3033 RMK AO2 SLP240
     T00560006=
KBVY 081253Z 18009KT 10SM CLR 24/19 A3009 RMK AO2 SLP185 T02440194
     PNO=
KBYG 081253Z AUTO 25007KT 10SM CLR 14/03 A3031 RMK AO2 SLP223
     T01390028=
KBYI 081253Z AUTO VRB03KT 10SM CLR 11/05 A3015 RMK AO2 SLP175
     T01060050=
KCAG 081253Z AUTO 00000KT 10SM BKN110 09/07 A3034 RMK AO2 SLP225
     T00940067=
KCDC 081253Z AUTO 17003KT 10SM CLR 15/03 A3017 RMK AO2 SLP136
     T01500028 $=
PHJR 081253Z 00000KT 10SM SCT060 22/17 A3001 RMK AO2 SLP170
     T02220172=
KSPG 081253Z 08005KT 10SM CLR 27/22 A3000 RMK AO2 SLP159
     T02720222=
KSPL 081255Z AUTO 35007KT 28/25 A2976 RMK AO2 PWINO PNO=
KSRQ 081253Z 08004KT 10SM CLR 27/23 A2999 RMK AO2 SLP156
     T02670228=
KTDZ 081253Z AUTO 24004KT 10SM FEW080 28/21 A3005 RMK AO2 SLP169
     T02780206=
KTHV 081253Z AUTO 10003KT 5SM HZ CLR 28/22 A3003 RMK AO2 SLP168
     T02780217=
KTMB 081253Z 05004KT 10SM CLR 29/25 A2996 RMK AO2 SLP144
     T02940250=
KTOI 081253Z 00000KT 9SM CLR 26/23 A3005 RMK AO2 SLP169
     T02560233=
KTOR 081253Z AUTO 00000KT 10SM BKN026 11/10 A3031 RMK AO2 SLP241
     T01110100=
KTPA 081253Z 00000KT 10SM FEW200 27/21 A3002 RMK AO2 SLP164
     T02670211=
KTTN 081253Z 18004KT 2SM HZ BKN011 27/23 A3004 RMK AO2 SLP166
     T02670228=
KTVL 081253Z AUTO 00000KT 10SM CLR 08/05 A3017 RMK AO2 SLP161
     T00830050=
KTWF 081253Z 10011KT 10SM CLR 16/01 A3014 RMK AO2 SLP152
     T01610006=
KUTA 081255Z AUTO 00000KT 10SM CLR 26/22 A3008 RMK AO2=
KUUU 081253Z AUTO VRB03KT 10SM OVC003 22/21 A3011 RMK AO2 SLP196
     T02220211=
KVEL 081253Z AUTO 00000KT 10SM CLR 16/06 A3026 RMK AO2 SLP186
     T01560061=
KVLD 081253Z 00000KT 10SM CLR 27/21 A3003 RMK AO2 SLP175
     T02670211=
KVRB 081253Z 04007KT 10SM CLR 28/21 A2999 RMK AO2 SLP154
     T02780206=
KWRL 081253Z AUTO 24003KT 10SM CLR 11/05 A3029 RMK AO2 SLP228
     T01110050=
KWST 081253Z AUTO 09005KT 9SM BKN006 23/21 A3010 RMK AO2 CIG
     003V008 SLP191 T02330211=
KYIP 081253Z 24003KT 10SM CLR 28/21 A3005 RMK AO2 SLP165 T02830206
     $=
KZZV 081253Z AUTO 00000KT 6SM HZ SCT065 24/21 A3010 RMK AO2 SLP182
     T02440211=
KOSU 081253Z 00000KT 5SM HZ CLR 27/21 A3009 RMK AO2 SLP181
     T02720211=
KOWD 081253Z 18007KT 10SM CLR 26/19 A3010 RMK AO2 SLP191
     T02610189=
KOXB 081253Z AUTO 07006KT 10SM FEW090 27/24 A3002 RMK AO2 SLP167
     T02670244=
KPBG 081253Z AUTO 12005KT 6SM HZ CLR 27/22 A3001 RMK AO2 SLP161
     T02670222=
KPBI 081253Z 00000KT 7SM -RA FEW012 BKN022CB BKN055 27/26 A2996
     RMK AO2 SLP144 CB OHD-E-S MOV SW P0016 T02670261 $=
KPEO 081253Z AUTO 23005KT 6SM HZ CLR 26/21 A3009 RMK AO2 SLP179
     T02610211=
KPGD 081253Z AUTO 07007KT 10SM CLR 26/23 A3002 RMK AO2 SLP165
     T02610228 TSNO=
####018003696####
SAUS70 KWBC 081300 RRA
METAR
KCNM 081253Z AUTO 33009KT 9SM -RA OVC013 19/18 A3015 RMK AO2
     SLP160 P0007 T01940183=
KCNO 081253Z AUTO 23004KT 4SM BR OVC011 15/13 A2992 RMK AO2 SLP128
     T01500128=
KCOT 081253Z AUTO 03005KT 10SM -RA FEW017 BKN034 OVC060 25/23
     A2990 RMK AO2 RAB38 SLP118 P0001 T02500233=
KCPS 081253Z 00000KT 10SM BKN041 25/23 A3005 RMK AO2 RAB12E23
     SLP173 P0000 T02500228=
KCXO 081253Z VRB03KT 9SM CLR 24/23 A2998 RMK AO2 LTG DSNT S SLP149
     T02440233=
KDAG 081253Z AUTO 26008KT 10SM CLR 22/02 A2988 RMK AO2 SLP089
     T02170017 TSNO $=
KDAN 081253Z AUTO 03006KT 4SM HZ CLR 31/19 A3002 RMK AO2 SLP153
     T03060194=
KDCU 081253Z AUTO 01003KT 10SM CLR 28/22 A3009 RMK AO2 SLP181
     T02830217=
KDEW 081253Z AUTO 02006KT 10SM CLR 15/08 A3008 RMK AO2 SLP174
     T01500078=
K1F0 081249Z AUTO 00000KT 24/24 A3002 RMK AO2 PWINO=
KPMV 081250Z AUTO 34004KT 10SM CLR 21/20 A3015 RMK AO2
     T02070196=
KABR 081253Z AUTO 27003KT 10SM CLR 19/15 A3014 RMK AO2 SLP199
     T01940150=
KACV 081253Z AUTO 00000KT 10SM OVC003 10/09 A2996 RMK AO2 SLP151
     T01000094=
KAEX 081253Z AUTO 00000KT 10SM FEW006 26/24 A3004 RMK AO2 SLP173
     T02560239=
KAGS 081253Z 31004KT 10SM CLR 31/20 A3000 RMK AO2 SLP156
     T03060200=
KALI 081253Z AUTO 03008KT 10SM -RA BKN006 BKN015 OVC027 25/24
     A2985 RMK AO2 RAB48 CIG 004V009 SLP105 P0000 T02500244=
KALW 081253Z AUTO 13004KT 10SM CLR 17/07 A3000 RMK AO2 SLP149
     T01670072=
KAMA 081253Z 01011KT 7SM BKN005 OVC010 18/17 A3022 RMK AO2 CIG
     004V008 SLP185 T01780167 $=
KAMW 081253Z AUTO 35009KT 9SM CLR 21/18 A3013 RMK AO2 SLP195
     T02060183=
KANB 081253Z AUTO 00000KT 9SM CLR 25/21 A3007 RMK AO2 SLP171
     T02500206=
KAOO 081253Z AUTO 00000KT 4SM HZ CLR 26/18 A3011 RMK AO2 SLP184
     T02560178=
KARA 081253Z 07006KT 4SM BR OVC003 26/25 A3003 RMK AO2 CIG 002V006
     SLP167 T02560250=
KASD 081253Z AUTO 00000KT 10SM FEW001 26/25 A3004 RMK AO2 SLP171
     T02610250=
KASX 081253Z AUTO 25005KT 10SM CLR 20/17 A3006 RMK AO2 SLP177
     T02000167=
KATY 081253Z AUTO 23003KT 10SM CLR 18/14 A3015 RMK AO2 SLP205
     T01780144=
KAUN 081250Z AUTO 00000KT 10SM CLR 21/14 A2988 RMK AO1=
KAUS 081253Z 05008KT 8SM FEW008 BKN024 OVC043 26/24 A2997 RMK AO2
     SLP136 T02560239=
KAWM 081253Z AUTO 00000KT 10SM CLR 27/22 A3007 RMK AO2 SLP177
     T02720222=
KAXN 081253Z AUTO 28007KT 10SM CLR 19/16 A3013 RMK AO2 SLP199
     T01940156=
KAZO 081253Z VRB03KT 5SM HZ CLR 26/21 A3004 RMK AO2 SLP166
     T02610211=
KBDE 081253Z AUTO 25004KT 10SM CLR 17/13 A3001 RMK AO2 SLP161
     T01720128=
KBEH 081253Z AUTO 13004KT 9SM FEW043 BKN065 OVC080 24/22 A3003 RMK
     AO2 LTG DSNT SE SLP164 T02390217 $=
KBFD 081253Z AUTO 00000KT 8SM CLR 24/18 A3015 RMK AO2 SLP193
     T02440183=
KBFI 081253Z 00000KT 10SM CLR 18/12 A2995 RMK AO2 SLP143
     T01830122=
KBFM 081253Z 29003KT 10SM CLR 27/25 A3006 RMK AO2 SLP177
     T02720250=
KBHM 081253Z 00000KT 10SM CLR 28/22 A3008 RMK AO2 SLP177
     T02780217=
KBIE 081250Z AUTO 36008KT 10SM CLR 19/18 A3016 RMK AO2
     T01920178=
KBIV 081253Z AUTO 13005KT 4SM BR SCT001 SCT046 24/22 A3002 RMK AO2
     SLP161 T02440222=
KBKE 081253Z AUTO 00000KT 10SM CLR 06/06 A3013 RMK AO2 SLP186
     T00610056=
KBLI 081253Z AUTO 00000KT 10SM CLR 14/13 A2997 RMK AO2 SLP155
     T01440128=
KMCB 081253Z AUTO 05004KT 10SM CLR 26/23 A3007 RMK AO2 SLP176
     T02560233=
KMCE 081253Z AUTO 32005KT 10SM CLR 16/10 A2983 RMK AO2 SLP101
     T01610100=
KMCI 081253Z 02005KT 3/4SM BR OVC002 23/22 A3009 RMK AO2 SFC VIS 2
     SLP181 T02280222=
####018003678####
SAUS70 KWBC 081300 RRJ
METAR
KMTH 081253Z AUTO 04006KT 10SM FEW090 A2995 RMK AO2 LTG DSNT NE
     UPE27RAB18E28 SLP143 P0000 FZRANO $=
KMTJ 081253Z AUTO 15003KT 10SM CLR 15/05 A3028 RMK AO2 SLP181
     T01500050=
KMVY 081253Z 16011KT 10SM CLR 26/21 A3010 RMK AO2 SLP192
     T02560206=
KMWA 081253Z 23005KT 15SM BKN070 BKN250 27/24 A3007=
KMWL 081253Z AUTO 12006KT 10SM SCT022 BKN031 24/23 A3003 RMK AO2
     SLP154 T02440228 $=
KODO 081253Z AUTO 03010G18KT 5SM BR OVC003 21/20 A3013 RMK AO2 CIG
     003V008 SLP163 T02110200=
KOGB 081253Z AUTO 33005KT 10SM CLR 27/20 A2999 RMK AO2 SLP153
     T02720200=
KOGD 081253Z 20004KT 10SM CLR 18/06 A3013 RMK AO2 SLP145
     T01830061=
KOLF 081253Z AUTO 00000KT 10SM CLR 13/09 A3017 RMK AO2 SLP213
     T01330094=
KONO 081253Z AUTO 27003KT 10SM CLR 11/06 A3008 RMK AO2 SLP174
     T01110056=
KOPF 081253Z 06009KT 10SM FEW023 29/24 A2996 RMK AO2 SLP146
     T02890244=
KORL 081253Z 02004KT 10SM CLR 26/21 A3002 RMK AO2 SLP166
     T02610211=
KOLU 081255Z AUTO 00000KT 10SM FEW100 18/15 A3020 RMK AO1=
KOTG 081255Z AUTO 30006KT 10SM CLR 18/16 A3017 RMK AO1=
KOTH 081255Z 23003KT 10SM OVC006 09/08 A3000 RMK AO1=
KPHF 081254Z 11005KT 10SM CLR 27/23 A3001 RMK AO2 SLP160
     T02670228=
KPHL 081254Z 13004KT 4SM HZ SCT008 BKN110 BKN250 27/23 A3004 RMK
     AO2 SLP172 T02670228=
KPIB 081255Z AUTO 01005KT 10SM CLR 27/22 A3007 RMK AO1=
KPIL 081253Z AUTO 34005KT 10SM FEW042 28/26 A2976 RMK AO2 SLP078
     T02780256=
KPLN 081254Z AUTO 26004KT 6SM -RA BR OVC007 22/21 A3000 RMK AO2
     RAB05 CIG 005V011 SLP155 P0001 T02170206=
KPQI 081255Z AUTO 14008KT 10SM CLR 24/20 A3000 RMK AO1=
KPSF 081254Z AUTO 00000KT 5SM HZ CLR 25/21 A3009 RMK AO2 SLP157
     T02500211=
KPTN 081255Z AUTO 08006KT 10SM FEW006 26/M07 A3004 RMK AO1=
KPTV 081255Z AUTO 17004KT 10SM CLR 17/11 A2986 RMK AO1=
KPTW 081254Z AUTO VRB03KT 5SM HZ CLR 29/21 A3005 RMK AO2 SLP171
     T02940211=
KPVC 081255Z 17009KT 10SM FEW012 25/21 A3012 RMK AO1=
KPVU 081255Z 17005KT 10SM CLR 18/07 A3016 RMK AO1=
KPWT 081255Z AUTO 02008KT 10SM CLR 22/07 A2998 RMK AO1=
KRBL 081254Z AUTO 18003KT 10SM CLR 21/14 A2985 RMK AO2 SLP103
     T02060139=
KRDG 081254Z 00000KT 7SM CLR 28/21 A3003 RMK AO2 SLP170
     T02830211=
KRKD 081255Z AUTO 22008KT 2SM OVC002 19/18 A3013 RMK AO1=
KRKS 081254Z AUTO 05007KT 10SM FEW120 09/06 A3036 RMK AO2 SLP221
     T00890061=
KRST 081254Z 34010KT 10SM CLR 20/18 A3013 RMK AO2 SLP199
     T02000178=
KRUT 081255Z AUTO 00000KT 7SM CLR 26/21 A3006 RMK AO1=
KSBY 081254Z 09007KT 10SM CLR 26/22 A3003 RMK AO2 SLP171
     T02610217=
KSDY 081255Z AUTO 18003KT 10SM SCT080 13/10 A3018 RMK AO1=
KSET 081254Z AUTO 00000KT 7SM -RA OVC004 25/24 A3005 RMK AO2
     TSB1156E11RAB1157E16B49 SLP169 P0000 T02500239=
KSFM 081255Z 15006KT 5SM OVC008 24/19 A3011 RMK AO1=
KSFZ 081255Z AUTO 13007KT 10SM OVC013 24/21 A3010 RMK AO1=
KSGT 081255Z 00000KT 7SM CLR A3008 RMK AO1=
KSGU 081255Z AUTO 03006KT 10SM CLR 22/03 A2999 RMK AO1=
KSJN 081254Z AUTO 14006KT 10SM CLR 21/06 A3019 RMK AO2 SLP120
     T02110061=
KSKX 081255Z AUTO 36006KT 10SM CLR 12/06 A3040 RMK AO1=
KSLG 081255Z AUTO 13003KT 10SM BKN017 OVC038 23/21 A3009 RMK AO1
     LTG DSNT N=
KSMN 081255Z AUTO 00000KT 10SM CLR 07/02 A3028 RMK AO1=
KSQI 081255Z 28004KT 8SM FEW006 OVC017 23/22 A3006 RMK AO1
     P0001=
KEEN 081255Z AUTO 20010KT 10SM FEW016 SCT023 BKN110 26/22 A3009
     RMK AO1=
KEHR 081255Z AUTO 19003KT 10SM CLR 28/22 A3007 RMK AO1=
KENV 081255Z 20004KT 10SM CLR 17/01 A3011 RMK AO1=
KESC 081255Z AUTO 32005KT 10SM OVC004 20/17 A2999 RMK AO1=
####018003701####
SAUS70 KWBC 081300 RRM
METAR
KSUN 081253Z 29010G14KT 30SM SKC 10/01 A3025=
KSUN 081251Z AUTO 31007KT 10SM CLR 10/00 A3026 RMK AO2=
KSWF 081254Z VRB04KT 4SM HZFT BKN100 27/22 A3008=
KSZT 081250Z AUTO 00000KT 10SM CLR 10/08 A3012 RMK AO2=
KTAD 081254Z AUTO 30003KT 10SM CLR 14/13 A3035 RMK AO2 SLP226
     T01440128=
KTIF 081250Z AUTO 30003KT 10SM BKN120 17/15 A3028 RMK AO2
     T01650147=
KTQE 081254Z AUTO 36007KT 10SM CLR 20/17 A3017 RMK AO2 SLP204
     T02000172=
KTRK 081250Z AUTO 00000KT 10SM CLR 08/06 A3017 RMK AO2=
KTVF 081255Z AUTO 26007KT 10SM CLR 17/13 A3006 RMK AO1=
KUIN 081254Z AUTO 30006KT 10SM BKN005 OVC010 23/22 A3007 RMK AO2
     CIG 003V008 SLP177 T02280222=
KUZA 081254Z AUTO 36004KT 8SM CLR 28/19 A3003 RMK AO2 SLP154
     T02780194=
KVBT 081255Z AUTO 16003KT 10SM OVC020 24/21 A3006 RMK AO1 LTG DSNT
     NW=
KVIS 081255Z AUTO 00000KT 10SM CLR 18/11 A2983 RMK AO1=
KVSF 081254Z AUTO 00000KT 5SM HZ OVC012 24/22 A3009 RMK AO2 SLP186
     T02440217=
KVTA 081254Z AUTO 00000KT 6SM HZ CLR 25/21 A3009 RMK AO2 SLP180
     T02500206=
KWLD 081254Z AUTO 03005KT 10SM CLR 23/21 A3010 RMK AO2 SLP182
     T02280206=
KWVL 081255Z AUTO 19003KT 4SM OVC004 21/19 A3007 RMK AO1=
KWWD 081255Z AUTO 7SM FEW048 SCT060 OVC090 24/24 A3004 RMK AO1=
KYKN 081255Z AUTO 25004KT 10SM CLR 19/16 A3020 RMK AO1=
PAAQ 081253Z AUTO 12008KT 10SM CLR 13/08 A2999 RMK AO2 RAB28E38
     SLP152 P0000 T01280083 TSNO=
PABR 081253Z 24017KT 10SM FEW150 SCT190 SCT250 07/03 A2997 RMK AO2
     SLP150 T00670028 $=
PACV 081253Z 15010G17KT 10SM BKN031 OVC041 11/10 A3009 RMK AO2
     SLP190 T01110100=
PADE 081253Z AUTO 21004KT 10SM CLR 04/03 A3013 RMK AO2 SLP202
     T00390028 TSNO=
PAEG 081253Z AUTO 00000KT 10SM CLR 04/03 A3005 RMK AO2 SLP180
     T00390028 TSNO=
PAEN 081253Z AUTO 04011KT 10SM BKN100 14/12 A2993 RMK AO2 SLP135
     T01390117 TSNO=
PAGK 081253Z AUTO 36003KT 10SM SCT110 07/05 A3006 RMK AO2 SLP183
     T00670050 TSNO=
PAGY 081253Z AUTO 00000KT 10SM CLR 09/09 A3019 RMK AO2 SLP224
     T00940089 TSNO=
PAIL 081253Z AUTO 36003KT 1/2SM -RA FG FEW025 OVC070 08/08 A2994
     RMK AO2 RAB34 SLP140 P0000 T00780078 TSNO=
PAKT 081253Z AUTO VRB03KT 10SM CLR 16/11 A3008 RMK AO2 SLP185
     T01610111 TSNO=
PAKV 081253Z AUTO 00000KT 10SM CLR 06/05 A3010 RMK AO2 SLP195
     T00560050 TSNO=
PAKW 081253Z AUTO 00000KT 10SM CLR 12/10 A3013 RMK AO2 SLP202
     T01220100 TSNO=
PALH 081253Z 16003KT 10SM -RA OVC085 13/11 A2999 RMK AO2 SLP155
     P0001 T01330111=
PAMR 081253Z 00000KT 10SM -RA FEW060 SCT075 BKN085 BKN200 12/11
     A2997 RMK AO2 RAB1154 SLP151 P0000 T01220106 $=
PAPB 081253Z AUTO 08015KT 10SM OVC046 07/05 A2990 RMK AO2 SLP113
     T00720050 TSNO=
PHMK 081254Z AUTO 05006KT 10SM BKN050 22/18 A3002 RMK AO2 SLP167
     T02170178 TSNO=
PASC 081253Z 24012KT 10SM OVC230 08/05 A3003 RMK AO2 SLP170
     T00830050=
PASI 081253Z 00000KT 1/4SM FG VV001 12/12 A3017 RMK AO2 SLP215
     T01220117=
PASO 081253Z AUTO 00000KT 10SM FEW003 OVC110 09/09 A2991 RMK AO2
     RAE1159 SLP129 P0000 T00940094 TSNO=
PATO 081253Z AUTO 09017G37KT 10SM -RA FEW020 BKN027 OVC035 12/10
     A2999 RMK AO2 PK WND 09042/1221 SLP157 P0006 T01220100 TSNO
     $=
PAWD 081253Z AUTO 36003KT 10SM FEW014 OVC060 09/09 A2996 RMK AO2
     SLP146 T00940089 TSNO=
KBAF 081253Z 16004KT 4SM HZ OVC011 24/22 A3008 RMK AO2 SLP183
     T02440217=
KBUR 081253Z 35005KT 6SM HZ OVC007 16/13 A2990 RMK AO2 SLP115
     T01560128=
PHJR 081253Z 00000KT 10SM SCT060 22/17 A3001 RMK AO2 SLP170
     T02220172=
TIST 081253Z 09012KT 10SM CLR 30/24 A3000 RMK AO2 SLP160
     T03000244=
####018003744####
SAUS80 KWBC 081300 RRA
METAR
KBNO 081253Z AUTO 35003KT 10SM CLR 06/M01 A3015 RMK AO2 SLP181
     T00611006 TSNO=
KCTY 081253Z AUTO VRB03KT 25/23 A3002 RMK AO2 SLP166 T02500233
     PWINO TSNO $=
KMSN 081253Z VRB03KT 6SM BR OVC006 22/21 A3004 RMK AO2 CIG 004V009
     SLP167 T02170206=
KMWT 081253Z AUTO 00000KT 10SM CLR 25/23 A3007 RMK AO2 SLP171
     T02500233 TSNO=
KSAV 081253Z 29007KT 10SM CLR 27/20 A3000 RMK AO2 SLP158 T02670200
     $=
KELY 081253Z AUTO 17008KT 10SM CLR 06/M03 A3024 RMK AO2 SLP148
     T00611028 $=
KCHA 081253Z 00000KT 10SM CLR 27/19 A3009 RMK AO2 SLP180
     T02670194=
KHTL 081253Z AUTO 24005KT 4SM -RA BR FEW010 BKN019 OVC070 22/21
     A3005 RMK AO2 RAB14 SLP170 P0002 T02220211=
KP92 081253Z AUTO VRB04KT 27/26 A3000 RMK AO2 SLP158 T02670256
     PWINO TSNO=
KOQT 081253Z AUTO 00000KT 5SM HZ CLR 26/21 A3011 RMK AO2 SLP177
     T02560211 TSNO=
KLAX 081253Z 00000KT 7SM BCFG OVC012 16/13 A2991 RMK AO2 SLP127
     T01610128=
KJAN 081254Z 00000KT 10SM CLR 26/23 A3007 RMK AO2 SLP178
     T02610233=
KCNY 081253Z AUTO 14003KT 10SM CLR 21/05 A3014 RMK AO2 SLP142
     T02110050=
KHVR 081253Z AUTO 24003KT 10SM CLR 10/09 A3021 RMK AO2 SLP223
     T01000089=
KLAN 081253Z 21004KT 9SM FEW120 SCT200 26/21 A3005 RMK AO2 SLP168
     T02560211 $=
KLBB 081253Z 06006KT 10SM FEW040 SCT055 BKN110 BKN250 20/17 A3016
     RMK AO2 SLP169 T02000172=
KFNT 081253Z AUTO 00000KT 9SM CLR 27/21 A3004 RMK AO2 SLP167
     T02720211=
KGCC 081253Z AUTO 15004KT 10SM CLR 12/08 A3030 RMK AO2 SLP229
     T01220083=
KBIL 081253Z 23005KT 10SM FEW120 13/06 A3026 RMK AO2 SLP227
     T01280056=
KCDR 081253Z AUTO 24004KT 10SM CLR 12/10 A3030 RMK AO2 SLP252
     T01220100=
PHTO 081253Z 22006KT 10SM RA FEW020 BKN026 OVC034 21/19 A3002 RMK
     AO2 RAB04 SLP164 P0011 T02110194=
PHKO 081253Z AUTO 12006KT 10SM BKN065 23/18 A2996 RMK AO2 SLP144
     T02330178 TSNO=
PHLI 081253Z 06014KT 10SM FEW027 OVC060 24/18 A3004 RMK AO2 SLP168
     T02410178 $=
KBTV 081254Z 19004KT 7SM CLR 28/22 A3002 RMK AO2 SLP163
     T02830217=
KNUI 081253Z AUTO 09008KT 6SM HZ SCT013 BKN019 27/24 A3001 RMK AO2
     SLP161 T02720239=
KTCS 081253Z AUTO 36005KT 10SM SCT100 18/14 A3021 RMK AO2 SLP162
     T01830139 TSNO=
KTLH 081253Z 33006KT 10SM BCFG CLR 27/23 A3004 RMK AO2 SLP170
     T02670233=
KLXV 081253Z AUTO 00000KT 10SM OVC004 06/05 A3052 RMK AO2 SLP214
     T00560050 TSNO=
KCUT 081253Z AUTO 00000KT 10SM CLR 10/08 A3036 RMK AO2 SLP242
     T01000078 TSNO=
KRQE 081253Z AUTO 11003KT 10SM CLR 16/07 A3029 RMK AO2 SLP130
     T01610067 TSNO=
KSAN 081251Z 32004KT 8SM OVC015 16/14 A2993 RMK AO2 SLP133
     T01610139=
KFAR 081253Z 23005KT 10SM CLR 18/13 A3008 RMK AO2 SLP185
     T01830133=
KRIW 081253Z AUTO 00000KT 10SM CLR 11/06 A3035 RMK AO2 SLP230
     T01110061=
KMLU 081253Z 09004KT 10SM CLR 26/24 A3008 RMK AO2 SLP184
     T02610239=
KSDM 081253Z AUTO 00000KT 10SM OVC010 16/13 A2991 RMK AO2 SLP125
     T01610133 TSNO=
K40J 081253Z AUTO 33003KT 24/22 A3003 RMK AO2 SLP167 T02440217
     PWINO TSNO=
KORH 081254Z 19005KT 10SM OVC011 24/21 A3013 RMK AO2 SLP195
     T02390206=
KPIA 081254Z 30004KT 10SM OVC006 23/22 A3005 RMK AO2 CIG 004V009
     SLP170 T02330217=
KSOW 081250Z AUTO 21003KT 10SM OVC110 19/04 A3026 RMK AO2=
KGPZ 081255Z AUTO 27006KT 10SM CLR 18/14 A3007 RMK AO1=
KCOS 081254Z 11004KT 10SM CLR 13/12 A3036 RMK AO2 SLP229
     T01330117=
KCRW 081254Z 00000KT 3SM HZ CLR 24/21 A3010 RMK AO2 SLP182 VIS N 2
     T02390206=
KDSM 081254Z 34008KT 10SM FEW009 BKN250 22/19 A3011 RMK AO2 SLP190
     T02220189=
KDVL 081255Z AUTO 30007KT 10SM FEW085 17/12 A3010 RMK AO1=
####018000085####
SAAT31 TRPG 081257
METAR TRPG 081300Z 09015KT 9999 SCT020 29/24 Q1016 RMK SLT HZ=
####018000113####
SAUS70 KWBC 081300 RRN
METAR
TISX 081253Z 09011KT 10SM SCT022 29/24 A3000 RMK AO2 SLP158
     T02940239=
####018001736####
SAEW KAWN 081300 RRA
METAR EDAC 081250Z 22005KT 160V250 CAVOK 27/12 Q1021=
METAR EDFH 081250Z 16006KT 050V210 CAVOK 28/12 Q1021=
METAR EDHI 081250Z 23009KT 190V270 CAVOK 30/11 Q1019=
METAR EDHL 081250Z 22008KT 170V280 CAVOK 30/14 Q1019=
METAR EDLN 081250Z 26005KT 200V310 CAVOK 31/10 Q1019=
METAR EDLP 081250Z VRB04KT CAVOK 30/10 Q1020=
METAR EDLW 081250Z VRB05KT CAVOK 30/10 Q1020=
METAR EDMA 081250Z VRB02KT 170V170 CAVOK 26/09 Q1022=
METAR EDMO 081250Z 01006KT 320V040 CAVOK 25/09 Q1022=
METAR EDNY 081250Z 18005KT CAVOK 28/11 Q1021=
METAR EDOP 081250Z 18008KT 120V230 CAVOK 30/09 Q1020=
METAR EDQM 081250Z VRB03KT CAVOK 24/07 Q1023=
METAR EDSB 081250Z 34006KT 260V060 CAVOK 31/12 Q1020=
METAR EDTL 081250Z 26005KT 180V320 CAVOK 30/07 Q1019=
METAR EDVK 081250Z 22005KT 170V270 CAVOK 27/09 Q1021=
METAR EDXW 081250Z 23008KT 4600 -RA FEW020 BKN070 18/16 Q1019=
METAR EGJJ 081250Z 29007KT 260V330 9999 FEW008 21/17 Q1019 NOSIG=
METAR EHEH 081255Z AUTO 20007KT 9999NDV FEW350 31/11 Q1018 BLU BLU=
METAR EKAH 081250Z AUTO 21004KT 170V270 9999NDV -SHRA FEW013/// BKN070///
      20/16 Q1019=
METAR COR EKBI 081250Z 25006KT 200V280 9999 FEW022 BKN070 BKN095 21/16
      Q1019=
METAR EKCH 081250Z 16014KT CAVOK 23/14 Q1020 NOSIG=
METAR EKRK 081250Z AUTO 22012KT 190V250 9999NDV BKN050/// 26/10 Q1019=
METAR EKRN 081250Z AUTO 20004KT 160V240 9999NDV NCD 20/14 Q1022=
METAR EKSN 081250Z 27009KT 9999 -RA SCT018 BKN027 17/14 Q1018=
METAR EKSP 081250Z 23011KT CAVOK 25/12 Q1019 TEMPO SHRA RMK BKN100=
METAR EKVJ 081250Z 20006KT 5000 -SHRA SCT006 BKN010 BKN020 20/17 Q1018=
METAR ETOR 081255Z 19005KT 9999 FEW200 34/09 A3012 RMK BLU=
METAR ETUO 081250Z 25005KT CAVOK 31/10 Q1019 BLU=
####018002653####
SAXX60 KWBC 081300
METAR
KNZY 081252Z 35008KT 7SM -DZ SCT008 OVC013 18/14 A2991 RMK AO2
     DZB22 SLP126 P0000 T01780139 $=
KNFW 081252Z 11006KT 10SM SCT012 BKN024 26/22 A3007 RMK AO2 SLP166
     RAB47 P0000 T02610222=
KNRB 081252Z 28004KT 10SM CLR 27/20 A3002 RMK AO2 SLP163
     T02670200=
KDNK 081253Z AUTO 08005KT 7SM FEW005 25/23 A3004 RMK AO2 SLP168
     T02500228=
KNIP 081253Z 26005KT 10SM CLR 26/21 A3002 RMK AO2 SLP162
     T02560211=
KDTS 081253Z AUTO 35003KT 10SM CLR 28/24 A3003 RMK AO2 SLP167
     T02780244=
KIAG 081253Z 23006KT 8SM FEW100 27/21 A3005 RMK AO2 SLP166
     T02670211=
PHNL 081253Z 07005KT 10SM FEW039 SCT055 23/18 A3000 RMK AO2 SLP160
     T02280183=
KHMN 081255Z 08003KT 10SM CLR 17/13 A3016 RMK AO2A SLP134
     T01720135 $=
KLRF 081255Z AUTO 00000KT 10SM CLR 25/23 A3008 RMK AO2 SLP186
     T02470230=
KNHK 081252Z 11011G15KT 5SM HZ SCT012 SCT020 28/23 A3001 RMK AO2
     SLP163 T02780233=
KNZY 081252Z 35008KT 7SM -DZ SCT008 OVC013 18/14 A2991 RMK AO2
     DZB22 SLP126 P0000 T01780139 $=
KPOB 081255Z AUTO 00000KT 10SM CLR 28/21 A2997 RMK AO2 SLP149
     T02810213 $=
KNQX 081253Z 05005KT 10SM SCT022CB SCT100 BKN200 29/25 A2996 RMK
     AO2 SLP144 CB DSNT S TCU DSNT SE W T2 SET T02940250 $=
KECG 081254Z 09009KT 10SM BKN110 28/22 A2998 RMK AO2 SLP151
     T02780222=
KFZY 081254Z AUTO 23003KT 8SM CLR 28/22 A3005 RMK AO2 SLP171
     T02780217=
PABI 081253Z AUTO 00000KT 10SM CLR 10/07 A3008 RMK AO2 SLP186
     T01000072 TSNO=
KBAD 081255Z AUTO 14004KT 10SM FEW090 25/24 A3006 RMK AO2 SLP178
     T02490241 $=
KCEF 081255Z 13003KT 6SM -RA BR OVC011 25/22 A3008 RMK AO2A SLP186
     T02460224 $=
KDAA 081255Z AUTO 13004KT 9SM CLR 29/24 A3002 RMK AO2 SLP166
     T02890235=
KDTS 081253Z AUTO 35003KT 10SM CLR 28/24 A3003 RMK AO2 SLP167
     T02780244=
KFHU 081255Z 09005KT 50SM FEW050 FEW120 22/12 A3009 RMK SLP111=
KGRF 081255Z AUTO 14003KT 10SM CLR 12/10 A2995 RMK AO2 SLP144
     T01190100 $=
KGUS 081255Z AUTO 23005KT 10SM -RA SCT060 25/23 A3005 RMK AO2
     RAB1250 SLP169 P0000 T02520230 $=
KMGE 081255Z 33003KT 10SM CLR 28/21 A3007 RMK AO2A SLP168
     T02770205 $=
KNSI 081256Z 27003KT 7SM OVC013 12/10 A2991 RMK SLP129
     T01220100=
KOZR 081255Z 00000KT 10SM CLR 25/25 A3004 RMK AO2A SLP169
     T02500250=
KSUU 081255Z AUTO 23019G24KT 10SM CLR 12/10 A2984 RMK AO2 PK WND
     25026/1226 SLP106 T01170101 RVRNO $=
KNKT 081254Z 06011KT 8SM FEW014 BKN060 BKN150 27/24 A2995 RMK AO2
     SLP139 T02720239=
KBKB 081254Z AUTO 00000KT 10SM SCT004 26/24 A3002 RMK AO2 SLP190
     T02610239=
####018000717####
SADL31 KWBC 081250
METAR
EDBB NIL=
EDBT NIL=
EDCK NIL=
EDDF 081250Z 35002KT CAVOK 30/11 Q1020 NOSIG=
EDDH 081250Z 23009KT CAVOK 29/10 Q1019 NOSIG=
EDDK 081250Z 22005KT 180V300 CAVOK 31/10 Q1019 NOSIG=
EDDL 081250Z 26006KT CAVOK 31/08 Q1019 NOSIG=
EDDM 081250Z VRB03KT CAVOK 25/11 Q1022 NOSIG=
EDDN 081250Z 24004KT CAVOK 28/07 Q1021 NOSIG=
EDDS 081250Z VRB03KT CAVOK 28/09 Q1021 NOSIG=
EDDW 081250Z 25011KT 180V250 CAVOK 31/06 Q1018 NOSIG=
EDFE 081250Z VRB03KT CAVOK 30/11 Q1019=
EDFM 081250Z 08006KT 040V160 CAVOK 32/10 Q1019=
EDHI 081250Z 23009KT 190V270 CAVOK 30/11 Q1019=
EDHL 081250Z 22008KT 170V280 CAVOK 30/14 Q1019=
EDKB NIL=
EDKS NIL=
EDLE NIL=
EDLG NIL=
EDLI NIL=
####018000184####
SADL33 KWBC 081245 RRB
METAR
EDNY 081250Z 18005KT CAVOK 28/11 Q1021=
EDVK 081250Z 22005KT 170V270 CAVOK 27/09 Q1021=
EDXW 081250Z 23008KT 4600 -RA FEW020 BKN070 18/16 Q1019=
####018000511####
SADL32 KWBC 081250
METAR
EDLN 081250Z 26005KT 200V310 CAVOK 31/10 Q1019=
EDLP 081250Z VRB04KT CAVOK 30/10 Q1020=
EDLS NIL=
EDLW 081250Z VRB05KT CAVOK 30/10 Q1020=
EDMA 081250Z VRB02KT 170V170 CAVOK 26/09 Q1022=
EDML NIL=
EDMO 081250Z 01006KT 320V040 CAVOK 25/09 Q1022=
EDMS NIL=
EDQD NIL=
EDQM 081250Z VRB03KT CAVOK 24/07 Q1023=
EDRS NIL=
EDRT NIL=
EDTB NIL=
EDTD 081250Z 17005KT 080V250 CAVOK 27/12 Q1023=
EDTF NIL=
EDTK NIL=
EDTO NIL=
EDTY NIL=
EDTZ NIL=
EDVE NIL=
####018001296####
SADN31 KWBC 081250
METAR
EKAH 081250Z AUTO 21004KT 170V270 9999NDV -SHRA FEW013///
     BKN070/// 20/16 Q1019=
EKBI 081250Z 25006KT 200V280 9999 FEW022 BKN070 BKN095 21/16
     Q1019=
EKCH 081250Z 16014KT CAVOK 23/14 Q1020 NOSIG=
EKEB 081250Z AUTO 19007KT 3700NDV SHRA OVC024/// 18/16 Q1019=
EKHO NIL=
EKKA 081250Z 20006KT 160V230 5000 -SHRA FEW009 FEW018TCU BKN030
     18/17 Q1018 TEMPO 4000 SHRA SCT020CB=
EKMB NIL=
EKOD 081250Z 18008KT CAVOK 25/13 Q1019=
EKRK 081250Z AUTO 22012KT 190V250 9999NDV BKN050/// 26/10
     Q1019=
EKRN 081250Z AUTO 20004KT 160V240 9999NDV NCD 20/14 Q1022=
EKSB 081250Z NIL=
EKSN 081250Z 27009KT 9999 -RA SCT018 BKN027 17/14 Q1018=
EKSP 081250Z 23011KT CAVOK 25/12 Q1019 TEMPO SHRA RMK BKN100=
EKSV NIL=
EKTS NIL=
EKVA NIL=
EKVD 081250Z NIL=
EKVG 081251Z 19009KT 9999 -SHRA SCT006 BKN010 BKN017 11/10 Q0994
     RMK/RWY 13/31 CLOSED DUE WIP/ SEE NOTAM E0050/10 WIND 850FT
     VRB09G36KT=
EKVG 081251Z 19009KT 9999 -SHRA SCT006 BKN010 BKN017 11/10 Q0994
     RMK/RWY 13/31 CLOSED DUE WIP. SEE NOTAM E0050/10 WIND 850FT
     VRB09G36KT=
EKVJ 081250Z 20006KT 5000 -SHRA SCT006 BKN010 BKN020 20/17
     Q1018=
EKVL NIL=
EKYT 081250Z 20008KT 9999 -RA FEW012 BKN023 18/17 Q1018 TEMPO 7000
     BKN012=
####018001291####
SAEN31 KWBC 081250
METAR
EETN 081250Z 31008KT CAVOK 25/18 Q1014 NOSIG=
EFHF 081250Z 33008KT 300V010 9999 FEW042 SCT055 27/19 Q1013=
EFHK 081250Z 33008KT 9999 FEW039 SCT050 28/18 Q1013 NOSIG=
EFIV NIL=
EFJY 081250Z 12003KT 9999 SCT030 SCT080 25/17 Q1015=
EFKE NIL=
EFKK 081250Z AUTO VRB05KT CAVOK 26/12 Q1014=
EFKU 081250Z AUTO 34004KT CAVOK 23/17 Q1015=
EFMA 081250Z 19007KT 160V220 CAVOK 22/13 Q1016=
EFOU 081250Z VRB01KT 9999 FEW040 BKN200 23/11 Q1015=
EFPN NIL=
EFPO 081250Z AUTO 27006KT 210V360 CAVOK 24/12 Q1015=
EFRO 081250Z AUTO 19005KT 160V240 CAVOK 21/08 Q1015=
EFTN NIL=
EFTP 081250Z 27006KT 220V320 9999 FEW045 SCT200 26/14 Q1015=
EFTU 081250Z AUTO 29011KT CAVOK 25/12 Q1015=
EFVA 081250Z 28006KT 240V320 9999 FEW030 SCT200 24/14 Q1014=
ENBO NIL=
ENBR NIL=
ENCN 081250Z 19009KT 9999 FEW010 OVC040 17/15 Q1016=
ENEB NIL=
ENFB NIL=
ENGM NIL=
ENHD 081250Z 21012KT 9999 FEW035 SCT060 16/12 Q1015=
ENKR 081250Z 19008KT 160V230 9999 FEW020 16/10 Q1017=
ENSB 081250Z 27011KT 9999 FEW015 SCT025 BKN035 09/05 Q1009=
ENTC 081250Z 01005KT 9999 FEW065 SCT082 18/09 Q1010=
ENVA NIL=
ENZV NIL=
EVRA 081250Z 31010KT 280V360 9999 OVC021 20/15 Q1015 NOSIG=
EYVI 081250Z 28009KT 4000 -SHRA BKN005 OVC014CB 15/14 Q1015
     NOSIG=
####018000119####
SPJP31 KWBC 081256
SPECI
RJCC 081244Z 14003KT 0800 R19R/0900VP1800D R01R/0900N DZ VV002
17/17 Q1010 RMK A2984=
####018000124####
SPJP31 KWBC 081256
SPECI
RJTT 081244Z 18017KT 9999 FEW007 BKN010 BKN150 25/22 Q1010 RMK
1ST007 5CU010 7AC150 A2985=
####018000664####
SANO31 ENMI 081250
METAR ENAN 081250Z 02006KT 9999 FEW045 SCT090 BKN200 16/10 Q1010
           NOSIG=
METAR ENBR 081250Z 18013KT 9999 FEW025 SCT040 17/11 Q1014 NOSIG =
METAR ENBO 081250Z 30007KT 260V330 9999 FEW050CB 13/10 Q1011 TEMPO
           SHRA=
METAR ENDU 081250Z VRB01KT 9999 -SHRA FEW050 BKN070 19/10 Q1010=
METAR ENGM 081240Z 18017KT 9999 FEW017 SCT026 BKN055 17/13 Q1015
           NOSIG=
METAR ENOL 081250Z 04004KT 340V110 9999 FEW025TCU SCT050 20/06 Q1010
           NOSIG=
METAR ENVA 081250Z 34012KT 9999 FEW040CB SCT070 19/11 Q1009 TEMPO
           SHRA =
METAR ENZV 081250Z 21011KT 9999 SCT020 BKN150 18/12 Q1015 NOSIG=
####018000028####
SAGR31 KWBC 081250
NIL=
####018000028####
SAGR41 KWBC 081250
NIL=
####018000028####
SAIY31 KWBC 081250
NIL=
####018000028####
SAIY32 KWBC 081250
NIL=
####018000110####
SPUS31 KWBC 081256
SPECI
KSTL 081253Z 24003KT 10SM FEW009 BKN025TCU BKN075 BKN150 BKN250
26/23 A3006=
####018000028####
SAIY41 KWBC 081250
NIL=
####018000083####
SPUS41 KWBC 081256
SPECI
KCEF 081252Z 13002KT 6SM -RA BR OVC011 25/22 A3008=
####018000028####
SAIY43 KWBC 081250
NIL=
####018000028####
SAIY42 KWBC 081250
NIL=
####018000107####
SAUS41 KLWX 081255
MTRDMH
METAR KDMH 081254Z AUTO 29/22 A3002 RMK AO2 SLP164 T02940222 PWINO 
TSNO
####018000117####
SAUS41 KLWX 081255
MTRRSP
METAR KRSP 081254Z AUTO 00000KT 4SM HZ CLR 27/17 A3011 RMK AO2 
SLP183 T02720172 $
####018000110####
SAUS42 KRAH 081256
MTRGSO
METAR KGSO 081254Z 03004KT 5SM HZ CLR 29/18 A3004 RMK AO2 SLP158 
T02940183
####018000123####
SAUS46 KSGX 081255
MTRRNM
METAR KRNM 081253Z AUTO 28003KT 6SM BR OVC004 14/13 A2991 RMK AO2 
SLP118 T01390128 TSNO
####018000254####
SAMX41 KWBC 081245 RRA
METAR
MMCV 081245Z 00000KT 12SM SCT090 BKN220 23/23 A2986 RMK 8/036=
MMMA 081245Z 32008KT 5SM BKN010 BKN065 26/25 A2980 RMK 8/45/ HZ
     ISOL CI=
MMMA 081245Z 32008KT 5SM BKN010 BKN065 26/25 A2980 RMK 8/45/
     BR=
####018000113####
SAMX31 KWBC 081245 RRC
METAR
MMMY 081245Z 30006KT 15SM FEW030 SCT070 24/22 A2988 RMK 8/570 ISOL
     CI=
####018000091####
SAMX42 KWBC 081245 RRB
METAR
MMTC 081245Z 00000KT 10SM BKN030 21/17 A3003 RMK 8/500=
####018000116####
SPXX62 KWBC 081256
SPECI
RKSG 081250Z 00000KT 6000 -DZ SCT060 BKN100 24/24 A2983 RMK AO2A
DZB1250 SLP101 $=
####018000119####
SPXX62 KWBC 081256
SPECI
PHHI 081254Z AUTO 01004KT 10SM BKN036 OVC044 20/18 A3002 RMK AO2
DZB1241E1254 SLP156=
####018000113####
SPXX62 KWBC 081256
SPECI
RKSO 081248Z AUTO 28005KT 9999 -DZ FEW120 23/23 A2981 RMK AO2
DZB1248 SLP096 $=
####018000345####
SANL31 KWBC 081250
METAR
EHAM NIL=
EHBD NIL=
EHBK NIL=
EHDL NIL=
EHEH 081255Z AUTO 20007KT 9999NDV FEW350 31/11 Q1018 BLU BLU=
EHGG NIL=
EHGR NIL=
EHHO NIL=
EHHV NIL=
EHKD NIL=
EHLE NIL=
EHLW NIL=
EHMZ NIL=
EHRD NIL=
EHSB NIL=
EHTE NIL=
EHTW NIL=
EHTX NIL=
EHVB NIL=
EHVK NIL=
EHVL NIL=
EHWO NIL=
####018000846####
SANO41 KWBC 081250
METAR
ENAL 081250Z 24009KT 210V280 9999 VCSH FEW040TCU SCT060 16/11
     Q1010=
ENAN NIL=
ENAT 081250Z 17006KT 140V240 9999 FEW045 BKN080 23/09 Q1011=
ENBL 081250Z NIL=
ENBN 081250Z 35006KT 320V060 9999 FEW040 SCT070 19/11 Q1010=
ENBV 081250Z 09016KT 9999 FEW025 11/08 Q1015=
ENDI 081250Z NIL=
ENDU NIL=
ENEK 081250Z 23012KT CAVOK 16/12 Q1016 W15/S3=
ENEV 081250Z 10007KT 070V130 9999 FEW059 BKN078 21/09 Q1009=
ENFG 081250Z 19015KT 9999 FEW020 BKN035 16/08 Q1013=
ENFL 081250Z 20015KT 9999 FEW015 SCT050 17/12 Q1012=
ENFR NIL=
ENGC 081250Z 19025KT CAVOK 13/11 Q1009=
ENHF 081250Z 24003KT 200V260 CAVOK 20/09 Q1012=
ENHV 081250Z NIL=
ENKB 081250Z 27015G25KT 9999 FEW045TCU FEW054 SCT064 18/09
     Q1010=
ENLI NIL=
ENLK 081250Z NIL=
ENMH 081250Z 15012KT 9999 FEW015 18/10 Q1014=
####018001212####
SANO42 KWBC 081250
METAR
ENML 081250Z 27010KT 9999 VCSH FEW040 BKN060 20/07 Q1010=
ENMS 081250Z NIL=
ENNA 081250Z 16016KT 9999 FEW045CB SCT070 22/09 Q1012=
ENNK 081250Z 03007KT 9999 BKN070 17/12 Q1009=
ENNM NIL=
ENNO 081250Z 14011G19KT 9999 SCT025 BKN075 20/14 Q1013=
ENOA 081250Z NIL=
ENOL NIL=
ENOV 081250Z 24005KT 210V300 9999 VCSH FEW040 SCT052 17/07
     Q1010=
ENRA 081250Z VRB03KT 9999 TS SCT050CB SCT070 15/11 Q1010=
ENRM 081250Z NIL=
ENRO 081250Z 17004KT 140V240 9999 FEW025 SCT045 BKN080 12/09
     Q1011=
ENRS 081250Z NIL=
ENRY 081250Z 18011KT 9999 -RA SCT006 BKN008 17/15 Q1016 TEMPO
     SCT008 BKN015=
ENSD 081250Z NIL=
ENSG 081250Z 24010KT 200V270 9999 SCT055 17/06 Q1012=
ENSH 081250Z 34007KT 9999 VCSH FEW030 BKN050 14/12 Q1010
     RESHRA=
ENSK 081250Z 28012KT 9999 VCSH FEW020CB SCT040 BKN060 17/11 Q1010
     RESHRA=
ENSN 081250Z 18010KT 120V210 7000 OVC007 16/15 Q1016=
ENSO 081250Z 21007KT 140V270 9999 SCT030 19/11 Q1014=
ENSR 081250Z 30005KT 9999 FEW050 SCT070 19/09 Q1011=
ENST 081250Z 02008KT 350V060 CAVOK 19/11 Q1010=
ENSV NIL=
ENTO 081250Z 19011KT 9999 BKN008 16/15 Q1016=
ENVD 081250Z 11010KT 9999 FEW022 12/08 Q1017=
####018000028####
SAOM43 KWBC 081250
NIL=
####018000542####
SASW31 KWBC 081250
METAR
LSGC 081250Z 13005KT 060V180 CAVOK 26/13 Q1024=
LSGG 081250Z 21008KT 170V260 9999 FEW060 SCT300 32/11 Q1021
     NOSIG=
LSGL NIL=
LSGN NIL=
LSGS 081250Z 24010KT 210V290 9999 FEW120 31/13 Q1019=
LSZA 081250Z 18005KT 9999 FEW055 29/15 Q1021 NOSIG=
LSZB 081250Z 29006KT CAVOK 30/12 Q1021 NOSIG=
LSZD NIL=
LSZG 081250Z NIL=
LSZH 081250Z VRB03KT CAVOK 29/12 Q1021 NOSIG=
LSZL NIL=
LSZR 081250Z 29003KT CAVOK 26/16 Q1021 NOSIG RMK J=
LSZS 081250Z 30011G22KT 240V010 9999 FEW070 26/07 Q1026=
####018001149####
SASN31 KWBC 081250
METAR
ESDB NIL=
ESDF 081250Z NIL=
ESGG 081250Z 20009KT 9999 FEW005 BKN032 17/15 Q1019 RERA=
ESGJ 081250Z AUTO 22013KT 9999NDV BKN049/// BKN069/// 23/10
     Q1019=
ESGP 081250Z 17009KT 9999 FEW009 OVC029 17/15 Q1018=
ESKN 081250Z 25012KT 9999 SCT049 25/13 Q1017=
ESMK 081250Z 21010KT 170V240 CAVOK 26/11 Q1020=
ESMS 081250Z 19010KT CAVOK 24/10 Q1021=
ESMX 081250Z 21010KT CAVOK 25/11 Q1020=
ESNN 081250Z AUTO 24006KT 200V280 9999NDV OVC042/// 22/13
     Q1013=
ESNO 081250Z AUTO 20011KT 170V230 9999NDV FEW045/// 21/10
     Q1013=
ESNQ 081250Z 15009KT 9999 BKN050 16/11 Q1013 RERA REDZ=
ESNS 081250Z AUTO 12010KT 9999NDV ////// 22/10 Q1014=
ESNU 081250Z 17009KT CAVOK 21/11 Q1014=
ESOK 081250Z 22004KT 9999 BKN026 19/14 Q1017=
ESOW 081250Z 25010KT CAVOK 24/14 Q1017=
ESPA 081250Z 15011KT CAVOK 19/14 Q1015=
ESPC NIL=
ESSA 081250Z 24014KT 9999 FEW045 24/13 Q1016 NOSIG=
ESSB 081250Z 26010KT 9999 FEW035 SCT048 25/13 Q1016=
ESSD 081250Z AUTO 26010KT 9999NDV FEW028/// BKN035/// 20/13
     Q1016=
ESSN NIL=
ESSP 081250Z NIL=
ESSV 081250Z 25006KT 220V280 CAVOK 22/11 Q1019=
####018001029####
SAUK31 KWBC 081250
METAR
EGAA 081250Z 21011KT 9999 FEW032 16/09 Q1014=
EGBB 081250Z 23007KT 190V280 9999 FEW040 22/09 Q1018=
EGCC 081250Z 19009KT 9999 SCT038 19/10 Q1017=
EGFF 081250Z NIL=
EGGD 081250Z 29008KT 250V330 9999 FEW034 20/10 Q1019=
EGGP 081250Z 25012KT 9999 SCT048 20/09 Q1017=
EGGW 081250Z 22006KT 140V260 9999 SCT029 23/13 Q1018=
EGHD 081250Z 19007KT 150V240 9999 FEW020 20/14 Q1019=
EGHH 081250Z 19009KT 9999 7000S FEW026 21/15 Q1019=
EGHI 081250Z 20006KT 140V260 9999 FEW026 SCT032 BKN038 22/14
     Q1018=
EGJB 081250Z 24007KT 200V290 9999 FEW006 SCT013 21/16 Q1020=
EGJJ 081250Z 29007KT 260V330 9999 FEW008 21/17 Q1019 NOSIG=
EGKA 081250Z 19008KT 9999 FEW020 21/17 Q1019=
EGKB 081250Z 22008KT 170V260 9999 BKN035 25/14 Q1019=
EGKK 081250Z VRB08KT 9999 SCT044 26/13 Q1018=
EGLF 081250Z NIL=
EGLL 081250Z 26008KT 200V310 9999 BKN035 24/14 Q1018=
EGMC 081250Z 22005KT 180V260 9999 FEW037 25/16 Q1018=
EGMD 081250Z 20010KT 9999 FEW020 21/16 Q1019=
EGNH NIL=
EGNJ NIL=
####018000095####
SAUK31 KWBC 081250 CCA
METAR
EGLL 081250Z 26008KT 200V310 9999 BKN035 24/14 Q1018 NOSIG=
####018000631####
SAUK32 KWBC 081250
METAR
EGNM 081250Z 26010KT 230V290 9999 SCT035 17/09 Q1017=
EGNS 081250Z NIL=
EGNT 081250Z 25013KT 9999 FEW045 21/07 Q1015=
EGNV 081250Z 24018KT 9999 SCT040 21/10 Q1016=
EGNX 081250Z 26010KT 230V300 CAVOK 22/08 Q1018=
EGPA NIL=
EGPB 081250Z 20014KT CAVOK 15/11 Q1007=
EGPC NIL=
EGPD 081250Z 23012KT 190V260 9999 FEW047 19/08 Q1011 NOSIG=
EGPF 081250Z 23019KT 9999 FEW030 18/10 Q1013=
EGPH 081250Z 24015KT 9999 FEW035 18/07 Q1013=
EGPK 081250Z 24017KT 9999 FEW024 19/09 Q1014=
EGSH NIL=
EGTE 081250Z 17011KT 9999 FEW030 21/15 Q1018=
EGTG 081250Z 28009KT 9999 FEW030 21/09 Q1018=
####018000081####
SAUK32 KWBC 081250 CCA
METAR
EGPB 081250Z 20014KT CAVOK 15/11 Q1007 NOSIG=
####018000554####
SAUK41 KWBC 081250
METAR
EGAC 081250Z 21012KT 190V250 9999 FEW024 SCT040 18/09 Q1014=
EGAE NIL=
EGBE NIL=
EGBJ NIL=
EGDC NIL=
EGDG NIL=
EGDL NIL=
EGDM NIL=
EGDN NIL=
EGDP NIL=
EGDR NIL=
EGDY NIL=
EGFH NIL=
EGGP 081250Z 25012KT 9999 SCT048 20/09 Q1017=
EGGW 081250Z 22006KT 140V260 9999 SCT029 23/13 Q1018=
EGHE 081250Z 20011KT 9999 FEW022 18/14 Q1019=
EGJA 081250Z 27007KT 240V320 CAVOK 19/16 Q1020=
EGLC 081250Z 27006KT 210V330 9999 SCT030 24/14 Q1018=
EGNC NIL=
EGNT 081250Z 25013KT 9999 FEW045 21/07 Q1015=
####018000405####
SAUK42 KWBC 081250
METAR
EGOS NIL=
EGOV NIL=
EGPC NIL=
EGPE NIL=
EGPF 081250Z 23019KT 9999 FEW030 18/10 Q1013=
EGPL NIL=
EGPM NIL=
EGPN NIL=
EGPO NIL=
EGPT NIL=
EGPU NIL=
EGPW NIL=
EGQJ NIL=
EGQK NIL=
EGQL NIL=
EGQM NIL=
EGQS NIL=
EGSC NIL=
EGSS 081250Z 23009KT 200V270 9999 SCT028 23/15 Q1018=
EGTC 081250Z 21010KT 170V260 9999 FEW040 22/12 Q1018=
EGTI NIL=
####018000028####
SAUR31 KWBC 081250
NIL=
####018000082####
SAXX99 KWBC 081200 RRX
METAR
K4O4 081248Z AUTO 13005KT 24/23 A3007 RMK AO2=
####018001708####
SAEU KAWN 081300 RRD
METAR EDAH 081250Z VRB03KT CAVOK 25/08 Q1021=
METAR EDXW 081250Z 23008KT 4600 -RA FEW020 BKN070 18/16 Q1019=
METAR COR EGCC 081250Z 19009KT 9999 SCT038 19/10 Q1017 NOSIG=
METAR ENAL 081250Z 24009KT 210V280 9999 VCSH FEW040TCU SCT060 16/11
      Q1010=
METAR ENCN 081250Z 19009KT 9999 FEW010 OVC040 17/15 Q1016=
METAR ENEK 081250Z 23012KT CAVOK 16/12 Q1016 W15/S3=
METAR ENGC 081250Z 19025KT CAVOK 13/11 Q1009=
METAR ENHD 081250Z 21012KT 9999 FEW035 SCT060 16/12 Q1015=
METAR ENHE 081250Z 18021KT 9999 SCT040 15/11 Q1009=
METAR ENNO 081250Z 14011G19KT 9999 SCT025 BKN075 20/14 Q1013=
METAR ENOV 081250Z 24005KT 210V300 9999 VCSH FEW040 SCT052 17/07 Q1010=
METAR ENRO 081250Z 17004KT 140V240 9999 FEW025 SCT045 BKN080 12/09
      Q1011=
METAR ENRY 081250Z 18011KT 9999 -RA SCT006 BKN008 17/15 Q1016 TEMPO
      SCT008 BKN015=
METAR ENSB 081250Z 27011KT 9999 FEW015 SCT025 BKN035 09/05 Q1009=
METAR ENSG 081250Z 24010KT 200V270 9999 SCT055 17/06 Q1012=
METAR ENSN 081250Z 18010KT 120V210 7000 OVC007 16/15 Q1016=
METAR ENSR 081250Z 30005KT 9999 FEW050 SCT070 19/09 Q1011=
METAR ENTC 081250Z 01005KT 9999 FEW065 SCT082 18/09 Q1010=
METAR ENTO 081250Z 19011KT 9999 BKN008 16/15 Q1016=
METAR ETEB 081255Z AUTO VRB03KT 9999 CLR 26/08 A3019 RMK AO2 SLP209
      T02600081=
METAR LOWG 081250Z 17004KT 110V240 CAVOK 27/11 Q1022 NOSIG=
METAR LOWI 081250Z 10006KT 030V150 9999 FEW080 28/14 Q1020 NOSIG=
METAR LOWK 081250Z VRB03KT 9999 FEW060 26/10 Q1022 NOSIG=
METAR LOWL 081250Z VRB02KT CAVOK 25/10 Q1022 NOSIG=
METAR LOWS 081250Z VRB04KT 9999 FEW070 25/08 Q1022 NOSIG=
METAR LOWW 081250Z 34008KT 300V010 9999 FEW060 24/08 Q1022 NOSIG=
####018000101####
SPCN47 CWAO 081254
SPECI CYNA 081254Z AUTO 09009G15KT 9SM OVC005 OVC051 OVC056 15/12
A3004=

####018000092####
SAFJ31 NFFN 081300
METAR NFFN 081300Z 11004KT 40KM FEW030 20/18 Q1013 NOSIG RMK RR NIL=
####018000089####
SAUK31 EGGY 081250 CCB
METAR COR EGCC 081250Z 19009KT 9999 SCT038 19/10 Q1017 NOSIG=
####018000377####
SABX31 EBBR 081250
METAR EBAW 081250Z 25007KT 180V330 CAVOK 30/12 Q1019 NOSIG=
METAR EBBR 081250Z 20005KT 150V290 CAVOK 30/11 Q1019 NOSIG=
METAR EBCI 081250Z VRB02KT CAVOK 30/10 Q1019 NOSIG=
METAR EBLG 081250Z VRB04KT CAVOK 30/08 Q1019 NOSIG=
METAR EBOS 081250Z 35006KT 320V030 CAVOK 22/16 Q1019 NOSIG=
METAR ELLX 081250Z 17005KT 130V230 CAVOK 30/08 Q1020 NOSIG=
####018000079####
SAUK34 EGGY 081250 RRA
METAR EGHK 081250Z 15006KT 9999 SCT020 18/15 Q1018=
####018000328####
SAFI33 EFHK 081250
EFJO 081250Z AUTO 36004KT 310V070 CAVOK 28/18 Q1014=
EFLP 081250Z AUTO 17007KT 100V230 CAVOK 31/12 Q1013=
EFMI 081250Z AUTO 36004KT 290V110 9999 FEW044 28/19 Q1013=
EFSA 081250Z VRB02KT 9999 FEW055TCU FEW055CB 30/17 Q1013=
EFUT 081250Z 16008KT 070V220 CAVOK 30/14 Q1013=
METAR EFVR 081255Z NIL=
####018000393####
SAOS31 LOWM 081250
METAR LOWW 081250Z 34008KT 300V010 9999 FEW060 24/08 Q1022 NOSIG=
METAR LOWL 081250Z VRB02KT CAVOK 25/10 Q1022 NOSIG=
METAR LOWS 081250Z VRB04KT 9999 FEW070 25/08 Q1022 NOSIG=
METAR LOWI 081250Z 10006KT 030V150 9999 FEW080 28/14 Q1020 NOSIG=
METAR LOWG 081250Z 17004KT 110V240 CAVOK 27/11 Q1022 NOSIG=
METAR LOWK 081250Z VRB03KT 9999 FEW060 26/10 Q1022 NOSIG=
####018000086####
SAMP31 LMMM 081300 RRA
METAR HLLT 081250Z 
35007KT 310V040 8000 SKC 31/18 Q1018=
####018000629####
SAIY32 LIIB 081250
METAR LIBD 081250Z 36014KT CAVOK 25/12 Q1020=
METAR LIBR 081245Z /////KT CAVOK 25/13 Q1018 NOSIG=
METAR LICC 081250Z 11013KT CAVOK 28/20 Q1018=
METAR LICJ 081250Z 04015KT 9999 FEW018 28/23 Q1018=
METAR LIPB 081250Z 18013KT CAVOK 30/12 Q1019=
METAR LIPE 081250Z 07007KT 030V120 CAVOK 30/14 Q1020=
METAR LIPH 081245Z 13004KT 9999 SCT025 27/20 Q1022=
METAR LIPK 081250Z 08008KT CAVOK 28/11 Q1020=
METAR LIPQ 081250Z 28004KT CAVOK 27/14 Q1022=
METAR LIPR 081245Z 08011KT CAVOK 28/19 Q1021=
METAR LIPX 081245Z 20005KT 9999 FEW040 30/14 Q1021=
METAR LIPZ 081250Z 13007KT CAVOK 28/19 Q1022=
####018000085####
SAMP31 LMMM 081300 RRA
METAR HLLT 081250Z
35007KT 310V040 8000 SKC 31/18 Q1018=
####018000073####
SADN32 EKCH 081250 RRA
METAR EKVD 081250Z 28012KT CAVOK 22/15 Q1019=
####018000082####
SALY31 HLLT 081300
METAR HLLT 081250Z 
35007KT 310V040 8000 SKC 31/18 Q1018=
####018000091####
SAOS32 LOWM 081250
METAR LOXZ 081250Z 06004KT 70KM FEW060CU 25/11 Q1022 NOSIG RMK FEW=
####018000755####
SAIY31 LIIB 081250
METAR LIEA 081250Z 21007KT 170V330 9999 FEW025 33/19 Q1019=
METAR LIEE 081245Z 16012KT 9999 FEW020 28/21 Q1019 NOSIG=
METAR LIEO 081250Z 05012KT CAVOK 30/20 Q1019=
METAR LIMC 081250Z VRB03KT 9999 FEW025 29/15 Q1021 NOSIG=
METAR LIME 081250Z 16005KT 110V200 9999 BKN050 27/15 Q1022=
METAR LIMF 081250Z VRB02KT 9999 SCT070 28/15 Q1022=
METAR LIMJ 081250Z 16006KT 9999 FEW035 29/25 Q1020=
METAR LIML 081250Z 17004KT 9999 FEW030 29/16 Q1020 NOSIG=
METAR LIRA 081245Z 27007KT 170V030 9999 FEW018 30/17 Q1020=
METAR LIRF 081250Z 24011KT 210V270 CAVOK 29/18 Q1020 NOSIG=
METAR LIRN 081250Z 05007KT CAVOK 29/14 Q1019=
METAR LIRP 081245Z 32005KT CAVOK 31/17 Q1019 NOSIG=
METAR LIRQ 081250Z 09004KT CAVOK 32/15 Q1019=
####018000081####
SACH01 SCFA 081300
METAR SCFA 081300Z 06005KT 9999 BKN022 13/07 Q1017 NOSIG=
####018002130####
SAUS20 KNKA 081255
METAR KAAF 081253Z AUTO 01007KT 10SM CLR 28/24 A3003 RMK AO2 SLP168 
    T02780239=
METAR KAKR 081254Z AUTO 22003KT 8SM CLR 27/19 A3009 RMK AO2 SLP178 
    T02670189=
METAR KAMG 081253Z AUTO 29005KT 10SM CLR 26/21 A3003 RMK AO2 SLP166 
    T02610206=
METAR KBUF 081254Z 23004KT 10SM FEW090 28/19 A3006 RMK AO2 SLP173 
    ACC E-SE T02780194=
METAR KCEW 081253Z AUTO 00000KT 10SM CLR 26/24 A3005 RMK AO2 SLP172 
    T02610239=
METAR KDSV 081254Z AUTO 13007KT 9SM CLR 26/20 A3009 RMK AO2 SLP191 
    T02610200=
METAR KDTO 081253Z AUTO 15007KT 10SM FEW015 SCT031 26/23 A3003 RMK 
    AO2 SLP160 T02560233=
METAR KECP 081253Z 32004KT 10SM CLR 27/24 A3003 RMK AO2 SLP178 
    T02670244=
METAR KFIG 081254Z AUTO 00000KT 6SM HZ SCT070 23/19 A3013 RMK AO2 
    SLP189 T02330189=
METAR KGCN 081254Z 04003KT 10SM CLR 11/M01 A3025 RMK AO2 SLP144 
    T01111011=
METAR KHYI 081255Z AUTO 05007KT 7SM FEW007 BKN017 OVC038 A2996 RMK 
    AO1=
METAR KILE 081255Z 10003KT 8SM BKN006 OVC015 24/23 A3000 RMK AO1=
METAR KJST 081254Z AUTO 00000KT 5SM HZ CLR 24/17 A3015 RMK AO2 
    SLP191 T02390172=
METAR KMAI 081253Z AUTO 00000KT 7SM SCT001 27/24 A3003 RMK AO2 
    SLP168 T02670239=
METAR KMLB 081253Z 04004KT 10SM FEW025 28/20 A3000 RMK AO2 SLP157 
    T02780200=
METAR KMTN 081250Z 10006KT 4SM HZ FEW100 29/24 A3003=
METAR KOCF 081250Z 00000KT 10SM SKC 23/23 A3003=
METAR KOCH 081255Z AUTO 11007KT 10SM SCT011 BKN018 BKN120 25/19 
    A3004 RMK AO1=
METAR KPNE 081254Z 13005KT 2 1/2SM HZ OVC006 26/23 A3006 RMK AO2 SFC 
    VIS 5 SLP177 T02610233=
METAR KPNS 081253Z 00000KT 10SM CLR 27/24 A3004 RMK AO2 SLP172 
    T02720244=
METAR KPRX 081255Z 15007KT 5SM BKN005 OVC014 25/23 A3005 RMK AO1=
METAR KPWG 081255Z AUTO 06005KT 10SM SCT013 BKN021 OVC029 26/23 
    A3002 RMK AO1=
METAR KROC 081254Z 22006KT 9SM FEW090 26/21 A3005 RMK AO2 SLP173 
    T02610206=
METAR KTPL 081255Z 07007KT 7SM OVC009 24/23 A3000 RMK AO1 
     =
METAR KVAY 081254Z AUTO 14004KT 5SM BR BKN006 OVC011 26/23 A3004 RMK 
    AO2 CIG 005V009 SLP172 T02560233=
####018000077####
SACA01 KMSC 081256
METAR TJMZ 081250Z 05006KT 6SM HZ FEW030 31/25 A3002=
####018000110####
SPUS73 KWBC 081256
SPECI
KSTL 081253Z 24003KT 10SM FEW009 BKN025TCU BKN075 BKN150 BKN250
26/23 A3006=
####018001715####
SANA35 KAWN 081300
METAR KBAD 081255Z AUTO 14004KT 10SM FEW090 25/24 A3006 RMK AO2 SLP178
      T02490241 $=
METAR KBOS 081254Z 14006KT 10SM SCT230 24/20 A3010 RMK AO2 SLP193 T02440200=
METAR KBRO 081253Z 32007KT 10SM SCT005 BKN011 BKN026 26/25 A2977 RMK
      AO2 RAB09E45 SLP078 P0000 T02610250=
METAR KFLL 081253Z 08008KT 10SM SCT021 29/24 A2995 RMK AO2 SLP142 T02940239=
METAR KJFK 081251Z 15007KT 10SM FEW009 BKN014 BKN030 OVC130 26/21 A3006
      RMK AO2 RAB1159E10 SLP180 P0000 T02560211 $=
METAR KMCO 081253Z VRB05KT 10SM FEW018 FEW250 27/21 A3001 RMK AO2 SLP162
      T02670206=
METAR KNHK 081252Z 11011G15KT 5SM HZ SCT012 SCT020 28/23 A3001 RMK
      AO2 SLP163 T02780233=
METAR KOFF 081255Z AUTO VRB05KT 10SM CLR 21/19 A3014 RMK AO2 SLP195
      T02090195 $=
METAR KPBI 081253Z 00000KT 7SM -RA FEW012 BKN022CB BKN055 27/26 A2996
      RMK AO2 SLP144 CB OHD-E-S MOV SW P0016 T02670261 $=
METAR KPHL 081254Z 13004KT 4SM HZ SCT008 BKN110 BKN250 27/23 A3004
      RMK AO2 SLP172 T02670228=
METAR KPOB 081255Z AUTO 00000KT 10SM CLR 28/21 A2997 RMK AO2 SLP149
      T02810213 $=
METAR KSYR 081254Z 00000KT 7SM CLR 28/21 A3005 RMK AO2 SLP170 T02830211=
METAR KVPS 081255Z 34002KT 10SM SKC 27/24 A3004 RMK SLP173 T02660237
      $=
METAR MDSD 081300Z 06004KT 9999 FEW020 27/23 Q1015=
METAR MYGF 081300Z 08006KT 9999 FEW015CB 29/25 A2998 RMK CB S=
METAR SPIM 081300Z 18004KT 6000 SCT015 OVC023 16/14 Q1014 NOSIG RMK
      BIRD HAZARD RWY 15 PP000=
METAR TIST 081253Z 09012KT 10SM CLR 30/24 A3000 RMK AO2 SLP160 T03000244=
METAR TISX 081253Z 09011KT 10SM SCT022 29/24 A3000 RMK AO2 SLP158 T02940239=
METAR TNCM 081300Z 08013KT 9999 SCT021 30/23 Q1016=
####018000116####
SAUS45 KLKN 081256
MTRP68
METAR KP68 081253Z AUTO 21005KT 07/M03 A3017 RMK AO2 SLP147 
T00721028 PWINO TSNO
####018001527####
SAUS17 KAWN 081300
METAR KBAD 081255Z AUTO 14004KT 10SM FEW090 25/24 A3006 RMK AO2 SLP178
      T02490241 $=
METAR KBLV 081255Z AUTO 26004KT 10SM FEW060 26/25 A3005 RMK AO2 RAB1151E1203
      SLP172 P0003 T02610251=
METAR KCBM 081255Z AUTO 34007KT 10SM CLR 27/23 A3007 RMK AO2 SLP183
      T02680230 $=
METAR KCEF 081255Z 13003KT 6SM -RA BR OVC011 25/22 A3008 RMK AO2A SLP186
      T02460224 $=
METAR KDAA 081255Z AUTO 13004KT 9SM CLR 29/24 A3002 RMK AO2 SLP166
      T02890235=
METAR KEFD 081250Z 08005KT 4SM -RA BKN006 BKN020 OVC250 25/24 A2998=
METAR KFBG 081255Z AUTO VRB04KT 10SM CLR 29/21 A2997 RMK AO2 SLP146
      T02880207 $=
METAR KFHU 081255Z 09005KT 50SM FEW050 FEW120 22/12 A3009 RMK SLP111=
METAR KGRF 081255Z AUTO 14003KT 10SM CLR 12/10 A2995 RMK AO2 SLP144
      T01190100 $=
METAR KGUS 081255Z AUTO 23005KT 10SM -RA SCT060 25/23 A3005 RMK AO2
      RAB1250 SLP169 P0000 T02520230 $=
METAR KHMN 081255Z 08003KT 10SM CLR 17/13 A3016 RMK AO2A SLP134 T01720135
      $=
METAR KIAB 081255Z AUTO 04008KT 10SM BKN008 22/21 A3011 RMK AO2 RAB1208E1223DZB1221E1222
      SLP184 P0000 T02220214=
METAR KIWA 081247Z 09005KT 45SM FEW120 SCT200 29/06 A2983 RMK FIRST=
METAR KLRF 081255Z AUTO 00000KT 10SM CLR 25/23 A3008 RMK AO2 SLP186
      T02470230=
METAR KMGE 081255Z 33003KT 10SM CLR 28/21 A3007 RMK AO2A SLP168 T02770205
      $=
METAR KMTC 081255Z 00000KT 7SM FEW240 30/22 A3001 RMK SLP167=
METAR KSVN 081255Z 27005KT 10SM SKC 27/22 A2998 RMK SLP155 53007=
####018000075####
SACN88 CWAO 081230
AHD SA 1230 AUTO7 M M M M/22/18/2308/M/M M 71MM=

####018000072####
SAYE20 OYRN 081300
METAR OYRN 081300Z 20016KT 6000 NSC 30/25 Q1000=
####018000080####
SAYE20 OYSY 081300
METAR OYSY 081300Z 09006KT 050V140 8000 NSC 42/09 Q1000=
####018000072####
SAYE20 OYAS 081300
METAR OYAS 081300Z 18004KT 6000 NSC 35/21 Q1004=
####018000136####
SAUS41 KPHI 081256
MTRACY
METAR KACY 081254Z 10006KT 6SM -RA BR SCT013 BKN020 24/22 A3006 RMK 
AO2 RAB37 SLP178 P0001 T02440222
####018001517####
SAZZ40 KAWN 081300 RRC
METAR ETOU 081255Z AUTO VRB06KT 9999 CLR 29/10 A3013 RMK AO2 SLP200
      T02920101=
METAR KCBM 081255Z AUTO 34007KT 10SM CLR 27/23 A3007 RMK AO2 SLP183
      T02680230 $=
METAR KFBG 081255Z AUTO VRB04KT 10SM CLR 29/21 A2997 RMK AO2 SLP146
      T02880207 $=
METAR KHST 081255Z AUTO 02004KT 10SM BKN021 BKN027 28/26 A2996 RMK
      AO2 CIG 018V024 SLP148 T02820256 $=
METAR KIAB 081255Z AUTO 04008KT 10SM BKN008 22/21 A3011 RMK AO2 RAB1208E1223DZB1221E1222
      SLP184 P0000 T02220214=
METAR KMTC 081255Z 00000KT 7SM FEW240 30/22 A3001 RMK SLP167=
METAR KMUO 081255Z AUTO 06005KT 10SM CLR 12/01 A3010 RMK AO2 SLP170
      T01240010=
METAR KOFF 081255Z AUTO VRB05KT 10SM CLR 21/19 A3014 RMK AO2 SLP195
      T02090195 $=
METAR KRIV 081255Z 29003KT 2SM BR OVC003 13/13 A2992 RMK AO2A SLP129
      T01330125=
METAR KSVN 081255Z 27005KT 10SM SKC 27/22 A2998 RMK SLP155 53007=
METAR KTOI 081253Z 00000KT 9SM CLR 26/23 A3005 RMK AO2 SLP169 T02560233=
METAR KVPS 081255Z 34002KT 10SM SKC 27/24 A3004 RMK SLP173 T02660237
      $=
METAR MYGF 081300Z 08006KT 9999 FEW015CB 29/25 A2998 RMK CB S=
METAR PAEI 081255Z AUTO 00000KT 10SM CLR 09/06 A3004 RMK AO2 SLP173
      T00880061 $=
METAR PHHI 081255Z AUTO 01004KT 10SM -DZ BKN036 OVC044 20/18 A3003
      RMK AO2 DZB1241 SLP156 P0000 T01990181=
METAR RODN 081255Z AUTO 16010KT 9999 FEW018 OVC200 29/26 A2985 RMK
      AO2 SLP107 T02870264=
METAR TNCM 081300Z 08013KT 9999 SCT021 30/23 Q1016=
####018000310####
SPUS17 KAWN 081256 RRH
SPECI KCEF 081252Z 13002KT 6SM -RA BR OVC011 25/22 A3008 RMK AO2A SLP186
      $=
SPECI KGUS 081250Z AUTO 19006KT 10SM -RA FEW060 26/22 A3004 RMK AO2
      RAB1250 CLDS LWR RWY05 SLP167 $=
SPECI KLSF 081238Z COR 00000KT 10SM CLR 26/22 A3003 RMK AO2 SLP169
      COR 1242$=
####018001269####
SAXX70 KAWN 081300 RRC
METAR KQEX 081250Z AUTO 22004KT 5SM BR BKN035 26/20 A2978 RMK A02=
METAR KQAD 081255Z AUTO 29007G13KT 230V030 5000 CLR 46/06 A2955 RMK
      AO2 SLP003 T04600056=
METAR KQCQ 081255Z 34023G36KT 9999 CLR 47/M02 A2953 RMK SLP999=
METAR KQD9 081255Z 15004KT 9999 FEW070 SCT160 34/15 A2985 RMK SLP027
      WND DATA ESTMD ALSTG/SLP ESTMD=
METAR KQGV 081255Z 32024G35KT 4600 BLDU CLR 47/M08 A2954 RMK SLP990=
METAR KQHY 081255Z AUTO VRB02KT 12SM CLR 27/23 A3007 RMK AO2 SLP180
      T02680234=
METAR KQL5 081255Z 10007KT 9999 FEW150 40/13 A2956 RMK AO2A SLP964
      WND DATA ESTMD ALSTG/SLP ESTMD=
METAR KQMG 081255Z AUTO 03012KT 12SM FEW150 20/15 A3018 RMK AO2 SLP153
      T02020146 $=
METAR KQSA 081255Z 34020G25KT 9999 FEW120 35/00 A2988 RMK SLP294 WND
      DATA ESTMD ALSTG/SLP ESTMD=
METAR KQTI 081255Z AUTO 23011KT 9999 CLR 43/00 A2965 RMK AO2 SLP015
      T04311001=
METAR KQTZ 081255Z 31011G17KT 9999 CLR 44/05 A2961 RMK SLP021 QNH1002MB
      ALSTG/SLP ESTMD WND DATA ESTMD=
METAR KQWM 081255Z 31023G32KT 8000 BLDU CLR 47/M02 A2954 RMK PK WND
      31039/24 SLP989 QNH1000=
METAR KQXJ 081255Z 31018G31KT 2000 BLDU BKN000 47/02 A2953 RMK PK WND
      31035/27 DU BKN000 SLP001 PA+384 DA+4102=
####018000086####
SANO36 ENMI 081250 RRA
METAR ENLK 081250Z 33007KT 9999 FEW030 SCT050 15/10 Q1011=
####018002944####
SAUS20 KNKA 081256
METAR KLAX 081253Z 00000KT 7SM BCFG OVC012 16/13 A2991 RMK AO2
     SLP127 T01610128=
METAR K0A9 081255Z AUTO 00000KT 10SM CLR 24/19 A3013 RMK=
METAR K20V 081256Z AUTO 00000KT 10SM CLR 06/05 A3044 RMK AO2=
METAR K4BM 081253Z AUTO 22007KT 1/2SM FG 03/03 A3062 RMK AO2=
METAR K5SM 081253Z AUTO 00000KT 10SM CLR 10/02 A3057 RMK AO2=
METAR K7BM 081256Z AUTO 00000KT 10SM CLR 08/06 A3054 RMK AO2=
METAR KAEG 081255Z AUTO 00000KT 10SM CLR 15/08 A3031 RMK AO1  =
METAR KAVP 081254Z 00000KT 6SM HZ CLR 27/19 A3008 RMK AO2 SLP171
     T02670189 $=
METAR KBBP 081255Z AUTO 32005KT 10SM CLR 28/19 A2997 RMK AO2=
METAR KBDU 081257Z AUTO 23003KT 10SM OVC032 16/12 A3033 RMK AO2=
METAR KBKN 081255Z AUTO 36007KT 10SM SCT027 23/22 A3007 RMK AO2 =
METAR KBMI 081256Z 00000KT 9SM FEW008 SCT047 24/23 A3007 RMK AO2 
    T02440227 SLP168 $=
METAR KBOK 081256Z AUTO 00000KT 5SM BR OVC002 09/09 A2998 RMK AO2 
    T00880088 SLP153 $=
METAR KBTV 081254Z 19004KT 7SM CLR 28/22 A3002 RMK AO2 SLP163
     T02830217=
METAR KCCU 081256Z AUTO 19014KT 10SM CLR 07/00 A3064 RMK AO2=
METAR KCHA 081253Z 00000KT 10SM CLR 27/19 A3009 RMK AO2 SLP180
     T02670194=
METAR KCIC 081255Z AUTO 14007KT 10SM CLR 19/12 A2985 RMK AO1 =
METAR KCNK 081255Z AUTO 35006KT 10SM BKN033 OVC043 20/18 A3017 RMK 
    AO2 SLP205 T02000183=
SPECI KDGW 081255Z AUTO 00000KT 1SM BR VV001 07/06 A3036 RMK AO2 $=
METAR KDLH 081255Z 28007KT 10SM CLR 20/14 A3006 RMK AO2 SLP176 
    T02000144=
METAR KEAT 081255Z AUTO 25007KT 10SM CLR 16/07 A3005 RMK AO2 SLP167 
    T01560067=
METAR KEVB 081255Z 36003KT 10SM SKC 27/22 A3002 =
METAR KFWA 081254Z 20003KT 8SM FEW060 27/21 A3006 RMK AO2 SLP172
     T02720211=
METAR KGGE 081255Z AUTO 31006KT 10SM CLR 26/21 A2995 RMK AO2=
METAR KGPI 081255Z AUTO 36005KT 10SM CLR 13/08 A3019 RMK AO2 SLP210 
    T01280078=
METAR KHUM 081250Z 06004KT 7SM SKC 27/27 A3003 =
METAR KIRK 081255Z AUTO 35005KT 10SM CLR 22/21 A3009 RMK AO2 SLP186 
    T02220206=
METAR KISO 081255Z 01004KT 4SM HZ CLR 28/23 A2997=
METAR KLIC 081255Z AUTO 13004KT 10SM CLR 13/13 A3034 RMK AO2 SLP227 
    T01280128=
METAR KLLJ 081255Z AUTO 00000KT 10SM FEW095 08/01 A3029 RMK AO2 
    SLP207 T00830006=
METAR KLND 081253Z AUTO 00000KT 10SM FEW120 10/04 A3035 RMK AO2
     SLP231 T01000044=
METAR KLUX 081255Z AUTO 00000KT 10SM CLR 27/25 A3004 RMK AO2=
METAR KLXV 081253Z AUTO 00000KT 10SM OVC004 06/05 A3052 RMK AO2
     SLP214 T00560050 TSNO=
METAR KMAO 081255Z AUTO 35003KT 10SM CLR 28/20 A2995 RMK AO2=
METAR KMER 081255Z AUTO 31006KT 10SM CLR 16/12 A2984 RMK AO1 =
METAR KMKG 081255Z 16005KT 6SM BR FEW005 OVC055 24/22 A3002 RMK AO2 
    RAB33E44 SLP160 P0000 T02390222=
METAR KMSN 081253Z VRB03KT 6SM BR OVC006 22/21 A3004 RMK AO2 CIG
     004V009 SLP167 T02170206=
METAR KMWT 081253Z AUTO 00000KT 10SM CLR 25/23 A3007 RMK AO2
     SLP171 T02500233 TSNO=
####018000200####
SAAK41 KNKA 081256
METAR PAHN 081254Z AUTO 00000KT 10SM CLR 11/09 A3018 RMK AO2 SLP222 
    T01060094 TSNO=
METAR PAKN 081254Z 35003KT 10SM SCT060 08/08 A2990 RMK AO2 SLP125 
    T00830078=
####018001387####
SAUS20 KNKA 081256
METAR KMYP 081156Z AUTO 18012KT 10SM CLR 03/02 A3074 RMK AO2=
METAR KOWB 081256Z 21003KT 10SM CLR 29/24 A3008 RMK AO2 T02940244 
    SLP179=
SPECI KRAC 081255Z AUTO 27006KT 6SM BR SCT008 BKN036 OVC080 24/22 
    A3004 RMK AO2=
METAR KRCE 081255Z AUTO 36005KT 4SM BR OVC003 22/22 A3010 RMK AO2 
     =
METAR KRKR 081255Z AUTO 20004KT 10SM SCT037 BKN046 OVC085 28/25 
     A3005 RMK AO2 LTG DSNT N=
METAR KRNO 081255Z 00000KT 10SM SCT120 BKN160 19/06 A3006 RMK AO2 
    SLP121 T01890056=
METAR KSAV 081253Z 29007KT 10SM CLR 27/20 A3000 RMK AO2 SLP158
     T02670200 $=
METAR KSBN 081254Z 13003KT 5SM -RA BR FEW035 BKN060 OVC075 23/22
     A3006 RMK AO2 TSB25E45RAB1155 SLP172 OCNL LTGIC DSNT SW CB
     DSNT SW P0015 T02330217=
METAR KSCK 081255Z AUTO 36003KT 10SM CLR 12/11 A2985 RMK AO2 SLP106 
    T01220106=
METAR KSGR 081253Z 07007KT 10SM FEW012 SCT080 25/23 A2995 RMK AO2
     RAB30E42 SLP148 P0000 T02500233=
METAR KSMS 081255Z AUTO 31006KT 10SM CLR 28/20 A2999 RMK AO2 =
METAR KTLH 081253Z 33006KT 10SM BCFG CLR 27/23 A3004 RMK AO2
     SLP170 T02670233=
METAR KVTP 081300Z AUTO 24007KT 10SM CLR 07/03 A3054 RMK AO2=
METAR KWYS 081250Z AUTO 00000KT 10SM CLR 02/00 A3039 RMK AO2=
METAR KX40 081255Z AUTO 00000KT 10SM CLR 27/23 A3003 RMK AO2 
     T02680234=
METAR KXFL 081255Z 34004KT 10SM CLR 27/23 A3003=
####018001729####
SAEU KAWN 081300 RRE
METAR EBAW 081250Z 25007KT 180V330 CAVOK 30/12 Q1019 NOSIG=
METAR EBBR 081250Z 20005KT 150V290 CAVOK 30/11 Q1019 NOSIG=
METAR EBCI 081250Z VRB02KT CAVOK 30/10 Q1019 NOSIG=
METAR EBLG 081250Z VRB04KT CAVOK 30/08 Q1019 NOSIG=
METAR EBOS 081250Z 35006KT 320V030 CAVOK 22/16 Q1019 NOSIG=
METAR EGUL 081255Z AUTO 23008KT 9999 SCT034 23/14 A3005 RMK AO2 SLP179
      T02270141=
METAR ELLX 081250Z 17005KT 130V230 CAVOK 30/08 Q1020 NOSIG=
METAR ENAT 081250Z 17006KT 140V240 9999 FEW045 BKN080 23/09 Q1011=
METAR ENBN 081250Z 35006KT 320V060 9999 FEW040 SCT070 19/11 Q1010=
METAR ENBV 081250Z 09016KT 9999 FEW025 11/08 Q1015=
METAR ENEV 081250Z 10007KT 070V130 9999 FEW059 BKN078 21/09 Q1009=
METAR ENFG 081250Z 19015KT 9999 FEW020 BKN035 16/08 Q1013=
METAR ENFL 081250Z 20015KT 9999 FEW015 SCT050 17/12 Q1012=
METAR ENHF 081250Z 24003KT 200V260 CAVOK 20/09 Q1012=
METAR ENKB 081250Z 27015G25KT 9999 FEW045TCU FEW054 SCT064 18/09 Q1010=
METAR ENKR 081250Z 19008KT 160V230 9999 FEW020 16/10 Q1017=
METAR ENML 081250Z 27010KT 9999 VCSH FEW040 BKN060 20/07 Q1010=
METAR ENNA 081250Z 16016KT 9999 FEW045CB SCT070 22/09 Q1012=
METAR ENNK 081250Z 03007KT 9999 BKN070 17/12 Q1009=
METAR ENRA 081250Z VRB03KT 9999 TS SCT050CB SCT070 15/11 Q1010=
METAR ENSH 081250Z 34007KT 9999 VCSH FEW030 BKN050 14/12 Q1010 RESHRA=
METAR ENSK 081250Z 28012KT 9999 VCSH FEW020CB SCT040 BKN060 17/11 Q1010
      RESHRA=
METAR ETAD 081255Z AUTO 21004KT 9999 CLR 29/08 A3015 RMK AO2 SLP193
      T02940081 $=
METAR ETIC 081256Z AUTO 17005KT 9999 CLR 27/09 A3018 RMK AO2 SLP208
      T02710085 $=
METAR ETOU 081255Z AUTO VRB06KT 9999 CLR 29/10 A3013 RMK AO2 SLP200
      T02920101=
####018001501####
SANA14 KAWN 081300
METAR KEGI 081255Z AUTO 00000KT 10SM CLR 26/24 A3004 RMK AO2 SLP172
      T02630240 $=
METAR KNHK 081252Z 11011G15KT 5SM HZ SCT012 SCT020 28/23 A3001 RMK
      AO2 SLP163 T02780233=
METAR KNRB 081252Z 28004KT 10SM CLR 27/20 A3002 RMK AO2 SLP163 T02670200=
METAR KNSI 081256Z 27003KT 7SM OVC013 12/10 A2991 RMK SLP129 T01220100=
METAR KNZY 081252Z 35008KT 7SM -DZ SCT008 OVC013 18/14 A2991 RMK AO2
      DZB22 SLP126 P0000 T01780139 $=
METAR KOFF 081255Z AUTO VRB05KT 10SM CLR 21/19 A3014 RMK AO2 SLP195
      T02090195 $=
METAR KOZR 081255Z 00000KT 10SM CLR 25/25 A3004 RMK AO2A SLP169 T02500250=
METAR KPOB 081255Z AUTO 00000KT 10SM CLR 28/21 A2997 RMK AO2 SLP149
      T02810213 $=
METAR KRIV 081255Z 29003KT 2SM BR OVC003 13/13 A2992 RMK AO2A SLP129
      T01330125=
METAR KSSC 081255Z AUTO 30008KT 10SM CLR 29/20 A2998 RMK AO2 SLP149
      T02860203 $=
METAR KSUU 081255Z AUTO 23019G24KT 10SM CLR 12/10 A2984 RMK AO2 PK
      WND 25026/1226 SLP106 T01170101 RVRNO $=
METAR KTTS 081255Z VRB04KT 10SM FEW025 FEW290 27/23 A3001 RMK SLP162
      1SC /1/ 1CI /1/=
METAR KVPS 081255Z 34002KT 10SM SKC 27/24 A3004 RMK SLP173 T02660237
      $=
METAR KWRI 081255Z AUTO 15007KT 9SM FEW100 26/24 A3003 RMK AO2 SLP168
      T02590238 $=
METAR MSLP 081250Z 00000KT 9999 FEW020 BKN250 24/23 Q1011 A2986 FEW110
      DSTN CB TO SW=
METAR SPIM 081300Z 18004KT 6000 SCT015 OVC023 16/14 Q1014 NOSIG RMK
      BIRD HAZARD RWY 15 PP000=
####018000118####
SAUS43 KLOT 081256
MTRRFD
METAR KRFD 081254Z 30006KT 10SM SCT006 OVC180 24/21 A3006 RMK AO2 
SLP173 T02390211
####018000115####
SAUS45 KABQ 081256
MTRGNT
METAR KGNT 081253Z AUTO 15009KT 16/09 A3033 RMK AO2 SLP174 T01610089 
PWINO TSNO
####018001636####
SAZZ40 KAWN 081300 RRD
METAR BGCO 081250Z 01017KT 9999 SCT064 BKN120 09/02 Q1008 RMK LAST=
METAR ETAD 081255Z AUTO 21004KT 9999 CLR 29/08 A3015 RMK AO2 SLP193
      T02940081 $=
METAR KAFF 081255Z AUTO 00000KT 10SM CLR 12/11 A3038 RMK AO2 SLP206
      T01200107=
METAR KFTK 081255Z AUTO 00000KT 10SM CLR 26/22 A3009 RMK AO2 SLP181
      T02640216=
METAR KLHW 081255Z 29006KT 10SM CLR 26/21 A3000 RMK AO2A SLP160 T02640206=
METAR KMUI 081255Z AUTO 00000KT 10SM CLR 29/20 A3004 RMK AO2 SLP169
      T02910198 $=
METAR KNFW 081252Z 11006KT 10SM SCT012 BKN024 26/22 A3007 RMK AO2 SLP166
      RAB47 P0000 T02610222=
METAR KNIP 081253Z 26005KT 10SM CLR 26/21 A3002 RMK AO2 SLP162 T02560211=
METAR KNKT 081254Z 06011KT 8SM FEW014 BKN060 BKN150 27/24 A2995 RMK
      AO2 SLP139 T02720239=
METAR KNQX 081253Z 05005KT 10SM SCT022CB SCT100 BKN200 29/25 A2996
      RMK AO2 SLP144 CB DSNT S TCU DSNT SE W T2 SET T02940250 $=
METAR KNRB 081252Z 28004KT 10SM CLR 27/20 A3002 RMK AO2 SLP163 T02670200=
METAR KSSC 081255Z AUTO 30008KT 10SM CLR 29/20 A2998 RMK AO2 SLP149
      T02860203 $=
METAR KTTS 081255Z VRB04KT 10SM FEW025 FEW290 27/23 A3001 RMK SLP162
      1SC /1/ 1CI /1/=
METAR KWRI 081255Z AUTO 15007KT 9SM FEW100 26/24 A3003 RMK AO2 SLP168
      T02590238 $=
METAR LQBK 081300Z 35004KT 9999 SCT040 24/11 Q1021 NOSIG=
METAR PABI 081253Z AUTO 00000KT 10SM CLR 10/07 A3008 RMK AO2 SLP186
      T01000072 TSNO=
METAR PASC 081253Z 24012KT 10SM OVC230 08/05 A3003 RMK AO2 SLP170 T00830050=
METAR ROTM 081258Z 19012KT 9999 SCT010 BKN100 BKN180 27/26 A2987 RMK
      SLP098 T02670261=
####018000082####
SPCN48 CWAO 081255
SPECI CYPH 081255Z AUTO 24012KT 1SM OVC001 08/08 A2981=

####018000080####
SAPS31 NIUE 081300
METAR NIUE 081300Z AUTO 15006KT //// ////// 23/23 Q1014=
####018000119####
SAUS45 KREV 081256
MTRDRA
METAR KDRA 081255Z AUTO 00000KT 10SM CLR 19/M11 A2996 RMK AO2 SLP094 
T01941106 TSNO
####018000118####
SAUS46 KSEW 081256
MTRAST
METAR KAST 081255Z AUTO 20003KT 4SM BR OVC003 12/11 A2996 RMK AO2 
SLP146 T01220111
####018000113####
SAUS43 KDLH 081256
MTRINL
METAR KINL 081255Z AUTO 26006KT 10SM CLR 17/14 A3001 RMK AO2 SLP163 
T01720139
####018000130####
SAUS45 KABQ 081256
MTRCAO
METAR KCAO 081255Z AUTO 35009KT 10SM CLR 16/13 A3030 RMK AO2 RAE12 
SLP201 P0000 T01610133 TSNO
####018000139####
SAUS45 KSLC 081256
MTRNKX
METAR KNKX 081255Z 00000KT 10SM -RA OVC010 16/14 A2991 RMK AO2 RAB53 
CIG 005V011 SLP123 P0000 T01560139
####018000118####
SAUS43 KABR 081256
MTRMBG
METAR KMBG 081255Z AUTO 19004KT 10SM CLR 16/12 A3015 RMK AO2 SLP204 
T01610117 TSNO
####018000122####
SAUS41 KLWX 081256 COR
MTRNAK
METAR KNAK 081254Z AUTO 13008KT 5SM HZ 27/22 A3002 RMK AO2 SLP167 
T02720222 TSNO $
####018000118####
SAUS44 KSHV 081256
MTRSHV
METAR KSHV 081256Z 15003KT 10SM BKN090 BKN280 25/24 A3005 RMK AO2 
SLP172 T02500239
####018000118####
SABA31 MYNN 081256
METAR MYNN 081300Z 00000KT 9999 VCSH SCT015CB SCT100 BKN220 
30/26 A2997=


NNNN


####018001645####
SAEU KAWN 081300 RRF
METAR EKVD 081250Z 28012KT CAVOK 22/15 Q1019=
METAR ENAN 081250Z 02006KT 9999 FEW045 SCT090 BKN200 16/10 Q1010 NOSIG=
METAR ENBO 081250Z 30007KT 260V330 9999 FEW050CB 13/10 Q1011 TEMPO
      SHRA=
METAR ENBR 081250Z 18013KT 9999 FEW025 SCT040 17/11 Q1014 NOSIG=
METAR ENBS 081250Z 18012KT 9999 FEW030 15/07 Q1016=
METAR ENDU 081250Z VRB01KT 9999 -SHRA FEW050 BKN070 19/10 Q1010=
METAR ENMH 081250Z 15012KT 9999 FEW015 18/10 Q1014=
METAR ENOL 081250Z 04004KT 340V110 9999 FEW025TCU SCT050 20/06 Q1010
      NOSIG=
METAR ENSO 081250Z 21007KT 140V270 9999 SCT030 19/11 Q1014=
METAR ENST 081250Z 02008KT 350V060 CAVOK 19/11 Q1010=
METAR ENVA 081250Z 34012KT 9999 FEW040CB SCT070 19/11 Q1009 TEMPO SHRA=
METAR ENVD 081250Z 11010KT 9999 FEW022 12/08 Q1017=
METAR ENZV 081250Z 21011KT 9999 SCT020 BKN150 18/12 Q1015 NOSIG=
METAR LIBD 081250Z 36014KT CAVOK 25/12 Q1020=
METAR LIBR 081245Z /////KT CAVOK 25/13 Q1018 NOSIG=
METAR LICC 081250Z 11013KT CAVOK 28/20 Q1018=
METAR LICJ 081250Z 04015KT 9999 FEW018 28/23 Q1018=
METAR LIEO 081250Z 05012KT CAVOK 30/20 Q1019=
METAR LIML 081250Z 17004KT 9999 FEW030 29/16 Q1020 NOSIG=
METAR LIPB 081250Z 18013KT CAVOK 30/12 Q1019=
METAR LIPE 081250Z 07007KT 030V120 CAVOK 30/14 Q1020=
METAR LIPH 081245Z 13004KT 9999 SCT025 27/20 Q1022=
METAR LIPK 081250Z 08008KT CAVOK 28/11 Q1020=
METAR LIPQ 081250Z 28004KT CAVOK 27/14 Q1022=
METAR LIPR 081245Z 08011KT CAVOK 28/19 Q1021=
METAR LIPX 081245Z 20005KT 9999 FEW040 30/14 Q1021=
METAR LIPZ 081250Z 13007KT CAVOK 28/19 Q1022=
METAR LQBK 081300Z 35004KT 9999 SCT040 24/11 Q1021 NOSIG=
####018000119####
SAUS44 KLIX 081256
MTRNBG
METAR KNBG 081255Z 06003KT 7SM SCT015 BKN250 26/23 A3004 RMK AO2 
SLP171 T02620233 $
####018000115####
SAUS44 KSHV 081256
MTRPOE
METAR KPOE 081255Z AUTO 08006KT 10SM CLR 25/23 A3004 RMK AO2 SLP171 
T02500233 $
####018002306####
SAUS99 KWBC 081257 RRA
METAR
KIRK 081255Z AUTO 35005KT 10SM CLR 22/21 A3009 RMK AO2 SLP186
     T02220206=
KISO 081255Z 01004KT 4SM HZ CLR 28/23 A2997=
KLIC 081255Z AUTO 13004KT 10SM CLR 13/13 A3034 RMK AO2 SLP227
     T01280128=
KLLJ 081255Z AUTO 00000KT 10SM FEW095 08/01 A3029 RMK AO2 SLP207
     T00830006=
KLND 081253Z AUTO 00000KT 10SM FEW120 10/04 A3035 RMK AO2 SLP231
     T01000044=
KLUX 081255Z AUTO 00000KT 10SM CLR 27/25 A3004 RMK AO2=
KLXV 081253Z AUTO 00000KT 10SM OVC004 06/05 A3052 RMK AO2 SLP214
     T00560050 TSNO=
KMAO 081255Z AUTO 35003KT 10SM CLR 28/20 A2995 RMK AO2=
KMER 081255Z AUTO 31006KT 10SM CLR 16/12 A2984 RMK AO1=
KMKG 081255Z 16005KT 6SM BR FEW005 OVC055 24/22 A3002 RMK AO2
     RAB33E44 SLP160 P0000 T02390222=
KMSN 081253Z VRB03KT 6SM BR OVC006 22/21 A3004 RMK AO2 CIG 004V009
     SLP167 T02170206=
KMWT 081253Z AUTO 00000KT 10SM CLR 25/23 A3007 RMK AO2 SLP171
     T02500233 TSNO=
PAHN 081254Z AUTO 00000KT 10SM CLR 11/09 A3018 RMK AO2 SLP222
     T01060094 TSNO=
PAKN 081254Z 35003KT 10SM SCT060 08/08 A2990 RMK AO2 SLP125
     T00830078=
KMYP 081156Z AUTO 18012KT 10SM CLR 03/02 A3074 RMK AO2=
KOWB 081256Z 21003KT 10SM CLR 29/24 A3008 RMK AO2 T02940244
     SLP179=
KRCE 081255Z AUTO 36005KT 4SM BR OVC003 22/22 A3010 RMK AO2=
KRKR 081255Z AUTO 20004KT 10SM SCT037 BKN046 OVC085 28/25 A3005
     RMK AO2 LTG DSNT N=
KRNO 081255Z 00000KT 10SM SCT120 BKN160 19/06 A3006 RMK AO2 SLP121
     T01890056=
KSAV 081253Z 29007KT 10SM CLR 27/20 A3000 RMK AO2 SLP158 T02670200
     $=
KSBN 081254Z 13003KT 5SM -RA BR FEW035 BKN060 OVC075 23/22 A3006
     RMK AO2 TSB25E45RAB1155 SLP172 OCNL LTGIC DSNT SW CB DSNT SW
     P0015 T02330217=
KSCK 081255Z AUTO 36003KT 10SM CLR 12/11 A2985 RMK AO2 SLP106
     T01220106=
KSGR 081253Z 07007KT 10SM FEW012 SCT080 25/23 A2995 RMK AO2
     RAB30E42 SLP148 P0000 T02500233=
KSMS 081255Z AUTO 31006KT 10SM CLR 28/20 A2999 RMK AO2=
KTLH 081253Z 33006KT 10SM BCFG CLR 27/23 A3004 RMK AO2 SLP170
     T02670233=
KVTP 081300Z AUTO 24007KT 10SM CLR 07/03 A3054 RMK AO2=
KWYS 081250Z AUTO 00000KT 10SM CLR 02/00 A3039 RMK AO2=
KX40 081255Z AUTO 00000KT 10SM CLR 27/23 A3003 RMK AO2
     T02680234=
KXFL 081255Z 34004KT 10SM CLR 27/23 A3003=
####018003673####
SAUS99 KWBC 081257
METAR
KAAF 081253Z AUTO 01007KT 10SM CLR 28/24 A3003 RMK AO2 SLP168
     T02780239=
KAKR 081254Z AUTO 22003KT 8SM CLR 27/19 A3009 RMK AO2 SLP178
     T02670189=
KAMG 081253Z AUTO 29005KT 10SM CLR 26/21 A3003 RMK AO2 SLP166
     T02610206=
KBUF 081254Z 23004KT 10SM FEW090 28/19 A3006 RMK AO2 SLP173 ACC
     E-SE T02780194=
KCEW 081253Z AUTO 00000KT 10SM CLR 26/24 A3005 RMK AO2 SLP172
     T02610239=
KDSV 081254Z AUTO 13007KT 9SM CLR 26/20 A3009 RMK AO2 SLP191
     T02610200=
KDTO 081253Z AUTO 15007KT 10SM FEW015 SCT031 26/23 A3003 RMK AO2
     SLP160 T02560233=
KECP 081253Z 32004KT 10SM CLR 27/24 A3003 RMK AO2 SLP178
     T02670244=
KFIG 081254Z AUTO 00000KT 6SM HZ SCT070 23/19 A3013 RMK AO2 SLP189
     T02330189=
KGCN 081254Z 04003KT 10SM CLR 11/M01 A3025 RMK AO2 SLP144
     T01111011=
KHYI 081255Z AUTO 05007KT 7SM FEW007 BKN017 OVC038 A2996 RMK
     AO1=
KILE 081255Z 10003KT 8SM BKN006 OVC015 24/23 A3000 RMK AO1=
KJST 081254Z AUTO 00000KT 5SM HZ CLR 24/17 A3015 RMK AO2 SLP191
     T02390172=
KMAI 081253Z AUTO 00000KT 7SM SCT001 27/24 A3003 RMK AO2 SLP168
     T02670239=
KMLB 081253Z 04004KT 10SM FEW025 28/20 A3000 RMK AO2 SLP157
     T02780200=
KMTN 081250Z 10006KT 4SM HZ FEW100 29/24 A3003=
KOCF 081250Z 00000KT 10SM SKC 23/23 A3003=
KOCH 081255Z AUTO 11007KT 10SM SCT011 BKN018 BKN120 25/19 A3004
     RMK AO1=
KPNE 081254Z 13005KT 2 1/2SM HZ OVC006 26/23 A3006 RMK AO2 SFC VIS
     5 SLP177 T02610233=
KPNS 081253Z 00000KT 10SM CLR 27/24 A3004 RMK AO2 SLP172
     T02720244=
KPRX 081255Z 15007KT 5SM BKN005 OVC014 25/23 A3005 RMK AO1=
KPWG 081255Z AUTO 06005KT 10SM SCT013 BKN021 OVC029 26/23 A3002
     RMK AO1=
KROC 081254Z 22006KT 9SM FEW090 26/21 A3005 RMK AO2 SLP173
     T02610206=
KTPL 081255Z 07007KT 7SM OVC009 24/23 A3000 RMK AO1=
KVAY 081254Z AUTO 14004KT 5SM BR BKN006 OVC011 26/23 A3004 RMK AO2
     CIG 005V009 SLP172 T02560233=
KLAX 081253Z 00000KT 7SM BCFG OVC012 16/13 A2991 RMK AO2 SLP127
     T01610128=
K0A9 081255Z AUTO 00000KT 10SM CLR 24/19 A3013 RMK=
K20V 081256Z AUTO 00000KT 10SM CLR 06/05 A3044 RMK AO2=
K4BM 081253Z AUTO 22007KT 1/2SM FG 03/03 A3062 RMK AO2=
K5SM 081253Z AUTO 00000KT 10SM CLR 10/02 A3057 RMK AO2=
K7BM 081256Z AUTO 00000KT 10SM CLR 08/06 A3054 RMK AO2=
KAEG 081255Z AUTO 00000KT 10SM CLR 15/08 A3031 RMK AO1=
KAVP 081254Z 00000KT 6SM HZ CLR 27/19 A3008 RMK AO2 SLP171
     T02670189 $=
KBBP 081255Z AUTO 32005KT 10SM CLR 28/19 A2997 RMK AO2=
KBDU 081257Z AUTO 23003KT 10SM OVC032 16/12 A3033 RMK AO2=
KBKN 081255Z AUTO 36007KT 10SM SCT027 23/22 A3007 RMK AO2=
KBMI 081256Z 00000KT 9SM FEW008 SCT047 24/23 A3007 RMK AO2
     T02440227 SLP168 $=
KBOK 081256Z AUTO 00000KT 5SM BR OVC002 09/09 A2998 RMK AO2
     T00880088 SLP153 $=
KBTV 081254Z 19004KT 7SM CLR 28/22 A3002 RMK AO2 SLP163
     T02830217=
KCCU 081256Z AUTO 19014KT 10SM CLR 07/00 A3064 RMK AO2=
KCHA 081253Z 00000KT 10SM CLR 27/19 A3009 RMK AO2 SLP180
     T02670194=
KCIC 081255Z AUTO 14007KT 10SM CLR 19/12 A2985 RMK AO1=
KCNK 081255Z AUTO 35006KT 10SM BKN033 OVC043 20/18 A3017 RMK AO2
     SLP205 T02000183=
KDLH 081255Z 28007KT 10SM CLR 20/14 A3006 RMK AO2 SLP176
     T02000144=
KEAT 081255Z AUTO 25007KT 10SM CLR 16/07 A3005 RMK AO2 SLP167
     T01560067=
KEVB 081255Z 36003KT 10SM SKC 27/22 A3002=
KFWA 081254Z 20003KT 8SM FEW060 27/21 A3006 RMK AO2 SLP172
     T02720211=
KGGE 081255Z AUTO 31006KT 10SM CLR 26/21 A2995 RMK AO2=
KGPI 081255Z AUTO 36005KT 10SM CLR 13/08 A3019 RMK AO2 SLP210
     T01280078=
KHUM 081250Z 06004KT 7SM SKC 27/27 A3003=
####018000177####
SPUS99 KWBC 081257
SPECI
KDGW 081255Z AUTO 00000KT 1SM BR VV001 07/06 A3036 RMK AO2 $=
KRAC 081255Z AUTO 27006KT 6SM BR SCT008 BKN036 OVC080 24/22 A3004
     RMK AO2=
####018000085####
SASN31 ESWI 081250 RRA
METAR ESGT 081250Z 19012KT 9999 SCT016 SCT035 19/14 Q1018=
####018000742####
SAIY31 LIIB 081250
METAR LIEA 081250Z 21007KT 170V330 9999 FEW025 33/19 Q1019=
METAR LIEE 081245Z 16012KT 9999 FEW020 28/21 Q1019 NOSIG=
METAR LIEO 081250Z 05012KT CAVOK 30/20 Q1019=
METAR LIMC 081250Z VRB03KT 9999 FEW025 29/15 Q1021 NOSIG=
METAR LIME 081250Z 16005KT 110V200 9999 BKN050 27/15 Q1022=
METAR LIMF 081250Z VRB02KT 9999 SCT070 28/15 Q1022=
METAR LIMJ 081250Z 16006KT 9999 FEW035 29/25 Q1020=
METAR LIML 081250Z 17004KT 9999 FEW030 29/16 Q1020 NOSIG=
METAR LIRA 081245Z 27007KT 170V030 9999 FEW018 30/17 Q1020=
METAR LIRF 081250Z 24011KT 210V270 CAVOK 29/18 Q1020 NOSIG=
METAR LIRN 081250Z 05007KT CAVOK 29/14 Q1019=
METAR LIRP 081245Z 32005KT CAVOK 31/17 Q1019 NOSIG=
METAR LIRQ 081250Z 09004KT CAVOK 32/15 Q1019=
####018000091####
SAFJ31 NFFN 081300
METAR NFFN 081300Z 11004KT 40KM FEW030 20/18 Q1013 NOSIG RMK RR NIL=
####018000164####
SAVN24 SVMG 081300

METAR SVMG 081300Z 07009KT 9999 SCT010 SCT080 30/28 Q1013 NOSIG=
METAR SVCU 081300Z NIL=
METAR SVCP 081300Z NIL=
METAR SVGI 081300Z NIL=
####018000100####
SAGL31 BGSF 081250 RRA
METAR BGJN 081250Z VRB03KT 9999 0500N VCFG FEW001 07/04 Q1009 
RMK 1ST =
####018000932####
SAUK39 EGRR 081250
METAR EGDL 081250Z 20007KT 9999 FEW035 BKN220 22/10 Q1018 BLU NOSIG=
METAR EGDM 081250Z 22008KT 9999 SCT025 BKN250 22/14 Q1018 BLU NOSIG=
METAR EGOP 081250Z 21010KT 9999 -SHRA FEW017 BKN090 17/14 Q1019 BLU=
METAR EGQL 081250Z 24022KT 9999 FEW040 SCT250 19/06 Q1012 BLU NOSIG=
METAR EGQS 081250Z 23013KT 9999 FEW025 BKN050 16/12 Q1009 BLU TEMPO
 7000 -SHRA WHT=
METAR EGVO 081250Z 23009KT 9999 BKN024 BKN030 22/15 Q1018 WHT BECMG
 BKN025 BLU=
METAR EGWU 081250Z 24008KT 9999 SCT032 BKN250 23/14 Q1018 BLU NOSIG=
METAR EGXD 081250Z 24014KT 9999 FEW045 BKN250 21/08 Q1016 BLU NOSIG=
METAR EGXG 081250Z 24013KT CAVOK 22/07 Q1016 BLU=
METAR EGXT 081250Z 25008KT 9999 FEW040 BKN250 23/06 Q1017 BLU=
METAR EGXU 081250Z 26011KT 9999 SCT045 SCT250 20/09 Q1016 BLU NOSIG=
METAR EGXX 081250Z 24009KT CAVOK ///// Q//// BLU=
METAR EGYM 081250Z 23010KT 9999 FEW040 BKN220 23/11 Q1018 BLU NOSIG=
####018000273####
SAZA42 FAJS 081300
METAR FAVV 081300Z AUTO 06008KT //// // ////// 18/02 Q1029=
METAR FAJB 081300Z AUTO 02003KT //// // ////// 17/02 Q1031=
METAR FASI 081300Z AUTO 04006G17KT //// // ////// 18/M03 Q1031=
METAR FAGC 081300Z AUTO 02005KT //// // ////// 17/02 Q1031=
####018001524####
SAUS17 KAWN 081300 RRA
METAR KAFF 081255Z AUTO 00000KT 10SM CLR 12/11 A3038 RMK AO2 SLP206
      T01200107=
METAR KBAB 081255Z AUTO 00000KT 10SM FEW180 15/12 A2984 RMK AO2 SLP105
      T01500116 $=
METAR KBIX 081255Z AUTO 02005KT 10SM CLR 27/26 A3005 RMK AO2 SLP177
      T02660256=
METAR KBKF 081255Z 36005KT 3/4SM BR OVC002 13/13 A3034 RMK SLP234=
METAR KDLF 081255Z AUTO 31003KT 10SM FEW015 SCT041 24/23 A2998 RMK
      AO2 SLP137 T02410231 $=
METAR KFSI 081255Z AUTO 01005KT 10SM OVC085 23/22 A3006 RMK AO2 SLP164
      T02320222=
METAR KFTK 081255Z AUTO 00000KT 10SM CLR 26/22 A3009 RMK AO2 SLP181
      T02640216=
METAR KHFF 081255Z AUTO 35003KT 10SM CLR 29/19 A2999 RMK AO2 SLP153
      T02880191 $=
METAR KHST 081255Z AUTO 02004KT 10SM BKN021 BKN027 28/26 A2996 RMK
      AO2 CIG 018V024 SLP148 T02820256 $=
METAR KLHW 081255Z 29006KT 10SM CLR 26/21 A3000 RMK AO2A SLP160 T02640206=
METAR KLTS 081255Z AUTO 04003KT 10SM FEW050 23/23 A3008 RMK AO2 RAE1224DZB1204E1207B1224E1227
      SLP170 P0001 T02300225 $=
METAR KLUF 081255Z 34003KT 10SM SCT160 26/04 A2980 RMK AO2A SLP059
      T02550038 $=
METAR KMCF 081255Z AUTO 05007KT 10SM CLR 26/24 A3002 RMK AO2 SLP166
      T02610236=
METAR KMUI 081255Z AUTO 00000KT 10SM CLR 29/20 A3004 RMK AO2 SLP169
      T02910198 $=
METAR KMUO 081255Z AUTO 06005KT 10SM CLR 12/01 A3010 RMK AO2 SLP170
      T01240010=
METAR KNFW 081252Z 11006KT 10SM SCT012 BKN024 26/22 A3007 RMK AO2 SLP166
      RAB47 P0000 T02610222=
####018001440####
SAZZ40 KAWN 081300 RRE
METAR BGTL 081255Z AUTO 26005KT 8000 BR FEW001 05/05 A2982 RMK AO2
      SLP103 T00520051=
METAR KBAB 081255Z AUTO 00000KT 10SM FEW180 15/12 A2984 RMK AO2 SLP105
      T01500116 $=
METAR KBIX 081255Z AUTO 02005KT 10SM CLR 27/26 A3005 RMK AO2 SLP177
      T02660256=
METAR KFSI 081255Z AUTO 01005KT 10SM OVC085 23/22 A3006 RMK AO2 SLP164
      T02320222=
METAR KGTB 081255Z AUTO VRB04KT 10SM CLR 29/22 A3004 RMK AO2 SLP171
      T02920220=
METAR KLUF 081255Z 34003KT 10SM SCT160 26/04 A2980 RMK AO2A SLP059
      T02550038 $=
METAR KMCF 081255Z AUTO 05007KT 10SM CLR 26/24 A3002 RMK AO2 SLP166
      T02610236=
METAR KSKA 081255Z AUTO 06005KT 10SM CLR 15/09 A3008 RMK AO2 SLP174
      T01510086=
METAR KSLI 081255Z AUTO 18003KT 10SM OVC013 16/14 A2991 RMK AO2 SLP130
      T01640140=
METAR KTCM 081255Z AUTO 00000KT 10SM CLR 12/10 A2996 RMK AO2 SLP146
      T01150104=
METAR KTIK 081255Z AUTO 35003KT 10SM FEW006 BKN033 24/23 A3006 RMK
      AO2 SLP167 T02360226 $=
METAR KVAD 081255Z AUTO 32006KT 10SM CLR 26/20 A3004 RMK AO2 SLP170
      T02600204 $=
METAR MUGM 081256Z 01005KT 9999 FEW100 BKN250 28/22 A2997 RMK SLP148
      T02780222=
METAR NFFN 081300Z 11004KT 40KM FEW030 20/18 Q1013 NOSIG RMK RR NIL=
METAR PGUA 081255Z AUTO 11010KT 10SM CLR 26/ A2992 RMK AO2 SLP113 T0260
      VISNO RWY24L $=
METAR TJMZ 081250Z 05006KT 6SM HZ FEW030 31/25 A3002=
####018000632####
SACN59 CWAO 081200 RRI
PAA SA 1200 AUTO8 M M M M/13/10/2203/M/ M 98MM=
PBA SA 1200 AUTO8 M M M M/08/07/MMMM/M/ M 12MM=
PBE SA 1200 AUTO8 M M M M/09/08/1002/M/ M 92MM=
PBS SA 1200 AUTO8 M M M M/09/08/3004/M/0004 M 70MM=
PBT SA 1200 AUTO8 M M M M/09/08/2410/M/ M 39MM=
PCA SA 1200 AUTO8 M M M M/12/11/2306/M/ M 36MM=
PEH SA 1200 AUTO8 M M M M/10/09/3001/M/ M 14MM=
PGE SA 1200 AUTO8 M M M M/12/10/2405/M/ M 73MM=
PIR SA 1200 AUTO8 M M M M/11/10/2707/M/ M 27MM=
PQL SA 1200 AUTO8 M M M M/09/09/2203/M/ M 38MM=
PRA SA 1200 AUTO8 M M M M/12/10/MMMM/M/ M 94MM=
PXL SA 1200 AUTO8 M M M M/10/09/1603/M/ M 67MM=

####018000628####
SACN60 CWAO 081200 RRD
PET SA 1200 AUTO8 M M M M/08/08/MMMM/M/ M 27MM=
PFM SA 1200 AUTO8 M M M M/08/07/MMMM/M/ M 12MM=
PHU SA 1200 AUTO8 M M M M/12/11/MMMM/M/ M 86MM=
PIA SA 1200 AUTO8 M M M M/11/09/MMMM/M/ M 63MM=
PKA SA 1200 AUTO8 M M M M/13/10/MMMM/M/ M 70MM=
PLA SA 1200 AUTO8 M M M M/06/06/MMMM/M/ M 25MM=
PMA SA 1200 AUTO8 M M M M/14/11/MMMM/M/ M 86MM=
PMB SA 1200 AUTO8 M M M M/07/06/MMMM/M/ M 00MM=
PML SA 1200 AUTO8 M M M M/12/10/MMMM/M/ M 50MM=
PPL SA 1200 AUTO8 M M M M/09/08/MMMM/M/ M 21MM=
PRH SA 1200 AUTO8 M M M M/09/09/MMMM/M/ M 17MM=
PRS SA 1200 AUTO8 M M M M/12/11/MMMM/M/ M 96MM=

####018000104####
SACN93 CWAO 081200 RRF
WND SA 1200 AUTO8 M M M 155/05/04/3114/M/M PK WND 3121 1121Z 2005
95MM=

####018000139####
SACN96 CWAO 081200 RRH
WYW SA 1200 AUTO8 M M M 139/18/14/2102/M/ 8004 14MM=
XEL SA 1200 AUTO8 M M M 133/16/12/3009/M/M 1003 57MM=

####018000087####
SACN89 CWAO 081200 RRF
WCI SA 1200 AUTO8 M M M 151/16/16/0903/M/0142 1013 86MM=

####018000083####
SACN92 CWAO 081200 RRE
WJN SA 1200 AUTO8 M M M 170/05/04/3206/M/ 8004 00MM=

####018000083####
SACN90 CWAO 081200 RRE
WFZ SA 1200 AUTO8 M M M 128/08/07/0000/M/ 8001 91MM=

####018000073####
SALY31 HLLM 081300
METAR HLLM 081250Z 
34009KT 7000 SKC 28/21 Q1019
####018000084####
SAMP31 LMMM 081300 RRA
METAR HLLT 081250Z 35007KT 310V040 8000 SKC 31/18 Q1018=
####018000120####
SAUS43 KUNR 081257
MTRPHP
METAR KPHP 081255Z AUTO 24004KT 10SM CLR 14/11 A3023 RMK AO2 SLP224 
T01390106 TSNO $
####018000118####
SAUS42 TJSJ 081257
MTRSJU
METAR TJSJ 081256Z 08006KT 10SM FEW020 SCT036 29/26 A3001 RMK AO2 
SLP161 T02890256
####018000113####
SAUS43 KFSD 081257
MTRHON
METAR KHON 081255Z AUTO 28004KT 10SM CLR 18/14 A3016 RMK AO2 SLP206 
T01830144
####018000123####
SAUS46 KLOX 081257
MTRVBG
METAR KVBG 081255Z AUTO 33006KT 10SM OVC004 12/11 A2994 RMK AO2 
SLP130 T01170111 TSNO $
####018000086####
SAUS54 KWBC 081200 RRI
METAR
KIZA 081249Z AUTO 00000KT 10SM OVC007 13/11 A2992=
####018000367####
SAFI34 EFHK 081250
EFET 081250Z AUTO 16010KT 120V220 CAVOK 20/06 Q1013=
EFIV 081250Z AUTO VRB03KT CAVOK 22/10 Q1015=
EFKE 081250Z AUTO 21009KT 170V240 9999 FEW045 22/12 Q1015=
EFKI 081250Z AUTO 34005KT 310V030 CAVOK 23/14 Q1015=
EFKS 081250Z AUTO 18003KT CAVOK 21/10 Q1016=
EFKT 081250Z AUTO 16008KT 090V190 CAVOK 21/08 Q1014=
METAR EFSO 081256Z NIL=
####018000102####
SAGL31 BGSF 081250 RRA
METAR BGJN 081250Z VRB03KT 9999 0500N VCFG FEW001 07/04 Q1009 
RMK 1ST =
####018000549####
SAGR31 LGAT 081250
METAR LGAD 081250Z NIL=
METAR LGAV 081250Z 04020KT 9999 SCT030 26/13 Q1012 NOSIG=
METAR LGIR 081250Z 35009KT 9999 SCT020 28/24 Q1011 NOSIG=
METAR LGKL 081250Z 33010G22KT 9999 FEW030 33/12 Q1011=
METAR LGKO 081250Z 30020KT CAVOK 29/18 Q1009=
METAR LGKR 081250Z 31022KT CAVOK 27/11 Q1012 NOSIG=
METAR LGLM 081250Z NIL=
METAR LGRP 081250Z NIL=
METAR LGSA 081250Z 35012KT 9999 FEW020 32/16 Q1012=
METAR LGSM 081250Z 35009KT 9999 FEW030 31/17 Q1009=
METAR LGTS 081250Z 34017G27KT 9999 FEW025 24/12 Q1016 NOSIG=
####018000081####
SASN34 ESWI 081250 RRA
METAR ESDF 081250Z 19013KT 160V230 CAVOK 23/13 Q1020=
####018000086####
SASN31 ESWI 081250 RRA
METAR ESGT 081250Z 19012KT 9999 SCT016 SCT035 19/14 Q1018=
####018000535####
SANL40 EHWX 081255
METAR EHDL 081255Z AUTO 21008KT 9999NDV SCT390 30/13 Q1018 
BLU=
METAR EHEH 081255Z AUTO 20007KT 9999NDV FEW350 31/11 Q1018 
BLU BLU=
METAR EHGR 081255Z AUTO 26006KT 9999NDV FEW390 30/11 Q1018 
BLU BLU=
METAR EHLW 081255Z AUTO 23009KT 9999NDV BKN120 OVC180 25/19 Q1018 
BLU BLU=
METAR EHVK 081255Z AUTO 22006KT 9999NDV NCD 30/11 Q1018 
BLU BLU=
METAR EHVL 081255Z AUTO 24010KT 9999NDV FEW075 BKN160 21/16 Q1019 
BLU=
METAR EHWO 081255Z AUTO 26007KT 9999NDV SCT400 28/13 Q1018 
BLU BLU=
####018000084####
SAVN22 SVMI 081300
METAR SVMI 081300Z 00000KT  9999 FEW016 BKN100 26/24 Q1015 =
####018000118####
SAUS45 KABQ 081257
MTRABQ
METAR KABQ 081256Z 10014KT 10SM SCT100 OVC200 19/09 A3028 RMK AO2 
SLP171 T01940094
####018000118####
SAUS46 KMTR 081257
MTRAAT
METAR KAAT 081255Z AUTO 00000KT 10SM CLR 09/07 A3009 RMK AO2 SLP146 
T00890067 TSNO
####018000113####
SAUS43 KLMK 081257
MTRSDF
METAR KSDF 081256Z 12003KT 5SM HZ FEW100 28/21 A3007 RMK AO2 SLP175 
T02780211
####018000108####
SAUS42 KJAX 081257
MTRJAX
METAR KJAX 081256Z 28005KT 10SM CLR 24/21 A3002 RMK AO2 SLP166 
T02440211
####018000107####
SAUS42 KCHS 081257
MTRCHS
METAR KCHS 081256Z 31006KT 8SM CLR 27/21 A2997 RMK AO2 SLP148 
T02670206
####018001173####
SAUS20 KNKA 081256
METAR KALN 081250Z 00000KT 05SM BR BKN008 OVC080 25/24 A3006=
SPECI KCEF 081252Z 13002KT 6SM -RA BR OVC011 25/22 A3008 RMK AO2A SLP186
      $=
METAR KCEF 081255Z 13003KT 6SM -RA BR OVC011 25/22 A3008 RMK AO2A SLP186
      T02460224 $=
METAR KEFD 081250Z 08005KT 4SM -RA BKN006 BKN020 OVC250 25/24 A2998=
METAR KFBG 081255Z AUTO VRB04KT 10SM CLR 29/21 A2997 RMK AO2 SLP146
      T02880207 $=
SPECI KGUS 081250Z AUTO 19006KT 10SM -RA FEW060 26/22 A3004 RMK AO2
      RAB1250 CLDS LWR RWY05 SLP167 $=
METAR KGUS 081255Z AUTO 23005KT 10SM -RA SCT060 25/23 A3005 RMK AO2
      RAB1250 SLP169 P0000 T02520230 $=
METAR KLRF 081255Z AUTO 00000KT 10SM CLR 25/23 A3008 RMK AO2 SLP186
      T02470230=
METAR KNRB 081252Z 28004KT 10SM CLR 27/20 A3002 RMK AO2 SLP163 T02670200=
METAR KOZR 081255Z 00000KT 10SM CLR 25/25 A3004 RMK AO2A SLP169 T02500250=
METAR KSSC 081255Z AUTO 30008KT 10SM CLR 29/20 A2998 RMK AO2 SLP149
      T02860203 $=
METAR KTTS 081255Z VRB04KT 10SM FEW025 FEW290 27/23 A3001 RMK SLP162
      1SC /1/ 1CI /1/=
METAR KUCP 081256Z AUTO 00000KT 5SM HZ CLR 24/21 A3010 RMK AO2 
    T02440211 SLP199 $=
####018001518####
SAZZ40 KAWN 081300 RRF
METAR BGJN 081250Z VRB03KT 9999 0500N VCFG FEW001 07/04 Q1009 RMK 1ST=
METAR EFKI 081250Z AUTO 34005KT 310V030 CAVOK 23/14 Q1015=
METAR ETAR 081255Z AUTO VRB04KT 9999 CLR 30/15 A3012 RMK AO2 SLP193
      T03040154 $=
METAR KADW 081255Z AUTO 10003KT 10SM CLR 27/23 A3002 RMK AO2 SLP166
      T02730234=
METAR KBKF 081255Z 36005KT 3/4SM BR OVC002 13/13 A3034 RMK SLP234=
METAR KDLF 081255Z AUTO 31003KT 10SM FEW015 SCT041 24/23 A2998 RMK
      AO2 SLP137 T02410231 $=
METAR KLFI 081255Z 10006KT 10SM FEW013 BKN100 26/22 A3001 RMK AO2A
      SLP163 T02580217 $=
METAR KLTS 081255Z AUTO 04003KT 10SM FEW050 23/23 A3008 RMK AO2 RAE1224DZB1204E1207B1224E1227
      SLP170 P0001 T02300225 $=
METAR KMMT 081255Z 33006KT 8SM FEW100 28/20 A3000 RMK AO2A SLP159 T02800203=
METAR KMXF 081255Z AUTO 00000KT 10SM CLR 28/24 A3003 RMK AO2 SLP167
      T02820237=
METAR KWRB 081255Z 34006KT 10SM CLR 27/22 A3003 RMK AO2A SLP166 T02680218
      $=
METAR KXMR 081255Z AUTO 03004KT 10SM CLR 28/22 A2999 RMK AO2 SLP158
      T02760221=
METAR MHLC 081300Z 19005KT 9999 FEW018 SCT080 BKN200 27/24 Q1010 A2984
      NOSIG=
METAR MHLM 081300Z 36004KT 9999 FEW008 SCT028 OVC080 26/25 Q1012 A2989
      NOSIG=
METAR MHRO 081300Z 08009KT 9999 FEW018CB BKN200 29/25 Q1010 A2982 NOSIG=
METAR MHSC 081255Z AUTO 28003KT 9999 OVC065 22/20 A2998 RMK AO2 SLP116
      T02200203 $=
METAR MHTG 081300Z 25003KT 5000 VCSH FEW006 BKN022 OVC080 20/19 Q1018
      A3006 NOSIG=
####018000137####
SAUS43 KAPX 081257
MTRANJ
METAR KANJ 081255Z AUTO 27008KT 7SM -RA OVC004 20/19 A2997 RMK AO2 
CIG 003V008 SLP145 P0000 T02000189
####018000088####
SAUS74 KWBC 081200 RRE
METAR
KIWA 081247Z 09005KT 45SM FEW120 SCT200 29/06 A2983=
####018000088####
SAMZ40 FQMA 081300
METAR
FQLC 081300Z 15006KT 9999 BKN013 19/07 Q1025 TX/20,1=

####018000114####
SAUS45 KPSR 081257
MTRNYL
METAR KNYL 081255Z AUTO 00000KT 10SM CLR 27/M03 A2974 RMK AO2 SLP065 
T02671033
####018001360####
SAXX60 KAWN 081300
METAR NSTU 081250Z 07012KT 10SM FEW016 28/26 A2988 RMK SLP119 T02780259=
METAR PGSN 081254Z 10012KT 10SM FEW019 SCT026 28/24 A2992 RMK AO2 RAB09E21
      SLP129 P0000 T02780244=
METAR PGUA 081255Z AUTO 11010KT 10SM CLR 26/ A2992 RMK AO2 SLP113 T0260
      VISNO RWY24L $=
METAR PGUM 081254Z 11008KT 10SM CLR 27/24 A2992 RMK AO2 SLP123 T02720244=
METAR PHHI 081255Z AUTO 01004KT 10SM -DZ BKN036 OVC044 20/18 A3003
      RMK AO2 DZB1241 SLP156 P0000 T01990181=
METAR PHJR 081253Z 00000KT 10SM SCT060 22/17 A3001 RMK AO2 SLP170 T02220172=
METAR PHKO 081253Z AUTO 12006KT 10SM BKN065 23/18 A2996 RMK AO2 SLP144
      T02330178 TSNO=
METAR PHMK 081254Z AUTO 05006KT 10SM BKN050 22/18 A3002 RMK AO2 SLP167
      T02170178 TSNO=
METAR PHNL 081253Z 07005KT 10SM FEW039 SCT055 23/18 A3000 RMK AO2 SLP160
      T02280183=
METAR PHOG 081254Z AUTO 03010KT 10SM CLR 23/17 A3000 RMK AO2 SLP165
      T02280172 TSNO=
METAR PHTO 081253Z 22006KT 10SM RA FEW020 BKN026 OVC034 21/19 A3002
      RMK AO2 RAB04 SLP164 P0011 T02110194=
METAR PTKK 081252Z VRB04KT 15SM FEW014 BKN120 OVC280 26/23 A2985 RMK
      SLP111 T02620229=
METAR RJTY 081255Z AUTO 11003KT 9999 CLR 24/22 A2990 RMK AO2 SLP118
      T02390219 $=
METAR RODN 081255Z AUTO 16010KT 9999 FEW018 OVC200 29/26 A2985 RMK
      AO2 SLP107 T02870264=
####018000235####
SPNA35 KAWN 081257 RRG
SPECI KACY 081251Z 10007KT 7SM -RA SCT013 BKN018 BKN031 24/22 A3006
      RMK AO2 RAB37 P0001=
SPECI KBRO 081250Z 33007KT 10SM BKN005 BKN014 BKN029 26/26 A2976 RMK
      AO2 RAB09E45 CIG 005V010 P0000=
####018000397####
SAXX70 KAWN 081300 RRD
METAR KQAY 081255Z AUTO 01019G26KT 4000 HZ SCT023 BKN028 48/M02 A2949
      RMK AO2 PK WND 36026/1200 SLP981 T04751016=
METAR KQBL 081255Z AUTO 32001KT 10SM CLR 28/24 A3007 RMK AO2 SLP181
      T02750239=
METAR KQDP 081255Z AUTO 22008G15KT 6SM CLR 36/10 A2985 RMK AO2 SLP002
      T03570102 $=
METAR KQTX 081255Z 26010G15KT 9999 CLR 44/M02 A2965 RMK SLP012=
####018000178####
SAAK17 KAWN 081300 RRB
PALU SA 1255 AWOS CLR BLO 120 10 53/38/2126G31/ 005=
PASV SA 1255 AWOS 110 SCT 10 49/45/0000/994=
PATL SA 1255 AWOS CLR BLO 120 10 53/43/0504/999=
####018000097####
SAXX70 KAWN 081200 RRX
METAR KQFW 081240Z AUTO 16002KT 4SM -SHRA OVC010 23/20 A2993 RMK A02=
####018000092####
SAAT31 TKPN 081300
METAR TKPN 081300Z 10013KT 9999 VCSH SCT020 30/25 Q1015= RMK VCSH-NW
####018000063####
SAOR01 ORSU 081255
ORSU 081300Z 24009KT CAVOK 42/M03 Q1009
####018000092####
SAAE31 VTBB 081230 RRB
METAR VTBU 081230Z 14002KT 9999 FEW020 BKN300 32/26 Q1007 A2974=
####018000089####
SAAK41 KNKA 081257
METAR PAZK 081256Z AUTO 05006KT 10SM CLR 08/03 A3007 RMK AO1 PNO=
####018002953####
SAAK41 KNKA 081257
METAR PAAK 081256Z AUTO 07025G31KT 10SM FEW022 SCT036 BKN070 07/03 
    A2952 RMK AO1 PNO=
METAR PABL 081256Z AUTO 29004KT 10SM CLR 06/05 A3014 RMK AO1 PNO=
METAR PABV 081256Z AUTO 00000KT 10SM BKN100 11/07 RMK AO1 PNO=
METAR PADK 081256Z 04013KT 8SM SCT006 BKN011 OVC022 07/06 A2949 RMK 
    AO1 PNO=
METAR PADL 081256Z 29004KT 10SM FEW038 OVC080 09/08 A2996 RMK AO1 
    PNO TSNO=
METAR PAEM 081256Z AUTO 30003KT 10SM OVC085 12/09 A3001 RMK AO1 PNO=
METAR PAFE 081256Z AUTO 07004KT 10SM CLR 10/08 A3017 RMK AO1 PNO=
METAR PAFM 081256Z AUTO 32003KT 10SM CLR 12/08 A3009 RMK AO1 PNO=
METAR PAGL 081256Z AUTO 34004KT 10SM CLR 13/08 A3013 RMK AO1 PNO=
METAR PAGS 081256Z AUTO 00000KT 10SM CLR 08/07 A3018 RMK AO1 PNO=
METAR PAHP 081256Z AUTO 33005KT 10SM CLR 08/07 A3003 RMK AO1 PNO 
    TSNO=
METAR PAHY 081256Z AUTO 00000KT 10SM CLR 15/09 A3013 RMK AO1 PNO=
METAR PAII 081256Z AUTO 36004KT 10SM SCT100 10/08 A2996 RMK AO1 PNO=
METAR PAIN 081256Z AUTO 00000KT 10SM CLR 07/06 A3006 RMK AO1 PNO=
METAR PAJC 081256Z AUTO 20003KT 10SM OVC017 07/03 A2993 RMK AO1 PNO=
METAR PAKK 081256Z AUTO 01010KT 10SM CLR 12/07 A3005 RMK AO1 PNO=
METAR PAKP 081256Z AUTO 07006KT 10SM CLR 10/02 A3011 RMK AO1=
METAR PAMD 081256Z AUTO 08018KT 2 1/2SM BKN003 OVC012 09/08 A3003 
    RMK AO1 PNO=
METAR PAMH 081256Z 00000KT 10SM CLR 13/04 A2997 RMK AO1 PNO=
METAR PAMM 081256Z AUTO 09004KT 10SM CLR 18/11 A3009 RMK AO1 PNO=
METAR PAMY 081256Z 28007KT M1/4SM OVC002 04/03 A3004 RMK AO1=
METAR PANI 081256Z AUTO 00000KT 9SM CLR 07/06 A3000 RMK AO1 PNO=
METAR PANV 081256Z AUTO 13003KT 10SM CLR 13/09 A2997 RMK AO1 PNO=
METAR PAOU 081256Z AUTO 05009KT 10SM FEW006 07/06 A2993 RMK AO2 
    PWINO TSNO T00660061 SLP139 $=
METAR PAPG 081256Z 00000KT 10SM CLR 10/08 A3014 RMK AO1 
      PNO=
METAR PAPH 081256Z AUTO 14004KT 3/4SM BKN002 03/02 A2993 RMK AO1 PNO=
METAR PAPN 081256Z AUTO 21004KT 9SM OVC018 08/08 A2993 RMK AO2 PWINO 
    TSNO T00830083 SLP140 $=
METAR PARC 081256Z AUTO 00000KT 10SM CLR 09/02 A3006 RMK AO1 PNO=
METAR PASA 081256Z AUTO 00000KT 10SM CLR 03/01 A3018 RMK AO1 PNO=
METAR PASD 081256Z AUTO 00000KT 10SM SCT027 06/04 A2991 RMK AO1 PNO=
METAR PASH 081256Z AUTO 00000KT 10SM CLR 07/05 A3016 RMK AO1 PNO=
METAR PASK 081256Z 26006KT 10SM CLR 12/08 A3010 RMK AO1 PNO=
METAR PASL 081256Z AUTO 00000KT 10SM BKN120 09/08 A3001 RMK AO1 PNO=
METAR PASM 081256Z AUTO 05003KT 10SM OVC100 10/08 A3002 RMK AO1 PNO=
METAR PASX 081256Z 00000KT 10SM BKN100 BKN120 12/09 A2993 RMK AO1 
    PNO=
METAR PAUN 081256Z AUTO 06012KT 10SM CLR 13/04 A3001 RMK AO1 PNO=
METAR PAVD 081256Z 14004KT 10SM OVC090 11/08 A3008 RMK AO1 
      PNO=
METAR PAWG 081256Z AUTO 28004KT 10SM CLR 12/09 A3013 RMK AO1 PNO=
METAR PAWN 081256Z AUTO 31004KT 10SM CLR 05/01 A3015 RMK AO1 PNO=
METAR PAWS 081256Z AUTO 04008KT 10SM FEW060 FEW080 SCT090 12/08 
    A2998 RMK AO1 PNO=
####018002997####
SAUS20 KNKA 081257
METAR KSDF 081256Z 12003KT 5SM HZ FEW100 28/21 A3007 RMK AO2 SLP175 
    T02780211=
METAR K04W 081254Z AUTO 28003KT 10SM CLR 20/17 A3008 RMK AO2 
     T02000173=
METAR K1A6 081255Z AUTO 00000KT 3SM BR CLR 23/23 A3013 RMK AO2=
METAR K1M4 081256Z AUTO VRB03KT 10SM CLR 27/22 A3013 RMK AO2 
    T02720222 SLP197=
METAR K1P1 081255Z AUTO 07004KT 10SM SCT016 SCT023 27/22 A3007 RMK 
     AO2 T02680221=
METAR K21D 081258Z AUTO 00000KT 10SM CLR 20/17 A3011 RMK AO2=
METAR KAIG 081255Z AUTO 35006KT 4SM BR OVC003 19/18 A3004 RMK AO2=
METAR KAND 081256Z AUTO 10SM CLR 28/22 A3003 RMK AO2 SLP159 
    T02780217 $=
METAR KART 081256Z AUTO 25005KT 9SM CLR 28/22 A3004 RMK AO2 SLP165 
    T02780217=
METAR KASG 081248Z 14006KT 10SM SCT025 BKN041 23/21 A3010=
METAR KBED 081256Z 23008KT 8SM BKN014 BKN020 26/21 A3009 RMK AO2 
    SLP198 T02610211=
METAR KBIX 081255Z AUTO 02005KT 10SM CLR 27/26 A3005 RMK AO2 SLP177
      T02660256=
METAR KBJI 081254Z AUTO 25006KT 10SM CLR 17/13 A3007 RMK AO2=
METAR KBJJ 081256Z AUTO 22003KT 7SM CLR 26/20 A3010 RMK AO2 SLP183 
    T02560200=
METAR KBUU 081254Z AUTO 26005KT 10SM BKN085 22/21 A3004 RMK AO2=
METAR KBYH 081251Z 00000KT 10SM FEW250 29/23 A3007=
METAR KBZN 081256Z 00000KT 10SM CLR 09/06 A3030 RMK AO2 SLP232 
    T00940056=
METAR KC29 081255Z AUTO 27004KT 4SM OVC004 22/21 A3005 RMK AO2 
     T02200205=
METAR KCEC 081256Z AUTO 00000KT 3SM BR OVC003 10/09 A2998 RMK AO2 
    SLP154 T01000094=
METAR KCMR 081255Z AUTO 15006KT 10SM CLR 13/02 A3027 RMK AO1 =
METAR KCTB 081256Z AUTO 28005KT 10SM CLR 09/06 A3023 RMK AO2 SLP221 
    T00940061=
METAR KCXY 081256Z 00000KT 5SM HZ CLR 29/21 A3003 RMK AO2 SLP167 
    T02940211=
METAR KD39 081254Z AUTO 26007KT 10SM CLR 20/17 A3011 RMK AO2 
     T01980174=
METAR KDAY 081256Z 20003KT 6SM R06L/5500VP6000FT HZ CLR 27/19 A3010 
    RMK AO2 SLP183 T02720194=
METAR KDIK 081256Z AUTO 00000KT 10SM CLR 14/11 A3017 RMK AO2 SLP209 
    T01390106=
METAR KDLL 081255Z AUTO 00000KT 10SM CLR 22/20 A3004 RMK AO2=
METAR KDUG 081256Z AUTO 09005KT 10SM CLR 24/12 A3008 RMK AO2 SLP102 
    T02390122 $=
METAR KDUJ 081256Z AUTO 00000KT 6SM HZ CLR 24/19 A3012 RMK AO2 
    SLP185 T02440189=
METAR KE80 081255Z AUTO 28003KT 10SM BKN060 18/12 A3027 RMK AO2 
     T01800123=
METAR KEAU 081256Z 32004KT 10SM CLR 20/18 A3007 RMK AO2 SLP179 
    T02000178=
METAR KEDC 081255Z AUTO 05006KT -RA 25/25 A2998 RMK AO2 P0004 =
METAR KEED 081256Z AUTO 33004KT 10SM CLR 27/M02 A2978 RMK AO2 SLP050 
    T02671022 TSNO=
METAR KEIK 081255Z AUTO 31005KT 10SM SCT007 BKN012 13/12 A3032 RMK 
     AO2=
METAR KEKO 081256Z AUTO 00000KT 10SM CLR 11/M02 A3014 RMK AO2 SLP154 
    T01061022=
METAR KELZ 081256Z AUTO 00000KT 9SM CLR 24/19 A3017 RMK AO2 SLP198 
    T02440194=
METAR KEOE 081255Z AUTO 00000KT 10SM CLR 27/22 A3006 RMK AO2=
METAR KFMH 081255Z AUTO 15010KT 10SM BKN012 OVC019 24/21 A3011 RMK 
     AO2 =
####018002934####
SAUS20 KNKA 081257
METAR KGON 081256Z 13010KT 5SM HZ FEW007 SCT022 SCT029 25/21 A3007 
    RMK AO2 SLP184 T02500211=
METAR KGRD 081256Z AUTO 01005KT 10SM CLR 28/21 A3005 RMK AO2 SLP166 
    T02830211=
METAR KHFF 081255Z AUTO 35003KT 10SM CLR 29/19 A2999 RMK AO2 SLP153
      T02880191 $=
METAR KHND 081256Z 17006KT 10SM CLR 24/M03 A2991 RMK AO2 T02441027 
    SLP071=
METAR KHPN 081256Z 15005KT 2SM DZ BR BKN004 OVC009 25/23 A3007 RMK 
    AO2 RAB50E53DZB53 SLP175 P0000 T02500228=
METAR KHVS 081255Z AUTO 34003KT 10SM CLR 28/20 A2999 RMK AO2=
METAR KHWV 081256Z AUTO 15009KT 10SM FEW015 SCT060 27/22 A3008 RMK 
    AO2 SLP183 T02670217=
METAR KHYA 081256Z 16005KT 10SM CLR 24/21 A3011 RMK AO2 SLP196 
    T02440206=
METAR KIFP 081255Z AUTO 00000KT 10SM CLR 26/M01 A2978 RMK AO2 =
METAR KIGX 081256Z AUTO VRB03KT 6SM HZ CLR 30/20 A3001 RMK AO2 
    SLP154 T03000200=
METAR KINW 081256Z AUTO 10SM CLR 19/02 A3013 RMK AO2 SLP120 
    T01940017=
METAR KISP 081256Z 13007KT 10SM FEW008 BKN012 BKN120 26/21 A3006 RMK 
    AO2 SLP176 T02610206=
METAR KITH 081256Z 00000KT 10SM CLR 28/20 A3010 RMK AO2 T02770200 
    SLP186=
METAR KJMS 081256Z AUTO 27005KT 10SM CLR 16/14 A3011 RMK AO2 SLP194 
    T01610139=
METAR KJXN 081256Z 00000KT 10SM CLR 26/21 A3006 RMK AO2 SLP170 
    T02560211=
METAR KLAS 081256Z 21007KT 10SM FEW150 26/M03 A2984 RMK AO2 SLP073 
    T02611033=
METAR KLNR 081256Z AUTO 27003KT 5SM BR OVC004 22/21 A3005 RMK AO2 
    SLP166 T02220206=
METAR KLUF 081255Z 34003KT 10SM SCT160 26/04 A2980 RMK AO2A SLP059
      T02550038 $=
METAR KM19 081256Z AUTO 21003KT 10SM CLR 27/23 A3009 RMK AO2 
    T02660233 SLP185 $=
METAR KMAN 081255Z AUTO 12003KT 10SM CLR 12/04 A3008 RMK AO1 =
METAR KMCF 081255Z AUTO 05007KT 10SM CLR 26/24 A3002 RMK AO2 SLP166
      T02610236=
METAR KMDT 081256Z 00000KT 4SM HZ CLR 29/21 A3002 RMK AO2 SLP163 
    T02940211=
METAR KMOB 081256Z 00000KT 10SM SCT020 28/24 A3006 RMK AO2 SLP176 
    T02780239=
METAR KMQY 081256Z 00000KT 10SM CLR 28/23 A3010 RMK AO2 T02830227 
    SLP182=
METAR KMRH 081256Z AUTO 05008KT 9SM SCT017 BKN120 29/23 A2993 RMK 
    AO2 SLP136 T02890233 TSNO=
METAR KNQA 081255Z COR 00000KT 10SM FEW250 28/24 A3008 RMK=
METAR KOFK 081256Z AUTO 32003KT 10SM CLR 18/16 A3021 RMK AO2 SLP222 
    T01780161=
METAR KPVF 081255Z AUTO 00000KT 10SM CLR 22/10 A2994 RMK AO1 =
METAR KRBW 081255Z AUTO 31005KT 10SM CLR 26/21 A2999 RMK AO2=
METAR KRDM 081256Z 00000KT 10SM CLR 08/02 A3008 RMK AO2 SLP165 
    T00780022 $=
METAR KSBP 081256Z 00000KT 6SM BR OVC005 12/12 A2993 RMK AO2 CIG 
    004V008 SLP134 T01220117 $=
METAR KSFO 081256Z 27012KT 10SM BKN008 13/11 A2993 RMK AO2 SLP135 
    T01330106=
METAR KSGH 081256Z 00000KT 4SM BR CLR 26/23 A3011 RMK AO2 T02610233 
    SLP187=
METAR KSLE 081256Z AUTO 14006KT 10SM CLR 13/11 A2992 RMK AO2 SLP130 
    T01330111=
####018001026####
SAUS20 KNKA 081257
METAR KSRC 081256Z AUTO VRB04KT 10SM FEW005 25/23 A3009 RMK AO2 TSNO 
    T02500227 SLP191=
METAR KSRR 081255Z AUTO 00000KT 10SM BKN021 OVC026 13/13 A3038 RMK 
     AO2 =
METAR KTME 081255Z AUTO 06007KT 6SM BKN070 25/25 A2997 RMK AO1 =
METAR KTPH 081256Z AUTO 36011KT 10SM CLR 14/M03 A3012 RMK AO2 SLP123 
    T01391033=
SPECI KTVC 081256Z 00000KT 7SM FEW009 BKN014 OVC028 22/21 A3000 RMK 
    AO2=
METAR KUKI 081256Z AUTO 00000KT 10SM CLR 12/09 A2991 RMK AO2 SLP119 
    T01170094=
METAR KUOX 081255Z AUTO 00000KT 10SM CLR 25/22 A3010 RMK AO2 =
METAR KWJF 081256Z 17003KT 10SM CLR 17/04 A2991 RMK AO2 SLP110 
    T01720039=
METAR KY51 081255Z AUTO 33007KT 10SM BKN007 21/19 A3007 RMK AO1 
     T02080192=
METAR PAAK 081256Z AUTO 07025G31KT 10SM FEW022 SCT036 BKN070 07/03 
    A2952 RMK AO1 PNO=
METAR PAHP 081256Z AUTO 33005KT 10SM CLR 08/07 A3003 RMK AO1 PNO 
    TSNO=
METAR TJSJ 081256Z 08006KT 10SM FEW020 SCT036 29/26 A3001 RMK AO2 
    SLP161 T02890256=
####018003628####
SAUS90 KWBC 081300 RRA
METAR KMVE 081254Z AUTO 29004KT 10SM CLR 18/16 A3012 RMK AO2=
METAR KTKC 081253Z AUTO 26005KT 10SM CLR 19/14 A3016 RMK AO2
     T01870144=
METAR KGYL 081254Z AUTO 26003KT 10SM CLR 19/16 A3012 RMK AO2
     T01850156=
METAR KDXX 081254Z AUTO 00000KT 10SM CLR 18/17 A3012 RMK AO2=
METAR KHZX 081251Z AUTO 27005KT 10SM CLR 18/16 A3008 RMK AO2=
METAR KSAZ 081253Z AUTO 27005KT 10SM CLR 18/18 A3009 RMK AO2=
METAR KONA 081250Z AUTO 33008KT 10SM CLR 21/16 A3007 RMK AO2=
METAR KOVL 081253Z AUTO 31005KT 10SM CLR 17/13 A3012 RMK AO2
     T01700133=
METAR KLJF 081252Z AUTO 29006KT 10SM CLR 20/17 A3013 RMK AO2=
METAR KAEL 081250Z AUTO 34003KT 10SM CLR 19/17 A3012 RMK AO2=
METAR K29G 081254Z AUTO 00000KT 7SM CLR 26/19 A3009 RMK AO2
     T02610190 PWINO=
METAR KMRT 081253Z AUTO 25004KT 10SM CLR 27/20 A3012 RMK AO2
     T02650198=
METAR KIKW 081253Z AUTO 00000KT 10SM OVC080 23/21 A3002 RMK AO2
     T02320210=
METAR KMDS 081245Z AUTO 27005KT 10SM CLR 19/16 A3018 RMK AO2=
METAR KPQN 081253Z AUTO 31003KT 10SM CLR 19/14 A3018 RMK AO2=
METAR KFGN 081254Z AUTO 28009KT 1/2SM -DZ BKN070 OVC100 17/14
     A2999 RMK AO2=
METAR KPNM 081253Z AUTO 26004KT 10SM CLR 19/16 A3010 RMK AO2=
METAR KPWC 081253Z AUTO 27005KT 10SM CLR 17/15 A3009 RMK AO2=
METAR KFFM 081253Z AUTO 30004KT 10SM CLR 17/16 A3009 RMK AO2=
METAR KGDB 081253Z AUTO 25005KT 10SM CLR 18/16 A3015 RMK AO2
     T01770156=
METAR KAIT 081253Z AUTO 25005KT 10SM CLR 18/17 A3007 RMK AO2=
METAR KGHW 081253Z AUTO 27007KT 10SM CLR 19/14 A3014 RMK AO2=
METAR KMWM 081253Z AUTO 28006KT 10SM CLR 18/16 A3016 RMK AO2=
METAR KULM 081255Z AUTO 30007KT 10SM CLR 18/15 A3013 RMK AO2=
METAR KBBB 081253Z AUTO 00000KT 10SM CLR 18/16 A3012 RMK AO2=
METAR KTWM 081253Z AUTO 28006KT 10SM CLR 20/14 A3003 RMK AO2=
METAR KMGG 081255Z AUTO 26005KT 10SM CLR 20/16 A3012 RMK AO2
     T01950162=
METAR KMOX 081250Z AUTO 27006KT 10SM CLR 19/17 A3008 RMK AO2=
METAR K2WX 081256Z AUTO 27006KT 13/09 A3017 RMK AO1 SLP205
     T01330094=
METAR KMEH 081256Z AUTO 00000KT 10SM CLR 06/04 A3012 RMK AO2
     SLP183 T00560044 TSNO=
METAR KP28 081256Z AUTO 36007KT 22/21 A3013 RMK AO2 SLP187
     T02170206 PWINO TSNO=
METAR KFLG 081256Z 00000KT 10SM SCT120 10/01 A3028 RMK AO2 SLP151
     T01000006=
METAR KNFE 081256Z AUTO 08004KT 2SM HZ CLR 27/19 A2999 RMK AO2
     SLP158 T02720194 $=
METAR KLWS 081256Z AUTO 10005KT 10SM CLR 16/09 A3004 RMK AO2
     SLP164 T01560089=
METAR KGFA 081256Z AUTO 20004KT 10SM CLR 11/07 A3022 RMK AO2
     SLP245 T01110072 $=
METAR KNXP 081256Z AUTO 28007KT CLR 23/00 A2994 RMK AO2 SLP099
     T02280000 $=
METAR KGNR 081256Z AUTO VRB03KT 21/20 A3009 RMK AO1 SLP183
     T02060200=
METAR KGNA 081256Z AUTO 00000KT 20/16 A2999 RMK AO2 SLP150
     T02000161 PWINO TSNO=
METAR KSXT 081256Z AUTO 11004KT 8SM CLR 21/09 A3003 RMK AO2 SLP100
     T02110094 TSNO=
METAR KNBT 081256Z AUTO 06011KT 6SM HZ CLR 29/ A2994 RMK AO2
     SLP142 T0294 TSNO=
METAR KAQV 081256Z AUTO 00000KT 10SM BKN100 26/24 A3004 RMK AO2
     SLP169 T02560239 $=
METAR KROC 081254Z 22006KT 9SM FEW090 26/21 A3005 RMK AO2 SLP173
     T02610206=
METAR KBIH 081256Z AUTO 00000KT 10SM CLR 12/02 A3001 RMK AO2
     SLP113 T01220022 TSNO=
METAR PACZ 081255Z AUTO 05008KT 10SM 11/08 A3003 RMK AO1
     T01060084=
METAR PATC 081255Z AUTO 02009KT 10SM CLR 08/06 A3013 RMK AO1
     T00780062=
METAR PAIM 081255Z AUTO 30006KT 10SM CLR 10/07 A3007 RMK AO1
     T01000073=
METAR PAEH 081255Z AUTO 14004KT 10SM CLR 09/M28 A2997 RMK AO1
     T00941283=
####018003746####
SAUS90 KWBC 081300
METAR KDMH 081254Z AUTO 29/22 A3002 RMK AO2 SLP164 T02940222 PWINO
     TSNO=
METAR KGSO 081254Z 03004KT 5SM HZ CLR 29/18 A3004 RMK AO2 SLP158
     T02940183=
METAR KRNM 081253Z AUTO 28003KT 6SM BR OVC004 14/13 A2991 RMK AO2
     SLP118 T01390128 TSNO=
METAR KP68 081253Z AUTO 21005KT 07/M03 A3017 RMK AO2 SLP147
     T00721028 PWINO TSNO=
METAR KACY 081254Z 10006KT 6SM -RA BR SCT013 BKN020 24/22 A3006
     RMK AO2 RAB37 SLP178 P0001 T02440222=
METAR KRFD 081254Z 30006KT 10SM SCT006 OVC180 24/21 A3006 RMK AO2
     SLP173 T02390211=
METAR KGNT 081253Z AUTO 15009KT 16/09 A3033 RMK AO2 SLP174
     T01610089 PWINO TSNO=
METAR KDRA 081255Z AUTO 00000KT 10SM CLR 19/M11 A2996 RMK AO2
     SLP094 T01941106 TSNO=
METAR KCAO 081255Z AUTO 35009KT 10SM CLR 16/13 A3030 RMK AO2 RAE12
     SLP201 P0000 T01610133 TSNO=
METAR KMBG 081255Z AUTO 19004KT 10SM CLR 16/12 A3015 RMK AO2
     SLP204 T01610117 TSNO=
METAR KINL 081255Z AUTO 26006KT 10SM CLR 17/14 A3001 RMK AO2
     SLP163 T01720139=
METAR KAST 081255Z AUTO 20003KT 4SM BR OVC003 12/11 A2996 RMK AO2
     SLP146 T01220111=
METAR KSHV 081256Z 15003KT 10SM BKN090 BKN280 25/24 A3005 RMK AO2
     SLP172 T02500239=
METAR KPOE 081255Z AUTO 08006KT 10SM CLR 25/23 A3004 RMK AO2
     SLP171 T02500233 $=
METAR KVBG 081255Z AUTO 33006KT 10SM OVC004 12/11 A2994 RMK AO2
     SLP130 T01170111 TSNO $=
METAR KHON 081255Z AUTO 28004KT 10SM CLR 18/14 A3016 RMK AO2
     SLP206 T01830144=
METAR TJSJ 081256Z 08006KT 10SM FEW020 SCT036 29/26 A3001 RMK AO2
     SLP161 T02890256=
METAR KPHP 081255Z AUTO 24004KT 10SM CLR 14/11 A3023 RMK AO2
     SLP224 T01390106 TSNO $=
METAR KAAT 081255Z AUTO 00000KT 10SM CLR 09/07 A3009 RMK AO2
     SLP146 T00890067 TSNO=
METAR KABQ 081256Z 10014KT 10SM SCT100 OVC200 19/09 A3028 RMK AO2
     SLP171 T01940094=
METAR KSDF 081256Z 12003KT 5SM HZ FEW100 28/21 A3007 RMK AO2
     SLP175 T02780211=
METAR KJAX 081256Z 28005KT 10SM CLR 24/21 A3002 RMK AO2 SLP166
     T02440211=
METAR KCHS 081256Z 31006KT 8SM CLR 27/21 A2997 RMK AO2 SLP148
     T02670206=
METAR KANJ 081255Z AUTO 27008KT 7SM -RA OVC004 20/19 A2997 RMK AO2
     CIG 003V008 SLP145 P0000 T02000189=
METAR KTEW 081253Z AUTO 00000KT 10SM CLR 25/21 A3005 RMK AO2=
METAR KCVH 081250Z AUTO 00000KT 9SM OVC006 13/11 A2993 RMK AO1=
METAR KFSO 081258Z AUTO 00000KT 7SM BKN060 27/23 A3002 RMK AO2=
METAR KFBL 081254Z AUTO 30003KT 10SM CLR 19/15 A3013 RMK AO2=
METAR KLYV 081258Z AUTO 00000KT 10SM CLR 17/15 A3018 RMK AO2=
METAR KEFK 081255Z AUTO 19004KT 7SM CLR 26/21 A3006 RMK AO2=
METAR KRRT 081254Z AUTO 25006KT 10SM SCT070 16/13 A3002 RMK
     AO2=
METAR KTOB 081254Z AUTO 00000KT 10SM CLR 19/17 A3012 RMK AO2=
METAR KLXL 081254Z AUTO 26004KT 10SM CLR 18/15 A3008 RMK AO2=
METAR KEVM 081252Z AUTO 27005KT 10SM CLR 17/15 A3003 RMK AO1=
METAR KELO 081253Z AUTO 24006KT 10SM CLR 18/15 A3002 RMK AO2=
METAR KROX 081254Z AUTO 28006KT 10SM CLR 17/14 A3003 RMK AO2=
METAR KVVV 081245Z AUTO 24004KT 10SM CLR 19/14 A3012 RMK AO2=
METAR KROS 081255Z AUTO 27004KT 10SM CLR 19/16 A3010 RMK AO2
     T01900158=
METAR KHCD 081252Z AUTO 28005KT 10SM CLR 18/16 A3012 RMK AO2
     T01770164 TSNO=
METAR KSGS 081253Z AUTO 31004KT 10SM CLR 21/16 A3011 RMK AO2
     T02070164=
METAR KMJQ 081252Z AUTO 30005KT 10SM CLR 18/15 A3017 RMK AO2=
METAR KHCO 081254Z AUTO 31007KT 10SM CLR 17/16 A3008 RMK AO2=
METAR KLVN 081248Z AUTO 28004KT 10SM CLR 19/17 A3012 RMK AO2=
METAR KPEX 081253Z AUTO 26005KT 10SM CLR 18/17 A3012 RMK AO2
     T01800165=
METAR KJMR 081258Z AUTO 29004KT 10SM CLR 18/14 A3010 RMK AO2=
METAR KJKJ 081254Z AUTO 24003KT 10SM CLR 18/16 A3008 RMK AO2=
####018000102####
SAUS90 KWBC 081258
METAR KSYN 081310Z AUTO 31004KT 10SM CLR 20/17 A3011 RMK AO2
     T01990171=
####018000288####
SAUS90 KWBC 081300 CCA
METAR KNAK 081254Z AUTO 13008KT 5SM HZ 27/22 A3002 RMK AO2 SLP167
     T02720222 TSNO $=
METAR KTYS 081253Z 00000KT 6SM HZ CLR 27/19 A3009 RMK AO2 SLP175
     T02670194=
METAR KTRI 081253Z 00000KT 6SM HZ CLR 25/20 A3013 RMK AO2 SLP181
     T02500200=
####018001645####
SAEW KAWN 081300 RRB
METAR EBAW 081250Z 25007KT 180V330 CAVOK 30/12 Q1019 NOSIG=
METAR EBBR 081250Z 20005KT 150V290 CAVOK 30/11 Q1019 NOSIG=
METAR EBCI 081250Z VRB02KT CAVOK 30/10 Q1019 NOSIG=
METAR EBLG 081250Z VRB04KT CAVOK 30/08 Q1019 NOSIG=
METAR EBOS 081250Z 35006KT 320V030 CAVOK 22/16 Q1019 NOSIG=
METAR EDAH 081250Z VRB03KT CAVOK 25/08 Q1021=
METAR EHAM 081255Z 27005KT 200V320 CAVOK 26/14 Q1019 NOSIG=
METAR EHBK 081255Z AUTO 23005KT 160V330 9999NDV NCD 30/11 Q1019 NOSIG=
METAR EHDL 081255Z AUTO 21008KT 9999NDV SCT390 30/13 Q1018 BLU=
METAR EHGG 081255Z AUTO 28008KT 210V320 9999NDV NSC 26/14 Q1019 NOSIG=
METAR EHGR 081255Z AUTO 26006KT 9999NDV FEW390 30/11 Q1018 BLU BLU=
METAR EHLW 081255Z AUTO 23009KT 9999NDV BKN120 OVC180 25/19 Q1018 BLU
      BLU=
METAR EHRD 081255Z 35003KT 280V090 CAVOK 25/16 Q1019 NOSIG=
METAR EHVK 081255Z AUTO 22006KT 9999NDV NCD 30/11 Q1018 BLU BLU=
METAR EHWO 081255Z AUTO 26007KT 9999NDV SCT400 28/13 Q1018 BLU BLU=
METAR EKVD 081250Z 28012KT CAVOK 22/15 Q1019=
METAR ELLX 081250Z 17005KT 130V230 CAVOK 30/08 Q1020 NOSIG=
METAR ETAD 081255Z AUTO 21004KT 9999 CLR 29/08 A3015 RMK AO2 SLP193
      T02940081 $=
METAR ETAR 081255Z AUTO VRB04KT 9999 CLR 30/15 A3012 RMK AO2 SLP193
      T03040154 $=
METAR ETEB 081255Z AUTO VRB03KT 9999 CLR 26/08 A3019 RMK AO2 SLP209
      T02600081=
METAR ETIC 081256Z AUTO 17005KT 9999 CLR 27/09 A3018 RMK AO2 SLP208
      T02710085 $=
METAR ETIK 081255Z AUTO 08004KT 9999 CLR 28/10 A3018 RMK AO2 SLP204
      T02840099 $=
METAR ETOU 081255Z AUTO VRB06KT 9999 CLR 29/10 A3013 RMK AO2 SLP200
      T02920101=
####018001787####
SAEU KAWN 081300 RRG
METAR EGDL 081250Z 20007KT 9999 FEW035 BKN220 22/10 Q1018 BLU NOSIG=
METAR EGDM 081250Z 22008KT 9999 SCT025 BKN250 22/14 Q1018 BLU NOSIG=
METAR EGQL 081250Z 24022KT 9999 FEW040 SCT250 19/06 Q1012 BLU NOSIG=
METAR EGQS 081250Z 23013KT 9999 FEW025 BKN050 16/12 Q1009 BLU TEMPO
      7000 -SHRA WHT=
METAR EGVA 081255Z AUTO 23009KT 9999 -DZ FEW100 SCT180 BKN210 22/09
      A3006 RMK AO2 RAB1246E1247DZB1247 SLP179 P0000 T02240087=
METAR EGVO 081250Z 23009KT 9999 BKN024 BKN030 22/15 Q1018 WHT BECMG
      BKN025 BLU=
METAR EGWU 081250Z 24008KT 9999 SCT032 BKN250 23/14 Q1018 BLU NOSIG=
METAR EGXD 081250Z 24014KT 9999 FEW045 BKN250 21/08 Q1016 BLU NOSIG=
METAR EGXG 081250Z 24013KT CAVOK 22/07 Q1016 BLU=
METAR EGXT 081250Z 25008KT 9999 FEW040 BKN250 23/06 Q1017 BLU=
METAR EGXU 081250Z 26011KT 9999 SCT045 SCT250 20/09 Q1016 BLU NOSIG=
METAR EGXX 081250Z 24009KT CAVOK ///// Q//// BLU=
METAR EGYM 081250Z 23010KT 9999 FEW040 BKN220 23/11 Q1018 BLU NOSIG=
METAR ENLK 081250Z 33007KT 9999 FEW030 SCT050 15/10 Q1011=
METAR ETAR 081255Z AUTO VRB04KT 9999 CLR 30/15 A3012 RMK AO2 SLP193
      T03040154 $=
METAR LIEA 081250Z 21007KT 170V330 9999 FEW025 33/19 Q1019=
METAR LIEE 081245Z 16012KT 9999 FEW020 28/21 Q1019 NOSIG=
METAR LIMC 081250Z VRB03KT 9999 FEW025 29/15 Q1021 NOSIG=
METAR LIME 081250Z 16005KT 110V200 9999 BKN050 27/15 Q1022=
METAR LIMF 081250Z VRB02KT 9999 SCT070 28/15 Q1022=
METAR LIMJ 081250Z 16006KT 9999 FEW035 29/25 Q1020=
METAR LIRA 081245Z 27007KT 170V030 9999 FEW018 30/17 Q1020=
METAR LIRF 081250Z 24011KT 210V270 CAVOK 29/18 Q1020 NOSIG=
METAR LIRN 081250Z 05007KT CAVOK 29/14 Q1019=
METAR LIRP 081245Z 32005KT CAVOK 31/17 Q1019 NOSIG=
METAR LIRQ 081250Z 09004KT CAVOK 32/15 Q1019=
####018001628####
SAXN17 KAWN 081300 RRA
METAR MGGT 081300Z 00000KT CAVOK 17/14 Q1023 A3021 SCT080 BKN100 NOSIG=
METAR MHLC 081300Z 19005KT 9999 FEW018 SCT080 BKN200 27/24 Q1010 A2984
      NOSIG=
METAR MROC 081300Z 01002KT 9999 4000S BR BKN120 21/21 A3004 FOG BANK
      S SSW TEMPO 24006KT=
METAR MUGM 081256Z 01005KT 9999 FEW100 BKN250 28/22 A2997 RMK SLP148
      T02780222=
METAR MYGF 081300Z 08006KT 9999 FEW015CB 29/25 A2998 RMK CB S=
METAR MYNN 081300Z 00000KT 9999 VCSH SCT015CB SCT100 BKN220 30/26 A2997=
METAR NFFN 081300Z 11004KT 40KM FEW030 20/18 Q1013 NOSIG RMK RR NIL=
METAR PAEI 081255Z AUTO 00000KT 10SM CLR 09/06 A3004 RMK AO2 SLP173
      T00880061 $=
PALU SA 1255 AWOS CLR BLO 120 10 53/38/2126G31/ 005=
PASV SA 1255 AWOS 110 SCT 10 49/45/0000/994=
PATL SA 1255 AWOS CLR BLO 120 10 53/43/0504/999=
METAR PGUA 081255Z AUTO 11010KT 10SM CLR 26/ A2992 RMK AO2 SLP113 T0260
      VISNO RWY24L $=
METAR PHHI 081255Z AUTO 01004KT 10SM -DZ BKN036 OVC044 20/18 A3003
      RMK AO2 DZB1241 SLP156 P0000 T01990181=
METAR PTKK 081252Z VRB04KT 15SM FEW014 BKN120 OVC280 26/23 A2985 RMK
      SLP111 T02620229=
METAR RJTY 081255Z AUTO 11003KT 9999 CLR 24/22 A2990 RMK AO2 SLP118
      T02390219 $=
METAR RKSO 081255Z AUTO 28003KT 9999 -DZ FEW120 23/23 A2981 RMK AO2
      DZB1248 SLP096 P0000 T02280228 $=
METAR RODN 081255Z AUTO 16010KT 9999 FEW018 OVC200 29/26 A2985 RMK
      AO2 SLP107 T02870264=
METAR SVMG 081300Z 07009KT 9999 SCT010 SCT080 30/28 Q1013 NOSIG=
METAR SVMI 081300Z 00000KT 9999 FEW016 BKN100 26/24 Q1015=
METAR TNCM 081300Z 08013KT 9999 SCT021 30/23 Q1016=
####018001744####
SAEU KAWN 081300 RRH
METAR EGNS 081250Z 19012KT 9999 FEW022 16/12 Q1016 NOSIG=
METAR EGOP 081250Z 21010KT 9999 -SHRA FEW017 BKN090 17/14 Q1019 BLU=
METAR EHAM 081255Z 27005KT 200V320 CAVOK 26/14 Q1019 NOSIG=
METAR EHBK 081255Z AUTO 23005KT 160V330 9999NDV NCD 30/11 Q1019 NOSIG=
METAR EHDL 081255Z AUTO 21008KT 9999NDV SCT390 30/13 Q1018 BLU=
METAR EHGG 081255Z AUTO 28008KT 210V320 9999NDV NSC 26/14 Q1019 NOSIG=
METAR EHGR 081255Z AUTO 26006KT 9999NDV FEW390 30/11 Q1018 BLU BLU=
METAR EHLW 081255Z AUTO 23009KT 9999NDV BKN120 OVC180 25/19 Q1018 BLU
      BLU=
METAR EHRD 081255Z 35003KT 280V090 CAVOK 25/16 Q1019 NOSIG=
METAR EHWO 081255Z AUTO 26007KT 9999NDV SCT400 28/13 Q1018 BLU BLU=
METAR ETIK 081255Z AUTO 08004KT 9999 CLR 28/10 A3018 RMK AO2 SLP204
      T02840099 $=
METAR LGAL 081250Z 03008KT 9999 FEW020TCU SCT025 BKN080 21/16 Q1015=
METAR LGEL 081250Z 35014G24KT CAVOK 29/12 Q1011=
METAR LGIR 081250Z 35009KT 9999 SCT020 28/24 Q1011 NOSIG=
METAR LGKF 081250Z 31019KT 9999 FEW025 26/15 Q1013=
METAR LGKL 081250Z 33010G22KT 9999 FEW030 33/12 Q1011=
METAR LGKO 081250Z 30020KT CAVOK 29/18 Q1009=
METAR LGKP 081250Z 34027KT CAVOK 29/17 Q1008=
METAR LGKR 081250Z 31022KT CAVOK 27/11 Q1012 NOSIG=
METAR LGKV 081250Z 07006KT 9999 -TSRA FEW025CB SCT030TCU BKN080 18/15
      Q1014=
METAR LGMT 081250Z 36017G27KT 9999 SCT030 27/18 Q1011=
METAR LGPZ 081250Z 26013KT 9999 FEW025 29/18 Q1013 NOSIG=
METAR LGRX 081250Z 28011KT 9999 FEW025 27/13 Q1012 NOSIG=
METAR LGSA 081250Z 35012KT 9999 FEW020 32/16 Q1012=
METAR LGSM 081250Z 35009KT 9999 FEW030 31/17 Q1009=
METAR LGSR 081250Z 02013KT 9999 FEW025 26/18 Q1010 NOSIG=
METAR LGTS 081250Z 34017G27KT 9999 FEW025 24/12 Q1016 NOSIG=
####018000082####
SPCN46 CWAO 081256
SPECI CYBC 081256Z AUTO 12003KT 8SM OVC002 13/13 A3003=

####018000084####
SPCN48 CWAO 081256
SPECI CYPH 081256Z AUTO 24012KT 5/8SM OVC001 08/08 A2981=

####018000101####
SAUS43 KUNR 081257
MTR2WX
METAR K2WX 081256Z AUTO 27006KT 13/09 A3017 RMK AO1 SLP205 T01330094
####018000118####
SAUS46 KPDT 081257
MTRMEH
METAR KMEH 081256Z AUTO 00000KT 10SM CLR 06/04 A3012 RMK AO2 SLP183 
T00560044 TSNO
####018000115####
SAUS43 KDDC 081257
MTRP28
METAR KP28 081256Z AUTO 36007KT 22/21 A3013 RMK AO2 SLP187 T02170206 
PWINO TSNO
####018000113####
SAUS41 KAKQ 081257
MTRNCA
METAR KNCA 081256Z 04006KT 4SM HZ FEW090 28/24 A2995 RMK AO2 SLP143 
T02780239
####018000111####
SAUS45 KFGZ 081257
MTRFLG
METAR KFLG 081256Z 00000KT 10SM SCT120 10/01 A3028 RMK AO2 SLP151 
T01000006
####018000113####
SAUS45 KBOI 081257
MTRLWS
METAR KLWS 081256Z AUTO 10005KT 10SM CLR 16/09 A3004 RMK AO2 SLP164 
T01560089
####018000110####
SAUS46 KLOX 081257
MTRNXP
METAR KNXP 081256Z AUTO 28007KT CLR 23/00 A2994 RMK AO2 SLP099 
T02280000 $
####018000115####
SAUS45 KTFX 081257
MTRGFA
METAR KGFA 081256Z AUTO 20004KT 10SM CLR 11/07 A3022 RMK AO2 SLP245 
T01110072 $
####018000115####
SAUS45 KBOU 081257
MTRABH
METAR KABH 081256Z AUTO 00000KT 10SM CLR 13/11 A3036 RMK AO2 SLP246 
T01280111 $
####018000101####
SAUS41 KCAR 081257
MTRGNR
METAR KGNR 081256Z AUTO VRB03KT 21/20 A3009 RMK AO1 SLP183 T02060200
####018000117####
SAUS41 KAKQ 081257
MTRNFE
METAR KNFE 081256Z AUTO 08004KT 2SM HZ CLR 27/19 A2999 RMK AO2 
SLP158 T02720194 $
####018000115####
SAUS43 KDLH 081257
MTRGNA
METAR KGNA 081256Z AUTO 00000KT 20/16 A2999 RMK AO2 SLP150 T02000161 
PWINO TSNO
####018000117####
SAUS46 KMFR 081257
MTRSXT
METAR KSXT 081256Z AUTO 11004KT 8SM CLR 21/09 A3003 RMK AO2 SLP100 
T02110094 TSNO
####018000110####
SAUS46 KPQR 081257
MTRNUW
METAR KNUW 081256Z 00000KT 10SM CLR 16/10 A2997 RMK AO2 SLP154 
T01630098 $
####018000120####
SAUS46 KLOX 081257
MTRNFG
METAR KNFG 081256Z AUTO 00000KT 9SM OVC011 16/14 A2991 RMK AO2 
SLP128 T01560139 TSNO
####018001789####
SAUK KAWN 081300 RRA
METAR EGAA 081250Z 21011KT 9999 FEW032 16/09 Q1014=
METAR EGAC 081250Z 21012KT 190V250 9999 FEW024 SCT040 18/09 Q1014=
METAR COR EGCC 081250Z 19009KT 9999 SCT038 19/10 Q1017 NOSIG=
METAR EGDL 081250Z 20007KT 9999 FEW035 BKN220 22/10 Q1018 BLU NOSIG=
METAR EGDM 081250Z 22008KT 9999 SCT025 BKN250 22/14 Q1018 BLU NOSIG=
METAR EGKA 081250Z 19008KT 9999 FEW020 21/17 Q1019=
METAR EGLC 081250Z 27006KT 210V330 9999 SCT030 24/14 Q1018=
METAR COR EGLL 081250Z 26008KT 200V310 9999 BKN035 24/14 Q1018 NOSIG=
METAR EGNS 081250Z 19012KT 9999 FEW022 16/12 Q1016 NOSIG=
METAR EGNX 081250Z 26010KT 230V300 CAVOK 22/08 Q1018=
METAR EGOP 081250Z 21010KT 9999 -SHRA FEW017 BKN090 17/14 Q1019 BLU=
METAR COR EGPB 081250Z 20014KT CAVOK 15/11 Q1007 NOSIG=
METAR EGPD 081250Z 23012KT 190V260 9999 FEW047 19/08 Q1011 NOSIG=
METAR EGQL 081250Z 24022KT 9999 FEW040 SCT250 19/06 Q1012 BLU NOSIG=
METAR EGQS 081250Z 23013KT 9999 FEW025 BKN050 16/12 Q1009 BLU TEMPO
      7000 -SHRA WHT=
METAR EGUL 081255Z AUTO 23008KT 9999 SCT034 23/14 A3005 RMK AO2 SLP179
      T02270141=
METAR EGVA 081255Z AUTO 23009KT 9999 -DZ FEW100 SCT180 BKN210 22/09
      A3006 RMK AO2 RAB1246E1247DZB1247 SLP179 P0000 T02240087=
METAR EGVO 081250Z 23009KT 9999 BKN024 BKN030 22/15 Q1018 WHT BECMG
      BKN025 BLU=
METAR EGWU 081250Z 24008KT 9999 SCT032 BKN250 23/14 Q1018 BLU NOSIG=
METAR EGXD 081250Z 24014KT 9999 FEW045 BKN250 21/08 Q1016 BLU NOSIG=
METAR EGXG 081250Z 24013KT CAVOK 22/07 Q1016 BLU=
METAR EGXT 081250Z 25008KT 9999 FEW040 BKN250 23/06 Q1017 BLU=
METAR EGXU 081250Z 26011KT 9999 SCT045 SCT250 20/09 Q1016 BLU NOSIG=
METAR EGXX 081250Z 24009KT CAVOK ///// Q//// BLU=
METAR EGYM 081250Z 23010KT 9999 FEW040 BKN220 23/11 Q1018 BLU NOSIG=
####018000086####
SANO35 ENMI 081250 RRA
METAR ENRS 081250Z 20008KT 9999 SCT048 BKN059 14/09 Q1010=
####018000111####
SAUS44 KMRX 081257
MTRNMM
METAR KNMM 081256Z 35003KT 10SM FEW250 28/22 A3007 RMK AO2 SLP188 
T02780217
####018000114####
SAUS42 KMHX 081257
MTRNBT
METAR KNBT 081256Z AUTO 06011KT 6SM HZ CLR 29/ A2994 RMK AO2 SLP142 
T0294 TSNO
####018000114####
SAUS44 KMRX 081257 COR
MTRTRI
METAR KTRI 081253Z 00000KT 6SM HZ CLR 25/20 A3013 RMK AO2 SLP181 
T02500200
####018000115####
SAUS41 KAKQ 081257
MTRNXX
METAR KNXX 081256Z 13008KT 5SM HZ FEW045 27/22 A3006 RMK AO2 SLP182 
T02720217 $
####018000115####
SAUS44 KBMX 081257
MTRPRN
METAR KPRN 081256Z AUTO 00000KT 10SM CLR 28/23 A3004 RMK AO2 SLP165 
T02830233 $
####018000110####
SAUS41 KBUF 081257
MTRROC
METAR KROC 081254Z 22006KT 9SM FEW090 26/21 A3005 RMK AO2 SLP173 
T02610206
####018000118####
SAUS44 KSHV 081257
MTRAQV
METAR KAQV 081256Z AUTO 00000KT 10SM BKN100 26/24 A3004 RMK AO2 
SLP169 T02560239 $
####018000118####
SAUS46 KLOX 081257
MTRBIH
METAR KBIH 081256Z AUTO 00000KT 10SM CLR 12/02 A3001 RMK AO2 SLP113 
T01220022 TSNO
####018000120####
SAUS41 KLWX 081257
MTRNYG
METAR KNYG 081256Z 00000KT 6SM HZ FEW090 BKN200 28/23 A3002 RMK AO2 
SLP166 T02780228
####018000114####
SAUS44 KMRX 081257 COR
MTRTYS
METAR KTYS 081253Z 00000KT 6SM HZ CLR 27/19 A3009 RMK AO2 SLP175 
T02670194
####018000100####
SACN89 KWBC 081258
METAR CWCI 081200Z AUTO 09003KT 16/16 RMK AO1 1013 SLP151
T01580156 50142=
####018000113####
SACN94 KWBC 081258
METAR CWND 081200Z AUTO 31014KT 05/04 RMK AO1 PK WND 31021/1121
SLP155 T00490035 52005=
####018000320####
SAUS98 KWBC 081258
METAR PACZ 081255Z AUTO 05008KT 10SM 11/08 A3003 RMK AO1 T01060084=
METAR PATC 081255Z AUTO 02009KT 10SM CLR 08/06 A3013 RMK AO1
T00780062=
METAR PAIM 081255Z AUTO 30006KT 10SM CLR 10/07 A3007 RMK AO1
T01000073=
METAR PAEH 081255Z AUTO 14004KT 10SM CLR 09/M28 A2997 RMK AO1
T00941283=
####018003723####
SAUS99 KWBC 081258
METAR
KALN 081250Z 00000KT 05SM BR BKN008 OVC080 25/24 A3006=
KCEF 081255Z 13003KT 6SM -RA BR OVC011 25/22 A3008 RMK AO2A SLP186
     T02460224 $=
KEFD 081250Z 08005KT 4SM -RA BKN006 BKN020 OVC250 25/24 A2998=
KFBG 081255Z AUTO VRB04KT 10SM CLR 29/21 A2997 RMK AO2 SLP146
     T02880207 $=
KGUS 081255Z AUTO 23005KT 10SM -RA SCT060 25/23 A3005 RMK AO2
     RAB1250 SLP169 P0000 T02520230 $=
KLRF 081255Z AUTO 00000KT 10SM CLR 25/23 A3008 RMK AO2 SLP186
     T02470230=
KNRB 081252Z 28004KT 10SM CLR 27/20 A3002 RMK AO2 SLP163
     T02670200=
KOZR 081255Z 00000KT 10SM CLR 25/25 A3004 RMK AO2A SLP169
     T02500250=
KSSC 081255Z AUTO 30008KT 10SM CLR 29/20 A2998 RMK AO2 SLP149
     T02860203 $=
KTTS 081255Z VRB04KT 10SM FEW025 FEW290 27/23 A3001 RMK SLP162 1SC
     /1/ 1CI /1/=
KUCP 081256Z AUTO 00000KT 5SM HZ CLR 24/21 A3010 RMK AO2 T02440211
     SLP199 $=
KTEW 081253Z AUTO 00000KT 10SM CLR 25/21 A3005 RMK AO2=
KCVH 081250Z AUTO 00000KT 9SM OVC006 13/11 A2993 RMK AO1=
KFSO 081258Z AUTO 00000KT 7SM BKN060 27/23 A3002 RMK AO2=
KFBL 081254Z AUTO 30003KT 10SM CLR 19/15 A3013 RMK AO2=
KLYV 081258Z AUTO 00000KT 10SM CLR 17/15 A3018 RMK AO2=
KEFK 081255Z AUTO 19004KT 7SM CLR 26/21 A3006 RMK AO2=
KRRT 081254Z AUTO 25006KT 10SM SCT070 16/13 A3002 RMK AO2=
KTOB 081254Z AUTO 00000KT 10SM CLR 19/17 A3012 RMK AO2=
KLXL 081254Z AUTO 26004KT 10SM CLR 18/15 A3008 RMK AO2=
KEVM 081252Z AUTO 27005KT 10SM CLR 17/15 A3003 RMK AO1=
KELO 081253Z AUTO 24006KT 10SM CLR 18/15 A3002 RMK AO2=
KROX 081254Z AUTO 28006KT 10SM CLR 17/14 A3003 RMK AO2=
KSYN 081310Z AUTO 31004KT 10SM CLR 20/17 A3011 RMK AO2
     T01990171=
KVVV 081245Z AUTO 24004KT 10SM CLR 19/14 A3012 RMK AO2=
KROS 081255Z AUTO 27004KT 10SM CLR 19/16 A3010 RMK AO2
     T01900158=
KHCD 081252Z AUTO 28005KT 10SM CLR 18/16 A3012 RMK AO2 T01770164
     TSNO=
KSGS 081253Z AUTO 31004KT 10SM CLR 21/16 A3011 RMK AO2
     T02070164=
KMJQ 081252Z AUTO 30005KT 10SM CLR 18/15 A3017 RMK AO2=
KHCO 081254Z AUTO 31007KT 10SM CLR 17/16 A3008 RMK AO2=
KLVN 081248Z AUTO 28004KT 10SM CLR 19/17 A3012 RMK AO2=
KPEX 081253Z AUTO 26005KT 10SM CLR 18/17 A3012 RMK AO2
     T01800165=
KJMR 081258Z AUTO 29004KT 10SM CLR 18/14 A3010 RMK AO2=
KJKJ 081254Z AUTO 24003KT 10SM CLR 18/16 A3008 RMK AO2=
KMVE 081254Z AUTO 29004KT 10SM CLR 18/16 A3012 RMK AO2=
KTKC 081253Z AUTO 26005KT 10SM CLR 19/14 A3016 RMK AO2
     T01870144=
KGYL 081254Z AUTO 26003KT 10SM CLR 19/16 A3012 RMK AO2
     T01850156=
KDXX 081254Z AUTO 00000KT 10SM CLR 18/17 A3012 RMK AO2=
KHZX 081251Z AUTO 27005KT 10SM CLR 18/16 A3008 RMK AO2=
KSAZ 081253Z AUTO 27005KT 10SM CLR 18/18 A3009 RMK AO2=
KONA 081250Z AUTO 33008KT 10SM CLR 21/16 A3007 RMK AO2=
KOVL 081253Z AUTO 31005KT 10SM CLR 17/13 A3012 RMK AO2
     T01700133=
KLJF 081252Z AUTO 29006KT 10SM CLR 20/17 A3013 RMK AO2=
KAEL 081250Z AUTO 34003KT 10SM CLR 19/17 A3012 RMK AO2=
K29G 081254Z AUTO 00000KT 7SM CLR 26/19 A3009 RMK AO2 T02610190
     PWINO=
KMRT 081253Z AUTO 25004KT 10SM CLR 27/20 A3012 RMK AO2
     T02650198=
KIKW 081253Z AUTO 00000KT 10SM OVC080 23/21 A3002 RMK AO2
     T02320210=
KMDS 081245Z AUTO 27005KT 10SM CLR 19/16 A3018 RMK AO2=
KPQN 081253Z AUTO 31003KT 10SM CLR 19/14 A3018 RMK AO2=
KFGN 081254Z AUTO 28009KT 1/2SM -DZ BKN070 OVC100 17/14 A2999 RMK
     AO2=
KPNM 081253Z AUTO 26004KT 10SM CLR 19/16 A3010 RMK AO2=
KPWC 081253Z AUTO 27005KT 10SM CLR 17/15 A3009 RMK AO2=
KFFM 081253Z AUTO 30004KT 10SM CLR 17/16 A3009 RMK AO2=
KGDB 081253Z AUTO 25005KT 10SM CLR 18/16 A3015 RMK AO2
     T01770156=
KAIT 081253Z AUTO 25005KT 10SM CLR 18/17 A3007 RMK AO2=
####018003741####
SAUS99 KWBC 081258 RRB
METAR
KHWV 081256Z AUTO 15009KT 10SM FEW015 SCT060 27/22 A3008 RMK AO2
     SLP183 T02670217=
KHYA 081256Z 16005KT 10SM CLR 24/21 A3011 RMK AO2 SLP196
     T02440206=
KIFP 081255Z AUTO 00000KT 10SM CLR 26/M01 A2978 RMK AO2=
KIGX 081256Z AUTO VRB03KT 6SM HZ CLR 30/20 A3001 RMK AO2 SLP154
     T03000200=
KINW 081256Z AUTO 10SM CLR 19/02 A3013 RMK AO2 SLP120
     T01940017=
KISP 081256Z 13007KT 10SM FEW008 BKN012 BKN120 26/21 A3006 RMK AO2
     SLP176 T02610206=
KITH 081256Z 00000KT 10SM CLR 28/20 A3010 RMK AO2 T02770200
     SLP186=
KJMS 081256Z AUTO 27005KT 10SM CLR 16/14 A3011 RMK AO2 SLP194
     T01610139=
KJXN 081256Z 00000KT 10SM CLR 26/21 A3006 RMK AO2 SLP170
     T02560211=
KLAS 081256Z 21007KT 10SM FEW150 26/M03 A2984 RMK AO2 SLP073
     T02611033=
KLNR 081256Z AUTO 27003KT 5SM BR OVC004 22/21 A3005 RMK AO2 SLP166
     T02220206=
KLUF 081255Z 34003KT 10SM SCT160 26/04 A2980 RMK AO2A SLP059
     T02550038 $=
KM19 081256Z AUTO 21003KT 10SM CLR 27/23 A3009 RMK AO2 T02660233
     SLP185 $=
KMAN 081255Z AUTO 12003KT 10SM CLR 12/04 A3008 RMK AO1=
KMCF 081255Z AUTO 05007KT 10SM CLR 26/24 A3002 RMK AO2 SLP166
     T02610236=
KMDT 081256Z 00000KT 4SM HZ CLR 29/21 A3002 RMK AO2 SLP163
     T02940211=
KMOB 081256Z 00000KT 10SM SCT020 28/24 A3006 RMK AO2 SLP176
     T02780239=
KMQY 081256Z 00000KT 10SM CLR 28/23 A3010 RMK AO2 T02830227
     SLP182=
KMRH 081256Z AUTO 05008KT 9SM SCT017 BKN120 29/23 A2993 RMK AO2
     SLP136 T02890233 TSNO=
KNQA 081255Z COR 00000KT 10SM FEW250 28/24 A3008 RMK=
KOFK 081256Z AUTO 32003KT 10SM CLR 18/16 A3021 RMK AO2 SLP222
     T01780161=
KPVF 081255Z AUTO 00000KT 10SM CLR 22/10 A2994 RMK AO1=
KRBW 081255Z AUTO 31005KT 10SM CLR 26/21 A2999 RMK AO2=
KRDM 081256Z 00000KT 10SM CLR 08/02 A3008 RMK AO2 SLP165 T00780022
     $=
KSBP 081256Z 00000KT 6SM BR OVC005 12/12 A2993 RMK AO2 CIG 004V008
     SLP134 T01220117 $=
KSFO 081256Z 27012KT 10SM BKN008 13/11 A2993 RMK AO2 SLP135
     T01330106=
KSGH 081256Z 00000KT 4SM BR CLR 26/23 A3011 RMK AO2 T02610233
     SLP187=
KSLE 081256Z AUTO 14006KT 10SM CLR 13/11 A2992 RMK AO2 SLP130
     T01330111=
KSRC 081256Z AUTO VRB04KT 10SM FEW005 25/23 A3009 RMK AO2 TSNO
     T02500227 SLP191=
KSRR 081255Z AUTO 00000KT 10SM BKN021 OVC026 13/13 A3038 RMK
     AO2=
KTME 081255Z AUTO 06007KT 6SM BKN070 25/25 A2997 RMK AO1=
KTPH 081256Z AUTO 36011KT 10SM CLR 14/M03 A3012 RMK AO2 SLP123
     T01391033=
KUKI 081256Z AUTO 00000KT 10SM CLR 12/09 A2991 RMK AO2 SLP119
     T01170094=
KUOX 081255Z AUTO 00000KT 10SM CLR 25/22 A3010 RMK AO2=
KWJF 081256Z 17003KT 10SM CLR 17/04 A2991 RMK AO2 SLP110
     T01720039=
KY51 081255Z AUTO 33007KT 10SM BKN007 21/19 A3007 RMK AO1
     T02080192=
PAAK 081256Z AUTO 07025G31KT 10SM FEW022 SCT036 BKN070 07/03 A2952
     RMK AO1 PNO=
PAHP 081256Z AUTO 33005KT 10SM CLR 08/07 A3003 RMK AO1 PNO
     TSNO=
TJSJ 081256Z 08006KT 10SM FEW020 SCT036 29/26 A3001 RMK AO2 SLP161
     T02890256=
KSDF 081256Z 12003KT 5SM HZ FEW100 28/21 A3007 RMK AO2 SLP175
     T02780211=
K04W 081254Z AUTO 28003KT 10SM CLR 20/17 A3008 RMK AO2
     T02000173=
K1A6 081255Z AUTO 00000KT 3SM BR CLR 23/23 A3013 RMK AO2=
K1M4 081256Z AUTO VRB03KT 10SM CLR 27/22 A3013 RMK AO2 T02720222
     SLP197=
K1P1 081255Z AUTO 07004KT 10SM SCT016 SCT023 27/22 A3007 RMK AO2
     T02680221=
K21D 081258Z AUTO 00000KT 10SM CLR 20/17 A3011 RMK AO2=
KAIG 081255Z AUTO 35006KT 4SM BR OVC003 19/18 A3004 RMK AO2=
KAND 081256Z AUTO 10SM CLR 28/22 A3003 RMK AO2 SLP159 T02780217
     $=
KART 081256Z AUTO 25005KT 9SM CLR 28/22 A3004 RMK AO2 SLP165
     T02780217=
####018003702####
SAUS99 KWBC 081258 RRA
METAR
KGHW 081253Z AUTO 27007KT 10SM CLR 19/14 A3014 RMK AO2=
KMWM 081253Z AUTO 28006KT 10SM CLR 18/16 A3016 RMK AO2=
KULM 081255Z AUTO 30007KT 10SM CLR 18/15 A3013 RMK AO2=
KBBB 081253Z AUTO 00000KT 10SM CLR 18/16 A3012 RMK AO2=
KTWM 081253Z AUTO 28006KT 10SM CLR 20/14 A3003 RMK AO2=
KMGG 081255Z AUTO 26005KT 10SM CLR 20/16 A3012 RMK AO2
     T01950162=
KMOX 081250Z AUTO 27006KT 10SM CLR 19/17 A3008 RMK AO2=
PAZK 081256Z AUTO 05006KT 10SM CLR 08/03 A3007 RMK AO1 PNO=
PAAK 081256Z AUTO 07025G31KT 10SM FEW022 SCT036 BKN070 07/03 A2952
     RMK AO1 PNO=
PABL 081256Z AUTO 29004KT 10SM CLR 06/05 A3014 RMK AO1 PNO=
PABV 081256Z AUTO 00000KT 10SM BKN100 11/07 RMK AO1 PNO=
PADK 081256Z 04013KT 8SM SCT006 BKN011 OVC022 07/06 A2949 RMK AO1
     PNO=
PADL 081256Z 29004KT 10SM FEW038 OVC080 09/08 A2996 RMK AO1 PNO
     TSNO=
PAEM 081256Z AUTO 30003KT 10SM OVC085 12/09 A3001 RMK AO1 PNO=
PAFE 081256Z AUTO 07004KT 10SM CLR 10/08 A3017 RMK AO1 PNO=
PAFM 081256Z AUTO 32003KT 10SM CLR 12/08 A3009 RMK AO1 PNO=
PAGL 081256Z AUTO 34004KT 10SM CLR 13/08 A3013 RMK AO1 PNO=
PAGS 081256Z AUTO 00000KT 10SM CLR 08/07 A3018 RMK AO1 PNO=
PAHP 081256Z AUTO 33005KT 10SM CLR 08/07 A3003 RMK AO1 PNO
     TSNO=
PAHY 081256Z AUTO 00000KT 10SM CLR 15/09 A3013 RMK AO1 PNO=
PAII 081256Z AUTO 36004KT 10SM SCT100 10/08 A2996 RMK AO1 PNO=
PAIN 081256Z AUTO 00000KT 10SM CLR 07/06 A3006 RMK AO1 PNO=
PAJC 081256Z AUTO 20003KT 10SM OVC017 07/03 A2993 RMK AO1 PNO=
PAKK 081256Z AUTO 01010KT 10SM CLR 12/07 A3005 RMK AO1 PNO=
PAKP 081256Z AUTO 07006KT 10SM CLR 10/02 A3011 RMK AO1=
PAMD 081256Z AUTO 08018KT 2 1/2SM BKN003 OVC012 09/08 A3003 RMK
     AO1 PNO=
PAMH 081256Z 00000KT 10SM CLR 13/04 A2997 RMK AO1 PNO=
PAMM 081256Z AUTO 09004KT 10SM CLR 18/11 A3009 RMK AO1 PNO=
PAMY 081256Z 28007KT M1/4SM OVC002 04/03 A3004 RMK AO1=
PANI 081256Z AUTO 00000KT 9SM CLR 07/06 A3000 RMK AO1 PNO=
PANV 081256Z AUTO 13003KT 10SM CLR 13/09 A2997 RMK AO1 PNO=
PAOU 081256Z AUTO 05009KT 10SM FEW006 07/06 A2993 RMK AO2 PWINO
     TSNO T00660061 SLP139 $=
PAPG 081256Z 00000KT 10SM CLR 10/08 A3014 RMK AO1 PNO=
PAPH 081256Z AUTO 14004KT 3/4SM BKN002 03/02 A2993 RMK AO1 PNO=
PAPN 081256Z AUTO 21004KT 9SM OVC018 08/08 A2993 RMK AO2 PWINO
     TSNO T00830083 SLP140 $=
PARC 081256Z AUTO 00000KT 10SM CLR 09/02 A3006 RMK AO1 PNO=
PASA 081256Z AUTO 00000KT 10SM CLR 03/01 A3018 RMK AO1 PNO=
PASD 081256Z AUTO 00000KT 10SM SCT027 06/04 A2991 RMK AO1 PNO=
PASH 081256Z AUTO 00000KT 10SM CLR 07/05 A3016 RMK AO1 PNO=
PASK 081256Z 26006KT 10SM CLR 12/08 A3010 RMK AO1 PNO=
PASL 081256Z AUTO 00000KT 10SM BKN120 09/08 A3001 RMK AO1 PNO=
PASM 081256Z AUTO 05003KT 10SM OVC100 10/08 A3002 RMK AO1 PNO=
PASX 081256Z 00000KT 10SM BKN100 BKN120 12/09 A2993 RMK AO1
     PNO=
PAUN 081256Z AUTO 06012KT 10SM CLR 13/04 A3001 RMK AO1 PNO=
PAVD 081256Z 14004KT 10SM OVC090 11/08 A3008 RMK AO1 PNO=
PAWG 081256Z AUTO 28004KT 10SM CLR 12/09 A3013 RMK AO1 PNO=
PAWN 081256Z AUTO 31004KT 10SM CLR 05/01 A3015 RMK AO1 PNO=
PAWS 081256Z AUTO 04008KT 10SM FEW060 FEW080 SCT090 12/08 A2998
     RMK AO1 PNO=
KGON 081256Z 13010KT 5SM HZ FEW007 SCT022 SCT029 25/21 A3007 RMK
     AO2 SLP184 T02500211=
KGRD 081256Z AUTO 01005KT 10SM CLR 28/21 A3005 RMK AO2 SLP166
     T02830211=
KHFF 081255Z AUTO 35003KT 10SM CLR 29/19 A2999 RMK AO2 SLP153
     T02880191 $=
KHND 081256Z 17006KT 10SM CLR 24/M03 A2991 RMK AO2 T02441027
     SLP071=
KHPN 081256Z 15005KT 2SM DZ BR BKN004 OVC009 25/23 A3007 RMK AO2
     RAB50E53DZB53 SLP175 P0000 T02500228=
KHVS 081255Z AUTO 34003KT 10SM CLR 28/20 A2999 RMK AO2=
####018002118####
SAUS99 KWBC 081258 RRC
METAR
KASG 081248Z 14006KT 10SM SCT025 BKN041 23/21 A3010=
KBED 081256Z 23008KT 8SM BKN014 BKN020 26/21 A3009 RMK AO2 SLP198
     T02610211=
KBIX 081255Z AUTO 02005KT 10SM CLR 27/26 A3005 RMK AO2 SLP177
     T02660256=
KBJI 081254Z AUTO 25006KT 10SM CLR 17/13 A3007 RMK AO2=
KBJJ 081256Z AUTO 22003KT 7SM CLR 26/20 A3010 RMK AO2 SLP183
     T02560200=
KBUU 081254Z AUTO 26005KT 10SM BKN085 22/21 A3004 RMK AO2=
KBYH 081251Z 00000KT 10SM FEW250 29/23 A3007=
KBZN 081256Z 00000KT 10SM CLR 09/06 A3030 RMK AO2 SLP232
     T00940056=
KC29 081255Z AUTO 27004KT 4SM OVC004 22/21 A3005 RMK AO2
     T02200205=
KCEC 081256Z AUTO 00000KT 3SM BR OVC003 10/09 A2998 RMK AO2 SLP154
     T01000094=
KCMR 081255Z AUTO 15006KT 10SM CLR 13/02 A3027 RMK AO1=
KCTB 081256Z AUTO 28005KT 10SM CLR 09/06 A3023 RMK AO2 SLP221
     T00940061=
KCXY 081256Z 00000KT 5SM HZ CLR 29/21 A3003 RMK AO2 SLP167
     T02940211=
KD39 081254Z AUTO 26007KT 10SM CLR 20/17 A3011 RMK AO2
     T01980174=
KDAY 081256Z 20003KT 6SM R06L/5500VP6000FT HZ CLR 27/19 A3010 RMK
     AO2 SLP183 T02720194=
KDIK 081256Z AUTO 00000KT 10SM CLR 14/11 A3017 RMK AO2 SLP209
     T01390106=
KDLL 081255Z AUTO 00000KT 10SM CLR 22/20 A3004 RMK AO2=
KDUG 081256Z AUTO 09005KT 10SM CLR 24/12 A3008 RMK AO2 SLP102
     T02390122 $=
KDUJ 081256Z AUTO 00000KT 6SM HZ CLR 24/19 A3012 RMK AO2 SLP185
     T02440189=
KE80 081255Z AUTO 28003KT 10SM BKN060 18/12 A3027 RMK AO2
     T01800123=
KEAU 081256Z 32004KT 10SM CLR 20/18 A3007 RMK AO2 SLP179
     T02000178=
KEDC 081255Z AUTO 05006KT -RA 25/25 A2998 RMK AO2 P0004=
KEED 081256Z AUTO 33004KT 10SM CLR 27/M02 A2978 RMK AO2 SLP050
     T02671022 TSNO=
KEIK 081255Z AUTO 31005KT 10SM SCT007 BKN012 13/12 A3032 RMK
     AO2=
KEKO 081256Z AUTO 00000KT 10SM CLR 11/M02 A3014 RMK AO2 SLP154
     T01061022=
KELZ 081256Z AUTO 00000KT 9SM CLR 24/19 A3017 RMK AO2 SLP198
     T02440194=
KEOE 081255Z AUTO 00000KT 10SM CLR 27/22 A3006 RMK AO2=
KFMH 081255Z AUTO 15010KT 10SM BKN012 OVC019 24/21 A3011 RMK
     AO2=
####018000288####
SPUS99 KWBC 081258
SPECI
KCEF 081252Z 13002KT 6SM -RA BR OVC011 25/22 A3008 RMK AO2A SLP186
     $=
KGUS 081250Z AUTO 19006KT 10SM -RA FEW060 26/22 A3004 RMK AO2
     RAB1250 CLDS LWR RWY05 SLP167 $=
KTVC 081256Z 00000KT 7SM FEW009 BKN014 OVC028 22/21 A3000 RMK
     AO2=
####018000811####
SAMX43 MMMZ 081300
METAR MMCL 081243Z 15003KT 8SM  FEW030 SCT090 SCT230 26/23 A2976 
      RMK 8/534 HZY=
METAR MMCN 081243Z 00000KT 10SM  BKN100 BKN200 27/20 A2973 
      RMK 8/055 RTS=
METAR MMDO 081244Z 04006KT 12SM  OVC020 17/16 A3013 
      RMK 8/4// BINOVC LWR ST=
METAR MMHO 081241Z 00000KT 10SM  BKN080 27/16 A2980 RMK 8/050 HZY=
METAR MMLM 081243Z 00000KT 10SM  SKC 25/21 A//// RMK ISOL AC HZY=
METAR MMLP 081241Z 18008KT 10SM  SKC 18/15 A2979 RMK ISOL SC AC=
METAR MMML 081253Z 15010KT 10SM SKC 22/// A2970
METAR MMMZ 081248Z 36004KT 8SM  FEW015 BKN025 OVC070 26/22 A2976 
      RMK 8/47/=
METAR MMSD 081242Z 28005KT 12SM  SKC 22/14 A2976 RMK RTS=
METAR MMSL 081242Z 34012KT 10SM  SKC 26/14 A2973 RMK CI=
METAR MMTJ 081242Z 00000KT 3SM BR  OVC008 16/14 A2994 RMK 8/6//=
####018000100####
SAGL41 BGSF 081250 RRB
METAR BGJN 081250Z VRB03KT 9999 0500N VCFG FEW001 07/04 Q1009 
RMK 1ST =
####018000128####
SAKA31 PTKR 081300
METAR PTKR 081254Z 08006KT 14SM SCT017CB SCT120 OVC300 27/25 A2988
RMK CB ALQDS MOV W SLP118 T02710246=
####018000360####
SAFI34 EFHK 081250
EFET 081250Z AUTO 16010KT 120V220 CAVOK 20/06 Q1013=
EFIV 081250Z AUTO VRB03KT CAVOK 22/10 Q1015=
EFKE 081250Z AUTO 21009KT 170V240 9999 FEW045 22/12 Q1015=
EFKI 081250Z AUTO 34005KT 310V030 CAVOK 23/14 Q1015=
EFKS 081250Z AUTO 18003KT CAVOK 21/10 Q1016=
EFKT 081250Z AUTO 16008KT 090V190 CAVOK 21/08 Q1014=
METAR EFSO 081256Z NIL=
####018000066####
SAEW LEJR 081300
METAR LEJR 081300Z VRB05KT CAVOK 32/14 Q1015=
####018000080####
SASN34 ESWI 081250 RRA
METAR ESDF 081250Z 19013KT 160V230 CAVOK 23/13 Q1020=
####018000932####
SAMX42 MMGL 081300
METAR MMAS 081240Z 04003KT 8SM  SCT020 BKN070 OVC200 17/14 A3009 
      RMK 8/537 HZ=
METAR MMEP 081253Z 00000KT 4SM  BKN003 OVC009 22/21 A2999 
      RMK 8/8// BR ARND=
METAR MMGL 081251Z 00000KT 10SM  FEW010 BKN080 OVC300 19/16 A3003 
      RMK 8/577=
METAR MMIA 081256Z NIL=
METAR MMLO 081248Z 00000KT 7SM  BKN025 BKN070 OVC200 18/18 A3012 
      RMK 8/577 HZY BINOVC=
METAR MMMM 081242Z 00000KT 4SM  BKN015 OVC040 17/15 A3010 
      RMK 8/5// HZY ST LWR HILL=
METAR MMPN 081345Z 00000KT 3SM BR BKN010 OVC025 16/16 A3005
      RMK 8/7// LOW ST 1-2 QUAD=
METAR MMPR 081250Z 00000KT 10SM  BKN025 OVC080 25/24 A2980 RMK 8/57/=
METAR MMSP 081246Z 00000KT 7SM  SCT010 BKN015 BKN080 17/17 A3013 
      RMK 8/550 HZY MSGTX MMMM=
METAR MMZC 081243Z 05004KT 10SM  BKN030 15/11 A3019 RMK 8/700=
METAR MMZO 081244Z 00000KT 10SM BKN100 BKN210 25/24 A2976
      RMK SLP067 8/035 HZY=
####018000085####
SANO36 ENMI 081250 RRA
METAR ENLK 081250Z 33007KT 9999 FEW030 SCT050 15/10 Q1011=
####018000083####
SAVN22 SVMI 081300
METAR SVMI 081300Z 00000KT  9999 FEW016 BKN100 26/24 Q1015 =
####018003699####
SAXX60 KWBC 081300
METAR
KRSP 081254Z AUTO 00000KT 4SM HZ CLR 27/17 A3011 RMK AO2 SLP183
     T02720172 $=
KBAD 081255Z AUTO 14004KT 10SM FEW090 25/24 A3006 RMK AO2 SLP178
     T02490241 $=
KNHK 081252Z 11011G15KT 5SM HZ SCT012 SCT020 28/23 A3001 RMK AO2
     SLP163 T02780233=
KOFF 081255Z AUTO VRB05KT 10SM CLR 21/19 A3014 RMK AO2 SLP195
     T02090195 $=
KPOB 081255Z AUTO 00000KT 10SM CLR 28/21 A2997 RMK AO2 SLP149
     T02810213 $=
KVPS 081255Z 34002KT 10SM SKC 27/24 A3004 RMK SLP173 T02660237
     $=
KBAD 081255Z AUTO 14004KT 10SM FEW090 25/24 A3006 RMK AO2 SLP178
     T02490241 $=
KBLV 081255Z AUTO 26004KT 10SM FEW060 26/25 A3005 RMK AO2
     RAB1151E1203 SLP172 P0003 T02610251=
KCBM 081255Z AUTO 34007KT 10SM CLR 27/23 A3007 RMK AO2 SLP183
     T02680230 $=
KCEF 081255Z 13003KT 6SM -RA BR OVC011 25/22 A3008 RMK AO2A SLP186
     T02460224 $=
KDAA 081255Z AUTO 13004KT 9SM CLR 29/24 A3002 RMK AO2 SLP166
     T02890235=
KFBG 081255Z AUTO VRB04KT 10SM CLR 29/21 A2997 RMK AO2 SLP146
     T02880207 $=
KFHU 081255Z 09005KT 50SM FEW050 FEW120 22/12 A3009 RMK SLP111=
KGRF 081255Z AUTO 14003KT 10SM CLR 12/10 A2995 RMK AO2 SLP144
     T01190100 $=
KGUS 081255Z AUTO 23005KT 10SM -RA SCT060 25/23 A3005 RMK AO2
     RAB1250 SLP169 P0000 T02520230 $=
KHMN 081255Z 08003KT 10SM CLR 17/13 A3016 RMK AO2A SLP134
     T01720135 $=
KIAB 081255Z AUTO 04008KT 10SM BKN008 22/21 A3011 RMK AO2
     RAB1208E1223DZB1221E1222 SLP184 P0000 T02220214=
KLRF 081255Z AUTO 00000KT 10SM CLR 25/23 A3008 RMK AO2 SLP186
     T02470230=
KMGE 081255Z 33003KT 10SM CLR 28/21 A3007 RMK AO2A SLP168
     T02770205 $=
KMTC 081255Z 00000KT 7SM FEW240 30/22 A3001 RMK SLP167=
KSVN 081255Z 27005KT 10SM SKC 27/22 A2998 RMK SLP155 53007=
KCBM 081255Z AUTO 34007KT 10SM CLR 27/23 A3007 RMK AO2 SLP183
     T02680230 $=
KFBG 081255Z AUTO VRB04KT 10SM CLR 29/21 A2997 RMK AO2 SLP146
     T02880207 $=
KHST 081255Z AUTO 02004KT 10SM BKN021 BKN027 28/26 A2996 RMK AO2
     CIG 018V024 SLP148 T02820256 $=
KIAB 081255Z AUTO 04008KT 10SM BKN008 22/21 A3011 RMK AO2
     RAB1208E1223DZB1221E1222 SLP184 P0000 T02220214=
KMTC 081255Z 00000KT 7SM FEW240 30/22 A3001 RMK SLP167=
KMUO 081255Z AUTO 06005KT 10SM CLR 12/01 A3010 RMK AO2 SLP170
     T01240010=
KOFF 081255Z AUTO VRB05KT 10SM CLR 21/19 A3014 RMK AO2 SLP195
     T02090195 $=
KRIV 081255Z 29003KT 2SM BR OVC003 13/13 A2992 RMK AO2A SLP129
     T01330125=
KSVN 081255Z 27005KT 10SM SKC 27/22 A2998 RMK SLP155 53007=
KVPS 081255Z 34002KT 10SM SKC 27/24 A3004 RMK SLP173 T02660237
     $=
PAEI 081255Z AUTO 00000KT 10SM CLR 09/06 A3004 RMK AO2 SLP173
     T00880061 $=
PHHI 081255Z AUTO 01004KT 10SM -DZ BKN036 OVC044 20/18 A3003 RMK
     AO2 DZB1241 SLP156 P0000 T01990181=
KNHK 081252Z 11011G15KT 5SM HZ SCT012 SCT020 28/23 A3001 RMK AO2
     SLP163 T02780233=
KNRB 081252Z 28004KT 10SM CLR 27/20 A3002 RMK AO2 SLP163
     T02670200=
KNSI 081256Z 27003KT 7SM OVC013 12/10 A2991 RMK SLP129
     T01220100=
KNZY 081252Z 35008KT 7SM -DZ SCT008 OVC013 18/14 A2991 RMK AO2
     DZB22 SLP126 P0000 T01780139 $=
KOFF 081255Z AUTO VRB05KT 10SM CLR 21/19 A3014 RMK AO2 SLP195
     T02090195 $=
KOZR 081255Z 00000KT 10SM CLR 25/25 A3004 RMK AO2A SLP169
     T02500250=
KPOB 081255Z AUTO 00000KT 10SM CLR 28/21 A2997 RMK AO2 SLP149
     T02810213 $=
KRIV 081255Z 29003KT 2SM BR OVC003 13/13 A2992 RMK AO2A SLP129
     T01330125=
KSSC 081255Z AUTO 30008KT 10SM CLR 29/20 A2998 RMK AO2 SLP149
     T02860203 $=
KSUU 081255Z AUTO 23019G24KT 10SM CLR 12/10 A2984 RMK AO2 PK WND
     25026/1226 SLP106 T01170101 RVRNO $=
####018003702####
SAUS70 KWBC 081300 RRB
METAR
PARC 081256Z AUTO 00000KT 10SM CLR 09/02 A3006 RMK AO1 PNO=
PASA 081256Z AUTO 00000KT 10SM CLR 03/01 A3018 RMK AO1 PNO=
PASD 081256Z AUTO 00000KT 10SM SCT027 06/04 A2991 RMK AO1 PNO=
PASH 081256Z AUTO 00000KT 10SM CLR 07/05 A3016 RMK AO1 PNO=
PASK 081256Z 26006KT 10SM CLR 12/08 A3010 RMK AO1 PNO=
PASL 081256Z AUTO 00000KT 10SM BKN120 09/08 A3001 RMK AO1 PNO=
PASM 081256Z AUTO 05003KT 10SM OVC100 10/08 A3002 RMK AO1 PNO=
PASX 081256Z 00000KT 10SM BKN100 BKN120 12/09 A2993 RMK AO1
     PNO=
PAUN 081256Z AUTO 06012KT 10SM CLR 13/04 A3001 RMK AO1 PNO=
PAVD 081256Z 14004KT 10SM OVC090 11/08 A3008 RMK AO1 PNO=
PAWG 081256Z AUTO 28004KT 10SM CLR 12/09 A3013 RMK AO1 PNO=
PAWN 081256Z AUTO 31004KT 10SM CLR 05/01 A3015 RMK AO1 PNO=
PAWS 081256Z AUTO 04008KT 10SM FEW060 FEW080 SCT090 12/08 A2998
     RMK AO1 PNO=
KGON 081256Z 13010KT 5SM HZ FEW007 SCT022 SCT029 25/21 A3007 RMK
     AO2 SLP184 T02500211=
KGRD 081256Z AUTO 01005KT 10SM CLR 28/21 A3005 RMK AO2 SLP166
     T02830211=
KHFF 081255Z AUTO 35003KT 10SM CLR 29/19 A2999 RMK AO2 SLP153
     T02880191 $=
KHND 081256Z 17006KT 10SM CLR 24/M03 A2991 RMK AO2 T02441027
     SLP071=
KHPN 081256Z 15005KT 2SM DZ BR BKN004 OVC009 25/23 A3007 RMK AO2
     RAB50E53DZB53 SLP175 P0000 T02500228=
KHVS 081255Z AUTO 34003KT 10SM CLR 28/20 A2999 RMK AO2=
KHWV 081256Z AUTO 15009KT 10SM FEW015 SCT060 27/22 A3008 RMK AO2
     SLP183 T02670217=
KHYA 081256Z 16005KT 10SM CLR 24/21 A3011 RMK AO2 SLP196
     T02440206=
KIFP 081255Z AUTO 00000KT 10SM CLR 26/M01 A2978 RMK AO2=
KIGX 081256Z AUTO VRB03KT 6SM HZ CLR 30/20 A3001 RMK AO2 SLP154
     T03000200=
KISP 081256Z 13007KT 10SM FEW008 BKN012 BKN120 26/21 A3006 RMK AO2
     SLP176 T02610206=
KITH 081256Z 00000KT 10SM CLR 28/20 A3010 RMK AO2 T02770200
     SLP186=
KJMS 081256Z AUTO 27005KT 10SM CLR 16/14 A3011 RMK AO2 SLP194
     T01610139=
KJXN 081256Z 00000KT 10SM CLR 26/21 A3006 RMK AO2 SLP170
     T02560211=
KLAS 081256Z 21007KT 10SM FEW150 26/M03 A2984 RMK AO2 SLP073
     T02611033=
KLNR 081256Z AUTO 27003KT 5SM BR OVC004 22/21 A3005 RMK AO2 SLP166
     T02220206=
KM19 081256Z AUTO 21003KT 10SM CLR 27/23 A3009 RMK AO2 T02660233
     SLP185 $=
KMAN 081255Z AUTO 12003KT 10SM CLR 12/04 A3008 RMK AO1=
KMDT 081256Z 00000KT 4SM HZ CLR 29/21 A3002 RMK AO2 SLP163
     T02940211=
KMQY 081256Z 00000KT 10SM CLR 28/23 A3010 RMK AO2 T02830227
     SLP182=
KMRH 081256Z AUTO 05008KT 9SM SCT017 BKN120 29/23 A2993 RMK AO2
     SLP136 T02890233 TSNO=
KNQA 081255Z COR 00000KT 10SM FEW250 28/24 A3008 RMK=
KPVF 081255Z AUTO 00000KT 10SM CLR 22/10 A2994 RMK AO1=
KRBW 081255Z AUTO 31005KT 10SM CLR 26/21 A2999 RMK AO2=
KRDM 081256Z 00000KT 10SM CLR 08/02 A3008 RMK AO2 SLP165 T00780022
     $=
KSBP 081256Z 00000KT 6SM BR OVC005 12/12 A2993 RMK AO2 CIG 004V008
     SLP134 T01220117 $=
KSGH 081256Z 00000KT 4SM BR CLR 26/23 A3011 RMK AO2 T02610233
     SLP187=
KSLE 081256Z AUTO 14006KT 10SM CLR 13/11 A2992 RMK AO2 SLP130
     T01330111=
KSRC 081256Z AUTO VRB04KT 10SM FEW005 25/23 A3009 RMK AO2 TSNO
     T02500227 SLP191=
KSRR 081255Z AUTO 00000KT 10SM BKN021 OVC026 13/13 A3038 RMK
     AO2=
KTME 081255Z AUTO 06007KT 6SM BKN070 25/25 A2997 RMK AO1=
KTPH 081256Z AUTO 36011KT 10SM CLR 14/M03 A3012 RMK AO2 SLP123
     T01391033=
KUKI 081256Z AUTO 00000KT 10SM CLR 12/09 A2991 RMK AO2 SLP119
     T01170094=
KUOX 081255Z AUTO 00000KT 10SM CLR 25/22 A3010 RMK AO2=
KWJF 081256Z 17003KT 10SM CLR 17/04 A2991 RMK AO2 SLP110
     T01720039=
KY51 081255Z AUTO 33007KT 10SM BKN007 21/19 A3007 RMK AO1
     T02080192=
####018000253####
SPUS70 KWBC 081258
SPECI
KDGW 081255Z AUTO 00000KT 1SM BR VV001 07/06 A3036 RMK AO2 $=
KRAC 081255Z AUTO 27006KT 6SM BR SCT008 BKN036 OVC080 24/22 A3004
     RMK AO2=
KTVC 081256Z 00000KT 7SM FEW009 BKN014 OVC028 22/21 A3000 RMK
     AO2=
####018000091####
SAUS70 KWBC 081200 RRL
METAR
KMYP 081156Z AUTO 18012KT 10SM CLR 03/02 A3074 RMK AO2=
####018003720####
SAUS70 KWBC 081300 RRA
METAR
KHUM 081250Z 06004KT 7SM SKC 27/27 A3003=
KISO 081255Z 01004KT 4SM HZ CLR 28/23 A2997=
KLLJ 081255Z AUTO 00000KT 10SM FEW095 08/01 A3029 RMK AO2 SLP207
     T00830006=
KLUX 081255Z AUTO 00000KT 10SM CLR 27/25 A3004 RMK AO2=
KMAO 081255Z AUTO 35003KT 10SM CLR 28/20 A2995 RMK AO2=
KMER 081255Z AUTO 31006KT 10SM CLR 16/12 A2984 RMK AO1=
PAHN 081254Z AUTO 00000KT 10SM CLR 11/09 A3018 RMK AO2 SLP222
     T01060094 TSNO=
PAKN 081254Z 35003KT 10SM SCT060 08/08 A2990 RMK AO2 SLP125
     T00830078=
KOWB 081256Z 21003KT 10SM CLR 29/24 A3008 RMK AO2 T02940244
     SLP179=
KRCE 081255Z AUTO 36005KT 4SM BR OVC003 22/22 A3010 RMK AO2=
KRKR 081255Z AUTO 20004KT 10SM SCT037 BKN046 OVC085 28/25 A3005
     RMK AO2 LTG DSNT N=
KSGR 081253Z 07007KT 10SM FEW012 SCT080 25/23 A2995 RMK AO2
     RAB30E42 SLP148 P0000 T02500233=
KWYS 081250Z AUTO 00000KT 10SM CLR 02/00 A3039 RMK AO2=
KX40 081255Z AUTO 00000KT 10SM CLR 27/23 A3003 RMK AO2
     T02680234=
KXFL 081255Z 34004KT 10SM CLR 27/23 A3003=
KTTS 081255Z VRB04KT 10SM FEW025 FEW290 27/23 A3001 RMK SLP162 1SC
     /1/ 1CI /1/=
KTTS 081255Z VRB04KT 10SM FEW025 FEW290 27/23 A3001 RMK SLP162 1SC
     /1/ 1CI /1/=
PASC 081253Z 24012KT 10SM OVC230 08/05 A3003 RMK AO2 SLP170
     T00830050=
TJMZ 081250Z 05006KT 6SM HZ FEW030 31/25 A3002=
KHFF 081255Z AUTO 35003KT 10SM CLR 29/19 A2999 RMK AO2 SLP153
     T02880191 $=
KSDF 081256Z 12003KT 5SM HZ FEW100 28/21 A3007 RMK AO2 SLP175
     T02780211=
KALN 081250Z 00000KT 05SM BR BKN008 OVC080 25/24 A3006=
KEFD 081250Z 08005KT 4SM -RA BKN006 BKN020 OVC250 25/24 A2998=
KTTS 081255Z VRB04KT 10SM FEW025 FEW290 27/23 A3001 RMK SLP162 1SC
     /1/ 1CI /1/=
KUCP 081256Z AUTO 00000KT 5SM HZ CLR 24/21 A3010 RMK AO2 T02440211
     SLP199 $=
PHJR 081253Z 00000KT 10SM SCT060 22/17 A3001 RMK AO2 SLP170
     T02220172=
PHMK 081254Z AUTO 05006KT 10SM BKN050 22/18 A3002 RMK AO2 SLP167
     T02170178 TSNO=
PAZK 081256Z AUTO 05006KT 10SM CLR 08/03 A3007 RMK AO1 PNO=
PAAK 081256Z AUTO 07025G31KT 10SM FEW022 SCT036 BKN070 07/03 A2952
     RMK AO1 PNO=
PABL 081256Z AUTO 29004KT 10SM CLR 06/05 A3014 RMK AO1 PNO=
PABV 081256Z AUTO 00000KT 10SM BKN100 11/07 RMK AO1 PNO=
PADL 081256Z 29004KT 10SM FEW038 OVC080 09/08 A2996 RMK AO1 PNO
     TSNO=
PAEM 081256Z AUTO 30003KT 10SM OVC085 12/09 A3001 RMK AO1 PNO=
PAFE 081256Z AUTO 07004KT 10SM CLR 10/08 A3017 RMK AO1 PNO=
PAFM 081256Z AUTO 32003KT 10SM CLR 12/08 A3009 RMK AO1 PNO=
PAGL 081256Z AUTO 34004KT 10SM CLR 13/08 A3013 RMK AO1 PNO=
PAGS 081256Z AUTO 00000KT 10SM CLR 08/07 A3018 RMK AO1 PNO=
PAHP 081256Z AUTO 33005KT 10SM CLR 08/07 A3003 RMK AO1 PNO
     TSNO=
PAHY 081256Z AUTO 00000KT 10SM CLR 15/09 A3013 RMK AO1 PNO=
PAII 081256Z AUTO 36004KT 10SM SCT100 10/08 A2996 RMK AO1 PNO=
PAIN 081256Z AUTO 00000KT 10SM CLR 07/06 A3006 RMK AO1 PNO=
PAJC 081256Z AUTO 20003KT 10SM OVC017 07/03 A2993 RMK AO1 PNO=
PAKK 081256Z AUTO 01010KT 10SM CLR 12/07 A3005 RMK AO1 PNO=
PAKP 081256Z AUTO 07006KT 10SM CLR 10/02 A3011 RMK AO1=
PAMD 081256Z AUTO 08018KT 2 1/2SM BKN003 OVC012 09/08 A3003 RMK
     AO1 PNO=
PAMH 081256Z 00000KT 10SM CLR 13/04 A2997 RMK AO1 PNO=
PAMM 081256Z AUTO 09004KT 10SM CLR 18/11 A3009 RMK AO1 PNO=
PAMY 081256Z 28007KT M1/4SM OVC002 04/03 A3004 RMK AO1=
PANI 081256Z AUTO 00000KT 9SM CLR 07/06 A3000 RMK AO1 PNO=
PANV 081256Z AUTO 13003KT 10SM CLR 13/09 A2997 RMK AO1 PNO=
PAOU 081256Z AUTO 05009KT 10SM FEW006 07/06 A2993 RMK AO2 PWINO
     TSNO T00660061 SLP139 $=
PAPG 081256Z 00000KT 10SM CLR 10/08 A3014 RMK AO1 PNO=
PAPH 081256Z AUTO 14004KT 3/4SM BKN002 03/02 A2993 RMK AO1 PNO=
####018003715####
SAUS80 KWBC 081300
METAR
KDMH 081254Z AUTO 29/22 A3002 RMK AO2 SLP164 T02940222 PWINO
     TSNO=
KGSO 081254Z 03004KT 5SM HZ CLR 29/18 A3004 RMK AO2 SLP158
     T02940183=
KRNM 081253Z AUTO 28003KT 6SM BR OVC004 14/13 A2991 RMK AO2 SLP118
     T01390128 TSNO=
KAAF 081253Z AUTO 01007KT 10SM CLR 28/24 A3003 RMK AO2 SLP168
     T02780239=
KBUF 081254Z 23004KT 10SM FEW090 28/19 A3006 RMK AO2 SLP173 ACC
     E-SE T02780194=
KROC 081254Z 22006KT 9SM FEW090 26/21 A3005 RMK AO2 SLP173
     T02610206=
KSYR 081254Z 00000KT 7SM CLR 28/21 A3005 RMK AO2 SLP170
     T02830211=
KP68 081253Z AUTO 21005KT 07/M03 A3017 RMK AO2 SLP147 T00721028
     PWINO TSNO=
KACY 081254Z 10006KT 6SM -RA BR SCT013 BKN020 24/22 A3006 RMK AO2
     RAB37 SLP178 P0001 T02440222=
KLAX 081253Z 00000KT 7SM BCFG OVC012 16/13 A2991 RMK AO2 SLP127
     T01610128=
K4BM 081253Z AUTO 22007KT 1/2SM FG 03/03 A3062 RMK AO2=
KAVP 081254Z 00000KT 6SM HZ CLR 27/19 A3008 RMK AO2 SLP171
     T02670189 $=
KBTV 081254Z 19004KT 7SM CLR 28/22 A3002 RMK AO2 SLP163
     T02830217=
KCHA 081253Z 00000KT 10SM CLR 27/19 A3009 RMK AO2 SLP180
     T02670194=
KCNK 081255Z AUTO 35006KT 10SM BKN033 OVC043 20/18 A3017 RMK AO2
     SLP205 T02000183=
KDLH 081255Z 28007KT 10SM CLR 20/14 A3006 RMK AO2 SLP176
     T02000144=
KFWA 081254Z 20003KT 8SM FEW060 27/21 A3006 RMK AO2 SLP172
     T02720211=
KGPI 081255Z AUTO 36005KT 10SM CLR 13/08 A3019 RMK AO2 SLP210
     T01280078=
KIRK 081255Z AUTO 35005KT 10SM CLR 22/21 A3009 RMK AO2 SLP186
     T02220206=
KLIC 081255Z AUTO 13004KT 10SM CLR 13/13 A3034 RMK AO2 SLP227
     T01280128=
KLND 081253Z AUTO 00000KT 10SM FEW120 10/04 A3035 RMK AO2 SLP231
     T01000044=
KLXV 081253Z AUTO 00000KT 10SM OVC004 06/05 A3052 RMK AO2 SLP214
     T00560050 TSNO=
KMKG 081255Z 16005KT 6SM BR FEW005 OVC055 24/22 A3002 RMK AO2
     RAB33E44 SLP160 P0000 T02390222=
KMSN 081253Z VRB03KT 6SM BR OVC006 22/21 A3004 RMK AO2 CIG 004V009
     SLP167 T02170206=
KMWT 081253Z AUTO 00000KT 10SM CLR 25/23 A3007 RMK AO2 SLP171
     T02500233 TSNO=
KRNO 081255Z 00000KT 10SM SCT120 BKN160 19/06 A3006 RMK AO2 SLP121
     T01890056=
KSAV 081253Z 29007KT 10SM CLR 27/20 A3000 RMK AO2 SLP158 T02670200
     $=
KSBN 081254Z 13003KT 5SM -RA BR FEW035 BKN060 OVC075 23/22 A3006
     RMK AO2 TSB25E45RAB1155 SLP172 OCNL LTGIC DSNT SW CB DSNT SW
     P0015 T02330217=
KSCK 081255Z AUTO 36003KT 10SM CLR 12/11 A2985 RMK AO2 SLP106
     T01220106=
KSMS 081255Z AUTO 31006KT 10SM CLR 28/20 A2999 RMK AO2=
KTLH 081253Z 33006KT 10SM BCFG CLR 27/23 A3004 RMK AO2 SLP170
     T02670233=
KRFD 081254Z 30006KT 10SM SCT006 OVC180 24/21 A3006 RMK AO2 SLP173
     T02390211=
KGNT 081253Z AUTO 15009KT 16/09 A3033 RMK AO2 SLP174 T01610089
     PWINO TSNO=
KDRA 081255Z AUTO 00000KT 10SM CLR 19/M11 A2996 RMK AO2 SLP094
     T01941106 TSNO=
KCAO 081255Z AUTO 35009KT 10SM CLR 16/13 A3030 RMK AO2 RAE12
     SLP201 P0000 T01610133 TSNO=
KMBG 081255Z AUTO 19004KT 10SM CLR 16/12 A3015 RMK AO2 SLP204
     T01610117 TSNO=
KINL 081255Z AUTO 26006KT 10SM CLR 17/14 A3001 RMK AO2 SLP163
     T01720139=
KAST 081255Z AUTO 20003KT 4SM BR OVC003 12/11 A2996 RMK AO2 SLP146
     T01220111=
KSHV 081256Z 15003KT 10SM BKN090 BKN280 25/24 A3005 RMK AO2 SLP172
     T02500239=
KHON 081255Z AUTO 28004KT 10SM CLR 18/14 A3016 RMK AO2 SLP206
     T01830144=
TJSJ 081256Z 08006KT 10SM FEW020 SCT036 29/26 A3001 RMK AO2 SLP161
     T02890256=
KPHP 081255Z AUTO 24004KT 10SM CLR 14/11 A3023 RMK AO2 SLP224
     T01390106 TSNO $=
KAAT 081255Z AUTO 00000KT 10SM CLR 09/07 A3009 RMK AO2 SLP146
     T00890067 TSNO=
####018002906####
SAUS70 KWBC 081300 RRC
METAR
PAAK 081256Z AUTO 07025G31KT 10SM FEW022 SCT036 BKN070 07/03 A2952
     RMK AO1 PNO=
PAHP 081256Z AUTO 33005KT 10SM CLR 08/07 A3003 RMK AO1 PNO
     TSNO=
KSDF 081256Z 12003KT 5SM HZ FEW100 28/21 A3007 RMK AO2 SLP175
     T02780211=
K04W 081254Z AUTO 28003KT 10SM CLR 20/17 A3008 RMK AO2
     T02000173=
K1A6 081255Z AUTO 00000KT 3SM BR CLR 23/23 A3013 RMK AO2=
K1M4 081256Z AUTO VRB03KT 10SM CLR 27/22 A3013 RMK AO2 T02720222
     SLP197=
K1P1 081255Z AUTO 07004KT 10SM SCT016 SCT023 27/22 A3007 RMK AO2
     T02680221=
K21D 081258Z AUTO 00000KT 10SM CLR 20/17 A3011 RMK AO2=
KAIG 081255Z AUTO 35006KT 4SM BR OVC003 19/18 A3004 RMK AO2=
KAND 081256Z AUTO 10SM CLR 28/22 A3003 RMK AO2 SLP159 T02780217
     $=
KART 081256Z AUTO 25005KT 9SM CLR 28/22 A3004 RMK AO2 SLP165
     T02780217=
KASG 081248Z 14006KT 10SM SCT025 BKN041 23/21 A3010=
KBED 081256Z 23008KT 8SM BKN014 BKN020 26/21 A3009 RMK AO2 SLP198
     T02610211=
KBJI 081254Z AUTO 25006KT 10SM CLR 17/13 A3007 RMK AO2=
KBJJ 081256Z AUTO 22003KT 7SM CLR 26/20 A3010 RMK AO2 SLP183
     T02560200=
KBUU 081254Z AUTO 26005KT 10SM BKN085 22/21 A3004 RMK AO2=
KC29 081255Z AUTO 27004KT 4SM OVC004 22/21 A3005 RMK AO2
     T02200205=
KCEC 081256Z AUTO 00000KT 3SM BR OVC003 10/09 A2998 RMK AO2 SLP154
     T01000094=
KCMR 081255Z AUTO 15006KT 10SM CLR 13/02 A3027 RMK AO1=
KCTB 081256Z AUTO 28005KT 10SM CLR 09/06 A3023 RMK AO2 SLP221
     T00940061=
KCXY 081256Z 00000KT 5SM HZ CLR 29/21 A3003 RMK AO2 SLP167
     T02940211=
KD39 081254Z AUTO 26007KT 10SM CLR 20/17 A3011 RMK AO2
     T01980174=
KDAY 081256Z 20003KT 6SM R06L/5500VP6000FT HZ CLR 27/19 A3010 RMK
     AO2 SLP183 T02720194=
KDIK 081256Z AUTO 00000KT 10SM CLR 14/11 A3017 RMK AO2 SLP209
     T01390106=
KDLL 081255Z AUTO 00000KT 10SM CLR 22/20 A3004 RMK AO2=
KDUG 081256Z AUTO 09005KT 10SM CLR 24/12 A3008 RMK AO2 SLP102
     T02390122 $=
KDUJ 081256Z AUTO 00000KT 6SM HZ CLR 24/19 A3012 RMK AO2 SLP185
     T02440189=
KE80 081255Z AUTO 28003KT 10SM BKN060 18/12 A3027 RMK AO2
     T01800123=
KEAU 081256Z 32004KT 10SM CLR 20/18 A3007 RMK AO2 SLP179
     T02000178=
KEDC 081255Z AUTO 05006KT -RA 25/25 A2998 RMK AO2 P0004=
KEED 081256Z AUTO 33004KT 10SM CLR 27/M02 A2978 RMK AO2 SLP050
     T02671022 TSNO=
KEIK 081255Z AUTO 31005KT 10SM SCT007 BKN012 13/12 A3032 RMK
     AO2=
KEKO 081256Z AUTO 00000KT 10SM CLR 11/M02 A3014 RMK AO2 SLP154
     T01061022=
KELZ 081256Z AUTO 00000KT 9SM CLR 24/19 A3017 RMK AO2 SLP198
     T02440194=
KEOE 081255Z AUTO 00000KT 10SM CLR 27/22 A3006 RMK AO2=
KFMH 081255Z AUTO 15010KT 10SM BKN012 OVC019 24/21 A3011 RMK
     AO2=
KNFE 081256Z AUTO 08004KT 2SM HZ CLR 27/19 A2999 RMK AO2 SLP158
     T02720194 $=
KGFA 081256Z AUTO 20004KT 10SM CLR 11/07 A3022 RMK AO2 SLP245
     T01110072 $=
####018000091####
SAUS70 KWBC 071300 RRN
METAR
KVTP 081300Z AUTO 24007KT 10SM CLR 07/03 A3054 RMK AO2=
####018003733####
SAUS70 KWBC 081300
METAR
KAKR 081254Z AUTO 22003KT 8SM CLR 27/19 A3009 RMK AO2 SLP178
     T02670189=
KAMG 081253Z AUTO 29005KT 10SM CLR 26/21 A3003 RMK AO2 SLP166
     T02610206=
KCEW 081253Z AUTO 00000KT 10SM CLR 26/24 A3005 RMK AO2 SLP172
     T02610239=
KDSV 081254Z AUTO 13007KT 9SM CLR 26/20 A3009 RMK AO2 SLP191
     T02610200=
KDTO 081253Z AUTO 15007KT 10SM FEW015 SCT031 26/23 A3003 RMK AO2
     SLP160 T02560233=
KECP 081253Z 32004KT 10SM CLR 27/24 A3003 RMK AO2 SLP178
     T02670244=
KFIG 081254Z AUTO 00000KT 6SM HZ SCT070 23/19 A3013 RMK AO2 SLP189
     T02330189=
KGCN 081254Z 04003KT 10SM CLR 11/M01 A3025 RMK AO2 SLP144
     T01111011=
KHYI 081255Z AUTO 05007KT 7SM FEW007 BKN017 OVC038 A2996 RMK
     AO1=
KILE 081255Z 10003KT 8SM BKN006 OVC015 24/23 A3000 RMK AO1=
KJST 081254Z AUTO 00000KT 5SM HZ CLR 24/17 A3015 RMK AO2 SLP191
     T02390172=
KMAI 081253Z AUTO 00000KT 7SM SCT001 27/24 A3003 RMK AO2 SLP168
     T02670239=
KMLB 081253Z 04004KT 10SM FEW025 28/20 A3000 RMK AO2 SLP157
     T02780200=
KMTN 081250Z 10006KT 4SM HZ FEW100 29/24 A3003=
KOCF 081250Z 00000KT 10SM SKC 23/23 A3003=
KOCH 081255Z AUTO 11007KT 10SM SCT011 BKN018 BKN120 25/19 A3004
     RMK AO1=
KPNE 081254Z 13005KT 2 1/2SM HZ OVC006 26/23 A3006 RMK AO2 SFC VIS
     5 SLP177 T02610233=
KPNS 081253Z 00000KT 10SM CLR 27/24 A3004 RMK AO2 SLP172
     T02720244=
KPRX 081255Z 15007KT 5SM BKN005 OVC014 25/23 A3005 RMK AO1=
KPWG 081255Z AUTO 06005KT 10SM SCT013 BKN021 OVC029 26/23 A3002
     RMK AO1=
KTPL 081255Z 07007KT 7SM OVC009 24/23 A3000 RMK AO1=
KVAY 081254Z AUTO 14004KT 5SM BR BKN006 OVC011 26/23 A3004 RMK AO2
     CIG 005V009 SLP172 T02560233=
KBOS 081254Z 14006KT 10SM SCT230 24/20 A3010 RMK AO2 SLP193
     T02440200=
KBRO 081253Z 32007KT 10SM SCT005 BKN011 BKN026 26/25 A2977 RMK AO2
     RAB09E45 SLP078 P0000 T02610250=
KFLL 081253Z 08008KT 10SM SCT021 29/24 A2995 RMK AO2 SLP142
     T02940239=
KJFK 081251Z 15007KT 10SM FEW009 BKN014 BKN030 OVC130 26/21 A3006
     RMK AO2 RAB1159E10 SLP180 P0000 T02560211 $=
KMCO 081253Z VRB05KT 10SM FEW018 FEW250 27/21 A3001 RMK AO2 SLP162
     T02670206=
KPBI 081253Z 00000KT 7SM -RA FEW012 BKN022CB BKN055 27/26 A2996
     RMK AO2 SLP144 CB OHD-E-S MOV SW P0016 T02670261 $=
KPHL 081254Z 13004KT 4SM HZ SCT008 BKN110 BKN250 27/23 A3004 RMK
     AO2 SLP172 T02670228=
TIST 081253Z 09012KT 10SM CLR 30/24 A3000 RMK AO2 SLP160
     T03000244=
TISX 081253Z 09011KT 10SM SCT022 29/24 A3000 RMK AO2 SLP158
     T02940239=
KEFD 081250Z 08005KT 4SM -RA BKN006 BKN020 OVC250 25/24 A2998=
KIWA 081247Z 09005KT 45SM FEW120 SCT200 29/06 A2983 RMK FIRST=
KTOI 081253Z 00000KT 9SM CLR 26/23 A3005 RMK AO2 SLP169
     T02560233=
K0A9 081255Z AUTO 00000KT 10SM CLR 24/19 A3013 RMK=
K20V 081256Z AUTO 00000KT 10SM CLR 06/05 A3044 RMK AO2=
K5SM 081253Z AUTO 00000KT 10SM CLR 10/02 A3057 RMK AO2=
K7BM 081256Z AUTO 00000KT 10SM CLR 08/06 A3054 RMK AO2=
KAEG 081255Z AUTO 00000KT 10SM CLR 15/08 A3031 RMK AO1=
KBBP 081255Z AUTO 32005KT 10SM CLR 28/19 A2997 RMK AO2=
KBDU 081257Z AUTO 23003KT 10SM OVC032 16/12 A3033 RMK AO2=
KBKN 081255Z AUTO 36007KT 10SM SCT027 23/22 A3007 RMK AO2=
KBMI 081256Z 00000KT 9SM FEW008 SCT047 24/23 A3007 RMK AO2
     T02440227 SLP168 $=
KBOK 081256Z AUTO 00000KT 5SM BR OVC002 09/09 A2998 RMK AO2
     T00880088 SLP153 $=
KCCU 081256Z AUTO 19014KT 10SM CLR 07/00 A3064 RMK AO2=
KCIC 081255Z AUTO 14007KT 10SM CLR 19/12 A2985 RMK AO1=
KEAT 081255Z AUTO 25007KT 10SM CLR 16/07 A3005 RMK AO2 SLP167
     T01560067=
KEVB 081255Z 36003KT 10SM SKC 27/22 A3002=
KGGE 081255Z AUTO 31006KT 10SM CLR 26/21 A2995 RMK AO2=
####018003644####
SAXX60 KWBC 081300 RRB
METAR
KMUO 081255Z AUTO 06005KT 10SM CLR 12/01 A3010 RMK AO2 SLP170
     T01240010=
KNFW 081252Z 11006KT 10SM SCT012 BKN024 26/22 A3007 RMK AO2 SLP166
     RAB47 P0000 T02610222=
KVBG 081255Z AUTO 33006KT 10SM OVC004 12/11 A2994 RMK AO2 SLP130
     T01170111 TSNO $=
KCEF 081255Z 13003KT 6SM -RA BR OVC011 25/22 A3008 RMK AO2A SLP186
     T02460224 $=
KFBG 081255Z AUTO VRB04KT 10SM CLR 29/21 A2997 RMK AO2 SLP146
     T02880207 $=
KGUS 081255Z AUTO 23005KT 10SM -RA SCT060 25/23 A3005 RMK AO2
     RAB1250 SLP169 P0000 T02520230 $=
KLRF 081255Z AUTO 00000KT 10SM CLR 25/23 A3008 RMK AO2 SLP186
     T02470230=
KNRB 081252Z 28004KT 10SM CLR 27/20 A3002 RMK AO2 SLP163
     T02670200=
KOZR 081255Z 00000KT 10SM CLR 25/25 A3004 RMK AO2A SLP169
     T02500250=
KSSC 081255Z AUTO 30008KT 10SM CLR 29/20 A2998 RMK AO2 SLP149
     T02860203 $=
KADW 081255Z AUTO 10003KT 10SM CLR 27/23 A3002 RMK AO2 SLP166
     T02730234=
KBKF 081255Z 36005KT 3/4SM BR OVC002 13/13 A3034 RMK SLP234=
KDLF 081255Z AUTO 31003KT 10SM FEW015 SCT041 24/23 A2998 RMK AO2
     SLP137 T02410231 $=
KLFI 081255Z 10006KT 10SM FEW013 BKN100 26/22 A3001 RMK AO2A
     SLP163 T02580217 $=
KLTS 081255Z AUTO 04003KT 10SM FEW050 23/23 A3008 RMK AO2
     RAE1224DZB1204E1207B1224E1227 SLP170 P0001 T02300225 $=
KMMT 081255Z 33006KT 8SM FEW100 28/20 A3000 RMK AO2A SLP159
     T02800203=
KMXF 081255Z AUTO 00000KT 10SM CLR 28/24 A3003 RMK AO2 SLP167
     T02820237=
KWRB 081255Z 34006KT 10SM CLR 27/22 A3003 RMK AO2A SLP166
     T02680218 $=
KXMR 081255Z AUTO 03004KT 10SM CLR 28/22 A2999 RMK AO2 SLP158
     T02760221=
MHSC 081255Z AUTO 28003KT 9999 OVC065 22/20 A2998 RMK AO2 SLP116
     T02200203 $=
KNYL 081255Z AUTO 00000KT 10SM CLR 27/M03 A2974 RMK AO2 SLP065
     T02671033=
PGUA 081255Z AUTO 11010KT 10SM CLR 26/ A2992 RMK AO2 SLP113 T0260
     VISNO RWY24L $=
PHHI 081255Z AUTO 01004KT 10SM -DZ BKN036 OVC044 20/18 A3003 RMK
     AO2 DZB1241 SLP156 P0000 T01990181=
PHNL 081253Z 07005KT 10SM FEW039 SCT055 23/18 A3000 RMK AO2 SLP160
     T02280183=
KLUF 081255Z 34003KT 10SM SCT160 26/04 A2980 RMK AO2A SLP059
     T02550038 $=
KMCF 081255Z AUTO 05007KT 10SM CLR 26/24 A3002 RMK AO2 SLP166
     T02610236=
KBIX 081255Z AUTO 02005KT 10SM CLR 27/26 A3005 RMK AO2 SLP177
     T02660256=
KBYH 081251Z 00000KT 10SM FEW250 29/23 A3007=
KNCA 081256Z 04006KT 4SM HZ FEW090 28/24 A2995 RMK AO2 SLP143
     T02780239=
KNXP 081256Z AUTO 28007KT CLR 23/00 A2994 RMK AO2 SLP099 T02280000
     $=
KABH 081256Z AUTO 00000KT 10SM CLR 13/11 A3036 RMK AO2 SLP246
     T01280111 $=
KNUW 081256Z 00000KT 10SM CLR 16/10 A2997 RMK AO2 SLP154 T01630098
     $=
KNFG 081256Z AUTO 00000KT 9SM OVC011 16/14 A2991 RMK AO2 SLP128
     T01560139 TSNO=
KPRN 081256Z AUTO 00000KT 10SM CLR 28/23 A3004 RMK AO2 SLP165
     T02830233 $=
KNMM 081256Z 35003KT 10SM FEW250 28/22 A3007 RMK AO2 SLP188
     T02780217=
KNXX 081256Z 13008KT 5SM HZ FEW045 27/22 A3006 RMK AO2 SLP182
     T02720217 $=
KNBT 081256Z AUTO 06011KT 6SM HZ CLR 29/ A2994 RMK AO2 SLP142
     T0294 TSNO=
KAQV 081256Z AUTO 00000KT 10SM BKN100 26/24 A3004 RMK AO2 SLP169
     T02560239 $=
KNYG 081256Z 00000KT 6SM HZ FEW090 BKN200 28/23 A3002 RMK AO2
     SLP166 T02780228=
PACZ 081255Z AUTO 05008KT 10SM 11/08 A3003 RMK AO1 T01060084=
PATC 081255Z AUTO 02009KT 10SM CLR 08/06 A3013 RMK AO1
     T00780062=
PAIM 081255Z AUTO 30006KT 10SM CLR 10/07 A3007 RMK AO1
     T01000073=
PAEH 081255Z AUTO 14004KT 10SM CLR 09/M28 A2997 RMK AO1
     T00941283=
####018000278####
SAUS80 KWBC 081300 CCA
METAR
KNAK 081254Z AUTO 13008KT 5SM HZ 27/22 A3002 RMK AO2 SLP167
     T02720222 TSNO $=
KTYS 081253Z 00000KT 6SM HZ CLR 27/19 A3009 RMK AO2 SLP175
     T02670194=
KTRI 081253Z 00000KT 6SM HZ CLR 25/20 A3013 RMK AO2 SLP181
     T02500200=
####018002026####
SAUS80 KWBC 081300 RRA
METAR
KABQ 081256Z 10014KT 10SM SCT100 OVC200 19/09 A3028 RMK AO2 SLP171
     T01940094=
KJAX 081256Z 28005KT 10SM CLR 24/21 A3002 RMK AO2 SLP166
     T02440211=
KCHS 081256Z 31006KT 8SM CLR 27/21 A2997 RMK AO2 SLP148
     T02670206=
KANJ 081255Z AUTO 27008KT 7SM -RA OVC004 20/19 A2997 RMK AO2 CIG
     003V008 SLP145 P0000 T02000189=
PHKO 081253Z AUTO 12006KT 10SM BKN065 23/18 A2996 RMK AO2 SLP144
     T02330178 TSNO=
PHOG 081254Z AUTO 03010KT 10SM CLR 23/17 A3000 RMK AO2 SLP165
     T02280172 TSNO=
PHTO 081253Z 22006KT 10SM RA FEW020 BKN026 OVC034 21/19 A3002 RMK
     AO2 RAB04 SLP164 P0011 T02110194=
PADK 081256Z 04013KT 8SM SCT006 BKN011 OVC022 07/06 A2949 RMK AO1
     PNO=
KINW 081256Z AUTO 10SM CLR 19/02 A3013 RMK AO2 SLP120
     T01940017=
KMOB 081256Z 00000KT 10SM SCT020 28/24 A3006 RMK AO2 SLP176
     T02780239=
KOFK 081256Z AUTO 32003KT 10SM CLR 18/16 A3021 RMK AO2 SLP222
     T01780161=
KSFO 081256Z 27012KT 10SM BKN008 13/11 A2993 RMK AO2 SLP135
     T01330106=
TJSJ 081256Z 08006KT 10SM FEW020 SCT036 29/26 A3001 RMK AO2 SLP161
     T02890256=
KBZN 081256Z 00000KT 10SM CLR 09/06 A3030 RMK AO2 SLP232
     T00940056=
K2WX 081256Z AUTO 27006KT 13/09 A3017 RMK AO1 SLP205 T01330094=
KMEH 081256Z AUTO 00000KT 10SM CLR 06/04 A3012 RMK AO2 SLP183
     T00560044 TSNO=
KP28 081256Z AUTO 36007KT 22/21 A3013 RMK AO2 SLP187 T02170206
     PWINO TSNO=
KFLG 081256Z 00000KT 10SM SCT120 10/01 A3028 RMK AO2 SLP151
     T01000006=
KLWS 081256Z AUTO 10005KT 10SM CLR 16/09 A3004 RMK AO2 SLP164
     T01560089=
KGNR 081256Z AUTO VRB03KT 21/20 A3009 RMK AO1 SLP183 T02060200=
KGNA 081256Z AUTO 00000KT 20/16 A2999 RMK AO2 SLP150 T02000161
     PWINO TSNO=
KSXT 081256Z AUTO 11004KT 8SM CLR 21/09 A3003 RMK AO2 SLP100
     T02110094 TSNO=
KROC 081254Z 22006KT 9SM FEW090 26/21 A3005 RMK AO2 SLP173
     T02610206=
KBIH 081256Z AUTO 00000KT 10SM CLR 12/02 A3001 RMK AO2 SLP113
     T01220022 TSNO=
####018000212####
SPXX60 KWBC 081258
SPECI
KCEF 081252Z 13002KT 6SM -RA BR OVC011 25/22 A3008 RMK AO2A SLP186
     $=
KGUS 081250Z AUTO 19006KT 10SM -RA FEW060 26/22 A3004 RMK AO2
     RAB1250 CLDS LWR RWY05 SLP167 $=
####018000409####
SAPQ50 KWBC 081300 RRB
METAR
PGSN 081254Z 10012KT 10SM FEW019 SCT026 28/24 A2992 RMK AO2
     RAB09E21 SLP129 P0000 T02780244=
PGUM 081254Z 11008KT 10SM CLR 27/24 A2992 RMK AO2 SLP123
     T02720244=
PTKK 081252Z VRB04KT 15SM FEW014 BKN120 OVC280 26/23 A2985 RMK
     SLP111 T02620229=
PTKR 081254Z 08006KT 14SM SCT017CB SCT120 OVC300 27/25 A2988 RMK
     CB ALQDS MOV W SLP118 T02710246=
####018003682####
SAXX60 KWBC 081300 RRA
METAR
KVPS 081255Z 34002KT 10SM SKC 27/24 A3004 RMK SLP173 T02660237
     $=
KWRI 081255Z AUTO 15007KT 9SM FEW100 26/24 A3003 RMK AO2 SLP168
     T02590238 $=
KAFF 081255Z AUTO 00000KT 10SM CLR 12/11 A3038 RMK AO2 SLP206
     T01200107=
KFTK 081255Z AUTO 00000KT 10SM CLR 26/22 A3009 RMK AO2 SLP181
     T02640216=
KLHW 081255Z 29006KT 10SM CLR 26/21 A3000 RMK AO2A SLP160
     T02640206=
KMUI 081255Z AUTO 00000KT 10SM CLR 29/20 A3004 RMK AO2 SLP169
     T02910198 $=
KNFW 081252Z 11006KT 10SM SCT012 BKN024 26/22 A3007 RMK AO2 SLP166
     RAB47 P0000 T02610222=
KNIP 081253Z 26005KT 10SM CLR 26/21 A3002 RMK AO2 SLP162
     T02560211=
KNKT 081254Z 06011KT 8SM FEW014 BKN060 BKN150 27/24 A2995 RMK AO2
     SLP139 T02720239=
KNQX 081253Z 05005KT 10SM SCT022CB SCT100 BKN200 29/25 A2996 RMK
     AO2 SLP144 CB DSNT S TCU DSNT SE W T2 SET T02940250 $=
KNRB 081252Z 28004KT 10SM CLR 27/20 A3002 RMK AO2 SLP163
     T02670200=
KSSC 081255Z AUTO 30008KT 10SM CLR 29/20 A2998 RMK AO2 SLP149
     T02860203 $=
KWRI 081255Z AUTO 15007KT 9SM FEW100 26/24 A3003 RMK AO2 SLP168
     T02590238 $=
PABI 081253Z AUTO 00000KT 10SM CLR 10/07 A3008 RMK AO2 SLP186
     T01000072 TSNO=
KNKX 081255Z 00000KT 10SM -RA OVC010 16/14 A2991 RMK AO2 RAB53 CIG
     005V011 SLP123 P0000 T01560139=
KNBG 081255Z 06003KT 7SM SCT015 BKN250 26/23 A3004 RMK AO2 SLP171
     T02620233 $=
KPOE 081255Z AUTO 08006KT 10SM CLR 25/23 A3004 RMK AO2 SLP171
     T02500233 $=
KBAB 081255Z AUTO 00000KT 10SM FEW180 15/12 A2984 RMK AO2 SLP105
     T01500116 $=
KBIX 081255Z AUTO 02005KT 10SM CLR 27/26 A3005 RMK AO2 SLP177
     T02660256=
KFSI 081255Z AUTO 01005KT 10SM OVC085 23/22 A3006 RMK AO2 SLP164
     T02320222=
KGTB 081255Z AUTO VRB04KT 10SM CLR 29/22 A3004 RMK AO2 SLP171
     T02920220=
KLUF 081255Z 34003KT 10SM SCT160 26/04 A2980 RMK AO2A SLP059
     T02550038 $=
KMCF 081255Z AUTO 05007KT 10SM CLR 26/24 A3002 RMK AO2 SLP166
     T02610236=
KSKA 081255Z AUTO 06005KT 10SM CLR 15/09 A3008 RMK AO2 SLP174
     T01510086=
KSLI 081255Z AUTO 18003KT 10SM OVC013 16/14 A2991 RMK AO2 SLP130
     T01640140=
KTCM 081255Z AUTO 00000KT 10SM CLR 12/10 A2996 RMK AO2 SLP146
     T01150104=
KTIK 081255Z AUTO 35003KT 10SM FEW006 BKN033 24/23 A3006 RMK AO2
     SLP167 T02360226 $=
KVAD 081255Z AUTO 32006KT 10SM CLR 26/20 A3004 RMK AO2 SLP170
     T02600204 $=
PGUA 081255Z AUTO 11010KT 10SM CLR 26/ A2992 RMK AO2 SLP113 T0260
     VISNO RWY24L $=
KAFF 081255Z AUTO 00000KT 10SM CLR 12/11 A3038 RMK AO2 SLP206
     T01200107=
KBAB 081255Z AUTO 00000KT 10SM FEW180 15/12 A2984 RMK AO2 SLP105
     T01500116 $=
KBIX 081255Z AUTO 02005KT 10SM CLR 27/26 A3005 RMK AO2 SLP177
     T02660256=
KBKF 081255Z 36005KT 3/4SM BR OVC002 13/13 A3034 RMK SLP234=
KDLF 081255Z AUTO 31003KT 10SM FEW015 SCT041 24/23 A2998 RMK AO2
     SLP137 T02410231 $=
KFSI 081255Z AUTO 01005KT 10SM OVC085 23/22 A3006 RMK AO2 SLP164
     T02320222=
KFTK 081255Z AUTO 00000KT 10SM CLR 26/22 A3009 RMK AO2 SLP181
     T02640216=
KHST 081255Z AUTO 02004KT 10SM BKN021 BKN027 28/26 A2996 RMK AO2
     CIG 018V024 SLP148 T02820256 $=
KLHW 081255Z 29006KT 10SM CLR 26/21 A3000 RMK AO2A SLP160
     T02640206=
KLTS 081255Z AUTO 04003KT 10SM FEW050 23/23 A3008 RMK AO2
     RAE1224DZB1204E1207B1224E1227 SLP170 P0001 T02300225 $=
KLUF 081255Z 34003KT 10SM SCT160 26/04 A2980 RMK AO2A SLP059
     T02550038 $=
KMCF 081255Z AUTO 05007KT 10SM CLR 26/24 A3002 RMK AO2 SLP166
     T02610236=
KMUI 081255Z AUTO 00000KT 10SM CLR 29/20 A3004 RMK AO2 SLP169
     T02910198 $=
####018000094####
SAAS33 KWBC 081230 RRC
METAR
VTBU 081230Z 14002KT 9999 FEW020 BKN300 32/26 Q1007 A2974=
####018000353####
SABX31 KWBC 081250 RRA
METAR
EBAW 081250Z 25007KT 180V330 CAVOK 30/12 Q1019 NOSIG=
EBBR 081250Z 20005KT 150V290 CAVOK 30/11 Q1019 NOSIG=
EBCI 081250Z VRB02KT CAVOK 30/10 Q1019 NOSIG=
EBLG 081250Z VRB04KT CAVOK 30/08 Q1019 NOSIG=
EBOS 081250Z 35006KT 320V030 CAVOK 22/16 Q1019 NOSIG=
ELLX 081250Z 17005KT 130V230 CAVOK 30/08 Q1020 NOSIG=
####018000414####
SAEN31 KWBC 081250 RRA
METAR
EFIV 081250Z AUTO VRB03KT CAVOK 22/10 Q1015=
EFKE 081250Z AUTO 21009KT 170V240 9999 FEW045 22/12 Q1015=
ENBO 081250Z 30007KT 260V330 9999 FEW050CB 13/10 Q1011 TEMPO
     SHRA=
ENBR 081250Z 18013KT 9999 FEW025 SCT040 17/11 Q1014 NOSIG=
ENVA 081250Z 34012KT 9999 FEW040CB SCT070 19/11 Q1009 TEMPO
     SHRA=
ENZV 081250Z 21011KT 9999 SCT020 BKN150 18/12 Q1015 NOSIG=
####018000075####
SADN31 KWBC 081250 RRA
METAR
EKVD 081250Z 28012KT CAVOK 22/15 Q1019=
####018000108####
SAEN31 KWBC 081220 RRB
METAR
ENGM 081240Z 18017KT 9999 FEW017 SCT026 BKN055 17/13 Q1015
     NOSIG=
####018000369####
SAEM31 KWBC 081230 RRB
METAR
LOWG 081250Z 17004KT 110V240 CAVOK 27/11 Q1022 NOSIG=
LOWI 081250Z 10006KT 030V150 9999 FEW080 28/14 Q1020 NOSIG=
LOWK 081250Z VRB03KT 9999 FEW060 26/10 Q1022 NOSIG=
LOWL 081250Z VRB02KT CAVOK 25/10 Q1022 NOSIG=
LOWS 081250Z VRB04KT 9999 FEW070 25/08 Q1022 NOSIG=
LOWW 081250Z 34008KT 300V010 9999 FEW060 24/08 Q1022 NOSIG=
####018000183####
SAGR41 KWBC 081250 RRA
METAR
LGKP 081250Z 34027KT CAVOK 29/17 Q1008=
LGPZ 081250Z 26013KT 9999 FEW025 29/18 Q1013 NOSIG=
LGRX 081250Z 28011KT 9999 FEW025 27/13 Q1012 NOSIG=
####018000838####
SAGR31 KWBC 081250 RRA
METAR
LGAD 081250Z NIL=
LGAL 081250Z 03008KT 9999 FEW020TCU SCT025 BKN080 21/16 Q1015=
LGAV 081250Z 04020KT 9999 SCT030 26/13 Q1012 NOSIG=
LGEL 081250Z 35014G24KT CAVOK 29/12 Q1011=
LGIR 081250Z 35009KT 9999 SCT020 28/24 Q1011 NOSIG=
LGKF 081250Z 31019KT 9999 FEW025 26/15 Q1013=
LGKL 081250Z 33010G22KT 9999 FEW030 33/12 Q1011=
LGKO 081250Z 30020KT CAVOK 29/18 Q1009=
LGKR 081250Z 31022KT CAVOK 27/11 Q1012 NOSIG=
LGKV 081250Z 07006KT 9999 -TSRA FEW025CB SCT030TCU BKN080 18/15
     Q1014=
LGLM 081250Z NIL=
LGMT 081250Z 36017G27KT 9999 SCT030 27/18 Q1011=
LGRP 081250Z NIL=
LGSA 081250Z 35012KT 9999 FEW020 32/16 Q1012=
LGSM 081250Z 35009KT 9999 FEW030 31/17 Q1009=
LGSR 081250Z 02013KT 9999 FEW025 26/18 Q1010 NOSIG=
LGTS 081250Z 34017G27KT 9999 FEW025 24/12 Q1016 NOSIG=
####018000135####
SAIY31 KWBC 081150 RRD
METAR
LIBR 081245Z /////KT CAVOK 25/13 Q1018 NOSIG=
LIEE 081245Z 16012KT 9999 FEW020 28/21 Q1019 NOSIG=
####018000275####
SAIY32 KWBC 081150 RRC
METAR
LIPH 081245Z 13004KT 9999 SCT025 27/20 Q1022=
LIPR 081245Z 08011KT CAVOK 28/19 Q1021=
LIPX 081245Z 20005KT 9999 FEW040 30/14 Q1021=
LIRA 081245Z 27007KT 170V030 9999 FEW018 30/17 Q1020=
LIRP 081245Z 32005KT CAVOK 31/17 Q1019 NOSIG=
####018000523####
SAIY31 KWBC 081250 RRA
METAR
LIBD 081250Z 36014KT CAVOK 25/12 Q1020=
LICC 081250Z 11013KT CAVOK 28/20 Q1018=
LICJ 081250Z 04015KT 9999 FEW018 28/23 Q1018=
LIEA 081250Z 21007KT 170V330 9999 FEW025 33/19 Q1019=
LIEO 081250Z 05012KT CAVOK 30/20 Q1019=
LIMC 081250Z VRB03KT 9999 FEW025 29/15 Q1021 NOSIG=
LIME 081250Z 16005KT 110V200 9999 BKN050 27/15 Q1022=
LIMF 081250Z VRB02KT 9999 SCT070 28/15 Q1022=
LIMJ 081250Z 16006KT 9999 FEW035 29/25 Q1020=
LIML 081250Z 17004KT 9999 FEW030 29/16 Q1020 NOSIG=
####018000349####
SAIY32 KWBC 081250 RRA
METAR
LIPB 081250Z 18013KT CAVOK 30/12 Q1019=
LIPE 081250Z 07007KT 030V120 CAVOK 30/14 Q1020=
LIPK 081250Z 08008KT CAVOK 28/11 Q1020=
LIPQ 081250Z 28004KT CAVOK 27/14 Q1022=
LIPZ 081250Z 13007KT CAVOK 28/19 Q1022=
LIRF 081250Z 24011KT 210V270 CAVOK 29/18 Q1020 NOSIG=
LIRQ 081250Z 09004KT CAVOK 32/15 Q1019=
####018000087####
SAIY41 KWBC 081250 RRA
METAR
LIMC 081250Z VRB03KT 9999 FEW025 29/15 Q1021 NOSIG=
####018000081####
SAIY43 KWBC 081150 RRE
METAR
LIPX 081245Z 20005KT 9999 FEW040 30/14 Q1021=
####018000694####
SANL31 KWBC 081250 RRA
METAR
EHAM 081255Z 27005KT 200V320 CAVOK 26/14 Q1019 NOSIG=
EHBK 081255Z AUTO 23005KT 160V330 9999NDV NCD 30/11 Q1019
     NOSIG=
EHDL 081255Z AUTO 21008KT 9999NDV SCT390 30/13 Q1018 BLU=
EHGG 081255Z AUTO 28008KT 210V320 9999NDV NSC 26/14 Q1019
     NOSIG=
EHGR 081255Z AUTO 26006KT 9999NDV FEW390 30/11 Q1018 BLU BLU=
EHLW 081255Z AUTO 23009KT 9999NDV BKN120 OVC180 25/19 Q1018 BLU
     BLU=
EHRD 081255Z 35003KT 280V090 CAVOK 25/16 Q1019 NOSIG=
EHVK 081255Z AUTO 22006KT 9999NDV NCD 30/11 Q1018 BLU BLU=
EHVL 081255Z AUTO 24010KT 9999NDV FEW075 BKN160 21/16 Q1019
     BLU=
EHWO 081255Z AUTO 26007KT 9999NDV SCT400 28/13 Q1018 BLU BLU=
####018000224####
SANO41 KWBC 081250 RRA
METAR
ENAN 081250Z 02006KT 9999 FEW045 SCT090 BKN200 16/10 Q1010
     NOSIG=
ENDU 081250Z VRB01KT 9999 -SHRA FEW050 BKN070 19/10 Q1010=
ENLK 081250Z 33007KT 9999 FEW030 SCT050 15/10 Q1011=
####018000167####
SANO42 KWBC 081250 RRA
METAR
ENOL 081250Z 04004KT 340V110 9999 FEW025TCU SCT050 20/06 Q1010
     NOSIG=
ENRS 081250Z 20008KT 9999 SCT048 BKN059 14/09 Q1010=
####018000083####
SASN31 KWBC 081250 RRA
METAR
ESDF 081250Z 19013KT 160V230 CAVOK 23/13 Q1020=
####018000163####
SAUK41 KWBC 081250 RRA
METAR
EGDL 081250Z 20007KT 9999 FEW035 BKN220 22/10 Q1018 BLU NOSIG=
EGDM 081250Z 22008KT 9999 SCT025 BKN250 22/14 Q1018 BLU NOSIG=
####018000108####
SAUS46 KSGX 081257
MTRNJK
METAR KNJK 081256Z 00000KT 10SM CLR 23/14 A2972 RMK AO2 SLP078 
T02330144
####018000113####
SAUS45 KPSR 081257
MTRALK
METAR KALK 081256Z AUTO 07010KT 10SM CLR 22/11 A3010 RMK AO2 SLP091 
T02170106
####018000087####
SAUK32 KWBC 081250 RRA
METAR
EGNS 081250Z 19012KT 9999 FEW022 16/12 Q1016 NOSIG=
####018000185####
SAUK42 KWBC 081250 RRA
METAR
EGQL 081250Z 24022KT 9999 FEW040 SCT250 19/06 Q1012 BLU NOSIG=
EGQS 081250Z 23013KT 9999 FEW025 BKN050 16/12 Q1009 BLU TEMPO 7000
     -SHRA WHT=
####018000087####
SAUK31 KWBC 081250 CCB
METAR
EGCC 081250Z 19009KT 9999 SCT038 19/10 Q1017 NOSIG=
####018000114####
SAHW31 KMSC 081257
METAR PMDY 081256Z AUTO 00000KT 10SM CLR 24/19 A3008 RMK AO2 TSNO 
    T02380194 SLP491=
####018001580####
SAZZ40 KAWN 081300 RRG
METAR KBYH 081251Z 00000KT 10SM FEW250 29/23 A3007=
METAR KDYS 081255Z 00000KT 10SM SCT004 OVC009 22/22 A3007 RMK AO2A
      CIG 005 RWY34 SLP164 T02200217 $=
METAR KEDW 081255Z 11004KT 90SM FEW100 15/03 A2989 RMK AO2A SLP077
      RADAT 20160 T01530026=
METAR KFCS 081255Z AUTO 12003KT 10SM CLR 14/11 A3034 RMK AO2 SLP207
      T01380109=
METAR KFMH 081255Z AUTO 15010KT 10SM BKN012 OVC019 24/21 A3011 RMK
      AO2=
METAR KGRK 081255Z 05007KT 6SM BR SCT008 BKN014 BKN025 26/24 A3000
      RMK SLP140=
METAR KLSF 081255Z 00000KT 10SM SKC 27/22 A3003 RMK AO2A SLP169 T02660216
      $=
METAR KLSV 081255Z AUTO 02004KT 10SM FEW140 23/M03 A2985 RMK AO2 SLP089
      T02331028 PWINO=
METAR KMIB 081255Z AUTO 26005KT 10SM OVC080 15/13 A3011 RMK AO2 SLP196
      T01480125 $=
METAR KPSM 081255Z 17005KT 10SM FEW040 BKN200 25/21 A3009 RMK AO2A
      SLP190 T02510207=
METAR KRND 081255Z 05007KT 9SM BKN007 BKN017 OVC026 25/24 A2995 RMK
      AO2A DZE1205 SLP133 P0000 T02480238=
METAR KTBN 081255Z 00000KT 10SM FEW003 SCT011 BKN047 OVC060 23/21 A3009
      RMK AO2A FEW V SCT SLP172 T02290206 $=
METAR KVOK 081255Z 31005KT 10SM OVC008 21/21 A3005 RMK AO2A=
METAR MYNN 081300Z 00000KT 9999 VCSH SCT015CB SCT100 BKN220 30/26 A2997=
METAR ORSU 081300Z 24009KT CAVOK 42/M03 Q1009=
METAR PAED 081255Z AUTO 00000KT 10SM -RA FEW003 BKN075 BKN090 BKN100
      12/11 A2997 RMK AO2 RAB1208E1209B1239DZB1209E1219B1238E1239
      SLP151 P0000 T01180106 $=
METAR TKPN 081300Z 10013KT 9999 VCSH SCT020 30/25 Q1015=
####018000127####
SAUS44 KFWD 081258
MTRHLR
METAR KHLR 081256Z AUTO 09004KT 8SM -RA OVC007 26/ A3001 RMK AO2 
RAB54 SLP154 P0000 T0256 $
####018000115####
SAUS43 KUNR 081258
MTRD07
METAR KD07 081256Z AUTO 28008KT 17/09 A3022 RMK AO2 SLP224 T01670094 
PWINO TSNO
####018000120####
SAUS46 KSGX 081258
MTRNXF
METAR KNXF 081256Z AUTO 31003KT 7SM OVC013 16/13 A2991 RMK AO2 
SLP213 T01610128 TSNO
####018000182####
SAUS44 KCRP 081258
MTRNGP
METAR KNGP 081256Z VRB04KT 10SM FEW010 SCT021CB BKN033 28/25 A2983 
RMK AO2 RAE31 SLP101 CB DSNT SE TCU DSNT S-SW WR// VCSH W-NW P0002 
T02770252
####018000142####
SAUS46 KLOX 081258
MTRNTD
METAR KNTD 081256Z 28006KT 7SM SCT009 OVC011 14/13 A2990 RMK AO2 
SLP127 LAG PK 12/12/27007 T01440128 PNO $
####018000121####
SAUS46 KSTO 081258
MTRNUQ
METAR KNUQ 081256Z AUTO 03003KT 10SM OVC011 15/12 A2993 RMK AO2 
SLP138 T01500122 TSNO
####018000115####
SAUS46 KMTR 081258
MTRBAN
METAR KBAN 081256Z AUTO 00000KT CLR 04/01 A3021 RMK AO2 SLP157 
T00440006 TSNO $
####018000115####
SAUS46 KLOX 081258
MTR9L2
METAR K9L2 081256Z AUTO 03003KT 10SM CLR 14/02 A2990 RMK AO2 SLP106 
T01390017 $
####018000115####
SAUS43 KABR 081258
MTR8D3
METAR K8D3 081256Z AUTO 28007KT 21/14 A3010 RMK AO2 SLP175 T02110144 
PWINO TSNO
####018000115####
SAUS43 KEAX 081258
MTRCDJ
METAR KCDJ 081256Z AUTO VRB03KT 23/22 A3009 RMK AO2 SLP179 T02280217 
PWINO TSNO
####018000110####
SAUS45 KVEF 081258
MTRINS
METAR KINS 081256Z 00000KT 8SM CLR 18/M10 A2996 RMK AO2 SLP091 
T01831100 $
####018000127####
SAUS41 KAKQ 081258
MTRNTU
METAR KNTU 081256Z 07007KT 10SM SCT015 BKN050 BKN100 26/22 A2999 RMK 
AO2 SLP156 T02610222 $
####018000118####
SAUS46 KMTR 081258
MTRMHS
METAR KMHS 081256Z AUTO 05003KT 10SM CLR 12/07 A3002 RMK AO2 SLP150 
T01220067 TSNO
####018000121####
SAUS45 KPUB 081258
MTRSPD
METAR KSPD 081256Z AUTO 03007KT 16/15 A3030 RMK AO2 SLP207 P0002 
T01610150 PWINO TSNO
####018000089####
SAPK31 OPKC 081255
METAR OPKC 081300Z 24009KTS 8000 SCT030 SCT100 34/24 Q1002 NOSIG=
####018000212####
SASW39 LSSW 081250 RRA
METAR LSMD 081250Z VRB02KT CAVOK 29/12 Q1022 RMK BLU=
METAR LSMM 081250Z 23007KT 190V260 CAVOK 28/14 Q1022 RMK BLU=
METAR LSMP 081250Z AUTO VRB02KT 9999NDV NCD 29/14 Q1021 RMK BLU=
####018000364####
SAGR33 LGAT 081250
METAR LGHI 081250Z NIL=
METAR LGKC 081250Z NIL=
METAR LGKF 081250Z 31019KT 9999 FEW025 26/15 Q1013=
METAR LGKP 081250Z 34027KT CAVOK 29/17 Q1008=
METAR LGKZ 081250Z NIL=
METAR LGMK 081250Z 36021G31KT 9999 FEW015 24/17 Q1012=
METAR LGNX 081250Z NIL=
METAR LGPA 081250Z NIL=
METAR LGSO 081250Z 01015KT 9999 FEW018 25/17 Q1012=
####018000088####
SACV20 GVAC 081300
METAR GVAC 081300Z 08010KT 9999 BKN014 BKN018 25/20 Q1014 NOSIG=
####018000073####
SAGR33 LGAT 081250 RRA
METAR LGHI 081250Z 36010KT CAVOK 28/18 Q1011=
####018000295####
SANL31 EHDB 081255
METAR EHAM 081255Z 27005KT 200V320 CAVOK 26/14 Q1019 NOSIG=
METAR EHBK 081255Z AUTO 23005KT 160V330 9999NDV NCD 30/11 Q1019
NOSIG=
METAR EHGG 081255Z AUTO 28008KT 210V320 9999NDV NSC 26/14 Q1019
NOSIG=
METAR EHRD 081255Z 35003KT 280V090 CAVOK 25/16 Q1019 NOSIG=
####018000085####
SAUK33 EGGY 081250 RRA
METAR EGNS 081250Z 19012KT 9999 FEW022 16/12 Q1016 NOSIG=
####018000140####
SAGR31 LGAT 081250 RRA
METAR LGAD 081250Z 29009KT 9999 FEW020 27/14 Q1014=
METAR LGLM 081250Z 04013KT 9999 FEW008 SCT020 22/15 Q1014=
####018000519####
SAGR32 LGAT 081250
METAR LGAL 081250Z 03008KT 9999 FEW020TCU SCT025 BKN080 21/16 Q1015=
METAR LGEL 081250Z 35014G24KT CAVOK 29/12 Q1011=
METAR LGKV 081250Z 07006KT 9999 -TSRA FEW025CB SCT030TCU BKN080
      18/15 Q1014=
METAR LGMT 081250Z 36017G27KT 9999 SCT030 27/18 Q1011=
METAR LGPZ 081250Z 26013KT 9999 FEW025 29/18 Q1013 NOSIG=
METAR LGRX 081250Z 28011KT 9999 FEW025 27/13 Q1012 NOSIG=
METAR LGSK 081250Z NIL=
METAR LGSR 081250Z 02013KT 9999 FEW025 26/18 Q1010 NOSIG=
METAR LGZA 081250Z NIL=
####018000088####
SAPK31 OPPS 081259
METAR OPPS 081255Z NE-12KTS 6000 HZ FEW040 FEW100 38/24 Q1001.7=
####018000124####
SAUS42 KMLB 081258 COR
MTRDAB
METAR KDAB 081253Z 33003KT 10SM FEW024 SCT250 27/21 A3002 RMK AO2 
SLP164 T02670206 $
####018000112####
SAUS44 KMEG 081258 COR
MTRTUP
METAR KTUP 081253Z 05005KT 10SM CLR 27/22 A3008 RMK AO2 SLP181 
T02670222
####018000118####
SAUS46 KPQR 081258
MTRNFL
METAR KNFL 081256Z AUTO 27005KT 10SM CLR 17/01 A3002 RMK AO2 SLP134 
T01720006 TSNO
####018000115####
SAUS43 KMQT 081258
MTRP53
METAR KP53 081256Z AUTO 00000KT 19/18 A3000 RMK AO2 SLP158 T01890178 
PWINO TSNO
####018000112####
SAUS44 KBMX 081258 COR
MTRMGM
METAR KMGM 081253Z 33003KT 10SM CLR 28/22 A3004 RMK AO2 SLP167 
T02830222
####018000205####
SAUS44 KFWD 081258
MTRNQI
METAR KNQI 081256Z COR 03008KT 9SM FEW006 BKN016CB BKN140 BKN280 
27/25 A2983 RMK AO2 TSE40RAB16E40 SLP099 OCNL LTGICCG DSNT W-N CB 
DSNT SE-S AND W-N P0004 T02720250 $
####018000124####
SAUS44 KLIX 081258 COR
MTRBTR
METAR KBTR 081253Z 06006KT 6SM BR BKN003 OVC007 25/24 A3004 RMK AO2 
SLP170 T02500239
####018000108####
SAUS42 KCAE 081258
MTRCAE
METAR KCAE 081256Z 32004KT 10SM CLR 29/21 A3000 RMK AO2 SLP155 
T02940206
####018000620####
SAUS20 KNKA 081257
METAR KCWF 081250Z 06007KT 5SM BRFT BKN005 25/25 A3001=
METAR KHUA 081257Z 01007KT 12SM SKC 29/23 A3012=
METAR KISM 081250Z 06004KT 10SM CLR 26/21 A3004=
METAR KSGJ 081258Z 29004KT 10SM CLR 26/22 A3002 RMK AO2 SLP166 
    T02560217=
METAR KSPS 081252Z COR 04006KT 10SM FEW008 FEW250 24/22 A3004 RMK 
    AO2 SLP160 T02390222=
METAR PAGN 081256Z AUTO 00000KT CLR RMK AO2 PWINO TSNO SLPNO $=
METAR PATQ 081256Z AUTO 24012KT 10SM CLR 08/04 A3003 RMK AO2 TSNO 
    T00830038 SLP173 $=
METAR PGUA 081255Z AUTO 11010KT 10SM CLR 26/ A2992 RMK AO2 SLP113 T0260
      VISNO RWY24L $=
####018000305####
SASA KAWN 081300
METAR SPIM 081300Z 18004KT 6000 SCT015 OVC023 16/14 Q1014 NOSIG RMK
      BIRD HAZARD RWY 15 PP000=
METAR SVBC 081300Z 00000KT 9999 FEW010 29/24 Q1013=
METAR SVMG 081300Z 07009KT 9999 SCT010 SCT080 30/28 Q1013 NOSIG=
METAR SVMI 081300Z 00000KT 9999 FEW016 BKN100 26/24 Q1015=
####018000450####
SAGL KAWN 081300
METAR BGBW 081250Z 26006KT 230V290 9999 FEW040 14/05 Q1008 RMK 1SC=
METAR BGCO 081250Z 01017KT 9999 SCT064 BKN120 09/02 Q1008 RMK LAST=
METAR BGJN 081250Z VRB03KT 9999 0500N VCFG FEW001 07/04 Q1009 RMK 1ST=
METAR BGKK 081250Z 26004KT 9999 FEW080 SCT120 08/04 Q1009=
METAR BGSF 081250Z 08005KT 040V120 9999 FEW070 15/01 Q1007=
METAR BGTL 081255Z AUTO 26005KT 8000 BR FEW001 05/05 A2982 RMK AO2
      SLP103 T00520051=
####018001593####
SANA14 KAWN 081300 RRA
METAR KGTB 081255Z AUTO VRB04KT 10SM CLR 29/22 A3004 RMK AO2 SLP171
      T02920220=
METAR KNIP 081253Z 26005KT 10SM CLR 26/21 A3002 RMK AO2 SLP162 T02560211=
METAR KNKT 081254Z 06011KT 8SM FEW014 BKN060 BKN150 27/24 A2995 RMK
      AO2 SLP139 T02720239=
METAR KNQX 081253Z 05005KT 10SM SCT022CB SCT100 BKN200 29/25 A2996
      RMK AO2 SLP144 CB DSNT S TCU DSNT SE W T2 SET T02940250 $=
METAR KPSM 081255Z 17005KT 10SM FEW040 BKN200 25/21 A3009 RMK AO2A
      SLP190 T02510207=
METAR KRND 081255Z 05007KT 9SM BKN007 BKN017 OVC026 25/24 A2995 RMK
      AO2A DZE1205 SLP133 P0000 T02480238=
METAR KSGH 081256Z 00000KT 4SM BR CLR 26/23 A3011 RMK AO2 T02610233
      SLP187=
METAR KSKA 081255Z AUTO 06005KT 10SM CLR 15/09 A3008 RMK AO2 SLP174
      T01510086=
METAR KSLI 081255Z AUTO 18003KT 10SM OVC013 16/14 A2991 RMK AO2 SLP130
      T01640140=
METAR KSZL 081255Z 00000KT 3SM -DZ BR OVC004 23/22 A3008 RMK AO2A VIS
      2 1/2 RWY01 DZB1247 CIG 003V007 SLP181 P2400 T02290224 $=
METAR KTBN 081255Z 00000KT 10SM FEW003 SCT011 BKN047 OVC060 23/21 A3009
      RMK AO2A FEW V SCT SLP172 T02290206 $=
METAR KTCM 081255Z AUTO 00000KT 10SM CLR 12/10 A2996 RMK AO2 SLP146
      T01150104=
METAR KTIK 081255Z AUTO 35003KT 10SM FEW006 BKN033 24/23 A3006 RMK
      AO2 SLP167 T02360226 $=
METAR KVAD 081255Z AUTO 32006KT 10SM CLR 26/20 A3004 RMK AO2 SLP170
      T02600204 $=
METAR KVOK 081255Z 31005KT 10SM OVC008 21/21 A3005 RMK AO2A=
METAR KWRB 081255Z 34006KT 10SM CLR 27/22 A3003 RMK AO2A SLP166 T02680218
      $=
####018000060####
SAUS45 KTFX 081258
MTR8S0
METAR K8S0 081155Z 26006KT 
####018000088####
SACV20 GVBA 081300
METAR GVBA 081300Z 03007KT 9999 BKN015 BKN100 27/20 Q1013 NOSIG=
####018000079####
SAYE20 OYMB 081300
METAR OYMB 081300Z 03027KT 2000 SA FEW030 41/M09 Q1003=
####018000110####
SAUS46 KLOX 081258
MTRNID
METAR KNID 081256Z 00000KT 10SM CLR 18/03 A2988 RMK AO2 SLP096 
T01830028 $
####018000137####
SAUS43 KFSD 081258
MTRFSD
METAR KFSD 081256Z 00000KT 10SM R03/5500VP6000FT CLR 19/16 A3017 RMK 
AO2 SLP212 SCT ABV 120 T01890156
####018000123####
SAUS41 KAKQ 081258
MTRAKQ
METAR KAKQ 081254Z AUTO 00000KT 3SM HZ FEW070 27/23 A3000 RMK AO2 
SLP159 T02720233 TSNO
####018000113####
SAUS41 KRNK 081258
MTRROA
METAR KROA 081254Z 01004KT 6SM HZ FEW085 29/18 A3010 RMK AO2 SLP176 
T02940178
####018001459####
SAUS20 KNKA 081258
METAR KRZN 081254Z AUTO 26003KT 10SM CLR 19/16 A3009 RMK AO2 
     T01920160=
METAR KSAZ 081253Z AUTO 27005KT 10SM CLR 18/18 A3009 RMK AO2=
METAR KSFO 081256Z COR 27012KT 10SM OVC008 13/11 A2993 RMK AO2 
    SLP135 T01330106=
METAR KSGS 081253Z AUTO 31004KT 10SM CLR 21/16 A3011 RMK AO2
     T02070164=
METAR KSHV 081256Z 15003KT 10SM BKN090 BKN280 25/24 A3005 RMK AO2
     SLP172 T02500239=
METAR KSME 081255Z AUTO 00000KT 4SM HZ 25/21 A3011 RMK AO2=
METAR KSNC 081255Z AUTO 14005KT 10SM OVC009 23/ A3010 RMK AO2 =
METAR KSYN 081310Z AUTO 31004KT 10SM CLR 20/17 A3011 RMK AO2
     T01990171=
METAR KTEW 081253Z AUTO 00000KT 10SM CLR 25/21 A3005 RMK AO2=
METAR KTKC 081253Z AUTO 26005KT 10SM CLR 19/14 A3016 RMK AO2
     T01870144=
METAR KTOB 081254Z AUTO 00000KT 10SM CLR 19/17 A3012 RMK AO2=
METAR KTRI 081253Z 00000KT 6SM HZ CLR 25/20 A3013 RMK AO2 SLP181
     T02500200=
METAR KTWM 081253Z AUTO 28006KT 10SM CLR 20/14 A3003 RMK AO2=
METAR KTYS 081253Z 00000KT 6SM HZ CLR 27/19 A3009 RMK AO2 SLP175
     T02670194=
METAR KULM 081255Z AUTO 30007KT 10SM CLR 18/15 A3013 RMK AO2=
METAR KUNI 081255Z AUTO 00000KT 10SM SCT065 26/19 A3009 RMK AO2 
     T02580187=
METAR KVES 081254Z AUTO 16004KT 7SM CLR 25/21 A3009 RMK AO2 
     T02490211=
METAR KVVV 081245Z AUTO 24004KT 10SM CLR 19/14 A3012 RMK AO2=
METAR KY63 081300Z AUTO 29003KT 10SM CLR 18/16 A3011 RMK AO2 
     T01790160=
####018002938####
SAUS20 KNKA 081258
METAR KHYW 081255Z AUTO 36003KT 10SM CLR 28/23 A2994 RMK AO2=
METAR KHZX 081251Z AUTO 27005KT 10SM CLR 18/16 A3008 RMK AO2=
METAR KIKW 081253Z AUTO 00000KT 10SM OVC080 23/21 A3002 RMK AO2
     T02320210=
METAR KJKJ 081254Z AUTO 24003KT 10SM CLR 18/16 A3008 RMK AO2=
METAR KJMR 081258Z AUTO 29004KT 10SM CLR 18/14 A3010 RMK AO2=
METAR KLCK 081255Z AUTO 00000KT 7SM CLR 26/22 A3008 RMK AO2 
     T02590218=
METAR KLJF 081252Z AUTO 29006KT 10SM CLR 20/17 A3013 RMK AO2=
METAR KLNL 081255Z AUTO 00000KT 10SM SCT080 19/15 A3007 RMK AO2 
     T01870145=
METAR KLRD 081256Z 03009KT 9SM FEW008 BKN044 27/24 A2991 RMK AO2 
    T02660244 SLP114 $=
METAR KLUM 081255Z AUTO 32008KT 10SM CLR 20/16 A3009 RMK AO2=
METAR KLVN 081248Z AUTO 28004KT 10SM CLR 19/17 A3012 RMK AO2=
METAR KLXL 081254Z AUTO 26004KT 10SM CLR 18/15 A3008 RMK AO2=
METAR KLYV 081258Z AUTO 00000KT 10SM CLR 17/15 A3018 RMK AO2=
METAR KM89 081256Z AUTO 00000KT 5SM BR OVC004 24/24 A3008 RMK AO2 
    T02440238 CIG 002V006 SLP199=
METAR KMCJ 081255Z AUTO 08010KT 5SM SCT006 SCT037 BKN060 24/23 
     A2993 RMK AO1 P0019 =
METAR KMDS 081245Z AUTO 27005KT 10SM CLR 19/16 A3018 RMK AO2=
METAR KMDZ 081255Z AUTO 33005KT 10SM SCT006 19/18 A3006 RMK AO2=
METAR KMGG 081255Z AUTO 26005KT 10SM CLR 20/16 A3012 RMK AO2
     T01950162=
METAR KMJQ 081252Z AUTO 30005KT 10SM CLR 18/15 A3017 RMK AO2=
METAR KMOX 081250Z AUTO 27006KT 10SM CLR 19/17 A3008 RMK AO2=
METAR KMRJ 081255Z AUTO 29003KT 4SM BR OVC005 23/21 A3007 RMK AO2 
     T02250209=
METAR KMRT 081253Z AUTO 25004KT 10SM CLR 27/20 A3012 RMK AO2
     T02650198=
METAR KMVE 081254Z AUTO 29004KT 10SM CLR 18/16 A3012 RMK AO2=
METAR KMWM 081253Z AUTO 28006KT 10SM CLR 18/16 A3016 RMK AO2=
METAR KMWO 081255Z AUTO 00000KT 4SM HZ CLR 26/23 A3009 RMK AO2=
METAR KONA 081250Z AUTO 33008KT 10SM CLR 21/16 A3007 RMK AO2=
METAR KOVL 081253Z AUTO 31005KT 10SM CLR 17/13 A3012 RMK AO2
     T01700133=
METAR KPEX 081253Z AUTO 26005KT 10SM CLR 18/17 A3012 RMK AO2
     T01800165=
METAR KPNM 081253Z AUTO 26004KT 10SM CLR 19/16 A3010 RMK AO2=
METAR KPQN 081253Z AUTO 31003KT 10SM CLR 19/14 A3018 RMK AO2=
METAR KPVB 081253Z AUTO 00000KT 5SM BKN002 BKN008 22/21 A3007 RMK 
     AO1 T02150209=
METAR KPWC 081253Z AUTO 27005KT 10SM CLR 17/15 A3009 RMK AO2=
METAR KRCM 081255Z AUTO 07005KT 10SM OVC004 22/22 A3008 RMK AO2 LTG
      DSNT S=
METAR KRFD 081254Z 30006KT 10SM SCT006 OVC180 24/21 A3006 RMK AO2
     SLP173 T02390211=
SPECI KRKP 081257Z AUTO 05006KT 1 1/4SM -RA SCT010 BKN015 OVC023 
    A2985 RMK AO2 P0000 FZRANO $=
METAR KROG 081257Z 00000KT 10SM OVC020 23/22 A3010 RMK AO2 SLP180 
    T02330217=
METAR KROS 081255Z AUTO 27004KT 10SM CLR 19/16 A3010 RMK AO2
     T01900158=
METAR KROX 081254Z AUTO 28006KT 10SM CLR 17/14 A3003 RMK AO2=
METAR KRRT 081254Z AUTO 25006KT 10SM SCT070 16/13 A3002 RMK
     AO2=
####018000821####
SAAK41 KNKA 081258
METAR PAGN 081256Z AUTO 00000KT CLR RMK AO2 PWINO TSNO SLPNO $=
METAR PAHC 081256Z AUTO 00000KT 2SM BR CLR 08/07 A2998 RMK AO2 TSNO 
    T00770072 SLP156 $=
METAR PAIG 081256Z AUTO 00000KT 10SM FEW041 BKN050 OVC065 09/09 
    A2993 RMK AO2 PWINO TSNO T00940088 BKN V SCT P0002 SLP140 $=
METAR PAMO 081256Z AUTO 36007KT 10SM FEW075 BKN100 12/09 A3003 RMK 
    AO2 TSNO T01160094 BKN V OVC SLP167 $=
METAR PAOH 081256Z AUTO 00000KT 10SM CLR 08/08 A3019 RMK AO2 TSNO 
    T00770077 SLP223=
METAR PAPM 081256Z AUTO 13003KT RA BKN060 05/04 A2997 RMK AO2 TSNO 
    T00500044 P0000 SLP150 $=
METAR PARS 081256Z AUTO 25003KT 10SM FEW070 09/08 A3000 RMK AO2 TSNO 
    T00880083 SLP162 $=
METAR PATQ 081256Z AUTO 24012KT 10SM CLR 08/04 A3003 RMK AO2 TSNO 
    T00830038 SLP173 $=
####018002983####
SAUS20 KNKA 081258
METAR KABQ 081256Z 10014KT 10SM SCT100 OVC200 19/09 A3028 RMK AO2
     SLP171 T01940094=
METAR KJAX 081256Z 28005KT 10SM CLR 24/21 A3002 RMK AO2 SLP166
     T02440211=
METAR K14Y 081259Z AUTO 24005KT 10SM CLR 19/16 A3011 RMK AO2 
     T01900164=
METAR K29G 081254Z AUTO 00000KT 7SM CLR 26/19 A3009 RMK AO2
     T02610190 PWINO=
METAR K4M9 081255Z AUTO 9SM FEW090 27/26 A3007 RMK AO2 =
METAR KAEJ 081255Z AUTO 00000KT 10SM SCT014 07/06 A3045 RMK AO2=
METAR KAEL 081250Z AUTO 34003KT 10SM CLR 19/17 A3012 RMK AO2=
METAR KAIT 081253Z AUTO 25005KT 10SM CLR 18/17 A3007 RMK AO2=
METAR KAJO 081256Z AUTO 33003KT 6SM BR SCT011 15/13 A2992 RMK AO2 
    T01500133 SLP127 $=
METAR KARV 081252Z AUTO 34004KT 10SM BKN049 19/16 A3007 RMK AO2 
     T01870160=
METAR KBBB 081253Z AUTO 00000KT 10SM CLR 18/16 A3012 RMK AO2=
METAR KBVU 081255Z AUTO 00000KT 10SM CLR 24/M01 A2989 RMK AO2 =
METAR KBWP 081251Z AUTO 26005KT 10SM CLR 18/16 A3010 RMK AO1 
     T01780156=
METAR KCHS 081256Z 31006KT 8SM CLR 27/21 A2997 RMK AO2 SLP148
     T02670206=
METAR KCLI 081255Z AUTO 34003KT 10SM CLR 23/20 A3001 RMK AO2=
METAR KCMY 081255Z AUTO 32007KT 280V340 10SM SCT015 22/18 A3007 
     RMK AO2 T02200184=
METAR KCVH 081250Z AUTO 00000KT 9SM OVC006 13/11 A2993 RMK AO1=
METAR KDIJ 081256Z AUTO 04005KT 10SM CLR 09/03 A3031 RMK AO2 
    T00940033 SLP192 $=
METAR KDVK 081257Z AUTO 21003KT 7SM 26/20 A3010 RMK AO1=
METAR KDXX 081254Z AUTO 00000KT 10SM CLR 18/17 A3012 RMK AO2=
METAR KEFK 081255Z AUTO 19004KT 7SM CLR 26/21 A3006 RMK AO2=
METAR KEFT 081255Z AUTO 31007KT 4SM BR BKN004 OVC015 22/20 A3006 
     RMK AO2 T02150201=
METAR KEGV 081252Z AUTO 36003KT 10SM CLR 19/17 A3005 RMK AO2 
     T01920174=
METAR KEKQ 081256Z AUTO 00000KT 3SM HZ CLR 25/22 A3013 RMK AO2 
    T02500216 SLP197=
METAR KELO 081253Z AUTO 24006KT 10SM CLR 18/15 A3002 RMK AO2=
METAR KEVM 081252Z AUTO 27005KT 10SM CLR 17/15 A3003 RMK AO1=
METAR KEZS 081255Z AUTO 01004KT 10SM SCT010 23/21 A3001 RMK AO2 
     T02310207=
METAR KFBL 081254Z AUTO 30003KT 10SM CLR 19/15 A3013 RMK AO2=
METAR KFFM 081253Z AUTO 30004KT 10SM CLR 17/16 A3009 RMK AO2=
METAR KFGN 081254Z AUTO 28009KT 1/2SM -DZ BKN070 OVC100 17/14
     A2999 RMK AO2=
METAR KFSO 081258Z AUTO 00000KT 7SM BKN060 27/23 A3002 RMK AO2=
METAR KGDB 081253Z AUTO 25005KT 10SM CLR 18/16 A3015 RMK AO2
     T01770156=
METAR KGHW 081253Z AUTO 27007KT 10SM CLR 19/14 A3014 RMK AO2=
METAR KGLW 081253Z AUTO 00000KT 10SM CLR 26/22 A3009 RMK AO2 
     T02640216=
METAR KGSO 081254Z 03004KT 5SM HZ CLR 29/18 A3004 RMK AO2 SLP158
     T02940183=
METAR KGYL 081254Z AUTO 26003KT 10SM CLR 19/16 A3012 RMK AO2
     T01850156=
METAR KHCD 081252Z AUTO 28005KT 10SM CLR 18/16 A3012 RMK AO2
     T01770164 TSNO=
METAR KHCO 081254Z AUTO 31007KT 10SM CLR 17/16 A3008 RMK AO2=
METAR KHFJ 081255Z AUTO 00000KT 10SM SCT023 BKN030 OVC036 23/23 
     A3007 RMK AO1=
####018000096####
SACA01 KMSC 081258
METAR MYNN 081300Z 00000KT 9999 VCSH SCT015CB SCT100 BKN220 30/26 A2997=
####018000077####
SAZB40 FLLS 081300
METAR FLLS 081300Z 07014KT 9/9 BKN040 19/08 Q1027=

####018000090####
SPCN41 CWAO 081258
SPECI CYYD 081258Z AUTO 00000KT 9SM CLR 09/08 A3011 RMK SLP200=

####018000110####
SANO33 ENMI 081150 RRY
METAR ENBL 081150Z 20012G22KT 9999 VCSH FEW025 SCT035TCU 15/08
           Q1011=
####018000106####
SAHW40 PHFO 081258
MTRNGF
METAR PHNG 081257Z 11007KT 10SM 24/21 A3002 RMK AO2 SLP159 T02390206 
$
####018001445####
SAUS17 KAWN 081300 RRB
METAR KADW 081255Z AUTO 10003KT 10SM CLR 27/23 A3002 RMK AO2 SLP166
      T02730234=
METAR KBYH 081251Z 00000KT 10SM FEW250 29/23 A3007=
METAR KDYS 081255Z 00000KT 10SM SCT004 OVC009 22/22 A3007 RMK AO2A
      CIG 005 RWY34 SLP164 T02200217 $=
METAR KEDW 081255Z 11004KT 90SM FEW100 15/03 A2989 RMK AO2A SLP077
      RADAT 20160 T01530026=
METAR KFCS 081255Z AUTO 12003KT 10SM CLR 14/11 A3034 RMK AO2 SLP207
      T01380109=
METAR KFFO 081255Z 00000KT 6SM HZ CLR 27/22 A3009 RMK AO2A SLP182=
METAR KFMH 081255Z AUTO 15010KT 10SM BKN012 OVC019 24/21 A3011 RMK
      AO2=
METAR KFRI 081255Z AUTO 01009KT 8SM OVC008 22/21 A3012 RMK AO2 CIG
      007V010 SLP187 T02200212=
METAR KGRK 081255Z 05007KT 6SM BR SCT008 BKN014 BKN025 26/24 A3000
      RMK SLP140=
METAR KLFI 081255Z 10006KT 10SM FEW013 BKN100 26/22 A3001 RMK AO2A
      SLP163 T02580217 $=
METAR KLSF 081255Z 00000KT 10SM SKC 27/22 A3003 RMK AO2A SLP169 T02660216
      $=
METAR KLSV 081255Z AUTO 02004KT 10SM FEW140 23/M03 A2985 RMK AO2 SLP089
      T02331028 PWINO=
METAR KMIB 081255Z AUTO 26005KT 10SM OVC080 15/13 A3011 RMK AO2 SLP196
      T01480125 $=
METAR KMMT 081255Z 33006KT 8SM FEW100 28/20 A3000 RMK AO2A SLP159 T02800203=
METAR KMXF 081255Z AUTO 00000KT 10SM CLR 28/24 A3003 RMK AO2 SLP167
      T02820237=
METAR KNCA 081256Z 04006KT 4SM HZ FEW090 28/24 A2995 RMK AO2 SLP143
      T02780239=
####018001505####
SANA35 KAWN 081300 RRA
METAR KADW 081255Z AUTO 10003KT 10SM CLR 27/23 A3002 RMK AO2 SLP166
      T02730234=
METAR KBIX 081255Z AUTO 02005KT 10SM CLR 27/26 A3005 RMK AO2 SLP177
      T02660256=
METAR KHST 081255Z AUTO 02004KT 10SM BKN021 BKN027 28/26 A2996 RMK
      AO2 CIG 018V024 SLP148 T02820256 $=
METAR KLFI 081255Z 10006KT 10SM FEW013 BKN100 26/22 A3001 RMK AO2A
      SLP163 T02580217 $=
METAR KMCF 081255Z AUTO 05007KT 10SM CLR 26/24 A3002 RMK AO2 SLP166
      T02610236=
METAR KNCA 081256Z 04006KT 4SM HZ FEW090 28/24 A2995 RMK AO2 SLP143
      T02780239=
METAR KNIP 081253Z 26005KT 10SM CLR 26/21 A3002 RMK AO2 SLP162 T02560211=
METAR KNKT 081254Z 06011KT 8SM FEW014 BKN060 BKN150 27/24 A2995 RMK
      AO2 SLP139 T02720239=
METAR KNQX 081253Z 05005KT 10SM SCT022CB SCT100 BKN200 29/25 A2996
      RMK AO2 SLP144 CB DSNT S TCU DSNT SE W T2 SET T02940250 $=
METAR KNRB 081252Z 28004KT 10SM CLR 27/20 A3002 RMK AO2 SLP163 T02670200=
METAR KSAV 081253Z 29007KT 10SM CLR 27/20 A3000 RMK AO2 SLP158 T02670200
      $=
METAR KSSC 081255Z AUTO 30008KT 10SM CLR 29/20 A2998 RMK AO2 SLP149
      T02860203 $=
METAR KVAD 081255Z AUTO 32006KT 10SM CLR 26/20 A3004 RMK AO2 SLP170
      T02600204 $=
METAR KWRI 081255Z AUTO 15007KT 9SM FEW100 26/24 A3003 RMK AO2 SLP168
      T02590238 $=
METAR MUGM 081256Z 01005KT 9999 FEW100 BKN250 28/22 A2997 RMK SLP148
      T02780222=
METAR MYNN 081300Z 00000KT 9999 VCSH SCT015CB SCT100 BKN220 30/26 A2997=
####018000091####
SAIN90 VECC 081250
METAR VECC 081250Z 22009KT 4500 HZ SCT018 SCT100 32/23 Q1004 NOSIG=
####018003740####
SAUS99 KWBC 081259 RRA
METAR
KGSO 081254Z 03004KT 5SM HZ CLR 29/18 A3004 RMK AO2 SLP158
     T02940183=
KGYL 081254Z AUTO 26003KT 10SM CLR 19/16 A3012 RMK AO2
     T01850156=
KHCD 081252Z AUTO 28005KT 10SM CLR 18/16 A3012 RMK AO2 T01770164
     TSNO=
KHCO 081254Z AUTO 31007KT 10SM CLR 17/16 A3008 RMK AO2=
KHFJ 081255Z AUTO 00000KT 10SM SCT023 BKN030 OVC036 23/23 A3007
     RMK AO1=
KHYW 081255Z AUTO 36003KT 10SM CLR 28/23 A2994 RMK AO2=
KHZX 081251Z AUTO 27005KT 10SM CLR 18/16 A3008 RMK AO2=
KIKW 081253Z AUTO 00000KT 10SM OVC080 23/21 A3002 RMK AO2
     T02320210=
KJKJ 081254Z AUTO 24003KT 10SM CLR 18/16 A3008 RMK AO2=
KJMR 081258Z AUTO 29004KT 10SM CLR 18/14 A3010 RMK AO2=
KLCK 081255Z AUTO 00000KT 7SM CLR 26/22 A3008 RMK AO2
     T02590218=
KLJF 081252Z AUTO 29006KT 10SM CLR 20/17 A3013 RMK AO2=
KLNL 081255Z AUTO 00000KT 10SM SCT080 19/15 A3007 RMK AO2
     T01870145=
KLRD 081256Z 03009KT 9SM FEW008 BKN044 27/24 A2991 RMK AO2
     T02660244 SLP114 $=
KLUM 081255Z AUTO 32008KT 10SM CLR 20/16 A3009 RMK AO2=
KLVN 081248Z AUTO 28004KT 10SM CLR 19/17 A3012 RMK AO2=
KLXL 081254Z AUTO 26004KT 10SM CLR 18/15 A3008 RMK AO2=
KLYV 081258Z AUTO 00000KT 10SM CLR 17/15 A3018 RMK AO2=
KM89 081256Z AUTO 00000KT 5SM BR OVC004 24/24 A3008 RMK AO2
     T02440238 CIG 002V006 SLP199=
KMCJ 081255Z AUTO 08010KT 5SM SCT006 SCT037 BKN060 24/23 A2993 RMK
     AO1 P0019=
KMDS 081245Z AUTO 27005KT 10SM CLR 19/16 A3018 RMK AO2=
KMDZ 081255Z AUTO 33005KT 10SM SCT006 19/18 A3006 RMK AO2=
KMGG 081255Z AUTO 26005KT 10SM CLR 20/16 A3012 RMK AO2
     T01950162=
KMJQ 081252Z AUTO 30005KT 10SM CLR 18/15 A3017 RMK AO2=
KMOX 081250Z AUTO 27006KT 10SM CLR 19/17 A3008 RMK AO2=
KMRJ 081255Z AUTO 29003KT 4SM BR OVC005 23/21 A3007 RMK AO2
     T02250209=
KMRT 081253Z AUTO 25004KT 10SM CLR 27/20 A3012 RMK AO2
     T02650198=
KMVE 081254Z AUTO 29004KT 10SM CLR 18/16 A3012 RMK AO2=
KMWM 081253Z AUTO 28006KT 10SM CLR 18/16 A3016 RMK AO2=
KMWO 081255Z AUTO 00000KT 4SM HZ CLR 26/23 A3009 RMK AO2=
KONA 081250Z AUTO 33008KT 10SM CLR 21/16 A3007 RMK AO2=
KOVL 081253Z AUTO 31005KT 10SM CLR 17/13 A3012 RMK AO2
     T01700133=
KPEX 081253Z AUTO 26005KT 10SM CLR 18/17 A3012 RMK AO2
     T01800165=
KPNM 081253Z AUTO 26004KT 10SM CLR 19/16 A3010 RMK AO2=
KPQN 081253Z AUTO 31003KT 10SM CLR 19/14 A3018 RMK AO2=
KPVB 081253Z AUTO 00000KT 5SM BKN002 BKN008 22/21 A3007 RMK AO1
     T02150209=
KPWC 081253Z AUTO 27005KT 10SM CLR 17/15 A3009 RMK AO2=
KRCM 081255Z AUTO 07005KT 10SM OVC004 22/22 A3008 RMK AO2 LTG DSNT
     S=
KRFD 081254Z 30006KT 10SM SCT006 OVC180 24/21 A3006 RMK AO2 SLP173
     T02390211=
KROG 081257Z 00000KT 10SM OVC020 23/22 A3010 RMK AO2 SLP180
     T02330217=
KROS 081255Z AUTO 27004KT 10SM CLR 19/16 A3010 RMK AO2
     T01900158=
KROX 081254Z AUTO 28006KT 10SM CLR 17/14 A3003 RMK AO2=
KRRT 081254Z AUTO 25006KT 10SM SCT070 16/13 A3002 RMK AO2=
KRZN 081254Z AUTO 26003KT 10SM CLR 19/16 A3009 RMK AO2
     T01920160=
KSAZ 081253Z AUTO 27005KT 10SM CLR 18/18 A3009 RMK AO2=
KSFO 081256Z COR 27012KT 10SM OVC008 13/11 A2993 RMK AO2 SLP135
     T01330106=
KSGS 081253Z AUTO 31004KT 10SM CLR 21/16 A3011 RMK AO2
     T02070164=
KSHV 081256Z 15003KT 10SM BKN090 BKN280 25/24 A3005 RMK AO2 SLP172
     T02500239=
KSME 081255Z AUTO 00000KT 4SM HZ 25/21 A3011 RMK AO2=
KSNC 081255Z AUTO 14005KT 10SM OVC009 23/ A3010 RMK AO2=
KSYN 081310Z AUTO 31004KT 10SM CLR 20/17 A3011 RMK AO2
     T01990171=
KTEW 081253Z AUTO 00000KT 10SM CLR 25/21 A3005 RMK AO2=
KTKC 081253Z AUTO 26005KT 10SM CLR 19/14 A3016 RMK AO2
     T01870144=
KTOB 081254Z AUTO 00000KT 10SM CLR 19/17 A3012 RMK AO2=
####018000592####
SAUS99 KWBC 081259 RRB
METAR
KTRI 081253Z 00000KT 6SM HZ CLR 25/20 A3013 RMK AO2 SLP181
     T02500200=
KTWM 081253Z AUTO 28006KT 10SM CLR 20/14 A3003 RMK AO2=
KTYS 081253Z 00000KT 6SM HZ CLR 27/19 A3009 RMK AO2 SLP175
     T02670194=
KULM 081255Z AUTO 30007KT 10SM CLR 18/15 A3013 RMK AO2=
KUNI 081255Z AUTO 00000KT 10SM SCT065 26/19 A3009 RMK AO2
     T02580187=
KVES 081254Z AUTO 16004KT 7SM CLR 25/21 A3009 RMK AO2
     T02490211=
KVVV 081245Z AUTO 24004KT 10SM CLR 19/14 A3012 RMK AO2=
KY63 081300Z AUTO 29003KT 10SM CLR 18/16 A3011 RMK AO2
     T01790160=
####018000127####
SPUS99 KWBC 081259
SPECI
KRKP 081257Z AUTO 05006KT 1 1/4SM -RA SCT010 BKN015 OVC023 A2985
     RMK AO2 P0000 FZRANO $=
####018003674####
SAUS99 KWBC 081259
METAR
KCWF 081250Z 06007KT 5SM BRFT BKN005 25/25 A3001=
KHUA 081257Z 01007KT 12SM SKC 29/23 A3012=
KISM 081250Z 06004KT 10SM CLR 26/21 A3004=
KSGJ 081258Z 29004KT 10SM CLR 26/22 A3002 RMK AO2 SLP166
     T02560217=
KSPS 081252Z COR 04006KT 10SM FEW008 FEW250 24/22 A3004 RMK AO2
     SLP160 T02390222=
PAGN 081256Z AUTO 00000KT CLR RMK AO2 PWINO TSNO SLPNO $=
PATQ 081256Z AUTO 24012KT 10SM CLR 08/04 A3003 RMK AO2 TSNO
     T00830038 SLP173 $=
PGUA 081255Z AUTO 11010KT 10SM CLR 26/ A2992 RMK AO2 SLP113 T0260
     VISNO RWY24L $=
PAGN 081256Z AUTO 00000KT CLR RMK AO2 PWINO TSNO SLPNO $=
PAHC 081256Z AUTO 00000KT 2SM BR CLR 08/07 A2998 RMK AO2 TSNO
     T00770072 SLP156 $=
PAIG 081256Z AUTO 00000KT 10SM FEW041 BKN050 OVC065 09/09 A2993
     RMK AO2 PWINO TSNO T00940088 BKN V SCT P0002 SLP140 $=
PAMO 081256Z AUTO 36007KT 10SM FEW075 BKN100 12/09 A3003 RMK AO2
     TSNO T01160094 BKN V OVC SLP167 $=
PAOH 081256Z AUTO 00000KT 10SM CLR 08/08 A3019 RMK AO2 TSNO
     T00770077 SLP223=
PAPM 081256Z AUTO 13003KT RA BKN060 05/04 A2997 RMK AO2 TSNO
     T00500044 P0000 SLP150 $=
PARS 081256Z AUTO 25003KT 10SM FEW070 09/08 A3000 RMK AO2 TSNO
     T00880083 SLP162 $=
PATQ 081256Z AUTO 24012KT 10SM CLR 08/04 A3003 RMK AO2 TSNO
     T00830038 SLP173 $=
KABQ 081256Z 10014KT 10SM SCT100 OVC200 19/09 A3028 RMK AO2 SLP171
     T01940094=
KJAX 081256Z 28005KT 10SM CLR 24/21 A3002 RMK AO2 SLP166
     T02440211=
K14Y 081259Z AUTO 24005KT 10SM CLR 19/16 A3011 RMK AO2
     T01900164=
K29G 081254Z AUTO 00000KT 7SM CLR 26/19 A3009 RMK AO2 T02610190
     PWINO=
K4M9 081255Z AUTO 9SM FEW090 27/26 A3007 RMK AO2=
KAEJ 081255Z AUTO 00000KT 10SM SCT014 07/06 A3045 RMK AO2=
KAEL 081250Z AUTO 34003KT 10SM CLR 19/17 A3012 RMK AO2=
KAIT 081253Z AUTO 25005KT 10SM CLR 18/17 A3007 RMK AO2=
KAJO 081256Z AUTO 33003KT 6SM BR SCT011 15/13 A2992 RMK AO2
     T01500133 SLP127 $=
KARV 081252Z AUTO 34004KT 10SM BKN049 19/16 A3007 RMK AO2
     T01870160=
KBBB 081253Z AUTO 00000KT 10SM CLR 18/16 A3012 RMK AO2=
KBVU 081255Z AUTO 00000KT 10SM CLR 24/M01 A2989 RMK AO2=
KBWP 081251Z AUTO 26005KT 10SM CLR 18/16 A3010 RMK AO1
     T01780156=
KCHS 081256Z 31006KT 8SM CLR 27/21 A2997 RMK AO2 SLP148
     T02670206=
KCLI 081255Z AUTO 34003KT 10SM CLR 23/20 A3001 RMK AO2=
KCMY 081255Z AUTO 32007KT 280V340 10SM SCT015 22/18 A3007 RMK AO2
     T02200184=
KCVH 081250Z AUTO 00000KT 9SM OVC006 13/11 A2993 RMK AO1=
KDIJ 081256Z AUTO 04005KT 10SM CLR 09/03 A3031 RMK AO2 T00940033
     SLP192 $=
KDVK 081257Z AUTO 21003KT 7SM 26/20 A3010 RMK AO1=
KDXX 081254Z AUTO 00000KT 10SM CLR 18/17 A3012 RMK AO2=
KEFK 081255Z AUTO 19004KT 7SM CLR 26/21 A3006 RMK AO2=
KEFT 081255Z AUTO 31007KT 4SM BR BKN004 OVC015 22/20 A3006 RMK AO2
     T02150201=
KEGV 081252Z AUTO 36003KT 10SM CLR 19/17 A3005 RMK AO2
     T01920174=
KEKQ 081256Z AUTO 00000KT 3SM HZ CLR 25/22 A3013 RMK AO2 T02500216
     SLP197=
KELO 081253Z AUTO 24006KT 10SM CLR 18/15 A3002 RMK AO2=
KEVM 081252Z AUTO 27005KT 10SM CLR 17/15 A3003 RMK AO1=
KEZS 081255Z AUTO 01004KT 10SM SCT010 23/21 A3001 RMK AO2
     T02310207=
KFBL 081254Z AUTO 30003KT 10SM CLR 19/15 A3013 RMK AO2=
KFFM 081253Z AUTO 30004KT 10SM CLR 17/16 A3009 RMK AO2=
KFGN 081254Z AUTO 28009KT 1/2SM -DZ BKN070 OVC100 17/14 A2999 RMK
     AO2=
KFSO 081258Z AUTO 00000KT 7SM BKN060 27/23 A3002 RMK AO2=
KGDB 081253Z AUTO 25005KT 10SM CLR 18/16 A3015 RMK AO2
     T01770156=
KGHW 081253Z AUTO 27007KT 10SM CLR 19/14 A3014 RMK AO2=
KGLW 081253Z AUTO 00000KT 10SM CLR 26/22 A3009 RMK AO2
     T02640216=
####018000272####
SAZA42 FAJS 081300
METAR FAVV 081300Z AUTO 06008KT //// // ////// 18/02 Q1029=
METAR FAJB 081300Z AUTO 02003KT //// // ////// 17/02 Q1031=
METAR FASI 081300Z AUTO 04006G17KT //// // ////// 18/M03 Q1031=
METAR FAGC 081300Z AUTO 02005KT //// // ////// 17/02 Q1031=
####018000088####
SAHW31 PWAK 081256
METAR PWAK 081255Z 07013KT 6SM BR SKC 27/26 A2998 
RMK AO2A
=
####018000121####
SAMX51 MMMX 081257
METAR MMPA 081255Z RTD 34004KT 5SM SCT070 BKN280 26/24 A2987
      RMK 8/033 DSNT CB, TCU ALQDS=
####018000138####
SAGR31 LGAT 081250 RRA
METAR LGAD 081250Z 29009KT 9999 FEW020 27/14 Q1014=
METAR LGLM 081250Z 04013KT 9999 FEW008 SCT020 22/15 Q1014=
####018000139####
SAKA31 PTRO 081300
METAR PTRO 081257Z 06007KT 13SM TS BKN016CB BKN120 OVC300 26/24 
A2991 RMK OCNL LTGCA SE-S TS SE MOV W CB VC ALQDS
####018000538####
SAGR31 LGAT 081250
METAR LGAD 081250Z NIL=
METAR LGAV 081250Z 04020KT 9999 SCT030 26/13 Q1012 NOSIG=
METAR LGIR 081250Z 35009KT 9999 SCT020 28/24 Q1011 NOSIG=
METAR LGKL 081250Z 33010G22KT 9999 FEW030 33/12 Q1011=
METAR LGKO 081250Z 30020KT CAVOK 29/18 Q1009=
METAR LGKR 081250Z 31022KT CAVOK 27/11 Q1012 NOSIG=
METAR LGLM 081250Z NIL=
METAR LGRP 081250Z NIL=
METAR LGSA 081250Z 35012KT 9999 FEW020 32/16 Q1012=
METAR LGSM 081250Z 35009KT 9999 FEW030 31/17 Q1009=
METAR LGTS 081250Z 34017G27KT 9999 FEW025 24/12 Q1016 NOSIG=
####018000103####
SAGL41 BGSF 081250 RRC
METAR BGQQ 081250Z 19003KT 4000 BR BKN002 04/M03 Q1010 RMK 6ST 
VIS 9999NE=
####018000072####
SAGR33 LGAT 081250 RRA
METAR LGHI 081250Z 36010KT CAVOK 28/18 Q1011=
####018000355####
SAGR33 LGAT 081250
METAR LGHI 081250Z NIL=
METAR LGKC 081250Z NIL=
METAR LGKF 081250Z 31019KT 9999 FEW025 26/15 Q1013=
METAR LGKP 081250Z 34027KT CAVOK 29/17 Q1008=
METAR LGKZ 081250Z NIL=
METAR LGMK 081250Z 36021G31KT 9999 FEW015 24/17 Q1012=
METAR LGNX 081250Z NIL=
METAR LGPA 081250Z NIL=
METAR LGSO 081250Z 01015KT 9999 FEW018 25/17 Q1012=
####018000082####
SAPK31 OPST 081250
METAR OPST 081300Z 18006KT 6000 HZ FEW040 38/20 Q1002 RH35=
####018000084####
SAGR31 LGAT 081250 RRB
METAR LGRP 081250Z 25013KT 9999 FEW020 29/19 Q1007 NOSIG=
####018000085####
SANO35 ENMI 081250 RRA
METAR ENRS 081250Z 20008KT 9999 SCT048 BKN059 14/09 Q1010=
####018000209####
SASW39 LSSW 081250 RRA
METAR LSMD 081250Z VRB02KT CAVOK 29/12 Q1022 RMK BLU=
METAR LSMM 081250Z 23007KT 190V260 CAVOK 28/14 Q1022 RMK BLU=
METAR LSMP 081250Z AUTO VRB02KT 9999NDV NCD 29/14 Q1021 RMK BLU=
####018000085####
SAGL31 BGSF 081250 RRB
METAR BGGH 081250Z VRB03KT 9999 SCT004 OVC008 06/03 Q1009=
####018000084####
SAAG SARI 081300
METAR SARI 081300Z  20006KT 2000 BR BKN002 SCT100
17/17 Q1020=
####018000085####
SAGL41 BGSF 081250 RRE
METAR BGGH 081250Z VRB03KT 9999 SCT004 OVC008 06/03 Q1009=
####018000126####
SANK31 MNMG 081300
METAR
METAR MNMG 081300Z 27006KT 9000 FEW015 SCT018 24/23 Q1011 A2988 REDZ
CBRA/NW/N/NE/SE/CB/SW/W/E=
####018000120####
SANK31 MNMG 081300
METAR
MNMG 081300Z 27006KT 9000 FEW015 SCT018 24/23 Q1011 A2988 REDZ
CBRA/NW/N/NE/SE/CB/SW/W/E=
####018000484####
SAVN26 SVMC 081300
METAR SVMC 081300Z 36003KT 9999 SCT013 SCT070 28/26 Q1012=
METAR SVJC 081300Z 09009KT 9999 FEW030 27/25 Q1012=
METAR SVSA 081300Z 00000KT 9999 BKN020 25/20 Q1016=
METAR SVCR 081300Z 00000KT 9999 SCT016 BKN060 25/23 Q1012=
METAR SVVG 081300Z 00000KT 9999 OVC030 XX/XX Q1013=
METAR SVSZ 081300Z 00000KT 9999 SCT020 XX/XX Q1012=
METAR SVMD 081300Z NIL=
METAR SVPM 081300Z 00000KT 9999 SCT035 XX/XX Q1016=
METAR SVLF 081300Z 00000KT 9999 BKN040 XX/XX Q1014=
####018000289####
SANL31 EHDB 081255
METAR EHAM 081255Z 27005KT 200V320 CAVOK 26/14 Q1019 NOSIG=
METAR EHBK 081255Z AUTO 23005KT 160V330 9999NDV NCD 30/11 Q1019
NOSIG=
METAR EHGG 081255Z AUTO 28008KT 210V320 9999NDV NSC 26/14 Q1019
NOSIG=
METAR EHRD 081255Z 35003KT 280V090 CAVOK 25/16 Q1019 NOSIG=
####018000509####
SAGR32 LGAT 081250
METAR LGAL 081250Z 03008KT 9999 FEW020TCU SCT025 BKN080 21/16 Q1015=
METAR LGEL 081250Z 35014G24KT CAVOK 29/12 Q1011=
METAR LGKV 081250Z 07006KT 9999 -TSRA FEW025CB SCT030TCU BKN080
      18/15 Q1014=
METAR LGMT 081250Z 36017G27KT 9999 SCT030 27/18 Q1011=
METAR LGPZ 081250Z 26013KT 9999 FEW025 29/18 Q1013 NOSIG=
METAR LGRX 081250Z 28011KT 9999 FEW025 27/13 Q1012 NOSIG=
METAR LGSK 081250Z NIL=
METAR LGSR 081250Z 02013KT 9999 FEW025 26/18 Q1010 NOSIG=
METAR LGZA 081250Z NIL=
####018000245####
SAEO32 EGGY 081250
METAR EEKA 081250Z NIL=
METAR EEKE 081250Z 33012KT CAVOK 24/12 Q1016=
METAR EEPU 081250Z 31009KT 260V340 9999 BKN028 26/19 Q1014=
METAR EETU 081250Z AUTO 28005KT 240V310 5000NDV -RA FEW003///
    BKN039/// 21/18 Q1013=
####018000108####
SANO33 ENMI 081150 RRY
METAR ENBL 081150Z 20012G22KT 9999 VCSH FEW025 SCT035TCU 15/08
           Q1011=
####018000166####
SANL32 EHDB 081255
METAR EHEH 081255Z AUTO 20007KT 9999NDV FEW350 31/11 Q1018 
BLU BLU=
METAR EHKD 081255Z AUTO 23009KT 9999NDV FEW210/// 22/15 Q1019 
BLU BLU=
####018000082####
SAPM31 MPTO 081300
METAR
MPTO 081300Z 07005KT 9999 SCT018 27/25 Q1011 NOSIG=
####018001706####
SAEU KAWN 081300 RRI
METAR EDHL 081250Z 22008KT 170V280 CAVOK 30/14 Q1019 RMK S=
METAR EDLP 081250Z VRB04KT CAVOK 30/10 Q1020 RMK RWY24 TRL60 RG ATIS
      V=
METAR EDLW 081250Z VRB05KT CAVOK 30/10 Q1020 RMK ATIS T=
METAR EDNY 081250Z 18005KT CAVOK 28/11 Q1021 RMK ATIS S=
METAR EDXW 081250Z 23008KT 4600 -RA FEW020 BKN070 18/16 Q1019 RMK ATIS
      INFO Y=
METAR EGUN 081255Z 26008KT 9999 BKN033 BKN043 22/17 A3006 RMK AO2A
      SLP170 T02190166 BLU=
METAR EHKD 081255Z AUTO 23009KT 9999NDV FEW210/// 22/15 Q1019 BLU BLU=
METAR EHVK 081255Z AUTO 22006KT 9999NDV NCD 30/11 Q1018 BLU BLU=
METAR EHVL 081255Z AUTO 24010KT 9999NDV FEW075 BKN160 21/16 Q1019 BLU=
METAR ENRS 081250Z 20008KT 9999 SCT048 BKN059 14/09 Q1010=
METAR LEJR 081300Z VRB05KT CAVOK 32/14 Q1015=
METAR LGAD 081250Z 29009KT 9999 FEW020 27/14 Q1014=
METAR LGBL 081250Z 04008KT 9999 FEW030 SCT080 27/11 Q1013 NOSIG BLU=
METAR LGHI 081250Z 36010KT CAVOK 28/18 Q1011=
METAR LGLM 081250Z 04013KT 9999 FEW008 SCT020 22/15 Q1014=
METAR LGLR 081250Z 33008KT 9999 FEW030 29/09 Q1014 NOSIG RMK FEW080
      BLU=
METAR LGMK 081250Z 36021G31KT 9999 FEW015 24/17 Q1012=
METAR LGPZ 081250Z 26013KT 9999 FEW025 29/18 Q1013 NOSIG BLU=
METAR LGRP 081250Z 25013KT 9999 FEW020 29/19 Q1007 NOSIG=
METAR LGRX 081250Z 28011KT 9999 FEW025 27/13 Q1012 NOSIG BLU=
METAR LGSO 081250Z 01015KT 9999 FEW018 25/17 Q1012=
METAR LGSR 081250Z 02013KT 9999 FEW025 26/18 Q1010 NOSIG BLU=
METAR LGSY 081250Z 34012KT 9999 FEW015 SCT020 24/13 Q1013 NOSIG RMK
      SCT080 BLU=
METAR LGTG 081250Z 02015KT 9999 FEW030 SCT070 25/11 Q1013 NOSIG BLU=
METAR LOXT 081250Z VRB05KT 50KM FEW060CU 26/13 Q1022 NOSIG RMK FEW=
####018001544####
SAZZ40 KAWN 081300 RRH
METAR KFFO 081255Z 00000KT 6SM HZ CLR 27/22 A3009 RMK AO2A SLP182=
METAR KFRI 081255Z AUTO 01009KT 8SM OVC008 22/21 A3012 RMK AO2 CIG
      007V010 SLP187 T02200212=
METAR KNCA 081256Z 04006KT 4SM HZ FEW090 28/24 A2995 RMK AO2 SLP143
      T02780239=
METAR KNFG 081256Z AUTO 00000KT 9SM OVC011 16/14 A2991 RMK AO2 SLP128
      T01560139 TSNO=
METAR KNMM 081256Z 35003KT 10SM FEW250 28/22 A3007 RMK AO2 SLP188 T02780217=
METAR KNUW 081256Z 00000KT 10SM CLR 16/10 A2997 RMK AO2 SLP154 T01630098
      $=
METAR KNXP 081256Z AUTO 28007KT CLR 23/00 A2994 RMK AO2 SLP099 T02280000
      $=
METAR KNXX 081256Z 13008KT 5SM HZ FEW045 27/22 A3006 RMK AO2 SLP182
      T02720217 $=
METAR KNYG 081256Z 00000KT 6SM HZ FEW090 BKN200 28/23 A3002 RMK AO2
      SLP166 T02780228=
METAR KNYL 081255Z AUTO 00000KT 10SM CLR 27/M03 A2974 RMK AO2 SLP065
      T02671033=
METAR KRDR 081255Z 31005KT 10SM CLR 18/15 A3007 RMK AO2A SLP192 T01790147
      $=
METAR KSGH 081256Z 00000KT 4SM BR CLR 26/23 A3011 RMK AO2 T02610233
      SLP187=
METAR KSZL 081255Z 00000KT 3SM -DZ BR OVC004 23/22 A3008 RMK AO2A VIS
      2 1/2 RWY01 DZB1247 CIG 003V007 SLP181 P2400 T02290224 $=
METAR KVBG 081255Z AUTO 33006KT 10SM OVC004 12/11 A2994 RMK AO2 SLP130
      T01170111 TSNO $=
METAR KWJF 081256Z 17003KT 10SM CLR 17/04 A2991 RMK AO2 SLP110 T01720039=
METAR OLBA 081300Z 24007KT CAVOK 29/19 Q1011 NOSIG=
METAR TJSJ 081256Z 08006KT 10SM FEW020 SCT036 29/26 A3001 RMK AO2 SLP161
      T02890256=
####018000085####
SAGR31 LGAT 081250 RRB
METAR LGRP 081250Z 25013KT 9999 FEW020 29/19 Q1007 NOSIG=
####018000510####
SAGR32 LGAT 081250
METAR LGAL 081250Z 03008KT 9999 FEW020TCU SCT025 BKN080 21/16 Q1015=
METAR LGEL 081250Z 35014G24KT CAVOK 29/12 Q1011=
METAR LGKV 081250Z 07006KT 9999 -TSRA FEW025CB SCT030TCU BKN080
      18/15 Q1014=
METAR LGMT 081250Z 36017G27KT 9999 SCT030 27/18 Q1011=
METAR LGPZ 081250Z 26013KT 9999 FEW025 29/18 Q1013 NOSIG=
METAR LGRX 081250Z 28011KT 9999 FEW025 27/13 Q1012 NOSIG=
METAR LGSK 081250Z NIL=
METAR LGSR 081250Z 02013KT 9999 FEW025 26/18 Q1010 NOSIG=
METAR LGZA 081250Z NIL=
####018000139####
SAGR31 LGAT 081250 RRA
METAR LGAD 081250Z 29009KT 9999 FEW020 27/14 Q1014=
METAR LGLM 081250Z 04013KT 9999 FEW008 SCT020 22/15 Q1014=
####018000356####
SAGR33 LGAT 081250
METAR LGHI 081250Z NIL=
METAR LGKC 081250Z NIL=
METAR LGKF 081250Z 31019KT 9999 FEW025 26/15 Q1013=
METAR LGKP 081250Z 34027KT CAVOK 29/17 Q1008=
METAR LGKZ 081250Z NIL=
METAR LGMK 081250Z 36021G31KT 9999 FEW015 24/17 Q1012=
METAR LGNX 081250Z NIL=
METAR LGPA 081250Z NIL=
METAR LGSO 081250Z 01015KT 9999 FEW018 25/17 Q1012=
####018000075####
SALY31 HLLB 081300
METAR HLLB 081250Z 33022KT 9999 FEW025 31/17 Q1016=
####018000120####
SAUS46 KLOX 081259
MTRNLC
METAR KNLC 081256Z AUTO 31008KT 10SM CLR 17/10 A2984 RMK AO2 SLP103 
T01670100 TSNO $
####018000086####
SAGL31 BGSF 081250 RRB
METAR BGGH 081250Z VRB03KT 9999 SCT004 OVC008 06/03 Q1009=
####018000083####
SAPK31 OPST 081250
METAR OPST 081300Z 18006KT 6000 HZ FEW040 38/20 Q1002 RH35=
####018000170####
SANL32 EHDB 081255
METAR EHEH 081255Z AUTO 20007KT 9999NDV FEW350 31/11 Q1018 
BLU BLU=
METAR EHKD 081255Z AUTO 23009KT 9999NDV FEW210/// 22/15 Q1019 
BLU BLU=
####018000087####
SAUK32 EGGY 081250 RRA
METAR EGFF 081250Z 22007KT 180V260 9999 FEW030 21/11 Q1019=
####018000130####
SAHW40 PHFO 081258
MTRBKH
METAR PHBK 081256Z AUTO 12003KT 10SM BKN060 OVC070 24/18 A3000 RMK 
AO2 SLP162 T02440178 TSNO $
####018000129####
SAUS41 KAKQ 081259 COR
MTRWAL
METAR KWAL 081254Z 09008KT 10SM BKN011 BKN120 OVC250 26/22 A3002 RMK 
AO2 SLP163 T02560217
####018000107####
SAAK48 PANC 081259
MTRASY
METAR PASY 081256Z AUTO 02014KT 7SM OVC002 A2974 RMK AO2 SLPNO TSNO
 PNO
####018000090####
SPUS73 KWBC 081259
SPECI
KTVC 081256Z 00000KT 7SM FEW009 BKN014 OVC028 22/21 A3000=
####018000119####
SAUS41 KOKX 081259 COR
MTRMTP
METAR KMTP 081254Z AUTO VRB03KT 23/20 A3010 RMK AO2 SLP192 T02280200 
PWINO TSNO
####018001564####
SAZZ40 KAWN 081300 RRI
METAR BGGH 081250Z VRB03KT 9999 SCT004 OVC008 06/03 Q1009=
METAR KDMA 081255Z AUTO 07007KT 10SM CLR 29/11 A2991 RMK AO2 SLP052
      T02860111 $=
METAR KDOV 081257Z 13008KT 10SM FEW130 26/23 A3002 RMK AO2A SLP168=
METAR KEND 081255Z 02007KT 10SM SCT007 SCT060 BKN090 BKN200 23/22 A3009
      RMK AO2A SLP177 T02320219=
METAR KFAF 081255Z 13005KT 10SM FEW016 27/26 A3000 RMK AO2A SLP159
      T02710262=
METAR KGSB 081255Z 06007KT 8SM CLR 27/21 A2996 RMK AO2A SLP144 WND
      DATA ESTMD T02750214 $=
METAR KHOP 081255Z AUTO 00000KT 10SM CLR 28/22 A3009 RMK AO2 SLP184
      T02760224=
METAR KHUA 081257Z 01007KT 12SM SKC 29/23 A3012=
METAR KNBG 081255Z 06003KT 7SM SCT015 BKN250 26/23 A3004 RMK AO2 SLP171
      T02620233 $=
METAR KNKX 081255Z 00000KT 10SM -RA OVC010 16/14 A2991 RMK AO2 RAB53
      CIG 005V011 SLP123 P0000 T01560139=
METAR KPOE 081255Z AUTO 08006KT 10SM CLR 25/23 A3004 RMK AO2 SLP171
      T02500233 $=
METAR KRCA 081255Z 00000KT 25SM CLR 14/10 A3025 RMK AO2A SLP233 T01430102
      $=
METAR KSKF 081255Z 03006KT 7SM BKN015 BKN045 25/24 A2993 RMK AO2A SLP126
      P0000 T02540240 $=
METAR MNMG 081300Z 27006KT 9000 FEW015 SCT018 24/23 Q1011 A2988 REDZ
      CBRA/NW/N/NE/SE/CB/SW/W/E=
METAR MPTO 081300Z 07005KT 9999 SCT018 27/25 Q1011 NOSIG=
METAR MYGF 081300Z 08006KT 9999 FEW015CB 29/25 A2998 RMK CB S /=
METAR PMDY 081256Z AUTO 00000KT 10SM CLR 24/19 A3008 RMK AO2 TSNO T02380194
      SLP491=
METAR PWAK 081255Z 07013KT 6SM BR SKC 27/26 A2998 RMK AO2A=
####018002995####
SAUS20 KNKA 081259
METAR KBBF 081355Z AUTO 14021G35KT 1/4SM FG BKN003 BKN022 OVC100
     26/24 A2984 RMK A01=
METAR KBQX 081255Z AUTO 12015G22KT 9SM SCT023 SCT028 29/26 A2987
     RMK A01=
METAR KDLP 081255Z AUTO 10011KT 9SM FEW017 28/25 A3002 RMK A01=
METAR KEDU 081255Z AUTO 00000KT 10SM CLR 13/10 A2983 RMK AO1=
METAR KEHC 081255Z AUTO 12021KT 6SM HZ SCT018 BKN023 BKN030 29/25
     A2995 RMK A01=
METAR KEMK 081255Z AUTO 14021KT 8SM FEW028 FEW080 SCT095 29/25
     A2990 RMK A01=
METAR KGBK 081255Z AUTO 09009G18KT 10SM BKN018 BKN024 BKN032 29/26
     A2994 RMK A01=
METAR KGTB 081255Z AUTO VRB04KT 10SM CLR 29/22 A3004 RMK AO2 SLP171
      T02920220=
METAR KGVX 081255Z AUTO 13024KT 9SM FEW060 FEW075 M40/ A2991 RMK
     A01=
METAR KHQI 081255Z AUTO 11021KT 6SM HZ CLR 29/26 A2992 RMK A01=
METAR KIPN 081250Z AUTO 08015KT 10SM FEW023 /54 A3001 RMK A01=
METAR KLFI 081255Z 10006KT 10SM FEW013 BKN100 26/22 A3001 RMK AO2A
      SLP163 T02580217 $=
METAR KMDJ 081255Z AUTO 10014KT 10SM FEW022 29/24 A3002 RMK A01=
METAR KMHR 081255Z AUTO 17005KT 9SM CLR 12/10 A2985 RMK AO1=
METAR KMIU 081255Z AUTO 12020KT 3SM HZ SCT018 BKN033 BKN042 28/26
     A2982 RMK A01=
METAR KMMT 081255Z 33006KT 8SM FEW100 28/20 A3000 RMK AO2A SLP159 T02800203=
METAR KMXF 081255Z AUTO 00000KT 10SM CLR 28/24 A3003 RMK AO2 SLP167
      T02820237=
METAR KMYT 081255Z AUTO 11017KT 10SM FEW022 28/24 A2998 RMK A01=
METAR KMZG 081255Z AUTO 00000KT 9SM SCT020 SCT025 BKN045 29/25
     A2983 RMK A01=
METAR KNCA 081256Z 04006KT 4SM HZ FEW090 28/24 A2995 RMK AO2 SLP143
      T02780239=
METAR KNQX 081253Z 05005KT 10SM SCT022CB SCT100 BKN200 29/25 A2996
      RMK AO2 SLP144 CB DSNT S TCU DSNT SE W T2 SET T02940250 $=
METAR KOEO 081255Z AUTO 00000KT 10SM CLR 19/17 A3012 RMK AO2=
METAR KPBH 081255Z AUTO 35003KT 10SM SCT048 20/17 A3008 RMK AO2=
METAR KPCZ 081255Z AUTO 31006KT 10SM OVC008 22/20 A3002 RMK AO2 
     T02240200=
METAR KPDC 081253Z AUTO 31006KT 7SM OVC010 23/21 A3006 RMK AO2 
     T02250206=
METAR KPSM 081255Z 17005KT 10SM FEW040 BKN200 25/21 A3009 RMK AO2A
      SLP190 T02510207=
METAR KRCX 081255Z AUTO 32007KT 10SM OVC050 20/17 A3009 RMK AO2 
     T01960171=
METAR KRNH 081256Z AUTO 31004KT 10SM CLR 19/17 A3011 RMK AO2 
     T01920169=
METAR KRRL 081255Z AUTO 34003KT 10SM BKN008 20/19 A3006 RMK AO2 
     T01980194=
METAR KRYV 081255Z AUTO 26003KT 5SM BR OVC005 23/21 A3004 RMK AO2=
METAR KSCF 081300Z AUTO 13018KT 7SM 29/25 A2993 RMK A01=
METAR KSTE 081255Z AUTO 00000KT 10SM OVC007 21/19 A3004 RMK AO2=
METAR KSUW 081255Z AUTO 22005KT 10SM CLR 19/16 A3004 RMK AO2=
METAR KTKV 081255Z AUTO 32005KT 10SM CLR 18/17 A3005 RMK AO2 
     T01800173=
METAR KUNU 081252Z AUTO 26003KT 5SM BR OVC003 22/20 A3004 RMK AO2 
     T02160202=
METAR KVAD 081255Z AUTO 32006KT 10SM CLR 26/20 A3004 RMK AO2 SLP170
      T02600204 $=
METAR KVBS 081255Z AUTO 12022KT SCT019 SCT025 29/25 A2995 RMK A01=
####018000286####
SAUS20 KNKA 081259
METAR KVNP 081255Z AUTO 11011G17KT 8SM SCT019 SCT028 28/25 A2999
     RMK A01=
METAR KWRB 081255Z 34006KT 10SM CLR 27/22 A3003 RMK AO2A SLP166 T02680218
      $=
METAR PACM 081256Z AUTO 00000KT 10SM CLR 11/09 A3006 RMK AO2 TSNO 
    T01050088 SLP175 $=
####018000114####
SAUS45 KLKN 081259
MTRWMC
METAR KWMC 081256Z AUTO 20003KT 10SM CLR 12/M04 A3008 RMK AO2 SLP142 
T01171044
####018000116####
SAUS42 KCHS 081259
MTRNBC
METAR KNBC 081256Z 29007KT 6SM HZ CLR 27/20 A2999 RMK AO2 SLP156 
T02720200 PNO $
####018000124####
SAUS46 KSEW 081259 COR
MTRSMP
METAR KSMP 081256Z AUTO VRB03KT 10SM CLR 15/04 A3016 RMK AO2 SLP181 
T01500039 TSNO $
####018001254####
SAXN17 KAWN 081200 RRM
METAR MMAN 081242Z 30008KT 15SM SCT040 SCT080 25/21 A2990 RMK 8/570=
METAR MMAS 081240Z 04003KT 8SM SCT020 BKN070 OVC200 17/14 A3009 RMK
      8/537 HZ=
METAR MMCL 081243Z 15003KT 8SM FEW030 SCT090 SCT230 26/23 A2976 RMK
      8/534 HZY=
METAR MMCU 081240Z 07008KT 10SM OVC030 22/13 A3012 RMK 8/5// BINOV/NW=
METAR MMDO 081244Z 04006KT 12SM OVC020 17/16 A3013 RMK 8/4// BINOVC
      LWR ST=
METAR MMHO 081241Z 00000KT 10SM BKN080 27/16 A2980 RMK 8/050 HZY=
METAR MMLM 081243Z 00000KT 10SM SKC 25/21 A//// RMK ISOL AC HZY=
METAR MMLP 081241Z 18008KT 10SM SKC 18/15 A2979 RMK ISOL SC AC=
METAR MMMM 081242Z 00000KT 4SM BKN015 OVC040 17/15 A3010 RMK 8/5//
      HZY ST LWR HILL=
METAR MMMV 081240Z 25005KT 8SM HZ BKN050 23/18 A2998 RMK 8/200=
METAR MMNL 081240Z 04006KT 8SM FEW007 SCT020 SCT100 BKN250 26/24 A2988
      RMK 8/572=
METAR MMPG 081244Z 03005KT 8SM BKN020 26/22 A2999 RMK 8/500 HZY=
METAR MMRX 081242Z 33006KT 7SM BKN010 OVC015 26/24 A2982 RMK 8/8//
      HZY=
METAR MMTJ 081242Z 00000KT 3SM BR OVC008 16/14 A2994 RMK 8/6//=
METAR MMZC 081243Z 05004KT 10SM BKN030 15/11 A3019 RMK 8/700=
METAR MMZO 081244Z 00000KT 10SM BKN100 BKN210 25/24 A2976 RMK SLP067
      8/035 HZY=
####018000464####
SAXX70 KAWN 081300 RRE
METAR KQAJ 081255Z 31006G13KT 9999 CLR 44/04 A2967 RMK SLP034 WND DATA
      ESTMD ALSTG/SLP ESTMD=
METAR KQIU 081255Z AUTO VRB03KT 9999 CLR 27/07 A3015 RMK AO2 SLP099=
METAR KQPV 081255Z AUTO 29007G14KT 9999 FEW200 45/05 A2964 RMK AO2
      SLP032 T04470052=
METAR KQSD 081255Z 24006KT 9000 HZ FEW080 34/00 A2999 RMK AO2A SLP013
      $=
METAR KQXR 081256Z AUTO 33015KT 8000 FEW037 48/ A2946 RMK AO2 SLP976
      T0484=
####018000085####
SARS18 KAWN 081300 RRA
METAR ESSA 081250Z 24014KT 9999 FEW045 24/13 Q1016 NOSIG=
####018000089####
UAUS68 KAWN 081200
VES UA /OV ROD/TM 1239/FL080/TP C340/SK SKC/TA 19/TB NEG/RM SMTH=
####018000085####
SABR31 TBPB 081300
METAR TBPB 081300Z 08020KT 9999 SCT020 BKN280 31/25 Q1014 NOSIG=####018000123####
SAUS46 KSGX 081259
MTRNRS
METAR KNRS 081256Z AUTO 29005KT 10SM OVC016 17/13 A2991 RMK AO2 
SLP128 T01670133 TSNO $
####018000101####
SAUS46 KLOX 081259
MTR3A6
METAR K3A6 081350Z AUTO 36001KT 11/10 A2989 RMK AO1 SLP143 T01120102
####018000121####
SAUS43 KIWX 081259
MTRFWA
METAR KFWA 081254Z COR 20003KT 8SM FEW060 SCT250 27/21 A3006 RMK AO2 
SLP172 T02720211
####018000500####
SAAK41 KNKA 081259
METAR PACM 081256Z AUTO 00000KT 10SM CLR 11/09 A3006 RMK AO2 TSNO 
    T01050088 SLP175 $=
METAR PAFS 081256Z AUTO 00000KT 10SM CLR 11/06 A2999 RMK AO2 TSNO 
    T01110061 SLP161 $=
METAR PAMB 081256Z AUTO 36005KT 10SM OVC042 11/09 A2992 RMK AO2 
    PWINO TSNO T01050088 SLP134 $=
METAR PAVA 081257Z AUTO 01009KT 10SM CLR 10/09 A3006 RMK AO2 SLP183 
    T01000089=
METAR PPIZ 081256Z AUTO 21010KT 3SM HZ CLR 06/02 A3008 RMK AO2 TSNO 
    T00610016 SLP189 $=
####018000213####
SAHW31 KMSC 081259
METAR PHNY 081256Z AUTO 03012KT 10SM BKN036 BKN045 19/18 A3005 RMK 
    AO2 TSNO T01940183 BKN V OVC RAE03 P0000 SLP155 $=
METAR PWAK 081255Z 07013KT 6SM BR SKC 27/26 A2998 
RMK AO2A=
