####018000276####
SPUS90 KWBC 081440
SPECI KMSN 081437Z VRB05KT 9SM SCT014 25/21 A3004 RMK AO2=
SPECI KATT 081437Z AUTO VRB04KT 4SM -RA BR FEW007 BKN018 OVC065
     25/24 A3000 RMK AO2 RAE1357B14 P0006=
SPECI KSHV 081438Z 12005KT 10SM BKN013 BKN100 BKN280 28/24 A3006
     RMK AO2=
####018000102####
SAUS90 KWBC 081500
METAR KSYN 081450Z AUTO 31003KT 10SM CLR 23/17 A3011 RMK AO2
     T02250173=
####018003564####
SAUS90 KWBC 081440
METAR KPQN 081433Z AUTO 32007KT 10SM CLR 22/16 A3018 RMK AO2=
METAR KFGN 081434Z AUTO 29008KT 1 3/4SM HZ BKN080 18/14 A3000 RMK
     AO2 VIS 3/4V4=
METAR KPNM 081433Z AUTO 28006KT 10SM CLR 23/16 A3010 RMK AO2=
METAR KPWC 081433Z AUTO 27003KT 10SM CLR 21/14 A3010 RMK AO2=
METAR KFFM 081433Z AUTO 29003KT 10SM CLR 20/16 A3009 RMK AO2=
METAR KGDB 081431Z AUTO 26006KT 10SM CLR 22/17 A3015 RMK AO2
     T02210170=
METAR KAIT 081433Z AUTO 25003KT 10SM CLR 22/19 A3007 RMK AO2=
METAR KGHW 081433Z AUTO 27006KT 10SM CLR 22/15 A3014 RMK AO2=
METAR KMWM 081433Z AUTO 31005KT 10SM CLR 23/16 A3015 RMK AO2=
METAR KULM 081435Z AUTO 32006KT 10SM CLR 22/16 A3013 RMK AO2=
METAR KBBB 081433Z AUTO 29005KT 10SM CLR 23/18 A3012 RMK AO2=
METAR KTWM 081433Z AUTO 24006KT 10SM CLR 23/15 A3002 RMK AO2=
METAR KMGG 081435Z AUTO 27006KT 10SM CLR 23/17 A3012 RMK AO2
     T02280169=
METAR KMOX 081430Z AUTO 31008KT 10SM CLR 23/17 A3008 RMK AO2=
METAR KTEW 081421Z AUTO 15003KT 10SM CLR 27/21 A3003 RMK AO2=
METAR KCVH 081430Z AUTO 00000KT 5SM OVC008 13/12 A2994 RMK AO1=
METAR KFSO 081438Z AUTO 22003KT 7SM CLR 31/24 A3000 RMK AO2=
METAR KFBL 081434Z AUTO 28004KT 10SM CLR 22/16 A3014 RMK AO2=
METAR KLYV 081438Z AUTO 27004KT 10SM CLR 22/15 A3018 RMK AO2=
METAR KEFK 081436Z AUTO 19005KT 10SM CLR 29/21 A3005 RMK AO2=
METAR KRRT 081434Z AUTO 27009KT 10SM CLR 19/14 A3004 RMK AO2=
METAR KTOB 081435Z AUTO 00000KT 10SM CLR 22/17 A3013 RMK AO2=
METAR KLXL 081434Z AUTO 26006KT 10SM CLR 22/14 A3009 RMK AO2=
METAR KEVM 081432Z AUTO 25007KT 10SM CLR 23/16 A3003 RMK AO1=
METAR KELO 081433Z AUTO 28008KT 10SM CLR 22/14 A3002 RMK AO2 LTG
     DSNT N=
METAR KROX 081434Z AUTO 28008G14KT 10SM SCT085 20/16 A3004 RMK
     AO2=
METAR KVVV 081436Z AUTO 27005KT 10SM CLR 23/16 A3012 RMK AO2=
METAR KROS 081435Z AUTO 28004KT 10SM CLR 23/16 A3010 RMK AO2
     T02270163=
METAR KHCD 081432Z AUTO 28006KT 10SM CLR 22/16 A3013 RMK AO2
     T02210162=
METAR KSGS 081433Z AUTO 31007KT 10SM CLR 23/16 A3010 RMK AO2
     T02320164=
METAR KMJQ 081432Z AUTO 30003KT 10SM CLR 21/16 A3018 RMK AO2=
METAR KHCO 081434Z AUTO 33007KT 10SM CLR 19/16 A3009 RMK AO2=
METAR KLVN 081428Z AUTO 27005KT 10SM CLR 22/18 A3011 RMK AO2=
METAR KPEX 081433Z AUTO 27008KT 10SM CLR 23/16 A3013 RMK AO2
     T02270156=
METAR KJMR 081438Z AUTO 26005KT 10SM CLR 22/15 A3011 RMK AO2=
METAR KJKJ 081434Z AUTO 29005KT 10SM CLR 22/16 A3008 RMK AO2=
METAR KMVE 081434Z AUTO 30005KT 10SM CLR 23/18 A3011 RMK AO2=
METAR KTKC 081433Z AUTO 29006KT 10SM CLR 23/16 A3015 RMK AO2
     T02280156=
METAR KGYL 081434Z AUTO 30008KT 10SM CLR 22/16 A3012 RMK AO2
     T02200160=
METAR KDXX 081434Z AUTO 00000KT 10SM CLR 23/19 A3011 RMK AO2=
METAR KHZX 081431Z AUTO 27006KT 10SM CLR 22/15 A3008 RMK AO2=
METAR KSAZ 081434Z AUTO 23004KT 10SM CLR 22/19 A3010 RMK AO2=
METAR KONA 081431Z AUTO 30006KT 10SM SCT019 23/17 A3008 RMK
     AO2=
METAR KOVL 081434Z AUTO 30005KT 10SM CLR 22/16 A3013 RMK AO2
     T02200158=
METAR KLJF 081432Z AUTO 28005KT 10SM CLR 23/17 A3013 RMK AO2=
METAR KAEL 081431Z AUTO 35006KT 10SM CLR 21/17 A3013 RMK AO2=
METAR K29G 081434Z AUTO 26004KT 10SM CLR 29/19 A3008 RMK AO2
     T02880187 PWINO=
METAR KMRT 081433Z AUTO 23003KT 10SM CLR 30/19 A3010 RMK AO2
     T02980192=
METAR KIKW 081433Z AUTO 29007KT 10SM SCT012 SCT120 25/21 A3001 RMK
     AO2 T02510212=
METAR KMDS 081425Z AUTO 26006KT 10SM CLR 21/16 A3018 RMK AO2=
METAR KFDK 081436Z AUTO 00000KT 7SM CLR 36/22 A3004=
####018001482####
SARS18 KAWN 081400 RRI
METAR UAAA 081430Z 14002MPS 9999 SCT050CB BKN100 24/14 Q1013 88CLRD65
      TEMPO TS=
METAR UACC 081430Z 01008MPS 8000 FEW193 20/04 Q1009 040/0070 NOSIG
      RMK QFE725/0967=
METAR UAFM 081430Z 24005MPS CAVOK 29/08 Q1012 NOSIG=
METAR UATE 081430Z 01006G11MPS CAVOK 38/07 Q1009 300///70 NOSIG RMK
      QFE755/1007=
METAR UATT 081430Z 03006MPS 9999 NSC 32/01 Q1011 13CLRD70 NOSIG RMK
      QFE738/0985=
METAR UELL 081430Z VRB02MPS 0800 FG FEW030 BKN200 11/11 Q1012 TEMPO
      0400 VV002 RMK QFE684 08290050=
METAR UIBB 081430Z 06003MPS 9999 FEW040 BKN200 22/12 Q1006 NOSIG RMK
      QFE712/0949 30CLRD60=
METAR UIII 081430Z 00000MPS CAVOK 16/10 Q1007 NOSIG RMK QFE713/0951
      12CLRD60=
METAR UIUU 081430Z 00000MPS 9999 -SHRA SCT033CB OVC100 19/15 Q1008
      NOSIG RMK QFE712/0949 26CLRD60=
METAR UKKK 081430Z 30002MPS 280V340 CAVOK 26/17 Q1015 26CLRD70 NOSIG=
METAR UMGG 081430Z 28005MPS 9999 BKN021CB BKN100 26/16 Q1014 R28/290550
      NOSIG=
METAR UMMM 081430Z 25005G08MPS 5000 BR OVC013CB 17/14 Q1015 R30/D NOSIG
      RMK QFE742=
METAR UMMS 081430Z 28003MPS 9999 OVC013 18/15 Q1015 R31/D NOSIG=
METAR URMM 081430Z 12005G07MPS 9999 BKN046 30/19 Q1012 NOSIG RMK 0M-200
      / SC070=
METAR UTAA 081430Z 12003MPS 9999 SKC 42/04 Q1007 NOSIG=
METAR UTDD 081430Z 04002MPS 9999 SKC 31/12 Q1008 09CLRD70 NOSIG RMK
      QFE689/0918=
METAR UTSS 081430Z 08003MPS 9999 NSC 30/10 Q1010 R88/70D NOSIG=
####018000140####
SAUS44 KFWD 081439
MTRNQI
SPECI KNQI 081438Z 04008KT 8SM -RA FEW008 BKN010CB OVC085 28/26 
A2986 RMK AO2 RAB21 CB OHD MOV W P0000 $
####018002437####
SAUS20 KNKA 081439
METAR KBBF 081535Z AUTO 13021G26KT 3SM HZ FEW022 SCT029 29/27
     A2985 RMK A01=
SPECI KBEH 081438Z AUTO 00000KT 2 1/2SM +RA BKN028 BKN034 OVC041 
    24/22 A3003 RMK AO2 RAB21 P0004 $=
METAR KBQX 081435Z AUTO 10010G20KT 9SM FEW022 FEW029 SCT110 29/26
     A2990 RMK A01=
METAR KDLP 081435Z AUTO 10012KT 9SM CLR 29/24 A3002 RMK A01=
METAR KEDU 081435Z AUTO 00000KT 10SM CLR 15/11 A2986 RMK AO1=
METAR KEHC 081435Z AUTO 12023KT 6SM HZ SCT018 SCT024 SCT030 29/25
     A2996 RMK A01=
METAR KEMK 081435Z AUTO 14022G28KT 7SM FEW022 FEW028 FEW037 29/25
     A2992 RMK A01=
METAR KGBK 081435Z AUTO 09013KT 10SM CLR 29/25 A2996 RMK A01=
METAR KGVX 081435Z AUTO 12022KT 8SM FEW021 SCT042 OVC085 M40/
     A2993 RMK A01=
METAR KHQI 081435Z AUTO 10028KT 6SM HZ FEW023 SCT080 SCT095 29/25
     A2994 RMK A01=
METAR KIPN 081435Z AUTO 09014G20KT 10SM CLR 57/50 A3001 RMK A01=
METAR KLNL 081435Z AUTO 31005KT 10SM SCT050 21/15 A3007 RMK AO2 
     T02070153=
METAR KMDJ 081435Z AUTO 10014KT 10SM CLR 29/23 A3003 RMK A01=
METAR KMHR 081435Z AUTO 20005KT 10SM CLR 14/10 A2987 RMK AO1=
METAR KMIU 081435Z AUTO 12025G32KT 8SM FEW021 SCT026 BKN034 29/25
     A2984 RMK A01=
METAR KMYT 081435Z AUTO 11015KT 10SM FEW024 FEW029 29/23 A2999 RMK
     A01=
METAR KMZG 081435Z AUTO 00000KT 9SM CLR 29/25 A2985 RMK A01=
METAR KRCX 081435Z AUTO 32007KT 10SM CLR 22/16 A3010 RMK AO2 
     T02210162=
METAR KRNH 081436Z AUTO 31006KT 10SM CLR 22/17 A3011 RMK AO2 
     T02200169=
METAR KRPD 081434Z AUTO 28005KT 10SM CLR 23/17 A3010 RMK AO2 
     T02250169=
METAR KRRL 081435Z AUTO 33006KT 10SM SCT020 22/17 A3007 RMK AO2 
     T02200174=
METAR KRYV 081435Z AUTO 27004KT 10SM CLR 24/21 A3003 RMK AO2=
METAR KSCF 081440Z AUTO 13018KT 9SM 29/25 A2995 RMK A01=
METAR KSTE 081435Z AUTO 31004KT 10SM OVC015 23/19 A3005 RMK AO2=
METAR KSUW 081435Z AUTO 25007KT 10SM CLR 23/16 A3003 RMK AO2=
METAR KTKV 081435Z AUTO 32007KT 10SM SCT020 SCT046 22/16 A3007 
     RMK AO2 T02150163=
SPECI KUGN 081438Z VRB06KT 10SM SCT016 BKN022 25/21 A3002 RMK AO2=
SPECI KUNO 081438Z AUTO 26007KT 10SM BKN015 BKN023 BKN095 27/22 
    A3011 RMK AO2=
METAR KUNU 081432Z AUTO 29006KT 10SM CLR 24/19 A3004 RMK AO2 
     T02430194=
METAR KVBS 081435Z AUTO 11021KT 10SM FEW018 29/25 A2997 RMK A01=
METAR KVNP 081435Z AUTO 09017KT 9SM SCT015 SCT020 SCT024 28/26
     A3001 RMK A01=
####018002516####
SAUS99 KWBC 081440
METAR
K4M9 081435Z AUTO 24005KT 10SM CLR 28/24 A3007 RMK AO2=
KAEJ 081435Z AUTO 00000KT 10SM OVC016 11/08 A3046 RMK AO2=
KBVU 081435Z AUTO 14003KT 10SM CLR 28/M02 A2991 RMK AO2=
KDCM 081435Z AUTO 36005KT 7SM CLR 32/25 A3001 RMK AO2=
KHYW 081435Z AUTO 03005KT 5SM HZ CLR 31/25 A2994 RMK AO2=
KMCJ 081435Z AUTO 07008KT 5SM FEW047 25/24 A2995 RMK AO1=
KRCM 081435Z AUTO 34005KT 10SM SCT010 BKN016 BKN085 24/23 A3009
     RMK AO2=
KSNC 081435Z AUTO 14004KT 10SM BKN015 OVC024 25/24 A3010 RMK
     AO2=
KBBF 081535Z AUTO 13021G26KT 3SM HZ FEW022 SCT029 29/27 A2985 RMK
     A01=
KBQX 081435Z AUTO 10010G20KT 9SM FEW022 FEW029 SCT110 29/26 A2990
     RMK A01=
KDLP 081435Z AUTO 10012KT 9SM CLR 29/24 A3002 RMK A01=
KEDU 081435Z AUTO 00000KT 10SM CLR 15/11 A2986 RMK AO1=
KEHC 081435Z AUTO 12023KT 6SM HZ SCT018 SCT024 SCT030 29/25 A2996
     RMK A01=
KEMK 081435Z AUTO 14022G28KT 7SM FEW022 FEW028 FEW037 29/25 A2992
     RMK A01=
KGBK 081435Z AUTO 09013KT 10SM CLR 29/25 A2996 RMK A01=
KGVX 081435Z AUTO 12022KT 8SM FEW021 SCT042 OVC085 M40/ A2993 RMK
     A01=
KHQI 081435Z AUTO 10028KT 6SM HZ FEW023 SCT080 SCT095 29/25 A2994
     RMK A01=
KIPN 081435Z AUTO 09014G20KT 10SM CLR 57/50 A3001 RMK A01=
KLNL 081435Z AUTO 31005KT 10SM SCT050 21/15 A3007 RMK AO2
     T02070153=
KMDJ 081435Z AUTO 10014KT 10SM CLR 29/23 A3003 RMK A01=
KMHR 081435Z AUTO 20005KT 10SM CLR 14/10 A2987 RMK AO1=
KMIU 081435Z AUTO 12025G32KT 8SM FEW021 SCT026 BKN034 29/25 A2984
     RMK A01=
KMYT 081435Z AUTO 11015KT 10SM FEW024 FEW029 29/23 A2999 RMK
     A01=
KMZG 081435Z AUTO 00000KT 9SM CLR 29/25 A2985 RMK A01=
KRCX 081435Z AUTO 32007KT 10SM CLR 22/16 A3010 RMK AO2
     T02210162=
KRNH 081436Z AUTO 31006KT 10SM CLR 22/17 A3011 RMK AO2
     T02200169=
KRPD 081434Z AUTO 28005KT 10SM CLR 23/17 A3010 RMK AO2
     T02250169=
KRRL 081435Z AUTO 33006KT 10SM SCT020 22/17 A3007 RMK AO2
     T02200174=
KRYV 081435Z AUTO 27004KT 10SM CLR 24/21 A3003 RMK AO2=
KSCF 081440Z AUTO 13018KT 9SM 29/25 A2995 RMK A01=
KSTE 081435Z AUTO 31004KT 10SM OVC015 23/19 A3005 RMK AO2=
KSUW 081435Z AUTO 25007KT 10SM CLR 23/16 A3003 RMK AO2=
KTKV 081435Z AUTO 32007KT 10SM SCT020 SCT046 22/16 A3007 RMK AO2
     T02150163=
KUNU 081432Z AUTO 29006KT 10SM CLR 24/19 A3004 RMK AO2
     T02430194=
KVBS 081435Z AUTO 11021KT 10SM FEW018 29/25 A2997 RMK A01=
KVNP 081435Z AUTO 09017KT 9SM SCT015 SCT020 SCT024 28/26 A3001 RMK
     A01=
####018000364####
SPUS99 KWBC 081440
SPECI
PASO 081437Z AUTO 00000KT 10SM BKN004 BKN060 OVC100 09/09 A2993
     RMK AO2 TSNO=
KBEH 081438Z AUTO 00000KT 2 1/2SM +RA BKN028 BKN034 OVC041 24/22
     A3003 RMK AO2 RAB21 P0004 $=
KUGN 081438Z VRB06KT 10SM SCT016 BKN022 25/21 A3002 RMK AO2=
KUNO 081438Z AUTO 26007KT 10SM BKN015 BKN023 BKN095 27/22 A3011
     RMK AO2=
####018000202####
SARA35 RUMS 081430
METAR ULDD 081430Z NIL=
METAR UOHH 081430Z NIL=
METAR UOII 081430Z NIL=
METAR UOOO 081430Z NIL=
METAR USCM 081430Z 00000MPS 9999 FEW200 27/02 Q1014 NOSIG 01090065
RMK QFE722=
####018000496####
SARA36 RUMS 081430
METAR UWUU 081430Z 35004MPS CAVOK 28/10 Q1014 82010060 NOSIG RMK
QFE750/1000=
METAR USCC 081430Z 01004G07MPS CAVOK 24/02 Q1013 NOSIG RMK QFE740
27000070=
METAR USDD 081430Z NIL=
METAR USMU 081430Z NIL=
METAR USNN 081430Z 12003MPS P6000 SCT026 17/10 Q1004 NOSIG RMK QFE748
SC065=
METAR USRK 081430Z NIL=
METAR USRR 081430Z 35003MPS 7000 OVC013 13/11 Q1005 TEMPO BKN007 RMK
QFE749 25////60=
METAR USSS 081430Z 01005MPS CAVOK 24/01 Q1014 NOSIG RMK QFE740
260///70=
####018000138####
SPXX60 KWBC 081440
SPECI
KNQI 081438Z 04008KT 8SM -RA FEW008 BKN010CB OVC085 28/26 A2986
     RMK AO2 RAB21 CB OHD MOV W P0000 $=
####018000828####
SARA34 RUMS 081430
METAR UNAA 081430Z 00000MPS 9999 SCT030CB BKN100 16/14 Q1012 NOSIG
RMK QFE736 022///55=
METAR UNBB 081430Z 15004MPS 9999 SCT040 SCT100 14/11 Q1009 NOSIG RMK
QFE735=
METAR UNEE 081430Z 21004MPS 9999 SCT033CB BKN066 OVC200 16/10 Q1009
NOSIG RMK QFE734 23CLRD60=
METAR UNKL 081430Z 00000MPS 9999 SCT030CB BKN083 13/12 Q1011 NOSIG
RMK QFE732 29////55=
METAR UNNT 081430Z 25004MPS 9999 BKN065CB 18/04 Q1007 NOSIG RMK
QFE745/0994 25090070=
METAR UNOO 081430Z 31005MPS 9999 BKN025CB 14/10 Q1008 NOSIG 25CLRD06
RMK QFE747=
METAR UNWW 081430Z 14002MPS 9999 SCT026 OVC130 13/11 Q1011 NOSIG RMK
QFE731 19CLRD70=
METAR USTR 081430Z 34003MPS CAVOK 19/07 Q1012 NOSIG RMK QFE749/0999
30CLRD65=
METAR USHH 081430Z 34003G06MPS 290V080 9999 BKN012CB OVC080 10/09
Q1009 TEMPO 3000 BR BKN006 RMK QFE753 SC06=
####018000083####
SAFR36 LFPW 081430 RRA
METAR LFJR 081430Z AUTO VRB04KT 9999NDV NCD 34/10 Q1017=
####018000145####
SAXX60 KWBC 081440
METAR
KGBK 081435Z AUTO 09013KT 10SM CLR 29/25 A2996 RMK A01=
KMHR 081435Z AUTO 20005KT 10SM CLR 14/10 A2987 RMK AO1=
####018000789####
SARS35 RUMS 081430
METAR USPP 081430Z 36002MPS CAVOK 27/11 Q1015 NOSIG RMK QFE750/1000
21090060=
METAR UWKD 081430Z 28004MPS 240V300 CAVOK 32/12 Q1014 TEMPO VRB15MPS
3000 TSRA RMK QFE750/1000 79CLRD70=
METAR UWKE 081430Z 06004MPS 9999 FEW040 31/10 Q1015 NOSIG RMK
QFE744/0992 04090070=
METAR UWKS 081430Z 00000MPS 9999 BKN033CB 28/17 Q1016 NOSIG RMK
QFE746 SC0.60=
METAR UWLL 081430Z 06005MPS 9999 SCT050CB 31/12 Q1014 NOSIG RMK
QFE748/0998 SC065=
METAR UWLW 081430Z NIL=
METAR UWOR 081430Z NIL=
METAR UWOO 081430Z NIL=
METAR UWPP 081430Z 16003MPS 9999 SCT033CB BKN100 32/09 Q1013 NOSIG
RMK QFE745 11090060=
METAR UWSS 081430Z 07004MPS CAVOK 31/09 Q1014 NOSIG RMK QFE748
120///60=
METAR UWWW 081430Z 06003MPS CAVOK 31/08 Q1014 NOSIG RMK QFE747/0997
05CLRD60 15//99//=
####018000393####
SARA32 RUMS 081430
METAR UHHH 081430Z 03003MPS 9999 SCT020CB OVC100 15/15 Q1010 NOSIG
RMK QFE751/1002 55090060=
METAR UHMA 081430Z NIL=
METAR UHMM 081430Z NIL=
METAR UHMP 081430Z NIL=
METAR UHNN 081430Z NIL=
METAR UHPP 081430Z NIL=
METAR UHSH 081430Z NIL=
METAR UHSS 081430Z NIL=
METAR UHWW 081430Z 08002MPS 9999 SCT013 BKN023CB OVC100 17/15 Q1011
NOSIG RMK QFE757/1010 75CLRD70=
####018000101####
SPAU32 YBBN 081439
SPECI YPEA 081439Z AUTO 33016KT 4000NDV // SCT012 BKN033 OVC069 13/12
Q0997=
####018000496####
SAAO32 GOOY 081430
METAR GABS 081430Z VRB01KT 9999 SCT030 33/21 Q1013 NOSIG=
METAR GGOV 081430Z NIL=
METAR GOOY 081430Z 16009KT 130V190 9999 SCT013 31/25 Q1012 NOSIG=
METAR DIAP 081430Z 22008KT 190V250 8000  SCT012 SCT070 29/25 Q1013
NOSIG=
METAR GQNN 081430Z 21012KT 180V240 6000 NSC 32/21 Q1011 NOSIG=
METAR GQPP 081430Z NIL=
METAR GUCY 081430Z NIL=
METAR GVAC 081430Z NIL=
METAR GFLL 081430Z NIL=
METAR GBYD 081430Z NIL=
METAR GLRB 081430Z 21008KT 9999 BKN020 30/25 Q1012 NOSIG=
####018000837####
SARS32 RUMS 081430
METAR URKA 081430Z 03005MPS 9999 SCT026 28/21 Q1011 NOSIG RMK  065=
METAR URKK 081430Z 07006MPS CAVOK 30/19 Q1010 NOSIG RMK QFE755 SC070=
METAR URKM 081430Z NIL=
METAR URML 081430Z 09003MPS 9999 FEW100 31/21 Q1012 NOSIG RMK QFE759
/ 07=
METAR URMM 081430Z 12005G07MPS 9999 BKN046 30/19 Q1012 NOSIG RMK 
 0M-200 / SC070=
METAR URMN 081430Z 09002MPS 9999 BKN032CB BKN110 28/18 Q1013 NOSIG
RMK / QFE723 SC07=
METAR URMT 081430Z 06005G08MPS 9999 SCT026CB BKN100 29/17 Q1014 NOSIG
RMK QFE720 SC07=
METAR URRR 081430Z 00000MPS 9999 FEW040 30/16 Q1013 NOSIG RMK SC070=
METAR URSS 081430Z 28003MPS 9999 FEW040 SCT300 28/22 Q1008 NOSIG RMK
/ QFE755 06CLRD70=
METAR URWA 081430Z 25002MPS CAVOK 37/12 Q1010 NOSIG RMK SC07=
METAR URWI 081430Z NIL=
METAR URWW 081430Z 33004MPS CAVOK 30/13 Q1013 NOSIG RMK SC070=
####018000818####
SPUS70 KWBC 081440
SPECI
KBIV 081437Z AUTO 18005KT 3/4SM +RA BR OVC001 24/22 A3004 RMK AO2
     P0037=
KFST 081437Z AUTO 36005KT 9SM BKN006 OVC013 22/21 A3012 RMK AO2
     RAE27 CIG 004V009 P0000=
KFTG 081430Z 04004KT 5SM BR BKN006 BKN011 OVC020 17/14 A3035=
KIXD 081437Z 03004KT 8SM BKN008 OVC013 24/21 A3012 RMK AO2 CIG
     008V011=
KSTJ 081437Z 03007KT 10SM BKN015 OVC021 23/20 A3012 RMK AO2=
PALG 081434Z AUTO 00000KT 10SM SCT003 06/05 A2999 RMK AO2 TSNO=
PASO 081437Z AUTO 00000KT 10SM BKN004 BKN060 OVC100 09/09 A2993
     RMK AO2 TSNO=
KBEH 081438Z AUTO 00000KT 2 1/2SM +RA BKN028 BKN034 OVC041 24/22
     A3003 RMK AO2 RAB21 P0004 $=
KUGN 081438Z VRB06KT 10SM SCT016 BKN022 25/21 A3002 RMK AO2=
KUNO 081438Z AUTO 26007KT 10SM BKN015 BKN023 BKN095 27/22 A3011
     RMK AO2=
####018000476####
SARS33 RUMS 081430
METAR ULLI 081430Z 11002MPS 9999 SCT046CB BKN066 BKN200 27/17 Q1012
TEMPO TSRA=
METAR UUDD 081430Z 15005MPS 120V180 9999 FEW050TCU BKN200 28/15 Q1015
TEMPO VRB12MPS TSRA=
METAR UUEE 081430Z 16005MPS 120V200 9999 VCTS SCT050CB BKN200 29/11
Q1015 NOSIG=
METAR UUEM 081430Z NIL=
METAR UUWW 081430Z 17003MPS 130V210 9999 SCT050CB BKN200 27/15 Q1015
24000070 NOSIG=
METAR UUMO 081430Z 20003MPS 140V240 CAVOK 27/15 Q1015 NOSIG RMK
QFE746/0995 SC060=
####018000454####
SPUS80 KWBC 081440
SPECI
KCRP 081431Z COR 03013KT 2 1/2SM -TSRA BR FEW006 BKN020CB BKN040
     26/25 A2988 RMK AO2 TSB31RAB1356 OCNL LTGICCC OHD-N TS OHD-N
     MOV NW CB E-SE MOV NW TCU DSNT NE S SW P0019=
KMSN 081437Z VRB05KT 9SM SCT014 25/21 A3004 RMK AO2=
KATT 081437Z AUTO VRB04KT 4SM -RA BR FEW007 BKN018 OVC065 25/24
     A3000 RMK AO2 RAE1357B14 P0006=
KSHV 081438Z 12005KT 10SM BKN013 BKN100 BKN280 28/24 A3006 RMK
     AO2=
####018000692####
SARS31 RUMS 081430
METAR ULAA 081430Z 31003MPS 260V360 9999 FEW033 26/17 Q1015 TEMPO
VRB14MPS TSRA RMK QFE760/1014 SC070=
METAR ULKK 081430Z NIL=
METAR ULMM 081430Z 09002MPS 050V180 9999 SCT026 BKN080 17/09 Q1017
NOSIG RMK QFE756 32190060=
METAR ULOL 081430Z NIL=
METAR ULOO 081430Z VRB02MPS P6000 -RA SCT030CB OVC200 22/19 Q1012
NOSIG RMK QFE755=
METAR ULWW 081430Z NIL=
METAR UMKK 081430Z 31006MPS P8000 FEW030 SCT200 22/15 Q1020 NOSIG RMK
QFE 764 SC07=
METAR UUBP 081430Z NIL=
METAR UUOB 081430Z NIL=
METAR UUOK 081430Z NIL=
METAR UUOO 081430Z VRB02MPS CAVOK 29/14 Q1014 NOSIG RMK 13090070=
METAR UWGG 081430Z VRB02MPS 8000 FEW033 34/09 Q1015 NOSIG RMK QFE754
18090070=
####018000374####
SAUS80 KWBC 081440
METAR
KCBE 081436Z AUTO 15003KT 7SM CLR 30/20 A3009 RMK AO1=
KSNC 081435Z AUTO 14004KT 10SM BKN015 OVC024 25/24 A3010 RMK
     AO2=
KMYT 081435Z AUTO 11015KT 10SM FEW024 FEW029 29/23 A2999 RMK
     A01=
KSCF 081440Z AUTO 13018KT 9SM 29/25 A2995 RMK A01=
KTKV 081435Z AUTO 32007KT 10SM SCT020 SCT046 22/16 A3007 RMK AO2
     T02150163=
####018003749####
SAUS70 KWBC 081440
METAR
K14Y 081439Z AUTO 26008KT 10SM CLR 22/15 A3012 RMK AO2
     T02230153=
K2G4 081435Z AUTO 00000KT 10SM CLR 26/15 A3019 RMK AO1=
K2W6 081435Z AUTO 08007KT 050V130 10SM CLR 28/21 A3003 RMK AO1=
KCGS 081440Z AUTO 15003KT 7SM CLR 32/22 A3001 RMK AO1=
KCMY 081435Z AUTO 30005KT 10SM SCT019 23/18 A3007 RMK AO2
     T02340178=
KDLL 081435Z AUTO 32006KT 10SM BKN011 23/20 A3005 RMK AO2
     T02290196=
KFDK 081436Z AUTO 00000KT 7SM CLR 36/22 A3004 RMK AO2=
KEFT 081435Z AUTO 34004KT 10SM BKN008 25/21 A3005 RMK AO2
     T02460205=
KEGV 081432Z AUTO 00000KT 10SM CLR 21/17 A3006 RMK AO2
     T02140174=
KETB 081432Z AUTO 29006KT 10SM BKN016 BKN021 25/20 A3002 RMK AO2
     P0001 T02450196=
KEZS 081435Z AUTO 02004KT 10SM SCT016 25/21 A3002 RMK AO2
     T02490206=
KGLW 081433Z AUTO 00000KT 10SM CLR 31/20 A3008 RMK AO2
     T03120202=
KHFJ 081435Z AUTO 00000KT 5SM SCT021 BKN037 OVC060 23/22 A3007 RMK
     AO1=
KLUM 081435Z AUTO 33006KT 10SM CLR 22/16 A3009 RMK AO2=
KMDZ 081435Z AUTO 01006KT 10SM CLR 22/18 A3007 RMK AO2=
KMRJ 081435Z AUTO 35006KT 10SM OVC013 25/20 A3007 RMK AO2
     T02480202=
KOEO 081435Z AUTO 30003KT 10SM CLR 22/17 A3012 RMK AO2=
KPBH 081435Z AUTO 30003KT 10SM CLR 22/17 A3009 RMK AO2=
KPCZ 081435Z AUTO 29004KT 10SM BKN013 25/21 A3002 RMK AO2
     T02530207=
KPDC 081433Z AUTO 33007KT 10SM SCT012 25/21 A3006 RMK AO2
     T02450208=
KUNI 081435Z AUTO 00000KT 10SM CLR 32/15 A3007 RMK AO2
     T03170147=
KVES 081434Z AUTO 19003KT 10SM CLR 30/21 A3007 RMK AO2
     T02950214=
KW29 081436Z AUTO 17004KT 10SM CLR 28/22 A3001 RMK AO1=
KY63 081440Z AUTO 32005KT 7SM CLR 21/16 A3012 RMK AO2
     T02060164=
K4M9 081435Z AUTO 24005KT 10SM CLR 28/24 A3007 RMK AO2=
KAEJ 081435Z AUTO 00000KT 10SM OVC016 11/08 A3046 RMK AO2=
KBVU 081435Z AUTO 14003KT 10SM CLR 28/M02 A2991 RMK AO2=
KDCM 081435Z AUTO 36005KT 7SM CLR 32/25 A3001 RMK AO2=
KHYW 081435Z AUTO 03005KT 5SM HZ CLR 31/25 A2994 RMK AO2=
KMCJ 081435Z AUTO 07008KT 5SM FEW047 25/24 A2995 RMK AO1=
KRCM 081435Z AUTO 34005KT 10SM SCT010 BKN016 BKN085 24/23 A3009
     RMK AO2=
KBBF 081535Z AUTO 13021G26KT 3SM HZ FEW022 SCT029 29/27 A2985 RMK
     A01=
KBQX 081435Z AUTO 10010G20KT 9SM FEW022 FEW029 SCT110 29/26 A2990
     RMK A01=
KDLP 081435Z AUTO 10012KT 9SM CLR 29/24 A3002 RMK A01=
KEHC 081435Z AUTO 12023KT 6SM HZ SCT018 SCT024 SCT030 29/25 A2996
     RMK A01=
KEMK 081435Z AUTO 14022G28KT 7SM FEW022 FEW028 FEW037 29/25 A2992
     RMK A01=
KGVX 081435Z AUTO 12022KT 8SM FEW021 SCT042 OVC085 M40/ A2993 RMK
     A01=
KHQI 081435Z AUTO 10028KT 6SM HZ FEW023 SCT080 SCT095 29/25 A2994
     RMK A01=
KIPN 081435Z AUTO 09014G20KT 10SM CLR 57/50 A3001 RMK A01=
KLNL 081435Z AUTO 31005KT 10SM SCT050 21/15 A3007 RMK AO2
     T02070153=
KMDJ 081435Z AUTO 10014KT 10SM CLR 29/23 A3003 RMK A01=
KMIU 081435Z AUTO 12025G32KT 8SM FEW021 SCT026 BKN034 29/25 A2984
     RMK A01=
KMZG 081435Z AUTO 00000KT 9SM CLR 29/25 A2985 RMK A01=
KRCX 081435Z AUTO 32007KT 10SM CLR 22/16 A3010 RMK AO2
     T02210162=
KRNH 081436Z AUTO 31006KT 10SM CLR 22/17 A3011 RMK AO2
     T02200169=
KRPD 081434Z AUTO 28005KT 10SM CLR 23/17 A3010 RMK AO2
     T02250169=
KRRL 081435Z AUTO 33006KT 10SM SCT020 22/17 A3007 RMK AO2
     T02200174=
KRYV 081435Z AUTO 27004KT 10SM CLR 24/21 A3003 RMK AO2=
KSTE 081435Z AUTO 31004KT 10SM OVC015 23/19 A3005 RMK AO2=
KSUW 081435Z AUTO 25007KT 10SM CLR 23/16 A3003 RMK AO2=
KUNU 081432Z AUTO 29006KT 10SM CLR 24/19 A3004 RMK AO2
     T02430194=
KVBS 081435Z AUTO 11021KT 10SM FEW018 29/25 A2997 RMK A01=
KVNP 081435Z AUTO 09017KT 9SM SCT015 SCT020 SCT024 28/26 A3001 RMK
     A01=
####018000095####
SAAL31 KWBC 081400 RRE
METAR
DABS 081430Z 34012KT CAVOK 35/06 Q1022=
DAUZ 081430Z NIL=
####018000107####
SAAO32 KWBC 081400 RRD
METAR
GABS 081430Z VRB01KT 9999 SCT030 33/21 Q1013 NOSIG=
GQPP 081430Z NIL=
####018000167####
SAAO33 KWBC 081400 RRD
METAR
GBYD 081430Z NIL=
GFLL 081430Z NIL=
GGOV 081430Z NIL=
GLRB 081430Z 21008KT 9999 BKN020 30/25 Q1012 NOSIG=
GUCY 081430Z NIL=
####018000094####
SAAS33 KWBC 081430 RRB
METAR
VTSS 081430Z 00000KT 9999 FEW020 BKN300 26/23 Q1011 A2987=
####018000075####
SAEE31 KWBC 081430 RRB
METAR
EPSC 081430Z 00000KT CAVOK 27/10 Q1021=
####018000344####
SAJP31 KWBC 081430 RRB
METAR
RJAA 081430Z 14003KT 9999 FEW010 FEW020CB BKN160 22/22 Q1011 NOSIG
     RMK 1ST010 1CB020 7AC160 A2986 CB 90KM S MOV NE=
RJCC 081430Z 19003KT 1200 R01R/0600N BR BKN002 17/17 Q1011 RMK
     7ST002 A2986=
RJTT 081430Z 19012KT 9999 FEW004 SCT012 BKN050 25/22 Q1010 RMK
     1ST004 3CU012 5SC050 A2984=
####018000132####
SAKO31 KWBC 081400 RRB
METAR
RKTU 081400Z 14004KT 8000 -RA BR BKN050 OVC100 22/20 A2983 RMK
     CIG050 SLP102 8/72/ 9/53/=
####018000053####
SANT31 KWBC 081400 RRD
METAR
GVAC 081430Z NIL=
####018001244####
SARA31 KWBC 081400 RRL
METAR
UAFO 081430Z 03002MPS 9999 FEW050 29/15 Q1018 NOSIG RMK
     QFEM685=
UEEE 081430Z 33002MPS 9999 SCT050CB OVC100 16/15 Q1008 NOSIG RMK
     QFE748 23290150=
UHHH 081430Z 03003MPS 9999 SCT020CB OVC100 15/15 Q1010 NOSIG RMK
     QFE751/1002 55090060=
UHMA 081430Z NIL=
UHMM 081430Z NIL=
UHMP 081430Z NIL=
UHPP 081430Z NIL=
UHSS 081430Z NIL=
UHWW 081430Z 08002MPS 9999 SCT013 BKN023CB OVC100 17/15 Q1011
     NOSIG RMK QFE757/1010 75CLRD70=
UIAA 081430Z NIL=
UIBB 081430Z 06003MPS 9999 FEW040 BKN200 22/12 Q1006 NOSIG RMK
     QFE712/0949 30CLRD60=
UIII 081430Z 00000MPS CAVOK 16/10 Q1007 NOSIG RMK QFE713/0951
     12CLRD60=
UIUU 081430Z 00000MPS 9999 -SHRA SCT033CB OVC100 19/15 Q1008 NOSIG
     RMK QFE712/0949 26CLRD60=
ULAA 081430Z 31003MPS 260V360 9999 FEW033 26/17 Q1015 TEMPO
     VRB14MPS TSRA RMK QFE760/1014 SC070=
UNAA 081430Z 00000MPS 9999 SCT030CB BKN100 16/14 Q1012 NOSIG RMK
     QFE736 022///55=
UNNT 081430Z 25004MPS 9999 BKN065CB 18/04 Q1007 NOSIG RMK
     QFE745/0994 25090070=
USNN 081430Z 12003MPS P6000 SCT026 17/10 Q1004 NOSIG RMK QFE748
     SC065=
UUEE 081430Z 16005MPS 120V200 9999 VCTS SCT050CB BKN200 29/11
     Q1015 NOSIG=
####018000662####
SARS31 KWBC 081400 RRD
METAR
UELL 081430Z VRB02MPS 0800 FG FEW030 BKN200 11/11 Q1012 TEMPO 0400
     VV002 RMK QFE684 08290050=
UEST 081430Z NIL=
ULLI 081430Z 11002MPS 9999 SCT046CB BKN066 BKN200 27/17 Q1012
     TEMPO TSRA=
ULMM 081430Z 09002MPS 050V180 9999 SCT026 BKN080 17/09 Q1017 NOSIG
     RMK QFE756 32190060=
UOHH 081430Z NIL=
UOOO 081430Z NIL=
UUDD 081430Z 15005MPS 120V180 9999 FEW050TCU BKN200 28/15 Q1015
     TEMPO VRB12MPS TSRA=
UUEE 081430Z 16005MPS 120V200 9999 VCTS SCT050CB BKN200 29/11
     Q1015 NOSIG=
UUEM 081430Z NIL=
UUWW 081430Z 17003MPS 130V210 9999 SCT050CB BKN200 27/15 Q1015
     24000070 NOSIG=
####018000579####
SARS33 KWBC 081400 RRC
METAR
USCC 081430Z 01004G07MPS CAVOK 24/02 Q1013 NOSIG RMK QFE740
     27000070=
USDD 081430Z NIL=
USMU 081430Z NIL=
USNN 081430Z 12003MPS P6000 SCT026 17/10 Q1004 NOSIG RMK QFE748
     SC065=
USPP 081430Z 36002MPS CAVOK 27/11 Q1015 NOSIG RMK QFE750/1000
     21090060=
USRK 081430Z NIL=
USRR 081430Z 35003MPS 7000 OVC013 13/11 Q1005 TEMPO BKN007 RMK
     QFE749 25////60=
USSS 081430Z 01005MPS CAVOK 24/01 Q1014 NOSIG RMK QFE740
     260///70=
USTR 081430Z 34003MPS CAVOK 19/07 Q1012 NOSIG RMK QFE749/0999
     30CLRD65=
####018001222####
SARS41 KWBC 081400 RRC
METAR
UUBP 081430Z NIL=
UUEE 081430Z 16005MPS 120V200 9999 VCTS SCT050CB BKN200 29/11
     Q1015 NOSIG=
UUEM 081430Z NIL=
UUOO 081430Z VRB02MPS CAVOK 29/14 Q1014 NOSIG RMK 13090070=
UUWW 081430Z 17003MPS 130V210 9999 SCT050CB BKN200 27/15 Q1015
     24000070 NOSIG=
UUYH 081430Z 16002MPS CAVOK 27/11 Q1015 NOSIG RMK QFE 750
     18CLRD60=
UUYS 081430Z 16003MPS 9999 FEW033 OVC/// 21/06 Q1014 NOSIG RMK
     QFE754 14CLRD60=
UUYY 081430Z VRB01MPS 9999 FEW036 OVC200 30/14 Q1015 NOSIG
     19CLRD61 RMK QFE752/1003=
UWGG 081430Z VRB02MPS 8000 FEW033 34/09 Q1015 NOSIG RMK QFE754
     18090070=
UWKD 081430Z 28004MPS 240V300 CAVOK 32/12 Q1014 TEMPO VRB15MPS
     3000 TSRA RMK QFE750/1000 79CLRD70=
UWKE 081430Z 06004MPS 9999 FEW040 31/10 Q1015 NOSIG RMK
     QFE744/0992 04090070=
UWLW 081430Z NIL=
UWOO 081430Z NIL=
UWPP 081430Z 16003MPS 9999 SCT033CB BKN100 32/09 Q1013 NOSIG RMK
     QFE745 11090060=
UWSS 081430Z 07004MPS CAVOK 31/09 Q1014 NOSIG RMK QFE748
     120///60=
UWUU 081430Z 35004MPS CAVOK 28/10 Q1014 82010060 NOSIG RMK
     QFE750/1000=
UWWW 081430Z 06003MPS CAVOK 31/08 Q1014 NOSIG RMK QFE747/0997
     05CLRD60 15//99//=
####018000738####
SARS32 KWBC 081400 RRC
METAR
URKA 081430Z 03005MPS 9999 SCT026 28/21 Q1011 NOSIG RMK 065=
URKK 081430Z 07006MPS CAVOK 30/19 Q1010 NOSIG RMK QFE755 SC070=
URKM 081430Z NIL=
URMM 081430Z 12005G07MPS 9999 BKN046 30/19 Q1012 NOSIG RMK 0M-200
     / SC070=
URMN 081430Z 09002MPS 9999 BKN032CB BKN110 28/18 Q1013 NOSIG RMK /
     QFE723 SC07=
URMT 081430Z 06005G08MPS 9999 SCT026CB BKN100 29/17 Q1014 NOSIG
     RMK QFE720 SC07=
URRR 081430Z 00000MPS 9999 FEW040 30/16 Q1013 NOSIG RMK SC070=
URSS 081430Z 28003MPS 9999 FEW040 SCT300 28/22 Q1008 NOSIG RMK /
     QFE755 06CLRD70=
URWA 081430Z 25002MPS CAVOK 37/12 Q1010 NOSIG RMK SC07=
URWI 081430Z NIL=
URWW 081430Z 33004MPS CAVOK 30/13 Q1013 NOSIG RMK SC070=
####018001204####
SAXX99 KWBC 081400 RRX
METAR
EPLL 081430Z 33006KT 280V020 CAVOK 24/06 Q1021=
MMPA 081445Z 29005KT 5SM SCT030 SCT070 BKN280 29/24 A2988 RMK
     SLP109 52015 905 8/133 HZY DSNT CB, TCU 1,2 QUAD=
UERP 081430Z NIL=
UERR 081430Z NIL=
UESO 081430Z NIL=
UHNN 081430Z NIL=
UHSH 081430Z NIL=
ULDD 081430Z NIL=
ULKK 081430Z NIL=
ULOL 081430Z NIL=
ULOO 081430Z VRB02MPS P6000 -RA SCT030CB OVC200 22/19 Q1012 NOSIG
     RMK QFE755=
ULWW 081430Z NIL=
UMKK 081430Z 31006MPS P8000 FEW030 SCT200 22/15 Q1020 NOSIG RMK
     QFE 764 SC07=
UNBB 081430Z 15004MPS 9999 SCT040 SCT100 14/11 Q1009 NOSIG RMK
     QFE735=
UNEE 081430Z 21004MPS 9999 SCT033CB BKN066 OVC200 16/10 Q1009
     NOSIG RMK QFE734 23CLRD60=
UNKL 081430Z 00000MPS 9999 SCT030CB BKN083 13/12 Q1011 NOSIG RMK
     QFE732 29////55=
UNOO 081430Z 31005MPS 9999 BKN025CB 14/10 Q1008 NOSIG 25CLRD06 RMK
     QFE747=
UNWW 081430Z 14002MPS 9999 SCT026 OVC130 13/11 Q1011 NOSIG RMK
     QFE731 19CLRD70=
UOII 081430Z NIL=
URML 081430Z 09003MPS 9999 FEW100 31/21 Q1012 NOSIG RMK QFE759 /
     07=
UWLL 081430Z 06005MPS 9999 SCT050CB 31/12 Q1014 NOSIG RMK
     QFE748/0998 SC065=
UWOR 081430Z NIL=
####018000084####
SPUS73 KWBC 081440
SPECI
KSTJ 081437Z 03007KT 10SM BKN015 OVC021 23/20 A3012=
####018001793####
SAEU KAWN 081400 RRX
METAR LELO 081430Z 07008KT 020V110 9999 FEW050 32/17 Q1016=
METAR LFRJ 081430Z AUTO 01010KT 340V040 9999NDV FEW024/// 23/17 Q1017=
METAR LFRZ 081430Z AUTO 18009KT 9999NDV NSC 32/08 Q1016=
METAR LJLJ 081430Z 13003KT 060V190 9999 FEW043 25/12 Q1021 NOSIG=
METAR LJMB 081430Z 19004KT 170V330 9999 FEW040 26/08 Q1021=
METAR LJPZ 081430Z 31008KT CAVOK 26/07 Q1021=
METAR LKKV 081430Z VRB01KT CAVOK 25/09 Q1022 RMK REG QNH 1020=
METAR LKMT 081430Z 01004KT 270V080 CAVOK 22/10 Q1022 NOSIG RMK REG
      QNH 1020=
METAR LKPR 081430Z 31004KT 250V040 CAVOK 26/10 Q1022 NOSIG RMK REG
      QNH 1020=
METAR LKTB 081430Z VRB02KT CAVOK 26/08 Q1021 NOSIG RMK REG QNH 1020=
METAR LPAZ 081430Z 24006KT 9999 SCT016 BKN028 22/20 Q1025=
METAR LPFL 081430Z 19006KT 130V250 9999 FEW021TCU SCT040 24/17 Q1021=
METAR LPHR 081430Z 21007KT 170V230 9999 FEW015 23/19 Q1023=
METAR LPPD 081430Z 19005KT 130V210 9999 FEW016 BKN030 21/17 Q1024=
METAR LQBK 081430Z 27004KT 9999 SCT043 24/11 Q1021 NOSIG=
METAR LRAR 081430Z 36010KT 330V050 9999 BKN045 24/12 Q1020=
METAR LRBC 081430Z 01012KT 340V040 9999 FEW024 BKN031 23/17 Q1017=
METAR LRBM 081430Z 27004KT 240V310 9999 BKN042 BKN065 21/15 Q1019=
METAR LRCL 081430Z 32004KT 280V350 9999 SCT026 SCT044 19/13 Q1020 0821//95=
METAR COR LRCV 081430Z VRB02KT 9999 FEW044 25/13 Q1017=
METAR LRCV 081430Z AUTO VRB02KT 9999 FEW044 25/13 Q1017=
METAR LRIA 081430Z 31014KT 9999 SCT020 21/17 Q1017=
METAR COR LROD 081430Z 35012KT 320V020 CAVOK 23/12 Q1020=
METAR LRSM 081430Z 35004KT 330V040 9999 BKN046 23/14 Q1020 01CLRD//=
METAR LRSV 081430Z 33015KT 9999 SCT013 BKN042 16/14 Q1019=
METAR LRTC 081430Z 35014KT 9999 SCT040 25/17 Q1014=
METAR LRTM 081430Z 27004KT 220V330 9999 SCT030 BKN035 19/14 Q1020=
####018001378####
SPZZ40 KAWN 081440 RRG
SPECI CYBC 081438Z AUTO 27002KT 7SM OVC005 OVC043 OVC061 17/15 A3001=
SPECI CYEL 081437Z 27008KT 4SM -SHRA BR OVC005 RMK SF8 WNDS ESTD=
SPECI EBBL 081436Z 24010KT 9999 FEW060 BKN220 33/10 Q1018 BLU FCST
      CANCEL=
SPECI KHIF 081436Z 08013KT 10SM SCT130 BKN200 20/07 A3016 RMK AO2A
      SLP114 BKN130 OVR S RWY=
SPECI KRIV 081434Z 30003KT 1 1/2SM BR OVC004 14/13 A2993 RMK AO2A SLP134=
SPECI KTIK 081434Z AUTO 35008KT 10SM BKN011 26/23 A3008 RMK AO2 SLP173
      $=
PASV SP 1435 AWOS CLR BLO 120 10 50/44/2803/993=
PATL SP 1435 AWOS CLR BLO 120 10 56/44/0000/000=
SPECI RJFA 081432Z 16001KT 3500 BR FEW030 SCT170 BKN/// 23/22 Q1008
      RMK 1CU030 4AC170 A2978=
SPECI RJOH 081431Z 05005KT 4500 BR FEW008 BKN010 BKN/// 25/22 Q1008
      RMK 1CU008 5CU010 A2979=
SPECI YPEA 081439Z AUTO 33016KT 4000NDV // SCT012 BKN033 OVC069 13/12
      Q0997=
SPECI YPPD 081437Z AUTO 05002KT 9999NDV // SCT030 SCT039 BKN047 22/21
      Q1010=
SPECI YPPH 081430Z 35010KT 3000 -SHRA FEW009 BKN025 BKN058 13/13 Q0996
      RMK WBD 0.3 FM1430 31014G25KT 9999 -SHRA BKN020 INTER
      1430/1730 29030G50KT 2000 TSGS BKN010 FEW030CB=
SPECI YPPH 081434Z 30019G30KT 2500 SHRA FEW009 BKN026 BKN048 13/13
      Q0996 RMK WBD 0.3 FM1435 31014G25KT 9999 -SHRA BKN020 INTER
      1435/1735 29030G50KT 2000 TSGS BKN010 FEW030CB=
####018000874####
SARS32 RUMS 081430
METAR URKA 081430Z 03005MPS 9999 SCT026 28/21 Q1011 NOSIG RMK уг 065=
METAR URKK 081430Z 07006MPS CAVOK 30/19 Q1010 NOSIG RMK QFE755 SC070=
METAR URKM 081430Z NIL=
METAR URML 081430Z 09003MPS 9999 FEW100 31/21 Q1012 NOSIG RMK QFE759
з/п уг07=
METAR URMM 081430Z 12005G07MPS 9999 BKN046 30/19 Q1012 NOSIG RMK хнто
фхтв 0M-200 з/п SC070=
METAR URMN 081430Z 09002MPS 9999 BKN032CB BKN110 28/18 Q1013 NOSIG
RMK з/п QFE723 SC07=
METAR URMT 081430Z 06005G08MPS 9999 SCT026CB BKN100 29/17 Q1014 NOSIG
RMK QFE720 SC07=
METAR URRR 081430Z 00000MPS 9999 FEW040 30/16 Q1013 NOSIG RMK SC070=
METAR URSS 081430Z 28003MPS 9999 FEW040 SCT300 28/22 Q1008 NOSIG RMK
з/п QFE755 06CLRD70=
METAR URWA 081430Z 25002MPS CAVOK 37/12 Q1010 NOSIG RMK SC07=
METAR URWI 081430Z NIL=
METAR URWW 081430Z 33004MPS CAVOK 30/13 Q1013 NOSIG RMK SC070=
####018000102####
SPAU32 YBBN 081439
SPECI YPEA 081439Z AUTO 33016KT 4000NDV // SCT012 BKN033 OVC069 13/12
Q0997=
####018002951####
SAUS20 KNKA 081440
METAR KIKW 081433Z AUTO 29007KT 10SM SCT012 SCT120 25/21 A3001 RMK
     AO2 T02510212=
SPECI KISW 081439Z AUTO 31005KT 10SM BKN010 OVC014 22/19 A3007 RMK 
    AO2 CIG 008V011 TSNO=
METAR KJKJ 081434Z AUTO 29005KT 10SM CLR 22/16 A3008 RMK AO2=
METAR KJMR 081438Z AUTO 26005KT 10SM CLR 22/15 A3011 RMK AO2=
METAR KJZI 081435Z AUTO 31007KT 10SM CLR 32/22 A2995 RMK A02 P000 
     =
METAR KLJF 081432Z AUTO 28005KT 10SM CLR 23/17 A3013 RMK AO2=
METAR KLRJ 081435Z AUTO 04003KT 10SM CLR 22/15 A3018 RMK AO2=
METAR KLVN 081428Z AUTO 27005KT 10SM CLR 22/18 A3011 RMK AO2=
METAR KLXL 081434Z AUTO 26006KT 10SM CLR 22/14 A3009 RMK AO2=
METAR KLYV 081438Z AUTO 27004KT 10SM CLR 22/15 A3018 RMK AO2=
METAR KMDS 081425Z AUTO 26006KT 10SM CLR 21/16 A3018 RMK AO2=
METAR KMGG 081435Z AUTO 27006KT 10SM CLR 23/17 A3012 RMK AO2
     T02280169=
METAR KMJQ 081432Z AUTO 30003KT 10SM CLR 21/16 A3018 RMK AO2=
METAR KMOX 081430Z AUTO 31008KT 10SM CLR 23/17 A3008 RMK AO2=
METAR KMPZ 081435Z AUTO 01004KT 10SM CLR 23/20 A3007 RMK AO2=
METAR KMRT 081433Z AUTO 23003KT 10SM CLR 30/19 A3010 RMK AO2
     T02980192=
SPECI KMSN 081437Z VRB05KT 9SM SCT014 25/21 A3004 RMK AO2=
METAR KMUT 081435Z AUTO 31006KT 10SM CLR 25/22 A3006 RMK AO2=
METAR KMVE 081434Z AUTO 30005KT 10SM CLR 23/18 A3011 RMK AO2=
METAR KMWM 081433Z AUTO 31005KT 10SM CLR 23/16 A3015 RMK AO2=
METAR KMXO 081435Z AUTO 34006KT 10SM BKN013 23/22 A3007 RMK AO2=
METAR KONA 081431Z AUTO 30006KT 10SM SCT019 23/17 A3008 RMK
     AO2=
METAR KORC 081435Z AUTO 35005KT 10SM CLR 23/17 A3017 RMK AO2=
METAR KOVL 081434Z AUTO 30005KT 10SM CLR 22/16 A3013 RMK AO2
     T02200158=
METAR KOXV 081435Z AUTO 35009KT 10SM SCT013 24/21 A3011 RMK AO2=
METAR KPEA 081435Z AUTO 01007KT 10SM SCT012 25/21 A3011 RMK AO2=
METAR KPEX 081433Z AUTO 27008KT 10SM CLR 23/16 A3013 RMK AO2
     T02270156=
METAR KPNM 081433Z AUTO 28006KT 10SM CLR 23/16 A3010 RMK AO2=
METAR KPQN 081433Z AUTO 32007KT 10SM CLR 22/16 A3018 RMK AO2=
METAR KPWC 081433Z AUTO 27003KT 10SM CLR 21/14 A3010 RMK AO2=
METAR KRDK 081435Z AUTO 02003KT 10SM CLR 25/19 A3014 RMK AO2=
METAR KROS 081435Z AUTO 28004KT 10SM CLR 23/16 A3010 RMK AO2
     T02270163=
METAR KROX 081434Z AUTO 28008G14KT 10SM SCT085 20/16 A3004 RMK
     AO2=
METAR KRRT 081434Z AUTO 27009KT 10SM CLR 19/14 A3004 RMK AO2=
METAR KSAZ 081434Z AUTO 23004KT 10SM CLR 22/19 A3010 RMK AO2=
METAR KSDA 081435Z AUTO 03005KT 10SM CLR 23/18 A3015 RMK AO2=
METAR KSGS 081433Z AUTO 31007KT 10SM CLR 23/16 A3010 RMK AO2
     T02320164=
METAR KSHL 081435Z AUTO 34004KT 10SM CLR 22/17 A3019 RMK AO2=
SPECI KSHV 081438Z 12005KT 10SM BKN013 BKN100 BKN280 28/24 A3006
     RMK AO2=
METAR KSPF 081435Z AUTO 00000KT 10SM CLR 19/10 A3030 RMK AO2 =
METAR KSYN 081450Z AUTO 31003KT 10SM CLR 23/17 A3011 RMK AO2
     T02250173=
METAR KTEW 081421Z AUTO 15003KT 10SM CLR 27/21 A3003 RMK AO2=
####018002952####
SAUS20 KNKA 081440
METAR K29G 081434Z AUTO 26004KT 10SM CLR 29/19 A3008 RMK AO2
     T02880187 PWINO=
METAR KAEL 081431Z AUTO 35006KT 10SM CLR 21/17 A3013 RMK AO2=
METAR KAIT 081433Z AUTO 25003KT 10SM CLR 22/19 A3007 RMK AO2=
METAR KAWG 081435Z AUTO 01006KT 10SM CLR 25/20 A3008 RMK AO2=
METAR KAXA 081435Z AUTO 35007KT 10SM CLR 22/17 A3015 RMK AO2=
METAR KBBB 081433Z AUTO 29005KT 10SM CLR 23/18 A3012 RMK AO2=
METAR KBNW 081435Z AUTO 35008KT 10SM SCT014 23/19 A3014 RMK AO2=
METAR KCAV 081435Z AUTO 01009KT 10SM CLR 23/17 A3014 RMK AO2=
METAR KCBF 081435Z AUTO 02008KT 10SM CLR 23/16 A3016 RMK AO2=
METAR KCCY 081435Z AUTO 32012G19KT 10SM CLR 23/17 A3012 RMK AO2=
SPECI KCEC 081439Z AUTO 34004KT 1 1/4SM BR OVC001 10/09 A2997 RMK 
    AO2=
METAR KCIN 081435Z AUTO 01007KT 10SM CLR 22/16 A3017 RMK AO2=
METAR KCNC 081435Z AUTO 01008KT 10SM CLR 23/20 A3011 RMK AO2=
METAR KCSQ 081435Z AUTO 02008KT 10SM SCT017 23/20 A3014 RMK AO2=
METAR KCVH 081430Z AUTO 00000KT 5SM OVC008 13/12 A2994 RMK AO1=
METAR KDEH 081435Z AUTO 36010KT 10SM CLR 24/17 A3012 RMK AO2=
METAR KDNS 081435Z AUTO 02007KT 10SM CLR 22/17 A3019 RMK AO2=
SPECI KDWH 081439Z 07003KT 7SM -RA SCT018 24/23 A3000 RMK AO2 P0004=
METAR KDXX 081434Z AUTO 00000KT 10SM CLR 23/19 A3011 RMK AO2=
METAR KEFK 081436Z AUTO 19005KT 10SM CLR 29/21 A3005 RMK AO2=
METAR KELO 081433Z AUTO 28008KT 10SM CLR 22/14 A3002 RMK AO2 LTG
     DSNT N=
METAR KEOK 081435Z AUTO 00000KT 10SM OVC011 25/21 A3007 RMK AO2=
METAR KEVM 081432Z AUTO 25007KT 10SM CLR 23/16 A3003 RMK AO1=
METAR KFBL 081434Z AUTO 28004KT 10SM CLR 22/16 A3014 RMK AO2=
METAR KFFL 081435Z AUTO 35004KT 10SM CLR 25/22 A3009 RMK AO2=
METAR KFFM 081433Z AUTO 29003KT 10SM CLR 20/16 A3009 RMK AO2=
METAR KFGN 081434Z AUTO 29008KT 1 3/4SM HZ BKN080 18/14 A3000 RMK
     AO2 VIS 3/4V4=
METAR KFSO 081438Z AUTO 22003KT 7SM CLR 31/24 A3000 RMK AO2=
METAR KFSW 081435Z AUTO 01006KT 7SM BKN010 25/22 A3007 RMK AO2=
METAR KFXY 081435Z AUTO 36008KT 10SM CLR 21/16 A3014 RMK AO2=
METAR KGDB 081431Z AUTO 26006KT 10SM CLR 22/17 A3015 RMK AO2
     T02210170=
METAR KGGI 081435Z AUTO 35008KT 10SM SCT010 SCT014 24/21 A3011 
     RMK AO2=
METAR KGHW 081433Z AUTO 27006KT 10SM CLR 22/15 A3014 RMK AO2=
METAR KGYL 081434Z AUTO 30008KT 10SM CLR 22/16 A3012 RMK AO2
     T02200160=
METAR KHCD 081432Z AUTO 28006KT 10SM CLR 22/16 A3013 RMK AO2
     T02210162=
METAR KHCO 081434Z AUTO 33007KT 10SM CLR 19/16 A3009 RMK AO2=
METAR KHNR 081435Z AUTO 04008KT 10SM CLR 21/17 A3019 RMK AO2=
METAR KHZX 081431Z AUTO 27006KT 10SM CLR 22/15 A3008 RMK AO2=
METAR KI75 081435Z AUTO 35008KT 7SM SCT010 22/19 A3012 RMK AO2=
METAR KICL 081435Z AUTO 01007KT 10SM CLR 24/17 A3013 RMK AO2=
METAR KIFA 081435Z AUTO 35007KT 10SM SCT110 24/20 A3013 RMK AO2=
METAR KIIB 081435Z AUTO 34008KT 10SM CLR 23/19 A3010 RMK AO1=
METAR KIKV 081435Z AUTO 02007KT 10SM CLR 23/20 A3013 RMK AO2=
####018000489####
SAUS20 KNKA 081440
METAR KTKC 081433Z AUTO 29006KT 10SM CLR 23/16 A3015 RMK AO2
     T02280156=
METAR KTNU 081435Z AUTO 36010KT 10SM SCT014 24/22 A3012 RMK AO2=
METAR KTOB 081435Z AUTO 00000KT 10SM CLR 22/17 A3013 RMK AO2=
METAR KTWM 081433Z AUTO 24006KT 10SM CLR 23/15 A3002 RMK AO2=
METAR KULM 081435Z AUTO 32006KT 10SM CLR 22/16 A3013 RMK AO2=
METAR KVTI 081435Z AUTO 34005KT 10SM CLR 25/20 A3009 RMK AO2=
METAR KVVV 081436Z AUTO 27005KT 10SM CLR 23/16 A3012 RMK AO2=
####018000077####
SPCN48 CWAO 081438
SPECI CYHA 081438Z 12002KT 4SM -DZ OVC004 RMK ST8=

####018000153####
SAUS44 KCRP 081440
MTRNGP
SPECI KNGP 081439Z 07006KT 10SM FEW010 SCT019TCU SCT032 27/26 A2985 
RMK AO2 RAE39 TCU DSNT SE-S AND W-NW WR// P0000 $
####018000101####
SAUS46 KLOX 081440
MTR3A6
METAR K3A6 081530Z AUTO 36001KT 12/11 A2990 RMK AO1 SLP146 T01170110
####018000112####
SAMH31 PKWA 081440
METAR PKWA 081440Z AUTO 08011KT 10SM SCT023 BKN029 BKN050 26/24 A2981 RMK AO2 T02620236=
####018003680####
SAUS99 KWBC 081441
METAR
KFPK 081436Z AUTO 00000KT 10SM CLR 27/20 A3001 RMK AO2=
KMOP 081434Z AUTO 00000KT 7SM DZ SCT036 BKN060 OVC075 23/23 A3001
     RMK AO2=
KCAD 081435Z AUTO 26005KT 5SM RA SCT010 SCT016 OVC030 22/21 A3004
     RMK AO2=
KMGN 081435Z AUTO 25003KT 1 3/4SM BR OVC004 21/20 A2999 RMK
     AO2=
KHAI 081435Z AUTO 21003KT 7SM SCT060 BKN075 OVC090 25/23 A3004 RMK
     AO2=
KLWA 081436Z AUTO 32006KT 5SM -RA SCT013 BKN025 OVC030 23/21 A3003
     RMK AO2=
KDRM 081436Z AUTO 25004KT 3SM -RA OVC004 21/20 A2998 RMK AO2=
KVLL 081434Z AUTO 26003KT 10SM CLR 31/18 A3004 RMK AO2=
KCFS 081435Z AUTO 26006KT 10SM SCT060 SCT080 SCT090 28/21 A3002
     RMK AO2=
KOZW 081435Z AUTO 00000KT 10SM CLR 30/20 A3003 RMK AO2=
KRNP 081435Z AUTO 00000KT 10SM CLR 29/21 A3001 RMK AO2=
KDUH 081435Z AUTO 21003KT 10SM CLR 31/18 A3003 RMK AO2=
KJYM 081435Z AUTO 24004KT 10SM CLR 28/21 A3005 RMK AO2=
KBAX 081435Z AUTO 28006KT 10SM CLR 28/23 A3001 RMK AO2=
KIRS 081435Z AUTO 25004KT 7SM -RA SCT050 SCT080 26/22 A3004 RMK
     AO2=
KACB 081435Z AUTO 00000KT 10SM OVC011 24/22 A3000 RMK AO2=
KRQB 081434Z AUTO 00000KT 3SM RA SCT009 BKN030 OVC045 23/22 A3003
     RMK AO2=
KOEB 081435Z AUTO 16003KT 10SM CLR 28/23 A3003 RMK AO2=
K4I3 081436Z AUTO 22003KT 10SM CLR 30/21 A3008 RMK AO2=
KAUM 081435Z AUTO 34010KT 10SM CLR 22/16 A3012 RMK AO2=
KFFX 081435Z AUTO 31005KT 1 1/2SM +RA BKN006 OVC012 22/22 A3002
     RMK AO2=
KCNB 081437Z AUTO 25007KT 10SM CLR 24/15 A3015 RMK AO2
     T02400145=
KCKN 081435Z AUTO 34007KT 10SM CLR 21/14 A3008 RMK AO2=
KCFE 081435Z AUTO 28006KT 10SM CLR 23/16 A3012 RMK AO2
     T02290161=
KCQM 081437Z AUTO 27005KT 10SM CLR 21/15 A3004 RMK AO2=
KDTL 081435Z AUTO 28007KT 10SM CLR 21/10 A3011 RMK AO2=
KBDH 081435Z AUTO 26004KT 10SM CLR 22/16 A3014 RMK AO2=
KCBG 081435Z AUTO 27006KT 10SM CLR 23/18 A3009 RMK AO2=
KADC 081437Z AUTO 24005KT 10SM CLR 21/15 A3010 RMK AO2=
KHAF 081430Z AUTO 29003KT 7SM OVC006 12/10 A2996 RMK AO2=
KCKC 081435Z AUTO 22006KT 10SM CLR 22/13 A3004 RMK AO2=
KJYG 081434Z AUTO 32003KT 10SM CLR 23/20 A3016 RMK AO2=
KCOQ 081436Z AUTO 28005KT 10SM CLR 22/18 A3007 RMK AO2=
KACQ 081439Z AUTO 30004KT 10SM CLR 21/17 A3016 RMK AO2=
KRGK 081435Z AUTO 32007KT 10SM CLR 23/17 A3010 RMK AO2=
KFSE 081434Z AUTO 24008KT 10SM CLR 19/14 A3006 RMK AO2=
KY70 081435Z AUTO 30007KT 10SM SCT013 BKN070 OVC090 26/22 A3002
     RMK AO2 T02630221=
KUKT 081430Z AUTO 17004KT 10SM CLR 30/20 A3005 RMK AO1=
KFKA 081443Z AUTO 34009KT 10SM SCT015 22/17 A3012 RMK AO2
     T02150169=
K29G 081434Z AUTO 26004KT 10SM CLR 29/19 A3008 RMK AO2 T02880187
     PWINO=
KAEL 081431Z AUTO 35006KT 10SM CLR 21/17 A3013 RMK AO2=
KAIT 081433Z AUTO 25003KT 10SM CLR 22/19 A3007 RMK AO2=
KAWG 081435Z AUTO 01006KT 10SM CLR 25/20 A3008 RMK AO2=
KAXA 081435Z AUTO 35007KT 10SM CLR 22/17 A3015 RMK AO2=
KBBB 081433Z AUTO 29005KT 10SM CLR 23/18 A3012 RMK AO2=
KBNW 081435Z AUTO 35008KT 10SM SCT014 23/19 A3014 RMK AO2=
KCAV 081435Z AUTO 01009KT 10SM CLR 23/17 A3014 RMK AO2=
KCBF 081435Z AUTO 02008KT 10SM CLR 23/16 A3016 RMK AO2=
KCCY 081435Z AUTO 32012G19KT 10SM CLR 23/17 A3012 RMK AO2=
KCIN 081435Z AUTO 01007KT 10SM CLR 22/16 A3017 RMK AO2=
KCNC 081435Z AUTO 01008KT 10SM CLR 23/20 A3011 RMK AO2=
KCSQ 081435Z AUTO 02008KT 10SM SCT017 23/20 A3014 RMK AO2=
KCVH 081430Z AUTO 00000KT 5SM OVC008 13/12 A2994 RMK AO1=
KDEH 081435Z AUTO 36010KT 10SM CLR 24/17 A3012 RMK AO2=
KDNS 081435Z AUTO 02007KT 10SM CLR 22/17 A3019 RMK AO2=
KDXX 081434Z AUTO 00000KT 10SM CLR 23/19 A3011 RMK AO2=
KEFK 081436Z AUTO 19005KT 10SM CLR 29/21 A3005 RMK AO2=
####018003708####
SAUS99 KWBC 081441 RRA
METAR
KELO 081433Z AUTO 28008KT 10SM CLR 22/14 A3002 RMK AO2 LTG DSNT
     N=
KEOK 081435Z AUTO 00000KT 10SM OVC011 25/21 A3007 RMK AO2=
KEVM 081432Z AUTO 25007KT 10SM CLR 23/16 A3003 RMK AO1=
KFBL 081434Z AUTO 28004KT 10SM CLR 22/16 A3014 RMK AO2=
KFFL 081435Z AUTO 35004KT 10SM CLR 25/22 A3009 RMK AO2=
KFFM 081433Z AUTO 29003KT 10SM CLR 20/16 A3009 RMK AO2=
KFGN 081434Z AUTO 29008KT 1 3/4SM HZ BKN080 18/14 A3000 RMK AO2
     VIS 3/4V4=
KFSO 081438Z AUTO 22003KT 7SM CLR 31/24 A3000 RMK AO2=
KFSW 081435Z AUTO 01006KT 7SM BKN010 25/22 A3007 RMK AO2=
KFXY 081435Z AUTO 36008KT 10SM CLR 21/16 A3014 RMK AO2=
KGDB 081431Z AUTO 26006KT 10SM CLR 22/17 A3015 RMK AO2
     T02210170=
KGGI 081435Z AUTO 35008KT 10SM SCT010 SCT014 24/21 A3011 RMK
     AO2=
KGHW 081433Z AUTO 27006KT 10SM CLR 22/15 A3014 RMK AO2=
KGYL 081434Z AUTO 30008KT 10SM CLR 22/16 A3012 RMK AO2
     T02200160=
KHCD 081432Z AUTO 28006KT 10SM CLR 22/16 A3013 RMK AO2
     T02210162=
KHCO 081434Z AUTO 33007KT 10SM CLR 19/16 A3009 RMK AO2=
KHNR 081435Z AUTO 04008KT 10SM CLR 21/17 A3019 RMK AO2=
KHZX 081431Z AUTO 27006KT 10SM CLR 22/15 A3008 RMK AO2=
KI75 081435Z AUTO 35008KT 7SM SCT010 22/19 A3012 RMK AO2=
KICL 081435Z AUTO 01007KT 10SM CLR 24/17 A3013 RMK AO2=
KIFA 081435Z AUTO 35007KT 10SM SCT110 24/20 A3013 RMK AO2=
KIIB 081435Z AUTO 34008KT 10SM CLR 23/19 A3010 RMK AO1=
KIKV 081435Z AUTO 02007KT 10SM CLR 23/20 A3013 RMK AO2=
KTKC 081433Z AUTO 29006KT 10SM CLR 23/16 A3015 RMK AO2
     T02280156=
KTNU 081435Z AUTO 36010KT 10SM SCT014 24/22 A3012 RMK AO2=
KTOB 081435Z AUTO 00000KT 10SM CLR 22/17 A3013 RMK AO2=
KTWM 081433Z AUTO 24006KT 10SM CLR 23/15 A3002 RMK AO2=
KULM 081435Z AUTO 32006KT 10SM CLR 22/16 A3013 RMK AO2=
KVTI 081435Z AUTO 34005KT 10SM CLR 25/20 A3009 RMK AO2=
KVVV 081436Z AUTO 27005KT 10SM CLR 23/16 A3012 RMK AO2=
KIKW 081433Z AUTO 29007KT 10SM SCT012 SCT120 25/21 A3001 RMK AO2
     T02510212=
KJKJ 081434Z AUTO 29005KT 10SM CLR 22/16 A3008 RMK AO2=
KJMR 081438Z AUTO 26005KT 10SM CLR 22/15 A3011 RMK AO2=
KJZI 081435Z AUTO 31007KT 10SM CLR 32/22 A2995 RMK A02 P000=
KLJF 081432Z AUTO 28005KT 10SM CLR 23/17 A3013 RMK AO2=
KLRJ 081435Z AUTO 04003KT 10SM CLR 22/15 A3018 RMK AO2=
KLVN 081428Z AUTO 27005KT 10SM CLR 22/18 A3011 RMK AO2=
KLXL 081434Z AUTO 26006KT 10SM CLR 22/14 A3009 RMK AO2=
KLYV 081438Z AUTO 27004KT 10SM CLR 22/15 A3018 RMK AO2=
KMDS 081425Z AUTO 26006KT 10SM CLR 21/16 A3018 RMK AO2=
KMGG 081435Z AUTO 27006KT 10SM CLR 23/17 A3012 RMK AO2
     T02280169=
KMJQ 081432Z AUTO 30003KT 10SM CLR 21/16 A3018 RMK AO2=
KMOX 081430Z AUTO 31008KT 10SM CLR 23/17 A3008 RMK AO2=
KMPZ 081435Z AUTO 01004KT 10SM CLR 23/20 A3007 RMK AO2=
KMRT 081433Z AUTO 23003KT 10SM CLR 30/19 A3010 RMK AO2
     T02980192=
KMUT 081435Z AUTO 31006KT 10SM CLR 25/22 A3006 RMK AO2=
KMVE 081434Z AUTO 30005KT 10SM CLR 23/18 A3011 RMK AO2=
KMWM 081433Z AUTO 31005KT 10SM CLR 23/16 A3015 RMK AO2=
KMXO 081435Z AUTO 34006KT 10SM BKN013 23/22 A3007 RMK AO2=
KONA 081431Z AUTO 30006KT 10SM SCT019 23/17 A3008 RMK AO2=
KORC 081435Z AUTO 35005KT 10SM CLR 23/17 A3017 RMK AO2=
KOVL 081434Z AUTO 30005KT 10SM CLR 22/16 A3013 RMK AO2
     T02200158=
KOXV 081435Z AUTO 35009KT 10SM SCT013 24/21 A3011 RMK AO2=
KPEA 081435Z AUTO 01007KT 10SM SCT012 25/21 A3011 RMK AO2=
KPEX 081433Z AUTO 27008KT 10SM CLR 23/16 A3013 RMK AO2
     T02270156=
KPNM 081433Z AUTO 28006KT 10SM CLR 23/16 A3010 RMK AO2=
KPQN 081433Z AUTO 32007KT 10SM CLR 22/16 A3018 RMK AO2=
KPWC 081433Z AUTO 27003KT 10SM CLR 21/14 A3010 RMK AO2=
KRDK 081435Z AUTO 02003KT 10SM CLR 25/19 A3014 RMK AO2=
####018000670####
SAUS99 KWBC 081441 RRB
METAR
KROS 081435Z AUTO 28004KT 10SM CLR 23/16 A3010 RMK AO2
     T02270163=
KROX 081434Z AUTO 28008G14KT 10SM SCT085 20/16 A3004 RMK AO2=
KRRT 081434Z AUTO 27009KT 10SM CLR 19/14 A3004 RMK AO2=
KSAZ 081434Z AUTO 23004KT 10SM CLR 22/19 A3010 RMK AO2=
KSDA 081435Z AUTO 03005KT 10SM CLR 23/18 A3015 RMK AO2=
KSGS 081433Z AUTO 31007KT 10SM CLR 23/16 A3010 RMK AO2
     T02320164=
KSHL 081435Z AUTO 34004KT 10SM CLR 22/17 A3019 RMK AO2=
KSPF 081435Z AUTO 00000KT 10SM CLR 19/10 A3030 RMK AO2=
KSYN 081450Z AUTO 31003KT 10SM CLR 23/17 A3011 RMK AO2
     T02250173=
KTEW 081421Z AUTO 15003KT 10SM CLR 27/21 A3003 RMK AO2=
####018000392####
SPUS99 KWBC 081441
SPECI
KCEC 081439Z AUTO 34004KT 1 1/4SM BR OVC001 10/09 A2997 RMK
     AO2=
KDWH 081439Z 07003KT 7SM -RA SCT018 24/23 A3000 RMK AO2 P0004=
KISW 081439Z AUTO 31005KT 10SM BKN010 OVC014 22/19 A3007 RMK AO2
     CIG 008V011 TSNO=
KMSN 081437Z VRB05KT 9SM SCT014 25/21 A3004 RMK AO2=
KSHV 081438Z 12005KT 10SM BKN013 BKN100 BKN280 28/24 A3006 RMK
     AO2=
####018001344####
SAAU31 YBBN 081430
METAR YPAD 081430Z 04005KT CAVOK 05/03 Q1025=
METAR YBAS 081430Z AUTO 08005KT 9999NDV // NCD 07/06 Q1020=
METAR YBBN 081430Z 21007KT 9999 FEW040 13/11 Q1020
NOSIG=
METAR YBCS 081430Z 15007KT 9999 FEW025 BKN040 22/20 Q1016=
METAR YSCB 081430Z AUTO 17003KT 9999NDV // SCT027 00/M00 Q1028=
METAR YPXM 081430Z NIL=
METAR YPCC 081430Z AUTO 13013KT 9999NDV // BKN045 26/21 Q1015=
METAR YCFS 081430Z AUTO 23011KT 9999NDV // BKN063 14/09 Q1023=
METAR YPDN 081430Z 17004KT CAVOK 24/21 Q1013=
METAR YBCG 081430Z AUTO 19013KT 9999NDV // SCT028 SCT033 SCT077 15/12
Q1021=
METAR YHID 081430Z AUTO 15008KT 9999NDV // NCD 25/22 Q1013=
METAR YPJT 081430Z AUTO 26011KT 2600NDV // SCT013 BKN030 OVC061 12/11
Q0996=
METAR YPKU 081430Z AUTO 15006KT 9999NDV // SCT049 22/16 Q1015=
METAR YPLM 081430Z AUTO 26002KT 9999NDV // SCT045 OVC062 19/17 Q1010=
METAR YMML 081430Z 36009KT CAVOK 04/03 Q1028
RMK HZ
FM1500 36007KT 4000 BR SKC=
METAR YPPH 081430Z NIL=
METAR YSSY 081430Z 26009KT 9999 VCSH FEW012 SCT020 BKN030 11/10
Q1027
FM1430 22008KT 9999 -SHRA SCT020 BKN030
INTER 1430/1730 5000 SHRA BKN010=
METAR YSTW 081430Z AUTO 18008KT 9999NDV // NCD 07/05 Q1024=
METAR YPTN 081430Z AUTO 09007KT 9999NDV // NCD 23/15 Q1015=
METAR YBTL 081430Z AUTO 14008KT 9999NDV // BKN010 OVC014 21/18 Q1017=
####018001176####
SAAU32 YBBN 081430
METAR YAMB 081430Z AUTO 18006KT 9999NDV // OVC100 13/10 Q1021=
METAR YMAV 081430Z AUTO 32004KT 9999NDV // NCD 06/04 Q1028=
METAR YBRM 081430Z AUTO 01004KT 6000NDV // BKN024 OVC032 22/21 Q1012=
METAR YCIN 081430Z AUTO 09006KT //// // ////// 22/18 Q1013=
METAR YSDU 081430Z AUTO 16010KT 9999NDV // NCD 06/05 Q1026=
METAR YFRT 081430Z NIL=
METAR YGEL 081430Z AUTO 30018G28KT 9999NDV // SCT058 17/10 Q1001=
METAR YPGV 081430Z AUTO 15010KT 9999NDV // SCT012 SCT016 BKN026 24/22
Q1014=
METAR YBHM 081430Z NIL=
METAR YMHB 081430Z 31008KT CAVOK 02/00 Q1030=
METAR YPKG 081430Z AUTO 35007KT 9999NDV // NCD 16/05 Q1003=
METAR YMLT 081430Z AUTO 19004KT 0350NDV // ////// 00/M00 Q1030
RMK CLD:SKY MAY BE OBSC=
METAR YBMA 081430Z NIL=
METAR YSNF 081430Z AUTO 11008KT 9999NDV // SCT033 OVC043 15/08 Q1018=
METAR YPEA 081430Z NIL=
METAR YPPD 081430Z NIL=
METAR YSRI 081430Z AUTO 00000KT 9999NDV // SCT049 BKN061 OVC077 09/09
Q1028=
METAR YBRK 081430Z AUTO 27003KT 9999NDV // OVC028 14/12 Q1019=
METAR YWLM 081430Z AUTO 30007KT 9999NDV // SCT053 BKN065 10/10 Q1026=
METAR YPWR 081430Z AUTO 09006KT 9999NDV // NCD 06/01 Q1023=
####018000252####
SAEE31 LOWM 081430
METAR UACK 081430Z NIL=
METAR UACP 081430Z NIL=
METAR UAII 081430Z NIL=
METAR UADD 081430Z NIL=
METAR UASK 081430Z 04004MPS 9999 FEW033 FE300 21/13 Q1011
                   120/0060 NOSIG RMK QFE733=
METAR UASP 081430Z NIL=
####018000332####
SAID31 WIII 081430
METAR WIMM 081430Z 25010KT 5000 FEW016CB BKN017 28/25 Q1012 NOSIG= 
METAR WAAA 081430Z 12002KT 9999 FEW020 25/25 Q1011= 
METAR WADD 081430Z 33006KT 9999 FEW020 27/26 Q1009 NOSIG= 
METAR WIII 081430Z 25004KT 7000 SCT020 25/22 Q1013 NOSIG= 
METAR WIHH NIL=
METAR WABB NIL=
METAR WARR NIL=
METAR WIDD NIL=
####018000104####
SPAU31 KWBC 081441
SPECI
YPPD 081437Z AUTO 05002KT 9999NDV // SCT030 SCT039 BKN047 22/21
Q1010=
####018000104####
SPAU31 KWBC 081441
SPECI
YPEA 081439Z AUTO 33016KT 4000NDV // SCT012 BKN033 OVC069 13/12
Q0997=
####018000202####
SPAU31 KWBC 081441
SPECI
YPPH 081430Z 35010KT 3000 -SHRA FEW009 BKN025 BKN058 13/13 Q0996
RMK WBD 0.3 FM1430 31014G25KT 9999 -SHRA BKN020 INTER 1430/1730
29030G50KT 2000 TSGS BKN010 FEW030CB=
####018000204####
SPAU31 KWBC 081441
SPECI
YPPH 081434Z 30019G30KT 2500 SHRA FEW009 BKN026 BKN048 13/13 Q0996
RMK WBD 0.3 FM1435 31014G25KT 9999 -SHRA BKN020 INTER 1435/1735
29030G50KT 2000 TSGS BKN010 FEW030CB=
####018000080####
SPAK32 KWBC 081441
SPECI
PASV SP 1435 AWOS CLR BLO 120 10 50/44/2803/993=
####018000080####
SPAK32 KWBC 081441
SPECI
PATL SP 1435 AWOS CLR BLO 120 10 56/44/0000/000=
####018000102####
SPBX31 KWBC 081441
SPECI
EBBL 081436Z 24010KT 9999 FEW060 BKN220 33/10 Q1018 BLU FCST
CANCEL=
####018000120####
SPJP42 KWBC 081441
SPECI
RJFA 081432Z 16001KT 3500 BR FEW030 SCT170 BKN/// 23/22 Q1008 RMK
1CU030 4AC170 A2978=
####018000120####
SPJP43 KWBC 081441
SPECI
RJOH 081431Z 05005KT 4500 BR FEW008 BKN010 BKN/// 25/22 Q1008 RMK
1CU008 5CU010 A2979=
####018000094####
SAUS43 KMKX 081441
MTRMSN
SPECI KMSN 081437Z COR VRB05KT 9SM BKN015 25/21 A3004 RMK AO2
####018000094####
SPUS72 KWBC 081441
SPECI
KNGP 081439Z 07006KT 10SM FEW010 SCT019TCU SCT032 27/26 A2985=
####018000084####
SAFR36 LFPW 081430 RRA
METAR LFJR 081430Z AUTO VRB04KT 9999NDV NCD 34/10 Q1017=
####018001177####
SAAU32 YBBN 081430
METAR YAMB 081430Z AUTO 18006KT 9999NDV // OVC100 13/10 Q1021=
METAR YMAV 081430Z AUTO 32004KT 9999NDV // NCD 06/04 Q1028=
METAR YBRM 081430Z AUTO 01004KT 6000NDV // BKN024 OVC032 22/21 Q1012=
METAR YCIN 081430Z AUTO 09006KT //// // ////// 22/18 Q1013=
METAR YSDU 081430Z AUTO 16010KT 9999NDV // NCD 06/05 Q1026=
METAR YFRT 081430Z NIL=
METAR YGEL 081430Z AUTO 30018G28KT 9999NDV // SCT058 17/10 Q1001=
METAR YPGV 081430Z AUTO 15010KT 9999NDV // SCT012 SCT016 BKN026 24/22
Q1014=
METAR YBHM 081430Z NIL=
METAR YMHB 081430Z 31008KT CAVOK 02/00 Q1030=
METAR YPKG 081430Z AUTO 35007KT 9999NDV // NCD 16/05 Q1003=
METAR YMLT 081430Z AUTO 19004KT 0350NDV // ////// 00/M00 Q1030
RMK CLD:SKY MAY BE OBSC=
METAR YBMA 081430Z NIL=
METAR YSNF 081430Z AUTO 11008KT 9999NDV // SCT033 OVC043 15/08 Q1018=
METAR YPEA 081430Z NIL=
METAR YPPD 081430Z NIL=
METAR YSRI 081430Z AUTO 00000KT 9999NDV // SCT049 BKN061 OVC077 09/09
Q1028=
METAR YBRK 081430Z AUTO 27003KT 9999NDV // OVC028 14/12 Q1019=
METAR YWLM 081430Z AUTO 30007KT 9999NDV // SCT053 BKN065 10/10 Q1026=
METAR YPWR 081430Z AUTO 09006KT 9999NDV // NCD 06/01 Q1023=
####018000340####
SAID31 WIII 081430
METAR WIMM 081430Z 25010KT 5000 FEW016CB BKN017 28/25 Q1012 NOSIG= 
METAR WAAA 081430Z 12002KT 9999 FEW020 25/25 Q1011= 
METAR WADD 081430Z 33006KT 9999 FEW020 27/26 Q1009 NOSIG= 
METAR WIII 081430Z 25004KT 7000 SCT020 25/22 Q1013 NOSIG= 
METAR WIHH NIL=
METAR WABB NIL=
METAR WARR NIL=
METAR WIDD NIL=
####018000165####
SAID33 WIII 081430
METAR WABP NIL=
METAR WAJJ NIL=
METAR WAKK NIL=
METAR WAPP NIL=
METAR WARS NIL=
METAR WIAT NIL=
METAR WATT NIL=
METAR WALR NIL=
####018000259####
SAEE31 LOWM 081430
METAR UACK 081430Z NIL=
METAR UACP 081430Z NIL=
METAR UAII 081430Z NIL=
METAR UADD 081430Z NIL=
METAR UASK 081430Z 04004MPS 9999 FEW033 FE300 21/13 Q1011
                   120/0060 NOSIG RMK QFE733=
METAR UASP 081430Z NIL=
####018000236####
SAID32 WIII 081430
METAR WIPT 081430Z 00000KT 7000 R33/M0050V1100U FEW020 26/24 Q1012= 
METAR WAMM NIL=
METAR WIBB NIL=
METAR WIKN NIL=
METAR WIOO NIL=
METAR WIPP NIL=
METAR WAOO NIL=
METAR WALL NIL=
METAR WADA NIL=
####018001345####
SAAU31 YBBN 081430
METAR YPAD 081430Z 04005KT CAVOK 05/03 Q1025=
METAR YBAS 081430Z AUTO 08005KT 9999NDV // NCD 07/06 Q1020=
METAR YBBN 081430Z 21007KT 9999 FEW040 13/11 Q1020
NOSIG=
METAR YBCS 081430Z 15007KT 9999 FEW025 BKN040 22/20 Q1016=
METAR YSCB 081430Z AUTO 17003KT 9999NDV // SCT027 00/M00 Q1028=
METAR YPXM 081430Z NIL=
METAR YPCC 081430Z AUTO 13013KT 9999NDV // BKN045 26/21 Q1015=
METAR YCFS 081430Z AUTO 23011KT 9999NDV // BKN063 14/09 Q1023=
METAR YPDN 081430Z 17004KT CAVOK 24/21 Q1013=
METAR YBCG 081430Z AUTO 19013KT 9999NDV // SCT028 SCT033 SCT077 15/12
Q1021=
METAR YHID 081430Z AUTO 15008KT 9999NDV // NCD 25/22 Q1013=
METAR YPJT 081430Z AUTO 26011KT 2600NDV // SCT013 BKN030 OVC061 12/11
Q0996=
METAR YPKU 081430Z AUTO 15006KT 9999NDV // SCT049 22/16 Q1015=
METAR YPLM 081430Z AUTO 26002KT 9999NDV // SCT045 OVC062 19/17 Q1010=
METAR YMML 081430Z 36009KT CAVOK 04/03 Q1028
RMK HZ
FM1500 36007KT 4000 BR SKC=
METAR YPPH 081430Z NIL=
METAR YSSY 081430Z 26009KT 9999 VCSH FEW012 SCT020 BKN030 11/10
Q1027
FM1430 22008KT 9999 -SHRA SCT020 BKN030
INTER 1430/1730 5000 SHRA BKN010=
METAR YSTW 081430Z AUTO 18008KT 9999NDV // NCD 07/05 Q1024=
METAR YPTN 081430Z AUTO 09007KT 9999NDV // NCD 23/15 Q1015=
METAR YBTL 081430Z AUTO 14008KT 9999NDV // BKN010 OVC014 21/18 Q1017=
####018000580####
SAUS20 KNKA 081441
SPECI KAAF 081439Z AUTO 04006KT 10SM CLR 31/22 A3002 RMK AO2=
METAR KASJ 081437Z AUTO 02004KT 10SM CLR 30/23 A2999 RMK AO2=
METAR KCTZ 081440Z AUTO 04005KT 5SM HZ SCT100 31/22 A2997 RMK AO2=
SPECI KCXO 081440Z 23003KT 1/2SM +RA FG BKN008 BKN015 OVC023 24/23 
    A3000 RMK AO2 RAB23 P0036=
METAR KEBS 081435Z AUTO 36007KT 10SM CLR 22/16 A3014 RMK AO2=
METAR KFQD 081439Z AUTO 35005KT 10SM CLR 32/18 A3005 RMK AO2=
METAR KRHP 081442Z AUTO 00000KT 10SM CLR 28/21 A3011 RMK AO2=
METAR KTVK 081435Z AUTO 36006KT 10SM FEW008 21/20 A3012 RMK AO2=
####018000085####
SPCN44 CWAO 081440
SPECI CYUS 081440Z AUTO ///// 9SM FEW066 FEW087 15/ A2978=

####018000301####
SPNA14 KAWN 081441 RRE
SPECI KNQI 081438Z 04008KT 8SM -RA FEW008 BKN010CB OVC085 28/26 A2986
      RMK AO2 RAB21 CB OHD MOV W P0000 $=
SPECI KRIV 081434Z 30003KT 1 1/2SM BR OVC004 14/13 A2993 RMK AO2A SLP134=
SPECI KTIK 081434Z AUTO 35008KT 10SM BKN011 26/23 A3008 RMK AO2 SLP173
      $=
####018000688####
SAZZ40 KAWN 081400 RRV
METAR KFMH 081435Z AUTO 17009G14KT 10SM BKN015 OVC022 25/21 A3011 RMK
      AO2=
METAR KNTD 081356Z 00000KT 6SM BR OVC011 14/13 A2991 RMK A02 SLP128
      LAG PK 12/12/27007 T01440128 PNO=
METAR LKKV 081430Z VRB01KT CAVOK 25/09 Q1022 RMK REG QNH 1020=
METAR LQBK 081430Z 27004KT 9999 SCT043 24/11 Q1021 NOSIG=
METAR UACC 081430Z 01008MPS 8000 FEW193 20/04 Q1009 040/0070 NOSIG
      RMK QFE725/0967=
METAR UAFM 081430Z 24005MPS CAVOK 29/08 Q1012 NOSIG=
METAR UATT 081430Z 03006MPS 9999 NSC 32/01 Q1011 13CLRD70 NOSIG RMK
      QFE738/0985=
METAR UUYY 081430Z VRB01MPS 9999 FEW036 OVC200 30/14 Q1015 NOSIG 19CLRD61
      RMK QFE752/1003=
####018000321####
SAXX70 KAWN 081400 RRS
METAR KQFT 081430Z AUTO 19001KT 2SM BR FEW001 SCT002 BKN025 22/20 A2987
      RMK A02=
METAR KQEN 081440Z AUTO 26008KT 5SM BR BKN070 19/16 A3041 RMK A02=
METAR KQEP 081440Z AUTO 20001KT 4SM -RA OVC050 21/18 A2989 RMK A02=
METAR KQEY 081440Z AUTO 11001KT 7SM SCT055 23/20 A2962 RMK A02=
####018000107####
SAAK41 KNKA 081441
SPECI PAPB 081439Z AUTO 06016KT 10SM BKN003 OVC044 06/06 A2988 RMK 
    AO2 TSNO=
####018000214####
SPUS90 KWBC 081442
SPECI KNGP 081439Z 07006KT 10SM FEW010 SCT019TCU SCT032 27/26
     A2985 RMK AO2 RAE39 TCU DSNT SE-S AND W-NW WR// P0000 $=
SPECI KMSN 081437Z COR VRB05KT 9SM BKN015 25/21 A3004 RMK AO2=
####018003705####
SAUS90 KWBC 081442
METAR KFPK 081436Z AUTO 00000KT 10SM CLR 27/20 A3001 RMK AO2=
METAR KMOP 081434Z AUTO 00000KT 7SM DZ SCT036 BKN060 OVC075 23/23
     A3001 RMK AO2=
METAR KCAD 081435Z AUTO 26005KT 5SM RA SCT010 SCT016 OVC030 22/21
     A3004 RMK AO2=
METAR KMGN 081435Z AUTO 25003KT 1 3/4SM BR OVC004 21/20 A2999 RMK
     AO2=
METAR KHAI 081435Z AUTO 21003KT 7SM SCT060 BKN075 OVC090 25/23
     A3004 RMK AO2=
METAR KLWA 081436Z AUTO 32006KT 5SM -RA SCT013 BKN025 OVC030 23/21
     A3003 RMK AO2=
METAR KDRM 081436Z AUTO 25004KT 3SM -RA OVC004 21/20 A2998 RMK
     AO2=
METAR KVLL 081434Z AUTO 26003KT 10SM CLR 31/18 A3004 RMK AO2=
METAR KCFS 081435Z AUTO 26006KT 10SM SCT060 SCT080 SCT090 28/21
     A3002 RMK AO2=
METAR KOZW 081435Z AUTO 00000KT 10SM CLR 30/20 A3003 RMK AO2=
METAR KRNP 081435Z AUTO 00000KT 10SM CLR 29/21 A3001 RMK AO2=
METAR KDUH 081435Z AUTO 21003KT 10SM CLR 31/18 A3003 RMK AO2=
METAR KJYM 081435Z AUTO 24004KT 10SM CLR 28/21 A3005 RMK AO2=
METAR KBAX 081435Z AUTO 28006KT 10SM CLR 28/23 A3001 RMK AO2=
METAR KIRS 081435Z AUTO 25004KT 7SM -RA SCT050 SCT080 26/22 A3004
     RMK AO2=
METAR KACB 081435Z AUTO 00000KT 10SM OVC011 24/22 A3000 RMK
     AO2=
METAR KRQB 081434Z AUTO 00000KT 3SM RA SCT009 BKN030 OVC045 23/22
     A3003 RMK AO2=
METAR KOEB 081435Z AUTO 16003KT 10SM CLR 28/23 A3003 RMK AO2=
METAR K4I3 081436Z AUTO 22003KT 10SM CLR 30/21 A3008 RMK AO2=
METAR KAUM 081435Z AUTO 34010KT 10SM CLR 22/16 A3012 RMK AO2=
METAR KFFX 081435Z AUTO 31005KT 1 1/2SM +RA BKN006 OVC012 22/22
     A3002 RMK AO2=
METAR KCNB 081437Z AUTO 25007KT 10SM CLR 24/15 A3015 RMK AO2
     T02400145=
METAR KCKN 081435Z AUTO 34007KT 10SM CLR 21/14 A3008 RMK AO2=
METAR KCFE 081435Z AUTO 28006KT 10SM CLR 23/16 A3012 RMK AO2
     T02290161=
METAR KCQM 081437Z AUTO 27005KT 10SM CLR 21/15 A3004 RMK AO2=
METAR KDTL 081435Z AUTO 28007KT 10SM CLR 21/10 A3011 RMK AO2=
METAR KBDH 081435Z AUTO 26004KT 10SM CLR 22/16 A3014 RMK AO2=
METAR KCBG 081435Z AUTO 27006KT 10SM CLR 23/18 A3009 RMK AO2=
METAR KADC 081437Z AUTO 24005KT 10SM CLR 21/15 A3010 RMK AO2=
METAR KHAF 081430Z AUTO 29003KT 7SM OVC006 12/10 A2996 RMK AO2=
METAR KCKC 081435Z AUTO 22006KT 10SM CLR 22/13 A3004 RMK AO2=
METAR KJYG 081434Z AUTO 32003KT 10SM CLR 23/20 A3016 RMK AO2=
METAR KCOQ 081436Z AUTO 28005KT 10SM CLR 22/18 A3007 RMK AO2=
METAR KACQ 081439Z AUTO 30004KT 10SM CLR 21/17 A3016 RMK AO2=
METAR KRGK 081435Z AUTO 32007KT 10SM CLR 23/17 A3010 RMK AO2=
METAR KFSE 081434Z AUTO 24008KT 10SM CLR 19/14 A3006 RMK AO2=
METAR KY70 081435Z AUTO 30007KT 10SM SCT013 BKN070 OVC090 26/22
     A3002 RMK AO2 T02630221=
METAR KUKT 081430Z AUTO 17004KT 10SM CLR 30/20 A3005 RMK AO1=
METAR KFKA 081443Z AUTO 34009KT 10SM SCT015 22/17 A3012 RMK AO2
     T02150169=
METAR K3A6 081530Z AUTO 36001KT 12/11 A2990 RMK AO1 SLP146
     T01170110=
METAR KCVX 081435Z AUTO 26005KT 10SM BKN006 OVC075 23/21 A3001 RMK
     AO2=
METAR KFKS 081435Z AUTO 00000KT 10SM BKN006 BKN017 22/20 A3000 RMK
     AO2=
METAR KSLH 081435Z AUTO 23005KT 7SM -DZ BKN007 OVC012 22/22 A2998
     RMK AO2=
METAR KSJX 081436Z AUTO 29004KT 10SM OVC002 21/19 A3000 RMK
     AO2=
METAR KLDM 081436Z AUTO 24005KT 10SM OVC005 24/22 A3002 RMK
     AO2=
METAR KGOV 081435Z AUTO 22004KT 4SM -RA BKN008 BKN014 OVC031 22/22
     A3003 RMK AO2=
METAR KPZQ 081435Z AUTO 28005KT 5SM RA SCT032 BKN055 OVC065 22/22
     A3000 RMK AO2=
METAR KHYX 081436Z AUTO 28003KT 10SM SCT070 SCT090 27/20 A3001 RMK
     AO2=
METAR KPHN 081436Z AUTO 20003KT 10SM CLR 31/21 A3001 RMK AO2=
METAR KONZ 081437Z AUTO 17003KT 10SM CLR 30/23 A3001 RMK AO2=
####018001310####
SAUS90 KWBC 081442 RRA
METAR KISQ 081435Z AUTO 01006KT 10SM OVC012 23/19 A2999 RMK
     AO2=
METAR KRMY 081435Z AUTO 10004KT 10SM CLR 27/21 A3002 RMK AO2=
METAR KOSC 081434Z AUTO 23004KT 10SM SCT080 24/22 A3000 RMK
     AO2=
METAR KTTF 081434Z AUTO 29005KT 10SM CLR 32/21 A3001 RMK AO2=
METAR KAMN 081436Z AUTO 00000KT 7SM SCT075 24/22 A3001 RMK AO2=
METAR KMCD 081436Z AUTO 28003KT 1/4SM HZ OVC001 20/17 A3000 RMK
     AO2=
METAR KERY 081436Z AUTO 32004KT 10SM SCT010 BKN018 22/19 A3000 RMK
     AO2=
METAR KDVP 081436Z AUTO 29007KT 10SM CLR 22/14 A3019 RMK AO2
     T02230141=
METAR KCDD 081431Z AUTO 27004KT 10SM CLR 23/17 A3003 RMK AO2=
METAR KFOZ 081433Z AUTO 25004KT 10SM CLR 22/13 A3006 RMK AO2=
METAR KAQP 081433Z AUTO 26006KT 10SM CLR 21/19 A3011 RMK AO2=
METAR KETH 081434Z AUTO 28007KT 10SM CLR 22/16 A3012 RMK AO2=
METAR KXVG 081436Z AUTO 28005KT 10SM CLR 21/14 A3006 RMK AO2=
METAR KORB 081434Z AUTO 28008KT 10SM CLR 21/13 A3002 RMK AO2=
METAR KMZH 081431Z AUTO 27004KT 10SM CLR 22/16 A3006 RMK AO2=
METAR KBFW 081433Z AUTO 27006KT 10SM CLR 26/14 A3001 RMK AO2=
METAR KVWU 081431Z AUTO 24009KT 10SM CLR 21/16 A3004 RMK AO2=
METAR KOWA 081433Z AUTO 30006KT 10SM CLR 21/17 A3013 RMK AO2=
METAR KCDA 081435Z AUTO 17006KT 7SM CLR 28/22 A3008 RMK AO2=
####018000424####
SAUS20 KNKA 081441
SPECI KBVO 081440Z 00000KT 10SM FEW010 BKN014 BKN020 25/22 A3008 RMK 
    AO2=
METAR KBWD 081435Z AUTO 10006KT 10SM FEW011 SCT029 OVC055 25/23 
     A3007 RMK AO2 =
SPECI KDEN 081440Z 01004KT 1/4SM BR FEW007 BKN013 OVC039 16/14 A3034 
    RMK AO2 SFC VIS 3=
METAR KO22 081435Z AUTO 00000KT 10SM CLR 20/14 A2992 RMK AO1 =
SPECI KPWK 081440Z 29006KT 10SM BKN014 BKN025 26/22 A3004 RMK AO2=
####018002385####
SAUS99 KWBC 081442
METAR
KASJ 081437Z AUTO 02004KT 10SM CLR 30/23 A2999 RMK AO2=
KCTZ 081440Z AUTO 04005KT 5SM HZ SCT100 31/22 A2997 RMK AO2=
KEBS 081435Z AUTO 36007KT 10SM CLR 22/16 A3014 RMK AO2=
KFQD 081439Z AUTO 35005KT 10SM CLR 32/18 A3005 RMK AO2=
KRHP 081442Z AUTO 00000KT 10SM CLR 28/21 A3011 RMK AO2=
KTVK 081435Z AUTO 36006KT 10SM FEW008 21/20 A3012 RMK AO2=
KCVX 081435Z AUTO 26005KT 10SM BKN006 OVC075 23/21 A3001 RMK
     AO2=
KFKS 081435Z AUTO 00000KT 10SM BKN006 BKN017 22/20 A3000 RMK
     AO2=
KSLH 081435Z AUTO 23005KT 7SM -DZ BKN007 OVC012 22/22 A2998 RMK
     AO2=
KSJX 081436Z AUTO 29004KT 10SM OVC002 21/19 A3000 RMK AO2=
KLDM 081436Z AUTO 24005KT 10SM OVC005 24/22 A3002 RMK AO2=
KGOV 081435Z AUTO 22004KT 4SM -RA BKN008 BKN014 OVC031 22/22 A3003
     RMK AO2=
KPZQ 081435Z AUTO 28005KT 5SM RA SCT032 BKN055 OVC065 22/22 A3000
     RMK AO2=
KHYX 081436Z AUTO 28003KT 10SM SCT070 SCT090 27/20 A3001 RMK
     AO2=
KPHN 081436Z AUTO 20003KT 10SM CLR 31/21 A3001 RMK AO2=
KONZ 081437Z AUTO 17003KT 10SM CLR 30/23 A3001 RMK AO2=
KISQ 081435Z AUTO 01006KT 10SM OVC012 23/19 A2999 RMK AO2=
KRMY 081435Z AUTO 10004KT 10SM CLR 27/21 A3002 RMK AO2=
KOSC 081434Z AUTO 23004KT 10SM SCT080 24/22 A3000 RMK AO2=
KTTF 081434Z AUTO 29005KT 10SM CLR 32/21 A3001 RMK AO2=
KAMN 081436Z AUTO 00000KT 7SM SCT075 24/22 A3001 RMK AO2=
KMCD 081436Z AUTO 28003KT 1/4SM HZ OVC001 20/17 A3000 RMK AO2=
KERY 081436Z AUTO 32004KT 10SM SCT010 BKN018 22/19 A3000 RMK
     AO2=
KDVP 081436Z AUTO 29007KT 10SM CLR 22/14 A3019 RMK AO2
     T02230141=
KCDD 081431Z AUTO 27004KT 10SM CLR 23/17 A3003 RMK AO2=
KFOZ 081433Z AUTO 25004KT 10SM CLR 22/13 A3006 RMK AO2=
KAQP 081433Z AUTO 26006KT 10SM CLR 21/19 A3011 RMK AO2=
KETH 081434Z AUTO 28007KT 10SM CLR 22/16 A3012 RMK AO2=
KXVG 081436Z AUTO 28005KT 10SM CLR 21/14 A3006 RMK AO2=
KORB 081434Z AUTO 28008KT 10SM CLR 21/13 A3002 RMK AO2=
KMZH 081431Z AUTO 27004KT 10SM CLR 22/16 A3006 RMK AO2=
KBFW 081433Z AUTO 27006KT 10SM CLR 26/14 A3001 RMK AO2=
KVWU 081431Z AUTO 24009KT 10SM CLR 21/16 A3004 RMK AO2=
KOWA 081433Z AUTO 30006KT 10SM CLR 21/17 A3013 RMK AO2=
KCDA 081435Z AUTO 17006KT 7SM CLR 28/22 A3008 RMK AO2=
KBWD 081435Z AUTO 10006KT 10SM FEW011 SCT029 OVC055 25/23 A3007
     RMK AO2=
KO22 081435Z AUTO 00000KT 10SM CLR 20/14 A2992 RMK AO1=
####018000495####
SPUS99 KWBC 081442
SPECI
KAAF 081439Z AUTO 04006KT 10SM CLR 31/22 A3002 RMK AO2=
KCXO 081440Z 23003KT 1/2SM +RA FG BKN008 BKN015 OVC023 24/23 A3000
     RMK AO2 RAB23 P0036=
PAPB 081439Z AUTO 06016KT 10SM BKN003 OVC044 06/06 A2988 RMK AO2
     TSNO=
KBVO 081440Z 00000KT 10SM FEW010 BKN014 BKN020 25/22 A3008 RMK
     AO2=
KDEN 081440Z 01004KT 1/4SM BR FEW007 BKN013 OVC039 16/14 A3034 RMK
     AO2 SFC VIS 3=
KPWK 081440Z 29006KT 10SM BKN014 BKN025 26/22 A3004 RMK AO2=
####018003728####
SAUS70 KWBC 081442
METAR
KAEL 081431Z AUTO 35006KT 10SM CLR 21/17 A3013 RMK AO2=
KAIT 081433Z AUTO 25003KT 10SM CLR 22/19 A3007 RMK AO2=
KAWG 081435Z AUTO 01006KT 10SM CLR 25/20 A3008 RMK AO2=
KAXA 081435Z AUTO 35007KT 10SM CLR 22/17 A3015 RMK AO2=
KBBB 081433Z AUTO 29005KT 10SM CLR 23/18 A3012 RMK AO2=
KBNW 081435Z AUTO 35008KT 10SM SCT014 23/19 A3014 RMK AO2=
KCAV 081435Z AUTO 01009KT 10SM CLR 23/17 A3014 RMK AO2=
KCBF 081435Z AUTO 02008KT 10SM CLR 23/16 A3016 RMK AO2=
KCCY 081435Z AUTO 32012G19KT 10SM CLR 23/17 A3012 RMK AO2=
KCIN 081435Z AUTO 01007KT 10SM CLR 22/16 A3017 RMK AO2=
KCNC 081435Z AUTO 01008KT 10SM CLR 23/20 A3011 RMK AO2=
KCSQ 081435Z AUTO 02008KT 10SM SCT017 23/20 A3014 RMK AO2=
KCVH 081430Z AUTO 00000KT 5SM OVC008 13/12 A2994 RMK AO1=
KDEH 081435Z AUTO 36010KT 10SM CLR 24/17 A3012 RMK AO2=
KDNS 081435Z AUTO 02007KT 10SM CLR 22/17 A3019 RMK AO2=
KDXX 081434Z AUTO 00000KT 10SM CLR 23/19 A3011 RMK AO2=
KEFK 081436Z AUTO 19005KT 10SM CLR 29/21 A3005 RMK AO2=
KELO 081433Z AUTO 28008KT 10SM CLR 22/14 A3002 RMK AO2 LTG DSNT
     N=
KEOK 081435Z AUTO 00000KT 10SM OVC011 25/21 A3007 RMK AO2=
KEVM 081432Z AUTO 25007KT 10SM CLR 23/16 A3003 RMK AO1=
KFBL 081434Z AUTO 28004KT 10SM CLR 22/16 A3014 RMK AO2=
KFFL 081435Z AUTO 35004KT 10SM CLR 25/22 A3009 RMK AO2=
KFFM 081433Z AUTO 29003KT 10SM CLR 20/16 A3009 RMK AO2=
KFGN 081434Z AUTO 29008KT 1 3/4SM HZ BKN080 18/14 A3000 RMK AO2
     VIS 3/4V4=
KFSO 081438Z AUTO 22003KT 7SM CLR 31/24 A3000 RMK AO2=
KFSW 081435Z AUTO 01006KT 7SM BKN010 25/22 A3007 RMK AO2=
KFXY 081435Z AUTO 36008KT 10SM CLR 21/16 A3014 RMK AO2=
KGDB 081431Z AUTO 26006KT 10SM CLR 22/17 A3015 RMK AO2
     T02210170=
KGGI 081435Z AUTO 35008KT 10SM SCT010 SCT014 24/21 A3011 RMK
     AO2=
KGHW 081433Z AUTO 27006KT 10SM CLR 22/15 A3014 RMK AO2=
KGYL 081434Z AUTO 30008KT 10SM CLR 22/16 A3012 RMK AO2
     T02200160=
KHCD 081432Z AUTO 28006KT 10SM CLR 22/16 A3013 RMK AO2
     T02210162=
KHCO 081434Z AUTO 33007KT 10SM CLR 19/16 A3009 RMK AO2=
KHNR 081435Z AUTO 04008KT 10SM CLR 21/17 A3019 RMK AO2=
KHZX 081431Z AUTO 27006KT 10SM CLR 22/15 A3008 RMK AO2=
KICL 081435Z AUTO 01007KT 10SM CLR 24/17 A3013 RMK AO2=
KIFA 081435Z AUTO 35007KT 10SM SCT110 24/20 A3013 RMK AO2=
KIIB 081435Z AUTO 34008KT 10SM CLR 23/19 A3010 RMK AO1=
KIKV 081435Z AUTO 02007KT 10SM CLR 23/20 A3013 RMK AO2=
KTNU 081435Z AUTO 36010KT 10SM SCT014 24/22 A3012 RMK AO2=
KTOB 081435Z AUTO 00000KT 10SM CLR 22/17 A3013 RMK AO2=
KTWM 081433Z AUTO 24006KT 10SM CLR 23/15 A3002 RMK AO2=
KULM 081435Z AUTO 32006KT 10SM CLR 22/16 A3013 RMK AO2=
KVVV 081436Z AUTO 27005KT 10SM CLR 23/16 A3012 RMK AO2=
KJKJ 081434Z AUTO 29005KT 10SM CLR 22/16 A3008 RMK AO2=
KJMR 081438Z AUTO 26005KT 10SM CLR 22/15 A3011 RMK AO2=
KJZI 081435Z AUTO 31007KT 10SM CLR 32/22 A2995 RMK A02 P000=
KLJF 081432Z AUTO 28005KT 10SM CLR 23/17 A3013 RMK AO2=
KLRJ 081435Z AUTO 04003KT 10SM CLR 22/15 A3018 RMK AO2=
KLVN 081428Z AUTO 27005KT 10SM CLR 22/18 A3011 RMK AO2=
KLXL 081434Z AUTO 26006KT 10SM CLR 22/14 A3009 RMK AO2=
KMDS 081425Z AUTO 26006KT 10SM CLR 21/16 A3018 RMK AO2=
KMGG 081435Z AUTO 27006KT 10SM CLR 23/17 A3012 RMK AO2
     T02280169=
KMJQ 081432Z AUTO 30003KT 10SM CLR 21/16 A3018 RMK AO2=
KMOX 081430Z AUTO 31008KT 10SM CLR 23/17 A3008 RMK AO2=
KMPZ 081435Z AUTO 01004KT 10SM CLR 23/20 A3007 RMK AO2=
KMUT 081435Z AUTO 31006KT 10SM CLR 25/22 A3006 RMK AO2=
KMVE 081434Z AUTO 30005KT 10SM CLR 23/18 A3011 RMK AO2=
KMWM 081433Z AUTO 31005KT 10SM CLR 23/16 A3015 RMK AO2=
KMXO 081435Z AUTO 34006KT 10SM BKN013 23/22 A3007 RMK AO2=
KONA 081431Z AUTO 30006KT 10SM SCT019 23/17 A3008 RMK AO2=
####018001656####
SAUS70 KWBC 081442 RRA
METAR
KORC 081435Z AUTO 35005KT 10SM CLR 23/17 A3017 RMK AO2=
KOVL 081434Z AUTO 30005KT 10SM CLR 22/16 A3013 RMK AO2
     T02200158=
KOXV 081435Z AUTO 35009KT 10SM SCT013 24/21 A3011 RMK AO2=
KPEA 081435Z AUTO 01007KT 10SM SCT012 25/21 A3011 RMK AO2=
KPEX 081433Z AUTO 27008KT 10SM CLR 23/16 A3013 RMK AO2
     T02270156=
KPNM 081433Z AUTO 28006KT 10SM CLR 23/16 A3010 RMK AO2=
KPQN 081433Z AUTO 32007KT 10SM CLR 22/16 A3018 RMK AO2=
KPWC 081433Z AUTO 27003KT 10SM CLR 21/14 A3010 RMK AO2=
KRDK 081435Z AUTO 02003KT 10SM CLR 25/19 A3014 RMK AO2=
KROX 081434Z AUTO 28008G14KT 10SM SCT085 20/16 A3004 RMK AO2=
KRRT 081434Z AUTO 27009KT 10SM CLR 19/14 A3004 RMK AO2=
KSAZ 081434Z AUTO 23004KT 10SM CLR 22/19 A3010 RMK AO2=
KSDA 081435Z AUTO 03005KT 10SM CLR 23/18 A3015 RMK AO2=
KSGS 081433Z AUTO 31007KT 10SM CLR 23/16 A3010 RMK AO2
     T02320164=
KSHL 081435Z AUTO 34004KT 10SM CLR 22/17 A3019 RMK AO2=
KSPF 081435Z AUTO 00000KT 10SM CLR 19/10 A3030 RMK AO2=
KTEW 081421Z AUTO 15003KT 10SM CLR 27/21 A3003 RMK AO2=
KASJ 081437Z AUTO 02004KT 10SM CLR 30/23 A2999 RMK AO2=
KCTZ 081440Z AUTO 04005KT 5SM HZ SCT100 31/22 A2997 RMK AO2=
KEBS 081435Z AUTO 36007KT 10SM CLR 22/16 A3014 RMK AO2=
KFQD 081439Z AUTO 35005KT 10SM CLR 32/18 A3005 RMK AO2=
KRHP 081442Z AUTO 00000KT 10SM CLR 28/21 A3011 RMK AO2=
KTVK 081435Z AUTO 36006KT 10SM FEW008 21/20 A3012 RMK AO2=
KFMH 081435Z AUTO 17009G14KT 10SM BKN015 OVC022 25/21 A3011 RMK
     AO2=
KBWD 081435Z AUTO 10006KT 10SM FEW011 SCT029 OVC055 25/23 A3007
     RMK AO2=
KO22 081435Z AUTO 00000KT 10SM CLR 20/14 A2992 RMK AO1=
####018000668####
SPUS70 KWBC 081442
SPECI
KCEC 081439Z AUTO 34004KT 1 1/4SM BR OVC001 10/09 A2997 RMK
     AO2=
KDWH 081439Z 07003KT 7SM -RA SCT018 24/23 A3000 RMK AO2 P0004=
KISW 081439Z AUTO 31005KT 10SM BKN010 OVC014 22/19 A3007 RMK AO2
     CIG 008V011 TSNO=
KCXO 081440Z 23003KT 1/2SM +RA FG BKN008 BKN015 OVC023 24/23 A3000
     RMK AO2 RAB23 P0036=
PAPB 081439Z AUTO 06016KT 10SM BKN003 OVC044 06/06 A2988 RMK AO2
     TSNO=
KBVO 081440Z 00000KT 10SM FEW010 BKN014 BKN020 25/22 A3008 RMK
     AO2=
KDEN 081440Z 01004KT 1/4SM BR FEW007 BKN013 OVC039 16/14 A3034 RMK
     AO2 SFC VIS 3=
KPWK 081440Z 29006KT 10SM BKN014 BKN025 26/22 A3004 RMK AO2=
####018000138####
SAXX60 KWBC 081400 RRO
METAR
KNTD 081356Z 00000KT 6SM BR OVC011 14/13 A2991 RMK A02 SLP128 LAG
     PK 12/12/27007 T01440128 PNO=
####018000104####
SAXX60 KWBC 081442
METAR
KMRT 081433Z AUTO 23003KT 10SM CLR 30/19 A3010 RMK AO2
     T02980192=
####018000502####
SPXX60 KWBC 081442
SPECI
KHIF 081436Z 08013KT 10SM SCT130 BKN200 20/07 A3016 RMK AO2A
     SLP114 BKN130 OVR S RWY=
KRIV 081434Z 30003KT 1 1/2SM BR OVC004 14/13 A2993 RMK AO2A
     SLP134=
KTIK 081434Z AUTO 35008KT 10SM BKN011 26/23 A3008 RMK AO2 SLP173
     $=
PASV SP 1435 AWOS CLR BLO 120 10 50/44/2803/993=
PATL SP 1435 AWOS CLR BLO 120 10 56/44/0000/000=
KNGP 081439Z 07006KT 10SM FEW010 SCT019TCU SCT032 27/26 A2985 RMK
     AO2 RAE39 TCU DSNT SE-S AND W-NW WR// P0000 $=
####018000527####
SAUS80 KWBC 081442
METAR
K29G 081434Z AUTO 26004KT 10SM CLR 29/19 A3008 RMK AO2 T02880187
     PWINO=
KTKC 081433Z AUTO 29006KT 10SM CLR 23/16 A3015 RMK AO2
     T02280156=
KVTI 081435Z AUTO 34005KT 10SM CLR 25/20 A3009 RMK AO2=
KIKW 081433Z AUTO 29007KT 10SM SCT012 SCT120 25/21 A3001 RMK AO2
     T02510212=
KLYV 081438Z AUTO 27004KT 10SM CLR 22/15 A3018 RMK AO2=
KROS 081435Z AUTO 28004KT 10SM CLR 23/16 A3010 RMK AO2
     T02270163=
K3A6 081530Z AUTO 36001KT 12/11 A2990 RMK AO1 SLP146 T01170110=
####018000278####
SPUS80 KWBC 081442
SPECI
KMSN 081437Z VRB05KT 9SM SCT014 25/21 A3004 RMK AO2=
KSHV 081438Z 12005KT 10SM BKN013 BKN100 BKN280 28/24 A3006 RMK
     AO2=
KMSN 081437Z COR VRB05KT 9SM BKN015 25/21 A3004 RMK AO2=
KAAF 081439Z AUTO 04006KT 10SM CLR 31/22 A3002 RMK AO2=
####018000104####
SAUS80 KWBC 081500
METAR
KSYN 081450Z AUTO 31003KT 10SM CLR 23/17 A3011 RMK AO2
     T02250173=
####018001375####
SAAU31 KWBC 081400 RRC
METAR
YBAS 081430Z AUTO 08005KT 9999NDV // NCD 07/06 Q1020=
YBBN 081430Z 21007KT 9999 FEW040 13/11 Q1020 NOSIG=
YBCG 081430Z AUTO 19013KT 9999NDV // SCT028 SCT033 SCT077 15/12
     Q1021=
YBCS 081430Z 15007KT 9999 FEW025 BKN040 22/20 Q1016=
YBMA 081430Z NIL=
YBRK 081430Z AUTO 27003KT 9999NDV // OVC028 14/12 Q1019=
YBRM 081430Z AUTO 01004KT 6000NDV // BKN024 OVC032 22/21 Q1012=
YBTL 081430Z AUTO 14008KT 9999NDV // BKN010 OVC014 21/18 Q1017=
YMHB 081430Z 31008KT CAVOK 02/00 Q1030=
YMML 081430Z 36009KT CAVOK 04/03 Q1028 RMK HZ FM1500 36007KT 4000
     BR SKC=
YPAD 081430Z 04005KT CAVOK 05/03 Q1025=
YPCC 081430Z AUTO 13013KT 9999NDV // BKN045 26/21 Q1015=
YPDN 081430Z 17004KT CAVOK 24/21 Q1013=
YPEA 081430Z NIL=
YPLM 081430Z AUTO 26002KT 9999NDV // SCT045 OVC062 19/17 Q1010=
YPPD 081430Z NIL=
YPPH 081430Z NIL=
YPTN 081430Z AUTO 09007KT 9999NDV // NCD 23/15 Q1015=
YPXM 081430Z NIL=
YSCB 081430Z AUTO 17003KT 9999NDV // SCT027 00/M00 Q1028=
YSDU 081430Z AUTO 16010KT 9999NDV // NCD 06/05 Q1026=
YSNF 081430Z AUTO 11008KT 9999NDV // SCT033 OVC043 15/08 Q1018=
YSRI 081430Z AUTO 00000KT 9999NDV // SCT049 BKN061 OVC077 09/09
     Q1028=
YSSY 081430Z 26009KT 9999 VCSH FEW012 SCT020 BKN030 11/10 Q1027
     FM1430 22008KT 9999 -SHRA SCT020 BKN030 INTER 1430/1730 5000
     SHRA BKN010=
####018000113####
SAAW34 KWBC 081415 RRE
METAR
UACP 081430Z NIL=
UADD 081430Z NIL=
UAII 081430Z NIL=
UASP 081430Z NIL=
####018000107####
SAPA41 KWBC 081400 RRC
METAR
PKWA 081440Z AUTO 08011KT 10SM SCT023 BKN029 BKN050 26/24
     A2981=
####018000200####
SAEE32 KWBC 081430 RRA
METAR
LRAR 081430Z 36010KT 330V050 9999 BKN045 24/12 Q1020=
LRTC 081430Z 35014KT 9999 SCT040 25/17 Q1014=
LRTM 081430Z 27004KT 220V330 9999 SCT030 BKN035 19/14 Q1020=
####018000258####
SAEM31 KWBC 081430 RRB
METAR
LKMT 081430Z 01004KT 270V080 CAVOK 22/10 Q1022 NOSIG RMK REG QNH
     1020=
LKPR 081430Z 31004KT 250V040 CAVOK 26/10 Q1022 NOSIG RMK REG QNH
     1020=
LKTB 081430Z VRB02KT CAVOK 26/08 Q1021 NOSIG RMK REG QNH 1020=
####018000107####
SAPQ31 KWBC 081400 RRE
METAR
PKWA 081440Z AUTO 08011KT 10SM SCT023 BKN029 BKN050 26/24
     A2981=
####018000198####
SAID31 KWBC 081400 RRB
METAR
WAAA 081430Z 12002KT 9999 FEW020 25/25 Q1011=
WIII 081430Z 25004KT 7000 SCT020 25/22 Q1013 NOSIG=
WIMM 081430Z 25010KT 5000 FEW016CB BKN017 28/25 Q1012 NOSIG=
####018000125####
SAPA31 KWBC 081400 RRE
METAR
PKWA 081440Z AUTO 08011KT 10SM SCT023 BKN029 BKN050 26/24 A2981
     RMK AO2 T02620236=
####018000379####
SARS32 KWBC 081400 RRD
METAR
URKA 081430Z 03005MPS 9999 SCT026 28/21 Q1011 NOSIG RMK уг 065=
URMM 081430Z 12005G07MPS 9999 BKN046 30/19 Q1012 NOSIG RMK хнто
     фхтв 0M-200 з/п SC070=
URMN 081430Z 09002MPS 9999 BKN032CB BKN110 28/18 Q1013 NOSIG RMK
     з/п QFE723 SC07=
URSS 081430Z 28003MPS 9999 FEW040 SCT300 28/22 Q1008 NOSIG RMK з/п
     QFE755 06CLRD70=
####018000125####
SAXX62 KWBC 081400 RRC
METAR
PKWA 081440Z AUTO 08011KT 10SM SCT023 BKN029 BKN050 26/24 A2981
     RMK AO2 T02620236=
####018000867####
SAXX99 KWBC 081400 RRX
METAR
LKKV 081430Z VRB01KT CAVOK 25/09 Q1022 RMK REG QNH 1020=
UACK 081430Z NIL=
URML 081430Z 09003MPS 9999 FEW100 31/21 Q1012 NOSIG RMK QFE759 з/п
     уг07=
WADD 081430Z 33006KT 9999 FEW020 27/26 Q1009 NOSIG=
YAMB 081430Z AUTO 18006KT 9999NDV // OVC100 13/10 Q1021=
YBHM 081430Z NIL=
YCIN 081430Z AUTO 09006KT //// // ////// 22/18 Q1013=
YFRT 081430Z NIL=
YMAV 081430Z AUTO 32004KT 9999NDV // NCD 06/04 Q1028=
YMLT 081430Z AUTO 19004KT 0350NDV // ////// 00/M00 Q1030 RMK
     CLD:SKY MAY BE OBSC=
YPGV 081430Z AUTO 15010KT 9999NDV // SCT012 SCT016 BKN026 24/22
     Q1014=
YPKG 081430Z AUTO 35007KT 9999NDV // NCD 16/05 Q1003=
YPKU 081430Z AUTO 15006KT 9999NDV // SCT049 22/16 Q1015=
YSTW 081430Z AUTO 18008KT 9999NDV // NCD 07/05 Q1024=
YWLM 081430Z AUTO 30007KT 9999NDV // SCT053 BKN065 10/10 Q1026=
####018000083####
SAUS43 KWBC 081400 RRI
METAR
KPHN 081436Z AUTO 20003KT 10SM CLR 31/21 A3001=
####018000080####
SPUS53 KWBC 081442
SPECI
KMSN 081437Z COR VRB05KT 9SM BKN015 25/21 A3004=
####018000080####
SPUS73 KWBC 081442
SPECI
KMSN 081437Z COR VRB05KT 9SM BKN015 25/21 A3004=
####018000088####
SPUS74 KWBC 081442
SPECI
KCEC 081439Z AUTO 34004KT 1 1/4SM BR OVC001 10/09 A2997=
####018000136####
SAUS44 KEWX 081442
MTRATT
SPECI KATT 081440Z AUTO VRB03KT 4SM -RA BR BKN009 BKN018 OVC065 
25/24 A3000 RMK AO2 RAE1357B14 P0007
####018000083####
SAUS74 KWBC 081400 RRE
METAR
KNTD 081356Z 00000KT 6SM BR OVC011 14/13 A2991=
####018000080####
SPUS81 KWBC 081442
SPECI
KMSN 081437Z COR VRB05KT 9SM BKN015 25/21 A3004=
####018000078####
SACN59 CWAO 081400 RRG
XVW SA 1400 AUTO8 M M M M/17/12/2203/M/ M 76MM=

####018000156####
SACN45 CWAO 081400 RRB
METAR CYRA 081400Z 22004KT 15SM VCSH BKN046 OVC077 15/12 A2994 RMK
SC3AC2 20.7/12.1/0/NIL /R02AFT00Z/ OBS TAKEN +29 SLP144=

####018000083####
SACN88 CWAO 081400 RRE
WNS SA 1400 AUTO8 M M M 194/28/17/MMMM/M/ 8008 19MM=

####018000284####
SPUS17 KAWN 081442 RRF
SPECI KFSI 081439Z AUTO VRB04KT 10SM BKN016 27/22 A3007 RMK AO2 CIG
      015V019 SLP167=
SPECI KGUS 081441Z VRB04KT 10SM FEW100 29/23 A3004 RMK AO2A=
SPECI KHIF 081436Z 08013KT 10SM SCT130 BKN200 20/07 A3016 RMK AO2A
      SLP114 BKN130 OVR S RWY=
####018000137####
SANA14 KAWN 081400 RRI
METAR KNTD 081356Z 00000KT 6SM BR OVC011 14/13 A2991 RMK A02 SLP128
      LAG PK 12/12/27007 T01440128 PNO=
####018000112####
SAAE31 VTBB 081430 RRB
METAR VTBD 081430Z 21005KT 9999 FEW020 SCT120 BKN300 30/24 Q1008
           NOSIG=
####018002599####
SAUS20 KNKA 081442
METAR K0R3 081439Z AUTO 09006KT 10SM BKN012 BKN019 29/26 A3003 
     RMK AO2=
METAR K1A5 081440Z AUTO 00000KT 10SM CLR 27/18 A3014 RMK AO2 
     T02710180=
METAR K3I2 081440Z AUTO 00000KT 10SM CLR 30/20 A3008 RMK AO2=
METAR K3J7 081439Z AUTO 00000KT 10SM CLR 31/23 A3000 RMK AO2=
METAR K47A 081440Z AUTO 00000KT 10SM CLR 33/17 A3007 RMK AO2 
     T03260165=
METAR KACP 081439Z AUTO 08004KT 10SM SCT015 29/26 A3003 RMK AO2=
METAR KAVC 081440Z AUTO 00000KT 7SM SCT090 30/22 A3005 RMK AO2=
METAR KAYS 081440Z AUTO 34006KT 10SM CLR 31/23 A3002 RMK AO1=
METAR KBCB 081440Z AUTO 07004KT 10SM CLR 31/22 A3015 RMK AO2=
METAR KBGE 081440Z AUTO 00000KT 10SM CLR 31/20 A3003 RMK AO2=
METAR KBIJ 081440Z AUTO 23005KT 10SM CLR 32/20 A3003 RMK AO2=
METAR KBQK 081437Z AUTO 32005KT 10SM CLR 30/23 A3000 RMK AO1 
     T03020225 PNO=
METAR KCPK 081440Z AUTO 02006KT 10SM CLR 30/22 A2999 RMK AO2=
METAR KCTJ 081440Z AUTO 01007KT 10SM CLR 32/20 A3007 RMK AO2 
     T03240195=
METAR KCWV 081449Z AUTO 32006KT 10SM CLR 33/22 A3000 RMK AO2=
METAR KDPL 081440Z AUTO 02006KT 7SM CLR 31/21 A2998 RMK AO2=
METAR KEDE 081436Z AUTO 08008KT 10SM CLR 30/22 A2998 RMK AO2=
METAR KEMV 081437Z AUTO 10006KT 7SM SCT100 30/23 A2999 RMK AO2=
METAR KEZF 081438Z AUTO 16005KT 7SM CLR 32/27 A2999 RMK AO2 
     T03180270=
METAR KFYJ 081441Z AUTO 06007KT 10SM SCT070 32/23 A3002 RMK AO1=
METAR KHRJ 081441Z AUTO 05008KT 7SM CLR 34/22 A2997 RMK AO2=
METAR KJNX 081439Z AUTO 02006KT 10SM SCT080 31/20 A2998 RMK AO2=
METAR KJYL 081441Z AUTO 33005KT 10SM CLR 33/21 A3000 RMK AO2=
METAR KLWB 081440Z AUTO 00000KT 7SM BKN060 28/17 A3016 RMK AO2=
SPECI KLWC 081441Z AUTO 03006KT 8SM OVC010 24/22 A3011 RMK AO2=
METAR KMQI 081436Z AUTO 04010KT 10SM CLR 28/23 A2997 RMK AO2=
METAR KMWK 081442Z AUTO 00000KT 7SM CLR 32/20 A3006 RMK AO2=
METAR KOCW 081439Z AUTO 07005KT 10SM CLR 28/23 A2998 RMK AO2=
METAR KPGV 081440Z AUTO 03007KT 10SM SCT080 SCT120 30/22 A2998 
     RMK AO2=
SPECI KPYM 081441Z AUTO 17007KT 10SM SCT029 28/19 A3010 RMK AO2=
SPECI KTAN 081441Z AUTO 15007KT 10SM BKN026 27/21 A3007 RMK AO2=
METAR KTNB 081441Z AUTO 00000KT 10SM CLR 28/17 A3019 RMK AO2=
METAR KTVI 081440Z AUTO 36003KT 10SM CLR 31/22 A3004 RMK AO2=
METAR KUKF 081441Z AUTO 00000KT 7SM CLR 32/19 A3008 RMK AO1=
METAR KUNV 081440Z AUTO 00000KT 10SM CLR 29/19 A3008 RMK AO2 
     T02940194=
SPECI KUTS 081441Z AUTO 00000KT 8SM -RA BKN007 BKN011 27/24 A3002 
    RMK AO2 RAB29 CIG 006V009 P0000=
METAR KW99 081439Z AUTO 11003KT 10SM CLR 31/16 A3007 RMK AO2=
####018000096####
SPCN46 CWAO 081441
SPECI CYBC 081441Z AUTO 27002KT 7SM OVC004 OVC043 OVC061 17/15 A3001=

####018000101####
SPCN47 CWAO 081441
SPECI CYTS 081441Z 30005KT 3SM -SHRA BKN004 BKN020 OVC030 RMK
SF5SC2SC2=

####018002093####
SAUS99 KWBC 081443
METAR
K0R3 081439Z AUTO 09006KT 10SM BKN012 BKN019 29/26 A3003 RMK
     AO2=
K1A5 081440Z AUTO 00000KT 10SM CLR 27/18 A3014 RMK AO2
     T02710180=
K3I2 081440Z AUTO 00000KT 10SM CLR 30/20 A3008 RMK AO2=
K3J7 081439Z AUTO 00000KT 10SM CLR 31/23 A3000 RMK AO2=
K47A 081440Z AUTO 00000KT 10SM CLR 33/17 A3007 RMK AO2
     T03260165=
KACP 081439Z AUTO 08004KT 10SM SCT015 29/26 A3003 RMK AO2=
KAVC 081440Z AUTO 00000KT 7SM SCT090 30/22 A3005 RMK AO2=
KAYS 081440Z AUTO 34006KT 10SM CLR 31/23 A3002 RMK AO1=
KBCB 081440Z AUTO 07004KT 10SM CLR 31/22 A3015 RMK AO2=
KBGE 081440Z AUTO 00000KT 10SM CLR 31/20 A3003 RMK AO2=
KBIJ 081440Z AUTO 23005KT 10SM CLR 32/20 A3003 RMK AO2=
KBQK 081437Z AUTO 32005KT 10SM CLR 30/23 A3000 RMK AO1 T03020225
     PNO=
KCPK 081440Z AUTO 02006KT 10SM CLR 30/22 A2999 RMK AO2=
KCTJ 081440Z AUTO 01007KT 10SM CLR 32/20 A3007 RMK AO2
     T03240195=
KCWV 081449Z AUTO 32006KT 10SM CLR 33/22 A3000 RMK AO2=
KDPL 081440Z AUTO 02006KT 7SM CLR 31/21 A2998 RMK AO2=
KEDE 081436Z AUTO 08008KT 10SM CLR 30/22 A2998 RMK AO2=
KEMV 081437Z AUTO 10006KT 7SM SCT100 30/23 A2999 RMK AO2=
KEZF 081438Z AUTO 16005KT 7SM CLR 32/27 A2999 RMK AO2
     T03180270=
KFYJ 081441Z AUTO 06007KT 10SM SCT070 32/23 A3002 RMK AO1=
KHRJ 081441Z AUTO 05008KT 7SM CLR 34/22 A2997 RMK AO2=
KJNX 081439Z AUTO 02006KT 10SM SCT080 31/20 A2998 RMK AO2=
KJYL 081441Z AUTO 33005KT 10SM CLR 33/21 A3000 RMK AO2=
KLWB 081440Z AUTO 00000KT 7SM BKN060 28/17 A3016 RMK AO2=
KMQI 081436Z AUTO 04010KT 10SM CLR 28/23 A2997 RMK AO2=
KMWK 081442Z AUTO 00000KT 7SM CLR 32/20 A3006 RMK AO2=
KOCW 081439Z AUTO 07005KT 10SM CLR 28/23 A2998 RMK AO2=
KPGV 081440Z AUTO 03007KT 10SM SCT080 SCT120 30/22 A2998 RMK
     AO2=
KTNB 081441Z AUTO 00000KT 10SM CLR 28/17 A3019 RMK AO2=
KTVI 081440Z AUTO 36003KT 10SM CLR 31/22 A3004 RMK AO2=
KUKF 081441Z AUTO 00000KT 7SM CLR 32/19 A3008 RMK AO1=
KUNV 081440Z AUTO 00000KT 10SM CLR 29/19 A3008 RMK AO2
     T02940194=
KW99 081439Z AUTO 11003KT 10SM CLR 31/16 A3007 RMK AO2=
####018000313####
SPUS99 KWBC 081443
SPECI
KLWC 081441Z AUTO 03006KT 8SM OVC010 24/22 A3011 RMK AO2=
KPYM 081441Z AUTO 17007KT 10SM SCT029 28/19 A3010 RMK AO2=
KTAN 081441Z AUTO 15007KT 10SM BKN026 27/21 A3007 RMK AO2=
KUTS 081441Z AUTO 00000KT 8SM -RA BKN007 BKN011 27/24 A3002 RMK
     AO2 RAB29 CIG 006V009 P0000=
####018000114####
SAMX51 MMMX 081441
SPECI MMMX 081441Z 00000KT 4SM SCT008 BKN015 OVC020 16/14 A3022
      NOSIG RMK 8/7// HZY=
####018000095####
SPUS31 KWBC 081443
SPECI
KDEN 081440Z 01004KT 1/4SM BR FEW007 BKN013 OVC039 16/14 A3034=
####018000079####
SACN88 CWAO 081431
WXI SA 1431 AUTO8 M M M 168/12/M/0404/M/M 6014 8MMM=

####018000079####
SPUS52 KWBC 081443
SPECI
KAAF 081439Z AUTO 04006KT 10SM CLR 31/22 A3002=
####018000095####
SPUS73 KWBC 081443
SPECI
KDEN 081440Z 01004KT 1/4SM BR FEW007 BKN013 OVC039 16/14 A3034=
####018000079####
SPUS81 KWBC 081443
SPECI
KAAF 081439Z AUTO 04006KT 10SM CLR 31/22 A3002=
####018000104####
SPUS81 KWBC 081443
SPECI
KATT 081440Z AUTO VRB03KT 4SM -RA BR BKN009 BKN018 OVC065 25/24
A3000=
####018000110####
SAUS41 KPHI 081443
MTRACY
SPECI KACY 081441Z 00000KT 2 1/2SM -RA BR BKN015 24/23 A3006 RMK AO2 
P0010
####018000110####
SAUS17 KAWN 081400 RRG
METAR KFMH 081435Z AUTO 17009G14KT 10SM BKN015 OVC022 25/21 A3011 RMK
      AO2=
####018000217####
SPUS90 KWBC 081444
SPECI KATT 081440Z AUTO VRB03KT 4SM -RA BR BKN009 BKN018 OVC065
     25/24 A3000 RMK AO2 RAE1357B14 P0007=
SPECI KACY 081441Z 00000KT 2 1/2SM -RA BR BKN015 24/23 A3006 RMK
     AO2 P0010=
####018000122####
SPCN47 CWAO 081443
SPECI CYZE 081443Z AUTO 21006KT 8SM FEW046 OVC086 21/20 A2998 RMK
 SLP154 DENSITY ALT 1400FT=

####018002931####
SAUS20 KNKA 081443
METAR K3A1 081440Z AUTO 02005KT 10SM CLR 30/23 A3011 RMK AO2 
     T03000233=
METAR K4A9 081440Z AUTO 06005KT 10SM CLR 32/20 A3007 RMK AO2 
     T03160196=
METAR K4I3 081436Z AUTO 22003KT 10SM CLR 30/21 A3008 RMK AO2=
METAR K4R4 081440Z AUTO 00000KT 7SM SCT020 31/25 A3004 RMK AO2 
     T03110250=
METAR K8A0 081439Z AUTO 03004KT 10SM CLR 31/20 A3008 RMK AO2=
METAR KACB 081435Z AUTO 00000KT 10SM OVC011 24/22 A3000 RMK
     AO2=
METAR KACQ 081439Z AUTO 30004KT 10SM CLR 21/17 A3016 RMK AO2=
SPECI KACV 081442Z AUTO 27003KT 1 3/4SM BR OVC001 10/09 A2996 RMK 
    AO2=
METAR KADC 081437Z AUTO 24005KT 10SM CLR 21/15 A3010 RMK AO2=
METAR KAFP 081440Z AUTO 00000KT 10SM CLR 32/19 A2998 RMK AO2 
     T03210190=
SPECI KAKO 081442Z AUTO 15007KT 10SM OVC005 16/14 A3033 RMK AO2 CIG 
    004V009 TSNO=
SPECI KALI 081442Z AUTO 04011KT 10SM -RA FEW007 SCT041 27/26 A2987 
    RMK AO2 LTG DSNT E RAB39 P0000=
METAR KALX 081440Z AUTO 02003KT 10SM CLR 31/20 A3005 RMK AO1=
METAR KAMN 081436Z AUTO 00000KT 7SM SCT075 24/22 A3001 RMK AO2=
METAR KAQP 081433Z AUTO 26006KT 10SM CLR 21/19 A3011 RMK AO2=
METAR KAUM 081435Z AUTO 34010KT 10SM CLR 22/16 A3012 RMK AO2=
METAR KBAX 081435Z AUTO 28006KT 10SM CLR 28/23 A3001 RMK AO2=
METAR KBDH 081435Z AUTO 26004KT 10SM CLR 22/16 A3014 RMK AO2=
METAR KBFW 081433Z AUTO 27006KT 10SM CLR 26/14 A3001 RMK AO2=
METAR KCAD 081435Z AUTO 26005KT 5SM RA SCT010 SCT016 OVC030 22/21
     A3004 RMK AO2=
METAR KCBG 081435Z AUTO 27006KT 10SM CLR 23/18 A3009 RMK AO2=
METAR KCCO 081440Z AUTO 00000KT 10SM SCT080 30/22 A3006 RMK AO1=
METAR KCDA 081435Z AUTO 17006KT 7SM CLR 28/22 A3008 RMK AO2=
METAR KCDD 081431Z AUTO 27004KT 10SM CLR 23/17 A3003 RMK AO2=
METAR KCDH 081440Z AUTO 00000KT 9SM SCT005 25/24 A3009 RMK AO2=
METAR KCFE 081435Z AUTO 28006KT 10SM CLR 23/16 A3012 RMK AO2
     T02290161=
METAR KCFS 081435Z AUTO 26006KT 10SM SCT060 SCT080 SCT090 28/21
     A3002 RMK AO2=
METAR KCKC 081435Z AUTO 22006KT 10SM CLR 22/13 A3004 RMK AO2=
METAR KCKN 081435Z AUTO 34007KT 10SM CLR 21/14 A3008 RMK AO2=
METAR KCNB 081437Z AUTO 25007KT 10SM CLR 24/15 A3015 RMK AO2
     T02400145=
METAR KCOQ 081436Z AUTO 28005KT 10SM CLR 22/18 A3007 RMK AO2=
METAR KCPC 081440Z AUTO RMK TEMPORAIRILY INOPERATIVE=
METAR KCQM 081437Z AUTO 27005KT 10SM CLR 21/15 A3004 RMK AO2=
METAR KCVX 081435Z AUTO 26005KT 10SM BKN006 OVC075 23/21 A3001 RMK
     AO2=
METAR KDBN 081440Z AUTO 32005KT 10SM CLR 33/21 A3000 RMK AO1=
METAR KDNN 081438Z AUTO 35006KT 10SM CLR 30/21 A3006 RMK AO2=
METAR KDQH 081440Z AUTO 30003KT 10SM CLR 33/17 A3001 RMK AO1=
METAR KDRI 081440Z AUTO 09005KT 10SM BKN010 27/27 A3005 RMK AO2=
METAR KDRM 081436Z AUTO 25004KT 3SM -RA OVC004 21/20 A2998 RMK
     AO2=
METAR KDTL 081435Z AUTO 28007KT 10SM CLR 21/10 A3011 RMK AO2=
METAR KDUH 081435Z AUTO 21003KT 10SM CLR 31/18 A3003 RMK AO2=
####018002414####
SAUS99 KWBC 081444
METAR
K3A1 081440Z AUTO 02005KT 10SM CLR 30/23 A3011 RMK AO2
     T03000233=
K4A9 081440Z AUTO 06005KT 10SM CLR 32/20 A3007 RMK AO2
     T03160196=
K4I3 081436Z AUTO 22003KT 10SM CLR 30/21 A3008 RMK AO2=
K4R4 081440Z AUTO 00000KT 7SM SCT020 31/25 A3004 RMK AO2
     T03110250=
K8A0 081439Z AUTO 03004KT 10SM CLR 31/20 A3008 RMK AO2=
KACB 081435Z AUTO 00000KT 10SM OVC011 24/22 A3000 RMK AO2=
KACQ 081439Z AUTO 30004KT 10SM CLR 21/17 A3016 RMK AO2=
KADC 081437Z AUTO 24005KT 10SM CLR 21/15 A3010 RMK AO2=
KAFP 081440Z AUTO 00000KT 10SM CLR 32/19 A2998 RMK AO2
     T03210190=
KALX 081440Z AUTO 02003KT 10SM CLR 31/20 A3005 RMK AO1=
KAMN 081436Z AUTO 00000KT 7SM SCT075 24/22 A3001 RMK AO2=
KAQP 081433Z AUTO 26006KT 10SM CLR 21/19 A3011 RMK AO2=
KAUM 081435Z AUTO 34010KT 10SM CLR 22/16 A3012 RMK AO2=
KBAX 081435Z AUTO 28006KT 10SM CLR 28/23 A3001 RMK AO2=
KBDH 081435Z AUTO 26004KT 10SM CLR 22/16 A3014 RMK AO2=
KBFW 081433Z AUTO 27006KT 10SM CLR 26/14 A3001 RMK AO2=
KCAD 081435Z AUTO 26005KT 5SM RA SCT010 SCT016 OVC030 22/21 A3004
     RMK AO2=
KCBG 081435Z AUTO 27006KT 10SM CLR 23/18 A3009 RMK AO2=
KCCO 081440Z AUTO 00000KT 10SM SCT080 30/22 A3006 RMK AO1=
KCDA 081435Z AUTO 17006KT 7SM CLR 28/22 A3008 RMK AO2=
KCDD 081431Z AUTO 27004KT 10SM CLR 23/17 A3003 RMK AO2=
KCDH 081440Z AUTO 00000KT 9SM SCT005 25/24 A3009 RMK AO2=
KCFE 081435Z AUTO 28006KT 10SM CLR 23/16 A3012 RMK AO2
     T02290161=
KCFS 081435Z AUTO 26006KT 10SM SCT060 SCT080 SCT090 28/21 A3002
     RMK AO2=
KCKC 081435Z AUTO 22006KT 10SM CLR 22/13 A3004 RMK AO2=
KCKN 081435Z AUTO 34007KT 10SM CLR 21/14 A3008 RMK AO2=
KCNB 081437Z AUTO 25007KT 10SM CLR 24/15 A3015 RMK AO2
     T02400145=
KCOQ 081436Z AUTO 28005KT 10SM CLR 22/18 A3007 RMK AO2=
KCPC 081440Z AUTO RMK TEMPORAIRILY INOPERATIVE=
KCQM 081437Z AUTO 27005KT 10SM CLR 21/15 A3004 RMK AO2=
KCVX 081435Z AUTO 26005KT 10SM BKN006 OVC075 23/21 A3001 RMK
     AO2=
KDBN 081440Z AUTO 32005KT 10SM CLR 33/21 A3000 RMK AO1=
KDNN 081438Z AUTO 35006KT 10SM CLR 30/21 A3006 RMK AO2=
KDQH 081440Z AUTO 30003KT 10SM CLR 33/17 A3001 RMK AO1=
KDRI 081440Z AUTO 09005KT 10SM BKN010 27/27 A3005 RMK AO2=
KDRM 081436Z AUTO 25004KT 3SM -RA OVC004 21/20 A2998 RMK AO2=
KDTL 081435Z AUTO 28007KT 10SM CLR 21/10 A3011 RMK AO2=
KDUH 081435Z AUTO 21003KT 10SM CLR 31/18 A3003 RMK AO2=
####018000290####
SPUS99 KWBC 081444
SPECI
KACV 081442Z AUTO 27003KT 1 3/4SM BR OVC001 10/09 A2996 RMK
     AO2=
KAKO 081442Z AUTO 15007KT 10SM OVC005 16/14 A3033 RMK AO2 CIG
     004V009 TSNO=
KALI 081442Z AUTO 04011KT 10SM -RA FEW007 SCT041 27/26 A2987 RMK
     AO2 LTG DSNT E RAB39 P0000=
####018000087####
SACN88 KWBC 081444
METAR CWXI 081431Z AUTO 04004KT 12/ RMK AO1 SLP168 T0118 56014=
####018000100####
SAMX55 MMIO 081500
METAR MMIO 081440Z 00000KT 5SM BKN010 OVC020 20/17 A3013 RMK
8/5// BINOVC= 
####018000091####
SASW39 LSSW 081350 RRB
METAR LSMD 081350Z AUTO VRB02KT 9999NDV NCD 29/11 Q1021 RMK BLU=
####018000213####
SPUS80 KWBC 081444
SPECI
KATT 081440Z AUTO VRB03KT 4SM -RA BR BKN009 BKN018 OVC065 25/24
     A3000 RMK AO2 RAE1357B14 P0007=
KACY 081441Z 00000KT 2 1/2SM -RA BR BKN015 24/23 A3006 RMK AO2
     P0010=
####018000138####
SAXX60 KWBC 081400 RRP
METAR
KNTD 081356Z 00000KT 6SM BR OVC011 14/13 A2991 RMK A02 SLP128 LAG
     PK 12/12/27007 T01440128 PNO=
####018003723####
SAUS70 KWBC 081444
METAR
K0R3 081439Z AUTO 09006KT 10SM BKN012 BKN019 29/26 A3003 RMK
     AO2=
K1A5 081440Z AUTO 00000KT 10SM CLR 27/18 A3014 RMK AO2
     T02710180=
K3I2 081440Z AUTO 00000KT 10SM CLR 30/20 A3008 RMK AO2=
K3J7 081439Z AUTO 00000KT 10SM CLR 31/23 A3000 RMK AO2=
K47A 081440Z AUTO 00000KT 10SM CLR 33/17 A3007 RMK AO2
     T03260165=
KACP 081439Z AUTO 08004KT 10SM SCT015 29/26 A3003 RMK AO2=
KAVC 081440Z AUTO 00000KT 7SM SCT090 30/22 A3005 RMK AO2=
KBCB 081440Z AUTO 07004KT 10SM CLR 31/22 A3015 RMK AO2=
KBGE 081440Z AUTO 00000KT 10SM CLR 31/20 A3003 RMK AO2=
KBIJ 081440Z AUTO 23005KT 10SM CLR 32/20 A3003 RMK AO2=
KBQK 081437Z AUTO 32005KT 10SM CLR 30/23 A3000 RMK AO1 T03020225
     PNO=
KCPK 081440Z AUTO 02006KT 10SM CLR 30/22 A2999 RMK AO2=
KCTJ 081440Z AUTO 01007KT 10SM CLR 32/20 A3007 RMK AO2
     T03240195=
KDPL 081440Z AUTO 02006KT 7SM CLR 31/21 A2998 RMK AO2=
KEDE 081436Z AUTO 08008KT 10SM CLR 30/22 A2998 RMK AO2=
KEMV 081437Z AUTO 10006KT 7SM SCT100 30/23 A2999 RMK AO2=
KEZF 081438Z AUTO 16005KT 7SM CLR 32/27 A2999 RMK AO2
     T03180270=
KFYJ 081441Z AUTO 06007KT 10SM SCT070 32/23 A3002 RMK AO1=
KHRJ 081441Z AUTO 05008KT 7SM CLR 34/22 A2997 RMK AO2=
KJYL 081441Z AUTO 33005KT 10SM CLR 33/21 A3000 RMK AO2=
KLWB 081440Z AUTO 00000KT 7SM BKN060 28/17 A3016 RMK AO2=
KMQI 081436Z AUTO 04010KT 10SM CLR 28/23 A2997 RMK AO2=
KMWK 081442Z AUTO 00000KT 7SM CLR 32/20 A3006 RMK AO2=
KOCW 081439Z AUTO 07005KT 10SM CLR 28/23 A2998 RMK AO2=
KPGV 081440Z AUTO 03007KT 10SM SCT080 SCT120 30/22 A2998 RMK
     AO2=
KTNB 081441Z AUTO 00000KT 10SM CLR 28/17 A3019 RMK AO2=
KTVI 081440Z AUTO 36003KT 10SM CLR 31/22 A3004 RMK AO2=
KUKF 081441Z AUTO 00000KT 7SM CLR 32/19 A3008 RMK AO1=
KUNV 081440Z AUTO 00000KT 10SM CLR 29/19 A3008 RMK AO2
     T02940194=
KW99 081439Z AUTO 11003KT 10SM CLR 31/16 A3007 RMK AO2=
KFMH 081435Z AUTO 17009G14KT 10SM BKN015 OVC022 25/21 A3011 RMK
     AO2=
K3A1 081440Z AUTO 02005KT 10SM CLR 30/23 A3011 RMK AO2
     T03000233=
K4A9 081440Z AUTO 06005KT 10SM CLR 32/20 A3007 RMK AO2
     T03160196=
K4I3 081436Z AUTO 22003KT 10SM CLR 30/21 A3008 RMK AO2=
K4R4 081440Z AUTO 00000KT 7SM SCT020 31/25 A3004 RMK AO2
     T03110250=
K8A0 081439Z AUTO 03004KT 10SM CLR 31/20 A3008 RMK AO2=
KACB 081435Z AUTO 00000KT 10SM OVC011 24/22 A3000 RMK AO2=
KACQ 081439Z AUTO 30004KT 10SM CLR 21/17 A3016 RMK AO2=
KADC 081437Z AUTO 24005KT 10SM CLR 21/15 A3010 RMK AO2=
KAFP 081440Z AUTO 00000KT 10SM CLR 32/19 A2998 RMK AO2
     T03210190=
KALX 081440Z AUTO 02003KT 10SM CLR 31/20 A3005 RMK AO1=
KAMN 081436Z AUTO 00000KT 7SM SCT075 24/22 A3001 RMK AO2=
KAQP 081433Z AUTO 26006KT 10SM CLR 21/19 A3011 RMK AO2=
KAUM 081435Z AUTO 34010KT 10SM CLR 22/16 A3012 RMK AO2=
KBAX 081435Z AUTO 28006KT 10SM CLR 28/23 A3001 RMK AO2=
KBDH 081435Z AUTO 26004KT 10SM CLR 22/16 A3014 RMK AO2=
KBFW 081433Z AUTO 27006KT 10SM CLR 26/14 A3001 RMK AO2=
KCAD 081435Z AUTO 26005KT 5SM RA SCT010 SCT016 OVC030 22/21 A3004
     RMK AO2=
KCBG 081435Z AUTO 27006KT 10SM CLR 23/18 A3009 RMK AO2=
KCCO 081440Z AUTO 00000KT 10SM SCT080 30/22 A3006 RMK AO1=
KCDA 081435Z AUTO 17006KT 7SM CLR 28/22 A3008 RMK AO2=
KCDD 081431Z AUTO 27004KT 10SM CLR 23/17 A3003 RMK AO2=
KCDH 081440Z AUTO 00000KT 9SM SCT005 25/24 A3009 RMK AO2=
KCFE 081435Z AUTO 28006KT 10SM CLR 23/16 A3012 RMK AO2
     T02290161=
KCFS 081435Z AUTO 26006KT 10SM SCT060 SCT080 SCT090 28/21 A3002
     RMK AO2=
KCKC 081435Z AUTO 22006KT 10SM CLR 22/13 A3004 RMK AO2=
KCKN 081435Z AUTO 34007KT 10SM CLR 21/14 A3008 RMK AO2=
KCNB 081437Z AUTO 25007KT 10SM CLR 24/15 A3015 RMK AO2
     T02400145=
####018000574####
SPUS70 KWBC 081444
SPECI
KLWC 081441Z AUTO 03006KT 8SM OVC010 24/22 A3011 RMK AO2=
KPYM 081441Z AUTO 17007KT 10SM SCT029 28/19 A3010 RMK AO2=
KTAN 081441Z AUTO 15007KT 10SM BKN026 27/21 A3007 RMK AO2=
KUTS 081441Z AUTO 00000KT 8SM -RA BKN007 BKN011 27/24 A3002 RMK
     AO2 RAB29 CIG 006V009 P0000=
KACV 081442Z AUTO 27003KT 1 3/4SM BR OVC001 10/09 A2996 RMK
     AO2=
KAKO 081442Z AUTO 15007KT 10SM OVC005 16/14 A3033 RMK AO2 CIG
     004V009 TSNO=
KALI 081442Z AUTO 04011KT 10SM -RA FEW007 SCT041 27/26 A2987 RMK
     AO2 LTG DSNT E RAB39 P0000=
####018000087####
SAUS70 KWBC 081500
METAR
KCWV 081449Z AUTO 32006KT 10SM CLR 33/22 A3000 RMK AO2=
####018000206####
SAUS80 KWBC 081444
METAR
KAYS 081440Z AUTO 34006KT 10SM CLR 31/23 A3002 RMK AO1=
KJNX 081439Z AUTO 02006KT 10SM SCT080 31/20 A2998 RMK AO2=
KDBN 081440Z AUTO 32005KT 10SM CLR 33/21 A3000 RMK AO1=
####018000631####
SAUS70 KWBC 081444 RRA
METAR
KCOQ 081436Z AUTO 28005KT 10SM CLR 22/18 A3007 RMK AO2=
KCPC 081440Z AUTO RMK TEMPORAIRILY INOPERATIVE=
KCQM 081437Z AUTO 27005KT 10SM CLR 21/15 A3004 RMK AO2=
KCVX 081435Z AUTO 26005KT 10SM BKN006 OVC075 23/21 A3001 RMK
     AO2=
KDNN 081438Z AUTO 35006KT 10SM CLR 30/21 A3006 RMK AO2=
KDQH 081440Z AUTO 30003KT 10SM CLR 33/17 A3001 RMK AO1=
KDRI 081440Z AUTO 09005KT 10SM BKN010 27/27 A3005 RMK AO2=
KDRM 081436Z AUTO 25004KT 3SM -RA OVC004 21/20 A2998 RMK AO2=
KDTL 081435Z AUTO 28007KT 10SM CLR 21/10 A3011 RMK AO2=
KDUH 081435Z AUTO 21003KT 10SM CLR 31/18 A3003 RMK AO2=
####018000108####
SAAS33 KWBC 081430 RRC
METAR
VTBD 081430Z 21005KT 9999 FEW020 SCT120 BKN300 30/24 Q1008
     NOSIG=
####018000082####
SPCN52 CWAO 081439
SPECI CWSA 081439Z AUTO 22008KT 5SM FEW001 20/19 A3021=

####018000160####
SAXX99 KWBC 081400 RRX
METAR
CYRA 081400Z 22004KT 15SM VCSH BKN046 OVC077 15/12 A2994 RMK
     SC3AC2 20.7/12.1/0/NIL /R02AFT00Z/ OBS TAKEN +29 SLP144=
####018000087####
SPUS51 KWBC 081444
SPECI
KACY 081441Z 00000KT 2 1/2SM -RA BR BKN015 24/23 A3006=
####018002922####
SAUS20 KNKA 081443
METAR KJYM 081435Z AUTO 24004KT 10SM CLR 28/21 A3005 RMK AO2=
METAR KJYO 081440Z AUTO 00000KT 7SM CLR 32/22 A3002 RMK AO2=
METAR KLDJ 081440Z AUTO 13003KT 5SM HZ SCT085 BKN110 27/23 A3004 
     RMK AO2 T02720225=
METAR KLDM 081436Z AUTO 24005KT 10SM OVC005 24/22 A3002 RMK
     AO2=
METAR KLGC 081435Z AUTO 00000KT 10SM CLR 32/19 A3004 RMK AO1=
METAR KLHZ 081440Z AUTO 05006KT 10SM SCT090 33/20 A3000 RMK AO2 
     T03260203=
METAR KLKU 081440Z AUTO 10003KT 7SM CLR 32/21 A3001 RMK AO2=
METAR KLNP 081438Z AUTO 03005KT 10SM CLR 28/18 A3020 RMK AO1=
METAR KLOM 081440Z AUTO 10006KT 080V140 7SM SCT020 SCT026 29/23 
     A3004 RMK AO1 T02920226=
SPECI KLVJ 081442Z AUTO 19007G18KT 1 1/4SM VCTS +RA BR SCT014 BKN033 
    OVC041 24/22 A2999 RMK AO2 VIS 3/4V5 TSB23RAB20 P0008=
METAR KLWA 081436Z AUTO 32006KT 5SM -RA SCT013 BKN025 OVC030 23/21
     A3003 RMK AO2=
METAR KMCD 081436Z AUTO 28003KT 1/4SM HZ OVC001 20/17 A3000 RMK
     AO2=
METAR KMDQ 081440Z AUTO 03005KT 10SM CLR 31/21 A3008 RMK AO2 
     T03080214=
METAR KMFV 081442Z AUTO 08007KT 10SM SCT080 SCT100 27/22 A3002 
     RMK AO2=
METAR KMGN 081435Z AUTO 25003KT 1 3/4SM BR OVC004 21/20 A2999 RMK
     AO2=
METAR KMGR 081440Z AUTO 29003KT 10SM CLR 32/18 A3004 RMK AO2=
METAR KMKJ 081440Z AUTO 00000KT 10SM CLR 29/11 A3021 RMK AO1=
METAR KMLJ 081444Z AUTO 28003KT 10SM CLR 32/23 A3002 RMK AO2=
METAR KMOP 081434Z AUTO 00000KT 7SM DZ SCT036 BKN060 OVC075 23/23
     A3001 RMK AO2=
METAR KMQS 081440Z AUTO 13005KT 8SM CLR 29/23 A3007 RMK AO2=
METAR KMRN 081441Z AUTO 00000KT 10SM SCT085 30/16 A3010 RMK AO2=
SPECI KMSN 081437Z COR VRB05KT 9SM BKN015 25/21 A3004 RMK AO2=
METAR KMZH 081431Z AUTO 27004KT 10SM CLR 22/16 A3006 RMK AO2=
METAR KOBE 081441Z AUTO 09006KT 10SM CLR 29/22 A3001 RMK AO2=
METAR KOEB 081435Z AUTO 16003KT 10SM CLR 28/23 A3003 RMK AO2=
METAR KONX 081440Z AUTO 04008KT 10SM CLR 28/21 A2999 RMK AO2 
     T02830208=
METAR KONZ 081437Z AUTO 17003KT 10SM CLR 30/23 A3001 RMK AO2=
METAR KOPN 081440Z AUTO 30006KT 10SM CLR 33/23 A3005 RMK AO1=
METAR KORB 081434Z AUTO 28008KT 10SM CLR 21/13 A3002 RMK AO2=
METAR KOSC 081434Z AUTO 23004KT 10SM SCT080 24/22 A3000 RMK
     AO2=
METAR KOWA 081433Z AUTO 30006KT 10SM CLR 21/17 A3013 RMK AO2=
METAR KOZW 081435Z AUTO 00000KT 10SM CLR 30/20 A3003 RMK AO2=
METAR KPCM 081440Z AUTO 00000KT 10SM SCT026 29/21 A3003 RMK AO2=
METAR KPHN 081436Z AUTO 20003KT 10SM CLR 31/21 A3001 RMK AO2=
METAR KPSK 081442Z AUTO 03003KT 10SM CLR 32/15 A3015 RMK AO2=
METAR KPTB 081442Z AUTO 08006KT 7SM CLR 32/22 A2999 RMK AO2=
METAR KPZQ 081435Z AUTO 28005KT 5SM RA SCT032 BKN055 OVC065 22/22
     A3000 RMK AO2=
METAR KRGK 081435Z AUTO 32007KT 10SM CLR 23/17 A3010 RMK AO2=
METAR KRMY 081435Z AUTO 10004KT 10SM CLR 27/21 A3002 RMK AO2=
METAR KRNP 081435Z AUTO 00000KT 10SM CLR 29/21 A3001 RMK AO2=
####018002944####
SAUS20 KNKA 081443
METAR KDVP 081436Z AUTO 29007KT 10SM CLR 22/14 A3019 RMK AO2
     T02230141=
SPECI KDXR 081442Z 17004KT 4SM BR OVC009 25/23 A3008 RMK AO2 RAE16 
    CIG 007V014 P0001=
METAR KEHO 081440Z AUTO 04006KT 10SM CLR 32/20 A3003 RMK AO2 
     T03160195=
METAR KERY 081436Z AUTO 32004KT 10SM SCT010 BKN018 22/19 A3000 RMK
     AO2=
METAR KETH 081434Z AUTO 28007KT 10SM CLR 22/16 A3012 RMK AO2=
METAR KEXX 081440Z AUTO 03003KT 7SM CLR 31/21 A3001 RMK AO2=
METAR KEYF 081440Z AUTO 08005KT 7SM CLR 31/22 A2996 RMK AO2 
     T03110219=
METAR KF24 081439Z AUTO 10SM OVC095 28/24 A3011 RMK AO2 T02760240=
METAR KFFA 081438Z AUTO 04007KT 020V080 10SM CLR 27/23 A2998 RMK 
     AO2 T02740225=
METAR KFFX 081435Z AUTO 31005KT 1 1/2SM +RA BKN006 OVC012 22/22
     A3002 RMK AO2=
METAR KFKA 081443Z AUTO 34009KT 10SM SCT015 22/17 A3012 RMK AO2
     T02150169=
METAR KFKN 081440Z AUTO 08005KT 10SM CLR 31/23 A2999 RMK AO1=
METAR KFKS 081435Z AUTO 00000KT 10SM BKN006 BKN017 22/20 A3000 RMK
     AO2=
METAR KFOZ 081433Z AUTO 25004KT 10SM CLR 22/13 A3006 RMK AO2=
METAR KFPK 081436Z AUTO 00000KT 10SM CLR 27/20 A3001 RMK AO2=
METAR KFSE 081434Z AUTO 24008KT 10SM CLR 19/14 A3006 RMK AO2=
METAR KGHG 081440Z AUTO 11008KT 10SM CLR 27/21 A3010 RMK AO2=
METAR KGOV 081435Z AUTO 22004KT 4SM -RA BKN008 BKN014 OVC031 22/22
     A3003 RMK AO2=
METAR KGWW 081440Z AUTO 01005KT 7SM SCT090 SCT120 28/22 A2998 RMK 
     AO2 T02820219=
METAR KHAF 081430Z AUTO 29003KT 7SM OVC006 12/10 A2996 RMK AO2=
METAR KHAI 081435Z AUTO 21003KT 7SM SCT060 BKN075 OVC090 25/23
     A3004 RMK AO2=
METAR KHBI 081442Z AUTO 35005KT 7SM CLR 32/19 A3003 RMK AO2=
METAR KHDC 081443Z AUTO 12005KT 10SM SCT014 31/27 A3006 RMK AO2=
METAR KHLX 081441Z AUTO 35004KT 7SM CLR 28/22 A3017 RMK AO2=
METAR KHNZ 081440Z AUTO 07007KT 7SM SCT100 31/20 A3000 RMK AO2 
     T03110200=
METAR KHOE 081439Z AUTO 34006KT 10SM CLR 30/21 A3002 RMK AO2 
     T03020207=
METAR KHQU 081441Z AUTO 26003KT 10SM CLR 32/19 A3005 RMK AO1=
METAR KHSP 081440Z AUTO 08004KT 10SM CLR 27/17 A3027 RMK AO2=
METAR KHWY 081440Z AUTO 00000KT 7SM CLR 31/22 A3001 RMK AO2=
METAR KHYX 081436Z AUTO 28003KT 10SM SCT070 SCT090 27/20 A3001 RMK
     AO2=
METAR KIDI 081440Z AUTO 00000KT 10SM CLR 28/21 A3009 RMK AO2=
METAR KIPJ 081440Z AUTO 02003KT 10SM CLR 33/18 A3003 RMK AO2 
     T03280181=
METAR KIRS 081435Z AUTO 25004KT 7SM -RA SCT050 SCT080 26/22 A3004
     RMK AO2=
METAR KISQ 081435Z AUTO 01006KT 10SM OVC012 23/19 A2999 RMK
     AO2=
METAR KIXA 081440Z AUTO 07005KT 10SM CLR 31/21 A2997 RMK AO2 
     T03060214=
METAR KJES 081440Z AUTO 33006KT 10SM CLR 31/24 A3000 RMK AO2 
     T03070237=
METAR KJGG 081440Z AUTO 09004KT 10SM CLR 32/22 A3001 RMK AO1=
METAR KJKA 081440Z AUTO 00000KT 10SM CLR 32/25 A3003 RMK AO2 
     T03220248=
METAR KJYG 081434Z AUTO 32003KT 10SM CLR 23/20 A3016 RMK AO2=
####018001576####
SAUS20 KNKA 081443
METAR KRQB 081434Z AUTO 00000KT 3SM RA SCT009 BKN030 OVC045 23/22
     A3003 RMK AO2=
METAR KRUQ 081441Z AUTO 04004KT 7SM CLR 31/21 A3002 RMK AO2=
METAR KSIF 081440Z AUTO 04005KT 7SM CLR 33/21 A3002 RMK AO2=
METAR KSJX 081436Z AUTO 29004KT 10SM OVC002 21/19 A3000 RMK
     AO2=
METAR KSLH 081435Z AUTO 23005KT 7SM -DZ BKN007 OVC012 22/22 A2998
     RMK AO2=
METAR KSME 081442Z AUTO 00000KT 5SM HZ 31/22 A3009 RMK AO2=
SPECI KSMQ 081442Z AUTO 21003KT 6SM HZ FEW023 SCT029 29/23 A3002 RMK 
    AO2=
METAR KSUA 081447Z 06008KT 10SM BKN030 29/22 A3001 =
METAR KSVH 081440Z AUTO 03008KT 7SM CLR 32/17 A3005 RMK AO2 
     T03160173=
METAR KTDF 081442Z AUTO 04004KT 7SM CLR 31/19 A3001 RMK AO1=
METAR KTPF 081440Z AUTO 05003KT 10SM CLR 28/22 A3001 RMK AO2=
METAR KTSP 081435Z AUTO 00000KT 10SM CLR 17/05 A3004 RMK AO2 =
METAR KTTF 081434Z AUTO 29005KT 10SM CLR 32/21 A3001 RMK AO2=
METAR KUKT 081430Z AUTO 17004KT 10SM CLR 30/20 A3005 RMK AO1=
METAR KVDI 081442Z AUTO 30005KT 10SM CLR 32/20 A3002 RMK AO1=
METAR KVJI 081442Z AUTO 00000KT 7SM CLR 30/21 A3015 RMK AO2=
METAR KVLL 081434Z AUTO 26003KT 10SM CLR 31/18 A3004 RMK AO2=
METAR KVUJ 081438Z AUTO 02003KT 7SM SCT085 SCT110 33/21 A2999 RMK 
     AO2=
METAR KVWU 081431Z AUTO 24009KT 10SM CLR 21/16 A3004 RMK AO2=
METAR KW45 081440Z AUTO 07004KT 10SM CLR 33/19 A3004 RMK AO2 
     T03300188=
METAR KXVG 081436Z AUTO 28005KT 10SM CLR 21/14 A3006 RMK AO2=
METAR KY70 081435Z AUTO 30007KT 10SM SCT013 BKN070 OVC090 26/22
     A3002 RMK AO2 T02630221=
####018000138####
SAUS45 KSLC 081444
MTRU24

METAR KU24 081443Z 37005KT 50SM SCT070 SCT120 SCT250 18/07 RMK 
SLP150 NOSPECI T01780073 52014


####018000081####
SAID32 WIII 081430
METAR WAMM 081430Z 08002KT 9999 FEW027 24/22 Q1011 NOSIG=
####018000087####
SPUS81 KWBC 081444
SPECI
KACY 081441Z 00000KT 2 1/2SM -RA BR BKN015 24/23 A3006=
####018001252####
SARS18 KAWN 081400 RRJ
METAR UHHH 081430Z 03003MPS 9999 SCT020CB OVC100 15/15 Q1010 NOSIG
      RMK QFE751/1002 55090060=
METAR UHWW 081430Z 08002MPS 9999 SCT013 BKN023CB OVC100 17/15 Q1011
      NOSIG RMK QFE757/1010 75CLRD70=
METAR ULLI 081430Z 11002MPS 9999 SCT046CB BKN066 BKN200 27/17 Q1012
      TEMPO TSRA=
METAR UMKK 081430Z 31006MPS P8000 FEW030 SCT200 22/15 Q1020 NOSIG RMK
      QFE 764 SC07=
METAR URKA 081430Z 03005MPS 9999 SCT026 28/21 Q1011 NOSIG RMK 065=
METAR URSS 081430Z 28003MPS 9999 FEW040 SCT300 28/22 Q1008 NOSIG RMK
      / QFE755 06CLRD70=
METAR UUDD 081430Z 15005MPS 120V180 9999 FEW050TCU BKN200 28/15 Q1015
      TEMPO VRB12MPS TSRA=
METAR UUEE 081430Z 16005MPS 120V200 9999 VCTS SCT050CB BKN200 29/11
      Q1015 NOSIG=
METAR UUWW 081430Z 17003MPS 130V210 9999 SCT050CB BKN200 27/15 Q1015
      24000070 NOSIG=
METAR UWGG 081430Z VRB02MPS 8000 FEW033 34/09 Q1015 NOSIG RMK QFE754
      18090070=
METAR UWKD 081430Z 28004MPS 240V300 CAVOK 32/12 Q1014 TEMPO VRB15MPS
      3000 TSRA RMK QFE750/1000 79CLRD70=
METAR UWPP 081430Z 16003MPS 9999 SCT033CB BKN100 32/09 Q1013 NOSIG
      RMK QFE745 11090060=
METAR VTBD 081430Z 21005KT 9999 FEW020 SCT120 BKN300 30/24 Q1008 NOSIG=
####018000108####
SAXX70 KAWN 081500
METAR KQEV 081450Z AUTO 22002KT 3SM -SHRA SCT043 BKN060 21/18 A2981
      RMK A02=
####018000079####
SAAE31 VTBB 081430 RRC
METAR VVNB 081430Z 08007KT CAVOK 31/25 Q1004 NOSIG=
####018000146####
SAUS20 KNKA 081444
SPECI KGUS 081441Z VRB04KT 10SM FEW100 29/23 A3004 RMK AO2A=
SPECI KLAW 081443Z 04008KT 10SM BKN018 27/22 A3007 RMK AO2=
####018000077####
SPCN47 CWAO 081440
SPECI CYKO 081440Z 23013KT 8SM -DZ OVC003 RMK SC8=

####018000084####
SPCN51 CWAO 081443
SPECI CZCP 081443Z AUTO 28020KT 9SM -RA OVC007 03/ A2987=

####018000088####
SAGH20 DGAA 081400
METAR DGAA 081400Z 20015KT 9999 SCT016 BKN250 31/23 Q1012 NOSIG=
####018000529####
SAMS31 WMKK 081430
METAR 081430Z
METAR WBGG 081430Z 25003KT 9999 SCT020 BKN150 24/23 Q1013 NOSIG=
METAR WBKK 081430Z 12003KT 9999 FEW014 FEW017CB SCT140 BKN270 24/22 
Q1011
     NOSIG=
METAR WBSB 081430Z 20005KT 9999 FEW004 FEW016CB SCT140 BKN300 25/24 
Q1010
     NOSIG=
METAR WMKK 081430Z 25002KT 9999 FEW030 BKN280 27/25 Q1011 NOSIG=
METAR WMKP 081430Z 36001KT 9000 FEW025 SCT140 BKN270 28/25 Q1011 
NOSIG=
METAR WSSL NIL=
METAR WSSS 081430Z 25001KT 9999 FEW016 SCT280 BKN300 27/24 Q1011 
NOSIG=
####018000083####
SAAK41 KNKA 081444
METAR PAKU 081445Z 25016KT 10SM SCT120 BKN230 10/06 A3003 =
####018000097####
SAUS41 KPHI 081444
MTRNEL
SPECI KNEL 081443Z AUTO 16008KT 8SM OVC016 27/21 A3005 RMK AO2 $
####018003695####
SAUS99 KWBC 081445
METAR
KRQB 081434Z AUTO 00000KT 3SM RA SCT009 BKN030 OVC045 23/22 A3003
     RMK AO2=
KRUQ 081441Z AUTO 04004KT 7SM CLR 31/21 A3002 RMK AO2=
KSIF 081440Z AUTO 04005KT 7SM CLR 33/21 A3002 RMK AO2=
KSJX 081436Z AUTO 29004KT 10SM OVC002 21/19 A3000 RMK AO2=
KSLH 081435Z AUTO 23005KT 7SM -DZ BKN007 OVC012 22/22 A2998 RMK
     AO2=
KSME 081442Z AUTO 00000KT 5SM HZ 31/22 A3009 RMK AO2=
KSUA 081447Z 06008KT 10SM BKN030 29/22 A3001=
KSVH 081440Z AUTO 03008KT 7SM CLR 32/17 A3005 RMK AO2
     T03160173=
KTDF 081442Z AUTO 04004KT 7SM CLR 31/19 A3001 RMK AO1=
KTPF 081440Z AUTO 05003KT 10SM CLR 28/22 A3001 RMK AO2=
KTSP 081435Z AUTO 00000KT 10SM CLR 17/05 A3004 RMK AO2=
KTTF 081434Z AUTO 29005KT 10SM CLR 32/21 A3001 RMK AO2=
KUKT 081430Z AUTO 17004KT 10SM CLR 30/20 A3005 RMK AO1=
KVDI 081442Z AUTO 30005KT 10SM CLR 32/20 A3002 RMK AO1=
KVJI 081442Z AUTO 00000KT 7SM CLR 30/21 A3015 RMK AO2=
KVLL 081434Z AUTO 26003KT 10SM CLR 31/18 A3004 RMK AO2=
KVUJ 081438Z AUTO 02003KT 7SM SCT085 SCT110 33/21 A2999 RMK
     AO2=
KVWU 081431Z AUTO 24009KT 10SM CLR 21/16 A3004 RMK AO2=
KW45 081440Z AUTO 07004KT 10SM CLR 33/19 A3004 RMK AO2
     T03300188=
KXVG 081436Z AUTO 28005KT 10SM CLR 21/14 A3006 RMK AO2=
KY70 081435Z AUTO 30007KT 10SM SCT013 BKN070 OVC090 26/22 A3002
     RMK AO2 T02630221=
KJYM 081435Z AUTO 24004KT 10SM CLR 28/21 A3005 RMK AO2=
KJYO 081440Z AUTO 00000KT 7SM CLR 32/22 A3002 RMK AO2=
KLDJ 081440Z AUTO 13003KT 5SM HZ SCT085 BKN110 27/23 A3004 RMK AO2
     T02720225=
KLDM 081436Z AUTO 24005KT 10SM OVC005 24/22 A3002 RMK AO2=
KLGC 081435Z AUTO 00000KT 10SM CLR 32/19 A3004 RMK AO1=
KLHZ 081440Z AUTO 05006KT 10SM SCT090 33/20 A3000 RMK AO2
     T03260203=
KLKU 081440Z AUTO 10003KT 7SM CLR 32/21 A3001 RMK AO2=
KLNP 081438Z AUTO 03005KT 10SM CLR 28/18 A3020 RMK AO1=
KLOM 081440Z AUTO 10006KT 080V140 7SM SCT020 SCT026 29/23 A3004
     RMK AO1 T02920226=
KLWA 081436Z AUTO 32006KT 5SM -RA SCT013 BKN025 OVC030 23/21 A3003
     RMK AO2=
KMCD 081436Z AUTO 28003KT 1/4SM HZ OVC001 20/17 A3000 RMK AO2=
KMDQ 081440Z AUTO 03005KT 10SM CLR 31/21 A3008 RMK AO2
     T03080214=
KMFV 081442Z AUTO 08007KT 10SM SCT080 SCT100 27/22 A3002 RMK
     AO2=
KMGN 081435Z AUTO 25003KT 1 3/4SM BR OVC004 21/20 A2999 RMK
     AO2=
KMGR 081440Z AUTO 29003KT 10SM CLR 32/18 A3004 RMK AO2=
KMKJ 081440Z AUTO 00000KT 10SM CLR 29/11 A3021 RMK AO1=
KMLJ 081444Z AUTO 28003KT 10SM CLR 32/23 A3002 RMK AO2=
KMOP 081434Z AUTO 00000KT 7SM DZ SCT036 BKN060 OVC075 23/23 A3001
     RMK AO2=
KMQS 081440Z AUTO 13005KT 8SM CLR 29/23 A3007 RMK AO2=
KMRN 081441Z AUTO 00000KT 10SM SCT085 30/16 A3010 RMK AO2=
KMZH 081431Z AUTO 27004KT 10SM CLR 22/16 A3006 RMK AO2=
KOBE 081441Z AUTO 09006KT 10SM CLR 29/22 A3001 RMK AO2=
KOEB 081435Z AUTO 16003KT 10SM CLR 28/23 A3003 RMK AO2=
KONX 081440Z AUTO 04008KT 10SM CLR 28/21 A2999 RMK AO2
     T02830208=
KONZ 081437Z AUTO 17003KT 10SM CLR 30/23 A3001 RMK AO2=
KOPN 081440Z AUTO 30006KT 10SM CLR 33/23 A3005 RMK AO1=
KORB 081434Z AUTO 28008KT 10SM CLR 21/13 A3002 RMK AO2=
KOSC 081434Z AUTO 23004KT 10SM SCT080 24/22 A3000 RMK AO2=
KOWA 081433Z AUTO 30006KT 10SM CLR 21/17 A3013 RMK AO2=
KOZW 081435Z AUTO 00000KT 10SM CLR 30/20 A3003 RMK AO2=
KPCM 081440Z AUTO 00000KT 10SM SCT026 29/21 A3003 RMK AO2=
KPHN 081436Z AUTO 20003KT 10SM CLR 31/21 A3001 RMK AO2=
KPSK 081442Z AUTO 03003KT 10SM CLR 32/15 A3015 RMK AO2=
KPTB 081442Z AUTO 08006KT 7SM CLR 32/22 A2999 RMK AO2=
KPZQ 081435Z AUTO 28005KT 5SM RA SCT032 BKN055 OVC065 22/22 A3000
     RMK AO2=
KRGK 081435Z AUTO 32007KT 10SM CLR 23/17 A3010 RMK AO2=
####018002787####
SAUS99 KWBC 081445 RRA
METAR
KRMY 081435Z AUTO 10004KT 10SM CLR 27/21 A3002 RMK AO2=
KRNP 081435Z AUTO 00000KT 10SM CLR 29/21 A3001 RMK AO2=
KDVP 081436Z AUTO 29007KT 10SM CLR 22/14 A3019 RMK AO2
     T02230141=
KEHO 081440Z AUTO 04006KT 10SM CLR 32/20 A3003 RMK AO2
     T03160195=
KERY 081436Z AUTO 32004KT 10SM SCT010 BKN018 22/19 A3000 RMK
     AO2=
KETH 081434Z AUTO 28007KT 10SM CLR 22/16 A3012 RMK AO2=
KEXX 081440Z AUTO 03003KT 7SM CLR 31/21 A3001 RMK AO2=
KEYF 081440Z AUTO 08005KT 7SM CLR 31/22 A2996 RMK AO2
     T03110219=
KF24 081439Z AUTO 10SM OVC095 28/24 A3011 RMK AO2 T02760240=
KFFA 081438Z AUTO 04007KT 020V080 10SM CLR 27/23 A2998 RMK AO2
     T02740225=
KFFX 081435Z AUTO 31005KT 1 1/2SM +RA BKN006 OVC012 22/22 A3002
     RMK AO2=
KFKA 081443Z AUTO 34009KT 10SM SCT015 22/17 A3012 RMK AO2
     T02150169=
KFKN 081440Z AUTO 08005KT 10SM CLR 31/23 A2999 RMK AO1=
KFKS 081435Z AUTO 00000KT 10SM BKN006 BKN017 22/20 A3000 RMK
     AO2=
KFOZ 081433Z AUTO 25004KT 10SM CLR 22/13 A3006 RMK AO2=
KFPK 081436Z AUTO 00000KT 10SM CLR 27/20 A3001 RMK AO2=
KFSE 081434Z AUTO 24008KT 10SM CLR 19/14 A3006 RMK AO2=
KGHG 081440Z AUTO 11008KT 10SM CLR 27/21 A3010 RMK AO2=
KGOV 081435Z AUTO 22004KT 4SM -RA BKN008 BKN014 OVC031 22/22 A3003
     RMK AO2=
KGWW 081440Z AUTO 01005KT 7SM SCT090 SCT120 28/22 A2998 RMK AO2
     T02820219=
KHAF 081430Z AUTO 29003KT 7SM OVC006 12/10 A2996 RMK AO2=
KHAI 081435Z AUTO 21003KT 7SM SCT060 BKN075 OVC090 25/23 A3004 RMK
     AO2=
KHBI 081442Z AUTO 35005KT 7SM CLR 32/19 A3003 RMK AO2=
KHDC 081443Z AUTO 12005KT 10SM SCT014 31/27 A3006 RMK AO2=
KHLX 081441Z AUTO 35004KT 7SM CLR 28/22 A3017 RMK AO2=
KHNZ 081440Z AUTO 07007KT 7SM SCT100 31/20 A3000 RMK AO2
     T03110200=
KHOE 081439Z AUTO 34006KT 10SM CLR 30/21 A3002 RMK AO2
     T03020207=
KHQU 081441Z AUTO 26003KT 10SM CLR 32/19 A3005 RMK AO1=
KHSP 081440Z AUTO 08004KT 10SM CLR 27/17 A3027 RMK AO2=
KHWY 081440Z AUTO 00000KT 7SM CLR 31/22 A3001 RMK AO2=
KHYX 081436Z AUTO 28003KT 10SM SCT070 SCT090 27/20 A3001 RMK
     AO2=
KIDI 081440Z AUTO 00000KT 10SM CLR 28/21 A3009 RMK AO2=
KIPJ 081440Z AUTO 02003KT 10SM CLR 33/18 A3003 RMK AO2
     T03280181=
KIRS 081435Z AUTO 25004KT 7SM -RA SCT050 SCT080 26/22 A3004 RMK
     AO2=
KISQ 081435Z AUTO 01006KT 10SM OVC012 23/19 A2999 RMK AO2=
KIXA 081440Z AUTO 07005KT 10SM CLR 31/21 A2997 RMK AO2
     T03060214=
KJES 081440Z AUTO 33006KT 10SM CLR 31/24 A3000 RMK AO2
     T03070237=
KJGG 081440Z AUTO 09004KT 10SM CLR 32/22 A3001 RMK AO1=
KJKA 081440Z AUTO 00000KT 10SM CLR 32/25 A3003 RMK AO2
     T03220248=
KJYG 081434Z AUTO 32003KT 10SM CLR 23/20 A3016 RMK AO2=
PAKU 081445Z 25016KT 10SM SCT120 BKN230 10/06 A3003=
####018000494####
SPUS99 KWBC 081445
SPECI
KSMQ 081442Z AUTO 21003KT 6SM HZ FEW023 SCT029 29/23 A3002 RMK
     AO2=
KLVJ 081442Z AUTO 19007G18KT 1 1/4SM VCTS +RA BR SCT014 BKN033
     OVC041 24/22 A2999 RMK AO2 VIS 3/4V5 TSB23RAB20 P0008=
KMSN 081437Z COR VRB05KT 9SM BKN015 25/21 A3004 RMK AO2=
KDXR 081442Z 17004KT 4SM BR OVC009 25/23 A3008 RMK AO2 RAE16 CIG
     007V014 P0001=
KGUS 081441Z VRB04KT 10SM FEW100 29/23 A3004 RMK AO2A=
KLAW 081443Z 04008KT 10SM BKN018 27/22 A3007 RMK AO2=
####018000087####
SAGH20 DGAA 081400
METAR DGAA 081400Z 20015KT 9999 SCT016 BKN250 31/23 Q1012 NOSIG=
####018000080####
SACN90 CWAO 081440
WEF SA 1440 AUTO8 M M M 183/14/13/1210/M/M 7002 99MM=

####018000425####
SAPO61 LPAM 081400
METAR LPAR 081400Z /////KT CAVOK 30/18 Q1015 RMK ESTMD WND 24008KT=
METAR LPBJ 081400Z 25009KT 190V280 CAVOK 32/15 Q1016=
METAR LPMR 081400Z 32006KT 8000 SCT009 BKN012 22/18 Q1016=
METAR LPMT 081400Z 22009KT CAVOK 29/19 Q1016=
METAR LPOV 081400Z 26006KT 9999 FEW007 BKN016 23/18 Q1016=
METAR LPST 081400Z 30009KT 9999 FEW015 24/18 Q1017=
METAR LPLA 081400Z 00000KT 9999 SCT013 BKN028 21/19 Q1024=
####018000092####
SAAE31 VTBB 081430 RRD
METAR VVDN 081430Z 22005KT 9999 FEW017 SCT300 25/21 Q1009 NOSIG=
####018001764####
SAUS20 KNKA 081444
METAR KUXL 081440Z AUTO 09010KT 10SM BKN011 29/26 A3001 RMK AO2=
METAR KBQP 081450Z AUTO 00000KT 10SM CLR 30/25 A3008 RMK AO2=
SPECI KENW 081443Z 30008KT 10SM SCT018 SCT028 26/21 A3003 RMK AO2=
METAR KFVX 081442Z AUTO 03007KT 004V084 7SM CLR 34/24 A2997 RMK 
     AO2=
SPECI KFYV 081443Z 18007KT 10SM BKN018 OVC045 25/22 A3009 RMK AO2 
    P0001=
METAR KGAO 081440Z AUTO 07008KT SCT022 SCT029 30/25 A3004 RMK AO2 
     PWINO=
METAR KGEV 081443Z AUTO 04005KT 10SM CLR 29/18 A3019 RMK AO2=
METAR KIER 081440Z AUTO 11005KT 10SM SCT013 SCT018 30/26 A3006 
     RMK AO2 PWINO=
METAR KJFZ 081440Z AUTO 01003KT 9SM CLR 27/21 A3017 RMK=
METAR KMTV 081440Z AUTO 01004KT 7SM CLR 33/21 A3006 RMK AO2=
METAR KOKV 081440Z AUTO 03003KT 10SM SCT085 33/18 A3004 RMK AO2 
     T03280175=
METAR KOMH 081440Z AUTO 01005KT 7SM CLR 32/24 A3004 RMK AO2 
     T03150240=
METAR KRCZ 081440Z AUTO 00000KT 10SM CLR 32/21 A2998 RMK AO2 
     T03210210=
METAR KRMN 081440Z AUTO 00000KT 5SM HZ SCT016 SCT090 31/28 A3005 
     RMK AO2=
METAR KSFQ 081440Z AUTO 07004KT 10SM CLR 29/24 A3000 RMK AO2=
METAR KSHD 081440Z AUTO 00000KT 7SM CLR 32/19 A3007 RMK AO2=
METAR KTBR 081440Z AUTO 35004KT 10SM CLR 32/21 A3000 RMK AO2 
     T03150205=
SPECI KUUU 081443Z AUTO 14007KT 10SM SCT013 26/22 A3010 RMK AO2=
METAR KVDF 081436Z AUTO 10004KT 10SM CLR 30/22 A3001 RMK AO2=
METAR KVVG 081435Z AUTO 00000KT 28/20 A3002 RMK AO2=
METAR KW22 081440Z AUTO 00000KT 10SM CLR 29/19 A3013 RMK AO2=
METAR KWDR 081440Z AUTO 00000KT 10SM CLR 31/21 A3008 RMK AO1=
METAR KXLL 081440Z AUTO 08005KT 10SM CLR 31/23 A3004 RMK AO2 
     T03080233=
METAR KXSA 081440Z AUTO 06004KT 10SM BKN024 BKN110 31/22 A3001 
     RMK AO2 PWINO=
####018000092####
SAAE31 VTBB 081430 RRE
METAR VVPB 081430Z VRB03KT 9999 FEW026 BKN300 28/21 Q1007 NOSIG=
####018000088####
SAUS41 KWBC 081400 RRG
METAR
KCTZ 081440Z AUTO 04005KT 5SM HZ SCT100 31/22 A2997=
####018000083####
SAUS42 KWBC 081400 RRE
METAR
KBQK 081437Z AUTO 32005KT 10SM CLR 30/23 A3000=
