####018000078####
SAIQ01 ORBI 080920
METAR ORMM 080900Z 32016KT 5000 BLDU SKC 48/M01 Q0999=
####018001860####
SAEU KAWN 080900 RRX
METAR EGAA 080920Z 22012KT 9999 SCT019 15/11 Q1014=
METAR EGAC 080920Z 21011KT 9999 FEW020 SCT031 16/10 Q1014=
METAR EGBB 080920Z 26009KT 220V290 9999 FEW035 19/10 Q1018=
METAR EGCC 080920Z 21011KT 9999 FEW031 18/11 Q1017=
METAR EGFF 080920Z 20005KT 160V250 9999 SCT019 18/12 Q1019=
METAR EGGD 080920Z 25005KT 200V290 9999 FEW014 18/13 Q1019=
METAR EGGW 080920Z 24005KT 9999 BKN026 19/13 Q1019=
METAR EGHI 080920Z 33004KT 300V360 9999 SCT007 BKN014 17/15 Q1019=
METAR EGJA 080920Z 23004KT 200V270 9999 BKN007 BKN015 17/16 Q1020=
METAR EGJB 080920Z VRB02KT 9999 FEW004 BKN007 18/16 Q1019=
METAR EGJJ 080920Z 28007KT 240V310 9999 FEW012 20/17 Q1019 NOSIG=
METAR EGKB 080920Z 25004KT 210V290 9999 BKN018 20/15 Q1019=
METAR EGKK 080920Z VRB04KT 9999 SCT018 21/15 Q1019=
METAR EGLC 080920Z 27006KT 9999 SCT018 BKN024 20/15 Q1019=
METAR EGLL 080920Z 31005KT 280V340 9999 FEW008 BKN010 18/14 Q1019=
METAR EGNM 080920Z 23011KT 190V280 9999 SCT018 17/10 Q1016=
METAR EGNX 080920Z 21011KT CAVOK 18/09 Q1018=
METAR COR EGPB 080920Z 19014KT CAVOK 15/11 Q1006 NOSIG=
METAR EGPD 080920Z 23016KT 9999 FEW030 17/08 Q1010 NOSIG=
METAR EGPF 080920Z 23015KT 9999 FEW020 SCT030 15/10 Q1013=
METAR EGPH 080920Z 24012KT 9999 FEW028 16/09 Q1013=
METAR EGPK 080920Z 22014KT 9999 SCT025 16/10 Q1014=
METAR EGSS 080920Z 25006KT 230V360 9999 BKN015 17/14 Q1019=
METAR EGTC 080920Z 23006KT 200V270 9999 FEW020 18/13 Q1018=
METAR EGTE 080920Z 21003KT 9999 FEW025 20/13 Q1018=
METAR EKEB 080920Z AUTO 22011KT 9999NDV FEW072/// FEW100/// 22/13 Q1018=
METAR EKRK 080922Z 19011KT 160V240 CAVOK 23/13 Q1020=
METAR EKRN 080920Z AUTO 21004KT 180V250 9999NDV NCD 20/15 Q1022=
METAR EKYT 080920Z 22009KT 9999 FEW025 BKN035 20/14 Q1017 NOSIG=
METAR LQSA 080930Z 28006KT 250V310 9999 SCT040 BKN050 19/11 Q1024 NOSIG=
####018001810####
SAUK KAWN 080900 RRF
METAR EGAA 080920Z 22012KT 9999 SCT019 15/11 Q1014=
METAR EGAC 080920Z 21011KT 9999 FEW020 SCT031 16/10 Q1014=
METAR EGBB 080920Z 26009KT 220V290 9999 FEW035 19/10 Q1018=
METAR EGCC 080920Z 21011KT 9999 FEW031 18/11 Q1017=
METAR EGFF 080920Z 20005KT 160V250 9999 SCT019 18/12 Q1019=
METAR EGGD 080920Z 25005KT 200V290 9999 FEW014 18/13 Q1019=
METAR EGGW 080920Z 24005KT 9999 BKN026 19/13 Q1019=
METAR EGHD 080920Z 20003KT 9999 FEW022 18/13 Q1019=
METAR EGHI 080920Z 33004KT 300V360 9999 SCT007 BKN014 17/15 Q1019=
METAR EGJA 080920Z 23004KT 200V270 9999 BKN007 BKN015 17/16 Q1020=
METAR EGJB 080920Z VRB02KT 9999 FEW004 BKN007 18/16 Q1019=
METAR EGJJ 080920Z 28007KT 240V310 9999 FEW012 20/17 Q1019 NOSIG=
METAR EGKB 080920Z 25004KT 210V290 9999 BKN018 20/15 Q1019=
METAR EGKK 080920Z VRB04KT 9999 SCT018 21/15 Q1019=
METAR EGLC 080920Z 27006KT 9999 SCT018 BKN024 20/15 Q1019=
METAR EGLF 080920Z 32007KT 4500 -DZ BKN006 16/15 Q1019=
METAR EGLL 080920Z 31005KT 280V340 9999 FEW008 BKN010 18/14 Q1019=
METAR EGMH 080920Z 24008KT 210V280 9999 FEW014 22/17 Q1019=
METAR EGNM 080920Z 23011KT 190V280 9999 SCT018 17/10 Q1016=
METAR EGNT 080920Z 23008KT 170V270 9999 FEW040 18/11 Q1014=
METAR EGNX 080920Z 21011KT CAVOK 18/09 Q1018=
METAR COR EGPB 080920Z 19014KT CAVOK 15/11 Q1006 NOSIG=
METAR EGPD 080920Z 23016KT 9999 FEW030 17/08 Q1010 NOSIG=
METAR EGPF 080920Z 23015KT 9999 FEW020 SCT030 15/10 Q1013=
METAR EGPH 080920Z 24012KT 9999 FEW028 16/09 Q1013=
METAR EGPK 080920Z 22014KT 9999 SCT025 16/10 Q1014=
METAR EGSS 080920Z 25006KT 230V360 9999 BKN015 17/14 Q1019=
METAR EGTC 080920Z 23006KT 200V270 9999 FEW020 18/13 Q1018=
METAR EGTE 080920Z 21003KT 9999 FEW025 20/13 Q1018=
METAR EGTG 080920Z 24004KT 9999 SCT019 18/12 Q1019=
####018000114####
SAUS41 KCAR 080925
MTR40B
METAR K40B 080925Z AUTO 00000KT 20/20 A3002 RMK AO1 SLP154
     T02020202 52005
####018000107####
SAMS32 WMKK 080900 CCA
METAR 080900Z
METAR WBGG 080900Z 25006KT 9999 SCT020 BKN150 27/24 Q1008 RESH=
####018000084####
SPUS81 KWBC 080925
SPECI
KMWT 080922Z AUTO 00000KT 3SM BR BKN002 23/22 A3004=
####018000431####
SPUS17 KAWN 080925 RRB
SPECI KAFF 080922Z AUTO 18007KT 10SM BKN009 BKN016 OVC026 13/12 A3039
      RMK AO2 SLP205=
SPECI KDOV 080919Z AUTO 07003KT 2SM BR BKN006 24/24 A2999 RMK AO2 BKN
      V SCT SLP158 $=
SPECI KDOV 080923Z AUTO 07003KT 2 1/2SM BR BKN006 24/ A2999 RMK AO2
      SLP158 $=
SPECI KHST 080920Z AUTO 07005KT 10SM FEW017 SCT023 26/25 A2992 RMK
      AO2 RAB0902E0920DZB0856E0902 FEW V SCT SLP135 $=
####018000079####
SAXN17 KAWN 080800 RRM
METAR TNCM 080800Z 09007KT 9999 FEW019 28/24 Q1015=
####018000079####
SANA35 KAWN 080800 RRJ
METAR TNCM 080800Z 09007KT 9999 FEW019 28/24 Q1015=
####018000079####
SAZZ40 KAWN 080800 RRW
METAR TNCM 080800Z 09007KT 9999 FEW019 28/24 Q1015=
####018001637####
SPZZ40 KAWN 080925 RRE
SPECI CYAM 080921Z 11002KT 5SM BR OVC005 RMK SF8=
SPECI CYKF 080924Z AUTO 00000KT 1/2SM FG CLR 19/18 A3006 RMK SLP175
      DENSITY ALT 1600FT VIS VRB 1 1/4-2 1/2=
SPECI CYPQ 080922Z AUTO ///// 2SM CLR 20/20 A3003 RMK VSBY VRBL 0.4V9.0=
SPECI CYPY 080920Z AUTO 27003KT 1SM CLR 11/11 A2992 RMK VSBY VRBL 0.4V8.0=
SPECI CYQA 080922Z AUTO 13002KT 2 1/2SM BR CLR 19/19 A3003 RMK SLP170
      DENSITY ALT 1400FT=
SPECI CYSB 080918Z 16002KT 2SM BR BKN002 BKN030 OVC130 RMK SF5SC2AC1
      VIS NE-S 1/2=
SPECI CYZV 080918Z 11003KT 3/4SM R09/2600V6000FT/N -DZ BR BCFG OVC002
      RMK FG2ST6 VIS N 1 S 1/4=
SPECI EGUL 080924Z AUTO 27006KT 9999 SCT029 BKN180 19/13 A3007 RMK
      AO2 CIG 160 RWY06 SLP184=
SPECI KAFF 080922Z AUTO 18007KT 10SM BKN009 BKN016 OVC026 13/12 A3039
      RMK AO2 SLP205=
SPECI KDOV 080923Z AUTO 07003KT 2 1/2SM BR BKN006 24/ A2999 RMK AO2
      SLP158 $=
SPECI KHST 080920Z AUTO 07005KT 10SM FEW017 SCT023 26/25 A2992 RMK
      AO2 RAB0902E0920DZB0856E0902 FEW V SCT SLP135 $=
SPECI KNZY 080919Z 36006KT 7SM -DZ SCT009 OVC013 18/14 A2989 RMK AO2
      P0000 $=
SPECI KOZR 080923Z AUTO 00000KT 6SM R06/5000V5500FT BR CLR 22/22 A3002
      RMK AO2 SLP163=
SPECI KSKF 080922Z 05006KT 10SM BKN012 OVC017 26/ A2993 RMK AO2A RAB0909E0922DZB0910E0912
      SLP123 $=
SPECI KTIK 080920Z AUTO 35005KT 10SM BKN015 OVC022 24/23 A3004 RMK
      AO2 CIG 010V019 BKN V OVC SLP159 $=
SPECI PAED 080921Z AUTO 00000KT 10SM OVC080 12/10 A3000 RMK AO2 RAB0905E0919DZB0919E0921
      SLP159 $=
SPECI YBRK 080918Z 29002KT 9999 BKN012 BKN030 14/12 Q1020=
####018000278####
SANO38 ENMI 080920
METAR ENDR 080920Z NIL=
METAR ENEK 080920Z 23014KT CAVOK 15/13 Q1015 W15/S3=
METAR ENGC 080920Z NIL=
METAR ENHE 080920Z 18025KT 9999 SCT040 14/10 Q1008=
METAR ENOA 080920Z 19024KT CAVOK 13/11 Q1009=
METAR ENSL 080920Z 22024KT CAVOK 14/11 Q1011=
####018000668####
SANO31 ENMI 080920
METAR ENAN 080920Z 16005KT 9999 FEW045 17/09 Q1011 NOSIG =
METAR ENBR 080920Z 20011KT 9999 FEW015 SCT048 BKN070 17/13 Q1012
           NOSIG =
METAR ENBO 080920Z 02007KT 340V060 9999 FEW040 SCT100 18/09 Q1010
           NOSIG=
METAR ENDU 080920Z 17005KT 110V240 9999 FEW050 SCT080 20/05 Q1011
           NOSIG=
METAR ENGM 080911Z 20010KT 170V230 9999 FEW010 SCT017 BKN082 16/14
           Q1015 TEMPO BKN012=
METAR ENOL 080920Z 33010KT 9999 FEW025 SCT090 16/12 Q1010 NOSIG=
METAR ENVA 080920Z 18004KT 120V260 9999 FEW055TCU SCT160 22/11 Q1009
           NOSIG =
METAR ENZV 080918Z 19010KT 9999 FEW020 SCT160 19/12 Q1014=
####018000392####
SANO33 ENMI 080920
METAR ENAT 080920Z NIL=
METAR ENBL 080920Z 20012KT 9999 BKN040 15/08 Q1010=
METAR ENEV 080920Z NIL=
METAR ENFL 080920Z 18017KT 9999 FEW020 SCT060 16/11 Q1010=
METAR ENKB 080920Z 09005KT 050V120 9999 SCT060 18/12 Q1009=
METAR ENKR 080920Z NIL=
METAR ENML 080920Z 08009KT 9999 SCT060 18/12 Q1009=
METAR ENNA 080920Z 18014KT 9999 FEW040 SCT070 20/10 Q1013 =
####018000521####
SANO32 ENMI 080920
METAR ENAL 080920Z 19008KT 150V220 9999 SCT050 SCT080 19/07 Q1009=
METAR ENCN 080920Z 19008KT 5000 BR VV003 16/15 Q1015=
METAR ENHD 080920Z 19010KT 9999 FEW008 16/13 Q1013=
METAR ENRO 080920Z 19010KT 160V220 9999 SCT030 BKN110 17/09 Q1011=
METAR ENRY 080920Z 18008KT 9999 -SHRA FEW005 BKN010 16/15 Q1016 TEMPO
           BKN008=
METAR ENSB 080920Z NIL=
METAR ENTC 080920Z 01004KT 300V030 9999 SCT065 16/09 Q1011 NOSIG=
METAR ENTO 080920Z 15006KT 9999 -DZ FEW005 BKN010 16/15 Q1015=
####018000107####
SAMS31 WMKK 080900 CCA
METAR 080900Z
METAR WBGG 080900Z 25006KT 9999 SCT020 BKN150 27/24 Q1008 RESH=
####018000341####
SADL33 EDZO 080920
METAR EDFE 080920Z VRB02KT CAVOK 27/11 Q1020=
METAR EDFH 080920Z 12008KT 090V150 CAVOK 25/10 Q1022=
METAR EDFM 080920Z 14007KT 090V180 CAVOK 28/09 Q1020=
METAR EDLV 080920Z 24007KT 170V270 CAVOK 29/12 Q1019=
METAR EDTL 080920Z VRB03KT CAVOK 26/13 Q1020=
METAR EDVK 080920Z 20009KT 170V240 CAVOK 25/10 Q1022=
####018000120####
SPCN46 CWAO 080925
SPECI CYKF 080925Z AUTO 00000KT 3/8SM FG FEW002 19/18 A3006 RMK
 SLP175 DENSITY ALT 1600FT=

####018000749####
SADL34 EDZO 080920
METAR EDAC 080920Z 27003KT CAVOK 24/12 Q1022=
METAR EDAH 080920Z 14005KT CAVOK 22/11 Q1022=
METAR EDGS 080920Z 17006KT 070V240 CAVOK 23/10 Q1023=
METAR EDHL 080920Z 16007KT 120V190 CAVOK 27/15 Q1020=
METAR EDJA 080920Z VRB05KT CAVOK 23/11 Q1023=
METAR EDLN 080920Z VRB04KT CAVOK 29/14 Q1019=
METAR EDLP 080920Z 19005KT 120V250 CAVOK 28/09 Q1020=
METAR EDLW 080920Z 22009KT CAVOK 28/09 Q1020=
METAR EDMA 080920Z 11005KT 040V150 CAVOK 23/08 Q1023=
METAR EDNY 080920Z 19004KT CAVOK 24/14 Q1022=
METAR EDQM 080920Z 19005KT 120V240 CAVOK 22/09 Q1024=
METAR EDRZ 080920Z 15004KT 070V200 CAVOK 27/12 Q1021=
METAR EDSB 080920Z 35005KT 300V050 CAVOK 26/12 Q1021=
METAR EDXW 080920Z 21012KT CAVOK 23/12 Q1018=
####018000203####
SANO37 ENMI 080920
METAR ENNO 080920Z NIL=
METAR ENOV 080920Z NIL=
METAR ENSD 080920Z NIL=
METAR ENSG 080920Z NIL=
METAR ENSN 080920Z NIL=
METAR ENSR 080920Z NIL=
METAR ENSS 080920Z NIL=
####018000237####
SADL35 EDZO 080920
METAR EDHI 080920Z 20006KT 140V250 CAVOK 27/11 Q1019=
METAR EDMO 080920Z 09007KT 050V110 CAVOK 22/08 Q1023=
METAR EDOP 080920Z 19009KT CAVOK 26/09 Q1021=
METAR EDTD 080920Z 16004KT 030V260 CAVOK 24/11 Q1023=
####018000203####
SANO34 ENMI 080920
METAR ENBN 080920Z NIL=
METAR ENBV 080920Z NIL=
METAR ENDI 080920Z NIL=
METAR ENFG 080920Z NIL=
METAR ENHF 080920Z NIL=
METAR ENRA 080920Z NIL=
METAR ENSH 080920Z NIL=
####018000238####
SANO36 ENMI 080920
METAR ENBS 080920Z NIL=
METAR ENHK 080920Z 10013KT 9999 FEW035 BKN080 17/09 Q1012=
METAR ENHV 080920Z NIL=
METAR ENLK 080920Z NIL=
METAR ENMH 080920Z NIL=
METAR ENNK 080920Z NIL=
METAR ENNM 080920Z NIL=
####018000203####
SANO35 ENMI 080920
METAR ENMS 080920Z NIL=
METAR ENRM 080920Z NIL=
METAR ENRS 080920Z NIL=
METAR ENSK 080920Z NIL=
METAR ENSO 080920Z NIL=
METAR ENST 080920Z NIL=
METAR ENVD 080920Z NIL=
####018000883####
SAUS20 KNKA 080925
METAR KCLS 080915Z AUTO 00000KT 10SM CLR 14/13 A2995 RMK AO2 =
SPECI KCOT 080924Z AUTO 04007KT 10SM SCT014 BKN041 OVC050 25/23 
    A2989 RMK AO2=
SPECI KFOK 080924Z AUTO 00000KT 6SM BR SCT010 BKN018 OVC027 24/22 
    A3005 RMK AO2 TSNO=
METAR KGZL 080915Z AUTO 14006KT 10SM BKN036 BKN070 OVC085 24/23 
     A3003 RMK AO2 =
METAR KHBI 080923Z AUTO 00000KT CLR 22/17 A3001 RMK AO2 PWINO=
SPECI KHRL 080924Z AUTO 01008KT 10SM -RA FEW013 SCT021 BKN037 26/26 
    A2977 RMK AO2 LTG DSNT N P0001=
METAR KJFZ 080920Z AUTO 00000KT 7SM FEW065 21/20 A3016 RMK=
SPECI KLIC 080924Z AUTO 14003KT 9SM SCT005 13/13 A3034 RMK AO2=
METAR KOCW 080922Z AUTO 36003KT 3SM HZ CLR 24/20 A2993 RMK AO2=
SPECI KTAN 080924Z AUTO 16004KT 6SM BR OVC004 21/21 A3006 RMK AO2 
    CIG 002V007=
SPECI KVTA 080924Z AUTO 00000KT 2SM BR SCT065 19/18 A3008 RMK AO2=
####018000100####
SAUS90 KWBC 080900 RRH
METAR KPVD 080851Z 14003KT 10SM BKN008 BKN016 OVC140 23/21
     A3007=
####018000176####
SPUS90 KWBC 080926
SPECI KMWT 080922Z AUTO 00000KT 3SM BR BKN002 23/22 A3004 RMK AO2
     TSNO=
SPECI KBKB 080923Z AUTO 00000KT 10SM BKN016 24/23 A2998 RMK
     AO2=
####018000106####
SAUS90 KWBC 080926
METAR K40B 080925Z AUTO 00000KT 20/20 A3002 RMK AO1 SLP154
     T02020202 52005=
####018001755####
SAEU KAWN 080900 RRX
METAR EDAH 080920Z 14005KT CAVOK 22/11 Q1022=
METAR EDFH 080920Z 12008KT 090V150 CAVOK 25/10 Q1022=
METAR EDLN 080920Z VRB04KT CAVOK 29/14 Q1019=
METAR EDLP 080920Z 19005KT 120V250 CAVOK 28/09 Q1020=
METAR EDMO 080920Z 09007KT 050V110 CAVOK 22/08 Q1023=
METAR EDNY 080920Z 19004KT CAVOK 24/14 Q1022=
METAR EDOP 080920Z 19009KT CAVOK 26/09 Q1021=
METAR EDSB 080920Z 35005KT 300V050 CAVOK 26/12 Q1021=
METAR EDXW 080920Z 21012KT CAVOK 23/12 Q1018=
METAR EGGP 080920Z 21010KT 9999 SCT030 17/11 Q1017=
METAR EGHD 080920Z 20003KT 9999 FEW022 18/13 Q1019=
METAR COR EGHH 080920Z 04003KT 9999 SCT009 BKN011 17/16 Q1019=
METAR EGLF 080920Z 32007KT 4500 -DZ BKN006 16/15 Q1019=
METAR EGMC 080920Z VRB03KT 9999 FEW023 SCT047 21/16 Q1019=
METAR EGMD 080920Z 31007KT 9999 BKN014 19/16 Q1019=
METAR EGMH 080920Z 24008KT 210V280 9999 FEW014 22/17 Q1019=
METAR EGNT 080920Z 23008KT 170V270 9999 FEW040 18/11 Q1014=
METAR EGNV 080920Z 22010KT 170V240 9999 FEW019 SCT026 17/12 Q1016=
METAR EGTG 080920Z 24004KT 9999 SCT019 18/12 Q1019=
METAR ETGZ 080920Z 14004KT 9999 FEW120 22/08 Q1024 BLU/=
METAR ETHA 080920Z 06005KT 9999 FEW150 21/10 Q1023 BLU/BLU/=
METAR ETHB 080920Z 24006KT 9999 FEW140 27/11 Q1020 BLU/BLU/=
METAR ETHL 080920Z 09005KT 9999 23/08 Q1023 BLU/BLU/=
METAR ETHR 080920Z 09007KT 9999 FEW180 24/06 Q1023 BLU/BLU/=
METAR ETNN 080920Z 18004KT 9999 FEW300 28/04 Q1020 BLU/BLU/=
METAR ETSB 080920Z 17006KT 9999 SCT290 24/08 Q1022 BLU/BLU/=
METAR ETSE 080920Z 12007KT 9999 FEW170 22/09 Q1023 BLU/BLU/=
METAR ETSI 080920Z 14005KT 9999 FEW120 23/07 Q1023 BLU/BLU/=
METAR ETSL 080920Z 07007KT 9999 FEW130 23/09 Q1023 BLU/BLU/=
METAR ETSN 080920Z 04005KT 9999 23/09 Q1023 BLU/BLU/=
####018001775####
SAEW KAWN 080900 RRK
METAR EDAH 080920Z 14005KT CAVOK 22/11 Q1022=
METAR EDFH 080920Z 12008KT 090V150 CAVOK 25/10 Q1022=
METAR EDHI 080920Z 20006KT 140V250 CAVOK 27/11 Q1019=
METAR EDHL 080920Z 16007KT 120V190 CAVOK 27/15 Q1020=
METAR EDLN 080920Z VRB04KT CAVOK 29/14 Q1019=
METAR EDLP 080920Z 19005KT 120V250 CAVOK 28/09 Q1020=
METAR EDLW 080920Z 22009KT CAVOK 28/09 Q1020=
METAR EDMO 080920Z 09007KT 050V110 CAVOK 22/08 Q1023=
METAR EDNY 080920Z 19004KT CAVOK 24/14 Q1022=
METAR EDOP 080920Z 19009KT CAVOK 26/09 Q1021=
METAR EDQM 080920Z 19005KT 120V240 CAVOK 22/09 Q1024=
METAR EDSB 080920Z 35005KT 300V050 CAVOK 26/12 Q1021=
METAR EDTL 080920Z VRB03KT CAVOK 26/13 Q1020=
METAR EDXW 080920Z 21012KT CAVOK 23/12 Q1018=
METAR EGJJ 080920Z 28007KT 240V310 9999 FEW012 20/17 Q1019 NOSIG=
METAR EKEB 080920Z AUTO 22011KT 9999NDV FEW072/// FEW100/// 22/13 Q1018=
METAR EKRN 080920Z AUTO 21004KT 180V250 9999NDV NCD 20/15 Q1022=
METAR ETGZ 080920Z 14004KT 9999 FEW120 22/08 Q1024 BLU/=
METAR ETHA 080920Z 06005KT 9999 FEW150 21/10 Q1023 BLU/BLU/=
METAR ETHB 080920Z 24006KT 9999 FEW140 27/11 Q1020 BLU/BLU/=
METAR ETHL 080920Z 09005KT 9999 23/08 Q1023 BLU/BLU/=
METAR ETHR 080920Z 09007KT 9999 FEW180 24/06 Q1023 BLU/BLU/=
METAR ETNN 080920Z 18004KT 9999 FEW300 28/04 Q1020 BLU/BLU/=
METAR ETNU 080920Z 12004KT 9999 BKN160 23/10 Q1022 BLU BLU TEMPO BLU/=
METAR ETSB 080920Z 17006KT 9999 SCT290 24/08 Q1022 BLU/BLU/=
METAR ETSE 080920Z 12007KT 9999 FEW170 22/09 Q1023 BLU/BLU/=
METAR ETSI 080920Z 14005KT 9999 FEW120 23/07 Q1023 BLU/BLU/=
METAR ETSL 080920Z 07007KT 9999 FEW130 23/09 Q1023 BLU/BLU/=
METAR ETSN 080920Z 04005KT 9999 23/09 Q1023 BLU/BLU/=
METAR ETWM 080920Z 23008KT 9999 FEW070 BKN240 28/09 Q1019 BLU/=
####018000088####
SAZA42 FAJS 080930
METAR FAJS 080930Z 08011KT 030V120 9999 SCT023 13/06 Q1037 NOSIG=
####018000323####
SASW32 LSSW 080920
METAR LSGC 080920Z 27005KT 210V310 CAVOK 24/13 Q1024=
METAR LSGS 080920Z 24004KT 160V300 CAVOK 26/12 Q1021=
METAR LSZG 080920Z VRB02KT CAVOK 24/12 Q1022 NOSIG=
METAR LSZR 080920Z 31006KT CAVOK 22/16 Q1022 NOSIG RMK F=
METAR LSZS 080920Z 21009KT 180V240 CAVOK 21/12 Q1027=
METAR LSZC 080920Z NIL=
####018000508####
SPUS99 KWBC 080926
SPECI
KCOT 080924Z AUTO 04007KT 10SM SCT014 BKN041 OVC050 25/23 A2989
     RMK AO2=
KFOK 080924Z AUTO 00000KT 6SM BR SCT010 BKN018 OVC027 24/22 A3005
     RMK AO2 TSNO=
KHRL 080924Z AUTO 01008KT 10SM -RA FEW013 SCT021 BKN037 26/26
     A2977 RMK AO2 LTG DSNT N P0001=
KLIC 080924Z AUTO 14003KT 9SM SCT005 13/13 A3034 RMK AO2=
KTAN 080924Z AUTO 16004KT 6SM BR OVC004 21/21 A3006 RMK AO2 CIG
     002V007=
KVTA 080924Z AUTO 00000KT 2SM BR SCT065 19/18 A3008 RMK AO2=
####018000344####
SAUS99 KWBC 080926
METAR
KCLS 080915Z AUTO 00000KT 10SM CLR 14/13 A2995 RMK AO2=
KGZL 080915Z AUTO 14006KT 10SM BKN036 BKN070 OVC085 24/23 A3003
     RMK AO2=
KHBI 080923Z AUTO 00000KT CLR 22/17 A3001 RMK AO2 PWINO=
KJFZ 080920Z AUTO 00000KT 7SM FEW065 21/20 A3016 RMK=
KOCW 080922Z AUTO 36003KT 3SM HZ CLR 24/20 A2993 RMK AO2=
####018000079####
SACN87 KWBC 080926
METAR CWWL 080922Z AUTO 13/ RMK AO1 SLP168 T0130 58002=
####018000093####
SPTD31 TTPP 080915
SPECI
TTCP 080915Z 09011KT 8000 VCSH SCT014TCU BKN038 24/23 Q1012=
 
####018000375####
SAOS31 LOWM 080920
METAR LOWW 080920Z 36007KT 320V040 9999 FEW050 22/10 Q1023 NOSIG=
METAR LOWL 080920Z VRB03KT CAVOK 21/11 Q1024 NOSIG=
METAR LOWS 080920Z VRB02KT CAVOK 23/09 Q1023 NOSIG=
METAR LOWI 080920Z VRB01KT CAVOK 22/12 Q1022 NOSIG=
METAR LOWG 080920Z 17003KT 070V230 CAVOK 23/09 Q1023 NOSIG=
METAR LOWK 080920Z 36003KT 290V090 9999 FEW060 21/10 Q1024 NOSIG=
####018000080####
SASN33 ESWI 080920 RRA
METAR ESNG 080920Z 17007KT 120V200 CAVOK 20/09 Q1014=
####018000090####
SAOS32 LOWM 080920
METAR LOXZ 080920Z VRB03KT 70KM FEW270CI 20/09 Q1024 NOSIG RMK FEW=
####018000080####
SASN34 ESWI 080920 RRA
METAR ESDF 080920Z 23008KT 160V360 CAVOK 23/12 Q1021=
####018000082####
SPAK31 KWBC 080926
SPECI
PAED 080921Z AUTO 00000KT 10SM OVC080 12/10 A3000=
####018000196####
SANO37 ENMI 080920
METAR ENNO 080920Z NIL=
METAR ENOV 080920Z NIL=
METAR ENSD 080920Z NIL=
METAR ENSG 080920Z NIL=
METAR ENSN 080920Z NIL=
METAR ENSR 080920Z NIL=
METAR ENSS 080920Z NIL=
####018000272####
SANO38 ENMI 080920
METAR ENDR 080920Z NIL=
METAR ENEK 080920Z 23014KT CAVOK 15/13 Q1015 W15/S3=
METAR ENGC 080920Z NIL=
METAR ENHE 080920Z 18025KT 9999 SCT040 14/10 Q1008=
METAR ENOA 080920Z 19024KT CAVOK 13/11 Q1009=
METAR ENSL 080920Z 22024KT CAVOK 14/11 Q1011=
####018000779####
SAIY31 LIIB 080920
METAR LIEA 080920Z 04005KT 350V100 CAVOK 30/20 Q1019=
METAR LIEE 080915Z 16008KT 9999 FEW020 28/16 Q1019 NOSIG=
METAR LIEO 080920Z 04008KT 010V070 9999 FEW030 30/15 Q1020=
METAR LIMC 080920Z 18004KT 080V220 9999 FEW050 BKN080 25/14 Q1022
NOSIG=
METAR LIME 080920Z 14006KT 090V200 9999 FEW055 25/15 Q1023=
METAR LIMF 080920Z VRB02KT 9999 SCT030 BKN045 24/16 Q1023=
METAR LIMJ 080920Z 16006KT 9999 FEW035 29/23 Q1020=
METAR LIML 080920Z 10007KT 9999 FEW090 27/17 Q1022 NOSIG=
METAR LIRA 080915Z 24006KT 210V310 9999 BKN018 28/20 Q1019=
METAR LIRF 080920Z 20009KT 170V230 9999 FEW020 29/18 Q1020 NOSIG=
METAR LIRN 080920Z 05008KT CAVOK 26/12 Q1019=
METAR LIRP 080915Z 09009KT CAVOK 29/15 Q1019 NOSIG=
METAR LIRQ 080920Z VRB02KT CAVOK 36/13 Q1020=
####018000196####
SANO34 ENMI 080920
METAR ENBN 080920Z NIL=
METAR ENBV 080920Z NIL=
METAR ENDI 080920Z NIL=
METAR ENFG 080920Z NIL=
METAR ENHF 080920Z NIL=
METAR ENRA 080920Z NIL=
METAR ENSH 080920Z NIL=
####018000109####
SAAF32 KWBC 080900 RRC
METAR
FTTJ 080900Z 23006KT 200V260 CAVOK 29/25 Q1014 NOSIG=
FTTJ 080900Z NIL=
####018000798####
SPUS70 KWBC 080926
SPECI
KUCP 080924Z AUTO 00000KT 3/4SM BR CLR 18/18 A3010 RMK AO2 $=
KBMI 080924Z AUTO 25005KT 2 1/2SM TS BR SCT001 BKN021 23/22 A3005
     RMK AO2 PWINO TSB07 P0008 $=
KBVY 080923Z 19005KT 7SM BKN015 22/20 A3006 RMK AO2 PNO=
KEKQ 080922Z AUTO 00000KT 3SM BR CLR 19/18 A3010 RMK AO2=
KIJD 080923Z AUTO 17004KT 3SM BR OVC003 23/22 A3006 RMK AO2=
KCOT 080924Z AUTO 04007KT 10SM SCT014 BKN041 OVC050 25/23 A2989
     RMK AO2=
KFOK 080924Z AUTO 00000KT 6SM BR SCT010 BKN018 OVC027 24/22 A3005
     RMK AO2 TSNO=
KHRL 080924Z AUTO 01008KT 10SM -RA FEW013 SCT021 BKN037 26/26
     A2977 RMK AO2 LTG DSNT N P0001=
KTAN 080924Z AUTO 16004KT 6SM BR OVC004 21/21 A3006 RMK AO2 CIG
     002V007=
KVTA 080924Z AUTO 00000KT 2SM BR SCT065 19/18 A3008 RMK AO2=
####018000861####
SPXX60 KWBC 080926
SPECI
KBKB 080923Z AUTO 00000KT 10SM BKN016 24/23 A2998 RMK AO2=
KAFF 080922Z AUTO 18007KT 10SM BKN009 BKN016 OVC026 13/12 A3039
     RMK AO2 SLP205=
KDOV 080923Z AUTO 07003KT 2 1/2SM BR BKN006 24/ A2999 RMK AO2
     SLP158 $=
KHST 080920Z AUTO 07005KT 10SM FEW017 SCT023 26/25 A2992 RMK AO2
     RAB0902E0920DZB0856E0902 FEW V SCT SLP135 $=
KNZY 080919Z 36006KT 7SM -DZ SCT009 OVC013 18/14 A2989 RMK AO2
     P0000 $=
KOZR 080923Z AUTO 00000KT 6SM R06/5000V5500FT BR CLR 22/22 A3002
     RMK AO2 SLP163=
KSKF 080922Z 05006KT 10SM BKN012 OVC017 26/ A2993 RMK AO2A
     RAB0909E0922DZB0910E0912 SLP123 $=
KTIK 080920Z AUTO 35005KT 10SM BKN015 OVC022 24/23 A3004 RMK AO2
     CIG 010V019 BKN V OVC SLP159 $=
PAED 080921Z AUTO 00000KT 10SM OVC080 12/10 A3000 RMK AO2
     RAB0905E0919DZB0919E0921 SLP159 $=
####018002057####
SAUS70 KWBC 080926 RRA
METAR
KDVP 080916Z AUTO 25003KT 10SM CLR 15/13 A3017 RMK AO2
     T01540133=
KEHO 080920Z AUTO 00000KT 10SM CLR 21/18 A3002 RMK AO2
     T02050177=
KERY 080915Z AUTO 23003KT 10SM BKN011 OVC018 19/19 A2996 RMK
     AO2=
KETH 080914Z AUTO 24006KT 10SM CLR 16/14 A3010 RMK AO2=
KEYF 080920Z AUTO 31003KT 10SM CLR 26/18 A2992 RMK AO2
     T02580183=
KFFA 080918Z AUTO 08007KT 10SM CLR 25/23 A2994 RMK AO2
     T02460227=
KFKS 080915Z AUTO 21005KT 10SM RA SCT060 OVC100 22/19 A2997 RMK
     AO2=
KFOZ 080913Z AUTO 00000KT 1/4SM FG OVC001 12/11 A3004 RMK AO2=
KGAO 080920Z AUTO 00000KT 10SM CLR 27/25 A2999 RMK AO2=
KGEV 080923Z AUTO 00000KT 10SM CLR 24/17 A3019 RMK AO2=
KGOV 080915Z AUTO 20003KT 10SM SCT029 SCT055 BKN120 21/21 A3003
     RMK AO2=
KGWW 080920Z AUTO 00000KT 7SM CLR 24/21 A2993 RMK AO2
     T02370206=
KHDC 080923Z AUTO 00000KT 10SM CLR 26/26 A3002 RMK AO2=
KHNZ 080920Z AUTO 35003KT 5SM HZ SCT075 BKN100 BKN120 24/19 A2998
     RMK AO2 T02380192=
KHYX 080915Z AUTO 00000KT 10SM CLR 22/20 A3000 RMK AO2=
KIER 080920Z AUTO 00000KT 10SM CLR 23/23 A3001 RMK AO2 PWINO=
KISO 080920Z AUTO 03004KT 7SM CLR 24/21 A2994 RMK AO2
     T02410208=
KISQ 080916Z AUTO 23003KT 1/2SM -RA OVC002 19/18 A2996 RMK AO2=
KIXA 080920Z AUTO 00000KT 7SM CLR 23/19 A2995 RMK AO2
     T02260194=
KJKA 080920Z AUTO 00000KT 7SM CLR 26/25 A3001 RMK AO2
     T02620253=
KJYO 080920Z AUTO 00000KT 7SM BKN100 27/19 A3000 RMK AO2=
KLDJ 080920Z AUTO 00000KT 4SM BR SCT002 25/23 A3001 RMK AO2
     T02450232=
KLDM 080916Z AUTO 23003KT 10SM BKN090 OVC110 22/21 A3000 RMK
     AO2=
KLHZ 080920Z AUTO 00000KT 7SM BKN100 OVC120 24/19 A2997 RMK AO2
     T02350193=
KCLS 080915Z AUTO 00000KT 10SM CLR 14/13 A2995 RMK AO2=
KGZL 080915Z AUTO 14006KT 10SM BKN036 BKN070 OVC085 24/23 A3003
     RMK AO2=
KHBI 080923Z AUTO 00000KT CLR 22/17 A3001 RMK AO2 PWINO=
KJFZ 080920Z AUTO 00000KT 7SM FEW065 21/20 A3016 RMK=
KOCW 080922Z AUTO 36003KT 3SM HZ CLR 24/20 A2993 RMK AO2=
####018000087####
SAAF36 KWBC 080900 RRC
METAR
HRYR 080930Z 14009KT 9999 SCT030 23/12 Q1022 NOSIG=
####018000384####
SANO33 ENMI 080920
METAR ENAT 080920Z NIL=
METAR ENBL 080920Z 20012KT 9999 BKN040 15/08 Q1010=
METAR ENEV 080920Z NIL=
METAR ENFL 080920Z 18017KT 9999 FEW020 SCT060 16/11 Q1010=
METAR ENKB 080920Z 09005KT 050V120 9999 SCT060 18/12 Q1009=
METAR ENKR 080920Z NIL=
METAR ENML 080920Z 08009KT 9999 SCT060 18/12 Q1009=
METAR ENNA 080920Z 18014KT 9999 FEW040 SCT070 20/10 Q1013 =
####018000084####
SAAW32 KWBC 080900 RRB
METAR
ORMM 080900Z 32016KT 5000 BLDU SKC 48/M01 Q0999=
####018000387####
SABX31 EBBR 080920
METAR EBAW 080920Z 22007KT 180V300 CAVOK 27/12 Q1019 NOSIG=
METAR EBBR 080920Z 23006KT 200V260 CAVOK 28/11 Q1020 NOSIG=
METAR EBCI 080920Z 20006KT 160V250 CAVOK 27/10 Q1020 NOSIG=
METAR EBLG 080920Z 24006KT 200V270 CAVOK 28/09 Q1020 NOSIG=
METAR EBOS 080920Z 28008KT 250V310 CAVOK 20/16 Q1020 NOSIG=
METAR ELLX 080920Z 11004KT 050V190 CAVOK 26/10 Q1021 NOSIG=
####018000512####
SANO32 ENMI 080920
METAR ENAL 080920Z 19008KT 150V220 9999 SCT050 SCT080 19/07 Q1009=
METAR ENCN 080920Z 19008KT 5000 BR VV003 16/15 Q1015=
METAR ENHD 080920Z 19010KT 9999 FEW008 16/13 Q1013=
METAR ENRO 080920Z 19010KT 160V220 9999 SCT030 BKN110 17/09 Q1011=
METAR ENRY 080920Z 18008KT 9999 -SHRA FEW005 BKN010 16/15 Q1016 TEMPO
           BKN008=
METAR ENSB 080920Z NIL=
METAR ENTC 080920Z 01004KT 300V030 9999 SCT065 16/09 Q1011 NOSIG=
METAR ENTO 080920Z 15006KT 9999 -DZ FEW005 BKN010 16/15 Q1015=
####018000655####
SANO31 ENMI 080920
METAR ENAN 080920Z 16005KT 9999 FEW045 17/09 Q1011 NOSIG =
METAR ENBR 080920Z 20011KT 9999 FEW015 SCT048 BKN070 17/13 Q1012
           NOSIG =
METAR ENBO 080920Z 02007KT 340V060 9999 FEW040 SCT100 18/09 Q1010
           NOSIG=
METAR ENDU 080920Z 17005KT 110V240 9999 FEW050 SCT080 20/05 Q1011
           NOSIG=
METAR ENGM 080911Z 20010KT 170V230 9999 FEW010 SCT017 BKN082 16/14
           Q1015 TEMPO BKN012=
METAR ENOL 080920Z 33010KT 9999 FEW025 SCT090 16/12 Q1010 NOSIG=
METAR ENVA 080920Z 18004KT 120V260 9999 FEW055TCU SCT160 22/11 Q1009
           NOSIG =
METAR ENZV 080918Z 19010KT 9999 FEW020 SCT160 19/12 Q1014=
####018000088####
SAUK31 EGGY 080920 CCA
METAR COR EGCC 080920Z 21011KT 9999 FEW031 18/11 Q1017 NOSIG=
####018000196####
SANO35 ENMI 080920
METAR ENMS 080920Z NIL=
METAR ENRM 080920Z NIL=
METAR ENRS 080920Z NIL=
METAR ENSK 080920Z NIL=
METAR ENSO 080920Z NIL=
METAR ENST 080920Z NIL=
METAR ENVD 080920Z NIL=
####018000286####
SAFI33 EFHK 080920
EFJO 080920Z 04004KT 360V070 CAVOK 24/19 Q1015=
EFLP 080920Z 13004KT 080V190 CAVOK 30/15 Q1014=
EFMI 080920Z AUTO 01003KT CAVOK 27/19 Q1014=
EFSA 080920Z VRB01KT 9999 FEW025 28/19 Q1014=
EFUT 080920Z 05005KT 340V110 CAVOK 29/17 Q1014=
METAR EFVR 080925Z NIL=
####018000197####
SAAF31 KWBC 080900 RRD
METAR
DBBB 080900Z 23006KT 200V270 8000 SCT012 BKN120 27/25 Q1014
     NOSIG=
DNKN 080900Z NIL=
DRRN 080900Z VRB01KT CAVOK 27/21 Q1013 NOSIG=
DXXX 080900Z NIL=
####018000093####
SAAS33 KWBC 080905 CCA
METAR
WBGG 080900Z 25006KT 9999 SCT020 BKN150 27/24 Q1008 RESH=
####018000078####
SAAF35 KWBC 080900 RRB
METAR
HLLT 080920Z 00000KT 7000 SKC 29/18 Q1019=
####018000536####
SAIY32 LIIB 080920
METAR LIBD 080920Z 35014KT CAVOK 25/12 Q1020=
METAR LIBR 080915Z /////KT CAVOK 25/16 Q1017 NOSIG=
METAR LICC 080920Z 08008KT CAVOK 29/21 Q1018=
METAR LICJ 080920Z 05009KT CAVOK 28/22 Q1018=
METAR LIPE 080920Z 11008KT 080V140 CAVOK 28/14 Q1021=
METAR LIPH 080915Z 02002KT 9999 BKN070 25/19 Q1023=
METAR LIPQ 080920Z VRB03KT 9999 BKN050 25/14 Q1023=
METAR LIPR 080915Z 12005KT CAVOK 28/17 Q1021=
METAR LIPX 080915Z 12006KT 9999 FEW040 28/12 Q1021=
METAR LIPZ 080920Z 13007KT 9999 FEW050 BKN070 27/16 Q1022=
####018000028####
SABX31 KWBC 080920
NIL=
####018000231####
SANO36 ENMI 080920
METAR ENBS 080920Z NIL=
METAR ENHK 080920Z 10013KT 9999 FEW035 BKN080 17/09 Q1012=
METAR ENHV 080920Z NIL=
METAR ENLK 080920Z NIL=
METAR ENMH 080920Z NIL=
METAR ENNK 080920Z NIL=
METAR ENNM 080920Z NIL=
####018000164####
SPUS80 KWBC 080926
SPECI
KMWT 080922Z AUTO 00000KT 3SM BR BKN002 23/22 A3004 RMK AO2
     TSNO=
KLIC 080924Z AUTO 14003KT 9SM SCT005 13/13 A3034 RMK AO2=
####018000225####
SAUS80 KWBC 080926
METAR
KPZQ 080915Z AUTO 22004KT 7SM SCT120 22/22 A2997 RMK AO2=
KJNX 080921Z AUTO 00000KT 5SM CLR 21/21 A2993 RMK AO2=
K40B 080925Z AUTO 00000KT 20/20 A3002 RMK AO1 SLP154 T02020202
     52005=
####018003717####
SAUS70 KWBC 080926
METAR
KVVG 080915Z AUTO 00000KT 21/20 A2999 RMK AO2=
KVWU 080911Z AUTO 23004KT 10SM CLR 16/15 A3001 RMK AO2=
KW22 080920Z AUTO 00000KT 3SM BR CLR 19/19 A3012 RMK AO2=
KW45 080920Z AUTO 00000KT 7SM SCT100 23/19 A3005 RMK AO2
     T02290190=
KWDR 080920Z AUTO 00000KT 10SM CLR 22/20 A3006 RMK AO1=
KXLL 080920Z AUTO 00000KT 7SM CLR 24/22 A3003 RMK AO2
     T02440220=
KXSA 080920Z AUTO 00000KT 5SM BKN100 OVC120 25/23 A2998 RMK AO2
     PWINO=
KXVG 080916Z AUTO 24004KT 10SM CLR 16/15 A3004 RMK AO2=
KLKU 080920Z AUTO 00000KT 7SM CLR 26/19 A2999 RMK AO2=
KLNP 080918Z AUTO 00000KT 5SM CLR 20/18 A3018 RMK AO1=
KLOM 080920Z AUTO 00000KT 4SM CLR 22/20 A3001 RMK AO1
     T02160204=
KMCD 080915Z AUTO 00000KT 7SM SCT110 21/18 A2996 RMK AO2=
KMDQ 080920Z AUTO 00000KT 10SM CLR 22/21 A3006 RMK AO2
     T02200211=
KMKJ 080920Z AUTO 00000KT 2SM CLR 18/08 A3021 RMK AO1=
KMMU 080920Z AUTO 00000KT 5SM BR SCT110 21/20 RMK AO2
     T02050200=
KMQS 080920Z AUTO 00000KT 5SM CLR 23/22 A3005 RMK AO2 PWINO
     PNO=
KMTV 080920Z AUTO 00000KT 7SM SCT080 22/21 A3005 RMK AO2=
KMZH 080911Z AUTO 00000KT 10SM CLR 15/14 A3004 RMK AO2=
KOBE 080921Z AUTO 00000KT 10SM CLR 23/22 A2997 RMK AO2=
KOKV 080920Z AUTO 00000KT 7SM CLR 23/19 A3004 RMK AO2
     T02280190=
KOMH 080920Z AUTO 00000KT 10SM CLR 26/20 A3002 RMK AO2
     T02590202=
KONX 080920Z AUTO 07004KT 10SM BKN009 BKN014 BKN100 26/24 A2995
     RMK AO2 T02570236=
KONZ 080917Z AUTO 00000KT 10SM SCT075 25/20 A3002 RMK AO2=
KOPN 080920Z AUTO 00000KT 10SM CLR 24/22 A3004 RMK AO1=
KORB 080914Z AUTO 22003KT 10SM CLR 15/13 A3000 RMK AO2=
KOSC 080914Z AUTO 00000KT 7SM CLR 19/18 A3000 RMK AO2=
KOWA 080914Z AUTO 30004KT 10SM CLR 17/17 A3008 RMK AO2=
KPCM 080920Z AUTO 00000KT 4SM BR CLR 23/22 A3000 RMK AO2=
KPHN 080916Z AUTO 00000KT 1/4SM FG BKN001 BKN030 20/18 A3002 RMK
     AO2=
KRCZ 080920Z AUTO 00000KT 10SM CLR 24/19 A2996 RMK AO2
     T02370187=
KRHP 080924Z AUTO 00000KT 4SM BR CLR 18/17 A3012 RMK AO2=
KRMN 080920Z AUTO 00000KT 5SM BR SCT120 22/22 A3001 RMK AO2=
KRMY 080915Z AUTO 00000KT 10SM CLR 22/19 A3004 RMK AO2=
KSAW 080919Z AUTO 00000KT 7SM OVC003 18/17 A2996 RMK AO2=
KSFQ 080920Z AUTO 00000KT 3SM BR BKN006 24/23 A2997 RMK AO2=
KSHD 080920Z AUTO 00000KT 5SM HZ CLR 21/18 A3008 RMK AO2=
KSJX 080916Z AUTO 22008KT 4SM -RA BKN004 BKN060 OVC120 21/20 A2996
     RMK AO2=
KSLH 080915Z AUTO 00000KT 10SM BKN120 21/21 A2996 RMK AO2=
KSVH 080920Z AUTO 00000KT 10SM CLR 22/16 A3004 RMK AO2
     T02210161=
KTBR 080920Z AUTO 00000KT 10SM CLR 22/21 A2999 RMK AO2
     T02200205=
KTNB 080922Z AUTO 00000KT 7SM SCT065 16/14 A3020 RMK AO2=
KTTF 080914Z AUTO 00000KT 10SM CLR 22/21 A3002 RMK AO2=
KTVI 080920Z AUTO 00000KT 10SM CLR 22/21 A3002 RMK AO2
     T02160211=
KUKF 080922Z AUTO 14003KT 7SM SCT090 21/18 A3007 RMK AO1=
KVDF 080916Z AUTO 00000KT 4SM BR CLR 22/21 A2998 RMK AO2=
KVJI 080923Z AUTO 00000KT 5SM BR SCT075 21/19 A3014 RMK AO2=
KVUJ 080919Z AUTO 00000KT 10SM BKN090 21/18 A2998 RMK AO2=
KUXL 080920Z AUTO 07007KT 10SM CLR 26/24 A2997 RMK AO2=
KAMN 080916Z AUTO 24007KT 7SM RA SCT030 BKN060 OVC110 23/22 A3003
     RMK AO2=
KAQP 080914Z AUTO 23003KT 10SM CLR 13/13 A3010 RMK AO2=
KBFW 080913Z AUTO 00000KT 10SM CLR 16/14 A3000 RMK AO2=
KCDA 080915Z AUTO 00000KT 3SM BR CLR 20/17 A3010 RMK AO2=
KCDD 080911Z AUTO 18004KT 10SM CLR 16/16 A3002 RMK AO2=
KCPC 080920Z AUTO 26003KT 10SM CLR 26/19 A2992 RMK AO2
     T02620193=
KCVX 080915Z AUTO 21003KT 7SM OVC110 21/20 A2998 RMK AO2=
KCWF 080920Z AUTO 06005KT 7SM CLR 24/24 A2998 RMK AO2=
KCWV 080931Z AUTO 28005KT 10SM CLR 22/22 A2999 RMK AO2=
####018000081####
SACA33 KWBC 080800 RRD
METAR
TNCM 080800Z 09007KT 9999 FEW019 28/24 Q1015=
####018000725####
SADL31 KWBC 080920
METAR
EDBB NIL=
EDBT NIL=
EDCK NIL=
EDDF 080920Z 12005KT CAVOK 27/10 Q1021 NOSIG=
EDDH 080920Z 17007KT CAVOK 26/11 Q1019 NOSIG=
EDDK 080920Z 15005KT CAVOK 28/09 Q1020 NOSIG=
EDDL 080920Z 22005KT 170V230 CAVOK 28/10 Q1019 NOSIG=
EDDM 080920Z 09008KT CAVOK 22/08 Q1023 NOSIG=
EDDN 080920Z 11004KT 050V150 CAVOK 25/08 Q1022 NOSIG=
EDDS 080920Z VRB03KT CAVOK 25/08 Q1022 NOSIG=
EDDW 080920Z 23008KT 170V240 CAVOK 27/08 Q1019 NOSIG=
EDFE 080920Z VRB02KT CAVOK 27/11 Q1020=
EDFM 080920Z 14007KT 090V180 CAVOK 28/09 Q1020=
EDHI 080920Z 20006KT 140V250 CAVOK 27/11 Q1019=
EDHL 080920Z 16007KT 120V190 CAVOK 27/15 Q1020=
EDKB NIL=
EDKS NIL=
EDLE NIL=
EDLG NIL=
EDLI NIL=
####018000519####
SADL32 KWBC 080920
METAR
EDLN 080920Z VRB04KT CAVOK 29/14 Q1019=
EDLP 080920Z 19005KT 120V250 CAVOK 28/09 Q1020=
EDLS NIL=
EDLW 080920Z 22009KT CAVOK 28/09 Q1020=
EDMA 080920Z 11005KT 040V150 CAVOK 23/08 Q1023=
EDML NIL=
EDMO 080920Z 09007KT 050V110 CAVOK 22/08 Q1023=
EDMS NIL=
EDQD NIL=
EDQM 080920Z 19005KT 120V240 CAVOK 22/09 Q1024=
EDRS NIL=
EDRT NIL=
EDTB NIL=
EDTD 080920Z 16004KT 030V260 CAVOK 24/11 Q1023=
EDTF NIL=
EDTK NIL=
EDTO NIL=
EDTY NIL=
EDTZ NIL=
EDVE NIL=
####018000832####
SADN31 KWBC 080920
METAR
EKAH 080920Z AUTO 19010KT 130V280 9999NDV BKN051/// 22/14
     Q1018=
EKBI 080920Z 22009KT 9999 FEW041 BKN063 22/15 Q1018=
EKCH 080920Z 17012KT 130V200 CAVOK 21/14 Q1021 NOSIG=
EKEB 080920Z AUTO 22011KT 9999NDV FEW072/// FEW100/// 22/13
     Q1018=
EKHO NIL=
EKKA 080920Z 23006KT 200V270 9999 FEW018TCU BKN045 17/16 Q1018
     TEMPO 4000 SHRA SCT020CB=
EKMB NIL=
EKOD 080920Z NIL=
EKRK 080922Z 19011KT 160V240 CAVOK 23/13 Q1020=
EKRN 080920Z AUTO 21004KT 180V250 9999NDV NCD 20/15 Q1022=
EKSB 080920Z NIL=
EKSN 080920Z NIL=
EKSP 080920Z 20009KT 170V230 CAVOK 24/11 Q1018 NOSIG RMK FEW050
     BKN100 BKN200=
EKSV NIL=
EKTS NIL=
EKVA NIL=
EKVD 080920Z NIL=
EKVG NIL=
EKVJ 080920Z NIL=
EKVL NIL=
EKYT 080920Z 22009KT 9999 FEW025 BKN035 20/14 Q1017 NOSIG=
####018000167####
SADL33 KWBC 080915 RRB
METAR
EDNY 080920Z 19004KT CAVOK 24/14 Q1022=
EDVK 080920Z 20009KT 170V240 CAVOK 25/10 Q1022=
EDXW 080920Z 21012KT CAVOK 23/12 Q1018=
####018000123####
SAEN31 KWBC 080850 RRB
METAR
ENGM 080911Z 20010KT 170V230 9999 FEW010 SCT017 BKN082 16/14 Q1015
     TEMPO BKN012=
####018001467####
SAEN31 KWBC 080920
METAR
EETN 080920Z 31006KT 260V360 CAVOK 23/18 Q1014 NOSIG=
EFHF 080920Z 33006KT 280V010 9999 FEW034 BKN039 27/18 Q1014=
EFHK 080920Z 33006KT 9999 SCT040 SCT200 27/17 Q1014 NOSIG=
EFIV NIL=
EFJY 080920Z VRB02KT 9999 BKN017 21/17 Q1016=
EFKE NIL=
EFKK 080920Z 11004KT 040V180 CAVOK 23/11 Q1015=
EFKU 080920Z AUTO VRB03KT 030V110 9999NDV FEW017 SCT141 22/17
     Q1015=
EFMA 080920Z 18003KT CAVOK 22/10 Q1016=
EFOU 080920Z VRB03KT 9999 FEW020 SCT200 20/13 Q1016=
EFPN NIL=
EFPO 080920Z 21002KT CAVOK 24/10 Q1016=
EFRO 080920Z AUTO VRB03KT 9999NDV FEW029 19/10 Q1017=
EFTN NIL=
EFTP 080920Z 30004KT 220V360 9999 FEW040 24/15 Q1016=
EFTU 080920Z AUTO 33007KT 300V010 CAVOK 25/05 Q1015=
EFVA 080920Z 17003KT 9999 FEW020 BKN200 22/13 Q1015=
ENBO 080920Z 02007KT 340V060 9999 FEW040 SCT100 18/09 Q1010
     NOSIG=
ENBR 080920Z 20011KT 9999 FEW015 SCT048 BKN070 17/13 Q1012
     NOSIG=
ENCN 080920Z 19008KT 5000 BR VV003 16/15 Q1015=
ENEB NIL=
ENFB NIL=
ENGM NIL=
ENHD 080920Z 19010KT 9999 FEW008 16/13 Q1013=
ENKR 080920Z NIL=
ENSB 080920Z NIL=
ENTC 080920Z 01004KT 300V030 9999 SCT065 16/09 Q1011 NOSIG=
ENVA 080920Z 18004KT 120V260 9999 FEW055TCU SCT160 22/11 Q1009
     NOSIG=
ENZV 080918Z 19010KT 9999 FEW020 SCT160 19/12 Q1014=
EVRA 080920Z 31010KT 270V340 9999 SCT009 OVC016 18/16 Q1015
     NOSIG=
EYVI 080920Z 27009KT 240V300 7000 BKN007 OVC023 16/14 Q1014
     NOSIG=
####018000028####
SAGR31 KWBC 080920
NIL=
####018000028####
SAGR41 KWBC 080920
NIL=
####018000129####
SPNT31 KWBC 080926
SPECI
TXKF 080918Z 20009KT 160V220 9999 VCSH SCT013TCU BKN060 BKN170
BKN300 24/22 Q1018 RMK TCU NW-N=
####018000093####
SAIO31 KWBC 080900 CCA
METAR
WBGG 080900Z 25006KT 9999 SCT020 BKN150 27/24 Q1008 RESH=
####018000099####
SAIQ31 KWBC 080900 RRA
METAR
KQTX 080855Z 27009G13KT 9999 CLR 42/M01 A2968 RMK SLP021 55002=
####018000028####
SAIY32 KWBC 080920
NIL=
####018000028####
SAIY31 KWBC 080920
NIL=
####018000028####
SAIY41 KWBC 080920
NIL=
####018000028####
SAIY42 KWBC 080920
NIL=
####018000028####
SAIY43 KWBC 080920
NIL=
####018000098####
SADL52 ETGT 080920 RRA
METAR
ETHN 080920Z 14005KT 9999 FEW060 24/07 Q1022
      BLU+BLU+=
####018000091####
SPCN46 CWAO 080924
SPECI CYSB 080924Z 17004KT 1/4SM R22/P6000FT/D FG VV002 RMK FG8=

####018000120####
SPXX61 KWBC 080926
SPECI
EGUL 080924Z AUTO 27006KT 9999 SCT029 BKN180 19/13 A3007 RMK AO2
CIG 160 RWY06 SLP184=
####018000674####
SANO41 KWBC 080920
METAR
ENAL 080920Z 19008KT 150V220 9999 SCT050 SCT080 19/07 Q1009=
ENAN 080920Z 16005KT 9999 FEW045 17/09 Q1011 NOSIG=
ENAT 080920Z NIL=
ENBL 080920Z 20012KT 9999 BKN040 15/08 Q1010=
ENBN 080920Z NIL=
ENBV 080920Z NIL=
ENDI 080920Z NIL=
ENDU 080920Z 17005KT 110V240 9999 FEW050 SCT080 20/05 Q1011
     NOSIG=
ENEK 080920Z 23014KT CAVOK 15/13 Q1015 W15/S3=
ENEV 080920Z NIL=
ENFG 080920Z NIL=
ENFL 080920Z 18017KT 9999 FEW020 SCT060 16/11 Q1010=
ENFR NIL=
ENGC 080920Z NIL=
ENHF 080920Z NIL=
ENHV 080920Z NIL=
ENKB 080920Z 09005KT 050V120 9999 SCT060 18/12 Q1009=
ENLI NIL=
ENLK 080920Z NIL=
ENMH 080920Z NIL=
####018000342####
SANL31 KWBC 080920
METAR
EHAM NIL=
EHBD NIL=
EHBK NIL=
EHDL NIL=
EHEH 080925Z AUTO 23007KT 9999NDV NCD 29/12 Q1019 BLU BLU=
EHGG NIL=
EHGR NIL=
EHHO NIL=
EHHV NIL=
EHKD NIL=
EHLE NIL=
EHLW NIL=
EHMZ NIL=
EHRD NIL=
EHSB NIL=
EHTE NIL=
EHTW NIL=
EHTX NIL=
EHVB NIL=
EHVK NIL=
EHVL NIL=
EHWO NIL=
####018000790####
SANO42 KWBC 080920
METAR
ENML 080920Z 08009KT 9999 SCT060 18/12 Q1009=
ENMS 080920Z NIL=
ENNA 080920Z 18014KT 9999 FEW040 SCT070 20/10 Q1013=
ENNK 080920Z NIL=
ENNM 080920Z NIL=
ENNO 080920Z NIL=
ENOA 080920Z 19024KT CAVOK 13/11 Q1009=
ENOL 080920Z 33010KT 9999 FEW025 SCT090 16/12 Q1010 NOSIG=
ENOV 080920Z NIL=
ENRA 080920Z NIL=
ENRM 080920Z NIL=
ENRO 080920Z 19010KT 160V220 9999 SCT030 BKN110 17/09 Q1011=
ENRS 080920Z NIL=
ENRY 080920Z 18008KT 9999 -SHRA FEW005 BKN010 16/15 Q1016 TEMPO
     BKN008=
ENSD 080920Z NIL=
ENSG 080920Z NIL=
ENSH 080920Z NIL=
ENSK 080920Z NIL=
ENSN 080920Z NIL=
ENSO 080920Z NIL=
ENSR 080920Z NIL=
ENST 080920Z NIL=
ENSV NIL=
ENTO 080920Z 15006KT 9999 -DZ FEW005 BKN010 16/15 Q1015=
ENVD 080920Z NIL=
####018000076####
SPUS41 KWBC 080926
SPECI
KBVY 080923Z 19005KT 7SM BKN015 22/20 A3006=
####018000086####
SPUS41 KWBC 080926
SPECI
KDOV 080923Z AUTO 07003KT 2 1/2SM BR BKN006 24/ A2999=
####018000746####
SAPA32 KWBC 080900
METAR
NCRG 080900Z 07003KT 9999 SCT014 BKN290 25/24 Q1018=
NFFN 080900Z 12006KT 40KM FEW030 SCT050 22/20 Q1014 NOSIG RMK RR
     NIL=
NFNA 080900Z 00000KT 40KM SCT024 22/21 Q1014 RMK RR NIL=
NFTF 080900Z 19004KT 9999 FEW015 20/19 Q1015=
NFTV NIL=
NGFU 080900Z 08005KT 50KM FEW020 29/25 Q1010=
NGTA NIL=
NIUE 080900Z AUTO 14005KT //// ////// 25/23 Q1014=
NLWW NIL=
NSFA 080900Z 08006KT 45KM FEW020 26/24 Q1012=
NSFI NIL=
NSFU NIL=
NSMA NIL=
NSTU 080850Z 08008KT 10SM SCT014 BKN045 28/26 A2989 RMK SLP124
     60005 8/400 T02790261 52017=
NTAA 080900Z 14004KT 9999 FEW023 26/22 Q1015 WS ALL RWY NOSIG=
NTTG NIL=
NTTO NIL=
NVVV NIL=
NWWW 080900Z AUTO 00000KT 9999NDV NCD 18/16 Q1016=
####018001100####
SASN31 KWBC 080920
METAR
ESDB NIL=
ESDF 080920Z 23008KT 160V360 CAVOK 23/12 Q1021=
ESDF 080920Z NIL=
ESGG 080920Z 21014KT 9999 BKN040 20/13 Q1018=
ESGJ 080920Z AUTO 20014KT 9999NDV BKN040/// 21/10 Q1019=
ESGP 080920Z 18012KT 9999 OVC036 19/15 Q1018=
ESKN 080920Z 32011KT 280V350 9999 FEW040 23/12 Q1018=
ESMK 080920Z 17007KT CAVOK 25/12 Q1020=
ESMS 080920Z 20010KT CAVOK 23/11 Q1021=
ESMX 080920Z 21008KT CAVOK 23/11 Q1020=
ESNN 080920Z 14008KT 9999 FEW027 22/13 Q1013=
ESNO 080920Z AUTO 14012KT 9999NDV FEW038/// 19/11 Q1014=
ESNQ 080920Z 22010KT 9999 FEW033 BKN078 17/10 Q1013=
ESNS 080920Z AUTO 14010KT 9999NDV ////// 22/11 Q1015=
ESNU 080920Z 15007KT CAVOK 20/13 Q1015=
ESOK 080920Z 20011KT 9999 BKN025 19/13 Q1017=
ESOW 080920Z 23011KT CAVOK 22/12 Q1017=
ESPA 080920Z 15012KT CAVOK 19/14 Q1016=
ESPC NIL=
ESSA 080920Z 23011KT 200V270 CAVOK 23/12 Q1017 NOSIG=
ESSB 080920Z 27011KT CAVOK 23/10 Q1017=
ESSD 080920Z 25010KT 9999NDV BKN028/// 19/12 Q1016=
ESSN NIL=
ESSP 080920Z 25014KT CAVOK 22/11 Q1018=
ESSV 080920Z 28006KT CAVOK 20/11 Q1019=
####018000535####
SASW31 KWBC 080920
METAR
LSGC 080920Z 27005KT 210V310 CAVOK 24/13 Q1024=
LSGG 080920Z VRB03KT CAVOK 26/11 Q1022 NOSIG=
LSGL NIL=
LSGN NIL=
LSGS 080920Z 24004KT 160V300 CAVOK 26/12 Q1021=
LSZA 080920Z 19004KT 130V230 9999 BKN052 25/13 Q1023 NOSIG=
LSZB 080920Z VRB03KT CAVOK 25/15 Q1022 NOSIG=
LSZD NIL=
LSZG 080920Z VRB02KT CAVOK 24/12 Q1022 NOSIG=
LSZH 080920Z VRB03KT CAVOK 24/13 Q1022 NOSIG=
LSZL NIL=
LSZR 080920Z 31006KT CAVOK 22/16 Q1022 NOSIG RMK F=
LSZS 080920Z 21009KT 180V240 CAVOK 21/12 Q1027=
####018001038####
SAUK31 KWBC 080920
METAR
EGAA 080920Z 22012KT 9999 SCT019 15/11 Q1014=
EGBB 080920Z 26009KT 220V290 9999 FEW035 19/10 Q1018=
EGCC 080920Z 21011KT 9999 FEW031 18/11 Q1017=
EGFF 080920Z 20005KT 160V250 9999 SCT019 18/12 Q1019=
EGGD 080920Z 25005KT 200V290 9999 FEW014 18/13 Q1019=
EGGP 080920Z 21010KT 9999 SCT030 17/11 Q1017=
EGGW 080920Z 24005KT 9999 BKN026 19/13 Q1019=
EGHD 080920Z 20003KT 9999 FEW022 18/13 Q1019=
EGHH 080920Z 04003KT 9999 SCT009 BKN011 17/16 Q1019=
EGHI 080920Z 33004KT 300V360 9999 SCT007 BKN014 17/15 Q1019=
EGJB 080920Z VRB02KT 9999 FEW004 BKN007 18/16 Q1019=
EGJJ 080920Z 28007KT 240V310 9999 FEW012 20/17 Q1019 NOSIG=
EGKA 080920Z NIL=
EGKB 080920Z 25004KT 210V290 9999 BKN018 20/15 Q1019=
EGKK 080920Z VRB04KT 9999 SCT018 21/15 Q1019=
EGLF 080920Z 32007KT 4500 -DZ BKN006 16/15 Q1019=
EGLL 080920Z 31005KT 280V340 9999 FEW008 BKN010 18/14 Q1019=
EGMC 080920Z VRB03KT 9999 FEW023 SCT047 21/16 Q1019=
EGMD 080920Z 31007KT 9999 BKN014 19/16 Q1019=
EGNH NIL=
EGNJ NIL=
####018000651####
SAUK32 KWBC 080920
METAR
EGNM 080920Z 23011KT 190V280 9999 SCT018 17/10 Q1016=
EGNS 080920Z NIL=
EGNT 080920Z 23008KT 170V270 9999 FEW040 18/11 Q1014=
EGNV 080920Z 22010KT 170V240 9999 FEW019 SCT026 17/12 Q1016=
EGNX 080920Z 21011KT CAVOK 18/09 Q1018=
EGPA NIL=
EGPB 080920Z 19014KT CAVOK 15/11 Q1006 NOSIG=
EGPC NIL=
EGPD 080920Z 23016KT 9999 FEW030 17/08 Q1010 NOSIG=
EGPF 080920Z 23015KT 9999 FEW020 SCT030 15/10 Q1013=
EGPH 080920Z 24012KT 9999 FEW028 16/09 Q1013=
EGPK 080920Z 22014KT 9999 SCT025 16/10 Q1014=
EGSH NIL=
EGTE 080920Z 21003KT 9999 FEW025 20/13 Q1018=
EGTG 080920Z 24004KT 9999 SCT019 18/12 Q1019=
####018000530####
SAUK41 KWBC 080920
METAR
EGAC 080920Z 21011KT 9999 FEW020 SCT031 16/10 Q1014=
EGAE NIL=
EGBE NIL=
EGBJ NIL=
EGDC NIL=
EGDG NIL=
EGDL NIL=
EGDM NIL=
EGDN NIL=
EGDP NIL=
EGDR NIL=
EGDY NIL=
EGFH NIL=
EGGP 080920Z 21010KT 9999 SCT030 17/11 Q1017=
EGGW 080920Z 24005KT 9999 BKN026 19/13 Q1019=
EGHE 080920Z NIL=
EGJA 080920Z 23004KT 200V270 9999 BKN007 BKN015 17/16 Q1020=
EGLC 080920Z 27006KT 9999 SCT018 BKN024 20/15 Q1019=
EGNC NIL=
EGNT 080920Z 23008KT 170V270 9999 FEW040 18/11 Q1014=
####018000412####
SAUK42 KWBC 080920
METAR
EGOS NIL=
EGOV NIL=
EGPC NIL=
EGPE NIL=
EGPF 080920Z 23015KT 9999 FEW020 SCT030 15/10 Q1013=
EGPL NIL=
EGPM NIL=
EGPN NIL=
EGPO NIL=
EGPT NIL=
EGPU NIL=
EGPW NIL=
EGQJ NIL=
EGQK NIL=
EGQL NIL=
EGQM NIL=
EGQS NIL=
EGSC NIL=
EGSS 080920Z 25006KT 230V360 9999 BKN015 17/14 Q1019=
EGTC 080920Z 23006KT 200V270 9999 FEW020 18/13 Q1018=
EGTI NIL=
####018000173####
SAXX61 KWBC 080900 RRD
METAR
EDAH 080920Z 14005KT CAVOK 22/11 Q1022=
EDMA 080920Z 11005KT 040V150 CAVOK 23/08 Q1023=
EGPK 080920Z 22014KT 9999 SCT025 16/10 Q1014=
####018003515####
SAXX99 KWBC 080900 RRR
METAR
CZFS 080900Z AUTO 35003KT 15/14 RMK AO1 SLP159 T01470137 52006=
DFFD 080900Z 26006KT 9999 FEW016 BKN100 24/22 Q1016 NOSIG=
EDAC 080920Z 27003KT CAVOK 24/12 Q1022=
EDFH 080920Z 12008KT 090V150 CAVOK 25/10 Q1022=
EDGS 080920Z 17006KT 070V240 CAVOK 23/10 Q1023=
EDHK 080920Z 15006KT 9999 SCT090 BKN130 25/12 Q1019 BLU BLU=
EDLV 080920Z 24007KT 170V270 CAVOK 29/12 Q1019=
EDOP 080920Z 19009KT CAVOK 26/09 Q1021=
EDRZ 080920Z 15004KT 070V200 CAVOK 27/12 Q1021=
EDSB 080920Z 35005KT 300V050 CAVOK 26/12 Q1021=
EDTL 080920Z VRB03KT CAVOK 26/13 Q1020=
EFHA 080920Z 08003KT 9999 SCT008 BKN070 BKN200 21/16 Q1016=
EFKA 080920Z 19003KT 9999 FEW025 BKN200 22/16 Q1016=
EFSI 080920Z AUTO 10004KT 060V180 9999 FEW035 23/13 Q1015=
EGHK 080920Z NIL=
EGMH 080920Z 24008KT 210V280 9999 FEW014 22/17 Q1019=
EGTG 080920Z 24004KT 9999 SCT019 18/12 Q1019=
EGVP 080918Z 16003KT 9999 SCT008 SCT030 BKN120 18/15 Q1019 GRN
     BECMG SCT025 BLU=
EKGF 080920Z NIL=
ENBS 080920Z NIL=
ENDR 080920Z NIL=
ENHE 080920Z 18025KT 9999 SCT040 14/10 Q1008=
ENHK 080920Z 10013KT 9999 FEW035 BKN080 17/09 Q1012=
ENSS 080920Z NIL=
ESGR 080920Z AUTO 21012KT 9999NDV OVC044/// 21/13 Q1018=
ESGT 080920Z NIL=
ESKM 080920Z NIL=
ESMQ 080920Z 18009KT //// FEW045 23/12 Q1020=
ESMT 080920Z 17011KT CAVOK 22/14 Q1020=
ESNG 080920Z NIL=
ESNK 080920Z AUTO 15009KT 9999NDV FEW076/// 21/13 Q1012=
ESNL 080920Z 15011KT 9999 FEW025 OVC080 19/10 Q1013=
ESNX 080920Z AUTO 17011KT 9999NDV -DZ BKN068/// 18/11 Q1014=
ESNY 080920Z AUTO 21007KT 150V240 9999 SKC 24/16 Q1014=
ESOE 080920Z 21013KT 9999 FEW030 SCT036 BKN045 20/13 Q1018=
ESSF 080920Z NIL=
ESSK 080920Z NIL=
ESSL 080920Z 25009KT 210V280 CAVOK 23/11 Q1019=
ESTA 080920Z 18013KT CAVOK 22/14 Q1020=
ESTL 080920Z AUTO 20009KT 170V230 9999NDV FEW024/// 23/13
     Q1020=
ESUD 080920Z NIL=
ESUT 080920Z AUTO 15008KT 9999NDV SCT120/// 18/10 Q1010=
ETGG 080920Z 19007KT 9999 FEW050 BKN110 25/12 Q1018 BLU=
ETGY 080920Z 19004KT 9999 FEW140 SCT250 28/10 Q1019 BLU+=
ETGZ 080920Z 14004KT 9999 FEW120 22/08 Q1024 BLU+=
ETHA 080920Z 06005KT 9999 FEW150 21/10 Q1023 BLU+BLU+=
ETHB 080920Z 24006KT 9999 FEW140 27/11 Q1020 BLU+BLU+=
ETHE 080920Z 21004KT 9999 FEW070 BKN260 27/10 Q1019 BLU+BLU+=
ETHF 080920Z 19007KT 9999 FEW300 25/12 Q1021 BLU+BLU+=
ETHL 080920Z 09005KT 9999 23/08 Q1023 BLU+BLU+=
ETHR 080920Z 09007KT 9999 FEW180 24/06 Q1023 BLU+BLU+=
ETHS 080920Z 20006KT 9999 FEW160 27/08 Q1020 BLU+BLU+=
ETMN 080920Z 21008KT 9999 FEW060 BKN270 27/09 Q1019 BLU+BLU+=
ETND 080920Z 17006KT 9999 FEW180 SCT270 26/12 Q1019 BLU+=
ETNH 080920Z 18006KT 9999 SCT050 BKN100 25/12 Q1019 BLU BLU+ TEMPO
     BLU=
ETNL 080920Z 18006KT 9999 BKN090 SCT140 24/11 Q1021 BLU BLU+=
ETNN 080920Z 18004KT 9999 FEW300 28/04 Q1020 BLU+BLU+=
ETNS 080920Z 18008KT 9999 SCT050 BKN100 24/08 Q1019 BLU BLU=
ETNT 080920Z 24009KT 9999 FEW090 SCT270 27/11 Q1018 BLU+BLU+=
ETNU 080920Z 12004KT 9999 BKN160 23/10 Q1022 BLU BLU TEMPO
     BLU+=
ETNW 080920Z 22006KT 9999 SCT200 28/10 Q1020 BLU+BLU+=
ETSB 080920Z 17006KT 9999 SCT290 24/08 Q1022 BLU+BLU+=
ETSE 080920Z 12007KT 9999 FEW170 22/09 Q1023 BLU+BLU+=
ETSH 080920Z 18005KT 9999 FEW150 24/07 Q1022 BLU+BLU+=
ETSI 080920Z 14005KT 9999 FEW120 23/07 Q1023 BLU+BLU+=
ETSL 080920Z 07007KT 9999 FEW130 23/09 Q1023 BLU+BLU+=
ETSN 080920Z 04005KT 9999 23/09 Q1023 BLU+BLU+=
ETWM 080920Z 23008KT 9999 FEW070 BKN240 28/09 Q1019 BLU+=
####018000095####
SAZA31 KWBC 080900 RRA
METAR
FAJS 080930Z 08011KT 030V120 9999 SCT023 13/06 Q1037 NOSIG=
####018000793####
SAIY31 LIIB 080920
METAR LIEA 080920Z 04005KT 350V100 CAVOK 30/20 Q1019=
METAR LIEE 080915Z 16008KT 9999 FEW020 28/16 Q1019 NOSIG=
METAR LIEO 080920Z 04008KT 010V070 9999 FEW030 30/15 Q1020=
METAR LIMC 080920Z 18004KT 080V220 9999 FEW050 BKN080 25/14 Q1022
NOSIG=
METAR LIME 080920Z 14006KT 090V200 9999 FEW055 25/15 Q1023=
METAR LIMF 080920Z VRB02KT 9999 SCT030 BKN045 24/16 Q1023=
METAR LIMJ 080920Z 16006KT 9999 FEW035 29/23 Q1020=
METAR LIML 080920Z 10007KT 9999 FEW090 27/17 Q1022 NOSIG=
METAR LIRA 080915Z 24006KT 210V310 9999 BKN018 28/20 Q1019=
METAR LIRF 080920Z 20009KT 170V230 9999 FEW020 29/18 Q1020 NOSIG=
METAR LIRN 080920Z 05008KT CAVOK 26/12 Q1019=
METAR LIRP 080915Z 09009KT CAVOK 29/15 Q1019 NOSIG=
METAR LIRQ 080920Z VRB02KT CAVOK 36/13 Q1020=
####018000546####
SAIY32 LIIB 080920
METAR LIBD 080920Z 35014KT CAVOK 25/12 Q1020=
METAR LIBR 080915Z /////KT CAVOK 25/16 Q1017 NOSIG=
METAR LICC 080920Z 08008KT CAVOK 29/21 Q1018=
METAR LICJ 080920Z 05009KT CAVOK 28/22 Q1018=
METAR LIPE 080920Z 11008KT 080V140 CAVOK 28/14 Q1021=
METAR LIPH 080915Z 02002KT 9999 BKN070 25/19 Q1023=
METAR LIPQ 080920Z VRB03KT 9999 BKN050 25/14 Q1023=
METAR LIPR 080915Z 12005KT CAVOK 28/17 Q1021=
METAR LIPX 080915Z 12006KT 9999 FEW040 28/12 Q1021=
METAR LIPZ 080920Z 13007KT 9999 FEW050 BKN070 27/16 Q1022=
####018001823####
SAEU KAWN 080900 RRX
METAR EDAC 080920Z 27003KT CAVOK 24/12 Q1022=
METAR EDHI 080920Z 20006KT 140V250 CAVOK 27/11 Q1019=
METAR EDHK 080920Z 15006KT 9999 SCT090 BKN130 25/12 Q1019 BLU BLU=
METAR EDHL 080920Z 16007KT 120V190 CAVOK 27/15 Q1020=
METAR EDLW 080920Z 22009KT CAVOK 28/09 Q1020=
METAR EDMA 080920Z 11005KT 040V150 CAVOK 23/08 Q1023=
METAR EDQM 080920Z 19005KT 120V240 CAVOK 22/09 Q1024=
METAR EDTL 080920Z VRB03KT CAVOK 26/13 Q1020=
METAR EDVK 080920Z 20009KT 170V240 CAVOK 25/10 Q1022=
METAR EGUW 080920Z 28011KT 9999 -RA FEW004 SCT006 BKN018 17/15 Q1019
      YLO1 BECMG NSW SCT015 WHT=
METAR ETGG 080920Z 19007KT 9999 FEW050 BKN110 25/12 Q1018 BLU=
METAR ETGY 080920Z 19004KT 9999 FEW140 SCT250 28/10 Q1019 BLU/=
METAR ETHE 080920Z 21004KT 9999 FEW070 BKN260 27/10 Q1019 BLU/BLU/=
METAR ETHF 080920Z 19007KT 9999 FEW300 25/12 Q1021 BLU/BLU/=
METAR ETHS 080920Z 20006KT 9999 FEW160 27/08 Q1020 BLU/BLU/=
METAR ETMN 080920Z 21008KT 9999 FEW060 BKN270 27/09 Q1019 BLU/BLU/=
METAR ETND 080920Z 17006KT 9999 FEW180 SCT270 26/12 Q1019 BLU/=
METAR ETNH 080920Z 18006KT 9999 SCT050 BKN100 25/12 Q1019 BLU BLU/
      TEMPO BLU=
METAR ETNL 080920Z 18006KT 9999 BKN090 SCT140 24/11 Q1021 BLU BLU/=
METAR ETNS 080920Z 18008KT 9999 SCT050 BKN100 24/08 Q1019 BLU BLU=
METAR ETNT 080920Z 24009KT 9999 FEW090 SCT270 27/11 Q1018 BLU/BLU/=
METAR ETNU 080920Z 12004KT 9999 BKN160 23/10 Q1022 BLU BLU TEMPO BLU/=
METAR ETNW 080920Z 22006KT 9999 SCT200 28/10 Q1020 BLU/BLU/=
METAR ETSH 080920Z 18005KT 9999 FEW150 24/07 Q1022 BLU/BLU/=
METAR ETWM 080920Z 23008KT 9999 FEW070 BKN240 28/09 Q1019 BLU/=
METAR LOWK 080920Z 36003KT 290V090 9999 FEW060 21/10 Q1024 NOSIG=
METAR LOWL 080920Z VRB03KT CAVOK 21/11 Q1024 NOSIG=
METAR LOWS 080920Z VRB02KT CAVOK 23/09 Q1023 NOSIG=
####018000077####
SAMP31 LMMM 080930 RRA
METAR HLLT 080920Z
00000KT 7000 SKC 29/18 Q1019=
####018000074####
SALY31 HLLT 080930
METAR HLLT 080920Z 
00000KT 7000 SKC 29/18 Q1019=
####018000078####
SAMP31 LMMM 080930 RRA
METAR HLLT 080920Z 
00000KT 7000 SKC 29/18 Q1019=
####018000091####
SAOS32 LOWM 080920
METAR LOXZ 080920Z VRB03KT 70KM FEW270CI 20/09 Q1024 NOSIG RMK FEW=
####018000085####
SAUK33 EGGY 080920 RRA
METAR EGNS 080920Z 22012KT 9999 FEW025 16/10 Q1015 NOSIG=
####018000106####
SAIN90 VECC 080920
METAR VECC 080920Z 19010KT 4500 HZ SCT018 FEW030CB SCT100 33/25 Q1004
    NOSIG=
####018000081####
SASN33 ESWI 080920 RRA
METAR ESNG 080920Z 17007KT 120V200 CAVOK 20/09 Q1014=
####018000089####
SAUK31 EGGY 080920 CCA
METAR COR EGCC 080920Z 21011KT 9999 FEW031 18/11 Q1017 NOSIG=
####018000292####
SAFI33 EFHK 080920
EFJO 080920Z 04004KT 360V070 CAVOK 24/19 Q1015=
EFLP 080920Z 13004KT 080V190 CAVOK 30/15 Q1014=
EFMI 080920Z AUTO 01003KT CAVOK 27/19 Q1014=
EFSA 080920Z VRB01KT 9999 FEW025 28/19 Q1014=
EFUT 080920Z 05005KT 340V110 CAVOK 29/17 Q1014=
METAR EFVR 080925Z NIL=
####018000381####
SAOS31 LOWM 080920
METAR LOWW 080920Z 36007KT 320V040 9999 FEW050 22/10 Q1023 NOSIG=
METAR LOWL 080920Z VRB03KT CAVOK 21/11 Q1024 NOSIG=
METAR LOWS 080920Z VRB02KT CAVOK 23/09 Q1023 NOSIG=
METAR LOWI 080920Z VRB01KT CAVOK 22/12 Q1022 NOSIG=
METAR LOWG 080920Z 17003KT 070V230 CAVOK 23/09 Q1023 NOSIG=
METAR LOWK 080920Z 36003KT 290V090 9999 FEW060 21/10 Q1024 NOSIG=
####018000393####
SABX31 EBBR 080920
METAR EBAW 080920Z 22007KT 180V300 CAVOK 27/12 Q1019 NOSIG=
METAR EBBR 080920Z 23006KT 200V260 CAVOK 28/11 Q1020 NOSIG=
METAR EBCI 080920Z 20006KT 160V250 CAVOK 27/10 Q1020 NOSIG=
METAR EBLG 080920Z 24006KT 200V270 CAVOK 28/09 Q1020 NOSIG=
METAR EBOS 080920Z 28008KT 250V310 CAVOK 20/16 Q1020 NOSIG=
METAR ELLX 080920Z 11004KT 050V190 CAVOK 26/10 Q1021 NOSIG=
####018001783####
SAEU KAWN 080900 RRX
METAR EGNS 080920Z 22012KT 9999 FEW025 16/10 Q1015 NOSIG=
METAR ENAL 080920Z 19008KT 150V220 9999 SCT050 SCT080 19/07 Q1009=
METAR ENBL 080920Z 20012KT 9999 BKN040 15/08 Q1010=
METAR ENCN 080920Z 19008KT 5000 BR VV003 16/15 Q1015=
METAR ENEK 080920Z 23014KT CAVOK 15/13 Q1015 W15/S3=
METAR ENFL 080920Z 18017KT 9999 FEW020 SCT060 16/11 Q1010=
METAR ENHD 080920Z 19010KT 9999 FEW008 16/13 Q1013=
METAR ENHE 080920Z 18025KT 9999 SCT040 14/10 Q1008=
METAR ENKB 080920Z 09005KT 050V120 9999 SCT060 18/12 Q1009=
METAR ENML 080920Z 08009KT 9999 SCT060 18/12 Q1009=
METAR ENNA 080920Z 18014KT 9999 FEW040 SCT070 20/10 Q1013=
METAR ENOA 080920Z 19024KT CAVOK 13/11 Q1009=
METAR ENRO 080920Z 19010KT 160V220 9999 SCT030 BKN110 17/09 Q1011=
METAR ENRY 080920Z 18008KT 9999 -SHRA FEW005 BKN010 16/15 Q1016 TEMPO
      BKN008=
METAR ENTC 080920Z 01004KT 300V030 9999 SCT065 16/09 Q1011 NOSIG=
METAR ENTO 080920Z 15006KT 9999 -DZ FEW005 BKN010 16/15 Q1015=
METAR LIEE 080915Z 16008KT 9999 FEW020 28/16 Q1019 NOSIG=
METAR LIEO 080920Z 04008KT 010V070 9999 FEW030 30/15 Q1020=
METAR LIMC 080920Z 18004KT 080V220 9999 FEW050 BKN080 25/14 Q1022 NOSIG=
METAR LIMF 080920Z VRB02KT 9999 SCT030 BKN045 24/16 Q1023=
METAR LIMJ 080920Z 16006KT 9999 FEW035 29/23 Q1020=
METAR LIML 080920Z 10007KT 9999 FEW090 27/17 Q1022 NOSIG=
METAR LIRA 080915Z 24006KT 210V310 9999 BKN018 28/20 Q1019=
METAR LIRF 080920Z 20009KT 170V230 9999 FEW020 29/18 Q1020 NOSIG=
METAR LIRN 080920Z 05008KT CAVOK 26/12 Q1019=
METAR LIRQ 080920Z VRB02KT CAVOK 36/13 Q1020=
METAR LOWG 080920Z 17003KT 070V230 CAVOK 23/09 Q1023 NOSIG=
METAR LOWI 080920Z VRB01KT CAVOK 22/12 Q1022 NOSIG=
METAR LOWW 080920Z 36007KT 320V040 9999 FEW050 22/10 Q1023 NOSIG=
####018000082####
SPCN48 CWAO 080925
SPECI CYPH 080925Z AUTO 24018KT 3SM OVC002 05/05 A2979=

####018000087####
SAUS20 KNKA 080926
SPECI KTYR 080924Z AUTO 10003KT 9SM FEW004 24/24 A3002 RMK AO2=
####018000103####
SPCN47 CWAO 080924
SPECI CYPQ 080924Z AUTO ///// 3/4SM CLR 20/20 A3003 RMK VSBY VRBL
0.2V9.0=

####018000563####
SPNA14 KAWN 080926 RRC
SPECI KNZY 080919Z 36006KT 7SM -DZ SCT009 OVC013 18/14 A2989 RMK AO2
      P0000 $=
SPECI KOZR 080923Z AUTO 00000KT 6SM R06/5000V5500FT BR CLR 22/22 A3002
      RMK AO2 SLP163=
SPECI KSKF 080922Z 05006KT 10SM BKN012 OVC017 26/ A2993 RMK AO2A RAB0909E0922DZB0910E0912
      SLP123 $=
SPECI KTIK 080920Z AUTO 35005KT 10SM BKN015 OVC022 24/23 A3004 RMK
      AO2 CIG 010V019 BKN V OVC SLP159 $=
SPECI KWRI 080920Z AUTO 00000KT M1/4SM R18/0500V1200FT R24/0300V0500FT
      FG VV001 23/23 A2999 RMK AO2 BKN V OVC SLP156 $=
####018001051####
SASA KAWN 080900 RRF
METAR SBAF 080900Z 00000KT CAVOK 15/14 Q1020=
METAR SBAN 080900Z 10006KT 9999 FEW040 BKN070 16/11 Q1022=
METAR SBBH 080900Z 26002KT CAVOK 11/09 Q1022=
METAR SBBQ 080900Z 13002KT CAVOK 06/06 Q1024=
METAR SBBU 080900Z 06007KT CAVOK 16/10 Q1019=
METAR SBCO 080900Z 16002KT 9999 OVC025 17/15 Q1017=
METAR SBDN 080900Z 07008KT CAVOK 19/09 Q1017=
METAR SBHT 080900Z 00000KT CAVOK ///// Q1013=
METAR SBIL 080900Z 29004KT 9999 FEW020 SCT070 21/20 Q1018=
METAR SBIZ 080900Z 00000KT 8000 FEW030 19/19 Q1013=
METAR SBJF 080900Z 36005KT CAVOK 13/10 Q1023=
METAR SBME 080900Z 34003KT CAVOK 14/14 Q1018=
METAR SBMK 080900Z 08005KT 9999 FEW045 24/11 Q1019=
METAR SBMT 080900Z 06004KT 5000 HZ NSC 14/10 Q1019=
METAR SBSC 080900Z 05008KT CAVOK 15/13 Q1018=
METAR SBSM 080900Z 29004KT 9999 BKN020 10/09 Q1019=
METAR SBST 080900Z 00000KT 9999 SCT020 15/13 Q1015=
METAR SBUL 080900Z 09006KT CAVOK 14/08 Q1021=
METAR SBUR 080900Z 05005KT CAVOK 15/07 Q1020=
METAR SBYS 080900Z 11001KT 5000 BR NSC 08/08 Q1020=
####018000697####
SAZZ40 KAWN 080900 RRR
METAR DBBB 080900Z 23006KT 200V270 8000 SCT012 BKN120 27/25 Q1014 NOSIG=
METAR DFFD 080900Z 26006KT 9999 FEW016 BKN100 24/22 Q1016 NOSIG=
METAR EFKU 080920Z AUTO VRB03KT 030V110 9999NDV FEW017 SCT141 22/17
      Q1015=
METAR EFOU 080920Z VRB03KT 9999 FEW020 SCT200 20/13 Q1016=
METAR EGMH 080920Z 24008KT 210V280 9999 FEW014 22/17 Q1019=
METAR OKBK 080930Z 34018KT CAVOK 47/M10 Q1001 NOSIG=
METAR ORMM 080900Z 32016KT 5000 BLDU SKC 48/M01 Q0999=
METAR SBJF 080900Z 36005KT CAVOK 13/10 Q1023=
METAR SBMK 080900Z 08005KT 9999 FEW045 24/11 Q1019=
METAR TAPA 080900Z 09011KT 9999 SCT020 28/24 Q1014=
METAR TNCM 080900Z 09006KT 9999 FEW019 28/24 Q1015=
####018000328####
SADL36 EDZO 080920
METAR EDHK 080920Z 15006KT 9999 SCT090 BKN130 25/12 Q1019
      BLU BLU=
METAR ETNL 080920Z 18006KT 9999 BKN090 SCT140 24/11 Q1021
      BLU BLU+=
METAR ETNU 080920Z 12004KT 9999 BKN160 23/10 Q1022
      BLU BLU TEMPO BLU+=
METAR ETSI 080920Z 14005KT 9999 FEW120 23/07 Q1023
      BLU+BLU+=
####018001773####
SAEU KAWN 080900 RRX
METAR EBAW 080920Z 22007KT 180V300 CAVOK 27/12 Q1019 NOSIG=
METAR EBBR 080920Z 23006KT 200V260 CAVOK 28/11 Q1020 NOSIG=
METAR EBCI 080920Z 20006KT 160V250 CAVOK 27/10 Q1020 NOSIG=
METAR EBLG 080920Z 24006KT 200V270 CAVOK 28/09 Q1020 NOSIG=
METAR EBOS 080920Z 28008KT 250V310 CAVOK 20/16 Q1020 NOSIG=
METAR COR EGCC 080920Z 21011KT 9999 FEW031 18/11 Q1017 NOSIG=
METAR ELLX 080920Z 11004KT 050V190 CAVOK 26/10 Q1021 NOSIG=
METAR ENAN 080920Z 16005KT 9999 FEW045 17/09 Q1011 NOSIG=
METAR ENBO 080920Z 02007KT 340V060 9999 FEW040 SCT100 18/09 Q1010 NOSIG=
METAR ENBR 080920Z 20011KT 9999 FEW015 SCT048 BKN070 17/13 Q1012 NOSIG=
METAR ENDU 080920Z 17005KT 110V240 9999 FEW050 SCT080 20/05 Q1011 NOSIG=
METAR ENGM 080911Z 20010KT 170V230 9999 FEW010 SCT017 BKN082 16/14
      Q1015 TEMPO BKN012=
METAR ENHK 080920Z 10013KT 9999 FEW035 BKN080 17/09 Q1012=
METAR ENOL 080920Z 33010KT 9999 FEW025 SCT090 16/12 Q1010 NOSIG=
METAR ENVA 080920Z 18004KT 120V260 9999 FEW055TCU SCT160 22/11 Q1009
      NOSIG=
METAR ENZV 080918Z 19010KT 9999 FEW020 SCT160 19/12 Q1014=
METAR ETHN 080920Z 14005KT 9999 FEW060 24/07 Q1022 BLU/BLU/=
METAR LIBD 080920Z 35014KT CAVOK 25/12 Q1020=
METAR LIBR 080915Z /////KT CAVOK 25/16 Q1017 NOSIG=
METAR LICJ 080920Z 05009KT CAVOK 28/22 Q1018=
METAR LIEA 080920Z 04005KT 350V100 CAVOK 30/20 Q1019=
METAR LIME 080920Z 14006KT 090V200 9999 FEW055 25/15 Q1023=
METAR LIPE 080920Z 11008KT 080V140 CAVOK 28/14 Q1021=
METAR LIPH 080915Z 02002KT 9999 BKN070 25/19 Q1023=
METAR LIPQ 080920Z VRB03KT 9999 BKN050 25/14 Q1023=
METAR LIPR 080915Z 12005KT CAVOK 28/17 Q1021=
METAR LIPZ 080920Z 13007KT 9999 FEW050 BKN070 27/16 Q1022=
METAR LIRP 080915Z 09009KT CAVOK 29/15 Q1019 NOSIG=
####018000105####
SAUS44 KMOB 080926 COR
MTRNSE
SPECI KNSE 080921Z AUTO 00000KT 2 1/2SM BR CLR 23/21 A3003 RMK AO2 $
####018000273####
SAAK41 KNKA 080926
SPECI PATO 080924Z AUTO 13013G33KT 090V180 2 1/2SM +RA BR SCT024 
    BKN033 OVC043 13/11 A3001 RMK AO2 PK WND 11037/0905 VIS 1 3/4V3 
    P0008 T01330111 TSNO=
SPECI PAWD 080924Z AUTO 00000KT 1 3/4SM BR OVC003 11/09 A2996 RMK 
    AO2 TSNO=
####018000388####
SAFI34 EFHK 080920
EFET 080920Z AUTO 16009KT 130V220 9999 FEW049 20/08 Q1014=
EFIV 080920Z AUTO 17003KT CAVOK 18/11 Q1016=
EFKE 080920Z AUTO 20004KT 140V240 9999 SCT029 19/13 Q1016=
EFKI 080920Z AUTO 33004KT 260V010 CAVOK 20/13 Q1016=
EFKS 080920Z 12005KT 080V160 9999 SCT022 17/11 Q1017=
EFKT 080920Z AUTO 18005KT 100V240 9999 BKN042 BKN130 20/09 Q1015=
METAR EFSO 080926Z NIL=
####018000320####
SADL36 EDZO 080920
METAR EDHK 080920Z 15006KT 9999 SCT090 BKN130 25/12 Q1019
      BLU BLU=
METAR ETNL 080920Z 18006KT 9999 BKN090 SCT140 24/11 Q1021
      BLU BLU+=
METAR ETNU 080920Z 12004KT 9999 BKN160 23/10 Q1022
      BLU BLU TEMPO BLU+=
METAR ETSI 080920Z 14005KT 9999 FEW120 23/07 Q1023
      BLU+BLU+=
####018000329####
SPUS99 KWBC 080927
SPECI
KTYR 080924Z AUTO 10003KT 9SM FEW004 24/24 A3002 RMK AO2=
PATO 080924Z AUTO 13013G33KT 090V180 2 1/2SM +RA BR SCT024 BKN033
     OVC043 13/11 A3001 RMK AO2 PK WND 11037/0905 VIS 1 3/4V3
     P0008 T01330111 TSNO=
PAWD 080924Z AUTO 00000KT 1 3/4SM BR OVC003 11/09 A2996 RMK AO2
     TSNO=
####018000078####
SANO35 ENMI 080920 RRA
METAR ENSO 080920Z 19011KT 9999 SCT020 17/12 Q1013=
####018000092####
SPCA33 KWBC 080927
SPECI
TTCP 080915Z 09011KT 8000 VCSH SCT014TCU BKN038 24/23 Q1012=
####018000079####
SANO35 ENMI 080920 RRA
METAR ENSO 080920Z 19011KT 9999 SCT020 17/12 Q1013=
####018000098####
SADL52 ETGT 080920 RRB
METAR
ETSA 080920Z 10006KT 9999 FEW270 23/09 Q1023
      BLU+BLU+=
####018000080####
SAUS31 KWBC 080900 RRC
METAR
KLGC 080915Z AUTO 00000KT 9SM CLR 21/ A3002=
####018000173####
SAUS41 KWBC 080900 RRF
METAR
K40B 080925Z AUTO 00000KT 20/20 A3002=
KMMU 080920Z AUTO 00000KT 5SM BR SCT110 21/20=
KWDR 080920Z AUTO 00000KT 10SM CLR 22/20 A3006=
####018000180####
SAUS42 KWBC 080900 RRB
METAR
KBQK 080917Z AUTO 00000KT 10SM CLR 22/21 A3000=
KLGC 080915Z AUTO 00000KT 9SM CLR 21/ A3002=
KOPN 080920Z AUTO 00000KT 10SM CLR 24/22 A3004=
####018000102####
SPUS42 KWBC 080927
SPECI
KHRL 080924Z AUTO 01008KT 10SM -RA FEW013 SCT021 BKN037 26/26
A2977=
####018000689####
SAUS20 KNKA 080926
METAR KBXK 080915Z AUTO 05003KT 10SM CLR 27/00 A2977 RMK AO1 =
SPECI KGLH 080925Z AUTO 07003KT 3SM BR CLR 22/22 A3004 RMK AO2=
SPECI KLWD 080925Z AUTO 31003KT 2 1/2SM BR CLR 20/20 A3008 RMK AO2=
SPECI KMRY 080925Z AUTO 00000KT 10SM OVC008 13/10 A2993 RMK AO2=
SPECI KMWT 080922Z AUTO 00000KT 3SM BR BKN002 23/22 A3004 RMK AO2
     TSNO=
SPECI KOZR 080923Z AUTO 00000KT 6SM R06/5000V5500FT BR CLR 22/22 A3002
      RMK AO2 SLP163=
METAR KPAN 080935Z AUTO 00000KT 10SM SCT120 22/04 A3012 RMK AO1 =
SPECI KPSF 080925Z AUTO 00000KT 1 3/4SM BR CLR 19/18 A3007 RMK AO2=
METAR KRQO 080935Z AUTO 00000KT 5SM BR CLR 22/22 A3006 RMK AO2 LTG 
     DSNT E=
####018000090####
SACN31 CWAO 080900 RRB
METAR CYXX 080900Z 00000KT 15SM SKC 18/14 A2997 RMK SLP148=

####018000081####
SACN93 CWAO 080900 RRC
WPA SA 0900 AUTO8 M M M M/05/04/MMMM/M/ 6001 55MM=

####018000128####
SACN59 CWAO 080900 RRD
XDB SA 0900 AUTO8 M M M M/09/05/2305/M/ M 52MM=
XTH SA 0900 AUTO8 M M M M/13/11/2107/M/ M 39MM=

####018000103####
SPCN47 CWAO 080925
SPECI CYPQ 080925Z AUTO ///// 5/8SM CLR 20/20 A3003 RMK VSBY VRBL
0.2V8.0=

####018000647####
SAPS31 NFFN 080900
METAR NCRG 080900Z 07003KT 9999 SCT014 BKN290 25/24 Q1018=
METAR NFFN 080900Z 12006KT 40KM FEW030 SCT050 22/20 Q1014 NOSIG RMK 
RR NIL=
METAR NFNA 080900Z 00000KT 40KM SCT024 22/21 Q1014 RMK RR NIL=
METAR NGFU 080900Z 08005KT 50KM FEW020 29/25 Q1010=
METAR NGTA 080900Z NIL=
METAR NIUE 080900Z AUTO 14005KT //// ////// 25/23 Q1014=
METAR NSFA 080900Z 08006KT 45KM FEW020 26/24 Q1012=
METAR NSTU 080850Z 08008KT 10SM SCT014 BKN045 28/26 A2989 RMK SLP124 
60005 8/400 T02790261 52017=
METAR NTAA 080900Z 14004KT 9999 FEW023 26/22 Q1015 WS ALL RWY NOSIG=
METAR NWWW 080900Z NIL=
METAR PLCH 080900Z NIL=
####018000589####
SAPS32 NFFN 080900
METAR NFNA 080900Z 00000KT 40KM SCT024 22/21 Q1014 RMK RR NIL=
METAR NFTF 080900Z 19004KT 9999 FEW015 20/19 Q1015=
METAR NFTL 080900Z NIL=
METAR NFTV 080900Z NIL=
METAR NLWW 080900Z AUTO 13007KT 9999NDV FEW015/// 27/25 Q1011=
METAR NSAP 080900Z NIL=
METAR NSFA 080900Z 08006KT 45KM FEW020 26/24 Q1012=
METAR NSTU 080850Z 08008KT 10SM SCT014 BKN045 28/26 A2989 RMK SLP124 
60005 8/400 T02790261 52017=
METAR NTAA 080900Z 14004KT 9999 FEW023 26/22 Q1015 WS ALL RWY NOSIG=
METAR NVSS 080900Z NIL=
METAR NVVV 080900Z NIL=
METAR NWWW 080900Z NIL=
####018000128####
SACN98 CWAO 080900 RRD
XCP SA 0900 AUTO8 M M M M/11/10/2806/M/ M 19MM=
XWM SA 0900 AUTO8 M M M M/12/09/0000/M/ M 49MM=

####018000104####
SACN50 CWAO 080900 RRB
WFG SA 0900 AUTO8 M M M 171/13/11/3322/M/M PK WND 3324 0821Z 0000
34MM=

####018000395####
SAFI34 EFHK 080920
EFET 080920Z AUTO 16009KT 130V220 9999 FEW049 20/08 Q1014=
EFIV 080920Z AUTO 17003KT CAVOK 18/11 Q1016=
EFKE 080920Z AUTO 20004KT 140V240 9999 SCT029 19/13 Q1016=
EFKI 080920Z AUTO 33004KT 260V010 CAVOK 20/13 Q1016=
EFKS 080920Z 12005KT 080V160 9999 SCT022 17/11 Q1017=
EFKT 080920Z AUTO 18005KT 100V240 9999 BKN042 BKN130 20/09 Q1015=
METAR EFSO 080926Z NIL=
####018000076####
SAMP31 LMMM 080930 RRA
METAR HLLT 080920Z 00000KT 7000 SKC 29/18 Q1019=
####018000109####
SACN43 CWAO 080900 RRA
METAR CYOJ 080900Z 00000KT 15SM SCT050 BKN100 13/11 A2997 RMK SC3AC2
SLP153=

####018000086####
SATH31 VTBB 080900 RRC
METAR VTCH 080900Z 00000KT 9999 FEW025 SCT030 35/20 Q1005=
####018000792####
SAIY31 LIIB 080920
METAR LIEA 080920Z 04005KT 350V100 CAVOK 30/20 Q1019=
METAR LIEE 080915Z 16008KT 9999 FEW020 28/16 Q1019 NOSIG=
METAR LIEO 080920Z 04008KT 010V070 9999 FEW030 30/15 Q1020=
METAR LIMC 080920Z 18004KT 080V220 9999 FEW050 BKN080 25/14 Q1022
NOSIG=
METAR LIME 080920Z 14006KT 090V200 9999 FEW055 25/15 Q1023=
METAR LIMF 080920Z VRB02KT 9999 SCT030 BKN045 24/16 Q1023=
METAR LIMJ 080920Z 16006KT 9999 FEW035 29/23 Q1020=
METAR LIML 080920Z 10007KT 9999 FEW090 27/17 Q1022 NOSIG=
METAR LIRA 080915Z 24006KT 210V310 9999 BKN018 28/20 Q1019=
METAR LIRF 080920Z 20009KT 170V230 9999 FEW020 29/18 Q1020 NOSIG=
METAR LIRN 080920Z 05008KT CAVOK 26/12 Q1019=
METAR LIRP 080915Z 09009KT CAVOK 29/15 Q1019 NOSIG=
METAR LIRQ 080920Z VRB02KT CAVOK 36/13 Q1020=
####018000078####
SACN88 CWAO 080900 RRD
XKT SA 0900 AUTO8 M M M M/16/16/2503/M/ M 33MM=

####018000525####
SANL40 EHWX 080925
METAR EHDL 080925Z AUTO 21009KT 9999NDV NCD 28/12 Q1019 
BLU=
METAR EHEH 080925Z AUTO 23007KT 9999NDV NCD 29/12 Q1019 
BLU BLU=
METAR EHGR 080925Z AUTO 29007KT 9999NDV BKN140 27/13 Q1019 
BLU BLU=
METAR EHLW 080925Z AUTO 25011KT 9999NDV FEW063 SCT110 23/17 Q1018 
BLU BLU=
METAR EHVK 080925Z AUTO 25009KT 9999NDV FEW410 29/12 Q1019 
BLU=
METAR EHVL 080925Z AUTO 24013KT 9999NDV BKN053 BKN240 19/15 Q1018 
BLU=
METAR EHWO 080925Z AUTO 27003KT 9999NDV NCD 25/12 Q1019 
BLU BLU=
####018000139####
SACN92 CWAO 080900 RRD
WKX SA 0900 AUTO8 M M M 232/11/05/0703/M/ 1007 85MM=
WME SA 0900 AUTO8 M M M 150/19/14/0805/M/M 1006 41MM=

####018000124####
SAUS51 KWBC 080900 RRC
METAR
K40B 080925Z AUTO 00000KT 20/20 A3002=
KIPJ 080920Z AUTO 00000KT 10SM CLR 21/17 A3002=
####018000096####
SPUS52 KWBC 080927
SPECI
KCOT 080924Z AUTO 04007KT 10SM SCT014 BKN041 OVC050 25/23 A2989=
####018000188####
SAUS52 KWBC 080900 RRC
METAR
KAYS 080920Z AUTO 00000KT 2SM CLR 21/21 A3001=
KJQF 080920Z AUTO 00000KT 10SM SCT100 23/18 A3000=
KVUJ 080919Z AUTO 00000KT 10SM BKN090 21/18 A2998=
####018000131####
SAUS53 KWBC 080900 RRF
METAR
KJNX 080921Z AUTO 00000KT 5SM CLR 21/21 A2993=
KTDF 080922Z AUTO 00000KT 5SM CLR 22/19 A3001=
####018000082####
SAUS54 KWBC 080900 RRD
METAR
KJNX 080921Z AUTO 00000KT 5SM CLR 21/21 A2993=
####018000102####
SPUS72 KWBC 080927
SPECI
KHRL 080924Z AUTO 01008KT 10SM -RA FEW013 SCT021 BKN037 26/26
A2977=
####018000131####
SAUS72 KWBC 080900 RRF
METAR
KBQK 080917Z AUTO 00000KT 10SM CLR 22/21 A3000=
TNCM 080900Z 09006KT 9999 FEW019 28/24 Q1015=
####018000081####
SAUS72 KWBC 080800 RRH
METAR
TNCM 080800Z 09007KT 9999 FEW019 28/24 Q1015=
####018000081####
SPUS81 KWBC 080927
SPECI
KLIC 080924Z AUTO 14003KT 9SM SCT005 13/13 A3034=
####018000351####
SPNA35 KAWN 080927 RRC
SPECI KDOV 080923Z AUTO 07003KT 2 1/2SM BR BKN006 24/ A2999 RMK AO2
      SLP158 $=
SPECI KHST 080920Z AUTO 07005KT 10SM FEW017 SCT023 26/25 A2992 RMK
      AO2 RAB0902E0920DZB0856E0902 FEW V SCT SLP135 $=
SPECI TXKF 080918Z 20009KT 160V220 9999 VCSH SCT013TCU BKN060 BKN170
      BKN300 24/22 Q1018 RMK TCU NW-N=
####018000081####
SAMJ41 LWSK 080930
METAR LWSK 080930Z 01008KT 9999 BKN040 17/10 Q1020 NOSIG=
####018000707####
SAEG31 HECA 080900
METAR HEBL 080900Z 04018KT CAVOK       39/08 Q1010 NOSIG=
METAR HEAX 080900Z 29011KT 9999 SCT020 29/22 Q1010 NOSIG=
METAR HEMM 080900Z 33010KT CAVOK       28/21 Q1012 NOSIG=
METAR HEPS 080900Z 32004KT 9999 SCT025 29/22 Q1010 NOSIG=
METAR HELX 080900Z 33008KT CAVOK       37/12 Q1008 NOSIG=
METAR HESN 080900Z 36001KT CAVOK       36/09 Q1010 NOSIG=
METAR HEGN 080900Z 34024KT CAVOK       36/18 Q1006 NOSIG=
METAR HESH 080900Z 02014KT CAVOK       35/13 Q1006 NOSIG=
METAR HEBA 080900Z NIL=
METAR HEMA 080900Z 02016KT CAVOK       34/19 Q1007 NOSIG=
METAR HETB 080900Z 00000KT CAVOK       26/14 Q1014 NOSIG=
METAR HESC 080900Z 05006KT CAVOK       30/11 Q1018 NOSIG=
####018001785####
SAUS20 KNKA 080927
METAR K1H2 080925Z AUTO 00000KT 7SM CLR 24/23 A3004 RMK AO2 
     T02400231=
METAR K3T5 080924Z AUTO 00000KT 7SM BKN008 BKN014 BKN060 25/24 
     A2991 RMK AO2 T02520236=
METAR KAAA 080923Z AUTO 00000KT 2SM BR BKN039 BKN055 OVC090 23/22 
     A3003 RMK AO2 T02250217=
METAR KADS 080923Z AUTO 14004KT 10SM BKN012 25/22 A3000 RMK AO2 
     T02500222=
METAR KAJG 080925Z AUTO 00000KT 7SM CLR 23/22 A3004 RMK AO2 
     T02270215=
METAR KALN 080923Z AUTO 20003KT 7SM SCT031 SCT044 SCT055 25/24 
     A3002 RMK AO2 P0001 T02470241=
METAR KGPM 080931Z AUTO 14003KT 10SM CLR 26/23 A2999 RMK AO2=
METAR KHQZ 080926Z AUTO 00000KT 10SM OVC015 25/23 A3001 RMK AO2=
SPECI KJLN 080926Z 00000KT 3SM -RA BR FEW007 BKN016 OVC023 23/23 
    A3004 RMK AO2 LTG DSNT W P0066=
METAR KJOT 080926Z AUTO 00000KT 4SM BR SCT043 23/22 A3002 RMK AO2=
SPECI KLHQ 080926Z AUTO 00000KT 2 1/2SM BR FEW060 19/18 A3008 RMK 
    AO2=
SPECI KLLQ 080926Z AUTO 00000KT 8SM FEW002 23/22 A3006 RMK AO2=
METAR KLOT 080921Z AUTO 00000KT 4SM BR SCT060 SCT075 BKN100 22/22 
     A3002 RMK AO2 LTG DSNT S=
SPECI KLRD 080925Z AUTO 04006KT 10SM SCT014 OVC024 27/25 A2989 RMK 
    AO2 $=
SPECI KMHT 080926Z 15006KT 2SM BR BKN080 23/22 A3004 RMK AO2=
METAR KORG 080925Z AUTO 07007KT 7SM CLR 17/15 A2996 RMK AO2=
METAR KOXI 080925Z AUTO 00000KT 3SM 21/20 A3003 RMK AO1 SKY 
     OBSCURED T02110200=
METAR KPEQ 080923Z AUTO 08005KT 10SM SCT090 SCT110 23/21 A3005 
     RMK AO2=
SPECI KPKB 080926Z AUTO 00000KT 3SM BR FEW001 21/19 A3010 RMK AO2 
    TSNO=
METAR KPVW 080921Z AUTO 35011KT 10SM CLR 18/16 A3014 RMK AO2=
METAR KRCR 080925Z AUTO 00000KT 7SM CLR 23/22 A3005 RMK AO2=
SPECI KSTC 080926Z AUTO 00000KT 1 1/4SM BR CLR 14/13 A3008 RMK AO2=
####018000068####
SAUS90 KWBC 080928
METAR K40B 080925Z AUTO 00000KT 20/20 A3002=
####018001854####
SAEW KAWN 080900 RRL
METAR EBAW 080920Z 22007KT 180V300 CAVOK 27/12 Q1019 NOSIG=
METAR EBBR 080920Z 23006KT 200V260 CAVOK 28/11 Q1020 NOSIG=
METAR EBCI 080920Z 20006KT 160V250 CAVOK 27/10 Q1020 NOSIG=
METAR EBLG 080920Z 24006KT 200V270 CAVOK 28/09 Q1020 NOSIG=
METAR EBOS 080920Z 28008KT 250V310 CAVOK 20/16 Q1020 NOSIG=
METAR EDAC 080920Z 27003KT CAVOK 24/12 Q1022=
METAR EDHK 080920Z 15006KT 9999 SCT090 BKN130 25/12 Q1019 BLU BLU=
METAR EDMA 080920Z 11005KT 040V150 CAVOK 23/08 Q1023=
METAR EDVK 080920Z 20009KT 170V240 CAVOK 25/10 Q1022=
METAR EHLW 080925Z AUTO 25011KT 9999NDV FEW063 SCT110 23/17 Q1018 BLU
      BLU=
METAR EHVK 080925Z AUTO 25009KT 9999NDV FEW410 29/12 Q1019 BLU=
METAR EHWO 080925Z AUTO 27003KT 9999NDV NCD 25/12 Q1019 BLU BLU=
METAR ELLX 080920Z 11004KT 050V190 CAVOK 26/10 Q1021 NOSIG=
METAR ETGG 080920Z 19007KT 9999 FEW050 BKN110 25/12 Q1018 BLU=
METAR ETGY 080920Z 19004KT 9999 FEW140 SCT250 28/10 Q1019 BLU/=
METAR ETHE 080920Z 21004KT 9999 FEW070 BKN260 27/10 Q1019 BLU/BLU/=
METAR ETHF 080920Z 19007KT 9999 FEW300 25/12 Q1021 BLU/BLU/=
METAR ETHN 080920Z 14005KT 9999 FEW060 24/07 Q1022 BLU/BLU/=
METAR ETHS 080920Z 20006KT 9999 FEW160 27/08 Q1020 BLU/BLU/=
METAR ETMN 080920Z 21008KT 9999 FEW060 BKN270 27/09 Q1019 BLU/BLU/=
METAR ETND 080920Z 17006KT 9999 FEW180 SCT270 26/12 Q1019 BLU/=
METAR ETNH 080920Z 18006KT 9999 SCT050 BKN100 25/12 Q1019 BLU BLU/
      TEMPO BLU=
METAR ETNL 080920Z 18006KT 9999 BKN090 SCT140 24/11 Q1021 BLU BLU/=
METAR ETNS 080920Z 18008KT 9999 SCT050 BKN100 24/08 Q1019 BLU BLU=
METAR ETNT 080920Z 24009KT 9999 FEW090 SCT270 27/11 Q1018 BLU/BLU/=
METAR ETNW 080920Z 22006KT 9999 SCT200 28/10 Q1020 BLU/BLU/=
METAR ETSA 080920Z 10006KT 9999 FEW270 23/09 Q1023 BLU/BLU/=
METAR ETSH 080920Z 18005KT 9999 FEW150 24/07 Q1022 BLU/BLU/=
####018001341####
SAUS99 KWBC 080928
METAR
KBXK 080915Z AUTO 05003KT 10SM CLR 27/00 A2977 RMK AO1=
KPAN 080935Z AUTO 00000KT 10SM SCT120 22/04 A3012 RMK AO1=
KRQO 080935Z AUTO 00000KT 5SM BR CLR 22/22 A3006 RMK AO2 LTG DSNT
     E=
K1H2 080925Z AUTO 00000KT 7SM CLR 24/23 A3004 RMK AO2
     T02400231=
K3T5 080924Z AUTO 00000KT 7SM BKN008 BKN014 BKN060 25/24 A2991 RMK
     AO2 T02520236=
KAAA 080923Z AUTO 00000KT 2SM BR BKN039 BKN055 OVC090 23/22 A3003
     RMK AO2 T02250217=
KADS 080923Z AUTO 14004KT 10SM BKN012 25/22 A3000 RMK AO2
     T02500222=
KAJG 080925Z AUTO 00000KT 7SM CLR 23/22 A3004 RMK AO2
     T02270215=
KALN 080923Z AUTO 20003KT 7SM SCT031 SCT044 SCT055 25/24 A3002 RMK
     AO2 P0001 T02470241=
KGPM 080931Z AUTO 14003KT 10SM CLR 26/23 A2999 RMK AO2=
KHQZ 080926Z AUTO 00000KT 10SM OVC015 25/23 A3001 RMK AO2=
KJOT 080926Z AUTO 00000KT 4SM BR SCT043 23/22 A3002 RMK AO2=
KLOT 080921Z AUTO 00000KT 4SM BR SCT060 SCT075 BKN100 22/22 A3002
     RMK AO2 LTG DSNT S=
KORG 080925Z AUTO 07007KT 7SM CLR 17/15 A2996 RMK AO2=
KOXI 080925Z AUTO 00000KT 3SM 21/20 A3003 RMK AO1 SKY OBSCURED
     T02110200=
KPEQ 080923Z AUTO 08005KT 10SM SCT090 SCT110 23/21 A3005 RMK
     AO2=
KPVW 080921Z AUTO 35011KT 10SM CLR 18/16 A3014 RMK AO2=
KRCR 080925Z AUTO 00000KT 7SM CLR 23/22 A3005 RMK AO2=
####018000951####
SPUS99 KWBC 080928
SPECI
KGLH 080925Z AUTO 07003KT 3SM BR CLR 22/22 A3004 RMK AO2=
KLWD 080925Z AUTO 31003KT 2 1/2SM BR CLR 20/20 A3008 RMK AO2=
KMRY 080925Z AUTO 00000KT 10SM OVC008 13/10 A2993 RMK AO2=
KMWT 080922Z AUTO 00000KT 3SM BR BKN002 23/22 A3004 RMK AO2
     TSNO=
KOZR 080923Z AUTO 00000KT 6SM R06/5000V5500FT BR CLR 22/22 A3002
     RMK AO2 SLP163=
KPSF 080925Z AUTO 00000KT 1 3/4SM BR CLR 19/18 A3007 RMK AO2=
KJLN 080926Z 00000KT 3SM -RA BR FEW007 BKN016 OVC023 23/23 A3004
     RMK AO2 LTG DSNT W P0066=
KLHQ 080926Z AUTO 00000KT 2 1/2SM BR FEW060 19/18 A3008 RMK
     AO2=
KLLQ 080926Z AUTO 00000KT 8SM FEW002 23/22 A3006 RMK AO2=
KLRD 080925Z AUTO 04006KT 10SM SCT014 OVC024 27/25 A2989 RMK AO2
     $=
KMHT 080926Z 15006KT 2SM BR BKN080 23/22 A3004 RMK AO2=
KPKB 080926Z AUTO 00000KT 3SM BR FEW001 21/19 A3010 RMK AO2
     TSNO=
KSTC 080926Z AUTO 00000KT 1 1/4SM BR CLR 14/13 A3008 RMK AO2=
####018000080####
SACN97 KWBC 080928
METAR CXKT 080900Z AUTO 25003KT 16/16 RMK AO1 T01630163=
####018000140####
SAMX52 MMGL 080900
METAR MMMM 080920Z RTD 00000KT 4SM  BKN020 OVC070 17/16 A3008 
      RMK SLP041 57007 917 8/45/=





TX OPMET V1
####018000438####
SAAF17 LFPW 080900 RRA
METAR HEAX 080900Z 29011KT 9999 SCT020 29/22 Q1010 NOSIG=
METAR HEBL 080900Z 04018KT CAVOK       39/08 Q1010 NOSIG=
METAR HEGN 080900Z 34024KT CAVOK       36/18 Q1006 NOSIG=
METAR HELX 080900Z 33008KT CAVOK       37/12 Q1008 NOSIG=
METAR HEMM 080900Z 33010KT CAVOK       28/21 Q1012 NOSIG=
METAR HESN 080900Z 36001KT CAVOK       36/09 Q1010 NOSIG=
METAR HETB 080900Z 00000KT CAVOK       26/14 Q1014 NOSIG=
####018000440####
SAGR32 LGAT 080920
METAR LGAL 080920Z NIL=
METAR LGEL 080920Z 35010G20KT 9999 FEW025 26/13 Q1012=
METAR LGKV 080920Z 11007KT 9999 SCT020TCU 20/15 Q1013=
METAR LGMT 080920Z 35010G20KT 9999 FEW020 SCT025 BKN080 24/16 Q1011=
METAR LGPZ 080920Z 26016KT 9999 FEW025 29/19 Q1013 NOSIG=
METAR LGRX 080920Z NIL=
METAR LGSK 080920Z NIL=
METAR LGSR 080920Z 35018KT CAVOK 29/19 Q1010 NOSIG=
METAR LGZA 080920Z 32015G25KT CAVOK 30/09 Q1013=
####018000074####
SAEW LEJR 080930
METAR LEJR 080930Z 24003KT 120V290 CAVOK 27/19 Q1016=
####018000555####
SAGR31 LGAT 080920
METAR LGAD 080920Z 33011KT 9999 FEW020 28/17 Q1013=
METAR LGAV 080920Z 36014KT 9999 FEW020 BKN030 26/14 Q1013 NOSIG=
METAR LGIR 080920Z 01006KT CAVOK 29/21 Q1011 NOSIG=
METAR LGKL 080920Z 33004KT 9999 FEW030 32/16 Q1011=
METAR LGKO 080920Z 30018KT CAVOK 28/18 Q1010=
METAR LGKR 080920Z 31014KT CAVOK 28/12 Q1013 NOSIG=
METAR LGLM 080920Z NIL=
METAR LGRP 080920Z 24016KT CAVOK 30/19 Q1008 NOSIG=
METAR LGSA 080920Z 32008KT CAVOK 32/15 Q1011=
METAR LGSM 080920Z NIL=
METAR LGTS 080920Z 32022KT 9999 FEW025 23/12 Q1016 NOSIG=
####018000280####
SANL31 EHDB 080925
METAR EHAM 080925Z 26009KT 210V320 CAVOK 24/16 Q1019 NOSIG=
METAR EHBK 080925Z AUTO VRB06KT 9999NDV NCD 28/11 Q1019 NOSIG=
METAR EHGG 080925Z AUTO 23011KT 190V270 9999NDV NSC 26/12 Q1018
NOSIG=
METAR EHRD 080925Z 28007KT 240V330 CAVOK 25/14 Q1019 NOSIG=
####018000095####
SACN92 KWBC 080928
METAR CWKX 080900Z AUTO 07003KT 11/05 RMK AO1 SLP232 T01080045
51007=
####018000169####
SACN87 KWBC 080928
METAR CWME 080900Z AUTO 08005KT 19/14 RMK AO1 SLP150 T01940141
51006=
METAR CWME 080900Z AUTO 08005KT 19/14 RMK AO1 SLP150 T01940141
51006=
####018000175####
SAFA31 EKCH 080920
METAR EKVG 080920Z 16012KT 9999 -SHRA SCT004 BKN006 BKN010 11/10
Q0992 RMK/RWY 13/31 CLOSED DUE WIP. SEE NOTAM E0050/10 WIND
850FT 15017G31KT 120V180=
####018000078####
SASN31 ESWI 080920 RRA
METAR ESGT 080920Z 22010KT 9999 BKN035 20/13 Q1018=
####018000858####
SPUS70 KWBC 080928
SPECI
KTYR 080924Z AUTO 10003KT 9SM FEW004 24/24 A3002 RMK AO2=
PATO 080924Z AUTO 13013G33KT 090V180 2 1/2SM +RA BR SCT024 BKN033
     OVC043 13/11 A3001 RMK AO2 PK WND 11037/0905 VIS 1 3/4V3
     P0008 T01330111 TSNO=
PAWD 080924Z AUTO 00000KT 1 3/4SM BR OVC003 11/09 A2996 RMK AO2
     TSNO=
KGLH 080925Z AUTO 07003KT 3SM BR CLR 22/22 A3004 RMK AO2=
KMRY 080925Z AUTO 00000KT 10SM OVC008 13/10 A2993 RMK AO2=
KPSF 080925Z AUTO 00000KT 1 3/4SM BR CLR 19/18 A3007 RMK AO2=
KLHQ 080926Z AUTO 00000KT 2 1/2SM BR FEW060 19/18 A3008 RMK
     AO2=
KLLQ 080926Z AUTO 00000KT 8SM FEW002 23/22 A3006 RMK AO2=
KLRD 080925Z AUTO 04006KT 10SM SCT014 OVC024 27/25 A2989 RMK AO2
     $=
KMHT 080926Z 15006KT 2SM BR BKN080 23/22 A3004 RMK AO2=
KPKB 080926Z AUTO 00000KT 3SM BR FEW001 21/19 A3010 RMK AO2
     TSNO=
####018000332####
SPUS80 KWBC 080928
SPECI
KLWD 080925Z AUTO 31003KT 2 1/2SM BR CLR 20/20 A3008 RMK AO2=
KMWT 080922Z AUTO 00000KT 3SM BR BKN002 23/22 A3004 RMK AO2
     TSNO=
KJLN 080926Z 00000KT 3SM -RA BR FEW007 BKN016 OVC023 23/23 A3004
     RMK AO2 LTG DSNT W P0066=
KSTC 080926Z AUTO 00000KT 1 1/4SM BR CLR 14/13 A3008 RMK AO2=
####018000119####
SPXX60 KWBC 080928
SPECI
KOZR 080923Z AUTO 00000KT 6SM R06/5000V5500FT BR CLR 22/22 A3002
     RMK AO2 SLP163=
####018001284####
SAUS70 KWBC 080928
METAR
KBXK 080915Z AUTO 05003KT 10SM CLR 27/00 A2977 RMK AO1=
KPAN 080935Z AUTO 00000KT 10SM SCT120 22/04 A3012 RMK AO1=
KRQO 080935Z AUTO 00000KT 5SM BR CLR 22/22 A3006 RMK AO2 LTG DSNT
     E=
K1H2 080925Z AUTO 00000KT 7SM CLR 24/23 A3004 RMK AO2
     T02400231=
K3T5 080924Z AUTO 00000KT 7SM BKN008 BKN014 BKN060 25/24 A2991 RMK
     AO2 T02520236=
KAAA 080923Z AUTO 00000KT 2SM BR BKN039 BKN055 OVC090 23/22 A3003
     RMK AO2 T02250217=
KADS 080923Z AUTO 14004KT 10SM BKN012 25/22 A3000 RMK AO2
     T02500222=
KAJG 080925Z AUTO 00000KT 7SM CLR 23/22 A3004 RMK AO2
     T02270215=
KALN 080923Z AUTO 20003KT 7SM SCT031 SCT044 SCT055 25/24 A3002 RMK
     AO2 P0001 T02470241=
KGPM 080931Z AUTO 14003KT 10SM CLR 26/23 A2999 RMK AO2=
KHQZ 080926Z AUTO 00000KT 10SM OVC015 25/23 A3001 RMK AO2=
KJOT 080926Z AUTO 00000KT 4SM BR SCT043 23/22 A3002 RMK AO2=
KLOT 080921Z AUTO 00000KT 4SM BR SCT060 SCT075 BKN100 22/22 A3002
     RMK AO2 LTG DSNT S=
KORG 080925Z AUTO 07007KT 7SM CLR 17/15 A2996 RMK AO2=
KOXI 080925Z AUTO 00000KT 3SM 21/20 A3003 RMK AO1 SKY OBSCURED
     T02110200=
KPEQ 080923Z AUTO 08005KT 10SM SCT090 SCT110 23/21 A3005 RMK
     AO2=
KPVW 080921Z AUTO 35011KT 10SM CLR 18/16 A3014 RMK AO2=
####018000099####
SPUS70 KWBC 080928 CCA
SPECI
KNSE 080921Z AUTO 00000KT 2 1/2SM BR CLR 23/21 A3003 RMK AO2 $=
####018000449####
SAAF35 KWBC 080900 RRC
METAR
HEAX 080900Z 29011KT 9999 SCT020 29/22 Q1010 NOSIG=
HEBA 080900Z NIL=
HEBL 080900Z 04018KT CAVOK 39/08 Q1010 NOSIG=
HEGN 080900Z 34024KT CAVOK 36/18 Q1006 NOSIG=
HELX 080900Z 33008KT CAVOK 37/12 Q1008 NOSIG=
HEMM 080900Z 33010KT CAVOK 28/21 Q1012 NOSIG=
HEPS 080900Z 32004KT 9999 SCT025 29/22 Q1010 NOSIG=
HESC 080900Z 05006KT CAVOK 30/11 Q1018 NOSIG=
HESN 080900Z 36001KT CAVOK 36/09 Q1010 NOSIG=
####018000081####
SAAF36 KWBC 080900 RRD
METAR
HEMA 080900Z 02016KT CAVOK 34/19 Q1007 NOSIG=
####018000369####
SABX31 KWBC 080920 RRA
METAR
EBAW 080920Z 22007KT 180V300 CAVOK 27/12 Q1019 NOSIG=
EBBR 080920Z 23006KT 200V260 CAVOK 28/11 Q1020 NOSIG=
EBCI 080920Z 20006KT 160V250 CAVOK 27/10 Q1020 NOSIG=
EBLG 080920Z 24006KT 200V270 CAVOK 28/09 Q1020 NOSIG=
EBOS 080920Z 28008KT 250V310 CAVOK 20/16 Q1020 NOSIG=
ELLX 080920Z 11004KT 050V190 CAVOK 26/10 Q1021 NOSIG=
####018000081####
SACA33 KWBC 080900 RRB
METAR
TNCM 080900Z 09006KT 9999 FEW019 28/24 Q1015=
####018000089####
SACN31 KWBC 080900 RRC
METAR
CYXX 080900Z 00000KT 15SM SKC 18/14 A2997 RMK SLP148=
####018000357####
SAEM31 KWBC 080900 RRD
METAR
LOWG 080920Z 17003KT 070V230 CAVOK 23/09 Q1023 NOSIG=
LOWI 080920Z VRB01KT CAVOK 22/12 Q1022 NOSIG=
LOWK 080920Z 36003KT 290V090 9999 FEW060 21/10 Q1024 NOSIG=
LOWL 080920Z VRB03KT CAVOK 21/11 Q1024 NOSIG=
LOWS 080920Z VRB02KT CAVOK 23/09 Q1023 NOSIG=
LOWW 080920Z 36007KT 320V040 9999 FEW050 22/10 Q1023 NOSIG=
####018000141####
SAEN31 KWBC 080920 RRA
METAR
EFIV 080920Z AUTO 17003KT CAVOK 18/11 Q1016=
EFKE 080920Z AUTO 20004KT 140V240 9999 SCT029 19/13 Q1016=
####018000532####
SAIY32 KWBC 080920 RRA
METAR
LIPE 080920Z 11008KT 080V140 CAVOK 28/14 Q1021=
LIPH 080915Z 02002KT 9999 BKN070 25/19 Q1023=
LIPQ 080920Z VRB03KT 9999 BKN050 25/14 Q1023=
LIPR 080915Z 12005KT CAVOK 28/17 Q1021=
LIPX 080915Z 12006KT 9999 FEW040 28/12 Q1021=
LIPZ 080920Z 13007KT 9999 FEW050 BKN070 27/16 Q1022=
LIRA 080915Z 24006KT 210V310 9999 BKN018 28/20 Q1019=
LIRF 080920Z 20009KT 170V230 9999 FEW020 29/18 Q1020 NOSIG=
LIRP 080915Z 09009KT CAVOK 29/15 Q1019 NOSIG=
LIRQ 080920Z VRB02KT CAVOK 36/13 Q1020=
####018000656####
SAIY31 KWBC 080920 RRA
METAR
LIBD 080920Z 35014KT CAVOK 25/12 Q1020=
LIBR 080915Z /////KT CAVOK 25/16 Q1017 NOSIG=
LICC 080920Z 08008KT CAVOK 29/21 Q1018=
LICJ 080920Z 05009KT CAVOK 28/22 Q1018=
LIEA 080920Z 04005KT 350V100 CAVOK 30/20 Q1019=
LIEE 080915Z 16008KT 9999 FEW020 28/16 Q1019 NOSIG=
LIEO 080920Z 04008KT 010V070 9999 FEW030 30/15 Q1020=
LIMC 080920Z 18004KT 080V220 9999 FEW050 BKN080 25/14 Q1022
     NOSIG=
LIME 080920Z 14006KT 090V200 9999 FEW055 25/15 Q1023=
LIMF 080920Z VRB02KT 9999 SCT030 BKN045 24/16 Q1023=
LIMJ 080920Z 16006KT 9999 FEW035 29/23 Q1020=
LIML 080920Z 10007KT 9999 FEW090 27/17 Q1022 NOSIG=
####018000109####
SAIY41 KWBC 080920 RRA
METAR
LIMC 080920Z 18004KT 080V220 9999 FEW050 BKN080 25/14 Q1022
     NOSIG=
####018000081####
SAIY43 KWBC 080920 RRA
METAR
LIPX 080915Z 12006KT 9999 FEW040 28/12 Q1021=
####018000427####
SANL31 KWBC 080920 RRA
METAR
EHDL 080925Z AUTO 21009KT 9999NDV NCD 28/12 Q1019 BLU=
EHGR 080925Z AUTO 29007KT 9999NDV BKN140 27/13 Q1019 BLU BLU=
EHLW 080925Z AUTO 25011KT 9999NDV FEW063 SCT110 23/17 Q1018 BLU
     BLU=
EHVK 080925Z AUTO 25009KT 9999NDV FEW410 29/12 Q1019 BLU=
EHVL 080925Z AUTO 24013KT 9999NDV BKN053 BKN240 19/15 Q1018
     BLU=
EHWO 080925Z AUTO 27003KT 9999NDV NCD 25/12 Q1019 BLU BLU=
####018000081####
SANO42 KWBC 080920 RRA
METAR
ENSO 080920Z 19011KT 9999 SCT020 17/12 Q1013=
####018000087####
SAUK31 KWBC 080920 CCA
METAR
EGCC 080920Z 21011KT 9999 FEW031 18/11 Q1017 NOSIG=
####018000087####
SAUK32 KWBC 080920 RRA
METAR
EGNS 080920Z 22012KT 9999 FEW025 16/10 Q1015 NOSIG=
####018000075####
SAXX61 KWBC 080900 RRE
METAR
LIRN 080920Z 05008KT CAVOK 26/12 Q1019=
####018001847####
SAXX99 KWBC 080900 RRS
METAR
CYOJ 080900Z 00000KT 15SM SCT050 BKN100 13/11 A2997 RMK SC3AC2
     SLP153=
EFET 080920Z AUTO 16009KT 130V220 9999 FEW049 20/08 Q1014=
EFJO 080920Z 04004KT 360V070 CAVOK 24/19 Q1015=
EFKI 080920Z AUTO 33004KT 260V010 CAVOK 20/13 Q1016=
EFKS 080920Z 12005KT 080V160 9999 SCT022 17/11 Q1017=
EFKT 080920Z AUTO 18005KT 100V240 9999 BKN042 BKN130 20/09
     Q1015=
EFLP 080920Z 13004KT 080V190 CAVOK 30/15 Q1014=
EFMI 080920Z AUTO 01003KT CAVOK 27/19 Q1014=
EFSA 080920Z VRB01KT 9999 FEW025 28/19 Q1014=
EFUT 080920Z 05005KT 340V110 CAVOK 29/17 Q1014=
EFVR 080925Z NIL=
EGUW 080920Z 28011KT 9999 -RA FEW004 SCT006 BKN018 17/15 Q1019
     YLO1 BECMG NSW SCT015 WHT=
ESNG 080920Z 17007KT 120V200 CAVOK 20/09 Q1014=
ETGY 080920Z 19004KT 9999 FEW140 SCT250 28/10 Q1019 BLU/=
ETGZ 080920Z 14004KT 9999 FEW120 22/08 Q1024 BLU/=
ETHE 080920Z 21004KT 9999 FEW070 BKN260 27/10 Q1019 BLU/BLU/=
ETHL 080920Z 09005KT 9999 23/08 Q1023 BLU/BLU/=
ETHN 080920Z 14005KT 9999 FEW060 24/07 Q1022 BLU+BLU+=
ETMN 080920Z 21008KT 9999 FEW060 BKN270 27/09 Q1019 BLU/BLU/=
ETND 080920Z 17006KT 9999 FEW180 SCT270 26/12 Q1019 BLU/=
ETNH 080920Z 18006KT 9999 SCT050 BKN100 25/12 Q1019 BLU BLU/ TEMPO
     BLU=
ETNL 080920Z 18006KT 9999 BKN090 SCT140 24/11 Q1021 BLU BLU/=
ETNT 080920Z 24009KT 9999 FEW090 SCT270 27/11 Q1018 BLU/BLU/=
ETNU 080920Z 12004KT 9999 BKN160 23/10 Q1022 BLU BLU TEMPO
     BLU/=
ETSA 080920Z 10006KT 9999 FEW270 23/09 Q1023 BLU+BLU+=
ETSN 080920Z 04005KT 9999 23/09 Q1023 BLU/BLU/=
ETWM 080920Z 23008KT 9999 FEW070 BKN240 28/09 Q1019 BLU/=
HESH 080900Z 02014KT CAVOK 35/13 Q1006 NOSIG=
HETB 080900Z 00000KT CAVOK 26/14 Q1014 NOSIG=
LOXZ 080920Z VRB03KT 70KM FEW270CI 20/09 Q1024 NOSIG RMK FEW=
VTCH 080900Z 00000KT 9999 FEW025 SCT030 35/20 Q1005=
####018000299####
SAGR33 LGAT 080920
METAR LGHI 080920Z NIL=
METAR LGKC 080920Z NIL=
METAR LGKF 080920Z NIL=
METAR LGKP 080920Z 32020KT CAVOK 29/17 Q1009=
METAR LGKZ 080920Z NIL=
METAR LGMK 080920Z 02023G34KT 9999 SCT012 24/18 Q1012=
METAR LGNX 080920Z NIL=
METAR LGPA 080920Z NIL=
METAR LGSO 080920Z NIL=
####018000081####
SPUS72 KWBC 080928
SPECI
KTYR 080924Z AUTO 10003KT 9SM FEW004 24/24 A3002=
####018000079####
SASN31 ESWI 080920 RRA
METAR ESGT 080920Z 22010KT 9999 BKN035 20/13 Q1018=
####018000707####
SAEG32 HECA 080900
METAR HEBL 080900Z 04018KT CAVOK       39/08 Q1010 NOSIG=
METAR HEAX 080900Z 29011KT 9999 SCT020 29/22 Q1010 NOSIG=
METAR HEMM 080900Z 33010KT CAVOK       28/21 Q1012 NOSIG=
METAR HEPS 080900Z 32004KT 9999 SCT025 29/22 Q1010 NOSIG=
METAR HELX 080900Z 33008KT CAVOK       37/12 Q1008 NOSIG=
METAR HESN 080900Z 36001KT CAVOK       36/09 Q1010 NOSIG=
METAR HEGN 080900Z 34024KT CAVOK       36/18 Q1006 NOSIG=
METAR HESH 080900Z 02014KT CAVOK       35/13 Q1006 NOSIG=
METAR HEBA 080900Z NIL=
METAR HEMA 080900Z 02016KT CAVOK       34/19 Q1007 NOSIG=
METAR HETB 080900Z 00000KT CAVOK       26/14 Q1014 NOSIG=
METAR HESC 080900Z 05006KT CAVOK       30/11 Q1018 NOSIG=
####018000449####
SAGR32 LGAT 080920
METAR LGAL 080920Z NIL=
METAR LGEL 080920Z 35010G20KT 9999 FEW025 26/13 Q1012=
METAR LGKV 080920Z 11007KT 9999 SCT020TCU 20/15 Q1013=
METAR LGMT 080920Z 35010G20KT 9999 FEW020 SCT025 BKN080 24/16 Q1011=
METAR LGPZ 080920Z 26016KT 9999 FEW025 29/19 Q1013 NOSIG=
METAR LGRX 080920Z NIL=
METAR LGSK 080920Z NIL=
METAR LGSR 080920Z 35018KT CAVOK 29/19 Q1010 NOSIG=
METAR LGZA 080920Z 32015G25KT CAVOK 30/09 Q1013=
####018000178####
SAFA31 EKCH 080920
METAR EKVG 080920Z 16012KT 9999 -SHRA SCT004 BKN006 BKN010 11/10
Q0992 RMK/RWY 13/31 CLOSED DUE WIP. SEE NOTAM E0050/10 WIND
850FT 15017G31KT 120V180=
####018000566####
SAGR31 LGAT 080920
METAR LGAD 080920Z 33011KT 9999 FEW020 28/17 Q1013=
METAR LGAV 080920Z 36014KT 9999 FEW020 BKN030 26/14 Q1013 NOSIG=
METAR LGIR 080920Z 01006KT CAVOK 29/21 Q1011 NOSIG=
METAR LGKL 080920Z 33004KT 9999 FEW030 32/16 Q1011=
METAR LGKO 080920Z 30018KT CAVOK 28/18 Q1010=
METAR LGKR 080920Z 31014KT CAVOK 28/12 Q1013 NOSIG=
METAR LGLM 080920Z NIL=
METAR LGRP 080920Z 24016KT CAVOK 30/19 Q1008 NOSIG=
METAR LGSA 080920Z 32008KT CAVOK 32/15 Q1011=
METAR LGSM 080920Z NIL=
METAR LGTS 080920Z 32022KT 9999 FEW025 23/12 Q1016 NOSIG=
####018000285####
SANL31 EHDB 080925
METAR EHAM 080925Z 26009KT 210V320 CAVOK 24/16 Q1019 NOSIG=
METAR EHBK 080925Z AUTO VRB06KT 9999NDV NCD 28/11 Q1019 NOSIG=
METAR EHGG 080925Z AUTO 23011KT 190V270 9999NDV NSC 26/12 Q1018
NOSIG=
METAR EHRD 080925Z 28007KT 240V330 CAVOK 25/14 Q1019 NOSIG=
####018000308####
SAGR33 LGAT 080920
METAR LGHI 080920Z NIL=
METAR LGKC 080920Z NIL=
METAR LGKF 080920Z NIL=
METAR LGKP 080920Z 32020KT CAVOK 29/17 Q1009=
METAR LGKZ 080920Z NIL=
METAR LGMK 080920Z 02023G34KT 9999 SCT012 24/18 Q1012=
METAR LGNX 080920Z NIL=
METAR LGPA 080920Z NIL=
METAR LGSO 080920Z NIL=
####018000118####
SPCN31 CWAO 080926
SPECI CYZV 080926Z 10005KT 1 1/2SM R09/6000FT/U -DZ BR BCFG OVC003
RMK FG2ST6 VIS SW 1/2=

####018000104####
SAUS20 KNKA 080928
SPECI KCEW 080926Z AUTO 00000KT 2SM BR CLR 21/21 A3003 RMK AO2 VIS 
    3/4V5=
####018000060####
SAUS45 KTFX 080928
MTR8S0
METAR K8S0 080825Z 26006KT 
####018000094####
SPCN51 CWAO 080927
SPECI CWZZ 080927Z AUTO ///// 1/8SM BKN014 OVC037 OVC048 11/ A2980=

####018000087####
SPCN51 CWAO 080927
SPECI CZCP 080927Z AUTO 17007KT 9SM SCT015 OVC054 06/ A2986=

####018000086####
SPCN48 CWAO 080927
SPECI CYPH 080927Z AUTO 24018KT 3 1/2SM OVC003 06/05 A2979=

####018000107####
SPCN43 CWAO 080927
SPECI CYPY 080927Z AUTO 27003KT 1 1/2SM CLR 12/12 A2992 RMK VSBY VRBL
0.4V9.+=

####018001764####
SAEU KAWN 080900 RRX
METAR EHAM 080925Z 26009KT 210V320 CAVOK 24/16 Q1019 NOSIG=
METAR EHBK 080925Z AUTO VRB06KT 9999NDV NCD 28/11 Q1019 NOSIG=
METAR EHDL 080925Z AUTO 21009KT 9999NDV NCD 28/12 Q1019 BLU=
METAR EHGG 080925Z AUTO 23011KT 190V270 9999NDV NSC 26/12 Q1018 NOSIG=
METAR EHGR 080925Z AUTO 29007KT 9999NDV BKN140 27/13 Q1019 BLU BLU=
METAR EHLW 080925Z AUTO 25011KT 9999NDV FEW063 SCT110 23/17 Q1018 BLU
      BLU=
METAR EHRD 080925Z 28007KT 240V330 CAVOK 25/14 Q1019 NOSIG=
METAR EHVK 080925Z AUTO 25009KT 9999NDV FEW410 29/12 Q1019 BLU=
METAR EHVL 080925Z AUTO 24013KT 9999NDV BKN053 BKN240 19/15 Q1018 BLU=
METAR EHWO 080925Z AUTO 27003KT 9999NDV NCD 25/12 Q1019 BLU BLU=
METAR ENSO 080920Z 19011KT 9999 SCT020 17/12 Q1013=
METAR ETSA 080920Z 10006KT 9999 FEW270 23/09 Q1023 BLU/BLU/=
METAR LGAD 080920Z 33011KT 9999 FEW020 28/17 Q1013=
METAR LGEL 080920Z 35010G20KT 9999 FEW025 26/13 Q1012=
METAR LGIR 080920Z 01006KT CAVOK 29/21 Q1011 NOSIG=
METAR LGKL 080920Z 33004KT 9999 FEW030 32/16 Q1011=
METAR LGKO 080920Z 30018KT CAVOK 28/18 Q1010=
METAR LGKR 080920Z 31014KT CAVOK 28/12 Q1013 NOSIG=
METAR LGKV 080920Z 11007KT 9999 SCT020TCU 20/15 Q1013=
METAR LGMT 080920Z 35010G20KT 9999 FEW020 SCT025 BKN080 24/16 Q1011=
METAR LGPZ 080920Z 26016KT 9999 FEW025 29/19 Q1013 NOSIG=
METAR LGRP 080920Z 24016KT CAVOK 30/19 Q1008 NOSIG=
METAR LGSA 080920Z 32008KT CAVOK 32/15 Q1011=
METAR LGSR 080920Z 35018KT CAVOK 29/19 Q1010 NOSIG=
METAR LGTS 080920Z 32022KT 9999 FEW025 23/12 Q1016 NOSIG=
METAR LGZA 080920Z 32015G25KT CAVOK 30/09 Q1013=
METAR LICC 080920Z 08008KT CAVOK 29/21 Q1018=
METAR LIPX 080915Z 12006KT 9999 FEW040 28/12 Q1021=
METAR LWSK 080930Z 01008KT 9999 BKN040 17/10 Q1020 NOSIG=
####018000070####
SALY31 HLLS 080930
METAR HLLS 080920Z O9O15KT  CAVOK 34/1O Q1O17=
####018000115####
SPCN46 CWAO 080928
SPECI CYQA 080928Z AUTO 15002KT 3SM BR CLR 19/19 A3003 RMK SLP170
 DENSITY ALT 1400FT=

####018000106####
SPUS99 KWBC 080929
SPECI
KCEW 080926Z AUTO 00000KT 2SM BR CLR 21/21 A3003 RMK AO2 VIS
     3/4V5=
####018000115####
SAUK31 EGGY 080920 CCB
METAR COR EGLL 080920Z 31005KT 280V340 9999 FEW008 BKN010 18/14
    Q1019 BECMG SCT030=
####018000184####
SANL32 EHDB 080925
METAR EHEH 080925Z AUTO 23007KT 9999NDV NCD 29/12 Q1019 
BLU BLU=
METAR EHKD 080925Z AUTO 23011KT 9999NDV BKN059/// BKN085/// OVC092///
19/15 Q1019 
BLU BLU=
####018000072####
SAGR31 LGAT 080920 RRA
METAR LGSM 080920Z 34013KT CAVOK 30/14 Q1010=
####018000117####
SPCN31 KWBC 080929
SPECI
CYZV 080926Z 10005KT 1 1/2SM R09/6000FT/U -DZ BR BCFG OVC003 RMK
FG2ST6 VIS SW 1/2=
####018000089####
SPUS42 KWBC 080929
SPECI
KLRD 080925Z AUTO 04006KT 10SM SCT014 OVC024 27/25 A2989=
####018000408####
SAUK36 EGGY 080920
METAR EGBE 080920Z NIL=
METAR EGBJ 080920Z 25004KT 220V280 9999 FEW024 19/11 Q1018=
METAR EGCN 080920Z 23012KT CAVOK 18/11 Q1018=
METAR EGDL 080920Z NIL=
METAR EGSC 080920Z 25006KT 190V280 9000 FEW020 BKN030 19/13 Q1019=
METAR EGSD 080920Z NIL=
METAR COR EGSH 080920Z 25009KT 9999 -RA FEW010 BKN013 19/16 Q1018
    BECMG SCT025=
METAR EGVN 080920Z NIL=
METAR EGWU 080920Z NIL=
####018002997####
SAUS20 KNKA 080928
METAR K0F2 080924Z AUTO 00000KT 10SM SCT036 24/22 A3002 RMK AO2 
     T02350218=
METAR K11R 080925Z AUTO 06004KT 7SM CLR 25/23 A2994 RMK AO2=
METAR K3LF 080923Z AUTO 00000KT 7SM CLR 23/22 A3003 RMK AO2=
METAR K6R3 080921Z AUTO 00000KT 7SM SCT013 SCT017 BKN024 24/24 
     A2995 RMK AO2 T02440244=
METAR KAPY 080923Z AUTO 36003KT 10SM OVC019 26/24 A2984 RMK AO2 
     T02550243=
METAR KAQO 080925Z AUTO 00000KT OVC050 25/23 A3001 RMK AO2=
METAR KARM 080925Z AUTO 08006KT 10SM BKN045 BKN070 OVC090 26/25 
     A2989 RMK AO2 LTG DSNT SE P0001 T02640247=
METAR KASW 080925Z AUTO 00000KT 5SM BR CLR 21/20 A3005 RMK AO2 
     T02100200=
METAR KAXH 080925Z AUTO 07004KT 10SM CLR 26/24 A2989 RMK AO2 LTG 
     DSNT S T02600240=
METAR KBBD 080925Z AUTO 08003KT 10SM FEW011 22/21 A3001 RMK=
METAR KBEA 080923Z AUTO 02005KT 10SM SCT012 SCT022 BKN070 25/25 
     A2986 RMK AO2 P0001 T02460246=
SPECI KBED 080927Z AUTO 16006KT 5SM BR SCT019 BKN042 OVC070 24/22 
    A3005 RMK AO2=
METAR KBKD 080921Z AUTO 00000KT 5SM BR CLR 24/23 A3001 RMK AO2 
     T02350227=
METAR KBKS 080926Z AUTO 01004KT 10SM CLR 26/25 A2981 RMK AO1 
     T02630249=
METAR KBPC 080928Z AUTO 01004KT 10SM -DZ SCT032 BKN039 BKN055 
     18/17 A3016 RMK AO2=
METAR KBPG 080925Z AUTO 31004KT 10SM CLR 21/20 A3009 RMK AO1 
     T02120198=
METAR KBYY 080926Z AUTO 10007KT 10SM SCT022 SCT046 OVC065 27/25 
     A2987 RMK AO2 T02650248=
METAR KC09 080924Z AUTO 00000KT 2SM -RA SCT032 SCT049 BKN060 
     21/21 A3002 RMK AO2 LTG DSNT SE=
METAR KCIR 080922Z AUTO 00000KT 10SM CLR 24/22 A3005 RMK AO2=
SPECI KCMX 080927Z AUTO 30005KT 10SM SCT010 BKN043 OVC070 19/18 
    A2998 RMK AO2=
METAR KCPT 080925Z AUTO 10006KT 10SM CLR 24/24 A3001 RMK AO2=
METAR KCUL 080925Z AUTO 00000KT 7SM CLR 23/21 A3004 RMK AO2 
     T02250206=
METAR KCVB 080924Z AUTO 00000KT 10SM BKN017 BKN023 OVC032 25/23 
     A2995 RMK AO2 T02540233=
METAR KCWC 080925Z AUTO 08004KT 10SM CLR 24/22 A3003 RMK AO2 
     T02360218=
METAR KDKB 080921Z AUTO 16004KT 5SM BR OVC013 22/21 A3002 RMK AO2 
     T02150210=
METAR KDKR 080925Z AUTO 08005KT 7SM CLR 24/24 A3001 RMK AO2=
METAR KDNV 080925Z AUTO 00000KT 7SM SCT110 22/21 A3001 RMK AO2 
     T02220205=
METAR KDUX 080927Z AUTO 31011KT 10SM -DZ SCT027 SCT034 BKN044 
     16/15 A3021 RMK AO2 P0001 T01630152=
METAR KDZB 080925Z AUTO 00000KT 5SM BR SCT012 BKN023 OVC080 24/24 
     A2997 RMK AO2 T02380239=
METAR KE38 080925Z AUTO 00000KT 10SM SCT100 19/16 A3019 RMK AO2 
     T01850157=
METAR KECU 080925Z AUTO 00000KT 10SM CLR 21/21 A3007 RMK AO2=
METAR KENL 080924Z AUTO 18003KT 10SM CLR 24/16 A3004 RMK AO2 
     T02400160=
METAR KERV 080925Z AUTO 10005KT 10SM SCT012 SCT034 OVC040 23/21 
     A2999 RMK AO2 T02330213=
METAR KF05 080924Z AUTO 03003KT 10SM OVC034 24/22 A3005 RMK AO2 
     T02400222=
METAR KFEP 080925Z AUTO 29004KT 5SM BR OVC003 23/21 A3002 RMK AO2 
     T02340214=
####018002151####
SAUS20 KNKA 080928
METAR KFOA 080925Z AUTO 00000KT 5SM BR CLR 25/25 A3004 RMK AO2 
     T02500250=
SPECI KFRG 080927Z AUTO 16003KT 5SM BR SCT006 BKN016 BKN120 25/24 
    A3002 RMK AO2 CIG 010V027=
METAR KFWC 080925Z AUTO 00000KT 7SM CLR 23/22 A3004 RMK AO2=
METAR KFWS 080925Z AUTO 00000KT 10SM CLR 25/24 A3000 RMK AO2 
     T02480235=
METAR KGBG 080925Z AUTO 26004KT 5SM BR OVC002 23/22 A3001 RMK AO2 
     LTG DSNT E=
METAR KGDJ 080924Z AUTO 12004KT 10SM BKN029 26/24 A3001 RMK AO2 
     T02570235=
METAR KGLE 080925Z AUTO 00000KT 10SM SCT017 OVC060 26/23 A3003 
     RMK AO2=
METAR KGNC 080925Z AUTO 05005KT 2 1/2SM +RA SCT009 BKN019 OVC028 
     20/19 A3013 RMK AO2 P0049 T01970190=
METAR KGVT 080925Z AUTO 12003KT 10SM SCT015 25/23 A3001 RMK AO2=
METAR KGWB 080925Z AUTO 00000KT 5SM HZ CLR 22/17 A3006 RMK AO2=
METAR KGYB 080925Z AUTO 06004KT 7SM OVC006 25/24 A2998 RMK AO2 
     T02460240=
METAR KHBV 080920Z AUTO 02007KT 7SM OVC005 25/24 A2986 RMK AO2 
     T02500239=
METAR KHSB 080925Z AUTO 00000KT 5SM BR CLR 22/21 A3004 RMK AO2=
METAR KIKK 080925Z AUTO 00000KT 1 1/2SM +RA SCT017 SCT043 OVC055 
     26/23 A3003 RMK AO2 LTG DSNT SE THRU SW P0006=
SPECI KIMT 080927Z AUTO 02003KT 8SM BKN001 OVC006 20/19 A2998 RMK 
    AO2 CIG 001V005=
SPECI KMVL 080927Z AUTO 00000KT 1 1/2SM BR CLR 20/19 A3007 RMK AO2=
METAR KOLY 080923Z AUTO 00000KT 5SM BR CLR 23/22 A3003 RMK AO2=
METAR KOZA 080921Z AUTO 06003KT 10SM SCT036 BKN044 BKN050 22/21 
     A3005 RMK AO2 T02220213=
SPECI KPIA 080927Z 16005KT 3SM BR FEW004 SCT012 OVC030 23/22 A3001 
    RMK AO2=
METAR KPNT 080925Z AUTO 00000KT 3SM BR SCT027 SCT036 OVC090 22/22 
     A3002 RMK AO2 LTG DSNT E=
METAR KPPQ 080926Z AUTO 00000KT 2 1/2SM RA SCT017 BKN026 OVC045 
     23/22 A3005 RMK AO2 P0011=
METAR KPRG 080925Z AUTO 00000KT 3SM BR CLR 21/21 A3004 RMK AO2 
     T02170212=
METAR KRPJ 080925Z AUTO 16006KT 4SM BR BKN011 BKN080 21/20 A3002 
     RMK AO2 T02060196=
METAR KRSV 080922Z AUTO 00000KT 7SM CLR 24/23 A3005 RMK AO2 
     T02400228=
METAR KSFY 080926Z AUTO 00000KT 4SM BR OVC011 23/22 A3001 RMK AO2=
####018000097####
SPUS53 KWBC 080929
SPECI
KJLN 080926Z 00000KT 3SM -RA BR FEW007 BKN016 OVC023 23/23 A3004=
####018000112####
SAUS43 KLOT 080929
MTRRFD
SPECI KRFD 080927Z 18005KT 8SM BKN009 OVC080 22/21 A3001 RMK AO2 CIG 
004V012
####018000085####
SPUS53 KWBC 080929
SPECI
KSTC 080926Z AUTO 00000KT 1 1/4SM BR CLR 14/13 A3008=
####018000103####
SPCN47 CWAO 080927
SPECI CYPQ 080927Z AUTO ///// 3/8SM CLR 20/20 A3003 RMK VSBY VRBL
0.2V7.0=

####018000117####
SAUK31 EGGY 080920 CCB
METAR COR EGLL 080920Z 31005KT 280V340 9999 FEW008 BKN010 18/14
    Q1019 BECMG SCT030=
####018000300####
SAGR33 LGAT 080920
METAR LGHI 080920Z NIL=
METAR LGKC 080920Z NIL=
METAR LGKF 080920Z NIL=
METAR LGKP 080920Z 32020KT CAVOK 29/17 Q1009=
METAR LGKZ 080920Z NIL=
METAR LGMK 080920Z 02023G34KT 9999 SCT012 24/18 Q1012=
METAR LGNX 080920Z NIL=
METAR LGPA 080920Z NIL=
METAR LGSO 080920Z NIL=
####018000073####
SAGR31 LGAT 080920 RRA
METAR LGSM 080920Z 34013KT CAVOK 30/14 Q1010=
####018000083####
SAMJ41 LWOH 080930
METAR LWOH 080930Z 03008KT 350V070 9999 SCT035 20/07 Q1019=
####018000114####
SAPK31 OPKC 080925
METAR OPKC 080930Z 09006KTS 8000 SCT020 SCT030 TCU 35/24 Q.1003
NE 30KTS TSRA FEW025 CB=
####018000189####
SANL32 EHDB 080925
METAR EHEH 080925Z AUTO 23007KT 9999NDV NCD 29/12 Q1019 
BLU BLU=
METAR EHKD 080925Z AUTO 23011KT 9999NDV BKN059/// BKN085/// OVC092///
19/15 Q1019 
BLU BLU=
####018000556####
SAGR31 LGAT 080920
METAR LGAD 080920Z 33011KT 9999 FEW020 28/17 Q1013=
METAR LGAV 080920Z 36014KT 9999 FEW020 BKN030 26/14 Q1013 NOSIG=
METAR LGIR 080920Z 01006KT CAVOK 29/21 Q1011 NOSIG=
METAR LGKL 080920Z 33004KT 9999 FEW030 32/16 Q1011=
METAR LGKO 080920Z 30018KT CAVOK 28/18 Q1010=
METAR LGKR 080920Z 31014KT CAVOK 28/12 Q1013 NOSIG=
METAR LGLM 080920Z NIL=
METAR LGRP 080920Z 24016KT CAVOK 30/19 Q1008 NOSIG=
METAR LGSA 080920Z 32008KT CAVOK 32/15 Q1011=
METAR LGSM 080920Z NIL=
METAR LGTS 080920Z 32022KT 9999 FEW025 23/12 Q1016 NOSIG=
####018000089####
SPUS72 KWBC 080929
SPECI
KLRD 080925Z AUTO 04006KT 10SM SCT014 OVC024 27/25 A2989=
####018000097####
SPUS73 KWBC 080929
SPECI
KJLN 080926Z 00000KT 3SM -RA BR FEW007 BKN016 OVC023 23/23 A3004=
####018000085####
SPUS73 KWBC 080929
SPECI
KSTC 080926Z AUTO 00000KT 1 1/4SM BR CLR 14/13 A3008=
####018000082####
SPUS74 KWBC 080929
SPECI
KMRY 080925Z AUTO 00000KT 10SM OVC008 13/10 A2993=
####018001661####
SPZZ40 KAWN 080929 RRF
SPECI CWZZ 080927Z AUTO ///// 1/8SM BKN014 OVC037 OVC048 11/ A2980=
SPECI CYKF 080925Z AUTO 00000KT 3/8SM FG FEW002 19/18 A3006 RMK SLP175
      DENSITY ALT 1600FT=
SPECI CYPH 080925Z AUTO 24018KT 3SM OVC002 05/05 A2979=
SPECI CYPH 080927Z AUTO 24018KT 3 1/2SM OVC003 06/05 A2979=
SPECI CYPQ 080923Z AUTO ///// 1 1/8SM CLR 20/20 A3003 RMK VSBY VRBL
      0.3V9.0=
SPECI CYPQ 080924Z AUTO ///// 3/4SM CLR 20/20 A3003 RMK VSBY VRBL 0.2V9.0=
SPECI CYPQ 080925Z AUTO ///// 5/8SM CLR 20/20 A3003 RMK VSBY VRBL 0.2V8.0=
SPECI CYPY 080927Z AUTO 27003KT 1 1/2SM CLR 12/12 A2992 RMK VSBY VRBL
      0.4V9.+=
SPECI CYSB 080924Z 17004KT 1/4SM R22/P6000FT/D FG VV002 RMK FG8=
SPECI CYYB 080923Z 22003KT 6SM BR BKN004 BKN030 BKN110 RMK SF6SC1AC1=
SPECI CYZV 080926Z 10005KT 1 1/2SM R09/6000FT/U -DZ BR BCFG OVC003
      RMK FG2ST6 VIS SW 1/2=
SPECI EKKA 080924Z 22007KT 190V250 6000 -SHRA FEW018TCU BKN045 17/16
      Q1018 TEMPO 4000 SHRA SCT020CB=
SPECI KDOV 080927Z AUTO 08003KT 3SM BR BKN007 24/ A2999 RMK AO2 SLP158
      $=
SPECI KEGI 080925Z AUTO 00000KT 4SM R18/3000V5500FT BR CLR 22/21 A3002
      RMK AO2 SLP165 $=
SPECI KNSE 080921Z AUTO 00000KT 2 1/2SM BR CLR 23/21 A3003 RMK AO2
      $=
SPECI KWRI 080927Z AUTO 00000KT 1/4SM R18/0700V1800FT R24/0300FT FG
      VV001 23/23 A3000 RMK AO2 BKN V SCT SLP158 $=
SPECI TTCP 080915Z 09011KT 8000 VCSH SCT014TCU BKN038 24/23 Q1012=
SPECI TXKF 080918Z 20009KT 160V220 9999 VCSH SCT013TCU BKN060 BKN170
      BKN300 24/22 Q1018 RMK TCU NW-N=
SPECI WBSB 080915Z 24003KT 9999 TS FEW015 FEW016CB BKN140 29/25 Q1007
      TEMPO 6000 TSRA=
####018000097####
SPUS81 KWBC 080929
SPECI
KJLN 080926Z 00000KT 3SM -RA BR FEW007 BKN016 OVC023 23/23 A3004=
####018000085####
SPUS81 KWBC 080929
SPECI
KLWD 080925Z AUTO 31003KT 2 1/2SM BR CLR 20/20 A3008=
####018000085####
SPUS81 KWBC 080929
SPECI
KSTC 080926Z AUTO 00000KT 1 1/4SM BR CLR 14/13 A3008=
####018000084####
SPCN42 CWAO 080928
SPECI CYUA 080928Z AUTO 26006KT 9SM -UP OVC006 05/ A3008=

####018000088####
SANA14 KAWN 080900 RRE
METAR KOSC 080914Z AUTO 00000KT 7SM CLR 19/18 A3000 RMK AO2=
####018000650####
SAUK KAWN 080900 RRG
METAR COR EGCC 080920Z 21011KT 9999 FEW031 18/11 Q1017 NOSIG=
METAR EGGP 080920Z 21010KT 9999 SCT030 17/11 Q1017=
METAR COR EGHH 080920Z 04003KT 9999 SCT009 BKN011 17/16 Q1019=
METAR COR EGLL 080920Z 31005KT 280V340 9999 FEW008 BKN010 18/14 Q1019
      BECMG SCT030=
METAR EGMC 080920Z VRB03KT 9999 FEW023 SCT047 21/16 Q1019=
METAR EGMD 080920Z 31007KT 9999 BKN014 19/16 Q1019=
METAR EGNS 080920Z 22012KT 9999 FEW025 16/10 Q1015 NOSIG=
METAR EGNV 080920Z 22010KT 170V240 9999 FEW019 SCT026 17/12 Q1016=
METAR EGUW 080920Z 28011KT 9999 -RA FEW004 SCT006 BKN018 17/15 Q1019
      YLO1 BECMG NSW SCT015 WHT=
####018000087####
SARS18 KAWN 080900 RRG
METAR ESSA 080920Z 23011KT 200V270 CAVOK 23/12 Q1017 NOSIG=
####018000075####
SPCN44 CWAO 080928
SPECI CYUS 080928Z AUTO ///// 9SM CLR 10/ A2980=

####018000084####
SPCN44 CWAO 080928
SPECI CYLT 080928Z 16019KT 25SM FEW080 FEW240 RMK AC1CI0=

####018000544####
SAUS20 KNKA 080929
METAR KRAS 080925Z AUTO 09009KT 7SM FEW020 SCT075 28/26 A2985 RMK 
     AO2=
METAR KRBO 080925Z AUTO 01008KT 10SM RA SCT007 BKN010 BKN016 
     26/25 A2984 RMK AO2 T02610252=
METAR KRFI 080925Z AUTO 00000KT 7SM CLR 24/23 A3001 RMK AO2 
     T02400230=
METAR KRPH 080925Z AUTO 00000KT 10SM CLR 22/21 A3001 RMK AO2 
     T02220210=
METAR KRWV 080920Z AUTO 00000KT 8SM SCT006 BKN023 OVC033 24/24 
     A2998 RMK AO2=
METAR KSEP 080925Z AUTO 00000KT 10SM BKN013 BKN022 BKN060 23/21 
     A3002 RMK AO1=
####018002971####
SAUS20 KNKA 080929
SPECI KAIA 080928Z AUTO 28003KT 10SM BKN026 BKN043 OVC095 15/14 
    A3029 RMK AO2 $=
SPECI KBGR 080928Z 18005KT 1 1/2SM BR OVC003 20/19 A3007 RMK AO2=
METAR KC75 080925Z AUTO 14003KT 5SM BR BKN014 BKN019 BKN039 24/24 
     A3001 RMK AO2=
METAR KEBG 080926Z AUTO 00000KT 10SM SCT080 BKN110 27/25 A2980 
     RMK AO2 LTG DSNT NE T02650250=
SPECI KGON 080928Z AUTO 11009KT 10SM SCT004 OVC013 23/21 A3005 RMK 
    AO2=
METAR KGOP 080920Z AUTO 00000KT 10SM BKN013 25/23 A3000 RMK AO2=
METAR KGYI 080924Z AUTO 15005KT 10SM SCT025 SCT085 25/24 A3002 
     RMK AO2 T02520235=
METAR KHHF 080925Z AUTO 34005KT 10SM OVC016 22/20 A3013 RMK AO2 
     T02160199=
METAR KHRX 080925Z AUTO 00000KT 10SM SCT065 BKN075 OVC110 18/17 
     A3018 RMK AO2 T01750167=
METAR KIJX 080925Z AUTO 00000KT 2SM +RA SCT006 BKN019 OVC030 
     24/23 A3003 RMK AO2 LTG DSNT NE P0003 T02350226=
METAR KINJ 080925Z AUTO 11004KT 10SM CLR 25/23 A2999 RMK AO2 
     T02460226=
SPECI KIOW 080928Z AUTO 32004KT 10SM SCT007 SCT011 22/21 A3003 RMK 
    AO2=
SPECI KIWI 080928Z AUTO 18005KT 6SM BR OVC001 19/19 A3010 RMK AO2=
METAR KJAS 080926Z AUTO 07003KT 10SM CLR 25/24 A3001 RMK AO2 
     T02470237=
METAR KJDD 080925Z AUTO 00000KT 4SM  BR CLR 24/24 A3002 RMK AO2=
METAR KJSO 080930Z AUTO 00000KT 2SM BR OVC001 24/24 A3003 RMK AO2 
     T02350235=
METAR KJWY 080925Z AUTO 11003KT 10SM 24/23 A3000 RMK AO2 T02420225=
METAR KJXI 080925Z AUTO 00000KT OVC003 25/25 A3004 RMK AO2=
METAR KLBR 080925Z AUTO 00000KT 7SM BKN004 BKN010 BKN017 24/23 
     A3003 RMK AO2 T02400230=
METAR KLHB 080924Z AUTO 08003KT 7SM CLR 25/23 A2997 RMK AO2 
     T02510233=
METAR KLNC 080925Z AUTO 00000KT 10SM BKN014 BKN019 24/24 A3000 
     RMK AO2 T02420241=
METAR KLUD 080925Z AUTO 15005KT 10SM CLR 25/22 A3001 RMK AO2 
     T02460221=
METAR KM30 080926Z AUTO 00000KT 7SM CLR 22/21 A3005 RMK AO2=
METAR KMDD 080920Z AUTO 03005KT 10SM CLR 22/21 A3008 RMK AO2 
     T02200205=
METAR KMKN 080920Z AUTO 00000KT 10SM 24/23 A3002 RMK AO2=
METAR KMNZ 080930Z AUTO 13006KT 10SM CLR 24/24 A3000 RMK AO2 
     T02430238=
METAR KMQB 080925Z AUTO 24005KT 7SM OVC004 23/23 A3004 RMK AO2 
     T02300229=
METAR KMWA 080925Z AUTO 00000KT 10SM CLR 25/24 A3005 RMK AO2 
     T02450236=
SPECI KORH 080928Z AUTO 17005KT 1 1/4SM R11/3500VP6000FT BR OVC002 
    22/22 A3009 RMK AO2=
METAR KOSA 080924Z AUTO 08003KT 7SM CLR 25/24 A3004 RMK AO1 
     T02450240=
METAR KPEZ 080925Z AUTO 02005KT 10SM SCT009 OVC017 25/23 A2992 
     RMK AO2 T02520230=
METAR KPKV 080926Z AUTO 09006G10KT 5SM RA SCT016 BKN036 OVC060 
     24/22 A2986 RMK AO2 P0007 T02420223=
METAR KPPA 080925Z AUTO 01007KT 10SM -RA SCT050 SCT065 OVC110 
     17/16 A3018 RMK AO2=
METAR KPSN 080925Z AUTO 00000KT 7SM 24/24 A3001 RMK AO2 T02420235=
METAR KPYX 080930Z AUTO 01004KT 10SM SCT012 BKN050 OVC110 19/18 
     A3018 RMK AO2 P0003 T01860175=
####018000108####
SPUS90 KWBC 080930
SPECI KRFD 080927Z 18005KT 8SM BKN009 OVC080 22/21 A3001 RMK AO2
     CIG 004V012=
####018000051####
SAUS90 KWBC 080930
METAR K8S0 080825Z 26006KT=
####018001756####
SAEU KAWN 080900 RRX
METAR EDHL 080920Z 16007KT 120V190 CAVOK 27/15 Q1020 RMK K=
METAR EDLW 080920Z 22009KT CAVOK 28/09 Q1020 RMK ATIS M=
METAR EDNY 080920Z 19004KT CAVOK 24/14 Q1022 RMK ATIS M=
METAR EGAE 080920Z 23013KT 9999 FEW018 SCT040 16/10 Q1012=
METAR EGBJ 080920Z 25004KT 220V280 9999 FEW024 19/11 Q1018=
METAR COR EGLL 080920Z 31005KT 280V340 9999 FEW008 BKN010 18/14 Q1019
      BECMG SCT030=
METAR EGNC 080920Z 25012KT 220V280 9999 SCT025 SCT045 15/12 Q1015=
METAR EGNJ 080920Z 22010KT 9999 FEW015 18/12 Q1017=
METAR EGPA 080920Z 20016KT 9999 VCSH FEW027 BKN048 16/11 Q1006=
METAR EGPC 080920Z 20015KT 180V240 9999 FEW026 16/10 Q1007=
METAR EGPE 080920Z 22014KT 9999 FEW016 SCT032 15/10 Q1009=
METAR EGPL 080920Z 22020KT 9999 FEW018 15/11 Q1007=
METAR COR EGPM 080920Z 21022KT 9999 FEW014 SCT035 16/10 Q1005 NOSIG=
METAR EGPN 080920Z 23015KT 9999 FEW028 SCT045 15/12 Q1012=
METAR EGPO 080920Z 22024KT 9999 VCSH FEW014CB SCT030 14/11 Q1005=
METAR EGSC 080920Z 25006KT 190V280 9000 FEW020 BKN030 19/13 Q1019=
METAR COR EGSH 080920Z 25009KT 9999 -RA FEW010 BKN013 19/16 Q1018 BECMG
      SCT025=
METAR EHKD 080925Z AUTO 23011KT 9999NDV BKN059/// BKN085/// OVC092///
      19/15 Q1019 BLU BLU=
METAR EKVG 080920Z 16012KT 9999 -SHRA SCT004 BKN006 BKN010 11/10 Q0992
      RMK/RWY 13/31 CLOSED DUE WIP/ SEE NOTAM E0050/10 WIND 850FT
      15017G31KT 120V180=
METAR LEJR 080930Z 24003KT 120V290 CAVOK 27/19 Q1016=
METAR LGKP 080920Z 32020KT CAVOK 29/17 Q1009=
METAR LGMK 080920Z 02023G34KT 9999 SCT012 24/18 Q1012=
METAR LGSM 080920Z 34013KT CAVOK 30/14 Q1010=
METAR LOXT 080920Z VRB03KT 50KM FEW050CU 23/12 Q1023 NOSIG RMK FEW=
METAR LWOH 080930Z 03008KT 350V070 9999 SCT035 20/07 Q1019=
####018000425####
SAUK37 EGGY 080920
METAR EGAE 080920Z 23013KT 9999 FEW018 SCT040 16/10 Q1012=
METAR EGNC 080920Z 25012KT 220V280 9999 SCT025 SCT045 15/12 Q1015=
METAR EGNH 080920Z NIL=
METAR EGNJ 080920Z 22010KT 9999 FEW015 18/12 Q1017=
METAR EGNR 080920Z 24007KT 9999 FEW025 18/11 Q1017=
METAR EGPE 080920Z 22014KT 9999 FEW016 SCT032 15/10 Q1009=
METAR EGPI 080920Z NIL=
METAR EGPN 080920Z 23015KT 9999 FEW028 SCT045 15/12 Q1012=
####018000724####
SANL33 EHDB 080925
METAR EHAK 080925Z AUTO 25012KT 9999NDV FEW031/// 16/13 Q1016=
METAR EHDV 080925Z NIL=
METAR EHFD 080925Z AUTO 23015KT 9999NDV DZ BKN025/// BKN030///
BKN035/// 16/15 Q1018=
METAR EHFZ 080925Z AUTO 26011KT 9999NDV -DZ FEW025/// 17/15 Q1018
REDZDZ=
METAR EHJA 080925Z AUTO 24012KT 9999NDV FEW028/// BKN032/// BKN039///
16/15 Q1017=
METAR EHJR 080925Z NIL=
METAR EHKV 080925Z AUTO 26017KT 9999NDV 16/15 Q1018=
METAR EHMA 080925Z AUTO 22012KT 9999NDV 21/16 Q1019=
METAR EHMG 080925Z AUTO 25015KT 9999NDV BKN045/// 17/15 Q1018=
METAR EHPG 080925Z AUTO 25014KT 9999NDV ///////// 16/15 Q1019=
METAR EHQE 080925Z AUTO 24014KT 9999NDV 16/15 Q1018=
METAR EHSA 080925Z NIL=
METAR EHSC 080925Z NIL=
####018000387####
SAUK38 EGGY 080920
METAR EGEC 080920Z NIL=
METAR EGPA 080920Z 20016KT 9999 VCSH FEW027 BKN048 16/11 Q1006=
METAR EGPC 080920Z 20015KT 180V240 9999 FEW026 16/10 Q1007=
METAR EGPL 080920Z 22020KT 9999 FEW018 15/11 Q1007=
METAR COR EGPM 080920Z 21022KT 9999 FEW014 SCT035 16/10 Q1005 NOSIG=
METAR EGPO 080920Z 22024KT 9999 VCSH FEW014CB SCT030 14/11 Q1005=
METAR EGPU 080920Z NIL=
####018000089####
SAAJ31 UBBB 080930
METAR UBBB 080930Z 34022KT CAVOK 32/26 Q1011 NOSIG RMK
R88CLRD70=
####018003689####
SAUS99 KWBC 080930
METAR
KFOA 080925Z AUTO 00000KT 5SM BR CLR 25/25 A3004 RMK AO2
     T02500250=
KFWC 080925Z AUTO 00000KT 7SM CLR 23/22 A3004 RMK AO2=
KFWS 080925Z AUTO 00000KT 10SM CLR 25/24 A3000 RMK AO2
     T02480235=
KGBG 080925Z AUTO 26004KT 5SM BR OVC002 23/22 A3001 RMK AO2 LTG
     DSNT E=
KGDJ 080924Z AUTO 12004KT 10SM BKN029 26/24 A3001 RMK AO2
     T02570235=
KGLE 080925Z AUTO 00000KT 10SM SCT017 OVC060 26/23 A3003 RMK
     AO2=
KGNC 080925Z AUTO 05005KT 2 1/2SM +RA SCT009 BKN019 OVC028 20/19
     A3013 RMK AO2 P0049 T01970190=
KGVT 080925Z AUTO 12003KT 10SM SCT015 25/23 A3001 RMK AO2=
KGWB 080925Z AUTO 00000KT 5SM HZ CLR 22/17 A3006 RMK AO2=
KGYB 080925Z AUTO 06004KT 7SM OVC006 25/24 A2998 RMK AO2
     T02460240=
KHBV 080920Z AUTO 02007KT 7SM OVC005 25/24 A2986 RMK AO2
     T02500239=
KHSB 080925Z AUTO 00000KT 5SM BR CLR 22/21 A3004 RMK AO2=
KIKK 080925Z AUTO 00000KT 1 1/2SM +RA SCT017 SCT043 OVC055 26/23
     A3003 RMK AO2 LTG DSNT SE THRU SW P0006=
KOLY 080923Z AUTO 00000KT 5SM BR CLR 23/22 A3003 RMK AO2=
KOZA 080921Z AUTO 06003KT 10SM SCT036 BKN044 BKN050 22/21 A3005
     RMK AO2 T02220213=
KPNT 080925Z AUTO 00000KT 3SM BR SCT027 SCT036 OVC090 22/22 A3002
     RMK AO2 LTG DSNT E=
KPPQ 080926Z AUTO 00000KT 2 1/2SM RA SCT017 BKN026 OVC045 23/22
     A3005 RMK AO2 P0011=
KPRG 080925Z AUTO 00000KT 3SM BR CLR 21/21 A3004 RMK AO2
     T02170212=
KRPJ 080925Z AUTO 16006KT 4SM BR BKN011 BKN080 21/20 A3002 RMK AO2
     T02060196=
KRSV 080922Z AUTO 00000KT 7SM CLR 24/23 A3005 RMK AO2
     T02400228=
KSFY 080926Z AUTO 00000KT 4SM BR OVC011 23/22 A3001 RMK AO2=
K0F2 080924Z AUTO 00000KT 10SM SCT036 24/22 A3002 RMK AO2
     T02350218=
K11R 080925Z AUTO 06004KT 7SM CLR 25/23 A2994 RMK AO2=
K3LF 080923Z AUTO 00000KT 7SM CLR 23/22 A3003 RMK AO2=
K6R3 080921Z AUTO 00000KT 7SM SCT013 SCT017 BKN024 24/24 A2995 RMK
     AO2 T02440244=
KAPY 080923Z AUTO 36003KT 10SM OVC019 26/24 A2984 RMK AO2
     T02550243=
KAQO 080925Z AUTO 00000KT OVC050 25/23 A3001 RMK AO2=
KARM 080925Z AUTO 08006KT 10SM BKN045 BKN070 OVC090 26/25 A2989
     RMK AO2 LTG DSNT SE P0001 T02640247=
KASW 080925Z AUTO 00000KT 5SM BR CLR 21/20 A3005 RMK AO2
     T02100200=
KAXH 080925Z AUTO 07004KT 10SM CLR 26/24 A2989 RMK AO2 LTG DSNT S
     T02600240=
KBBD 080925Z AUTO 08003KT 10SM FEW011 22/21 A3001 RMK=
KBEA 080923Z AUTO 02005KT 10SM SCT012 SCT022 BKN070 25/25 A2986
     RMK AO2 P0001 T02460246=
KBKD 080921Z AUTO 00000KT 5SM BR CLR 24/23 A3001 RMK AO2
     T02350227=
KBKS 080926Z AUTO 01004KT 10SM CLR 26/25 A2981 RMK AO1
     T02630249=
KBPC 080928Z AUTO 01004KT 10SM -DZ SCT032 BKN039 BKN055 18/17
     A3016 RMK AO2=
KBPG 080925Z AUTO 31004KT 10SM CLR 21/20 A3009 RMK AO1
     T02120198=
KBYY 080926Z AUTO 10007KT 10SM SCT022 SCT046 OVC065 27/25 A2987
     RMK AO2 T02650248=
KC09 080924Z AUTO 00000KT 2SM -RA SCT032 SCT049 BKN060 21/21 A3002
     RMK AO2 LTG DSNT SE=
KCIR 080922Z AUTO 00000KT 10SM CLR 24/22 A3005 RMK AO2=
KCPT 080925Z AUTO 10006KT 10SM CLR 24/24 A3001 RMK AO2=
KCUL 080925Z AUTO 00000KT 7SM CLR 23/21 A3004 RMK AO2
     T02250206=
KCVB 080924Z AUTO 00000KT 10SM BKN017 BKN023 OVC032 25/23 A2995
     RMK AO2 T02540233=
KCWC 080925Z AUTO 08004KT 10SM CLR 24/22 A3003 RMK AO2
     T02360218=
KDKB 080921Z AUTO 16004KT 5SM BR OVC013 22/21 A3002 RMK AO2
     T02150210=
KDKR 080925Z AUTO 08005KT 7SM CLR 24/24 A3001 RMK AO2=
KDNV 080925Z AUTO 00000KT 7SM SCT110 22/21 A3001 RMK AO2
     T02220205=
KDUX 080927Z AUTO 31011KT 10SM -DZ SCT027 SCT034 BKN044 16/15
     A3021 RMK AO2 P0001 T01630152=
####018000970####
SPUS99 KWBC 080930
SPECI
KFRG 080927Z AUTO 16003KT 5SM BR SCT006 BKN016 BKN120 25/24 A3002
     RMK AO2 CIG 010V027=
KIMT 080927Z AUTO 02003KT 8SM BKN001 OVC006 20/19 A2998 RMK AO2
     CIG 001V005=
KMVL 080927Z AUTO 00000KT 1 1/2SM BR CLR 20/19 A3007 RMK AO2=
KPIA 080927Z 16005KT 3SM BR FEW004 SCT012 OVC030 23/22 A3001 RMK
     AO2=
KBED 080927Z AUTO 16006KT 5SM BR SCT019 BKN042 OVC070 24/22 A3005
     RMK AO2=
KCMX 080927Z AUTO 30005KT 10SM SCT010 BKN043 OVC070 19/18 A2998
     RMK AO2=
KAIA 080928Z AUTO 28003KT 10SM BKN026 BKN043 OVC095 15/14 A3029
     RMK AO2 $=
KBGR 080928Z 18005KT 1 1/2SM BR OVC003 20/19 A3007 RMK AO2=
KGON 080928Z AUTO 11009KT 10SM SCT004 OVC013 23/21 A3005 RMK
     AO2=
KIOW 080928Z AUTO 32004KT 10SM SCT007 SCT011 22/21 A3003 RMK
     AO2=
KIWI 080928Z AUTO 18005KT 6SM BR OVC001 19/19 A3010 RMK AO2=
KORH 080928Z AUTO 17005KT 1 1/4SM R11/3500VP6000FT BR OVC002 22/22
     A3009 RMK AO2=
####018000297####
SAPK31 OPKC 080930
METAR OPGD 080930Z NIL=
METAR OPKC 080930Z 09006KTS 8000 SCT020 SCT030 TCU 35/24 Q.1003
NE 30KTS TSRA FEW025 CB=
METAR OPLA 080925Z 10006KT 6000 SCT040 SCT100 37/23 Q1004=
METAR OPNH 080930Z NIL=
METAR OPPS 080930Z NIL=
METAR OPRN 080930Z NIL=
METAR OPSK 080930Z NIL=
####018000068####
SAAG SAZM 080900
METAR SAZM 080900Z  32005KT CAVOK 01/M01 Q1014=
####018000078####
SAUK34 EGGY 080920 RRA
METAR EGHE 080920Z 19005KT 9999 FEW018 18/13 Q1018=
####018000223####
SPXX60 KWBC 080930
SPECI
KDOV 080927Z AUTO 08003KT 3SM BR BKN007 24/ A2999 RMK AO2 SLP158
     $=
KWRI 080927Z AUTO 00000KT 1/4SM R18/0700V1800FT R24/0300FT FG
     VV001 23/23 A3000 RMK AO2 BKN V SCT SLP158 $=
####018000107####
SAXX60 KWBC 080930
METAR
KAPY 080923Z AUTO 36003KT 10SM OVC019 26/24 A2984 RMK AO2
     T02550243=
####018000943####
SPUS70 KWBC 080930
SPECI
KCEW 080926Z AUTO 00000KT 2SM BR CLR 21/21 A3003 RMK AO2 VIS
     3/4V5=
KFRG 080927Z AUTO 16003KT 5SM BR SCT006 BKN016 BKN120 25/24 A3002
     RMK AO2 CIG 010V027=
KIMT 080927Z AUTO 02003KT 8SM BKN001 OVC006 20/19 A2998 RMK AO2
     CIG 001V005=
KMVL 080927Z AUTO 00000KT 1 1/2SM BR CLR 20/19 A3007 RMK AO2=
KBED 080927Z AUTO 16006KT 5SM BR SCT019 BKN042 OVC070 24/22 A3005
     RMK AO2=
KCMX 080927Z AUTO 30005KT 10SM SCT010 BKN043 OVC070 19/18 A2998
     RMK AO2=
KNSE 080921Z AUTO 00000KT 2 1/2SM BR CLR 23/21 A3003 RMK AO2 $=
KAIA 080928Z AUTO 28003KT 10SM BKN026 BKN043 OVC095 15/14 A3029
     RMK AO2 $=
KBGR 080928Z 18005KT 1 1/2SM BR OVC003 20/19 A3007 RMK AO2=
KGON 080928Z AUTO 11009KT 10SM SCT004 OVC013 23/21 A3005 RMK
     AO2=
KIOW 080928Z AUTO 32004KT 10SM SCT007 SCT011 22/21 A3003 RMK
     AO2=
KIWI 080928Z AUTO 18005KT 6SM BR OVC001 19/19 A3010 RMK AO2=
####018003721####
SAUS70 KWBC 080930
METAR
KFOA 080925Z AUTO 00000KT 5SM BR CLR 25/25 A3004 RMK AO2
     T02500250=
KFWC 080925Z AUTO 00000KT 7SM CLR 23/22 A3004 RMK AO2=
KFWS 080925Z AUTO 00000KT 10SM CLR 25/24 A3000 RMK AO2
     T02480235=
KGBG 080925Z AUTO 26004KT 5SM BR OVC002 23/22 A3001 RMK AO2 LTG
     DSNT E=
KGDJ 080924Z AUTO 12004KT 10SM BKN029 26/24 A3001 RMK AO2
     T02570235=
KGLE 080925Z AUTO 00000KT 10SM SCT017 OVC060 26/23 A3003 RMK
     AO2=
KGNC 080925Z AUTO 05005KT 2 1/2SM +RA SCT009 BKN019 OVC028 20/19
     A3013 RMK AO2 P0049 T01970190=
KGVT 080925Z AUTO 12003KT 10SM SCT015 25/23 A3001 RMK AO2=
KGWB 080925Z AUTO 00000KT 5SM HZ CLR 22/17 A3006 RMK AO2=
KGYB 080925Z AUTO 06004KT 7SM OVC006 25/24 A2998 RMK AO2
     T02460240=
KHBV 080920Z AUTO 02007KT 7SM OVC005 25/24 A2986 RMK AO2
     T02500239=
KHSB 080925Z AUTO 00000KT 5SM BR CLR 22/21 A3004 RMK AO2=
KIKK 080925Z AUTO 00000KT 1 1/2SM +RA SCT017 SCT043 OVC055 26/23
     A3003 RMK AO2 LTG DSNT SE THRU SW P0006=
KOLY 080923Z AUTO 00000KT 5SM BR CLR 23/22 A3003 RMK AO2=
KOZA 080921Z AUTO 06003KT 10SM SCT036 BKN044 BKN050 22/21 A3005
     RMK AO2 T02220213=
KPNT 080925Z AUTO 00000KT 3SM BR SCT027 SCT036 OVC090 22/22 A3002
     RMK AO2 LTG DSNT E=
KPPQ 080926Z AUTO 00000KT 2 1/2SM RA SCT017 BKN026 OVC045 23/22
     A3005 RMK AO2 P0011=
KPRG 080925Z AUTO 00000KT 3SM BR CLR 21/21 A3004 RMK AO2
     T02170212=
KRPJ 080925Z AUTO 16006KT 4SM BR BKN011 BKN080 21/20 A3002 RMK AO2
     T02060196=
KRSV 080922Z AUTO 00000KT 7SM CLR 24/23 A3005 RMK AO2
     T02400228=
K0F2 080924Z AUTO 00000KT 10SM SCT036 24/22 A3002 RMK AO2
     T02350218=
K11R 080925Z AUTO 06004KT 7SM CLR 25/23 A2994 RMK AO2=
K3LF 080923Z AUTO 00000KT 7SM CLR 23/22 A3003 RMK AO2=
K6R3 080921Z AUTO 00000KT 7SM SCT013 SCT017 BKN024 24/24 A2995 RMK
     AO2 T02440244=
KAQO 080925Z AUTO 00000KT OVC050 25/23 A3001 RMK AO2=
KARM 080925Z AUTO 08006KT 10SM BKN045 BKN070 OVC090 26/25 A2989
     RMK AO2 LTG DSNT SE P0001 T02640247=
KASW 080925Z AUTO 00000KT 5SM BR CLR 21/20 A3005 RMK AO2
     T02100200=
KAXH 080925Z AUTO 07004KT 10SM CLR 26/24 A2989 RMK AO2 LTG DSNT S
     T02600240=
KBBD 080925Z AUTO 08003KT 10SM FEW011 22/21 A3001 RMK=
KBEA 080923Z AUTO 02005KT 10SM SCT012 SCT022 BKN070 25/25 A2986
     RMK AO2 P0001 T02460246=
KBKD 080921Z AUTO 00000KT 5SM BR CLR 24/23 A3001 RMK AO2
     T02350227=
KBKS 080926Z AUTO 01004KT 10SM CLR 26/25 A2981 RMK AO1
     T02630249=
KBPC 080928Z AUTO 01004KT 10SM -DZ SCT032 BKN039 BKN055 18/17
     A3016 RMK AO2=
KBPG 080925Z AUTO 31004KT 10SM CLR 21/20 A3009 RMK AO1
     T02120198=
KBYY 080926Z AUTO 10007KT 10SM SCT022 SCT046 OVC065 27/25 A2987
     RMK AO2 T02650248=
KC09 080924Z AUTO 00000KT 2SM -RA SCT032 SCT049 BKN060 21/21 A3002
     RMK AO2 LTG DSNT SE=
KCPT 080925Z AUTO 10006KT 10SM CLR 24/24 A3001 RMK AO2=
KCVB 080924Z AUTO 00000KT 10SM BKN017 BKN023 OVC032 25/23 A2995
     RMK AO2 T02540233=
KCWC 080925Z AUTO 08004KT 10SM CLR 24/22 A3003 RMK AO2
     T02360218=
KDKB 080921Z AUTO 16004KT 5SM BR OVC013 22/21 A3002 RMK AO2
     T02150210=
KDKR 080925Z AUTO 08005KT 7SM CLR 24/24 A3001 RMK AO2=
KDNV 080925Z AUTO 00000KT 7SM SCT110 22/21 A3001 RMK AO2
     T02220205=
KDUX 080927Z AUTO 31011KT 10SM -DZ SCT027 SCT034 BKN044 16/15
     A3021 RMK AO2 P0001 T01630152=
KDZB 080925Z AUTO 00000KT 5SM BR SCT012 BKN023 OVC080 24/24 A2997
     RMK AO2 T02380239=
KE38 080925Z AUTO 00000KT 10SM SCT100 19/16 A3019 RMK AO2
     T01850157=
KECU 080925Z AUTO 00000KT 10SM CLR 21/21 A3007 RMK AO2=
KENL 080924Z AUTO 18003KT 10SM CLR 24/16 A3004 RMK AO2
     T02400160=
####018002815####
SAUS70 KWBC 080930 RRA
METAR
KERV 080925Z AUTO 10005KT 10SM SCT012 SCT034 OVC040 23/21 A2999
     RMK AO2 T02330213=
KF05 080924Z AUTO 03003KT 10SM OVC034 24/22 A3005 RMK AO2
     T02400222=
KFEP 080925Z AUTO 29004KT 5SM BR OVC003 23/21 A3002 RMK AO2
     T02340214=
KOSC 080914Z AUTO 00000KT 7SM CLR 19/18 A3000 RMK AO2=
KRAS 080925Z AUTO 09009KT 7SM FEW020 SCT075 28/26 A2985 RMK
     AO2=
KRBO 080925Z AUTO 01008KT 10SM RA SCT007 BKN010 BKN016 26/25 A2984
     RMK AO2 T02610252=
KRPH 080925Z AUTO 00000KT 10SM CLR 22/21 A3001 RMK AO2
     T02220210=
KRWV 080920Z AUTO 00000KT 8SM SCT006 BKN023 OVC033 24/24 A2998 RMK
     AO2=
KC75 080925Z AUTO 14003KT 5SM BR BKN014 BKN019 BKN039 24/24 A3001
     RMK AO2=
KEBG 080926Z AUTO 00000KT 10SM SCT080 BKN110 27/25 A2980 RMK AO2
     LTG DSNT NE T02650250=
KGOP 080920Z AUTO 00000KT 10SM BKN013 25/23 A3000 RMK AO2=
KGYI 080924Z AUTO 15005KT 10SM SCT025 SCT085 25/24 A3002 RMK AO2
     T02520235=
KHHF 080925Z AUTO 34005KT 10SM OVC016 22/20 A3013 RMK AO2
     T02160199=
KHRX 080925Z AUTO 00000KT 10SM SCT065 BKN075 OVC110 18/17 A3018
     RMK AO2 T01750167=
KIJX 080925Z AUTO 00000KT 2SM +RA SCT006 BKN019 OVC030 24/23 A3003
     RMK AO2 LTG DSNT NE P0003 T02350226=
KINJ 080925Z AUTO 11004KT 10SM CLR 25/23 A2999 RMK AO2
     T02460226=
KJAS 080926Z AUTO 07003KT 10SM CLR 25/24 A3001 RMK AO2
     T02470237=
KJDD 080925Z AUTO 00000KT 4SM BR CLR 24/24 A3002 RMK AO2=
KJSO 080930Z AUTO 00000KT 2SM BR OVC001 24/24 A3003 RMK AO2
     T02350235=
KJWY 080925Z AUTO 11003KT 10SM 24/23 A3000 RMK AO2 T02420225=
KJXI 080925Z AUTO 00000KT OVC003 25/25 A3004 RMK AO2=
KLBR 080925Z AUTO 00000KT 7SM BKN004 BKN010 BKN017 24/23 A3003 RMK
     AO2 T02400230=
KLHB 080924Z AUTO 08003KT 7SM CLR 25/23 A2997 RMK AO2
     T02510233=
KLNC 080925Z AUTO 00000KT 10SM BKN014 BKN019 24/24 A3000 RMK AO2
     T02420241=
KLUD 080925Z AUTO 15005KT 10SM CLR 25/22 A3001 RMK AO2
     T02460221=
KM30 080926Z AUTO 00000KT 7SM CLR 22/21 A3005 RMK AO2=
KMDD 080920Z AUTO 03005KT 10SM CLR 22/21 A3008 RMK AO2
     T02200205=
KMNZ 080930Z AUTO 13006KT 10SM CLR 24/24 A3000 RMK AO2
     T02430238=
KMQB 080925Z AUTO 24005KT 7SM OVC004 23/23 A3004 RMK AO2
     T02300229=
KMWA 080925Z AUTO 00000KT 10SM CLR 25/24 A3005 RMK AO2
     T02450236=
KOSA 080924Z AUTO 08003KT 7SM CLR 25/24 A3004 RMK AO1
     T02450240=
KPEZ 080925Z AUTO 02005KT 10SM SCT009 OVC017 25/23 A2992 RMK AO2
     T02520230=
KPKV 080926Z AUTO 09006G10KT 5SM RA SCT016 BKN036 OVC060 24/22
     A2986 RMK AO2 P0007 T02420223=
KPPA 080925Z AUTO 01007KT 10SM -RA SCT050 SCT065 OVC110 17/16
     A3018 RMK AO2=
KPYX 080930Z AUTO 01004KT 10SM SCT012 BKN050 OVC110 19/18 A3018
     RMK AO2 P0003 T01860175=
####018003336####
SAUS99 KWBC 080930 RRA
METAR
KDZB 080925Z AUTO 00000KT 5SM BR SCT012 BKN023 OVC080 24/24 A2997
     RMK AO2 T02380239=
KE38 080925Z AUTO 00000KT 10SM SCT100 19/16 A3019 RMK AO2
     T01850157=
KECU 080925Z AUTO 00000KT 10SM CLR 21/21 A3007 RMK AO2=
KENL 080924Z AUTO 18003KT 10SM CLR 24/16 A3004 RMK AO2
     T02400160=
KERV 080925Z AUTO 10005KT 10SM SCT012 SCT034 OVC040 23/21 A2999
     RMK AO2 T02330213=
KF05 080924Z AUTO 03003KT 10SM OVC034 24/22 A3005 RMK AO2
     T02400222=
KFEP 080925Z AUTO 29004KT 5SM BR OVC003 23/21 A3002 RMK AO2
     T02340214=
KRAS 080925Z AUTO 09009KT 7SM FEW020 SCT075 28/26 A2985 RMK
     AO2=
KRBO 080925Z AUTO 01008KT 10SM RA SCT007 BKN010 BKN016 26/25 A2984
     RMK AO2 T02610252=
KRFI 080925Z AUTO 00000KT 7SM CLR 24/23 A3001 RMK AO2
     T02400230=
KRPH 080925Z AUTO 00000KT 10SM CLR 22/21 A3001 RMK AO2
     T02220210=
KRWV 080920Z AUTO 00000KT 8SM SCT006 BKN023 OVC033 24/24 A2998 RMK
     AO2=
KSEP 080925Z AUTO 00000KT 10SM BKN013 BKN022 BKN060 23/21 A3002
     RMK AO1=
KC75 080925Z AUTO 14003KT 5SM BR BKN014 BKN019 BKN039 24/24 A3001
     RMK AO2=
KEBG 080926Z AUTO 00000KT 10SM SCT080 BKN110 27/25 A2980 RMK AO2
     LTG DSNT NE T02650250=
KGOP 080920Z AUTO 00000KT 10SM BKN013 25/23 A3000 RMK AO2=
KGYI 080924Z AUTO 15005KT 10SM SCT025 SCT085 25/24 A3002 RMK AO2
     T02520235=
KHHF 080925Z AUTO 34005KT 10SM OVC016 22/20 A3013 RMK AO2
     T02160199=
KHRX 080925Z AUTO 00000KT 10SM SCT065 BKN075 OVC110 18/17 A3018
     RMK AO2 T01750167=
KIJX 080925Z AUTO 00000KT 2SM +RA SCT006 BKN019 OVC030 24/23 A3003
     RMK AO2 LTG DSNT NE P0003 T02350226=
KINJ 080925Z AUTO 11004KT 10SM CLR 25/23 A2999 RMK AO2
     T02460226=
KJAS 080926Z AUTO 07003KT 10SM CLR 25/24 A3001 RMK AO2
     T02470237=
KJDD 080925Z AUTO 00000KT 4SM BR CLR 24/24 A3002 RMK AO2=
KJSO 080930Z AUTO 00000KT 2SM BR OVC001 24/24 A3003 RMK AO2
     T02350235=
KJWY 080925Z AUTO 11003KT 10SM 24/23 A3000 RMK AO2 T02420225=
KJXI 080925Z AUTO 00000KT OVC003 25/25 A3004 RMK AO2=
KLBR 080925Z AUTO 00000KT 7SM BKN004 BKN010 BKN017 24/23 A3003 RMK
     AO2 T02400230=
KLHB 080924Z AUTO 08003KT 7SM CLR 25/23 A2997 RMK AO2
     T02510233=
KLNC 080925Z AUTO 00000KT 10SM BKN014 BKN019 24/24 A3000 RMK AO2
     T02420241=
KLUD 080925Z AUTO 15005KT 10SM CLR 25/22 A3001 RMK AO2
     T02460221=
KM30 080926Z AUTO 00000KT 7SM CLR 22/21 A3005 RMK AO2=
KMDD 080920Z AUTO 03005KT 10SM CLR 22/21 A3008 RMK AO2
     T02200205=
KMKN 080920Z AUTO 00000KT 10SM 24/23 A3002 RMK AO2=
KMNZ 080930Z AUTO 13006KT 10SM CLR 24/24 A3000 RMK AO2
     T02430238=
KMQB 080925Z AUTO 24005KT 7SM OVC004 23/23 A3004 RMK AO2
     T02300229=
KMWA 080925Z AUTO 00000KT 10SM CLR 25/24 A3005 RMK AO2
     T02450236=
KOSA 080924Z AUTO 08003KT 7SM CLR 25/24 A3004 RMK AO1
     T02450240=
KPEZ 080925Z AUTO 02005KT 10SM SCT009 OVC017 25/23 A2992 RMK AO2
     T02520230=
KPKV 080926Z AUTO 09006G10KT 5SM RA SCT016 BKN036 OVC060 24/22
     A2986 RMK AO2 P0007 T02420223=
KPPA 080925Z AUTO 01007KT 10SM -RA SCT050 SCT065 OVC110 17/16
     A3018 RMK AO2=
KPSN 080925Z AUTO 00000KT 7SM 24/24 A3001 RMK AO2 T02420235=
KPYX 080930Z AUTO 01004KT 10SM SCT012 BKN050 OVC110 19/18 A3018
     RMK AO2 P0003 T01860175=
####018000497####
SAUS80 KWBC 080930
METAR
KSFY 080926Z AUTO 00000KT 4SM BR OVC011 23/22 A3001 RMK AO2=
KCIR 080922Z AUTO 00000KT 10SM CLR 24/22 A3005 RMK AO2=
KCUL 080925Z AUTO 00000KT 7SM CLR 23/21 A3004 RMK AO2
     T02250206=
KRFI 080925Z AUTO 00000KT 7SM CLR 24/23 A3001 RMK AO2
     T02400230=
KSEP 080925Z AUTO 00000KT 10SM BKN013 BKN022 BKN060 23/21 A3002
     RMK AO1=
KMKN 080920Z AUTO 00000KT 10SM 24/23 A3002 RMK AO2=
KPSN 080925Z AUTO 00000KT 7SM 24/24 A3001 RMK AO2 T02420235=
####018000280####
SPUS80 KWBC 080930
SPECI
KPIA 080927Z 16005KT 3SM BR FEW004 SCT012 OVC030 23/22 A3001 RMK
     AO2=
KRFD 080927Z 18005KT 8SM BKN009 OVC080 22/21 A3001 RMK AO2 CIG
     004V012=
KORH 080928Z AUTO 17005KT 1 1/4SM R11/3500VP6000FT BR OVC002 22/22
     A3009 RMK AO2=
####018000125####
SAAW34 KWBC 080915 RRA
METAR
OPKC 080930Z 09006KTS 8000 SCT020 SCT030 TCU 35/24 Q.1003 NE 30KTS
     TSRA FEW025 CB=
####018000128####
SPDN31 KWBC 080930
SPECI
EKKA 080924Z 22007KT 190V250 6000 -SHRA FEW018TCU BKN045 17/16
Q1018 TEMPO 4000 SHRA SCT020CB=
####018000096####
SAUZ31 UTTT 080930
METAR UTTT 080930Z 30003MPS 260V360 CAVOK 39/08 Q1010
R08R/CLRD70 NOSIG=
####018000086####
SADL32 KWBC 080920 RRA
METAR
EDLW 080920Z 22009KT CAVOK 28/09 Q1020 RMK ATIS M=
####018000089####
SADL31 KWBC 080920 RRA
METAR
EDHL 080920Z 16007KT 120V190 CAVOK 27/15 Q1020 RMK K=
####018000355####
SADN31 KWBC 080920 RRA
METAR
EKVG 080920Z 16012KT 9999 -SHRA SCT004 BKN006 BKN010 11/10 Q0992
     RMK/RWY 13/31 CLOSED DUE WIP/ SEE NOTAM E0050/10 WIND 850FT
     15017G31KT 120V180=
EKVG 080920Z 16012KT 9999 -SHRA SCT004 BKN006 BKN010 11/10 Q0992
     RMK/RWY 13/31 CLOSED DUE WIP. SEE NOTAM E0050/10 WIND 850FT
     15017G31KT 120V180=
####018000086####
SADL33 KWBC 080915 RRC
METAR
EDNY 080920Z 19004KT CAVOK 24/14 Q1022 RMK ATIS M=
####018000114####
SPIO31 KWBC 080930
SPECI
WBSB 080915Z 24003KT 9999 TS FEW015 FEW016CB BKN140 29/25 Q1007
TEMPO 6000 TSRA=
####018000285####
SAGR41 KWBC 080920 RRA
METAR
LGKP 080920Z 32020KT CAVOK 29/17 Q1009=
LGKZ 080920Z NIL=
LGMK 080920Z 02023G34KT 9999 SCT012 24/18 Q1012=
LGPZ 080920Z 26016KT 9999 FEW025 29/19 Q1013 NOSIG=
LGRX 080920Z NIL=
LGSK 080920Z NIL=
LGZA 080920Z 32015G25KT CAVOK 30/09 Q1013=
####018000809####
SAGR31 KWBC 080920 RRA
METAR
LGAD 080920Z 33011KT 9999 FEW020 28/17 Q1013=
LGAL 080920Z NIL=
LGAV 080920Z 36014KT 9999 FEW020 BKN030 26/14 Q1013 NOSIG=
LGEL 080920Z 35010G20KT 9999 FEW025 26/13 Q1012=
LGIR 080920Z 01006KT CAVOK 29/21 Q1011 NOSIG=
LGKF 080920Z NIL=
LGKL 080920Z 33004KT 9999 FEW030 32/16 Q1011=
LGKO 080920Z 30018KT CAVOK 28/18 Q1010=
LGKR 080920Z 31014KT CAVOK 28/12 Q1013 NOSIG=
LGKV 080920Z 11007KT 9999 SCT020TCU 20/15 Q1013=
LGLM 080920Z NIL=
LGMT 080920Z 35010G20KT 9999 FEW020 SCT025 BKN080 24/16 Q1011=
LGRP 080920Z 24016KT CAVOK 30/19 Q1008 NOSIG=
LGSA 080920Z 32008KT CAVOK 32/15 Q1011=
LGSM 080920Z 34013KT CAVOK 30/14 Q1010=
LGSM 080920Z NIL=
LGSR 080920Z 35018KT CAVOK 29/19 Q1010 NOSIG=
LGTS 080920Z 32022KT 9999 FEW025 23/12 Q1016 NOSIG=
####018000372####
SANL31 KWBC 080920 RRB
METAR
EHAM 080925Z 26009KT 210V320 CAVOK 24/16 Q1019 NOSIG=
EHBK 080925Z AUTO VRB06KT 9999NDV NCD 28/11 Q1019 NOSIG=
EHGG 080925Z AUTO 23011KT 190V270 9999NDV NSC 26/12 Q1018
     NOSIG=
EHKD 080925Z AUTO 23011KT 9999NDV BKN059/// BKN085/// OVC092///
     19/15 Q1019 BLU BLU=
EHRD 080925Z 28007KT 240V330 CAVOK 25/14 Q1019 NOSIG=
####018000104####
SPCN44 CWAO 080928 CCA
SPECI CYLT 080928Z CCA 16019KT 25SM FEW080 FEW240 RMK AC1CI0 FIRST
OBS=

####018000121####
SAMX41 KWBC 080945
METAR
MMMM 080920Z RTD 00000KT 4SM BKN020 OVC070 17/16 A3008 RMK SLP041
     57007 917 8/45/=
####018000081####
SAUK31 KWBC 080920 RRA
METAR
EGNJ 080920Z 22010KT 9999 FEW015 18/12 Q1017=
####018000228####
SAUK32 KWBC 080920 RRB
METAR
EGPA 080920Z 20016KT 9999 VCSH FEW027 BKN048 16/11 Q1006=
EGPC 080920Z 20015KT 180V240 9999 FEW026 16/10 Q1007=
EGSH 080920Z 25009KT 9999 -RA FEW010 BKN013 19/16 Q1018 BECMG
     SCT025=
####018000116####
SAUK31 KWBC 080920 CCB
METAR
EGLL 080920Z 31005KT 280V340 9999 FEW008 BKN010 18/14 Q1019 BECMG
     SCT030=
####018000247####
SAUK41 KWBC 080920 RRA
METAR
EGAE 080920Z 23013KT 9999 FEW018 SCT040 16/10 Q1012=
EGBE 080920Z NIL=
EGBJ 080920Z 25004KT 220V280 9999 FEW024 19/11 Q1018=
EGDL 080920Z NIL=
EGNC 080920Z 25012KT 220V280 9999 SCT025 SCT045 15/12 Q1015=
####018000433####
SAUK42 KWBC 080920 RRA
METAR
EGPC 080920Z 20015KT 180V240 9999 FEW026 16/10 Q1007=
EGPE 080920Z 22014KT 9999 FEW016 SCT032 15/10 Q1009=
EGPL 080920Z 22020KT 9999 FEW018 15/11 Q1007=
EGPM 080920Z 21022KT 9999 FEW014 SCT035 16/10 Q1005 NOSIG=
EGPN 080920Z 23015KT 9999 FEW028 SCT045 15/12 Q1012=
EGPO 080920Z 22024KT 9999 VCSH FEW014CB SCT030 14/11 Q1005=
EGSC 080920Z 25006KT 190V280 9000 FEW020 BKN030 19/13 Q1019=
####018000082####
SPUS41 KWBC 080930
SPECI
KDOV 080927Z AUTO 08003KT 3SM BR BKN007 24/ A2999=
####018000327####
SAXX99 KWBC 080900 RRT
METAR
EGCN 080920Z 23012KT CAVOK 18/11 Q1018=
EGVN 080920Z NIL=
EGWU 080920Z NIL=
ESGT 080920Z 22010KT 9999 BKN035 20/13 Q1018=
LGHI 080920Z NIL=
LGKC 080920Z NIL=
LGNX 080920Z NIL=
LGPA 080920Z NIL=
LGSO 080920Z NIL=
LOXT 080920Z VRB03KT 50KM FEW050CU 23/12 Q1023 NOSIG RMK FEW=
####018000057####
SAXX99 KWBC 080800 RRX
METAR
K8S0 080825Z 26006KT=
####018000114####
SPUS41 KWBC 080930
SPECI
KWRI 080927Z AUTO 00000KT 1/4SM R18/0700V1800FT R24/0300FT FG
VV001 23/23 A3000=
####018000418####
SAUK36 EGGY 080920
METAR EGBE 080920Z NIL=
METAR EGBJ 080920Z 25004KT 220V280 9999 FEW024 19/11 Q1018=
METAR EGCN 080920Z 23012KT CAVOK 18/11 Q1018=
METAR EGDL 080920Z NIL=
METAR EGSC 080920Z 25006KT 190V280 9000 FEW020 BKN030 19/13 Q1019=
METAR EGSD 080920Z NIL=
METAR COR EGSH 080920Z 25009KT 9999 -RA FEW010 BKN013 19/16 Q1018
    BECMG SCT025=
METAR EGVN 080920Z NIL=
METAR EGWU 080920Z NIL=
####018000305####
SAPK31 OPKC 080930
METAR OPGD 080930Z NIL=
METAR OPKC 080930Z 09006KTS 8000 SCT020 SCT030 TCU 35/24 Q.1003
NE 30KTS TSRA FEW025 CB=
METAR OPLA 080925Z 10006KT 6000 SCT040 SCT100 37/23 Q1004=
METAR OPNH 080930Z NIL=
METAR OPPS 080930Z NIL=
METAR OPRN 080930Z NIL=
METAR OPSK 080930Z NIL=
####018000098####
SAUZ31 UTTT 080930
METAR UTTT 080930Z 30003MPS 260V360 CAVOK 39/08 Q1010
R08R/CLRD70 NOSIG=
####018000433####
SAUK37 EGGY 080920
METAR EGAE 080920Z 23013KT 9999 FEW018 SCT040 16/10 Q1012=
METAR EGNC 080920Z 25012KT 220V280 9999 SCT025 SCT045 15/12 Q1015=
METAR EGNH 080920Z NIL=
METAR EGNJ 080920Z 22010KT 9999 FEW015 18/12 Q1017=
METAR EGNR 080920Z 24007KT 9999 FEW025 18/11 Q1017=
METAR EGPE 080920Z 22014KT 9999 FEW016 SCT032 15/10 Q1009=
METAR EGPI 080920Z NIL=
METAR EGPN 080920Z 23015KT 9999 FEW028 SCT045 15/12 Q1012=
####018000091####
SAAJ31 UBBB 080930
METAR UBBB 080930Z 34022KT CAVOK 32/26 Q1011 NOSIG RMK
R88CLRD70=
####018000394####
SAUK38 EGGY 080920
METAR EGEC 080920Z NIL=
METAR EGPA 080920Z 20016KT 9999 VCSH FEW027 BKN048 16/11 Q1006=
METAR EGPC 080920Z 20015KT 180V240 9999 FEW026 16/10 Q1007=
METAR EGPL 080920Z 22020KT 9999 FEW018 15/11 Q1007=
METAR COR EGPM 080920Z 21022KT 9999 FEW014 SCT035 16/10 Q1005 NOSIG=
METAR EGPO 080920Z 22024KT 9999 VCSH FEW014CB SCT030 14/11 Q1005=
METAR EGPU 080920Z NIL=
####018000740####
SANL33 EHDB 080925
METAR EHAK 080925Z AUTO 25012KT 9999NDV FEW031/// 16/13 Q1016=
METAR EHDV 080925Z NIL=
METAR EHFD 080925Z AUTO 23015KT 9999NDV DZ BKN025/// BKN030///
BKN035/// 16/15 Q1018=
METAR EHFZ 080925Z AUTO 26011KT 9999NDV -DZ FEW025/// 17/15 Q1018
REDZDZ=
METAR EHJA 080925Z AUTO 24012KT 9999NDV FEW028/// BKN032/// BKN039///
16/15 Q1017=
METAR EHJR 080925Z NIL=
METAR EHKV 080925Z AUTO 26017KT 9999NDV 16/15 Q1018=
METAR EHMA 080925Z AUTO 22012KT 9999NDV 21/16 Q1019=
METAR EHMG 080925Z AUTO 25015KT 9999NDV BKN045/// 17/15 Q1018=
METAR EHPG 080925Z AUTO 25014KT 9999NDV ///////// 16/15 Q1019=
METAR EHQE 080925Z AUTO 24014KT 9999NDV 16/15 Q1018=
METAR EHSA 080925Z NIL=
METAR EHSC 080925Z NIL=
####018000072####
SALY31 HLLS 080930
METAR HLLS 080920Z 
O9O15KT  CAVOK 34/1O Q1O17=
####018000289####
SAUS43 KWBC 080900 RRF
METAR
K1H2 080925Z AUTO 00000KT 7SM CLR 24/23 A3004=
KAAA 080923Z AUTO 00000KT 2SM BR BKN039 BKN055 OVC090 23/22
     A3003=
KJOT 080926Z AUTO 00000KT 4SM BR SCT043 23/22 A3002=
KLOT 080921Z AUTO 00000KT 4SM BR SCT060 SCT075 BKN100 22/22
     A3002=
