####018000367####
SANL31 KWBC 080820 RRB
METAR
EHAM 080825Z 25009KT 210V290 CAVOK 23/15 Q1019 NOSIG=
EHBK 080825Z AUTO 21007KT 170V250 9999NDV NCD 26/12 Q1019
     NOSIG=
EHGG 080825Z AUTO 24008KT 200V280 9999NDV NSC 25/13 Q1018
     NOSIG=
EHKD 080825Z AUTO 24010KT 9999NDV OVC057/// 20/16 Q1018 BLU
     BLU=
EHRD 080825Z 28006KT 240V320 CAVOK 23/15 Q1019 NOSIG=
####018000211####
SAUK32 KWBC 080820 RRB
METAR
EGPA 080820Z 19013KT 9999 FEW030 SCT044 15/11 Q1006=
EGPC 080820Z 19014G24KT 9999 FEW024 SCT041 14/11 Q1007=
EGSH 080820Z 24007KT 9999 -RA FEW011 BKN029 20/16 Q1018 NOSIG=
####018000112####
SAUK31 KWBC 080820 CCB
METAR
EGLL 080820Z 30007KT 5000 -RA SCT008 BKN012 17/15 Q1019 BECMG
     SCT040=
####018000133####
SAUK31 KWBC 080820 RRA
METAR
EGNH 080820Z 23011KT 9999 FEW019 17/10 Q1016=
EGNJ 080820Z 23012KT 9999 -RA SCT025 17/12 Q1017=
####018000452####
SAUK42 KWBC 080820 RRA
METAR
EGPC 080820Z 19014G24KT 9999 FEW024 SCT041 14/11 Q1007=
EGPE 080820Z 21015KT 9999 FEW022 SCT048 15/09 Q1008=
EGPL 080820Z 22020KT 9999 FEW018 15/11 Q1006=
EGPM 080820Z 21020G30KT 9999 FEW012 SCT030 15/10 Q1004=
EGPN 080820Z 24019KT 9999 FEW022 SCT048 15/12 Q1011=
EGPO 080820Z 22020KT 9999 VCSH FEW014CB SCT030 13/10 Q1004=
EGPU 080820Z NIL=
EGSC 080820Z 27007KT 240V300 8000 FEW012 BKN018 17/13 Q1018=
####018000279####
SAUK41 KWBC 080820 RRB
METAR
EGAE 080820Z 22013KT 9999 FEW018 SCT045 15/10 Q1012=
EGBE 080820Z NIL=
EGBJ 080820Z 20003KT 9999 FEW024 17/12 Q1018=
EGDL 080820Z NIL=
EGHE 080820Z 20005KT 9999 FEW018 18/13 Q1019=
EGNC 080820Z 23011KT 9999 SCT030 SCT045 16/11 Q1014=
####018000057####
SAXX99 KWBC 080700 RRX
METAR
K8S0 080725Z 26006KT=
####018000338####
SAXX99 KWBC 080800 RRV
METAR
EGCN 080820Z 23009KT 9999 FEW044 17/11 Q1017=
EGEC 080820Z NIL=
EGNR 080820Z 20006KT 150V240 9999 FEW030 17/12 Q1017=
EGPI 080820Z NIL=
EGVN 080820Z NIL=
EGWU 080820Z NIL=
ETHN 080820Z 16006KT 9999 FEW060 23/08 Q1022 BLU+BLU+=
ETNW 080820Z 20005KT 9999 FEW150 SCT200 26/11 Q1020 BLU+BLU+=
####018001253####
SAUS43 KWBC 080800 RRG
METAR
K1H2 080825Z AUTO 00000KT 7SM CLR 25/24 A3003=
KAAA 080823Z AUTO 00000KT 2 1/2SM -TSRA SCT007 BKN022 OVC049 23/22
     A3003=
KC09 080824Z AUTO 00000KT 3SM -DZ SCT065 BKN080 OVC110 21/21
     A3003=
KDKB 080821Z AUTO 00000KT 4SM BR BKN065 BKN090 BKN120 22/21
     A3002=
KDNV 080825Z AUTO 00000KT 7SM SCT060 BKN075 BKN100 22/20 A3001=
KENL 080824Z AUTO 19004KT 10SM CLR 24/16 A3004=
KFEP 080825Z AUTO 15003KT 7SM SCT065 BKN085 23/21 A3000=
KFOA 080825Z AUTO 00000KT 7SM CLR 26/25 A3003=
KFWC 080825Z AUTO 00000KT 7SM CLR 23/22 A3004=
KGBG 080825Z AUTO 19005KT 5SM BR OVC002 23/22 A3001=
KHSB 080825Z AUTO 00000KT 5SM BR CLR 22/21 A3004=
KIJX 080825Z AUTO 00000KT 4SM BR BKN028 BKN034 OVC050 24/23
     A3004=
KIKK 080825Z AUTO 06004KT 2SM -RA SCT024 BKN075 OVC095 26/23
     A3003=
KJOT 080826Z AUTO 00000KT 2 1/2SM -DZ SCT090 23/22 A3003=
KLOT 080821Z AUTO 00000KT 7SM DZ SCT033 SCT048 BKN090 23/22
     A3003=
KOLY 080823Z AUTO 00000KT 5SM BR CLR 24/23 A3003=
KPNT 080825Z AUTO 00000KT 3SM BR SCT030 BKN034 OVC060 23/22
     A3003=
KPPQ 080825Z AUTO 00000KT 4SM BR BKN035 OVC049 23/23 A3005=
KPRG 080825Z AUTO 00000KT 5SM BR SCT060 SCT080 OVC085 22/22
     A3004=
####018000157####
SAUS44 KWBC 080800 RRE
METAR
KBPG 080825Z AUTO 00000KT 10SM CLR 21/20 A3009=
KBYY 080826Z AUTO 07007KT 10SM SCT024 SCT037 BKN050 27/26
     A2988=
####018000096####
SPUS53 KWBC 080830
SPECI
KUIN 080827Z AUTO 00000KT 10SM FEW001 BKN048 BKN060 23/22 A3003=
####018000098####
SAUZ31 UTTT 080830
METAR UTTT 080830Z 26003MPS 210V330 CAVOK 37/08 Q1011
R26L/CLRD70 NOSIG=
####018000763####
SANL33 EHDB 080825
METAR EHAK 080825Z AUTO 24015KT 9999NDV SCT029/// BKN035/// 16/15
Q1016=
METAR EHDV 080825Z NIL=
METAR EHFD 080825Z AUTO 23013KT 9999NDV BKN023/// BKN026/// OVC030///
16/15 Q1018=
METAR EHFZ 080825Z AUTO 22013KT 9999NDV 17/15 Q1017=
METAR EHJA 080825Z AUTO 25016KT 9999NDV DZ FEW026/// BKN030///
OVC034/// 16/15 Q1017=
METAR EHJR 080825Z NIL=
METAR EHKV 080825Z AUTO 24015KT 9999NDV BKN033/// BKN038/// 16/15
Q1018=
METAR EHMA 080825Z AUTO 22010KT 9999NDV 21/16 Q1018=
METAR EHMG 080825Z AUTO 24015KT 9999NDV FEW037/// SCT041/// 17/15
Q1017=
METAR EHPG 080825Z AUTO 24015KT 9999NDV ///////// 16/15 Q1018=
METAR EHQE 080825Z AUTO 23014KT 9999NDV 16/15 Q1018=
METAR EHSA 080825Z NIL=
METAR EHSC 080825Z NIL=
####018000267####
SAPK31 OPKC 080830
METAR OPGD 080830Z NIL=
METAR OPKC 080830Z 10018KTS 9000 BKN030 35/24 Q.1003 NOSIG=
METAR OPLA 080825Z 10004KT 6000 SCT040 38/23 Q1005=
METAR OPNH 080830Z NIL=
METAR OPPS 080830Z NIL=
METAR OPRN 080830Z NIL=
METAR OPSK 080830Z NIL=
####018000168####
SATU20 LTAA 080750 RRD
METAR LTCE 080820Z 08008KT 050V110 9999 SCT030 27/11 Q1018 NOSIG RMK
RWY08R 05008KT 010V080 RWY26R 08008KT 050V120 RWY08L 08008KT 040V140=
####018000037####
SAUZ31 UTTW 080800 RRA
UTSA NIL=
####018000083####
SAMJ41 LWOH 080830
METAR LWOH 080830Z 02008KT 330V060 9999 FEW033 19/07 Q1019=
####018000091####
SAAJ31 UBBB 080830
METAR UBBB 080830Z 35024KT CAVOK 31/28 Q1011 NOSIG RMK
R88CLRD70=
####018000096####
SPUS73 KWBC 080830
SPECI
KUIN 080827Z AUTO 00000KT 10SM FEW001 BKN048 BKN060 23/22 A3003=
####018000073####
SAMP31 LMMM 080830 RRA
METAR HLLB 080825Z 32017KT CAVOK 29/16 Q1016=
####018000089####
SPUS81 KWBC 080830
SPECI
KMWT 080827Z AUTO 00000KT 10SM FEW001 BKN014 23/23 A3004=
####018001895####
SAEU KAWN 080800 RRX
METAR EDHL 080820Z 15007KT 120V190 CAVOK 24/16 Q1020 RMK I=
METAR EDLW 080820Z 22009KT 180V240 CAVOK 27/10 Q1020 RMK ATIS K=
METAR EDNY 080820Z VRB02KT CAVOK 24/13 Q1022 RMK ATIS K=
METAR EGAE 080820Z 22013KT 9999 FEW018 SCT045 15/10 Q1012=
METAR EGBJ 080820Z 20003KT 9999 FEW024 17/12 Q1018=
METAR EGHE 080820Z 20005KT 9999 FEW018 18/13 Q1019=
METAR COR EGLL 080820Z 30007KT 5000 -RA SCT008 BKN012 17/15 Q1019 BECMG
      SCT040=
METAR EGNC 080820Z 23011KT 9999 SCT030 SCT045 16/11 Q1014=
METAR EGNH 080820Z 23011KT 9999 FEW019 17/10 Q1016=
METAR EGNJ 080820Z 23012KT 9999 -RA SCT025 17/12 Q1017=
METAR EGPA 080820Z 19013KT 9999 FEW030 SCT044 15/11 Q1006=
METAR EGPC 080820Z 19014G24KT 9999 FEW024 SCT041 14/11 Q1007=
METAR EGPE 080820Z 21015KT 9999 FEW022 SCT048 15/09 Q1008=
METAR EGPL 080820Z 22020KT 9999 FEW018 15/11 Q1006=
METAR EGPM 080820Z 21020G30KT 9999 FEW012 SCT030 15/10 Q1004=
METAR EGPN 080820Z 24019KT 9999 FEW022 SCT048 15/12 Q1011=
METAR EGPO 080820Z 22020KT 9999 VCSH FEW014CB SCT030 13/10 Q1004=
METAR EGSC 080820Z 27007KT 240V300 8000 FEW012 BKN018 17/13 Q1018=
METAR COR EGSH 080820Z 24007KT 9999 -RA FEW011 BKN029 20/16 Q1018 NOSIG=
METAR EHAM 080825Z 25009KT 210V290 CAVOK 23/15 Q1019 NOSIG=
METAR EHBK 080825Z AUTO 21007KT 170V250 9999NDV NCD 26/12 Q1019 NOSIG=
METAR EHGG 080825Z AUTO 24008KT 200V280 9999NDV NSC 25/13 Q1018 NOSIG=
METAR EHKD 080825Z AUTO 24010KT 9999NDV OVC057/// 20/16 Q1018 BLU BLU=
METAR EHRD 080825Z 28006KT 240V320 CAVOK 23/15 Q1019 NOSIG=
METAR ETHN 080820Z 16006KT 9999 FEW060 23/08 Q1022 BLU/BLU/=
METAR ETNW 080820Z 20005KT 9999 FEW150 SCT200 26/11 Q1020 BLU/BLU/=
METAR LOXT 080820Z VRB03KT 50KM FEW050CU 21/12 Q1024 NOSIG RMK FEW=
METAR LQSA 080830Z 01004KT 9999 FEW039 BKN050 18/10 Q1023 NOSIG=
METAR LWOH 080830Z 02008KT 330V060 9999 FEW033 19/07 Q1019=
####018000696####
SPNA35 KAWN 080830 RRB
SPECI KDOV 080828Z AUTO 00000KT 2 1/2SM BR CLR 24/24 A2998 RMK AO2
      VIS 1 1/2 RWY19 SLP155=
SPECI KHST 080823Z AUTO 06005KT 8SM -RA FEW004 SCT021 SCT065 27/25
      A2993 RMK AO2 RAB0822 FEW V SCT SLP136 $=
SPECI KNGP 080824Z AUTO 08010KT 10SM TS FEW019 BKN055 28/26 A2980 RMK
      AO2 TSB18 $=
SPECI KWRI 080826Z AUTO 00000KT 1/2SM R18/0800V4000FT R24/0800V2600FT
      FG OVC002 24/24 A2999 RMK AO2 SLP155 $=
SPECI KWRI 080827Z AUTO 00000KT 1/2SM R18/0600V3500FT R24/0700V2400FT
      FG VV002 24/24 A2999 RMK AO2 SLP155 $=
SPECI KWRI 080828Z AUTO 00000KT 1/4SM R18/0600V3000FT R24/0700V2400FT
      FG VV002 24/24 A2999 RMK AO2 SLP155 $=
####018001660####
SPZZ40 KAWN 080830 RRG
SPECI CYKF 080827Z AUTO 00000KT 1 1/4SM BR CLR 20/20 A3006 RMK SLP174
      DENSITY ALT 1700FT=
SPECI CYPH 080826Z AUTO 24018KT 9SM OVC003 05/05 A2978=
SPECI CYPQ 080826Z AUTO ///// 1 1/8SM CLR 20/20 A3003=
SPECI CYPQ 080827Z AUTO ///// 3/4SM CLR 20/20 A3003=
SPECI CYSC 080827Z AUTO VRB02KT 1 3/4SM BR BKN086 20/20 A3003 RMK SLP168
      DENSITY ALT 1400FT=
SPECI CYSJ 080825Z 20005KT 1/2SM R23/P6000FT/U FG OVC002 15/ RMK FG2ST6=
SPECI CYUA 080827Z AUTO 30010KT 9SM OVC003 05/ A3008=
SPECI CYUS 080828Z AUTO ///// 9SM CLR 10/ A2980=
SPECI KEGI 080827Z AUTO 00000KT 1 1/4SM R18/1600V4500FT BR CLR 22/22
      A3002 RMK AO2 SLP165 $=
SPECI KEGI 080828Z AUTO 00000KT 1 1/2SM R18/1600V5500FT BR CLR 22/22
      A3002 RMK AO2 SLP164 $=
SPECI KVOK 080827Z 30005KT 10SM SCT009 OVC016 22/21 A3000 RMK AO2A
      SLP155=
SPECI KVOK 080828Z 30006KT 10SM SCT008 OVC016 21/21 A3001 RMK AO2A
      SLP155=
SPECI KWRI 080826Z AUTO 00000KT 1/2SM R18/0800V4000FT R24/0800V2600FT
      FG OVC002 24/24 A2999 RMK AO2 SLP155 $=
SPECI KWRI 080827Z AUTO 00000KT 1/2SM R18/0600V3500FT R24/0700V2400FT
      FG VV002 24/24 A2999 RMK AO2 SLP155 $=
SPECI KWRI 080828Z AUTO 00000KT 1/4SM R18/0600V3000FT R24/0700V2400FT
      FG VV002 24/24 A2999 RMK AO2 SLP155 $=
SPECI LIQN 080825Z VRB03KT CAVOK 25/16 Q1021 RMK VIS MIN 9999=
SPECI PAED 080827Z AUTO 00000KT 10SM -DZ BKN075 13/10 A3000 RMK AO2
      DZB0827 SLP161 $=
SPECI YSSY 080823Z 21015KT 7000 -SHRA FEW010 SCT020 BKN055 12/12 Q1026
      RMK VIS REDUCED TO SE FM0823 19015KT 9999 -SHRA SCT025
      BKN040 INTER 0823/1123 5000 SHRA BKN015=
####018000286####
SAXX70 KAWN 080800 RRP
METAR KQEL 080820Z AUTO 03003KT 7SM OVC040 26/20 A2970 RMK A02=
METAR KQEQ 080820Z AUTO 22002KT 7SM FEW050 25/20 A2980 RMK A02=
METAR KQEW 080820Z AUTO 05005KT 7SM CLR 27/19 A2980 RMK A02=
METAR KQFT 080820Z AUTO 25002KT 7SM OVC040 28/19 A2981 RMK A02=
####018000073####
SAUS81 KWBC 080828
&EHA SA 0828  AMOS 64/61/3504/M PK WND 06 008

####018000184####
SAUS73 KWBC 080800 RRH
METAR
KALN 080823Z AUTO 17003KT 10SM SCT041 BKN048 BKN055 25/24
     A3003=
KIKK 080825Z AUTO 06004KT 2SM -RA SCT024 BKN075 OVC095 26/23
     A3003=
####018000079####
SPCN47 CWAO 080828
SPECI CYPQ 080828Z AUTO ///// 5/8SM CLR 20/20 A3003=

####018001963####
SAUS20 KNKA 080830
METAR KBEA 080825Z AUTO 11004G14KT 1 1/2SM +TSRA BKN006 OVC019 
     25/25 A2988 RMK AO2 LTG DSNT ALQS P0019 T02480249=
METAR KC75 080826Z AUTO 15003KT 5SM -RA OVC065 24/24 A3002 RMK 
     AO2 LTG DSNT S=
METAR KCCA 080835Z AUTO 00000KT 5SM  BR CLR 22/22 A3006 RMK AO2 =
METAR KCDN 080835Z AUTO 00000KT 10SM CLR 26/22 A2998 RMK A02 P000 
     =
METAR KCKI 080835Z AUTO 00000KT 10SM CLR 22/21 A2995 RMK AO2=
SPECI KEMP 080829Z AUTO 00000KT 8SM BKN005 OVC080 22/20 A3008 RMK 
    AO2=
SPECI KGUY 080829Z AUTO 06008KT 10SM -RA BKN024 OVC060 20/17 A3019 
    RMK AO2 LTG DSNT SE AND W TSB00E15RAB22 P0000=
METAR KIGQ 080820Z AUTO 00000KT 7SM BKN041 24/22 A3004 RMK AO2=
METAR KMKS 080835Z AUTO 00000KT 7SM CLR 23/20 A2995 RMK AO2 TSNO=
SPECI KMWT 080827Z AUTO 00000KT 10SM FEW001 BKN014 23/23 A3004 RMK
     AO2 TSNO=
SPECI KOWD 080829Z AUTO 00000KT 10SM SCT020 22/18 A3005 RMK AO2=
METAR KSLO 080820Z AUTO 18004KT 10SM CLR 24/21 A3004 RMK AO2 
     T02420214=
METAR KSOA 080820Z AUTO 06005KT 10SM 23/21 A3007 RMK AO2=
METAR KSWW 080825Z AUTO 18003KT 10SM CLR 22/21 A3006 RMK AO1 
     T02210207=
METAR KT65 080825Z AUTO 01004KT 10SM SCT004 26/25 A2980 RMK AO2 
     LTG DSNT NE AND SE T02570250=
METAR KT82 080825Z AUTO 12004KT 23/22 A3002 RMK AO1 T02330220=
METAR KTAZ 080825Z AUTO 00000KT 5SM BR CLR 23/23 A3003 RMK AO2 
     LTG DSNT N=
METAR KTFP 080825Z AUTO 11009KT 10SM VCTS SCT018 SCT041 BKN050 
     27/26 A2982 RMK AO2 LTG DSNT W AND NW T02710257=
METAR KTIP 080825Z AUTO 00000KT 10SM BKN100 25/24 A3003 RMK AO2 
     LTG DSNT W T02540237=
METAR KTYQ 080825Z AUTO 00000KT 7SM BKN095 21/20 A3006 RMK AO2=
METAR KUVA 080825Z AUTO 06004KT 10SM CLR 24/23 A2994 RMK AO2 
     T02410230=
METAR KVYS 080825Z AUTO 00000KT 4SM -RA BKN007 OVC010 23/22 A3003 
     RMK AO2 P0001 T02320218=
METAR KXBP 080825Z AUTO 14003KT 10SM SCT044 24/22 A3001 RMK AO2 
     T02420221=
####018000085####
SPCN51 CWAO 080829
SPECI CWZZ 080829Z AUTO ///// 3SM OVC017 OVC069 11/ A2981=

####018000074####
SPCN45 CWAO 080829
SPECI CYFS 080829Z 30003KT 15SM BKN045 RMK SC5=

####018000088####
SAHK31 VHHH 080830
METAR VHHH 080830Z 21013KT 9999 FEW020 SCT030 33/25 Q1006 NOSIG=
####018000089####
SASG20 GOOY 080830
METAR GOOY 080830Z 16006KT 130V190 9999 SCT013 28/24 Q1012 NOSIG=
####018000089####
SATG20 DXXX 080830
METAR DXXX 080830Z 25007KT 220V290 9999 FEW012 27/24 Q1015 NOSIG=
####018000107####
SATU33 LTAA 080820
METAR LCEN 080820Z 05004KT 9999 FEW025 32/17 Q1008 NOSIG=
METAR LCGK 080820Z NIL=
####018000361####
SPUS99 KWBC 080831
SPECI
KEMP 080829Z AUTO 00000KT 8SM BKN005 OVC080 22/20 A3008 RMK
     AO2=
KGUY 080829Z AUTO 06008KT 10SM -RA BKN024 OVC060 20/17 A3019 RMK
     AO2 LTG DSNT SE AND W TSB00E15RAB22 P0000=
KMWT 080827Z AUTO 00000KT 10SM FEW001 BKN014 23/23 A3004 RMK AO2
     TSNO=
KOWD 080829Z AUTO 00000KT 10SM SCT020 22/18 A3005 RMK AO2=
####018001480####
SAUS99 KWBC 080831
METAR
KBEA 080825Z AUTO 11004G14KT 1 1/2SM +TSRA BKN006 OVC019 25/25
     A2988 RMK AO2 LTG DSNT ALQS P0019 T02480249=
KC75 080826Z AUTO 15003KT 5SM -RA OVC065 24/24 A3002 RMK AO2 LTG
     DSNT S=
KCCA 080835Z AUTO 00000KT 5SM BR CLR 22/22 A3006 RMK AO2=
KCDN 080835Z AUTO 00000KT 10SM CLR 26/22 A2998 RMK A02 P000=
KCKI 080835Z AUTO 00000KT 10SM CLR 22/21 A2995 RMK AO2=
KIGQ 080820Z AUTO 00000KT 7SM BKN041 24/22 A3004 RMK AO2=
KMKS 080835Z AUTO 00000KT 7SM CLR 23/20 A2995 RMK AO2 TSNO=
KSLO 080820Z AUTO 18004KT 10SM CLR 24/21 A3004 RMK AO2
     T02420214=
KSOA 080820Z AUTO 06005KT 10SM 23/21 A3007 RMK AO2=
KSWW 080825Z AUTO 18003KT 10SM CLR 22/21 A3006 RMK AO1
     T02210207=
KT65 080825Z AUTO 01004KT 10SM SCT004 26/25 A2980 RMK AO2 LTG DSNT
     NE AND SE T02570250=
KT82 080825Z AUTO 12004KT 23/22 A3002 RMK AO1 T02330220=
KTAZ 080825Z AUTO 00000KT 5SM BR CLR 23/23 A3003 RMK AO2 LTG DSNT
     N=
KTFP 080825Z AUTO 11009KT 10SM VCTS SCT018 SCT041 BKN050 27/26
     A2982 RMK AO2 LTG DSNT W AND NW T02710257=
KTIP 080825Z AUTO 00000KT 10SM BKN100 25/24 A3003 RMK AO2 LTG DSNT
     W T02540237=
KTYQ 080825Z AUTO 00000KT 7SM BKN095 21/20 A3006 RMK AO2=
KUVA 080825Z AUTO 06004KT 10SM CLR 24/23 A2994 RMK AO2
     T02410230=
KVYS 080825Z AUTO 00000KT 4SM -RA BKN007 OVC010 23/22 A3003 RMK
     AO2 P0001 T02320218=
KXBP 080825Z AUTO 14003KT 10SM SCT044 24/22 A3001 RMK AO2
     T02420221=
####018000036####
SAUZ31 UTTW 080800 RRA
UTSA NIL=
####018000096####
SAUZ31 UTTT 080830
METAR UTTT 080830Z 26003MPS 210V330 CAVOK 37/08 Q1011
R26L/CLRD70 NOSIG=
####018000093####
SPTD31 TTPP 080826
SPECI
TTCP 080826Z 08006KT 6000 -TSRA FEW012CB SCT038 25/24 Q1012=
 
####018000086####
SPAK31 KWBC 080831
SPECI
PAED 080827Z AUTO 00000KT 10SM -DZ BKN075 13/10 A3000=
####018000098####
SARM31 LUKK 080830
METAR LUKK 080830Z 33007KT 270V360 9999 SCT016 21/15 Q1015
26CLRD65 NOSIG=
####018000506####
SAHU41 LHBM 080830
METAR LHDC 080815Z 02011KT 9999 FEW030 21/12 Q1021 NOSIG=
METAR LHKE 080815Z 06004MPS 9999 FEW047 22/10 Q1021 BECMG NSC RMK
     BLU=
METAR LHPA 080815Z 36005MPS CAVOK 21/09 Q1023 NOSIG RMK BLU=
METAR LHPP 080815Z 02006KT 9999 FEW033 20/12 Q1023 NOSIG=
METAR LHPR 080815Z 33011KT 9999 FEW036 22/10 Q1023=
METAR LHSM 080815Z 32010KT 9999 FEW040 21/10 Q1023 NOSIG=
METAR LHSN 080815Z 06004MPS CAVOK 22/11 Q1021 NOSIG RMK BLU=
METAR LHUD 080815Z 01007KT 9999 FEW033 22/13 Q1022=
####018000136####
SAIV20 DIAP 080830
METAR DIAP 080830Z 27004KT 240V310 4000 -RA SCT005 BKN012 BKN080
25/24 Q1015 TEMPO 2000 RA BKN005 BKN012 OVC080=
####018000375####
SABU31 LBSM 080830
METAR LBSF 080830Z 27007MPS 9999 BKN042 17/12 Q1018 NOSIG=
METAR LBWN 080830Z 27005MPS 240V310 9999 BKN023 20/15 Q1014
 NOSIG=
METAR LBBG 080830Z 26007MPS 9999 FEW048 BKN072 BKN110 17/15
 Q1015 NOSIG=
METAR LBPD 080830Z 27004MPS 9999 SCT050 BKN060 16/12 Q1016
 NOSIG=
METAR LBGO 080830Z 25002MPS 9999 RA FEW017 BKN033 OVC070 15/14
 Q1017 NOSIG=
####018000196####
SPAU31 KWBC 080831
SPECI
YSSY 080823Z 21015KT 7000 -SHRA FEW010 SCT020 BKN055 12/12 Q1026
RMK VIS REDUCED TO SE FM0823 19015KT 9999 -SHRA SCT025 BKN040
INTER 0823/1123 5000 SHRA BKN015=
####018000105####
SPEN31 KWBC 080831
SPECI
EYVI 080829Z 28009KT 240V300 7000 BKN008 OVC030 15/14 Q1014 RERA
NOSIG=
####018000088####
SPIY43 KWBC 080831
SPECI
LIQN 080825Z VRB03KT CAVOK 25/16 Q1021 RMK VIS MIN 9999=
####018000099####
SAAJ31 UBBB 080830
UBBN 080830Z 15006KT 9999 NSC 35/11 Q1010 R14R/CLRD60 NOSIG
RMK G/O QFE683=
####018000424####
SAHK31 VHHH 080830
METAR VHHH 080830Z 21013KT 9999 FEW020 SCT030 33/25 Q1006 NOSIG=
METAR RCTP 080830Z 25018KT 9999 FEW025 BKN150 31/25 Q1007
NOSIG=
METAR RCKH 080830Z 24011KT 9999 FEW013 SCT020 BKN200 32/26
Q1008 NOSIG RMK 26011KT/RWY09=
METAR RCSS 080830Z 32007KT 270V010 9999 FEW020 BKN035 BKN080 32/24
Q1006 NOSIG=
METAR VMMC 080830Z 19013KT 180V260 9999 FEW015 SCT030 BKN090
     31/27 Q1006 NOSIG=
####018000077####
SPUS31 KWBC 080831
SPECI
KBOS 080828Z 16005KT 10SM OVC015 23/20 A3006=
####018000119####
SPUS41 KWBC 080831
SPECI
KWRI 080828Z AUTO 00000KT 1/4SM R18/0600V3000FT R24/0700V2400FT FG
VV002 24/24 A2999=
####018000077####
SPUS42 KWBC 080831
SPECI
KFTW 080827Z 15008KT 10SM SCT022 25/23 A2998=
####018000119####
SPUS41 KWBC 080831
SPECI
KWRI 080827Z AUTO 00000KT 1/2SM R18/0600V3500FT R24/0700V2400FT FG
VV002 24/24 A2999=
####018000124####
SAUS43 KAPX 080831
MTRANJ
SPECI KANJ 080829Z AUTO 08003KT 7SM BKN004 BKN011 OVC016 21/19 A2994 
RMK AO2 RAE27 P0008
####018000082####
SPUS52 KWBC 080831
SPECI
KCOT 080828Z AUTO 05005KT 10SM SCT022 25/23 A2989=
####018000081####
SPUS53 KWBC 080831
SPECI
KIRK 080828Z AUTO 00000KT 4SM BR CLR 19/19 A3006=
####018000077####
SPUS72 KWBC 080831
SPECI
KFTW 080827Z 15008KT 10SM SCT022 25/23 A2998=
####018000081####
SPUS73 KWBC 080831
SPECI
KIRK 080828Z AUTO 00000KT 4SM BR CLR 19/19 A3006=
####018000092####
SPAU31 AMMC 080831
SPECI YSNF 080830Z 10012KT 6000 -RA SCT010 BKN017 14/12 Q1017=


####018000086####
SPAU31 AMMC 080831
SPECI YSNF 080830Z 10012KT 6000 -RA SCT010 BKN017 14/12 Q1017=
####018000138####
SAIV20 DIAP 080830
METAR DIAP 080830Z 27004KT 240V310 4000 -RA SCT005 BKN012 BKN080
25/24 Q1015 TEMPO 2000 RA BKN005 BKN012 OVC080=
####018000081####
SPUS81 KWBC 080831
SPECI
KIRK 080828Z AUTO 00000KT 4SM BR CLR 19/19 A3006=
####018000080####
SANC01 NWWW 080830
METAR NWWW 080830Z AUTO VRB01KT 9999NDV NCD 19/16 Q1016=
####018000086####
SAZZ40 KAWN 080800 RRR
METAR EFKI 080820Z AUTO 34004KT 280V020 CAVOK 19/14 Q1016=
####018000393####
SATU32 LTAA 080820
METAR LTAN 080820Z 34008KT CAVOK 29/14 Q1012 NOSIG=
METAR LTAU 080820Z 04004KT 350V100 9999 FEW040 28/15 Q1012 NOSIG=
METAR LTBR 080820Z 05005KT 9999 FEW035 SCT100 27/15 Q1011 NOSIG=
METAR LTBU 080820Z 35012KT 9999 SCT030 BKN100 22/11 Q1014=
METAR LTCC 080820Z VRB03KT CAVOK 38/02 Q1007 NOSIG=
METAR LTCE 080820Z 08008KT 050V110 9999 SCT030 27/11 Q1018 NOSIG=
####018000440####
SARH31 LDZM 080830
METAR LDSP 080830Z 14006KT 040V190 CAVOK 26/07 Q1020 NOSIG =
METAR LDPL 080830Z 07008KT 010V100 CAVOK 24/09 Q1022 NOSIG =
METAR LDDU 080830Z VRB10KT 9999 FEW040 24/05 Q1019 NOSIG =
METAR LDZA 080830Z VRB02KT 9999 FEW040 23/08 Q1023 NOSIG =
METAR LDZD 080830Z VRB04KT CAVOK 26/05 Q1021 NOSIG =
METAR LDRI 080830Z 30004KT 240V010 CAVOK 24/10 Q1022 NOSIG=
METAR LDOS 080830Z VRB03KT CAVOK 22/11 Q1022 NOSIG=
####018000100####
SARM31 LUKK 080830
METAR LUKK 080830Z 33007KT 270V360 9999 SCT016 21/15 Q1015
26CLRD65 NOSIG=
####018000913####
SATU31 LTAA 080820
METAR LTAC 080820Z 02015KT 9999 SCT040 25/16 Q1013 NOSIG=
METAR LTAF 080820Z /////KT 5000 HZ SCT035 BKN100 29/21 Q1008 BECMG 
TL0850 9999 NSW=
METAR LTAI 080820Z 15006KT 090V180 8000 SCT030 28/22 Q1008 NOSIG=
METAR LTAJ 080820Z 21008KT 170V240 CAVOK 35/15 Q1008 NOSIG=
METAR LTAZ 080820Z NIL=
METAR LTBA 080820Z 35024KT 9999 SCT035 24/14 Q1012 NOSIG=
METAR LTBJ 080820Z 36017KT CAVOK 30/10 Q1010 NOSIG=
METAR LTBS 080820Z 20009KT 9999 FEW030 29/22 Q1008 NOSIG=
METAR LTCF 080820Z 04011KT 360V070 CAVOK 27/14 Q1020=
METAR LTCG 080820Z 07007KT 9999 SCT035 27/21 Q1011 NOSIG=
METAR LTCI 080820Z 27006KT CAVOK 25/15 Q1017 NOSIG=
METAR LTCS 080820Z 16009KT 120V210 CAVOK 36/07 Q1010=
METAR LTFE 080820Z 28009KT 9999 FEW035 31/14 Q1008 NOSIG=
METAR LTFH 080820Z 29010KT 9999 SCT036 BKN100 25/23 Q1011 NOSIG=
METAR LTFJ 080820Z 36017KT 9999 BKN030 24/16 Q1012 NOSIG=
####018000515####
SAHU41 LHBM 080830
METAR LHDC 080815Z 02011KT 9999 FEW030 21/12 Q1021 NOSIG=
METAR LHKE 080815Z 06004MPS 9999 FEW047 22/10 Q1021 BECMG NSC RMK
     BLU=
METAR LHPA 080815Z 36005MPS CAVOK 21/09 Q1023 NOSIG RMK BLU=
METAR LHPP 080815Z 02006KT 9999 FEW033 20/12 Q1023 NOSIG=
METAR LHPR 080815Z 33011KT 9999 FEW036 22/10 Q1023=
METAR LHSM 080815Z 32010KT 9999 FEW040 21/10 Q1023 NOSIG=
METAR LHSN 080815Z 06004MPS CAVOK 22/11 Q1021 NOSIG RMK BLU=
METAR LHUD 080815Z 01007KT 9999 FEW033 22/13 Q1022=
####018000384####
SABU31 LBSM 080830
METAR LBSF 080830Z 27007MPS 9999 BKN042 17/12 Q1018 NOSIG=
METAR LBWN 080830Z 27005MPS 240V310 9999 BKN023 20/15 Q1014
 NOSIG=
METAR LBBG 080830Z 26007MPS 9999 FEW048 BKN072 BKN110 17/15
 Q1015 NOSIG=
METAR LBPD 080830Z 27004MPS 9999 SCT050 BKN060 16/12 Q1016
 NOSIG=
METAR LBGO 080830Z 25002MPS 9999 RA FEW017 BKN033 OVC070 15/14
 Q1017 NOSIG=
####018000912####
SATU31 LTAA 080820
METAR LTAC 080820Z 02015KT 9999 SCT040 25/16 Q1013 NOSIG=
METAR LTAF 080820Z /////KT 5000 HZ SCT035 BKN100 29/21 Q1008 BECMG
TL0850 9999 NSW=
METAR LTAI 080820Z 15006KT 090V180 8000 SCT030 28/22 Q1008 NOSIG=
METAR LTAJ 080820Z 21008KT 170V240 CAVOK 35/15 Q1008 NOSIG=
METAR LTAZ 080820Z NIL=
METAR LTBA 080820Z 35024KT 9999 SCT035 24/14 Q1012 NOSIG=
METAR LTBJ 080820Z 36017KT CAVOK 30/10 Q1010 NOSIG=
METAR LTBS 080820Z 20009KT 9999 FEW030 29/22 Q1008 NOSIG=
METAR LTCF 080820Z 04011KT 360V070 CAVOK 27/14 Q1020=
METAR LTCG 080820Z 07007KT 9999 SCT035 27/21 Q1011 NOSIG=
METAR LTCI 080820Z 27006KT CAVOK 25/15 Q1017 NOSIG=
METAR LTCS 080820Z 16009KT 120V210 CAVOK 36/07 Q1010=
METAR LTFE 080820Z 28009KT 9999 FEW035 31/14 Q1008 NOSIG=
METAR LTFH 080820Z 29010KT 9999 SCT036 BKN100 25/23 Q1011 NOSIG=
METAR LTFJ 080820Z 36017KT 9999 BKN030 24/16 Q1012 NOSIG=
####018000101####
SAAJ31 UBBB 080830
UBBN 080830Z 15006KT 9999 NSC 35/11 Q1010 R14R/CLRD60 NOSIG
RMK G/O QFE683=
####018000166####
SATU20 LTAA 080750 RRD
METAR LTCE 080820Z 08008KT 050V110 9999 SCT030 27/11 Q1018 NOSIG RMK RWY08R 05008KT 010V080 RWY26R 08008KT 050V120 RWY08L 08008KT 040V140=
####018000105####
SASR31 WSSS 080830
METAR WSSS 080830Z 21003KT 170V260 9999 FEW017 SCT150 BKN270 29/25
Q1008 NOSIG=
####018000120####
SPUS90 KWBC 080832
SPECI KANJ 080829Z AUTO 08003KT 7SM BKN004 BKN011 OVC016 21/19
     A2994 RMK AO2 RAE27 P0008=
####018000101####
SAUS90 KWBC 080832
METAR KEHA 080828Z AUTO 35004KT 18/16 RMK AO1 PK WND 06 008
     T01780162=
####018000084####
SANI20 DNMM 080830
METAR DNMM 080830Z 00000KT 8000 SCT010 26/25 Q1015 NOSIG=

####018000092####
SASG20 GOOY 080830
METAR GOOY 080830Z 16006KT 130V190 9999 SCT013 28/24 Q1012 NOSIG=

####018001084####
SAUS20 KNKA 080831
SPECI KAUG 080830Z AUTO 17005KT 6SM BR BKN007 OVC041 21/19 A3007 RMK 
    AO2=
SPECI KAUW 080830Z AUTO 31008KT 10SM SCT004 19/19 A2999 RMK AO2 $=
SPECI KBFM 080830Z 34003KT 9SM CLR 24/23 A3003 RMK AO2=
SPECI KBGD 080830Z AUTO 04007KT 8SM -RA FEW006 BKN014 OVC022 19/18 
    A3019 RMK AO2 P0002=
METAR KBNL 080835Z AUTO 28004KT 10SM CLR 24/18 A2999 RMK AO2 =
METAR KCQW 080835Z AUTO 00000KT 7SM CLR 24/18 A2997 RMK AO2 =
METAR KDUC 080832Z AUTO 07003KT 10SM CLR 22/22 A3003 RMK AO2=
SPECI KELM 080830Z AUTO 00000KT 1 3/4SM BR CLR 17/17 A3008 RMK AO2=
SPECI KISW 080830Z AUTO 00000KT 10SM SCT007 21/20 A3000 RMK AO2 TSNO=
SPECI KLEB 080830Z AUTO 00000KT 2SM BR CLR 22/20 A3004 RMK AO2=
METAR KLKR 080835Z AUTO 00000KT 7SM CLR 19/19 A2999 RMK AO2 =
METAR KLRO 080835Z AUTO 28005KT 10SM CLR 24/19 A2995 RMK AO2 =
METAR KOLV 080835Z AUTO 00000KT 8SM CLR 23/23 A3007 RMK A01 P000 =
METAR KONM 080827Z AUTO 26004KT 10SM SCT060 19/15 A3022 RMK AO2 
     T01850147=
SPECI KOSH 080830Z AUTO 00000KT 9SM FEW006 22/21 A2997 RMK AO2 P0001=
####018001773####
SAEU KAWN 080800 RRX
METAR EBBE 080825Z 23007KT 9999 FEW250 27/11 Q1019 BLU BLU=
METAR EBBL 080825Z 20005KT 9999 FEW220 29/11 Q1019 BLU BLU=
METAR EBCV 080825Z 23004KT 9999 FEW150 24/13 Q1020 BLU=
METAR EBDT 080825Z 25005KT 9999 FEW160 28/13 Q1019 BLU=
METAR EBFS 080825Z 20007KT 9999 FEW250 24/12 Q1021 BLU BLU=
METAR EBLB 080825Z 23005KT 9999 FEW160 23/12 Q1022 BLU BLU=
METAR EBLH 080825Z 23006KT 9999 FEW250 28/10 Q1020 BLU BLU=
METAR LBBG 080830Z 26007MPS 9999 FEW048 BKN072 BKN110 17/15 Q1015 NOSIG=
METAR LBGO 080830Z 25002MPS 9999 RA FEW017 BKN033 OVC070 15/14 Q1017
      NOSIG=
METAR LBPD 080830Z 27004MPS 9999 SCT050 BKN060 16/12 Q1016 NOSIG=
METAR LBSF 080830Z 27007MPS 9999 BKN042 17/12 Q1018 NOSIG=
METAR LBWN 080830Z 27005MPS 240V310 9999 BKN023 20/15 Q1014 NOSIG=
METAR LDDU 080830Z VRB10KT 9999 FEW040 24/05 Q1019 NOSIG=
METAR LDPL 080830Z 07008KT 010V100 CAVOK 24/09 Q1022 NOSIG=
METAR LDRI 080830Z 30004KT 240V010 CAVOK 24/10 Q1022 NOSIG=
METAR LDSP 080830Z 14006KT 040V190 CAVOK 26/07 Q1020 NOSIG=
METAR LDZA 080830Z VRB02KT 9999 FEW040 23/08 Q1023 NOSIG=
METAR LDZD 080830Z VRB04KT CAVOK 26/05 Q1021 NOSIG=
METAR LFOE 080830Z 19005KT 130V290 CAVOK 26/12 Q1019=
METAR LHBP 080830Z 17006KT 9999 FEW046 22/10 Q1021 NOSIG=
METAR LHDC 080815Z 02011KT 9999 FEW030 21/12 Q1021 NOSIG=
METAR LHKE 080815Z 06004MPS 9999 FEW047 22/10 Q1021 BECMG NSC RMK BLU=
METAR LHPA 080815Z 36005MPS CAVOK 21/09 Q1023 NOSIG RMK BLU=
METAR LHPP 080815Z 02006KT 9999 FEW033 20/12 Q1023 NOSIG=
METAR LHSN 080815Z 06004MPS CAVOK 22/11 Q1021 NOSIG RMK BLU=
METAR LHUD 080815Z 01007KT 9999 FEW033 22/13 Q1022=
METAR LZIB 080830Z 01010KT 340V050 CAVOK 23/05 Q1023=
METAR LZTT 080830Z VRB01KT 9999 FEW040 19/08 Q1022 NOSIG=
####018000080####
SANC01 NWWM 080830
METAR NWWM 080830Z AUTO 34002KT 9999NDV NCD 19/17 Q1015=
####018000098####
SANC01 NWWU 080830
METAR NWWU 080830Z AUTO VRB03KT 9999NDV FEW032/// OVC044/// 22/18
Q1015=
####018000080####
SANC01 NWWL 080830
METAR NWWL 080830Z AUTO 00000KT 9999NDV NCD 17/16 Q1015=
####018000096####
SAUS98 KWBC 080832
METAR KEHA 080828Z AUTO 35004KT 18/16 RMK AO1 PK WND 06 008
T01780162=
####018000568####
SPUS99 KWBC 080832
SPECI
KAUG 080830Z AUTO 17005KT 6SM BR BKN007 OVC041 21/19 A3007 RMK
     AO2=
KAUW 080830Z AUTO 31008KT 10SM SCT004 19/19 A2999 RMK AO2 $=
KBFM 080830Z 34003KT 9SM CLR 24/23 A3003 RMK AO2=
KBGD 080830Z AUTO 04007KT 8SM -RA FEW006 BKN014 OVC022 19/18 A3019
     RMK AO2 P0002=
KELM 080830Z AUTO 00000KT 1 3/4SM BR CLR 17/17 A3008 RMK AO2=
KISW 080830Z AUTO 00000KT 10SM SCT007 21/20 A3000 RMK AO2 TSNO=
KLEB 080830Z AUTO 00000KT 2SM BR CLR 22/20 A3004 RMK AO2=
KOSH 080830Z AUTO 00000KT 9SM FEW006 22/21 A2997 RMK AO2 P0001=
####018000104####
SAMR20 TFFF 080830
METAR TFFF 080830Z AUTO 07013KT 040V100 9999NDV FEW012///
SCT034/// 28/24 Q1013=
####018000457####
SAUS99 KWBC 080832
METAR
KBNL 080835Z AUTO 28004KT 10SM CLR 24/18 A2999 RMK AO2=
KCQW 080835Z AUTO 00000KT 7SM CLR 24/18 A2997 RMK AO2=
KDUC 080832Z AUTO 07003KT 10SM CLR 22/22 A3003 RMK AO2=
KLKR 080835Z AUTO 00000KT 7SM CLR 19/19 A2999 RMK AO2=
KLRO 080835Z AUTO 28005KT 10SM CLR 24/19 A2995 RMK AO2=
KOLV 080835Z AUTO 00000KT 8SM CLR 23/23 A3007 RMK A01 P000=
KONM 080827Z AUTO 26004KT 10SM SCT060 19/15 A3022 RMK AO2
     T01850147=
####018000415####
SAHK31 VHHH 080830
METAR VHHH 080830Z 21013KT 9999 FEW020 SCT030 33/25 Q1006 NOSIG=
METAR RCTP 080830Z 25018KT 9999 FEW025 BKN150 31/25 Q1007
NOSIG=
METAR RCKH 080830Z 24011KT 9999 FEW013 SCT020 BKN200 32/26
Q1008 NOSIG RMK 26011KT/RWY09=
METAR RCSS 080830Z 32007KT 270V010 9999 FEW020 BKN035 BKN080 32/24
Q1006 NOSIG=
METAR VMMC 080830Z 19013KT 180V260 9999 FEW015 SCT030 BKN090
     31/27 Q1006 NOSIG=
####018000079####
SANC01 NWWW 080830
METAR NWWW 080830Z AUTO VRB01KT 9999NDV NCD 19/16 Q1016=
####018000080####
SAHU31 LHBM 080830
METAR LHBP 080830Z 17006KT 9999 FEW046 22/10 Q1021 NOSIG=
####018000103####
SASR31 WSSS 080830
METAR WSSS 080830Z 21003KT 170V260 9999 FEW017 SCT150 BKN270 29/25
Q1008 NOSIG=
####018000085####
SPAU32 YBBN 080831
SPECI YSNF 080830Z 10012KT 6000 -RA SCT010 BKN017 14/12 Q1017=
####018001854####
SAUS70 KWBC 080832
METAR
KBEA 080825Z AUTO 11004G14KT 1 1/2SM +TSRA BKN006 OVC019 25/25
     A2988 RMK AO2 LTG DSNT ALQS P0019 T02480249=
KC75 080826Z AUTO 15003KT 5SM -RA OVC065 24/24 A3002 RMK AO2 LTG
     DSNT S=
KCCA 080835Z AUTO 00000KT 5SM BR CLR 22/22 A3006 RMK AO2=
KCDN 080835Z AUTO 00000KT 10SM CLR 26/22 A2998 RMK A02 P000=
KCKI 080835Z AUTO 00000KT 10SM CLR 22/21 A2995 RMK AO2=
KIGQ 080820Z AUTO 00000KT 7SM BKN041 24/22 A3004 RMK AO2=
KMKS 080835Z AUTO 00000KT 7SM CLR 23/20 A2995 RMK AO2 TSNO=
KSLO 080820Z AUTO 18004KT 10SM CLR 24/21 A3004 RMK AO2
     T02420214=
KSWW 080825Z AUTO 18003KT 10SM CLR 22/21 A3006 RMK AO1
     T02210207=
KT65 080825Z AUTO 01004KT 10SM SCT004 26/25 A2980 RMK AO2 LTG DSNT
     NE AND SE T02570250=
KT82 080825Z AUTO 12004KT 23/22 A3002 RMK AO1 T02330220=
KTAZ 080825Z AUTO 00000KT 5SM BR CLR 23/23 A3003 RMK AO2 LTG DSNT
     N=
KTFP 080825Z AUTO 11009KT 10SM VCTS SCT018 SCT041 BKN050 27/26
     A2982 RMK AO2 LTG DSNT W AND NW T02710257=
KTIP 080825Z AUTO 00000KT 10SM BKN100 25/24 A3003 RMK AO2 LTG DSNT
     W T02540237=
KTYQ 080825Z AUTO 00000KT 7SM BKN095 21/20 A3006 RMK AO2=
KUVA 080825Z AUTO 06004KT 10SM CLR 24/23 A2994 RMK AO2
     T02410230=
KVYS 080825Z AUTO 00000KT 4SM -RA BKN007 OVC010 23/22 A3003 RMK
     AO2 P0001 T02320218=
KXBP 080825Z AUTO 14003KT 10SM SCT044 24/22 A3001 RMK AO2
     T02420221=
KBNL 080835Z AUTO 28004KT 10SM CLR 24/18 A2999 RMK AO2=
KCQW 080835Z AUTO 00000KT 7SM CLR 24/18 A2997 RMK AO2=
KDUC 080832Z AUTO 07003KT 10SM CLR 22/22 A3003 RMK AO2=
KLKR 080835Z AUTO 00000KT 7SM CLR 19/19 A2999 RMK AO2=
KLRO 080835Z AUTO 28005KT 10SM CLR 24/19 A2995 RMK AO2=
KOLV 080835Z AUTO 00000KT 8SM CLR 23/23 A3007 RMK A01 P000=
KONM 080827Z AUTO 26004KT 10SM SCT060 19/15 A3022 RMK AO2
     T01850147=
####018000746####
SPUS70 KWBC 080832
SPECI
KGUY 080829Z AUTO 06008KT 10SM -RA BKN024 OVC060 20/17 A3019 RMK
     AO2 LTG DSNT SE AND W TSB00E15RAB22 P0000=
KOWD 080829Z AUTO 00000KT 10SM SCT020 22/18 A3005 RMK AO2=
KAUG 080830Z AUTO 17005KT 6SM BR BKN007 OVC041 21/19 A3007 RMK
     AO2=
KAUW 080830Z AUTO 31008KT 10SM SCT004 19/19 A2999 RMK AO2 $=
KBFM 080830Z 34003KT 9SM CLR 24/23 A3003 RMK AO2=
KBGD 080830Z AUTO 04007KT 8SM -RA FEW006 BKN014 OVC022 19/18 A3019
     RMK AO2 P0002=
KELM 080830Z AUTO 00000KT 1 3/4SM BR CLR 17/17 A3008 RMK AO2=
KISW 080830Z AUTO 00000KT 10SM SCT007 21/20 A3000 RMK AO2 TSNO=
KLEB 080830Z AUTO 00000KT 2SM BR CLR 22/20 A3004 RMK AO2=
KOSH 080830Z AUTO 00000KT 9SM FEW006 22/21 A2997 RMK AO2 P0001=
####018000265####
SAAF31 KWBC 080800 RRE
METAR
DIAP 080830Z 27004KT 240V310 4000 -RA SCT005 BKN012 BKN080 25/24
     Q1015 TEMPO 2000 RA BKN005 BKN012 OVC080=
DNMM 080830Z 00000KT 8000 SCT010 26/25 Q1015 NOSIG=
DXXX 080830Z 25007KT 220V290 9999 FEW012 27/24 Q1015 NOSIG=
####018000157####
SAUS80 KWBC 080832
METAR
KSOA 080820Z AUTO 06005KT 10SM 23/21 A3007 RMK AO2=
KEHA 080828Z AUTO 35004KT 18/16 RMK AO1 PK WND 06 008
     T01780162=
####018000276####
SPUS80 KWBC 080832
SPECI
KEMP 080829Z AUTO 00000KT 8SM BKN005 OVC080 22/20 A3008 RMK
     AO2=
KMWT 080827Z AUTO 00000KT 10SM FEW001 BKN014 23/23 A3004 RMK AO2
     TSNO=
KANJ 080829Z AUTO 08003KT 7SM BKN004 BKN011 OVC016 21/19 A2994 RMK
     AO2 RAE27 P0008=
####018000611####
SPXX60 KWBC 080832
SPECI
KVOK 080827Z 30005KT 10SM SCT009 OVC016 22/21 A3000 RMK AO2A
     SLP155=
KVOK 080828Z 30006KT 10SM SCT008 OVC016 21/21 A3001 RMK AO2A
     SLP155=
KWRI 080826Z AUTO 00000KT 1/2SM R18/0800V4000FT R24/0800V2600FT FG
     OVC002 24/24 A2999 RMK AO2 SLP155 $=
KWRI 080827Z AUTO 00000KT 1/2SM R18/0600V3500FT R24/0700V2400FT FG
     VV002 24/24 A2999 RMK AO2 SLP155 $=
KWRI 080828Z AUTO 00000KT 1/4SM R18/0600V3000FT R24/0700V2400FT FG
     VV002 24/24 A2999 RMK AO2 SLP155 $=
PAED 080827Z AUTO 00000KT 10SM -DZ BKN075 13/10 A3000 RMK AO2
     DZB0827 SLP161 $=
####018000095####
SAAO33 KWBC 080800 RRC
METAR
GOOY 080830Z 16006KT 130V190 9999 SCT013 28/24 Q1012 NOSIG=
####018000392####
SAAW31 KWBC 080800 RRA
METAR
LTAC 080820Z 02015KT 9999 SCT040 25/16 Q1013 NOSIG=
LTAF 080820Z /////KT 5000 HZ SCT035 BKN100 29/21 Q1008 BECMG
     TL0850 9999 NSW=
LTAI 080820Z 15006KT 090V180 8000 SCT030 28/22 Q1008 NOSIG=
LTBA 080820Z 35024KT 9999 SCT035 24/14 Q1012 NOSIG=
LTBJ 080820Z 36017KT CAVOK 30/10 Q1010 NOSIG=
LTBS 080820Z 20009KT 9999 FEW030 29/22 Q1008 NOSIG=
####018000088####
SPAU31 KWBC 080832
SPECI
YSNF 080830Z 10012KT 6000 -RA SCT010 BKN017 14/12 Q1017=
####018000092####
SPCA33 KWBC 080832
SPECI
TTCP 080826Z 08006KT 6000 -TSRA FEW012CB SCT038 25/24 Q1012=
####018000614####
SAAW41 KWBC 080850 RRB
METAR
LTAJ 080820Z 21008KT 170V240 CAVOK 35/15 Q1008 NOSIG=
LTAN 080820Z 34008KT CAVOK 29/14 Q1012 NOSIG=
LTAU 080820Z 04004KT 350V100 9999 FEW040 28/15 Q1012 NOSIG=
LTCC 080820Z VRB03KT CAVOK 38/02 Q1007 NOSIG=
LTCE 080820Z 08008KT 050V110 9999 SCT030 27/11 Q1018 NOSIG=
LTCE 080820Z 08008KT 050V110 9999 SCT030 27/11 Q1018 NOSIG RMK
     RWY08R 05008KT 010V080 RWY26R 08008KT 050V120 RWY08L 08008KT
     040V140=
LTCG 080820Z 07007KT 9999 SCT035 27/21 Q1011 NOSIG=
LTCI 080820Z 27006KT CAVOK 25/15 Q1017 NOSIG=
LTFE 080820Z 28009KT 9999 FEW035 31/14 Q1008 NOSIG=
####018000089####
SADL31 KWBC 080820 RRA
METAR
EDHL 080820Z 15007KT 120V190 CAVOK 24/16 Q1020 RMK I=
####018000361####
SABX31 KWBC 080820 RRB
METAR
EBBE 080825Z 23007KT 9999 FEW250 27/11 Q1019 BLU BLU=
EBBL 080825Z 20005KT 9999 FEW220 29/11 Q1019 BLU BLU=
EBCV 080825Z 23004KT 9999 FEW150 24/13 Q1020 BLU=
EBDT 080825Z 25005KT 9999 FEW160 28/13 Q1019 BLU=
EBFS 080825Z 20007KT 9999 FEW250 24/12 Q1021 BLU BLU=
EBLB 080825Z 23005KT 9999 FEW160 23/12 Q1022 BLU BLU=
####018000086####
SADL33 KWBC 080815 RRC
METAR
EDNY 080820Z VRB02KT CAVOK 24/13 Q1022 RMK ATIS K=
####018000270####
SACI31 KWBC 080800 RRA
METAR
RCKH 080830Z 24011KT 9999 FEW013 SCT020 BKN200 32/26 Q1008 NOSIG
     RMK 26011KT/RWY09=
RCSS 080830Z 32007KT 270V010 9999 FEW020 BKN035 BKN080 32/24 Q1006
     NOSIG=
RCTP 080830Z 25018KT 9999 FEW025 BKN150 31/25 Q1007 NOSIG=
####018000257####
SAAW34 KWBC 080815 RRB
METAR
OPGD 080830Z NIL=
OPLA 080825Z 10004KT 6000 SCT040 38/23 Q1005=
OPNH 080830Z NIL=
OPPS 080830Z NIL=
OPRN 080830Z NIL=
OPSK 080830Z NIL=
UTTT 080830Z 26003MPS 210V330 CAVOK 37/08 Q1011 R26L/CLRD70
     NOSIG=
####018000087####
SAMM31 KWBC 080800 RRB
METAR
LCEN 080820Z 05004KT 9999 FEW025 32/17 Q1008 NOSIG=
####018000094####
SADL32 KWBC 080820 RRA
METAR
EDLW 080820Z 22009KT 180V240 CAVOK 27/10 Q1020 RMK ATIS K=
####018000171####
SARA31 KWBC 080800 RRD
METAR
UBBB 080830Z 35024KT CAVOK 31/28 Q1011 NOSIG RMK R88CLRD70=
UTTT 080830Z 26003MPS 210V330 CAVOK 37/08 Q1011 R26L/CLRD70
     NOSIG=
####018000087####
SAXX61 KWBC 080800 RRE
METAR
LTAC 080820Z 02015KT 9999 SCT040 25/16 Q1013 NOSIG=
####018000913####
SAXX99 KWBC 080800 RRW
METAR
ETNW 080820Z 20005KT 9999 FEW150 SCT200 26/11 Q1020 BLU/BLU/=
LBGO 080830Z 25002MPS 9999 RA FEW017 BKN033 OVC070 15/14 Q1017
     NOSIG=
LHDC 080815Z 02011KT 9999 FEW030 21/12 Q1021 NOSIG=
LHKE 080815Z 06004MPS 9999 FEW047 22/10 Q1021 BECMG NSC RMK
     BLU=
LHPP 080815Z 02006KT 9999 FEW033 20/12 Q1023 NOSIG=
LHSN 080815Z 06004MPS CAVOK 22/11 Q1021 NOSIG RMK BLU=
LHUD 080815Z 01007KT 9999 FEW033 22/13 Q1022=
LOXT 080820Z VRB03KT 50KM FEW050CU 21/12 Q1024 NOSIG RMK FEW=
LTAZ 080820Z NIL=
LTBR 080820Z 05005KT 9999 FEW035 SCT100 27/15 Q1011 NOSIG=
LTBU 080820Z 35012KT 9999 SCT030 BKN100 22/11 Q1014=
LTCF 080820Z 04011KT 360V070 CAVOK 27/14 Q1020=
LTFH 080820Z 29010KT 9999 SCT036 BKN100 25/23 Q1011 NOSIG=
LTFJ 080820Z 36017KT 9999 BKN030 24/16 Q1012 NOSIG=
UBBN 080830Z 15006KT 9999 NSC 35/11 Q1010 R14R/CLRD60 NOSIG RMK
     G/O QFE683=
####018000205####
SASQ31 LZIB 080830
METAR LZIB 080830Z 01010KT 340V050 CAVOK 23/05 Q1023=
METAR LZKZ 080830Z 01010KT 340V040 9999 FEW043 20/11 Q1021 NOSIG=
METAR LZTT 080830Z VRB01KT 9999 FEW040 19/08 Q1022 NOSIG=
####018000106####
SAMR20 TFFF 080830
METAR TFFF 080830Z AUTO 07013KT 040V100 9999NDV FEW012///
SCT034/// 28/24 Q1013=
####018000087####
SAUZ31 UTTW 080830
METAR UTSB 080830Z 01007MPS CAVOK 39/05 Q1008 R01/CLRD70 NOSIG=
####018000081####
SAHU31 LHBM 080830
METAR LHBP 080830Z 17006KT 9999 FEW046 22/10 Q1021 NOSIG=
####018000086####
SPAU32 YBBN 080831
SPECI YSNF 080830Z 10012KT 6000 -RA SCT010 BKN017 14/12 Q1017=
####018000093####
SAUZ31 UTTW 080830
METAR UTSA 080830Z 02007MPS 9999 NSC 40/05 Q1009 R88/CLRD70 
NOSIG=
####018000106####
SAHW31 KMSC 080832
SPECI PGRO 080826Z 09012G17KT 7SM FEW015 SCT040CB 28/25 A2988 RMK CB 
N MOV W
=
####018000103####
SACN87 CWAO 080800 RRC
WWS SA 0800 AUTO8 M M M 130/17/11/3015/M/ PK WND 3120 0759Z 3001
72MM=

####018000829####
SACN59 CWAO 080800 RRE
PBL SA 0800 AUTO8 M M M M/12/09/2703/M/ M 43MM=
PFI SA 0800 AUTO8 M M M M/12/10/1704/M/ M 03MM=
PRY SA 0800 AUTO8 M M M M/10/09/2303/M/ M 48MM=
PST SA 0800 AUTO8 M M M M/14/11/2104/M/ M 57MM=
PSV SA 0800 AUTO8 M M M M/09/08/2405/M/ M 40MM=
XAK SA 0800 AUTO8 M M M M/11/09/2108/M/ M 38MM=
XHD SA 0800 AUTO8 M M M M/12/10/2307/M/ M 44MM=
XMG SA 0800 AUTO8 M M M M/15/13/3204/M/ M 86MM=
XMO SA 0800 AUTO8 M M M M/10/08/1703/M/ M 29MM=
XOL SA 0800 AUTO8 M M M M/11/08/2107/M/ M 51MM=
XPL SA 0800 AUTO8 M M M M/10/09/3503/M/ M 08MM=
XSL SA 0800 AUTO8 M M M M/12/11/0000/M/M M 06MM=
XSP SA 0800 AUTO8 M M M M/14/12/1904/M/ M 18MM=
XVM SA 0800 AUTO8 M M M M/13/11/2205/M/ M 58MM=
ZOL SA 0800 AUTO8 M M M M/15/12/2203/M/ M 96MM=
ZPS SA 0800 AUTO8 M M M M/14/09/2211/M/ M 60MM=

####018000083####
SACN90 CWAO 080800 RRC
WEC SA 0800 AUTO8 M M M 128/18/15/2303/M/ 5005 76MM=

####018000103####
SACN97 CWAO 080800 RRD
XTV SA 0800 AUTO8 M M M 166/06/M/2911/M/M PK WND 3017 0741Z 2014
9MMM=

####018000233####
SACN98 CWAO 080800 RRE
XAG SA 0800 AUTO8 M M M M/12/11/2404/M/ M 03MM=
XAJ SA 0800 AUTO8 M M M M/12/10/2301/M/ M 88MM=
XCS SA 0800 AUTO8 M M M M/12/10/2710/M/ M 12MM=
XYH SA 0800 AUTO8 M M M 147/12/11/0000/M/ 0010 33MM=

####018000135####
SACN78 CWAO 080800 RRC
WNB SA 0800 AUTO8 M M M M/M/M/MM08/M/M 6004 MMMM=
WPS SA 0800 AUTO8 M M M 157/24/M/1608/M/M 7004 3MMM=

####018000206####
SACN94 CWAO 080800 RRD
WQS SA 0800 AUTO8 M M M M/12/M/3619/M/ PK WND 3523 0746Z M 1MMM=
WRR SA 0800 AUTO8 M M M 176/07/06/1103/M/M 1012 53MM=
WRY SA 0800 AUTO8 M M M 221/10/08/2906/M/ 5000 10MM=

####018000083####
SACN96 CWAO 080800 RRE
WYF SA 0800 AUTO8 M M M 099/06/04/2807/M/ 0001 70MM=

####018000095####
SPUS81 KWBC 080832
SPECI
KANJ 080829Z AUTO 08003KT 7SM BKN004 BKN011 OVC016 21/19 A2994=
####018000088####
SPUS81 KWBC 080832
SPECI
KEMP 080829Z AUTO 00000KT 8SM BKN005 OVC080 22/20 A3008=
####018000364####
SAMC31 GMMC 080830
METAR GMME 080830Z 34005KT 310V010 6000 OVC010 22/19 Q1016 NOSIG=
METAR GMMN 080830Z 33006KT 310V010 8000 SCT010 BKN026 22/19 Q1016
NOSIG=
METAR GMMX 080830Z 26003KT 180V340 6000 FEW026 25/19 Q1016 NOSIG=
METAR GMTT 080830Z 28006KT 250V310 8000  FEW010 SCT016 24/20 Q1016
NOSIG=
METAR GMAD 080830Z NIL=
METAR GMFF 080830Z NIL=
####018000089####
SAMT20 GQNN 080830
METAR GQNN 080830Z 20009KT 180V240 6000 FEW010 27/23 Q1011 NOSIG=
####018000808####
SPNA14 KAWN 080832 RRC
SPECI KEGI 080827Z AUTO 00000KT 1 1/4SM R18/1600V4500FT BR CLR 22/22
      A3002 RMK AO2 SLP165 $=
SPECI KEGI 080828Z AUTO 00000KT 1 1/2SM R18/1600V5500FT BR CLR 22/22
      A3002 RMK AO2 SLP164 $=
SPECI KEGI 080830Z AUTO 00000KT 2SM R18/2000V5500FT BR CLR 22/22 A3002
      RMK AO2 SLP165 $=
SPECI KNSE 080823Z AUTO 00000KT 1/2SM FG CLR 23/21 A3002 RMK AO2 $=
SPECI KVOK 080827Z 30005KT 10SM SCT009 OVC016 22/21 A3000 RMK AO2A
      SLP155=
SPECI KVOK 080828Z 30006KT 10SM SCT008 OVC016 21/21 A3001 RMK AO2A
      SLP155=
SPECI KWRI 080827Z AUTO 00000KT 1/2SM R18/0600V3500FT R24/0700V2400FT
      FG VV002 24/24 A2999 RMK AO2 SLP155 $=
SPECI KWRI 080828Z AUTO 00000KT 1/4SM R18/0600V3000FT R24/0700V2400FT
      FG VV002 24/24 A2999 RMK AO2 SLP155 $=
####018001592####
SAEW KAWN 080800 RRL
METAR EBBE 080825Z 23007KT 9999 FEW250 27/11 Q1019 BLU BLU=
METAR EBBL 080825Z 20005KT 9999 FEW220 29/11 Q1019 BLU BLU=
METAR EBCV 080825Z 23004KT 9999 FEW150 24/13 Q1020 BLU=
METAR EBDT 080825Z 25005KT 9999 FEW160 28/13 Q1019 BLU=
METAR EBFN 080825Z 30005KT 9999 FEW042 SCT130 BKN190 21/15 Q1019 BLU
      BLU=
METAR EBFS 080825Z 20007KT 9999 FEW250 24/12 Q1021 BLU BLU=
METAR EBLB 080825Z 23005KT 9999 FEW160 23/12 Q1022 BLU BLU=
METAR EBLH 080825Z 23006KT 9999 FEW250 28/10 Q1020 BLU BLU=
METAR EDHL 080820Z 15007KT 120V190 CAVOK 24/16 Q1020 RMK I=
METAR EDLW 080820Z 22009KT 180V240 CAVOK 27/10 Q1020 RMK ATIS K=
METAR EDNY 080820Z VRB02KT CAVOK 24/13 Q1022 RMK ATIS K=
METAR EHAM 080825Z 25009KT 210V290 CAVOK 23/15 Q1019 NOSIG=
METAR EHBK 080825Z AUTO 21007KT 170V250 9999NDV NCD 26/12 Q1019 NOSIG=
METAR EHDL 080825Z AUTO 22009KT 9999NDV NCD 27/11 Q1019 BLU=
METAR EHGG 080825Z AUTO 24008KT 200V280 9999NDV NSC 25/13 Q1018 NOSIG=
METAR EHGR 080825Z AUTO 24005KT 9999NDV BKN140 26/13 Q1019 BLU BLU=
METAR EHKD 080825Z AUTO 24010KT 9999NDV OVC057/// 20/16 Q1018 BLU BLU=
METAR EHRD 080825Z 28006KT 240V320 CAVOK 23/15 Q1019 NOSIG=
METAR EHVK 080825Z AUTO 23006KT 9999NDV BKN150 27/12 Q1019 BLU=
METAR EHVL 080825Z AUTO 24014KT 9999NDV SCT056 OVC097 19/15 Q1018 BLU=
METAR EHWO 080825Z AUTO 28006KT 9999NDV NCD 24/13 Q1019 BLU BLU=
METAR ETHN 080820Z 16006KT 9999 FEW060 23/08 Q1022 BLU/BLU/=
METAR ETNW 080820Z 20005KT 9999 FEW150 SCT200 26/11 Q1020 BLU/BLU/=
METAR LFOE 080830Z 19005KT 130V290 CAVOK 26/12 Q1019=
####018000412####
SAXX70 KAWN 080800 RRQ
METAR KQEN 080830Z AUTO 22003KT 7SM FEW021 20/15 A3039 RMK A02=
METAR KQEP 080830Z AUTO 26005KT 7SM CLR 28/17 A2985 RMK A02=
METAR KQER 080830Z AUTO 10001KT 7SM FEW040 25/18 A2987 RMK A02=
METAR KQES 080830Z AUTO 30004KT 6SM BR CLR 21/18 A2983 RMK A02=
METAR KQEY 080830Z AUTO 29006KT 7SM CLR 28/15 A2958 RMK A02=
METAR KQEV 080840Z AUTO 22001KT 7SM CLR 29/17 A2976 RMK A02=
####018000075####
SACN50 CWAO 080830
VOH SA 0830 AUTO8 M M M M/16/02/0404/M/M M 92MM=

####018000075####
SACN88 CWAO 080830
WZU SA 0830 AUTO7 M M M M/16/16/1003/M/M M 42MM=

####018000187####
SPAU31 AMMC 080832
SPECI YSSY 080830Z 21015KT 5000 SHRA FEW008 SCT020 BKN050 13/12 Q1026
     FM0830 19015KT 9999 -SHRA SCT025 BKN040
     INTER 0830/1130 5000 SHRA BKN010=


####018000181####
SPAU31 AMMC 080832
SPECI YSSY 080830Z 21015KT 5000 SHRA FEW008 SCT020 BKN050 13/12 Q1026
     FM0830 19015KT 9999 -SHRA SCT025 BKN040
     INTER 0830/1130 5000 SHRA BKN010=
####018000864####
SAUS20 KNKA 080832
SPECI KCNK 080831Z AUTO 36005KT 10SM SCT014 BKN021 OVC029 20/19 
    A3014 RMK AO2=
SPECI KELD 080831Z AUTO 00000KT 1 3/4SM BR BKN001 23/23 A3003 RMK 
    AO2=
SPECI KHWV 080831Z AUTO 15005KT 5SM BR OVC004 24/23 A3003 RMK AO2=
SPECI KLWC 080831Z AUTO 00000KT 9SM BKN023 OVC070 22/21 A3007 RMK 
    AO2 RAB11E28 P0000=
SPECI KLWD 080831Z AUTO 00000KT 9SM FEW022 BKN029 21/20 A3008 RMK 
    AO2=
SPECI KLXT 080831Z AUTO 35005KT 8SM FEW005 SCT010 BKN100 23/22 A3006 
    RMK AO2=
SPECI KNSE 080823Z AUTO 00000KT 1/2SM FG CLR 23/21 A3002 RMK AO2 $=
SPECI KSBP 080831Z AUTO 31005KT 10SM OVC009 13/11 A2991 RMK AO2 $=
SPECI KTUL 080831Z 31003KT 6SM -TSRA BR BKN008 BKN047 OVC085 23/22 
    A3002 RMK AO2 OCNL LTGIC OHD-S-SW TS OHD-S-SW MOV N P0008=
SPECI KUCP 080832Z AUTO 00000KT 3/4SM BR CLR 19/18 A3009 RMK AO2 $=
####018000075####
SACN50 CWAO 080830
VOB SA 0830 AUTO8 M M M M/17/07/1701/M/M M 77MM=

####018000075####
SACN50 CWAO 080830
VOD SA 0830 AUTO8 M M M M/12/04/0301/M/M M 62MM=

####018000075####
SACN50 CWAO 080830
VOF SA 0830 AUTO8 M M M M/14/06/3502/M/M M 82MM=

####018000075####
SACN50 CWAO 080830
VWB SA 0830 AUTO8 M M M M/17/04/MMMM/M/M M 82MM=

####018000075####
SACN50 CWAO 080830
VOY SA 0830 AUTO8 M M M M/13/07/3401/M/M M 58MM=

####018000075####
SACN94 CWAO 080830
WSK SA 0830 AUTO8 M M M M/16/11/0402/M/M M 02MM=

####018000074####
SACN50 CWAO 080830
VOJ SA 0830 AUTO8 M M M M/17/M/1202/M/M M 9MMM=

####018000075####
SACN50 CWAO 080830
VOK SA 0830 AUTO8 M M M M/15/06/0701/M/M M 20MM=

####018000075####
SACN50 CWAO 080830
VOV SA 0830 AUTO8 M M M M/12/07/0501/M/M M 95MM=

####018000812####
SPUS99 KWBC 080833
SPECI
KCNK 080831Z AUTO 36005KT 10SM SCT014 BKN021 OVC029 20/19 A3014
     RMK AO2=
KELD 080831Z AUTO 00000KT 1 3/4SM BR BKN001 23/23 A3003 RMK
     AO2=
KHWV 080831Z AUTO 15005KT 5SM BR OVC004 24/23 A3003 RMK AO2=
KLWC 080831Z AUTO 00000KT 9SM BKN023 OVC070 22/21 A3007 RMK AO2
     RAB11E28 P0000=
KLWD 080831Z AUTO 00000KT 9SM FEW022 BKN029 21/20 A3008 RMK
     AO2=
KLXT 080831Z AUTO 35005KT 8SM FEW005 SCT010 BKN100 23/22 A3006 RMK
     AO2=
KNSE 080823Z AUTO 00000KT 1/2SM FG CLR 23/21 A3002 RMK AO2 $=
KSBP 080831Z AUTO 31005KT 10SM OVC009 13/11 A2991 RMK AO2 $=
KTUL 080831Z 31003KT 6SM -TSRA BR BKN008 BKN047 OVC085 23/22 A3002
     RMK AO2 OCNL LTGIC OHD-S-SW TS OHD-S-SW MOV N P0008=
KUCP 080832Z AUTO 00000KT 3/4SM BR CLR 19/18 A3009 RMK AO2 $=
####018000356####
SAMC31 GMMC 080830
METAR GMME 080830Z 34005KT 310V010 6000 OVC010 22/19 Q1016 NOSIG=
METAR GMMN 080830Z 33006KT 310V010 8000 SCT010 BKN026 22/19 Q1016
NOSIG=
METAR GMMX 080830Z 26003KT 180V340 6000 FEW026 25/19 Q1016 NOSIG=
METAR GMTT 080830Z 28006KT 250V310 8000  FEW010 SCT016 24/20 Q1016
NOSIG=
METAR GMAD 080830Z NIL=
METAR GMFF 080830Z NIL=
####018000086####
SAUZ31 UTTW 080830
METAR UTSB 080830Z 01007MPS CAVOK 39/05 Q1008 R01/CLRD70 NOSIG=
####018000090####
SAUZ31 UTTW 080830
METAR UTSA 080830Z 02007MPS 9999 NSC 40/05 Q1009 R88/CLRD70
NOSIG=
####018000078####
SAUK34 EGGY 080820 RRB
METAR EGHD 080820Z 00000KT 9999 FEW025 17/12 Q1019=
####018000143####
SPKO31 RKSI 080826
SPECI RKTN 080826Z 34005KT 9000 -TSRA FEW025CB BKN040 OVC200 27/22
           Q1008 NOSIG RMK OCNL LTG CC TS SW MOV NE=
####018000173####
SPAU31 KWBC 080833
SPECI
YSSY 080830Z 21015KT 5000 SHRA FEW008 SCT020 BKN050 13/12 Q1026
FM0830 19015KT 9999 -SHRA SCT025 BKN040 INTER 0830/1130 5000 SHRA
BKN010=
####018000841####
SAUR30 UKMS 080830
METAR UKBB 080830Z 30003MPS 270V340 9999 BKN018 23/19
         Q1014 88CLRD95    NOSIG=
METAR UKHH 080830Z VRB01MPS 9999 BKN040 BKN200 28/15
         Q1014 080///65 NOSIG=
METAR UKOO 080830Z 35004MPS 300V020 CAVOK 24/17 Q1014
          34090070 NOSIG=
METAR UKDE 080830Z 22003MPS 160V270 9999 SCT050 27/18
          Q1014 20CLRD70 NOSIG=
METAR UKDD 080830Z 20002MPS 9999 BKN033CB 28/19 Q1014
          08090070 TEMPO VRB10G15MPS -TSRA SQ
         BKN020CB=
METAR UKFF 080830Z 11002MPS 060V160 9999 FEW033 26/16
          Q1013 19010070 NOSIG=
METAR UKLL 080830Z 30004MPS 250V350 9999 SCT033CB
         BKN033 17/12 Q1020 31210365 NOSIG=
METAR UKCC 080830Z 00000MPS CAVOK 28/16 Q1015
         08090070 NOSIG=
METAR UKDR 080830Z 23003MPS 170V270 9999 SCT033
         OVC200  27/20 Q1013 1809//70 NOSIG=
####018000208####
SPAU31 YBBN 080832
SPECI YSSY 080830Z 21015KT 5000 SHRA FEW008 SCT020 BKN050 13/12
Q1026
RMK VIS REDUCED TO EAST AND SOUTH
FM0830 19015KT 9999 -SHRA SCT025 BKN040
INTER 0830/1130 5000 SHRA BKN010=
####018000092####
SAPQ31 KWBC 080800 RRB
METAR
PGRO 080826Z 09012G17KT 7SM FEW015 SCT040CB 28/25 A2988=
####018000511####
SAUS43 KWBC 080800 RRH
METAR
KC75 080826Z AUTO 15003KT 5SM -RA OVC065 24/24 A3002=
KIGQ 080820Z AUTO 00000KT 7SM BKN041 24/22 A3004=
KMQB 080825Z AUTO 23004KT 10SM OVC006 23/23 A3004=
KMWA 080825Z AUTO 00000KT 10SM CLR 25/24 A3005=
KSAR 080825Z AUTO 19004KT 7SM CLR 26/23 A3004=
KSLO 080820Z AUTO 18004KT 10SM CLR 24/21 A3004=
KTAZ 080825Z AUTO 00000KT 5SM BR CLR 23/23 A3003=
KTIP 080825Z AUTO 00000KT 10SM BKN100 25/24 A3003=
KVYS 080825Z AUTO 00000KT 4SM -RA BKN007 OVC010 23/22 A3003=
####018000091####
SAGH20 DGAA 080700
METAR DGAA 080700Z 29004KT 4000 BR FEW013 BKN100 25/23 Q1014 NOSIG=
####018000091####
SPUS51 KWBC 080833
SPECI
KAUG 080830Z AUTO 17005KT 6SM BR BKN007 OVC041 21/19 A3007=
####018000131####
SAUS44 KWBC 080800 RRF
METAR
K11R 080826Z AUTO 07004KT 7SM CLR 25/23 A2994=
KOLV 080835Z AUTO 00000KT 8SM CLR 23/23 A3007=
####018000107####
SAUS52 KWBC 080800 RRD
METAR
KSEP 080825Z AUTO 00000KT 10SM BKN011 BKN065 BKN075 23/21
     A3001=
####018000121####
SAUS53 KWBC 080800 RRG
METAR
KEHA 080828Z AUTO 35004KT 18/16=
KLNC 080825Z AUTO 00000KT 10SM BKN014 24/24 A3000=
####018000073####
SPUS72 KWBC 080833
SPECI
KBFM 080830Z 34003KT 9SM CLR 24/23 A3003=
####018000081####
SPUS73 KWBC 080833
SPECI
KOSH 080830Z AUTO 00000KT 9SM FEW006 22/21 A2997=
####018000075####
SACN50 CWAO 080830
VOC SA 0830 AUTO8 M M M M/14/09/0000/M/M M 68MM=

####018000075####
SACN50 CWAO 080830
VOU SA 0830 AUTO8 M M M M/23/09/1101/M/M M 57MM=

####018000075####
SACN50 CWAO 080830
WHC SA 0830 AUTO8 M M M M/20/13/MMMM/M/M M 99MM=

####018000075####
SACN50 CWAO 080815
VOC SA 0815 AUTO8 M M M M/14/09/0000/M/M M 99MM=

####018000075####
SACN95 CWAO 080830
WWA SA 0830 AUTO8 M M M M/21/09/0201/M/M M 61MM=

####018000163####
SAGH20 DGAA 080700
METAR DGAA 080700Z 29004KT 4000 BR FEW013 BKN100 25/23 Q1014 NOSIG=
METAR DGTK NIL=
METAR DGSI NIL=
METAR DGLE NIL=
METAR DGSN NIL=
####018000083####
SAAB31 LATI 080830
METAR LATI 080830Z 34006KT 270V020 CAVOK 26/13 Q1016 NOSIG=
####018000086####
SAQT99 OTBD 080830
METAR OTBD 080830Z 03011KT 360V060 6000 NSC 36/29 Q1000 NOSIG=
####018000860####
SAUR30 UKMS 080830
METAR UKBB 080830Z 30003MPS 270V340 9999 BKN018 23/19
         Q1014 88CLRD95    NOSIG=
METAR UKHH 080830Z VRB01MPS 9999 BKN040 BKN200 28/15
         Q1014 080///65 NOSIG=
METAR UKOO 080830Z 35004MPS 300V020 CAVOK 24/17 Q1014
          34090070 NOSIG=
METAR UKDE 080830Z 22003MPS 160V270 9999 SCT050 27/18
          Q1014 20CLRD70 NOSIG=
METAR UKDD 080830Z 20002MPS 9999 BKN033CB 28/19 Q1014
          08090070 TEMPO VRB10G15MPS -TSRA SQ
         BKN020CB=
METAR UKFF 080830Z 11002MPS 060V160 9999 FEW033 26/16
          Q1013 19010070 NOSIG=
METAR UKLL 080830Z 30004MPS 250V350 9999 SCT033CB
         BKN033 17/12 Q1020 31210365 NOSIG=
METAR UKCC 080830Z 00000MPS CAVOK 28/16 Q1015
         08090070 NOSIG=
METAR UKDR 080830Z 23003MPS 170V270 9999 SCT033
         OVC200  27/20 Q1013 1809//70 NOSIG=
####018000079####
SAUK34 EGGY 080820 RRB
METAR EGHD 080820Z 00000KT 9999 FEW025 17/12 Q1019=
####018000092####
SAUZ31 UTTW 080830
METAR UTSA 080830Z 02007MPS 9999 NSC 40/05 Q1009 R88/CLRD70
NOSIG=
####018000478####
SAYG31 LYBM 080830
METAR LYBE 080830Z 29009KT CAVOK 18/15 Q1022 NOSIG=
METAR LYBT 080830Z 30005KT 260V330 CAVOK 19/16 Q1021 NOSIG=
METAR LYKV 080830Z 32007KT 9999 SCT035 17/16 Q1022 NOSIG=
METAR LYNI 080830Z 33007KT 9999 SCT017 OVC033 15/13 Q1020 NOSIG=
METAR LYPG 080830Z NIL=
METAR LYPR 080830Z NIL=
METAR LYTV 080830Z 31005KT 240V030 9999 FEW053 26/08 Q1018 NOSIG=
METAR LYUZ 080830Z 32007KT 270V350 9999 BKN020 12/10 Q1023 NOSIG=
METAR LYVR 080830Z NIL=
####018000261####
SACZ31 LKPW 080830
METAR LKKV 080830Z VRB01KT CAVOK 20/11 Q1024=
METAR LKMT 080830Z 07003KT 010V170 9999 FEW040 19/10 Q1023 NOSIG=
METAR LKPR 080830Z 18004KT 120V210 CAVOK 21/08 Q1024 NOSIG=
METAR LKTB 080830Z 33008KT 260V010 CAVOK 21/08 Q1023 NOSIG=
####018001619####
SPZZ40 KAWN 080833 RRH
SPECI CWZZ 080829Z AUTO ///// 3SM OVC017 OVC069 11/ A2981=
SPECI CYFS 080829Z 30003KT 15SM BKN045 RMK SC5=
SPECI CYPQ 080828Z AUTO ///// 5/8SM CLR 20/20 A3003=
SPECI EYVI 080829Z 28009KT 240V300 7000 BKN008 OVC030 15/14 Q1014 RERA
      NOSIG=
SPECI KDOV 080828Z AUTO 00000KT 2 1/2SM BR CLR 24/24 A2998 RMK AO2
      VIS 1 1/2 RWY19 SLP155=
SPECI KEGI 080830Z AUTO 00000KT 2SM R18/2000V5500FT BR CLR 22/22 A3002
      RMK AO2 SLP165 $=
SPECI KEGI 080831Z AUTO 00000KT 2 1/2SM R18/2400V5500FT BR CLR 22/22
      A3002 RMK AO2 SLP165 $=
SPECI KNSE 080823Z AUTO 00000KT 1/2SM FG CLR 23/21 A3002 RMK AO2 $=
SPECI KNSE 080823Z AUTO 00000KT 1/2SM FG CLR 23/21 A3002 RMK AO2 $=
SPECI KWRI 080831Z AUTO 00000KT 1/4SM R18/0500V1800FT R24/0600V2200FT
      FG VV002 24/24 A2999 RMK AO2 SLP155 $=
SPECI LFRL 080829Z 34005KT 300V020 9999 SCT013 BKN230 20/16 Q1019 RMK
      B3=
PATC SP 0835 AWOS CLR BLO 120 10 50/44/0105/016=
SPECI PGUA 080831Z AUTO 08013KT 10SM SCT018 BKN025 27/ A2987 RMK AO2
      SLP098 VISNO RWY24L $=
SPECI RJCN 080822Z 08005KT 3200 TSRA BR BKN002 BKN003 14/14 Q1009 RMK
      5ST002 7ST003 A2982 FBL TS 20KM W MOV NE=
SPECI RJTH 080822Z 22011KT 190V250 4800 SHRA BR FEW003 SCT007 BKN012
      23/23 Q1012 RMK 1ST003 4ST007 5ST012 A2990=
SPECI TTCP 080826Z 08006KT 6000 -TSRA FEW012CB SCT038 25/24 Q1012=
SPECI YSNF 080830Z 10012KT 6000 -RA SCT010 BKN017 14/12 Q1017=
SPECI YSSY 080830Z 21015KT 5000 SHRA FEW008 SCT020 BKN050 13/12 Q1026
      FM0830 19015KT 9999 -SHRA SCT025 BKN040 INTER 0830/1130 5000
      SHRA BKN010=
####018000100####
SAAJ31 UBBB 080830
METAR UBBG 080830Z 06007KT 9999 SCT083 33/17 Q1011 NOSIG RMK
R30R/CLRD70 =
####018000862####
SAUR30 UKMS 080830
METAR UKBB 080830Z 30003MPS 270V340 9999 BKN018 23/19
         Q1014 88CLRD95    NOSIG=
METAR UKHH 080830Z VRB01MPS 9999 BKN040 BKN200 28/15 
         Q1014 080///65 NOSIG=
METAR UKOO 080830Z 35004MPS 300V020 CAVOK 24/17 Q1014
          34090070 NOSIG=
METAR UKDE 080830Z 22003MPS 160V270 9999 SCT050 27/18
          Q1014 20CLRD70 NOSIG=
METAR UKDD 080830Z 20002MPS 9999 BKN033CB 28/19 Q1014
          08090070 TEMPO VRB10G15MPS -TSRA SQ
         BKN020CB=
METAR UKFF 080830Z 11002MPS 060V160 9999 FEW033 26/16
          Q1013 19010070 NOSIG=
METAR UKLL 080830Z 30004MPS 250V350 9999 SCT033CB 
         BKN033 17/12 Q1020 31210365 NOSIG=
METAR UKCC 080830Z 00000MPS CAVOK 28/16 Q1015
         08090070 NOSIG=
METAR UKDR 080830Z 23003MPS 170V270 9999 SCT033
         OVC200  27/20 Q1013 1809//70 NOSIG=
####018000098####
SAUZ31 UTTW 080830
METAR UTNN 080830Z 19006MPS 160V230 CAVOK 42/08 Q1008 R15/CLRD70 
NOSIG=
####018000075####
SACN88 CWAO 080830
ABB SA 0830 AUTO7 M M M M/18/17/1802/M/M M 64MM=

####018000085####
SPCN51 CWAO 080832
SPECI CWZZ 080832Z AUTO ///// 9SM OVC016 OVC069 11/ A2981=

####018000073####
SAEW37 LEMM 080800 RRA
METAR LEGT 080800Z 06007KT CAVOK 27/12 Q1019=
####018002998####
SAUS20 KNKA 080833
METAR K1F0 080827Z AUTO 00000KT 10SM BKN026 OVC033 24/24 A3000 
     RMK AO2=
METAR K36U 080835Z AUTO 00000KT 10SM CLR 10/05 A3020 RMK AO2=
METAR K4O4 080828Z AUTO 07003KT 7SM SCT001 BKN012 23/22 A3004 RMK 
     AO2=
METAR KADH 080830Z AUTO 00000KT 5SM BR SCT004 BKN008 BKN070 23/22 
     A3002 RMK AO2=
METAR KADM 080830Z AUTO 36003KT 10SM OVC033 23/23 A3001 RMK AO2=
METAR KAIK 080835Z AUTO 28004KT 10SM CLR 22/22 A3004 RMK AO2 PNO=
METAR KALM 080830Z AUTO 31010KT 10SM CLR 20/14 A3013 RMK AO2=
METAR KARW 080835Z AUTO 26006KT 10SM CLR 24/18 A2997 RMK AO2=
METAR KATS 080830Z AUTO 36010KT 7SM RA FEW024 SCT035 OVC047 18/17 
     A3015 RMK AO2=
METAR KAXS 080830Z AUTO 05005KT 10SM -DZ CLR 24/22 A3006 RMK AO2 
     T02360216=
METAR KAXX 080830Z AUTO 00000KT 10SM CLR 05/04 A3047 RMK AO2=
METAR KBDN 080835Z AUTO 30005KT 10SM CLR 18/03 A3010 RMK AO2 =
SPECI KBDR 080832Z AUTO 09007KT 1SM BR OVC002 24/23 A3003 RMK AO2=
METAR KBVS 080830Z AUTO 05005KT 10SM CLR 19/16 A2997 RMK A01 P000=
METAR KCLK 080833Z AUTO 01004KT 10SM BKN075 22/21 A3007 RMK AO2=
METAR KCQB 080830Z AUTO 36004KT 10SM 24/23 A3003 RMK AO2 TSNO=
METAR KCUH 080830Z AUTO 02003KT 10SM BKN016 OVC046 24/23 A3003 
     RMK AO2=
SPECI KDDH 080832Z AUTO 00000KT 2SM BR CLR 19/18 A3005 RMK AO2=
METAR KDUA 080837Z AUTO 16004KT 10SM CLR 25/23 A3001 RMK AO2=
METAR KFDW 080835Z AUTO 27004KT 10SM CLR 26/17 A3000 RMK AO1=
METAR KFET 080830Z AUTO 34003KT 10SM CLR 18/17 A3014 RMK AO2=
METAR KGCD 080830Z AUTO 10010KT 10SM CLR 16/04 A3011 RMK AO2 
     T01580043=
METAR KGCM 080835Z AUTO 00000KT 10SM BKN012 BKN017 BKN040 22/22 
     A3005 RMK AO2 LTG DSNT SW AND W=
SPECI KGFL 080832Z AUTO 00000KT 2SM BR CLR 21/21 A3002 RMK AO2=
METAR KGLY 080835Z AUTO 00000KT 7SM SCT004 SCT008 BKN090 23/23 
     A3004 RMK AO2 =
SPECI KHIB 080832Z AUTO 00000KT 3/4SM BR VV001 09/09 A3005 RMK AO2=
SPECI KHZY 080832Z AUTO 00000KT 3/4SM BR CLR 19/18 A3008 RMK AO2=
METAR KIDP 080830Z AUTO 36004KT 10SM SCT037 21/20 A3003 RMK AO2=
METAR KIZA 080829Z AUTO 00000KT 10SM OVC009 13/11 A2991 RMK AO2=
METAR KJSV 080830Z AUTO 00000KT 10SM OVC028 23/22 A3003 RMK AO2=
METAR KL35 080831Z AUTO 00000KT 10SM CLR 07/M06 A3018 RMK AO2=
METAR KLAM 080830Z AUTO 00000KT 10SM CLR 15/09 A3037 RMK AO2=
METAR KLRU 080831Z AUTO 04009KT 10SM SCT120 19/15 A3016 RMK AO2=
SPECI KLUK 080832Z AUTO 00000KT 2SM R21L/2800V6000FT BR CLR 22/21 
    A3006 RMK AO2=
METAR KMEZ 080835Z AUTO 00000KT 10SM OVC014 26/23 A3006 RMK AO2=
SPECI KMMK 080832Z AUTO 00000KT 2 1/2SM BR BKN012 OVC080 23/22 A3003 
    RMK AO2=
METAR KMYR 080835Z AUTO 29008KT 10SM CLR 26/19 A2996 RMK AO1=
METAR KOAJ 080835Z AUTO 00000KT 10SM CLR 23/21 A2991 RMK AO1=
METAR KOCF 080835Z AUTO 00000KT 3SM FEW002 21/21 A3000 RMK AO1=
METAR KOKM 080831Z AUTO 07003KT 10SM SCT003 OVC013 24/24 A3002 
     RMK AO1 LTG DSNT N AND NW=
METAR KPSO 080835Z AUTO 00000KT 10SM CLR 11/06 A3039 RMK AO2=
####018000584####
SAUS20 KNKA 080833
METAR KPTS 080830Z AUTO 00000KT 10SM CLR 22/22 A3003 RMK AO2 
     T02200224=
SPECI KRVS 080832Z 00000KT 3SM TSRA BR BKN019 OVC080 23/23 A3002 RMK 
    AO2 LTG DSNT NE AND SW P0033=
METAR KSOP 080835Z AUTO 00000KT 10SM CLR 24/17 A2996 RMK AO1=
METAR KSVC 080830Z AUTO 07021KT 7SM -RA FEW020 BKN036 OVC045 
     17/14 A3020 RMK AO2 P0004=
METAR KTMK 080833Z AUTO 14004KT 10SM OVC006 13/12 A2996 RMK AO2=
METAR KUDG 080835Z 29003KT 10SM BKN090 26/18 A2997 RMK AO1=
METAR KWWR 080829Z AUTO 04007KT 10SM CLR 22/21 A3014 RMK AO2 
     T02210207=
####018002691####
SAUS99 KWBC 080834
METAR
KPTS 080830Z AUTO 00000KT 10SM CLR 22/22 A3003 RMK AO2
     T02200224=
KSOP 080835Z AUTO 00000KT 10SM CLR 24/17 A2996 RMK AO1=
KSVC 080830Z AUTO 07021KT 7SM -RA FEW020 BKN036 OVC045 17/14 A3020
     RMK AO2 P0004=
KTMK 080833Z AUTO 14004KT 10SM OVC006 13/12 A2996 RMK AO2=
KUDG 080835Z 29003KT 10SM BKN090 26/18 A2997 RMK AO1=
KWWR 080829Z AUTO 04007KT 10SM CLR 22/21 A3014 RMK AO2
     T02210207=
K1F0 080827Z AUTO 00000KT 10SM BKN026 OVC033 24/24 A3000 RMK
     AO2=
K36U 080835Z AUTO 00000KT 10SM CLR 10/05 A3020 RMK AO2=
K4O4 080828Z AUTO 07003KT 7SM SCT001 BKN012 23/22 A3004 RMK
     AO2=
KADH 080830Z AUTO 00000KT 5SM BR SCT004 BKN008 BKN070 23/22 A3002
     RMK AO2=
KADM 080830Z AUTO 36003KT 10SM OVC033 23/23 A3001 RMK AO2=
KAIK 080835Z AUTO 28004KT 10SM CLR 22/22 A3004 RMK AO2 PNO=
KALM 080830Z AUTO 31010KT 10SM CLR 20/14 A3013 RMK AO2=
KARW 080835Z AUTO 26006KT 10SM CLR 24/18 A2997 RMK AO2=
KATS 080830Z AUTO 36010KT 7SM RA FEW024 SCT035 OVC047 18/17 A3015
     RMK AO2=
KAXS 080830Z AUTO 05005KT 10SM -DZ CLR 24/22 A3006 RMK AO2
     T02360216=
KAXX 080830Z AUTO 00000KT 10SM CLR 05/04 A3047 RMK AO2=
KBDN 080835Z AUTO 30005KT 10SM CLR 18/03 A3010 RMK AO2=
KBVS 080830Z AUTO 05005KT 10SM CLR 19/16 A2997 RMK A01 P000=
KCLK 080833Z AUTO 01004KT 10SM BKN075 22/21 A3007 RMK AO2=
KCQB 080830Z AUTO 36004KT 10SM 24/23 A3003 RMK AO2 TSNO=
KCUH 080830Z AUTO 02003KT 10SM BKN016 OVC046 24/23 A3003 RMK
     AO2=
KDUA 080837Z AUTO 16004KT 10SM CLR 25/23 A3001 RMK AO2=
KFDW 080835Z AUTO 27004KT 10SM CLR 26/17 A3000 RMK AO1=
KFET 080830Z AUTO 34003KT 10SM CLR 18/17 A3014 RMK AO2=
KGCD 080830Z AUTO 10010KT 10SM CLR 16/04 A3011 RMK AO2
     T01580043=
KGCM 080835Z AUTO 00000KT 10SM BKN012 BKN017 BKN040 22/22 A3005
     RMK AO2 LTG DSNT SW AND W=
KGLY 080835Z AUTO 00000KT 7SM SCT004 SCT008 BKN090 23/23 A3004 RMK
     AO2=
KIDP 080830Z AUTO 36004KT 10SM SCT037 21/20 A3003 RMK AO2=
KIZA 080829Z AUTO 00000KT 10SM OVC009 13/11 A2991 RMK AO2=
KJSV 080830Z AUTO 00000KT 10SM OVC028 23/22 A3003 RMK AO2=
KL35 080831Z AUTO 00000KT 10SM CLR 07/M06 A3018 RMK AO2=
KLAM 080830Z AUTO 00000KT 10SM CLR 15/09 A3037 RMK AO2=
KLRU 080831Z AUTO 04009KT 10SM SCT120 19/15 A3016 RMK AO2=
KMEZ 080835Z AUTO 00000KT 10SM OVC014 26/23 A3006 RMK AO2=
KMYR 080835Z AUTO 29008KT 10SM CLR 26/19 A2996 RMK AO1=
KOAJ 080835Z AUTO 00000KT 10SM CLR 23/21 A2991 RMK AO1=
KOCF 080835Z AUTO 00000KT 3SM FEW002 21/21 A3000 RMK AO1=
KOKM 080831Z AUTO 07003KT 10SM SCT003 OVC013 24/24 A3002 RMK AO1
     LTG DSNT N AND NW=
KPSO 080835Z AUTO 00000KT 10SM CLR 11/06 A3039 RMK AO2=
####018000605####
SPUS99 KWBC 080834
SPECI
KRVS 080832Z 00000KT 3SM TSRA BR BKN019 OVC080 23/23 A3002 RMK AO2
     LTG DSNT NE AND SW P0033=
KBDR 080832Z AUTO 09007KT 1SM BR OVC002 24/23 A3003 RMK AO2=
KDDH 080832Z AUTO 00000KT 2SM BR CLR 19/18 A3005 RMK AO2=
KGFL 080832Z AUTO 00000KT 2SM BR CLR 21/21 A3002 RMK AO2=
KHIB 080832Z AUTO 00000KT 3/4SM BR VV001 09/09 A3005 RMK AO2=
KHZY 080832Z AUTO 00000KT 3/4SM BR CLR 19/18 A3008 RMK AO2=
KLUK 080832Z AUTO 00000KT 2SM R21L/2800V6000FT BR CLR 22/21 A3006
     RMK AO2=
KMMK 080832Z AUTO 00000KT 2 1/2SM BR BKN012 OVC080 23/22 A3003 RMK
     AO2=
####018000080####
SAQB31 LQBK 080830
METAR LQBK 080830Z 32004KT 9999 FEW033 21/11 Q1022 NOSIG=
####018000392####
SACN86 KWBC 080834
METAR CWNB 080800Z AUTO RMK AO1 56004=
METAR CWPS 080800Z AUTO 16008KT 24/ RMK AO1 SLP157 T0243 57004=
METAR CWPS 080800Z AUTO 16008KT 24/ RMK AO1 SLP157 T0243 57004=
METAR CWPS 080800Z AUTO 16008KT 24/ RMK AO1 SLP157 T0243 57004=
METAR CWPS 080800Z AUTO 16008KT 24/ RMK AO1 SLP157 T0243 57004=
METAR CWPS 080800Z AUTO 16008KT 24/ RMK AO1 SLP157 T0243 57004=
####018000186####
SACN87 KWBC 080834
METAR CWWS 080800Z AUTO 30015KT 17/11 RMK AO1 PK WND 31020/0759
SLP130 T01670112 53001=
METAR CWQS 080800Z AUTO 36019KT 12/ RMK AO1 PK WND 35023/0746
T0121=
####018000257####
SACZ31 LKPW 080830
METAR LKKV 080830Z VRB01KT CAVOK 20/11 Q1024=
METAR LKMT 080830Z 07003KT 010V170 9999 FEW040 19/10 Q1023 NOSIG=
METAR LKPR 080830Z 18004KT 120V210 CAVOK 21/08 Q1024 NOSIG=
METAR LKTB 080830Z 33008KT 260V010 CAVOK 21/08 Q1023 NOSIG=
####018000107####
SACN97 KWBC 080834
METAR CXTV 080800Z AUTO 29011KT 06/ RMK AO1 PK WND 30017/0741
SLP166 T0059 52014=
####018000080####
SACN95 KWBC 080834
METAR CWWA 080830Z AUTO 02001KT 21/09 RMK AO1 T02060091=
####018000598####
SACN94 KWBC 080834
METAR CWRY 080800Z AUTO 29006KT 10/08 RMK AO1 SLP221 T01010080
55000=
METAR CWRY 080800Z AUTO 29006KT 10/08 RMK AO1 SLP221 T01010080
55000=
METAR CWRY 080800Z AUTO 29006KT 10/08 RMK AO1 SLP221 T01010080
55000=
METAR CWRY 080800Z AUTO 29006KT 10/08 RMK AO1 SLP221 T01010080
55000=
METAR CWSK 080830Z AUTO 04002KT 16/11 RMK AO1 T01600112=
METAR CWRY 080800Z AUTO 29006KT 10/08 RMK AO1 SLP221 T01010080
55000=
METAR CWRY 080800Z AUTO 29006KT 10/08 RMK AO1 SLP221 T01010080
55000=
METAR CWRY 080800Z AUTO 29006KT 10/08 RMK AO1 SLP221 T01010080
55000=
####018000095####
SAUZ31 UTTW 080830
METAR UTNN 080830Z 19006MPS 160V230 CAVOK 42/08 Q1008 R15/CLRD70
NOSIG=
####018000336####
SAIE31 EIDB 080830
METAR EIDW 080830Z 22014KT 9999 FEW023 BKN180 15/10 Q1015 NOSIG=
METAR EINN 080830Z 18008KT 9999 FEW014 SCT033 BKN045 15/11 Q1015
     NOSIG=
METAR EICK 080830Z 21010KT 9999 -RA FEW008 SCT015 BKN080 14/12 Q1016
     NOSIG=
METAR EIKN 080830Z 22009KT 170V250 9999 FEW010 SCT016 BKN050 13/09
     Q1013 NOSIG=
####018000098####
SAAJ31 UBBB 080830
METAR UBBG 080830Z 06007KT 9999 SCT083 33/17 Q1011 NOSIG RMK
R30R/CLRD70 =
####018000107####
SAGG31 UGTB 080830
METAR UGTB 080830Z 08002KT 9999 SCT050 BKN100 32/20 Q1014 NOSIG RMK
      31CLRD80=
####018000165####
SAUS80 KWBC 080834
METAR
KPTS 080830Z AUTO 00000KT 10SM CLR 22/22 A3003 RMK AO2
     T02200224=
KIZA 080829Z AUTO 00000KT 10SM OVC009 13/11 A2991 RMK AO2=
####018000110####
SPPQ50 KWBC 080834
SPECI
PGRO 080826Z 09012G17KT 7SM FEW015 SCT040CB 28/25 A2988 RMK CB N
     MOV W=
####018000381####
SPXX60 KWBC 080834
SPECI
KDOV 080828Z AUTO 00000KT 2 1/2SM BR CLR 24/24 A2998 RMK AO2 VIS 1
     1/2 RWY19 SLP155=
KWRI 080831Z AUTO 00000KT 1/4SM R18/0500V1800FT R24/0600V2200FT FG
     VV002 24/24 A2999 RMK AO2 SLP155 $=
PATC SP 0835 AWOS CLR BLO 120 10 50/44/0105/016=
PGUA 080831Z AUTO 08013KT 10SM SCT018 BKN025 27/ A2987 RMK AO2
     SLP098 VISNO RWY24L $=
####018000248####
SPUS80 KWBC 080834
SPECI
KCNK 080831Z AUTO 36005KT 10SM SCT014 BKN021 OVC029 20/19 A3014
     RMK AO2=
KLWD 080831Z AUTO 00000KT 9SM FEW022 BKN029 21/20 A3008 RMK
     AO2=
KBDR 080832Z AUTO 09007KT 1SM BR OVC002 24/23 A3003 RMK AO2=
####018001297####
SPUS70 KWBC 080834
SPECI
KELD 080831Z AUTO 00000KT 1 3/4SM BR BKN001 23/23 A3003 RMK
     AO2=
KHWV 080831Z AUTO 15005KT 5SM BR OVC004 24/23 A3003 RMK AO2=
KLWC 080831Z AUTO 00000KT 9SM BKN023 OVC070 22/21 A3007 RMK AO2
     RAB11E28 P0000=
KLXT 080831Z AUTO 35005KT 8SM FEW005 SCT010 BKN100 23/22 A3006 RMK
     AO2=
KNSE 080823Z AUTO 00000KT 1/2SM FG CLR 23/21 A3002 RMK AO2 $=
KSBP 080831Z AUTO 31005KT 10SM OVC009 13/11 A2991 RMK AO2 $=
KTUL 080831Z 31003KT 6SM -TSRA BR BKN008 BKN047 OVC085 23/22 A3002
     RMK AO2 OCNL LTGIC OHD-S-SW TS OHD-S-SW MOV N P0008=
KUCP 080832Z AUTO 00000KT 3/4SM BR CLR 19/18 A3009 RMK AO2 $=
KNSE 080823Z AUTO 00000KT 1/2SM FG CLR 23/21 A3002 RMK AO2 $=
KNSE 080823Z AUTO 00000KT 1/2SM FG CLR 23/21 A3002 RMK AO2 $=
KRVS 080832Z 00000KT 3SM TSRA BR BKN019 OVC080 23/23 A3002 RMK AO2
     LTG DSNT NE AND SW P0033=
KDDH 080832Z AUTO 00000KT 2SM BR CLR 19/18 A3005 RMK AO2=
KGFL 080832Z AUTO 00000KT 2SM BR CLR 21/21 A3002 RMK AO2=
KHIB 080832Z AUTO 00000KT 3/4SM BR VV001 09/09 A3005 RMK AO2=
KHZY 080832Z AUTO 00000KT 3/4SM BR CLR 19/18 A3008 RMK AO2=
KLUK 080832Z AUTO 00000KT 2SM R21L/2800V6000FT BR CLR 22/21 A3006
     RMK AO2=
KMMK 080832Z AUTO 00000KT 2 1/2SM BR BKN012 OVC080 23/22 A3003 RMK
     AO2=
####018002555####
SAUS70 KWBC 080834
METAR
KSOP 080835Z AUTO 00000KT 10SM CLR 24/17 A2996 RMK AO1=
KSVC 080830Z AUTO 07021KT 7SM -RA FEW020 BKN036 OVC045 17/14 A3020
     RMK AO2 P0004=
KTMK 080833Z AUTO 14004KT 10SM OVC006 13/12 A2996 RMK AO2=
KUDG 080835Z 29003KT 10SM BKN090 26/18 A2997 RMK AO1=
KWWR 080829Z AUTO 04007KT 10SM CLR 22/21 A3014 RMK AO2
     T02210207=
K1F0 080827Z AUTO 00000KT 10SM BKN026 OVC033 24/24 A3000 RMK
     AO2=
K36U 080835Z AUTO 00000KT 10SM CLR 10/05 A3020 RMK AO2=
K4O4 080828Z AUTO 07003KT 7SM SCT001 BKN012 23/22 A3004 RMK
     AO2=
KADH 080830Z AUTO 00000KT 5SM BR SCT004 BKN008 BKN070 23/22 A3002
     RMK AO2=
KADM 080830Z AUTO 36003KT 10SM OVC033 23/23 A3001 RMK AO2=
KAIK 080835Z AUTO 28004KT 10SM CLR 22/22 A3004 RMK AO2 PNO=
KALM 080830Z AUTO 31010KT 10SM CLR 20/14 A3013 RMK AO2=
KARW 080835Z AUTO 26006KT 10SM CLR 24/18 A2997 RMK AO2=
KATS 080830Z AUTO 36010KT 7SM RA FEW024 SCT035 OVC047 18/17 A3015
     RMK AO2=
KAXS 080830Z AUTO 05005KT 10SM -DZ CLR 24/22 A3006 RMK AO2
     T02360216=
KAXX 080830Z AUTO 00000KT 10SM CLR 05/04 A3047 RMK AO2=
KBDN 080835Z AUTO 30005KT 10SM CLR 18/03 A3010 RMK AO2=
KBVS 080830Z AUTO 05005KT 10SM CLR 19/16 A2997 RMK A01 P000=
KCLK 080833Z AUTO 01004KT 10SM BKN075 22/21 A3007 RMK AO2=
KCQB 080830Z AUTO 36004KT 10SM 24/23 A3003 RMK AO2 TSNO=
KCUH 080830Z AUTO 02003KT 10SM BKN016 OVC046 24/23 A3003 RMK
     AO2=
KDUA 080837Z AUTO 16004KT 10SM CLR 25/23 A3001 RMK AO2=
KFDW 080835Z AUTO 27004KT 10SM CLR 26/17 A3000 RMK AO1=
KFET 080830Z AUTO 34003KT 10SM CLR 18/17 A3014 RMK AO2=
KGCD 080830Z AUTO 10010KT 10SM CLR 16/04 A3011 RMK AO2
     T01580043=
KGCM 080835Z AUTO 00000KT 10SM BKN012 BKN017 BKN040 22/22 A3005
     RMK AO2 LTG DSNT SW AND W=
KGLY 080835Z AUTO 00000KT 7SM SCT004 SCT008 BKN090 23/23 A3004 RMK
     AO2=
KIDP 080830Z AUTO 36004KT 10SM SCT037 21/20 A3003 RMK AO2=
KJSV 080830Z AUTO 00000KT 10SM OVC028 23/22 A3003 RMK AO2=
KL35 080831Z AUTO 00000KT 10SM CLR 07/M06 A3018 RMK AO2=
KLAM 080830Z AUTO 00000KT 10SM CLR 15/09 A3037 RMK AO2=
KLRU 080831Z AUTO 04009KT 10SM SCT120 19/15 A3016 RMK AO2=
KMEZ 080835Z AUTO 00000KT 10SM OVC014 26/23 A3006 RMK AO2=
KMYR 080835Z AUTO 29008KT 10SM CLR 26/19 A2996 RMK AO1=
KOAJ 080835Z AUTO 00000KT 10SM CLR 23/21 A2991 RMK AO1=
KOCF 080835Z AUTO 00000KT 3SM FEW002 21/21 A3000 RMK AO1=
KOKM 080831Z AUTO 07003KT 10SM SCT003 OVC013 24/24 A3002 RMK AO1
     LTG DSNT N AND NW=
KPSO 080835Z AUTO 00000KT 10SM CLR 11/06 A3039 RMK AO2=
####018000095####
SAAO32 KWBC 080800 RRC
METAR
GQNN 080830Z 20009KT 180V240 6000 FEW010 27/23 Q1011 NOSIG=
####018000080####
SPAK32 KWBC 080834
SPECI
PATC SP 0835 AWOS CLR BLO 120 10 50/44/0105/016=
####018000110####
SABX31 KWBC 080820 RRC
METAR
EBFN 080825Z 30005KT 9999 FEW042 SCT130 BKN190 21/15 Q1019 BLU
     BLU=
####018000087####
SPPA41 KWBC 080834
SPECI
PGUA 080831Z AUTO 08013KT 10SM SCT018 BKN025 27/ A2987=
####018000166####
SACY31 LCLK 080830
METAR LCLK 080830Z 20014KT 9999 FEW025 30/22 Q1008 NOSIG=
METAR LCPH 080830Z 21005KT 140V260 9999 FEW030 28/22 Q1009=
METAR LCNC 080830Z NIL=
####018000139####
SPJP41 KWBC 080834
SPECI
RJCN 080822Z 08005KT 3200 TSRA BR BKN002 BKN003 14/14 Q1009 RMK
5ST002 7ST003 A2982 FBL TS 20KM W MOV NE=
####018000140####
SPJP44 KWBC 080834
SPECI
RJTH 080822Z 22011KT 190V250 4800 SHRA BR FEW003 SCT007 BKN012
23/23 Q1012 RMK 1ST003 4ST007 5ST012 A2990=
####018000136####
SPKO31 KWBC 080834
SPECI
RKTN 080826Z 34005KT 9000 -TSRA FEW025CB BKN040 OVC200 27/22 Q1008
NOSIG RMK OCNL LTG CC TS SW MOV NE=
####018000119####
SPPA31 KWBC 080834
SPECI
PGUA 080831Z AUTO 08013KT 10SM SCT018 BKN025 27/ A2987 RMK AO2
SLP098 VISNO RWY24L $=
####018000085####
SPUS41 KWBC 080834
SPECI
KDOV 080828Z AUTO 00000KT 2 1/2SM BR CLR 24/24 A2998=
####018000114####
SAPA31 KWBC 080800 RRE
METAR
PGRO 080826Z 09012G17KT 7SM FEW015 SCT040CB 28/25 A2988 RMK CB N
     MOV W=
####018000308####
SARA31 KWBC 080800 RRE
METAR
UBBG 080830Z 06007KT 9999 SCT083 33/17 Q1011 NOSIG RMK
     R30R/CLRD70=
UTNN 080830Z 19006MPS 160V230 CAVOK 42/08 Q1008 R15/CLRD70
     NOSIG=
UTSA 080830Z 02007MPS 9999 NSC 40/05 Q1009 R88/CLRD70 NOSIG=
UTSB 080830Z 01007MPS CAVOK 39/05 Q1008 R01/CLRD70 NOSIG=
####018000095####
SAXX99 KWBC 080800 RRX
METAR
GMAD 080830Z NIL=
LKKV 080830Z VRB01KT CAVOK 20/11 Q1024=
####018000081####
SAUK31 KWBC 080820 RRB
METAR
EGHD 080820Z 00000KT 9999 FEW025 17/12 Q1019=
####018000749####
SAUR31 KWBC 080750 RRA
METAR
UKBB 080830Z 30003MPS 270V340 9999 BKN018 23/19 Q1014 88CLRD95
     NOSIG=
UKCC 080830Z 00000MPS CAVOK 28/16 Q1015 08090070 NOSIG=
UKDD 080830Z 20002MPS 9999 BKN033CB 28/19 Q1014 08090070 TEMPO
     VRB10G15MPS -TSRA SQ BKN020CB=
UKDE 080830Z 22003MPS 160V270 9999 SCT050 27/18 Q1014 20CLRD70
     NOSIG=
UKDR 080830Z 23003MPS 170V270 9999 SCT033 OVC200 27/20 Q1013
     1809//70 NOSIG=
UKFF 080830Z 11002MPS 060V160 9999 FEW033 26/16 Q1013 19010070
     NOSIG=
UKHH 080830Z VRB01MPS 9999 BKN040 BKN200 28/15 Q1014 080///65
     NOSIG=
UKLL 080830Z 30004MPS 250V350 9999 SCT033CB BKN033 17/12 Q1020
     31210365 NOSIG=
UKOO 080830Z 35004MPS 300V020 CAVOK 24/17 Q1014 34090070 NOSIG=
####018000119####
SPUS41 KWBC 080834
SPECI
KWRI 080831Z AUTO 00000KT 1/4SM R18/0500V1800FT R24/0600V2200FT FG
VV002 24/24 A2999=
####018000099####
SPUS42 KWBC 080834
SPECI
KTUL 080831Z 31003KT 6SM -TSRA BR BKN008 BKN047 OVC085 23/22 A3002=
####018000351####
SAEW33 LEMM 080830
METAR GCLP 080830Z 01022KT 9999 BKN017 23/18 Q1017 NOSIG=
METAR GCXO 080830Z 29014KT 0100 R30/0200N R12/0125N FG OVC000 
17/17 Q1020 NOSIG=
METAR GCTS 080830Z 06013KT 040V100 9999 OVC014 22/18 Q1017 NOSIG=
METAR GCRR 080830Z 01015KT 9999 SCT015 23/18 Q1017=
METAR GCFV 080830Z 04009KT 010V070 9999 BKN015 22/18 Q1017=
####018000139####
SAEW36 LEMM 080830
METAR GCLA 080830Z 01011KT 350V050 9999 BKN020 22/17 Q1019=
METAR GEML 080830Z 06006KT 020V110 CAVOK 25/20 Q1017=
####018000817####
SAEW32 LEMM 080830
METAR LEAS 080830Z 04003KT 350V080 9999 4000S SCT002 SCT008 
BKN013 19/18 Q1017 TEMPO 4000 TSRA SCT025CB=
METAR LEBB 080830Z VRB02KT 8000 NSC 26/20 Q1016 NOSIG=
METAR LECO 080830Z 18009KT 140V210 7000 FEW005 SCT008 20/19 Q1016 
RERA=
METAR LEGE 080830Z 04003KT 350V120 CAVOK 29/20 Q1019=
METAR LEST 080830Z 09008KT 060V130 8000 FEW018 17/17 Q1016 NOSIG=
METAR LEZG 080830Z 08009KT 060V120 CAVOK 28/18 Q1019=
METAR LESO 080830Z 02004KT 340V060 CAVOK 24/19 Q1016=
METAR LEVT 080830Z VRB01KT 9999 FEW035 26/17 Q1019=
METAR LERS 080830Z VRB03KT CAVOK 27/19 Q1019=
METAR LEMH 080830Z 22005KT 160V260 CAVOK 27/21 Q1020=
METAR LEAM 080830Z 09012KT 060V120 CAVOK 34/10 Q1017=
METAR LEGR 080830Z VRB01KT 9999 SCT060 29/12 Q1018=
METAR LERL 080830Z 35001KT CAVOK 30/11 Q1019=
####018000579####
SAEW31 LEMM 080830
METAR LEMD 080830Z 02005KT 340V060 CAVOK 28/14 Q1019 NOSIG=
METAR LEBL 080830Z 22011KT CAVOK 27/19 Q1019 NOSIG=
METAR LEPA 080830Z VRB02KT CAVOK 30/09 Q1020 NOSIG=
METAR LEZL 080830Z 28005KT 220V330 9999 SCT020 28/18 Q1015 NOSIG=
METAR LEMG 080830Z 11004KT 070V150 9999 FEW035 29/16 Q1016 NOSIG=
METAR LEVC 080830Z VRB01KT CAVOK 29/19 Q1019 NOSIG=
METAR LEAL 080830Z 09006KT 050V120 CAVOK 29/16 Q1019 NOSIG=
METAR LEIB 080830Z 08009KT 050V110 CAVOK 28/22 Q1019 NOSIG=
METAR LELC 080830Z NIL=
METAR LEVX 080830Z VRB01KT CAVOK 23/20 Q1014=
####018000088####
SPUS52 KWBC 080834
SPECI
KELD 080831Z AUTO 00000KT 1 3/4SM BR BKN001 23/23 A3003=
####018000096####
SPUS53 KWBC 080834
SPECI
KCNK 080831Z AUTO 36005KT 10SM SCT014 BKN021 OVC029 20/19 A3014=
####018000114####
SAAK48 PANC 080834
MTRASY
SPECI PASY 080833Z AUTO 02015KT 10SM OVC006 A2974 RMK AO2 CIG
 003V008 TSNO PNO
####018000312####
SAEW34 LEMM 080830
METAR LEDA 080830Z 09007KT 060V150 CAVOK 29/17 Q1020=
METAR LEJR 080830Z 25003KT 230V320 CAVOK 24/19 Q1016=
METAR LELL 080830Z 24004KT 200V290 CAVOK 27/14 Q1019=
METAR LEPP 080830Z 00000KT 9999 FEW060 28/16 Q1019=
METAR LEXJ 080830Z 27003KT 210V340 6000 SCT014 SCT020 23/19 Q1016=
####018000181####
SAEW35 LEMM 080830
METAR LESA 080830Z 00000KT CAVOK 29/16 Q1019=
METAR LEVD 080830Z 14005KT 080V170 CAVOK 27/12 Q1019=
METAR LEVS 080830Z 08004KT 030V130 CAVOK 27/12 Q1020=
####018000099####
SPUS72 KWBC 080834
SPECI
KTUL 080831Z 31003KT 6SM -TSRA BR BKN008 BKN047 OVC085 23/22 A3002=
####018000097####
SAUZ31 UTTW 080830
METAR UTNN 080830Z 19006MPS 160V230 CAVOK 42/08 Q1008 R15/CLRD70
NOSIG=
####018000089####
SAIL31 BICC 080830
METAR BIKF 080830Z 02023KT 9999 FEW017 SCT030 BKN080 09/04 Q0993=
####018000343####
SAIE31 EIDB 080830
METAR EIDW 080830Z 22014KT 9999 FEW023 BKN180 15/10 Q1015 NOSIG=
METAR EINN 080830Z 18008KT 9999 FEW014 SCT033 BKN045 15/11 Q1015
     NOSIG=
METAR EICK 080830Z 21010KT 9999 -RA FEW008 SCT015 BKN080 14/12 Q1016
     NOSIG=
METAR EIKN 080830Z 22009KT 170V250 9999 FEW010 SCT016 BKN050 13/09
     Q1013 NOSIG=
####018000109####
SAGG31 UGTB 080830
METAR UGTB 080830Z 08002KT 9999 SCT050 BKN100 32/20 Q1014 NOSIG RMK
      31CLRD80=
####018000082####
SPUS74 KWBC 080834
SPECI
KSBP 080831Z AUTO 31005KT 10SM OVC009 13/11 A2991=
####018000096####
SPUS81 KWBC 080834
SPECI
KCNK 080831Z AUTO 36005KT 10SM SCT014 BKN021 OVC029 20/19 A3014=
####018000088####
SPUS81 KWBC 080834
SPECI
KLWD 080831Z AUTO 00000KT 9SM FEW022 BKN029 21/20 A3008=
####018000220####
SPUS17 KAWN 080834 RRC
SPECI KAFF 080832Z AUTO 21004KT 10SM -DZ OVC024 13/13 A3040 RMK AO2
      DZB0832 SLP207=
SPECI KDOV 080828Z AUTO 00000KT 2 1/2SM BR CLR 24/24 A2998 RMK AO2
      VIS 1 1/2 RWY19 SLP155=
####018000660####
SARS18 KAWN 080800 RRH
METAR BIKF 080830Z 02023KT 9999 FEW017 SCT030 BKN080 09/04 Q0993=
METAR LUKK 080830Z 33007KT 270V360 9999 SCT016 21/15 Q1015 26CLRD65
      NOSIG=
METAR UBBB 080830Z 35024KT CAVOK 31/28 Q1011 NOSIG RMK R88CLRD70=
METAR UKBB 080830Z 30003MPS 270V340 9999 BKN018 23/19 Q1014 88CLRD95
      NOSIG=
METAR UKFF 080830Z 11002MPS 060V160 9999 FEW033 26/16 Q1013 19010070
      NOSIG=
METAR UKLL 080830Z 30004MPS 250V350 9999 SCT033CB BKN033 17/12 Q1020
      31210365 NOSIG=
METAR UKOO 080830Z 35004MPS 300V020 CAVOK 24/17 Q1014 34090070 NOSIG=
METAR UTTT 080830Z 26003MPS 210V330 CAVOK 37/08 Q1011 R26L/CLRD70 NOSIG=
####018000942####
SAUK KAWN 080800 RRH
METAR EGAE 080820Z 22013KT 9999 FEW018 SCT045 15/10 Q1012=
METAR EGBJ 080820Z 20003KT 9999 FEW024 17/12 Q1018=
METAR EGHD 080820Z 00000KT 9999 FEW025 17/12 Q1019=
METAR EGNC 080820Z 23011KT 9999 SCT030 SCT045 16/11 Q1014=
METAR EGNH 080820Z 23011KT 9999 FEW019 17/10 Q1016=
METAR EGNJ 080820Z 23012KT 9999 -RA SCT025 17/12 Q1017=
METAR EGPA 080820Z 19013KT 9999 FEW030 SCT044 15/11 Q1006=
METAR EGPC 080820Z 19014G24KT 9999 FEW024 SCT041 14/11 Q1007=
METAR EGPE 080820Z 21015KT 9999 FEW022 SCT048 15/09 Q1008=
METAR EGPL 080820Z 22020KT 9999 FEW018 15/11 Q1006=
METAR EGPM 080820Z 21020G30KT 9999 FEW012 SCT030 15/10 Q1004=
METAR EGPN 080820Z 24019KT 9999 FEW022 SCT048 15/12 Q1011=
METAR EGPO 080820Z 22020KT 9999 VCSH FEW014CB SCT030 13/10 Q1004=
METAR EGSC 080820Z 27007KT 240V300 8000 FEW012 BKN018 17/13 Q1018=
METAR COR EGSH 080820Z 24007KT 9999 -RA FEW011 BKN029 20/16 Q1018 NOSIG=
####018000346####
SAXX70 KAWN 080800 RRR
METAR KQEJ 080820Z AUTO 21004KT 7SM CLR 27/18 A2990 RMK A02=
METAR KQEL 080830Z AUTO 04002KT 7SM DZ SCT037 26/21 A2969 RMK A02=
METAR KQEQ 080830Z AUTO 22003KT 7SM CLR 25/20 A2980 RMK A02=
METAR KQEW 080830Z AUTO 04004KT 7SM CLR 27/19 A2981 RMK A02=
METAR KQFB 080830Z AUTO 12001KT 7SM CLR 25/21 A2991 RMK A02=
####018000404####
SAIR31 OIII 080830
METAR OIAW 080830Z NIL=
METAR OIFM 080830Z NIL=
METAR OIII 080830Z 11010KT CAVOK 38/M03 Q1014 A2996 879.6=
METAR OIKB 080830Z NIL=
METAR OIKK 080830Z NIL=
METAR OIMM 080830Z 06012KT CAVOK 38/M02 Q1015 A2997=
METAR OISS 080830Z 06008KT CAVOK 37/07 Q1014 A2996=
METAR OITT 080830Z 11014KT CAVOK 34/02 Q1015 A2999=
METAR OIZH 080830Z 34008KT CAVOK 36/M05 Q1013 A2994=
####018000105####
SAUS44 KMOB 080834 COR
MTRNSE
SPECI KNSE 080829Z AUTO 00000KT 1/2SM FG VV004 23/21 A3002 RMK AO2 $
####018000098####
SAMG20 FMMI 080830
METAR FMMI 080830Z 16009KT 090V190 9999 BKN016 SCT020 18/13 Q1027
NOSIG=
####018000097####
SAUZ31 UTTW 080830
METAR UTST 080830Z 19002MPS 120V250 CAVOK 41/04 Q1007 R88/CLRD70
NOSIG=
####018000096####
SPBU40 LBSM 080834
SPECI LBWN 080834Z 25005G11MPS 220V280 9999 BKN023 19/14 Q1014
 NOSIG=
####018000075####
SAEG31 HECA 080830
METAR HECA 080830Z 32006KT CAVOK 30/19 Q1011 NOSIG=
####018000131####
SPCN46 CWAO 080834
SPECI CYQA 080834Z AUTO 00000KT 3SM BR CLR 19/19 A3003 RMK SLP170
 DENSITY ALT 1400FT VIS VRB 1 3/4-3=

####018001712####
SAEU KAWN 080800 RRX
METAR EBFN 080825Z 30005KT 9999 FEW042 SCT130 BKN190 21/15 Q1019 BLU
      BLU=
METAR EGHD 080820Z 00000KT 9999 FEW025 17/12 Q1019=
METAR EICK 080830Z 21010KT 9999 -RA FEW008 SCT015 BKN080 14/12 Q1016
      NOSIG=
METAR EIDW 080830Z 22014KT 9999 FEW023 BKN180 15/10 Q1015 NOSIG=
METAR EIKN 080830Z 22009KT 170V250 9999 FEW010 SCT016 BKN050 13/09
      Q1013 NOSIG=
METAR EINN 080830Z 18008KT 9999 FEW014 SCT033 BKN045 15/11 Q1015 NOSIG=
METAR EPGD 080830Z 31009KT 280V340 CAVOK 20/11 Q1021=
METAR EPKK 080830Z 29010KT 260V320 9999 FEW046 20/08 Q1022=
METAR EPKT 080830Z 31009KT CAVOK 19/09 Q1023=
METAR EPPO 080830Z 32004KT CAVOK 21/09 Q1023=
METAR EPRZ 080830Z 32009KT 9999 FEW033 20/10 Q1021=
METAR EPWA 080830Z 29009KT 250V350 9999 FEW026 19/13 Q1021 NOSIG=
METAR EPWR 080830Z 26004KT 210V020 9999 FEW046 22/11 Q1024=
METAR LATI 080830Z 34006KT 270V020 CAVOK 26/13 Q1016 NOSIG=
METAR LEAS 080830Z 04003KT 350V080 9999 4000S SCT002 SCT008 BKN013
      19/18 Q1017 TEMPO 4000 TSRA SCT025CB=
METAR LEGT 080800Z 06007KT CAVOK 27/12 Q1019=
METAR LEST 080830Z 09008KT 060V130 8000 FEW018 17/17 Q1016 NOSIG=
METAR LEVT 080830Z VRB01KT 9999 FEW035 26/17 Q1019=
METAR LKKV 080830Z VRB01KT CAVOK 20/11 Q1024=
METAR LKMT 080830Z 07003KT 010V170 9999 FEW040 19/10 Q1023 NOSIG=
METAR LKPR 080830Z 18004KT 120V210 CAVOK 21/08 Q1024 NOSIG=
METAR LKTB 080830Z 33008KT 260V010 CAVOK 21/08 Q1023 NOSIG=
METAR LQBK 080830Z 32004KT 9999 FEW033 21/11 Q1022 NOSIG=
METAR LYBE 080830Z 29009KT CAVOK 18/15 Q1022 NOSIG=
METAR LYNI 080830Z 33007KT 9999 SCT017 OVC033 15/13 Q1020 NOSIG=
METAR LYTV 080830Z 31005KT 240V030 9999 FEW053 26/08 Q1018 NOSIG=
####018002348####
SAUS20 KNKA 080834
METAR KAFK 080830Z AUTO 35006KT 5SM BR CLR 20/20 A3010 RMK AO2 
     T02030195=
METAR KANW 080830Z AUTO 28003KT 10SM OVC110 17/15 A3023 RMK AO2 
     T01670151=
METAR KAUH 080830Z AUTO 36003KT 10SM CLR 16/15 A3018 RMK AO2 
     T01610150=
METAR KAUN 080830Z AUTO 00000KT 10SM CLR 21/13 A2987 RMK AO1=
METAR KBIE 080830Z AUTO 35004KT 10SM CLR 19/18 A3012 RMK AO2 
     T01930180=
METAR KBTA 080830Z AUTO 35008KT 10SM SCT023 20/17 A3012 RMK AO2 
     T01950171=
METAR KBVN 080830Z AUTO 32003KT 10SM BKN090 16/15 A3018 RMK AO2 
     T01570146=
SPECI KCEC 080833Z AUTO 23003KT 4SM BR OVC001 10/09 A2998 RMK AO2=
SPECI KDHT 080833Z AUTO 02014KT 10SM -RA FEW018 BKN030 OVC036 17/14 
    A3026 RMK AO2 PK WND 01027/0810 WSHFT 0804 RAB27 P0000=
METAR KDVO 080830Z AUTO 00000KT 10SM OVC010 13/11 A2994 RMK AO2=
SPECI KFNB 080833Z AUTO 34003KT 7SM BKN021 OVC120 22/21 A3008 RMK 
    AO2=
SPECI KFOK 080833Z AUTO 14005KT 4SM HZ SCT003 BKN012 BKN070 24/21 
    A3005 RMK AO2 TSNO=
METAR KGMJ 080835Z AUTO 00000KT 26/26 A3004 RMK AO2 PWINO=
METAR KHDE 080830Z AUTO 33006KT 10SM CLR 16/14 A3020 RMK AO2 
     T01570142=
METAR KHJH 080830Z AUTO 00000KT 10SM OVC021 19/18 A3015 RMK AO2 
     T01920178=
METAR KIBM 080830Z AUTO 13003KT 10SM OVC016 12/11 A3032 RMK AO2 
     T01240113=
METAR KJYR 080830Z AUTO 34004KT 10SM SCT024 16/15 A3016 RMK AO2=
METAR KLCG 080830Z AUTO 00000KT 10SM CLR 16/15 A3016 RMK AO2 
     T01570150=
METAR KLHM 080831Z AUTO 16009KT 10SM CLR 18/11 A2981 RMK AO1 
     T01840111=
SPECI KLHQ 080833Z AUTO 00000KT 2 1/2SM BR CLR 19/18 A3008 RMK AO2=
METAR KOJA 080830Z AUTO 00000KT 10SM SCT075 BKN085 22/21 A3008 
     RMK AO2=
METAR KONP 080831Z AUTO 22008KT 10SM OVC004 11/10 A2999 RMK AO1=
METAR KORS 080830Z AUTO 10SM CLR 17/12 A2994 RMK AO2=
METAR KOUN 080833Z AUTO 35003KT 10SM BKN024 OVC045 25/23 A3004 
     RMK AO2=
METAR KPLU 080830Z AUTO 00000KT 10SM FEW035 14/13 A2993 RMK AO2=
SPECI KSLK 080833Z AUTO 00000KT 4SM BR CLR 18/17 A3008 RMK AO2=
METAR KSNL 080832Z AUTO 36003KT 10SM SCT007 BKN010 OVC060 24/23 
     A3004 RMK AO2=
METAR KSRE 080830Z AUTO 00000KT 3SM DZ 24/24 A3001 RMK AO2=
METAR KTQH 080834Z AUTO 00000KT 10SM BKN022 23/23 A3004 RMK AO2=
METAR KWDG 080830Z AUTO 03006KT 10SM CLR 22/22 A3007 RMK AO2=
####018001815####
SAEU KAWN 080800 RRX
METAR LEAL 080830Z 09006KT 050V120 CAVOK 29/16 Q1019 NOSIG=
METAR LEAM 080830Z 09012KT 060V120 CAVOK 34/10 Q1017=
METAR LEBB 080830Z VRB02KT 8000 NSC 26/20 Q1016 NOSIG=
METAR LEBL 080830Z 22011KT CAVOK 27/19 Q1019 NOSIG=
METAR LECO 080830Z 18009KT 140V210 7000 FEW005 SCT008 20/19 Q1016 RERA=
METAR LEGE 080830Z 04003KT 350V120 CAVOK 29/20 Q1019=
METAR LEGR 080830Z VRB01KT 9999 SCT060 29/12 Q1018=
METAR LEIB 080830Z 08009KT 050V110 CAVOK 28/22 Q1019 NOSIG=
METAR LEMD 080830Z 02005KT 340V060 CAVOK 28/14 Q1019 NOSIG=
METAR LEMG 080830Z 11004KT 070V150 9999 FEW035 29/16 Q1016 NOSIG=
METAR LEMH 080830Z 22005KT 160V260 CAVOK 27/21 Q1020=
METAR LEPA 080830Z VRB02KT CAVOK 30/09 Q1020 NOSIG=
METAR LERS 080830Z VRB03KT CAVOK 27/19 Q1019=
METAR LESO 080830Z 02004KT 340V060 CAVOK 24/19 Q1016=
METAR LEVC 080830Z VRB01KT CAVOK 29/19 Q1019 NOSIG=
METAR LEVS 080830Z 08004KT 030V130 CAVOK 27/12 Q1020=
METAR LEVX 080830Z VRB01KT CAVOK 23/20 Q1014=
METAR LEZG 080830Z 08009KT 060V120 CAVOK 28/18 Q1019=
METAR LEZL 080830Z 28005KT 220V330 9999 SCT020 28/18 Q1015 NOSIG=
METAR LFBM 080830Z AUTO 11008KT 070V140 9999NDV NSC 28/16 Q1017=
METAR LFOA 080830Z AUTO 14006KT 090V190 9999NDV NSC 26/13 Q1019=
METAR LFOC 080830Z AUTO 18004KT 130V210 9999NDV NSC 27/11 Q1019=
METAR LFPC 080830Z 17005KT 130V220 CAVOK 25/14 Q1019=
METAR LFPV 080830Z AUTO /////KT 9999NDV NSC 25/13 Q1019=
METAR LRBS 080830Z 34003KT 300V020 9999 FEW019 BKN042 20/15 Q1016 NOSIG=
METAR LRCK 080830Z 36012KT 330V040 9999 SCT035 23/15 Q1014 NOSIG=
METAR LROP 080830Z 29003KT 230V360 9999 FEW040CB SCT044 20/15 Q1016
      880///95 NOSIG=
METAR LRSB 080830Z 35006KT 320V020 9999 BKN028 OVC083 15/11 Q1020=
METAR LRTR 080830Z 35008KT 320V030 9999 FEW023 SCT042 20/14 Q1020=
####018000069####
SALY31 HLLS 080830
METAR HLLS 080820Z 09015KT CAVOK 33/10 Q1017=
####018000506####
SPUS99 KWBC 080835
SPECI
KCEC 080833Z AUTO 23003KT 4SM BR OVC001 10/09 A2998 RMK AO2=
KDHT 080833Z AUTO 02014KT 10SM -RA FEW018 BKN030 OVC036 17/14
     A3026 RMK AO2 PK WND 01027/0810 WSHFT 0804 RAB27 P0000=
KFNB 080833Z AUTO 34003KT 7SM BKN021 OVC120 22/21 A3008 RMK
     AO2=
KFOK 080833Z AUTO 14005KT 4SM HZ SCT003 BKN012 BKN070 24/21 A3005
     RMK AO2 TSNO=
KLHQ 080833Z AUTO 00000KT 2 1/2SM BR CLR 19/18 A3008 RMK AO2=
KSLK 080833Z AUTO 00000KT 4SM BR CLR 18/17 A3008 RMK AO2=
####018001685####
SAUS99 KWBC 080835
METAR
KAFK 080830Z AUTO 35006KT 5SM BR CLR 20/20 A3010 RMK AO2
     T02030195=
KANW 080830Z AUTO 28003KT 10SM OVC110 17/15 A3023 RMK AO2
     T01670151=
KAUH 080830Z AUTO 36003KT 10SM CLR 16/15 A3018 RMK AO2
     T01610150=
KAUN 080830Z AUTO 00000KT 10SM CLR 21/13 A2987 RMK AO1=
KBIE 080830Z AUTO 35004KT 10SM CLR 19/18 A3012 RMK AO2
     T01930180=
KBTA 080830Z AUTO 35008KT 10SM SCT023 20/17 A3012 RMK AO2
     T01950171=
KBVN 080830Z AUTO 32003KT 10SM BKN090 16/15 A3018 RMK AO2
     T01570146=
KDVO 080830Z AUTO 00000KT 10SM OVC010 13/11 A2994 RMK AO2=
KGMJ 080835Z AUTO 00000KT 26/26 A3004 RMK AO2 PWINO=
KHDE 080830Z AUTO 33006KT 10SM CLR 16/14 A3020 RMK AO2
     T01570142=
KHJH 080830Z AUTO 00000KT 10SM OVC021 19/18 A3015 RMK AO2
     T01920178=
KIBM 080830Z AUTO 13003KT 10SM OVC016 12/11 A3032 RMK AO2
     T01240113=
KJYR 080830Z AUTO 34004KT 10SM SCT024 16/15 A3016 RMK AO2=
KLCG 080830Z AUTO 00000KT 10SM CLR 16/15 A3016 RMK AO2
     T01570150=
KLHM 080831Z AUTO 16009KT 10SM CLR 18/11 A2981 RMK AO1
     T01840111=
KOJA 080830Z AUTO 00000KT 10SM SCT075 BKN085 22/21 A3008 RMK
     AO2=
KONP 080831Z AUTO 22008KT 10SM OVC004 11/10 A2999 RMK AO1=
KORS 080830Z AUTO 10SM CLR 17/12 A2994 RMK AO2=
KOUN 080833Z AUTO 35003KT 10SM BKN024 OVC045 25/23 A3004 RMK
     AO2=
KPLU 080830Z AUTO 00000KT 10SM FEW035 14/13 A2993 RMK AO2=
KSNL 080832Z AUTO 36003KT 10SM SCT007 BKN010 OVC060 24/23 A3004
     RMK AO2=
KSRE 080830Z AUTO 00000KT 3SM DZ 24/24 A3001 RMK AO2=
KTQH 080834Z AUTO 00000KT 10SM BKN022 23/23 A3004 RMK AO2=
KWDG 080830Z AUTO 03006KT 10SM CLR 22/22 A3007 RMK AO2=
####018000496####
SAFR36 LFPW 080830
METAR LFGJ 080830Z AUTO 21004KT 160V260 9999NDV NSC 24/14 Q1021=
METAR LFMD 080830Z AUTO 18004KT 140V210 9999NDV NSC 29/22 Q1019=
METAR LFOT 080830Z AUTO VRB02KT 9999NDV NSC 27/12 Q1019=
METAR LFRC 080830Z AUTO 29004KT 260V340 9999NDV SCT012 19/16 Q1020=
METAR LFRG 080830Z AUTO 10003KT 020V160 9999NDV NSC 24/08 Q1020=
METAR LFBA 080830Z NIL=
METAR LFBE 080830Z NIL=
METAR LFJR 080830Z NIL=
METAR LFMH 080830Z NIL=
METAR LFPN 080830Z NIL=
METAR LFRK 080830Z NIL=
####018000103####
SAKO31 RKSI 080830
METAR RKSI 080830Z 31002KT 9000 FEW040 OVC120 24/19 Q1008 TEMPO
           -RA=
####018000441####
SAFR37 LFPW 080830
METAR LFAQ 080830Z AUTO 21005KT 9999NDV NSC 24/12 Q1020=
METAR LFBU 080830Z AUTO 13004KT 070V220 9999NDV NSC 27/15 Q1018=
METAR LFLN 080830Z AUTO VRB02KT 9999NDV NSC 25/15 Q1020=
METAR LFPM 080830Z 00000KT CAVOK 26/13 Q1019=
METAR LFSD 080830Z AUTO VRB02KT 9999NDV NSC 25/13 Q1020=
METAR LFTW 080830Z AUTO VRB03KT 9999NDV NSC 27/14 Q1020=
METAR LFRH 080830Z NIL=
METAR LFRQ 080830Z NIL=
METAR LFRT 080830Z NIL=
####018000385####
SARO31 LROM 080830
METAR LRBS 080830Z 34003KT 300V020 9999 FEW019 BKN042 20/15 Q1016
NOSIG=
METAR LRCK 080830Z 36012KT 330V040 9999 SCT035 23/15 Q1014 NOSIG=
METAR LROP 080830Z 29003KT 230V360 9999 FEW040CB SCT044 20/15 Q1016
880///95 NOSIG=
METAR LRSB 080830Z 35006KT 320V020 9999 BKN028 OVC083 15/11 Q1020=
METAR LRTR 080830Z 35008KT 320V030 9999 FEW023 SCT042 20/14 Q1020=
####018000094####
SPBU40 LBSM 080834
SPECI LBWN 080834Z 25005G11MPS 220V280 9999 BKN023 19/14 Q1014
 NOSIG=
####018000408####
SAFR31 LFPW 080830
METAR LFLL 080830Z 13004KT 100V160 CAVOK 26/14 Q1021 NOSIG=
METAR LFMN 080830Z 11004KT 9999 FEW060 28/21 Q1020 NOSIG=
METAR LFPG 080830Z 18005KT 160V220 CAVOK 26/11 Q1019 NOSIG=
METAR LFPO 080830Z 22004KT 180V270 CAVOK 26/12 Q1019 NOSIG=
METAR LFQQ 080830Z VRB02KT CAVOK 25/13 Q1019 NOSIG=
METAR LFRB 080830Z 10004KT 050V160 9999 OVC009 17/15 Q1019 NOSIG=
METAR LFRS 080830Z NIL=
####018000072####
SAEW37 LEMM 080800 RRA
METAR LEGT 080800Z 06007KT CAVOK 27/12 Q1019=
####018000569####
SAEW31 LEMM 080830
METAR LEMD 080830Z 02005KT 340V060 CAVOK 28/14 Q1019 NOSIG=
METAR LEBL 080830Z 22011KT CAVOK 27/19 Q1019 NOSIG=
METAR LEPA 080830Z VRB02KT CAVOK 30/09 Q1020 NOSIG=
METAR LEZL 080830Z 28005KT 220V330 9999 SCT020 28/18 Q1015 NOSIG=
METAR LEMG 080830Z 11004KT 070V150 9999 FEW035 29/16 Q1016 NOSIG=
METAR LEVC 080830Z VRB01KT CAVOK 29/19 Q1019 NOSIG=
METAR LEAL 080830Z 09006KT 050V120 CAVOK 29/16 Q1019 NOSIG=
METAR LEIB 080830Z 08009KT 050V110 CAVOK 28/22 Q1019 NOSIG=
METAR LELC 080830Z NIL=
METAR LEVX 080830Z VRB01KT CAVOK 23/20 Q1014=
####018000137####
SAEW36 LEMM 080830
METAR GCLA 080830Z 01011KT 350V050 9999 BKN020 22/17 Q1019=
METAR GEML 080830Z 06006KT 020V110 CAVOK 25/20 Q1017=
####018000178####
SAEW35 LEMM 080830
METAR LESA 080830Z 00000KT CAVOK 29/16 Q1019=
METAR LEVD 080830Z 14005KT 080V170 CAVOK 27/12 Q1019=
METAR LEVS 080830Z 08004KT 030V130 CAVOK 27/12 Q1020=
####018000307####
SAEW34 LEMM 080830
METAR LEDA 080830Z 09007KT 060V150 CAVOK 29/17 Q1020=
METAR LEJR 080830Z 25003KT 230V320 CAVOK 24/19 Q1016=
METAR LELL 080830Z 24004KT 200V290 CAVOK 27/14 Q1019=
METAR LEPP 080830Z 00000KT 9999 FEW060 28/16 Q1019=
METAR LEXJ 080830Z 27003KT 210V340 6000 SCT014 SCT020 23/19 Q1016=
####018000079####
SAIR31 OIII 080830 RRA
METAR OIFM 080825Z 15010KT CAVOK 37/04 Q1017 A3005=
####018000087####
SAHK31 VHHH 080830
METAR VHHH 080830Z 21013KT 9999 FEW020 SCT030 33/25 Q1006 NOSIG=
####018000095####
SPEE32 KWBC 080835
SPECI
LBWN 080834Z 25005G11MPS 220V280 9999 BKN023 19/14 Q1014 NOSIG=
####018000166####
SANM40 FYWW 080830
METAR FYWB 080830Z 09021KT 9999 R09/M0050VP1500U VV/// 29/04 Q1018 =
METAR FYWB 080830Z 09021KT 9999 R09/M0050VP1500U VV/// 29/04 Q1018 =

####018000088####
SPPQ31 KWBC 080835
SPECI
PGRO 080826Z 09012G17KT 7SM FEW015 SCT040CB 28/25 A2988=
####018000105####
SPPA31 KWBC 080835
SPECI
PGRO 080826Z 09012G17KT 7SM FEW015 SCT040CB 28/25 A2988 RMK CB N
MOV W=
####018000084####
SPUS41 KWBC 080835
SPECI
KBDR 080832Z AUTO 09007KT 1SM BR OVC002 24/23 A3003=
####018000098####
SPUS41 KWBC 080835
SPECI
KLUK 080832Z AUTO 00000KT 2SM R21L/2800V6000FT BR CLR 22/21 A3006=
####018001854####
SAEW KAWN 080800 RRM
METAR LFBC 080830Z AUTO 09009KT 060V120 9999NDV NSC 29/12 Q1016=
METAR LFBD 080830Z 08009KT CAVOK 28/13 Q1017 NOSIG=
METAR LFBF 080830Z AUTO 10008KT 050V140 9999NDV // NSC 27/15 Q1019=
METAR LFBG 080830Z AUTO 09003KT 040V130 9999NDV NSC 27/16 Q1018=
METAR LFBM 080830Z AUTO 11008KT 070V140 9999NDV NSC 28/16 Q1017=
METAR LFBO 080830Z 11005KT 070V150 CAVOK 26/13 Q1019 NOSIG=
METAR LFCR 080830Z AUTO 12005KT 090V180 9999NDV NSC 27/12 Q1022=
METAR LFJL 080830Z AUTO VRB02KT 9999NDV NSC 25/10 Q1020=
METAR LFKB 080830Z 09003KT 030V130 9000 SCT020 29/22 Q1019 NOSIG=
METAR LFKJ 080830Z 24006KT 9999 FEW023 27/22 Q1019 NOSIG=
METAR LFKS 080830Z AUTO 07009KT 9999NDV NSC 29/23 Q1019=
METAR LFMI 080830Z AUTO VRB03KT 9999NDV NSC 30/13 Q1020=
METAR LFML 080830Z 29004KT CAVOK 28/18 Q1019 NOSIG=
METAR LFMO 080830Z VRB02KT CAVOK 28/17 Q1020=
METAR LFMU 080830Z AUTO 08007KT 040V110 9999NDV NSC 29/14 Q1020=
METAR LFMY 080830Z VRB02KT CAVOK 30/16 Q1020=
METAR LFOA 080830Z AUTO 14006KT 090V190 9999NDV NSC 26/13 Q1019=
METAR LFOC 080830Z AUTO 18004KT 130V210 9999NDV NSC 27/11 Q1019=
METAR LFOH 080830Z AUTO 34008KT 9999NDV NSC 21/12 Q1019=
METAR LFPB 080830Z 18004KT 130V220 CAVOK 27/11 Q1019 NOSIG=
METAR LFPC 080830Z 17005KT 130V220 CAVOK 25/14 Q1019=
METAR LFPV 080830Z AUTO /////KT 9999NDV NSC 25/13 Q1019=
METAR LFQI 080830Z 21005KT 180V240 CAVOK 25/13 Q1019=
METAR LFSD 080830Z AUTO VRB02KT 9999NDV NSC 25/13 Q1020=
METAR LFSF 080830Z AUTO VRB03KT 9999NDV NSC 25/11 Q1020=
METAR LFSI 080830Z AUTO VRB03KT 9999NDV NSC 26/13 Q1020=
METAR LFSL 080830Z AUTO 12006KT 090V150 9999NDV NSC 25/15 Q1020=
METAR LFSO 080830Z AUTO 27004KT 200V300 9999NDV NSC 26/12 Q1021=
METAR LFSR 080830Z AUTO 00000KT 9999NDV NSC 27/13 Q1019=
METAR LFSX 080830Z AUTO VRB02KT 9999NDV NSC 25/13 Q1021=
####018001827####
SAEU KAWN 080800 RRX
METAR LEPP 080830Z 00000KT 9999 FEW060 28/16 Q1019=
METAR LESA 080830Z 00000KT CAVOK 29/16 Q1019=
METAR LEVD 080830Z 14005KT 080V170 CAVOK 27/12 Q1019=
METAR LEXJ 080830Z 27003KT 210V340 6000 SCT014 SCT020 23/19 Q1016=
METAR LFBC 080830Z AUTO 09009KT 060V120 9999NDV NSC 29/12 Q1016=
METAR LFBD 080830Z 08009KT CAVOK 28/13 Q1017 NOSIG=
METAR LFBF 080830Z AUTO 10008KT 050V140 9999NDV // NSC 27/15 Q1019=
METAR LFBG 080830Z AUTO 09003KT 040V130 9999NDV NSC 27/16 Q1018=
METAR LFBO 080830Z 11005KT 070V150 CAVOK 26/13 Q1019 NOSIG=
METAR LFCR 080830Z AUTO 12005KT 090V180 9999NDV NSC 27/12 Q1022=
METAR LFJL 080830Z AUTO VRB02KT 9999NDV NSC 25/10 Q1020=
METAR LFKB 080830Z 09003KT 030V130 9000 SCT020 29/22 Q1019 NOSIG=
METAR LFKJ 080830Z 24006KT 9999 FEW023 27/22 Q1019 NOSIG=
METAR LFKS 080830Z AUTO 07009KT 9999NDV NSC 29/23 Q1019=
METAR LFLL 080830Z 13004KT 100V160 CAVOK 26/14 Q1021 NOSIG=
METAR LFMI 080830Z AUTO VRB03KT 9999NDV NSC 30/13 Q1020=
METAR LFML 080830Z 29004KT CAVOK 28/18 Q1019 NOSIG=
METAR LFMO 080830Z VRB02KT CAVOK 28/17 Q1020=
METAR LFMU 080830Z AUTO 08007KT 040V110 9999NDV NSC 29/14 Q1020=
METAR LFMY 080830Z VRB02KT CAVOK 30/16 Q1020=
METAR LFOH 080830Z AUTO 34008KT 9999NDV NSC 21/12 Q1019=
METAR LFPB 080830Z 18004KT 130V220 CAVOK 27/11 Q1019 NOSIG=
METAR LFQI 080830Z 21005KT 180V240 CAVOK 25/13 Q1019=
METAR LFSD 080830Z AUTO VRB02KT 9999NDV NSC 25/13 Q1020=
METAR LFSF 080830Z AUTO VRB03KT 9999NDV NSC 25/11 Q1020=
METAR LFSI 080830Z AUTO VRB03KT 9999NDV NSC 26/13 Q1020=
METAR LFSL 080830Z AUTO 12006KT 090V150 9999NDV NSC 25/15 Q1020=
METAR LFSO 080830Z AUTO 27004KT 200V300 9999NDV NSC 26/12 Q1021=
METAR LFSR 080830Z AUTO 00000KT 9999NDV NSC 27/13 Q1019=
METAR LFSX 080830Z AUTO VRB02KT 9999NDV NSC 25/13 Q1021=
