####018000105####
SAUS90 KWBC 081200 RRG
METAR KMZZ 081155Z AUTO 00000KT 7SM BKN060 BKN070 24/21 A3007 RMK
     AO2=
####018000532####
SAUS90 KWBC 081210
METAR K2G4 081205Z AUTO 00000KT 10SM CLR 23/14 A3020 RMK AO1=
METAR K2W6 081207Z AUTO 11006KT 7SM SCT009 26/24 A3002 RMK AO1=
METAR KCBE 081207Z AUTO 00000KT 7SM CLR 23/18 A3011 RMK AO1=
METAR KCGE 081205Z AUTO 11008KT 3SM OVC004 26/26 A3003 RMK AO1=
METAR KCGS 081210Z AUTO 00000KT 5SM CLR 28/24 A3001 RMK AO1=
METAR KDMW 081207Z AUTO 00000KT 7SM CLR 27/22 A3006 RMK AO2=
METAR KFME 081209Z AUTO 10003KT 5SM CLR 25/23 A3004 RMK AO1=
METAR KW29 081207Z AUTO 00000KT 5SM CLR 26/23 A3001 RMK AO1=
####018001460####
SARS18 KAWN 081200 RRD
METAR UELL 081200Z VRB01MPS 9999 SCT006 BKN030CB OVC200 13/12 Q1012
      NOSIG RMK MT PT OBSC QFE685 08CLRD70=
METAR UIAA 081200Z 29006MPS 9999 VCTS -SHRA BKN033CB OVC100 19/14 Q1009
      NOSIG RMK QFE698 29CLRD70=
METAR UIBB 081200Z 07003MPS 9999 BKN200 25/12 Q1006 NOSIG RMK QFE711/0949
      30CLRD60=
METAR UIII 081200Z 19003MPS CAVOK 19/12 Q1006 NOSIG RMK QFE712/0950
      12CLRD60=
METAR UIUU 081200Z 26002MPS 9999 SCT033CB OVC100 21/15 Q1007 NOSIG
      RMK QFE711/0948=
METAR ULWW 081200Z 16004MPS 9999 SCT050TCU BKN/// 32/16 Q1016 NOSIG
      RMK QFE751 15CLRD60=
METAR UMKK 081200Z 31007MPS P8000 FEW033 SCT200 22/15 Q1020 NOSIG RMK
      QFE 764 SC07=
METAR URKA 081200Z 05005MPS 9999 SCT026 29/20 Q1012 NOSIG RMK 065=
METAR URMM 081200Z 10006G09MPS 9999 BKN046 30/19 Q1012 NOSIG RMK /
      SC070=
METAR URSS 081200Z 29004MPS 9999 FEW040 28/21 Q1009 NOSIG RMK / QFE756
      06CLRD70=
METAR UUEE 081200Z 16004MPS 120V200 9999 SCT050CB BKN200 28/14 Q1015
      NOSIG=
METAR UWGG 081200Z 12003MPS 060V170 8000 FEW033 34/08 Q1016 NOSIG RMK
      QFE755 18090070=
METAR UWKD 081200Z 26003MPS 9999 SCT050CB BKN070 30/12 Q1015 TEMPO
      VRB15MPS 3000 TSRA RMK QFE750/1000 79CLRD70=
METAR UWOO 081200Z 02004MPS P5000 FEW070 32/03 Q1012 08LRD65 NOSIG
      RMK QFE748/0998=
METAR UWPP 081200Z 14004MPS 9999 SCT033CB BKN100 33/09 Q1013 NOSIG
      RMK QFE745 11090060=
####018000107####
SABE31 TXKF 081154
METAR TXKF 081155Z 15013KT 9999 SCT015CB SCT180 BKN300
27/23 Q1019 RMK CB DSNT S=
####018001184####
SABO SLLP 081200
METAR SLCO 081200Z 00000KT 9999 SCT080 23/22 Q1013=
METAR SLRY 081200Z 00000KT 4000 -RA BKN017 FEW023CB BKN200 22/22
Q1013=
METAR SLRQ 081200Z 12004KT 9999 SCT017 BKN023 22/22 Q1012=
METAR SLOR 081200Z 00000KT 8000 NSC M05/M07 Q1035=
METAR SLRI 081200Z 00000KT 5000 FU SKC 25/23 Q1013=
METAR SLJO 081200Z 14004KT 9999 FEW020 SCT200 24/22 Q1012=
METAR SLMG 081200Z 00000KT 9999 FEW020 SCT080 24/22 Q1014=
METAR SLSA 081200Z 36004KT 9999 FEW023 FEW025CB BKN200 24/23 Q1011=
METAR SLSU 081200Z 03006KT 9999 SCT010 08/06 Q1028=
METAR SLPO 081200Z 00000KT 9999 SKC M02/M06 Q1037=
METAR SLVM 081200Z 00000KT 9999 FEW020 16/15 Q1026=
METAR SLTJ 081200Z 00000KT 9999 FEW020 08/05 Q1022=
METAR SLYA 081200Z 00000KT 9999 FEW023 12/10 Q1021=
METAR SLET 081200Z 14010KT 9999 FEW023 SCT080 19/17 Q1015=
METAR SLCP 081200Z 16005KT 9999 BKN017 OVC070 21/20 Q1017=
METAR SLSI 081200Z 00000KT 9999 OVC070 22/20 Q1016=
METAR SLJE 081200Z 19004KT 8000 BKN017 22/18 Q1018=
METAR SLRB 081200Z 00000KT 9999 BKN017 21/16 Q1018=
METAR SLPS 081200Z 00000KT 9999 FEW023 BKN070 26/16 Q1013=
METAR SLCA 081200Z 00000KT 8000 SCT033 BKN070 15/13 Q1020=
####018001186####
SABO59 SLLP 081200
METAR SLCO 081200Z 00000KT 9999 SCT080 23/22 Q1013=
METAR SLRY 081200Z 00000KT 4000 -RA BKN017 FEW023CB BKN200 22/22
Q1013=
METAR SLRQ 081200Z 12004KT 9999 SCT017 BKN023 22/22 Q1012=
METAR SLOR 081200Z 00000KT 8000 NSC M05/M07 Q1035=
METAR SLRI 081200Z 00000KT 5000 FU SKC 25/23 Q1013=
METAR SLJO 081200Z 14004KT 9999 FEW020 SCT200 24/22 Q1012=
METAR SLMG 081200Z 00000KT 9999 FEW020 SCT080 24/22 Q1014=
METAR SLSA 081200Z 36004KT 9999 FEW023 FEW025CB BKN200 24/23 Q1011=
METAR SLSU 081200Z 03006KT 9999 SCT010 08/06 Q1028=
METAR SLPO 081200Z 00000KT 9999 SKC M02/M06 Q1037=
METAR SLVM 081200Z 00000KT 9999 FEW020 16/15 Q1026=
METAR SLTJ 081200Z 00000KT 9999 FEW020 08/05 Q1022=
METAR SLYA 081200Z 00000KT 9999 FEW023 12/10 Q1021=
METAR SLET 081200Z 14010KT 9999 FEW023 SCT080 19/17 Q1015=
METAR SLCP 081200Z 16005KT 9999 BKN017 OVC070 21/20 Q1017=
METAR SLSI 081200Z 00000KT 9999 OVC070 22/20 Q1016=
METAR SLJE 081200Z 19004KT 8000 BKN017 22/18 Q1018=
METAR SLRB 081200Z 00000KT 9999 BKN017 21/16 Q1018=
METAR SLPS 081200Z 00000KT 9999 FEW023 BKN070 26/16 Q1013=
METAR SLCA 081200Z 00000KT 8000 SCT033 BKN070 15/13 Q1020=
####018000084####
SPCN42 CWAO 081205
SPECI CYUA 081205Z AUTO 23006KT 4SM -DZ BKN013 05/ A3008=

####018000079####
SAAL41 DAMM 081200 RRA
METAR DAOF 081200Z 12010KT 4000 HZ NSC 43/05 Q1014=
####018003715####
SAUS99 KWBC 081210
METAR
K6R3 081201Z AUTO 00000KT 4SM -RA SCT004 SCT013 BKN049 24/24 A2998
     RMK AO2 LTG DSNT S AND SW P0001 T02420242=
KASW 081205Z AUTO 00000KT 7SM CLR 25/21 A3006 RMK AO2
     T02530212=
KAXH 081205Z AUTO 00000KT 10SM VCTS SCT060 OVC075 25/23 A2992 RMK
     AO2 LTG DSNT N THRU E T02520225=
KBBD 081205Z AUTO 06004KT 10SM FEW026 BKN035 OVC047 22/22 A3004
     RMK=
KBEA 081203Z AUTO 04005KT 10SM SCT019 SCT033 SCT090 24/24 A2986
     RMK AO2 T02430243=
KBKD 081201Z AUTO 00000KT 3SM BR BKN002 OVC014 24/23 A3004 RMK AO2
     T02350230=
KBKS 081206Z AUTO 00000KT 10SM SCT023 SCT034 SCT048 26/25 A2982
     RMK AO1 T02610247=
KBPC 081208Z AUTO 36005KT 10SM OVC008 19/18 A3018 RMK AO2=
KBPG 081205Z AUTO 02007KT 7SM BKN004 OVC010 22/21 A3012 RMK AO1
     T02200208=
KBYY 081206Z AUTO 10006KT 3SM -RA SCT015 BKN024 OVC055 26/25 A2990
     RMK AO2 T02570247=
KCIR 081202Z AUTO 00000KT 10SM CLR 26/23 A3006 RMK AO2=
KCPT 081205Z AUTO 08004KT 9SM BKN008 BKN013 OVC019 24/24 A3005 RMK
     AO2=
KCVB 081204Z AUTO 05004KT 7SM BKN046 25/24 A2995 RMK AO2
     T02490242=
KCWC 081205Z AUTO 09004KT 10SM CLR 23/22 A3004 RMK AO2
     T02320220=
KDKB 081201Z AUTO 25006KT 1 1/4SM RA OVC004 22/21 A3005 RMK AO2
     LTG DSNT E AND SE T02150210=
KDKR 081205Z AUTO 08005KT 5SM BR CLR 24/24 A3003 RMK AO2=
KDNV 081205Z AUTO 00000KT 4SM BR CLR 24/22 A3002 RMK AO2
     T02360218=
KDUX 081207Z AUTO 35010KT 5SM BR OVC004 18/17 A3022 RMK AO2
     T01750169=
KDZB 081205Z AUTO 00000KT 5SM BR OVC007 24/24 A2998 RMK AO2
     T02400240=
KE38 081205Z AUTO 00000KT 7SM CLR 16/15 A3022 RMK AO2
     T01560154=
KEBG 081206Z AUTO 00000KT 10SM -RA BKN005 BKN040 BKN055 26/25
     A2980 RMK AO2 T02620248=
KECU 081205Z AUTO 06006KT 5SM BR OVC004 22/21 A3009 RMK AO2=
KENL 081204Z AUTO 19006KT 10SM BKN065 26/18 A3005 RMK AO2
     T02590178=
KERV 081205Z AUTO 04003KT 10SM SCT010 23/22 A3000 RMK AO2
     T02330215=
KF05 081204Z AUTO 04005KT 10SM 24/22 A3005 RMK AO2 T02400223=
KFEP 081205Z AUTO 27003KT 5SM BR CLR 23/21 A3005 RMK AO2
     T02320211=
KFOA 081205Z AUTO 00000KT 5SM BR CLR 27/26 A3005 RMK AO2
     T02650259=
KFWC 081205Z AUTO 00000KT 10SM CLR 24/23 A3005 RMK AO2=
KFWS 081205Z AUTO 00000KT 5SM RA SCT009 BKN017 OVC025 25/24 A3004
     RMK AO2 T02480235=
KGBG 081205Z AUTO 00000KT 5SM BR OVC006 23/22 A3004 RMK AO2=
KGDJ 081204Z AUTO 09005KT 10SM -RA BKN008 OVC017 26/24 A3003 RMK
     AO2 T02560237=
KGNC 081205Z AUTO 35005KT 5SM -RA SCT004 BKN075 OVC085 20/19 A3016
     RMK AO2 P0001 T02000193=
KGOP 081200Z AUTO 00000KT 10SM BKN007 24/24 A3003 RMK AO2=
KGVT 081205Z AUTO 00000KT 10SM -RA SCT008 SCT035 OVC043 25/23
     A3004 RMK AO2=
KGWB 081205Z AUTO 00000KT 7SM CLR 25/18 A3006 RMK AO2=
KGYB 081205Z AUTO 06003KT 7SM SCT008 BKN026 OVC035 25/24 A2999 RMK
     AO2 T02500238=
KGYI 081205Z AUTO 13004KT 10SM SCT024 25/24 A3005 RMK AO2
     T02500240=
KHBV 081200Z AUTO 33006KT 10SM SCT012 SCT120 25/24 A2987 RMK AO2
     T02460235=
KHHF 081205Z AUTO 02005KT 10SM -DZ SCT010 BKN027 OVC060 21/20
     A3014 RMK AO2 T02110202=
KHRX 081205Z AUTO 02008KT 10SM OVC020 17/17 A3022 RMK AO2
     T01710165=
KHSB 081205Z AUTO 00000KT 7SM CLR 23/22 A3006 RMK AO2=
KIJX 081205Z AUTO 00000KT 5SM BR CLR 24/23 A3004 RMK AO2
     T02370230=
KINJ 081205Z AUTO 07004KT 7SM CLR 24/23 A3002 RMK AO2
     T02440228=
KJAS 081206Z AUTO 07006KT 5SM BR CLR 25/24 A3003 RMK AO2
     T02460237=
KJDD 081205Z AUTO 00000KT 4SM BR OVC002 25/25 A3004 RMK AO2=
KJXI 081205Z AUTO 00000KT OVC001 24/24 A3006 RMK AO2=
KM30 081206Z AUTO 00000KT 10SM CLR 24/23 A3006 RMK AO2=
####018000591####
SAUS99 KWBC 081210 RRA
METAR
KOLY 081203Z AUTO 00000KT 7SM CLR 26/23 A3005 RMK AO2=
KPEQ 081204Z AUTO 36007KT 23/21 A3009 RMK AO2 PWINO=
KPNT 081205Z AUTO 00000KT 4SM BR SCT004 SCT010 OVC033 23/22 A3004
     RMK AO2 LTG DSNT E=
KPRG 081205Z AUTO 23003KT 5SM BR SCT035 24/23 A3006 RMK AO2 LTG
     DSNT N T02470233=
KRPJ 081205Z AUTO 25003KT 4SM BR BKN012 BKN019 OVC044 21/20 A3006
     RMK AO2 LTG DSNT E AND SE T02130202=
KRSV 081202Z AUTO 00000KT 7SM CLR 26/24 A3006 RMK AO2
     T02610237=
KMZZ 081155Z AUTO 00000KT 7SM BKN060 BKN070 24/21 A3007 RMK
     AO2=
####018000585####
SPUS99 KWBC 081210
SPECI
KBED 081207Z 17007KT 8SM BKN014 OVC020 24/21 A3008 RMK AO2=
KDAW 081207Z AUTO 00000KT 3SM HZ SCT003 BKN009 BKN014 24/21 A3009
     RMK AO2 $=
KDXR 081207Z 00000KT 2SM BR OVC003 24/23 A3009 RMK AO2=
KJCT 081205Z AUTO 00000KT 7SM BKN006 OVC011 22/21 A3002 RMK AO2
     TSNO=
KLWM 081207Z 20005KT 10SM SCT015 OVC040 26/21 A3011 RMK AO2=
KMLI 081207Z 32003KT 7SM SCT007 OVC011 23/22 A3004 RMK AO2=
KUCP 081208Z AUTO 00000KT 1SM BR VV001 21/19 A3010 RMK AO2 $=
KUIN 081207Z AUTO 00000KT 6SM BR OVC005 23/22 A3005 RMK AO2 CIG
     001V007=
####018000766####
SAUR30 UKMS 081200
METAR UKBB 081200Z 30003MPS 260V340 9999 BKN036 26/17
         Q1014 88CLRD95    NOSIG=
METAR UKHH 081200Z 25002MPS 200V010 9999 SCT040
         BKN200  30/14 Q1014 260///65 NOSIG=
METAR UKOO 081200Z 35003MPS 310V040 CAVOK 27/15 Q1014
          34090070 NOSIG=
METAR UKDE NIL=
METAR UKDD 081200Z 15002MPS 9999 SCT033CB BKN200
         30/17  Q1014 08090070 TEMPO VRB10G15MPS -TSRA
         SQ BKN020CB=
METAR UKFF 081200Z 04003MPS 360V080 CAVOK 29/15 Q1013
          01010070 NOSIG=
METAR UKLL 081200Z 32003MPS 240V040 CAVOK 20/11 Q1021
          31210365 NOSIG=
METAR UKCC 081200Z 17003MPS 130V220 CAVOK 30/16 Q1014
          08090070 NOSIG=
METAR UKDR 081200Z VRB01MPS 9999 BKN033 OVC200 30/17
         Q1013 1809//70 NOSIG=
####018000072####
SAFR37 LFPW 081200 RRA
METAR LFPM 081205Z VRB02KT CAVOK 31/12 Q1018=
####018000783####
SACI31 ZBBB 081200
METAR ZBAA 081200Z 16003MPS CAVOK 32/11 Q1004 NOSIG=
METAR ZBSJ 081200Z 15002MPS 8000 NSC 29/19 Q1005 NOSIG=
METAR ZBTJ 081200Z 16004MPS CAVOK 27/17 Q1005 NOSIG=
METAR ZBYN 081200Z 10005MPS CAVOK 28/15 Q1008 NOSIG=
METAR ZGGG 081200Z 15003MPS 9999 SCT046 33/26 Q1005 NOSIG=
METAR ZSHC 081200Z 21001MPS 6000 -SHRA SCT026 FEW033CB 26/24 Q1004
 NOSIG=
METAR ZSPD 081200Z 10005MPS 080V140 9999 BKN009 26/24 Q1006 NOSIG=
METAR ZSSS 081200Z 12005MPS 9999 BKN016 27/23 Q1005 BECMG BKN011
 OVC040=
METAR ZWSH 081200Z 16002MPS 110V210 CAVOK 33/04 Q1012 NOSIG=
METAR ZWWW 081200Z 26007MPS 9999 -SHRA FEW033CB BKN040 30/10 Q1011
 NOSIG=
METAR ZYTL 081200Z VRB02MPS 9999 SCT033 25/18 Q1007 NOSIG=
METAR ZYTX 081200Z 13002MPS 9999 FEW030TCU 21/19 Q1007 NOSIG=
####018000249####
SAEQ01 SEQU 081200
METAR
SEQU 081200Z 11001KT 9999 FEW100 SCT300 08/07 Q1027 NOSIG=
SEGU 081200Z 19005KT 9999 BKN040 OVC100 23/19 Q1012 NOSIG=
SEMT 081200Z 19006KT 9999 BKN020 BKN100 23/19 Q1012=
SELT 081200Z VRB01KT 9999 FEW100 04/04 Q1032=
####018000311####
SAPL32 EPWA 081200
METAR EPKT 081200Z 33006KT CAVOK 22/07 Q1023=
METAR EPLL 081200Z 30006KT CAVOK 23/05 Q1022=
METAR EPSC 081200Z 30005KT CAVOK 23/11 Q1022=
METAR EPWR 081200Z VRB02KT CAVOK 25/09 Q1023=
METAR EPBY 081200Z VRB04KT CAVOK 25/08 Q1021=
METAR EPZG 081200Z 21005KT 130V280 CAVOK 26/07 Q1022=
####018000076####
SAAG SARF 081200
METAR SARF 081200Z  18011KT 9999  OVC006  14/12
Q1018=
####018001753####
SAIY42 LIIB 081200
METAR LIBF 081150Z 33017KT CAVOK 28/07 Q1020 RMK VIS MIN 9999=
METAR LIEA 081150Z 18005KT 140V210 9999 FEW025 32/21 Q1019 RMK VIS
MIN 9999=
METAR LIED 081155Z 16016KT 9999 SCT018 32/19 Q1018 RMK SCT VIS MIN
      9999 BLU=
METAR LIEO 081150Z 05012KT 030V090 CAVOK 30/21 Q1019 RMK VIS MIN
9999=
METAR LIMA 081150Z 00000KT 9999 SCT040 26/16 Q1022 RMK VIS MIN 9999=
METAR LIQN 081150Z 34004KT 9999 FEW045 28/18 Q1021 RMK VIS MIN 9999=
METAR LIQO 081155Z 19003KT 9999 SCT003 27/20 Q1022 RMK SCT VAL NIL NC
      VIS MIN 9999=
METAR LIQW 081200Z NIL=
METAR LIRE 081155Z 23010KT 9999 FEW020 28/20 Q1019 RMK FEW VIS MIN
      9999 WIND THR31 23010KT BLU=
METAR LIRG 081155Z 28008KT 9999 SCT033TCU 32/17 Q1019 RMK SCT MON
     NE LIB NC VIS MIN 9999 BLU=
METAR LIRH 081155Z 35005KT 9999 FEW035 FEW040TCU 30/19 Q1020 RMK SCT
      MON LIB NC VIS MIN 9999 WIND THR16 30007KT BLU=
METAR LIRI 081150Z 02011KT CAVOK 29/11 Q1019 RMK VIS MIN 9999=
METAR LIRK 081155Z 15009KT CAVOK 16/15 Q1027 RMK SCT SCT060 MON NE
      LIB NC VAL NIL NC VIS MIN 9999=
METAR LIRL 081155Z 24009KT 9999 FEW020TCU 30/17 Q1019 RMK FEW MON LIB
      NC VIS MIN 9999 BLU=
METAR LIRM 081155Z 01005KT 9999 FEW016 30/15 Q1019 RMK FEW VIS MIN
      9999 WIND THR06 05007KT BLU=
METAR LIRS 081155Z 23010KT 9999 FEW040 31/19 Q1019 RMK FEW VIS MIN
      9999 WIND THR21 /////KT BLU=
METAR LIRT 081155Z 35008KT 9999 FEW015 17/06 Q1023 RMK FEW MON LIB
      VAL NIL VIS MIN 9999=
METAR LIRU 081150Z 25003KT 9999 SCT040 30/20 Q1020 RMK VIS MIN 9999=
METAR LIRV 081155Z 28006KT 9999 FEW028 30/16 Q1021 RMK FEW MON E SE
      LIB NC VIS MIN 9999 BLU=
METAR LIRX 081200Z NIL=
METAR LIRZ 081150Z 01007KT 330V050 CAVOK 31/11 Q1020 RMK VIS MIN
9999=
####018000669####
SPXX60 KWBC 081210
SPECI
KIAB 081208Z AUTO 01011KT 10SM -RA FEW006 22/21 A3009 RMK AO2
     RAB1208 SLP178=
KLTS 081201Z AUTO 05009KT 9SM R35L/5000VP6000FT R35R/5500VP6000FT
     -RA SCT009 SCT015 BKN047 22/22 A3008 RMK AO2 CIG 027 RWY35L
     SLP172 $=
KLTS 081205Z AUTO 05008KT 10SM -DZ FEW008 SCT015 SCT049 22/22
     A3008 RMK AO2 RAE1204DZB1204 FEW V SCT SLP172 $=
KOZR 081206Z 00000KT 3/4SM R06/2200VP6000FT BR VV001 23/23 A3004
     RMK AO2A SLP169=
KSKF 081157Z COR 03005KT 7SM -RA FEW011 BKN020 BKN035 25/24 A2993
     RMK AO2A SLP126 $=
KTIK 081201Z AUTO 04004KT 10SM BKN006 OVC013 23/23 A3006 RMK AO2
     CIG 006V008 SLP168 $=
####018001686####
SAIY40 LIIB 081200
METAR LIMG 081150Z 08009KT 9999 FEW080 30/25 Q1020 RMK VIS MIN 9999=
METAR LIMK 081155Z 34002KT CAVOK 20/13 Q1023 RMK BKN BKN070 VAL NIL
VIS MIN 9999=
METAR LIMN 081155Z /////KT 9999 FEW030 29/16 Q1021 RMK FEW VIS MIN
9999 BLU=
METAR LIMP 081150Z 05005KT 030V120 CAVOK 29/13 Q1021 RMK VIS MIN
9999=
METAR LIMS 081155Z 09006KT 040V130 CAVOK 29/15 Q1021 RMK SKC VIS MIN
9999 WIND THR30 13005KT BLU=
METAR LIMZ 081150Z 33005KT 8000 FEW035 SCT060 25/17 Q1023 RMK VIS
MIN 8000=
METAR LIPA 081155Z 22008KT 9999 FEW050 25/18 Q1022 RMK FEW VIS MIN
9999 A3018 BLU=
METAR LIPB 081150Z 17012KT CAVOK 30/13 Q1020 RMK MON LIB VIS MIN
9999=
METAR LIPC 081155Z 10011KT CAVOK 28/13 Q1021 RMK SKC VIS MIN 9999
WIND THR12 09010KT BLU=
METAR LIPF 081155Z 10002KT 9999 FEW040 28/19 Q1021 RMK FEW VIS MIN
9999=
METAR LIPH 081145Z 16005KT 9999 SCT025 28/21 Q1022 RMK SCT VIS MIN
9999 WIND THR07 /////KT BLU=
METAR LIPI 081155Z 20006KT 9999 FEW030 27/18 Q1022 RMK FEW VIS MIN
9999 WIND THR06 20005KT BLU=
METAR LIPL 081155Z 15003KT 9999 FEW036 29/16 Q1022 RMK SCT VIS MIN
9999 BLU=
METAR LIPO 081150Z 16004KT 120V210 CAVOK 28/13 Q1021 RMK VIS MIN
9999=
METAR LIPQ 081150Z 00000KT CAVOK 26/13 Q1022=
METAR LIPR 081145Z 08011KT CAVOK 28/17 Q1021 RMK SKC VIS MIN 9999
WIND THR31 09011KT BLU=
METAR LIPS 081155Z 00000KT 9999 FEW025 29/15 Q1021 RMK FEW VIS MIN
9999 BLU=
METAR LIPX 081145Z 22002KT 9999 FEW040 29/13 Q1021 RMK FEW VIS MIN
9999 BLU=
METAR LIPY 081150Z 05010KT 020V080 CAVOK 26/14 Q1021 RMK VIS MIN
9999=
METAR LIVC 081155Z 00000KT 9999 SCT001 15/11 Q1031 RMK SCT MON LIB
VAL NIL VIS MIN 9999=
METAR LIVP 081155Z 10004KT 9999 FEW002 14/09=
####018000107####
SAAG SAZS 081200
METAR SAZS 081200Z  32017KT 30005000SE 3000W RA
BKN007 SCT040  03/02 Q1006 R29210004=
####018001084####
SAIY41 LIIB 081200
METAR LIMH 081155Z 05004KT 9999 FEW000TCU SCT003 05/M05 Q1040 RMK SCT
      MON LIB VAL S CLD SCT VIS MIN 9999=
METAR LIMT 081200Z NIL=
METAR LIMU 081155Z 07011KT 9999 FEW028 30/21 Q1020 RMK SCT QUK 2 QUL
      1 E VIS MAR 12 KM VIS MIN 9999=
METAR LIMV 081155Z 02008KT 7000 FEW012 24/18 Q1022 RMK FEW MON LIB
      VAL FOSCHIA VIS MIN 7000=
METAR LIMY 081155Z /////KT 8000 SCT026 SCT036 22/16 Q1023 RMK BKN VAL
      FOSCHIA VIS MIN 8000=
METAR LIVD 081155Z 00000KT CAVOK 22/09 Q1024 RMK SKC VIS MIN 9999=
METAR LIVE 081155Z 19007KT CAVOK 21/08 Q1024 RMK SKC VIS MIN 9999=
METAR LIVF 081155Z 06004KT CAVOK 27/07 Q1022 RMK FEW FEW220 MON LIB
      VAL NIL VIS MIN 9999=
METAR LIVM 081155Z 15009KT CAVOK 28/21 Q1021 RMK SKC QUK 2 QUL 1 SE
      VIS MAR 30 KM VIS MIN 9999=
METAR LIVO 081155Z 11005KT 9999 FEW040 25/11 Q1022 RMK FEW VIS MIN
      9999=
METAR LIVR 081155Z 36000KT 9999 FEW025 16/11 Q1028 RMK FEW MON CLD
      CIME VIS MIN 9999=
METAR LIVT 081155Z 28001KT CAVOK 25/14 Q1022 RMK SKC QUK 1 QUL 0 VIS
      MAR 20 KM VIS MIN 9999=
####018000067####
SAAG SADF 081200
METAR SADF 081200Z  00000KT CAVOK 06/02 Q1019=
####018000669####
SPUS70 KWBC 081210
SPECI
PAKI 081204Z AUTO 36004KT 1 1/2SM BR CLR 07/07 A3001 RMK AO2 PWINO
     TSNO $=
KBED 081207Z 17007KT 8SM BKN014 OVC020 24/21 A3008 RMK AO2=
KDAW 081207Z AUTO 00000KT 3SM HZ SCT003 BKN009 BKN014 24/21 A3009
     RMK AO2 $=
KDXR 081207Z 00000KT 2SM BR OVC003 24/23 A3009 RMK AO2=
KJCT 081205Z AUTO 00000KT 7SM BKN006 OVC011 22/21 A3002 RMK AO2
     TSNO=
KLWM 081207Z 20005KT 10SM SCT015 OVC040 26/21 A3011 RMK AO2=
KMLI 081207Z 32003KT 7SM SCT007 OVC011 23/22 A3004 RMK AO2=
KUCP 081208Z AUTO 00000KT 1SM BR VV001 21/19 A3010 RMK AO2 $=
KUIN 081207Z AUTO 00000KT 6SM BR OVC005 23/22 A3005 RMK AO2 CIG
     001V007=
####018000408####
SAPL31 EPWA 081200
METAR EPWA 081200Z 32009KT 280V020 CAVOK 23/12 Q1020 NOSIG=
METAR EPGD 081200Z 29005KT CAVOK 25/08 Q1021=
METAR EPKK 081200Z 24006KT 210V320 9999 FEW053 24/09 Q1022=
METAR EPPO 081200Z 24006KT 170V310 CAVOK 24/09 Q1022=
METAR EPRZ 081200Z 32008KT 280V360 9999 FEW046 22/11 Q1021=
METAR EPBY 081200Z VRB04KT CAVOK 25/08 Q1021=
METAR EPZG 081200Z 21005KT 130V280 CAVOK 26/07 Q1022=
####018003743####
SAUS70 KWBC 081210
METAR
K2G4 081205Z AUTO 00000KT 10SM CLR 23/14 A3020 RMK AO1=
K2W6 081207Z AUTO 11006KT 7SM SCT009 26/24 A3002 RMK AO1=
KCGS 081210Z AUTO 00000KT 5SM CLR 28/24 A3001 RMK AO1=
KW29 081207Z AUTO 00000KT 5SM CLR 26/23 A3001 RMK AO1=
K6R3 081201Z AUTO 00000KT 4SM -RA SCT004 SCT013 BKN049 24/24 A2998
     RMK AO2 LTG DSNT S AND SW P0001 T02420242=
KASW 081205Z AUTO 00000KT 7SM CLR 25/21 A3006 RMK AO2
     T02530212=
KAXH 081205Z AUTO 00000KT 10SM VCTS SCT060 OVC075 25/23 A2992 RMK
     AO2 LTG DSNT N THRU E T02520225=
KBBD 081205Z AUTO 06004KT 10SM FEW026 BKN035 OVC047 22/22 A3004
     RMK=
KBEA 081203Z AUTO 04005KT 10SM SCT019 SCT033 SCT090 24/24 A2986
     RMK AO2 T02430243=
KBKD 081201Z AUTO 00000KT 3SM BR BKN002 OVC014 24/23 A3004 RMK AO2
     T02350230=
KBKS 081206Z AUTO 00000KT 10SM SCT023 SCT034 SCT048 26/25 A2982
     RMK AO1 T02610247=
KBPC 081208Z AUTO 36005KT 10SM OVC008 19/18 A3018 RMK AO2=
KBPG 081205Z AUTO 02007KT 7SM BKN004 OVC010 22/21 A3012 RMK AO1
     T02200208=
KBYY 081206Z AUTO 10006KT 3SM -RA SCT015 BKN024 OVC055 26/25 A2990
     RMK AO2 T02570247=
KCPT 081205Z AUTO 08004KT 9SM BKN008 BKN013 OVC019 24/24 A3005 RMK
     AO2=
KCVB 081204Z AUTO 05004KT 7SM BKN046 25/24 A2995 RMK AO2
     T02490242=
KCWC 081205Z AUTO 09004KT 10SM CLR 23/22 A3004 RMK AO2
     T02320220=
KDKB 081201Z AUTO 25006KT 1 1/4SM RA OVC004 22/21 A3005 RMK AO2
     LTG DSNT E AND SE T02150210=
KDKR 081205Z AUTO 08005KT 5SM BR CLR 24/24 A3003 RMK AO2=
KDNV 081205Z AUTO 00000KT 4SM BR CLR 24/22 A3002 RMK AO2
     T02360218=
KDUX 081207Z AUTO 35010KT 5SM BR OVC004 18/17 A3022 RMK AO2
     T01750169=
KDZB 081205Z AUTO 00000KT 5SM BR OVC007 24/24 A2998 RMK AO2
     T02400240=
KE38 081205Z AUTO 00000KT 7SM CLR 16/15 A3022 RMK AO2
     T01560154=
KEBG 081206Z AUTO 00000KT 10SM -RA BKN005 BKN040 BKN055 26/25
     A2980 RMK AO2 T02620248=
KECU 081205Z AUTO 06006KT 5SM BR OVC004 22/21 A3009 RMK AO2=
KENL 081204Z AUTO 19006KT 10SM BKN065 26/18 A3005 RMK AO2
     T02590178=
KERV 081205Z AUTO 04003KT 10SM SCT010 23/22 A3000 RMK AO2
     T02330215=
KF05 081204Z AUTO 04005KT 10SM 24/22 A3005 RMK AO2 T02400223=
KFEP 081205Z AUTO 27003KT 5SM BR CLR 23/21 A3005 RMK AO2
     T02320211=
KFOA 081205Z AUTO 00000KT 5SM BR CLR 27/26 A3005 RMK AO2
     T02650259=
KFWC 081205Z AUTO 00000KT 10SM CLR 24/23 A3005 RMK AO2=
KFWS 081205Z AUTO 00000KT 5SM RA SCT009 BKN017 OVC025 25/24 A3004
     RMK AO2 T02480235=
KGBG 081205Z AUTO 00000KT 5SM BR OVC006 23/22 A3004 RMK AO2=
KGDJ 081204Z AUTO 09005KT 10SM -RA BKN008 OVC017 26/24 A3003 RMK
     AO2 T02560237=
KGNC 081205Z AUTO 35005KT 5SM -RA SCT004 BKN075 OVC085 20/19 A3016
     RMK AO2 P0001 T02000193=
KGVT 081205Z AUTO 00000KT 10SM -RA SCT008 SCT035 OVC043 25/23
     A3004 RMK AO2=
KGWB 081205Z AUTO 00000KT 7SM CLR 25/18 A3006 RMK AO2=
KGYB 081205Z AUTO 06003KT 7SM SCT008 BKN026 OVC035 25/24 A2999 RMK
     AO2 T02500238=
KGYI 081205Z AUTO 13004KT 10SM SCT024 25/24 A3005 RMK AO2
     T02500240=
KHHF 081205Z AUTO 02005KT 10SM -DZ SCT010 BKN027 OVC060 21/20
     A3014 RMK AO2 T02110202=
KHRX 081205Z AUTO 02008KT 10SM OVC020 17/17 A3022 RMK AO2
     T01710165=
KHSB 081205Z AUTO 00000KT 7SM CLR 23/22 A3006 RMK AO2=
KIJX 081205Z AUTO 00000KT 5SM BR CLR 24/23 A3004 RMK AO2
     T02370230=
KINJ 081205Z AUTO 07004KT 7SM CLR 24/23 A3002 RMK AO2
     T02440228=
KJAS 081206Z AUTO 07006KT 5SM BR CLR 25/24 A3003 RMK AO2
     T02460237=
KJDD 081205Z AUTO 00000KT 4SM BR OVC002 25/25 A3004 RMK AO2=
KJXI 081205Z AUTO 00000KT OVC001 24/24 A3006 RMK AO2=
KM30 081206Z AUTO 00000KT 10SM CLR 24/23 A3006 RMK AO2=
####018000144####
SAUS80 KWBC 081210
METAR
KCBE 081207Z AUTO 00000KT 7SM CLR 23/18 A3011 RMK AO1=
KCIR 081202Z AUTO 00000KT 10SM CLR 26/23 A3006 RMK AO2=
####018001260####
SAXX60 KWBC 081200 RRH
METAR
KCOF 081155Z 03007KT 10SM CLR 27/21 A2999 RMK AO2A SLP157 T0266
     10266 20240 53007=
KNGP 081156Z COR 07003KT 10SM -RA FEW011 SCT022TCU BKN035 28/26
     A2982 RMK AO2 SLP098 TCU NE TCU DSNT E-SE WR// P0002 60012
     70015 T02790263 10289 20278 53006 $=
KNPA 081156Z 00000KT 8SM FEW250 26/24 A3003 RMK SLP170 T02560239
     10256 20233 53006=
KNEL 081200Z AUTO 15004KT 9SM FEW017 OVC095 26/21 A3005 RMK AO2
     SLP173 T02560211 10256 20222 51007 $=
KNGP 081156Z COR 07003KT 10SM -RA FEW011 SCT022TCU BKN035 28/26
     A2982 RMK AO2 SLP098 TCU NE TCU DSNT E-SE WR// P0002 60012
     70015 T02790263 10289 20278 53006 $=
KNPA 081156Z 00000KT 8SM FEW250 26/24 A3003 RMK SLP170 T02560239
     10256 20233 53006=
KPOB 081155Z 00000KT 10SM SKC 26/20 A2997 RMK SLP150 T2560203
     10262 20226 51008=
K79J 081156Z AUTO 00000KT 10SM CLR 24/22 A3003 RMK AO2 SLP165
     T02440217 10256 20233 53005 TSNO $=
K79J 081156Z AUTO 00000KT 10SM CLR 24/22 A3003 RMK AO2 SLP165
     T02440217 10256 20233 53005 TSNO $=
KCOF 081155Z 03007KT 10SM CLR 27/21 A2999 RMK AO2A SLP157 T0266
     10266 20240 53007=
KPOB 081155Z 00000KT 10SM SKC 26/20 A2997 RMK SLP150 T2560203
     10262 20226 51008=
####018000571####
SAAG31 KWBC 081200
METAR
SAAG NIL=
SAAP NIL=
SAAR NIL=
SABE 081200Z 27008KT CAVOK 10/M00 Q1019=
SACO 081200Z 32004KT CAVOK 08/M06 Q1019=
SADD NIL=
SAEZ 081200Z 32004KT CAVOK 05/M01 Q1019=
SAME NIL=
SARC NIL=
SARE 08120Z 14010KT 9999 FEW007 SCT100 11/09 Q1019=
SARF NIL=
SARI 081200Z 20007KT 3000 BR BKN003 BKN100 17/17 Q1019=
SARP 081200Z 07006KT 8000 SCT005 OVC015 15/13 Q1018=
SASA 081200Z 20004KT CAVOK 08/06 Q1021=
SASJ 081200Z 00000KT CAVOK 10/08 Q1018=
SAWE NIL=
SAWG NIL=
SAZM 081200Z 32010KT CAVOK 05/02 Q1014=
SAZS NIL=
####018000639####
SAUS70 KWBC 081210 RRA
METAR
KOLY 081203Z AUTO 00000KT 7SM CLR 26/23 A3005 RMK AO2=
KPEQ 081204Z AUTO 36007KT 23/21 A3009 RMK AO2 PWINO=
KPNT 081205Z AUTO 00000KT 4SM BR SCT004 SCT010 OVC033 23/22 A3004
     RMK AO2 LTG DSNT E=
KPRG 081205Z AUTO 23003KT 5SM BR SCT035 24/23 A3006 RMK AO2 LTG
     DSNT N T02470233=
KRPJ 081205Z AUTO 25003KT 4SM BR BKN012 BKN019 OVC044 21/20 A3006
     RMK AO2 LTG DSNT E AND SE T02130202=
KRSV 081202Z AUTO 00000KT 7SM CLR 26/24 A3006 RMK AO2
     T02610237=
PABA 081201Z AUTO 15005KT 10SM SCT043 OVC060 07/07 A3001 RMK AO2
     SLP163 60000 70003 T00720067 10072 20022 58008=
####018000179####
SAUS70 KWBC 081200 RRJ
METAR
KGOP 081200Z AUTO 00000KT 10SM BKN007 24/24 A3003 RMK AO2=
KHBV 081200Z AUTO 33006KT 10SM SCT012 SCT120 25/24 A2987 RMK AO2
     T02460235=
####018000028####
SAAG41 KWBC 081200
NIL=
####018000473####
SAAL31 KWBC 081200 RRA
METAR
DAAG 081200Z 03010KT 350V060 CAVOK 34/17 Q1018=
DAAT 081200Z NIL=
DABB 081200Z 01013KT CAVOK 29/21 Q1019=
DABC 081200Z 02008KT CAVOK 33/07 Q1022=
DABS 081200Z 02014KT CAVOK 34/06 Q1023=
DAON 081200Z 02008KT 9999 FEW026 36/20 Q1017=
DAOO 081200Z 36014KT CAVOK 29/22 Q1016=
DAUA 081200Z 02025KT 6000 DRSA NSC 43/08 Q1013=
DAUG 081200Z 14009KT CAVOK 38/11 Q1020=
DAUH 081200Z NIL=
DAUZ 081200Z 11006KT CAVOK 38/07 Q1016=
####018000095####
SAAO32 KWBC 081200 RRB
METAR
GABS 081200Z 23005KT 190V260 9999 FEW030 31/22 Q1015 NOSIG=
####018000278####
SAAO33 KWBC 081200 RRB
METAR
GFLL 081200Z 15008KT 9999 SCT014 FEW028CB 29/24 Q1014 CB-NE=
GGOV 081200Z 18007KT 100V270 9999 BKN015TCU 31/23 Q1013 NOSIG=
GLRB 081200Z 19006KT 9999 BKN018 FEW026CB 30/25 Q1014 CB-S=
GUCY 081200Z 18006KT 9999 FEW016 SCT116 29/24 Q1014=
####018000404####
SAAS31 KWBC 081205
METAR
VAAH NIL=
VABB NIL=
VABG NIL=
VAGO NIL=
VANP NIL=
VANY NIL=
VCBI NIL=
VECC NIL=
VEPT NIL=
VGEG NIL=
VGZR NIL=
VIAR NIL=
VIBN NIL=
VIDP NIL=
VNKT NIL=
VOBG NIL=
VOCI NIL=
VOHY NIL=
VOMM NIL=
VONY NIL=
VOTR NIL=
VOTV NIL=
VQPR NIL=
VQTU NIL=
VRMM NIL=
VTBS 081200Z VRB02KT 9999 FEW020 SCT120 BKN300 30/24 Q1006
     NOSIG=
####018000393####
SAAS32 KWBC 081205
METAR
RKPC 081200Z 07007KT 4500 BR SCT030 OVC120 24/20 Q1009 NOSIG=
RKPK 081200Z 12005KT 9999 FEW030 BKN200 23/17 Q1009 NOSIG=
RKSS 081200Z 31004KT 270V350 9999 SCT030 OVC110 24/18 Q1009
     NOSIG=
VHHH 081200Z 19006KT 140V240 9999 FEW015 31/26 Q1007 NOSIG=
VMMC NIL=
ZJSY 081200Z 14002MPS 110V190 9999 FEW013 SCT016 30/26 Q1007
     NOSIG=
ZKPY NIL=
####018001495####
SAAS33 KWBC 081205
METAR
VBRR NIL=
VDPP 081200Z NIL=
VDSR 081200Z 16008KT 9000 TS SCT015 FEW020CB BKN040 29/22 Q1007
     CB:SW,SE,NE=
VLVT 081200Z 16002KT 6000 TS FEW016 FEW030 FEW040 32/24 Q1004=
VTBA NIL=
VTBD 081200Z 16006KT 9999 FEW020 SCT120 BKN300 30/23 Q1006
     NOSIG=
VTBU 081200Z 15002KT 9999 FEW020 BKN300 32/26 Q1007 A2974=
VTCC 081200Z 03009KT 9999 FEW025CB SCT035 BKN300 31/20 Q1008 A2976
     CB NNE,NE,E,S=
VTSP 081200Z 29007KT 9000 FEW020 SCT120 BKN300 29/24 Q1009
     A2981=
VTSS 081200Z 00000KT 9999 FEW016CB BKN300 26/23 Q1009 A2981 CB
     NW=
VVDN 081200Z NIL=
VVGL NIL=
VVNB 081200Z 15014KT 9999 TS FEW026CB BKN100 31/23 Q1002 TEMPO
     4000 TSRA RMK CB IN CLIMB OUT=
VVTS 081200Z 23010KT 9999 TS SCT015 SCT017CB 28/24 Q1008 NOSIG=
WBGG 081200Z 28006KT 9999 -TSRA FEW015CB SCT020 BKN150 24/23 Q1011
     NOSIG=
WBKK 081200Z 12006KT 9999 FEW014 SCT140 BKN270 25/23 Q1010
     NOSIG=
WMAM NIL=
WMKJ 081200Z 20004KT 9999 FEW022 BKN300 27/25 Q1009=
WMKK 081200Z 16002KT 9999 FEW030 BKN280 28/25 Q1009 NOSIG=
WMKP 081200Z 24002KT 9999 FEW020 BKN280 29/25 Q1009 NOSIG=
WMSA 081200Z 27002KT 9000 FEW017CB BKN280 30/25 Q1009=
WPDL NIL=
WPEC NIL=
WSAP 081200Z 18004KT 9999 FEW018 BKN180 30/25 Q1009=
WSSL 081200Z 22003KT 9999 FEW018 BKN280 29/24 Q1009=
WSSL 081200Z 22003KT 9999 FEW018 BKN280 29/24 Q1009 RMK 1030Z
     Q1008=
WSSS 081200Z 22003KT 190V250 9999 FEW016 SCT190 28/24 Q1009
     NOSIG=
####018000829####
SABO41 KWBC 081200 RRB
METAR
SLCA 081200Z 00000KT 8000 SCT033 BKN070 15/13 Q1020=
SLCP 081200Z 16005KT 9999 BKN017 OVC070 21/20 Q1017=
SLJE 081200Z 19004KT 8000 BKN017 22/18 Q1018=
SLJO 081200Z 14004KT 9999 FEW020 SCT200 24/22 Q1012=
SLMG 081200Z 00000KT 9999 FEW020 SCT080 24/22 Q1014=
SLOR 081200Z 00000KT 8000 NSC M05/M07 Q1035=
SLPO 081200Z 00000KT 9999 SKC M02/M06 Q1037=
SLRB 081200Z 00000KT 9999 BKN017 21/16 Q1018=
SLRI 081200Z 00000KT 5000 FU SKC 25/23 Q1013=
SLRQ 081200Z 12004KT 9999 SCT017 BKN023 22/22 Q1012=
SLRY 081200Z 00000KT 4000 -RA BKN017 FEW023CB BKN200 22/22
     Q1013=
SLSA 081200Z 36004KT 9999 FEW023 FEW025CB BKN200 24/23 Q1011=
SLSI 081200Z 00000KT 9999 OVC070 22/20 Q1016=
SLVM 081200Z 00000KT 9999 FEW020 16/15 Q1026=
SLYA 081200Z 00000KT 9999 FEW023 12/10 Q1021=
####018002934####
SAUS20 KNKA 081209
SPECI KALI 081208Z AUTO 02006KT 10SM SCT004 25/24 A2984 RMK AO2=
SPECI KDMO 081208Z AUTO 19004KT 1 3/4SM BR BKN002 OVC009 23/22 A3008 
    RMK AO2=
SPECI KDPA 081208Z 26004KT 3SM BR FEW006 BKN020 OVC050 23/22 A3004 
    RMK AO2=
SPECI KDYL 081208Z AUTO 00000KT 3SM BR CLR 25/23 A3004 RMK AO2 TSNO=
SPECI KGLD 081208Z AUTO 01003KT 10SM SCT004 BKN009 OVC014 17/16 
    A3031 RMK AO2 CIG 008V011=
METAR KJSO 081210Z AUTO 07004KT 4SM BR SCT002 24/24 A3005 RMK AO2 
     T02350235=
METAR KJWY 081205Z AUTO 00000KT 7SM 25/23 A3003 RMK AO2 T02450230=
METAR KLBR 081205Z AUTO 00000KT 4SM OVC006 24/23 A3005 RMK AO2 
     T02400231=
METAR KLHB 081204Z AUTO 06005KT 5SM BR SCT009 SCT120 25/23 A2998 
     RMK AO2 T02500232=
METAR KLNC 081205Z AUTO 00000KT 7SM BKN005 BKN049 OVC120 24/24 
     A3003 RMK AO2 T02430242=
METAR KLUD 081205Z AUTO 00000KT 10SM BKN023 24/23 A3004 RMK AO2 
     T02430225=
SPECI KLVJ 081208Z AUTO 11009G19KT 2 1/2SM VCTS RA BR BKN030 BKN041 
    OVC055 26/23 A2995 RMK AO2 LTG DSNT NW-E TSB00RAB1157 P0009=
METAR KMDD 081200Z AUTO 03007KT 5SM BR SCT002 BKN013 OVC090 22/21 
     A3010 RMK AO2 T02150205=
METAR KMKN 081200Z AUTO 00000KT 10SM 23/23 A3005 RMK AO2=
METAR KMNZ 081210Z AUTO 08004KT 10SM BKN005 OVC010 25/24 A3003 
     RMK AO2 T02450243=
METAR KMQB 081205Z AUTO 30003KT 10SM BKN004 23/22 A3006 RMK AO2 
     T02300223=
SPECI KOKB 081208Z AUTO 00000KT 8SM OVC016 17/14 A2989 RMK AO2=
METAR KOSA 081204Z AUTO 00000KT 3SM OVC002 24/24 A3006 RMK AO1 
     T02430239=
SPECI KPBI 081208Z 04007KT 2SM +RA BR FEW006 SCT015 BKN028CB 24/23 
    A2996 RMK AO2 VIS W-N 3/4 CB OHD-ALQDS MOV W P0008=
METAR KPEZ 081205Z AUTO 02004KT 10SM BKN017 25/23 A2993 RMK AO2 
     T02500233=
METAR KPKV 081206Z AUTO 00000KT 7SM SCT013 BKN021 OVC032 25/23 
     A2987 RMK AO2 T02460230=
METAR KPPA 081205Z AUTO 36006KT 5SM BR OVC003 18/17 A3021 RMK AO2=
METAR KPSN 081205Z AUTO 08005KT 7SM 24/23 A3003 RMK AO2 T02420232=
METAR KPYX 081210Z AUTO 36007KT 4SM SCT006 BKN095 OVC110 18/18 
     A3018 RMK AO2 T01840176=
METAR KRAS 081205Z AUTO 09008KT 2 1/2SM -RA SCT001 SCT023 BKN060 
     27/24 A2986 RMK AO2 P0001=
METAR KRBO 081205Z AUTO 06005KT 10SM RA SCT006 BKN016 BKN047 
     26/25 A2984 RMK AO2 LTG DSNT SW P0001 T02600250=
METAR KRFI 081205Z AUTO 10003KT 5SM BR SCT004 24/23 A3004 RMK AO2 
     T02400230=
METAR KRPH 081205Z AUTO 00000KT 10SM CLR 22/21 A3003 RMK AO2 
     T02200210=
METAR KRWV 081200Z AUTO 00000KT 5SM  BR BKN005 OVC048 24/24 A3000 
     RMK AO2=
METAR KRYW 081205Z AUTO 07005KT 1 3/4SM BR OVC003 24/23 A3000 RMK 
     AO2=
METAR KSAR 081205Z AUTO 18005KT 7SM SCT070 BKN085 26/23 A3006 RMK 
     AO2=
METAR KSEP 081205Z AUTO 00000KT 5SM SCT022 SCT035 23/22 A3004 RMK 
     AO1=
METAR KSLR 081202Z AUTO 12004KT 4SM BR BKN004 OVC050 25/24 A3006 
     RMK AO2 T02510237=
####018000427####
SAUS20 KNKA 081209
METAR KSNK 081206Z AUTO 03006KT 7SM BKN003 OVC010 21/20 A3011 RMK 
     AO2 T02080198=
METAR KSWW 081205Z AUTO 02004KT 3SM OVC002 22/21 A3011 RMK AO1 
     T02150210=
METAR KT65 081205Z AUTO 34005KT 10SM OVC006 26/25 A2978 RMK AO2 
     T02550247=
METAR KT82 081205Z AUTO 09003KT 22/22 A3003 RMK AO1 T02230216=
METAR KUVA 081205Z AUTO 05003KT 7SM CLR 24/23 A2996 RMK AO2 
     T02410231=
####018000225####
SACA35 KWBC 081200 RRA
METAR
MRLB 081200Z 20007KT 9999 FEW003 SCT025 BKN100 23/23 A2986 RMK LOW
     ST ARND=
MRPV 081200Z 00000KT CAVOK 19/19 A2999 RMK BKN120 POLVO
     APROXIMACION PISTA 09 PISTA HUMEDA NOSIG=
####018000339####
SAEE31 KWBC 081200 RRB
METAR
EPSC 081200Z 30005KT CAVOK 23/11 Q1022=
UMII 081200Z 21005MPS 4800 -SHRA BKN015CB 20/18 Q1014 R23/CLRD//
     TEMPO 2000 TS BKN005=
UMMM 081200Z 26006G09MPS 9999 OVC018 20/15 Q1015 R30/CLRD// NOSIG
     RMK QFE742=
UMMS 081200Z 28003MPS 220V310 9999 OVC019 19/16 Q1015 R31/CLRD//
     NOSIG=
####018000258####
SAEM31 KWBC 081200 RRB
METAR
LKMT 081200Z 05003KT 330V140 CAVOK 22/11 Q1023 NOSIG RMK REG QNH
     1020=
LKPR 081200Z 34005KT 280V050 CAVOK 24/08 Q1023 NOSIG RMK REG QNH
     1020=
LKTB 081200Z VRB03KT CAVOK 24/08 Q1022 NOSIG RMK REG QNH 1020=
####018000098####
SAFR41 KWBC 081200 RRB
METAR
LFKF 081200Z 21006KT 170V260 9999 FEW032TCU 31/22 Q1019 NOSIG=
####018000340####
SAPO32 LPMG 081200
METAR LPAZ 081200Z 26005KT 220V280 9999 BKN016 BKN030 21/19 Q1025=
METAR LPFL 081200Z 21007KT 170V270 9999 FEW024TCU SCT035 23/17 Q1022=
METAR LPHR 081200Z 22006KT 9999 SCT013 BKN035 23/19 Q1024=
METAR LPLA 081200Z 12007KT 9999 SCT013 BKN028 20/19 Q1024=
METAR LPPD 081200Z 28004KT 9999 FEW017 BKN030 20/16 Q1024=
####018001500####
SAIY43 LIIB 081200
METAR LIBA 081155Z /////KT CAVOK 28/09 Q1020 RMK SKC VIS MIN 9999
      WIND THR29 32013KT BLU=
METAR LIBC 081150Z 05016KT CAVOK 27/12 Q1018 RMK VIS MIN 9999=
METAR LIBD 081150Z 36015KT CAVOK 25/11 Q1020 RMK VIS MIN 9999=
METAR LIBG 081150Z 35017KT 330V060 CAVOK 28/09 Q1018 RMK VIS MIN
9999=
METAR LIBN 081155Z 35029G39KT 9999 FEW030 26/12 Q1017 RMK FEW VIS MIN
      9999 WIND THR14 35020G34KT BLU=
METAR LIBP 081150Z 02006KT CAVOK 26/// Q1022 RMK VIS MIN 9999=
METAR LIBQ 081155Z 26005KT 9999 SCT009 17/11 Q1024 RMK SCT MON LIB
      VAL NIL VIS MIN 9999=
METAR LIBR 081145Z /////KT CAVOK 25/13 Q1018 NOSIG RMK SKC VIS MIN
      9999 WIND THR13 WIND THR31 34020KT BLU=
METAR LIBV 081155Z 01019G30KT CAVOK 25/09 Q1018 RMK SKC VIS MIN 9999
      WIND THR14 36018KT BLU=
METAR LICA 081150Z 27015KT 9999 FEW020 28/22 Q1017 RMK VIS MIN 9999=
METAR LICC 081150Z 10012KT 8000 NSC 28/21 Q1018 RMK VIS MIN 8000=
METAR LICD 081150Z 01010KT CAVOK 26/20 Q1019 RMK VIS MIN 9999=
METAR LICG 081155Z 33007KT CAVOK 24/22 Q1019 RMK BKN BKN160 VIS MIN
      9999 WIND THR08 33006KT WIND THR21 33010KT BLU=
METAR LICJ 081150Z 04013KT 9999 FEW018 28/23 Q1018 RMK VIS MIN 9999=
METAR LICR 081150Z 20009KT 170V230 9999 FEW020 BKN040 27/19 Q1018
RMK VIS MIN 9999=
METAR LICT 081155Z 33014G25KT 9999 FEW022 30/25 Q1017 RMK FEW VIS MIN
      9999 WIND THR13 32011KT BLU=
METAR LICZ 081155Z 08017KT 9999 FEW020 31/19 Q1017 RMK FEW VIS MIN
      9999 WIND THR28 //////KT BLU=
####018000122####
SAIY40 LIIB 081200 RRB
METAR LIVP 081155Z 10004KT 9999 FEW002 14/09 Q1029 RMK FEW MON LIB
      VAL NIL VIS MIN 9999=
####018000115####
SAIO31 KWBC 081200 RRB
METAR
WBSB 081200Z 17005KT 9999 FEW005 FEW016CB BKN140 25/25 Q1010 RERA
     NOSIG=
####018000757####
SAAO32 GOOY 081200
METAR GABS 081200Z 23005KT 190V260 9999 FEW030 31/22 Q1015 NOSIG=
METAR GGOV 081200Z 18007KT 100V270 9999 BKN015TCU 31/23 Q1013 NOSIG=
METAR GOOY 081200Z 16009KT 9999 SCT013 30/24 Q1012 NOSIG=
METAR DIAP 081200Z 21006KT 180V250 7000 SCT012 BKN070 28/25 Q1015
NOSIG=
METAR GQNN 081200Z 19012KT 150V220 6000 NSC 31/22 Q1013 NOSIG=
METAR GQPP 081200Z VRB02KT 8000 NSC 28/19 Q1012 NOSIG=
METAR GUCY 081200Z 18006KT 9999 FEW016 SCT116 29/24 Q1014=
METAR GVAC 081200Z 07011KT 9999 BKN014 25/20 Q1014 NOSIG=
METAR GFLL 081200Z 15008KT 9999 SCT014 FEW028CB 29/24 Q1014 CB-NE=
METAR GBYD 081200Z 0000KT 9999 SCT011 FEW018CB BKN120 26/25 1013
CBS-NW=
METAR GLRB 081200Z 19006KT 9999 BKN018 FEW026CB 30/25 Q1014 CB-S=

####018000075####
SAIY43 KWBC 081150 RRB
METAR
LIVP 081155Z 10004KT 9999 FEW002 14/09=
####018000144####
SAJP43 KWBC 081200 RRA
METAR
RJOI 081200Z 00000KT 9000 HZ SCT030 BKN120 OVC230 27/23 A2983 RMK
     SLP099 T02720228 10283 20267 51017=
####018000116####
SAUS41 KOKX 081209
MTRNYC
SPECI KNYC 081208Z AUTO 16007KT 130V200 5SM HZ OVC014 27/23 A3008 
RMK AO2 TSNO $
####018000296####
SANZ31 KWBC 081200
METAR
NZAA 081200Z 23010KT 9999 FEW025 10/06 Q1011 NOSIG=
NZCH 081200Z 22009KT 9999 -SHRA FEW014 SCT035 BKN055 06/03 Q1016
     TEMPO 6000 SHRA=
NZOH NIL=
NZWN 081200Z 20029KT 9999 -SHRA FEW015 SCT030 BKN037 08/05 Q1013
     WS R16 TEMPO 6000 SHRA=
NZWP NIL=
####018001026####
SARS35 RUMS 081200
METAR USPP 081200Z 36003MPS CAVOK 28/09 Q1015 NOSIG RMK QFE750/1001
21090060=
METAR UWKD 081200Z 26003MPS 9999 SCT050CB BKN070 30/12 Q1015 TEMPO
VRB15MPS 3000 TSRA RMK QFE750/1000 79CLRD70=
METAR UWKE 081200Z 03003MPS 9999 FEW040 31/09 Q1015 NOSIG RMK
QFE745/0993 22090070=
METAR UWKS 081200Z 28003MPS 9999 VCTS -SHRA BKN033CB 30/14 Q1016
NOSIG RMK QFE747 SC0.60=
METAR UWLL 081200Z 09003MPS 9999 SCT050CB 32/11 Q1015 NOSIG RMK
QFE749/0998 SC065=
METAR UWLW 081200Z 04003MPS 8000 FEW040CB 33/14 Q1014 TEMPO -TSRA
02CLRD60 RMK QFE754=
METAR UWOR 081200Z 07006MPS CAVOK 30/00 Q1014 07CLRD65 NOSIG RMK
QFE735/0980=
METAR UWOO 081200Z 02004MPS P5000 FEW070 32/03 Q1012 08ÛLRD65 NOSIG
RMK QFE748/0998=
METAR UWPP 081200Z 14004MPS 9999 SCT033CB BKN100 33/09 Q1013 NOSIG
RMK QFE745 11090060=
METAR UWSS 081200Z 03005MPS CAVOK 31/11 Q1014 NOSIG RMK QFE749
120///60=
METAR UWWW 081200Z 04006G09MPS 9999 SCT033 BKN200 32/07 Q1015 NOSIG
RMK QFE748/0997 05CLRD60 15//99//=
####018000077####
SPXX61 KWBC 081210
SPECI
EGUN 081207Z 24007KT 9999 BKN030 22/17 A3007=
####018000434####
SAPR41 KWBC 081200
METAR
SPCL NIL=
SPEC NIL=
SPEI NIL=
SPEO NIL=
SPGM NIL=
SPHI 081200Z 17007KT 9999 SCT010 BKN100 15/13 Q1014 RMK BIRD
     HAZARD RWY 19/01 PP000=
SPHO NIL=
SPHY NIL=
SPJA NIL=
SPJI NIL=
SPJL NIL=
SPJN NIL=
SPJR NIL=
SPME NIL=
SPMS NIL=
SPNC NIL=
SPPY NIL=
SPRU 081200Z 00000KT 7000 OVC015 16/13 Q1013 RMK BIRD HAZARD RWY20
     PP000=
SPST NIL=
SPTU NIL=
SPUR NIL=
####018000097####
SPXX61 KWBC 081210
SPECI
EGUN 081204Z AUTO 24006KT 9999 BKN030 22/17 A3007 RMK AO2 SLP170=
####018001876####
SARA31 KWBC 081200 RRB
METAR
UEEE 081200Z 24002MPS 9999 -SHRA SCT050CB OVC100 20/13 Q1008 NOSIG
     RMK QFE747 2309//60=
UHHH 081200Z 04003MPS 9999 SCT033CB OVC100 17/15 Q1011 NOSIG RMK
     QFE752/1002 55090060=
UHMA 081200Z NIL=
UHMM 081200Z 25001MPS 9999 OVC008 12/11 Q1016 RMK QFE747 88010070
     MT OBSC=
UHMP 081200Z NIL=
UHPP 081200Z NIL=
UHSS 081200Z 00000MPS 9999 BKN016 13/12 Q1011 RMK MT OBSC
     QFE757/1010=
UHWW 081200Z 00000MPS 9999 SCT013 BKN023CB OVC100 16/14 Q1011
     NOSIG RMK QFE757/1010 75CLRD70=
UIAA 081200Z 29006MPS 9999 VCTS -SHRA BKN033CB OVC100 19/14 Q1009
     NOSIG RMK QFE698 29CLRD70=
UIBB 081200Z 07003MPS 9999 BKN200 25/12 Q1006 NOSIG RMK
     QFE711/0949 30CLRD60=
UIII 081200Z 19003MPS CAVOK 19/12 Q1006 NOSIG RMK QFE712/0950
     12CLRD60=
UIUU 081200Z 26002MPS 9999 SCT033CB OVC100 21/15 Q1007 NOSIG RMK
     QFE711/0948=
ULAA 081200Z 31003G06MPS 240V010 9999 FEW033 28/19 Q1015 TEMPO
     TSRA RMK QFE760/1013 SC070=
UMBB 081200Z 30005G08MPS 8000 SCT030 24/12 Q1019 R29/CLRD//
     NOSIG=
UMGG 081200Z 22002MPS 9999 BKN040CB BKN100 24/21 Q1014 R28/290550
     NOSIG=
UMII 081200Z 21005MPS 4800 -SHRA BKN015CB 20/18 Q1014 R23/CLRD//
     TEMPO 2000 TS BKN005=
UMMG 081200Z 32007G10MPS 9999 BKN026 BKN066 22/12 Q1016 R35/CLRD//
     NOSIG=
UMMM 081200Z 26006G09MPS 9999 OVC018 20/15 Q1015 R30/CLRD// NOSIG
     RMK QFE742=
UMMS 081200Z 28003MPS 220V310 9999 OVC019 19/16 Q1015 R31/CLRD//
     NOSIG=
UNAA 081200Z 04003MPS 9999 SCT030CB BKN100 20/11 Q1011 NOSIG RMK
     QFE736 202///55=
UNNT 081200Z 21003MPS 180V240 9999 BKN060CB OVC100 19/03 Q1007
     NOSIG RMK QFE745/0994 25090070=
USNN 081200Z 16003MPS P6000 FEW026 SCT200 18/10 Q1003 NOSIG RMK
     QFE747 SC065=
UUEE 081200Z 16004MPS 120V200 9999 SCT050CB BKN200 28/14 Q1015
     NOSIG=
####018000826####
SARS31 KWBC 081200 RRA
METAR
UELL 081200Z VRB01MPS 9999 SCT006 BKN030CB OVC200 13/12 Q1012
     NOSIG RMK MT PT OBSC QFE685 08CLRD70=
UEST 081200Z 12002MPS 9999 -RA OVC130 05/03 Q1018 NOSIG RMK
     QFE762=
ULLI 081200Z 15002MPS 120V190 9999 BKN040CB BKN066 BKN200 31/18
     Q1013 NOSIG=
ULMM 081200Z 29001MPS 9999 BKN023 15/09 Q1018 NOSIG RMK QFE756
     32190060=
UOHH 081200Z 02003MPS 9999 FEW030 SCT/// 15/04 Q1023 NOSIG RMK
     QFE761 06090060=
UOOO 081200Z 03008G10MPS CAVOK 21/10 Q1010 NOSIG RMK QFE743
     010///60=
UUDD 081200Z 14005MPS 9999 FEW050TCU BKN200 28/14 Q1015 TEMPO
     VRB12MPS TSRA=
UUEE 081200Z 16004MPS 120V200 9999 SCT050CB BKN200 28/14 Q1015
     NOSIG=
UUEM 081200Z NIL=
UUWW 081200Z 15004MPS 120V200 9999 SCT040 BKN100 27/15 Q1015
     24000070 NOSIG=
####018000834####
SARS32 KWBC 081200 RRA
METAR
URKA 081200Z 05005MPS 9999 SCT026 29/20 Q1012 NOSIG RMK 065=
URKK 081200Z 06004MPS 9999 BKN043 30/20 Q1012 NOSIG RMK QFE756
     SC070=
URKM 081200Z 08003MPS 9999 SCT040 BKN100 31/17 Q1012 NOSIG RMK
     QFE740=
URMM 081200Z 10006G09MPS 9999 BKN046 30/19 Q1012 NOSIG RMK /
     SC070=
URMN 081200Z 08004MPS 9999 BKN036CB BKN110 29/19 Q1013 NOSIG RMK /
     QFE723 SC07=
URMT 081200Z 06005G08MPS 9999 SCT020 BKN100 28/17 Q1014 NOSIG RMK
     QFE721 SC07=
URRR 081200Z 00000MPS 9999 FEW036 31/15 Q1013 NOSIG RMK SC070=
URSS 081200Z 29004MPS 9999 FEW040 28/21 Q1009 NOSIG RMK / QFE756
     06CLRD70=
URWA 081200Z 28002MPS CAVOK 38/12 Q1011 NOSIG RMK SC07=
URWI 081200Z 00000MPS CAVOK 31/16 Q1013 NOSIG RMK SC065=
URWW 081200Z 34003MPS CAVOK 30/12 Q1014 NOSIG RMK SC070=
####018000823####
SARS33 KWBC 081200 RRA
METAR
USCC 081200Z 34006G11MPS 9999 FEW040 SCT200 26/01 Q1013 NOSIG RMK
     QFE740 27000070=
USDD 081200Z 04008G11MPS CAVOK 17/M00 Q1015 NOSIG RMK QFE756/1008
     SC060=
USMU 081200Z 02005MPS 9999 -SHRA SCT030CB SCT040 OVC066 14/12
     Q1006 NOSIG RMK QFE749 09250345=
USNN 081200Z 16003MPS P6000 FEW026 SCT200 18/10 Q1003 NOSIG RMK
     QFE747 SC065=
USPP 081200Z 36003MPS CAVOK 28/09 Q1015 NOSIG RMK QFE750/1001
     21090060=
USRK 081200Z 35003MPS 6000 BKN020 OVC066 14/10 Q1004 NOSIG RMK
     QFE747 351///55=
USRR 081200Z 35003MPS 7000 OVC010 13/10 Q1005 TEMPO BKN007 RMK
     QFE748 25////60=
USSS 081200Z 35007G10MPS CAVOK 25/01 Q1014 NOSIG RMK QFE740
     260///70=
USTR 081200Z 35003MPS 9999 SCT046 18/06 Q1012 NOSIG RMK
     QFE750/1000 30CLRD65=
####018001452####
SARS41 KWBC 081200 RRA
METAR
UUBP 081200Z 35004MPS 9999 -SHRA BKN029CB BKN/// 25/18 Q1013
     OSIG=
UUEE 081200Z 16004MPS 120V200 9999 SCT050CB BKN200 28/14 Q1015
     NOSIG=
UUEM 081200Z NIL=
UUOO 081200Z 18002MPS 9999 SCT033CB 28/14 Q1014 NOSIG RMK
     13090070=
UUWW 081200Z 15004MPS 120V200 9999 SCT040 BKN100 27/15 Q1015
     24000070 NOSIG=
UUYH 081200Z 00000MPS CAVOK 27/11 Q1016 NOSIG RMK QFE 750
     18CLRD60=
UUYS 081200Z 16003MPS CAVOK 21/05 Q1015 NOSIG RMK QFE755
     14CLRD60=
UUYY 081200Z VRB01MPS 9999 FEW033 OVC200 30/14 Q1015 NOSIG
     19CLRD61 RMK QFE753/1004=
UWGG 081200Z 12003MPS 060V170 8000 FEW033 34/08 Q1016 NOSIG RMK
     QFE755 18090070=
UWKD 081200Z 26003MPS 9999 SCT050CB BKN070 30/12 Q1015 TEMPO
     VRB15MPS 3000 TSRA RMK QFE750/1000 79CLRD70=
UWKE 081200Z 03003MPS 9999 FEW040 31/09 Q1015 NOSIG RMK
     QFE745/0993 22090070=
UWLW 081200Z 04003MPS 8000 FEW040CB 33/14 Q1014 TEMPO -TSRA
     02CLRD60 RMK QFE754=
UWOO 081200Z 02004MPS P5000 FEW070 32/03 Q1012 08LRD65 NOSIG RMK
     QFE748/0998=
UWPP 081200Z 14004MPS 9999 SCT033CB BKN100 33/09 Q1013 NOSIG RMK
     QFE745 11090060=
UWSS 081200Z 03005MPS CAVOK 31/11 Q1014 NOSIG RMK QFE749
     120///60=
UWUU 081200Z 35005G08MPS 300V010 CAVOK 28/09 Q1015 82010060 NOSIG
     RMK QFE750/1000=
UWWW 081200Z 04006G09MPS 9999 SCT033 BKN200 32/07 Q1015 NOSIG RMK
     QFE748/0997 05CLRD60 15//99//=
####018000081####
SAVN42 KWBC 081200 RRB
METAR
SVPR 081200Z 00000KT 9999 BKN050 XX/XX Q1013=
####018000144####
SAXX62 KWBC 081200 RRA
METAR
RJOI 081200Z 00000KT 9000 HZ SCT030 BKN120 OVC230 27/23 A2983 RMK
     SLP099 T02720228 10283 20267 51017=
####018000159####
SAXX99 KWBC 081200 RRK
METAR
VTUU 081200Z 18002KT 9999 FEW018CB FEW023 BKN300 33/24 Q1005 A2970
     CB SW,NW=
VTUV 081200Z NIL=
VTUW 081200Z NIL=
####018003680####
SAXX99 KWBC 081200 RRJ
METAR
DAAD 081200Z NIL=
DAAE 081200Z 09010KT CAVOK 28/22 Q1019=
DAAJ 081200Z 06024KT CAVOK 36/04 Q1019=
DAAP 081200Z 00000KT CAVOK 40/04 Q1015=
DAAS 081200Z 30008KT CAVOK 34/03 Q1024=
DAAV 081200Z 02012KT CAVOK 29/20 Q1019=
DAAY 081200Z 34004KT CAVOK 37/11 Q1025=
DABT 081200Z NIL=
DAFH 081200Z 12012KT CAVOK 36/16 Q1022=
DAOB 081200Z NIL=
DAOF 081200Z 12010KT 4000 HZ NSC 43/05 Q1014=
DAOF 081200Z NIL=
DAOL 081200Z 05014KT 8000 NSC 38/22 Q1016=
DAOR 081200Z 12010KT CAVOK 39/06 Q1023=
DAOV 081200Z 06008KT CAVOK 41/09 Q1019=
DATG 081200Z NIL=
DATM 081200Z NIL=
DAUB 081200Z 13009KT CAVOK 36/15 Q1017=
DAUE 081200Z 04011KT CAVOK 37/09 Q1020=
DAUI 081200Z NIL=
DAUK 081200Z NIL=
DAUL 081200Z 00000KT CAVOK 37/11 Q1022=
DAUO 081200Z 00000KT CAVOK 36/16 Q1017=
DAUT 081200Z ///18KT 4000 DRSA NSC 41/09 Q1016=
DAUU 081200Z 04010KT CAVOK 39/16 Q1017=
EPLL 081200Z 30006KT CAVOK 23/05 Q1022=
KCBE 081207Z AUTO 00000KT 7SM CLR 23/18 A3011 RMK AO1=
KFME 081209Z AUTO 10003KT 5SM CLR 25/23 A3004 RMK AO1=
LKKV 081200Z VRB03KT CAVOK 24/10 Q1023 RMK REG QNH 1020=
MMEP 081205Z RTD 00000KT 4SM BKN003 OVC009 22/21 A2999 RMK SLP095
     56003 901 8/8// BR ARND RTS=
MMPS 081200Z RTD 06006KT 15SM SCT015 BKN070 OVC240 25/19 A2998 RMK
     SLP128 57010 961 8/263=
UERP 081200Z 02004MPS 9999 SCT033CB BKN100 14/06 Q1014 NOSIG RMK
     QFE717 35090065=
UERR 081200Z 34002MPS 9999 FEW020CB SCT100 OVC200 15/14 Q1012
     NOSIG RMK QFE728 24CLRD60=
UESO 081200Z NIL=
UHNN 081200Z 07001MPS 9999 -SHRA FEW010 BKN028CB OVC070 11/10
     Q1013 RMK QFE755=
UHSH 081200Z NIL=
ULDD 081200Z NIL=
ULKK 081200Z 34002MPS 6000 FEW033 SCT099 33/17 Q1015 NOSIG RMK
     QFE757=
ULOL 081200Z NIL=
ULOO 081200Z VRB02MPS P6000 SCT033TCU BKN200 29/18 Q1011 TEMPO
     VRB14MPS SQ RMK QFE755=
ULWW 081200Z 16004MPS 9999 SCT050TCU BKN/// 32/16 Q1016 NOSIG RMK
     QFE751 15CLRD60=
UMKK 081200Z 31007MPS P8000 FEW033 SCT200 22/15 Q1020 NOSIG RMK
     QFE 764 SC07=
UMOO 081200Z 24002MPS 9999 BKN019CB BKN/// 22/17 Q1013 R31/290056
     NOSIG=
UNBB 081200Z NIL=
UNEE 081200Z 28002MPS 9999 SCT026CB BKN200 19/08 Q1009 NOSIG RMK
     QFE734 23CLRD60=
UNKL 081200Z VRB01MPS 9999 SCT026CB OVC083 18/14 Q1010 NOSIG RMK
     QFE732 29////60=
UNOO 081200Z 31004MPS 9999 BKN026CB 14/10 Q1008 NOSIG 25CLRD06 RMK
     QFE748=
UNWW 081200Z 24002MPS 9999 BKN026CB OVC100 14/10 Q1010 NOSIG RMK
     QFE731 1929//60=
UOII 081200Z 16006MPS 9999 BKN033CB BKN100 21/16 Q1007 TEMPO -TSRA
     RMK QFE753 12////60=
URML 081200Z 07005MPS 9999 FEW100 33/20 Q1012 NOSIG RMK QFE759 /
     07=
UWLL 081200Z 09003MPS 9999 SCT050CB 32/11 Q1015 NOSIG RMK
     QFE749/0998 SC065=
UWOR 081200Z 07006MPS CAVOK 30/00 Q1014 07CLRD65 NOSIG RMK
     QFE735/0980=
VTBO 081200Z NIL=
VTCH 081200Z NIL=
VTCL 081200Z NIL=
VTCN 081200Z NIL=
VTCP 081200Z NIL=
VTCT 081200Z NIL=
VTPB 081200Z NIL=
VTPH 081200Z 16003KT 9999 FEW030 32/23 Q1006=
VTPM 081200Z NIL=
VTPO 081200Z NIL=
VTPP 081200Z NIL=
VTPT 081200Z NIL=
VTSB 081200Z 34005KT 9999 SCT020TCU SCT120 32/23 Q1008 A2977 TCU
     SW=
VTSC 081200Z NIL=
VTSE 081200Z NIL=
VTSF 081200Z 18004KT 9999 FEW016CB BKN300 26/22 Q1008 A2978 CB
     SW=
VTSG 081200Z NIL=
VTSK 081200Z NIL=
VTSM 081200Z 34005KT 9999 FEW020 BKN300 31/25 Q1008 A2979=
VTSR 081200Z NIL=
VTST 081200Z NIL=
VTUD 081200Z 17004KT 130V220 9999 FEW020CB SCT300 33/22 Q1005
     A2968 CB SW,NW INFO N RWY30=
VTUI 081200Z NIL=
VTUJ 081200Z NIL=
VTUK 081200Z NIL=
VTUL 081200Z NIL=
VTUO 081200Z NIL=
VTUQ 081200Z NIL=
####018000501####
SAZA31 KWBC 081200
METAR
FABB NIL=
FABE NIL=
FABL 081200Z 30006KT CAVOK 17/04 Q1031 NOSIG=
FABM NIL=
FACT 081200Z VRB02KT CAVOK 22/02 Q1017 NOSIG=
FADN NIL=
FAEL NIL=
FAGG 081200Z 18003KT 130V210 CAVOK 19/05 Q1020=
FAGM NIL=
FAJS 081200Z 07007KT 050V130 9999 SCT045 15/03 Q1033 NOSIG=
FAKT NIL=
FALW NIL=
FALZ NIL=
FAPB NIL=
FAPE 081200Z 04011KT CAVOK 18/11 Q1022 NOSIG=
FAPR NIL=
FASB NIL=
FAUP 081200Z 36018KT CAVOK 23/02 Q1025 NOSIG=
FAWH NIL=
FAWK NIL=
####018000080####
SPCN51 CWAO 081208
SPECI CZCP 081208Z AUTO 28021KT 9SM OVC003 04/ A2985=

####018000327####
SAAL31 DAAA 081200
METAR DAAG 081200Z 03010KT 350V060 CAVOK 34/17 Q1018=
METAR DAAT 081200Z NIL=
METAR DABB 081200Z 01013KT CAVOK 29/21 Q1019=
METAR DABC 081200Z 02008KT CAVOK 33/07 Q1022=
METAR DAON 081200Z 02008KT 9999 FEW026 36/20 Q1017=
METAR DAOO 081200Z 36014KT CAVOK 29/22 Q1016=
METAR DAUH 081200Z NIL=
####018001584####
SAIY42 LIIB 081200
METAR LIBF 081150Z 33017KT CAVOK 28/07 Q1020 RMK VIS MIN 9999=
METAR LIEA 081150Z 18005KT 140V210 9999 FEW025 32/21 Q1019 RMK VIS
MIN 9999=
METAR LIED 081155Z 16016KT 9999 SCT018 32/19 Q1018 RMK SCT VIS MIN
      9999 BLU=
METAR LIEO 081150Z 05012KT 030V090 CAVOK 30/21 Q1019 RMK VIS MIN
9999=
METAR LIMA 081150Z 00000KT 9999 SCT040 26/16 Q1022 RMK VIS MIN 9999=
METAR LIQN 081150Z 34004KT 9999 FEW045 28/18 Q1021 RMK VIS MIN 9999=
METAR LIQO 081155Z 19003KT 9999 SCT003 27/20 Q1022 RMK SCT VAL NIL NC
      VIS MIN 9999=
METAR LIQW 081200Z NIL=
METAR LIRE 081155Z 23010KT 9999 FEW020 28/20 Q1019 RMK FEW VIS MIN
      9999 WIND THR31 23010KT BLU=
METAR LIRG 081155Z 28008KT 9999 SCT033TCU 32/17 Q1019 RMK SCT MON
     NE LIB NC VIS MIN 9999 BLU=
METAR LIRH 081155Z 35005KT 9999 FEW035 FEW040TCU 30/19 Q1020 RMK SCT
      MON LIB NC VIS MIN 9999 WIND THR16 30007KT BLU=
METAR LIRI 081150Z 02011KT CAVOK 29/11 Q1019 RMK VIS MIN 9999=
METAR LIRK 081155Z 15009KT CAVOK 16/15 Q1027 RMK SCT SCT060 MON NE
      LIB NC VAL NIL NC VIS MIN 9999=
METAR LIRL 081155Z 24009KT 9999 FEW020TCU 30/17 Q1019 RMK FEW MON LIB
      NC VIS MIN 9999 BLU=
METAR LIRM 081155Z 01005KT 9999 FEW016 30/15 Q1019 RMK FEW VIS MIN
      9999 WIND THR06 05007KT BLU=
METAR LIRS 081155Z 23010KT 9999 FEW040 31/19 Q1019 RMK FEW VIS MIN
      9999 WIND THR21 /////KT BLU=
METAR LIRT 081155Z 35008KT 9999 FEW015 17/06 Q1023 RMK FEW MON LIB
      VAL NIL VIS MIN 9999=
METAR LIRU 081150Z 25003KT 9999 SCT040 30/20 Q1020 RMK VIS MIN 9999=
####018000764####
SAHK31 VHHH 081200
METAR VHHH 081200Z 19006KT 140V240 9999 FEW015 31/26 Q1007 NOSIG=
METAR RCTP 081200Z 23010KT 9999 FEW025 BKN150 29/24 Q1007
NOSIG=
METAR RCKH 081200Z 26006KT 230V290 9999 FEW013 BKN300 30/26
Q1009 NOSIG=
METAR RCSS 081200Z 25008KT 190V300 9999 FEW018 SCT028 BKN045 31/23
Q1007 NOSIG=
METAR VMMC 081200Z 19012KT 170V260 9999 FEW020 29/26 Q1006
     NOSIG=
METAR RPLL 081200Z 07003KT 9000 FEW025 BKN100 30/26 Q1009 NOSIG
           RMK A2980=
METAR RPVM 081200Z 16004KT 9999 FEW018CB BKN250 29/25 Q1010 A2985
           CB W W/ OCNL LTNG=
METAR RPMD 081200Z NIL=
METAR RPLB 081200Z 17004KT 9999 FEW020 SCT080 29/25 Q1010 NOSIG=
METAR RPLI 081200Z NIL=
METAR RPMZ 081200Z 00000KT 9999 FEW018 SCT350 28/26 Q1011=
####018000950####
SARS32 RUMS 081200
METAR URKA 081200Z 05005MPS 9999 SCT026 29/20 Q1012 NOSIG RMK Û„ 065=
METAR URKK 081200Z 06004MPS 9999 BKN043 30/20 Q1012 NOSIG RMK QFE756
SC070=
METAR URKM 081200Z 08003MPS 9999 SCT040 BKN100 31/17 Q1012 NOSIG RMK
QFE740=
METAR URML 081200Z 07005MPS 9999 FEW100 33/20 Q1012 NOSIG RMK QFE759
Á/Ô Û„07=
METAR URMM 081200Z 10006G09MPS 9999 BKN046 30/19 Q1012 NOSIG RMK Á/Ô
SC070=
METAR URMN 081200Z 08004MPS 9999 BKN036CB BKN110 29/19 Q1013 NOSIG
RMK Á/Ô QFE723 SC07=
METAR URMT 081200Z 06005G08MPS 9999 SCT020 BKN100 28/17 Q1014 NOSIG
RMK QFE721 SC07=
METAR URRR 081200Z 00000MPS 9999 FEW036 31/15 Q1013 NOSIG RMK SC070=
METAR URSS 081200Z 29004MPS 9999 FEW040 28/21 Q1009 NOSIG RMK Á/Ô
QFE756 06CLRD70=
METAR URWA 081200Z 28002MPS CAVOK 38/12 Q1011 NOSIG RMK SC07=
METAR URWI 081200Z 00000MPS CAVOK 31/16 Q1013 NOSIG RMK SC065=
METAR URWW 081200Z 34003MPS CAVOK 30/12 Q1014 NOSIG RMK SC070=
####018000395####
SARA33 RUMS 081200
METAR UIAA 081200Z 29006MPS 9999 VCTS -SHRA BKN033CB OVC100 19/14
Q1009 NOSIG RMK Á˙ ‡˙ ÛÌÂ˝ ˜ QFE698 29CLRD70=
METAR UIBB 081200Z 07003MPS 9999 BKN200 25/12 Q1006 NOSIG RMK
QFE711/0949 30CLRD60=
METAR UIII 081200Z 19003MPS CAVOK 19/12 Q1006 NOSIG RMK QFE712/0950
12CLRD60=
METAR UIUU 081200Z 26002MPS 9999 SCT033CB OVC100 21/15 Q1007 NOSIG
RMK QFE711/0948=
####018000075####
SAMY31 MBPV 081202
METAR MBPV 081200 23006KT 9999 SCT020 29/25 2999
####018000387####
SAXX60 KAWN 081200 RRB
METAR PHNG 081157Z COR 07010KT 10SM SCT026 BKN040 24/19 A3003 RMK AO2
      SLP163 P0001 60001 70001 T02440194 10250 20244 58012 $=
METAR PHNG 081157Z 07010KT 10SM SCT020 BKN040 24/19 A3003 RMK AO2 SLP163
      P0001 60001 70001 T02440194 10250 20244 58012 $=
METAR RJTT 081200Z 18007KT 140V220 9999 FEW008 BKN/// 25/22 Q1010 RMK
      1ST008 A2983=
####018000068####
SAXX70 KAWN 081200 RRJ
METAR KQOW 081155Z AUTO RMK AO2 SLPNO $=
####018000073####
SAUS81 KWBC 081208
&EHA SA 1208  AMOS 63/61/0107/M PK WND 08 002

####018000627####
SAUS20 KNKA 081210
METAR KCCA 081215Z AUTO 00000KT 7SM OVC004 23/23 A3008 RMK AO2 =
METAR KCDN 081215Z AUTO 28003KT 10SM CLR 27/21 A3001 RMK A02 P000 
     =
METAR KCKI 081215Z AUTO 29006KT CLR 25/20 A2996 RMK AO2 PWINO=
SPECI KHOU 081209Z 07007KT 3SM -RA BR FEW008 SCT010 BKN022 OVC130 
    24/23 A2994 RMK AO2 RAB00 PRESRR P0006=
METAR KLRO 081215Z AUTO 00000KT 7SM CLR 24/19 A2996 RMK AO2 =
METAR KMKS 081215Z AUTO 00000KT 7SM CLR 24/20 A2997 RMK AO2 TSNO=
METAR KMYR 081145Z 32010KT 10SM CLR 26/19 A2996 =
SPECI KOZR 081206Z 00000KT 3/4SM R06/2200VP6000FT BR VV001 23/23 A3004
      RMK AO2A SLP169=
####018000124####
SAIY40 LIIB 081200 RRB
METAR LIVP 081155Z 10004KT 9999 FEW002 14/09 Q1029 RMK FEW MON LIB
      VAL NIL VIS MIN 9999=
####018000078####
SADO31 TDPD 081200
METAR TDCF 081200Z 16003KT 9999 BKN016 27/24 Q1014=
####018000260####
SABC40 FBSK 081200
METAR FBSK 081200Z 07011KT 9999 BKN020 19/07 Q1029 NOSIG=
METAR FBFT 081200Z 11015KT 9999 BKN020 20/10 Q1029=
METAR FBMN 081200Z 07008KT CAVOK 25/04 Q1026=
METAR FBKE 081200Z 10013KT CAVOK 23/07 Q1026=
METAR FBSP 081200Z NIL=

####018000133####
SACN42 CWAO 081200 CCA
METAR CYIV 081200Z CCA 31008KT 15SM FEW005 FEW020 BKN040 BKN080 15/14
A2983 RMK SF1SC2SC4AC1 SLP107=

####018000131####
SAZB40 FLLS 081200
METAR FLLS 081200Z 07012KT 9/9 BKN037 19/13 Q1027 NOSIG=
METAR FLLI 081200Z 07008KT CAVOK 23/06 Q1026=

####018000116####
SAIN32 VIDP 081130 RRA
METAR VILK 081130Z 22008KT 5000 HZ SCT020 SCT025 FEW030CB 36/24
    Q1000 TEMPO TSRA =
####018000073####
SAIN31 EGGY 081200
METAR VOBG 081200Z NIL=
METAR VOCI 081200Z NIL=
####018000107####
SAUS44 KHGX 081210
MTRSGR
SPECI KSGR 081209Z 11009KT 9SM FEW008 SCT025 BKN075 26/23 A2993 RMK 
AO2
####018000930####
SPUS99 KWBC 081211
SPECI
KALI 081208Z AUTO 02006KT 10SM SCT004 25/24 A2984 RMK AO2=
KDMO 081208Z AUTO 19004KT 1 3/4SM BR BKN002 OVC009 23/22 A3008 RMK
     AO2=
KDPA 081208Z 26004KT 3SM BR FEW006 BKN020 OVC050 23/22 A3004 RMK
     AO2=
KDYL 081208Z AUTO 00000KT 3SM BR CLR 25/23 A3004 RMK AO2 TSNO=
KGLD 081208Z AUTO 01003KT 10SM SCT004 BKN009 OVC014 17/16 A3031
     RMK AO2 CIG 008V011=
KLVJ 081208Z AUTO 11009G19KT 2 1/2SM VCTS RA BR BKN030 BKN041
     OVC055 26/23 A2995 RMK AO2 LTG DSNT NW-E TSB00RAB1157
     P0009=
KOKB 081208Z AUTO 00000KT 8SM OVC016 17/14 A2989 RMK AO2=
KPBI 081208Z 04007KT 2SM +RA BR FEW006 SCT015 BKN028CB 24/23 A2996
     RMK AO2 VIS W-N 3/4 CB OHD-ALQDS MOV W P0008=
KHOU 081209Z 07007KT 3SM -RA BR FEW008 SCT010 BKN022 OVC130 24/23
     A2994 RMK AO2 RAB00 PRESRR P0006=
KOZR 081206Z 00000KT 3/4SM R06/2200VP6000FT BR VV001 23/23 A3004
     RMK AO2A SLP169=
####018002746####
SAUS99 KWBC 081211
METAR
KSNK 081206Z AUTO 03006KT 7SM BKN003 OVC010 21/20 A3011 RMK AO2
     T02080198=
KSWW 081205Z AUTO 02004KT 3SM OVC002 22/21 A3011 RMK AO1
     T02150210=
KT65 081205Z AUTO 34005KT 10SM OVC006 26/25 A2978 RMK AO2
     T02550247=
KT82 081205Z AUTO 09003KT 22/22 A3003 RMK AO1 T02230216=
KUVA 081205Z AUTO 05003KT 7SM CLR 24/23 A2996 RMK AO2
     T02410231=
KJSO 081210Z AUTO 07004KT 4SM BR SCT002 24/24 A3005 RMK AO2
     T02350235=
KJWY 081205Z AUTO 00000KT 7SM 25/23 A3003 RMK AO2 T02450230=
KLBR 081205Z AUTO 00000KT 4SM OVC006 24/23 A3005 RMK AO2
     T02400231=
KLHB 081204Z AUTO 06005KT 5SM BR SCT009 SCT120 25/23 A2998 RMK AO2
     T02500232=
KLNC 081205Z AUTO 00000KT 7SM BKN005 BKN049 OVC120 24/24 A3003 RMK
     AO2 T02430242=
KLUD 081205Z AUTO 00000KT 10SM BKN023 24/23 A3004 RMK AO2
     T02430225=
KMDD 081200Z AUTO 03007KT 5SM BR SCT002 BKN013 OVC090 22/21 A3010
     RMK AO2 T02150205=
KMKN 081200Z AUTO 00000KT 10SM 23/23 A3005 RMK AO2=
KMNZ 081210Z AUTO 08004KT 10SM BKN005 OVC010 25/24 A3003 RMK AO2
     T02450243=
KMQB 081205Z AUTO 30003KT 10SM BKN004 23/22 A3006 RMK AO2
     T02300223=
KOSA 081204Z AUTO 00000KT 3SM OVC002 24/24 A3006 RMK AO1
     T02430239=
KPEZ 081205Z AUTO 02004KT 10SM BKN017 25/23 A2993 RMK AO2
     T02500233=
KPKV 081206Z AUTO 00000KT 7SM SCT013 BKN021 OVC032 25/23 A2987 RMK
     AO2 T02460230=
KPPA 081205Z AUTO 36006KT 5SM BR OVC003 18/17 A3021 RMK AO2=
KPSN 081205Z AUTO 08005KT 7SM 24/23 A3003 RMK AO2 T02420232=
KPYX 081210Z AUTO 36007KT 4SM SCT006 BKN095 OVC110 18/18 A3018 RMK
     AO2 T01840176=
KRAS 081205Z AUTO 09008KT 2 1/2SM -RA SCT001 SCT023 BKN060 27/24
     A2986 RMK AO2 P0001=
KRBO 081205Z AUTO 06005KT 10SM RA SCT006 BKN016 BKN047 26/25 A2984
     RMK AO2 LTG DSNT SW P0001 T02600250=
KRFI 081205Z AUTO 10003KT 5SM BR SCT004 24/23 A3004 RMK AO2
     T02400230=
KRPH 081205Z AUTO 00000KT 10SM CLR 22/21 A3003 RMK AO2
     T02200210=
KRWV 081200Z AUTO 00000KT 5SM BR BKN005 OVC048 24/24 A3000 RMK
     AO2=
KRYW 081205Z AUTO 07005KT 1 3/4SM BR OVC003 24/23 A3000 RMK
     AO2=
KSAR 081205Z AUTO 18005KT 7SM SCT070 BKN085 26/23 A3006 RMK
     AO2=
KSEP 081205Z AUTO 00000KT 5SM SCT022 SCT035 23/22 A3004 RMK
     AO1=
KSLR 081202Z AUTO 12004KT 4SM BR BKN004 OVC050 25/24 A3006 RMK AO2
     T02510237=
KCCA 081215Z AUTO 00000KT 7SM OVC004 23/23 A3008 RMK AO2=
KCDN 081215Z AUTO 28003KT 10SM CLR 27/21 A3001 RMK A02 P000=
KCKI 081215Z AUTO 29006KT CLR 25/20 A2996 RMK AO2 PWINO=
KLRO 081215Z AUTO 00000KT 7SM CLR 24/19 A2996 RMK AO2=
KMKS 081215Z AUTO 00000KT 7SM CLR 24/20 A2997 RMK AO2 TSNO=
KMYR 081145Z 32010KT 10SM CLR 26/19 A2996=
####018000781####
SARA34 RUMS 081200
METAR UNAA 081200Z 04003MPS 9999 SCT030CB BKN100 20/11 Q1011 NOSIG
RMK QFE736 202///55=
METAR UNBB 081200Z NIL=
METAR UNEE 081200Z 28002MPS 9999 SCT026CB BKN200 19/08 Q1009 NOSIG
RMK QFE734 23CLRD60=
METAR UNKL 081200Z VRB01MPS 9999 SCT026CB OVC083 18/14 Q1010 NOSIG
RMK QFE732 29////60=
METAR UNNT 081200Z 21003MPS 180V240 9999 BKN060CB OVC100 19/03 Q1007
NOSIG RMK QFE745/0994 25090070=
METAR UNOO 081200Z 31004MPS 9999 BKN026CB 14/10 Q1008 NOSIG 25CLRD06
RMK QFE748=
METAR UNWW 081200Z 24002MPS 9999 BKN026CB OVC100 14/10 Q1010 NOSIG
RMK QFE731 1929//60=
METAR USTR 081200Z 35003MPS 9999 SCT046 18/06 Q1012 NOSIG RMK
QFE750/1000 30CLRD65=
METAR USHH 081200Z 32002G06MPS 220V020 7000 -SHRA SCT015CB OVC080
10/09 Q1009 NOSIG RMK QFE753 SC06=
####018001003####
SARS35 RUMS 081200
METAR USPP 081200Z 36003MPS CAVOK 28/09 Q1015 NOSIG RMK QFE750/1001
21090060=
METAR UWKD 081200Z 26003MPS 9999 SCT050CB BKN070 30/12 Q1015 TEMPO
VRB15MPS 3000 TSRA RMK QFE750/1000 79CLRD70=
METAR UWKE 081200Z 03003MPS 9999 FEW040 31/09 Q1015 NOSIG RMK
QFE745/0993 22090070=
METAR UWKS 081200Z 28003MPS 9999 VCTS -SHRA BKN033CB 30/14 Q1016
NOSIG RMK QFE747 SC0.60=
METAR UWLL 081200Z 09003MPS 9999 SCT050CB 32/11 Q1015 NOSIG RMK
QFE749/0998 SC065=
METAR UWLW 081200Z 04003MPS 8000 FEW040CB 33/14 Q1014 TEMPO -TSRA
02CLRD60 RMK QFE754=
METAR UWOR 081200Z 07006MPS CAVOK 30/00 Q1014 07CLRD65 NOSIG RMK
QFE735/0980=
METAR UWOO 081200Z 02004MPS P5000 FEW070 32/03 Q1012 08LRD65 NOSIG
RMK QFE748/0998=
METAR UWPP 081200Z 14004MPS 9999 SCT033CB BKN100 33/09 Q1013 NOSIG
RMK QFE745 11090060=
METAR UWSS 081200Z 03005MPS CAVOK 31/11 Q1014 NOSIG RMK QFE749
120///60=
METAR UWWW 081200Z 04006G09MPS 9999 SCT033 BKN200 32/07 Q1015 NOSIG
RMK QFE748/0997 05CLRD60 15//99//=
####018000378####
SARA33 RUMS 081200
METAR UIAA 081200Z 29006MPS 9999 VCTS -SHRA BKN033CB OVC100 19/14
Q1009 NOSIG RMK     QFE698 29CLRD70=
METAR UIBB 081200Z 07003MPS 9999 BKN200 25/12 Q1006 NOSIG RMK
QFE711/0949 30CLRD60=
METAR UIII 081200Z 19003MPS CAVOK 19/12 Q1006 NOSIG RMK QFE712/0950
12CLRD60=
METAR UIUU 081200Z 26002MPS 9999 SCT033CB OVC100 21/15 Q1007 NOSIG
RMK QFE711/0948=
####018000265####
SARS34 RUMS 081200
METAR UUYH 081200Z 00000MPS CAVOK 27/11 Q1016 NOSIG RMK QFE 750
18CLRD60=
METAR UUYS 081200Z 16003MPS CAVOK 21/05 Q1015 NOSIG RMK QFE755
14CLRD60=
METAR UUYY 081200Z VRB01MPS 9999 FEW033 OVC200 30/14 Q1015 NOSIG
19CLRD61 RMK QFE753/1004=
####018001720####
SAIY40 LIIB 081200 RRA
METAR LIMG 081150Z 08009KT 9999 FEW080 30/25 Q1020 RMK VIS MIN 9999=
METAR LIMK 081155Z 34002KT CAVOK 20/13 Q1023 RMK BKN BKN070 VAL NIL
      VIS MIN 9999=
METAR LIMN 081155Z /////KT 9999 FEW030 29/16 Q1021 RMK FEW VIS MIN
      9999 BLU=
METAR LIMP 081150Z 05005KT 030V120 CAVOK 29/13 Q1021 RMK VIS MIN
9999=
METAR LIMS 081155Z 09006KT 040V130 CAVOK 29/15 Q1021 RMK SKC VIS MIN
      9999 WIND THR30 13005KT BLU=
METAR LIMZ 081150Z 33005KT 8000 FEW035 SCT060 25/17 Q1023 RMK VIS
MIN 8000=
METAR LIPA 081155Z 22008KT 9999 FEW050 25/18 Q1022 RMK FEW VIS MIN
      9999 A3018 BLU=
METAR LIPB 081150Z 17012KT CAVOK 30/13 Q1020 RMK MON LIB VIS MIN
9999=
METAR LIPC 081155Z 10011KT CAVOK 28/13 Q1021 RMK SKC VIS MIN 9999
      WIND THR12 09010KT BLU=
METAR LIPF 081155Z 10002KT 9999 FEW040 28/19 Q1021 RMK FEW VIS MIN
      9999=
METAR LIPH 081145Z 16005KT 9999 SCT025 28/21 Q1022 RMK SCT VIS MIN
      9999 WIND THR07 /////KT BLU=
METAR LIPI 081155Z 20006KT 9999 FEW030 27/18 Q1022 RMK FEW VIS MIN
     9999 WIND THR06 20005KT BLU=
METAR LIPL 081155Z 15003KT 9999 FEW036 29/16 Q1022 RMK SCT VIS MIN
      9999 BLU=
METAR LIPO 081150Z 16004KT 120V210 CAVOK 28/13 Q1021 RMK VIS MIN
9999=
METAR LIPQ 081150Z 00000KT CAVOK 26/13 Q1022=
METAR LIPR 081145Z 08011KT CAVOK 28/17 Q1021 RMK SKC VIS MIN 9999
      WIND THR31 09011KT BLU=
METAR LIPS 081155Z 00000KT 9999 FEW025 29/15 Q1021 RMK FEW VIS MIN
      9999 BLU=
METAR LIPX 081145Z 22002KT 9999 FEW040 29/13 Q1021 RMK FEW VIS MIN
      9999 BLU=
METAR LIPY 081150Z 05010KT 020V080 CAVOK 26/14 Q1021 RMK VIS MIN
9999=
METAR LIVC 081155Z 00000KT 9999 SCT001 15/11 Q1031 RMK SCT MON LIB
      VAL NIL VIS MIN 9999=
####018000602####
SABY31 UMMN 081200
METAR UMBB 081200Z 30005G08MPS 8000 SCT030 24/12 Q1019 R29/CLRD//
NOSIG=
METAR UMGG 081200Z 22002MPS 9999 BKN040CB BKN100 24/21 Q1014
R28/290550 NOSIG=
METAR UMII 081200Z 21005MPS 4800 -SHRA BKN015CB 20/18 Q1014
R23/CLRD// TEMPO 2000 TS BKN005 =
METAR UMMG 081200Z 32007G10MPS 9999 BKN026 BKN066 22/12 Q1016
R35/CLRD// NOSIG=
METAR UMMM 081200Z 26006G09MPS 9999 OVC018 20/15 Q1015 R30/CLRD//
NOSIG RMK QFE742=
METAR UMMS 081200Z 28003MPS 220V310 9999 OVC019 19/16 Q1015
R31/CLRD// NOSIG=
METAR UMOO 081200Z 24002MPS 9999 BKN019CB BKN/// 22/17 Q1013
R31/290056 NOSIG=
####018000307####
SANM40 FYWW 081200 RRA
METAR FYGF 081200Z 06008KT CAVOK 21/17 Q////=
METAR FYKM 081200Z 18004KT CAVOK 23/08 Q1024=
METAR FYKT 081200Z 36012KT CAVOK 25/01 Q1025=
METAR FYOA 081200Z 04015KT CAVOK 25/03 Q1021=
METAR FYRU 081200Z 09010KT CAVOK 24/03 Q1023=
METAR FYWB 081200Z 04007KT CAVOK 33/07 Q1017=
####018000919####
SARS32 RUMS 081200
METAR URKA 081200Z 05005MPS 9999 SCT026 29/20 Q1012 NOSIG RMK  065=
METAR URKK 081200Z 06004MPS 9999 BKN043 30/20 Q1012 NOSIG RMK QFE756
SC070=
METAR URKM 081200Z 08003MPS 9999 SCT040 BKN100 31/17 Q1012 NOSIG RMK
QFE740=
METAR URML 081200Z 07005MPS 9999 FEW100 33/20 Q1012 NOSIG RMK QFE759
/ 07=
METAR URMM 081200Z 10006G09MPS 9999 BKN046 30/19 Q1012 NOSIG RMK /
SC070=
METAR URMN 081200Z 08004MPS 9999 BKN036CB BKN110 29/19 Q1013 NOSIG
RMK / QFE723 SC07=
METAR URMT 081200Z 06005G08MPS 9999 SCT020 BKN100 28/17 Q1014 NOSIG
RMK QFE721 SC07=
METAR URRR 081200Z 00000MPS 9999 FEW036 31/15 Q1013 NOSIG RMK SC070=
METAR URSS 081200Z 29004MPS 9999 FEW040 28/21 Q1009 NOSIG RMK /
QFE756 06CLRD70=
METAR URWA 081200Z 28002MPS CAVOK 38/12 Q1011 NOSIG RMK SC07=
METAR URWI 081200Z 00000MPS CAVOK 31/16 Q1013 NOSIG RMK SC065=
METAR URWW 081200Z 34003MPS CAVOK 30/12 Q1014 NOSIG RMK SC070=
####018000257####
SABC40 FBSK 081200
METAR FBSK 081200Z 07011KT 9999 BKN020 19/07 Q1029 NOSIG=
METAR FBFT 081200Z 11015KT 9999 BKN020 20/10 Q1029=
METAR FBMN 081200Z 07008KT CAVOK 25/04 Q1026=
METAR FBKE 081200Z 10013KT CAVOK 23/07 Q1026=
METAR FBSP 081200Z NIL=
####018000115####
SAIN32 VIDP 081130 RRA
METAR VILK 081130Z 22008KT 5000 HZ SCT020 SCT025 FEW030CB 36/24
    Q1000 TEMPO TSRA=
####018000083####
SPUS41 KWBC 081211
SPECI
KBED 081207Z 17007KT 8SM BKN014 OVC020 24/21 A3008=
####018000084####
SPUS41 KWBC 081211
SPECI
KLWM 081207Z 20005KT 10SM SCT015 OVC040 26/21 A3011=
####018000192####
SAAG01 SABM 081200 RRC
METAR SAME 081200Z 23002KT 9999 NSC 02/M01 Q1015=
METAR SAVC 081200Z 27005KT CAVOK 06/00 Q1000=
METAR SAWG 081200Z  29012KT 9999  FEW025 BKN080
M03/M05 Q0991=
####018001357####
SAUS20 KNKA 081210
METAR K2G4 081205Z AUTO 00000KT 10SM CLR 23/14 A3020 RMK AO1=
METAR K2W6 081207Z AUTO 11006KT 7SM SCT009 26/24 A3002 RMK AO1=
SPECI KBAF 081209Z 17005KT 5SM HZ BKN011 BKN014 BKN080 25/22 A3007 
    RMK AO2=
METAR KCBE 081207Z AUTO 00000KT 7SM CLR 23/18 A3011 RMK AO1=
METAR KCGE 081205Z AUTO 11008KT 3SM OVC004 26/26 A3003 RMK AO1=
METAR KCGS 081210Z AUTO 00000KT 5SM CLR 28/24 A3001 RMK AO1=
SPECI KDGW 081209Z AUTO 00000KT 2 1/2SM BR BKN003 05/04 A3035 RMK 
    AO2 $=
SPECI KDHT 081209Z AUTO 33008KT 10SM SCT009 OVC110 17/16 A3025 RMK 
    AO2=
METAR KDMW 081207Z AUTO 00000KT 7SM CLR 27/22 A3006 RMK AO2=
SPECI KEWB 081209Z 10004KT 10SM OVC006 23/21 A3010 RMK AO2=
METAR KFME 081209Z AUTO 10003KT 5SM CLR 25/23 A3004 RMK AO1=
SPECI KFOK 081209Z 13006KT 10SM BKN015 25/21 A3009 RMK AO2=
SPECI KGRB 081209Z 28006KT 2 1/2SM BR OVC002 22/21 A3001 RMK AO2 CIG 
    001V006=
SPECI KM89 081208Z AUTO 00000KT 4SM BR OVC004 24/24 A3007 RMK AO2 =
METAR KMZZ 081155Z AUTO 00000KT 7SM BKN060 BKN070 24/21 A3007 RMK
     AO2=
SPECI KOMA 081209Z 34005KT 10SM FEW005 BKN022 BKN250 19/19 A3016 RMK 
    AO2=
SPECI KSMO 081209Z AUTO 00000KT 9SM OVC009 16/13 A2990 RMK AO2=
SPECI KTAN 081209Z AUTO 16004KT 10SM OVC010 23/21 A3009 RMK AO2=
METAR KW29 081207Z AUTO 00000KT 5SM CLR 26/23 A3001 RMK AO1=
####018000083####
SPUS43 KWBC 081211
SPECI
KMLI 081207Z 32003KT 7SM SCT007 OVC011 23/22 A3004=
####018000092####
SPUS51 KWBC 081211
SPECI
KNYC 081208Z AUTO 16007KT 130V200 5SM HZ OVC014 27/23 A3008=
####018000089####
SAUK39 EGRR 081150 RRE
METAR EGXU 081150Z 23011KT 9999 SCT042 20/07 Q1016 BLU NOSIG=
####018001758####
SAIY40 LIIB 081200 RRA
METAR LIMG 081150Z 08009KT 9999 FEW080 30/25 Q1020 RMK VIS MIN 9999=
METAR LIMK 081155Z 34002KT CAVOK 20/13 Q1023 RMK BKN BKN070 VAL NIL
      VIS MIN 9999=
METAR LIMN 081155Z /////KT 9999 FEW030 29/16 Q1021 RMK FEW VIS MIN
      9999 BLU=
METAR LIMP 081150Z 05005KT 030V120 CAVOK 29/13 Q1021 RMK VIS MIN
9999=
METAR LIMS 081155Z 09006KT 040V130 CAVOK 29/15 Q1021 RMK SKC VIS MIN
      9999 WIND THR30 13005KT BLU=
METAR LIMZ 081150Z 33005KT 8000 FEW035 SCT060 25/17 Q1023 RMK VIS
MIN 8000=
METAR LIPA 081155Z 22008KT 9999 FEW050 25/18 Q1022 RMK FEW VIS MIN
      9999 A3018 BLU=
METAR LIPB 081150Z 17012KT CAVOK 30/13 Q1020 RMK MON LIB VIS MIN
9999=
METAR LIPC 081155Z 10011KT CAVOK 28/13 Q1021 RMK SKC VIS MIN 9999
      WIND THR12 09010KT BLU=
METAR LIPF 081155Z 10002KT 9999 FEW040 28/19 Q1021 RMK FEW VIS MIN
      9999=
METAR LIPH 081145Z 16005KT 9999 SCT025 28/21 Q1022 RMK SCT VIS MIN
      9999 WIND THR07 /////KT BLU=
METAR LIPI 081155Z 20006KT 9999 FEW030 27/18 Q1022 RMK FEW VIS MIN
     9999 WIND THR06 20005KT BLU=
METAR LIPL 081155Z 15003KT 9999 FEW036 29/16 Q1022 RMK SCT VIS MIN
      9999 BLU=
METAR LIPO 081150Z 16004KT 120V210 CAVOK 28/13 Q1021 RMK VIS MIN
9999=
METAR LIPQ 081150Z 00000KT CAVOK 26/13 Q1022=
METAR LIPR 081145Z 08011KT CAVOK 28/17 Q1021 RMK SKC VIS MIN 9999
      WIND THR31 09011KT BLU=
METAR LIPS 081155Z 00000KT 9999 FEW025 29/15 Q1021 RMK FEW VIS MIN
      9999 BLU=
METAR LIPX 081145Z 22002KT 9999 FEW040 29/13 Q1021 RMK FEW VIS MIN
      9999 BLU=
METAR LIPY 081150Z 05010KT 020V080 CAVOK 26/14 Q1021 RMK VIS MIN
9999=
METAR LIVC 081155Z 00000KT 9999 SCT001 15/11 Q1031 RMK SCT MON LIB
      VAL NIL VIS MIN 9999=
####018000084####
SPUS53 KWBC 081211
SPECI
KUIN 081207Z AUTO 00000KT 6SM BR OVC005 23/22 A3005=
####018000106####
SAUR30 UKMS 081200 RRA
METAR UKDE 081200Z VRB02MPS 9999 SCT050 29017 Q1014
         20CLRD70 NOSIG=
####018000117####
SACZ41 LKPW 081200
METAR LKKU 081200Z 02007KT CAVOK 24/10 Q1022=
METAR LKLB 081200Z VRB06KT CAVOK 24/07 Q1023=
####018000229####
SANG31 YBBN 081200
METAR AYPY 081200Z NIL=
METAR AYWK 081200Z NIL=
METAR AYVN 081200Z NIL=
METAR AYNZ 081200Z NIL=
METAR AYMH 081200Z NIL=
METAR AYGN 081200Z NIL=
METAR AYMO 081200Z NIL=
METAR AGGH 081200Z NIL=
####018000411####
SAID32 WIII 081200
METAR WAMM 081200Z 18003KT 9999 FEW026 25/23 Q1010 NOSIG= 
METAR WIPT 081200Z 00000KT 9999 R33/M0050VP1500D FEW020 27/24 Q1010= 
METAR WIOO 081200Z 28009KT 6000 FEW010CB BKN009 24/23 Q.1011 RA = 
METAR WIPP 081200Z 00000KT 9999 FEW015 26/24 Q1010= 
METAR WALL 081200Z 00000KT 8000 FEW020 26/24 Q1009 NOSIG= 
METAR WIBB NIL=
METAR WIKN NIL=
METAR WAOO NIL=
METAR WADA NIL=
####018000081####
SAID31 EGGY 081200
METAR WALL 081200Z 00000KT 8000 FEW020 26/24 Q1009 NOSIG=
####018001265####
SAAU32 YBBN 081200
METAR YAMB 081200Z AUTO 20006KT 9999NDV // OVC100 15/10 Q1022=
METAR YMAV 081200Z AUTO 34003KT 9999NDV // OVC048 08/06 Q1028=
METAR YBRM 081200Z 08005KT 9999 FEW038 SCT049 23/22 Q1012=
METAR YCIN 081200Z AUTO 11007KT //// // ////// 22/18 Q1013=
METAR YSDU 081200Z AUTO 10006KT 9999NDV // NCD 07/05 Q1026=
METAR YFRT 081200Z AUTO 03011KT //// // ////// 13/02 Q1014=
METAR YGEL 081200Z NIL=
METAR YPGV 081200Z 15008KT 9999 FEW015 BKN350 24/22 Q1014=
METAR YBHM 081200Z AUTO 15017KT //// // ////// 19/15 Q1019=
METAR YMHB 081200Z 31004KT CAVOK 03/01 Q1030=
METAR YPKG 081200Z AUTO 36011KT 9999NDV // SCT060 SCT078 17/05 Q1004=
METAR YMLT 081200Z AUTO 19003KT 9999NDV // SCT034 02/01 Q1030=
METAR YBMA 081200Z AUTO 00000KT 9999NDV // NCD 09/08 Q1020=
METAR YSNF 081200Z 11013KT 9999 FEW015 SCT020 BKN028 15/10 Q1018
RMK CLOSE TILL 20UTC=
METAR YPEA 081200Z AUTO 01010KT 9999NDV // NCD 14/12 Q0998=
METAR YPPD 081200Z NIL=
METAR YSRI 081200Z AUTO 00000KT 9999NDV // SCT035 BKN042 OVC049 11/10
Q1028=
METAR YBRK 081200Z 26004KT 9999 FEW008 BKN025 BKN040 13/12 Q1020=
METAR YWLM 081200Z AUTO 31005KT 9999NDV // SCT041 BKN047 OVC067 11/10
Q1026=
METAR YPWR 081200Z AUTO 10006KT 9999NDV // NCD 07/00 Q1023=
####018000364####
SAEE31 LOWM 081200
METAR UACK 081200Z 34006G10MPS CAVOK 19/01 Q1010 02010070 NOSIG RMK
QFE734=
METAR UACP 081200Z NIL=
METAR UAII 081200Z NIL=
METAR UADD 081200Z VRB01MPS 9999 NSC 34/03 Q1013 NOSIG RMK
QFE703/0937=
METAR UASK 081200Z 36002MPS 9999 FEW033 SCT100 23/11 Q1011
                   300/0060 NOSIG RMK QFE733=
METAR UASP 081200Z NIL=
####018000208####
SAID33 WIII 081200
METAR WATT 081200Z 00000KT 8000 SCT017 26/25 Q1012 NOSIG= 
METAR WABP NIL=
METAR WAJJ NIL=
METAR WAKK NIL=
METAR WAPP NIL=
METAR WARS NIL=
METAR WIAT NIL=
METAR WALR NIL=
####018000377####
SAID31 WIII 081200
METAR WIMM 081200Z 03006KT 6000 FEW016CB FEW017 29/24 Q1009 NOSIG= 
METAR WIDD 081200Z 00000KT 9999 FEW017 27/24 Q1010= 
METAR WADD 081200Z 00000KT 9999 FEW018 27/26 Q1009 NOSIG= 
METAR WAAA 081200Z 00000KT 9999 FEW020 26/25 Q1010= 
METAR WIII 081200Z 23005KT 7000 SCT020 25/23 Q1011 NOSIG= 
METAR WIHH NIL=
METAR WABB NIL=
METAR WARR NIL=
####018001731####
SASD20 OEJD 081200
METAR OEAB 081200Z 06013KT 8000 SCT020 SCT200 33/00 Q1019 NOSIG=
METAR OEAH 081200Z 01010KT CAVOK 46/03 Q1000 NOSIG=
METAR OEBA 081200Z 06013KT CAVOK 37/04 Q1016 NOSIG=
METAR OEBH 081200Z 03010KT CAVOK 41/03 Q1010 NOSIG=
METAR OEDF 081200Z 36016KT CAVOK 45/04 Q0999 NOSIG=
METAR OEDM 081200Z 08010KT CAVOK 43/04 Q1009=
METAR OEDR 081200Z 02011KT 8000 SKC 43/09 Q0997 NOSIG=
METAR OEGN 081200Z 26007KT CAVOK 36/30 Q0999 NOSIG=
METAR OEGS 081200Z 02008KT CAVOK 45/07 Q1007=
METAR OEGT 081200Z NIL=
METAR OEHL 081200Z 27004KT 9999 FEW040 44/02 Q1011 NOSIG=
METAR OEJN 081200Z 30010KT CAVOK 38/25 Q1001 NOSIG=
METAR OEKB 081200Z 19004KT 9999 SCT045 47/19=
METAR OEKJ 081200Z NIL=
METAR OEKK 081200Z 03017KT CAVOK 45/11 Q1005=
METAR OEKM 081200Z 09023KT 7000 SCT022 32/04 Q1019 NOSIG=
METAR OEMA 081200Z 11005KT 9999 SCT045 47/M04 Q1005 NOSIG=
METAR OEMH 081200Z NIL=
METAR OEMK 081200Z 30002KT CAVOK 45/25 Q1000=
METAR OENG 081200Z 03010KT 5000 DU SCT030 BKN080 40/M01 Q1010 NOSIG=
METAR OEPA 081200Z NIL=
METAR OERF 081200Z 03003KT CAVOK 44/12 Q1005=
METAR OERK 081200Z 02015KT 5000 DU BLDU SKC 43/M04 Q1017 NOSIG=
METAR OERR 081200Z 22006KT CAVOK 45/10 Q1006=
METAR OERY 081200Z 05017KT 5000 SA SKC 44/M01 Q1007 NOSIG=
METAR OESH 081200Z 02013KT 3000 BLDU SKC 42/18 Q1001 NOSIG=
METAR OESK 081200Z 27007KT CAVOK 44/00 Q1008=
METAR OETB 081200Z 34003KT CAVOK 42/05 Q1009 NOSIG=
METAR OETF 081200Z 12006KT 9999  SCT030 38/M01 Q1014 NOSIG=
METAR OETR 081200Z 22006KT CAVOK 40/05 Q1010=
METAR OEWD 081200Z 04016KT 4000 BLDU SKC 45/09 Q1003=
METAR OEWJ 081200Z 30020KT CAVOK 33/26 Q1003=
METAR OEYN 081200Z 28016KT 4000 DU SKC 43/19 Q0998 TEMPO 3000=
####018000506####
SAAO33 DRRN 081200
METAR DBBB 081200Z 22011KT 8000 SCT012 BKN120 29/26 Q1013 NOSIG=
METAR DFFD 081200Z VRB02KT CAVOK 30/21 Q1015 NOSIG=
METAR DGAA 081200Z 26009KT 9999 SCT016 BKN250 30/23 Q1014 NOSIG=
METAR DNKN 081200Z NIL=
METAR DNMM 081200Z 25006KT 9999 BKN013 30/25 Q1015 NOSIG=
METAR DRRN 081200Z VRB02KT CAVOK 32/20 Q1013 NOSIG=
METAR DXXX 081200Z 20009KT 170V240 9999 FEW016 FEW025CB 30/25 Q1014
NOSIG=
METAR FTTJ 081200Z 20005KT 160V230 9999  FEW040 BKN140 32/28 Q1013
NOSIG=
####018000083####
SPUS73 KWBC 081211
SPECI
KMLI 081207Z 32003KT 7SM SCT007 OVC011 23/22 A3004=
####018000089####
SPCN46 CWAO 081208
SPECI CYSB 081208Z 18006KT 1SM R22/P6000FT/U BR VV003 RMK FG8=

####018000084####
SPUS73 KWBC 081211
SPECI
KUIN 081207Z AUTO 00000KT 6SM BR OVC005 23/22 A3005=
####018001580####
SAIY40 LIIB 081200
METAR LIMG 081150Z 08009KT 9999 FEW080 30/25 Q1020 RMK VIS MIN 9999=
METAR LIMK 081155Z 34002KT CAVOK 20/13 Q1023 RMK BKN BKN070 VAL NIL
      VIS MIN 9999=
METAR LIMN 081155Z /////KT 9999 FEW030 29/16 Q1021 RMK FEW VIS MIN
      9999 BLU=
METAR LIMP 081150Z 05005KT 030V120 CAVOK 29/13 Q1021 RMK VIS MIN
9999=
METAR LIMS 081155Z 09006KT 040V130 CAVOK 29/15 Q1021 RMK SKC VIS MIN
      9999 WIND THR30 13005KT BLU=
METAR LIMZ 081150Z 33005KT 8000 FEW035 SCT060 25/17 Q1023 RMK VIS
MIN 8000=
METAR LIPA 081155Z 22008KT 9999 FEW050 25/18 Q1022 RMK FEW VIS MIN
      9999 A3018 BLU=
METAR LIPB 081150Z 17012KT CAVOK 30/13 Q1020 RMK MON LIB VIS MIN
9999=
METAR LIPC 081155Z 10011KT CAVOK 28/13 Q1021 RMK SKC VIS MIN 9999
      WIND THR12 09010KT BLU=
METAR LIPF 081155Z 10002KT 9999 FEW040 28/19 Q1021 RMK FEW VIS MIN
      9999=
METAR LIPH 081145Z 16005KT 9999 SCT025 28/21 Q1022 RMK SCT VIS MIN
      9999 WIND THR07 /////KT BLU=
METAR LIPI 081155Z 20006KT 9999 FEW030 27/18 Q1022 RMK FEW VIS MIN
     9999 WIND THR06 20005KT BLU=
METAR LIPL 081155Z 15003KT 9999 FEW036 29/16 Q1022 RMK SCT VIS MIN
      9999 BLU=
METAR LIPO 081150Z 16004KT 120V210 CAVOK 28/13 Q1021 RMK VIS MIN
9999=
METAR LIPQ 081150Z 00000KT CAVOK 26/13 Q1022=
METAR LIPR 081145Z 08011KT CAVOK 28/17 Q1021 RMK SKC VIS MIN 9999
      WIND THR31 09011KT BLU=
METAR LIPS 081155Z 00000KT 9999 FEW025 29/15 Q1021 RMK FEW VIS MIN
      9999 BLU=
METAR LIPX 081145Z 22002KT 9999 FEW040 29/13 Q1021 RMK FEW VIS MIN
      9999 BLU=
####018000152####
SAUS45 KGJT 081211
MTR4BL

METAR K4BL 081155Z 03007KT 40SM SCT140 SCT240 18/04 RMK SLP138 
NOSPECI 8/071 T01780039 10222 20172 51007



####018000092####
SPUS81 KWBC 081211
SPECI
KNYC 081208Z AUTO 16007KT 130V200 5SM HZ OVC014 27/23 A3008=
####018000758####
SAEW KAWN 081200 RRG
METAR LFBY 081200Z 11010KT 080V140 CAVOK 35/19 Q1015=
METAR LFKF 081200Z 21006KT 170V260 9999 FEW032TCU 31/22 Q1019 NOSIG=
METAR LFLD 081200Z VRB05KT CAVOK 32/12 Q1019=
METAR LFLM 081200Z 15006KT 120V210 CAVOK 30/14 Q1020=
METAR LFLV 081200Z VRB03KT CAVOK 31/14 Q1019=
METAR LFLW 081200Z 17007KT 110V200 CAVOK 29/07 Q1022=
METAR COR LFMC 081200Z 12009KT 080V150 9999 FEW050 33/19 Q1020=
METAR COR LFOW 081200Z 19005KT 120V240 CAVOK 30/10 Q1018=
METAR LFPM 081205Z VRB02KT CAVOK 31/12 Q1018=
METAR LFQB 081200Z 16005KT 110V220 CAVOK 32/11 Q1018=
METAR LFRJ 081200Z AUTO 35005KT 290V060 9999NDV FEW023/// SCT028///
      BKN180/// 23/17 Q1020=
METAR LFRL 081200Z 30008KT 260V330 9999 FEW018 SCT230 23/16 Q1019=
####018000082####
SPCN48 CWAO 081209
SPECI CYGV 081209Z AUTO 12002KT 9SM OVC003 14/12 A3003=

####018000140####
SAUS90 KWBC 081200 RRH
METAR K4BL 081155Z 03007KT 40SM SCT140 SCT240 18/04 RMK SLP138
     NOSPECI 8/071 T01780039 10222 20172 51007=
####018000194####
SPUS90 KWBC 081212
SPECI KNYC 081208Z AUTO 16007KT 130V200 5SM HZ OVC014 27/23 A3008
     RMK AO2 TSNO $=
SPECI KSGR 081209Z 11009KT 9SM FEW008 SCT025 BKN075 26/23 A2993
     RMK AO2=
####018000101####
SAUS90 KWBC 081212
METAR KEHA 081208Z AUTO 01007KT 17/16 RMK AO1 PK WND 08 002
     T01720162=
####018000089####
SAIR33 OIII 081200 CCA
METAR COR OIBP 081200Z 18010KT 5000 HZ SKC 40/22 Q0998 A2949=
####018001502####
SAUS20 KNKA 081211
SPECI KASD 081210Z AUTO 03004KT 8SM SCT001 25/24 A3003 RMK AO2=
METAR KBNL 081215Z AUTO 32006KT 10SM CLR 26/19 A3000 RMK AO2 =
METAR KCQW 081215Z AUTO 35004KT 5SM  HZ CLR 26/18 A2998 RMK AO2 =
SPECI KDEN 081210Z 01004KT 1/4SM R35L/P6000FT BR BKN001 13/13 A3032 
    RMK AO2 SFC VIS 1 TWR IN CLDS $=
SPECI KFYV 081210Z 00000KT 10SM BKN026 BKN032 23/22 A3009 RMK AO2=
METAR KIGQ 081200Z AUTO 00000KT 4SM VCTSBR OVC065 24/22 A3003 RMK 
     AO2=
SPECI KIMT 081210Z AUTO 32004KT 10SM FEW006 OVC013 21/19 A3001 RMK 
    AO2=
METAR KLKR 081215Z AUTO 00000KT 9SM CLR 22/22 A3002 RMK AO2 =
SPECI KMCI 081210Z 35005KT 1 1/2SM BR BKN004 23/22 A3008 RMK AO2 SFC 
    VIS 5 $=
SPECI KRSL 081210Z AUTO 35006KT 10SM BKN013 OVC022 18/18 A3018 RMK 
    AO2=
METAR KSLO 081203Z AUTO 21004KT 10SM SCT044 26/22 A3006 RMK AO2 
     T02590222=
METAR KSOA 081200Z AUTO 00000KT 5SM  BR 22/21 A3008 RMK AO2=
METAR KTAZ 081205Z AUTO 00000KT 3SM BR SCT070 24/24 A3004 RMK AO2=
METAR KTFP 081205Z AUTO 12003KT 7SM -RA SCT014 BKN038 OVC044 
     26/25 A2983 RMK AO2 P0001 T02610247=
METAR KTIP 081205Z AUTO 04003KT 7SM SCT110 24/23 A3006 RMK AO2 
     LTG DSNT NE T02420228=
METAR KTYQ 081205Z AUTO 00000KT 5SM BR OVC100 25/22 A3007 RMK AO2 
     LTG DSNT N AND NW=
METAR KVYS 081205Z AUTO 25004KT 3SM BR BKN017 OVC021 23/22 A3004 
     RMK AO2 T02340218=
METAR KXBP 081205Z AUTO 00000KT 10SM SCT026 SCT050 OVC075 24/23 
     A3005 RMK AO2 T02350225=
####018000340####
SANM40 FYWW 081200 CCA
METAR COR FYGF 081200Z 03006KT CAVOK 22/18 Q////=
METAR COR FYKM 081200Z 18004KT CAVOK 23/08 Q1024=
METAR COR FYKT 081200Z 03011KT CAVOK 25/00 Q1024=
METAR COR FYOA 081200Z 04015KT CAVOK 25/03 Q1021=
METAR COR FYRU 081200Z 09010KT CAVOK 24/03 Q1023=
METAR COR FYWB 081200Z 04007KT CAVOK 33/07 Q1017=

####018000104####
SAUS45 KBOU 081211 COR
MTRABH
SPECI KABH 081206Z AUTO 31003KT 5SM BR SCT003 12/11 A3037 RMK AO2 $
####018000096####
SAUS98 KWBC 081212
METAR KEHA 081208Z AUTO 01007KT 17/16 RMK AO1 PK WND 08 002
T01720162=
####018000414####
SAAL40 DAMM 081200
METAR DAAG 081200Z 03010KT 350V060 CAVOK 34/17 Q1018=
METAR DAAT 081200Z NIL=
METAR DABB 081200Z 01013KT CAVOK 29/21 Q1019=
METAR DABC 081200Z 02008KT CAVOK 33/07 Q1022=
METAR DABS 081200Z 02014KT CAVOK 34/06 Q1023=
METAR DAON 081200Z 02008KT 9999 FEW026 36/20 Q1017=
METAR DAOO 081200Z 36014KT CAVOK 29/22 Q1016=
METAR DAUH 081200Z NIL=
METAR DAUZ 081200Z 11006KT CAVOK 38/07 Q1016=
####018001171####
SPUS99 KWBC 081212
SPECI
KBAF 081209Z 17005KT 5SM HZ BKN011 BKN014 BKN080 25/22 A3007 RMK
     AO2=
KDGW 081209Z AUTO 00000KT 2 1/2SM BR BKN003 05/04 A3035 RMK AO2
     $=
KDHT 081209Z AUTO 33008KT 10SM SCT009 OVC110 17/16 A3025 RMK
     AO2=
KEWB 081209Z 10004KT 10SM OVC006 23/21 A3010 RMK AO2=
KFOK 081209Z 13006KT 10SM BKN015 25/21 A3009 RMK AO2=
KGRB 081209Z 28006KT 2 1/2SM BR OVC002 22/21 A3001 RMK AO2 CIG
     001V006=
KM89 081208Z AUTO 00000KT 4SM BR OVC004 24/24 A3007 RMK AO2=
KOMA 081209Z 34005KT 10SM FEW005 BKN022 BKN250 19/19 A3016 RMK
     AO2=
KSMO 081209Z AUTO 00000KT 9SM OVC009 16/13 A2990 RMK AO2=
KTAN 081209Z AUTO 16004KT 10SM OVC010 23/21 A3009 RMK AO2=
KASD 081210Z AUTO 03004KT 8SM SCT001 25/24 A3003 RMK AO2=
KDEN 081210Z 01004KT 1/4SM R35L/P6000FT BR BKN001 13/13 A3032 RMK
     AO2 SFC VIS 1 TWR IN CLDS $=
KFYV 081210Z 00000KT 10SM BKN026 BKN032 23/22 A3009 RMK AO2=
KIMT 081210Z AUTO 32004KT 10SM FEW006 OVC013 21/19 A3001 RMK
     AO2=
KMCI 081210Z 35005KT 1 1/2SM BR BKN004 23/22 A3008 RMK AO2 SFC VIS
     5 $=
KRSL 081210Z AUTO 35006KT 10SM BKN013 OVC022 18/18 A3018 RMK
     AO2=
####018000464####
SARS33 RUMS 081200
METAR ULLI 081200Z 15002MPS 120V190 9999 BKN040CB BKN066 BKN200 31/18
Q1013 NOSIG=
METAR UUDD 081200Z 14005MPS 9999 FEW050TCU BKN200 28/14 Q1015 TEMPO
VRB12MPS TSRA=
METAR UUEE 081200Z 16004MPS 120V200 9999 SCT050CB BKN200 28/14 Q1015
NOSIG=
METAR UUEM 081200Z NIL=
METAR UUWW 081200Z 15004MPS 120V200 9999 SCT040 BKN100 27/15 Q1015
24000070 NOSIG=
METAR UUMO 081200Z 14003MPS 110V170 CAVOK 27/15 Q1015 NOSIG RMK
QFE746/0995 SC060=
####018000955####
SARS31 RUMS 081200
METAR ULAA 081200Z 31003G06MPS 240V010 9999 FEW033 28/19 Q1015 TEMPO
TSRA RMK QFE760/1013 SC070=
METAR ULKK 081200Z 34002MPS 6000 FEW033 SCT099 33/17 Q1015 NOSIG RMK
QFE757=
METAR ULMM 081200Z 29001MPS 9999 BKN023 15/09 Q1018 NOSIG RMK QFE756
32190060=
METAR ULOL 081200Z NIL=
METAR ULOO 081200Z VRB02MPS P6000 SCT033TCU BKN200 29/18 Q1011 TEMPO
VRB14MPS SQ RMK QFE755=
METAR ULWW 081200Z 16004MPS 9999 SCT050TCU BKN/// 32/16 Q1016 NOSIG
RMK QFE751 15CLRD60=
METAR UMKK 081200Z 31007MPS P8000 FEW033 SCT200 22/15 Q1020 NOSIG RMK
QFE 764 SC07=
METAR UUBP 081200Z 35004MPS 9999 -SHRA BKN029CB BKN/// 25/18 Q1013
OSIG=
METAR UUOB 081200Z 20002MPS 9999 BKN040 BKN200 29/14 Q1014 NOSIG RMK
SC065=
METAR UUOK 081200Z 12002MPS 9999 BKN026 28/16 Q1012 NOSIG=
METAR UUOO 081200Z 18002MPS 9999 SCT033CB 28/14 Q1014 NOSIG RMK
13090070=
METAR UWGG 081200Z 12003MPS 060V170 8000 FEW033 34/08 Q1016 NOSIG RMK
QFE755 18090070=
####018001228####
SAAL41 DAMM 081200
METAR DAAD 081200Z NIL=
METAR DAAE 081200Z 09010KT CAVOK 28/22 Q1019=
METAR DAAJ 081200Z 06024KT CAVOK 36/04 Q1019=
METAR DAAP 081200Z 00000KT CAVOK 40/04 Q1015=
METAR DAAS 081200Z 30008KT CAVOK 34/03 Q1024=
METAR DAAV 081200Z 02012KT CAVOK 29/20 Q1019=
METAR DAAY 081200Z 34004KT CAVOK 37/11 Q1025=
METAR DABT 081200Z NIL=
METAR DAFH 081200Z 12012KT CAVOK 36/16 Q1022=
METAR DAMH 081200Z 03004KT CAVOK 40/12 Q1015=
METAR DAOB 081200Z NIL=
METAR DAOF 081200Z NIL=
METAR DAOI 081200Z 08006KT CAVOK 42/10 Q1017=
METAR DAOL 081200Z 05014KT 8000 NSC 38/22 Q1016=
METAR DAOR 081200Z 12010KT CAVOK 39/06 Q1023=
METAR DAOV 081200Z 06008KT CAVOK 41/09 Q1019=
METAR DATF 081200Z 02014KT CAVOK 40/08 Q1016=
METAR DATG 081200Z NIL=
METAR DATM 081200Z NIL=
METAR DAUA 081200Z 02025KT 6000 DRSA NSC 43/08 Q1013=
METAR DAUB 081200Z 13009KT CAVOK 36/15 Q1017=
METAR DAUE 081200Z 04011KT CAVOK 37/09 Q1020=
METAR DAUG 081200Z 14009KT CAVOK 38/11 Q1020=
METAR DAUI 081200Z NIL=
METAR DAUK 081200Z NIL=
METAR DAUL 081200Z 00000KT CAVOK 37/11 Q1022=
METAR DAUO 081200Z 00000KT CAVOK 36/16 Q1017=
METAR DAUT 081200Z ///18KT 4000 DRSA  NSC 41/09 Q1016=
METAR DAUU 081200Z 04010KT CAVOK 39/16 Q1017=
####018001469####
SAUS99 KWBC 081212
METAR
K2G4 081205Z AUTO 00000KT 10SM CLR 23/14 A3020 RMK AO1=
K2W6 081207Z AUTO 11006KT 7SM SCT009 26/24 A3002 RMK AO1=
KCBE 081207Z AUTO 00000KT 7SM CLR 23/18 A3011 RMK AO1=
KCGE 081205Z AUTO 11008KT 3SM OVC004 26/26 A3003 RMK AO1=
KCGS 081210Z AUTO 00000KT 5SM CLR 28/24 A3001 RMK AO1=
KDMW 081207Z AUTO 00000KT 7SM CLR 27/22 A3006 RMK AO2=
KFME 081209Z AUTO 10003KT 5SM CLR 25/23 A3004 RMK AO1=
KMZZ 081155Z AUTO 00000KT 7SM BKN060 BKN070 24/21 A3007 RMK
     AO2=
KW29 081207Z AUTO 00000KT 5SM CLR 26/23 A3001 RMK AO1=
KBNL 081215Z AUTO 32006KT 10SM CLR 26/19 A3000 RMK AO2=
KCQW 081215Z AUTO 35004KT 5SM HZ CLR 26/18 A2998 RMK AO2=
KIGQ 081200Z AUTO 00000KT 4SM VCTSBR OVC065 24/22 A3003 RMK
     AO2=
KLKR 081215Z AUTO 00000KT 9SM CLR 22/22 A3002 RMK AO2=
KSLO 081203Z AUTO 21004KT 10SM SCT044 26/22 A3006 RMK AO2
     T02590222=
KSOA 081200Z AUTO 00000KT 5SM BR 22/21 A3008 RMK AO2=
KTAZ 081205Z AUTO 00000KT 3SM BR SCT070 24/24 A3004 RMK AO2=
KTFP 081205Z AUTO 12003KT 7SM -RA SCT014 BKN038 OVC044 26/25 A2983
     RMK AO2 P0001 T02610247=
KTIP 081205Z AUTO 04003KT 7SM SCT110 24/23 A3006 RMK AO2 LTG DSNT
     NE T02420228=
KTYQ 081205Z AUTO 00000KT 5SM BR OVC100 25/22 A3007 RMK AO2 LTG
     DSNT N AND NW=
KVYS 081205Z AUTO 25004KT 3SM BR BKN017 OVC021 23/22 A3004 RMK AO2
     T02340218=
KXBP 081205Z AUTO 00000KT 10SM SCT026 SCT050 OVC075 24/23 A3005
     RMK AO2 T02350225=
####018000513####
SARA31 RUMS 081200
METAR UEEE 081200Z 24002MPS 9999 -SHRA SCT050CB OVC100 20/13 Q1008
NOSIG RMK QFE747 2309//60=
METAR UELL 081200Z VRB01MPS 9999 SCT006 BKN030CB OVC200 13/12 Q1012
NOSIG RMK MT PT OBSC QFE685 08CLRD70=
METAR UERP 081200Z 02004MPS 9999 SCT033CB BKN100 14/06 Q1014 NOSIG
RMK QFE717 35090065=
METAR UERR 081200Z 34002MPS 9999 FEW020CB SCT100 OVC200 15/14 Q1012
NOSIG RMK QFE728 24CLRD60=
METAR UESO 081200Z NIL=
METAR UEST 081200Z 12002MPS 9999 -RA OVC130 05/03 Q1018 NOSIG RMK
QFE762=
####018000568####
SARA32 RUMS 081200
METAR UHHH 081200Z 04003MPS 9999 SCT033CB OVC100 17/15 Q1011 NOSIG
RMK QFE752/1002 55090060=
METAR UHMA 081200Z NIL=
METAR UHMM 081200Z 25001MPS 9999 OVC008 12/11 Q1016 RMK QFE747
88010070 MT OBSC=
METAR UHMP 081200Z NIL=
METAR UHNN 081200Z 07001MPS 9999 -SHRA FEW010 BKN028CB OVC070 11/10
Q1013 RMK QFE755=
METAR UHPP 081200Z NIL=
METAR UHSH 081200Z NIL=
METAR UHSS 081200Z 00000MPS 9999 BKN016 13/12 Q1011 RMK MT OBSC
QFE757/1010=
METAR UHWW 081200Z 00000MPS 9999 SCT013 BKN023CB OVC100 16/14 Q1011
NOSIG RMK QFE757/1010 75CLRD70=
####018000727####
SARA36 RUMS 081200
METAR UWUU 081200Z 35005G08MPS 300V010 CAVOK 28/09 Q1015 82010060
NOSIG RMK QFE750/1000=
METAR USCC 081200Z 34006G11MPS 9999 FEW040 SCT200 26/01 Q1013 NOSIG
RMK QFE740 27000070=
METAR USDD 081200Z 04008G11MPS CAVOK 17/M00 Q1015 NOSIG RMK
QFE756/1008 SC060=
METAR USMU 081200Z 02005MPS 9999 -SHRA SCT030CB SCT040 OVC066 14/12
Q1006 NOSIG RMK QFE749 09250345=
METAR USNN 081200Z 16003MPS P6000 FEW026 SCT200 18/10 Q1003 NOSIG RMK
QFE747 SC065=
METAR USRK 081200Z 35003MPS 6000 BKN020 OVC066 14/10 Q1004 NOSIG RMK
QFE747 351///55=
METAR USRR 081200Z 35003MPS 7000 OVC010 13/10 Q1005 TEMPO BKN007 RMK
QFE748 25////60=
METAR USSS 081200Z 35007G10MPS CAVOK 25/01 Q1014 NOSIG RMK QFE740
260///70=
####018000087####
SAGH20 DGAA 081200
METAR DGAA 081200Z 26009KT 9999 SCT016 BKN250 30/23 Q1014 NOSIG=
####018001546####
SAIY40 LIIB 081200
METAR LIMG 081150Z 08009KT 9999 FEW080 30/25 Q1020 RMK VIS MIN 9999=
METAR LIMK 081155Z 34002KT CAVOK 20/13 Q1023 RMK BKN BKN070 VAL NIL
      VIS MIN 9999=
METAR LIMN 081155Z /////KT 9999 FEW030 29/16 Q1021 RMK FEW VIS MIN
      9999 BLU=
METAR LIMP 081150Z 05005KT 030V120 CAVOK 29/13 Q1021 RMK VIS MIN
9999=
METAR LIMS 081155Z 09006KT 040V130 CAVOK 29/15 Q1021 RMK SKC VIS MIN
      9999 WIND THR30 13005KT BLU=
METAR LIMZ 081150Z 33005KT 8000 FEW035 SCT060 25/17 Q1023 RMK VIS
MIN 8000=
METAR LIPA 081155Z 22008KT 9999 FEW050 25/18 Q1022 RMK FEW VIS MIN
      9999 A3018 BLU=
METAR LIPB 081150Z 17012KT CAVOK 30/13 Q1020 RMK MON LIB VIS MIN
9999=
METAR LIPC 081155Z 10011KT CAVOK 28/13 Q1021 RMK SKC VIS MIN 9999
      WIND THR12 09010KT BLU=
METAR LIPF 081155Z 10002KT 9999 FEW040 28/19 Q1021 RMK FEW VIS MIN
      9999=
METAR LIPH 081145Z 16005KT 9999 SCT025 28/21 Q1022 RMK SCT VIS MIN
      9999 WIND THR07 /////KT BLU=
METAR LIPI 081155Z 20006KT 9999 FEW030 27/18 Q1022 RMK FEW VIS MIN
     9999 WIND THR06 20005KT BLU=
METAR LIPL 081155Z 15003KT 9999 FEW036 29/16 Q1022 RMK SCT VIS MIN
      9999 BLU=
METAR LIPO 081150Z 16004KT 120V210 CAVOK 28/13 Q1021 RMK VIS MIN
9999=
METAR LIPQ 081150Z 00000KT CAVOK 26/13 Q1022=
METAR LIPR 081145Z 08011KT CAVOK 28/17 Q1021 RMK SKC VIS MIN 9999
      WIND THR31 09011KT BLU=
METAR LIPS 081155Z 00000KT 9999 FEW025 29/15 Q1021 RMK FEW VIS MIN
      9999 BLU=
METAR LIPX 081145Z 22002KT 9999 FEW040 29/13 Q1021 RMK FEW VIS MIN
      9999 BLU=
####018000389####
SARA35 RUMS 081200
METAR ULDD 081200Z NIL=
METAR UOHH 081200Z 02003MPS 9999 FEW030 SCT/// 15/04 Q1023 NOSIG RMK
QFE761 06090060=
METAR UOII 081200Z 16006MPS 9999 BKN033CB BKN100 21/16 Q1007 TEMPO
-TSRA RMK QFE753 12////60=
METAR UOOO 081200Z 03008G10MPS CAVOK 21/10 Q1010 NOSIG RMK QFE743
010///60=
METAR USCM 081200Z 03004MPS 9999 FEW050 27/01 Q1014 NOSIG 01090065
RMK QFE722=
####018000070####
SAAG SAME 081200
METAR SAME 081200Z 23002KT 9999 NSC 02/M01 Q1015=
####018001554####
SAIY42 LIIB 081200
METAR LIBF 081150Z 33017KT CAVOK 28/07 Q1020 RMK VIS MIN 9999=
METAR LIEA 081150Z 18005KT 140V210 9999 FEW025 32/21 Q1019 RMK VIS
MIN 9999=
METAR LIED 081155Z 16016KT 9999 SCT018 32/19 Q1018 RMK SCT VIS MIN
      9999 BLU=
METAR LIEO 081150Z 05012KT 030V090 CAVOK 30/21 Q1019 RMK VIS MIN
9999=
METAR LIMA 081150Z 00000KT 9999 SCT040 26/16 Q1022 RMK VIS MIN 9999=
METAR LIQN 081150Z 34004KT 9999 FEW045 28/18 Q1021 RMK VIS MIN 9999=
METAR LIQO 081155Z 19003KT 9999 SCT003 27/20 Q1022 RMK SCT VAL NIL NC
      VIS MIN 9999=
METAR LIQW 081200Z NIL=
METAR LIRE 081155Z 23010KT 9999 FEW020 28/20 Q1019 RMK FEW VIS MIN
      9999 WIND THR31 23010KT BLU=
METAR LIRG 081155Z 28008KT 9999 SCT033TCU 32/17 Q1019 RMK SCT MON
     NE LIB NC VIS MIN 9999 BLU=
METAR LIRH 081155Z 35005KT 9999 FEW035 FEW040TCU 30/19 Q1020 RMK SCT
      MON LIB NC VIS MIN 9999 WIND THR16 30007KT BLU=
METAR LIRI 081150Z 02011KT CAVOK 29/11 Q1019 RMK VIS MIN 9999=
METAR LIRK 081155Z 15009KT CAVOK 16/15 Q1027 RMK SCT SCT060 MON NE
      LIB NC VAL NIL NC VIS MIN 9999=
METAR LIRL 081155Z 24009KT 9999 FEW020TCU 30/17 Q1019 RMK FEW MON LIB
      NC VIS MIN 9999 BLU=
METAR LIRM 081155Z 01005KT 9999 FEW016 30/15 Q1019 RMK FEW VIS MIN
      9999 WIND THR06 05007KT BLU=
METAR LIRS 081155Z 23010KT 9999 FEW040 31/19 Q1019 RMK FEW VIS MIN
      9999 WIND THR21 /////KT BLU=
METAR LIRT 081155Z 35008KT 9999 FEW015 17/06 Q1023 RMK FEW MON LIB
      VAL NIL VIS MIN 9999=
METAR LIRU 081150Z 25003KT 9999 SCT040 30/20 Q1020 RMK VIS MIN 9999=
####018003264####
SAUS70 KWBC 081212
METAR
KSNK 081206Z AUTO 03006KT 7SM BKN003 OVC010 21/20 A3011 RMK AO2
     T02080198=
KSWW 081205Z AUTO 02004KT 3SM OVC002 22/21 A3011 RMK AO1
     T02150210=
KT65 081205Z AUTO 34005KT 10SM OVC006 26/25 A2978 RMK AO2
     T02550247=
KT82 081205Z AUTO 09003KT 22/22 A3003 RMK AO1 T02230216=
KUVA 081205Z AUTO 05003KT 7SM CLR 24/23 A2996 RMK AO2
     T02410231=
KJSO 081210Z AUTO 07004KT 4SM BR SCT002 24/24 A3005 RMK AO2
     T02350235=
KJWY 081205Z AUTO 00000KT 7SM 25/23 A3003 RMK AO2 T02450230=
KLBR 081205Z AUTO 00000KT 4SM OVC006 24/23 A3005 RMK AO2
     T02400231=
KLHB 081204Z AUTO 06005KT 5SM BR SCT009 SCT120 25/23 A2998 RMK AO2
     T02500232=
KLNC 081205Z AUTO 00000KT 7SM BKN005 BKN049 OVC120 24/24 A3003 RMK
     AO2 T02430242=
KLUD 081205Z AUTO 00000KT 10SM BKN023 24/23 A3004 RMK AO2
     T02430225=
KMNZ 081210Z AUTO 08004KT 10SM BKN005 OVC010 25/24 A3003 RMK AO2
     T02450243=
KMQB 081205Z AUTO 30003KT 10SM BKN004 23/22 A3006 RMK AO2
     T02300223=
KOSA 081204Z AUTO 00000KT 3SM OVC002 24/24 A3006 RMK AO1
     T02430239=
KPEZ 081205Z AUTO 02004KT 10SM BKN017 25/23 A2993 RMK AO2
     T02500233=
KPKV 081206Z AUTO 00000KT 7SM SCT013 BKN021 OVC032 25/23 A2987 RMK
     AO2 T02460230=
KPPA 081205Z AUTO 36006KT 5SM BR OVC003 18/17 A3021 RMK AO2=
KPYX 081210Z AUTO 36007KT 4SM SCT006 BKN095 OVC110 18/18 A3018 RMK
     AO2 T01840176=
KRAS 081205Z AUTO 09008KT 2 1/2SM -RA SCT001 SCT023 BKN060 27/24
     A2986 RMK AO2 P0001=
KRBO 081205Z AUTO 06005KT 10SM RA SCT006 BKN016 BKN047 26/25 A2984
     RMK AO2 LTG DSNT SW P0001 T02600250=
KRPH 081205Z AUTO 00000KT 10SM CLR 22/21 A3003 RMK AO2
     T02200210=
KRYW 081205Z AUTO 07005KT 1 3/4SM BR OVC003 24/23 A3000 RMK
     AO2=
KSAR 081205Z AUTO 18005KT 7SM SCT070 BKN085 26/23 A3006 RMK
     AO2=
KSLR 081202Z AUTO 12004KT 4SM BR BKN004 OVC050 25/24 A3006 RMK AO2
     T02510237=
KCCA 081215Z AUTO 00000KT 7SM OVC004 23/23 A3008 RMK AO2=
KCDN 081215Z AUTO 28003KT 10SM CLR 27/21 A3001 RMK A02 P000=
KCKI 081215Z AUTO 29006KT CLR 25/20 A2996 RMK AO2 PWINO=
KLRO 081215Z AUTO 00000KT 7SM CLR 24/19 A2996 RMK AO2=
KMKS 081215Z AUTO 00000KT 7SM CLR 24/20 A2997 RMK AO2 TSNO=
K2G4 081205Z AUTO 00000KT 10SM CLR 23/14 A3020 RMK AO1=
K2W6 081207Z AUTO 11006KT 7SM SCT009 26/24 A3002 RMK AO1=
KCGS 081210Z AUTO 00000KT 5SM CLR 28/24 A3001 RMK AO1=
KW29 081207Z AUTO 00000KT 5SM CLR 26/23 A3001 RMK AO1=
KBNL 081215Z AUTO 32006KT 10SM CLR 26/19 A3000 RMK AO2=
KCQW 081215Z AUTO 35004KT 5SM HZ CLR 26/18 A2998 RMK AO2=
KLKR 081215Z AUTO 00000KT 9SM CLR 22/22 A3002 RMK AO2=
KSLO 081203Z AUTO 21004KT 10SM SCT044 26/22 A3006 RMK AO2
     T02590222=
KTAZ 081205Z AUTO 00000KT 3SM BR SCT070 24/24 A3004 RMK AO2=
KTFP 081205Z AUTO 12003KT 7SM -RA SCT014 BKN038 OVC044 26/25 A2983
     RMK AO2 P0001 T02610247=
KTIP 081205Z AUTO 04003KT 7SM SCT110 24/23 A3006 RMK AO2 LTG DSNT
     NE T02420228=
KTYQ 081205Z AUTO 00000KT 5SM BR OVC100 25/22 A3007 RMK AO2 LTG
     DSNT N AND NW=
KVYS 081205Z AUTO 25004KT 3SM BR BKN017 OVC021 23/22 A3004 RMK AO2
     T02340218=
KXBP 081205Z AUTO 00000KT 10SM SCT026 SCT050 OVC075 24/23 A3005
     RMK AO2 T02350225=
####018000377####
SAUS80 KWBC 081212
METAR
KPSN 081205Z AUTO 08005KT 7SM 24/23 A3003 RMK AO2 T02420232=
KRFI 081205Z AUTO 10003KT 5SM BR SCT004 24/23 A3004 RMK AO2
     T02400230=
KSEP 081205Z AUTO 00000KT 5SM SCT022 SCT035 23/22 A3004 RMK
     AO1=
KCBE 081207Z AUTO 00000KT 7SM CLR 23/18 A3011 RMK AO1=
KEHA 081208Z AUTO 01007KT 17/16 RMK AO1 PK WND 08 002
     T01720162=
####018000095####
SAAF18 LFPW 081200 RRA
METAR FMEE 081200Z 12021KT 9999 FEW023 23/16 Q1020 TEMPO 13028G38KT=
####018000075####
SAAF33 KWBC 081200 RRA
METAR
FLLI 081200Z 07008KT CAVOK 23/06 Q1026=
####018000053####
SAAF34 KWBC 081200 RRB
METAR
FBSP 081200Z NIL=
####018000226####
SAVN34 SVSR 081200
METAR
METAR SVSR 081200Z 07002KT 9999 -DZ FEW013CBE BKN016 24/24 Q1012=
METAR SVCL 081200Z NIL=
METAR SVPA 081200Z 12003KT 9999 BKN065 24/24 Q1011=
METAR SVVP 081200Z 10005KT 9999 OVC013 25/24 Q1006=
####018000287####
SAXX60 KWBC 081200 RRI
METAR
PHNG 081157Z COR 07010KT 10SM SCT026 BKN040 24/19 A3003 RMK AO2
     SLP163 P0001 60001 70001 T02440194 10250 20244 58012 $=
PHNG 081157Z 07010KT 10SM SCT020 BKN040 24/19 A3003 RMK AO2 SLP163
     P0001 60001 70001 T02440194 10250 20244 58012 $=
####018000087####
SAKN64 HKMO 081200
METAR HKJK 081200Z 18006KT 9999 BKN020 BKN100 18/13 Q1023 NOSIG=
####018000109####
SAAF32 KWBC 081200 RRA
METAR
FTTJ 081200Z 20005KT 160V230 9999 FEW040 BKN140 32/28 Q1013
     NOSIG=
####018000223####
SAAF31 KWBC 081200 RRA
METAR
DBBB 081200Z 22011KT 8000 SCT012 BKN120 29/26 Q1013 NOSIG=
DGAA 081200Z 26009KT 9999 SCT016 BKN250 30/23 Q1014 NOSIG=
DNKN 081200Z NIL=
DRRN 081200Z VRB02KT CAVOK 32/20 Q1013 NOSIG=
####018000115####
SACZ41 LKPW 081200
METAR LKKU 081200Z 02007KT CAVOK 24/10 Q1022=
METAR LKLB 081200Z VRB06KT CAVOK 24/07 Q1023=
####018000355####
SAEE31 LOWM 081200
METAR UACK 081200Z 34006G10MPS CAVOK 19/01 Q1010 02010070 NOSIG RMK
QFE734=
METAR UACP 081200Z NIL=
METAR UAII 081200Z NIL=
METAR UADD 081200Z VRB01MPS 9999 NSC 34/03 Q1013 NOSIG RMK
QFE703/0937=
METAR UASK 081200Z 36002MPS 9999 FEW033 SCT100 23/11 Q1011
                   300/0060 NOSIG RMK QFE733=
METAR UASP 081200Z NIL=
####018000397####
SAUS70 KWBC 081200 RRK
METAR
KMDD 081200Z AUTO 03007KT 5SM BR SCT002 BKN013 OVC090 22/21 A3010
     RMK AO2 T02150205=
KRWV 081200Z AUTO 00000KT 5SM BR BKN005 OVC048 24/24 A3000 RMK
     AO2=
KMYR 081145Z 32010KT 10SM CLR 26/19 A2996=
KMZZ 081155Z AUTO 00000KT 7SM BKN060 BKN070 24/21 A3007 RMK
     AO2=
KIGQ 081200Z AUTO 00000KT 4SM VCTSBR OVC065 24/22 A3003 RMK
     AO2=
####018000252####
SAUS80 KWBC 081200 RRE
METAR
KMKN 081200Z AUTO 00000KT 10SM 23/23 A3005 RMK AO2=
K4BL 081155Z 03007KT 40SM SCT140 SCT240 18/04 RMK SLP138 NOSPECI
     8/071 T01780039 10222 20172 51007=
KSOA 081200Z AUTO 00000KT 5SM BR 22/21 A3008 RMK AO2=
####018000098####
SPXX60 KWBC 081212 CCA
SPECI
KABH 081206Z AUTO 31003KT 5SM BR SCT003 12/11 A3037 RMK AO2 $=
####018000168####
SAAG31 KWBC 081200 RRA
METAR
SARF 081200Z 18011KT 9999 OVC006 14/12 Q1018=
SAZS 081200Z 32017KT 30005000SE 3000W RA BKN007 SCT040 03/02 Q1006
     R29210004=
####018000114####
SPUS80 KWBC 081212
SPECI
KNYC 081208Z AUTO 16007KT 130V200 5SM HZ OVC014 27/23 A3008 RMK
     AO2 TSNO $=
####018000091####
SAAF27 LFPW 081200 RRA
METAR DGAA 081200Z 26009KT 9999 SCT016 BKN250 30/23 Q1014 NOSIG=
####018000066####
SAAG SAVC 081200
METAR SAVC 081200Z 27005KT CAVOK 06/00 Q1000=
####018000320####
SAAL31 DAAA 081200
METAR DAAG 081200Z 03010KT 350V060 CAVOK 34/17 Q1018=
METAR DAAT 081200Z NIL=
METAR DABB 081200Z 01013KT CAVOK 29/21 Q1019=
METAR DABC 081200Z 02008KT CAVOK 33/07 Q1022=
METAR DAON 081200Z 02008KT 9999 FEW026 36/20 Q1017=
METAR DAOO 081200Z 36014KT CAVOK 29/22 Q1016=
METAR DAUH 081200Z NIL=
####018000133####
SAAF20 LFPW 081200 RRA
METAR FABL 081200Z 30006KT CAVOK 17/04 Q1031 NOSIG=
METAR FAGG 081200Z 18003KT 130V210 CAVOK 19/05 Q1020=
####018002057####
SPUS70 KWBC 081212
SPECI
KALI 081208Z AUTO 02006KT 10SM SCT004 25/24 A2984 RMK AO2=
KDMO 081208Z AUTO 19004KT 1 3/4SM BR BKN002 OVC009 23/22 A3008 RMK
     AO2=
KDPA 081208Z 26004KT 3SM BR FEW006 BKN020 OVC050 23/22 A3004 RMK
     AO2=
KDYL 081208Z AUTO 00000KT 3SM BR CLR 25/23 A3004 RMK AO2 TSNO=
KGLD 081208Z AUTO 01003KT 10SM SCT004 BKN009 OVC014 17/16 A3031
     RMK AO2 CIG 008V011=
KLVJ 081208Z AUTO 11009G19KT 2 1/2SM VCTS RA BR BKN030 BKN041
     OVC055 26/23 A2995 RMK AO2 LTG DSNT NW-E TSB00RAB1157
     P0009=
KOKB 081208Z AUTO 00000KT 8SM OVC016 17/14 A2989 RMK AO2=
KPBI 081208Z 04007KT 2SM +RA BR FEW006 SCT015 BKN028CB 24/23 A2996
     RMK AO2 VIS W-N 3/4 CB OHD-ALQDS MOV W P0008=
KHOU 081209Z 07007KT 3SM -RA BR FEW008 SCT010 BKN022 OVC130 24/23
     A2994 RMK AO2 RAB00 PRESRR P0006=
KSGR 081209Z 11009KT 9SM FEW008 SCT025 BKN075 26/23 A2993 RMK
     AO2=
KBAF 081209Z 17005KT 5SM HZ BKN011 BKN014 BKN080 25/22 A3007 RMK
     AO2=
KDGW 081209Z AUTO 00000KT 2 1/2SM BR BKN003 05/04 A3035 RMK AO2
     $=
KDHT 081209Z AUTO 33008KT 10SM SCT009 OVC110 17/16 A3025 RMK
     AO2=
KEWB 081209Z 10004KT 10SM OVC006 23/21 A3010 RMK AO2=
KFOK 081209Z 13006KT 10SM BKN015 25/21 A3009 RMK AO2=
KGRB 081209Z 28006KT 2 1/2SM BR OVC002 22/21 A3001 RMK AO2 CIG
     001V006=
KM89 081208Z AUTO 00000KT 4SM BR OVC004 24/24 A3007 RMK AO2=
KOMA 081209Z 34005KT 10SM FEW005 BKN022 BKN250 19/19 A3016 RMK
     AO2=
KSMO 081209Z AUTO 00000KT 9SM OVC009 16/13 A2990 RMK AO2=
KTAN 081209Z AUTO 16004KT 10SM OVC010 23/21 A3009 RMK AO2=
KASD 081210Z AUTO 03004KT 8SM SCT001 25/24 A3003 RMK AO2=
KDEN 081210Z 01004KT 1/4SM R35L/P6000FT BR BKN001 13/13 A3032 RMK
     AO2 SFC VIS 1 TWR IN CLDS $=
KFYV 081210Z 00000KT 10SM BKN026 BKN032 23/22 A3009 RMK AO2=
KIMT 081210Z AUTO 32004KT 10SM FEW006 OVC013 21/19 A3001 RMK
     AO2=
KMCI 081210Z 35005KT 1 1/2SM BR BKN004 23/22 A3008 RMK AO2 SFC VIS
     5 $=
KRSL 081210Z AUTO 35006KT 10SM BKN013 OVC022 18/18 A3018 RMK
     AO2=
####018000095####
SAAS32 KWBC 081205 RRA
METAR
VMMC 081200Z 19012KT 170V260 9999 FEW020 29/26 Q1006 NOSIG=
####018000073####
SAAS31 KWBC 081205 RRA
METAR
VOBG 081200Z NIL=
VOCI 081200Z NIL=
####018000324####
SAAF21 LFPW 081200 RRA
METAR FAJS 081200Z 07007KT 050V130 9999 SCT045 15/03 Q1033 NOSIG=
METAR FALA 081200Z 02008KT 340V070 9999 SCT040 18/04 Q1032 NOSIG=
METAR FAMM 081200Z 03010KT 9999 FEW040 19/03 Q1029 NOSIG=
METAR FAPE 081200Z 04011KT CAVOK 18/11 Q1022 NOSIG=
METAR FAUP 081200Z 36018KT CAVOK 23/02 Q1025 NOSIG=
####018000120####
SPXX60 KWBC 081212
SPECI
KOZR 081206Z 00000KT 3/4SM R06/2200VP6000FT BR VV001 23/23 A3004
     RMK AO2A SLP169=
####018000550####
SAAU31 KWBC 081200 RRA
METAR
YBMA 081200Z AUTO 00000KT 9999NDV // NCD 09/08 Q1020=
YBRK 081200Z 26004KT 9999 FEW008 BKN025 BKN040 13/12 Q1020=
YBRM 081200Z 08005KT 9999 FEW038 SCT049 23/22 Q1012=
YMHB 081200Z 31004KT CAVOK 03/01 Q1030=
YPEA 081200Z AUTO 01010KT 9999NDV // NCD 14/12 Q0998=
YPPD 081200Z NIL=
YSDU 081200Z AUTO 10006KT 9999NDV // NCD 07/05 Q1026=
YSNF 081200Z 11013KT 9999 FEW015 SCT020 BKN028 15/10 Q1018 RMK
     CLOSE TILL 20UTC=
YSRI 081200Z AUTO 00000KT 9999NDV // SCT035 BKN042 OVC049 11/10
     Q1028=
####018000168####
SAAW34 KWBC 081145 RRG
METAR
UACP 081200Z NIL=
UADD 081200Z VRB01MPS 9999 NSC 34/03 Q1013 NOSIG RMK
     QFE703/0937=
UAII 081200Z NIL=
UASP 081200Z NIL=
####018000079####
SACA31 KWBC 081200 RRA
METAR
MBPV 081200 23006KT 9999 SCT020 29/25 2999=
####018000253####
SACI31 KWBC 081200 RRA
METAR
RCKH 081200Z 26006KT 230V290 9999 FEW013 BKN300 30/26 Q1009
     NOSIG=
RCSS 081200Z 25008KT 190V300 9999 FEW018 SCT028 BKN045 31/23 Q1007
     NOSIG=
RCTP 081200Z 23010KT 9999 FEW025 BKN150 29/24 Q1007 NOSIG=
####018000198####
SAID31 KWBC 081200 RRA
METAR
WAAA 081200Z 00000KT 9999 FEW020 26/25 Q1010=
WIII 081200Z 23005KT 7000 SCT020 25/23 Q1011 NOSIG=
WIMM 081200Z 03006KT 6000 FEW016CB FEW017 29/24 Q1009 NOSIG=
####018000120####
SAJP31 KWBC 081200 RRA
METAR
RJTT 081200Z 18007KT 140V220 9999 FEW008 BKN/// 25/22 Q1010 RMK
     1ST008 A2983=
####018000148####
SARA31 KWBC 081200 RRC
METAR
UIAA 081200Z 29006MPS 9999 VCTS -SHRA BKN033CB OVC100 19/14 Q1009
     NOSIG RMK Á˙ ‡˙ ÛÌÂ˝ ˜ QFE698 29CLRD70=
####018000053####
SAPH31 KWBC 081200 RRA
METAR
RPMD 081200Z NIL=
####018000099####
SPUS31 KWBC 081212
SPECI
KPBI 081208Z 04007KT 2SM +RA BR FEW006 SCT015 BKN028CB 24/23 A2996=
####018000121####
SARS41 KWBC 081200 RRB
METAR
UWOO 081200Z 02004MPS P5000 FEW070 32/03 Q1012 08ÛLRD65 NOSIG RMK
     QFE748/0998=
####018000355####
SARS32 KWBC 081200 RRB
METAR
URKA 081200Z 05005MPS 9999 SCT026 29/20 Q1012 NOSIG RMK Û„ 065=
URMM 081200Z 10006G09MPS 9999 BKN046 30/19 Q1012 NOSIG RMK Á/Ô
     SC070=
URMN 081200Z 08004MPS 9999 BKN036CB BKN110 29/19 Q1013 NOSIG RMK
     Á/Ô QFE723 SC07=
URSS 081200Z 29004MPS 9999 FEW040 28/21 Q1009 NOSIG RMK Á/Ô QFE756
     06CLRD70=
####018000307####
SASD42 KWBC 081200 RRA
METAR
OEGS 081200Z 02008KT CAVOK 45/07 Q1007=
OEGT 081200Z NIL=
OEHL 081200Z 27004KT 9999 FEW040 44/02 Q1011 NOSIG=
OEKB 081200Z 19004KT 9999 SCT045 47/19=
OEKK 081200Z 03017KT CAVOK 45/11 Q1005=
OEKM 081200Z 09023KT 7000 SCT022 32/04 Q1019 NOSIG=
OEMH 081200Z NIL=
####018000286####
SASD41 KWBC 081200 RRA
METAR
OEAB 081200Z 06013KT 8000 SCT020 SCT200 33/00 Q1019 NOSIG=
OEAH 081200Z 01010KT CAVOK 46/03 Q1000 NOSIG=
OEBA 081200Z 06013KT CAVOK 37/04 Q1016 NOSIG=
OEBH 081200Z 03010KT CAVOK 41/03 Q1010 NOSIG=
OEGN 081200Z 26007KT CAVOK 36/30 Q0999 NOSIG=
####018000342####
SASD43 KWBC 081200 RRA
METAR
OEMK 081200Z 30002KT CAVOK 45/25 Q1000=
OENG 081200Z 03010KT 5000 DU SCT030 BKN080 40/M01 Q1010 NOSIG=
OEPA 081200Z NIL=
OERF 081200Z 03003KT CAVOK 44/12 Q1005=
OERR 081200Z 22006KT CAVOK 45/10 Q1006=
OESH 081200Z 02013KT 3000 BLDU SKC 42/18 Q1001 NOSIG=
OESK 081200Z 27007KT CAVOK 44/00 Q1008=
####018000329####
SASD44 KWBC 081200 RRA
METAR
OETB 081200Z 34003KT CAVOK 42/05 Q1009 NOSIG=
OETF 081200Z 12006KT 9999 SCT030 38/M01 Q1014 NOSIG=
OETR 081200Z 22006KT CAVOK 40/05 Q1010=
OEWD 081200Z 04016KT 4000 BLDU SKC 45/09 Q1003=
OEWJ 081200Z 30020KT CAVOK 33/26 Q1003=
OEYN 081200Z 28016KT 4000 DU SKC 43/19 Q0998 TEMPO 3000=
####018000097####
SAUR31 KWBC 081200 RRB
METAR
UKDE 081200Z VRB02MPS 9999 SCT050 29017 Q1014 20CLRD70 NOSIG=
####018001478####
SAAU31 YBBN 081200
METAR YPAD 081200Z 07004KT CAVOK 06/04 Q1026=
METAR YBAS 081200Z AUTO 07005KT 9999NDV // NCD 09/07 Q1020=
METAR YBBN 081200Z 19010KT 9999 FEW040 16/11 Q1020
NOSIG=
METAR YBCS 081200Z 17008KT 9999 FEW024 BKN040 23/19 Q1016=
METAR YSCB 081200Z AUTO 00000KT 9999NDV // SCT061 03/02 Q1028=
METAR YPXM 081200Z NIL=
METAR YPCC 081200Z AUTO 14010KT 9999NDV // SCT017 BKN028 OVC032 26/22
Q1013=
METAR YCFS 081200Z AUTO 23009KT 9999NDV // SCT081 14/10 Q1024=
METAR YPDN 081200Z 05006KT CAVOK 25/20 Q1013=
METAR YBCG 081200Z AUTO 19011KT 9999NDV // SCT018 BKN023 OVC049 14/13
Q1022=
METAR YHID 081200Z AUTO 16009KT 9999NDV // SCT054 25/22 Q1013=
METAR YPJT 081200Z AUTO 29006KT 9999NDV // SCT050 BKN093 14/11 Q0997=
METAR YPKU 081200Z AUTO 11007KT 9999NDV // NCD 23/15 Q1015=
METAR YPLM 081200Z AUTO 21005KT 9999NDV // OVC027 21/17 Q1009=
METAR YMML 081200Z 22002KT 9999 FEW042 BKN240 05/05 Q1028
RMK HZ
FM1230 VRB03KT 5000 HZ SKC
FM1400 36005KT 2000 MIFG=
METAR YPPH 081200Z 01009KT 9999 FEW024 BKN098 14/13 Q0998
RMK WBD 0.7
INTER 1230/1500 27030G50KT 2000 TSGS BKN010 FEW030CB=
METAR YSSY 081200Z 24008KT 9999 VCSH FEW008 BKN055 12/11 Q1027
FM1200 22010KT 9999 -SHRA SCT025 BKN040
INTER 1200/1500 5000 SHRA BKN010=
METAR YSTW 081200Z AUTO 15006KT 9999NDV // NCD 07/04 Q1024=
METAR YPTN 081200Z AUTO 11005KT 9999NDV // OVC051 24/16 Q1015=
METAR YBTL 081200Z 13006KT 9999 FEW015 SCT027 BKN038 22/20 Q1017=
####018000083####
SASD32 OEJD 081200
METAR OETF 081200Z 12006KT 9999  SCT030 38/M01 Q1014 NOSIG=
####018001082####
SAXX99 KWBC 081200 RRL
METAR
DFFD 081200Z VRB02KT CAVOK 30/21 Q1015 NOSIG=
EGXU 081150Z 23011KT 9999 SCT042 20/07 Q1016 BLU NOSIG=
LKKU 081200Z 02007KT CAVOK 24/10 Q1022=
LKLB 081200Z VRB06KT CAVOK 24/07 Q1023=
OEDM 081200Z 08010KT CAVOK 43/04 Q1009=
OEKJ 081200Z NIL=
RPLI 081200Z NIL=
SADF 081200Z 00000KT CAVOK 06/02 Q1019=
UACK 081200Z 34006G10MPS CAVOK 19/01 Q1010 02010070 NOSIG RMK
     QFE734=
URML 081200Z 07005MPS 9999 FEW100 33/20 Q1012 NOSIG RMK QFE759 Á/Ô
     Û„07=
WADD 081200Z 00000KT 9999 FEW018 27/26 Q1009 NOSIG=
WALL 081200Z 00000KT 8000 FEW020 26/24 Q1009 NOSIG=
YAMB 081200Z AUTO 20006KT 9999NDV // OVC100 15/10 Q1022=
YBHM 081200Z AUTO 15017KT //// // ////// 19/15 Q1019=
YCIN 081200Z AUTO 11007KT //// // ////// 22/18 Q1013=
YFRT 081200Z AUTO 03011KT //// // ////// 13/02 Q1014=
YMAV 081200Z AUTO 34003KT 9999NDV // OVC048 08/06 Q1028=
YMLT 081200Z AUTO 19003KT 9999NDV // SCT034 02/01 Q1030=
YPGV 081200Z 15008KT 9999 FEW015 BKN350 24/22 Q1014=
YPKG 081200Z AUTO 36011KT 9999NDV // SCT060 SCT078 17/05 Q1004=
####018000118####
SAXX99 KWBC 081100 RRX
METAR
VILK 081130Z 22008KT 5000 HZ SCT020 SCT025 FEW030CB 36/24 Q1000
     TEMPO TSRA=
####018000137####
SAXX99 KWBC 081200 CCC
METAR
CYIV 081200Z CCA 31008KT 15SM FEW005 FEW020 BKN040 BKN080 15/14
     A2983 RMK SF1SC2SC4AC1 SLP107=
####018000106####
SPUS42 KWBC 081212
SPECI
KHOU 081209Z 07007KT 3SM -RA BR FEW008 SCT010 BKN022 OVC130 24/23
A2994=
####018000113####
SAUS45 KCYS 081212
MTRW43
SAUS70 KW43 081205
METAR KW43 081155Z AUTO 21003KT 10SM CLR 09/07 A3030 RMK

####018000113####
SAUS45 KCYS 081212
MTRECS
SAUS70 KECS 081207
METAR KECS 081159Z AUTO 36004KT 10SM CLR 10/09 A3031 RMK

####018000303####
SAPS31 NZKL 081200
METAR NCRG 081200Z 05008KT 9999 FEW010 SCT015 25/24 Q1017=
METAR NFTF 081200Z 00000KT 9999 FEW015 18/17 Q1015=
METAR NGFU 081200Z 08006KT 50KM FEW020 28/25 Q1010=
METAR NIUE 081200Z AUTO 15004KT //// ////// 24/24 Q1015=
METAR NSFA 081200Z 00000KT 50KM FEW024 25/23 Q1012=
####018000392####
SAIR33 OIII 081200
METAR OIBB 081200Z 26012KT CAVOK 35/30 Q0999 A2951=
METAR OIBL 081200Z NIL=
METAR OIBP 081200Z 18010KT 5000 HZ SKC 40/22 Q0998 A2949=
METAR OICK 081200Z NIL=
METAR OICS 0812 ???? ????PM05 Q1011 A2986=
METAR OIHH 081200Z NIL=
METAR OINZ 081200Z 28010KT CAVOK 34/21 Q1010 A2984=
METAR OITL 081200Z 07022KT CAVOK 25/11 Q1017 A3004=
METAR OIZC 081200Z NIL=
####018000799####
SAUS43 KWBC 081200 RRC
METAR
KDKB 081201Z AUTO 25006KT 1 1/4SM RA OVC004 22/21 A3005=
KDNV 081205Z AUTO 00000KT 4SM BR CLR 24/22 A3002=
KENL 081204Z AUTO 19006KT 10SM BKN065 26/18 A3005=
KFEP 081205Z AUTO 27003KT 5SM BR CLR 23/21 A3005=
KFOA 081205Z AUTO 00000KT 5SM BR CLR 27/26 A3005=
KFWC 081205Z AUTO 00000KT 10SM CLR 24/23 A3005=
KGBG 081205Z AUTO 00000KT 5SM BR OVC006 23/22 A3004=
KHSB 081205Z AUTO 00000KT 7SM CLR 23/22 A3006=
KIJX 081205Z AUTO 00000KT 5SM BR CLR 24/23 A3004=
KMQB 081205Z AUTO 30003KT 10SM BKN004 23/22 A3006=
KOLY 081203Z AUTO 00000KT 7SM CLR 26/23 A3005=
KPNT 081205Z AUTO 00000KT 4SM BR SCT004 SCT010 OVC033 23/22
     A3004=
KPRG 081205Z AUTO 23003KT 5SM BR SCT035 24/23 A3006=
KSAR 081205Z AUTO 18005KT 7SM SCT070 BKN085 26/23 A3006=
####018000082####
SPUS52 KWBC 081212
SPECI
KALI 081208Z AUTO 02006KT 10SM SCT004 25/24 A2984=
####018000169####
SAUS44 KWBC 081200 RRC
METAR
KBPG 081205Z AUTO 02007KT 7SM BKN004 OVC010 22/21 A3012=
KBYY 081206Z AUTO 10006KT 3SM -RA SCT015 BKN024 OVC055 26/25
     A2990=
####018000078####
SAUS51 KWBC 081100 RRC
METAR
KMYR 081145Z 32010KT 10SM CLR 26/19 A2996=
####018000096####
SPCN47 CWAO 081210
SPECI CYNA 081210Z AUTO 10014KT 9SM OVC004 OVC045 OVC058 13/12 A3004=

####018000096####
SPUS53 KWBC 081212
SPECI
KGLD 081208Z AUTO 01003KT 10SM SCT004 BKN009 OVC014 17/16 A3031=
####018000092####
SAUS52 KWBC 081200 RRB
METAR
KSEP 081205Z AUTO 00000KT 5SM SCT022 SCT035 23/22 A3004=
####018000742####
SAUZ31 UTTW 081200
METAR UTFN 081200Z 16002MPS 9999 FEW050CB FEW100 37/13 Q1010
R28/CLRD70 NOSIG=
METAR UTNN 081200Z 27002MPS 200V330 CAVOK 43/06 Q1006 R33/CLRD70
NOSIG=
METAR UTNU 081200Z 36003MPS CAVOK 41/16 Q1007 R13/CLRD60 NOSIG=
METAR UTSA 081200Z 02007MPS 9999 NSC 40/05 Q1008 R88/CLRD70 NOSIG=
METAR UTSB 081200Z 01006MPS CAVOK 41/03 Q1007 R01/CLRD70 TEMPO
01008MPS=
UTSH NIL=
METAR UTSK 081200Z 32005MPS CAVOK 40/10 Q1006 R16/CLRD70=
METAR UTSS 081200Z 06006MPS 9999 NSC 35/11 Q1010 R88/CLRD70 NOSIG=
METAR UTST 081200Z VRB01MPS CAVOK 41/02 Q1005 R88/CLRD70 NOSIG=
METAR UTTT 081200Z 11002MPS 050V160 CAVOK 39/05 Q1009 R08R/CLRD70
NOSIG=
METAR UTTP 081200Z 16002MPS CAVOK 38/10 Q1010 R88/CLRD70 NOSIG=
####018000099####
SAUS53 KWBC 081200 RRD
METAR
KLNC 081205Z AUTO 00000KT 7SM BKN005 BKN049 OVC120 24/24 A3003=
####018000090####
SAUK39 EGRR 081150 RRF
METAR EGYE 081150Z 26010KT 9999 FEW040 BKN250 ///// Q1017 BLU=
####018000080####
SAMZ40 FQMA 081200
METAR
FQCH 081200Z /////KT 9999 BKN017 20/09 Q1028=

####018000082####
SPUS72 KWBC 081212
SPECI
KALI 081208Z AUTO 02006KT 10SM SCT004 25/24 A2984=
####018000106####
SPUS72 KWBC 081212
SPECI
KHOU 081209Z 07007KT 3SM -RA BR FEW008 SCT010 BKN022 OVC130 24/23
A2994=
####018001209####
SAXN17 KAWN 081200 RRF
METAR MMEP 081205Z RTD 00000KT 4SM BKN003 OVC009 22/21 A2999 RMK SLP095
      56003 901 8/8// BR ARND RTS=
METAR MMPS 081200Z RTD 06006KT 15SM SCT015 BKN070 OVC240 25/19 A2998
      RMK SLP128 57010 961 8/263=
METAR MRLB 081200Z 20007KT 9999 FEW003 SCT025 BKN100 23/23 A2986 RMK
      LOW ST ARND=
METAR MRPV 081200Z 00000KT CAVOK 19/19 A2999 RMK BKN120 POLVO APROXIMACION
      PISTA 09 PISTA HUMEDA NOSIG=
METAR RCKH 081200Z 26006KT 230V290 9999 FEW013 BKN300 30/26 Q1009 NOSIG=
METAR RCTP 081200Z 23010KT 9999 FEW025 BKN150 29/24 Q1007 NOSIG=
METAR RJAA 081200Z 13004KT 9999 FEW020 BKN/// 22/21 Q1011 NOSIG RMK
      2CU020 A2986=
METAR RJCC 081200Z 15003KT 090V260 1500 R19R/P1800N R01R/1200U -DZ
      BR BKN002 17/17 Q1011 RMK 7ST002 A2985=
METAR RJFF 081200Z 30005KT 280V350 8000 FEW025 SCT030 BKN/// 25/21
      Q1009 RMK 1CU025 4CU030 A2980=
METAR RJFK 081200Z VRB02KT 9999 FEW030 SCT080 BKN/// 24/19 Q1010 RMK
      1CU030 3AC080 A2985=
METAR RJTT 081200Z 18007KT 140V220 9999 FEW008 BKN/// 25/22 Q1010 RMK
      1ST008 A2983=
METAR ROAH 081200Z 19012KT 9999 FEW010 SCT015 BKN150 29/27 Q1010 RMK
      1CU010 3CU015 5AC150 A2984=
####018000821####
SAXX70 KAWN 081200 RRK
METAR KQFU 081150Z AUTO 07001KT 7SM OVC065 23/19 A2992 RMK A02=
METAR KQAQ 081155Z 30010G20KT 8000 HZ FU CLR 45/08 A2963 RMK SLP028
      PA +394 DA +3829 57007=
METAR KQD2 081155Z AUTO VRB04KT 9999 CLR 35/M08 A2998 RMK AO2 SLP021
      T03521076 10360 20305 56010 $=
METAR KQEI 081210Z AUTO 12001KT 7SM -SHRA FEW044 BKN080 23/19 A2996
      RMK A02=
METAR KQEN 081210Z AUTO 25004KT 7SM SCT080 19/16 A3042 RMK A02=
METAR KQEP 081210Z AUTO 07001KT 4SM BR BKN090 23/19 A2988 RMK A02=
METAR KQER 081210Z AUTO 00000KT 2SM -SHRA BR FEW033 BKN100 21/19 A2990
      RMK A02=
METAR KQES 081210Z AUTO 32009KT 4SM -DZ OVC050 20/18 A2988 RMK A02=
METAR KQEY 081210Z AUTO 35008KT 7SM SCT100 25/18 A2961 RMK A02=
METAR KQEV 081220Z AUTO 20006KT 7SM -RA OVC070 24/19 A2981 RMK A02=
####018000099####
SPUS72 KWBC 081212
SPECI
KPBI 081208Z 04007KT 2SM +RA BR FEW006 SCT015 BKN028CB 24/23 A2996=
####018000083####
SACN59 CWAO 081200 RRA
WCT SA 1200 AUTO8 M M M 212/10/08/2505/M/ 8007 32MM=

####018000083####
SACN63 CWAO 081200 RRA
XAR SA 1200 AUTO8 M M M 024/07/07/0903/M/ 2003 31MM=

####018000626####
SACN95 CWAO 081200 RRA
WTN SA 1200 AUTO8 M M M 161/19/17/1203/M/ 1003 43MM=
WTT SA 1200 AUTO8 M M M M/25/23/2402/M/M M 93MM=
WUT SA 1200 AUTO8 M M M 189/11/09/2804/M/M 2012 02MM=
WUY SA 1200 AUTO7 M M M 135/23/19/2007/M/ 8010 74MM=
WVN SA 1200 AUTO8 M M M 219/09/08/2501/M/ 2006 36MM=
WVP SA 1200 AUTO8 M M M 219/12/09/3403/M/ 3001 88MM=
WVU SA 1200 AUTO8 M M M 216/16/16/1710/M/ 2016 07MM=
WVW SA 1200 AUTO8 M M M 210/11/09/1710/M/M 0005 12MM=
WWC SA 1200 AUTO8 M M M 110/11/08/MM07/M/ 6008 40MM=
WWF SA 1200 AUTO8 M M M 205/11/11/3205/M/ 3011 46MM=
WXB SA 1200 AUTO8 M M M M/09/08/2204/M/ M 24MM=

####018000289####
SACN45 CWAO 081200 RRA
METAR CYBB 081200Z 00000KT 15SM BKN090 BKN140 11/07 A2981 RMK AC6AC0
17.5/8.0/0 SLP097=
METAR CYLC 081200Z 00000KT 15SM BKN030 BKN032 10/05 A2976 RMK SC5SC2
17.0/9.0/4.8/0 NIL SLP079=
METAR CYTE 081200Z 10010KT 15SM FEW070 06/03 A2975 RMK AC2 SLP076=

####018000248####
SACN82 CWAO 081200 RRA
MFM SA 1200 AUTO8 M M M 168/23/20/0701/M/ 0000 06MM=
MSI SA 1200 AUTO8 M M M 171/27/23/2306/M/ 1005 52MM=
MTH SA 1200 AUTO8 M M M 168/23/22/2104/M/ 2004 47MM=
WDM SA 1200 AUTO8 M M M 182/09/08/0706/M/ 8008 96MM=

####018000138####
SACN66 CWAO 081200 RRA
PQW SA 1200 AUTO8 M M M 198/12/10/2304/M/ 5003 81MM=
ZHB SA 1200 AUTO8 M M M 175/11/08/2205/M/ 3007 82MM=

####018000359####
SACN78 CWAO 081200 RRA
TAG SA 1200 AUTO8 M M M 164/16/14/2504/M/ 3004 68MM=
TBT SA 1200 AUTO8 M M M 179/24/22/1504/M/ 0000 32MM=
TPQ SA 1200 AUTO8 M M M 166/26/21/0000/M/ 0001 00MM=
TTR SA 1200 AUTO8 M M M 161/22/20/1703/M/ 7002 91MM=
TWL SA 1200 AUTO8 M M M 174/25/22/1703/M/M 1003 93MM=
WBE SA 1200 AUTO8 M M M 165/18/17/0903/M/ 5003 60MM=

####018000169####
SACN31 CWAO 081200 RRA
METAR CYMX 081200Z 00000KT 6SM HZ FEW230 26/20 A3002 RMK CI1 SLP164=
METAR CYUL 081200Z 21004KT 12SM FEW080 26/22 A3000 RMK ACC1 SLP160=

####018000083####
SACN86 CWAO 081200 RRA
WPO SA 1200 AUTO8 M M M 198/13/11/2905/M/ 2015 21MM=

####018000096####
SACN97 CWAO 081100 RRI
XNM SA 1100 AUTO7 M M M M/20/14/2711/M/ PK WND 2517 1016Z M 03MM=

####018000119####
SACN48 CWAO 081200 RRA
METAR CYMT 081200Z 18002KT 15SM FEW045 FEW070 SCT200 23/20 A3000 RMK
CU1AC1CI1 SLP156=

####018000192####
SACN70 CWAO 081200 RRA
WOO SA 1200 AUTO8 M M M M/14/08/3008/M/ M 27MM=
WSZ SA 1200 AUTO8 M M M 162/14/12/2605/M/0008 2011 62MM=
XWG SA 1200 AUTO8 M M M 157/15/13/2904/M/ 3016 51MM=

####018000210####
SACN43 CWAO 081200 RRA
METAR CYEN 081200Z 27002KT 15SM FEW040 FEW090 SCT250 12/11 A3012 RMK
SC1AC1CI0 SLP206=
METAR CYPA 081200Z 23005KT 15SM FEW050 FEW100 BKN250 13/10 A3005 RMK
SC1AC1CI1 SLP184=

####018000138####
SACN98 CWAO 081200 RRA
XTO SA 1200 AUTO8 M M M 166/27/24/MMMM/M/ 0003 86MM=
ZMJ SA 1200 AUTO8 M M M 219/11/10/2404/M/ 2007 16MM=

####018000083####
SACN90 CWAO 081100 RRG
WEW SA 1100 AUTO8 M M M 161/25/23/3003/M/ 1007 55MM=

####018000237####
SACN49 CWAO 081200 RRA
METAR CYGW 081200Z 13008KT 15SM FEW025 SCT040 BKN080 18/16 A2985 RMK
CU1SC2AC2 TCU ASOCTD VIA CYQB FIC SLP110=
METAR CYHH 081200Z 06003KT 15SM BKN080 BKN120 20/15 A2993 RMK AC5AC2
VIA CYQB FIC SLP137=

####018000188####
SACN93 CWAO 081200 RRA
WNH SA 1200 AUTO8 M M M 166/13/12/3403/M/ 3007 81MM=
WOE SA 1200 AUTO8 M M M M/11/07/3501/M/ M 50MM=
WOK SA 1200 AUTO8 M M M 202/12/11/2203/M/ 0001 38MM=

####018000109####
SACN47 CWAO 081200 RRA
METAR CYRJ 081200Z 32003KT 10SM SCT040 SCT220 25/19 A2999 RMK SC3CI0
SLP154=

####018000403####
SACN90 CWAO 081200 RRA
WEA SA 1200 AUTO8 M M M 156/15/13/3003/M/ 3012 13MM=
WEI SA 1200 AUTO8 M M M 192/13/12/2803/M/ 3008 55MM=
WER SA 1200 AUTO8 M M M M/M/M/0609/M/M M MMMM=
WEW SA 1200 AUTO8 M M M 163/27/22/2801/M/ 2006 58MM=
WFE SA 1200 AUTO8 M M M M/15/11/2701/M/ M 87MM=
WGD SA 1200 AUTO8 M M M 159/24/20/1406/M/ 0001 31MM=
WGN SA 1200 AUTO8 M M M 170/15/13/2907/M/M 3015 07MM=

####018000539####
SACN89 CWAO 081200 RRA
WAV SA 1200 AUTO8 M M M 217/06/04/0000/M/ 6005 60MM=
WAY SA 1200 AUTO8 M M M 084/03/01/2702/M/ 1004 00MM=
WBA SA 1200 AUTO8 M M M M/22/21/1804/M/ M 21MM=
WBL SA 1200 AUTO8 M M M 161/15/10/3013/M/M PK WND 2918 1113Z 1008
29MM=
WBM SA 1200 AUTO8 M M M 185/13/08/0601/M/ 3015 31MM=
WBO SA 1200 AUTO8 M M M 217/09/09/1902/M/ 7001 44MM=
WBT SA 1200 AUTO8 M M M 174/14/14/1202/M/ 5001 55MM=
WDK SA 1200 AUTO8 M M M 221/08/07/0000/M/ 6006 46MM=
WDW SA 1200 AUTO8 M M M 178/10/08/MMMM/M/ 8010 02MM=

####018000130####
SACN91 CWAO 081100 RRF
WIG SA 1100 AUTO8 M M M M/M/M/0104/M/M M MMMM=
WIP SA 1100 AUTO7 M M M M/12/M/0702/M/0002 M 3MMM=

####018000715####
SACN96 CWAO 081200 RRA
WXL SA 1200 AUTO8 M M M M/10/09/1704/M/ M 95MM=
WXN SA 1200 AUTO8 M M M 227/12/06/2204/M/ 6006 04MM=
WXS SA 1200 AUTO8 M M M 160/18/17/3302/M/ 1008 76MM=
WYJ SA 1200 AUTO8 M M M M/16/12/0202/M/ M 67MM=
WYY SA 1200 AUTO8 M M M 177/13/11/0701/M/0018 3006 06MM=
WZE SA 1200 AUTO8 M M M M/11/10/2405/M/ M 09MM=
WZL SA 1200 AUTO8 M M M 183/22/05/2907/M/ 1002 39MM=
WZQ SA 1200 AUTO8 M M M 188/24/17/1808/M/M 3001 59MM=
WZT SA 1200 AUTO8 M M M M/12/M/MMMM/M/ M 1MMM=
XFV SA 1200 AUTO8 M M M M/14/14/3101/M/ M 55MM=
XHM SA 1200 AUTO8 M M M M/26/21/2603/M/ M 61MM=
XPS SA 1200 AUTO8 M M M M/13/11/2803/M/ SUNSH 0 M 24MM=
ZUG SA 1200 AUTO8 M M M M/14/11/2808/M/ M 16MM=

####018000533####
SACN94 CWAO 081200 RRA
WQF SA 1200 AUTO8 M M M M/12/08/0302/M/ M 40MM=
WQQ SA 1200 AUTO8 M M M M/10/09/2103/M/ M 69MM=
WQY SA 1200 AUTO8 M M M 116/09/09/3508/M/0010 PCPN 0.2MM PAST HR
1009 41MM=
WRJ SA 1200 AUTO8 M M M 198/10/10/2803/M/ 2001 77MM=
WRM SA 1200 AUTO8 M M M 211/05/04/0000/M/ 6002 02MM=
WRT SA 1200 AUTO8 M M M M/03/M/2401/M/M M 0MMM=
WRY SA 1200 AUTO8 M M M 223/09/07/2907/M/ 5001 30MM=
WSR SA 1200 AUTO8 M M M 175/13/12/2408/M/ 5004 11MM=
WSU SA 1200 AUTO8 M M M 162/14/12/2605/M/ 3006 31MM=

####018000524####
SACN88 CWAO 081200 RRA
ABT SA 1200 AUTO8 M M M M/24/19/2310/M/ PK WND 2217 1131Z M 78MM=
AFY SA 1200 AUTO7 M M M M/17/16/MMMM/M/ M 40MM=
AHK SA 1200 AUTO7 M M M 205/19/18/2508/M/M 3007 21MM=
AHW SA 1200 AUTO7 M M M M/20/18/2305/M/M M 28MM=
AKC SA 1200 AUTO7 M M M M/23/19/MMMM/M/ M 10MM=
APR SA 1200 AUTO8 M M M 204/16/15/1204/M/ 1008 24MM=
ERM SA 1200 AUTO8 M M M 158/24/22/1403/M/0003 1006 33MM=
WHO SA 1200 AUTO8 M M M 114/12/09/1502/M/M 8005 23MM=
WZF SA 1200 AUTO8 M M M M/24/21/1803/M/M M 55MM=

####018000295####
SACN91 CWAO 081200 RRA
WGX SA 1200 AUTO8 M M M 084/12/10/2206/M/ 8004 75MM=
WHV SA 1200 AUTO8 M M M 162/26/23/1203/M/ 1003 16MM=
WIG SA 1200 AUTO8 M M M M/M/M/0206/M/M M MMMM=
WIP SA 1200 AUTO7 M M M M/13/M/0602/M/0002 M 8MMM=
WIW SA 1200 AUTO8 M M M 198/10/09/2505/M/ 0001 30MM=

####018000136####
SACN85 CWAO 081200 RRA
WPK SA 1200 AUTO8 M M M 165/22/M/1301/M/ 0000 7MMM=
WWE SA 1200 AUTO8 M M M 221/16/M/2106/M/ 2011 8MMM=

####018000572####
SACN92 CWAO 081200 RRA
WJI SA 1200 AUTO8 M M M 215/10/09/2503/M/ 3008 22MM=
WJL SA 1200 AUTO8 M M M 161/13/12/0000/M/ 0003 46MM=
WJT SA 1200 AUTO8 M M M 160/23/20/0000/M/ 0004 02MM=
WJX SA 1200 AUTO8 M M M 211/10/09/2603/M/ 3001 32MM=
WKA SA 1200 AUTO8 M M M M/M/M/1001/M/M M MMMM=
WKB SA 1200 AUTO8 M M M 194/15/12/1303/M/ 8001 66MM=
WLE SA 1200 AUTO8 M M M 214/11/11/2106/M/ 3003 97MM=
WLV SA 1200 AUTO8 M M M 176/11/08/2403/M/ 6007 63MM=
WMI SA 1200 AUTO8 M M M 162/17/15/0702/M/ 1007 94MM=
WMJ SA 1200 AUTO8 M M M 163/24/21/1603/M/ 1003 99MM=

####018000083####
SACN82 CWAO 081100 RRB
MSI SA 1100 AUTO8 M M M 170/25/22/2004/M/ 1007 02MM=

####018000714####
SACN97 CWAO 081200 RRA
XBO SA 1200 AUTO8 M M M M/19/17/0507/M/ M 69MM=
XCA SA 1200 AUTO8 M M M 146/18/17/0000/M/0012 8002 67MM=
XCH SA 1200 AUTO7 M M M M/24/17/MMMM/M/ M 95MM=
XDI SA 1200 AUTO8 M M M 155/25/21/1903/M/ 0003 21MM=
XET SA 1200 AUTO8 M M M 164/25/22/3104/M/ 0000 92MM=
XGH SA 1200 AUTO8 M M M M/15/15/2905/M/M M 99MM=
XHA SA 1200 AUTO8 M M M 154/27/22/2403/M/ 0003 13MM=
XLU SA 1200 AUTO8 M M M 134/12/08/2401/M/ 3002 64MM=
XMY SA 1200 AUTO8 M M M M/23/18/MMMM/M/ M 25MM=
XNM SA 1200 AUTO7 M M M M/21/15/2611+17/M/ PK WND 2618 1126Z M
58MM=
XSH SA 1200 AUTO7 M M M 153/26/20/0303/M/ 1007 93MM=
XTP SA 1200 AUTO8 M M M 222/14/12/2109+17/M/ PK WND 2317 1154Z 8003
15MM=

####018000073####
SAAL40 DAMM 081200 RRA
METAR DAUH 081200Z 10009KT CAVOK 39/21 Q1018=
####018000331####
SPNA35 KAWN 081212 RRA
SPECI KBRO 081205Z 32005KT 10SM FEW004 SCT020 SCT030 27/26 A2976 RMK
      AO2=
SPECI KPBI 081208Z 04007KT 2SM +RA BR FEW006 SCT015 BKN028CB 24/23
      A2996 RMK AO2 VIS W-N 3/4 CB OHD-ALQDS MOV W P0008=
SPECI KWRI 081210Z AUTO 14006KT 6SM BR SCT006 BKN010 25/25 A3003 RMK
      AO2 SLP169 $=
####018000088####
SPUS81 KWBC 081212 CCA
SPECI
KABH 081206Z AUTO 31003KT 5SM BR SCT003 12/11 A3037=
####018001006####
SAUS20 KNKA 081212
METAR K1F0 081207Z AUTO 00000KT 24/24 A3002 RMK AO2 PWINO=
SPECI KACV 081211Z AUTO 00000KT 9SM OVC003 10/09 A2996 RMK AO2=
SPECI KBAZ 081211Z AUTO 05007KT 6SM BR BKN016 OVC037 25/24 A2994 RMK 
    AO2=
SPECI KBOK 081212Z AUTO 00000KT 1 3/4SM BR OVC002 09/09 A2997 RMK 
    AO2 VIS 1V3 $=
METAR KDUC 081212Z AUTO 05003KT 10SM CLR 22/22 A3004 RMK AO2=
SPECI KESF 081211Z AUTO 00000KT 6SM BR BKN011 24/23 A3005 RMK AO2=
SPECI KHWV 081211Z AUTO 13005KT 10SM FEW009 BKN015 OVC050 25/22 
    A3008 RMK AO2=
METAR KONM 081207Z AUTO 34005KT 10SM BKN080 BKN100 18/14 A3024 
     RMK AO2 T01810140=
SPECI KSET 081211Z AUTO 00000KT 10SM -RA BKN006 BKN010 OVC060 24/24 
    A3004 RMK AO2 TSB1156E11RAB1157 CIG 003V007 P0000=
SPECI KSGR 081209Z 11009KT 9SM FEW008 SCT025 BKN075 26/23 A2993
     RMK AO2=
SPECI KUCP 081212Z AUTO 00000KT 1 1/2SM BR BKN001 21/19 A3010 RMK 
    AO2 $=
SPECI KUUU 081211Z AUTO 10004KT 1 1/4SM BR OVC001 21/21 A3011 RMK 
    AO2=
####018000107####
SAAK41 KNKA 081212
SPECI PAKI 081208Z AUTO 36004KT 3SM BR CLR 07/07 A3001 RMK AO2 PWINO 
    TSNO $=
####018000073####
SAAL41 DAMM 081200 RRB
METAR DABT 081200Z 36010KT CAVOK 35/04 Q1022=
####018000227####
SAUS99 KWBC 081213
METAR
K1F0 081207Z AUTO 00000KT 24/24 A3002 RMK AO2 PWINO=
KDUC 081212Z AUTO 05003KT 10SM CLR 22/22 A3004 RMK AO2=
KONM 081207Z AUTO 34005KT 10SM BKN080 BKN100 18/14 A3024 RMK AO2
     T01810140=
####018000823####
SPUS99 KWBC 081213
SPECI
PAKI 081208Z AUTO 36004KT 3SM BR CLR 07/07 A3001 RMK AO2 PWINO
     TSNO $=
KACV 081211Z AUTO 00000KT 9SM OVC003 10/09 A2996 RMK AO2=
KBAZ 081211Z AUTO 05007KT 6SM BR BKN016 OVC037 25/24 A2994 RMK
     AO2=
KBOK 081212Z AUTO 00000KT 1 3/4SM BR OVC002 09/09 A2997 RMK AO2
     VIS 1V3 $=
KESF 081211Z AUTO 00000KT 6SM BR BKN011 24/23 A3005 RMK AO2=
KHWV 081211Z AUTO 13005KT 10SM FEW009 BKN015 OVC050 25/22 A3008
     RMK AO2=
KSET 081211Z AUTO 00000KT 10SM -RA BKN006 BKN010 OVC060 24/24
     A3004 RMK AO2 TSB1156E11RAB1157 CIG 003V007 P0000=
KSGR 081209Z 11009KT 9SM FEW008 SCT025 BKN075 26/23 A2993 RMK
     AO2=
KUCP 081212Z AUTO 00000KT 1 1/2SM BR BKN001 21/19 A3010 RMK AO2
     $=
KUUU 081211Z AUTO 10004KT 1 1/4SM BR OVC001 21/21 A3011 RMK
     AO2=
####018000228####
SANG31 YBBN 081200
METAR AYPY 081200Z NIL=
METAR AYWK 081200Z NIL=
METAR AYVN 081200Z NIL=
METAR AYNZ 081200Z NIL=
METAR AYMH 081200Z NIL=
METAR AYGN 081200Z NIL=
METAR AYMO 081200Z NIL=
METAR AGGH 081200Z NIL=
####018000078####
SAAL41 DAMM 081200 RRA
METAR DAOF 081200Z 12010KT 4000 HZ NSC 43/05 Q1014=
####018001477####
SAAU31 YBBN 081200
METAR YPAD 081200Z 07004KT CAVOK 06/04 Q1026=
METAR YBAS 081200Z AUTO 07005KT 9999NDV // NCD 09/07 Q1020=
METAR YBBN 081200Z 19010KT 9999 FEW040 16/11 Q1020
NOSIG=
METAR YBCS 081200Z 17008KT 9999 FEW024 BKN040 23/19 Q1016=
METAR YSCB 081200Z AUTO 00000KT 9999NDV // SCT061 03/02 Q1028=
METAR YPXM 081200Z NIL=
METAR YPCC 081200Z AUTO 14010KT 9999NDV // SCT017 BKN028 OVC032 26/22
Q1013=
METAR YCFS 081200Z AUTO 23009KT 9999NDV // SCT081 14/10 Q1024=
METAR YPDN 081200Z 05006KT CAVOK 25/20 Q1013=
METAR YBCG 081200Z AUTO 19011KT 9999NDV // SCT018 BKN023 OVC049 14/13
Q1022=
METAR YHID 081200Z AUTO 16009KT 9999NDV // SCT054 25/22 Q1013=
METAR YPJT 081200Z AUTO 29006KT 9999NDV // SCT050 BKN093 14/11 Q0997=
METAR YPKU 081200Z AUTO 11007KT 9999NDV // NCD 23/15 Q1015=
METAR YPLM 081200Z AUTO 21005KT 9999NDV // OVC027 21/17 Q1009=
METAR YMML 081200Z 22002KT 9999 FEW042 BKN240 05/05 Q1028
RMK HZ
FM1230 VRB03KT 5000 HZ SKC
FM1400 36005KT 2000 MIFG=
METAR YPPH 081200Z 01009KT 9999 FEW024 BKN098 14/13 Q0998
RMK WBD 0.7
INTER 1230/1500 27030G50KT 2000 TSGS BKN010 FEW030CB=
METAR YSSY 081200Z 24008KT 9999 VCSH FEW008 BKN055 12/11 Q1027
FM1200 22010KT 9999 -SHRA SCT025 BKN040
INTER 1200/1500 5000 SHRA BKN010=
METAR YSTW 081200Z AUTO 15006KT 9999NDV // NCD 07/04 Q1024=
METAR YPTN 081200Z AUTO 11005KT 9999NDV // OVC051 24/16 Q1015=
METAR YBTL 081200Z 13006KT 9999 FEW015 SCT027 BKN038 22/20 Q1017=
####018000104####
SAUR30 UKMS 081200 RRA
METAR UKDE 081200Z VRB02MPS 9999 SCT050 29017 Q1014
         20CLRD70 NOSIG=
####018001264####
SAAU32 YBBN 081200
METAR YAMB 081200Z AUTO 20006KT 9999NDV // OVC100 15/10 Q1022=
METAR YMAV 081200Z AUTO 34003KT 9999NDV // OVC048 08/06 Q1028=
METAR YBRM 081200Z 08005KT 9999 FEW038 SCT049 23/22 Q1012=
METAR YCIN 081200Z AUTO 11007KT //// // ////// 22/18 Q1013=
METAR YSDU 081200Z AUTO 10006KT 9999NDV // NCD 07/05 Q1026=
METAR YFRT 081200Z AUTO 03011KT //// // ////// 13/02 Q1014=
METAR YGEL 081200Z NIL=
METAR YPGV 081200Z 15008KT 9999 FEW015 BKN350 24/22 Q1014=
METAR YBHM 081200Z AUTO 15017KT //// // ////// 19/15 Q1019=
METAR YMHB 081200Z 31004KT CAVOK 03/01 Q1030=
METAR YPKG 081200Z AUTO 36011KT 9999NDV // SCT060 SCT078 17/05 Q1004=
METAR YMLT 081200Z AUTO 19003KT 9999NDV // SCT034 02/01 Q1030=
METAR YBMA 081200Z AUTO 00000KT 9999NDV // NCD 09/08 Q1020=
METAR YSNF 081200Z 11013KT 9999 FEW015 SCT020 BKN028 15/10 Q1018
RMK CLOSE TILL 20UTC=
METAR YPEA 081200Z AUTO 01010KT 9999NDV // NCD 14/12 Q0998=
METAR YPPD 081200Z NIL=
METAR YSRI 081200Z AUTO 00000KT 9999NDV // SCT035 BKN042 OVC049 11/10
Q1028=
METAR YBRK 081200Z 26004KT 9999 FEW008 BKN025 BKN040 13/12 Q1020=
METAR YWLM 081200Z AUTO 31005KT 9999NDV // SCT041 BKN047 OVC067 11/10
Q1026=
METAR YPWR 081200Z AUTO 10006KT 9999NDV // NCD 07/00 Q1023=
####018000150####
SAKA31 PTRO 081200 COR
METAR PTRO COR 081158Z 08007KT 12SM -TSRA BKN016CB BKN120 OVC300 
26/24 A2990 RMK OCNL LTGCA SE-S TS SE MOV W CB VC ALQDS
####018000455####
SAAL32 DAAA 081200
METAR DAAS 081200Z 30008KT CAVOK 34/03 Q1024=
METAR DABS 081200Z 02014KT CAVOK 34/06 Q1023=
METAR DAOB 081200Z NIL=
METAR DAOF 081200Z NIL=
METAR DAOR 081200Z 12010KT CAVOK 39/06 Q1023=
METAR DAUA 081200Z 02025KT 6000 DRSA NSC 43/08 Q1013=
METAR DAUB 081200Z 13009KT CAVOK 36/15 Q1017=
METAR DAUG 081200Z 14009KT CAVOK 38/11 Q1020=
METAR DAUU 081200Z 04010KT CAVOK 39/16 Q1017=
METAR DAUZ 081200Z 11006KT CAVOK 38/07 Q1016=
####018000496####
SAAO33 DRRN 081200
METAR DBBB 081200Z 22011KT 8000 SCT012 BKN120 29/26 Q1013 NOSIG=
METAR DFFD 081200Z VRB02KT CAVOK 30/21 Q1015 NOSIG=
METAR DGAA 081200Z 26009KT 9999 SCT016 BKN250 30/23 Q1014 NOSIG=
METAR DNKN 081200Z NIL=
METAR DNMM 081200Z 25006KT 9999 BKN013 30/25 Q1015 NOSIG=
METAR DRRN 081200Z VRB02KT CAVOK 32/20 Q1013 NOSIG=
METAR DXXX 081200Z 20009KT 170V240 9999 FEW016 FEW025CB 30/25 Q1014
NOSIG=
METAR FTTJ 081200Z 20005KT 160V230 9999  FEW040 BKN140 32/28 Q1013
NOSIG=
####018000084####
SAAG SAWG 081200
METAR SAWG 081200Z  29012KT 9999  FEW025 BKN080
M03/M05 Q0991=
####018000747####
SAHK31 VHHH 081200
METAR VHHH 081200Z 19006KT 140V240 9999 FEW015 31/26 Q1007 NOSIG=
METAR RCTP 081200Z 23010KT 9999 FEW025 BKN150 29/24 Q1007
NOSIG=
METAR RCKH 081200Z 26006KT 230V290 9999 FEW013 BKN300 30/26
Q1009 NOSIG=
METAR RCSS 081200Z 25008KT 190V300 9999 FEW018 SCT028 BKN045 31/23
Q1007 NOSIG=
METAR VMMC 081200Z 19012KT 170V260 9999 FEW020 29/26 Q1006
     NOSIG=
METAR RPLL 081200Z 07003KT 9000 FEW025 BKN100 30/26 Q1009 NOSIG
           RMK A2980=
METAR RPVM 081200Z 16004KT 9999 FEW018CB BKN250 29/25 Q1010 A2985
           CB W W/ OCNL LTNG=
METAR RPMD 081200Z NIL=
METAR RPLB 081200Z 17004KT 9999 FEW020 SCT080 29/25 Q1010 NOSIG=
METAR RPLI 081200Z NIL=
METAR RPMZ 081200Z 00000KT 9999 FEW018 SCT350 28/26 Q1011=
####018001163####
SAAG05 SABM 081200
METAR SAAR 081200Z  29003KT 9000  NSC  02/00 Q1019=
METAR SABE 081200Z  27008KT CAVOK 10/M00 Q1019=
METAR SACO 081200Z  32004KT CAVOK 08/M06 Q1019=
METAR SADF 081200Z  00000KT CAVOK 06/02 Q1019=
METAR SAEZ 081200Z 32004KT CAVOK 05/M01 Q1019=
METAR SAME 081200Z NIL=
METAR SANT 081200Z  27004KT 7000  07/06 Q1018=
METAR SAOC 081200Z  36013KT CAVOK 10/M06 Q1015=
METAR SARC 081200Z  14007KT 9999  FEW008  11/09
Q1019=
METAR SARE 08120Z 14010KT 9999 FEW007 SCT100 11/09 Q1019=
METAR SARF 081200Z  18011KT 9999  OVC006  14/12
Q1018=
METAR SARI 081200Z  20007KT 3000 BR BKN003 BKN100
17/17 Q1019=
METAR SARL 081200Z  14006KT 9999  09/06 Q1021=
METAR SARP 081200Z  07006KT 8000  SCT005 OVC015
15/13 Q1018=
METAR SASA 081200Z 20004KT CAVOK 08/06 Q1021=
METAR SASJ 081200Z  00000KT CAVOK 10/08 Q1018=
METAR SAVC 081200Z NIL=
METAR SAWE 081200Z NIL=
METAR SAWG 081200Z NIL=
METAR SAWH 081200Z  00000KT 9999  FEW025  01/M01
Q0983=
METAR SAZM 081200Z  32010KT CAVOK 05/02 Q1014=
METAR SAZN 081200Z 27008KT 9999 SCT035 FEW060 09/02 Q1009=
METAR SAZS 081200Z  32017KT 30005000SE 3000W RA
BKN007 SCT040  03/02 Q1006 R29210004=
####018000193####
SANI20 DNMM 081200
METAR DNIB 081200Z 25010KT 9999 SCT015 30/23 Q1014 =
METAR DNMA 081200Z 21010KT 9999 SCT012 30/24 Q1011=
METAR DNAA 081200Z 25009KT 9999 BKN014 29/22 Q1014 NOSIG=

####018000094####
SPUS31 KWBC 081213
SPECI
KDEN 081210Z 01004KT 1/4SM R35L/P6000FT BR BKN001 13/13 A3032=
####018000083####
SPUS31 KWBC 081213
SPECI
KMCI 081210Z 35005KT 1 1/2SM BR BKN004 23/22 A3008=
####018000093####
SPUS41 KWBC 081213
SPECI
KBAF 081209Z 17005KT 5SM HZ BKN011 BKN014 BKN080 25/22 A3007=
####018000077####
SPUS41 KWBC 081213
SPECI
KEWB 081209Z 10004KT 10SM OVC006 23/21 A3010=
####018001261####
SACO20 SKBO 081200
METAR
SKAR 081200Z NIL=
SKBG 081200Z 00000KT 9999 FEW012 SCT080 19/18 A3004=
SKBO 081200Z VRB02KT 8000 FEW015 BKN070 12/11 A3032=
SKBQ 081200Z NIL=
SKCC 081200Z NIL=
SKCG 081200Z 10004KT 9999 -DZ SCT012 SCT070 27/25 A2987=
SKCL 081200Z 08003KT 9999 SCT017 BKN090 20/19 A3002=
SKEJ 081200Z 15004KT 9999 VCFG BKN015 25/24 A2990=
SKIB 081200Z NIL=
SKIP 081200Z 00000KT 7000 VCFG BKN016 SCT070 10/10 A3039=
SKLC 081200Z 00000KT 9999 FEW015 SCT200 24/23 A2989=
SKLT 081200Z 00000KT 9999 FEW015 BKN070 24/24 A2989=
SKMD 081200Z 00000KT 6000 BKN030 BKN080 18/16 A3009=
SKMR 081200Z 00000KT 9999 FEW017 BKN090 25/24 A2986=
SKMZ 081200Z NIL=
SKNV 081200Z 00000KT 9999 -DZ SCT007 BKN090 24/23 A2994=
SKPC 081200Z NIL=
SKPE 081200Z 00000KT 9999 FEW017 SCT090 19/16 A3011=
SKPS 081200Z 00000KT 5000N 9999S -DZ VCFG BKN020 16/15 A3018=
SKPV 081200Z NIL=
SKRG 081200Z 00000KT 3500 BR BKN005 SCT080 14/14 A3028=
SKRH 081200Z 14008KT 9999 TSRA FEW020CB OVC090 23/22 A2990=
SKSM 081200Z 00000KT 9999 SCT017 OVC070 26/24 A2986=
SKSP 081200Z NIL=
SKUC 081200Z NIL=
SKUI 081200Z NIL=
SKVP 081200Z 04008KT 8000 VCSH SCT012 BKN080 24/23 A2996=
SKVV 081200Z 00000KT 9999 SCT023 BKN080 22/21 A2996=
NNNN
####018000083####
SPUS43 KWBC 081213
SPECI
KGRB 081209Z 28006KT 2 1/2SM BR OVC002 22/21 A3001=
####018000091####
SPUS43 KWBC 081213
SPECI
KOMA 081209Z 34005KT 10SM FEW005 BKN022 BKN250 19/19 A3016=
####018000089####
SPUS52 KWBC 081213
SPECI
KDHT 081209Z AUTO 33008KT 10SM SCT009 OVC110 17/16 A3025=
####018000084####
SPUS52 KWBC 081213
SPECI
KFYV 081210Z 00000KT 10SM BKN026 BKN032 23/22 A3009=
####018000089####
SPUS52 KWBC 081213
SPECI
KRSL 081210Z AUTO 35006KT 10SM BKN013 OVC022 18/18 A3018=
####018000539####
SAMG20 FMMI 081200
METAR 081200Z
METAR FMNA 081200Z 12023KT 9999 SCT020 BKN040 26/16 Q1016=
METAR FMNN 081200Z 26006KT 9999 FEW020 SCT100 30/18 Q1017=
METAR FMNM 081200Z ///08KT CAVOK 31/13 Q1015=
METAR FMMI 081200Z 14007KT 100V180 9999 BKN020 SCT023 18/13 Q1025
 NOSIG=
METAR FMMT 081200Z 22014KT 9999 SCT017 SCT033 25/22 Q1021=
METAR FMMS 081200Z 22023KT 9999 VCSH BKN017 XX/XX QXXXX=
METAR FMSD 081200Z 08014KT 5000 RA SCT017 BKN033 19/19 Q1025=
METAR FMCH 081200Z VRB06KT 9999 FEW023TCU SCT030 29/20 Q1017 NOSIG=
####018000523####
SAMG20 FMMI 081200
METAR FMNA 081200Z 12023KT 9999 SCT020 BKN040 26/16 Q1016=
METAR FMNN 081200Z 26006KT 9999 FEW020 SCT100 30/18 Q1017=
METAR FMNM 081200Z ///08KT CAVOK 31/13 Q1015=
METAR FMMI 081200Z 14007KT 100V180 9999 BKN020 SCT023 18/13 Q1025
 NOSIG=
METAR FMMT 081200Z 22014KT 9999 SCT017 SCT033 25/22 Q1021=
METAR FMMS 081200Z 22023KT 9999 VCSH BKN017 XX/XX QXXXX=
METAR FMSD 081200Z 08014KT 5000 RA SCT017 BKN033 19/19 Q1025=
METAR FMCH 081200Z VRB06KT 9999 FEW023TCU SCT030 29/20 Q1017 NOSIG=
####018000082####
SAEW37 LEMM 081200 RRA
METAR LEGA 081200Z 18018G29KT 9999 FEW060 39/13 Q1018=
####018000112####
SAIY42 LIIB 081200 RRA
METAR LIQW 081155Z 20002KT 9999 SCT025 30/18 Q1020 RMK SCT VIS MIN
      9999 BLU=
####018000127####
SAIY41 LIIB 081200 RRA
METAR LIMT 081155Z /////KT 9999 SCT012CB BKN013 15/12 Q1025 RMK OVC
MON LIB VAL NIL VIS MIN 9999=
####018000094####
SPUS73 KWBC 081213
SPECI
KDEN 081210Z 01004KT 1/4SM R35L/P6000FT BR BKN001 13/13 A3032=
####018000083####
SPUS73 KWBC 081213
SPECI
KGRB 081209Z 28006KT 2 1/2SM BR OVC002 22/21 A3001=
####018000083####
SPUS73 KWBC 081213
SPECI
KMCI 081210Z 35005KT 1 1/2SM BR BKN004 23/22 A3008=
####018000091####
SPUS73 KWBC 081213
SPECI
KOMA 081209Z 34005KT 10SM FEW005 BKN022 BKN250 19/19 A3016=
####018000075####
SADO31 TDPD 081200
METAR TDCF 081200Z 16003KT 9999 BKN016 27/24 Q1014=
####018000073####
SAAL31 DAAA 081200 RRA
METAR DAUH 081200Z 10009KT CAVOK 39/21 Q1018=
####018000108####
SAKY31 RUMS 081200 RRA
METAR UAFM 081200Z 24009MPS 7000 NSC 32/08 Q1012 TEMPO VRB09G14MPS TS
FCST WS=
####018000125####
SAIY41 LIIB 081200 RRA
METAR LIMT 081155Z /////KT 9999 SCT012CB BKN013 15/12 Q1025 RMK OVC MON LIB VAL NIL VIS MIN 9999=
####018000111####
SAIY42 LIIB 081200 RRA
METAR LIQW 081155Z 20002KT 9999 SCT025 30/18 Q1020 RMK SCT VIS MIN
      9999 BLU=
####018001393####
SAEU KAWN 081200 RRV
METAR EGXU 081150Z 23011KT 9999 SCT042 20/07 Q1016 BLU NOSIG=
METAR EGYE 081150Z 26010KT 9999 FEW040 BKN250 ///// Q1017 BLU=
METAR LFKF 081200Z 21006KT 170V260 9999 FEW032TCU 31/22 Q1019 NOSIG=
METAR LFPM 081205Z VRB02KT CAVOK 31/12 Q1018=
METAR LIBH 081155Z 33018G30KT CAVOK 28/09 Q1016 RMK SKC QUK 2 QUL 1
      E VIS MAR 20 KM VIS MIN 9999=
METAR LIBY 081155Z 36018G32KT CAVOK 25/10 Q1016 RMK SKC QUK 3 QUL 1
      N VIS MAR 20 KM VIS MIN 9999=
METAR LICF 081155Z 21005KT 9999 SCT030TCU 28/24 Q1017 RMK BKN SCT080
      QUK 1 QUL 0 VIS MAR 10 KM MON E CLD CIME NC MON W LIB NC VIS
      MIN 9999=
METAR LICL 081155Z 24006KT CAVOK 26/22 Q1018 RMK SKC QUK 2 QUL 1 SW
      VIS MAR 16 KM VIS MIN 9999=
METAR LIEB 081155Z 11009KT 9999 SCT025TCU 32/25 Q1018 RMK SCT QUK 2
      QUL 0 VIS MAR 20 KM MON INVIS VIS MIN 8000W=
METAR LIEC 081155Z 04015KT 9999 FEW020 30/26 Q1019 RMK FEW QUK 2 QUL
      0 VIS MAR 15 KM VIS MIN 9999=
METAR LIEE 081155Z 15011KT 9999 FEW020 28/21 Q1019 RMK FEW VIS MIN
      9999 WIND THR14 18014KT BLU=
METAR LIQC 081155Z 04004KT CAVOK 29/10 Q1021 RMK SKC QUK 1 QUL 0 VIS
      MAR 15 KM VIS MIN 9999=
METAR LIVO 081155Z 11005KT 9999 FEW040 25/11 Q1022 RMK FEW VIS MIN
      9999=
METAR LOIH 081200Z 35007KT 35KM SKC 28/14 Q1021 RMK SKC=
METAR LOWZ 081200Z 05005KT 40KM SKC 25/07 Q1022 RMK SKC=
####018002561####
SAUS20 KNKA 081213
METAR K4O4 081208Z AUTO 13003KT 24/23 A3006 RMK AO2=
METAR KADH 081210Z AUTO 00000KT 7SM OVC006 23/22 A3005 RMK AO2=
METAR KADM 081210Z AUTO 00000KT 5SM BR SCT026 SCT095 23/23 A3003 
     RMK AO2=
METAR KALM 081210Z AUTO 14005KT 10SM CLR 15/13 A3015 RMK AO2=
METAR KATS 081210Z AUTO 35011KT 7SM -RA FEW001 BKN032 OVC039 
     18/18 A3018 RMK AO2=
METAR KAXS 081210Z AUTO 03004KT 7SM -RA SCT012 BKN024 OVC050 
     23/21 A3010 RMK AO2 T02250211=
METAR KAXX 081210Z AUTO 00000KT 10SM CLR 03/03 A3049 RMK AO2=
SPECI KBPT 081212Z 07010KT 8SM BKN009 26/25 A2996 RMK AO2 CIG 
    007V011 $=
METAR KBVS 081210Z AUTO 04006KT 10SM CLR 18/12 A2998 RMK A01 P000=
METAR KCHK 081211Z AUTO 02004KT 4SM BR SCT016 22/22 A3006 RMK AO2=
METAR KCLK 081213Z AUTO 01006KT 10SM CLR 22/20 A3009 RMK AO2=
METAR KCUH 081210Z AUTO 00000KT 7SM SCT005 SCT075 23/23 A3005 RMK 
     AO2=
METAR KDUA 081217Z AUTO 15005KT 10SM BKN031 24/24 A3005 RMK AO2=
METAR KFET 081210Z AUTO 34003KT 10SM CLR 18/16 A3017 RMK AO2=
METAR KGCD 081210Z AUTO 12010KT 10SM CLR 14/03 A3012 RMK AO2 
     T01350025=
METAR KGCM 081215Z AUTO 00000KT 7SM VCTS BKN010 BKN037 23/23 
     A3008 RMK AO2 LTG DSNT NE=
METAR KGMJ 081214Z AUTO 00000KT OVC019 26/25 A3005 RMK AO2 PWINO=
METAR KIDP 081210Z AUTO 00000KT 10SM CLR 21/20 A3006 RMK AO2 LTG 
     DSNT E AND SE=
METAR KIZA 081209Z AUTO 00000KT 10SM OVC007 13/11 A2992 RMK AO2=
METAR KJSV 081210Z AUTO 00000KT 10SM OVC042 24/22 A3004 RMK AO2=
METAR KL35 081211Z AUTO 00000KT 10SM CLR 06/M04 A3018 RMK AO2=
METAR KLAM 081210Z AUTO 00000KT 10SM CLR 14/08 A3039 RMK AO2=
METAR KLRU 081211Z AUTO 36008KT 10SM CLR 20/14 A3017 RMK AO2=
METAR KOJA 081210Z AUTO 00000KT 7SM CLR 22/22 A3009 RMK AO2=
METAR KONP 081210Z AUTO 00000KT 3SM BR OVC004 11/09 A2999 RMK AO1=
METAR KORS 081210Z AUTO 00000KT 10SM CLR 14/12 A2996 RMK AO2=
METAR KOUN 081212Z AUTO 00000KT 10SM SCT008 SCT013 OVC032 25/23 
     A3007 RMK AO2=
METAR KPTS 081210Z AUTO 00000KT 10SM DZ SCT075 SCT095 22/22 A3006 
     RMK AO2 LTG DSNT S AND SW T02200221=
METAR KPVJ 081207Z AUTO 00000KT 7SM OVC001 24/23 A3004 RMK AO2=
SPECI KRBD 081212Z 11004KT 8SM -RA SCT011 BKN050 OVC060 25/24 A3003 
    RMK AO2 RAB1156 P0000=
METAR KSVC 081210Z AUTO 05007KT 10SM FEW100 18/14 A3022 RMK AO2=
METAR KTMK 081213Z AUTO 00000KT 5SM BR OVC004 12/12 A2996 RMK AO2=
METAR KTQH 081215Z AUTO 00000KT 10SM OVC015 23/23 A3006 RMK AO2=
METAR KWWR 081209Z AUTO 34007KT 10SM OVC007 22/20 A3017 RMK AO2 
     T02150204=
####018000216####
SANA35 KAWN 081200 RRE
METAR KPOB 081155Z 00000KT 10SM SKC 26/20 A2997 RMK SLP150 T2560203
      10262 20226 51008=
METAR SAZS 081200Z 32017KT 30005000SE 3000W RA BKN007 SCT040 03/02
      Q1006 R29210004=
####018000083####
SAMZ40 FQMA 081200
METAR
FQNP 081200Z 15008KT 9000 SH BKN020 22/15 Q1022=

####018000468####
SPUS17 KAWN 081213 RRA
SPECI KBLV 081203Z AUTO 19004KT 8SM SCT055 25/25 A3004 RMK AO2 RAB1151E1203
      SLP169=
SPECI KIAB 081208Z AUTO 01011KT 10SM -RA FEW006 22/21 A3009 RMK AO2
      RAB1208 SLP178=
SPECI KLTS 081205Z AUTO 05008KT 10SM -DZ FEW008 SCT015 SCT049 22/22
      A3008 RMK AO2 RAE1204DZB1204 FEW V SCT SLP172 $=
SPECI KLTS 081207Z AUTO 06010KT 10SM FEW008 SCT015 SCT048 22/22 A3008
      RMK AO2 RAE1204DZB1204E1207 FEW V SCT SLP171 $=
####018000073####
SAAL41 DAMM 081200 RRC
METAR DAUK 081200Z 00000KT CAVOK 37/16 Q1018=
####018001699####
SASA KAWN 081200 RRE
METAR SAAR 081200Z 29003KT 9000 NSC 02/00 Q1019=
METAR SADF 081200Z 00000KT CAVOK 06/02 Q1019=
METAR SAME 081200Z 23002KT 9999 NSC 02/M01 Q1015=
METAR SANT 081200Z 27004KT 7000 07/06 Q1018=
METAR SAOC 081200Z 36013KT CAVOK 10/M06 Q1015=
METAR SARF 081200Z 18011KT 9999 OVC006 14/12 Q1018=
METAR SARL 081200Z 14006KT 9999 09/06 Q1021=
METAR SAVC 081200Z 27005KT CAVOK 06/00 Q1000=
METAR SAWG 081200Z 29012KT 9999 FEW025 BKN080 M03/M05 Q0991=
METAR SAZN 081200Z 27008KT 9999 SCT035 FEW060 09/02 Q1009=
METAR SAZS 081200Z 32017KT 30005000SE 3000W RA BKN007 SCT040 03/02
      Q1006 R29210004=
METAR SKSM 081200Z 00000KT 9999 SCT017 OVC070 26/24 A2986=
METAR SLCA 081200Z 00000KT 8000 SCT033 BKN070 15/13 Q1020=
METAR SLCP 081200Z 16005KT 9999 BKN017 OVC070 21/20 Q1017=
METAR SLJE 081200Z 19004KT 8000 BKN017 22/18 Q1018=
METAR SLJO 081200Z 14004KT 9999 FEW020 SCT200 24/22 Q1012=
METAR SLMG 081200Z 00000KT 9999 FEW020 SCT080 24/22 Q1014=
METAR SLOR 081200Z 00000KT 8000 NSC M05/M07 Q1035=
METAR SLPO 081200Z 00000KT 9999 SKC M02/M06 Q1037=
METAR SLRB 081200Z 00000KT 9999 BKN017 21/16 Q1018=
METAR SLRI 081200Z 00000KT 5000 FU SKC 25/23 Q1013=
METAR SLRQ 081200Z 12004KT 9999 SCT017 BKN023 22/22 Q1012=
METAR SLRY 081200Z 00000KT 4000 -RA BKN017 FEW023CB BKN200 22/22 Q1013=
METAR SLSA 081200Z 36004KT 9999 FEW023 FEW025CB BKN200 24/23 Q1011=
METAR SLSI 081200Z 00000KT 9999 OVC070 22/20 Q1016=
METAR SLVM 081200Z 00000KT 9999 FEW020 16/15 Q1026=
METAR SLYA 081200Z 00000KT 9999 FEW023 12/10 Q1021=
METAR SVSR 081200Z 07002KT 9999 -DZ FEW013CBE BKN016 24/24 Q1012=
METAR SVVP 081200Z 10005KT 9999 OVC013 25/24 Q1006=
####018002185####
SAUS99 KWBC 081214
METAR
K4O4 081208Z AUTO 13003KT 24/23 A3006 RMK AO2=
KADH 081210Z AUTO 00000KT 7SM OVC006 23/22 A3005 RMK AO2=
KADM 081210Z AUTO 00000KT 5SM BR SCT026 SCT095 23/23 A3003 RMK
     AO2=
KALM 081210Z AUTO 14005KT 10SM CLR 15/13 A3015 RMK AO2=
KATS 081210Z AUTO 35011KT 7SM -RA FEW001 BKN032 OVC039 18/18 A3018
     RMK AO2=
KAXS 081210Z AUTO 03004KT 7SM -RA SCT012 BKN024 OVC050 23/21 A3010
     RMK AO2 T02250211=
KAXX 081210Z AUTO 00000KT 10SM CLR 03/03 A3049 RMK AO2=
KBVS 081210Z AUTO 04006KT 10SM CLR 18/12 A2998 RMK A01 P000=
KCHK 081211Z AUTO 02004KT 4SM BR SCT016 22/22 A3006 RMK AO2=
KCLK 081213Z AUTO 01006KT 10SM CLR 22/20 A3009 RMK AO2=
KCUH 081210Z AUTO 00000KT 7SM SCT005 SCT075 23/23 A3005 RMK
     AO2=
KDUA 081217Z AUTO 15005KT 10SM BKN031 24/24 A3005 RMK AO2=
KFET 081210Z AUTO 34003KT 10SM CLR 18/16 A3017 RMK AO2=
KGCD 081210Z AUTO 12010KT 10SM CLR 14/03 A3012 RMK AO2
     T01350025=
KGCM 081215Z AUTO 00000KT 7SM VCTS BKN010 BKN037 23/23 A3008 RMK
     AO2 LTG DSNT NE=
KGMJ 081214Z AUTO 00000KT OVC019 26/25 A3005 RMK AO2 PWINO=
KIDP 081210Z AUTO 00000KT 10SM CLR 21/20 A3006 RMK AO2 LTG DSNT E
     AND SE=
KIZA 081209Z AUTO 00000KT 10SM OVC007 13/11 A2992 RMK AO2=
KJSV 081210Z AUTO 00000KT 10SM OVC042 24/22 A3004 RMK AO2=
KL35 081211Z AUTO 00000KT 10SM CLR 06/M04 A3018 RMK AO2=
KLAM 081210Z AUTO 00000KT 10SM CLR 14/08 A3039 RMK AO2=
KLRU 081211Z AUTO 36008KT 10SM CLR 20/14 A3017 RMK AO2=
KOJA 081210Z AUTO 00000KT 7SM CLR 22/22 A3009 RMK AO2=
KONP 081210Z AUTO 00000KT 3SM BR OVC004 11/09 A2999 RMK AO1=
KORS 081210Z AUTO 00000KT 10SM CLR 14/12 A2996 RMK AO2=
KOUN 081212Z AUTO 00000KT 10SM SCT008 SCT013 OVC032 25/23 A3007
     RMK AO2=
KPTS 081210Z AUTO 00000KT 10SM DZ SCT075 SCT095 22/22 A3006 RMK
     AO2 LTG DSNT S AND SW T02200221=
KPVJ 081207Z AUTO 00000KT 7SM OVC001 24/23 A3004 RMK AO2=
KSVC 081210Z AUTO 05007KT 10SM FEW100 18/14 A3022 RMK AO2=
KTMK 081213Z AUTO 00000KT 5SM BR OVC004 12/12 A2996 RMK AO2=
KTQH 081215Z AUTO 00000KT 10SM OVC015 23/23 A3006 RMK AO2=
KWWR 081209Z AUTO 34007KT 10SM OVC007 22/20 A3017 RMK AO2
     T02150204=
####018000199####
SPUS99 KWBC 081214
SPECI
KBPT 081212Z 07010KT 8SM BKN009 26/25 A2996 RMK AO2 CIG 007V011
     $=
KRBD 081212Z 11004KT 8SM -RA SCT011 BKN050 OVC060 25/24 A3003 RMK
     AO2 RAB1156 P0000=
####018001698####
SASD20 OEJD 081200
METAR OEAB 081200Z 06013KT 8000 SCT020 SCT200 33/00 Q1019 NOSIG=
METAR OEAH 081200Z 01010KT CAVOK 46/03 Q1000 NOSIG=
METAR OEBA 081200Z 06013KT CAVOK 37/04 Q1016 NOSIG=
METAR OEBH 081200Z 03010KT CAVOK 41/03 Q1010 NOSIG=
METAR OEDF 081200Z 36016KT CAVOK 45/04 Q0999 NOSIG=
METAR OEDM 081200Z 08010KT CAVOK 43/04 Q1009=
METAR OEDR 081200Z 02011KT 8000 SKC 43/09 Q0997 NOSIG=
METAR OEGN 081200Z 26007KT CAVOK 36/30 Q0999 NOSIG=
METAR OEGS 081200Z 02008KT CAVOK 45/07 Q1007=
METAR OEGT 081200Z NIL=
METAR OEHL 081200Z 27004KT 9999 FEW040 44/02 Q1011 NOSIG=
METAR OEJN 081200Z 30010KT CAVOK 38/25 Q1001 NOSIG=
METAR OEKB 081200Z 19004KT 9999 SCT045 47/19=
METAR OEKJ 081200Z NIL=
METAR OEKK 081200Z 03017KT CAVOK 45/11 Q1005=
METAR OEKM 081200Z 09023KT 7000 SCT022 32/04 Q1019 NOSIG=
METAR OEMA 081200Z 11005KT 9999 SCT045 47/M04 Q1005 NOSIG=
METAR OEMH 081200Z NIL=
METAR OEMK 081200Z 30002KT CAVOK 45/25 Q1000=
METAR OENG 081200Z 03010KT 5000 DU SCT030 BKN080 40/M01 Q1010 NOSIG=
METAR OEPA 081200Z NIL=
METAR OERF 081200Z 03003KT CAVOK 44/12 Q1005=
METAR OERK 081200Z 02015KT 5000 DU BLDU SKC 43/M04 Q1017 NOSIG=
METAR OERR 081200Z 22006KT CAVOK 45/10 Q1006=
METAR OERY 081200Z 05017KT 5000 SA SKC 44/M01 Q1007 NOSIG=
METAR OESH 081200Z 02013KT 3000 BLDU SKC 42/18 Q1001 NOSIG=
METAR OESK 081200Z 27007KT CAVOK 44/00 Q1008=
METAR OETB 081200Z 34003KT CAVOK 42/05 Q1009 NOSIG=
METAR OETF 081200Z 12006KT 9999  SCT030 38/M01 Q1014 NOSIG=
METAR OETR 081200Z 22006KT CAVOK 40/05 Q1010=
METAR OEWD 081200Z 04016KT 4000 BLDU SKC 45/09 Q1003=
METAR OEWJ 081200Z 30020KT CAVOK 33/26 Q1003=
METAR OEYN 081200Z 28016KT 4000 DU SKC 43/19 Q0998 TEMPO 3000=
####018000450####
SACN89 KWBC 081214
METAR CWAV 081200Z AUTO 00000KT 06/04 RMK AO1 SLP217 T00560040
56005=
METAR CWBA 081200Z AUTO 18004KT 22/21 RMK AO1 T02220211=
METAR CWBO 081200Z AUTO 19002KT 09/09 RMK AO1 SLP217 T00940094
57001=
METAR CWBT 081200Z AUTO 12002KT 14/14 RMK AO1 SLP174 T01350135
55001=
METAR CWDK 081200Z AUTO 00000KT 08/07 RMK AO1 SLP221 T00840066
56006=
METAR CWDK 081200Z AUTO 00000KT 08/07 RMK AO1 SLP221 T00840066
56006=
####018000641####
SACN85 KWBC 081214
METAR CWER 081200Z AUTO 06009KT RMK AO1 =
METAR CWHO 081200Z AUTO 15002KT 12/09 RMK AO1 SLP114 T01220093
58005=
METAR CWHO 081200Z AUTO 15002KT 12/09 RMK AO1 SLP114 T01220093
58005=
METAR CWHO 081200Z AUTO 15002KT 12/09 RMK AO1 SLP114 T01220093
58005=
METAR CWDM 081200Z AUTO 07006KT 09/08 RMK AO1 SLP182 T00890076
58008=
METAR CWPK 081200Z AUTO 13001KT 22/ RMK AO1 SLP165 T0217 50000=
METAR CWWE 081200Z AUTO 21006KT 16/ RMK AO1 SLP221 T0158 52011=
METAR CWDM 081200Z AUTO 07006KT 09/08 RMK AO1 SLP182 T00890076
58008=
METAR CWNH 081200Z AUTO 34003KT 13/12 RMK AO1 SLP166 T01280121
53007=
####018000243####
SACN90 KWBC 081214
METAR CWEW 081100Z AUTO 30003KT 25/23 RMK AO1 SLP161 T02450225
51007=
METAR CWEW 081200Z AUTO 28001KT 27/22 RMK AO1 SLP163 T02650218
52006=
METAR CWGD 081200Z AUTO 14006KT 24/20 RMK AO1 SLP159 T02430201
50001=
####018000179####
SACN88 KWBC 081214
METAR CERM 081200Z AUTO 14003KT 24/22 RMK AO1 1006 SLP158
T02430223 50003=
METAR CERM 081200Z AUTO 14003KT 24/22 RMK AO1 1006 SLP158
T02430223 50003=
####018000169####
SACN86 KWBC 081214
METAR CWBE 081200Z AUTO 09003KT 18/17 RMK AO1 SLP165 T01760170
55003=
METAR CWPO 081200Z AUTO 29005KT 13/11 RMK AO1 SLP198 T01320111
52015=
####018000317####
SACN87 KWBC 081214
METAR CWRM 081200Z AUTO 00000KT 05/04 RMK AO1 SLP211 T00500042
56002=
METAR CWCT 081200Z AUTO 25005KT 10/08 RMK AO1 SLP212 T01030082
58007=
METAR CWRM 081200Z AUTO 00000KT 05/04 RMK AO1 SLP211 T00500042
56002=
METAR CWRM 081200Z AUTO 00000KT 05/04 RMK AO1 SLP211 T00500042
56002=
####018000449####
SACN91 KWBC 081214
METAR CWIG 081100Z AUTO 01004KT RMK AO1 =
METAR CWIP 081100Z AUTO 07002KT 12/ RMK AO1 T0123 50002=
METAR CWGX 081200Z AUTO 22006KT 12/10 RMK AO1 SLP084 T01170095
58004=
METAR CWHV 081200Z AUTO 12003KT 26/23 RMK AO1 SLP162 T02610226
51003=
METAR CWIG 081200Z AUTO 02006KT RMK AO1 =
METAR CWIP 081200Z AUTO 06002KT 13/ RMK AO1 T0128 50002=
METAR CWIW 081200Z AUTO 25005KT 10/09 RMK AO1 SLP198 T01030090
50001=
####018000072####
SAAL33 DAAA 081200 RRA
METAR DAAP 081200Z 00000KT CAVOK 40/04 Q1015=
####018000746####
SACN95 KWBC 081214
METAR CWTN 081200Z AUTO 12003KT 19/17 RMK AO1 SLP161 T01940173
51003=
METAR CWTT 081200Z AUTO 24002KT 25/23 RMK AO1 T02490233=
METAR CWVN 081200Z AUTO 25001KT 09/08 RMK AO1 SLP219 T00930076
52006=
METAR CWVP 081200Z AUTO 34003KT 12/09 RMK AO1 SLP219 T01180088
53001=
METAR CWVU 081200Z AUTO 17010KT 16/16 RMK AO1 SLP216 T01600157
52016=
METAR CWWF 081200Z AUTO 32005KT 11/11 RMK AO1 SLP205 T01140106
53011=
METAR CWVN 081200Z AUTO 25001KT 09/08 RMK AO1 SLP219 T00930076
52006=
METAR CWVP 081200Z AUTO 34003KT 12/09 RMK AO1 SLP219 T01180088
53001=
METAR CWVU 081200Z AUTO 17010KT 16/16 RMK AO1 SLP216 T01600157
52016=
METAR CWWF 081200Z AUTO 32005KT 11/11 RMK AO1 SLP205 T01140106
53011=
####018000080####
SACN93 KWBC 081214
METAR CWOE 081200Z AUTO 35001KT 11/07 RMK AO1 T01050070=
####018000126####
SAZB40 FLLS 081200
METAR FLLS 081200Z 07012KT 9/9 BKN037 19/13 Q1027 NOSIG=
METAR FLLI 081200Z 07008KT CAVOK 23/06 Q1026=
####018001455####
SACN97 KWBC 081214
METAR CXNM 081100Z AUTO 27011KT 20/14 RMK AO1 PK WND 25017/1016
T02000143=
METAR CXBO 081200Z AUTO 05007KT 19/17 RMK AO1 T01860169=
METAR CXCA 081200Z AUTO 00000KT 18/17 RMK AO1 8002 SLP146
T01760167 50012=
METAR CXCH 081200Z AUTO 24/17 RMK AO1 T02390165=
METAR CXDI 081200Z AUTO 19003KT 25/21 RMK AO1 SLP155 T02520211
50003=
METAR CXET 081200Z AUTO 31004KT 25/22 RMK AO1 SLP164 T02490222
50000=
METAR CXGH 081200Z AUTO 29005KT 15/15 RMK AO1 T01490149=
METAR CXHA 081200Z AUTO 24003KT 27/22 RMK AO1 SLP154 T02710223
50003=
METAR CXMY 081200Z AUTO 23/18 RMK AO1 T02320175=
METAR CXNM 081200Z AUTO 26011G17KT 21/15 RMK AO1 PK WND 26018/1126
T02050148=
METAR CXSH 081200Z AUTO 03003KT 26/20 RMK AO1 SLP153 T02590203
51007=
METAR CXTP 081200Z AUTO 21009G17KT 14/12 RMK AO1 PK WND 23017/1154
SLP222 T01410115 58003=
METAR CXDI 081200Z AUTO 19003KT 25/21 RMK AO1 SLP155 T02520211
50003=
METAR CXET 081200Z AUTO 31004KT 25/22 RMK AO1 SLP164 T02490222
50000=
METAR CXGH 081200Z AUTO 29005KT 15/15 RMK AO1 T01490149=
METAR CXHA 081200Z AUTO 24003KT 27/22 RMK AO1 SLP154 T02710223
50003=
METAR CXMY 081200Z AUTO 23/18 RMK AO1 T02320175=
METAR CXNM 081200Z AUTO 26011G17KT 21/15 RMK AO1 PK WND 26018/1126
T02050148=
METAR CXSH 081200Z AUTO 03003KT 26/20 RMK AO1 SLP153 T02590203
51007=
METAR CXTP 081200Z AUTO 21009G17KT 14/12 RMK AO1 PK WND 23017/1154
SLP222 T01410115 58003=
####018000741####
SAAO32 GOOY 081200
METAR GABS 081200Z 23005KT 190V260 9999 FEW030 31/22 Q1015 NOSIG=
METAR GGOV 081200Z 18007KT 100V270 9999 BKN015TCU 31/23 Q1013 NOSIG=
METAR GOOY 081200Z 16009KT 9999 SCT013 30/24 Q1012 NOSIG=
METAR DIAP 081200Z 21006KT 180V250 7000 SCT012 BKN070 28/25 Q1015
NOSIG=
METAR GQNN 081200Z 19012KT 150V220 6000 NSC 31/22 Q1013 NOSIG=
METAR GQPP 081200Z VRB02KT 8000 NSC 28/19 Q1012 NOSIG=
METAR GUCY 081200Z 18006KT 9999 FEW016 SCT116 29/24 Q1014=
METAR GVAC 081200Z 07011KT 9999 BKN014 25/20 Q1014 NOSIG=
METAR GFLL 081200Z 15008KT 9999 SCT014 FEW028CB 29/24 Q1014 CB-NE=
METAR GBYD 081200Z 0000KT 9999 SCT011 FEW018CB BKN120 26/25 1013
CBS-NW=
METAR GLRB 081200Z 19006KT 9999 BKN018 FEW026CB 30/25 Q1014 CB-S=
####018000835####
SACN92 KWBC 081214
METAR CWJI 081200Z AUTO 25003KT 10/09 RMK AO1 SLP215 T01020092
53008=
METAR CWJT 081200Z AUTO 00000KT 23/20 RMK AO1 SLP160 T02300202
50004=
METAR CWJX 081200Z AUTO 26003KT 10/09 RMK AO1 SLP211 T01030092
53001=
METAR CWLE 081200Z AUTO 21006KT 11/11 RMK AO1 SLP214 T01090107
53003=
METAR CWMJ 081200Z AUTO 16003KT 24/21 RMK AO1 SLP163 T02390209
51003=
METAR CWLE 081200Z AUTO 21006KT 11/11 RMK AO1 SLP214 T01090107
53003=
METAR CWMJ 081200Z AUTO 16003KT 24/21 RMK AO1 SLP163 T02390209
51003=
METAR CWLE 081200Z AUTO 21006KT 11/11 RMK AO1 SLP214 T01090107
53003=
METAR CWMJ 081200Z AUTO 16003KT 24/21 RMK AO1 SLP163 T02390209
51003=
METAR CWLE 081200Z AUTO 21006KT 11/11 RMK AO1 SLP214 T01090107
53003=
METAR CWMJ 081200Z AUTO 16003KT 24/21 RMK AO1 SLP163 T02390209
51003=
####018000846####
SACN94 KWBC 081214
METAR CWRJ 081200Z AUTO 28003KT 10/10 RMK AO1 SLP198 T00970097
52001=
METAR CWRT 081200Z AUTO 24001KT 03/ RMK AO1 T0030=
METAR CWRY 081200Z AUTO 29007KT 09/07 RMK AO1 SLP223 T00930070
55001=
METAR CWSR 081200Z AUTO 24008KT 13/12 RMK AO1 SLP175 T01310121
55004=
METAR CWRJ 081200Z AUTO 28003KT 10/10 RMK AO1 SLP198 T00970097
52001=
METAR CWRT 081200Z AUTO 24001KT 03/ RMK AO1 T0030=
METAR CWRY 081200Z AUTO 29007KT 09/07 RMK AO1 SLP223 T00930070
55001=
METAR CWSR 081200Z AUTO 24008KT 13/12 RMK AO1 SLP175 T01310121
55004=
METAR CWRJ 081200Z AUTO 28003KT 10/10 RMK AO1 SLP198 T00970097
52001=
METAR CWRT 081200Z AUTO 24001KT 03/ RMK AO1 T0030=
METAR CWRY 081200Z AUTO 29007KT 09/07 RMK AO1 SLP223 T00930070
55001=
METAR CWSR 081200Z AUTO 24008KT 13/12 RMK AO1 SLP175 T01310121
55004=
####018001401####
SACN96 KWBC 081214
METAR CWXL 081200Z AUTO 17004KT 10/09 RMK AO1 T00990085=
METAR CWYJ 081200Z AUTO 02002KT 16/12 RMK AO1 T01560117=
METAR CWYY 081200Z AUTO 07001KT 13/11 RMK AO1 3006 SLP177
T01300106 50018=
METAR CWZL 081200Z AUTO 29007KT 22/05 RMK AO1 SLP183 T02230049
51002=
METAR CWZQ 081200Z AUTO 18008KT 24/17 RMK AO1 SLP188 T02350169
53001=
METAR CXHM 081200Z AUTO 26003KT 26/21 RMK AO1 T02560211=
METAR CWYJ 081200Z AUTO 02002KT 16/12 RMK AO1 T01560117=
METAR CWYY 081200Z AUTO 07001KT 13/11 RMK AO1 3006 SLP177
T01300106 50018=
METAR CWZL 081200Z AUTO 29007KT 22/05 RMK AO1 SLP183 T02230049
51002=
METAR CWZQ 081200Z AUTO 18008KT 24/17 RMK AO1 SLP188 T02350169
53001=
METAR CXHM 081200Z AUTO 26003KT 26/21 RMK AO1 T02560211=
METAR CWYJ 081200Z AUTO 02002KT 16/12 RMK AO1 T01560117=
METAR CWYY 081200Z AUTO 07001KT 13/11 RMK AO1 3006 SLP177
T01300106 50018=
METAR CWZL 081200Z AUTO 29007KT 22/05 RMK AO1 SLP183 T02230049
51002=
METAR CWZQ 081200Z AUTO 18008KT 24/17 RMK AO1 SLP188 T02350169
53001=
METAR CXHM 081200Z AUTO 26003KT 26/21 RMK AO1 T02560211=
METAR CWYY 081200Z AUTO 07001KT 13/11 RMK AO1 3006 SLP177
T01300106 50018=
METAR CWZL 081200Z AUTO 29007KT 22/05 RMK AO1 SLP183 T02230049
51002=
METAR CWZQ 081200Z AUTO 18008KT 24/17 RMK AO1 SLP188 T02350169
53001=
METAR CXHM 081200Z AUTO 26003KT 26/21 RMK AO1 T02560211=
####018000534####
SAAL33 DAAA 081200
METAR DAAD 081200Z NIL=
METAR DAAE 081200Z 09010KT CAVOK 28/22 Q1019=
METAR DAAJ 081200Z 06024KT CAVOK 36/04 Q1019=
METAR DAAP 081200Z NIL=
METAR DAAV 081200Z 02012KT CAVOK 29/20 Q1019=
METAR DABT 081200Z NIL=
METAR DAFH 081200Z 12012KT CAVOK 36/16 Q1022=
METAR DATG 081200Z NIL=
METAR DATM 081200Z NIL=
METAR DAUE 081200Z 04011KT CAVOK 37/09 Q1020=
METAR DAUI 081200Z NIL=
METAR DAUK 081200Z NIL=
METAR DAUO 081200Z 00000KT CAVOK 36/16 Q1017=
METAR DAUT 081200Z ///18KT 4000 DRSA  NSC 41/09 Q1016=
####018000158####
SAPQ50 KWBC 081200 CCA
METAR
PTRO COR 081158Z 08007KT 12SM -TSRA BKN016CB BKN120 OVC300 26/24
     A2990 RMK OCNL LTGCA SE-S TS SE MOV W CB VC ALQDS=
####018000392####
SANK31 MNMG 081200
METAR
MNPC 081200Z NIL=
MNRS 081200Z 00000KT 9999 FEW015CB BKN070 24/23 Q1012
CB/N/NE/NW=
MNJG 081200Z 00000KT 6000 BR SCT018 SCT060 20/19 Q1011=
MNJU 081200Z 00000KT 9999 FEW020CB BKN080 24/24 Q1011 CB/S=
MNCH 081200Z 00000KT 3000 VCRA FEW015 SCT022 FEW022CB 23/23
Q1011 CBRA/W/NW/CB/S/SW=
MNBL 081200Z 32004KT 7000 TS SCT016CB SCT070 24/24 Q1011
CBRA/N/E/SE=
####018000087####
SAKN61 HKJK 081200
METAR HKJK 081200Z 18006KT 9999 BKN020 BKN100 18/13 Q1023 NOSIG=
####018000196####
SAUS80 KWBC 081214
METAR
KIZA 081209Z AUTO 00000KT 10SM OVC007 13/11 A2992 RMK AO2=
KPTS 081210Z AUTO 00000KT 10SM DZ SCT075 SCT095 22/22 A3006 RMK
     AO2 LTG DSNT S AND SW T02200221=
####018000114####
SAIN32 VIDP 081130 RRA
METAR VILK 081130Z 22008KT 5000 HZ SCT020 SCT025 FEW030CB 36/24
    Q1000 TEMPO TSRA =
####018000123####
SAXX60 KWBC 081200 RRJ
METAR
KPOB 081155Z 00000KT 10SM SKC 26/20 A2997 RMK SLP150 T2560203
     10262 20226 51008=
####018002216####
SAUS70 KWBC 081214
METAR
K1F0 081207Z AUTO 00000KT 24/24 A3002 RMK AO2 PWINO=
KDUC 081212Z AUTO 05003KT 10SM CLR 22/22 A3004 RMK AO2=
KONM 081207Z AUTO 34005KT 10SM BKN080 BKN100 18/14 A3024 RMK AO2
     T01810140=
K4O4 081208Z AUTO 13003KT 24/23 A3006 RMK AO2=
KADH 081210Z AUTO 00000KT 7SM OVC006 23/22 A3005 RMK AO2=
KADM 081210Z AUTO 00000KT 5SM BR SCT026 SCT095 23/23 A3003 RMK
     AO2=
KALM 081210Z AUTO 14005KT 10SM CLR 15/13 A3015 RMK AO2=
KATS 081210Z AUTO 35011KT 7SM -RA FEW001 BKN032 OVC039 18/18 A3018
     RMK AO2=
KAXS 081210Z AUTO 03004KT 7SM -RA SCT012 BKN024 OVC050 23/21 A3010
     RMK AO2 T02250211=
KAXX 081210Z AUTO 00000KT 10SM CLR 03/03 A3049 RMK AO2=
KBVS 081210Z AUTO 04006KT 10SM CLR 18/12 A2998 RMK A01 P000=
KCHK 081211Z AUTO 02004KT 4SM BR SCT016 22/22 A3006 RMK AO2=
KCLK 081213Z AUTO 01006KT 10SM CLR 22/20 A3009 RMK AO2=
KCUH 081210Z AUTO 00000KT 7SM SCT005 SCT075 23/23 A3005 RMK
     AO2=
KDUA 081217Z AUTO 15005KT 10SM BKN031 24/24 A3005 RMK AO2=
KFET 081210Z AUTO 34003KT 10SM CLR 18/16 A3017 RMK AO2=
KGCD 081210Z AUTO 12010KT 10SM CLR 14/03 A3012 RMK AO2
     T01350025=
KGCM 081215Z AUTO 00000KT 7SM VCTS BKN010 BKN037 23/23 A3008 RMK
     AO2 LTG DSNT NE=
KGMJ 081214Z AUTO 00000KT OVC019 26/25 A3005 RMK AO2 PWINO=
KIDP 081210Z AUTO 00000KT 10SM CLR 21/20 A3006 RMK AO2 LTG DSNT E
     AND SE=
KJSV 081210Z AUTO 00000KT 10SM OVC042 24/22 A3004 RMK AO2=
KL35 081211Z AUTO 00000KT 10SM CLR 06/M04 A3018 RMK AO2=
KLAM 081210Z AUTO 00000KT 10SM CLR 14/08 A3039 RMK AO2=
KLRU 081211Z AUTO 36008KT 10SM CLR 20/14 A3017 RMK AO2=
KOJA 081210Z AUTO 00000KT 7SM CLR 22/22 A3009 RMK AO2=
KONP 081210Z AUTO 00000KT 3SM BR OVC004 11/09 A2999 RMK AO1=
KORS 081210Z AUTO 00000KT 10SM CLR 14/12 A2996 RMK AO2=
KOUN 081212Z AUTO 00000KT 10SM SCT008 SCT013 OVC032 25/23 A3007
     RMK AO2=
KPVJ 081207Z AUTO 00000KT 7SM OVC001 24/23 A3004 RMK AO2=
KSVC 081210Z AUTO 05007KT 10SM FEW100 18/14 A3022 RMK AO2=
KTMK 081213Z AUTO 00000KT 5SM BR OVC004 12/12 A2996 RMK AO2=
KTQH 081215Z AUTO 00000KT 10SM OVC015 23/23 A3006 RMK AO2=
KWWR 081209Z AUTO 34007KT 10SM OVC007 22/20 A3017 RMK AO2
     T02150204=
####018000135####
SAAF31 KWBC 081200 RRB
METAR
DNAA 081200Z 25009KT 9999 BKN014 29/22 Q1014 NOSIG=
DNMA 081200Z 21010KT 9999 SCT012 30/24 Q1011=
####018000075####
SAAF32 KWBC 081200 RRB
METAR
FMNM 081200Z ///08KT CAVOK 31/13 Q1015=
####018000081####
SAJM31 MKJP 081200
METAR MKJP 081200Z 11011KT 9999 FEW020 BKN250 28/19 Q1013=
####018000428####
SANK31 MNMG 081200
METAR
METAR MNPC 081200Z NIL=
METAR MNRS 081200Z 00000KT 9999 FEW015CB BKN070 24/23 Q1012
CB/N/NE/NW=
METAR MNJG 081200Z 00000KT 6000 BR SCT018 SCT060 20/19 Q1011=
METAR MNJU 081200Z 00000KT 9999 FEW020CB BKN080 24/24 Q1011 CB/S=
METAR MNCH 081200Z 00000KT 3000 VCRA FEW015 SCT022 FEW022CB 23/23
Q1011 CBRA/W/NW/CB/S/SW=
METAR MNBL 081200Z 32004KT 7000 TS SCT016CB SCT070 24/24 Q1011
CBRA/N/E/SE=
####018000993####
SPUS70 KWBC 081214
SPECI
PAKI 081208Z AUTO 36004KT 3SM BR CLR 07/07 A3001 RMK AO2 PWINO
     TSNO $=
KACV 081211Z AUTO 00000KT 9SM OVC003 10/09 A2996 RMK AO2=
KBAZ 081211Z AUTO 05007KT 6SM BR BKN016 OVC037 25/24 A2994 RMK
     AO2=
KBOK 081212Z AUTO 00000KT 1 3/4SM BR OVC002 09/09 A2997 RMK AO2
     VIS 1V3 $=
KESF 081211Z AUTO 00000KT 6SM BR BKN011 24/23 A3005 RMK AO2=
KHWV 081211Z AUTO 13005KT 10SM FEW009 BKN015 OVC050 25/22 A3008
     RMK AO2=
KSET 081211Z AUTO 00000KT 10SM -RA BKN006 BKN010 OVC060 24/24
     A3004 RMK AO2 TSB1156E11RAB1157 CIG 003V007 P0000=
KSGR 081209Z 11009KT 9SM FEW008 SCT025 BKN075 26/23 A2993 RMK
     AO2=
KUCP 081212Z AUTO 00000KT 1 1/2SM BR BKN001 21/19 A3010 RMK AO2
     $=
KUUU 081211Z AUTO 10004KT 1 1/4SM BR OVC001 21/21 A3011 RMK
     AO2=
KBPT 081212Z 07010KT 8SM BKN009 26/25 A2996 RMK AO2 CIG 007V011
     $=
KRBD 081212Z 11004KT 8SM -RA SCT011 BKN050 OVC060 25/24 A3003 RMK
     AO2 RAB1156 P0000=
####018000063####
SAAW32 KWBC 080800 RRB
METAR
OICS 0812 PM05 Q1011 A2986=
####018000091####
SAAF05 LFPW 081200 RRA
METAR DBBB 081200Z 22011KT 8000 SCT012 BKN120 29/26 Q1013 NOSIG=
####018000075####
SAAL31 KWBC 081200 RRB
METAR
DAUH 081200Z 10009KT CAVOK 39/21 Q1018=
####018000085####
SAAF27 LFPW 081200 RRB
METAR GUCY 081200Z 18006KT 9999 FEW016 SCT116 29/24 Q1014=
####018001096####
SAAU31 KWBC 081200 RRB
METAR
YBAS 081200Z AUTO 07005KT 9999NDV // NCD 09/07 Q1020=
YBBN 081200Z 19010KT 9999 FEW040 16/11 Q1020 NOSIG=
YBCG 081200Z AUTO 19011KT 9999NDV // SCT018 BKN023 OVC049 14/13
     Q1022=
YBCS 081200Z 17008KT 9999 FEW024 BKN040 23/19 Q1016=
YBTL 081200Z 13006KT 9999 FEW015 SCT027 BKN038 22/20 Q1017=
YMML 081200Z 22002KT 9999 FEW042 BKN240 05/05 Q1028 RMK HZ FM1230
     VRB03KT 5000 HZ SKC FM1400 36005KT 2000 MIFG=
YPAD 081200Z 07004KT CAVOK 06/04 Q1026=
YPCC 081200Z AUTO 14010KT 9999NDV // SCT017 BKN028 OVC032 26/22
     Q1013=
YPDN 081200Z 05006KT CAVOK 25/20 Q1013=
YPLM 081200Z AUTO 21005KT 9999NDV // OVC027 21/17 Q1009=
YPPH 081200Z 01009KT 9999 FEW024 BKN098 14/13 Q0998 RMK WBD 0.7
     INTER 1230/1500 27030G50KT 2000 TSGS BKN010 FEW030CB=
YPTN 081200Z AUTO 11005KT 9999NDV // OVC051 24/16 Q1015=
YPXM 081200Z NIL=
YSCB 081200Z AUTO 00000KT 9999NDV // SCT061 03/02 Q1028=
YSSY 081200Z 24008KT 9999 VCSH FEW008 BKN055 12/11 Q1027 FM1200
     22010KT 9999 -SHRA SCT025 BKN040 INTER 1200/1500 5000 SHRA
     BKN010=
####018000232####
SAAG41 KWBC 081200 RRA
METAR
SANT 081200Z 27004KT 7000 07/06 Q1018=
SARL 081200Z 14006KT 9999 09/06 Q1021=
SAVC 081200Z NIL=
SAVC 081200Z 27005KT CAVOK 06/00 Q1000=
SAZN 081200Z 27008KT 9999 SCT035 FEW060 09/02 Q1009=
####018000289####
SAAG31 KWBC 081200 RRB
METAR
SAAR 081200Z 29003KT 9000 NSC 02/00 Q1019=
SAME 081200Z NIL=
SAME 081200Z 23002KT 9999 NSC 02/M01 Q1015=
SARC 081200Z 14007KT 9999 FEW008 11/09 Q1019=
SAWE 081200Z NIL=
SAWG 081200Z 29012KT 9999 FEW025 BKN080 M03/M05 Q0991=
SAWG 081200Z NIL=
####018000364####
SAAF13 LFPW 081200 RRA
METAR GBYD 081200Z 0000KT 9999 SCT011 FEW018CB BKN120 26/25 1013
CBS-NW=
METAR GFLL 081200Z 15008KT 9999 SCT014 FEW028CB 29/24 Q1014 CB-NE=
METAR GGOV 081200Z 18007KT 100V270 9999 BKN015TCU 31/23 Q1013 NOSIG=
METAR GLRB 081200Z 19006KT 9999 BKN018 FEW026CB 30/25 Q1014 CB-S=
METAR GVAC 081200Z 07011KT 9999 BKN014 25/20 Q1014 NOSIG=
####018000078####
SAAL32 DAAA 081200 RRA
METAR DAOF 081200Z 12010KT 4000 HZ NSC 43/05 Q1014=
####018000669####
SANK31 MNMG 081200
MEQ1012
CB/N/NE/NW=
METAR MNJG 081200Z 00000KT 6000 BR SCT018 SCT060 20/19 Q1011=
METAR MNJU 081200Z 00000KT 9999 FEW020CB BKN0MNMG 081200Z
METAR
METAR MNPC 081200Z NIL=
METAR MNRS 081200Z 00000KT 9999 FEW015CB BKN070 24/23 Q1012
CB/N/NE/NW=
METAR MNJG 081200Z 00000KT 6000 BR SCT018 SCT060 20/19 Q1011=
METAR MNJU 081200Z 00000KT 9999 FEW020CB BKN080 24/24 Q1011 CB/S=
METAR HVH462 081209
FF KZHUZQZX 
081209 MGGTZPZX
(FPL-COA457-IS
-B738/M-SHGWR/S
-MGGT1315
-N0457F390 AUR RAB UA770 NALDA/N0455F400 UT21 MARTE B753 MUSYL/N0371F220 KUGLE WOLDE/N0371A130
-KIAH0230 KHOU 
-EET/MMID0027 KZHU0124 
REG/N33262 SEL/FJHS
RMK/AIS)

####018000096####
SAAW34 KWBC 081145 RRH
METAR
UTSS 081200Z 06006MPS 9999 NSC 35/11 Q1010 R88/CLRD70 NOSIG=
####018000441####
SANK31 MNMG 081200
METAR
METAR MNPC 081200Z NIL=
METAR MNRS 081200Z 00000KT 9999 FEW015CB BKN070 24/23 Q1012
CB/N/NE/NW=
METAR MNJG 081200Z 00000KT 6000 BR SCT018 SCT060 20/19 Q1011=
METAR MNJU 081200Z 00000KT 9999 FEW020CB BKN080 24/24 Q1011 CB/S=
METAR MNCH 081200Z 00000KT 3000 VCRA FEW015 SCT022 FEW022CB 23/23
Q1011 CBRA/W/NW/CB/S/SW=
METAR MNBL 081200Z 32004KT 7000 TS SCT016CB SCT070 24/24 Q1011
CBRA/N/E/SE=



DUPE
####018000082####
SASD32 OEJD 081200
METAR OETF 081200Z 12006KT 9999  SCT030 38/M01 Q1014 NOSIG=
####018000328####
SANK31 MNMG 081200
METAR
METAR MNPC 081200Z NIL=
METAR MNRS 081200Z 00000KT 9999 FEW015CB BKN070 24/23 Q1012
CQ1012
CB/N/NE/NW=
METAR MNJG 081200Z 00000KT 6000 BR SCT018 SCT060 20/19 Q1011=
METAR MNJU 081200Z 00000KT 9999 FEW020CB BKN0KMIA0214 KFLL KMCO
-EET/MUFH0113 KZMA0148 REG/N966AN SEL/GKCD NAV/RNVD1E2A1 RNP10)
####018000094####
SAAF36 KWBC 081200 RRA
METAR
HKJK 081200Z 18006KT 9999 BKN020 BKN100 18/13 Q1023 NOSIG=
####018000369####
SAID31 WIII 081200
METAR WIMM 081200Z 03006KT 6000 FEW016CB FEW017 29/24 Q1009 NOSIG= 
METAR WIDD 081200Z 00000KT 9999 FEW017 27/24 Q1010= 
METAR WADD 081200Z 00000KT 9999 FEW018 27/26 Q1009 NOSIG= 
METAR WAAA 081200Z 00000KT 9999 FEW020 26/25 Q1010= 
METAR WIII 081200Z 23005KT 7000 SCT020 25/23 Q1011 NOSIG= 
METAR WIHH NIL=
METAR WABB NIL=
METAR WARR NIL=
####018000145####
SAAF08 LFPW 081200 RRA
METAR DFFD 081200Z VRB02KT CAVOK 30/21 Q1015 NOSIG=
METAR GABS 081200Z 23005KT 190V260 9999 FEW030 31/22 Q1015 NOSIG=
####018000123####
SAAG05 SABM 081200 RRA
METAR SAME 081200Z 23002KT 9999 NSC 02/M01 Q1015=
METAR SAVC 081200Z 27005KT CAVOK 06/00 Q1000=
####018000110####
SAIY42 LIIB 081200 RRA
METAR LIQW 081155Z 20002KT 9999 SCT025 30/18 Q1020 RMK SCT VIS MIN
      9999 BLU=
####018000154####
SAAF14 LFPW 081200 RRA
METAR DRRN 081200Z VRB02KT CAVOK 32/20 Q1013 NOSIG=
METAR FTTJ 081200Z 20005KT 160V230 9999  FEW040 BKN140 32/28 Q1013
NOSIG=
####018000225####
SACN31 KWBC 081200 RRB
METAR
CYMX 081200Z 00000KT 6SM HZ FEW230 26/20 A3002 RMK CI1 SLP164=
CYTE 081200Z 10010KT 15SM FEW070 06/03 A2975 RMK AC2 SLP076=
CYUL 081200Z 21004KT 12SM FEW080 26/22 A3000 RMK ACC1 SLP160=
####018000139####
SAEM31 KWBC 081200 RRC
METAR
LOIH 081200Z 35007KT 35KM SKC 28/14 Q1021 RMK SKC=
LOWZ 081200Z 05005KT 40KM SKC 25/07 Q1022 RMK SKC=
####018000207####
SAIO31 KWBC 081200 RRC
METAR
FMCH 081200Z VRB06KT 9999 FEW023TCU SCT030 29/20 Q1017 NOSIG=
FMMT 081200Z 22014KT 9999 SCT017 SCT033 25/22 Q1021=
FMNN 081200Z 26006KT 9999 FEW020 SCT100 30/18 Q1017=
####018000128####
SAIQ32 KWBC 081200 RRA
METAR
KQAQ 081155Z 30010G20KT 8000 HZ FU CLR 45/08 A2963 RMK SLP028 PA
     +394 DA +3829 57007=
####018000132####
SAIY31 KWBC 081150 RRC
METAR
LIEE 081155Z 15011KT 9999 FEW020 28/21 Q1019 RMK FEW VIS MIN 9999
     WIND THR14 18014KT BLU=
####018000134####
SAIY42 KWBC 081150 RRB
METAR
LIMT 081155Z /////KT 9999 SCT012CB BKN013 15/12 Q1025 RMK OVC MON
     LIB VAL NIL VIS MIN 9999=
####018000321####
SAJP31 KWBC 081200 RRB
METAR
RJAA 081200Z 13004KT 9999 FEW020 BKN/// 22/21 Q1011 NOSIG RMK
     2CU020 A2986=
RJCC 081200Z 15003KT 090V260 1500 R19R/P1800N R01R/1200U -DZ BR
     BKN002 17/17 Q1011 RMK 7ST002 A2985=
RJFK 081200Z VRB02KT 9999 FEW030 SCT080 BKN/// 24/19 Q1010 RMK
     1CU030 3AC080 A2985=
####018000400####
SAIY41 KWBC 081150 RRC
METAR
LIBY 081155Z 36018G32KT CAVOK 25/10 Q1016 RMK SKC QUK 3 QUL 1 N
     VIS MAR 20 KM VIS MIN 9999=
LICF 081155Z 21005KT 9999 SCT030TCU 28/24 Q1017 RMK BKN SCT080 QUK
     1 QUL 0 VIS MAR 10 KM MON E CLD CIME NC MON W LIB NC VIS MIN
     9999=
LIEB 081155Z 11009KT 9999 SCT025TCU 32/25 Q1018 RMK SCT QUK 2 QUL
     0 VIS MAR 20 KM MON INVIS VIS MIN 8000W=
####018000209####
SAIY43 KWBC 081150 RRC
METAR
LIQC 081155Z 04004KT CAVOK 29/10 Q1021 RMK SKC QUK 1 QUL 0 VIS MAR
     15 KM VIS MIN 9999=
LIQW 081155Z 20002KT 9999 SCT025 30/18 Q1020 RMK SCT VIS MIN 9999
     BLU=
####018000158####
SAPA31 KWBC 081200 CCA
METAR
PTRO COR 081158Z 08007KT 12SM -TSRA BKN016CB BKN120 OVC300 26/24
     A2990 RMK OCNL LTGCA SE-S TS SE MOV W CB VC ALQDS=
####018000566####
SARA31 KWBC 081200 RRD
METAR
UAFM 081200Z 24009MPS 7000 NSC 32/08 Q1012 TEMPO VRB09G14MPS TS
     FCST WS=
UTNN 081200Z 27002MPS 200V330 CAVOK 43/06 Q1006 R33/CLRD70
     NOSIG=
UTNU 081200Z 36003MPS CAVOK 41/16 Q1007 R13/CLRD60 NOSIG=
UTSA 081200Z 02007MPS 9999 NSC 40/05 Q1008 R88/CLRD70 NOSIG=
UTSB 081200Z 01006MPS CAVOK 41/03 Q1007 R01/CLRD70 TEMPO
     01008MPS=
UTSK 081200Z 32005MPS CAVOK 40/10 Q1006 R16/CLRD70=
UTSS 081200Z 06006MPS 9999 NSC 35/11 Q1010 R88/CLRD70 NOSIG=
UTST 081200Z VRB01MPS CAVOK 41/02 Q1005 R88/CLRD70 NOSIG=
####018000143####
SASA31 KWBC 081200 RRB
METAR
SKBO 081200Z VRB02KT 8000 FEW015 BKN070 12/11 A3032=
SKLT 081200Z 00000KT 9999 FEW015 BKN070 24/24 A2989=
####018000198####
SASA41 KWBC 081200 RRB
METAR
SKBG 081200Z 00000KT 9999 FEW012 SCT080 19/18 A3004=
SKMD 081200Z 00000KT 6000 BKN030 BKN080 18/16 A3009=
SKSM 081200Z 00000KT 9999 SCT017 OVC070 26/24 A2986=
####018000143####
SAVN42 KWBC 081200 RRC
METAR
SVSR 081200Z 07002KT 9999 -DZ FEW013CBE BKN016 24/24 Q1012=
SVVP 081200Z 10005KT 9999 OVC013 25/24 Q1006=
####018001585####
SAUS20 KNKA 081213
SPECI KAGC 081212Z 00000KT 3SM HZ CLR 25/20 A3010 RMK AO2 VIS E 2=
METAR KAIK 081215Z AUTO 29005KT 10SM CLR 26/23 A3005 RMK AO2 PNO=
METAR KARW 081215Z AUTO 27008KT 10SM CLR 27/19 A2998 RMK AO2=
METAR KBDN 081215Z AUTO 21006KT 10SM CLR 12/03 A3012 RMK AO2 =
SPECI KBDR 081212Z 13006KT 6SM HZ BKN018 OVC050 26/23 A3006 RMK AO2=
SPECI KBJJ 081212Z AUTO 00000KT 3SM BR CLR 23/21 A3010 RMK AO2=
SPECI KBML 081212Z AUTO 00000KT 1SM BR OVC001 22/21 A3010 RMK AO2 $=
SPECI KCFV 081212Z AUTO 00000KT 10SM BKN023 23/22 A3007 RMK AO2 LTG 
    DSNT E AND SE=
METAR KFDW 081215Z AUTO 32003KT 10SM CLR 26/18 A3002 RMK AO1=
SPECI KFNB 081212Z AUTO 35007KT 9SM FEW009 21/19 A3011 RMK AO2=
METAR KGLY 081215Z AUTO 00000KT 5SM  BR OVC006 23/23 A3007 RMK AO2 
     =
SPECI KILG 081212Z 14006KT 2SM BR SCT005 25/23 A3004 RMK AO2=
SPECI KLAR 081212Z AUTO 00000KT 7SM BKN002 OVC015 08/08 A3041 RMK 
    AO2 CIG 001V006=
SPECI KMAI 081211Z AUTO 00000KT 3SM BR BKN001 24/23 A3003 RMK AO2=
METAR KMEZ 081215Z AUTO 00000KT 5SM BR SCT010 BKN014 OVC027 26/23 
     A3009 RMK AO2=
METAR KOAJ 081215Z AUTO 02005KT 4SM CLR 26/23 A2996 RMK AO1=
METAR KPSO 081215Z AUTO 00000KT 10SM BKN110 08/05 A3040 RMK AO2=
SPECI KSJT 081212Z 06003KT 10SM BKN010 BKN110 22/20 A3005 RMK AO2=
METAR KSOP 081215Z AUTO 00000KT 9SM CLR 26/19 A2999 RMK AO1=
SPECI KTEB 081212Z 13003KT 4SM MIFG BKN020 27/23 A3003 RMK AO2=
METAR KUDG 081215Z 34005KT 10SM CLR 27/19 A2999 RMK AO1=
SPECI KVAY 081212Z AUTO 15003KT 2SM BR OVC002 25/23 A3004 RMK AO2 
    CIG 002V006=
####018001819####
SAXX99 KWBC 081200 RRM
METAR
CYBB 081200Z 00000KT 15SM BKN090 BKN140 11/07 A2981 RMK AC6AC0
     17.5/8.0/0 SLP097=
CYEN 081200Z 27002KT 15SM FEW040 FEW090 SCT250 12/11 A3012 RMK
     SC1AC1CI0 SLP206=
CYGW 081200Z 13008KT 15SM FEW025 SCT040 BKN080 18/16 A2985 RMK
     CU1SC2AC2 TCU ASOCTD VIA CYQB FIC SLP110=
CYHH 081200Z 06003KT 15SM BKN080 BKN120 20/15 A2993 RMK AC5AC2 VIA
     CYQB FIC SLP137=
CYMT 081200Z 18002KT 15SM FEW045 FEW070 SCT200 23/20 A3000 RMK
     CU1AC1CI1 SLP156=
CYPA 081200Z 23005KT 15SM FEW050 FEW100 BKN250 13/10 A3005 RMK
     SC1AC1CI1 SLP184=
CYRJ 081200Z 32003KT 10SM SCT040 SCT220 25/19 A2999 RMK SC3CI0
     SLP154=
DABT 081200Z 36010KT CAVOK 35/04 Q1022=
DAUK 081200Z 00000KT CAVOK 37/16 Q1018=
DNIB 081200Z 25010KT 9999 SCT015 30/23 Q1014=
EGYE 081150Z 26010KT 9999 FEW040 BKN250 ///// Q1017 BLU=
FMMS 081200Z 22023KT 9999 VCSH BKN017 XX/XX QXXXX=
FMNA 081200Z 12023KT 9999 SCT020 BKN040 26/16 Q1016=
FMSD 081200Z 08014KT 5000 RA SCT017 BKN033 19/19 Q1025=
FQCH 081200Z /////KT 9999 BKN017 20/09 Q1028=
FQNP 081200Z 15008KT 9000 SH BKN020 22/15 Q1022=
SAOC 081200Z 36013KT CAVOK 10/M06 Q1015=
SKEJ 081200Z 15004KT 9999 VCFG BKN015 25/24 A2990=
SKIP 081200Z 00000KT 7000 VCFG BKN016 SCT070 10/10 A3039=
SKLC 081200Z 00000KT 9999 FEW015 SCT200 24/23 A2989=
SKMR 081200Z 00000KT 9999 FEW017 BKN090 25/24 A2986=
SKNV 081200Z 00000KT 9999 -DZ SCT007 BKN090 24/23 A2994=
SKPS 081200Z 00000KT 5000N 9999S -DZ VCFG BKN020 16/15 A3018=
SKRH 081200Z 14008KT 9999 TSRA FEW020CB OVC090 23/22 A2990=
SKVP 081200Z 04008KT 8000 VCSH SCT012 BKN080 24/23 A2996=
SKVV 081200Z 00000KT 9999 SCT023 BKN080 22/21 A2996=
UTTP 081200Z 16002MPS CAVOK 38/10 Q1010 R88/CLRD70 NOSIG=
YPKU 081200Z AUTO 11007KT 9999NDV // NCD 23/15 Q1015=
####018000084####
SPUS52 KWBC 081214
SPECI
KESF 081211Z AUTO 00000KT 6SM BR BKN011 24/23 A3005=
####018000084####
SPUS72 KWBC 081214
SPECI
KESF 081211Z AUTO 00000KT 6SM BR BKN011 24/23 A3005=
####018000081####
SPUS74 KWBC 081214
SPECI
KACV 081211Z AUTO 00000KT 9SM OVC003 10/09 A2996=
####018000601####
SAYE20 OYSC 081200 RRA
METAR OYAA NIL=
METAR OYAG 081200Z 10012KT 9999 SCT030 29/25 Q1001=
METAR OYAM NIL=
METAR OYAR NIL=
METAR OYAS 081200Z 17006G16KT 6000 NSC 34/23 Q1004=
METAR OYAT 081200Z 34012KT CAVOK 40/09 Q0999=
METAR OYDM NIL=
METAR OYHD NIL=
METAR OYIB NIL=
METAR OYKD NIL=
METAR OYMB 081200Z 03020KT 3000 SA FEW030 41/M09 Q1004=
METAR OYMK NIL=
METAR OYMT NIL=
METAR OYRN 081200Z 20018KT 6000 NSC 31/25 Q1000=
METAR OYSD NIL=
METAR OYSH NIL=
METAR OYSN NIL=
METAR OYSQ NIL=
METAR OYSY 081200Z 14006KT 090V220 7000 NSC 43/08 Q1000=
METAR OYTZ NIL=
####018001461####
SPZZ40 KAWN 081214 RRB
SPECI CYGV 081209Z AUTO 12002KT 9SM OVC003 14/12 A3003=
SPECI CYNA 081210Z AUTO 10014KT 9SM OVC004 OVC045 OVC058 13/12 A3004=
SPECI CYSB 081208Z 18006KT 1SM R22/P6000FT/U BR VV003 RMK FG8=
SPECI CYUA 081205Z AUTO 23006KT 4SM -DZ BKN013 05/ A3008=
SPECI CYUS 081204Z AUTO ///// 9SM CLR 12/ A2979=
SPECI CYZE 081208Z AUTO 20009KT 4SM BR SCT004 BKN100 BKN120 20/20 A2997
      RMK SLP148 DENSITY ALT 1300FT=
SPECI KBLV 081203Z AUTO 19004KT 8SM SCT055 25/25 A3004 RMK AO2 RAB1151E1203
      SLP169=
SPECI KLTS 081207Z AUTO 06010KT 10SM FEW008 SCT015 SCT048 22/22 A3008
      RMK AO2 RAE1204DZB1204E1207 FEW V SCT SLP171 $=
SPECI KLTS 081210Z AUTO 05009KT 10SM -RA FEW009 SCT048 22/22 A3008
      RMK AO2 DZB1204E1207 SLP171 $=
SPECI KOZR 081211Z 00000KT 1SM R06/3500VP6000FT BR BKN001 23/23 A3004
      RMK AO2A SLP169=
SPECI KWRI 081210Z AUTO 14006KT 6SM BR SCT006 BKN010 25/25 A3003 RMK
      AO2 SLP169 $=
SPECI LEGT 081210Z 18015G35KT 9999 -RA FEW050CB 33/11 Q1017=
SPECI PAED 081208Z AUTO 00000KT 10SM -RA BKN075 BKN085 12/11 A2998
      RMK AO2 RAB1208 SLP152 $=
PAEH SP 1215 AWOS CLR BLO 120 10 48/-20/0000/998=
PATC SP 1215 AWOS CLR BLO 120 10 46/43/0108/014=
SPECI RJCC 081210Z 17003KT 1400 R19R/P1800N R01R/1200D -DZ BR BKN002
      17/17 Q1010 RMK 7ST002 A2985=
SPECI RKJK 081209Z 11008KT 3200 R36/0900V1400 HZ FEW014 BKN110 BKN130
      24/21 A2979 RMK AO2A DZE1156 SLP089 $=
####018001033####
SARS18 KAWN 081200 RRE
METAR UAFM 081200Z 24009MPS 7000 NSC 32/08 Q1012 TEMPO VRB09G14MPS
      TS FCST WS=
METAR UHHH 081200Z 04003MPS 9999 SCT033CB OVC100 17/15 Q1011 NOSIG
      RMK QFE752/1002 55090060=
METAR UHMM 081200Z 25001MPS 9999 OVC008 12/11 Q1016 RMK QFE747 88010070
      MT OBSC=
METAR UHNN 081200Z 07001MPS 9999 -SHRA FEW010 BKN028CB OVC070 11/10
      Q1013 RMK QFE755=
METAR UHSS 081200Z 00000MPS 9999 BKN016 13/12 Q1011 RMK MT OBSC QFE757/1010=
METAR UHWW 081200Z 00000MPS 9999 SCT013 BKN023CB OVC100 16/14 Q1011
      NOSIG RMK QFE757/1010 75CLRD70=
METAR ULLI 081200Z 15002MPS 120V190 9999 BKN040CB BKN066 BKN200 31/18
      Q1013 NOSIG=
METAR UTSS 081200Z 06006MPS 9999 NSC 35/11 Q1010 R88/70D NOSIG=
METAR UUDD 081200Z 14005MPS 9999 FEW050TCU BKN200 28/14 Q1015 TEMPO
      VRB12MPS TSRA=
METAR UUWW 081200Z 15004MPS 120V200 9999 SCT040 BKN100 27/15 Q1015
      24000070 NOSIG=
METAR UWOO 081200Z 02004MPS P5000 FEW070 32/03 Q1012 08/LRD65 NOSIG
      RMK QFE748/0998=
####018000429####
SAXX70 KAWN 081200 RRL
METAR KQCC 081155Z AUTO VRB03KT 9999 CLR 39/14 A2973 RMK AO2 SLP996
      T03920141 10412 20380 57022 $=
METAR KQEJ 081200Z AUTO 00000KT 4SM -SHRA OVC045 23/19 A2995 RMK A02=
METAR KQEL 081210Z AUTO 03002KT 3SM -RA FEW022 FEW042 22/20 A2974 RMK
      A02=
METAR KQEQ 081210Z AUTO 27001KT 6SM -SHRA BKN090 23/20 A2983 RMK A02=
METAR KQEW 081210Z AUTO 26001KT 7SM SCT100 25/21 A2983 RMK A02=
####018001379####
SAZZ40 KAWN 081200 RRQ
METAR DABT 081200Z 36010KT CAVOK 35/04 Q1022=
METAR DAOF 081200Z 12010KT 4000 HZ NSC 43/05 Q1014=
METAR DAUK 081200Z 00000KT CAVOK 37/16 Q1018=
METAR DBBB 081200Z 22011KT 8000 SCT012 BKN120 29/26 Q1013 NOSIG=
METAR DFFD 081200Z VRB02KT CAVOK 30/21 Q1015 NOSIG=
METAR KDAA 081155Z COR 12004KT 8SM CLR 27/23 A3001 RMK AO2 SLP162 T02740231
      10274 20231 52007 COR 1213=
METAR NGFU 081200Z 08006KT 50KM FEW020 28/25 Q1010=
METAR NSFA 081200Z 00000KT 50KM FEW024 25/23 Q1012=
METAR OEAH 081200Z 01010KT CAVOK 46/03 Q1000 NOSIG=
METAR OEGS 081200Z 02008KT CAVOK 45/07 Q1007=
METAR OEHL 081200Z 27004KT 9999 FEW040 44/02 Q1011 NOSIG=
METAR OEKK 081200Z 03017KT CAVOK 45/11 Q1005=
METAR OERF 081200Z 03003KT CAVOK 44/12 Q1005=
METAR OERR 081200Z 22006KT CAVOK 45/10 Q1006=
METAR OESK 081200Z 27007KT CAVOK 44/00 Q1008=
METAR OETB 081200Z 34003KT CAVOK 42/05 Q1009 NOSIG=
METAR OETR 081200Z 22006KT CAVOK 40/05 Q1010=
METAR OEWJ 081200Z 30020KT CAVOK 33/26 Q1003=
METAR OEYN 081200Z 28016KT 4000 DU SKC 43/19 Q0998 TEMPO 3000=
METAR SADF 081200Z 00000KT CAVOK 06/02 Q1019=
METAR TDCF 081200Z 16003KT 9999 BKN016 27/24 Q1014=
METAR UAFM 081200Z 24009MPS 7000 NSC 32/08 Q1012 TEMPO VRB09G14MPS
      TS FCST WS=
METAR UUYY 081200Z VRB01MPS 9999 FEW033 OVC200 30/14 Q1015 NOSIG 19CLRD61
      RMK QFE753/1004=
####018000653####
SAAM31 FCBB 081200
METAR FCBB 081200Z NIL=
METAR FCPP 081200Z 20008KT 7000 FEW017 BKN033 24/21 Q1013 NOSIG=
METAR FEFF 081200Z NIL=
METAR FGSL 081200Z 28006KT 250V310 9999 TS BKN013 FEW020CB BKN130
26/25 Q1014 NOSIG=
METAR COR FKKD 081200Z 25006KT 180V340 9999 -RA BKN016 FEW020CB 28/26
Q1014 TEMPO 4000 -TSRA BKN013 SCT016CB BKN100=
METAR FKYS 081200Z 19003KT 140V240 9999 BKN016 26/20 Q1017 NOSIG=
METAR FNLU 081200Z NIL=
METAR FOOG 081200Z NIL=
METAR FOOL 081200Z 22005KT 180V270 8000 SCT011 28/22 Q1014 NOSIG=
METAR FOON 081200Z NIL=
METAR FPST 081200Z NIL=
METAR FZAA 081200Z 23006KT 4000 BR SCT021 26/19 Q1013 NOSIG=
####018000937####
SAKO51 RJTD 081200
METAR RKPC 081200Z 07007KT 4500 BR SCT030 OVC120 24/20 Q1009 NOSIG=
METAR RKPC 081200Z 07007KT 4500 BR SCT030 OVC120 24/20 Q1009 NOSIG=
METAR RKPK 081200Z 12005KT 9999 FEW030 BKN200 23/17 Q1009 NOSIG=
METAR RKPK 081200Z 12005KT 9999 FEW030 BKN200 23/17 Q1009 NOSIG=
METAR RKSI 081200Z 28004KT 200V340 8000 -RA FEW040 OVC110 23/20
           Q1009 NOSIG=
METAR RKSS 081200Z 31004KT 270V350 9999 SCT030 OVC110 24/18 Q1009
           NOSIG=
METAR RKSS 081200Z 31004KT 270V350 9999 SCT030 OVC110 24/18 Q1009
           NOSIG=
METAR RKTN 081200Z 13002KT 6000 -RA SCT025 BKN040 OVC200 25/22 Q1009
           NOSIG=
METAR RKTN 081200Z 13002KT 6000 -RA SCT025 BKN040 OVC200 25/22 Q1009
           NOSIG=
METAR RKTU 081200Z 27003KT 9000 -RA SCT030 BKN080 OVC200 25/19 Q1009
           TEMPO 4500=
METAR RKTU 081200Z 27003KT 9000 -RA SCT030 BKN080 OVC200 25/19 Q1009
           TEMPO 4500=
####018000118####
SAAK41 KNKA 081214
SPECI PAIL 081212Z AUTO 00000KT 1/2SM FG FEW001 BKN029 OVC085 08/08 
    A2993 RMK AO2 TSNO=
####018001863####
SAUS20 KNKA 081214
METAR K36U 081216Z AUTO 00000KT 10SM CLR 09/05 A3024 RMK AO2=
METAR KAFK 081210Z AUTO 01006KT 4SM BR BKN016 20/19 A3014 RMK AO2 
     T01970188=
METAR KANW 081210Z AUTO 28003KT 10SM CLR 16/15 A3025 RMK AO2 
     T01630147=
METAR KAUH 081210Z AUTO 34004KT 10SM CLR 16/15 A3020 RMK AO2 
     T01610150=
METAR KAUN 081210Z AUTO 00000KT 10SM CLR 21/14 A2987 RMK AO1=
METAR KBIE 081210Z AUTO 35006KT 10SM SCT030 19/18 A3015 RMK AO2 
     T01870175=
METAR KBTA 081210Z AUTO 35006KT 7SM BKN018 19/17 A3016 RMK AO2 
     T01860170=
METAR KBVN 081210Z AUTO 00000KT 7SM OVC090 17/16 A3022 RMK AO2 
     T01680155=
METAR KDVO 081210Z AUTO 05003KT 10SM OVC012 12/11 A2993 RMK AO2=
METAR KHDE 081210Z AUTO 01004KT 10SM OVC085 16/15 A3023 RMK AO2 
     T01630147=
METAR KHJH 081210Z AUTO 00000KT 10SM OVC029 19/18 A3018 RMK AO2 
     T01920175=
METAR KIBM 081210Z AUTO 00000KT 4SM BR BKN075 OVC085 12/11 A3033 
     RMK AO2 T01210112=
METAR KJWG 081212Z AUTO 05003KT 7SM CLR 22/22 A3010 RMK AO2=
METAR KJYR 081210Z AUTO 00000KT 10SM CLR 17/15 A3019 RMK AO2=
METAR KLCG 081210Z AUTO 00000KT 10SM CLR 16/15 A3020 RMK AO2 
     T01560148=
METAR KLHM 081211Z AUTO 17006KT 10SM CLR 15/11 A2983 RMK AO1 
     T01530110=
SPECI KLWC 081213Z AUTO 34005KT 7SM SCT006 22/21 A3008 RMK AO2=
METAR KLXN 081210Z AUTO 00000KT 10SM BKN050 17/16 A3024 RMK AO2 
     T01700162=
METAR KMMH 081210Z AUTO 00000KT 10SM CLR 06/01 A3022 RMK AO1=
METAR KOKM 081212Z AUTO 00000KT 10SM OVC007 24/24 A3004 RMK AO1 
     LTG DSNT NE=
METAR KPLU 081210Z AUTO 00000KT 10SM CLR 12/12 A2995 RMK AO2=
METAR KRKR 081212Z AUTO 00000KT 10SM SCT029 SCT042 SCT100 27/26 
     A3005 RMK AO2=
METAR KSRE 081210Z AUTO 34003KT 4SM BR CLR 24/24 A3005 RMK AO2=
METAR KTEX 081211Z AUTO 11004KT 10SM BKN100 12/04 A3046 RMK AO2=
####018000111####
SAUS43 KAPX 081214
MTRANJ
SPECI KANJ 081213Z AUTO 25005KT 3SM -RA BR OVC004 21/20 A2996 RMK 
AO2 P0000
####018002264####
SAUS99 KWBC 081215
METAR
KAIK 081215Z AUTO 29005KT 10SM CLR 26/23 A3005 RMK AO2 PNO=
KARW 081215Z AUTO 27008KT 10SM CLR 27/19 A2998 RMK AO2=
KBDN 081215Z AUTO 21006KT 10SM CLR 12/03 A3012 RMK AO2=
KFDW 081215Z AUTO 32003KT 10SM CLR 26/18 A3002 RMK AO1=
KGLY 081215Z AUTO 00000KT 5SM BR OVC006 23/23 A3007 RMK AO2=
KMEZ 081215Z AUTO 00000KT 5SM BR SCT010 BKN014 OVC027 26/23 A3009
     RMK AO2=
KOAJ 081215Z AUTO 02005KT 4SM CLR 26/23 A2996 RMK AO1=
KPSO 081215Z AUTO 00000KT 10SM BKN110 08/05 A3040 RMK AO2=
KSOP 081215Z AUTO 00000KT 9SM CLR 26/19 A2999 RMK AO1=
KUDG 081215Z 34005KT 10SM CLR 27/19 A2999 RMK AO1=
K36U 081216Z AUTO 00000KT 10SM CLR 09/05 A3024 RMK AO2=
KAFK 081210Z AUTO 01006KT 4SM BR BKN016 20/19 A3014 RMK AO2
     T01970188=
KANW 081210Z AUTO 28003KT 10SM CLR 16/15 A3025 RMK AO2
     T01630147=
KAUH 081210Z AUTO 34004KT 10SM CLR 16/15 A3020 RMK AO2
     T01610150=
KAUN 081210Z AUTO 00000KT 10SM CLR 21/14 A2987 RMK AO1=
KBIE 081210Z AUTO 35006KT 10SM SCT030 19/18 A3015 RMK AO2
     T01870175=
KBTA 081210Z AUTO 35006KT 7SM BKN018 19/17 A3016 RMK AO2
     T01860170=
KBVN 081210Z AUTO 00000KT 7SM OVC090 17/16 A3022 RMK AO2
     T01680155=
KDVO 081210Z AUTO 05003KT 10SM OVC012 12/11 A2993 RMK AO2=
KHDE 081210Z AUTO 01004KT 10SM OVC085 16/15 A3023 RMK AO2
     T01630147=
KHJH 081210Z AUTO 00000KT 10SM OVC029 19/18 A3018 RMK AO2
     T01920175=
KIBM 081210Z AUTO 00000KT 4SM BR BKN075 OVC085 12/11 A3033 RMK AO2
     T01210112=
KJWG 081212Z AUTO 05003KT 7SM CLR 22/22 A3010 RMK AO2=
KJYR 081210Z AUTO 00000KT 10SM CLR 17/15 A3019 RMK AO2=
KLCG 081210Z AUTO 00000KT 10SM CLR 16/15 A3020 RMK AO2
     T01560148=
KLHM 081211Z AUTO 17006KT 10SM CLR 15/11 A2983 RMK AO1
     T01530110=
KLXN 081210Z AUTO 00000KT 10SM BKN050 17/16 A3024 RMK AO2
     T01700162=
KMMH 081210Z AUTO 00000KT 10SM CLR 06/01 A3022 RMK AO1=
KOKM 081212Z AUTO 00000KT 10SM OVC007 24/24 A3004 RMK AO1 LTG DSNT
     NE=
KPLU 081210Z AUTO 00000KT 10SM CLR 12/12 A2995 RMK AO2=
KRKR 081212Z AUTO 00000KT 10SM SCT029 SCT042 SCT100 27/26 A3005
     RMK AO2=
KSRE 081210Z AUTO 34003KT 4SM BR CLR 24/24 A3005 RMK AO2=
KTEX 081211Z AUTO 11004KT 10SM BKN100 12/04 A3046 RMK AO2=
####018000727####
SAUZ31 UTTW 081200
METAR UTFN 081200Z 16002MPS 9999 FEW050CB FEW100 37/13 Q1010
R28/CLRD70 NOSIG=
METAR UTNN 081200Z 27002MPS 200V330 CAVOK 43/06 Q1006 R33/CLRD70
NOSIG=
METAR UTNU 081200Z 36003MPS CAVOK 41/16 Q1007 R13/CLRD60 NOSIG=
METAR UTSA 081200Z 02007MPS 9999 NSC 40/05 Q1008 R88/CLRD70 NOSIG=
METAR UTSB 081200Z 01006MPS CAVOK 41/03 Q1007 R01/CLRD70 TEMPO
01008MPS=
UTSH NIL=
METAR UTSK 081200Z 32005MPS CAVOK 40/10 Q1006 R16/CLRD70=
METAR UTSS 081200Z 06006MPS 9999 NSC 35/11 Q1010 R88/CLRD70 NOSIG=
METAR UTST 081200Z VRB01MPS CAVOK 41/02 Q1005 R88/CLRD70 NOSIG=
METAR UTTT 081200Z 11002MPS 050V160 CAVOK 39/05 Q1009 R08R/CLRD70
NOSIG=
METAR UTTP 081200Z 16002MPS CAVOK 38/10 Q1010 R88/CLRD70 NOSIG=
####018000125####
SAIY41 LIIB 081200 RRA
METAR LIMT 081155Z /////KT 9999 SCT012CB BKN013 15/12 Q1025 RMK OVC
MON LIB VAL NIL VIS MIN 9999=
####018000072####
SAAL40 DAMM 081200 RRA
METAR DAUH 081200Z 10009KT CAVOK 39/21 Q1018=
####018000331####
SANM40 FYWW 081200 CCA
METAR COR FYGF 081200Z 03006KT CAVOK 22/18 Q////=
METAR COR FYKM 081200Z 18004KT CAVOK 23/08 Q1024=
METAR COR FYKT 081200Z 03011KT CAVOK 25/00 Q1024=
METAR COR FYOA 081200Z 04015KT CAVOK 25/03 Q1021=
METAR COR FYRU 081200Z 09010KT CAVOK 24/03 Q1023=
METAR COR FYWB 081200Z 04007KT CAVOK 33/07 Q1017=
####018000218####
SAMX41 MMMX 081211
METAR MMIT 081200Z RTD VRB02KT 5SM HZ BKN010 26/24 A2975 RMK SLP090 
           57003 952 8/600 =
METAR MMTB 081200Z RTD 00000KT 6SM HZ BKN020 22/20 A2984 RMK 8/6// 
           OCNL DROPS =
####018000991####
SPUS99 KWBC 081215
SPECI
KAGC 081212Z 00000KT 3SM HZ CLR 25/20 A3010 RMK AO2 VIS E 2=
KBDR 081212Z 13006KT 6SM HZ BKN018 OVC050 26/23 A3006 RMK AO2=
KBJJ 081212Z AUTO 00000KT 3SM BR CLR 23/21 A3010 RMK AO2=
KBML 081212Z AUTO 00000KT 1SM BR OVC001 22/21 A3010 RMK AO2 $=
KCFV 081212Z AUTO 00000KT 10SM BKN023 23/22 A3007 RMK AO2 LTG DSNT
     E AND SE=
KFNB 081212Z AUTO 35007KT 9SM FEW009 21/19 A3011 RMK AO2=
KILG 081212Z 14006KT 2SM BR SCT005 25/23 A3004 RMK AO2=
KLAR 081212Z AUTO 00000KT 7SM BKN002 OVC015 08/08 A3041 RMK AO2
     CIG 001V006=
KMAI 081211Z AUTO 00000KT 3SM BR BKN001 24/23 A3003 RMK AO2=
KSJT 081212Z 06003KT 10SM BKN010 BKN110 22/20 A3005 RMK AO2=
KTEB 081212Z 13003KT 4SM MIFG BKN020 27/23 A3003 RMK AO2=
KVAY 081212Z AUTO 15003KT 2SM BR OVC002 25/23 A3004 RMK AO2 CIG
     002V006=
PAIL 081212Z AUTO 00000KT 1/2SM FG FEW001 BKN029 OVC085 08/08
     A2993 RMK AO2 TSNO=
KLWC 081213Z AUTO 34005KT 7SM SCT006 22/21 A3008 RMK AO2=
####018000158####
SAMX52 MMGL 081200
METAR COR MMLO 081145Z 00000KT 6SM  BKN025 BKN070 OVC200 17/17 A3009 
      RMK SLP083 52010 920 8/538 BINOVC HZY=





TX OPMET V1
####018000093####
SPAK31 KWBC 081215
SPECI
PAED 081208Z AUTO 00000KT 10SM -RA BKN075 BKN085 12/11 A2998=
####018000910####
SAGU31 MGGT 081200
METAR MGTK 081200Z 00000KT 9999 FEW012 OVC090 23/23 Q1011 A2986 =
METAR MGHT 081200Z 00000KT 9999 FEW008 BKN018 BKN100 16/15 QFE 816.0
=
METAR MGPB 081200Z 00000KT 9999 FEW018 OVC090 24/23 Q1011 A2986 =
METAR MGGT 081200Z 00000KT CAVOK 16/14 Q1022 A3018 SCT080 OVC100 VTO
TEND S NOSIG =
METAR MGSJ 081200Z 00000KT CAVOK 24/23 Q1012 A2988 SCT070 BKN090 =
METAR MGRT 081200Z 00000KT 9999 FEW016 OVC090 24/23 Q1014 A2994 PCPN
ESE/SE VOL. SANTA MARIA EN ACTIVIDAD =
METAR MGQZ 081200Z 00000KT 5000 BR OVC008 12/12 QFE 766.6 =
METAR MGCB 081200Z 24004KT 9999 FEW018 OVC070 18/17 QFE 867.9 =
METAR MGZA 081200Z 00000KT CAVOK 24/23 QFE 986.9 SCT070 OVC200 =
METAR MGES 081200Z 00000KT 9999 SCT012 OVC080 20/19 QFE 909.5 MTN
T.D.
CUB C/L =
METAR MGMT 081200Z 00000KT CAVOK 24/23 QFE 1006.8 SCT070 OVC200 =
METAR MGTU 081200Z 00000KT 9000 -DZ SCT020 BKN070 24/24 BR =
METAR MGCP=
####018000072####
SAAL31 DAAA 081200 RRA
METAR DAUH 081200Z 10009KT CAVOK 39/21 Q1018=
####018000529####
SAMG20 FMMI 081200
METAR 081200Z
METAR FMNA 081200Z 12023KT 9999 SCT020 BKN040 26/16 Q1016=
METAR FMNN 081200Z 26006KT 9999 FEW020 SCT100 30/18 Q1017=
METAR FMNM 081200Z ///08KT CAVOK 31/13 Q1015=
METAR FMMI 081200Z 14007KT 100V180 9999 BKN020 SCT023 18/13 Q1025
 NOSIG=
METAR FMMT 081200Z 22014KT 9999 SCT017 SCT033 25/22 Q1021=
METAR FMMS 081200Z 22023KT 9999 VCSH BKN017 XX/XX QXXXX=
METAR FMSD 081200Z 08014KT 5000 RA SCT017 BKN033 19/19 Q1025=
METAR FMCH 081200Z VRB06KT 9999 FEW023TCU SCT030 29/20 Q1017 NOSIG=
####018000072####
SAAL33 DAAA 081200 RRB
METAR DABT 081200Z 36010KT CAVOK 35/04 Q1022=
####018000081####
SAEW37 LEMM 081200 RRA
METAR LEGA 081200Z 18018G29KT 9999 FEW060 39/13 Q1018=
####018000081####
SPAK32 KWBC 081215
SPECI
PAEH SP 1215 AWOS CLR BLO 120 10 48/-20/0000/998=
####018000106####
SAKY31 RUMS 081200 RRA
METAR UAFM 081200Z 24009MPS 7000 NSC 32/08 Q1012 TEMPO VRB09G14MPS TS
FCST WS=
####018000072####
SAAL41 DAMM 081200 RRC
METAR DAUK 081200Z 00000KT CAVOK 37/16 Q1018=
####018000072####
SAAL33 DAAA 081200 RRC
METAR DAUK 081200Z 00000KT CAVOK 37/16 Q1018=
####018000146####
SAAM31 FCBB 081200 CCA
METAR COR FKKD 081200Z 25006KT 180V340 9999 -RA BKN016 FEW020CB 28/26
Q1014 TEMPO 4000 -TSRA BKN013 SCT016CB BKN100=
####018000072####
SAAL41 DAMM 081200 RRB
METAR DABT 081200Z 36010KT CAVOK 35/04 Q1022=
####018000144####
SAAF11 LFPW 081200 CCA
METAR COR FKKD 081200Z 25006KT 180V340 9999 -RA BKN016 FEW020CB 28/26
Q1014 TEMPO 4000 -TSRA BKN013 SCT016CB BKN100=
####018000131####
SAAF05 LFPW 081200 RRB
METAR DNIB 081200Z 25010KT 9999 SCT015 30/23 Q1014=
METAR DNMA 081200Z 21010KT 9999 SCT012 30/24 Q1011=
####018000639####
SAAM31 FCBB 081200
METAR FCBB 081200Z NIL=
METAR FCPP 081200Z 20008KT 7000 FEW017 BKN033 24/21 Q1013 NOSIG=
METAR FEFF 081200Z NIL=
METAR FGSL 081200Z 28006KT 250V310 9999 TS BKN013 FEW020CB BKN130
26/25 Q1014 NOSIG=
METAR COR FKKD 081200Z 25006KT 180V340 9999 -RA BKN016 FEW020CB 28/26
Q1014 TEMPO 4000 -TSRA BKN013 SCT016CB BKN100=
METAR FKYS 081200Z 19003KT 140V240 9999 BKN016 26/20 Q1017 NOSIG=
METAR FNLU 081200Z NIL=
METAR FOOG 081200Z NIL=
METAR FOOL 081200Z 22005KT 180V270 8000 SCT011 28/22 Q1014 NOSIG=
METAR FOON 081200Z NIL=
METAR FPST 081200Z NIL=
METAR FZAA 081200Z 23006KT 4000 BR SCT021 26/19 Q1013 NOSIG=
####018000514####
SAMG20 FMMI 081200
METAR FMNA 081200Z 12023KT 9999 SCT020 BKN040 26/16 Q1016=
METAR FMNN 081200Z 26006KT 9999 FEW020 SCT100 30/18 Q1017=
METAR FMNM 081200Z ///08KT CAVOK 31/13 Q1015=
METAR FMMI 081200Z 14007KT 100V180 9999 BKN020 SCT023 18/13 Q1025
 NOSIG=
METAR FMMT 081200Z 22014KT 9999 SCT017 SCT033 25/22 Q1021=
METAR FMMS 081200Z 22023KT 9999 VCSH BKN017 XX/XX QXXXX=
METAR FMSD 081200Z 08014KT 5000 RA SCT017 BKN033 19/19 Q1025=
METAR FMCH 081200Z VRB06KT 9999 FEW023TCU SCT030 29/20 Q1017 NOSIG=
####018000117####
SPNK31 MNMG 081210
SPECI
MNMG 081210Z 29006KT 6000 -DZ FEW010CB BKN018 CB/W/NW/N/NE/E/SE
3KM E EN EL RESTO 2KM=
####018000268####
SAAF18 LFPW 081200 RRB
METAR FMMI 081200Z 14007KT 100V180 9999 BKN020 SCT023 18/13 Q1025
 NOSIG=
METAR FMMT 081200Z 22014KT 9999 SCT017 SCT033 25/22 Q1021=
METAR FMNM 081200Z ///08KT CAVOK 31/13 Q1015=
METAR FMNN 081200Z 26006KT 9999 FEW020 SCT100 30/18 Q1017=
####018000912####
SAGU31 MGGT 081200
METAR
METAR MGTK 081200Z 00000KT 9999 FEW012 OVC090 23/23 Q1011 A2986 =
METAR MGHT 081200Z 00000KT 9999 FEW008 BKN018 BKN100 16/15 QFE 816.0 =
METAR MGPB 081200Z 00000KT 9999 FEW018 OVC090 24/23 Q1011 A2986 =
METAR MGGT 081200Z 00000KT CAVOK 16/14 Q1022 A3018 SCT080 OVC100 VTO TEND S NOSIG =
METAR MGSJ 081200Z 00000KT CAVOK 24/23 Q1012 A2988 SCT070 BKN090 =
METAR MGRT 081200Z 00000KT 9999 FEW016 OVC090 24/23 Q1014 A2994 PCPN ESE/SE VOL. SANTA MARIA EN ACTIVIDAD =
METAR MGQZ 081200Z 00000KT 5000 BR OVC008 12/12 QFE 766.6 =
METAR MGCB 081200Z 24004KT 9999 FEW018 OVC070 18/17 QFE 867.9 =
METAR MGZA 081200Z 00000KT CAVOK 24/23 QFE 986.9 SCT070 OVC200 =
METAR MGES 081200Z 00000KT 9999 SCT012 OVC080 20/19 QFE 909.5 MTN T.D. CUB C/L =
METAR MGMT 081200Z 00000KT CAVOK 24/23 QFE 1006.8 SCT070 OVC200 =
METAR MGTU 081200Z 00000KT 9000 -DZ SCT020 BKN070 24/24 BR =
METAR MGCP
####018000090####
SAAG05 SABM 081200 RRB
METAR SAWG 081200Z  29012KT 9999  FEW025 BKN080
M03/M05 Q0991=
####018000076####
SPPR00 SPIM 081214
SPECI
SPQT 081214Z /////KT 8000 BKN006 25/23 Q1011= 
####018000087####
SASD20 OEJD 081200 CCA
METAR OERK 081200Z 02015KT 5000 BLDU SKC 43/M03 Q1006 NOSIG=
####018000144####
SAAM31 FCBB 081200 CCA
METAR COR FKKD 081200Z 25006KT 180V340 9999 -RA BKN016 FEW020CB 28/26
Q1014 TEMPO 4000 -TSRA BKN013 SCT016CB BKN100=
####018000123####
SPNK31 MNMG 081210
SPECI
SPECI MNMG 081210Z 29006KT 6000 -DZ FEW010CB BKN018 CB/W/NW/N/NE/E/SE
3KM E EN EL RESTO 2KM=
####018000080####
SPAK32 KWBC 081215
SPECI
PATC SP 1215 AWOS CLR BLO 120 10 46/43/0108/014=
####018000081####
SABZ20 SBTT 081200
METAR SBTT 081200Z 00000KT 9999 FEW008 BKN080 26/25 Q1012=
####018000117####
SAUS44 KFWD 081215
MTRHLR
SPECI KHLR 081213Z AUTO 07004KT 10SM OVC009 26/ A3000 RMK AO2 CIG 
007V011 T0256 $
####018000104####
SANG31 AMMC 081200
METAR AYMO 081200Z AUTO 00000KT //// // ////// 27/24 Q1010=
METAR AYPY NIL=

####018001107####
SAAU31 AMMC 081200
METAR YBAS 081200Z AUTO 07005KT 9999NDV // NCD 09/07 Q1020=
METAR YBBN 081200Z 19010KT 9999 FEW040 16/11 Q1020
     NOSIG=
METAR YBCS 081200Z 17008KT 9999 FEW024 BKN040 23/19 Q1016
     NOSIG=
METAR YBTL 081200Z 13006KT 9999 FEW015 SCT027 BKN038 22/20 Q1017=
METAR YMML 081200Z 22002KT 9999 FEW042 BKN240 05/05 Q1028
     FM1230 VRB03KT 5000 HZ SKC
     FM1400 36005KT 2000 MIFG=
METAR YPAD 081200Z 07004KT CAVOK 06/04 Q1026
     NOSIG=
METAR YPCC 081200Z AUTO 14010KT 9999NDV // SCT017 BKN028 OVC032 26/22 Q1013=
METAR YPDN 081200Z 05006KT CAVOK 25/20 Q1013
     NOSIG=
METAR YPKU 081200Z AUTO 11007KT 9999NDV // NCD 23/15 Q1015=
METAR YPLM 081200Z AUTO 21005KT 9999NDV // OVC027 21/17 Q1009=
METAR YPPH 081200Z 01009KT 9999 FEW024 BKN098 14/13 Q0998
     INTER 1230/1500 27030G50KT 2000 TSGS BKN010 FEW030CB=
METAR YPTN 081200Z AUTO 11005KT 9999NDV // OVC051 24/16 Q1015=
METAR YPXM NIL=
METAR YSSY 081200Z 24008KT 9999 VCSH FEW008 BKN055 12/11 Q1027
     FM1200 22010KT 9999 -SHRA SCT025 BKN040
     INTER 1200/1500 5000 SHRA BKN010=

####018000126####
SPJP31 KWBC 081215
SPECI
RJCC 081210Z 17003KT 1400 R19R/P1800N R01R/1200D -DZ BR BKN002
17/17 Q1010 RMK 7ST002 A2985=
####018000114####
SAPQ31 KWBC 081200 CCA
METAR
PTRO COR 081158Z 08007KT 12SM -TSRA BKN016CB BKN120 OVC300 26/24
     A2990=
