####018003732####
SAUS90 KWBC 081000
METAR KP53 080956Z AUTO 02003KT 18/18 A2996 RMK AO2 SLP143
     T01830178 PWINO TSNO=
METAR K2WX 080956Z AUTO 26005KT 12/08 A3015 RMK AO1 SLP202
     T01220083=
METAR KCDJ 080956Z AUTO 00000KT 21/20 A3006 RMK AO2 SLP170
     T02110200 PWINO TSNO=
METAR KD07 080956Z AUTO 25003KT 15/07 A3020 RMK AO2 SLP217
     T01500072 PWINO TSNO=
METAR KNUQ 080956Z AUTO 36008KT 10SM OVC013 15/12 A2992 RMK AO2
     SLP134 T01500122 TSNO=
METAR KINS 080956Z 00000KT 10SM CLR 19/M11 A2992 RMK AO2 SLP077
     T01941111 $=
METAR K8D3 080956Z AUTO 26007KT 18/14 A3010 RMK AO2 SLP178
     T01780144 PWINO TSNO=
METAR KSPD 080956Z AUTO 35008KT 16/15 A3029 RMK AO2 SLP200 P0002
     T01560150 PWINO TSNO=
METAR KP28 080956Z AUTO 36004KT 21/20 A3010 RMK AO2 SLP178
     T02110200 PWINO TSNO=
METAR KNTU 080956Z 09009KT 10SM SCT005 BKN050 BKN100 25/24 A2996
     RMK AO2 SLP146 T02500239 $=
METAR KP60 080956Z AUTO 00000KT 01/M01 A3043 RMK AO2 SLP257
     T00061011 PWINO FZRANO TSNO=
METAR KFKA 081003Z AUTO 32006KT 10SM CLR 19/18 A3008 RMK AO2
     T01870181=
METAR KFPK 080955Z AUTO 00000KT 5SM BR CLR 22/20 A3003 RMK AO2=
METAR KMOP 080954Z AUTO 24005KT 10SM SCT075 BKN090 OVC110 23/22
     A3002 RMK AO2=
METAR KCAD 080954Z AUTO 23004KT 10SM BKN110 22/20 A3003 RMK
     AO2=
METAR KMGN 080955Z AUTO 00000KT 10SM BKN110 21/20 A2996 RMK
     AO2=
METAR KHAI 080954Z AUTO 00000KT 5SM BR SCT060 SCT075 21/21 A3005
     RMK AO2=
METAR KLWA 080956Z AUTO 00000KT 10SM CLR 23/21 A3003 RMK AO2=
METAR KDRM 080956Z AUTO 15004KT 1/4SM FG OVC002 20/20 A2995 RMK
     AO2=
METAR KVLL 080954Z AUTO 00000KT 10SM CLR 25/21 A3005 RMK AO2=
METAR KCFS 080955Z AUTO 00000KT 1 3/4SM BR VV007 20/20 A3002 RMK
     AO2=
METAR KOZW 080955Z AUTO 00000KT 7SM CLR 23/21 A3004 RMK AO2=
METAR KRNP 080955Z AUTO 26010KT 10SM SCT055 23/21 A3004 RMK
     AO2=
METAR KDUH 080955Z AUTO 00000KT 10SM SCT070 22/18 A3005 RMK
     AO2=
METAR KJYM 080955Z AUTO 00000KT 7SM CLR 21/18 A3006 RMK AO2=
METAR KBAX 080955Z AUTO 00000KT 5SM BR CLR 21/20 A3000 RMK AO2=
METAR KIRS 080955Z AUTO 00000KT 7SM CLR 22/19 A3004 RMK AO2=
METAR KACB 080955Z AUTO 00000KT 10SM OVC100 24/21 A2997 RMK
     AO2=
METAR KRQB 080955Z AUTO 20003KT 10SM OVC090 22/21 A3003 RMK
     AO2=
METAR KOEB 080955Z AUTO 00000KT 7SM CLR 22/20 A3005 RMK AO2=
METAR K4I3 080956Z AUTO 00000KT 7SM SCT060 20/19 A3010 RMK AO2=
METAR KAUM 080955Z AUTO 33004KT 7SM CLR 18/17 A3007 RMK AO2=
METAR KFFX 080954Z AUTO 22003KT 5SM -RA BKN110 22/22 A3003 RMK
     AO2=
METAR KCNB 080957Z AUTO 25006KT 10SM CLR 16/13 A3013 RMK AO2
     T01610130=
METAR KCKN 080955Z AUTO 23005KT 10SM CLR 13/11 A3005 RMK AO2=
METAR KCFE 080954Z AUTO 00000KT 10SM CLR 17/16 A3010 RMK AO2
     T01710161=
METAR KCQM 080957Z AUTO 00000KT 10SM CLR 14/14 A3003 RMK AO2=
METAR KDTL 080955Z AUTO 00000KT 10SM CLR 16/10 A3010 RMK AO2=
METAR KBDH 080955Z AUTO 24003KT 10SM CLR 15/14 A3013 RMK AO2=
METAR KCBG 080955Z AUTO 00000KT 10SM CLR 16/14 A3008 RMK AO2=
METAR KADC 080956Z AUTO 24006KT 10SM CLR 13/12 A3008 RMK AO2=
METAR KHAF 080950Z AUTO 00000KT 10SM OVC006 12/10 A2994 RMK
     AO2=
METAR KCKC 080955Z AUTO 31006KT 10SM CLR 15/13 A3003 RMK AO2=
METAR KJYG 080955Z AUTO 00000KT 10SM CLR 16/16 A3013 RMK AO2=
METAR KCOQ 080956Z AUTO 28006KT 10SM CLR 14/14 A3005 RMK AO2=
METAR KACQ 080958Z AUTO 00000KT 3/4SM BR VV005 16/15 A3011 RMK AO2
     VIS 1/4V5=
METAR KRGK 080955Z AUTO 27003KT 10SM CLR 19/17 A3006 RMK AO2=
METAR KFSE 080954Z AUTO 18005KT 10SM CLR 12/11 A3005 RMK AO2=
METAR KY70 080954Z AUTO 00000KT 4SM BR SCT046 BKN080 OVC110 23/22
     A3003 RMK AO2 P0001 T02260217=
####018000100####
SAUS90 KWBC 081100
METAR K3A6 081050Z AUTO 36002KT 11/10 A2989 RMK AO1 SLP141
     T01130100=
####018000953####
SAUS90 KWBC 081000 CCA
METAR KLND 080953Z AUTO 21003KT 10SM CLR 11/03 A3033 RMK AO2
     SLP224 T01060028=
METAR KDAB 080953Z 00000KT 10SM FEW026 20/19 A2999 RMK AO2 SLP156
     T02000194 $=
METAR KBTR 080953Z 06003KT 7SM SCT003 BKN200 24/23 A3000 RMK AO2
     SLP157 T02390228 $=
METAR KMGM 080953Z 00000KT 10SM CLR 24/22 A3002 RMK AO2 SLP161
     T02390222=
METAR KRTN 080953Z AUTO 05005KT 10SM SCT075 OVC100 14/11 A3035 RMK
     AO2 SLP208 T01390111 TSNO=
METAR KCQC 080953Z AUTO 05007KT 10SM CLR 12/09 A3035 RMK AO2
     SLP219 T01170089 TSNO=
METAR KTUP 080953Z AUTO 00000KT 10SM CLR 24/22 A3006 RMK AO2
     SLP173 T02390217=
METAR KSMP 080956Z AUTO 00000KT 10SM CLR 16/04 A3016 RMK AO2
     SLP177 T01610039 TSNO $=
METAR KWAL 080954Z AUTO 11005KT 10SM SCT090 BKN110 24/22 A2999 RMK
     AO2 SLP154 T02440222 TSNO=
METAR KMCN 080953Z AUTO 00000KT 10SM CLR 21/19 A3002 RMK AO2
     SLP161 T02060194 TSNO=
####018003506####
SAUS90 KWBC 081000 RRA
METAR KUKT 080950Z AUTO 00000KT 3SM CLR 20/20 A3004 RMK AO1=
METAR KTEW 080953Z AUTO 29006KT 10SM CLR 22/20 A3005 RMK AO2=
METAR KCVH 080950Z AUTO 00000KT 10SM OVC010 13/11 A2992 RMK
     AO1=
METAR KDYT 080954Z AUTO 18004KT 10SM CLR 19/16 A3004 RMK AO2=
METAR KFSO 080959Z AUTO 16003KT 4SM BR SCT060 OVC075 23/22 A3001
     RMK AO2=
METAR KFBL 080954Z AUTO 30003KT 10SM CLR 17/16 A3009 RMK AO2=
METAR KLYV 080958Z AUTO 00000KT 10SM CLR 14/13 A3016 RMK AO2=
METAR KEFK 080956Z AUTO 19004KT 4SM BR CLR 20/19 A3006 RMK AO2=
METAR KRRT 080954Z AUTO 24005KT 10SM CLR 14/12 A3001 RMK AO2=
METAR KTOB 080955Z AUTO 00000KT 10SM CLR 18/16 A3008 RMK AO2=
METAR KLXL 080955Z AUTO 00000KT 1/4SM FG VV002 12/11 A3008 RMK
     AO2=
METAR KEVM 080952Z AUTO 25003KT 7SM CLR 15/13 A3002 RMK AO1=
METAR KELO 080953Z AUTO 22003KT 10SM CLR 14/13 A3002 RMK AO2=
METAR KANE 080955Z AUTO 00000KT 10SM 17/16 A3008 RMK AO2=
METAR KROX 080955Z AUTO 21005KT 10SM CLR 14/12 A3001 RMK AO2=
METAR KSYN 081010Z AUTO 00000KT 10SM CLR 17/16 A3007 RMK AO2
     T01720160=
METAR KVVV 080956Z AUTO 29005KT 10SM CLR 17/14 A3011 RMK AO2=
METAR KROS 080955Z AUTO 26003KT 10SM CLR 15/14 A3007 RMK AO2
     T01500141=
METAR KHCD 080952Z AUTO 26004KT 5SM BR CLR 14/13 A3011 RMK AO2
     T01380130=
METAR KSGS 080953Z AUTO 00000KT 10SM CLR 19/16 A3008 RMK AO2
     T01870160=
METAR KMJQ 080952Z AUTO 29004KT 7SM CLR 15/14 A3014 RMK AO2=
METAR KHCO 080954Z AUTO 19004KT 10SM SCT120 12/12 A3004 RMK
     AO2=
METAR KLVN 080949Z AUTO 00000KT 10SM CLR 16/16 A3008 RMK AO2=
METAR KPEX 080953Z AUTO 26004KT 7SM CLR 12/12 A3011 RMK AO2
     T01210120=
METAR KJMR 080958Z AUTO 28003KT 10SM CLR 15/13 A3009 RMK AO2=
METAR KJKJ 080954Z AUTO 00000KT 10SM CLR 15/14 A3006 RMK AO2=
METAR KMVE 080954Z AUTO 29004KT 10SM CLR 16/14 A3010 RMK AO2=
METAR KTKC 080953Z AUTO 26004KT 10SM CLR 16/13 A3014 RMK AO2
     T01580130=
METAR KGYL 080955Z AUTO 00000KT 10SM CLR 15/14 A3010 RMK AO2
     T01500141=
METAR KDXX 080954Z AUTO 00000KT 10SM CLR 14/14 A3011 RMK AO2=
METAR KHZX 080951Z AUTO 00000KT 10SM CLR 13/13 A3007 RMK AO2=
METAR KSAZ 080954Z AUTO 23003KT 10SM CLR 15/15 A3008 RMK AO2=
METAR KONA 080951Z AUTO 30006KT 10SM SCT013 20/18 A3003 RMK
     AO2=
METAR KOVL 080954Z AUTO 30005KT 10SM CLR 13/12 A3011 RMK AO2
     T01320118=
METAR KLJF 080952Z AUTO 27003KT 10SM CLR 17/16 A3011 RMK AO2=
METAR KAEL 080951Z AUTO 32003KT 10SM CLR 17/17 A3008 RMK AO2=
METAR K29G 080954Z AUTO 00000KT 5SM SCT060 19/18 A3009 RMK AO2
     T01930181 PWINO=
METAR KMRT 080953Z AUTO 00000KT 3SM CLR 21/19 A3011 RMK AO2
     T02050189=
METAR KIKW 080954Z AUTO 27004KT 10SM SCT060 SCT090 OVC110 23/21
     A3002 RMK AO2 T02310212=
METAR KMDS 080945Z AUTO 29005KT 10SM CLR 15/15 A3017 RMK AO2=
METAR KMHS 080956Z AUTO 00000KT 10SM CLR 13/07 A3000 RMK AO2
     SLP142 T01330072 TSNO=
METAR KAKQ 080954Z AUTO 00000KT 3SM BR FEW075 BKN120 24/22 A2998
     RMK AO2 SLP151 T02390217 TSNO=
METAR KWAL 080954Z AUTO 11005KT 10SM SCT090 BKN110 24/22 A2999 RMK
     AO2 SLP154 T02440222 TSNO=
METAR KROA 080954Z 00000KT 7SM CLR 24/18 A3008 RMK AO2 SLP168
     T02390183=
METAR KALK 080956Z AUTO 10010KT 10SM CLR 23/08 A3007 RMK AO2
     SLP080 T02280083=
METAR KLWS 080956Z AUTO 00000KT 10SM CLR 18/07 A3002 RMK AO2
     SLP156 T01780072=
METAR KNGP 080956Z AUTO 10005KT 10SM FEW080 28/26 A2981 RMK AO2
     SLP092 T02830261 $=
####018000055####
SAUS90 KWBC 080900 RRI
METAR K8S0 080855Z 27005KT=
####018000078####
SAZB40 FLLS 081001
METAR FLLS 081000Z 06015KT 9999 BKN030 19/09 Q1028=

####018003683####
SAUS99 KWBC 081000
METAR
K4M9 080955Z AUTO 22005KT 8SM CLR 24/24 A3005 RMK AO2=
KAEJ 080955Z AUTO 13004KT 10SM BKN048 OVC110 09/08 A3046 RMK
     AO2=
KAPG 080953Z 00000KT 4SM BR SKC 25/23 A3001=
KBBF 081055Z AUTO 13018KT 8SM FEW025 SCT041 SCT049 29/27 A2979 RMK
     A01=
KBIX 080955Z AUTO 05004KT 10SM CLR 25/25 A3001 RMK AO2 SLP164
     T02510248=
KBQX 080955Z AUTO 12017G29KT 9SM FEW048 SCT090 BKN110 28/25 A2983
     RMK A01=
KDCM 080955Z AUTO 00000KT 10SM CLR 21/21 A3001 RMK AO2=
KDLP 080955Z AUTO 10011KT 10SM FEW017 28/25 A2998 RMK A01=
KEDU 080955Z AUTO 17005KT 10SM CLR 14/10 A2982 RMK AO1=
KEHC 080955Z AUTO 12021G27KT 7SM FEW019 FEW025 SCT039 29/25 A2991
     RMK A01=
KEIR 080955Z AUTO VRB04G13KT 10SM FEW016 FEW021 FEW036 28/25 A2995
     RMK A01=
KEMK 080955Z AUTO 14024KT 8SM FEW029 FEW038 BKN070 29/25 A2985 RMK
     A01=
KGBK 080955Z AUTO 09014G20KT 10SM FEW032 29/25 A2989 RMK A01=
KGVX 080955Z AUTO 12029KT 8SM FEW004 SCT034 BKN046 M40/ A2988 RMK
     A01=
KGYH 080955Z AUTO 00000KT 10SM CLR 23/20 A3003 RMK AO2=
KHQI 080955Z AUTO 11025G31KT 7SM FEW018 SCT030 SCT055 29/26 A2987
     RMK A01=
KHXD 080955Z AUTO 21005KT 10SM CLR 24/21 A2999 RMK AO2 P0000=
KHYW 080955Z AUTO 00000KT 7SM SCT090 SCT120 23/22 A2993 RMK
     AO2=
KIPN 080955Z AUTO 09014KT 10SM SCT020 SCT026 /56 A2998 RMK A01=
KJZI 080955Z AUTO 29005KT 10SM CLR 23/23 A2996 RMK A02 P000=
KLFI 080955Z 00000KT 10SM SCT090 BKN140 26/23 A2997 RMK AO2A
     SLP151 T02570228 $=
KMCF 080955Z AUTO 05003KT 10SM CLR 23/22 A2998 RMK AO2 SLP153
     T02250223=
KMCJ 080955Z AUTO 10009KT 9SM SCT023 SCT028 SCT037 27/24 A2989 RMK
     AO1=
KMDJ 080955Z AUTO 12012KT 10SM FEW018 BKN065 28/25 A2999 RMK
     A01=
KMEI 080958Z AUTO 00000KT 10SM CLR 22/22 A3004 RMK AO2 SLP169
     T02220217=
KMHR 080955Z AUTO 17006KT 10SM CLR 13/10 A2985 RMK AO1=
KMIU 080955Z AUTO 14016KT 10SM FEW014 SCT050 BKN060 28/26 A2980
     RMK A01=
KMWC 080955Z AUTO 00000KT 5SM RA SCT007 BKN041 OVC065 21/20 A3001
     RMK AO2 P0003=
KMXF 080955Z AUTO 00000KT 10SM CLR 25/24 A3001 RMK AO2 SLP161
     T02480237=
KMYT 080955Z AUTO 13014KT CLR 28/24 A2995 RMK A01=
KMZG 080955Z AUTO 00000KT 10SM FEW043 29/25 A2980 RMK A01=
KOEO 080955Z AUTO 00000KT 10SM CLR 17/16 A3009 RMK AO2=
KPBH 080955Z AUTO 00000KT 10SM CLR 19/18 A3004 RMK AO2=
KPCZ 080955Z AUTO 00000KT 3SM BR CLR 22/21 A2999 RMK AO2
     T02240210=
KPDC 080953Z AUTO 29006KT 10SM CLR 22/21 A3002 RMK AO2
     T02170205=
KRCX 080955Z AUTO 32006KT 10SM CLR 18/17 A3005 RMK AO2
     T01800165=
KRNH 080956Z AUTO 30006KT 10SM CLR 17/16 A3007 RMK AO2
     T01680161=
KRPD 080954Z AUTO 00000KT 10SM BKN045 18/17 A3006 RMK AO2
     T01800168=
KRRL 080955Z AUTO 00000KT 2 1/2SM BR OVC002 18/17 A3003 RMK AO2
     T01750170=
KSCF 081000Z AUTO 15019KT 9SM FEW017 SCT022 SCT027 29/25 A2990 RMK
     A01=
KSPF 080955Z AUTO 34003KT 10SM CLR 11/08 A3028 RMK AO2=
KSTE 080955Z AUTO 00000KT 10SM CLR 20/19 A3001 RMK AO2=
KSUW 080955Z AUTO 20005KT 10SM CLR 15/14 A3002 RMK AO2=
KTKV 080955Z AUTO 00000KT 1/2SM FG OVC001 17/16 A3002 RMK AO2
     T01700163=
KUES 080955Z AUTO 23003KT 7SM RA BKN006 OVC014 21/20 A3002 RMK AO2
     T02100195=
KUNU 080952Z AUTO 22003KT 4SM BR BKN003 BKN120 21/20 A3002 RMK AO2
     P0001 T02070195=
KVBS 080955Z AUTO 13023KT 10SM BKN020 BKN024 OVC032 29/25 A2991
     RMK A01=
KVNP 080955Z AUTO VRB07KT 070V150 9SM 28/25 A2996 RMK A01=
KY50 080956Z AUTO 27004KT 7SM CLR 22/22 A3000 RMK AO2 T02160216
     SLP153 $=
PAFS 080956Z AUTO 06005KT 10SM CLR 16/06 A3000 RMK AO2 TSNO
     T01550055 SLP164 $=
####018000324####
SAUS99 KWBC 081000 RRA
METAR
PAMB 080956Z AUTO 02005KT 10SM FEW031 BKN042 11/07 A2993 RMK AO2
     PWINO TSNO T01050072 SLP139 $=
PAVA 080957Z AUTO 36010KT 10SM OVC075 11/09 A3008 RMK AO2 RAE34
     SLP190 P0000 T01110094=
PPIZ 080956Z AUTO 20010KT 10SM CLR 07/02 A3010 RMK AO2 TSNO
     T00660016 SLP197 $=
####018003688####
SAXX60 KWBC 081000
METAR
KGTB 080955Z AUTO 16004KT 10SM CLR 22/21 A3004 RMK AO2 SLP169
     T02200205=
KNIP 080953Z 25004KT 10SM CLR 23/21 A3000 RMK AO2 SLP154
     T02280206=
KNKT 080954Z AUTO 04004KT 4SM HZ CLR 26/23 A2992 RMK AO2 SLP128
     T02610233 $=
KNQX 080953Z AUTO 10004KT 10SM SCT080 28/24 A2992 RMK AO2 TSE12
     SLP130 T02780244 $=
KNRB 080952Z AUTO 00000KT 10SM CLR 23/21 A2999 RMK AO2 SLP155
     T02330211=
KPAM 080955Z AUTO 35004KT 10SM CLR 24/24 A3000 RMK AO2 SLP161
     T02430241=
KPSM 080955Z 16005KT 5SM BR OVC007 22/21 A3007 RMK AO2A SLP183
     T02170206=
KRIV 080955Z 31004KT 4SM BR BKN004 11/10 A2991 RMK AO2A SLP124
     T01110100=
KSKA 080955Z AUTO 04006KT 10SM CLR 16/08 A3007 RMK AO2 SLP169
     T01560084=
KSLI 080955Z AUTO 00000KT 10SM OVC016 17/13 A2990 RMK AO2 SLP127
     T01670134=
KSZL 080955Z 08003KT 10SM FEW007 BKN050 23/22 A3002 RMK AO2A
     RAB0904E0942DZB0942E0950 SLP160 P0000 T02260219 $=
KTCM 080955Z AUTO 16003KT 10SM CLR 15/12 A2994 RMK AO2 SLP140
     T01490122=
KTIK 080955Z AUTO 34004KT 10SM SCT012 SCT017 OVC024 23/23 A3004
     RMK AO2 CIG 022V030 SLP160 T02340226 $=
KVOK 080955Z 00000KT 10SM SCT200 18/18 A3001 RMK AO2A SLP159
     T01820182=
KVPS 080955Z 31002KT 6SM BR SKC 23/23 A3002 RMK SLP167
     T02330233=
PMDY 080956Z AUTO 00000KT 10SM CLR 25/20 A3012 RMK AO2 TSNO
     T02500200 SLP505=
KNID 080956Z AUTO 00000KT CLR 22/03 A2984 RMK AO2 SLP082 T02170028
     TSNO $=
KNUQ 080956Z AUTO 36008KT 10SM OVC013 15/12 A2992 RMK AO2 SLP134
     T01500122 TSNO=
KINS 080956Z 00000KT 10SM CLR 19/M11 A2992 RMK AO2 SLP077
     T01941111 $=
KNTD 080956Z AUTO 27006KT 9SM OVC013 15/13 A2989 RMK AO2 SLP122
     T01500128 TSNO PNO VISNO N $=
KNFG 080956Z AUTO 00000KT 10SM OVC013 16/13 A2989 RMK AO2 SLP122
     T01610133 TSNO=
KNFL 080956Z AUTO 00000KT 10SM CLR 18/01 A2997 RMK AO2 SLP121
     T01830011 TSNO=
KBAN 080956Z AUTO 00000KT 10SM CLR 07/01 A3019 RMK AO2 SLP127
     T00670011 TSNO=
KNTU 080956Z 09009KT 10SM SCT005 BKN050 BKN100 25/24 A2996 RMK AO2
     SLP146 T02500239 $=
KBIX 080955Z AUTO 05004KT 10SM CLR 25/25 A3001 RMK AO2 SLP164
     T02510248=
KGSB 080955Z AUTO 06003KT 10SM FEW170 25/20 A2992 RMK AO2 SLP131
     T02540199 $=
KLFI 080955Z 00000KT 10SM SCT090 BKN140 26/23 A2997 RMK AO2A
     SLP151 T02570228 $=
KMCF 080955Z AUTO 05003KT 10SM CLR 23/22 A2998 RMK AO2 SLP153
     T02250223=
KNIP 080953Z 25004KT 10SM CLR 23/21 A3000 RMK AO2 SLP154
     T02280206=
KNKT 080954Z AUTO 04004KT 4SM HZ CLR 26/23 A2992 RMK AO2 SLP128
     T02610233 $=
KNQX 080953Z AUTO 10004KT 10SM SCT080 28/24 A2992 RMK AO2 TSE12
     SLP130 T02780244 $=
KNRB 080952Z AUTO 00000KT 10SM CLR 23/21 A2999 RMK AO2 SLP155
     T02330211=
KPAM 080955Z AUTO 35004KT 10SM CLR 24/24 A3000 RMK AO2 SLP161
     T02430241=
KSSC 080955Z AUTO 29008KT 10SM CLR 25/19 A2995 RMK AO2 SLP141
     T02530186 $=
KVAD 080955Z AUTO 00000KT 10SM CLR 21/19 A3001 RMK AO2 SLP161
     T02090195 $=
KVPS 080955Z 31002KT 6SM BR SKC 23/23 A3002 RMK SLP167
     T02330233=
KBIX 080955Z AUTO 05004KT 10SM CLR 25/25 A3001 RMK AO2 SLP164
     T02510248=
KFCS 080955Z AUTO 20006KT 10SM BKN030 14/11 A3037 RMK AO2 SLP213
     T01380107=
KFRI 080955Z AUTO 01005KT 10SM FEW012 OVC022 22/21 A3010 RMK AO2
     CIG 018V026 SLP183 T02170214=
KGRK 080955Z 07005KT 7SM FEW007 BKN020 BKN035 26/23 A2998 RMK
     SLP130=
KHLR 080956Z AUTO 06003KT 10SM BKN015 BKN021 OVC032 25/ A2999 RMK
     AO2 SLP145 T0250 $=
KLTS 080955Z AUTO 02004KT 10SM CLR 23/23 A3005 RMK AO2 CIG 027
     RWY35L SLP162 T02300227 $=
####018003732####
SAUS70 KWBC 081000
METAR
KTTS 080955Z 01002KT 9SM MIFG FEW055 FEW290 19/19 A2998 RMK SLP154
     1SC /0/ 1CI /0/=
K1P1 080955Z AUTO 00000KT 1/2SM FG OVC001 22/21 A3007 RMK AO2
     T02160205=
KBJJ 080956Z AUTO 00000KT 1 3/4SM BR CLR 18/17 A3010 RMK AO2
     SLP183 T01780172=
KBVU 080955Z AUTO 03003KT 10SM CLR 23/05 A2986 RMK AO2=
KCXY 080956Z AUTO 00000KT 4SM HZ CLR 23/21 A3002 RMK AO2 SLP162
     T02330206=
KE80 080955Z AUTO 26004KT 10SM CLR 18/12 A3023 RMK AO2
     T01810115=
KEDC 080955Z AUTO 08006KT BKN010 BKN015 OVC034 25/24 A2996 RMK
     AO2=
KEIK 080955Z AUTO 00000KT 7SM CLR 12/11 A3031 RMK AO2=
KELZ 080956Z AUTO 00000KT 1/4SM FG VV001 18/18 A3016 RMK AO2
     SLP197 T01780178=
KEOE 080955Z AUTO 23004KT 10SM CLR 22/20 A3003 RMK AO2=
KFMH 080955Z AUTO 16006KT 6SM BR OVC003 21/20 A3010 RMK AO2=
KHPN 080956Z 11004KT 2 1/2SM BR VV004 23/22 A3004 RMK AO2 SLP166
     T02330217=
KHWV 080956Z AUTO 14005KT 3SM BR BKN002 OVC007 24/23 A3005 RMK AO2
     SLP175 T02390233=
KIFP 080955Z AUTO 00000KT 10SM CLR 29/00 A2974 RMK AO2=
KITH 080956Z AUTO 06004KT 3SM BR CLR 19/18 A3011 RMK AO2 T01940183
     SLP187=
KJXN 080956Z 00000KT 9SM CLR 21/20 A3005 RMK AO2 SLP166
     T02110200=
KMAN 080955Z AUTO 12005KT 10SM CLR 14/06 A3004 RMK AO1=
KMDT 080956Z 00000KT 3SM HZ CLR 25/20 A3001 RMK AO2 SLP159
     T02500200=
KMTN 080955Z 08003KT 4SM BR SCT080 26/25 A3002 RMK FIRST=
KPVF 080955Z AUTO 03005KT 10SM CLR 22/13 A2993 RMK AO1=
KRBW 080955Z AUTO 27003KT 10SM CLR 22/20 A2997 RMK AO2=
KRCM 080955Z AUTO 33003KT 7SM BKN005 22/22 A3003 RMK AO2 P0008=
KSGJ 080958Z AUTO 26003KT 10SM CLR 22/21 A3000 RMK AO2 SLP157
     T02170206=
KTME 080955Z AUTO 03006KT 5SM 25/25 A2992 RMK AO1=
KUOX 080955Z AUTO 00000KT 10SM CLR 22/20 A3009 RMK AO2=
KWJF 080956Z 26007KT 10SM CLR 19/02 A2988 RMK AO2 SLP096
     T01940022=
KBOS 080954Z 16008KT 10SM CLR 22/20 A3008 RMK AO2 SLP186
     T02220200=
KPHL 080954Z 00000KT 3SM HZ FEW100 SCT150 25/22 A3002 RMK AO2
     SLP164 T02500222 $=
KAPG 080953Z 00000KT 4SM BR SKC 25/23 A3001=
KSGH 080956Z AUTO 00000KT 4SM BR CLR 19/19 A3010 RMK AO2 T01940194
     SLP185=
KAPG 080953Z 00000KT 4SM BR SKC 25/23 A3001=
KIWA 080956Z AUTO 00000KT 10SM CLR 34/01 A2980 RMK AO2=
K14Y 080958Z AUTO 00000KT 7SM CLR 15/15 A3010 RMK AO2
     T01490145=
KAJO 080956Z AUTO 00000KT 5SM BR FEW013 12/12 A2991 RMK AO2
     T01220122 SLP123 $=
KCMY 080955Z AUTO 22003KT 10SM CLR 20/19 A3002 RMK AO2
     T01950186=
KCWA 080955Z AUTO 31007KT 3SM BR OVC003 19/19 A3002 RMK AO2
     T01910192=
KDIJ 080956Z AUTO 04006KT 10SM CLR 06/02 A3029 RMK AO2 T00610022
     SLP188 $=
KEFT 080955Z AUTO 27006KT 10SM CLR 21/19 A3003 RMK AO2
     T02070190=
KEGV 080952Z AUTO 31005KT 10SM BKN010 19/19 A3002 RMK AO2
     T01870189=
KEKQ 080956Z AUTO 00000KT 1 3/4SM BR CLR 18/18 A3011 RMK AO2
     T01830177 SLP190=
KETB 080953Z AUTO 00000KT 7SM RA SCT018 SCT070 BKN100 22/21 A3001
     RMK AO2 P0001 T02150205=
KEZS 080955Z AUTO 24003KT 7SM OVC005 23/22 A2999 RMK AO2
     T02250216=
KGLW 080953Z AUTO 00000KT 5SM BR CLR 21/20 A3007 RMK AO2
     T02060196=
KHFJ 080955Z AUTO 00000KT 7SM CLR 22/22 A3003 RMK AO1=
KJVL 080955Z AUTO 22003KT 10SM SCT120 22/20 A3001 RMK AO2
     T02170199=
KLCK 080955Z AUTO 00000KT 2 1/2SM BR CLR 22/21 A3007 RMK AO2
     T02160206=
KLNL 080955Z AUTO 32005KT 10SM SCT010 OVC016 18/16 A3005 RMK AO2
     T01800164=
KLRD 080956Z AUTO 04008KT 10SM OVC020 27/24 A2989 RMK AO2
     T02660244 SLP109 $=
KLUM 080955Z AUTO 29005KT 10SM CLR 18/17 A3005 RMK AO2=
KM89 080956Z AUTO 00000KT 5SM BR OVC004 24/24 A3005 RMK AO2
     T02440238 SLP187=
####018000079####
SAPQ50 KWBC 081000
METAR
PGRO 080955Z 11011G15KT 7SM SCT020 27/25 A2990=
####018003702####
SAUS70 KWBC 081000 RRA
METAR
KMDZ 080955Z AUTO 00000KT 1/4SM FG BKN001 OVC006 18/18 A3003 RMK
     AO2=
KMRJ 080955Z AUTO 25004KT 7SM OVC008 21/19 A3004 RMK AO2
     T02060190=
KMWO 080955Z AUTO 00000KT 3SM BR CLR 20/20 A3009 RMK AO2=
KPVB 080953Z AUTO 24003KT 1/2SM OVC001 20/20 A3004 RMK AO1
     T02020195=
KROG 080957Z AUTO 16003KT 10SM BKN034 BKN040 23/22 A3007 RMK AO2
     SLP170 T02280217=
KRZN 080954Z AUTO 29003KT 10SM CLR 16/15 A3007 RMK AO2
     T01610151=
KTTS 080955Z 01002KT 9SM MIFG FEW055 FEW290 19/19 A2998 RMK SLP154
     1SC /0/ 1CI /0/=
KUNI 080955Z AUTO 00000KT 3/4SM HZ VV005 21/17 A3008 RMK AO2
     T02110166=
KVES 080954Z AUTO 00000KT 3SM BR CLR 20/19 A3008 RMK AO2
     T01950187=
KY63 081000Z AUTO 21004KT 10SM CLR 14/14 A3010 RMK AO2
     T01430136=
PACM 080956Z AUTO 28006KT 10SM BKN030 OVC065 11/09 A3009 RMK AO2
     TSNO T01110094 RAB0857E11 P0000 SLP185 $=
PAGN 080956Z AUTO 00000KT CLR RMK AO2 PWINO TSNO SLPNO $=
PATQ 080956Z AUTO 26014KT 10SM CLR 09/03 A3004 RMK AO2 TSNO
     T00940033 SLP178 $=
PACM 080956Z AUTO 28006KT 10SM BKN030 OVC065 11/09 A3009 RMK AO2
     TSNO T01110094 RAB0857E11 P0000 SLP185 $=
PAGN 080956Z AUTO 00000KT CLR RMK AO2 PWINO TSNO SLPNO $=
PAHC 080956Z AUTO 00000KT 10SM SCT100 12/11 A2999 RMK AO2 TSNO
     T01220105 SLP158 $=
PAIG 080956Z AUTO 00000KT 10SM SCT055 09/08 A2994 RMK AO2 PWINO
     TSNO T00940083 SLP142 $=
PAMO 080956Z AUTO 01006KT 10SM FEW065 OVC095 11/09 A3006 RMK AO2
     TSNO T01050094 SLP178 $=
PAOH 080956Z AUTO 00000KT 10SM CLR 09/09 A3021 RMK AO2 TSNO
     T00880088 SLP230=
PAPM 080956Z AUTO 00000KT RA CLR 09/08 A3000 RMK AO2 TSNO
     T00940083 P0000 SLP160 $=
PARS 080956Z AUTO 00000KT 10SM OVC065 12/09 A3001 RMK AO2 TSNO
     T01160088 SLP165 $=
PATQ 080956Z AUTO 26014KT 10SM CLR 09/03 A3004 RMK AO2 TSNO
     T00940033 SLP178 $=
KFMH 080955Z AUTO 16006KT 6SM BR OVC003 21/20 A3010 RMK AO2=
KWJF 080956Z 26007KT 10SM CLR 19/02 A2988 RMK AO2 SLP096
     T01940022=
K4M9 080955Z AUTO 22005KT 8SM CLR 24/24 A3005 RMK AO2=
KAEJ 080955Z AUTO 13004KT 10SM BKN048 OVC110 09/08 A3046 RMK
     AO2=
KAPG 080953Z 00000KT 4SM BR SKC 25/23 A3001=
KBQX 080955Z AUTO 12017G29KT 9SM FEW048 SCT090 BKN110 28/25 A2983
     RMK A01=
KDCM 080955Z AUTO 00000KT 10SM CLR 21/21 A3001 RMK AO2=
KDLP 080955Z AUTO 10011KT 10SM FEW017 28/25 A2998 RMK A01=
KEHC 080955Z AUTO 12021G27KT 7SM FEW019 FEW025 SCT039 29/25 A2991
     RMK A01=
KEIR 080955Z AUTO VRB04G13KT 10SM FEW016 FEW021 FEW036 28/25 A2995
     RMK A01=
KEMK 080955Z AUTO 14024KT 8SM FEW029 FEW038 BKN070 29/25 A2985 RMK
     A01=
KGVX 080955Z AUTO 12029KT 8SM FEW004 SCT034 BKN046 M40/ A2988 RMK
     A01=
KGYH 080955Z AUTO 00000KT 10SM CLR 23/20 A3003 RMK AO2=
KHQI 080955Z AUTO 11025G31KT 7SM FEW018 SCT030 SCT055 29/26 A2987
     RMK A01=
KHXD 080955Z AUTO 21005KT 10SM CLR 24/21 A2999 RMK AO2 P0000=
KHYW 080955Z AUTO 00000KT 7SM SCT090 SCT120 23/22 A2993 RMK
     AO2=
KIPN 080955Z AUTO 09014KT 10SM SCT020 SCT026 /56 A2998 RMK A01=
KJZI 080955Z AUTO 29005KT 10SM CLR 23/23 A2996 RMK A02 P000=
KMCJ 080955Z AUTO 10009KT 9SM SCT023 SCT028 SCT037 27/24 A2989 RMK
     AO1=
KMDJ 080955Z AUTO 12012KT 10SM FEW018 BKN065 28/25 A2999 RMK
     A01=
KMEI 080958Z AUTO 00000KT 10SM CLR 22/22 A3004 RMK AO2 SLP169
     T02220217=
KMIU 080955Z AUTO 14016KT 10SM FEW014 SCT050 BKN060 28/26 A2980
     RMK A01=
KMWC 080955Z AUTO 00000KT 5SM RA SCT007 BKN041 OVC065 21/20 A3001
     RMK AO2 P0003=
KMZG 080955Z AUTO 00000KT 10SM FEW043 29/25 A2980 RMK A01=
KOEO 080955Z AUTO 00000KT 10SM CLR 17/16 A3009 RMK AO2=
####018003665####
SAXX60 KWBC 081000 RRA
METAR
KNKX 080955Z 34005KT 10SM OVC014 16/13 A2989 RMK AO2 SLP118
     T01610133=
KNMM 080956Z AUTO 00000KT 10SM CLR 24/22 A3005 RMK AO2 SLP181
     T02390217 $=
KNRS 080956Z AUTO 30008KT 10SM OVC014 17/14 A2990 RMK AO2 SLP123
     T01670139 TSNO $=
KNYG 080956Z 30004KT 6SM HZ SCT080 BKN200 26/23 A2999 RMK AO2
     SLP157 T02560228=
KPSM 080955Z 16005KT 5SM BR OVC007 22/21 A3007 RMK AO2A SLP183
     T02170206=
KSZL 080955Z 08003KT 10SM FEW007 BKN050 23/22 A3002 RMK AO2A
     RAB0904E0942DZB0942E0950 SLP160 P0000 T02260219 $=
KBIX 080955Z AUTO 05004KT 10SM CLR 25/25 A3001 RMK AO2 SLP164
     T02510248=
KBKF 080955Z 19005KT 25SM BKN020 BKN040 14/14 A3033 RMK SLP228=
KDLF 080955Z AUTO 00000KT 10SM CLR 24/23 A2995 RMK AO2 SLP125
     T02390226 $=
KEND 080955Z AUTO 03005KT 10SM SCT220 22/21 A3006 RMK AO2 SLP166
     T02190211 $=
KFCS 080955Z AUTO 20006KT 10SM BKN030 14/11 A3037 RMK AO2 SLP213
     T01380107=
KFRI 080955Z AUTO 01005KT 10SM FEW012 OVC022 22/21 A3010 RMK AO2
     CIG 018V026 SLP183 T02170214=
KGRK 080955Z 07005KT 7SM FEW007 BKN020 BKN035 26/23 A2998 RMK
     SLP130=
KLFI 080955Z 00000KT 10SM SCT090 BKN140 26/23 A2997 RMK AO2A
     SLP151 T02570228 $=
KLSV 080955Z AUTO 00000KT 10SM CLR 25/M04 A2983 RMK AO2 SLP077
     T02521038 PWINO=
KLTS 080955Z AUTO 02004KT 10SM CLR 23/23 A3005 RMK AO2 CIG 027
     RWY35L SLP162 T02300227 $=
KMCF 080955Z AUTO 05003KT 10SM CLR 23/22 A2998 RMK AO2 SLP153
     T02250223=
KMIB 080955Z AUTO 25005KT 10SM FEW095 11/11 A3008 RMK AO2 SLP191
     T01120108 $=
KMXF 080955Z AUTO 00000KT 10SM CLR 25/24 A3001 RMK AO2 SLP161
     T02480237=
KNFW 080952Z AUTO 10003KT 10SM CLR 26/22 A3004 RMK AO2 SLP156
     T02610222=
KSVN 080955Z 23003KT 10SM SKC 22/20 A2997 RMK SLP152=
KGTB 080955Z AUTO 16004KT 10SM CLR 22/21 A3004 RMK AO2 SLP169
     T02200205=
KNQX 080953Z AUTO 10004KT 10SM SCT080 28/24 A2992 RMK AO2 TSE12
     SLP130 T02780244 $=
KNRB 080952Z AUTO 00000KT 10SM CLR 23/21 A2999 RMK AO2 SLP155
     T02330211=
KPAM 080955Z AUTO 35004KT 10SM CLR 24/24 A3000 RMK AO2 SLP161
     T02430241=
KPSM 080955Z 16005KT 5SM BR OVC007 22/21 A3007 RMK AO2A SLP183
     T02170206=
KNQI 080956Z AUTO 01008KT 10SM FEW060 27/24 A2983 RMK AO2 SLP097
     T02670244 $=
KFAF 080955Z 00000KT 6SM BR FEW095 BKN150 25/25 A2997 RMK AO2A
     SLP149 T02520252=
KLUF 080955Z 22004KT 10SM CLR 30/04 A2976 RMK AO2A SLP044
     T02980037 $=
KNBC 080956Z 24003KT 7SM FEW250 23/19 A2997 RMK AO2 SLP150
     T02330194=
KNBG 080955Z AUTO 04003KT 5SM HZ FEW017 A3001 RMK AO2 SLP163 PWINO
     FZRANO $=
KNCA 080956Z AUTO 03004KT 9SM CLR 25/20 A2992 RMK AO2 SLP132
     T02500200=
KNJK 080956Z AUTO 16006KT 10SM CLR 23/13 A2969 RMK AO2 SLP068
     T02330133 TSNO=
KNXP 080956Z AUTO 30005KT CLR 24/00 A2991 RMK AO2 SLP088 T02440000
     $=
KNXX 080956Z AUTO 00000KT 3SM HZ CLR 23/20 A3004 RMK AO2 SLP174
     T02330200 $=
KNYL 080955Z 16005KT 10SM CLR 27/03 A2971 RMK AO2 SLP057
     T02670033=
KPOE 080955Z AUTO 09004KT 10SM CLR 24/22 A3000 RMK AO2 SLP159
     T02390222=
KVBG 080955Z AUTO 30003KT 10SM OVC006 12/11 A2992 RMK AO2 SLP124
     T01220111 TSNO $=
PMDY 080956Z AUTO 00000KT 10SM CLR 25/20 A3012 RMK AO2 TSNO
     T02500200 SLP505=
KNUW 080956Z 00000KT 10SM CLR 14/11 A2996 RMK AO2 SLP150 T01440106
     $=
KNLC 080956Z AUTO 31007KT 10SM CLR 18/11 A2982 RMK AO2 SLP095
     T01830111 TSNO $=
KBIX 080955Z AUTO 05004KT 10SM CLR 25/25 A3001 RMK AO2 SLP164
     T02510248=
KGBK 080955Z AUTO 09014G20KT 10SM FEW032 29/25 A2989 RMK A01=
####018002780####
SAUS80 KWBC 081000
METAR
KSNC 080955Z AUTO 14003KT M1/4SM FG OVC001 22/ A3007 RMK AO2=
TJSJ 080956Z 00000KT 10SM FEW018 SCT028 27/24 A2999 RMK AO2 SLP155
     T02720244=
KP53 080956Z AUTO 02003KT 18/18 A2996 RMK AO2 SLP143 T01830178
     PWINO TSNO=
K2WX 080956Z AUTO 26005KT 12/08 A3015 RMK AO1 SLP202 T01220083=
KCDJ 080956Z AUTO 00000KT 21/20 A3006 RMK AO2 SLP170 T02110200
     PWINO TSNO=
KD07 080956Z AUTO 25003KT 15/07 A3020 RMK AO2 SLP217 T01500072
     PWINO TSNO=
K8D3 080956Z AUTO 26007KT 18/14 A3010 RMK AO2 SLP178 T01780144
     PWINO TSNO=
KSPD 080956Z AUTO 35008KT 16/15 A3029 RMK AO2 SLP200 P0002
     T01560150 PWINO TSNO=
KP28 080956Z AUTO 36004KT 21/20 A3010 RMK AO2 SLP178 T02110200
     PWINO TSNO=
KP60 080956Z AUTO 00000KT 01/M01 A3043 RMK AO2 SLP257 T00061011
     PWINO FZRANO TSNO=
KMHS 080956Z AUTO 00000KT 10SM CLR 13/07 A3000 RMK AO2 SLP142
     T01330072 TSNO=
KACY 080954Z 00000KT 5SM BR CLR 24/22 A3004 RMK AO2 SLP171
     T02390222=
KSAV 080953Z 24003KT 10SM FEW024 21/19 A2999 RMK AO2 SLP154
     T02110194=
KSYR 080954Z 17003KT 8SM FEW090 22/20 A3004 RMK AO2 SLP166
     T02220200=
KAKQ 080954Z AUTO 00000KT 3SM BR FEW075 BKN120 24/22 A2998 RMK AO2
     SLP151 T02390217 TSNO=
KWAL 080954Z AUTO 11005KT 10SM SCT090 BKN110 24/22 A2999 RMK AO2
     SLP154 T02440222 TSNO=
KROA 080954Z 00000KT 7SM CLR 24/18 A3008 RMK AO2 SLP168
     T02390183=
KALK 080956Z AUTO 10010KT 10SM CLR 23/08 A3007 RMK AO2 SLP080
     T02280083=
KABQ 080956Z 08016KT 10SM BKN100 BKN200 20/09 A3026 RMK AO2 SLP159
     T02000094=
KJAX 080956Z 26003KT 10SM CLR 19/18 A2999 RMK AO2 SLP156
     T01940183=
KCAE 080956Z 26004KT 10SM CLR 23/19 A2998 RMK AO2 SLP146
     T02330189=
KCHS 080956Z 28005KT 9SM CLR 24/19 A2996 RMK AO2 SLP143
     T02440194=
KCLI 080955Z AUTO 00000KT 3SM BR OVC003 22/21 A2999 RMK AO2=
KFWA 080954Z 00000KT 8SM CLR 23/20 A3006 RMK AO2 SLP172
     T02280200=
KGSO 080954Z 01003KT 8SM BKN095 25/18 A3002 RMK AO2 SLP152
     T02500178=
KRFD 080954Z 22004KT 9SM SCT011 OVC090 22/21 A3002 RMK AO2 SLP163
     T02220206=
KSHV 080956Z 12003KT 10SM SCT160 BKN280 24/23 A3002 RMK AO2 SLP162
     T02390233=
KTRI 080953Z 00000KT 5SM BR FEW030 21/19 A3010 RMK AO2 SLP173
     T02060189 $=
KTYS 080953Z 00000KT 8SM CLR 22/19 A3006 RMK AO2 SLP165
     T02220189=
TJSJ 080956Z 00000KT 10SM FEW018 SCT028 27/24 A2999 RMK AO2 SLP155
     T02720244=
KLWS 080956Z AUTO 00000KT 10SM CLR 18/07 A3002 RMK AO2 SLP156
     T01780072=
KMYT 080955Z AUTO 13014KT CLR 28/24 A2995 RMK A01=
KSCF 081000Z AUTO 15019KT 9SM FEW017 SCT022 SCT027 29/25 A2990 RMK
     A01=
KTKV 080955Z AUTO 00000KT 1/2SM FG OVC001 17/16 A3002 RMK AO2
     T01700163=
####018000091####
SPUS70 KWBC 081000
SPECI
KABR 080957Z AUTO 00000KT 3/4SM BR CLR 14/13 A3012 RMK AO2=
####018000095####
SAUS80 KWBC 081100
METAR
K3A6 081050Z AUTO 36002KT 11/10 A2989 RMK AO1 SLP141 T01130100=
####018000432####
SAXX60 KWBC 081000 RRB
METAR
KLFI 080955Z 00000KT 10SM SCT090 BKN140 26/23 A2997 RMK AO2A
     SLP151 T02570228 $=
KMCF 080955Z AUTO 05003KT 10SM CLR 23/22 A2998 RMK AO2 SLP153
     T02250223=
KMHR 080955Z AUTO 17006KT 10SM CLR 13/10 A2985 RMK AO1=
KMXF 080955Z AUTO 00000KT 10SM CLR 25/24 A3001 RMK AO2 SLP161
     T02480237=
KNGP 080956Z AUTO 10005KT 10SM FEW080 28/26 A2981 RMK AO2 SLP092
     T02830261 $=
####018000804####
SAUS80 KWBC 081000 CCA
METAR
KLND 080953Z AUTO 21003KT 10SM CLR 11/03 A3033 RMK AO2 SLP224
     T01060028=
KDAB 080953Z 00000KT 10SM FEW026 20/19 A2999 RMK AO2 SLP156
     T02000194 $=
KBTR 080953Z 06003KT 7SM SCT003 BKN200 24/23 A3000 RMK AO2 SLP157
     T02390228 $=
KMGM 080953Z 00000KT 10SM CLR 24/22 A3002 RMK AO2 SLP161
     T02390222=
KCQC 080953Z AUTO 05007KT 10SM CLR 12/09 A3035 RMK AO2 SLP219
     T01170089 TSNO=
KTUP 080953Z AUTO 00000KT 10SM CLR 24/22 A3006 RMK AO2 SLP173
     T02390217=
KSMP 080956Z AUTO 00000KT 10SM CLR 16/04 A3016 RMK AO2 SLP177
     T01610039 TSNO $=
KWAL 080954Z AUTO 11005KT 10SM SCT090 BKN110 24/22 A2999 RMK AO2
     SLP154 T02440222 TSNO=
KMCN 080953Z AUTO 00000KT 10SM CLR 21/19 A3002 RMK AO2 SLP161
     T02060194 TSNO=
####018000110####
SAUS70 KWBC 081100
METAR
KBBF 081055Z AUTO 13018KT 8SM FEW025 SCT041 SCT049 29/27 A2979 RMK
     A01=
####018001418####
SAUS70 KWBC 081000 RRB
METAR
KPBH 080955Z AUTO 00000KT 10SM CLR 19/18 A3004 RMK AO2=
KPCZ 080955Z AUTO 00000KT 3SM BR CLR 22/21 A2999 RMK AO2
     T02240210=
KPDC 080953Z AUTO 29006KT 10SM CLR 22/21 A3002 RMK AO2
     T02170205=
KRCX 080955Z AUTO 32006KT 10SM CLR 18/17 A3005 RMK AO2
     T01800165=
KRNH 080956Z AUTO 30006KT 10SM CLR 17/16 A3007 RMK AO2
     T01680161=
KRPD 080954Z AUTO 00000KT 10SM BKN045 18/17 A3006 RMK AO2
     T01800168=
KRRL 080955Z AUTO 00000KT 2 1/2SM BR OVC002 18/17 A3003 RMK AO2
     T01750170=
KSPF 080955Z AUTO 34003KT 10SM CLR 11/08 A3028 RMK AO2=
KSTE 080955Z AUTO 00000KT 10SM CLR 20/19 A3001 RMK AO2=
KSUW 080955Z AUTO 20005KT 10SM CLR 15/14 A3002 RMK AO2=
KUES 080955Z AUTO 23003KT 7SM RA BKN006 OVC014 21/20 A3002 RMK AO2
     T02100195=
KUNU 080952Z AUTO 22003KT 4SM BR BKN003 BKN120 21/20 A3002 RMK AO2
     P0001 T02070195=
KVBS 080955Z AUTO 13023KT 10SM BKN020 BKN024 OVC032 29/25 A2991
     RMK A01=
KVNP 080955Z AUTO VRB07KT 070V150 9SM 28/25 A2996 RMK A01=
KY50 080956Z AUTO 27004KT 7SM CLR 22/22 A3000 RMK AO2 T02160216
     SLP153 $=
PAFS 080956Z AUTO 06005KT 10SM CLR 16/06 A3000 RMK AO2 TSNO
     T01550055 SLP164 $=
PAMB 080956Z AUTO 02005KT 10SM FEW031 BKN042 11/07 A2993 RMK AO2
     PWINO TSNO T01050072 SLP139 $=
PPIZ 080956Z AUTO 20010KT 10SM CLR 07/02 A3010 RMK AO2 TSNO
     T00660016 SLP197 $=
####018000122####
SAUS44 KBMX 080959
MTREUF
METAR KEUF 080958Z AUTO 00000KT 10SM BKN070 22/19 A3001 RMK AO2 
SLP158 T02170194 PNO $
####018000089####
SADL31 KWBC 080950 RRA
METAR
EDHL 080950Z 15009KT 120V190 CAVOK 27/14 Q1020 RMK L=
####018000222####
SADL32 KWBC 080950 RRA
METAR
EDLN 080950Z 22005KT 150V260 CAVOK 28/10 Q1019 RMK ATIS K=
EDLP 080950Z VRB03KT CAVOK 29/11 Q1020 RMK RWY24 TRL60 JP ATIS
     P=
EDLW 080950Z 20009KT CAVOK 29/09 Q1020 RMK ATIS N=
####018000120####
SAUS41 KLWX 080959
MTRRYT
METAR KRYT 080953Z AUTO 22003KT 5SM HZ FEW090 22/17 A3004 RMK AO2 
SLP152 T02220172 $
####018000144####
SADL33 KWBC 080945 RRC
METAR
EDNY 080950Z 20004KT CAVOK 24/14 Q1022 RMK ATIS N=
EDXW 080950Z 21012KT CAVOK 23/12 Q1018 RMK ATIS INFO S=
####018000168####
SADN31 KWBC 080950 RRA
METAR
EKBI 080950Z 21009KT 170V240 9999 FEW041 SCT075 BKN100 23/15
     Q1018=
EKVJ 080950Z 18006KT 8000 RA SCT020 BKN040 20/17 Q1017=
####018000913####
SAGR31 KWBC 080950 RRA
METAR
LGAD 080950Z 32012KT 9999 FEW020 27/17 Q1014=
LGAL 080950Z NIL=
LGAL 080950Z 01009KT 9999 FEW008 BKN025 18/16 Q1015=
LGAV 080950Z 02016KT 340V040 9999 FEW020 SCT030 27/13 Q1013
     NOSIG=
LGEL 080950Z 36013G23KT 9999 FEW025 27/13 Q1012=
LGIR 080950Z 01007KT 9999 FEW020 29/23 Q1011 NOSIG=
LGKF 080950Z 33016KT 9999 FEW030 26/17 Q1014=
LGKL 080950Z 32008KT 9999 FEW030 33/12 Q1011=
LGKO 080950Z 30017KT CAVOK 29/17 Q1010=
LGKR 080950Z 32014KT CAVOK 28/13 Q1013 NOSIG=
LGKV 080950Z 17007KT 9999 SCT020TCU 22/17 Q1013=
LGLM 080950Z NIL=
LGMT 080950Z 29008KT 9999 FEW025 SCT100 24/17 Q1011=
LGRP 080950Z NIL=
LGSA 080950Z 29010KT 9999 FEW020 33/15 Q1011=
LGSM 080950Z 35014KT CAVOK 31/13 Q1010=
LGSR 080950Z 35019KT CAVOK 28/19 Q1010 NOSIG BLU=
LGSR 080950Z 35019KT CAVOK 28/19 Q1010 NOSIG=
LGTS 080950Z 33022KT 9999 SCT025 23/11 Q1016 NOSIG=
####018000374####
SAGR41 KWBC 080950 RRA
METAR
LGKP 080950Z 32021KT CAVOK 29/17 Q1009=
LGKZ 080950Z NIL=
LGMK 080950Z 02024G34KT 9999 SCT012 25/18 Q1012=
LGPZ 080950Z 26015KT 9999 FEW025 28/19 Q1013 NOSIG=
LGRX 080950Z 27010KT 9999 FEW025 28/19 Q1013 NOSIG BLU=
LGRX 080950Z 27010KT 9999 FEW025 28/19 Q1013 NOSIG=
LGSK 080950Z NIL=
LGZA 080950Z 32017KT CAVOK 30/07 Q1013=
####018000081####
SABZ20 SBBV 081000
METAR SBBV 081000Z 08002KT 9999 SCT025 SCT090 25/23 Q1012=
####018000367####
SANL31 KWBC 080950 RRB
METAR
EHAM 080955Z 27008KT 190V340 CAVOK 24/16 Q1019 NOSIG=
EHBK 080955Z AUTO 22006KT 170V270 9999NDV NCD 28/11 Q1020
     NOSIG=
EHGG 080955Z AUTO 22010KT 190V250 9999NDV NSC 26/13 Q1018
     NOSIG=
EHKD 080955Z AUTO 25011KT 9999NDV OVC064/// 19/16 Q1019 BLU
     BLU=
EHRD 080955Z 27008KT 230V320 CAVOK 25/13 Q1019 NOSIG=
####018000330####
SAUS20 KNKA 080959
SPECI KBDL 080958Z 13004KT 5SM HZ BKN012 BKN100 24/21 A3005 RMK AO2=
SPECI KGNV 080958Z AUTO 00000KT 1 3/4SM BR CLR 19/18 A3000 RMK AO2=
SPECI KTXK 080958Z AUTO 00000KT 1 3/4SM BR BKN003 23/23 A3004 RMK 
    AO2=
SPECI KUCP 080959Z AUTO 00000KT M1/4SM FG FEW001 BKN065 18/18 A3010 
    RMK AO2 $=
####018000126####
SAHW31 KMSC 080959
METAR PHNY 080956Z AUTO 06007KT 10SM CLR 20/17 A3009 RMK AO2 TSNO 
    T02000166 402720172 SLP169 $=
####018000141####
SAUS45 KBOU 081000 COR
MTRABH
METAR KABH 080956Z AUTO 23007KT 10SM BKN003 BKN090 13/12 A3037 RMK 
AO2 CIG 003V007 SLP228 T01280117 $
####018000087####
SAUK31 KWBC 080950 CCB
METAR
EGCC 080950Z 23012KT 9999 FEW032 19/10 Q1017 NOSIG=
####018000057####
SAXX99 KWBC 080900 RRX
METAR
K8S0 080855Z 27005KT=
####018000098####
SAUZ31 UTTW 080930
METAR UTNU 080930Z 24002MPS 200V290 CAVOK 42/10 Q1008 R13/CLRD60 
NOSIG=
####018000078####
SAZB40 FLLS 081000
METAR FLLS 081000Z 06015KT 9999 BKN030 19/09 Q1028=

####018000083####
SPUS52 KWBC 081000
SPECI
KABR 080957Z AUTO 00000KT 3/4SM BR CLR 14/13 A3012=
####018000746####
SANL33 EHDB 080955
METAR EHAK 080955Z AUTO 24009KT 9999NDV FEW047/// 16/13 Q1016=
METAR EHDV 080955Z NIL=
METAR EHFD 080955Z AUTO 23015KT 9999NDV -DZ FEW025/// BKN028///
BKN032/// 16/15 Q1018 REDZDZ=
METAR EHFZ 080955Z AUTO 26007KT 9999NDV -DZ 17/15 Q1018 REDZDZ=
METAR EHJA 080955Z AUTO 24015KT 9999NDV FEW023/// BKN034/// BKN040///
16/15 Q1017=
METAR EHJR 080955Z NIL=
METAR EHKV 080955Z AUTO 26016KT 9999NDV FEW020/// 16/15 Q1018=
METAR EHMA 080955Z AUTO 23012KT 9999NDV 21/17 Q1019=
METAR EHMG 080955Z AUTO 24013KT 9999NDV SCT043/// 17/15 Q1018=
METAR EHPG 080955Z AUTO 23012KT 9999NDV ///////// 16/15 Q1019=
METAR EHQE 080955Z AUTO 24014KT 9999NDV 16/15 Q1018=
METAR EHSA 080955Z NIL=
METAR EHSC 080955Z NIL=
####018000479####
SAUK37 EGGY 080950
METAR EGAE 080950Z 23013KT 9999 FEW018 SCT040 16/10 Q1012=
METAR EGNC 080950Z 24015KT 9999 SHRA FEW015 SCT025 SCT045 16/11
    Q1015=
METAR EGNH 080950Z 24013KT 9999 SCT021 17/11 Q1017=
METAR EGNJ 080950Z 21010KT 180V240 9999 FEW018 19/12 Q1017=
METAR EGNR 080950Z 24010KT 9999 FEW025 19/11 Q1017=
METAR EGPE 080950Z 22018KT 9999 FEW015 SCT034 17/10 Q1008=
METAR EGPI 080950Z NIL=
METAR EGPN 080950Z 23015KT 9999 FEW028 SCT045 16/12 Q1012=
####018000389####
SAUK38 EGGY 080950
METAR EGEC 080950Z NIL=
METAR EGPA 080950Z 20016KT 9999 VCSH FEW027 SCT048 17/11 Q1007=
METAR EGPC 080950Z 20015G25KT 9999 FEW020 16/10 Q1008=
METAR EGPL 080950Z 22021KT 9999 FEW018TCU 15/11 Q1007=
METAR EGPM 080950Z 22021KT 9999 FEW014 SCT035 16/10 Q1005=
METAR EGPO 080950Z 21020KT 9999 -SHRA FEW014CB SCT030 14/11
    Q1005=
METAR EGPU 080950Z NIL=
####018000098####
SAUZ31 UTTT 081000
METAR UTTT 081000Z 28004MPS 240V320 CAVOK 39/07 Q1010
R08R/CLRD70 NOSIG=
####018000091####
SAAJ31 UBBB 081000
METAR UBBB 081000Z 35020KT CAVOK 32/23 Q1011 NOSIG RMK
R88CLRD70=
####018000556####
SAUK36 EGGY 080950
METAR EGBE 080950Z NIL=
METAR EGBJ 080950Z 21006KT 160V260 9999 FEW028 20/10 Q1018=
METAR EGCN 080950Z 24009KT 210V270 9999 SCT026 20/12 Q1018=
METAR EGDL 080950Z 21006KT 9999 FEW018 SCT150 18/12 Q1019 NOSIG=
METAR EGSC 080950Z 22005KT 130V290 9000 FEW020 SCT030 19/14 Q1018=
METAR COR EGSD 080950Z 24009KT 9999 SCT015 BKN030 20/17 Q1019 TEMPO
     BKN014=
METAR COR EGSH 080950Z 25005KT 220V300 4000 -RA FEW004 SCT007 BKN013
    19/17 Q1019 BECMG 9999 NSW SCT030=
METAR EGVN 080950Z NIL=
METAR EGWU 080950Z NIL=
####018000337####
SAPK31 OPKC 081000
METAR OPGD 081000Z NIL=
METAR OPKC 081000Z NIL=
METAR OPLA 080955Z 15004KT 6000 SCT040 SCT100 37/23 Q1004 NOSIG=
METAR OPNH 081000Z 13504KT 6000M SCT035 FEW100 38/25 Q.1002=
METAR OPPS 081000Z NIL=
METAR OPRN 081000Z NIL=
METAR OPSK 080955Z 050108KTS 6000 HZ SCT040 SCT100 39/25 QNH 1001
R.H. 46 PC=
####018000087####
SAPK31 OPPS 080959
METAR OPPS 080955Z SE-12KT 6000 HZ FEW040 FEW100 39/24 Q1004.0=
####018000069####
SABZ18 SBGR 081000
METAR SBGR 081000Z 08001KT CAVOK 10/09 Q1021=
####018000077####
SAMY31 MBPV 080957
METAR MBPV 081000 36004KT 9000 SCT012 27/25 A2994 
####018000075####
SAYE20 OYAS 081000
METAR OYAS 081000Z 21005G16KT 5000 NSC 34/24 Q1006=
####018000191####
SARW20 HRYR 081000
METAR
HRYR 081000Z 18008KT 9999 SCT030 24/13 Q1022 NOSIG=
HRYG 081000Z 19008KT 9999 FEW025 23/13 Q1022 NOSIG=
HRZA 081000Z 16014KT 9999 SCT024 24/12 Q1023 NOSIG=
####018000105####
SPCN44 CWAO 080958
SPECI CYEK 080958Z AUTO 06004KT 9SM BKN003 OVC024 OVC047 OVC095 07/07
A2959=

####018000083####
SPUS73 KWBC 081000
SPECI
KABR 080957Z AUTO 00000KT 3/4SM BR CLR 14/13 A3012=
####018000084####
SABC40 FBSK 081000
METAR FBSK 081000Z 07016KT 9999 BKN020 18/09 Q1032 NOSIG=

####018000086####
SANO33 ENMI 080950 RRA
METAR ENBL 080950Z 20015KT 9999 SCT040 SCT070 15/07 Q1010=
####018000075####
SAMA20 FIMP 081000
METAR FIMP 081000Z 14017KT 9999 SCT016 25/17 Q1021=
####018000124####
SPUS17 KAWN 081000 RRG
SPECI KHRT 080953Z AUTO 00000KT 4SM R18/3000V5500FT BR CLR 23/23 A3001
      RMK AO2 SLP164 $=
####018000440####
SAXN17 KAWN 080900 RRL
METAR MMAA 080944Z 12004KT 8SM SCT020TCU SCT090 BKN300 26/23 A2977
      RMK 8/232=
METAR MMGL 080942Z 00000KT 7SM RA OVC080 19/17 A3003 RMK 6//// 8/07/
      RAB40=
METAR MMPR 080944Z 00000KT 12SM SCT025 BKN070 25/23 A2980 RMK 8/430=
METAR MMSP 080944Z 00000KT 8SM SCT010 SCT020 BKN080 17/17 A3012 RMK
      8/530 HZY MSGTX MMZC=
METAR MMZC 080941Z 12006KT 8SM BKN020 BKN070 16/12 A3016 RMK 8/760=
####018000307####
SPNA14 KAWN 081000 RRJ
SPECI KEGI 080955Z AUTO 00000KT 3/4SM R18/1000V3000FT BR CLR 21/21
      A3002 RMK AO2 SLP166 $=
SPECI KEGI 080956Z AUTO 00000KT 3/4SM R18/1000V2200FT BR CLR 21/21
      A3002 RMK AO2 SLP166 $=
SPECI KNSE 080948Z AUTO 00000KT 1 1/4SM BR CLR 23/21 A3002 RMK AO2
      $=
####018000727####
SPZZ40 KAWN 081000 RRO
SPECI BGTL 080957Z AUTO 24003KT 1200 BR VV001 04/04 A2984 RMK AO2 SLP109=
SPECI CYCX 080955Z 19006KT 12SM FEW006 BKN060 RMK SC2CU3=
SPECI CYPE 080956Z 00000KT 15SM VCSH BKN060 RMK SC5 TCU EMBD=
SPECI CYPH 080956Z AUTO 24014KT 5/8SM OVC001 06/05 A2979=
SPECI CYSC 080957Z AUTO 00000KT 3SM BR SCT071 BKN086 21/20 A3004 RMK
      SLP171 DENSITY ALT 1500FT=
SPECI CYUA 080956Z AUTO 26007KT 9SM OVC003 05/ A3007=
SPECI KEGI 080956Z AUTO 00000KT 3/4SM R18/1000V2200FT BR CLR 21/21
      A3002 RMK AO2 SLP166 $=
SPECI KHRT 080953Z AUTO 00000KT 4SM R18/3000V5500FT BR CLR 23/23 A3001
      RMK AO2 SLP164 $=
SPECI KNSE 080948Z AUTO 00000KT 1 1/4SM BR CLR 23/21 A3002 RMK AO2
      $=
####018001514####
SANA14 KAWN 081000 RRB
METAR KNFG 080956Z AUTO 00000KT 10SM OVC013 16/13 A2989 RMK AO2 SLP122
      T01610133 TSNO=
METAR KNFL 080956Z AUTO 00000KT 10SM CLR 18/01 A2997 RMK AO2 SLP121
      T01830011 TSNO=
METAR KNID 080956Z AUTO 00000KT CLR 22/03 A2984 RMK AO2 SLP082 T02170028
      TSNO $=
METAR KNKX 080955Z 34005KT 10SM OVC014 16/13 A2989 RMK AO2 SLP118 T01610133=
METAR KNMM 080956Z AUTO 00000KT 10SM CLR 24/22 A3005 RMK AO2 SLP181
      T02390217 $=
METAR KNQI 080956Z AUTO 01008KT 10SM FEW060 27/24 A2983 RMK AO2 SLP097
      T02670244 $=
METAR KNTD 080956Z AUTO 27006KT 9SM OVC013 15/13 A2989 RMK AO2 SLP122
      T01500128 TSNO PNO VISNO N $=
METAR KNTU 080956Z 09009KT 10SM SCT005 BKN050 BKN100 25/24 A2996 RMK
      AO2 SLP146 T02500239 $=
METAR KNXP 080956Z AUTO 30005KT CLR 24/00 A2991 RMK AO2 SLP088 T02440000
      $=
METAR KNXX 080956Z AUTO 00000KT 3SM HZ CLR 23/20 A3004 RMK AO2 SLP174
      T02330200 $=
METAR KNYG 080956Z 30004KT 6SM HZ SCT080 BKN200 26/23 A2999 RMK AO2
      SLP157 T02560228=
METAR KNYL 080955Z 16005KT 10SM CLR 27/03 A2971 RMK AO2 SLP057 T02670033=
METAR KPOE 080955Z AUTO 09004KT 10SM CLR 24/22 A3000 RMK AO2 SLP159
      T02390222=
METAR KSGH 080956Z AUTO 00000KT 4SM BR CLR 19/19 A3010 RMK AO2 T01940194
      SLP185=
METAR KVBG 080955Z AUTO 30003KT 10SM OVC006 12/11 A2992 RMK AO2 SLP124
      T01220111 TSNO $=
METAR KVPS 080956Z COR 31002KT 6SM BR SKC 23/23 A3002 RMK AO2A SLP167
      T02330233 COR 0958=
####018000090####
SABR31 TBPB 081000
METAR TBPB 081000Z 08016KT 9999 SHRA BKN014 BKN280 28/24 Q1013 NOSIG=####018000120####
SABE31 TXKF 080953
METAR TXKF 080955Z 17014KT 9999 FEW013TCU SCT060 BKN170
BKN300 25/23 Q1018 RMK TCU DSNT N
/=
####018001477####
SAZZ40 KAWN 081000 RRJ
METAR KADW 080955Z 06004KT 8SM CLR 25/23 A3001 RMK AO2A SLP161 T02450230
      $=
METAR KCVS 080955Z 05007KT 10SM BKN110 17/15 A3020 RMK AO2A SLP184
      T01700150 $=
METAR KDMA 080955Z AUTO 19003KT 10SM BKN150 BKN170 30/09 A2988 RMK
      AO2 CIG 120 RWY30 SLP039 T02950090 $=
METAR KHOP 080955Z AUTO 00000KT 10SM CLR 24/22 A3007 RMK AO2 SLP176
      T02380222=
METAR KNFG 080956Z AUTO 00000KT 10SM OVC013 16/13 A2989 RMK AO2 SLP122
      T01610133 TSNO=
METAR KNFL 080956Z AUTO 00000KT 10SM CLR 18/01 A2997 RMK AO2 SLP121
      T01830011 TSNO=
METAR KNID 080956Z AUTO 00000KT CLR 22/03 A2984 RMK AO2 SLP082 T02170028
      TSNO $=
METAR KNQI 080956Z AUTO 01008KT 10SM FEW060 27/24 A2983 RMK AO2 SLP097
      T02670244 $=
METAR KNTD 080956Z AUTO 27006KT 9SM OVC013 15/13 A2989 RMK AO2 SLP122
      T01500128 TSNO PNO VISNO N $=
METAR KNUQ 080956Z AUTO 36008KT 10SM OVC013 15/12 A2992 RMK AO2 SLP134
      T01500122 TSNO=
METAR KVPS 080956Z COR 31002KT 6SM BR SKC 23/23 A3002 RMK AO2A SLP167
      T02330233 COR 0958=
METAR MDPC 081000Z 00000KT 9999 FEW018 24/21 Q1012=
METAR MDSD 081000Z VRB03KT 9999 FEW018 24/22 Q1014=
METAR MDST 081000Z 00000KT 2000 BR BKN016 22/22 Q1015 BR/ALL QDS=
METAR MYNN 081000Z 00000KT 9999 FEW012CB FEW015TCU 27/27 A2993=
METAR ORER 081000Z 17004KT 9000 SKC 42/00 Q1005=
METAR PASY 080956Z AUTO 02016KT 10SM OVC006 A2974 RMK AO2 CIG 004V010
      SLPNO TSNO PNO=
####018000277####
SASQ51 LZIB 081000
METAR LZKC 081000Z 35008KT 300V030 9999 FEW043 21/10
Q1021=
METAR LZLU 081000Z 23004KT 140V320 9999 FEW047 23/12
Q1021=
METAR LZNI 081000Z 34011KT 280V040 9999 FEW060 24/07
Q1021=
METAR LZPE 081000Z 33007KT 270V080 9999 FEW043 23/09
Q1021=
####018000081####
SABC40 FBSK 081000
METAR FBSK 081000Z 07016KT 9999 BKN020 18/09 Q1032 NOSIG=
####018000726####
SAAK41 KNKA 081000
METAR PADM 081001Z AUTO 06010KT 10SM OVC075 11/09 A3006 RMK AO2 TSNO 
    T01110094 SLP168 $=
METAR PAGA 080958Z AUTO 03004KT 10SM CLR 14/07 A3007 RMK AO2 SLP227 
    T01440072=
METAR PAIW 080957Z AUTO 00000KT 10SM CLR 08/06 A3018 RMK AO2 SLP316 
    T00780056=
METAR PAJZ 080956Z AUTO 00000KT 10SM FEW029 BKN041 OVC049 11/09 
    A3001 RMK AO2 PWINO TSNO T01050094 OVC V BKN SLP152 $=
METAR PAKI 080956Z AUTO 36004KT 10SM CLR 08/08 A3003 RMK AO2 PWINO 
    TSNO T00770077 SLP169 $=
METAR PALG 080956Z AUTO 00000KT 10SM FEW075 SCT110 10/09 A3001 RMK 
    AO2 TSNO T01000094 SLP166=
METAR PARY 080956Z AUTO VRB04KT 10SM CLR 16/06 A3006 RMK AO2 PWINO 
    TSNO T01550055 SLP182=
####018002965####
SAUS20 KNKA 081000
METAR K29G 080954Z AUTO 00000KT 5SM SCT060 19/18 A3009 RMK AO2
     T01930181 PWINO=
METAR K4I3 080956Z AUTO 00000KT 7SM SCT060 20/19 A3010 RMK AO2=
METAR KACB 080955Z AUTO 00000KT 10SM OVC100 24/21 A2997 RMK
     AO2=
METAR KACQ 080958Z AUTO 00000KT 3/4SM BR VV005 16/15 A3011 RMK AO2
     VIS 1/4V5=
METAR KADC 080956Z AUTO 24006KT 10SM CLR 13/12 A3008 RMK AO2=
METAR KAEL 080951Z AUTO 32003KT 10SM CLR 17/17 A3008 RMK AO2=
METAR KANE 080955Z AUTO 00000KT 10SM 17/16 A3008 RMK AO2=
SPECI KARB 080959Z AUTO 00000KT 2SM BR CLR 19/18 A3004 RMK AO2=
METAR KAUM 080955Z AUTO 33004KT 7SM CLR 18/17 A3007 RMK AO2=
METAR KAWG 080955Z AUTO 31005KT 4SM OVC003 21/20 A3005 RMK AO2=
METAR KAXA 080955Z AUTO 00000KT 10SM CLR 17/16 A3011 RMK AO2=
METAR KBAX 080955Z AUTO 00000KT 5SM BR CLR 21/20 A3000 RMK AO2=
METAR KBDH 080955Z AUTO 24003KT 10SM CLR 15/14 A3013 RMK AO2=
SPECI KBGD 080959Z AUTO 34006KT 10SM FEW020 BKN055 OVC080 19/18 
    A3019 RMK AO2=
METAR KBNW 080955Z AUTO 33007KT 10SM CLR 20/17 A3010 RMK AO2=
METAR KBTR 080953Z 06003KT 7SM SCT003 BKN200 24/23 A3000 RMK AO2
     SLP157 T02390228 $=
METAR KCAD 080954Z AUTO 23004KT 10SM BKN110 22/20 A3003 RMK
     AO2=
METAR KCAV 080955Z AUTO 31004KT 5SM CLR 19/18 A3010 RMK AO2=
METAR KCBF 080955Z AUTO 36006KT 10SM CLR 20/15 A3013 RMK AO2=
METAR KCBG 080955Z AUTO 00000KT 10SM CLR 16/14 A3008 RMK AO2=
METAR KCCY 080955Z AUTO 33006KT 10SM CLR 20/17 A3007 RMK AO2=
METAR KCFE 080954Z AUTO 00000KT 10SM CLR 17/16 A3010 RMK AO2
     T01710161=
METAR KCFS 080955Z AUTO 00000KT 1 3/4SM BR VV007 20/20 A3002 RMK
     AO2=
METAR KCIN 080955Z AUTO 34004KT 7SM CLR 18/15 A3013 RMK AO2=
METAR KCKC 080955Z AUTO 31006KT 10SM CLR 15/13 A3003 RMK AO2=
METAR KCKN 080955Z AUTO 23005KT 10SM CLR 13/11 A3005 RMK AO2=
METAR KCNB 080957Z AUTO 25006KT 10SM CLR 16/13 A3013 RMK AO2
     T01610130=
METAR KCNC 080955Z AUTO 34006KT 7SM CLR 21/18 A3007 RMK AO2=
METAR KCOQ 080956Z AUTO 28006KT 10SM CLR 14/14 A3005 RMK AO2=
METAR KCQM 080957Z AUTO 00000KT 10SM CLR 14/14 A3003 RMK AO2=
METAR KCSQ 080955Z AUTO 03005KT 10SM SCT015 20/19 A3011 RMK AO2=
METAR KCVH 080950Z AUTO 00000KT 10SM OVC010 13/11 A2992 RMK
     AO1=
METAR KDAB 080953Z 00000KT 10SM FEW026 20/19 A2999 RMK AO2 SLP156
     T02000194 $=
METAR KDEH 080955Z AUTO 00000KT 4SM SCT004 20/18 A3008 RMK AO2=
METAR KDNS 080955Z AUTO 00000KT 10SM SCT031 20/16 A3016 RMK AO2=
METAR KDRM 080956Z AUTO 15004KT 1/4SM FG OVC002 20/20 A2995 RMK
     AO2=
METAR KDTL 080955Z AUTO 00000KT 10SM CLR 16/10 A3010 RMK AO2=
METAR KDUH 080955Z AUTO 00000KT 10SM SCT070 22/18 A3005 RMK
     AO2=
METAR KDXX 080954Z AUTO 00000KT 10SM CLR 14/14 A3011 RMK AO2=
METAR KDYT 080954Z AUTO 18004KT 10SM CLR 19/16 A3004 RMK AO2=
METAR KEFK 080956Z AUTO 19004KT 4SM BR CLR 20/19 A3006 RMK AO2=
SPECI KEKN 080959Z AUTO 00000KT 2SM BR BKN070 17/16 A3016 RMK AO2 
    TSNO=
####018002970####
SAUS20 KNKA 081000
METAR KELO 080953Z AUTO 22003KT 10SM CLR 14/13 A3002 RMK AO2=
METAR KEOK 080955Z AUTO 00000KT 3SM HZ BKN001 22/19 A3004 RMK AO2=
METAR KEVM 080952Z AUTO 25003KT 7SM CLR 15/13 A3002 RMK AO1=
METAR KFBL 080954Z AUTO 30003KT 10SM CLR 17/16 A3009 RMK AO2=
METAR KFFL 080955Z AUTO 31004KT 10SM CLR 22/20 A3006 RMK AO2=
METAR KFFX 080954Z AUTO 22003KT 5SM -RA BKN110 22/22 A3003 RMK
     AO2=
METAR KFKA 081003Z AUTO 32006KT 10SM CLR 19/18 A3008 RMK AO2
     T01870181=
METAR KFPK 080955Z AUTO 00000KT 5SM BR CLR 22/20 A3003 RMK AO2=
METAR KFSE 080954Z AUTO 18005KT 10SM CLR 12/11 A3005 RMK AO2=
METAR KFSO 080959Z AUTO 16003KT 4SM BR SCT060 OVC075 23/22 A3001
     RMK AO2=
METAR KFSW 080955Z AUTO 25003KT 10SM CLR 22/21 A3004 RMK AO2=
METAR KFXY 080955Z AUTO 30003KT 10SM CLR 17/16 A3010 RMK AO2=
METAR KGGI 080955Z AUTO 30004KT 10SM CLR 21/19 A3008 RMK AO2=
METAR KGYL 080955Z AUTO 00000KT 10SM CLR 15/14 A3010 RMK AO2
     T01500141=
METAR KHAF 080950Z AUTO 00000KT 10SM OVC006 12/10 A2994 RMK
     AO2=
METAR KHAI 080954Z AUTO 00000KT 5SM BR SCT060 SCT075 21/21 A3005
     RMK AO2=
METAR KHCD 080952Z AUTO 26004KT 5SM BR CLR 14/13 A3011 RMK AO2
     T01380130=
METAR KHCO 080954Z AUTO 19004KT 10SM SCT120 12/12 A3004 RMK
     AO2=
METAR KHNR 080955Z AUTO 00000KT 5SM CLR 18/17 A3015 RMK AO2=
METAR KHZX 080951Z AUTO 00000KT 10SM CLR 13/13 A3007 RMK AO2=
METAR KI75 080955Z AUTO 34006KT 7SM BKN021 BKN031 OVC039 20/20 
     A3008 RMK AO2=
METAR KICL 080955Z AUTO 01004KT 10SM CLR 21/18 A3010 RMK AO2=
METAR KIFA 080955Z AUTO 32005KT 10SM SCT110 20/19 A3009 RMK AO2=
METAR KIIB 080955Z AUTO 32003KT 10SM CLR 20/19 A3005 RMK AO1=
METAR KIKV 080955Z AUTO 36004KT 10SM CLR 21/18 A3008 RMK AO2=
METAR KIKW 080954Z AUTO 27004KT 10SM SCT060 SCT090 OVC110 23/21
     A3002 RMK AO2 T02310212=
METAR KIRS 080955Z AUTO 00000KT 7SM CLR 22/19 A3004 RMK AO2=
METAR KJKJ 080954Z AUTO 00000KT 10SM CLR 15/14 A3006 RMK AO2=
METAR KJMR 080958Z AUTO 28003KT 10SM CLR 15/13 A3009 RMK AO2=
METAR KJYG 080955Z AUTO 00000KT 10SM CLR 16/16 A3013 RMK AO2=
METAR KJYM 080955Z AUTO 00000KT 7SM CLR 21/18 A3006 RMK AO2=
METAR KLJF 080952Z AUTO 27003KT 10SM CLR 17/16 A3011 RMK AO2=
METAR KLND 080953Z AUTO 21003KT 10SM CLR 11/03 A3033 RMK AO2
     SLP224 T01060028=
METAR KLRJ 080955Z AUTO 00000KT 2 1/2SM CLR 15/15 A3015 RMK AO2=
METAR KLVN 080949Z AUTO 00000KT 10SM CLR 16/16 A3008 RMK AO2=
METAR KLWA 080956Z AUTO 00000KT 10SM CLR 23/21 A3003 RMK AO2=
METAR KLXL 080955Z AUTO 00000KT 1/4SM FG VV002 12/11 A3008 RMK
     AO2=
METAR KLYV 080958Z AUTO 00000KT 10SM CLR 14/13 A3016 RMK AO2=
METAR KMDS 080945Z AUTO 29005KT 10SM CLR 15/15 A3017 RMK AO2=
METAR KMGN 080955Z AUTO 00000KT 10SM BKN110 21/20 A2996 RMK
     AO2=
METAR KMJQ 080952Z AUTO 29004KT 7SM CLR 15/14 A3014 RMK AO2=
METAR KMOP 080954Z AUTO 24005KT 10SM SCT075 BKN090 OVC110 23/22
     A3002 RMK AO2=
####018000083####
SABZ24 SBFL 081000
METAR SBFL 081000Z SBFL 1000Z 19010G20KT CAVOK 22/17 Q1016=
####018002810####
SAUS20 KNKA 081000
METAR KMPZ 080955Z AUTO 29006KT 4SM OVC002 22/21 A3004 RMK AO2=
METAR KMRT 080953Z AUTO 00000KT 3SM CLR 21/19 A3011 RMK AO2
     T02050189=
METAR KMUT 080955Z AUTO 00000KT 10SM OVC010 24/22 A3003 RMK AO2=
METAR KMVE 080954Z AUTO 29004KT 10SM CLR 16/14 A3010 RMK AO2=
METAR KMXO 080955Z AUTO 00000KT 3 1/2SM CLR 21/19 A3003 RMK AO2=
METAR KNTU 080956Z 09009KT 10SM SCT005 BKN050 BKN100 25/24 A2996
     RMK AO2 SLP146 T02500239 $=
METAR KOEB 080955Z AUTO 00000KT 7SM CLR 22/20 A3005 RMK AO2=
METAR KONA 080951Z AUTO 30006KT 10SM SCT013 20/18 A3003 RMK
     AO2=
METAR KORC 080955Z AUTO 33003KT 10SM CLR 16/16 A3015 RMK AO2=
METAR KOVL 080954Z AUTO 30005KT 10SM CLR 13/12 A3011 RMK AO2
     T01320118=
METAR KOXV 080955Z AUTO 33003KT 10SM CLR 21/20 A3007 RMK AO2=
METAR KOZW 080955Z AUTO 00000KT 7SM CLR 23/21 A3004 RMK AO2=
METAR KPBI 080953Z COR 04007KT 10SM SCT023TCU BKN040 BKN250 27/24 
    A2993 RMK AO2 SLP134 TCU OHD NE E-SE CB DSNT SE T02720239=
METAR KPEA 080955Z AUTO 34004KT 10SM CLR 20/20 A3007 RMK AO2=
METAR KPEX 080953Z AUTO 26004KT 7SM CLR 12/12 A3011 RMK AO2
     T01210120=
METAR KRDK 080955Z AUTO 36004KT 7SM SCT075 SCT090 21/18 A3011 RMK 
     AO2=
METAR KRGK 080955Z AUTO 27003KT 10SM CLR 19/17 A3006 RMK AO2=
METAR KRNP 080955Z AUTO 26010KT 10SM SCT055 23/21 A3004 RMK
     AO2=
METAR KROA 080954Z 00000KT 7SM CLR 24/18 A3008 RMK AO2 SLP168
     T02390183=
METAR KROS 080955Z AUTO 26003KT 10SM CLR 15/14 A3007 RMK AO2
     T01500141=
METAR KROX 080955Z AUTO 21005KT 10SM CLR 14/12 A3001 RMK AO2=
METAR KRQB 080955Z AUTO 20003KT 10SM OVC090 22/21 A3003 RMK
     AO2=
METAR KRRT 080954Z AUTO 24005KT 10SM CLR 14/12 A3001 RMK AO2=
METAR KRYV 080955Z AUTO 25003KT 5SM BR SCT005 SCT095 22/21 A3001 
     RMK AO2=
METAR KSAZ 080954Z AUTO 23003KT 10SM CLR 15/15 A3008 RMK AO2=
METAR KSDA 080955Z AUTO 01005KT 7SM SCT005 21/19 A3011 RMK AO2=
METAR KSGS 080953Z AUTO 00000KT 10SM CLR 19/16 A3008 RMK AO2
     T01870160=
METAR KSHL 080955Z AUTO 00000KT 3SM CLR 15/14 A3016 RMK AO2=
METAR KSYN 081010Z AUTO 00000KT 10SM CLR 17/16 A3007 RMK AO2
     T01720160=
METAR KTEW 080953Z AUTO 29006KT 10SM CLR 22/20 A3005 RMK AO2=
METAR KTKC 080953Z AUTO 26004KT 10SM CLR 16/13 A3014 RMK AO2
     T01580130=
METAR KTNU 080955Z AUTO 33005KT 10SM CLR 21/18 A3008 RMK AO2=
METAR KTOB 080955Z AUTO 00000KT 10SM CLR 18/16 A3008 RMK AO2=
METAR KUKT 080950Z AUTO 00000KT 3SM CLR 20/20 A3004 RMK AO1=
METAR KVLL 080954Z AUTO 00000KT 10SM CLR 25/21 A3005 RMK AO2=
METAR KVTI 080955Z AUTO 00000KT 7SM CLR 20/20 A3005 RMK AO2=
METAR KVVV 080956Z AUTO 29005KT 10SM CLR 17/14 A3011 RMK AO2=
METAR KY70 080954Z AUTO 00000KT 4SM BR SCT046 BKN080 OVC110 23/22
     A3003 RMK AO2 P0001 T02260217=
####018000060####
SAUS45 KTFX 081000
MTR8S0
METAR K8S0 080855Z 27005KT 
####018000079####
SALC31 TLPL 081000
METAR TLPL 081000Z 10020KT 9999 FEW026 BKN300 29/23 Q1013=####018000093####
SAMD90 KWBC 081000
METAR K2W6 080959Z AUTO 00000KT 3SM 24/24 A3001 RMK AO1 SKY OBSCURED=
####018000108####
SAMD90 KWBC 081000
METAR KCGE 080957Z AUTO 00000KT 1 1/2SM SCT065 BKN070 BKN090 23/23 
A3001 RMK AO1=
####018000087####
SAMD90 KWBC 081000
METAR KFDK 080956Z AUTO 00000KT 7SM SCT100 24/21 A3004 RMK AO2=
####018000084####
SAMD90 KWBC 081000
METAR KFME 081000Z AUTO 00000KT 3SM CLR 20/20 A3003 RMK AO1=
####018000084####
SAMD90 KWBC 081000
METAR KDMW 080958Z AUTO 00000KT 7SM CLR 24/21 A3005 RMK AO2=
####018000093####
SAMD90 KWBC 081000
METAR KESN 081003Z AUTO 00000KT 1 1/2SM BR VV007 22/22 A3004 RMK AO2=
####018000084####
SAMD90 KWBC 081000
METAR KW29 081000Z AUTO 11003KT 2SM CLR 23/23 A3001 RMK AO1=
####018000098####
SASG20 GOOY 081000
METAR GOOY 081000Z 16006KT 130V210 9999 SCT013 SCT230 29/24 Q1012
NOSIG=
####018000117####
SARH32 LDZM 081000
METAR LDLO 081000Z 02010KT CAVOK 26/08 Q1022=
METAR LDSB 081000Z 01013KT CAVOK 22/10 Q1021=
####018000120####
SAUS41 KAKQ 081000
MTRNGU
METAR KNGU 080959Z 06005KT 5SM BR SCT090 BKN120 26/23 A2998 RMK AO2 
SLP152 T02610233
####018000118####
SAMH31 PKWA 081000
METAR PKWA 081000Z AUTO 07018KT 10SM BKN011 BKN017 OVC037 25/23 A2986 RMK AO2 P0012 T02520234=
####018000099####
SAHK31 VHHH 081000
METAR VHHH 081000Z 22010KT 160V250 9999 FEW020 SCT030 32/25 
Q1006 NOSIG=
####018000090####
SPCN43 CWAO 080959
SPECI CYPY 080959Z AUTO 26003KT 170V270 9SM BKN001 10/10 A2992=

####018003711####
SAUS99 KWBC 081001
METAR
PADM 081001Z AUTO 06010KT 10SM OVC075 11/09 A3006 RMK AO2 TSNO
     T01110094 SLP168 $=
PAGA 080958Z AUTO 03004KT 10SM CLR 14/07 A3007 RMK AO2 SLP227
     T01440072=
PAIW 080957Z AUTO 00000KT 10SM CLR 08/06 A3018 RMK AO2 SLP316
     T00780056=
PAJZ 080956Z AUTO 00000KT 10SM FEW029 BKN041 OVC049 11/09 A3001
     RMK AO2 PWINO TSNO T01050094 OVC V BKN SLP152 $=
PAKI 080956Z AUTO 36004KT 10SM CLR 08/08 A3003 RMK AO2 PWINO TSNO
     T00770077 SLP169 $=
PALG 080956Z AUTO 00000KT 10SM FEW075 SCT110 10/09 A3001 RMK AO2
     TSNO T01000094 SLP166=
PARY 080956Z AUTO VRB04KT 10SM CLR 16/06 A3006 RMK AO2 PWINO TSNO
     T01550055 SLP182=
K29G 080954Z AUTO 00000KT 5SM SCT060 19/18 A3009 RMK AO2 T01930181
     PWINO=
K4I3 080956Z AUTO 00000KT 7SM SCT060 20/19 A3010 RMK AO2=
KACB 080955Z AUTO 00000KT 10SM OVC100 24/21 A2997 RMK AO2=
KACQ 080958Z AUTO 00000KT 3/4SM BR VV005 16/15 A3011 RMK AO2 VIS
     1/4V5=
KADC 080956Z AUTO 24006KT 10SM CLR 13/12 A3008 RMK AO2=
KAEL 080951Z AUTO 32003KT 10SM CLR 17/17 A3008 RMK AO2=
KANE 080955Z AUTO 00000KT 10SM 17/16 A3008 RMK AO2=
KAUM 080955Z AUTO 33004KT 7SM CLR 18/17 A3007 RMK AO2=
KAWG 080955Z AUTO 31005KT 4SM OVC003 21/20 A3005 RMK AO2=
KAXA 080955Z AUTO 00000KT 10SM CLR 17/16 A3011 RMK AO2=
KBAX 080955Z AUTO 00000KT 5SM BR CLR 21/20 A3000 RMK AO2=
KBDH 080955Z AUTO 24003KT 10SM CLR 15/14 A3013 RMK AO2=
KBNW 080955Z AUTO 33007KT 10SM CLR 20/17 A3010 RMK AO2=
KBTR 080953Z 06003KT 7SM SCT003 BKN200 24/23 A3000 RMK AO2 SLP157
     T02390228 $=
KCAD 080954Z AUTO 23004KT 10SM BKN110 22/20 A3003 RMK AO2=
KCAV 080955Z AUTO 31004KT 5SM CLR 19/18 A3010 RMK AO2=
KCBF 080955Z AUTO 36006KT 10SM CLR 20/15 A3013 RMK AO2=
KCBG 080955Z AUTO 00000KT 10SM CLR 16/14 A3008 RMK AO2=
KCCY 080955Z AUTO 33006KT 10SM CLR 20/17 A3007 RMK AO2=
KCFE 080954Z AUTO 00000KT 10SM CLR 17/16 A3010 RMK AO2
     T01710161=
KCFS 080955Z AUTO 00000KT 1 3/4SM BR VV007 20/20 A3002 RMK AO2=
KCIN 080955Z AUTO 34004KT 7SM CLR 18/15 A3013 RMK AO2=
KCKC 080955Z AUTO 31006KT 10SM CLR 15/13 A3003 RMK AO2=
KCKN 080955Z AUTO 23005KT 10SM CLR 13/11 A3005 RMK AO2=
KCNB 080957Z AUTO 25006KT 10SM CLR 16/13 A3013 RMK AO2
     T01610130=
KCNC 080955Z AUTO 34006KT 7SM CLR 21/18 A3007 RMK AO2=
KCOQ 080956Z AUTO 28006KT 10SM CLR 14/14 A3005 RMK AO2=
KCQM 080957Z AUTO 00000KT 10SM CLR 14/14 A3003 RMK AO2=
KCSQ 080955Z AUTO 03005KT 10SM SCT015 20/19 A3011 RMK AO2=
KCVH 080950Z AUTO 00000KT 10SM OVC010 13/11 A2992 RMK AO1=
KDAB 080953Z 00000KT 10SM FEW026 20/19 A2999 RMK AO2 SLP156
     T02000194 $=
KDEH 080955Z AUTO 00000KT 4SM SCT004 20/18 A3008 RMK AO2=
KDNS 080955Z AUTO 00000KT 10SM SCT031 20/16 A3016 RMK AO2=
KDRM 080956Z AUTO 15004KT 1/4SM FG OVC002 20/20 A2995 RMK AO2=
KDTL 080955Z AUTO 00000KT 10SM CLR 16/10 A3010 RMK AO2=
KDUH 080955Z AUTO 00000KT 10SM SCT070 22/18 A3005 RMK AO2=
KDXX 080954Z AUTO 00000KT 10SM CLR 14/14 A3011 RMK AO2=
KDYT 080954Z AUTO 18004KT 10SM CLR 19/16 A3004 RMK AO2=
KEFK 080956Z AUTO 19004KT 4SM BR CLR 20/19 A3006 RMK AO2=
KMPZ 080955Z AUTO 29006KT 4SM OVC002 22/21 A3004 RMK AO2=
KMRT 080953Z AUTO 00000KT 3SM CLR 21/19 A3011 RMK AO2
     T02050189=
KMUT 080955Z AUTO 00000KT 10SM OVC010 24/22 A3003 RMK AO2=
KMVE 080954Z AUTO 29004KT 10SM CLR 16/14 A3010 RMK AO2=
KMXO 080955Z AUTO 00000KT 3 1/2SM CLR 21/19 A3003 RMK AO2=
KNTU 080956Z 09009KT 10SM SCT005 BKN050 BKN100 25/24 A2996 RMK AO2
     SLP146 T02500239 $=
KOEB 080955Z AUTO 00000KT 7SM CLR 22/20 A3005 RMK AO2=
KONA 080951Z AUTO 30006KT 10SM SCT013 20/18 A3003 RMK AO2=
KORC 080955Z AUTO 33003KT 10SM CLR 16/16 A3015 RMK AO2=
####018003718####
SAUS99 KWBC 081001 RRA
METAR
KOVL 080954Z AUTO 30005KT 10SM CLR 13/12 A3011 RMK AO2
     T01320118=
KOXV 080955Z AUTO 33003KT 10SM CLR 21/20 A3007 RMK AO2=
KOZW 080955Z AUTO 00000KT 7SM CLR 23/21 A3004 RMK AO2=
KPBI 080953Z COR 04007KT 10SM SCT023TCU BKN040 BKN250 27/24 A2993
     RMK AO2 SLP134 TCU OHD NE E-SE CB DSNT SE T02720239=
KPEA 080955Z AUTO 34004KT 10SM CLR 20/20 A3007 RMK AO2=
KPEX 080953Z AUTO 26004KT 7SM CLR 12/12 A3011 RMK AO2
     T01210120=
KRDK 080955Z AUTO 36004KT 7SM SCT075 SCT090 21/18 A3011 RMK
     AO2=
KRGK 080955Z AUTO 27003KT 10SM CLR 19/17 A3006 RMK AO2=
KRNP 080955Z AUTO 26010KT 10SM SCT055 23/21 A3004 RMK AO2=
KROA 080954Z 00000KT 7SM CLR 24/18 A3008 RMK AO2 SLP168
     T02390183=
KROS 080955Z AUTO 26003KT 10SM CLR 15/14 A3007 RMK AO2
     T01500141=
KROX 080955Z AUTO 21005KT 10SM CLR 14/12 A3001 RMK AO2=
KRQB 080955Z AUTO 20003KT 10SM OVC090 22/21 A3003 RMK AO2=
KRRT 080954Z AUTO 24005KT 10SM CLR 14/12 A3001 RMK AO2=
KRYV 080955Z AUTO 25003KT 5SM BR SCT005 SCT095 22/21 A3001 RMK
     AO2=
KSAZ 080954Z AUTO 23003KT 10SM CLR 15/15 A3008 RMK AO2=
KSDA 080955Z AUTO 01005KT 7SM SCT005 21/19 A3011 RMK AO2=
KSGS 080953Z AUTO 00000KT 10SM CLR 19/16 A3008 RMK AO2
     T01870160=
KSHL 080955Z AUTO 00000KT 3SM CLR 15/14 A3016 RMK AO2=
KSYN 081010Z AUTO 00000KT 10SM CLR 17/16 A3007 RMK AO2
     T01720160=
KTEW 080953Z AUTO 29006KT 10SM CLR 22/20 A3005 RMK AO2=
KTKC 080953Z AUTO 26004KT 10SM CLR 16/13 A3014 RMK AO2
     T01580130=
KTNU 080955Z AUTO 33005KT 10SM CLR 21/18 A3008 RMK AO2=
KTOB 080955Z AUTO 00000KT 10SM CLR 18/16 A3008 RMK AO2=
KUKT 080950Z AUTO 00000KT 3SM CLR 20/20 A3004 RMK AO1=
KVLL 080954Z AUTO 00000KT 10SM CLR 25/21 A3005 RMK AO2=
KVTI 080955Z AUTO 00000KT 7SM CLR 20/20 A3005 RMK AO2=
KVVV 080956Z AUTO 29005KT 10SM CLR 17/14 A3011 RMK AO2=
KY70 080954Z AUTO 00000KT 4SM BR SCT046 BKN080 OVC110 23/22 A3003
     RMK AO2 P0001 T02260217=
KELO 080953Z AUTO 22003KT 10SM CLR 14/13 A3002 RMK AO2=
KEOK 080955Z AUTO 00000KT 3SM HZ BKN001 22/19 A3004 RMK AO2=
KEVM 080952Z AUTO 25003KT 7SM CLR 15/13 A3002 RMK AO1=
KFBL 080954Z AUTO 30003KT 10SM CLR 17/16 A3009 RMK AO2=
KFFL 080955Z AUTO 31004KT 10SM CLR 22/20 A3006 RMK AO2=
KFFX 080954Z AUTO 22003KT 5SM -RA BKN110 22/22 A3003 RMK AO2=
KFKA 081003Z AUTO 32006KT 10SM CLR 19/18 A3008 RMK AO2
     T01870181=
KFPK 080955Z AUTO 00000KT 5SM BR CLR 22/20 A3003 RMK AO2=
KFSE 080954Z AUTO 18005KT 10SM CLR 12/11 A3005 RMK AO2=
KFSO 080959Z AUTO 16003KT 4SM BR SCT060 OVC075 23/22 A3001 RMK
     AO2=
KFSW 080955Z AUTO 25003KT 10SM CLR 22/21 A3004 RMK AO2=
KFXY 080955Z AUTO 30003KT 10SM CLR 17/16 A3010 RMK AO2=
KGGI 080955Z AUTO 30004KT 10SM CLR 21/19 A3008 RMK AO2=
KGYL 080955Z AUTO 00000KT 10SM CLR 15/14 A3010 RMK AO2
     T01500141=
KHAF 080950Z AUTO 00000KT 10SM OVC006 12/10 A2994 RMK AO2=
KHAI 080954Z AUTO 00000KT 5SM BR SCT060 SCT075 21/21 A3005 RMK
     AO2=
KHCD 080952Z AUTO 26004KT 5SM BR CLR 14/13 A3011 RMK AO2
     T01380130=
KHCO 080954Z AUTO 19004KT 10SM SCT120 12/12 A3004 RMK AO2=
KHNR 080955Z AUTO 00000KT 5SM CLR 18/17 A3015 RMK AO2=
KHZX 080951Z AUTO 00000KT 10SM CLR 13/13 A3007 RMK AO2=
KI75 080955Z AUTO 34006KT 7SM BKN021 BKN031 OVC039 20/20 A3008 RMK
     AO2=
KICL 080955Z AUTO 01004KT 10SM CLR 21/18 A3010 RMK AO2=
KIFA 080955Z AUTO 32005KT 10SM SCT110 20/19 A3009 RMK AO2=
KIIB 080955Z AUTO 32003KT 10SM CLR 20/19 A3005 RMK AO1=
KIKV 080955Z AUTO 36004KT 10SM CLR 21/18 A3008 RMK AO2=
KIKW 080954Z AUTO 27004KT 10SM SCT060 SCT090 OVC110 23/21 A3002
     RMK AO2 T02310212=
KIRS 080955Z AUTO 00000KT 7SM CLR 22/19 A3004 RMK AO2=
####018000961####
SAUS99 KWBC 081001 RRB
METAR
KJKJ 080954Z AUTO 00000KT 10SM CLR 15/14 A3006 RMK AO2=
KJMR 080958Z AUTO 28003KT 10SM CLR 15/13 A3009 RMK AO2=
KJYG 080955Z AUTO 00000KT 10SM CLR 16/16 A3013 RMK AO2=
KJYM 080955Z AUTO 00000KT 7SM CLR 21/18 A3006 RMK AO2=
KLJF 080952Z AUTO 27003KT 10SM CLR 17/16 A3011 RMK AO2=
KLND 080953Z AUTO 21003KT 10SM CLR 11/03 A3033 RMK AO2 SLP224
     T01060028=
KLRJ 080955Z AUTO 00000KT 2 1/2SM CLR 15/15 A3015 RMK AO2=
KLVN 080949Z AUTO 00000KT 10SM CLR 16/16 A3008 RMK AO2=
KLWA 080956Z AUTO 00000KT 10SM CLR 23/21 A3003 RMK AO2=
KLXL 080955Z AUTO 00000KT 1/4SM FG VV002 12/11 A3008 RMK AO2=
KLYV 080958Z AUTO 00000KT 10SM CLR 14/13 A3016 RMK AO2=
KMDS 080945Z AUTO 29005KT 10SM CLR 15/15 A3017 RMK AO2=
KMGN 080955Z AUTO 00000KT 10SM BKN110 21/20 A2996 RMK AO2=
KMJQ 080952Z AUTO 29004KT 7SM CLR 15/14 A3014 RMK AO2=
KMOP 080954Z AUTO 24005KT 10SM SCT075 BKN090 OVC110 23/22 A3002
     RMK AO2=
####018000531####
SPUS99 KWBC 081001
SPECI
KBDL 080958Z 13004KT 5SM HZ BKN012 BKN100 24/21 A3005 RMK AO2=
KGNV 080958Z AUTO 00000KT 1 3/4SM BR CLR 19/18 A3000 RMK AO2=
KTXK 080958Z AUTO 00000KT 1 3/4SM BR BKN003 23/23 A3004 RMK
     AO2=
KUCP 080959Z AUTO 00000KT M1/4SM FG FEW001 BKN065 18/18 A3010 RMK
     AO2 $=
KARB 080959Z AUTO 00000KT 2SM BR CLR 19/18 A3004 RMK AO2=
KBGD 080959Z AUTO 34006KT 10SM FEW020 BKN055 OVC080 19/18 A3019
     RMK AO2=
KEKN 080959Z AUTO 00000KT 2SM BR BKN070 17/16 A3016 RMK AO2
     TSNO=
####018000074####
SABZ18 SBSJ 081000
METAR SBSJ 081000Z 00000KT 9000 SCT012 10/09 Q1021=
####018000068####
SABZ24 SBCR 081000
METAR SBCR 081000Z 15008KT CAVOK 23/13 Q1013=
####018000068####
SABZ18 SBGR 081000
METAR SBGR 081000Z 08001KT CAVOK 10/09 Q1021=
####018000068####
SABZ21 SBAR 081000
METAR SBAR 081000Z 23005KT CAVOK 23/23 Q1017=
####018000071####
SABZ18 SBKP 081000
METAR SBKP 081000Z 09005KT 8000 NSC 10/08 Q1021=
####018000081####
SABZ21 SBFN 081000
METAR SBFN 081000Z 12008KT 9999 SCT017 SCT100 27/23 Q1014=
####018000081####
SABZ20 SBEG 081000
METAR SBEG 081000Z 00000KT 9999 FEW010 SCT100 25/22 Q1012=
####018000102####
SABZ21 SBSV 081000
METAR SBSV 081000Z 25006KT 9999 4500NW -SHRA BKN011 SCT017 BKN070
23/21 Q1018=
####018000068####
SABZ19 SBCJ 081000
METAR SBCJ 081000Z 00000KT CAVOK 19/16 Q1017=
####018000068####
SABZ18 SBSP 081000
METAR SBSP 081000Z 31004KT CAVOK 16/09 Q1021=
####018000081####
SABZ20 SBMN 081000
METAR SBMN 081000Z 07005KT 9999 FEW010 BKN100 26/24 Q1012=
####018000084####
SAMD90 KWBC 081000
METAR KCGS 081005Z AUTO 00000KT 5SM CLR 25/23 A3001 RMK AO1=
####018000084####
SAMD90 KWBC 081000
METAR KCBE 081000Z AUTO 00000KT 5SM CLR 20/18 A3011 RMK AO1=
####018000088####
SAMD90 KWBC 081000
METAR K2G4 081000Z AUTO 00000KT 10SM SCT065 22/13 A3019 RMK AO1=
####018000099####
SPNT31 KWBC 081001
SPECI
BGTL 080957Z AUTO 24003KT 1200 BR VV001 04/04 A2984 RMK AO2 SLP109=
####018000101####
SASG20 GOOY 081000
METAR GOOY 081000Z 16006KT 130V210 9999 SCT013 SCT230 29/24 Q1012
NOSIG=

####018000079####
SAUK38 EGGY 080950 RRB
METAR EGPU 080950Z 23020KT 9999 SCT021 15/12 Q1009=
####018000081####
SALC31 TLPL 081000
METAR TLPC 081000Z 08007KT 9999 FEW018CB SCT027 28/25 Q1013=####018000086####
SAUK37 EGGY 080950 RRA
METAR EGPI 080950Z 22012KT 9999 FEW020 SCT038 14/10 Q1013=
####018000100####
SARM31 LUKK 081000
METAR LUKK 081000Z 33007KT 280V360 9999 SCT026 23/16 Q1015
26CLRD65 NOSIG=
####018000399####
SATU32 LTAA 080950
METAR LTAN 080950Z 28003KT 9999 FEW040 30/14 Q1011 NOSIG=
METAR LTAU 080950Z VRB03KT 9999 FEW040 31/13 Q1011 NOSIG=
METAR LTBR 080950Z 33011KT 9999 SCT035 BKN100 28/16 Q1011 NOSIG=
METAR LTBU 080950Z 33012KT 9999 SCT030 BKN100 21/11 Q1014=
METAR LTCC 080950Z 16008KT 100V190 CAVOK 40/03 Q1006 NOSIG=
METAR LTCE 080950Z 03005KT 300V080 9999 SCT030 30/10 Q1017 NOSIG=
####018000392####
SABU31 LBSM 081000
METAR LBSF 081000Z 29006MPS 9999 BKN036 18/12 Q1018 NOSIG=
METAR LBWN 081000Z 27005MPS 230V300 9999 BKN024 20/15 Q1014
 NOSIG=
METAR LBBG 081000Z 30006MPS 9999 SCT025 BKN076 OVC096 18/14
 Q1015 NOSIG=
METAR LBPD 081000Z 26005MPS 9999 -RA SCT035 SCT050 OVC060 16/14
 Q1017 NOSIG=
METAR LBGO 081000Z 00000MPS 5000 SHRA SCT033CB OVC040 15/14
 Q1018 NOSIG=
####018000091####
SAPK31 OPKC 081000 RRA
METAR OPPS 080955Z SE-12KT 6000 HZ FEW040 FEW100 39/24 Q1004.0=
####018000944####
SATU31 LTAA 080950
METAR LTAC 080950Z 06012KT 9999 SCT040 28/15 Q1012 NOSIG=
METAR LTAF 080950Z /////KT 9999 SCT035 BKN100 30/21 Q1008 NOSIG=
METAR LTAI 080950Z 16007KT 120V200 9999 SCT030 29/22 Q1008 NOSIG=
METAR LTAJ 080950Z 23010KT CAVOK 36/11 Q1008 NOSIG=
METAR LTAZ 080950Z 07007KT 010V160 9999 FEW040 32/13 Q1011=
METAR LTBA 080950Z 36022KT 9999 BKN035 24/14 Q1012 NOSIG=
METAR LTBJ 080950Z 34018KT CAVOK 30/12 Q1010 NOSIG=
METAR LTBS 080950Z 21012KT 180V240 9999 FEW030 30/21 Q1008 NOSIG=
METAR LTCF 080950Z VRB06G16KT 080V260 9999 SCT035 30/11 Q1019=
METAR LTCG 080950Z 08007KT 9999 SCT035 27/21 Q1011 NOSIG=
METAR LTCI 080950Z 24004KT 170V320 CAVOK 26/15 Q1016 NOSIG=
METAR LTCS 080950Z 11007KT 060V180 CAVOK 37/02 Q1010=
METAR LTFE 080950Z 26019KT 9999 FEW035 33/15 Q1008 NOSIG=
METAR LTFH 080950Z 36003KT 9999 SCT036 BKN100 27/23 Q1011 NOSIG=
METAR LTFJ 080950Z 01017KT 9999 BKN030 23/16 Q1012 NOSIG=
####018000087####
SAUK38 EGGY 080950 RRA
METAR EGEC 080950Z 22014KT 180V250 9999 FEW023 16/10 Q1013=
####018001582####
SATU20 LTAA 080950
METAR LTAB 080950Z 05011KT 010V090 9999 SCT040 30/15 Q1011 TEMPO
FM1100 -TSRA RMK RWY06 07008KT 030V120=
METAR LTAD 080950Z 08007KT 020V160 9999 FEW040 SCT100 30/16 Q1011 
NOSIG RMK RWY29 08007KT 030V130=
METAR LTAE 080950Z 05005KT 9999 FEW040 31/16 Q1011 NOSIG RMK RWY21 
03008KT=
METAR LTAG 080950Z 22008KT 9999 BKN035 30/21 Q1008 NOSIG=
METAR LTAH 080950Z VRB05KT 9999 SCT040 29/11 Q1012  RMK RWY13 
VRB05KT=
METAR LTAN 080950Z 28003KT 9999 FEW040 30/14 Q1011 NOSIG RMK RWY19 
36008KT=
METAR LTAP 080950Z 02016KT 9999 SCT040 BKN100 29/18 Q1010 NOSIG RMK 
RWY23 03017KT=
METAR LTAT 080950Z 06006KT 9999 FEW040 36/07 Q1009 NOSIG RMK RWY03 
07006KT=
METAR LTAU 080950Z VRB03KT 9999 FEW040 31/13 Q1011 NOSIG RMK RWY07 
26005KT 190V350=
METAR LTBF 080950Z NIL=
METAR LTBG 080950Z 35014KT 320V020 9999 SCT035 BKN100 22/14 Q1012 
NOSIG RMK RWY18 35018KT=
METAR LTBI 080950Z VRB01KT 9999 SCT035 28/12 Q1011 NOSIG RMK RWY09 
29007KT 240V330=
METAR LTBL 080950Z 31012G22KT 270V350 CAVOK 29/17 Q1010 NOSIG RMK 
RWY17 34016KT 320V030=
METAR LTBQ 080950Z 02008KT 350V050 9999 FEW020CB SCT030 27/19 Q1011 
TEMPO 33012KT RMK RWY09 01008KT=
METAR LTBR 080950Z 33011KT 9999 SCT035 BKN100 28/16 Q1011 NOSIG RMK 
RWY07 32009KT=
METAR LTBU 080950Z 33012KT 9999 SCT030 BKN100 21/11 Q1014 RMK RWY23 
32012KT=
METAR LTCC 080950Z 16008KT 100V190 CAVOK 40/03 Q1006 NOSIG RMK RWY16 
VRB05KT=
METAR LTCE 080950Z 03005KT 300V080 9999 SCT030 30/10 Q1017 NOSIG RMK 
RWY08R VRB05KT RWY26R 02004KT 340V090 RWY08L 06006KT=
####018000079####
SALY31 HLLS 081000
METAR HLLS 080955Z 
O9O12KT  CAVOK  35/11 Q1O17 NOSIG=
####018000101####
SAAJ31 UBBB 081000
UBBN 081000Z 14006KT 9999 NSC 37/10 Q1009 R14R/CLRD60 NOSIG
RMK G/O QFE683=
####018000448####
SARH31 LDZM 081000
METAR LDSP 081000Z 13004KT 030V200 CAVOK 28/06 Q1020 NOSIG =
METAR LDPL 081000Z 10006KT 050V170 CAVOK 26/09 Q1022 NOSIG =
METAR LDDU 081000Z VRB10KT 9999 FEW043 26/06 Q1019 NOSIG =
METAR LDZA 081000Z 36008KT CAVOK 24/07 Q1023 NOSIG =
METAR LDZD 081000Z 24010KT 190V320 CAVOK 26/05 Q1021 NOSIG =
METAR LDRI 081000Z 28006KT 220V020 CAVOK 24/10 Q1022 NOSIG=
METAR LDOS 081000Z VRB03KT 9999 FEW033 23/08 Q1022 NOSIG=
####018000133####
SAHW40 PHFO 081001
MTRBKH
METAR PHBK 080956Z AUTO 00000KT 10SM FEW050 24/18 A3003 RMK AO2 
SLP171 T02440178 403000217 TSNO $
####018000112####
SAIV20 DIAP 081000
METAR DIAP 081000Z 22004KT 180V270 7000 SCT012 BKN080 27/25 Q1016
TEMPO BKN012 BKN070=
####018000108####
SAMR20 TFFF 081000
METAR TFFF 081000Z AUTO 07012KT 9999NDV BKN011/// BKN024///
BKN086/// 28/24 Q1013=
####018000028####
SATU33 LTAA 080950
NIL=
####018000394####
SATU32 LTAA 080950
METAR LTAN 080950Z 28003KT 9999 FEW040 30/14 Q1011 NOSIG=
METAR LTAU 080950Z VRB03KT 9999 FEW040 31/13 Q1011 NOSIG=
METAR LTBR 080950Z 33011KT 9999 SCT035 BKN100 28/16 Q1011 NOSIG=
METAR LTBU 080950Z 33012KT 9999 SCT030 BKN100 21/11 Q1014=
METAR LTCC 080950Z 16008KT 100V190 CAVOK 40/03 Q1006 NOSIG=
METAR LTCE 080950Z 03005KT 300V080 9999 SCT030 30/10 Q1017 NOSIG=
####018001514####
SAUS17 KAWN 081000 RRD
METAR KADW 080955Z 06004KT 8SM CLR 25/23 A3001 RMK AO2A SLP161 T02450230
      $=
METAR KCVS 080955Z 05007KT 10SM BKN110 17/15 A3020 RMK AO2A SLP184
      T01700150 $=
METAR KDMA 080955Z AUTO 19003KT 10SM BKN150 BKN170 30/09 A2988 RMK
      AO2 CIG 120 RWY30 SLP039 T02950090 $=
METAR KFAF 080955Z 00000KT 6SM BR FEW095 BKN150 25/25 A2997 RMK AO2A
      SLP149 T02520252=
METAR KFMH 080955Z AUTO 16006KT 6SM BR OVC003 21/20 A3010 RMK AO2=
METAR KHLR 080956Z AUTO 06003KT 10SM BKN015 BKN021 OVC032 25/ A2999
      RMK AO2 SLP145 T0250 $=
METAR KHOP 080955Z AUTO 00000KT 10SM CLR 24/22 A3007 RMK AO2 SLP176
      T02380222=
METAR KHRT 080955Z AUTO 00000KT 3SM R18/3000V5000FT BR CLR 23/23 A3001
      RMK AO2 SLP164 T02320232 $=
METAR KLUF 080955Z 22004KT 10SM CLR 30/04 A2976 RMK AO2A SLP044 T02980037
      $=
METAR KNBC 080956Z 24003KT 7SM FEW250 23/19 A2997 RMK AO2 SLP150 T02330194=
METAR KNBG 080955Z AUTO 04003KT 5SM HZ FEW017 A3001 RMK AO2 SLP163
      PWINO FZRANO $=
METAR KNCA 080956Z AUTO 03004KT 9SM CLR 25/20 A2992 RMK AO2 SLP132
      T02500200=
METAR KNJK 080956Z AUTO 16006KT 10SM CLR 23/13 A2969 RMK AO2 SLP068
      T02330133 TSNO=
METAR KNRS 080956Z AUTO 30008KT 10SM OVC014 17/14 A2990 RMK AO2 SLP123
      T01670139 TSNO $=
METAR KNUQ 080956Z AUTO 36008KT 10SM OVC013 15/12 A2992 RMK AO2 SLP134
      T01500122 TSNO=
METAR PPIZ 080956Z AUTO 20010KT 10SM CLR 07/02 A3010 RMK AO2 TSNO T00660016
      SLP197 $=
####018000892####
SAUS20 KNKA 081001
SPECI KALI 081000Z AUTO 02005KT 4SM -RA BR BKN024 BKN075 OVC090 
    25/25 A2984 RMK AO2 P0000=
METAR KASJ 080957Z AUTO 00000KT 2 1/2SM HZ CLR 24/21 A2997 RMK AO2=
METAR KBWD 080955Z AUTO 08003KT 10SM BKN016 23/22 A3001 RMK AO2 =
SPECI KCXO 081000Z 00000KT 7SM SCT007 24/23 A2994 RMK AO2=
METAR KEBS 080955Z AUTO 34004KT 5SM CLR 18/17 A3010 RMK AO2=
SPECI KHRT 080953Z AUTO 00000KT 4SM R18/3000V5500FT BR CLR 23/23 A3001
      RMK AO2 SLP164 $=
METAR KNFG 080956Z AUTO 00000KT 10SM OVC013 16/13 A2989 RMK AO2 SLP122
      T01610133 TSNO=
METAR KNMM 080956Z AUTO 00000KT 10SM CLR 24/22 A3005 RMK AO2 SLP181
      T02390217 $=
METAR KNXX 080956Z AUTO 00000KT 3SM HZ CLR 23/20 A3004 RMK AO2 SLP174
      T02330200 $=
METAR KO22 080955Z AUTO 00000KT 10SM CLR 16/12 A2991 RMK AO1 =
METAR KTVK 080955Z AUTO 00000KT 10SM CLR 20/20 A3008 RMK AO2=
####018000124####
SAUS41 KAKQ 081001 COR
MTRRIC
METAR KRIC 080954Z 00000KT 6SM HZ SCT150 SCT250 24/21 A2999 RMK AO2 
SLP158 T02440206
####018000075####
SAAT31 TKPK 081000
METAR TKPK 081000Z 04011KT 9999 FEW017 27/25 Q1015=
####018000080####
SANC01 NWWM 081000
METAR NWWM 081000Z AUTO 34003KT 9999NDV NCD 18/16 Q1016=
####018000080####
SANC01 NWWW 081000
METAR NWWW 081000Z AUTO 13003KT 9999NDV NCD 17/16 Q1016=
####018000069####
SABZ24 SBCG 081000
METAR SBCG 081000Z 08009KT CAVOK 15/08 Q1016=
####018000116####
SAEU KAWN 080900 RRX
METAR ENGM 080942Z 21010KT 9999 -RA FEW011 SCT013 BKN066 17/14 Q1015
      TEMPO BKN013=
####018001533####
SAXN17 KAWN 081000 RRB
METAR MDSD 081000Z VRB03KT 9999 FEW018 24/22 Q1014=
METAR MHLC 081000Z 22002KT 9999 FEW026 SCT200 25/24 Q1009 A2980 NOSIG=
METAR MMHO 080945Z 00000KT 10SM BKN080 28/15 A2979 RMK 8/050 HZY=
METAR MMLO 080945Z 16004KT 7SM BKN025 OVC200 18/18 A3009 RMK 60085
      8/77/ OCNL DROPS -DZ E14=
METAR MMMZ 080951Z 00000KT 10SM SCT070 OVC200 26/22 A2975 RMK 8/077=
METAR MMTJ 080947Z 00000KT 5SM OVC013 16/14 A2993 RMK 8/5// HZY=
METAR MUGM 080956Z 35005KT 9999 FEW040 26/22 A2995 RMK SLP140 T02560222=
METAR MYNN 081000Z 00000KT 9999 FEW012CB FEW015TCU 27/27 A2993=
METAR PACZ 080955Z AUTO 03008KT 10SM 10/09 A3007 RMK AO1 T01000095=
METAR PAEH 080955Z AUTO 00000KT 10SM BKN016 09/M29 A3000 RMK AO1 T00891288=
METAR PASY 080956Z AUTO 02016KT 10SM OVC006 A2974 RMK AO2 CIG 004V010
      SLPNO TSNO PNO=
METAR PGUA 080955Z AUTO 08015KT 10SM BKN017 27/ A2990 RMK AO2 CIG 015V021
      SLP106 T0270 VISNO RWY24L $=
METAR RJOI 081000Z VRB03KT 9000 HZ FEW120 BKN230 27/23 A2980 RMK SLP089
      T02720228=
METAR RJTY 080955Z AUTO 18010KT 9999 CLR 26/22 A2987 RMK AO2 SLP107
      T02550215 $=
METAR RKSO 080955Z AUTO 26005KT 9999 CLR 25/24 A2977 RMK AO2 SLP083
      T02540242 $=
METAR SVMI 081000Z 05002KT 8000 TSDZ FEW013 BKN016 25/25 Q1013=
METAR TAPA 081000Z COR 07011KT 9999 FEW020 28/24 Q1015=
METAR TBPB 081000Z 08016KT 9999 SHRA BKN014 BKN280 28/24 Q1013 NOSIG=
METAR TXKF 080955Z 17014KT 9999 FEW013TCU SCT060 BKN170 BKN300 25/23
      Q1018 RMK TCU DSNT N /=
####018000907####
SAXX70 KAWN 081000 RRF
METAR KQFT 080950Z AUTO 00000KT 5SM BR FEW034 26/20 A2981 RMK A02=
METAR KQAJ 080955Z 27009G15KT 9999 CLR 41/05 A2972 RMK SLP049 WND DATA
      ESTMD ALSTG/SLP ESTMD=
METAR KQQY 080955Z AUTO 00000KT 9999 SCT120 BKN130 BKN150 22/21 A2997
      RMK AO2 SLP133 T02220208 $=
METAR KQTO 080955Z 32018G23KT 9999 CLR 46/04 A2961 RMK SLP025=
METAR KQW3 080955Z AUTO 12008G13KT 9999 FEW090 SCT160 36/14 A2979 RMK
      AO2 SLP994=
METAR KQXF 080956Z AUTO 31011KT 8000 CLR 45/M03 A2961 RMK AO2 SLP016
      T04481034 $=
METAR KQEN 081000Z AUTO 26008KT 7SM FEW070 21/16 A3040 RMK A02=
METAR KQEP 081000Z AUTO 18001KT 7SM CLR 27/18 A2985 RMK A02=
METAR KQES 081000Z AUTO 06005KT 5SM BR SCT045 BKN120 23/20 A2982 RMK
      A02=
METAR KQEY 081000Z AUTO 31004KT 7SM BKN110 27/17 A2958 RMK A02=
METAR KQEV 081010Z AUTO 24002KT 7SM FEW090 SCT100 27/19 A2978 RMK A02=
####018000123####
SAUS44 KMOB 081001 COR
MTR79J
METAR K79J 080956Z AUTO 00000KT 9SM CLR 24/21 A3002 RMK AO2 SLP159 
T02390211 TSNO $
####018000119####
SAUS41 KGYX 081001
MTRMWN
METAR KMWN 080956Z 11002KT 5SM HZ SCT000 SCT003 SCT020 SCT045 16/14
RMK HZ SCT000

####018000081####
SADL34 EDZO 080950 RRA
METAR EDAH 080950Z 15005KT 110V180 CAVOK 22/11 Q1022=
####018000097####
SAUZ31 UTTW 080930
METAR UTNU 080930Z 24002MPS 200V290 CAVOK 42/10 Q1008 R13/CLRD60
NOSIG=
####018000359####
SASD31 OEJD 081000
METAR OEDF 081000Z 01016KT CAVOK 45/04 Q0999 NOSIG=
METAR OEDR 081000Z 04012KT 8000 SKC 44/09 Q0998 NOSIG=
METAR OEJN 081000Z 34012KT CAVOK 38/25 Q1001 NOSIG=
METAR OEMA 081000Z NIL=
METAR OERK 081000Z 02016KT 8000 SKC 42/M01 Q1007 NOSIG=
METAR OERY 081000Z 03015G25KT 5000 SA SKC 43/01 Q1008 NOSIG=
METAR OYSN 081000Z NIL=
####018000091####
SAAJ31 UBBB 081000
METAR UBBL 081000Z 14007KT 9999 NSC 34/16 Q1011 NOSIG RMK G/O SC07=
####018000092####
SAPF20 NTAA 081000
METAR NTAA 081000Z 07003KT 9999 FEW023 26/21 Q1015 WS ALL RWY NOSIG=
####018000115####
SARA31 UHHH 081000
METAR 081000Z
METAR METAR UHHH 081000Z 04004MPS 9999 SCT032CB OVC100 17/14 Q1010
NOSIG=
####018001846####
SAEU KAWN 081000 RRI
METAR EGAE 080950Z 23013KT 9999 FEW018 SCT040 16/10 Q1012=
METAR EGBJ 080950Z 21006KT 160V260 9999 FEW028 20/10 Q1018=
METAR EGEC 080950Z 22014KT 180V250 9999 FEW023 16/10 Q1013=
METAR EGNC 080950Z 24015KT 9999 SHRA FEW015 SCT025 SCT045 16/11 Q1015=
METAR EGNH 080950Z 24013KT 9999 SCT021 17/11 Q1017=
METAR EGNJ 080950Z 21010KT 180V240 9999 FEW018 19/12 Q1017=
METAR EGPA 080950Z 20016KT 9999 VCSH FEW027 SCT048 17/11 Q1007=
METAR EGPC 080950Z 20015G25KT 9999 FEW020 16/10 Q1008=
METAR EGPE 080950Z 22018KT 9999 FEW015 SCT034 17/10 Q1008=
METAR EGPL 080950Z 22021KT 9999 FEW018TCU 15/11 Q1007=
METAR EGPM 080950Z 22021KT 9999 FEW014 SCT035 16/10 Q1005=
METAR EGPN 080950Z 23015KT 9999 FEW028 SCT045 16/12 Q1012=
METAR EGPO 080950Z 21020KT 9999 -SHRA FEW014CB SCT030 14/11 Q1005=
METAR EGPU 080950Z 23020KT 9999 SCT021 15/12 Q1009=
METAR EGSC 080950Z 22005KT 130V290 9000 FEW020 SCT030 19/14 Q1018=
METAR COR EGSH 080950Z 25005KT 220V300 4000 -RA FEW004 SCT007 BKN013
      19/17 Q1019 BECMG 9999 NSW SCT030=
METAR EGXJ 080952Z 26010KT 9999 FEW030 SCT100 BKN250 18/10 Q1018 BLU=
METAR ENBL 080950Z 20015KT 9999 SCT040 SCT070 15/07 Q1010=
METAR LBSF 081000Z 29006MPS 9999 BKN036 18/12 Q1018 NOSIG=
METAR LDDU 081000Z VRB10KT 9999 FEW043 26/06 Q1019 NOSIG=
METAR LDPL 081000Z 10006KT 050V170 CAVOK 26/09 Q1022 NOSIG=
METAR LDRI 081000Z 28006KT 220V020 CAVOK 24/10 Q1022 NOSIG=
METAR LDSP 081000Z 13004KT 030V200 CAVOK 28/06 Q1020 NOSIG=
METAR LDZA 081000Z 36008KT CAVOK 24/07 Q1023 NOSIG=
METAR LDZD 081000Z 24010KT 190V320 CAVOK 26/05 Q1021 NOSIG=
METAR LGLR 080950Z 35006KT 9999 FEW030 SCT080 27/09 Q1015 NOSIG BLU=
METAR LGPZ 080950Z 26015KT 9999 FEW025 28/19 Q1013 NOSIG BLU=
METAR LIYW 080955Z AUTO 18006KT 9999 CLR 25/14 A3020 RMK AO2 SLP225
      T02480138=
####018001266####
SAUS20 KNKA 081001
SPECI KAKO 081000Z AUTO 15006KT 6SM BR FEW014 OVC031 14/14 A3031 RMK 
    AO2 TSNO=
SPECI KASE 081000Z 16016G27KT 10SM SCT090 10/06 A3038 RMK AO2 WSHFT 
    0940=
SPECI KBDR 081000Z AUTO 07006KT 1 1/2SM BR OVC002 24/23 A3004 RMK 
    AO2=
METAR KDMA 080955Z AUTO 19003KT 10SM BKN150 BKN170 30/09 A2988 RMK
      AO2 CIG 120 RWY30 SLP039 T02950090 $=
METAR KFAF 080955Z 00000KT 6SM BR FEW095 BKN150 25/25 A2997 RMK AO2A
      SLP149 T02520252=
SPECI KHAO 081000Z AUTO 00000KT 1/2SM FG VV001 21/19 A3008 RMK AO2=
METAR KHRT 080955Z AUTO 00000KT 3SM R18/3000V5000FT BR CLR 23/23 A3001
      RMK AO2 SLP164 T02320232 $=
METAR KLUF 080955Z 22004KT 10SM CLR 30/04 A2976 RMK AO2A SLP044 T02980037
      $=
METAR KNBG 080955Z AUTO 04003KT 5SM HZ FEW017 A3001 RMK AO2 SLP163
      PWINO FZRANO $=
METAR KNCA 080956Z AUTO 03004KT 9SM CLR 25/20 A2992 RMK AO2 SLP132
      T02500200=
SPECI KPKB 081000Z AUTO 00000KT 1/4SM FG VV001 19/19 A3011 RMK AO2 
    TSNO RVRNO=
SPECI KRBD 081001Z 11003KT 10SM BKN009 BKN012 25/23 A3000 RMK AO2 
    CIG 006V012=
SPECI KSTJ 081000Z AUTO 00000KT 6SM BR BKN005 BKN065 23/21 A3006 RMK 
    AO2 RAE0954=
SPECI KTTN 081000Z 00000KT 2 1/2SM BR FEW005 23/21 A3002 RMK AO2=
####018000114####
SAAK41 KNKA 081001
SPECI PAPN 081000Z AUTO 05004KT 1 1/4SM BR OVC060 06/05 A2994 RMK 
    AO2 PWINO TSNO $=
####018000114####
SAUS42 KRAH 081001
MTRNJM
METAR KNJM 080957Z AUTO 36003KT 8SM CLR 26/22 A2992 RMK AO2 SLP134 
T02560217 $
####018000130####
SPCN47 CWAO 081001
SPECI CYTZ 081001Z AUTO VRB02KT 1 1/4SM BR SCT003 19/18 A3002 RMK
 SLP165 DENSITY ALT 600FT RVR MISG=

####018000105####
SAUS41 KLWX 081001
MTRNHK
SPECI KNHK 081000Z AUTO 09004KT 2 1/2SM BR SCT009 26/24 A2999 RMK 
AO2
####018000119####
SAUS44 KMAF 081001 COR
MTR6R6
METAR K6R6 080953Z AUTO 01004KT 22/21 A3000 RMK AO2 SLP123 T02220206 
PWINO TSNO
####018000163####
SAUS90 KWBC 081002
METAR KESN 081003Z AUTO 00000KT 1 1/2SM BR VV007 22/22 A3004 RMK
     AO2=
METAR KCGS 081005Z AUTO 00000KT 5SM CLR 25/23 A3001 RMK AO1=
####018000313####
SAUS90 KWBC 081000 CCB
METAR KRIC 080954Z 00000KT 6SM HZ SCT150 SCT250 24/21 A2999 RMK
     AO2 SLP158 T02440206=
METAR K6R6 080953Z AUTO 01004KT 22/21 A3000 RMK AO2 SLP123
     T02220206 PWINO TSNO=
METAR KWAL 080954Z AUTO 11005KT 10SM SCT090 BKN110 24/22 A2999 RMK
     AO2 SLP154 T02440222 TSNO=
####018000055####
SAUS90 KWBC 080900 RRJ
METAR K8S0 080855Z 27005KT=
####018002936####
SAUS90 KWBC 081000 RRB
METAR KEUF 080958Z AUTO 00000KT 10SM BKN070 22/19 A3001 RMK AO2
     SLP158 T02170194 PNO $=
METAR K2W6 080959Z AUTO 00000KT 3SM 24/24 A3001 RMK AO1 SKY
     OBSCURED=
METAR KFDK 080956Z AUTO 00000KT 7SM SCT100 24/21 A3004 RMK AO2=
METAR KDMW 080958Z AUTO 00000KT 7SM CLR 24/21 A3005 RMK AO2=
METAR KW29 081000Z AUTO 11003KT 2SM CLR 23/23 A3001 RMK AO1=
METAR KFME 081000Z AUTO 00000KT 3SM CLR 20/20 A3003 RMK AO1=
METAR KCGE 080957Z AUTO 00000KT 1 1/2SM SCT065 BKN070 BKN090 23/23
     A3001 RMK AO1=
METAR KCBE 081000Z AUTO 00000KT 5SM CLR 20/18 A3011 RMK AO1=
METAR K2G4 081000Z AUTO 00000KT 10SM SCT065 22/13 A3019 RMK
     AO1=
METAR KCVX 080955Z AUTO 20005KT 10SM BKN110 21/20 A2998 RMK
     AO2=
METAR KFKS 080955Z AUTO 00000KT 10SM BKN100 BKN120 22/20 A2997 RMK
     AO2=
METAR KSLH 080955Z AUTO 00000KT 10SM BKN110 21/21 A2995 RMK
     AO2=
METAR KSJX 080955Z AUTO 24009KT 4SM -RA BKN002 OVC014 20/19 A2996
     RMK AO2=
METAR KLDM 080955Z AUTO 18006KT 10SM -DZ BKN080 24/22 A3000 RMK
     AO2=
METAR KSAW 080958Z AUTO 00000KT 7SM BKN001 18/17 A2997 RMK AO2=
METAR KGOV 080955Z AUTO 00000KT 10SM -RA BKN100 22/22 A3001 RMK
     AO2=
METAR KPZQ 080955Z AUTO 20005KT 10SM SCT120 22/22 A2998 RMK
     AO2=
METAR KHYX 080955Z AUTO 00000KT 10SM CLR 22/20 A3001 RMK AO2=
METAR KPHN 080955Z AUTO 00000KT M1/4SM FG VV000 19/18 A3003 RMK
     AO2=
METAR KONZ 080957Z AUTO 00000KT 10SM CLR 24/20 A3002 RMK AO2=
METAR KISQ 080955Z AUTO 29005KT 5SM BR BKN004 BKN008 20/18 A2996
     RMK AO2=
METAR KRMY 080955Z AUTO 00000KT 7SM CLR 21/19 A3005 RMK AO2=
METAR KOSC 080954Z AUTO 21003KT 7SM CLR 20/18 A3000 RMK AO2=
METAR KTTF 080954Z AUTO 00000KT 10SM BKN075 22/21 A3003 RMK
     AO2=
METAR KAMN 080955Z AUTO 00000KT 5SM -RA SCT017 BKN070 OVC085 23/22
     A3003 RMK AO2=
METAR KMCD 080956Z AUTO 00000KT 10SM SCT120 21/18 A2997 RMK
     AO2=
METAR KERY 080955Z AUTO 24005KT 5SM -RA BKN007 OVC010 19/19 A2997
     RMK AO2=
METAR KDVP 080956Z AUTO 28003KT 10SM CLR 15/13 A3017 RMK AO2
     T01530133=
METAR KCDD 080951Z AUTO 18004KT 10SM CLR 17/17 A3002 RMK AO2=
METAR KFOZ 080953Z AUTO 00000KT 1/4SM FG OVC001 13/12 A3004 RMK
     AO2=
METAR KAQP 080954Z AUTO 25005KT 10SM CLR 13/13 A3011 RMK AO2=
METAR KETH 080954Z AUTO 24006KT 10SM CLR 16/14 A3010 RMK AO2=
METAR KXVG 080956Z AUTO 23004KT 10SM CLR 16/15 A3004 RMK AO2=
METAR KORB 080954Z AUTO 00000KT 10SM CLR 14/13 A3000 RMK AO2=
METAR KMZH 080951Z AUTO 28003KT 10SM CLR 15/14 A3004 RMK AO2=
METAR KBFW 080953Z AUTO 00000KT 10SM CLR 16/14 A3001 RMK AO2=
METAR KVWU 080951Z AUTO 26008KT 10SM CLR 18/14 A3002 RMK AO2=
METAR KOWA 080954Z AUTO 31003KT 7SM CLR 17/16 A3008 RMK AO2=
METAR KCDA 080955Z AUTO 28003KT 1 1/2SM BR VV007 20/17 A3010 RMK
     AO2=
METAR KMWN 080956Z 11002KT 5SM HZ SCT000 SCT003 SCT020 SCT045
     16/14 RMK HZ SCT000=
####018001592####
SAZZ40 KAWN 081000 RRK
METAR KFFO 080955Z 00000KT 9SM R23R/5500FT CLR 21/20 A3008 RMK AO2A
      VIS 1 RWY05L SLP179 T02120196=
METAR KHRT 080955Z AUTO 00000KT 3SM R18/3000V5000FT BR CLR 23/23 A3001
      RMK AO2 SLP164 T02320232 $=
METAR KHUA 080955Z AUTO RMK AO2 SLPNO $=
METAR KNGP 080956Z AUTO 10005KT 10SM FEW080 28/26 A2981 RMK AO2 SLP092
      T02830261 $=
METAR KNLC 080956Z AUTO 31007KT 10SM CLR 18/11 A2982 RMK AO2 SLP095
      T01830111 TSNO $=
METAR KNTU 080956Z 09009KT 10SM SCT005 BKN050 BKN100 25/24 A2996 RMK
      AO2 SLP146 T02500239 $=
METAR KNUW 080956Z 00000KT 10SM CLR 14/11 A2996 RMK AO2 SLP150 T01440106
      $=
METAR KWRB 080955Z 34003KT 10SM -RA CLR 20/20 A3001 RMK AO2A RAB0858
      SLP161 P0000 T02050205=
METAR OEDR 081000Z 04012KT 8000 SKC 44/09 Q0998 NOSIG=
METAR OERK 081000Z 02016KT 8000 SKC 42/M01 Q1007 NOSIG=
METAR OERY 081000Z 03015G25KT 5000 SA SKC 43/01 Q1008 NOSIG=
METAR OJAI 081000Z 29010KT CAVOK 32/01 Q1012 NOSIG=
METAR OJAM 081000Z 22006KT 6000 NSC 31/07 Q1012 NOSIG=
METAR PAGA 080958Z AUTO 03004KT 10SM CLR 14/07 A3007 RMK AO2 SLP227
      T01440072=
METAR TBPB 081000Z 08016KT 9999 SHRA BKN014 BKN280 28/24 Q1013 NOSIG=
METAR TFFF 081000Z AUTO 07012KT 9999NDV BKN011/// BKN024/// BKN086///
      28/24 Q1013=
METAR TKPK 081000Z 04011KT 9999 FEW017 27/25 Q1015=
METAR TLPC 081000Z 08007KT 9999 FEW018CB SCT027 28/25 Q1013=
METAR TLPL 081000Z 10020KT 9999 FEW026 BKN300 29/23 Q1013=
METAR TXKF 080955Z 17014KT 9999 FEW013TCU SCT060 BKN170 BKN300 25/23
      Q1018 RMK TCU DSNT N /=
####018000075####
SACN50 CWAO 080945
VOY SA 0945 AUTO8 M M M M/12/07/3401/M/M M 07MM=

####018000132####
SAUS41 KAKQ 081001 COR
MTRWAL
METAR KWAL 080954Z AUTO 11005KT 10SM SCT090 BKN110 24/22 A2999 RMK 
AO2 SLP154 T02440222 TSNO
####018003044####
SAUS99 KWBC 081002
METAR
KASJ 080957Z AUTO 00000KT 2 1/2SM HZ CLR 24/21 A2997 RMK AO2=
KBWD 080955Z AUTO 08003KT 10SM BKN016 23/22 A3001 RMK AO2=
KEBS 080955Z AUTO 34004KT 5SM CLR 18/17 A3010 RMK AO2=
KNFG 080956Z AUTO 00000KT 10SM OVC013 16/13 A2989 RMK AO2 SLP122
     T01610133 TSNO=
KNMM 080956Z AUTO 00000KT 10SM CLR 24/22 A3005 RMK AO2 SLP181
     T02390217 $=
KNXX 080956Z AUTO 00000KT 3SM HZ CLR 23/20 A3004 RMK AO2 SLP174
     T02330200 $=
KO22 080955Z AUTO 00000KT 10SM CLR 16/12 A2991 RMK AO1=
KTVK 080955Z AUTO 00000KT 10SM CLR 20/20 A3008 RMK AO2=
KCVX 080955Z AUTO 20005KT 10SM BKN110 21/20 A2998 RMK AO2=
KFKS 080955Z AUTO 00000KT 10SM BKN100 BKN120 22/20 A2997 RMK
     AO2=
KSLH 080955Z AUTO 00000KT 10SM BKN110 21/21 A2995 RMK AO2=
KSJX 080955Z AUTO 24009KT 4SM -RA BKN002 OVC014 20/19 A2996 RMK
     AO2=
KLDM 080955Z AUTO 18006KT 10SM -DZ BKN080 24/22 A3000 RMK AO2=
KSAW 080958Z AUTO 00000KT 7SM BKN001 18/17 A2997 RMK AO2=
KGOV 080955Z AUTO 00000KT 10SM -RA BKN100 22/22 A3001 RMK AO2=
KPZQ 080955Z AUTO 20005KT 10SM SCT120 22/22 A2998 RMK AO2=
KHYX 080955Z AUTO 00000KT 10SM CLR 22/20 A3001 RMK AO2=
KPHN 080955Z AUTO 00000KT M1/4SM FG VV000 19/18 A3003 RMK AO2=
KONZ 080957Z AUTO 00000KT 10SM CLR 24/20 A3002 RMK AO2=
KISQ 080955Z AUTO 29005KT 5SM BR BKN004 BKN008 20/18 A2996 RMK
     AO2=
KRMY 080955Z AUTO 00000KT 7SM CLR 21/19 A3005 RMK AO2=
KOSC 080954Z AUTO 21003KT 7SM CLR 20/18 A3000 RMK AO2=
KTTF 080954Z AUTO 00000KT 10SM BKN075 22/21 A3003 RMK AO2=
KAMN 080955Z AUTO 00000KT 5SM -RA SCT017 BKN070 OVC085 23/22 A3003
     RMK AO2=
KMCD 080956Z AUTO 00000KT 10SM SCT120 21/18 A2997 RMK AO2=
KERY 080955Z AUTO 24005KT 5SM -RA BKN007 OVC010 19/19 A2997 RMK
     AO2=
KDVP 080956Z AUTO 28003KT 10SM CLR 15/13 A3017 RMK AO2
     T01530133=
KCDD 080951Z AUTO 18004KT 10SM CLR 17/17 A3002 RMK AO2=
KFOZ 080953Z AUTO 00000KT 1/4SM FG OVC001 13/12 A3004 RMK AO2=
KAQP 080954Z AUTO 25005KT 10SM CLR 13/13 A3011 RMK AO2=
KETH 080954Z AUTO 24006KT 10SM CLR 16/14 A3010 RMK AO2=
KXVG 080956Z AUTO 23004KT 10SM CLR 16/15 A3004 RMK AO2=
KORB 080954Z AUTO 00000KT 10SM CLR 14/13 A3000 RMK AO2=
KMZH 080951Z AUTO 28003KT 10SM CLR 15/14 A3004 RMK AO2=
KBFW 080953Z AUTO 00000KT 10SM CLR 16/14 A3001 RMK AO2=
KVWU 080951Z AUTO 26008KT 10SM CLR 18/14 A3002 RMK AO2=
KOWA 080954Z AUTO 31003KT 7SM CLR 17/16 A3008 RMK AO2=
KCDA 080955Z AUTO 28003KT 1 1/2SM BR VV007 20/17 A3010 RMK AO2=
KDMA 080955Z AUTO 19003KT 10SM BKN150 BKN170 30/09 A2988 RMK AO2
     CIG 120 RWY30 SLP039 T02950090 $=
KFAF 080955Z 00000KT 6SM BR FEW095 BKN150 25/25 A2997 RMK AO2A
     SLP149 T02520252=
KHRT 080955Z AUTO 00000KT 3SM R18/3000V5000FT BR CLR 23/23 A3001
     RMK AO2 SLP164 T02320232 $=
KLUF 080955Z 22004KT 10SM CLR 30/04 A2976 RMK AO2A SLP044
     T02980037 $=
KNBG 080955Z AUTO 04003KT 5SM HZ FEW017 A3001 RMK AO2 SLP163 PWINO
     FZRANO $=
KNCA 080956Z AUTO 03004KT 9SM CLR 25/20 A2992 RMK AO2 SLP132
     T02500200=
####018000965####
SPUS99 KWBC 081002
SPECI
KALI 081000Z AUTO 02005KT 4SM -RA BR BKN024 BKN075 OVC090 25/25
     A2984 RMK AO2 P0000=
KCXO 081000Z 00000KT 7SM SCT007 24/23 A2994 RMK AO2=
KHRT 080953Z AUTO 00000KT 4SM R18/3000V5500FT BR CLR 23/23 A3001
     RMK AO2 SLP164 $=
PAPN 081000Z AUTO 05004KT 1 1/4SM BR OVC060 06/05 A2994 RMK AO2
     PWINO TSNO $=
KAKO 081000Z AUTO 15006KT 6SM BR FEW014 OVC031 14/14 A3031 RMK AO2
     TSNO=
KASE 081000Z 16016G27KT 10SM SCT090 10/06 A3038 RMK AO2 WSHFT
     0940=
KBDR 081000Z AUTO 07006KT 1 1/2SM BR OVC002 24/23 A3004 RMK
     AO2=
KHAO 081000Z AUTO 00000KT 1/2SM FG VV001 21/19 A3008 RMK AO2=
KPKB 081000Z AUTO 00000KT 1/4SM FG VV001 19/19 A3011 RMK AO2 TSNO
     RVRNO=
KRBD 081001Z 11003KT 10SM BKN009 BKN012 25/23 A3000 RMK AO2 CIG
     006V012=
KSTJ 081000Z AUTO 00000KT 6SM BR BKN005 BKN065 23/21 A3006 RMK AO2
     RAE0954=
KTTN 081000Z 00000KT 2 1/2SM BR FEW005 23/21 A3002 RMK AO2=
####018000068####
SABZ19 SBSN 081000
METAR SBSN 081000Z 16002KT CAVOK 23/22 Q1012=
####018000074####
SABZ19 SBMQ 081000
METAR SBMQ 081000Z 34001KT 9999 FEW015 25/25 Q1013=
####018000081####
SABZ21 SBNT 081000
METAR SBNT 081000Z 19006KT 9999 FEW020 BKN100 23/22 Q1015=
####018000082####
SABZ24 SBFL 081000
METAR SBFL 081000Z SBFL 1000Z 19010G20KT CAVOK 22/17 Q1016=
####018000068####
SABZ21 SBTE 081000
METAR SBTE 081000Z 16005KT CAVOK 26/24 Q1014=
####018000071####
SABZ20 SBCZ 081000
METAR SBCZ 081000Z 00000KT 8000 NSC 23/23 Q1011=
####018000069####
SABZ22 SBGO 081000
METAR SBGO 081000Z 00000KT CAVOK 14/10 Q1020 =
####018000075####
SABZ21 SBJP 081000
METAR SBJP 081000Z 23008KT 9999 FEW020 23/21 Q1016 =
####018000071####
SABZ19 SBMA 081000
METAR SBMA 081000Z 26004KT 7000 NSC ///// Q1013=
####018000068####
SABZ20 SBPV 081000
METAR SBPV 081000Z 00000KT CAVOK 24/22 Q1012=
####018000072####
SAKB31 PLCH 081000
METAR PLCH 081000Z 10015KT 20KM SKC 26/24 Q1011 =
####018000068####
SABZ20 SBRB 081000
METAR SBRB 081000Z 00000KT CAVOK 22/22 Q1012=
####018000068####
SABZ24 SBCT 081000
METAR SBCT 081000Z 21001KT CAVOK 10/09 Q1021=
####018000068####
SABZ23 SBVT 081000
METAR SBVT 081000Z 28002KT CAVOK 18/16 Q1020=
####018000068####
SABZ24 SBNF 081000
METAR SBNF 081000Z 20004KT CAVOK 18/18 Q1015=
####018000287####
SPXX60 KWBC 081002
SPECI
KHRT 080953Z AUTO 00000KT 4SM R18/3000V5500FT BR CLR 23/23 A3001
     RMK AO2 SLP164 $=
KHRT 080953Z AUTO 00000KT 4SM R18/3000V5500FT BR CLR 23/23 A3001
     RMK AO2 SLP164 $=
KNHK 081000Z AUTO 09004KT 2 1/2SM BR SCT009 26/24 A2999 RMK
     AO2=
####018002126####
SAXX60 KWBC 081000 RRD
METAR
KNBC 080956Z 24003KT 7SM FEW250 23/19 A2997 RMK AO2 SLP150
     T02330194=
KNBG 080955Z AUTO 04003KT 5SM HZ FEW017 A3001 RMK AO2 SLP163 PWINO
     FZRANO $=
KNCA 080956Z AUTO 03004KT 9SM CLR 25/20 A2992 RMK AO2 SLP132
     T02500200=
KNJK 080956Z AUTO 16006KT 10SM CLR 23/13 A2969 RMK AO2 SLP068
     T02330133 TSNO=
KNRS 080956Z AUTO 30008KT 10SM OVC014 17/14 A2990 RMK AO2 SLP123
     T01670139 TSNO $=
KNUQ 080956Z AUTO 36008KT 10SM OVC013 15/12 A2992 RMK AO2 SLP134
     T01500122 TSNO=
KNFG 080956Z AUTO 00000KT 10SM OVC013 16/13 A2989 RMK AO2 SLP122
     T01610133 TSNO=
KNMM 080956Z AUTO 00000KT 10SM CLR 24/22 A3005 RMK AO2 SLP181
     T02390217 $=
KNXX 080956Z AUTO 00000KT 3SM HZ CLR 23/20 A3004 RMK AO2 SLP174
     T02330200 $=
KDMA 080955Z AUTO 19003KT 10SM BKN150 BKN170 30/09 A2988 RMK AO2
     CIG 120 RWY30 SLP039 T02950090 $=
KFAF 080955Z 00000KT 6SM BR FEW095 BKN150 25/25 A2997 RMK AO2A
     SLP149 T02520252=
KHRT 080955Z AUTO 00000KT 3SM R18/3000V5000FT BR CLR 23/23 A3001
     RMK AO2 SLP164 T02320232 $=
KLUF 080955Z 22004KT 10SM CLR 30/04 A2976 RMK AO2A SLP044
     T02980037 $=
KNBG 080955Z AUTO 04003KT 5SM HZ FEW017 A3001 RMK AO2 SLP163 PWINO
     FZRANO $=
KNCA 080956Z AUTO 03004KT 9SM CLR 25/20 A2992 RMK AO2 SLP132
     T02500200=
KNJM 080957Z AUTO 36003KT 8SM CLR 26/22 A2992 RMK AO2 SLP134
     T02560217 $=
KFFO 080955Z 00000KT 9SM R23R/5500FT CLR 21/20 A3008 RMK AO2A VIS
     1 RWY05L SLP179 T02120196=
KHRT 080955Z AUTO 00000KT 3SM R18/3000V5000FT BR CLR 23/23 A3001
     RMK AO2 SLP164 T02320232 $=
KHUA 080955Z AUTO RMK AO2 SLPNO $=
KNGP 080956Z AUTO 10005KT 10SM FEW080 28/26 A2981 RMK AO2 SLP092
     T02830261 $=
KNLC 080956Z AUTO 31007KT 10SM CLR 18/11 A2982 RMK AO2 SLP095
     T01830111 TSNO $=
KNTU 080956Z 09009KT 10SM SCT005 BKN050 BKN100 25/24 A2996 RMK AO2
     SLP146 T02500239 $=
KNUW 080956Z 00000KT 10SM CLR 14/11 A2996 RMK AO2 SLP150 T01440106
     $=
KWRB 080955Z 34003KT 10SM -RA CLR 20/20 A3001 RMK AO2A RAB0858
     SLP161 P0000 T02050205=
####018001140####
SPUS70 KWBC 081002
SPECI
KGNV 080958Z AUTO 00000KT 1 3/4SM BR CLR 19/18 A3000 RMK AO2=
KTXK 080958Z AUTO 00000KT 1 3/4SM BR BKN003 23/23 A3004 RMK
     AO2=
KUCP 080959Z AUTO 00000KT M1/4SM FG FEW001 BKN065 18/18 A3010 RMK
     AO2 $=
KNSE 080948Z AUTO 00000KT 1 1/4SM BR CLR 23/21 A3002 RMK AO2 $=
KARB 080959Z AUTO 00000KT 2SM BR CLR 19/18 A3004 RMK AO2=
KBGD 080959Z AUTO 34006KT 10SM FEW020 BKN055 OVC080 19/18 A3019
     RMK AO2=
KALI 081000Z AUTO 02005KT 4SM -RA BR BKN024 BKN075 OVC090 25/25
     A2984 RMK AO2 P0000=
KCXO 081000Z 00000KT 7SM SCT007 24/23 A2994 RMK AO2=
KAKO 081000Z AUTO 15006KT 6SM BR FEW014 OVC031 14/14 A3031 RMK AO2
     TSNO=
KASE 081000Z 16016G27KT 10SM SCT090 10/06 A3038 RMK AO2 WSHFT
     0940=
KHAO 081000Z AUTO 00000KT 1/2SM FG VV001 21/19 A3008 RMK AO2=
KPKB 081000Z AUTO 00000KT 1/4SM FG VV001 19/19 A3011 RMK AO2 TSNO
     RVRNO=
KRBD 081001Z 11003KT 10SM BKN009 BKN012 25/23 A3000 RMK AO2 CIG
     006V012=
KSTJ 081000Z AUTO 00000KT 6SM BR BKN005 BKN065 23/21 A3006 RMK AO2
     RAE0954=
KTTN 081000Z 00000KT 2 1/2SM BR FEW005 23/21 A3002 RMK AO2=
####018000253####
SAUS70 KWBC 081002
METAR
PADM 081001Z AUTO 06010KT 10SM OVC075 11/09 A3006 RMK AO2 TSNO
     T01110094 SLP168 $=
KFKA 081003Z AUTO 32006KT 10SM CLR 19/18 A3008 RMK AO2
     T01870181=
KCGS 081005Z AUTO 00000KT 5SM CLR 25/23 A3001 RMK AO1=
####018003677####
SAXX60 KWBC 081000 RRC
METAR
KRYT 080953Z AUTO 22003KT 5SM HZ FEW090 22/17 A3004 RMK AO2 SLP152
     T02220172 $=
KEUF 080958Z AUTO 00000KT 10SM BKN070 22/19 A3001 RMK AO2 SLP158
     T02170194 PNO $=
KNFG 080956Z AUTO 00000KT 10SM OVC013 16/13 A2989 RMK AO2 SLP122
     T01610133 TSNO=
KNFL 080956Z AUTO 00000KT 10SM CLR 18/01 A2997 RMK AO2 SLP121
     T01830011 TSNO=
KNID 080956Z AUTO 00000KT CLR 22/03 A2984 RMK AO2 SLP082 T02170028
     TSNO $=
KNKX 080955Z 34005KT 10SM OVC014 16/13 A2989 RMK AO2 SLP118
     T01610133=
KNMM 080956Z AUTO 00000KT 10SM CLR 24/22 A3005 RMK AO2 SLP181
     T02390217 $=
KNQI 080956Z AUTO 01008KT 10SM FEW060 27/24 A2983 RMK AO2 SLP097
     T02670244 $=
KNTD 080956Z AUTO 27006KT 9SM OVC013 15/13 A2989 RMK AO2 SLP122
     T01500128 TSNO PNO VISNO N $=
KNTU 080956Z 09009KT 10SM SCT005 BKN050 BKN100 25/24 A2996 RMK AO2
     SLP146 T02500239 $=
KNXP 080956Z AUTO 30005KT CLR 24/00 A2991 RMK AO2 SLP088 T02440000
     $=
KNXX 080956Z AUTO 00000KT 3SM HZ CLR 23/20 A3004 RMK AO2 SLP174
     T02330200 $=
KNYG 080956Z 30004KT 6SM HZ SCT080 BKN200 26/23 A2999 RMK AO2
     SLP157 T02560228=
KNYL 080955Z 16005KT 10SM CLR 27/03 A2971 RMK AO2 SLP057
     T02670033=
KPOE 080955Z AUTO 09004KT 10SM CLR 24/22 A3000 RMK AO2 SLP159
     T02390222=
KVBG 080955Z AUTO 30003KT 10SM OVC006 12/11 A2992 RMK AO2 SLP124
     T01220111 TSNO $=
KVPS 080956Z COR 31002KT 6SM BR SKC 23/23 A3002 RMK AO2A SLP167
     T02330233 COR 0958=
KADW 080955Z 06004KT 8SM CLR 25/23 A3001 RMK AO2A SLP161 T02450230
     $=
KCVS 080955Z 05007KT 10SM BKN110 17/15 A3020 RMK AO2A SLP184
     T01700150 $=
KDMA 080955Z AUTO 19003KT 10SM BKN150 BKN170 30/09 A2988 RMK AO2
     CIG 120 RWY30 SLP039 T02950090 $=
KHOP 080955Z AUTO 00000KT 10SM CLR 24/22 A3007 RMK AO2 SLP176
     T02380222=
KNFG 080956Z AUTO 00000KT 10SM OVC013 16/13 A2989 RMK AO2 SLP122
     T01610133 TSNO=
KNFL 080956Z AUTO 00000KT 10SM CLR 18/01 A2997 RMK AO2 SLP121
     T01830011 TSNO=
KNID 080956Z AUTO 00000KT CLR 22/03 A2984 RMK AO2 SLP082 T02170028
     TSNO $=
KNQI 080956Z AUTO 01008KT 10SM FEW060 27/24 A2983 RMK AO2 SLP097
     T02670244 $=
KNTD 080956Z AUTO 27006KT 9SM OVC013 15/13 A2989 RMK AO2 SLP122
     T01500128 TSNO PNO VISNO N $=
KNUQ 080956Z AUTO 36008KT 10SM OVC013 15/12 A2992 RMK AO2 SLP134
     T01500122 TSNO=
KVPS 080956Z COR 31002KT 6SM BR SKC 23/23 A3002 RMK AO2A SLP167
     T02330233 COR 0958=
PASY 080956Z AUTO 02016KT 10SM OVC006 A2974 RMK AO2 CIG 004V010
     SLPNO TSNO PNO=
KMRT 080953Z AUTO 00000KT 3SM CLR 21/19 A3011 RMK AO2
     T02050189=
KNTU 080956Z 09009KT 10SM SCT005 BKN050 BKN100 25/24 A2996 RMK AO2
     SLP146 T02500239 $=
KNGU 080959Z 06005KT 5SM BR SCT090 BKN120 26/23 A2998 RMK AO2
     SLP152 T02610233=
PHBK 080956Z AUTO 00000KT 10SM FEW050 24/18 A3003 RMK AO2 SLP171
     T02440178 403000217 TSNO $=
KADW 080955Z 06004KT 8SM CLR 25/23 A3001 RMK AO2A SLP161 T02450230
     $=
KCVS 080955Z 05007KT 10SM BKN110 17/15 A3020 RMK AO2A SLP184
     T01700150 $=
KDMA 080955Z AUTO 19003KT 10SM BKN150 BKN170 30/09 A2988 RMK AO2
     CIG 120 RWY30 SLP039 T02950090 $=
KFAF 080955Z 00000KT 6SM BR FEW095 BKN150 25/25 A2997 RMK AO2A
     SLP149 T02520252=
KHLR 080956Z AUTO 06003KT 10SM BKN015 BKN021 OVC032 25/ A2999 RMK
     AO2 SLP145 T0250 $=
KHOP 080955Z AUTO 00000KT 10SM CLR 24/22 A3007 RMK AO2 SLP176
     T02380222=
KHRT 080955Z AUTO 00000KT 3SM R18/3000V5000FT BR CLR 23/23 A3001
     RMK AO2 SLP164 T02320232 $=
KLUF 080955Z 22004KT 10SM CLR 30/04 A2976 RMK AO2A SLP044
     T02980037 $=
####018000068####
SABZ24 SBLO 081000
METAR SBLO 081000Z 23002KT CAVOK 15/13 Q1019=
####018003734####
SAUS70 KWBC 081000 RRC
METAR
KSGH 080956Z AUTO 00000KT 4SM BR CLR 19/19 A3010 RMK AO2 T01940194
     SLP185=
PAGA 080958Z AUTO 03004KT 10SM CLR 14/07 A3007 RMK AO2 SLP227
     T01440072=
PAIW 080957Z AUTO 00000KT 10SM CLR 08/06 A3018 RMK AO2 SLP316
     T00780056=
PAJZ 080956Z AUTO 00000KT 10SM FEW029 BKN041 OVC049 11/09 A3001
     RMK AO2 PWINO TSNO T01050094 OVC V BKN SLP152 $=
PAKI 080956Z AUTO 36004KT 10SM CLR 08/08 A3003 RMK AO2 PWINO TSNO
     T00770077 SLP169 $=
PALG 080956Z AUTO 00000KT 10SM FEW075 SCT110 10/09 A3001 RMK AO2
     TSNO T01000094 SLP166=
PARY 080956Z AUTO VRB04KT 10SM CLR 16/06 A3006 RMK AO2 PWINO TSNO
     T01550055 SLP182=
K4I3 080956Z AUTO 00000KT 7SM SCT060 20/19 A3010 RMK AO2=
KACB 080955Z AUTO 00000KT 10SM OVC100 24/21 A2997 RMK AO2=
KACQ 080958Z AUTO 00000KT 3/4SM BR VV005 16/15 A3011 RMK AO2 VIS
     1/4V5=
KADC 080956Z AUTO 24006KT 10SM CLR 13/12 A3008 RMK AO2=
KAEL 080951Z AUTO 32003KT 10SM CLR 17/17 A3008 RMK AO2=
KANE 080955Z AUTO 00000KT 10SM 17/16 A3008 RMK AO2=
KAUM 080955Z AUTO 33004KT 7SM CLR 18/17 A3007 RMK AO2=
KAWG 080955Z AUTO 31005KT 4SM OVC003 21/20 A3005 RMK AO2=
KAXA 080955Z AUTO 00000KT 10SM CLR 17/16 A3011 RMK AO2=
KBAX 080955Z AUTO 00000KT 5SM BR CLR 21/20 A3000 RMK AO2=
KBDH 080955Z AUTO 24003KT 10SM CLR 15/14 A3013 RMK AO2=
KBNW 080955Z AUTO 33007KT 10SM CLR 20/17 A3010 RMK AO2=
KCAD 080954Z AUTO 23004KT 10SM BKN110 22/20 A3003 RMK AO2=
KCAV 080955Z AUTO 31004KT 5SM CLR 19/18 A3010 RMK AO2=
KCBF 080955Z AUTO 36006KT 10SM CLR 20/15 A3013 RMK AO2=
KCBG 080955Z AUTO 00000KT 10SM CLR 16/14 A3008 RMK AO2=
KCCY 080955Z AUTO 33006KT 10SM CLR 20/17 A3007 RMK AO2=
KCFE 080954Z AUTO 00000KT 10SM CLR 17/16 A3010 RMK AO2
     T01710161=
KCFS 080955Z AUTO 00000KT 1 3/4SM BR VV007 20/20 A3002 RMK AO2=
KCIN 080955Z AUTO 34004KT 7SM CLR 18/15 A3013 RMK AO2=
KCKC 080955Z AUTO 31006KT 10SM CLR 15/13 A3003 RMK AO2=
KCKN 080955Z AUTO 23005KT 10SM CLR 13/11 A3005 RMK AO2=
KCNB 080957Z AUTO 25006KT 10SM CLR 16/13 A3013 RMK AO2
     T01610130=
KCNC 080955Z AUTO 34006KT 7SM CLR 21/18 A3007 RMK AO2=
KCOQ 080956Z AUTO 28006KT 10SM CLR 14/14 A3005 RMK AO2=
KCQM 080957Z AUTO 00000KT 10SM CLR 14/14 A3003 RMK AO2=
KCSQ 080955Z AUTO 03005KT 10SM SCT015 20/19 A3011 RMK AO2=
KCVH 080950Z AUTO 00000KT 10SM OVC010 13/11 A2992 RMK AO1=
KDEH 080955Z AUTO 00000KT 4SM SCT004 20/18 A3008 RMK AO2=
KDNS 080955Z AUTO 00000KT 10SM SCT031 20/16 A3016 RMK AO2=
KDRM 080956Z AUTO 15004KT 1/4SM FG OVC002 20/20 A2995 RMK AO2=
KDTL 080955Z AUTO 00000KT 10SM CLR 16/10 A3010 RMK AO2=
KDUH 080955Z AUTO 00000KT 10SM SCT070 22/18 A3005 RMK AO2=
KDXX 080954Z AUTO 00000KT 10SM CLR 14/14 A3011 RMK AO2=
KDYT 080954Z AUTO 18004KT 10SM CLR 19/16 A3004 RMK AO2=
KEFK 080956Z AUTO 19004KT 4SM BR CLR 20/19 A3006 RMK AO2=
KMPZ 080955Z AUTO 29006KT 4SM OVC002 22/21 A3004 RMK AO2=
KMUT 080955Z AUTO 00000KT 10SM OVC010 24/22 A3003 RMK AO2=
KMVE 080954Z AUTO 29004KT 10SM CLR 16/14 A3010 RMK AO2=
KMXO 080955Z AUTO 00000KT 3 1/2SM CLR 21/19 A3003 RMK AO2=
KOEB 080955Z AUTO 00000KT 7SM CLR 22/20 A3005 RMK AO2=
KONA 080951Z AUTO 30006KT 10SM SCT013 20/18 A3003 RMK AO2=
KORC 080955Z AUTO 33003KT 10SM CLR 16/16 A3015 RMK AO2=
KOVL 080954Z AUTO 30005KT 10SM CLR 13/12 A3011 RMK AO2
     T01320118=
KOXV 080955Z AUTO 33003KT 10SM CLR 21/20 A3007 RMK AO2=
KOZW 080955Z AUTO 00000KT 7SM CLR 23/21 A3004 RMK AO2=
KPBI 080953Z COR 04007KT 10SM SCT023TCU BKN040 BKN250 27/24 A2993
     RMK AO2 SLP134 TCU OHD NE E-SE CB DSNT SE T02720239=
KPEA 080955Z AUTO 34004KT 10SM CLR 20/20 A3007 RMK AO2=
KPEX 080953Z AUTO 26004KT 7SM CLR 12/12 A3011 RMK AO2
     T01210120=
####018000081####
SABZ21 SBPB 081000
METAR SBPB 081000Z 07007KT 9999 SCT020 BKN100 28/22 Q1013=
####018001628####
SAAW41 KWBC 080950 RRB
METAR
LTAD 080950Z 08007KT 020V160 9999 FEW040 SCT100 30/16 Q1011 NOSIG
     RMK RWY29 08007KT 030V130=
LTAG 080950Z 22008KT 9999 BKN035 30/21 Q1008 NOSIG=
LTAH 080950Z VRB05KT 9999 SCT040 29/11 Q1012 RMK RWY13 VRB05KT=
LTAJ 080950Z 23010KT CAVOK 36/11 Q1008 NOSIG=
LTAN 080950Z 28003KT 9999 FEW040 30/14 Q1011 NOSIG=
LTAN 080950Z 28003KT 9999 FEW040 30/14 Q1011 NOSIG RMK RWY19
     36008KT=
LTAP 080950Z 02016KT 9999 SCT040 BKN100 29/18 Q1010 NOSIG RMK
     RWY23 03017KT=
LTAT 080950Z 06006KT 9999 FEW040 36/07 Q1009 NOSIG RMK RWY03
     07006KT=
LTAU 080950Z VRB03KT 9999 FEW040 31/13 Q1011 NOSIG=
LTAU 080950Z VRB03KT 9999 FEW040 31/13 Q1011 NOSIG RMK RWY07
     26005KT 190V350=
LTBF 080950Z NIL=
LTBG 080950Z 35014KT 320V020 9999 SCT035 BKN100 22/14 Q1012 NOSIG
     RMK RWY18 35018KT=
LTBI 080950Z VRB01KT 9999 SCT035 28/12 Q1011 NOSIG RMK RWY09
     29007KT 240V330=
LTBL 080950Z 31012G22KT 270V350 CAVOK 29/17 Q1010 NOSIG RMK RWY17
     34016KT 320V030=
LTBQ 080950Z 02008KT 350V050 9999 FEW020CB SCT030 27/19 Q1011
     TEMPO 33012KT RMK RWY09 01008KT=
LTCC 080950Z 16008KT 100V190 CAVOK 40/03 Q1006 NOSIG=
LTCC 080950Z 16008KT 100V190 CAVOK 40/03 Q1006 NOSIG RMK RWY16
     VRB05KT=
LTCE 080950Z 03005KT 300V080 9999 SCT030 30/10 Q1017 NOSIG=
LTCE 080950Z 03005KT 300V080 9999 SCT030 30/10 Q1017 NOSIG RMK
     RWY08R VRB05KT RWY26R 02004KT 340V090 RWY08L 06006KT=
LTCG 080950Z 08007KT 9999 SCT035 27/21 Q1011 NOSIG=
LTCI 080950Z 24004KT 170V320 CAVOK 26/15 Q1016 NOSIG=
LTFE 080950Z 26019KT 9999 FEW035 33/15 Q1008 NOSIG=
####018000374####
SAAW31 KWBC 080930 RRB
METAR
LTAC 080950Z 06012KT 9999 SCT040 28/15 Q1012 NOSIG=
LTAF 080950Z /////KT 9999 SCT035 BKN100 30/21 Q1008 NOSIG=
LTAI 080950Z 16007KT 120V200 9999 SCT030 29/22 Q1008 NOSIG=
LTBA 080950Z 36022KT 9999 BKN035 24/14 Q1012 NOSIG=
LTBJ 080950Z 34018KT CAVOK 30/12 Q1010 NOSIG=
LTBS 080950Z 21012KT 180V240 9999 FEW030 30/21 Q1008 NOSIG=
####018003694####
SAUS70 KWBC 081000 RRD
METAR
KRDK 080955Z AUTO 36004KT 7SM SCT075 SCT090 21/18 A3011 RMK
     AO2=
KRGK 080955Z AUTO 27003KT 10SM CLR 19/17 A3006 RMK AO2=
KRNP 080955Z AUTO 26010KT 10SM SCT055 23/21 A3004 RMK AO2=
KROX 080955Z AUTO 21005KT 10SM CLR 14/12 A3001 RMK AO2=
KRQB 080955Z AUTO 20003KT 10SM OVC090 22/21 A3003 RMK AO2=
KRRT 080954Z AUTO 24005KT 10SM CLR 14/12 A3001 RMK AO2=
KRYV 080955Z AUTO 25003KT 5SM BR SCT005 SCT095 22/21 A3001 RMK
     AO2=
KSAZ 080954Z AUTO 23003KT 10SM CLR 15/15 A3008 RMK AO2=
KSDA 080955Z AUTO 01005KT 7SM SCT005 21/19 A3011 RMK AO2=
KSGS 080953Z AUTO 00000KT 10SM CLR 19/16 A3008 RMK AO2
     T01870160=
KSHL 080955Z AUTO 00000KT 3SM CLR 15/14 A3016 RMK AO2=
KTEW 080953Z AUTO 29006KT 10SM CLR 22/20 A3005 RMK AO2=
KTNU 080955Z AUTO 33005KT 10SM CLR 21/18 A3008 RMK AO2=
KTOB 080955Z AUTO 00000KT 10SM CLR 18/16 A3008 RMK AO2=
KUKT 080950Z AUTO 00000KT 3SM CLR 20/20 A3004 RMK AO1=
KVLL 080954Z AUTO 00000KT 10SM CLR 25/21 A3005 RMK AO2=
KVVV 080956Z AUTO 29005KT 10SM CLR 17/14 A3011 RMK AO2=
KY70 080954Z AUTO 00000KT 4SM BR SCT046 BKN080 OVC110 23/22 A3003
     RMK AO2 P0001 T02260217=
KELO 080953Z AUTO 22003KT 10SM CLR 14/13 A3002 RMK AO2=
KEOK 080955Z AUTO 00000KT 3SM HZ BKN001 22/19 A3004 RMK AO2=
KEVM 080952Z AUTO 25003KT 7SM CLR 15/13 A3002 RMK AO1=
KFBL 080954Z AUTO 30003KT 10SM CLR 17/16 A3009 RMK AO2=
KFFL 080955Z AUTO 31004KT 10SM CLR 22/20 A3006 RMK AO2=
KFFX 080954Z AUTO 22003KT 5SM -RA BKN110 22/22 A3003 RMK AO2=
KFPK 080955Z AUTO 00000KT 5SM BR CLR 22/20 A3003 RMK AO2=
KFSE 080954Z AUTO 18005KT 10SM CLR 12/11 A3005 RMK AO2=
KFSO 080959Z AUTO 16003KT 4SM BR SCT060 OVC075 23/22 A3001 RMK
     AO2=
KFSW 080955Z AUTO 25003KT 10SM CLR 22/21 A3004 RMK AO2=
KFXY 080955Z AUTO 30003KT 10SM CLR 17/16 A3010 RMK AO2=
KGGI 080955Z AUTO 30004KT 10SM CLR 21/19 A3008 RMK AO2=
KGYL 080955Z AUTO 00000KT 10SM CLR 15/14 A3010 RMK AO2
     T01500141=
KHAF 080950Z AUTO 00000KT 10SM OVC006 12/10 A2994 RMK AO2=
KHAI 080954Z AUTO 00000KT 5SM BR SCT060 SCT075 21/21 A3005 RMK
     AO2=
KHCD 080952Z AUTO 26004KT 5SM BR CLR 14/13 A3011 RMK AO2
     T01380130=
KHCO 080954Z AUTO 19004KT 10SM SCT120 12/12 A3004 RMK AO2=
KHNR 080955Z AUTO 00000KT 5SM CLR 18/17 A3015 RMK AO2=
KHZX 080951Z AUTO 00000KT 10SM CLR 13/13 A3007 RMK AO2=
KICL 080955Z AUTO 01004KT 10SM CLR 21/18 A3010 RMK AO2=
KIFA 080955Z AUTO 32005KT 10SM SCT110 20/19 A3009 RMK AO2=
KIIB 080955Z AUTO 32003KT 10SM CLR 20/19 A3005 RMK AO1=
KIKV 080955Z AUTO 36004KT 10SM CLR 21/18 A3008 RMK AO2=
KIRS 080955Z AUTO 00000KT 7SM CLR 22/19 A3004 RMK AO2=
KJKJ 080954Z AUTO 00000KT 10SM CLR 15/14 A3006 RMK AO2=
KJMR 080958Z AUTO 28003KT 10SM CLR 15/13 A3009 RMK AO2=
KJYG 080955Z AUTO 00000KT 10SM CLR 16/16 A3013 RMK AO2=
KJYM 080955Z AUTO 00000KT 7SM CLR 21/18 A3006 RMK AO2=
KLJF 080952Z AUTO 27003KT 10SM CLR 17/16 A3011 RMK AO2=
KLRJ 080955Z AUTO 00000KT 2 1/2SM CLR 15/15 A3015 RMK AO2=
KLVN 080949Z AUTO 00000KT 10SM CLR 16/16 A3008 RMK AO2=
KLWA 080956Z AUTO 00000KT 10SM CLR 23/21 A3003 RMK AO2=
KLXL 080955Z AUTO 00000KT 1/4SM FG VV002 12/11 A3008 RMK AO2=
KMDS 080945Z AUTO 29005KT 10SM CLR 15/15 A3017 RMK AO2=
KMGN 080955Z AUTO 00000KT 10SM BKN110 21/20 A2996 RMK AO2=
KMJQ 080952Z AUTO 29004KT 7SM CLR 15/14 A3014 RMK AO2=
KMOP 080954Z AUTO 24005KT 10SM SCT075 BKN090 OVC110 23/22 A3002
     RMK AO2=
K2W6 080959Z AUTO 00000KT 3SM 24/24 A3001 RMK AO1 SKY OBSCURED=
KFDK 080956Z AUTO 00000KT 7SM SCT100 24/21 A3004 RMK AO2=
KW29 081000Z AUTO 11003KT 2SM CLR 23/23 A3001 RMK AO1=
K2G4 081000Z AUTO 00000KT 10SM SCT065 22/13 A3019 RMK AO1=
####018000068####
SABZ24 SBCG 081000
METAR SBCG 081000Z 08009KT CAVOK 15/08 Q1016=
####018000367####
SAAW34 KWBC 080945 RRB
METAR
OPGD 081000Z NIL=
OPKC 081000Z NIL=
OPLA 080955Z 15004KT 6000 SCT040 SCT100 37/23 Q1004 NOSIG=
OPNH 081000Z 13504KT 6000M SCT035 FEW100 38/25 Q.1002=
OPPS 081000Z NIL=
OPPS 080955Z SE-12KT 6000 HZ FEW040 FEW100 39/24 Q1004.0=
OPRN 081000Z NIL=
UTTT 081000Z 28004MPS 240V320 CAVOK 39/07 Q1010 R08R/CLRD70
     NOSIG=
####018000243####
SPUS80 KWBC 081002
SPECI
KBDL 080958Z 13004KT 5SM HZ BKN012 BKN100 24/21 A3005 RMK AO2=
KEKN 080959Z AUTO 00000KT 2SM BR BKN070 17/16 A3016 RMK AO2
     TSNO=
KBDR 081000Z AUTO 07006KT 1 1/2SM BR OVC002 24/23 A3004 RMK
     AO2=
####018000074####
SABZ21 SBPL 081000
METAR SBPL 081000Z 16008KT 9999 SCT020 22/19 Q1019=
####018000170####
SAUS80 KWBC 081002
METAR
KSYN 081010Z AUTO 00000KT 10SM CLR 17/16 A3007 RMK AO2
     T01720160=
KESN 081003Z AUTO 00000KT 1 1/2SM BR VV007 22/22 A3004 RMK AO2=
####018000303####
SAUS80 KWBC 081000 CCB
METAR
KRIC 080954Z 00000KT 6SM HZ SCT150 SCT250 24/21 A2999 RMK AO2
     SLP158 T02440206=
K6R6 080953Z AUTO 01004KT 22/21 A3000 RMK AO2 SLP123 T02220206
     PWINO TSNO=
KWAL 080954Z AUTO 11005KT 10SM SCT090 BKN110 24/22 A2999 RMK AO2
     SLP154 T02440222 TSNO=
####018000069####
SABZ24 SBUG 081000
METAR SBUG 081000Z 11003KT CAVOK 06/05 Q1020 =
####018000227####
SAXX60 KWBC 081000 CCA
METAR
KABH 080956Z AUTO 23007KT 10SM BKN003 BKN090 13/12 A3037 RMK AO2
     CIG 003V007 SLP228 T01280117 $=
K79J 080956Z AUTO 00000KT 9SM CLR 24/21 A3002 RMK AO2 SLP159
     T02390211 TSNO $=
####018001043####
SAUS80 KWBC 081000 RRA
METAR
PHNY 080956Z AUTO 06007KT 10SM CLR 20/17 A3009 RMK AO2 TSNO
     T02000166 402720172 SLP169 $=
K29G 080954Z AUTO 00000KT 5SM SCT060 19/18 A3009 RMK AO2 T01930181
     PWINO=
KBTR 080953Z 06003KT 7SM SCT003 BKN200 24/23 A3000 RMK AO2 SLP157
     T02390228 $=
KDAB 080953Z 00000KT 10SM FEW026 20/19 A2999 RMK AO2 SLP156
     T02000194 $=
KROA 080954Z 00000KT 7SM CLR 24/18 A3008 RMK AO2 SLP168
     T02390183=
KROS 080955Z AUTO 26003KT 10SM CLR 15/14 A3007 RMK AO2
     T01500141=
KTKC 080953Z AUTO 26004KT 10SM CLR 16/13 A3014 RMK AO2
     T01580130=
KVTI 080955Z AUTO 00000KT 7SM CLR 20/20 A3005 RMK AO2=
KIKW 080954Z AUTO 27004KT 10SM SCT060 SCT090 OVC110 23/21 A3002
     RMK AO2 T02310212=
KLND 080953Z AUTO 21003KT 10SM CLR 11/03 A3033 RMK AO2 SLP224
     T01060028=
KLYV 080958Z AUTO 00000KT 10SM CLR 14/13 A3016 RMK AO2=
KCBE 081000Z AUTO 00000KT 5SM CLR 20/18 A3011 RMK AO1=
KMWN 080956Z 11002KT 5SM HZ SCT000 SCT003 SCT020 SCT045 16/14 RMK
     HZ SCT000=
####018000074####
SABZ24 SBPK 081000
METAR SBPK 081000Z 27006KT 9999 FEW020 09/07 Q1019=
####018000565####
SAUS70 KWBC 081000 RRE
METAR
KFMH 080955Z AUTO 16006KT 6SM BR OVC003 21/20 A3010 RMK AO2=
PPIZ 080956Z AUTO 20010KT 10SM CLR 07/02 A3010 RMK AO2 TSNO
     T00660016 SLP197 $=
KASJ 080957Z AUTO 00000KT 2 1/2SM HZ CLR 24/21 A2997 RMK AO2=
KBWD 080955Z AUTO 08003KT 10SM BKN016 23/22 A3001 RMK AO2=
KEBS 080955Z AUTO 34004KT 5SM CLR 18/17 A3010 RMK AO2=
KO22 080955Z AUTO 00000KT 10SM CLR 16/12 A2991 RMK AO1=
KTVK 080955Z AUTO 00000KT 10SM CLR 20/20 A3008 RMK AO2=
PAGA 080958Z AUTO 03004KT 10SM CLR 14/07 A3007 RMK AO2 SLP227
     T01440072=
####018000089####
SATG20 DXXX 081000
METAR DXXX 081000Z 21007KT 160V280 9999 FEW015 29/24 Q1015 NOSIG=
####018000129####
SAGW20 GGOV 081000
METAR GGOV 081000Z 16007KT 110V210 9999 SCT014TCU FEW020CB BKN250    
               29/23 Q1013 NOSIG=
####018001288####
SAUK39 EGRR 080950 RRA
METAR EGDX 080950Z 24006KT 9999 FEW018 SCT100 18/12 Q1019 BLU=
METAR EGOM 080950Z 26012KT 9999 -SHRA SCT010 SCT050 13/11 Q1014 GRN=
METAR EGOS 080950Z 23011KT 9999 FEW028 BKN090 17/09 Q1018 BLU NOSIG=
METAR EGOV 080950Z 20015KT 9999 FEW011 BKN100 16/13 Q1017 BLU NOSIG=
METAR EGOW 080950Z 24009KT 9999 FEW025 SCT180 BKN250 17/10 Q1017
BLU=
METAR EGQL 080950Z 24016KT 9999 FEW026 BKN060 17/08 Q1012 BLU NOSIG=
METAR EGQS 080950Z 22016KT 9999 FEW035 SCT050 16/09 Q1009 BLU NOSIG=
METAR EGUY 080950Z 24007KT 9999 SCT040 BKN120 19/09 Q1018 BLU=
METAR EGVO 080950Z 31001KT 9999 FEW006 BKN007 BKN100 16/15 Q1019 GRN
 NOSIG=
METAR EGWC 080950Z 22007KT 9999 SCT025 17/10 Q1019 BLU=
METAR EGXC 080950Z 22009KT 9999 FEW025 SCT090 BKN180 19/10 Q1017 BLU
NOSIG=
METAR EGXD 080950Z 22009KT 9999 FEW028 BKN150 BKN250 18/11 Q1016 BLU
NOSIG=
METAR EGXE 080950Z 22011KT 9999 SCT030 BKN160 18/11 Q016 BLU NOSIG=
METAR EGXT 080950Z 23008KT 9999 FEW020 SCT090 BKN120 18/09 Q1018
BLU=
METAR EGXU 22007KT 9999 FEW029 SCT150 18/10 Q1016 BLU NOSIG=
METAR EGXX 080950Z AUTO 22008KT 9999NDV // NCD ///// Q////=
METAR EGYD 080950Z 25012KT 9999 FEW035 SCT090 19/10 Q1018 BLU NOSIG=
METAR EGYH 080950Z 26010KT 9999 FEW035 BKN100 19/// Q1018 BLU=
####018000105####
SAUK39 EGRR 080950 CCA
METAR EGYM 050950Z 24011KT 9999 FEW020 BKN090 BKN150 20/11 Q1018 BLU
NOSIG=
####018000089####
SAMT20 GQNN 081000
METAR GQNN 081000Z 20007KT 170V230 6000 SCT020 29/23 Q1013 NOSIG=
####018000095####
SAIN32 VIDP 080930 RRA
METAR VIJP 080930Z VRB04KT 4000 HZ SCT030 SCT040 36/22 Q1005 NOSIG=
####018000091####
SAGR41 KWBC 080950 RRB
METAR
LGPZ 080950Z 26015KT 9999 FEW025 28/19 Q1013 NOSIG BLU=
####018000075####
SABZ24 SBPK 081000
METAR SBPK 081000Z 27006KT 9999 FEW020 09/07 Q1019=
####018000177####
SAMX31 KWBC 080945 RRE
METAR
MMGL 080942Z 00000KT 7SM RA OVC080 19/17 A3003 RMK 6//// 8/07/
     RAB40=
MMPR 080944Z 00000KT 12SM SCT025 BKN070 25/23 A2980 RMK 8/430=
####018000190####
SAMX42 KWBC 080945 RRC
METAR
MMSP 080944Z 00000KT 8SM SCT010 SCT020 BKN080 17/17 A3012 RMK
     8/530 HZY MSGTX MMZC=
MMZC 080941Z 12006KT 8SM BKN020 BKN070 16/12 A3016 RMK 8/760=
####018000112####
SAMX41 KWBC 080945 RRC
METAR
MMGL 080942Z 00000KT 7SM RA OVC080 19/17 A3003 RMK 6//// 8/07/
     RAB40=
####018000088####
SANO41 KWBC 080950 RRA
METAR
ENBL 080950Z 20015KT 9999 SCT040 SCT070 15/07 Q1010=
####018000108####
SARA31 KWBC 080900 RRL
METAR
UTNU 080930Z 24002MPS 200V290 CAVOK 42/10 Q1008 R13/CLRD60
     NOSIG=
####018000086####
SPUS41 KWBC 081002
SPECI
KBDL 080958Z 13004KT 5SM HZ BKN012 BKN100 24/21 A3005=
####018000137####
SAUK31 KWBC 080950 RRA
METAR
EGNH 080950Z 24013KT 9999 SCT021 17/11 Q1017=
EGNJ 080950Z 21010KT 180V240 9999 FEW018 19/12 Q1017=
####018000247####
SAUK32 KWBC 080950 RRB
METAR
EGPA 080950Z 20016KT 9999 VCSH FEW027 SCT048 17/11 Q1007=
EGPC 080950Z 20015G25KT 9999 FEW020 16/10 Q1008=
EGSH 080950Z 25005KT 220V300 4000 -RA FEW004 SCT007 BKN013 19/17
     Q1019 BECMG 9999 NSW SCT030=
####018000494####
SAUK42 KWBC 080950 RRA
METAR
EGPC 080950Z 20015G25KT 9999 FEW020 16/10 Q1008=
EGPE 080950Z 22018KT 9999 FEW015 SCT034 17/10 Q1008=
EGPL 080950Z 22021KT 9999 FEW018TCU 15/11 Q1007=
EGPM 080950Z 22021KT 9999 FEW014 SCT035 16/10 Q1005=
EGPN 080950Z 23015KT 9999 FEW028 SCT045 16/12 Q1012=
EGPO 080950Z 21020KT 9999 -SHRA FEW014CB SCT030 14/11 Q1005=
EGPU 080950Z 23020KT 9999 SCT021 15/12 Q1009=
EGPU 080950Z NIL=
EGSC 080950Z 22005KT 130V290 9000 FEW020 SCT030 19/14 Q1018=
####018000299####
SAUK41 KWBC 080950 RRB
METAR
EGAE 080950Z 23013KT 9999 FEW018 SCT040 16/10 Q1012=
EGBE 080950Z NIL=
EGBJ 080950Z 21006KT 160V260 9999 FEW028 20/10 Q1018=
EGDL 080950Z 21006KT 9999 FEW018 SCT150 18/12 Q1019 NOSIG=
EGNC 080950Z 24015KT 9999 SHRA FEW015 SCT025 SCT045 16/11
     Q1015=
####018000123####
SAUS44 KMOB 081001 COR
MTRNSE
METAR KNSE 080956Z AUTO 00000KT 3/4SM BR CLR 23/21 A3002 RMK AO2 
SLP149 T02280211 $
####018000129####
SAXX99 KWBC 080900 RRX
METAR
MMLO 080945Z 16004KT 7SM BKN025 OVC200 18/18 A3009 RMK 60085 8/77/
     OCNL DROPS -DZ E14=
####018000068####
SABZ23 SBCF 081000
METAR SBCF 081000Z 15002KT CAVOK 10/08 Q1023=
####018000268####
SAZA42 FAJS 081000
METAR FAVV 081000Z AUTO 04009KT //// // ////// 14/05 Q1033=
METAR FAJB 081000Z AUTO 07004KT //// // ////// 14/05 Q1034=
METAR FASI 081000Z AUTO 06005KT //// // ////// 16/02 Q1034=
METAR FAGC 081000Z AUTO 04008KT //// // ////// 15/04 Q1035=
####018000087####
SAAG SAZS 081000
METAR SAZS 081000Z  32010KT 5000 FZRA BKN008
BKN030  01/00 Q1005=
####018000087####
SAGL31 BGSF 080950 RRA
METAR BGBW 080950Z 27003KT 9999 FEW070 11/04 Q1009 RMK 1AC =
####018000068####
SABZ18 SBRP 081000
METAR SBRP 081000Z 10003KT CAVOK 11/08 Q1020=
####018000081####
SABZ21 SBRF 081000
METAR SBRF 081000Z 24005KT 9999 FEW020 BKN070 23/21 Q1016=
####018000087####
SAGL41 BGSF 080950 RRB
METAR BGBW 080950Z 27003KT 9999 FEW070 11/04 Q1009 RMK 1AC =
####018000084####
SPUS51 KWBC 081002
SPECI
KEKN 080959Z AUTO 00000KT 2SM BR BKN070 17/16 A3016=
####018000514####
SACH71 SCSC 081000
METAR
SCAR 081000Z 30002KT 9999 OVC023 15/09 Q1016=
SCDA NIL=
SCFA 081000Z 06005KT 9999 OVC017 13/08 Q1016=
SCIP 081000Z 00000KT 8000 -SHRA SCT012 OVC020 18/17 Q1023 TEMPO
 5000 -SHRA=
SCAT 081000Z AUTO 02005KT 0250 NDV R17/0175V0325D
    RMID/0250VP2000D // VV000 08/07 Q1016=
SCSE 081000Z 13003KT CAVOK 06/05 Q1017 NEFO PLAYA SKC=
SCER NIL=
SCEL 081000Z 33004KT 2500 BR BKN130 01/01 Q1021 NOSIG=
SCRG NIL=
SCIE 081000Z 31012KT 5000 -SHRA BKN004 OVC010 13/11 Q1019=
####018000480####
SACH72 SCSC 081000
METAR
SCEL 081000Z 33004KT 2500 BR BKN130 01/01 Q1021 NOSIG=
SCIE 081000Z 31012KT 5000 -SHRA BKN004 OVC010 13/11 Q1019=
SCTC 081000Z 32006KT 260V010 5000 SHRA BKN012 OVC025 11/10
    Q1013=
SCTE 081000Z 25004KT 9999 BKN030 08/07 Q1009 NOSIG=
SCMK NIL=
SCON NIL=
SCFT 081000Z AUTO VRB01KT 6000 -RA ///009 02/01 Q1003=
SCBA 081000Z AUTO 26009KT 230V290 9999 M01/M04 Q1000=
SCCI 081000Z 01011KT 9999 SCT025 M04/M07 Q0987 NOSIG=
SCRM NIL=
####018000114####
SAUS41 KPHI 081002
MTRNEL
SPECI KNEL 081000Z AUTO 00000KT 2 1/2SM BR FEW016 OVC100 24/22 A3003 
RMK AO2 $
####018000027####
SATU33 LTAA 080950
NIL
####018000158####
SAJD31 OJAI 081000
METAR OJAI 081000Z 29010KT CAVOK 32/01 Q1012 NOSIG=
METAR OJAM 081000Z 22006KT 6000 NSC 31/07 Q1012 NOSIG=
METAR OJAQ 081000Z NIL=
####018000189####
SASQ41 LZIB 081000
METAR LZPP 081000Z 36006KT 320V040 CAVOK 23/12 Q1022=
METAR LZSL 081000Z 09004KT 010V270 CAVOK 23/08 Q1021=
METAR LZZI 081000Z 06007KT 350V120 CAVOK 22/09 Q1022=
####018000093####
SABR31 TBPB 081000
METAR TBPB 081000Z 08016KT 9999 SHRA BKN014 BKN280 28/24 Q1013 NOSIG=
####018000158####
SAJD20 OJAM 081000
METAR OJAI 081000Z 29010KT CAVOK 32/01 Q1012 NOSIG=
METAR OJAM 081000Z 22006KT 6000 NSC 31/07 Q1012 NOSIG=
METAR OJAQ 081000Z NIL=
####018000199####
SASQ31 LZIB 081000
METAR LZIB 081000Z 34008KT 300V040 CAVOK 23/07 Q1023=
METAR LZKZ 081000Z 03008KT 350V080 CAVOK 22/09 Q1021 NOSIG=
METAR LZTT 081000Z VRB03KT 9999 FEW040 20/08 Q1022 NOSIG=
####018000084####
SALC31 TLPL 081000
METAR TLPC 081000Z 08007KT 9999 FEW018CB SCT027 28/25 Q1013=
####018000081####
SAHU31 LHBM 081000
METAR LHBP 081000Z 11007KT 9999 SCT048 23/11 Q1022 NOSIG=
####018000082####
SALC31 TLPL 081000
METAR TLPL 081000Z 10020KT 9999 FEW026 BKN300 29/23 Q1013=
####018000088####
SAFG20 SOCA 081000
METAR SOCA 081000Z VRB01KT 9999 FEW003 SCT020 25/24 Q1012 NOSIG=
####018000123####
SAUS44 KMOB 081002 COR
MTR79J
METAR K79J 080956Z AUTO 00000KT 9SM CLR 24/21 A3002 RMK AO2 SLP159 
T02390211 TSNO $
####018000085####
SPUS72 KWBC 081002
SPECI
KGNV 080958Z AUTO 00000KT 1 3/4SM BR CLR 19/18 A3000=
####018000088####
SPUS72 KWBC 081002
SPECI
KTXK 080958Z AUTO 00000KT 1 3/4SM BR BKN003 23/23 A3004=
####018000396####
SAMC31 GMMC 081000
METAR GMFF 081000Z 32005KT 8000 FEW033 27/20 Q1018 NOSIG=
METAR GMME 081000Z 33006KT 6000 SCT010 BKN015 23/18 Q1016 NOSIG=
METAR GMMN 081000Z 01009KT 340V050 9999 SCT010 BKN023 26/19 Q1016
NOSIG=
METAR GMMX 081000Z 30005KT 240V030 7000 FEW026 29/18 Q1016 NOSIG=
METAR GMTT 081000Z 27007KT 250V320 8000 SCT016 BKN100 25/20 Q1016
NOSIG=
METAR GMAD 081000Z NIL=
####018000562####
SAMC32 GMMC 081000
METAR GMFF 081000Z 32005KT 8000 FEW033 27/20 Q1018 NOSIG=
METAR GMFK 081000Z 10008KT CAVOK 35/07 Q1025=
METAR GMFM 081000Z 27004KT 5000 SKC 26/19 Q1018=
METAR GMFO 081000Z 21006KT 170V270 CAVOK 40/12 Q1018 NOSIG=
METAR GMMH 081000Z 02018KT 6000 BKN010 20/17 Q1014=
METAR GMML 081000Z 03016KT 8000 BKN020 21/15 Q1016=
METAR GMMW 081000Z 06008KT CAVOK 29/20 Q1017=
METAR GMMZ 081000Z 10004KT 6000 FEW040 FEW050TCU 36/02 Q1024=
METAR GMTA 081000Z 36006KT CAVOK 25/19 Q1016=
METAR GMMC 081000Z NIL=
METAR GMTN 081000Z NIL=
####018000080####
SAMZ40 FQMA 081000
METAR
FQLC 081000Z 11007KT 9999 SCT014 18/08 Q1027=

####018000078####
SAMZ40 FQMA 081000
METAR FQQL 081000Z 15010KT 9999 SCT020 28/17 Q1024=

####018000478####
SACN60 CWAO 080900 RRE
PCC SA 0900 AUTO8 M M M M/12/10/1503/M/ M 34MM=
PDA SA 0900 AUTO8 M M M M/13/10/MMMM/M/ M 76MM=
PDU SA 0900 AUTO8 M M M M/14/12/MMMM/M/ M 07MM=
PEB SA 0900 AUTO8 M M M M/12/10/MMMM/M/ M 17MM=
PGI SA 0900 AUTO8 M M M M/13/11/0000/M/ M 91MM=
PHR SA 0900 AUTO8 M M M M/10/09/1102/M/ M 68MM=
PLF SA 0900 AUTO8 M M M M/16/12/MMMM/M/ M 67MM=
PMN SA 0900 AUTO8 M M M M/12/11/MMMM/M/ M 87MM=
PSL SA 0900 AUTO8 M M M M/15/12/MMMM/M/ M 31MM=

####018000078####
SACN93 CWAO 080900 RRG
WOV SA 0900 AUTO8 M M M M/13/10/1403/M/ M 47MM=

####018000084####
SACN90 CWAO 080900 RRF
WFX SA 0900 AUTO8 M M M 135/11/09/2908/M/M 3009 77MM=

####018000084####
SACN92 CWAO 080900 RRG
WLG SA 0900 AUTO8 M M M 180/10/09/3007/M/M 2014 18MM=

####018000278####
SACN59 CWAO 080900 RRK
PEA SA 0900 AUTO8 M M M M/13/12/MMMM/M/ M 09MM=
PSD SA 0900 AUTO8 M M M M/13/10/MMMM/M/ M 57MM=
PSP SA 0900 AUTO8 M M M M/10/08/MMMM/M/ M 83MM=
PTU SA 0900 AUTO8 M M M M/11/10/MMMM/M/ M 95MM=
PWB SA 0900 AUTO8 M M M M/11/09/MMMM/M/ M 40MM=

####018000119####
SACN44 CWAO 080900 RRB
METAR CYSM 080900Z 00000KT 15SM FEW080 SCT140 BKN220 11/08 A2992 RMK
AC1AC2CI1 SLP138=

####018000103####
SACN91 CWAO 080900 RRE
WHI SA 0900 AUTO8 M M M M/11/09/2311/M/0007 PCPN 0.7MM PAST HR M
11MM=

####018000078####
SACN98 CWAO 080900 RRG
XBW SA 0900 AUTO8 M M M M/10/09/2503/M/ M 39MM=

####018000086####
SPUS81 KWBC 081002
SPECI
KBDL 080958Z 13004KT 5SM HZ BKN012 BKN100 24/21 A3005=
####018000084####
SPUS81 KWBC 081002
SPECI
KEKN 080959Z AUTO 00000KT 2SM BR BKN070 17/16 A3016=
####018000086####
SANC01 NWWU 081000
METAR NWWU 081000Z AUTO VRB02KT 9999NDV BKN044/// 21/18 Q1015=
####018000080####
SANC01 NWWL 081000
METAR NWWL 081000Z AUTO 00000KT 9999NDV NCD 16/15 Q1016=
####018000925####
SASA KAWN 081000 RRA
METAR SBAR 081000Z 23005KT CAVOK 23/23 Q1017=
METAR SBBV 081000Z 08002KT 9999 SCT025 SCT090 25/23 Q1012=
METAR SBCG 081000Z 08009KT CAVOK 15/08 Q1016=
METAR SBCR 081000Z 15008KT CAVOK 23/13 Q1013=
METAR SBEG 081000Z 00000KT 9999 FEW010 SCT100 25/22 Q1012=
METAR SBFL 1000Z 19010G20KT CAVOK 22/17 Q1016=
METAR SBFN 081000Z 12008KT 9999 SCT017 SCT100 27/23 Q1014=
METAR SBGR 081000Z 08001KT CAVOK 10/09 Q1021=
METAR SBKP 081000Z 09005KT 8000 NSC 10/08 Q1021=
METAR SBMN 081000Z 07005KT 9999 FEW010 BKN100 26/24 Q1012=
METAR SBSJ 081000Z 00000KT 9000 SCT012 10/09 Q1021=
METAR SBSP 081000Z 31004KT CAVOK 16/09 Q1021=
METAR SBSV 081000Z 25006KT 9999 4500NW -SHRA BKN011 SCT017 BKN070 23/21
      Q1018=
METAR SGAS 081000Z 17010KT 9999 BKN008 OVC015 17/15 Q1015=
METAR SGES 081000Z 17004KT CAVOK 16/15 Q1015=
METAR SVMI 081000Z 05002KT 8000 TSDZ FEW013 BKN016 25/25 Q1013=
####018001533####
SANA35 KAWN 081000 RRB
METAR KADW 080955Z 06004KT 8SM CLR 25/23 A3001 RMK AO2A SLP161 T02450230
      $=
METAR KCHS 080956Z 28005KT 9SM CLR 24/19 A2996 RMK AO2 SLP143 T02440194=
METAR KDAB 080953Z 00000KT 10SM FEW026 20/19 A2999 RMK AO2 SLP156 T02000194
      $=
METAR KDAB 080953Z 00000KT 10SM FEW026 20/19 A2999 RMK AO2 SLP156 T02000194
      $=
METAR KNBC 080956Z 24003KT 7SM FEW250 23/19 A2997 RMK AO2 SLP150 T02330194=
METAR KNBG 080955Z AUTO 04003KT 5SM HZ FEW017 A3001 RMK AO2 SLP163
      PWINO FZRANO $=
METAR KNCA 080956Z AUTO 03004KT 9SM CLR 25/20 A2992 RMK AO2 SLP132
      T02500200=
METAR KNGP 080956Z AUTO 10005KT 10SM FEW080 28/26 A2981 RMK AO2 SLP092
      T02830261 $=
METAR KNJM 080957Z AUTO 36003KT 8SM CLR 26/22 A2992 RMK AO2 SLP134
      T02560217 $=
METAR KNTU 080956Z 09009KT 10SM SCT005 BKN050 BKN100 25/24 A2996 RMK
      AO2 SLP146 T02500239 $=
METAR KPBI 080953Z COR 04007KT 10SM SCT023TCU BKN040 BKN250 27/24 A2993
      RMK AO2 SLP134 TCU OHD NE E-SE CB DSNT SE T02720239=
METAR KVPS 080956Z COR 31002KT 6SM BR SKC 23/23 A3002 RMK AO2A SLP167
      T02330233 COR 0958=
METAR MDSD 081000Z VRB03KT 9999 FEW018 24/22 Q1014=
METAR MYNN 081000Z 00000KT 9999 FEW012CB FEW015TCU 27/27 A2993=
METAR TBPB 081000Z 08016KT 9999 SHRA BKN014 BKN280 28/24 Q1013 NOSIG=
METAR TFFF 081000Z AUTO 07012KT 9999NDV BKN011/// BKN024/// BKN086///
      28/24 Q1013=
METAR TXKF 080955Z 17014KT 9999 FEW013TCU SCT060 BKN170 BKN300 25/23
      Q1018 RMK TCU DSNT N /=
####018001830####
SAEU KAWN 081000 RRJ
METAR EBBL 080955Z 24005KT 9999 FEW220 30/10 Q1019 BLU BLU=
METAR EBFN 080955Z 31009KT 9999 FEW042 BKN200 21/17 Q1020 BLU BLU=
METAR EBFS 080955Z 21005KT 9999 FEW250 27/09 Q1021 BLU BLU=
METAR EDAH 080950Z 15005KT 110V180 CAVOK 22/11 Q1022=
METAR EGDX 080950Z 24006KT 9999 FEW018 SCT100 18/12 Q1019 BLU=
METAR EGOS 080950Z 23011KT 9999 FEW028 BKN090 17/09 Q1018 BLU NOSIG=
METAR EGOV 080950Z 20015KT 9999 FEW011 BKN100 16/13 Q1017 BLU NOSIG=
METAR EGQL 080950Z 24016KT 9999 FEW026 BKN060 17/08 Q1012 BLU NOSIG=
METAR EGQS 080950Z 22016KT 9999 FEW035 SCT050 16/09 Q1009 BLU NOSIG=
METAR EGVO 080950Z 31001KT 9999 FEW006 BKN007 BKN100 16/15 Q1019 GRN
      NOSIG=
METAR EGWC 080950Z 22007KT 9999 SCT025 17/10 Q1019 BLU=
METAR EGXC 080950Z 22009KT 9999 FEW025 SCT090 BKN180 19/10 Q1017 BLU
      NOSIG=
METAR EGXD 080950Z 22009KT 9999 FEW028 BKN150 BKN250 18/11 Q1016 BLU
      NOSIG=
METAR EGXE 080950Z 22011KT 9999 SCT030 BKN160 18/11 Q016 BLU NOSIG=
METAR EGXT 080950Z 23008KT 9999 FEW020 SCT090 BKN120 18/09 Q1018 BLU=
METAR EGXU 080950Z 22007KT 9999 FEW029 SCT150 18/10 Q1016 BLU NOSIG=
METAR EGXX 080950Z AUTO 22008KT 9999NDV // NCD ///// Q////=
METAR EGYD 080950Z 25012KT 9999 FEW035 SCT090 19/10 Q1018 BLU NOSIG=
METAR EGYH 080950Z 26010KT 9999 FEW035 BKN100 19/// Q1018 BLU=
METAR LBBG 081000Z 30006MPS 9999 SCT025 BKN076 OVC096 18/14 Q1015 NOSIG=
METAR LBGO 081000Z 00000MPS 5000 SHRA SCT033CB OVC040 15/14 Q1018 NOSIG=
METAR LBPD 081000Z 26005MPS 9999 -RA SCT035 SCT050 OVC060 16/14 Q1017
      NOSIG=
METAR LBWN 081000Z 27005MPS 230V300 9999 BKN024 20/15 Q1014 NOSIG=
METAR LHBP 081000Z 11007KT 9999 SCT048 23/11 Q1022 NOSIG=
METAR LZIB 081000Z 34008KT 300V040 CAVOK 23/07 Q1023=
METAR LZTT 081000Z VRB03KT 9999 FEW040 20/08 Q1022 NOSIG=
####018000124####
SAUS43 KFSD 081002 COR
MTRFSD
METAR KFSD 080956Z 31007KT 10SM CLR 16/14 A3016 RMK AO2 SLP208 BKN 
ABV 120 T01610144
####018000076####
SAYE20 OYMB 081000
METAR OYMB 081000Z 03020KT 6000 FEW030 40/M05 Q1005=
####018001856####
SAUK KAWN 081000 RRB
METAR EGAE 080950Z 23013KT 9999 FEW018 SCT040 16/10 Q1012=
METAR EGBJ 080950Z 21006KT 160V260 9999 FEW028 20/10 Q1018=
METAR COR EGCC 080950Z 23012KT 9999 FEW032 19/10 Q1017 NOSIG=
METAR EGEC 080950Z 22014KT 180V250 9999 FEW023 16/10 Q1013=
METAR EGNC 080950Z 24015KT 9999 SHRA FEW015 SCT025 SCT045 16/11 Q1015=
METAR EGNH 080950Z 24013KT 9999 SCT021 17/11 Q1017=
METAR EGNJ 080950Z 21010KT 180V240 9999 FEW018 19/12 Q1017=
METAR EGOS 080950Z 23011KT 9999 FEW028 BKN090 17/09 Q1018 BLU NOSIG=
METAR EGOV 080950Z 20015KT 9999 FEW011 BKN100 16/13 Q1017 BLU NOSIG=
METAR EGPA 080950Z 20016KT 9999 VCSH FEW027 SCT048 17/11 Q1007=
METAR EGPC 080950Z 20015G25KT 9999 FEW020 16/10 Q1008=
METAR EGPE 080950Z 22018KT 9999 FEW015 SCT034 17/10 Q1008=
METAR EGPL 080950Z 22021KT 9999 FEW018TCU 15/11 Q1007=
METAR EGPM 080950Z 22021KT 9999 FEW014 SCT035 16/10 Q1005=
METAR EGPN 080950Z 23015KT 9999 FEW028 SCT045 16/12 Q1012=
METAR EGPO 080950Z 21020KT 9999 -SHRA FEW014CB SCT030 14/11 Q1005=
METAR EGPU 080950Z 23020KT 9999 SCT021 15/12 Q1009=
METAR EGQL 080950Z 24016KT 9999 FEW026 BKN060 17/08 Q1012 BLU NOSIG=
METAR EGSC 080950Z 22005KT 130V290 9000 FEW020 SCT030 19/14 Q1018=
METAR COR EGSH 080950Z 25005KT 220V300 4000 -RA FEW004 SCT007 BKN013
      19/17 Q1019 BECMG 9999 NSW SCT030=
METAR EGXC 080950Z 22009KT 9999 FEW025 SCT090 BKN180 19/10 Q1017 BLU
      NOSIG=
METAR EGXD 080950Z 22009KT 9999 FEW028 BKN150 BKN250 18/11 Q1016 BLU
      NOSIG=
METAR EGXE 080950Z 22011KT 9999 SCT030 BKN160 18/11 Q016 BLU NOSIG=
METAR EGXJ 080952Z 26010KT 9999 FEW030 SCT100 BKN250 18/10 Q1018 BLU=
METAR EGXT 080950Z 23008KT 9999 FEW020 SCT090 BKN120 18/09 Q1018 BLU=
METAR EGXX 080950Z AUTO 22008KT 9999NDV // NCD ///// Q////=
METAR EGYH 080950Z 26010KT 9999 FEW035 BKN100 19/// Q1018 BLU=
####018000097####
SPUS31 KKCI 080945
SPECI
KS58 080945Z 09018KT 10SM SCT015 28/26 A2995 RMK WT28 SEAS 3-5FT=
####018000118####
SAAK41 KNKA 081002
METAR PAVC 080956Z AUTO 00000KT 10SM 06/06 A2995 RMK AO2 PWINO TSNO 
    T00550055 SLP144 $=
####018001670####
SASA KAWN 081000 RRB
METAR SAZS 081000Z 32010KT 5000 FZRA BKN008 BKN030 01/00 Q1005=
METAR SBCF 081000Z 15002KT CAVOK 10/08 Q1023=
METAR SBCT 081000Z 21001KT CAVOK 10/09 Q1021=
METAR SBCZ 081000Z 00000KT 8000 NSC 23/23 Q1011=
METAR SBGO 081000Z 00000KT CAVOK 14/10 Q1020=
METAR SBJP 081000Z 23008KT 9999 FEW020 23/21 Q1016=
METAR SBLO 081000Z 23002KT CAVOK 15/13 Q1019=
METAR SBMA 081000Z 26004KT 7000 NSC ///// Q1013=
METAR SBMQ 081000Z 34001KT 9999 FEW015 25/25 Q1013=
METAR SBNT 081000Z 19006KT 9999 FEW020 BKN100 23/22 Q1015=
METAR SBPB 081000Z 07007KT 9999 SCT020 BKN100 28/22 Q1013=
METAR SBPK 081000Z 27006KT 9999 FEW020 09/07 Q1019=
METAR SBPL 081000Z 16008KT 9999 SCT020 22/19 Q1019=
METAR SBPV 081000Z 00000KT CAVOK 24/22 Q1012=
METAR SBRB 081000Z 00000KT CAVOK 22/22 Q1012=
METAR SBRF 081000Z 24005KT 9999 FEW020 BKN070 23/21 Q1016=
METAR SBRP 081000Z 10003KT CAVOK 11/08 Q1020=
METAR SBSN 081000Z 16002KT CAVOK 23/22 Q1012=
METAR SBTE 081000Z 16005KT CAVOK 26/24 Q1014=
METAR SBUG 081000Z 11003KT CAVOK 06/05 Q1020=
METAR SBVT 081000Z 28002KT CAVOK 18/16 Q1020=
METAR SCAR 081000Z 30002KT 9999 OVC023 15/09 Q1016=
METAR SCBA 081000Z AUTO 26009KT 230V290 9999 M01/M04 Q1000=
METAR SCCI 081000Z 01011KT 9999 SCT025 M04/M07 Q0987 NOSIG=
METAR SCEL 081000Z 33004KT 2500 BR BKN130 01/01 Q1021 NOSIG=
METAR SCFA 081000Z 06005KT 9999 OVC017 13/08 Q1016=
METAR SCIE 081000Z 31012KT 5000 -SHRA BKN004 OVC010 13/11 Q1019=
METAR SCSE 081000Z 13003KT CAVOK 06/05 Q1017 NEFO PLAYA SKC=
METAR SCTE 081000Z 25004KT 9999 BKN030 08/07 Q1009 NOSIG=
METAR SOCA 081000Z VRB01KT 9999 FEW003 SCT020 25/24 Q1012 NOSIG=
####018000519####
SAAU69 AMMC 081000
METAR YSTW 081000Z AUTO 15010KT 9999NDV // NCD 10/06 Q1024=
METAR YSWG 081000Z AUTO 13006KT 9999NDV // NCD 07/04 Q1026=
METAR YTEF 081000Z AUTO 01007KT //// // ////// 21/15 Q1012=
METAR YTNK 081000Z AUTO 10005KT 9999NDV // NCD 16/12 Q1019=
METAR YTRE 081000Z AUTO 27005KT //// // ////// 13/12 Q1025=
METAR YWGT 081000Z AUTO 29003KT //// // ////// 04/04 Q1027=
METAR YWHA 081000Z AUTO 00000KT 9999NDV // NCD 06/02 Q1024=
METAR YWLM 081000Z 36003KT 9999 SCT020 BKN045 11/11 Q1026=

####018000072####
SABZ23 SBGL 081000
METAR SBGL 081000Z 00000KT 7000 NSC 16/15 Q1019=
####018000087####
SACA01 KMSC 081002
METAR MYNN 081000Z 00000KT 9999 FEW012CB FEW015TCU 27/27 A2993=
####018002965####
SAUS20 KNKA 081002
METAR KRIC 080954Z 00000KT 6SM HZ SCT150 SCT250 24/21 A2999 RMK
     AO2 SLP158 T02440206=
METAR K0R3 080959Z AUTO 06004KT 7SM CLR 25/25 A2998 RMK AO2=
METAR K1A5 081000Z AUTO 00000KT 5SM BR CLR 16/15 A3015 RMK AO2 
     T01610150=
METAR K2G4 081000Z AUTO 00000KT 10SM SCT065 22/13 A3019 RMK
     AO1=
METAR K2W6 080959Z AUTO 00000KT 3SM 24/24 A3001 RMK AO1 SKY
     OBSCURED=
METAR K3I2 081000Z AUTO 00000KT 2 1/2SM BR OVC001 18/18 A3009 RMK 
     AO2=
METAR K3J7 080959Z AUTO 00000KT 10SM CLR 22/21 A3000 RMK AO2=
METAR K47A 081000Z AUTO 03003KT 7SM CLR 20/17 A3006 RMK AO2 LTG 
     DSNT SW T01960173=
METAR KACP 080959Z AUTO 00000KT 5SM BR CLR 24/23 A2999 RMK AO2=
METAR KAMN 080955Z AUTO 00000KT 5SM -RA SCT017 BKN070 OVC085 23/22
     A3003 RMK AO2=
SPECI KAOO 081001Z AUTO 00000KT 2 1/2SM BR CLR 18/16 A3011 RMK AO2=
METAR KAQP 080954Z AUTO 25005KT 10SM CLR 13/13 A3011 RMK AO2=
METAR KAVC 081000Z AUTO 00000KT 7SM CLR 25/19 A3004 RMK AO2=
METAR KAYS 081000Z AUTO 00000KT 4SM CLR 21/21 A3000 RMK AO1=
METAR KBCB 081000Z AUTO 00000KT 4SM BR OVC085 22/22 A3015 RMK AO2=
METAR KBFW 080953Z AUTO 00000KT 10SM CLR 16/14 A3001 RMK AO2=
METAR KBIJ 081000Z AUTO 00000KT 10SM CLR 19/ A3002 RMK AO2=
METAR KBQP 081007Z AUTO 00000KT 2 1/2SM BR CLR 23/23 A3004 RMK AO2=
METAR KCBE 081000Z AUTO 00000KT 5SM CLR 20/18 A3011 RMK AO1=
METAR KCDA 080955Z AUTO 28003KT 1 1/2SM BR VV007 20/17 A3010 RMK
     AO2=
METAR KCDD 080951Z AUTO 18004KT 10SM CLR 17/17 A3002 RMK AO2=
METAR KCGE 080957Z AUTO 00000KT 1 1/2SM SCT065 BKN070 BKN090 23/23
     A3001 RMK AO1=
METAR KCGS 081005Z AUTO 00000KT 5SM CLR 25/23 A3001 RMK AO1=
METAR KCPK 081001Z AUTO 00000KT 2SM BR SCT001 23/22 A2996 RMK AO2=
METAR KCVX 080955Z AUTO 20005KT 10SM BKN110 21/20 A2998 RMK
     AO2=
METAR KFDK 080956Z AUTO 00000KT 7SM SCT100 24/21 A3004 RMK AO2=
METAR KDMW 080958Z AUTO 00000KT 7SM CLR 24/21 A3005 RMK AO2=
METAR KDPL 081000Z AUTO 00000KT 7SM CLR 23/21 A2994 RMK AO2=
METAR KDVP 080956Z AUTO 28003KT 10SM CLR 15/13 A3017 RMK AO2
     T01530133=
METAR KEDE 080956Z AUTO 03004KT 1 1/4SM BR 24/23 A2995 RMK AO2=
METAR KEMV 080957Z AUTO 33003KT 4SM BR CLR 23/21 A2998 RMK AO2=
METAR KERY 080955Z AUTO 24005KT 5SM -RA BKN007 OVC010 19/19 A2997
     RMK AO2=
METAR KESN 081003Z AUTO 00000KT 1 1/2SM BR VV007 22/22 A3004 RMK
     AO2=
METAR KETH 080954Z AUTO 24006KT 10SM CLR 16/14 A3010 RMK AO2=
METAR KEXX 080959Z AUTO 00000KT 10SM CLR 21/18 A3000 RMK AO2=
METAR KFKS 080955Z AUTO 00000KT 10SM BKN100 BKN120 22/20 A2997 RMK
     AO2=
METAR KFME 081000Z AUTO 00000KT 3SM CLR 20/20 A3003 RMK AO1=
METAR KFOZ 080953Z AUTO 00000KT 1/4SM FG OVC001 13/12 A3004 RMK
     AO2=
METAR KFQD 080959Z AUTO 33003KT 10SM CLR 22/17 A3004 RMK AO2=
METAR KFYJ 081001Z AUTO 36003KT 4SM SCT080 26/24 A2999 RMK AO1=
METAR KGOV 080955Z AUTO 00000KT 10SM -RA BKN100 22/22 A3001 RMK
     AO2=
####018002384####
SAUS20 KNKA 081002
METAR KHBI 081001Z AUTO 00000KT 22/17 A3002 RMK AO2 PWINO=
METAR KHYX 080955Z AUTO 00000KT 10SM CLR 22/20 A3001 RMK AO2=
METAR KISQ 080955Z AUTO 29005KT 5SM BR BKN004 BKN008 20/18 A2996
     RMK AO2=
METAR KJNX 080959Z AUTO 00000KT 4SM SCT120 21/21 A2995 RMK AO2=
METAR KJYL 081001Z AUTO 00000KT 10SM CLR 23/21 A3000 RMK AO2=
METAR KLDM 080955Z AUTO 18006KT 10SM -DZ BKN080 24/22 A3000 RMK
     AO2=
METAR KMCD 080956Z AUTO 00000KT 10SM SCT120 21/18 A2997 RMK
     AO2=
METAR KMQI 080956Z AUTO 07010KT 10SM SCT011 25/23 A2995 RMK AO2=
METAR KMWK 081002Z AUTO 00000KT 7SM OVC090 23/19 A3005 RMK AO2=
METAR KMZH 080951Z AUTO 28003KT 10SM CLR 15/14 A3004 RMK AO2=
METAR KONZ 080957Z AUTO 00000KT 10SM CLR 24/20 A3002 RMK AO2=
METAR KORB 080954Z AUTO 00000KT 10SM CLR 14/13 A3000 RMK AO2=
METAR KOSC 080954Z AUTO 21003KT 7SM CLR 20/18 A3000 RMK AO2=
METAR KOWA 080954Z AUTO 31003KT 7SM CLR 17/16 A3008 RMK AO2=
METAR KPGV 081000Z AUTO 01005KT 4SM BR CLR 22/21 A2996 RMK AO2=
METAR KPHN 080955Z AUTO 00000KT M1/4SM FG VV000 19/18 A3003 RMK
     AO2=
METAR KPZQ 080955Z AUTO 20005KT 10SM SCT120 22/22 A2998 RMK
     AO2=
METAR KRMY 080955Z AUTO 00000KT 7SM CLR 21/19 A3005 RMK AO2=
SPECI KRVS 081001Z 08003KT 3SM +TSRA BR BKN012 BKN024 OVC046 23/23 
    A3002 RMK AO2 LTG DSNT NE AND SE P0004=
METAR KSAW 080958Z AUTO 00000KT 7SM BKN001 18/17 A2997 RMK AO2=
SPECI KSBA 081001Z 00000KT 9SM OVC013 14/12 A2990 RMK AO2 $=
METAR KSJX 080955Z AUTO 24009KT 4SM -RA BKN002 OVC014 20/19 A2996
     RMK AO2=
METAR KSLH 080955Z AUTO 00000KT 10SM BKN110 21/21 A2995 RMK
     AO2=
SPECI KTAD 081001Z AUTO 34006KT 10SM SCT009 BKN085 14/13 A3037 RMK 
    AO2=
METAR KTNB 081001Z AUTO 00000KT 7SM CLR 16/14 A3020 RMK AO2=
METAR KTTF 080954Z AUTO 00000KT 10SM BKN075 22/21 A3003 RMK
     AO2=
METAR KUKF 081001Z AUTO 00000KT 7SM CLR 21/17 A3007 RMK AO1=
METAR KUNV 081000Z AUTO 00000KT 5SM BR CLR 19/18 A3010 RMK AO2 
     T01940181=
METAR KVWU 080951Z AUTO 26008KT 10SM CLR 18/14 A3002 RMK AO2=
METAR KW29 081000Z AUTO 11003KT 2SM CLR 23/23 A3001 RMK AO1=
METAR KW99 080959Z AUTO 00000KT 5SM HZ SCT085 20/17 A3009 RMK AO2=
METAR KXVG 080956Z AUTO 23004KT 10SM CLR 16/15 A3004 RMK AO2=
METAR PGUA 080955Z AUTO 08015KT 10SM BKN017 27/ A2990 RMK AO2 CIG 015V021
      SLP106 T0270 VISNO RWY24L $=
####018000075####
SACN50 CWAO 080945
VOM SA 0945 AUTO8 M M M M/22/10/1902/M/M M 05MM=

####018000883####
SAUS99 KWBC 081003 RRA
METAR
KRMY 080955Z AUTO 00000KT 7SM CLR 21/19 A3005 RMK AO2=
KSAW 080958Z AUTO 00000KT 7SM BKN001 18/17 A2997 RMK AO2=
KSJX 080955Z AUTO 24009KT 4SM -RA BKN002 OVC014 20/19 A2996 RMK
     AO2=
KSLH 080955Z AUTO 00000KT 10SM BKN110 21/21 A2995 RMK AO2=
KTNB 081001Z AUTO 00000KT 7SM CLR 16/14 A3020 RMK AO2=
KTTF 080954Z AUTO 00000KT 10SM BKN075 22/21 A3003 RMK AO2=
KUKF 081001Z AUTO 00000KT 7SM CLR 21/17 A3007 RMK AO1=
KUNV 081000Z AUTO 00000KT 5SM BR CLR 19/18 A3010 RMK AO2
     T01940181=
KVWU 080951Z AUTO 26008KT 10SM CLR 18/14 A3002 RMK AO2=
KW29 081000Z AUTO 11003KT 2SM CLR 23/23 A3001 RMK AO1=
KW99 080959Z AUTO 00000KT 5SM HZ SCT085 20/17 A3009 RMK AO2=
KXVG 080956Z AUTO 23004KT 10SM CLR 16/15 A3004 RMK AO2=
PGUA 080955Z AUTO 08015KT 10SM BKN017 27/ A2990 RMK AO2 CIG
     015V021 SLP106 T0270 VISNO RWY24L $=
####018000257####
SABO SLLP 081000
METAR SLLP 081000Z 07006KT 9999 FEW010 M04/M05 Q1036=
METAR SLVR 081000Z 15009KT 9999 FEW013 BKN023 BKN070 20/18 Q1015=
METAR SLCB 081000Z 00000KT 8000 FEW027CB SCT200 06/02 Q1025=
METAR SLTJ 081000Z 00000KT 9999 NSC 07/04 Q1022=
####018000718####
SACH10 SCSC 081000
METAR
SCAR 081000Z 30002KT 9999 OVC023 15/09 Q1016=
SCFA 081000Z 06005KT 9999 OVC017 13/08 Q1016=
SCAT 081000Z AUTO 02005KT 0250 NDV R17/0175V0325D
    RMID/0250VP2000D // VV000 08/07 Q1016=
SCIP 081000Z 00000KT 8000 -SHRA SCT012 OVC020 18/17 Q1023 TEMPO
 5000 -SHRA=
SCSE 081000Z 13003KT CAVOK 06/05 Q1017 NEFO PLAYA SKC=
SCEL 081000Z 33004KT 2500 BR BKN130 01/01 Q1021 NOSIG=
SCIE 081000Z 31012KT 5000 -SHRA BKN004 OVC010 13/11 Q1019=
SCTC 081000Z 32006KT 260V010 5000 SHRA BKN012 OVC025 11/10
    Q1013=
SCTE 081000Z 25004KT 9999 BKN030 08/07 Q1009 NOSIG=
SCBA 081000Z AUTO 26009KT 230V290 9999 M01/M04 Q1000=
SCCI 081000Z 01011KT 9999 SCT025 M04/M07 Q0987 NOSIG=
####018003731####
SAUS99 KWBC 081003
METAR
PAVC 080956Z AUTO 00000KT 10SM 06/06 A2995 RMK AO2 PWINO TSNO
     T00550055 SLP144 $=
KRIC 080954Z 00000KT 6SM HZ SCT150 SCT250 24/21 A2999 RMK AO2
     SLP158 T02440206=
K0R3 080959Z AUTO 06004KT 7SM CLR 25/25 A2998 RMK AO2=
K1A5 081000Z AUTO 00000KT 5SM BR CLR 16/15 A3015 RMK AO2
     T01610150=
K2G4 081000Z AUTO 00000KT 10SM SCT065 22/13 A3019 RMK AO1=
K2W6 080959Z AUTO 00000KT 3SM 24/24 A3001 RMK AO1 SKY OBSCURED=
K3I2 081000Z AUTO 00000KT 2 1/2SM BR OVC001 18/18 A3009 RMK
     AO2=
K3J7 080959Z AUTO 00000KT 10SM CLR 22/21 A3000 RMK AO2=
K47A 081000Z AUTO 03003KT 7SM CLR 20/17 A3006 RMK AO2 LTG DSNT SW
     T01960173=
KACP 080959Z AUTO 00000KT 5SM BR CLR 24/23 A2999 RMK AO2=
KAMN 080955Z AUTO 00000KT 5SM -RA SCT017 BKN070 OVC085 23/22 A3003
     RMK AO2=
KAQP 080954Z AUTO 25005KT 10SM CLR 13/13 A3011 RMK AO2=
KAVC 081000Z AUTO 00000KT 7SM CLR 25/19 A3004 RMK AO2=
KAYS 081000Z AUTO 00000KT 4SM CLR 21/21 A3000 RMK AO1=
KBCB 081000Z AUTO 00000KT 4SM BR OVC085 22/22 A3015 RMK AO2=
KBFW 080953Z AUTO 00000KT 10SM CLR 16/14 A3001 RMK AO2=
KBIJ 081000Z AUTO 00000KT 10SM CLR 19/ A3002 RMK AO2=
KBQP 081007Z AUTO 00000KT 2 1/2SM BR CLR 23/23 A3004 RMK AO2=
KCBE 081000Z AUTO 00000KT 5SM CLR 20/18 A3011 RMK AO1=
KCDA 080955Z AUTO 28003KT 1 1/2SM BR VV007 20/17 A3010 RMK AO2=
KCDD 080951Z AUTO 18004KT 10SM CLR 17/17 A3002 RMK AO2=
KCGE 080957Z AUTO 00000KT 1 1/2SM SCT065 BKN070 BKN090 23/23 A3001
     RMK AO1=
KCGS 081005Z AUTO 00000KT 5SM CLR 25/23 A3001 RMK AO1=
KCPK 081001Z AUTO 00000KT 2SM BR SCT001 23/22 A2996 RMK AO2=
KCVX 080955Z AUTO 20005KT 10SM BKN110 21/20 A2998 RMK AO2=
KFDK 080956Z AUTO 00000KT 7SM SCT100 24/21 A3004 RMK AO2=
KDMW 080958Z AUTO 00000KT 7SM CLR 24/21 A3005 RMK AO2=
KDPL 081000Z AUTO 00000KT 7SM CLR 23/21 A2994 RMK AO2=
KDVP 080956Z AUTO 28003KT 10SM CLR 15/13 A3017 RMK AO2
     T01530133=
KEDE 080956Z AUTO 03004KT 1 1/4SM BR 24/23 A2995 RMK AO2=
KEMV 080957Z AUTO 33003KT 4SM BR CLR 23/21 A2998 RMK AO2=
KERY 080955Z AUTO 24005KT 5SM -RA BKN007 OVC010 19/19 A2997 RMK
     AO2=
KESN 081003Z AUTO 00000KT 1 1/2SM BR VV007 22/22 A3004 RMK AO2=
KETH 080954Z AUTO 24006KT 10SM CLR 16/14 A3010 RMK AO2=
KEXX 080959Z AUTO 00000KT 10SM CLR 21/18 A3000 RMK AO2=
KFKS 080955Z AUTO 00000KT 10SM BKN100 BKN120 22/20 A2997 RMK
     AO2=
KFME 081000Z AUTO 00000KT 3SM CLR 20/20 A3003 RMK AO1=
KFOZ 080953Z AUTO 00000KT 1/4SM FG OVC001 13/12 A3004 RMK AO2=
KFQD 080959Z AUTO 33003KT 10SM CLR 22/17 A3004 RMK AO2=
KFYJ 081001Z AUTO 36003KT 4SM SCT080 26/24 A2999 RMK AO1=
KGOV 080955Z AUTO 00000KT 10SM -RA BKN100 22/22 A3001 RMK AO2=
KHBI 081001Z AUTO 00000KT 22/17 A3002 RMK AO2 PWINO=
KHYX 080955Z AUTO 00000KT 10SM CLR 22/20 A3001 RMK AO2=
KISQ 080955Z AUTO 29005KT 5SM BR BKN004 BKN008 20/18 A2996 RMK
     AO2=
KJNX 080959Z AUTO 00000KT 4SM SCT120 21/21 A2995 RMK AO2=
KJYL 081001Z AUTO 00000KT 10SM CLR 23/21 A3000 RMK AO2=
KLDM 080955Z AUTO 18006KT 10SM -DZ BKN080 24/22 A3000 RMK AO2=
KMCD 080956Z AUTO 00000KT 10SM SCT120 21/18 A2997 RMK AO2=
KMQI 080956Z AUTO 07010KT 10SM SCT011 25/23 A2995 RMK AO2=
KMWK 081002Z AUTO 00000KT 7SM OVC090 23/19 A3005 RMK AO2=
KMZH 080951Z AUTO 28003KT 10SM CLR 15/14 A3004 RMK AO2=
KONZ 080957Z AUTO 00000KT 10SM CLR 24/20 A3002 RMK AO2=
KORB 080954Z AUTO 00000KT 10SM CLR 14/13 A3000 RMK AO2=
KOSC 080954Z AUTO 21003KT 7SM CLR 20/18 A3000 RMK AO2=
KOWA 080954Z AUTO 31003KT 7SM CLR 17/16 A3008 RMK AO2=
KPGV 081000Z AUTO 01005KT 4SM BR CLR 22/21 A2996 RMK AO2=
KPHN 080955Z AUTO 00000KT M1/4SM FG VV000 19/18 A3003 RMK AO2=
KPZQ 080955Z AUTO 20005KT 10SM SCT120 22/22 A2998 RMK AO2=
####018000335####
SPUS99 KWBC 081003
SPECI
KAOO 081001Z AUTO 00000KT 2 1/2SM BR CLR 18/16 A3011 RMK AO2=
KRVS 081001Z 08003KT 3SM +TSRA BR BKN012 BKN024 OVC046 23/23 A3002
     RMK AO2 LTG DSNT NE AND SE P0004=
KSBA 081001Z 00000KT 9SM OVC013 14/12 A2990 RMK AO2 $=
KTAD 081001Z AUTO 34006KT 10SM SCT009 BKN085 14/13 A3037 RMK
     AO2=
####018000132####
SAKA31 PTYA 081000
METAR PTYA 080955Z VRB05KT 12SM FEW016CB SCT030 BKN130 OVC300 27/23
A2986 RMK CB VC NE-SE SLP112 T02680229=
####018000088####
SAEW LEMO 081000
METAR LEMO 081000Z 29003KT 240V020 9999 FEW050 27/19 
Q1016 NOSIG=
####018000080####
SASW39 LSSW 080950 RRA
METAR LSMD 080950Z VRB02KT CAVOK 24/11 Q1022 RMK BLU=
####018000576####
SAGR31 LGAT 080950
METAR LGAD 080950Z 32012KT 9999 FEW020 27/17 Q1014=
METAR LGAV 080950Z 02016KT 340V040 9999 FEW020 SCT030 27/13 Q1013
      NOSIG=
METAR LGIR 080950Z 01007KT 9999 FEW020 29/23 Q1011 NOSIG=
METAR LGKL 080950Z 32008KT 9999 FEW030 33/12 Q1011=
METAR LGKO 080950Z 30017KT CAVOK 29/17 Q1010=
METAR LGKR 080950Z 32014KT CAVOK 28/13 Q1013 NOSIG=
METAR LGLM 080950Z NIL=
METAR LGRP 080950Z NIL=
METAR LGSA 080950Z 29010KT 9999 FEW020 33/15 Q1011=
METAR LGSM 080950Z 35014KT CAVOK 31/13 Q1010=
METAR LGTS 080950Z 33022KT 9999 SCT025 23/11 Q1016 NOSIG=
####018000088####
SADN32 EKCH 080950 RRA
METAR EKVJ 080950Z 18006KT 8000 RA SCT020 BKN040 20/17 Q1017=
####018000116####
SABE31 TXKF 080953
METAR TXKF 080955Z 17014KT 9999 FEW013TCU SCT060 BKN170
BKN300 25/23 Q1018 RMK TCU DSNT N=
####018000289####
SANL31 EHDB 080955
METAR EHAM 080955Z 27008KT 190V340 CAVOK 24/16 Q1019 NOSIG=
METAR EHBK 080955Z AUTO 22006KT 170V270 9999NDV NCD 28/11 Q1020
NOSIG=
METAR EHGG 080955Z AUTO 22010KT 190V250 9999NDV NSC 26/13 Q1018
NOSIG=
METAR EHRD 080955Z 27008KT 230V320 CAVOK 25/13 Q1019 NOSIG=
####018000080####
SAQB31 LQBK 081000
METAR LQBK 081000Z 32003KT 9999 FEW036 23/11 Q1022 NOSIG=
####018000086####
SAVN22 SVMI 081000
METAR SVMI 081000Z 05002KT 8000 TSDZ FEW013 BKN016 25/25 Q1013=
####018000259####
SABO59 SLLP 081000
METAR SLLP 081000Z 07006KT 9999 FEW010 M04/M05 Q1036=
METAR SLVR 081000Z 15009KT 9999 FEW013 BKN023 BKN070 20/18 Q1015=
METAR SLCB 081000Z 00000KT 8000 FEW027CB SCT200 06/02 Q1025=
METAR SLTJ 081000Z 00000KT 9999 NSC 07/04 Q1022=
####018000101####
SADN31 EKCH 080950 RRA
METAR EKBI 080950Z 21009KT 170V240 9999 FEW041 SCT075 BKN100
23/15 Q1018=
####018000085####
SAGL41 BGSF 080950 CCA
METAR COR BGPT 080950Z 27006KT 0900 FG OVC002 04/04 Q1010=
####018000101####
SADN31 EKCH 080950 RRB
METAR EKBI 080950Z 21009KT 170V240 9999 FEW041 SCT075 BKN100
23/15 Q1018=
####018000071####
SABZ23 SBGL 081000
METAR SBGL 081000Z 00000KT 7000 NSC 16/15 Q1019=
####018000421####
SAGR33 LGAT 080950
METAR LGHI 080950Z 02012KT 9999 FEW020 SCT080 26/19 Q1011=
METAR LGKC 080950Z NIL=
METAR LGKF 080950Z 33016KT 9999 FEW030 26/17 Q1014=
METAR LGKP 080950Z 32021KT CAVOK 29/17 Q1009=
METAR LGKZ 080950Z NIL=
METAR LGMK 080950Z 02024G34KT 9999 SCT012 25/18 Q1012=
METAR LGNX 080950Z 01020G30KT 9999 FEW020 26/19 Q1011=
METAR LGPA 080950Z NIL=
METAR LGSO 080950Z 36018KT 9999 FEW018 25/18 Q1012=
####018000068####
SABZ23 SBCP 081000
METAR SBCP 081000Z 00000KT CAVOK 16/16 Q1020=
####018000461####
SAGR32 LGAT 080950
METAR LGAL 080950Z NIL=
METAR LGEL 080950Z 36013G23KT 9999 FEW025 27/13 Q1012=
METAR LGKV 080950Z 17007KT 9999 SCT020TCU 22/17 Q1013=
METAR LGMT 080950Z 29008KT 9999 FEW025 SCT100 24/17 Q1011=
METAR LGPZ 080950Z 26015KT 9999 FEW025 28/19 Q1013 NOSIG=
METAR LGRX 080950Z 27010KT 9999 FEW025 28/19 Q1013 NOSIG=
METAR LGSK 080950Z NIL=
METAR LGSR 080950Z 35019KT CAVOK 28/19 Q1010 NOSIG=
METAR LGZA 080950Z 32017KT CAVOK 30/07 Q1013=
####018000249####
SAEO32 EGGY 080950
METAR EEKA 080950Z 31008KT 260V340 CAVOK 21/15 Q1016=
METAR EEKE 080950Z 35008KT 310V010 CAVOK 21/15 Q1016=
METAR EEPU 080950Z 36004KT 320V040 CAVOK 23/19 Q1014=
METAR EETU 080950Z VRB02KT 9999 SCT023TCU SCT030 25/20 Q1013=
####018000088####
SPUS41 KWBC 081003
SPECI
KBDR 081000Z AUTO 07006KT 1 1/2SM BR OVC002 24/23 A3004=
####018000085####
SAGR32 LGAT 080950 RRA
METAR LGAL 080950Z 01009KT 9999 FEW008 BKN025 18/16 Q1015=
####018000090####
SPCN46 CWAO 081002
SPECI CYYU 081002Z 28008KT 12SM -SHRA FEW030 OVC120 RMK SC2AS6=

####018000104####
SPUS52 KWBC 081003
SPECI
KALI 081000Z AUTO 02005KT 4SM -RA BR BKN024 BKN075 OVC090 25/25
A2984=
####018000105####
SASR31 WSSL 081000
METAR WSSL 081000Z 25006KT 9999 -RA FEW018 BKN270 29/24 Q1008 RMK
0930Z Q1008 =
####018000075####
SAQB31 LQMO 081000
METAR LQMO 081000Z 32008KT 9999 FEW045 27/09 Q1018=
####018000091####
SASR31 WSAP 081000
METAR WSAP 081000Z 19002KT 9999 -SHRA 
SCT016 BKN150 31/25 Q1008=
####018000193####
SATD31 TTPP 081000
METAR
TTPP 081000Z 10012KT 3000 -SHRA VCSH FEW010CB BKN038 25/24 Q1012 RERA
NOSIG=
TTCP 081000Z 09008KT 3000 -SHRA VCSH FEW010CB SCT014 BKN030 24/23
Q1013 NOSIG=
####018000075####
SASU01 HSSS 081000
METAR HSSS 081000Z 03004KT CAVOK 39/09 Q1009 NOSIG=
####018000112####
SAAE31 VTBB 080930 RRA
METAR VYYY 080930Z 26005G15KT 7000 BKN015 FEW018CB BKN110 33/27 Q
           1006=
####018000183####
SASW39 LSSW 080950 RRB
METAR LSME 080950Z AUTO 08003KT 330V140 9999NDV FEW092 25/14 Q1022
           RMK BLU=
METAR LSMP 080950Z AUTO 00000KT 9999NDV NCD 26/13 Q1022 RMK BLU=
####018000099####
SAAJ31 UBBB 081000
METAR UBBY 081000Z 14007KT 9999 NSC 33/17 Q1015 NOSIG
RMK R33/CLRD70 G/O=
####018000104####
SPUS72 KWBC 081003
SPECI
KALI 081000Z AUTO 02005KT 4SM -RA BR BKN024 BKN075 OVC090 25/25
A2984=
####018000080####
SPUS73 KWBC 081003
SPECI
KASE 081000Z 16016G27KT 10SM SCT090 10/06 A3038=
####018000102####
SASR31 WSSS 081000
METAR WSSS 081000Z 21004KT 180V250 9999 -RA FEW016 BKN280 29/25 Q1008
NOSIG=
####018000091####
SPUS73 KWBC 081003
SPECI
KSTJ 081000Z AUTO 00000KT 6SM BR BKN005 BKN065 23/21 A3006=
####018000088####
SPUS81 KWBC 081003
SPECI
KBDR 081000Z AUTO 07006KT 1 1/2SM BR OVC002 24/23 A3004=
####018000102####
SAUK39 EGRR 080950 RRB
METAR EGVP 080950Z 18002KT 9999 BKN012 18/15 Q1018 GRN BECMG SCT025
BLU=
####018000105####
SAUK39 EGRR 080950 CCB
METAR EGXW 080950Z 25011KT 9999 FEW032 BKN120 BKN250 18/10 Q1017 BLU
NOSIG=
####018000075####
SACN50 CWAO 080930
VOP SA 0930 AUTO8 M M M M/16/12/0000/M/M M 45MM=

####018000075####
SACN50 CWAO 080945
VOP SA 0945 AUTO8 M M M M/16/11/0602/M/M M 52MM=

####018000075####
SACN50 CWAO 080930
VOM SA 0930 AUTO8 M M M M/22/09/3201/M/M M 68MM=

####018000075####
SACN50 CWAO 080915
VOM SA 0915 AUTO8 M M M M/23/08/1801/M/M M 63MM=

####018000075####
SACN50 CWAO 080915
VOP SA 0915 AUTO8 M M M M/16/12/3201/M/M M 28MM=

####018000095####
SPUS81 KWBC 081003
SPECI
KNEL 081000Z AUTO 00000KT 2 1/2SM BR FEW016 OVC100 24/22 A3003=
####018000738####
SAEW KAWN 081000 RRC
METAR EBBL 080955Z 24005KT 9999 FEW220 30/10 Q1019 BLU BLU=
METAR EBFN 080955Z 31009KT 9999 FEW042 BKN200 21/17 Q1020 BLU BLU=
METAR EBFS 080955Z 21005KT 9999 FEW250 27/09 Q1021 BLU BLU=
METAR EDAH 080950Z 15005KT 110V180 CAVOK 22/11 Q1022=
METAR EDHL 080950Z 15009KT 120V190 CAVOK 27/14 Q1020 RMK L=
METAR EDLN 080950Z 22005KT 150V260 CAVOK 28/10 Q1019 RMK ATIS K=
METAR EDLP 080950Z VRB03KT CAVOK 29/11 Q1020 RMK RWY24 TRL60 JP ATIS
      P=
METAR EDLW 080950Z 20009KT CAVOK 29/09 Q1020 RMK ATIS N=
METAR EDNY 080950Z 20004KT CAVOK 24/14 Q1022 RMK ATIS N=
METAR EDXW 080950Z 21012KT CAVOK 23/12 Q1018 RMK ATIS INFO S=
METAR EHKD 080955Z AUTO 25011KT 9999NDV OVC064/// 19/16 Q1019 BLU BLU=
####018000594####
SAXX60 KAWN 081000 RRA
METAR KHLR 080956Z AUTO 06003KT 10SM BKN015 BKN021 OVC032 25/ A2999
      RMK AO2 SLP145 T0250 $=
METAR PHBK 080956Z AUTO 00000KT 10SM FEW050 24/18 A3003 RMK AO2 SLP171
      T02440178 403000217 TSNO $=
METAR PHNY 080956Z AUTO 06007KT 10SM CLR 20/17 A3009 RMK AO2 TSNO T02000166
      402720172 SLP169 $=
METAR RJSM 081000Z 05003KT 010V080 7000 -SHRA FEW005 BKN040 BKN080
      21/18 Q1009 RMK 1ST005 6SC040 5AC080 A2981 WIND BY EQPT/10
      FCST 1016 BECMG 1011 NSW TEMPO 1215 3000 BR SCT001ST
      BKN003ST BECMG 1516 3000 BR SCT001ST BKN003ST=
####018000861####
SAXX70 KAWN 081000 RRG
METAR KQBR 080955Z AUTO 21010G18KT 190V250 12SM CLR 28/11 A2999 RMK
      AO2 SLP046 T02810114=
METAR KQIR 080955Z 06009KT 6000 HZ CLR 40/26 A2951 RMK AO2A SLP992
      T04040265=
METAR KQLT 080955Z AUTO VRB05KT 7000 38/02 A2990 RMK AO2 SLP995 T03750016
      $=
METAR KQQS 080955Z AUTO 05009G12KT 020V090 9999 FEW085 30/05 A3014
      RMK AO2 SLP064 T03040051 $=
METAR KQRY 080955Z AUTO 29008G12KT 9999 CLR 29/02 A3013 RMK AO2 WSHFT
      0905 SLP071 T02890020 PWINO $=
METAR KQSD 080955Z 27010G15KT 8000 DU HZ SCT080 35/M02 A3003 RMK SLP014=
METAR KQEL 081000Z AUTO 03002KT 7SM FEW039 25/20 A2971 RMK A02=
METAR KQEQ 081000Z AUTO 00000KT 7SM -SHRA SCT080 24/20 A2979 RMK A02=
METAR KQEW 081000Z AUTO 31001KT 7SM SCT070 27/21 A2981 RMK A02=
METAR KQFB 081000Z AUTO 05003KT 4SM BR CLR 24/21 A2991 RMK A02=
####018000105####
SPCN44 CWAO 081001
SPECI CYEK 081001Z AUTO 06004KT 9SM BKN002 OVC024 OVC047 OVC095 07/07
A2959=

####018002972####
SAUS20 KNKA 081003
METAR K3A1 081000Z AUTO 00000KT 7SM CLR 22/22 A3009 RMK AO2 
     T02170218=
METAR K4A9 081000Z AUTO 00000KT 7SM CLR 20/18 A3006 RMK AO2 
     T02000181=
METAR K4R4 081000Z AUTO 00000KT M1/4SM FG OVC009 24/23 A3002 RMK 
     AO2 T02360228=
METAR K8A0 080959Z AUTO 02003KT 10SM CLR 24/22 A3006 RMK AO2=
METAR KAFP 081000Z AUTO 00000KT 10SM CLR 20/18 A2998 RMK AO2 
     T02040180=
METAR KALX 081000Z AUTO 00000KT 7SM CLR 22/21 A3004 RMK AO1=
METAR KBGE 081000Z AUTO 00000KT 10SM CLR 20/19 A3001 RMK AO2=
METAR KBQK 080957Z AUTO 27004KT 10SM CLR 22/21 A3000 RMK AO1 
     T02150210 PNO=
SPECI KBRL 081002Z AUTO 10SM SCT004 22/21 A3004 RMK AO2 $=
METAR KCCO 081000Z AUTO 00000KT 4SM CLR 20/19 A3005 RMK AO1=
METAR KCDH 081000Z AUTO 00000KT 2SM BR OVC001 22/22 A3005 RMK AO2=
METAR KCPC 081000Z AUTO 00000KT 10SM CLR 26/19 A2992 RMK AO2 
     T02570194=
METAR KCTJ 081000Z AUTO 00000KT 10SM CLR 21/19 A3006 RMK AO2 
     T02050189=
METAR KCWF 081000Z AUTO 05004KT 7SM CLR 24/24 A2998 RMK AO2=
METAR KDBN 081000Z AUTO 31007KT 10SM CLR 24/17 A2999 RMK AO1=
METAR KDNN 080958Z AUTO 00000KT 10SM CLR 20/20 A3005 RMK AO2=
METAR KDQH 081000Z AUTO 00000KT 10SM CLR 22/19 A3001 RMK AO1=
METAR KDRI 081000Z AUTO 00000KT 10SM SCT013 OVC019 23/23 A3001 
     RMK AO2=
METAR KEHO 081000Z AUTO 00000KT 10SM CLR 20/18 A3003 RMK AO2 
     T01990180=
METAR KEYF 081000Z AUTO 00000KT 10SM CLR 25/19 A2993 RMK AO2 
     T02500185=
METAR KEZF 080958Z AUTO 00000KT 7SM CLR 26/24 A2998 RMK AO2 
     T02590244=
METAR KF24 080959Z AUTO 7SM CLR 24/23 A3007 RMK AO2 T02410230=
METAR KFFA 080958Z AUTO 08007KT 040V110 10SM CLR 25/23 A2995 RMK 
     AO2 T02460225=
METAR KFKN 081000Z AUTO 00000KT 5SM 25/23 A2996 RMK AO1=
METAR KGEV 081002Z AUTO 35003KT 10SM CLR 24/16 A3019 RMK AO2=
METAR KGHG 081000Z AUTO 15003KT 10SM BKN006 22/21 A3010 RMK AO2=
METAR KGWW 081000Z AUTO 00000KT 7SM CLR 24/21 A2994 RMK AO2 
     T02350207=
METAR KHDC 081002Z AUTO 00000KT 10SM SCT012 26/26 A3003 RMK AO2=
METAR KHLX 081001Z AUTO 00000KT 7SM CLR 23/21 RMK AO2=
METAR KHOE 080959Z AUTO 00000KT 10SM CLR 21/ A3001 RMK AO2 T0206=
METAR KHQU 081002Z AUTO 00000KT 7SM CLR 21/19 A3005 RMK AO1=
METAR KHSP 081000Z AUTO 06005KT 10SM SCT060 23/15 A3026 RMK AO2=
METAR KHUM 081000Z AUTO 1/2SM FG OVC018 24/24 A2999 RMK AO2=
METAR KHWY 081000Z AUTO 00000KT 4SM HZ CLR 21/18 A2999 RMK AO2=
METAR KIDI 081000Z AUTO 00000KT 4SM CLR 18/18 A3011 RMK AO2=
METAR KIPJ 081000Z AUTO 00000KT 10SM CLR 20/17 A3002 RMK AO2 
     T01960173=
METAR KJES 081000Z AUTO 26003KT 5SM BR CLR 18/19 A3000 RMK AO2 
     T01840185=
METAR KJGG 081000Z AUTO 00000KT 4SM CLR 27/24 A2999 RMK AO1=
METAR KJKA 081000Z AUTO 00000KT 7SM CLR 26/25 A3001 RMK AO2 
     T02620253=
METAR KJQF 081000Z AUTO 00000KT 10SM BKN100 23/18 A3000 RMK AO2 
     T02290181=
METAR KJYO 081000Z AUTO 00000KT 7SM BKN110 26/21 A3002 RMK AO2=
####018002156####
SAUS20 KNKA 081003
METAR KLGC 080955Z AUTO 00000KT 1/2SM VV005 21/ A3003 RMK AO1=
METAR KLKU 081000Z AUTO 00000KT 7SM CLR 23/19 A3000 RMK AO2=
METAR KLNP 080958Z AUTO 00000KT 7SM CLR 21/19 A3018 RMK AO1=
METAR KLOM 081000Z AUTO 00000KT 3SM 22/21 A3001 RMK AO1 SKY 
     OBSCURED T02170206=
SPECI KLWD 081002Z AUTO 34008KT 10SM BKN005 21/20 A3008 RMK AO2=
METAR KMDQ 081000Z AUTO 00000KT 7SM CLR 22/21 A3007 RMK AO2 
     T02150208=
METAR KMFV 081002Z AUTO 08005KT 7SM -RA SCT075 OVC100 25/23 A2999 
     RMK AO2=
METAR KMGR 081000Z AUTO 00000KT 10SM CLR 21/20 A3003 RMK AO2=
METAR KMMU 081000Z AUTO 00000KT 2 1/2SM BR CLR 20/20 RMK AO2 
     T02020196=
METAR KMQS 081000Z AUTO 10003KT 4SM CLR 23/22 A3006 RMK AO2 PWINO 
     PNO=
METAR KMRN 081000Z AUTO 00000KT 10SM BKN090 18/17 A3011 RMK AO2=
METAR KOBE 081001Z AUTO 03004KT 10SM CLR 23/22 A2997 RMK AO2=
METAR KOCW 080959Z AUTO 01003KT 2 1/2SM HZ CLR 24/19 A2994 RMK AO2=
METAR KONX 081000Z AUTO 08006KT 10SM BKN012 BKN120 26/23 A2996 
     RMK AO2 T02560232=
SPECI KOVS 081002Z AUTO 00000KT 6SM BR OVC006 22/21 A3002 RMK AO2=
METAR KPSK 081002Z AUTO 00000KT 7SM CLR 24/17 A3015 RMK AO2=
METAR KPTB 081002Z AUTO 00000KT 4SM BR CLR 22/21 A2999 RMK AO2=
METAR KRUQ 081001Z AUTO 00000KT 10SM SCT100 20/20 A3001 RMK AO2=
METAR KSIF 081000Z AUTO 00000KT 5SM BR BKN090 22/21 A3001 RMK AO2=
METAR KSVH 081000Z AUTO 00000KT 10SM CLR 20/17 A3004 RMK AO2 
     T02000165=
METAR KTDF 081002Z AUTO 00000KT 4SM SCT120 21/19 A3001 RMK AO1=
METAR KTPF 081000Z AUTO 05003KT 10SM CLR 23/22 A2998 RMK AO2=
METAR KTSP 080955Z AUTO 09004KT 10SM CLR 12/05 A3002 RMK AO2 =
METAR KTVI 081000Z AUTO 00000KT 10SM CLR 22/21 A3003 RMK AO2 
     T02150208=
METAR KVDI 081002Z AUTO 23003KT 10SM CLR 22/21 A3001 RMK AO1=
METAR KVJI 081003Z AUTO 00000KT 5SM BR SCT065 22/19 A3014 RMK AO2=
SPECI KVTA 081002Z AUTO 00000KT 3SM BR FEW065 19/18 A3009 RMK AO2=
METAR KVUJ 080959Z AUTO 00000KT 10SM OVC090 22/19 A2998 RMK AO2=
METAR KVVG 080955Z AUTO 00000KT 21/20 A3000 RMK AO2=
METAR KW45 081000Z AUTO 29004KT 5SM BR CLR 22/20 A3005 RMK AO2 
     T02160198=
####018000099####
SAGY31 SYCJ 081000
METAR SYCJ 081000Z 00000KT 5000 VCFG SCT015 FEW016CB 24/23 Q1012 CB
E,WSW-W=####018000100####
SAAJ31 UBBB 081000
METAR UBBG 081000Z 08011KT 9999 SCT083 34/17 Q1011 NOSIG RMK
R12L/CLRD70 =
####018000086####
SAYE20 OYAS 081000 CCB
METAR COR OYAS 081000Z 21005G16KT 5000 DU NSC 34/24 Q1006=
####018000082####
SAYE20 OYAS 081000 CCA
METAR OYAS 081000Z 21005G16KT 5000 DU NSC 34/24 Q1006=
####018000508####
SAER32 OMAE 081000
METAR OMAA 081000Z 33004KT CAVOK 43/16 Q0999 A2950 NOSIG=
METAR OMAD 081000Z 26006KT CAVOK 43/18 Q0999 A2951=
METAR OMAL 081000Z 26005KT 170V020 8000 NSC 43/26 Q1001 A2958=
METAR OMDB 081000Z 34012KT 7000 NSC 41/27 Q0999 NOSIG=
METAR OMDW 081000Z 14009KT 100V170 CAVOK 43/18 Q1000 BECMG 34010KT=
METAR OMFJ 081000Z 08010KT 040V130 7000 FEW020 34/27 Q1001 A2957=
METAR OMRK 081000Z 10008KT CAVOK 42/31 Q0998 A2949=
METAR OMSJ 081000Z 34009KT 300V020 6000 NSC 41/24 Q1000=
####018000486####
SAHU41 LHBM 081000
METAR LHDC 080945Z 03010KT 9999 FEW033 22/13 Q1021 NOSIG=
METAR LHKE 080945Z 04004MPS CAVOK 25/12 Q1021 NOSIG RMK BLU=
METAR LHPA 080945Z 35005MPS CAVOK 22/10 Q1023 NOSIG RMK BLU=
METAR LHPP 080945Z 02006KT 9999 SCT043 22/11 Q1023 NOSIG=
METAR LHPR 080945Z 36012KT CAVOK 23/08 Q1023=
METAR LHSM 080945Z 34007KT CAVOK 23/10 Q1023 NOSIG=
METAR LHSN 080945Z 06003MPS CAVOK 23/12 Q1021 NOSIG RMK BLU=
METAR LHUD 080945Z 04006KT 9999 FEW033 23/13 Q1022=
####018000118####
SARS31 RUMS 080800 CCA
METAR ULWW 080800Z 15004G07MPS 9999 SCT050 BKN/// 32/16 Q1016 NOSIG
RMK QFE751 15CLRD60=
####018000105####
SAUS41 KAKQ 081003
MTRNUI
SPECI KNUI 081001Z AUTO 00000KT 2 1/2SM BR FEW011 24/23 A2998 RMK 
AO2
####018000108####
SAUS41 KGYX 081003
MTRCON
SPECI KCON 081002Z AUTO 00000KT 4SM BR SCT008 BKN070 23/21 A3007 RMK 
AO2
####018000120####
SAUS90 KWBC 081000 CCC
METAR KFSD 080956Z 31007KT 10SM CLR 16/14 A3016 RMK AO2 SLP208 BKN
     ABV 120 T01610144=
####018000274####
SPUS90 KWBC 081004
SPECI KNEL 081000Z AUTO 00000KT 2 1/2SM BR FEW016 OVC100 24/22
     A3003 RMK AO2 $=
SPECI KS58 080945Z 09018KT 10SM SCT015 28/26 A2995 RMK WT28 SEAS
     3-5FT=
SPECI KCON 081002Z AUTO 00000KT 4SM BR SCT008 BKN070 23/21 A3007
     RMK AO2=
####018000486####
SAAK41 KNKA 081003
METAR PABA 081001Z AUTO 20006KT 10SM OVC055 06/05 A3003 RMK AO2 
    SLP169 T00560050=
METAR PAIK 081001Z AUTO 21005KT 10SM CLR 13/09 A3013 RMK AO2 SLP244 
    T01280094=
METAR PAKF 081001Z AUTO 20005KT 10SM OVC019 08/06 A2993 RMK AO2 
    SLP230 T00780056=
METAR PANW 080956Z AUTO 36005KT FEW027 OVC042 10/09 A2998 RMK AO2 
    PWINO TSNO T01000088 SLP132 $=
SPECI PAPN 081002Z AUTO 05005KT 2SM BR OVC060 06/05 A2994 RMK AO2 
    PWINO TSNO $=
####018001303####
SAAU32 AMMC 081000
METAR YAMB 081000Z 19007KT CAVOK 16/10 Q1021
     NOSIG=
METAR YBCG 081000Z AUTO 19008KT 9000NDV // SCT026 BKN043 OVC057 15/13 Q1021=
METAR YBHM 081000Z AUTO 15016KT //// // ////// 19/16 Q1018=
METAR YBMA 081000Z AUTO 14005KT 9999NDV // ////// 11/10 Q1019=
METAR YBRK 081000Z 22001KT 9999 SCT012 OVC030 14/13 Q1020=
METAR YBRM 081000Z 05008KT 9999 -SHRA SCT034 BKN064 25/22 Q1011=
METAR YCIN 081000Z AUTO 13004KT //// // ////// 23/19 Q1012=
METAR YFRT 081000Z AUTO 05012KT //// // ////// 15/02 Q1014=
METAR YMAV 081000Z AUTO 13003KT 9999NDV // OVC046 10/07 Q1028=
METAR YMHB 081000Z 31006KT CAVOK 04/02 Q1030=
METAR YMLT 081000Z AUTO 00000KT 9999NDV // NCD 04/02 Q1030=
METAR YPEA 081000Z AUTO 01009KT 9999NDV // NCD 14/12 Q0998=
METAR YPGV 081000Z 15010KT 9999 FEW021 BKN350 24/21 Q1013=
METAR YPKG 081000Z AUTO 35010KT 9999NDV // BKN064 OVC085 19/03 Q1005=
METAR YPPD 081000Z AUTO 05014KT 9999NDV // ////// 23/20 Q1009=
METAR YSCB 081000Z AUTO 10009KT 9999NDV // NCD 06/03 Q1028=
METAR YSDU 081000Z AUTO 11009KT 9999NDV // NCD 10/05 Q1025=
METAR YSNF 081000Z 10011KT 9999 FEW020 SCT028 BKN060 15/10 Q1017=
METAR YSRI 081000Z AUTO 23004KT 9999NDV // BKN042 OVC051 11/10 Q1028=
METAR YWLM 081000Z 36003KT 9999 SCT020 BKN045 11/11 Q1026=

####018003707####
SAUS99 KWBC 081004
METAR
KLGC 080955Z AUTO 00000KT 1/2SM VV005 21/ A3003 RMK AO1=
KLKU 081000Z AUTO 00000KT 7SM CLR 23/19 A3000 RMK AO2=
KLNP 080958Z AUTO 00000KT 7SM CLR 21/19 A3018 RMK AO1=
KLOM 081000Z AUTO 00000KT 3SM 22/21 A3001 RMK AO1 SKY OBSCURED
     T02170206=
KMDQ 081000Z AUTO 00000KT 7SM CLR 22/21 A3007 RMK AO2
     T02150208=
KMFV 081002Z AUTO 08005KT 7SM -RA SCT075 OVC100 25/23 A2999 RMK
     AO2=
KMGR 081000Z AUTO 00000KT 10SM CLR 21/20 A3003 RMK AO2=
KMMU 081000Z AUTO 00000KT 2 1/2SM BR CLR 20/20 RMK AO2
     T02020196=
KMQS 081000Z AUTO 10003KT 4SM CLR 23/22 A3006 RMK AO2 PWINO
     PNO=
KMRN 081000Z AUTO 00000KT 10SM BKN090 18/17 A3011 RMK AO2=
KOBE 081001Z AUTO 03004KT 10SM CLR 23/22 A2997 RMK AO2=
KOCW 080959Z AUTO 01003KT 2 1/2SM HZ CLR 24/19 A2994 RMK AO2=
KONX 081000Z AUTO 08006KT 10SM BKN012 BKN120 26/23 A2996 RMK AO2
     T02560232=
KPSK 081002Z AUTO 00000KT 7SM CLR 24/17 A3015 RMK AO2=
KPTB 081002Z AUTO 00000KT 4SM BR CLR 22/21 A2999 RMK AO2=
KRUQ 081001Z AUTO 00000KT 10SM SCT100 20/20 A3001 RMK AO2=
KSIF 081000Z AUTO 00000KT 5SM BR BKN090 22/21 A3001 RMK AO2=
KSVH 081000Z AUTO 00000KT 10SM CLR 20/17 A3004 RMK AO2
     T02000165=
KTDF 081002Z AUTO 00000KT 4SM SCT120 21/19 A3001 RMK AO1=
KTPF 081000Z AUTO 05003KT 10SM CLR 23/22 A2998 RMK AO2=
KTSP 080955Z AUTO 09004KT 10SM CLR 12/05 A3002 RMK AO2=
KTVI 081000Z AUTO 00000KT 10SM CLR 22/21 A3003 RMK AO2
     T02150208=
KVDI 081002Z AUTO 23003KT 10SM CLR 22/21 A3001 RMK AO1=
KVJI 081003Z AUTO 00000KT 5SM BR SCT065 22/19 A3014 RMK AO2=
KVUJ 080959Z AUTO 00000KT 10SM OVC090 22/19 A2998 RMK AO2=
KVVG 080955Z AUTO 00000KT 21/20 A3000 RMK AO2=
KW45 081000Z AUTO 29004KT 5SM BR CLR 22/20 A3005 RMK AO2
     T02160198=
K3A1 081000Z AUTO 00000KT 7SM CLR 22/22 A3009 RMK AO2
     T02170218=
K4A9 081000Z AUTO 00000KT 7SM CLR 20/18 A3006 RMK AO2
     T02000181=
K4R4 081000Z AUTO 00000KT M1/4SM FG OVC009 24/23 A3002 RMK AO2
     T02360228=
K8A0 080959Z AUTO 02003KT 10SM CLR 24/22 A3006 RMK AO2=
KAFP 081000Z AUTO 00000KT 10SM CLR 20/18 A2998 RMK AO2
     T02040180=
KALX 081000Z AUTO 00000KT 7SM CLR 22/21 A3004 RMK AO1=
KBGE 081000Z AUTO 00000KT 10SM CLR 20/19 A3001 RMK AO2=
KBQK 080957Z AUTO 27004KT 10SM CLR 22/21 A3000 RMK AO1 T02150210
     PNO=
KCCO 081000Z AUTO 00000KT 4SM CLR 20/19 A3005 RMK AO1=
KCDH 081000Z AUTO 00000KT 2SM BR OVC001 22/22 A3005 RMK AO2=
KCPC 081000Z AUTO 00000KT 10SM CLR 26/19 A2992 RMK AO2
     T02570194=
KCTJ 081000Z AUTO 00000KT 10SM CLR 21/19 A3006 RMK AO2
     T02050189=
KCWF 081000Z AUTO 05004KT 7SM CLR 24/24 A2998 RMK AO2=
KDBN 081000Z AUTO 31007KT 10SM CLR 24/17 A2999 RMK AO1=
KDNN 080958Z AUTO 00000KT 10SM CLR 20/20 A3005 RMK AO2=
KDQH 081000Z AUTO 00000KT 10SM CLR 22/19 A3001 RMK AO1=
KDRI 081000Z AUTO 00000KT 10SM SCT013 OVC019 23/23 A3001 RMK
     AO2=
KEHO 081000Z AUTO 00000KT 10SM CLR 20/18 A3003 RMK AO2
     T01990180=
KEYF 081000Z AUTO 00000KT 10SM CLR 25/19 A2993 RMK AO2
     T02500185=
KEZF 080958Z AUTO 00000KT 7SM CLR 26/24 A2998 RMK AO2
     T02590244=
KF24 080959Z AUTO 7SM CLR 24/23 A3007 RMK AO2 T02410230=
KFFA 080958Z AUTO 08007KT 040V110 10SM CLR 25/23 A2995 RMK AO2
     T02460225=
KFKN 081000Z AUTO 00000KT 5SM 25/23 A2996 RMK AO1=
KGEV 081002Z AUTO 35003KT 10SM CLR 24/16 A3019 RMK AO2=
KGHG 081000Z AUTO 15003KT 10SM BKN006 22/21 A3010 RMK AO2=
KGWW 081000Z AUTO 00000KT 7SM CLR 24/21 A2994 RMK AO2
     T02350207=
KHDC 081002Z AUTO 00000KT 10SM SCT012 26/26 A3003 RMK AO2=
KHLX 081001Z AUTO 00000KT 7SM CLR 23/21 RMK AO2=
KHOE 080959Z AUTO 00000KT 10SM CLR 21/ A3001 RMK AO2 T0206=
####018000105####
SACN91 KWBC 081004
METAR CWHI 080900Z AUTO 23011KT 11/09 RMK AO1 7PAST HR M P0003
T01110091 50007=
####018001098####
SAUS99 KWBC 081004 RRA
METAR
KHQU 081002Z AUTO 00000KT 7SM CLR 21/19 A3005 RMK AO1=
KHSP 081000Z AUTO 06005KT 10SM SCT060 23/15 A3026 RMK AO2=
KHUM 081000Z AUTO 1/2SM FG OVC018 24/24 A2999 RMK AO2=
KHWY 081000Z AUTO 00000KT 4SM HZ CLR 21/18 A2999 RMK AO2=
KIDI 081000Z AUTO 00000KT 4SM CLR 18/18 A3011 RMK AO2=
KIPJ 081000Z AUTO 00000KT 10SM CLR 20/17 A3002 RMK AO2
     T01960173=
KJES 081000Z AUTO 26003KT 5SM BR CLR 18/19 A3000 RMK AO2
     T01840185=
KJGG 081000Z AUTO 00000KT 4SM CLR 27/24 A2999 RMK AO1=
KJKA 081000Z AUTO 00000KT 7SM CLR 26/25 A3001 RMK AO2
     T02620253=
KJQF 081000Z AUTO 00000KT 10SM BKN100 23/18 A3000 RMK AO2
     T02290181=
KJYO 081000Z AUTO 00000KT 7SM BKN110 26/21 A3002 RMK AO2=
PABA 081001Z AUTO 20006KT 10SM OVC055 06/05 A3003 RMK AO2 SLP169
     T00560050=
PAIK 081001Z AUTO 21005KT 10SM CLR 13/09 A3013 RMK AO2 SLP244
     T01280094=
PAKF 081001Z AUTO 20005KT 10SM OVC019 08/06 A2993 RMK AO2 SLP230
     T00780056=
PANW 080956Z AUTO 36005KT FEW027 OVC042 10/09 A2998 RMK AO2 PWINO
     TSNO T01000088 SLP132 $=
####018000354####
SPUS99 KWBC 081004
SPECI
KLWD 081002Z AUTO 34008KT 10SM BKN005 21/20 A3008 RMK AO2=
KOVS 081002Z AUTO 00000KT 6SM BR OVC006 22/21 A3002 RMK AO2=
KVTA 081002Z AUTO 00000KT 3SM BR FEW065 19/18 A3009 RMK AO2=
KBRL 081002Z AUTO 10SM SCT004 22/21 A3004 RMK AO2 $=
PAPN 081002Z AUTO 05005KT 2SM BR OVC060 06/05 A2994 RMK AO2 PWINO
     TSNO $=
####018000089####
SABZ21 SBPS 081000
METAR SBPS 081000Z 29005KT 4000 BR SCT003 BKN100 18/18 Q1019 RERA=
####018000115####
SANK31 MNMG 081000
METAR
METAR MNMG 081000Z 00000KT 9999 FEW020CB SCT022 25/24 Q1009 A2982
CB/NE/N/NW/S/W/FL=
####018000088####
SAUK31 EGGY 080950 CCB
METAR COR EGCC 080950Z 23012KT 9999 FEW032 19/10 Q1017 NOSIG=
####018000591####
SPUS70 KWBC 081004
SPECI
KS58 080945Z 09018KT 10SM SCT015 28/26 A2995 RMK WT28 SEAS
     3-5FT=
KAOO 081001Z AUTO 00000KT 2 1/2SM BR CLR 18/16 A3011 RMK AO2=
KRVS 081001Z 08003KT 3SM +TSRA BR BKN012 BKN024 OVC046 23/23 A3002
     RMK AO2 LTG DSNT NE AND SE P0004=
KSBA 081001Z 00000KT 9SM OVC013 14/12 A2990 RMK AO2 $=
KTAD 081001Z AUTO 34006KT 10SM SCT009 BKN085 14/13 A3037 RMK
     AO2=
KOVS 081002Z AUTO 00000KT 6SM BR OVC006 22/21 A3002 RMK AO2=
KVTA 081002Z AUTO 00000KT 3SM BR FEW065 19/18 A3009 RMK AO2=
KBRL 081002Z AUTO 10SM SCT004 22/21 A3004 RMK AO2 $=
####018003336####
SAUS70 KWBC 081000 RRG
METAR
KMGR 081000Z AUTO 00000KT 10SM CLR 21/20 A3003 RMK AO2=
KMMU 081000Z AUTO 00000KT 2 1/2SM BR CLR 20/20 RMK AO2
     T02020196=
KMQS 081000Z AUTO 10003KT 4SM CLR 23/22 A3006 RMK AO2 PWINO
     PNO=
KMRN 081000Z AUTO 00000KT 10SM BKN090 18/17 A3011 RMK AO2=
KOCW 080959Z AUTO 01003KT 2 1/2SM HZ CLR 24/19 A2994 RMK AO2=
KONX 081000Z AUTO 08006KT 10SM BKN012 BKN120 26/23 A2996 RMK AO2
     T02560232=
KSIF 081000Z AUTO 00000KT 5SM BR BKN090 22/21 A3001 RMK AO2=
KSVH 081000Z AUTO 00000KT 10SM CLR 20/17 A3004 RMK AO2
     T02000165=
KTPF 081000Z AUTO 05003KT 10SM CLR 23/22 A2998 RMK AO2=
KTSP 080955Z AUTO 09004KT 10SM CLR 12/05 A3002 RMK AO2=
KTVI 081000Z AUTO 00000KT 10SM CLR 22/21 A3003 RMK AO2
     T02150208=
KVUJ 080959Z AUTO 00000KT 10SM OVC090 22/19 A2998 RMK AO2=
KVVG 080955Z AUTO 00000KT 21/20 A3000 RMK AO2=
KW45 081000Z AUTO 29004KT 5SM BR CLR 22/20 A3005 RMK AO2
     T02160198=
K3A1 081000Z AUTO 00000KT 7SM CLR 22/22 A3009 RMK AO2
     T02170218=
K4A9 081000Z AUTO 00000KT 7SM CLR 20/18 A3006 RMK AO2
     T02000181=
K4R4 081000Z AUTO 00000KT M1/4SM FG OVC009 24/23 A3002 RMK AO2
     T02360228=
K8A0 080959Z AUTO 02003KT 10SM CLR 24/22 A3006 RMK AO2=
KAFP 081000Z AUTO 00000KT 10SM CLR 20/18 A2998 RMK AO2
     T02040180=
KALX 081000Z AUTO 00000KT 7SM CLR 22/21 A3004 RMK AO1=
KBGE 081000Z AUTO 00000KT 10SM CLR 20/19 A3001 RMK AO2=
KBQK 080957Z AUTO 27004KT 10SM CLR 22/21 A3000 RMK AO1 T02150210
     PNO=
KCCO 081000Z AUTO 00000KT 4SM CLR 20/19 A3005 RMK AO1=
KCDH 081000Z AUTO 00000KT 2SM BR OVC001 22/22 A3005 RMK AO2=
KCPC 081000Z AUTO 00000KT 10SM CLR 26/19 A2992 RMK AO2
     T02570194=
KCTJ 081000Z AUTO 00000KT 10SM CLR 21/19 A3006 RMK AO2
     T02050189=
KCWF 081000Z AUTO 05004KT 7SM CLR 24/24 A2998 RMK AO2=
KDNN 080958Z AUTO 00000KT 10SM CLR 20/20 A3005 RMK AO2=
KDQH 081000Z AUTO 00000KT 10SM CLR 22/19 A3001 RMK AO1=
KDRI 081000Z AUTO 00000KT 10SM SCT013 OVC019 23/23 A3001 RMK
     AO2=
KEHO 081000Z AUTO 00000KT 10SM CLR 20/18 A3003 RMK AO2
     T01990180=
KEYF 081000Z AUTO 00000KT 10SM CLR 25/19 A2993 RMK AO2
     T02500185=
KEZF 080958Z AUTO 00000KT 7SM CLR 26/24 A2998 RMK AO2
     T02590244=
KF24 080959Z AUTO 7SM CLR 24/23 A3007 RMK AO2 T02410230=
KFFA 080958Z AUTO 08007KT 040V110 10SM CLR 25/23 A2995 RMK AO2
     T02460225=
KFKN 081000Z AUTO 00000KT 5SM 25/23 A2996 RMK AO1=
KGHG 081000Z AUTO 15003KT 10SM BKN006 22/21 A3010 RMK AO2=
KGWW 081000Z AUTO 00000KT 7SM CLR 24/21 A2994 RMK AO2
     T02350207=
KHOE 080959Z AUTO 00000KT 10SM CLR 21/ A3001 RMK AO2 T0206=
KHSP 081000Z AUTO 06005KT 10SM SCT060 23/15 A3026 RMK AO2=
KHUM 081000Z AUTO 1/2SM FG OVC018 24/24 A2999 RMK AO2=
KHWY 081000Z AUTO 00000KT 4SM HZ CLR 21/18 A2999 RMK AO2=
KIDI 081000Z AUTO 00000KT 4SM CLR 18/18 A3011 RMK AO2=
KIPJ 081000Z AUTO 00000KT 10SM CLR 20/17 A3002 RMK AO2
     T01960173=
KJES 081000Z AUTO 26003KT 5SM BR CLR 18/19 A3000 RMK AO2
     T01840185=
KJGG 081000Z AUTO 00000KT 4SM CLR 27/24 A2999 RMK AO1=
KJKA 081000Z AUTO 00000KT 7SM CLR 26/25 A3001 RMK AO2
     T02620253=
KJYO 081000Z AUTO 00000KT 7SM BKN110 26/21 A3002 RMK AO2=
PANW 080956Z AUTO 36005KT FEW027 OVC042 10/09 A2998 RMK AO2 PWINO
     TSNO T01000088 SLP132 $=
####018000088####
SAUK34 EGGY 080950 CCA
METAR COR EGHK 080950Z 15005KT 9999 FEW025 17/15 Q1018 NOSIG=
####018001020####
SAXX60 KWBC 081000 RRE
METAR
KADW 080955Z 06004KT 8SM CLR 25/23 A3001 RMK AO2A SLP161 T02450230
     $=
KNBC 080956Z 24003KT 7SM FEW250 23/19 A2997 RMK AO2 SLP150
     T02330194=
KNBG 080955Z AUTO 04003KT 5SM HZ FEW017 A3001 RMK AO2 SLP163 PWINO
     FZRANO $=
KNCA 080956Z AUTO 03004KT 9SM CLR 25/20 A2992 RMK AO2 SLP132
     T02500200=
KNGP 080956Z AUTO 10005KT 10SM FEW080 28/26 A2981 RMK AO2 SLP092
     T02830261 $=
KNJM 080957Z AUTO 36003KT 8SM CLR 26/22 A2992 RMK AO2 SLP134
     T02560217 $=
KNTU 080956Z 09009KT 10SM SCT005 BKN050 BKN100 25/24 A2996 RMK AO2
     SLP146 T02500239 $=
KVPS 080956Z COR 31002KT 6SM BR SKC 23/23 A3002 RMK AO2A SLP167
     T02330233 COR 0958=
PGUA 080955Z AUTO 08015KT 10SM BKN017 27/ A2990 RMK AO2 CIG
     015V021 SLP106 T0270 VISNO RWY24L $=
KHLR 080956Z AUTO 06003KT 10SM BKN015 BKN021 OVC032 25/ A2999 RMK
     AO2 SLP145 T0250 $=
PHBK 080956Z AUTO 00000KT 10SM FEW050 24/18 A3003 RMK AO2 SLP171
     T02440178 403000217 TSNO $=
####018000112####
SPXX60 KWBC 081004
SPECI
KNEL 081000Z AUTO 00000KT 2 1/2SM BR FEW016 OVC100 24/22 A3003 RMK
     AO2 $=
####018001449####
SAUS70 KWBC 081004
METAR
KBQP 081007Z AUTO 00000KT 2 1/2SM BR CLR 23/23 A3004 RMK AO2=
KCGS 081005Z AUTO 00000KT 5SM CLR 25/23 A3001 RMK AO1=
KCPK 081001Z AUTO 00000KT 2SM BR SCT001 23/22 A2996 RMK AO2=
KFYJ 081001Z AUTO 36003KT 4SM SCT080 26/24 A2999 RMK AO1=
KHBI 081001Z AUTO 00000KT 22/17 A3002 RMK AO2 PWINO=
KJYL 081001Z AUTO 00000KT 10SM CLR 23/21 A3000 RMK AO2=
KMWK 081002Z AUTO 00000KT 7SM OVC090 23/19 A3005 RMK AO2=
KTNB 081001Z AUTO 00000KT 7SM CLR 16/14 A3020 RMK AO2=
KUKF 081001Z AUTO 00000KT 7SM CLR 21/17 A3007 RMK AO1=
KMFV 081002Z AUTO 08005KT 7SM -RA SCT075 OVC100 25/23 A2999 RMK
     AO2=
KOBE 081001Z AUTO 03004KT 10SM CLR 23/22 A2997 RMK AO2=
KPSK 081002Z AUTO 00000KT 7SM CLR 24/17 A3015 RMK AO2=
KPTB 081002Z AUTO 00000KT 4SM BR CLR 22/21 A2999 RMK AO2=
KRUQ 081001Z AUTO 00000KT 10SM SCT100 20/20 A3001 RMK AO2=
KTDF 081002Z AUTO 00000KT 4SM SCT120 21/19 A3001 RMK AO1=
KVDI 081002Z AUTO 23003KT 10SM CLR 22/21 A3001 RMK AO1=
KVJI 081003Z AUTO 00000KT 5SM BR SCT065 22/19 A3014 RMK AO2=
KGEV 081002Z AUTO 35003KT 10SM CLR 24/16 A3019 RMK AO2=
KHDC 081002Z AUTO 00000KT 10SM SCT012 26/26 A3003 RMK AO2=
KHLX 081001Z AUTO 00000KT 7SM CLR 23/21 RMK AO2=
KHQU 081002Z AUTO 00000KT 7SM CLR 21/19 A3005 RMK AO1=
PABA 081001Z AUTO 20006KT 10SM OVC055 06/05 A3003 RMK AO2 SLP169
     T00560050=
PAIK 081001Z AUTO 21005KT 10SM CLR 13/09 A3013 RMK AO2 SLP244
     T01280094=
####018000068####
SABZ23 SBRJ 081000
METAR SBRJ 081000Z 02004KT CAVOK 19/16 Q1018=
####018003726####
SAUS70 KWBC 081000 RRF
METAR
KPBI 080953Z COR 04007KT 10SM SCT023TCU BKN040 BKN250 27/24 A2993
     RMK AO2 SLP134 TCU OHD NE E-SE CB DSNT SE T02720239=
K0R3 080959Z AUTO 06004KT 7SM CLR 25/25 A2998 RMK AO2=
K1A5 081000Z AUTO 00000KT 5SM BR CLR 16/15 A3015 RMK AO2
     T01610150=
K2G4 081000Z AUTO 00000KT 10SM SCT065 22/13 A3019 RMK AO1=
K2W6 080959Z AUTO 00000KT 3SM 24/24 A3001 RMK AO1 SKY OBSCURED=
K3I2 081000Z AUTO 00000KT 2 1/2SM BR OVC001 18/18 A3009 RMK
     AO2=
K3J7 080959Z AUTO 00000KT 10SM CLR 22/21 A3000 RMK AO2=
K47A 081000Z AUTO 03003KT 7SM CLR 20/17 A3006 RMK AO2 LTG DSNT SW
     T01960173=
KACP 080959Z AUTO 00000KT 5SM BR CLR 24/23 A2999 RMK AO2=
KAMN 080955Z AUTO 00000KT 5SM -RA SCT017 BKN070 OVC085 23/22 A3003
     RMK AO2=
KAQP 080954Z AUTO 25005KT 10SM CLR 13/13 A3011 RMK AO2=
KAVC 081000Z AUTO 00000KT 7SM CLR 25/19 A3004 RMK AO2=
KBCB 081000Z AUTO 00000KT 4SM BR OVC085 22/22 A3015 RMK AO2=
KBFW 080953Z AUTO 00000KT 10SM CLR 16/14 A3001 RMK AO2=
KBIJ 081000Z AUTO 00000KT 10SM CLR 19/ A3002 RMK AO2=
KCDA 080955Z AUTO 28003KT 1 1/2SM BR VV007 20/17 A3010 RMK AO2=
KCDD 080951Z AUTO 18004KT 10SM CLR 17/17 A3002 RMK AO2=
KCVX 080955Z AUTO 20005KT 10SM BKN110 21/20 A2998 RMK AO2=
KFDK 080956Z AUTO 00000KT 7SM SCT100 24/21 A3004 RMK AO2=
KDPL 081000Z AUTO 00000KT 7SM CLR 23/21 A2994 RMK AO2=
KDVP 080956Z AUTO 28003KT 10SM CLR 15/13 A3017 RMK AO2
     T01530133=
KEDE 080956Z AUTO 03004KT 1 1/4SM BR 24/23 A2995 RMK AO2=
KEMV 080957Z AUTO 33003KT 4SM BR CLR 23/21 A2998 RMK AO2=
KERY 080955Z AUTO 24005KT 5SM -RA BKN007 OVC010 19/19 A2997 RMK
     AO2=
KETH 080954Z AUTO 24006KT 10SM CLR 16/14 A3010 RMK AO2=
KEXX 080959Z AUTO 00000KT 10SM CLR 21/18 A3000 RMK AO2=
KFKS 080955Z AUTO 00000KT 10SM BKN100 BKN120 22/20 A2997 RMK
     AO2=
KFOZ 080953Z AUTO 00000KT 1/4SM FG OVC001 13/12 A3004 RMK AO2=
KFQD 080959Z AUTO 33003KT 10SM CLR 22/17 A3004 RMK AO2=
KGOV 080955Z AUTO 00000KT 10SM -RA BKN100 22/22 A3001 RMK AO2=
KHYX 080955Z AUTO 00000KT 10SM CLR 22/20 A3001 RMK AO2=
KISQ 080955Z AUTO 29005KT 5SM BR BKN004 BKN008 20/18 A2996 RMK
     AO2=
KLDM 080955Z AUTO 18006KT 10SM -DZ BKN080 24/22 A3000 RMK AO2=
KMCD 080956Z AUTO 00000KT 10SM SCT120 21/18 A2997 RMK AO2=
KMQI 080956Z AUTO 07010KT 10SM SCT011 25/23 A2995 RMK AO2=
KMZH 080951Z AUTO 28003KT 10SM CLR 15/14 A3004 RMK AO2=
KONZ 080957Z AUTO 00000KT 10SM CLR 24/20 A3002 RMK AO2=
KORB 080954Z AUTO 00000KT 10SM CLR 14/13 A3000 RMK AO2=
KOSC 080954Z AUTO 21003KT 7SM CLR 20/18 A3000 RMK AO2=
KOWA 080954Z AUTO 31003KT 7SM CLR 17/16 A3008 RMK AO2=
KPGV 081000Z AUTO 01005KT 4SM BR CLR 22/21 A2996 RMK AO2=
KPHN 080955Z AUTO 00000KT M1/4SM FG VV000 19/18 A3003 RMK AO2=
KRMY 080955Z AUTO 00000KT 7SM CLR 21/19 A3005 RMK AO2=
KSAW 080958Z AUTO 00000KT 7SM BKN001 18/17 A2997 RMK AO2=
KSJX 080955Z AUTO 24009KT 4SM -RA BKN002 OVC014 20/19 A2996 RMK
     AO2=
KSLH 080955Z AUTO 00000KT 10SM BKN110 21/21 A2995 RMK AO2=
KTTF 080954Z AUTO 00000KT 10SM BKN075 22/21 A3003 RMK AO2=
KUNV 081000Z AUTO 00000KT 5SM BR CLR 19/18 A3010 RMK AO2
     T01940181=
KVWU 080951Z AUTO 26008KT 10SM CLR 18/14 A3002 RMK AO2=
KW29 081000Z AUTO 11003KT 2SM CLR 23/23 A3001 RMK AO1=
KW99 080959Z AUTO 00000KT 5SM HZ SCT085 20/17 A3009 RMK AO2=
KXVG 080956Z AUTO 23004KT 10SM CLR 16/15 A3004 RMK AO2=
KLGC 080955Z AUTO 00000KT 1/2SM VV005 21/ A3003 RMK AO1=
KLKU 081000Z AUTO 00000KT 7SM CLR 23/19 A3000 RMK AO2=
KLNP 080958Z AUTO 00000KT 7SM CLR 21/19 A3018 RMK AO1=
KLOM 081000Z AUTO 00000KT 3SM 22/21 A3001 RMK AO1 SKY OBSCURED
     T02170206=
KMDQ 081000Z AUTO 00000KT 7SM CLR 22/21 A3007 RMK AO2
     T02150208=
####018000122####
SAUS80 KWBC 081000 CCC
METAR
KFSD 080956Z 31007KT 10SM CLR 16/14 A3016 RMK AO2 SLP208 BKN ABV
     120 T01610144=
####018000076####
SAGB20 GBYD 081000

METAR GBYD 081000Z 23004KT 9999 BKN011 30/25 Q1012=
####018000241####
SPUS80 KWBC 081004
SPECI
KLWD 081002Z AUTO 34008KT 10SM BKN005 21/20 A3008 RMK AO2=
KNUI 081001Z AUTO 00000KT 2 1/2SM BR FEW011 24/23 A2998 RMK
     AO2=
KCON 081002Z AUTO 00000KT 4SM BR SCT008 BKN070 23/21 A3007 RMK
     AO2=
####018000362####
SAGU31 MGGT 081000
METAR
METAR MGTK 081000Z 00000KT 9999 BKN012 OVC090 23/23 Q1011 A2986 =
METAR MGHT 081000Z 00000KT 9999 OVC012 16/15 QFE 816.0 =
METAR MGPB 081000Z 00000KT 9999 FEW016 OVC080 24/23 Q1010 A2983 =
METAR MGGT 081000Z 18006KT 9999 BKN015 17/14 Q1022 A3018 FEW080 NOSIG
=
METAR MGSJ  081000Z 00000KT 9999 SCT018 BKN090 23/23 Q1012 A2988 =
####018000108####
SAMX54 MMMD 081000
METAR MMMD 080957Z RTD 11005KT 7SM  BKN070 22/22 A2982 RMK 8/070 HZY=





TX_OPMET
####018000121####
SAXX60 KWBC 081000 CCB
METAR
K79J 080956Z AUTO 00000KT 9SM CLR 24/21 A3002 RMK AO2 SLP159
     T02390211 TSNO $=
####018000163####
SANL32 EHDB 080955
METAR EHEH 080955Z AUTO 26006KT 9999NDV NCD 29/12 Q1019 
BLU BLU=
METAR EHKD 080955Z AUTO 25011KT 9999NDV OVC064/// 19/16 Q1019 
BLU BLU=
####018000144####
SAPQ50 KWBC 081000 RRA
METAR
PTYA 080955Z VRB05KT 12SM FEW016CB SCT030 BKN130 OVC300 27/23
     A2986 RMK CB VC NE-SE SLP112 T02680229=
####018000095####
SAUS80 KWBC 081004
METAR
KESN 081003Z AUTO 00000KT 1 1/2SM BR VV007 22/22 A3004 RMK AO2=
####018000089####
SAVN24 SVMG 081000

METAR SVMG 081000Z 07010KT 9999 FEW010 SCT010 26/25 Q1012 NOSIG=
####018000832####
SAUS80 KWBC 081000 RRB
METAR
KCHS 080956Z 28005KT 9SM CLR 24/19 A2996 RMK AO2 SLP143
     T02440194=
KDAB 080953Z 00000KT 10SM FEW026 20/19 A2999 RMK AO2 SLP156
     T02000194 $=
KDAB 080953Z 00000KT 10SM FEW026 20/19 A2999 RMK AO2 SLP156
     T02000194 $=
KRIC 080954Z 00000KT 6SM HZ SCT150 SCT250 24/21 A2999 RMK AO2
     SLP158 T02440206=
KAYS 081000Z AUTO 00000KT 4SM CLR 21/21 A3000 RMK AO1=
KCBE 081000Z AUTO 00000KT 5SM CLR 20/18 A3011 RMK AO1=
KJNX 080959Z AUTO 00000KT 4SM SCT120 21/21 A2995 RMK AO2=
KPZQ 080955Z AUTO 20005KT 10SM SCT120 22/22 A2998 RMK AO2=
PHNY 080956Z AUTO 06007KT 10SM CLR 20/17 A3009 RMK AO2 TSNO
     T02000166 402720172 SLP169 $=
KDBN 081000Z AUTO 31007KT 10SM CLR 24/17 A2999 RMK AO1=
KJQF 081000Z AUTO 00000KT 10SM BKN100 23/18 A3000 RMK AO2
     T02290181=
####018000121####
SAUS70 KWBC 081000 CCB
METAR
KNSE 080956Z AUTO 00000KT 3/4SM BR CLR 23/21 A3002 RMK AO2 SLP149
     T02280211 $=
####018001300####
SAAU32 AMMC 081000
METAR YAMB 081000Z 19007KT CAVOK 16/10 Q1021
     NOSIG=
METAR YBCG 081000Z AUTO 19008KT 9000NDV // SCT026 BKN043 OVC057 15/13 Q1021=
METAR YBHM 081000Z AUTO 15016KT //// // ////// 19/16 Q1018=
METAR YBMA 081000Z AUTO 14005KT 9999NDV // ////// 11/10 Q1019=
METAR YBRK 081000Z 22001KT 9999 SCT012 OVC030 14/13 Q1020=
METAR YBRM 081000Z 05008KT 9999 -SHRA SCT034 BKN064 25/22 Q1011=
METAR YCIN 081000Z AUTO 13004KT //// // ////// 23/19 Q1012=
METAR YFRT 081000Z AUTO 05012KT //// // ////// 15/02 Q1014=
METAR YMAV 081000Z AUTO 13003KT 9999NDV // OVC046 10/07 Q1028=
METAR YMHB 081000Z 31006KT CAVOK 04/02 Q1030=
METAR YMLT 081000Z AUTO 00000KT 9999NDV // NCD 04/02 Q1030=
METAR YPEA 081000Z AUTO 01009KT 9999NDV // NCD 14/12 Q0998=
METAR YPGV 081000Z 15010KT 9999 FEW021 BKN350 24/21 Q1013=
METAR YPKG 081000Z AUTO 35010KT 9999NDV // BKN064 OVC085 19/03 Q1005=
METAR YPPD 081000Z AUTO 05014KT 9999NDV // ////// 23/20 Q1009=
METAR YSCB 081000Z AUTO 10009KT 9999NDV // NCD 06/03 Q1028=
METAR YSDU 081000Z AUTO 11009KT 9999NDV // NCD 10/05 Q1025=
METAR YSNF 081000Z 10011KT 9999 FEW020 SCT028 BKN060 15/10 Q1017=
METAR YSRI 081000Z AUTO 23004KT 9999NDV // BKN042 OVC051 11/10 Q1028=
METAR YWLM 081000Z 36003KT 9999 SCT020 BKN045 11/11 Q1026=
####018000108####
SAIO31 KWBC 080900 RRI
METAR
VYYY 080930Z 26005G15KT 7000 BKN015 FEW018CB BKN110 33/27 Q
     1006=
####018000208####
SABX31 KWBC 080950 RRB
METAR
EBBL 080955Z 24005KT 9999 FEW220 30/10 Q1019 BLU BLU=
EBFN 080955Z 31009KT 9999 FEW042 BKN200 21/17 Q1020 BLU BLU=
EBFS 080955Z 21005KT 9999 FEW250 27/09 Q1021 BLU BLU=
####018000078####
SACN92 CWAO 060900 RRZ
WKH SA 0900 AUTO8 M M M M/13/M/MMMM/M/M M 3MMM=

####018000109####
SANK31 MNMG 081000
METAR
MNMG 081000Z 00000KT 9999 FEW020CB SCT022 25/24 Q1009 A2982
CB/NE/N/NW/S/W/FL=
####018000293####
SAUK42 KWBC 080950 RRB
METAR
EGOS 080950Z 23011KT 9999 FEW028 BKN090 17/09 Q1018 BLU NOSIG=
EGOV 080950Z 20015KT 9999 FEW011 BKN100 16/13 Q1017 BLU NOSIG=
EGQL 080950Z 24016KT 9999 FEW026 BKN060 17/08 Q1012 BLU NOSIG=
EGQS 080950Z 22016KT 9999 FEW035 SCT050 16/09 Q1009 BLU NOSIG=
####018000349####
SAEW33 LEMM 081000
METAR GCLP 081000Z 01025KT 9999 SCT020 24/17 Q1017 NOSIG=
METAR GCXO 081000Z 29013KT 0100 R30/1000VP2000N R12/0150N FG 
OVC000 17/17 Q1020 NOSIG=
METAR GCTS 081000Z 08014KT 9999 SCT014 23/18 Q1018 NOSIG=
METAR GCRR 081000Z 36017KT 330V030 9999 SCT018 25/18 Q1017=
METAR GCFV 081000Z 05012KT 9999 FEW018 23/19 Q1017=
####018000758####
SAEW32 LEMM 081000
METAR LEAS 081000Z 32003KT 270V010 9999 SCT003 OVC014 20/19 Q1018 
NOSIG=
METAR LEBB 081000Z 28005KT 210V300 8000 NSC 28/22 Q1015 NOSIG=
METAR LECO 081000Z NIL=
METAR LEGE 081000Z 00000KT CAVOK 32/19 Q1019=
METAR LEST 081000Z 11010KT 9999 FEW018 21/19 Q1015 NOSIG=
METAR LEZG 081000Z 10010KT 050V130 CAVOK 32/16 Q1018=
METAR LESO 081000Z 03006KT CAVOK 25/19 Q1015=
METAR LEVT 081000Z 19001KT CAVOK 32/16 Q1018=
METAR LERS 081000Z 22006KT 170V250 CAVOK 28/18 Q1019=
METAR LEMH 081000Z 21006KT 160V250 9999 FEW025 28/20 Q1021=
METAR LEAM 081000Z 07017KT CAVOK 36/05 Q1016=
METAR LEGR 081000Z 09004KT 010V140 9999 FEW060 34/11 Q1018=
METAR LERL 081000Z 02008KT 340V070 9999 -SHRA FEW035 SCT060CB 
31/10 Q1018=
####018000615####
SAEW31 LEMM 081000
METAR LEMD 081000Z 18002KT CAVOK 31/12 Q1020 NOSIG=
METAR LEBL 081000Z 20015KT CAVOK 26/20 Q1019 NOSIG=
METAR LEPA 081000Z 21006KT 170V250 CAVOK 30/12 Q1020 NOSIG=
METAR LEZL 081000Z 28004KT 210V350 9999 SCT020 29/17 Q1016 NOSIG=
METAR LEMG 081000Z 16006KT 090V210 9999 FEW030 29/15 Q1016 NOSIG=
METAR LEVC 081000Z VRB01KT CAVOK 31/19 Q1019 NOSIG=
METAR LEAL 081000Z 07007KT 030V100 CAVOK 31/12 Q1019 NOSIG=
METAR LEIB 081000Z 08011KT 040V110 CAVOK 28/22 Q1019 NOSIG=
METAR LELC 081000Z 04011KT 010V080 CAVOK 29/12 Q1019 NOSIG=
METAR LEVX 081000Z 21004KT CAVOK 28/22 Q1013=
####018000379####
SAEW35 LEMM 081000
METAR LEAB 081000Z 15012KT 120V180 CAVOK 32/03 Q1022 NOSIG=
METAR LEBZ 081000Z 16008KT 110V190 CAVOK 32/12 Q1015=
METAR LELN 081000Z 13001KT CAVOK 29/11 Q1020=
METAR LESA 081000Z NIL=
METAR LETO 081000Z 22002KT CAVOK 31/10 Q1020 NOSIG=
METAR LEVD 081000Z 22004KT 160V280 CAVOK 31/10 Q1020=
METAR LEVS 081000Z 08005KT 030V130 CAVOK 30/12 Q1020=
####018000125####
SAXX99 KWBC 080800 CCD
METAR
ULWW 080800Z 15004G07MPS 9999 SCT050 BKN/// 32/16 Q1016 NOSIG RMK
     QFE751 15CLRD60=
####018000457####
SAXX99 KWBC 080900 RRX
METAR
CYSM 080900Z 00000KT 15SM FEW080 SCT140 BKN220 11/08 A2992 RMK
     AC1AC2CI1 SLP138=
LHDC 080945Z 03010KT 9999 FEW033 22/13 Q1021 NOSIG=
LHKE 080945Z 04004MPS CAVOK 25/12 Q1021 NOSIG RMK BLU=
LHPP 080945Z 02006KT 9999 SCT043 22/11 Q1023 NOSIG=
LHSN 080945Z 06003MPS CAVOK 23/12 Q1021 NOSIG RMK BLU=
LHUD 080945Z 04006KT 9999 FEW033 23/13 Q1022=
VIJP 080930Z VRB04KT 4000 HZ SCT030 SCT040 36/22 Q1005 NOSIG=
####018000084####
SASV40 FDMS 081000
METAR FDMS 081000Z 00000KT 9999 BKN030 16/14 Q1031 NOSIG=

####018000091####
SPUS51 KWBC 081004
SPECI
KCON 081002Z AUTO 00000KT 4SM BR SCT008 BKN070 23/21 A3007=
####018000088####
SACV20 GVBA 081000
METAR GVBA 081000Z 03010KT 9999 SCT015 BKN017 26/20 Q1013 NOSIG=
####018000214####
SAEW36 LEMM 081000
METAR GCHI 081000Z 01012KT 330V070 9999 SCT013 OVC019 22/18 Q1018=
METAR GCLA 081000Z 02011KT 350V050 9999 BKN020 22/17 Q1019=
METAR GEML 081000Z 09008KT 050V120 9999 FEW014 26/21 Q1017=
####018000351####
SAEW34 LEMM 081000
METAR LEBA 081000Z 25006KT 220V280 9999 FEW050 30/13 Q1016=
METAR LEDA 081000Z 11005KT 070V150 CAVOK 32/13 Q1019=
METAR LEJR 081000Z VRB03KT CAVOK 27/18 Q1016=
METAR LELL 081000Z VRB02KT CAVOK 30/15 Q1019=
METAR LEPP 081000Z 33001KT 9999 FEW060 32/14 Q1019=
METAR LEXJ 081000Z 29008KT 260V330 9999 BKN019 24/20 Q1016=
####018000111####
SAUS41 KLWX 081004
MTRNHK
SPECI KNHK 081000Z COR 09004KT 2 1/2SM BR SCT009 SCT015 26/24 A2999 
RMK AO2
####018000075####
SAMY20 FMCZ 081000
METAR FMCZ 081000Z 13013KT 9999 BKN025 27/19 Q1017=
####018000277####
SAIL31 BICC 081000
METAR BIAR 081000Z 35019KT 9999 BKN015 09/06 Q0994=
METAR BIEG 081000Z 36014KT 6000 VCSH VV003 08/08 Q0990 RESHRA=
METAR BIKF 081000Z 02022KT 9999 FEW015 SCT032 BKN070 11/06 Q0993=
METAR BIRK 081000Z 01023KT 350V090 9999 FEW020 BKN100 10/06 Q0992=
####018000227####
SAGG31 UGTB 081000
METAR UGTB 081000Z VRB06KT 9999 SCT066 33/18 Q1014 NOSIG RMK
31CLRD80=
METAR UGSB 081000Z 29008KT 9999 FEW023CB 28/23 Q1010 NOSIG=
METAR UGKO 081000Z 27006KT 9999 SCT033CB BKN100 31/23 Q1011 NOSIG=
####018000073####
SAJD31 OJAI 081000 RRA
METAR OJAQ 081000Z 36018KT CAVOK 36/24 Q1007=
####018000412####
SAME31 OLBA 081000
METAR OLBA 081000Z 24009KT 200V270 8000 FEW080 29/18 Q1011
     NOSIG=
METAR OSDI 081000Z 21012KT CAVOK 36/01 Q1009=
METAR OSAP 081000Z 29015KT CAVOK 32/18 Q1006=
METAR OSLK 081000Z 24008KT 9999 FEW026 SCT030 28/20 Q1009=
METAR OJAI 081000Z 29010KT CAVOK 32/01 Q1012 NOSIG=
METAR OJAM 081000Z 22006KT 6000 NSC 31/07 Q1012 NOSIG=
METAR OJAQ 081000Z 36018KT CAVOK 36/24 Q1007=
####018000253####
SACZ31 LKPW 081000
METAR LKKV 081000Z VRB02KT CAVOK 22/09 Q1024=
METAR LKMT 081000Z 04005KT 320V120 9999 FEW043 20/10 Q1023 NOSIG=
METAR LKPR 081000Z 27005KT 220V330 CAVOK 23/10 Q1024 NOSIG=
METAR LKTB 081000Z VRB03KT CAVOK 23/09 Q1023 NOSIG=
####018000539####
SAYG31 LYBM 081000
METAR LYBE 081000Z 36014KT CAVOK 21/12 Q1022 NOSIG=
METAR LYBT 081000Z 34012KT 310V020 CAVOK 22/13 Q1021 NOSIG=
METAR LYKV 081000Z 32008KT 9999 SCT035 17/16 Q1022 NOSIG=
METAR LYNI 081000Z 31009KT 9999 FEW020 BKN033 17/13 Q1021 NOSIG=
METAR LYPG 081000Z 01017KT 9999 FEW040 27/08 Q1017 NOSIG=
METAR LYPR 081000Z NIL=
METAR LYTV 081000Z 33006KT 9999 FEW053 28/09 Q1017 NOSIG=
METAR LYUZ 081000Z 33006KT 270V030 9999 BKN020 12/10 Q1024 NOSIG=
METAR LYVR 081000Z VRB07KT 9999 FEW030 BKN040 20/13 Q1020=
####018000089####
SAAB31 LATI 081000
METAR LATI 081000Z 01010KT 340V130 9999 FEW040 27/12 Q1016 NOSIG=
####018000329####
SATS41 DTTA 081000
METAR DTTB 081000Z 32008KT 9999 FEW020 29/17 Q1020=
METAR DTTD 081000Z 08006KT 010V140 CAVOK 28/16 Q1021=
METAR DTTG 081000Z 10010KT CAVOK 31/15 Q1019 NOSIG=
METAR DTTK 081000Z 09002KT CAVOK 32/15 Q1019=
METAR DTTL 081000Z 29006KT CAVOK 29/19 Q1019=
METAR DTTN 081000Z 22004KT CAVOK 31/16 Q1018=
####018000073####
SAJD20 OJAM 081000 RRA
METAR OJAQ 081000Z 36018KT CAVOK 36/24 Q1007=
####018000836####
SAUR31 UKMS 081000
METAR UKLR 081000Z 30005MPS 260V340 9999 BKN023
         BKN100  21/15 Q1018 30090070 NOSIG=
METAR UKLI 081000Z 31002MPS 260V020 9999 SCT016CB
         BKN023 17/15 Q1020 28290565 NOSIG=
METAR UKON 081000Z 32003MPS 270V010 9999 FEW033
         OVC200  27/18 Q1013 05090075 NOSIG=
METAR UKCM 081000Z 14003MPS 070V200 CAVOK 28/18 Q1014
          02010065 NOSIG=
METAR UKCW 081000Z 00000MPS 9999 BKN040 30/15 Q1015
         0909//70 NOSIG=
METAR UKLU 081000Z 35006MPS 9999 SCT040 22/08 Q1020
         10090070 NOSIG=
METAR UKKK 081000Z 26002MPS 9999 BKN030 23/18 Q1015
         26CLRD70  NOSIG=
METAR UKKM 081000Z 31003MPS 240V020 9999 BKN030 23/17
         Q1015  33CLRD70 NOSIG=
METAR UKLN 081000Z 29005MPS 250V360 9999 -SHRA BKN014
          BKN033CB 15/14 Q1019 3309//70 NOSIG=
####018000347####
SAIE31 EIDB 081000
METAR EIDW 081000Z 23011KT 9999 FEW026 SCT100 BKN130 16/10 Q1015
     NOSIG=
METAR EINN 081000Z 18010KT 9999 -RA FEW016 OVC060 15/12 Q1015 NOSIG=
METAR EICK 081000Z 21011KT 9999 -RA SCT012 SCT030 BKN070 14/13 Q1016
     NOSIG=
METAR EIKN 081000Z 20013KT 180V250 9999 FEW020 SCT045 BKN120 15/10
     Q1013 NOSIG=
####018000169####
SACY31 LCLK 081000
METAR LCLK 081000Z 18015KT 9999 FEW025 29/23 Q1008 NOSIG=
METAR LCPH 081000Z 24008KT 200V270 9999 FEW030 28/23 Q1009=
METAR LCNC 081000Z NIL=
####018000648####
SAMS31 WMKK 081000
METAR 081000Z
METAR WBGG 081000Z 24007KT 9999 TS FEW015CB SCT020 BKN150 25/23 Q1009
 TRMPO
     4000 TSRA=
METAR WBKK 081000Z 09006KT 9999 -RA FEW013 FEW016CB SCT035 OVC260 
25/23
     Q1008 RETSRA NOSIG=
METAR WBSB 081000Z 15008KT 8000 -TSRA SCT015 FEW016CB BKN140 27/25 
Q1008
     TEMPO 6000 TSRA=
METAR WMKK 081000Z 20004KT 160V240 9999 FEW018 SCT140 BKN280 30/26 
Q1008
     NOSIG=
METAR WMKP 081000Z 25006KT 9999 FEW020 BKN280 31/25 Q1008 NOSIG=
METAR WSSL 081000Z 25006KT 9999 -RA FEW018 BKN270 29/24 Q1008=
METAR WSSS 081000Z 21004KT 180V250 9999 -RA FEW016 BKN280 29/25 Q1008
 NOSIG=
####018000475####
SARS18 KAWN 081000 RRB
METAR BIKF 081000Z 02022KT 9999 FEW015 SCT032 BKN070 11/06 Q0993=
METAR LUKK 081000Z 33007KT 280V360 9999 SCT026 23/16 Q1015 26CLRD65
      NOSIG=
METAR UBBB 081000Z 35020KT CAVOK 32/23 Q1011 NOSIG RMK R88CLRD70=
METAR UHHH 081000Z METAR 04004MPS 9999 SCT032CB OVC100 17/14 Q1010
      NOSIG=
METAR UKKK 081000Z 26002MPS 9999 BKN030 23/18 Q1015 26CLRD70 NOSIG=
METAR UTTT 081000Z 28004MPS 240V320 CAVOK 39/07 Q1010 R08R/CLRD70 NOSIG=
####018001757####
SAEU KAWN 081000 RRK
METAR EGOM 080950Z 26012KT 9999 -SHRA SCT010 SCT050 13/11 Q1014 GRN=
METAR EGVP 080950Z 18002KT 9999 BKN012 18/15 Q1018 GRN BECMG SCT025
      BLU=
METAR EGXW 080950Z 25011KT 9999 FEW032 BKN120 BKN250 18/10 Q1017 BLU
      NOSIG=
METAR EPGD 081000Z 30006KT 240V350 CAVOK 23/09 Q1021=
METAR EPKK 081000Z 27007KT 240V330 9999 FEW046 22/08 Q1022=
METAR EPKT 081000Z 31008KT CAVOK 20/08 Q1023=
METAR EPPO 081000Z 32007KT 250V360 CAVOK 22/09 Q1022=
METAR EPRZ 081000Z 32011KT 9999 SCT040 21/11 Q1021=
METAR EPWA 081000Z 31010KT 260V360 9999 FEW043 22/12 Q1021 NOSIG=
METAR EPWR 081000Z 02005KT 340V090 CAVOK 23/11 Q1023=
METAR LEMO 081000Z 29003KT 240V020 9999 FEW050 27/19 Q1016 NOSIG=
METAR LHDC 080945Z 03010KT 9999 FEW033 22/13 Q1021 NOSIG=
METAR LHKE 080945Z 04004MPS CAVOK 25/12 Q1021 NOSIG RMK BLU=
METAR LHPA 080945Z 35005MPS CAVOK 22/10 Q1023 NOSIG RMK BLU=
METAR LHPP 080945Z 02006KT 9999 SCT043 22/11 Q1023 NOSIG=
METAR LHSN 080945Z 06003MPS CAVOK 23/12 Q1021 NOSIG RMK BLU=
METAR LHUD 080945Z 04006KT 9999 FEW033 23/13 Q1022=
METAR LKCV 081000Z VRB02KT CAVOK 22/07 Q1023 NOSIG RMK BLU+ BLU+=
METAR LKKV 081000Z VRB02KT CAVOK 22/09 Q1024=
METAR LKMT 081000Z 04005KT 320V120 9999 FEW043 20/10 Q1023 NOSIG=
METAR LKNA 081000Z 35004KT CAVOK 20/08 Q1024 NOSIG RMK BLU+ BLU+=
METAR LKPR 081000Z 27005KT 220V330 CAVOK 23/10 Q1024 NOSIG=
METAR LKTB 081000Z VRB03KT CAVOK 23/09 Q1023 NOSIG=
METAR LQMO 081000Z 32008KT 9999 FEW045 27/09 Q1018=
METAR LYBE 081000Z 36014KT CAVOK 21/12 Q1022 NOSIG=
METAR LYNI 081000Z 31009KT 9999 FEW020 BKN033 17/13 Q1021 NOSIG=
METAR LYPG 081000Z 01017KT 9999 FEW040 27/08 Q1017 NOSIG=
METAR LYTV 081000Z 33006KT 9999 FEW053 28/09 Q1017 NOSIG=
####018000075####
SACN50 CWAO 080915
WGP SA 0915 AUTO8 M M M M/13/11/MMMM/M/M M 73MM=

####018000076####
SPUS74 KWBC 081004
SPECI
KSBA 081001Z 00000KT 9SM OVC013 14/12 A2990=
####018000900####
SPZZ40 KAWN 081004
SPECI CYEK 080958Z AUTO 06004KT 9SM BKN003 OVC024 OVC047 OVC095 07/07
      A2959=
SPECI CYEK 081001Z AUTO 06004KT 9SM BKN002 OVC024 OVC047 OVC095 07/07
      A2959=
SPECI CYPY 080959Z AUTO 26003KT 170V270 9SM BKN001 10/10 A2992=
SPECI CYTZ 081001Z AUTO VRB02KT 1 1/4SM BR SCT003 19/18 A3002 RMK SLP165
      DENSITY ALT 600FT RVR MISG=
SPECI CYYU 081002Z 28008KT 12SM -SHRA FEW030 OVC120 RMK SC2AS6=
SPECI KNHK 081000Z AUTO 09004KT 2 1/2SM BR SCT009 26/24 A2999 RMK AO2=
SPECI KTIK 081000Z AUTO 35007KT 10SM BKN011 BKN024 23/23 A3004 RMK
      AO2 CIG 010V014 BKN024 V OVC SLP161 $=
SPECI LFRB 080958Z 36004KT 300V080 9999 SCT015 SCT250 20/15 Q1019 NOSIG
      RMK B3=
SPECI PGUA 081002Z AUTO 08015KT 10SM SCT018 27/ A2990 RMK AO2 SLP106
      VISNO RWY24L $=
SPECI RKSG 080959Z 00000KT 8000 BR CLR 26/25 A2978 RMK AO2A DZE0959
      SLP085 $=
####018000091####
SPUS81 KWBC 081004
SPECI
KCON 081002Z AUTO 00000KT 4SM BR SCT008 BKN070 23/21 A3007=
####018001694####
SAZZ40 KAWN 081000 RRL
METAR BIAR 081000Z 35019KT 9999 BKN015 09/06 Q0994=
METAR BIEG 081000Z 36014KT 6000 VCSH VV003 08/08 Q0990 RESHRA=
METAR BIKF 081000Z 02022KT 9999 FEW015 SCT032 BKN070 11/06 Q0993=
METAR BIRK 081000Z 01023KT 350V090 9999 FEW020 BKN100 10/06 Q0992=
METAR K79J 080956Z AUTO 00000KT 9SM CLR 24/21 A3002 RMK AO2 SLP159
      T02390211 TSNO $=
METAR KNGU 080959Z 06005KT 5SM BR SCT090 BKN120 26/23 A2998 RMK AO2
      SLP152 T02610233=
METAR KRCA 080955Z 00000KT 8SM CLR 11/08 A3024 RMK AO2A SLP233 T01140081
      $=
METAR LEMO 081000Z 29003KT 240V020 9999 FEW050 27/19 Q1016 NOSIG=
METAR LKKV 081000Z VRB02KT CAVOK 22/09 Q1024=
METAR MGPB 081000Z 00000KT 9999 FEW016 OVC080 24/23 Q1010 A2983=
METAR NTAA 081000Z 07003KT 9999 FEW023 26/21 Q1015 WS ALL RWY NOSIG=
METAR OJAQ 081000Z 36018KT CAVOK 36/24 Q1007=
METAR OLBA 081000Z 24009KT 200V270 8000 FEW080 29/18 Q1011 NOSIG=
METAR PHBK 080956Z AUTO 00000KT 10SM FEW050 24/18 A3003 RMK AO2 SLP171
      T02440178 403000217 TSNO $=
METAR RJSM 081000Z 05003KT 010V080 7000 -SHRA FEW005 BKN040 BKN080
      21/18 Q1009 RMK 1ST005 6SC040 5AC080 A2981 WIND BY EQPT/10
      FCST 1016 BECMG 1011 NSW TEMPO 1215 3000 BR SCT001ST
      BKN003ST BECMG 1516 3000 BR SCT001ST BKN003ST=
METAR SCSE 081000Z 13003KT CAVOK 06/05 Q1017 NEFO PLAYA SKC=
METAR TTCP 081000Z 09008KT 3000 -SHRA VCSH FEW010CB SCT014 BKN030 24/23
      Q1013 NOSIG=
METAR TTPP 081000Z 10012KT 3000 -SHRA VCSH FEW010CB BKN038 25/24 Q1012
      RERA NOSIG=
METAR WSAP 081000Z 19002KT 9999 -SHRA SCT016 BKN150 31/25 Q1008=
METAR WSSS 081000Z 21004KT 180V250 9999 -RA FEW016 BKN280 29/25 Q1008
      NOSIG=
####018000075####
SACN50 CWAO 080930
WGP SA 0930 AUTO8 M M M M/13/11/MMMM/M/M M 51MM=

####018000088####
SPUS81 KWBC 081004
SPECI
KNUI 081001Z AUTO 00000KT 2 1/2SM BR FEW011 24/23 A2998=
####018000122####
SAUS46 KPDT 081004
MTRHMS
METAR KHMS 080950Z 29009KT 15SM SKC 21/06 A2995 RMK SLP140 T02080061
     RSNK 20/04013
####018000116####
SAUK39 EGRR 080950 RRC
METAR EGDM 080950Z 22005KT 9999 FEW016 SCT033 BKN120 19/14 Q1019 BLU
TEMPO SCT018 WHT=
####018000099####
SAUK39 EGRR 080950 RRD
METAR EGUO 080950Z 00000KT 9999 FEW010 SCT022 BKN200 18/10 Q1020
WHT=
####018000089####
SAMG20 FMMI 081000
METAR FMMI 081000Z 11007KT 060V160 9999 BKN020 19/12 Q1025 NOSIG=
####018000083####
SAUK39 EGRR 080950 RRE
METAR EGXZ 080950Z 24009KT 9999 BKN025 19/10 Q1016 BLU=
####018000202####
SAUS20 KNKA 081004
SPECI KMKO 081001Z AUTO 17006KT 10SM FEW021 OVC028 23/23 A3003 RMK 
    AO2 LTG DSNT NW TSE0955=
SPECI KPQL 081003Z AUTO 00000KT 1 3/4SM BR BKN002 23/23 A3002 RMK 
    AO2=
####018001709####
SAEU KAWN 081000 RRL
METAR EICK 081000Z 21011KT 9999 -RA SCT012 SCT030 BKN070 14/13 Q1016
      NOSIG=
METAR EIDW 081000Z 23011KT 9999 FEW026 SCT100 BKN130 16/10 Q1015 NOSIG=
METAR EIKN 081000Z 20013KT 180V250 9999 FEW020 SCT045 BKN120 15/10
      Q1013 NOSIG=
METAR EINN 081000Z 18010KT 9999 -RA FEW016 OVC060 15/12 Q1015 NOSIG=
METAR LATI 081000Z 01010KT 340V130 9999 FEW040 27/12 Q1016 NOSIG=
METAR LEAL 081000Z 07007KT 030V100 CAVOK 31/12 Q1019 NOSIG=
METAR LEAS 081000Z 32003KT 270V010 9999 SCT003 OVC014 20/19 Q1018 NOSIG=
METAR LEBL 081000Z 20015KT CAVOK 26/20 Q1019 NOSIG=
METAR LEBZ 081000Z 16008KT 110V190 CAVOK 32/12 Q1015=
METAR LEGR 081000Z 09004KT 010V140 9999 FEW060 34/11 Q1018=
METAR LEIB 081000Z 08011KT 040V110 CAVOK 28/22 Q1019 NOSIG=
METAR LELC 081000Z 04011KT 010V080 CAVOK 29/12 Q1019 NOSIG=
METAR LELN 081000Z 13001KT CAVOK 29/11 Q1020=
METAR LEMD 081000Z 18002KT CAVOK 31/12 Q1020 NOSIG=
METAR LEMG 081000Z 16006KT 090V210 9999 FEW030 29/15 Q1016 NOSIG=
METAR LEMH 081000Z 21006KT 160V250 9999 FEW025 28/20 Q1021=
METAR LEPA 081000Z 21006KT 170V250 CAVOK 30/12 Q1020 NOSIG=
METAR LERS 081000Z 22006KT 170V250 CAVOK 28/18 Q1019=
METAR LETO 081000Z 22002KT CAVOK 31/10 Q1020 NOSIG=
METAR LEVC 081000Z VRB01KT CAVOK 31/19 Q1019 NOSIG=
METAR LEVD 081000Z 22004KT 160V280 CAVOK 31/10 Q1020=
METAR LEVX 081000Z 21004KT CAVOK 28/22 Q1013=
METAR LEZG 081000Z 10010KT 050V130 CAVOK 32/16 Q1018=
METAR LEZL 081000Z 28004KT 210V350 9999 SCT020 29/17 Q1016 NOSIG=
METAR COR LKPD 081000Z 26003KT 210V010 9999 FEW040 23/08 Q1023 NOSIG
      RMK BLU+ BLU+=
METAR LKPO 081000Z 30004KT 230V040 CAVOK 21/10 Q1023 NOSIG RMK BLU+
      BLU+=
####018000084####
SANI20 DNMM 081000
METAR DNMM 081000Z 25009KT 9999 BKN012 28/25 Q1015 NOSIG=

####018002962####
SAUS20 KNKA 081004
METAR KUXL 081000Z AUTO 05007KT 10SM SCT008 26/25 A2997 RMK AO2=
SPECI KARR 081003Z AUTO 14004KT 2 1/2SM -RA BR SCT018 BKN035 OVC070 
    22/22 A3002 RMK AO2 RAB0957 P0000 $=
METAR KCWV 081011Z AUTO 00000KT 7SM CLR 21/21 A3000 RMK AO2=
SPECI KCYS 081003Z AUTO 12003KT 7SM OVC006 12/12 A3036 RMK AO2 CIG 
    003V012 TSNO=
SPECI KDDH 081003Z AUTO 00000KT 1 3/4SM BR CLR 19/19 A3006 RMK AO2=
METAR KFSD 080956Z 31007KT 10SM CLR 16/14 A3016 RMK AO2 SLP208 BKN
     ABV 120 T01610144=
SPECI KFZY 081003Z AUTO 00000KT 2SM BR CLR 21/20 A3004 RMK AO2=
METAR KGAO 081000Z AUTO 00000KT 10SM SCT021 26/24 A2999 RMK AO2=
SPECI KHIB 081003Z AUTO 00000KT 1/2SM FG CLR 08/08 A3004 RMK AO2=
METAR KHNZ 081000Z AUTO 34004KT 7SM SCT080 BKN100 BKN120 25/19 
     A2999 RMK AO2 T02450190=
METAR KIER 081000Z AUTO 00000KT 10SM CLR 23/23 A3002 RMK AO2 PWINO=
METAR KISO 081000Z AUTO 00000KT 5SM HZ CLR 24/21 A2994 RMK AO2 
     T02380208=
METAR KIXA 081000Z AUTO 00000KT 5SM HZ CLR 22/20 A2995 RMK AO2 
     T02210196=
METAR KJFZ 081000Z AUTO 00000KT 6SM CLR 20/20 A3017 RMK=
METAR KLDJ 081000Z AUTO 00000KT 2 1/2SM BR SCT100 25/23 A3002 RMK 
     AO2 T02450231=
METAR KLHZ 081000Z AUTO 00000KT 7SM CLR 22/19 A2998 RMK AO2 
     T02240192=
SPECI KLNR 081003Z AUTO 00000KT 9SM OVC004 21/19 A3003 RMK AO2=
METAR KMKJ 081000Z AUTO 00000KT 2 1/2SM CLR 18/08 A3021 RMK AO1 
     VIS 1 1/2V3=
METAR KMLJ 081004Z AUTO 00000KT 5SM BR CLR 22/22 A3001 RMK AO2=
METAR KMTV 081000Z AUTO 00000KT 5SM BR CLR 22/21 A3005 RMK AO2=
SPECI KMVY 081003Z 13004KT 4SM BR OVC001 21/19 A3009 RMK AO2=
METAR KOKV 081000Z AUTO 00000KT 5SM HZ SCT095 24/19 A3004 RMK AO2 
     T02360190=
METAR KOMH 081000Z AUTO 00000KT 7SM CLR 25/21 A3003 RMK AO2 
     T02460205=
METAR KOPN 081000Z AUTO 00000KT 10SM CLR 24/22 A3004 RMK AO1=
METAR KPCM 081000Z AUTO 00000KT 7SM CLR 22/21 A3000 RMK AO2=
SPECI KPHD 081003Z AUTO 00000KT 2SM BR CLR 19/17 A3010 RMK AO2=
METAR KRCZ 081000Z AUTO 00000KT 10SM CLR 23/19 A2996 RMK AO2 
     T02250189=
SPECI KRHI 081003Z AUTO 00000KT 1/4SM FG VV001 17/16 A3003 RMK AO2=
METAR KRHP 081004Z AUTO 00000KT 4SM BR CLR 17/17 A3012 RMK AO2=
METAR KRMN 081000Z AUTO 00000KT 5SM BR SCT075 BKN110 23/23 A3002 
     RMK AO2=
SPECI KS58 080945Z 09018KT 10SM SCT015 28/26 A2995 RMK WT28 SEAS
     3-5FT=
METAR KSFQ 081000Z AUTO 00000KT 3SM BR 24/23 A2996 RMK AO2 SKY 
     OBSCURED=
METAR KSHD 081000Z AUTO 00000KT 4SM BR CLR 21/18 A3008 RMK AO2=
METAR KTBR 081000Z AUTO 29004KT 10SM CLR 22/20 A2999 RMK AO2 
     T02200203=
METAR KVDF 080956Z AUTO 00000KT 2SM BR CLR 22/21 A2999 RMK AO2=
METAR KW22 081000Z AUTO 00000KT 2SM  BR CLR 19/19 A3013 RMK AO2=
METAR KWDR 081000Z AUTO 00000KT 10SM CLR 22/20 A3007 RMK AO1=
METAR KXLL 081000Z AUTO 00000KT 5SM BR CLR 23/22 A3004 RMK AO2 
     T02330220=
METAR KXSA 081000Z AUTO 00000KT 2SM CLR 23/23 A2999 RMK AO2 PWINO=
####018000893####
SPUS99 KWBC 081005
SPECI
KMKO 081001Z AUTO 17006KT 10SM FEW021 OVC028 23/23 A3003 RMK AO2
     LTG DSNT NW TSE0955=
KPQL 081003Z AUTO 00000KT 1 3/4SM BR BKN002 23/23 A3002 RMK
     AO2=
KARR 081003Z AUTO 14004KT 2 1/2SM -RA BR SCT018 BKN035 OVC070
     22/22 A3002 RMK AO2 RAB0957 P0000 $=
KCYS 081003Z AUTO 12003KT 7SM OVC006 12/12 A3036 RMK AO2 CIG
     003V012 TSNO=
KDDH 081003Z AUTO 00000KT 1 3/4SM BR CLR 19/19 A3006 RMK AO2=
KFZY 081003Z AUTO 00000KT 2SM BR CLR 21/20 A3004 RMK AO2=
KHIB 081003Z AUTO 00000KT 1/2SM FG CLR 08/08 A3004 RMK AO2=
KLNR 081003Z AUTO 00000KT 9SM OVC004 21/19 A3003 RMK AO2=
KMVY 081003Z 13004KT 4SM BR OVC001 21/19 A3009 RMK AO2=
KPHD 081003Z AUTO 00000KT 2SM BR CLR 19/17 A3010 RMK AO2=
KRHI 081003Z AUTO 00000KT 1/4SM FG VV001 17/16 A3003 RMK AO2=
KS58 080945Z 09018KT 10SM SCT015 28/26 A2995 RMK WT28 SEAS
     3-5FT=
####018002027####
SAUS99 KWBC 081005
METAR
KUXL 081000Z AUTO 05007KT 10SM SCT008 26/25 A2997 RMK AO2=
KCWV 081011Z AUTO 00000KT 7SM CLR 21/21 A3000 RMK AO2=
KFSD 080956Z 31007KT 10SM CLR 16/14 A3016 RMK AO2 SLP208 BKN ABV
     120 T01610144=
KGAO 081000Z AUTO 00000KT 10SM SCT021 26/24 A2999 RMK AO2=
KHNZ 081000Z AUTO 34004KT 7SM SCT080 BKN100 BKN120 25/19 A2999 RMK
     AO2 T02450190=
KIER 081000Z AUTO 00000KT 10SM CLR 23/23 A3002 RMK AO2 PWINO=
KISO 081000Z AUTO 00000KT 5SM HZ CLR 24/21 A2994 RMK AO2
     T02380208=
KIXA 081000Z AUTO 00000KT 5SM HZ CLR 22/20 A2995 RMK AO2
     T02210196=
KJFZ 081000Z AUTO 00000KT 6SM CLR 20/20 A3017 RMK=
KLDJ 081000Z AUTO 00000KT 2 1/2SM BR SCT100 25/23 A3002 RMK AO2
     T02450231=
KLHZ 081000Z AUTO 00000KT 7SM CLR 22/19 A2998 RMK AO2
     T02240192=
KMKJ 081000Z AUTO 00000KT 2 1/2SM CLR 18/08 A3021 RMK AO1 VIS 1
     1/2V3=
KMLJ 081004Z AUTO 00000KT 5SM BR CLR 22/22 A3001 RMK AO2=
KMTV 081000Z AUTO 00000KT 5SM BR CLR 22/21 A3005 RMK AO2=
KOKV 081000Z AUTO 00000KT 5SM HZ SCT095 24/19 A3004 RMK AO2
     T02360190=
KOMH 081000Z AUTO 00000KT 7SM CLR 25/21 A3003 RMK AO2
     T02460205=
KOPN 081000Z AUTO 00000KT 10SM CLR 24/22 A3004 RMK AO1=
KPCM 081000Z AUTO 00000KT 7SM CLR 22/21 A3000 RMK AO2=
KRCZ 081000Z AUTO 00000KT 10SM CLR 23/19 A2996 RMK AO2
     T02250189=
KRHP 081004Z AUTO 00000KT 4SM BR CLR 17/17 A3012 RMK AO2=
KRMN 081000Z AUTO 00000KT 5SM BR SCT075 BKN110 23/23 A3002 RMK
     AO2=
KSFQ 081000Z AUTO 00000KT 3SM BR 24/23 A2996 RMK AO2 SKY
     OBSCURED=
KSHD 081000Z AUTO 00000KT 4SM BR CLR 21/18 A3008 RMK AO2=
KTBR 081000Z AUTO 29004KT 10SM CLR 22/20 A2999 RMK AO2
     T02200203=
KVDF 080956Z AUTO 00000KT 2SM BR CLR 22/21 A2999 RMK AO2=
KW22 081000Z AUTO 00000KT 2SM BR CLR 19/19 A3013 RMK AO2=
KWDR 081000Z AUTO 00000KT 10SM CLR 22/20 A3007 RMK AO1=
KXLL 081000Z AUTO 00000KT 5SM BR CLR 23/22 A3004 RMK AO2
     T02330220=
KXSA 081000Z AUTO 00000KT 2SM CLR 23/23 A2999 RMK AO2 PWINO=
####018000330####
SAMX44 MMMD 080959
METAR MMCZ 080946Z 09005KT 6SM  BKN200 26/24 A2985 RMK 8/008 HZY=
METAR MMMD 080957Z RTD 11005KT 7SM  BKN070 22/22 A2982 RMK 8/070 HZY=
METAR MMTP 080940Z 00000KT 10SM BKN020 BKN100 24/22 A2987
      RMK 8/170=
METAR MMUN 080940Z 11007KT 6SM  SCT015 SCT090 BKN300 28/24 A2987 
      RMK 8/538 HZY=
####018000123####
SAMX52 MMGL 081000
METAR MMMM 080958Z RTD 00000KT 4SM  BKN020 OVC070 17/16 A3008 
      RMK 8/45/=





TX OPMET V1
####018000470####
SAUK37 EGGY 080950
METAR EGAE 080950Z 23013KT 9999 FEW018 SCT040 16/10 Q1012=
METAR EGNC 080950Z 24015KT 9999 SHRA FEW015 SCT025 SCT045 16/11
    Q1015=
METAR EGNH 080950Z 24013KT 9999 SCT021 17/11 Q1017=
METAR EGNJ 080950Z 21010KT 180V240 9999 FEW018 19/12 Q1017=
METAR EGNR 080950Z 24010KT 9999 FEW025 19/11 Q1017=
METAR EGPE 080950Z 22018KT 9999 FEW015 SCT034 17/10 Q1008=
METAR EGPI 080950Z NIL=
METAR EGPN 080950Z 23015KT 9999 FEW028 SCT045 16/12 Q1012=
####018000184####
SADR31 MDSD 081000
METAR
MDST 081000Z 00000KT 2000 BR BKN016 22/22 Q1015 BR/ALL QDS=
MDPC 081000Z 00000KT 9999 FEW018 24/21 Q1012=
MDSD 081000Z VRB03KT 9999 FEW018 24/22 Q1014==
####018000067####
SAAG SAME 081000
METAR SAME 081000Z 00000KT CAVOK 00/M03 Q1014=
####018000731####
SANL33 EHDB 080955
METAR EHAK 080955Z AUTO 24009KT 9999NDV FEW047/// 16/13 Q1016=
METAR EHDV 080955Z NIL=
METAR EHFD 080955Z AUTO 23015KT 9999NDV -DZ FEW025/// BKN028///
BKN032/// 16/15 Q1018 REDZDZ=
METAR EHFZ 080955Z AUTO 26007KT 9999NDV -DZ 17/15 Q1018 REDZDZ=
METAR EHJA 080955Z AUTO 24015KT 9999NDV FEW023/// BKN034/// BKN040///
16/15 Q1017=
METAR EHJR 080955Z NIL=
METAR EHKV 080955Z AUTO 26016KT 9999NDV FEW020/// 16/15 Q1018=
METAR EHMA 080955Z AUTO 23012KT 9999NDV 21/17 Q1019=
METAR EHMG 080955Z AUTO 24013KT 9999NDV SCT043/// 17/15 Q1018=
METAR EHPG 080955Z AUTO 23012KT 9999NDV ///////// 16/15 Q1019=
METAR EHQE 080955Z AUTO 24014KT 9999NDV 16/15 Q1018=
METAR EHSA 080955Z NIL=
METAR EHSC 080955Z NIL=
####018001788####
SAEU KAWN 081000 RRM
METAR LEAB 081000Z 15012KT 120V180 CAVOK 32/03 Q1022 NOSIG=
METAR LEAM 081000Z 07017KT CAVOK 36/05 Q1016=
METAR LEBA 081000Z 25006KT 220V280 9999 FEW050 30/13 Q1016=
METAR LEBB 081000Z 28005KT 210V300 8000 NSC 28/22 Q1015 NOSIG=
METAR LEGE 081000Z 00000KT CAVOK 32/19 Q1019=
METAR LEPP 081000Z 33001KT 9999 FEW060 32/14 Q1019=
METAR LESO 081000Z 03006KT CAVOK 25/19 Q1015=
METAR LEST 081000Z 11010KT 9999 FEW018 21/19 Q1015 NOSIG=
METAR LEVS 081000Z 08005KT 030V130 CAVOK 30/12 Q1020=
METAR LEVT 081000Z 19001KT CAVOK 32/16 Q1018=
METAR LEXJ 081000Z 29008KT 260V330 9999 BKN019 24/20 Q1016=
METAR LFJL 081000Z AUTO VRB04KT 9999NDV NSC 28/09 Q1021=
METAR LFLL 081000Z 12004KT 050V170 CAVOK 28/14 Q1020 NOSIG=
METAR LFLS 081000Z 20003KT 150V270 9999 FEW050 28/17 Q1021 NOSIG=
METAR LFMT 081000Z 15005KT 120V180 CAVOK 29/19 Q1020 NOSIG=
METAR LFMU 081000Z AUTO 14007KT 070V200 9999NDV NSC 30/13 Q1020=
METAR LFOB 081000Z VRB07KT CAVOK 29/11 Q1019 NOSIG=
METAR LFOH 081000Z AUTO 01010KT 9999NDV NSC 21/12 Q1019=
METAR LFOP 081000Z VRB02KT CAVOK 27/12 Q1019 NOSIG=
METAR LFPB 081000Z 21004KT 140V270 CAVOK 29/10 Q1019 NOSIG=
METAR LFPO 081000Z 16004KT 100V200 CAVOK 29/11 Q1019 NOSIG=
METAR LFRB 081000Z 36004KT 300V080 9999 SCT015 SCT250 20/15 Q1019 NOSIG=
METAR LFRS 081000Z VRB02KT CAVOK 29/13 Q1018 NOSIG=
METAR LFSN 081000Z VRB03KT CAVOK 29/13 Q1020 NOSIG=
METAR LRBS 081000Z VRB01KT 9999 FEW019 BKN048 21/14 Q1017 NOSIG=
METAR LRCK 081000Z 02010KT 350V060 9999 FEW035 23/15 Q1015 NOSIG=
METAR LROP 081000Z 29003KT 250V010 9999 FEW040CB FEW049 20/14 Q1016
      880///95 NOSIG=
METAR LRSB 081000Z 03004KT 300V060 9999 FEW018 BKN027 16/12 Q1020=
METAR LRTR 081000Z 36008KT 330V060 9999 FEW030 21/14 Q1020=
####018000381####
SAUK38 EGGY 080950
METAR EGEC 080950Z NIL=
METAR EGPA 080950Z 20016KT 9999 VCSH FEW027 SCT048 17/11 Q1007=
METAR EGPC 080950Z 20015G25KT 9999 FEW020 16/10 Q1008=
METAR EGPL 080950Z 22021KT 9999 FEW018TCU 15/11 Q1007=
METAR EGPM 080950Z 22021KT 9999 FEW014 SCT035 16/10 Q1005=
METAR EGPO 080950Z 21020KT 9999 -SHRA FEW014CB SCT030 14/11
    Q1005=
METAR EGPU 080950Z NIL=
####018000545####
SAUK36 EGGY 080950
METAR EGBE 080950Z NIL=
METAR EGBJ 080950Z 21006KT 160V260 9999 FEW028 20/10 Q1018=
METAR EGCN 080950Z 24009KT 210V270 9999 SCT026 20/12 Q1018=
METAR EGDL 080950Z 21006KT 9999 FEW018 SCT150 18/12 Q1019 NOSIG=
METAR EGSC 080950Z 22005KT 130V290 9000 FEW020 SCT030 19/14 Q1018=
METAR COR EGSD 080950Z 24009KT 9999 SCT015 BKN030 20/17 Q1019 TEMPO
     BKN014=
METAR COR EGSH 080950Z 25005KT 220V300 4000 -RA FEW004 SCT007 BKN013
    19/17 Q1019 BECMG 9999 NSW SCT030=
METAR EGVN 080950Z NIL=
METAR EGWU 080950Z NIL=
####018000086####
SAUK38 EGGY 080950 RRA
METAR EGEC 080950Z 22014KT 180V250 9999 FEW023 16/10 Q1013=
####018000890####
SAAG01 SABM 081000
METAR SAAR 081000Z  00000KT CAVOK 02/00 Q1018=
METAR SABE 081000Z NIL=
METAR SACO 081000Z  34008KT CAVOK 08/M03 Q1019=
METAR SADD 081000Z NIL=
METAR SADF 081000Z NIL=
METAR SAEZ 081000Z NIL=
METAR SAME 081000Z 00000KT CAVOK 00/M03 Q1014=
METAR SANT 081000Z NIL=
METAR SARE 081000Z NIL=
METAR SARF 081000Z  18009KT 9999  OVC007  14/13
Q1017=
METAR SARI 081000Z  23006KT 5000  SCT100  15/15
Q1018=
METAR SARP 081000Z NIL=
METAR SASA 081000Z 36004KT CAVOK 10/07 Q 1020=
METAR SASJ 081000Z  00000KT CAVOK 09/07 Q1018=
METAR SAVC 081000Z NIL=
METAR SAWE 081000Z  27006KT 9999  BKN050  M01/M02
Q0987=
METAR SAWG 081000Z NIL=
METAR SAWH 081000Z  36004KT 9999  BKN035 BKN100
01/M01 Q0984=
METAR SAZM 081000Z NIL=
METAR SAZN 081000Z 27013KT CAVOK 09/02 Q1010=
METAR SAZS 081000Z  32010KT 5000 FZRA BKN008
BKN030  01/00 Q1005=
####018000096####
SAUZ31 UTTT 081000
METAR UTTT 081000Z 28004MPS 240V320 CAVOK 39/07 Q1010
R08R/CLRD70 NOSIG=
####018000085####
SAUK37 EGGY 080950 RRA
METAR EGPI 080950Z 22012KT 9999 FEW020 SCT038 14/10 Q1013=
####018000329####
SAPK31 OPKC 081000
METAR OPGD 081000Z NIL=
METAR OPKC 081000Z NIL=
METAR OPLA 080955Z 15004KT 6000 SCT040 SCT100 37/23 Q1004 NOSIG=
METAR OPNH 081000Z 13504KT 6000M SCT035 FEW100 38/25 Q.1002=
METAR OPPS 081000Z NIL=
METAR OPRN 081000Z NIL=
METAR OPSK 080955Z 050108KTS 6000 HZ SCT040 SCT100 39/25 QNH 1001
R.H. 46 PC=
####018000046####
SAVN26 SVMC 081000
METAR SVMC 081000Z NIL=
####018000089####
SAAJ31 UBBB 081000
METAR UBBB 081000Z 35020KT CAVOK 32/23 Q1011 NOSIG RMK
R88CLRD70=
####018000402####
SAIR31 OIII 081000
METAR OIAW 081000Z 18008KT CAVOK 46/08 Q0998 A2948=
METAR OIFM 081000Z 15008KT CAVOK 38/04 Q1016 A3002=
METAR OIII 081000Z NIL=
METAR OIKB 081000Z 20010KT 4500 HZ NSC 37/26 Q1000 A2955=
METAR OIKK 081000Z NIL=
METAR OIMM 081000Z 03010KT CAVOK 38/M02 Q1014 A2995=
METAR OISS 081000Z NIL=
METAR OITT 081000Z 08012KT CAVOK 37/04 Q1014 A2996=
METAR OIZH 081000Z NIL=
####018000075####
SABZ24 SBFL 081000 CCA
METAR SBFL 081000Z 19010G20KT CAVOK 22/17 Q1016=
####018000074####
SAZB40 FLLS 081000
METAR FLLS 081000Z 06015KT 9999 BKN030 19/09 Q1028=
####018000078####
SAUK38 EGGY 080950 RRB
METAR EGPU 080950Z 23020KT 9999 SCT021 15/12 Q1009=
####018000312####
SAUK51 EGGY 080950
METAR EGDL 080950Z 21006KT 9999 FEW018 SCT150 18/12 Q1019 NOSIG=
METAR EGDM 080950Z NIL=
METAR EGDY 080950Z NIL=
METAR EGOV 080950Z NIL=
METAR EGUB 080950Z NIL=
METAR EGVN 080950Z NIL=
METAR EGWU 080950Z NIL=
METAR EGXC 080950Z NIL=
METAR EGXT 080950Z NIL=
METAR EGYD 080950Z NIL=
####018000213####
SAPR94 SPIM 081000
METAR
SPHO 081000Z 00000KT CAVOK 09/05 Q1024 RMK PP000=
SPHY 081000Z /////KT 99999 SCT030 00/M03 Q1021 RMK PP000=
METAR SPJL 081000Z NIL=
METAR SPME 081000Z NIL=
METAR SPTU 081000Z NIL=
####018000081####
SABZ20 SBSL 081000
METAR SBSL 081000Z 09003KT 9999 FEW017 BKN100 26/24 Q1013=
####018000074####
SACO20 SKBO 080958
METAR SKBQ 081000Z 20004KT 9999 FEW002 25/25 A2986=
####018000346####
SAPH RPLL 081000
METAR RPLL 081000Z 11005KT 9999 FEW023CB FEW025 BKN300 32/25 Q1008
           NOSIG RMK CB SSE, SSW A2977=
METAR RPVM 081000Z 12004KT 9999 FEW020 SCT100 BKN250 31/26 Q1009
           A2980=
METAR RPMZ 081000Z 00000KT 9999 FEW018CB SCT350 30/25 Q1010 CB S=
METAR RPLB 081000Z 21007KT 9999 FEW020 OVC280 31/25 Q1009 NOSIG=
####018000774####
SAZA31 FAPR 081000
METAR FABL 081000Z 36010KT CAVOK 16/06 Q1033 NOSIG=
METAR FACT 081000Z VRB02KT CAVOK 19/05 Q1020 NOSIG=
METAR FAEL 081000Z 04012KT 010V070 CAVOK 21/08 Q1027=
METAR FAGG 081000Z VRB02KT CAVOK 16/05 Q1022=
METAR FAJS 081000Z 06009KT 030V110 9999 SCT030 14/06 Q1036 NOSIG=
METAR FAKN 081000Z 18003KT 9999 BKN020 17/11 Q1034 NOSIG=
METAR COR FALA 081000Z 05004KT 350V120 9999 SCT035 17/06 Q1035=
METAR FALE 081000Z 07008KT CAVOK 22/12 Q1030 NOSIG=
METAR FAMM 081000Z 02011KT 9999 FEW045 18/05 Q1032 NOSIG=
METAR FAPE 081000Z 03011KT CAVOK 15/11 Q1025 NOSIG=
METAR FAPN 081000Z AUTO 09005KT //// // ////// 18/06 Q1033=
METAR FAPP 081000Z 11006KT 9999 BKN030 15/07 Q1033 NOSIG=
METAR FAUP 081000Z 01019KT CAVOK 22/02 Q1027 NOSIG=

####018000617####
SANM40 FYWW 081000
METAR FYGF 081000Z 06008KT CAVOK 21/17 Q////=
METAR FYKB 081000Z AUTO 01010G82KT //// // ////// 24/02 Q1024=
METAR FYKM 081000Z 09005KT 9999 FEW030 22/08 Q1027=
METAR FYKT 081000Z AUTO 01014KT //// // ////// 24/01 Q1026=
METAR FYND 081000Z AUTO 31003KT //// // ////// 22/03 Q1023=
METAR FYRU 081000Z 09010KT CAVOK 21/02 Q1025=
METAR FYWB 081000Z 07024KT 9999 R09/M0050VP1500U VV/// 32/03 Q1017 =
METAR FYWB 081000Z 07024KT 9999 R09/M0050VP1500U VV/// 32/03 Q1017 =
METAR FYWH 081000Z AUTO 03012KT //// // ////// 18/M00 Q1030=
METAR FYWW 081000Z 06012KT CAVOK 17/M02 Q1028=

####018000266####
SAZW40 FVHA 081000
METAR FVBU 081000Z NIL=
METAR FVCZ 081000Z NIL=
METAR FVFA 081000Z NIL=
METAR FVHA 081000Z 10015KT 9999 FEW040 17/04 Q1030 NOSIG=
METAR FVKB 081000Z NIL=
METAR FVMV 081000Z NIL=
METAR FVTL 081000Z NIL=
METAR FVWN 081000Z NIL=

####018000180####
SABC40 FBSK 081000
METAR FBFT 081000Z 10013KT 9999 BKN015 20/10 Q1031=
METAR FBKE 081000Z 09013KT 9999 FEW020 21/07 Q1028=
METAR FBMN 081000Z 09014KT CAVOK 22/06 Q1028=

####018000080####
SPPA41 KWBC 081005
SPECI
PGUA 081002Z AUTO 08015KT 10SM SCT018 27/ A2990=
####018000107####
SPFR32 KWBC 081005
SPECI
LFRB 080958Z 36004KT 300V080 9999 SCT015 SCT250 20/15 Q1019 NOSIG
RMK B3=
####018000360####
SACO20 SKBO 080958
METAR SKBO NIL=
METAR SKBQ 081000Z 20004KT 9999 FEW002 25/25 A2986=
METAR SKCL 081000Z 00000KT 9999 FEW025 BKN090 20/19 A3000=
METAR SKCG 081000Z 00000KT 9999 FEW013 SCT070 26/25 A2985=
METAR SKCC NIL=
METAR SKLT NIL=
METAR SKRG 081000Z 00000KT 8000 -DZ SCT012 BKN080 14/14 A3027=
METAR SKSP NIL=
METAR SKBG NIL=
METAR SKPE NIL=
####018000410####
SAIR33 OIII 081000
METAR OIBB 081000Z 24014KT 8000 HZ SKC 36/28 Q0999 A2952=
METAR OIBL 081000Z NIL=
METAR OIBP 081000Z 21008KT 4000 HZ SKC 41/20 Q0999 A2952=
METAR OICK 081000Z NIL=
METAR OICS 081000Z 20006KT 9000 SKC 39/01 Q1012 A2990=
METAR OIHH 081000Z NIL=
METAR OINZ 081000Z 28008KT CAVOK 34/23 Q1010 A2985=
METAR OITL 081000Z 07022KT CAVOK 25/12 Q1018 A3008=
METAR OIZC 081000Z NIL=
####018000094####
SAEW32 LEMM 081000 RRA
METAR LECO 081000Z 24005KT 160V310 9999 FEW003 SCT010 22/21 Q1014=
####018000147####
SAMS31 WMKK 081000 CCA
METAR 081000Z
METAR WBGG 081000Z 24007KT 9999 TS FEW015CB SCT020 BKN150 25/23 Q1009
 4000
     TSRA
     TEMPO=
####018000112####
SPPA31 KWBC 081005
SPECI
PGUA 081002Z AUTO 08015KT 10SM SCT018 27/ A2990 RMK AO2 SLP106
VISNO RWY24L $=
####018000092####
SAUS41 KAKQ 081005
MTRNXX
SPECI KNXX 081003Z 00000KT 3SM HZ CLR 23/20 A3004 RMK AO2 $
####018001351####
SAJP51 RJTD 081000
METAR RJAA 081000Z 19005KT 9999 FEW020 BKN/// 25/21 Q1010 NOSIG=
METAR RJBB 081000Z 25011KT CAVOK 26/23 Q1008 NOSIG=
METAR RJBD 081000Z 17007KT 9999 FEW010 SCT020 BKN/// 25/23 Q1009=
METAR RJBE 081000Z 24009KT 9999 FEW030 BKN/// 26/22 Q1008=
METAR RJBH 081000Z 22009KT CAVOK 26/21 Q1008=
METAR RJCB 081000Z 16004KT 7000 FEW005 BKN007 BKN010 18/17 Q1010=
METAR RJCC 081000Z 16006KT 3500 BR BKN002 18/17 Q1010=
METAR RJCH 081000Z VRB02KT 9999 FEW005 SCT009 BKN011 20/18 Q1009=
METAR RJCK 081000Z 24003KT 210V270 0700 R17/P1800N FG VV001 16/15
           Q1010 REDZ=
METAR RJCM 081000Z 04006KT 9999 FEW002 BKN010 BKN023 17/15 Q1009=
METAR RJDC 081000Z 08005KT 6000 FEW030 SCT050 BKN/// 25/22 Q1008=
METAR RJDT 081000Z 06003KT 010V130 9999 FEW008 BKN/// 22/21 Q1009=
METAR RJEC 081000Z 32009KT 9999 -SHRA FEW018 BKN030 20/18 Q1009=
METAR RJFS 081000Z 29009KT 9999 FEW030 BKN/// 27/22 Q1008=
METAR RJFF 081000Z 35005KT 310V040 5000 BR SCT030 BKN/// 26/21
           Q1008=
METAR RJFK 081000Z 16003KT 110V190 9999 FEW030 BKN/// 25/19 Q1009=
METAR RJFM 081000Z VRB02KT 6000 FEW020 BKN/// 26/23 Q1008=
METAR RJFO 081000Z 06004KT 020V090 7000 FEW030 BKN/// 25/23 Q1008=
METAR RJFR 081000Z 11003KT 9000 FEW030 BKN/// 26/21 Q1008=
METAR RJFT 081000Z 24005KT 9999 FEW025 BKN035 BKN/// 26/21 Q1009=
####018001365####
SAJP51 RJTD 081000 RRA
METAR RJFU 081000Z 25005KT 220V290 9999 FEW025 BKN150 BKN/// 26/22
           Q1008=
METAR RJGG 081000Z 14009KT 9999 FEW010 BKN/// 26/22 Q1009 NOSIG=
METAR RJKA 081000Z 22010KT 8000 FEW008 SCT015 OVC160 27/26 Q1009=
METAR RJNT 081000Z 34005KT 9999 FEW020 SCT150 BKN/// 27/21 Q1009=
METAR RJNW 081000Z 06002KT CAVOK 23/20 Q1010=
METAR RJNS 081000Z 15003KT 110V180 9999 FEW020 BKN130 24/22 Q1010=
METAR RJOA 081000Z VRB02KT CAVOK 25/20 Q1010=
METAR RJOB 081000Z VRB02KT 9999 FEW035 BKN/// 25/21 Q1009=
METAR RJOC 081000Z 36006KT 9000 FEW010 SCT020 BKN025 FEW025CB 25/20
           Q1009=
METAR RJOH 081000Z 04005KT 8000 FEW025 BKN035 25/21 Q1009=
METAR RJOK 081000Z 23003KT CAVOK 26/23 Q1009=
METAR RJOM 081000Z 28003KT 220V330 9000 FEW025 SCT040 BKN/// 24/23
           Q1009=
METAR RJOO 081000Z 23007KT 200V270 9999 FEW030 BKN/// 28/20 Q1008=
METAR RJOR 081000Z 02004KT 7000 FEW025 BKN/// 25/23 Q1009=
METAR RJOT 081000Z 05003KT 010V100 9999 FEW025 BKN/// 26/21 Q1009=
METAR RJOW 081000Z VRB02KT 4500 BR FEW010 SCT015 BKN035 24/21 Q1009=
METAR RJOY 081000Z 26005KT 9999 FEW030 BKN/// 28/21 Q1008=
METAR RJSA 081000Z 15002KT 9999 FEW010 SCT020 BKN080 22/20 Q1010=
METAR RJSC 081000Z 01008KT 9999 -SHRA FEW030 SCT050 BKN/// 26/21
           Q1010=
METAR RJSF 081000Z 12004KT CAVOK 24/21 Q1012=
####018000784####
SAJP51 RJTD 081000 RRB
METAR RJSI 081000Z 19011KT 9999 FEW020 SCT035 BKN/// 26/20 Q1010=
METAR RJSK 081000Z 29004KT 250V310 CAVOK 25/21 Q1010=
METAR RJSR 081000Z 29003KT 9999 FEW025 SCT/// 22/21 Q1010=
METAR RJSN 081000Z 34003KT 8000 FEW020 BKN/// 25/23 Q1010=
METAR RJSS 081000Z 10003KT 030V140 9999 FEW010 BKN/// 24/21 Q1010=
METAR RJSY 081000Z 28003KT 9999 FEW040 BKN/// 25/21 Q1010=
METAR RJTT 081000Z 17011KT 9999 FEW018 BKN/// 26/22 Q1010=
METAR ROAH 081000Z 19010KT 9999 FEW010 SCT080 BKN100 29/26 Q1009=
METAR ROIG 081000Z 19011KT 9999 FEW015 BKN/// 30/26 Q1009=
METAR ROMY 081000Z 21012KT 9999 FEW014 BKN/// 30/26 Q1009=
METAR RORS 081000Z 22009KT 9999 FEW016 FEW020TCU BKN/// 30/26 Q1009=
METAR RJAH 081000Z 20004KT 9999 FEW030 BKN250 26/23 Q1009=
####018000105####
SPXX62 KWBC 081005
SPECI
RKSG 080959Z 00000KT 8000 BR CLR 26/25 A2978 RMK AO2A DZE0959
SLP085 $=
####018001880####
SAEW KAWN 081000 RRD
METAR LFBO 081000Z 12009KT 080V150 CAVOK 30/12 Q1018 NOSIG=
METAR LFBP 081000Z 09006KT 050V120 CAVOK 32/20 Q1016 NOSIG=
METAR LFCR 081000Z AUTO VRB04KT 9999NDV NSC 30/07 Q1022=
METAR LFJL 081000Z AUTO VRB04KT 9999NDV NSC 28/09 Q1021=
METAR LFKB 081000Z 11005KT 060V160 9999 FEW021 29/21 Q1020 NOSIG=
METAR LFKC 081000Z 35008KT 310V010 9000 FEW015 28/22 Q1020 NOSIG=
METAR LFKF 081000Z 21005KT 120V260 9999 FEW036 30/23 Q1019 NOSIG=
METAR LFKJ 081000Z 24010KT 9999 FEW026 28/23 Q1019 NOSIG=
METAR LFLB 081000Z 35004KT 9999 FEW060 27/16 Q1021 NOSIG=
METAR LFLC 081000Z VRB01KT CAVOK 29/14 Q1020 NOSIG=
METAR LFLL 081000Z 12004KT 050V170 CAVOK 28/14 Q1020 NOSIG=
METAR LFLS 081000Z 20003KT 150V270 9999 FEW050 28/17 Q1021 NOSIG=
METAR LFLX 081000Z 14004KT 060V170 CAVOK 29/13 Q1018 NOSIG=
METAR LFLY 081000Z 18005KT CAVOK 29/14 Q1020 NOSIG=
METAR LFMN 081000Z 10006KT 9999 FEW023 29/22 Q1020 NOSIG=
METAR LFMP 081000Z 06009KT 030V090 9999 FEW043 SCT260 28/19 Q1019 NOSIG=
METAR LFMT 081000Z 15005KT 120V180 CAVOK 29/19 Q1020 NOSIG=
METAR LFMU 081000Z AUTO 14007KT 070V200 9999NDV NSC 30/13 Q1020=
METAR LFOB 081000Z VRB07KT CAVOK 29/11 Q1019 NOSIG=
METAR LFOH 081000Z AUTO 01010KT 9999NDV NSC 21/12 Q1019=
METAR LFOP 081000Z VRB02KT CAVOK 27/12 Q1019 NOSIG=
METAR LFPB 081000Z 21004KT 140V270 CAVOK 29/10 Q1019 NOSIG=
METAR LFPG 081000Z VRB07KT CAVOK 29/09 Q1019 NOSIG=
METAR LFPO 081000Z 16004KT 100V200 CAVOK 29/11 Q1019 NOSIG=
METAR LFQQ 081000Z 26005KT 190V320 CAVOK 27/13 Q1019 NOSIG=
METAR LFRB 081000Z 36004KT 300V080 9999 SCT015 SCT250 20/15 Q1019 NOSIG=
METAR LFRD 081000Z AUTO 03005KT 320V080 9999NDV FEW015 20/15 Q1019=
METAR LFRS 081000Z VRB02KT CAVOK 29/13 Q1018 NOSIG=
METAR LFSL 081000Z AUTO 12004KT 090V180 9999NDV NSC 28/14 Q1020=
METAR LFSN 081000Z VRB03KT CAVOK 29/13 Q1020 NOSIG=
####018001867####
SAEU KAWN 081000 RRN
METAR EGDM 080950Z 22005KT 9999 FEW016 SCT033 BKN120 19/14 Q1019 BLU
      TEMPO SCT018 WHT=
METAR EGUO 080950Z 00000KT 9999 FEW010 SCT022 BKN200 18/10 Q1020 WHT=
METAR EGXZ 080950Z 24009KT 9999 BKN025 19/10 Q1016 BLU=
METAR LFBD 081000Z 10009KT CAVOK 31/12 Q1017 NOSIG=
METAR LFBI 081000Z 14005KT 100V180 CAVOK 29/13 Q1019 NOSIG=
METAR LFBO 081000Z 12009KT 080V150 CAVOK 30/12 Q1018 NOSIG=
METAR LFBP 081000Z 09006KT 050V120 CAVOK 32/20 Q1016 NOSIG=
METAR LFBT 081000Z 06006KT 010V110 CAVOK 32/16 Q1018 NOSIG=
METAR LFBZ 081000Z 07005KT 040V120 CAVOK 28/22 Q1016 NOSIG=
METAR LFCR 081000Z AUTO VRB04KT 9999NDV NSC 30/07 Q1022=
METAR LFKB 081000Z 11005KT 060V160 9999 FEW021 29/21 Q1020 NOSIG=
METAR LFKC 081000Z 35008KT 310V010 9000 FEW015 28/22 Q1020 NOSIG=
METAR LFKF 081000Z 21005KT 120V260 9999 FEW036 30/23 Q1019 NOSIG=
METAR LFKJ 081000Z 24010KT 9999 FEW026 28/23 Q1019 NOSIG=
METAR LFLB 081000Z 35004KT 9999 FEW060 27/16 Q1021 NOSIG=
METAR LFLC 081000Z VRB01KT CAVOK 29/14 Q1020 NOSIG=
METAR LFLX 081000Z 14004KT 060V170 CAVOK 29/13 Q1018 NOSIG=
METAR LFLY 081000Z 18005KT CAVOK 29/14 Q1020 NOSIG=
METAR LFMK 081000Z 08014KT 050V120 CAVOK 31/14 Q1019 NOSIG=
METAR LFML 081000Z 27007KT 9999 FEW050 31/15 Q1020 BECMG 22015KT=
METAR LFMN 081000Z 10006KT 9999 FEW023 29/22 Q1020 NOSIG=
METAR LFMP 081000Z 06009KT 030V090 9999 FEW043 SCT260 28/19 Q1019 NOSIG=
METAR LFPG 081000Z VRB07KT CAVOK 29/09 Q1019 NOSIG=
METAR LFQQ 081000Z 26005KT 190V320 CAVOK 27/13 Q1019 NOSIG=
METAR LFRD 081000Z AUTO 03005KT 320V080 9999NDV FEW015 20/15 Q1019=
METAR LFRZ 081000Z AUTO VRB02KT 9999NDV NSC 28/14 Q1018=
METAR LFSB 081000Z 08004KT 010V170 CAVOK 28/11 Q1021 NOSIG=
METAR LFSL 081000Z AUTO 12004KT 090V180 9999NDV NSC 28/14 Q1020=
METAR LGLM 080950Z 07009KT 9999 FEW008 BKN020 21/17 Q1013=
####018000352####
SAEW37 LEMM 081000
METAR LEBR 081000Z AUTO 12012KT 090V150 9999 ////// 33/16 Q1018=
METAR LEGA 081000Z 36007KT CAVOK 36/15 Q1019=
METAR LEGT 081000Z NIL=
METAR LEMO 081000Z 29003KT 240V020 9999 FEW050 27/19 
Q1016 NOSIG=
METAR LERI 081000Z 06006KT CAVOK 32/20 Q1019 NOSIG=
METAR LERT 081000Z 28005KT 240V330 9000 NSC 26/20 Q1016 NOSIG=
####018000081####
SADO31 TDPD 081000
METAR TDCF 081000Z 15003KT 9999 BKN016TCU 24/22 Q1013=
####018000368####
SAPO31 LPMG 081000
METAR LPFR 081000Z 23007KT 9000 BKN010 BKN012 23/20 Q1016=
METAR LPMA 081000Z 21005KT 150V310 9999 FEW016 23/16 Q1020 RS20002KT 
0523004G17KT 2336011KT=
METAR LPPR 081000Z 23007KT 180V260 5000 BR SCT250 22/19 Q1014=
METAR LPPS 081000Z 02010KT 9999 FEW016 SCT030 21/15 Q1020=
METAR LPPT 081000Z 26006KT 230V300 CAVOK 26/19 Q1015 NOSIG=
####018000725####
SAFR36 LFPW 081000
METAR LFBA 081000Z 10008KT 070V130 CAVOK 29/17 Q1017 NOSIG=
METAR LFBE 081000Z 07005KT 030V100 CAVOK 29/19 Q1018 NOSIG=
METAR LFGJ 081000Z AUTO 21006KT 160V250 9999NDV NSC 28/14 Q1020=
METAR LFJR 081000Z AUTO 15005KT 090V200 9999NDV NCD 30/12 Q1018=
METAR LFMD 081000Z AUTO 15008KT 110V180 9999NDV NSC 30/21 Q1020=
METAR LFMH 081000Z VRB04KT CAVOK 28/13 Q1021 NOSIG=
METAR LFOT 081000Z AUTO 12004KT 040V180 9999NDV NSC 29/10 Q1018=
METAR LFPN 081000Z 18005KT 120V220 CAVOK 29/11 Q1019 NOSIG=
METAR LFRC 081000Z AUTO 35005KT 300V070 9999NDV NSC 20/16 Q1019=
METAR LFRG 081000Z AUTO 03003KT 340V090 9999NDV NSC 24/14 Q1019=
METAR LFRK 081000Z 35007KT 310V020 CAVOK 23/15 Q1019 NOSIG=
####018000475####
SAIR32 OIII 081000
METAR OIAA 081000Z 29012KT CAVOK 48/05 Q0998=
METAR OIBK 081000Z 16012KT 5000 HZ SKC 38/23 Q0999 A2953=
METAR OICC 081000Z 32004KT CAVOK 40/M02 Q1012 A2991
864.4=
METAR OIGG 081000Z 36004KT CAVOK 32/21 Q1011 A2987=
METAR OIIE 081000Z 11016KT CAVOK 40/M07 Q1011 A2986 
898.1 05:=
METAR OITR 081000Z 34004KT CAVOK 33/14 Q1014 A2995=
METAR OIYY 081000Z 36016KT CAVOK 41/M08 Q1013 A2993=
METAR OAKN 081000Z NIL=
METAR OAKB 081000Z NIL=
####018000668####
SAFR32 LFPW 081000
METAR LFBD 081000Z 10009KT CAVOK 31/12 Q1017 NOSIG=
METAR LFBH 081000Z AUTO 18005KT 150V220 9999NDV NSC 30/12 Q1017=
METAR LFBI 081000Z 14005KT 100V180 CAVOK 29/13 Q1019 NOSIG=
METAR LFBO 081000Z 12009KT 080V150 CAVOK 30/12 Q1018 NOSIG=
METAR LFBP 081000Z 09006KT 050V120 CAVOK 32/20 Q1016 NOSIG=
METAR LFBT 081000Z 06006KT 010V110 CAVOK 32/16 Q1018 NOSIG=
METAR LFBZ 081000Z 07005KT 040V120 CAVOK 28/22 Q1016 NOSIG=
METAR LFLB 081000Z 35004KT 9999 FEW060 27/16 Q1021 NOSIG=
METAR LFLX 081000Z 14004KT 060V170 CAVOK 29/13 Q1018 NOSIG=
METAR LFML 081000Z 27007KT 9999 FEW050 31/15 Q1020 BECMG 22015KT=
METAR LFBL 081000Z NIL=
####018000086####
SAGR31 LGAT 080950 RRA
METAR LGLM 080950Z 07009KT 9999 FEW008 BKN020 21/17 Q1013=
####018000375####
SARO31 LROM 081000
METAR LRBS 081000Z VRB01KT 9999 FEW019 BKN048 21/14 Q1017 NOSIG=
METAR LRCK 081000Z 02010KT 350V060 9999 FEW035 23/15 Q1015 NOSIG=
METAR LROP 081000Z 29003KT 250V010 9999 FEW040CB FEW049 20/14 Q1016
880///95 NOSIG=
METAR LRSB 081000Z 03004KT 300V060 9999 FEW018 BKN027 16/12 Q1020=
METAR LRTR 081000Z 36008KT 330V060 9999 FEW030 21/14 Q1020=
####018000076####
SABZ24 SBFL 081000 CCA
METAR SBFL 081000Z 19010G20KT CAVOK 22/17 Q1016=
####018000521####
SATS32 DTTA 081000
METAR DTKA 081000Z 32010KT 9999 FEW023 27/21 Q1020 NOSIG=
METAR DTMB 081000Z 01008KT CAVOK 27/17 Q1019 NOSIG=
METAR DTNZ 081000Z AUTO 09009KT CAVOK 30/13 Q1019=
METAR DTTA 081000Z 29004KT 230V350 CAVOK 31/16 Q1019  NOSIG=
METAR DTTF 081000Z 17006KT CAVOK 32/14 Q1018 NOSIG=
METAR DTTG 081000Z 10010KT CAVOK 31/15 Q1019 NOSIG=
METAR DTTJ 081000Z 06004KT CAVOK 30/20 Q1019 NOSIG=
METAR DTTX 081000Z 11006KT CAVOK 30/19 Q1019 NOSIG=
METAR DTTZ 081000Z 11010KT CAVOK 32/22 Q1019 NOSIG=
####018000708####
SAKO31 RKSI 081000
METAR RKSI 081000Z 11005KT 070V140 9999 FEW040 OVC120 24/17 Q1007
           RERA NOSIG=
METAR RKSS 081000Z 07002KT 9999 -RA SCT030 OVC110 24/19 Q1008 
           NOSIG =
METAR RKPC 081000Z 07007KT 4500 BR SCT030 OVC120 24/21 Q1008 NOSIG =
METAR RKPK 081000Z 12006KT 9999 SCT030 BKN200 24/17 Q1009 NOSIG =
METAR RKTU 081000Z 33002KT 9000 SCT030 SCT100 BKN200 27/18 Q1008 
           NOSIG =
METAR RKTN 081000Z 09005KT 8000 -TSRA FEW025CB BKN040 OVC200 26/22
           Q1007 NOSIG RMK OCNL LTGCC TS SW MOV SE=
METAR RKJB 081000Z 05004KT 020V080 8000 FEW025 BKN150 26/17 Q1008 
           BECMG 4200 BR =
METAR RKNY 081000Z AUTO 14004KT3000NDV NCD 20/18 Q1008 =
####018000567####
SAFR37 LFPW 081000
METAR LFAQ 081000Z AUTO 20004KT 150V320 9999NDV NSC 27/12 Q1019=
METAR LFBU 081000Z AUTO 10007KT 080V140 9999NDV NSC 30/12 Q1018=
METAR LFLN 081000Z AUTO VRB03KT 9999NDV NSC 28/15 Q1020=
METAR LFPM 081000Z VRB01KT CAVOK 30/15 Q1019=
METAR LFRH 081000Z VRB04KT CAVOK 25/13 Q1018=
METAR LFRQ 081000Z 06004KT 350V140 CAVOK 23/14 Q1018 NOSIG=
METAR LFRT 080953Z 04005KT 350V120 9999 FEW013 SCT250 20/16 Q1019=
METAR LFSD 081000Z AUTO 15003KT 090V250 9999NDV NSC 28/13 Q1020=
METAR LFTW 081000Z AUTO VRB03KT 9999NDV NSC 30/14 Q1020=
####018000515####
SATS40 DTTA 081000
METAR DTKA 081000Z 32010KT 9999 FEW023 27/21 Q1020 NOSIG=
METAR DTMB 081000Z 01008KT CAVOK 27/17 Q1019 NOSIG=
METAR DTNZ 081000Z AUTO 09009KT CAVOK 30/13 Q1019=
METAR DTTA 081000Z 29004KT 230V350 CAVOK 31/16 Q1019  NOSIG=
METAR DTTF 081000Z 17006KT CAVOK 32/14 Q1018 NOSIG=
METAR DTTJ 081000Z 06004KT CAVOK 30/20 Q1019 NOSIG=
METAR DTTR 081000Z 09010KT CAVOK 32/12 Q1020=
METAR DTTX 081000Z 11006KT CAVOK 30/19 Q1019 NOSIG=
METAR DTTZ 081000Z 11010KT CAVOK 32/22 Q1019 NOSIG=
####018000800####
SAFR34 LFPW 081000
METAR LFCR 081000Z AUTO VRB04KT 9999NDV NSC 30/07 Q1022=
METAR LFJL 081000Z AUTO VRB04KT 9999NDV NSC 28/09 Q1021=
METAR LFLP 081000Z AUTO VRB02KT 9999NDV NSC 28/14 Q1022=
METAR LFLS 081000Z 20003KT 150V270 9999 FEW050 28/17 Q1021 NOSIG=
METAR LFLY 081000Z 18005KT  CAVOK 29/14 Q1020 NOSIG=
METAR LFMT 081000Z 15005KT 120V180 CAVOK 29/19 Q1020 NOSIG=
METAR LFMU 081000Z AUTO 14007KT 070V200 9999NDV NSC 30/13 Q1020=
METAR LFOB 081000Z VRB07KT CAVOK 29/11 Q1019 NOSIG=
METAR LFOH 081000Z AUTO 01010KT 9999NDV NSC 21/12 Q1019=
METAR LFOK 081000Z AUTO 23003KT 180V290 9999NDV NSC 29/11 Q1020=
METAR LFOP 081000Z VRB02KT CAVOK 27/12 Q1019 NOSIG=
METAR LFPB 081000Z 21004KT 140V270 CAVOK 29/10 Q1019 NOSIG=
METAR LFSN 081000Z VRB03KT CAVOK 29/13 Q1020 NOSIG=
####018000550####
SAFR33 LFPW 081000
METAR LFKB 081000Z 11005KT 060V160 9999 FEW021 29/21 Q1020 NOSIG=
METAR LFKC 081000Z 35008KT 310V010 9000 FEW015 28/22 Q1020 NOSIG=
METAR LFKF 081000Z 21005KT 120V260 9999 FEW036 30/23 Q1019 NOSIG=
METAR LFKJ 081000Z 24010KT 9999 FEW026 28/23 Q1019 NOSIG=
METAR LFLC 081000Z VRB01KT CAVOK 29/14 Q1020 NOSIG=
METAR LFMP 081000Z 06009KT 030V090 9999 FEW043 SCT260 28/19 Q1019
NOSIG=
METAR LFMV 081000Z AUTO 27003KT 220V030 9999NDV NSC 32/17 Q1020=
METAR LFSL 081000Z AUTO 12004KT 090V180 9999NDV NSC 28/14 Q1020=
####018000617####
SAFR35 LFPW 081000
METAR LFMI 081000Z AUTO 26005KT 210V310 9999NDV NSC 32/15 Q1020=
METAR LFMK 081000Z 08014KT 050V120 CAVOK 31/14 Q1019 NOSIG=
METAR LFRD 081000Z AUTO 03005KT 320V080 9999NDV FEW015 20/15 Q1019=
METAR LFRN 081000Z AUTO 36004KT 300V040 9999NDV NSC 24/15 Q1018=
METAR LFRO 081000Z AUTO 01003KT 320V080 9999NDV SCT017 SCT190
20/16 Q1019=
METAR LFRZ 081000Z AUTO VRB02KT 9999NDV NSC 28/14 Q1018=
METAR LFSB 081000Z 08004KT 010V170 CAVOK 28/11 Q1021 NOSIG=
METAR LFST 081000Z 16003KT 070V240 CAVOK 27/12 Q1020 NOSIG=
METAR LFTH 081000Z 14006KT 090V170 9999 FEW026 29/21 Q1020 NOSIG=
####018000452####
SAFR31 LFPW 081000
METAR LFLL 081000Z 12004KT 050V170 CAVOK 28/14 Q1020 NOSIG=
METAR LFMN 081000Z 10006KT 9999 FEW023 29/22 Q1020 NOSIG=
METAR LFPG 081000Z VRB07KT CAVOK 29/09 Q1019 NOSIG=
METAR LFPO 081000Z 16004KT 100V200 CAVOK 29/11 Q1019 NOSIG=
METAR LFQQ 081000Z 26005KT 190V320 CAVOK 27/13 Q1019 NOSIG=
METAR LFRB 081000Z 36004KT 300V080 9999 SCT015 SCT250 20/15 Q1019
NOSIG=
METAR LFRS 081000Z VRB02KT CAVOK 29/13 Q1018 NOSIG=
####018000323####
SATS42 DTTA 081000
METAR DTTB 081000Z 32008KT 9999 FEW020 29/17 Q1020=
METAR DTTD 081000Z 08006KT 010V140 CAVOK 28/16 Q1021=
METAR DTTK 081000Z 09002KT CAVOK 32/15 Q1019=
METAR DTTL 081000Z 29006KT CAVOK 29/19 Q1019=
METAR DTTN 081000Z 22004KT CAVOK 31/16 Q1018=
METAR DTTR 081000Z 09010KT CAVOK 32/12 Q1020=
####018000079####
SAGR31 LGAT 080950 RRB
METAR LGRP 080950Z 24015KT CAVOK 30/19 Q1008 NOSIG=
####018000120####
SAKA31 PTTP 081000
METAR PTTP 080955Z 16003KT 15SM SCT018TCU BKN300 
25/23 A2988 RMK TCU E-S SLP116 T02500233=
####018000084####
SADO31 TDPD 081000
METAR TDPD 081000Z 10006KT 9999 -SHRA SCT016 28/23 Q1015=
####018000756####
SAEW32 LEMM 081000
METAR LEAS 081000Z 32003KT 270V010 9999 SCT003 OVC014 20/19 Q1018
NOSIG=
METAR LEBB 081000Z 28005KT 210V300 8000 NSC 28/22 Q1015 NOSIG=
METAR LECO 081000Z NIL=
METAR LEGE 081000Z 00000KT CAVOK 32/19 Q1019=
METAR LEST 081000Z 11010KT 9999 FEW018 21/19 Q1015 NOSIG=
METAR LEZG 081000Z 10010KT 050V130 CAVOK 32/16 Q1018=
METAR LESO 081000Z 03006KT CAVOK 25/19 Q1015=
METAR LEVT 081000Z 19001KT CAVOK 32/16 Q1018=
METAR LERS 081000Z 22006KT 170V250 CAVOK 28/18 Q1019=
METAR LEMH 081000Z 21006KT 160V250 9999 FEW025 28/20 Q1021=
METAR LEAM 081000Z 07017KT CAVOK 36/05 Q1016=
METAR LEGR 081000Z 09004KT 010V140 9999 FEW060 34/11 Q1018=
METAR LERL 081000Z 02008KT 340V070 9999 -SHRA FEW035 SCT060CB
31/10 Q1018=
####018000082####
SAGR33 LGAT 080950 RRA
METAR LGPA 080950Z 02020G30KT 9999 FEW025 27/18 Q1011=
####018000744####
SANA14 KAWN 081000 RRC
METAR KNGP 080956Z AUTO 10005KT 10SM FEW080 28/26 A2981 RMK AO2 SLP092
      T02830261 $=
METAR KNGU 080959Z 06005KT 5SM BR SCT090 BKN120 26/23 A2998 RMK AO2
      SLP152 T02610233=
METAR KNLC 080956Z AUTO 31007KT 10SM CLR 18/11 A2982 RMK AO2 SLP095
      T01830111 TSNO $=
METAR KNSE 080956Z AUTO 00000KT 3/4SM BR CLR 23/21 A3002 RMK AO2 SLP149
      T02280211 $=
METAR KNUW 080956Z 00000KT 10SM CLR 14/11 A2996 RMK AO2 SLP150 T01440106
      $=
METAR KOSC 080954Z AUTO 21003KT 7SM CLR 20/18 A3000 RMK AO2=
METAR KRCA 080955Z 00000KT 8SM CLR 11/08 A3024 RMK AO2A SLP233 T01140081
      $=
METAR KWRB 080955Z 34003KT 10SM -RA CLR 20/20 A3001 RMK AO2A RAB0858
      SLP161 P0000 T02050205=
####018000348####
SAEW33 LEMM 081000
METAR GCLP 081000Z 01025KT 9999 SCT020 24/17 Q1017 NOSIG=
METAR GCXO 081000Z 29013KT 0100 R30/1000VP2000N R12/0150N FG
OVC000 17/17 Q1020 NOSIG=
METAR GCTS 081000Z 08014KT 9999 SCT014 23/18 Q1018 NOSIG=
METAR GCRR 081000Z 36017KT 330V030 9999 SCT018 25/18 Q1017=
METAR GCFV 081000Z 05012KT 9999 FEW018 23/19 Q1017=
####018000074####
SPUS53 KWBC 081005
SPECI
KBRL 081002Z AUTO 10SM SCT004 22/21 A3004=
####018000065####
SPMC32 GMMC 080900
GMFM 080940Z 3200KT 5000 SKC 26/19 Q1018=
####018000226####
SAGG31 UGTB 081000
METAR UGTB 081000Z VRB06KT 9999 SCT066 33/18 Q1014 NOSIG RMK 
31CLRD80= 
METAR UGSB 081000Z 29008KT 9999 FEW023CB 28/23 Q1010 NOSIG=
METAR UGKO 081000Z 27006KT 9999 SCT033CB BKN100 31/23 Q1011 NOSIG=
