####018000116####
SAUS44 KMOB 081220 COR
MTRNSE
SPECI KNSE 081215Z 00000KT 5SM BR FEW250 26/23 A3003 RMK AO2 VIS E 
AND W 3 $
####018000164####
SAUS44 KCRP 081220 COR
MTRCRP
SPECI KCRP 081218Z 05008KT 7SM -RA SCT027CB BKN040 OVC075 26/25 
A2984 RMK AO2 TSE18 TS MOV W CB N-NE MOV W CB DSNT W P0001 $
####018002949####
SAUS20 KNKA 081220
METAR K29G 081214Z AUTO 00000KT 7SM CLR 24/19 A3010 RMK AO2
     T02420194 PWINO=
METAR K4I3 081216Z AUTO 00000KT 7SM CLR 23/20 A3010 RMK AO2=
METAR KACB 081215Z AUTO 00000KT 5SM -RA SCT023 BKN048 OVC075 23/22
     A3001 RMK AO2=
METAR KACQ 081219Z AUTO 30007KT 10SM CLR 17/16 A3015 RMK AO2=
METAR KADC 081217Z AUTO 25004KT 10SM CLR 16/14 A3010 RMK AO2=
METAR KAEL 081211Z AUTO 32005KT 10SM CLR 18/17 A3012 RMK AO2=
METAR KARV 081214Z AUTO 33003KT 10SM CLR 18/16 A3006 RMK AO2 
     T01790158=
METAR KAUM 081215Z AUTO 33006KT 10SM CLR 18/17 A3010 RMK AO2=
METAR KBAX 081215Z AUTO 22004KT 10SM CLR 26/23 A3001 RMK AO2=
METAR KBDH 081215Z AUTO 00000KT 10SM CLR 17/15 A3014 RMK AO2=
METAR KCAD 081214Z AUTO 24005KT 5SM -RA OVC090 22/21 A3004 RMK
     AO2=
METAR KCBG 081215Z AUTO 26004KT 10SM CLR 17/15 A3009 RMK AO2=
METAR KCFE 081215Z AUTO 27005KT 10SM CLR 19/16 A3012 RMK AO2
     T01870160=
METAR KCFS 081215Z AUTO 24003KT 10SM CLR 25/22 A3002 RMK AO2=
METAR KCKC 081215Z AUTO 25004KT 10SM CLR 18/13 A3004 RMK AO2=
METAR KCKN 081215Z AUTO 23003KT 10SM CLR 16/13 A3007 RMK AO2=
METAR KCNB 081218Z AUTO 25006KT 10SM CLR 18/14 A3014 RMK AO2
     T01820137=
METAR KCOQ 081216Z AUTO 27007KT 10SM CLR 17/17 A3006 RMK AO2=
METAR KCQM 081217Z AUTO 24004KT 10SM CLR 17/15 A3004 RMK AO2=
SPECI KCRP 081218Z 05008KT 7SM -RA SCT027CB BKN040 OVC075 26/25
     A2984 RMK AO2 TSE18 TS MOV W CB N-NE MOV W CB DSNT W P0001
     $=
METAR KCVH 081210Z AUTO 00000KT 8SM OVC006 13/11 A2992 RMK AO1=
SPECI KCXO 081219Z VRB04KT 7SM FEW006 24/23 A2997 RMK AO2=
METAR KDRM 081216Z AUTO 00000KT 3SM DZ BKN016 OVC110 20/20 A2998
     RMK AO2=
METAR KDTL 081215Z AUTO 24003KT 10SM CLR 17/12 A3011 RMK AO2=
METAR KDUH 081215Z AUTO 00000KT 10SM CLR 27/19 A3004 RMK AO2=
METAR KDXX 081214Z AUTO 00000KT 10SM CLR 17/16 A3011 RMK AO2=
METAR KEFK 081215Z AUTO 21003KT 7SM CLR 25/21 A3007 RMK AO2=
METAR KELO 081213Z AUTO 23004KT 10SM CLR 16/15 A3002 RMK AO2=
METAR KEVM 081212Z AUTO 26004KT 10SM CLR 16/14 A3002 RMK AO1=
METAR KFBL 081214Z AUTO 30003KT 10SM CLR 18/16 A3013 RMK AO2=
METAR KFFX 081215Z AUTO 16003KT 1 3/4SM RA BKN002 BKN021 OVC060
     22/22 A3002 RMK AO2=
METAR KFPK 081216Z AUTO 00000KT 5SM BR CLR 23/21 A3003 RMK AO2=
METAR KFSE 081214Z AUTO 22004KT 10SM CLR 14/12 A3006 RMK AO2=
METAR KFSO 081218Z AUTO 00000KT 7SM CLR 27/23 A3002 RMK AO2=
METAR KGYL 081214Z AUTO 23003KT 10SM CLR 17/15 A3012 RMK AO2
     T01650150=
METAR KHAF 081210Z AUTO 00000KT 8SM OVC006 12/11 A2993 RMK AO2=
METAR KHAI 081215Z AUTO 06003KT 7SM CLR 25/22 A3004 RMK AO2=
METAR KHCD 081212Z AUTO 00000KT 10SM CLR 15/15 A3012 RMK AO2
     T01520145=
METAR KHCO 081214Z AUTO 29004KT 10SM CLR 16/15 A3007 RMK AO2=
METAR KHZX 081211Z AUTO 25004KT 10SM CLR 17/16 A3008 RMK AO2=
METAR KIKW 081213Z AUTO 27004KT 7SM -RA BKN090 OVC110 23/21 A3002
     RMK AO2 T02320213=
####018002985####
SAUS20 KNKA 081220
METAR KIRS 081215Z AUTO 00000KT 5SM HZ CLR 24/22 A3004 RMK AO2=
METAR KJKJ 081214Z AUTO 00000KT 10SM CLR 16/14 A3008 RMK AO2=
METAR KJMR 081218Z AUTO 29003KT 10SM CLR 17/15 A3010 RMK AO2=
METAR KJYG 081215Z AUTO 00000KT 10SM CLR 18/18 A3015 RMK AO2=
METAR KJYM 081215Z AUTO 00000KT 7SM CLR 24/21 A3007 RMK AO2=
SPECI KLEB 081219Z 00000KT 4SM HZ SCT013 26/22 A3007 RMK AO2=
METAR KLJF 081212Z AUTO 27003KT 10SM CLR 18/16 A3012 RMK AO2=
METAR KLVN 081208Z AUTO 27005KT 10SM CLR 18/17 A3011 RMK AO2=
METAR KLWA 081216Z AUTO 00000KT 10SM SCT050 SCT075 OVC095 23/21
     A3003 RMK AO2=
METAR KLXL 081214Z AUTO 00000KT 10SM CLR 15/15 A3008 RMK AO2=
METAR KLYV 081218Z AUTO 00000KT 10SM CLR 15/13 A3018 RMK AO2=
METAR KMDS 081205Z AUTO 27004KT 10SM CLR 17/16 A3018 RMK AO2=
METAR KMGN 081215Z AUTO 26005KT 5SM RA OVC012 22/20 A3000 RMK
     AO2=
METAR KMJQ 081212Z AUTO 28003KT 7SM CLR 16/15 A3016 RMK AO2=
METAR KMOP 081214Z AUTO 26005KT 10SM OVC110 23/23 A3002 RMK
     AO2=
METAR KMRT 081213Z AUTO 00000KT 5SM CLR 24/20 A3012 RMK AO2
     T02410201=
METAR KMVE 081214Z AUTO 29003KT 10SM CLR 17/15 A3011 RMK AO2=
METAR KOEB 081215Z AUTO 00000KT 7SM CLR 24/21 A3006 RMK AO2=
METAR KONA 081211Z AUTO 33005KT 10SM CLR 20/17 A3007 RMK AO2=
METAR KOVL 081213Z AUTO 29004KT 10SM CLR 15/14 A3012 RMK AO2
     T01530135=
SPECI KOXR 081219Z AUTO 29007KT 10SM OVC009 15/12 A2991 RMK AO2 $=
METAR KOZW 081215Z AUTO 00000KT 7SM CLR 25/21 A3005 RMK AO2=
METAR KPEX 081213Z AUTO 26005KT 10SM CLR 16/15 A3012 RMK AO2
     T01570153=
METAR KRGK 081215Z AUTO 27004KT 10SM CLR 19/17 A3009 RMK AO2=
METAR KRNP 081215Z AUTO 19003KT 10SM CLR 25/21 A3003 RMK AO2=
METAR KROS 081215Z AUTO 00000KT 10SM CLR 17/15 A3009 RMK AO2
     T01710154=
METAR KROX 081214Z AUTO 23004KT 10SM SCT085 15/13 A3002 RMK
     AO2=
METAR KRQB 081215Z AUTO 00000KT 5SM RA SCT042 BKN065 OVC085 22/21
     A3005 RMK AO2=
METAR KRRT 081214Z AUTO 23006KT 10SM SCT095 15/13 A3002 RMK
     AO2=
METAR KSAZ 081214Z AUTO 25005KT 10SM CLR 17/17 A3010 RMK AO2=
METAR KSGS 081213Z AUTO 29005KT 10SM CLR 20/16 A3011 RMK AO2
     T02000161=
SPECI KSMQ 081219Z AUTO 00000KT 4SM BR SCT009 26/23 A3003 RMK AO2=
METAR KSUW 081215Z AUTO 22006KT 10SM CLR 17/15 A3004 RMK AO2=
SPECI KSWO 081219Z AUTO 00000KT 6SM BR FEW004 BKN032 23/22 A3005 RMK 
    AO2=
METAR KSYN 081230Z AUTO 30004KT 10SM CLR 19/17 A3010 RMK AO2
     T01860167=
METAR KTEW 081213Z AUTO 00000KT 7SM CLR 23/21 A3005 RMK AO2=
METAR KTKC 081213Z AUTO 25005KT 10SM CLR 17/14 A3015 RMK AO2
     T01720137=
METAR KTKV 081215Z AUTO 32004KT 10SM CLR 19/18 A3005 RMK AO2 
     T01860179=
METAR KTOB 081214Z AUTO 00000KT 10SM CLR 18/17 A3012 RMK AO2=
METAR KUKT 081210Z AUTO 00000KT 5SM CLR 25/22 A3006 RMK AO1=
METAR KUNU 081212Z AUTO 25004KT 4SM BR OVC003 21/20 A3004 RMK AO2 
     T02100197=
METAR KVLL 081214Z AUTO 22003KT 10SM CLR 27/20 A3005 RMK AO2=
####018000168####
SAUS20 KNKA 081220
METAR KVVV 081216Z AUTO 27006KT 10SM CLR 18/14 A3011 RMK AO2=
METAR KY70 081215Z AUTO 25003KT 4SM BR CLR 24/23 A3003 RMK AO2
     T02400225=
####018000105####
SAUS41 KLWX 081220
MTRNAK
SPECI KNAK 081219Z AUTO 00000KT 3SM HZ CLR 27/23 A3001 RMK AO2 TSNO 
$
####018000112####
SAMH31 PKWA 081220
METAR PKWA 081220Z AUTO 08010KT 10SM SCT016 SCT022 OVC055 26/23 A2985 RMK AO2 T02580232=
####018003735####
SAUS99 KWBC 081221
METAR
K29G 081214Z AUTO 00000KT 7SM CLR 24/19 A3010 RMK AO2 T02420194
     PWINO=
K4I3 081216Z AUTO 00000KT 7SM CLR 23/20 A3010 RMK AO2=
KACB 081215Z AUTO 00000KT 5SM -RA SCT023 BKN048 OVC075 23/22 A3001
     RMK AO2=
KACQ 081219Z AUTO 30007KT 10SM CLR 17/16 A3015 RMK AO2=
KADC 081217Z AUTO 25004KT 10SM CLR 16/14 A3010 RMK AO2=
KAEL 081211Z AUTO 32005KT 10SM CLR 18/17 A3012 RMK AO2=
KARV 081214Z AUTO 33003KT 10SM CLR 18/16 A3006 RMK AO2
     T01790158=
KAUM 081215Z AUTO 33006KT 10SM CLR 18/17 A3010 RMK AO2=
KBAX 081215Z AUTO 22004KT 10SM CLR 26/23 A3001 RMK AO2=
KBDH 081215Z AUTO 00000KT 10SM CLR 17/15 A3014 RMK AO2=
KCAD 081214Z AUTO 24005KT 5SM -RA OVC090 22/21 A3004 RMK AO2=
KCBG 081215Z AUTO 26004KT 10SM CLR 17/15 A3009 RMK AO2=
KCFE 081215Z AUTO 27005KT 10SM CLR 19/16 A3012 RMK AO2
     T01870160=
KCFS 081215Z AUTO 24003KT 10SM CLR 25/22 A3002 RMK AO2=
KCKC 081215Z AUTO 25004KT 10SM CLR 18/13 A3004 RMK AO2=
KCKN 081215Z AUTO 23003KT 10SM CLR 16/13 A3007 RMK AO2=
KCNB 081218Z AUTO 25006KT 10SM CLR 18/14 A3014 RMK AO2
     T01820137=
KCOQ 081216Z AUTO 27007KT 10SM CLR 17/17 A3006 RMK AO2=
KCQM 081217Z AUTO 24004KT 10SM CLR 17/15 A3004 RMK AO2=
KCVH 081210Z AUTO 00000KT 8SM OVC006 13/11 A2992 RMK AO1=
KDRM 081216Z AUTO 00000KT 3SM DZ BKN016 OVC110 20/20 A2998 RMK
     AO2=
KDTL 081215Z AUTO 24003KT 10SM CLR 17/12 A3011 RMK AO2=
KDUH 081215Z AUTO 00000KT 10SM CLR 27/19 A3004 RMK AO2=
KDXX 081214Z AUTO 00000KT 10SM CLR 17/16 A3011 RMK AO2=
KEFK 081215Z AUTO 21003KT 7SM CLR 25/21 A3007 RMK AO2=
KELO 081213Z AUTO 23004KT 10SM CLR 16/15 A3002 RMK AO2=
KEVM 081212Z AUTO 26004KT 10SM CLR 16/14 A3002 RMK AO1=
KFBL 081214Z AUTO 30003KT 10SM CLR 18/16 A3013 RMK AO2=
KFFX 081215Z AUTO 16003KT 1 3/4SM RA BKN002 BKN021 OVC060 22/22
     A3002 RMK AO2=
KFPK 081216Z AUTO 00000KT 5SM BR CLR 23/21 A3003 RMK AO2=
KFSE 081214Z AUTO 22004KT 10SM CLR 14/12 A3006 RMK AO2=
KFSO 081218Z AUTO 00000KT 7SM CLR 27/23 A3002 RMK AO2=
KGYL 081214Z AUTO 23003KT 10SM CLR 17/15 A3012 RMK AO2
     T01650150=
KHAF 081210Z AUTO 00000KT 8SM OVC006 12/11 A2993 RMK AO2=
KHAI 081215Z AUTO 06003KT 7SM CLR 25/22 A3004 RMK AO2=
KHCD 081212Z AUTO 00000KT 10SM CLR 15/15 A3012 RMK AO2
     T01520145=
KHCO 081214Z AUTO 29004KT 10SM CLR 16/15 A3007 RMK AO2=
KHZX 081211Z AUTO 25004KT 10SM CLR 17/16 A3008 RMK AO2=
KIKW 081213Z AUTO 27004KT 7SM -RA BKN090 OVC110 23/21 A3002 RMK
     AO2 T02320213=
KIRS 081215Z AUTO 00000KT 5SM HZ CLR 24/22 A3004 RMK AO2=
KJKJ 081214Z AUTO 00000KT 10SM CLR 16/14 A3008 RMK AO2=
KJMR 081218Z AUTO 29003KT 10SM CLR 17/15 A3010 RMK AO2=
KJYG 081215Z AUTO 00000KT 10SM CLR 18/18 A3015 RMK AO2=
KJYM 081215Z AUTO 00000KT 7SM CLR 24/21 A3007 RMK AO2=
KLJF 081212Z AUTO 27003KT 10SM CLR 18/16 A3012 RMK AO2=
KLVN 081208Z AUTO 27005KT 10SM CLR 18/17 A3011 RMK AO2=
KLWA 081216Z AUTO 00000KT 10SM SCT050 SCT075 OVC095 23/21 A3003
     RMK AO2=
KLXL 081214Z AUTO 00000KT 10SM CLR 15/15 A3008 RMK AO2=
KLYV 081218Z AUTO 00000KT 10SM CLR 15/13 A3018 RMK AO2=
KMDS 081205Z AUTO 27004KT 10SM CLR 17/16 A3018 RMK AO2=
KMGN 081215Z AUTO 26005KT 5SM RA OVC012 22/20 A3000 RMK AO2=
KMJQ 081212Z AUTO 28003KT 7SM CLR 16/15 A3016 RMK AO2=
KMOP 081214Z AUTO 26005KT 10SM OVC110 23/23 A3002 RMK AO2=
KMRT 081213Z AUTO 00000KT 5SM CLR 24/20 A3012 RMK AO2
     T02410201=
KMVE 081214Z AUTO 29003KT 10SM CLR 17/15 A3011 RMK AO2=
KOEB 081215Z AUTO 00000KT 7SM CLR 24/21 A3006 RMK AO2=
KONA 081211Z AUTO 33005KT 10SM CLR 20/17 A3007 RMK AO2=
KOVL 081213Z AUTO 29004KT 10SM CLR 15/14 A3012 RMK AO2
     T01530135=
KOZW 081215Z AUTO 00000KT 7SM CLR 25/21 A3005 RMK AO2=
####018000474####
SPUS99 KWBC 081221
SPECI
KCRP 081218Z 05008KT 7SM -RA SCT027CB BKN040 OVC075 26/25 A2984
     RMK AO2 TSE18 TS MOV W CB N-NE MOV W CB DSNT W P0001 $=
KCXO 081219Z VRB04KT 7SM FEW006 24/23 A2997 RMK AO2=
KLEB 081219Z 00000KT 4SM HZ SCT013 26/22 A3007 RMK AO2=
KOXR 081219Z AUTO 29007KT 10SM OVC009 15/12 A2991 RMK AO2 $=
KSMQ 081219Z AUTO 00000KT 4SM BR SCT009 26/23 A3003 RMK AO2=
KSWO 081219Z AUTO 00000KT 6SM BR FEW004 BKN032 23/22 A3005 RMK
     AO2=
####018001366####
SAUS99 KWBC 081221 RRA
METAR
KPEX 081213Z AUTO 26005KT 10SM CLR 16/15 A3012 RMK AO2
     T01570153=
KRGK 081215Z AUTO 27004KT 10SM CLR 19/17 A3009 RMK AO2=
KRNP 081215Z AUTO 19003KT 10SM CLR 25/21 A3003 RMK AO2=
KROS 081215Z AUTO 00000KT 10SM CLR 17/15 A3009 RMK AO2
     T01710154=
KROX 081214Z AUTO 23004KT 10SM SCT085 15/13 A3002 RMK AO2=
KRQB 081215Z AUTO 00000KT 5SM RA SCT042 BKN065 OVC085 22/21 A3005
     RMK AO2=
KRRT 081214Z AUTO 23006KT 10SM SCT095 15/13 A3002 RMK AO2=
KSAZ 081214Z AUTO 25005KT 10SM CLR 17/17 A3010 RMK AO2=
KSGS 081213Z AUTO 29005KT 10SM CLR 20/16 A3011 RMK AO2
     T02000161=
KSUW 081215Z AUTO 22006KT 10SM CLR 17/15 A3004 RMK AO2=
KSYN 081230Z AUTO 30004KT 10SM CLR 19/17 A3010 RMK AO2
     T01860167=
KTEW 081213Z AUTO 00000KT 7SM CLR 23/21 A3005 RMK AO2=
KTKC 081213Z AUTO 25005KT 10SM CLR 17/14 A3015 RMK AO2
     T01720137=
KTKV 081215Z AUTO 32004KT 10SM CLR 19/18 A3005 RMK AO2
     T01860179=
KTOB 081214Z AUTO 00000KT 10SM CLR 18/17 A3012 RMK AO2=
KUKT 081210Z AUTO 00000KT 5SM CLR 25/22 A3006 RMK AO1=
KUNU 081212Z AUTO 25004KT 4SM BR OVC003 21/20 A3004 RMK AO2
     T02100197=
KVLL 081214Z AUTO 22003KT 10SM CLR 27/20 A3005 RMK AO2=
KVVV 081216Z AUTO 27006KT 10SM CLR 18/14 A3011 RMK AO2=
KY70 081215Z AUTO 25003KT 4SM BR CLR 24/23 A3003 RMK AO2
     T02400225=
####018000124####
SAMX41 MMMX 081219
METAR MMZH 081212Z RTD 00000KT 7SM SCT040 BKN100 OVC 250 25/20
                   A2978 RMK 8/367 =
####018000080####
SAAL41 DAMM 081200 RRE
METAR DAUI 081200Z 07024KT 6000 DRSA NSC 45/07 Q1013=
####018000080####
SALV31 EVRA 081220
METAR EVRA 081220Z 32012KT 9999 OVC021 20/15 Q1015 NOSIG=
####018000082####
SAEO31 EETN 081220
METAR EETN 081220Z 32009KT 280V350 CAVOK 25/18 Q1014 NOSIG=
####018000082####
SALT32 EYVI 081220
METAR EYKA 081220Z 29010KT 250V330 9999 OVC032 16/16 Q1017=
####018000085####
SASD31 OEJD 081200 RRB
METAR OYSN 081200Z 04013G25KT 3000 DU SCT030 31/M03 Q1020=
####018000080####
SAAL33 DAAA 081200 RRD
METAR DAUI 081200Z 07024KT 6000 DRSA NSC 45/07 Q1013=
####018000108####
SALT31 EYVI 081220
METAR EYVI 081220Z 28011KT 250V320 2600 SHRA BKN006 OVC012CB 15/14
     Q1015 NOSIG=
####018000131####
SAAK31 KWBC 081200 RRA
METAR
PAVD 081216Z 26003KT 10SM OVC080 11/08 A3008=
PAWG 081216Z AUTO 00000KT 10SM CLR 11/09 A3013=
####018000138####
SAAK32 KWBC 081200 RRA
METAR
PADK 081216Z 02012G17KT 9SM OVC009 07/07 A2951=
PADL 081216Z 28003KT 10SM SCT044 OVC110 10/08 A2997=
####018000107####
SAPA41 KWBC 081200 RRA
METAR
PKWA 081220Z AUTO 08010KT 10SM SCT016 SCT022 OVC055 26/23
     A2985=
####018000107####
SAPQ31 KWBC 081200 RRB
METAR
PKWA 081220Z AUTO 08010KT 10SM SCT016 SCT022 OVC055 26/23
     A2985=
####018000099####
SPUS31 KWBC 081221
SPECI
KPBI 081218Z 00000KT 3SM +RA BR FEW006 SCT015 BKN028CB 25/23 A2996=
####018000083####
SPUS41 KWBC 081221
SPECI
KILG 081218Z 12004KT 1 1/2SM BR BKN005 25/23 A3004=
####018000091####
SPUS42 KWBC 081221
SPECI
KDAL 081217Z 13005KT 10SM BKN014 BKN021 OVC047 26/23 A3003=
####018000084####
SPUS51 KWBC 081221
SPECI
KCON 081218Z AUTO 16005KT 3SM BR OVC006 24/22 A3009=
####018000089####
SPUS52 KWBC 081221
SPECI
KDHT 081218Z AUTO 35006KT 10SM BKN007 OVC110 17/16 A3025=
####018000083####
SAUS43 KWBC 081200 RRF
METAR
KELO 081213Z AUTO 23004KT 10SM CLR 16/15 A3002=
####018000083####
SAEO31 EETN 081220
METAR EETN 081220Z 32009KT 280V350 CAVOK 25/18 Q1014 NOSIG=
####018000081####
SALV31 EVRA 081220
METAR EVRA 081220Z 32012KT 9999 OVC021 20/15 Q1015 NOSIG=
####018000083####
SALT32 EYVI 081220
METAR EYKA 081220Z 29010KT 250V330 9999 OVC032 16/16 Q1017=
####018000126####
SAMP31 LMMM 081230
METAR HLLT NIL=
METAR HLLB NIL=
METAR LMML 081215Z 06008KT 360V100 9999 FEW022 30/22 Q1018 NOSIG =
####018000086####
SASD31 OEJD 081200 RRB
METAR OYSN 081200Z 04013G25KT 3000 DU SCT030 31/M03 Q1020=
####018000073####
SABZ33 SBBR 081200 RRA
METAR SBYS 081200Z 00000KT CAVOK 14/10 Q1022=
####018002132####
SABZ33 SBBR 081200
METAR SBAF 081200Z 00000KT 4000 HZ FEW030 23/15 Q1018=
METAR SBAQ 081200Z NIL=
METAR SBAS 081200Z NIL=
METAR SBAU 081200Z 09004KT CAVOK 20/10 Q1019=
METAR SBAX 081200Z NIL=
METAR SBBH 081200Z 08006KT CAVOK 17/11 Q1024=
METAR SBBI 081200Z 14001KT CAVOK 16/13 Q1022=
METAR SBBQ 081200Z 34004KT CAVOK 18/10 Q1026=
METAR SBBT 081200Z NIL=
METAR SBBU 081200Z 06004KT CAVOK 19/10 Q1021=
METAR SBBZ 081200Z NIL=
METAR SBCB 081200Z NIL=
METAR SBCF 081200Z 21003KT CAVOK 13/09 Q1024=
METAR SBCO 081200Z 22005KT 3000 -RA SCT010 OVC015 15/14 Q1020=
METAR SBCP 081200Z 34007KT CAVOK 23/20 Q1020=
METAR SBDN 081200Z 06009KT CAVOK 22/08 Q1019=
METAR SBES 081200Z 03004KT CAVOK 21/16 Q1019=
METAR SBFS 081200Z NIL=
METAR SBGA 081200Z NIL=
METAR SBGL 081200Z 00000KT 9000 NSC 21/16 Q1019=
METAR SBGR 081200Z 04003KT CAVOK 19/09 Q1023=
METAR SBGU 081200Z 04002KT 9999 SCT030 17/11 Q1022=
METAR SBGW 081200Z 00000KT CAVOK 13/11 Q1021=
METAR SBIP 081200Z NIL=
METAR SBJF 081200Z 04007KT CAVOK 19/09 Q1023=
METAR SBJR 081200Z 36004KT CAVOK 25/15 Q1018=
METAR SBKP 081200Z 09003KT 8000 NSC 17/10 Q1022=
METAR SBLN 081200Z NIL=
METAR SBLS 081200Z 18002KT CAVOK 17/12 Q1024=
METAR SBME 081200Z 03005KT CAVOK 24/18 Q1019=
METAR SBMK 081200Z 16002KT CAVOK 20/14 Q1023=
METAR SBML 081200Z 07012KT CAVOK 22/11 Q1021=
METAR SBMT 081200Z 00000KT CAVOK 18/11 Q1022=
METAR SBPC 081200Z 09002KT CAVOK 12/08 Q1025=
METAR SBPR 081200Z 12012KT CAVOK 19/12 Q1025=
METAR SBRJ 081200Z 03003KT CAVOK 23/16 Q1018=
METAR SBRP 081200Z 12004KT 9000 NSC 17/10 Q1021=
METAR SBRQ 081200Z NIL=
METAR SBRS 081200Z NIL=
METAR SBSA 081200Z NIL=
METAR SBSC 081100Z 02008KT CAVOK 21/13 Q1018=
METAR SBSJ 081200Z 00000KT CAVOK 13/11 Q1022=
METAR SBSP 081200Z 32005KT CAVOK 18/08 Q1023=
METAR SBSR 081200Z NIL=
METAR SBST 081200Z 00000KT CAVOK 25/10 Q1018=
METAR SBTA 081200Z 00000KT CAVOK 12/10 Q1021=
METAR SBUL 081200Z 05008KT CAVOK 19/08 Q1023=
METAR SBUP 081200Z NIL=
METAR SBUR 081200Z 03006KT CAVOK 19/07 Q1022=
METAR SBVT 081200Z 31005KT CAVOK 24/17 Q1021=
####018000501####
SABZ32 SBBR 081200
METAR SBAN 081200Z 07008KT CAVOK 20/13 Q1023=
METAR SBBR 081200Z 01004KT CAVOK 19/09 Q1024=
METAR SBBW 081200Z 20002KT CAVOK 23/15 Q1019=
METAR SBCG 081200Z 07015KT CAVOK 22/08 Q1017=
METAR SBCR 081200Z 12006KT CAVOK 26/11 Q1014=
METAR SBCY 081200Z 01010KT CAVOK 23/14 Q1015=
METAR SBGO 081200Z 25002KT CAVOK 20/11 Q1021=
METAR SBPJ 081200Z 20006KT CAVOK 24/15 Q1017=
METAR SBPN 081200Z 18008KT CAVOK 25/14 Q1016=
METAR SBPP 081200Z 00000KT CAVOK 23/10 Q1018=
####018000589####
SABZ35 SBBR 081200
METAR SACO 081200Z  32004KT CAVOK 08/M06 Q1019=
METAR SAEZ 081200Z 32004KT CAVOK 05/M01 Q1019=
METAR SAME 081200Z 23002KT 9999 NSC 02/M01 Q1015=
METAR SEQU 081200Z 11001KT 9999 FEW100 SCT300 08/07 Q1027 NOSIG=
METAR SGAS 081200Z 14007KT 8000 BKN008 OVC012 17/15 Q1016=
METAR SKBO 081200Z VRB02KT 8000 FEW015 BKN070 12/11 A3032=
METAR SKCL 081200Z 08003KT 9999 SCT017 BKN090 20/19 A3002=
METAR SLLP 081200Z 03003KT 9999 NSC M01/M03 Q1037=
METAR SPIM 081200Z 18003KT 6000 OVC022 16/13 Q1013 NOSIG=
METAR SUMU 081200Z 32004KT CAVOK 07/06 Q1018 NOSIG=
####018001936####
SABZ30 SBBR 081200
METAR SBAA 081200Z 10002KT CAVOK 25/19 Q1016=
METAR SBAM 081200Z 14005KT 9999 FEW024 30/26 Q1013=
METAR SBAT 081200Z 13002KT CAVOK 22/17 Q1015=
METAR SBBA 081200Z NIL=
METAR SBBC 081200Z NIL=
METAR SBBE 081200Z 10008KT 9999 FEW013 SCT100 29/23 Q1014=
METAR SBBV 081200Z 28005KT 9999 SCT020 SCT070 27/23 Q1013=
METAR SBCC 081200Z 12010KT CAVOK 26/17 Q1017=
METAR SBCI 081200Z 08004KT CAVOK 28/17 Q1016=
METAR SBCJ 081200Z 08004KT CAVOK 26/17 Q1018=
METAR SBCZ 081200Z 00000KT 9999 FEW030 BKN100 23/23 Q1013=
METAR SBEG 081200Z 00000KT 9999 FEW015 SCT100 26/22 Q1012=
METAR SBEK 081200Z 00000KT CAVOK 27/26 Q1013=
METAR SBGM 081200Z 07002KT CAVOK 25/23 Q1013=
METAR SBHT 081200Z 09007KT CAVOK ///// Q1014=
METAR SBIC 081200Z 10004KT CAVOK 28/27 Q1013=
METAR SBIH 081200Z 00000KT 9999 FEW010 29/25 Q1013=
METAR SBIZ 081200Z 12002KT CAVOK 27/20 Q1015=
METAR SBLB 081200Z NIL=
METAR SBMA 081200Z 11002KT CAVOK ///// Q1014=
METAR SBMD 081200Z 07004KT 9999 SCT010 26/26 Q1014=
METAR SBMN 081200Z 10003KT 9999 FEW015 28/25 Q1013=
METAR SBMQ 081200Z 03001KT 9999 SCT020 30/27 Q1014=
METAR SBMY 081200Z 00000KT CAVOK 25/24 Q1013=
METAR SBMZ 081200Z NIL=
METAR SBOI 081200Z 30001KT 9999 SCT010 27/24 Q1014=
METAR SBPV 081200Z 05004KT CAVOK 26/22 Q1013=
METAR SBRB 081200Z 02004KT CAVOK 26/24 Q1013=
METAR SBSL 081200Z 09010KT 9999 SCT017 29/25 Q1014=
METAR SBSN 081200Z 06008KT 9999 SCT015 28/25 Q1013=
METAR SBSY 081200Z NIL=
METAR SBTF 081200Z 00000KT 9999 FEW010 BKN100 27/25 Q1012=
METAR SBTK 081200Z 00000KT 5000 BR NSC 23/23 Q1013=
METAR SBTT 081200Z 00000KT 9999 FEW008 BKN080 26/25 Q1012=
METAR SBTU 081200Z 07007KT CAVOK 25/25 Q1017=
METAR SBUA 081200Z 00000KT 9999 BKN030 SCT070 25/24 Q1011=
METAR SBUI 081200Z NIL=
METAR SBVH 081200Z 03004KT CAVOK 25/18 Q1018=
METAR SBXG 081200Z NIL=
METAR SBXV 081200Z NIL=
METAR SBYA 081200Z NIL=
####018000999####
SABZ34 SBBR 081200
METAR SBBG 081200Z NIL=
METAR SBBI 081200Z 14001KT CAVOK 16/13 Q1022=
METAR SBCA 081200Z 04014KT CAVOK 21/11 Q1020=
METAR SBCH 081200Z 00000KT 8000 NSC 16/14 Q1019=
METAR SBCM 081200Z 19002KT 9000 BKN016 OVC030 18/15 Q1019=
METAR SBCO 081200Z 22005KT 3000 -RA SCT010 OVC015 15/14 Q1020=
METAR SBCT 081200Z 02004KT CAVOK 15/12 Q1022=
METAR SBCX 081200Z NIL=
METAR SBFI 081200Z 22004KT 9999 FEW004 SCT100 17/15 Q1017=
METAR SBFL 081200Z 17007KT CAVOK 21/16 Q1018=
METAR SBJV 081200Z 14008KT CAVOK 18/17 Q1017=
METAR SBLO 081200Z 22002KT CAVOK 17/13 Q1021=
METAR SBMG 081200Z 02016KT 8000 NSC 22/10 Q1018=
METAR SBNF 081200Z 00000KT CAVOK 21/20 Q1017=
METAR SBNM 081200Z 14010KT 9999 FEW010 OVC020 15/09 Q1020=
METAR SBPA 081200Z 20004KT 4000 -RA BR BKN010 OVC020 15/13 Q1020=
METAR SBPF 081200Z NIL=
METAR SBPG 081200Z NIL=
METAR SBPK 081200Z NIL=
METAR SBRG 081200Z NIL=
METAR SBSM 081200Z 25002KT 9999 FEW007 BKN010 BKN015 09/08 Q1022=
####018001269####
SABZ31 SBBR 081200
METAR SBAR 081200Z 20006KT 9999 FEW015 26/23 Q1017=
METAR SBCV 081200Z NIL=
METAR SBFN 081200Z 15004KT 9999 FEW017 28/23 Q1015=
METAR SBFZ 081200Z 14009KT 9999 FEW018 BKN090 27/20 Q1015=
METAR SBIL 081200Z 24008KT 9999 SCT025 BKN070 25/21 Q1019=
METAR SBJP 081200Z 18008KT 9999 FEW020 BKN070 26/23 Q1016=
METAR SBJU 081200Z NIL=
METAR SBKG 081200Z 18008KT 9999 BKN018 SCT100 23/20 Q1018=
METAR SBLE 081200Z NIL=
METAR SBLP 081200Z 18004KT CAVOK 24/14 Q1020=
METAR SBMO 081200Z 30002KT 8000 BKN020 SCT100 23/21 Q1017=
METAR SBMS 081200Z 13005KT 9999 SCT025 SCT100 31/20 Q1015=
METAR SBNT 081200Z 15009KT 9999 FEW023 BKN100 26/22 Q1015=
METAR SBPB 081200Z 06009KT 9999 FEW020 SCT100 31/23 Q1014=
METAR SBPL 081200Z 13013KT 9999 FEW023 25/19 Q1019=
METAR SBPS 081200Z 27006KT 9999 VCSH SCT010 SCT050 BKN100 19/19
Q1020=
METAR SBQV 081200Z 13008KT 3000 BR BKN005 BKN008 18/18 Q1024=
METAR SBRF 081200Z 22005KT 9999 FEW020 BKN070 26/22 Q1016=
METAR SBSL 081200Z 09010KT 9999 SCT017 29/25 Q1014=
METAR SBSV 081200Z 24007KT 5000 -RA BR SCT007 SCT017 BKN070 24/21
Q1019=
METAR SBTC 081200Z NIL=
METAR SBTE 081200Z 24004KT 9999 SCT020 BKN100 27/24 Q1015=
METAR SBUF 081200Z 13008KT 9999 SCT015 26/21 Q1019=
####018000091####
SPUS72 KWBC 081221
SPECI
KDAL 081217Z 13005KT 10SM BKN014 BKN021 OVC047 26/23 A3003=
####018000099####
SPUS72 KWBC 081221
SPECI
KPBI 081218Z 00000KT 3SM +RA BR FEW006 SCT015 BKN028CB 25/23 A2996=
####018000084####
SPUS81 KWBC 081221
SPECI
KCON 081218Z AUTO 16005KT 3SM BR OVC006 24/22 A3009=
####018000091####
SPUS81 KWBC 081221
SPECI
KDAL 081217Z 13005KT 10SM BKN014 BKN021 OVC047 26/23 A3003=
####018000081####
SPUS81 KWBC 081221
SPECI
KNAK 081219Z AUTO 00000KT 3SM HZ CLR 27/23 A3001=
####018000738####
SMIQ01 ORBI 081215
AAXX 08121
40650 42960 03304 10446 20056 40033 57005=
40608 42960 01803 10444 20112 40003 57013=
40621 42960 03402 10440 20112 40026 57008=
40631 41940 03005 10441 20112 40031 56003 70600=
40637 42960 01008 10455 20022 40037 58005=
40642 42960 02704 10410 20015 49982 57012=
40656 42960 03504 10452 20091 40015 57009=
40665 41958 03311 10466 20140 40013 57009 70700=
40670 42960 03504 10476 20135 40022 57007=
40674 42960 03509 10456 20025 40021 57009=
40689 41956 03309 10486 21022 49978 57015 70700=
40629 42960 02703 10424 2010140042 57006=
40658 42960 03603 10443 20085 40024 57019=
40690 41958 03311 10496 21036 49981 57012 70700=
40676 41940 03211 10470 20001 40004 57011 70700=
####018000090####
SPUS81 KWBC 081221
SPECI
PADQ 081217Z 29007KT 7SM FEW019 BKN023 OVC032 11/09 A2985=
####018000132####
SAUS73 KWBC 081200 RRE
METAR
KELO 081213Z AUTO 23004KT 10SM CLR 16/15 A3002=
KOFF 081155Z COR 34003KT 10SM CLR 20/20 A3014=
####018000237####
SAUK KAWN 081200 RRE
METAR EGQL 081150Z 24020KT 9999 FEW040 BKN250 19/07 Q1012 BLU NOSIG=
METAR EGUO 081150Z 22006KT 9999 FEW025 SCT080 BKN200 21/09 Q1019 BLU=
METAR EGWU 081150Z 25007KT 9999 SCT025 BKN030 22/15 Q1018 BLU NOSIG=
####018000339####
SPNA14 KAWN 081221 RRC
SPECI KOZR 081215Z 00000KT 2SM BR BKN001 23/23 A3004 RMK AO2A VIS 1
      1/2V2 1/2 SLP169=
SPECI KOZR 081219Z 00000KT 2SM BR SCT001 23/23 A3004 RMK AO2A=
SPECI KRND 081215Z 05007KT 7SM BKN007 BKN013 25/24 A2995=
SPECI KWRI 081216Z AUTO 14006KT 7SM SCT008 25/25 A3003 RMK AO2 SCT
      V BKN SLP169 $=
####018000252####
SPNA35 KAWN 081221 RRB
SPECI KPBI 081218Z 00000KT 3SM +RA BR FEW006 SCT015 BKN028CB 25/23
      A2996 RMK AO2 VIS N-E 5 NW-N 1 CB OHD-ALQDS MOV W P0015=
SPECI KWRI 081216Z AUTO 14006KT 7SM SCT008 25/25 A3003 RMK AO2 SCT
      V BKN SLP169 $=
####018000186####
SAUS75 KWBC 081200 RRA
METAR
PADL 081216Z 28003KT 10SM SCT044 OVC110 10/08 A2997=
PAUN 081216Z AUTO 07011KT 10SM CLR 12/04 A3001=
PAVD 081216Z 26003KT 10SM OVC080 11/08 A3008=
####018000372####
SAUS20 KNKA 081221
METAR KBWD 081215Z AUTO 08004KT 10SM SCT048 23/23 A3004 RMK AO2 =
SPECI KDWH 081220Z 06007KT 8SM SCT007 24/24 A2996 RMK AO2=
SPECI KMLC 081220Z AUTO 00000KT 10SM FEW009 BKN021 BKN070 24/23 
    A3005 RMK AO2=
METAR KO22 081215Z AUTO 00000KT 10SM CLR 15/12 A2990 RMK AO1 =
SPECI KSJT 081219Z 04003KT 10SM BKN008 OVC110 22/21 A3005 RMK AO2=
####018000080####
SPCN51 CWAO 081220
SPECI CZCP 081220Z AUTO 28023KT 9SM OVC005 03/ A2985=

####018000167####
SPUS90 KWBC 081222 CCA
SPECI KCRP 081218Z 05008KT 7SM -RA SCT027CB BKN040 OVC075 26/25
     A2984 RMK AO2 TSE18 TS MOV W CB N-NE MOV W CB DSNT W P0001
     $=
####018000177####
SPUS90 KWBC 081222
SPECI KCON 081218Z AUTO 16005KT 3SM BR OVC006 24/22 A3009 RMK
     AO2=
SPECI KNAK 081219Z AUTO 00000KT 3SM HZ CLR 27/23 A3001 RMK AO2
     TSNO $=
####018002290####
SAUS90 KWBC 081222
METAR K3A6 081110Z AUTO 36003KT 11/10 A2988 RMK AO1 SLP138
     T01120101 10130 20110 58009=
METAR KFKA 081223Z AUTO 32008KT 10SM CLR 19/18 A3011 RMK AO2
     T01900175=
METAR KCVX 081215Z AUTO 24006KT 7SM -RA SCT009 BKN013 OVC026 21/20
     A3002 RMK AO2=
METAR KFKS 081215Z AUTO 19004KT 3SM -DZ OVC004 21/20 A3001 RMK
     AO2=
METAR KSLH 081215Z AUTO 26006KT 7SM -RA OVC009 22/21 A2999 RMK
     AO2=
METAR KSJX 081216Z AUTO 25007KT 3/4SM BR OVC002 19/18 A2999 RMK
     AO2=
METAR KLDM 081216Z AUTO 22005KT 5SM RA OVC007 21/20 A3002 RMK AO2
     P0002=
METAR KGOV 081215Z AUTO 00000KT 7SM RA BKN070 OVC080 22/22 A3003
     RMK AO2=
METAR KPZQ 081215Z AUTO 24003KT 10SM -DZ OVC100 23/21 A3000 RMK
     AO2=
METAR KHYX 081215Z AUTO 00000KT 10SM BKN120 24/21 A3001 RMK
     AO2=
METAR KPHN 081216Z AUTO 19003KT 10SM CLR 25/21 A3002 RMK AO2=
METAR KONZ 081217Z AUTO 00000KT 10SM CLR 27/21 A3002 RMK AO2=
METAR KISQ 081216Z AUTO 33004KT 10SM BKN002 OVC065 19/18 A2999 RMK
     AO2=
METAR KRMY 081215Z AUTO 00000KT 7SM CLR 23/21 A3005 RMK AO2=
METAR KOSC 081214Z AUTO 18003KT 7SM SCT015 SCT075 SCT100 23/21
     A2999 RMK AO2=
METAR KTTF 081213Z AUTO 00000KT 10SM CLR 26/22 A3003 RMK AO2=
METAR KAMN 081216Z AUTO 23003KT 5SM BR SCT085 BKN110 23/22 A3002
     RMK AO2=
METAR KMCD 081216Z AUTO 25003KT 2 1/2SM HZ OVC005 21/18 A3000 RMK
     AO2=
METAR KERY 081216Z AUTO 31003KT 10SM -RA OVC003 18/18 A3000 RMK
     AO2=
METAR KDVP 081216Z AUTO 27004KT 10SM CLR 17/14 A3018 RMK AO2
     T01690135=
METAR KCDD 081211Z AUTO 20004KT 10SM CLR 19/18 A3003 RMK AO2=
METAR KFOZ 081213Z AUTO 23005KT 10SM CLR 16/14 A3005 RMK AO2=
METAR KAQP 081213Z AUTO 24003KT 10SM CLR 16/16 A3011 RMK AO2=
METAR KETH 081214Z AUTO 24007KT 10SM CLR 18/15 A3010 RMK AO2=
METAR KXVG 081216Z AUTO 00000KT 10SM CLR 17/16 A3005 RMK AO2=
METAR KORB 081214Z AUTO 27003KT 10SM CLR 16/13 A3001 RMK AO2=
METAR KMZH 081211Z AUTO 00000KT 10SM CLR 16/15 A3005 RMK AO2=
METAR KBFW 081213Z AUTO 00000KT 10SM CLR 20/15 A3001 RMK AO2=
METAR KVWU 081211Z AUTO 26007KT 10SM CLR 18/14 A3003 RMK AO2=
METAR KOWA 081213Z AUTO 30003KT 10SM CLR 17/16 A3011 RMK AO2=
METAR KCDA 081215Z AUTO 11003KT 5SM HZ CLR 24/20 A3010 RMK AO2=
####018000085####
SAKW35 OKBK 081230
METAR OKBK 081230Z 34019KT 6000 -BLDU SKC 48/M07 Q0999 NOSIG=
####018000109####
SAUK39 EGRR 081150 RRK
METAR EGVP 081150Z 19007KT 9999 BKN016 BKN280 21/15 Q1018 WHT BECMG
SCT025 BLU=
####018002631####
SAUS20 KNKA 081221
METAR KAWG 081215Z AUTO 32007KT 7SM CLR 22/20 A3006 RMK AO2=
METAR KAXA 081215Z AUTO 35004KT 10SM CLR 18/17 A3013 RMK AO2=
METAR KBNW 081215Z AUTO 33015G21KT 10SM CLR 20/17 A3013 RMK AO2=
METAR KCAV 081215Z AUTO 33005KT 10SM CLR 20/18 A3013 RMK AO2=
METAR KCBF 081215Z AUTO 36005KT 7SM CLR 20/15 A3016 RMK AO2=
METAR KCCY 081215Z AUTO 34008KT 10SM CLR 20/17 A3010 RMK AO2=
METAR KCIN 081215Z AUTO 34003KT 10SM CLR 18/15 A3016 RMK AO2=
METAR KCNC 081215Z AUTO 35005KT 10SM SCT005 21/18 A3010 RMK AO2=
METAR KCSQ 081215Z AUTO 02009KT 10SM CLR 21/19 A3012 RMK AO2=
METAR KDEH 081215Z AUTO 34006KT 10SM CLR 21/18 A3010 RMK AO2=
SPECI KDMO 081220Z AUTO 19005KT 3SM BR BKN002 OVC006 23/22 A3008 RMK 
    AO2 CIG 001V005=
METAR KDNS 081215Z AUTO 01003KT 10SM CLR 20/16 A3018 RMK AO2=
METAR KEOK 081215Z AUTO 00000KT 7SM OVC003 22/19 A3005 RMK AO2=
METAR KFFL 081215Z AUTO 33006KT 7SM CLR 22/20 A3007 RMK AO2=
METAR KFSW 081215Z AUTO 33006KT 5SM OVC002 23/21 A3005 RMK AO2=
METAR KFXY 081215Z AUTO 32004KT 10SM CLR 18/16 A3013 RMK AO2=
METAR KGGI 081215Z AUTO 33004KT 10SM CLR 22/20 A3010 RMK AO2=
SPECI KGLD 081220Z AUTO 01004KT 10SM SCT009 OVC014 17/16 A3031 RMK 
    AO2=
METAR KHNR 081215Z AUTO 35003KT 10SM CLR 18/17 A3018 RMK AO2=
SPECI KHVN 081220Z 12006KT 7SM BKN007 BKN015 OVC026 24/22 A3007 RMK 
    AO2=
METAR KI75 081215Z AUTO 35008KT 7SM CLR 20/18 A3010 RMK AO2=
METAR KICL 081215Z AUTO 36007KT 10SM CLR 21/18 A3012 RMK AO2=
METAR KIFA 081215Z AUTO 33005KT 10SM SCT110 21/19 A3012 RMK AO2=
METAR KIIB 081215Z AUTO 33006KT 7SM CLR 20/19 A3008 RMK AO1=
METAR KIKV 081215Z AUTO 33005KT 10SM CLR 21/18 A3011 RMK AO2=
METAR KLRJ 081215Z AUTO 00000KT 10SM CLR 16/15 A3018 RMK AO2=
METAR KMPZ 081215Z AUTO 33006KT 7SM OVC004 22/21 A3006 RMK AO2=
METAR KMUT 081215Z AUTO 35005KT 7SM BKN012 23/22 A3005 RMK AO2=
METAR KMXO 081215Z AUTO 00000KT 7SM BKN019 21/19 A3006 RMK AO2=
METAR KORC 081215Z AUTO 31003KT 10SM CLR 18/18 A3018 RMK AO2=
METAR KOXV 081215Z AUTO 35007KT 10SM CLR 22/20 A3009 RMK AO2=
SPECI KOZR 081215Z 00000KT 2SM BR BKN001 23/23 A3004 RMK AO2A VIS 1
      1/2V2 1/2 SLP169=
SPECI KOZR 081219Z 00000KT 2SM BR SCT001 23/23 A3004 RMK AO2A=
METAR KPEA 081215Z AUTO 35004KT 10SM CLR 22/21 A3009 RMK AO2=
METAR KRDK 081215Z AUTO 00000KT 10SM CLR 22/18 A3013 RMK AO2=
METAR KSDA 081215Z AUTO 03004KT 10SM CLR 21/19 A3013 RMK AO2=
METAR KSHL 081215Z AUTO 00000KT 7SM CLR 16/16 A3019 RMK AO2=
METAR KTNU 081215Z AUTO 35007KT 10SM CLR 21/19 A3010 RMK AO2=
METAR KVTI 081215Z AUTO 32005KT 7SM BKN005 21/20 A3008 RMK AO2=
####018003736####
SAUS99 KWBC 081222
METAR
KFKA 081223Z AUTO 32008KT 10SM CLR 19/18 A3011 RMK AO2
     T01900175=
KCVX 081215Z AUTO 24006KT 7SM -RA SCT009 BKN013 OVC026 21/20 A3002
     RMK AO2=
KFKS 081215Z AUTO 19004KT 3SM -DZ OVC004 21/20 A3001 RMK AO2=
KSLH 081215Z AUTO 26006KT 7SM -RA OVC009 22/21 A2999 RMK AO2=
KSJX 081216Z AUTO 25007KT 3/4SM BR OVC002 19/18 A2999 RMK AO2=
KLDM 081216Z AUTO 22005KT 5SM RA OVC007 21/20 A3002 RMK AO2
     P0002=
KGOV 081215Z AUTO 00000KT 7SM RA BKN070 OVC080 22/22 A3003 RMK
     AO2=
KPZQ 081215Z AUTO 24003KT 10SM -DZ OVC100 23/21 A3000 RMK AO2=
KHYX 081215Z AUTO 00000KT 10SM BKN120 24/21 A3001 RMK AO2=
KPHN 081216Z AUTO 19003KT 10SM CLR 25/21 A3002 RMK AO2=
KONZ 081217Z AUTO 00000KT 10SM CLR 27/21 A3002 RMK AO2=
KISQ 081216Z AUTO 33004KT 10SM BKN002 OVC065 19/18 A2999 RMK
     AO2=
KRMY 081215Z AUTO 00000KT 7SM CLR 23/21 A3005 RMK AO2=
KOSC 081214Z AUTO 18003KT 7SM SCT015 SCT075 SCT100 23/21 A2999 RMK
     AO2=
KTTF 081213Z AUTO 00000KT 10SM CLR 26/22 A3003 RMK AO2=
KAMN 081216Z AUTO 23003KT 5SM BR SCT085 BKN110 23/22 A3002 RMK
     AO2=
KMCD 081216Z AUTO 25003KT 2 1/2SM HZ OVC005 21/18 A3000 RMK
     AO2=
KERY 081216Z AUTO 31003KT 10SM -RA OVC003 18/18 A3000 RMK AO2=
KDVP 081216Z AUTO 27004KT 10SM CLR 17/14 A3018 RMK AO2
     T01690135=
KCDD 081211Z AUTO 20004KT 10SM CLR 19/18 A3003 RMK AO2=
KFOZ 081213Z AUTO 23005KT 10SM CLR 16/14 A3005 RMK AO2=
KAQP 081213Z AUTO 24003KT 10SM CLR 16/16 A3011 RMK AO2=
KETH 081214Z AUTO 24007KT 10SM CLR 18/15 A3010 RMK AO2=
KXVG 081216Z AUTO 00000KT 10SM CLR 17/16 A3005 RMK AO2=
KORB 081214Z AUTO 27003KT 10SM CLR 16/13 A3001 RMK AO2=
KMZH 081211Z AUTO 00000KT 10SM CLR 16/15 A3005 RMK AO2=
KBFW 081213Z AUTO 00000KT 10SM CLR 20/15 A3001 RMK AO2=
KVWU 081211Z AUTO 26007KT 10SM CLR 18/14 A3003 RMK AO2=
KOWA 081213Z AUTO 30003KT 10SM CLR 17/16 A3011 RMK AO2=
KCDA 081215Z AUTO 11003KT 5SM HZ CLR 24/20 A3010 RMK AO2=
KBWD 081215Z AUTO 08004KT 10SM SCT048 23/23 A3004 RMK AO2=
KO22 081215Z AUTO 00000KT 10SM CLR 15/12 A2990 RMK AO1=
KAWG 081215Z AUTO 32007KT 7SM CLR 22/20 A3006 RMK AO2=
KAXA 081215Z AUTO 35004KT 10SM CLR 18/17 A3013 RMK AO2=
KBNW 081215Z AUTO 33015G21KT 10SM CLR 20/17 A3013 RMK AO2=
KCAV 081215Z AUTO 33005KT 10SM CLR 20/18 A3013 RMK AO2=
KCBF 081215Z AUTO 36005KT 7SM CLR 20/15 A3016 RMK AO2=
KCCY 081215Z AUTO 34008KT 10SM CLR 20/17 A3010 RMK AO2=
KCIN 081215Z AUTO 34003KT 10SM CLR 18/15 A3016 RMK AO2=
KCNC 081215Z AUTO 35005KT 10SM SCT005 21/18 A3010 RMK AO2=
KCSQ 081215Z AUTO 02009KT 10SM CLR 21/19 A3012 RMK AO2=
KDEH 081215Z AUTO 34006KT 10SM CLR 21/18 A3010 RMK AO2=
KDNS 081215Z AUTO 01003KT 10SM CLR 20/16 A3018 RMK AO2=
KEOK 081215Z AUTO 00000KT 7SM OVC003 22/19 A3005 RMK AO2=
KFFL 081215Z AUTO 33006KT 7SM CLR 22/20 A3007 RMK AO2=
KFSW 081215Z AUTO 33006KT 5SM OVC002 23/21 A3005 RMK AO2=
KFXY 081215Z AUTO 32004KT 10SM CLR 18/16 A3013 RMK AO2=
KGGI 081215Z AUTO 33004KT 10SM CLR 22/20 A3010 RMK AO2=
KHNR 081215Z AUTO 35003KT 10SM CLR 18/17 A3018 RMK AO2=
KI75 081215Z AUTO 35008KT 7SM CLR 20/18 A3010 RMK AO2=
KICL 081215Z AUTO 36007KT 10SM CLR 21/18 A3012 RMK AO2=
KIFA 081215Z AUTO 33005KT 10SM SCT110 21/19 A3012 RMK AO2=
KIIB 081215Z AUTO 33006KT 7SM CLR 20/19 A3008 RMK AO1=
KIKV 081215Z AUTO 33005KT 10SM CLR 21/18 A3011 RMK AO2=
KLRJ 081215Z AUTO 00000KT 10SM CLR 16/15 A3018 RMK AO2=
KMPZ 081215Z AUTO 33006KT 7SM OVC004 22/21 A3006 RMK AO2=
KMUT 081215Z AUTO 35005KT 7SM BKN012 23/22 A3005 RMK AO2=
KMXO 081215Z AUTO 00000KT 7SM BKN019 21/19 A3006 RMK AO2=
KORC 081215Z AUTO 31003KT 10SM CLR 18/18 A3018 RMK AO2=
KOXV 081215Z AUTO 35007KT 10SM CLR 22/20 A3009 RMK AO2=
####018000382####
SAUS99 KWBC 081222 RRA
METAR
KPEA 081215Z AUTO 35004KT 10SM CLR 22/21 A3009 RMK AO2=
KRDK 081215Z AUTO 00000KT 10SM CLR 22/18 A3013 RMK AO2=
KSDA 081215Z AUTO 03004KT 10SM CLR 21/19 A3013 RMK AO2=
KSHL 081215Z AUTO 00000KT 7SM CLR 16/16 A3019 RMK AO2=
KTNU 081215Z AUTO 35007KT 10SM CLR 21/19 A3010 RMK AO2=
KVTI 081215Z AUTO 32005KT 7SM BKN005 21/20 A3008 RMK AO2=
####018000617####
SPUS99 KWBC 081222
SPECI
KDWH 081220Z 06007KT 8SM SCT007 24/24 A2996 RMK AO2=
KMLC 081220Z AUTO 00000KT 10SM FEW009 BKN021 BKN070 24/23 A3005
     RMK AO2=
KSJT 081219Z 04003KT 10SM BKN008 OVC110 22/21 A3005 RMK AO2=
KDMO 081220Z AUTO 19005KT 3SM BR BKN002 OVC006 23/22 A3008 RMK AO2
     CIG 001V005=
KGLD 081220Z AUTO 01004KT 10SM SCT009 OVC014 17/16 A3031 RMK
     AO2=
KHVN 081220Z 12006KT 7SM BKN007 BKN015 OVC026 24/22 A3007 RMK
     AO2=
KOZR 081215Z 00000KT 2SM BR BKN001 23/23 A3004 RMK AO2A VIS 1
     1/2V2 1/2 SLP169=
KOZR 081219Z 00000KT 2SM BR SCT001 23/23 A3004 RMK AO2A=
####018000131####
SAMX51 MMMX 081213
SPECI MMPB 081213Z 17006KT 1/2SM -RA FG  VV001 14/14 A3022 
      RMK 8//// VRBL CONDS=





TX OPMET V1
####018003687####
SAUS70 KWBC 081222
METAR
K4I3 081216Z AUTO 00000KT 7SM CLR 23/20 A3010 RMK AO2=
KACB 081215Z AUTO 00000KT 5SM -RA SCT023 BKN048 OVC075 23/22 A3001
     RMK AO2=
KACQ 081219Z AUTO 30007KT 10SM CLR 17/16 A3015 RMK AO2=
KADC 081217Z AUTO 25004KT 10SM CLR 16/14 A3010 RMK AO2=
KAEL 081211Z AUTO 32005KT 10SM CLR 18/17 A3012 RMK AO2=
KARV 081214Z AUTO 33003KT 10SM CLR 18/16 A3006 RMK AO2
     T01790158=
KAUM 081215Z AUTO 33006KT 10SM CLR 18/17 A3010 RMK AO2=
KBAX 081215Z AUTO 22004KT 10SM CLR 26/23 A3001 RMK AO2=
KBDH 081215Z AUTO 00000KT 10SM CLR 17/15 A3014 RMK AO2=
KCAD 081214Z AUTO 24005KT 5SM -RA OVC090 22/21 A3004 RMK AO2=
KCBG 081215Z AUTO 26004KT 10SM CLR 17/15 A3009 RMK AO2=
KCFE 081215Z AUTO 27005KT 10SM CLR 19/16 A3012 RMK AO2
     T01870160=
KCFS 081215Z AUTO 24003KT 10SM CLR 25/22 A3002 RMK AO2=
KCKC 081215Z AUTO 25004KT 10SM CLR 18/13 A3004 RMK AO2=
KCKN 081215Z AUTO 23003KT 10SM CLR 16/13 A3007 RMK AO2=
KCNB 081218Z AUTO 25006KT 10SM CLR 18/14 A3014 RMK AO2
     T01820137=
KCOQ 081216Z AUTO 27007KT 10SM CLR 17/17 A3006 RMK AO2=
KCQM 081217Z AUTO 24004KT 10SM CLR 17/15 A3004 RMK AO2=
KCVH 081210Z AUTO 00000KT 8SM OVC006 13/11 A2992 RMK AO1=
KDRM 081216Z AUTO 00000KT 3SM DZ BKN016 OVC110 20/20 A2998 RMK
     AO2=
KDTL 081215Z AUTO 24003KT 10SM CLR 17/12 A3011 RMK AO2=
KDUH 081215Z AUTO 00000KT 10SM CLR 27/19 A3004 RMK AO2=
KDXX 081214Z AUTO 00000KT 10SM CLR 17/16 A3011 RMK AO2=
KEFK 081215Z AUTO 21003KT 7SM CLR 25/21 A3007 RMK AO2=
KELO 081213Z AUTO 23004KT 10SM CLR 16/15 A3002 RMK AO2=
KEVM 081212Z AUTO 26004KT 10SM CLR 16/14 A3002 RMK AO1=
KFBL 081214Z AUTO 30003KT 10SM CLR 18/16 A3013 RMK AO2=
KFFX 081215Z AUTO 16003KT 1 3/4SM RA BKN002 BKN021 OVC060 22/22
     A3002 RMK AO2=
KFPK 081216Z AUTO 00000KT 5SM BR CLR 23/21 A3003 RMK AO2=
KFSE 081214Z AUTO 22004KT 10SM CLR 14/12 A3006 RMK AO2=
KFSO 081218Z AUTO 00000KT 7SM CLR 27/23 A3002 RMK AO2=
KGYL 081214Z AUTO 23003KT 10SM CLR 17/15 A3012 RMK AO2
     T01650150=
KHAF 081210Z AUTO 00000KT 8SM OVC006 12/11 A2993 RMK AO2=
KHAI 081215Z AUTO 06003KT 7SM CLR 25/22 A3004 RMK AO2=
KHCD 081212Z AUTO 00000KT 10SM CLR 15/15 A3012 RMK AO2
     T01520145=
KHCO 081214Z AUTO 29004KT 10SM CLR 16/15 A3007 RMK AO2=
KHZX 081211Z AUTO 25004KT 10SM CLR 17/16 A3008 RMK AO2=
KIRS 081215Z AUTO 00000KT 5SM HZ CLR 24/22 A3004 RMK AO2=
KJKJ 081214Z AUTO 00000KT 10SM CLR 16/14 A3008 RMK AO2=
KJMR 081218Z AUTO 29003KT 10SM CLR 17/15 A3010 RMK AO2=
KJYG 081215Z AUTO 00000KT 10SM CLR 18/18 A3015 RMK AO2=
KJYM 081215Z AUTO 00000KT 7SM CLR 24/21 A3007 RMK AO2=
KLJF 081212Z AUTO 27003KT 10SM CLR 18/16 A3012 RMK AO2=
KLVN 081208Z AUTO 27005KT 10SM CLR 18/17 A3011 RMK AO2=
KLWA 081216Z AUTO 00000KT 10SM SCT050 SCT075 OVC095 23/21 A3003
     RMK AO2=
KLXL 081214Z AUTO 00000KT 10SM CLR 15/15 A3008 RMK AO2=
KMDS 081205Z AUTO 27004KT 10SM CLR 17/16 A3018 RMK AO2=
KMGN 081215Z AUTO 26005KT 5SM RA OVC012 22/20 A3000 RMK AO2=
KMJQ 081212Z AUTO 28003KT 7SM CLR 16/15 A3016 RMK AO2=
KMOP 081214Z AUTO 26005KT 10SM OVC110 23/23 A3002 RMK AO2=
KMVE 081214Z AUTO 29003KT 10SM CLR 17/15 A3011 RMK AO2=
KOEB 081215Z AUTO 00000KT 7SM CLR 24/21 A3006 RMK AO2=
KONA 081211Z AUTO 33005KT 10SM CLR 20/17 A3007 RMK AO2=
KOVL 081213Z AUTO 29004KT 10SM CLR 15/14 A3012 RMK AO2
     T01530135=
KOZW 081215Z AUTO 00000KT 7SM CLR 25/21 A3005 RMK AO2=
KPEX 081213Z AUTO 26005KT 10SM CLR 16/15 A3012 RMK AO2
     T01570153=
KRGK 081215Z AUTO 27004KT 10SM CLR 19/17 A3009 RMK AO2=
KRNP 081215Z AUTO 19003KT 10SM CLR 25/21 A3003 RMK AO2=
KROX 081214Z AUTO 23004KT 10SM SCT085 15/13 A3002 RMK AO2=
####018000706####
SAUS80 KWBC 081222
METAR
K3A6 081110Z AUTO 36003KT 11/10 A2988 RMK AO1 SLP138 T01120101
     10130 20110 58009=
K29G 081214Z AUTO 00000KT 7SM CLR 24/19 A3010 RMK AO2 T02420194
     PWINO=
KIKW 081213Z AUTO 27004KT 7SM -RA BKN090 OVC110 23/21 A3002 RMK
     AO2 T02320213=
KLYV 081218Z AUTO 00000KT 10SM CLR 15/13 A3018 RMK AO2=
KROS 081215Z AUTO 00000KT 10SM CLR 17/15 A3009 RMK AO2
     T01710154=
KSYN 081230Z AUTO 30004KT 10SM CLR 19/17 A3010 RMK AO2
     T01860167=
KTKC 081213Z AUTO 25005KT 10SM CLR 17/14 A3015 RMK AO2
     T01720137=
KTKV 081215Z AUTO 32004KT 10SM CLR 19/18 A3005 RMK AO2
     T01860179=
KVTI 081215Z AUTO 32005KT 7SM BKN005 21/20 A3008 RMK AO2=
####018000162####
SPUS80 KWBC 081222 CCA
SPECI
KCRP 081218Z 05008KT 7SM -RA SCT027CB BKN040 OVC075 26/25 A2984
     RMK AO2 TSE18 TS MOV W CB N-NE MOV W CB DSNT W P0001 $=
####018000143####
SAXX60 KWBC 081200 RRM
METAR
KOFF 081155Z COR 34003KT 10SM CLR 20/20 A3014 RMK AO2 SLP196
     T02000200 10216 20195 51011 $ COR 1215=
####018000114####
SPUS70 KWBC 081222 CCA
SPECI
KNSE 081215Z 00000KT 5SM BR FEW250 26/23 A3003 RMK AO2 VIS E AND W
     3 $=
####018000339####
SPXX60 KWBC 081222
SPECI
KNQI 081218Z 02007KT 3SM TSRA BR FEW010 BKN014CB BKN140 BKN280
     27/24 A2983 RMK AO2 RAB16 OCNL LTGICCG VC N-NE TS N-NE MOV W
     CB DSNT S-SW P0001 $=
KOZR 081215Z 00000KT 2SM BR BKN001 23/23 A3004 RMK AO2A VIS 1
     1/2V2 1/2 SLP169=
KOZR 081219Z 00000KT 2SM BR SCT001 23/23 A3004 RMK AO2A=
####018000722####
SPUS70 KWBC 081222
SPECI
KCXO 081219Z VRB04KT 7SM FEW006 24/23 A2997 RMK AO2=
KLEB 081219Z 00000KT 4SM HZ SCT013 26/22 A3007 RMK AO2=
KSMQ 081219Z AUTO 00000KT 4SM BR SCT009 26/23 A3003 RMK AO2=
KSWO 081219Z AUTO 00000KT 6SM BR FEW004 BKN032 23/22 A3005 RMK
     AO2=
KDWH 081220Z 06007KT 8SM SCT007 24/24 A2996 RMK AO2=
KMLC 081220Z AUTO 00000KT 10SM FEW009 BKN021 BKN070 24/23 A3005
     RMK AO2=
KSJT 081219Z 04003KT 10SM BKN008 OVC110 22/21 A3005 RMK AO2=
KDMO 081220Z AUTO 19005KT 3SM BR BKN002 OVC006 23/22 A3008 RMK AO2
     CIG 001V005=
KGLD 081220Z AUTO 01004KT 10SM SCT009 OVC014 17/16 A3031 RMK
     AO2=
KHVN 081220Z 12006KT 7SM BKN007 BKN015 OVC026 24/22 A3007 RMK
     AO2=
####018000103####
SAXX60 KWBC 081222
METAR
KMRT 081213Z AUTO 00000KT 5SM CLR 24/20 A3012 RMK AO2
     T02410201=
####018002803####
SAUS70 KWBC 081222 RRA
METAR
KRQB 081215Z AUTO 00000KT 5SM RA SCT042 BKN065 OVC085 22/21 A3005
     RMK AO2=
KRRT 081214Z AUTO 23006KT 10SM SCT095 15/13 A3002 RMK AO2=
KSAZ 081214Z AUTO 25005KT 10SM CLR 17/17 A3010 RMK AO2=
KSGS 081213Z AUTO 29005KT 10SM CLR 20/16 A3011 RMK AO2
     T02000161=
KSUW 081215Z AUTO 22006KT 10SM CLR 17/15 A3004 RMK AO2=
KTEW 081213Z AUTO 00000KT 7SM CLR 23/21 A3005 RMK AO2=
KTOB 081214Z AUTO 00000KT 10SM CLR 18/17 A3012 RMK AO2=
KUKT 081210Z AUTO 00000KT 5SM CLR 25/22 A3006 RMK AO1=
KUNU 081212Z AUTO 25004KT 4SM BR OVC003 21/20 A3004 RMK AO2
     T02100197=
KVLL 081214Z AUTO 22003KT 10SM CLR 27/20 A3005 RMK AO2=
KVVV 081216Z AUTO 27006KT 10SM CLR 18/14 A3011 RMK AO2=
KY70 081215Z AUTO 25003KT 4SM BR CLR 24/23 A3003 RMK AO2
     T02400225=
KBWD 081215Z AUTO 08004KT 10SM SCT048 23/23 A3004 RMK AO2=
KO22 081215Z AUTO 00000KT 10SM CLR 15/12 A2990 RMK AO1=
KAWG 081215Z AUTO 32007KT 7SM CLR 22/20 A3006 RMK AO2=
KAXA 081215Z AUTO 35004KT 10SM CLR 18/17 A3013 RMK AO2=
KBNW 081215Z AUTO 33015G21KT 10SM CLR 20/17 A3013 RMK AO2=
KCAV 081215Z AUTO 33005KT 10SM CLR 20/18 A3013 RMK AO2=
KCBF 081215Z AUTO 36005KT 7SM CLR 20/15 A3016 RMK AO2=
KCCY 081215Z AUTO 34008KT 10SM CLR 20/17 A3010 RMK AO2=
KCIN 081215Z AUTO 34003KT 10SM CLR 18/15 A3016 RMK AO2=
KCNC 081215Z AUTO 35005KT 10SM SCT005 21/18 A3010 RMK AO2=
KCSQ 081215Z AUTO 02009KT 10SM CLR 21/19 A3012 RMK AO2=
KDEH 081215Z AUTO 34006KT 10SM CLR 21/18 A3010 RMK AO2=
KDNS 081215Z AUTO 01003KT 10SM CLR 20/16 A3018 RMK AO2=
KEOK 081215Z AUTO 00000KT 7SM OVC003 22/19 A3005 RMK AO2=
KFFL 081215Z AUTO 33006KT 7SM CLR 22/20 A3007 RMK AO2=
KFSW 081215Z AUTO 33006KT 5SM OVC002 23/21 A3005 RMK AO2=
KFXY 081215Z AUTO 32004KT 10SM CLR 18/16 A3013 RMK AO2=
KGGI 081215Z AUTO 33004KT 10SM CLR 22/20 A3010 RMK AO2=
KHNR 081215Z AUTO 35003KT 10SM CLR 18/17 A3018 RMK AO2=
KICL 081215Z AUTO 36007KT 10SM CLR 21/18 A3012 RMK AO2=
KIFA 081215Z AUTO 33005KT 10SM SCT110 21/19 A3012 RMK AO2=
KIIB 081215Z AUTO 33006KT 7SM CLR 20/19 A3008 RMK AO1=
KIKV 081215Z AUTO 33005KT 10SM CLR 21/18 A3011 RMK AO2=
KLRJ 081215Z AUTO 00000KT 10SM CLR 16/15 A3018 RMK AO2=
KMPZ 081215Z AUTO 33006KT 7SM OVC004 22/21 A3006 RMK AO2=
KMUT 081215Z AUTO 35005KT 7SM BKN012 23/22 A3005 RMK AO2=
KMXO 081215Z AUTO 00000KT 7SM BKN019 21/19 A3006 RMK AO2=
KORC 081215Z AUTO 31003KT 10SM CLR 18/18 A3018 RMK AO2=
KOXV 081215Z AUTO 35007KT 10SM CLR 22/20 A3009 RMK AO2=
KPEA 081215Z AUTO 35004KT 10SM CLR 22/21 A3009 RMK AO2=
KRDK 081215Z AUTO 00000KT 10SM CLR 22/18 A3013 RMK AO2=
KSDA 081215Z AUTO 03004KT 10SM CLR 21/19 A3013 RMK AO2=
KSHL 081215Z AUTO 00000KT 7SM CLR 16/16 A3019 RMK AO2=
KTNU 081215Z AUTO 35007KT 10SM CLR 21/19 A3010 RMK AO2=
####018000358####
SPUS80 KWBC 081222
SPECI
KCON 081218Z AUTO 16005KT 3SM BR OVC006 24/22 A3009 RMK AO2=
KCRP 081218Z 05008KT 7SM -RA SCT027CB BKN040 OVC075 26/25 A2984
     RMK AO2 TSE18 TS MOV W CB N-NE MOV W CB DSNT W P0001 $=
KOXR 081219Z AUTO 29007KT 10SM OVC009 15/12 A2991 RMK AO2 $=
KNAK 081219Z AUTO 00000KT 3SM HZ CLR 27/23 A3001 RMK AO2 TSNO
     $=
####018000108####
SAAW33 KWBC 081200 RRE
METAR
OOSA 081200Z 16008KT 8000 FEW008 SMT012 BKN020 28/23 Q1002
     NOSIG=
####018000580####
SABZ41 KWBC 081200 RRA
METAR
SBAA 081200Z 10002KT CAVOK 25/19 Q1016=
SBAF 081200Z 00000KT 4000 HZ FEW030 23/15 Q1018=
SBBG 081200Z NIL=
SBBH 081200Z 08006KT CAVOK 17/11 Q1024=
SBBI 081200Z 14001KT CAVOK 16/13 Q1022=
SBBU 081200Z 06004KT CAVOK 19/10 Q1021=
SBCO 081200Z 22005KT 3000 -RA SCT010 OVC015 15/14 Q1020=
SBCV 081200Z NIL=
SBDN 081200Z 06009KT CAVOK 22/08 Q1019=
SBGW 081200Z 00000KT CAVOK 13/11 Q1021=
SBHT 081200Z 09007KT CAVOK ///// Q1014=
SBIH 081200Z 00000KT 9999 FEW010 29/25 Q1013=
SBIL 081200Z 24008KT 9999 SCT025 BKN070 25/21 Q1019=
####018000493####
SABZ42 KWBC 081200 RRB
METAR
SBJR 081200Z 36004KT CAVOK 25/15 Q1018=
SBME 081200Z 03005KT CAVOK 24/18 Q1019=
SBMT 081200Z 00000KT CAVOK 18/11 Q1022=
SBPC 081200Z 09002KT CAVOK 12/08 Q1025=
SBPK 081200Z NIL=
SBSM 081200Z 25002KT 9999 FEW007 BKN010 BKN015 09/08 Q1022=
SBST 081200Z 00000KT CAVOK 25/10 Q1018=
SBTU 081200Z 07007KT CAVOK 25/25 Q1017=
SBUR 081200Z 03006KT CAVOK 19/07 Q1022=
SBVH 081200Z 03004KT CAVOK 25/18 Q1018=
SBYS 081200Z 00000KT CAVOK 14/10 Q1022=
####018000075####
SABZ42 KWBC 081100 RRC
METAR
SBSC 081100Z 02008KT CAVOK 21/13 Q1018=
####018000943####
SABZ43 KWBC 081200 RRA
METAR
SBAN 081200Z 07008KT CAVOK 20/13 Q1023=
SBAT 081200Z 13002KT CAVOK 22/17 Q1015=
SBBA 081200Z NIL=
SBBQ 081200Z 34004KT CAVOK 18/10 Q1026=
SBBW 081200Z 20002KT CAVOK 23/15 Q1019=
SBCC 081200Z 12010KT CAVOK 26/17 Q1017=
SBES 081200Z 03004KT CAVOK 21/16 Q1019=
SBGA 081200Z NIL=
SBIZ 081200Z 12002KT CAVOK 27/20 Q1015=
SBJF 081200Z 04007KT CAVOK 19/09 Q1023=
SBKG 081200Z 18008KT 9999 BKN018 SCT100 23/20 Q1018=
SBLB 081200Z NIL=
SBLP 081200Z 18004KT CAVOK 24/14 Q1020=
SBMK 081200Z 16002KT CAVOK 20/14 Q1023=
SBMS 081200Z 13005KT 9999 SCT025 SCT100 31/20 Q1015=
SBMZ 081200Z NIL=
SBPJ 081200Z 20006KT CAVOK 24/15 Q1017=
SBPN 081200Z 18008KT CAVOK 25/14 Q1016=
SBQV 081200Z 13008KT 3000 BR BKN005 BKN008 18/18 Q1024=
SBTK 081200Z 00000KT 5000 BR NSC 23/23 Q1013=
SBUF 081200Z 13008KT 9999 SCT015 26/21 Q1019=
SBUI 081200Z NIL=
SBUL 081200Z 05008KT CAVOK 19/08 Q1023=
####018000095####
SAMM31 KWBC 081200 RRA
METAR
LMML 081215Z 06008KT 360V100 9999 FEW022 30/22 Q1018 NOSIG=
####018000112####
SAMX42 KWBC 081245
METAR
MMZH 081212Z RTD 00000KT 7SM SCT040 BKN100 OVC 250 25/20 A2978 RMK
     8/367=
####018001393####
SACO20 SKBO 081200
METAR
SKAR 081200Z NIL=
SKBG 081200Z 00000KT 9999 FEW012 SCT080 19/18 A3004=
SKBO 081200Z VRB02KT 8000 FEW015 BKN070 12/11 A3032=
SKBQ 081200Z 00000KT 3000 BR BKN005 26/26 A2990=
SKCC 081200Z 00000KT 9999 SCT018 SCT090 24/22 A2999=
SKCG 081200Z 10004KT 9999 -DZ SCT012 SCT070 27/25 A2987=
SKCL 081200Z 08003KT 9999 SCT017 BKN090 20/19 A3002=
SKEJ 081200Z 15004KT 9999 VCFG BKN015 25/24 A2990=
SKIB 081200Z NIL=
SKIP 081200Z 00000KT 7000 VCFG BKN016 SCT070 10/10 A3039=
SKLC 081200Z 00000KT 9999 FEW015 SCT200 24/23 A2989=
SKLT 081200Z 00000KT 9999 FEW015 BKN070 24/24 A2989=
SKMD 081200Z 00000KT 6000 BKN030 BKN080 18/16 A3009=
SKMR 081200Z 00000KT 9999 FEW017 BKN090 25/24 A2986=
SKMZ 081200Z NIL=
SKNV 081200Z 00000KT 9999 -DZ SCT007 BKN090 24/23 A2994=
SKPC 081200Z NIL=
SKPE 081200Z 00000KT 9999 FEW017 SCT090 19/16 A3011=
SKPS 081200Z 00000KT 5000N 9999S -DZ VCFG BKN020 16/15 A3018=
SKPV 081200Z NIL=
SKRG 081200Z 00000KT 3500 BR BKN005 SCT080 14/14 A3028=
SKRH 081200Z 14008KT 9999 TSRA FEW020CB OVC090 23/22 A2990=
SKSM 081200Z 00000KT 9999 SCT017 OVC070 26/24 A2986=
SKSP 081200Z 09005KT 9999 FEW015 28/25 A2984=
SKUC 081200Z NIL=
SKUI 081200Z 00000KT 3000 BR BKN006 BKN070 24/24 A2987=
SKVP 081200Z 04008KT 8000 VCSH SCT012 BKN080 24/23 A2996=
SKVV 081200Z 00000KT 9999 SCT023 BKN080 22/21 A2996=
NNNN
####018000125####
SAPA31 KWBC 081200 RRB
METAR
PKWA 081220Z AUTO 08010KT 10SM SCT016 SCT022 OVC055 26/23 A2985
     RMK AO2 T02580232=
####018000087####
SASA31 KWBC 081200 RRC
METAR
SPIM 081200Z 18003KT 6000 OVC022 16/13 Q1013 NOSIG=
####018000125####
SAXX62 KWBC 081200 RRB
METAR
PKWA 081220Z AUTO 08010KT 10SM SCT016 SCT022 OVC055 26/23 A2985
     RMK AO2 T02580232=
####018000222####
SAXX99 KWBC 081200 RRQ
METAR
DAUI 081200Z 07024KT 6000 DRSA NSC 45/07 Q1013=
EGVP 081150Z 19007KT 9999 BKN016 BKN280 21/15 Q1018 WHT BECMG
     SCT025 BLU=
EYKA 081220Z 29010KT 250V330 9999 OVC032 16/16 Q1017=
####018001547####
SASA KAWN 081200 RRG
METAR SBAA 081200Z 10002KT CAVOK 25/19 Q1016=
METAR SBAF 081200Z 00000KT 4000 HZ FEW030 23/15 Q1018=
METAR SBAN 081200Z 07008KT CAVOK 20/13 Q1023=
METAR SBAT 081200Z 13002KT CAVOK 22/17 Q1015=
METAR SBBH 081200Z 08006KT CAVOK 17/11 Q1024=
METAR SBBI 081200Z 14001KT CAVOK 16/13 Q1022=
METAR SBBQ 081200Z 34004KT CAVOK 18/10 Q1026=
METAR SBBU 081200Z 06004KT CAVOK 19/10 Q1021=
METAR SBCC 081200Z 12010KT CAVOK 26/17 Q1017=
METAR SBCO 081200Z 22005KT 3000 -RA SCT010 OVC015 15/14 Q1020=
METAR SBDN 081200Z 06009KT CAVOK 22/08 Q1019=
METAR SBEK 081200Z 00000KT CAVOK 27/26 Q1013=
METAR SBGW 081200Z 00000KT CAVOK 13/11 Q1021=
METAR SBHT 081200Z 09007KT CAVOK ///// Q1014=
METAR SBIH 081200Z 00000KT 9999 FEW010 29/25 Q1013=
METAR SBIL 081200Z 24008KT 9999 SCT025 BKN070 25/21 Q1019=
METAR SBIZ 081200Z 12002KT CAVOK 27/20 Q1015=
METAR SBJF 081200Z 04007KT CAVOK 19/09 Q1023=
METAR SBJR 081200Z 36004KT CAVOK 25/15 Q1018=
METAR SBME 081200Z 03005KT CAVOK 24/18 Q1019=
METAR SBMS 081200Z 13005KT 9999 SCT025 SCT100 31/20 Q1015=
METAR SBMT 081200Z 00000KT CAVOK 18/11 Q1022=
METAR SBSM 081200Z 25002KT 9999 FEW007 BKN010 BKN015 09/08 Q1022=
METAR SBST 081200Z 00000KT CAVOK 25/10 Q1018=
METAR SBTK 081200Z 00000KT 5000 BR NSC 23/23 Q1013=
METAR SBTU 081200Z 07007KT CAVOK 25/25 Q1017=
METAR SBUL 081200Z 05008KT CAVOK 19/08 Q1023=
METAR SBUR 081200Z 03006KT CAVOK 19/07 Q1022=
METAR SBVH 081200Z 03004KT CAVOK 25/18 Q1018=
METAR SBYS 081200Z 00000KT CAVOK 14/10 Q1022=
####018000084####
SPUS51 KWBC 081222
SPECI
KSMQ 081219Z AUTO 00000KT 4SM BR SCT009 26/23 A3003=
####018000083####
SACN92 CWAO 081100 RRH
WKD SA 1100 AUTO7 M M M 170/16/16/MMMM/M/ 0001 49MM=

####018000083####
SACN63 CWAO 081200 RRC
ZEV SA 1200 AUTO8 M M M 186/06/03/3205/M/ 3005 22MM=

####018000103####
SACN94 CWAO 081200 RRC
WRU SA 1200 AUTO8 M M M 153/14/12/3616/M/ PK WND 3421 1106Z 0000
03MM=

####018000079####
SACN91 CWAO 081200 RRC
WIX SA 1200 AUTO7 M M M M/25/22/0103/M/M M 63MM=

####018000103####
SACN87 CWAO 081200 RRA
WRO SA 1200 AUTO8 M M M 190/12/11/2713/M/ PK WND 2818 1117Z 1003
42MM=

####018000083####
SACN95 CWAO 081200 RRC
WWN SA 1200 AUTO8 M M M 089/17/15/1805/M/ 8009 31MM=

####018000163####
SACN96 CWAO 081200 RRC
XBD SA 1200 AUTO8 M M M 166/11/10/1201/M/ 3003 25MM=
XKA SA 1200 AUTO8 M M M 124/17/16/3104/M/0011 PCPN 1.1MM PAST HR
3006 99MM=

####018000077####
SACN89 CWAO 081100 RRF
WDP SA 1100 AUTO7 M M M M/16/M/MMMM/M/ M 3MMM=

####018000078####
SACN59 CWAO 081200 RRC
XSC SA 1200 AUTO8 M M M M/11/09/2606/M/ M 33MM=

####018000139####
SACN88 CWAO 081200 RRC
ABR SA 1200 AUTO7 M M M 216/21/19/2105/M/ 3007 87MM=
WDO SA 1200 AUTO8 M M M 204/12/10/1906/M/M 6005 73MM=

####018000138####
SACN92 CWAO 081200 RRC
WJU SA 1200 AUTO8 M M M 201/12/10/2709/M/ 1002 94MM=
WJW SA 1200 AUTO8 M M M 226/05/04/2102/M/ 1008 01MM=

####018000097####
SACN48 CWAO 081200 RRC
METAR CYBX 081200Z 10002KT 15SM OVC030 12/10 A3007 RMK SC8 SLP186=

####018000534####
SACN98 CWAO 081200 RRC
XAF SA 1200 AUTO8 M M M M/15/13/3405/M/0006 M 35MM=
XBR SA 1200 AUTO8 M M M M/10/07/3010/M/ M 00MM=
XFR SA 1200 AUTO8 M M M M/13/11/2104/M/0033 M 50MM=
XHR SA 1200 AUTO8 M M M M/12/09/2308/M/ M 43MM=
XKM SA 1200 AUTO8 M M M M/11/09/2207/M/ M 77MM=
XOY SA 1200 AUTO8 M M M M/11/09/2507/M/ M 97MM=
XRB SA 1200 AUTO8 M M M 084/08/04/1408/M/ 8003 01MM=
XRL SA 1200 AUTO8 M M M M/13/11/2705/M/0010 PCPN 1.0MM PAST HR PK
WND 3018 1121Z M 93MM=
ZZJ SA 1200 AUTO8 M M M M/07/04/MMMM/M/ M 69MM=

####018000269####
SACN97 CWAO 081200 RRC
XDE SA 1200 AUTO8 M M M 147/11/10/MMMM/M/M 5005 85MM=
XMM SA 1200 AUTO8 M M M M/12/10/MMMM/M/ M 65MM=
XQA SA 1200 AUTO8 M M M 126/07/07/MMMM/M/0023 PCPN 0.6MM PAST HR
3002 66MM=
XVG SA 1200 AUTO8 M M M 162/12/08/2203/M/ 5003 53MM=

####018000168####
SASB31 VCCC 081210
VCBI 081210Z 23004KT 9000 -SHRA SCT016 FEW019CB OVC100 28/25 
    Q1009 NOSIG=
VRMM 081200Z 36011KT 9999 FEW018TCU BKN110 28/24 Q1009 NOSIG=
####018000110####
SALT31 EYVI 081220
METAR EYVI 081220Z 28011KT 250V320 2600 SHRA BKN006 OVC012CB 15/14
     Q1015 NOSIG=
####018000196####
SATU20 LTAA 081150 RRA
METAR LTAU 081220Z VRB05KT 9999 SCT040 34/12 Q1009 NOSIG RMK RWY07
VRB06KT=
METAR LTBU 081220Z 31010KT 9999 SCT030 BKN100 18/14 Q1013 RESHRA RMK 
RWY23
33011KT=
####018000124####
SAMP31 LMMM 081230
METAR HLLT NIL=
METAR HLLB NIL=
METAR LMML 081215Z 06008KT 360V100 9999 FEW022 30/22 Q1018 NOSIG =
####018001135####
SABZ01 SBBR 081200
METAR SBBE 081200Z 10008KT 9999 FEW013 SCT100 29/23 Q1014=
METAR SBBR 081200Z 01004KT CAVOK 19/09 Q1024=
METAR SBBV 081200Z 28005KT 9999 SCT020 SCT070 27/23 Q1013=
METAR SBCF 081200Z 21003KT CAVOK 13/09 Q1024=
METAR SBCG 081200Z 07015KT CAVOK 22/08 Q1017=
METAR SBCR 081200Z 12006KT CAVOK 26/11 Q1014=
METAR SBCT 081200Z 02004KT CAVOK 15/12 Q1022=
METAR SBEG 081200Z 00000KT 9999 FEW015 SCT100 26/22 Q1012=
METAR SBFI 081200Z 22004KT 9999 FEW004 SCT100 17/15 Q1017=
METAR SBFL 081200Z 17007KT CAVOK 21/16 Q1018=
METAR SBFZ 081200Z 14009KT 9999 FEW018 BKN090 27/20 Q1015=
METAR SBGR 081200Z 04003KT CAVOK 19/09 Q1023=
METAR SBKP 081200Z 09003KT 8000 NSC 17/10 Q1022=
METAR SBLO 081200Z 22002KT CAVOK 17/13 Q1021=
METAR SBMQ 081200Z 03001KT 9999 SCT020 30/27 Q1014=
METAR SBPA 081200Z 20004KT 4000 -RA BR BKN010 OVC020 15/13 Q1020=
METAR SBPP 081200Z 00000KT CAVOK 23/10 Q1018=
METAR SBRB 081200Z 02004KT CAVOK 26/24 Q1013=
METAR SBSJ 081200Z 00000KT CAVOK 13/11 Q1022=
METAR SBSL 081200Z 09010KT 9999 SCT017 29/25 Q1014=
METAR SBSN 081200Z 06008KT 9999 SCT015 28/25 Q1013=
####018000106####
SPAU31 AMMC 081222
SPECI YPPD 081222Z AUTO 03008KT 2800NDV // BKN013 BKN023 OVC034 21/21 Q1010=


####018000100####
SPAU31 AMMC 081222
SPECI YPPD 081222Z AUTO 03008KT 2800NDV // BKN013 BKN023 OVC034 21/21 Q1010=
####018000093####
SAMG20 FMMI 081200 CCA
METAR 081200Z
METAR COR FMNM 081200Z 16008KT CAVOK 31/13 Q1015=
####018000082####
SPUS81 KWBC 081222
SPECI
KOXR 081219Z AUTO 29007KT 10SM OVC009 15/12 A2991=
####018000604####
SAXX70 KAWN 081200 RRO
METAR KQFU 081200Z AUTO 01001KT 7SM OVC035 23/19 A2993 RMK A02=
METAR KQEI 081220Z AUTO 13001KT 5SM -SHRA BKN080 23/19 A2996 RMK A02=
METAR KQEN 081220Z AUTO 26004KT 7SM FEW080 SCT110 19/16 A3042 RMK A02=
METAR KQEP 081220Z AUTO 00000KT 7SM -SHRA BKN085 22/19 A2989 RMK A02=
METAR KQER 081220Z AUTO 05002KT 2SM -SHRA BR FEW033 BKN100 21/19 A2990
      RMK A02=
METAR KQES 081220Z AUTO 29008KT 3SM -RA OVC060 20/17 A2989 RMK A02=
METAR KQEY 081220Z AUTO 32003KT 7SM SCT100 25/18 A2962 RMK A02=
METAR KQEV 081230Z AUTO 20004KT 7SM -RA OVC070 24/18 A2981 RMK A02=
####018001665####
SPZZ40 KAWN 081222 RRD
SPECI CYEL 081218Z 18004KT 1/2SM FG VV002 RMK FG8 WNDS ESTD=
SPECI CYOY 081218Z AUTO 16003KT 090V190 9SM OVC010 21/17 A3001=
SPECI CYOY 081219Z AUTO 17003KT 090V190 9SM OVC009 21/17 A3001=
SPECI CYUA 081217Z AUTO 23006KT 3SM -DZ BKN011 OVC031 05/ A3007=
SPECI CYUS 081216Z AUTO ///// 9SM CLR 12/ A2979=
SPECI CYYY 081217Z 35005KT 5SM BR BKN005 OVC015 RMK SF6SC2=
SPECI EGQL 081214Z /M/B/ /=
SPECI EGUN 081217Z 28009KT 9999 BKN032 22/17 A3006 RMK AO2A SLP170
      BLU=
SPECI EKKA 081216Z 19008KT 7000 -SHRA FEW009 FEW018TCU BKN030 18/17
      Q1018 TEMPO 4000 SHRA SCT020CB=
SPECI KCEF 081214Z COR 11002KT 5SM BR BKN010 BKN015 OVC080 24/22 A3007
      RMK AO2A SLP183 PWINO $ COR 1216=
SPECI KFRI 081219Z AUTO 35006KT 8SM FEW007 22/21 A3011 RMK AO2 SLP184=
SPECI KGRK 081217Z 06005KT 7SM -SHRA FEW008 BKN022 BKN029 26/24 A3000=
SPECI KMGE 081211Z AUTO 00000KT 10SM -DZ CLR 25/20 A3007 RMK AO2 DZB1211
      SLP169 $=
SPECI KOZR 081219Z 00000KT 2SM BR SCT001 23/23 A3004 RMK AO2A=
SPECI PAED 081219Z AUTO 00000KT 10SM FEW065 BKN085 12/11 A2998 RMK
      AO2 RAB1208E1209DZB1209E1219 SLP152 $=
SPECI RJCC 081214Z 16004KT 1100 R19R/1400VP1800D R01R/1100N -DZ BR
      BKN002 17/17 Q1010 RMK 7ST002 A2985=
SPECI RJCC 081217Z 16004KT 1000 R19R/1700D R01R/1100N DZ BKN002 17/17
      Q1010 RMK 7ST002 A2985=
SPECI RJNH 081209Z 09004KT 9999 FEW006 BKN020 BKN/// 25/23 Q1010 RMK
      2CU006 5CU020 A2983 2CU006 SE-S=
SPECI RKJK 081216Z 11008KT 3200 R36/0900V1000 HZ BKN110 BKN130 24/21
      A2979 RMK AO2A DZE1156 SLP087 $=
SPECI SARI 081215Z 24005KT 0500 BCFG BKN002 SCT100 17/17 Q1020=
####018000089####
SPCN47 CWAO 081221
SPECI CYMO 081221Z AUTO 31008KT 9SM FEW030 OVC090 19/17 A2987=

####018000111####
SAMO31 ZMUB 081230
METAR ZMUB 081230Z 15010MPS 9999 SCT030CB SCT033 15/11 Q1007 NOSIG 
 RMK QFE648.8 76=
####018000212####
SAUS20 KNKA 081222
METAR KUKF 081221Z AUTO 00000KT 5SM CLR 23/19 A3009 RMK AO1=
METAR KVWU 081211Z AUTO 26007KT 10SM CLR 18/14 A3003 RMK AO2=
METAR KXVG 081216Z AUTO 00000KT 10SM CLR 17/16 A3005 RMK AO2=
####018002952####
SAUS20 KNKA 081222
METAR K3J7 081219Z AUTO 00000KT 10SM CLR 26/22 A3001 RMK AO2=
METAR KAMN 081216Z AUTO 23003KT 5SM BR SCT085 BKN110 23/22 A3002
     RMK AO2=
METAR KAQP 081213Z AUTO 24003KT 10SM CLR 16/16 A3011 RMK AO2=
SPECI KASD 081221Z AUTO 02003KT 6SM BR BKN001 25/24 A3003 RMK AO2=
METAR KASJ 081217Z AUTO 02004KT 4SM HZ CLR 27/23 A3000 RMK AO2=
METAR KBFW 081213Z AUTO 00000KT 10SM CLR 20/15 A3001 RMK AO2=
METAR KCDA 081215Z AUTO 11003KT 5SM HZ CLR 24/20 A3010 RMK AO2=
METAR KCDD 081211Z AUTO 20004KT 10SM CLR 19/18 A3003 RMK AO2=
METAR KCTZ 081220Z AUTO 01005KT 5SM HZ CLR 27/21 A2996 RMK AO2=
METAR KCVX 081215Z AUTO 24006KT 7SM -RA SCT009 BKN013 OVC026 21/20
     A3002 RMK AO2=
METAR KCWV 081229Z AUTO 27004KT 10SM CLR 26/23 A3001 RMK AO2=
METAR KDVP 081216Z AUTO 27004KT 10SM CLR 17/14 A3018 RMK AO2
     T01690135=
METAR KEBS 081215Z AUTO 34006KT 10SM CLR 18/17 A3013 RMK AO2=
METAR KERY 081216Z AUTO 31003KT 10SM -RA OVC003 18/18 A3000 RMK
     AO2=
METAR KETH 081214Z AUTO 24007KT 10SM CLR 18/15 A3010 RMK AO2=
METAR KFKA 081223Z AUTO 32008KT 10SM CLR 19/18 A3011 RMK AO2
     T01900175=
METAR KFKS 081215Z AUTO 19004KT 3SM -DZ OVC004 21/20 A3001 RMK
     AO2=
METAR KFOZ 081213Z AUTO 23005KT 10SM CLR 16/14 A3005 RMK AO2=
METAR KFQD 081219Z AUTO 31003KT 10SM SCT100 24/18 A3006 RMK AO2=
METAR KGOV 081215Z AUTO 00000KT 7SM RA BKN070 OVC080 22/22 A3003
     RMK AO2=
SPECI KHTS 081221Z 00000KT 2SM BR CLR 24/22 A3010 RMK AO2=
METAR KHYX 081215Z AUTO 00000KT 10SM BKN120 24/21 A3001 RMK
     AO2=
METAR KISQ 081216Z AUTO 33004KT 10SM BKN002 OVC065 19/18 A2999 RMK
     AO2=
SPECI KLAA 081221Z AUTO 11008KT 10SM -RA SCT005 BKN016 OVC100 17/16 
    A3026 RMK AO2 P0000=
METAR KLDM 081216Z AUTO 22005KT 5SM RA OVC007 21/20 A3002 RMK AO2
     P0002=
SPECI KMAI 081221Z AUTO 32003KT 3SM BR SCT001 24/23 A3003 RMK AO2=
METAR KMCD 081216Z AUTO 25003KT 2 1/2SM HZ OVC005 21/18 A3000 RMK
     AO2=
METAR KMQI 081216Z AUTO 06008KT 10SM CLR 27/23 A2996 RMK AO2=
METAR KMZH 081211Z AUTO 00000KT 10SM CLR 16/15 A3005 RMK AO2=
METAR KONZ 081217Z AUTO 00000KT 10SM CLR 27/21 A3002 RMK AO2=
METAR KORB 081214Z AUTO 27003KT 10SM CLR 16/13 A3001 RMK AO2=
METAR KOSC 081214Z AUTO 18003KT 7SM SCT015 SCT075 SCT100 23/21
     A2999 RMK AO2=
METAR KOWA 081213Z AUTO 30003KT 10SM CLR 17/16 A3011 RMK AO2=
METAR KPHN 081216Z AUTO 19003KT 10SM CLR 25/21 A3002 RMK AO2=
METAR KPZQ 081215Z AUTO 24003KT 10SM -DZ OVC100 23/21 A3000 RMK
     AO2=
METAR KRMY 081215Z AUTO 00000KT 7SM CLR 23/21 A3005 RMK AO2=
METAR KSJX 081216Z AUTO 25007KT 3/4SM BR OVC002 19/18 A2999 RMK
     AO2=
METAR KSLH 081215Z AUTO 26006KT 7SM -RA OVC009 22/21 A2999 RMK
     AO2=
METAR KTTF 081213Z AUTO 00000KT 10SM CLR 26/22 A3003 RMK AO2=
METAR KTVK 081215Z AUTO 35004KT 10SM FEW005 20/20 A3010 RMK AO2=
SPECI KTXK 081222Z 00000KT 1 1/2SM BR OVC001 23/23 A3006 RMK AO2=
####018000364####
SPUS99 KWBC 081223
SPECI
KASD 081221Z AUTO 02003KT 6SM BR BKN001 25/24 A3003 RMK AO2=
KHTS 081221Z 00000KT 2SM BR CLR 24/22 A3010 RMK AO2=
KLAA 081221Z AUTO 11008KT 10SM -RA SCT005 BKN016 OVC100 17/16
     A3026 RMK AO2 P0000=
KMAI 081221Z AUTO 32003KT 3SM BR SCT001 24/23 A3003 RMK AO2=
KTXK 081222Z 00000KT 1 1/2SM BR OVC001 23/23 A3006 RMK AO2=
####018002510####
SAUS99 KWBC 081223
METAR
K3J7 081219Z AUTO 00000KT 10SM CLR 26/22 A3001 RMK AO2=
KAMN 081216Z AUTO 23003KT 5SM BR SCT085 BKN110 23/22 A3002 RMK
     AO2=
KAQP 081213Z AUTO 24003KT 10SM CLR 16/16 A3011 RMK AO2=
KASJ 081217Z AUTO 02004KT 4SM HZ CLR 27/23 A3000 RMK AO2=
KBFW 081213Z AUTO 00000KT 10SM CLR 20/15 A3001 RMK AO2=
KCDA 081215Z AUTO 11003KT 5SM HZ CLR 24/20 A3010 RMK AO2=
KCDD 081211Z AUTO 20004KT 10SM CLR 19/18 A3003 RMK AO2=
KCTZ 081220Z AUTO 01005KT 5SM HZ CLR 27/21 A2996 RMK AO2=
KCVX 081215Z AUTO 24006KT 7SM -RA SCT009 BKN013 OVC026 21/20 A3002
     RMK AO2=
KCWV 081229Z AUTO 27004KT 10SM CLR 26/23 A3001 RMK AO2=
KDVP 081216Z AUTO 27004KT 10SM CLR 17/14 A3018 RMK AO2
     T01690135=
KEBS 081215Z AUTO 34006KT 10SM CLR 18/17 A3013 RMK AO2=
KERY 081216Z AUTO 31003KT 10SM -RA OVC003 18/18 A3000 RMK AO2=
KETH 081214Z AUTO 24007KT 10SM CLR 18/15 A3010 RMK AO2=
KFKA 081223Z AUTO 32008KT 10SM CLR 19/18 A3011 RMK AO2
     T01900175=
KFKS 081215Z AUTO 19004KT 3SM -DZ OVC004 21/20 A3001 RMK AO2=
KFOZ 081213Z AUTO 23005KT 10SM CLR 16/14 A3005 RMK AO2=
KFQD 081219Z AUTO 31003KT 10SM SCT100 24/18 A3006 RMK AO2=
KGOV 081215Z AUTO 00000KT 7SM RA BKN070 OVC080 22/22 A3003 RMK
     AO2=
KHYX 081215Z AUTO 00000KT 10SM BKN120 24/21 A3001 RMK AO2=
KISQ 081216Z AUTO 33004KT 10SM BKN002 OVC065 19/18 A2999 RMK
     AO2=
KLDM 081216Z AUTO 22005KT 5SM RA OVC007 21/20 A3002 RMK AO2
     P0002=
KMCD 081216Z AUTO 25003KT 2 1/2SM HZ OVC005 21/18 A3000 RMK
     AO2=
KMQI 081216Z AUTO 06008KT 10SM CLR 27/23 A2996 RMK AO2=
KMZH 081211Z AUTO 00000KT 10SM CLR 16/15 A3005 RMK AO2=
KONZ 081217Z AUTO 00000KT 10SM CLR 27/21 A3002 RMK AO2=
KORB 081214Z AUTO 27003KT 10SM CLR 16/13 A3001 RMK AO2=
KOSC 081214Z AUTO 18003KT 7SM SCT015 SCT075 SCT100 23/21 A2999 RMK
     AO2=
KOWA 081213Z AUTO 30003KT 10SM CLR 17/16 A3011 RMK AO2=
KPHN 081216Z AUTO 19003KT 10SM CLR 25/21 A3002 RMK AO2=
KPZQ 081215Z AUTO 24003KT 10SM -DZ OVC100 23/21 A3000 RMK AO2=
KRMY 081215Z AUTO 00000KT 7SM CLR 23/21 A3005 RMK AO2=
KSJX 081216Z AUTO 25007KT 3/4SM BR OVC002 19/18 A2999 RMK AO2=
KSLH 081215Z AUTO 26006KT 7SM -RA OVC009 22/21 A2999 RMK AO2=
KTTF 081213Z AUTO 00000KT 10SM CLR 26/22 A3003 RMK AO2=
KTVK 081215Z AUTO 35004KT 10SM FEW005 20/20 A3010 RMK AO2=
KUKF 081221Z AUTO 00000KT 5SM CLR 23/19 A3009 RMK AO1=
KVWU 081211Z AUTO 26007KT 10SM CLR 18/14 A3003 RMK AO2=
KXVG 081216Z AUTO 00000KT 10SM CLR 17/16 A3005 RMK AO2=
####018000203####
SASW31 LSSW 081220
METAR LSZH 081220Z VRB03KT CAVOK 28/13 Q1022 NOSIG=
METAR LSGG 081220Z 21007KT 150V270 9999 FEW080 SCT300 31/12 Q1021
    NOSIG=
METAR LSZB 081220Z NIL=
METAR LSZA 081220Z NIL=
####018000106####
SALV32 EVRA 081220
METAR EVLA 081222Z NIL=
METAR EVVA 081220Z AUTO 33011KT 300V360 CAVOK 22/16 Q1018=
####018000076####
SAAF18 LFPW 081200 CCA
METAR COR FMNM 081200Z 16008KT CAVOK 31/13 Q1015=
####018000091####
SAMG20 FMMI 081200 CCA
METAR 081200Z
METAR COR FMNM 081200Z 16008KT CAVOK 31/13 Q1015=
####018000080####
SALV32 EVRA 081220 RRD
METAR EVLA 081220Z 30006KT 270V340 CAVOK 22/15 Q1018=
####018000101####
SPAU32 YBBN 081222
SPECI YPPD 081222Z AUTO 03008KT 2800NDV // BKN013 BKN023 OVC034 21/21
Q1010=
####018000080####
SALV32 EVRA 081220 RRB
METAR EVLA 081220Z 30006KT 270V340 CAVOK 22/15 Q1018=
####018000080####
SALV32 EVRA 081220 RRA
METAR EVLA 081220Z 30006KT 270V340 CAVOK 22/15 Q1018=
####018000080####
SAQB31 LQBK 081230
METAR LQBK 081230Z 27006KT 9999 FEW040 24/11 Q1022 NOSIG=
####018000080####
SALV32 EVRA 081220 RRC
METAR EVLA 081220Z 30006KT 270V340 CAVOK 22/15 Q1018=
####018000089####
SPAK31 KWBC 081223
SPECI
PAED 081219Z AUTO 00000KT 10SM FEW065 BKN085 12/11 A2998=
####018000104####
SPAU31 KWBC 081223
SPECI
YPPD 081222Z AUTO 03008KT 2800NDV // BKN013 BKN023 OVC034 21/21
Q1010=
####018000127####
SPDN31 KWBC 081223
SPECI
EKKA 081216Z 19008KT 7000 -SHRA FEW009 FEW018TCU BKN030 18/17
Q1018 TEMPO 4000 SHRA SCT020CB=
####018000131####
SPJP31 KWBC 081223
SPECI
RJCC 081214Z 16004KT 1100 R19R/1400VP1800D R01R/1100N -DZ BR
BKN002 17/17 Q1010 RMK 7ST002 A2985=
####018000121####
SPJP31 KWBC 081223
SPECI
RJCC 081217Z 16004KT 1000 R19R/1700D R01R/1100N DZ BKN002 17/17
Q1010 RMK 7ST002 A2985=
####018000129####
SPJP43 KWBC 081223
SPECI
RJNH 081209Z 09004KT 9999 FEW006 BKN020 BKN/// 25/23 Q1010 RMK
2CU006 5CU020 A2983 2CU006 SE-S=
####018000053####
SPUK42 KWBC 081223
SPECI
EGQL 081214Z /M/B/ /=
####018000097####
SPXX61 KWBC 081223
SPECI
EGUN 081217Z 28009KT 9999 BKN032 22/17 A3006 RMK AO2A SLP170 BLU=
####018000129####
SPXX62 KWBC 081223
SPECI
RKJK 081216Z 11008KT 3200 R36/0900V1000 HZ BKN110 BKN130 24/21
A2979 RMK AO2A DZE1156 SLP087 $=
####018000090####
SPUS41 KWBC 081223
SPECI
KHVN 081220Z 12006KT 7SM BKN007 BKN015 OVC026 24/22 A3007=
####018000096####
SPUS52 KWBC 081223
SPECI
KMLC 081220Z AUTO 00000KT 10SM FEW009 BKN021 BKN070 24/23 A3005=
####018000107####
SAUS44 KEWX 081223
MTRATT
SPECI KATT 081221Z AUTO VRB04KT 8SM SCT007 OVC022 25/23 A2998 RMK 
AO2 $
####018000089####
SPUS53 KWBC 081223
SPECI
KGLD 081220Z AUTO 01004KT 10SM SCT009 OVC014 17/16 A3031=
####018000094####
SAAM31 FCBB 081200 RRB
METAR FCBB 081200Z 23007KT 190V280 6000  BKN022 26/19 Q1014 NOSIG=
####018000080####
SALY31 HLLT 081230
METAR HLLT 081220Z 33006KT 270V010 8000 SKC 31/18 Q1018=
####018000084####
SPCN47 CWAO 081222
SPECI CYRL 081222Z 28007KT 15SM FEW006 BKN010 RMK SF1SC5=

####018000096####
SPUS72 KWBC 081223
SPECI
KMLC 081220Z AUTO 00000KT 10SM FEW009 BKN021 BKN070 24/23 A3005=
####018000079####
SAAM31 FCBB 081200 RRA
METAR FOOG 081200Z /////KT 9999 SCT010 27/22 Q1015=
####018000084####
SPUS72 KWBC 081223
SPECI
KSJT 081219Z 04003KT 10SM BKN008 OVC110 22/21 A3005=
####018000382####
SAIN31 VABB 081210
METAR VABB 081210Z 17008KT 3200 HZ SCT012 SCT018 FEW025TCU BKN100
     28/25 Q1006 TEMPO 1500 SHRA=
METAR VOHS 081210Z 26008KT 5000 HZ SCT010 SCT015 BKN080 26/23 Q1010
    NOSIG=
METAR VOMM 081210Z 12006KT 4000 HZ SCT015 SCT100 OVC200 28/26 Q1008
     NOSIG=
METAR VOTV 081210Z 33007KT 6000 FEW015 FEW025CB BKN200 28/24 Q1008
    TEMPO 5000 HZ=
####018000090####
SAUK39 EGRR 081150 RRL
METAR EGXT 081150Z 23012KT 9999 FEW035 BKN250 21/05 Q1018 BLU=
####018000081####
SALV32 EVRA 081220 RRA
METAR EVLA 081220Z 30006KT 270V340 CAVOK 22/15 Q1018=
####018000081####
SALV32 EVRA 081220 RRB
METAR EVLA 081220Z 30006KT 270V340 CAVOK 22/15 Q1018=
####018000108####
SALV32 EVRA 081220
METAR EVLA 081222Z NIL=
METAR EVVA 081220Z AUTO 33011KT 300V360 CAVOK 22/16 Q1018=
####018000081####
SALV32 EVRA 081220 RRC
METAR EVLA 081220Z 30006KT 270V340 CAVOK 22/15 Q1018=
####018000102####
SPAU32 YBBN 081222
SPECI YPPD 081222Z AUTO 03008KT 2800NDV // BKN013 BKN023 OVC034 21/21
Q1010=
####018000208####
SASW31 LSSW 081220
METAR LSZH 081220Z VRB03KT CAVOK 28/13 Q1022 NOSIG=
METAR LSGG 081220Z 21007KT 150V270 9999 FEW080 SCT300 31/12 Q1021
    NOSIG=
METAR LSZB 081220Z NIL=
METAR LSZA 081220Z NIL=
####018000091####
SPCN46 CWAO 081222
SPECI CYSB 081222Z 18007KT 2 1/2SM BR OVC004 RMK FG3SF5 CIG RAG=

####018000077####
SAMG20 FMMI 081200 CCA
METAR COR FMNM 081200Z 16008KT CAVOK 31/13 Q1015=
####018000547####
SADL31 EDZO 081220
METAR EDDF 081220Z VRB03KT CAVOK 29/10 Q1020 NOSIG=
METAR EDDH 081220Z 24007KT 190V260 CAVOK 29/12 Q1019 NOSIG=
METAR EDDK 081220Z 14004KT 100V230 CAVOK 31/10 Q1019 NOSIG=
METAR EDDL 081220Z 24007KT 220V320 CAVOK 30/09 Q1019 NOSIG=
METAR EDDM 081220Z 12006KT 060V140 CAVOK 25/09 Q1022 NOSIG=
METAR EDDN 081220Z 16006KT 130V200 CAVOK 28/08 Q1022 NOSIG=
METAR EDDS 081220Z VRB02KT CAVOK 28/09 Q1021 NOSIG=
METAR EDDT 081220Z 17002KT CAVOK 27/06 Q1021 NOSIG=
METAR EDDV 081220Z 21009KT CAVOK 29/09 Q1019 NOSIG=
####018000358####
SAEU KAWN 081200 RRX
METAR EGVP 081150Z 19007KT 9999 BKN016 BKN280 21/15 Q1018 WHT BECMG
      SCT025 BLU=
METAR LFOE 081215Z VRB07KT CAVOK 31/09 Q1018=
METAR LMML 081215Z 06008KT 360V100 9999 FEW022 30/22 Q1018 NOSIG=
METAR LSGG 081220Z 21007KT 150V270 9999 FEW080 SCT300 31/12 Q1021 NOSIG=
METAR LSZH 081220Z VRB03KT CAVOK 28/13 Q1022 NOSIG=
####018000264####
SPUS17 KAWN 081223 RRC
SPECI KFRI 081219Z AUTO 35006KT 8SM FEW007 22/21 A3011 RMK AO2 SLP184=
SPECI KGRK 081217Z 06005KT 7SM -SHRA FEW008 BKN022 BKN029 26/24 A3000=
SPECI KMGE 081211Z AUTO 00000KT 10SM -DZ CLR 25/20 A3007 RMK AO2 DZB1211
      SLP169 $=
####018000299####
SAXN17 KAWN 081200 RRH
METAR MMZH 081212Z RTD 00000KT 7SM SCT040 BKN100 OVC 250 25/20 A2978
      RMK 8/367=
METAR MYGF 081200Z 07005KT 9999 VCSH FEW015CB 27/24 A2997 RMK CB/VCSH
      S /=
METAR PKWA 081220Z AUTO 08010KT 10SM SCT016 SCT022 OVC055 26/23 A2985
      RMK AO2 T02580232=
####018000114####
SAUS17 KAWN 081200 RRG
METAR KFMH 081215Z AUTO 17009KT 10SM SCT010 BKN017 BKN022 23/20 A3011
      RMK AO2=
####018000186####
SAAK41 KNKA 081223
SPECI PAIL 081221Z AUTO 00000KT 1/4SM FG FEW001 BKN007 OVC090 08/08 
    A2993 RMK AO2 TSNO=
SPECI PASN 081221Z 06012KT 8SM SCT002 OVC044 05/05 A2993 RMK AO2=
####018002984####
SAUS20 KNKA 081223
METAR K0R3 081219Z AUTO 00000KT 5SM BR OVC003 26/26 A3001 RMK AO2=
METAR K1A5 081220Z AUTO 00000KT 4SM BR CLR 19/18 A3017 RMK AO2 
     T01850175=
METAR K3A1 081220Z AUTO 00000KT 10SM CLR 25/23 A3011 RMK AO2 
     T02480228=
METAR K3I2 081220Z AUTO 00000KT 3SM BR SCT001 22/21 A3010 RMK AO2=
METAR K47A 081220Z AUTO 00000KT 10SM CLR 24/18 A3008 RMK AO2 LTG 
     DSNT NE AND SW T02410175=
METAR K4A9 081220Z AUTO 00000KT 10SM CLR 23/20 A3008 RMK AO2 
     T02260197=
METAR K4R4 081220Z AUTO 00000KT 5SM BR CLR 26/25 A3004 RMK AO2 
     T02600252=
METAR KACP 081219Z AUTO 07003KT 5SM BR CLR 25/25 A3003 RMK AO2=
METAR KAVC 081220Z AUTO 00000KT 5SM HZ CLR 28/21 A3005 RMK AO2=
METAR KAYS 081220Z AUTO 27004KT 10SM CLR 24/22 A3003 RMK AO1=
METAR KBCB 081220Z AUTO 00000KT 4SM HZ CLR 26/22 A3017 RMK AO2=
SPECI KBDL 081222Z 14009KT 3SM HZ OVC008 25/22 A3007 RMK AO2=
METAR KBGE 081221Z AUTO 00000KT 1/2SM FG OVC001 21/21 A3004 RMK 
     AO2=
METAR KBIJ 081220Z AUTO 00000KT 10SM CLR 23/ A3003 RMK AO2=
SPECI KBMQ 081222Z AUTO 00000KT 9SM SCT009 BKN015 OVC027 24/22 A3003 
    RMK AO2 RAB00E09 P0000 $=
METAR KBQK 081217Z AUTO 28007KT 10SM CLR 24/22 A3001 RMK AO1 
     T02400220 PNO=
METAR KBQP 081229Z AUTO 00000KT 4SM BR CLR 25/25 A3007 RMK AO2=
METAR KCCO 081220Z AUTO 00000KT 7SM CLR 22/21 A3006 RMK AO1=
METAR KCDH 081220Z AUTO 00000KT 6SM BR BKN003 22/22 A3006 RMK AO2=
SPECI KCNU 081222Z AUTO 08007KT 1 1/2SM BR OVC001 23/22 A3006 RMK 
    AO2 P0001=
METAR KCPK 081220Z AUTO 00000KT 10SM SCT085 BKN110 26/23 A2999 
     RMK AO2=
METAR KCTJ 081220Z AUTO 35003KT 10SM CLR 26/20 A3008 RMK AO2 
     T02590204=
METAR KDBN 081220Z AUTO 33004KT 10SM CLR 27/19 A3000 RMK AO1=
METAR KDNN 081218Z AUTO 00000KT 10SM CLR 22/20 A3007 RMK AO2=
METAR KDPL 081220Z AUTO 03004KT 4SM HZ CLR 27/22 A2996 RMK AO2=
METAR KDQH 081220Z AUTO 29003KT 10SM CLR 26/20 A3003 RMK AO1=
METAR KDRI 081220Z AUTO 06003KT 7SM SCT008 BKN017 23/23 A3004 RMK 
     AO2=
METAR KEDE 081216Z AUTO 05003KT 10SM CLR 27/24 A2998 RMK AO2=
METAR KEMV 081217Z AUTO 05004KT 4SM HZ SCT075 26/23 A3000 RMK AO2=
METAR KEXX 081219Z AUTO 00000KT 7SM CLR 24/20 A3002 RMK AO2=
METAR KEZF 081218Z AUTO 11005KT 7SM CLR 29/26 A2999 RMK AO2 
     T02860260=
METAR KF24 081219Z AUTO 7SM CLR 25/23 A3009 RMK AO2 T02470232=
METAR KFKN 081220Z AUTO 02005KT 3SM CLR 27/24 A3000 RMK AO1=
METAR KGEV 081221Z AUTO 00000KT 7SM CLR 24/19 A3020 RMK AO2=
METAR KGHG 081220Z AUTO 18006KT 10SM SCT014 25/21 A3011 RMK AO2=
METAR KHBI 081221Z AUTO 00000KT 10SM CLR 25/19 A3004 RMK AO2=
METAR KHLX 081221Z AUTO 00000KT 5SM BR CLR 24/22 A3019 RMK AO2=
METAR KHOE 081219Z AUTO 28003KT 10SM CLR 23/ A3004 RMK AO2 T0233=
SPECI KHQM 081222Z AUTO 27008KT 1 1/2SM BR 13/12 A2996 RMK AO2 VIS 
    3/4V5 $=
METAR KHRJ 081221Z AUTO 01003KT 7SM CLR 29/21 A2997 RMK AO2=
METAR KHSP 081220Z AUTO 07005KT 10SM SCT060 23/16 A3027 RMK AO2=
####018001221####
SAUS20 KNKA 081223
METAR KHWY 081220Z AUTO 03005KT 7SM CLR 27/20 A3001 RMK AO2=
METAR KIPJ 081220Z AUTO 00000KT 10SM 25/18 A3004 RMK AO2 T02540184=
METAR KJES 081220Z AUTO 28004KT 10SM CLR 23/23 A3002 RMK AO2 
     T02330233=
METAR KJNX 081220Z AUTO 35006KT 7SM CLR 27/21 A2997 RMK AO2=
METAR KMFV 081222Z AUTO 11006KT 10SM SCT110 26/22 A3001 RMK AO2=
METAR KMLJ 081223Z AUTO 00000KT 10SM CLR 26/21 A3004 RMK AO2=
METAR KMRN 081220Z AUTO 00000KT 10SM SCT090 24/18 A3012 RMK AO2=
METAR KMWK 081222Z AUTO 36003KT 7SM CLR 27/19 A3007 RMK AO2=
METAR KOCW 081219Z AUTO 06009KT 5SM HZ CLR 27/22 A2997 RMK AO2=
METAR KPSK 081222Z AUTO 00000KT 7SM CLR 27/18 A3017 RMK AO2=
METAR KPTB 081222Z AUTO 09004KT 5SM HZ CLR 28/23 A2999 RMK AO2=
METAR KTNB 081221Z AUTO 00000KT 7SM CLR 21/16 A3021 RMK AO2=
METAR KTPF 081220Z AUTO 05004KT 10SM 25/23 A3001 RMK AO2=
METAR KTSP 081215Z AUTO 00000KT 10SM CLR 10/04 A3003 RMK AO2 =
METAR KUNV 081220Z AUTO 00000KT 7SM CLR 23/19 A3010 RMK AO2 
     T02310193=
METAR KVDI 081222Z AUTO 24004KT 10SM CLR 26/21 A3002 RMK AO1=
METAR KVUJ 081218Z AUTO 00000KT 10SM SCT090 27/20 A2999 RMK AO2=
METAR KW99 081219Z AUTO 00000KT 7SM BKN080 24/17 A3010 RMK AO2=
####018000260####
SASG21 GOOY 081200
METAR GOGS 081200Z 18006KT 9999 SCT016 31/26 Q1013=
METAR GOTT 081200Z 22004KT 160V270 9999 BKN013 TCU 32/27 Q1014=
METAR GOGG 081200Z 18008KT 9999 BKN016 TCU 33/26 Q1015=
METAR GOSS 081200Z 24006KT 9999 FEW013 BKN230 32/25 Q1013=
####018000399####
SADL32 EDZO 081220
METAR EDDB 081220Z 29001KT CAVOK 27/05 Q1021 NOSIG=
METAR EDDC 081220Z 18001KT CAVOK 26/11 Q1022 NOSIG=
METAR EDDE 081220Z VRB02KT CAVOK 28/09 Q1021 NOSIG=
METAR EDDG 081220Z 26007KT CAVOK 30/10 Q1019 NOSIG=
METAR EDDP 081220Z VRB05KT CAVOK 27/11 Q1021 NOSIG=
METAR EDDR 081220Z 20001KT CAVOK 29/10 Q1020 NOSIG=
METAR EDDW 081220Z VRB03KT CAVOK 30/09 Q1018 NOSIG=
####018000103####
SPUS90 KWBC 081224
SPECI KATT 081221Z AUTO VRB04KT 8SM SCT007 OVC022 25/23 A2998 RMK
     AO2 $=
####018000263####
SASG21 GOOY 081200
METAR GOGS 081200Z 18006KT 9999 SCT016 31/26 Q1013=
METAR GOTT 081200Z 22004KT 160V270 9999 BKN013 TCU 32/27 Q1014=
METAR GOGG 081200Z 18008KT 9999 BKN016 TCU 33/26 Q1015=
METAR GOSS 081200Z 24006KT 9999 FEW013 BKN230 32/25 Q1013=

####018003502####
SAUS99 KWBC 081224
METAR
K0R3 081219Z AUTO 00000KT 5SM BR OVC003 26/26 A3001 RMK AO2=
K1A5 081220Z AUTO 00000KT 4SM BR CLR 19/18 A3017 RMK AO2
     T01850175=
K3A1 081220Z AUTO 00000KT 10SM CLR 25/23 A3011 RMK AO2
     T02480228=
K3I2 081220Z AUTO 00000KT 3SM BR SCT001 22/21 A3010 RMK AO2=
K47A 081220Z AUTO 00000KT 10SM CLR 24/18 A3008 RMK AO2 LTG DSNT NE
     AND SW T02410175=
K4A9 081220Z AUTO 00000KT 10SM CLR 23/20 A3008 RMK AO2
     T02260197=
K4R4 081220Z AUTO 00000KT 5SM BR CLR 26/25 A3004 RMK AO2
     T02600252=
KACP 081219Z AUTO 07003KT 5SM BR CLR 25/25 A3003 RMK AO2=
KAVC 081220Z AUTO 00000KT 5SM HZ CLR 28/21 A3005 RMK AO2=
KAYS 081220Z AUTO 27004KT 10SM CLR 24/22 A3003 RMK AO1=
KBCB 081220Z AUTO 00000KT 4SM HZ CLR 26/22 A3017 RMK AO2=
KBGE 081221Z AUTO 00000KT 1/2SM FG OVC001 21/21 A3004 RMK AO2=
KBIJ 081220Z AUTO 00000KT 10SM CLR 23/ A3003 RMK AO2=
KBQK 081217Z AUTO 28007KT 10SM CLR 24/22 A3001 RMK AO1 T02400220
     PNO=
KBQP 081229Z AUTO 00000KT 4SM BR CLR 25/25 A3007 RMK AO2=
KCCO 081220Z AUTO 00000KT 7SM CLR 22/21 A3006 RMK AO1=
KCDH 081220Z AUTO 00000KT 6SM BR BKN003 22/22 A3006 RMK AO2=
KCPK 081220Z AUTO 00000KT 10SM SCT085 BKN110 26/23 A2999 RMK
     AO2=
KCTJ 081220Z AUTO 35003KT 10SM CLR 26/20 A3008 RMK AO2
     T02590204=
KDBN 081220Z AUTO 33004KT 10SM CLR 27/19 A3000 RMK AO1=
KDNN 081218Z AUTO 00000KT 10SM CLR 22/20 A3007 RMK AO2=
KDPL 081220Z AUTO 03004KT 4SM HZ CLR 27/22 A2996 RMK AO2=
KDQH 081220Z AUTO 29003KT 10SM CLR 26/20 A3003 RMK AO1=
KDRI 081220Z AUTO 06003KT 7SM SCT008 BKN017 23/23 A3004 RMK
     AO2=
KEDE 081216Z AUTO 05003KT 10SM CLR 27/24 A2998 RMK AO2=
KEMV 081217Z AUTO 05004KT 4SM HZ SCT075 26/23 A3000 RMK AO2=
KEXX 081219Z AUTO 00000KT 7SM CLR 24/20 A3002 RMK AO2=
KEZF 081218Z AUTO 11005KT 7SM CLR 29/26 A2999 RMK AO2
     T02860260=
KF24 081219Z AUTO 7SM CLR 25/23 A3009 RMK AO2 T02470232=
KFKN 081220Z AUTO 02005KT 3SM CLR 27/24 A3000 RMK AO1=
KGEV 081221Z AUTO 00000KT 7SM CLR 24/19 A3020 RMK AO2=
KGHG 081220Z AUTO 18006KT 10SM SCT014 25/21 A3011 RMK AO2=
KHBI 081221Z AUTO 00000KT 10SM CLR 25/19 A3004 RMK AO2=
KHLX 081221Z AUTO 00000KT 5SM BR CLR 24/22 A3019 RMK AO2=
KHOE 081219Z AUTO 28003KT 10SM CLR 23/ A3004 RMK AO2 T0233=
KHRJ 081221Z AUTO 01003KT 7SM CLR 29/21 A2997 RMK AO2=
KHSP 081220Z AUTO 07005KT 10SM SCT060 23/16 A3027 RMK AO2=
KHWY 081220Z AUTO 03005KT 7SM CLR 27/20 A3001 RMK AO2=
KIPJ 081220Z AUTO 00000KT 10SM 25/18 A3004 RMK AO2 T02540184=
KJES 081220Z AUTO 28004KT 10SM CLR 23/23 A3002 RMK AO2
     T02330233=
KJNX 081220Z AUTO 35006KT 7SM CLR 27/21 A2997 RMK AO2=
KMFV 081222Z AUTO 11006KT 10SM SCT110 26/22 A3001 RMK AO2=
KMLJ 081223Z AUTO 00000KT 10SM CLR 26/21 A3004 RMK AO2=
KMRN 081220Z AUTO 00000KT 10SM SCT090 24/18 A3012 RMK AO2=
KMWK 081222Z AUTO 36003KT 7SM CLR 27/19 A3007 RMK AO2=
KOCW 081219Z AUTO 06009KT 5SM HZ CLR 27/22 A2997 RMK AO2=
KPSK 081222Z AUTO 00000KT 7SM CLR 27/18 A3017 RMK AO2=
KPTB 081222Z AUTO 09004KT 5SM HZ CLR 28/23 A2999 RMK AO2=
KTNB 081221Z AUTO 00000KT 7SM CLR 21/16 A3021 RMK AO2=
KTPF 081220Z AUTO 05004KT 10SM 25/23 A3001 RMK AO2=
KTSP 081215Z AUTO 00000KT 10SM CLR 10/04 A3003 RMK AO2=
KUNV 081220Z AUTO 00000KT 7SM CLR 23/19 A3010 RMK AO2
     T02310193=
KVDI 081222Z AUTO 24004KT 10SM CLR 26/21 A3002 RMK AO1=
KVUJ 081218Z AUTO 00000KT 10SM SCT090 27/20 A2999 RMK AO2=
KW99 081219Z AUTO 00000KT 7SM BKN080 24/17 A3010 RMK AO2=
####018000497####
SPUS99 KWBC 081224
SPECI
KBDL 081222Z 14009KT 3SM HZ OVC008 25/22 A3007 RMK AO2=
KBMQ 081222Z AUTO 00000KT 9SM SCT009 BKN015 OVC027 24/22 A3003 RMK
     AO2 RAB00E09 P0000 $=
KCNU 081222Z AUTO 08007KT 1 1/2SM BR OVC001 23/22 A3006 RMK AO2
     P0001=
KHQM 081222Z AUTO 27008KT 1 1/2SM BR 13/12 A2996 RMK AO2 VIS 3/4V5
     $=
PAIL 081221Z AUTO 00000KT 1/4SM FG FEW001 BKN007 OVC090 08/08
     A2993 RMK AO2 TSNO=
PASN 081221Z 06012KT 8SM SCT002 OVC044 05/05 A2993 RMK AO2=
####018000080####
SACN91 KWBC 081224
METAR CWIX 081200Z AUTO 01003KT 25/22 RMK AO1 T02460223=
####018000169####
SACN85 KWBC 081224
METAR CWDO 081200Z AUTO 19006KT 12/10 RMK AO1 SLP204 T01170103
56005=
METAR CWDO 081200Z AUTO 19006KT 12/10 RMK AO1 SLP204 T01170103
56005=
####018000222####
SACN97 KWBC 081224
METAR CXDE 081200Z AUTO 11/10 RMK AO1 SLP147 T01080095 55005=
METAR CXMM 081200Z AUTO 12/10 RMK AO1 T01160095=
METAR CXQA 081200Z AUTO 07/07 RMK AO1 6PAST HR 3002 SLP126 P0002
T00660066 50023=
####018000115####
SACN96 KWBC 081224
METAR CXKA 081200Z AUTO 31004KT 17/16 RMK AO1 1PAST HR 3006 SLP124
P0004 T01690159 50011=
####018000233####
SACN92 KWBC 081224
METAR CWKD 081100Z AUTO 16/16 RMK AO1 SLP170 T01640159 50001=
METAR CWJU 081200Z AUTO 27009KT 12/10 RMK AO1 SLP201 T01190104
51002=
METAR CWJW 081200Z AUTO 21002KT 05/04 RMK AO1 SLP226 T00500041
51008=
####018000205####
SACN87 KWBC 081224
METAR CWRU 081200Z AUTO 36016KT 14/12 RMK AO1 PK WND 34021/1106
SLP153 T01400123 50000=
METAR CWRO 081200Z AUTO 27013KT 12/11 RMK AO1 PK WND 28018/1117
SLP190 T01240112 51003=
####018000656####
SASN31 ESWI 081220
METAR ESGG 081220Z 21012KT 7000 -RA BR FEW005 SCT015 BKN022 16/15
Q1019=
METAR ESGJ 081220Z AUTO 21015KT 9999NDV FEW045/// BKN067/// 23/10
Q1019=
METAR ESGP 081220Z 18011KT 9999 FEW009 OVC027 17/16 Q1018 REDZ=
METAR ESGT 081220Z 20014KT 9999 BKN020 19/15 Q1018=
METAR ESMK 081220Z 21009KT 180V240 CAVOK 26/11 Q1020=
METAR ESMQ 081220Z 17013KT CAVOK 23/14 Q1019=
METAR ESMS 081220Z 18011KT 160V220 CAVOK 24/11 Q1021=
METAR ESMT 081220Z NIL=
METAR ESMX 081220Z 21009KT 170V320 CAVOK 25/11 Q1020=
METAR ESTA 081220Z 18011KT CAVOK 23/15 Q1020=
METAR ESTL 081220Z AUTO 19009KT 150V220 9999NDV FEW045///
SCT070/// 24/11 Q1020=
####018000093####
SAAM31 FCBB 081200 RRB
METAR FCBB 081200Z 23007KT 190V280 6000  BKN022 26/19 Q1014 NOSIG=
####018000078####
SAAM31 FCBB 081200 RRA
METAR FOOG 081200Z /////KT 9999 SCT010 27/22 Q1015=
####018000080####
SALV32 EVRA 081220 RRE
METAR EVLA 081220Z 30006KT 270V340 CAVOK 22/15 Q1018=
####018000112####
SAMX41 MMMX 081223
SPECI MMPB 081213Z 17006KT 1/2SM -RA FG  VV001 14/14 A3022 
      RMK 8//// VRBL CONDS=
####018000360####
SPUS80 KWBC 081224
SPECI
KHTS 081221Z 00000KT 2SM BR CLR 24/22 A3010 RMK AO2=
KATT 081221Z AUTO VRB04KT 8SM SCT007 OVC022 25/23 A2998 RMK AO2
     $=
KBDL 081222Z 14009KT 3SM HZ OVC008 25/22 A3007 RMK AO2=
KCNU 081222Z AUTO 08007KT 1 1/2SM BR OVC001 23/22 A3006 RMK AO2
     P0001=
PASN 081221Z 06012KT 8SM SCT002 OVC044 05/05 A2993 RMK AO2=
####018003686####
SAUS70 KWBC 081224
METAR
K3J7 081219Z AUTO 00000KT 10SM CLR 26/22 A3001 RMK AO2=
KAMN 081216Z AUTO 23003KT 5SM BR SCT085 BKN110 23/22 A3002 RMK
     AO2=
KAQP 081213Z AUTO 24003KT 10SM CLR 16/16 A3011 RMK AO2=
KASJ 081217Z AUTO 02004KT 4SM HZ CLR 27/23 A3000 RMK AO2=
KBFW 081213Z AUTO 00000KT 10SM CLR 20/15 A3001 RMK AO2=
KCDA 081215Z AUTO 11003KT 5SM HZ CLR 24/20 A3010 RMK AO2=
KCDD 081211Z AUTO 20004KT 10SM CLR 19/18 A3003 RMK AO2=
KCTZ 081220Z AUTO 01005KT 5SM HZ CLR 27/21 A2996 RMK AO2=
KCVX 081215Z AUTO 24006KT 7SM -RA SCT009 BKN013 OVC026 21/20 A3002
     RMK AO2=
KCWV 081229Z AUTO 27004KT 10SM CLR 26/23 A3001 RMK AO2=
KDVP 081216Z AUTO 27004KT 10SM CLR 17/14 A3018 RMK AO2
     T01690135=
KEBS 081215Z AUTO 34006KT 10SM CLR 18/17 A3013 RMK AO2=
KERY 081216Z AUTO 31003KT 10SM -RA OVC003 18/18 A3000 RMK AO2=
KETH 081214Z AUTO 24007KT 10SM CLR 18/15 A3010 RMK AO2=
KFKA 081223Z AUTO 32008KT 10SM CLR 19/18 A3011 RMK AO2
     T01900175=
KFKS 081215Z AUTO 19004KT 3SM -DZ OVC004 21/20 A3001 RMK AO2=
KFOZ 081213Z AUTO 23005KT 10SM CLR 16/14 A3005 RMK AO2=
KFQD 081219Z AUTO 31003KT 10SM SCT100 24/18 A3006 RMK AO2=
KGOV 081215Z AUTO 00000KT 7SM RA BKN070 OVC080 22/22 A3003 RMK
     AO2=
KHYX 081215Z AUTO 00000KT 10SM BKN120 24/21 A3001 RMK AO2=
KISQ 081216Z AUTO 33004KT 10SM BKN002 OVC065 19/18 A2999 RMK
     AO2=
KLDM 081216Z AUTO 22005KT 5SM RA OVC007 21/20 A3002 RMK AO2
     P0002=
KMCD 081216Z AUTO 25003KT 2 1/2SM HZ OVC005 21/18 A3000 RMK
     AO2=
KMQI 081216Z AUTO 06008KT 10SM CLR 27/23 A2996 RMK AO2=
KMZH 081211Z AUTO 00000KT 10SM CLR 16/15 A3005 RMK AO2=
KONZ 081217Z AUTO 00000KT 10SM CLR 27/21 A3002 RMK AO2=
KORB 081214Z AUTO 27003KT 10SM CLR 16/13 A3001 RMK AO2=
KOSC 081214Z AUTO 18003KT 7SM SCT015 SCT075 SCT100 23/21 A2999 RMK
     AO2=
KOWA 081213Z AUTO 30003KT 10SM CLR 17/16 A3011 RMK AO2=
KPHN 081216Z AUTO 19003KT 10SM CLR 25/21 A3002 RMK AO2=
KRMY 081215Z AUTO 00000KT 7SM CLR 23/21 A3005 RMK AO2=
KSJX 081216Z AUTO 25007KT 3/4SM BR OVC002 19/18 A2999 RMK AO2=
KSLH 081215Z AUTO 26006KT 7SM -RA OVC009 22/21 A2999 RMK AO2=
KTTF 081213Z AUTO 00000KT 10SM CLR 26/22 A3003 RMK AO2=
KTVK 081215Z AUTO 35004KT 10SM FEW005 20/20 A3010 RMK AO2=
KUKF 081221Z AUTO 00000KT 5SM CLR 23/19 A3009 RMK AO1=
KVWU 081211Z AUTO 26007KT 10SM CLR 18/14 A3003 RMK AO2=
KXVG 081216Z AUTO 00000KT 10SM CLR 17/16 A3005 RMK AO2=
KFMH 081215Z AUTO 17009KT 10SM SCT010 BKN017 BKN022 23/20 A3011
     RMK AO2=
K0R3 081219Z AUTO 00000KT 5SM BR OVC003 26/26 A3001 RMK AO2=
K1A5 081220Z AUTO 00000KT 4SM BR CLR 19/18 A3017 RMK AO2
     T01850175=
K3A1 081220Z AUTO 00000KT 10SM CLR 25/23 A3011 RMK AO2
     T02480228=
K3I2 081220Z AUTO 00000KT 3SM BR SCT001 22/21 A3010 RMK AO2=
K47A 081220Z AUTO 00000KT 10SM CLR 24/18 A3008 RMK AO2 LTG DSNT NE
     AND SW T02410175=
K4A9 081220Z AUTO 00000KT 10SM CLR 23/20 A3008 RMK AO2
     T02260197=
K4R4 081220Z AUTO 00000KT 5SM BR CLR 26/25 A3004 RMK AO2
     T02600252=
KACP 081219Z AUTO 07003KT 5SM BR CLR 25/25 A3003 RMK AO2=
KAVC 081220Z AUTO 00000KT 5SM HZ CLR 28/21 A3005 RMK AO2=
KBCB 081220Z AUTO 00000KT 4SM HZ CLR 26/22 A3017 RMK AO2=
KBGE 081221Z AUTO 00000KT 1/2SM FG OVC001 21/21 A3004 RMK AO2=
KBIJ 081220Z AUTO 00000KT 10SM CLR 23/ A3003 RMK AO2=
KBQK 081217Z AUTO 28007KT 10SM CLR 24/22 A3001 RMK AO1 T02400220
     PNO=
KBQP 081229Z AUTO 00000KT 4SM BR CLR 25/25 A3007 RMK AO2=
KCCO 081220Z AUTO 00000KT 7SM CLR 22/21 A3006 RMK AO1=
KCDH 081220Z AUTO 00000KT 6SM BR BKN003 22/22 A3006 RMK AO2=
KCPK 081220Z AUTO 00000KT 10SM SCT085 BKN110 26/23 A2999 RMK
     AO2=
####018000267####
SAUS80 KWBC 081224
METAR
KPZQ 081215Z AUTO 24003KT 10SM -DZ OVC100 23/21 A3000 RMK AO2=
KAYS 081220Z AUTO 27004KT 10SM CLR 24/22 A3003 RMK AO1=
KDBN 081220Z AUTO 33004KT 10SM CLR 27/19 A3000 RMK AO1=
KJNX 081220Z AUTO 35006KT 7SM CLR 27/21 A2997 RMK AO2=
####018002174####
SAUS70 KWBC 081224 RRA
METAR
KCTJ 081220Z AUTO 35003KT 10SM CLR 26/20 A3008 RMK AO2
     T02590204=
KDNN 081218Z AUTO 00000KT 10SM CLR 22/20 A3007 RMK AO2=
KDPL 081220Z AUTO 03004KT 4SM HZ CLR 27/22 A2996 RMK AO2=
KDQH 081220Z AUTO 29003KT 10SM CLR 26/20 A3003 RMK AO1=
KDRI 081220Z AUTO 06003KT 7SM SCT008 BKN017 23/23 A3004 RMK
     AO2=
KEDE 081216Z AUTO 05003KT 10SM CLR 27/24 A2998 RMK AO2=
KEMV 081217Z AUTO 05004KT 4SM HZ SCT075 26/23 A3000 RMK AO2=
KEXX 081219Z AUTO 00000KT 7SM CLR 24/20 A3002 RMK AO2=
KEZF 081218Z AUTO 11005KT 7SM CLR 29/26 A2999 RMK AO2
     T02860260=
KF24 081219Z AUTO 7SM CLR 25/23 A3009 RMK AO2 T02470232=
KFKN 081220Z AUTO 02005KT 3SM CLR 27/24 A3000 RMK AO1=
KGEV 081221Z AUTO 00000KT 7SM CLR 24/19 A3020 RMK AO2=
KGHG 081220Z AUTO 18006KT 10SM SCT014 25/21 A3011 RMK AO2=
KHBI 081221Z AUTO 00000KT 10SM CLR 25/19 A3004 RMK AO2=
KHLX 081221Z AUTO 00000KT 5SM BR CLR 24/22 A3019 RMK AO2=
KHOE 081219Z AUTO 28003KT 10SM CLR 23/ A3004 RMK AO2 T0233=
KHRJ 081221Z AUTO 01003KT 7SM CLR 29/21 A2997 RMK AO2=
KHSP 081220Z AUTO 07005KT 10SM SCT060 23/16 A3027 RMK AO2=
KHWY 081220Z AUTO 03005KT 7SM CLR 27/20 A3001 RMK AO2=
KIPJ 081220Z AUTO 00000KT 10SM 25/18 A3004 RMK AO2 T02540184=
KJES 081220Z AUTO 28004KT 10SM CLR 23/23 A3002 RMK AO2
     T02330233=
KMFV 081222Z AUTO 11006KT 10SM SCT110 26/22 A3001 RMK AO2=
KMLJ 081223Z AUTO 00000KT 10SM CLR 26/21 A3004 RMK AO2=
KMRN 081220Z AUTO 00000KT 10SM SCT090 24/18 A3012 RMK AO2=
KMWK 081222Z AUTO 36003KT 7SM CLR 27/19 A3007 RMK AO2=
KOCW 081219Z AUTO 06009KT 5SM HZ CLR 27/22 A2997 RMK AO2=
KPSK 081222Z AUTO 00000KT 7SM CLR 27/18 A3017 RMK AO2=
KPTB 081222Z AUTO 09004KT 5SM HZ CLR 28/23 A2999 RMK AO2=
KTNB 081221Z AUTO 00000KT 7SM CLR 21/16 A3021 RMK AO2=
KTPF 081220Z AUTO 05004KT 10SM 25/23 A3001 RMK AO2=
KTSP 081215Z AUTO 00000KT 10SM CLR 10/04 A3003 RMK AO2=
KUNV 081220Z AUTO 00000KT 7SM CLR 23/19 A3010 RMK AO2
     T02310193=
KVDI 081222Z AUTO 24004KT 10SM CLR 26/21 A3002 RMK AO1=
KVUJ 081218Z AUTO 00000KT 10SM SCT090 27/20 A2999 RMK AO2=
KW99 081219Z AUTO 00000KT 7SM BKN080 24/17 A3010 RMK AO2=
####018000577####
SPUS70 KWBC 081224
SPECI
KASD 081221Z AUTO 02003KT 6SM BR BKN001 25/24 A3003 RMK AO2=
KLAA 081221Z AUTO 11008KT 10SM -RA SCT005 BKN016 OVC100 17/16
     A3026 RMK AO2 P0000=
KMAI 081221Z AUTO 32003KT 3SM BR SCT001 24/23 A3003 RMK AO2=
KTXK 081222Z 00000KT 1 1/2SM BR OVC001 23/23 A3006 RMK AO2=
KBMQ 081222Z AUTO 00000KT 9SM SCT009 BKN015 OVC027 24/22 A3003 RMK
     AO2 RAB00E09 P0000 $=
KHQM 081222Z AUTO 27008KT 1 1/2SM BR 13/12 A2996 RMK AO2 VIS 3/4V5
     $=
PAIL 081221Z AUTO 00000KT 1/4SM FG FEW001 BKN007 OVC090 08/08
     A2993 RMK AO2 TSNO=
####018000096####
SAQB31 LQSM 081230
METAR LQSA 081230Z 30005KT 200V040 9999 FEW050 SCT600 22/12 Q1023
NOSIG=
####018000538####
SADL31 EDZO 081220
METAR EDDF 081220Z VRB03KT CAVOK 29/10 Q1020 NOSIG=
METAR EDDH 081220Z 24007KT 190V260 CAVOK 29/12 Q1019 NOSIG=
METAR EDDK 081220Z 14004KT 100V230 CAVOK 31/10 Q1019 NOSIG=
METAR EDDL 081220Z 24007KT 220V320 CAVOK 30/09 Q1019 NOSIG=
METAR EDDM 081220Z 12006KT 060V140 CAVOK 25/09 Q1022 NOSIG=
METAR EDDN 081220Z 16006KT 130V200 CAVOK 28/08 Q1022 NOSIG=
METAR EDDS 081220Z VRB02KT CAVOK 28/09 Q1021 NOSIG=
METAR EDDT 081220Z 17002KT CAVOK 27/06 Q1021 NOSIG=
METAR EDDV 081220Z 21009KT CAVOK 29/09 Q1019 NOSIG=
####018000143####
SAAF32 KWBC 081200 RRD
METAR
FCBB 081200Z 23007KT 190V280 6000 BKN022 26/19 Q1014 NOSIG=
FOOG 081200Z /////KT 9999 SCT010 27/22 Q1015=
####018000494####
SAFI31 EFHK 081220
METAR EFHK 081220Z 32007KT 280V350 9999 FEW039 BKN050 27/18 Q1014
NOSIG=
EFJY 081220Z VRB02KT 9999 SCT030 SCT080 24/17 Q1015=
METAR EFKU 081220Z AUTO 30005KT CAVOK 24/18 Q1015=
EFOU 081220Z VRB03KT 9999 FEW040 BKN200 22/10 Q1015=
METAR EFRO 081220Z AUTO 12006KT 060V180 CAVOK 21/08
 Q1016=
EFTP 081220Z 24004KT 170V340 9999 FEW045 SCT200 26/14 Q1015=
METAR EFTU 081220Z AUTO 29011KT CAVOK 25/13 Q1015=
EFVA 081220Z 27007KT 180V320 9999 FEW030 SCT200 25/14 Q1014=
####018000080####
SALV32 EVRA 081220 RRG
METAR EVLA 081220Z 30006KT 270V340 CAVOK 22/15 Q1018=
####018000080####
SALV32 EVRA 081220 RRF
METAR EVLA 081220Z 30006KT 270V340 CAVOK 22/15 Q1018=
####018000195####
SADN33 EKCH 081220
METAR EKKA 081220Z 19008KT 160V220 8000 -SHRA FEW009 FEW018TCU
BKN030 18/17 Q1018 TEMPO 4000 SHRA SCT020CB=
METAR EKSP 081220Z 23011KT CAVOK 25/11 Q1019 NOSIG RMK BKN090=
####018000392####
SADL32 EDZO 081220
METAR EDDB 081220Z 29001KT CAVOK 27/05 Q1021 NOSIG=
METAR EDDC 081220Z 18001KT CAVOK 26/11 Q1022 NOSIG=
METAR EDDE 081220Z VRB02KT CAVOK 28/09 Q1021 NOSIG=
METAR EDDG 081220Z 26007KT CAVOK 30/10 Q1019 NOSIG=
METAR EDDP 081220Z VRB05KT CAVOK 27/11 Q1021 NOSIG=
METAR EDDR 081220Z 20001KT CAVOK 29/10 Q1020 NOSIG=
METAR EDDW 081220Z VRB03KT CAVOK 30/09 Q1018 NOSIG=
####018000075####
SAAF32 KWBC 081200 CCA
METAR
FMNM 081200Z 16008KT CAVOK 31/13 Q1015=
####018000078####
SAAF11 LFPW 081200 RRB
METAR FOOG 081200Z /////KT 9999 SCT010 27/22 Q1015=
####018000076####
SAMG20 FMMI 081200 CCA
METAR COR FMNM 081200Z 16008KT CAVOK 31/13 Q1015=
####018000080####
SALV32 EVRA 081220 RRH
METAR EVLA 081220Z 30006KT 270V340 CAVOK 22/15 Q1018=
####018000092####
SAQB31 LQSM 081200 CCY
METAR LQSA 081200Z 29007KT 230V010 9999 SCT060 22/12 Q1023 NOSIG=
####018000539####
SPXX60 KWBC 081224
SPECI
KCEF 081214Z COR 11002KT 5SM BR BKN010 BKN015 OVC080 24/22 A3007
     RMK AO2A SLP183 PWINO $ COR 1216=
KFRI 081219Z AUTO 35006KT 8SM FEW007 22/21 A3011 RMK AO2
     SLP184=
KGRK 081217Z 06005KT 7SM -SHRA FEW008 BKN022 BKN029 26/24
     A3000=
KMGE 081211Z AUTO 00000KT 10SM -DZ CLR 25/20 A3007 RMK AO2 DZB1211
     SLP169 $=
KOZR 081219Z 00000KT 2SM BR SCT001 23/23 A3004 RMK AO2A=
PAED 081219Z AUTO 00000KT 10SM FEW065 BKN085 12/11 A2998 RMK AO2
     RAB1208E1209DZB1209E1219 SLP152 $=
####018000207####
SADN34 EKCH 081220
METAR EKGF 081220Z NIL=
METAR EKHN 081220Z AUTO VRB03KT 9999NDV BKN029/// BKN079///
18/14 Q1020=
METAR EKHR 081220Z AUTO 20010KT 9000NDV SCT008/// BKN037///
BKN075/// 17/17 Q1018=
####018000146####
SADN32 EKCH 081220
METAR EKVJ 081220Z NIL=
METAR EKSB 081220Z NIL=
METAR EKSN 081220Z NIL=
METAR EKVD 081220Z NIL=
METAR EKOD 081220Z NIL=
####018000519####
SADN31 EKCH 081220
METAR EKCH 081220Z 16013KT CAVOK 22/15 Q1020 NOSIG=
METAR EKBI 081220Z 25006KT 210V290 9999 FEW018 FEW025CB BKN095
20/15 Q1019=
METAR EKYT 081220Z 18012KT 9999 -RA FEW012 BKN020 18/16 Q1018
TEMPO 7000 BKN012=
METAR EKRK 081220Z AUTO 20011KT 160V230 9999NDV BKN050/// 26/11
Q1019=
METAR EKAH 081220Z AUTO 20006KT 150V250 9999NDV BKN080/// 22/14
Q1019=
METAR EKEB 081220Z AUTO 25010KT 6000NDV -SHRA  BKN046/// 19/16
Q1019=
METAR EKRN 081220Z AUTO 21004KT 170V240 9999NDV NCD 20/15 Q1022=
####018000080####
SALV32 EVRA 081220 RRI
METAR EVLA 081220Z 30006KT 270V340 CAVOK 22/15 Q1018=
####018000248####
SAAO33 KWBC 081200 RRC
METAR
GOGG 081200Z 18008KT 9999 BKN016 TCU 33/26 Q1015=
GOGS 081200Z 18006KT 9999 SCT016 31/26 Q1013=
GOSS 081200Z 24006KT 9999 FEW013 BKN230 32/25 Q1013=
GOTT 081200Z 22004KT 160V270 9999 BKN013 TCU 32/27 Q1014=
####018000441####
SAAS31 KWBC 081205 RRB
METAR
VABB 081210Z 17008KT 3200 HZ SCT012 SCT018 FEW025TCU BKN100 28/25
     Q1006 TEMPO 1500 SHRA=
VCBI 081210Z 23004KT 9000 -SHRA SCT016 FEW019CB OVC100 28/25 Q1009
     NOSIG=
VOMM 081210Z 12006KT 4000 HZ SCT015 SCT100 OVC200 28/26 Q1008
     NOSIG=
VOTV 081210Z 33007KT 6000 FEW015 FEW025CB BKN200 28/24 Q1008 TEMPO
     5000 HZ=
VRMM 081200Z 36011KT 9999 FEW018TCU BKN110 28/24 Q1009 NOSIG=
####018000108####
SAAW41 KWBC 081250
METAR
LTAU 081220Z VRB05KT 9999 SCT040 34/12 Q1009 NOSIG RMK RWY07
     VRB06KT=
####018000120####
SACI32 KWBC 081200 RRB
METAR
ZMUB 081230Z 15010MPS 9999 SCT030CB SCT033 15/11 Q1007 NOSIG RMK
     QFE648.8 76=
####018000417####
SADL33 KWBC 081215 RRA
METAR
EDDB 081220Z 29001KT CAVOK 27/05 Q1021 NOSIG=
EDDC 081220Z 18001KT CAVOK 26/11 Q1022 NOSIG=
EDDG 081220Z 26007KT CAVOK 30/10 Q1019 NOSIG=
EDDP 081220Z VRB05KT CAVOK 27/11 Q1021 NOSIG=
EDDR 081220Z 20001KT CAVOK 29/10 Q1020 NOSIG=
EDDT 081220Z 17002KT CAVOK 27/06 Q1021 NOSIG=
EDDV 081220Z 21009KT CAVOK 29/09 Q1019 NOSIG=
EDDW 081220Z VRB03KT CAVOK 30/09 Q1018 NOSIG=
####018000097####
SAIO31 KWBC 081200 RRE
METAR
VRMM 081200Z 36011KT 9999 FEW018TCU BKN110 28/24 Q1009 NOSIG=
####018000085####
SAUS41 KWBC 081200 RRC
METAR
KCTZ 081220Z AUTO 01005KT 5SM HZ CLR 27/21 A2996=
####018000081####
SAXX61 KWBC 081200 RRB
METAR
EDDS 081220Z VRB02KT CAVOK 28/09 Q1021 NOSIG=
####018000552####
SAXX99 KWBC 081200 RRR
METAR
CYBX 081200Z 10002KT 15SM OVC030 12/10 A3007 RMK SC8 SLP186=
EDDE 081220Z VRB02KT CAVOK 28/09 Q1021 NOSIG=
EGXT 081150Z 23012KT 9999 FEW035 BKN250 21/05 Q1018 BLU=
EVLA 081222Z NIL=
EVLA 081220Z 30006KT 270V340 CAVOK 22/15 Q1018=
EVVA 081220Z AUTO 33011KT 300V360 CAVOK 22/16 Q1018=
LQBK 081230Z 27006KT 9999 FEW040 24/11 Q1022 NOSIG=
LTBU 081220Z 31010KT 9999 SCT030 BKN100 18/14 Q1013 RESHRA RMK
     RWY23 33011KT=
MMPB 081213Z 17006KT 1/2SM -RA FG VV001 14/14 A3022 RMK 8//// VRBL
     CONDS=
####018000076####
SPUS41 KWBC 081224
SPECI
KHTS 081221Z 00000KT 2SM BR CLR 24/22 A3010=
####018000352####
SASW32 LSSW 081220
METAR LSGC 081220Z NIL=
METAR LSGS 081220Z 23008KT 200V270 9999 FEW120 30/13 Q1019=
METAR LSZG 081220Z 24004KT 160V290 9999 FEW050 28/13 Q1021 NOSIG=
METAR LSZR 081220Z 31003KT 250V350 CAVOK 25/14 Q1022 NOSIG RMK I=
METAR LSZS 081220Z VRB05G20KT CAVOK 26/08 Q1026=
METAR LSZC 081220Z 08005KT 030V120 CAVOK 28/16 Q1021=
####018000083####
SAUS43 KWBC 081200 RRG
METAR
KPHN 081216Z AUTO 19003KT 10SM CLR 25/21 A3002=
####018000098####
SAQB31 LQSM 081230
METAR LQSA 081230Z 30005KT 200V040 9999 FEW050 SCT600 22/12 Q1023
NOSIG=
####018000531####
SADN31 EKCH 081220
METAR EKCH 081220Z 16013KT CAVOK 22/15 Q1020 NOSIG=
METAR EKBI 081220Z 25006KT 210V290 9999 FEW018 FEW025CB BKN095
20/15 Q1019=
METAR EKYT 081220Z 18012KT 9999 -RA FEW012 BKN020 18/16 Q1018
TEMPO 7000 BKN012=
METAR EKRK 081220Z AUTO 20011KT 160V230 9999NDV BKN050/// 26/11
Q1019=
METAR EKAH 081220Z AUTO 20006KT 150V250 9999NDV BKN080/// 22/14
Q1019=
METAR EKEB 081220Z AUTO 25010KT 6000NDV -SHRA  BKN046/// 19/16
Q1019=
METAR EKRN 081220Z AUTO 21004KT 170V240 9999NDV NCD 20/15 Q1022=
####018000081####
SALV32 EVRA 081220 RRG
METAR EVLA 081220Z 30006KT 270V340 CAVOK 22/15 Q1018=
####018000081####
SALV32 EVRA 081220 RRE
METAR EVLA 081220Z 30006KT 270V340 CAVOK 22/15 Q1018=
####018000151####
SADN32 EKCH 081220
METAR EKVJ 081220Z NIL=
METAR EKSB 081220Z NIL=
METAR EKSN 081220Z NIL=
METAR EKVD 081220Z NIL=
METAR EKOD 081220Z NIL=
####018000086####
SAMP31 LMMM 081230 RRA
METAR HLLT 081220Z
33006KT 270V010 8000 SKC 31/18 Q1018=
####018000081####
SALV32 EVRA 081220 RRD
METAR EVLA 081220Z 30006KT 270V340 CAVOK 22/15 Q1018=
####018000670####
SASN31 ESWI 081220
METAR ESGG 081220Z 21012KT 7000 -RA BR FEW005 SCT015 BKN022 16/15
Q1019=
METAR ESGJ 081220Z AUTO 21015KT 9999NDV FEW045/// BKN067/// 23/10
Q1019=
METAR ESGP 081220Z 18011KT 9999 FEW009 OVC027 17/16 Q1018 REDZ=
METAR ESGT 081220Z 20014KT 9999 BKN020 19/15 Q1018=
METAR ESMK 081220Z 21009KT 180V240 CAVOK 26/11 Q1020=
METAR ESMQ 081220Z 17013KT CAVOK 23/14 Q1019=
METAR ESMS 081220Z 18011KT 160V220 CAVOK 24/11 Q1021=
METAR ESMT 081220Z NIL=
METAR ESMX 081220Z 21009KT 170V320 CAVOK 25/11 Q1020=
METAR ESTA 081220Z 18011KT CAVOK 23/15 Q1020=
METAR ESTL 081220Z AUTO 19009KT 150V220 9999NDV FEW045///
SCT070/// 24/11 Q1020=
####018000504####
SAFI31 EFHK 081220
METAR EFHK 081220Z 32007KT 280V350 9999 FEW039 BKN050 27/18 Q1014
NOSIG=
EFJY 081220Z VRB02KT 9999 SCT030 SCT080 24/17 Q1015=
METAR EFKU 081220Z AUTO 30005KT CAVOK 24/18 Q1015=
EFOU 081220Z VRB03KT 9999 FEW040 BKN200 22/10 Q1015=
METAR EFRO 081220Z AUTO 12006KT 060V180 CAVOK 21/08
 Q1016=
EFTP 081220Z 24004KT 170V340 9999 FEW045 SCT200 26/14 Q1015=
METAR EFTU 081220Z AUTO 29011KT CAVOK 25/13 Q1015=
EFVA 081220Z 27007KT 180V320 9999 FEW030 SCT200 25/14 Q1014=
####018000081####
SALV32 EVRA 081220 RRF
METAR EVLA 081220Z 30006KT 270V340 CAVOK 22/15 Q1018=
####018000191####
SATU20 LTAA 081150 RRA
METAR LTAU 081220Z VRB05KT 9999 SCT040 34/12 Q1009 NOSIG RMK RWY07 VRB06KT=
METAR LTBU 081220Z 31010KT 9999 SCT030 BKN100 18/14 Q1013 RESHRA RMK RWY23
33011KT=
####018000081####
SALV32 EVRA 081220 RRH
METAR EVLA 081220Z 30006KT 270V340 CAVOK 22/15 Q1018=
####018000923####
SAUS20 KNKA 081224
METAR KRMN 081220Z AUTO 10003KT 5SM BR SCT120 27/26 A3004 RMK AO2=
METAR KRUQ 081222Z AUTO 00000KT 10SM SCT095 25/21 A3003 RMK AO2=
METAR KSFQ 081220Z AUTO 00000KT 7SM CLR 26/24 A3001 RMK AO2=
METAR KSIF 081221Z AUTO 00000KT 7SM CLR 28/22 A3003 RMK AO2=
METAR KSVH 081220Z AUTO 00000KT 7SM CLR 26/19 A3006 RMK AO2 
     T02610186=
METAR KTBR 081220Z AUTO 27003KT 10SM CLR 26/20 A3000 RMK AO2 
     T02590198=
METAR KVJI 081222Z AUTO 09003KT 5SM HZ CLR 24/20 RMK AO2=
METAR KVVG 081215Z AUTO 01003KT 23/23 A3002 RMK AO2=
METAR KW22 081220Z AUTO 00000KT 5SM  BR CLR 22/21 A3014 RMK AO2=
METAR KW45 081220Z AUTO 00000KT 7SM CLR 26/20 A3006 RMK AO2 
     T02590196=
METAR KWDR 081220Z AUTO 29003KT 10SM CLR 26/21 A3008 RMK AO1=
METAR KXLL 081220Z AUTO 12004KT 7SM CLR 27/23 A3006 RMK AO2 
     T02700229=
METAR KXSA 081220Z AUTO 00000KT 5SM CLR 28/25 A3000 RMK AO2 PWINO=
####018002941####
SAUS20 KNKA 081224
METAR K8A0 081219Z AUTO 01004KT 10SM CLR 26/22 A3009 RMK AO2=
METAR KAFP 081220Z AUTO 00000KT 10SM CLR 26/17 A2999 RMK AO2 
     T02610173=
METAR KALX 081220Z AUTO 00000KT 10SM CLR 25/22 A3006 RMK AO1=
METAR KCPC 081220Z AUTO 01003KT 10SM CLR 27/20 A2994 RMK AO2 
     T02650203=
METAR KEHO 081220Z AUTO 00000KT 10SM CLR 23/19 A3004 RMK AO2 
     T02320186=
METAR KEYF 081220Z AUTO 00000KT 7SM CLR 26/20 A2996 RMK AO2 
     T02580203=
METAR KFFA 081218Z AUTO 07005KT 10SM CLR 27/23 A2997 RMK AO2 
     T02650225=
METAR KGAO 081220Z AUTO 07005KT 10SM CLR 27/25 A3001 RMK AO2=
METAR KGWW 081220Z AUTO 04005KT 5SM HZ SCT120 26/22 A2996 RMK AO2 
     T02620219=
METAR KHDC 081223Z AUTO 07004KT 10SM CLR 27/26 A3005 RMK AO2=
METAR KHNZ 081220Z AUTO 02004KT 5SM HZ SCT110 27/21 A3001 RMK AO2 
     T02680208=
METAR KIDI 081220Z AUTO 00000KT 7SM SCT070 23/21 A3012 RMK AO2=
METAR KIER 081220Z AUTO 00000KT 7SM OVC100 24/24 A3005 RMK AO2 
     PWINO=
METAR KIXA 081220Z AUTO 05005KT 5SM HZ SCT075 SCT085 BKN110 26/22 
     A2998 RMK AO2 T02580217=
METAR KJGG 081220Z AUTO 00000KT 7SM SCT013 BKN019 BKN075 28/26 
     A3001 RMK AO1=
METAR KJKA 081220Z AUTO 00000KT 7SM CLR 28/26 A3003 RMK AO2 
     T02760264=
METAR KJYL 081222Z AUTO 00000KT 10SM CLR 26/22 A3002 RMK AO2=
METAR KJYO 081220Z AUTO 35003KT 7SM CLR 29/20 A3003 RMK AO2=
METAR KLDJ 081220Z AUTO 12003KT 4SM BR OVC004 25/23 A3005 RMK AO2 
     T02470231=
METAR KLGC 081215Z AUTO 00000KT 10SM CLR 24/24 A3004 RMK AO1=
METAR KLHZ 081220Z AUTO 01003KT 7SM SCT085 SCT120 28/20 A3000 RMK 
     AO2 T02800201=
METAR KLKU 081220Z AUTO 01005KT 7SM CLR 28/20 A3001 RMK AO2=
METAR KLNP 081218Z AUTO 00000KT 7SM CLR 24/19 A3020 RMK AO1=
METAR KLOM 081220Z AUTO 14005KT 5SM CLR 28/23 A3003 RMK AO1 
     T02780226=
METAR KLWB 081222Z AUTO 00000KT 5SM HZ BKN055 22/18 A3018 RMK AO2=
METAR KMDQ 081220Z AUTO 00000KT 10SM CLR 25/22 A3009 RMK AO2 
     T02470220=
METAR KMGR 081220Z AUTO 00000KT 10SM CLR 25/21 A3005 RMK AO2=
METAR KMKJ 081220Z AUTO 00000KT 5SM SCT085 22/09 A3023 RMK AO1=
METAR KMQS 081220Z AUTO 14004KT 5SM CLR 26/23 A3007 RMK AO2 PWINO 
     PNO=
METAR KMTV 081220Z AUTO 00000KT 7SM CLR 27/22 A3007 RMK AO2=
METAR KOBE 081221Z AUTO 04004KT 10SM CLR 26/23 A3000 RMK AO2=
METAR KOKV 081220Z AUTO 00000KT 7SM CLR 29/19 A3005 RMK AO2 
     T02920187=
METAR KOMH 081220Z AUTO 34005KT 7SM SCT110 28/21 A3004 RMK AO2 
     T02820212=
METAR KONX 081220Z AUTO 07008KT 10SM SCT012 OVC120 27/22 A2999 
     RMK AO2 T02700216=
METAR KOPN 081220Z AUTO 00000KT 10SM CLR 27/23 A3006 RMK AO1=
METAR KPCM 081220Z AUTO 04003KT 10SM CLR 25/23 A3003 RMK AO2=
METAR KPGV 081221Z AUTO 00000KT 4SM BR SCT120 25/23 A2997 RMK AO2=
SPECI KPWA 081222Z 00000KT 6SM BR SCT004 23/21 A3007 RMK AO2=
METAR KRCZ 081220Z AUTO 35004KT 10SM CLR 26/19 A2998 RMK AO2 
     T02590193=
####018000075####
SACN96 CWAO 081220
WZQ SA 1220 AUTO8 M M M M/24/17/1910/M/M M 69MM=

####018000198####
SADN33 EKCH 081220
METAR EKKA 081220Z 19008KT 160V220 8000 -SHRA FEW009 FEW018TCU
BKN030 18/17 Q1018 TEMPO 4000 SHRA SCT020CB=
METAR EKSP 081220Z 23011KT CAVOK 25/11 Q1019 NOSIG RMK BKN090=
####018000083####
SARW20 HRYR 081230
METAR
HRYR 081230Z VRB06KT 9999 SCT030 26/13 Q1020 NOSIG=
####018000082####
SALY31 HLLT 081230
METAR HLLT 081220Z 
33006KT 270V010 8000 SKC 31/18 Q1018=
####018000083####
SPUS72 KWBC 081224
SPECI
KTXK 081222Z 00000KT 1 1/2SM BR OVC001 23/23 A3006=
####018000088####
SPUS81 KWBC 081224
SPECI
KATT 081221Z AUTO VRB04KT 8SM SCT007 OVC022 25/23 A2998=
####018000093####
SPCN47 CWAO 081223
SPECI CYMO 081223Z AUTO 32009KT 9SM -RA FEW035 OVC090 19/18 A2988=

####018000076####
SPUS81 KWBC 081224
SPECI
KHTS 081221Z 00000KT 2SM BR CLR 24/22 A3010=
####018000478####
SARS18 KAWN 081200 RRF
METAR EETN 081220Z 32009KT 280V350 CAVOK 25/18 Q1014 NOSIG=
METAR EFHK 081220Z 32007KT 280V350 9999 FEW039 BKN050 27/18 Q1014 NOSIG=
METAR EVLA 081220Z 30006KT 270V340 CAVOK 22/15 Q1018=
METAR EVRA 081220Z 32012KT 9999 OVC021 20/15 Q1015 NOSIG=
METAR EYKA 081220Z 29010KT 250V330 9999 OVC032 16/16 Q1017=
METAR EYPA 081220Z 32006KT CAVOK 21/16 Q1019=
METAR EYVI 081220Z 28011KT 250V320 2600 SHRA BKN006 OVC012CB 15/14
      Q1015 NOSIG=
####018000105####
SAUK39 EGRR 081150 CCB
METAR EGXW 081150Z 27009KT 9999 FEW040 SCT100 BKN250 21/09 Q1017 BLU
NOSIG=
####018000078####
SACN87 CWAO 081222
WWL SA 1222 AUTO4 M M M 173/12/M/MMMM/M/ 1005 2MMM=

####018001801####
SAEU KAWN 081200 RRX
METAR EDDB 081220Z 29001KT CAVOK 27/05 Q1021 NOSIG=
METAR EDDC 081220Z 18001KT CAVOK 26/11 Q1022 NOSIG=
METAR EDDE 081220Z VRB02KT CAVOK 28/09 Q1021 NOSIG=
METAR EDDF 081220Z VRB03KT CAVOK 29/10 Q1020 NOSIG=
METAR EDDG 081220Z 26007KT CAVOK 30/10 Q1019 NOSIG=
METAR EDDH 081220Z 24007KT 190V260 CAVOK 29/12 Q1019 NOSIG=
METAR EDDK 081220Z 14004KT 100V230 CAVOK 31/10 Q1019 NOSIG=
METAR EDDL 081220Z 24007KT 220V320 CAVOK 30/09 Q1019 NOSIG=
METAR EDDM 081220Z 12006KT 060V140 CAVOK 25/09 Q1022 NOSIG=
METAR EDDN 081220Z 16006KT 130V200 CAVOK 28/08 Q1022 NOSIG=
METAR EDDP 081220Z VRB05KT CAVOK 27/11 Q1021 NOSIG=
METAR EDDR 081220Z 20001KT CAVOK 29/10 Q1020 NOSIG=
METAR EDDS 081220Z VRB02KT CAVOK 28/09 Q1021 NOSIG=
METAR EDDT 081220Z 17002KT CAVOK 27/06 Q1021 NOSIG=
METAR EDDV 081220Z 21009KT CAVOK 29/09 Q1019 NOSIG=
METAR EDDW 081220Z VRB03KT CAVOK 30/09 Q1018 NOSIG=
METAR EGXT 081150Z 23012KT 9999 FEW035 BKN250 21/05 Q1018 BLU=
METAR EHEH 081225Z AUTO 28006KT 9999NDV NCD 31/11 Q1018 BLU BLU=
METAR EKAH 081220Z AUTO 20006KT 150V250 9999NDV BKN080/// 22/14 Q1019=
METAR EKCH 081220Z 16013KT CAVOK 22/15 Q1020 NOSIG=
METAR EKEB 081220Z AUTO 25010KT 6000NDV -SHRA BKN046/// 19/16 Q1019=
METAR EKKA 081220Z 19008KT 160V220 8000 -SHRA FEW009 FEW018TCU BKN030
      18/17 Q1018 TEMPO 4000 SHRA SCT020CB=
METAR EKRN 081220Z AUTO 21004KT 170V240 9999NDV NCD 20/15 Q1022=
METAR EKSP 081220Z 23011KT CAVOK 25/11 Q1019 NOSIG RMK BKN090=
METAR EKYT 081220Z 18012KT 9999 -RA FEW012 BKN020 18/16 Q1018 TEMPO
      7000 BKN012=
METAR LQBK 081230Z 27006KT 9999 FEW040 24/11 Q1022 NOSIG=
METAR LQSA 081200Z 29007KT 230V010 9999 SCT060 22/12 Q1023 NOSIG=
METAR LQSA 081230Z 30005KT 200V040 9999 FEW050 SCT600 22/12 Q1023 NOSIG=
####018001748####
SAEW KAWN 081200 RRI
METAR EDDB 081220Z 29001KT CAVOK 27/05 Q1021 NOSIG=
METAR EDDC 081220Z 18001KT CAVOK 26/11 Q1022 NOSIG=
METAR EDDE 081220Z VRB02KT CAVOK 28/09 Q1021 NOSIG=
METAR EDDF 081220Z VRB03KT CAVOK 29/10 Q1020 NOSIG=
METAR EDDG 081220Z 26007KT CAVOK 30/10 Q1019 NOSIG=
METAR EDDH 081220Z 24007KT 190V260 CAVOK 29/12 Q1019 NOSIG=
METAR EDDK 081220Z 14004KT 100V230 CAVOK 31/10 Q1019 NOSIG=
METAR EDDL 081220Z 24007KT 220V320 CAVOK 30/09 Q1019 NOSIG=
METAR EDDM 081220Z 12006KT 060V140 CAVOK 25/09 Q1022 NOSIG=
METAR EDDN 081220Z 16006KT 130V200 CAVOK 28/08 Q1022 NOSIG=
METAR EDDP 081220Z VRB05KT CAVOK 27/11 Q1021 NOSIG=
METAR EDDR 081220Z 20001KT CAVOK 29/10 Q1020 NOSIG=
METAR EDDS 081220Z VRB02KT CAVOK 28/09 Q1021 NOSIG=
METAR EDDT 081220Z 17002KT CAVOK 27/06 Q1021 NOSIG=
METAR EDDV 081220Z 21009KT CAVOK 29/09 Q1019 NOSIG=
METAR EDDW 081220Z VRB03KT CAVOK 30/09 Q1018 NOSIG=
METAR EHEH 081225Z AUTO 28006KT 9999NDV NCD 31/11 Q1018 BLU BLU=
METAR EKAH 081220Z AUTO 20006KT 150V250 9999NDV BKN080/// 22/14 Q1019=
METAR EKBI 081220Z 25006KT 210V290 9999 FEW018 FEW025CB BKN095 20/15
      Q1019=
METAR EKCH 081220Z 16013KT CAVOK 22/15 Q1020 NOSIG=
METAR EKEB 081220Z AUTO 25010KT 6000NDV -SHRA BKN046/// 19/16 Q1019=
METAR EKKA 081220Z 19008KT 160V220 8000 -SHRA FEW009 FEW018TCU BKN030
      18/17 Q1018 TEMPO 4000 SHRA SCT020CB=
METAR EKRN 081220Z AUTO 21004KT 170V240 9999NDV NCD 20/15 Q1022=
METAR EKSP 081220Z 23011KT CAVOK 25/11 Q1019 NOSIG RMK BKN090=
METAR EKYT 081220Z 18012KT 9999 -RA FEW012 BKN020 18/16 Q1018 TEMPO
      7000 BKN012=
METAR LSGG 081220Z 21007KT 150V270 9999 FEW080 SCT300 31/12 Q1021 NOSIG=
METAR LSZH 081220Z VRB03KT CAVOK 28/13 Q1022 NOSIG=
####018000103####
SAUK39 EGRR 081050 CCD
METAR EGVP 081050Z 23002KT 9999 BKN012 19/15 Q1018 GRN BECMG SCT025
 BLU=
####018000115####
SAUS45 KPUB 081224
MTRLXV
SPECI KLXV 081223Z AUTO 11003KT 7SM OVC002 06/05 A3052 RMK AO2 CIG 
001V005 TSNO
####018000132####
SPCN47 CWAO 081224
SPECI CYZE 081224Z AUTO 20008KT 6SM BR FEW004 BKN100 BKN120 20/19
 A2997 RMK SLP148 DENSITY ALT 1300FT=

####018000124####
SAUS44 KCRP 081224
MTRVCT
SPECI KVCT 081223Z 04007KT 2 1/2SM +RA BR SCT016 BKN026 OVC046 24/24 
A2990 RMK AO2 P0012
####018000306####
SAUS20 KNKA 081224
SPECI KCYS 081223Z 00000KT 9SM OVC010 12/11 A3037 RMK AO2=
SPECI KMAF 081223Z 03007KT 10SM SCT005 OVC015 21/20 A3010 RMK AO2=
SPECI KSGF 081223Z 15003KT 7SM BKN007 OVC011 23/23 A3008 RMK AO2 CIG 
    003V010=
SPECI KTTN 081223Z 00000KT 1 3/4SM HZ BKN009 26/23 A3004 RMK AO2=
####018000118####
SAUS46 KLOX 081224
MTRNZY
SPECI KNZY 081223Z 33005KT 8SM -DZ FEW009 OVC015 18/13 A2990 RMK AO2 
DZB22 P0000 $
####018001796####
SAUK KAWN 081200 RRF
METAR EGAA 081220Z 22013KT 9999 FEW038 17/09 Q1014=
METAR EGAC 081220Z 21016KT 9999 FEW023 SCT039 18/08 Q1014=
METAR EGBB 081220Z 24006KT 200V290 9999 FEW040 21/09 Q1018=
METAR EGCC 081220Z 23012G22KT 200V280 9999 SCT038 BKN044 19/10 Q1017=
METAR EGFF 081220Z 22006KT 9999 FEW030 21/11 Q1018=
METAR EGGD 081220Z 32006KT 280V040 9999 FEW033 20/10 Q1019=
METAR EGGP 081220Z 24012KT 9999 SCT046 20/09 Q1017=
METAR EGGW 081220Z 23006KT 180V270 9999 SCT027 23/14 Q1018=
METAR EGHH 081220Z 18009KT 9999 6000S VCFG FEW026 SCT035 21/16 Q1019=
METAR EGHI 081220Z 23006KT 170V300 9999 SCT032 BKN038 21/14 Q1018=
METAR EGKB 081220Z 20009KT 160V250 9999 BKN035 24/14 Q1019=
METAR EGKK 081220Z 24006KT 180V270 9999 SCT040 25/14 Q1018=
METAR EGLC 081220Z 28006KT 260V320 9999 SCT032 22/15 Q1018=
METAR EGLL 081220Z 24009KT 190V290 9999 SCT023 SCT033 23/14 Q1018=
METAR EGMC 081220Z 22005KT 180V260 9999 FEW032 24/16 Q1018=
METAR EGMD 081220Z 20008KT 9999 FEW020 21/16 Q1019=
METAR EGMH 081220Z 12011KT 9999 FEW020 23/17 Q1019=
METAR EGNM 081220Z 27012KT 230V310 9999 SCT040 18/08 Q1017=
METAR EGNT 081220Z 25016KT 9999 FEW040 20/07 Q1014=
METAR EGNV 081220Z 24014KT 9999 FEW040 19/11 Q1016=
METAR EGNX 081220Z 26011KT 230V300 CAVOK 21/08 Q1018=
METAR COR EGPB 081220Z 20014KT CAVOK 15/11 Q1007 NOSIG=
METAR EGPD 081220Z 21015KT 9999 FEW042 19/08 Q1010 NOSIG=
METAR EGPF 081220Z 22018KT 9999 SCT030 18/10 Q1013=
METAR EGPH 081220Z 25014G25KT 9999 FEW035 18/07 Q1013=
METAR EGPK 081220Z 25016KT 9999 FEW024 19/10 Q1014=
METAR EGTC 081220Z 22008KT 190V280 9999 FEW034 21/12 Q1018=
METAR EGVP 081150Z 19007KT 9999 BKN016 BKN280 21/15 Q1018 WHT BECMG
      SCT025 BLU=
METAR EGXT 081150Z 23012KT 9999 FEW035 BKN250 21/05 Q1018 BLU=
####018001800####
SAEU KAWN 081200 RRX
METAR EGAA 081220Z 22013KT 9999 FEW038 17/09 Q1014=
METAR EGAC 081220Z 21016KT 9999 FEW023 SCT039 18/08 Q1014=
METAR EGBB 081220Z 24006KT 200V290 9999 FEW040 21/09 Q1018=
METAR EGCC 081220Z 23012G22KT 200V280 9999 SCT038 BKN044 19/10 Q1017=
METAR EGFF 081220Z 22006KT 9999 FEW030 21/11 Q1018=
METAR EGGD 081220Z 32006KT 280V040 9999 FEW033 20/10 Q1019=
METAR EGGP 081220Z 24012KT 9999 SCT046 20/09 Q1017=
METAR EGGW 081220Z 23006KT 180V270 9999 SCT027 23/14 Q1018=
METAR EGHH 081220Z 18009KT 9999 6000S VCFG FEW026 SCT035 21/16 Q1019=
METAR EGHI 081220Z 23006KT 170V300 9999 SCT032 BKN038 21/14 Q1018=
METAR EGKB 081220Z 20009KT 160V250 9999 BKN035 24/14 Q1019=
METAR EGKK 081220Z 24006KT 180V270 9999 SCT040 25/14 Q1018=
METAR EGLC 081220Z 28006KT 260V320 9999 SCT032 22/15 Q1018=
METAR EGLL 081220Z 24009KT 190V290 9999 SCT023 SCT033 23/14 Q1018=
METAR EGMC 081220Z 22005KT 180V260 9999 FEW032 24/16 Q1018=
METAR EGMD 081220Z 20008KT 9999 FEW020 21/16 Q1019=
METAR EGMH 081220Z 12011KT 9999 FEW020 23/17 Q1019=
METAR EGNM 081220Z 27012KT 230V310 9999 SCT040 18/08 Q1017=
METAR EGNT 081220Z 25016KT 9999 FEW040 20/07 Q1014=
METAR EGNV 081220Z 24014KT 9999 FEW040 19/11 Q1016=
METAR EGNX 081220Z 26011KT 230V300 CAVOK 21/08 Q1018=
METAR COR EGPB 081220Z 20014KT CAVOK 15/11 Q1007 NOSIG=
METAR EGPD 081220Z 21015KT 9999 FEW042 19/08 Q1010 NOSIG=
METAR EGPF 081220Z 22018KT 9999 SCT030 18/10 Q1013=
METAR EGPH 081220Z 25014G25KT 9999 FEW035 18/07 Q1013=
METAR EGPK 081220Z 25016KT 9999 FEW024 19/10 Q1014=
METAR EGTC 081220Z 22008KT 190V280 9999 FEW034 21/12 Q1018=
METAR EKBI 081220Z 25006KT 210V290 9999 FEW018 FEW025CB BKN095 20/15
      Q1019=
METAR EKRK 081220Z AUTO 20011KT 160V230 9999NDV BKN050/// 26/11 Q1019=
####018003449####
SAUS99 KWBC 081225
METAR
KRMN 081220Z AUTO 10003KT 5SM BR SCT120 27/26 A3004 RMK AO2=
KRUQ 081222Z AUTO 00000KT 10SM SCT095 25/21 A3003 RMK AO2=
KSFQ 081220Z AUTO 00000KT 7SM CLR 26/24 A3001 RMK AO2=
KSIF 081221Z AUTO 00000KT 7SM CLR 28/22 A3003 RMK AO2=
KSVH 081220Z AUTO 00000KT 7SM CLR 26/19 A3006 RMK AO2
     T02610186=
KTBR 081220Z AUTO 27003KT 10SM CLR 26/20 A3000 RMK AO2
     T02590198=
KVJI 081222Z AUTO 09003KT 5SM HZ CLR 24/20 RMK AO2=
KVVG 081215Z AUTO 01003KT 23/23 A3002 RMK AO2=
KW22 081220Z AUTO 00000KT 5SM BR CLR 22/21 A3014 RMK AO2=
KW45 081220Z AUTO 00000KT 7SM CLR 26/20 A3006 RMK AO2
     T02590196=
KWDR 081220Z AUTO 29003KT 10SM CLR 26/21 A3008 RMK AO1=
KXLL 081220Z AUTO 12004KT 7SM CLR 27/23 A3006 RMK AO2
     T02700229=
KXSA 081220Z AUTO 00000KT 5SM CLR 28/25 A3000 RMK AO2 PWINO=
K8A0 081219Z AUTO 01004KT 10SM CLR 26/22 A3009 RMK AO2=
KAFP 081220Z AUTO 00000KT 10SM CLR 26/17 A2999 RMK AO2
     T02610173=
KALX 081220Z AUTO 00000KT 10SM CLR 25/22 A3006 RMK AO1=
KCPC 081220Z AUTO 01003KT 10SM CLR 27/20 A2994 RMK AO2
     T02650203=
KEHO 081220Z AUTO 00000KT 10SM CLR 23/19 A3004 RMK AO2
     T02320186=
KEYF 081220Z AUTO 00000KT 7SM CLR 26/20 A2996 RMK AO2
     T02580203=
KFFA 081218Z AUTO 07005KT 10SM CLR 27/23 A2997 RMK AO2
     T02650225=
KGAO 081220Z AUTO 07005KT 10SM CLR 27/25 A3001 RMK AO2=
KGWW 081220Z AUTO 04005KT 5SM HZ SCT120 26/22 A2996 RMK AO2
     T02620219=
KHDC 081223Z AUTO 07004KT 10SM CLR 27/26 A3005 RMK AO2=
KHNZ 081220Z AUTO 02004KT 5SM HZ SCT110 27/21 A3001 RMK AO2
     T02680208=
KIDI 081220Z AUTO 00000KT 7SM SCT070 23/21 A3012 RMK AO2=
KIER 081220Z AUTO 00000KT 7SM OVC100 24/24 A3005 RMK AO2 PWINO=
KIXA 081220Z AUTO 05005KT 5SM HZ SCT075 SCT085 BKN110 26/22 A2998
     RMK AO2 T02580217=
KJGG 081220Z AUTO 00000KT 7SM SCT013 BKN019 BKN075 28/26 A3001 RMK
     AO1=
KJKA 081220Z AUTO 00000KT 7SM CLR 28/26 A3003 RMK AO2
     T02760264=
KJYL 081222Z AUTO 00000KT 10SM CLR 26/22 A3002 RMK AO2=
KJYO 081220Z AUTO 35003KT 7SM CLR 29/20 A3003 RMK AO2=
KLDJ 081220Z AUTO 12003KT 4SM BR OVC004 25/23 A3005 RMK AO2
     T02470231=
KLGC 081215Z AUTO 00000KT 10SM CLR 24/24 A3004 RMK AO1=
KLHZ 081220Z AUTO 01003KT 7SM SCT085 SCT120 28/20 A3000 RMK AO2
     T02800201=
KLKU 081220Z AUTO 01005KT 7SM CLR 28/20 A3001 RMK AO2=
KLNP 081218Z AUTO 00000KT 7SM CLR 24/19 A3020 RMK AO1=
KLOM 081220Z AUTO 14005KT 5SM CLR 28/23 A3003 RMK AO1
     T02780226=
KLWB 081222Z AUTO 00000KT 5SM HZ BKN055 22/18 A3018 RMK AO2=
KMDQ 081220Z AUTO 00000KT 10SM CLR 25/22 A3009 RMK AO2
     T02470220=
KMGR 081220Z AUTO 00000KT 10SM CLR 25/21 A3005 RMK AO2=
KMKJ 081220Z AUTO 00000KT 5SM SCT085 22/09 A3023 RMK AO1=
KMQS 081220Z AUTO 14004KT 5SM CLR 26/23 A3007 RMK AO2 PWINO
     PNO=
KMTV 081220Z AUTO 00000KT 7SM CLR 27/22 A3007 RMK AO2=
KOBE 081221Z AUTO 04004KT 10SM CLR 26/23 A3000 RMK AO2=
KOKV 081220Z AUTO 00000KT 7SM CLR 29/19 A3005 RMK AO2
     T02920187=
KOMH 081220Z AUTO 34005KT 7SM SCT110 28/21 A3004 RMK AO2
     T02820212=
KONX 081220Z AUTO 07008KT 10SM SCT012 OVC120 27/22 A2999 RMK AO2
     T02700216=
KOPN 081220Z AUTO 00000KT 10SM CLR 27/23 A3006 RMK AO1=
KPCM 081220Z AUTO 04003KT 10SM CLR 25/23 A3003 RMK AO2=
KPGV 081221Z AUTO 00000KT 4SM BR SCT120 25/23 A2997 RMK AO2=
KRCZ 081220Z AUTO 35004KT 10SM CLR 26/19 A2998 RMK AO2
     T02590193=
####018000348####
SPUS99 KWBC 081225
SPECI
KPWA 081222Z 00000KT 6SM BR SCT004 23/21 A3007 RMK AO2=
KCYS 081223Z 00000KT 9SM OVC010 12/11 A3037 RMK AO2=
KMAF 081223Z 03007KT 10SM SCT005 OVC015 21/20 A3010 RMK AO2=
KSGF 081223Z 15003KT 7SM BKN007 OVC011 23/23 A3008 RMK AO2 CIG
     003V010=
KTTN 081223Z 00000KT 1 3/4SM HZ BKN009 26/23 A3004 RMK AO2=
####018000536####
SAUK34 EGGY 081220
METAR EGHD 081220Z 21007KT 170V280 9999 FEW022 19/13 Q1020=
METAR EGHE 081220Z 20009KT 9999 FEW020 18/13 Q1019=
METAR EGHK 081220Z 15005KT 9999 SCT020 18/15 Q1018=
METAR EGHQ 081220Z 30006KT 250V330 9999 FEW025 18/13 Q1019=
METAR EGJA 081220Z 25005KT 9999 FEW006 19/16 Q1020=
METAR EGJB 081220Z 25005KT 210V290 9999 FEW013 20/17 Q1020=
METAR EGJJ 081220Z 27007KT 220V340 9999 FEW008 20/17 Q1019 NOSIG=
METAR EGTE 081220Z 17010KT 9999 FEW030 21/14 Q1018=
METAR EGTG 081220Z 27007KT 9999 FEW030 20/10 Q1018=
####018000080####
SALV32 EVRA 081220 RRJ
METAR EVLA 081220Z 30006KT 270V340 CAVOK 22/15 Q1018=
####018000438####
SAUK35 EGGY 081220
METAR EGHH 081220Z 18009KT 9999 6000S VCFG FEW026 SCT035 21/16
    Q1019=
METAR EGKA 081220Z NIL=
METAR EGKB 081220Z 20009KT 160V250 9999 BKN035 24/14 Q1019 =
METAR EGLF 081220Z NIL=
METAR EGMC 081220Z 22005KT 180V260 9999 FEW032 24/16 Q1018=
METAR EGMD 081220Z 20008KT 9999 FEW020 21/16 Q1019=
METAR EGMH 081220Z 12011KT 9999 FEW020 23/17 Q1019 =
METAR EGTC 081220Z 22008KT 190V280 9999 FEW034 21/12 Q1018=
####018000479####
SAUK31 EGGY 081220
METAR EGBB 081220Z 24006KT 200V290 9999 FEW040 21/09 Q1018=
METAR EGCC 081220Z 23012G22KT 200V280 9999 SCT038 BKN044 19/10
    Q1017=
METAR EGKK 081220Z 24006KT 180V270 9999 SCT040 25/14 Q1018=
METAR EGLL 081220Z 24009KT 190V290 9999 SCT023 SCT033 23/14
    Q1018=
METAR EGPF 081220Z 22018KT 9999 SCT030 18/10 Q1013=
METAR EGPH 081220Z 25014G25KT 9999 FEW035 18/07 Q1013=
METAR EGPK 081220Z 25016KT 9999 FEW024 19/10 Q1014=
METAR EGSS 081220Z NIL=
####018000080####
SALV32 EVRA 081220 RRK
METAR EVLA 081220Z 30006KT 270V340 CAVOK 22/15 Q1018=
####018000346####
SASW32 LSSW 081220
METAR LSGC 081220Z NIL=
METAR LSGS 081220Z 23008KT 200V270 9999 FEW120 30/13 Q1019=
METAR LSZG 081220Z 24004KT 160V290 9999 FEW050 28/13 Q1021 NOSIG=
METAR LSZR 081220Z 31003KT 250V350 CAVOK 25/14 Q1022 NOSIG RMK I=
METAR LSZS 081220Z VRB05G20KT CAVOK 26/08 Q1026=
METAR LSZC 081220Z 08005KT 030V120 CAVOK 28/16 Q1021=
####018000485####
SASN32 ESWI 081220
METAR ESKN 081220Z 28011KT 230V320 9999 SCT048 25/13 Q1017=
METAR ESOE 081220Z NIL=
METAR ESOK 081220Z 24004KT 9999 BKN023 18/14 Q1017=
METAR ESOW 081220Z 25011KT CAVOK 24/14 Q1017=
METAR ESSA 081220Z 23013KT 9999 FEW045 25/14 Q1016 NOSIG=
METAR ESSB 081220Z 26010KT 220V310 9999 SCT048 25/12 Q1016=
METAR ESSD 081220Z AUTO 25010KT 9999NDV BKN027/// 20/13 Q1016=
METAR ESSP 081220Z 26012KT CAVOK 24/12 Q1017=
METAR ESSV 081220Z 28007KT CAVOK 22/10 Q1019=
####018000154####
SASN34 ESWI 081220
METAR ESDF 081220Z NIL=
METAR ESPA 081220Z 13012KT CAVOK 19/13 Q1015=
METAR ESSL 081220Z 23007KT 190V270 9999 SCT045 24/12 Q1018=
####018000492####
SASN35 ESWI 081220
METAR ESGL 081220Z AUTO 24009KT 9999NDV FEW037/// BKN071/// 21/15 
Q1018=
METAR ESGR 081220Z AUTO 21014KT 9999NDV BKN043/// BKN210/// 22/14
Q1018=
METAR ESKM 081220Z NIL=
METAR ESNL 081220Z AUTO 15012KT 9999NDV SCT052/// BKN100/// 21/11
Q1013=
METAR ESNX 081220Z AUTO 15003KT 9999NDV -RA FEW009/// SCT029///
15/14 Q1014=
METAR ESNY 081220Z AUTO 28009KT 230V310 9999 FEW041 23/15 Q1014=
METAR ESSF 081220Z NIL=
METAR ESSK 081220Z NIL=
METAR ESUD 081220Z NIL=
####018000609####
SASN33 ESWI 081220
METAR ESNG 081220Z 14008KT 9999 DZ FEW074 17/13 Q1014 RERA=
METAR ESNK 081220Z AUTO 18009KT 9999NDV BKN046/// 21/14 Q1012=
METAR ESNN 081220Z AUTO 24006KT 210V280 9999NDV FEW037///
BKN043/// 22/13 Q1013=
METAR ESNO 081220Z AUTO 18011KT 140V210 9999NDV FEW076/// 20/10
Q1013=
METAR ESNQ 081220Z 18010KT 9999 -RA FEW018 SCT061 17/10 Q1013 REDZ=
METAR ESNS 081220Z AUTO 14011KT 9999NDV ////// 22/09 Q1014=
METAR ESNU 081220Z 17008KT 140V210 CAVOK 21/13 Q1014=
METAR ESNZ 081220Z 19008KT CAVOK 20/11 Q1011=
METAR ESUT 081220Z AUTO 14011KT 9999NDV BKN051/// OVC110/// 19/11
Q1010=
####018000397####
SAFI32 EFHK 081220
EFHA 081220Z 12003KT 9999 FEW030TCU BKN200 24/14 Q1015=
EFHF 081220Z 34005KT 290V010 9999 FEW042 SCT055 27/19 Q1013=
EFKA 081220Z 21005KT 150V260 9999 FEW045 BKN200 25/11 Q1015=
EFKK 081220Z AUTO 14007KT 090V190 CAVOK 25/11 Q1014=
EFMA 081220Z 21009KT CAVOK 21/13 Q1016=
EFPO 081220Z AUTO 27007KT 230V310 CAVOK 23/12 Q1016=
EFSI 081220Z AUTO VRB03KT CAVOK 26/12 Q1015=
####018000080####
SALV32 EVRA 081220 RRL
METAR EVLA 081220Z 30006KT 270V340 CAVOK 22/15 Q1018=
####018000080####
SALV32 EVRA 081220 RRM
METAR EVLA 081220Z 30006KT 270V340 CAVOK 22/15 Q1018=
####018000072####
SASD20 OEJD 081200 RRA
METAR OEPA 081200Z 36014KT CAVOK 45/05 Q1003=
####018000079####
SPUS41 KWBC 081225
SPECI
KBDL 081222Z 14009KT 3SM HZ OVC008 25/22 A3007=
####018000753####
SADL52 ETGT 081220
METAR
ETGQ NIL=
ETGZ 081220Z 24003KT 9999 FEW330 25/08 Q1024
      BLU+=
ETHA 081220Z 33003KT 9999 FEW055 25/10 Q1023
      BLU+BLU+=
ETHL 081220Z VRB02KT 9999 FEW140 27/08 Q1022
      BLU+BLU+=
ETHN 081220Z 19003KT 9999 FEW250 27/09 Q1022
      BLU+BLU+=
ETHR 081220Z 08005KT 9999 FEW340 26/06 Q1022
      BLU+BLU+=
ETNN 081220Z 16005KT 9999 FEW060 SCT300 31/04 Q1019
      BLU+BLU+=
ETSA 081220Z 04004KT 9999 25/10 Q1023
      BLU+BLU+=
ETSB 081220Z 21006KT 9999 FEW300 28/09 Q1021
      BLU+BLU+=
ETSE 081220Z 08001KT 9999 FEW170 24/07 Q1023
      BLU+BLU+=
ETSI 081220Z 14004KT 9999 26/07 Q1022
      BLU+BLU+=
ETSL NIL=
ETSN 081220Z 07005KT 9999 FEW160 26/07 Q1022
      BLU+=
