####018000075####
SAUS81 KWBC 081128
&EHA SA 1128  AMOS 63/62/0103~r/M PK WND 08 082

####018000171####
SAUS73 KWBC 081100 RRF
METAR
KALN 081123Z AUTO 00000KT 5SM BR SCT037 BKN044 BKN060 25/25
     A3004=
KIKK 081125Z AUTO 00000KT 4SM HZ SCT085 BKN095 26/23 A3003=
####018000096####
SANO37 ENMI 081120 RRA
METAR ENNO 081120Z 12011G18KT 9999 FEW020 SCT025 BKN060 20/15 Q1014=
####018001258####
SAEW KAWN 081100 RRL
METAR EBAW 081120Z 19006KT 140V240 CAVOK 29/12 Q1019 NOSIG=
METAR EBCI 081120Z VRB02KT CAVOK 30/10 Q1020 NOSIG=
METAR EDHL 081120Z 20007G20KT 140V260 CAVOK 28/11 Q1019 RMK O=
METAR EDLW 081120Z 22008KT 160V280 CAVOK 30/10 Q1020 RMK ATIS Q=
METAR EDNY 081120Z 19006KT CAVOK 26/13 Q1022 RMK ATIS P=
METAR EHAM 081125Z 30008KT 230V340 9999 FEW035 24/16 Q1019 NOSIG=
METAR EHBK 081125Z AUTO VRB06KT 9999NDV NCD 29/11 Q1019 NOSIG=
METAR EHDL 081125Z AUTO 24008KT 9999NDV NCD 29/12 Q1019 BLU=
METAR EHGG 081125Z AUTO 26011KT 220V300 9999NDV NSC 27/13 Q1019 NOSIG=
METAR EHGR 081125Z AUTO 25008KT 9999NDV SCT130 29/11 Q1018 BLU BLU=
METAR EHKD 081125Z AUTO 23008KT 9999NDV BKN067/// BKN130/// 22/16 Q1019
      BLU BLU=
METAR EHLW 081125Z AUTO 24009KT 9999NDV FEW022 OVC068 23/17 Q1019 BLU
      BLU=
METAR EHRD 081125Z 28005KT 240V340 CAVOK 24/15 Q1019 NOSIG=
METAR EHVK 081125Z AUTO 21005KT 9999NDV NCD 30/11 Q1019 BLU BLU=
METAR EHVL 081125Z AUTO 23011KT 9999NDV FEW059 BKN066 BKN260 21/17
      Q1019 BLU=
METAR EHWO 081125Z AUTO 28006KT 9999NDV FEW390 27/12 Q1019 BLU BLU=
METAR ETHN 081120Z 33005KT 9999 FEW300 25/08 Q1022 BLU/BLU/=
METAR ETHS 081120Z 23009KT 9999 FEW130 29/07 Q1019 BLU/BLU/=
####018000392####
SAXX70 KAWN 081100 RRQ
METAR KQEL 081120Z AUTO 00002KT 7SM -SHRA OVC045 23/20 A2973 RMK A02=
METAR KQEQ 081120Z AUTO 34001KT 7SM -SHRA FEW037 BKN100 23/20 A2982
      RMK A02=
METAR KQEW 081120Z AUTO 00000KT 7SM FEW100 25/21 A2982 RMK A02=
METAR KQEX 081120Z AUTO 20003KT 4SM BR FEW140 26/20 A2974 RMK A02=
METAR KQFT 081120Z AUTO 04001KT 3SM -RA BR OVC005 24/21 A2984 RMK A02=
####018000107####
SATU33 LTAA 081120
METAR LCEN 081120Z 14015KT 9999 SCT025 33/18 Q1007 NOSIG=
METAR LCGK 081120Z NIL=
####018000080####
SANO38 ENMI 081120 RRA
METAR ENEK 081120Z 24012KT CAVOK 16/13 Q1015 W15/S3=
####018002440####
SAUS20 KNKA 081130
SPECI KBOK 081130Z AUTO 00000KT 3/4SM BR OVC002 09/09 A2998 RMK AO2 
    $=
METAR KCCA 081135Z AUTO 00000KT 8SM OVC006 23/23 A3007 RMK AO2 =
METAR KCDN 081135Z AUTO 28003KT 10SM CLR 24/20 A3000 RMK A02 P000 
     =
METAR KCKI 081135Z AUTO 29004KT 10SM CLR 23/20 A2996 RMK AO2=
METAR KFWC 081125Z AUTO 00000KT 5SM BR CLR 23/22 A3005 RMK AO2=
SPECI KFYV 081129Z 00000KT 10SM -RA SCT022 OVC030 22/21 A3008 RMK 
    AO2 RAB27 P0000=
METAR KIGQ 081120Z AUTO 00000KT 3SM -RA SCT065 BKN080 120 23/22 
     A3003 RMK AO2 LTG DSNT E=
METAR KIKK 081126Z AUTO 00000KT 4SM HZ BKN085 BKN095 26/23 A3003 
     RMK AO2 LTG DSNT SE=
SPECI KIMT 081129Z AUTO 00000KT 10SM FEW004 SCT010 OVC014 20/19 
    A3000 RMK AO2=
METAR KLRO 081135Z AUTO 28004KT 8SM CLR 23/19 A2996 RMK AO2 =
SPECI KMHT 081129Z 19005KT 3SM HZ SCT014 BKN038 OVC050 24/21 A3007 
    RMK AO2 SFC VIS 4=
METAR KMKS 081135Z AUTO 00000KT 7SM CLR 23/20 A2996 RMK AO2 TSNO=
METAR KRWV 081120Z AUTO 06003KT 8SM SCT006 BKN037 24/24 A2999 RMK 
     AO2=
METAR KRYW 081125Z AUTO 06003KT 3SM -RA BKN007 BKN015 OVC023 
     23/22 A3000 RMK AO2 P0006=
METAR KSAR 081125Z AUTO 18006KT 7SM SCT065 BKN070 OVC085 26/23 
     A3005 RMK AO2=
METAR KSLO 081123Z AUTO 21003KT 10SM CLR 25/22 A3006 RMK AO2 
     T02460221=
METAR KSLR 081122Z AUTO 00000KT 7SM SCT007 OVC044 25/24 A3005 RMK 
     AO2 T02500235=
METAR KSNK 081126Z AUTO 02006KT 7SM SCT003 OVC008 21/20 A3010 RMK 
     AO2 T02080198=
METAR KSOA 081120Z AUTO 03003KT 9SM 22/21 A3008 RMK AO2=
METAR KSWW 081125Z AUTO 02004KT 1SM OVC002 21/21 A3010 RMK AO1 
     T02130210=
METAR KT65 081125Z AUTO 01004KT 10SM SCT013 BKN050 OVC070 26/25 
     A2979 RMK AO2 T02550245=
METAR KT82 081125Z AUTO 00000KT 22/22 A3002 RMK AO1 T02220215=
METAR KTAZ 081125Z AUTO 00000KT 2 1/2SM BR CLR 23/23 A3004 RMK AO2=
METAR KTFP 081125Z AUTO 34004KT 10SM SCT015 SCT034 BKN060 27/25 
     A2982 RMK AO2 LTG DSNT SW T02650251=
METAR KTIP 081125Z AUTO 00000KT 4SM BR SCT090 24/23 A3005 RMK AO2 
     T02400232=
METAR KTYQ 081125Z AUTO 00000KT 5SM BR SCT070 OVC100 23/22 A3007 
     RMK AO2 LTG DSNT N=
METAR KUVA 081125Z AUTO 04003KT 10SM BKN023 24/23 A2996 RMK AO2 
     T02410230=
METAR KVYS 081125Z AUTO 00000KT 4SM BR BKN016 OVC022 23/22 A3004 
     RMK AO2 T02320215=
METAR KXBP 081125Z AUTO 00000KT 10SM CLR 23/22 A3003 RMK AO2 
     T02300220=
####018000126####
SPCN47 CWAO 081130
SPECI CYTZ 081130Z AUTO 00000KT 3SM BR SCT002 21/21 A3002 RMK SLP165
 DENSITY ALT 800FT RVR MISG=

####018000075####
SALY31 HLLB 081130
METAR HLLB 081125Z 32017KT 9999 FEW025 30/17 Q1016=
####018000101####
SATG20 DXXX 081130
METAR DXXX 081130Z 20011KT 180V240 9999 SCT016 FEW025TCU 30/24 Q1014
NOSIG=
####018000177####
SANL32 EHDB 081125
METAR EHEH 081125Z AUTO 23007KT 9999NDV BKN350 30/12 Q1019 
BLU BLU=
METAR EHKD 081125Z AUTO 23008KT 9999NDV BKN067/// BKN130/// 22/16
Q1019 
BLU BLU=
####018001917####
SAUS99 KWBC 081131
METAR
KCCA 081135Z AUTO 00000KT 8SM OVC006 23/23 A3007 RMK AO2=
KCDN 081135Z AUTO 28003KT 10SM CLR 24/20 A3000 RMK A02 P000=
KCKI 081135Z AUTO 29004KT 10SM CLR 23/20 A2996 RMK AO2=
KFWC 081125Z AUTO 00000KT 5SM BR CLR 23/22 A3005 RMK AO2=
KIGQ 081120Z AUTO 00000KT 3SM -RA SCT065 BKN080 120 23/22 A3003
     RMK AO2 LTG DSNT E=
KIKK 081126Z AUTO 00000KT 4SM HZ BKN085 BKN095 26/23 A3003 RMK AO2
     LTG DSNT SE=
KLRO 081135Z AUTO 28004KT 8SM CLR 23/19 A2996 RMK AO2=
KMKS 081135Z AUTO 00000KT 7SM CLR 23/20 A2996 RMK AO2 TSNO=
KRWV 081120Z AUTO 06003KT 8SM SCT006 BKN037 24/24 A2999 RMK
     AO2=
KRYW 081125Z AUTO 06003KT 3SM -RA BKN007 BKN015 OVC023 23/22 A3000
     RMK AO2 P0006=
KSAR 081125Z AUTO 18006KT 7SM SCT065 BKN070 OVC085 26/23 A3005 RMK
     AO2=
KSLO 081123Z AUTO 21003KT 10SM CLR 25/22 A3006 RMK AO2
     T02460221=
KSLR 081122Z AUTO 00000KT 7SM SCT007 OVC044 25/24 A3005 RMK AO2
     T02500235=
KSNK 081126Z AUTO 02006KT 7SM SCT003 OVC008 21/20 A3010 RMK AO2
     T02080198=
KSOA 081120Z AUTO 03003KT 9SM 22/21 A3008 RMK AO2=
KSWW 081125Z AUTO 02004KT 1SM OVC002 21/21 A3010 RMK AO1
     T02130210=
KT65 081125Z AUTO 01004KT 10SM SCT013 BKN050 OVC070 26/25 A2979
     RMK AO2 T02550245=
KT82 081125Z AUTO 00000KT 22/22 A3002 RMK AO1 T02220215=
KTAZ 081125Z AUTO 00000KT 2 1/2SM BR CLR 23/23 A3004 RMK AO2=
KTFP 081125Z AUTO 34004KT 10SM SCT015 SCT034 BKN060 27/25 A2982
     RMK AO2 LTG DSNT SW T02650251=
KTIP 081125Z AUTO 00000KT 4SM BR SCT090 24/23 A3005 RMK AO2
     T02400232=
KTYQ 081125Z AUTO 00000KT 5SM BR SCT070 OVC100 23/22 A3007 RMK AO2
     LTG DSNT N=
KUVA 081125Z AUTO 04003KT 10SM BKN023 24/23 A2996 RMK AO2
     T02410230=
KVYS 081125Z AUTO 00000KT 4SM BR BKN016 OVC022 23/22 A3004 RMK AO2
     T02320215=
KXBP 081125Z AUTO 00000KT 10SM CLR 23/22 A3003 RMK AO2
     T02300220=
####018000333####
SAUK38 EGGY 081120
METAR EGEC 081120Z NIL=
METAR EGPA 081120Z 21012KT 9999 SCT048 17/11 Q1007=
METAR EGPC 081120Z 20017G27KT 9999 FEW020 16/11 Q1008=
METAR EGPL 081120Z NIL=
METAR COR EGPM 081120Z 22024G36KT 9999 SCT030 17/10 Q1006 NOSIG=
METAR EGPO 081120Z 21019KT 9999 FEW014CB SCT030 15/11 Q1006=
METAR EGPU 081120Z NIL=
####018000751####
SPUS99 KWBC 081131
SPECI
KDDC 081128Z AUTO 36008KT 2 1/2SM BR OVC003 18/17 A3018 RMK
     AO2=
KEWR 081128Z 22003KT 4SM BR BKN007 BKN100 BKN250 26/25 A3004 RMK
     AO2 BKN007 V SCT=
KFLD 081128Z AUTO 00000KT 7SM SCT009 BKN015 22/21 A3001 RMK
     AO2=
KODO 081127Z AUTO 02009KT 7SM BKN003 OVC110 21/19 A3010 RMK
     AO2=
KSET 081128Z AUTO 00000KT 5SM BR SCT008 OVC038 24/24 A3003 RMK
     AO2=
KBOK 081130Z AUTO 00000KT 3/4SM BR OVC002 09/09 A2998 RMK AO2
     $=
KFYV 081129Z 00000KT 10SM -RA SCT022 OVC030 22/21 A3008 RMK AO2
     RAB27 P0000=
KIMT 081129Z AUTO 00000KT 10SM FEW004 SCT010 OVC014 20/19 A3000
     RMK AO2=
KMHT 081129Z 19005KT 3SM HZ SCT014 BKN038 OVC050 24/21 A3007 RMK
     AO2 SFC VIS 4=
####018000074####
SAEW LEJR 081130
METAR LEJR 081130Z 21005KT 150V270 CAVOK 30/17 Q1016=
####018000084####
SAGR32 LGAT 081120 RRA
METAR LGSR 081120Z 35017KT 9999 FEW020 27/19 Q1011 NOSIG=
####018000368####
SAUK36 EGGY 081120
METAR EGBE 081120Z NIL=
METAR EGBJ 081120Z 25006KT 190V280 9999 FEW035 21/09 Q1018=
METAR EGCN 081120Z 25012KT 9999 FEW041 21/10 Q1017=
METAR EGDL 081120Z NIL=
METAR EGSC 081120Z NIL=
METAR EGSD 081120Z NIL=
METAR COR EGSH 081120Z 25007KT 220V290 9999 SCT017 SCT020 22/15
    Q1018 NOSIG=
METAR EGVN 081120Z NIL=
METAR EGWU 081120Z NIL=
####018000426####
SAUK37 EGGY 081120
METAR EGAE 081120Z 24016KT 9999 FEW020 BKN040 17/11 Q1013=
METAR EGNC 081120Z NIL=
METAR EGNH 081120Z 24011KT 9999 FEW024 18/11 Q1017=
METAR EGNJ 081120Z 23013KT 190V260 9999 SCT033 21/11 Q1017=
METAR EGNR 081120Z 24011KT 220V290 9999 SCT030 21/10 Q1017=
METAR EGPE 081120Z 22019KT 9999 FEW012 SCT036 17/09 Q1009=
METAR EGPI 081120Z NIL=
METAR EGPN 081120Z 23015KT 9999 FEW032 SCT045 17/11 Q1012=
####018000104####
SPAU31 KWBC 081131
SPECI
YPPD 081130Z AUTO 27009KT 3000NDV // SCT010 BKN024 OVC074 22/20
Q1010=
####018000087####
SPSA31 KWBC 081131
SPECI
SPQT 081125Z ///// 9999 3000SW MIFG SCT100 24/23 Q1011=
####018000099####
SAHK31 VHHH 081130
METAR VHHH 081130Z 19009KT 150V210 9999 FEW015 SCT025 31/25 
Q1006 NOSIG=
####018000098####
SAUZ31 UTTT 081130
METAR UTTT 081130Z 36003MPS 290V360 CAVOK 39/05 Q1010
R08R/CLRD70 NOSIG=
####018000101####
SAAJ31 UBBB 081130
UBBN 081130Z 11010KT 9999 NSC 38/10 Q1008 R14R/CLRD60 NOSIG
RMK G/O QFE681=
####018000480####
SAHU41 LHBM 081130
METAR LHDC 081115Z 02010KT 9999 FEW043 22/11 Q1021 NOSIG=
METAR LHKE 081115Z 29002MPS CAVOK 25/11 Q1021 NOSIG RMK BLU=
METAR LHPA 081115Z 33004MPS CAVOK 24/10 Q1023 NOSIG RMK BLU=
METAR LHPP 081115Z 30006KT CAVOK 23/10 Q1023 NOSIG=
METAR LHPR 081115Z 31010KT CAVOK 24/07 Q1022=
METAR LHSM 081115Z 33005KT CAVOK 24/12 Q1023 NOSIG=
METAR LHSN 081115Z 01001MPS CAVOK 24/12 Q1021 NOSIG RMK BLU=
METAR LHUD 081115Z 01007KT 9999 SCT040 24/14 Q1022=
####018000700####
SANL33 EHDB 081125
METAR EHAK 081125Z AUTO 21008KT 9999NDV 17/12 Q1016=
METAR EHDV 081125Z NIL=
METAR EHFD 081125Z AUTO 22013KT 9999NDV FEW022/// SCT026/// BKN031///
16/15 Q1018=
METAR EHFZ 081125Z AUTO 23011KT 9999NDV SCT023/// BKN028/// 16/15
Q1018=
METAR EHJA 081125Z AUTO 24012KT 9999NDV SCT042/// SCT046/// 16/14
Q1018=
METAR EHJR 081125Z NIL=
METAR EHKV 081125Z AUTO 26012KT 9999NDV OVC018/// 16/15 Q1019=
METAR EHMA 081125Z AUTO 23011KT 9999NDV 21/17 Q1019=
METAR EHMG 081125Z AUTO 22014KT 9999NDV 17/15 Q1018=
METAR EHPG 081125Z AUTO 22010KT 9999NDV ///////// 16/15 Q1019=
METAR EHQE 081125Z AUTO 23011KT 9999NDV 16/15 Q1019=
METAR EHSA 081125Z NIL=
METAR EHSC 081125Z NIL=
####018000293####
SAPK31 OPKC 081130
METAR OPGD 081130Z NIL=
METAR OPKC 081125Z 17014KTS 8000 SCT030TCU SCT100 34/24 Q1002 TEMPO
NE 30KTS TSRA FEW025CB=
METAR OPLA 081125Z 09006KT 6000 SCT040 37/23 Q1003=
METAR OPNH 081130Z NIL=
METAR OPPS 081130Z NIL=
METAR OPRN 081130Z NIL=
METAR OPSK 081130Z NIL=
####018000089####
SAAJ31 UBBB 081130
METAR UBBB 081130Z 35020KT CAVOK 33/23 Q1010 NOSIG RMK
R88CLRD70=
####018000082####
SPUS52 KWBC 081131
SPECI
KCLL 081128Z AUTO 06007KT 10SM BKN007 25/23 A2997=
####018000403####
SAHK31 VHHH 081130
METAR VHHH 081130Z 19009KT 150V210 9999 FEW015 SCT025 31/25 
Q1006 NOSIG=
METAR RCTP 081130Z 24011KT 9999 FEW025 BKN150 29/24 Q1007
NOSIG=
METAR RCKH 081130Z 28005KT 9999 FEW013 BKN300 30/26 Q1009
NOSIG=
METAR RCSS 081130Z 26009KT 230V290 9999 FEW018 SCT028 BKN050 31/23
Q1007 NOSIG=
METAR VMMC 081130Z 19013KT 180V260 9999 FEW025 SCT090 29/26
     Q1006 NOSIG=
####018000082####
SPUS72 KWBC 081131
SPECI
KCLL 081128Z AUTO 06007KT 10SM BKN007 25/23 A2997=
####018000418####
SATU32 LTAA 081120
METAR LTAN 081120Z 02007KT 9999 SCT040 31/14 Q1011 NOSIG=
METAR LTAU 081120Z 26004KT 200V310 9999 SCT040 33/12 Q1010 NOSIG=
METAR LTBR 081120Z 34016KT 9999 SCT035TCU BKN100 26/17 Q1011 TEMPO 
FM1200 -TSRA=
METAR LTBU 081120Z 36010KT 9999 SCT030 BKN100 21/12 Q1013=
METAR LTCC 081120Z 23014KT CAVOK 41/02 Q1005 NOSIG=
METAR LTCE 081120Z 34005KT 290V020 9999 SCT030 31/08 Q1017 NOSIG=
####018000955####
SATU31 LTAA 081120
METAR LTAC 081120Z 06012KT 030V100 9999 SCT040 29/15 Q1011 TEMPO 
FM1300 -TSRA=
METAR LTAF 081120Z /////KT 9999 SCT035 BKN100 31/20 Q1008 NOSIG=
METAR LTAI 081120Z 17010KT 9999 SCT030 30/22 Q1007 NOSIG=
METAR LTAJ 081120Z 22008KT 140V260 CAVOK 37/09 Q1007 NOSIG=
METAR LTAZ 081120Z NIL=
METAR LTBA 081120Z 35021KT 9999 BKN035 23/16 Q1012 TEMPO TL1200 4000 
-TSRA=
METAR LTBJ 081120Z 34014KT 250V360 CAVOK 30/12 Q1010 NOSIG=
METAR LTBS 081120Z 20011KT 9999 FEW030 30/20 Q1007 NOSIG=
METAR LTCF 081120Z 10013KT 080V140 9999 SCT035 30/09 Q1018=
METAR LTCG 081120Z 07005KT 9999 FEW018 SCT035 27/22 Q1011 NOSIG=
METAR LTCI 081120Z 24007KT CAVOK 26/18 Q1016 NOSIG=
METAR LTCS 081120Z 19010KT CAVOK 38/00 Q1009=
METAR LTFE 081120Z 26022KT 9999 FEW035 32/15 Q1008 NOSIG=
METAR LTFH 081120Z 04007KT 010V080 9999 SCT036 BKN100 27/23 Q1010 
NOSIG=
METAR LTFJ 081120Z 36016G26KT 9999 BKN030 23/17 Q1012 NOSIG=
####018000462####
SARH31 LDZM 081130
METAR LDSP 081130Z 23010KT 180V260 CAVOK 28/06 Q1020 NOSIG =
METAR LDPL 081130Z 10004KT 090V260 CAVOK 26/09 Q1022 NOSIG =
METAR LDDU 081130Z 27010KT 230V300 9999 FEW043 26/08 Q1018 NOSIG =
METAR LDZA 081130Z VRB04KT CAVOK 25/08 Q1022 NOSIG =
METAR LDZD 081130Z 26011KT 230V290 CAVOK 27/07 Q1021 NOSIG =
METAR LDRI 081130Z 27005KT 240V300 9999 FEW047 25/10 Q1022 NOSIG=
METAR LDOS 081130Z 34004KT 9999 FEW033 24/08 Q1022 NOSIG=
####018000079####
SAUK34 EGGY 081120 RRB
METAR EGTG 081120Z 26007KT 9999 FEW028 20/12 Q1019=
####018000110####
SAUK31 EGGY 081120 CCB
METAR COR EGCC 081120Z 23008KT 190V270 9999 FEW034 SCT046 19/10
    Q1017 NOSIG=
####018000092####
SARM31 LUKK 081130
METAR LUKK 081130Z 35008KT 9999 SCT032 25/17 Q1015 26CLRD65
NOSIG=
####018000403####
SABU31 LBSM 081130
METAR LBSF 081130Z 28004MPS 9999 FEW026 BKN040 18/12 Q1018
 NOSIG=
METAR LBWN 081130Z 26005MPS 240V300 9999 BKN032 19/16 Q1014
 NOSIG=
METAR LBBG 081130Z 31006MPS 280V340 9999 -DZ BKN026 BKN034 19/15
 Q1015 NOSIG=
METAR LBPD 081130Z 26005MPS 9999 -RA FEW033 SCT050 BKN070 17/14
 Q1017 NOSIG=
METAR LBGO 081130Z VRB02MPS 9999 RA BKN020 OVC040 16/15 Q1017
 NOSIG=
####018000112####
SAIV20 DIAP 081130
METAR DIAP 081130Z 20005KT 150V250 7000 SCT012 BKN070 28/25 Q1015
TEMPO BKN012 BKN070=
####018000082####
SPUS81 KWBC 081131
SPECI
KCLL 081128Z AUTO 06007KT 10SM BKN007 25/23 A2997=
####018000080####
SANC01 NWWW 081130
METAR NWWW 081130Z AUTO 00000KT 9999NDV NCD 17/15 Q1017=
####018000081####
SPCN51 CWAO 081130
SPECI CZCP 081130Z AUTO 28022KT 1 1/8SM CLR 04/ A2986=

####018000186####
SPNA35 KAWN 081131 RRC
SPECI KHST 081127Z AUTO 35003KT 10SM FEW032 27/25 A2994 RMK AO2 DZB1118E1127
      SLP142 $=
SPECI SKBQ 081120Z 00000KT 4000 BR SCT010 BKN070 25/25 A2988=
####018000389####
SAZZ40 KAWN 081100 RRR
METAR COR BGJN 081050Z 32004KT 280V360 9999 0600NE PRFG FEW100 07/05
      Q1009 RMK 1AC=
METAR DFFD 081100Z 35005KT 320V030 CAVOK 29/22 Q1015 NOSIG=
METAR EFKI 081120Z AUTO 32004KT CAVOK 22/13 Q1016=
METAR KNKT 081054Z COR 04006KT 4SM BR FEW001 BKN160 26/24 A2993 RMK
      AO2 SLP132 T02610239=
METAR UAFM 081100Z 29004MPS CAVOK 33/06 Q1012 NOSIG=
####018001821####
SAEU KAWN 081100 RRX
METAR EDHL 081120Z 20007G20KT 140V260 CAVOK 28/11 Q1019 RMK O=
METAR EDLW 081120Z 22008KT 160V280 CAVOK 30/10 Q1020 RMK ATIS Q=
METAR EDNY 081120Z 19006KT CAVOK 26/13 Q1022 RMK ATIS P=
METAR EGAE 081120Z 24016KT 9999 FEW020 BKN040 17/11 Q1013=
METAR EGBJ 081120Z 25006KT 190V280 9999 FEW035 21/09 Q1018=
METAR EGDY 081050Z 24005KT 9999 FEW035 BKN220 22/14 Q1018 BLU NOSIG=
METAR EGNH 081120Z 24011KT 9999 FEW024 18/11 Q1017=
METAR EGNJ 081120Z 23013KT 190V260 9999 SCT033 21/11 Q1017=
METAR EGPA 081120Z 21012KT 9999 SCT048 17/11 Q1007=
METAR EGPC 081120Z 20017G27KT 9999 FEW020 16/11 Q1008=
METAR EGPE 081120Z 22019KT 9999 FEW012 SCT036 17/09 Q1009=
METAR COR EGPM 081120Z 22024G36KT 9999 SCT030 17/10 Q1006 NOSIG=
METAR EGPN 081120Z 23015KT 9999 FEW032 SCT045 17/11 Q1012=
METAR EGPO 081120Z 21019KT 9999 FEW014CB SCT030 15/11 Q1006=
METAR COR EGSH 081120Z 25007KT 220V290 9999 SCT017 SCT020 22/15 Q1018
      NOSIG=
METAR EHKD 081125Z AUTO 23008KT 9999NDV BKN067/// BKN130/// 22/16 Q1019
      BLU BLU=
METAR ENNO 081120Z 12011G18KT 9999 FEW020 SCT025 BKN060 20/15 Q1014=
METAR LDPL 081130Z 10004KT 090V260 CAVOK 26/09 Q1022 NOSIG=
METAR LDSP 081130Z 23010KT 180V260 CAVOK 28/06 Q1020 NOSIG=
METAR LGAL 081120Z 36009KT 9999 FEW008 FEW020TCU BKN025 20/18 Q1015=
METAR LGEL 081120Z 34013G23KT CAVOK 28/12 Q1011=
METAR LGKV 081120Z 16006KT 9999 FEW020CB SCT025TCU BKN100 22/13 Q1013=
METAR LGMK 081120Z 36021KT 9999 FEW012 24/17 Q1012=
METAR LGMT 081120Z 36014KT 9999 FEW030 SCT160 26/19 Q1011=
METAR LGPZ 081120Z 24011KT 9999 FEW025 27/18 Q1013 NOSIG=
METAR LGSR 081120Z 35017KT 9999 FEW020 27/19 Q1011 NOSIG=
METAR LOXT 081120Z VRB04KT 50KM FEW050CU 25/12 Q1023 NOSIG RMK FEW=
METAR LWOH 081130Z 34009KT 9999 FEW040 BKN047 19/09 Q1019=
####018000399####
SPUS17 KAWN 081131 RRD
SPECI KAFF 081125Z AUTO 00000KT 10SM SCT024 12/11 A3039 RMK AO2 SLP207=
SPECI KFRI 081126Z AUTO 02005KT 6SM BR SCT006 BKN010 OVC019 22/22 A3010
      RMK AO2 OVC V BKN SLP183=
SPECI KHLR 081124Z AUTO 06004KT 10SM FEW009 SCT037 BKN047 25/ A3000
      RMK AO2 T0250 $=
SPECI KHST 081127Z AUTO 35003KT 10SM FEW032 27/25 A2994 RMK AO2 DZB1118E1127
      SLP142 $=
####018000075####
SACN50 CWAO 081130
VOD SA 1130 AUTO8 M M M M/11/04/0802/M/M M 01MM=

####018000117####
SAGL KAWN 081100 RRB
METAR COR BGJN 081050Z 32004KT 280V360 9999 0600NE PRFG FEW100 07/05
      Q1009 RMK 1AC=
####018000075####
SACN50 CWAO 081115
VOY SA 1115 AUTO8 M M M M/12/07/3402/M/M M 97MM=

####018000075####
SACN50 CWAO 081130
VOU SA 1130 AUTO8 M M M M/17/10/3103/M/M M 89MM=

####018000075####
SACN50 CWAO 081130
VOY SA 1130 AUTO8 M M M M/12/06/3302/M/M M 54MM=

####018000102####
SASR31 WSSS 081130
METAR WSSS 081130Z 20004KT 180V240 9999 -RA FEW016 BKN180 28/25 Q1009
NOSIG=
####018000113####
SAAK41 KNKA 081131
SPECI PAIL 081129Z AUTO 10004KT 7SM SCT001 BKN085 BKN100 08/08 A2993 
    RMK AO2 TSNO=
####018000537####
SAUS20 KNKA 081131
METAR KBNL 081135Z AUTO 32004KT 10SM CLR 24/18 A3000 RMK AO2 =
METAR KCQW 081135Z AUTO 00000KT 5SM  HZ CLR 23/18 A2998 RMK AO2 =
SPECI KGAG 081130Z AUTO 35004KT 10SM BKN009 BKN120 21/19 A3014 RMK 
    AO2 RAE1056 P0000=
SPECI KLGB 081130Z 32004KT 10SM OVC013 17/13 A2989 RMK AO2=
METAR KLKR 081135Z AUTO 00000KT 7SM CLR 20/20 A3001 RMK AO2 =
METAR KONM 081127Z AUTO 33003KT 10SM SCT080 SCT120 18/14 A3022 
     RMK AO2 T01810143=
SPECI KSTC 081130Z AUTO 00000KT 2 1/2SM BR CLR 14/13 A3010 RMK AO2=
####018000106####
SAUS45 KPUB 081131
MTRLXV
SPECI KLXV 081130Z AUTO 00000KT 5SM BR SCT004 05/04 A3051 RMK AO2 
TSNO
####018000114####
SAUS46 KLOX 081131
MTRNZY
SPECI KNZY 081130Z 34004KT 9SM FEW009 OVC014 18/13 A2989 RMK AO2 
DZE30 P0000 $
####018000102####
SPUS90 KWBC 081132
SPECI KLXV 081130Z AUTO 00000KT 5SM BR SCT004 05/04 A3051 RMK AO2
     TSNO=
####018000096####
SAUS98 KWBC 081132
METAR KEHA 081128Z AUTO 01003KT 17/17 RMK AO1 PK WND 08 082
T01720167=
####018000289####
SAUS99 KWBC 081132
METAR
KBNL 081135Z AUTO 32004KT 10SM CLR 24/18 A3000 RMK AO2=
KCQW 081135Z AUTO 00000KT 5SM HZ CLR 23/18 A2998 RMK AO2=
KLKR 081135Z AUTO 00000KT 7SM CLR 20/20 A3001 RMK AO2=
KONM 081127Z AUTO 33003KT 10SM SCT080 SCT120 18/14 A3022 RMK AO2
     T01810143=
####018000324####
SPUS99 KWBC 081132
SPECI
PAIL 081129Z AUTO 10004KT 7SM SCT001 BKN085 BKN100 08/08 A2993 RMK
     AO2 TSNO=
KGAG 081130Z AUTO 35004KT 10SM BKN009 BKN120 21/19 A3014 RMK AO2
     RAE1056 P0000=
KLGB 081130Z 32004KT 10SM OVC013 17/13 A2989 RMK AO2=
KSTC 081130Z AUTO 00000KT 2 1/2SM BR CLR 14/13 A3010 RMK AO2=
####018000096####
SAUZ31 UTTT 081130
METAR UTTT 081130Z 36003MPS 290V360 CAVOK 39/05 Q1010
R08R/CLRD70 NOSIG=
####018000101####
SPAU32 YBBN 081129
SPECI YPPD 081129Z AUTO 27010KT 7000NDV // SCT010 BKN052 OVC074 22/20
Q1010=
####018000097####
SAUS41 KLWX 081131
MTRRSP
SPECI KRSP 081130Z AUTO 00000KT 5SM HZ CLR 27/17 A3010 RMK AO2 $
####018002124####
SAUS70 KWBC 081132
METAR
KCCA 081135Z AUTO 00000KT 8SM OVC006 23/23 A3007 RMK AO2=
KCDN 081135Z AUTO 28003KT 10SM CLR 24/20 A3000 RMK A02 P000=
KCKI 081135Z AUTO 29004KT 10SM CLR 23/20 A2996 RMK AO2=
KFWC 081125Z AUTO 00000KT 5SM BR CLR 23/22 A3005 RMK AO2=
KIGQ 081120Z AUTO 00000KT 3SM -RA SCT065 BKN080 120 23/22 A3003
     RMK AO2 LTG DSNT E=
KIKK 081126Z AUTO 00000KT 4SM HZ BKN085 BKN095 26/23 A3003 RMK AO2
     LTG DSNT SE=
KLRO 081135Z AUTO 28004KT 8SM CLR 23/19 A2996 RMK AO2=
KMKS 081135Z AUTO 00000KT 7SM CLR 23/20 A2996 RMK AO2 TSNO=
KRWV 081120Z AUTO 06003KT 8SM SCT006 BKN037 24/24 A2999 RMK
     AO2=
KRYW 081125Z AUTO 06003KT 3SM -RA BKN007 BKN015 OVC023 23/22 A3000
     RMK AO2 P0006=
KSAR 081125Z AUTO 18006KT 7SM SCT065 BKN070 OVC085 26/23 A3005 RMK
     AO2=
KSLO 081123Z AUTO 21003KT 10SM CLR 25/22 A3006 RMK AO2
     T02460221=
KSLR 081122Z AUTO 00000KT 7SM SCT007 OVC044 25/24 A3005 RMK AO2
     T02500235=
KSNK 081126Z AUTO 02006KT 7SM SCT003 OVC008 21/20 A3010 RMK AO2
     T02080198=
KSWW 081125Z AUTO 02004KT 1SM OVC002 21/21 A3010 RMK AO1
     T02130210=
KT65 081125Z AUTO 01004KT 10SM SCT013 BKN050 OVC070 26/25 A2979
     RMK AO2 T02550245=
KT82 081125Z AUTO 00000KT 22/22 A3002 RMK AO1 T02220215=
KTAZ 081125Z AUTO 00000KT 2 1/2SM BR CLR 23/23 A3004 RMK AO2=
KTFP 081125Z AUTO 34004KT 10SM SCT015 SCT034 BKN060 27/25 A2982
     RMK AO2 LTG DSNT SW T02650251=
KTIP 081125Z AUTO 00000KT 4SM BR SCT090 24/23 A3005 RMK AO2
     T02400232=
KTYQ 081125Z AUTO 00000KT 5SM BR SCT070 OVC100 23/22 A3007 RMK AO2
     LTG DSNT N=
KUVA 081125Z AUTO 04003KT 10SM BKN023 24/23 A2996 RMK AO2
     T02410230=
KVYS 081125Z AUTO 00000KT 4SM BR BKN016 OVC022 23/22 A3004 RMK AO2
     T02320215=
KXBP 081125Z AUTO 00000KT 10SM CLR 23/22 A3003 RMK AO2
     T02300220=
KBNL 081135Z AUTO 32004KT 10SM CLR 24/18 A3000 RMK AO2=
KCQW 081135Z AUTO 00000KT 5SM HZ CLR 23/18 A2998 RMK AO2=
KLKR 081135Z AUTO 00000KT 7SM CLR 20/20 A3001 RMK AO2=
KONM 081127Z AUTO 33003KT 10SM SCT080 SCT120 18/14 A3022 RMK AO2
     T01810143=
####018000168####
SPUS80 KWBC 081132
SPECI
KSTC 081130Z AUTO 00000KT 2 1/2SM BR CLR 14/13 A3010 RMK AO2=
KLXV 081130Z AUTO 00000KT 5SM BR SCT004 05/04 A3051 RMK AO2
     TSNO=
####018000078####
SAUK34 EGGY 081120 RRB
METAR EGTG 081120Z 26007KT 9999 FEW028 20/12 Q1019=
####018000099####
SAAJ31 UBBB 081130
UBBN 081130Z 11010KT 9999 NSC 38/10 Q1008 R14R/CLRD60 NOSIG
RMK G/O QFE681=
####018000108####
SAUK31 EGGY 081120 CCB
METAR COR EGCC 081120Z 23008KT 190V270 9999 FEW034 SCT046 19/10
    Q1017 NOSIG=
####018000126####
SAXX60 KWBC 081100 RRN
METAR
KNKT 081054Z COR 04006KT 4SM BR FEW001 BKN160 26/24 A2993 RMK AO2
     SLP132 T02610239=
####018000095####
SANO37 ENMI 081120 RRA
METAR ENNO 081120Z 12011G18KT 9999 FEW020 SCT025 BKN060 20/15 Q1014=
####018000393####
SABU31 LBSM 081130
METAR LBSF 081130Z 28004MPS 9999 FEW026 BKN040 18/12 Q1018
 NOSIG=
METAR LBWN 081130Z 26005MPS 240V300 9999 BKN032 19/16 Q1014
 NOSIG=
METAR LBBG 081130Z 31006MPS 280V340 9999 -DZ BKN026 BKN034 19/15
 Q1015 NOSIG=
METAR LBPD 081130Z 26005MPS 9999 -RA FEW033 SCT050 BKN070 17/14
 Q1017 NOSIG=
METAR LBGO 081130Z VRB02MPS 9999 RA BKN020 OVC040 16/15 Q1017
 NOSIG=
####018000202####
SAAF31 KWBC 081100 RRE
METAR
DIAP 081130Z 20005KT 150V250 7000 SCT012 BKN070 28/25 Q1015 TEMPO
     BKN012 BKN070=
DXXX 081130Z 20011KT 180V240 9999 SCT016 FEW025TCU 30/24 Q1014
     NOSIG=
####018000110####
SAIV20 DIAP 081130
METAR DIAP 081130Z 20005KT 150V250 7000 SCT012 BKN070 28/25 Q1015
TEMPO BKN012 BKN070=
####018000090####
SARM31 LUKK 081130
METAR LUKK 081130Z 35008KT 9999 SCT032 25/17 Q1015 26CLRD65
NOSIG=
####018000472####
SAHU41 LHBM 081130
METAR LHDC 081115Z 02010KT 9999 FEW043 22/11 Q1021 NOSIG=
METAR LHKE 081115Z 29002MPS CAVOK 25/11 Q1021 NOSIG RMK BLU=
METAR LHPA 081115Z 33004MPS CAVOK 24/10 Q1023 NOSIG RMK BLU=
METAR LHPP 081115Z 30006KT CAVOK 23/10 Q1023 NOSIG=
METAR LHPR 081115Z 31010KT CAVOK 24/07 Q1022=
METAR LHSM 081115Z 33005KT CAVOK 24/12 Q1023 NOSIG=
METAR LHSN 081115Z 01001MPS CAVOK 24/12 Q1021 NOSIG RMK BLU=
METAR LHUD 081115Z 01007KT 9999 SCT040 24/14 Q1022=
####018000982####
SPUS70 KWBC 081132
SPECI
KDDC 081128Z AUTO 36008KT 2 1/2SM BR OVC003 18/17 A3018 RMK
     AO2=
KEWR 081128Z 22003KT 4SM BR BKN007 BKN100 BKN250 26/25 A3004 RMK
     AO2 BKN007 V SCT=
KFLD 081128Z AUTO 00000KT 7SM SCT009 BKN015 22/21 A3001 RMK
     AO2=
KODO 081127Z AUTO 02009KT 7SM BKN003 OVC110 21/19 A3010 RMK
     AO2=
KSET 081128Z AUTO 00000KT 5SM BR SCT008 OVC038 24/24 A3003 RMK
     AO2=
KBOK 081130Z AUTO 00000KT 3/4SM BR OVC002 09/09 A2998 RMK AO2
     $=
KFYV 081129Z 00000KT 10SM -RA SCT022 OVC030 22/21 A3008 RMK AO2
     RAB27 P0000=
KIMT 081129Z AUTO 00000KT 10SM FEW004 SCT010 OVC014 20/19 A3000
     RMK AO2=
KMHT 081129Z 19005KT 3SM HZ SCT014 BKN038 OVC050 24/21 A3007 RMK
     AO2 SFC VIS 4=
PAIL 081129Z AUTO 10004KT 7SM SCT001 BKN085 BKN100 08/08 A2993 RMK
     AO2 TSNO=
KGAG 081130Z AUTO 35004KT 10SM BKN009 BKN120 21/19 A3014 RMK AO2
     RAE1056 P0000=
KLGB 081130Z 32004KT 10SM OVC013 17/13 A2989 RMK AO2=
####018000156####
SAUS80 KWBC 081132
METAR
KSOA 081120Z AUTO 03003KT 9SM 22/21 A3008 RMK AO2=
KEHA 081128Z AUTO 01003KT 17/17 RMK AO1 PK WND 08 082
     T01720167=
####018000101####
SPAU32 YBBN 081130
SPECI YPPD 081130Z AUTO 27009KT 3000NDV // SCT010 BKN024 OVC074 22/20
Q1010=
####018000112####
SPXX60 KWBC 081132
SPECI
KNZY 081130Z 34004KT 9SM FEW009 OVC014 18/13 A2989 RMK AO2 DZE30
     P0000 $=
####018000079####
SANO38 ENMI 081120 RRA
METAR ENEK 081120Z 24012KT CAVOK 16/13 Q1015 W15/S3=
####018000081####
SAAF35 KWBC 081100 RRE
METAR
HLLB 081125Z 32017KT 9999 FEW025 30/17 Q1016=
####018000419####
SAAW31 KWBC 081100 RRA
METAR
LTAC 081120Z 06012KT 030V100 9999 SCT040 29/15 Q1011 TEMPO FM1300
     -TSRA=
LTAF 081120Z /////KT 9999 SCT035 BKN100 31/20 Q1008 NOSIG=
LTAI 081120Z 17010KT 9999 SCT030 30/22 Q1007 NOSIG=
LTBA 081120Z 35021KT 9999 BKN035 23/16 Q1012 TEMPO TL1200 4000
     -TSRA=
LTBJ 081120Z 34014KT 250V360 CAVOK 30/12 Q1010 NOSIG=
LTBS 081120Z 20011KT 9999 FEW030 30/20 Q1007 NOSIG=
####018000257####
SAAW34 KWBC 081115 RRB
METAR
OPGD 081130Z NIL=
OPLA 081125Z 09006KT 6000 SCT040 37/23 Q1003=
OPNH 081130Z NIL=
OPPS 081130Z NIL=
OPRN 081130Z NIL=
OPSK 081130Z NIL=
UTTT 081130Z 36003MPS 290V360 CAVOK 39/05 Q1010 R08R/CLRD70
     NOSIG=
####018000478####
SAAW41 KWBC 081150 RRC
METAR
LTAJ 081120Z 22008KT 140V260 CAVOK 37/09 Q1007 NOSIG=
LTAN 081120Z 02007KT 9999 SCT040 31/14 Q1011 NOSIG=
LTAU 081120Z 26004KT 200V310 9999 SCT040 33/12 Q1010 NOSIG=
LTCC 081120Z 23014KT CAVOK 41/02 Q1005 NOSIG=
LTCE 081120Z 34005KT 290V020 9999 SCT030 31/08 Q1017 NOSIG=
LTCG 081120Z 07005KT 9999 FEW018 SCT035 27/22 Q1011 NOSIG=
LTCI 081120Z 24007KT CAVOK 26/18 Q1016 NOSIG=
LTFE 081120Z 26022KT 9999 FEW035 32/15 Q1008 NOSIG=
####018000093####
SPUS31 KWBC 081132
SPECI
KEWR 081128Z 22003KT 4SM BR BKN007 BKN100 BKN250 26/25 A3004=
####018000238####
SACI31 KWBC 081100 RRB
METAR
RCKH 081130Z 28005KT 9999 FEW013 BKN300 30/26 Q1009 NOSIG=
RCSS 081130Z 26009KT 230V290 9999 FEW018 SCT028 BKN050 31/23 Q1007
     NOSIG=
RCTP 081130Z 24011KT 9999 FEW025 BKN150 29/24 Q1007 NOSIG=
####018000094####
SADL32 KWBC 081120 RRA
METAR
EDLW 081120Z 22008KT 160V280 CAVOK 30/10 Q1020 RMK ATIS Q=
####018000092####
SADL31 KWBC 081120 RRA
METAR
EDHL 081120Z 20007G20KT 140V260 CAVOK 28/11 Q1019 RMK O=
####018000086####
SADL33 KWBC 081115 RRC
METAR
EDNY 081120Z 19006KT CAVOK 26/13 Q1022 RMK ATIS P=
####018000094####
SPCN49 CWAO 081130
SPECI CYSJ 081130Z 20011KT 1/4SM R23/3500FT/N FG VV002 15/ RMK FG8=

####018000087####
SAMM31 KWBC 081100 RRB
METAR
LCEN 081120Z 14015KT 9999 SCT025 33/18 Q1007 NOSIG=
####018000098####
SANO42 KWBC 081120 RRA
METAR
ENNO 081120Z 12011G18KT 9999 FEW020 SCT025 BKN060 20/15 Q1014=
####018000082####
SANO41 KWBC 081120 RRA
METAR
ENEK 081120Z 24012KT CAVOK 16/13 Q1015 W15/S3=
####018000098####
SAPA31 KWBC 081100 RRB
METAR
AYPY 081100Z 18010KT 9999 BKN040 26/23 Q1010 RMKS: HZ IN AREA=
####018000109####
SARA31 KWBC 081100 RRG
METAR
UTTT 081130Z 36003MPS 290V360 CAVOK 39/05 Q1010 R08R/CLRD70
     NOSIG=
####018000109####
SAUK31 KWBC 081120 CCB
METAR
EGCC 081120Z 23008KT 190V270 9999 FEW034 SCT046 19/10 Q1017
     NOSIG=
####018000256####
SAUK32 KWBC 081120 RRB
METAR
EGPA 081120Z 21012KT 9999 SCT048 17/11 Q1007=
EGPC 081120Z 20017G27KT 9999 FEW020 16/11 Q1008=
EGSH 081120Z 25007KT 220V290 9999 SCT017 SCT020 22/15 Q1018
     NOSIG=
EGTG 081120Z 26007KT 9999 FEW028 20/12 Q1019=
####018000204####
SAUK41 KWBC 081120 RRA
METAR
EGAE 081120Z 24016KT 9999 FEW020 BKN040 17/11 Q1013=
EGBE 081120Z NIL=
EGBJ 081120Z 25006KT 190V280 9999 FEW035 21/09 Q1018=
EGDL 081120Z NIL=
EGNC 081120Z NIL=
####018000137####
SAUK31 KWBC 081120 RRA
METAR
EGNH 081120Z 24011KT 9999 FEW024 18/11 Q1017=
EGNJ 081120Z 23013KT 190V260 9999 SCT033 21/11 Q1017=
####018000368####
SAUK42 KWBC 081120 RRB
METAR
EGPC 081120Z 20017G27KT 9999 FEW020 16/11 Q1008=
EGPE 081120Z 22019KT 9999 FEW012 SCT036 17/09 Q1009=
EGPL 081120Z NIL=
EGPM 081120Z 22024G36KT 9999 SCT030 17/10 Q1006 NOSIG=
EGPN 081120Z 23015KT 9999 FEW032 SCT045 17/11 Q1012=
EGPO 081120Z 21019KT 9999 FEW014CB SCT030 15/11 Q1006=
EGPU 081120Z NIL=
EGSC 081120Z NIL=
####018000115####
SAXX61 KWBC 081100 RRH
METAR
LTAC 081120Z 06012KT 030V100 9999 SCT040 29/15 Q1011 TEMPO FM1300
     -TSRA=
####018001091####
SAXX99 KWBC 081100 RRU
METAR
EGCN 081120Z 25012KT 9999 FEW041 21/10 Q1017=
EGEC 081120Z NIL=
EGNR 081120Z 24011KT 220V290 9999 SCT030 21/10 Q1017=
EGPI 081120Z NIL=
EGTG 081120Z 26007KT 9999 FEW028 20/12 Q1019=
EGVN 081120Z NIL=
EGWU 081120Z NIL=
LBGO 081130Z VRB02MPS 9999 RA BKN020 OVC040 16/15 Q1017 NOSIG=
LHDC 081115Z 02010KT 9999 FEW043 22/11 Q1021 NOSIG=
LHKE 081115Z 29002MPS CAVOK 25/11 Q1021 NOSIG RMK BLU=
LHPP 081115Z 30006KT CAVOK 23/10 Q1023 NOSIG=
LHSN 081115Z 01001MPS CAVOK 24/12 Q1021 NOSIG RMK BLU=
LHUD 081115Z 01007KT 9999 SCT040 24/14 Q1022=
LOXT 081120Z VRB04KT 50KM FEW050CU 25/12 Q1023 NOSIG RMK FEW=
LTAZ 081120Z NIL=
LTBR 081120Z 34016KT 9999 SCT035TCU BKN100 26/17 Q1011 TEMPO
     FM1200 -TSRA=
LTBU 081120Z 36010KT 9999 SCT030 BKN100 21/12 Q1013=
LTCF 081120Z 10013KT 080V140 9999 SCT035 30/09 Q1018=
LTFH 081120Z 04007KT 010V080 9999 SCT036 BKN100 27/23 Q1010
     NOSIG=
LTFJ 081120Z 36016G26KT 9999 BKN030 23/17 Q1012 NOSIG=
UBBN 081130Z 11010KT 9999 NSC 38/10 Q1008 R14R/CLRD60 NOSIG RMK
     G/O QFE681=
####018000079####
SANC01 NWWW 081130
METAR NWWW 081130Z AUTO 00000KT 9999NDV NCD 17/15 Q1017=
####018000081####
SPPR00 SPIM 081130
SPECI SPZO 081130Z 00000KT 9999 FEW033 SCT100 04/01 Q1032=
####018000082####
SAHU31 LHBM 081130
METAR LHBP 081130Z 23008KT 200V290 CAVOK 24/10 Q1021 NOSIG=
####018000088####
SPUS52 KWBC 081132
SPECI
KFYV 081129Z 00000KT 10SM -RA SCT022 OVC030 22/21 A3008=
####018000088####
SPUS53 KWBC 081132
SPECI
KDDC 081128Z AUTO 36008KT 2 1/2SM BR OVC003 18/17 A3018=
####018000084####
SPUS53 KWBC 081132
SPECI
KLXV 081130Z AUTO 00000KT 5SM BR SCT004 05/04 A3051=
####018000207####
SASQ31 LZIB 081130
METAR LZIB 081130Z 32007KT 250V050 CAVOK 24/08 Q1022=
METAR LZKZ 081130Z 35009KT 320V030 CAVOK 23/07 Q1021 NOSIG=
METAR LZTT 081130Z 08010KT 040V130 9999 FEW040 21/09 Q1022 NOSIG=
####018000102####
SPAU32 YBBN 081130
SPECI YPPD 081130Z AUTO 27009KT 3000NDV // SCT010 BKN024 OVC074 22/20
Q1010=
####018000078####
SACN70 CWAO 081100 RRD
XMN SA 1100 AUTO8 M M M M/11/08/2308/M/ M 73MM=

####018000083####
SACN96 CWAO 081100 RRD
WYF SA 1100 AUTO8 M M M 103/06/05/2705/M/ 2004 86MM=

####018000151####
SACN94 CWAO 081100 RRD
WQS SA 1100 AUTO8 M M M M/13/M/3516/M/ PK WND 3522 1015Z M 5MMM=
WRR SA 1100 AUTO8 M M M 185/06/05/2603/M/M 1007 23MM=

####018000326####
SACN98 CWAO 081100 RRE
XAG SA 1100 AUTO8 M M M M/13/12/2303/M/ M 56MM=
XAJ SA 1100 AUTO8 M M M M/13/12/0106/M/0015 PCPN 1.5MM PAST HR PK
WND 3618 1025Z M 45MM=
XBA SA 1100 AUTO8 M M M M/10/09/2403/M/ M 96MM=
XCS SA 1100 AUTO8 M M M M/12/09/2510/M/ M 80MM=
XYH SA 1100 AUTO8 M M M 144/11/11/3202/M/ 8002 17MM=

####018000833####
SACN59 CWAO 081100 RRD
PBL SA 1100 AUTO8 M M M M/12/10/2804/M/ M 42MM=
PFI SA 1100 AUTO8 M M M M/11/10/2005/M/ M 67MM=
PRO SA 1100 AUTO8 M M M M/09/09/2003/M/0004 M 09MM=
PRY SA 1100 AUTO8 M M M M/09/08/2507/M/ M 06MM=
PST SA 1100 AUTO8 M M M M/11/10/2106/M/ M 58MM=
PSV SA 1100 AUTO8 M M M M/09/08/2407/M/ M 65MM=
XAK SA 1100 AUTO8 M M M M/11/09/2107/M/ M 55MM=
XFM SA 1100 AUTO8 M M M M/10/08/1807/M/ M 12MM=
XHD SA 1100 AUTO8 M M M M/12/10/2206/M/ M 17MM=
XMO SA 1100 AUTO8 M M M M/08/07/2005/M/ M 38MM=
XOL SA 1100 AUTO8 M M M M/12/09/2309/M/ M 57MM=
XPL SA 1100 AUTO8 M M M M/08/07/0901/M/ M 57MM=
XSL SA 1100 AUTO8 M M M M/14/10/2803/M/M M 74MM=
XVM SA 1100 AUTO8 M M M M/11/10/2103/M/ M 48MM=
ZOL SA 1100 AUTO8 M M M M/15/11/2302/M/ M 92MM=
ZPS SA 1100 AUTO8 M M M M/13/08/2208/M/ M 33MM=

####018000083####
SACN90 CWAO 081100 RRC
WEC SA 1100 AUTO8 M M M 127/18/15/2810/M/ 6001 68MM=

####018000135####
SACN78 CWAO 081100 RRD
WNB SA 1100 AUTO8 M M M M/M/M/MM08/M/M M000 MMMM=
WPS SA 1100 AUTO8 M M M 159/25/M/1706/M/M 3002 3MMM=

####018000083####
SACN97 CWAO 081100 RRE
XTV SA 1100 AUTO8 M M M 173/05/M/2908/M/M 1007 1MMM=

####018000109####
SACN41 CWAO 081100 RRB
METAR CYXJ 081100Z 00000KT 15SM FEW100 BKN220 12/08 A3011 RMK AC1CI0
SLP196=

####018000088####
SPUS73 KWBC 081132
SPECI
KDDC 081128Z AUTO 36008KT 2 1/2SM BR OVC003 18/17 A3018=
####018000077####
SALY31 HLLB 081130
METAR HLLB 081125Z 
32017KT 9999 FEW025 30/17 Q1016=
####018000417####
SATU32 LTAA 081120
METAR LTAN 081120Z 02007KT 9999 SCT040 31/14 Q1011 NOSIG=
METAR LTAU 081120Z 26004KT 200V310 9999 SCT040 33/12 Q1010 NOSIG=
METAR LTBR 081120Z 34016KT 9999 SCT035TCU BKN100 26/17 Q1011 TEMPO
FM1200 -TSRA=
METAR LTBU 081120Z 36010KT 9999 SCT030 BKN100 21/12 Q1013=
METAR LTCC 081120Z 23014KT CAVOK 41/02 Q1005 NOSIG=
METAR LTCE 081120Z 34005KT 290V020 9999 SCT030 31/08 Q1017 NOSIG=
####018000081####
SAMP31 LMMM 081130 RRA
METAR HLLB 081125Z
32017KT 9999 FEW025 30/17 Q1016=
####018000952####
SATU31 LTAA 081120
METAR LTAC 081120Z 06012KT 030V100 9999 SCT040 29/15 Q1011 TEMPO
FM1300 -TSRA=
METAR LTAF 081120Z /////KT 9999 SCT035 BKN100 31/20 Q1008 NOSIG=
METAR LTAI 081120Z 17010KT 9999 SCT030 30/22 Q1007 NOSIG=
METAR LTAJ 081120Z 22008KT 140V260 CAVOK 37/09 Q1007 NOSIG=
METAR LTAZ 081120Z NIL=
METAR LTBA 081120Z 35021KT 9999 BKN035 23/16 Q1012 TEMPO TL1200 4000
-TSRA=
METAR LTBJ 081120Z 34014KT 250V360 CAVOK 30/12 Q1010 NOSIG=
METAR LTBS 081120Z 20011KT 9999 FEW030 30/20 Q1007 NOSIG=
METAR LTCF 081120Z 10013KT 080V140 9999 SCT035 30/09 Q1018=
METAR LTCG 081120Z 07005KT 9999 FEW018 SCT035 27/22 Q1011 NOSIG=
METAR LTCI 081120Z 24007KT CAVOK 26/18 Q1016 NOSIG=
METAR LTCS 081120Z 19010KT CAVOK 38/00 Q1009=
METAR LTFE 081120Z 26022KT 9999 FEW035 32/15 Q1008 NOSIG=
METAR LTFH 081120Z 04007KT 010V080 9999 SCT036 BKN100 27/23 Q1010
NOSIG=
METAR LTFJ 081120Z 36016G26KT 9999 BKN030 23/17 Q1012 NOSIG=
####018000081####
SAMP31 LMMM 081130 RRA
METAR HLLB 081125Z 
32017KT 9999 FEW025 30/17 Q1016=
####018000090####
SPCN31 CWAO 081131
SPECI CYQB 081131Z 06005KT 5SM BR SCT006 OVC011 19/ RMK SF3SC5=

####018000084####
SPUS81 KWBC 081132
SPECI
KLXV 081130Z AUTO 00000KT 5SM BR SCT004 05/04 A3051=
####018000086####
SAMT20 GQNN 081130
METAR GQNN 081130Z 18011KT 150V210 6000 SKC 31/22 Q1013 NOSIG=
####018000080####
SANC01 NWWL 081130
METAR NWWL 081130Z AUTO 00000KT 9999NDV NCD 15/14 Q1016=
####018000088####
SANC01 NWWU 081130
METAR NWWU 081130Z AUTO 18003KT 140V210 9999NDV NCD 20/17 Q1016=
####018000089####
SASG20 GOOY 081130
METAR GOOY 081130Z 17007KT 130V220 9999 SCT013 30/25 Q1012 NOSIG=
####018000080####
SANC01 NWWM 081130
METAR NWWM 081130Z AUTO 35005KT 9999NDV NCD 18/16 Q1016=
####018000292####
SARS18 KAWN 081100 RRG
METAR LUKK 081130Z 35008KT 9999 SCT032 25/17 Q1015 26CLRD65 NOSIG=
METAR UAFM 081100Z 29004MPS CAVOK 33/06 Q1012 NOSIG=
METAR UBBB 081130Z 35020KT CAVOK 33/23 Q1010 NOSIG RMK R88CLRD70=
METAR UTTT 081130Z 36003MPS 290V360 CAVOK 39/05 Q1010 R08R/CLRD70 NOSIG=
####018000436####
SAXN17 KAWN 081100 RRH
METAR AYPY 081100Z 18010KT 9999 BKN040 26/23 Q1010 RMKS/ HZ IN AREA=
METAR MMCV 081124Z RTD 00000KT 12SM SCT220 23/23 A2985 RMK 8/005 RTS=
METAR NWWW 081130Z AUTO 00000KT 9999NDV NCD 17/15 Q1017=
METAR RCKH 081130Z 28005KT 9999 FEW013 BKN300 30/26 Q1009 NOSIG=
METAR RCTP 081130Z 24011KT 9999 FEW025 BKN150 29/24 Q1007 NOSIG=
METAR VHHH 081130Z 19009KT 150V210 9999 FEW015 SCT025 31/25 Q1006 NOSIG=
####018000372####
SAMC31 GMMC 081130
METAR GMME 081130Z 34007KT 310V010 6000 SCT010 BKN015 25/19 Q1016
NOSIG=
METAR GMMN 081130Z 35011KT 300V040 9999 SCT016 BKN023 26/19 Q1017
NOSIG=
METAR GMMX 081130Z 33005KT 260V030 8000 FEW026 33/16 Q1017 NOSIG=
METAR GMTT 081130Z 28008KT 250V320 8000 SCT016 BKN230 25/20 Q1016
NOSIG=
METAR GMAD 081130Z NIL=
METAR GMFF 081130Z NIL=
####018000443####
SAXX70 KAWN 081100 RRR
METAR KQEN 081130Z AUTO 26007KT 7SM BKN075 20/16 A3041 RMK A02=
METAR KQEP 081130Z AUTO 18002KT 3SM -RA OVC040 24/20 A2986 RMK A02=
METAR KQER 081130Z AUTO 17001KT 5SM BR SCT033 BKN120 21/19 A2989 RMK
      A02=
METAR KQES 081130Z AUTO 35006KT 4SM BR CLR 21/19 A2986 RMK A02=
METAR KQEY 081130Z AUTO 27003KT 7SM SCT110 26/18 A2960 RMK A02=
METAR KQEV 081140Z AUTO 01002KT 7SM BKN075 26/19 A2979 RMK A02=
####018000099####
SPCN45 CWAO 081127
SPECI CYCO 081127Z 04007KT 12SM -RA BKN012 OVC035 RMK ST7SC1 VIS SE
6=

####018000086####
SPAU31 AMMC 081132
SPECI YBRM 081130Z 07005KT 9999 -DZ FEW024 BKN046 23/23 Q1012=
####018000092####
SPAU31 AMMC 081132
SPECI YBRM 081130Z 07005KT 9999 -DZ FEW024 BKN046 23/23 Q1012=


####018002870####
SAUS20 KNKA 081132
METAR K36U 081135Z AUTO 00000KT 10SM CLR 08/04 A3023 RMK AO2=
METAR K4O4 081128Z AUTO 11004KT 23/23 A3005 RMK AO2=
METAR KADH 081130Z AUTO 31003KT 7SM BKN002 BKN025 23/21 A3004 RMK 
     AO2=
METAR KADM 081130Z AUTO 00000KT 5SM BR SCT021 BKN025 OVC120 23/23 
     A3003 RMK AO2=
METAR KALM 081130Z AUTO 09003KT 10SM CLR 15/13 A3015 RMK AO2=
METAR KATS 081130Z AUTO 35007KT 5SM -RA BKN031 19/18 A3017 RMK 
     AO2 P0001=
METAR KAXS 081130Z AUTO 08007KT 10SM SCT004 BKN019 OVC026 23/21 
     A3008 RMK AO2 P0053 T02270211=
METAR KAXX 081130Z AUTO 00000KT 10SM CLR 04/03 A3049 RMK AO2=
METAR KBVS 081130Z AUTO 04007KT 10SM CLR 19/12 A2998 RMK A01 P000=
METAR KCHK 081131Z AUTO 02003KT 5SM BKN016 22/22 A3005 RMK AO2=
METAR KCQB 081130Z AUTO RMK AO2 PWINO TSNO=
METAR KDUA 081137Z AUTO 16004KT 10SM BKN029 24/23 A3004 RMK AO2=
METAR KDUC 081132Z AUTO 00000KT 10SM CLR 22/22 A3004 RMK AO2=
METAR KFET 081130Z AUTO 00000KT 10SM CLR 17/16 A3017 RMK AO2=
METAR KGCD 081130Z AUTO 12009KT 10SM CLR 14/03 A3012 RMK AO2 
     T01430027=
SPECI KGCK 081131Z AUTO 03011KT 10SM SCT007 OVC011 17/16 A3022 RMK 
    AO2=
METAR KGCM 081135Z AUTO 00000KT 3SM -VCTSRA BKN006 OVC010 23/23 
     A3007 RMK AO2 LTG DSNT NE AND S P0026=
SPECI KGLD 081131Z AUTO 00000KT 10SM SCT004 BKN120 17/16 A3028 RMK 
    AO2=
METAR KGMJ 081134Z AUTO 00000KT OVC023 26/26 A3006 RMK AO2 PWINO=
SPECI KHLG 081131Z 00000KT 2 1/2SM BR BKN065 21/19 A3010 RMK AO2=
METAR KIDP 081130Z AUTO 00000KT 10SM VCTS SCT035 SCT041 21/20 
     A3006 RMK AO2 LTG DSNT E AND SE=
METAR KIZA 081129Z AUTO 00000KT 10SM OVC009 13/11 A2991 RMK AO2=
METAR KJSV 081130Z AUTO 00000KT 10SM OVC046 23/22 A3004 RMK AO2 
     LTG DSNT N=
METAR KJWG 081130Z AUTO 03005KT 7SM BKN004 BKN008 22/22 A3010 RMK 
     AO2=
SPECI KLEB 081131Z 00000KT 3SM HZ FEW013 24/21 A3006 RMK AO2=
SPECI KLRD 081130Z 04007KT 10SM FEW007 OVC024 27/24 A2990 RMK AO2 $=
METAR KLRU 081131Z AUTO 00000KT 10SM CLR 20/15 A3016 RMK AO2=
SPECI KLXV 081130Z AUTO 00000KT 5SM BR SCT004 05/04 A3051 RMK AO2
     TSNO=
SPECI KMQY 081131Z AUTO 00000KT 10SM CLR 24/23 A3009 RMK AO2 =
METAR KOKM 081131Z AUTO 07004KT 10SM OVC007 24/24 A3004 RMK AO1 
     LTG DSNT NE=
METAR KONP 081130Z AUTO 21005KT 7SM OVC004 11/09 A2999 RMK AO1=
SPECI KOSH 081131Z 00000KT 6SM BR SCT006 22/20 A3000 RMK AO2=
SPECI KPBI 081131Z 10009KT 9SM -RA BKN020 BKN028CB BKN033 27/24 
    A2995 RMK AO2 RAB16 VIS E-SE 1 1/2 CB OHD-NE-S MOV SW P0000=
METAR KPTS 081130Z AUTO 13004KT 10SM SCT038 SCT044 22/22 A3005 
     RMK AO2 LTG DSNT E AND SW T02200221=
SPECI KPWM 081131Z 17007KT 6SM BR OVC004 21/20 A3009 RMK AO2 $=
SPECI KSMQ 081131Z AUTO 00000KT 3SM BR SCT009 24/22 A3003 RMK AO2=
METAR KWWR 081129Z AUTO 36003KT 10SM BKN009 OVC120 21/21 A3016 
     RMK AO2 T02140205=
####018000083####
SPCN51 CWAO 081131
SPECI CZBF 081131Z 00000KT 1 1/4SM BR OVC004 RMK FG5SF3=

####018001755####
SAEU KAWN 081100 RRX
METAR COR EGCC 081120Z 23008KT 190V270 9999 FEW034 SCT046 19/10 Q1017
      NOSIG=
METAR EGHI 081120Z VRB02KT 9999 BKN018 20/14 Q1018=
METAR EGTG 081120Z 26007KT 9999 FEW028 20/12 Q1019=
METAR ENEK 081120Z 24012KT CAVOK 16/13 Q1015 W15/S3=
METAR EPKK 081130Z 29004KT 240V330 9999 FEW053 23/08 Q1022=
METAR EPKT 081130Z 35008KT CAVOK 22/08 Q1023=
METAR LATI 081130Z 04012G24KT 350V080 9999 FEW050 27/13 Q1016 NOSIG=
METAR LBBG 081130Z 31006MPS 280V340 9999 -DZ BKN026 BKN034 19/15 Q1015
      NOSIG=
METAR LBGO 081130Z VRB02MPS 9999 RA BKN020 OVC040 16/15 Q1017 NOSIG=
METAR LBPD 081130Z 26005MPS 9999 -RA FEW033 SCT050 BKN070 17/14 Q1017
      NOSIG=
METAR LBSF 081130Z 28004MPS 9999 FEW026 BKN040 18/12 Q1018 NOSIG=
METAR LBWN 081130Z 26005MPS 240V300 9999 BKN032 19/16 Q1014 NOSIG=
METAR LDDU 081130Z 27010KT 230V300 9999 FEW043 26/08 Q1018 NOSIG=
METAR LDRI 081130Z 27005KT 240V300 9999 FEW047 25/10 Q1022 NOSIG=
METAR LDZA 081130Z VRB04KT CAVOK 25/08 Q1022 NOSIG=
METAR LDZD 081130Z 26011KT 230V290 CAVOK 27/07 Q1021 NOSIG=
METAR LEJR 081130Z 21005KT 150V270 CAVOK 30/17 Q1016=
METAR LFSD 081130Z AUTO 15005KT 080V220 9999NDV NSC 30/10 Q1020=
METAR LHBP 081130Z 23008KT 200V290 CAVOK 24/10 Q1021 NOSIG=
METAR LHDC 081115Z 02010KT 9999 FEW043 22/11 Q1021 NOSIG=
METAR LHKE 081115Z 29002MPS CAVOK 25/11 Q1021 NOSIG RMK BLU=
METAR LHPA 081115Z 33004MPS CAVOK 24/10 Q1023 NOSIG RMK BLU=
METAR LHPP 081115Z 30006KT CAVOK 23/10 Q1023 NOSIG=
METAR LHSN 081115Z 01001MPS CAVOK 24/12 Q1021 NOSIG RMK BLU=
METAR LHUD 081115Z 01007KT 9999 SCT040 24/14 Q1022=
METAR LZIB 081130Z 32007KT 250V050 CAVOK 24/08 Q1022=
METAR LZTT 081130Z 08010KT 040V130 9999 FEW040 21/09 Q1022 NOSIG=
####018000075####
SACN50 CWAO 081115
VOF SA 1115 AUTO8 M M M M/13/06/3503/M/M M 31MM=

####018000075####
SACN50 CWAO 081130
VOC SA 1130 AUTO8 M M M M/11/09/0000/M/M M 17MM=

####018000075####
SACN50 CWAO 081130
VOB SA 1130 AUTO8 M M M M/16/07/0000/M/M M 87MM=

####018000075####
SACN50 CWAO 081130
VOK SA 1130 AUTO8 M M M M/14/06/0601/M/M M 43MM=

####018000075####
SACN50 CWAO 081130
VOH SA 1130 AUTO8 M M M M/15/02/0702/M/M M 20MM=

####018000075####
SACN94 CWAO 081130
WSK SA 1130 AUTO8 M M M M/15/11/3501/M/M M 18MM=

####018000075####
SACN88 CWAO 081130
WZU SA 1130 AUTO7 M M M M/20/18/2108/M/M M 82MM=

####018000075####
SACN50 CWAO 081130
VOF SA 1130 AUTO8 M M M M/13/06/3503/M/M M 21MM=

####018000075####
SACN50 CWAO 081130
VWB SA 1130 AUTO8 M M M M/16/04/MMMM/M/M M 43MM=

####018000074####
SACN50 CWAO 081130
WPN SA 1130 AUTO8 M M M M/12/M/2401/M/M M 8MMM=

####018000075####
SACN50 CWAO 081130
VOV SA 1130 AUTO8 M M M M/11/07/0201/M/M M 75MM=

####018000074####
SACN50 CWAO 081130
VOJ SA 1130 AUTO8 M M M M/17/M/0604/M/M M 0MMM=

####018000075####
SACN50 CWAO 081130
WHC SA 1130 AUTO8 M M M M/18/11/MMMM/M/M M 51MM=

####018000082####
SPCN46 CWAO 081131
SPECI CYBC 081131Z AUTO 00000KT 3SM OVC002 13/13 A3003=

####018000093####
SPCN47 CWAO 081132
SPECI CYYY 081132Z 31004KT 1SM R06/3500V5500FT/U BR VV003 RMK FG8=

####018000806####
SPUS99 KWBC 081133
SPECI
KGCK 081131Z AUTO 03011KT 10SM SCT007 OVC011 17/16 A3022 RMK
     AO2=
KGLD 081131Z AUTO 00000KT 10SM SCT004 BKN120 17/16 A3028 RMK
     AO2=
KHLG 081131Z 00000KT 2 1/2SM BR BKN065 21/19 A3010 RMK AO2=
KLEB 081131Z 00000KT 3SM HZ FEW013 24/21 A3006 RMK AO2=
KLRD 081130Z 04007KT 10SM FEW007 OVC024 27/24 A2990 RMK AO2 $=
KLXV 081130Z AUTO 00000KT 5SM BR SCT004 05/04 A3051 RMK AO2
     TSNO=
KMQY 081131Z AUTO 00000KT 10SM CLR 24/23 A3009 RMK AO2=
KOSH 081131Z 00000KT 6SM BR SCT006 22/20 A3000 RMK AO2=
KPBI 081131Z 10009KT 9SM -RA BKN020 BKN028CB BKN033 27/24 A2995
     RMK AO2 RAB16 VIS E-SE 1 1/2 CB OHD-NE-S MOV SW P0000=
KPWM 081131Z 17007KT 6SM BR OVC004 21/20 A3009 RMK AO2 $=
KSMQ 081131Z AUTO 00000KT 3SM BR SCT009 24/22 A3003 RMK AO2=
####018001866####
SAUS99 KWBC 081133
METAR
K36U 081135Z AUTO 00000KT 10SM CLR 08/04 A3023 RMK AO2=
K4O4 081128Z AUTO 11004KT 23/23 A3005 RMK AO2=
KADH 081130Z AUTO 31003KT 7SM BKN002 BKN025 23/21 A3004 RMK
     AO2=
KADM 081130Z AUTO 00000KT 5SM BR SCT021 BKN025 OVC120 23/23 A3003
     RMK AO2=
KALM 081130Z AUTO 09003KT 10SM CLR 15/13 A3015 RMK AO2=
KATS 081130Z AUTO 35007KT 5SM -RA BKN031 19/18 A3017 RMK AO2
     P0001=
KAXS 081130Z AUTO 08007KT 10SM SCT004 BKN019 OVC026 23/21 A3008
     RMK AO2 P0053 T02270211=
KAXX 081130Z AUTO 00000KT 10SM CLR 04/03 A3049 RMK AO2=
KBVS 081130Z AUTO 04007KT 10SM CLR 19/12 A2998 RMK A01 P000=
KCHK 081131Z AUTO 02003KT 5SM BKN016 22/22 A3005 RMK AO2=
KCQB 081130Z AUTO RMK AO2 PWINO TSNO=
KDUA 081137Z AUTO 16004KT 10SM BKN029 24/23 A3004 RMK AO2=
KDUC 081132Z AUTO 00000KT 10SM CLR 22/22 A3004 RMK AO2=
KFET 081130Z AUTO 00000KT 10SM CLR 17/16 A3017 RMK AO2=
KGCD 081130Z AUTO 12009KT 10SM CLR 14/03 A3012 RMK AO2
     T01430027=
KGCM 081135Z AUTO 00000KT 3SM -VCTSRA BKN006 OVC010 23/23 A3007
     RMK AO2 LTG DSNT NE AND S P0026=
KGMJ 081134Z AUTO 00000KT OVC023 26/26 A3006 RMK AO2 PWINO=
KIDP 081130Z AUTO 00000KT 10SM VCTS SCT035 SCT041 21/20 A3006 RMK
     AO2 LTG DSNT E AND SE=
KIZA 081129Z AUTO 00000KT 10SM OVC009 13/11 A2991 RMK AO2=
KJSV 081130Z AUTO 00000KT 10SM OVC046 23/22 A3004 RMK AO2 LTG DSNT
     N=
KJWG 081130Z AUTO 03005KT 7SM BKN004 BKN008 22/22 A3010 RMK
     AO2=
KLRU 081131Z AUTO 00000KT 10SM CLR 20/15 A3016 RMK AO2=
KOKM 081131Z AUTO 07004KT 10SM OVC007 24/24 A3004 RMK AO1 LTG DSNT
     NE=
KONP 081130Z AUTO 21005KT 7SM OVC004 11/09 A2999 RMK AO1=
KPTS 081130Z AUTO 13004KT 10SM SCT038 SCT044 22/22 A3005 RMK AO2
     LTG DSNT E AND SW T02200221=
KWWR 081129Z AUTO 36003KT 10SM BKN009 OVC120 21/21 A3016 RMK AO2
     T02140205=
####018000393####
SAHK31 VHHH 081130
METAR VHHH 081130Z 19009KT 150V210 9999 FEW015 SCT025 31/25 
Q1006 NOSIG=
METAR RCTP 081130Z 24011KT 9999 FEW025 BKN150 29/24 Q1007
NOSIG=
METAR RCKH 081130Z 28005KT 9999 FEW013 BKN300 30/26 Q1009
NOSIG=
METAR RCSS 081130Z 26009KT 230V290 9999 FEW018 SCT028 BKN050 31/23
Q1007 NOSIG=
METAR VMMC 081130Z 19013KT 180V260 9999 FEW025 SCT090 29/26
     Q1006 NOSIG=
####018000091####
SAUK51 EGGY 081050 RRD
METAR EGDY 081050Z 24005KT 9999 FEW035 BKN220 22/14 Q1018 NOSIG=
####018000099####
SPCO20 SKBO 081131
SPECI SKBO 081133Z VRB02KT 9999 5000NW BR SCT015 BKN070 12/11 A3031 
NOSIG=
####018000100####
SASR31 WSSS 081130
METAR WSSS 081130Z 20004KT 180V240 9999 -RA FEW016 BKN180 28/25 Q1009
NOSIG=
####018000828####
SAUR30 UKMS 081130
METAR UKBB 081130Z 30003MPS 250V350 9999 BKN032 26/18
         Q1014 88CLRD95    NOSIG=
METAR UKHH 081130Z 19002MPS 120V270 9999 SCT040
         BKN200  30/15 Q1014 260///65 NOSIG=
METAR UKOO 081130Z 35003MPS 290V030 CAVOK 28/16 Q1014
          34090070 NOSIG=
METAR UKDE 081130Z 25002MPS 170V300 9999 SCT050 29/17
          Q1014 20CLRD70 NOSIG=
METAR UKDD 081130Z 17003MPS 9999 SCT033CB BKN200
         30/18  Q1014 08090070 TEMPO VRB10G15MPS -TSRA
         SQ BKN020CB=
METAR UKFF 081130Z 06002MPS 340V100 CAVOK 28/15 Q1013
          01010070 NOSIG=
METAR UKLL 081130Z 31003MPS 230V360 CAVOK 19/11 Q1021
          31210365 NOSIG=
METAR UKCC 081130Z VRB01MPS CAVOK 30/16 Q1014
         08090070 NOSIG=
METAR UKDR 081130Z 00000MPS 9999 BKN033 OVC200 29/18
         Q1013 1809//70 NOSIG=
####018000363####
SAMC31 GMMC 081130
METAR GMME 081130Z 34007KT 310V010 6000 SCT010 BKN015 25/19 Q1016
NOSIG=
METAR GMMN 081130Z 35011KT 300V040 9999 SCT016 BKN023 26/19 Q1017
NOSIG=
METAR GMMX 081130Z 33005KT 260V030 8000 FEW026 33/16 Q1017 NOSIG=
METAR GMTT 081130Z 28008KT 250V320 8000 SCT016 BKN230 25/20 Q1016
NOSIG=
METAR GMAD 081130Z NIL=
METAR GMFF 081130Z NIL=
####018000085####
SPAU32 YBBN 081132
SPECI YBRM 081130Z 07005KT 9999 -DZ FEW024 BKN046 23/23 Q1012=
####018000088####
SPAU31 KWBC 081133
SPECI
YBRM 081130Z 07005KT 9999 -DZ FEW024 BKN046 23/23 Q1012=
####018000089####
SPCN31 KWBC 081133
SPECI
CYQB 081131Z 06005KT 5SM BR SCT006 OVC011 19/ RMK SF3SC5=
####018000093####
SPCN31 KWBC 081133
SPECI
CYSJ 081130Z 20011KT 1/4SM R23/3500FT/N FG VV002 15/ RMK FG8=
####018000082####
SPCN31 KWBC 081133
SPECI
CZBF 081131Z 00000KT 1 1/4SM BR OVC004 RMK FG5SF3=
####018000084####
SPSA31 KWBC 081133
SPECI
SPZO 081130Z 00000KT 9999 FEW033 SCT100 04/01 Q1032=
####018000091####
SADL52 ETGT 081120 RRB
METAR
ETSI 081120Z 13005KT 9999 25/07 Q1022
      BLU+BLU+=
####018000098####
SAAJ31 UBBB 081130
METAR UBBG 081130Z 08014KT 9999 SCT083 36/16 Q1010 NOSIG RMK
R12L/CLRD70 =
####018000106####
SPAU31 AMMC 081133
SPECI YSRI 081132Z AUTO 23005KT 8000NDV // SCT039 BKN058 OVC067 11/10 Q1028=


####018000100####
SPAU31 AMMC 081133
SPECI YSRI 081132Z AUTO 23005KT 8000NDV // SCT039 BKN058 OVC067 11/10 Q1028=
####018000089####
SPUS52 KWBC 081133
SPECI
KGAG 081130Z AUTO 35004KT 10SM BKN009 BKN120 21/19 A3014=
####018000795####
SAUS43 KWBC 081100 RRH
METAR
KFWC 081125Z AUTO 00000KT 5SM BR CLR 23/22 A3005=
KIGQ 081120Z AUTO 00000KT 3SM -RA SCT065 BKN080 120 23/22
     A3003=
KIJX 081125Z AUTO 00000KT 2SM -DZ CLR 23/23 A3004=
KIKK 081126Z AUTO 00000KT 4SM HZ BKN085 BKN095 26/23 A3003=
KLOT 081122Z AUTO 00000KT 2 1/2SM -RA BKN050 OVC065 23/22
     A3002=
KMQB 081125Z AUTO 30003KT 7SM OVC004 23/23 A3006=
KMWA 081125Z AUTO 00000KT 10SM SCT090 25/24 A3007=
KPPQ 081126Z AUTO 00000KT 10SM SCT080 23/22 A3005=
KSAR 081125Z AUTO 18006KT 7SM SCT065 BKN070 OVC085 26/23 A3005=
KSLO 081123Z AUTO 21003KT 10SM CLR 25/22 A3006=
KTAZ 081125Z AUTO 00000KT 2 1/2SM BR CLR 23/23 A3004=
KTIP 081125Z AUTO 00000KT 4SM BR SCT090 24/23 A3005=
KVYS 081125Z AUTO 00000KT 4SM BR BKN016 OVC022 23/22 A3004=
####018000085####
SPUS53 KWBC 081133
SPECI
KSTC 081130Z AUTO 00000KT 2 1/2SM BR CLR 14/13 A3010=
####018000080####
SAUK33 EGGY 081120 RRB
METAR EGHI 081120Z VRB02KT 9999 BKN018 20/14 Q1018 =
####018000080####
SAMP31 LMMM 081130 RRA
METAR HLLB 081125Z
32017KT 9999 FEW025 30/17 Q1016=
####018000111####
SATH31 VTBB 081100 RRA
METAR VTCT 081100Z 28002KT 9999 BKN025 BKN100 25/23 Q1008 A2977
RMK/RWY03 INFO L=
####018000092####
SAAB31 LATI 081130
METAR LATI 081130Z 04012G24KT 350V080 9999 FEW050 27/13 Q1016 NOSIG=
####018000077####
SPUS54 KWBC 081133
SPECI
KLGB 081130Z 32004KT 10SM OVC013 17/13 A2989=
####018000099####
SAUS52 KWBC 081100 RRD
METAR
KSEP 081125Z AUTO 00000KT 7SM SCT032 SCT090 SCT120 23/21 A3003=
####018000127####
SAUS53 KWBC 081100 RRG
METAR
KEHA 081128Z AUTO 01003KT 17/17=
KLNC 081125Z AUTO 00000KT 7SM SCT028 BKN110 24/24 A3002=
####018000085####
SPUS73 KWBC 081133
SPECI
KSTC 081130Z AUTO 00000KT 2 1/2SM BR CLR 14/13 A3010=
####018000077####
SPUS74 KWBC 081133
SPECI
KLGB 081130Z 32004KT 10SM OVC013 17/13 A2989=
####018000085####
SAEW KAWN 081000 RRQ
METAR EBBL 081025Z 23004KT 9999 FEW220 30/10 Q1019 BLU BLU=
####018000095####
SPUS75 KWBC 081133
SPECI
PAIL 081129Z AUTO 10004KT 7SM SCT001 BKN085 BKN100 08/08 A2993=
####018000073####
SAAL41 DAMM 081100 RRC
METAR DAAD 081100Z 00000KT CAVOK 36/15 Q1022=
####018000092####
SASG20 GOOY 081130
METAR GOOY 081130Z 17007KT 130V220 9999 SCT013 30/25 Q1012 NOSIG=

####018000095####
SAUS73 KWBC 081100 RRG
METAR
KIKK 081126Z AUTO 00000KT 4SM HZ BKN085 BKN095 26/23 A3003=
####018000081####
SPUS81 KWBC 081133
SPECI
KRSP 081130Z AUTO 00000KT 5SM HZ CLR 27/17 A3010=
####018000085####
SPUS81 KWBC 081133
SPECI
KSTC 081130Z AUTO 00000KT 2 1/2SM BR CLR 14/13 A3010=
####018000085####
SAEU KAWN 081000 RRX
METAR EBBL 081025Z 23004KT 9999 FEW220 30/10 Q1019 BLU BLU=
####018000125####
SANA35 KAWN 081100 RRE
METAR KNKT 081054Z COR 04006KT 4SM BR FEW001 BKN160 26/24 A2993 RMK
      AO2 SLP132 T02610239=
####018001601####
SPZZ40 KAWN 081133 RRG
SPECI BGTL 081131Z AUTO 00000KT 9999 SCT002 04/04 A2983 RMK AO2 SLP107=
SPECI CYCO 081127Z 04007KT 12SM -RA BKN012 OVC035 RMK ST7SC1 VIS SE
      6=
SPECI CYGV 081128Z AUTO 08004KT 3 1/2SM OVC001 14/12 A3003=
SPECI CYQB 081131Z 06005KT 5SM BR SCT006 OVC011 19/ RMK SF3SC5=
SPECI CYSJ 081130Z 20011KT 1/4SM R23/3500FT/N FG VV002 15/ RMK FG8=
SPECI CYTZ 081130Z AUTO 00000KT 3SM BR SCT002 21/21 A3002 RMK SLP165
      DENSITY ALT 800FT RVR MISG=
SPECI CZBF 081131Z 00000KT 1 1/4SM BR OVC004 RMK FG5SF3=
SPECI KFRI 081130Z AUTO 02005KT 6SM BR SCT006 SCT011 OVC019 22/22 A3010
      RMK AO2 OVC V BKN SLP182=
SPECI KNZY 081130Z 34004KT 9SM FEW009 OVC014 18/13 A2989 RMK AO2 DZE30
      P0000 $=
PATC SP 1135 AWOS CLR BLO 120 10 45/43/0210/014=
SPECI PGUA 081130Z AUTO 11010KT 10SM R06L/5500VP6000FT SCT018 SCT027
      26/ A2992 RMK AO2 PK WND 09026/1115 RAB1118E1128 SLP114
      VISNO RWY24L $=
SPECI RJCK 081126Z 22004KT 0400 R17/1100D FG VV001 16/15 Q1010 REDZ
      RMK A2985=
SPECI RJCK 081130Z 22004KT 0400 R17/1200U FG VV001 16/15 Q1011 REDZ
      RMK A2985=
SPECI RJCM 081121Z 01005KT 9999 FEW003 BKN006 BKN011 16/15 Q1010 RMK
      1ST003 5ST006 7ST011 A2984=
SPECI SPQT 081125Z ///// 9999 3000SW MIFG SCT100 24/23 Q1011=
SPECI SPZO 081130Z 00000KT 9999 FEW033 SCT100 04/01 Q1032=
SPECI YBRM 081130Z 07005KT 9999 -DZ FEW024 BKN046 23/23 Q1012=
SPECI YPPD 081130Z AUTO 27009KT 3000NDV // SCT010 BKN024 OVC074 22/20
      Q1010=
SPECI YSRI 081132Z AUTO 23005KT 8000NDV // SCT039 BKN058 OVC067 11/10
      Q1028=
####018000125####
SANA14 KAWN 081100 RRF
METAR KNKT 081054Z COR 04006KT 4SM BR FEW001 BKN160 26/24 A2993 RMK
      AO2 SLP132 T02610239=
####018000231####
SPNA14 KAWN 081133 RRE
SPECI KNZY 081130Z 34004KT 9SM FEW009 OVC014 18/13 A2989 RMK AO2 DZE30
      P0000 $=
SPECI KRND 081128Z AUTO 03005KT 8SM -DZ BKN012 BKN060 25/24 A2994 RMK
      AO2 DZB1118 CLDS LWR RWY32R SLP128=
####018000079####
SASA KAWN 081100 RRI
METAR SAWE 081100Z 27007KT 9999 SCT050 M02/M02 Q0987=
####018000075####
SACN88 CWAO 081130
ABB SA 1130 AUTO7 M M M M/21/19/2303/M/M M 89MM=

####018000100####
SAAJ31 UBBB 081130
METAR UBBG 081130Z 08014KT 9999 SCT083 36/16 Q1010 NOSIG RMK
R12L/CLRD70 =
####018000847####
SAUR30 UKMS 081130
METAR UKBB 081130Z 30003MPS 250V350 9999 BKN032 26/18
         Q1014 88CLRD95    NOSIG=
METAR UKHH 081130Z 19002MPS 120V270 9999 SCT040
         BKN200  30/15 Q1014 260///65 NOSIG=
METAR UKOO 081130Z 35003MPS 290V030 CAVOK 28/16 Q1014
          34090070 NOSIG=
METAR UKDE 081130Z 25002MPS 170V300 9999 SCT050 29/17
          Q1014 20CLRD70 NOSIG=
METAR UKDD 081130Z 17003MPS 9999 SCT033CB BKN200
         30/18  Q1014 08090070 TEMPO VRB10G15MPS -TSRA
         SQ BKN020CB=
METAR UKFF 081130Z 06002MPS 340V100 CAVOK 28/15 Q1013
          01010070 NOSIG=
METAR UKLL 081130Z 31003MPS 230V360 CAVOK 19/11 Q1021
          31210365 NOSIG=
METAR UKCC 081130Z VRB01MPS CAVOK 30/16 Q1014
         08090070 NOSIG=
METAR UKDR 081130Z 00000MPS 9999 BKN033 OVC200 29/18
         Q1013 1809//70 NOSIG=
####018000116####
SAUK39 EGRR 081050 RRL
METAR EGDM 081050Z 21005KT 9999 SCT018 SCT130 BKN250 20/15 Q1019 WHT
BECMG BKN025 BLU=
####018000090####
SAUK39 EGRR 081050 RRK
METAR EGOW 081050Z 26009KT 9999 FEW040 SCT250 20/10 Q1017 BLU=
####018002947####
SAUS20 KNKA 081133
METAR K1F0 081129Z AUTO 00000KT 24/24 A3002 RMK AO2 PWINO=
METAR KAFK 081130Z AUTO 36005KT 4SM BR SCT012 19/18 A3014 RMK AO2 
     T01920184=
METAR KAIK 081135Z AUTO 29005KT 10SM CLR 23/23 A3005 RMK AO2 PNO=
METAR KANW 081130Z AUTO 00000KT 10SM CLR 15/15 A3024 RMK AO2 
     T01530145=
METAR KARW 081135Z AUTO 27007KT 10SM CLR 25/19 A2998 RMK AO2=
SPECI KAUG 081132Z AUTO 19005KT 4SM BR OVC003 21/20 A3010 RMK AO2=
METAR KAUH 081130Z AUTO 34006KT 10SM CLR 16/15 A3020 RMK AO2 
     T01560145=
METAR KAUN 081130Z AUTO 00000KT 10SM CLR 21/14 A2987 RMK AO1=
METAR KBIE 081130Z AUTO 36005KT 10SM SCT019 SCT030 18/17 A3015 
     RMK AO2 T01830171=
METAR KBTA 081130Z AUTO 34006KT 7SM CLR 18/17 A3016 RMK AO2 
     T01830168=
METAR KBVN 081130Z AUTO 33004KT 10SM OVC090 17/15 A3021 RMK AO2 
     T01650150=
METAR KCLK 081133Z AUTO 02006KT 10SM SCT025 SCT037 22/20 A3008 
     RMK AO2=
METAR KCUH 081130Z AUTO 00000KT 7SM -DZ SCT019 SCT036 BKN065 
     23/23 A3004 RMK AO2=
METAR KDVO 081130Z AUTO 00000KT 10SM BKN014 12/11 A2992 RMK AO2=
METAR KFDW 081135Z AUTO 33004KT 10SM CLR 25/18 A3002 RMK AO1=
METAR KGLY 081135Z AUTO 00000KT 5SM  BR BKN006 22/22 A3006 RMK AO2 
     =
METAR KHDE 081130Z AUTO 36003KT 10SM SCT085 16/14 A3023 RMK AO2 
     T01560141=
SPECI KJFK 081132Z 15005KT 2SM BR OVC004 24/23 A3006 RMK AO2 SFC VIS 
    3 CIG 002V005 $=
METAR KLAM 081130Z AUTO 00000KT 10SM CLR 15/08 A3038 RMK AO2=
SPECI KLAR 081132Z AUTO 00000KT 9SM FEW017 07/07 A3040 RMK AO2=
SPECI KLNS 081132Z 00000KT 3SM HZ CLR 26/21 A3003 RMK AO2=
METAR KMEZ 081135Z AUTO 00000KT 7SM SCT012 BKN030 OVC047 25/23 
     A3008 RMK AO2=
METAR KOAJ 081135Z AUTO 00000KT 5SM CLR 24/22 A2995 RMK AO1=
METAR KOJA 081130Z AUTO 02004KT 10SM SCT023 22/22 A3009 RMK AO2=
METAR KORS 081130Z AUTO 10SM CLR 14/12 A2995 RMK AO2=
METAR KOUN 081132Z AUTO 01003KT 10SM OVC013 25/23 A3006 RMK AO2=
METAR KPLU 081130Z AUTO 00000KT 10SM FEW032 SCT042 BKN065 13/13 
     A2994 RMK AO2=
SPECI KPQL 081132Z 00000KT 3SM BR FEW001 SCT012 23/23 A3003 RMK AO2=
METAR KPSO 081135Z AUTO 00000KT 10SM CLR 10/05 A3040 RMK AO2=
METAR KPVJ 081127Z AUTO 00000KT 7SM CLR 24/23 A3004 RMK AO2=
SPECI KPWK 081132Z 16005KT 3SM -RA BR FEW028 OVC060 23/22 A3003 RMK 
    AO2 RAB1056 P0003=
METAR KRKR 081132Z AUTO 00000KT 10SM BKN027 BKN120 26/24 A3004 
     RMK AO2 LTG DSNT N=
METAR KSNL 081132Z AUTO 01006KT 5SM BR OVC005 24/23 A3006 RMK AO2 
     LTG DSNT NE=
METAR KSOP 081135Z AUTO 00000KT 10SM CLR 25/18 A2998 RMK AO1=
METAR KSRE 081130Z AUTO 00000KT 5SM BR CLR 24/24 A3004 RMK AO2 
     LTG DSNT NE=
METAR KSVC 081130Z AUTO 05008KT 10SM BKN110 18/14 A3022 RMK AO2=
METAR KTEX 081131Z AUTO 12009KT 10SM OVC100 12/04 A3046 RMK AO2=
METAR KTMK 081133Z AUTO 00000KT 7SM OVC004 12/12 A2997 RMK AO2=
METAR KTQH 081135Z AUTO 00000KT 10SM BKN017 OVC028 23/23 A3006 
     RMK AO2=
####018000108####
SAAK41 KNKA 081133
SPECI PAPN 081132Z AUTO 00000KT 10SM BKN016 08/07 A2994 RMK AO2 
    PWINO TSNO $=
####018000080####
SAUS20 KNKA 081133
METAR KUDG 081135Z 33005KT 10SM CLR 25/18 A2998 RMK AO1=
####018000082####
SPCN48 CWAO 081132
SPECI CYPH 081132Z AUTO 25014KT 9SM OVC004 06/06 A2981=

####018000164####
SPUS90 KWBC 081134
SPECI KCRP 081132Z 02012KT 8SM TSRA SCT016CB BKN021 BKN050 26/25
     A2983 RMK AO2 TSB32RAB27 OCNL LTGIC SE-S TS SE-S MOV W
     P0000=
####018000101####
SAUS90 KWBC 081134
METAR KEHA 081128Z AUTO 01003KT 17/17 RMK AO1 PK WND 08 082
     T01720167=
####018000161####
SAUS44 KCRP 081133
MTRCRP
SPECI KCRP 081132Z 02012KT 8SM TSRA SCT016CB BKN021 BKN050 26/25 
A2983 RMK AO2 TSB32RAB27 OCNL LTGIC SE-S TS SE-S MOV W P0000
####018000121####
SAUK39 EGRR 080950 CCH
METAR COR EGUW 080950Z 27007KT 9999 FEW006 BKN015 18/14 Q1019 WHT
 BECMG FEW020 BKN035 BLU=
####018000114####
SAUK39 EGRR 080950 CCJ
METAR COR EGWU 080950Z 29004KT 9999 BKN015 BKN028 18/14 Q1019 WHT
 BECMG SCT025 BLU=
####018000103####
SAUK39 EGRR 080950 CCI
METAR COR EGVN 080950Z 24004KT 9999 FEW025 BKN110 18/12 Q1019 BLU
 NOSIG=
####018000243####
SACZ31 LKPW 081130
METAR LKKV 081130Z VRB05KT CAVOK 23/10 Q1023=
METAR LKMT 081130Z VRB05KT CAVOK 21/10 Q1023 NOSIG=
METAR LKPR 081130Z 33005KT 290V040 CAVOK 24/09 Q1023 NOSIG=
METAR LKTB 081130Z 32005KT 260V020 CAVOK 24/08 Q1022 NOSIG=
####018000107####
SAPY SGAS 081130
METAR SGAS 081130Z  16010KT 8000  BKN008 OVC012
17/15 Q1015=
METAR SGES 081130Z NIL=
####018000101####
SPAU32 YBBN 081133
SPECI YSRI 081132Z AUTO 23005KT 8000NDV // SCT039 BKN058 OVC067 11/10
Q1028=
####018002329####
SAUS99 KWBC 081134
METAR
K1F0 081129Z AUTO 00000KT 24/24 A3002 RMK AO2 PWINO=
KAFK 081130Z AUTO 36005KT 4SM BR SCT012 19/18 A3014 RMK AO2
     T01920184=
KAIK 081135Z AUTO 29005KT 10SM CLR 23/23 A3005 RMK AO2 PNO=
KANW 081130Z AUTO 00000KT 10SM CLR 15/15 A3024 RMK AO2
     T01530145=
KARW 081135Z AUTO 27007KT 10SM CLR 25/19 A2998 RMK AO2=
KAUH 081130Z AUTO 34006KT 10SM CLR 16/15 A3020 RMK AO2
     T01560145=
KAUN 081130Z AUTO 00000KT 10SM CLR 21/14 A2987 RMK AO1=
KBIE 081130Z AUTO 36005KT 10SM SCT019 SCT030 18/17 A3015 RMK AO2
     T01830171=
KBTA 081130Z AUTO 34006KT 7SM CLR 18/17 A3016 RMK AO2
     T01830168=
KBVN 081130Z AUTO 33004KT 10SM OVC090 17/15 A3021 RMK AO2
     T01650150=
KCLK 081133Z AUTO 02006KT 10SM SCT025 SCT037 22/20 A3008 RMK
     AO2=
KCUH 081130Z AUTO 00000KT 7SM -DZ SCT019 SCT036 BKN065 23/23 A3004
     RMK AO2=
KDVO 081130Z AUTO 00000KT 10SM BKN014 12/11 A2992 RMK AO2=
KFDW 081135Z AUTO 33004KT 10SM CLR 25/18 A3002 RMK AO1=
KGLY 081135Z AUTO 00000KT 5SM BR BKN006 22/22 A3006 RMK AO2=
KHDE 081130Z AUTO 36003KT 10SM SCT085 16/14 A3023 RMK AO2
     T01560141=
KLAM 081130Z AUTO 00000KT 10SM CLR 15/08 A3038 RMK AO2=
KMEZ 081135Z AUTO 00000KT 7SM SCT012 BKN030 OVC047 25/23 A3008 RMK
     AO2=
KOAJ 081135Z AUTO 00000KT 5SM CLR 24/22 A2995 RMK AO1=
KOJA 081130Z AUTO 02004KT 10SM SCT023 22/22 A3009 RMK AO2=
KORS 081130Z AUTO 10SM CLR 14/12 A2995 RMK AO2=
KOUN 081132Z AUTO 01003KT 10SM OVC013 25/23 A3006 RMK AO2=
KPLU 081130Z AUTO 00000KT 10SM FEW032 SCT042 BKN065 13/13 A2994
     RMK AO2=
KPSO 081135Z AUTO 00000KT 10SM CLR 10/05 A3040 RMK AO2=
KPVJ 081127Z AUTO 00000KT 7SM CLR 24/23 A3004 RMK AO2=
KRKR 081132Z AUTO 00000KT 10SM BKN027 BKN120 26/24 A3004 RMK AO2
     LTG DSNT N=
KSNL 081132Z AUTO 01006KT 5SM BR OVC005 24/23 A3006 RMK AO2 LTG
     DSNT NE=
KSOP 081135Z AUTO 00000KT 10SM CLR 25/18 A2998 RMK AO1=
KSRE 081130Z AUTO 00000KT 5SM BR CLR 24/24 A3004 RMK AO2 LTG DSNT
     NE=
KSVC 081130Z AUTO 05008KT 10SM BKN110 18/14 A3022 RMK AO2=
KTEX 081131Z AUTO 12009KT 10SM OVC100 12/04 A3046 RMK AO2=
KTMK 081133Z AUTO 00000KT 7SM OVC004 12/12 A2997 RMK AO2=
KTQH 081135Z AUTO 00000KT 10SM BKN017 OVC028 23/23 A3006 RMK
     AO2=
KUDG 081135Z 33005KT 10SM CLR 25/18 A2998 RMK AO1=
####018000127####
SACN86 KWBC 081134
METAR CWNB 081100Z AUTO RMK AO1 000 =
METAR CWPS 081100Z AUTO 17006KT 25/ RMK AO1 SLP159 T0253 53002=
####018000532####
SPUS99 KWBC 081134
SPECI
KAUG 081132Z AUTO 19005KT 4SM BR OVC003 21/20 A3010 RMK AO2=
KJFK 081132Z 15005KT 2SM BR OVC004 24/23 A3006 RMK AO2 SFC VIS 3
     CIG 002V005 $=
KLAR 081132Z AUTO 00000KT 9SM FEW017 07/07 A3040 RMK AO2=
KLNS 081132Z 00000KT 3SM HZ CLR 26/21 A3003 RMK AO2=
KPQL 081132Z 00000KT 3SM BR FEW001 SCT012 23/23 A3003 RMK AO2=
KPWK 081132Z 16005KT 3SM -RA BR FEW028 OVC060 23/22 A3003 RMK AO2
     RAB1056 P0003=
PAPN 081132Z AUTO 00000KT 10SM BKN016 08/07 A2994 RMK AO2 PWINO
     TSNO $=
####018000094####
SAGG31 UGTB 081130
METAR UGTB 081130Z 09012KT 9999 SCT050 35/17 Q1013 NOSIG RMK
13CLRD80=
####018000094####
SACN87 KWBC 081134
METAR CWQS 081100Z AUTO 35016KT 13/ RMK AO1 PK WND 35022/1015
T0125=
####018000072####
SAAL33 DAAA 081100 RRD
METAR DAAD 081100Z 00000KT CAVOK 36/15 Q1022=
####018000351####
SAIE31 EIDB 081130
METAR EIDW 081130Z 24014KT 9999 FEW026 SCT050 BKN130 16/10 Q1015
     NOSIG=
METAR EINN 081130Z 20007KT 9999 FEW017 SCT025 BKN060 16/12 Q1015
     NOSIG=
METAR EICK 081130Z 21009KT 9999 -RA SCT008 BKN012 BKN030 14/12 Q1016
     NOSIG=
METAR EIKN 081130Z 23013KT 190V250 9999 FEW018CB SCT024 BKN048 15/09
     Q1013 NOSIG=
####018000072####
SAAL41 DAMM 081100 RRC
METAR DAAD 081100Z 00000KT CAVOK 36/15 Q1022=
####018000087####
SACN97 KWBC 081134
METAR CXTV 081100Z AUTO 29008KT 05/ RMK AO1 SLP173 T0051 51007=
####018000080####
SACN94 KWBC 081134
METAR CWSK 081130Z AUTO 35001KT 15/11 RMK AO1 T01510108=
####018001153####
SPUS70 KWBC 081134
SPECI
KGCK 081131Z AUTO 03011KT 10SM SCT007 OVC011 17/16 A3022 RMK
     AO2=
KGLD 081131Z AUTO 00000KT 10SM SCT004 BKN120 17/16 A3028 RMK
     AO2=
KHLG 081131Z 00000KT 2 1/2SM BR BKN065 21/19 A3010 RMK AO2=
KLEB 081131Z 00000KT 3SM HZ FEW013 24/21 A3006 RMK AO2=
KLRD 081130Z 04007KT 10SM FEW007 OVC024 27/24 A2990 RMK AO2 $=
KMQY 081131Z AUTO 00000KT 10SM CLR 24/23 A3009 RMK AO2=
KOSH 081131Z 00000KT 6SM BR SCT006 22/20 A3000 RMK AO2=
KPBI 081131Z 10009KT 9SM -RA BKN020 BKN028CB BKN033 27/24 A2995
     RMK AO2 RAB16 VIS E-SE 1 1/2 CB OHD-NE-S MOV SW P0000=
KPWM 081131Z 17007KT 6SM BR OVC004 21/20 A3009 RMK AO2 $=
KSMQ 081131Z AUTO 00000KT 3SM BR SCT009 24/22 A3003 RMK AO2=
KAUG 081132Z AUTO 19005KT 4SM BR OVC003 21/20 A3010 RMK AO2=
KJFK 081132Z 15005KT 2SM BR OVC004 24/23 A3006 RMK AO2 SFC VIS 3
     CIG 002V005 $=
KLAR 081132Z AUTO 00000KT 9SM FEW017 07/07 A3040 RMK AO2=
KLNS 081132Z 00000KT 3SM HZ CLR 26/21 A3003 RMK AO2=
KPQL 081132Z 00000KT 3SM BR FEW001 SCT012 23/23 A3003 RMK AO2=
KPWK 081132Z 16005KT 3SM -RA BR FEW028 OVC060 23/22 A3003 RMK AO2
     RAB1056 P0003=
####018000343####
SAUS70 KWBC 081134 RRA
METAR
KSVC 081130Z AUTO 05008KT 10SM BKN110 18/14 A3022 RMK AO2=
KTEX 081131Z AUTO 12009KT 10SM OVC100 12/04 A3046 RMK AO2=
KTMK 081133Z AUTO 00000KT 7SM OVC004 12/12 A2997 RMK AO2=
KTQH 081135Z AUTO 00000KT 10SM BKN017 OVC028 23/23 A3006 RMK
     AO2=
KUDG 081135Z 33005KT 10SM CLR 25/18 A2998 RMK AO1=
####018000234####
SPUS80 KWBC 081134
SPECI
KLXV 081130Z AUTO 00000KT 5SM BR SCT004 05/04 A3051 RMK AO2
     TSNO=
KCRP 081132Z 02012KT 8SM TSRA SCT016CB BKN021 BKN050 26/25 A2983
     RMK AO2 TSB32RAB27 OCNL LTGIC SE-S TS SE-S MOV W P0000=
####018000477####
SPXX60 KWBC 081134
SPECI
KRSP 081130Z AUTO 00000KT 5SM HZ CLR 27/17 A3010 RMK AO2 $=
KFRI 081130Z AUTO 02005KT 6SM BR SCT006 SCT011 OVC019 22/22 A3010
     RMK AO2 OVC V BKN SLP182=
KNZY 081130Z 34004KT 9SM FEW009 OVC014 18/13 A2989 RMK AO2 DZE30
     P0000 $=
PATC SP 1135 AWOS CLR BLO 120 10 45/43/0210/014=
PGUA 081130Z AUTO 11010KT 10SM R06L/5500VP6000FT SCT018 SCT027 26/
     A2992 RMK AO2 PK WND 09026/1115 RAB1118E1128 SLP114 VISNO
     RWY24L $=
####018003692####
SAUS70 KWBC 081134
METAR
K36U 081135Z AUTO 00000KT 10SM CLR 08/04 A3023 RMK AO2=
K4O4 081128Z AUTO 11004KT 23/23 A3005 RMK AO2=
KADH 081130Z AUTO 31003KT 7SM BKN002 BKN025 23/21 A3004 RMK
     AO2=
KADM 081130Z AUTO 00000KT 5SM BR SCT021 BKN025 OVC120 23/23 A3003
     RMK AO2=
KALM 081130Z AUTO 09003KT 10SM CLR 15/13 A3015 RMK AO2=
KATS 081130Z AUTO 35007KT 5SM -RA BKN031 19/18 A3017 RMK AO2
     P0001=
KAXS 081130Z AUTO 08007KT 10SM SCT004 BKN019 OVC026 23/21 A3008
     RMK AO2 P0053 T02270211=
KAXX 081130Z AUTO 00000KT 10SM CLR 04/03 A3049 RMK AO2=
KBVS 081130Z AUTO 04007KT 10SM CLR 19/12 A2998 RMK A01 P000=
KCHK 081131Z AUTO 02003KT 5SM BKN016 22/22 A3005 RMK AO2=
KCQB 081130Z AUTO RMK AO2 PWINO TSNO=
KDUA 081137Z AUTO 16004KT 10SM BKN029 24/23 A3004 RMK AO2=
KDUC 081132Z AUTO 00000KT 10SM CLR 22/22 A3004 RMK AO2=
KFET 081130Z AUTO 00000KT 10SM CLR 17/16 A3017 RMK AO2=
KGCD 081130Z AUTO 12009KT 10SM CLR 14/03 A3012 RMK AO2
     T01430027=
KGCM 081135Z AUTO 00000KT 3SM -VCTSRA BKN006 OVC010 23/23 A3007
     RMK AO2 LTG DSNT NE AND S P0026=
KGMJ 081134Z AUTO 00000KT OVC023 26/26 A3006 RMK AO2 PWINO=
KIDP 081130Z AUTO 00000KT 10SM VCTS SCT035 SCT041 21/20 A3006 RMK
     AO2 LTG DSNT E AND SE=
KJSV 081130Z AUTO 00000KT 10SM OVC046 23/22 A3004 RMK AO2 LTG DSNT
     N=
KJWG 081130Z AUTO 03005KT 7SM BKN004 BKN008 22/22 A3010 RMK
     AO2=
KLRU 081131Z AUTO 00000KT 10SM CLR 20/15 A3016 RMK AO2=
KOKM 081131Z AUTO 07004KT 10SM OVC007 24/24 A3004 RMK AO1 LTG DSNT
     NE=
KONP 081130Z AUTO 21005KT 7SM OVC004 11/09 A2999 RMK AO1=
KWWR 081129Z AUTO 36003KT 10SM BKN009 OVC120 21/21 A3016 RMK AO2
     T02140205=
K1F0 081129Z AUTO 00000KT 24/24 A3002 RMK AO2 PWINO=
KAFK 081130Z AUTO 36005KT 4SM BR SCT012 19/18 A3014 RMK AO2
     T01920184=
KAIK 081135Z AUTO 29005KT 10SM CLR 23/23 A3005 RMK AO2 PNO=
KANW 081130Z AUTO 00000KT 10SM CLR 15/15 A3024 RMK AO2
     T01530145=
KARW 081135Z AUTO 27007KT 10SM CLR 25/19 A2998 RMK AO2=
KAUH 081130Z AUTO 34006KT 10SM CLR 16/15 A3020 RMK AO2
     T01560145=
KAUN 081130Z AUTO 00000KT 10SM CLR 21/14 A2987 RMK AO1=
KBIE 081130Z AUTO 36005KT 10SM SCT019 SCT030 18/17 A3015 RMK AO2
     T01830171=
KBTA 081130Z AUTO 34006KT 7SM CLR 18/17 A3016 RMK AO2
     T01830168=
KBVN 081130Z AUTO 33004KT 10SM OVC090 17/15 A3021 RMK AO2
     T01650150=
KCLK 081133Z AUTO 02006KT 10SM SCT025 SCT037 22/20 A3008 RMK
     AO2=
KCUH 081130Z AUTO 00000KT 7SM -DZ SCT019 SCT036 BKN065 23/23 A3004
     RMK AO2=
KDVO 081130Z AUTO 00000KT 10SM BKN014 12/11 A2992 RMK AO2=
KFDW 081135Z AUTO 33004KT 10SM CLR 25/18 A3002 RMK AO1=
KGLY 081135Z AUTO 00000KT 5SM BR BKN006 22/22 A3006 RMK AO2=
KHDE 081130Z AUTO 36003KT 10SM SCT085 16/14 A3023 RMK AO2
     T01560141=
KLAM 081130Z AUTO 00000KT 10SM CLR 15/08 A3038 RMK AO2=
KMEZ 081135Z AUTO 00000KT 7SM SCT012 BKN030 OVC047 25/23 A3008 RMK
     AO2=
KOAJ 081135Z AUTO 00000KT 5SM CLR 24/22 A2995 RMK AO1=
KOJA 081130Z AUTO 02004KT 10SM SCT023 22/22 A3009 RMK AO2=
KORS 081130Z AUTO 10SM CLR 14/12 A2995 RMK AO2=
KOUN 081132Z AUTO 01003KT 10SM OVC013 25/23 A3006 RMK AO2=
KPLU 081130Z AUTO 00000KT 10SM FEW032 SCT042 BKN065 13/13 A2994
     RMK AO2=
KPSO 081135Z AUTO 00000KT 10SM CLR 10/05 A3040 RMK AO2=
KPVJ 081127Z AUTO 00000KT 7SM CLR 24/23 A3004 RMK AO2=
KRKR 081132Z AUTO 00000KT 10SM BKN027 BKN120 26/24 A3004 RMK AO2
     LTG DSNT N=
KSNL 081132Z AUTO 01006KT 5SM BR OVC005 24/23 A3006 RMK AO2 LTG
     DSNT NE=
KSOP 081135Z AUTO 00000KT 10SM CLR 25/18 A2998 RMK AO1=
KSRE 081130Z AUTO 00000KT 5SM BR CLR 24/24 A3004 RMK AO2 LTG DSNT
     NE=
####018000193####
SAUS80 KWBC 081134
METAR
KIZA 081129Z AUTO 00000KT 10SM OVC009 13/11 A2991 RMK AO2=
KPTS 081130Z AUTO 13004KT 10SM SCT038 SCT044 22/22 A3005 RMK AO2
     LTG DSNT E AND SW T02200221=
####018000219####
SAXX60 KWBC 081100 RRO
METAR
KNKT 081054Z COR 04006KT 4SM BR FEW001 BKN160 26/24 A2993 RMK AO2
     SLP132 T02610239=
KNKT 081054Z COR 04006KT 4SM BR FEW001 BKN160 26/24 A2993 RMK AO2
     SLP132 T02610239=
####018000104####
SPAU31 KWBC 081134
SPECI
YSRI 081132Z AUTO 23005KT 8000NDV // SCT039 BKN058 OVC067 11/10
Q1028=
####018000080####
SPAK32 KWBC 081134
SPECI
PATC SP 1135 AWOS CLR BLO 120 10 45/43/0210/014=
####018000092####
SAAO32 KWBC 081100 RRC
METAR
GQNN 081130Z 18011KT 150V210 6000 SKC 31/22 Q1013 NOSIG=
####018000095####
SAAO33 KWBC 081100 RRD
METAR
GOOY 081130Z 17007KT 130V220 9999 SCT013 30/25 Q1012 NOSIG=
####018000107####
SPPA41 KWBC 081134
SPECI
PGUA 081130Z AUTO 11010KT 10SM R06L/5500VP6000FT SCT018 SCT027 26/
A2992=
####018000089####
SABX31 KWBC 081020 RRC
METAR
EBBL 081025Z 23004KT 9999 FEW220 30/10 Q1019 BLU BLU=
####018000106####
SPJP41 KWBC 081134
SPECI
RJCK 081130Z 22004KT 0400 R17/1200U FG VV001 16/15 Q1011 REDZ RMK
A2985=
####018000106####
SPJP41 KWBC 081134
SPECI
RJCK 081126Z 22004KT 0400 R17/1100D FG VV001 16/15 Q1010 REDZ RMK
A2985=
####018000124####
SPJP41 KWBC 081134
SPECI
RJCM 081121Z 01005KT 9999 FEW003 BKN006 BKN011 16/15 Q1010 RMK
1ST003 5ST006 7ST011 A2984=
####018000097####
SPNT31 KWBC 081134
SPECI
BGTL 081131Z AUTO 00000KT 9999 SCT002 04/04 A2983 RMK AO2 SLP107=
####018000168####
SPPA31 KWBC 081134
SPECI
PGUA 081130Z AUTO 11010KT 10SM R06L/5500VP6000FT SCT018 SCT027 26/
A2992 RMK AO2 PK WND 09026/1115 RAB1118E1128 SLP114 VISNO RWY24L $=
####018000102####
SPSA31 KWBC 081134
SPECI
SKBO 081133Z VRB02KT 9999 5000NW BR SCT015 BKN070 12/11 A3031
NOSIG=
####018000096####
SPUS31 KWBC 081134
SPECI
KPBI 081131Z 10009KT 9SM -RA BKN020 BKN028CB BKN033 27/24 A2995=
####018000099####
SAMX41 KWBC 081145 RRA
METAR
MMCV 081124Z RTD 00000KT 12SM SCT220 23/23 A2985 RMK 8/005 RTS=
####018000086####
SAPA32 KWBC 081100 RRA
METAR
NWWW 081130Z AUTO 00000KT 9999NDV NCD 17/15 Q1017=
####018000098####
SAPA31 KWBC 081100 RRC
METAR
AYPY 081100Z 18010KT 9999 BKN040 26/23 Q1010 RMKS/ HZ IN AREA=
####018000110####
SARA31 KWBC 081100 RRH
METAR
UBBG 081130Z 08014KT 9999 SCT083 36/16 Q1010 NOSIG RMK
     R12L/CLRD70=
####018000079####
SPUS41 KWBC 081134
SPECI
KPWM 081131Z 17007KT 6SM BR OVC004 21/20 A3009=
####018000112####
SAPY59 SGAS 081130
METAR SGAS 081130Z  16010KT 8000  BKN008 OVC012
17/15 Q1015=
METAR SGES 081130Z NIL=
####018000110####
SAPY SGAS 081130
METAR SGAS 081130Z  16010KT 8000  BKN008 OVC012
17/15 Q1015=
METAR SGES 081130Z NIL=
####018000097####
SPUS42 KWBC 081134
SPECI
KCRP 081132Z 02012KT 8SM TSRA SCT016CB BKN021 BKN050 26/25 A2983=
####018000184####
SAUK41 KWBC 081050 RRE
METAR
EGDM 081050Z 21005KT 9999 SCT018 SCT130 BKN250 20/15 Q1019 WHT
     BECMG BKN025 BLU=
EGDY 081050Z 24005KT 9999 FEW035 BKN220 22/14 Q1018 NOSIG=
####018000081####
SAUK31 KWBC 081120 RRB
METAR
EGHI 081120Z VRB02KT 9999 BKN018 20/14 Q1018=
####018000721####
SAUR31 KWBC 081050 RRA
METAR
UKBB 081130Z 30003MPS 250V350 9999 BKN032 26/18 Q1014 88CLRD95
     NOSIG=
UKCC 081130Z VRB01MPS CAVOK 30/16 Q1014 08090070 NOSIG=
UKDD 081130Z 17003MPS 9999 SCT033CB BKN200 30/18 Q1014 08090070
     TEMPO VRB10G15MPS -TSRA SQ BKN020CB=
UKDE 081130Z 25002MPS 170V300 9999 SCT050 29/17 Q1014 20CLRD70
     NOSIG=
UKDR 081130Z 00000MPS 9999 BKN033 OVC200 29/18 Q1013 1809//70
     NOSIG=
UKFF 081130Z 06002MPS 340V100 CAVOK 28/15 Q1013 01010070 NOSIG=
UKHH 081130Z 19002MPS 120V270 9999 SCT040 BKN200 30/15 Q1014
     260///65 NOSIG=
UKLL 081130Z 31003MPS 230V360 CAVOK 19/11 Q1021 31210365 NOSIG=
UKOO 081130Z 35003MPS 290V030 CAVOK 28/16 Q1014 34090070 NOSIG=
####018000084####
SPUS42 KWBC 081134
SPECI
KLRD 081130Z 04007KT 10SM FEW007 OVC024 27/24 A2990=
####018000359####
SAXX99 KWBC 081100 RRV
METAR
CYXJ 081100Z 00000KT 15SM FEW100 BKN220 12/08 A3011 RMK AC1CI0
     SLP196=
DAAD 081100Z 00000KT CAVOK 36/15 Q1022=
ETSI 081120Z 13005KT 9999 25/07 Q1022 BLU+BLU+=
GMAD 081130Z NIL=
K4O4 081128Z AUTO 11004KT 23/23 A3005 RMK AO2=
VTCT 081100Z 28002KT 9999 BKN025 BKN100 25/23 Q1008 A2977
     RMK/RWY03 INFO L=
####018000591####
SAEW31 LEMM 081130
METAR LEMD 081130Z 16005KT 130V210 9999 FEW070TCU 32/12 Q1020 
NOSIG=
METAR LEBL 081130Z 20015KT CAVOK 26/21 Q1019 NOSIG=
METAR LEPA 081130Z 22008KT CAVOK 31/11 Q1020 NOSIG=
METAR LEZL 081130Z 26005KT 9999 SCT025 31/17 Q1015 NOSIG=
METAR LEMG 081130Z 15012KT 120V210 9999 FEW035 30/12 Q1017 NOSIG=
METAR LEVC 081130Z 09007KT 040V120 CAVOK 32/21 Q1019 NOSIG=
METAR LEAL 081130Z 08010KT 050V120 CAVOK 31/15 Q1019 NOSIG=
METAR LEIB 081130Z 08008KT 050V120 CAVOK 29/20 Q1020 NOSIG=
METAR LELC 081130Z NIL=
METAR LEVX 081130Z 27011KT CAVOK 25/19 Q1015=
####018000182####
SPAU31 AMMC 081134
SPECI YSSY 081130Z 22013KT 9000 -SHRA FEW006 SCT020 BKN065 12/11 Q1027
     FM1150 22010KT 9999 -SHRA SCT025 BKN040
     INTER 1150/1430 5000 SHRA BKN010=
####018000084####
SPUS51 KWBC 081134
SPECI
KSMQ 081131Z AUTO 00000KT 3SM BR SCT009 24/22 A3003=
####018000188####
SPAU31 AMMC 081134
SPECI YSSY 081130Z 22013KT 9000 -SHRA FEW006 SCT020 BKN065 12/11 Q1027
     FM1150 22010KT 9999 -SHRA SCT025 BKN040
     INTER 1150/1430 5000 SHRA BKN010=


####018000090####
SPCN48 CWAO 081133
SPECI CYOY 081133Z AUTO 12003KT 050V190 9SM OVC009 20/17 A3000=

####018000089####
SPUS53 KWBC 081134
SPECI
KGCK 081131Z AUTO 03011KT 10SM SCT007 OVC011 17/16 A3022=
####018000089####
SPUS53 KWBC 081134
SPECI
KGLD 081131Z AUTO 00000KT 10SM SCT004 BKN120 17/16 A3028=
####018000106####
SAUK39 EGRR 081050 RRM
METAR EGDR 081050Z 23006KT 9999 FEW022 SCT100 BKN220 18/12 Q1019 BLU
 NOSIG=
####018000309####
SAEW33 LEMM 081130
METAR GCLP 081130Z 02028KT 9999 FEW020 25/18 Q1017 NOSIG=
METAR GCXO 081130Z 29011KT 9999 FEW005 21/17 Q1020 NOSIG=
METAR GCTS 081130Z 08015KT 9999 FEW018 25/17 Q1017 NOSIG=
METAR GCRR 081130Z 35016KT 9999 FEW020 26/18 Q1017=
METAR GCFV 081130Z 06014KT 9999 FEW018 24/19 Q1017=
####018000780####
SAEW32 LEMM 081130
METAR LEAS 081130Z VRB02KT 9999 FEW006 SCT014 22/20 Q1018 TEMPO 
4000 BR=
METAR LEBB 081130Z 29011KT 250V310 8000 FEW020 26/21 Q1016 NOSIG=
METAR LECO 081130Z 01006KT CAVOK 25/21 Q1015=
METAR LEGE 081130Z 14005KT CAVOK 34/18 Q1019=
METAR LEST 081130Z 13008KT 080V160 CAVOK 26/20 Q1015 NOSIG=
METAR LEZG 081130Z 09009KT 040V130 CAVOK 35/13 Q1017=
METAR LESO 081130Z 03006KT CAVOK 26/20 Q1015=
METAR LEVT 081130Z 18008KT 120V210 CAVOK 33/16 Q1018=
METAR LERS 081130Z 19007KT 110V240 CAVOK 29/17 Q1019=
METAR LEMH 081130Z 19006KT 140V240 CAVOK 29/20 Q1020=
METAR LEAM 081130Z 08013KT 050V110 CAVOK 38/07 Q1016=
METAR LEGR 081130Z 15017G28KT 120V180 9999 FEW060 38/05 Q1017=
METAR LERL 081130Z 04007KT 340V100 9999 FEW050 35/09 Q1018=
####018000129####
SAUS44 KCRP 081134
MTRVCT
SPECI KVCT 081132Z AUTO 33003KT 1 1/2SM +RA BR BKN005 BKN014 OVC023 
25/24 A2989 RMK AO2 P0091
####018000097####
SPUS72 KWBC 081134
SPECI
KCRP 081132Z 02012KT 8SM TSRA SCT016CB BKN021 BKN050 26/25 A2983=
####018000084####
SPUS72 KWBC 081134
SPECI
KLRD 081130Z 04007KT 10SM FEW007 OVC024 27/24 A2990=
####018000096####
SPUS72 KWBC 081134
SPECI
KPBI 081131Z 10009KT 9SM -RA BKN020 BKN028CB BKN033 27/24 A2995=
####018000089####
SPUS73 KWBC 081134
SPECI
KGCK 081131Z AUTO 03011KT 10SM SCT007 OVC011 17/16 A3022=
####018000079####
SPUS73 KWBC 081134
SPECI
KOSH 081131Z 00000KT 6SM BR SCT006 22/20 A3000=
####018000145####
SAEW36 LEMM 081130
METAR GCLA 081130Z 01012KT 340V040 9999 SCT020 25/17 Q1019=
METAR GEML 081130Z 07011KT 050V110 9999 FEW013 26/21 Q1017=
####018000299####
SAEW34 LEMM 081130
METAR LEDA 081130Z 12006KT 060V170 CAVOK 35/11 Q1019=
METAR LEJR 081130Z 21005KT 150V270 CAVOK 30/17 Q1016=
METAR LELL 081130Z 13009KT 090V170 CAVOK 30/16 Q1019=
METAR LEPP 081130Z 19006KT 150V250 CAVOK 34/14 Q1018=
METAR LEXJ 081130Z 28010KT 9999 FEW018 25/19 Q1017=
####018000190####
SAEW35 LEMM 081130
METAR LESA 081130Z 28003KT 230V320 9999 FEW048 34/15 Q1019=
METAR LEVD 081130Z 20005KT CAVOK 33/10 Q1019=
METAR LEVS 081130Z 08013G23KT 040V120 CAVOK 30/12 Q1019=
####018000097####
SPUS81 KWBC 081134
SPECI
KCRP 081132Z 02012KT 8SM TSRA SCT016CB BKN021 BKN050 26/25 A2983=
####018000096####
SAGG31 UGTB 081130
METAR UGTB 081130Z 09012KT 9999 SCT050 35/17 Q1013 NOSIG RMK
13CLRD80=
####018000247####
SACZ31 LKPW 081130
METAR LKKV 081130Z VRB05KT CAVOK 23/10 Q1023=
METAR LKMT 081130Z VRB05KT CAVOK 21/10 Q1023 NOSIG=
METAR LKPR 081130Z 33005KT 290V040 CAVOK 24/09 Q1023 NOSIG=
METAR LKTB 081130Z 32005KT 260V020 CAVOK 24/08 Q1022 NOSIG=
####018000561####
SAYG31 LYBM 081130
METAR LYBE 081130Z 32014KT 9999 SCT040 23/12 Q1021 NOSIG=
METAR LYBT 081130Z 32012KT 290V360 CAVOK 23/13 Q1021 NOSIG=
METAR LYKV 081130Z 34007KT 280V010 9999 SCT035 20/15 Q1022 NOSIG=
METAR LYNI 081130Z 31011KT 9999 SCT020 BKN026 17/13 Q1021 NOSIG=
METAR LYPG 081130Z 02015KT 330V050 9999 FEW040 27/08 Q1018 NOSIG=
METAR LYPR 081130Z NIL=
METAR LYTV 081130Z 34008KT 9999 FEW053 28/09 Q1017 NOSIG=
METAR LYUZ 081130Z 31008KT 9999 BKN020 14/10 Q1024 NOSIG=
METAR LYVR 081130Z 01006KT 280V070 9999 FEW030 BKN040 21/14 Q1020=
####018000086####
SPAU32 YBBN 081132
SPECI YBRM 081130Z 07005KT 9999 -DZ FEW024 BKN046 23/23 Q1012=
####018000102####
SPAU32 YBBN 081133
SPECI YSRI 081132Z AUTO 23005KT 8000NDV // SCT039 BKN058 OVC067 11/10
Q1028=
####018000089####
SAIL31 BICC 081130
METAR BIKF 081130Z 03019KT 9999 FEW018 BKN035 BKN120 11/05 Q0994=
####018001075####
SAUK KAWN 081100 RRH
METAR EGAE 081120Z 24016KT 9999 FEW020 BKN040 17/11 Q1013=
METAR EGBJ 081120Z 25006KT 190V280 9999 FEW035 21/09 Q1018=
METAR COR EGCC 081120Z 23008KT 190V270 9999 FEW034 SCT046 19/10 Q1017
      NOSIG=
METAR EGDM 081050Z 21005KT 9999 SCT018 SCT130 BKN250 20/15 Q1019 WHT
      BECMG BKN025 BLU=
METAR EGDY 081050Z 24005KT 9999 FEW035 BKN220 22/14 Q1018 BLU NOSIG=
METAR EGHI 081120Z VRB02KT 9999 BKN018 20/14 Q1018=
METAR EGNH 081120Z 24011KT 9999 FEW024 18/11 Q1017=
METAR EGNJ 081120Z 23013KT 190V260 9999 SCT033 21/11 Q1017=
METAR EGPA 081120Z 21012KT 9999 SCT048 17/11 Q1007=
METAR EGPC 081120Z 20017G27KT 9999 FEW020 16/11 Q1008=
METAR EGPE 081120Z 22019KT 9999 FEW012 SCT036 17/09 Q1009=
METAR COR EGPM 081120Z 22024G36KT 9999 SCT030 17/10 Q1006 NOSIG=
METAR EGPN 081120Z 23015KT 9999 FEW032 SCT045 17/11 Q1012=
METAR EGPO 081120Z 21019KT 9999 FEW014CB SCT030 15/11 Q1006=
METAR COR EGSH 081120Z 25007KT 220V290 9999 SCT017 SCT020 22/15 Q1018
      NOSIG=
METAR EGTG 081120Z 26007KT 9999 FEW028 20/12 Q1019=
####018000391####
SAXX70 KAWN 081100 RRS
METAR KQEJ 081120Z AUTO 08001KT 7SM -SHRA FEW095 23/19 A2993 RMK A02=
METAR KQEL 081130Z AUTO 05001KT 3SM -SHRA OVC040 23/20 A2974 RMK A02=
METAR KQEQ 081130Z AUTO 29002KT 7SM -SHRA FEW037 BKN100 23/20 A2982
      RMK A02=
METAR KQEW 081130Z AUTO 23002KT 7SM FEW100 25/21 A2982 RMK A02=
METAR KQFB 081130Z AUTO 28005KT 4SM BR FEW022 24/21 A2993 RMK A02=
####018000087####
SPCN47 CWAO 081132
SPECI CYAM 081132Z 26004KT 1 1/2SM -RA BR OVC004 RMK FG1SF7=

####018000438####
SAIR31 OIII 081130
METAR OIAW 081130Z 24008KT CAVOK 48/08 Q0997 A2945=
METAR OIFM 081130Z 18006KT CAVOK 39/07 Q1015 A3000=
METAR OIII 081130Z 12012KT CAVOK 40/M04 Q1012 A2990 877.9=
METAR OIKB 081130Z NIL=
METAR OIKK 081130Z NIL=
METAR OIMM 081130Z 05010KT CAVOK 38/M02 Q1013 A2994=
METAR OISS 081130Z NIL=
METAR OITT 081130Z 05014KT CAVOK 38/03 Q1014 A2993=
METAR OIZH 081130Z 07010KT 9999 FEW045 38/M02 Q1012 A2989=
####018001707####
SAEU KAWN 081100 RRX
METAR EGDM 081050Z 21005KT 9999 SCT018 SCT130 BKN250 20/15 Q1019 WHT
      BECMG BKN025 BLU=
METAR EICK 081130Z 21009KT 9999 -RA SCT008 BKN012 BKN030 14/12 Q1016
      NOSIG=
METAR EIDW 081130Z 24014KT 9999 FEW026 SCT050 BKN130 16/10 Q1015 NOSIG=
METAR EIKN 081130Z 23013KT 190V250 9999 FEW018CB SCT024 BKN048 15/09
      Q1013 NOSIG=
METAR EINN 081130Z 20007KT 9999 FEW017 SCT025 BKN060 16/12 Q1015 NOSIG=
METAR EPGD 081130Z VRB04KT CAVOK 24/09 Q1021=
METAR EPPO 081130Z VRB05KT CAVOK 24/08 Q1022=
METAR EPRZ 081130Z 33008KT 270V010 9999 SCT043 22/11 Q1021=
METAR EPWA 081130Z 31011KT CAVOK 23/12 Q1021 NOSIG=
METAR EPWR 081130Z VRB03KT CAVOK 24/09 Q1023=
METAR ETSI 081120Z 13005KT 9999 25/07 Q1022 BLU/BLU/=
METAR LEAL 081130Z 08010KT 050V120 CAVOK 31/15 Q1019 NOSIG=
METAR LEBL 081130Z 20015KT CAVOK 26/21 Q1019 NOSIG=
METAR LEIB 081130Z 08008KT 050V120 CAVOK 29/20 Q1020 NOSIG=
METAR LEMG 081130Z 15012KT 120V210 9999 FEW035 30/12 Q1017 NOSIG=
METAR LEVC 081130Z 09007KT 040V120 CAVOK 32/21 Q1019 NOSIG=
METAR LEVD 081130Z 20005KT CAVOK 33/10 Q1019=
METAR LEVX 081130Z 27011KT CAVOK 25/19 Q1015=
METAR LEZL 081130Z 26005KT 9999 SCT025 31/17 Q1015 NOSIG=
METAR LKKV 081130Z VRB05KT CAVOK 23/10 Q1023=
METAR LKMT 081130Z VRB05KT CAVOK 21/10 Q1023 NOSIG=
METAR LKPR 081130Z 33005KT 290V040 CAVOK 24/09 Q1023 NOSIG=
METAR LKTB 081130Z 32005KT 260V020 CAVOK 24/08 Q1022 NOSIG=
METAR LYBE 081130Z 32014KT 9999 SCT040 23/12 Q1021 NOSIG=
METAR LYNI 081130Z 31011KT 9999 SCT020 BKN026 17/13 Q1021 NOSIG=
METAR LYPG 081130Z 02015KT 330V050 9999 FEW040 27/08 Q1018 NOSIG=
METAR LYTV 081130Z 34008KT 9999 FEW053 28/09 Q1017 NOSIG=
####018001690####
SAUS20 KNKA 081134
METAR KPMV 081130Z AUTO 00000KT 7SM CLR 19/19 A3014 RMK AO2 
     T01910185=
SPECI KBDL 081133Z 14004KT 2 1/2SM HZ BKN008 OVC010 24/22 A3007 RMK 
    AO2=
SPECI KCRP 081132Z 02012KT 8SM TSRA SCT016CB BKN021 BKN050 26/25
     A2983 RMK AO2 TSB32RAB27 OCNL LTGIC SE-S TS SE-S MOV W
     P0000=
METAR KHJH 081130Z AUTO 36004KT 10SM OVC029 19/18 A3017 RMK AO2 
     T01920176=
METAR KIBM 081130Z AUTO 00000KT 10SM OVC080 13/12 A3032 RMK AO2 
     T01250115=
METAR KJYR 081130Z AUTO 00000KT 10SM CLR 16/15 A3018 RMK AO2=
METAR KL35 081132Z AUTO 00000KT 10SM CLR 06/M04 A3018 RMK AO2=
METAR KLCG 081130Z AUTO 00000KT 10SM CLR 14/13 A3019 RMK AO2 
     T01410133=
METAR KLHM 081131Z AUTO 15007KT 10SM CLR 16/11 A2983 RMK AO1 
     T01580110=
METAR KLXN 081130Z AUTO 00000KT 10SM OVC050 17/16 A3024 RMK AO2 
     T01720160=
METAR KMLE 081130Z AUTO 00000KT 10SM CLR 19/17 A3015 RMK AO2 
     T01920168=
METAR KMMH 081130Z AUTO 32004KT 10SM CLR 08/01 A3022 RMK AO1=
METAR KOGA 081130Z AUTO 00000KT 10SM SCT085 BKN110 15/14 A3028 
     RMK AO2 T01510141=
METAR KONL 081130Z AUTO 00000KT 10SM CLR 17/15 A3022 RMK AO2 
     T01650150=
METAR KPNA 081130Z AUTO 29005KT 10SM CLR 04/01 A3040 RMK AO2 
     T00380008=
METAR KPTT 081130Z AUTO 02009KT 3SM BR OVC002 20/20 A3014 RMK AO2=
METAR KSOW 081130Z AUTO 16005KT 10SM FEW100 19/03 A3025 RMK AO2=
METAR KSUN 081131Z AUTO 33010KT 10SM CLR 10/00 A3024 RMK AO2=
METAR KSZT 081130Z AUTO 00000KT 10SM CLR 09/08 A3011 RMK AO2=
METAR KTIF 081130Z AUTO 00000KT 10SM SCT120 15/14 A3026 RMK AO2 
     T01470138=
METAR KTRK 081130Z AUTO 00000KT 10SM CLR 10/08 A3016 RMK AO2=
####018000101####
SADL51 ETGT 081120 RRB
METAR
ETGY 081120Z 25003KT 9999 FEW080 BKN250 30/10 Q1019
      BLU+=
####018000098####
SAMG20 FMMI 081130
METAR FMMI 081130Z 13008KT 100V190 9999 BKN020 SCT023 19/13 Q1025
NOSIG=
####018001737####
SAEU KAWN 081100 RRX
METAR EGDR 081050Z 23006KT 9999 FEW022 SCT100 BKN220 18/12 Q1019 BLU
      NOSIG=
METAR ETGY 081120Z 25003KT 9999 FEW080 BKN250 30/10 Q1019 BLU/=
METAR LEAM 081130Z 08013KT 050V110 CAVOK 38/07 Q1016=
METAR LEAS 081130Z VRB02KT 9999 FEW006 SCT014 22/20 Q1018 TEMPO 4000
      BR=
METAR LEBB 081130Z 29011KT 250V310 8000 FEW020 26/21 Q1016 NOSIG=
METAR LECO 081130Z 01006KT CAVOK 25/21 Q1015=
METAR LEGE 081130Z 14005KT CAVOK 34/18 Q1019=
METAR LEGR 081130Z 15017G28KT 120V180 9999 FEW060 38/05 Q1017=
METAR LEMD 081130Z 16005KT 130V210 9999 FEW070TCU 32/12 Q1020 NOSIG=
METAR LEMH 081130Z 19006KT 140V240 CAVOK 29/20 Q1020=
METAR LEPA 081130Z 22008KT CAVOK 31/11 Q1020 NOSIG=
METAR LEPP 081130Z 19006KT 150V250 CAVOK 34/14 Q1018=
METAR LERS 081130Z 19007KT 110V240 CAVOK 29/17 Q1019=
METAR LESA 081130Z 28003KT 230V320 9999 FEW048 34/15 Q1019=
METAR LESO 081130Z 03006KT CAVOK 26/20 Q1015=
METAR LEST 081130Z 13008KT 080V160 CAVOK 26/20 Q1015 NOSIG=
METAR LEVS 081130Z 08013G23KT 040V120 CAVOK 30/12 Q1019=
METAR LEVT 081130Z 18008KT 120V210 CAVOK 33/16 Q1018=
METAR LEXJ 081130Z 28010KT 9999 FEW018 25/19 Q1017=
METAR LEZG 081130Z 09009KT 040V130 CAVOK 35/13 Q1017=
METAR LFBC 081130Z AUTO 12010KT 080V160 9999NDV NSC 35/11 Q1015=
METAR LFBF 081130Z AUTO 11011KT 9999NDV // NSC 33/17 Q1018=
METAR LFBG 081130Z AUTO 09008KT 070V130 9999NDV NSC 33/13 Q1017=
METAR LFBM 081130Z AUTO 11011KT 9999NDV NSC 34/17 Q1016=
METAR LFKS 081130Z AUTO 10006KT 060V160 9999NDV NSC 30/21 Q1020=
METAR LFMI 081130Z AUTO 23006KT 180V280 9999NDV NSC 33/15 Q1020=
METAR LFMO 081130Z AUTO VRB04KT 9999NDV NSC 34/14 Q1020=
METAR LFMY 081130Z 24005KT 130V300 CAVOK 33/14 Q1020=
####018000075####
SACN88 CWAO 081130
AHD SA 1130 AUTO7 M M M M/20/17/1304/M/M M 89MM=

####018000235####
SPUS99 KWBC 081135
SPECI
KBDL 081133Z 14004KT 2 1/2SM HZ BKN008 OVC010 24/22 A3007 RMK
     AO2=
KCRP 081132Z 02012KT 8SM TSRA SCT016CB BKN021 BKN050 26/25 A2983
     RMK AO2 TSB32RAB27 OCNL LTGIC SE-S TS SE-S MOV W P0000=
####018001348####
SAUS99 KWBC 081135
METAR
KPMV 081130Z AUTO 00000KT 7SM CLR 19/19 A3014 RMK AO2
     T01910185=
KHJH 081130Z AUTO 36004KT 10SM OVC029 19/18 A3017 RMK AO2
     T01920176=
KIBM 081130Z AUTO 00000KT 10SM OVC080 13/12 A3032 RMK AO2
     T01250115=
KJYR 081130Z AUTO 00000KT 10SM CLR 16/15 A3018 RMK AO2=
KL35 081132Z AUTO 00000KT 10SM CLR 06/M04 A3018 RMK AO2=
KLCG 081130Z AUTO 00000KT 10SM CLR 14/13 A3019 RMK AO2
     T01410133=
KLHM 081131Z AUTO 15007KT 10SM CLR 16/11 A2983 RMK AO1
     T01580110=
KLXN 081130Z AUTO 00000KT 10SM OVC050 17/16 A3024 RMK AO2
     T01720160=
KMLE 081130Z AUTO 00000KT 10SM CLR 19/17 A3015 RMK AO2
     T01920168=
KMMH 081130Z AUTO 32004KT 10SM CLR 08/01 A3022 RMK AO1=
KOGA 081130Z AUTO 00000KT 10SM SCT085 BKN110 15/14 A3028 RMK AO2
     T01510141=
KONL 081130Z AUTO 00000KT 10SM CLR 17/15 A3022 RMK AO2
     T01650150=
KPNA 081130Z AUTO 29005KT 10SM CLR 04/01 A3040 RMK AO2
     T00380008=
KPTT 081130Z AUTO 02009KT 3SM BR OVC002 20/20 A3014 RMK AO2=
KSOW 081130Z AUTO 16005KT 10SM FEW100 19/03 A3025 RMK AO2=
KSUN 081131Z AUTO 33010KT 10SM CLR 10/00 A3024 RMK AO2=
KSZT 081130Z AUTO 00000KT 10SM CLR 09/08 A3011 RMK AO2=
KTIF 081130Z AUTO 00000KT 10SM SCT120 15/14 A3026 RMK AO2
     T01470138=
KTRK 081130Z AUTO 00000KT 10SM CLR 10/08 A3016 RMK AO2=
####018000166####
SACY31 LCLK 081130
METAR LCLK 081130Z 19017KT 9999 FEW025 30/22 Q1007 NOSIG=
METAR LCPH 081130Z 24007KT 200V280 9999 FEW030 29/23 Q1008=
METAR LCNC 081130Z NIL=
####018000488####
SAFR36 LFPW 081130
METAR LFGJ 081130Z AUTO VRB04KT 9999NDV NSC 29/11 Q1020=
METAR LFMD 081130Z AUTO 16007KT 130V190 9999NDV NSC 29/22 Q1020=
METAR LFOT 081130Z AUTO VRB05KT 9999NDV NSC 31/11 Q1018=
METAR LFRC 081130Z AUTO 36005KT 330V050 9999NDV FEW016 21/16 Q1019=
METAR LFRG 081130Z AUTO 33006KT 280V360 9999NDV NSC 25/15 Q1019=
METAR LFBA 081130Z NIL=
METAR LFBE 081130Z NIL=
METAR LFJR 081130Z NIL=
METAR LFMH 081130Z NIL=
METAR LFPN 081130Z NIL=
METAR LFRK 081130Z NIL=
####018000465####
SAFR37 LFPW 081130
METAR LFAQ 081130Z AUTO 20006KT 160V230 9999NDV NSC 29/10 Q1019=
METAR LFBU 081130Z AUTO 15007KT 100V180 9999NDV NSC 32/12 Q1018=
METAR LFLN 081130Z AUTO VRB03KT 9999NDV NSC 31/13 Q1020=
METAR LFPM 081130Z VRB02KT CAVOK 31/10 Q1019=
METAR LFSD 081130Z AUTO 15005KT 080V220 9999NDV NSC 30/10 Q1020=
METAR LFTW 081130Z AUTO 17005KT 060V230 9999NDV NSC 32/15 Q1020=
METAR LFRH 081130Z NIL=
METAR LFRQ 081130Z NIL=
METAR LFRT 081130Z NIL=
####018000200####
SPAU31 YBBN 081134
SPECI YSSY 081130Z 22013KT 9000 -SHRA FEW006 SCT020 BKN065 12/11
Q1027
RMK VIS REDUCED TO NORTH
FM1150 22010KT 9999 -SHRA SCT025 BKN040
INTER 1150/1430 5000 SHRA BKN010=
####018000371####
SARO31 LROM 081130
METAR LRBS 081130Z 31004KT 260V350 9999 FEW020 21/14 Q1017 NOSIG=
METAR LRCK 081130Z 36011KT 340V040 9999 FEW035 25/15 Q1015 NOSIG=
METAR LROP 081130Z 28003KT 230V320 9999 FEW045CB 21/14 Q1016
880///95 NOSIG=
METAR LRSB 081130Z 36004KT 310V040 9999 FEW019 SCT040 OVC090 17/12
Q1020=
METAR LRTR 081130Z 01009KT 330V050 9999 FEW034 24/14 Q1020=
####018000374####
SAFR31 LFPW 081130
METAR LFLL 081130Z 22005KT 150V310 CAVOK 30/15 Q1020 NOSIG=
METAR LFMN 081130Z 11006KT 9999 FEW023 29/22 Q1020 NOSIG=
METAR LFPG 081130Z 10004KT 040V180 CAVOK 30/09 Q1019 NOSIG=
METAR LFPO 081130Z 22003KT 180V260 CAVOK 30/11 Q1019 NOSIG=
METAR LFQQ 081130Z 21007KT 130V280 CAVOK 29/13 Q1018 NOSIG=
METAR LFRB 081130Z NIL=
METAR LFRS 081130Z NIL=
####018000097####
SAHK31 VHHH 081130
METAR VHHH 081130Z 19009KT 150V210 9999 FEW015 SCT025 31/25 
Q1006 NOSIG=
####018000111####
SAKO31 RKSI 081130
METAR RKSI 081130Z 33005KT 220V010 9000 -RA FEW040 OVC110 23/19
           Q1009 NOSIG=
####018000160####
SAMW40 FWKI 081100
METAR
FWUU 081100Z NIL=
FWKI 081100Z 09010KT 9999 SCT030 21/05 Q1026 NOSIG=
FWCL 081100Z 15012KT 9999 SCT030 BKN090 22/11 Q1026 NOSIG=
####018000174####
SPAU31 KWBC 081135
SPECI
YSSY 081130Z 22013KT 9000 -SHRA FEW006 SCT020 BKN065 12/11 Q1027
FM1150 22010KT 9999 -SHRA SCT025 BKN040 INTER 1150/1430 5000 SHRA
BKN010=
####018000079####
SPUS31 KWBC 081135
SPECI
KJFK 081132Z 15005KT 2SM BR OVC004 24/23 A3006=
####018000166####
SANM40 FYWW 081130
METAR FYWB 081130Z 08017KT 9999 R09/M0050VP1500D VV/// 33/03 Q1016 =
METAR FYWB 081130Z 08017KT 9999 R09/M0050VP1500D VV/// 33/03 Q1016 =

####018000120####
SAUS45 KPUB 081135
MTRLXV
SPECI KLXV 081133Z AUTO 00000KT 2 1/2SM BR BKN004 05/05 A3052 RMK 
AO2 VIS 3/4V5 TSNO
####018000086####
SPCN48 CWAO 081133
SPECI CYGV 081133Z AUTO 12003KT 2 1/2SM OVC000 14/13 A3003=

####018000089####
SADL36 EDZO 081120 RRA
METAR ETSI 081120Z 13005KT 9999 25/07 Q1022
      BLU+BLU+=
####018000380####
SAPO31 LPMG 081130
METAR LPFR 081130Z 25008KT 210V280 9999 SCT011 BKN012 24/19 Q1016=
METAR LPMA 081130Z 18006KT 130V230 9999 FEW016 23/18 Q1020 RS16007KT 
0518006KT 2324006KT=
METAR LPPR 081130Z 23008KT 4000 BR FEW003 BKN004 20/18 Q1015=
METAR LPPS 081130Z 02010KT 340V050 9999 FEW016 SCT030 22/15 Q1021=
METAR LPPT 081130Z 29007KT 250V320 CAVOK 27/19 Q1016 NOSIG=
####018000089####
SAQT99 OTBD 081130
METAR OTBD 081130Z 03007KT 360V070 6000 HZ NSC 37/29 Q0999 NOSIG=
####018000084####
SPUS51 KWBC 081135
SPECI
KAUG 081132Z AUTO 19005KT 4SM BR OVC003 21/20 A3010=
####018000499####
SAFR36 LFPW 081130
METAR LFGJ 081130Z AUTO VRB04KT 9999NDV NSC 29/11 Q1020=
METAR LFMD 081130Z AUTO 16007KT 130V190 9999NDV NSC 29/22 Q1020=
METAR LFOT 081130Z AUTO VRB05KT 9999NDV NSC 31/11 Q1018=
METAR LFRC 081130Z AUTO 36005KT 330V050 9999NDV FEW016 21/16 Q1019=
METAR LFRG 081130Z AUTO 33006KT 280V360 9999NDV NSC 25/15 Q1019=
METAR LFBA 081130Z NIL=
METAR LFBE 081130Z NIL=
METAR LFJR 081130Z NIL=
METAR LFMH 081130Z NIL=
METAR LFPN 081130Z NIL=
METAR LFRK 081130Z NIL=
####018000474####
SAFR37 LFPW 081130
METAR LFAQ 081130Z AUTO 20006KT 160V230 9999NDV NSC 29/10 Q1019=
METAR LFBU 081130Z AUTO 15007KT 100V180 9999NDV NSC 32/12 Q1018=
METAR LFLN 081130Z AUTO VRB03KT 9999NDV NSC 31/13 Q1020=
METAR LFPM 081130Z VRB02KT CAVOK 31/10 Q1019=
METAR LFSD 081130Z AUTO 15005KT 080V220 9999NDV NSC 30/10 Q1020=
METAR LFTW 081130Z AUTO 17005KT 060V230 9999NDV NSC 32/15 Q1020=
METAR LFRH 081130Z NIL=
METAR LFRQ 081130Z NIL=
METAR LFRT 081130Z NIL=
####018000169####
SACY31 LCLK 081130
METAR LCLK 081130Z 19017KT 9999 FEW025 30/22 Q1007 NOSIG=
METAR LCPH 081130Z 24007KT 200V280 9999 FEW030 29/23 Q1008=
METAR LCNC 081130Z NIL=
####018000617####
SAFR34 LFPW 081130
METAR LFCR 081130Z AUTO 18006KT 120V240 9999NDV NSC 32/06 Q1021=
METAR LFJL 081130Z AUTO VRB04KT 9999NDV NSC 30/07 Q1020=
METAR LFLP 081130Z AUTO 21007KT 170V260 9999NDV NSC 30/12 Q1022=
METAR LFMU 081130Z AUTO 14008KT 110V180 9999NDV NSC 30/13 Q1020=
METAR LFOH 081130Z AUTO 35011KT 9999NDV NSC 22/13 Q1019=
METAR LFOK 081130Z AUTO 24004KT 180V290 9999NDV NSC 30/09 Q1020=
METAR LFPB 081130Z VRB03KT CAVOK 31/10 Q1018 NOSIG=
METAR LFLS 081130Z NIL=
METAR LFLY 081130Z NIL=
METAR LFMT 081130Z NIL=
METAR LFOB 081130Z NIL=
METAR LFOP 081130Z NIL=
METAR LFSN 081130Z NIL=
####018000387####
SAFR33 LFPW 081130
METAR LFKB 081130Z 10006KT 070V140 9999 FEW021 29/20 Q1020 NOSIG=
METAR LFKJ 081130Z 22009KT 9999 FEW030 29/23 Q1019 NOSIG=
METAR LFMV 081130Z AUTO 24005KT 180V330 9999NDV NSC 33/13 Q1020=
METAR LFSL 081130Z AUTO 13006KT 090V180 9999NDV NSC 30/14 Q1020=
METAR LFKC 081130Z NIL=
METAR LFKF 081130Z NIL=
METAR LFLC 081130Z NIL=
METAR LFMP 081130Z NIL=
####018000079####
SAMP31 LMMM 081130 RRA
METAR HLLB 081125Z 32017KT 9999 FEW025 30/17 Q1016=
####018000378####
SARO31 LROM 081130
METAR LRBS 081130Z 31004KT 260V350 9999 FEW020 21/14 Q1017 NOSIG=
METAR LRCK 081130Z 36011KT 340V040 9999 FEW035 25/15 Q1015 NOSIG=
METAR LROP 081130Z 28003KT 230V320 9999 FEW045CB 21/14 Q1016
880///95 NOSIG=
METAR LRSB 081130Z 36004KT 310V040 9999 FEW019 SCT040 OVC090 17/12
Q1020=
METAR LRTR 081130Z 01009KT 330V050 9999 FEW034 24/14 Q1020=
####018000164####
SAMW40 FWKI 081100
METAR
FWUU 081100Z NIL=
FWKI 081100Z 09010KT 9999 SCT030 21/05 Q1026 NOSIG=
FWCL 081100Z 15012KT 9999 SCT030 BKN090 22/11 Q1026 NOSIG=
####018000113####
SAKO31 RKSI 081130
METAR RKSI 081130Z 33005KT 220V010 9000 -RA FEW040 OVC110 23/19
           Q1009 NOSIG=
####018000432####
SAFR32 LFPW 081130
METAR LFBD 081130Z 10010KT 060V130 CAVOK 33/12 Q1016 NOSIG=
METAR LFBH 081130Z AUTO 31008KT 9999NDV NSC 30/12 Q1017=
METAR LFBO 081130Z 11011KT CAVOK 34/13 Q1018 NOSIG=
METAR LFML 081130Z 27008KT CAVOK 32/18 Q1020 NOSIG=
METAR LFBI 081130Z NIL=
METAR LFBL 081130Z NIL=
METAR LFBP 081130Z NIL=
METAR LFBT 081130Z NIL=
METAR LFBZ 081130Z NIL=
METAR LFLB 081130Z NIL=
METAR LFLX 081130Z NIL=
####018000521####
SAFR35 LFPW 081130
METAR LFMI 081130Z AUTO 23006KT 180V280 9999NDV NSC 33/15 Q1020=
METAR LFMK 081130Z AUTO 09015KT 060V130 9999NDV NSC 33/14 Q1019=
METAR LFRD 081130Z AUTO 01005KT 320V090 9999NDV NSC 21/15 Q1019=
METAR LFRN 081130Z AUTO VRB04KT 9999NDV NSC 28/14 Q1018=
METAR LFRO 081130Z AUTO 03006KT 340V090 9999NDV NSC 21/16 Q1019=
METAR LFRZ 081130Z AUTO 19003KT 140V290 9999NDV NSC 31/09 Q1017=
METAR LFST 081130Z VRB04KT CAVOK 29/10 Q1020 NOSIG=
METAR LFSB 081130Z NIL=
METAR LFTH 081130Z NIL=
####018000381####
SAFR31 LFPW 081130
METAR LFLL 081130Z 22005KT 150V310 CAVOK 30/15 Q1020 NOSIG=
METAR LFMN 081130Z 11006KT 9999 FEW023 29/22 Q1020 NOSIG=
METAR LFPG 081130Z 10004KT 040V180 CAVOK 30/09 Q1019 NOSIG=
METAR LFPO 081130Z 22003KT 180V260 CAVOK 30/11 Q1019 NOSIG=
METAR LFQQ 081130Z 21007KT 130V280 CAVOK 29/13 Q1018 NOSIG=
METAR LFRB 081130Z NIL=
METAR LFRS 081130Z NIL=
####018000359####
SAIE31 EIDB 081130
METAR EIDW 081130Z 24014KT 9999 FEW026 SCT050 BKN130 16/10 Q1015
     NOSIG=
METAR EINN 081130Z 20007KT 9999 FEW017 SCT025 BKN060 16/12 Q1015
     NOSIG=
METAR EICK 081130Z 21009KT 9999 -RA SCT008 BKN012 BKN030 14/12 Q1016
     NOSIG=
METAR EIKN 081130Z 23013KT 190V250 9999 FEW018CB SCT024 BKN048 15/09
     Q1013 NOSIG=
####018000108####
SPUS52 KWBC 081135
SPECI
KVCT 081132Z AUTO 33003KT 1 1/2SM +RA BR BKN005 BKN014 OVC023
25/24 A2989=
####018000100####
SPCN44 CWAO 081133
SPECI CYEK 081133Z AUTO 08003KT 3/8SM BKN001 BKN018 BKN025 07/07
A2960=

####018000131####
SAUS44 KLIX 081135 COR
MTRBTR
SPECI KBTR 081130Z 06004KT 2SM BR MIFG BKN003 24/23 A3001 RMK AO2 
TWR VIS 2 1/2 BKN V SCT $
####018000108####
SPUS72 KWBC 081135
SPECI
KVCT 081132Z AUTO 33003KT 1 1/2SM +RA BR BKN005 BKN014 OVC023
25/24 A2989=
####018000081####
SPUS73 KWBC 081135
SPECI
KLAR 081132Z AUTO 00000KT 9SM FEW017 07/07 A3040=
####018000730####
SAUS20 KNKA 081135
METAR KBDN 081135Z AUTO 20004KT 10SM CLR 12/03 A3011 RMK AO2 =
METAR KCGC 081135Z AUTO 00000KT 10SM CLR 22/21 A3000 RMK=
METAR KDYB 081135Z AUTO 00000KT 10SM CLR 21/21 A2996 RMK AO1=
METAR KFTN 081135Z AUTO 06004KT 10SM BKN008 BKN012 OVC021 25/23 
     A2992 RMK AO1 =
SPECI KMAF 081133Z 01007KT 6SM BR BKN005 21/20 A3008 RMK AO2=
METAR KMNI 081135Z AUTO 34003KT 10SM BKN095 25/22 A2997 RMK AO2=
SPECI KPIL 081134Z AUTO 02009KT 10SM -RA SCT018 BKN027 BKN037 28/26 
    A2977 RMK AO2 RAB31 P0000 $=
METAR KSPA 081135Z AUTO 36006KT 10SM CLR 25/22 A3003 RMK AO2=
METAR KSPL 081135Z AUTO 01010KT 28/26 A2976 RMK AO2 PWINO PNO =
METAR KUTA 081135Z AUTO 00000KT 10SM CLR 23/22 A3007 RMK AO2=
