####018000080####
SALY31 HLLT 081200
METAR HLLT 081150Z 36007KT 310V050 8000 SKC 32/19 Q1018=
####018002919####
SAUS20 KNKA 081150
METAR KCCA 081155Z AUTO 00000KT 8SM OVC006 23/23 A3008 RMK AO2 =
METAR KCDN 081155Z AUTO 29004KT 10SM CLR 26/20 A3000 RMK A02 P000 
     =
METAR KCKI 081155Z AUTO 28005KT 10SM CLR 25/20 A2996 RMK AO2=
SPECI KDXR 081149Z 00000KT 1 1/2SM BR OVC001 23/23 A3008 RMK AO2=
SPECI KHVN 081149Z 12006KT 6SM HZ FEW004 BKN017 OVC023 25/22 A3007 
    RMK AO2=
METAR KIGQ 081140Z AUTO 00000KT 4SM VCTSBR BKN065 OVC080 24/22 
     A3003 RMK AO2 LTG DSNT E=
METAR KLRO 081155Z AUTO 00000KT 7SM CLR 24/19 A2996 RMK AO2 =
SPECI KLVJ 081149Z AUTO 12007KT 10SM -RA SCT022 BKN041 OVC055 25/23 
    A2993 RMK AO2 PK WND 13026/1101 LTG DSNT E TSB20E35RAB02 P0041=
METAR KMKS 081155Z AUTO 00000KT 7SM CLR 23/20 A2996 RMK AO2 TSNO=
METAR KMWA 081148Z 19004KT 15SM SCT070 BKN250 26/24 A3007=
METAR KPPA 081145Z AUTO 01006KT 10SM SCT003 BKN028 OVC080 17/17 
     A3019 RMK AO2=
METAR KPSN 081145Z AUTO 09004KT 7SM 24/23 A3003 RMK AO2 70020 
     T02420232 10245 20241=
METAR KRAS 081145Z AUTO 11008KT 5SM  BR FEW001 FEW014 BKN035 
     27/26 A2985 RMK AO2 P0005=
METAR KRFI 081145Z AUTO 09003KT 5SM BR CLR 24/23 A3003 RMK AO2 
     60001 70001 T02380229 10245 20236=
METAR KRPH 081145Z AUTO 00000KT 10SM CLR 22/21 A3002 RMK AO2 
     T02190209 10240 20218=
METAR KRWV 081140Z AUTO 06003KT 6SM  BR SCT006 SCT046 24/24 A3000 
     RMK AO2=
METAR KRYW 081145Z AUTO 07003KT 2 1/2SM BR OVC005 24/23 A3000 RMK 
     AO2 P0006=
METAR KSAR 081145Z AUTO 19006KT 7SM SCT065 BKN085 26/23 A3005 RMK 
     AO2=
METAR KSEP 081145Z AUTO 08003KT 7SM SCT012 SCT018 BKN035 23/21 
     A3004 RMK AO1=
METAR KSLO 081143Z AUTO 21004KT 10SM CLR 25/22 A3006 RMK AO2 
     6//// 7//// T02510222=
METAR KSLR 081142Z AUTO 09003KT 5SM BR SCT004 OVC048 25/24 A3006 
     RMK AO2 LTG DSNT N T02500236=
METAR KSNK 081146Z AUTO 02008KT 7SM SCT003 OVC010 21/20 A3010 RMK 
     AO2 70003 T02080198 10210 20208=
METAR KSOA 081140Z AUTO 36003KT 7SM 22/21 A3008 RMK AO2=
METAR KSWW 081145Z AUTO 02004KT 2 1/2SM OVC002 21/21 A3011 RMK 
     AO1 70001 T02140210 10222 20210=
METAR KT65 081145Z AUTO 35005KT 10SM BKN006 BKN012 OVC036 26/25 
     A2979 RMK AO2 60002 7//// T02550245 10270 20253=
METAR KT82 081145Z AUTO 00000KT 22/22 A3002 RMK AO1 60001 70001 
     T02220215 10242 20222=
METAR KTAZ 081145Z AUTO 00000KT 3SM BR CLR 23/23 A3003 RMK AO2=
METAR KTFP 081145Z AUTO 13006KT 10SM +VCTSRA SCT023 BKN041 OVC070 
     27/26 A2983 RMK AO2 P0001 60003 70041 T02680255 10273 20262=
METAR KTIP 081145Z AUTO 00000KT 7SM SCT090 SCT110 24/23 A3006 RMK 
     AO2 LTG DSNT NE T02400230 10255 20240=
METAR KTYQ 081145Z AUTO 00000KT 5SM BR SCT055 SCT070 OVC100 24/22 
     A3007 RMK AO2 LTG DSNT N=
METAR KUES 081145Z 23004KT 10SM OVC013 21/19 A3003=
METAR KUVA 081145Z AUTO 04004KT 7SM SCT023 24/23 A2996 RMK AO2 
     6//// 7//// T02410230 10255 20241 PNO=
####018000259####
SAUS20 KNKA 081150
METAR KVYS 081145Z AUTO 21004KT 5SM BR BKN017 OVC022 23/22 A3004 
     RMK AO2 LTG DSNT E 60002 70033 T02330216 10233 20229=
METAR KXBP 081145Z AUTO 00000KT 10SM BKN075 23/22 A3004 RMK AO2 
     LTG DSNT NE T02310222 10251 20230=
####018000081####
SRPR30 KWAL 081150
CE2D864E 189115036bB1r@II@II@IJ@IJ@IK@IK@IL@ILI 44+0NN 161E####018000088####
SALV31 EVRA 081150
METAR EVRA 081150Z 32010KT 280V340 9999 OVC021 20/15 Q1015 NOSIG=
####018000141####
SAAU31 YBBN 081130 RRA
METAR YMML 081130Z 00000KT 9999 FEW043 BKN250 07/06 Q1028
FM1230 VRB03KT 5000 HZ SKC
FM1400 36005KT 2000 MIFG=
####018000075####
SADL45 ETGT 081150
METAR
ETNG 081150Z 29005KT CAVOK 31/11 Q1019 NOSIG=
####018003679####
SAUS99 KWBC 081151
METAR
K11R 081146Z AUTO 06004KT 5SM BR BKN006 BKN090 24/23 A2996 RMK AO2
     LTG DSNT SE=
KASW 081145Z AUTO 00000KT 10SM SCT055 25/21 A3005 RMK AO2
     T02500211 10257 20210=
KBYY 081146Z AUTO 08007KT 7SM -RA BKN016 BKN029 BKN035 26/26 A2989
     RMK AO2 70003 T02620255 10272 20255=
KCPT 081145Z AUTO 08004KT 9SM SCT008 OVC017 24/24 A3004 RMK
     AO2=
KCWC 081145Z AUTO 09003KT 10SM CLR 23/22 A3004 RMK AO2 T02310218
     10251 20230=
KDUX 081147Z AUTO 35011KT 7SM OVC004 17/17 A3022 RMK AO2
     T01720165=
KE38 081145Z AUTO 00000KT 10SM CLR 16/15 A3021 RMK AO2 T01580154
     10212 20158=
KEBG 081146Z AUTO 01008KT 10SM -DZ BKN007 OVC010 26/25 A2980 RMK
     AO2 LTG DSNT NE P0001 60001 70001 T02630249 10269 20261=
KERV 081145Z AUTO 00000KT 10SM SCT010 23/22 A3000 RMK AO2
     T02330215 10247 20229=
KF05 081144Z AUTO 05004KT 10SM SCT039 SCT046 24/22 A3005 RMK AO2
     7//// T02380223 10240 20237=
KFOA 081145Z AUTO 00000KT 5SM BR CLR 26/25 A3005 RMK AO2 T02560253
     10268 20245=
KFWC 081145Z AUTO 00000KT 7SM CLR 24/22 A3005 RMK AO2=
KFWS 081145Z AUTO 00000KT 7SM SCT007 OVC015 25/24 A3004 RMK AO2
     T02480235 10255 20248=
KGBG 081145Z AUTO 30005KT 5SM BR OVC004 23/22 A3005 RMK AO2=
KGDJ 081144Z AUTO 08005KT 10SM OVC008 26/24 A3003 RMK AO2 70013
     T02550238 10262 20245=
KGNC 081145Z AUTO 36007KT 7SM RA SCT010 SCT028 OVC085 20/19 A3015
     RMK AO2 P0018 60081 70093 T01950187 10208 20192=
KGOP 081140Z AUTO 00000KT 10SM BKN007 BKN011 24/24 A3003 RMK
     AO2=
KGVT 081145Z AUTO 00000KT 10SM SCT008 BKN039 OVC044 25/23 A3004
     RMK AO2=
KGWB 081145Z AUTO 00000KT 5SM HZ CLR 23/18 A3006 RMK AO2=
KGYB 081145Z AUTO 07006KT 7SM BKN008 OVC029 25/24 A2999 RMK AO2
     70002 T02480240 10251 20242=
KGYI 081144Z AUTO 13004KT 10SM -RA BKN024 25/24 A3004 RMK AO2 LTG
     DSNT N T02500237 10265 20250=
KHBV 081140Z AUTO 34004KT 10SM SCT004 BKN012 SCT100 25/24 A2987
     RMK AO2 LTG DSNT E T02460235=
KHHF 081145Z AUTO 01005KT 10SM -RA SCT044 OVC060 21/20 A3014 RMK
     AO2 P0006 60006 70045 T02110200 10240 20210=
KHRX 081145Z AUTO 01009KT 10SM OVC016 17/16 A3022 RMK AO2
     T01700162 10181 20168=
KHSB 081145Z AUTO 00000KT 4SM BR CLR 23/22 A3006 RMK AO2=
KIJX 081145Z AUTO 00000KT 2 1/2SM BR CLR 24/23 A3004 RMK AO2 60019
     70034 T02350228 10237 20233=
KIKK 081145Z AUTO 00000KT 2SM VCTSRA SCT019 BKN035 OVC085 26/23
     A3003 RMK AO2 VIS 1 1/4V4 P0002 LTG DSNT SE=
KINJ 081145Z AUTO 07003KT 7SM CLR 24/23 A3001 RMK AO2 T02430226
     10251 20243=
KJAS 081146Z AUTO 06004KT 7SM CLR 25/24 A3003 RMK AO2 70024
     T02450236 10256 20245=
KJDD 081145Z AUTO 00000KT 2 1/2SM BR OVC001 24/24 A3004 RMK
     AO2=
KJSO 081150Z AUTO 09003KT 5SM BR CLR 24/24 A3005 RMK AO2
     T02350235=
KJWY 081145Z AUTO 00000KT 7SM 25/23 A3003 RMK AO2 T02450228 10253
     20240=
KJXI 081145Z AUTO 00000KT OVC002 24/24 A3005 RMK AO2=
KLBR 081145Z AUTO 00000KT 4SM BKN004 OVC038 24/23 A3005 RMK AO2
     70019 T02400230 10241 20238=
KLHB 081144Z AUTO 07005KT 7SM SCT009 BKN031 BKN049 25/23 A2998 RMK
     AO2 70001 T02500232 10253 20248=
KLNC 081145Z AUTO 00000KT 7SM SCT031 SCT048 OVC110 24/24 A3002 RMK
     AO2 T02420241 10247 20240=
KLUD 081145Z AUTO 00000KT 10SM SCT023 24/23 A3004 RMK AO2
     T02410225 10260 20240=
KM30 081146Z AUTO 00000KT 7SM CLR 23/22 A3006 RMK AO2=
KMDD 081140Z AUTO 03004KT 7SM SCT002 BKN009 OVC090 21/20 A3010 RMK
     AO2 T02130204=
KMKN 081140Z AUTO 00000KT 10SM 23/23 A3004 RMK AO2=
KMNZ 081149Z AUTO 10004KT 10SM SCT005 SCT010 OVC016 25/24 A3003
     RMK AO2 T02450242=
####018000674####
SPUS99 KWBC 081151
SPECI
KLIC 081148Z AUTO 13004KT 7SM SCT005 BKN041 13/13 A3035 RMK
     AO2=
KMIE 081148Z 19004KT 9SM FEW060 26/19 A3007 RMK AO2=
KNSE 081137Z 00000KT 1 1/2SM BR FEW001 SCT250 23/22 A3003 RMK AO2
     VIS NE-E 3/4 $=
KVAY 081148Z AUTO 00000KT 1 1/4SM BR BKN002 OVC006 24/23 A3004 RMK
     AO2=
KWST 081148Z AUTO VRB04KT 10SM FEW008 24/21 A3009 RMK AO2=
KDXR 081149Z 00000KT 1 1/2SM BR OVC001 23/23 A3008 RMK AO2=
KHVN 081149Z 12006KT 6SM HZ FEW004 BKN017 OVC023 25/22 A3007 RMK
     AO2=
KLVJ 081149Z AUTO 12007KT 10SM -RA SCT022 BKN041 OVC055 25/23
     A2993 RMK AO2 PK WND 13026/1101 LTG DSNT E TSB20E35RAB02
     P0041=
####018003630####
SAUS99 KWBC 081151 RRA
METAR
KMQB 081145Z AUTO 00000KT 7SM SCT004 23/23 A3006 RMK AO2
     T02280225=
KOSA 081144Z AUTO 00000KT 3SM 24/24 A3005 RMK AO1 SKY OBSCURED
     T02420238 10248 20241=
KPEZ 081145Z AUTO 02005KT 10SM BKN015 25/23 A2992 RMK AO2
     T02510233 10255 20250=
KPKV 081146Z AUTO 00000KT 7SM SCT018 SCT025 BKN035 25/23 A2987 RMK
     AO2 P0001 60027 70033 T02460230 10255 20240=
KPNT 081145Z AUTO 00000KT 2 1/2SM BR SCT004 BKN035 OVC085 23/22
     A3004 RMK AO2 LTG DSNT E=
KPRG 081145Z AUTO 00000KT 3SM BR CLR 22/22 A3006 RMK AO2 LTG DSNT
     N T02300221=
KPYX 081150Z AUTO 36008KT 7SM SCT010 BKN095 OVC120 18/18 A3018 RMK
     AO2 P0001 T01840175=
KRBO 081145Z AUTO 02007KT 10SM SCT120 26/25 A2983 RMK AO2 60036
     70037 T02600250 10273 20258=
KRPJ 081145Z AUTO 22003KT 3SM BR BKN014 OVC019 21/20 A3005 RMK AO2
     LTG DSNT E AND SE 60002 70042 T02100200 10210 20206=
KRSV 081142Z AUTO 00000KT 5SM BR CLR 25/24 A3006 RMK AO2
     T02500236=
KCCA 081155Z AUTO 00000KT 8SM OVC006 23/23 A3008 RMK AO2=
KCDN 081155Z AUTO 29004KT 10SM CLR 26/20 A3000 RMK A02 P000=
KCKI 081155Z AUTO 28005KT 10SM CLR 25/20 A2996 RMK AO2=
KIGQ 081140Z AUTO 00000KT 4SM VCTSBR BKN065 OVC080 24/22 A3003 RMK
     AO2 LTG DSNT E=
KLRO 081155Z AUTO 00000KT 7SM CLR 24/19 A2996 RMK AO2=
KMKS 081155Z AUTO 00000KT 7SM CLR 23/20 A2996 RMK AO2 TSNO=
KMWA 081148Z 19004KT 15SM SCT070 BKN250 26/24 A3007=
KPPA 081145Z AUTO 01006KT 10SM SCT003 BKN028 OVC080 17/17 A3019
     RMK AO2=
KPSN 081145Z AUTO 09004KT 7SM 24/23 A3003 RMK AO2 70020 T02420232
     10245 20241=
KRAS 081145Z AUTO 11008KT 5SM BR FEW001 FEW014 BKN035 27/26 A2985
     RMK AO2 P0005=
KRFI 081145Z AUTO 09003KT 5SM BR CLR 24/23 A3003 RMK AO2 60001
     70001 T02380229 10245 20236=
KRPH 081145Z AUTO 00000KT 10SM CLR 22/21 A3002 RMK AO2 T02190209
     10240 20218=
KRWV 081140Z AUTO 06003KT 6SM BR SCT006 SCT046 24/24 A3000 RMK
     AO2=
KRYW 081145Z AUTO 07003KT 2 1/2SM BR OVC005 24/23 A3000 RMK AO2
     P0006=
KSAR 081145Z AUTO 19006KT 7SM SCT065 BKN085 26/23 A3005 RMK
     AO2=
KSEP 081145Z AUTO 08003KT 7SM SCT012 SCT018 BKN035 23/21 A3004 RMK
     AO1=
KSLO 081143Z AUTO 21004KT 10SM CLR 25/22 A3006 RMK AO2 6//// 7////
     T02510222=
KSLR 081142Z AUTO 09003KT 5SM BR SCT004 OVC048 25/24 A3006 RMK AO2
     LTG DSNT N T02500236=
KSNK 081146Z AUTO 02008KT 7SM SCT003 OVC010 21/20 A3010 RMK AO2
     70003 T02080198 10210 20208=
KSOA 081140Z AUTO 36003KT 7SM 22/21 A3008 RMK AO2=
KSWW 081145Z AUTO 02004KT 2 1/2SM OVC002 21/21 A3011 RMK AO1 70001
     T02140210 10222 20210=
KT65 081145Z AUTO 35005KT 10SM BKN006 BKN012 OVC036 26/25 A2979
     RMK AO2 60002 7//// T02550245 10270 20253=
KT82 081145Z AUTO 00000KT 22/22 A3002 RMK AO1 60001 70001
     T02220215 10242 20222=
KTAZ 081145Z AUTO 00000KT 3SM BR CLR 23/23 A3003 RMK AO2=
KTFP 081145Z AUTO 13006KT 10SM +VCTSRA SCT023 BKN041 OVC070 27/26
     A2983 RMK AO2 P0001 60003 70041 T02680255 10273 20262=
KTIP 081145Z AUTO 00000KT 7SM SCT090 SCT110 24/23 A3006 RMK AO2
     LTG DSNT NE T02400230 10255 20240=
KTYQ 081145Z AUTO 00000KT 5SM BR SCT055 SCT070 OVC100 24/22 A3007
     RMK AO2 LTG DSNT N=
KUES 081145Z 23004KT 10SM OVC013 21/19 A3003=
KUVA 081145Z AUTO 04004KT 7SM SCT023 24/23 A2996 RMK AO2 6////
     7//// T02410230 10255 20241 PNO=
KVYS 081145Z AUTO 21004KT 5SM BR BKN017 OVC022 23/22 A3004 RMK AO2
     LTG DSNT E 60002 70033 T02330216 10233 20229=
KXBP 081145Z AUTO 00000KT 10SM BKN075 23/22 A3004 RMK AO2 LTG DSNT
     NE T02310222 10251 20230=
####018000074####
SAEO31 EETN 081150
METAR EETN 081150Z 30010KT CAVOK 24/18 Q1014 NOSIG=
####018000078####
SALT32 EYVI 081150
METAR EYKA 081150Z VRB06KT 8000 -RA OVC029 17/14 Q1016=
####018000109####
SALT31 EYVI 081150
METAR EYVI 081150Z 28013KT 260V320 4000 -SHRA BKN005 OVC014CB 15/14
     Q1015 NOSIG=
####018000079####
SPUS31 KWBC 081151
SPECI
KJFK 081147Z 15004KT 5SM BR OVC005 24/23 A3006=
####018000246####
SAUS20 KNKA 081150
METAR KAID 081148Z 00000KT 7SM SCT060 SCT070  23/20 A3007 FIRST=
METAR KGYH 081147Z 00000KT 10SM CLR 24/21 A3005=
METAR KRYY 081148Z 00000KT 10SM SKC 23/21 A3007=
METAR KSWF 081145Z VRB04KT 4SM HZ SCT100 26/22 A3007=
####018000089####
SALV31 EVRA 081150
METAR EVRA 081150Z 32010KT 280V340 9999 OVC021 20/15 Q1015 NOSIG=
####018000126####
SAMP31 LMMM 081200
METAR HLLT NIL=
METAR HLLB NIL=
METAR LMML 081145Z 05008KT 360V090 9999 FEW021 30/22 Q1018 NOSIG =
####018000099####
SAEO32 EETN 081150
METAR EETU 081150Z 32003KT 300V010 9999 VCSH FEW029CB SCT033 26/20
Q1013=
####018000086####
SAMP31 LMMM 081200 RRA
METAR HLLT 081150Z
36007KT 310V050 8000 SKC 32/19 Q1018=
####018000321####
SAIS31 LLBG 081150
METAR LLBG 081150Z 28011KT CAVOK 30/19 Q1009 NOSIG=
METAR LLOV 081150Z 01005KT CAVOK 36/08 Q1009=
METAR LLET 081150Z 02018KT CAVOK 40/11 Q1005=
METAR LLHA 081150Z 26009KT 9999 FEW025 29/18 Q1009=
METAR LLIB 081150Z 17012KT CAVOK 34/16 Q1009=
METAR LLSD 081150Z 27011KT CAVOK 29/21 Q1009=
####018000142####
SAAU31 YBBN 081130 RRA
METAR YMML 081130Z 00000KT 9999 FEW043 BKN250 07/06 Q1028
FM1230 VRB03KT 5000 HZ SKC
FM1400 36005KT 2000 MIFG=
####018000079####
SALT32 EYVI 081150
METAR EYKA 081150Z VRB06KT 8000 -RA OVC029 17/14 Q1016=
####018000075####
SAJD20 OJAM 081200
METAR OJAI 081200Z 28009KT CAVOK 33/02 Q1012 NOSIG=
####018000083####
SALT34 EYVI 081150
METAR EYSA 081150Z 33014KT 300V010 9999 OVC033 17/13 Q1017=
####018000111####
SALT31 EYVI 081150
METAR EYVI 081150Z 28013KT 260V320 4000 -SHRA BKN005 OVC014CB 15/14
     Q1015 NOSIG=
####018000075####
SAEO31 EETN 081150
METAR EETN 081150Z 30010KT CAVOK 24/18 Q1014 NOSIG=
####018000097####
SAUS42 KWBC 081100 RRG
METAR
KGLE 081144Z AUTO 00000KT 10SM -DZ BKN060 OVC075 24/22 A3005=
####018000086####
SPUS53 KWBC 081151
SPECI
KLXV 081148Z AUTO 00000KT 1/4SM FG OVC002 05/05 A3052=
####018000076####
SPUS53 KWBC 081151
SPECI
KMSN 081148Z VRB03KT 9SM OVC008 22/21 A3003=
####018000731####
SAUS43 KWBC 081100 RRK
METAR
K1H2 081145Z AUTO 00000KT 10SM SCT041 BKN050 25/24 A3005=
KAAA 081143Z AUTO 00000KT 1 1/2SM RA SCT033 BKN040 OVC049 23/22
     A3004=
KC09 081144Z AUTO 00000KT 2SM BR BKN003 BKN023 OVC041 22/21
     A3003=
KC75 081143Z AUTO 00000KT A3003=
KDKB 081141Z AUTO 25005KT 2SM BR OVC002 22/21 A3005=
KDNV 081145Z AUTO 00000KT 5SM BR CLR 23/22 A3002=
KENL 081144Z AUTO 19005KT 10SM BKN046 BKN050 OVC065 26/17
     A3005=
KFEP 081145Z AUTO 00000KT 4SM BR CLR 22/20 A3005=
KJOT 081146Z AUTO 00000KT 2SM BR 23/22 A3003=
KLOT 081142Z AUTO 00000KT 2SM BR SCT045 OVC050 23/22 A3003=
KOLY 081143Z AUTO 00000KT 5SM BR CLR 24/23 A3005=
KPPQ 081145Z AUTO 00000KT 7SM SCT070 23/22 A3005=
####018000099####
SAUS44 KWBC 081100 RRG
METAR
KBPG 081145Z AUTO 01007KT 7SM BKN004 BKN010 BKN013 22/21 A3012=
####018000103####
SATU20 LTAA 081050 CCA
METAR LTAT 081050Z 05007KT 9999 FEW040 37/06 Q1008 NOSIG RMK RWY03 09006KT=
####018000124####
SAMP31 LMMM 081200
METAR HLLT NIL=
METAR HLLB NIL=
METAR LMML 081145Z 05008KT 360V090 9999 FEW021 30/22 Q1018 NOSIG =
####018000072####
SALY31 HLLS 081200
METAR HLLS 081150Z 
O4OO6KT CAVOK  36/11 Q1O16=
####018000082####
SALY31 HLLT 081200
METAR HLLT 081150Z 
36007KT 310V050 8000 SKC 32/19 Q1018=
####018000076####
SPUS73 KWBC 081151
SPECI
KMSN 081148Z VRB03KT 9SM OVC008 22/21 A3003=
####018000125####
SAUS54 KWBC 081100 RRG
METAR
KIGM 081148Z AUTO 20004KT 10SM CLR 20/M03 A2996=
KJDN 081148Z AUTO 29003KT 09/07 A3019=
####018000086####
SPUS81 KWBC 081151
SPECI
KLXV 081148Z AUTO 00000KT 1/4SM FG OVC002 05/05 A3052=
####018000076####
SPUS81 KWBC 081151
SPECI
KMSN 081148Z VRB03KT 9SM OVC008 22/21 A3003=
####018000092####
SAMZ40 FQMA 081200
METAR FQMA 081200Z 13006KT 090V180 9999 FEW020 25/16 Q1028 NOSIG=

####018000156####
SAUS73 KWBC 081100 RRI
METAR
KALN 081143Z AUTO 00000KT 7SM SCT033 BKN041 BKN048 25/25 A3004=
KGYY 081145Z VRB04KT 3SM BR SCT075 OVC090 24/23 A3002=
####018000072####
SAAK17 KAWN 081200
PATC SA 1155 AWOS CLR BLO 120 10 45/43/0110/014=
####018000219####
SPNA35 KAWN 081151 RRE
SPECI KJFK 081147Z 15004KT 5SM BR OVC005 24/23 A3006 RMK AO2 $=
SPECI KNGP 081143Z 08003KT 10SM -RA FEW011 SCT017TCU BKN034 28/26 A2982
      RMK AO2 TCU N TCU DSNT NE AND W WR// P0002 $=
####018000184####
SPUS90 KWBC 081152
SPECI KMSN 081148Z VRB03KT 9SM OVC008 22/21 A3003 RMK AO2 CIG
     005V011=
SPECI KLXV 081148Z AUTO 00000KT 1/4SM FG OVC002 05/05 A3052 RMK
     AO2 TSNO=
####018001014####
SAUS20 KNKA 081151
METAR KAEG 081150Z 00000KT 10SM SCT120 15/08 A3029=
METAR KAQO 081145Z AUTO 00000KT BKN012 BKN040 24/23 A3002 RMK AO2=
SPECI KARA 081150Z 06007KT 4SM BR BKN003 25/24 A3001 RMK AO2=
METAR KBNL 081155Z AUTO 33005KT 10SM CLR 25/19 A3000 RMK AO2 =
METAR KCQW 081155Z AUTO 00000KT 5SM  HZ CLR 24/18 A2998 RMK AO2 =
METAR KCVB 081145Z AUTO 05004KT 5SM BR SCT016 SCT026 BKN044 25/24 
     A2995 RMK AO2 60002 70002 T02470242 10260 20247=
METAR KCWA 081150Z 33005KT 10SM OVC005 19/19 A3004=
SPECI KEKQ 081149Z AUTO 00000KT 1 1/4SM BR CLR 21/20 A3012 RMK AO2 =
SPECI KLAR 081150Z AUTO 08003KT 7SM SCT006 06/06 A3041 RMK AO2=
METAR KLKR 081155Z AUTO 00000KT 8SM CLR 21/21 A3002 RMK AO2 =
SPECI KPHL 081150Z 14007KT 4SM HZ FEW008 SCT150 26/23 A3003 RMK AO2 
    $=
SPECI KPSX 081150Z AUTO 08011G21KT 2 1/2SM +RA BR FEW002 BKN010 
    BKN050 26/24 A2988 RMK AO2 PK WND 10027/1136 RAB35 P0023=
SPECI KSUS 081150Z 00000KT 9SM FEW001 BKN024 OVC038 24/23 A3003 RMK 
    AO2=
####018000225####
SAUS90 KWBC 081200
METAR KIGM 081148Z AUTO 20004KT 10SM CLR 20/M03 A2996 RMK AO2
     SLP071 T02001028 10250 20189 53004 TSNO=
METAR MYEG 081159Z AUTO 17003KT 10SM SCT021 SCT031 29/24 A2995 RMK
     AO2 LTG DSNT W=
####018000096####
SAUS98 KWBC 081152
METAR KEHA 081148Z AUTO 02007KT 17/17 RMK AO1 PK WND 08 084
T01720167=
####018000169####
SAES20 MSLP 081200
METAR MSLP 081150Z 00000KT 9999 FEW023 SCT120 BKN300 24/23 Q1010 A2984=

METAR MSSS 081150Z 34002KT 9999 FEW020 BKN120 21/20 Q1015 A2997 SCT300=
####018000681####
SAUS99 KWBC 081152
METAR
KAID 081148Z 00000KT 7SM SCT060 SCT070 23/20 A3007 FIRST=
KGYH 081147Z 00000KT 10SM CLR 24/21 A3005=
KRYY 081148Z 00000KT 10SM SKC 23/21 A3007=
KSWF 081145Z VRB04KT 4SM HZ SCT100 26/22 A3007=
KAEG 081150Z 00000KT 10SM SCT120 15/08 A3029=
KAQO 081145Z AUTO 00000KT BKN012 BKN040 24/23 A3002 RMK AO2=
KBNL 081155Z AUTO 33005KT 10SM CLR 25/19 A3000 RMK AO2=
KCQW 081155Z AUTO 00000KT 5SM HZ CLR 24/18 A2998 RMK AO2=
KCVB 081145Z AUTO 05004KT 5SM BR SCT016 SCT026 BKN044 25/24 A2995
     RMK AO2 60002 70002 T02470242 10260 20247=
KCWA 081150Z 33005KT 10SM OVC005 19/19 A3004=
KLKR 081155Z AUTO 00000KT 8SM CLR 21/21 A3002 RMK AO2=
####018000134####
SAMX51 MMMX 081151
METAR MMPA 081150Z 27004KT 5SM SCT080 BKN280 26/25 A2986
      RMK SLP094 50000 912 8/038 HZY DSNT CB, TCU E=
####018000981####
SPUS70 KWBC 081152
SPECI
KMIE 081148Z 19004KT 9SM FEW060 26/19 A3007 RMK AO2=
KNSE 081137Z 00000KT 1 1/2SM BR FEW001 SCT250 23/22 A3003 RMK AO2
     VIS NE-E 3/4 $=
KVAY 081148Z AUTO 00000KT 1 1/4SM BR BKN002 OVC006 24/23 A3004 RMK
     AO2=
KWST 081148Z AUTO VRB04KT 10SM FEW008 24/21 A3009 RMK AO2=
KDXR 081149Z 00000KT 1 1/2SM BR OVC001 23/23 A3008 RMK AO2=
KHVN 081149Z 12006KT 6SM HZ FEW004 BKN017 OVC023 25/22 A3007 RMK
     AO2=
KLVJ 081149Z AUTO 12007KT 10SM -RA SCT022 BKN041 OVC055 25/23
     A2993 RMK AO2 PK WND 13026/1101 LTG DSNT E TSB20E35RAB02
     P0041=
KARA 081150Z 06007KT 4SM BR BKN003 25/24 A3001 RMK AO2=
KEKQ 081149Z AUTO 00000KT 1 1/4SM BR CLR 21/20 A3012 RMK AO2=
KLAR 081150Z AUTO 08003KT 7SM SCT006 06/06 A3041 RMK AO2=
KPHL 081150Z 14007KT 4SM HZ FEW008 SCT150 26/23 A3003 RMK AO2
     $=
KPSX 081150Z AUTO 08011G21KT 2 1/2SM +RA BR FEW002 BKN010 BKN050
     26/24 A2988 RMK AO2 PK WND 10027/1136 RAB35 P0023=
####018000465####
SAUS80 KWBC 081200
METAR
KIGM 081148Z AUTO 20004KT 10SM CLR 20/M03 A2996 RMK AO2 SLP071
     T02001028 10250 20189 53004 TSNO=
KPSN 081145Z AUTO 09004KT 7SM 24/23 A3003 RMK AO2 70020 T02420232
     10245 20241=
KRFI 081145Z AUTO 09003KT 5SM BR CLR 24/23 A3003 RMK AO2 60001
     70001 T02380229 10245 20236=
KSEP 081145Z AUTO 08003KT 7SM SCT012 SCT018 BKN035 23/21 A3004 RMK
     AO1=
KAID 081148Z 00000KT 7SM SCT060 SCT070 23/20 A3007 FIRST=
####018000074####
SAQB31 LQMO 081200
METAR LQMO 081200Z 02011KT 9999 FEW045 28/10 Q1018=
####018002570####
SAUS70 KWBC 081200 RRA
METAR
KCCA 081155Z AUTO 00000KT 8SM OVC006 23/23 A3008 RMK AO2=
KCDN 081155Z AUTO 29004KT 10SM CLR 26/20 A3000 RMK A02 P000=
KCKI 081155Z AUTO 28005KT 10SM CLR 25/20 A2996 RMK AO2=
KLRO 081155Z AUTO 00000KT 7SM CLR 24/19 A2996 RMK AO2=
KMKS 081155Z AUTO 00000KT 7SM CLR 23/20 A2996 RMK AO2 TSNO=
KMWA 081148Z 19004KT 15SM SCT070 BKN250 26/24 A3007=
KPPA 081145Z AUTO 01006KT 10SM SCT003 BKN028 OVC080 17/17 A3019
     RMK AO2=
KRAS 081145Z AUTO 11008KT 5SM BR FEW001 FEW014 BKN035 27/26 A2985
     RMK AO2 P0005=
KRPH 081145Z AUTO 00000KT 10SM CLR 22/21 A3002 RMK AO2 T02190209
     10240 20218=
KRYW 081145Z AUTO 07003KT 2 1/2SM BR OVC005 24/23 A3000 RMK AO2
     P0006=
KSAR 081145Z AUTO 19006KT 7SM SCT065 BKN085 26/23 A3005 RMK
     AO2=
KSNK 081146Z AUTO 02008KT 7SM SCT003 OVC010 21/20 A3010 RMK AO2
     70003 T02080198 10210 20208=
KSWW 081145Z AUTO 02004KT 2 1/2SM OVC002 21/21 A3011 RMK AO1 70001
     T02140210 10222 20210=
KT65 081145Z AUTO 35005KT 10SM BKN006 BKN012 OVC036 26/25 A2979
     RMK AO2 60002 7//// T02550245 10270 20253=
KT82 081145Z AUTO 00000KT 22/22 A3002 RMK AO1 60001 70001
     T02220215 10242 20222=
KTAZ 081145Z AUTO 00000KT 3SM BR CLR 23/23 A3003 RMK AO2=
KTFP 081145Z AUTO 13006KT 10SM +VCTSRA SCT023 BKN041 OVC070 27/26
     A2983 RMK AO2 P0001 60003 70041 T02680255 10273 20262=
KTIP 081145Z AUTO 00000KT 7SM SCT090 SCT110 24/23 A3006 RMK AO2
     LTG DSNT NE T02400230 10255 20240=
KTYQ 081145Z AUTO 00000KT 5SM BR SCT055 SCT070 OVC100 24/22 A3007
     RMK AO2 LTG DSNT N=
KUES 081145Z 23004KT 10SM OVC013 21/19 A3003=
KUVA 081145Z AUTO 04004KT 7SM SCT023 24/23 A2996 RMK AO2 6////
     7//// T02410230 10255 20241 PNO=
KVYS 081145Z AUTO 21004KT 5SM BR BKN017 OVC022 23/22 A3004 RMK AO2
     LTG DSNT E 60002 70033 T02330216 10233 20229=
KXBP 081145Z AUTO 00000KT 10SM BKN075 23/22 A3004 RMK AO2 LTG DSNT
     NE T02310222 10251 20230=
KGYH 081147Z 00000KT 10SM CLR 24/21 A3005=
KRYY 081148Z 00000KT 10SM SKC 23/21 A3007=
KSWF 081145Z VRB04KT 4SM HZ SCT100 26/22 A3007=
KAEG 081150Z 00000KT 10SM SCT120 15/08 A3029=
KAQO 081145Z AUTO 00000KT BKN012 BKN040 24/23 A3002 RMK AO2=
KBNL 081155Z AUTO 33005KT 10SM CLR 25/19 A3000 RMK AO2=
KCQW 081155Z AUTO 00000KT 5SM HZ CLR 24/18 A2998 RMK AO2=
KCVB 081145Z AUTO 05004KT 5SM BR SCT016 SCT026 BKN044 25/24 A2995
     RMK AO2 60002 70002 T02470242 10260 20247=
KCWA 081150Z 33005KT 10SM OVC005 19/19 A3004=
KLKR 081155Z AUTO 00000KT 8SM CLR 21/21 A3002 RMK AO2=
####018003746####
SAUS70 KWBC 081200
METAR
K11R 081146Z AUTO 06004KT 5SM BR BKN006 BKN090 24/23 A2996 RMK AO2
     LTG DSNT SE=
KASW 081145Z AUTO 00000KT 10SM SCT055 25/21 A3005 RMK AO2
     T02500211 10257 20210=
KBYY 081146Z AUTO 08007KT 7SM -RA BKN016 BKN029 BKN035 26/26 A2989
     RMK AO2 70003 T02620255 10272 20255=
KCPT 081145Z AUTO 08004KT 9SM SCT008 OVC017 24/24 A3004 RMK
     AO2=
KCWC 081145Z AUTO 09003KT 10SM CLR 23/22 A3004 RMK AO2 T02310218
     10251 20230=
KDUX 081147Z AUTO 35011KT 7SM OVC004 17/17 A3022 RMK AO2
     T01720165=
KE38 081145Z AUTO 00000KT 10SM CLR 16/15 A3021 RMK AO2 T01580154
     10212 20158=
KEBG 081146Z AUTO 01008KT 10SM -DZ BKN007 OVC010 26/25 A2980 RMK
     AO2 LTG DSNT NE P0001 60001 70001 T02630249 10269 20261=
KERV 081145Z AUTO 00000KT 10SM SCT010 23/22 A3000 RMK AO2
     T02330215 10247 20229=
KFOA 081145Z AUTO 00000KT 5SM BR CLR 26/25 A3005 RMK AO2 T02560253
     10268 20245=
KFWC 081145Z AUTO 00000KT 7SM CLR 24/22 A3005 RMK AO2=
KFWS 081145Z AUTO 00000KT 7SM SCT007 OVC015 25/24 A3004 RMK AO2
     T02480235 10255 20248=
KGBG 081145Z AUTO 30005KT 5SM BR OVC004 23/22 A3005 RMK AO2=
KGNC 081145Z AUTO 36007KT 7SM RA SCT010 SCT028 OVC085 20/19 A3015
     RMK AO2 P0018 60081 70093 T01950187 10208 20192=
KGVT 081145Z AUTO 00000KT 10SM SCT008 BKN039 OVC044 25/23 A3004
     RMK AO2=
KGWB 081145Z AUTO 00000KT 5SM HZ CLR 23/18 A3006 RMK AO2=
KGYB 081145Z AUTO 07006KT 7SM BKN008 OVC029 25/24 A2999 RMK AO2
     70002 T02480240 10251 20242=
KHHF 081145Z AUTO 01005KT 10SM -RA SCT044 OVC060 21/20 A3014 RMK
     AO2 P0006 60006 70045 T02110200 10240 20210=
KHRX 081145Z AUTO 01009KT 10SM OVC016 17/16 A3022 RMK AO2
     T01700162 10181 20168=
KHSB 081145Z AUTO 00000KT 4SM BR CLR 23/22 A3006 RMK AO2=
KIJX 081145Z AUTO 00000KT 2 1/2SM BR CLR 24/23 A3004 RMK AO2 60019
     70034 T02350228 10237 20233=
KIKK 081145Z AUTO 00000KT 2SM VCTSRA SCT019 BKN035 OVC085 26/23
     A3003 RMK AO2 VIS 1 1/4V4 P0002 LTG DSNT SE=
KINJ 081145Z AUTO 07003KT 7SM CLR 24/23 A3001 RMK AO2 T02430226
     10251 20243=
KJAS 081146Z AUTO 06004KT 7SM CLR 25/24 A3003 RMK AO2 70024
     T02450236 10256 20245=
KJDD 081145Z AUTO 00000KT 2 1/2SM BR OVC001 24/24 A3004 RMK
     AO2=
KJSO 081150Z AUTO 09003KT 5SM BR CLR 24/24 A3005 RMK AO2
     T02350235=
KJWY 081145Z AUTO 00000KT 7SM 25/23 A3003 RMK AO2 T02450228 10253
     20240=
KJXI 081145Z AUTO 00000KT OVC002 24/24 A3005 RMK AO2=
KLBR 081145Z AUTO 00000KT 4SM BKN004 OVC038 24/23 A3005 RMK AO2
     70019 T02400230 10241 20238=
KLNC 081145Z AUTO 00000KT 7SM SCT031 SCT048 OVC110 24/24 A3002 RMK
     AO2 T02420241 10247 20240=
KLUD 081145Z AUTO 00000KT 10SM SCT023 24/23 A3004 RMK AO2
     T02410225 10260 20240=
KM30 081146Z AUTO 00000KT 7SM CLR 23/22 A3006 RMK AO2=
KMNZ 081149Z AUTO 10004KT 10SM SCT005 SCT010 OVC016 25/24 A3003
     RMK AO2 T02450242=
KMQB 081145Z AUTO 00000KT 7SM SCT004 23/23 A3006 RMK AO2
     T02280225=
KPEZ 081145Z AUTO 02005KT 10SM BKN015 25/23 A2992 RMK AO2
     T02510233 10255 20250=
KPKV 081146Z AUTO 00000KT 7SM SCT018 SCT025 BKN035 25/23 A2987 RMK
     AO2 P0001 60027 70033 T02460230 10255 20240=
KPNT 081145Z AUTO 00000KT 2 1/2SM BR SCT004 BKN035 OVC085 23/22
     A3004 RMK AO2 LTG DSNT E=
KPRG 081145Z AUTO 00000KT 3SM BR CLR 22/22 A3006 RMK AO2 LTG DSNT
     N T02300221=
KPYX 081150Z AUTO 36008KT 7SM SCT010 BKN095 OVC120 18/18 A3018 RMK
     AO2 P0001 T01840175=
KRBO 081145Z AUTO 02007KT 10SM SCT120 26/25 A2983 RMK AO2 60036
     70037 T02600250 10273 20258=
KRPJ 081145Z AUTO 22003KT 3SM BR BKN014 OVC019 21/20 A3005 RMK AO2
     LTG DSNT E AND SE 60002 70042 T02100200 10210 20206=
####018000330####
SPUS80 KWBC 081152
SPECI
KLIC 081148Z AUTO 13004KT 7SM SCT005 BKN041 13/13 A3035 RMK
     AO2=
KMSN 081148Z VRB03KT 9SM OVC008 22/21 A3003 RMK AO2 CIG
     005V011=
KLXV 081148Z AUTO 00000KT 1/4SM FG OVC002 05/05 A3052 RMK AO2
     TSNO=
KSUS 081150Z 00000KT 9SM FEW001 BKN024 OVC038 24/23 A3003 RMK
     AO2=
####018000486####
SPUS99 KWBC 081152
SPECI
KARA 081150Z 06007KT 4SM BR BKN003 25/24 A3001 RMK AO2=
KEKQ 081149Z AUTO 00000KT 1 1/4SM BR CLR 21/20 A3012 RMK AO2=
KLAR 081150Z AUTO 08003KT 7SM SCT006 06/06 A3041 RMK AO2=
KPHL 081150Z 14007KT 4SM HZ FEW008 SCT150 26/23 A3003 RMK AO2
     $=
KPSX 081150Z AUTO 08011G21KT 2 1/2SM +RA BR FEW002 BKN010 BKN050
     26/24 A2988 RMK AO2 PK WND 10027/1136 RAB35 P0023=
KSUS 081150Z 00000KT 9SM FEW001 BKN024 OVC038 24/23 A3003 RMK
     AO2=
####018000136####
SAUS80 KWBC 081152
METAR
KMKN 081140Z AUTO 00000KT 10SM 23/23 A3004 RMK AO2=
KSOA 081140Z AUTO 36003KT 7SM 22/21 A3008 RMK AO2=
####018001237####
SAUS70 KWBC 081152
METAR
KF05 081144Z AUTO 05004KT 10SM SCT039 SCT046 24/22 A3005 RMK AO2
     7//// T02380223 10240 20237=
KGDJ 081144Z AUTO 08005KT 10SM OVC008 26/24 A3003 RMK AO2 70013
     T02550238 10262 20245=
KGOP 081140Z AUTO 00000KT 10SM BKN007 BKN011 24/24 A3003 RMK
     AO2=
KGYI 081144Z AUTO 13004KT 10SM -RA BKN024 25/24 A3004 RMK AO2 LTG
     DSNT N T02500237 10265 20250=
KHBV 081140Z AUTO 34004KT 10SM SCT004 BKN012 SCT100 25/24 A2987
     RMK AO2 LTG DSNT E T02460235=
KLHB 081144Z AUTO 07005KT 7SM SCT009 BKN031 BKN049 25/23 A2998 RMK
     AO2 70001 T02500232 10253 20248=
KMDD 081140Z AUTO 03004KT 7SM SCT002 BKN009 OVC090 21/20 A3010 RMK
     AO2 T02130204=
KOSA 081144Z AUTO 00000KT 3SM 24/24 A3005 RMK AO1 SKY OBSCURED
     T02420238 10248 20241=
KRSV 081142Z AUTO 00000KT 5SM BR CLR 25/24 A3006 RMK AO2
     T02500236=
KIGQ 081140Z AUTO 00000KT 4SM VCTSBR BKN065 OVC080 24/22 A3003 RMK
     AO2 LTG DSNT E=
KRWV 081140Z AUTO 06003KT 6SM BR SCT006 SCT046 24/24 A3000 RMK
     AO2=
KSLO 081143Z AUTO 21004KT 10SM CLR 25/22 A3006 RMK AO2 6//// 7////
     T02510222=
KSLR 081142Z AUTO 09003KT 5SM BR SCT004 OVC048 25/24 A3006 RMK AO2
     LTG DSNT N T02500236=
####018000147####
SAAU31 KWBC 081100 RRC
METAR
YMML 081130Z 00000KT 9999 FEW043 BKN250 07/06 Q1028 FM1230 VRB03KT
     5000 HZ SKC FM1400 36005KT 2000 MIFG=
####018000165####
SAAW31 KWBC 081130 RRA
METAR
LLBG 081150Z 28011KT CAVOK 30/19 Q1009 NOSIG=
LLET 081150Z 02018KT CAVOK 40/11 Q1005=
LLOV 081150Z 01005KT CAVOK 36/08 Q1009=
####018000112####
SAAW41 KWBC 081050 CCA
METAR
LTAT 081050Z 05007KT 9999 FEW040 37/06 Q1008 NOSIG RMK RWY03
     09006KT=
####018000089####
SAEE31 KWBC 081130 RRC
METAR
EYSA 081150Z 33014KT 300V010 9999 OVC033 17/13 Q1017=
####018000095####
SAMM31 KWBC 081130 RRA
METAR
LMML 081145Z 05008KT 360V090 9999 FEW021 30/22 Q1018 NOSIG=
####018000093####
SPUS41 KWBC 081152
SPECI
KHVN 081149Z 12006KT 6SM HZ FEW004 BKN017 OVC023 25/22 A3007=
####018000117####
SAXX99 KWBC 081100 RRX
METAR
MMIA 081140Z 00000KT 5SM HZ BKN030 20/18 A2991 RMK SLP/// 6////
     8/700 9//=
####018000158####
SAMX52 MMGL 081200
METAR MMSP 081150Z 00000KT 7SM  FEW008 BKN015 BKN080 17/17 A3014 
      RMK SLP046 57005 901 8/770 HZY MSGTX MMMM=





TX OPMET V1
####018000091####
SAPR01 SPIM 081200
METAR
SPIM 081200Z 18003KT 6000 OVC022 16/13 Q1013 NOSIG RMK PP000=
####018000075####
SAQB31 LQMO 081200
METAR LQMO 081200Z 02011KT 9999 FEW045 28/10 Q1018=
####018000085####
SAMP31 LMMM 081200 RRA
METAR HLLT 081150Z
36007KT 310V050 8000 SKC 32/19 Q1018=
####018000086####
SAMP31 LMMM 081200 RRA
METAR HLLT 081150Z 
36007KT 310V050 8000 SKC 32/19 Q1018=
####018000083####
SACN94 CWAO 081100 RRF
WSQ SA 1100 AUTO8 M M M 099/05/04/2607/M/ 2003 42MM=

####018000178####
SACN60 CWAO 081100 RRD
PHE SA 1100 AUTO8 M M M M/09/08/MMMM/M/ M 83MM=
PRD SA 1100 AUTO8 M M M M/10/07/1910/M/ M 84MM=
PSA SA 1100 AUTO8 M M M M/09/08/MMMM/M/ M 83MM=

####018000084####
SACN89 CWAO 081100 RRD
WDT SA 1100 AUTO7 M M M 166/20/19/0000/M/M 1005 00MM=

####018000083####
SACN97 CWAO 081100 RRH
XLL SA 1100 AUTO8 M M M 154/11/11/0000/M/ 7010 55MM=

####018000083####
SACN88 CWAO 081100 RRG
WZN SA 1100 AUTO8 M M M 213/12/M/1411/M/M 2005 8MMM=

####018000440####
SACN59 CWAO 081100 RRG
NLB SA 1100 AUTO8 M M M M/13/11/2404/M/0009 M 39MM=
NLD SA 1100 AUTO8 M M M M/09/08/3103/M/0004 M 55MM=
NNR SA 1100 AUTO8 M M M M/10/07/2605/M/ M 83MM=
NTK SA 1100 AUTO8 M M M M/12/10/2003/M/ M 89MM=
PCA SA 1100 AUTO8 M M M M/12/10/2405/M/ M 83MM=
PCM SA 1100 AUTO8 M M M M/09/08/MMMM/M/0004 M 28MM=
PQU SA 1100 AUTO8 M M M M/11/09/1803/M/ M 39MM=
PTR SA 1100 AUTO8 M M M M/13/10/MMMM/M/ M 87MM=

####018000083####
SACN96 CWAO 081100 RRE
XND SA 1100 AUTO8 M M M 226/07/06/MM01/M/ 3000 53MM=

####018000088####
SPUS81 KWBC 081152
SPECI
KLIC 081148Z AUTO 13004KT 7SM SCT005 BKN041 13/13 A3035=
####018000129####
SAUS46 KSGX 081152
MTRSAN
METAR KSAN 081151Z 33006KT 10SM OVC019 17/13 A2991 RMK AO2 SLP128 
T01670133 10178 20161 55001
####018000350####
SAUS20 KNKA 081152
METAR KACT 081151Z 04005KT 6SM BR OVC012 26/24 A3000 RMK AO2 SLP150 
    T02560239 10267 20256 53005=
METAR KANE 081150Z 23003KT 12SM SKC 17/17 A3011=
METAR KGTU 081150Z 06007KT 5SM BR OVC005 24/22 A3002=
METAR KSJT 081151Z 00000KT 10SM SCT012 21/20 A3004 RMK AO2 SLP149 
    60016 70037 T02110200 10217 20211 53009=
####018000256####
SAEU KAWN 081200
METAR ETNG 081150Z 29005KT CAVOK 31/11 Q1019 NOSIG=
METAR LMML 081145Z 05008KT 360V090 9999 FEW021 30/22 Q1018 NOSIG=
METAR LPLA 081200Z 12007KT 9999 SCT013 BKN028 20/19 Q1024=
METAR LQMO 081200Z 02011KT 9999 FEW045 28/10 Q1018=
####018000465####
SAZZ40 KAWN 081200
METAR KBLV 081155Z AUTO 17004KT 10SM FEW042 BKN055 25/25 A3004 RMK
      AO2 SLP170 70058 T02490247 10249 20239 51006=
METAR LLBG 081150Z 28011KT CAVOK 30/19 Q1009 NOSIG=
METAR LLET 081150Z 02018KT CAVOK 40/11 Q1005=
METAR LLOV 081150Z 01005KT CAVOK 36/08 Q1009=
METAR LPLA 081200Z 12007KT 9999 SCT013 BKN028 20/19 Q1024=
METAR OAUZ 081150Z 28007KT 9999 SKC 40/03 Q1006 BLU/=
METAR OJAI 081200Z 28009KT CAVOK 33/02 Q1012 NOSIG=
####018000527####
SAXX70 KAWN 081200 RRA
METAR KQEI 081150Z AUTO 13003KT 7SM -SHRA SCT044 23/19 A2995 RMK A02=
METAR KQEN 081150Z AUTO 25008KT 7SM BKN075 20/16 A3041 RMK A02=
METAR KQEP 081150Z AUTO 16002KT 5SM -SHRA FEW035 BKN110 23/19 A2988
      RMK A02=
METAR KQER 081150Z AUTO 10001KT 3SM -SHRA OVC050 21/19 A2989 RMK A02=
METAR KQES 081150Z AUTO 31002KT 4SM BR OVC040 21/18 A2988 RMK A02=
METAR KQEY 081150Z AUTO 21001KT 7SM FEW110 25/18 A2961 RMK A02=
METAR KQEV 081200Z AUTO 27002KT 7SM -RA OVC065 25/20 A2981 RMK A02=
####018001040####
SPZZ40 KAWN 081152 RRL
SPECI CYPL 081145Z CCA 22007KT 15SM TS SCT040CB SCT100 BKN270 RMK CB3AC1CI1
      CB NW=
SPECI CYPL 081145Z 22007KT 15SM TS SCT040CB SCT100 BKN270 RMK CB3AC1CI1=
SPECI EHDL 081148Z AUTO 21010KT 9999NDV FEW270 30/12 Q1018 BLU=
SPECI KBKF 081149Z 12003KT 6SM BR FEW020 FEW120 SCT220 13/13 A3032=
SPECI KNEL 081146Z AUTO 15006KT 7SM SCT007 SCT014 BKN095 26/22 A3005
      RMK AO2 $=
SPECI KNSE 081137Z 00000KT 1 1/2SM BR FEW001 SCT250 23/22 A3003 RMK
      AO2 VIS NE-E 3/4 $=
SPECI KRND 081147Z 04005KT 9SM BKN009 BKN014 25/24 A2994 RMK AO2A DZB1118E1134
      BKN014 V OVC SLP129=
SPECI PAED 081146Z AUTO 00000KT 10SM FEW060 BKN080 12/10 A2998 RMK
      AO2 RAB1133E1143DZB1143E1146 SLP155 $=
SPECI RKJK 081148Z 10009KT 3200 R36/0900V1400 -RA BR BKN045 24/22 A2979
      RMK AO2A RAB1116DZB1103E1116 SLP088 $=
SPECI RODN 081147Z AUTO 18011KT 9999 SCT019 BKN200 29/26 A2985 RMK
      AO2 SLP106=
SPECI YSRI 081147Z AUTO 24001KT 9999NDV // SCT037 BKN048 OVC064 11/10
      Q1028=
####018000091####
SAXX70 KAWN 081100 RRX
METAR KQFU 081130Z AUTO 00000KT 7SM OVC030 23/19 A2991 RMK A02=
####018000085####
SAKW35 OKBK 081200
METAR OKBK 081200Z 35020KT 6000 -BLDU SKC 48/M07 Q0999 NOSIG=
####018000188####
SAUS44 KMAF 081152
MTRGDP
METAR KGDP 081151Z AUTO 05023KT 4SM BR BKN005 BKN055 OVC095 16/16 
A3022 RMK AO2 PK WND 04030/1128 SLP158 60001 70001 T01610161 10183 
20161 58000 TSNO
####018000144####
SAUS44 KSJT 081152
MTRJCT
METAR KJCT 081151Z AUTO 00000KT 7SM BKN011 22/21 A3002 RMK AO2 
SLP126 60000 T02220211 10239 20217 53004 TSNO
####018000128####
SAUS41 KCLE 081152
MTRCAK
METAR KCAK 081151Z 00000KT 5SM HZ CLR 24/19 A3010 RMK AO2 SLP181 
T02440194 10244 20206 50004
####018000143####
SAUS41 KAKQ 081152
MTRORF
METAR KORF 081151Z 11005KT 10SM FEW010 SCT055 BKN100 26/23 A2999 RMK 
AO2 SLP153 T02610228 10261 20250 53012
####018000150####
SAUS41 KOKX 081152
MTRNYC
METAR KNYC 081151Z AUTO VRB04KT 5SM HZ BKN016 BKN022 27/23 A3007 RMK 
AO2 SLP172 T02720233 10272 20250 53008 TSNO $
####018000143####
SAUS46 KLOX 081152
MTRSMX
METAR KSMX 081151Z AUTO 30005KT 6SM BR OVC007 12/11 A2992 RMK AO2 
SLP134 T01220111 10133 20122 53001 TSNO $
####018000297####
SASW39 LSSW 081150
METAR LSMA 081150Z 04007KT 350V070 CAVOK 27/15 Q1021 RMK BLU=
METAR LSMD 081150Z VRB02KT CAVOK 27/14 Q1022 RMK BLU=
METAR LSME 081150Z VRB03KT CAVOK 28/15 Q1022 RMK BLU=
METAR LSMM 081150Z NIL=
METAR LSMP 081150Z NIL=
METAR LSMS 081150Z 25012KT 9999 FEW100 29/14 Q1020=
####018000255####
SASW31 LSSW 081150
METAR LSZH 081150Z VRB04KT CAVOK 28/10 Q1022 NOSIG=
METAR LSGG 081150Z 20006KT 130V270 CAVOK 30/12 Q1021 NOSIG=
METAR LSZB 081150Z 31006KT 280V350 CAVOK 29/14 Q1021 NOSIG=
METAR LSZA 081150Z 19005KT 9999 SCT055 28/15 Q1022 NOSIG=
####018000068####
SABZ18 SBSJ 081200
METAR SBSJ 081200Z 00000KT CAVOK 13/11 Q1022=
####018000334####
SAUS99 KWBC 081153
METAR
KACT 081151Z 04005KT 6SM BR OVC012 26/24 A3000 RMK AO2 SLP150
     T02560239 10267 20256 53005=
KANE 081150Z 23003KT 12SM SKC 17/17 A3011=
KGTU 081150Z 06007KT 5SM BR OVC005 24/22 A3002=
KSJT 081151Z 00000KT 10SM SCT012 21/20 A3004 RMK AO2 SLP149 60016
     70037 T02110200 10217 20211 53009=
####018000089####
SPAK31 KWBC 081153
SPECI
PAED 081146Z AUTO 00000KT 10SM FEW060 BKN080 12/10 A2998=
####018000128####
SALV32 EVRA 081150
METAR EVLA 081150Z VRB06KT CAVOK 22/14 Q1018=
METAR EVVA 081150Z AUTO 33011KT 300V360 CAVOK 22/17 Q1018=
####018000077####
SAPM31 MPTO 081200
METAR
MPTO 081200Z 00000KT 9999 FEW018  25/24 Q1011=
####018000104####
SPAU31 KWBC 081153
SPECI
YSRI 081147Z AUTO 24001KT 9999NDV // SCT037 BKN048 OVC064 11/10
Q1028=
####018000106####
SPJP31 KWBC 081153
SPECI
RODN 081147Z AUTO 18011KT 9999 SCT019 BKN200 29/26 A2985 RMK AO2
SLP106=
####018000089####
SPNL31 KWBC 081153
SPECI
EHDL 081148Z AUTO 21010KT 9999NDV FEW270 30/12 Q1018 BLU=
####018000086####
SPUS31 KWBC 081153
SPECI
KPHL 081150Z 14007KT 4SM HZ FEW008 SCT150 26/23 A3003=
####018000138####
SPXX62 KWBC 081153
SPECI
RKJK 081148Z 10009KT 3200 R36/0900V1400 -RA BR BKN045 24/22 A2979
RMK AO2A RAB1116DZB1103E1116 SLP088 $=
####018000106####
SPXX62 KWBC 081153
SPECI
RODN 081147Z AUTO 18011KT 9999 SCT019 BKN200 29/26 A2985 RMK AO2
SLP106=
####018002971####
SAUS20 KNKA 081152
METAR K36U 081155Z AUTO 11003KT 7SM CLR 08/04 A3024 RMK AO2=
METAR KAHN 081151Z 00000KT 7SM CLR 24/21 A3004 RMK AO2 SLP162 
    T02390206 10239 20206 51005 $=
METAR KALB 081151Z 00000KT 6SM HZ FEW080 27/21 A3004 RMK AO2 SLP171 
    T02670206 10267 20228 51007=
METAR KASH 081151Z 14005KT 5SM HZ OVC012 25/22 A3009 RMK AO2 51012 
    T02500216 10255 20233 SLP191=
METAR KATW 081145Z 27006KT 4SM BR BKN003 OVC010 22/21 A3001=
METAR KAVX 081151Z AUTO 26005KT M1/4SM FG VV001 12/12 A2992 RMK AO2 
    SLP124 T01170117 10117 20111 55002 TSNO=
METAR KBAZ 081151Z AUTO 05007KT 8SM FEW011 BKN032 OVC039 25/24 A2993 
    RMK AO2 RAB28E50 SLP126 P0000 60001 70001 T02500244 10256 20250 
    53002=
METAR KBDL 081151Z 16006KT 2 1/2SM BR BKN008 OVC010 24/22 A3006 RMK 
    AO2 SLP179 T02440222 10261 20239 51014=
METAR KBGD 081151Z AUTO 36005KT 10SM SCT033 BKN049 OVC060 18/17 
    A3020 RMK AO2 RAB30E40 SLP192 P0000 60016 70137 T01830172 10194 
    20183 53004=
METAR KBKW 081151Z AUTO 00000KT 2 1/2SM BR CLR 21/19 A3018 RMK AO2 
    SLP179 T02060189 10211 20189 52005 VISNO RWY19=
METAR KCHK 081151Z AUTO 05003KT 4SM BR BKN016 22/22 A3006 RMK AO2=
METAR KCLE 081151Z 19005KT 8SM FEW065 SCT090 24/18 A3009 RMK AO2 
    SLP180 8/170 T02390183 10239 20211 53003 $=
METAR KCMH 081151Z 00000KT 6SM HZ FEW070 24/21 A3008 RMK AO2 SLP179 
    T02390206 10239 20217 51006=
METAR KCSG 081151Z AUTO 00000KT 10SM CLR 24/20 A3003 RMK AO2 SLP164 
    T02440200 10267 20228 53004=
METAR KDAW 081151Z AUTO 00000KT 2 1/2SM BR OVC003 23/21 A3009 RMK 
    AO2 SLP183 T02280206 10228 20211 51010 $=
SPECI KDBQ 081151Z 30005KT 4SM BR BKN003 OVC016 21/21 A3007 RMK AO2=
METAR KDUC 081152Z AUTO 04003KT 10SM CLR 22/22 A3005 RMK AO2=
METAR KEKN 081151Z AUTO 00000KT 3SM BR FEW070 19/18 A3017 RMK AO2 
    SLP203 T01940178 10194 20161 50003 TSNO=
METAR KELP 081151Z 02009KT 10SM FEW032 SCT055 SCT100 22/14 A3013 RMK 
    AO2 SLP130 CB DSNT E T02170144 10261 20217 53006=
METAR KERI 081151Z 19006KT 8SM CLR 24/19 A3006 RMK AO2 SLP175 
    T02440189 10244 20211 50003=
METAR KEWR 081151Z 21004KT 4SM BR BKN007 OVC110 26/25 A3004 RMK AO2 
    SLP173 T02610250 10261 20250 53011=
METAR KGMJ 081154Z AUTO 00000KT OVC019 26/25 A3006 RMK AO2 PWINO=
METAR KHDO 081151Z AUTO 02005KT 10SM FEW015 24/23 A2996 RMK AO2 
    SLP128 T02390228 10250 20233 55000=
METAR KHTS 081151Z AUTO 00000KT 1 1/4SM BR CLR 23/21 A3009 RMK AO2 
    SLP181 T02280211 10228 20206 53005 TSNO=
METAR KILG 081151Z 12005KT 2SM HZ CLR 26/23 A3004 RMK AO2 SFC VIS 3 
    SLP170 T02610233 10261 20244 51006 $=
METAR KJFK 081151Z 14004KT 5SM BR OVC005 25/23 A3006 RMK AO2 SLP178 
    T02500228 10256 20244 51006 $=
METAR KJSV 081150Z AUTO 00000KT 10SM SCT037 OVC046 23/23 A3004 
     RMK AO2 LTG DSNT N=
METAR KLGA 081151Z 06006KT 4SM HZ BKN015 BKN095 OVC130 27/23 A3004 
    RMK AO2 SLP171 T02670228 10267 20250 53009=
####018002481####
SAUS20 KNKA 081152
METAR KLGU 081151Z AUTO 00000KT 10SM CLR 11/06 A3016 RMK AO2 SLP168 
    T01110061 10178 20111 53007=
SPECI KLWD 081151Z AUTO 01007KT 7SM BKN007 21/20 A3010 RMK AO2 CIG 
    003V009=
SPECI KLXV 081148Z AUTO 00000KT 1/4SM FG OVC002 05/05 A3052 RMK
     AO2 TSNO=
METAR KMDW 081151Z 19003KT 6SM -RA BR SCT049 BKN065 OVC150 24/22 
    A3002 RMK AO2 SLP154 P0000 60012 70017 T02390222 10256 20233 
    56001=
METAR KMPV 081151Z AUTO 00000KT 3SM HZ CLR 23/20 A3012 RMK AO2 
    SLP192 T02330200 10233 20194 51002=
SPECI KMSN 081148Z VRB03KT 9SM OVC008 22/21 A3003 RMK AO2 CIG
     005V011=
METAR KMYL 081151Z AUTO 05003KT 10SM CLR 08/05 A3019 RMK AO2 SLP191 
    T00780050 10156 20061 53003=
METAR KOMN 081150Z 00000KT 10SM SKC 21/21 A3001 =
METAR KONM 081147Z AUTO 18/14 RMK AO2 7//// T01800141 PWINO TSNO=
METAR KORD 081151Z 19004KT 6SM BR FEW022 BKN060 OVC200 23/22 A3002 
    RMK AO2 RAE40 SLP160 P0000 60015 70035 T02330222 10239 20228 
    55000=
METAR KOXR 081151Z AUTO 29006KT 10SM OVC011 15/13 A2990 RMK AO2 
    SLP125 T01500128 10161 20150 55001 $=
METAR KPHX 081151Z 35003KT 10SM SCT170 33/01 A2977 RMK AO2 SLP058 
    T03280006 10350 20300 53007 $=
METAR KPIT 081151Z 00000KT 6SM HZ FEW055 23/19 A3010 RMK AO2 SLP187 
    T02280194 10239 20206 50005=
SPECI KPNE 081151Z VRB04KT 2 1/2SM BR OVC002 24/23 A3005 RMK AO2 CIG 
    001V006=
METAR KPWM 081151Z 19007KT 7SM OVC004 21/20 A3009 RMK AO2 SLP190 
    T02110200 10217 20206 51009 $=
METAR KRDU 081151Z 03003KT 5SM HZ BKN080 27/19 A3000 RMK AO2 SLP151 
    T02720189 10272 20228 51012=
METAR KROW 081151Z 01007KT 10SM BKN033 OVC041 20/16 A3019 RMK AO2 
    SLP163 60000 T02000161 10206 20194 51006=
METAR KSLK 081151Z AUTO 23003KT 7SM CLR 24/20 A3009 RMK AO2 SLP176 
    T02390200 10239 20167 53001=
METAR KSMO 081151Z AUTO 00000KT 9SM OVC011 16/13 A2990 RMK AO2 
    SLP124 70001 T01610128 10167 20161 55003=
METAR KSTL 081151Z 28004KT 10SM FEW010 BKN039TCU BKN050 OVC250 25/23 
    A3005 RMK AO2 RAB09E31 SLP163 TCU ALQDS VCSH E-S P0003 60010 
    70024 T02500228 10278 20250 53008=
METAR KTEB 081151Z 15003KT 4SM MIFG SCT018 27/23 A3003 RMK AO2 
    SLP169 T02720228 10272 20244 53009=
METAR KVNY 081151Z AUTO 22003KT 6SM BR OVC008 15/13 A2989 RMK AO2 
    SLP116 T01500128 10156 20150 56004=
METAR KYNG 081151Z 00000KT 5SM HZ BR FEW060 22/19 A3010 RMK AO2 
    SLP182 8/100 T02220194 10222 20183 51005=
####018000090####
SPUS43 KWBC 081153
SPECI
KSUS 081150Z 00000KT 9SM FEW001 BKN024 OVC038 24/23 A3003=
####018000141####
SAUS45 KPIH 081152
MTRSNT
METAR KSNT 081151Z AUTO 00000KT 01/M01 A3034 RMK AO2 SLP199 
T00111006 10094 20006 53007 PWINO FZRANO TSNO
####018000139####
SAUS43 KMQT 081153
MTRP59
METAR KP59 081151Z AUTO 36004KT 18/16 A2997 RMK AO2 SLP145 70009 
T01830161 10194 20161 50001 PWINO TSNO
####018000160####
SAUS44 KEWX 081152
MTRATT
METAR KATT 081151Z AUTO VRB03KT 8SM BKN009 OVC018 25/23 A2997 RMK 
AO2 CIG 006V013 SLP135 60000 T02500233 10267 20250 53003 $
####018000136####
SAUS45 KTWC 081152
MTRSAD
METAR KSAD 081151Z AUTO 15011KT 10SM CLR 24/12 A3002 RMK AO2 SLP114 
T02390117 10278 20239 53011 TSNO
####018000111####
SPUS52 KWBC 081153
SPECI
KPSX 081150Z AUTO 08011G21KT 2 1/2SM +RA BR FEW002 BKN010 BKN050
26/24 A2988=
####018000098####
SAEU31 BKPR 081200
METAR BKPR 081200Z 36010KT 9999 SCT030 BKN070 17/10 Q1021 NOSIG RMK
BLU=
####018000259####
SASW31 LSSW 081150
METAR LSZH 081150Z VRB04KT CAVOK 28/10 Q1022 NOSIG=
METAR LSGG 081150Z 20006KT 130V270 CAVOK 30/12 Q1021 NOSIG=
METAR LSZB 081150Z 31006KT 280V350 CAVOK 29/14 Q1021 NOSIG=
METAR LSZA 081150Z 19005KT 9999 SCT055 28/15 Q1022 NOSIG=
####018000130####
SALV32 EVRA 081150
METAR EVLA 081150Z VRB06KT CAVOK 22/14 Q1018=
METAR EVVA 081150Z AUTO 33011KT 300V360 CAVOK 22/17 Q1018=
####018000303####
SASW39 LSSW 081150
METAR LSMA 081150Z 04007KT 350V070 CAVOK 27/15 Q1021 RMK BLU=
METAR LSMD 081150Z VRB02KT CAVOK 27/14 Q1022 RMK BLU=
METAR LSME 081150Z VRB03KT CAVOK 28/15 Q1022 RMK BLU=
METAR LSMM 081150Z NIL=
METAR LSMP 081150Z NIL=
METAR LSMS 081150Z 25012KT 9999 FEW100 29/14 Q1020=
####018000171####
SAUS44 KCRP 081153
MTRVCT
METAR KVCT 081151Z AUTO 02004KT 5SM RA BR FEW009 BKN032 OVC060 24/24 
A2990 RMK AO2 SLP122 P0097 60122 70122 T02440244 10261 20244 51005
####018000133####
SAUS43 KDTX 081153
MTRP58
METAR KP58 081151Z AUTO 23003KT 26/22 A2999 RMK AO2 SLP145 T02610217 
10261 20228 54000 PWINO TSNO
####018000093####
SPUS73 KWBC 081153
SPECI
KBKF 081149Z 12003KT 6SM BR FEW020 FEW120 SCT220 13/13 A3032=
####018000081####
SPUS73 KWBC 081153
SPECI
KLAR 081150Z AUTO 08003KT 7SM SCT006 06/06 A3041=
####018000090####
SPUS73 KWBC 081153
SPECI
KSUS 081150Z 00000KT 9SM FEW001 BKN024 OVC038 24/23 A3003=
####018000140####
SAUS41 KGYX 081153
MTRCON
METAR KCON 081151Z AUTO 17006KT 2 1/2SM BR OVC006 24/22 A3008 RMK 
AO2 SLP185 T02390217 10239 20222 51011
####018000090####
SPUS81 KWBC 081153
SPECI
KSUS 081150Z 00000KT 9SM FEW001 BKN024 OVC038 24/23 A3003=
####018000214####
SAUS44 KCRP 081153
MTRCRP
METAR KCRP 081151Z 05009KT 5SM TSRA BR FEW008 BKN018CB BKN036 26/25 
A2983 RMK AO2 TSB32RAB27 SLP101 OCNL LTGIC S-W TS S-W MOV W P0029 
60101 7//// T02560250 10267 20256 53003 $
####018000128####
SAUS41 KPHI 081153
MTRABE
METAR KABE 081151Z 11004KT 6SM HZ CLR 26/22 A3004 RMK AO2 SLP170 
T02610217 10261 20211 51008
####018000569####
SAUS20 KNKA 081153
METAR KSPS 081152Z 07005KT 10SM FEW030 SCT150 SCT250 23/22 A3003 RMK 
    AO2 SLP158 T02280217 10244 20228 51006=
METAR KSRE 081150Z AUTO 00000KT 4SM BR CLR 24/24 A3004 RMK AO2=
METAR KSVC 081150Z AUTO 05007KT 10SM SCT100 18/14 A3022 RMK AO2=
METAR KTEX 081151Z AUTO 14007KT 10SM OVC100 12/04 A3046 RMK AO2=
METAR KTMK 081153Z AUTO 00000KT 7SM OVC004 12/12 A2997 RMK AO2=
METAR KTQH 081155Z AUTO 00000KT 10SM OVC017 23/23 A3006 RMK AO2=
METAR KWWR 081149Z AUTO 34004KT 10SM OVC009 22/21 A3017 RMK AO2 
     T02150205 10236 20213=
####018003000####
SAUS20 KNKA 081153
METAR K1F0 081149Z AUTO 00000KT 24/24 A3002 RMK AO2 PWINO=
METAR K4O4 081148Z AUTO 11004KT 23/23 A3005 RMK AO2=
METAR KADH 081150Z AUTO 00000KT 7SM OVC004 23/22 A3005 RMK AO2=
METAR KADM 081150Z AUTO 00000KT 5SM BR SCT026 BKN095 BKN120 23/23 
     A3002 RMK AO2 LTG DSNT NE=
METAR KAFK 081150Z AUTO 36005KT 4SM BR SCT012 19/19 A3014 RMK AO2 
     70003 T01940185 10213 20191=
METAR KALM 081150Z AUTO 12003KT 10SM CLR 16/13 A3015 RMK AO2=
METAR KANW 081150Z AUTO 27003KT 10SM SCT080 16/15 A3024 RMK AO2 
     T01590147 10170 20150=
METAR KATS 081150Z AUTO 35010KT 5SM RA SCT001 SCT020 OVC029 18/18 
     A3017 RMK AO2 P0009=
METAR KAUH 081150Z AUTO 35005KT 10SM CLR 16/15 A3020 RMK AO2 
     T01570146 10171 20152=
METAR KAXS 081150Z AUTO 07009KT 10SM -RA SCT015 BKN023 OVC033 
     23/21 A3009 RMK AO2 LTG DSNT NE P0054 60054 70055 T02250210 
     10239 20225=
METAR KAXX 081150Z AUTO 00000KT 10SM CLR 03/02 A3049 RMK AO2=
METAR KBVS 081150Z AUTO 04007KT 10SM CLR 19/12 A2998 RMK A01 P000=
METAR KCLK 081153Z AUTO 01005KT 10SM CLR 22/20 A3008 RMK AO2=
METAR KCUH 081150Z AUTO 00000KT 7SM BKN005 BKN065 BKN075 23/23 
     A3005 RMK AO2=
METAR KDUA 081157Z AUTO 15004KT 10SM OVC029 24/24 A3004 RMK AO2=
METAR KGCD 081150Z AUTO 12010KT 10SM CLR 14/03 A3012 RMK AO2 
     T01410027 10213 20136=
METAR KGCM 081155Z AUTO 00000KT 5SM -RA SCT002 OVC010 23/23 A3007 
     RMK AO2 LTG DSNT NE P0027=
METAR KGLS 081152Z 10014KT 10SM SCT050 BKN090 26/23 A2993 RMK AO2 PK 
    WND 12027/1058 RAE50 SLP134 P0014 60036 70051 T02560233 10283 
    20250 53009=
METAR KGPM 081150Z 11006KT 10SM BKN011 OVC018 26/23 A3003=
METAR KHUM 081150Z 05004KT 5SM BR SCT060 25/25 A3002 =
METAR KHXD 081150Z 24008KT 10SM SKC 25/21 A2998=
METAR KIDP 081150Z AUTO 01003KT 10SM SCT035 21/20 A3004 RMK AO2 
     LTG DSNT E AND SE=
METAR KIZA 081150Z AUTO 00000KT 10SM OVC007 13/11 A2991 RMK AO2=
METAR KLAM 081150Z AUTO 00000KT 10SM CLR 14/08 A3038 RMK AO2=
METAR KLRU 081151Z AUTO 01004KT 10SM CLR 20/14 A3017 RMK AO2=
METAR KOJA 081150Z AUTO 08003KT 7SM CLR 22/22 A3009 RMK AO2 LTG 
     DSNT E=
METAR KOKC 081152Z 02004KT 10SM FEW012 SCT025 BKN080 BKN200 23/22 
    A3006 RMK AO2 SLP165 70015 T02330222 10239 20228 53007=
METAR KOKM 081151Z AUTO 06003KT 10SM OVC007 24/24 A3004 RMK AO1 
     LTG DSNT NE=
METAR KONP 081150Z AUTO 20003KT 5SM BR OVC004 11/09 A2999 RMK AO1=
METAR KORS 081150Z AUTO 00000KT 10SM CLR 14/12 A2995 RMK AO2=
METAR KOUN 081152Z AUTO 02003KT 10SM OVC013 25/23 A3007 RMK AO2=
METAR KPLU 081150Z AUTO 00000KT 10SM FEW032 SCT050 SCT075 12/12 
     A2994 RMK AO2=
METAR KPTS 081150Z AUTO 00000KT 10SM SCT090 22/22 A3005 RMK AO2 
     LTG DSNT SW 70068 T02200221 10227 20220=
METAR KPVJ 081147Z AUTO 00000KT 7SM BKN001 24/23 A3004 RMK AO2=
METAR KRKR 081152Z AUTO 00000KT 10SM BKN027 BKN042 27/25 A3005 
     RMK AO2=
METAR KSNL 081152Z AUTO 02005KT 7SM OVC005 24/23 A3006 RMK AO2=
####018000136####
SAUS42 KMHX 081153
MTRHSE
METAR KHSE 081151Z AUTO 06006KT 10SM CLR 26/22 A2994 RMK AO2 SLP137 
T02610222 10261 20239 52008 TSNO
####018000523####
SADL31 EDZO 081150
METAR EDDF 081150Z VRB02KT CAVOK 29/10 Q1020 NOSIG=
METAR EDDH 081150Z 22006KT 180V240 CAVOK 29/12 Q1019 NOSIG=
METAR EDDK 081150Z 16007KT CAVOK 31/10 Q1019 NOSIG=
METAR EDDL 081150Z 21005KT 170V240 CAVOK 30/09 Q1019 NOSIG=
METAR EDDM 081150Z 09006KT CAVOK 24/09 Q1022 NOSIG=
METAR EDDN 081150Z 15006KT CAVOK 27/07 Q1022 NOSIG=
METAR EDDS 081150Z VRB03KT CAVOK 27/08 Q1021 NOSIG=
METAR EDDT 081150Z 16003KT CAVOK 27/05 Q1021 NOSIG=
METAR EDDV 081150Z 19008KT CAVOK 29/10 Q1019 NOSIG=
####018000075####
SAGI32 EGRR 081150
METAR LXGB 081150Z 08009KT CAVOK 26/17 Q1016 NOSIG=
####018000407####
SADL32 EDZO 081150
METAR EDDB 081150Z 21005KT 180V240 CAVOK 27/06 Q1021 NOSIG=
METAR EDDC 081150Z VRB02KT CAVOK 25/10 Q1022 NOSIG=
METAR EDDE 081150Z VRB02KT CAVOK 27/09 Q1021 NOSIG=
METAR EDDG 081150Z 25006KT CAVOK 30/10 Q1019 NOSIG=
METAR EDDP 081150Z VRB03KT CAVOK 27/10 Q1021 NOSIG=
METAR EDDR 081150Z VRB02KT CAVOK 28/10 Q1021 NOSIG=
METAR EDDW 081150Z 19007KT CAVOK 30/09 Q1019 NOSIG=
####018000635####
SAIN31 VABB 081140
METAR VAAH 081140Z 18011KT 5000 HZ SCT020 SCT080 31/24 Q1003 NOSIG=
METAR VABB 081140Z 16008KT 3200 HZ SCT010 SCT018 FEW025TCU BKN100
     28/25 Q1006 TEMPO 1500 SHRA=
METAR VANP 081140Z 28006KT 3000 HZ SCT015 SCT025 FEW030CB BKN090
    28/26 Q1005 TEMPO 1500 IN RA/TSRA=
METAR VOHS 081140Z 26010KT 5000 HZ SCT010 SCT015 BKN080 26/22 Q1010
    NOSIG=
METAR VOHY 081140Z 27009KT 5000 HZ SCT010 SCT015 BKN080 26/19 Q1010
    NOSIG=
METAR VOMM 081140Z 11008KT 4000 HZ SCT015 SCT100 OVC200 28/26 Q1008
     NOSIG=
METAR VOTV 081140Z 32007KT 6000 FEW015 FEW025CB BKN200 27/25 Q1008
    NOSIG=
####018000082####
SPCN47 CWAO 081152
SPECI CYMO 081152Z AUTO 31007KT 9SM OVC019 19/17 A2988=

####018000121####
SAAK41 KNKA 081153
SPECI PADQ 081151Z 28005KT 10SM FEW020 BKN030 OVC036 11/09 A2985 RMK 
    AO2 RAB12E21 P0000 $=
####018000078####
SPCN44 CWAO 081152
SPECI CYUS 081152Z AUTO ///// 9SM FEW094 12/ A2979=

####018000134####
SAUS46 KPQR 081153
MTRREO
METAR KREO 081152Z AUTO 08005KT 09/M02 A3011 RMK AO2 SLP165 
T00891022 10167 20089 53004 PWINO TSNO
####018000136####
SAUS44 KMAF 081153
MTRNFW
METAR KNFW 081152Z 13006KT 10SM SCT012 BKN022 26/22 A3006 RMK AO2 
SLP161 T02610222 10272 20261 51010
####018000072####
SALY31 HLLM 081200
METAR HLLM 081150Z 33008KT 7000 SKC 28/20 Q1019=
####018000131####
SAUS41 KLWX 081153
MTRNHK
METAR KNHK 081152Z 09006KT 4SM HZ FEW010 27/24 A3000 RMK AO2 SLP158 
T02720239 10278 20256 51008
####018000138####
SAUS46 KLOX 081153
MTRSDB
METAR KSDB 081152Z AUTO 30005KT 10SM CLR 19/01 A3002 RMK AO2 SLP107 
T01940006 10206 20178 55004 TSNO $
####018000155####
SAUS46 KLOX 081153
MTRNZY
METAR KNZY 081152Z 31006KT 9SM FEW009 OVC015 18/13 A2989 RMK AO2 
DZE30 SLP121 P0000 60000 T01830133 10189 20178 55001 $
####018000148####
SAUS44 KSJT 081153
MTRABI
METAR KABI 081152Z 01003KT 7SM OVC010 22/21 A3007 RMK AO2 CIG 
009V014 SLP161 7//// T02170211 10222 20211 53012 $
####018000136####
SAUS45 KSLC 081153
MTRMLF
METAR KMLF 081152Z AUTO 24005KT 10SM CLR 12/01 A3012 RMK AO2 SLP146 
T01170011 10183 20100 53008 TSNO
####018000139####
SAUS46 KSTO 081153
MTRBLU
METAR KBLU 081152Z AUTO 00000KT 10SM FEW120 19/07 A3009 RMK AO2 
SLP096 T01890067 10244 20178 56004 TSNO
####018003745####
SAUS99 KWBC 081154
METAR
KLGU 081151Z AUTO 00000KT 10SM CLR 11/06 A3016 RMK AO2 SLP168
     T01110061 10178 20111 53007=
KMDW 081151Z 19003KT 6SM -RA BR SCT049 BKN065 OVC150 24/22 A3002
     RMK AO2 SLP154 P0000 60012 70017 T02390222 10256 20233
     56001=
KMPV 081151Z AUTO 00000KT 3SM HZ CLR 23/20 A3012 RMK AO2 SLP192
     T02330200 10233 20194 51002=
KMYL 081151Z AUTO 05003KT 10SM CLR 08/05 A3019 RMK AO2 SLP191
     T00780050 10156 20061 53003=
KOMN 081150Z 00000KT 10SM SKC 21/21 A3001=
KONM 081147Z AUTO 18/14 RMK AO2 7//// T01800141 PWINO TSNO=
KORD 081151Z 19004KT 6SM BR FEW022 BKN060 OVC200 23/22 A3002 RMK
     AO2 RAE40 SLP160 P0000 60015 70035 T02330222 10239 20228
     55000=
KOXR 081151Z AUTO 29006KT 10SM OVC011 15/13 A2990 RMK AO2 SLP125
     T01500128 10161 20150 55001 $=
KPHX 081151Z 35003KT 10SM SCT170 33/01 A2977 RMK AO2 SLP058
     T03280006 10350 20300 53007 $=
KPIT 081151Z 00000KT 6SM HZ FEW055 23/19 A3010 RMK AO2 SLP187
     T02280194 10239 20206 50005=
KPWM 081151Z 19007KT 7SM OVC004 21/20 A3009 RMK AO2 SLP190
     T02110200 10217 20206 51009 $=
KRDU 081151Z 03003KT 5SM HZ BKN080 27/19 A3000 RMK AO2 SLP151
     T02720189 10272 20228 51012=
KROW 081151Z 01007KT 10SM BKN033 OVC041 20/16 A3019 RMK AO2 SLP163
     60000 T02000161 10206 20194 51006=
KSLK 081151Z AUTO 23003KT 7SM CLR 24/20 A3009 RMK AO2 SLP176
     T02390200 10239 20167 53001=
KSMO 081151Z AUTO 00000KT 9SM OVC011 16/13 A2990 RMK AO2 SLP124
     70001 T01610128 10167 20161 55003=
KSTL 081151Z 28004KT 10SM FEW010 BKN039TCU BKN050 OVC250 25/23
     A3005 RMK AO2 RAB09E31 SLP163 TCU ALQDS VCSH E-S P0003 60010
     70024 T02500228 10278 20250 53008=
KTEB 081151Z 15003KT 4SM MIFG SCT018 27/23 A3003 RMK AO2 SLP169
     T02720228 10272 20244 53009=
KVNY 081151Z AUTO 22003KT 6SM BR OVC008 15/13 A2989 RMK AO2 SLP116
     T01500128 10156 20150 56004=
KYNG 081151Z 00000KT 5SM HZ BR FEW060 22/19 A3010 RMK AO2 SLP182
     8/100 T02220194 10222 20183 51005=
K36U 081155Z AUTO 11003KT 7SM CLR 08/04 A3024 RMK AO2=
KAHN 081151Z 00000KT 7SM CLR 24/21 A3004 RMK AO2 SLP162 T02390206
     10239 20206 51005 $=
KALB 081151Z 00000KT 6SM HZ FEW080 27/21 A3004 RMK AO2 SLP171
     T02670206 10267 20228 51007=
KASH 081151Z 14005KT 5SM HZ OVC012 25/22 A3009 RMK AO2 51012
     T02500216 10255 20233 SLP191=
KATW 081145Z 27006KT 4SM BR BKN003 OVC010 22/21 A3001=
KAVX 081151Z AUTO 26005KT M1/4SM FG VV001 12/12 A2992 RMK AO2
     SLP124 T01170117 10117 20111 55002 TSNO=
KBAZ 081151Z AUTO 05007KT 8SM FEW011 BKN032 OVC039 25/24 A2993 RMK
     AO2 RAB28E50 SLP126 P0000 60001 70001 T02500244 10256 20250
     53002=
KBDL 081151Z 16006KT 2 1/2SM BR BKN008 OVC010 24/22 A3006 RMK AO2
     SLP179 T02440222 10261 20239 51014=
KBGD 081151Z AUTO 36005KT 10SM SCT033 BKN049 OVC060 18/17 A3020
     RMK AO2 RAB30E40 SLP192 P0000 60016 70137 T01830172 10194
     20183 53004=
KBKW 081151Z AUTO 00000KT 2 1/2SM BR CLR 21/19 A3018 RMK AO2
     SLP179 T02060189 10211 20189 52005 VISNO RWY19=
KCHK 081151Z AUTO 05003KT 4SM BR BKN016 22/22 A3006 RMK AO2=
KCLE 081151Z 19005KT 8SM FEW065 SCT090 24/18 A3009 RMK AO2 SLP180
     8/170 T02390183 10239 20211 53003 $=
KCMH 081151Z 00000KT 6SM HZ FEW070 24/21 A3008 RMK AO2 SLP179
     T02390206 10239 20217 51006=
KCSG 081151Z AUTO 00000KT 10SM CLR 24/20 A3003 RMK AO2 SLP164
     T02440200 10267 20228 53004=
KDAW 081151Z AUTO 00000KT 2 1/2SM BR OVC003 23/21 A3009 RMK AO2
     SLP183 T02280206 10228 20211 51010 $=
KDUC 081152Z AUTO 04003KT 10SM CLR 22/22 A3005 RMK AO2=
KEKN 081151Z AUTO 00000KT 3SM BR FEW070 19/18 A3017 RMK AO2 SLP203
     T01940178 10194 20161 50003 TSNO=
####018000499####
SPUS99 KWBC 081154
SPECI
KLWD 081151Z AUTO 01007KT 7SM BKN007 21/20 A3010 RMK AO2 CIG
     003V009=
KLXV 081148Z AUTO 00000KT 1/4SM FG OVC002 05/05 A3052 RMK AO2
     TSNO=
KMSN 081148Z VRB03KT 9SM OVC008 22/21 A3003 RMK AO2 CIG
     005V011=
KPNE 081151Z VRB04KT 2 1/2SM BR OVC002 24/23 A3005 RMK AO2 CIG
     001V006=
KDBQ 081151Z 30005KT 4SM BR BKN003 OVC016 21/21 A3007 RMK AO2=
PADQ 081151Z 28005KT 10SM FEW020 BKN030 OVC036 11/09 A2985 RMK AO2
     RAB12E21 P0000 $=
####018003729####
SAUS99 KWBC 081154 RRA
METAR
KELP 081151Z 02009KT 10SM FEW032 SCT055 SCT100 22/14 A3013 RMK AO2
     SLP130 CB DSNT E T02170144 10261 20217 53006=
KERI 081151Z 19006KT 8SM CLR 24/19 A3006 RMK AO2 SLP175 T02440189
     10244 20211 50003=
KEWR 081151Z 21004KT 4SM BR BKN007 OVC110 26/25 A3004 RMK AO2
     SLP173 T02610250 10261 20250 53011=
KGMJ 081154Z AUTO 00000KT OVC019 26/25 A3006 RMK AO2 PWINO=
KHDO 081151Z AUTO 02005KT 10SM FEW015 24/23 A2996 RMK AO2 SLP128
     T02390228 10250 20233 55000=
KHTS 081151Z AUTO 00000KT 1 1/4SM BR CLR 23/21 A3009 RMK AO2
     SLP181 T02280211 10228 20206 53005 TSNO=
KILG 081151Z 12005KT 2SM HZ CLR 26/23 A3004 RMK AO2 SFC VIS 3
     SLP170 T02610233 10261 20244 51006 $=
KJFK 081151Z 14004KT 5SM BR OVC005 25/23 A3006 RMK AO2 SLP178
     T02500228 10256 20244 51006 $=
KJSV 081150Z AUTO 00000KT 10SM SCT037 OVC046 23/23 A3004 RMK AO2
     LTG DSNT N=
KLGA 081151Z 06006KT 4SM HZ BKN015 BKN095 OVC130 27/23 A3004 RMK
     AO2 SLP171 T02670228 10267 20250 53009=
K1F0 081149Z AUTO 00000KT 24/24 A3002 RMK AO2 PWINO=
K4O4 081148Z AUTO 11004KT 23/23 A3005 RMK AO2=
KADH 081150Z AUTO 00000KT 7SM OVC004 23/22 A3005 RMK AO2=
KADM 081150Z AUTO 00000KT 5SM BR SCT026 BKN095 BKN120 23/23 A3002
     RMK AO2 LTG DSNT NE=
KAFK 081150Z AUTO 36005KT 4SM BR SCT012 19/19 A3014 RMK AO2 70003
     T01940185 10213 20191=
KALM 081150Z AUTO 12003KT 10SM CLR 16/13 A3015 RMK AO2=
KANW 081150Z AUTO 27003KT 10SM SCT080 16/15 A3024 RMK AO2
     T01590147 10170 20150=
KATS 081150Z AUTO 35010KT 5SM RA SCT001 SCT020 OVC029 18/18 A3017
     RMK AO2 P0009=
KAUH 081150Z AUTO 35005KT 10SM CLR 16/15 A3020 RMK AO2 T01570146
     10171 20152=
KAXS 081150Z AUTO 07009KT 10SM -RA SCT015 BKN023 OVC033 23/21
     A3009 RMK AO2 LTG DSNT NE P0054 60054 70055 T02250210 10239
     20225=
KAXX 081150Z AUTO 00000KT 10SM CLR 03/02 A3049 RMK AO2=
KBVS 081150Z AUTO 04007KT 10SM CLR 19/12 A2998 RMK A01 P000=
KCLK 081153Z AUTO 01005KT 10SM CLR 22/20 A3008 RMK AO2=
KCUH 081150Z AUTO 00000KT 7SM BKN005 BKN065 BKN075 23/23 A3005 RMK
     AO2=
KDUA 081157Z AUTO 15004KT 10SM OVC029 24/24 A3004 RMK AO2=
KGCD 081150Z AUTO 12010KT 10SM CLR 14/03 A3012 RMK AO2 T01410027
     10213 20136=
KGCM 081155Z AUTO 00000KT 5SM -RA SCT002 OVC010 23/23 A3007 RMK
     AO2 LTG DSNT NE P0027=
KGLS 081152Z 10014KT 10SM SCT050 BKN090 26/23 A2993 RMK AO2 PK WND
     12027/1058 RAE50 SLP134 P0014 60036 70051 T02560233 10283
     20250 53009=
KGPM 081150Z 11006KT 10SM BKN011 OVC018 26/23 A3003=
KHUM 081150Z 05004KT 5SM BR SCT060 25/25 A3002=
KHXD 081150Z 24008KT 10SM SKC 25/21 A2998=
KIDP 081150Z AUTO 01003KT 10SM SCT035 21/20 A3004 RMK AO2 LTG DSNT
     E AND SE=
KIZA 081150Z AUTO 00000KT 10SM OVC007 13/11 A2991 RMK AO2=
KLAM 081150Z AUTO 00000KT 10SM CLR 14/08 A3038 RMK AO2=
KLRU 081151Z AUTO 01004KT 10SM CLR 20/14 A3017 RMK AO2=
KOJA 081150Z AUTO 08003KT 7SM CLR 22/22 A3009 RMK AO2 LTG DSNT
     E=
KOKC 081152Z 02004KT 10SM FEW012 SCT025 BKN080 BKN200 23/22 A3006
     RMK AO2 SLP165 70015 T02330222 10239 20228 53007=
KOKM 081151Z AUTO 06003KT 10SM OVC007 24/24 A3004 RMK AO1 LTG DSNT
     NE=
KONP 081150Z AUTO 20003KT 5SM BR OVC004 11/09 A2999 RMK AO1=
KORS 081150Z AUTO 00000KT 10SM CLR 14/12 A2995 RMK AO2=
KOUN 081152Z AUTO 02003KT 10SM OVC013 25/23 A3007 RMK AO2=
KPLU 081150Z AUTO 00000KT 10SM FEW032 SCT050 SCT075 12/12 A2994
     RMK AO2=
KPTS 081150Z AUTO 00000KT 10SM SCT090 22/22 A3005 RMK AO2 LTG DSNT
     SW 70068 T02200221 10227 20220=
KPVJ 081147Z AUTO 00000KT 7SM BKN001 24/23 A3004 RMK AO2=
KRKR 081152Z AUTO 00000KT 10SM BKN027 BKN042 27/25 A3005 RMK
     AO2=
####018000095####
SACN97 KWBC 081154
METAR CXLL 081100Z AUTO 00000KT 11/11 RMK AO1 SLP154 T01050105
57010=
####018000087####
SACN88 KWBC 081154
METAR CWZN 081100Z AUTO 14011KT 12/ RMK AO1 SLP213 T0118 52005=
####018000095####
SACN89 KWBC 081154
METAR CWDT 081100Z AUTO 00000KT 20/19 RMK AO1 SLP166 T02000190
51005=
####018000598####
SAUS99 KWBC 081154 RRB
METAR
KSNL 081152Z AUTO 02005KT 7SM OVC005 24/23 A3006 RMK AO2=
KSPS 081152Z 07005KT 10SM FEW030 SCT150 SCT250 23/22 A3003 RMK AO2
     SLP158 T02280217 10244 20228 51006=
KSRE 081150Z AUTO 00000KT 4SM BR CLR 24/24 A3004 RMK AO2=
KSVC 081150Z AUTO 05007KT 10SM SCT100 18/14 A3022 RMK AO2=
KTEX 081151Z AUTO 14007KT 10SM OVC100 12/04 A3046 RMK AO2=
KTMK 081153Z AUTO 00000KT 7SM OVC004 12/12 A2997 RMK AO2=
KTQH 081155Z AUTO 00000KT 10SM OVC017 23/23 A3006 RMK AO2=
KWWR 081149Z AUTO 34004KT 10SM OVC009 22/21 A3017 RMK AO2
     T02150205 10236 20213=
####018002791####
SAUS90 KWBC 081200
METAR KEHA 081148Z AUTO 02007KT 17/17 RMK AO1 PK WND 08 084
     T01720167=
METAR KSAN 081151Z 33006KT 10SM OVC019 17/13 A2991 RMK AO2 SLP128
     T01670133 10178 20161 55001=
METAR KGDP 081151Z AUTO 05023KT 4SM BR BKN005 BKN055 OVC095 16/16
     A3022 RMK AO2 PK WND 04030/1128 SLP158 60001 70001 T01610161
     10183 20161 58000 TSNO=
METAR KORF 081151Z 11005KT 10SM FEW010 SCT055 BKN100 26/23 A2999
     RMK AO2 SLP153 T02610228 10261 20250 53012=
METAR KCAK 081151Z 00000KT 5SM HZ CLR 24/19 A3010 RMK AO2 SLP181
     T02440194 10244 20206 50004=
METAR KJCT 081151Z AUTO 00000KT 7SM BKN011 22/21 A3002 RMK AO2
     SLP126 60000 T02220211 10239 20217 53004 TSNO=
METAR KNYC 081151Z AUTO VRB04KT 5SM HZ BKN016 BKN022 27/23 A3007
     RMK AO2 SLP172 T02720233 10272 20250 53008 TSNO $=
METAR KSMX 081151Z AUTO 30005KT 6SM BR OVC007 12/11 A2992 RMK AO2
     SLP134 T01220111 10133 20122 53001 TSNO $=
METAR KSNT 081151Z AUTO 00000KT 01/M01 A3034 RMK AO2 SLP199
     T00111006 10094 20006 53007 PWINO FZRANO TSNO=
METAR KP59 081151Z AUTO 36004KT 18/16 A2997 RMK AO2 SLP145 70009
     T01830161 10194 20161 50001 PWINO TSNO=
METAR KSAD 081151Z AUTO 15011KT 10SM CLR 24/12 A3002 RMK AO2
     SLP114 T02390117 10278 20239 53011 TSNO=
METAR KATT 081151Z AUTO VRB03KT 8SM BKN009 OVC018 25/23 A2997 RMK
     AO2 CIG 006V013 SLP135 60000 T02500233 10267 20250 53003
     $=
METAR KVCT 081151Z AUTO 02004KT 5SM RA BR FEW009 BKN032 OVC060
     24/24 A2990 RMK AO2 SLP122 P0097 60122 70122 T02440244 10261
     20244 51005=
METAR KP58 081151Z AUTO 23003KT 26/22 A2999 RMK AO2 SLP145
     T02610217 10261 20228 54000 PWINO TSNO=
METAR KCON 081151Z AUTO 17006KT 2 1/2SM BR OVC006 24/22 A3008 RMK
     AO2 SLP185 T02390217 10239 20222 51011=
METAR KCRP 081151Z 05009KT 5SM TSRA BR FEW008 BKN018CB BKN036
     26/25 A2983 RMK AO2 TSB32RAB27 SLP101 OCNL LTGIC S-W TS S-W
     MOV W P0029 60101 7//// T02560250 10267 20256 53003 $=
METAR KABE 081151Z 11004KT 6SM HZ CLR 26/22 A3004 RMK AO2 SLP170
     T02610217 10261 20211 51008=
METAR KHSE 081151Z AUTO 06006KT 10SM CLR 26/22 A2994 RMK AO2
     SLP137 T02610222 10261 20239 52008 TSNO=
METAR KREO 081152Z AUTO 08005KT 09/M02 A3011 RMK AO2 SLP165
     T00891022 10167 20089 53004 PWINO TSNO=
METAR KSDB 081152Z AUTO 30005KT 10SM CLR 19/01 A3002 RMK AO2
     SLP107 T01940006 10206 20178 55004 TSNO $=
METAR KABI 081152Z 01003KT 7SM OVC010 22/21 A3007 RMK AO2 CIG
     009V014 SLP161 7//// T02170211 10222 20211 53012 $=
METAR KMLF 081152Z AUTO 24005KT 10SM CLR 12/01 A3012 RMK AO2
     SLP146 T01170011 10183 20100 53008 TSNO=
METAR KBLU 081152Z AUTO 00000KT 10SM FEW120 19/07 A3009 RMK AO2
     SLP096 T01890067 10244 20178 56004 TSNO=
####018000268####
SAGL31 BGSF 081150
METAR BGSF 081150Z VRB03KT 9999 FEW070 14/01 Q1008=
METAR BGBW 081153Z NIL=
METAR BGGH 081153Z NIL=
METAR BGJN 081150Z 32004KT 280V040 9999 0600NE PRFG FEW001 07/04 
Q1009 RMK 1ST =
METAR BGKK 081150Z VRB05KT 9999 FEW080 SCT120 08/03 Q1009=
####018000363####
SAUS80 KWBC 081200 RRA
METAR
KABI 081152Z 01003KT 7SM OVC010 22/21 A3007 RMK AO2 CIG 009V014
     SLP161 7//// T02170211 10222 20211 53012 $=
KMLF 081152Z AUTO 24005KT 10SM CLR 12/01 A3012 RMK AO2 SLP146
     T01170011 10183 20100 53008 TSNO=
KBLU 081152Z AUTO 00000KT 10SM FEW120 19/07 A3009 RMK AO2 SLP096
     T01890067 10244 20178 56004 TSNO=
####018000263####
SADN34 EKCH 081150
METAR EKGF 081150Z 20010KT CAVOK 16/16 Q1017=
METAR EKHN 081150Z AUTO 21003KT 9999NDV SCT031/// BKN053///
BKN079/// 18/15 Q1020=
METAR EKHR 081150Z AUTO 20010KT 7000NDV -SHRA   FEW004/// SCT009///
BKN034/// BKN080/// 17/17 Q1018 RESHRA=
####018000157####
SAGG31 UGTB 081150
METAR UGKO 081100Z 27004KT 9999 SCT050CB SCT100 31/23 Q1010 NOSIG=
METAR UGSB 081100Z 33006KT 9999 SCT020CB SCT070 28/22 Q1010 NOSIG=
####018000514####
SADL31 EDZO 081150
METAR EDDF 081150Z VRB02KT CAVOK 29/10 Q1020 NOSIG=
METAR EDDH 081150Z 22006KT 180V240 CAVOK 29/12 Q1019 NOSIG=
METAR EDDK 081150Z 16007KT CAVOK 31/10 Q1019 NOSIG=
METAR EDDL 081150Z 21005KT 170V240 CAVOK 30/09 Q1019 NOSIG=
METAR EDDM 081150Z 09006KT CAVOK 24/09 Q1022 NOSIG=
METAR EDDN 081150Z 15006KT CAVOK 27/07 Q1022 NOSIG=
METAR EDDS 081150Z VRB03KT CAVOK 27/08 Q1021 NOSIG=
METAR EDDT 081150Z 16003KT CAVOK 27/05 Q1021 NOSIG=
METAR EDDV 081150Z 19008KT CAVOK 29/10 Q1019 NOSIG=
####018000475####
SAFI31 EFHK 081150
METAR EFHK 081150Z 29009KT 9999 FEW036 SCT050 27/18 Q1014 NOSIG=
EFJY 081150Z 09003KT 9999 SCT025 SCT080 23/17 Q1015=
METAR EFKU 081150Z AUTO 31006KT CAVOK 23/17 Q1015=
EFOU 081150Z 16005KT 110V220 9999 FEW040 BKN200 22/10 Q1015=
METAR EFRO 081150Z AUTO VRB03KT CAVOK 21/09 Q1016=
EFTP 081150Z VRB05KT 9999 FEW045 SCT200 25/14 Q1015=
METAR EFTU 081150Z AUTO VRB04KT CAVOK 27/09 Q1015=
EFVA 081150Z 18006KT 140V220 9999 FEW030 SCT200 25/12 Q1014=
####018000688####
SASN31 ESWI 081150
METAR ESGG 081150Z 21012KT 3600 RA BR FEW005 SCT016 BKN020CB 16/15
Q1020=
METAR ESGJ 081150Z AUTO 22013KT 9999NDV FEW042/// BKN062/// 24/10
Q1019=
METAR ESGP 081150Z 19013KT 8000 DZ BKN008 OVC014 17/16 Q1019=
METAR ESGT 081150Z 22016KT 9999 BKN026 19/14 Q1018=
METAR ESMK 081150Z 21008KT 160V240 CAVOK 26/11 Q1020=
METAR ESMQ 081150Z 17012KT CAVOK 23/14 Q1019=
METAR ESMS 081150Z 18011KT CAVOK 24/10 Q1021=
METAR ESMT 081150Z AUTO 18010KT 9999NDV OVC049/// 22/14 Q1020=
METAR ESMX 081150Z 18011KT CAVOK 25/11 Q1020=
METAR ESTA 081150Z 16013KT CAVOK 23/15 Q1020=
METAR ESTL 081150Z AUTO 20010KT 160V230 9999NDV FEW033///
SCT053/// BKN069/// 24/12 Q1020=
####018000148####
SAKA31 PTKK 081200
METAR PTKK 081150Z VRB04KT 15SM FEW014 BKN120 OVC280 26/23 A2985 RMK
 SLP110 60002 70100 8/171 T02600228 10261 20244 52008=
####018000108####
SAGU31 MGGT 081200
METAR
MGGT 081200Z 00000KT CAVOK 16/14 Q1022 A3018 SCT080 OVC100 VTO TEND S
NOSIG =
####018000211####
SADN32 EKCH 081150
METAR EKVJ 081150Z NIL=
METAR EKSB 081150Z 17007KT 140V210 CAVOK 26/11 Q1018=
METAR EKSN 081150Z 18010KT 9999 SCT025 BKN047 20/15 Q1017=
METAR EKVD 081150Z NIL=
METAR EKOD 081150Z NIL=
####018000388####
SPXX60 KWBC 081154
SPECI
KBKF 081149Z 12003KT 6SM BR FEW020 FEW120 SCT220 13/13 A3032=
KNEL 081146Z AUTO 15006KT 7SM SCT007 SCT014 BKN095 26/22 A3005 RMK
     AO2 $=
KRND 081147Z 04005KT 9SM BKN009 BKN014 25/24 A2994 RMK AO2A
     DZB1118E1134 BKN014 V OVC SLP129=
PAED 081146Z AUTO 00000KT 10SM FEW060 BKN080 12/10 A2998 RMK AO2
     RAB1133E1143DZB1143E1146 SLP155 $=
####018000400####
SADL32 EDZO 081150
METAR EDDB 081150Z 21005KT 180V240 CAVOK 27/06 Q1021 NOSIG=
METAR EDDC 081150Z VRB02KT CAVOK 25/10 Q1022 NOSIG=
METAR EDDE 081150Z VRB02KT CAVOK 27/09 Q1021 NOSIG=
METAR EDDG 081150Z 25006KT CAVOK 30/10 Q1019 NOSIG=
METAR EDDP 081150Z VRB03KT CAVOK 27/10 Q1021 NOSIG=
METAR EDDR 081150Z VRB02KT CAVOK 28/10 Q1021 NOSIG=
METAR EDDW 081150Z 19007KT CAVOK 30/09 Q1019 NOSIG=
####018000474####
SAXX60 KWBC 081200
METAR
KBLV 081155Z AUTO 17004KT 10SM FEW042 BKN055 25/25 A3004 RMK AO2
     SLP170 70058 T02490247 10249 20239 51006=
KNFW 081152Z 13006KT 10SM SCT012 BKN022 26/22 A3006 RMK AO2 SLP161
     T02610222 10272 20261 51010=
KNZY 081152Z 31006KT 9SM FEW009 OVC015 18/13 A2989 RMK AO2 DZE30
     SLP121 P0000 60000 T01830133 10189 20178 55001 $=
KNHK 081152Z 09006KT 4SM HZ FEW010 27/24 A3000 RMK AO2 SLP158
     T02720239 10278 20256 51008=
####018000107####
SAGU31 MGGT 081200
METAR
MGGT 081200Z 00000KT CAVOK 16/14 Q1022 A3018 SCT080 OVC100 VTO TEND S NOSIG =
####018003672####
SAUS70 KWBC 081200
METAR
KACT 081151Z 04005KT 6SM BR OVC012 26/24 A3000 RMK AO2 SLP150
     T02560239 10267 20256 53005=
KANE 081150Z 23003KT 12SM SKC 17/17 A3011=
KGTU 081150Z 06007KT 5SM BR OVC005 24/22 A3002=
KSJT 081151Z 00000KT 10SM SCT012 21/20 A3004 RMK AO2 SLP149 60016
     70037 T02110200 10217 20211 53009=
KJCT 081151Z AUTO 00000KT 7SM BKN011 22/21 A3002 RMK AO2 SLP126
     60000 T02220211 10239 20217 53004 TSNO=
KLGU 081151Z AUTO 00000KT 10SM CLR 11/06 A3016 RMK AO2 SLP168
     T01110061 10178 20111 53007=
KMDW 081151Z 19003KT 6SM -RA BR SCT049 BKN065 OVC150 24/22 A3002
     RMK AO2 SLP154 P0000 60012 70017 T02390222 10256 20233
     56001=
KMPV 081151Z AUTO 00000KT 3SM HZ CLR 23/20 A3012 RMK AO2 SLP192
     T02330200 10233 20194 51002=
KOMN 081150Z 00000KT 10SM SKC 21/21 A3001=
KONM 081147Z AUTO 18/14 RMK AO2 7//// T01800141 PWINO TSNO=
KORD 081151Z 19004KT 6SM BR FEW022 BKN060 OVC200 23/22 A3002 RMK
     AO2 RAE40 SLP160 P0000 60015 70035 T02330222 10239 20228
     55000=
KPHX 081151Z 35003KT 10SM SCT170 33/01 A2977 RMK AO2 SLP058
     T03280006 10350 20300 53007 $=
KPIT 081151Z 00000KT 6SM HZ FEW055 23/19 A3010 RMK AO2 SLP187
     T02280194 10239 20206 50005=
KPWM 081151Z 19007KT 7SM OVC004 21/20 A3009 RMK AO2 SLP190
     T02110200 10217 20206 51009 $=
KRDU 081151Z 03003KT 5SM HZ BKN080 27/19 A3000 RMK AO2 SLP151
     T02720189 10272 20228 51012=
KSLK 081151Z AUTO 23003KT 7SM CLR 24/20 A3009 RMK AO2 SLP176
     T02390200 10239 20167 53001=
KSMO 081151Z AUTO 00000KT 9SM OVC011 16/13 A2990 RMK AO2 SLP124
     70001 T01610128 10167 20161 55003=
KSTL 081151Z 28004KT 10SM FEW010 BKN039TCU BKN050 OVC250 25/23
     A3005 RMK AO2 RAB09E31 SLP163 TCU ALQDS VCSH E-S P0003 60010
     70024 T02500228 10278 20250 53008=
KVNY 081151Z AUTO 22003KT 6SM BR OVC008 15/13 A2989 RMK AO2 SLP116
     T01500128 10156 20150 56004=
K36U 081155Z AUTO 11003KT 7SM CLR 08/04 A3024 RMK AO2=
KAHN 081151Z 00000KT 7SM CLR 24/21 A3004 RMK AO2 SLP162 T02390206
     10239 20206 51005 $=
KASH 081151Z 14005KT 5SM HZ OVC012 25/22 A3009 RMK AO2 51012
     T02500216 10255 20233 SLP191=
KATW 081145Z 27006KT 4SM BR BKN003 OVC010 22/21 A3001=
KAVX 081151Z AUTO 26005KT M1/4SM FG VV001 12/12 A2992 RMK AO2
     SLP124 T01170117 10117 20111 55002 TSNO=
KBAZ 081151Z AUTO 05007KT 8SM FEW011 BKN032 OVC039 25/24 A2993 RMK
     AO2 RAB28E50 SLP126 P0000 60001 70001 T02500244 10256 20250
     53002=
KBGD 081151Z AUTO 36005KT 10SM SCT033 BKN049 OVC060 18/17 A3020
     RMK AO2 RAB30E40 SLP192 P0000 60016 70137 T01830172 10194
     20183 53004=
KCHK 081151Z AUTO 05003KT 4SM BR BKN016 22/22 A3006 RMK AO2=
KCLE 081151Z 19005KT 8SM FEW065 SCT090 24/18 A3009 RMK AO2 SLP180
     8/170 T02390183 10239 20211 53003 $=
KCMH 081151Z 00000KT 6SM HZ FEW070 24/21 A3008 RMK AO2 SLP179
     T02390206 10239 20217 51006=
KCSG 081151Z AUTO 00000KT 10SM CLR 24/20 A3003 RMK AO2 SLP164
     T02440200 10267 20228 53004=
KDAW 081151Z AUTO 00000KT 2 1/2SM BR OVC003 23/21 A3009 RMK AO2
     SLP183 T02280206 10228 20211 51010 $=
KDUC 081152Z AUTO 04003KT 10SM CLR 22/22 A3005 RMK AO2=
KERI 081151Z 19006KT 8SM CLR 24/19 A3006 RMK AO2 SLP175 T02440189
     10244 20211 50003=
KEWR 081151Z 21004KT 4SM BR BKN007 OVC110 26/25 A3004 RMK AO2
     SLP173 T02610250 10261 20250 53011=
KGMJ 081154Z AUTO 00000KT OVC019 26/25 A3006 RMK AO2 PWINO=
KHDO 081151Z AUTO 02005KT 10SM FEW015 24/23 A2996 RMK AO2 SLP128
     T02390228 10250 20233 55000=
KILG 081151Z 12005KT 2SM HZ CLR 26/23 A3004 RMK AO2 SFC VIS 3
     SLP170 T02610233 10261 20244 51006 $=
####018000195####
SADN33 EKCH 081150
METAR EKKA 081150Z 19006KT 150V220 7000 -SHRA FEW009 FEW018TCU
BKN030 18/17 Q1018 TEMPO 4000 SHRA SCT020CB=
METAR EKSP 081150Z 22015KT CAVOK 27/10 Q1018 NOSIG RMK BKN090=
####018003305####
SAUS70 KWBC 081200 RRA
METAR
KJFK 081151Z 14004KT 5SM BR OVC005 25/23 A3006 RMK AO2 SLP178
     T02500228 10256 20244 51006 $=
KJSV 081150Z AUTO 00000KT 10SM SCT037 OVC046 23/23 A3004 RMK AO2
     LTG DSNT N=
KLGA 081151Z 06006KT 4SM HZ BKN015 BKN095 OVC130 27/23 A3004 RMK
     AO2 SLP171 T02670228 10267 20250 53009=
K1F0 081149Z AUTO 00000KT 24/24 A3002 RMK AO2 PWINO=
K4O4 081148Z AUTO 11004KT 23/23 A3005 RMK AO2=
KADH 081150Z AUTO 00000KT 7SM OVC004 23/22 A3005 RMK AO2=
KADM 081150Z AUTO 00000KT 5SM BR SCT026 BKN095 BKN120 23/23 A3002
     RMK AO2 LTG DSNT NE=
KAFK 081150Z AUTO 36005KT 4SM BR SCT012 19/19 A3014 RMK AO2 70003
     T01940185 10213 20191=
KALM 081150Z AUTO 12003KT 10SM CLR 16/13 A3015 RMK AO2=
KANW 081150Z AUTO 27003KT 10SM SCT080 16/15 A3024 RMK AO2
     T01590147 10170 20150=
KATS 081150Z AUTO 35010KT 5SM RA SCT001 SCT020 OVC029 18/18 A3017
     RMK AO2 P0009=
KAUH 081150Z AUTO 35005KT 10SM CLR 16/15 A3020 RMK AO2 T01570146
     10171 20152=
KAXS 081150Z AUTO 07009KT 10SM -RA SCT015 BKN023 OVC033 23/21
     A3009 RMK AO2 LTG DSNT NE P0054 60054 70055 T02250210 10239
     20225=
KAXX 081150Z AUTO 00000KT 10SM CLR 03/02 A3049 RMK AO2=
KBVS 081150Z AUTO 04007KT 10SM CLR 19/12 A2998 RMK A01 P000=
KCLK 081153Z AUTO 01005KT 10SM CLR 22/20 A3008 RMK AO2=
KCUH 081150Z AUTO 00000KT 7SM BKN005 BKN065 BKN075 23/23 A3005 RMK
     AO2=
KDUA 081157Z AUTO 15004KT 10SM OVC029 24/24 A3004 RMK AO2=
KGCD 081150Z AUTO 12010KT 10SM CLR 14/03 A3012 RMK AO2 T01410027
     10213 20136=
KGCM 081155Z AUTO 00000KT 5SM -RA SCT002 OVC010 23/23 A3007 RMK
     AO2 LTG DSNT NE P0027=
KGLS 081152Z 10014KT 10SM SCT050 BKN090 26/23 A2993 RMK AO2 PK WND
     12027/1058 RAE50 SLP134 P0014 60036 70051 T02560233 10283
     20250 53009=
KGPM 081150Z 11006KT 10SM BKN011 OVC018 26/23 A3003=
KHUM 081150Z 05004KT 5SM BR SCT060 25/25 A3002=
KHXD 081150Z 24008KT 10SM SKC 25/21 A2998=
KIDP 081150Z AUTO 01003KT 10SM SCT035 21/20 A3004 RMK AO2 LTG DSNT
     E AND SE=
KLAM 081150Z AUTO 00000KT 10SM CLR 14/08 A3038 RMK AO2=
KLRU 081151Z AUTO 01004KT 10SM CLR 20/14 A3017 RMK AO2=
KOJA 081150Z AUTO 08003KT 7SM CLR 22/22 A3009 RMK AO2 LTG DSNT
     E=
KOKC 081152Z 02004KT 10SM FEW012 SCT025 BKN080 BKN200 23/22 A3006
     RMK AO2 SLP165 70015 T02330222 10239 20228 53007=
KOKM 081151Z AUTO 06003KT 10SM OVC007 24/24 A3004 RMK AO1 LTG DSNT
     NE=
KONP 081150Z AUTO 20003KT 5SM BR OVC004 11/09 A2999 RMK AO1=
KORS 081150Z AUTO 00000KT 10SM CLR 14/12 A2995 RMK AO2=
KOUN 081152Z AUTO 02003KT 10SM OVC013 25/23 A3007 RMK AO2=
KPLU 081150Z AUTO 00000KT 10SM FEW032 SCT050 SCT075 12/12 A2994
     RMK AO2=
KPVJ 081147Z AUTO 00000KT 7SM BKN001 24/23 A3004 RMK AO2=
KRKR 081152Z AUTO 00000KT 10SM BKN027 BKN042 27/25 A3005 RMK
     AO2=
KSNL 081152Z AUTO 02005KT 7SM OVC005 24/23 A3006 RMK AO2=
KSRE 081150Z AUTO 00000KT 4SM BR CLR 24/24 A3004 RMK AO2=
KSVC 081150Z AUTO 05007KT 10SM SCT100 18/14 A3022 RMK AO2=
KTEX 081151Z AUTO 14007KT 10SM OVC100 12/04 A3046 RMK AO2=
KTMK 081153Z AUTO 00000KT 7SM OVC004 12/12 A2997 RMK AO2=
KTQH 081155Z AUTO 00000KT 10SM OVC017 23/23 A3006 RMK AO2=
KWWR 081149Z AUTO 34004KT 10SM OVC009 22/21 A3017 RMK AO2
     T02150205 10236 20213=
####018000201####
SPUS70 KWBC 081154
SPECI
KNSE 081137Z 00000KT 1 1/2SM BR FEW001 SCT250 23/22 A3003 RMK AO2
     VIS NE-E 3/4 $=
KPNE 081151Z VRB04KT 2 1/2SM BR OVC002 24/23 A3005 RMK AO2 CIG
     001V006=
####018003691####
SAUS80 KWBC 081200
METAR
KEHA 081148Z AUTO 02007KT 17/17 RMK AO1 PK WND 08 084
     T01720167=
KSAN 081151Z 33006KT 10SM OVC019 17/13 A2991 RMK AO2 SLP128
     T01670133 10178 20161 55001=
KGDP 081151Z AUTO 05023KT 4SM BR BKN005 BKN055 OVC095 16/16 A3022
     RMK AO2 PK WND 04030/1128 SLP158 60001 70001 T01610161 10183
     20161 58000 TSNO=
KORF 081151Z 11005KT 10SM FEW010 SCT055 BKN100 26/23 A2999 RMK AO2
     SLP153 T02610228 10261 20250 53012=
KCAK 081151Z 00000KT 5SM HZ CLR 24/19 A3010 RMK AO2 SLP181
     T02440194 10244 20206 50004=
KNYC 081151Z AUTO VRB04KT 5SM HZ BKN016 BKN022 27/23 A3007 RMK AO2
     SLP172 T02720233 10272 20250 53008 TSNO $=
KSMX 081151Z AUTO 30005KT 6SM BR OVC007 12/11 A2992 RMK AO2 SLP134
     T01220111 10133 20122 53001 TSNO $=
KMYL 081151Z AUTO 05003KT 10SM CLR 08/05 A3019 RMK AO2 SLP191
     T00780050 10156 20061 53003=
KOXR 081151Z AUTO 29006KT 10SM OVC011 15/13 A2990 RMK AO2 SLP125
     T01500128 10161 20150 55001 $=
KROW 081151Z 01007KT 10SM BKN033 OVC041 20/16 A3019 RMK AO2 SLP163
     60000 T02000161 10206 20194 51006=
KTEB 081151Z 15003KT 4SM MIFG SCT018 27/23 A3003 RMK AO2 SLP169
     T02720228 10272 20244 53009=
KYNG 081151Z 00000KT 5SM HZ BR FEW060 22/19 A3010 RMK AO2 SLP182
     8/100 T02220194 10222 20183 51005=
KALB 081151Z 00000KT 6SM HZ FEW080 27/21 A3004 RMK AO2 SLP171
     T02670206 10267 20228 51007=
KBDL 081151Z 16006KT 2 1/2SM BR BKN008 OVC010 24/22 A3006 RMK AO2
     SLP179 T02440222 10261 20239 51014=
KBKW 081151Z AUTO 00000KT 2 1/2SM BR CLR 21/19 A3018 RMK AO2
     SLP179 T02060189 10211 20189 52005 VISNO RWY19=
KEKN 081151Z AUTO 00000KT 3SM BR FEW070 19/18 A3017 RMK AO2 SLP203
     T01940178 10194 20161 50003 TSNO=
KELP 081151Z 02009KT 10SM FEW032 SCT055 SCT100 22/14 A3013 RMK AO2
     SLP130 CB DSNT E T02170144 10261 20217 53006=
KHTS 081151Z AUTO 00000KT 1 1/4SM BR CLR 23/21 A3009 RMK AO2
     SLP181 T02280211 10228 20206 53005 TSNO=
KSNT 081151Z AUTO 00000KT 01/M01 A3034 RMK AO2 SLP199 T00111006
     10094 20006 53007 PWINO FZRANO TSNO=
KP59 081151Z AUTO 36004KT 18/16 A2997 RMK AO2 SLP145 70009
     T01830161 10194 20161 50001 PWINO TSNO=
KSAD 081151Z AUTO 15011KT 10SM CLR 24/12 A3002 RMK AO2 SLP114
     T02390117 10278 20239 53011 TSNO=
KATT 081151Z AUTO VRB03KT 8SM BKN009 OVC018 25/23 A2997 RMK AO2
     CIG 006V013 SLP135 60000 T02500233 10267 20250 53003 $=
KVCT 081151Z AUTO 02004KT 5SM RA BR FEW009 BKN032 OVC060 24/24
     A2990 RMK AO2 SLP122 P0097 60122 70122 T02440244 10261 20244
     51005=
KP58 081151Z AUTO 23003KT 26/22 A2999 RMK AO2 SLP145 T02610217
     10261 20228 54000 PWINO TSNO=
KCON 081151Z AUTO 17006KT 2 1/2SM BR OVC006 24/22 A3008 RMK AO2
     SLP185 T02390217 10239 20222 51011=
KCRP 081151Z 05009KT 5SM TSRA BR FEW008 BKN018CB BKN036 26/25
     A2983 RMK AO2 TSB32RAB27 SLP101 OCNL LTGIC S-W TS S-W MOV W
     P0029 60101 7//// T02560250 10267 20256 53003 $=
KABE 081151Z 11004KT 6SM HZ CLR 26/22 A3004 RMK AO2 SLP170
     T02610217 10261 20211 51008=
KIZA 081150Z AUTO 00000KT 10SM OVC007 13/11 A2991 RMK AO2=
KPTS 081150Z AUTO 00000KT 10SM SCT090 22/22 A3005 RMK AO2 LTG DSNT
     SW 70068 T02200221 10227 20220=
KSPS 081152Z 07005KT 10SM FEW030 SCT150 SCT250 23/22 A3003 RMK AO2
     SLP158 T02280217 10244 20228 51006=
KHSE 081151Z AUTO 06006KT 10SM CLR 26/22 A2994 RMK AO2 SLP137
     T02610222 10261 20239 52008 TSNO=
KREO 081152Z AUTO 08005KT 09/M02 A3011 RMK AO2 SLP165 T00891022
     10167 20089 53004 PWINO TSNO=
KSDB 081152Z AUTO 30005KT 10SM CLR 19/01 A3002 RMK AO2 SLP107
     T01940006 10206 20178 55004 TSNO $=
####018000418####
SPUS80 KWBC 081154
SPECI
KLWD 081151Z AUTO 01007KT 7SM BKN007 21/20 A3010 RMK AO2 CIG
     003V009=
KLXV 081148Z AUTO 00000KT 1/4SM FG OVC002 05/05 A3052 RMK AO2
     TSNO=
KMSN 081148Z VRB03KT 9SM OVC008 22/21 A3003 RMK AO2 CIG
     005V011=
KDBQ 081151Z 30005KT 4SM BR BKN003 OVC016 21/21 A3007 RMK AO2=
PADQ 081151Z 28005KT 10SM FEW020 BKN030 OVC036 11/09 A2985 RMK AO2
     RAB12E21 P0000 $=
####018000466####
SADN31 EKCH 081150
METAR EKCH 081150Z 16014KT CAVOK 23/15 Q1020 NOSIG=
METAR EKBI 081150Z NIL=
METAR EKYT 081150Z 18011KT 9999 -RA FEW017 BKN023 20/15 Q1018
TEMPO 7000 BKN012=
METAR EKRK 081150Z AUTO 22013KT 9999NDV BKN050/// 25/10 Q1019=
METAR EKAH 081150Z AUTO 19004KT 140V270 9999NDV RERA  BKN067///
21/17 Q1019=
METAR EKEB 081150Z AUTO 24010KT 9999NDV BKN066/// BKN082///
20/16 Q1019=
METAR EKRN 081150Z AUTO 20004KT 170V240 9999NDV NCD 20/15 Q1022=
####018000531####
SAAS31 KWBC 081130 RRD
METAR
VAAH 081140Z 18011KT 5000 HZ SCT020 SCT080 31/24 Q1003 NOSIG=
VABB 081140Z 16008KT 3200 HZ SCT010 SCT018 FEW025TCU BKN100 28/25
     Q1006 TEMPO 1500 SHRA=
VANP 081140Z 28006KT 3000 HZ SCT015 SCT025 FEW030CB BKN090 28/26
     Q1005 TEMPO 1500 IN RA/TSRA=
VOHY 081140Z 27009KT 5000 HZ SCT010 SCT015 BKN080 26/19 Q1010
     NOSIG=
VOMM 081140Z 11008KT 4000 HZ SCT015 SCT100 OVC200 28/26 Q1008
     NOSIG=
VOTV 081140Z 32007KT 6000 FEW015 FEW025CB BKN200 27/25 Q1008
     NOSIG=
####018000081####
SAEW31 KWBC 081130 RRB
METAR
LXGB 081150Z 08009KT CAVOK 26/17 Q1016 NOSIG=
####018000425####
SADL33 KWBC 081145 RRA
METAR
EDDB 081150Z 21005KT 180V240 CAVOK 27/06 Q1021 NOSIG=
EDDC 081150Z VRB02KT CAVOK 25/10 Q1022 NOSIG=
EDDG 081150Z 25006KT CAVOK 30/10 Q1019 NOSIG=
EDDP 081150Z VRB03KT CAVOK 27/10 Q1021 NOSIG=
EDDR 081150Z VRB02KT CAVOK 28/10 Q1021 NOSIG=
EDDT 081150Z 16003KT CAVOK 27/05 Q1021 NOSIG=
EDDV 081150Z 19008KT CAVOK 29/10 Q1019 NOSIG=
EDDW 081150Z 19007KT CAVOK 30/09 Q1019 NOSIG=
####018002917####
SAUS20 KNKA 081153
METAR KAFN 081152Z AUTO 19003KT 6SM BR SCT009 BKN050 BKN075 23/21 
    A3012 RMK AO2 SLP194 7//// T02330211 10244 20217 51011=
METAR KAIK 081155Z AUTO 29004KT 10SM CLR 25/23 A3005 RMK AO2 PNO=
METAR KALS 081152Z AUTO 27006KT 10SM CLR 07/07 A3041 RMK AO2 SLP238 
    70001 T00720067 10100 20067 51004=
METAR KAQW 081152Z AUTO 00000KT 4SM HZ CLR 23/20 A3007 RMK AO2 
    SLP178 T02330200 10233 20183 50006=
METAR KARR 081152Z AUTO 24004KT 3SM BR OVC055 23/22 A3004 RMK AO2 
    RAE24 SLP167 P0000 60018 7//// T02280217 10228 20222 53006 $=
METAR KARW 081155Z AUTO 27008KT 10SM CLR 26/19 A2998 RMK AO2=
METAR KASG 081148Z 15005KT 10SM BKN028 23/21 A3009=
METAR KATL 081152Z 00000KT 10SM CLR 26/19 A3005 RMK AO2 SLP164 
    T02560194 10272 20239 53006=
METAR KBDN 081155Z AUTO 19005KT 10SM CLR 11/03 A3011 RMK AO2 =
METAR KBDR 081152Z 14005KT 4SM BR BKN006 BKN050 25/23 A3006 RMK AO2 
    SLP178 T02500228 10250 20239 53011=
METAR KBIS 081152Z 00000KT 10SM CLR 13/10 A3015 RMK AO2 SLP206 
    T01330100 10156 20106 53007=
METAR KBLF 081152Z AUTO 26004KT 5SM HZ CLR 23/18 A3020 RMK AO2 
    SLP180 T02280178 10233 20211 52004=
METAR KBLH 081152Z AUTO 04004KT 10SM CLR 26/02 A2973 RMK AO2 SLP061 
    T02610017 10344 20256 53006=
METAR KBML 081152Z AUTO 00000KT 1/2SM FG OVC001 21/21 A3010 RMK AO2 
    SLP187 T02110211 10211 20183 58000 $=
METAR KCDS 081153Z AUTO 05003KT 10SM SCT095 BKN110 23/21 A3011 RMK 
    AO2 SLP170 T02280211 10239 20222 53004=
METAR KCFV 081152Z AUTO 00000KT 10SM FEW035 23/22 A3005 RMK AO2 
    SLP168 7//// T02280217 10233 20222 53004=
METAR KCID 081152Z 00000KT 8SM FEW003 20/19 A3006 RMK AO2 SLP175 
    70007 T02000189 10211 20194 51015=
METAR KCKV 081152Z AUTO 00000KT 10SM OVC100 25/22 A3008 RMK AO2 
    SLP178 T02500222 10250 20228 53006=
METAR KCLT 081152Z 32004KT 10SM FEW100 SCT250 24/17 A3003 RMK AO2 
    SLP158 T02440172 10256 20194 51008=
METAR KCNU 081152Z AUTO 04006KT 1/2SM FG OVC001 22/21 A3005 RMK AO2 
    SLP168 70011 T02220211 10222 20211 53002=
METAR KCQX 081152Z AUTO 17006KT 10SM FEW003 22/20 A3012 RMK AO2 
    SLP202 T02220200 10228 20189 51012=
METAR KCUB 081153Z AUTO 29004KT 10SM CLR 27/21 A3000 RMK AO2 SLP155 
    T02720206 10278 20233 53005=
METAR KCVG 081152Z 00000KT 6SM HZ CLR 24/21 A3009 RMK AO2 SLP177 
    T02390211 10244 20211 50006=
METAR KDAL 081153Z 13006KT 10SM -RA BKN014 OVC021 26/23 A3002 RMK 
    AO2 RAB04E15B48 SLP159 P0000 60000 70007 T02610233 10267 20256 
    53007=
METAR KDCA 081152Z 08005KT 4SM HZ FEW050 SCT100 28/22 A3001 RMK AO2 
    SLP162 T02830222 10306 20272 51007=
METAR KDDC 081152Z AUTO 02009KT 2 1/2SM BR OVC003 18/17 A3019 RMK 
    AO2 SLP197 70007 T01830172 10189 20178 53005=
METAR KDPA 081152Z 23003KT 3SM BR OVC050 23/22 A3003 RMK AO2 RAE22 
    SLP164 P0000 60016 70020 T02280222 10233 20222 53003=
####018002510####
SAUS20 KNKA 081153
METAR KOKB 081152Z AUTO 31003KT 8SM OVC014 17/14 A2989 RMK AO2 
    SLP121 70001 T01720144 10183 20172 55002=
METAR KOMA 081152Z 34005KT 10SM FEW020 SCT250 19/18 A3015 RMK AO2 
    SLP203 70020 T01940183 10211 20189 51011=
METAR KORE 081152Z AUTO 15006KT 6SM HZ SCT010 BKN085 24/21 A3009 RMK 
    AO2 SLP186 T02390211 10256 20222 53008=
METAR KPPF 081152Z AUTO 00000KT 10SM BKN007 BKN100 22/21 A3006 RMK 
    AO2 LTG DSNT E SLP170 7//// T02220211 10228 20217 53005=
METAR KPWK 081152Z 21004KT 5SM BR OVC060 23/22 A3004 RMK AO2 
    RAB1056E50 SLP167 P0003 60044 70044 T02330222 10256 20222 53000=
METAR KPYM 081152Z AUTO VRB04KT 10SM BKN008 OVC013 24/21 A3011 RMK 
    AO2 SLP194 T02440206 10244 20206 51009=
METAR KRAP 081152Z AUTO 30004KT 10SM CLR 12/09 A3026 RMK AO2 SLP235 
    T01170089 10122 20094 53003=
METAR KSAW 081150Z 30005KT 7SM BKN008 OVC110 19/17 A2999=
METAR KSGF 081152Z 00000KT 5SM BR FEW004 SCT015 BKN021 23/23 A3008 
    RMK AO2 SLP172 70006 T02280228 10239 20222 53009=
METAR KSOP 081155Z AUTO 00000KT 10SM CLR 26/19 A2999 RMK AO1 10260
     20230 52010=
METAR KSPI 081152Z 00000KT 8SM SCT065 24/23 A3005 RMK AO2 RAE23 
    SLP170 P0000 60015 70015 T02390233 10244 20233 53006=
METAR KSUX 081152Z 32005KT 9SM CLR 17/16 A3017 RMK AO2 SLP212 70001 
    T01720161 10183 20150 53008=
METAR KTAN 081152Z AUTO VRB03KT 10SM OVC010 23/21 A3009 RMK AO2 CIG 
    007V011 SLP187 T02280211 10228 20206 53006=
METAR KTIX 081147Z VRB04KT 7SM SKC 22/19 A3000=
METAR KTKI 081153Z 09003KT 8SM -RA BKN010 OVC018 25/24 A3003 RMK AO2 
    RAB05 CIG 007V014 SLP163 P0000 60000 T02500239 10261 20250 52009=
METAR KTOL 081152Z 00000KT 7SM CLR 24/19 A3005 RMK AO2 SLP168 
    T02390194 10239 20211 50003=
METAR KTRL 081153Z AUTO 11005KT 10SM OVC055 27/23 A3003 RMK AO2 
    SLP162 60000 T02670228 10267 20261 53009=
METAR KTRM 081152Z AUTO 00000KT 10SM CLR 22/12 A2970 RMK AO2 SLP062 
    T02220122 10300 20222 53008=
METAR KTXK 081153Z 00000KT 1/2SM FG VV001 23/23 A3006 RMK AO2 SLP173 
    70013 T02330233 10239 20233 51008=
METAR KUDG 081155Z 34004KT 10SM CLR 26/18 A2998 RMK AO1 10270 20230 
    52003=
METAR KUGN 081152Z VRB04KT 6SM BR FEW022 BKN040 BKN055 23/21 A3002 
    RMK AO2 RAE34 SLP156 P0000 60045 70097 T02280211 10239 20228 
    53002=
METAR KVQQ 081150Z 00000KT 10SM CLR 20/20 A3002 =
METAR KVTN 081152Z AUTO 24006KT 10SM CLR 14/14 A3024 RMK AO2 SLP233 
    T01440139 10167 20139 53003=
####018000143####
SAMX42 KWBC 081145 RRB
METAR
MMSP 081150Z 00000KT 7SM FEW008 BKN015 BKN080 17/17 A3014 RMK
     SLP046 57005 901 8/770 HZY MSGTX MMMM=
####018002890####
SAUS20 KNKA 081153
METAR KDTN 081153Z AUTO 00000KT 10SM CLR 24/23 A3004 RMK AO2 SLP171 
    70014 T02440233 10250 20239 51010=
METAR KDTO 081153Z AUTO 14005KT 10SM CLR 25/23 A3002 RMK AO2 SLP156 
    T02500233 10267 20250 53006=
METAR KDVN 081152Z AUTO 30004KT 3SM BR SCT007 OVC012 23/21 A3005 RMK 
    AO2 SLP171 60000 70099 T02280211 10228 20217 51011=
METAR KEST 081152Z AUTO 31005KT 9SM CLR 17/14 A3016 RMK AO2 SLP207 
    60001 70058 T01670144 10172 20156 53010=
METAR KFDW 081155Z AUTO 33003KT 10SM CLR 25/18 A3002 RMK AO1=
METAR KFIT 081152Z AUTO 15005KT 6SM HZ OVC012 25/22 A3010 RMK AO2 
    SLP189 T02500217 10256 20233 53005=
METAR KGGG 081153Z 09005KT 10SM FEW006 24/24 A3004 RMK AO2 SLP166 
    7//// T02440239 10250 20239 53008=
METAR KGLY 081155Z AUTO 00000KT 5SM  BR OVC006 23/23 A3007 RMK AO2 
     =
METAR KHBR 081153Z AUTO 00000KT 3SM RA BR BKN004 OVC007 23/22 A3010 
    RMK AO2 LTG DSNT SW TSE02RAB15 CIG 002V005 SLP176 P0005 60005 
    70147 T02280222 10233 20228 53010=
METAR KHSA 081151Z 03003KT 7SM CLR 24/24 A3003=
METAR KHUT 081152Z 36008KT 4SM BR OVC004 21/20 A3012 RMK AO2 SLP178 
    70010 T02110200 10217 20211 50000=
METAR KIAD 081152Z 00000KT 5SM HZ SCT055 BKN110 BKN250 27/23 A3002 
    RMK AO2 SLP161 T02720228 10283 20256 51009=
METAR KIEN 081152Z AUTO 00000KT 10SM CLR 07/07 A3029 RMK AO2 SLP249 
    T00720067 10133 20072 53007=
METAR KIJD 081152Z AUTO 15004KT 7SM OVC008 24/22 A3009 RMK AO2 
    SLP186 T02390217 10239 20222 51006=
METAR KIOW 081152Z AUTO 33004KT 10SM CLR 22/20 A3007 RMK AO2 SLP179 
    T02170200 10228 20211 53014=
METAR KISN 081152Z 21003KT 10SM CLR 11/09 A3014 RMK AO2 SLP203 
    T01110094 10161 20100 53007=
METAR KLWC 081152Z AUTO 33004KT 6SM BR CLR 22/21 A3007 RMK AO2 
    SLP174 60000 70001 T02170206 10228 20206 53004=
METAR KLZU 081150Z 00000KT 10SM SKC 23/18 A3006=
METAR KMDH 081152Z 21005KT 10SM SCT070 26/23 A3006 RMK AO2 SLP174 
    70003 T02560228 10256 20233 51006=
METAR KMEB 081152Z AUTO 35004KT 10SM CLR 25/17 A2997 RMK AO2 SLP144 
    T02500172 10256 20228 53008=
METAR KMEZ 081155Z AUTO 00000KT 4SM RA BKN012 BKN017 OVC025 26/23 
     A3008 RMK AO2=
METAR KMFD 081152Z 00000KT 4SM HZ CLR 24/19 A3010 RMK AO2 SLP182 
    T02390189 10239 20194 52002=
METAR KMHK 081152Z AUTO 01005KT 5SM BR SCT021 22/21 A3010 RMK AO2 
    SLP183 70001 T02220206 10222 20211 54000=
METAR KMKE 081152Z 24004KT 7SM SCT007 OVC016 23/21 A3002 RMK AO2 
    RAE21 SLP160 P0000 60002 70076 T02330211 10244 20228 53007=
METAR KMLI 081152Z 30003KT 4SM BR OVC011 23/22 A3004 RMK AO2 CIG 
    006V015 SLP169 60001 7//// T02330222 10233 20222 53010 $=
METAR KMWH 081152Z AUTO 35004KT 10SM CLR 13/07 A3002 RMK AO2 SLP160 
    T01330067 10206 20133 53005=
METAR KOAJ 081155Z AUTO 36004KT 5SM CLR 25/23 A2995 RMK AO1 10250
     20220 52014=
####018000133####
SAUS46 KSGX 081153
MTRCZZ
METAR KCZZ 081152Z AUTO 00000KT 08/07 A2988 RMK AO2 SLP093 T00780072 
10128 20072 55001 PWINO TSNO
####018000083####
SAUS31 KWBC 081100 RRD
METAR
KSWF 081145Z VRB04KT 4SM HZ SCT100 26/22 A3007=
####018000078####
SAXX99 KWBC 081100 RRX
METAR
KGYH 081147Z 00000KT 10SM CLR 24/21 A3005=
####018000074####
SAGI32 EGRR 081150
METAR LXGB 081150Z 08009KT CAVOK 26/17 Q1016 NOSIG=
####018000078####
SAMZ40 FQMA 081200
METAR FQBR 081200Z 19008KT 9999 FEW020 24/17 Q1024=

####018000303####
SASW32 LSSW 081150
METAR LSGC 081150Z NIL=
METAR LSGS 081150Z 25012KT 9999 FEW100 29/14 Q1020=
METAR LSZG 081150Z VRB03KT 9999 FEW050 27/13 Q1021 NOSIG=
METAR LSZR 081150Z 33004KT 280V020 CAVOK 25/13 Q1022 NOSIG RMK I=
METAR LSZS 081150Z VRB05KT CAVOK 25/07 Q1026=
METAR LSZC 081150Z NIL=
####018000964####
SAUS43 KWBC 081100 RRL
METAR
KFOA 081145Z AUTO 00000KT 5SM BR CLR 26/25 A3005=
KFWC 081145Z AUTO 00000KT 7SM CLR 24/22 A3005=
KGBG 081145Z AUTO 30005KT 5SM BR OVC004 23/22 A3005=
KHSB 081145Z AUTO 00000KT 4SM BR CLR 23/22 A3006=
KIGQ 081140Z AUTO 00000KT 4SM VCTSBR BKN065 OVC080 24/22 A3003=
KIJX 081145Z AUTO 00000KT 2 1/2SM BR CLR 24/23 A3004=
KIKK 081145Z AUTO 00000KT 2SM VCTSRA SCT019 BKN035 OVC085 26/23
     A3003=
KMQB 081145Z AUTO 00000KT 7SM SCT004 23/23 A3006=
KMWA 081148Z 19004KT 15SM SCT070 BKN250 26/24 A3007=
KPNT 081145Z AUTO 00000KT 2 1/2SM BR SCT004 BKN035 OVC085 23/22
     A3004=
KPRG 081145Z AUTO 00000KT 3SM BR CLR 22/22 A3006=
KSAR 081145Z AUTO 19006KT 7SM SCT065 BKN085 26/23 A3005=
KSLO 081143Z AUTO 21004KT 10SM CLR 25/22 A3006=
KTAZ 081145Z AUTO 00000KT 3SM BR CLR 23/23 A3003=
KTIP 081145Z AUTO 00000KT 7SM SCT090 SCT110 24/23 A3006=
KVYS 081145Z AUTO 21004KT 5SM BR BKN017 OVC022 23/22 A3004=
####018000172####
SAUS44 KWBC 081100 RRH
METAR
K11R 081146Z AUTO 06004KT 5SM BR BKN006 BKN090 24/23 A2996=
KBYY 081146Z AUTO 08007KT 7SM -RA BKN016 BKN029 BKN035 26/26
     A2989=
####018000128####
SAUS43 KBIS 081154
MTRN60
METAR KN60 081152Z AUTO 00000KT 12/11 A3012 RMK AO1 SLP199 70002 
T01220106 10156 20106 53007
####018000139####
SAUS43 KFSD 081154
MTR9V9
METAR K9V9 081152Z AUTO 27003KT 15/13 A3020 RMK AO2 SLP218 70004 
T01500128 10183 20139 53003 PWINO TSNO
####018000099####
SAUS52 KWBC 081100 RRG
METAR
KSEP 081145Z AUTO 08003KT 7SM SCT012 SCT018 BKN035 23/21 A3004=
####018000476####
SADN31 EKCH 081150
METAR EKCH 081150Z 16014KT CAVOK 23/15 Q1020 NOSIG=
METAR EKBI 081150Z NIL=
METAR EKYT 081150Z 18011KT 9999 -RA FEW017 BKN023 20/15 Q1018
TEMPO 7000 BKN012=
METAR EKRK 081150Z AUTO 22013KT 9999NDV BKN050/// 25/10 Q1019=
METAR EKAH 081150Z AUTO 19004KT 140V270 9999NDV RERA  BKN067///
21/17 Q1019=
METAR EKEB 081150Z AUTO 24010KT 9999NDV BKN066/// BKN082///
20/16 Q1019=
METAR EKRN 081150Z AUTO 20004KT 170V240 9999NDV NCD 20/15 Q1022=
####018000084####
SAMP31 LMMM 081200 RRA
METAR HLLT 081150Z 36007KT 310V050 8000 SKC 32/19 Q1018=
####018000158####
SAGG31 UGTB 081150
METAR UGKO 081100Z 27004KT 9999 SCT050CB SCT100 31/23 Q1010 NOSIG=
METAR UGSB 081100Z 33006KT 9999 SCT020CB SCT070 28/22 Q1010 NOSIG=
####018000483####
SAFI31 EFHK 081150
METAR EFHK 081150Z 29009KT 9999 FEW036 SCT050 27/18 Q1014 NOSIG=
EFJY 081150Z 09003KT 9999 SCT025 SCT080 23/17 Q1015=
METAR EFKU 081150Z AUTO 31006KT CAVOK 23/17 Q1015=
EFOU 081150Z 16005KT 110V220 9999 FEW040 BKN200 22/10 Q1015=
METAR EFRO 081150Z AUTO VRB03KT CAVOK 21/09 Q1016=
EFTP 081150Z VRB05KT 9999 FEW045 SCT200 25/14 Q1015=
METAR EFTU 081150Z AUTO VRB04KT CAVOK 27/09 Q1015=
EFVA 081150Z 18006KT 140V220 9999 FEW030 SCT200 25/12 Q1014=
####018000274####
SAGL31 BGSF 081150
METAR BGSF 081150Z VRB03KT 9999 FEW070 14/01 Q1008=
METAR BGBW 081153Z NIL=
METAR BGGH 081153Z NIL=
METAR BGJN 081150Z 32004KT 280V040 9999 0600NE PRFG FEW001 07/04 
Q1009 RMK 1ST =
METAR BGKK 081150Z VRB05KT 9999 FEW080 SCT120 08/03 Q1009=
####018000194####
SAUS53 KWBC 081100 RRL
METAR
KAID 081148Z 00000KT 7SM SCT060 SCT070 23/20 A3007 FIRST=
KEHA 081148Z AUTO 02007KT 17/17=
KLNC 081145Z AUTO 00000KT 7SM SCT031 SCT048 OVC110 24/24 A3002=
####018000126####
SAUS42 KJAX 081154
MTRNRB
METAR KNRB 081152Z 26004KT 10SM CLR 24/22 A3001 RMK AO2 SLP162 
T02440217 10244 20222 53009
####018000702####
SASN31 ESWI 081150
METAR ESGG 081150Z 21012KT 3600 RA BR FEW005 SCT016 BKN020CB 16/15
Q1020=
METAR ESGJ 081150Z AUTO 22013KT 9999NDV FEW042/// BKN062/// 24/10
Q1019=
METAR ESGP 081150Z 19013KT 8000 DZ BKN008 OVC014 17/16 Q1019=
METAR ESGT 081150Z 22016KT 9999 BKN026 19/14 Q1018=
METAR ESMK 081150Z 21008KT 160V240 CAVOK 26/11 Q1020=
METAR ESMQ 081150Z 17012KT CAVOK 23/14 Q1019=
METAR ESMS 081150Z 18011KT CAVOK 24/10 Q1021=
METAR ESMT 081150Z AUTO 18010KT 9999NDV OVC049/// 22/14 Q1020=
METAR ESMX 081150Z 18011KT CAVOK 25/11 Q1020=
METAR ESTA 081150Z 16013KT CAVOK 23/15 Q1020=
METAR ESTL 081150Z AUTO 20010KT 160V230 9999NDV FEW033///
SCT053/// BKN069/// 24/12 Q1020=
####018000159####
SAGG31 UGTB 081150
METAR UGKO 081100Z 27004KT 9999 SCT050CB SCT100 31/23 Q1010 NOSIG=
METAR UGSB 081100Z 33006KT 9999 SCT020CB SCT070 28/22 Q1010 NOSIG=
####018000081####
SAMJ41 LWSK 081200
METAR LWSK 081200Z 35010KT 9999 BKN040 18/11 Q1020 NOSIG=
####018000113####
SAUS73 KWBC 081100 RRJ
METAR
KIKK 081145Z AUTO 00000KT 2SM VCTSRA SCT019 BKN035 OVC085 26/23
     A3003=
####018000135####
SAUS45 KMSO 081154
MTRP69
METAR KP69 081152Z AUTO 00000KT 11/10 A3013 RMK AO2 SLP185 T01110100 
10150 20111 52009 PWINO TSNO $
####018000459####
SAXN17 KAWN 081200
METAR MMCN 081147Z 00000KT 10SM SCT120 BKN200 26/20 A2973 RMK SLP068
      8/056 RTS=
METAR MMSP 081150Z 00000KT 7SM FEW008 BKN015 BKN080 17/17 A3014 RMK
      SLP046 57005 901 8/770 HZY MSGTX MMMM=
METAR MPTO 081200Z 00000KT 9999 FEW018 25/24 Q1011=
METAR MSSS 081150Z 34002KT 9999 FEW020 BKN120 21/20 Q1015 A2997 SCT300=
PAEH SA 1155 AWOS CLR BLO 120 10 47/-20/1404/998=
PATC SA 1155 AWOS CLR BLO 120 10 45/43/0110/014=
####018000539####
SARS18 KAWN 081200
METAR EETN 081150Z 30010KT CAVOK 24/18 Q1014 NOSIG=
METAR EETU 081150Z 32003KT 300V010 9999 VCSH FEW029CB SCT033 26/20
      Q1013=
METAR EFHK 081150Z 29009KT 9999 FEW036 SCT050 27/18 Q1014 NOSIG=
METAR EVLA 081150Z VRB06KT CAVOK 22/14 Q1018=
METAR EVRA 081150Z 32010KT 280V340 9999 OVC021 20/15 Q1015 NOSIG=
METAR EYKA 081150Z VRB06KT 8000 -RA OVC029 17/14 Q1016=
METAR EYPA 081150Z 33007KT CAVOK 21/16 Q1019=
METAR EYVI 081150Z 28013KT 260V320 4000 -SHRA BKN005 OVC014CB 15/14
      Q1015 NOSIG=
####018000745####
SAXX70 KAWN 081200 RRB
METAR KQEL 081150Z AUTO 00003KT 4SM -SHRA BKN026 22/20 A2974 RMK A02=
METAR KQEW 081150Z AUTO 30001KT 7SM FEW100 25/21 A2982 RMK A02=
METAR KQFB 081150Z AUTO 29004KT 3SM BR FEW005 FEW021 24/21 A2994 RMK
      A02=
METAR KQDD 081155Z AUTO VRB02KT 9000 CLR 31/11 A2982 RMK AO2 SLP096=
METAR KQFS 081155Z AUTO 16005G11KT 5000 BR OVC065 24/21 A2982 RMK AO2
      SLP093 60024 T02370211 10310 20221 53008 $=
METAR KQSA 081155Z VRB04KT 9999 FEW120 35/04 A2990 RMK SLP300 WND DATA
      ESTMD ALSTG/SLP ESTMD 57023=
METAR KQTX 081155Z 32006G17KT 9999 CLR 44/M02 A2966 RMK SLP015 56007=
METAR KQVF 081155Z AUTO 18013G22KT 150V210 12SM FEW030 28/19 A2998
      RMK AO2 SLP150 T02750189 10286 20242 56025=
####018000117####
SAMO31 ZMUB 081200
METAR ZMUB 081200Z 15010MPS 9999 -SHRA SCT030CB SCT033 16/12 Q1007 
 NOSIG RMK QFE649.1 80=
####018000087####
SPCN42 CWAO 081153
SPECI CYUA 081153Z AUTO 23006KT 5SM OVC013 OVC024 05/ A3008=

####018000089####
SAZA42 FAJS 081200
METAR FAJS 081200Z 07007KT 050V130 9999 SCT045 15/03 Q1033 NOSIG=
####018002943####
SAUS20 KNKA 081154
METAR KGLH 081153Z 00000KT 6SM BR CLR 23/23 A3006 RMK AO2 SLP183 
    7//// T02280228 10233 20211 53007=
METAR KGMU 081153Z 00000KT 8SM CLR 28/19 A3006 RMK AO2 SLP165 
    T02780189 10278 20239 53010=
METAR KGPT 081153Z 03003KT 7SM FEW015 27/24 A3003 RMK AO2 SLP169 
    T02670244 10272 20256 53009=
METAR KGRR 081153Z 24004KT 2SM BR FEW006 BKN050 OVC130 24/22 A3004 
    RMK AO2 SLP167 60027 70027 T02390222 10261 20233 55000=
METAR KGSH 081153Z AUTO 00000KT 4SM HZ CLR 24/21 A3005 RMK AO2 
    SLP170 T02440211 10244 20206 50002=
METAR KGSP 081153Z 03003KT 8SM CLR 26/19 A3004 RMK AO2 SLP156 
    T02560194 10256 20217 53010=
METAR KGTR 081150Z 36003KT 10SM SKC 25/23 A3007=
METAR KGVL 081153Z AUTO 32003KT 10SM CLR 24/20 A3009 RMK AO2 SLP169 
    T02390200 10244 20228 53006=
METAR KGWO 081153Z AUTO 00000KT 10SM CLR 23/23 A3007 RMK AO2 SLP179 
    70011 T02330228 10239 20217 53006=
METAR KHBG 081153Z AUTO 00000KT 8SM CLR 24/23 A3005 RMK AO2 SLP171 
    T02390233 10244 20228 51008=
METAR KHDE 081150Z AUTO 34003KT 10SM BKN085 16/15 A3023 RMK AO2 
     T01610145 10165 20152=
METAR KHGR 081153Z 29004KT 4SM HZ CLR 26/17 A3004 RMK AO2 SLP174 
    T02560172 10267 20239 51005=
METAR KHHR 081153Z AUTO 00000KT 10SM OVC012 17/13 A2990 RMK AO2 
    SLP125 T01670133 10178 20167 55003=
METAR KHIO 081153Z AUTO 00000KT 10SM CLR 14/11 A2989 RMK AO2 SLP119 
    T01390111 10228 20133 53005=
METAR KHJH 081150Z AUTO 36005KT 10SM OVC029 19/18 A3018 RMK AO2 
     T01930175 10203 20191=
METAR KHJO 081153Z AUTO 31007KT 10SM CLR 18/12 A2982 RMK AO2 SLP099 
    T01830117 10256 20183 53004=
METAR KHKA 081153Z AUTO 22005KT 5SM HZ CLR 26/23 A3007 RMK AO2 
    SLP179 T02560228 10272 20244 52005=
METAR KHKS 081153Z AUTO 00000KT 8SM CLR 24/23 A3008 RMK AO2 SLP175 
    T02440228 10244 20233 53010=
METAR KHKY 081153Z 31003KT 10SM CLR 23/18 A3006 RMK AO2 SLP153 6//// 
    7//// T02330183 10244 20222 53007 PNO=
METAR KHLG 081153Z 00000KT 2 1/2SM BR CLR 23/21 A3010 RMK AO2 SLP185 
    T02280206 10239 20206 51005=
METAR KHOT 081153Z AUTO 00000KT 9SM OVC008 24/23 A3008 RMK AO2 CIG 
    004V012 SLP180 70022 T02440233 10244 20239 52011=
METAR KHOU 081153Z 16003KT 10SM FEW029 SCT036 BKN090 24/23 A2992 RMK 
    AO2 RAB23E49 SLP137 P0022 60022 70110 T02440228 10278 20244 
    53006=
METAR KHQM 081153Z AUTO 27009KT 10SM 13/13 A2995 RMK AO2 SLP146 
    T01330128 10256 20133 51011 $=
METAR KHRI 081153Z AUTO 00000KT 10SM CLR 11/07 A2996 RMK AO2 SLP139 
    T01060072 10200 20106 53008=
METAR KHRL 081152Z 35008KT 10SM CLR 26/26 A2977 RMK AO2 RAE1057 
    SLP082 P0000 60004 70004 T02560256 10267 20250 55002=
METAR KHRO 081153Z AUTO 00000KT 10SM FEW040 OVC080 23/21 A3010 RMK 
    AO2 SLP176 7//// T02280211 10233 20217 53012=
METAR KHSV 081153Z 00000KT 10SM FEW250 25/23 A3008 RMK AO2 SLP178 
    T02500233 10261 20233 53010=
####018002907####
SAUS20 KNKA 081154
METAR KBPT 081153Z 08011KT 8SM SCT009 26/25 A2996 RMK AO2 SLP145 
    60000 70082 T02610250 10267 20256 53008 $=
METAR KBRO 081153Z 31005KT 10SM FEW020 26/25 A2977 RMK AO2 SLP078 
    60001 70037 T02610250 10272 20261 56002=
METAR KBTA 081150Z AUTO 35006KT 7SM SCT016 19/17 A3016 RMK AO2 
     70013 T01850170 10201 20183=
METAR KBTL 081153Z 00000KT 7SM CLR 24/21 A3006 RMK AO2 SLP170 
    T02440211 10244 20217 50002=
METAR KBUR 081153Z 00000KT 7SM OVC009 16/13 A2989 RMK AO2 SLP112 
    T01560128 10161 20156 55004=
METAR KBVN 081150Z AUTO 00000KT 10SM OVC090 17/15 A3021 RMK AO2 
     70002 T01670151 10167 20155=
METAR KBWG 081153Z AUTO 00000KT 6SM BR CLR 24/22 A3007 RMK AO2 
    SLP177 T02390217 10278 20228 50004=
METAR KCAK 081151Z 00000KT 5SM HZ CLR 24/19 A3010 RMK AO2 SLP181
     T02440194 10244 20206 50004=
METAR KCCR 081153Z AUTO 24004KT 10SM SCT013 13/09 A2990 RMK AO2 
    SLP112 T01280094 10144 20128 55003=
METAR KCHO 081153Z 00000KT 4SM HZ FEW090 27/19 A3002 RMK AO2 SLP158 
    T02670194 10267 20217 53005=
METAR KCLL 081153Z AUTO 07008KT 8SM OVC007 25/23 A2997 RMK AO2 
    SLP142 T02500228 10256 20250 53006=
METAR KCLM 081153Z AUTO A2998 RMK AO2 SLPNO 6//// 7//// 53003 PWINO 
    FZRANO $=
METAR KCMI 081153Z 22004KT 7SM BKN070 24/23 A3005 RMK AO2 SLP167 
    60000 T02440228 10256 20222 53004=
METAR KCNM 081153Z AUTO 33006KT 9SM -RA SCT017 OVC110 19/18 A3015 
    RMK AO2 RAB1051 SLP154 P0014 60052 70110 T01940183 10228 20194 $=
METAR KCNO 081153Z AUTO 24005KT 4SM BR OVC011 15/13 A2991 RMK AO2 
    SLP122 T01500128 10161 20133 56004=
METAR KCOT 081153Z AUTO 02006KT 10SM BKN055 25/23 A2990 RMK AO2 
    SLP117 60000 7//// T02500228 10250 20244 51004=
METAR KCRP 081151Z 05009KT 5SM TSRA BR FEW008 BKN018CB BKN036
     26/25 A2983 RMK AO2 TSB32RAB27 SLP101 OCNL LTGIC S-W TS S-W
     MOV W P0029 60101 7//// T02560250 10267 20256 53003 $=
METAR KCRQ 081153Z AUTO 00000KT 10SM OVC013 17/14 A2989 RMK AO2 
    SLP119 70005 T01720139 10172 20167 55002=
METAR KCSV 081153Z AUTO 00000KT 6SM HZ CLR 23/18 A3016 RMK AO2 
    SLP186 T02330183 10233 20206 52008=
METAR KCWF 081150Z 06006KT 7SM SKC 24/24 A3000=
METAR KCXO 081153Z 00000KT 7SM FEW006 SCT019 24/23 A2997 RMK AO2 
    SLP145 70026 T02390233 10244 20239 53009=
METAR KDAG 081153Z AUTO 27009KT 10SM CLR 22/02 A2987 RMK AO2 SLP085 
    T02170017 10289 20217 53006 TSNO $=
METAR KDAN 081153Z AUTO 00000KT 4SM HZ FEW090 27/19 A3002 RMK AO2 
    SLP152 T02720194 10272 20228 50007=
METAR KDBQ 081153Z 30004KT 4SM BR BKN003 OVC016 21/21 A3007 RMK AO2 
    SLP178 60000 70064 T02060206 10206 20200 51009=
METAR KDCU 081153Z AUTO 00000KT 9SM CLR 25/21 A3008 RMK AO2 SLP179 
    T02500211 10256 20222 53009=
METAR KDEW 081153Z AUTO 01004KT 10SM CLR 13/07 A3007 RMK AO2 SLP173 
    T01280072 10178 20128 50001=
####018002941####
SAUS20 KNKA 081154
METAR KDHT 081153Z AUTO 34005KT 10SM BKN100 OVC110 17/16 A3024 RMK 
    AO2 RAB1055E45 SLP188 P0000 60000 T01670156 10194 20161 58006=
METAR KDLS 081153Z AUTO 00000KT 10SM CLR 14/06 A2996 RMK AO2 SLP144 
    T01390056 10233 20139 53006=
METAR KDMN 081153Z AUTO 07003KT 10SM CLR 21/13 A3013 RMK AO2 SLP119 
    60000 T02110128 10228 20211 51005=
METAR KDRT 081153Z AUTO 00000KT 9SM SCT019 SCT024 BKN038 24/22 A2996 
    RMK AO2 SLP128 T02440222 10267 20239 53010=
METAR KDVO 081150Z AUTO 00000KT 10SM BKN012 12/11 A2992 RMK AO2=
METAR KDVT 081153Z 14003KT 10SM CLR 28/00 A2980 RMK AO2 SLP061 
    T02780000 10339 20267 53007=
METAR KDWH 081153Z 06008KT 6SM BR BKN007 BKN020 BKN055 24/24 A2995 
    RMK AO2 CIG 005V011 SLP140 70045 T02440239 10256 20244 53007=
METAR KEET 081153Z AUTO 00000KT 7SM CLR 26/22 A3006 RMK AO2 SLP171 
    T02560222 10267 20233 51008=
METAR KELN 081153Z AUTO 00000KT 10SM CLR 12/07 A3005 RMK AO2 SLP165 
    7//// T01220067 10206 20117 52005 $=
METAR KENW 081153Z 24005KT 7SM BKN018 OVC023 23/22 A3003 RMK AO2 
    RAB1055E28 SLP165 P0001 60008 70361 T02280217 10233 20222 53005 
    $=
METAR KEPH 081153Z AUTO 31010KT 10SM CLR 21/04 A3001 RMK AO2 SLP151 
    T02060044 10239 20194 53003=
METAR KEQY 081153Z AUTO 33004KT 8SM SCT100 27/18 A3001 RMK AO2 
    SLP156 T02670183 10267 20228 53006=
METAR KESF 081153Z AUTO 00000KT 6SM BR SCT011 24/23 A3004 RMK AO2 
    SLP170 70002 T02390228 10239 20222 53010=
METAR KFAT 081153Z 30007KT 10SM CLR 19/10 A2982 RMK AO2 SLP095 
    T01940100 10261 20194 53003=
METAR KFAY 081153Z AUTO 02008KT 7SM CLR 27/19 A2996 RMK AO2 SLP136 
    T02720189 10289 20244 53011=
METAR KFFC 081153Z AUTO 00000KT 8SM CLR 22/19 A3006 RMK AO2 SLP170 
    T02220194 10222 20200 53007=
METAR KFHR 081153Z AUTO 00000KT 10SM CLR 13/10 A2998 RMK AO2 SLP151 
    T01330100 10161 20122 51002=
METAR KFLD 081153Z AUTO 23003KT 9SM SCT007 BKN015 22/21 A3002 RMK 
    AO2 SLP161 60006 70035 T02170206 10228 20211 51009=
METAR KFMN 081153Z 10005KT 10SM CLR 18/06 A3024 RMK AO2 SLP171 
    T01780056 10228 20178 53013=
METAR KFSM 081153Z 00000KT 10SM BKN032 25/22 A3004 RMK AO2 SLP167 
    T02500222 10250 20239 53007=
METAR KFTW 081153Z 11005KT 10SM BKN010 OVC015 25/23 A3001 RMK AO2 
    CIG 008V012 SLP152 T02500233 10261 20250 51009=
METAR KFTY 081153Z 00000KT 7SM CLR 23/19 A3005 RMK AO2 SLP165 
    T02330194 10233 20200 53006=
METAR KFUL 081153Z 00000KT 9SM OVC017 17/12 A2989 RMK AO2 SLP119 
    T01670122 10172 20161 55004=
METAR KFYV 081153Z 00000KT 10SM FEW020 BKN030 22/22 A3008 RMK AO2 
    RAB27E44 SLP173 P0000 60000 T02220217 10233 20217 53008=
METAR KGEG 081153Z 05006KT 10SM CLR 17/08 A3007 RMK AO2 SLP166 
    T01670078 10222 20161 52001=
METAR KGKY 081153Z 12003KT 10SM FEW009 OVC017 25/23 A3003 RMK AO2 
    RAE11 SLP158 P0000 60000 T02500233 10256 20244 53009=
####018002910####
SAUS20 KNKA 081154
METAR KIBM 081150Z AUTO 27003KT 7SM BKN070 BKN080 12/12 A3032 RMK 
     AO2 T01230115 10127 20120=
METAR KILM 081153Z 01003KT 8SM CLR 26/21 A2992 RMK AO2 SLP133 60001 
    70002 T02610206 10261 20239 51010=
METAR KIPL 081153Z AUTO 19003KT 10SM CLR 25/16 A2969 RMK AO2 SLP056 
    T02500161 10306 20250 51006=
METAR KJBR 081153Z AUTO 00000KT 10SM CLR 25/23 A3006 RMK AO2 SLP176 
    T02500228 10272 20244 51006 $=
METAR KJCT 081151Z AUTO 00000KT 7SM BKN011 22/21 A3002 RMK AO2
     SLP126 60000 T02220211 10239 20217 53004 TSNO=
METAR KJWG 081152Z AUTO 04004KT 7SM CLR 22/22 A3010 RMK AO2=
METAR KJYR 081150Z AUTO 00000KT 10SM CLR 16/15 A3019 RMK AO2=
METAR KLAL 081152Z 00000KT 12SM SKC 24/21 A2999=
METAR KLCG 081150Z AUTO 00000KT 10SM CLR 15/14 A3020 RMK AO2 
     T01470140 10165 20141=
METAR KLBX 081153Z AUTO 09005KT 8SM SCT024 26/25 A2990 RMK AO2 RAE01 
    SLP126 P0000 60021 70142 T02610250 10278 20250 53008=
METAR KLCH 081153Z 07007KT 9SM OVC011 26/24 A2999 RMK AO2 SLP162 
    70002 T02560239 10261 20250 53009=
METAR KLFK 081153Z AUTO 09005KT 10SM CLR 25/23 A3001 RMK AO2 SLP158 
    70173 T02500233 10250 20244 53008=
METAR KLFT 081153Z 07003KT 10SM OVC004 25/24 A3001 RMK AO2 SLP163 
    70033 T02500239 10250 20250 53010=
METAR KLGB 081153Z 28004KT 10SM OVC013 17/13 A2990 RMK AO2 SLP124 
    T01670133 10172 20167 55004=
METAR KLHM 081151Z AUTO 17008KT 10SM CLR 16/11 A2983 RMK AO1 
     T01550110 10222 20155=
METAR KLIT 081153Z 18003KT 10SM BKN150 BKN250 24/23 A3008 RMK AO2 
    SLP184 70002 T02440233 10250 20239 53009 $=
METAR KLLQ 081153Z AUTO 00000KT 7SM CLR 23/23 A3008 RMK AO2 SLP181 
    70074 T02330228 10233 20228 51008=
METAR KLMT 081153Z AUTO 30005KT 10SM CLR 16/11 A3006 RMK AO2 SLP130 
    70019 T01610106 10217 20161 53006=
METAR KLOL 081153Z AUTO 05005KT 10SM CLR 17/M04 A3000 RMK AO2 SLP114 
    T01671044 10272 20156 51006=
METAR KLVJ 081153Z AUTO 11007KT 10SM SCT022 SCT041 OVC060 25/23 
    A2994 RMK AO2 PK WND 13026/1101 LTG DSNT E TSB20E35RAB02E50 
    SLP136 P0041 60041 70139 T02500233 10283 20250 53006=
METAR KLVK 081153Z AUTO 29006KT 10SM OVC008 13/11 A2990 RMK AO2 
    SLP122 T01280111 10139 20122 57002=
METAR KLVS 081153Z AUTO 02005KT 10SM CLR 10/08 A3040 RMK AO2 SLP221 
    70033 T01000083 10122 20100 53009 TSNO=
METAR KLXN 081150Z AUTO 00000KT 10SM OVC050 17/16 A3024 RMK AO2 
     T01700161 10172 20150=
METAR KMAF 081153Z 02008KT 4SM BR OVC005 21/20 A3009 RMK AO2 SLP146 
    T02060200 10228 20206 53006=
METAR KMCB 081153Z AUTO 00000KT 8SM CLR 24/22 A3006 RMK AO2 SLP172 
    60001 70015 T02390222 10244 20222 53008=
METAR KMCE 081153Z AUTO 33005KT 10SM CLR 16/09 A2982 RMK AO2 SLP097 
    T01610094 10222 20161 55000 $=
METAR KMEM 081153Z 00000KT 10SM FEW150 SCT250 26/23 A3008 RMK AO2 
    SLP179 T02560228 10267 20244 52004=
####018002999####
SAUS20 KNKA 081154
METAR KPMV 081150Z AUTO 33003KT 7SM CLR 20/19 A3014 RMK AO2 
     T01950187 10212 20190=
METAR KABI 081152Z 01003KT 7SM OVC010 22/21 A3007 RMK AO2 CIG
     009V014 SLP161 7//// T02170211 10222 20211 53012 $=
METAR KACV 081153Z AUTO 00000KT 8SM OVC001 10/09 A2996 RMK AO2 
    SLP152 T01000094 10106 20100 50000=
METAR KAEX 081153Z AUTO 08003KT 9SM CLR 24/23 A3002 RMK AO2 SLP168 
    70010 T02440233 10250 20239 53009=
METAR KAGS 081153Z 00000KT 10SM CLR 27/21 A3000 RMK AO2 SLP155 
    T02670206 10267 20211 51005=
METAR KALI 081153Z AUTO 03006KT 10SM CLR 25/24 A2984 RMK AO2 LTG 
    DSNT E RAE41 SLP101 P0003 60023 70024 T02500244 10261 20250 
    55002=
METAR KALW 081153Z AUTO 15005KT 10SM CLR 17/07 A2999 RMK AO2 SLP146 
    T01720072 10217 20161 53008=
METAR KAMA 081153Z 36012G22KT 7SM BKN003 OVC004 17/17 A3021 RMK AO2 
    SLP181 60097 70666 T01720167 10172 20161 53007 $=
METAR KANB 081153Z AUTO 00000KT 8SM CLR 22/20 A3006 RMK AO2 SLP169 
    T02220200 10233 20211 53008=
METAR KAOO 081153Z AUTO 00000KT 3SM HZ CLR 23/18 A3011 RMK AO2 
    SLP184 T02280178 10228 20183 52003=
METAR KASD 081153Z AUTO 03003KT 7SM BKN001 24/23 A3003 RMK AO2 
    SLP168 T02440233 10250 20233 53011=
METAR KAUN 081150Z AUTO 10004KT 10SM CLR 21/14 A2987 RMK AO1=
METAR KAUS 081153Z 04007KT 9SM BKN012 OVC021 26/24 A2996 RMK AO2 
    SLP133 60013 70013 T02560239 10267 20256 53003=
METAR KAWM 081153Z AUTO 00000KT 10SM CLR 24/23 A3006 RMK AO2 SLP174 
    T02440228 10256 20233 52004=
METAR KAZO 081153Z 00000KT 5SM HZ CLR 24/21 A3005 RMK AO2 SLP167 
    T02440211 10244 20222 50002=
METAR KBEH 081153Z AUTO 00000KT 10SM BKN095 24/22 A3003 RMK AO2 
    SLP164 T02390217 10239 20222 56002 $=
METAR KBFD 081153Z AUTO 00000KT 6SM BR CLR 21/18 A3016 RMK AO2 
    SLP194 T02060183 10206 20156 51004=
METAR KBFI 081153Z 00000KT 10SM CLR 19/12 A2995 RMK AO2 SLP140 
    T01890122 10244 20183 51002=
METAR KBFM 081153Z 00000KT 10SM FEW045 24/23 A3005 RMK AO2 SLP174 
    60001 70001 T02440233 10250 20228 51007=
METAR KBHM 081153Z 00000KT 8SM CLR 26/22 A3009 RMK AO2 SLP179 
    T02560222 10267 20233 53011=
METAR KBIE 081150Z AUTO 36006KT 10SM SCT030 19/17 A3015 RMK AO2 
     T01850172 10207 20181=
METAR KBIV 081153Z AUTO 00000KT 6SM BR FEW090 24/22 A3004 RMK AO2 
    RAB19E40 SLP166 P0001 60018 70018 T02440222 10256 20239 56003=
METAR KBKE 081153Z AUTO 00000KT 10SM CLR 04/04 A3012 RMK AO2 SLP184 
    T00440044 10128 20044 53004=
METAR KBLI 081153Z AUTO 00000KT 10SM CLR 14/13 A2997 RMK AO2 SLP154 
    70001 T01390128 10200 20133 52004=
METAR KBMQ 081153Z AUTO 06003KT 10SM FEW013 BKN025 OVC030 24/22 
    A3002 RMK AO2 SLP147 7//// T02390222 10250 20233 53005 $=
METAR KBNA 081153Z 00000KT 10SM FEW180 SCT250 25/22 A3008 RMK AO2 
    SLP178 T02500222 10272 20239 50005=
METAR KBPK 081153Z AUTO 00000KT 8SM BKN060 23/22 A3007 RMK AO2 
    SLP172 70007 T02330217 10244 20222 53008=
####018001689####
SAEW KAWN 081200
METAR EDDB 081150Z 21005KT 180V240 CAVOK 27/06 Q1021 NOSIG=
METAR EDDC 081150Z VRB02KT CAVOK 25/10 Q1022 NOSIG=
METAR EDDE 081150Z VRB02KT CAVOK 27/09 Q1021 NOSIG=
METAR EDDF 081150Z VRB02KT CAVOK 29/10 Q1020 NOSIG=
METAR EDDG 081150Z 25006KT CAVOK 30/10 Q1019 NOSIG=
METAR EDDH 081150Z 22006KT 180V240 CAVOK 29/12 Q1019 NOSIG=
METAR EDDK 081150Z 16007KT CAVOK 31/10 Q1019 NOSIG=
METAR EDDL 081150Z 21005KT 170V240 CAVOK 30/09 Q1019 NOSIG=
METAR EDDM 081150Z 09006KT CAVOK 24/09 Q1022 NOSIG=
METAR EDDN 081150Z 15006KT CAVOK 27/07 Q1022 NOSIG=
METAR EDDP 081150Z VRB03KT CAVOK 27/10 Q1021 NOSIG=
METAR EDDR 081150Z VRB02KT CAVOK 28/10 Q1021 NOSIG=
METAR EDDS 081150Z VRB03KT CAVOK 27/08 Q1021 NOSIG=
METAR EDDT 081150Z 16003KT CAVOK 27/05 Q1021 NOSIG=
METAR EDDV 081150Z 19008KT CAVOK 29/10 Q1019 NOSIG=
METAR EDDW 081150Z 19007KT CAVOK 30/09 Q1019 NOSIG=
METAR EKAH 081150Z AUTO 19004KT 140V270 9999NDV RERA BKN067/// 21/17
      Q1019=
METAR EKCH 081150Z 16014KT CAVOK 23/15 Q1020 NOSIG=
METAR EKEB 081150Z AUTO 24010KT 9999NDV BKN066/// BKN082/// 20/16 Q1019=
METAR EKRN 081150Z AUTO 20004KT 170V240 9999NDV NCD 20/15 Q1022=
METAR EKSB 081150Z 17007KT 140V210 CAVOK 26/11 Q1018=
METAR EKSN 081150Z 18010KT 9999 SCT025 BKN047 20/15 Q1017=
METAR EKYT 081150Z 18011KT 9999 -RA FEW017 BKN023 20/15 Q1018 TEMPO
      7000 BKN012=
METAR ETNG 081150Z 29005KT CAVOK 31/11 Q1019 NOSIG=
METAR LSGG 081150Z 20006KT 130V270 CAVOK 30/12 Q1021 NOSIG=
METAR LSZA 081150Z 19005KT 9999 SCT055 28/15 Q1022 NOSIG=
METAR LSZB 081150Z 31006KT 280V350 CAVOK 29/14 Q1021 NOSIG=
METAR LSZH 081150Z VRB04KT CAVOK 28/10 Q1022 NOSIG=
####018001678####
SAEU KAWN 081200 RRA
METAR EDDB 081150Z 21005KT 180V240 CAVOK 27/06 Q1021 NOSIG=
METAR EDDC 081150Z VRB02KT CAVOK 25/10 Q1022 NOSIG=
METAR EDDE 081150Z VRB02KT CAVOK 27/09 Q1021 NOSIG=
METAR EDDF 081150Z VRB02KT CAVOK 29/10 Q1020 NOSIG=
METAR EDDG 081150Z 25006KT CAVOK 30/10 Q1019 NOSIG=
METAR EDDH 081150Z 22006KT 180V240 CAVOK 29/12 Q1019 NOSIG=
METAR EDDK 081150Z 16007KT CAVOK 31/10 Q1019 NOSIG=
METAR EDDL 081150Z 21005KT 170V240 CAVOK 30/09 Q1019 NOSIG=
METAR EDDM 081150Z 09006KT CAVOK 24/09 Q1022 NOSIG=
METAR EDDN 081150Z 15006KT CAVOK 27/07 Q1022 NOSIG=
METAR EDDP 081150Z VRB03KT CAVOK 27/10 Q1021 NOSIG=
METAR EDDR 081150Z VRB02KT CAVOK 28/10 Q1021 NOSIG=
METAR EDDS 081150Z VRB03KT CAVOK 27/08 Q1021 NOSIG=
METAR EDDT 081150Z 16003KT CAVOK 27/05 Q1021 NOSIG=
METAR EDDV 081150Z 19008KT CAVOK 29/10 Q1019 NOSIG=
METAR EDDW 081150Z 19007KT CAVOK 30/09 Q1019 NOSIG=
METAR EKAH 081150Z AUTO 19004KT 140V270 9999NDV RERA BKN067/// 21/17
      Q1019=
METAR EKCH 081150Z 16014KT CAVOK 23/15 Q1020 NOSIG=
METAR EKRN 081150Z AUTO 20004KT 170V240 9999NDV NCD 20/15 Q1022=
METAR EKSB 081150Z 17007KT 140V210 CAVOK 26/11 Q1018=
METAR EKSN 081150Z 18010KT 9999 SCT025 BKN047 20/15 Q1017=
METAR EKYT 081150Z 18011KT 9999 -RA FEW017 BKN023 20/15 Q1018 TEMPO
      7000 BKN012=
METAR LSGG 081150Z 20006KT 130V270 CAVOK 30/12 Q1021 NOSIG=
METAR LSZA 081150Z 19005KT 9999 SCT055 28/15 Q1022 NOSIG=
METAR LSZB 081150Z 31006KT 280V350 CAVOK 29/14 Q1021 NOSIG=
METAR LSZH 081150Z VRB04KT CAVOK 28/10 Q1022 NOSIG=
METAR LWSK 081200Z 35010KT 9999 BKN040 18/11 Q1020 NOSIG=
METAR LXGB 081150Z 08009KT CAVOK 26/17 Q1016 NOSIG=
####018000142####
SAUS45 KABQ 081154
MTRCQC
METAR KCQC 081153Z AUTO 08008KT 10SM CLR 11/09 A3037 RMK AO2 SLP224 
70321 T01110089 10122 20106 53005 TSNO
####018000152####
SAUS45 KABQ 081154
MTRRTN
METAR KRTN 081153Z AUTO 34009KT 10SM SCT060 SCT075 13/10 A3037 RMK 
AO2 SLP220 70121 T01330100 10150 20133 53005 TSNO
####018000136####
SAUS46 KPQR 081154
MTRBNO
METAR KBNO 081153Z AUTO 26007KT 10SM CLR 08/00 A3013 RMK AO2 SLP170 
T00830000 10150 20072 53003 TSNO
####018000133####
SAUS44 KMAF 081154
MTR6R6
METAR K6R6 081153Z AUTO 06004KT 23/21 A3002 RMK AO2 SLP130 T02280211 
10233 20222 53008 PWINO TSNO
####018000577####
SAHW31 KMSC 081154
METAR PHNL 081153Z 06005KT 10SM FEW030 24/18 A3001 RMK AO2 SLP163 
    60000 70003 T02390178 10250 20239 58012=
METAR PHTO 081153Z 24003KT 10SM SCT028 21/18 A3002 RMK AO2 SLP164 
    60011 70011 T02060178 10250 20206 58013=
METAR PHKO 081153Z AUTO 10007KT 10SM CLR 23/18 A2997 RMK AO2 SLP148 
    T02330183 10256 20233 58008 TSNO=
METAR PHLI 081153Z 07013KT 10SM OVC055 24/18 A3004 RMK AO2 SLP170 
    60002 70003 T02400183 58010 $=
METAR PHJR 081153Z 00000KT 10SM CLR 22/18 A3003 RMK AO2 SLP174 70001 
    T02220178 10250 20222 58010=
####018000987####
SAUS20 KNKA 081154
METAR KUTS 081153Z AUTO 00000KT 5SM BR FEW006 BKN110 24/23 A2999 RMK 
    AO2 SLP150 70036 T02390233 10244 20239 53007=
METAR KVCB 081153Z AUTO 24005KT 10SM CLR 15/10 A2984 RMK AO2 SLP102 
    T01500100 10228 20150 53009=
METAR KVGT 081153Z AUTO 00000KT 10SM CLR 26/M04 A2986 RMK AO2 SLP073 
    T02561039 10322 20244 53008 TSNO=
METAR KVPZ 081153Z AUTO 09005KT 2 1/2SM BR SCT050 BKN060 OVC090 
    22/22 A3004 RMK AO2 LTG DSNT E AND S TSE16RAB1054E43 SLP168 
    P0006 60006 7//// T02220217 10239 20222 50001=
METAR KVUO 081153Z AUTO 00000KT 10SM CLR 16/13 A2989 RMK AO2 SLP123 
    T01610128 10233 20150 53008=
METAR KWVI 081153Z AUTO 00000KT 10SM OVC007 13/11 A2992 RMK AO2 
    SLP132 T01280111 10133 20122 55003=
METAR KXNA 081153Z 15003KT 10SM OVC021 23/22 A3009 RMK AO2 SLP173 
    60001 70020 T02280217 10233 20222 53009=
METAR KYKM 081153Z AUTO 28006KT 10SM CLR 12/07 A3002 RMK AO2 SLP160 
    T01170072 10194 20117 53006=
####018000282####
SACA01 KMSC 081154
METAR TISX 081153Z 09011KT 10SM FEW023 29/24 A3000 RMK AO2 SLP157 
    T02890244 10289 20272 51011=
METAR TIST 081153Z 08008KT 10SM CLR 29/24 A2999 RMK AO2 SLP156 
    T02940244 10294 20272 50007=
METAR TJMZ 081150Z 04006KT 6SM HZ FEW030 28/25 A3002=
####018002984####
SAUS20 KNKA 081154
METAR KMFE 081153Z 35009KT 10SM BKN008 BKN014 OVC041 26/24 A2981 RMK 
    AO2 CIG 006V012 SLP092 70036 T02610244 10272 20256 53002=
METAR KMFR 081153Z AUTO 00000KT 10SM CLR 19/12 A2990 RMK AO2 SLP111 
    T01940122 10289 20194 53009=
METAR KMGW 081153Z 00000KT 5SM HZ CLR 23/19 A3012 RMK AO2 SLP186 
    7//// T02280189 10228 20194 51007=
METAR KMIW 081153Z AUTO 32005KT 10SM CLR 19/18 A3009 RMK AO2 SLP184 
    70097 T01940183 10200 20189 53013=
METAR KMKL 081153Z 00000KT 10SM CLR 23/22 A3009 RMK AO2 SLP182 70002 
    T02330217 10239 20217 53006=
METAR KMLE 081150Z AUTO 31003KT 10SM CLR 19/17 A3015 RMK AO2 
     70118 T01920168 10216 20192=
METAR KMLP 081153Z AUTO 12008G16KT 10SM CLR 13/02 A3027 RMK AO2 
    SLP156 T01280017 10156 20128 55000 TSNO=
METAR KMMH 081150Z AUTO 00000KT 10SM CLR 07/01 A3022 RMK AO1=
METAR KMMV 081153Z AUTO 26004KT 10SM CLR 13/11 A2991 RMK AO2 SLP125 
    T01330106 10244 20133 53010=
METAR KMOD 081153Z AUTO 34004KT 10SM CLR 15/11 A2984 RMK AO2 SLP104 
    T01500106 10217 20150 53001=
METAR KMRB 081153Z AUTO 00000KT 4SM HZ CLR 24/19 A3004 RMK AO2 
    SLP166 7//// T02440189 10278 20206 51006=
METAR KMSL 081153Z AUTO 00000KT 10SM CLR 24/23 A3010 RMK AO2 SLP184 
    70020 T02440228 10250 20228 53008=
METAR KMSY 081153Z 09003KT 9SM FEW016 SCT250 27/23 A3002 RMK AO2 
    SLP168 T02670233 10272 20261 53006=
METAR KMYF 081153Z AUTO 32006KT 10SM OVC015 16/14 A2990 RMK AO2 
    SLP122 T01610139 10167 20156 55000 TSNO=
METAR KMYV 081153Z AUTO 18006KT 10SM CLR 16/11 A2984 RMK AO2 SLP106 
    T01560111 10217 20156 53006=
METAR KNEW 081153Z AUTO 09006KT 10SM CLR 27/25 A3002 RMK AO2 SLP160 
    T02720250 10278 20267 53008 TSNO=
METAR KOAK 081153Z 28008KT 10SM OVC007 14/11 A2993 RMK AO2 SLP133 
    T01440111 10150 20144 55004=
METAR KOGA 081150Z AUTO 00000KT 10SM BKN100 15/14 A3028 RMK AO2 
     T01500140 10167 20150=
METAR KOMK 081153Z AUTO 33005KT 10SM CLR 12/08 A3006 RMK AO2 SLP173 
    T01220078 10200 20117 53003=
METAR KONL 081150Z AUTO 25003KT 10SM CLR 17/15 A3022 RMK AO2 
     70001 T01650151 10168 20145=
METAR KONT 081153Z 22005KT 4SM HZ OVC010 15/12 A2989 RMK AO2 SLP111 
    T01500122 10156 20150 55004=
METAR KORD 081151Z COR 19004KT 6SM BR FEW022 BKN055 OVC200 23/22 
    A3002 RMK AO2 RAE40 SLP160 P0000 60015 70035 T02330222 10239 
    20228 55000=
METAR KORF 081151Z 11005KT 10SM FEW010 SCT055 BKN100 26/23 A2999
     RMK AO2 SLP153 T02610228 10261 20250 53012=
METAR KOSH 081153Z 00000KT 8SM SCT006 22/21 A3001 RMK AO2 SLP148 
    60006 7//// T02220206 10222 20217 51011=
METAR KOVS 081153Z AUTO 00000KT 9SM SCT009 22/20 A3004 RMK AO2 
    SLP170 70031 T02170200 10217 20206 52013=
METAR KOXB 081153Z AUTO 07005KT 10SM BKN110 24/24 A3002 RMK AO2 
    SLP166 60000 T02440239 10244 20239 51012=
METAR KPAE 081153Z AUTO 03003KT 10SM CLR 18/12 A2997 RMK AO2 SLP146 
    T01830117 10222 20178 52001=
####018000239####
SAAK41 KNKA 081154
METAR PATA 081152Z AUTO 00000KT 10SM CLR 07/05 A3005 RMK AO2 SLP176 
    T00720050 10211 20072 58000 TSNO=
METAR PHJR 081153Z 00000KT 10SM CLR 22/18 A3003 RMK AO2 SLP174 70001 
    T02220178 10250 20222 58010=
####018002953####
SAUS20 KNKA 081154
METAR KPAH 081153Z 23005KT 10SM CLR 25/22 A3005 RMK AO2 SLP171 
    T02500222 10250 20228 51006=
METAR KPBF 081153Z AUTO 00000KT 8SM FEW065 24/23 A3007 RMK AO2 
    SLP179 70008 T02390228 10244 20233 51008=
METAR KPDK 081153Z 00000KT 10SM CLR 24/19 A3006 RMK AO2 SLP156 
    T02440194 10250 20217 53007=
METAR KPDT 081153Z AUTO 09007KT 10SM CLR 14/07 A2998 RMK AO2 SLP136 
    T01440067 10206 20133 53005=
METAR KPDX 081153Z 28004KT 10SM CLR 18/13 A2990 RMK AO2 SLP124 70001 
    T01780133 10244 20178 53007=
METAR KPGA 081153Z AUTO 16003KT 10SM CLR 23/03 A3006 RMK AO2 SLP104 
    T02330028 10306 20228 53009=
METAR KPIL 081153Z AUTO 01006KT 10SM FEW015 SCT049 27/24 A2977 RMK 
    AO2 RAB31E41 SLP079 P0000 60010 70010 T02720244 10294 20272 
    57001 $=
METAR KPMD 081153Z AUTO 00000KT 10SM CLR 17/02 A2990 RMK AO2 SLP098 
    T01670017 10244 20167 53000 TSNO $=
METAR KPNA 081150Z AUTO 30005KT 10SM CLR 04/01 A3040 RMK AO2 
     T00390007 10138 20027=
METAR KPQL 081153Z 00000KT 8SM CLR 24/24 A3003 RMK AO2 SLP171 
    T02390239 10244 20233 53009=
METAR KPRB 081153Z AUTO 33008KT 9SM OVC005 12/11 A2991 RMK AO2 
    SLP122 T01220106 10150 20117 53002=
METAR KPRC 081153Z AUTO 00000KT 10SM CLR 17/01 A3010 RMK AO2 SLP103 
    60000 T01670006 10228 20167 53003=
METAR KPSC 081153Z AUTO 00000KT 10SM CLR 16/09 A2997 RMK AO2 SLP146 
    T01610094 10211 20139 53006=
METAR KPSP 081153Z 00000KT 10SM CLR 23/13 A2973 RMK AO2 SLP063 
    T02280128 10294 20228 53002=
METAR KPSX 081153Z AUTO 09011KT 3SM +RA BR FEW002 BKN010 BKN055 
    26/24 A2988 RMK AO2 PK WND 10027/1136 RAB35 SLP118 P0023 60040 
    70048 T02560244 10278 20256 53008=
METAR KPTT 081150Z AUTO 01010KT 4SM BR OVC002 20/20 A3015 RMK AO2=
METAR KPWA 081153Z 35003KT 6SM BR BKN004 22/21 A3007 RMK AO2 SLP166 
    T02220211 10244 20222 53006=
METAR KRAC 081153Z AUTO 21005KT 6SM BR BKN027 BKN033 BKN110 23/22 
    A3003 RMK AO2 RAB1054E41 SLP165 P0000 60005 70116 T02330217 
    10239 20228 53004=
METAR KRAL 081153Z AUTO 28004KT 4SM BR OVC009 15/13 A2990 RMK AO2 
    SLP110 T01500128 10161 20139 55003=
METAR KRBD 081153Z 10006KT 10SM FEW008 BKN011 OVC030 25/23 A3003 RMK 
    AO2 SLP157 T02500233 10256 20250 53010=
METAR KRBG 081153Z AUTO 36003KT 10SM CLR 17/12 A2993 RMK AO2 SLP132 
    T01720117 10239 20172 53007=
METAR KRDD 081153Z AUTO 00000KT 10SM CLR 22/15 A2982 RMK AO2 SLP090 
    T02220150 10278 20217 56005=
METAR KRKP 081153Z AUTO 12004KT 10SM FEW040 SCT050 BKN070 A2983 RMK 
    AO2 RAB1056E47 SLP104 P0015 60024 70052 53003 FZRANO $=
METAR KRMG 081153Z AUTO 00000KT 8SM CLR 22/19 A3005 RMK AO2 SLP166 
    T02170189 10228 20194 52007=
METAR KRNT 081153Z AUTO 00000KT 10SM CLR 16/13 A2995 RMK AO2 SLP145 
    T01560133 10233 20156 53003=
METAR KRUE 081153Z AUTO 00000KT 10SM CLR 24/23 A3007 RMK AO2 SLP173 
    70023 T02390228 10244 20239 53006=
####018002891####
SAUS20 KNKA 081154
METAR KSAC 081153Z 17004KT 10SM CLR 13/10 A2985 RMK AO2 SLP106 
    T01330100 10167 20133 51004=
METAR KSAF 081153Z AUTO 00000KT 10SM CLR 13/10 A3033 RMK AO2 SLP191 
    70013 T01280100 10156 20128 53005=
METAR KSAN 081151Z 33006KT 10SM OVC019 17/13 A2991 RMK AO2 SLP128
     T01670133 10178 20161 55001=
METAR KSAT 081153Z 03004KT 6SM -RA BR BKN013 BKN039 OVC250 25/23 
    A2995 RMK AO2 RAB26 SLP123 P0001 60001 70001 T02500233 10261 
    20250 53001=
METAR KSBA 081153Z 23004KT 9SM OVC011 14/12 A2991 RMK AO2 SLP126 
    7//// T01440122 10144 20122 55000 $=
METAR KSDL 081153Z 00000KT 10SM CLR 29/05 A2982 RMK AO2 SLP065 
    T02890050 10339 20289 53007=
METAR KSEA 081153Z 01003KT 10SM CLR 20/12 A2996 RMK AO2 SLP147 
    T02000117 10261 20183 50001 $=
METAR KSFF 081153Z AUTO 00000KT 10SM CLR 13/10 A3007 RMK AO2 SLP169 
    T01280100 10194 20122 52004=
METAR KSHN 081153Z AUTO 00000KT 10SM CLR 12/09 A2994 RMK AO2 SLP135 
    T01170094 10189 20106 53003=
METAR KSIY 081153Z AUTO 00000KT 10SM CLR 16/07 A2998 RMK AO2 SLP134 
    T01610072 10289 20161 53010 $=
METAR KSJC 081153Z AUTO 31004KT 9SM OVC013 15/12 A2991 RMK AO2 
    SLP128 T01500117 10156 20150 56003=
METAR KSMF 081153Z 14007KT 10SM CLR 13/11 A2983 RMK AO2 SLP101 
    T01330106 10189 20133 53004=
METAR KSNA 081153Z 00000KT 8SM OVC015 18/12 A2989 RMK AO2 SLP122 
    70001 T01830122 10183 20178 55004=
METAR KSNS 081153Z AUTO 25003KT 9SM OVC009 12/11 A2992 RMK AO2 
    SLP141 T01220106 10139 20122 55002=
METAR KSPB 081153Z AUTO 00000KT 10SM CLR 15/12 A2989 RMK AO2 SLP122 
    6//// 7//// T01500117 10239 20144 53007 $=
METAR KSSF 081153Z 03006KT 10SM FEW019 BKN037 OVC055 26/23 A2993 RMK 
    AO2 SLP120 60000 T02610233 10267 20261 53002=
METAR KSTS 081153Z AUTO 00000KT 10SM OVC006 12/10 A2991 RMK AO2 
    SLP121 T01170100 10122 20117 55004=
METAR KTCC 081153Z AUTO 02008KT 10SM BKN015 OVC120 18/16 A3024 RMK 
    AO2 SLP181 60000 70015 T01780156 10178 20172 53007=
METAR KTCL 081153Z 00000KT 6SM BR CLR 25/23 A3006 RMK AO2 SLP175 
    7//// T02500228 10261 20239 53007=
METAR KTIW 081153Z AUTO 00000KT 10SM FEW095 18/12 A2995 RMK AO2 
    SLP138 T01780117 10233 20178 53003=
METAR KTOI 081153Z 00000KT 7SM CLR 23/22 A3005 RMK AO2 SLP169 
    T02280222 10233 20211 53006=
METAR KTTD 081153Z AUTO 00000KT 10SM FEW080 17/14 A2988 RMK AO2 
    SLP119 T01670144 10261 20161 53007=
METAR KTUS 081153Z 09004KT 10SM CLR 29/09 A2991 RMK AO2 SLP070 
    T02890094 10339 20283 51008=
METAR KTVL 081153Z AUTO 18004KT 10SM CLR 09/05 A3016 RMK AO2 SLP155 
    T00890050 10161 20083 55001=
METAR KTVR 081153Z AUTO 00000KT 3SM BR CLR 23/22 A3006 RMK AO2 
    SLP184 70021 T02280217 10239 20222 53011 $=
METAR KUAO 081153Z AUTO 00000KT 10SM CLR 16/12 A2990 RMK AO2 SLP124 
    T01610122 10250 20161 53011=
####018000131####
SAUS45 KRIW 081154
MTRLND
METAR KLND 081153Z AUTO 00000KT 10SM CLR 09/03 A3034 RMK AO2 SLP229 
T00940033 10139 20072 53005
####018000126####
SAUS43 KFGF 081154
MTRFAR
METAR KFAR 081153Z 21004KT 10SM CLR 16/13 A3008 RMK AO2 SLP185 
T01610128 10172 20133 53006
####018000136####
SAUS46 KSEW 081154
MTRUIL
METAR KUIL 081153Z AUTO 09006KT 10SM CLR 16/10 A2994 RMK AO2 SLP138 
T01560100 10200 20139 53004 TSNO
####018000082####
SPCN48 CWAO 081153
SPECI CYPH 081153Z AUTO 25015KT 9SM OVC004 07/07 A2981=

####018003667####
SAUS99 KWBC 081155 RRA
METAR
KHSA 081151Z 03003KT 7SM CLR 24/24 A3003=
KHUT 081152Z 36008KT 4SM BR OVC004 21/20 A3012 RMK AO2 SLP178
     70010 T02110200 10217 20211 50000=
KIAD 081152Z 00000KT 5SM HZ SCT055 BKN110 BKN250 27/23 A3002 RMK
     AO2 SLP161 T02720228 10283 20256 51009=
KIEN 081152Z AUTO 00000KT 10SM CLR 07/07 A3029 RMK AO2 SLP249
     T00720067 10133 20072 53007=
KIJD 081152Z AUTO 15004KT 7SM OVC008 24/22 A3009 RMK AO2 SLP186
     T02390217 10239 20222 51006=
KIOW 081152Z AUTO 33004KT 10SM CLR 22/20 A3007 RMK AO2 SLP179
     T02170200 10228 20211 53014=
KISN 081152Z 21003KT 10SM CLR 11/09 A3014 RMK AO2 SLP203 T01110094
     10161 20100 53007=
KLWC 081152Z AUTO 33004KT 6SM BR CLR 22/21 A3007 RMK AO2 SLP174
     60000 70001 T02170206 10228 20206 53004=
KLZU 081150Z 00000KT 10SM SKC 23/18 A3006=
KMDH 081152Z 21005KT 10SM SCT070 26/23 A3006 RMK AO2 SLP174 70003
     T02560228 10256 20233 51006=
KMEB 081152Z AUTO 35004KT 10SM CLR 25/17 A2997 RMK AO2 SLP144
     T02500172 10256 20228 53008=
KMEZ 081155Z AUTO 00000KT 4SM RA BKN012 BKN017 OVC025 26/23 A3008
     RMK AO2=
KMFD 081152Z 00000KT 4SM HZ CLR 24/19 A3010 RMK AO2 SLP182
     T02390189 10239 20194 52002=
KMHK 081152Z AUTO 01005KT 5SM BR SCT021 22/21 A3010 RMK AO2 SLP183
     70001 T02220206 10222 20211 54000=
KMKE 081152Z 24004KT 7SM SCT007 OVC016 23/21 A3002 RMK AO2 RAE21
     SLP160 P0000 60002 70076 T02330211 10244 20228 53007=
KMLI 081152Z 30003KT 4SM BR OVC011 23/22 A3004 RMK AO2 CIG 006V015
     SLP169 60001 7//// T02330222 10233 20222 53010 $=
KMWH 081152Z AUTO 35004KT 10SM CLR 13/07 A3002 RMK AO2 SLP160
     T01330067 10206 20133 53005=
KOAJ 081155Z AUTO 36004KT 5SM CLR 25/23 A2995 RMK AO1 10250 20220
     52014=
KOKB 081152Z AUTO 31003KT 8SM OVC014 17/14 A2989 RMK AO2 SLP121
     70001 T01720144 10183 20172 55002=
KOMA 081152Z 34005KT 10SM FEW020 SCT250 19/18 A3015 RMK AO2 SLP203
     70020 T01940183 10211 20189 51011=
KORE 081152Z AUTO 15006KT 6SM HZ SCT010 BKN085 24/21 A3009 RMK AO2
     SLP186 T02390211 10256 20222 53008=
KPPF 081152Z AUTO 00000KT 10SM BKN007 BKN100 22/21 A3006 RMK AO2
     LTG DSNT E SLP170 7//// T02220211 10228 20217 53005=
KPWK 081152Z 21004KT 5SM BR OVC060 23/22 A3004 RMK AO2 RAB1056E50
     SLP167 P0003 60044 70044 T02330222 10256 20222 53000=
KPYM 081152Z AUTO VRB04KT 10SM BKN008 OVC013 24/21 A3011 RMK AO2
     SLP194 T02440206 10244 20206 51009=
KRAP 081152Z AUTO 30004KT 10SM CLR 12/09 A3026 RMK AO2 SLP235
     T01170089 10122 20094 53003=
KSAW 081150Z 30005KT 7SM BKN008 OVC110 19/17 A2999=
KSGF 081152Z 00000KT 5SM BR FEW004 SCT015 BKN021 23/23 A3008 RMK
     AO2 SLP172 70006 T02280228 10239 20222 53009=
KSOP 081155Z AUTO 00000KT 10SM CLR 26/19 A2999 RMK AO1 10260 20230
     52010=
KSPI 081152Z 00000KT 8SM SCT065 24/23 A3005 RMK AO2 RAE23 SLP170
     P0000 60015 70015 T02390233 10244 20233 53006=
KSUX 081152Z 32005KT 9SM CLR 17/16 A3017 RMK AO2 SLP212 70001
     T01720161 10183 20150 53008=
KTAN 081152Z AUTO VRB03KT 10SM OVC010 23/21 A3009 RMK AO2 CIG
     007V011 SLP187 T02280211 10228 20206 53006=
KTIX 081147Z VRB04KT 7SM SKC 22/19 A3000=
KTKI 081153Z 09003KT 8SM -RA BKN010 OVC018 25/24 A3003 RMK AO2
     RAB05 CIG 007V014 SLP163 P0000 60000 T02500239 10261 20250
     52009=
KTOL 081152Z 00000KT 7SM CLR 24/19 A3005 RMK AO2 SLP168 T02390194
     10239 20211 50003=
KTRL 081153Z AUTO 11005KT 10SM OVC055 27/23 A3003 RMK AO2 SLP162
     60000 T02670228 10267 20261 53009=
KTRM 081152Z AUTO 00000KT 10SM CLR 22/12 A2970 RMK AO2 SLP062
     T02220122 10300 20222 53008=
####018003708####
SAUS99 KWBC 081155
METAR
KAFN 081152Z AUTO 19003KT 6SM BR SCT009 BKN050 BKN075 23/21 A3012
     RMK AO2 SLP194 7//// T02330211 10244 20217 51011=
KAIK 081155Z AUTO 29004KT 10SM CLR 25/23 A3005 RMK AO2 PNO=
KALS 081152Z AUTO 27006KT 10SM CLR 07/07 A3041 RMK AO2 SLP238
     70001 T00720067 10100 20067 51004=
KAQW 081152Z AUTO 00000KT 4SM HZ CLR 23/20 A3007 RMK AO2 SLP178
     T02330200 10233 20183 50006=
KARR 081152Z AUTO 24004KT 3SM BR OVC055 23/22 A3004 RMK AO2 RAE24
     SLP167 P0000 60018 7//// T02280217 10228 20222 53006 $=
KARW 081155Z AUTO 27008KT 10SM CLR 26/19 A2998 RMK AO2=
KASG 081148Z 15005KT 10SM BKN028 23/21 A3009=
KATL 081152Z 00000KT 10SM CLR 26/19 A3005 RMK AO2 SLP164 T02560194
     10272 20239 53006=
KBDN 081155Z AUTO 19005KT 10SM CLR 11/03 A3011 RMK AO2=
KBDR 081152Z 14005KT 4SM BR BKN006 BKN050 25/23 A3006 RMK AO2
     SLP178 T02500228 10250 20239 53011=
KBIS 081152Z 00000KT 10SM CLR 13/10 A3015 RMK AO2 SLP206 T01330100
     10156 20106 53007=
KBLF 081152Z AUTO 26004KT 5SM HZ CLR 23/18 A3020 RMK AO2 SLP180
     T02280178 10233 20211 52004=
KBLH 081152Z AUTO 04004KT 10SM CLR 26/02 A2973 RMK AO2 SLP061
     T02610017 10344 20256 53006=
KBML 081152Z AUTO 00000KT 1/2SM FG OVC001 21/21 A3010 RMK AO2
     SLP187 T02110211 10211 20183 58000 $=
KCDS 081153Z AUTO 05003KT 10SM SCT095 BKN110 23/21 A3011 RMK AO2
     SLP170 T02280211 10239 20222 53004=
KCFV 081152Z AUTO 00000KT 10SM FEW035 23/22 A3005 RMK AO2 SLP168
     7//// T02280217 10233 20222 53004=
KCID 081152Z 00000KT 8SM FEW003 20/19 A3006 RMK AO2 SLP175 70007
     T02000189 10211 20194 51015=
KCKV 081152Z AUTO 00000KT 10SM OVC100 25/22 A3008 RMK AO2 SLP178
     T02500222 10250 20228 53006=
KCLT 081152Z 32004KT 10SM FEW100 SCT250 24/17 A3003 RMK AO2 SLP158
     T02440172 10256 20194 51008=
KCNU 081152Z AUTO 04006KT 1/2SM FG OVC001 22/21 A3005 RMK AO2
     SLP168 70011 T02220211 10222 20211 53002=
KCQX 081152Z AUTO 17006KT 10SM FEW003 22/20 A3012 RMK AO2 SLP202
     T02220200 10228 20189 51012=
KCUB 081153Z AUTO 29004KT 10SM CLR 27/21 A3000 RMK AO2 SLP155
     T02720206 10278 20233 53005=
KCVG 081152Z 00000KT 6SM HZ CLR 24/21 A3009 RMK AO2 SLP177
     T02390211 10244 20211 50006=
KDAL 081153Z 13006KT 10SM -RA BKN014 OVC021 26/23 A3002 RMK AO2
     RAB04E15B48 SLP159 P0000 60000 70007 T02610233 10267 20256
     53007=
KDCA 081152Z 08005KT 4SM HZ FEW050 SCT100 28/22 A3001 RMK AO2
     SLP162 T02830222 10306 20272 51007=
KDDC 081152Z AUTO 02009KT 2 1/2SM BR OVC003 18/17 A3019 RMK AO2
     SLP197 70007 T01830172 10189 20178 53005=
KDPA 081152Z 23003KT 3SM BR OVC050 23/22 A3003 RMK AO2 RAE22
     SLP164 P0000 60016 70020 T02280222 10233 20222 53003=
KDTN 081153Z AUTO 00000KT 10SM CLR 24/23 A3004 RMK AO2 SLP171
     70014 T02440233 10250 20239 51010=
KDTO 081153Z AUTO 14005KT 10SM CLR 25/23 A3002 RMK AO2 SLP156
     T02500233 10267 20250 53006=
KDVN 081152Z AUTO 30004KT 3SM BR SCT007 OVC012 23/21 A3005 RMK AO2
     SLP171 60000 70099 T02280211 10228 20217 51011=
KEST 081152Z AUTO 31005KT 9SM CLR 17/14 A3016 RMK AO2 SLP207 60001
     70058 T01670144 10172 20156 53010=
KFDW 081155Z AUTO 33003KT 10SM CLR 25/18 A3002 RMK AO1=
KFIT 081152Z AUTO 15005KT 6SM HZ OVC012 25/22 A3010 RMK AO2 SLP189
     T02500217 10256 20233 53005=
KGGG 081153Z 09005KT 10SM FEW006 24/24 A3004 RMK AO2 SLP166 7////
     T02440239 10250 20239 53008=
KGLY 081155Z AUTO 00000KT 5SM BR OVC006 23/23 A3007 RMK AO2=
KHBR 081153Z AUTO 00000KT 3SM RA BR BKN004 OVC007 23/22 A3010 RMK
     AO2 LTG DSNT SW TSE02RAB15 CIG 002V005 SLP176 P0005 60005
     70147 T02280222 10233 20228 53010=
####018003698####
SAUS99 KWBC 081155 RRC
METAR
KDVO 081150Z AUTO 00000KT 10SM BKN012 12/11 A2992 RMK AO2=
KDVT 081153Z 14003KT 10SM CLR 28/00 A2980 RMK AO2 SLP061 T02780000
     10339 20267 53007=
KDWH 081153Z 06008KT 6SM BR BKN007 BKN020 BKN055 24/24 A2995 RMK
     AO2 CIG 005V011 SLP140 70045 T02440239 10256 20244 53007=
KEET 081153Z AUTO 00000KT 7SM CLR 26/22 A3006 RMK AO2 SLP171
     T02560222 10267 20233 51008=
KELN 081153Z AUTO 00000KT 10SM CLR 12/07 A3005 RMK AO2 SLP165
     7//// T01220067 10206 20117 52005 $=
KENW 081153Z 24005KT 7SM BKN018 OVC023 23/22 A3003 RMK AO2
     RAB1055E28 SLP165 P0001 60008 70361 T02280217 10233 20222
     53005 $=
KEPH 081153Z AUTO 31010KT 10SM CLR 21/04 A3001 RMK AO2 SLP151
     T02060044 10239 20194 53003=
KEQY 081153Z AUTO 33004KT 8SM SCT100 27/18 A3001 RMK AO2 SLP156
     T02670183 10267 20228 53006=
KESF 081153Z AUTO 00000KT 6SM BR SCT011 24/23 A3004 RMK AO2 SLP170
     70002 T02390228 10239 20222 53010=
KFAT 081153Z 30007KT 10SM CLR 19/10 A2982 RMK AO2 SLP095 T01940100
     10261 20194 53003=
KFAY 081153Z AUTO 02008KT 7SM CLR 27/19 A2996 RMK AO2 SLP136
     T02720189 10289 20244 53011=
KFFC 081153Z AUTO 00000KT 8SM CLR 22/19 A3006 RMK AO2 SLP170
     T02220194 10222 20200 53007=
KFHR 081153Z AUTO 00000KT 10SM CLR 13/10 A2998 RMK AO2 SLP151
     T01330100 10161 20122 51002=
KFLD 081153Z AUTO 23003KT 9SM SCT007 BKN015 22/21 A3002 RMK AO2
     SLP161 60006 70035 T02170206 10228 20211 51009=
KFMN 081153Z 10005KT 10SM CLR 18/06 A3024 RMK AO2 SLP171 T01780056
     10228 20178 53013=
KFSM 081153Z 00000KT 10SM BKN032 25/22 A3004 RMK AO2 SLP167
     T02500222 10250 20239 53007=
KFTW 081153Z 11005KT 10SM BKN010 OVC015 25/23 A3001 RMK AO2 CIG
     008V012 SLP152 T02500233 10261 20250 51009=
KFTY 081153Z 00000KT 7SM CLR 23/19 A3005 RMK AO2 SLP165 T02330194
     10233 20200 53006=
KFUL 081153Z 00000KT 9SM OVC017 17/12 A2989 RMK AO2 SLP119
     T01670122 10172 20161 55004=
KFYV 081153Z 00000KT 10SM FEW020 BKN030 22/22 A3008 RMK AO2
     RAB27E44 SLP173 P0000 60000 T02220217 10233 20217 53008=
KGEG 081153Z 05006KT 10SM CLR 17/08 A3007 RMK AO2 SLP166 T01670078
     10222 20161 52001=
KGKY 081153Z 12003KT 10SM FEW009 OVC017 25/23 A3003 RMK AO2 RAE11
     SLP158 P0000 60000 T02500233 10256 20244 53009=
KGLH 081153Z 00000KT 6SM BR CLR 23/23 A3006 RMK AO2 SLP183 7////
     T02280228 10233 20211 53007=
KGMU 081153Z 00000KT 8SM CLR 28/19 A3006 RMK AO2 SLP165 T02780189
     10278 20239 53010=
KGPT 081153Z 03003KT 7SM FEW015 27/24 A3003 RMK AO2 SLP169
     T02670244 10272 20256 53009=
KGRR 081153Z 24004KT 2SM BR FEW006 BKN050 OVC130 24/22 A3004 RMK
     AO2 SLP167 60027 70027 T02390222 10261 20233 55000=
KGSH 081153Z AUTO 00000KT 4SM HZ CLR 24/21 A3005 RMK AO2 SLP170
     T02440211 10244 20206 50002=
KGSP 081153Z 03003KT 8SM CLR 26/19 A3004 RMK AO2 SLP156 T02560194
     10256 20217 53010=
KGTR 081150Z 36003KT 10SM SKC 25/23 A3007=
KGVL 081153Z AUTO 32003KT 10SM CLR 24/20 A3009 RMK AO2 SLP169
     T02390200 10244 20228 53006=
KGWO 081153Z AUTO 00000KT 10SM CLR 23/23 A3007 RMK AO2 SLP179
     70011 T02330228 10239 20217 53006=
KHBG 081153Z AUTO 00000KT 8SM CLR 24/23 A3005 RMK AO2 SLP171
     T02390233 10244 20228 51008=
KHDE 081150Z AUTO 34003KT 10SM BKN085 16/15 A3023 RMK AO2
     T01610145 10165 20152=
KHGR 081153Z 29004KT 4SM HZ CLR 26/17 A3004 RMK AO2 SLP174
     T02560172 10267 20239 51005=
KHHR 081153Z AUTO 00000KT 10SM OVC012 17/13 A2990 RMK AO2 SLP125
     T01670133 10178 20167 55003=
KHIO 081153Z AUTO 00000KT 10SM CLR 14/11 A2989 RMK AO2 SLP119
     T01390111 10228 20133 53005=
####018003698####
SAUS99 KWBC 081155 RRE
METAR
KBKE 081153Z AUTO 00000KT 10SM CLR 04/04 A3012 RMK AO2 SLP184
     T00440044 10128 20044 53004=
KBLI 081153Z AUTO 00000KT 10SM CLR 14/13 A2997 RMK AO2 SLP154
     70001 T01390128 10200 20133 52004=
KBMQ 081153Z AUTO 06003KT 10SM FEW013 BKN025 OVC030 24/22 A3002
     RMK AO2 SLP147 7//// T02390222 10250 20233 53005 $=
KBNA 081153Z 00000KT 10SM FEW180 SCT250 25/22 A3008 RMK AO2 SLP178
     T02500222 10272 20239 50005=
KBPK 081153Z AUTO 00000KT 8SM BKN060 23/22 A3007 RMK AO2 SLP172
     70007 T02330217 10244 20222 53008=
KIBM 081150Z AUTO 27003KT 7SM BKN070 BKN080 12/12 A3032 RMK AO2
     T01230115 10127 20120=
KILM 081153Z 01003KT 8SM CLR 26/21 A2992 RMK AO2 SLP133 60001
     70002 T02610206 10261 20239 51010=
KIPL 081153Z AUTO 19003KT 10SM CLR 25/16 A2969 RMK AO2 SLP056
     T02500161 10306 20250 51006=
KJBR 081153Z AUTO 00000KT 10SM CLR 25/23 A3006 RMK AO2 SLP176
     T02500228 10272 20244 51006 $=
KJCT 081151Z AUTO 00000KT 7SM BKN011 22/21 A3002 RMK AO2 SLP126
     60000 T02220211 10239 20217 53004 TSNO=
KJWG 081152Z AUTO 04004KT 7SM CLR 22/22 A3010 RMK AO2=
KJYR 081150Z AUTO 00000KT 10SM CLR 16/15 A3019 RMK AO2=
KLAL 081152Z 00000KT 12SM SKC 24/21 A2999=
KLCG 081150Z AUTO 00000KT 10SM CLR 15/14 A3020 RMK AO2 T01470140
     10165 20141=
KLBX 081153Z AUTO 09005KT 8SM SCT024 26/25 A2990 RMK AO2 RAE01
     SLP126 P0000 60021 70142 T02610250 10278 20250 53008=
KLCH 081153Z 07007KT 9SM OVC011 26/24 A2999 RMK AO2 SLP162 70002
     T02560239 10261 20250 53009=
KLFK 081153Z AUTO 09005KT 10SM CLR 25/23 A3001 RMK AO2 SLP158
     70173 T02500233 10250 20244 53008=
KLFT 081153Z 07003KT 10SM OVC004 25/24 A3001 RMK AO2 SLP163 70033
     T02500239 10250 20250 53010=
KLGB 081153Z 28004KT 10SM OVC013 17/13 A2990 RMK AO2 SLP124
     T01670133 10172 20167 55004=
KLHM 081151Z AUTO 17008KT 10SM CLR 16/11 A2983 RMK AO1 T01550110
     10222 20155=
KLIT 081153Z 18003KT 10SM BKN150 BKN250 24/23 A3008 RMK AO2 SLP184
     70002 T02440233 10250 20239 53009 $=
KLLQ 081153Z AUTO 00000KT 7SM CLR 23/23 A3008 RMK AO2 SLP181 70074
     T02330228 10233 20228 51008=
KLMT 081153Z AUTO 30005KT 10SM CLR 16/11 A3006 RMK AO2 SLP130
     70019 T01610106 10217 20161 53006=
KLOL 081153Z AUTO 05005KT 10SM CLR 17/M04 A3000 RMK AO2 SLP114
     T01671044 10272 20156 51006=
KLVJ 081153Z AUTO 11007KT 10SM SCT022 SCT041 OVC060 25/23 A2994
     RMK AO2 PK WND 13026/1101 LTG DSNT E TSB20E35RAB02E50 SLP136
     P0041 60041 70139 T02500233 10283 20250 53006=
KLVK 081153Z AUTO 29006KT 10SM OVC008 13/11 A2990 RMK AO2 SLP122
     T01280111 10139 20122 57002=
KLVS 081153Z AUTO 02005KT 10SM CLR 10/08 A3040 RMK AO2 SLP221
     70033 T01000083 10122 20100 53009 TSNO=
KLXN 081150Z AUTO 00000KT 10SM OVC050 17/16 A3024 RMK AO2
     T01700161 10172 20150=
KMAF 081153Z 02008KT 4SM BR OVC005 21/20 A3009 RMK AO2 SLP146
     T02060200 10228 20206 53006=
KMCB 081153Z AUTO 00000KT 8SM CLR 24/22 A3006 RMK AO2 SLP172 60001
     70015 T02390222 10244 20222 53008=
KMCE 081153Z AUTO 33005KT 10SM CLR 16/09 A2982 RMK AO2 SLP097
     T01610094 10222 20161 55000 $=
KMEM 081153Z 00000KT 10SM FEW150 SCT250 26/23 A3008 RMK AO2 SLP179
     T02560228 10267 20244 52004=
KPAH 081153Z 23005KT 10SM CLR 25/22 A3005 RMK AO2 SLP171 T02500222
     10250 20228 51006=
KPBF 081153Z AUTO 00000KT 8SM FEW065 24/23 A3007 RMK AO2 SLP179
     70008 T02390228 10244 20233 51008=
KPDK 081153Z 00000KT 10SM CLR 24/19 A3006 RMK AO2 SLP156 T02440194
     10250 20217 53007=
KPDT 081153Z AUTO 09007KT 10SM CLR 14/07 A2998 RMK AO2 SLP136
     T01440067 10206 20133 53005=
####018003712####
SAUS99 KWBC 081155 RRD
METAR
KHJH 081150Z AUTO 36005KT 10SM OVC029 19/18 A3018 RMK AO2
     T01930175 10203 20191=
KHJO 081153Z AUTO 31007KT 10SM CLR 18/12 A2982 RMK AO2 SLP099
     T01830117 10256 20183 53004=
KHKA 081153Z AUTO 22005KT 5SM HZ CLR 26/23 A3007 RMK AO2 SLP179
     T02560228 10272 20244 52005=
KHKS 081153Z AUTO 00000KT 8SM CLR 24/23 A3008 RMK AO2 SLP175
     T02440228 10244 20233 53010=
KHKY 081153Z 31003KT 10SM CLR 23/18 A3006 RMK AO2 SLP153 6////
     7//// T02330183 10244 20222 53007 PNO=
KHLG 081153Z 00000KT 2 1/2SM BR CLR 23/21 A3010 RMK AO2 SLP185
     T02280206 10239 20206 51005=
KHOT 081153Z AUTO 00000KT 9SM OVC008 24/23 A3008 RMK AO2 CIG
     004V012 SLP180 70022 T02440233 10244 20239 52011=
KHOU 081153Z 16003KT 10SM FEW029 SCT036 BKN090 24/23 A2992 RMK AO2
     RAB23E49 SLP137 P0022 60022 70110 T02440228 10278 20244
     53006=
KHQM 081153Z AUTO 27009KT 10SM 13/13 A2995 RMK AO2 SLP146
     T01330128 10256 20133 51011 $=
KHRI 081153Z AUTO 00000KT 10SM CLR 11/07 A2996 RMK AO2 SLP139
     T01060072 10200 20106 53008=
KHRL 081152Z 35008KT 10SM CLR 26/26 A2977 RMK AO2 RAE1057 SLP082
     P0000 60004 70004 T02560256 10267 20250 55002=
KHRO 081153Z AUTO 00000KT 10SM FEW040 OVC080 23/21 A3010 RMK AO2
     SLP176 7//// T02280211 10233 20217 53012=
KHSV 081153Z 00000KT 10SM FEW250 25/23 A3008 RMK AO2 SLP178
     T02500233 10261 20233 53010=
KPMV 081150Z AUTO 33003KT 7SM CLR 20/19 A3014 RMK AO2 T01950187
     10212 20190=
KABI 081152Z 01003KT 7SM OVC010 22/21 A3007 RMK AO2 CIG 009V014
     SLP161 7//// T02170211 10222 20211 53012 $=
KACV 081153Z AUTO 00000KT 8SM OVC001 10/09 A2996 RMK AO2 SLP152
     T01000094 10106 20100 50000=
KAEX 081153Z AUTO 08003KT 9SM CLR 24/23 A3002 RMK AO2 SLP168 70010
     T02440233 10250 20239 53009=
KAGS 081153Z 00000KT 10SM CLR 27/21 A3000 RMK AO2 SLP155 T02670206
     10267 20211 51005=
KALI 081153Z AUTO 03006KT 10SM CLR 25/24 A2984 RMK AO2 LTG DSNT E
     RAE41 SLP101 P0003 60023 70024 T02500244 10261 20250
     55002=
KALW 081153Z AUTO 15005KT 10SM CLR 17/07 A2999 RMK AO2 SLP146
     T01720072 10217 20161 53008=
KAMA 081153Z 36012G22KT 7SM BKN003 OVC004 17/17 A3021 RMK AO2
     SLP181 60097 70666 T01720167 10172 20161 53007 $=
KANB 081153Z AUTO 00000KT 8SM CLR 22/20 A3006 RMK AO2 SLP169
     T02220200 10233 20211 53008=
KAOO 081153Z AUTO 00000KT 3SM HZ CLR 23/18 A3011 RMK AO2 SLP184
     T02280178 10228 20183 52003=
KASD 081153Z AUTO 03003KT 7SM BKN001 24/23 A3003 RMK AO2 SLP168
     T02440233 10250 20233 53011=
KAUN 081150Z AUTO 10004KT 10SM CLR 21/14 A2987 RMK AO1=
KAUS 081153Z 04007KT 9SM BKN012 OVC021 26/24 A2996 RMK AO2 SLP133
     60013 70013 T02560239 10267 20256 53003=
KAWM 081153Z AUTO 00000KT 10SM CLR 24/23 A3006 RMK AO2 SLP174
     T02440228 10256 20233 52004=
KAZO 081153Z 00000KT 5SM HZ CLR 24/21 A3005 RMK AO2 SLP167
     T02440211 10244 20222 50002=
KBEH 081153Z AUTO 00000KT 10SM BKN095 24/22 A3003 RMK AO2 SLP164
     T02390217 10239 20222 56002 $=
KBFD 081153Z AUTO 00000KT 6SM BR CLR 21/18 A3016 RMK AO2 SLP194
     T02060183 10206 20156 51004=
KBFI 081153Z 00000KT 10SM CLR 19/12 A2995 RMK AO2 SLP140 T01890122
     10244 20183 51002=
KBFM 081153Z 00000KT 10SM FEW045 24/23 A3005 RMK AO2 SLP174 60001
     70001 T02440233 10250 20228 51007=
KBHM 081153Z 00000KT 8SM CLR 26/22 A3009 RMK AO2 SLP179 T02560222
     10267 20233 53011=
KBIE 081150Z AUTO 36006KT 10SM SCT030 19/17 A3015 RMK AO2
     T01850172 10207 20181=
KBIV 081153Z AUTO 00000KT 6SM BR FEW090 24/22 A3004 RMK AO2
     RAB19E40 SLP166 P0001 60018 70018 T02440222 10256 20239
     56003=
####018003698####
SAUS99 KWBC 081155 RRB
METAR
KTXK 081153Z 00000KT 1/2SM FG VV001 23/23 A3006 RMK AO2 SLP173
     70013 T02330233 10239 20233 51008=
KUDG 081155Z 34004KT 10SM CLR 26/18 A2998 RMK AO1 10270 20230
     52003=
KUGN 081152Z VRB04KT 6SM BR FEW022 BKN040 BKN055 23/21 A3002 RMK
     AO2 RAE34 SLP156 P0000 60045 70097 T02280211 10239 20228
     53002=
KVQQ 081150Z 00000KT 10SM CLR 20/20 A3002=
KVTN 081152Z AUTO 24006KT 10SM CLR 14/14 A3024 RMK AO2 SLP233
     T01440139 10167 20139 53003=
KBPT 081153Z 08011KT 8SM SCT009 26/25 A2996 RMK AO2 SLP145 60000
     70082 T02610250 10267 20256 53008 $=
KBRO 081153Z 31005KT 10SM FEW020 26/25 A2977 RMK AO2 SLP078 60001
     70037 T02610250 10272 20261 56002=
KBTA 081150Z AUTO 35006KT 7SM SCT016 19/17 A3016 RMK AO2 70013
     T01850170 10201 20183=
KBTL 081153Z 00000KT 7SM CLR 24/21 A3006 RMK AO2 SLP170 T02440211
     10244 20217 50002=
KBUR 081153Z 00000KT 7SM OVC009 16/13 A2989 RMK AO2 SLP112
     T01560128 10161 20156 55004=
KBVN 081150Z AUTO 00000KT 10SM OVC090 17/15 A3021 RMK AO2 70002
     T01670151 10167 20155=
KBWG 081153Z AUTO 00000KT 6SM BR CLR 24/22 A3007 RMK AO2 SLP177
     T02390217 10278 20228 50004=
KCAK 081151Z 00000KT 5SM HZ CLR 24/19 A3010 RMK AO2 SLP181
     T02440194 10244 20206 50004=
KCCR 081153Z AUTO 24004KT 10SM SCT013 13/09 A2990 RMK AO2 SLP112
     T01280094 10144 20128 55003=
KCHO 081153Z 00000KT 4SM HZ FEW090 27/19 A3002 RMK AO2 SLP158
     T02670194 10267 20217 53005=
KCLL 081153Z AUTO 07008KT 8SM OVC007 25/23 A2997 RMK AO2 SLP142
     T02500228 10256 20250 53006=
KCLM 081153Z AUTO A2998 RMK AO2 SLPNO 6//// 7//// 53003 PWINO
     FZRANO $=
KCMI 081153Z 22004KT 7SM BKN070 24/23 A3005 RMK AO2 SLP167 60000
     T02440228 10256 20222 53004=
KCNM 081153Z AUTO 33006KT 9SM -RA SCT017 OVC110 19/18 A3015 RMK
     AO2 RAB1051 SLP154 P0014 60052 70110 T01940183 10228 20194
     $=
KCNO 081153Z AUTO 24005KT 4SM BR OVC011 15/13 A2991 RMK AO2 SLP122
     T01500128 10161 20133 56004=
KCOT 081153Z AUTO 02006KT 10SM BKN055 25/23 A2990 RMK AO2 SLP117
     60000 7//// T02500228 10250 20244 51004=
KCRP 081151Z 05009KT 5SM TSRA BR FEW008 BKN018CB BKN036 26/25
     A2983 RMK AO2 TSB32RAB27 SLP101 OCNL LTGIC S-W TS S-W MOV W
     P0029 60101 7//// T02560250 10267 20256 53003 $=
KCRQ 081153Z AUTO 00000KT 10SM OVC013 17/14 A2989 RMK AO2 SLP119
     70005 T01720139 10172 20167 55002=
KCSV 081153Z AUTO 00000KT 6SM HZ CLR 23/18 A3016 RMK AO2 SLP186
     T02330183 10233 20206 52008=
KCWF 081150Z 06006KT 7SM SKC 24/24 A3000=
KCXO 081153Z 00000KT 7SM FEW006 SCT019 24/23 A2997 RMK AO2 SLP145
     70026 T02390233 10244 20239 53009=
KDAG 081153Z AUTO 27009KT 10SM CLR 22/02 A2987 RMK AO2 SLP085
     T02170017 10289 20217 53006 TSNO $=
KDAN 081153Z AUTO 00000KT 4SM HZ FEW090 27/19 A3002 RMK AO2 SLP152
     T02720194 10272 20228 50007=
KDBQ 081153Z 30004KT 4SM BR BKN003 OVC016 21/21 A3007 RMK AO2
     SLP178 60000 70064 T02060206 10206 20200 51009=
KDCU 081153Z AUTO 00000KT 9SM CLR 25/21 A3008 RMK AO2 SLP179
     T02500211 10256 20222 53009=
KDEW 081153Z AUTO 01004KT 10SM CLR 13/07 A3007 RMK AO2 SLP173
     T01280072 10178 20128 50001=
KDHT 081153Z AUTO 34005KT 10SM BKN100 OVC110 17/16 A3024 RMK AO2
     RAB1055E45 SLP188 P0000 60000 T01670156 10194 20161 58006=
KDLS 081153Z AUTO 00000KT 10SM CLR 14/06 A2996 RMK AO2 SLP144
     T01390056 10233 20139 53006=
KDMN 081153Z AUTO 07003KT 10SM CLR 21/13 A3013 RMK AO2 SLP119
     60000 T02110128 10228 20211 51005=
KDRT 081153Z AUTO 00000KT 9SM SCT019 SCT024 BKN038 24/22 A2996 RMK
     AO2 SLP128 T02440222 10267 20239 53010=
####018003742####
SAUS99 KWBC 081155 RRG
METAR
KMIW 081153Z AUTO 32005KT 10SM CLR 19/18 A3009 RMK AO2 SLP184
     70097 T01940183 10200 20189 53013=
KMKL 081153Z 00000KT 10SM CLR 23/22 A3009 RMK AO2 SLP182 70002
     T02330217 10239 20217 53006=
KMLE 081150Z AUTO 31003KT 10SM CLR 19/17 A3015 RMK AO2 70118
     T01920168 10216 20192=
KMLP 081153Z AUTO 12008G16KT 10SM CLR 13/02 A3027 RMK AO2 SLP156
     T01280017 10156 20128 55000 TSNO=
KMMH 081150Z AUTO 00000KT 10SM CLR 07/01 A3022 RMK AO1=
KMMV 081153Z AUTO 26004KT 10SM CLR 13/11 A2991 RMK AO2 SLP125
     T01330106 10244 20133 53010=
KMOD 081153Z AUTO 34004KT 10SM CLR 15/11 A2984 RMK AO2 SLP104
     T01500106 10217 20150 53001=
KMRB 081153Z AUTO 00000KT 4SM HZ CLR 24/19 A3004 RMK AO2 SLP166
     7//// T02440189 10278 20206 51006=
KMSL 081153Z AUTO 00000KT 10SM CLR 24/23 A3010 RMK AO2 SLP184
     70020 T02440228 10250 20228 53008=
KMSY 081153Z 09003KT 9SM FEW016 SCT250 27/23 A3002 RMK AO2 SLP168
     T02670233 10272 20261 53006=
KMYF 081153Z AUTO 32006KT 10SM OVC015 16/14 A2990 RMK AO2 SLP122
     T01610139 10167 20156 55000 TSNO=
KMYV 081153Z AUTO 18006KT 10SM CLR 16/11 A2984 RMK AO2 SLP106
     T01560111 10217 20156 53006=
KNEW 081153Z AUTO 09006KT 10SM CLR 27/25 A3002 RMK AO2 SLP160
     T02720250 10278 20267 53008 TSNO=
KOAK 081153Z 28008KT 10SM OVC007 14/11 A2993 RMK AO2 SLP133
     T01440111 10150 20144 55004=
KOGA 081150Z AUTO 00000KT 10SM BKN100 15/14 A3028 RMK AO2
     T01500140 10167 20150=
KOMK 081153Z AUTO 33005KT 10SM CLR 12/08 A3006 RMK AO2 SLP173
     T01220078 10200 20117 53003=
KONL 081150Z AUTO 25003KT 10SM CLR 17/15 A3022 RMK AO2 70001
     T01650151 10168 20145=
KONT 081153Z 22005KT 4SM HZ OVC010 15/12 A2989 RMK AO2 SLP111
     T01500122 10156 20150 55004=
KORD 081151Z COR 19004KT 6SM BR FEW022 BKN055 OVC200 23/22 A3002
     RMK AO2 RAE40 SLP160 P0000 60015 70035 T02330222 10239 20228
     55000=
KORF 081151Z 11005KT 10SM FEW010 SCT055 BKN100 26/23 A2999 RMK AO2
     SLP153 T02610228 10261 20250 53012=
KOSH 081153Z 00000KT 8SM SCT006 22/21 A3001 RMK AO2 SLP148 60006
     7//// T02220206 10222 20217 51011=
KOVS 081153Z AUTO 00000KT 9SM SCT009 22/20 A3004 RMK AO2 SLP170
     70031 T02170200 10217 20206 52013=
KOXB 081153Z AUTO 07005KT 10SM BKN110 24/24 A3002 RMK AO2 SLP166
     60000 T02440239 10244 20239 51012=
KPAE 081153Z AUTO 03003KT 10SM CLR 18/12 A2997 RMK AO2 SLP146
     T01830117 10222 20178 52001=
KSAC 081153Z 17004KT 10SM CLR 13/10 A2985 RMK AO2 SLP106 T01330100
     10167 20133 51004=
KSAF 081153Z AUTO 00000KT 10SM CLR 13/10 A3033 RMK AO2 SLP191
     70013 T01280100 10156 20128 53005=
KSAN 081151Z 33006KT 10SM OVC019 17/13 A2991 RMK AO2 SLP128
     T01670133 10178 20161 55001=
KSAT 081153Z 03004KT 6SM -RA BR BKN013 BKN039 OVC250 25/23 A2995
     RMK AO2 RAB26 SLP123 P0001 60001 70001 T02500233 10261 20250
     53001=
KSBA 081153Z 23004KT 9SM OVC011 14/12 A2991 RMK AO2 SLP126 7////
     T01440122 10144 20122 55000 $=
KSDL 081153Z 00000KT 10SM CLR 29/05 A2982 RMK AO2 SLP065 T02890050
     10339 20289 53007=
KSEA 081153Z 01003KT 10SM CLR 20/12 A2996 RMK AO2 SLP147 T02000117
     10261 20183 50001 $=
KSFF 081153Z AUTO 00000KT 10SM CLR 13/10 A3007 RMK AO2 SLP169
     T01280100 10194 20122 52004=
KSHN 081153Z AUTO 00000KT 10SM CLR 12/09 A2994 RMK AO2 SLP135
     T01170094 10189 20106 53003=
KSIY 081153Z AUTO 00000KT 10SM CLR 16/07 A2998 RMK AO2 SLP134
     T01610072 10289 20161 53010 $=
KSJC 081153Z AUTO 31004KT 9SM OVC013 15/12 A2991 RMK AO2 SLP128
     T01500117 10156 20150 56003=
KSMF 081153Z 14007KT 10SM CLR 13/11 A2983 RMK AO2 SLP101 T01330106
     10189 20133 53004=
####018003661####
SAUS99 KWBC 081155 RRF
METAR
KPDX 081153Z 28004KT 10SM CLR 18/13 A2990 RMK AO2 SLP124 70001
     T01780133 10244 20178 53007=
KPGA 081153Z AUTO 16003KT 10SM CLR 23/03 A3006 RMK AO2 SLP104
     T02330028 10306 20228 53009=
KPIL 081153Z AUTO 01006KT 10SM FEW015 SCT049 27/24 A2977 RMK AO2
     RAB31E41 SLP079 P0000 60010 70010 T02720244 10294 20272 57001
     $=
KPMD 081153Z AUTO 00000KT 10SM CLR 17/02 A2990 RMK AO2 SLP098
     T01670017 10244 20167 53000 TSNO $=
KPNA 081150Z AUTO 30005KT 10SM CLR 04/01 A3040 RMK AO2 T00390007
     10138 20027=
KPQL 081153Z 00000KT 8SM CLR 24/24 A3003 RMK AO2 SLP171 T02390239
     10244 20233 53009=
KPRB 081153Z AUTO 33008KT 9SM OVC005 12/11 A2991 RMK AO2 SLP122
     T01220106 10150 20117 53002=
KPRC 081153Z AUTO 00000KT 10SM CLR 17/01 A3010 RMK AO2 SLP103
     60000 T01670006 10228 20167 53003=
KPSC 081153Z AUTO 00000KT 10SM CLR 16/09 A2997 RMK AO2 SLP146
     T01610094 10211 20139 53006=
KPSP 081153Z 00000KT 10SM CLR 23/13 A2973 RMK AO2 SLP063 T02280128
     10294 20228 53002=
KPSX 081153Z AUTO 09011KT 3SM +RA BR FEW002 BKN010 BKN055 26/24
     A2988 RMK AO2 PK WND 10027/1136 RAB35 SLP118 P0023 60040
     70048 T02560244 10278 20256 53008=
KPTT 081150Z AUTO 01010KT 4SM BR OVC002 20/20 A3015 RMK AO2=
KPWA 081153Z 35003KT 6SM BR BKN004 22/21 A3007 RMK AO2 SLP166
     T02220211 10244 20222 53006=
KRAC 081153Z AUTO 21005KT 6SM BR BKN027 BKN033 BKN110 23/22 A3003
     RMK AO2 RAB1054E41 SLP165 P0000 60005 70116 T02330217 10239
     20228 53004=
KRAL 081153Z AUTO 28004KT 4SM BR OVC009 15/13 A2990 RMK AO2 SLP110
     T01500128 10161 20139 55003=
KRBD 081153Z 10006KT 10SM FEW008 BKN011 OVC030 25/23 A3003 RMK AO2
     SLP157 T02500233 10256 20250 53010=
KRBG 081153Z AUTO 36003KT 10SM CLR 17/12 A2993 RMK AO2 SLP132
     T01720117 10239 20172 53007=
KRDD 081153Z AUTO 00000KT 10SM CLR 22/15 A2982 RMK AO2 SLP090
     T02220150 10278 20217 56005=
KRKP 081153Z AUTO 12004KT 10SM FEW040 SCT050 BKN070 A2983 RMK AO2
     RAB1056E47 SLP104 P0015 60024 70052 53003 FZRANO $=
KRMG 081153Z AUTO 00000KT 8SM CLR 22/19 A3005 RMK AO2 SLP166
     T02170189 10228 20194 52007=
KRNT 081153Z AUTO 00000KT 10SM CLR 16/13 A2995 RMK AO2 SLP145
     T01560133 10233 20156 53003=
KRUE 081153Z AUTO 00000KT 10SM CLR 24/23 A3007 RMK AO2 SLP173
     70023 T02390228 10244 20239 53006=
KUTS 081153Z AUTO 00000KT 5SM BR FEW006 BKN110 24/23 A2999 RMK AO2
     SLP150 70036 T02390233 10244 20239 53007=
KVCB 081153Z AUTO 24005KT 10SM CLR 15/10 A2984 RMK AO2 SLP102
     T01500100 10228 20150 53009=
KVGT 081153Z AUTO 00000KT 10SM CLR 26/M04 A2986 RMK AO2 SLP073
     T02561039 10322 20244 53008 TSNO=
KVPZ 081153Z AUTO 09005KT 2 1/2SM BR SCT050 BKN060 OVC090 22/22
     A3004 RMK AO2 LTG DSNT E AND S TSE16RAB1054E43 SLP168 P0006
     60006 7//// T02220217 10239 20222 50001=
KVUO 081153Z AUTO 00000KT 10SM CLR 16/13 A2989 RMK AO2 SLP123
     T01610128 10233 20150 53008=
KWVI 081153Z AUTO 00000KT 10SM OVC007 13/11 A2992 RMK AO2 SLP132
     T01280111 10133 20122 55003=
KXNA 081153Z 15003KT 10SM OVC021 23/22 A3009 RMK AO2 SLP173 60001
     70020 T02280217 10233 20222 53009=
KYKM 081153Z AUTO 28006KT 10SM CLR 12/07 A3002 RMK AO2 SLP160
     T01170072 10194 20117 53006=
KMFE 081153Z 35009KT 10SM BKN008 BKN014 OVC041 26/24 A2981 RMK AO2
     CIG 006V012 SLP092 70036 T02610244 10272 20256 53002=
KMFR 081153Z AUTO 00000KT 10SM CLR 19/12 A2990 RMK AO2 SLP111
     T01940122 10289 20194 53009=
KMGW 081153Z 00000KT 5SM HZ CLR 23/19 A3012 RMK AO2 SLP186 7////
     T02280189 10228 20194 51007=
####018000133####
SAUS41 KAKQ 081154
MTRNUI
METAR KNUI 081153Z AUTO VRB05KT 5SM HZ CLR 27/24 A3000 RMK AO2 
SLP157 T02670239 10267 20239 51008
####018000126####
SAUS44 KMRX 081154
MTRNIP
METAR KNIP 081153Z 25005KT 10SM CLR 23/21 A3002 RMK AO2 SLP162 
T02330211 10261 20222 53009
####018000128####
SAUS46 KLOX 081154
MTRLAX
METAR KLAX 081153Z 29003KT 9SM OVC012 16/13 A2990 RMK AO2 SLP124 
T01610128 10167 20161 55003
####018000169####
SAUS44 KHGX 081154
MTRSGR
METAR KSGR 081153Z 08004KT 9SM FEW008 BKN025 OVC070 26/24 A2993 RMK 
AO2 RAB37E47 SLP142 P0000 60000 70034 T02610239 10261 20256 53008
####018001709####
SAUS99 KWBC 081155 RRH
METAR
KSNA 081153Z 00000KT 8SM OVC015 18/12 A2989 RMK AO2 SLP122 70001
     T01830122 10183 20178 55004=
KSNS 081153Z AUTO 25003KT 9SM OVC009 12/11 A2992 RMK AO2 SLP141
     T01220106 10139 20122 55002=
KSPB 081153Z AUTO 00000KT 10SM CLR 15/12 A2989 RMK AO2 SLP122
     6//// 7//// T01500117 10239 20144 53007 $=
KSSF 081153Z 03006KT 10SM FEW019 BKN037 OVC055 26/23 A2993 RMK AO2
     SLP120 60000 T02610233 10267 20261 53002=
KSTS 081153Z AUTO 00000KT 10SM OVC006 12/10 A2991 RMK AO2 SLP121
     T01170100 10122 20117 55004=
KTCC 081153Z AUTO 02008KT 10SM BKN015 OVC120 18/16 A3024 RMK AO2
     SLP181 60000 70015 T01780156 10178 20172 53007=
KTCL 081153Z 00000KT 6SM BR CLR 25/23 A3006 RMK AO2 SLP175 7////
     T02500228 10261 20239 53007=
KTIW 081153Z AUTO 00000KT 10SM FEW095 18/12 A2995 RMK AO2 SLP138
     T01780117 10233 20178 53003=
KTOI 081153Z 00000KT 7SM CLR 23/22 A3005 RMK AO2 SLP169 T02280222
     10233 20211 53006=
KTTD 081153Z AUTO 00000KT 10SM FEW080 17/14 A2988 RMK AO2 SLP119
     T01670144 10261 20161 53007=
KTUS 081153Z 09004KT 10SM CLR 29/09 A2991 RMK AO2 SLP070 T02890094
     10339 20283 51008=
KTVL 081153Z AUTO 18004KT 10SM CLR 09/05 A3016 RMK AO2 SLP155
     T00890050 10161 20083 55001=
KTVR 081153Z AUTO 00000KT 3SM BR CLR 23/22 A3006 RMK AO2 SLP184
     70021 T02280217 10239 20222 53011 $=
KUAO 081153Z AUTO 00000KT 10SM CLR 16/12 A2990 RMK AO2 SLP124
     T01610122 10250 20161 53011=
PATA 081152Z AUTO 00000KT 10SM CLR 07/05 A3005 RMK AO2 SLP176
     T00720050 10211 20072 58000 TSNO=
PHJR 081153Z 00000KT 10SM CLR 22/18 A3003 RMK AO2 SLP174 70001
     T02220178 10250 20222 58010=
####018000139####
SAUS44 KSHV 081154
MTRDNK
METAR KDNK 081153Z AUTO 08003KT 5SM BR CLR 24/22 A3003 RMK AO2 
SLP165 70009 T02390222 10244 20233 53009
####018000134####
SAUS42 KTAE 081154
MTRTLH
METAR KTLH 081153Z 00000KT 10SM BCFG FEW010 23/22 A3003 RMK AO2 
SLP168 T02330217 10239 20217 53008
####018000135####
SAUS42 KTAE 081154
MTRCTY
METAR KCTY 081153Z AUTO 00000KT 22/21 A3002 RMK AO2 SLP163 T02170211 
10228 20194 53007 PWINO TSNO $
####018000126####
SAUS44 KMRX 081154
MTRCHA
METAR KCHA 081153Z 00000KT 10SM CLR 23/19 A3008 RMK AO2 SLP176 
T02330194 10250 20217 51009
####018000159####
SAUS44 KLZK 081154
MTRMWT
METAR KMWT 081153Z AUTO 00000KT 10SM FEW016 SCT022 BKN027 23/23 
A3006 RMK AO2 SLP167 70028 T02330228 10239 20228 52008 TSNO
####018000133####
SAUS44 KLCH 081154
MTRP92
METAR KP92 081153Z AUTO 00000KT 26/25 A2999 RMK AO2 SLP154 T02560250 
10256 20256 53004 PWINO TSNO
####018000139####
SAUS45 KABQ 081154
MTRGNT
METAR KGNT 081153Z AUTO 15011KT 16/09 A3032 RMK AO2 SLP171 70002 
T01560089 10189 20156 53009 PWINO TSNO
####018000151####
SAUS45 KABQ 081154
MTRTCS
METAR KTCS 081153Z AUTO 36005KT 10SM BKN110 18/14 A3019 RMK AO2 
SLP154 60000 70042 T01830139 10200 20183 56002 TSNO
####018000444####
SAUK34 EGGY 081150
METAR EGHD 081150Z 19006KT 9999 FEW022 20/12 Q1019=
METAR EGHE 081150Z 20009KT 9999 FEW020 19/14 Q1019=
METAR EGHK 081150Z NIL=
METAR EGHQ 081150Z 29007KT 9999 FEW025 17/12 Q1019=
METAR EGJA 081150Z NIL=
METAR EGJB 081150Z 23005KT 180V280 9999 SCT012 20/16 Q1020=
METAR EGJJ 081150Z 35005KT 320V040 9999 FEW008 21/17 Q1019 NOSIG=
METAR EGTE 081150Z 16010KT 120V190 9999 FEW030 22/14 Q1018=
METAR EGTG 081150Z NIL=
####018000501####
SAUK31 EGGY 081150
METAR EGBB 081150Z 25006KT 170V300 9999 FEW040 21/09 Q1018=
METAR EGCC 081150Z 22009KT 180V260 9999 FEW037 SCT044 20/10
    Q1017=
METAR EGKK 081150Z 20008KT 160V250 9999 SCT035 25/14 Q1018=
METAR EGLL 081150Z 24006KT 200V290 9999 SCT021 SCT033 22/15
    Q1019=
METAR EGPF 081150Z 22018KT 9999 SCT030 18/10 Q1013=
METAR EGPH 081150Z 25015KT 9999 FEW035 18/08 Q1013=
METAR EGPK 081150Z 23016KT 9999 FEW024 19/09 Q1014=
METAR EGSS 081150Z 23009KT 9999 BKN021 22/15 Q1018=
####018000168####
SASN34 ESWI 081150
METAR ESDF 081150Z 20011KT CAVOK 23/11 Q1020=
METAR ESPA 081150Z 14011KT CAVOK 18/13 Q1016=
METAR ESSL 081150Z 24009KT 9999 BKN044 23/12 Q1018=
####018000088####
SAZA42 FAJS 081200
METAR FAJS 081200Z 07007KT 050V130 9999 SCT045 15/03 Q1033 NOSIG=
####018000487####
SASN32 ESWI 081150
METAR ESKN 081150Z 25009KT 190V290 9999 SCT048 24/13 Q1017=
METAR ESOE 081150Z NIL=
METAR ESOK 081150Z 24007KT 9999 BKN022 18/14 Q1017=
METAR ESOW 081150Z 23011KT CAVOK 23/14 Q1017=
METAR ESSA 081150Z 22014KT 9999 FEW045 25/13 Q1016 NOSIG=
METAR ESSB 081150Z 28010KT CAVOK 25/11 Q1017=
METAR ESSD 081150Z AUTO 23011KT 9999NDV BKN028/// 19/12 Q1016=
METAR ESSP 081150Z 25013KT 220V280 CAVOK 24/12 Q1018=
METAR ESSV 081150Z 26007KT 230V290 CAVOK 22/12 Q1019=
####018001064####
SAMX44 MMMD 081154
METAR MMCE 081145Z 16010KT 3SM SCT020 BKN030 OVC070 27/25 A2980
      RMK SLP090 5//// 924 8/43/=
METAR MMCM 081145Z 00000KT 7SM BKN005 BKN020 OVC050 25/24 A2980
      RMK SLP093 5//// 8/7// 976=
METAR MMCP 081145Z 10010KT 6SM BKN060 25/22 A2979
      RMK SLP088 5//// 919 8/500 HZY=
METAR MMCZ 081144Z 09005KT 6SM  BKN100 BKN200 26/24 A2987 
      RMK SLP110 57007 917 8/078 SC HZY=
METAR MMMD 081152Z 10005KT 5SM  BKN070 OVC300 18/18 A2985 
      RMK SLP117 52005 929 8/077 HZY SC=
METAR MMMT 081145Z 23010KT 10SM BKN050 OVC100 23/18 A2979
      RMK SLP162 5//// 913  67308 8/57/=
METAR MMTG 081151Z 00000KT 4SM  SCT004 BKN070 OVC300 23/23 A2993 
      RMK SLP095 5//// 919 60015 8/622 BCFG ARND -DZ INTMTE ST OMTNS=
METAR MMTP 081140Z 00000KT 10SM BKN020 OVC100 24/22 A2990
      RMK SLP096 57003 904 8/17/=
METAR MMUN 081151Z 10006KT 6SM  SCT015TCU OVC090 28/24 A2989 
      RMK SLP121 52010 924 8/27/ HZY=
METAR MMVA 081150Z 00000KT 7SM  SCT100 BKN200 25/24 A2979 
      RMK SLP097 5//// 924 8/036=
####018000628####
SASN33 ESWI 081150
METAR ESNG 081150Z 15005KT 9999 -RA FEW039 17/13 Q1014 REUP REDZ=
METAR ESNK 081150Z AUTO 15008KT 9999NDV SCT047/// 22/13 Q1012=
METAR ESNN 081150Z AUTO 26006KT 230V290 9999NDV FEW039///
OVC046/// 22/14 Q1013=
METAR ESNO 081150Z AUTO 17012KT 9999NDV FEW086/// 21/10 Q1013=
METAR ESNQ 081150Z 16008KT 9999 FEW021 SCT072 18/10 Q1013 RERA=
METAR ESNS 081150Z AUTO 14010KT 100V180 9999NDV ////// 22/09 Q1014=
METAR ESNU 081150Z 13008KT 110V190 CAVOK 20/13 Q1014=
METAR ESNZ 081150Z 18009KT CAVOK 20/10 Q1011=
METAR ESUT 081150Z AUTO 15011KT 120V180 9999NDV FEW046///
SCT070/// BKN088/// 19/10 Q1010=
####018000456####
SAUK35 EGGY 081150
METAR EGHH 081150Z 19008KT 9999 FEW026 SCT035 22/16 Q1018=
METAR EGKA 081150Z 21007KT 9999 FEW017 20/17 Q1019=
METAR EGKB 081150Z NIL=
METAR EGLF 081150Z 28006KT 210V340 9999 SCT020 SCT030 21/15 Q1019=
METAR EGMC 081150Z 21005KT 180V250 9999 FEW032 24/15 Q1018=
METAR EGMD 081150Z 19008KT 9999 FEW020 21/16 Q1019=
METAR EGMH 081150Z 13010KT 9999 FEW020 22/17 Q1019 =
METAR EGTC 081150Z 25007KT 180V280 9999 FEW032 21/12 Q1018=
####018000297####
SASW32 LSSW 081150
METAR LSGC 081150Z NIL=
METAR LSGS 081150Z 25012KT 9999 FEW100 29/14 Q1020=
METAR LSZG 081150Z VRB03KT 9999 FEW050 27/13 Q1021 NOSIG=
METAR LSZR 081150Z 33004KT 280V020 CAVOK 25/13 Q1022 NOSIG RMK I=
METAR LSZS 081150Z VRB05KT CAVOK 25/07 Q1026=
METAR LSZC 081150Z NIL=
####018000096####
SADN31 EKCH 081150 RRB
METAR EKBI 081150Z 25008KT 210V270 9999 FEW018CB BKN095 22/15
Q1019=
####018000085####
SAQB31 LQSM 081200
METAR LQSA 081200Z 29007KT 230V010 9999 SCT 22/12 Q1023 NOSIG=
####018000455####
SASN35 ESWI 081150
METAR ESGL 081150Z AUTO 22010KT 9999NDV OVC033/// 21/14 Q1018=
METAR ESGR 081150Z AUTO 22014KT 9999NDV SCT046/// 23/14 Q1017=
METAR ESKM 081150Z NIL=
METAR ESNL 081150Z AUTO 15011KT 9999NDV BKN056/// 20/10 Q1013=
METAR ESNX 081150Z AUTO 13003KT 9999NDV -RA FEW007/// SCT044///
15/13 Q1014=
METAR ESNY 081150Z AUTO 25012KT 210V270 9999 SKC 23/16 Q1014=
METAR ESSF 081150Z NIL=
METAR ESSK 081150Z NIL=
METAR ESUD 081150Z NIL=
####018000342####
SAFI32 EFHK 081150
EFHA 081150Z VRB02KT 9999 FEW030TCU BKN200 24/15 Q1015=
METAR EFHF 081154Z NIL=
EFKA 081150Z 22005KT 180V260 9999 FEW045 BKN200 24/11 Q1015=
METAR EFKK 081154Z NIL=
EFMA 081150Z 20008KT 150V230 CAVOK 22/14 Q1016=
EFPO 081150Z 29008KT 220V330 CAVOK 24/12 Q1016=
EFSI 081150Z AUTO 17005KT 110V230 CAVOK 25/11 Q1015=
####018000096####
SADN31 EKCH 081150 RRA
METAR EKBI 081150Z 25008KT 210V270 9999 FEW018CB BKN095 22/15
Q1019=
####018000078####
SAUK34 EGGY 081150 RRA
METAR EGHK 081150Z 16007KT 9999 SCT020 18/15 Q1018=
####018000101####
SAFJ31 NFNA 081200
METAR NFNA 081200Z 31005KT 40KM FEW024 SCT300 20/19 Q1014 RMK RR NIL
DEW HVY
####018000136####
SAUS45 KFGZ 081154
MTRRQE
METAR KRQE 081153Z AUTO 00000KT 10SM CLR 16/07 A3028 RMK AO2 SLP123 
T01610067 10206 20150 51009 TSNO
####018000128####
SAUS42 KCHS 081155
MTRSAV
METAR KSAV 081153Z 27005KT 10SM CLR 23/20 A3000 RMK AO2 SLP159 
T02280200 10228 20211 53005 $
####018000138####
SAUS44 KMRX 081154
MTROQT
METAR KOQT 081153Z AUTO 00000KT 5SM HZ CLR 23/20 A3010 RMK AO2 
SLP175 T02280200 10239 20217 53007 TSNO
####018000072####
SADN32 EKCH 081150 RRA
METAR EKVD 081150Z 23016KT CAVOK 25/10 Q1018=
####018000149####
SAUS45 KPUB 081155
MTRLXV
METAR KLXV 081153Z AUTO 00000KT 1/2SM FG OVC002 05/05 A3052 RMK AO2 
SLP215 70011 T00500050 10072 20050 56008 TSNO
####018000453####
SAUK34 EGGY 081150
METAR EGHD 081150Z 19006KT 9999 FEW022 20/12 Q1019=
METAR EGHE 081150Z 20009KT 9999 FEW020 19/14 Q1019=
METAR EGHK 081150Z NIL=
METAR EGHQ 081150Z 29007KT 9999 FEW025 17/12 Q1019=
METAR EGJA 081150Z NIL=
METAR EGJB 081150Z 23005KT 180V280 9999 SCT012 20/16 Q1020=
METAR EGJJ 081150Z 35005KT 320V040 9999 FEW008 21/17 Q1019 NOSIG=
METAR EGTE 081150Z 16010KT 120V190 9999 FEW030 22/14 Q1018=
METAR EGTG 081150Z NIL=
####018000098####
SADN31 EKCH 081150 RRB
METAR EKBI 081150Z 25008KT 210V270 9999 FEW018CB BKN095 22/15
Q1019=
####018000363####
SAUK33 EGGY 081150
METAR EGGD 081150Z VRB04KT 9999 FEW032 20/11 Q1019=
METAR EGGP 081150Z 25010KT 9999 SCT042 19/10 Q1017=
METAR EGHI 081150Z 24005KT 160V300 9999 SCT028 BKN037 22/14 Q1018 =
METAR EGNS 081150Z NIL=
METAR EGNT 081150Z NIL=
METAR EGNV 081150Z 25018KT 9999 SCT040 21/10 Q1015=
METAR COR EGPB 081150Z 20015KT CAVOK 15/11 Q1007 NOSIG=
####018000216####
SADN32 EKCH 081150
METAR EKVJ 081150Z NIL=
METAR EKSB 081150Z 17007KT 140V210 CAVOK 26/11 Q1018=
METAR EKSN 081150Z 18010KT 9999 SCT025 BKN047 20/15 Q1017=
METAR EKVD 081150Z NIL=
METAR EKOD 081150Z NIL=
####018000496####
SASN32 ESWI 081150
METAR ESKN 081150Z 25009KT 190V290 9999 SCT048 24/13 Q1017=
METAR ESOE 081150Z NIL=
METAR ESOK 081150Z 24007KT 9999 BKN022 18/14 Q1017=
METAR ESOW 081150Z 23011KT CAVOK 23/14 Q1017=
METAR ESSA 081150Z 22014KT 9999 FEW045 25/13 Q1016 NOSIG=
METAR ESSB 081150Z 28010KT CAVOK 25/11 Q1017=
METAR ESSD 081150Z AUTO 23011KT 9999NDV BKN028/// 19/12 Q1016=
METAR ESSP 081150Z 25013KT 220V280 CAVOK 24/12 Q1018=
METAR ESSV 081150Z 26007KT 230V290 CAVOK 22/12 Q1019=
####018000198####
SADN33 EKCH 081150
METAR EKKA 081150Z 19006KT 150V220 7000 -SHRA FEW009 FEW018TCU
BKN030 18/17 Q1018 TEMPO 4000 SHRA SCT020CB=
METAR EKSP 081150Z 22015KT CAVOK 27/10 Q1018 NOSIG RMK BKN090=
####018000268####
SADN34 EKCH 081150
METAR EKGF 081150Z 20010KT CAVOK 16/16 Q1017=
METAR EKHN 081150Z AUTO 21003KT 9999NDV SCT031/// BKN053///
BKN079/// 18/15 Q1020=
METAR EKHR 081150Z AUTO 20010KT 7000NDV -SHRA   FEW004/// SCT009///
BKN034/// BKN080/// 17/17 Q1018 RESHRA=
####018000082####
SAMJ41 LWOH 081200
METAR LWOH 081200Z 36010KT 9999 FEW040 BKN050 19/09 Q1019=
####018000171####
SASN34 ESWI 081150
METAR ESDF 081150Z 20011KT CAVOK 23/11 Q1020=
METAR ESPA 081150Z 14011KT CAVOK 18/13 Q1016=
METAR ESSL 081150Z 24009KT 9999 BKN044 23/12 Q1018=
####018000511####
SAUK31 EGGY 081150
METAR EGBB 081150Z 25006KT 170V300 9999 FEW040 21/09 Q1018=
METAR EGCC 081150Z 22009KT 180V260 9999 FEW037 SCT044 20/10
    Q1017=
METAR EGKK 081150Z 20008KT 160V250 9999 SCT035 25/14 Q1018=
METAR EGLL 081150Z 24006KT 200V290 9999 SCT021 SCT033 22/15
    Q1019=
METAR EGPF 081150Z 22018KT 9999 SCT030 18/10 Q1013=
METAR EGPH 081150Z 25015KT 9999 FEW035 18/08 Q1013=
METAR EGPK 081150Z 23016KT 9999 FEW024 19/09 Q1014=
METAR EGSS 081150Z 23009KT 9999 BKN021 22/15 Q1018=
####018000465####
SASN35 ESWI 081150
METAR ESGL 081150Z AUTO 22010KT 9999NDV OVC033/// 21/14 Q1018=
METAR ESGR 081150Z AUTO 22014KT 9999NDV SCT046/// 23/14 Q1017=
METAR ESKM 081150Z NIL=
METAR ESNL 081150Z AUTO 15011KT 9999NDV BKN056/// 20/10 Q1013=
METAR ESNX 081150Z AUTO 13003KT 9999NDV -RA FEW007/// SCT044///
15/13 Q1014=
METAR ESNY 081150Z AUTO 25012KT 210V270 9999 SKC 23/16 Q1014=
METAR ESSF 081150Z NIL=
METAR ESSK 081150Z NIL=
METAR ESUD 081150Z NIL=
####018000086####
SAQB31 LQSM 081200
METAR LQSA 081200Z 29007KT 230V010 9999 SCT 22/12 Q1023 NOSIG=
####018000639####
SASN33 ESWI 081150
METAR ESNG 081150Z 15005KT 9999 -RA FEW039 17/13 Q1014 REUP REDZ=
METAR ESNK 081150Z AUTO 15008KT 9999NDV SCT047/// 22/13 Q1012=
METAR ESNN 081150Z AUTO 26006KT 230V290 9999NDV FEW039///
OVC046/// 22/14 Q1013=
METAR ESNO 081150Z AUTO 17012KT 9999NDV FEW086/// 21/10 Q1013=
METAR ESNQ 081150Z 16008KT 9999 FEW021 SCT072 18/10 Q1013 RERA=
METAR ESNS 081150Z AUTO 14010KT 100V180 9999NDV ////// 22/09 Q1014=
METAR ESNU 081150Z 13008KT 110V190 CAVOK 20/13 Q1014=
METAR ESNZ 081150Z 18009KT CAVOK 20/10 Q1011=
METAR ESUT 081150Z AUTO 15011KT 120V180 9999NDV FEW046///
SCT070/// BKN088/// 19/10 Q1010=
####018000464####
SAUK35 EGGY 081150
METAR EGHH 081150Z 19008KT 9999 FEW026 SCT035 22/16 Q1018=
METAR EGKA 081150Z 21007KT 9999 FEW017 20/17 Q1019=
METAR EGKB 081150Z NIL=
METAR EGLF 081150Z 28006KT 210V340 9999 SCT020 SCT030 21/15 Q1019=
METAR EGMC 081150Z 21005KT 180V250 9999 FEW032 24/15 Q1018=
METAR EGMD 081150Z 19008KT 9999 FEW020 21/16 Q1019=
METAR EGMH 081150Z 13010KT 9999 FEW020 22/17 Q1019 =
METAR EGTC 081150Z 25007KT 180V280 9999 FEW032 21/12 Q1018=
####018000492####
SAUK32 EGGY 081150
METAR EGAA 081150Z 23013KT 9999 FEW032 18/09 Q1014=
METAR EGAC 081150Z 21013KT 9999 FEW023 SCT039 18/08 Q1014=
METAR EGFF 081150Z 17007KT 9999 FEW030 20/10 Q1018=
METAR EGGW 081150Z 23004KT 170V300 9999 SCT024 22/14 Q1018=
METAR EGLC 081150Z 28004KT 240V310 9999 BKN026 22/15 Q1018=
METAR EGNM 081150Z 25010KT 200V280 9999 SCT040 18/09 Q1016=
METAR EGNX 081150Z 22010KT 190V270 CAVOK 21/08 Q1017=
METAR EGPD 081150Z 24013KT 9999 SCT041 18/08 Q1011 NOSIG=
####018000349####
SAFI32 EFHK 081150
EFHA 081150Z VRB02KT 9999 FEW030TCU BKN200 24/15 Q1015=
METAR EFHF 081154Z NIL=
EFKA 081150Z 22005KT 180V260 9999 FEW045 BKN200 24/11 Q1015=
METAR EFKK 081154Z NIL=
EFMA 081150Z 20008KT 150V230 CAVOK 22/14 Q1016=
EFPO 081150Z 29008KT 220V330 CAVOK 24/12 Q1016=
EFSI 081150Z AUTO 17005KT 110V230 CAVOK 25/11 Q1015=
####018000098####
SADN31 EKCH 081150 RRA
METAR EKBI 081150Z 25008KT 210V270 9999 FEW018CB BKN095 22/15
Q1019=
####018000083####
SPUS51 KWBC 081155
SPECI
KPNE 081151Z VRB04KT 2 1/2SM BR OVC002 24/23 A3005=
####018001855####
SAEU KAWN 081200 RRB
METAR EGAA 081150Z 23013KT 9999 FEW032 18/09 Q1014=
METAR EGAC 081150Z 21013KT 9999 FEW023 SCT039 18/08 Q1014=
METAR EGBB 081150Z 25006KT 170V300 9999 FEW040 21/09 Q1018=
METAR EGFF 081150Z 17007KT 9999 FEW030 20/10 Q1018=
METAR EGGW 081150Z 23004KT 170V300 9999 SCT024 22/14 Q1018=
METAR EGHD 081150Z 19006KT 9999 FEW022 20/12 Q1019=
METAR EGHE 081150Z 20009KT 9999 FEW020 19/14 Q1019=
METAR EGHH 081150Z 19008KT 9999 FEW026 SCT035 22/16 Q1018=
METAR EGHI 081150Z 24005KT 160V300 9999 SCT028 BKN037 22/14 Q1018=
METAR EGJB 081150Z 23005KT 180V280 9999 SCT012 20/16 Q1020=
METAR EGJJ 081150Z 35005KT 320V040 9999 FEW008 21/17 Q1019 NOSIG=
METAR EGKA 081150Z 21007KT 9999 FEW017 20/17 Q1019=
METAR EGLC 081150Z 28004KT 240V310 9999 BKN026 22/15 Q1018=
METAR EGLF 081150Z 28006KT 210V340 9999 SCT020 SCT030 21/15 Q1019=
METAR EGLL 081150Z 24006KT 200V290 9999 SCT021 SCT033 22/15 Q1019=
METAR EGMC 081150Z 21005KT 180V250 9999 FEW032 24/15 Q1018=
METAR EGMD 081150Z 19008KT 9999 FEW020 21/16 Q1019=
METAR EGMH 081150Z 13010KT 9999 FEW020 22/17 Q1019=
METAR EGNM 081150Z 25010KT 200V280 9999 SCT040 18/09 Q1016=
METAR EGNX 081150Z 22010KT 190V270 CAVOK 21/08 Q1017=
METAR EGPD 081150Z 24013KT 9999 SCT041 18/08 Q1011 NOSIG=
METAR EGPH 081150Z 25015KT 9999 FEW035 18/08 Q1013=
METAR EGTC 081150Z 25007KT 180V280 9999 FEW032 21/12 Q1018=
METAR EGTE 081150Z 16010KT 120V190 9999 FEW030 22/14 Q1018=
METAR EKEB 081150Z AUTO 24010KT 9999NDV BKN066/// BKN082/// 20/16 Q1019=
METAR EKKA 081150Z 19006KT 150V220 7000 -SHRA FEW009 FEW018TCU BKN030
      18/17 Q1018 TEMPO 4000 SHRA SCT020CB=
METAR EKRK 081150Z AUTO 22013KT 9999NDV BKN050/// 25/10 Q1019=
METAR EKSP 081150Z 22015KT CAVOK 27/10 Q1018 NOSIG RMK BKN090=
METAR ETOR 081155Z VRB03KT 9999 FEW200 33/08 A3013 RMK 58005 BLU=
####018001807####
SAUK KAWN 081200
METAR EGAA 081150Z 23013KT 9999 FEW032 18/09 Q1014=
METAR EGAC 081150Z 21013KT 9999 FEW023 SCT039 18/08 Q1014=
METAR EGBB 081150Z 25006KT 170V300 9999 FEW040 21/09 Q1018=
METAR EGCC 081150Z 22009KT 180V260 9999 FEW037 SCT044 20/10 Q1017=
METAR EGFF 081150Z 17007KT 9999 FEW030 20/10 Q1018=
METAR EGGD 081150Z VRB04KT 9999 FEW032 20/11 Q1019=
METAR EGGW 081150Z 23004KT 170V300 9999 SCT024 22/14 Q1018=
METAR EGHD 081150Z 19006KT 9999 FEW022 20/12 Q1019=
METAR EGHE 081150Z 20009KT 9999 FEW020 19/14 Q1019=
METAR EGHH 081150Z 19008KT 9999 FEW026 SCT035 22/16 Q1018=
METAR EGHI 081150Z 24005KT 160V300 9999 SCT028 BKN037 22/14 Q1018=
METAR EGJB 081150Z 23005KT 180V280 9999 SCT012 20/16 Q1020=
METAR EGJJ 081150Z 35005KT 320V040 9999 FEW008 21/17 Q1019 NOSIG=
METAR EGKA 081150Z 21007KT 9999 FEW017 20/17 Q1019=
METAR EGKK 081150Z 20008KT 160V250 9999 SCT035 25/14 Q1018=
METAR EGLC 081150Z 28004KT 240V310 9999 BKN026 22/15 Q1018=
METAR EGLF 081150Z 28006KT 210V340 9999 SCT020 SCT030 21/15 Q1019=
METAR EGLL 081150Z 24006KT 200V290 9999 SCT021 SCT033 22/15 Q1019=
METAR EGMC 081150Z 21005KT 180V250 9999 FEW032 24/15 Q1018=
METAR EGMD 081150Z 19008KT 9999 FEW020 21/16 Q1019=
METAR EGMH 081150Z 13010KT 9999 FEW020 22/17 Q1019=
METAR EGNM 081150Z 25010KT 200V280 9999 SCT040 18/09 Q1016=
METAR EGNX 081150Z 22010KT 190V270 CAVOK 21/08 Q1017=
METAR EGPD 081150Z 24013KT 9999 SCT041 18/08 Q1011 NOSIG=
METAR EGPF 081150Z 22018KT 9999 SCT030 18/10 Q1013=
METAR EGPH 081150Z 25015KT 9999 FEW035 18/08 Q1013=
METAR EGPK 081150Z 23016KT 9999 FEW024 19/09 Q1014=
METAR EGSS 081150Z 23009KT 9999 BKN021 22/15 Q1018=
METAR EGTC 081150Z 25007KT 180V280 9999 FEW032 21/12 Q1018=
METAR EGTE 081150Z 16010KT 120V190 9999 FEW030 22/14 Q1018=
####018000168####
SAGM31 PGUM 081155
MTRGUM
METAR PGUM 081154Z 11010G16KT 10SM FEW025 SCT045 27/24 A2992 RMK AO2 
RAB21E30 SLP124 60001 70001 8842577 T02720239 10306 20261 53014
####018000086####
SPUS53 KWBC 081155
SPECI
KDBQ 081151Z 30005KT 4SM BR BKN003 OVC016 21/21 A3007=
####018000074####
SALY31 HLLM 081200
METAR HLLM 081150Z 
33008KT 7000 SKC 28/20 Q1019=
####018002961####
SAUS20 KNKA 081154
METAR KCRG 081153Z 00000KT 10SM CLR 23/22 A3001 RMK AO2 SLP163 
    T02330217 10233 20189 53007=
METAR KCSM 081153Z AUTO 04006KT 10SM BKN017 BKN110 23/21 A3012 RMK 
    AO2 SLP173 60000 T02280206 10228 20228 53007=
METAR KCYS 081153Z 00000KT 10SM OVC008 12/11 A3037 RMK AO2 CIG 
    005V010 SLP235 60000 70002 T01170106 10117 20111 50002=
METAR KDEN 081153Z 36005KT 4SM BR BKN025 BKN120 14/13 A3031 RMK AO2 
    SLP209 70009 T01390128 10150 20139 55003 $=
METAR KDET 081153Z AUTO 24004KT 8SM CLR 27/22 A3003 RMK AO2 SLP164 
    T02670217 10267 20239 50002 TSNO $=
METAR KDFI 081153Z AUTO 19003KT 5SM HZ CLR 24/20 A3005 RMK AO2 
    SLP171 T02390200 10239 20206 50002=
METAR KDFW 081153Z 13003KT 6SM -RA BR BKN014 BKN019 OVC025 26/23 
    A3002 RMK AO2 SLP156 P0002 60002 70026 T02560233 10261 20250 
    51012=
METAR KDGW 081153Z AUTO 00000KT 10SM CLR 05/04 A3035 RMK AO2 SLP254 
    70001 T00500044 10094 20044 53006 $=
METAR KDKK 081153Z AUTO 00000KT 10SM CLR 25/20 A3006 RMK AO2 SLP175 
    T02500200 10250 20189 50002=
METAR KDLN 081153Z AUTO 19007KT 10SM CLR 06/02 A3030 RMK AO2 SLP229 
    T00560022 10122 20044 53008=
METAR KDMO 081153Z AUTO 00000KT 6SM BR SCT002 OVC009 24/22 A3007 RMK 
    AO2 SLP176 60000 70167 T02390222 10239 20228 53010=
METAR KDNL 081153Z AUTO 31006KT 10SM CLR 28/18 A3002 RMK AO2 SLP159 
    T02830183 10283 20261 53005=
METAR KDRO 081153Z AUTO 00000KT 10SM CLR 12/06 A3032 RMK AO2 SLP184 
    60000 T01170056 10172 20111 53006=
METAR KDTW 081153Z 00000KT 6SM HZ FEW150 26/21 A3003 RMK AO2 SLP165 
    T02560211 10261 20233 50002=
METAR KDXR 081153Z 00000KT 1 1/2SM BR OVC003 23/22 A3008 RMK AO2 
    SLP182 T02330222 10239 20222 51006=
METAR KECP 081153Z 32004KT 8SM CLR 24/24 A3002 RMK AO2 SLP177 7//// 
    T02440239 10244 20228 53005=
METAR KEEO 081153Z AUTO 06003KT 10SM CLR 07/06 A3031 RMK AO2 SLP194 
    6//// 7//// T00720056 10144 20072 $=
METAR KELD 081153Z AUTO 00000KT 5SM BR CLR 23/22 A3006 RMK AO2 
    SLP173 70071 T02280222 10233 20222 53008=
METAR KELM 081153Z 00000KT 2 1/2SM HZ CLR 22/19 A3009 RMK AO2 SLP181 
    T02170189 10217 20167 51003=
METAR KEMP 081153Z AUTO 36005KT 7SM FEW006 22/19 A3009 RMK AO2 
    SLP180 70009 T02170194 10222 20211 53004=
METAR KEVW 081153Z AUTO 08012KT 10SM CLR 10/03 A3033 RMK AO2 SLP187 
    T01000033 10139 20100 51009 TSNO=
METAR KEWB 081153Z 13005KT 10SM OVC004 23/21 A3009 RMK AO2 SLP189 
    T02330211 10233 20217 51009=
METAR KEYE 081153Z AUTO 00000KT 6SM HZ CLR 26/21 A3005 RMK AO2 
    SLP168 T02560206 10256 20233 50002=
METAR KEYW 081153Z 08004KT 10SM FEW019 28/24 A2995 RMK AO2 SLP140 
    60000 70001 T02780244 10283 20272 53008=
METAR KFCM 081153Z 27003KT 10SM CLR 19/16 A3010 RMK AO2 SLP189 70008 
    T01890161 10211 20172 53010=
METAR KFDY 081153Z AUTO 00000KT 4SM HZ CLR 24/21 A3006 RMK AO2 
    SLP169 T02390206 10239 20211 51004=
####018002913####
SAUS20 KNKA 081154
METAR KAAF 081153Z AUTO 36006KT 7SM CLR 25/24 A3002 RMK AO2 SLP164 
    T02500239 10250 20233 53008=
METAR KABR 081153Z AUTO 00000KT 10SM CLR 16/14 A3014 RMK AO2 SLP201 
    T01560139 10161 20133 51006=
METAR KABY 081153Z 00000KT 10SM CLR 23/21 A3005 RMK AO2 SLP172 
    T02280206 10228 20206 53004=
METAR KACK 081153Z 12011KT 10SM CLR 21/19 A3011 RMK AO2 SLP194 
    T02110194 10211 20183 52010=
METAR KADG 081153Z AUTO 00000KT 5SM HZ CLR 23/20 A3006 RMK AO2 
    SLP172 T02330200 10239 20211 50002=
METAR KAFW 081153Z 13005KT 10SM -RA FEW012 SCT070 BKN120 26/23 A3002 
    RMK AO2 RAB23 SLP148 P0000 60000 70002 T02560228 10267 20256 
    53009=
METAR KAGC 081153Z 00000KT 3SM HZ CLR 23/21 A3010 RMK AO2 SLP186 
    T02330206 10261 20211 51006=
METAR KAIA 081153Z AUTO 00000KT 10SM SCT031 BKN046 14/13 A3030 RMK 
    AO2 SLP237 T01390128 10161 20139 53007 $=
METAR KAKO 081153Z AUTO 14007KT 7SM SCT003 BKN013 OVC022 14/14 A3032 
    RMK AO2 RAB1057E21B39E51 SLP236 P0001 60001 70001 T01440139 
    10150 20144 53004 TSNO=
METAR KAMG 081153Z AUTO 29003KT 9SM CLR 23/21 A3002 RMK AO2 SLP163 
    T02330206 10233 20206 53006=
METAR KAMW 081153Z AUTO 34007KT 9SM CLR 20/18 A3011 RMK AO2 SLP188 
    70007 T02000183 10211 20194 52009=
METAR KAOH 081153Z AUTO 00000KT 5SM HZ 24/21 A3008 RMK AO2 SLP175 
    T02390206 10239 20217 50003 $=
METAR KAPA 081153Z 15005KT 6SM BR FEW007 BKN027 BKN120 13/12 A3033 
    RMK AO2 SLP228 70002 T01330117 10144 20128 57005 $=
METAR KAPF 081153Z 04006KT 10SM CLR 26/23 A2997 RMK AO2 SLP148 
    T02610228 10261 20244 53008=
METAR KARB 081153Z AUTO 00000KT 7SM SCT065 23/22 A3004 RMK AO2 
    SLP165 T02330217 10233 20189 50003=
METAR KASE 081153Z 11004KT 10SM FEW100 09/05 A3037 RMK AO2 SLP195 
    60010 70017 T00890050 10106 20072 57002=
METAR KASX 081153Z AUTO 24003KT 10SM CLR 18/17 A3005 RMK AO2 SLP176 
    T01780167 10189 20150 53011=
METAR KATY 081153Z AUTO 00000KT 10SM CLR 16/14 A3015 RMK AO2 SLP203 
    T01560139 10161 20139 50001=
METAR KAUG 081153Z AUTO VRB03KT 4SM BR OVC003 21/20 A3010 RMK AO2 
    SLP192 T02110200 10211 20206 53008=
METAR KAXN 081153Z AUTO 25006KT 10SM CLR 17/16 A3013 RMK AO2 SLP201 
    60001 70001 T01720156 10172 20144 53005=
METAR KBAF 081153Z 17005KT 5SM HZ FEW011 SCT080 25/22 A3007 RMK AO2 
    SLP178 T02500217 10250 20233 51012=
METAR KBBW 081153Z AUTO 00000KT 10SM BKN090 OVC110 17/16 A3024 RMK 
    AO2 SLP225 T01720161 10183 20156 51005=
METAR KBCE 081153Z AUTO 00000KT 10SM SCT100 14/00 A3032 RMK AO2 
    RAB10E20 SLP145 P0000 60000 70001 T01390000 10183 20083 53003 
    TSNO=
METAR KBDE 081153Z AUTO 00000KT 10SM CLR 16/12 A3000 RMK AO2 SLP160 
    70002 T01560122 10167 20139 50005=
METAR KBFF 081153Z AUTO 00000KT 10SM SCT026 SCT034 OVC055 14/13 
    A3031 RMK AO2 SLP234 T01440128 10161 20144 53004=
####018002924####
SAUS20 KNKA 081154
METAR KFFT 081153Z AUTO 00000KT 4SM BR CLR 23/22 A3008 RMK AO2 
    SLP177 T02330217 10233 20206 51003=
METAR KFLL 081153Z 08007KT 10SM CLR 29/24 A2994 RMK AO2 SLP138 
    T02890239 10289 20278 53008=
METAR KFLO 081153Z 32005KT 10SM CLR 27/19 A2996 RMK AO2 SLP142 
    T02670189 10267 20250 53006=
METAR KFMY 081153Z 04005KT 10SM CLR 25/23 A2997 RMK AO2 SLP152 70001 
    T02500228 10250 20233 53010=
METAR KFNB 081153Z AUTO 35009KT 9SM CLR 21/19 A3010 RMK AO2 SLP185 
    70068 T02110194 10222 20211 53006=
METAR KFNT 081153Z AUTO 29003KT 9SM CLR 26/21 A3004 RMK AO2 SLP165 
    T02560206 10256 20211 50004=
METAR KFOE 081153Z 33006KT 10SM SCT007 BKN012 22/20 A3009 RMK AO2 
    SLP177 60033 70102 T02170200 10222 20206 52010=
METAR KFOK 081153Z 12005KT 10SM FEW004 OVC013 24/21 A3009 RMK AO2 
    SLP187 T02440211 10250 20239 51012=
METAR KFPR 081153Z 00000KT 10SM FEW020 26/23 A2998 RMK AO2 SLP152 
    T02560228 10267 20217 53009=
METAR KFRG 081153Z 19005KT 9SM BKN012 OVC021 25/23 A3006 RMK AO2 
    SLP178 60000 T02500228 10256 20244 53007=
METAR KFST 081153Z AUTO 14004KT 10SM BKN120 22/19 A3008 RMK AO2 
    SLP135 T02220194 10228 20217 53005=
METAR KFVE 081153Z AUTO 15005KT 3SM BR OVC003 23/23 A3002 RMK AO2 
    SLP156 T02280228 10233 20217 51006=
METAR KFWN 081153Z AUTO 00000KT 4SM HZ CLR 24/21 A3006 RMK AO2 
    SLP175 T02440211 10244 20206 51008=
METAR KFXE 081153Z 06006KT 10SM FEW019 29/24 A2994 RMK AO2 SLP142 
    60000 T02890239 10289 20272 53009=
METAR KGAG 081153Z AUTO 36006KT 10SM OVC009 21/19 A3015 RMK AO2 
    RAE1056 SLP183 P0000 60000 T02060194 10228 20206 53008=
METAR KGCC 081153Z AUTO 17004KT 10SM CLR 10/07 A3029 RMK AO2 SLP230 
    T01000067 10117 20078 53002=
METAR KGEY 081153Z AUTO 00000KT 10SM CLR 09/03 A3027 RMK AO2 SLP227 
    T00940028 10178 20094 53006=
METAR KGEZ 081153Z AUTO 14003KT 5SM HZ CLR 24/21 A3005 RMK AO2 
    SLP166 T02390211 10239 20206 50002=
METAR KGFK 081153Z 24003KT 10SM FEW080 16/13 A3005 RMK AO2 SLP174 
    7//// T01560133 10161 20139 53006=
METAR KGFL 081153Z AUTO 00000KT 5SM HZ CLR 26/22 A3003 RMK AO2 
    SLP166 T02560222 10256 20200 50004=
METAR KGGW 081153Z AUTO 05004KT 10SM CLR 11/08 A3015 RMK AO2 SLP206 
    T01110083 10167 20094 53005 TSNO $=
METAR KGIF 081153Z AUTO 00000KT 10SM CLR 24/22 A3001 RMK AO2 SLP160 
    T02390217 10239 20217 52006 TSNO=
METAR KGJT 081153Z 12005KT 10SM CLR 18/07 A3019 RMK AO2 SLP153 
    T01780067 10233 20178 53008=
METAR KGKJ 081153Z AUTO 00000KT 9SM CLR 24/18 A3011 RMK AO2 SLP184 
    T02440183 10244 20194 50004=
METAR KGLD 081153Z AUTO 36003KT 10SM OVC004 17/16 A3030 RMK AO2 CIG 
    003V009 SLP228 T01670161 10172 20167 53006=
METAR KGLR 081153Z AUTO 25008KT 6SM -RA BR FEW019 BKN046 OVC065 
    22/20 A3003 RMK AO2 RAB08 SLP161 P0001 60001 70001 T02170200 
    10233 20211 53007=
####018002923####
SAUS20 KNKA 081154
METAR KBGM 081153Z 00000KT 4SM HZ CLR 23/20 A3013 RMK AO2 SLP187 
    T02330200 10250 20200 52002=
METAR KBGR 081153Z 18008KT 5SM BR OVC005 21/19 A3010 RMK AO2 SLP191 
    60004 7//// T02060194 10211 20194 53012=
METAR KBHK 081153Z AUTO 00000KT 10SM CLR 12/08 A3021 RMK AO2 SLP218 
    T01220083 10139 20089 53001=
METAR KBIL 081153Z 25005KT 10SM FEW120 13/05 A3025 RMK AO2 SLP223 
    T01280050 10189 20111 53004=
METAR KBKL 081153Z VRB04KT 5SM HZ SCT060 27/18 A3006 RMK AO2 SLP171 
    T02670183 10267 20244 53004=
METAR KBMG 081153Z 00000KT 6SM BR FEW070 24/22 A3006 RMK AO2 SLP170 
    T02390222 10239 20211 53003=
METAR KBOI 081153Z 13005KT 10SM CLR 18/06 A3006 RMK AO2 SLP151 
    T01780061 10217 20178 53004=
METAR KBPI 081153Z AUTO 34007KT 10SM BKN095 05/01 A3040 RMK AO2 
    SLP220 T00500006 10128 20044 52002=
METAR KBRD 081153Z AUTO 23005KT 10SM CLR 17/14 A3008 RMK AO2 SLP185 
    T01720139 10172 20139 53003=
METAR KBRL 081153Z AUTO 3SM BR OVC002 22/21 A3004 RMK AO2 SLP169 
    70202 T02220211 10239 20222 50009 $=
METAR KBTM 081153Z AUTO 14004KT 10SM CLR 04/01 A3033 RMK AO2 SLP238 
    T00440006 10128 20044 53005=
METAR KBVO 081153Z AUTO 00000KT 10SM FEW040 22/22 A3005 RMK AO2 
    SLP165 T02220217 10233 20217 53005=
METAR KBVY 081153Z 21004KT 10SM CLR 24/20 A3009 RMK AO2 SLP183 6//// 
    7//// T02390200 10239 20211 51010 PNO=
METAR KBYG 081153Z AUTO 26006KT 10SM CLR 11/02 A3031 RMK AO2 SLP227 
    T01060017 10128 20089 53000=
METAR KBYI 081153Z AUTO 10005KT 10SM CLR 11/04 A3014 RMK AO2 SLP169 
    T01110039 10144 20083 53004=
METAR KCAG 081153Z AUTO 00000KT 10SM CLR 08/06 A3032 RMK AO2 SLP212 
    T00830061 10139 20078 53010=
METAR KCDC 081153Z AUTO 00000KT 10SM SCT120 14/02 A3016 RMK AO2 
    SLP135 T01440017 10178 20111 53009 $=
METAR KCDR 081153Z AUTO 23005KT 10SM CLR 09/08 A3030 RMK AO2 SLP258 
    T00890078 10128 20083 53007=
METAR KCDW 081153Z 00000KT 4SM HZ CLR 26/22 A3005 RMK AO2 SLP178 
    T02610222 10261 20233 51008=
METAR KCEZ 081153Z AUTO 05003KT 10SM CLR 14/06 A3024 RMK AO2 SLP162 
    7//// T01390056 10222 20133 53005=
METAR KCGI 081153Z AUTO 00000KT 10SM FEW100 24/23 A3005 RMK AO2 
    SLP171 70043 T02440233 10256 20233 51007 TSNO=
METAR KCKB 081153Z 00000KT 2 1/2SM HZ CLR 22/19 A3011 RMK AO2 SLP178 
    T02170189 10217 20183 51006=
METAR KCMX 081153Z AUTO 00000KT 10SM OVC090 19/17 A3000 RMK AO2 
    SLP156 T01940167 10194 20178 53008=
METAR KCNY 081153Z AUTO VRB03KT 10SM CLR 20/04 A3012 RMK AO2 SLP137 
    T02000044 10239 20183 53006=
METAR KCPR 081153Z 24004KT 10SM CLR 04/03 A3035 RMK AO2 SLP245 
    T00440028 10094 20033 53003 $=
METAR KCPS 081153Z 18003KT 10SM OVC043 25/22 A3004 RMK AO2 SLP167 
    T02500222 10256 20233 53006=
METAR KCRE 081153Z 33005KT 10SM CLR 27/20 A2992 RMK AO2 SLP134 
    T02670200 10272 20256 53003=
####018002952####
SAUS20 KNKA 081154
METAR KGOK 081153Z AUTO 00000KT 6SM BR CLR 23/21 A3006 RMK AO2 
    SLP168 70022 T02280211 10239 20228 53005=
METAR KGRB 081153Z 00000KT 1 3/4SM BR OVC002 22/21 A3000 RMK AO2 
    SLP156 60003 70168 T02170211 10217 20206 52002=
METAR KGRI 081153Z 34005KT 10SM CLR 16/14 A3021 RMK AO2 SLP221 
    T01610144 10167 20150 50008=
METAR KGTF 081153Z 21007KT 10SM CLR 09/06 A3023 RMK AO2 SLP223 
    T00890056 10139 20067 55001 $=
METAR KGUP 081153Z AUTO 08003KT 10SM CLR 18/07 A3027 RMK AO2 SLP063 
    T01780072 10211 20172 53007=
METAR KGUY 081153Z AUTO 01003KT 8SM -RA OVC110 18/17 A3022 RMK AO2 
    SLP188 P0002 60043 70043 T01830172 10211 20178 51003=
METAR KHAO 081153Z AUTO 00000KT 2 1/2SM BR CLR 24/22 A3009 RMK AO2 
    SLP183 T02390217 10239 20200 50003=
METAR KHEI 081153Z AUTO 29003KT 10SM CLR 11/08 A3020 RMK AO2 SLP218 
    T01060078 10117 20083 53005=
METAR KHFD 081153Z 00000KT 3SM HZ OVC010 26/23 A3006 RMK AO2 CIG 
    007V012 SLP179 60000 T02560228 10261 20244 52008=
METAR KHIB 081153Z AUTO 00000KT 10SM CLR 13/12 A3005 RMK AO2 SLP177 
    P0001 60001 70001 T01280122 10128 20083 53001=
METAR KHLC 081153Z AUTO 03004KT 10SM OVC027 18/16 A3023 RMK AO2 
    SLP219 70003 T01780161 10178 20167 53007=
METAR KHLN 081153Z 00000KT 10SM CLR 10/04 A3025 RMK AO2 SLP238 
    T01000039 10161 20089 51003=
METAR KHSI 081153Z AUTO 35005KT 10SM CLR 16/14 A3021 RMK AO2 SLP221 
    T01560144 10167 20150 51010=
METAR KHUF 081153Z 00000KT 4SM BR CLR 25/23 A3005 RMK AO2 SLP170 
    T02500228 10250 20222 53005 $=
METAR KHUL 081153Z AUTO 20007KT 5SM HZ FEW009 22/19 A3004 RMK AO2 
    SLP169 T02220194 10222 20200 51007=
METAR KHVN 081153Z 12006KT 6SM HZ FEW004 BKN017 OVC023 25/22 A3007 
    RMK AO2 SLP181 T02500222 10250 20239 51004=
METAR KHVR 081153Z AUTO 24004KT 10SM CLR 08/07 A3020 RMK AO2 SLP221 
    T00780067 10139 20072 53003=
METAR KHWO 081153Z AUTO VRB03KT 10SM CLR 26/24 A2996 RMK AO2 SLP146 
    T02610244 10261 20250 53008=
METAR KHYR 081153Z AUTO 00000KT 10SM CLR 18/16 A3008 RMK AO2 SLP180 
    60000 T01830156 10200 20156 51013=
METAR KHZY 081153Z AUTO 15004KT 6SM HZ CLR 23/21 A3009 RMK AO2 
    SLP180 60001 70001 T02330206 10233 20178 50003=
METAR KIAG 081153Z 23006KT 8SM FEW080 26/21 A3005 RMK AO2 SLP167 
    8/030 T02560211 10256 20228 51003=
METAR KICR 081153Z AUTO 26004KT 10SM CLR 17/11 A3021 RMK AO2 SLP222 
    7//// T01670111 10183 20161 53002 TSNO $=
METAR KICT 081153Z 36007KT 9SM FEW080 SCT120 OVC200 22/21 A3009 RMK 
    AO2 SLP177 T02220211 10233 20217 51002 $=
METAR KIDA 081153Z AUTO 36008KT 10SM CLR 08/05 A3021 RMK AO2 SLP198 
    T00830050 10117 20072 53007=
METAR KIML 081153Z AUTO 00000KT 8SM OVC085 16/14 A3028 RMK AO2 
    SLP237 T01610144 10172 20156 53006=
METAR KINK 081153Z AUTO 36006KT 10SM BKN019 22/19 A3009 RMK AO2 
    SLP146 60000 7//// T02170194 10239 20211 53011 TSNO=
####018000178####
SAUS42 KKEY 081155
MTRNQX
METAR KNQX 081153Z 06005KT 10SM SCT022TCU BKN100 BKN200 28/25 A2994 
RMK AO2 SLP138 TCU DSNT SE-W T2 SET 70023 T02830250 10283 20278 
53009 $
####018000139####
SAUS46 KSGX 081155
MTRSDM
METAR KSDM 081153Z AUTO 00000KT 10SM OVC010 16/13 A2990 RMK AO2 
SLP121 T01610133 10167 20156 55000 TSNO
####018000093####
SAAH10 OAKB 081150
METAR OAKB 081150Z 35009KT 9999 FEW070 34/05 Q1013 NOSIG RMK BLU BLU=
####018000086####
SAIN31 VABB 081140 RRA
METAR VOTR 081140Z VRB03KT 8000 SCT020 BKN250 33/23 Q1007=
####018000140####
SAUS45 KLKN 081155
MTRELY
METAR KELY 081153Z AUTO 19003KT 10SM CLR 07/M04 A3023 RMK AO2 SLP144 
70078 T00671039 10183 20067 53008 $
####018000133####
SAUS44 KJAN 081155
MTRJAN
METAR KJAN 081154Z 00000KT 8SM CLR 23/22 A3007 RMK AO2 SLP177 70043 
T02330222 10244 20228 53011 $
####018000125####
SAUS41 KBTV 081155
MTRBTV
METAR KBTV 081154Z 00000KT 7SM CLR 27/21 A3003 RMK AO2 SLP166 
T02670211 10267 20228 53006
####018000086####
SAAI41 FHAW 081150
METAR FHAW 081150Z 13015KT 9999 FEW028 BKN040 27/19 Q1016 BLU=
####018000081####
SAAL41 DAMM 081100 RRD
METAR DAUA 081100Z 01026KT 4000 DRSA NSC 43/08 Q1014=
####018000086####
SPUS81 KWBC 081155
SPECI
KDBQ 081151Z 30005KT 4SM BR BKN003 OVC016 21/21 A3007=
####018002934####
SAUS20 KNKA 081154
METAR KPKB 081153Z 00000KT 1/4SM R03/1200FT FG CLR 21/21 A3012 RMK 
    AO2 SLP190 VIS SW-W 3/4 T02110206 10217 20194 51007=
METAR KPKD 081153Z AUTO 23003KT 10SM CLR 15/14 A3009 RMK AO2 SLP187 
    60001 70001 T01500139 10156 20133 53005=
METAR KPMP 081153Z 06006KT 10SM CLR 28/24 A2995 RMK AO2 SLP143 
    T02830244 10283 20272 51009=
METAR KPNC 081153Z AUTO 00000KT 10SM SCT026 22/21 A3006 RMK AO2 
    SLP168 70005 T02220211 10228 20217 53004=
METAR KPOF 081153Z AUTO 21004KT 7SM CLR 25/24 A3005 RMK AO2 SLP170 
    T02500239 10256 20244 51006 $=
METAR KPOU 081153Z 00000KT 5SM HZ SCT110 26/22 A3004 RMK AO2 SLP166 
    T02610222 10261 20217 51009=
METAR KPTK 081153Z 25004KT 9SM FEW140 SCT250 26/21 A3004 RMK AO2 
    SLP162 T02610211 10267 20239 50003=
METAR KPUB 081153Z 00000KT 10SM CLR 14/13 A3030 RMK AO2 SLP215 60001 
    70034 T01390128 10156 20139 58009=
METAR KPUC 081153Z AUTO 12007KT 10SM CLR 14/02 A3023 RMK AO2 SLP171 
    T01390017 10194 20139 53006 TSNO=
METAR KPUW 081153Z AUTO 00000KT 10SM CLR 09/06 A3008 RMK AO2 SLP176 
    T00890061 10128 20089 53002=
METAR KRHI 081153Z AUTO 00000KT 10SM CLR 19/17 A3005 RMK AO2 SLP171 
    70040 T01940172 10200 20167 53009=
METAR KRIW 081153Z AUTO 30006KT 10SM CLR 07/04 A3035 RMK AO2 SLP233 
    T00720039 10150 20072 51004=
METAR KRME 081153Z 00000KT 7SM CLR 24/21 A3007 RMK AO2 SLP177 6//// 
    7//// T02440206 10322 20211 $=
METAR KRSL 081153Z AUTO 35007KT 10SM BKN015 OVC033 18/18 A3018 RMK 
    AO2 SLP205 70007 T01830178 10194 20183 53009=
METAR KRSW 081153Z 03003KT 10SM CLR 25/23 A2998 RMK AO2 SLP149 
    T02500228 10250 20233 53010=
METAR KRVS 081153Z 00000KT 10SM FEW048 BKN075 23/22 A3004 RMK AO2 
    SLP175 60238 70239 T02280222 10250 20228 51012=
METAR KRWF 081153Z AUTO 28005KT 10SM CLR 16/14 A3013 RMK AO2 SLP200 
    T01610144 10167 20150 53006=
METAR KRWI 081153Z AUTO 04003KT 5SM HZ CLR 26/21 A2998 RMK AO2 
    SLP150 T02560206 10256 20222 51013=
METAR KRWL 081153Z AUTO 08010KT 9SM OVC005 09/08 A3039 RMK AO2 
    SLP228 T00890078 10100 20072 53006=
METAR KRXE 081153Z AUTO 05005KT 10SM CLR 08/05 A3023 RMK AO2 SLP205 
    T00780050 10128 20078 53009=
METAR KSBM 081153Z AUTO 00000KT 9SM OVC012 22/21 A3000 RMK AO2 
    SLP156 60002 70121 T02220211 10228 20217 $=
METAR KSEG 081153Z AUTO 00000KT 5SM HZ CLR 27/18 A3005 RMK AO2 
    SLP172 T02670183 10267 20211 51004=
METAR KSHR 081153Z AUTO 21004KT 10SM CLR 07/05 A3027 RMK AO2 SLP235 
    T00720050 10100 20061 53002=
METAR KSLC 081153Z 15006KT 10SM FEW090 SCT130 18/07 A3010 RMK AO2 
    SLP140 VIRGA N AND DSNT W AND NW T01830067 10211 20167 53007=
METAR KSLN 081153Z 35009KT 5SM BR SCT006 BKN016 21/19 A3012 RMK AO2 
    SLP189 70001 T02060194 10228 20206 51004=
METAR KSMQ 081153Z AUTO 00000KT 4SM HZ OVC009 25/22 A3003 RMK AO2 
    SLP167 T02500222 10250 20211 51011=
####018002921####
SAUS20 KNKA 081154
METAR KMSS 081153Z AUTO 22006KT 6SM HZ CLR 26/22 A3002 RMK AO2 
    SLP162 T02610217 10261 20217 51005=
METAR KMTH 081153Z AUTO 06004KT 8SM UP FEW060 BKN100 A2994 RMK AO2 
    RAE18UPB47 SLP140 P0002 60007 70100 53010 FZRANO $=
METAR KMTJ 081153Z AUTO 11007KT 10SM CLR 14/05 A3028 RMK AO2 SLP182 
    T01390050 10211 20139 53001=
METAR KMTO 081153Z AUTO 21003KT 8SM CLR 24/23 A3005 RMK AO2 SLP167 
    T02440228 10250 20233 53005=
METAR KMVY 081153Z 14009KT 10SM CLR 24/21 A3010 RMK AO2 SLP191 
    T02390206 10239 20211 53005=
METAR KMWL 081153Z AUTO 10SM FEW085 23/22 A3002 RMK AO2 SLP150 70016 
    T02330222 10244 20222 53006 $=
METAR KODX 081153Z AUTO 00000KT 10SM BKN090 BKN110 17/16 A3022 RMK 
    AO2 SLP228 T01670156 10167 20144 53008=
METAR KOGB 081153Z AUTO 32006KT 10SM CLR 25/19 A2999 RMK AO2 SLP152 
    T02500194 10261 20233 53004=
METAR KOGD 081153Z 18007KT 10SM CLR 17/07 A3011 RMK AO2 SLP141 
    T01670067 10211 20167 53006=
METAR KOJC 081153Z 02003KT 10SM CLR 22/21 A3007 RMK AO2 SLP170 70014 
    T02220211 10233 20217 53007=
METAR KOLF 081153Z AUTO 21003KT 10SM FEW085 10/09 A3015 RMK AO2 
    SLP209 T01000094 10156 20089 53004=
METAR KOLV 081150Z 00000KT 7SM FEW250 23/23 A3008=
METAR KONO 081153Z AUTO 29006KT 10SM CLR 10/06 A3006 RMK AO2 SLP167 
    T01000061 10194 20100 51007=
METAR KOPF 081153Z 35003KT 10SM CLR 28/25 A2995 RMK AO2 SLP143 
    T02780250 10278 20261 53008=
METAR KORL 081153Z 03005KT 10SM CLR 24/22 A3000 RMK AO2 SLP161 
    T02440217 10244 20222 53003=
METAR KOSU 081153Z 00000KT 4SM HZ CLR 24/21 A3010 RMK AO2 SLP182 
    T02390206 10239 20211 53007=
METAR KOTM 081153Z AUTO 33007KT 6SM BR CLR 21/20 A3008 RMK AO2 
    SLP180 T02060200 10211 20200 53012=
METAR KOVE 081153Z AUTO 15006KT 10SM CLR 18/12 A2985 RMK AO2 SLP107 
    T01780117 10267 20178 53005 TSNO=
METAR KOWD 081153Z 18005KT 10SM CLR 24/19 A3009 RMK AO2 SLP189 
    T02390189 10244 20206 51012=
METAR KPBG 081153Z AUTO 13005KT 5SM HZ CLR 26/22 A3001 RMK AO2 
    SLP161 60000 T02560222 10256 20211 51005=
METAR KPBI 081153Z 08004KT 6SM -RA BR SCT022 BKN028CB BKN050 26/24 
    A2996 RMK AO2 RAB16 SLP143 CB OHD MOV SW P0001 60001 70011 
    T02610244 10278 20261 53011=
METAR KPEO 081153Z AUTO 23006KT 5SM HZ CLR 24/21 A3008 RMK AO2 
    SLP178 T02390206 10239 20211 51001=
METAR KPGD 081153Z AUTO 04005KT 10SM CLR 24/22 A3001 RMK AO2 SLP163 
    T02390222 10239 20222 53010 TSNO=
METAR KPHD 081153Z AUTO 00000KT 3SM HZ CLR 21/18 A3010 RMK AO2 
    SLP185 T02110183 10211 20183 50001=
METAR KPIE 081153Z 00000KT 10SM CLR 26/22 A3000 RMK AO2 SLP157 
    T02560222 10261 20228 53007=
METAR KPIH 081153Z 00000KT 10SM CLR 06/02 A3018 RMK AO2 SLP184 
    T00610022 10156 20050 53005=
METAR KPIR 081153Z AUTO 23006KT 10SM CLR 14/12 A3017 RMK AO2 SLP209 
    T01390122 10172 20133 53004=
####018000557####
SAUS20 KNKA 081154
METAR KVRB 081153Z 00000KT 10SM SCT033 26/23 A2998 RMK AO2 SLP151 
    T02610233 10267 20211 53006=
METAR KWRL 081153Z AUTO 00000KT 10SM CLR 09/04 A3028 RMK AO2 SLP227 
    T00940039 10161 20094 53005=
METAR KWST 081153Z AUTO 08005KT 10SM FEW008 24/21 A3009 RMK AO2 
    SLP189 7//// T02390211 10239 20217 50002=
METAR KYIP 081153Z 00000KT 8SM CLR 26/22 A3005 RMK AO2 SLP165 
    T02560217 10256 20222 50003=
METAR KZZV 081153Z AUTO 00000KT 4SM BR SCT065 22/21 A3009 RMK AO2 
    SLP181 T02220206 10222 20189 50004=
####018002952####
SAUS20 KNKA 081154
METAR KLWV 081153Z AUTO 00000KT 3SM HZ CLR 26/23 A3004 RMK AO2 
    SLP167 T02560228 10261 20233 51005=
METAR KLXT 081153Z AUTO 07005KT 10SM CLR 22/21 A3007 RMK AO2 SLP174 
    70012 T02170206 10233 20217 53006=
METAR KMAE 081153Z AUTO 30005KT 10SM CLR 16/11 A2983 RMK AO2 SLP097 
    T01610106 10217 20156 53002=
METAR KMAI 081153Z AUTO 00000KT 1 1/4SM BR OVC001 24/23 A3003 RMK 
    AO2 SLP166 T02390228 10239 20228 53007=
METAR KMBS 081153Z 24003KT 6SM BR SCT080 SCT110 24/22 A3002 RMK AO2 
    RAE23 SLP159 P0000 60000 T02390222 10256 20233 50001=
METAR KMCI 081153Z 34006KT 5SM BR BKN004 22/21 A3007 RMK AO2 SLP173 
    70005 T02220211 10228 20217 53005 $=
METAR KMCK 081153Z AUTO 00000KT 10SM SCT070 17/16 A3025 RMK AO2 
    SLP228 70001 T01670161 10167 20161 52004=
METAR KMCO 081153Z 01005KT 10SM FEW250 24/21 A3000 RMK AO2 SLP157 
    T02440206 10244 20211 53004=
METAR KMCW 081153Z AUTO 33006KT 8SM CLR 18/17 A3013 RMK AO2 SLP194 
    70005 T01780172 10200 20172 51010 $=
METAR KMGY 081153Z AUTO 00000KT 4SM HZ FEW060 24/21 A3009 RMK AO2 
    SLP178 T02440211 10250 20217 51005=
METAR KMHE 081153Z AUTO 23003KT 10SM CLR 18/14 A3017 RMK AO2 SLP210 
    T01830144 10194 20161 52003 TSNO=
METAR KMHT 081153Z 18005KT 3SM HZ BKN012 OVC050 24/21 A3007 RMK AO2 
    SFC VIS 5 SLP189 60000 T02440211 10250 20233 51011=
METAR KMIA 081153Z 04005KT 10SM FEW023 SCT100 SCT250 28/25 A2995 RMK 
    AO2 SLP141 70001 T02830250 10283 20272 53008=
METAR KMIC 081153Z 29005KT 10SM CLR 19/16 A3009 RMK AO2 SLP187 70003 
    T01890161 10206 20167 53010=
METAR KMIE 081153Z 18003KT 9SM SCT060 26/20 A3007 RMK AO2 SLP170 
    T02560200 10256 20211 51002=
METAR KMKO 081153Z AUTO 16003KT 10SM OVC021 23/23 A3005 RMK AO2 
    SLP167 60000 70221 T02330228 10239 20233 53008=
METAR KMLB 081153Z 00000KT 10SM CLR 24/22 A2999 RMK AO2 SLP155 
    T02440222 10256 20206 53006=
METAR KMLC 081153Z AUTO 19003KT 10SM SCT065 SCT075 24/23 A3004 RMK 
    AO2 SLP164 70201 T02390228 10239 20239 51008=
METAR KMLS 081153Z AUTO 16005KT 10SM CLR 11/10 A3020 RMK AO2 SLP214 
    70001 T01110100 10167 20106 53002=
METAR KMLT 081153Z AUTO VRB03KT 4SM BR OVC007 22/20 A3007 RMK AO2 
    SLP185 T02170200 10222 20194 53004=
METAR KMLU 081153Z 00000KT 5SM BR SCT002 25/23 A3006 RMK AO2 SLP178 
    70003 T02500233 10256 20244 53009=
METAR KMMK 081153Z AUTO 15004KT 2SM BR OVC010 25/23 A3007 RMK AO2 
    CIG 007V012 SLP179 T02500228 10250 20228 52010=
METAR KMNN 081153Z AUTO 19003KT 5SM HZ CLR 22/19 A3009 RMK AO2 
    SLP182 T02220194 10222 20194 51004=
METAR KMPO 081153Z AUTO 00000KT 8SM FEW090 25/19 A3012 RMK AO2 
    SLP182 T02500189 10250 20183 51006=
METAR KMSO 081153Z 36003KT 10SM CLR 10/06 A3021 RMK AO2 SLP214 
    T01000056 10156 20094 53003 $=
METAR KMSP 081153Z 27003KT 10SM CLR 19/17 A3011 RMK AO2 SLP191 70022 
    T01890167 10211 20172 53012=
####018002963####
SAUS20 KNKA 081154
METAR KITR 081153Z AUTO 00000KT 10SM -RA FEW006 OVC011 17/15 A3031 
    RMK AO2 RAB51 CIG 008V014 SLP224 P0000 60000 T01670150 10167 
    20156 53006=
METAR KIWI 081153Z AUTO VRB05KT 10SM OVC005 21/19 A3012 RMK AO2 CIG 
    003V008 SLP199 T02060189 10206 20194 51011=
METAR KIXD 081153Z 33003KT 4SM BR FEW003 22/21 A3008 RMK AO2 SLP175 
    70009 T02170206 10233 20211 53004=
METAR KJEF 081153Z 00000KT 10SM OVC005 24/23 A3005 RMK AO2 CIG 
    003V008 SLP162 60021 70030 T02390228 10239 20233 53010=
METAR KJER 081153Z AUTO 06012KT 10SM CLR 14/01 A3012 RMK AO2 SLP165 
    T01390011 10178 20122 53002=
METAR KJKL 081153Z AUTO 00000KT 3SM HZ CLR 23/21 A3012 RMK AO2 
    SLP184 T02330206 10250 20222 51007=
METAR KJLN 081153Z 01006KT 10SM SCT003 BKN022 OVC100 22/22 A3007 RMK 
    AO2 TSE1056 SLP171 60086 70090 T02220217 10233 20222 51008=
METAR KLAA 081153Z AUTO 11006KT 10SM -RA FEW005 BKN060 OVC100 17/16 
    A3026 RMK AO2 RAB39 SLP208 P0001 60003 70044 T01670161 10189 
    20167 53001=
METAR KLAN 081153Z 00000KT 7SM FEW120 SCT180 24/21 A3005 RMK AO2 
    SLP167 T02390211 10250 20228 50005=
METAR KLAR 081153Z AUTO 07005KT 6SM BR BKN004 06/06 A3041 RMK AO2 
    CIG 001V006 SLP235 70002 T00610061 10094 20056 51005=
METAR KLAW 081153Z AUTO 00000KT 10SM CLR 22/22 A3006 RMK AO2 SLP167 
    T02220217 10244 20222 51008=
METAR KLBB 081153Z 01004KT 10SM BKN041 BKN055 BKN100 19/17 A3015 RMK 
    AO2 SLP165 60000 70001 T01890167 10211 20189 51004=
METAR KLBF 081153Z AUTO 00000KT 10SM CLR 15/14 A3026 RMK AO2 SLP233 
    T01500144 10167 20150 53006=
METAR KLEB 081153Z 27003KT 4SM HZ BKN013 25/22 A3007 RMK AO2 SLP168 
    T02500217 10250 20211 51007=
METAR KLEE 081153Z 04004KT 10SM CLR 24/22 A3001 RMK AO2 SLP162 
    T02390217 10239 20217 53003=
METAR KLHQ 081153Z AUTO 00000KT 2 1/2SM BR CLR 23/21 A3010 RMK AO2 
    SLP184 T02280206 10228 20183 53006=
METAR KLHX 081153Z AUTO 04005KT 10SM BKN080 OVC100 16/14 A3030 RMK 
    AO2 SLP211 6//// 7//// T01610144 10172 20156 53003 PNO $=
METAR KLNS 081153Z 00000KT 3SM HZ CLR 26/21 A3003 RMK AO2 SLP165 
    T02610211 10267 20228 51004=
METAR KLOU 081153Z 17003KT 5SM HZ CLR 26/22 A3006 RMK AO2 SLP174 
    T02560217 10272 20239 50004=
METAR KLOZ 081153Z AUTO 00000KT 2SM BR CLR 21/19 A3012 RMK AO2 
    SLP185 T02110194 10222 20194 53009=
METAR KLPR 081153Z AUTO 17005KT 7SM FEW065 25/19 A3008 RMK AO2 
    SLP177 T02500189 10250 20217 53003=
METAR KLSE 081153Z 32009KT 10SM CLR 22/19 A3005 RMK AO2 SLP164 
    T02170194 10228 20194 51008=
METAR KLUK 081153Z 00000KT 1 3/4SM BR CLR 23/22 A3008 RMK AO2 SLP182 
    P0001 60001 70001 T02330217 10233 20211 50003=
METAR KLVM 081153Z AUTO 29003KT 10SM CLR 04/02 A3030 RMK AO2 SLP240 
    T00440022 10144 20028 53005=
METAR KLWD 081153Z AUTO 01008KT 7SM BKN007 21/20 A3010 RMK AO2 CIG 
    003V009 SLP186 70116 T02110200 10217 20200 51006=
####018002897####
SAUS20 KNKA 081154
METAR KSNY 081153Z AUTO 00000KT 10SM SCT043 BKN050 16/14 A3033 RMK 
    AO2 SLP235 7//// T01610144 10167 20150 $=
METAR KSPG 081153Z 08005KT 10SM CLR 27/22 A2998 RMK AO2 SLP151 
    T02670222 10272 20261 53006=
METAR KSPW 081153Z AUTO 32005KT 7SM CLR 16/14 A3016 RMK AO2 SLP209 
    70058 T01610144 10167 20144 53009=
METAR KSRQ 081153Z 08004KT 10SM CLR 24/22 A2998 RMK AO2 SLP152 
    T02440222 10250 20228 53008=
METAR KSSI 081153Z AUTO 27004KT 10SM CLR 24/21 A3000 RMK AO2 PK WND 
    32038/1104 SLP160 T02390206 10239 20228 53004=
METAR KSTC 081153Z 00000KT 6SM BR CLR 16/14 A3010 RMK AO2 SLP196 
    T01610144 10167 20133 51005=
METAR KSTJ 081153Z AUTO 35008KT 6SM BR OVC007 22/21 A3008 RMK AO2 
    SLP177 60003 70012 T02220206 10239 20222 53006=
METAR KSTP 081153Z 31004KT 10SM CLR 19/17 A3010 RMK AO2 SLP189 70014 
    T01940167 10206 20178 51013=
METAR KSWO 081153Z AUTO 00000KT 6SM BR SCT032 23/21 A3005 RMK AO2 
    SLP162 70016 T02280211 10233 20228 53004=
METAR KTDZ 081153Z AUTO 23004KT 8SM CLR 25/19 A3005 RMK AO2 SLP170 
    T02500194 10250 20228 50003=
METAR KTHV 081153Z AUTO 00000KT 4SM HZ CLR 26/21 A3004 RMK AO2 
    SLP169 T02610211 10261 20206 53006=
METAR KTMB 081153Z 03004KT 10SM FEW017 28/26 A2994 RMK AO2 SLP139 
    T02780256 10278 20261 53008=
METAR KTOP 081153Z 34003KT 9SM CLR 22/21 A3008 RMK AO2 SLP176 60071 
    70118 T02170206 10222 20211 53007=
METAR KTOR 081153Z AUTO 00000KT 9SM CLR 11/09 A3031 RMK AO2 SLP242 
    P0001 60001 70001 T01060094 10150 20100 51006=
METAR KTPA 081153Z 00000KT 10SM SCT200 25/22 A3000 RMK AO2 SLP158 
    T02500217 10261 20233 53007=
METAR KTTN 081153Z 00000KT 1 3/4SM HZ CLR 26/23 A3004 RMK AO2 SLP165 
    T02610228 10261 20233 51011=
METAR KTUL 081153Z 00000KT 10SM FEW010 SCT033 BKN070 23/23 A3004 RMK 
    AO2 TSE04RAE1055 SLP164 TS MOV N P0000 60077 70077 T02330228 
    10244 20228 52011=
METAR KTVC 081153Z 00000KT 8SM BKN070 OVC095 23/21 A2999 RMK AO2 
    RAB1059E42 SLP154 P0000 60000 T02280211 10239 20222 53010=
METAR KTWF 081153Z 11010KT 10SM CLR 14/M03 A3013 RMK AO2 SLP149 
    T01441033 10156 20072 53003=
METAR KTYR 081153Z 06003KT 9SM CLR 25/23 A3005 RMK AO2 SLP167 70008 
    T02500233 10250 20244 53009=
METAR KUNO 081153Z AUTO 21006KT 10SM CLR 23/21 A3010 RMK AO2 SLP176 
    T02330211 10250 20222 53008 TSNO=
METAR KUUU 081153Z AUTO 11005KT 3/4SM BR OVC001 21/21 A3011 RMK AO2 
    SLP193 T02110206 10222 20206 53011=
METAR KVEL 081153Z AUTO 09005KT 10SM CLR 13/06 A3024 RMK AO2 SLP187 
    T01330056 10189 20133 53008=
METAR KVIH 081153Z AUTO 00000KT 7SM FEW011 BKN033 OVC049 23/22 A3006 
    RMK AO2 LTG DSNT W RAB38E44 SLP167 P0000 60000 70005 T02330217 
    10239 20222 53004=
METAR KVPC 081153Z AUTO 00000KT 7SM CLR 22/20 A3007 RMK AO2 SLP169 
    T02170200 10217 20189 51007=
####018000081####
SPUS81 KWBC 081155
SPECI
KLWD 081151Z AUTO 01007KT 7SM BKN007 21/20 A3010=
####018000091####
SPUS81 KWBC 081155
SPECI
PADQ 081151Z 28005KT 10SM FEW020 BKN030 OVC036 11/09 A2985=
####018000749####
SADL34 EDZO 081150
METAR EDAC 081150Z 24005KT 170V320 CAVOK 26/11 Q1022=
METAR EDAH 081150Z VRB03KT CAVOK 25/09 Q1022=
METAR EDGS 081150Z 20007KT 150V290 CAVOK 25/10 Q1022=
METAR EDHL 081150Z 21008KT 160V240 CAVOK 29/12 Q1019=
METAR EDJA 081150Z VRB02KT CAVOK 26/09 Q1023=
METAR EDLN 081150Z VRB05KT CAVOK 30/10 Q1019=
METAR EDLP 081150Z 19005KT 160V240 CAVOK 29/10 Q1020=
METAR EDLW 081150Z 22011KT CAVOK 30/09 Q1020=
METAR EDMA 081150Z 17004KT 050V250 CAVOK 26/09 Q1022=
METAR EDNY 081150Z 19005KT CAVOK 27/11 Q1022=
METAR EDQM 081150Z VRB03KT CAVOK 24/07 Q1023=
METAR EDRZ 081150Z 16005KT 110V210 CAVOK 29/12 Q1021=
METAR EDSB 081150Z 03004KT 320V100 CAVOK 30/11 Q1020=
METAR EDXW 081150Z 23011KT CAVOK 21/14 Q1019=
####018000245####
SADL35 EDZO 081150
METAR EDHI 081150Z 21007KT 140V270 CAVOK 29/13 Q1019=
METAR EDMO 081150Z 02005KT 330V110 CAVOK 25/09 Q1023=
METAR EDOP 081150Z 19007KT 140V250 CAVOK 28/08 Q1020=
METAR EDTD 081150Z 11004KT 050V160 CAVOK 26/10 Q1023=
####018000349####
SADL33 EDZO 081150
METAR EDFE 081150Z 07004KT 010V090 CAVOK 29/11 Q1020=
METAR EDFH 081150Z 16007KT 090V220 CAVOK 27/12 Q1021=
METAR EDFM 081150Z 20005KT 110V330 CAVOK 31/10 Q1020=
METAR EDLV 081150Z 18007KT 100V220 CAVOK 31/11 Q1019=
METAR EDTL 081150Z VRB05KT CAVOK 30/12 Q1019=
METAR EDVK 081150Z 19006KT 100V250 CAVOK 27/10 Q1021=
####018000092####
SAFJ31 NFFN 081200
METAR NFFN 081200Z 11004KT 40KM FEW030 21/19 Q1014 NOSIG RMK RR NIL=
####018000116####
SAXN17 KAWN 081100 RRK
METAR MMIA 081140Z 00000KT 5SM HZ BKN030 20/18 A2991 RMK SLP/// 6////
      8/700 9//=
####018000170####
SAAK17 KAWN 081200 RRA
PACZ SA 1155 AWOS MM 10 51/49/0709/004=
PAEH SA 1155 AWOS CLR BLO 120 10 47/-20/1404/998=
PAIM SA 1155 AWOS CLR BLO 120 10 50/44/2905/008=
####018001729####
SAZZ40 KAWN 081200 RRA
METAR BGJN 081150Z 32004KT 280V040 9999 0600NE PRFG FEW001 07/04 Q1009
      RMK 1ST=
METAR BGKK 081150Z VRB05KT 9999 FEW080 SCT120 08/03 Q1009=
METAR BGSF 081150Z VRB03KT 9999 FEW070 14/01 Q1008=
METAR EFKU 081150Z AUTO 31006KT CAVOK 23/17 Q1015=
METAR EFOU 081150Z 16005KT 110V220 9999 FEW040 BKN200 22/10 Q1015=
METAR EGMH 081150Z 13010KT 9999 FEW020 22/17 Q1019=
METAR KBUR 081153Z 00000KT 7SM OVC009 16/13 A2989 RMK AO2 SLP112 T01560128
      10161 20156 55004=
METAR KEGI 081155Z AUTO 00000KT 10SM CLR 23/23 A3003 RMK AO2 SLP170
      70003 T02290226 10232 20210 53005 $=
METAR KLRF 081155Z AUTO 00000KT 10SM FEW210 23/22 A3007 RMK AO2 CLDS
      LWR RWY07 SLP182 T02340224 10236 20228 53009=
METAR KNFW 081152Z 13006KT 10SM SCT012 BKN022 26/22 A3006 RMK AO2 SLP161
      T02610222 10272 20261 51010=
METAR KNHK 081152Z 09006KT 4SM HZ FEW010 27/24 A3000 RMK AO2 SLP158
      T02720239 10278 20256 51008=
METAR KNZY 081152Z 31006KT 9SM FEW009 OVC015 18/13 A2989 RMK AO2 DZE30
      SLP121 P0000 60000 T01830133 10189 20178 55001 $=
METAR KSAN 081151Z 33006KT 10SM OVC019 17/13 A2991 RMK AO2 SLP128 T01670133
      10178 20161 55001=
METAR MGGT 081200Z 00000KT CAVOK 16/14 Q1022 A3018 SCT080 OVC100 VTO
      TEND S NOSIG=
METAR MPTO 081200Z 00000KT 9999 FEW018 25/24 Q1011=
METAR MSLP 081150Z 00000KT 9999 FEW023 SCT120 BKN300 24/23 Q1010 A2984=
METAR MSSS 081150Z 34002KT 9999 FEW020 BKN120 21/20 Q1015 A2997 SCT300=
METAR OAMS 081150Z 01006KT 9999 SKC 42/M01 Q1005 BLU/=
METAR OKBK 081200Z 35020KT 6000 -BLDU SKC 48/M07 Q0999 NOSIG=
METAR PHJR 081153Z 00000KT 10SM CLR 22/18 A3003 RMK AO2 SLP174 70001
      T02220178 10250 20222 58010=
####018000112####
SAXX70 KAWN 081100 RRX
METAR KQEJ 081140Z AUTO 00000KT 7SM -SHRA BKN042 BKN095 23/20 A2994
      RMK A02=
####018000136####
SAUS43 KUNR 081155
MTRCUT
METAR KCUT 081153Z AUTO 32003KT 10SM CLR 06/06 A3035 RMK AO2 SLP247 
T00610056 10089 20061 52002 TSNO
