####018000117####
SPJP31 KWBC 080815
SPECI
RJCC 080809Z 17008KT 2300 -DZ BR BKN002 BKN003 18/17 Q1009 RMK
5ST002 7ST003 A2981=
####018000103####
SPKO31 KWBC 080815
SPECI
RKTN 080801Z 07005KT 9999 -RA FEW025 BKN040 OVC200 29/21 Q1007
NOSIG=
####018001032####
SAAU31 AMMC 080800
METAR YBAS 080800Z 11009KT 9999 FEW034 15/06 Q1019=
METAR YBBN 080800Z 19009KT 9999 FEW040 BKN077 BKN105 18/10 Q1019
     NOSIG=
METAR YBCS 080800Z 15007KT 9999 FEW024 BKN045 24/19 Q1015
     NOSIG=
METAR YBTL 080800Z 07008KT 9999 FEW019 SCT050 BKN170 23/20 Q1015
     NOSIG=
METAR YMML 080800Z 19002KT 9999 FEW030 BKN042 10/04 Q1028
     NOSIG=
METAR YPAD 080800Z 00000KT 9999 FEW045 12/09 Q1025
     NOSIG=
METAR YPCC 080800Z 13008KT 9999 FEW021 28/22 Q1012=
METAR YPDN 080800Z 02013KT CAVOK 29/20 Q1011
     NOSIG=
METAR YPKU 080800Z AUTO 13005KT 9999NDV // NCD 27/14 Q1012=
METAR YPLM 080800Z AUTO 07004KT 9999NDV // BKN057 20/17 Q1008=
METAR YPPH 080800Z 01011KT 9999 FEW010 SCT022 16/14 Q0999
     FM0800 33018G28KT 9999 -SHRA BKN020
     INTER 0800/1100 27025G35KT 3000 +SHRA BKN010=
METAR YPTN 080800Z 12008KT CAVOK 28/14 Q1012=
METAR YPXM NIL=
METAR YSSY 080800Z 21010KT 9999 VCSH FEW010 SCT045 BKN055 12/12 Q1026
     INTER 0815/1100 5000 SHRA BKN015=

####018000084####
SPUS41 KWBC 080815
SPECI
KBED 080811Z AUTO 18003KT 4SM BR OVC011 24/22 A3004=
####018000126####
SPXX61 KWBC 080815
SPECI
EGUN 080809Z AUTO 25006KT 9999 SCT006 BKN014 OVC021 17/17 A3008
RMK AO2 RAB0751E0801 SLP174=
####018000076####
SPUS41 KWBC 080815
SPECI
KHTS 080811Z 00000KT 1SM BR CLR 21/21 A3007=
####018000088####
SAUS41 KWBC 080800 RRC
METAR
KFDK 080812Z AUTO 00000KT 5SM HZ SCT090 24/22 A3003=
####018000085####
SPUS53 KWBC 080815
SPECI
KIRK 080812Z AUTO 21003KT 2 1/2SM BR CLR 19/19 A3006=
####018000243####
SAUS43 KWBC 080800 RRC
METAR
KIGQ 080800Z AUTO 00000KT 10SM BKN041 BKN049 24/22 A3004=
KTIP 080805Z AUTO 00000KT 10SM SCT060 SCT075 SCT100 24/23
     A3004=
KVYS 080805Z AUTO 00000KT 3SM BR SCT004 BKN037 OVC050 23/22
     A3003=
####018000082####
SAUS44 KWBC 080800 RRC
METAR
KOLV 080815Z AUTO 00000KT 7SM CLR 23/23 A3007=
####018000134####
SAUS51 KWBC 080800 RRB
METAR
KCBE 080813Z AUTO 00000KT 7SM CLR 22/18 A3010=
KESN 080818Z AUTO 00000KT 4SM BR CLR 23/23 A3002=
####018000081####
SPCN46 CWAO 080814
SPECI CYBN 080814Z AUTO 00000KT 3/8SM CLR 20/18 A3003=

####018000068####
SAUS53 KWBC 080800 RRD
METAR
KEHA 080808Z AUTO 36002KT 17/17=
####018000083####
SPUS73 KWBC 080815
SPECI
KHIB 080811Z AUTO 00000KT 1/2SM FG CLR 09/09 A3005=
####018000085####
SPUS73 KWBC 080815
SPECI
KIRK 080812Z AUTO 21003KT 2 1/2SM BR CLR 19/19 A3006=
####018000097####
SAAO32 GOOY 080800 RRA
METAR GFLL 080800Z 12008KT 9999 SCT012 FEW028CB 24/22 Q1012 CB-NE=

####018000071####
SASA KAWN 080700 RRH
METAR SADF 080700Z 29002KT CAVOK 03/02 Q1019=
####018000559####
SASA KAWN 080800 RRD
METAR SAAR 080800Z 00000KT CAVOK 02/M00 Q1019=
METAR SADF 080800Z 00000KT CAVOK 04/02 Q1019=
METAR SANT 080800Z 32006KT 9999 08/06 Q1019=
METAR SARC 080800Z 18008KT 9999 10/08 Q1018=
METAR SASJ 080800Z 20003KT 9999 BKN040 12/09 Q1019=
METAR SKBO 080800Z VRB02KT 9999 BKN012 11/11 A3029=
METAR SKCG 080800Z VRB02KT 9999 FEW012 SCT070 28/26 A2987=
METAR SKCL 080800Z 00000KT 9999 FEW025 BKN100 20/18 A2999=
METAR SKRG 080800Z 00000KT 9999 BKN006 BKN080 14/14 A3027=
METAR SYCJ 080800Z 00000KT 9000 FEW016 24/23 Q1011=
####018000663####
SAXN17 KAWN 080800 RRE
METAR AYPY 080800Z 18007KT 9999 FEW020CB FEW020 BKN140 27/23 Q1008
      RMKS/ CB TO N/ HZ IN AREA=
METAR NCRG 080800Z 08003KT 9999 SCT014 BKN290 24/23 Q1017=
METAR NFTF 080800Z 19002KT 9999 FEW015 18/18 Q1015=
METAR PLCH 080800Z 11015KT 20KM FEW018 26/24 Q1010=
METAR SKBO 080800Z VRB02KT 9999 BKN012 11/11 A3029=
METAR SKCG 080800Z VRB02KT 9999 FEW012 SCT070 28/26 A2987=
METAR SKCL 080800Z 00000KT 9999 FEW025 BKN100 20/18 A2999=
METAR TGPY 080830Z 08009KT 9999 FEW021 28/25 Q1012=
METAR TLPL 080800Z 12014KT 9999 SCT023 BKN300 29/24 Q1013=
METAR YBBN 080800Z 19009KT 9999 FEW040 BKN077 BKN105 18/10 Q1019 NOSIG=
####018000086####
SAUS54 KWBC 080800 RRB
METAR
KIZA 080809Z AUTO 00000KT 10SM OVC009 14/11 A2991=
####018000073####
SAZZ40 KAWN 080700 RRV
METAR SADF 080700Z 29002KT CAVOK 03/02 Q1019=
####018000107####
SPUS81 KWBC 080815
SPECI
KANJ 080812Z AUTO 15005KT 2 1/2SM RA BR SCT014 BKN022 OVC055 21/19
A2996=
####018000076####
SPUS81 KWBC 080815
SPECI
KHTS 080811Z 00000KT 1SM BR CLR 21/21 A3007=
####018000085####
SPUS81 KWBC 080815
SPECI
KIRK 080812Z AUTO 21003KT 2 1/2SM BR CLR 19/19 A3006=
####018000094####
SAAO32 GOOY 080800 RRA
METAR GFLL 080800Z 12008KT 9999 SCT012 FEW028CB 24/22 Q1012 CB-NE=
####018000083####
SAUS72 KWBC 080800 RRD
METAR
KLRU 080811Z AUTO 04008KT 10SM CLR 20/15 A3016=
####018000328####
SPNA35 KAWN 080815
SPECI KDOV 080813Z AUTO 00000KT 2 1/2SM BR FEW110 24/24 A2998 RMK AO2
      SLP155=
SPECI KLFI 080807Z 11005KT 9SM R08/5500FT BKN008 OVC150 26/24 A2996
      RMK AO2A SLP146 $=
SPECI KWRI 080814Z AUTO 00000KT 2 1/2SM R18/4500V5500FT R24/2400V2600FT
      BR OVC003 24/24 A2999 RMK AO2 SLP157 $=
####018000124####
SPUS90 KWBC 080816
SPECI KANJ 080812Z AUTO 15005KT 2 1/2SM RA BR SCT014 BKN022 OVC055
     21/19 A2996 RMK AO2 P0007=
####018000835####
SAUS90 KWBC 080816
METAR K2G4 080810Z AUTO 00000KT 10SM SCT070 22/13 A3019 RMK
     AO1=
METAR K2W6 080813Z AUTO 00000KT 5SM CLR 24/23 A2999 RMK AO1=
METAR KCBE 080813Z AUTO 00000KT 7SM CLR 22/18 A3010 RMK AO1=
METAR KCGS 080815Z AUTO 00000KT 7SM CLR 26/23 A2998 RMK AO1=
METAR KDMW 080813Z AUTO 00000KT 7SM CLR 26/21 A3004 RMK AO2=
METAR KESN 080818Z AUTO 00000KT 4SM BR CLR 23/23 A3002 RMK AO2=
METAR KFDK 080812Z AUTO 00000KT 5SM HZ SCT090 24/22 A3003 RMK
     AO2=
METAR KFME 080815Z AUTO 00000KT 3SM 20/20 A3001 RMK AO1 SKY
     OBSCURED=
METAR KCGE 080811Z AUTO 10003KT 4SM SCT005 SCT120 25/24 A2999 RMK
     AO1=
METAR KMTN 080815Z AUTO 00000KT 7SM CLR 26/24 A3000 RMK AO2=
METAR KW29 080813Z AUTO 00000KT 5SM CLR 24/22 A2998 RMK AO1=
METAR KFDK 080812Z AUTO 00000KT 5SM HZ SCT090 24/22 A3003=
####018000147####
SAAK41 KNKA 080815
SPECI PATO 080813Z AUTO 14009G25KT 120V200 3SM +RA BR BKN026 BKN031 
    OVC039 12/11 A3002 RMK AO2 P0006 T01220106 TSNO=
####018002971####
SAUS20 KNKA 080815
METAR KAEG 080815Z AUTO 14012KT 10SM CLR 17/08 A3028 RMK AO1  =
METAR KAFJ 080815Z AUTO 00000KT M1/4SM OVC003 17/16 A3010 RMK AO1=
METAR KAIZ 080815Z AUTO 00000KT 10SM SCT042 22/21 A3005 RMK AO1=
METAR KARG 080815Z AUTO 18005KT 10SM CLR 25/23 A3004 RMK AO1=
METAR KAUO 080815Z AUTO 20003KT 10SM CLR 26/22 A3003 RMK AO1=
METAR KAWO 080815Z AUTO 00000KT 10SM CLR 16/13 A2997 RMK AO1=
METAR KBHB 080815Z AUTO 19005KT 9SM BKN003 BKN021 BKN060 18/18 A3010 
    RMK AO1=
METAR KBID 080815Z AUTO 14008KT 5SM BKN003 OVC030 22/22 A3005 RMK 
    AO1=
SPECI KBJJ 080814Z AUTO 00000KT 1 1/2SM BR CLR 19/18 A3009 RMK AO2=
METAR KBKX 080815Z AUTO 00000KT 10SM CLR 14/12 A3016 RMK AO1=
METAR KBLM 080815Z AUTO 00000KT 4SM BKN075 24/21 A3004 RMK AO1=
METAR KBOW 080815Z AUTO 00000KT 10SM CLR 21/21 A2999 RMK AO2 =
METAR KBTP 080815Z AUTO 06004KT 3SM CLR 19/18 A3009 RMK AO1=
METAR KBVX 080815Z AUTO 22003KT 10SM CLR 24/22 A3006 RMK AO1=
METAR KCGC 080815Z AUTO 00000KT 10SM CLR 21/21 A2999 RMK=
METAR KCGZ 080815Z AUTO 00000KT 10SM CLR 31/01 A2978 RMK AO1=
METAR KCIU 080815Z AUTO 19006KT 4SM FEW047 BKN090 OVC110 19/17 A2995 
    RMK AO1=
METAR KCOD 080815Z 14005KT 10SM CLR 10/00 A3033 RMK AO1=
METAR KCOE 080815Z AUTO 05009KT 10SM CLR 17/08 A3008 RMK AO1=
METAR KCVN 080815Z AUTO 03007KT 10SM FEW065 SCT100 17/14 A3022 RMK 
    AO1=
METAR KCVO 080815Z AUTO 27011KT 10SM CLR 15/09 A2990 RMK AO1=
METAR KCWI 080815Z 00000KT 5SM CLR A3002 RMK AO1=
SPECI KDHT 080814Z AUTO 02021G27KT 10SM BKN015 BKN023 OVC045 18/14 
    A3027 RMK AO2 PK WND 01027/0810=
METAR KDVL 080815Z AUTO 28007KT 7SM CLR 15/12 A3006 RMK AO1=
METAR KDYB 080815Z AUTO 00000KT 10SM CLR 22/20 A2996 RMK AO1=
METAR KDYR 080815Z AUTO 22003KT 10SM CLR 24/20 A3006 RMK AO1=
METAR KEAR 080815Z AUTO 33005KT 10SM CLR 16/14 A3022 RMK AO1=
METAR KEEN 080815Z AUTO 00000KT 4SM CLR 22/22 A3004 RMK AO1=
METAR KEGE 080815Z 26004KT 10SM CLR 11/09 A3039 RMK AO1=
METAR KEHR 080815Z AUTO 00000KT 8SM OVC090 23/19 A3006 RMK AO1=
METAR KENV 080815Z 01015KT 10SM CLR 23/M02 A3008 RMK AO1=
METAR KESC 080815Z AUTO 00000KT 3SM FEW110 19/16 A2995 RMK AO1=
METAR KEUL 080815Z AUTO 00000KT 10SM CLR 17/08 A3004 RMK AO1=
METAR KEWK 080815Z AUTO 12003KT 10SM CLR 21/19 A3006 RMK AO1=
METAR KFAM 080815Z AUTO 00000KT 10SM CLR 23/22 A3008 RMK AO1=
METAR KFKL 080815Z 00000KT 4SM CLR 19/18 A3013 RMK AO1=
METAR KFLP 080815Z AUTO 00000KT 5SM CLR 23/22 A3004 RMK AO1=
METAR KFNL 080815Z AUTO 06004KT 5SM FEW006 SCT013 SCT034 14/14 A3031 
    RMK AO1=
METAR KFOD 080815Z AUTO 34003KT 10SM CLR 18/18 A3010 RMK AO1=
METAR KFRM 080815Z AUTO 10SM CLR 17/15 A3012 RMK AO1=
METAR KFTN 080815Z AUTO 07006KT 10SM SCT019 24/23 A2990 RMK AO1 =
SPECI KFZY 080814Z AUTO 00000KT 2SM BR CLR 21/19 A3004 RMK AO2=
METAR KGAD 080815Z AUTO 00000KT 10SM CLR 22/21 A3004 RMK AO1=
METAR KGAI 080815Z 00000KT 8SM BKN090 26/21 A3003 RMK AO1 
     =
####018002083####
SAUS20 KNKA 080815
METAR KPTV 080815Z AUTO 00000KT 10SM CLR 21/12 A2984 RMK AO1=
METAR KPVC 080815Z 18006KT 1 1/4SM OVC002 21/19 A3007 RMK AO1=
METAR KPVU 080815Z 07005KT 10SM CLR 18/08 A3012 RMK AO1=
METAR KPWT 080815Z AUTO 04010KT 10SM CLR 23/07 A2997 RMK AO1=
METAR KRKD 080815Z AUTO 20003KT 1/2SM OVC002 18/17 A3009 RMK AO1=
METAR KRUT 080815Z AUTO 15006KT 5SM CLR 21/18 A3005 RMK AO1=
METAR KSDY 080815Z AUTO 19003KT 10SM CLR 14/10 A3014 RMK AO1=
METAR KSFM 080815Z 09003KT 1/2SM OVC002 21/19 A3007 RMK AO1=
METAR KSFZ 080815Z AUTO 00000KT 10SM OVC010 22/21 A3005 RMK AO1=
METAR KSGT 080815Z 26004KT 10SM CLR 23/22 A3005 RMK AO1=
METAR KSGU 080815Z AUTO 00000KT 10SM CLR 28/01 A2994 RMK AO1=
METAR KSKX 080815Z AUTO 03005KT 10SM CLR 12/03 A3037 RMK AO1=
METAR KSLG 080815Z AUTO 17007KT 10SM FEW024 23/22 A3006 RMK AO1=
METAR KSMN 080815Z AUTO 00000KT 10SM CLR 09/02 A3021 RMK AO1=
METAR KSOW 080810Z AUTO 17005KT 10SM BKN100 21/04 A3023 RMK AO2=
METAR KSPA 080815Z AUTO 00000KT 10SM CLR 23/23 A3001 RMK AO2=
METAR KSPL 080815Z AUTO 05009KT BKN049 29/25 A2977 RMK AO2 PWINO 
     PNO =
METAR KSQI 080815Z 00000KT 5SM FEW008 SCT018 OVC050 22/22 A3003 RMK 
    AO1=
METAR KSUE 080815Z AUTO 20003KT 4SM BKN120 21/19 A2997 RMK AO1=
METAR KSUN 080811Z AUTO 30007KT 10SM CLR 12/02 A3023 RMK AO2=
METAR KSZT 080810Z AUTO 00000KT 10SM CLR 11/09 A3010 RMK AO2=
METAR KTIF 080810Z AUTO 00000KT 10SM OVC090 16/15 A3025 RMK AO2 
     T01580145=
METAR KTRK 080810Z AUTO 00000KT 10SM FEW038 14/08 A3016 RMK AO2=
METAR KTVF 080815Z AUTO 25006KT 10SM CLR 14/11 A3003 RMK AO1=
METAR KUTA 080815Z AUTO 00000KT 10SM CLR 23/22 A3006 RMK AO2=
METAR KVBT 080815Z AUTO 00000KT 10SM BKN085 23/21 A3002 RMK AO1=
METAR KVIS 080815Z AUTO 34006KT 10SM CLR 24/12 A2981 RMK AO1=
METAR KWVL 080815Z AUTO 17003KT 7SM OVC005 21/19 A3003 RMK AO1=
METAR KWWD 080815Z AUTO 10SM OVC120 24/24 A3001 RMK AO1=
METAR KX40 080815Z AUTO 00000KT 7SM CLR 23/22 A3000 RMK AO2 
     T02270220=
METAR KYKN 080815Z AUTO 27004KT 10SM CLR 17/14 A3017 RMK AO1=
####018002974####
SAUS20 KNKA 080815
METAR KGBD 080815Z AUTO 36007KT 7SM OVC011 19/18 A3015 RMK AO1=
METAR KGDV 080815Z AUTO 22007KT 10SM CLR 12/08 A3016 RMK AO1=
METAR KGPZ 080815Z AUTO 19004KT 10SM CLR 13/12 A3006 RMK AO1=
METAR KGTR 080815Z 32003KT 10SM CLR 24/22 A3004 RMK AO1=
METAR KGUC 080815Z AUTO 35006KT 10SM CLR 09/03 A3043 RMK AO1=
METAR KGXY 080815Z AUTO 12009KT 10SM OVC110 15/12 A3029 RMK AO1=
METAR KHDN 080815Z 14009KT 10SM CLR 11/06 A3033 RMK AO1=
METAR KHEF 080815Z AUTO 00000KT 7SM CLR 23/20 A2999 RMK AO1=
METAR KHEZ 080815Z AUTO 00000KT 10SM CLR 23/22 A3002 RMK AO1=
METAR KHNB 080815Z AUTO 00000KT 9SM CLR 22/21 A3005 RMK AO1=
METAR KHYS 080815Z AUTO 35005KT 10SM BKN014 18/17 A3018 RMK AO1=
METAR KIWD 080815Z AUTO 00000KT 10SM FEW100 FEW120 17/15 A3000 RMK 
    AO1=
METAR KJAC 080815Z AUTO 36008KT 10SM CLR 10/M01 A3033 RMK AO1=
METAR KJHW 080815Z AUTO 00000KT 5SM CLR 20/19 A3011 RMK AO1=
METAR KKLS 080815Z AUTO 00000KT 10SM CLR 17/13 A2990 RMK AO1=
METAR KLBL 080815Z 05008KT 10SM FEW035 SCT050 20/17 A3020 RMK AO1=
METAR KLCI 080815Z AUTO 00000KT 10SM OVC085 23/19 A3005 RMK AO1=
METAR KLEW 080815Z 00000KT 4SM OVC004 21/19 A3008 RMK AO1=
METAR KLGD 080815Z AUTO 00000KT 10SM CLR 13/06 A3004 RMK AO1=
METAR KLKV 080815Z AUTO 32008KT 10SM CLR 10/02 A3012 RMK AO1=
METAR KLPC 080815Z AUTO 00000KT 10SM OVC012 14/11 A2992 RMK AO1 PNO=
METAR KLUX 080815Z AUTO 30003KT 10SM CLR 22/22 A3001 RMK AO2=
METAR KMBL 080815Z AUTO 00000KT 10SM OVC100 22/19 A3000 RMK AO1=
METAR KMER 080815Z AUTO 33006KT 10SM CLR 18/10 A2983 RMK AO1 =
METAR KMJX 080815Z AUTO 00000KT 4SM BKN004 24/22 A3001 RMK AO1=
METAR KMKT 080815Z 32005KT 10SM CLR 18/17 A3009 RMK AO1=
METAR KMML 080815Z AUTO 27005KT 10SM CLR 15/13 A3013 RMK AO1=
METAR KMNI 080815Z AUTO 00000KT 10SM CLR 21/21 A2996 RMK AO2=
METAR KMNM 080815Z AUTO 11004KT 7SM BKN011 BKN120 21/19 A2995 RMK 
    AO1=
METAR KMRF 080815Z AUTO 01007KT 10SM CLR 16/13 A3016 RMK AO1=
METAR KMSV 080815Z AUTO 00000KT 6SM CLR 21/18 A3009 RMK AO1=
METAR KMTW 080815Z 00000KT 10SM BKN090 OVC110 21/20 A2997 RMK AO1=
METAR KMVN 080815Z AUTO 00000KT 2SM CLR 22/21 A3005 RMK AO1=
METAR KOKK 080815Z AUTO 18003KT 9SM CLR 23/17 A3005 RMK AO1=
METAR KOLU 080815Z AUTO 30004KT 10SM CLR 17/15 A3017 RMK AO1=
METAR KOTG 080815Z AUTO 27004KT 10SM CLR 14/13 A3015 RMK AO1=
METAR KOTH 080815Z 00000KT 10SM OVC008 11/08 A3000 RMK AO1=
METAR KOUN 080814Z AUTO 01003KT 10SM OVC022 25/23 A3004 RMK AO2=
METAR KOXC 080815Z 00000KT 3SM FEW085 OVC110 22/21 A3007 RMK AO1=
METAR KPIB 080815Z AUTO 00000KT 7SM CLR 23/21 A3004 RMK AO1=
METAR KPNA 080810Z AUTO 30006KT 10SM CLR 07/01 A3037 RMK AO2 
     T00650010=
METAR KPQI 080815Z AUTO 00000KT 10SM CLR 21/18 A2998 RMK AO1=
METAR KPSO 080815Z AUTO 00000KT 10SM SCT100 12/07 A3039 RMK AO2=
METAR KPTN 080815Z AUTO 00000KT 10SM CLR 24/M09 A3001 RMK AO1=
METAR KPTT 080810Z AUTO 01007KT 10SM SCT012 19/18 A3014 RMK AO2=
####018000128####
SAIN32 VIDP 080800
METAR VIDP 080800Z 14005KT 3200 HZ SCT030 FEW040CB SCT100 34/25 Q1005
    TEMPO 36030KT VIS 1500 TSRA=
####018003734####
SAUS99 KWBC 080816
METAR
KPTV 080815Z AUTO 00000KT 10SM CLR 21/12 A2984 RMK AO1=
KPVC 080815Z 18006KT 1 1/4SM OVC002 21/19 A3007 RMK AO1=
KPVU 080815Z 07005KT 10SM CLR 18/08 A3012 RMK AO1=
KPWT 080815Z AUTO 04010KT 10SM CLR 23/07 A2997 RMK AO1=
KRKD 080815Z AUTO 20003KT 1/2SM OVC002 18/17 A3009 RMK AO1=
KRUT 080815Z AUTO 15006KT 5SM CLR 21/18 A3005 RMK AO1=
KSDY 080815Z AUTO 19003KT 10SM CLR 14/10 A3014 RMK AO1=
KSFM 080815Z 09003KT 1/2SM OVC002 21/19 A3007 RMK AO1=
KSFZ 080815Z AUTO 00000KT 10SM OVC010 22/21 A3005 RMK AO1=
KSGT 080815Z 26004KT 10SM CLR 23/22 A3005 RMK AO1=
KSGU 080815Z AUTO 00000KT 10SM CLR 28/01 A2994 RMK AO1=
KSKX 080815Z AUTO 03005KT 10SM CLR 12/03 A3037 RMK AO1=
KSLG 080815Z AUTO 17007KT 10SM FEW024 23/22 A3006 RMK AO1=
KSMN 080815Z AUTO 00000KT 10SM CLR 09/02 A3021 RMK AO1=
KSOW 080810Z AUTO 17005KT 10SM BKN100 21/04 A3023 RMK AO2=
KSPA 080815Z AUTO 00000KT 10SM CLR 23/23 A3001 RMK AO2=
KSPL 080815Z AUTO 05009KT BKN049 29/25 A2977 RMK AO2 PWINO PNO=
KSQI 080815Z 00000KT 5SM FEW008 SCT018 OVC050 22/22 A3003 RMK
     AO1=
KSUE 080815Z AUTO 20003KT 4SM BKN120 21/19 A2997 RMK AO1=
KSUN 080811Z AUTO 30007KT 10SM CLR 12/02 A3023 RMK AO2=
KSZT 080810Z AUTO 00000KT 10SM CLR 11/09 A3010 RMK AO2=
KTIF 080810Z AUTO 00000KT 10SM OVC090 16/15 A3025 RMK AO2
     T01580145=
KTRK 080810Z AUTO 00000KT 10SM FEW038 14/08 A3016 RMK AO2=
KTVF 080815Z AUTO 25006KT 10SM CLR 14/11 A3003 RMK AO1=
KUTA 080815Z AUTO 00000KT 10SM CLR 23/22 A3006 RMK AO2=
KVBT 080815Z AUTO 00000KT 10SM BKN085 23/21 A3002 RMK AO1=
KVIS 080815Z AUTO 34006KT 10SM CLR 24/12 A2981 RMK AO1=
KWVL 080815Z AUTO 17003KT 7SM OVC005 21/19 A3003 RMK AO1=
KWWD 080815Z AUTO 10SM OVC120 24/24 A3001 RMK AO1=
KX40 080815Z AUTO 00000KT 7SM CLR 23/22 A3000 RMK AO2
     T02270220=
KYKN 080815Z AUTO 27004KT 10SM CLR 17/14 A3017 RMK AO1=
KGBD 080815Z AUTO 36007KT 7SM OVC011 19/18 A3015 RMK AO1=
KGDV 080815Z AUTO 22007KT 10SM CLR 12/08 A3016 RMK AO1=
KGPZ 080815Z AUTO 19004KT 10SM CLR 13/12 A3006 RMK AO1=
KGTR 080815Z 32003KT 10SM CLR 24/22 A3004 RMK AO1=
KGUC 080815Z AUTO 35006KT 10SM CLR 09/03 A3043 RMK AO1=
KGXY 080815Z AUTO 12009KT 10SM OVC110 15/12 A3029 RMK AO1=
KHDN 080815Z 14009KT 10SM CLR 11/06 A3033 RMK AO1=
KHEF 080815Z AUTO 00000KT 7SM CLR 23/20 A2999 RMK AO1=
KHEZ 080815Z AUTO 00000KT 10SM CLR 23/22 A3002 RMK AO1=
KHNB 080815Z AUTO 00000KT 9SM CLR 22/21 A3005 RMK AO1=
KHYS 080815Z AUTO 35005KT 10SM BKN014 18/17 A3018 RMK AO1=
KIWD 080815Z AUTO 00000KT 10SM FEW100 FEW120 17/15 A3000 RMK
     AO1=
KJAC 080815Z AUTO 36008KT 10SM CLR 10/M01 A3033 RMK AO1=
KJHW 080815Z AUTO 00000KT 5SM CLR 20/19 A3011 RMK AO1=
KKLS 080815Z AUTO 00000KT 10SM CLR 17/13 A2990 RMK AO1=
KLBL 080815Z 05008KT 10SM FEW035 SCT050 20/17 A3020 RMK AO1=
KLCI 080815Z AUTO 00000KT 10SM OVC085 23/19 A3005 RMK AO1=
KLEW 080815Z 00000KT 4SM OVC004 21/19 A3008 RMK AO1=
KLGD 080815Z AUTO 00000KT 10SM CLR 13/06 A3004 RMK AO1=
KLKV 080815Z AUTO 32008KT 10SM CLR 10/02 A3012 RMK AO1=
KLPC 080815Z AUTO 00000KT 10SM OVC012 14/11 A2992 RMK AO1 PNO=
KLUX 080815Z AUTO 30003KT 10SM CLR 22/22 A3001 RMK AO2=
KMBL 080815Z AUTO 00000KT 10SM OVC100 22/19 A3000 RMK AO1=
KMER 080815Z AUTO 33006KT 10SM CLR 18/10 A2983 RMK AO1=
KMJX 080815Z AUTO 00000KT 4SM BKN004 24/22 A3001 RMK AO1=
KMKT 080815Z 32005KT 10SM CLR 18/17 A3009 RMK AO1=
KMML 080815Z AUTO 27005KT 10SM CLR 15/13 A3013 RMK AO1=
KMNI 080815Z AUTO 00000KT 10SM CLR 21/21 A2996 RMK AO2=
KMNM 080815Z AUTO 11004KT 7SM BKN011 BKN120 21/19 A2995 RMK
     AO1=
KMRF 080815Z AUTO 01007KT 10SM CLR 16/13 A3016 RMK AO1=
KMSV 080815Z AUTO 00000KT 6SM CLR 21/18 A3009 RMK AO1=
####018003322####
SAUS99 KWBC 080816 RRA
METAR
KMTW 080815Z 00000KT 10SM BKN090 OVC110 21/20 A2997 RMK AO1=
KMVN 080815Z AUTO 00000KT 2SM CLR 22/21 A3005 RMK AO1=
KOKK 080815Z AUTO 18003KT 9SM CLR 23/17 A3005 RMK AO1=
KOLU 080815Z AUTO 30004KT 10SM CLR 17/15 A3017 RMK AO1=
KOTG 080815Z AUTO 27004KT 10SM CLR 14/13 A3015 RMK AO1=
KOTH 080815Z 00000KT 10SM OVC008 11/08 A3000 RMK AO1=
KOUN 080814Z AUTO 01003KT 10SM OVC022 25/23 A3004 RMK AO2=
KOXC 080815Z 00000KT 3SM FEW085 OVC110 22/21 A3007 RMK AO1=
KPIB 080815Z AUTO 00000KT 7SM CLR 23/21 A3004 RMK AO1=
KPNA 080810Z AUTO 30006KT 10SM CLR 07/01 A3037 RMK AO2
     T00650010=
KPQI 080815Z AUTO 00000KT 10SM CLR 21/18 A2998 RMK AO1=
KPSO 080815Z AUTO 00000KT 10SM SCT100 12/07 A3039 RMK AO2=
KPTN 080815Z AUTO 00000KT 10SM CLR 24/M09 A3001 RMK AO1=
KPTT 080810Z AUTO 01007KT 10SM SCT012 19/18 A3014 RMK AO2=
KAEG 080815Z AUTO 14012KT 10SM CLR 17/08 A3028 RMK AO1=
KAFJ 080815Z AUTO 00000KT M1/4SM OVC003 17/16 A3010 RMK AO1=
KAIZ 080815Z AUTO 00000KT 10SM SCT042 22/21 A3005 RMK AO1=
KARG 080815Z AUTO 18005KT 10SM CLR 25/23 A3004 RMK AO1=
KAUO 080815Z AUTO 20003KT 10SM CLR 26/22 A3003 RMK AO1=
KAWO 080815Z AUTO 00000KT 10SM CLR 16/13 A2997 RMK AO1=
KBHB 080815Z AUTO 19005KT 9SM BKN003 BKN021 BKN060 18/18 A3010 RMK
     AO1=
KBID 080815Z AUTO 14008KT 5SM BKN003 OVC030 22/22 A3005 RMK
     AO1=
KBKX 080815Z AUTO 00000KT 10SM CLR 14/12 A3016 RMK AO1=
KBLM 080815Z AUTO 00000KT 4SM BKN075 24/21 A3004 RMK AO1=
KBOW 080815Z AUTO 00000KT 10SM CLR 21/21 A2999 RMK AO2=
KBTP 080815Z AUTO 06004KT 3SM CLR 19/18 A3009 RMK AO1=
KBVX 080815Z AUTO 22003KT 10SM CLR 24/22 A3006 RMK AO1=
KCGC 080815Z AUTO 00000KT 10SM CLR 21/21 A2999 RMK=
KCGZ 080815Z AUTO 00000KT 10SM CLR 31/01 A2978 RMK AO1=
KCIU 080815Z AUTO 19006KT 4SM FEW047 BKN090 OVC110 19/17 A2995 RMK
     AO1=
KCOD 080815Z 14005KT 10SM CLR 10/00 A3033 RMK AO1=
KCOE 080815Z AUTO 05009KT 10SM CLR 17/08 A3008 RMK AO1=
KCVN 080815Z AUTO 03007KT 10SM FEW065 SCT100 17/14 A3022 RMK
     AO1=
KCVO 080815Z AUTO 27011KT 10SM CLR 15/09 A2990 RMK AO1=
KCWI 080815Z 00000KT 5SM CLR A3002 RMK AO1=
KDVL 080815Z AUTO 28007KT 7SM CLR 15/12 A3006 RMK AO1=
KDYB 080815Z AUTO 00000KT 10SM CLR 22/20 A2996 RMK AO1=
KDYR 080815Z AUTO 22003KT 10SM CLR 24/20 A3006 RMK AO1=
KEAR 080815Z AUTO 33005KT 10SM CLR 16/14 A3022 RMK AO1=
KEEN 080815Z AUTO 00000KT 4SM CLR 22/22 A3004 RMK AO1=
KEGE 080815Z 26004KT 10SM CLR 11/09 A3039 RMK AO1=
KEHR 080815Z AUTO 00000KT 8SM OVC090 23/19 A3006 RMK AO1=
KENV 080815Z 01015KT 10SM CLR 23/M02 A3008 RMK AO1=
KESC 080815Z AUTO 00000KT 3SM FEW110 19/16 A2995 RMK AO1=
KEUL 080815Z AUTO 00000KT 10SM CLR 17/08 A3004 RMK AO1=
KEWK 080815Z AUTO 12003KT 10SM CLR 21/19 A3006 RMK AO1=
KFAM 080815Z AUTO 00000KT 10SM CLR 23/22 A3008 RMK AO1=
KFKL 080815Z 00000KT 4SM CLR 19/18 A3013 RMK AO1=
KFLP 080815Z AUTO 00000KT 5SM CLR 23/22 A3004 RMK AO1=
KFNL 080815Z AUTO 06004KT 5SM FEW006 SCT013 SCT034 14/14 A3031 RMK
     AO1=
KFOD 080815Z AUTO 34003KT 10SM CLR 18/18 A3010 RMK AO1=
KFRM 080815Z AUTO 10SM CLR 17/15 A3012 RMK AO1=
KFTN 080815Z AUTO 07006KT 10SM SCT019 24/23 A2990 RMK AO1=
KGAD 080815Z AUTO 00000KT 10SM CLR 22/21 A3004 RMK AO1=
KGAI 080815Z 00000KT 8SM BKN090 26/21 A3003 RMK AO1=
####018000376####
SPUS99 KWBC 080816
SPECI
PATO 080813Z AUTO 14009G25KT 120V200 3SM +RA BR BKN026 BKN031
     OVC039 12/11 A3002 RMK AO2 P0006 T01220106 TSNO=
KBJJ 080814Z AUTO 00000KT 1 1/2SM BR CLR 19/18 A3009 RMK AO2=
KDHT 080814Z AUTO 02021G27KT 10SM BKN015 BKN023 OVC045 18/14 A3027
     RMK AO2 PK WND 01027/0810=
KFZY 080814Z AUTO 00000KT 2SM BR CLR 21/19 A3004 RMK AO2=
####018000190####
SAAP32 FAPR 080800 RRA
METAR FDMS 080800Z 00000KT 9999 BKN030 17/13 Q1033 NOSIG=
METAR FVHA 080800Z 13014KT 9999 BKN025 13/05 Q1032 NOSIG=
METAR FYWH 080800Z 03009KT CAVOK 15/00 Q1031=
####018000146####
SAAF05 LFPW 080800 RRC
METAR DNKA 080800Z 21005KT 9999 FEW009 23/22 Q1019=
METAR DNMA 080800Z 18012KT 5000 -TSRA SCT012 FEW020CB 25/24 Q1012=
####018000093####
SAAO32 GOOY 080800 RRA
METAR GFLL 080800Z 12008KT 9999 SCT012 FEW028CB 24/22 Q1012 CB-NE=
####018000114####
SPKO31 RKSI 080812
SPECI RKTN 080812Z 35008KT 9000 -TSRA FEW025CB BKN040 OVC200 28/21
           Q1007 NOSIG=
####018002008####
SAUS70 KWBC 080816 RRB
METAR
KBHB 080815Z AUTO 19005KT 9SM BKN003 BKN021 BKN060 18/18 A3010 RMK
     AO1=
KBID 080815Z AUTO 14008KT 5SM BKN003 OVC030 22/22 A3005 RMK
     AO1=
KBKX 080815Z AUTO 00000KT 10SM CLR 14/12 A3016 RMK AO1=
KBLM 080815Z AUTO 00000KT 4SM BKN075 24/21 A3004 RMK AO1=
KBOW 080815Z AUTO 00000KT 10SM CLR 21/21 A2999 RMK AO2=
KBTP 080815Z AUTO 06004KT 3SM CLR 19/18 A3009 RMK AO1=
KBVX 080815Z AUTO 22003KT 10SM CLR 24/22 A3006 RMK AO1=
KCGC 080815Z AUTO 00000KT 10SM CLR 21/21 A2999 RMK=
KCGZ 080815Z AUTO 00000KT 10SM CLR 31/01 A2978 RMK AO1=
KCIU 080815Z AUTO 19006KT 4SM FEW047 BKN090 OVC110 19/17 A2995 RMK
     AO1=
KCOD 080815Z 14005KT 10SM CLR 10/00 A3033 RMK AO1=
KCOE 080815Z AUTO 05009KT 10SM CLR 17/08 A3008 RMK AO1=
KCVN 080815Z AUTO 03007KT 10SM FEW065 SCT100 17/14 A3022 RMK
     AO1=
KCVO 080815Z AUTO 27011KT 10SM CLR 15/09 A2990 RMK AO1=
KCWI 080815Z 00000KT 5SM CLR A3002 RMK AO1=
KDYB 080815Z AUTO 00000KT 10SM CLR 22/20 A2996 RMK AO1=
KDYR 080815Z AUTO 22003KT 10SM CLR 24/20 A3006 RMK AO1=
KEEN 080815Z AUTO 00000KT 4SM CLR 22/22 A3004 RMK AO1=
KEGE 080815Z 26004KT 10SM CLR 11/09 A3039 RMK AO1=
KEHR 080815Z AUTO 00000KT 8SM OVC090 23/19 A3006 RMK AO1=
KENV 080815Z 01015KT 10SM CLR 23/M02 A3008 RMK AO1=
KESC 080815Z AUTO 00000KT 3SM FEW110 19/16 A2995 RMK AO1=
KEUL 080815Z AUTO 00000KT 10SM CLR 17/08 A3004 RMK AO1=
KEWK 080815Z AUTO 12003KT 10SM CLR 21/19 A3006 RMK AO1=
KFAM 080815Z AUTO 00000KT 10SM CLR 23/22 A3008 RMK AO1=
KFKL 080815Z 00000KT 4SM CLR 19/18 A3013 RMK AO1=
KFLP 080815Z AUTO 00000KT 5SM CLR 23/22 A3004 RMK AO1=
KFNL 080815Z AUTO 06004KT 5SM FEW006 SCT013 SCT034 14/14 A3031 RMK
     AO1=
KFOD 080815Z AUTO 34003KT 10SM CLR 18/18 A3010 RMK AO1=
KFRM 080815Z AUTO 10SM CLR 17/15 A3012 RMK AO1=
KFTN 080815Z AUTO 07006KT 10SM SCT019 24/23 A2990 RMK AO1=
KGAD 080815Z AUTO 00000KT 10SM CLR 22/21 A3004 RMK AO1=
KGAI 080815Z 00000KT 8SM BKN090 26/21 A3003 RMK AO1=
####018003749####
SAUS70 KWBC 080816
METAR
KAIK 080815Z AUTO 00000KT 10SM CLR 23/22 A3003 RMK AO2 PNO=
KARW 080815Z AUTO 27006KT 10SM CLR 24/18 A2997 RMK AO2=
KBDN 080815Z AUTO 29006KT 10SM CLR 19/03 A3010 RMK AO2=
KFDW 080815Z AUTO 26004KT 10SM CLR 26/17 A2999 RMK AO1=
KGLY 080815Z AUTO 00000KT 10SM BKN005 OVC010 23/23 A3005 RMK
     AO2=
KMEZ 080815Z AUTO 20003KT 10SM BKN014 OVC022 26/23 A3006 RMK
     AO2=
KMYR 080815Z AUTO 29008KT 10SM FEW100 26/19 A2996 RMK AO1=
KOAJ 080815Z AUTO 00000KT 10SM CLR 22/21 A2992 RMK AO1=
KOCF 080815Z AUTO 36003KT 1/2SM BKN002 21/21 A3001 RMK AO1=
KSOP 080815Z AUTO 00000KT 10SM CLR 24/17 A2996 RMK AO1=
KUDG 080815Z 29003KT 10SM BKN100 26/18 A2997 RMK AO1=
K2G4 080810Z AUTO 00000KT 10SM SCT070 22/13 A3019 RMK AO1=
K2W6 080813Z AUTO 00000KT 5SM CLR 24/23 A2999 RMK AO1=
KCGS 080815Z AUTO 00000KT 7SM CLR 26/23 A2998 RMK AO1=
KFDK 080812Z AUTO 00000KT 5SM HZ SCT090 24/22 A3003 RMK AO2=
KPMV 080810Z AUTO 32006KT 10SM CLR 20/19 A3011 RMK AO2
     T02020193=
KAFK 080810Z AUTO 35007KT 5SM BR CLR 20/19 A3010 RMK AO2
     T02030193=
KANW 080810Z AUTO 27003KT 10SM OVC110 17/15 A3023 RMK AO2
     T01700150=
KAUH 080810Z AUTO 33005KT 10SM CLR 16/15 A3018 RMK AO2
     T01600150=
KAUN 080810Z AUTO 09004KT 10SM CLR 22/13 A2988 RMK AO1=
KBIE 080810Z AUTO 36006KT 10SM CLR 20/18 A3012 RMK AO2
     T01950182=
KBTA 080810Z AUTO 35009KT 10SM SCT023 20/17 A3012 RMK AO2
     T01970172=
KBVN 080810Z AUTO 00000KT 10SM OVC090 16/15 A3018 RMK AO2
     T01590148=
KDVO 080810Z AUTO 31003KT 10SM OVC010 12/12 A2994 RMK AO2=
KHDE 080810Z AUTO 35004KT 10SM CLR 16/15 A3020 RMK AO2
     T01600145=
KHJH 080810Z AUTO 34003KT 10SM OVC021 19/18 A3015 RMK AO2
     T01940181=
KIBM 080810Z AUTO 00000KT 10SM OVC018 12/11 A3031 RMK AO2
     T01230113=
KJYR 080810Z AUTO 35003KT 10SM BKN024 17/15 A3016 RMK AO2=
KLCG 080810Z AUTO 00000KT 10SM CLR 16/15 A3016 RMK AO2
     T01550147=
KLHM 080811Z AUTO 16012KT 10SM CLR 19/11 A2981 RMK AO1
     T01870112=
KLXN 080810Z AUTO 00000KT 10SM BKN047 BKN075 16/15 A3022 RMK AO2
     T01580151=
KMLE 080810Z AUTO 34004KT 10SM SCT020 20/17 A3011 RMK AO2
     T02040170=
KMMH 080810Z AUTO 27005KT 10SM CLR 13/02 A3021 RMK AO1=
KOGA 080810Z AUTO 00000KT 10SM SCT070 16/15 A3027 RMK AO2
     T01560145=
KOKM 080812Z AUTO 08003KT 10SM SCT003 OVC013 24/24 A3002 RMK AO1
     LTG DSNT N=
KONL 080810Z AUTO 00000KT 10SM OVC110 16/14 A3019 RMK AO2
     T01580144=
KSRE 080810Z AUTO 17004KT 3SM RA 24/24 A3002 RMK AO2=
KMTN 080815Z AUTO 00000KT 7SM CLR 26/24 A3000 RMK AO2=
KW29 080813Z AUTO 00000KT 5SM CLR 24/22 A2998 RMK AO1=
KPTV 080815Z AUTO 00000KT 10SM CLR 21/12 A2984 RMK AO1=
KPVC 080815Z 18006KT 1 1/4SM OVC002 21/19 A3007 RMK AO1=
KPVU 080815Z 07005KT 10SM CLR 18/08 A3012 RMK AO1=
KPWT 080815Z AUTO 04010KT 10SM CLR 23/07 A2997 RMK AO1=
KRKD 080815Z AUTO 20003KT 1/2SM OVC002 18/17 A3009 RMK AO1=
KRUT 080815Z AUTO 15006KT 5SM CLR 21/18 A3005 RMK AO1=
KSDY 080815Z AUTO 19003KT 10SM CLR 14/10 A3014 RMK AO1=
KSFM 080815Z 09003KT 1/2SM OVC002 21/19 A3007 RMK AO1=
KSFZ 080815Z AUTO 00000KT 10SM OVC010 22/21 A3005 RMK AO1=
KSGT 080815Z 26004KT 10SM CLR 23/22 A3005 RMK AO1=
KSGU 080815Z AUTO 00000KT 10SM CLR 28/01 A2994 RMK AO1=
KSKX 080815Z AUTO 03005KT 10SM CLR 12/03 A3037 RMK AO1=
KSLG 080815Z AUTO 17007KT 10SM FEW024 23/22 A3006 RMK AO1=
KSMN 080815Z AUTO 00000KT 10SM CLR 09/02 A3021 RMK AO1=
KSPA 080815Z AUTO 00000KT 10SM CLR 23/23 A3001 RMK AO2=
KSPL 080815Z AUTO 05009KT BKN049 29/25 A2977 RMK AO2 PWINO PNO=
KSQI 080815Z 00000KT 5SM FEW008 SCT018 OVC050 22/22 A3003 RMK
     AO1=
KSUE 080815Z AUTO 20003KT 4SM BKN120 21/19 A2997 RMK AO1=
####018000594####
SPUS70 KWBC 080816
SPECI
KGLH 080813Z AUTO 00000KT 1/2SM FG CLR 22/22 A3004 RMK AO2=
KLUK 080813Z AUTO 00000KT 2SM BR CLR 22/21 A3007 RMK AO2=
KMVL 080813Z AUTO 00000KT 2SM BR FEW050 SCT070 20/19 A3006 RMK
     AO2=
KVAY 080813Z AUTO 00000KT 1/2SM FG FEW003 OVC006 23/23 A3001 RMK
     AO2=
PATO 080813Z AUTO 14009G25KT 120V200 3SM +RA BR BKN026 BKN031
     OVC039 12/11 A3002 RMK AO2 P0006 T01220106 TSNO=
KBJJ 080814Z AUTO 00000KT 1 1/2SM BR CLR 19/18 A3009 RMK AO2=
KDHT 080814Z AUTO 02021G27KT 10SM BKN015 BKN023 OVC045 18/14 A3027
     RMK AO2 PK WND 01027/0810=
####018000085####
SACU31 MUHA 080815 RTD
METAR
MUCU 080802Z VRB02KT 9000 FEW020 26/24 Q1015=
DUPE
####018000802####
SPXX60 KWBC 080816
SPECI
KFFO 080800Z 00000KT 9SM R23R/5500VP6000FT CLR 22/21 A3007 RMK
     AO2A VIS 2 1/2 RWY05L SLP176=
KLFI 080807Z 11005KT 9SM R08/5500FT BKN008 OVC150 26/24 A2996 RMK
     AO2A SLP146 $=
KLTS 080807Z AUTO 01004KT 10SM -DZ CLR 23/22 A3005 RMK AO2 DZB0807
     SLP157 $=
KVOK 080810Z 31004KT 10SM BKN009 OVC014 22/22 A3000 RMK AO2A CIG
     008V012 SLP153=
PAEH SP 0815 AWOS 9 SCT M20 OVC 10 48/-20/0403/001=
PATC SP 0815 AWOS CLR BLO 120 10 51/44/0304/016=
KFAF 080805Z 00000KT 8SM FEW065 BKN090 26/26 A2995 RMK AO2A
     RAE0805 SLP142=
KLFI 080807Z 11005KT 9SM R08/5500FT BKN008 OVC150 26/24 A2996 RMK
     AO2A SLP146 $=
KNXF 080813Z AUTO 31004KT 7SM OVC013 17/13 A2991 RMK AO2 TSNO=
KFZY 080814Z AUTO 00000KT 2SM BR CLR 21/19 A3004 RMK AO2=
####018000188####
SPUS80 KWBC 080816
SPECI
KANJ 080812Z AUTO 15005KT 2 1/2SM RA BR SCT014 BKN022 OVC055 21/19
     A2996 RMK AO2 P0007=
KLIT 080813Z 00000KT 7SM SCT007 SCT150 24/23 A3005 RMK AO2=
####018003747####
SAUS70 KWBC 080816 RRA
METAR
KSUN 080811Z AUTO 30007KT 10SM CLR 12/02 A3023 RMK AO2=
KSZT 080810Z AUTO 00000KT 10SM CLR 11/09 A3010 RMK AO2=
KTIF 080810Z AUTO 00000KT 10SM OVC090 16/15 A3025 RMK AO2
     T01580145=
KTRK 080810Z AUTO 00000KT 10SM FEW038 14/08 A3016 RMK AO2=
KTVF 080815Z AUTO 25006KT 10SM CLR 14/11 A3003 RMK AO1=
KUTA 080815Z AUTO 00000KT 10SM CLR 23/22 A3006 RMK AO2=
KVBT 080815Z AUTO 00000KT 10SM BKN085 23/21 A3002 RMK AO1=
KVIS 080815Z AUTO 34006KT 10SM CLR 24/12 A2981 RMK AO1=
KWVL 080815Z AUTO 17003KT 7SM OVC005 21/19 A3003 RMK AO1=
KWWD 080815Z AUTO 10SM OVC120 24/24 A3001 RMK AO1=
KX40 080815Z AUTO 00000KT 7SM CLR 23/22 A3000 RMK AO2
     T02270220=
KYKN 080815Z AUTO 27004KT 10SM CLR 17/14 A3017 RMK AO1=
KGBD 080815Z AUTO 36007KT 7SM OVC011 19/18 A3015 RMK AO1=
KGDV 080815Z AUTO 22007KT 10SM CLR 12/08 A3016 RMK AO1=
KGTR 080815Z 32003KT 10SM CLR 24/22 A3004 RMK AO1=
KGUC 080815Z AUTO 35006KT 10SM CLR 09/03 A3043 RMK AO1=
KGXY 080815Z AUTO 12009KT 10SM OVC110 15/12 A3029 RMK AO1=
KHDN 080815Z 14009KT 10SM CLR 11/06 A3033 RMK AO1=
KHEF 080815Z AUTO 00000KT 7SM CLR 23/20 A2999 RMK AO1=
KHEZ 080815Z AUTO 00000KT 10SM CLR 23/22 A3002 RMK AO1=
KHNB 080815Z AUTO 00000KT 9SM CLR 22/21 A3005 RMK AO1=
KHYS 080815Z AUTO 35005KT 10SM BKN014 18/17 A3018 RMK AO1=
KIWD 080815Z AUTO 00000KT 10SM FEW100 FEW120 17/15 A3000 RMK
     AO1=
KJAC 080815Z AUTO 36008KT 10SM CLR 10/M01 A3033 RMK AO1=
KJHW 080815Z AUTO 00000KT 5SM CLR 20/19 A3011 RMK AO1=
KKLS 080815Z AUTO 00000KT 10SM CLR 17/13 A2990 RMK AO1=
KLBL 080815Z 05008KT 10SM FEW035 SCT050 20/17 A3020 RMK AO1=
KLCI 080815Z AUTO 00000KT 10SM OVC085 23/19 A3005 RMK AO1=
KLEW 080815Z 00000KT 4SM OVC004 21/19 A3008 RMK AO1=
KLGD 080815Z AUTO 00000KT 10SM CLR 13/06 A3004 RMK AO1=
KLKV 080815Z AUTO 32008KT 10SM CLR 10/02 A3012 RMK AO1=
KLPC 080815Z AUTO 00000KT 10SM OVC012 14/11 A2992 RMK AO1 PNO=
KLUX 080815Z AUTO 30003KT 10SM CLR 22/22 A3001 RMK AO2=
KMBL 080815Z AUTO 00000KT 10SM OVC100 22/19 A3000 RMK AO1=
KMER 080815Z AUTO 33006KT 10SM CLR 18/10 A2983 RMK AO1=
KMJX 080815Z AUTO 00000KT 4SM BKN004 24/22 A3001 RMK AO1=
KMKT 080815Z 32005KT 10SM CLR 18/17 A3009 RMK AO1=
KMML 080815Z AUTO 27005KT 10SM CLR 15/13 A3013 RMK AO1=
KMNI 080815Z AUTO 00000KT 10SM CLR 21/21 A2996 RMK AO2=
KMNM 080815Z AUTO 11004KT 7SM BKN011 BKN120 21/19 A2995 RMK
     AO1=
KMRF 080815Z AUTO 01007KT 10SM CLR 16/13 A3016 RMK AO1=
KMSV 080815Z AUTO 00000KT 6SM CLR 21/18 A3009 RMK AO1=
KMTW 080815Z 00000KT 10SM BKN090 OVC110 21/20 A2997 RMK AO1=
KMVN 080815Z AUTO 00000KT 2SM CLR 22/21 A3005 RMK AO1=
KOKK 080815Z AUTO 18003KT 9SM CLR 23/17 A3005 RMK AO1=
KOLU 080815Z AUTO 30004KT 10SM CLR 17/15 A3017 RMK AO1=
KOTG 080815Z AUTO 27004KT 10SM CLR 14/13 A3015 RMK AO1=
KOTH 080815Z 00000KT 10SM OVC008 11/08 A3000 RMK AO1=
KOUN 080814Z AUTO 01003KT 10SM OVC022 25/23 A3004 RMK AO2=
KOXC 080815Z 00000KT 3SM FEW085 OVC110 22/21 A3007 RMK AO1=
KPIB 080815Z AUTO 00000KT 7SM CLR 23/21 A3004 RMK AO1=
KPNA 080810Z AUTO 30006KT 10SM CLR 07/01 A3037 RMK AO2
     T00650010=
KPQI 080815Z AUTO 00000KT 10SM CLR 21/18 A2998 RMK AO1=
KPSO 080815Z AUTO 00000KT 10SM SCT100 12/07 A3039 RMK AO2=
KPTN 080815Z AUTO 00000KT 10SM CLR 24/M09 A3001 RMK AO1=
KPTT 080810Z AUTO 01007KT 10SM SCT012 19/18 A3014 RMK AO2=
KAEG 080815Z AUTO 14012KT 10SM CLR 17/08 A3028 RMK AO1=
KAFJ 080815Z AUTO 00000KT M1/4SM OVC003 17/16 A3010 RMK AO1=
KAIZ 080815Z AUTO 00000KT 10SM SCT042 22/21 A3005 RMK AO1=
KARG 080815Z AUTO 18005KT 10SM CLR 25/23 A3004 RMK AO1=
KAUO 080815Z AUTO 20003KT 10SM CLR 26/22 A3003 RMK AO1=
KAWO 080815Z AUTO 00000KT 10SM CLR 16/13 A2997 RMK AO1=
####018000380####
SAUS80 KWBC 080816
METAR
KCBE 080813Z AUTO 00000KT 7SM CLR 22/18 A3010 RMK AO1=
KESN 080818Z AUTO 00000KT 4SM BR CLR 23/23 A3002 RMK AO2=
KSOW 080810Z AUTO 17005KT 10SM BKN100 21/04 A3023 RMK AO2=
KGPZ 080815Z AUTO 19004KT 10SM CLR 13/12 A3006 RMK AO1=
KDVL 080815Z AUTO 28007KT 7SM CLR 15/12 A3006 RMK AO1=
KEAR 080815Z AUTO 33005KT 10SM CLR 16/14 A3022 RMK AO1=
####018000206####
SAAF31 KWBC 080800 RRC
METAR
DNAA 080800Z 06005KT 020V090 9999 FEW012 24/21 Q1016 NOSIG=
DNKA 080800Z 21005KT 9999 FEW009 23/22 Q1019=
DNMA 080800Z 18012KT 5000 -TSRA SCT012 FEW020CB 25/24 Q1012=
####018000096####
SAAO33 KWBC 080800 RRB
METAR
GFLL 080800Z 12008KT 9999 SCT012 FEW028CB 24/22 Q1012 CB-NE=
####018000135####
SAAS31 KWBC 080805 RRB
METAR
VIDP 080800Z 14005KT 3200 HZ SCT030 FEW040CB SCT100 34/25 Q1005
     TEMPO 36030KT VIS 1500 TSRA=
####018000271####
SAAU31 KWBC 080800 RRB
METAR
YBCS 080800Z 15007KT 9999 FEW024 BKN045 24/19 Q1015 NOSIG=
YBTL 080800Z 07008KT 9999 FEW019 SCT050 BKN170 23/20 Q1015
     NOSIG=
YPAD 080800Z 00000KT 9999 FEW045 12/09 Q1025 NOSIG=
YPDN 080800Z 02013KT CAVOK 29/20 Q1011 NOSIG=
####018000081####
SACA33 KWBC 080800 RRB
METAR
TGPY 080830Z 08009KT 9999 FEW021 28/25 Q1012=
####018000083####
SPUS31 KWBC 080816
SPECI
KLIT 080813Z 00000KT 7SM SCT007 SCT150 24/23 A3005=
####018000081####
SANT31 KWBC 080800 CCA
METAR
BGGH 080750Z 01003KT 9999 OVC003 05/03 Q1010=
####018000130####
SAPA31 KWBC 080800 RRC
METAR
AYPY 080800Z 18007KT 9999 FEW020CB FEW020 BKN140 27/23 Q1008 RMKS/
     CB TO N/ HZ IN AREA=
####018000081####
SPUS41 KWBC 080816
SPECI
KLUK 080813Z AUTO 00000KT 2SM BR CLR 22/21 A3007=
####018000095####
SAXX62 KWBC 080800 RRA
METAR
RKSM 080800Z 21003KT 9999 FEW030 SCT100 BKN200 28/21 A2977=
####018000549####
SAXX99 KWBC 080800 RRN
METAR
CMFM 080800Z AUTO 29001KT 17/16 RMK AO1 SLP167 T01710164 56001=
CWIK 080800Z AUTO 30003KT 12/12 RMK AO1 SLP185 T01220115 51001=
DAUL 080800Z 00000KT CAVOK 31/12 Q1023=
K4O4 080808Z AUTO 09003KT 10SM SCT001 BKN013 23/22 A3004 RMK
     AO2=
KCBE 080813Z AUTO 00000KT 7SM CLR 22/18 A3010 RMK AO1=
KESN 080818Z AUTO 00000KT 4SM BR CLR 23/23 A3002 RMK AO2=
KFME 080815Z AUTO 00000KT 3SM 20/20 A3001 RMK AO1 SKY OBSCURED=
SADF 080800Z 00000KT CAVOK 04/02 Q1019=
SAOC 080800Z 36015KT 9999 04/M01 Q1016=
####018000083####
SAXX99 KWBC 080800 CCA
METAR
BGSS 080750Z 11002KT 0300 FG VV001 04/04 Q1009=
####018000125####
SAUS43 KAPX 080816
MTRANJ
SPECI KANJ 080814Z AUTO 16004KT 3SM -RA BR BKN014 BKN022 OVC043 
21/19 A2996 RMK AO2 P0007
####018000083####
SPUS72 KWBC 080816
SPECI
KLIT 080813Z 00000KT 7SM SCT007 SCT150 24/23 A3005=
####018000083####
SPUS81 KWBC 080816
SPECI
KLIT 080813Z 00000KT 7SM SCT007 SCT150 24/23 A3005=
####018000075####
SAGD31 TGPY 080830
METAR TGPY 080830Z 08009KT 9999 FEW021 28/25 Q1012=
####018000154####
SAXX70 KAWN 080800 RRM
METAR KQFW 080800Z AUTO 26002KT 7SM CLR 28/18 A2987 RMK A02=
METAR KQEX 080810Z AUTO 00003KT 7SM FEW065 29/17 A2972 RMK A02=
####018001242####
SAZZ40 KAWN 080800 RRO
METAR COR BGGH 080750Z 01003KT 9999 OVC003 05/03 Q1010=
METAR DAUI 080800Z 06028KT 0400 BLSA VV/// ///// Q1012=
METAR DBBB 080800Z 23007KT 200V270 6000 SCT011 BKN110 27/25 Q1014 NOSIG=
METAR DFFD 080800Z 0000KT 9999 -RA FEW016 BKN100 23/22 Q1017 NOSIG=
METAR KVPS 080755Z COR 33001KT 10SM SKC 24/24 A3002 RMK AO2A SLP166
      T02430238 COR 0811=
METAR NGFU 080800Z 08080Z 07007KT 50KM FEW020 SCT310 28/24 1009=
METAR NSFA 080800Z 07006KT 45KM FEW020 27/25 Q1011=
METAR OAKN 080750Z 00000KT 9000 HZ SKC 40/10 Q1009 BLU NOSIG RMK A2981
      DA6900=
METAR OEAH 080800Z 06013KT 9000 NSC 43/09 Q1002 NOSIG=
METAR OEGS 080800Z 10007KT 42/08 Q1009=
METAR OEGT 080800Z 29008KT CAVOK 33/01 Q1010=
METAR OEKK 080800Z 06010KT CAVOK 43/11 Q1007=
METAR OERR 080800Z 14013KT CAVOK 42/10 Q1007=
METAR OESK 080800Z 29007KT CAVOK 39/01 Q1010=
METAR OETB 080800Z 24004KT CAVOK 34/08 Q1011 NOSIG=
METAR OETR 080800Z 07006KT CAVOK 36/04 Q1011=
METAR OEWJ 080800Z 30018KT CAVOK 33/27 Q1004=
METAR OEYN 080800Z 18004KT CAVOK 39/15 Q1001 NOSIG=
METAR ORER 080800Z VRB03KT 7000 SKC 40/02 Q1005=
METAR SADF 080800Z 00000KT CAVOK 04/02 Q1019=
METAR TGPY 080830Z 08009KT 9999 FEW021 28/25 Q1012=
####018000559####
SAUS20 KNKA 080815
METAR KGTU 080815Z 09004KT 10SM SCT012 BKN023 OVC029 25/22 A3000 RMK 
    AO1=
METAR KHYI 080815Z AUTO 06005KT 10SM SCT012 BKN017 OVC022 A2994 RMK 
    AO1=
METAR KILE 080815Z 11006KT 10SM SCT014 BKN022 OVC026 25/22 A2998 RMK 
    AO1=
METAR KOCH 080815Z AUTO 09005KT 10SM CLR 24/19 A3000 RMK AO1=
METAR KPRX 080815Z 13005KT 10SM FEW015 24/22 A3001 RMK AO1=
METAR KPWG 080815Z AUTO 12003KT 10SM SCT013 SCT120 25/22 A2999 RMK 
    AO1=
METAR KTPL 080815Z 11005KT 10SM BKN014 BKN023 OVC033 24/23 A2998 RMK 
    AO1=
####018000075####
SACN88 CWAO 080530
AHD SA 0530 AUTO7 M M M M/19/16/2203/M/M M 23MM=

####018000330####
SPNA14 KAWN 080816
SPECI KVOK 080810Z 31004KT 10SM BKN009 OVC014 22/22 A3000 RMK AO2A
      CIG 008V012 SLP153=
SPECI KVOK 080813Z 31003KT 10SM OVC012 22/22 A3000 RMK AO2A CIG 008V015
      SLP152=
SPECI KWRI 080814Z AUTO 00000KT 2 1/2SM R18/4500V5500FT R24/2400V2600FT
      BR OVC003 24/24 A2999 RMK AO2 SLP157 $=
####018002931####
SAUS20 KNKA 080816
METAR K0A9 080815Z AUTO 00000KT 7SM FEW080 19/18 A3011 RMK=
METAR K20V 080816Z AUTO 00000KT 10SM SCT024 08/05 A3042 RMK AO2=
METAR K2G4 080810Z AUTO 00000KT 10SM SCT070 22/13 A3019 RMK
     AO1=
METAR K2W6 080813Z AUTO 00000KT 5SM CLR 24/23 A2999 RMK AO1=
METAR K4BM 080814Z AUTO 00000KT 10SM 05/03 A3064 RMK AO2=
METAR K5SM 080813Z AUTO 11007KT 070V130 10SM -DZ SCT060 BKN070
     OVC075 08/05 A3056 RMK AO2=
METAR K7BM 080816Z AUTO 25003KT 10SM OVC026 10/06 A3056 RMK AO2=
METAR KBBG 080815Z AUTO 00000KT 4SM BR CLR 23/22 A3006 RMK AO2 =
METAR KBBP 080815Z AUTO 33003KT 10SM SCT090 23/20 A2995 RMK AO2=
METAR KBDU 080817Z AUTO 21007G14KT 10SM CLR 16/12 A3029 RMK AO2=
SPECI KBGD 080815Z AUTO 02008KT 10SM -RA FEW005 BKN022 OVC080 19/18 
    A3019 RMK AO2 P0000=
METAR KBJC 080817Z AUTO 20004KT 5SM BR CLR 13/12 A3033 RMK AO2=
METAR KBKN 080815Z AUTO 04004KT 10SM FEW045 SCT060 22/22 A3003 RMK 
     AO2 =
SPECI KBOK 080816Z AUTO 24003KT M1/4SM FG OVC002 09/09 A2997 RMK AO2 
    $=
METAR KCBE 080813Z AUTO 00000KT 7SM CLR 22/18 A3010 RMK AO1=
METAR KCCU 080816Z AUTO 19018KT 10SM CLR 07/02 A3064 RMK AO2=
METAR KCGE 080811Z AUTO 10003KT 4SM SCT005 SCT120 25/24 A2999 RMK
     AO1=
METAR KCGS 080815Z AUTO 00000KT 7SM CLR 26/23 A2998 RMK AO1=
METAR KCIC 080815Z AUTO 00000KT 10SM CLR 25/16 A2980 RMK AO1 =
METAR KCMR 080815Z AUTO 16004KT 10SM FEW100 17/01 A3024 RMK AO1 =
METAR KDLL 080814Z AUTO 25004KT 7SM OVC004 21/19 A3000 RMK AO2=
METAR KFDK 080812Z AUTO 00000KT 5SM HZ SCT090 24/22 A3003 RMK
     AO2=
METAR KDMW 080813Z AUTO 00000KT 7SM CLR 26/21 A3004 RMK AO2=
SPECI KDVN 080815Z AUTO 00000KT 2SM BR BKN007 22/21 A3002 RMK AO2 
    VIS 1V3 CIG 005V009=
SPECI KEKN 080815Z AUTO 00000KT 2 1/2SM BR SCT080 17/17 A3015 RMK 
    AO2 TSNO=
METAR KESN 080818Z AUTO 00000KT 4SM BR CLR 23/23 A3002 RMK AO2=
METAR KFME 080815Z AUTO 00000KT 3SM 20/20 A3001 RMK AO1 SKY
     OBSCURED=
METAR KGGE 080815Z AUTO 26008KT 10SM CLR 24/22 A2994 RMK AO2=
METAR KHVS 080815Z AUTO 00000KT 10SM CLR 26/18 A2997 RMK AO2=
METAR KMAO 080815Z AUTO 28003KT 10SM SCT095 26/19 A2993 RMK AO2=
METAR KMTN 080815Z AUTO 00000KT 7SM CLR 26/24 A3000 RMK AO2=
METAR KMYP 080716Z AUTO 05010KT M1/4SM +SN OVC001 03/03 A3075 RMK
     AO2=
METAR KNQA 080815Z AUTO 00000KT 10SM CLR 25/23 A3006 RMK=
METAR KRCE 080815Z AUTO 35003KT 9SM CLR 22/22 A3006 RMK AO2 =
METAR KRKR 080815Z AUTO 00000KT 10SM OVC029 26/24 A3003 RMK AO2=
METAR KSMS 080815Z AUTO 27004KT 10SM CLR 25/19 A2997 RMK AO2 =
METAR KSRR 080815Z AUTO 20005KT 10SM SCT045 BKN060 OVC075 13/12 
     A3035 RMK AO2 =
METAR KVQQ 080815Z AUTO 00000KT 5SM BR CLR 17/17 A3001 RMK AO2 =
METAR KVTP 080820Z AUTO 07011G15KT 1/4SM OVC001 06/05 A3055 RMK
     AO2=
METAR KW29 080813Z AUTO 00000KT 5SM CLR 24/22 A2998 RMK AO1=
METAR KWYS 080810Z AUTO 17003KT 10SM CLR 03/00 A3035 RMK AO2=
####018000087####
SAUS46 KLOX 080816
MTRMWS
METAR KMWS 080800Z 10506G07KT 20/M02 RMK SNOW DEPTH  M
####018000085####
SPCN48 CWAO 080815
SPECI CYPH 080815Z AUTO 24017G22KT 3SM OVC001 05/05 A2977=

####018000105####
SAUS44 KMOB 080816 COR
MTRNSE
SPECI KNSE 080811Z AUTO 00000KT 1 3/4SM BR CLR 23/22 A3002 RMK AO2 $
####018000365####
SPUS99 KWBC 080817
SPECI
KBGD 080815Z AUTO 02008KT 10SM -RA FEW005 BKN022 OVC080 19/18
     A3019 RMK AO2 P0000=
KBOK 080816Z AUTO 24003KT M1/4SM FG OVC002 09/09 A2997 RMK AO2
     $=
KDVN 080815Z AUTO 00000KT 2SM BR BKN007 22/21 A3002 RMK AO2 VIS
     1V3 CIG 005V009=
KEKN 080815Z AUTO 00000KT 2 1/2SM BR SCT080 17/17 A3015 RMK AO2
     TSNO=
####018003702####
SAUS99 KWBC 080817
METAR
KPQN 080813Z AUTO 31004KT 10SM CLR 17/15 A3016 RMK AO2=
KFGN 080814Z AUTO 26009KT 3/4SM DZ VV005 18/13 A2996 RMK AO2=
KPNM 080813Z AUTO 28003KT 1 1/4SM BR CLR 14/14 A3008 RMK AO2 VIS
     1V5=
KPWC 080813Z AUTO 00000KT 1/2SM FG BKN001 11/10 A3008 RMK AO2=
KFFM 080813Z AUTO 19004KT 10SM CLR 15/14 A3007 RMK AO2=
KGDB 080813Z AUTO 25004KT 10SM CLR 15/14 A3013 RMK AO2
     T01450141=
KAIT 080813Z AUTO 00000KT 4SM BR CLR 12/11 A3006 RMK AO2=
KGHW 080813Z AUTO 23005KT 10SM CLR 14/13 A3013 RMK AO2=
KMWM 080813Z AUTO 27005KT 10SM CLR 14/14 A3013 RMK AO2=
KULM 080815Z AUTO 28004KT 10SM CLR 14/13 A3011 RMK AO2=
KBBB 080813Z AUTO 00000KT 10SM CLR 14/14 A3011 RMK AO2=
KTWM 080813Z AUTO 00000KT 10SM BKN060 17/14 A3001 RMK AO2=
KMGG 080815Z AUTO 28004KT 10SM CLR 16/15 A3009 RMK AO2
     T01570154=
KMOX 080810Z AUTO 24004KT 10SM CLR 16/14 A3007 RMK AO2=
KGTU 080815Z 09004KT 10SM SCT012 BKN023 OVC029 25/22 A3000 RMK
     AO1=
KHYI 080815Z AUTO 06005KT 10SM SCT012 BKN017 OVC022 A2994 RMK
     AO1=
KILE 080815Z 11006KT 10SM SCT014 BKN022 OVC026 25/22 A2998 RMK
     AO1=
KOCH 080815Z AUTO 09005KT 10SM CLR 24/19 A3000 RMK AO1=
KPRX 080815Z 13005KT 10SM FEW015 24/22 A3001 RMK AO1=
KPWG 080815Z AUTO 12003KT 10SM SCT013 SCT120 25/22 A2999 RMK
     AO1=
KTPL 080815Z 11005KT 10SM BKN014 BKN023 OVC033 24/23 A2998 RMK
     AO1=
K0A9 080815Z AUTO 00000KT 7SM FEW080 19/18 A3011 RMK=
K20V 080816Z AUTO 00000KT 10SM SCT024 08/05 A3042 RMK AO2=
K2G4 080810Z AUTO 00000KT 10SM SCT070 22/13 A3019 RMK AO1=
K2W6 080813Z AUTO 00000KT 5SM CLR 24/23 A2999 RMK AO1=
K4BM 080814Z AUTO 00000KT 10SM 05/03 A3064 RMK AO2=
K5SM 080813Z AUTO 11007KT 070V130 10SM -DZ SCT060 BKN070 OVC075
     08/05 A3056 RMK AO2=
K7BM 080816Z AUTO 25003KT 10SM OVC026 10/06 A3056 RMK AO2=
KBBG 080815Z AUTO 00000KT 4SM BR CLR 23/22 A3006 RMK AO2=
KBBP 080815Z AUTO 33003KT 10SM SCT090 23/20 A2995 RMK AO2=
KBDU 080817Z AUTO 21007G14KT 10SM CLR 16/12 A3029 RMK AO2=
KBJC 080817Z AUTO 20004KT 5SM BR CLR 13/12 A3033 RMK AO2=
KBKN 080815Z AUTO 04004KT 10SM FEW045 SCT060 22/22 A3003 RMK
     AO2=
KCBE 080813Z AUTO 00000KT 7SM CLR 22/18 A3010 RMK AO1=
KCCU 080816Z AUTO 19018KT 10SM CLR 07/02 A3064 RMK AO2=
KCGE 080811Z AUTO 10003KT 4SM SCT005 SCT120 25/24 A2999 RMK
     AO1=
KCGS 080815Z AUTO 00000KT 7SM CLR 26/23 A2998 RMK AO1=
KCIC 080815Z AUTO 00000KT 10SM CLR 25/16 A2980 RMK AO1=
KCMR 080815Z AUTO 16004KT 10SM FEW100 17/01 A3024 RMK AO1=
KDLL 080814Z AUTO 25004KT 7SM OVC004 21/19 A3000 RMK AO2=
KFDK 080812Z AUTO 00000KT 5SM HZ SCT090 24/22 A3003 RMK AO2=
KDMW 080813Z AUTO 00000KT 7SM CLR 26/21 A3004 RMK AO2=
KESN 080818Z AUTO 00000KT 4SM BR CLR 23/23 A3002 RMK AO2=
KFME 080815Z AUTO 00000KT 3SM 20/20 A3001 RMK AO1 SKY OBSCURED=
KGGE 080815Z AUTO 26008KT 10SM CLR 24/22 A2994 RMK AO2=
KHVS 080815Z AUTO 00000KT 10SM CLR 26/18 A2997 RMK AO2=
KMAO 080815Z AUTO 28003KT 10SM SCT095 26/19 A2993 RMK AO2=
KMTN 080815Z AUTO 00000KT 7SM CLR 26/24 A3000 RMK AO2=
KMYP 080716Z AUTO 05010KT M1/4SM +SN OVC001 03/03 A3075 RMK
     AO2=
KNQA 080815Z AUTO 00000KT 10SM CLR 25/23 A3006 RMK=
KRCE 080815Z AUTO 35003KT 9SM CLR 22/22 A3006 RMK AO2=
KRKR 080815Z AUTO 00000KT 10SM OVC029 26/24 A3003 RMK AO2=
KSMS 080815Z AUTO 27004KT 10SM CLR 25/19 A2997 RMK AO2=
KSRR 080815Z AUTO 20005KT 10SM SCT045 BKN060 OVC075 13/12 A3035
     RMK AO2=
KVQQ 080815Z AUTO 00000KT 5SM BR CLR 17/17 A3001 RMK AO2=
KVTP 080820Z AUTO 07011G15KT 1/4SM OVC001 06/05 A3055 RMK AO2=
KW29 080813Z AUTO 00000KT 5SM CLR 24/22 A2998 RMK AO1=
KWYS 080810Z AUTO 17003KT 10SM CLR 03/00 A3035 RMK AO2=
####018000126####
SAIN32 VIDP 080800
METAR VIDP 080800Z 14005KT 3200 HZ SCT030 FEW040CB SCT100 34/25 Q1005
    TEMPO 36030KT VIS 1500 TSRA=
####018000107####
SPKO31 KWBC 080817
SPECI
RKTN 080812Z 35008KT 9000 -TSRA FEW025CB BKN040 OVC200 28/21 Q1007
NOSIG=
####018000122####
SPUS41 KWBC 080817
SPECI
KWRI 080814Z AUTO 00000KT 2 1/2SM R18/4500V5500FT R24/2400V2600FT
BR OVC003 24/24 A2999=
####018000128####
SAUS43 KLSX 080816
MTRCOU
SPECI KCOU 080815Z AUTO 00000KT 10SM -RA SCT002 SCT019 BKN070 23/22 
A3004 RMK AO2 P0001 TSNO
####018000099####
SPUS52 KWBC 080817
SPECI
KDHT 080814Z AUTO 02021G27KT 10SM BKN015 BKN023 OVC045 18/14 A3027=
####018000249####
SACN95 CWAO 080800 RRB
WUT SA 0800 AUTO8 M M M 174/10/09/3105/M/M 4000 99MM=
WVV SA 0800 AUTO8 M M M 148/21/07/0000/M/ 3006 74MM=
WWF SA 0800 AUTO8 M M M 192/13/11/2703/M/ 5003 90MM=
WWN SA 0800 AUTO8 M M M 099/13/13/1805/M/ 6011 31MM=

####018000083####
SACN92 CWAO 080700 RRH
WLF SA 0700 AUTO8 M M M 127/14/13/2503/M/ 8007 55MM=

####018000118####
SACN43 CWAO 080800 RRA
METAR CYQW 080800Z AUTO 16004KT 9SM CLR 09/08 A3012 RMK SLP213
 TS/LTNG TEMPO UNAVBL=

####018000083####
SACN66 CWAO 080800 RRB
WBU SA 0800 AUTO8 M M M 177/09/08/2706/M/ 0002 20MM=

####018000188####
SACN93 CWAO 080800 RRB
WNK SA 0800 AUTO8 M M M M/15/13/2805/M/ M 31MM=
WPD SA 0800 AUTO8 M M M 129/18/18/0000/M/ 8003 33MM=
WPF SA 0800 AUTO8 M M M 137/17/13/0403/M/ 2007 59MM=

####018000584####
SACN97 CWAO 080800 RRB
XCA SA 0800 AUTO8 M M M 151/17/16/2201/M/0009 PCPN 0.9MM PAST HR
8007 73MM=
XDI SA 0800 AUTO8 M M M 153/21/19/2001/M/ 7005 99MM=
XEC SA 0800 AUTO8 M M M M/16/13/MMMM/M/ M 71MM=
XEG SA 0800 AUTO8 M M M M/12/12/MMMM/M/ M 33MM=
XGH SA 0800 AUTO8 M M M M/15/15/2904/M/M M 66MM=
XMD SA 0800 AUTO8 M M M 146/17/13/2708/M/ 8003 05MM=
XMM SA 0800 AUTO8 M M M M/14/11/MMMM/M/ M 76MM=
XMW SA 0800 AUTO8 M M M 211/11/10/MMMM/M/ 1004 06MM=
XTL SA 0800 AUTO8 M M M 210/10/08/3301/M/ 1016 16MM=
XWN SA 0800 AUTO8 M M M 146/18/13/2603/M/ 2001 09MM=

####018000261####
SACN90 CWAO 080800 RRB
WEA SA 0800 AUTO8 M M M 144/14/13/2803/M/ 3001 19MM=
WER SA 0800 AUTO8 M M M M/M/M/0418/M/M PK WND 0423 0735Z M MMMM=
WEW SA 0800 AUTO8 M M M 154/22/22/2801/M/ 0000 46MM=
WGL SA 0800 AUTO8 M M M 172/23/23/0000/M/M 6005 11MM=

####018000280####
SACN59 CWAO 080800 RRB
NPK SA 0800 AUTO8 M M M 243/07/06/2501/M/ 8001 28MM=
PBR SA 0800 AUTO8 M M M M/11/M/MMMM/M/ M 9MMM=
PCR SA 0800 AUTO8 M M M M/10/M/MMMM/M/ M 1MMM=
PMR SA 0800 AUTO8 M M M M/13/M/MMMM/M/ M 7MMM=
PRR SA 0800 AUTO8 M M M M/12/M/MMMM/M/M M 1MMM=

####018000083####
SACN87 CWAO 080800 RRA
WEQ SA 0800 AUTO8 M M M 168/09/08/2205/M/ 1002 21MM=

####018000193####
SACN98 CWAO 080800 RRB
XDK SA 0800 AUTO8 M M M 155/16/12/1107/M/ 1025 37MM=
XRB SA 0800 AUTO8 M M M 090/10/03/1407/M/ 7007 43MM=
ZTB SA 0800 AUTO8 M M M 150/18/16/2003/M/ 6008 86MM=

####018000097####
SACN48 CWAO 080800 RRA
METAR CYWK 080800Z 19006KT 15SM FEW300 17/15 A2995 RMK CI1 SLP145=

####018000248####
SACN78 CWAO 080800 RRB
TBT SA 0800 AUTO8 M M M 181/18/18/0701/M/ 6010 20MM=
TNK SA 0800 AUTO8 M M M 172/18/17/0000/M/ 6006 65MM=
TPQ SA 0800 AUTO8 M M M 163/19/18/0000/M/ 6008 40MM=
XRG SA 0800 AUTO8 M M M 173/23/21/1603/M/ 7007 56MM=

####018000163####
SACN70 CWAO 080800 RRB
PGH SA 0800 AUTO8 M M M 135/14/13/3004/M/ 3002 79MM=
WSZ SA 0800 AUTO8 M M M 149/14/12/2804/M/0008 PCPN 0.6MM PAST HR
0004 84MM=

####018001646####
SPZZ40 KAWN 080817 RRC
SPECI CWZZ 080813Z AUTO ///// 5/8SM SCT012 SCT016 10/ A2981=
SPECI CYKF 080814Z AUTO 00000KT 2 1/4SM BR CLR 19/19 A3006 RMK SLP175
      DENSITY ALT 1600FT VIS VRB 1 1/2-3=
SPECI EGUL 080813Z AUTO 25005KT 9000 -DZ BR SCT005 BKN015 OVC022 17/16
      A3007 RMK AO2 CIG 005 RWY06 SLP184=
SPECI EGUL 080816Z AUTO 25005KT 9999 -DZ SCT005 BKN014 OVC022 17/16
      A3007 RMK AO2 CIG 005 RWY06 SLP184=
SPECI EGUN 080812Z AUTO 26006KT 9999 BKN007 BKN014 OVC021 17/17 A3008
      RMK AO2 RAB0751E0801 SLP174=
SPECI KDOV 080813Z AUTO 00000KT 2 1/2SM BR FEW110 24/24 A2998 RMK AO2
      SLP155=
SPECI KVOK 080813Z 31003KT 10SM OVC012 22/22 A3000 RMK AO2A CIG 008V015
      SLP152=
SPECI KWRI 080814Z AUTO 00000KT 2 1/2SM R18/4500V5500FT R24/2400V2600FT
      BR OVC003 24/24 A2999 RMK AO2 SLP157 $=
PACZ SP 0815 AWOS MM 7 51/47/0605/008=
PAIM SP 0815 AWOS CLR BLO 120 10 58/45/3203/008=
PALU SP 0815 AWOS CLR BLO 120 10 55/34/2122/010=
PASV SP 0815 AWOS M100 BKN 10 49/48/0000/996=
PATL SP 0815 AWOS 110 SCT 10 61/42/0304/000=
SPECI RJCN 080807Z 09004KT 030V120 3000 -TSRA BR BKN002 BKN003 14/14
      Q1009 RMK 5ST002 7ST003 A2982 FBL TS 20KM NW MOV NE=
SPECI RJOW 080811Z 35003KT 310V040 5000 BR SCT010 FEW010CB BKN/// 24/21
      Q1008 RETS RMK 3CU010 1CB010 A2979 CB 15KM E STNR=
SPECI RJTH 080815Z 23012KT 200V260 3000 SHRA BR FEW002 BKN006 BKN012
      24/23 Q1012 RMK 2ST002 5ST006 5ST012 A2989=
SPECI RKTN 080801Z 07005KT 9999 -RA FEW025 BKN040 OVC200 29/21 Q1007
      NOSIG=
SPECI RKTN 080812Z 35008KT 9000 -TSRA FEW025CB BKN040 OVC200 28/21
      Q1007 NOSIG=
####018000196####
SACN94 CWAO 080800 RRB
WQL SA 0800 AUTO8 M M M 198/13/11/2003/M/ 0000 35MM=
WRA SA 0800 AUTO8 M 9.+ M 237/08/08/0705/M/ 3009 11MM=
WRD SA 0800 AUTO8 M M M 175/13/11/1601/M/M 0002 75MM=

####018000243####
SACN96 CWAO 080800 RRB
WYE SA 0800 AUTO8 M M M 179/12/10/2103/M/ 1003 30MM=
WYL SA 0800 AUTO8 M M M M/06/03/0803/M/ M 10MM=
WYQ SA 0800 AUTO8 M M M 161/11/10/3301/M/ 3003 71MM=
XKA SA 0800 AUTO8 M M M 115/19/17/2102/M/ 8014 35MM=

####018000738####
SACN88 CWAO 080800 RRB
AAW SA 0800 AUTO8 M M M 202/16/16/1402/M/ 3003 06MM=
ACP SA 0800 AUTO8 M M M 199/15/15/1902/M/ 5003 99MM=
ACQ SA 0800 AUTO8 M M M 154/21/19/2305/M/ 1008 67MM=
ADS SA 0800 AUTO8 M M M 223/10/10/1104/M/ 3006 20MM=
AJT SA 0800 AUTO8 M M M 181/17/15/0605/M/ 5005 90MM=
AMS SA 0800 AUTO8 M M M 190/17/17/2209/M/ 3002 18MM=
AWR SA 0800 AUTO8 M M M 186/21/16/1510/M/ 6003 04MM=
WAR SA 0800 AUTO8 M M M 238/10/10/2205/M/ 3008 18MM=
WSS SA 0800 AUTO8 M M M 184/19/18/2102/M/ 5001 09MM=
XKT SA 0800 AUTO8 M M M M/16/16/1102/M/ M 10MM=
XNP SA 0800 AUTO8 M M M 187/18/17/1909/M/ 1004 39MM=
ZCR SA 0800 AUTO8 M M M 150/18/17/2203/M/ 6002 58MM=
ZDB SA 0800 AUTO8 M M M 196/16/16/0000/M/ 3002 49MM=

####018000300####
SACN91 CWAO 080800 RRB
WHQ SA 0800 AUTO7 M M M M/21/20/1103/M/M M 32MM=
WHT SA 0800 AUTO8 M M M 215/11/05/0802/M/ 1009 05MM=
WID SA 0800 AUTO8 M M M 148/16/13/3003/M/M M003 75MM=
WIS SA 0800 AUTO8 M M M 169/18/17/1302/M/ 6001 71MM=
WIY SA 0800 AUTO8 M M M 154/21/21/1601/M/ 6001 35MM=

####018000191####
SACN89 CWAO 080800 RRB
WAY SA 0800 AUTO8 M M M 078/03/00/2906/M/ 2006 30MM=
WCF SA 0800 AUTO8 M M M M/16/12/2910/M/ 5000 48MM=
WCH SA 0800 AUTO8 M M M 160/12/12/0000/M/ 7009 47MM=

####018000238####
SACN63 CWAO 080800 RRB
NVQ SA 0800 AUTO8 M M M 145/14/12/1103/M/0013 PCPN 1.3MM PAST HR
0003 77MM=
ZEV SA 0800 AUTO8 M M M 176/07/04/3211/M/ PK WND 3320 0701Z 1013
69MM=
ZHY SA 0800 AUTO8 M M M 140/16/12/3106/M/ 1001 35MM=

####018000407####
SACN92 CWAO 080800 RRB
WJI SA 0800 AUTO8 M M M 204/12/11/2504/M/ 3004 70MM=
WKF SA 0800 AUTO8 M M M M/19/M/MMMM/M/ M 0MMM=
WKG SA 0800 AUTO8 M M M 208/17/17/2401/M/ 5003 07MM=
WLE SA 0800 AUTO8 M M M 210/12/12/0000/M/ 1008 29MM=
WLF SA 0800 AUTO8 M M M 121/14/13/2304/M/ 7011 96MM=
WLJ SA 0800 AUTO8 M M M 184/09/08/2405/M/ 6001 23MM=
WMM SA 0800 AUTO8 M M M 146/16/13/1801/M/ 1015 34MM=

####018000083####
SACN86 CWAO 080800 RRA
WPO SA 0800 AUTO8 M M M 179/14/12/2805/M/ 8004 77MM=

####018000077####
SACN59 CWAO 080700 RRK
PBH SA 0700 AUTO8 M M M M/11/M/MMMM/M/ M 8MMM=

####018000083####
SACN88 CWAO 080700 RRG
ZCR SA 0700 AUTO8 M M M 150/17/16/2603/M/ 5008 92MM=

####018000104####
SPUS81 KWBC 080817
SPECI
KANJ 080814Z AUTO 16004KT 3SM -RA BR BKN014 BKN022 OVC043 21/19
A2996=
####018000075####
SPCN44 CWAO 080816
SPECI CYUS 080816Z AUTO ///// 9SM CLR 10/ A2980=

####018000184####
SANA14 KAWN 080800 RRE
METAR KVPS 080755Z COR 33001KT 10SM SKC 24/24 A3002 RMK AO2A SLP166
      T02430238 COR 0811=
METAR SKRG 080800Z 00000KT 9999 BKN006 BKN080 14/14 A3027=
####018000365####
SAUS20 KNKA 080817
SPECI KDAL 080815Z 16007KT 10SM SCT017 BKN230 26/23 A2999 RMK AO2=
SPECI KOKC 080815Z 33004KT 10SM FEW020 BKN024 OVC039 24/22 A3004 RMK 
    AO2=
METAR PAAK 080816Z AUTO 08019G26KT 10SM BKN013 BKN027 OVC085 07/04 
    A2963 RMK AO1 PNO=
METAR PAHP 080816Z AUTO 02007KT 10SM FEW032 SCT060 BKN085 12/09 
    A3007 RMK AO1 PNO TSNO=
####018000317####
SAEU KAWN 080800 RRW
METAR EGWU 080809Z 29005KT 6000 -RADZ FEW005 SCT010 OVC014 16/15 Q1019
      RERA REDZ GRN BECMG 9999 NSW BKN015 WHT=
METAR LFLB 080809Z VRB02KT CAVOK 24/16 Q1021 NOSIG=
METAR LOIH 080800Z 00000KT 35KM SKC 23/14 Q1021 RMK SKC=
METAR LOWZ 080800Z 00000KT 40KM SKC 16/07 Q1024 RMK SKC=
####018000077####
SAEW KAWN 080800 RRH
METAR LFLB 080809Z VRB02KT CAVOK 24/16 Q1021 NOSIG=
####018000075####
SACN50 CWAO 080815
VOV SA 0815 AUTO8 M M M M/12/06/0401/M/M M 23MM=

####018000075####
SACN50 CWAO 080815
VOK SA 0815 AUTO8 M M M M/15/06/0801/M/M M 01MM=

####018000075####
SACN50 CWAO 080815
WHC SA 0815 AUTO8 M M M M/20/13/MMMM/M/M M 81MM=

####018000075####
SACN94 CWAO 080815
WSK SA 0815 AUTO8 M M M M/16/12/0301/M/M M 47MM=

####018000075####
SACN50 CWAO 080815
VWB SA 0815 AUTO8 M M M M/17/04/MMMM/M/M M 81MM=

####018000075####
SACN95 CWAO 080815
WWA SA 0815 AUTO8 M M M M/21/09/0201/M/M M 99MM=

####018000074####
SACN50 CWAO 080815
WPN SA 0815 AUTO8 M M M M/14/M/0000/M/M M 4MMM=

####018000224####
SPUS90 KWBC 080818
SPECI KANJ 080814Z AUTO 16004KT 3SM -RA BR BKN014 BKN022 OVC043
     21/19 A2996 RMK AO2 P0007=
SPECI KCOU 080815Z AUTO 00000KT 10SM -RA SCT002 SCT019 BKN070
     23/22 A3004 RMK AO2 P0001 TSNO=
####018001011####
SAUS90 KWBC 080818
METAR KPQN 080813Z AUTO 31004KT 10SM CLR 17/15 A3016 RMK AO2=
METAR KFGN 080814Z AUTO 26009KT 3/4SM DZ VV005 18/13 A2996 RMK
     AO2=
METAR KPNM 080813Z AUTO 28003KT 1 1/4SM BR CLR 14/14 A3008 RMK AO2
     VIS 1V5=
METAR KPWC 080813Z AUTO 00000KT 1/2SM FG BKN001 11/10 A3008 RMK
     AO2=
METAR KFFM 080813Z AUTO 19004KT 10SM CLR 15/14 A3007 RMK AO2=
METAR KGDB 080813Z AUTO 25004KT 10SM CLR 15/14 A3013 RMK AO2
     T01450141=
METAR KAIT 080813Z AUTO 00000KT 4SM BR CLR 12/11 A3006 RMK AO2=
METAR KGHW 080813Z AUTO 23005KT 10SM CLR 14/13 A3013 RMK AO2=
METAR KMWM 080813Z AUTO 27005KT 10SM CLR 14/14 A3013 RMK AO2=
METAR KULM 080815Z AUTO 28004KT 10SM CLR 14/13 A3011 RMK AO2=
METAR KBBB 080813Z AUTO 00000KT 10SM CLR 14/14 A3011 RMK AO2=
METAR KTWM 080813Z AUTO 00000KT 10SM BKN060 17/14 A3001 RMK
     AO2=
METAR KMGG 080815Z AUTO 28004KT 10SM CLR 16/15 A3009 RMK AO2
     T01570154=
METAR KMOX 080810Z AUTO 24004KT 10SM CLR 16/14 A3007 RMK AO2=
####018000082####
SAUS90 KWBC 080800 RRF
METAR KMWS 080800Z 10506G07KT 20/M02 RMK SNOW DEPTH M=
####018000075####
SACN50 CWAO 080815
VOB SA 0815 AUTO8 M M M M/17/07/2001/M/M M 07MM=

####018000075####
SACN50 CWAO 080815
VOF SA 0815 AUTO8 M M M M/14/06/3503/M/M M 04MM=

####018000075####
SACN50 CWAO 080815
VOU SA 0815 AUTO8 M M M M/24/07/3410/M/M M 45MM=

####018002882####
SAAK41 KNKA 080817
METAR PAAK 080816Z AUTO 08019G26KT 10SM BKN013 BKN027 OVC085 07/04 
    A2963 RMK AO1 PNO=
METAR PABL 080816Z AUTO 33006KT 10SM CLR 11/07 A3016 RMK AO1 PNO=
METAR PABV 080816Z AUTO 00000KT 10SM SCT085 BKN120 13/09 RMK AO1 PNO=
METAR PADK 080816Z 07013KT 10SM BKN018 OVC024 07/06 A2959 RMK AO1 
    PNO=
METAR PADL 080816Z 31007KT 10SM BKN120 11/08 A2998 RMK AO1 PNO TSNO=
METAR PAEM 080816Z AUTO 36004KT 10SM FEW100 12/08 A3005 RMK AO1 PNO=
METAR PAFE 080816Z AUTO 00000KT 10SM CLR 12/09 A3018 RMK AO1 PNO=
METAR PAFM 080816Z AUTO 00000KT 10SM CLR 17/10 A3010 RMK AO1 PNO=
METAR PAGL 080816Z AUTO 10SM SCT075 RMK AO1 PNO=
METAR PAGS 080816Z AUTO 00000KT 10SM CLR 12/11 A3020 RMK AO1 PNO=
METAR PAHP 080816Z AUTO 02007KT 10SM FEW032 SCT060 BKN085 12/09 
    A3007 RMK AO1 PNO TSNO=
METAR PAHY 080816Z AUTO 35003KT 10SM CLR 17/10 A3011 RMK AO1 PNO=
METAR PAII 080816Z AUTO 36004KT 10SM OVC055 11/08 A2997 RMK AO1 PNO=
METAR PAIN 080816Z AUTO 25003KT 10SM CLR 12/07 A3008 RMK AO1 PNO=
METAR PAJC 080816Z AUTO 00000KT 10SM OVC017 09/05 A2995 RMK AO1 PNO=
SPECI PAKF 080815Z AUTO 17004KT 10SM BKN024 08/07 A2994 RMK AO2=
METAR PAKK 080816Z AUTO 36012G16KT 10SM OVC085 16/09 A3005 RMK AO1 
    PNO=
METAR PAKP 080816Z AUTO 03005KT 10SM BKN035 OVC041 11/04 A3011 RMK 
    AO1=
METAR PAMD 080816Z AUTO 10023G27KT 9SM FEW006 BKN014 OVC020 09/08 
    A3002 RMK AO1 PNO=
METAR PAMH 080816Z 00000KT 10SM CLR 16/06 A3000 RMK AO1 PNO=
METAR PAMM 080816Z AUTO 03003KT 10SM CLR 20/11 A3009 RMK AO1 PNO=
METAR PAMY 080816Z 29006KT 1/4SM OVC001 06/04 A3006 RMK AO1=
METAR PANI 080816Z AUTO 00000KT 10SM FEW060 OVC100 13/09 A3001 RMK 
    AO1 PNO=
METAR PANV 080816Z AUTO 23005KT 10SM OVC075 15/08 A3000 RMK AO1 PNO=
METAR PAPG 080816Z 08004KT 10SM CLR 12/10 A3014 RMK AO1 
      PNO=
METAR PAPH 080816Z AUTO 02005KT 10SM CLR 05/02 A2997 RMK AO1 PNO=
METAR PARC 080816Z AUTO 00000KT 10SM CLR 11/02 A3003 RMK AO1 PNO=
METAR PASA 080816Z AUTO 07004KT 10SM CLR 06/04 A3020 RMK AO1 PNO=
METAR PASD 080816Z AUTO 00000KT 10SM OVC048 09/06 A2996 RMK AO1 PNO=
METAR PASH 080816Z AUTO 00000KT 10SM CLR 07/05 A3019 RMK AO1 PNO=
METAR PASK 080816Z 29007KT 10SM CLR 14/08 A3011 RMK AO1 PNO=
METAR PASM 080816Z AUTO 33003KT 10SM BKN075 OVC100 10/08 A3007 RMK 
    AO1 PNO=
METAR PAUN 080816Z AUTO 06004KT 10SM CLR 16/06 A3002 RMK AO1 PNO=
METAR PAVD 080816Z 00000KT 10SM OVC090 11/08 A3010 RMK AO1 
      PNO=
SPECI PAWD 080815Z AUTO 12004KT 3SM BR FEW003 BKN047 OVC055 10/09 
    A2998 RMK AO2 RAE00 P0000 TSNO=
METAR PAWG 080816Z AUTO 31004KT 10SM CLR 15/11 A3013 RMK AO1 PNO=
METAR PAWN 080816Z AUTO 32003KT 7SM CLR 13/04 A3015 RMK AO1 PNO=
METAR PAWS 080816Z AUTO 17005KT 10SM FEW090 SCT120 13/08 A3001 RMK 
    AO1 PNO=
METAR PAZK 080816Z AUTO 03006KT 10SM CLR 10/03 A3010 RMK AO1 PNO=
####018002070####
SAUS20 KNKA 080817
METAR K04W 080814Z AUTO 00000KT 10SM CLR 17/16 A3006 RMK AO2 
     T01740162=
METAR K1P1 080815Z AUTO 00000KT 1/4SM FG VV002 22/21 A3005 RMK AO2 
     T02190207=
METAR K21D 080818Z AUTO 30006KT 10SM CLR 18/17 A3006 RMK AO2=
SPECI KAUW 080816Z AUTO 33007KT 9SM BKN004 19/19 A2998 RMK AO2 $=
METAR KBJI 080814Z AUTO 24006KT 10SM CLR 16/14 A3004 RMK AO2=
METAR KBUU 080814Z AUTO 15004KT 7SM BKN075 OVC090 21/21 A3001 RMK 
     AO2=
METAR KBVU 080815Z AUTO 34004KT 10SM CLR 26/00 A2985 RMK AO2 =
METAR KC29 080815Z AUTO 00000KT 10SM BKN006 22/20 A3001 RMK AO2 
     P0001 T02150200=
METAR KD39 080814Z AUTO 00000KT 10SM CLR 16/15 A3010 RMK AO2 
     T01600150=
SPECI KDEN 080816Z 18005KT 4SM BR FEW004 SCT008 BKN021 14/14 A3032 
    RMK AO2 $=
METAR KE80 080815Z AUTO 29006KT 10SM CLR 19/10 A3023 RMK AO2 
     T01930102=
METAR KEDC 080815Z AUTO 08004KT OVC012 25/24 A2996 RMK AO2 =
METAR KEIK 080815Z AUTO 19005KT 10SM SCT095 13/12 A3029 RMK AO2=
SPECI KELZ 080816Z AUTO 00000KT 1 1/2SM BR CLR 19/18 A3016 RMK AO2=
METAR KEOE 080815Z AUTO 00000KT 10SM CLR 22/20 A3002 RMK AO2=
METAR KFMH 080815Z AUTO 16006KT 4SM BR OVC003 21/21 A3007 RMK AO2 
     =
SPECI KHYA 080816Z AUTO 00000KT 1 3/4SM BR OVC001 21/21 A3007 RMK 
    AO2=
METAR KIFP 080815Z AUTO 00000KT 10SM CLR 30/00 A2972 RMK AO2 =
METAR KIWA 080816Z AUTO 04004KT 10SM CLR 31/05 A2979 RMK AO2=
SPECI KLAA 080816Z AUTO 09003KT 10SM BKN020 OVC031 18/17 A3026 RMK 
    AO2 LTG DSNT NE AND E=
METAR KMAN 080815Z AUTO 12003KT 10SM CLR 13/08 A3003 RMK AO1 =
METAR KPVF 080815Z AUTO 00000KT 10SM CLR 22/12 A2994 RMK AO1 =
METAR KRBW 080815Z AUTO 26006KT 10SM CLR 24/20 A2997 RMK AO2=
METAR KRCM 080815Z AUTO 00000KT 7SM OVC060 22/22 A3005 RMK AO2=
METAR KSNC 080815Z AUTO 12003KT 1/4SM  FG OVC001 22/ A3006 RMK AO2 
     =
METAR KTME 080815Z AUTO 04006KT 5SM 25/25 A2993 RMK AO1 =
METAR KUOX 080815Z AUTO 00000KT 10SM CLR 23/21 A3008 RMK AO2 =
METAR KY51 080815Z AUTO 27004KT 10SM SCT012 21/20 A3003 RMK AO1 
     T02070202=
####018000075####
SACN50 CWAO 080815
VOY SA 0815 AUTO8 M M M M/13/07/3301/M/M M 68MM=

####018000075####
SACN50 CWAO 080815
VOD SA 0815 AUTO8 M M M M/12/04/0902/M/M M 92MM=

####018000075####
SACN50 CWAO 080815
VOH SA 0815 AUTO8 M M M M/16/02/0602/M/M M 63MM=

####018003706####
SAUS99 KWBC 080818
METAR
PAAK 080816Z AUTO 08019G26KT 10SM BKN013 BKN027 OVC085 07/04 A2963
     RMK AO1 PNO=
PAHP 080816Z AUTO 02007KT 10SM FEW032 SCT060 BKN085 12/09 A3007
     RMK AO1 PNO TSNO=
PAAK 080816Z AUTO 08019G26KT 10SM BKN013 BKN027 OVC085 07/04 A2963
     RMK AO1 PNO=
PABL 080816Z AUTO 33006KT 10SM CLR 11/07 A3016 RMK AO1 PNO=
PABV 080816Z AUTO 00000KT 10SM SCT085 BKN120 13/09 RMK AO1 PNO=
PADK 080816Z 07013KT 10SM BKN018 OVC024 07/06 A2959 RMK AO1
     PNO=
PADL 080816Z 31007KT 10SM BKN120 11/08 A2998 RMK AO1 PNO TSNO=
PAEM 080816Z AUTO 36004KT 10SM FEW100 12/08 A3005 RMK AO1 PNO=
PAFE 080816Z AUTO 00000KT 10SM CLR 12/09 A3018 RMK AO1 PNO=
PAFM 080816Z AUTO 00000KT 10SM CLR 17/10 A3010 RMK AO1 PNO=
PAGL 080816Z AUTO 10SM SCT075 RMK AO1 PNO=
PAGS 080816Z AUTO 00000KT 10SM CLR 12/11 A3020 RMK AO1 PNO=
PAHP 080816Z AUTO 02007KT 10SM FEW032 SCT060 BKN085 12/09 A3007
     RMK AO1 PNO TSNO=
PAHY 080816Z AUTO 35003KT 10SM CLR 17/10 A3011 RMK AO1 PNO=
PAII 080816Z AUTO 36004KT 10SM OVC055 11/08 A2997 RMK AO1 PNO=
PAIN 080816Z AUTO 25003KT 10SM CLR 12/07 A3008 RMK AO1 PNO=
PAJC 080816Z AUTO 00000KT 10SM OVC017 09/05 A2995 RMK AO1 PNO=
PAKK 080816Z AUTO 36012G16KT 10SM OVC085 16/09 A3005 RMK AO1
     PNO=
PAKP 080816Z AUTO 03005KT 10SM BKN035 OVC041 11/04 A3011 RMK
     AO1=
PAMD 080816Z AUTO 10023G27KT 9SM FEW006 BKN014 OVC020 09/08 A3002
     RMK AO1 PNO=
PAMH 080816Z 00000KT 10SM CLR 16/06 A3000 RMK AO1 PNO=
PAMM 080816Z AUTO 03003KT 10SM CLR 20/11 A3009 RMK AO1 PNO=
PAMY 080816Z 29006KT 1/4SM OVC001 06/04 A3006 RMK AO1=
PANI 080816Z AUTO 00000KT 10SM FEW060 OVC100 13/09 A3001 RMK AO1
     PNO=
PANV 080816Z AUTO 23005KT 10SM OVC075 15/08 A3000 RMK AO1 PNO=
PAPG 080816Z 08004KT 10SM CLR 12/10 A3014 RMK AO1 PNO=
PAPH 080816Z AUTO 02005KT 10SM CLR 05/02 A2997 RMK AO1 PNO=
PARC 080816Z AUTO 00000KT 10SM CLR 11/02 A3003 RMK AO1 PNO=
PASA 080816Z AUTO 07004KT 10SM CLR 06/04 A3020 RMK AO1 PNO=
PASD 080816Z AUTO 00000KT 10SM OVC048 09/06 A2996 RMK AO1 PNO=
PASH 080816Z AUTO 00000KT 10SM CLR 07/05 A3019 RMK AO1 PNO=
PASK 080816Z 29007KT 10SM CLR 14/08 A3011 RMK AO1 PNO=
PASM 080816Z AUTO 33003KT 10SM BKN075 OVC100 10/08 A3007 RMK AO1
     PNO=
PAUN 080816Z AUTO 06004KT 10SM CLR 16/06 A3002 RMK AO1 PNO=
PAVD 080816Z 00000KT 10SM OVC090 11/08 A3010 RMK AO1 PNO=
PAWG 080816Z AUTO 31004KT 10SM CLR 15/11 A3013 RMK AO1 PNO=
PAWN 080816Z AUTO 32003KT 7SM CLR 13/04 A3015 RMK AO1 PNO=
PAWS 080816Z AUTO 17005KT 10SM FEW090 SCT120 13/08 A3001 RMK AO1
     PNO=
PAZK 080816Z AUTO 03006KT 10SM CLR 10/03 A3010 RMK AO1 PNO=
K04W 080814Z AUTO 00000KT 10SM CLR 17/16 A3006 RMK AO2
     T01740162=
K1P1 080815Z AUTO 00000KT 1/4SM FG VV002 22/21 A3005 RMK AO2
     T02190207=
K21D 080818Z AUTO 30006KT 10SM CLR 18/17 A3006 RMK AO2=
KBJI 080814Z AUTO 24006KT 10SM CLR 16/14 A3004 RMK AO2=
KBUU 080814Z AUTO 15004KT 7SM BKN075 OVC090 21/21 A3001 RMK
     AO2=
KBVU 080815Z AUTO 34004KT 10SM CLR 26/00 A2985 RMK AO2=
KC29 080815Z AUTO 00000KT 10SM BKN006 22/20 A3001 RMK AO2 P0001
     T02150200=
KD39 080814Z AUTO 00000KT 10SM CLR 16/15 A3010 RMK AO2
     T01600150=
KE80 080815Z AUTO 29006KT 10SM CLR 19/10 A3023 RMK AO2
     T01930102=
KEDC 080815Z AUTO 08004KT OVC012 25/24 A2996 RMK AO2=
KEIK 080815Z AUTO 19005KT 10SM SCT095 13/12 A3029 RMK AO2=
KEOE 080815Z AUTO 00000KT 10SM CLR 22/20 A3002 RMK AO2=
KFMH 080815Z AUTO 16006KT 4SM BR OVC003 21/21 A3007 RMK AO2=
KIFP 080815Z AUTO 00000KT 10SM CLR 30/00 A2972 RMK AO2=
KIWA 080816Z AUTO 04004KT 10SM CLR 31/05 A2979 RMK AO2=
KMAN 080815Z AUTO 12003KT 10SM CLR 13/08 A3003 RMK AO1=
####018000461####
SAUS99 KWBC 080818 RRA
METAR
KPVF 080815Z AUTO 00000KT 10SM CLR 22/12 A2994 RMK AO1=
KRBW 080815Z AUTO 26006KT 10SM CLR 24/20 A2997 RMK AO2=
KRCM 080815Z AUTO 00000KT 7SM OVC060 22/22 A3005 RMK AO2=
KSNC 080815Z AUTO 12003KT 1/4SM FG OVC001 22/ A3006 RMK AO2=
KTME 080815Z AUTO 04006KT 5SM 25/25 A2993 RMK AO1=
KUOX 080815Z AUTO 00000KT 10SM CLR 23/21 A3008 RMK AO2=
KY51 080815Z AUTO 27004KT 10SM SCT012 21/20 A3003 RMK AO1
     T02070202=
####018000095####
SACN86 KWBC 080818
METAR CWPO 080800Z AUTO 28005KT 14/12 RMK AO1 SLP179 T01370117
58004=
####018000086####
SACN89 KWBC 080818
METAR CWCF 080800Z AUTO 29010KT 16/12 RMK AO1 T01640118 55000=
####018000080####
SACN94 KWBC 080818
METAR CWSK 080815Z AUTO 03001KT 16/12 RMK AO1 T01640117=
####018000705####
SPUS99 KWBC 080818
SPECI
KDAL 080815Z 16007KT 10SM SCT017 BKN230 26/23 A2999 RMK AO2=
KOKC 080815Z 33004KT 10SM FEW020 BKN024 OVC039 24/22 A3004 RMK
     AO2=
PAKF 080815Z AUTO 17004KT 10SM BKN024 08/07 A2994 RMK AO2=
PAWD 080815Z AUTO 12004KT 3SM BR FEW003 BKN047 OVC055 10/09 A2998
     RMK AO2 RAE00 P0000 TSNO=
KAUW 080816Z AUTO 33007KT 9SM BKN004 19/19 A2998 RMK AO2 $=
KDEN 080816Z 18005KT 4SM BR FEW004 SCT008 BKN021 14/14 A3032 RMK
     AO2 $=
KELZ 080816Z AUTO 00000KT 1 1/2SM BR CLR 19/18 A3016 RMK AO2=
KHYA 080816Z AUTO 00000KT 1 3/4SM BR OVC001 21/21 A3007 RMK
     AO2=
KLAA 080816Z AUTO 09003KT 10SM BKN020 OVC031 18/17 A3026 RMK AO2
     LTG DSNT NE AND E=
####018000095####
SACN78 KWBC 080818
METAR CTNK 080800Z AUTO 00000KT 18/17 RMK AO1 SLP172 T01760165
56006=
####018000687####
SACN88 KWBC 080818
METAR CWAR 080800Z AUTO 22005KT 10/10 RMK AO1 SLP238 T01010098
53008=
METAR CXNP 080800Z AUTO 19009KT 18/17 RMK AO1 SLP187 T01830169
51004=
METAR CZCR 080800Z AUTO 22003KT 18/17 RMK AO1 SLP150 T01750168
56002=
METAR CZDB 080800Z AUTO 00000KT 16/16 RMK AO1 SLP196 T01640159
53002=
METAR CZCR 080700Z AUTO 26003KT 17/16 RMK AO1 SLP150 T01690162
55008=
METAR CWAR 080800Z AUTO 22005KT 10/10 RMK AO1 SLP238 T01010098
53008=
METAR CXNP 080800Z AUTO 19009KT 18/17 RMK AO1 SLP187 T01830169
51004=
METAR CZCR 080800Z AUTO 22003KT 18/17 RMK AO1 SLP150 T01750168
56002=
METAR CZDB 080800Z AUTO 00000KT 16/16 RMK AO1 SLP196 T01640159
53002=
####018000376####
SACN95 KWBC 080818
METAR CWVV 080800Z AUTO 00000KT 21/07 RMK AO1 SLP148 T02070074
53006=
METAR CWWF 080800Z AUTO 27003KT 13/11 RMK AO1 SLP192 T01290110
55003=
METAR CWVV 080800Z AUTO 00000KT 21/07 RMK AO1 SLP148 T02070074
53006=
METAR CWWF 080800Z AUTO 27003KT 13/11 RMK AO1 SLP192 T01290110
55003=
METAR CWWA 080815Z AUTO 02001KT 21/09 RMK AO1 T02090089=
####018002739####
SACN97 KWBC 080818
METAR CXCA 080800Z AUTO 22001KT 17/16 RMK AO1 9PAST HR 8007 SLP151
P0004 T01670163 50009=
METAR CXDI 080800Z AUTO 20001KT 21/19 RMK AO1 SLP153 T02090189
57005=
METAR CXEC 080800Z AUTO 16/13 RMK AO1 T01570131=
METAR CXEG 080800Z AUTO 12/12 RMK AO1 T01230123=
METAR CXGH 080800Z AUTO 29004KT 15/15 RMK AO1 T01460146=
METAR CXMD 080800Z AUTO 27008KT 17/13 RMK AO1 SLP146 T01700125
58003=
METAR CXMM 080800Z AUTO 14/11 RMK AO1 T01370106=
METAR CXWN 080800Z AUTO 26003KT 18/13 RMK AO1 SLP146 T01800129
52001=
METAR CXDI 080800Z AUTO 20001KT 21/19 RMK AO1 SLP153 T02090189
57005=
METAR CXEC 080800Z AUTO 16/13 RMK AO1 T01570131=
METAR CXEG 080800Z AUTO 12/12 RMK AO1 T01230123=
METAR CXGH 080800Z AUTO 29004KT 15/15 RMK AO1 T01460146=
METAR CXMD 080800Z AUTO 27008KT 17/13 RMK AO1 SLP146 T01700125
58003=
METAR CXMM 080800Z AUTO 14/11 RMK AO1 T01370106=
METAR CXWN 080800Z AUTO 26003KT 18/13 RMK AO1 SLP146 T01800129
52001=
METAR CXMD 080800Z AUTO 27008KT 17/13 RMK AO1 SLP146 T01700125
58003=
METAR CXMM 080800Z AUTO 14/11 RMK AO1 T01370106=
METAR CXWN 080800Z AUTO 26003KT 18/13 RMK AO1 SLP146 T01800129
52001=
METAR CXMD 080800Z AUTO 27008KT 17/13 RMK AO1 SLP146 T01700125
58003=
METAR CXMM 080800Z AUTO 14/11 RMK AO1 T01370106=
METAR CXWN 080800Z AUTO 26003KT 18/13 RMK AO1 SLP146 T01800129
52001=
METAR CXMD 080800Z AUTO 27008KT 17/13 RMK AO1 SLP146 T01700125
58003=
METAR CXMM 080800Z AUTO 14/11 RMK AO1 T01370106=
METAR CXWN 080800Z AUTO 26003KT 18/13 RMK AO1 SLP146 T01800129
52001=
METAR CXMD 080800Z AUTO 27008KT 17/13 RMK AO1 SLP146 T01700125
58003=
METAR CXMM 080800Z AUTO 14/11 RMK AO1 T01370106=
METAR CXWN 080800Z AUTO 26003KT 18/13 RMK AO1 SLP146 T01800129
52001=
METAR CXMD 080800Z AUTO 27008KT 17/13 RMK AO1 SLP146 T01700125
58003=
METAR CXMM 080800Z AUTO 14/11 RMK AO1 T01370106=
METAR CXWN 080800Z AUTO 26003KT 18/13 RMK AO1 SLP146 T01800129
52001=
METAR CXMD 080800Z AUTO 27008KT 17/13 RMK AO1 SLP146 T01700125
58003=
METAR CXMM 080800Z AUTO 14/11 RMK AO1 T01370106=
METAR CXWN 080800Z AUTO 26003KT 18/13 RMK AO1 SLP146 T01800129
52001=
METAR CXWN 080800Z AUTO 26003KT 18/13 RMK AO1 SLP146 T01800129
52001=
METAR CXWN 080800Z AUTO 26003KT 18/13 RMK AO1 SLP146 T01800129
52001=
METAR CXWN 080800Z AUTO 26003KT 18/13 RMK AO1 SLP146 T01800129
52001=
METAR CXWN 080800Z AUTO 26003KT 18/13 RMK AO1 SLP146 T01800129
52001=
METAR CXWN 080800Z AUTO 26003KT 18/13 RMK AO1 SLP146 T01800129
52001=
METAR CXWN 080800Z AUTO 26003KT 18/13 RMK AO1 SLP146 T01800129
52001=
METAR CXKT 080800Z AUTO 11002KT 16/16 RMK AO1 T01610160=
METAR CXKT 080800Z AUTO 11002KT 16/16 RMK AO1 T01610160=
####018000308####
SACN85 KWBC 080818
METAR CWER 080800Z AUTO 04018KT RMK AO1 PK WND 04023/0735=
METAR CWRA 080800Z AUTO 9SM M01/M01 RMK AO1 23708/08/0705/3009
T10091009=
METAR CWSS 080800Z AUTO 21002KT 19/18 RMK AO1 SLP184 T01900179
55001=
METAR CWSS 080800Z AUTO 21002KT 19/18 RMK AO1 SLP184 T01900179
55001=
####018000372####
SACN91 KWBC 080818
METAR CWHQ 080800Z AUTO 11003KT 21/20 RMK AO1 T02130202=
METAR CWHT 080800Z AUTO 08002KT 11/05 RMK AO1 SLP215 T01100045
51009=
METAR CWID 080800Z AUTO 30003KT 16/13 RMK AO1 003 SLP148 T01570125=
METAR CWIS 080800Z AUTO 13002KT 18/17 RMK AO1 SLP169 T01770171
56001=
METAR CWIY 080800Z AUTO 16001KT 21/21 RMK AO1 SLP154 T02130205
56001=
####018000835####
SACN92 KWBC 080818
METAR CWJI 080800Z AUTO 25004KT 12/11 RMK AO1 SLP204 T01170110
53004=
METAR CWKG 080800Z AUTO 24001KT 17/17 RMK AO1 SLP208 T01700167
55003=
METAR CWLE 080800Z AUTO 00000KT 12/12 RMK AO1 SLP210 T01220119
51008=
METAR CWMM 080800Z AUTO 18001KT 16/13 RMK AO1 SLP146 T01630134
51015=
METAR CWKG 080800Z AUTO 24001KT 17/17 RMK AO1 SLP208 T01700167
55003=
METAR CWLE 080800Z AUTO 00000KT 12/12 RMK AO1 SLP210 T01220119
51008=
METAR CWMM 080800Z AUTO 18001KT 16/13 RMK AO1 SLP146 T01630134
51015=
METAR CWMM 080800Z AUTO 18001KT 16/13 RMK AO1 SLP146 T01630134
51015=
METAR CWMM 080800Z AUTO 18001KT 16/13 RMK AO1 SLP146 T01630134
51015=
METAR CWMM 080800Z AUTO 18001KT 16/13 RMK AO1 SLP146 T01630134
51015=
METAR CWMM 080800Z AUTO 18001KT 16/13 RMK AO1 SLP146 T01630134
51015=
####018000228####
SACN93 KWBC 080818
METAR CWNK 080800Z AUTO 28005KT 15/13 RMK AO1 T01530131=
METAR CWPD 080800Z AUTO 00000KT 18/18 RMK AO1 SLP129 T01830183
58003=
METAR CWPF 080800Z AUTO 04003KT 17/13 RMK AO1 SLP137 T01650129
52007=
####018000095####
SACN87 KWBC 080818
METAR CWEQ 080800Z AUTO 22005KT 09/08 RMK AO1 SLP168 T00920081
51002=
####018000243####
SACN90 KWBC 080818
METAR CWEW 080800Z AUTO 28001KT 22/22 RMK AO1 SLP154 T02240216
50000=
METAR CWGL 080800Z AUTO 00000KT 23/23 RMK AO1 SLP172 T02310231
56005=
METAR CWGL 080800Z AUTO 00000KT 23/23 RMK AO1 SLP172 T02310231
56005=
####018000093####
SAAF13 LFPW 080800 RRB
METAR GFLL 080800Z 12008KT 9999 SCT012 FEW028CB 24/22 Q1012 CB-NE=
####018000154####
SACN96 KWBC 080818
METAR CWYL 080800Z AUTO 08003KT 06/03 RMK AO1 T00610030=
METAR CXKA 080800Z AUTO 21002KT 19/17 RMK AO1 SLP115 T01930165
58014=
####018000084####
SAUS80 KWBC 080800 RRF
METAR
KMWS 080800Z 10506G07KT 20/M02 RMK SNOW DEPTH M=
####018000546####
SPXX60 KWBC 080818
SPECI
KDOV 080813Z AUTO 00000KT 2 1/2SM BR FEW110 24/24 A2998 RMK AO2
     SLP155=
KVOK 080813Z 31003KT 10SM OVC012 22/22 A3000 RMK AO2A CIG 008V015
     SLP152=
KWRI 080814Z AUTO 00000KT 2 1/2SM R18/4500V5500FT R24/2400V2600FT
     BR OVC003 24/24 A2999 RMK AO2 SLP157 $=
PACZ SP 0815 AWOS MM 7 51/47/0605/008=
PAIM SP 0815 AWOS CLR BLO 120 10 58/45/3203/008=
PALU SP 0815 AWOS CLR BLO 120 10 55/34/2122/010=
PASV SP 0815 AWOS M100 BKN 10 49/48/0000/996=
PATL SP 0815 AWOS 110 SCT 10 61/42/0304/000=
####018002660####
SAUS70 KWBC 080818 RRA
METAR
PAMH 080816Z 00000KT 10SM CLR 16/06 A3000 RMK AO1 PNO=
PAMM 080816Z AUTO 03003KT 10SM CLR 20/11 A3009 RMK AO1 PNO=
PAMY 080816Z 29006KT 1/4SM OVC001 06/04 A3006 RMK AO1=
PANI 080816Z AUTO 00000KT 10SM FEW060 OVC100 13/09 A3001 RMK AO1
     PNO=
PANV 080816Z AUTO 23005KT 10SM OVC075 15/08 A3000 RMK AO1 PNO=
PAPG 080816Z 08004KT 10SM CLR 12/10 A3014 RMK AO1 PNO=
PAPH 080816Z AUTO 02005KT 10SM CLR 05/02 A2997 RMK AO1 PNO=
PARC 080816Z AUTO 00000KT 10SM CLR 11/02 A3003 RMK AO1 PNO=
PASA 080816Z AUTO 07004KT 10SM CLR 06/04 A3020 RMK AO1 PNO=
PASD 080816Z AUTO 00000KT 10SM OVC048 09/06 A2996 RMK AO1 PNO=
PASH 080816Z AUTO 00000KT 10SM CLR 07/05 A3019 RMK AO1 PNO=
PASK 080816Z 29007KT 10SM CLR 14/08 A3011 RMK AO1 PNO=
PASM 080816Z AUTO 33003KT 10SM BKN075 OVC100 10/08 A3007 RMK AO1
     PNO=
PAUN 080816Z AUTO 06004KT 10SM CLR 16/06 A3002 RMK AO1 PNO=
PAVD 080816Z 00000KT 10SM OVC090 11/08 A3010 RMK AO1 PNO=
PAWG 080816Z AUTO 31004KT 10SM CLR 15/11 A3013 RMK AO1 PNO=
PAWN 080816Z AUTO 32003KT 7SM CLR 13/04 A3015 RMK AO1 PNO=
PAWS 080816Z AUTO 17005KT 10SM FEW090 SCT120 13/08 A3001 RMK AO1
     PNO=
PAZK 080816Z AUTO 03006KT 10SM CLR 10/03 A3010 RMK AO1 PNO=
K04W 080814Z AUTO 00000KT 10SM CLR 17/16 A3006 RMK AO2
     T01740162=
K1P1 080815Z AUTO 00000KT 1/4SM FG VV002 22/21 A3005 RMK AO2
     T02190207=
K21D 080818Z AUTO 30006KT 10SM CLR 18/17 A3006 RMK AO2=
KBJI 080814Z AUTO 24006KT 10SM CLR 16/14 A3004 RMK AO2=
KBUU 080814Z AUTO 15004KT 7SM BKN075 OVC090 21/21 A3001 RMK
     AO2=
KBVU 080815Z AUTO 34004KT 10SM CLR 26/00 A2985 RMK AO2=
KC29 080815Z AUTO 00000KT 10SM BKN006 22/20 A3001 RMK AO2 P0001
     T02150200=
KD39 080814Z AUTO 00000KT 10SM CLR 16/15 A3010 RMK AO2
     T01600150=
KE80 080815Z AUTO 29006KT 10SM CLR 19/10 A3023 RMK AO2
     T01930102=
KEDC 080815Z AUTO 08004KT OVC012 25/24 A2996 RMK AO2=
KEIK 080815Z AUTO 19005KT 10SM SCT095 13/12 A3029 RMK AO2=
KEOE 080815Z AUTO 00000KT 10SM CLR 22/20 A3002 RMK AO2=
KFMH 080815Z AUTO 16006KT 4SM BR OVC003 21/21 A3007 RMK AO2=
KIFP 080815Z AUTO 00000KT 10SM CLR 30/00 A2972 RMK AO2=
KIWA 080816Z AUTO 04004KT 10SM CLR 31/05 A2979 RMK AO2=
KMAN 080815Z AUTO 12003KT 10SM CLR 13/08 A3003 RMK AO1=
KPVF 080815Z AUTO 00000KT 10SM CLR 22/12 A2994 RMK AO1=
KRBW 080815Z AUTO 26006KT 10SM CLR 24/20 A2997 RMK AO2=
KRCM 080815Z AUTO 00000KT 7SM OVC060 22/22 A3005 RMK AO2=
KTME 080815Z AUTO 04006KT 5SM 25/25 A2993 RMK AO1=
KUOX 080815Z AUTO 00000KT 10SM CLR 23/21 A3008 RMK AO2=
KY51 080815Z AUTO 27004KT 10SM SCT012 21/20 A3003 RMK AO1
     T02070202=
####018000099####
SPUS70 KWBC 080818 CCA
SPECI
KNSE 080811Z AUTO 00000KT 1 3/4SM BR CLR 23/22 A3002 RMK AO2 $=
####018003732####
SAUS70 KWBC 080818
METAR
KGTU 080815Z 09004KT 10SM SCT012 BKN023 OVC029 25/22 A3000 RMK
     AO1=
KHYI 080815Z AUTO 06005KT 10SM SCT012 BKN017 OVC022 A2994 RMK
     AO1=
KILE 080815Z 11006KT 10SM SCT014 BKN022 OVC026 25/22 A2998 RMK
     AO1=
KOCH 080815Z AUTO 09005KT 10SM CLR 24/19 A3000 RMK AO1=
KPRX 080815Z 13005KT 10SM FEW015 24/22 A3001 RMK AO1=
KPWG 080815Z AUTO 12003KT 10SM SCT013 SCT120 25/22 A2999 RMK
     AO1=
KTPL 080815Z 11005KT 10SM BKN014 BKN023 OVC033 24/23 A2998 RMK
     AO1=
K0A9 080815Z AUTO 00000KT 7SM FEW080 19/18 A3011 RMK=
K20V 080816Z AUTO 00000KT 10SM SCT024 08/05 A3042 RMK AO2=
K2G4 080810Z AUTO 00000KT 10SM SCT070 22/13 A3019 RMK AO1=
K2W6 080813Z AUTO 00000KT 5SM CLR 24/23 A2999 RMK AO1=
K5SM 080813Z AUTO 11007KT 070V130 10SM -DZ SCT060 BKN070 OVC075
     08/05 A3056 RMK AO2=
K7BM 080816Z AUTO 25003KT 10SM OVC026 10/06 A3056 RMK AO2=
KBBG 080815Z AUTO 00000KT 4SM BR CLR 23/22 A3006 RMK AO2=
KBBP 080815Z AUTO 33003KT 10SM SCT090 23/20 A2995 RMK AO2=
KBDU 080817Z AUTO 21007G14KT 10SM CLR 16/12 A3029 RMK AO2=
KBJC 080817Z AUTO 20004KT 5SM BR CLR 13/12 A3033 RMK AO2=
KBKN 080815Z AUTO 04004KT 10SM FEW045 SCT060 22/22 A3003 RMK
     AO2=
KCCU 080816Z AUTO 19018KT 10SM CLR 07/02 A3064 RMK AO2=
KCGS 080815Z AUTO 00000KT 7SM CLR 26/23 A2998 RMK AO1=
KCIC 080815Z AUTO 00000KT 10SM CLR 25/16 A2980 RMK AO1=
KCMR 080815Z AUTO 16004KT 10SM FEW100 17/01 A3024 RMK AO1=
KDLL 080814Z AUTO 25004KT 7SM OVC004 21/19 A3000 RMK AO2=
KFDK 080812Z AUTO 00000KT 5SM HZ SCT090 24/22 A3003 RMK AO2=
KGGE 080815Z AUTO 26008KT 10SM CLR 24/22 A2994 RMK AO2=
KHVS 080815Z AUTO 00000KT 10SM CLR 26/18 A2997 RMK AO2=
KMAO 080815Z AUTO 28003KT 10SM SCT095 26/19 A2993 RMK AO2=
KMTN 080815Z AUTO 00000KT 7SM CLR 26/24 A3000 RMK AO2=
KMYP 080716Z AUTO 05010KT M1/4SM +SN OVC001 03/03 A3075 RMK
     AO2=
KNQA 080815Z AUTO 00000KT 10SM CLR 25/23 A3006 RMK=
KRCE 080815Z AUTO 35003KT 9SM CLR 22/22 A3006 RMK AO2=
KRKR 080815Z AUTO 00000KT 10SM OVC029 26/24 A3003 RMK AO2=
KSRR 080815Z AUTO 20005KT 10SM SCT045 BKN060 OVC075 13/12 A3035
     RMK AO2=
KVQQ 080815Z AUTO 00000KT 5SM BR CLR 17/17 A3001 RMK AO2=
KVTP 080820Z AUTO 07011G15KT 1/4SM OVC001 06/05 A3055 RMK AO2=
KW29 080813Z AUTO 00000KT 5SM CLR 24/22 A2998 RMK AO1=
KWYS 080810Z AUTO 17003KT 10SM CLR 03/00 A3035 RMK AO2=
PAAK 080816Z AUTO 08019G26KT 10SM BKN013 BKN027 OVC085 07/04 A2963
     RMK AO1 PNO=
PAHP 080816Z AUTO 02007KT 10SM FEW032 SCT060 BKN085 12/09 A3007
     RMK AO1 PNO TSNO=
PAAK 080816Z AUTO 08019G26KT 10SM BKN013 BKN027 OVC085 07/04 A2963
     RMK AO1 PNO=
PABL 080816Z AUTO 33006KT 10SM CLR 11/07 A3016 RMK AO1 PNO=
PABV 080816Z AUTO 00000KT 10SM SCT085 BKN120 13/09 RMK AO1 PNO=
PADL 080816Z 31007KT 10SM BKN120 11/08 A2998 RMK AO1 PNO TSNO=
PAEM 080816Z AUTO 36004KT 10SM FEW100 12/08 A3005 RMK AO1 PNO=
PAFE 080816Z AUTO 00000KT 10SM CLR 12/09 A3018 RMK AO1 PNO=
PAFM 080816Z AUTO 00000KT 10SM CLR 17/10 A3010 RMK AO1 PNO=
PAGL 080816Z AUTO 10SM SCT075 RMK AO1 PNO=
PAGS 080816Z AUTO 00000KT 10SM CLR 12/11 A3020 RMK AO1 PNO=
PAHP 080816Z AUTO 02007KT 10SM FEW032 SCT060 BKN085 12/09 A3007
     RMK AO1 PNO TSNO=
PAHY 080816Z AUTO 35003KT 10SM CLR 17/10 A3011 RMK AO1 PNO=
PAII 080816Z AUTO 36004KT 10SM OVC055 11/08 A2997 RMK AO1 PNO=
PAIN 080816Z AUTO 25003KT 10SM CLR 12/07 A3008 RMK AO1 PNO=
PAJC 080816Z AUTO 00000KT 10SM OVC017 09/05 A2995 RMK AO1 PNO=
PAKK 080816Z AUTO 36012G16KT 10SM OVC085 16/09 A3005 RMK AO1
     PNO=
PAKP 080816Z AUTO 03005KT 10SM BKN035 OVC041 11/04 A3011 RMK
     AO1=
PAMD 080816Z AUTO 10023G27KT 9SM FEW006 BKN014 OVC020 09/08 A3002
     RMK AO1 PNO=
####018000215####
SAXX60 KWBC 080800 RRI
METAR
KVPS 080755Z COR 33001KT 10SM SKC 24/24 A3002 RMK AO2A SLP166
     T02430238 COR 0811=
KVPS 080755Z COR 33001KT 10SM SKC 24/24 A3002 RMK AO2A SLP166
     T02430238 COR 0811=
####018000395####
SAUS80 KWBC 080818
METAR
K4BM 080814Z AUTO 00000KT 10SM 05/03 A3064 RMK AO2=
KCBE 080813Z AUTO 00000KT 7SM CLR 22/18 A3010 RMK AO1=
KESN 080818Z AUTO 00000KT 4SM BR CLR 23/23 A3002 RMK AO2=
KSMS 080815Z AUTO 27004KT 10SM CLR 25/19 A2997 RMK AO2=
PADK 080816Z 07013KT 10SM BKN018 OVC024 07/06 A2959 RMK AO1
     PNO=
KSNC 080815Z AUTO 12003KT 1/4SM FG OVC001 22/ A3006 RMK AO2=
####018000838####
SPUS70 KWBC 080818
SPECI
KBGD 080815Z AUTO 02008KT 10SM -RA FEW005 BKN022 OVC080 19/18
     A3019 RMK AO2 P0000=
KBOK 080816Z AUTO 24003KT M1/4SM FG OVC002 09/09 A2997 RMK AO2
     $=
KDVN 080815Z AUTO 00000KT 2SM BR BKN007 22/21 A3002 RMK AO2 VIS
     1V3 CIG 005V009=
KOKC 080815Z 33004KT 10SM FEW020 BKN024 OVC039 24/22 A3004 RMK
     AO2=
PAWD 080815Z AUTO 12004KT 3SM BR FEW003 BKN047 OVC055 10/09 A2998
     RMK AO2 RAE00 P0000 TSNO=
KAUW 080816Z AUTO 33007KT 9SM BKN004 19/19 A2998 RMK AO2 $=
KDEN 080816Z 18005KT 4SM BR FEW004 SCT008 BKN021 14/14 A3032 RMK
     AO2 $=
KELZ 080816Z AUTO 00000KT 1 1/2SM BR CLR 19/18 A3016 RMK AO2=
KHYA 080816Z AUTO 00000KT 1 3/4SM BR OVC001 21/21 A3007 RMK
     AO2=
KLAA 080816Z AUTO 09003KT 10SM BKN020 OVC031 18/17 A3026 RMK AO2
     LTG DSNT NE AND E=
####018000362####
SPUS80 KWBC 080818
SPECI
KANJ 080814Z AUTO 16004KT 3SM -RA BR BKN014 BKN022 OVC043 21/19
     A2996 RMK AO2 P0007=
KEKN 080815Z AUTO 00000KT 2 1/2SM BR SCT080 17/17 A3015 RMK AO2
     TSNO=
KCOU 080815Z AUTO 00000KT 10SM -RA SCT002 SCT019 BKN070 23/22
     A3004 RMK AO2 P0001 TSNO=
KDAL 080815Z 16007KT 10SM SCT017 BKN230 26/23 A2999 RMK AO2=
####018000070####
SPAK32 KWBC 080818
SPECI
PACZ SP 0815 AWOS MM 7 51/47/0605/008=
####018000080####
SPAK32 KWBC 080818
SPECI
PAIM SP 0815 AWOS CLR BLO 120 10 58/45/3203/008=
####018000077####
SPAK32 KWBC 080818
SPECI
PASV SP 0815 AWOS M100 BKN 10 49/48/0000/996=
####018000080####
SPAK32 KWBC 080818
SPECI
PALU SP 0815 AWOS CLR BLO 120 10 55/34/2122/010=
####018000076####
SPAK32 KWBC 080818
SPECI
PATL SP 0815 AWOS 110 SCT 10 61/42/0304/000=
####018000115####
SAAW34 KWBC 080745 RRI
METAR
OAKN 080750Z 00000KT 9000 HZ SKC 40/10 Q1009 BLU NOSIG RMK A2981
     DA6900=
####018000096####
SACN31 KWBC 080800 RRC
METAR
CYWK 080800Z 19006KT 15SM FEW300 17/15 A2995 RMK CI1 SLP145=
####018000139####
SAEM31 KWBC 080800 RRC
METAR
LOIH 080800Z 00000KT 35KM SKC 23/14 Q1021 RMK SKC=
LOWZ 080800Z 00000KT 40KM SKC 16/07 Q1024 RMK SKC=
####018000078####
SAIQ31 KWBC 080800 RRA
METAR
ORER 080800Z VRB03KT 7000 SKC 40/02 Q1005=
####018000149####
SPJP41 KWBC 080818
SPECI
RJCN 080807Z 09004KT 030V120 3000 -TSRA BR BKN002 BKN003 14/14
Q1009 RMK 5ST002 7ST003 A2982 FBL TS 20KM NW MOV NE=
####018000140####
SPJP44 KWBC 080818
SPECI
RJTH 080815Z 23012KT 200V260 3000 SHRA BR FEW002 BKN006 BKN012
24/23 Q1012 RMK 2ST002 5ST006 5ST012 A2989=
####018000126####
SPXX61 KWBC 080818
SPECI
EGUN 080812Z AUTO 26006KT 9999 BKN007 BKN014 OVC021 17/17 A3008
RMK AO2 RAB0751E0801 SLP174=
####018000088####
SPUS41 KWBC 080818
SPECI
KDOV 080813Z AUTO 00000KT 2 1/2SM BR FEW110 24/24 A2998=
####018000131####
SPXX61 KWBC 080818
SPECI
EGUL 080816Z AUTO 25005KT 9999 -DZ SCT005 BKN014 OVC022 17/16
A3007 RMK AO2 CIG 005 RWY06 SLP184=
####018000134####
SPXX61 KWBC 080818
SPECI
EGUL 080813Z AUTO 25005KT 9000 -DZ BR SCT005 BKN015 OVC022 17/16
A3007 RMK AO2 CIG 005 RWY06 SLP184=
####018000116####
SPCN31 CWAO 080816
SPECI CYYT 080816Z 14005KT 1/8SM R11/P6000FT/D R16/3500VP6000FT/D FG
VV001 08/ RMK FG8=

####018000083####
SAUS41 KWBC 080800 RRD
METAR
KPQI 080815Z AUTO 00000KT 10SM CLR 21/18 A2998=
####018000236####
SAXX99 KWBC 080800 RRO
METAR
CYQW 080800Z AUTO 16004KT 9SM CLR 09/08 A3012 RMK SLP213 TS/LTNG
     TEMPO UNAVBL=
EGWU 080809Z 29005KT 6000 -RADZ FEW005 SCT010 OVC014 16/15 Q1019
     RERA REDZ GRN BECMG 9999 NSW BKN015 WHT=
####018000099####
SAUS43 KWBC 080800 RRD
METAR
KCIU 080815Z AUTO 19006KT 4SM FEW047 BKN090 OVC110 19/17 A2995=
####018000088####
SPUS51 KWBC 080818
SPECI
KEKN 080815Z AUTO 00000KT 2 1/2SM BR SCT080 17/17 A3015=
####018000083####
SAUS44 KWBC 080800 RRD
METAR
KGDV 080815Z AUTO 22007KT 10SM CLR 12/08 A3016=
####018000086####
SAUS51 KWBC 080800 RRC
METAR
KMYR 080815Z AUTO 29008KT 10SM FEW100 26/19 A2996=
####018000671####
SAEG31 HECA 080800
METAR HEMM 080800Z 31010KT CAVOK 27/22 Q1012=
HEAX 080800Z 29010KT 9999 SCT020 29/21 Q1010=
HECA 080800Z 33006KT CAVOK 29/18 Q1011=
HELX 080800Z NIL=
HESN 080800Z NIL=
HEAR 080800Z 35003KT CAVOK 30/20 Q1009=
HEGN 080800Z 34023KT CAVOK 34/19 Q1006=
HEPS 080800Z 26007KT 9999 SCT025 28/21 Q1010=
HEIS 080800Z 28007KT 9999 FEW025 29/19 Q1010=
HESH 080800Z 02014KT CAVOK 34/14 Q1007=
HEAT 080800Z 36009KT CAVOK 32/13 Q1011=
HEBA 080800Z NIL=
HEBL 080800Z 03014KT CAVOK 38/09 Q1011=
HESC 080800Z 05008KT CAVOK 28/12 Q1018=
HEDF 080800Z NIL=
HETR 080800Z 31026KT CAVOK 29/21 Q1006=
HEMA 080800Z 01017KT CAVOK 33/19 Q1007=
####018000102####
SPUS53 KWBC 080818
SPECI
KCOU 080815Z AUTO 00000KT 10SM -RA SCT002 SCT019 BKN070 23/22
A3004=
####018000437####
SAUS53 KWBC 080800 RRE
METAR
KANW 080810Z AUTO 27003KT 10SM OVC110 17/15 A3023=
KBIE 080810Z AUTO 36006KT 10SM CLR 20/18 A3012=
KDVL 080815Z AUTO 28007KT 7SM CLR 15/12 A3006=
KEAR 080815Z AUTO 33005KT 10SM CLR 16/14 A3022=
KGPZ 080815Z AUTO 19004KT 10SM CLR 13/12 A3006=
KJAC 080815Z AUTO 36008KT 10SM CLR 10/M01 A3033=
KONL 080810Z AUTO 00000KT 10SM OVC110 16/14 A3019=
KUDG 080815Z 29003KT 10SM BKN100 26/18 A2997=
####018000078####
SANI20 DNMM 080800
METAR DNIL 080800Z 17003KT 9999 BKN009 25/22 Q1012=

####018000173####
SAUS54 KWBC 080800 RRC
METAR
KMWS 080800Z 10506G07KT 20/M02=
KSOW 080810Z AUTO 17005KT 10SM BKN100 21/04 A3023=
KTRK 080810Z AUTO 00000KT 10SM FEW038 14/08 A3016=
####018000158####
SAUS44 KCRP 080818
MTRCRP
SPECI KCRP 080816Z 36005KT 10SM -TSRA FEW011CB BKN038 BKN060 26/25 
A2983 RMK AO2 TSB16 OCNL LTGIC SW-W TS SW-W MOV W P0000
####018000102####
SPUS73 KWBC 080818
SPECI
KCOU 080815Z AUTO 00000KT 10SM -RA SCT002 SCT019 BKN070 23/22
A3004=
####018000086####
SAJP36 RJTD 080800 RRC
METAR RJNK 080800Z 36006KT 9000 FEW025 BKN200 26/21 Q1008=
####018000102####
SPUS81 KWBC 080818
SPECI
KCOU 080815Z AUTO 00000KT 10SM -RA SCT002 SCT019 BKN070 23/22
A3004=
####018000302####
SAUS73 KWBC 080800 RRE
METAR
KBJC 080817Z AUTO 20004KT 5SM BR CLR 13/12 A3033=
KCIU 080815Z AUTO 19006KT 4SM FEW047 BKN090 OVC110 19/17 A2995=
KEGE 080815Z 26004KT 10SM CLR 11/09 A3039=
KJAC 080815Z AUTO 36008KT 10SM CLR 10/M01 A3033=
KLBL 080815Z 05008KT 10SM FEW035 SCT050 20/17 A3020=
####018000088####
SPUS81 KWBC 080818
SPECI
KEKN 080815Z AUTO 00000KT 2 1/2SM BR SCT080 17/17 A3015=
####018000081####
SAUS74 KWBC 080800 RRC
METAR
KOTH 080815Z 00000KT 10SM OVC008 11/08 A3000=
####018000086####
SANA35 KAWN 080800 RRF
METAR SKCG 080800Z VRB02KT 9999 FEW012 SCT070 28/26 A2987=
####018000431####
SALY31 HLMC 080800
METAR HLLB 080750Z 33018KT CAVOK 29/17 Q1016=
METAR HLLS 080750Z 11018KT CAVOK 31/11 Q1018=
METAR HLLT 080800Z 00000KT 7000 SCT020 27/19 Q1019=
METAR HLGD 080800Z NIL=
METAR HLGT 080800Z NIL=
METAR HLJA 080800Z NIL=
METAR HLKF 080800Z NIL=
METAR HLKM 080800Z NIL=
METAR HLLM 080800Z NIL=
METAR HLMI 080800Z NIL=
METAR HLNT 080800Z NIL=
METAR HLON 080800Z NIL=
METAR HLTD 080800Z NIL=
####018000113####
SPUS17 KAWN 080818 RRA
SPECI KDOV 080813Z AUTO 00000KT 2 1/2SM BR FEW110 24/24 A2998 RMK AO2
      SLP155=
####018000094####
SPCN51 CWAO 080817
SPECI CWZZ 080817Z AUTO ///// 5/8SM SCT013 OVC019 OVC069 10/ A2981=

####018000398####
SAUS20 KNKA 080818
METAR KTZR 080817Z AUTO 00000KT 7SM CLR 21/19 A3008 RMK AO2=
METAR KULM 080815Z AUTO 28004KT 10SM CLR 14/13 A3011 RMK AO2=
METAR KUNI 080815Z AUTO 00000KT 5SM HZ CLR 22/17 A3007 RMK AO2 
     T02210173=
METAR KVES 080814Z AUTO 00000KT 5SM BR CLR 20/19 A3007 RMK AO2 
     T02000191=
METAR KY63 080820Z AUTO 22005KT 10SM CLR 15/14 A3009 RMK AO2 
     T01500143=
####018002989####
SAUS20 KNKA 080818
METAR K14Y 080818Z AUTO 00000KT 5SM BR CLR 15/14 A3010 RMK AO2 
     T01450143=
METAR K1A6 080815Z AUTO 00000KT 4SM BR CLR 21/21 A3010 RMK AO2=
METAR KAIG 080815Z AUTO 30005KT 7SM BKN001 OVC031 19/18 A3000 RMK 
     AO2=
METAR KAIT 080813Z AUTO 00000KT 4SM BR CLR 12/11 A3006 RMK AO2=
METAR KARV 080812Z AUTO 30003KT 10SM SCT028 19/18 A3003 RMK AO2 
     T01870177=
METAR KATW 080815Z AUTO 20008KT 10SM CLR 22/20 A2997 RMK AO2=
METAR KBBB 080813Z AUTO 00000KT 10SM CLR 14/14 A3011 RMK AO2=
SPECI KBMQ 080817Z AUTO 10003KT 10SM FEW008 SCT013 BKN046 24/22 
    A3001 RMK AO2 $=
METAR KBWP 080811Z AUTO 26003KT 10SM CLR 15/13 A3008 RMK AO1 
     T01470132=
METAR KCLI 080815Z AUTO 21003KT 7SM BKN007 22/21 A2997 RMK AO2=
SPECI KCNM 080817Z AUTO 25007KT 6SM RA BR BKN009 BKN020 OVC030 21/19 
    A3012 RMK AO2 LTG DSNT SE CIG 007V013 P0007=
METAR KCWA 080815Z AUTO 32006KT 10SM CLR 19/19 A3000 RMK AO2 
     T01930192=
METAR KDVK 080817Z AUTO 00000KT 5SM 21/19 A3008 RMK AO1=
METAR KEFT 080815Z AUTO 29003KT 10SM BKN070 OVC100 21/20 A3001 
     RMK AO2 T02080198=
METAR KEGV 080812Z AUTO 00000KT 4SM BR OVC002 19/19 A3001 RMK AO2 
     T01870188=
METAR KETB 080812Z AUTO 00000KT 7SM SCT110 22/21 A2999 RMK AO2 
     T02160206=
METAR KEZS 080815Z AUTO 24003KT 10SM OVC005 22/22 A2996 RMK AO2 
     T02240215=
METAR KFFM 080813Z AUTO 19004KT 10SM CLR 15/14 A3007 RMK AO2=
METAR KFGN 080814Z AUTO 26009KT 3/4SM DZ VV005 18/13 A2996 RMK
     AO2=
METAR KGDB 080813Z AUTO 25004KT 10SM CLR 15/14 A3013 RMK AO2
     T01450141=
METAR KGHW 080813Z AUTO 23005KT 10SM CLR 14/13 A3013 RMK AO2=
METAR KGLW 080813Z AUTO 00000KT 7SM CLR 21/20 A3007 RMK AO2 
     T02080195=
METAR KHFJ 080815Z AUTO 00000KT 10SM BKN020 OVC029 23/23 A3003 
     RMK AO1=
METAR KJVL 080815Z AUTO 21003KT 10SM -DZ SCT060 SCT065 OVC090 
     22/20 A2999 RMK AO2 T02230201=
METAR KLCK 080815Z AUTO 00000KT 5SM BR CLR 23/21 A3006 RMK AO2 
     T02260210=
METAR KLNL 080815Z AUTO 00000KT 5SM BR SCT012 SCT050 19/18 A3003 
     RMK AO2 T01880183=
METAR KLUM 080815Z AUTO 28003KT 10SM CLR 20/18 A3003 RMK AO2=
METAR KMGG 080815Z AUTO 28004KT 10SM CLR 16/15 A3009 RMK AO2
     T01570154=
METAR KMOX 080810Z AUTO 24004KT 10SM CLR 16/14 A3007 RMK AO2=
METAR KMWM 080813Z AUTO 27005KT 10SM CLR 14/14 A3013 RMK AO2=
METAR KMWO 080815Z AUTO 00000KT 3SM BR CLR 20/20 A3008 RMK AO2=
METAR KPNM 080813Z AUTO 28003KT 1 1/4SM BR CLR 14/14 A3008 RMK AO2
     VIS 1V5=
METAR KPQN 080813Z AUTO 31004KT 10SM CLR 17/15 A3016 RMK AO2=
METAR KPVB 080813Z AUTO 30004KT 7SM SCT003 SCT120 20/19 A3002 RMK 
     AO1 T01970190=
METAR KPWC 080813Z AUTO 00000KT 1/2SM FG BKN001 11/10 A3008 RMK
     AO2=
METAR KRZN 080814Z AUTO 30005KT 10SM OVC047 19/16 A3005 RMK AO2 
     T01890162=
METAR KSME 080815Z AUTO 00000KT 5SM BR 21/20 A3008 RMK AO2=
METAR KTWM 080813Z AUTO 00000KT 10SM BKN060 17/14 A3001 RMK
     AO2=
####018000110####
SAUS41 KAKQ 080818
MTRWAL
SPECI KWAL 080813Z AUTO 12004KT 9SM FEW007 OVC095 24/23 A2998 RMK 
AO2 TSNO
####018000074####
SACN50 CWAO 080815
VOJ SA 0815 AUTO8 M M M M/17/M/0404/M/M M 1MMM=

####018000092####
SAIR33 OIII 080800 RRC
METAR OIZC 080800Z 21008KT 6000 SCT035 BKN090 36/26 Q1002 A2960=
####018000082####
SPCN48 CWAO 080817
SPECI CYPH 080817Z AUTO 24017KT 4SM OVC002 05/05 A2977=

####018000230####
SPUS99 KWBC 080819
SPECI
KBMQ 080817Z AUTO 10003KT 10SM FEW008 SCT013 BKN046 24/22 A3001
     RMK AO2 $=
KCNM 080817Z AUTO 25007KT 6SM RA BR BKN009 BKN020 OVC030 21/19
     A3012 RMK AO2 LTG DSNT SE CIG 007V013 P0007=
####018000082####
SALT33 EYVI 080820
METAR EYPA 080820Z 35008KT 310V030 CAVOK 21/16 Q1018 NOSIG=
####018002952####
SAUS99 KWBC 080819
METAR
KFKA 080823Z AUTO 31005KT 4SM BR CLR 19/19 A3007 RMK AO2
     T01910186=
KTZR 080817Z AUTO 00000KT 7SM CLR 21/19 A3008 RMK AO2=
KULM 080815Z AUTO 28004KT 10SM CLR 14/13 A3011 RMK AO2=
KUNI 080815Z AUTO 00000KT 5SM HZ CLR 22/17 A3007 RMK AO2
     T02210173=
KVES 080814Z AUTO 00000KT 5SM BR CLR 20/19 A3007 RMK AO2
     T02000191=
KY63 080820Z AUTO 22005KT 10SM CLR 15/14 A3009 RMK AO2
     T01500143=
K14Y 080818Z AUTO 00000KT 5SM BR CLR 15/14 A3010 RMK AO2
     T01450143=
K1A6 080815Z AUTO 00000KT 4SM BR CLR 21/21 A3010 RMK AO2=
KAIG 080815Z AUTO 30005KT 7SM BKN001 OVC031 19/18 A3000 RMK
     AO2=
KAIT 080813Z AUTO 00000KT 4SM BR CLR 12/11 A3006 RMK AO2=
KARV 080812Z AUTO 30003KT 10SM SCT028 19/18 A3003 RMK AO2
     T01870177=
KATW 080815Z AUTO 20008KT 10SM CLR 22/20 A2997 RMK AO2=
KBBB 080813Z AUTO 00000KT 10SM CLR 14/14 A3011 RMK AO2=
KBWP 080811Z AUTO 26003KT 10SM CLR 15/13 A3008 RMK AO1
     T01470132=
KCLI 080815Z AUTO 21003KT 7SM BKN007 22/21 A2997 RMK AO2=
KCWA 080815Z AUTO 32006KT 10SM CLR 19/19 A3000 RMK AO2
     T01930192=
KDVK 080817Z AUTO 00000KT 5SM 21/19 A3008 RMK AO1=
KEFT 080815Z AUTO 29003KT 10SM BKN070 OVC100 21/20 A3001 RMK AO2
     T02080198=
KEGV 080812Z AUTO 00000KT 4SM BR OVC002 19/19 A3001 RMK AO2
     T01870188=
KETB 080812Z AUTO 00000KT 7SM SCT110 22/21 A2999 RMK AO2
     T02160206=
KEZS 080815Z AUTO 24003KT 10SM OVC005 22/22 A2996 RMK AO2
     T02240215=
KFFM 080813Z AUTO 19004KT 10SM CLR 15/14 A3007 RMK AO2=
KFGN 080814Z AUTO 26009KT 3/4SM DZ VV005 18/13 A2996 RMK AO2=
KGDB 080813Z AUTO 25004KT 10SM CLR 15/14 A3013 RMK AO2
     T01450141=
KGHW 080813Z AUTO 23005KT 10SM CLR 14/13 A3013 RMK AO2=
KGLW 080813Z AUTO 00000KT 7SM CLR 21/20 A3007 RMK AO2
     T02080195=
KHFJ 080815Z AUTO 00000KT 10SM BKN020 OVC029 23/23 A3003 RMK
     AO1=
KJVL 080815Z AUTO 21003KT 10SM -DZ SCT060 SCT065 OVC090 22/20
     A2999 RMK AO2 T02230201=
KLCK 080815Z AUTO 00000KT 5SM BR CLR 23/21 A3006 RMK AO2
     T02260210=
KLNL 080815Z AUTO 00000KT 5SM BR SCT012 SCT050 19/18 A3003 RMK AO2
     T01880183=
KLUM 080815Z AUTO 28003KT 10SM CLR 20/18 A3003 RMK AO2=
KMGG 080815Z AUTO 28004KT 10SM CLR 16/15 A3009 RMK AO2
     T01570154=
KMOX 080810Z AUTO 24004KT 10SM CLR 16/14 A3007 RMK AO2=
KMWM 080813Z AUTO 27005KT 10SM CLR 14/14 A3013 RMK AO2=
KMWO 080815Z AUTO 00000KT 3SM BR CLR 20/20 A3008 RMK AO2=
KPNM 080813Z AUTO 28003KT 1 1/4SM BR CLR 14/14 A3008 RMK AO2 VIS
     1V5=
KPQN 080813Z AUTO 31004KT 10SM CLR 17/15 A3016 RMK AO2=
KPVB 080813Z AUTO 30004KT 7SM SCT003 SCT120 20/19 A3002 RMK AO1
     T01970190=
KPWC 080813Z AUTO 00000KT 1/2SM FG BKN001 11/10 A3008 RMK AO2=
KRZN 080814Z AUTO 30005KT 10SM OVC047 19/16 A3005 RMK AO2
     T01890162=
KSME 080815Z AUTO 00000KT 5SM BR 21/20 A3008 RMK AO2=
KTWM 080813Z AUTO 00000KT 10SM BKN060 17/14 A3001 RMK AO2=
####018000115####
SPCN31 KWBC 080819
SPECI
CYYT 080816Z 14005KT 1/8SM R11/P6000FT/D R16/3500VP6000FT/D FG
VV001 08/ RMK FG8=
####018000093####
SPUS31 KWBC 080819
SPECI
KDEN 080816Z 18005KT 4SM BR FEW004 SCT008 BKN021 14/14 A3032=
####018000091####
SPUS31 KWBC 080819
SPECI
KOKC 080815Z 33004KT 10SM FEW020 BKN024 OVC039 24/22 A3004=
####018000084####
SPUS42 KWBC 080819
SPECI
KDAL 080815Z 16007KT 10SM SCT017 BKN230 26/23 A2999=
####018000087####
SAAG01 SABM 080800 RRD
METAR SAZN 080800Z 00000KT 9999  SCT050 BKN100 04/01 Q1011=
####018000099####
SPUS42 KWBC 080819
SPECI
KCRP 080816Z 36005KT 10SM -TSRA FEW011CB BKN038 BKN060 26/25 A2983=
####018000088####
SPUS51 KWBC 080819
SPECI
KWAL 080813Z AUTO 12004KT 9SM FEW007 OVC095 24/23 A2998=
####018000099####
SPUS72 KWBC 080819
SPECI
KCRP 080816Z 36005KT 10SM -TSRA FEW011CB BKN038 BKN060 26/25 A2983=
####018000084####
SPUS72 KWBC 080819
SPECI
KDAL 080815Z 16007KT 10SM SCT017 BKN230 26/23 A2999=
####018000091####
SPUS72 KWBC 080819
SPECI
KOKC 080815Z 33004KT 10SM FEW020 BKN024 OVC039 24/22 A3004=
####018000093####
SPUS73 KWBC 080819
SPECI
KDEN 080816Z 18005KT 4SM BR FEW004 SCT008 BKN021 14/14 A3032=
####018000084####
SPUS81 KWBC 080819
SPECI
KDAL 080815Z 16007KT 10SM SCT017 BKN230 26/23 A2999=
####018000099####
SPUS81 KWBC 080819
SPECI
KCRP 080816Z 36005KT 10SM -TSRA FEW011CB BKN038 BKN060 26/25 A2983=
####018000088####
SPUS81 KWBC 080819
SPECI
KWAL 080813Z AUTO 12004KT 9SM FEW007 OVC095 24/23 A2998=
####018000081####
SAGL KAWN 080800 RRB
METAR COR BGGH 080750Z 01003KT 9999 OVC003 05/03 Q1010=
####018000145####
SAUK KAWN 080800 RRE
METAR EGWU 080809Z 29005KT 6000 -RADZ FEW005 SCT010 OVC014 16/15 Q1019
      RERA REDZ GRN BECMG 9999 NSW BKN015 WHT=
####018000082####
SPCN48 CWAO 080817
SPECI CYMH 080817Z AUTO 18005KT 9SM OVC005 07/06 A3011=

####018000185####
SAXX70 KAWN 080800 RRN
METAR KQM1 080755Z AUTO 19006KT 9999 CLR 38/15 A2999 RMK AO2 SLP084
      T03750150 $=
METAR KQFT 080810Z AUTO 20001KT 6SM BR OVC035 28/19 A2980 RMK A02=
####018000079####
SAMP31 LMMM 080800 RRB
METAR HLLT 080800Z 00000KT 7000 SCT020 27/19 Q1019=
####018000114####
SAUS41 KAKQ 080819 COR
MTRWAL
SPECI KWAL 080813Z AUTO 12004KT 9SM FEW007 OVC095 24/23 A2998 RMK 
AO2 TSNO
####018003699####
SAUS90 KWBC 080820
METAR KFKA 080823Z AUTO 31005KT 4SM BR CLR 19/19 A3007 RMK AO2
     T01910186=
METAR KTEW 080813Z AUTO 00000KT 7SM CLR 21/20 A3004 RMK AO2=
METAR KCVH 080810Z AUTO 00000KT 10SM OVC012 12/11 A2993 RMK
     AO1=
METAR KDYT 080814Z AUTO 30007KT 10SM CLR 21/16 A3003 RMK AO2=
METAR KFSO 080818Z AUTO 00000KT 5SM BR CLR 23/22 A3000 RMK AO2=
METAR KFBL 080814Z AUTO 30004KT 10SM CLR 18/16 A3008 RMK AO2=
METAR KLYV 080818Z AUTO 00000KT 10SM CLR 14/13 A3016 RMK AO2=
METAR KEFK 080815Z AUTO 20003KT 7SM BKN055 21/19 A3006 RMK AO2=
METAR KRRT 080814Z AUTO 24006KT 10SM CLR 16/13 A3000 RMK AO2=
METAR KTOB 080814Z AUTO 00000KT 10SM CLR 18/17 A3008 RMK AO2=
METAR KLXL 080814Z AUTO 00000KT 3SM BR 12/11 A3008 RMK AO2 SKY
     OBSCURED=
METAR KEVM 080812Z AUTO 00000KT 10SM CLR 13/12 A3002 RMK AO1=
METAR KELO 080813Z AUTO 00000KT 10SM CLR 13/13 A3002 RMK AO2=
METAR KANE 080815Z AUTO 27004KT 10SM 18/17 A3008 RMK AO2=
METAR KROX 080814Z AUTO 26004KT 10SM CLR 16/13 A3000 RMK AO2=
METAR KSYN 080830Z AUTO 32004KT 10SM CLR 19/17 A3006 RMK AO2
     T01850168=
METAR KVVV 080816Z AUTO 00000KT 10SM CLR 16/14 A3011 RMK AO2=
METAR KROS 080815Z AUTO 27003KT 10SM CLR 16/15 A3006 RMK AO2
     T01600148=
METAR KHCD 080812Z AUTO 26003KT 7SM CLR 14/13 A3010 RMK AO2
     T01380128=
METAR KSGS 080813Z AUTO 32005KT 10SM CLR 20/17 A3006 RMK AO2
     T02000165=
METAR KMJQ 080812Z AUTO 29004KT 10SM CLR 15/14 A3014 RMK AO2=
METAR KHCO 080814Z AUTO 20003KT 10SM CLR 13/12 A3004 RMK AO2=
METAR KLVN 080808Z AUTO 32006KT 10SM CLR 18/17 A3007 RMK AO2=
METAR KPEX 080813Z AUTO 26005KT 5SM BR CLR 13/12 A3011 RMK AO2
     T01250123=
METAR KJMR 080818Z AUTO 31004KT 10SM CLR 15/13 A3008 RMK AO2=
METAR KJKJ 080814Z AUTO 23005KT 10SM CLR 16/15 A3006 RMK AO2=
METAR KMVE 080814Z AUTO 28004KT 10SM CLR 17/16 A3010 RMK AO2=
METAR KTKC 080813Z AUTO 25005KT 10SM CLR 16/14 A3013 RMK AO2
     T01550137=
METAR KGYL 080814Z AUTO 00000KT 10SM CLR 15/15 A3009 RMK AO2
     T01540145=
METAR KDXX 080814Z AUTO 00000KT 10SM CLR 14/14 A3011 RMK AO2=
METAR KHZX 080811Z AUTO 00000KT 1 3/4SM VV007 13/13 A3007 RMK AO2
     VIS 1/2V5=
METAR KSAZ 080814Z AUTO 00000KT 10SM CLR 15/15 A3008 RMK AO2=
METAR KONA 080811Z AUTO 00000KT 7SM CLR 20/18 A3002 RMK AO2=
METAR KOVL 080812Z AUTO 28003KT 10SM CLR 14/12 A3011 RMK AO2
     T01360122=
METAR KLJF 080812Z AUTO 29003KT 10SM CLR 18/16 A3011 RMK AO2=
METAR KAEL 080811Z AUTO 32003KT 10SM SCT029 18/17 A3008 RMK
     AO2=
METAR K29G 080814Z AUTO 00000KT 7SM BKN060 20/19 A3009 RMK AO2
     T02040185 PWINO=
METAR KMRT 080813Z AUTO 00000KT 5SM CLR 21/19 A3010 RMK AO2
     T02070190=
METAR KIKW 080813Z AUTO 00000KT 1 1/2SM BR VV007 21/20 A3000 RMK
     AO2 T02140203=
METAR KMDS 080805Z AUTO 27005KT 10SM CLR 15/15 A3017 RMK AO2=
METAR KFPK 080816Z AUTO 20003KT 7SM CLR 20/20 A3002 RMK AO2=
METAR KMOP 080814Z AUTO 00000KT 7SM SCT060 SCT070 BKN120 22/22
     A3001 RMK AO2=
METAR KCAD 080814Z AUTO 22009KT 10SM CLR 22/21 A3004 RMK AO2=
METAR KMGN 080815Z AUTO 00000KT 7SM SCT110 21/20 A2997 RMK AO2=
METAR KHAI 080815Z AUTO 00000KT 7SM CLR 22/21 A3004 RMK AO2=
METAR KLWA 080816Z AUTO 00000KT 7SM BKN050 BKN065 OVC110 23/22
     A3004 RMK AO2=
METAR KDRM 080816Z AUTO 14003KT 10SM BKN110 20/20 A2996 RMK
     AO2=
METAR KVLL 080814Z AUTO 00000KT 10SM CLR 26/20 A3005 RMK AO2=
METAR KCFS 080815Z AUTO 00000KT 1 1/2SM BR VV007 20/20 A3002 RMK
     AO2=
METAR KOZW 080815Z AUTO 00000KT 7SM CLR 22/20 A3004 RMK AO2=
METAR KRNP 080815Z AUTO 00000KT 10SM CLR 22/21 A3002 RMK AO2=
METAR KDUH 080815Z AUTO 00000KT 10SM CLR 22/18 A3004 RMK AO2=
####018000239####
SPUS90 KWBC 080820
SPECI KCRP 080816Z 36005KT 10SM -TSRA FEW011CB BKN038 BKN060 26/25
     A2983 RMK AO2 TSB16 OCNL LTGIC SW-W TS SW-W MOV W P0000=
SPECI KWAL 080813Z AUTO 12004KT 9SM FEW007 OVC095 24/23 A2998 RMK
     AO2 TSNO=
####018000110####
SPUS90 KWBC 080820 CCA
SPECI KWAL 080813Z AUTO 12004KT 9SM FEW007 OVC095 24/23 A2998 RMK
     AO2 TSNO=
####018001777####
SAUS90 KWBC 080820 RRA
METAR KJYM 080815Z AUTO 00000KT 7SM CLR 21/19 A3006 RMK AO2=
METAR KBAX 080815Z AUTO 00000KT 4SM BR CLR 21/20 A3001 RMK AO2=
METAR KIRS 080815Z AUTO 00000KT 7SM CLR 22/19 A3004 RMK AO2=
METAR KACB 080815Z AUTO 19003KT 10SM CLR 24/21 A2998 RMK AO2=
METAR KRQB 080815Z AUTO 26005KT 10SM SCT080 OVC085 23/21 A3003 RMK
     AO2=
METAR KOEB 080815Z AUTO 00000KT 10SM CLR 23/20 A3005 RMK AO2=
METAR K4I3 080816Z AUTO 00000KT 10SM CLR 20/18 A3009 RMK AO2=
METAR KAUM 080815Z AUTO 31004KT 10SM CLR 18/17 A3007 RMK AO2=
METAR KFFX 080815Z AUTO 00000KT 7SM OVC065 22/22 A3002 RMK AO2=
METAR KCNB 080817Z AUTO 24004KT 10SM CLR 16/13 A3013 RMK AO2
     T01550129=
METAR KCKN 080815Z AUTO 25003KT 10SM CLR 14/12 A3004 RMK AO2=
METAR KCFE 080815Z AUTO 27003KT 10SM CLR 18/16 A3009 RMK AO2
     T01760162=
METAR KCQM 080817Z AUTO 24003KT 10SM CLR 14/14 A3004 RMK AO2=
METAR KDTL 080815Z AUTO 27005KT 10SM CLR 17/11 A3009 RMK AO2=
METAR KBDH 080815Z AUTO 28003KT 10SM CLR 16/14 A3012 RMK AO2=
METAR KCBG 080815Z AUTO 29003KT 10SM CLR 16/14 A3007 RMK AO2=
METAR KADC 080817Z AUTO 24004KT 10SM CLR 13/12 A3008 RMK AO2=
METAR KHAF 080810Z AUTO 27003KT 9SM OVC008 12/10 A2995 RMK AO2=
METAR KCKC 080815Z AUTO 30004KT 10SM CLR 16/13 A3002 RMK AO2=
METAR KJYG 080815Z AUTO 00000KT 10SM CLR 17/17 A3012 RMK AO2=
METAR KCOQ 080816Z AUTO 29006KT 10SM CLR 14/14 A3005 RMK AO2=
METAR KACQ 080818Z AUTO 31003KT 10SM CLR 17/16 A3011 RMK AO2=
METAR KRGK 080815Z AUTO 28004KT 10SM CLR 19/18 A3004 RMK AO2=
METAR KFSE 080814Z AUTO 20003KT 10SM CLR 13/12 A3004 RMK AO2=
METAR KY70 080815Z AUTO 25006KT 10SM BKN055 BKN075 OVC120 24/21
     A3003 RMK AO2 T02410212=
METAR KUKT 080810Z AUTO 00000KT 5SM CLR 21/20 A3003 RMK AO1=
####018002976####
SAUS20 KNKA 080819
METAR K4M9 080815Z AUTO 18004KT 9SM CLR 25/25 A3004 RMK AO2 =
METAR KAEJ 080815Z AUTO 00000KT 10SM OVC044 10/09 A3046 RMK AO2=
METAR KBBF 080915Z AUTO 13022G28KT 1 1/2SM BR SCT003 BKN026 OVC042
     28/26 A2980 RMK A01 VIS 1V3=
METAR KBQX 080815Z AUTO 12020G25KT 10SM FEW020 BKN049 OVC055 29/26
     A2984 RMK A01=
METAR KDCM 080815Z AUTO 28004KT 7SM CLR 23/22 A3000 RMK AO2 LTG 
     DSNT E=
METAR KDLP 080815Z AUTO 10SM SCT017 29/25 A2998 RMK A01=
METAR KEDU 080815Z AUTO 18005KT 10SM CLR 15/10 A2981 RMK AO1=
METAR KEHC 080815Z AUTO 11025KT FEW043 29/25 A2991 RMK A01=
METAR KEIR 080815Z AUTO VRB06G14KT 9SM FEW016 FEW022 28/25 A2995
     RMK A01=
METAR KEMK 080815Z AUTO 13032KT 6SM HZ FEW017 FEW028 SCT055 28/26
     A2985 RMK A01=
SPECI KFOK 080818Z AUTO 00000KT 5SM BR SCT003 OVC075 24/22 A3004 RMK 
    AO2 TSNO=
METAR KGBK 080815Z AUTO 09013G23KT 10SM CLR 29/25 A2988 RMK A01=
METAR KGYH 080815Z AUTO 31003KT 10SM CLR 24/19 A3002 RMK AO2=
METAR KHQI 080815Z AUTO 10033KT 6SM HZ FEW044 SCT060 BKN075 27/24
     A2989 RMK A01=
METAR KHXD 080815Z AUTO 22006KT 10SM CLR 24/21 A2998 RMK AO2 P0000 
     =
METAR KHYW 080815Z AUTO 00000KT 10SM BKN095 BKN120 25/23 A2994 RMK 
     AO2=
METAR KIPN 080815Z AUTO 09011KT 10SM CLR /59 A2998 RMK A01=
METAR KJZI 080815Z AUTO 28008KT 10SM CLR 24/23 A2996 RMK A02 P000 
     =
SPECI KLHQ 080818Z AUTO 00000KT 2 1/2SM BR CLR 19/19 A3008 RMK AO2=
METAR KMCJ 080815Z AUTO 11007KT 10SM CLR 27/24 A2989 RMK AO1 =
METAR KMDJ 080815Z AUTO 13015KT 10SM BKN019 BKN060 29/25 A2998 RMK
     A01=
METAR KMDZ 080815Z AUTO 31003KT 4SM BR BKN001 19/19 A3002 RMK AO2=
METAR KMHR 080815Z AUTO 17006KT 10SM CLR 14/10 A2984 RMK AO1=
METAR KMIU 080815Z AUTO 12017KT 10SM FEW021 SCT060 BKN075 29/26
     A2981 RMK A01=
METAR KMRJ 080815Z AUTO 26004KT 10SM CLR 21/19 A3002 RMK AO2 
     T02050188=
METAR KMWC 080815Z AUTO 17005KT 7SM SCT060 BKN070 BKN100 21/20 
     A3001 RMK AO2=
METAR KMYT 080815Z AUTO 14015KT 9SM FEW019 28/24 A2995 RMK A01=
METAR KMZG 080815Z AUTO VRB03KT 9SM SCT028 SCT050 BKN060 28/25
     A2981 RMK A01=
METAR KOEO 080815Z AUTO 00000KT 10SM SCT042 18/17 A3007 RMK AO2=
METAR KPBH 080815Z AUTO 00000KT 1/4SM FG OVC001 21/19 A3003 RMK 
     AO2=
METAR KPCZ 080815Z AUTO 00000KT 5SM BR OVC004 22/21 A2997 RMK AO2 
     T02230210=
METAR KPDC 080813Z AUTO 25003KT 7SM OVC006 23/21 A3001 RMK AO2 
     T02250212=
METAR KRCX 080815Z AUTO 30005KT 10SM SCT008 19/18 A3003 RMK AO2 
     T01910183=
METAR KRNH 080816Z AUTO 31004KT 10SM SCT044 18/17 A3006 RMK AO2 
     T01780167=
METAR KRPD 080814Z AUTO 30005KT 10SM CLR 19/17 A3004 RMK AO2 
     T01850172=
METAR KRRL 080815Z AUTO 00000KT 5SM BR CLR 18/17 A3001 RMK AO2 
     T01770174=
METAR KRYV 080815Z AUTO 00000KT 10SM SCT012 OVC090 23/20 A3000 
     RMK AO2=
METAR KSCF 080820Z AUTO 15020KT 8SM SCT017 SCT023 SCT029 29/25
     A2990 RMK A01=
####018001345####
SACI51 RJTD 080800
METAR ZBAA 080800Z 14003MPS 050V220 CAVOK 37/11 Q1003 NOSIG=
METAR ZBTJ 080800Z 16006MPS 9999 SCT033 32/19 Q1004 NOSIG=
METAR ZBYN 080800Z 09002MPS 060V140 CAVOK 31/12 Q1007 NOSIG=
METAR ZGGG 080800Z 16004MPS 130V210 9999 FEW050TCU SCT050 37/25
           Q1004 NOSIG=
METAR ZGKL 080800Z 19006MPS 9999 FEW043 35/23 Q1003 NOSIG=
METAR ZGNN 080800Z 15007MPS 120V180 9999 FEW030 35/25 Q1002 NOSIG=
METAR ZGOW 080800Z 19007MPS 9999 FEW020 33/25 Q1006 NOSIG=
METAR ZGSZ 080800Z 17009MPS 9999 FEW020 33/25 Q1006 NOSIG=
METAR ZLXY 080800Z 09002MPS 040V160 1800 BR FEW010 OVC060 24/22
           Q1007 NOSIG=
METAR ZPPP 080800Z 18005MPS 9999 FEW026 OVC040 22/16 Q1015 NOSIG=
METAR ZSAM 080800Z 18006MPS CAVOK 34/24 Q1005 NOSIG=
METAR ZSHC 080800Z VRB01MPS 5000 -SHRA BR FEW033CB SCT040 29/24
           Q1004 TEMPO TSRA SCT033CB=
METAR ZSNJ 080800Z 09004MPS 060V120 3000 HZ SCT026 29/22 Q1004
           NOSIG=
METAR ZSQD 080800Z 16005MPS CAVOK 27/15 Q1006 NOSIG=
METAR ZSSS 080800Z 11005G10MPS 070V130 9999 SCT026 29/23 Q1004
           NOSIG=
METAR ZWWW 080800Z 34004MPS 290V030 9999 FEW050CB 33/06 Q1011 NOSIG=
METAR ZYTL 080800Z 29005MPS 260V320 9999 SCT033 28/19 Q1006 NOSIG=
METAR ZYTX 080800Z 32003MPS 290V350 9999 FEW030TCU 25/18 Q1005 TEMPO
           -SHRA SCT030CB BKN030=
####018000448####
SAUS20 KNKA 080819
METAR KSPF 080815Z AUTO 00000KT 10SM CLR 10/08 A3028 RMK AO2 =
METAR KSTE 080815Z AUTO 26006KT 7SM SCT006 BKN016 OVC032 22/21 
     A2999 RMK AO2=
METAR KSUW 080815Z AUTO 28004KT 10SM CLR 17/14 A3001 RMK AO2=
SPECI KTAN 080818Z AUTO 14003KT 10SM SCT006 21/21 A3004 RMK AO2=
METAR KVBS 080815Z AUTO 13024KT 10SM SCT021 BKN027 29/25 A2992 RMK
     A01=
METAR KVNP 080815Z AUTO 12013G19KT 8SM 28/26 A2996 RMK A01=
####018003671####
SAUS99 KWBC 080820 RRA
METAR
KAUM 080815Z AUTO 31004KT 10SM CLR 18/17 A3007 RMK AO2=
KFFX 080815Z AUTO 00000KT 7SM OVC065 22/22 A3002 RMK AO2=
KCNB 080817Z AUTO 24004KT 10SM CLR 16/13 A3013 RMK AO2
     T01550129=
KCKN 080815Z AUTO 25003KT 10SM CLR 14/12 A3004 RMK AO2=
KCFE 080815Z AUTO 27003KT 10SM CLR 18/16 A3009 RMK AO2
     T01760162=
KCQM 080817Z AUTO 24003KT 10SM CLR 14/14 A3004 RMK AO2=
KDTL 080815Z AUTO 27005KT 10SM CLR 17/11 A3009 RMK AO2=
KBDH 080815Z AUTO 28003KT 10SM CLR 16/14 A3012 RMK AO2=
KCBG 080815Z AUTO 29003KT 10SM CLR 16/14 A3007 RMK AO2=
KADC 080817Z AUTO 24004KT 10SM CLR 13/12 A3008 RMK AO2=
KHAF 080810Z AUTO 27003KT 9SM OVC008 12/10 A2995 RMK AO2=
KCKC 080815Z AUTO 30004KT 10SM CLR 16/13 A3002 RMK AO2=
KJYG 080815Z AUTO 00000KT 10SM CLR 17/17 A3012 RMK AO2=
KCOQ 080816Z AUTO 29006KT 10SM CLR 14/14 A3005 RMK AO2=
KACQ 080818Z AUTO 31003KT 10SM CLR 17/16 A3011 RMK AO2=
KRGK 080815Z AUTO 28004KT 10SM CLR 19/18 A3004 RMK AO2=
KFSE 080814Z AUTO 20003KT 10SM CLR 13/12 A3004 RMK AO2=
KY70 080815Z AUTO 25006KT 10SM BKN055 BKN075 OVC120 24/21 A3003
     RMK AO2 T02410212=
KUKT 080810Z AUTO 00000KT 5SM CLR 21/20 A3003 RMK AO1=
K4M9 080815Z AUTO 18004KT 9SM CLR 25/25 A3004 RMK AO2=
KAEJ 080815Z AUTO 00000KT 10SM OVC044 10/09 A3046 RMK AO2=
KBBF 080915Z AUTO 13022G28KT 1 1/2SM BR SCT003 BKN026 OVC042 28/26
     A2980 RMK A01 VIS 1V3=
KBQX 080815Z AUTO 12020G25KT 10SM FEW020 BKN049 OVC055 29/26 A2984
     RMK A01=
KDCM 080815Z AUTO 28004KT 7SM CLR 23/22 A3000 RMK AO2 LTG DSNT
     E=
KDLP 080815Z AUTO 10SM SCT017 29/25 A2998 RMK A01=
KEDU 080815Z AUTO 18005KT 10SM CLR 15/10 A2981 RMK AO1=
KEHC 080815Z AUTO 11025KT FEW043 29/25 A2991 RMK A01=
KEIR 080815Z AUTO VRB06G14KT 9SM FEW016 FEW022 28/25 A2995 RMK
     A01=
KEMK 080815Z AUTO 13032KT 6SM HZ FEW017 FEW028 SCT055 28/26 A2985
     RMK A01=
KGBK 080815Z AUTO 09013G23KT 10SM CLR 29/25 A2988 RMK A01=
KGYH 080815Z AUTO 31003KT 10SM CLR 24/19 A3002 RMK AO2=
KHQI 080815Z AUTO 10033KT 6SM HZ FEW044 SCT060 BKN075 27/24 A2989
     RMK A01=
KHXD 080815Z AUTO 22006KT 10SM CLR 24/21 A2998 RMK AO2 P0000=
KHYW 080815Z AUTO 00000KT 10SM BKN095 BKN120 25/23 A2994 RMK
     AO2=
KIPN 080815Z AUTO 09011KT 10SM CLR /59 A2998 RMK A01=
KJZI 080815Z AUTO 28008KT 10SM CLR 24/23 A2996 RMK A02 P000=
KMCJ 080815Z AUTO 11007KT 10SM CLR 27/24 A2989 RMK AO1=
KMDJ 080815Z AUTO 13015KT 10SM BKN019 BKN060 29/25 A2998 RMK
     A01=
KMDZ 080815Z AUTO 31003KT 4SM BR BKN001 19/19 A3002 RMK AO2=
KMHR 080815Z AUTO 17006KT 10SM CLR 14/10 A2984 RMK AO1=
KMIU 080815Z AUTO 12017KT 10SM FEW021 SCT060 BKN075 29/26 A2981
     RMK A01=
KMRJ 080815Z AUTO 26004KT 10SM CLR 21/19 A3002 RMK AO2
     T02050188=
KMWC 080815Z AUTO 17005KT 7SM SCT060 BKN070 BKN100 21/20 A3001 RMK
     AO2=
KMYT 080815Z AUTO 14015KT 9SM FEW019 28/24 A2995 RMK A01=
KMZG 080815Z AUTO VRB03KT 9SM SCT028 SCT050 BKN060 28/25 A2981 RMK
     A01=
KOEO 080815Z AUTO 00000KT 10SM SCT042 18/17 A3007 RMK AO2=
KPBH 080815Z AUTO 00000KT 1/4SM FG OVC001 21/19 A3003 RMK AO2=
KPCZ 080815Z AUTO 00000KT 5SM BR OVC004 22/21 A2997 RMK AO2
     T02230210=
KPDC 080813Z AUTO 25003KT 7SM OVC006 23/21 A3001 RMK AO2
     T02250212=
KRCX 080815Z AUTO 30005KT 10SM SCT008 19/18 A3003 RMK AO2
     T01910183=
KRNH 080816Z AUTO 31004KT 10SM SCT044 18/17 A3006 RMK AO2
     T01780167=
KRPD 080814Z AUTO 30005KT 10SM CLR 19/17 A3004 RMK AO2
     T01850172=
KRRL 080815Z AUTO 00000KT 5SM BR CLR 18/17 A3001 RMK AO2
     T01770174=
KRYV 080815Z AUTO 00000KT 10SM SCT012 OVC090 23/20 A3000 RMK
     AO2=
####018003713####
SAUS99 KWBC 080820
METAR
KTEW 080813Z AUTO 00000KT 7SM CLR 21/20 A3004 RMK AO2=
KCVH 080810Z AUTO 00000KT 10SM OVC012 12/11 A2993 RMK AO1=
KDYT 080814Z AUTO 30007KT 10SM CLR 21/16 A3003 RMK AO2=
KFSO 080818Z AUTO 00000KT 5SM BR CLR 23/22 A3000 RMK AO2=
KFBL 080814Z AUTO 30004KT 10SM CLR 18/16 A3008 RMK AO2=
KLYV 080818Z AUTO 00000KT 10SM CLR 14/13 A3016 RMK AO2=
KEFK 080815Z AUTO 20003KT 7SM BKN055 21/19 A3006 RMK AO2=
KRRT 080814Z AUTO 24006KT 10SM CLR 16/13 A3000 RMK AO2=
KTOB 080814Z AUTO 00000KT 10SM CLR 18/17 A3008 RMK AO2=
KLXL 080814Z AUTO 00000KT 3SM BR 12/11 A3008 RMK AO2 SKY
     OBSCURED=
KEVM 080812Z AUTO 00000KT 10SM CLR 13/12 A3002 RMK AO1=
KELO 080813Z AUTO 00000KT 10SM CLR 13/13 A3002 RMK AO2=
KANE 080815Z AUTO 27004KT 10SM 18/17 A3008 RMK AO2=
KROX 080814Z AUTO 26004KT 10SM CLR 16/13 A3000 RMK AO2=
KSYN 080830Z AUTO 32004KT 10SM CLR 19/17 A3006 RMK AO2
     T01850168=
KVVV 080816Z AUTO 00000KT 10SM CLR 16/14 A3011 RMK AO2=
KROS 080815Z AUTO 27003KT 10SM CLR 16/15 A3006 RMK AO2
     T01600148=
KHCD 080812Z AUTO 26003KT 7SM CLR 14/13 A3010 RMK AO2
     T01380128=
KSGS 080813Z AUTO 32005KT 10SM CLR 20/17 A3006 RMK AO2
     T02000165=
KMJQ 080812Z AUTO 29004KT 10SM CLR 15/14 A3014 RMK AO2=
KHCO 080814Z AUTO 20003KT 10SM CLR 13/12 A3004 RMK AO2=
KLVN 080808Z AUTO 32006KT 10SM CLR 18/17 A3007 RMK AO2=
KPEX 080813Z AUTO 26005KT 5SM BR CLR 13/12 A3011 RMK AO2
     T01250123=
KJMR 080818Z AUTO 31004KT 10SM CLR 15/13 A3008 RMK AO2=
KJKJ 080814Z AUTO 23005KT 10SM CLR 16/15 A3006 RMK AO2=
KMVE 080814Z AUTO 28004KT 10SM CLR 17/16 A3010 RMK AO2=
KTKC 080813Z AUTO 25005KT 10SM CLR 16/14 A3013 RMK AO2
     T01550137=
KGYL 080814Z AUTO 00000KT 10SM CLR 15/15 A3009 RMK AO2
     T01540145=
KDXX 080814Z AUTO 00000KT 10SM CLR 14/14 A3011 RMK AO2=
KHZX 080811Z AUTO 00000KT 1 3/4SM VV007 13/13 A3007 RMK AO2 VIS
     1/2V5=
KSAZ 080814Z AUTO 00000KT 10SM CLR 15/15 A3008 RMK AO2=
KONA 080811Z AUTO 00000KT 7SM CLR 20/18 A3002 RMK AO2=
KOVL 080812Z AUTO 28003KT 10SM CLR 14/12 A3011 RMK AO2
     T01360122=
KLJF 080812Z AUTO 29003KT 10SM CLR 18/16 A3011 RMK AO2=
KAEL 080811Z AUTO 32003KT 10SM SCT029 18/17 A3008 RMK AO2=
K29G 080814Z AUTO 00000KT 7SM BKN060 20/19 A3009 RMK AO2 T02040185
     PWINO=
KMRT 080813Z AUTO 00000KT 5SM CLR 21/19 A3010 RMK AO2
     T02070190=
KIKW 080813Z AUTO 00000KT 1 1/2SM BR VV007 21/20 A3000 RMK AO2
     T02140203=
KMDS 080805Z AUTO 27005KT 10SM CLR 15/15 A3017 RMK AO2=
KFPK 080816Z AUTO 20003KT 7SM CLR 20/20 A3002 RMK AO2=
KMOP 080814Z AUTO 00000KT 7SM SCT060 SCT070 BKN120 22/22 A3001 RMK
     AO2=
KCAD 080814Z AUTO 22009KT 10SM CLR 22/21 A3004 RMK AO2=
KMGN 080815Z AUTO 00000KT 7SM SCT110 21/20 A2997 RMK AO2=
KHAI 080815Z AUTO 00000KT 7SM CLR 22/21 A3004 RMK AO2=
KLWA 080816Z AUTO 00000KT 7SM BKN050 BKN065 OVC110 23/22 A3004 RMK
     AO2=
KDRM 080816Z AUTO 14003KT 10SM BKN110 20/20 A2996 RMK AO2=
KVLL 080814Z AUTO 00000KT 10SM CLR 26/20 A3005 RMK AO2=
KCFS 080815Z AUTO 00000KT 1 1/2SM BR VV007 20/20 A3002 RMK AO2=
KOZW 080815Z AUTO 00000KT 7SM CLR 22/20 A3004 RMK AO2=
KRNP 080815Z AUTO 00000KT 10SM CLR 22/21 A3002 RMK AO2=
KDUH 080815Z AUTO 00000KT 10SM CLR 22/18 A3004 RMK AO2=
KJYM 080815Z AUTO 00000KT 7SM CLR 21/19 A3006 RMK AO2=
KBAX 080815Z AUTO 00000KT 4SM BR CLR 21/20 A3001 RMK AO2=
KIRS 080815Z AUTO 00000KT 7SM CLR 22/19 A3004 RMK AO2=
KACB 080815Z AUTO 19003KT 10SM CLR 24/21 A2998 RMK AO2=
KRQB 080815Z AUTO 26005KT 10SM SCT080 OVC085 23/21 A3003 RMK
     AO2=
KOEB 080815Z AUTO 00000KT 10SM CLR 23/20 A3005 RMK AO2=
K4I3 080816Z AUTO 00000KT 10SM CLR 20/18 A3009 RMK AO2=
####018000442####
SAUS99 KWBC 080820 RRB
METAR
KSCF 080820Z AUTO 15020KT 8SM SCT017 SCT023 SCT029 29/25 A2990 RMK
     A01=
KSPF 080815Z AUTO 00000KT 10SM CLR 10/08 A3028 RMK AO2=
KSTE 080815Z AUTO 26006KT 7SM SCT006 BKN016 OVC032 22/21 A2999 RMK
     AO2=
KSUW 080815Z AUTO 28004KT 10SM CLR 17/14 A3001 RMK AO2=
KVBS 080815Z AUTO 13024KT 10SM SCT021 BKN027 29/25 A2992 RMK
     A01=
KVNP 080815Z AUTO 12013G19KT 8SM 28/26 A2996 RMK A01=
####018000236####
SPUS99 KWBC 080820
SPECI
KFOK 080818Z AUTO 00000KT 5SM BR SCT003 OVC075 24/22 A3004 RMK AO2
     TSNO=
KLHQ 080818Z AUTO 00000KT 2 1/2SM BR CLR 19/19 A3008 RMK AO2=
KTAN 080818Z AUTO 14003KT 10SM SCT006 21/21 A3004 RMK AO2=
####018000272####
SAAF17 LFPW 080800 RRA
METAR HEAX 080800Z 29010KT 9999 SCT020 29/21 Q1010=
METAR HEBL 080800Z 03014KT CAVOK 38/09 Q1011=
METAR HEGN 080800Z 34023KT CAVOK 34/19 Q1006=
METAR HEMM 080800Z 31010KT CAVOK 27/22 Q1012=
METAR HLLT 080800Z 00000KT 7000 SCT020 27/19 Q1019=
####018000235####
SPUS80 KWBC 080820
SPECI
KCRP 080816Z 36005KT 10SM -TSRA FEW011CB BKN038 BKN060 26/25 A2983
     RMK AO2 TSB16 OCNL LTGIC SW-W TS SW-W MOV W P0000=
KWAL 080813Z AUTO 12004KT 9SM FEW007 OVC095 24/23 A2998 RMK AO2
     TSNO=
####018000112####
SPUS80 KWBC 080820 CCA
SPECI
KWAL 080813Z AUTO 12004KT 9SM FEW007 OVC095 24/23 A2998 RMK AO2
     TSNO=
####018000283####
SAUS80 KWBC 080820
METAR
KCLI 080815Z AUTO 21003KT 7SM BKN007 22/21 A2997 RMK AO2=
KDVK 080817Z AUTO 00000KT 5SM 21/19 A3008 RMK AO1=
KMYT 080815Z AUTO 14015KT 9SM FEW019 28/24 A2995 RMK A01=
KSCF 080820Z AUTO 15020KT 8SM SCT017 SCT023 SCT029 29/25 A2990 RMK
     A01=
####018000081####
SAAF31 KWBC 080800 RRD
METAR
DNIL 080800Z 17003KT 9999 BKN009 25/22 Q1012=
####018000148####
SAXX60 KWBC 080820
METAR
KGBK 080815Z AUTO 09013G23KT 10SM CLR 29/25 A2988 RMK A01=
KMHR 080815Z AUTO 17006KT 10SM CLR 14/10 A2984 RMK AO1=
####018001605####
SAUS70 KWBC 080820 RRA
METAR
KJZI 080815Z AUTO 28008KT 10SM CLR 24/23 A2996 RMK A02 P000=
KMCJ 080815Z AUTO 11007KT 10SM CLR 27/24 A2989 RMK AO1=
KMDJ 080815Z AUTO 13015KT 10SM BKN019 BKN060 29/25 A2998 RMK
     A01=
KMDZ 080815Z AUTO 31003KT 4SM BR BKN001 19/19 A3002 RMK AO2=
KMIU 080815Z AUTO 12017KT 10SM FEW021 SCT060 BKN075 29/26 A2981
     RMK A01=
KMRJ 080815Z AUTO 26004KT 10SM CLR 21/19 A3002 RMK AO2
     T02050188=
KMWC 080815Z AUTO 17005KT 7SM SCT060 BKN070 BKN100 21/20 A3001 RMK
     AO2=
KMZG 080815Z AUTO VRB03KT 9SM SCT028 SCT050 BKN060 28/25 A2981 RMK
     A01=
KOEO 080815Z AUTO 00000KT 10SM SCT042 18/17 A3007 RMK AO2=
KPBH 080815Z AUTO 00000KT 1/4SM FG OVC001 21/19 A3003 RMK AO2=
KPCZ 080815Z AUTO 00000KT 5SM BR OVC004 22/21 A2997 RMK AO2
     T02230210=
KPDC 080813Z AUTO 25003KT 7SM OVC006 23/21 A3001 RMK AO2
     T02250212=
KRCX 080815Z AUTO 30005KT 10SM SCT008 19/18 A3003 RMK AO2
     T01910183=
KRNH 080816Z AUTO 31004KT 10SM SCT044 18/17 A3006 RMK AO2
     T01780167=
KRPD 080814Z AUTO 30005KT 10SM CLR 19/17 A3004 RMK AO2
     T01850172=
KRRL 080815Z AUTO 00000KT 5SM BR CLR 18/17 A3001 RMK AO2
     T01770174=
KRYV 080815Z AUTO 00000KT 10SM SCT012 OVC090 23/20 A3000 RMK
     AO2=
KSPF 080815Z AUTO 00000KT 10SM CLR 10/08 A3028 RMK AO2=
KSTE 080815Z AUTO 26006KT 7SM SCT006 BKN016 OVC032 22/21 A2999 RMK
     AO2=
KSUW 080815Z AUTO 28004KT 10SM CLR 17/14 A3001 RMK AO2=
KVBS 080815Z AUTO 13024KT 10SM SCT021 BKN027 29/25 A2992 RMK
     A01=
KVNP 080815Z AUTO 12013G19KT 8SM 28/26 A2996 RMK A01=
####018003746####
SAUS70 KWBC 080820
METAR
KTZR 080817Z AUTO 00000KT 7SM CLR 21/19 A3008 RMK AO2=
KULM 080815Z AUTO 28004KT 10SM CLR 14/13 A3011 RMK AO2=
KUNI 080815Z AUTO 00000KT 5SM HZ CLR 22/17 A3007 RMK AO2
     T02210173=
KVES 080814Z AUTO 00000KT 5SM BR CLR 20/19 A3007 RMK AO2
     T02000191=
KY63 080820Z AUTO 22005KT 10SM CLR 15/14 A3009 RMK AO2
     T01500143=
K14Y 080818Z AUTO 00000KT 5SM BR CLR 15/14 A3010 RMK AO2
     T01450143=
K1A6 080815Z AUTO 00000KT 4SM BR CLR 21/21 A3010 RMK AO2=
KAIG 080815Z AUTO 30005KT 7SM BKN001 OVC031 19/18 A3000 RMK
     AO2=
KAIT 080813Z AUTO 00000KT 4SM BR CLR 12/11 A3006 RMK AO2=
KARV 080812Z AUTO 30003KT 10SM SCT028 19/18 A3003 RMK AO2
     T01870177=
KATW 080815Z AUTO 20008KT 10SM CLR 22/20 A2997 RMK AO2=
KBBB 080813Z AUTO 00000KT 10SM CLR 14/14 A3011 RMK AO2=
KBWP 080811Z AUTO 26003KT 10SM CLR 15/13 A3008 RMK AO1
     T01470132=
KCWA 080815Z AUTO 32006KT 10SM CLR 19/19 A3000 RMK AO2
     T01930192=
KEFT 080815Z AUTO 29003KT 10SM BKN070 OVC100 21/20 A3001 RMK AO2
     T02080198=
KEGV 080812Z AUTO 00000KT 4SM BR OVC002 19/19 A3001 RMK AO2
     T01870188=
KETB 080812Z AUTO 00000KT 7SM SCT110 22/21 A2999 RMK AO2
     T02160206=
KEZS 080815Z AUTO 24003KT 10SM OVC005 22/22 A2996 RMK AO2
     T02240215=
KFFM 080813Z AUTO 19004KT 10SM CLR 15/14 A3007 RMK AO2=
KFGN 080814Z AUTO 26009KT 3/4SM DZ VV005 18/13 A2996 RMK AO2=
KGDB 080813Z AUTO 25004KT 10SM CLR 15/14 A3013 RMK AO2
     T01450141=
KGHW 080813Z AUTO 23005KT 10SM CLR 14/13 A3013 RMK AO2=
KGLW 080813Z AUTO 00000KT 7SM CLR 21/20 A3007 RMK AO2
     T02080195=
KHFJ 080815Z AUTO 00000KT 10SM BKN020 OVC029 23/23 A3003 RMK
     AO1=
KJVL 080815Z AUTO 21003KT 10SM -DZ SCT060 SCT065 OVC090 22/20
     A2999 RMK AO2 T02230201=
KLCK 080815Z AUTO 00000KT 5SM BR CLR 23/21 A3006 RMK AO2
     T02260210=
KLNL 080815Z AUTO 00000KT 5SM BR SCT012 SCT050 19/18 A3003 RMK AO2
     T01880183=
KLUM 080815Z AUTO 28003KT 10SM CLR 20/18 A3003 RMK AO2=
KMGG 080815Z AUTO 28004KT 10SM CLR 16/15 A3009 RMK AO2
     T01570154=
KMOX 080810Z AUTO 24004KT 10SM CLR 16/14 A3007 RMK AO2=
KMWM 080813Z AUTO 27005KT 10SM CLR 14/14 A3013 RMK AO2=
KMWO 080815Z AUTO 00000KT 3SM BR CLR 20/20 A3008 RMK AO2=
KPNM 080813Z AUTO 28003KT 1 1/4SM BR CLR 14/14 A3008 RMK AO2 VIS
     1V5=
KPQN 080813Z AUTO 31004KT 10SM CLR 17/15 A3016 RMK AO2=
KPVB 080813Z AUTO 30004KT 7SM SCT003 SCT120 20/19 A3002 RMK AO1
     T01970190=
KPWC 080813Z AUTO 00000KT 1/2SM FG BKN001 11/10 A3008 RMK AO2=
KRZN 080814Z AUTO 30005KT 10SM OVC047 19/16 A3005 RMK AO2
     T01890162=
KSME 080815Z AUTO 00000KT 5SM BR 21/20 A3008 RMK AO2=
KTWM 080813Z AUTO 00000KT 10SM BKN060 17/14 A3001 RMK AO2=
K4M9 080815Z AUTO 18004KT 9SM CLR 25/25 A3004 RMK AO2=
KAEJ 080815Z AUTO 00000KT 10SM OVC044 10/09 A3046 RMK AO2=
KBBF 080915Z AUTO 13022G28KT 1 1/2SM BR SCT003 BKN026 OVC042 28/26
     A2980 RMK A01 VIS 1V3=
KBQX 080815Z AUTO 12020G25KT 10SM FEW020 BKN049 OVC055 29/26 A2984
     RMK A01=
KDCM 080815Z AUTO 28004KT 7SM CLR 23/22 A3000 RMK AO2 LTG DSNT
     E=
KDLP 080815Z AUTO 10SM SCT017 29/25 A2998 RMK A01=
KEHC 080815Z AUTO 11025KT FEW043 29/25 A2991 RMK A01=
KEIR 080815Z AUTO VRB06G14KT 9SM FEW016 FEW022 28/25 A2995 RMK
     A01=
KEMK 080815Z AUTO 13032KT 6SM HZ FEW017 FEW028 SCT055 28/26 A2985
     RMK A01=
KGYH 080815Z AUTO 31003KT 10SM CLR 24/19 A3002 RMK AO2=
KHQI 080815Z AUTO 10033KT 6SM HZ FEW044 SCT060 BKN075 27/24 A2989
     RMK A01=
KHXD 080815Z AUTO 22006KT 10SM CLR 24/21 A2998 RMK AO2 P0000=
KHYW 080815Z AUTO 00000KT 10SM BKN095 BKN120 25/23 A2994 RMK
     AO2=
KIPN 080815Z AUTO 09011KT 10SM CLR /59 A2998 RMK A01=
####018000437####
SPUS70 KWBC 080820
SPECI
KBMQ 080817Z AUTO 10003KT 10SM FEW008 SCT013 BKN046 24/22 A3001
     RMK AO2 $=
KCNM 080817Z AUTO 25007KT 6SM RA BR BKN009 BKN020 OVC030 21/19
     A3012 RMK AO2 LTG DSNT SE CIG 007V013 P0007=
KFOK 080818Z AUTO 00000KT 5SM BR SCT003 OVC075 24/22 A3004 RMK AO2
     TSNO=
KLHQ 080818Z AUTO 00000KT 2 1/2SM BR CLR 19/19 A3008 RMK AO2=
KTAN 080818Z AUTO 14003KT 10SM SCT006 21/21 A3004 RMK AO2=
####018000387####
SAAF35 KWBC 080800 RRA
METAR
HEAX 080800Z 29010KT 9999 SCT020 29/21 Q1010=
HEBL 080800Z 03014KT CAVOK 38/09 Q1011=
HECA 080800Z 33006KT CAVOK 29/18 Q1011=
HEGN 080800Z 34023KT CAVOK 34/19 Q1006=
HEMM 080800Z 31010KT CAVOK 27/22 Q1012=
HEPS 080800Z 26007KT 9999 SCT025 28/21 Q1010=
HESC 080800Z 05008KT CAVOK 28/12 Q1018=
HLLT 080800Z 00000KT 7000 SCT020 27/19 Q1019=
####018000075####
SAAF36 KWBC 080800 RRC
METAR
HEMA 080800Z 01017KT CAVOK 33/19 Q1007=
####018000028####
SAAW34 KWBC 080815
NIL=
####018000081####
SPCN31 KWBC 080820
SPECI
CYMH 080817Z AUTO 18005KT 9SM OVC005 07/06 A3011=
####018000028####
SADL33 KWBC 080815
NIL=
####018000486####
SAXX99 KWBC 080800 RRP
METAR
CWBU 080800Z AUTO 27006KT 09/08 RMK AO1 SLP177 T00920080 50002=
CZEV 080800Z AUTO 32011KT 07/04 RMK AO1 PK WND 33020/0701 SLP176
     T00660039 51013=
CZHY 080800Z AUTO 31006KT 16/12 RMK AO1 SLP140 T01630115 51001=
EYPA 080820Z 35008KT 310V030 CAVOK 21/16 Q1018 NOSIG=
HEAR 080800Z 35003KT CAVOK 30/20 Q1009=
HEAT 080800Z 36009KT CAVOK 32/13 Q1011=
HEIS 080800Z 28007KT 9999 FEW025 29/19 Q1010=
HESH 080800Z 02014KT CAVOK 34/14 Q1007=
####018000114####
SAUS41 KAKQ 080820 COR
MTRWAL
SPECI KWAL 080813Z AUTO 12004KT 9SM FEW007 OVC095 24/23 A2998 RMK 
AO2 TSNO
####018000159####
SAAM31 FCBB 080800 RRA
METAR FEFF 080800Z 31004KT 9999 FEW016 BKN150 23/23 Q1015 NOSIG=
METAR FPST 080800Z 17008KT 9999 FEW025 SCT250 26/20 Q1015 NOSIG=
####018000103####
SPUS52 KWBC 080820
SPECI
KCNM 080817Z AUTO 25007KT 6SM RA BR BKN009 BKN020 OVC030 21/19
A3012=
####018000071####
SASA KAWN 080800 RRE
METAR SAOC 080800Z 36015KT 9999 04/M01 Q1016=
####018000083####
SALT33 EYVI 080820
METAR EYPA 080820Z 35008KT 310V030 CAVOK 21/16 Q1018 NOSIG=
####018000111####
SATH31 VTBB 080800 RRA
METAR VTCT 080800Z 20008KT 9999 BKN025 BKN100 33/21 Q1006 A2971
RMK/RWY03 INFO I=
####018000079####
SAMP31 LMMM 080800 RRC
METAR HLLT 080800Z 00000KT 7000 SCT020 27/19 Q1019=
####018000103####
SPUS72 KWBC 080820
SPECI
KCNM 080817Z AUTO 25007KT 6SM RA BR BKN009 BKN020 OVC030 21/19
A3012=
####018000101####
SAUS46 KLOX 080820
MTR3A6
METAR K3A6 080910Z AUTO 36003KT 11/10 A2990 RMK AO1 SLP145 T01110101
