####018000097####
SAPQ31 KWBC 081400 RRA
METAR
PTRO 081359Z 07005KT 14SM BKN016CB BKN120 OVC300 26/24 A2992=
####018001284####
SAAU32 AMMC 081400
METAR YAMB 081400Z AUTO 22001KT 9999NDV // SCT100 11/09 Q1021=
METAR YBCG 081400Z AUTO 19012KT 9999NDV // BKN100 15/12 Q1021=
METAR YBHM 081400Z AUTO 15014KT //// // ////// 18/15 Q1018=
METAR YBMA 081400Z AUTO 00000KT 6000NDV // NCD 08/07 Q1020=
METAR YBRK 081400Z AUTO 27003KT 9999NDV // OVC030 13/12 Q1019=
METAR YBRM 081400Z AUTO 36004KT 9999NDV // BKN026 OVC031 23/22 Q1012=
METAR YCIN 081400Z AUTO 09007KT //// // ////// 22/18 Q1013=
METAR YFRT 081400Z AUTO 03007KT //// // ////// 11/03 Q1013=
METAR YMAV 081400Z AUTO 32003KT 9999NDV // BKN046 07/04 Q1028=
METAR YMHB 081400Z 31006KT CAVOK 02/01 Q1030=
METAR YMLT NIL=
METAR YPEA 081400Z AUTO 36009KT 9999NDV // BKN062 BKN071 13/12 Q0996=
METAR YPGV 081400Z AUTO 16008KT 9999NDV // SCT012 SCT021 BKN033 24/22 Q1014=
METAR YPKG 081400Z AUTO 35005KT 9999NDV // NCD 16/05 Q1003=
METAR YPPD 081400Z AUTO 03003KT 5000NDV // OVC029 22/21 Q1010=
METAR YSCB 081400Z AUTO 00000KT 9999NDV // SCT025 02/01 Q1028=
METAR YSDU 081400Z AUTO 16010KT 9999NDV // NCD 07/05 Q1026=
METAR YSNF 081400Z AUTO 12009KT 9999NDV // OVC041 15/08 Q1018=
METAR YSRI 081400Z AUTO 21004KT 9999NDV // SCT044 SCT061 OVC071 10/10 Q1027=
METAR YWLM 081400Z AUTO 29005KT 9999NDV // ////// 09/09 Q1026=

####018000438####
SAUS20 KNKA 081414
SPECI K7R3 081408Z 08006KT 7SM BKN011 OVC018 28/25 A3003 RMK
     DA1500=
SPECI KAZO 081413Z 00000KT 1 1/4SM RA FEW018 BKN025 OVC085 25/22 
    A3004 RMK AO2 RAB1359 P0002=
SPECI KCEC 081413Z AUTO 00000KT 1SM BR OVC001 10/09 A2998 RMK AO2=
SPECI KDAW 081413Z AUTO VRB03KT 5SM HZ SCT015 27/21 A3008 RMK AO2=
SPECI KDFW 081413Z 13006KT 8SM -RA SCT009 BKN014 OVC060 26/24 A3004 
    RMK AO2 RAB08 P0000=
####018000110####
SAAK27 PADN 081415
METAR PAWI 081411Z 22015G22KT 10SM CLR 08/04 A2998 RMK ASOS VIA
PHONE=
$$



####018001281####
SAAU32 AMMC 081400
METAR YAMB 081400Z AUTO 22001KT 9999NDV // SCT100 11/09 Q1021=
METAR YBCG 081400Z AUTO 19012KT 9999NDV // BKN100 15/12 Q1021=
METAR YBHM 081400Z AUTO 15014KT //// // ////// 18/15 Q1018=
METAR YBMA 081400Z AUTO 00000KT 6000NDV // NCD 08/07 Q1020=
METAR YBRK 081400Z AUTO 27003KT 9999NDV // OVC030 13/12 Q1019=
METAR YBRM 081400Z AUTO 36004KT 9999NDV // BKN026 OVC031 23/22 Q1012=
METAR YCIN 081400Z AUTO 09007KT //// // ////// 22/18 Q1013=
METAR YFRT 081400Z AUTO 03007KT //// // ////// 11/03 Q1013=
METAR YMAV 081400Z AUTO 32003KT 9999NDV // BKN046 07/04 Q1028=
METAR YMHB 081400Z 31006KT CAVOK 02/01 Q1030=
METAR YMLT NIL=
METAR YPEA 081400Z AUTO 36009KT 9999NDV // BKN062 BKN071 13/12 Q0996=
METAR YPGV 081400Z AUTO 16008KT 9999NDV // SCT012 SCT021 BKN033 24/22 Q1014=
METAR YPKG 081400Z AUTO 35005KT 9999NDV // NCD 16/05 Q1003=
METAR YPPD 081400Z AUTO 03003KT 5000NDV // OVC029 22/21 Q1010=
METAR YSCB 081400Z AUTO 00000KT 9999NDV // SCT025 02/01 Q1028=
METAR YSDU 081400Z AUTO 16010KT 9999NDV // NCD 07/05 Q1026=
METAR YSNF 081400Z AUTO 12009KT 9999NDV // OVC041 15/08 Q1018=
METAR YSRI 081400Z AUTO 21004KT 9999NDV // SCT044 SCT061 OVC071 10/10 Q1027=
METAR YWLM 081400Z AUTO 29005KT 9999NDV // ////// 09/09 Q1026=
####018000099####
SPAU31 AMMC 081415
SPECI YPPD 081415Z AUTO 32003KT 4200NDV // BKN027 OVC047 22/21 Q1010=


####018000093####
SPAU31 AMMC 081415
SPECI YPPD 081415Z AUTO 32003KT 4200NDV // BKN027 OVC047 22/21 Q1010=
####018000103####
SPUS53 KWBC 081415
SPECI
KHTL 081412Z AUTO 26006KT 2SM RA BR FEW009 BKN025 OVC038 22/21
A3005=
####018000168####
SAUS53 KWBC 081400 RRD
METAR
KANW 081410Z AUTO 29004KT 10SM CLR 20/14 A3026=
KBIE 081410Z AUTO 03006KT 10SM CLR 21/18 A3016=
KEHA 081408Z AUTO 02013KT 17/16=
####018000556####
SABN32 OBBI 081400
METAR OMAA 081400Z 34009KT CAVOK 40/21 Q0998 A2948 NOSIG=
METAR OMAD 081400Z NIL=
METAR OMAL 081400Z 19006KT CAVOK 34/25 Q1002 A2959=
METAR OMDB 081400Z 01012KT 7000 NSC 40/22 Q0998 NOSIG=
METAR OMDW 081400Z 36013KT 9999 FEW030 38/23 Q0999 NOSIG=
METAR OMFJ 081400Z 12007KT 7000 NSC 34/24 Q1001 A2956=
METAR OMRK 081400Z 34008KT CAVOK 40/35 Q0998 A2947=
METAR OMSJ 081400Z 35006KT 7000 NSC 40/21 Q0999=
METAR OOMS 081400Z 06005KT 6000 SCT025 BKN100 33/27
Q1000 NOSIG=
METAR OOSA 081400Z AUTO 17005KT 28/23 Q1003=
####018000082####
SAER32 OMAE 081400 RRA
METAR OMAD 081400Z 36010KT 9000 NSC 38/25 Q0998 A2949=
####018000085####
SAUS54 KWBC 081400 RRA
METAR
KIZA 081409Z AUTO 00000KT 7SM OVC007 13/11 A2993=
####018000083####
SAUS72 KWBC 081400 RRE
METAR
KLRU 081411Z AUTO 02009KT 10SM CLR 23/13 A3020=
####018002952####
SAUS20 KNKA 081415
METAR KPMV 081410Z AUTO 01006KT 10SM CLR 23/18 A3016 RMK AO2 
     T02280183=
METAR KAIZ 081415Z AUTO 00000KT 10SM SCT004 BKN011 BKN034 24/22 
    A3008 RMK AO1=
METAR KARG 081415Z AUTO 21006KT 10SM BKN095 27/23 A3008 RMK AO1=
METAR KAUO 081415Z AUTO 35003KT 10SM CLR 31/21 A3004 RMK AO1=
METAR KAWO 081415Z AUTO 00000KT 10SM CLR 17/14 A2999 RMK AO1=
METAR KBDN 081415Z AUTO 00000KT 10SM CLR 16/04 A3013 RMK AO2 =
METAR KBKX 081415Z AUTO 26005KT 10SM CLR 22/16 A3018 RMK AO1=
METAR KBVX 081415Z AUTO 24006KT 10SM OVC085 27/22 A3010 RMK AO1=
METAR KCGC 081415Z AUTO 00000KT 10SM CLR 28/21 A3001 RMK=
METAR KCIU 081415Z AUTO 01006KT 10SM BKN005 OVC014 19/18 A3000 RMK 
    AO1=
METAR KCOE 081415Z AUTO 04011KT 10SM CLR 18/09 A3010 RMK AO1=
METAR KCVN 081415Z AUTO 03012KT 10SM CLR 19/14 A3026 RMK AO1=
METAR KCVO 081415Z AUTO 28005KT 10SM CLR 14/09 A2995 RMK AO1=
METAR KCWI 081415Z 34006KT 10SM SCT008 23/22 A3007 RMK AO1=
SPECI KDMO 081414Z AUTO 00000KT 10SM OVC007 25/22 A3009 RMK AO2 CIG 
    005V010=
METAR KDVL 081415Z AUTO 31009KT 10SM CLR 18/11 A3011 RMK AO1=
METAR KDYB 081415Z AUTO 32005KT 10SM CLR 30/21 A2996 RMK AO1=
METAR KDYR 081415Z AUTO 29006KT 10SM CLR 29/21 A3008 RMK AO1=
METAR KEAR 081415Z AUTO 35006KT 10SM FEW060 19/16 A3026 RMK AO1=
METAR KEHR 081415Z AUTO 25004KT 10SM CLR 31/23 A3007 RMK AO1=
METAR KESC 081415Z AUTO 34005KT 10SM OVC012 22/17 A2999 RMK AO1=
METAR KEWK 081415Z AUTO 04006KT 10SM OVC010 22/19 A3011 RMK AO1=
METAR KFLP 081415Z AUTO 00000KT 10SM FEW070 SCT100 25/22 A3009 RMK 
    AO1=
METAR KFOD 081415Z AUTO 36005KT 10SM CLR 21/17 A3015 RMK AO1=
METAR KFRM 081415Z AUTO 10SM CLR 21/17 A3017 RMK AO1=
METAR KFTN 081415Z AUTO 04006KT 10SM SCT010 OVC020 26/23 A2994 RMK 
     AO1 =
METAR KGAD 081415Z AUTO 01004KT 10SM CLR 29/21 A3007 RMK AO1=
METAR KGAI 081415Z 14004KT 7SM CLR 29/22 A3005 RMK AO1 
     =
METAR KGBD 081415Z AUTO 01010KT 10SM OVC008 20/18 A3019 RMK AO1=
METAR KGPZ 081415Z AUTO 29006KT 10SM CLR 21/14 A3007 RMK AO1=
METAR KHEF 081415Z AUTO 00000KT 7SM CLR 30/23 A3002 RMK AO1=
METAR KHEZ 081415Z AUTO 12005KT 10SM CLR 27/23 A3008 RMK AO1=
METAR KHNB 081415Z AUTO 24003KT 10SM CLR 30/23 A3007 RMK AO1=
METAR KHYS 081415Z AUTO 04008KT 10SM OVC037 19/17 A3021 RMK AO1=
METAR KIWD 081415Z AUTO 33008KT 10SM CLR 21/16 A3003 RMK AO1=
METAR KKLS 081415Z AUTO 33004KT 10SM FEW006 14/13 A2996 RMK AO1=
METAR KLBL 081415Z 36011KT 9SM OVC006 19/17 A3025 RMK AO1=
METAR KLGD 081415Z AUTO 00000KT 10SM 14/07 A3009 RMK AO1=
METAR KLKV 081415Z AUTO 32008KT 10SM CLR 18/03 A3013 RMK AO1=
METAR KLXN 081410Z AUTO 34003KT 10SM OVC065 19/17 A3025 RMK AO2 
     T01920167=
METAR KMBL 081415Z AUTO 00000KT 5SM BKN005 BKN016 OVC032 22/20 A3002 
    RMK AO1=
METAR KMKT 081415Z 30006KT 10SM CLR 21/17 A3014 RMK AO1=
METAR KMLE 081410Z AUTO 00000KT 10SM CLR 22/16 A3016 RMK AO2 
     T02190157=
####018002190####
SAUS20 KNKA 081415
METAR KMMH 081410Z AUTO 00000KT 10SM CLR 10/03 A3024 RMK AO1=
METAR KMML 081415Z AUTO 28008KT 10SM CLR 22/16 A3014 RMK AO1=
METAR KMNI 081415Z AUTO 33006KT 10SM CLR 32/24 A2996 RMK AO2=
METAR KMNM 081415Z AUTO 01007KT 10SM OVC013 22/19 A3000 RMK AO1=
METAR KMRF 081415Z AUTO 06007KT 10SM CLR 22/16 A3021 RMK AO1=
METAR KMTW 081415Z 30005KT 9SM FEW010 OVC016 24/21 A3000 RMK AO1=
METAR KMVN 081415Z AUTO 22006KT 10SM BKN060 OVC120 29/23 A3006 RMK 
    AO1=
METAR KOGA 081410Z AUTO 00000KT 10SM SCT038 OVC100 17/16 A3030 
     RMK AO2 T01730157=
METAR KOLU 081415Z AUTO 35006KT 10SM CLR 21/16 A3020 RMK AO1=
METAR KONL 081410Z AUTO 31004KT 10SM CLR 21/15 A3024 RMK AO2 
     T02070151=
METAR KOTG 081415Z AUTO 30006KT 10SM CLR 21/15 A3018 RMK AO1=
METAR KOTH 081415Z 31003KT 10SM OVC006 10/08 A3000 RMK AO1=
METAR KPIB 081415Z AUTO 03004KT 10SM CLR 29/22 A3007 RMK AO1=
METAR KPNA 081410Z AUTO 30008KT 10SM SCT090 BKN110 10/03 A3041 
     RMK AO2 T01040029=
METAR KPTN 081415Z AUTO 09009KT 10SM BKN015 BKN019 29/M05 A3005 RMK 
    AO1=
METAR KPTT 081410Z AUTO 36008KT 4SM BR OVC006 20/19 A3018 RMK AO2=
METAR KPWT 081415Z AUTO 03008KT 10SM CLR 23/08 A2999 RMK AO1=
METAR KSGT 081415Z 21003KT 10SM CLR A3009 RMK AO1=
METAR KSKX 081415Z AUTO 36006KT 10SM CLR 16/06 A3041 RMK AO1=
METAR KSLG 081415Z AUTO 18005KT 1 3/4SM BKN013 OVC022 23/22 A3010 
    RMK AO1 P0026=
METAR KSOW 081410Z AUTO 18005KT 10SM SCT120 20/04 A3028 RMK AO2=
METAR KSPA 081415Z AUTO 00000KT 10SM CLR 31/24 A3003 RMK AO2=
METAR KSPL 081415Z AUTO 00000KT 27/25 A2975 RMK AO2 PWINO PNO =
METAR KSQI 081415Z 31005KT 10SM FEW009 BKN021 25/22 A3006 RMK AO1=
METAR KSUE 081415Z AUTO 34007KT 10SM FEW009 OVC016 22/20 A3003 RMK 
    AO1=
METAR KSZT 081410Z AUTO 00000KT 10SM CLR 15/10 A3011 RMK AO2=
METAR KTIF 081410Z AUTO 30003KT 10SM SCT120 20/15 A3028 RMK AO2 
     T01950145=
METAR KTVF 081415Z AUTO 29009KT 10SM CLR 19/13 A3007 RMK AO1=
METAR KUTA 081415Z AUTO 03003KT 10SM CLR 30/22 A3009 RMK AO2=
METAR KVBT 081415Z AUTO 17004KT 10SM OVC016 24/22 A3007 RMK AO1=
METAR KYKN 081415Z AUTO 26004KT 10SM CLR 22/16 A3020 RMK AO1=
####018000699####
SAXN17 KAWN 081400 RRG
METAR MKJP 081400Z 12012KT 9999 FEW022 BKN260 29/21 Q1013=
METAR MMGM 081404Z RTD 00000KT 10SM BKN075 28/17 A2977 RMK 8/070 HZY
      RTS=
METAR NCRG 081400Z 05008KT 9999 FEW012 SCT015 25/24 Q1017=
METAR NFTF 081400Z 00000KT 9999 FEW015 18/17 Q1015=
METAR PTRO 081359Z 07005KT 14SM BKN016CB BKN120 OVC300 26/24 A2992
      RMK CB VC ALQDS=
METAR SKBO 081400Z 03004KT 9999 SCT017 BKN070 15/11 A3035 RERA=
METAR SKBQ 081400Z 20004KT 8000 HZ SCT010 BKN070 28/26 A2992=
METAR SKCG 081400Z 07003KT 9999 SCT015 BKN070 28/25 A2990=
METAR SKCL 081400Z 00000KT 8000 FEW005 SCT020 BKN090 23/20 A3005=
METAR SKLT 081400Z 00000KT 9999 FEW015 SCT070 28/25 A2993=
####018001257####
SASA KAWN 081400 RRF
METAR SAAR 081400Z 34004KT 9000 NSC 13/05 Q1018=
METAR SADF 081400Z 32003KT CAVOK 13/04 Q1019=
METAR SANT 081400Z 18003KT 8000 13/06 Q1018=
METAR SAOC 081400Z 36016KT CAVOK 14/M10 Q1015=
METAR SARC 081400Z 11011KT 9999 FEW016 13/09 Q1019=
METAR SARE 081400Z 14009KT 9999 FEW008 13/09 Q1019=
METAR SARF 081400Z 16012KT 9999 OVC009 15/13 Q1018=
METAR SARL 081400Z 14018KT 9999 13/06 Q1021=
METAR SARP 081400Z 07006KT 9999 SCT005 BKN015 17/14 Q1018=
METAR SASJ 081400Z 00000KT CAVOK 17/09 Q1018=
METAR SAVC 081400Z 27014KT 9999 FEW040 06/M01 Q1002=
METAR SAWH 081400Z 00000KT 9999 FEW030 SCT100 00/M01 Q0982=
METAR SAZM 081400Z 32018KT CAVOK 12/03 Q1014=
METAR SKBG 081400Z VRB02KT 4000S BCFG SCT015 22/20 A3006=
METAR SKBO 081400Z 03004KT 9999 SCT017 BKN070 15/11 A3035 RERA=
METAR SKBQ 081400Z 20004KT 8000 HZ SCT010 BKN070 28/26 A2992=
METAR SKCG 081400Z 07003KT 9999 SCT015 BKN070 28/25 A2990=
METAR SKCL 081400Z 00000KT 8000 FEW005 SCT020 BKN090 23/20 A3005=
METAR SKLT 081400Z 00000KT 9999 FEW015 SCT070 28/25 A2993=
METAR SKMD 081400Z 00000KT 6000 SCT030 OVC080 20/15 A3014=
METAR SKPE 081400Z 00000KT 9999 FEW015 BKN080 21/18 A3014=
METAR SKSP 081400Z 09005KT 9999 FEW015 30/26 A2987=
####018000076####
SAMY31 MBPV 081402
METAR MBPV 081400 16006KT 9999 SCT012 32/25 A3000
####018000315####
SPUS17 KAWN 081415 RRA
SPECI KFSI 081411Z AUTO 36008KT 10SM SCT009 BKN015 26/22 A3006 RMK
      AO2 CIG 014V018 SLP165=
SPECI KFSI 081413Z AUTO 36008KT 10SM BKN014 26/22 A3006 RMK AO2 CIG
      009V018 SLP163=
SPECI KHLR 081406Z AUTO 03006KT 10SM BKN012 BKN023 OVC045 26/ A3003
      RMK AO2 T0261 $=
####018000769####
SPZZ40 KAWN 081415 RRB
SPECI KFSI 081411Z AUTO 36008KT 10SM SCT009 BKN015 26/22 A3006 RMK
      AO2 CIG 014V018 SLP165=
SPECI KFSI 081413Z AUTO 36008KT 10SM BKN014 26/22 A3006 RMK AO2 CIG
      009V018 SLP163=
SPECI KHLR 081406Z AUTO 03006KT 10SM BKN012 BKN023 OVC045 26/ A3003
      RMK AO2 T0261 $=
PACZ SP 1415 AWOS MM 10 49/47/0309/002=
PAEH SP 1415 AWOS M60 OVC 10 49/-19/1303/997=
SPECI RKJK 081410Z 03004KT 1200 R36/0550V0700 HZ FEW120 24/21 A2980
      RMK AO2A SLP091 $=
SPECI RKSO 081410Z AUTO 09004KT 6000 R27/1200V1400 -DZ BR CLR 22/22
      A2980 RMK AO2 RAE1401DZB1401 SLP091 $=
SPECI SAME 081407Z 09007KT 6000 FU NSC 09/M05 Q1015=
SPECI SLTR 081402Z METAR 15010KT 3000 -RA FEW008 SCT017 FEW020CB OVC070
      22/21 Q1015=
####018000119####
SAKA31 PTTP 081400
METAR PTTP 081358Z 00000KT 15SM SCT017TCU OVC300 24/23 A2986 RMK
 TCU NE SLP111 T02440228=
####018000084####
SAMC32 GMMC 081400 RRB
METAR GMTN 081400Z 03009KT 260V060 8000 NSC 27/19 Q1016=
####018000088####
SAMD90 KWBC 081415
METAR K2W6 081414Z AUTO 11007KT 10SM SCT019 28/22 A3003 RMK AO1=
####018000085####
SAMD90 KWBC 081415
METAR K2G4 081415Z AUTO 29003KT 10SM CLR 26/15 A3019 RMK AO1=
####018000087####
SAMD90 KWBC 081415
METAR KCGS 081415Z AUTO 13003KT 7SM SCT110 31/23 A3002 RMK AO1=
####018000085####
SAMD90 KWBC 081415
METAR KDMW 081413Z AUTO 00000KT 10SM CLR 31/22 A3005 RMK AO2=
####018000098####
SAMD90 KWBC 081415
METAR KCGE 081412Z AUTO 14007KT 10SM SCT065 SCT085 28/23 A3003 RMK 
AO1=
####018000084####
SAMD90 KWBC 081415
METAR KCBE 081414Z AUTO 00000KT 7SM CLR 28/20 A3009 RMK AO1=
####018000103####
SPUS81 KWBC 081415
SPECI
KHTL 081412Z AUTO 26006KT 2SM RA BR FEW009 BKN025 OVC038 22/21
A3005=
####018000120####
SPUS90 KWBC 081416
SPECI KHTL 081412Z AUTO 26006KT 2SM RA BR FEW009 BKN025 OVC038
     22/21 A3005 RMK AO2 P0002=
####018000638####
SAUS90 KWBC 081416
METAR K2G4 081415Z AUTO 29003KT 10SM CLR 26/15 A3019 RMK AO1=
METAR KCGE 081412Z AUTO 14007KT 10SM SCT065 SCT085 28/23 A3003 RMK
     AO1=
METAR KCBE 081414Z AUTO 00000KT 7SM CLR 28/20 A3009 RMK AO1=
METAR K2W6 081414Z AUTO 11007KT 10SM SCT019 28/22 A3003 RMK
     AO1=
METAR KDMW 081413Z AUTO 00000KT 10SM CLR 31/22 A3005 RMK AO2=
METAR KCGS 081415Z AUTO 13003KT 7SM SCT110 31/23 A3002 RMK AO1=
METAR KFDK 081414Z AUTO 00000KT 7SM CLR 34/22 A3004 RMK AO2=
METAR KFME 081415Z AUTO 10008KT 060V120 10SM CLR 28/22 A3004 RMK
     AO1=
METAR KW29 081414Z AUTO 12005KT 7SM CLR 28/23 A3002 RMK AO1=
####018000084####
SAMD90 KWBC 081415
METAR KFDK 081414Z AUTO 00000KT 7SM CLR 34/22 A3004 RMK AO2=
####018000084####
SAMD90 KWBC 081415
METAR KW29 081414Z AUTO 12005KT 7SM CLR 28/23 A3002 RMK AO1=
####018000093####
SAMD90 KWBC 081415
METAR KFME 081415Z AUTO 10008KT 060V120 10SM CLR 28/22 A3004 RMK AO1=
####018000184####
SAAK41 KNKA 081415
SPECI PAKI 081411Z AUTO 36004KT 1/4SM FG CLR 07/07 A3001 RMK AO2 
    PWINO TSNO $=
METAR PAWI 081411Z 22015G22KT 10SM CLR 08/04 A2998 RMK ASOS VIA
PHONE=
####018001566####
SAZZ40 KAWN 081400 RRQ
METAR DAAP 081400Z 36010KT CAVOK 40/10 Q1014=
METAR DAUA 081400Z 02023KT 7000 DRSA NSC 45/06 Q1012=
METAR DBBB 081400Z 22011KT 9999 SCT012 SCT120 29/25 Q1012 NOSIG=
METAR DFFD 081400Z 17006KT 140V200 9999 FEW040CB BKN130 31/20 Q1014
      TEMPO 4000 TSRA=
METAR FKKD 081400Z VRB03KT 9999 TS BKN013 SCT016CB BKN120 27/25 Q1012
      TEMPO 4000 TSRA=
METAR KNFG 081356Z COR 00000KT 5SM BR FEW011 OVC018 16/13 A2991 RMK
      AO2 SLP129 T01560133 TSNO=
METAR KNPA 081356Z 00000KT 10SM FEW250 30/24 A3003 RMK SLP171 T03000244=
METAR KRDR 081355Z COR 32007KT 10SM FEW090 20/15 A3008 RMK AO2A SLP196
      T02040145 $=
METAR MNBL 081400Z 00000KT 4000 TSRA SCT016CB SCT070 25/24 Q1012 CB
      4C=
METAR MNCH 081400Z 00000KT 9999 SCT015 SCT022 FEW022CB 24/23 Q1012
      CB SW=
METAR MNJG 081400Z 00000KT 9999 BA SCT016CB SCT070 25/24 Q1012 CB 4C=
METAR MNJU 081400Z 00000KT 9999 SCT020TCU SCT080 26/24 Q1012 TCU SE/SW=
METAR MNPC 081400Z 10008KT 7000 VCRA FEW014CB BKN016TCU 30/25 Q1010
      CBRA/S TCURA/SE/SW=
METAR MNRS 081400Z 00000KT 9999 FEW015CB SCT016 26/24 Q1013 CB/N/NE/SW/NW=
METAR NGFU 081400Z 08007KT 50KM SCT020TCU 28/24 Q1009=
METAR NSFA 081400Z 00000KT 50KM FEW024 24/23 Q1011=
METAR OEAH 081400Z 02013KT CAVOK 45/02 Q1000 NOSIG=
METAR OEPA 081400Z 33012KT CAVOK 44/05 Q1003=
METAR OESK 081400Z 27011KT CAVOK 44/01 Q1007=
METAR OETB 081400Z 00000KT CAVOK 42/05 Q1007 NOSIG=
METAR OJAI 081400Z 29010KT CAVOK 33/03 Q1012 NOSIG=
METAR SADF 081400Z 32003KT CAVOK 13/04 Q1019=
####018003710####
SAUS99 KWBC 081416
METAR
KPMV 081410Z AUTO 01006KT 10SM CLR 23/18 A3016 RMK AO2
     T02280183=
KAIZ 081415Z AUTO 00000KT 10SM SCT004 BKN011 BKN034 24/22 A3008
     RMK AO1=
KARG 081415Z AUTO 21006KT 10SM BKN095 27/23 A3008 RMK AO1=
KAUO 081415Z AUTO 35003KT 10SM CLR 31/21 A3004 RMK AO1=
KAWO 081415Z AUTO 00000KT 10SM CLR 17/14 A2999 RMK AO1=
KBDN 081415Z AUTO 00000KT 10SM CLR 16/04 A3013 RMK AO2=
KBKX 081415Z AUTO 26005KT 10SM CLR 22/16 A3018 RMK AO1=
KBVX 081415Z AUTO 24006KT 10SM OVC085 27/22 A3010 RMK AO1=
KCGC 081415Z AUTO 00000KT 10SM CLR 28/21 A3001 RMK=
KCIU 081415Z AUTO 01006KT 10SM BKN005 OVC014 19/18 A3000 RMK
     AO1=
KCOE 081415Z AUTO 04011KT 10SM CLR 18/09 A3010 RMK AO1=
KCVN 081415Z AUTO 03012KT 10SM CLR 19/14 A3026 RMK AO1=
KCVO 081415Z AUTO 28005KT 10SM CLR 14/09 A2995 RMK AO1=
KCWI 081415Z 34006KT 10SM SCT008 23/22 A3007 RMK AO1=
KDVL 081415Z AUTO 31009KT 10SM CLR 18/11 A3011 RMK AO1=
KDYB 081415Z AUTO 32005KT 10SM CLR 30/21 A2996 RMK AO1=
KDYR 081415Z AUTO 29006KT 10SM CLR 29/21 A3008 RMK AO1=
KEAR 081415Z AUTO 35006KT 10SM FEW060 19/16 A3026 RMK AO1=
KEHR 081415Z AUTO 25004KT 10SM CLR 31/23 A3007 RMK AO1=
KESC 081415Z AUTO 34005KT 10SM OVC012 22/17 A2999 RMK AO1=
KEWK 081415Z AUTO 04006KT 10SM OVC010 22/19 A3011 RMK AO1=
KFLP 081415Z AUTO 00000KT 10SM FEW070 SCT100 25/22 A3009 RMK
     AO1=
KFOD 081415Z AUTO 36005KT 10SM CLR 21/17 A3015 RMK AO1=
KFRM 081415Z AUTO 10SM CLR 21/17 A3017 RMK AO1=
KFTN 081415Z AUTO 04006KT 10SM SCT010 OVC020 26/23 A2994 RMK
     AO1=
KGAD 081415Z AUTO 01004KT 10SM CLR 29/21 A3007 RMK AO1=
KGAI 081415Z 14004KT 7SM CLR 29/22 A3005 RMK AO1=
KGBD 081415Z AUTO 01010KT 10SM OVC008 20/18 A3019 RMK AO1=
KGPZ 081415Z AUTO 29006KT 10SM CLR 21/14 A3007 RMK AO1=
KHEF 081415Z AUTO 00000KT 7SM CLR 30/23 A3002 RMK AO1=
KHEZ 081415Z AUTO 12005KT 10SM CLR 27/23 A3008 RMK AO1=
KHNB 081415Z AUTO 24003KT 10SM CLR 30/23 A3007 RMK AO1=
KHYS 081415Z AUTO 04008KT 10SM OVC037 19/17 A3021 RMK AO1=
KIWD 081415Z AUTO 33008KT 10SM CLR 21/16 A3003 RMK AO1=
KKLS 081415Z AUTO 33004KT 10SM FEW006 14/13 A2996 RMK AO1=
KLBL 081415Z 36011KT 9SM OVC006 19/17 A3025 RMK AO1=
KLGD 081415Z AUTO 00000KT 10SM 14/07 A3009 RMK AO1=
KLKV 081415Z AUTO 32008KT 10SM CLR 18/03 A3013 RMK AO1=
KLXN 081410Z AUTO 34003KT 10SM OVC065 19/17 A3025 RMK AO2
     T01920167=
KMBL 081415Z AUTO 00000KT 5SM BKN005 BKN016 OVC032 22/20 A3002 RMK
     AO1=
KMKT 081415Z 30006KT 10SM CLR 21/17 A3014 RMK AO1=
KMLE 081410Z AUTO 00000KT 10SM CLR 22/16 A3016 RMK AO2
     T02190157=
KMMH 081410Z AUTO 00000KT 10SM CLR 10/03 A3024 RMK AO1=
KMML 081415Z AUTO 28008KT 10SM CLR 22/16 A3014 RMK AO1=
KMNI 081415Z AUTO 33006KT 10SM CLR 32/24 A2996 RMK AO2=
KMNM 081415Z AUTO 01007KT 10SM OVC013 22/19 A3000 RMK AO1=
KMRF 081415Z AUTO 06007KT 10SM CLR 22/16 A3021 RMK AO1=
KMTW 081415Z 30005KT 9SM FEW010 OVC016 24/21 A3000 RMK AO1=
KMVN 081415Z AUTO 22006KT 10SM BKN060 OVC120 29/23 A3006 RMK
     AO1=
KOGA 081410Z AUTO 00000KT 10SM SCT038 OVC100 17/16 A3030 RMK AO2
     T01730157=
KOLU 081415Z AUTO 35006KT 10SM CLR 21/16 A3020 RMK AO1=
KONL 081410Z AUTO 31004KT 10SM CLR 21/15 A3024 RMK AO2
     T02070151=
KOTG 081415Z AUTO 30006KT 10SM CLR 21/15 A3018 RMK AO1=
KOTH 081415Z 31003KT 10SM OVC006 10/08 A3000 RMK AO1=
KPIB 081415Z AUTO 03004KT 10SM CLR 29/22 A3007 RMK AO1=
KPNA 081410Z AUTO 30008KT 10SM SCT090 BKN110 10/03 A3041 RMK AO2
     T01040029=
KPTN 081415Z AUTO 09009KT 10SM BKN015 BKN019 29/M05 A3005 RMK
     AO1=
KPTT 081410Z AUTO 36008KT 4SM BR OVC006 20/19 A3018 RMK AO2=
KPWT 081415Z AUTO 03008KT 10SM CLR 23/08 A2999 RMK AO1=
####018000571####
SPUS99 KWBC 081416
SPECI
K7R3 081408Z 08006KT 7SM BKN011 OVC018 28/25 A3003 RMK DA1500=
KAZO 081413Z 00000KT 1 1/4SM RA FEW018 BKN025 OVC085 25/22 A3004
     RMK AO2 RAB1359 P0002=
KCEC 081413Z AUTO 00000KT 1SM BR OVC001 10/09 A2998 RMK AO2=
KDAW 081413Z AUTO VRB03KT 5SM HZ SCT015 27/21 A3008 RMK AO2=
KDFW 081413Z 13006KT 8SM -RA SCT009 BKN014 OVC060 26/24 A3004 RMK
     AO2 RAB08 P0000=
KDMO 081414Z AUTO 00000KT 10SM OVC007 25/22 A3009 RMK AO2 CIG
     005V010=
PAKI 081411Z AUTO 36004KT 1/4SM FG CLR 07/07 A3001 RMK AO2 PWINO
     TSNO $=
####018000983####
SAUS99 KWBC 081416 RRA
METAR
KSGT 081415Z 21003KT 10SM CLR A3009 RMK AO1=
KSKX 081415Z AUTO 36006KT 10SM CLR 16/06 A3041 RMK AO1=
KSLG 081415Z AUTO 18005KT 1 3/4SM BKN013 OVC022 23/22 A3010 RMK
     AO1 P0026=
KSOW 081410Z AUTO 18005KT 10SM SCT120 20/04 A3028 RMK AO2=
KSPA 081415Z AUTO 00000KT 10SM CLR 31/24 A3003 RMK AO2=
KSPL 081415Z AUTO 00000KT 27/25 A2975 RMK AO2 PWINO PNO=
KSQI 081415Z 31005KT 10SM FEW009 BKN021 25/22 A3006 RMK AO1=
KSUE 081415Z AUTO 34007KT 10SM FEW009 OVC016 22/20 A3003 RMK
     AO1=
KSZT 081410Z AUTO 00000KT 10SM CLR 15/10 A3011 RMK AO2=
KTIF 081410Z AUTO 30003KT 10SM SCT120 20/15 A3028 RMK AO2
     T01950145=
KTVF 081415Z AUTO 29009KT 10SM CLR 19/13 A3007 RMK AO1=
KUTA 081415Z AUTO 03003KT 10SM CLR 30/22 A3009 RMK AO2=
KVBT 081415Z AUTO 17004KT 10SM OVC016 24/22 A3007 RMK AO1=
KYKN 081415Z AUTO 26004KT 10SM CLR 22/16 A3020 RMK AO1=
PAWI 081411Z 22015G22KT 10SM CLR 08/04 A2998 RMK ASOS VIA
     PHONE=
####018000140####
SAAP32 FAPR 081400 RRA
METAR FVHA 081400Z 10006KT CAVOK 18/04 Q1028 NOSIG=
METAR FYWH 081400Z AUTO 02010KT //// // ////// 21/M01 Q1026=
####018000104####
SAAF27 LFPW 081400 RRB
METAR FGSL 081400Z 26005KT 8000 TS BKN013 FEW020CB BKN130 26/26 Q1012
NOSIG=
####018000085####
SAZA31 FAPR 081400 RRA
METAR FAKN 081400Z 09007KT 9999 FEW030 BKN080 18/11 Q1031=
####018000083####
SAMC32 GMMC 081400 RRB
METAR GMTN 081400Z 03009KT 260V060 8000 NSC 27/19 Q1016=
####018000092####
SPAU32 YBBN 081415
SPECI YPPD 081415Z AUTO 32003KT 4200NDV // BKN027 OVC047 22/21 Q1010=
####018000373####
SAAF11 LFPW 081400 RRA
METAR FCPP 081400Z 20008KT 7000 FEW013 OVC033 24/21 Q1012 NOSIG=
METAR FKKD 081400Z VRB03KT 9999 TS BKN013 SCT016CB BKN120 27/25 Q1012
TEMPO 4000 TSRA=
METAR FKYS 081400Z 26003KT 210V320 9999 SCT012 BKN020 FEW026CB 27/20
Q1015 TEMPO TS=
METAR FOOG 081400Z /////KT 9999 FEW010 27/22 Q1013=
METAR FOON 081400Z 32010KT 9000 SCT030 29/22 Q1013=
####018000109####
SPFG20 SOCA 081415
SPECI SOCA 081415Z 10007KT 060V140 6000 -SHRA BKN019 SCT043 28/25
Q1013 NOSIG RMK M2=
####018000118####
SAUS44 KLZK 081415
MTRMWT
SPECI KMWT 081414Z AUTO 00000KT 10SM BKN017 BKN049 BKN060 26/23 
A3009 RMK AO2 TSNO
####018001168####
SAUS70 KWBC 081416 RRA
METAR
KSKX 081415Z AUTO 36006KT 10SM CLR 16/06 A3041 RMK AO1=
KSLG 081415Z AUTO 18005KT 1 3/4SM BKN013 OVC022 23/22 A3010 RMK
     AO1 P0026=
KSPA 081415Z AUTO 00000KT 10SM CLR 31/24 A3003 RMK AO2=
KSPL 081415Z AUTO 00000KT 27/25 A2975 RMK AO2 PWINO PNO=
KSQI 081415Z 31005KT 10SM FEW009 BKN021 25/22 A3006 RMK AO1=
KSUE 081415Z AUTO 34007KT 10SM FEW009 OVC016 22/20 A3003 RMK
     AO1=
KSZT 081410Z AUTO 00000KT 10SM CLR 15/10 A3011 RMK AO2=
KTIF 081410Z AUTO 30003KT 10SM SCT120 20/15 A3028 RMK AO2
     T01950145=
KTVF 081415Z AUTO 29009KT 10SM CLR 19/13 A3007 RMK AO1=
KUTA 081415Z AUTO 03003KT 10SM CLR 30/22 A3009 RMK AO2=
KVBT 081415Z AUTO 17004KT 10SM OVC016 24/22 A3007 RMK AO1=
KYKN 081415Z AUTO 26004KT 10SM CLR 22/16 A3020 RMK AO1=
K2G4 081415Z AUTO 29003KT 10SM CLR 26/15 A3019 RMK AO1=
K2W6 081414Z AUTO 11007KT 10SM SCT019 28/22 A3003 RMK AO1=
KCGS 081415Z AUTO 13003KT 7SM SCT110 31/23 A3002 RMK AO1=
KFDK 081414Z AUTO 00000KT 7SM CLR 34/22 A3004 RMK AO2=
KW29 081414Z AUTO 12005KT 7SM CLR 28/23 A3002 RMK AO1=
PAWI 081411Z 22015G22KT 10SM CLR 08/04 A2998 RMK ASOS VIA
     PHONE=
####018000388####
SPXX60 KWBC 081416
SPECI
KFSI 081411Z AUTO 36008KT 10SM SCT009 BKN015 26/22 A3006 RMK AO2
     CIG 014V018 SLP165=
KFSI 081413Z AUTO 36008KT 10SM BKN014 26/22 A3006 RMK AO2 CIG
     009V018 SLP163=
KHLR 081406Z AUTO 03006KT 10SM BKN012 BKN023 OVC045 26/ A3003 RMK
     AO2 T0261 $=
PACZ SP 1415 AWOS MM 10 49/47/0309/002=
PAEH SP 1415 AWOS M60 OVC 10 49/-19/1303/997=
####018000126####
SAPQ50 KWBC 081400 RRE
METAR
PTTP 081358Z 00000KT 15SM SCT017TCU OVC300 24/23 A2986 RMK TCU NE
     SLP111 T02440228=
####018003747####
SAUS70 KWBC 081416
METAR
KOAJ 081415Z AUTO 03008KT 8SM CLR 29/24 A2996 RMK AO1=
KSOP 081415Z AUTO 04004KT 9SM CLR 32/21 A2999 RMK AO1=
KUDG 081415Z 02004KT 10SM CLR 32/21 A2998 RMK AO1=
KPMV 081410Z AUTO 01006KT 10SM CLR 23/18 A3016 RMK AO2
     T02280183=
KAIZ 081415Z AUTO 00000KT 10SM SCT004 BKN011 BKN034 24/22 A3008
     RMK AO1=
KARG 081415Z AUTO 21006KT 10SM BKN095 27/23 A3008 RMK AO1=
KAUO 081415Z AUTO 35003KT 10SM CLR 31/21 A3004 RMK AO1=
KAWO 081415Z AUTO 00000KT 10SM CLR 17/14 A2999 RMK AO1=
KBDN 081415Z AUTO 00000KT 10SM CLR 16/04 A3013 RMK AO2=
KBKX 081415Z AUTO 26005KT 10SM CLR 22/16 A3018 RMK AO1=
KBVX 081415Z AUTO 24006KT 10SM OVC085 27/22 A3010 RMK AO1=
KCGC 081415Z AUTO 00000KT 10SM CLR 28/21 A3001 RMK=
KCIU 081415Z AUTO 01006KT 10SM BKN005 OVC014 19/18 A3000 RMK
     AO1=
KCOE 081415Z AUTO 04011KT 10SM CLR 18/09 A3010 RMK AO1=
KCVN 081415Z AUTO 03012KT 10SM CLR 19/14 A3026 RMK AO1=
KCVO 081415Z AUTO 28005KT 10SM CLR 14/09 A2995 RMK AO1=
KCWI 081415Z 34006KT 10SM SCT008 23/22 A3007 RMK AO1=
KDYB 081415Z AUTO 32005KT 10SM CLR 30/21 A2996 RMK AO1=
KDYR 081415Z AUTO 29006KT 10SM CLR 29/21 A3008 RMK AO1=
KEHR 081415Z AUTO 25004KT 10SM CLR 31/23 A3007 RMK AO1=
KESC 081415Z AUTO 34005KT 10SM OVC012 22/17 A2999 RMK AO1=
KEWK 081415Z AUTO 04006KT 10SM OVC010 22/19 A3011 RMK AO1=
KFLP 081415Z AUTO 00000KT 10SM FEW070 SCT100 25/22 A3009 RMK
     AO1=
KFOD 081415Z AUTO 36005KT 10SM CLR 21/17 A3015 RMK AO1=
KFRM 081415Z AUTO 10SM CLR 21/17 A3017 RMK AO1=
KFTN 081415Z AUTO 04006KT 10SM SCT010 OVC020 26/23 A2994 RMK
     AO1=
KGAD 081415Z AUTO 01004KT 10SM CLR 29/21 A3007 RMK AO1=
KGAI 081415Z 14004KT 7SM CLR 29/22 A3005 RMK AO1=
KGBD 081415Z AUTO 01010KT 10SM OVC008 20/18 A3019 RMK AO1=
KHEF 081415Z AUTO 00000KT 7SM CLR 30/23 A3002 RMK AO1=
KHEZ 081415Z AUTO 12005KT 10SM CLR 27/23 A3008 RMK AO1=
KHNB 081415Z AUTO 24003KT 10SM CLR 30/23 A3007 RMK AO1=
KHYS 081415Z AUTO 04008KT 10SM OVC037 19/17 A3021 RMK AO1=
KIWD 081415Z AUTO 33008KT 10SM CLR 21/16 A3003 RMK AO1=
KKLS 081415Z AUTO 33004KT 10SM FEW006 14/13 A2996 RMK AO1=
KLBL 081415Z 36011KT 9SM OVC006 19/17 A3025 RMK AO1=
KLGD 081415Z AUTO 00000KT 10SM 14/07 A3009 RMK AO1=
KLKV 081415Z AUTO 32008KT 10SM CLR 18/03 A3013 RMK AO1=
KLXN 081410Z AUTO 34003KT 10SM OVC065 19/17 A3025 RMK AO2
     T01920167=
KMBL 081415Z AUTO 00000KT 5SM BKN005 BKN016 OVC032 22/20 A3002 RMK
     AO1=
KMKT 081415Z 30006KT 10SM CLR 21/17 A3014 RMK AO1=
KMLE 081410Z AUTO 00000KT 10SM CLR 22/16 A3016 RMK AO2
     T02190157=
KMMH 081410Z AUTO 00000KT 10SM CLR 10/03 A3024 RMK AO1=
KMML 081415Z AUTO 28008KT 10SM CLR 22/16 A3014 RMK AO1=
KMNI 081415Z AUTO 33006KT 10SM CLR 32/24 A2996 RMK AO2=
KMNM 081415Z AUTO 01007KT 10SM OVC013 22/19 A3000 RMK AO1=
KMRF 081415Z AUTO 06007KT 10SM CLR 22/16 A3021 RMK AO1=
KMTW 081415Z 30005KT 9SM FEW010 OVC016 24/21 A3000 RMK AO1=
KMVN 081415Z AUTO 22006KT 10SM BKN060 OVC120 29/23 A3006 RMK
     AO1=
KOGA 081410Z AUTO 00000KT 10SM SCT038 OVC100 17/16 A3030 RMK AO2
     T01730157=
KOLU 081415Z AUTO 35006KT 10SM CLR 21/16 A3020 RMK AO1=
KONL 081410Z AUTO 31004KT 10SM CLR 21/15 A3024 RMK AO2
     T02070151=
KOTG 081415Z AUTO 30006KT 10SM CLR 21/15 A3018 RMK AO1=
KOTH 081415Z 31003KT 10SM OVC006 10/08 A3000 RMK AO1=
KPIB 081415Z AUTO 03004KT 10SM CLR 29/22 A3007 RMK AO1=
KPNA 081410Z AUTO 30008KT 10SM SCT090 BKN110 10/03 A3041 RMK AO2
     T01040029=
KPTN 081415Z AUTO 09009KT 10SM BKN015 BKN019 29/M05 A3005 RMK
     AO1=
KPTT 081410Z AUTO 36008KT 4SM BR OVC006 20/19 A3018 RMK AO2=
KPWT 081415Z AUTO 03008KT 10SM CLR 23/08 A2999 RMK AO1=
KSGT 081415Z 21003KT 10SM CLR A3009 RMK AO1=
####018000711####
SPUS70 KWBC 081416
SPECI
KGKY 081413Z 14006KT 10SM FEW008 BKN015 OVC065 26/24 A3005 RMK
     AO2=
KOKC 081412Z 32005KT 10SM BKN011 BKN200 26/23 A3007 RMK AO2=
K7R3 081408Z 08006KT 7SM BKN011 OVC018 28/25 A3003 RMK DA1500=
KAZO 081413Z 00000KT 1 1/4SM RA FEW018 BKN025 OVC085 25/22 A3004
     RMK AO2 RAB1359 P0002=
KCEC 081413Z AUTO 00000KT 1SM BR OVC001 10/09 A2998 RMK AO2=
KDAW 081413Z AUTO VRB03KT 5SM HZ SCT015 27/21 A3008 RMK AO2=
KDFW 081413Z 13006KT 8SM -RA SCT009 BKN014 OVC060 26/24 A3004 RMK
     AO2 RAB08 P0000=
KDMO 081414Z AUTO 00000KT 10SM OVC007 25/22 A3009 RMK AO2 CIG
     005V010=
PAKI 081411Z AUTO 36004KT 1/4SM FG CLR 07/07 A3001 RMK AO2 PWINO
     TSNO $=
####018000294####
SAXX60 KWBC 081400 RRK
METAR
KNFG 081356Z COR 00000KT 5SM BR FEW011 OVC018 16/13 A2991 RMK AO2
     SLP129 T01560133 TSNO=
KNPA 081356Z 00000KT 10SM FEW250 30/24 A3003 RMK SLP171
     T03000244=
KRDR 081355Z COR 32007KT 10SM FEW090 20/15 A3008 RMK AO2A SLP196
     T02040145 $=
####018000324####
SAUS80 KWBC 081416
METAR
KDVL 081415Z AUTO 31009KT 10SM CLR 18/11 A3011 RMK AO1=
KEAR 081415Z AUTO 35006KT 10SM FEW060 19/16 A3026 RMK AO1=
KGPZ 081415Z AUTO 29006KT 10SM CLR 21/14 A3007 RMK AO1=
KSOW 081410Z AUTO 18005KT 10SM SCT120 20/04 A3028 RMK AO2=
KCBE 081414Z AUTO 00000KT 7SM CLR 28/20 A3009 RMK AO1=
####018000209####
SPUS80 KWBC 081416
SPECI
KHTL 081412Z AUTO 26006KT 2SM RA BR FEW009 BKN025 OVC038 22/21
     A3005 RMK AO2 P0002=
KMWT 081414Z AUTO 00000KT 10SM BKN017 BKN049 BKN060 26/23 A3009
     RMK AO2 TSNO=
####018000569####
SAAF32 KWBC 081400 RRC
METAR
FCBB 081400Z 22005KT 260V180 7000 NSC 28/20 Q1012 NOSIG=
FCPP 081400Z 20008KT 7000 FEW013 OVC033 24/21 Q1012 NOSIG=
FGSL 081400Z 26005KT 8000 TS BKN013 FEW020CB BKN130 26/26 Q1012
     NOSIG=
FKKD 081400Z VRB03KT 9999 TS BKN013 SCT016CB BKN120 27/25 Q1012
     TEMPO 4000 TSRA=
FOOG 081400Z /////KT 9999 FEW010 27/22 Q1013=
FOOL 081400Z 22006KT 190V250 9000 SCT010 OVC033 27/23 Q1012
     NOSIG=
FOON 081400Z 32010KT 9000 SCT030 29/22 Q1013=
FPST 081400Z NIL=
FZAA 081400Z 32010KT 4000 BR SKC 27/19 Q1011 NOSIG=
####018000087####
SAAF33 KWBC 081400 RRB
METAR
FNLU 081400Z 26010KT 9999 FEW021 24/19 Q1011 NOSIG=
####018000053####
SAAF34 KWBC 081400 RRA
METAR
FEFF 081400Z NIL=
####018000095####
SPAU31 KWBC 081416
SPECI
YPPD 081415Z AUTO 32003KT 4200NDV // BKN027 OVC047 22/21 Q1010=
####018000313####
SAAG31 KWBC 081400 RRB
METAR
SAAR 081400Z 34004KT 9000 NSC 13/05 Q1018=
SARC 081400Z 11011KT 9999 FEW016 13/09 Q1019=
SAWE 081400Z NIL=
SAZS 081400Z 29020KT 9000 VCRA SCT015 SCT025 04/02 Q1007 REDZ
     R29210094=
SAZS 081400Z 29020KT 9000 VCRA SCT015 SCT025 04/02 Q1007 REDZ=
SAZS 081400Z NIL=
####018000135####
SAAG41 KWBC 081400 RRB
METAR
SANT 081400Z 18003KT 8000 13/06 Q1018=
SARL 081400Z 14018KT 9999 13/06 Q1021=
SAZN 081400Z NIL=
####018000083####
SAAL31 KWBC 081400 RRB
METAR
DAUA 081400Z 02023KT 7000 DRSA NSC 45/06 Q1012=
####018000086####
SAAO31 KWBC 081400 RRA
METAR
GMTN 081400Z 03009KT 260V060 8000 NSC 27/19 Q1016=
####018000071####
SPAK32 KWBC 081416
SPECI
PACZ SP 1415 AWOS MM 10 49/47/0309/002=
####018000077####
SPAK32 KWBC 081416
SPECI
PAEH SP 1415 AWOS M60 OVC 10 49/-19/1303/997=
####018000081####
SAAW31 KWBC 081400 RRA
METAR
OJAI 081400Z 29010KT CAVOK 33/03 Q1012 NOSIG=
####018000074####
SAAW33 KWBC 081400 RRC
METAR
OOSA 081400Z AUTO 17005KT 28/23 Q1003=
####018000084####
SAAW42 KWBC 081400 RRB
METAR
OMAD 081400Z 36010KT 9000 NSC 38/25 Q0998 A2949=
####018000081####
SABZ31 KWBC 081400 RRA
METAR
SBTT 081400Z 27002KT 9999 FEW012 29/25 Q1013=
####018000080####
SACA31 KWBC 081400 RRC
METAR
MBPV 081400 16006KT 9999 SCT012 32/25 A3000=
####018000091####
SAEM31 KWBC 081400 RRB
METAR
LOWZ 081400Z 01005KT 50KM FEW060SC 28/05 Q1022 RMK FEW=
####018000132####
SAIY31 KWBC 081350 RRD
METAR
LIEE 081355Z 15013KT 9999 FEW020 28/20 Q1018 RMK FEW VIS MIN 9999
     WIND THR14 17014KT BLU=
####018000149####
SAIY41 KWBC 081350 RRD
METAR
LIEB 081355Z 12004KT 9999 FEW030TCU 33/25 Q1018 RMK FEW QUK 2 QUL
     0 VIS MAR 20 KM MON INVIS VIS MIN 8000W=
####018000129####
SAIY43 KWBC 081350 RRC
METAR
LIQC 081355Z 00000KT CAVOK 28/10 Q1021 RMK SKC QUK 1 QUL 0 VIS MAR
     15 KM VIS MIN 9999=
####018000112####
SPSA32 KWBC 081416
SPECI
SLTR 081402Z METAR 15010KT 3000 -RA FEW008 SCT017 FEW020CB OVC070
22/21 Q1015=
####018000110####
SPSA32 KWBC 081416 CCA
SPECI
SLTR 081402Z 15010KT 3000 -RA FEW008 SCT017 FEW020CB OVC070 22/21
Q1015=
####018000106####
SAMX41 KWBC 081445
METAR
MMGM 081404Z RTD 00000KT 10SM BKN075 28/17 A2977 RMK 8/070 HZY
     RTS=
####018000084####
SPUS31 KWBC 081416
SPECI
KOKC 081412Z 32005KT 10SM BKN011 BKN200 26/23 A3007=
####018000126####
SAPA31 KWBC 081400 RRB
METAR
PTTP 081358Z 00000KT 15SM SCT017TCU OVC300 24/23 A2986 RMK TCU NE
     SLP111 T02440228=
####018000134####
SPXX62 KWBC 081416
SPECI
RKSO 081410Z AUTO 09004KT 6000 R27/1200V1400 -DZ BR CLR 22/22
A2980 RMK AO2 RAE1401DZB1401 SLP091 $=
####018000114####
SPXX62 KWBC 081416
SPECI
RKJK 081410Z 03004KT 1200 R36/0550V0700 HZ FEW120 24/21 A2980 RMK
AO2A SLP091 $=
####018000095####
SAXX62 KWBC 081400 RRA
METAR
RKSM 081400Z 22005KT 9000 -RA BR BKN050 OVC100 22/21 A2983=
####018000501####
SAXX99 KWBC 081400 RRN
METAR
CWBU 081400Z AUTO 25010KT 15/11 RMK AO1 SLP174 T01500106 58001=
CWIK 081400Z AUTO 32006KT 14/11 RMK AO1 SLP208 T01400107 51012=
DAUT 081400Z NIL=
FKYS 081400Z 26003KT 210V320 9999 SCT012 BKN020 FEW026CB 27/20
     Q1015 TEMPO TS=
KCBE 081414Z AUTO 00000KT 7SM CLR 28/20 A3009 RMK AO1=
KFME 081415Z AUTO 10008KT 060V120 10SM CLR 28/22 A3004 RMK AO1=
SADF 081400Z 32003KT CAVOK 13/04 Q1019=
SADF 081400Z NIL=
SAOC 081400Z 36016KT CAVOK 14/M10 Q1015=
####018002943####
SAUS20 KNKA 081415
METAR KAFJ 081415Z AUTO 00000KT 9SM CLR 27/20 A3011 RMK AO1=
METAR KBHB 081415Z AUTO 19011KT 7SM OVC003 19/18 A3014 RMK AO1=
METAR KBID 081415Z AUTO 08005KT 10SM OVC006 24/22 A3009 RMK AO1=
METAR KBLM 081415Z AUTO 13007KT 10SM BKN012 BKN055 OVC070 25/19 
    A3008 RMK AO1=
METAR KBTP 081415Z AUTO 22003KT 9SM CLR 27/19 A3010 RMK AO1=
METAR KCGZ 081415Z AUTO 00000KT 10SM CLR 29/02 A2984 RMK AO1=
METAR KCOD 081415Z 00000KT 10SM CLR 15/03 A3034 RMK AO1=
METAR KEEN 081415Z AUTO 17009KT 10SM FEW110 27/22 A3008 RMK AO1=
METAR KENV 081415Z 00000KT 10SM CLR 22/01 A3013 RMK AO1=
METAR KEUL 081415Z AUTO 12003KT 10SM CLR 16/07 A3011 RMK AO1=
SPECI KEYW 081414Z VRB03KT 10SM BKN019 29/24 A2998 RMK AO2=
METAR KFKL 081415Z 08006KT 10SM CLR 28/19 A3013 RMK AO1=
METAR KFNL 081415Z AUTO 36007KT 10SM OVC045 16/13 A3034 RMK AO1=
METAR KGDV 081415Z AUTO 17003KT 10SM FEW075 17/10 A3019 RMK AO1=
METAR KGUC 081415Z AUTO 00000KT 10SM CLR 11/03 A3046 RMK AO1=
METAR KGXY 081415Z AUTO 08006KT 9SM SCT008 OVC014 16/13 A3034 RMK 
    AO1=
METAR KHDN 081415Z 11005KT 10SM BKN120 13/07 A3035 RMK AO1=
METAR KHYI 081415Z AUTO 08009KT 2 1/2SM SCT014 BKN028 OVC070 25/24 
    A2998 RMK AO1 P0006=
METAR KILE 081415Z 08007KT 7SM FEW010 BKN016 OVC045 25/23 A3002 RMK 
    AO1=
SPECI KILG 081414Z 15005KT 7SM SCT017 27/22 A3004 RMK AO2=
METAR KJHW 081415Z AUTO 16004KT 10SM CLR 27/19 A3011 RMK AO1=
METAR KLCI 081415Z AUTO 20007KT 4SM BKN017 OVC028 26/21 A3008 RMK 
    AO1=
METAR KLEW 081415Z 17007KT 6SM OVC008 23/21 A3012 RMK AO1=
METAR KLPC 081415Z AUTO 33003KT 5SM OVC008 13/11 A2994 RMK AO1 PNO=
METAR KMJX 081415Z AUTO 00000KT 10SM BKN008 BKN014 OVC060 26/22 
    A3004 RMK AO1=
METAR KMSV 081415Z AUTO 12006KT 10SM CLR 29/20 A3010 RMK AO1=
METAR KOCH 081415Z AUTO 13010KT 10SM BKN011 OVC110 26/20 A3005 RMK 
    AO1=
METAR KOKK 081415Z AUTO 21003KT 5SM SCT085 27/20 A3004 RMK AO1=
METAR KPQI 081415Z AUTO 15009KT 10SM CLR 28/22 A2998 RMK AO1=
METAR KPRX 081415Z 16007KT 9SM SCT009 OVC049 27/24 A3006 RMK AO1=
METAR KPTV 081415Z AUTO 15004KT 10SM CLR 19/12 A2988 RMK AO1=
METAR KPVC 081415Z 18012G15KT 10SM SCT017 BKN024 26/22 A3011 RMK AO1=
METAR KPWG 081415Z AUTO 07007KT 10SM FEW011 SCT017 OVC050 26/23 
    A3004 RMK AO1=
METAR KRKD 081415Z AUTO 21008KT 8SM OVC003 21/19 A3013 RMK AO1=
METAR KRUT 081415Z AUTO 00000KT 7SM CLR 29/23 A3005 RMK AO1=
METAR KSDY 081415Z AUTO 00000KT 10SM OVC100 17/11 A3018 RMK AO1=
METAR KSFM 081415Z 21004KT 10SM BKN036 OVC044 26/20 A3010 RMK AO1=
METAR KSFZ 081415Z AUTO 15004KT 10SM BKN019 25/21 A3009 RMK AO1=
METAR KSGU 081415Z AUTO 00000KT 10SM CLR 24/02 A3001 RMK AO1=
METAR KSMN 081415Z AUTO 00000KT 10SM CLR 11/05 A3028 RMK AO1=
SPECI KTKI 081415Z 13003KT 7SM SCT027 BKN047 OVC055 26/24 A3006 RMK 
    AO2 RAE13 P0001=
METAR KTPL 081415Z 08008KT 8SM BKN012 OVC021 25/24 A3003 RMK AO1 
     =
####018000229####
SAUS20 KNKA 081415
METAR KVIS 081415Z AUTO 00000KT 10SM CLR 19/11 A2985 RMK AO1=
METAR KWVL 081415Z AUTO 20005KT 9SM BKN009 OVC013 23/21 A3006 RMK 
    AO1=
METAR KWWD 081415Z AUTO 4SM OVC060 24/24 A3005 RMK AO1 P0006=
####018000079####
SAJD31 OJAI 081400 RRA
METAR OJAI 081400Z 29010KT CAVOK 33/03 Q1012 NOSIG=
####018000079####
SAJD20 OJAM 081400 RRA
METAR OJAI 081400Z 29010KT CAVOK 33/03 Q1012 NOSIG=
####018000075####
SAJD20 OJAM 081400
METAR OJAI 081400Z 29010KT CAVOK 33/03 Q1012 NOSIG=
####018000079####
SAME31 OLBA 081400 RRA
METAR OJAI 081400Z 29010KT CAVOK 33/03 Q1012 NOSIG=
####018000084####
SPUS72 KWBC 081416
SPECI
KOKC 081412Z 32005KT 10SM BKN011 BKN200 26/23 A3007=
####018000077####
SAUK KAWN 081400 RRD
METAR EGGP 081350Z 24012KT 9999 SCT046 20/09 Q1017=
####018000091####
SARS18 KAWN 081400 RRE
METAR UTSS 081400Z 08004MPS 9999 NSC 32/13 Q1010 R88/70D NOSIG=
####018000257####
SAXX70 KAWN 081400 RRL
METAR KQCC 081358Z AUTO VRB05KT 9999 CLR 37/15 A2973 RMK AO2 SLP999
      T03690146 $=
METAR KQFW 081400Z AUTO 19001KT 3SM -SHRA CLR 21/19 A2993 RMK A02=
METAR KQEX 081410Z AUTO 21002KT 3SM -SHRA OVC040 25/20 A2978 RMK A02=
####018000073####
SADL35 EDZO 081350 RRA
METAR EDHI 081350Z VRB04KT CAVOK 30/12 Q1018=
####018000111####
SPFG20 SOCA 081415
SPECI SOCA 081415Z 10007KT 060V140 6000 -SHRA BKN019 SCT043 28/25
Q1013 NOSIG RMK M2=
####018000104####
SAUS45 KPIH 081416
MTR77M

METAR K77M 081347Z 00000KT 25SM FEW130 10/03 RMK SLPNO NOSPECI


####018000087####
SAUS46 KLOX 081416
MTRMWS
METAR KMWS 081400Z 13504G06KT 20/M02 RMK SNOW DEPTH  M
####018000107####
SAAK41 KNKA 081416
SPECI PALG 081412Z AUTO 00000KT 1 1/2SM BR BKN003 06/05 A2999 RMK 
    AO2 TSNO =
####018002423####
SAUS20 KNKA 081416
METAR K0A9 081415Z AUTO 00000KT 10SM CLR 28/18 A3011 RMK=
METAR K20V 081416Z AUTO 00000KT 10SM SCT011 10/05 A3045 RMK AO2=
METAR K2G4 081415Z AUTO 29003KT 10SM CLR 26/15 A3019 RMK AO1=
METAR K2W6 081414Z AUTO 11007KT 10SM SCT019 28/22 A3003 RMK
     AO1=
METAR K4BM 081413Z AUTO 22005KT 10SM 05/04 A3063 RMK AO2=
METAR K4SL 081355Z 18005KT 20SM BKN100 18/09 RMK 10300 20139
=
METAR K5SM 081413Z AUTO 00000KT 10SM SCT120 12/03 A3059 RMK AO2=
METAR K7BM 081416Z AUTO 00000KT 7SM BKN002 09/07 A3054 RMK AO2=
METAR KAEG 081415Z AUTO 14014KT 10SM CLR 19/08 A3032 RMK AO1  =
METAR KBBP 081415Z AUTO 04004KT 10SM CLR 32/20 A2997 RMK AO2=
METAR KBDU 081417Z AUTO 00000KT 10SM OVC036 17/12 A3035 RMK AO2=
METAR KBKN 081415Z AUTO 02009KT 10SM CLR 24/22 A3008 RMK AO2 =
METAR KCBE 081414Z AUTO 00000KT 7SM CLR 28/20 A3009 RMK AO1=
METAR KCCU 081416Z AUTO 21005KT 10SM CLR 10/01 A3065 RMK AO2=
METAR KCGE 081412Z AUTO 14007KT 10SM SCT065 SCT085 28/23 A3003 RMK
     AO1=
METAR KCGS 081415Z AUTO 13003KT 7SM SCT110 31/23 A3002 RMK AO1=
METAR KCIC 081415Z AUTO 15005KT 10SM CLR 19/12 A2985 RMK AO1 =
SPECI KCOT 081415Z AUTO 03007KT 10SM BKN011 BKN025 OVC065 26/24 
    A2992 RMK AO2 RAB01E10 P0000=
METAR KFDK 081414Z AUTO 00000KT 7SM CLR 34/22 A3004 RMK AO2=
METAR KDMW 081413Z AUTO 00000KT 10SM CLR 31/22 A3005 RMK AO2=
METAR KFME 081415Z AUTO 10008KT 060V120 10SM CLR 28/22 A3004 RMK
     AO1=
SPECI KGAG 081415Z AUTO 05008KT 2 1/2SM RA BR OVC005 21/19 A3016 RMK 
    AO2 P0004=
METAR KGGE 081415Z AUTO 31006KT 10SM CLR 30/22 A2994 RMK AO2=
SPECI KGLR 081415Z AUTO 26006KT 6SM -RA BR SCT008 SCT013 BKN060 
    22/21 A3004 RMK AO2 P0000=
SPECI KLCH 081415Z 27/25 A3002 RMK AO2 PNO $=
METAR KLUX 081415Z AUTO 00000KT 10SM CLR 30/23 A3003 RMK AO2=
METAR KMAO 081415Z AUTO 02006KT 7SM CLR 30/21 A2995 RMK AO2=
METAR KMYP 081316Z AUTO 20011KT 10SM CLR 05/03 A3076 RMK AO2=
METAR KRCE 081415Z AUTO 00000KT 10SM BKN008 25/23 A3010 RMK AO2 =
METAR KSMS 081415Z AUTO 33004KT 9SM CLR 30/22 A2998 RMK AO2 =
SPECI KUGN 081415Z 29004KT 10SM FEW012 SCT018 26/22 A3002 RMK AO2=
METAR KVTP 081420Z AUTO 00000KT 10SM CLR 11/05 A3056 RMK AO2=
METAR KW29 081414Z AUTO 12005KT 7SM CLR 28/23 A3002 RMK AO1=
METAR KWYS 081410Z AUTO 35003KT 10SM CLR 08/02 A3038 RMK AO2=
METAR KX40 081415Z AUTO 13003KT 10SM SCT020 29/21 A3002 RMK AO2 
     T02870209=
####018000093####
SPAU32 YBBN 081415
SPECI YPPD 081415Z AUTO 32003KT 4200NDV // BKN027 OVC047 22/21 Q1010=
####018003725####
SAUS99 KWBC 081417
METAR
KVIS 081415Z AUTO 00000KT 10SM CLR 19/11 A2985 RMK AO1=
KWVL 081415Z AUTO 20005KT 9SM BKN009 OVC013 23/21 A3006 RMK
     AO1=
KWWD 081415Z AUTO 4SM OVC060 24/24 A3005 RMK AO1 P0006=
KAFJ 081415Z AUTO 00000KT 9SM CLR 27/20 A3011 RMK AO1=
KBHB 081415Z AUTO 19011KT 7SM OVC003 19/18 A3014 RMK AO1=
KBID 081415Z AUTO 08005KT 10SM OVC006 24/22 A3009 RMK AO1=
KBLM 081415Z AUTO 13007KT 10SM BKN012 BKN055 OVC070 25/19 A3008
     RMK AO1=
KBTP 081415Z AUTO 22003KT 9SM CLR 27/19 A3010 RMK AO1=
KCGZ 081415Z AUTO 00000KT 10SM CLR 29/02 A2984 RMK AO1=
KCOD 081415Z 00000KT 10SM CLR 15/03 A3034 RMK AO1=
KEEN 081415Z AUTO 17009KT 10SM FEW110 27/22 A3008 RMK AO1=
KENV 081415Z 00000KT 10SM CLR 22/01 A3013 RMK AO1=
KEUL 081415Z AUTO 12003KT 10SM CLR 16/07 A3011 RMK AO1=
KFKL 081415Z 08006KT 10SM CLR 28/19 A3013 RMK AO1=
KFNL 081415Z AUTO 36007KT 10SM OVC045 16/13 A3034 RMK AO1=
KGDV 081415Z AUTO 17003KT 10SM FEW075 17/10 A3019 RMK AO1=
KGUC 081415Z AUTO 00000KT 10SM CLR 11/03 A3046 RMK AO1=
KGXY 081415Z AUTO 08006KT 9SM SCT008 OVC014 16/13 A3034 RMK
     AO1=
KHDN 081415Z 11005KT 10SM BKN120 13/07 A3035 RMK AO1=
KHYI 081415Z AUTO 08009KT 2 1/2SM SCT014 BKN028 OVC070 25/24 A2998
     RMK AO1 P0006=
KILE 081415Z 08007KT 7SM FEW010 BKN016 OVC045 25/23 A3002 RMK
     AO1=
KJHW 081415Z AUTO 16004KT 10SM CLR 27/19 A3011 RMK AO1=
KLCI 081415Z AUTO 20007KT 4SM BKN017 OVC028 26/21 A3008 RMK
     AO1=
KLEW 081415Z 17007KT 6SM OVC008 23/21 A3012 RMK AO1=
KLPC 081415Z AUTO 33003KT 5SM OVC008 13/11 A2994 RMK AO1 PNO=
KMJX 081415Z AUTO 00000KT 10SM BKN008 BKN014 OVC060 26/22 A3004
     RMK AO1=
KMSV 081415Z AUTO 12006KT 10SM CLR 29/20 A3010 RMK AO1=
KOCH 081415Z AUTO 13010KT 10SM BKN011 OVC110 26/20 A3005 RMK
     AO1=
KOKK 081415Z AUTO 21003KT 5SM SCT085 27/20 A3004 RMK AO1=
KPQI 081415Z AUTO 15009KT 10SM CLR 28/22 A2998 RMK AO1=
KPRX 081415Z 16007KT 9SM SCT009 OVC049 27/24 A3006 RMK AO1=
KPTV 081415Z AUTO 15004KT 10SM CLR 19/12 A2988 RMK AO1=
KPVC 081415Z 18012G15KT 10SM SCT017 BKN024 26/22 A3011 RMK AO1=
KPWG 081415Z AUTO 07007KT 10SM FEW011 SCT017 OVC050 26/23 A3004
     RMK AO1=
KRKD 081415Z AUTO 21008KT 8SM OVC003 21/19 A3013 RMK AO1=
KRUT 081415Z AUTO 00000KT 7SM CLR 29/23 A3005 RMK AO1=
KSDY 081415Z AUTO 00000KT 10SM OVC100 17/11 A3018 RMK AO1=
KSFM 081415Z 21004KT 10SM BKN036 OVC044 26/20 A3010 RMK AO1=
KSFZ 081415Z AUTO 15004KT 10SM BKN019 25/21 A3009 RMK AO1=
KSGU 081415Z AUTO 00000KT 10SM CLR 24/02 A3001 RMK AO1=
KSMN 081415Z AUTO 00000KT 10SM CLR 11/05 A3028 RMK AO1=
KTPL 081415Z 08008KT 8SM BKN012 OVC021 25/24 A3003 RMK AO1=
KPQN 081413Z AUTO 31004KT 10SM CLR 21/16 A3018 RMK AO2=
KFGN 081414Z AUTO 30010KT 1 1/2SM HZ VV007 18/14 A3000 RMK AO2 VIS
     3/4V3=
KPNM 081413Z AUTO 26005KT 10SM CLR 22/16 A3011 RMK AO2=
KPWC 081413Z AUTO 28005KT 10SM CLR 21/14 A3009 RMK AO2=
KFFM 081413Z AUTO 28003KT 10SM CLR 19/16 A3009 RMK AO2=
KGDB 081413Z AUTO 25006KT 10SM CLR 22/17 A3015 RMK AO2
     T02150169=
KAIT 081413Z AUTO 25005KT 10SM CLR 22/19 A3007 RMK AO2=
KGHW 081413Z AUTO 26006KT 10SM CLR 21/15 A3014 RMK AO2=
KMWM 081413Z AUTO 32006KT 10SM CLR 22/16 A3015 RMK AO2=
KULM 081415Z AUTO 32004KT 10SM CLR 21/16 A3013 RMK AO2=
KBBB 081413Z AUTO 29006KT 10SM CLR 22/17 A3012 RMK AO2=
KTWM 081413Z AUTO 28005KT 10SM CLR 22/15 A3002 RMK AO2=
KMGG 081415Z AUTO 30005KT 10SM CLR 22/17 A3013 RMK AO2
     T02210171=
KMOX 081410Z AUTO 29005KT 10SM CLR 23/17 A3008 RMK AO2=
K0A9 081415Z AUTO 00000KT 10SM CLR 28/18 A3011 RMK=
K20V 081416Z AUTO 00000KT 10SM SCT011 10/05 A3045 RMK AO2=
K2G4 081415Z AUTO 29003KT 10SM CLR 26/15 A3019 RMK AO1=
####018001651####
SAUS99 KWBC 081417 RRA
METAR
K2W6 081414Z AUTO 11007KT 10SM SCT019 28/22 A3003 RMK AO1=
K4BM 081413Z AUTO 22005KT 10SM 05/04 A3063 RMK AO2=
K4SL 081355Z 18005KT 20SM BKN100 18/09 RMK 10300 20139=
K5SM 081413Z AUTO 00000KT 10SM SCT120 12/03 A3059 RMK AO2=
K7BM 081416Z AUTO 00000KT 7SM BKN002 09/07 A3054 RMK AO2=
KAEG 081415Z AUTO 14014KT 10SM CLR 19/08 A3032 RMK AO1=
KBBP 081415Z AUTO 04004KT 10SM CLR 32/20 A2997 RMK AO2=
KBDU 081417Z AUTO 00000KT 10SM OVC036 17/12 A3035 RMK AO2=
KBKN 081415Z AUTO 02009KT 10SM CLR 24/22 A3008 RMK AO2=
KCBE 081414Z AUTO 00000KT 7SM CLR 28/20 A3009 RMK AO1=
KCCU 081416Z AUTO 21005KT 10SM CLR 10/01 A3065 RMK AO2=
KCGE 081412Z AUTO 14007KT 10SM SCT065 SCT085 28/23 A3003 RMK
     AO1=
KCGS 081415Z AUTO 13003KT 7SM SCT110 31/23 A3002 RMK AO1=
KCIC 081415Z AUTO 15005KT 10SM CLR 19/12 A2985 RMK AO1=
KFDK 081414Z AUTO 00000KT 7SM CLR 34/22 A3004 RMK AO2=
KDMW 081413Z AUTO 00000KT 10SM CLR 31/22 A3005 RMK AO2=
KFME 081415Z AUTO 10008KT 060V120 10SM CLR 28/22 A3004 RMK AO1=
KGGE 081415Z AUTO 31006KT 10SM CLR 30/22 A2994 RMK AO2=
KLUX 081415Z AUTO 00000KT 10SM CLR 30/23 A3003 RMK AO2=
KMAO 081415Z AUTO 02006KT 7SM CLR 30/21 A2995 RMK AO2=
KMYP 081316Z AUTO 20011KT 10SM CLR 05/03 A3076 RMK AO2=
KRCE 081415Z AUTO 00000KT 10SM BKN008 25/23 A3010 RMK AO2=
KSMS 081415Z AUTO 33004KT 9SM CLR 30/22 A2998 RMK AO2=
KVTP 081420Z AUTO 00000KT 10SM CLR 11/05 A3056 RMK AO2=
KW29 081414Z AUTO 12005KT 7SM CLR 28/23 A3002 RMK AO1=
KWYS 081410Z AUTO 35003KT 10SM CLR 08/02 A3038 RMK AO2=
KX40 081415Z AUTO 13003KT 10SM SCT020 29/21 A3002 RMK AO2
     T02870209=
####018000686####
SPUS99 KWBC 081417
SPECI
KEYW 081414Z VRB03KT 10SM BKN019 29/24 A2998 RMK AO2=
KILG 081414Z 15005KT 7SM SCT017 27/22 A3004 RMK AO2=
KTKI 081415Z 13003KT 7SM SCT027 BKN047 OVC055 26/24 A3006 RMK AO2
     RAE13 P0001=
PALG 081412Z AUTO 00000KT 1 1/2SM BR BKN003 06/05 A2999 RMK AO2
     TSNO=
KCOT 081415Z AUTO 03007KT 10SM BKN011 BKN025 OVC065 26/24 A2992
     RMK AO2 RAB01E10 P0000=
KGAG 081415Z AUTO 05008KT 2 1/2SM RA BR OVC005 21/19 A3016 RMK AO2
     P0004=
KGLR 081415Z AUTO 26006KT 6SM -RA BR SCT008 SCT013 BKN060 22/21
     A3004 RMK AO2 P0000=
KLCH 081415Z 27/25 A3002 RMK AO2 PNO $=
KUGN 081415Z 29004KT 10SM FEW012 SCT018 26/22 A3002 RMK AO2=
####018000119####
SAUS44 KFWD 081416
MTRHLR
SPECI KHLR 081415Z AUTO 05006KT 10SM SCT012 BKN042 OVC060 26/ A3003 
RMK AO2 T0261 $
####018000113####
SPSA31 KWBC 081417
SPECI
SOCA 081415Z 10007KT 060V140 6000 -SHRA BKN019 SCT043 28/25 Q1013
NOSIG RMK M2=
####018000085####
SAAG05 SABM 081400 RRB
METAR SAZN 081400Z 29007KT 9999 FEW035 FEW060 11/05 Q1011=
####018000168####
SAUS44 KCRP 081416
MTRCRP
SPECI KCRP 081415Z 04012KT 5SM +RA BR FEW009 SCT024CB BKN040 27/25 
A2987 RMK AO2 RAB1356 CB OHD-N-E-SE MOV NW TCU DSNT NE S SW P0004
####018000075####
SACN50 CWAO 081415
VOB SA 1415 AUTO8 M M M M/15/08/0000/M/M M 99MM=

####018000075####
SACN50 CWAO 081415
WHC SA 1415 AUTO8 M M M M/19/13/MMMM/M/M M 79MM=

####018000075####
SACN50 CWAO 081415
VOF SA 1415 AUTO8 M M M M/17/09/0000/M/M M 66MM=

####018000094####
SPUS31 KWBC 081417
SPECI
KDFW 081413Z 13006KT 8SM -RA SCT009 BKN014 OVC060 26/24 A3004=
####018000097####
SPUS43 KWBC 081417
SPECI
KAZO 081413Z 00000KT 1 1/4SM RA FEW018 BKN025 OVC085 25/22 A3004=
####018000094####
SPUS72 KWBC 081417
SPECI
KDFW 081413Z 13006KT 8SM -RA SCT009 BKN014 OVC060 26/24 A3004=
####018000097####
SPUS73 KWBC 081417
SPECI
KAZO 081413Z 00000KT 1 1/4SM RA FEW018 BKN025 OVC085 25/22 A3004=
####018000107####
SAUS45 KPIH 081417
MTRU78

METAR KU78 081352Z 15014KT 20SM SKC 15/10 A3029 RMK SLPNO NOSPECI


####018000084####
SPCN46 CWAO 081414
SPECI CYYU 081414Z 00000KT 12SM BKN025 BKN080 RMK SC5AC2=

####018000084####
SPUS74 KWBC 081417
SPECI
KCEC 081413Z AUTO 00000KT 1SM BR OVC001 10/09 A2998=
####018000096####
SPUS81 KWBC 081417
SPECI
KMWT 081414Z AUTO 00000KT 10SM BKN017 BKN049 BKN060 26/23 A3009=
####018000083####
SACN66 CWAO 081400 RRB
ZHB SA 1400 AUTO8 M M M 177/14/09/2404/M/ 1004 59MM=

####018000158####
SACN89 CWAO 081400 RRB
WAY SA 1400 AUTO8 M M M 082/03/02/2410/M/ 8002 95MM=
WCF SA 1400 AUTO8 M M M 142/18/13/2810/M/ PK WND 2917 1303Z 2009
75MM=

####018000078####
SPCN44 CWAO 081416
SPECI CYUS 081416Z AUTO ///// 9SM FEW089 14/ A2978=

####018000075####
SACN50 CWAO 081415
VWB SA 1415 AUTO8 M M M M/20/05/MMMM/M/M M 55MM=

####018000083####
SACN86 CWAO 081400 RRA
WPO SA 1400 AUTO8 M M M 208/16/11/3307/M/ 1013 76MM=

####018000757####
SACN88 CWAO 081400 RRB
AAW SA 1400 AUTO8 M M M 209/21/19/2210/M/ 0002 40MM=
ACP SA 1400 AUTO8 M M M 220/17/16/1703/M/ 0006 93MM=
ACQ SA 1400 AUTO8 M M M 162/26/21/2209/M/ 8004 27MM=
ADS SA 1400 AUTO8 M M M 228/11/11/1008/M/ 1002 26MM=
AFC SA 1400 AUTO8 M M M 184/24/19/1809/M/ 8001 82MM=
AHD SA 1400 AUTO7 M M M M/23/18/2305/M/M M 02MM=
AJT SA 1400 AUTO8 M M M 182/18/16/1103/M/ 3003 94MM=
AMS SA 1400 AUTO8 M M M 196/23/16/2312+19/M/ PK WND 2222 1303Z 8004
19MM=
WAR SA 1400 AUTO8 M M M 237/12/10/2205/M/ 8005 42MM=
WSS SA 1400 AUTO8 M M M 192/25/20/1808/M/ 0001 06MM=
XKT SA 1400 AUTO8 M M M M/26/20/2209/M/ M 64MM=
XNP SA 1400 AUTO8 M M M 193/24/20/2408/M/ 0001 95MM=
ZDB SA 1400 AUTO8 M M M 201/25/18/2207/M/ 8004 52MM=

####018000258####
SACN91 CWAO 081400 RRB
WID SA 1400 AUTO8 M M M 143/18/12/3301/M/M 6004 60MM=
WII SA 1400 AUTO8 M M M M/17/13/3016/M/M PK WND 3021 1308Z M 43MM=
WIY SA 1400 AUTO8 M M M 158/28/23/1706/M/ 8005 95MM=
WJB SA 1400 AUTO8 M M M M/24/19/0404/M/ M 91MM=

####018000416####
SACN94 CWAO 081400 RRB
WQL SA 1400 AUTO8 M M M 191/15/10/2406/M/ 8002 82MM=
WQP SA 1400 AUTO8 M M M 164/26/22/2304/M/ 8001 83MM=
WRA SA 1400 AUTO8 M 9.+ M 247/11/10/1305/M/ 2003 48MM=
WRD SA 1400 AUTO8 M M M 168/18/12/0000/M/M 5007 60MM=
WSN SA 1400 AUTO8 M M M 171/29/21/MMMM/M/ 8005 75MM=
WSR SA 1400 AUTO8 M M M 170/17/15/2609/M/ 8002 86MM=
WSU SA 1400 AUTO8 M M M 167/18/14/2907/M/ 2008 46MM=

####018000188####
SACN93 CWAO 081400 RRB
WNZ SA 1400 AUTO8 M M M 130/20/16/0601/M/ 8011 16MM=
WOE SA 1400 AUTO8 M M M M/18/10/1201/M/ M 57MM=
WOK SA 1400 AUTO8 M M M 209/15/11/2306/M/ 3006 41MM=

####018000097####
SACN44 CWAO 081100 RRA
METAR CYUX 081100Z AUTO 04002KT 9SM BKN083 07/06 A2983 RMK SLP101=

####018000218####
SACN78 CWAO 081400 RRB
TBT SA 1400 AUTO8 M M M 174/28/24/2404/M/ 8006 65MM=
TNK SA 1400 AUTO8 M M M 158/28/21/2602/M/ 8011 32MM=
XZC SA 1400 AUTO8 M M M 123/19/18/3103/M/0034 PCPN 3.4MM PAST HR
1010 66MM=

####018000188####
SACN70 CWAO 081400 RRB
PGH SA 1400 AUTO8 M M M 158/17/12/3010/M/ 1011 12MM=
WOO SA 1400 AUTO8 M M M M/18/09/3107/M/ M 50MM=
XWG SA 1400 AUTO8 M M M 166/18/13/3110/M/ 2014 68MM=

####018000248####
SACN90 CWAO 081400 RRB
WEB SA 1400 AUTO8 M M M 154/15/12/0504/M/ 1007 52MM=
WEZ SA 1400 AUTO8 M M M 154/20/14/3106/M/ 3005 72MM=
WFF SA 1400 AUTO8 M M M 187/15/09/2410/M/ 6001 94MM=
WFW SA 1400 AUTO7 M M M 167/16/16/1001/M/ 8003 15MM=

####018000126####
SACN59 CWAO 081300 RRK
PBH SA 1300 AUTO8 M M M M/10/M/MMMM/M/ M 7MMM=
PRR SA 1300 AUTO8 M M M M/13/M/MMMM/M/ M 4MMM=

####018000083####
SACN78 CWAO 081300 RRG
TBT SA 1300 AUTO8 M M M 177/26/23/1803/M/ 8002 88MM=

####018000193####
SACN95 CWAO 081400 RRB
WTA SA 1400 AUTO8 M M M 160/30/22/2403/M/ 8001 02MM=
WTN SA 1400 AUTO8 M M M 160/19/17/1005/M/ 8001 32MM=
WUS SA 1400 AUTO8 M M M 189/19/07/3004/M/ 0006 99MM=

####018000097####
SACN44 CWAO 081000 RRA
METAR CYUX 081000Z AUTO 00000KT 9SM BKN085 07/06 A2984 RMK SLP104=

####018000075####
SACN94 CWAO 081415
WSK SA 1415 AUTO8 M M M M/18/10/3503/M/M M 21MM=

####018000279####
SACN59 CWAO 081400 RRB
NPK SA 1400 AUTO8 M M M 230/11/08/1902/M/ 6007 15MM=
PBR SA 1400 AUTO8 M M M M/15/M/MMMM/M/ M 4MMM=
PCR SA 1400 AUTO8 M M M M/14/M/MMMM/M/ M 2MMM=
PMR SA 1400 AUTO8 M M M M/14/M/MMMM/M/ M 2MMM=
PRR SA 1400 AUTO8 M M M M/16/M/MMMM/M/ M 0MMM=

####018000343####
SACN96 CWAO 081400 RRB
WYE SA 1400 AUTO8 M M M 180/17/12/2204/M/ 3002 94MM=
WZA SA 1400 AUTO8 M M M 158/21/11/0308/M/ PK WND 0319 1316Z 1006
93MM=
XKA SA 1400 AUTO8 M M M 116/17/17/2902/M/0040 PCPN 1.5MM PAST HR
8007 37MM=
XKE SA 1400 AUTO8 M M M 154/31/19/2103/M/ 8005 80MM=
ZUG SA 1400 AUTO8 M M M M/17/11/2908/M/ M 33MM=

####018000575####
SACN97 CWAO 081400 RRB
XDI SA 1400 AUTO8 M M M 150/30/21/2005/M/ 8005 45MM=
XDW SA 1400 AUTO8 M M M M/17/11/3006/M/ M 05MM=
XEC SA 1400 AUTO8  SCT M M M/17/13/MMMM/M/ SUNSH 10 M 34MM=
XEG SA 1400 AUTO8 M M M M/15/14/MMMM/M/ M 49MM=
XET SA 1400 AUTO8 M M M 158/29/22/3103/M/ 8006 97MM=
XMD SA 1400 AUTO8 M M M 175/18/11/3507/M/ 1015 62MM=
XMW SA 1400 AUTO8 M M M 215/14/11/MMMM/M/ 6001 32MM=
XTL SA 1400 AUTO8 M M M 226/08/06/0000/M/ 1006 56MM=
XVG SA 1400 AUTO8 M M M 159/15/10/2406/M/ 2003 46MM=
XWN SA 1400 AUTO8 M M M 172/19/11/3105/M/ 3016 53MM=

####018000357####
SACN92 CWAO 081400 RRB
WJR SA 1400 AUTO8 M M M 208/16/M/2001/M/ 1004 0MMM=
WKG SA 1400 AUTO8 M M M 225/22/21/2402/M/ 1003 27MM=
WKX SA 1400 AUTO8 M M M 236/10/04/0303/M/ 8001 21MM=
WLJ SA 1400 AUTO8 M M M 168/16/13/2607/M/ 6007 62MM=
WMI SA 1400 AUTO8 M M M 164/17/15/0706/M/ 1002 58MM=
WMQ SA 1400 AUTO8 M M M 219/16/11/2202/M/ 2003 44MM=

####018000121####
SACN52 CWAO 081400 RRB
METAR CWGZ 081400Z 00000KT 45SM FEW100 FEW220 04/03 A2978 RMK AC1CI1
VIA ZNB FIC SLP090=

####018000403####
SACN98 CWAO 081400 RRB
XDK SA 1400 AUTO8 M M M 151/16/11/0501/M/ 6006 60MM=
XRB SA 1400 AUTO8 M M M 078/09/05/1408/M/ 8007 17MM=
XTO SA 1400 AUTO8 M M M 163/29/24/MMMM/M/ 8005 08MM=
ZKD SA 1400 AUTO8 M M M M/16/11/2606/M/ M 26MM=
ZMJ SA 1400 AUTO8 M M M 221/17/10/2402/M/ 3007 55MM=
ZTB SA 1400 AUTO8 M M M 150/22/16/2503/M/ 8001 49MM=
ZZJ SA 1400 AUTO8 M M M M/13/07/MMMM/M/ M 31MM=

####018000075####
SACN50 CWAO 081415
VOD SA 1415 AUTO8 M M M M/11/05/0903/M/M M 11MM=

####018000273####
SACN63 CWAO 081400 RRB
NVQ SA 1400 AUTO8 M M M 162/13/11/3006/M/0011 PCPN 0.5MM PAST HR
1016 54MM=
ZFS SA 1400 AUTO8 M M M 148/17/14/2701/M/ 8009 05MM=
ZHY SA 1400 AUTO8 M M M 140/17/13/2801/M/ 6003 91MM=
ZSM SA 1400 AUTO8 M M M 133/17/10/3103/M/ 3003 72MM=

####018000210####
SANI20 DNMM 081400
METAR DNIM 081400Z 24009KT 9999 BKN017 FEW020CB 31/24 Q1012=
METAR DNMA 081400Z 02011KT 9999 FEW012 31/23 Q1010=
METAR DNAA 081400Z 25011KT 9999 BKN014 FEW020CB 29/22 Q1013 NOSIG=

####018000368####
SANA35 KAWN 081400 RRE
METAR KNPA 081356Z 00000KT 10SM FEW250 30/24 A3003 RMK SLP171 T03000244=
METAR SAZS 081400Z 29020KT 9000 VCRA SCT015 SCT025 04/02 Q1007 REDZ
      R29210094=
METAR SKBQ 081400Z 20004KT 8000 HZ SCT010 BKN070 28/26 A2992=
METAR SKCG 081400Z 07003KT 9999 SCT015 BKN070 28/25 A2990=
METAR SKSP 081400Z 09005KT 9999 FEW015 30/26 A2987=
####018000224####
SAUS90 KWBC 081400 RRE
METAR KMWS 081400Z 13504G06KT 20/M02 RMK SNOW DEPTH M=
METAR K77M 081347Z 00000KT 25SM FEW130 10/03 RMK SLPNO NOSPECI=
METAR KU78 081352Z 15014KT 20SM SKC 15/10 A3029 RMK SLPNO
     NOSPECI=
####018000383####
SPUS90 KWBC 081418
SPECI KMWT 081414Z AUTO 00000KT 10SM BKN017 BKN049 BKN060 26/23
     A3009 RMK AO2 TSNO=
SPECI KCRP 081415Z 04012KT 5SM +RA BR FEW009 SCT024CB BKN040 27/25
     A2987 RMK AO2 RAB1356 CB OHD-N-E-SE MOV NW TCU DSNT NE S SW
     P0004=
SPECI KATT 081416Z AUTO VRB03KT 2 1/2SM RA BR BKN010 OVC015 26/24
     A3000 RMK AO2 RAE1357B14 CIG 006V011 P0000=
####018003574####
SAUS90 KWBC 081418
METAR KPQN 081413Z AUTO 31004KT 10SM CLR 21/16 A3018 RMK AO2=
METAR KFGN 081414Z AUTO 30010KT 1 1/2SM HZ VV007 18/14 A3000 RMK
     AO2 VIS 3/4V3=
METAR KPNM 081413Z AUTO 26005KT 10SM CLR 22/16 A3011 RMK AO2=
METAR KPWC 081413Z AUTO 28005KT 10SM CLR 21/14 A3009 RMK AO2=
METAR KFFM 081413Z AUTO 28003KT 10SM CLR 19/16 A3009 RMK AO2=
METAR KGDB 081413Z AUTO 25006KT 10SM CLR 22/17 A3015 RMK AO2
     T02150169=
METAR KAIT 081413Z AUTO 25005KT 10SM CLR 22/19 A3007 RMK AO2=
METAR KGHW 081413Z AUTO 26006KT 10SM CLR 21/15 A3014 RMK AO2=
METAR KMWM 081413Z AUTO 32006KT 10SM CLR 22/16 A3015 RMK AO2=
METAR KULM 081415Z AUTO 32004KT 10SM CLR 21/16 A3013 RMK AO2=
METAR KBBB 081413Z AUTO 29006KT 10SM CLR 22/17 A3012 RMK AO2=
METAR KTWM 081413Z AUTO 28005KT 10SM CLR 22/15 A3002 RMK AO2=
METAR KMGG 081415Z AUTO 30005KT 10SM CLR 22/17 A3013 RMK AO2
     T02210171=
METAR KMOX 081410Z AUTO 29005KT 10SM CLR 23/17 A3008 RMK AO2=
METAR KTEW 081413Z AUTO 00000KT 10SM CLR 27/20 A3003 RMK AO2=
METAR KCVH 081410Z AUTO 00000KT 5SM OVC008 13/12 A2994 RMK AO1=
METAR KFSO 081418Z AUTO 22003KT 7SM CLR 31/25 A3001 RMK AO2=
METAR KFBL 081414Z AUTO 30004KT 10SM CLR 21/16 A3014 RMK AO2=
METAR KLYV 081418Z AUTO 28004KT 10SM CLR 21/16 A3018 RMK AO2=
METAR KEFK 081415Z AUTO 21007KT 7SM CLR 28/22 A3005 RMK AO2=
METAR KRRT 081414Z AUTO 26008KT 10SM CLR 18/14 A3003 RMK AO2=
METAR KTOB 081414Z AUTO 00000KT 10SM CLR 21/17 A3013 RMK AO2=
METAR KLXL 081414Z AUTO 28006KT 10SM CLR 21/14 A3009 RMK AO2=
METAR KEVM 081412Z AUTO 26004KT 10SM CLR 20/15 A3003 RMK AO1=
METAR KELO 081413Z AUTO 24006KT 10SM CLR 21/14 A3002 RMK AO2=
METAR KROX 081414Z AUTO 27007KT 10SM SCT085 19/16 A3004 RMK
     AO2=
METAR KSYN 081430Z AUTO 31005KT 10SM CLR 22/17 A3011 RMK AO2
     T02210173=
METAR KVVV 081415Z AUTO 26006KT 10SM CLR 22/16 A3011 RMK AO2=
METAR KROS 081415Z AUTO 28006KT 10SM CLR 22/16 A3010 RMK AO2
     T02200164=
METAR KHCD 081412Z AUTO 28005KT 10SM CLR 22/17 A3013 RMK AO2
     T02170165=
METAR KSGS 081413Z AUTO 29007KT 10SM CLR 23/16 A3011 RMK AO2
     T02260163=
METAR KMJQ 081411Z AUTO 34004KT 10SM CLR 21/16 A3017 RMK AO2=
METAR KHCO 081414Z AUTO 32009KT 10SM CLR 19/16 A3009 RMK AO2=
METAR KLVN 081408Z AUTO 31006KT 10SM CLR 22/17 A3012 RMK AO2=
METAR KPEX 081412Z AUTO 27008KT 10SM CLR 22/16 A3012 RMK AO2
     T02210161=
METAR KJMR 081418Z AUTO 27004KT 10SM CLR 21/15 A3011 RMK AO2=
METAR KJKJ 081414Z AUTO 30003KT 10SM CLR 22/17 A3008 RMK AO2=
METAR KMVE 081414Z AUTO 32003KT 10SM CLR 22/18 A3011 RMK AO2=
METAR KTKC 081413Z AUTO 30005KT 10SM CLR 22/15 A3015 RMK AO2
     T02200153=
METAR KGYL 081414Z AUTO 30007KT 10SM CLR 21/16 A3012 RMK AO2
     T02130160=
METAR KDXX 081414Z AUTO 00000KT 10SM CLR 22/19 A3011 RMK AO2=
METAR KHZX 081411Z AUTO 29006KT 10SM CLR 21/15 A3008 RMK AO2=
METAR KSAZ 081413Z AUTO 26004KT 10SM CLR 21/19 A3010 RMK AO2=
METAR KONA 081410Z AUTO 31008KT 10SM SCT017 23/17 A3009 RMK
     AO2=
METAR KOVL 081413Z AUTO 29005KT 10SM CLR 21/16 A3013 RMK AO2
     T02060155=
METAR KLJF 081412Z AUTO 30005KT 10SM CLR 22/17 A3013 RMK AO2=
METAR KAEL 081411Z AUTO 34006KT 10SM CLR 21/17 A3013 RMK AO2=
METAR K29G 081413Z AUTO 00000KT 10SM CLR 28/18 A3009 RMK AO2
     T02840180 PWINO=
METAR KMRT 081413Z AUTO 24004KT 10SM CLR 30/19 A3011 RMK AO2
     T02950191=
METAR KIKW 081413Z AUTO 28004KT 10SM SCT070 SCT090 SCT120 25/21
     A3001 RMK AO2 T02470211=
METAR KMDS 081405Z AUTO 28006KT 10SM CLR 21/17 A3018 RMK AO2=
####018002187####
SAUS20 KNKA 081417
METAR K04W 081414Z AUTO 29006KT 10SM CLR 23/16 A3009 RMK AO2 
     T02310164=
METAR K1P1 081415Z AUTO 06003KT 10SM OVC020 28/22 A3007 RMK AO2 
     T02770222=
METAR KC29 081415Z AUTO 32004KT 7SM OVC008 24/21 A3005 RMK AO2 
     T02400205=
METAR KCMR 081415Z AUTO 16004KT 10SM CLR 19/03 A3028 RMK AO1 =
METAR KD39 081414Z AUTO 27008KT 10SM CLR 23/18 A3012 RMK AO2 
     T02280176=
SPECI KDHT 081416Z AUTO 01010KT 10SM SCT009 BKN015 OVC022 18/17 
    A3028 RMK AO2=
SPECI KDWH 081416Z 05005KT 8SM -RA SCT022 BKN070 24/23 A2999 RMK AO2 
    P0002=
METAR KE80 081415Z AUTO 00000KT 10SM CLR 21/12 A3029 RMK AO2 
     T02050118=
METAR KEDC 081415Z AUTO 09005KT RA 25/25 A3000 RMK AO2 P0002 =
METAR KEIK 081415Z AUTO 33003KT 10SM SCT013 OVC019 14/12 A3034 RMK 
     AO2=
METAR KEOE 081415Z AUTO 00000KT 10SM CLR 31/20 A3004 RMK AO2=
METAR KFMH 081415Z AUTO 15011G15KT 10SM OVC017 25/21 A3011 RMK AO2 
     =
SPECI KHOT 081416Z AUTO VRB03KT 10SM BKN010 BKN016 OVC034 26/23 
    A3011 RMK AO2=
METAR KHVS 081415Z AUTO 00000KT 10SM CLR 32/21 A2998 RMK AO2=
METAR KIFP 081415Z AUTO 10003KT 10SM CLR 28/03 A2980 RMK AO2 =
SPECI KITR 081416Z AUTO 08006KT 10SM FEW008 BKN060 OVC090 17/15 
    A3032 RMK AO2=
SPECI KLNR 081416Z AUTO 31005KT 9SM BKN013 BKN018 23/20 A3005 RMK 
    AO2=
METAR KMAN 081415Z AUTO 13004KT 10SM CLR 17/04 A3009 RMK AO1 =
METAR KNQA 081415Z COR 28005KT 10SM FEW150 31/24 A3008 RMK=
METAR KPVF 081415Z AUTO 08006KT 10SM CLR 22/11 A2994 RMK AO1 =
SPECI KRKP 081416Z AUTO 08008KT 4SM -RA SCT011 BKN024 OVC048 A2987 
    RMK AO2 TSE07 P0007 FZRANO=
METAR KRKR 081416Z AUTO 18006KT 7SM SCT090 29/26 A3006 RMK AO2=
METAR KSRR 081415Z AUTO 00000KT 10SM OVC006 14/13 A3039 RMK AO2 =
METAR KTME 081415Z AUTO 06008KT 10SM BKN037 BKN048 OVC080 25/25 
     A2998 RMK AO1 =
METAR KUOX 081415Z AUTO 00000KT 9SM CLR 29/21 A3010 RMK AO2 =
METAR KY51 081415Z AUTO 32006KT 10SM BKN013 22/19 A3008 RMK AO1 
     T02210193=
METAR PAAK 081416Z AUTO 07024G32KT 9SM FEW018 SCT029 BKN055 07/03 
    A2948 RMK AO1 PNO=
METAR PAHP 081416Z AUTO 33004KT 10SM CLR 09/07 A3003 RMK AO1 PNO 
    TSNO=
####018002827####
SAAK41 KNKA 081417
METAR PAAK 081416Z AUTO 07024G32KT 9SM FEW018 SCT029 BKN055 07/03 
    A2948 RMK AO1 PNO=
METAR PABL 081416Z AUTO 23003KT 1/2SM VV005 04/03 A3015 RMK AO1 PNO=
METAR PABV 081416Z AUTO 00000KT 10SM OVC100 12/08 RMK AO1 PNO=
METAR PADK 081416Z 04020G25KT 8SM FEW006 BKN013 OVC044 06/06 A2944 
    RMK AO1 PNO=
METAR PADL 081416Z 30007KT 10SM CLR 09/08 A2995 RMK AO1 PNO TSNO=
METAR PAEM 081416Z AUTO 35006KT 10SM OVC075 12/09 A3000 RMK AO1 PNO=
METAR PAFE 081416Z AUTO 00000KT 10SM CLR 12/10 A3017 RMK AO1 PNO=
METAR PAFM 081416Z AUTO 30003KT 10SM CLR 12/08 A3010 RMK AO1 PNO=
METAR PAGL 081416Z AUTO 10SM CLR 13/08 A3014 RMK AO1 PNO=
METAR PAGS 081416Z AUTO 00000KT 10SM CLR 10/09 A3018 RMK AO1 PNO=
METAR PAHP 081416Z AUTO 33004KT 10SM CLR 09/07 A3003 RMK AO1 PNO 
    TSNO=
METAR PAHY 081416Z AUTO 00000KT 10SM CLR 15/10 A3012 RMK AO1 PNO=
METAR PAII 081416Z AUTO 04003KT 10SM CLR 08/07 A2996 RMK AO1 PNO=
METAR PAIN 081416Z AUTO 00000KT 10SM CLR 06/05 A3006 RMK AO1 PNO=
METAR PAJC 081416Z AUTO 00000KT 10SM FEW010 OVC017 07/03 A2992 RMK 
    AO1 PNO=
METAR PAKK 081416Z AUTO 36010G17KT 10SM CLR 12/06 A3004 RMK AO1 PNO=
METAR PAKP 081416Z AUTO 01005KT 10SM CLR 09/02 A3011 RMK AO1=
SPECI PAKT 081415Z 36009KT 10SM CLR 18/12 A3009 RMK AO2 HARBOR WIND 
    31015KT=
METAR PAMD 081416Z AUTO 09015KT 5SM OVC004 09/08 A3005 RMK AO1 PNO=
METAR PAMH 081416Z 00000KT 10SM CLR 13/07 A2997 RMK AO1 PNO=
METAR PAMM 081416Z AUTO 34003KT 10SM CLR 17/11 A3011 RMK AO1 PNO=
METAR PAMY 081416Z 28004KT 1/4SM OVC001 02/01 A3004 RMK AO1=
METAR PANI 081416Z AUTO 00000KT 5SM BKN002 07/06 A2999 RMK AO1 PNO=
METAR PANV 081416Z AUTO 07004KT 10SM CLR 13/08 A2999 RMK AO1 PNO=
METAR PAPG 081416Z 03005KT 10SM CLR 13/10 A3014 RMK AO1 
    WEA: HIR THN SCT (JNC) PNO=
METAR PAPH 081416Z AUTO 15004KT 1/4SM OVC003 04/02 A2994 RMK AO1 PNO=
METAR PARC 081416Z AUTO 36004KT 10SM CLR 08/02 A3006 RMK AO1 PNO=
METAR PASA 081416Z AUTO 19003KT M1/4SM OVC001 03/01 A3018 RMK AO1 
    PNO=
METAR PASD 081416Z AUTO 00000KT 10SM CLR 05/04 A2991 RMK AO1 PNO=
METAR PASH 081416Z AUTO 00000KT 10SM CLR 07/05 A3016 RMK AO1 PNO=
METAR PASK 081416Z 27007KT 10SM CLR 12/09 A3010 RMK AO1 PNO=
METAR PASL 081416Z AUTO 36003KT 10SM CLR 11/08 A3000 RMK AO1 PNO=
METAR PASM 081416Z AUTO 07003KT 10SM OVC075 10/09 A3002 RMK AO1 PNO=
SPECI PASO 081415Z AUTO 00000KT 10SM SCT004 OVC100 09/09 A2993 RMK 
    AO2 TSNO=
METAR PAUN 081416Z AUTO 06011KT 10SM CLR 13/04 A3001 RMK AO1 PNO=
METAR PAWG 081416Z 00000KT 10SM CLR 14/10 A3014 RMK AO1 
    WEA:NONE  RJ PNO=
METAR PAWN 081416Z AUTO 29004KT 10SM CLR 07/01 A3015 RMK AO1 PNO=
METAR PAWS 081416Z AUTO 00000KT 10SM CLR 12/08 A2997 RMK AO1 PNO=
METAR PAZK 081416Z AUTO 04005KT 10SM CLR 09/04 A3007 RMK AO1 PNO=
####018000074####
SACN50 CWAO 081415
WPN SA 1415 AUTO8 M M M M/17/M/0000/M/M M 6MMM=

####018000075####
SACN50 CWAO 081415
VOH SA 1415 AUTO8 M M M M/16/03/0504/M/M M 55MM=

####018000075####
SACN50 CWAO 081415
VOU SA 1415 AUTO8 M M M M/21/12/0000/M/M M 65MM=

####018000075####
SACN50 CWAO 081415
VOC SA 1415 AUTO8 M M M M/15/10/0000/M/M M 22MM=

####018000144####
SAUS44 KEWX 081417
MTRATT
SPECI KATT 081416Z AUTO VRB03KT 2 1/2SM RA BR BKN010 OVC015 26/24 
A3000 RMK AO2 RAE1357B14 CIG 006V011 P0000
####018003698####
SAUS99 KWBC 081418
METAR
KTEW 081413Z AUTO 00000KT 10SM CLR 27/20 A3003 RMK AO2=
KCVH 081410Z AUTO 00000KT 5SM OVC008 13/12 A2994 RMK AO1=
KFSO 081418Z AUTO 22003KT 7SM CLR 31/25 A3001 RMK AO2=
KFBL 081414Z AUTO 30004KT 10SM CLR 21/16 A3014 RMK AO2=
KLYV 081418Z AUTO 28004KT 10SM CLR 21/16 A3018 RMK AO2=
KEFK 081415Z AUTO 21007KT 7SM CLR 28/22 A3005 RMK AO2=
KRRT 081414Z AUTO 26008KT 10SM CLR 18/14 A3003 RMK AO2=
KTOB 081414Z AUTO 00000KT 10SM CLR 21/17 A3013 RMK AO2=
KLXL 081414Z AUTO 28006KT 10SM CLR 21/14 A3009 RMK AO2=
KEVM 081412Z AUTO 26004KT 10SM CLR 20/15 A3003 RMK AO1=
KELO 081413Z AUTO 24006KT 10SM CLR 21/14 A3002 RMK AO2=
KROX 081414Z AUTO 27007KT 10SM SCT085 19/16 A3004 RMK AO2=
KSYN 081430Z AUTO 31005KT 10SM CLR 22/17 A3011 RMK AO2
     T02210173=
KVVV 081415Z AUTO 26006KT 10SM CLR 22/16 A3011 RMK AO2=
KROS 081415Z AUTO 28006KT 10SM CLR 22/16 A3010 RMK AO2
     T02200164=
KHCD 081412Z AUTO 28005KT 10SM CLR 22/17 A3013 RMK AO2
     T02170165=
KSGS 081413Z AUTO 29007KT 10SM CLR 23/16 A3011 RMK AO2
     T02260163=
KMJQ 081411Z AUTO 34004KT 10SM CLR 21/16 A3017 RMK AO2=
KHCO 081414Z AUTO 32009KT 10SM CLR 19/16 A3009 RMK AO2=
KLVN 081408Z AUTO 31006KT 10SM CLR 22/17 A3012 RMK AO2=
KPEX 081412Z AUTO 27008KT 10SM CLR 22/16 A3012 RMK AO2
     T02210161=
KJMR 081418Z AUTO 27004KT 10SM CLR 21/15 A3011 RMK AO2=
KJKJ 081414Z AUTO 30003KT 10SM CLR 22/17 A3008 RMK AO2=
KMVE 081414Z AUTO 32003KT 10SM CLR 22/18 A3011 RMK AO2=
KTKC 081413Z AUTO 30005KT 10SM CLR 22/15 A3015 RMK AO2
     T02200153=
KGYL 081414Z AUTO 30007KT 10SM CLR 21/16 A3012 RMK AO2
     T02130160=
KDXX 081414Z AUTO 00000KT 10SM CLR 22/19 A3011 RMK AO2=
KHZX 081411Z AUTO 29006KT 10SM CLR 21/15 A3008 RMK AO2=
KSAZ 081413Z AUTO 26004KT 10SM CLR 21/19 A3010 RMK AO2=
KONA 081410Z AUTO 31008KT 10SM SCT017 23/17 A3009 RMK AO2=
KOVL 081413Z AUTO 29005KT 10SM CLR 21/16 A3013 RMK AO2
     T02060155=
KLJF 081412Z AUTO 30005KT 10SM CLR 22/17 A3013 RMK AO2=
KAEL 081411Z AUTO 34006KT 10SM CLR 21/17 A3013 RMK AO2=
K29G 081413Z AUTO 00000KT 10SM CLR 28/18 A3009 RMK AO2 T02840180
     PWINO=
KMRT 081413Z AUTO 24004KT 10SM CLR 30/19 A3011 RMK AO2
     T02950191=
KIKW 081413Z AUTO 28004KT 10SM SCT070 SCT090 SCT120 25/21 A3001
     RMK AO2 T02470211=
KMDS 081405Z AUTO 28006KT 10SM CLR 21/17 A3018 RMK AO2=
PAAK 081416Z AUTO 07024G32KT 9SM FEW018 SCT029 BKN055 07/03 A2948
     RMK AO1 PNO=
PABL 081416Z AUTO 23003KT 1/2SM VV005 04/03 A3015 RMK AO1 PNO=
PABV 081416Z AUTO 00000KT 10SM OVC100 12/08 RMK AO1 PNO=
PADK 081416Z 04020G25KT 8SM FEW006 BKN013 OVC044 06/06 A2944 RMK
     AO1 PNO=
PADL 081416Z 30007KT 10SM CLR 09/08 A2995 RMK AO1 PNO TSNO=
PAEM 081416Z AUTO 35006KT 10SM OVC075 12/09 A3000 RMK AO1 PNO=
PAFE 081416Z AUTO 00000KT 10SM CLR 12/10 A3017 RMK AO1 PNO=
PAFM 081416Z AUTO 30003KT 10SM CLR 12/08 A3010 RMK AO1 PNO=
PAGL 081416Z AUTO 10SM CLR 13/08 A3014 RMK AO1 PNO=
PAGS 081416Z AUTO 00000KT 10SM CLR 10/09 A3018 RMK AO1 PNO=
PAHP 081416Z AUTO 33004KT 10SM CLR 09/07 A3003 RMK AO1 PNO
     TSNO=
PAHY 081416Z AUTO 00000KT 10SM CLR 15/10 A3012 RMK AO1 PNO=
PAII 081416Z AUTO 04003KT 10SM CLR 08/07 A2996 RMK AO1 PNO=
PAIN 081416Z AUTO 00000KT 10SM CLR 06/05 A3006 RMK AO1 PNO=
PAJC 081416Z AUTO 00000KT 10SM FEW010 OVC017 07/03 A2992 RMK AO1
     PNO=
PAKK 081416Z AUTO 36010G17KT 10SM CLR 12/06 A3004 RMK AO1 PNO=
PAKP 081416Z AUTO 01005KT 10SM CLR 09/02 A3011 RMK AO1=
PAMD 081416Z AUTO 09015KT 5SM OVC004 09/08 A3005 RMK AO1 PNO=
PAMH 081416Z 00000KT 10SM CLR 13/07 A2997 RMK AO1 PNO=
PAMM 081416Z AUTO 34003KT 10SM CLR 17/11 A3011 RMK AO1 PNO=
####018002618####
SAUS99 KWBC 081418 RRA
METAR
PAMY 081416Z 28004KT 1/4SM OVC001 02/01 A3004 RMK AO1=
PANI 081416Z AUTO 00000KT 5SM BKN002 07/06 A2999 RMK AO1 PNO=
PANV 081416Z AUTO 07004KT 10SM CLR 13/08 A2999 RMK AO1 PNO=
PAPG 081416Z 03005KT 10SM CLR 13/10 A3014 RMK AO1 WEA: HIR THN SCT
     (JNC) PNO=
PAPH 081416Z AUTO 15004KT 1/4SM OVC003 04/02 A2994 RMK AO1 PNO=
PARC 081416Z AUTO 36004KT 10SM CLR 08/02 A3006 RMK AO1 PNO=
PASA 081416Z AUTO 19003KT M1/4SM OVC001 03/01 A3018 RMK AO1
     PNO=
PASD 081416Z AUTO 00000KT 10SM CLR 05/04 A2991 RMK AO1 PNO=
PASH 081416Z AUTO 00000KT 10SM CLR 07/05 A3016 RMK AO1 PNO=
PASK 081416Z 27007KT 10SM CLR 12/09 A3010 RMK AO1 PNO=
PASL 081416Z AUTO 36003KT 10SM CLR 11/08 A3000 RMK AO1 PNO=
PASM 081416Z AUTO 07003KT 10SM OVC075 10/09 A3002 RMK AO1 PNO=
PAUN 081416Z AUTO 06011KT 10SM CLR 13/04 A3001 RMK AO1 PNO=
PAWG 081416Z 00000KT 10SM CLR 14/10 A3014 RMK AO1 WEA:NONE RJ
     PNO=
PAWN 081416Z AUTO 29004KT 10SM CLR 07/01 A3015 RMK AO1 PNO=
PAWS 081416Z AUTO 00000KT 10SM CLR 12/08 A2997 RMK AO1 PNO=
PAZK 081416Z AUTO 04005KT 10SM CLR 09/04 A3007 RMK AO1 PNO=
K04W 081414Z AUTO 29006KT 10SM CLR 23/16 A3009 RMK AO2
     T02310164=
K1P1 081415Z AUTO 06003KT 10SM OVC020 28/22 A3007 RMK AO2
     T02770222=
KC29 081415Z AUTO 32004KT 7SM OVC008 24/21 A3005 RMK AO2
     T02400205=
KCMR 081415Z AUTO 16004KT 10SM CLR 19/03 A3028 RMK AO1=
KD39 081414Z AUTO 27008KT 10SM CLR 23/18 A3012 RMK AO2
     T02280176=
KE80 081415Z AUTO 00000KT 10SM CLR 21/12 A3029 RMK AO2
     T02050118=
KEDC 081415Z AUTO 09005KT RA 25/25 A3000 RMK AO2 P0002=
KEIK 081415Z AUTO 33003KT 10SM SCT013 OVC019 14/12 A3034 RMK
     AO2=
KEOE 081415Z AUTO 00000KT 10SM CLR 31/20 A3004 RMK AO2=
KFMH 081415Z AUTO 15011G15KT 10SM OVC017 25/21 A3011 RMK AO2=
KHVS 081415Z AUTO 00000KT 10SM CLR 32/21 A2998 RMK AO2=
KIFP 081415Z AUTO 10003KT 10SM CLR 28/03 A2980 RMK AO2=
KMAN 081415Z AUTO 13004KT 10SM CLR 17/04 A3009 RMK AO1=
KNQA 081415Z COR 28005KT 10SM FEW150 31/24 A3008 RMK=
KPVF 081415Z AUTO 08006KT 10SM CLR 22/11 A2994 RMK AO1=
KRKR 081416Z AUTO 18006KT 7SM SCT090 29/26 A3006 RMK AO2=
KSRR 081415Z AUTO 00000KT 10SM OVC006 14/13 A3039 RMK AO2=
KTME 081415Z AUTO 06008KT 10SM BKN037 BKN048 OVC080 25/25 A2998
     RMK AO1=
KUOX 081415Z AUTO 00000KT 9SM CLR 29/21 A3010 RMK AO2=
KY51 081415Z AUTO 32006KT 10SM BKN013 22/19 A3008 RMK AO1
     T02210193=
PAAK 081416Z AUTO 07024G32KT 9SM FEW018 SCT029 BKN055 07/03 A2948
     RMK AO1 PNO=
PAHP 081416Z AUTO 33004KT 10SM CLR 09/07 A3003 RMK AO1 PNO
     TSNO=
####018000686####
SPUS99 KWBC 081418
SPECI
PAKT 081415Z 36009KT 10SM CLR 18/12 A3009 RMK AO2 HARBOR WIND
     31015KT=
PASO 081415Z AUTO 00000KT 10SM SCT004 OVC100 09/09 A2993 RMK AO2
     TSNO=
KDHT 081416Z AUTO 01010KT 10SM SCT009 BKN015 OVC022 18/17 A3028
     RMK AO2=
KDWH 081416Z 05005KT 8SM -RA SCT022 BKN070 24/23 A2999 RMK AO2
     P0002=
KHOT 081416Z AUTO VRB03KT 10SM BKN010 BKN016 OVC034 26/23 A3011
     RMK AO2=
KITR 081416Z AUTO 08006KT 10SM FEW008 BKN060 OVC090 17/15 A3032
     RMK AO2=
KLNR 081416Z AUTO 31005KT 9SM BKN013 BKN018 23/20 A3005 RMK
     AO2=
KRKP 081416Z AUTO 08008KT 4SM -RA SCT011 BKN024 OVC048 A2987 RMK
     AO2 TSE07 P0007 FZRANO=
####018000109####
SPBU40 LBSM 081416
SPECI LBBG 081416Z 28005MPS 250V320 5000 +RA FEW013 OVC036 17/16
 Q1014 WS R22 NOSIG=
####018000078####
SAAF05 LFPW 081400 RRB
METAR DNMA 081400Z 02011KT 9999 FEW012 31/23 Q1010=
####018001209####
SACN85 KWBC 081418
METAR CWSS 081400Z AUTO 18008KT 25/20 RMK AO1 SLP192 T02500196
50001=
METAR CWSS 081400Z AUTO 18008KT 25/20 RMK AO1 SLP192 T02500196
50001=
METAR CWSS 081400Z AUTO 18008KT 25/20 RMK AO1 SLP192 T02500196
50001=
METAR CWSS 081400Z AUTO 18008KT 25/20 RMK AO1 SLP192 T02500196
50001=
METAR CWSS 081400Z AUTO 18008KT 25/20 RMK AO1 SLP192 T02500196
50001=
METAR CWSS 081400Z AUTO 18008KT 25/20 RMK AO1 SLP192 T02500196
50001=
METAR CWRA 081400Z AUTO 9SM M01/M01 RMK AO1 24711/10/1305/2003
T10061012=
METAR CWSS 081400Z AUTO 18008KT 25/20 RMK AO1 SLP192 T02500196
50001=
METAR CWSS 081400Z AUTO 18008KT 25/20 RMK AO1 SLP192 T02500196
50001=
METAR CWSS 081400Z AUTO 18008KT 25/20 RMK AO1 SLP192 T02500196
50001=
METAR CWSS 081400Z AUTO 18008KT 25/20 RMK AO1 SLP192 T02500196
50001=
METAR CWSS 081400Z AUTO 18008KT 25/20 RMK AO1 SLP192 T02500196
50001=
METAR CWSS 081400Z AUTO 18008KT 25/20 RMK AO1 SLP192 T02500196
50001=
METAR CWSS 081400Z AUTO 18008KT 25/20 RMK AO1 SLP192 T02500196
50001=
METAR CWSS 081400Z AUTO 18008KT 25/20 RMK AO1 SLP192 T02500196
50001=
METAR CWSS 081400Z AUTO 18008KT 25/20 RMK AO1 SLP192 T02500196
50001=
####018000281####
SACN96 KWBC 081418
METAR CWZA 081400Z AUTO 03008KT 21/11 RMK AO1 PK WND 03019/1316
SLP158 T02090113 51006=
METAR CXKA 081400Z AUTO 29002KT 17/17 RMK AO1 5PAST HR 8007 SLP116
P0006 T01730167 50040=
METAR CXKE 081400Z AUTO 21003KT 31/19 RMK AO1 SLP154 T03080190
58005=
####018001638####
SACN97 KWBC 081418
METAR CXKT 081400Z AUTO 22009KT 26/20 RMK AO1 T02560204=
METAR CXKT 081400Z AUTO 22009KT 26/20 RMK AO1 T02560204=
METAR CXKT 081400Z AUTO 22009KT 26/20 RMK AO1 T02560204=
METAR CXKT 081400Z AUTO 22009KT 26/20 RMK AO1 T02560204=
METAR CXKT 081400Z AUTO 22009KT 26/20 RMK AO1 T02560204=
METAR CXKT 081400Z AUTO 22009KT 26/20 RMK AO1 T02560204=
METAR CXKT 081400Z AUTO 22009KT 26/20 RMK AO1 T02560204=
METAR CXKT 081400Z AUTO 22009KT 26/20 RMK AO1 T02560204=
METAR CXKT 081400Z AUTO 22009KT 26/20 RMK AO1 T02560204=
METAR CXKT 081400Z AUTO 22009KT 26/20 RMK AO1 T02560204=
METAR CXKT 081400Z AUTO 22009KT 26/20 RMK AO1 T02560204=
METAR CXKT 081400Z AUTO 22009KT 26/20 RMK AO1 T02560204=
METAR CXKT 081400Z AUTO 22009KT 26/20 RMK AO1 T02560204=
METAR CXKT 081400Z AUTO 22009KT 26/20 RMK AO1 T02560204=
METAR CXKT 081400Z AUTO 22009KT 26/20 RMK AO1 T02560204=
METAR CXDI 081400Z AUTO 20005KT 30/21 RMK AO1 SLP150 T03040205
58005=
METAR CXDW 081400Z AUTO 30006KT 17/11 RMK AO1 T01700105=
METAR CXEC 081400Z AUTO 17/13 RMK AO1 SUNSH 10 T01730134=
METAR CXEG 081400Z AUTO 15/14 RMK AO1 T01540139=
METAR CXET 081400Z AUTO 31003KT 29/22 RMK AO1 SLP158 T02890217
58006=
METAR CXMD 081400Z AUTO 35007KT 18/11 RMK AO1 SLP175 T01760112
51015=
METAR CXWN 081400Z AUTO 31005KT 19/11 RMK AO1 SLP172 T01850113
53016=
METAR CXKT 081400Z AUTO 22009KT 26/20 RMK AO1 T02560204=
METAR CXMD 081400Z AUTO 35007KT 18/11 RMK AO1 SLP175 T01760112
51015=
METAR CXWN 081400Z AUTO 31005KT 19/11 RMK AO1 SLP172 T01850113
53016=
METAR CXKT 081400Z AUTO 22009KT 26/20 RMK AO1 T02560204=
####018003647####
SACN88 KWBC 081418
METAR CWAR 081400Z AUTO 22005KT 12/10 RMK AO1 SLP237 T01240102
58005=
METAR CXNP 081400Z AUTO 24008KT 24/20 RMK AO1 SLP193 T02390195
50001=
METAR CZDB 081400Z AUTO 22007KT 25/18 RMK AO1 SLP201 T02450182
58004=
METAR CWAR 081400Z AUTO 22005KT 12/10 RMK AO1 SLP237 T01240102
58005=
METAR CXNP 081400Z AUTO 24008KT 24/20 RMK AO1 SLP193 T02390195
50001=
METAR CZDB 081400Z AUTO 22007KT 25/18 RMK AO1 SLP201 T02450182
58004=
METAR CWAR 081400Z AUTO 22005KT 12/10 RMK AO1 SLP237 T01240102
58005=
METAR CXNP 081400Z AUTO 24008KT 24/20 RMK AO1 SLP193 T02390195
50001=
METAR CZDB 081400Z AUTO 22007KT 25/18 RMK AO1 SLP201 T02450182
58004=
METAR CWAR 081400Z AUTO 22005KT 12/10 RMK AO1 SLP237 T01240102
58005=
METAR CXNP 081400Z AUTO 24008KT 24/20 RMK AO1 SLP193 T02390195
50001=
METAR CZDB 081400Z AUTO 22007KT 25/18 RMK AO1 SLP201 T02450182
58004=
METAR CWAR 081400Z AUTO 22005KT 12/10 RMK AO1 SLP237 T01240102
58005=
METAR CXNP 081400Z AUTO 24008KT 24/20 RMK AO1 SLP193 T02390195
50001=
METAR CZDB 081400Z AUTO 22007KT 25/18 RMK AO1 SLP201 T02450182
58004=
METAR CWAR 081400Z AUTO 22005KT 12/10 RMK AO1 SLP237 T01240102
58005=
METAR CXNP 081400Z AUTO 24008KT 24/20 RMK AO1 SLP193 T02390195
50001=
METAR CZDB 081400Z AUTO 22007KT 25/18 RMK AO1 SLP201 T02450182
58004=
METAR CWAR 081400Z AUTO 22005KT 12/10 RMK AO1 SLP237 T01240102
58005=
METAR CXNP 081400Z AUTO 24008KT 24/20 RMK AO1 SLP193 T02390195
50001=
METAR CZDB 081400Z AUTO 22007KT 25/18 RMK AO1 SLP201 T02450182
58004=
METAR CWAR 081400Z AUTO 22005KT 12/10 RMK AO1 SLP237 T01240102
58005=
METAR CXNP 081400Z AUTO 24008KT 24/20 RMK AO1 SLP193 T02390195
50001=
METAR CZDB 081400Z AUTO 22007KT 25/18 RMK AO1 SLP201 T02450182
58004=
METAR CWAR 081400Z AUTO 22005KT 12/10 RMK AO1 SLP237 T01240102
58005=
METAR CXNP 081400Z AUTO 24008KT 24/20 RMK AO1 SLP193 T02390195
50001=
METAR CZDB 081400Z AUTO 22007KT 25/18 RMK AO1 SLP201 T02450182
58004=
METAR CWAR 081400Z AUTO 22005KT 12/10 RMK AO1 SLP237 T01240102
58005=
METAR CXNP 081400Z AUTO 24008KT 24/20 RMK AO1 SLP193 T02390195
50001=
METAR CZDB 081400Z AUTO 22007KT 25/18 RMK AO1 SLP201 T02450182
58004=
METAR CWAR 081400Z AUTO 22005KT 12/10 RMK AO1 SLP237 T01240102
58005=
METAR CXNP 081400Z AUTO 24008KT 24/20 RMK AO1 SLP193 T02390195
50001=
METAR CZDB 081400Z AUTO 22007KT 25/18 RMK AO1 SLP201 T02450182
58004=
METAR CWAR 081400Z AUTO 22005KT 12/10 RMK AO1 SLP237 T01240102
58005=
METAR CXNP 081400Z AUTO 24008KT 24/20 RMK AO1 SLP193 T02390195
50001=
METAR CZDB 081400Z AUTO 22007KT 25/18 RMK AO1 SLP201 T02450182
58004=
METAR CWAR 081400Z AUTO 22005KT 12/10 RMK AO1 SLP237 T01240102
58005=
METAR CXNP 081400Z AUTO 24008KT 24/20 RMK AO1 SLP193 T02390195
50001=
METAR CZDB 081400Z AUTO 22007KT 25/18 RMK AO1 SLP201 T02450182
58004=
METAR CWAR 081400Z AUTO 22005KT 12/10 RMK AO1 SLP237 T01240102
58005=
METAR CXNP 081400Z AUTO 24008KT 24/20 RMK AO1 SLP193 T02390195
50001=
METAR CZDB 081400Z AUTO 22007KT 25/18 RMK AO1 SLP201 T02450182
58004=
METAR CWAR 081400Z AUTO 22005KT 12/10 RMK AO1 SLP237 T01240102
58005=
METAR CXNP 081400Z AUTO 24008KT 24/20 RMK AO1 SLP193 T02390195
50001=
METAR CZDB 081400Z AUTO 22007KT 25/18 RMK AO1 SLP201 T02450182
58004=
METAR CXNP 081400Z AUTO 24008KT 24/20 RMK AO1 SLP193 T02390195
50001=
METAR CZDB 081400Z AUTO 22007KT 25/18 RMK AO1 SLP201 T02450182
58004=
METAR CXNP 081400Z AUTO 24008KT 24/20 RMK AO1 SLP193 T02390195
50001=
METAR CZDB 081400Z AUTO 22007KT 25/18 RMK AO1 SLP201 T02450182
58004=
####018000169####
SACN86 KWBC 081418
METAR CWPO 081400Z AUTO 33007KT 16/11 RMK AO1 SLP208 T01570106
51013=
METAR CWNZ 081400Z AUTO 06001KT 20/16 RMK AO1 SLP130 T02010156
58011=
####018000113####
SACN89 KWBC 081418
METAR CWCF 081400Z AUTO 28010KT 18/13 RMK AO1 PK WND 29017/1303
SLP142 T01770125 52009=
####018000080####
SACN93 KWBC 081418
METAR CWOE 081400Z AUTO 12001KT 18/10 RMK AO1 T01750097=
####018000317####
SACN90 KWBC 081418
METAR CWEB 081400Z AUTO 05004KT 15/12 RMK AO1 SLP154 T01450122
51007=
METAR CWEZ 081400Z AUTO 31006KT 20/14 RMK AO1 SLP154 T01970142
53005=
METAR CWFF 081400Z AUTO 24010KT 15/09 RMK AO1 SLP187 T01490094
56001=
METAR CWFF 081400Z AUTO 24010KT 15/09 RMK AO1 SLP187 T01490094
56001=
####018000309####
SACN92 KWBC 081418
METAR CWJR 081400Z AUTO 20001KT 16/ RMK AO1 SLP208 T0160 51004=
METAR CWKG 081400Z AUTO 24002KT 22/21 RMK AO1 SLP225 T02220207
51003=
METAR CWKX 081400Z AUTO 03003KT 10/04 RMK AO1 SLP236 T01020041
58001=
METAR CWMQ 081400Z AUTO 22002KT 16/11 RMK AO1 SLP219 T01640114
52003=
####018000558####
SACN91 KWBC 081418
METAR CWID 081400Z AUTO 33001KT 18/12 RMK AO1 SLP143 T01760120
56004=
METAR CWII 081400Z AUTO 30016KT 17/13 RMK AO1 PK WND 30021/1308
T01740133=
METAR CWIY 081400Z AUTO 17006KT 28/23 RMK AO1 SLP158 T02790225
58005=
METAR CWJB 081400Z AUTO 04004KT 24/19 RMK AO1 T02390191=
METAR CWIY 081400Z AUTO 17006KT 28/23 RMK AO1 SLP158 T02790225
58005=
METAR CWJB 081400Z AUTO 04004KT 24/19 RMK AO1 T02390191=
METAR CWJB 081400Z AUTO 04004KT 24/19 RMK AO1 T02390191=
METAR CWJB 081400Z AUTO 04004KT 24/19 RMK AO1 T02390191=
####018000243####
SACN95 KWBC 081418
METAR CWTA 081400Z AUTO 24003KT 30/22 RMK AO1 SLP160 T03000222
58001=
METAR CWTN 081400Z AUTO 10005KT 19/17 RMK AO1 SLP160 T01930172
58001=
METAR CWUS 081400Z AUTO 30004KT 19/07 RMK AO1 SLP189 T01890069
50006=
####018000376####
SACN94 KWBC 081418
METAR CWQP 081400Z AUTO 23004KT 26/22 RMK AO1 SLP164 T02580223
58001=
METAR CWSR 081400Z AUTO 26009KT 17/15 RMK AO1 SLP170 T01680146
58002=
METAR CWSR 081400Z AUTO 26009KT 17/15 RMK AO1 SLP170 T01680146
58002=
METAR CWSR 081400Z AUTO 26009KT 17/15 RMK AO1 SLP170 T01680146
58002=
METAR CWSK 081415Z AUTO 35003KT 18/10 RMK AO1 T01820101=
####018000189####
SACN78 KWBC 081418
METAR CTNK 081400Z AUTO 26002KT 28/21 RMK AO1 SLP158 T02830212
58011=
METAR CXZC 081400Z AUTO 31003KT 19/18 RMK AO1 4PAST HR 1010 SLP123
P0013 T01860176 50034=
####018003714####
SAUS70 KWBC 081418 RRA
METAR
KRCE 081415Z AUTO 00000KT 10SM BKN008 25/23 A3010 RMK AO2=
KVTP 081420Z AUTO 00000KT 10SM CLR 11/05 A3056 RMK AO2=
KW29 081414Z AUTO 12005KT 7SM CLR 28/23 A3002 RMK AO1=
KWYS 081410Z AUTO 35003KT 10SM CLR 08/02 A3038 RMK AO2=
KX40 081415Z AUTO 13003KT 10SM SCT020 29/21 A3002 RMK AO2
     T02870209=
PAAK 081416Z AUTO 07024G32KT 9SM FEW018 SCT029 BKN055 07/03 A2948
     RMK AO1 PNO=
PABL 081416Z AUTO 23003KT 1/2SM VV005 04/03 A3015 RMK AO1 PNO=
PABV 081416Z AUTO 00000KT 10SM OVC100 12/08 RMK AO1 PNO=
PADL 081416Z 30007KT 10SM CLR 09/08 A2995 RMK AO1 PNO TSNO=
PAEM 081416Z AUTO 35006KT 10SM OVC075 12/09 A3000 RMK AO1 PNO=
PAFE 081416Z AUTO 00000KT 10SM CLR 12/10 A3017 RMK AO1 PNO=
PAFM 081416Z AUTO 30003KT 10SM CLR 12/08 A3010 RMK AO1 PNO=
PAGL 081416Z AUTO 10SM CLR 13/08 A3014 RMK AO1 PNO=
PAGS 081416Z AUTO 00000KT 10SM CLR 10/09 A3018 RMK AO1 PNO=
PAHP 081416Z AUTO 33004KT 10SM CLR 09/07 A3003 RMK AO1 PNO
     TSNO=
PAHY 081416Z AUTO 00000KT 10SM CLR 15/10 A3012 RMK AO1 PNO=
PAII 081416Z AUTO 04003KT 10SM CLR 08/07 A2996 RMK AO1 PNO=
PAIN 081416Z AUTO 00000KT 10SM CLR 06/05 A3006 RMK AO1 PNO=
PAJC 081416Z AUTO 00000KT 10SM FEW010 OVC017 07/03 A2992 RMK AO1
     PNO=
PAKK 081416Z AUTO 36010G17KT 10SM CLR 12/06 A3004 RMK AO1 PNO=
PAKP 081416Z AUTO 01005KT 10SM CLR 09/02 A3011 RMK AO1=
PAMD 081416Z AUTO 09015KT 5SM OVC004 09/08 A3005 RMK AO1 PNO=
PAMH 081416Z 00000KT 10SM CLR 13/07 A2997 RMK AO1 PNO=
PAMM 081416Z AUTO 34003KT 10SM CLR 17/11 A3011 RMK AO1 PNO=
PAMY 081416Z 28004KT 1/4SM OVC001 02/01 A3004 RMK AO1=
PANI 081416Z AUTO 00000KT 5SM BKN002 07/06 A2999 RMK AO1 PNO=
PANV 081416Z AUTO 07004KT 10SM CLR 13/08 A2999 RMK AO1 PNO=
PAPG 081416Z 03005KT 10SM CLR 13/10 A3014 RMK AO1 WEA: HIR THN SCT
     (JNC) PNO=
PAPH 081416Z AUTO 15004KT 1/4SM OVC003 04/02 A2994 RMK AO1 PNO=
PARC 081416Z AUTO 36004KT 10SM CLR 08/02 A3006 RMK AO1 PNO=
PASA 081416Z AUTO 19003KT M1/4SM OVC001 03/01 A3018 RMK AO1
     PNO=
PASD 081416Z AUTO 00000KT 10SM CLR 05/04 A2991 RMK AO1 PNO=
PASH 081416Z AUTO 00000KT 10SM CLR 07/05 A3016 RMK AO1 PNO=
PASK 081416Z 27007KT 10SM CLR 12/09 A3010 RMK AO1 PNO=
PASL 081416Z AUTO 36003KT 10SM CLR 11/08 A3000 RMK AO1 PNO=
PASM 081416Z AUTO 07003KT 10SM OVC075 10/09 A3002 RMK AO1 PNO=
PAUN 081416Z AUTO 06011KT 10SM CLR 13/04 A3001 RMK AO1 PNO=
PAWG 081416Z 00000KT 10SM CLR 14/10 A3014 RMK AO1 WEA:NONE RJ
     PNO=
PAWN 081416Z AUTO 29004KT 10SM CLR 07/01 A3015 RMK AO1 PNO=
PAWS 081416Z AUTO 00000KT 10SM CLR 12/08 A2997 RMK AO1 PNO=
PAZK 081416Z AUTO 04005KT 10SM CLR 09/04 A3007 RMK AO1 PNO=
K04W 081414Z AUTO 29006KT 10SM CLR 23/16 A3009 RMK AO2
     T02310164=
K1P1 081415Z AUTO 06003KT 10SM OVC020 28/22 A3007 RMK AO2
     T02770222=
KC29 081415Z AUTO 32004KT 7SM OVC008 24/21 A3005 RMK AO2
     T02400205=
KCMR 081415Z AUTO 16004KT 10SM CLR 19/03 A3028 RMK AO1=
KD39 081414Z AUTO 27008KT 10SM CLR 23/18 A3012 RMK AO2
     T02280176=
KE80 081415Z AUTO 00000KT 10SM CLR 21/12 A3029 RMK AO2
     T02050118=
KEDC 081415Z AUTO 09005KT RA 25/25 A3000 RMK AO2 P0002=
KEIK 081415Z AUTO 33003KT 10SM SCT013 OVC019 14/12 A3034 RMK
     AO2=
KEOE 081415Z AUTO 00000KT 10SM CLR 31/20 A3004 RMK AO2=
KFMH 081415Z AUTO 15011G15KT 10SM OVC017 25/21 A3011 RMK AO2=
KHVS 081415Z AUTO 00000KT 10SM CLR 32/21 A2998 RMK AO2=
KIFP 081415Z AUTO 10003KT 10SM CLR 28/03 A2980 RMK AO2=
KMAN 081415Z AUTO 13004KT 10SM CLR 17/04 A3009 RMK AO1=
KNQA 081415Z COR 28005KT 10SM FEW150 31/24 A3008 RMK=
KPVF 081415Z AUTO 08006KT 10SM CLR 22/11 A2994 RMK AO1=
KRKR 081416Z AUTO 18006KT 7SM SCT090 29/26 A3006 RMK AO2=
####018000286####
SPUS80 KWBC 081418
SPECI
KCRP 081415Z 04012KT 5SM +RA BR FEW009 SCT024CB BKN040 27/25 A2987
     RMK AO2 RAB1356 CB OHD-N-E-SE MOV NW TCU DSNT NE S SW
     P0004=
KATT 081416Z AUTO VRB03KT 2 1/2SM RA BR BKN010 OVC015 26/24 A3000
     RMK AO2 RAE1357B14 CIG 006V011 P0000=
####018000109####
SAXX60 KWBC 081400 RRL
METAR
KNPA 081356Z 00000KT 10SM FEW250 30/24 A3003 RMK SLP171
     T03000244=
####018000144####
SAUS80 KWBC 081400 RRF
METAR
KMWS 081400Z 13504G06KT 20/M02 RMK SNOW DEPTH M=
K77M 081347Z 00000KT 25SM FEW130 10/03 RMK SLPNO NOSPECI=
####018000117####
SPXX60 KWBC 081418
SPECI
KHLR 081415Z AUTO 05006KT 10SM SCT012 BKN042 OVC060 26/ A3003 RMK
     AO2 T0261 $=
####018003735####
SAUS70 KWBC 081418
METAR
KVIS 081415Z AUTO 00000KT 10SM CLR 19/11 A2985 RMK AO1=
KWVL 081415Z AUTO 20005KT 9SM BKN009 OVC013 23/21 A3006 RMK
     AO1=
KWWD 081415Z AUTO 4SM OVC060 24/24 A3005 RMK AO1 P0006=
KAFJ 081415Z AUTO 00000KT 9SM CLR 27/20 A3011 RMK AO1=
KBHB 081415Z AUTO 19011KT 7SM OVC003 19/18 A3014 RMK AO1=
KBID 081415Z AUTO 08005KT 10SM OVC006 24/22 A3009 RMK AO1=
KBLM 081415Z AUTO 13007KT 10SM BKN012 BKN055 OVC070 25/19 A3008
     RMK AO1=
KBTP 081415Z AUTO 22003KT 9SM CLR 27/19 A3010 RMK AO1=
KCGZ 081415Z AUTO 00000KT 10SM CLR 29/02 A2984 RMK AO1=
KCOD 081415Z 00000KT 10SM CLR 15/03 A3034 RMK AO1=
KEEN 081415Z AUTO 17009KT 10SM FEW110 27/22 A3008 RMK AO1=
KENV 081415Z 00000KT 10SM CLR 22/01 A3013 RMK AO1=
KEUL 081415Z AUTO 12003KT 10SM CLR 16/07 A3011 RMK AO1=
KFKL 081415Z 08006KT 10SM CLR 28/19 A3013 RMK AO1=
KFNL 081415Z AUTO 36007KT 10SM OVC045 16/13 A3034 RMK AO1=
KGDV 081415Z AUTO 17003KT 10SM FEW075 17/10 A3019 RMK AO1=
KGUC 081415Z AUTO 00000KT 10SM CLR 11/03 A3046 RMK AO1=
KGXY 081415Z AUTO 08006KT 9SM SCT008 OVC014 16/13 A3034 RMK
     AO1=
KHDN 081415Z 11005KT 10SM BKN120 13/07 A3035 RMK AO1=
KHYI 081415Z AUTO 08009KT 2 1/2SM SCT014 BKN028 OVC070 25/24 A2998
     RMK AO1 P0006=
KILE 081415Z 08007KT 7SM FEW010 BKN016 OVC045 25/23 A3002 RMK
     AO1=
KJHW 081415Z AUTO 16004KT 10SM CLR 27/19 A3011 RMK AO1=
KLCI 081415Z AUTO 20007KT 4SM BKN017 OVC028 26/21 A3008 RMK
     AO1=
KLEW 081415Z 17007KT 6SM OVC008 23/21 A3012 RMK AO1=
KLPC 081415Z AUTO 33003KT 5SM OVC008 13/11 A2994 RMK AO1 PNO=
KMJX 081415Z AUTO 00000KT 10SM BKN008 BKN014 OVC060 26/22 A3004
     RMK AO1=
KMSV 081415Z AUTO 12006KT 10SM CLR 29/20 A3010 RMK AO1=
KOCH 081415Z AUTO 13010KT 10SM BKN011 OVC110 26/20 A3005 RMK
     AO1=
KOKK 081415Z AUTO 21003KT 5SM SCT085 27/20 A3004 RMK AO1=
KPQI 081415Z AUTO 15009KT 10SM CLR 28/22 A2998 RMK AO1=
KPRX 081415Z 16007KT 9SM SCT009 OVC049 27/24 A3006 RMK AO1=
KPTV 081415Z AUTO 15004KT 10SM CLR 19/12 A2988 RMK AO1=
KPVC 081415Z 18012G15KT 10SM SCT017 BKN024 26/22 A3011 RMK AO1=
KPWG 081415Z AUTO 07007KT 10SM FEW011 SCT017 OVC050 26/23 A3004
     RMK AO1=
KRKD 081415Z AUTO 21008KT 8SM OVC003 21/19 A3013 RMK AO1=
KRUT 081415Z AUTO 00000KT 7SM CLR 29/23 A3005 RMK AO1=
KSDY 081415Z AUTO 00000KT 10SM OVC100 17/11 A3018 RMK AO1=
KSFM 081415Z 21004KT 10SM BKN036 OVC044 26/20 A3010 RMK AO1=
KSFZ 081415Z AUTO 15004KT 10SM BKN019 25/21 A3009 RMK AO1=
KSGU 081415Z AUTO 00000KT 10SM CLR 24/02 A3001 RMK AO1=
KSMN 081415Z AUTO 00000KT 10SM CLR 11/05 A3028 RMK AO1=
KTPL 081415Z 08008KT 8SM BKN012 OVC021 25/24 A3003 RMK AO1=
K0A9 081415Z AUTO 00000KT 10SM CLR 28/18 A3011 RMK=
K20V 081416Z AUTO 00000KT 10SM SCT011 10/05 A3045 RMK AO2=
K2G4 081415Z AUTO 29003KT 10SM CLR 26/15 A3019 RMK AO1=
K2W6 081414Z AUTO 11007KT 10SM SCT019 28/22 A3003 RMK AO1=
K5SM 081413Z AUTO 00000KT 10SM SCT120 12/03 A3059 RMK AO2=
K7BM 081416Z AUTO 00000KT 7SM BKN002 09/07 A3054 RMK AO2=
KAEG 081415Z AUTO 14014KT 10SM CLR 19/08 A3032 RMK AO1=
KBBP 081415Z AUTO 04004KT 10SM CLR 32/20 A2997 RMK AO2=
KBDU 081417Z AUTO 00000KT 10SM OVC036 17/12 A3035 RMK AO2=
KBKN 081415Z AUTO 02009KT 10SM CLR 24/22 A3008 RMK AO2=
KCCU 081416Z AUTO 21005KT 10SM CLR 10/01 A3065 RMK AO2=
KCGS 081415Z AUTO 13003KT 7SM SCT110 31/23 A3002 RMK AO1=
KCIC 081415Z AUTO 15005KT 10SM CLR 19/12 A2985 RMK AO1=
KFDK 081414Z AUTO 00000KT 7SM CLR 34/22 A3004 RMK AO2=
KGGE 081415Z AUTO 31006KT 10SM CLR 30/22 A2994 RMK AO2=
KLUX 081415Z AUTO 00000KT 10SM CLR 30/23 A3003 RMK AO2=
KMAO 081415Z AUTO 02006KT 7SM CLR 30/21 A2995 RMK AO2=
KMYP 081316Z AUTO 20011KT 10SM CLR 05/03 A3076 RMK AO2=
####018000280####
SAUS80 KWBC 081418
METAR
K4BM 081413Z AUTO 22005KT 10SM 05/04 A3063 RMK AO2=
KCBE 081414Z AUTO 00000KT 7SM CLR 28/20 A3009 RMK AO1=
KSMS 081415Z AUTO 33004KT 9SM CLR 30/22 A2998 RMK AO2=
PADK 081416Z 04020G25KT 8SM FEW006 BKN013 OVC044 06/06 A2944 RMK
     AO1 PNO=
####018000154####
SAUS70 KWBC 081400 RRK
METAR
K4SL 081355Z 18005KT 20SM BKN100 18/09 RMK 10300 20139=
KU78 081352Z 15014KT 20SM SKC 15/10 A3029 RMK SLPNO NOSPECI=
####018000473####
SAUS70 KWBC 081418 RRB
METAR
KSRR 081415Z AUTO 00000KT 10SM OVC006 14/13 A3039 RMK AO2=
KTME 081415Z AUTO 06008KT 10SM BKN037 BKN048 OVC080 25/25 A2998
     RMK AO1=
KUOX 081415Z AUTO 00000KT 9SM CLR 29/21 A3010 RMK AO2=
KY51 081415Z AUTO 32006KT 10SM BKN013 22/19 A3008 RMK AO1
     T02210193=
PAAK 081416Z AUTO 07024G32KT 9SM FEW018 SCT029 BKN055 07/03 A2948
     RMK AO1 PNO=
PAHP 081416Z AUTO 33004KT 10SM CLR 09/07 A3003 RMK AO1 PNO
     TSNO=
####018001343####
SPUS70 KWBC 081418
SPECI
KEYW 081414Z VRB03KT 10SM BKN019 29/24 A2998 RMK AO2=
KILG 081414Z 15005KT 7SM SCT017 27/22 A3004 RMK AO2=
KTKI 081415Z 13003KT 7SM SCT027 BKN047 OVC055 26/24 A3006 RMK AO2
     RAE13 P0001=
PALG 081412Z AUTO 00000KT 1 1/2SM BR BKN003 06/05 A2999 RMK AO2
     TSNO=
KCOT 081415Z AUTO 03007KT 10SM BKN011 BKN025 OVC065 26/24 A2992
     RMK AO2 RAB01E10 P0000=
KGAG 081415Z AUTO 05008KT 2 1/2SM RA BR OVC005 21/19 A3016 RMK AO2
     P0004=
KGLR 081415Z AUTO 26006KT 6SM -RA BR SCT008 SCT013 BKN060 22/21
     A3004 RMK AO2 P0000=
KLCH 081415Z 27/25 A3002 RMK AO2 PNO $=
KUGN 081415Z 29004KT 10SM FEW012 SCT018 26/22 A3002 RMK AO2=
PAKT 081415Z 36009KT 10SM CLR 18/12 A3009 RMK AO2 HARBOR WIND
     31015KT=
PASO 081415Z AUTO 00000KT 10SM SCT004 OVC100 09/09 A2993 RMK AO2
     TSNO=
KDHT 081416Z AUTO 01010KT 10SM SCT009 BKN015 OVC022 18/17 A3028
     RMK AO2=
KDWH 081416Z 05005KT 8SM -RA SCT022 BKN070 24/23 A2999 RMK AO2
     P0002=
KHOT 081416Z AUTO VRB03KT 10SM BKN010 BKN016 OVC034 26/23 A3011
     RMK AO2=
KITR 081416Z AUTO 08006KT 10SM FEW008 BKN060 OVC090 17/15 A3032
     RMK AO2=
KLNR 081416Z AUTO 31005KT 9SM BKN013 BKN018 23/20 A3005 RMK
     AO2=
KRKP 081416Z AUTO 08008KT 4SM -RA SCT011 BKN024 OVC048 A2987 RMK
     AO2 TSE07 P0007 FZRANO=
####018000144####
SAAF31 KWBC 081400 RRB
METAR
DNAA 081400Z 25011KT 9999 BKN014 FEW020CB 29/22 Q1013 NOSIG=
DNMA 081400Z 02011KT 9999 FEW012 31/23 Q1010=
####018000088####
SAAG41 KWBC 081400 RRC
METAR
SAZN 081400Z 29007KT 9999 FEW035 FEW060 11/05 Q1011=
####018000091####
SAPQ31 KWBC 081400 RRB
METAR
PTTP 081358Z 00000KT 15SM SCT017TCU OVC300 24/23 A2986=
####018000075####
SADL31 KWBC 081350 RRB
METAR
EDHI 081350Z VRB04KT CAVOK 30/12 Q1018=
####018000076####
SPUS41 KWBC 081418
SPECI
KILG 081414Z 15005KT 7SM SCT017 27/22 A3004=
####018000077####
SPUS42 KWBC 081418
SPECI
KEYW 081414Z VRB03KT 10SM BKN019 29/24 A2998=
####018000099####
SPUS42 KWBC 081418
SPECI
KCRP 081415Z 04012KT 5SM +RA BR FEW009 SCT024CB BKN040 27/25 A2987=
####018000057####
SPUS42 KWBC 081418
SPECI
KLCH 081415Z 27/25 A3002=
####018000132####
SAUS41 KWBC 081400 RRC
METAR
KFDK 081414Z AUTO 00000KT 7SM CLR 34/22 A3004=
KPQI 081415Z AUTO 15009KT 10SM CLR 28/22 A2998=
####018000111####
SAUS44 KSJT 081417
MTRJCT
SPECI KJCT 081416Z AUTO 03003KT 10SM SCT010 BKN024 26/22 A3005 RMK 
AO2 TSNO
####018000096####
SAXX99 KWBC 081100 RRX
METAR
CYUX 081100Z AUTO 04002KT 9SM BKN083 07/06 A2983 RMK SLP101=
####018000125####
SAXX99 KWBC 081400 RRO
METAR
CWGZ 081400Z 00000KT 45SM FEW100 FEW220 04/03 A2978 RMK AC1CI1 VIA
     ZNB FIC SLP090=
####018000096####
SAXX99 KWBC 081000 RRX
METAR
CYUX 081000Z AUTO 00000KT 9SM BKN085 07/06 A2984 RMK SLP104=
####018000143####
SAUS43 KWBC 081400 RRD
METAR
KCIU 081415Z AUTO 01006KT 10SM BKN005 OVC014 19/18 A3000=
KELO 081413Z AUTO 24006KT 10SM CLR 21/14 A3002=
####018000096####
SPUS52 KWBC 081418
SPECI
KCOT 081415Z AUTO 03007KT 10SM BKN011 BKN025 OVC065 26/24 A2992=
####018000091####
SPUS52 KWBC 081418
SPECI
KGAG 081415Z AUTO 05008KT 2 1/2SM RA BR OVC005 21/19 A3016=
####018000086####
SAUS44 KWBC 081400 RRD
METAR
KGDV 081415Z AUTO 17003KT 10SM FEW075 17/10 A3019=
####018000082####
SAUS51 KWBC 081400 RRA
METAR
KCBE 081414Z AUTO 00000KT 7SM CLR 28/20 A3009=
####018000111####
SPBU40 LBSM 081416
SPECI LBBG 081416Z 28005MPS 250V320 5000 +RA FEW013 OVC036 17/16
 Q1014 WS R22 NOSIG=
####018000281####
SAUS53 KWBC 081400 RRE
METAR
KDVL 081415Z AUTO 31009KT 10SM CLR 18/11 A3011=
KEAR 081415Z AUTO 35006KT 10SM FEW060 19/16 A3026=
KGPZ 081415Z AUTO 29006KT 10SM CLR 21/14 A3007=
KONL 081410Z AUTO 31004KT 10SM CLR 21/15 A3024=
KUDG 081415Z 02004KT 10SM CLR 32/21 A2998=
####018000120####
SAUS54 KWBC 081400 RRB
METAR
KMWS 081400Z 13504G06KT 20/M02=
KSOW 081410Z AUTO 18005KT 10SM SCT120 20/04 A3028=
####018000099####
SPUS72 KWBC 081418
SPECI
KCRP 081415Z 04012KT 5SM +RA BR FEW009 SCT024CB BKN040 27/25 A2987=
####018000077####
SPUS72 KWBC 081418
SPECI
KEYW 081414Z VRB03KT 10SM BKN019 29/24 A2998=
####018000057####
SPUS72 KWBC 081418
SPECI
KLCH 081415Z 27/25 A3002=
####018000098####
SPUS81 KWBC 081418
SPECI
KATT 081416Z AUTO VRB03KT 2 1/2SM RA BR BKN010 OVC015 26/24 A3000=
####018000099####
SPUS81 KWBC 081418
SPECI
KCRP 081415Z 04012KT 5SM +RA BR FEW009 SCT024CB BKN040 27/25 A2987=
####018000190####
SAUS73 KWBC 081400 RRE
METAR
KCIU 081415Z AUTO 01006KT 10SM BKN005 OVC014 19/18 A3000=
KELO 081413Z AUTO 24006KT 10SM CLR 21/14 A3002=
KLBL 081415Z 36011KT 9SM OVC006 19/17 A3025=
####018000469####
SALY31 HLMC 081400
METAR HLLB 081350Z 35018KT 9999 FEW025 30/18 Q1016=
METAR HLLM 081350Z 35010KT 7000 SKC 28/21 Q1019=
METAR HLLS 081350Z O6O1OKT CAVOK  37/O9 Q1O15=
METAR HLLT 081350Z 36011KT 330V040 8000 SKC  31/18 Q1018=
METAR HLGD 081400Z NIL=
METAR HLGT 081400Z NIL=
METAR HLJA 081400Z NIL=
METAR HLKF 081400Z NIL=
METAR HLKM 081400Z NIL=
METAR HLMI 081400Z NIL=
METAR HLNT 081400Z NIL=
METAR HLON 081400Z NIL=
METAR HLTD 081400Z NIL=
####018000094####
SPUS81 KWBC 081418
SPECI
KHLR 081415Z AUTO 05006KT 10SM SCT012 BKN042 OVC060 26/ A3003=
####018000081####
SAUS74 KWBC 081400 RRC
METAR
KOTH 081415Z 31003KT 10SM OVC006 10/08 A3000=
####018000082####
SAUS20 KNKA 081417
SPECI KHOB 081413Z 36009KT 10SM BKN006 BKN110 20/19 A3020=
####018000184####
SANA14 KAWN 081400 RRF
METAR KNFG 081356Z COR 00000KT 5SM BR FEW011 OVC018 16/13 A2991 RMK
      AO2 SLP129 T01560133 TSNO=
METAR SKSP 081400Z 09005KT 9999 FEW015 30/26 A2987=
####018000216####
SAXX70 KAWN 081400 RRM
METAR KQM1 081356Z AUTO 22003KT 9999 FEW110 36/16 A2989 RMK AO2 SLP048
      T03610162 $=
METAR KQFT 081410Z AUTO 16001KT 2SM -SHRA BR FEW001 SCT002 BKN025 22/20
      A2987 RMK A02=
####018000103####
SAAK41 KNKA 081418
SPECI PALG 081414Z AUTO 00000KT 3SM BR BKN003 06/05 A2999 RMK AO2 
    TSNO =
####018002956####
SAUS20 KNKA 081418
METAR KJKJ 081414Z AUTO 30003KT 10SM CLR 22/17 A3008 RMK AO2=
METAR KJMR 081418Z AUTO 27004KT 10SM CLR 21/15 A3011 RMK AO2=
METAR KLCK 081415Z AUTO 24003KT 10SM CLR 30/21 A3007 RMK AO2 
     T02980213=
METAR KLJF 081412Z AUTO 30005KT 10SM CLR 22/17 A3013 RMK AO2=
METAR KLVN 081408Z AUTO 31006KT 10SM CLR 22/17 A3012 RMK AO2=
METAR KLXL 081414Z AUTO 28006KT 10SM CLR 21/14 A3009 RMK AO2=
METAR KLYV 081418Z AUTO 28004KT 10SM CLR 21/16 A3018 RMK AO2=
METAR KMCJ 081415Z AUTO 06008KT 6SM CLR 24/23 A2995 RMK AO1 =
METAR KMDS 081405Z AUTO 28006KT 10SM CLR 21/17 A3018 RMK AO2=
METAR KMGG 081415Z AUTO 30005KT 10SM CLR 22/17 A3013 RMK AO2
     T02210171=
METAR KMJQ 081411Z AUTO 34004KT 10SM CLR 21/16 A3017 RMK AO2=
METAR KMOX 081410Z AUTO 29005KT 10SM CLR 23/17 A3008 RMK AO2=
METAR KMRT 081413Z AUTO 24004KT 10SM CLR 30/19 A3011 RMK AO2
     T02950191=
SPECI KMRY 081417Z 31004KT 8SM OVC004 12/10 A2996 RMK AO2=
METAR KMVE 081414Z AUTO 32003KT 10SM CLR 22/18 A3011 RMK AO2=
METAR KMWM 081413Z AUTO 32006KT 10SM CLR 22/16 A3015 RMK AO2=
METAR KMWO 081415Z AUTO 25006KT 7SM CLR 30/22 A3008 RMK AO2=
SPECI KMWT 081414Z AUTO 00000KT 10SM BKN017 BKN049 BKN060 26/23
     A3009 RMK AO2 TSNO=
METAR KONA 081410Z AUTO 31008KT 10SM SCT017 23/17 A3009 RMK
     AO2=
METAR KOVL 081413Z AUTO 29005KT 10SM CLR 21/16 A3013 RMK AO2
     T02060155=
METAR KPEX 081412Z AUTO 27008KT 10SM CLR 22/16 A3012 RMK AO2
     T02210161=
METAR KPNM 081413Z AUTO 26005KT 10SM CLR 22/16 A3011 RMK AO2=
METAR KPQN 081413Z AUTO 31004KT 10SM CLR 21/16 A3018 RMK AO2=
METAR KPVB 081413Z AUTO 32004KT 10SM BKN011 OVC018 23/21 A3007 
     RMK AO1 T02310206=
METAR KPWC 081413Z AUTO 28005KT 10SM CLR 21/14 A3009 RMK AO2=
METAR KRBW 081415Z AUTO 33009KT 10SM CLR 30/22 A2998 RMK AO2=
METAR KRCM 081415Z AUTO 34007KT 10SM BKN008 BKN085 23/23 A3008 RMK 
     AO2 LTG DSNT E=
METAR KROS 081415Z AUTO 28006KT 10SM CLR 22/16 A3010 RMK AO2
     T02200164=
METAR KROX 081414Z AUTO 27007KT 10SM SCT085 19/16 A3004 RMK
     AO2=
METAR KRRT 081414Z AUTO 26008KT 10SM CLR 18/14 A3003 RMK AO2=
METAR KRZN 081414Z AUTO 26006KT 10SM CLR 22/16 A3009 RMK AO2 
     T02230161=
METAR KSAZ 081413Z AUTO 26004KT 10SM CLR 21/19 A3010 RMK AO2=
METAR KSGS 081413Z AUTO 29007KT 10SM CLR 23/16 A3011 RMK AO2
     T02260163=
METAR KSME 081415Z AUTO 00000KT 5SM HZ 30/22 A3010 RMK AO2=
METAR KSNC 081415Z AUTO 15004KT 10SM SCT011 OVC018 24/24 A3010 RMK 
     AO2 =
SPECI KSSF 081417Z 05010KT 10SM SCT012 SCT022 BKN027 27/23 A2994 RMK 
    AO2=
METAR KSYN 081430Z AUTO 31005KT 10SM CLR 22/17 A3011 RMK AO2
     T02210173=
SPECI KTAN 081417Z AUTO 16006KT 10SM SCT022 27/21 A3007 RMK AO2=
METAR KTEW 081413Z AUTO 00000KT 10SM CLR 27/20 A3003 RMK AO2=
METAR KTKC 081413Z AUTO 30005KT 10SM CLR 22/15 A3015 RMK AO2
     T02200153=
METAR KTOB 081414Z AUTO 00000KT 10SM CLR 21/17 A3013 RMK AO2=
####018000453####
SAUS20 KNKA 081418
METAR KTWM 081413Z AUTO 28005KT 10SM CLR 22/15 A3002 RMK AO2=
METAR KU78 081352Z 15014KT 20SM SKC 15/10 A3029 RMK SLPNO
     NOSPECI=
METAR KULM 081415Z AUTO 32004KT 10SM CLR 21/16 A3013 RMK AO2=
METAR KUNI 081415Z AUTO 00000KT 10SM CLR 31/16 A3008 RMK AO2 
     T03090158=
METAR KVES 081414Z AUTO 20004KT 10SM CLR 29/21 A3007 RMK AO2 
     T02860214=
METAR KVVV 081415Z AUTO 26006KT 10SM CLR 22/16 A3011 RMK AO2=
####018002943####
SAUS20 KNKA 081418
METAR K1A6 081415Z AUTO 00000KT 5SM HZ CLR 28/24 A3011 RMK AO2=
METAR K21D 081418Z AUTO 30006KT 10SM CLR 22/16 A3011 RMK AO2=
METAR K29G 081413Z AUTO 00000KT 10SM CLR 28/18 A3009 RMK AO2
     T02840180 PWINO=
METAR K4M9 081415Z AUTO 23006KT 10SM CLR 28/24 A3007 RMK AO2 =
METAR KAEJ 081415Z AUTO 00000KT 10SM OVC016 11/08 A3046 RMK AO2=
METAR KAEL 081411Z AUTO 34006KT 10SM CLR 21/17 A3013 RMK AO2=
METAR KAIG 081415Z AUTO 34005KT 10SM SCT015 22/18 A3004 RMK AO2=
METAR KAIT 081413Z AUTO 25005KT 10SM CLR 22/19 A3007 RMK AO2=
METAR KARV 081412Z AUTO 32007KT 10SM CLR 22/18 A3007 RMK AO2 
     T02180176=
METAR KBBB 081413Z AUTO 29006KT 10SM CLR 22/17 A3012 RMK AO2=
METAR KBJI 081414Z AUTO 25006KT 10SM CLR 21/13 A3007 RMK AO2=
METAR KBUU 081414Z AUTO 28006KT 10SM CLR 23/20 A3003 RMK AO2=
SPECI KBVO 081417Z 05003KT 10SM BKN020 24/22 A3008 RMK AO2=
METAR KBVU 081415Z AUTO 00000KT 10SM CLR 28/M02 A2991 RMK AO2 =
METAR KBWP 081411Z AUTO 29004KT 10SM CLR 21/16 A3011 RMK AO1 
     T02050157=
METAR KCLI 081415Z AUTO 33004KT 10SM CLR 24/19 A3002 RMK AO2=
METAR KCMY 081415Z AUTO 30005KT 10SM SCT017 23/18 A3008 RMK AO2 
     T02280178=
SPECI KCRP 081415Z 04012KT 5SM +RA BR FEW009 SCT024CB BKN040 27/25
     A2987 RMK AO2 RAB1356 CB OHD-N-E-SE MOV NW TCU DSNT NE S SW
     P0004=
METAR KCVH 081410Z AUTO 00000KT 5SM OVC008 13/12 A2994 RMK AO1=
METAR KDCM 081415Z AUTO 35006KT 7SM CLR 31/25 A3001 RMK AO2 LTG 
     DSNT NW=
METAR KDLL 081415Z AUTO 30005KT 10SM OVC011 22/20 A3005 RMK AO2 
     T02240195=
METAR KDVK 081417Z AUTO 18004KT 10SM 30/19 A3010 RMK AO1=
METAR KDXX 081414Z AUTO 00000KT 10SM CLR 22/19 A3011 RMK AO2=
METAR KEFK 081415Z AUTO 21007KT 7SM CLR 28/22 A3005 RMK AO2=
METAR KEFT 081415Z AUTO 32006KT 10SM BKN006 24/20 A3005 RMK AO2 
     T02400204=
METAR KEGV 081412Z AUTO 35009KT 10SM SCT048 21/17 A3006 RMK AO2 
     T02070166=
METAR KELO 081413Z AUTO 24006KT 10SM CLR 21/14 A3002 RMK AO2=
METAR KEVM 081412Z AUTO 26004KT 10SM CLR 20/15 A3003 RMK AO1=
METAR KFBL 081414Z AUTO 30004KT 10SM CLR 21/16 A3014 RMK AO2=
METAR KFFM 081413Z AUTO 28003KT 10SM CLR 19/16 A3009 RMK AO2=
METAR KFGN 081414Z AUTO 30010KT 1 1/2SM HZ VV007 18/14 A3000 RMK
     AO2 VIS 3/4V3=
METAR KFSO 081418Z AUTO 22003KT 7SM CLR 31/25 A3001 RMK AO2=
METAR KGDB 081413Z AUTO 25006KT 10SM CLR 22/17 A3015 RMK AO2
     T02150169=
METAR KGHW 081413Z AUTO 26006KT 10SM CLR 21/15 A3014 RMK AO2=
METAR KGYL 081414Z AUTO 30007KT 10SM CLR 21/16 A3012 RMK AO2
     T02130160=
METAR KHCD 081412Z AUTO 28005KT 10SM CLR 22/17 A3013 RMK AO2
     T02170165=
METAR KHCO 081414Z AUTO 32009KT 10SM CLR 19/16 A3009 RMK AO2=
SPECI KHQM 081417Z AUTO 28003KT 1SM BR 13/12 A2998 RMK AO2 $=
METAR KHZX 081411Z AUTO 29006KT 10SM CLR 21/15 A3008 RMK AO2=
METAR KIKW 081413Z AUTO 28004KT 10SM SCT070 SCT090 SCT120 25/21
     A3001 RMK AO2 T02470211=
####018000074####
SACN50 CWAO 081415
VOJ SA 1415 AUTO8 M M M M/18/M/0602/M/M M 3MMM=

####018003742####
SAUS99 KWBC 081419
METAR
KTWM 081413Z AUTO 28005KT 10SM CLR 22/15 A3002 RMK AO2=
KU78 081352Z 15014KT 20SM SKC 15/10 A3029 RMK SLPNO NOSPECI=
KULM 081415Z AUTO 32004KT 10SM CLR 21/16 A3013 RMK AO2=
KUNI 081415Z AUTO 00000KT 10SM CLR 31/16 A3008 RMK AO2
     T03090158=
KVES 081414Z AUTO 20004KT 10SM CLR 29/21 A3007 RMK AO2
     T02860214=
KVVV 081415Z AUTO 26006KT 10SM CLR 22/16 A3011 RMK AO2=
KJKJ 081414Z AUTO 30003KT 10SM CLR 22/17 A3008 RMK AO2=
KJMR 081418Z AUTO 27004KT 10SM CLR 21/15 A3011 RMK AO2=
KLCK 081415Z AUTO 24003KT 10SM CLR 30/21 A3007 RMK AO2
     T02980213=
KLJF 081412Z AUTO 30005KT 10SM CLR 22/17 A3013 RMK AO2=
KLVN 081408Z AUTO 31006KT 10SM CLR 22/17 A3012 RMK AO2=
KLXL 081414Z AUTO 28006KT 10SM CLR 21/14 A3009 RMK AO2=
KLYV 081418Z AUTO 28004KT 10SM CLR 21/16 A3018 RMK AO2=
KMCJ 081415Z AUTO 06008KT 6SM CLR 24/23 A2995 RMK AO1=
KMDS 081405Z AUTO 28006KT 10SM CLR 21/17 A3018 RMK AO2=
KMGG 081415Z AUTO 30005KT 10SM CLR 22/17 A3013 RMK AO2
     T02210171=
KMJQ 081411Z AUTO 34004KT 10SM CLR 21/16 A3017 RMK AO2=
KMOX 081410Z AUTO 29005KT 10SM CLR 23/17 A3008 RMK AO2=
KMRT 081413Z AUTO 24004KT 10SM CLR 30/19 A3011 RMK AO2
     T02950191=
KMVE 081414Z AUTO 32003KT 10SM CLR 22/18 A3011 RMK AO2=
KMWM 081413Z AUTO 32006KT 10SM CLR 22/16 A3015 RMK AO2=
KMWO 081415Z AUTO 25006KT 7SM CLR 30/22 A3008 RMK AO2=
KONA 081410Z AUTO 31008KT 10SM SCT017 23/17 A3009 RMK AO2=
KOVL 081413Z AUTO 29005KT 10SM CLR 21/16 A3013 RMK AO2
     T02060155=
KPEX 081412Z AUTO 27008KT 10SM CLR 22/16 A3012 RMK AO2
     T02210161=
KPNM 081413Z AUTO 26005KT 10SM CLR 22/16 A3011 RMK AO2=
KPQN 081413Z AUTO 31004KT 10SM CLR 21/16 A3018 RMK AO2=
KPVB 081413Z AUTO 32004KT 10SM BKN011 OVC018 23/21 A3007 RMK AO1
     T02310206=
KPWC 081413Z AUTO 28005KT 10SM CLR 21/14 A3009 RMK AO2=
KRBW 081415Z AUTO 33009KT 10SM CLR 30/22 A2998 RMK AO2=
KRCM 081415Z AUTO 34007KT 10SM BKN008 BKN085 23/23 A3008 RMK AO2
     LTG DSNT E=
KROS 081415Z AUTO 28006KT 10SM CLR 22/16 A3010 RMK AO2
     T02200164=
KROX 081414Z AUTO 27007KT 10SM SCT085 19/16 A3004 RMK AO2=
KRRT 081414Z AUTO 26008KT 10SM CLR 18/14 A3003 RMK AO2=
KRZN 081414Z AUTO 26006KT 10SM CLR 22/16 A3009 RMK AO2
     T02230161=
KSAZ 081413Z AUTO 26004KT 10SM CLR 21/19 A3010 RMK AO2=
KSGS 081413Z AUTO 29007KT 10SM CLR 23/16 A3011 RMK AO2
     T02260163=
KSME 081415Z AUTO 00000KT 5SM HZ 30/22 A3010 RMK AO2=
KSNC 081415Z AUTO 15004KT 10SM SCT011 OVC018 24/24 A3010 RMK
     AO2=
KSYN 081430Z AUTO 31005KT 10SM CLR 22/17 A3011 RMK AO2
     T02210173=
KTEW 081413Z AUTO 00000KT 10SM CLR 27/20 A3003 RMK AO2=
KTKC 081413Z AUTO 30005KT 10SM CLR 22/15 A3015 RMK AO2
     T02200153=
KTOB 081414Z AUTO 00000KT 10SM CLR 21/17 A3013 RMK AO2=
K1A6 081415Z AUTO 00000KT 5SM HZ CLR 28/24 A3011 RMK AO2=
K21D 081418Z AUTO 30006KT 10SM CLR 22/16 A3011 RMK AO2=
K29G 081413Z AUTO 00000KT 10SM CLR 28/18 A3009 RMK AO2 T02840180
     PWINO=
K4M9 081415Z AUTO 23006KT 10SM CLR 28/24 A3007 RMK AO2=
KAEJ 081415Z AUTO 00000KT 10SM OVC016 11/08 A3046 RMK AO2=
KAEL 081411Z AUTO 34006KT 10SM CLR 21/17 A3013 RMK AO2=
KAIG 081415Z AUTO 34005KT 10SM SCT015 22/18 A3004 RMK AO2=
KAIT 081413Z AUTO 25005KT 10SM CLR 22/19 A3007 RMK AO2=
KARV 081412Z AUTO 32007KT 10SM CLR 22/18 A3007 RMK AO2
     T02180176=
KBBB 081413Z AUTO 29006KT 10SM CLR 22/17 A3012 RMK AO2=
KBJI 081414Z AUTO 25006KT 10SM CLR 21/13 A3007 RMK AO2=
KBUU 081414Z AUTO 28006KT 10SM CLR 23/20 A3003 RMK AO2=
KBVU 081415Z AUTO 00000KT 10SM CLR 28/M02 A2991 RMK AO2=
KBWP 081411Z AUTO 29004KT 10SM CLR 21/16 A3011 RMK AO1
     T02050157=
KCLI 081415Z AUTO 33004KT 10SM CLR 24/19 A3002 RMK AO2=
####018001513####
SAUS99 KWBC 081419 RRA
METAR
KCMY 081415Z AUTO 30005KT 10SM SCT017 23/18 A3008 RMK AO2
     T02280178=
KCVH 081410Z AUTO 00000KT 5SM OVC008 13/12 A2994 RMK AO1=
KDCM 081415Z AUTO 35006KT 7SM CLR 31/25 A3001 RMK AO2 LTG DSNT
     NW=
KDLL 081415Z AUTO 30005KT 10SM OVC011 22/20 A3005 RMK AO2
     T02240195=
KDVK 081417Z AUTO 18004KT 10SM 30/19 A3010 RMK AO1=
KDXX 081414Z AUTO 00000KT 10SM CLR 22/19 A3011 RMK AO2=
KEFK 081415Z AUTO 21007KT 7SM CLR 28/22 A3005 RMK AO2=
KEFT 081415Z AUTO 32006KT 10SM BKN006 24/20 A3005 RMK AO2
     T02400204=
KEGV 081412Z AUTO 35009KT 10SM SCT048 21/17 A3006 RMK AO2
     T02070166=
KELO 081413Z AUTO 24006KT 10SM CLR 21/14 A3002 RMK AO2=
KEVM 081412Z AUTO 26004KT 10SM CLR 20/15 A3003 RMK AO1=
KFBL 081414Z AUTO 30004KT 10SM CLR 21/16 A3014 RMK AO2=
KFFM 081413Z AUTO 28003KT 10SM CLR 19/16 A3009 RMK AO2=
KFGN 081414Z AUTO 30010KT 1 1/2SM HZ VV007 18/14 A3000 RMK AO2 VIS
     3/4V3=
KFSO 081418Z AUTO 22003KT 7SM CLR 31/25 A3001 RMK AO2=
KGDB 081413Z AUTO 25006KT 10SM CLR 22/17 A3015 RMK AO2
     T02150169=
KGHW 081413Z AUTO 26006KT 10SM CLR 21/15 A3014 RMK AO2=
KGYL 081414Z AUTO 30007KT 10SM CLR 21/16 A3012 RMK AO2
     T02130160=
KHCD 081412Z AUTO 28005KT 10SM CLR 22/17 A3013 RMK AO2
     T02170165=
KHCO 081414Z AUTO 32009KT 10SM CLR 19/16 A3009 RMK AO2=
KHZX 081411Z AUTO 29006KT 10SM CLR 21/15 A3008 RMK AO2=
KIKW 081413Z AUTO 28004KT 10SM SCT070 SCT090 SCT120 25/21 A3001
     RMK AO2 T02470211=
####018000697####
SPUS99 KWBC 081419
SPECI
KHOB 081413Z 36009KT 10SM BKN006 BKN110 20/19 A3020=
KMRY 081417Z 31004KT 8SM OVC004 12/10 A2996 RMK AO2=
KMWT 081414Z AUTO 00000KT 10SM BKN017 BKN049 BKN060 26/23 A3009
     RMK AO2 TSNO=
KSSF 081417Z 05010KT 10SM SCT012 SCT022 BKN027 27/23 A2994 RMK
     AO2=
KTAN 081417Z AUTO 16006KT 10SM SCT022 27/21 A3007 RMK AO2=
PALG 081414Z AUTO 00000KT 3SM BR BKN003 06/05 A2999 RMK AO2
     TSNO=
KBVO 081417Z 05003KT 10SM BKN020 24/22 A3008 RMK AO2=
KCRP 081415Z 04012KT 5SM +RA BR FEW009 SCT024CB BKN040 27/25 A2987
     RMK AO2 RAB1356 CB OHD-N-E-SE MOV NW TCU DSNT NE S SW
     P0004=
KHQM 081417Z AUTO 28003KT 1SM BR 13/12 A2998 RMK AO2 $=
####018000074####
SPAK31 KWBC 081419
SPECI
PAKT 081415Z 36009KT 10SM CLR 18/12 A3009=
####018000068####
SALT33 EYVI 081420
METAR EYPA 081420Z 33006KT CAVOK 20/15 Q1019=
####018000112####
SPEE32 KWBC 081419
SPECI
LBBG 081416Z 28005MPS 250V320 5000 +RA FEW013 OVC036 17/16 Q1014
WS R22 NOSIG=
####018000096####
SPUS52 KWBC 081419
SPECI
KDHT 081416Z AUTO 01010KT 10SM SCT009 BKN015 OVC022 18/17 A3028=
####018000089####
SPUS52 KWBC 081419
SPECI
KJCT 081416Z AUTO 03003KT 10SM SCT010 BKN024 26/22 A3005=
####018000096####
SPUS52 KWBC 081419
SPECI
KHOT 081416Z AUTO VRB03KT 10SM BKN010 BKN016 OVC034 26/23 A3011=
####018000096####
SPUS72 KWBC 081419
SPECI
KHOT 081416Z AUTO VRB03KT 10SM BKN010 BKN016 OVC034 26/23 A3011=
####018000074####
SPUS75 KWBC 081419
SPECI
PAKT 081415Z 36009KT 10SM CLR 18/12 A3009=
####018000069####
SALT33 EYVI 081420
METAR EYPA 081420Z 33006KT CAVOK 20/15 Q1019=
####018000090####
SAUS46 KLOX 081419
MTRLAX
SPECI KLAX 081417Z 25007KT 7SM OVC009 16/13 A2993 RMK AO2
####018002988####
SAUS20 KNKA 081419
METAR K14Y 081419Z AUTO 23008KT 10SM CLR 22/16 A3011 RMK AO2 
     T02170157=
METAR KBBF 081515Z AUTO 13020KT 8SM CLR 29/26 A2984 RMK A01=
METAR KBQX 081415Z AUTO 12016G23KT 9SM SCT024 SCT029 29/25 A2989
     RMK A01=
METAR KDLP 081415Z AUTO 09014KT 9SM FEW023 SCT030 29/24 A3002 RMK
     A01=
METAR KEDU 081415Z AUTO 20003KT 10SM CLR 14/10 A2985 RMK AO1=
METAR KEHC 081415Z AUTO 12022KT 6SM HZ BKN017 BKN026 29/25 A2997
     RMK A01=
METAR KEMK 081415Z AUTO 14023G28KT 6SM HZ FEW024 FEW037 SCT045
     29/25 A2991 RMK A01=
METAR KETB 081412Z AUTO 28004KT 10SM OVC014 24/20 A3002 RMK AO2 
     P0001 T02380199=
METAR KEZS 081415Z AUTO 35005KT 10SM SCT014 24/20 A3002 RMK AO2 
     T02430201=
METAR KGBK 081415Z AUTO 09013G19KT 10SM CLR 29/25 A2996 RMK A01=
METAR KGLW 081413Z AUTO 00000KT 10SM CLR 30/20 A3008 RMK AO2 
     T03040203=
METAR KGVX 081415Z AUTO 12023KT 9SM FEW023 FEW043 BKN085 M40/
     A2993 RMK A01=
METAR KHFJ 081415Z AUTO 00000KT 10SM SCT021 SCT037 OVC050 24/22 
     A3006 RMK AO1=
METAR KHQI 081415Z AUTO 10025KT 6SM HZ SCT022 BKN080 BKN095 29/26
     A2994 RMK A01=
METAR KIPN 081415Z AUTO 09016KT 10SM CLR 58/51 A3001 RMK A01=
SPECI KLIT 081418Z 23007KT 10SM BKN011 BKN150 BKN250 28/24 A3010 RMK 
    AO2 BKN011 V SCT=
METAR KLNL 081415Z AUTO 34007KT 10SM CLR 20/15 A3007 RMK AO2 
     T02020148=
SPECI KLRD 081417Z 03011KT 10SM SCT010 BKN014 BKN044 28/24 A2992 RMK 
    AO2 $=
METAR KLUM 081415Z AUTO 33006KT 10SM CLR 22/16 A3009 RMK AO2=
METAR KMDJ 081415Z AUTO 12015KT 10SM FEW023 SCT028 29/23 A3003 RMK
     A01=
METAR KMDZ 081415Z AUTO 35005KT 10SM CLR 22/17 A3007 RMK AO2=
METAR KMHR 081415Z AUTO 17006KT 10SM CLR 13/10 A2987 RMK AO1=
METAR KMIU 081415Z AUTO 13022KT 3/4SM BR BKN004 BKN019 OVC050
     27/26 A2983 RMK A01=
METAR KMRJ 081415Z AUTO 35006KT 10SM OVC013 24/20 A3007 RMK AO2 
     T02400202=
METAR KMYT 081415Z AUTO 10015KT 10SM FEW021 FEW027 28/24 A2999 RMK
     A01=
METAR KMZG 081415Z AUTO VRB03KT 9SM CLR 29/24 A2985 RMK A01=
METAR KNFG 081356Z COR 00000KT 5SM BR FEW011 OVC018 16/13 A2991 RMK
      AO2 SLP129 T01560133 TSNO=
METAR KOCF 081350Z 00000KT 10SM CLR 26/21 A3002=
METAR KOEO 081415Z AUTO 30005KT 10SM CLR 22/17 A3012 RMK AO2=
METAR KPBH 081415Z AUTO 35005KT 10SM CLR 22/17 A3009 RMK AO2=
METAR KPCZ 081415Z AUTO 27005KT 10SM SCT011 25/21 A3003 RMK AO2 
     T02470207=
METAR KPDC 081413Z AUTO 31007KT 10SM BKN010 25/21 A3007 RMK AO2 
     T02450212=
METAR KRCX 081415Z AUTO 35007KT 10SM CLR 22/17 A3010 RMK AO2 
     T02180167=
METAR KRNH 081416Z AUTO 30004KT 10SM CLR 22/17 A3011 RMK AO2 
     T02150166=
METAR KRPD 081414Z AUTO 32004KT 10SM CLR 22/17 A3010 RMK AO2 
     T02160166=
METAR KRRL 081415Z AUTO 36008KT 10SM CLR 22/17 A3007 RMK AO2 
     T02170171=
METAR KRYV 081415Z AUTO 32005KT 10SM SCT009 25/22 A3003 RMK AO2=
METAR KSCF 081420Z AUTO 13018KT 8SM 28/25 A2995 RMK A01=
####018000260####
SAUS20 KNKA 081419
METAR KVBS 081415Z AUTO 12019KT 10SM FEW019 29/25 A2997 RMK A01=
METAR KVNP 081405Z AUTO 09012G20KT 7SM FEW013 SCT019 BKN027 28/26
     A3001 RMK A01=
METAR KY63 081420Z AUTO 26005KT 10SM CLR 20/17 A3011 RMK AO2 
     T02010167=
####018000168####
SPUS90 KWBC 081420
SPECI KJCT 081416Z AUTO 03003KT 10SM SCT010 BKN024 26/22 A3005 RMK
     AO2 TSNO=
SPECI KLAX 081417Z 25007KT 7SM OVC009 16/13 A2993 RMK AO2=
####018002854####
SAUS90 KWBC 081420
METAR KFDK 081414Z AUTO 00000KT 7SM CLR 34/22 A3004=
METAR KFPK 081416Z AUTO 00000KT 10SM CLR 27/21 A3002 RMK AO2=
METAR KMOP 081415Z AUTO 27005KT 10SM SCT060 SCT090 BKN110 23/23
     A3002 RMK AO2=
METAR KCAD 081414Z AUTO 26003KT 7SM -RA SCT006 BKN014 OVC019 22/21
     A3004 RMK AO2=
METAR KMGN 081415Z AUTO 00000KT 2SM -DZ OVC006 21/20 A3000 RMK
     AO2=
METAR KHAI 081415Z AUTO 00000KT 7SM -RA SCT029 BKN060 OVC080 25/22
     A3004 RMK AO2=
METAR KLWA 081416Z AUTO 00000KT 10SM OVC030 24/21 A3003 RMK
     AO2=
METAR KDRM 081416Z AUTO 25006KT 3SM -RA OVC004 21/20 A2998 RMK
     AO2=
METAR KVLL 081414Z AUTO 24006KT 10SM CLR 31/18 A3005 RMK AO2=
METAR KCFS 081415Z AUTO 28005KT 10SM CLR 28/21 A3002 RMK AO2=
METAR KOZW 081415Z AUTO 00000KT 10SM CLR 28/20 A3003 RMK AO2=
METAR KRNP 081415Z AUTO 23003KT 10SM CLR 28/21 A3002 RMK AO2=
METAR KDUH 081414Z AUTO 27005KT 10SM CLR 32/20 A3003 RMK AO2=
METAR KJYM 081415Z AUTO 17004KT 10SM CLR 28/21 A3005 RMK AO2=
METAR KBAX 081415Z AUTO 29006KT 10SM CLR 27/23 A3000 RMK AO2=
METAR KIRS 081415Z AUTO 25003KT 7SM -RA SCT050 SCT060 26/22 A3004
     RMK AO2=
METAR KACB 081415Z AUTO 00000KT 7SM -RA BKN009 OVC015 23/22 A3000
     RMK AO2=
METAR KRQB 081415Z AUTO 00000KT 7SM -RA SCT005 BKN030 OVC044 23/22
     A3003 RMK AO2=
METAR KOEB 081415Z AUTO 15004KT 10SM CLR 28/23 A3003 RMK AO2=
METAR K4I3 081416Z AUTO 27004KT 10SM CLR 29/21 A3009 RMK AO2=
METAR KAUM 081415Z AUTO 34008KT 10SM CLR 21/16 A3012 RMK AO2=
METAR KFFX 081415Z AUTO 22003KT 5SM RA BKN012 OVC026 23/22 A3002
     RMK AO2=
METAR KCNB 081417Z AUTO 25007KT 10SM CLR 23/15 A3014 RMK AO2
     T02320145=
METAR KCKN 081415Z AUTO 31006KT 10SM CLR 20/14 A3007 RMK AO2=
METAR KCFE 081415Z AUTO 25004KT 10SM CLR 23/17 A3012 RMK AO2
     T02250168=
METAR KCQM 081417Z AUTO 26004KT 10SM CLR 20/14 A3005 RMK AO2=
METAR KDTL 081415Z AUTO 28005KT 10SM CLR 21/10 A3011 RMK AO2=
METAR KBDH 081415Z AUTO 27005KT 10SM CLR 21/16 A3013 RMK AO2=
METAR KCBG 081415Z AUTO 28005KT 10SM CLR 23/18 A3010 RMK AO2=
METAR KADC 081417Z AUTO 23004KT 10SM CLR 19/15 A3010 RMK AO2=
METAR KHAF 081410Z AUTO 00000KT 7SM OVC006 12/10 A2996 RMK AO2=
METAR KCKC 081415Z AUTO 26004KT 10SM CLR 21/13 A3004 RMK AO2=
METAR KJYG 081415Z AUTO 31004KT 10SM CLR 22/20 A3016 RMK AO2=
METAR KCOQ 081416Z AUTO 27006KT 10SM CLR 21/18 A3007 RMK AO2=
METAR KACQ 081419Z AUTO 30004KT 10SM CLR 21/17 A3016 RMK AO2=
METAR KRGK 081415Z AUTO 32004KT 10SM CLR 23/17 A3009 RMK AO2=
METAR KFSE 081414Z AUTO 24006KT 10SM CLR 19/14 A3007 RMK AO2=
METAR KY70 081415Z AUTO 00000KT 10SM SCT011 OVC100 26/22 A3001 RMK
     AO2 T02600220=
METAR KUKT 081410Z AUTO 16004KT 9SM CLR 29/21 A3006 RMK AO1=
METAR KFKA 081423Z AUTO 33008KT 10SM BKN015 21/18 A3012 RMK AO2
     T02110175=
####018001167####
SACI51 RJTD 081400
METAR ZBAA 081400Z 14003MPS CAVOK 29/18 Q1006 NOSIG=
METAR ZBTJ 081400Z 14003MPS CAVOK 26/18 Q1006 NOSIG=
METAR ZBYN 081400Z 08007MPS CAVOK 26/14 Q1009 NOSIG=
METAR ZGGG 081400Z 16003MPS 9999 SCT030 32/26 Q1007 NOSIG=
METAR ZGKL 081400Z VRB01MPS CAVOK 29/26 Q1005 NOSIG=
METAR ZGNN 081400Z 10002MPS CAVOK 29/25 Q1005 NOSIG=
METAR ZGOW 081400Z 21006MPS 9999 FEW020 29/26 Q1009 NOSIG=
METAR ZGSZ 081400Z 17006MPS 140V200 9999 FEW020 30/25 Q1008 NOSIG=
METAR ZLXY 081400Z 09002MPS 060V120 1700 BR SCT030 OVC050 23/21
           Q1009 NOSIG=
METAR ZPPP 081400Z 19004MPS 9999 FEW026 BKN050 22/17 Q1016 NOSIG=
METAR ZSAM 081400Z 19004MPS 9999 FEW023 29/25 Q1008 NOSIG=
METAR ZSHC 081400Z VRB01MPS 5000 -RA BR FEW007 SCT026 26/23 Q1005
           NOSIG=
METAR ZSNJ 081400Z 13001MPS 2000 BR BKN020 27/23 Q1004 NOSIG=
METAR ZSQD 081400Z 16003MPS 9999 FEW012 23/19 Q1007 NOSIG=
METAR ZSSS 081400Z 12004MPS 9999 SCT016 27/23 Q1005 NOSIG=
METAR ZWWW 081400Z 20006MPS 9999 FEW033CB 29/08 Q1011 NOSIG=
METAR ZYTL 081400Z 30003MPS 4000 BR NSC 23/20 Q1007 NOSIG=
METAR ZYTX 081400Z VRB01MPS 9999 FEW030 19/18 Q1007 NOSIG=
####018001651####
SAUS99 KWBC 081420 RRA
METAR
KIRS 081415Z AUTO 25003KT 7SM -RA SCT050 SCT060 26/22 A3004 RMK
     AO2=
KACB 081415Z AUTO 00000KT 7SM -RA BKN009 OVC015 23/22 A3000 RMK
     AO2=
KRQB 081415Z AUTO 00000KT 7SM -RA SCT005 BKN030 OVC044 23/22 A3003
     RMK AO2=
KOEB 081415Z AUTO 15004KT 10SM CLR 28/23 A3003 RMK AO2=
K4I3 081416Z AUTO 27004KT 10SM CLR 29/21 A3009 RMK AO2=
KAUM 081415Z AUTO 34008KT 10SM CLR 21/16 A3012 RMK AO2=
KFFX 081415Z AUTO 22003KT 5SM RA BKN012 OVC026 23/22 A3002 RMK
     AO2=
KCNB 081417Z AUTO 25007KT 10SM CLR 23/15 A3014 RMK AO2
     T02320145=
KCKN 081415Z AUTO 31006KT 10SM CLR 20/14 A3007 RMK AO2=
KCFE 081415Z AUTO 25004KT 10SM CLR 23/17 A3012 RMK AO2
     T02250168=
KCQM 081417Z AUTO 26004KT 10SM CLR 20/14 A3005 RMK AO2=
KDTL 081415Z AUTO 28005KT 10SM CLR 21/10 A3011 RMK AO2=
KBDH 081415Z AUTO 27005KT 10SM CLR 21/16 A3013 RMK AO2=
KCBG 081415Z AUTO 28005KT 10SM CLR 23/18 A3010 RMK AO2=
KADC 081417Z AUTO 23004KT 10SM CLR 19/15 A3010 RMK AO2=
KHAF 081410Z AUTO 00000KT 7SM OVC006 12/10 A2996 RMK AO2=
KCKC 081415Z AUTO 26004KT 10SM CLR 21/13 A3004 RMK AO2=
KJYG 081415Z AUTO 31004KT 10SM CLR 22/20 A3016 RMK AO2=
KCOQ 081416Z AUTO 27006KT 10SM CLR 21/18 A3007 RMK AO2=
KACQ 081419Z AUTO 30004KT 10SM CLR 21/17 A3016 RMK AO2=
KRGK 081415Z AUTO 32004KT 10SM CLR 23/17 A3009 RMK AO2=
KFSE 081414Z AUTO 24006KT 10SM CLR 19/14 A3007 RMK AO2=
KY70 081415Z AUTO 00000KT 10SM SCT011 OVC100 26/22 A3001 RMK AO2
     T02600220=
KUKT 081410Z AUTO 16004KT 9SM CLR 29/21 A3006 RMK AO1=
KFKA 081423Z AUTO 33008KT 10SM BKN015 21/18 A3012 RMK AO2
     T02110175=
####018003728####
SAUS70 KWBC 081420
METAR
KTWM 081413Z AUTO 28005KT 10SM CLR 22/15 A3002 RMK AO2=
KULM 081415Z AUTO 32004KT 10SM CLR 21/16 A3013 RMK AO2=
KUNI 081415Z AUTO 00000KT 10SM CLR 31/16 A3008 RMK AO2
     T03090158=
KVES 081414Z AUTO 20004KT 10SM CLR 29/21 A3007 RMK AO2
     T02860214=
KVVV 081415Z AUTO 26006KT 10SM CLR 22/16 A3011 RMK AO2=
KJKJ 081414Z AUTO 30003KT 10SM CLR 22/17 A3008 RMK AO2=
KJMR 081418Z AUTO 27004KT 10SM CLR 21/15 A3011 RMK AO2=
KLCK 081415Z AUTO 24003KT 10SM CLR 30/21 A3007 RMK AO2
     T02980213=
KLJF 081412Z AUTO 30005KT 10SM CLR 22/17 A3013 RMK AO2=
KLVN 081408Z AUTO 31006KT 10SM CLR 22/17 A3012 RMK AO2=
KLXL 081414Z AUTO 28006KT 10SM CLR 21/14 A3009 RMK AO2=
KMCJ 081415Z AUTO 06008KT 6SM CLR 24/23 A2995 RMK AO1=
KMDS 081405Z AUTO 28006KT 10SM CLR 21/17 A3018 RMK AO2=
KMGG 081415Z AUTO 30005KT 10SM CLR 22/17 A3013 RMK AO2
     T02210171=
KMJQ 081411Z AUTO 34004KT 10SM CLR 21/16 A3017 RMK AO2=
KMOX 081410Z AUTO 29005KT 10SM CLR 23/17 A3008 RMK AO2=
KMVE 081414Z AUTO 32003KT 10SM CLR 22/18 A3011 RMK AO2=
KMWM 081413Z AUTO 32006KT 10SM CLR 22/16 A3015 RMK AO2=
KMWO 081415Z AUTO 25006KT 7SM CLR 30/22 A3008 RMK AO2=
KONA 081410Z AUTO 31008KT 10SM SCT017 23/17 A3009 RMK AO2=
KOVL 081413Z AUTO 29005KT 10SM CLR 21/16 A3013 RMK AO2
     T02060155=
KPEX 081412Z AUTO 27008KT 10SM CLR 22/16 A3012 RMK AO2
     T02210161=
KPNM 081413Z AUTO 26005KT 10SM CLR 22/16 A3011 RMK AO2=
KPQN 081413Z AUTO 31004KT 10SM CLR 21/16 A3018 RMK AO2=
KPVB 081413Z AUTO 32004KT 10SM BKN011 OVC018 23/21 A3007 RMK AO1
     T02310206=
KPWC 081413Z AUTO 28005KT 10SM CLR 21/14 A3009 RMK AO2=
KRBW 081415Z AUTO 33009KT 10SM CLR 30/22 A2998 RMK AO2=
KRCM 081415Z AUTO 34007KT 10SM BKN008 BKN085 23/23 A3008 RMK AO2
     LTG DSNT E=
KROX 081414Z AUTO 27007KT 10SM SCT085 19/16 A3004 RMK AO2=
KRRT 081414Z AUTO 26008KT 10SM CLR 18/14 A3003 RMK AO2=
KRZN 081414Z AUTO 26006KT 10SM CLR 22/16 A3009 RMK AO2
     T02230161=
KSAZ 081413Z AUTO 26004KT 10SM CLR 21/19 A3010 RMK AO2=
KSGS 081413Z AUTO 29007KT 10SM CLR 23/16 A3011 RMK AO2
     T02260163=
KSME 081415Z AUTO 00000KT 5SM HZ 30/22 A3010 RMK AO2=
KTEW 081413Z AUTO 00000KT 10SM CLR 27/20 A3003 RMK AO2=
KTOB 081414Z AUTO 00000KT 10SM CLR 21/17 A3013 RMK AO2=
K1A6 081415Z AUTO 00000KT 5SM HZ CLR 28/24 A3011 RMK AO2=
K21D 081418Z AUTO 30006KT 10SM CLR 22/16 A3011 RMK AO2=
K4M9 081415Z AUTO 23006KT 10SM CLR 28/24 A3007 RMK AO2=
KAEJ 081415Z AUTO 00000KT 10SM OVC016 11/08 A3046 RMK AO2=
KAEL 081411Z AUTO 34006KT 10SM CLR 21/17 A3013 RMK AO2=
KAIG 081415Z AUTO 34005KT 10SM SCT015 22/18 A3004 RMK AO2=
KAIT 081413Z AUTO 25005KT 10SM CLR 22/19 A3007 RMK AO2=
KARV 081412Z AUTO 32007KT 10SM CLR 22/18 A3007 RMK AO2
     T02180176=
KBBB 081413Z AUTO 29006KT 10SM CLR 22/17 A3012 RMK AO2=
KBJI 081414Z AUTO 25006KT 10SM CLR 21/13 A3007 RMK AO2=
KBUU 081414Z AUTO 28006KT 10SM CLR 23/20 A3003 RMK AO2=
KBVU 081415Z AUTO 00000KT 10SM CLR 28/M02 A2991 RMK AO2=
KBWP 081411Z AUTO 29004KT 10SM CLR 21/16 A3011 RMK AO1
     T02050157=
KCMY 081415Z AUTO 30005KT 10SM SCT017 23/18 A3008 RMK AO2
     T02280178=
KCVH 081410Z AUTO 00000KT 5SM OVC008 13/12 A2994 RMK AO1=
KDCM 081415Z AUTO 35006KT 7SM CLR 31/25 A3001 RMK AO2 LTG DSNT
     NW=
KDLL 081415Z AUTO 30005KT 10SM OVC011 22/20 A3005 RMK AO2
     T02240195=
KDXX 081414Z AUTO 00000KT 10SM CLR 22/19 A3011 RMK AO2=
KEFK 081415Z AUTO 21007KT 7SM CLR 28/22 A3005 RMK AO2=
KEFT 081415Z AUTO 32006KT 10SM BKN006 24/20 A3005 RMK AO2
     T02400204=
KEGV 081412Z AUTO 35009KT 10SM SCT048 21/17 A3006 RMK AO2
     T02070166=
KELO 081413Z AUTO 24006KT 10SM CLR 21/14 A3002 RMK AO2=
####018000229####
SAXX60 KWBC 081400 RRM
METAR
KNFG 081356Z COR 00000KT 5SM BR FEW011 OVC018 16/13 A2991 RMK AO2
     SLP129 T01560133 TSNO=
KNFG 081356Z COR 00000KT 5SM BR FEW011 OVC018 16/13 A2991 RMK AO2
     SLP129 T01560133 TSNO=
####018003074####
SAUS70 KWBC 081420 RRA
METAR
KEVM 081412Z AUTO 26004KT 10SM CLR 20/15 A3003 RMK AO1=
KFBL 081414Z AUTO 30004KT 10SM CLR 21/16 A3014 RMK AO2=
KFFM 081413Z AUTO 28003KT 10SM CLR 19/16 A3009 RMK AO2=
KFGN 081414Z AUTO 30010KT 1 1/2SM HZ VV007 18/14 A3000 RMK AO2 VIS
     3/4V3=
KFSO 081418Z AUTO 22003KT 7SM CLR 31/25 A3001 RMK AO2=
KGDB 081413Z AUTO 25006KT 10SM CLR 22/17 A3015 RMK AO2
     T02150169=
KGHW 081413Z AUTO 26006KT 10SM CLR 21/15 A3014 RMK AO2=
KGYL 081414Z AUTO 30007KT 10SM CLR 21/16 A3012 RMK AO2
     T02130160=
KHCD 081412Z AUTO 28005KT 10SM CLR 22/17 A3013 RMK AO2
     T02170165=
KHCO 081414Z AUTO 32009KT 10SM CLR 19/16 A3009 RMK AO2=
KHZX 081411Z AUTO 29006KT 10SM CLR 21/15 A3008 RMK AO2=
K14Y 081419Z AUTO 23008KT 10SM CLR 22/16 A3011 RMK AO2
     T02170157=
KBBF 081515Z AUTO 13020KT 8SM CLR 29/26 A2984 RMK A01=
KBQX 081415Z AUTO 12016G23KT 9SM SCT024 SCT029 29/25 A2989 RMK
     A01=
KDLP 081415Z AUTO 09014KT 9SM FEW023 SCT030 29/24 A3002 RMK
     A01=
KEHC 081415Z AUTO 12022KT 6SM HZ BKN017 BKN026 29/25 A2997 RMK
     A01=
KEMK 081415Z AUTO 14023G28KT 6SM HZ FEW024 FEW037 SCT045 29/25
     A2991 RMK A01=
KETB 081412Z AUTO 28004KT 10SM OVC014 24/20 A3002 RMK AO2 P0001
     T02380199=
KEZS 081415Z AUTO 35005KT 10SM SCT014 24/20 A3002 RMK AO2
     T02430201=
KGLW 081413Z AUTO 00000KT 10SM CLR 30/20 A3008 RMK AO2
     T03040203=
KGVX 081415Z AUTO 12023KT 9SM FEW023 FEW043 BKN085 M40/ A2993 RMK
     A01=
KHFJ 081415Z AUTO 00000KT 10SM SCT021 SCT037 OVC050 24/22 A3006
     RMK AO1=
KHQI 081415Z AUTO 10025KT 6SM HZ SCT022 BKN080 BKN095 29/26 A2994
     RMK A01=
KIPN 081415Z AUTO 09016KT 10SM CLR 58/51 A3001 RMK A01=
KLNL 081415Z AUTO 34007KT 10SM CLR 20/15 A3007 RMK AO2
     T02020148=
KLUM 081415Z AUTO 33006KT 10SM CLR 22/16 A3009 RMK AO2=
KMDJ 081415Z AUTO 12015KT 10SM FEW023 SCT028 29/23 A3003 RMK
     A01=
KMDZ 081415Z AUTO 35005KT 10SM CLR 22/17 A3007 RMK AO2=
KMIU 081415Z AUTO 13022KT 3/4SM BR BKN004 BKN019 OVC050 27/26
     A2983 RMK A01=
KMRJ 081415Z AUTO 35006KT 10SM OVC013 24/20 A3007 RMK AO2
     T02400202=
KMZG 081415Z AUTO VRB03KT 9SM CLR 29/24 A2985 RMK A01=
KOEO 081415Z AUTO 30005KT 10SM CLR 22/17 A3012 RMK AO2=
KPBH 081415Z AUTO 35005KT 10SM CLR 22/17 A3009 RMK AO2=
KPCZ 081415Z AUTO 27005KT 10SM SCT011 25/21 A3003 RMK AO2
     T02470207=
KPDC 081413Z AUTO 31007KT 10SM BKN010 25/21 A3007 RMK AO2
     T02450212=
KRCX 081415Z AUTO 35007KT 10SM CLR 22/17 A3010 RMK AO2
     T02180167=
KRNH 081416Z AUTO 30004KT 10SM CLR 22/17 A3011 RMK AO2
     T02150166=
KRPD 081414Z AUTO 32004KT 10SM CLR 22/17 A3010 RMK AO2
     T02160166=
KRRL 081415Z AUTO 36008KT 10SM CLR 22/17 A3007 RMK AO2
     T02170171=
KRYV 081415Z AUTO 32005KT 10SM SCT009 25/22 A3003 RMK AO2=
KVBS 081415Z AUTO 12019KT 10SM FEW019 29/25 A2997 RMK A01=
KVNP 081405Z AUTO 09012G20KT 7SM FEW013 SCT019 BKN027 28/26 A3001
     RMK A01=
KY63 081420Z AUTO 26005KT 10SM CLR 20/17 A3011 RMK AO2
     T02010167=
####018000625####
SPUS70 KWBC 081420
SPECI
KJCT 081416Z AUTO 03003KT 10SM SCT010 BKN024 26/22 A3005 RMK AO2
     TSNO=
KHOB 081413Z 36009KT 10SM BKN006 BKN110 20/19 A3020=
KMRY 081417Z 31004KT 8SM OVC004 12/10 A2996 RMK AO2=
KSSF 081417Z 05010KT 10SM SCT012 SCT022 BKN027 27/23 A2994 RMK
     AO2=
KTAN 081417Z AUTO 16006KT 10SM SCT022 27/21 A3007 RMK AO2=
PALG 081414Z AUTO 00000KT 3SM BR BKN003 06/05 A2999 RMK AO2
     TSNO=
KBVO 081417Z 05003KT 10SM BKN020 24/22 A3008 RMK AO2=
KHQM 081417Z AUTO 28003KT 1SM BR 13/12 A2998 RMK AO2 $=
KLRD 081417Z 03011KT 10SM SCT010 BKN014 BKN044 28/24 A2992 RMK AO2
     $=
####018000198####
SPUS99 KWBC 081420
SPECI
KLIT 081418Z 23007KT 10SM BKN011 BKN150 BKN250 28/24 A3010 RMK AO2
     BKN011 V SCT=
KLRD 081417Z 03011KT 10SM SCT010 BKN014 BKN044 28/24 A2992 RMK AO2
     $=
####018003710####
SAUS99 KWBC 081420
METAR
K14Y 081419Z AUTO 23008KT 10SM CLR 22/16 A3011 RMK AO2
     T02170157=
KBBF 081515Z AUTO 13020KT 8SM CLR 29/26 A2984 RMK A01=
KBQX 081415Z AUTO 12016G23KT 9SM SCT024 SCT029 29/25 A2989 RMK
     A01=
KDLP 081415Z AUTO 09014KT 9SM FEW023 SCT030 29/24 A3002 RMK
     A01=
KEDU 081415Z AUTO 20003KT 10SM CLR 14/10 A2985 RMK AO1=
KEHC 081415Z AUTO 12022KT 6SM HZ BKN017 BKN026 29/25 A2997 RMK
     A01=
KEMK 081415Z AUTO 14023G28KT 6SM HZ FEW024 FEW037 SCT045 29/25
     A2991 RMK A01=
KETB 081412Z AUTO 28004KT 10SM OVC014 24/20 A3002 RMK AO2 P0001
     T02380199=
KEZS 081415Z AUTO 35005KT 10SM SCT014 24/20 A3002 RMK AO2
     T02430201=
KGBK 081415Z AUTO 09013G19KT 10SM CLR 29/25 A2996 RMK A01=
KGLW 081413Z AUTO 00000KT 10SM CLR 30/20 A3008 RMK AO2
     T03040203=
KGVX 081415Z AUTO 12023KT 9SM FEW023 FEW043 BKN085 M40/ A2993 RMK
     A01=
KHFJ 081415Z AUTO 00000KT 10SM SCT021 SCT037 OVC050 24/22 A3006
     RMK AO1=
KHQI 081415Z AUTO 10025KT 6SM HZ SCT022 BKN080 BKN095 29/26 A2994
     RMK A01=
KIPN 081415Z AUTO 09016KT 10SM CLR 58/51 A3001 RMK A01=
KLNL 081415Z AUTO 34007KT 10SM CLR 20/15 A3007 RMK AO2
     T02020148=
KLUM 081415Z AUTO 33006KT 10SM CLR 22/16 A3009 RMK AO2=
KMDJ 081415Z AUTO 12015KT 10SM FEW023 SCT028 29/23 A3003 RMK
     A01=
KMDZ 081415Z AUTO 35005KT 10SM CLR 22/17 A3007 RMK AO2=
KMHR 081415Z AUTO 17006KT 10SM CLR 13/10 A2987 RMK AO1=
KMIU 081415Z AUTO 13022KT 3/4SM BR BKN004 BKN019 OVC050 27/26
     A2983 RMK A01=
KMRJ 081415Z AUTO 35006KT 10SM OVC013 24/20 A3007 RMK AO2
     T02400202=
KMYT 081415Z AUTO 10015KT 10SM FEW021 FEW027 28/24 A2999 RMK
     A01=
KMZG 081415Z AUTO VRB03KT 9SM CLR 29/24 A2985 RMK A01=
KNFG 081356Z COR 00000KT 5SM BR FEW011 OVC018 16/13 A2991 RMK AO2
     SLP129 T01560133 TSNO=
KOCF 081350Z 00000KT 10SM CLR 26/21 A3002=
KOEO 081415Z AUTO 30005KT 10SM CLR 22/17 A3012 RMK AO2=
KPBH 081415Z AUTO 35005KT 10SM CLR 22/17 A3009 RMK AO2=
KPCZ 081415Z AUTO 27005KT 10SM SCT011 25/21 A3003 RMK AO2
     T02470207=
KPDC 081413Z AUTO 31007KT 10SM BKN010 25/21 A3007 RMK AO2
     T02450212=
KRCX 081415Z AUTO 35007KT 10SM CLR 22/17 A3010 RMK AO2
     T02180167=
KRNH 081416Z AUTO 30004KT 10SM CLR 22/17 A3011 RMK AO2
     T02150166=
KRPD 081414Z AUTO 32004KT 10SM CLR 22/17 A3010 RMK AO2
     T02160166=
KRRL 081415Z AUTO 36008KT 10SM CLR 22/17 A3007 RMK AO2
     T02170171=
KRYV 081415Z AUTO 32005KT 10SM SCT009 25/22 A3003 RMK AO2=
KSCF 081420Z AUTO 13018KT 8SM 28/25 A2995 RMK A01=
KVBS 081415Z AUTO 12019KT 10SM FEW019 29/25 A2997 RMK A01=
KVNP 081405Z AUTO 09012G20KT 7SM FEW013 SCT019 BKN027 28/26 A3001
     RMK A01=
KY63 081420Z AUTO 26005KT 10SM CLR 20/17 A3011 RMK AO2
     T02010167=
KFPK 081416Z AUTO 00000KT 10SM CLR 27/21 A3002 RMK AO2=
KMOP 081415Z AUTO 27005KT 10SM SCT060 SCT090 BKN110 23/23 A3002
     RMK AO2=
KCAD 081414Z AUTO 26003KT 7SM -RA SCT006 BKN014 OVC019 22/21 A3004
     RMK AO2=
KMGN 081415Z AUTO 00000KT 2SM -DZ OVC006 21/20 A3000 RMK AO2=
KHAI 081415Z AUTO 00000KT 7SM -RA SCT029 BKN060 OVC080 25/22 A3004
     RMK AO2=
KLWA 081416Z AUTO 00000KT 10SM OVC030 24/21 A3003 RMK AO2=
KDRM 081416Z AUTO 25006KT 3SM -RA OVC004 21/20 A2998 RMK AO2=
KVLL 081414Z AUTO 24006KT 10SM CLR 31/18 A3005 RMK AO2=
KCFS 081415Z AUTO 28005KT 10SM CLR 28/21 A3002 RMK AO2=
KOZW 081415Z AUTO 00000KT 10SM CLR 28/20 A3003 RMK AO2=
KRNP 081415Z AUTO 23003KT 10SM CLR 28/21 A3002 RMK AO2=
KDUH 081414Z AUTO 27005KT 10SM CLR 32/20 A3003 RMK AO2=
KJYM 081415Z AUTO 17004KT 10SM CLR 28/21 A3005 RMK AO2=
KBAX 081415Z AUTO 29006KT 10SM CLR 27/23 A3000 RMK AO2=
####018000405####
SPUS80 KWBC 081420
SPECI
KMWT 081414Z AUTO 00000KT 10SM BKN017 BKN049 BKN060 26/23 A3009
     RMK AO2 TSNO=
KCRP 081415Z 04012KT 5SM +RA BR FEW009 SCT024CB BKN040 27/25 A2987
     RMK AO2 RAB1356 CB OHD-N-E-SE MOV NW TCU DSNT NE S SW
     P0004=
KLAX 081417Z 25007KT 7SM OVC009 16/13 A2993 RMK AO2=
KLIT 081418Z 23007KT 10SM BKN011 BKN150 BKN250 28/24 A3010 RMK AO2
     BKN011 V SCT=
####018001239####
SAAM20 FCBB 081400
METAR FCBB 081400Z 22005KT 260V180 7000 NSC 28/20 Q1012 NOSIG=
METAR FCPP 081400Z 20008KT 7000 FEW013 OVC033 24/21 Q1012 NOSIG=
METAR FKKD 081400Z VRB03KT 9999 TS BKN013 SCT016CB BKN120 27/25 Q1012
      TEMPO 4000 TSRA=
METAR FKYS 081400Z 26003KT 210V320 9999 SCT012 BKN020 FEW026CB 27/20
      Q1015 TEMPO TS=
METAR FKKR 081400Z 28004KT 9999 SCT020 FEW026CB BKN130 28/23 Q1011
      NOSIG=
METAR FKKN 081400Z 28006KT 9999 SCT020TCU FEW030CB BKN110 BKN300
      24/18 Q1016=
METAR FKKL NIL=
METAR FEFT NIL=
METAR FEFG NIL=
METAR FEFF 081400Z 22006KT 9999 SCT030 FEW040CB 31/21 Q1012
      NOSIG=
METAR FOOL 081400Z 22006KT 190V250 9000 SCT010 OVC033 27/23 Q1012
      NOSIG=
METAR FOOG 081400Z /////KT 9999 FEW010 27/22 Q1013=
METAR FOON 081400Z 32010KT 9000 SCT030 29/22 Q1013=
METAR FGSL 081400Z 26005KT 8000 TS BKN013 FEW020CB BKN130 26/26 Q1012
      NOSIG=
METAR FGBT 081400Z 26008KT 8000 SCT013 BKN130 28/25 Q1011 NOSIG=
METAR FZRF NIL=
METAR FZOS NIL=
METAR FZAA 081400Z 32010KT 4000 BR SKC 27/19 Q1011 NOSIG=
METAR FZIC NIL=
METAR FZFK NIL=
METAR FZQA NIL=
METAR FNHU NIL=
METAR FNLU 081400Z 26010KT 9999 FEW021 24/19 Q1011 NOSIG=
METAR FPST NIL=
####018000079####
SAKY31 RUMS 081400 RRA
METAR UAFM 081400Z 24005MPS CAVOK 30/07 Q1012 NOSIG=
####018000223####
SAXX60 KWBC 081420
METAR
KMRT 081413Z AUTO 24004KT 10SM CLR 30/19 A3011 RMK AO2
     T02950191=
KGBK 081415Z AUTO 09013G19KT 10SM CLR 29/25 A2996 RMK A01=
KMHR 081415Z AUTO 17006KT 10SM CLR 13/10 A2987 RMK AO1=
####018000141####
SAUS70 KWBC 081400 RRL
METAR
KU78 081352Z 15014KT 20SM SKC 15/10 A3029 RMK SLPNO NOSPECI=
KOCF 081350Z 00000KT 10SM CLR 26/21 A3002=
####018000464####
SAAM31 FCBB 081400 RRA
METAR FKKD 081400Z VRB03KT 9999 TS BKN013 SCT016CB BKN120 27/25 Q1012
      TEMPO 4000 TSRA=
METAR FKYS 081400Z 26003KT 210V320 9999 SCT012 BKN020 FEW026CB 27/20
      Q1015 TEMPO TS=
METAR FEFF 081400Z 22006KT 9999 SCT030 FEW040CB 31/21 Q1012
      NOSIG=
METAR FOOL 081400Z 22006KT 190V250 9000 SCT010 OVC033 27/23 Q1012
      NOSIG=
METAR FGSL 081400Z 26005KT 8000 TS BKN013 FEW020CB BKN130 26/26 Q1012
      NOSIG=
####018000800####
SAUS80 KWBC 081420
METAR
KLYV 081418Z AUTO 28004KT 10SM CLR 21/16 A3018 RMK AO2=
KROS 081415Z AUTO 28006KT 10SM CLR 22/16 A3010 RMK AO2
     T02200164=
KSNC 081415Z AUTO 15004KT 10SM SCT011 OVC018 24/24 A3010 RMK
     AO2=
KSYN 081430Z AUTO 31005KT 10SM CLR 22/17 A3011 RMK AO2
     T02210173=
KTKC 081413Z AUTO 30005KT 10SM CLR 22/15 A3015 RMK AO2
     T02200153=
K29G 081413Z AUTO 00000KT 10SM CLR 28/18 A3009 RMK AO2 T02840180
     PWINO=
KCLI 081415Z AUTO 33004KT 10SM CLR 24/19 A3002 RMK AO2=
KDVK 081417Z AUTO 18004KT 10SM 30/19 A3010 RMK AO1=
KIKW 081413Z AUTO 28004KT 10SM SCT070 SCT090 SCT120 25/21 A3001
     RMK AO2 T02470211=
KMYT 081415Z AUTO 10015KT 10SM FEW021 FEW027 28/24 A2999 RMK
     A01=
KSCF 081420Z AUTO 13018KT 8SM 28/25 A2995 RMK A01=
####018000028####
SAAW34 KWBC 081415
NIL=
