####018000028####
SADL33 KWBC 081415
NIL=
####018000456####
SAUS20 KNKA 081419
SPECI KBRL 081418Z AUTO 7SM BKN007 24/22 A3007 RMK AO2 CIG 004V009=
METAR KBWD 081415Z AUTO 11007KT 9SM FEW010 BKN022 OVC055 25/23 
     A3006 RMK AO2 =
METAR KHYW 081415Z AUTO 36004KT 5SM HZ CLR 31/25 A2994 RMK AO2=
METAR KJZI 081415Z AUTO 30010KT 10SM CLR 32/22 A2996 RMK A02 P000 
     =
METAR KSPF 081415Z AUTO 00000KT 10SM CLR 18/11 A3030 RMK AO2 =
SPECI KVSF 081418Z AUTO VRB05KT 6SM HZ OVC016 26/22 A3009 RMK AO2=
####018000076####
SPUS31 KWBC 081420
SPECI
KLAX 081417Z 25007KT 7SM OVC009 16/13 A2993=
####018000273####
SAXX99 KWBC 081400 RRP
METAR
CZFS 081400Z AUTO 27001KT 17/14 RMK AO1 SLP148 T01700135 58009=
CZHY 081400Z AUTO 28001KT 17/13 RMK AO1 SLP140 T01690131 56003=
CZSM 081400Z AUTO 31003KT 17/10 RMK AO1 SLP133 T01670102 53003=
EYPA 081420Z 33006KT CAVOK 20/15 Q1019=
####018000080####
SAKY31 RUMS 081400 RRA
METAR UAFM 081400Z 24005MPS CAVOK 30/07 Q1012 NOSIG=
####018000093####
SPAU31 AMMC 081420
SPECI YBRM 081420Z AUTO 01004KT 7000NDV // BKN024 OVC029 22/21 Q1012=
####018000077####
SPUS44 KWBC 081420
SPECI
KHQM 081417Z AUTO 28003KT 1SM BR 13/12 A2998=
####018000099####
SPAU31 AMMC 081420
SPECI YBRM 081420Z AUTO 01004KT 7000NDV // BKN024 OVC029 22/21 Q1012=


####018000227####
SASA KAWN 081400 RRG
METAR SAZN 081400Z 29007KT 9999 FEW035 FEW060 11/05 Q1011=
METAR SAZS 081400Z 29020KT 9000 VCRA SCT015 SCT025 04/02 Q1007 REDZ
      R29210094=
METAR SBTT 081400Z 27002KT 9999 FEW012 29/25 Q1013=
####018000245####
SAZZ40 KAWN 081400 RRR
METAR FKYS 081400Z 26003KT 210V320 9999 SCT012 BKN020 FEW026CB 27/20
      Q1015 TEMPO TS=
METAR KFMH 081415Z AUTO 15011G15KT 10SM OVC017 25/21 A3011 RMK AO2=
METAR UAFM 081400Z 24005MPS CAVOK 30/07 Q1012 NOSIG=
####018000101####
SPCN47 CWAO 081418
SPECI CYTS 081418Z 32008KT 2SM -SHRA SCT004 BKN022 OVC032 RMK
SF3SC2SC2=

####018000093####
SPNA14 KAWN 081420 RRB
SPECI KSZL 081415Z 02005KT 10SM SCT009 BKN014 BKN065 25/23 A3008=
####018000921####
SPZZ40 KAWN 081420 RRC
SPECI CYUS 081416Z AUTO ///// 9SM FEW089 14/ A2978=
SPECI CYYU 081414Z 00000KT 12SM BKN025 BKN080 RMK SC5AC2=
SPECI KFRI 081416Z AUTO 01006KT 10SM OVC010 22/20 A3014 RMK AO2 SLP196=
SPECI KHLR 081415Z AUTO 05006KT 10SM SCT012 BKN042 OVC060 26/ A3003
      RMK AO2 T0261 $=
SPECI KHOP 081416Z AUTO 26005KT 10SM -DZ CLR 31/22 A3009 RMK AO2 DZB1416
      SLP184=
SPECI KSZL 081415Z 02005KT 10SM SCT009 BKN014 BKN065 25/23 A3008=
SPECI LBBG 081416Z 28005MPS 250V320 5000 +RA FEW013 OVC036 17/16 Q1014
      WS R22 NOSIG=
PASV SP 1415 AWOS CLR BLO 120 10 49/44/2904/994=
PATL SP 1415 AWOS CLR BLO 120 10 57/45/0305/000=
SPECI SLTR 081402Z 15010KT 3000 -RA FEW008 SCT017 FEW020CB OVC070 22/21
      Q1015=
SPECI SOCA 081415Z 10007KT 060V140 6000 -SHRA BKN019 SCT043 28/25 Q1013
      NOSIG RMK M2=
SPECI YPPD 081415Z AUTO 32003KT 4200NDV // BKN027 OVC047 22/21 Q1010=
####018000077####
SPUS74 KWBC 081420
SPECI
KHQM 081417Z AUTO 28003KT 1SM BR 13/12 A2998=
####018000076####
SPUS74 KWBC 081420
SPECI
KMRY 081417Z 31004KT 8SM OVC004 12/10 A2996=
####018000076####
SPUS74 KWBC 081420
SPECI
KLAX 081417Z 25007KT 7SM OVC009 16/13 A2993=
####018000674####
SAEG31 HECA 081400
METAR HEBL 081400Z 02011KT CAVOK 40/08 Q1008 NOSIG=
METAR HEAX 081400Z 32013KT 9999 FEW020 2922 Q1010 NOSIG=
METAR HEMM 081400Z 32012KT CAVOK 28/21 Q1012 NOSIG=
METAR HEPS 081400Z 34013KT CAVOK 29/23 Q1010 NOSIG=
METAR HELX 081400Z 31010KT CAVOK 40/10 Q1006 NOSIG=
METAR HESN 081400Z 35010KT CAVOK 40/08 Q1007 NOSIG=
METAR HEGN 081400Z 36022KT CAVOK 38/09 Q1005 NOSIG=
METAR HESH 081400Z 02012KT CAVOK 38/11 Q1004 NOSIG=
METAR HEBA 081400Z 32015KT CAVOK 28/20 Q1011 NOSIG=
METAR HEMA 081400Z 01021KT CAVOK 35/16 Q1005 NOSIG=
METAR HETB 081400Z 33012KT CAVOK 33/09 Q1012 NOSIG=
METAR HESC 081400Z 07009KT CAVOK 34/09 Q1017 NOSIG=
####018000076####
SPUS81 KWBC 081420
SPECI
KLAX 081417Z 25007KT 7SM OVC009 16/13 A2993=
####018000101####
SAUS46 KLOX 081420
MTR3A6
METAR K3A6 081510Z AUTO 36002KT 12/11 A2990 RMK AO1 SLP145 T01170110
####018002946####
SAUS20 KNKA 081420
SPECI KLAX 081417Z 25007KT 7SM OVC009 16/13 A2993 RMK AO2=
METAR K4I3 081416Z AUTO 27004KT 10SM CLR 29/21 A3009 RMK AO2=
METAR KACB 081415Z AUTO 00000KT 7SM -RA BKN009 OVC015 23/22 A3000
     RMK AO2=
METAR KACQ 081419Z AUTO 30004KT 10SM CLR 21/17 A3016 RMK AO2=
METAR KADC 081417Z AUTO 23004KT 10SM CLR 19/15 A3010 RMK AO2=
SPECI KASH 081419Z VRB03KT 10SM SCT022 SCT047 28/22 A3008 RMK AO2 =
METAR KAUM 081415Z AUTO 34008KT 10SM CLR 21/16 A3012 RMK AO2=
METAR KBAX 081415Z AUTO 29006KT 10SM CLR 27/23 A3000 RMK AO2=
METAR KBDH 081415Z AUTO 27005KT 10SM CLR 21/16 A3013 RMK AO2=
METAR KCAD 081414Z AUTO 26003KT 7SM -RA SCT006 BKN014 OVC019 22/21
     A3004 RMK AO2=
METAR KCBG 081415Z AUTO 28005KT 10SM CLR 23/18 A3010 RMK AO2=
METAR KCFE 081415Z AUTO 25004KT 10SM CLR 23/17 A3012 RMK AO2
     T02250168=
METAR KCFS 081415Z AUTO 28005KT 10SM CLR 28/21 A3002 RMK AO2=
METAR KCKC 081415Z AUTO 26004KT 10SM CLR 21/13 A3004 RMK AO2=
METAR KCKN 081415Z AUTO 31006KT 10SM CLR 20/14 A3007 RMK AO2=
METAR KCNB 081417Z AUTO 25007KT 10SM CLR 23/15 A3014 RMK AO2
     T02320145=
METAR KCOQ 081416Z AUTO 27006KT 10SM CLR 21/18 A3007 RMK AO2=
METAR KCQM 081417Z AUTO 26004KT 10SM CLR 20/14 A3005 RMK AO2=
METAR KDRM 081416Z AUTO 25006KT 3SM -RA OVC004 21/20 A2998 RMK
     AO2=
METAR KDTL 081415Z AUTO 28005KT 10SM CLR 21/10 A3011 RMK AO2=
METAR KDUH 081414Z AUTO 27005KT 10SM CLR 32/20 A3003 RMK AO2=
SPECI KDXR 081419Z 00000KT 3SM BR FEW007 BKN011 OVC034 26/24 A3008 
    RMK AO2 RAE16 P0001=
METAR KFFX 081415Z AUTO 22003KT 5SM RA BKN012 OVC026 23/22 A3002
     RMK AO2=
METAR KFKA 081423Z AUTO 33008KT 10SM BKN015 21/18 A3012 RMK AO2
     T02110175=
METAR KFPK 081416Z AUTO 00000KT 10SM CLR 27/21 A3002 RMK AO2=
METAR KFSE 081414Z AUTO 24006KT 10SM CLR 19/14 A3007 RMK AO2=
METAR KHAF 081410Z AUTO 00000KT 7SM OVC006 12/10 A2996 RMK AO2=
METAR KHAI 081415Z AUTO 00000KT 7SM -RA SCT029 BKN060 OVC080 25/22
     A3004 RMK AO2=
METAR KIRS 081415Z AUTO 25003KT 7SM -RA SCT050 SCT060 26/22 A3004
     RMK AO2=
SPECI KJCT 081416Z AUTO 03003KT 10SM SCT010 BKN024 26/22 A3005 RMK
     AO2 TSNO=
METAR KJYG 081415Z AUTO 31004KT 10SM CLR 22/20 A3016 RMK AO2=
METAR KJYM 081415Z AUTO 17004KT 10SM CLR 28/21 A3005 RMK AO2=
METAR KLWA 081416Z AUTO 00000KT 10SM OVC030 24/21 A3003 RMK
     AO2=
METAR KMGN 081415Z AUTO 00000KT 2SM -DZ OVC006 21/20 A3000 RMK
     AO2=
METAR KMOP 081415Z AUTO 27005KT 10SM SCT060 SCT090 BKN110 23/23
     A3002 RMK AO2=
METAR KOEB 081415Z AUTO 15004KT 10SM CLR 28/23 A3003 RMK AO2=
METAR KOZW 081415Z AUTO 00000KT 10SM CLR 28/20 A3003 RMK AO2=
METAR KRGK 081415Z AUTO 32004KT 10SM CLR 23/17 A3009 RMK AO2=
METAR KRNP 081415Z AUTO 23003KT 10SM CLR 28/21 A3002 RMK AO2=
METAR KRQB 081415Z AUTO 00000KT 7SM -RA SCT005 BKN030 OVC044 23/22
     A3003 RMK AO2=
SPECI KRYY 081416Z 33006KT 10SM SKC 31/21 A3007=
####018000552####
SAUS20 KNKA 081420
METAR KSTE 081415Z AUTO 30005KT 10SM BKN013 OVC017 23/19 A3005 
     RMK AO2=
METAR KSUW 081415Z AUTO 23005KT 10SM CLR 23/17 A3003 RMK AO2=
METAR KTKV 081415Z AUTO 35005KT 10SM CLR 21/16 A3007 RMK AO2 
     T02100159=
METAR KUKT 081410Z AUTO 16004KT 9SM CLR 29/21 A3006 RMK AO1=
METAR KUNU 081412Z AUTO 28006KT 10SM SCT014 24/20 A3004 RMK AO2 
     T02390195=
METAR KVLL 081414Z AUTO 24006KT 10SM CLR 31/18 A3005 RMK AO2=
METAR KY70 081415Z AUTO 00000KT 10SM SCT011 OVC100 26/22 A3001 RMK
     AO2 T02600220=
####018000833####
SAAM31 FCBB 081400
METAR FCBB 081400Z 22005KT 260V180 7000 NSC 28/20 Q1012 NOSIG=
METAR FCPP 081400Z 20008KT 7000 FEW013 OVC033 24/21 Q1012 NOSIG=
METAR FKKD 081400Z VRB03KT 9999 TS BKN013 SCT016CB BKN120 27/25 Q1012
      TEMPO 4000 TSRA=
METAR FKYS 081400Z 26003KT 210V320 9999 SCT012 BKN020 FEW026CB 27/20
      Q1015 TEMPO TS=
METAR FEFF 081400Z 22006KT 9999 SCT030 FEW040CB 31/21 Q1012
      NOSIG=
METAR FOOL 081400Z 22006KT 190V250 9000 SCT010 OVC033 27/23 Q1012
      NOSIG=
METAR FOOG 081400Z /////KT 9999 FEW010 27/22 Q1013=
METAR FGSL 081400Z 26005KT 8000 TS BKN013 FEW020CB BKN130 26/26 Q1012
      NOSIG=
METAR FGBT 081400Z 26008KT 8000 SCT013 BKN130 28/25 Q1011 NOSIG=
METAR FZAA 081400Z 32010KT 4000 BR SKC 27/19 Q1011 NOSIG=
METAR FNLU 081400Z 26010KT 9999 FEW021 24/19 Q1011 NOSIG=
####018000132####
SPCN47 CWAO 081420
SPECI CYHU 081420Z AUTO 22005KT 190V270 9SM FEW008 30/23 A2999 RMK
 SLP155 DENSITY ALT 1700FT RVR MISG=

####018000140####
SPCN47 CWAO 081420
SPECI CYZE 081420Z AUTO 22007KT 9SM -RA FEW015 SCT048 SCT081 OVC092
 21/20 A2998 RMK SLP154 DENSITY ALT 1400FT=

####018000112####
SAMH31 PKWA 081420
METAR PKWA 081420Z AUTO 09005KT 10SM BKN023 BKN031 BKN080 26/24 A2982 RMK AO2 T02590237=
####018001283####
SAUS99 KWBC 081421 RRA
METAR
KDTL 081415Z AUTO 28005KT 10SM CLR 21/10 A3011 RMK AO2=
KDUH 081414Z AUTO 27005KT 10SM CLR 32/20 A3003 RMK AO2=
KFFX 081415Z AUTO 22003KT 5SM RA BKN012 OVC026 23/22 A3002 RMK
     AO2=
KFKA 081423Z AUTO 33008KT 10SM BKN015 21/18 A3012 RMK AO2
     T02110175=
KFPK 081416Z AUTO 00000KT 10SM CLR 27/21 A3002 RMK AO2=
KFSE 081414Z AUTO 24006KT 10SM CLR 19/14 A3007 RMK AO2=
KHAF 081410Z AUTO 00000KT 7SM OVC006 12/10 A2996 RMK AO2=
KHAI 081415Z AUTO 00000KT 7SM -RA SCT029 BKN060 OVC080 25/22 A3004
     RMK AO2=
KIRS 081415Z AUTO 25003KT 7SM -RA SCT050 SCT060 26/22 A3004 RMK
     AO2=
KJYG 081415Z AUTO 31004KT 10SM CLR 22/20 A3016 RMK AO2=
KJYM 081415Z AUTO 17004KT 10SM CLR 28/21 A3005 RMK AO2=
KLWA 081416Z AUTO 00000KT 10SM OVC030 24/21 A3003 RMK AO2=
KMGN 081415Z AUTO 00000KT 2SM -DZ OVC006 21/20 A3000 RMK AO2=
KMOP 081415Z AUTO 27005KT 10SM SCT060 SCT090 BKN110 23/23 A3002
     RMK AO2=
KOEB 081415Z AUTO 15004KT 10SM CLR 28/23 A3003 RMK AO2=
KOZW 081415Z AUTO 00000KT 10SM CLR 28/20 A3003 RMK AO2=
KRGK 081415Z AUTO 32004KT 10SM CLR 23/17 A3009 RMK AO2=
KRNP 081415Z AUTO 23003KT 10SM CLR 28/21 A3002 RMK AO2=
KRQB 081415Z AUTO 00000KT 7SM -RA SCT005 BKN030 OVC044 23/22 A3003
     RMK AO2=
####018003727####
SAUS99 KWBC 081421
METAR
KBWD 081415Z AUTO 11007KT 9SM FEW010 BKN022 OVC055 25/23 A3006 RMK
     AO2=
KHYW 081415Z AUTO 36004KT 5SM HZ CLR 31/25 A2994 RMK AO2=
KJZI 081415Z AUTO 30010KT 10SM CLR 32/22 A2996 RMK A02 P000=
KSPF 081415Z AUTO 00000KT 10SM CLR 18/11 A3030 RMK AO2=
KCVX 081415Z AUTO 23005KT 7SM BKN006 OVC060 22/20 A3002 RMK
     AO2=
KFKS 081415Z AUTO 00000KT 10SM BKN017 22/20 A3000 RMK AO2=
KSLH 081415Z AUTO 25003KT 5SM -RA SCT007 OVC012 22/22 A2999 RMK
     AO2=
KSJX 081416Z AUTO 00000KT 1 1/2SM BR OVC002 20/19 A3000 RMK
     AO2=
KLDM 081416Z AUTO 24004KT 7SM OVC005 23/22 A3002 RMK AO2=
KGOV 081415Z AUTO 23004KT 4SM RA BKN008 BKN015 OVC027 22/22 A3004
     RMK AO2=
KPZQ 081415Z AUTO 26004KT 5SM -RA SCT015 SCT047 OVC065 22/22 A3001
     RMK AO2=
KHYX 081416Z AUTO 25004KT 10SM BKN070 BKN090 26/21 A3001 RMK
     AO2=
KPHN 081416Z AUTO 21005KT 10SM CLR 30/21 A3001 RMK AO2=
KONZ 081417Z AUTO 19005KT 10SM CLR 29/22 A3002 RMK AO2=
KISQ 081415Z AUTO 01006KT 10SM OVC010 22/19 A2999 RMK AO2=
KRMY 081415Z AUTO 13004KT 10SM CLR 27/22 A3003 RMK AO2=
KOSC 081414Z AUTO 00000KT 10SM -DZ SCT021 SCT030 BKN080 23/22
     A3000 RMK AO2=
KTTF 081414Z AUTO 26007KT 10SM SCT075 32/21 A3002 RMK AO2=
KAMN 081416Z AUTO 27005KT 7SM CLR 24/22 A3001 RMK AO2=
KMCD 081416Z AUTO 00000KT M1/4SM -RA OVC001 20/17 A3000 RMK
     AO2=
KERY 081416Z AUTO 34005KT 10SM SCT005 21/19 A3000 RMK AO2=
KDVP 081417Z AUTO 29007KT 10SM CLR 22/14 A3018 RMK AO2
     T02150137=
KCDD 081411Z AUTO 26003KT 10SM CLR 23/18 A3003 RMK AO2=
KFOZ 081413Z AUTO 24006KT 10SM CLR 21/14 A3006 RMK AO2=
KAQP 081413Z AUTO 26007KT 10SM CLR 21/19 A3011 RMK AO2=
KETH 081414Z AUTO 27006KT 10SM CLR 22/16 A3012 RMK AO2=
KXVG 081416Z AUTO 29004KT 10SM CLR 21/14 A3006 RMK AO2=
KORB 081414Z AUTO 27007KT 10SM CLR 20/13 A3002 RMK AO2=
KMZH 081411Z AUTO 26005KT 10SM CLR 21/15 A3006 RMK AO2=
KBFW 081413Z AUTO 28004KT 10SM CLR 25/15 A3002 RMK AO2=
KVWU 081411Z AUTO 23008KT 10SM CLR 21/16 A3005 RMK AO2=
KOWA 081413Z AUTO 29005KT 10SM CLR 20/17 A3013 RMK AO2=
KCDA 081415Z AUTO 16005KT 7SM CLR 28/21 A3009 RMK AO2=
KSTE 081415Z AUTO 30005KT 10SM BKN013 OVC017 23/19 A3005 RMK
     AO2=
KSUW 081415Z AUTO 23005KT 10SM CLR 23/17 A3003 RMK AO2=
KTKV 081415Z AUTO 35005KT 10SM CLR 21/16 A3007 RMK AO2
     T02100159=
KUKT 081410Z AUTO 16004KT 9SM CLR 29/21 A3006 RMK AO1=
KUNU 081412Z AUTO 28006KT 10SM SCT014 24/20 A3004 RMK AO2
     T02390195=
KVLL 081414Z AUTO 24006KT 10SM CLR 31/18 A3005 RMK AO2=
KY70 081415Z AUTO 00000KT 10SM SCT011 OVC100 26/22 A3001 RMK AO2
     T02600220=
K4I3 081416Z AUTO 27004KT 10SM CLR 29/21 A3009 RMK AO2=
KACB 081415Z AUTO 00000KT 7SM -RA BKN009 OVC015 23/22 A3000 RMK
     AO2=
KACQ 081419Z AUTO 30004KT 10SM CLR 21/17 A3016 RMK AO2=
KADC 081417Z AUTO 23004KT 10SM CLR 19/15 A3010 RMK AO2=
KAUM 081415Z AUTO 34008KT 10SM CLR 21/16 A3012 RMK AO2=
KBAX 081415Z AUTO 29006KT 10SM CLR 27/23 A3000 RMK AO2=
KBDH 081415Z AUTO 27005KT 10SM CLR 21/16 A3013 RMK AO2=
KCAD 081414Z AUTO 26003KT 7SM -RA SCT006 BKN014 OVC019 22/21 A3004
     RMK AO2=
KCBG 081415Z AUTO 28005KT 10SM CLR 23/18 A3010 RMK AO2=
KCFE 081415Z AUTO 25004KT 10SM CLR 23/17 A3012 RMK AO2
     T02250168=
KCFS 081415Z AUTO 28005KT 10SM CLR 28/21 A3002 RMK AO2=
KCKC 081415Z AUTO 26004KT 10SM CLR 21/13 A3004 RMK AO2=
KCKN 081415Z AUTO 31006KT 10SM CLR 20/14 A3007 RMK AO2=
KCNB 081417Z AUTO 25007KT 10SM CLR 23/15 A3014 RMK AO2
     T02320145=
KCOQ 081416Z AUTO 27006KT 10SM CLR 21/18 A3007 RMK AO2=
KCQM 081417Z AUTO 26004KT 10SM CLR 20/14 A3005 RMK AO2=
KDRM 081416Z AUTO 25006KT 3SM -RA OVC004 21/20 A2998 RMK AO2=
####018001208####
SAAM20 FCBB 081400
METAR FCBB 081400Z 22005KT 260V180 7000 NSC 28/20 Q1012 NOSIG=
METAR FCPP 081400Z 20008KT 7000 FEW013 OVC033 24/21 Q1012 NOSIG=
METAR FKKD 081400Z VRB03KT 9999 TS BKN013 SCT016CB BKN120 27/25 Q1012
      TEMPO 4000 TSRA=
METAR FKYS 081400Z 26003KT 210V320 9999 SCT012 BKN020 FEW026CB 27/20
      Q1015 TEMPO TS=
METAR FKKR 081400Z 28004KT 9999 SCT020 FEW026CB BKN130 28/23 Q1011
      NOSIG=
METAR FKKN 081400Z 28006KT 9999 SCT020TCU FEW030CB BKN110 BKN300
      24/18 Q1016=
METAR FKKL NIL=
METAR FEFT NIL=
METAR FEFG NIL=
METAR FEFF 081400Z 22006KT 9999 SCT030 FEW040CB 31/21 Q1012
      NOSIG=
METAR FOOL 081400Z 22006KT 190V250 9000 SCT010 OVC033 27/23 Q1012
      NOSIG=
METAR FOOG 081400Z /////KT 9999 FEW010 27/22 Q1013=
METAR FOON 081400Z 32010KT 9000 SCT030 29/22 Q1013=
METAR FGSL 081400Z 26005KT 8000 TS BKN013 FEW020CB BKN130 26/26 Q1012
      NOSIG=
METAR FGBT 081400Z 26008KT 8000 SCT013 BKN130 28/25 Q1011 NOSIG=
METAR FZRF NIL=
METAR FZOS NIL=
METAR FZAA 081400Z 32010KT 4000 BR SKC 27/19 Q1011 NOSIG=
METAR FZIC NIL=
METAR FZFK NIL=
METAR FZQA NIL=
METAR FNHU NIL=
METAR FNLU 081400Z 26010KT 9999 FEW021 24/19 Q1011 NOSIG=
METAR FPST NIL=
####018000454####
SAAM31 FCBB 081400 RRA
METAR FKKD 081400Z VRB03KT 9999 TS BKN013 SCT016CB BKN120 27/25 Q1012
      TEMPO 4000 TSRA=
METAR FKYS 081400Z 26003KT 210V320 9999 SCT012 BKN020 FEW026CB 27/20
      Q1015 TEMPO TS=
METAR FEFF 081400Z 22006KT 9999 SCT030 FEW040CB 31/21 Q1012
      NOSIG=
METAR FOOL 081400Z 22006KT 190V250 9000 SCT010 OVC033 27/23 Q1012
      NOSIG=
METAR FGSL 081400Z 26005KT 8000 TS BKN013 FEW020CB BKN130 26/26 Q1012
      NOSIG=
####018000088####
SANG31 YBBN 081400 RRA
METAR AGGH 081400Z 00000KT 9999 HZ FEW015 OVC300 25/24 Q1009=
####018000490####
SPUS99 KWBC 081421
SPECI
KBRL 081418Z AUTO 7SM BKN007 24/22 A3007 RMK AO2 CIG 004V009=
KVSF 081418Z AUTO VRB05KT 6SM HZ OVC016 26/22 A3009 RMK AO2=
KLAX 081417Z 25007KT 7SM OVC009 16/13 A2993 RMK AO2=
KASH 081419Z VRB03KT 10SM SCT022 SCT047 28/22 A3008 RMK AO2=
KDXR 081419Z 00000KT 3SM BR FEW007 BKN011 OVC034 26/24 A3008 RMK
     AO2 RAE16 P0001=
KJCT 081416Z AUTO 03003KT 10SM SCT010 BKN024 26/22 A3005 RMK AO2
     TSNO=
KRYY 081416Z 33006KT 10SM SKC 31/21 A3007=
####018000092####
SPAU32 YBBN 081420
SPECI YBRM 081420Z AUTO 01004KT 7000NDV // BKN024 OVC029 22/21 Q1012=
####018000088####
SALV31 EVRA 081420
METAR EVRA 081420Z 31011KT 270V340 9999 OVC030 21/16 Q1016 NOSIG=
####018000817####
SAAM31 FCBB 081400
METAR FCBB 081400Z 22005KT 260V180 7000 NSC 28/20 Q1012 NOSIG=
METAR FCPP 081400Z 20008KT 7000 FEW013 OVC033 24/21 Q1012 NOSIG=
METAR FKKD 081400Z VRB03KT 9999 TS BKN013 SCT016CB BKN120 27/25 Q1012
      TEMPO 4000 TSRA=
METAR FKYS 081400Z 26003KT 210V320 9999 SCT012 BKN020 FEW026CB 27/20
      Q1015 TEMPO TS=
METAR FEFF 081400Z 22006KT 9999 SCT030 FEW040CB 31/21 Q1012
      NOSIG=
METAR FOOL 081400Z 22006KT 190V250 9000 SCT010 OVC033 27/23 Q1012
      NOSIG=
METAR FOOG 081400Z /////KT 9999 FEW010 27/22 Q1013=
METAR FGSL 081400Z 26005KT 8000 TS BKN013 FEW020CB BKN130 26/26 Q1012
      NOSIG=
METAR FGBT 081400Z 26008KT 8000 SCT013 BKN130 28/25 Q1011 NOSIG=
METAR FZAA 081400Z 32010KT 4000 BR SKC 27/19 Q1011 NOSIG=
METAR FNLU 081400Z 26010KT 9999 FEW021 24/19 Q1011 NOSIG=
####018000101####
SALT31 EYVI 081420
METAR EYVI 081420Z 29010KT 260V320 7000 BKN006 OVC012 15/14 Q1015
     NOSIG=
####018000084####
SAAL40 DAMM 081400 RRA
METAR DAAT 081400Z 12010G20KT 060V200 CAVOK 35/02 Q1021=
####018000082####
SALT32 EYVI 081420
METAR EYKA 081420Z 29006KT 240V340 9999 OVC028 17/14 Q1016=
####018000123####
SAIY40 LIIB 081400 RRA
METAR LIPA 081355Z 22005KT 9999 FEW040 SCT050 26/19 Q1021 RMK SCT VIS
      MIN 9999 A3016 BLU=
####018000074####
SAEO31 EETN 081420
METAR EETN 081420Z 29013KT CAVOK 25/17 Q1014 NOSIG=
####018000083####
SAAL40 DAMM 081400 RRA
METAR DAAT 081400Z 12010G20KT 060V200 CAVOK 35/02 Q1021=
####018000078####
SAAK31 KWBC 081400 RRA
METAR
PAWG 081416Z 00000KT 10SM CLR 14/10 A3014=
####018000110####
SPTD31 TTPP 081415
SPECI
TTPP 081415Z 00000KT 2000 TSRA FEW004 ST010CB BKN035 26/25 Q1013 CB
SE,ENE=
 
####018000095####
SPAU31 KWBC 081421
SPECI
YBRM 081420Z AUTO 01004KT 7000NDV // BKN024 OVC029 22/21 Q1012=
####018000080####
SPAK32 KWBC 081421
SPECI
PASV SP 1415 AWOS CLR BLO 120 10 49/44/2904/994=
####018000080####
SPAK32 KWBC 081421
SPECI
PATL SP 1415 AWOS CLR BLO 120 10 57/45/0305/000=
####018000142####
SAAK32 KWBC 081400 RRA
METAR
PADK 081416Z 04020G25KT 8SM FEW006 BKN013 OVC044 06/06 A2944=
PADL 081416Z 30007KT 10SM CLR 09/08 A2995=
####018000107####
SAPA41 KWBC 081400 RRA
METAR
PKWA 081420Z AUTO 09005KT 10SM BKN023 BKN031 BKN080 26/24
     A2982=
####018000107####
SAPQ31 KWBC 081400 RRC
METAR
PKWA 081420Z AUTO 09005KT 10SM BKN023 BKN031 BKN080 26/24
     A2982=
####018000091####
SPUS31 KWBC 081421
SPECI
KLIT 081418Z 23007KT 10SM BKN011 BKN150 BKN250 28/24 A3010=
####018000091####
SPUS42 KWBC 081421
SPECI
KLRD 081417Z 03011KT 10SM SCT010 BKN014 BKN044 28/24 A2992=
####018000083####
SAAL31 DAAA 081400 RRA
METAR DAAT 081400Z 12010G20KT 060V200 CAVOK 35/02 Q1021=
####018000083####
SAUS43 KWBC 081400 RRE
METAR
KPHN 081416Z AUTO 21005KT 10SM CLR 30/21 A3001=
####018000083####
SALT32 EYVI 081420
METAR EYKA 081420Z 29006KT 240V340 9999 OVC028 17/14 Q1016=
####018000126####
SAMP31 LMMM 081430
METAR HLLT NIL=
METAR HLLB NIL=
METAR LMML 081415Z 11010KT 070V140 9999 FEW021 28/21 Q1018 NOSIG =
####018000103####
SALT31 EYVI 081420
METAR EYVI 081420Z 29010KT 260V320 7000 BKN006 OVC012 15/14 Q1015
     NOSIG=
####018000093####
SPAU32 YBBN 081420
SPECI YBRM 081420Z AUTO 01004KT 7000NDV // BKN024 OVC029 22/21 Q1012=
####018000075####
SAEO31 EETN 081420
METAR EETN 081420Z 29013KT CAVOK 25/17 Q1014 NOSIG=
####018000674####
SAEG32 HECA 081400
METAR HEBL 081400Z 02011KT CAVOK 40/08 Q1008 NOSIG=
METAR HEAX 081400Z 32013KT 9999 FEW020 2922 Q1010 NOSIG=
METAR HEMM 081400Z 32012KT CAVOK 28/21 Q1012 NOSIG=
METAR HEPS 081400Z 34013KT CAVOK 29/23 Q1010 NOSIG=
METAR HELX 081400Z 31010KT CAVOK 40/10 Q1006 NOSIG=
METAR HESN 081400Z 35010KT CAVOK 40/08 Q1007 NOSIG=
METAR HEGN 081400Z 36022KT CAVOK 38/09 Q1005 NOSIG=
METAR HESH 081400Z 02012KT CAVOK 38/11 Q1004 NOSIG=
METAR HEBA 081400Z 32015KT CAVOK 28/20 Q1011 NOSIG=
METAR HEMA 081400Z 01021KT CAVOK 35/16 Q1005 NOSIG=
METAR HETB 081400Z 33012KT CAVOK 33/09 Q1012 NOSIG=
METAR HESC 081400Z 07009KT CAVOK 34/09 Q1017 NOSIG=
####018000089####
SALV31 EVRA 081420
METAR EVRA 081420Z 31011KT 270V340 9999 OVC030 21/16 Q1016 NOSIG=
####018000089####
SANG31 YBBN 081400 RRA
METAR AGGH 081400Z 00000KT 9999 HZ FEW015 OVC300 25/24 Q1009=
####018000526####
SABZ32 SBBR 081400
METAR SBAN 081400Z 01008KT 9999 FEW030 25/12 Q1023=
METAR SBBR 081400Z 07010KT 9999 FEW023 22/08 Q1024=
METAR SBBW 081400Z 06008KT CAVOK 29/12 Q1018=
METAR SBCG 081400Z 06013KT 9999 FEW040 28/08 Q1017=
METAR SBCR 081400Z 31003KT CAVOK 28/13 Q1015=
METAR SBCY 081400Z 34010KT CAVOK 31/12 Q1015=
METAR SBGO 081400Z 604010KT 9999 FEW020 27/11 Q1020=
METAR SBPJ 081400Z 10010KT CAVOK 31/12 Q1016=
METAR SBPN 081400Z 07004KT CAVOK 31/14 Q1016=
METAR SBPP 081400Z 01006KT CAVOK 27/12 Q1018=
####018002128####
SABZ33 SBBR 081400
METAR SBAF 081400Z 08004KT 4000 NSC 28/14 Q1018=
METAR SBAQ 081400Z NIL=
METAR SBAS 081400Z NIL=
METAR SBAU 081300Z 04006KT CAVOK 23/10 Q1020=
METAR SBAX 081400Z NIL=
METAR SBBH 081400Z 08002KT CAVOK 22/11 Q1023=
METAR SBBI 081400Z 36003KT CAVOK 22/12 Q1022=
METAR SBBQ 081400Z 29008KT CAVOK 22/04 Q1025=
METAR SBBT 081400Z NIL=
METAR SBBU 081400Z 04005KT CAVOK 23/10 Q1021=
METAR SBBZ 081400Z NIL=
METAR SBCB 081400Z NIL=
METAR SBCF 081400Z 13006KT CAVOK 19/08 Q1023=
METAR SBCO 081400Z 19004KT 9999 SCT012 BKN015 15/14 Q1021=
METAR SBCP 081400Z 33004KT CAVOK 26/18 Q1019=
METAR SBDN 081400Z 01010KT CAVOK 26/07 Q1019=
METAR SBES 081400Z 08007KT CAVOK 27/16 Q1018=
METAR SBFS 081400Z NIL=
METAR SBGA 081400Z NIL=
METAR SBGL 081400Z 32001KT CAVOK 24/17 Q1018=
METAR SBGR 081400Z 32007KT CAVOK 23/07 Q1022=
METAR SBGU 081300Z 01005KT 9999 SCT025 19/11 Q1022=
METAR SBGW 081400Z 24006KT CAVOK 20/12 Q1021=
METAR SBIP 081400Z NIL=
METAR SBJF 081400Z 36007KT CAVOK 23/09 Q1023=
METAR SBJR 081400Z 02005KT CAVOK 29/15 Q1018=
METAR SBKP 081400Z 02005KT 9000 NSC 23/09 Q1022=
METAR SBLN 081400Z NIL=
METAR SBLS 081400Z 10003KT CAVOK 23/12 Q1023=
METAR SBME 081400Z 04010KT CAVOK 29/18 Q1018=
METAR SBMK 081400Z 10006KT 9999 FEW035 24/13 Q1022=
METAR SBML 081300Z 05014KT CAVOK 23/12 Q1021=
METAR SBMT 081400Z 02003KT CAVOK 24/08 Q1022=
METAR SBPC 081400Z 33006KT CAVOK 20/04 Q1024=
METAR SBPR 081400Z 12007KT CAVOK 22/10 Q1024=
METAR SBRJ 081400Z 05002KT CAVOK 26/16 Q1017=
METAR SBRP 081400Z 17004KT CAVOK 26/12 Q1020=
METAR SBRQ 081400Z NIL=
METAR SBRS 081400Z NIL=
METAR SBSA 081400Z NIL=
METAR SBSC 081400Z 01010KT CAVOK 26/14 Q1018=
METAR SBSJ 081400Z 16007KT CAVOK 21/11 Q1022=
METAR SBSP 081400Z 35010KT CAVOK 22/07 Q1023=
METAR SBSR 081400Z NIL=
METAR SBST 081400Z 36007KT CAVOK 29/07 Q1017=
METAR SBTA 081400Z 00000KT CAVOK 20/12 Q1022=
METAR SBUL 081400Z 02010KT CAVOK 24/08 Q1022=
METAR SBUP 081400Z NIL=
METAR SBUR 081400Z 03009KT CAVOK 25/07 Q1021=
METAR SBVT 081400Z 04007KT 9999 FEW026 27/19 Q1020=
####018001054####
SABZ34 SBBR 081400
METAR SBBG 081400Z NIL=
METAR SBBI 081400Z 36003KT CAVOK 22/12 Q1022=
METAR SBCA 081200Z 04014KT CAVOK 21/11 Q1020=
METAR SBCH 081400Z 16004KT 9000 FEW015 SCT100 20/14 Q1020=
METAR SBCM 081400Z 22004KT 1600 -DZ BR BKN006 OVC012 17/16 Q1020=
METAR SBCO 081400Z 19004KT 9999 SCT012 BKN015 15/14 Q1021=
METAR SBCT 081400Z 06004KT CAVOK 20/13 Q1022=
METAR SBCX 081300Z 23004KT 0000 FG VV/// 10/09 Q1020=
METAR SBFI 081400Z 16007KT 9999 FEW020 BKN100 19/15 Q1017=
METAR SBFL 081400Z 15011KT 9999 FEW025 SCT100 21/16 Q1019=
METAR SBJV 081400Z 12012KT CAVOK 22/19 Q1019=
METAR SBLO 081400Z 04002KT CAVOK 21/11 Q1021=
METAR SBMG 081400Z 02018KT 8000 NSC 24/10 Q1019=
METAR SBNF 081400Z 13010KT 9999 FEW045 SCT100 22/18 Q1018=
METAR SBNM 081200Z 14010KT 9999 FEW010 OVC020 15/09 Q1020=
METAR SBPA 081400Z 22002KT 9999 BKN015 BKN030 15/12 Q1021=
METAR SBPF 081400Z NIL=
METAR SBPG 081400Z NIL=
METAR SBPK 081400Z NIL=
METAR SBRG 081400Z NIL=
METAR SBSM 081400Z 09001KT 9999 FEW012 BKN015 12/09 Q1022=
####018000073####
SABZ33 SBBR 081400 RRA
METAR SBYS 081400Z 00000KT CAVOK 23/11 Q1021=
####018001996####
SABZ30 SBBR 081400
METAR SBAA 081400Z 11005KT CAVOK 31/15 Q1016=
METAR SBAM 081400Z 14006KT 9999 FEW025 FEW027TCU 32/25 Q1013=
METAR SBAT 081400Z 13004KT CAVOK 27/18 Q1015=
METAR SBBA 081400Z NIL=
METAR SBBC 081400Z NIL=
METAR SBBE 081400Z 13009KT 9999 FEW017 SCT100 31/22 Q1013=
METAR SBBV 081400Z 18005KT 9999 SCT020 SCT070 29/23 Q1014=
METAR SBCC 081400Z 14008KT CAVOK 30/18 Q1017=
METAR SBCI 081400Z 09004KT CAVOK 36/17 Q1016=
METAR SBCJ 081400Z 07004KT CAVOK 28/17 Q1018=
METAR SBCZ 081400Z 00000KT 9999 FEW020 BKN100 30/25 Q1014=
METAR SBEG 081400Z 00000KT CAVOK 29/22 Q1013=
METAR SBEK 081400Z 12003KT CAVOK 32/26 Q1013=
METAR SBGM 081400Z 06006KT CAVOK 31/21 Q1014=
METAR SBHT 081400Z 10008KT 9999 SCT020 ///// Q1014=
METAR SBIC 081400Z 10004KT 9999 SCT020 31/25 Q1013=
METAR SBIH 081400Z 02008KT 9999 FEW015 31/23 Q1013=
METAR SBIZ 081400Z 09005KT 9999 FEW020 31/22 Q1014=
METAR SBLB 081400Z NIL=
METAR SBMA 081400Z 13006KT CAVOK 32/21 Q1014=
METAR SBMD 081400Z 11005KT 9999 BKN018 28/26 Q1014=
METAR SBMN 081400Z 10005KT 9999 FEW015 30/24 Q1013=
METAR SBMQ 081400Z 07008KT 9999 SCT020 BKN100 31/26 Q1014=
METAR SBMY 081400Z 09004KT CAVOK 29/25 Q1013=
METAR SBMZ 081400Z NIL=
METAR SBOI 081400Z 12005KT 9999 SCT020 FEW025TCU 31/24 Q1014=
METAR SBPV 081400Z 05006KT CAVOK 30/23 Q1013=
METAR SBRB 081400Z 01009KT CAVOK 31/23 Q1014=
METAR SBSL 081400Z 09005KT 9999 SCT017 31/23 Q1013=
METAR SBSN 081400Z 09013KT 9999 BKN020 30/24 Q1013=
METAR SBSY 081400Z NIL=
METAR SBTF 081400Z 12005KT 9999 FEW020 BKN100 31/25 Q1012=
METAR SBTK 081400Z 11002KT 9999 FEW015 29/26 Q1014=
METAR SBTT 081400Z 27002KT 9999 FEW012 29/25 Q1013=
METAR SBTU 081400Z 13005KT 9999 FEW020 SCT100 29/25 Q1016=
METAR SBUA 081400Z 08005KT CAVOK 29/24 Q1013=
METAR SBUI 081400Z NIL=
METAR SBVH 081400Z 04008KT CAVOK 30/16 Q1018=
METAR SBXG 081400Z NIL=
METAR SBXV 081400Z NIL=
METAR SBYA 081400Z 33002KT 9999 FEW018 SCT100 27/24 Q1012=
####018001251####
SABZ31 SBBR 081400
METAR SBAR 081400Z 18008KT 9999 SCT015 28/24 Q1017=
METAR SBCV 081400Z NIL=
METAR SBFN 081400Z 10004KT 9999 SCT017 BKN100 27/24 Q1014=
METAR SBFZ 081400Z 11011KT 9999 FEW020 SCT090 30/20 Q1014=
METAR SBIL 081400Z 13009KT 9999 SCT025 SCT070 28/21 Q1018=
METAR SBJP 081400Z 17009KT 9999 BKN020 BKN070 28/23 Q1015=
METAR SBJU 081400Z NIL=
METAR SBKG 081400Z 15010KT 9999 BKN020 26/20 Q1018=
METAR SBLE 081400Z NIL=
METAR SBLP 081400Z 09006KT 9999 FEW030 28/16 Q1019=
METAR SBMO 081400Z 17004KT 9999 SCT020 27/20 Q1017=
METAR SBMS 081400Z 15007KT 9999 BKN030 35/20 Q1013=
METAR SBNT 081400Z 15007KT 9999 BKN023 BKN100 28/23 Q1015=
METAR SBPB 081400Z 06009KT 9999 FEW020 SCT100 32/22 Q1012=
METAR SBPL 081400Z 15010KT 9999 SCT023 27/18 Q1018=
METAR SBPS 081400Z 24005KT 9999 8000NE VCSH SCT020 BKN100 23/19
Q1019=
METAR SBQV 081400Z 13008KT 9999 BKN015 20/18 Q1023=
METAR SBRF 081400Z 18007KT 9999 FEW020 BKN070 27/22 Q1016=
METAR SBSL 081400Z 09005KT 9999 SCT017 31/23 Q1013=
METAR SBSV 081400Z 22009KT 4000 -RA BR BKN007 SCT017 BKN070 24/21
Q1018=
METAR SBTC 081400Z NIL=
METAR SBTE 081400Z 30003KT 9999 BKN020 30/24 Q1014=
METAR SBUF 081400Z 11005KT 9999 FEW012 SCT018 25/22 Q1018=
####018000091####
SPUS72 KWBC 081421
SPECI
KLIT 081418Z 23007KT 10SM BKN011 BKN150 BKN250 28/24 A3010=
####018000091####
SPUS72 KWBC 081421
SPECI
KLRD 081417Z 03011KT 10SM SCT010 BKN014 BKN044 28/24 A2992=
####018000608####
SABZ35 SBBR 081400
METAR SACO 081400Z  02018KT CAVOK 16/M16 Q1019=
METAR SAEZ 081400Z 33004KT 280V020 CAVOK 12/03 Q1018=
METAR SAME 081400Z 36003KT CAVOK 09/M05 Q1015=
METAR SEQU 081400Z 33001KT 9999 FEW040 SCT300 16/08 Q1028=
METAR SGAS 081400Z 12006KT 9000 BKN010 OVC015 18/15 Q1016=
METAR SKBO 081400Z 03004KT 9999 SCT017 BKN070 15/11 A3035 RERA=
METAR SKCL 081400Z 00000KT 8000 FEW005 SCT020 BKN090 23/20 A3005=
METAR SLLP 081400Z VRB02KT 9999 FEW015 07/M02 Q1038=
METAR SPIM 081400Z 19003KT 7000 FEW011 OVC022 17/13 Q1015 NOSIG=
METAR SUMU 081400Z 27005KT CAVOK 13/05 Q1019 NOSIG=
####018000125####
SAIY40 LIIB 081400 RRA
METAR LIPA 081355Z 22005KT 9999 FEW040 SCT050 26/19 Q1021 RMK SCT VIS
      MIN 9999 A3016 BLU=
####018000091####
SPUS81 KWBC 081421
SPECI
KLIT 081418Z 23007KT 10SM BKN011 BKN150 BKN250 28/24 A3010=
####018000128####
SAUS75 KWBC 081400 RRA
METAR
PADL 081416Z 30007KT 10SM CLR 09/08 A2995=
PAUN 081416Z AUTO 06011KT 10SM CLR 13/04 A3001=
####018000239####
SAEU KAWN 081400 RRW
METAR EDHI 081350Z VRB04KT CAVOK 30/12 Q1018=
METAR LIPA 081355Z 22005KT 9999 FEW040 SCT050 26/19 Q1021 RMK SCT VIS
      MIN 9999 A3016 BLU=
METAR LMML 081415Z 11010KT 070V140 9999 FEW021 28/21 Q1018 NOSIG=
####018000079####
SADL41 EGRR 081350
METAR ETUO 081350Z 27006KT CAVOK 31/09 Q1018 BLU NOSIG=
####018000299####
SAUS20 KNKA 081421
SPECI KBMQ 081420Z AUTO 08007KT 8SM FEW009 BKN026 OVC049 25/22 A3005 
    RMK AO2 RAB1355E04 P0000=
SPECI KLBB 081419Z 04007KT 10SM BKN006 BKN035 OVC110 21/18 A3018 RMK 
    AO2=
SPECI KODO 081419Z AUTO 03010G18KT 10SM FEW007 SCT015 OVC021 22/20 
    A3015 RMK AO2=
####018000079####
SAKW35 OKBK 081430
METAR OKBK 081430Z 34016KT 7000 SKC 47/M05 Q0999 NOSIG=
####018000071####
SAEW KAWN 081400 RRH
METAR EDHI 081350Z VRB04KT CAVOK 30/12 Q1018=
####018000377####
SPUS17 KAWN 081421 RRB
SPECI KFRI 081416Z AUTO 01006KT 10SM OVC010 22/20 A3014 RMK AO2 SLP196=
SPECI KHLR 081415Z AUTO 05006KT 10SM SCT012 BKN042 OVC060 26/ A3003
      RMK AO2 T0261 $=
SPECI KHOP 081416Z AUTO 26005KT 10SM -DZ CLR 31/22 A3009 RMK AO2 DZB1416
      SLP184=
SPECI KHOP 081417Z AUTO 26005KT 10SM CLR 31/22 A3009 RMK AO2 DZB1416E1417
      SLP184=
####018002179####
SAUS90 KWBC 081422
METAR KCVX 081415Z AUTO 23005KT 7SM BKN006 OVC060 22/20 A3002 RMK
     AO2=
METAR KFKS 081415Z AUTO 00000KT 10SM BKN017 22/20 A3000 RMK
     AO2=
METAR KSLH 081415Z AUTO 25003KT 5SM -RA SCT007 OVC012 22/22 A2999
     RMK AO2=
METAR KSJX 081416Z AUTO 00000KT 1 1/2SM BR OVC002 20/19 A3000 RMK
     AO2=
METAR KLDM 081416Z AUTO 24004KT 7SM OVC005 23/22 A3002 RMK AO2=
METAR KGOV 081415Z AUTO 23004KT 4SM RA BKN008 BKN015 OVC027 22/22
     A3004 RMK AO2=
METAR KPZQ 081415Z AUTO 26004KT 5SM -RA SCT015 SCT047 OVC065 22/22
     A3001 RMK AO2=
METAR KHYX 081416Z AUTO 25004KT 10SM BKN070 BKN090 26/21 A3001 RMK
     AO2=
METAR KPHN 081416Z AUTO 21005KT 10SM CLR 30/21 A3001 RMK AO2=
METAR KONZ 081417Z AUTO 19005KT 10SM CLR 29/22 A3002 RMK AO2=
METAR KISQ 081415Z AUTO 01006KT 10SM OVC010 22/19 A2999 RMK
     AO2=
METAR KRMY 081415Z AUTO 13004KT 10SM CLR 27/22 A3003 RMK AO2=
METAR KOSC 081414Z AUTO 00000KT 10SM -DZ SCT021 SCT030 BKN080
     23/22 A3000 RMK AO2=
METAR KTTF 081414Z AUTO 26007KT 10SM SCT075 32/21 A3002 RMK
     AO2=
METAR KAMN 081416Z AUTO 27005KT 7SM CLR 24/22 A3001 RMK AO2=
METAR KMCD 081416Z AUTO 00000KT M1/4SM -RA OVC001 20/17 A3000 RMK
     AO2=
METAR KERY 081416Z AUTO 34005KT 10SM SCT005 21/19 A3000 RMK
     AO2=
METAR KDVP 081417Z AUTO 29007KT 10SM CLR 22/14 A3018 RMK AO2
     T02150137=
METAR KCDD 081411Z AUTO 26003KT 10SM CLR 23/18 A3003 RMK AO2=
METAR KFOZ 081413Z AUTO 24006KT 10SM CLR 21/14 A3006 RMK AO2=
METAR KAQP 081413Z AUTO 26007KT 10SM CLR 21/19 A3011 RMK AO2=
METAR KETH 081414Z AUTO 27006KT 10SM CLR 22/16 A3012 RMK AO2=
METAR KXVG 081416Z AUTO 29004KT 10SM CLR 21/14 A3006 RMK AO2=
METAR KORB 081414Z AUTO 27007KT 10SM CLR 20/13 A3002 RMK AO2=
METAR KMZH 081411Z AUTO 26005KT 10SM CLR 21/15 A3006 RMK AO2=
METAR KBFW 081413Z AUTO 28004KT 10SM CLR 25/15 A3002 RMK AO2=
METAR KVWU 081411Z AUTO 23008KT 10SM CLR 21/16 A3005 RMK AO2=
METAR KOWA 081413Z AUTO 29005KT 10SM CLR 20/17 A3013 RMK AO2=
METAR KCDA 081415Z AUTO 16005KT 7SM CLR 28/21 A3009 RMK AO2=
METAR K3A6 081510Z AUTO 36002KT 12/11 A2990 RMK AO1 SLP145
     T01170110=
####018000231####
SPUS90 KWBC 081422
SPECI KGDP 081420Z AUTO 06021KT 1 1/4SM BR SCT002 OVC006 17/17
     A3027 RMK AO2 PK WND 05026/1417 TSNO=
SPECI KACY 081420Z 10004KT 1 3/4SM +RA BR SCT019 BKN065 24/23
     A3006 RMK AO2 VIS 1V3 P0002=
####018001560####
SASA KAWN 081400 RRH
METAR SBAA 081400Z 11005KT CAVOK 31/15 Q1016=
METAR SBAF 081400Z 08004KT 4000 NSC 28/14 Q1018=
METAR SBAN 081400Z 01008KT 9999 FEW030 25/12 Q1023=
METAR SBAT 081400Z 13004KT CAVOK 27/18 Q1015=
METAR SBBH 081400Z 08002KT CAVOK 22/11 Q1023=
METAR SBBI 081400Z 36003KT CAVOK 22/12 Q1022=
METAR SBBQ 081400Z 29008KT CAVOK 22/04 Q1025=
METAR SBBU 081400Z 04005KT CAVOK 23/10 Q1021=
METAR SBBW 081400Z 06008KT CAVOK 29/12 Q1018=
METAR SBCC 081400Z 14008KT CAVOK 30/18 Q1017=
METAR SBCO 081400Z 19004KT 9999 SCT012 BKN015 15/14 Q1021=
METAR SBDN 081400Z 01010KT CAVOK 26/07 Q1019=
METAR SBEK 081400Z 12003KT CAVOK 32/26 Q1013=
METAR SBGW 081400Z 24006KT CAVOK 20/12 Q1021=
METAR SBHT 081400Z 10008KT 9999 SCT020 ///// Q1014=
METAR SBIH 081400Z 02008KT 9999 FEW015 31/23 Q1013=
METAR SBIL 081400Z 13009KT 9999 SCT025 SCT070 28/21 Q1018=
METAR SBIZ 081400Z 09005KT 9999 FEW020 31/22 Q1014=
METAR SBJF 081400Z 36007KT CAVOK 23/09 Q1023=
METAR SBKG 081400Z 15010KT 9999 BKN020 26/20 Q1018=
METAR SBMS 081400Z 15007KT 9999 BKN030 35/20 Q1013=
METAR SBPC 081400Z 33006KT CAVOK 20/04 Q1024=
METAR SBPN 081400Z 07004KT CAVOK 31/14 Q1016=
METAR SBSC 081400Z 01010KT CAVOK 26/14 Q1018=
METAR SBSM 081400Z 09001KT 9999 FEW012 BKN015 12/09 Q1022=
METAR SBTK 081400Z 11002KT 9999 FEW015 29/26 Q1014=
METAR SBTU 081400Z 13005KT 9999 FEW020 SCT100 29/25 Q1016=
METAR SBUR 081400Z 03009KT CAVOK 25/07 Q1021=
METAR SBVH 081400Z 04008KT CAVOK 30/16 Q1018=
METAR SBYS 081400Z 00000KT CAVOK 23/11 Q1021=
####018002876####
SAUS20 KNKA 081421
SPECI KAMA 081420Z 02010KT 10SM BKN009 OVC022 18/17 A3022 RMK AO2 
    CIG 006V015=
SPECI KAUW 081420Z AUTO 32004KT 10SM BKN015 23/18 A3004 RMK AO2=
METAR KAWG 081415Z AUTO 36006KT 10SM CLR 25/20 A3008 RMK AO2=
METAR KAXA 081415Z AUTO 36006KT 10SM CLR 22/16 A3015 RMK AO2=
SPECI KAZO 081420Z 00000KT 3SM -RA BR FEW018 BKN029 OVC085 24/22 
    A3004 RMK AO2 RAB1359 P0002=
METAR KBNW 081415Z AUTO 34010KT 10SM CLR 23/19 A3014 RMK AO2=
METAR KCAV 081415Z AUTO 36008KT 10SM CLR 23/17 A3014 RMK AO2=
METAR KCBF 081415Z AUTO 02010KT 10SM CLR 22/16 A3016 RMK AO2=
METAR KCCY 081415Z AUTO 33015G19KT 10SM CLR 23/18 A3012 RMK AO2=
METAR KCIN 081415Z AUTO 01006KT 10SM CLR 21/16 A3017 RMK AO2=
METAR KCNC 081415Z AUTO 36009KT 10SM CLR 23/20 A3011 RMK AO2=
METAR KCSQ 081415Z AUTO 02011KT 10SM CLR 23/20 A3014 RMK AO2=
METAR KDEH 081415Z AUTO 36007KT 10SM CLR 23/17 A3012 RMK AO2=
SPECI KDGW 081420Z AUTO 00000KT 10SM FEW001 09/08 A3035 RMK AO2 $=
METAR KDNS 081415Z AUTO 01005KT 10SM CLR 22/17 A3019 RMK AO2=
METAR KEOK 081415Z AUTO 00000KT 10SM SCT009 25/21 A3007 RMK AO2=
METAR KFFL 081415Z AUTO 36004KT 10SM CLR 24/22 A3009 RMK AO2=
SPECI KFST 081420Z AUTO 36006KT 7SM -RA SCT004 BKN015 OVC050 22/21 
    A3012 RMK AO2 P0000=
METAR KFSW 081415Z AUTO 36005KT 7SM BKN006 25/21 A3007 RMK AO2=
METAR KFXY 081415Z AUTO 33010KT 10SM CLR 21/16 A3014 RMK AO2=
METAR KGGI 081415Z AUTO 35008KT 10SM SCT010 23/20 A3011 RMK AO2=
METAR KHNR 081415Z AUTO 02005KT 10SM CLR 20/16 A3019 RMK AO2=
METAR KI75 081415Z AUTO 35007KT 10SM SCT008 21/19 A3011 RMK AO2=
METAR KICL 081415Z AUTO 03006KT 10SM CLR 23/17 A3013 RMK AO2=
METAR KIFA 081415Z AUTO 35007KT 10SM SCT100 SCT120 23/20 A3013 
     RMK AO2=
METAR KIIB 081415Z AUTO 35007KT 10SM CLR 23/19 A3009 RMK AO1=
METAR KIKV 081415Z AUTO 36009KT 10SM CLR 23/20 A3012 RMK AO2=
SPECI KJEF 081420Z 00000KT 10SM BKN006 OVC014 24/23 A3007 RMK AO2=
METAR KLRJ 081415Z AUTO 00000KT 10SM CLR 22/16 A3018 RMK AO2=
METAR KMPZ 081415Z AUTO 03004KT 10SM CLR 23/20 A3007 RMK AO2=
METAR KMUT 081415Z AUTO 32004KT 10SM CLR 25/22 A3006 RMK AO2=
METAR KMXO 081415Z AUTO 33009KT 10SM SCT009 SCT015 22/21 A3006 
     RMK AO2=
METAR KO22 081415Z AUTO 00000KT 10SM CLR 19/13 A2992 RMK AO1 =
METAR KORC 081415Z AUTO 33004KT 10SM CLR 22/18 A3018 RMK AO2=
METAR KOXV 081415Z AUTO 34007KT 10SM CLR 23/21 A3011 RMK AO2=
METAR KPEA 081415Z AUTO 35007KT 10SM SCT010 23/20 A3011 RMK AO2=
METAR KRDK 081415Z AUTO 02003KT 10SM CLR 24/19 A3014 RMK AO2=
METAR KSDA 081415Z AUTO 02009KT 10SM CLR 23/18 A3015 RMK AO2=
METAR KSHL 081415Z AUTO 33004KT 10SM CLR 22/17 A3019 RMK AO2=
METAR KTNU 081415Z AUTO 36008KT 10SM SCT012 24/21 A3011 RMK AO2=
METAR KVTI 081415Z AUTO 33008KT 10SM SCT009 25/20 A3010 RMK AO2=
SPECI KXNA 081420Z 19004KT 10SM OVC013 24/22 A3010 RMK AO2=
####018000109####
SAAK41 KNKA 081421
SPECI PAKF 081419Z AUTO 11006KT 10SM FEW010 SCT018 OVC040 08/07 
    A2987 RMK AO2=
####018000135####
SAUS44 KMAF 081421
MTRGDP
SPECI KGDP 081420Z AUTO 06021KT 1 1/4SM BR SCT002 OVC006 17/17 A3027 
RMK AO2 PK WND 05026/1417 TSNO
####018000125####
SAUS41 KPHI 081421
MTRACY
SPECI KACY 081420Z 10004KT 1 3/4SM +RA BR SCT019 BKN065 24/23 A3006 
RMK AO2 VIS 1V3 P0002
####018000078####
SANI20 DNMM 081400
METAR DNIL 081400Z 18007KT 9999 BKN012 30/22 Q1011=

####018002116####
SAUS99 KWBC 081422
METAR
KAWG 081415Z AUTO 36006KT 10SM CLR 25/20 A3008 RMK AO2=
KAXA 081415Z AUTO 36006KT 10SM CLR 22/16 A3015 RMK AO2=
KBNW 081415Z AUTO 34010KT 10SM CLR 23/19 A3014 RMK AO2=
KCAV 081415Z AUTO 36008KT 10SM CLR 23/17 A3014 RMK AO2=
KCBF 081415Z AUTO 02010KT 10SM CLR 22/16 A3016 RMK AO2=
KCCY 081415Z AUTO 33015G19KT 10SM CLR 23/18 A3012 RMK AO2=
KCIN 081415Z AUTO 01006KT 10SM CLR 21/16 A3017 RMK AO2=
KCNC 081415Z AUTO 36009KT 10SM CLR 23/20 A3011 RMK AO2=
KCSQ 081415Z AUTO 02011KT 10SM CLR 23/20 A3014 RMK AO2=
KDEH 081415Z AUTO 36007KT 10SM CLR 23/17 A3012 RMK AO2=
KDNS 081415Z AUTO 01005KT 10SM CLR 22/17 A3019 RMK AO2=
KEOK 081415Z AUTO 00000KT 10SM SCT009 25/21 A3007 RMK AO2=
KFFL 081415Z AUTO 36004KT 10SM CLR 24/22 A3009 RMK AO2=
KFSW 081415Z AUTO 36005KT 7SM BKN006 25/21 A3007 RMK AO2=
KFXY 081415Z AUTO 33010KT 10SM CLR 21/16 A3014 RMK AO2=
KGGI 081415Z AUTO 35008KT 10SM SCT010 23/20 A3011 RMK AO2=
KHNR 081415Z AUTO 02005KT 10SM CLR 20/16 A3019 RMK AO2=
KI75 081415Z AUTO 35007KT 10SM SCT008 21/19 A3011 RMK AO2=
KICL 081415Z AUTO 03006KT 10SM CLR 23/17 A3013 RMK AO2=
KIFA 081415Z AUTO 35007KT 10SM SCT100 SCT120 23/20 A3013 RMK
     AO2=
KIIB 081415Z AUTO 35007KT 10SM CLR 23/19 A3009 RMK AO1=
KIKV 081415Z AUTO 36009KT 10SM CLR 23/20 A3012 RMK AO2=
KLRJ 081415Z AUTO 00000KT 10SM CLR 22/16 A3018 RMK AO2=
KMPZ 081415Z AUTO 03004KT 10SM CLR 23/20 A3007 RMK AO2=
KMUT 081415Z AUTO 32004KT 10SM CLR 25/22 A3006 RMK AO2=
KMXO 081415Z AUTO 33009KT 10SM SCT009 SCT015 22/21 A3006 RMK
     AO2=
KO22 081415Z AUTO 00000KT 10SM CLR 19/13 A2992 RMK AO1=
KORC 081415Z AUTO 33004KT 10SM CLR 22/18 A3018 RMK AO2=
KOXV 081415Z AUTO 34007KT 10SM CLR 23/21 A3011 RMK AO2=
KPEA 081415Z AUTO 35007KT 10SM SCT010 23/20 A3011 RMK AO2=
KRDK 081415Z AUTO 02003KT 10SM CLR 24/19 A3014 RMK AO2=
KSDA 081415Z AUTO 02009KT 10SM CLR 23/18 A3015 RMK AO2=
KSHL 081415Z AUTO 33004KT 10SM CLR 22/17 A3019 RMK AO2=
KTNU 081415Z AUTO 36008KT 10SM SCT012 24/21 A3011 RMK AO2=
KVTI 081415Z AUTO 33008KT 10SM SCT009 25/20 A3010 RMK AO2=
####018000884####
SPUS99 KWBC 081422
SPECI
KBMQ 081420Z AUTO 08007KT 8SM FEW009 BKN026 OVC049 25/22 A3005 RMK
     AO2 RAB1355E04 P0000=
KLBB 081419Z 04007KT 10SM BKN006 BKN035 OVC110 21/18 A3018 RMK
     AO2=
KODO 081419Z AUTO 03010G18KT 10SM FEW007 SCT015 OVC021 22/20 A3015
     RMK AO2=
KAMA 081420Z 02010KT 10SM BKN009 OVC022 18/17 A3022 RMK AO2 CIG
     006V015=
KAUW 081420Z AUTO 32004KT 10SM BKN015 23/18 A3004 RMK AO2=
KAZO 081420Z 00000KT 3SM -RA BR FEW018 BKN029 OVC085 24/22 A3004
     RMK AO2 RAB1359 P0002=
KDGW 081420Z AUTO 00000KT 10SM FEW001 09/08 A3035 RMK AO2 $=
KFST 081420Z AUTO 36006KT 7SM -RA SCT004 BKN015 OVC050 22/21 A3012
     RMK AO2 P0000=
KJEF 081420Z 00000KT 10SM BKN006 OVC014 24/23 A3007 RMK AO2=
KXNA 081420Z 19004KT 10SM OVC013 24/22 A3010 RMK AO2=
PAKF 081419Z AUTO 11006KT 10SM FEW010 SCT018 OVC040 08/07 A2987
     RMK AO2=
####018003730####
SAUS70 KWBC 081422
METAR
KBWD 081415Z AUTO 11007KT 9SM FEW010 BKN022 OVC055 25/23 A3006 RMK
     AO2=
KHYW 081415Z AUTO 36004KT 5SM HZ CLR 31/25 A2994 RMK AO2=
KJZI 081415Z AUTO 30010KT 10SM CLR 32/22 A2996 RMK A02 P000=
KSPF 081415Z AUTO 00000KT 10SM CLR 18/11 A3030 RMK AO2=
KFMH 081415Z AUTO 15011G15KT 10SM OVC017 25/21 A3011 RMK AO2=
KSTE 081415Z AUTO 30005KT 10SM BKN013 OVC017 23/19 A3005 RMK
     AO2=
KSUW 081415Z AUTO 23005KT 10SM CLR 23/17 A3003 RMK AO2=
KUKT 081410Z AUTO 16004KT 9SM CLR 29/21 A3006 RMK AO1=
KUNU 081412Z AUTO 28006KT 10SM SCT014 24/20 A3004 RMK AO2
     T02390195=
KVLL 081414Z AUTO 24006KT 10SM CLR 31/18 A3005 RMK AO2=
KY70 081415Z AUTO 00000KT 10SM SCT011 OVC100 26/22 A3001 RMK AO2
     T02600220=
K4I3 081416Z AUTO 27004KT 10SM CLR 29/21 A3009 RMK AO2=
KACB 081415Z AUTO 00000KT 7SM -RA BKN009 OVC015 23/22 A3000 RMK
     AO2=
KACQ 081419Z AUTO 30004KT 10SM CLR 21/17 A3016 RMK AO2=
KADC 081417Z AUTO 23004KT 10SM CLR 19/15 A3010 RMK AO2=
KAUM 081415Z AUTO 34008KT 10SM CLR 21/16 A3012 RMK AO2=
KBAX 081415Z AUTO 29006KT 10SM CLR 27/23 A3000 RMK AO2=
KBDH 081415Z AUTO 27005KT 10SM CLR 21/16 A3013 RMK AO2=
KCAD 081414Z AUTO 26003KT 7SM -RA SCT006 BKN014 OVC019 22/21 A3004
     RMK AO2=
KCBG 081415Z AUTO 28005KT 10SM CLR 23/18 A3010 RMK AO2=
KCFE 081415Z AUTO 25004KT 10SM CLR 23/17 A3012 RMK AO2
     T02250168=
KCFS 081415Z AUTO 28005KT 10SM CLR 28/21 A3002 RMK AO2=
KCKC 081415Z AUTO 26004KT 10SM CLR 21/13 A3004 RMK AO2=
KCKN 081415Z AUTO 31006KT 10SM CLR 20/14 A3007 RMK AO2=
KCNB 081417Z AUTO 25007KT 10SM CLR 23/15 A3014 RMK AO2
     T02320145=
KCOQ 081416Z AUTO 27006KT 10SM CLR 21/18 A3007 RMK AO2=
KCQM 081417Z AUTO 26004KT 10SM CLR 20/14 A3005 RMK AO2=
KDRM 081416Z AUTO 25006KT 3SM -RA OVC004 21/20 A2998 RMK AO2=
KDTL 081415Z AUTO 28005KT 10SM CLR 21/10 A3011 RMK AO2=
KDUH 081414Z AUTO 27005KT 10SM CLR 32/20 A3003 RMK AO2=
KFFX 081415Z AUTO 22003KT 5SM RA BKN012 OVC026 23/22 A3002 RMK
     AO2=
KFKA 081423Z AUTO 33008KT 10SM BKN015 21/18 A3012 RMK AO2
     T02110175=
KFPK 081416Z AUTO 00000KT 10SM CLR 27/21 A3002 RMK AO2=
KFSE 081414Z AUTO 24006KT 10SM CLR 19/14 A3007 RMK AO2=
KHAF 081410Z AUTO 00000KT 7SM OVC006 12/10 A2996 RMK AO2=
KHAI 081415Z AUTO 00000KT 7SM -RA SCT029 BKN060 OVC080 25/22 A3004
     RMK AO2=
KIRS 081415Z AUTO 25003KT 7SM -RA SCT050 SCT060 26/22 A3004 RMK
     AO2=
KJYG 081415Z AUTO 31004KT 10SM CLR 22/20 A3016 RMK AO2=
KJYM 081415Z AUTO 17004KT 10SM CLR 28/21 A3005 RMK AO2=
KLWA 081416Z AUTO 00000KT 10SM OVC030 24/21 A3003 RMK AO2=
KMGN 081415Z AUTO 00000KT 2SM -DZ OVC006 21/20 A3000 RMK AO2=
KMOP 081415Z AUTO 27005KT 10SM SCT060 SCT090 BKN110 23/23 A3002
     RMK AO2=
KOEB 081415Z AUTO 15004KT 10SM CLR 28/23 A3003 RMK AO2=
KOZW 081415Z AUTO 00000KT 10SM CLR 28/20 A3003 RMK AO2=
KRGK 081415Z AUTO 32004KT 10SM CLR 23/17 A3009 RMK AO2=
KRNP 081415Z AUTO 23003KT 10SM CLR 28/21 A3002 RMK AO2=
KRQB 081415Z AUTO 00000KT 7SM -RA SCT005 BKN030 OVC044 23/22 A3003
     RMK AO2=
KAWG 081415Z AUTO 36006KT 10SM CLR 25/20 A3008 RMK AO2=
KAXA 081415Z AUTO 36006KT 10SM CLR 22/16 A3015 RMK AO2=
KBNW 081415Z AUTO 34010KT 10SM CLR 23/19 A3014 RMK AO2=
KCAV 081415Z AUTO 36008KT 10SM CLR 23/17 A3014 RMK AO2=
KCBF 081415Z AUTO 02010KT 10SM CLR 22/16 A3016 RMK AO2=
KCCY 081415Z AUTO 33015G19KT 10SM CLR 23/18 A3012 RMK AO2=
KCIN 081415Z AUTO 01006KT 10SM CLR 21/16 A3017 RMK AO2=
KCNC 081415Z AUTO 36009KT 10SM CLR 23/20 A3011 RMK AO2=
KCSQ 081415Z AUTO 02011KT 10SM CLR 23/20 A3014 RMK AO2=
KDEH 081415Z AUTO 36007KT 10SM CLR 23/17 A3012 RMK AO2=
KDNS 081415Z AUTO 01005KT 10SM CLR 22/17 A3019 RMK AO2=
####018000359####
SPUS80 KWBC 081422
SPECI
KLAX 081417Z 25007KT 7SM OVC009 16/13 A2993 RMK AO2=
KLBB 081419Z 04007KT 10SM BKN006 BKN035 OVC110 21/18 A3018 RMK
     AO2=
KGDP 081420Z AUTO 06021KT 1 1/4SM BR SCT002 OVC006 17/17 A3027 RMK
     AO2 PK WND 05026/1417 TSNO=
KACY 081420Z 10004KT 1 3/4SM +RA BR SCT019 BKN065 24/23 A3006 RMK
     AO2 VIS 1V3 P0002=
####018000231####
SAUS80 KWBC 081422
METAR
K3A6 081510Z AUTO 36002KT 12/11 A2990 RMK AO1 SLP145 T01170110=
KTKV 081415Z AUTO 35005KT 10SM CLR 21/16 A3007 RMK AO2
     T02100159=
KVTI 081415Z AUTO 33008KT 10SM SCT009 25/20 A3010 RMK AO2=
####018000193####
SAAF11 LFPW 081400 RRB
METAR FKKN 081400Z 28006KT 9999 SCT020TCU FEW030CB BKN110 BKN300
      24/18 Q1016=
METAR FKKR 081400Z 28004KT 9999 SCT020 FEW026CB BKN130 28/23 Q1011
      NOSIG=
####018001131####
SPUS70 KWBC 081422
SPECI
KBRL 081418Z AUTO 7SM BKN007 24/22 A3007 RMK AO2 CIG 004V009=
KVSF 081418Z AUTO VRB05KT 6SM HZ OVC016 26/22 A3009 RMK AO2=
KASH 081419Z VRB03KT 10SM SCT022 SCT047 28/22 A3008 RMK AO2=
KDXR 081419Z 00000KT 3SM BR FEW007 BKN011 OVC034 26/24 A3008 RMK
     AO2 RAE16 P0001=
KJCT 081416Z AUTO 03003KT 10SM SCT010 BKN024 26/22 A3005 RMK AO2
     TSNO=
KRYY 081416Z 33006KT 10SM SKC 31/21 A3007=
KBMQ 081420Z AUTO 08007KT 8SM FEW009 BKN026 OVC049 25/22 A3005 RMK
     AO2 RAB1355E04 P0000=
KODO 081419Z AUTO 03010G18KT 10SM FEW007 SCT015 OVC021 22/20 A3015
     RMK AO2=
KAMA 081420Z 02010KT 10SM BKN009 OVC022 18/17 A3022 RMK AO2 CIG
     006V015=
KAUW 081420Z AUTO 32004KT 10SM BKN015 23/18 A3004 RMK AO2=
KAZO 081420Z 00000KT 3SM -RA BR FEW018 BKN029 OVC085 24/22 A3004
     RMK AO2 RAB1359 P0002=
KDGW 081420Z AUTO 00000KT 10SM FEW001 09/08 A3035 RMK AO2 $=
KFST 081420Z AUTO 36006KT 7SM -RA SCT004 BKN015 OVC050 22/21 A3012
     RMK AO2 P0000=
KJEF 081420Z 00000KT 10SM BKN006 OVC014 24/23 A3007 RMK AO2=
KXNA 081420Z 19004KT 10SM OVC013 24/22 A3010 RMK AO2=
####018000440####
SPXX60 KWBC 081422
SPECI
KFRI 081416Z AUTO 01006KT 10SM OVC010 22/20 A3014 RMK AO2
     SLP196=
KHLR 081415Z AUTO 05006KT 10SM SCT012 BKN042 OVC060 26/ A3003 RMK
     AO2 T0261 $=
KHOP 081416Z AUTO 26005KT 10SM -DZ CLR 31/22 A3009 RMK AO2 DZB1416
     SLP184=
KSZL 081415Z 02005KT 10SM SCT009 BKN014 BKN065 25/23 A3008=
PASV SP 1415 AWOS CLR BLO 120 10 49/44/2904/994=
PATL SP 1415 AWOS CLR BLO 120 10 57/45/0305/000=
####018000252####
SAAF32 KWBC 081400 RRD
METAR
FGBT 081400Z 26008KT 8000 SCT013 BKN130 28/25 Q1011 NOSIG=
FKKN 081400Z 28006KT 9999 SCT020TCU FEW030CB BKN110 BKN300 24/18
     Q1016=
FKKR 081400Z 28004KT 9999 SCT020 FEW026CB BKN130 28/23 Q1011
     NOSIG=
####018000081####
SAAF31 KWBC 081400 RRC
METAR
DNIL 081400Z 18007KT 9999 BKN012 30/22 Q1011=
####018000096####
SAAF34 KWBC 081400 RRB
METAR
FEFF 081400Z 22006KT 9999 SCT030 FEW040CB 31/21 Q1012 NOSIG=
####018001357####
SAUS70 KWBC 081422 RRA
METAR
KEOK 081415Z AUTO 00000KT 10SM SCT009 25/21 A3007 RMK AO2=
KFFL 081415Z AUTO 36004KT 10SM CLR 24/22 A3009 RMK AO2=
KFSW 081415Z AUTO 36005KT 7SM BKN006 25/21 A3007 RMK AO2=
KFXY 081415Z AUTO 33010KT 10SM CLR 21/16 A3014 RMK AO2=
KGGI 081415Z AUTO 35008KT 10SM SCT010 23/20 A3011 RMK AO2=
KHNR 081415Z AUTO 02005KT 10SM CLR 20/16 A3019 RMK AO2=
KICL 081415Z AUTO 03006KT 10SM CLR 23/17 A3013 RMK AO2=
KIFA 081415Z AUTO 35007KT 10SM SCT100 SCT120 23/20 A3013 RMK
     AO2=
KIIB 081415Z AUTO 35007KT 10SM CLR 23/19 A3009 RMK AO1=
KIKV 081415Z AUTO 36009KT 10SM CLR 23/20 A3012 RMK AO2=
KLRJ 081415Z AUTO 00000KT 10SM CLR 22/16 A3018 RMK AO2=
KMPZ 081415Z AUTO 03004KT 10SM CLR 23/20 A3007 RMK AO2=
KMUT 081415Z AUTO 32004KT 10SM CLR 25/22 A3006 RMK AO2=
KMXO 081415Z AUTO 33009KT 10SM SCT009 SCT015 22/21 A3006 RMK
     AO2=
KO22 081415Z AUTO 00000KT 10SM CLR 19/13 A2992 RMK AO1=
KORC 081415Z AUTO 33004KT 10SM CLR 22/18 A3018 RMK AO2=
KOXV 081415Z AUTO 34007KT 10SM CLR 23/21 A3011 RMK AO2=
KPEA 081415Z AUTO 35007KT 10SM SCT010 23/20 A3011 RMK AO2=
KRDK 081415Z AUTO 02003KT 10SM CLR 24/19 A3014 RMK AO2=
KSDA 081415Z AUTO 02009KT 10SM CLR 23/18 A3015 RMK AO2=
KSHL 081415Z AUTO 33004KT 10SM CLR 22/17 A3019 RMK AO2=
KTNU 081415Z AUTO 36008KT 10SM SCT012 24/21 A3011 RMK AO2=
####018000081####
SAAF36 KWBC 081400 RRB
METAR
HEMA 081400Z 01021KT CAVOK 35/16 Q1005 NOSIG=
####018000470####
SAAF35 KWBC 081400 RRC
METAR
HEAX 081400Z 32013KT 9999 FEW020 2922 Q1010 NOSIG=
HEBA 081400Z 32015KT CAVOK 28/20 Q1011 NOSIG=
HEBL 081400Z 02011KT CAVOK 40/08 Q1008 NOSIG=
HEGN 081400Z 36022KT CAVOK 38/09 Q1005 NOSIG=
HELX 081400Z 31010KT CAVOK 40/10 Q1006 NOSIG=
HEMM 081400Z 32012KT CAVOK 28/21 Q1012 NOSIG=
HEPS 081400Z 34013KT CAVOK 29/23 Q1010 NOSIG=
HESC 081400Z 07009KT CAVOK 34/09 Q1017 NOSIG=
HESN 081400Z 35010KT CAVOK 40/08 Q1007 NOSIG=
####018000086####
SAAL31 KWBC 081400 RRC
METAR
DAAT 081400Z 12010G20KT 060V200 CAVOK 35/02 Q1021=
####018000109####
SPCA33 KWBC 081422
SPECI
TTPP 081415Z 00000KT 2000 TSRA FEW004 ST010CB BKN035 26/25 Q1013
CB SE,ENE=
####018000541####
SABZ42 KWBC 081400 RRA
METAR
SBJR 081400Z 02005KT CAVOK 29/15 Q1018=
SBME 081400Z 04010KT CAVOK 29/18 Q1018=
SBMT 081400Z 02003KT CAVOK 24/08 Q1022=
SBPC 081400Z 33006KT CAVOK 20/04 Q1024=
SBPK 081400Z NIL=
SBSC 081400Z 01010KT CAVOK 26/14 Q1018=
SBSM 081400Z 09001KT 9999 FEW012 BKN015 12/09 Q1022=
SBST 081400Z 36007KT CAVOK 29/07 Q1017=
SBTU 081400Z 13005KT 9999 FEW020 SCT100 29/25 Q1016=
SBUR 081400Z 03009KT CAVOK 25/07 Q1021=
SBVH 081400Z 04008KT CAVOK 30/16 Q1018=
SBYS 081400Z 00000KT CAVOK 23/11 Q1021=
####018000576####
SABZ41 KWBC 081400 RRB
METAR
SBAA 081400Z 11005KT CAVOK 31/15 Q1016=
SBAF 081400Z 08004KT 4000 NSC 28/14 Q1018=
SBBG 081400Z NIL=
SBBH 081400Z 08002KT CAVOK 22/11 Q1023=
SBBI 081400Z 36003KT CAVOK 22/12 Q1022=
SBBU 081400Z 04005KT CAVOK 23/10 Q1021=
SBCO 081400Z 19004KT 9999 SCT012 BKN015 15/14 Q1021=
SBCV 081400Z NIL=
SBDN 081400Z 01010KT CAVOK 26/07 Q1019=
SBGW 081400Z 24006KT CAVOK 20/12 Q1021=
SBHT 081400Z 10008KT 9999 SCT020 ///// Q1014=
SBIH 081400Z 02008KT 9999 FEW015 31/23 Q1013=
SBIL 081400Z 13009KT 9999 SCT025 SCT070 28/21 Q1018=
####018000950####
SABZ43 KWBC 081400 RRA
METAR
SBAN 081400Z 01008KT 9999 FEW030 25/12 Q1023=
SBAT 081400Z 13004KT CAVOK 27/18 Q1015=
SBBA 081400Z NIL=
SBBQ 081400Z 29008KT CAVOK 22/04 Q1025=
SBBW 081400Z 06008KT CAVOK 29/12 Q1018=
SBCC 081400Z 14008KT CAVOK 30/18 Q1017=
SBES 081400Z 08007KT CAVOK 27/16 Q1018=
SBGA 081400Z NIL=
SBIZ 081400Z 09005KT 9999 FEW020 31/22 Q1014=
SBJF 081400Z 36007KT CAVOK 23/09 Q1023=
SBKG 081400Z 15010KT 9999 BKN020 26/20 Q1018=
SBLB 081400Z NIL=
SBLP 081400Z 09006KT 9999 FEW030 28/16 Q1019=
SBMK 081400Z 10006KT 9999 FEW035 24/13 Q1022=
SBMS 081400Z 15007KT 9999 BKN030 35/20 Q1013=
SBMZ 081400Z NIL=
SBPJ 081400Z 10010KT CAVOK 31/12 Q1016=
SBPN 081400Z 07004KT CAVOK 31/14 Q1016=
SBQV 081400Z 13008KT 9999 BKN015 20/18 Q1023=
SBTK 081400Z 11002KT 9999 FEW015 29/26 Q1014=
SBUF 081400Z 11005KT 9999 FEW012 SCT018 25/22 Q1018=
SBUI 081400Z NIL=
SBUL 081400Z 02010KT CAVOK 24/08 Q1022=
####018000126####
SAIY42 KWBC 081350 RRB
METAR
LIPA 081355Z 22005KT 9999 FEW040 SCT050 26/19 Q1021 RMK SCT VIS
     MIN 9999 A3016 BLU=
####018000095####
SAMM31 KWBC 081400 RRB
METAR
LMML 081415Z 11010KT 070V140 9999 FEW021 28/21 Q1018 NOSIG=
####018000125####
SAPA31 KWBC 081400 RRC
METAR
PKWA 081420Z AUTO 09005KT 10SM BKN023 BKN031 BKN080 26/24 A2982
     RMK AO2 T02590237=
####018000082####
SARA31 KWBC 081400 RRE
METAR
UAFM 081400Z 24005MPS CAVOK 30/07 Q1012 NOSIG=
####018000149####
SASA31 KWBC 081400 RRD
METAR
SEQU 081400Z 33001KT 9999 FEW040 SCT300 16/08 Q1028=
SPIM 081400Z 19003KT 7000 FEW011 OVC022 17/13 Q1015 NOSIG=
####018000125####
SAXX62 KWBC 081400 RRB
METAR
PKWA 081420Z AUTO 09005KT 10SM BKN023 BKN031 BKN080 26/24 A2982
     RMK AO2 T02590237=
####018000237####
SAXX99 KWBC 081400 RRQ
METAR
ETUO 081350Z 27006KT CAVOK 31/09 Q1018 BLU NOSIG=
EYKA 081420Z 29006KT 240V340 9999 OVC028 17/14 Q1016=
HESH 081400Z 02012KT CAVOK 38/11 Q1004 NOSIG=
HETB 081400Z 33012KT CAVOK 33/09 Q1012 NOSIG=
####018000091####
SAAF27 LFPW 081400 RRC
METAR FGBT 081400Z 26008KT 8000 SCT013 BKN130 28/25 Q1011 NOSIG=
####018000100####
SAAF14 LFPW 081400 RRB
METAR FEFF 081400Z 22006KT 9999 SCT030 FEW040CB 31/21 Q1012
      NOSIG=
####018000078####
SAAF17 LFPW 081400 RRB
METAR HETB 081400Z 33012KT CAVOK 33/09 Q1012 NOSIG=
####018000124####
SAMP31 LMMM 081430
METAR HLLT NIL=
METAR HLLB NIL=
METAR LMML 081415Z 11010KT 070V140 9999 FEW021 28/21 Q1018 NOSIG =
####018000124####
SAIY40 LIIB 081400 RRA
METAR LIPA 081355Z 22005KT 9999 FEW040 SCT050 26/19 Q1021 RMK SCT VIS
      MIN 9999 A3016 BLU=
####018000139####
SAUS44 KEWX 081421
MTRATT
SPECI KATT 081420Z AUTO 08004KT 1 3/4SM RA BR FEW007 BKN010 OVC015 
25/24 A3000 RMK AO2 RAE1357B14 P0002
####018000094####
SPUS51 KWBC 081422
SPECI
KACY 081420Z 10004KT 1 3/4SM +RA BR SCT019 BKN065 24/23 A3006=
####018000095####
SPUS52 KWBC 081422
SPECI
KGDP 081420Z AUTO 06021KT 1 1/4SM BR SCT002 OVC006 17/17 A3027=
####018000073####
SPUS53 KWBC 081422
SPECI
KBRL 081418Z AUTO 7SM BKN007 24/22 A3007=
####018000084####
SAAL31 DAAA 081400 RRA
METAR DAAT 081400Z 12010G20KT 060V200 CAVOK 35/02 Q1021=
####018000175####
SASB31 VCCC 081410
VCBI 081410Z 09007KT 9000 -TSRA FEW011 SCT016 SCT018CB 25/24 
    Q1010 NOSIG=
VRMM 081400Z 35009KT 9999 FEW018TCU SCT024 BKN120 28/25 Q1010 NOSIG=
####018000098####
SAEU31 BKPR 081430
METAR BKPR 081430Z 34009KT 9999 SCT030 BKN060 17/11 Q1022 NOSIG RMK
BLU=
####018000083####
SACN89 CWAO 081100 RRG
WDE SA 1100 AUTO7 M M M 162/18/17/MMMM/M/ 1002 94MM=

####018000103####
SACN98 CWAO 081300 RRH
XRL SA 1300 AUTO8 M M M M/13/12/2204/M/0010 PCPN 1.0MM PAST HR M
38MM=

####018000078####
SACN96 CWAO 081400 RRC
XFV SA 1400 AUTO8 M M M M/18/15/3102/M/ M 91MM=

####018000193####
SACN97 CWAO 081400 RRC
XDE SA 1400 AUTO8 M M M 152/11/11/MMMM/M/M 3007 30MM=
XMM SA 1400 AUTO8 M M M M/15/11/MMMM/M/ M 47MM=
XQA SA 1400 AUTO8 M M M 137/06/06/MMMM/M/0003 2010 10MM=

####018000078####
SACN59 CWAO 081400 RRC
XSC SA 1400 AUTO8 M M M M/17/13/2703/M/ M 28MM=

####018000083####
SACN78 CWAO 081400 RRC
TZR SA 1400 AUTO8 M M M 155/30/22/2105/M/ 7005 00MM=

####018000083####
SACN78 CWAO 081100 RRG
TZR SA 1100 AUTO8 M M M 161/23/19/1803/M/ 5000 14MM=

####018000188####
SACN95 CWAO 081400 RRC
WWN SA 1400 AUTO8 M M M 076/21/14/1609/M/ 8017 79MM=
WWP SA 1400 AUTO8 M M M 193/15/10/2704/M/ 1011 58MM=
WXC SA 1400 AUTO8 M M M M/28/20/2203/M/ M 74MM=

####018000083####
SACN78 CWAO 080800 RRE
TZR SA 0800 AUTO8 M M M 161/23/19/1702/M/ 6005 03MM=

####018000083####
SACN78 CWAO 081000 RRH
TZR SA 1000 AUTO8 M M M 160/22/19/1802/M/ 5001 30MM=

####018000500####
SACN98 CWAO 081400 RRC
XAF SA 1400 AUTO8 M M M M/17/13/2006/M/ M 39MM=
XBR SA 1400 AUTO8 M M M M/14/11/2203/M/ M 09MM=
XDP SA 1400 AUTO8 M M M M/15/12/3308/M/ PK WND 3319 1355Z M 83MM=
XFR SA 1400 AUTO8 M M M M/16/12/2805/M/ M 21MM=
XHR SA 1400 AUTO8 M M M M/17/12/2306/M/ M 16MM=
XKM SA 1400 AUTO8 M M M M/14/12/2203/M/ M 45MM=
XOY SA 1400 AUTO8 M M M M/15/11/2306/M/ M 06MM=
XPA SA 1400 AUTO8 M M M M/14/11/3004/M/ M 94MM=
XRL SA 1400 AUTO8 M M M M/16/13/2606/M/0010 M 88MM=

####018000082####
SACN90 CWAO 081200 RRG
WEE SA 1200 AUTO7 M M M 147/19/M/MMMM/M/ 8002 4MMM=

####018000135####
SACN88 CWAO 081400 RRC
AHW SA 1400 AUTO7 M M M M/21/18/2406/M/M M 22MM=
WDO SA 1400 AUTO8 M M M 188/15/13/2006/M/M 8016 45MM=

####018000083####
SACN78 CWAO 080600 RRF
TZR SA 0600 AUTO8 M M M 163/24/20/2201/M/ 8004 37MM=

####018000078####
SACN90 CWAO 081400 RRC
WEO SA 1400 AUTO8 M M M M/23/16/2103/M/ M 85MM=

####018000083####
SACN78 CWAO 081200 RRG
TZR SA 1200 AUTO8 M M M 159/25/21/1905/M/ 0002 09MM=

####018000078####
SACN97 CWAO 081300 RRH
XMM SA 1300 AUTO8 M M M M/13/10/MMMM/M/ M 41MM=

####018000083####
SACN93 CWAO 081400 RRC
WPG SA 1400 AUTO8 M M M 185/17/11/3105/M/ 1012 42MM=

####018000083####
SACN89 CWAO 081200 RRH
WDE SA 1200 AUTO7 M M M 160/19/18/MMMM/M/ 0000 20MM=

####018000082####
SACN90 CWAO 081100 RRI
WEE SA 1100 AUTO7 M M M 151/17/M/MMMM/M/ 3004 0MMM=

####018000083####
SACN90 CWAO 081300 RRH
WEE SA 1300 AUTO7 M M M 141/24/21/MMMM/M/ 8005 61MM=

####018000247####
SACN82 CWAO 081400 RRB
MIN SA 1400 AUTO8 M M M M/10/09/1910/M/M M 63MM=
MMY SA 1400 AUTO8 M M M M/27/19/MMMM/M/ M 45MM=
MRF SA 1400 AUTO8 M M M M/15/09/2515/M/ PK WND 2622 1342Z M 79MM=
WHP SA 1400 AUTO8 M M M M/12/11/0304/M/ M 54MM=

####018000083####
SACN92 CWAO 081300 RRH
WKD SA 1300 AUTO7 M M M 166/20/17/MMMM/M/ 8006 51MM=

####018000132####
SACN89 CWAO 081300 RRG
WDE SA 1300 AUTO7 M M M 155/21/19/MMMM/M/ 8006 45MM=
WDP SA 1300 AUTO7 M M M M/19/M/MMMM/M/ M 2MMM=

####018000083####
SACN87 CWAO 081400 RRA
WRO SA 1400 AUTO8 M M M 195/13/12/2711/M/ 1006 75MM=

####018000083####
SACN78 CWAO 080700 RRG
TZR SA 0700 AUTO8 M M M 160/23/20/1504/M/ 8006 97MM=

####018000138####
SACN92 CWAO 081400 RRC
WJU SA 1400 AUTO8 M M M 202/12/10/2711/M/ 3001 03MM=
WLF SA 1400 AUTO8 M M M 101/21/15/2306/M/ 8014 50MM=

####018000291####
SACN94 CWAO 081400 RRC
WQD SA 1400 AUTO8 M M M M/11/11/1103/M/M M 43MM=
WQM SA 1400 AUTO8 M M M M/23/19/0822/M/M PK WND 0824 1346Z M 17MM=
WQW SA 1400 AUTO8 M M M M/09/M/0414/M/M PK WND 0517 1304Z M 8MMM=
WRU SA 1400 AUTO8 M M M 160/13/12/3322/M/ PK WND 3324 1358Z 3004
76MM=

####018000079####
SACN91 CWAO 081400 RRC
WIX SA 1400 AUTO7 M M M M/27/23/0202/M/M M 15MM=

####018000083####
SACN78 CWAO 081300 RRH
TZR SA 1300 AUTO8 M M M 156/28/22/1905/M/ 8003 01MM=

####018001147####
SABZ01 SBBR 081400
METAR SBBE 081400Z 13009KT 9999 FEW017 SCT100 31/22 Q1013=
METAR SBBR 081400Z 07010KT 9999 FEW023 22/08 Q1024=
METAR SBBV 081400Z 18005KT 9999 SCT020 SCT070 29/23 Q1014=
METAR SBCF 081400Z 13006KT CAVOK 19/08 Q1023=
METAR SBCG 081400Z 06013KT 9999 FEW040 28/08 Q1017=
METAR SBCR 081400Z 31003KT CAVOK 28/13 Q1015=
METAR SBCT 081400Z 06004KT CAVOK 20/13 Q1022=
METAR SBEG 081400Z 00000KT CAVOK 29/22 Q1013=
METAR SBFI 081400Z 16007KT 9999 FEW020 BKN100 19/15 Q1017=
METAR SBFL 081400Z 15011KT 9999 FEW025 SCT100 21/16 Q1019=
METAR SBFZ 081400Z 11011KT 9999 FEW020 SCT090 30/20 Q1014=
METAR SBGR 081400Z 32007KT CAVOK 23/07 Q1022=
METAR SBKP 081400Z 02005KT 9000 NSC 23/09 Q1022=
METAR SBLO 081400Z 04002KT CAVOK 21/11 Q1021=
METAR SBMQ 081400Z 07008KT 9999 SCT020 BKN100 31/26 Q1014=
METAR SBPA 081400Z 22002KT 9999 BKN015 BKN030 15/12 Q1021=
METAR SBPP 081400Z 01006KT CAVOK 27/12 Q1018=
METAR SBRB 081400Z 01009KT CAVOK 31/23 Q1014=
METAR SBSJ 081400Z 16007KT CAVOK 21/11 Q1022=
METAR SBSL 081400Z 09005KT 9999 SCT017 31/23 Q1013=
METAR SBSN 081400Z 09013KT 9999 BKN020 30/24 Q1013=
####018000083####
SACN63 CWAO 081400 RRC
ZEV SA 1400 AUTO8 M M M 187/07/04/2907/M/ 1003 22MM=

####018000083####
SACN78 CWAO 080900 RRF
TZR SA 0900 AUTO8 M M M 158/22/19/1503/M/ 7006 21MM=

####018000073####
SPUS73 KWBC 081422
SPECI
KBRL 081418Z AUTO 7SM BKN007 24/22 A3007=
####018000095####
SAUS17 KAWN 081400 RRF
METAR KFMH 081415Z AUTO 15011G15KT 10SM OVC017 25/21 A3011 RMK AO2=
####018000702####
SAXX70 KAWN 081400 RRN
METAR KQFU 081400Z AUTO 07001KT 7SM OVC035 23/19 A2992 RMK A02=
METAR KQEI 081420Z AUTO 11001KT 2SM -RA OVC055 21/19 A2998 RMK A02=
METAR KQEN 081420Z AUTO 22004KT 5SM BR BKN070 19/16 A3042 RMK A02=
METAR KQEP 081420Z AUTO 25002KT 4SM -SHRA OVC055 21/18 A2990 RMK A02=
METAR KQER 081420Z AUTO 11001KT 2SM -DZ BR SCT003 21/19 A2991 RMK A02=
METAR KQES 081420Z AUTO 19004KT 5SM BR FEW110 SCT130 21/18 A2986 RMK
      A02=
METAR KQEY 081420Z AUTO 15004KT 7SM -SHRA SCT049 BKN055 23/19 A2962
      RMK A02=
METAR KQFV 081420Z AUTO 01002KT 4SM BR BKN022 BKN028 20/18 A3005 RMK
      A02=
METAR KQEV 081430Z AUTO 22002KT 4SM -SHRA OVC040 21/18 A2981 RMK A02=
####018000094####
SPUS81 KWBC 081422
SPECI
KACY 081420Z 10004KT 1 3/4SM +RA BR SCT019 BKN065 24/23 A3006=
####018000095####
SPUS81 KWBC 081422
SPECI
KGDP 081420Z AUTO 06021KT 1 1/4SM BR SCT002 OVC006 17/17 A3027=
####018000242####
SABC40 FBSK 081400 RRA
METAR FBSK 081400Z 07016KT 9999 SCT020 20/07 Q1028 NOSIG=
METAR FBFT 081400Z 11011KT 9999 BKN020 20/10 Q1028=
METAR FBMN 081400Z 12009KT CAVOK 25/04 Q1024=
METAR FBKE 081400Z NIL=
METAR FBSP 081400Z NIL=

####018000239####
SABC40 FBSK 081400 RRA
METAR FBSK 081400Z 07016KT 9999 SCT020 20/07 Q1028 NOSIG=
METAR FBFT 081400Z 11011KT 9999 BKN020 20/10 Q1028=
METAR FBMN 081400Z 12009KT CAVOK 25/04 Q1024=
METAR FBKE 081400Z NIL=
METAR FBSP 081400Z NIL=
####018002865####
SAUS20 KNKA 081422
METAR K3J7 081419Z AUTO 30003KT 10SM CLR 30/23 A3000 RMK AO2=
METAR KAMN 081416Z AUTO 27005KT 7SM CLR 24/22 A3001 RMK AO2=
METAR KAQP 081413Z AUTO 26007KT 10SM CLR 21/19 A3011 RMK AO2=
METAR KASJ 081417Z AUTO 04004KT 10SM CLR 29/24 A2998 RMK AO2=
METAR KBFW 081413Z AUTO 28004KT 10SM CLR 25/15 A3002 RMK AO2=
METAR KCDA 081415Z AUTO 16005KT 7SM CLR 28/21 A3009 RMK AO2=
METAR KCDD 081411Z AUTO 26003KT 10SM CLR 23/18 A3003 RMK AO2=
METAR KCTZ 081420Z AUTO 04004KT 7SM SCT100 31/22 A2997 RMK AO2=
METAR KCVX 081415Z AUTO 23005KT 7SM BKN006 OVC060 22/20 A3002 RMK
     AO2=
METAR KCWV 081429Z AUTO 33006KT 10SM CLR 33/22 A3000 RMK AO2=
SPECI KDAW 081421Z AUTO VRB03KT 6SM HZ BKN015 27/21 A3008 RMK AO2=
METAR KDVP 081417Z AUTO 29007KT 10SM CLR 22/14 A3018 RMK AO2
     T02150137=
METAR KEBS 081415Z AUTO 35008KT 10SM CLR 21/16 A3014 RMK AO2=
METAR KERY 081416Z AUTO 34005KT 10SM SCT005 21/19 A3000 RMK
     AO2=
METAR KETH 081414Z AUTO 27006KT 10SM CLR 22/16 A3012 RMK AO2=
METAR KFKS 081415Z AUTO 00000KT 10SM BKN017 22/20 A3000 RMK
     AO2=
METAR KFOZ 081413Z AUTO 24006KT 10SM CLR 21/14 A3006 RMK AO2=
METAR KFQD 081419Z AUTO 32004KT 10SM CLR 32/18 A3005 RMK AO2=
SPECI KFRG 081421Z 15006KT 10SM FEW015 BKN025 BKN060 26/22 A3006 RMK 
    AO2=
METAR KGOV 081415Z AUTO 23004KT 4SM RA BKN008 BKN015 OVC027 22/22
     A3004 RMK AO2=
SPECI KHRL 081421Z 34010KT 10SM BKN007 27/26 A2979 RMK AO2=
METAR KHYX 081416Z AUTO 25004KT 10SM BKN070 BKN090 26/21 A3001 RMK
     AO2=
METAR KISQ 081415Z AUTO 01006KT 10SM OVC010 22/19 A2999 RMK
     AO2=
SPECI KJLN 081421Z 33005KT 1 1/4SM RA BR BKN013 BKN030 OVC055 22/22 
    A3009 RMK AO2 P0011=
METAR KLDM 081416Z AUTO 24004KT 7SM OVC005 23/22 A3002 RMK AO2=
METAR KMCD 081416Z AUTO 00000KT M1/4SM -RA OVC001 20/17 A3000 RMK
     AO2=
METAR KMZH 081411Z AUTO 26005KT 10SM CLR 21/15 A3006 RMK AO2=
METAR KONZ 081417Z AUTO 19005KT 10SM CLR 29/22 A3002 RMK AO2=
METAR KORB 081414Z AUTO 27007KT 10SM CLR 20/13 A3002 RMK AO2=
METAR KOSC 081414Z AUTO 00000KT 10SM -DZ SCT021 SCT030 BKN080
     23/22 A3000 RMK AO2=
METAR KOWA 081413Z AUTO 29005KT 10SM CLR 20/17 A3013 RMK AO2=
METAR KPHN 081416Z AUTO 21005KT 10SM CLR 30/21 A3001 RMK AO2=
METAR KPZQ 081415Z AUTO 26004KT 5SM -RA SCT015 SCT047 OVC065 22/22
     A3001 RMK AO2=
METAR KRMY 081415Z AUTO 13004KT 10SM CLR 27/22 A3003 RMK AO2=
METAR KSJX 081416Z AUTO 00000KT 1 1/2SM BR OVC002 20/19 A3000 RMK
     AO2=
METAR KSLH 081415Z AUTO 25003KT 5SM -RA SCT007 OVC012 22/22 A2999
     RMK AO2=
METAR KTTF 081414Z AUTO 26007KT 10SM SCT075 32/21 A3002 RMK
     AO2=
METAR KTVK 081415Z AUTO 36005KT 10SM SCT008 21/20 A3011 RMK AO2=
METAR KVWU 081411Z AUTO 23008KT 10SM CLR 21/16 A3005 RMK AO2=
METAR KXVG 081416Z AUTO 29004KT 10SM CLR 21/14 A3006 RMK AO2=
####018000317####
SPUS99 KWBC 081423
SPECI
KDAW 081421Z AUTO VRB03KT 6SM HZ BKN015 27/21 A3008 RMK AO2=
KFRG 081421Z 15006KT 10SM FEW015 BKN025 BKN060 26/22 A3006 RMK
     AO2=
KHRL 081421Z 34010KT 10SM BKN007 27/26 A2979 RMK AO2=
KJLN 081421Z 33005KT 1 1/4SM RA BR BKN013 BKN030 OVC055 22/22
     A3009 RMK AO2 P0011=
####018002317####
SAUS99 KWBC 081423
METAR
K3J7 081419Z AUTO 30003KT 10SM CLR 30/23 A3000 RMK AO2=
KAMN 081416Z AUTO 27005KT 7SM CLR 24/22 A3001 RMK AO2=
KAQP 081413Z AUTO 26007KT 10SM CLR 21/19 A3011 RMK AO2=
KASJ 081417Z AUTO 04004KT 10SM CLR 29/24 A2998 RMK AO2=
KBFW 081413Z AUTO 28004KT 10SM CLR 25/15 A3002 RMK AO2=
KCDA 081415Z AUTO 16005KT 7SM CLR 28/21 A3009 RMK AO2=
KCDD 081411Z AUTO 26003KT 10SM CLR 23/18 A3003 RMK AO2=
KCTZ 081420Z AUTO 04004KT 7SM SCT100 31/22 A2997 RMK AO2=
KCVX 081415Z AUTO 23005KT 7SM BKN006 OVC060 22/20 A3002 RMK
     AO2=
KCWV 081429Z AUTO 33006KT 10SM CLR 33/22 A3000 RMK AO2=
KDVP 081417Z AUTO 29007KT 10SM CLR 22/14 A3018 RMK AO2
     T02150137=
KEBS 081415Z AUTO 35008KT 10SM CLR 21/16 A3014 RMK AO2=
KERY 081416Z AUTO 34005KT 10SM SCT005 21/19 A3000 RMK AO2=
KETH 081414Z AUTO 27006KT 10SM CLR 22/16 A3012 RMK AO2=
KFKS 081415Z AUTO 00000KT 10SM BKN017 22/20 A3000 RMK AO2=
KFOZ 081413Z AUTO 24006KT 10SM CLR 21/14 A3006 RMK AO2=
KFQD 081419Z AUTO 32004KT 10SM CLR 32/18 A3005 RMK AO2=
KGOV 081415Z AUTO 23004KT 4SM RA BKN008 BKN015 OVC027 22/22 A3004
     RMK AO2=
KHYX 081416Z AUTO 25004KT 10SM BKN070 BKN090 26/21 A3001 RMK
     AO2=
KISQ 081415Z AUTO 01006KT 10SM OVC010 22/19 A2999 RMK AO2=
KLDM 081416Z AUTO 24004KT 7SM OVC005 23/22 A3002 RMK AO2=
KMCD 081416Z AUTO 00000KT M1/4SM -RA OVC001 20/17 A3000 RMK
     AO2=
KMZH 081411Z AUTO 26005KT 10SM CLR 21/15 A3006 RMK AO2=
KONZ 081417Z AUTO 19005KT 10SM CLR 29/22 A3002 RMK AO2=
KORB 081414Z AUTO 27007KT 10SM CLR 20/13 A3002 RMK AO2=
KOSC 081414Z AUTO 00000KT 10SM -DZ SCT021 SCT030 BKN080 23/22
     A3000 RMK AO2=
KOWA 081413Z AUTO 29005KT 10SM CLR 20/17 A3013 RMK AO2=
KPHN 081416Z AUTO 21005KT 10SM CLR 30/21 A3001 RMK AO2=
KPZQ 081415Z AUTO 26004KT 5SM -RA SCT015 SCT047 OVC065 22/22 A3001
     RMK AO2=
KRMY 081415Z AUTO 13004KT 10SM CLR 27/22 A3003 RMK AO2=
KSJX 081416Z AUTO 00000KT 1 1/2SM BR OVC002 20/19 A3000 RMK
     AO2=
KSLH 081415Z AUTO 25003KT 5SM -RA SCT007 OVC012 22/22 A2999 RMK
     AO2=
KTTF 081414Z AUTO 26007KT 10SM SCT075 32/21 A3002 RMK AO2=
KTVK 081415Z AUTO 36005KT 10SM SCT008 21/20 A3011 RMK AO2=
KVWU 081411Z AUTO 23008KT 10SM CLR 21/16 A3005 RMK AO2=
KXVG 081416Z AUTO 29004KT 10SM CLR 21/14 A3006 RMK AO2=
####018000281####
SASW31 LSSW 081420
METAR LSZH 081420Z 10004KT 030V130 CAVOK 29/12 Q1021 NOSIG=
METAR LSGG 081420Z 22008KT 190V260 9999 FEW060 BKN250 32/11 Q1021
    NOSIG=
METAR LSZB 081420Z 30005KT 250V360 CAVOK 31/11 Q1021 NOSIG=
METAR LSZA 081420Z 19007KT 9999 FEW055 29/17 Q1021 NOSIG=
####018000136####
SALV32 EVRA 081420
METAR EVLA 081420Z AUTO 32005KT 290V020 9999 NCD 22/15 Q1019=
METAR EVVA 081420Z AUTO 31009KT CAVOK 21/17 Q1018=
####018000098####
SAKY31 RUMS 081400 RRB
METAR UAFO 081400Z 04003MPS 9999 FEW050 31/13 Q1018 NOSIG RMK
QFEM684=
####018000154####
SAUS44 KFWD 081422
MTRNQI
SPECI KNQI 081421Z 04007KT 6SM -RA BKN010CB BKN085 BKN280 28/26 
A2986 RMK AO2 RAB21 CB DSNT NE AND E-SE AND NW P0000 $
####018000084####
SPUS42 KWBC 081423
SPECI
KAMA 081420Z 02010KT 10SM BKN009 OVC022 18/17 A3022=
####018000097####
SPUS43 KWBC 081423
SPECI
KAZO 081420Z 00000KT 3SM -RA BR FEW018 BKN029 OVC085 24/22 A3004=
####018000091####
SPUS44 KWBC 081423
SPECI
KLBB 081419Z 04007KT 10SM BKN006 BKN035 OVC110 21/18 A3018=
####018000084####
SPUS72 KWBC 081423
SPECI
KAMA 081420Z 02010KT 10SM BKN009 OVC022 18/17 A3022=
####018000100####
SAKY31 RUMS 081400 RRB
METAR UAFO 081400Z 04003MPS 9999 FEW050 31/13 Q1018 NOSIG RMK
QFEM684=
####018000286####
SASW31 LSSW 081420
METAR LSZH 081420Z 10004KT 030V130 CAVOK 29/12 Q1021 NOSIG=
METAR LSGG 081420Z 22008KT 190V260 9999 FEW060 BKN250 32/11 Q1021
    NOSIG=
METAR LSZB 081420Z 30005KT 250V360 CAVOK 31/11 Q1021 NOSIG=
METAR LSZA 081420Z 19007KT 9999 FEW055 29/17 Q1021 NOSIG=
####018000138####
SALV32 EVRA 081420
METAR EVLA 081420Z AUTO 32005KT 290V020 9999 NCD 22/15 Q1019=
METAR EVVA 081420Z AUTO 31009KT CAVOK 21/17 Q1018=
####018000308####
SATU20 LTAA 081350 RRA
METAR LTAU 081420Z 28008KT 250V310 9999 SCT040 33/11 Q1008 TEMPO
FM1600 -TSRA RMK RWY07 26008KT=
METAR LTBR 081420Z 31014KT 9999 SCT035TCU BKN100 23/18 Q1012 TEMPO 
-TSRA RMK RWY07 28011KT=
METAR LTBU 081420Z 31015KT 9999 SCT025TCU BKN100 16/14 Q1014 RMK 
RWY23 29016KT=
####018000091####
SPUS72 KWBC 081423
SPECI
KLBB 081419Z 04007KT 10SM BKN006 BKN035 OVC110 21/18 A3018=
####018000120####
SAUS44 KCRP 081423
MTRVCT
SPECI KVCT 081421Z 03006KT 6SM -RA BR FEW008 SCT038 BKN050 25/24 
A2992 RMK AO2 P0011
####018000097####
SPUS73 KWBC 081423
SPECI
KAZO 081420Z 00000KT 3SM -RA BR FEW018 BKN029 OVC085 24/22 A3004=
####018000107####
SPUS81 KWBC 081423
SPECI
KATT 081420Z AUTO 08004KT 1 3/4SM RA BR FEW007 BKN010 OVC015 25/24
A3000=
####018000099####
SPCN48 CWAO 081418
SPECI CYHA 081418Z 14001KT 7SM -RA FEW002 BKN004 OVC025 RMK
SF1ST6SC2=

####018000092####
SPCN45 CWAO 081421
SPECI CYRT 081421Z 07010KT 3SM -DZ BR OVC003 RMK ST8 VIS VRB 1-5=

####018000091####
SPUS81 KWBC 081423
SPECI
KLBB 081419Z 04007KT 10SM BKN006 BKN035 OVC110 21/18 A3018=
####018000160####
SAUS44 KCRP 081423
MTRNGP
SPECI KNGP 081421Z 07006KT 10SM -RA FEW012 SCT019CB SCT030 27/26 
A2985 RMK AO2 CB DSNT N TCU DSNT E-SE AND SW-W WR// P0000 $
####018002945####
SAUS20 KNKA 081423
METAR K0R3 081419Z AUTO 08004KT 10SM BKN010 BKN014 OVC019 28/26 
     A3003 RMK AO2 LTG DSNT SW=
METAR K1A5 081420Z AUTO 00000KT 10SM CLR 26/18 A3015 RMK AO2 
     T02610178=
METAR K3I2 081420Z AUTO 00000KT 10SM CLR 28/21 A3009 RMK AO2=
METAR K47A 081420Z AUTO 35004KT 10SM CLR 32/17 A3007 RMK AO2 LTG 
     DSNT SW T03150170=
METAR KACP 081419Z AUTO 06004KT 10SM BKN013 29/26 A3003 RMK AO2=
METAR KAVC 081420Z AUTO 00000KT 7SM CLR 31/22 A3005 RMK AO2=
METAR KAYS 081420Z AUTO 30006KT 10SM CLR 30/23 A3002 RMK AO1=
METAR KBCB 081420Z AUTO 08004KT 10SM CLR 31/21 A3016 RMK AO2=
METAR KBGE 081421Z AUTO 00000KT 10SM CLR 30/20 A3003 RMK AO2=
METAR KBIJ 081420Z AUTO 24004KT 10SM CLR 32/21 A3003 RMK AO2=
SPECI KBIV 081422Z AUTO 22003KT 1 3/4SM +RA BR OVC001 24/22 A3004 
    RMK AO2 P0020=
METAR KBQK 081417Z AUTO 30006KT 10SM CLR 30/23 A3001 RMK AO1 
     T02960225 PNO=
METAR KBQP 081428Z AUTO 11003KT 10SM CLR 29/26 A3008 RMK AO2=
METAR KCCO 081420Z AUTO 00000KT 10SM CLR 29/22 A3006 RMK AO1=
METAR KCDH 081420Z AUTO 00000KT 8SM BKN005 25/24 A3009 RMK AO2=
SPECI KCOT 081422Z AUTO 04008KT 10SM -RA SCT009 BKN013 BKN030 26/24 
    A2992 RMK AO2 RAB01 P0000=
METAR KCPK 081420Z AUTO 05009KT 10SM CLR 30/21 A2999 RMK AO2=
METAR KCTJ 081420Z AUTO 36005KT 10SM CLR 32/20 A3008 RMK AO2 
     T03190202=
METAR KDBN 081420Z AUTO 33006KT 10SM CLR 32/21 A3000 RMK AO1=
SPECI KDEN 081422Z 02006KT 1 1/2SM BR SCT005 BKN015 OVC039 16/14 
    A3034 RMK AO2 SFC VIS 3=
METAR KDNN 081418Z AUTO 32004KT 10SM CLR 28/21 A3007 RMK AO2=
METAR KDPL 081420Z AUTO 01005KT 7SM CLR 30/21 A2998 RMK AO2=
METAR KDQH 081420Z AUTO 28005KT 10SM CLR 32/18 A3002 RMK AO1=
METAR KEDE 081416Z AUTO 06005KT 10SM SCT019 SCT024 30/22 A2998 
     RMK AO2=
METAR KEMV 081417Z AUTO 07007KT 10SM CLR 30/23 A2999 RMK AO2=
METAR KEXX 081419Z AUTO 35003KT 7SM CLR 29/21 A3002 RMK AO2=
METAR KEZF 081418Z AUTO 14003KT 7SM CLR 31/27 A2999 RMK AO2 
     T03070266=
METAR KF24 081419Z AUTO 10SM OVC095 27/24 A3011 RMK AO2 T02710241=
METAR KFKN 081420Z AUTO 07005KT 10SM SCT018 30/23 A2999 RMK AO1=
SPECI KGAG 081422Z AUTO 04006KT 3SM RA BR OVC005 21/20 A3017 RMK AO2 
    P0005=
METAR KGEV 081421Z AUTO 02004KT 10SM CLR 28/17 A3019 RMK AO2=
METAR KGHG 081420Z AUTO 10009KT 10SM CLR 27/22 A3010 RMK AO2=
METAR KHBI 081421Z AUTO 02003KT 7SM CLR 31/19 A3003 RMK AO2=
METAR KHDC 081422Z AUTO 09005KT 10SM SCT012 SCT017 30/27 A3006 
     RMK AO2=
METAR KHLX 081421Z AUTO 04003KT 7SM CLR 28/22 A3018 RMK AO2=
METAR KHOE 081419Z AUTO 33005KT 10SM CLR 30/21 A3003 RMK AO2 
     T02950212=
METAR KHRJ 081421Z AUTO 03008KT 7SM CLR 34/21 A2997 RMK AO2=
METAR KIPJ 081420Z AUTO 36004KT 10SM CLR 32/18 A3003 RMK AO2 
     T03240184=
METAR KJES 081420Z AUTO 30006KT 10SM CLR 30/24 A3000 RMK AO2 
     T02980241=
METAR KJNX 081419Z AUTO 01008KT 10SM SCT080 29/19 A2998 RMK AO2=
####018001112####
SAUS20 KNKA 081423
METAR KJYL 081421Z AUTO 34004KT 10SM CLR 32/21 A3000 RMK AO2=
METAR KMFV 081422Z AUTO 09005KT 10SM CLR 27/22 A3002 RMK AO2=
METAR KMQI 081416Z AUTO 04010KT 10SM CLR 28/23 A2997 RMK AO2=
METAR KMWK 081422Z AUTO 00000KT 7SM CLR 31/20 A3006 RMK AO2=
METAR KPGV 081420Z AUTO 05005KT 7SM SCT080 29/22 A2998 RMK AO2=
METAR KPSK 081422Z AUTO 01003KT 7SM CLR 31/16 A3015 RMK AO2=
METAR KPTB 081422Z AUTO 10003KT 7SM CLR 32/22 A2999 RMK AO2=
METAR KSIF 081420Z AUTO 36005KT 7SM CLR 33/21 A3002 RMK AO2=
SPECI KSPI 081422Z 29004KT 10SM FEW008 BKN018 OVC026 26/23 A3006 RMK 
    AO2=
METAR KTPF 081420Z AUTO 07005KT 10SM CLR 28/22 A3001 RMK AO2=
METAR KTSP 081415Z AUTO 00000KT 9SM CLR 15/06 A3004 RMK AO2 =
METAR KTVI 081420Z AUTO 36004KT 10SM CLR 30/21 A3004 RMK AO2=
METAR KUKF 081421Z AUTO 00000KT 7SM CLR 31/20 A3008 RMK AO1=
METAR KUNV 081420Z AUTO 04003KT 10SM CLR 29/19 A3009 RMK AO2 
     T02890193=
SPECI KVPZ 081422Z AUTO 18006KT 5SM BR FEW006 SCT046 24/23 A3004 RMK 
    AO2 RAE1355 P0000=
METAR KW99 081419Z AUTO 06003KT 10SM CLR 31/16 A3007 RMK AO2=
####018000526####
SADL31 EDZO 081420
METAR EDDF 081420Z 20006KT 060V210 CAVOK 31/11 Q1019 NOSIG=
METAR EDDH 081420Z 25006KT CAVOK 29/10 Q1018 NOSIG=
METAR EDDK 081420Z 17006G20KT 150V210 CAVOK 32/10 Q1018 NOSIG=
METAR EDDL 081420Z 20007KT CAVOK 32/08 Q1018 NOSIG=
METAR EDDM 081420Z 10002KT CAVOK 26/11 Q1022 NOSIG=
METAR EDDN 081420Z 12002KT CAVOK 29/07 Q1021 NOSIG=
METAR EDDS 081420Z 10004KT CAVOK 29/10 Q1021 NOSIG=
METAR EDDT 081420Z 26001KT CAVOK 29/07 Q1020 NOSIG=
METAR EDDV 081420Z 26006KT CAVOK 30/09 Q1018 NOSIG=
####018000415####
SADL32 EDZO 081420
METAR EDDB 081420Z 05004KT CAVOK 28/06 Q1020 NOSIG=
METAR EDDC 081420Z VRB03KT CAVOK 27/09 Q1021 NOSIG=
METAR EDDE 081420Z VRB03KT CAVOK 28/10 Q1021 NOSIG=
METAR EDDG 081420Z 22007KT CAVOK 31/10 Q1018 NOSIG=
METAR EDDP 081420Z 23004KT 170V260 CAVOK 28/11 Q1020 NOSIG=
METAR EDDR 081420Z 18005KT 170V300 CAVOK 30/11 Q1020 NOSIG=
METAR EDDW 081420Z 26006KT CAVOK 30/08 Q1018 NOSIG=
####018000478####
SPUS90 KWBC 081424
SPECI KATT 081420Z AUTO 08004KT 1 3/4SM RA BR FEW007 BKN010 OVC015
     25/24 A3000 RMK AO2 RAE1357B14 P0002=
SPECI KVCT 081421Z 03006KT 6SM -RA BR FEW008 SCT038 BKN050 25/24
     A2992 RMK AO2 P0011=
SPECI KNGP 081421Z 07006KT 10SM -RA FEW012 SCT019CB SCT030 27/26
     A2985 RMK AO2 CB DSNT N TCU DSNT E-SE AND SW-W WR// P0000
     $=
SPECI KGDP 081422Z AUTO 06022KT 4SM BR BKN002 OVC006 17/17 A3027
     RMK AO2 PK WND 05026/1417 TSNO=
####018000083####
SARW20 HRYR 081430
METAR
HRYR 081430Z 14003KT 9999 BKN030 25/13 Q1019 NOSIG=
####018000131####
SAUS44 KMAF 081423
MTRGDP
SPECI KGDP 081422Z AUTO 06022KT 4SM BR BKN002 OVC006 17/17 A3027 RMK 
AO2 PK WND 05026/1417 TSNO
####018000115####
SPCN46 CWAO 081423
SPECI CYOO 081423Z AUTO 18006KT 5SM HZ CLR 28/22 A3001 RMK SLP161
 DENSITY ALT 1900FT=

####018000122####
SAMO31 ZMUB 081430
METAR ZMUB 081430Z 14012G18MPS 9999 -SHRA SCT030CB SCT033 15/11
 Q1007
 NOSIG RMK QFE648.6 76=
####018003173####
SAUS99 KWBC 081424
METAR
KJYL 081421Z AUTO 34004KT 10SM CLR 32/21 A3000 RMK AO2=
KMFV 081422Z AUTO 09005KT 10SM CLR 27/22 A3002 RMK AO2=
KMQI 081416Z AUTO 04010KT 10SM CLR 28/23 A2997 RMK AO2=
KMWK 081422Z AUTO 00000KT 7SM CLR 31/20 A3006 RMK AO2=
KPGV 081420Z AUTO 05005KT 7SM SCT080 29/22 A2998 RMK AO2=
KPSK 081422Z AUTO 01003KT 7SM CLR 31/16 A3015 RMK AO2=
KPTB 081422Z AUTO 10003KT 7SM CLR 32/22 A2999 RMK AO2=
KSIF 081420Z AUTO 36005KT 7SM CLR 33/21 A3002 RMK AO2=
KTPF 081420Z AUTO 07005KT 10SM CLR 28/22 A3001 RMK AO2=
KTSP 081415Z AUTO 00000KT 9SM CLR 15/06 A3004 RMK AO2=
KTVI 081420Z AUTO 36004KT 10SM CLR 30/21 A3004 RMK AO2=
KUKF 081421Z AUTO 00000KT 7SM CLR 31/20 A3008 RMK AO1=
KUNV 081420Z AUTO 04003KT 10SM CLR 29/19 A3009 RMK AO2
     T02890193=
KW99 081419Z AUTO 06003KT 10SM CLR 31/16 A3007 RMK AO2=
K0R3 081419Z AUTO 08004KT 10SM BKN010 BKN014 OVC019 28/26 A3003
     RMK AO2 LTG DSNT SW=
K1A5 081420Z AUTO 00000KT 10SM CLR 26/18 A3015 RMK AO2
     T02610178=
K3I2 081420Z AUTO 00000KT 10SM CLR 28/21 A3009 RMK AO2=
K47A 081420Z AUTO 35004KT 10SM CLR 32/17 A3007 RMK AO2 LTG DSNT SW
     T03150170=
KACP 081419Z AUTO 06004KT 10SM BKN013 29/26 A3003 RMK AO2=
KAVC 081420Z AUTO 00000KT 7SM CLR 31/22 A3005 RMK AO2=
KAYS 081420Z AUTO 30006KT 10SM CLR 30/23 A3002 RMK AO1=
KBCB 081420Z AUTO 08004KT 10SM CLR 31/21 A3016 RMK AO2=
KBGE 081421Z AUTO 00000KT 10SM CLR 30/20 A3003 RMK AO2=
KBIJ 081420Z AUTO 24004KT 10SM CLR 32/21 A3003 RMK AO2=
KBQK 081417Z AUTO 30006KT 10SM CLR 30/23 A3001 RMK AO1 T02960225
     PNO=
KBQP 081428Z AUTO 11003KT 10SM CLR 29/26 A3008 RMK AO2=
KCCO 081420Z AUTO 00000KT 10SM CLR 29/22 A3006 RMK AO1=
KCDH 081420Z AUTO 00000KT 8SM BKN005 25/24 A3009 RMK AO2=
KCPK 081420Z AUTO 05009KT 10SM CLR 30/21 A2999 RMK AO2=
KCTJ 081420Z AUTO 36005KT 10SM CLR 32/20 A3008 RMK AO2
     T03190202=
KDBN 081420Z AUTO 33006KT 10SM CLR 32/21 A3000 RMK AO1=
KDNN 081418Z AUTO 32004KT 10SM CLR 28/21 A3007 RMK AO2=
KDPL 081420Z AUTO 01005KT 7SM CLR 30/21 A2998 RMK AO2=
KDQH 081420Z AUTO 28005KT 10SM CLR 32/18 A3002 RMK AO1=
KEDE 081416Z AUTO 06005KT 10SM SCT019 SCT024 30/22 A2998 RMK
     AO2=
KEMV 081417Z AUTO 07007KT 10SM CLR 30/23 A2999 RMK AO2=
KEXX 081419Z AUTO 35003KT 7SM CLR 29/21 A3002 RMK AO2=
KEZF 081418Z AUTO 14003KT 7SM CLR 31/27 A2999 RMK AO2
     T03070266=
KF24 081419Z AUTO 10SM OVC095 27/24 A3011 RMK AO2 T02710241=
KFKN 081420Z AUTO 07005KT 10SM SCT018 30/23 A2999 RMK AO1=
KGEV 081421Z AUTO 02004KT 10SM CLR 28/17 A3019 RMK AO2=
KGHG 081420Z AUTO 10009KT 10SM CLR 27/22 A3010 RMK AO2=
KHBI 081421Z AUTO 02003KT 7SM CLR 31/19 A3003 RMK AO2=
KHDC 081422Z AUTO 09005KT 10SM SCT012 SCT017 30/27 A3006 RMK
     AO2=
KHLX 081421Z AUTO 04003KT 7SM CLR 28/22 A3018 RMK AO2=
KHOE 081419Z AUTO 33005KT 10SM CLR 30/21 A3003 RMK AO2
     T02950212=
KHRJ 081421Z AUTO 03008KT 7SM CLR 34/21 A2997 RMK AO2=
KIPJ 081420Z AUTO 36004KT 10SM CLR 32/18 A3003 RMK AO2
     T03240184=
KJES 081420Z AUTO 30006KT 10SM CLR 30/24 A3000 RMK AO2
     T02980241=
KJNX 081419Z AUTO 01008KT 10SM SCT080 29/19 A2998 RMK AO2=
####018000551####
SPUS99 KWBC 081424
SPECI
KSPI 081422Z 29004KT 10SM FEW008 BKN018 OVC026 26/23 A3006 RMK
     AO2=
KVPZ 081422Z AUTO 18006KT 5SM BR FEW006 SCT046 24/23 A3004 RMK AO2
     RAE1355 P0000=
KBIV 081422Z AUTO 22003KT 1 3/4SM +RA BR OVC001 24/22 A3004 RMK
     AO2 P0020=
KCOT 081422Z AUTO 04008KT 10SM -RA SCT009 BKN013 BKN030 26/24
     A2992 RMK AO2 RAB01 P0000=
KDEN 081422Z 02006KT 1 1/2SM BR SCT005 BKN015 OVC039 16/14 A3034
     RMK AO2 SFC VIS 3=
KGAG 081422Z AUTO 04006KT 3SM RA BR OVC005 21/20 A3017 RMK AO2
     P0005=
####018000630####
SASN31 ESWI 081420
METAR ESGG 081420Z 20012KT 9999 FEW007 SCT016 BKN025 16/14 Q1019=
METAR ESGJ 081420Z 24012KT 9999 -RA BKN044 21/11 Q1019=
METAR ESGP 081420Z 19012KT 8000 -RA SCT008 BKN013 17/16 Q1018=
METAR ESGT 081420Z 20010KT 9999 -RA SCT017 BKN020 18/14 Q1018=
METAR ESMK 081420Z 23010KT 200V250 CAVOK 26/11 Q1020=
METAR ESMQ 081420Z 16012KT CAVOK 25/14 Q1018=
METAR ESMS 081420Z 21010KT 170V240 CAVOK 24/10 Q1021=
METAR ESMT 081420Z NIL=
METAR ESMX 081420Z 26009KT 210V290 CAVOK 25/12 Q1019=
METAR ESTA 081420Z 16008KT CAVOK ///// Q1020=
METAR ESTL 081420Z AUTO 22007KT 190V250 9999NDV OVC054/// 24/12
Q1020=
####018000201####
SACN90 KWBC 081424
METAR CWEE 081300Z AUTO 24/21 RMK AO1 SLP141 T02360211 58005=
METAR CWEE 081200Z AUTO 19/ RMK AO1 SLP147 T0194 58002=
METAR CWEE 081100Z AUTO 17/ RMK AO1 SLP151 T0170 53004=
####018000095####
SACN85 KWBC 081424
METAR CWDO 081400Z AUTO 20006KT 15/13 RMK AO1 SLP188 T01540125
58016=
####018000080####
SACN95 KWBC 081424
METAR CWXC 081400Z AUTO 22003KT 28/20 RMK AO1 T02770204=
####018000611####
SACN86 KWBC 081424
METAR CWHP 081400Z AUTO 03004KT 12/11 RMK AO1 T01150114=
METAR CWHP 081400Z AUTO 03004KT 12/11 RMK AO1 T01150114=
METAR CWHP 081400Z AUTO 03004KT 12/11 RMK AO1 T01150114=
METAR CWHP 081400Z AUTO 03004KT 12/11 RMK AO1 T01150114=
METAR CWHP 081400Z AUTO 03004KT 12/11 RMK AO1 T01150114=
METAR CWHP 081400Z AUTO 03004KT 12/11 RMK AO1 T01150114=
METAR CWHP 081400Z AUTO 03004KT 12/11 RMK AO1 T01150114=
METAR CWHP 081400Z AUTO 03004KT 12/11 RMK AO1 T01150114=
METAR CWHP 081400Z AUTO 03004KT 12/11 RMK AO1 T01150114=
METAR CWHP 081400Z AUTO 03004KT 12/11 RMK AO1 T01150114=
####018001475####
SACN87 KWBC 081424
METAR CWRU 081400Z AUTO 33022KT 13/12 RMK AO1 PK WND 33024/1358
SLP160 T01270116 53004=
METAR CWRU 081400Z AUTO 33022KT 13/12 RMK AO1 PK WND 33024/1358
SLP160 T01270116 53004=
METAR CWRU 081400Z AUTO 33022KT 13/12 RMK AO1 PK WND 33024/1358
SLP160 T01270116 53004=
METAR CWRU 081400Z AUTO 33022KT 13/12 RMK AO1 PK WND 33024/1358
SLP160 T01270116 53004=
METAR CWRU 081400Z AUTO 33022KT 13/12 RMK AO1 PK WND 33024/1358
SLP160 T01270116 53004=
METAR CWRU 081400Z AUTO 33022KT 13/12 RMK AO1 PK WND 33024/1358
SLP160 T01270116 53004=
METAR CWRU 081400Z AUTO 33022KT 13/12 RMK AO1 PK WND 33024/1358
SLP160 T01270116 53004=
METAR CWRU 081400Z AUTO 33022KT 13/12 RMK AO1 PK WND 33024/1358
SLP160 T01270116 53004=
METAR CWRU 081400Z AUTO 33022KT 13/12 RMK AO1 PK WND 33024/1358
SLP160 T01270116 53004=
METAR CWRU 081400Z AUTO 33022KT 13/12 RMK AO1 PK WND 33024/1358
SLP160 T01270116 53004=
METAR CWRU 081400Z AUTO 33022KT 13/12 RMK AO1 PK WND 33024/1358
SLP160 T01270116 53004=
METAR CWRU 081400Z AUTO 33022KT 13/12 RMK AO1 PK WND 33024/1358
SLP160 T01270116 53004=
METAR CWRO 081400Z AUTO 27011KT 13/12 RMK AO1 SLP195 T01270115
51006=
METAR CWRU 081400Z AUTO 33022KT 13/12 RMK AO1 PK WND 33024/1358
SLP160 T01270116 53004=
METAR CWRU 081400Z AUTO 33022KT 13/12 RMK AO1 PK WND 33024/1358
SLP160 T01270116 53004=
METAR CWRU 081400Z AUTO 33022KT 13/12 RMK AO1 PK WND 33024/1358
SLP160 T01270116 53004=
####018000496####
SAFI31 EFHK 081420
METAR EFHK 081420Z 35004KT 300V070 9999 TS FEW040CB BKN060 27/17
Q1014 BECMG 4000 TSRA=
EFJY 081420Z 10002KT 9999 SCT040 SCT200 25/17 Q1014=
METAR EFKU 081420Z AUTO VRB03KT CAVOK 25/17 Q1014=
EFOU 081420Z VRB01KT 9999 FEW040 BKN200 24/11 Q1014=
METAR EFRO 081420Z AUTO 14005KT 070V180 CAVOK 21/09
 Q1015=
EFTP 081420Z 30007KT 270V360 CAVOK 25/10 Q1015=
METAR EFTU 081420Z AUTO 31009KT CAVOK 25/11 Q1015=
EFVA 081420Z 22007KT 180V290 9999 FEW030 SCT200 25/11 Q1013=
####018000583####
SACN97 KWBC 081424
METAR CXDE 081400Z AUTO 11/11 RMK AO1 SLP152 T01130110 53007=
METAR CXMM 081400Z AUTO 15/11 RMK AO1 T01540107=
METAR CXQA 081400Z AUTO 06/06 RMK AO1 2010 SLP137 T00610060 50003=
METAR CXMM 081400Z AUTO 15/11 RMK AO1 T01540107=
METAR CXQA 081400Z AUTO 06/06 RMK AO1 2010 SLP137 T00610060 50003=
METAR CXQA 081400Z AUTO 06/06 RMK AO1 2010 SLP137 T00610060 50003=
METAR CXQA 081400Z AUTO 06/06 RMK AO1 2010 SLP137 T00610060 50003=
METAR CXQA 081400Z AUTO 06/06 RMK AO1 2010 SLP137 T00610060 50003=
METAR CXMM 081300Z AUTO 13/10 RMK AO1 T01340101=
####018000408####
SADL32 EDZO 081420
METAR EDDB 081420Z 05004KT CAVOK 28/06 Q1020 NOSIG=
METAR EDDC 081420Z VRB03KT CAVOK 27/09 Q1021 NOSIG=
METAR EDDE 081420Z VRB03KT CAVOK 28/10 Q1021 NOSIG=
METAR EDDG 081420Z 22007KT CAVOK 31/10 Q1018 NOSIG=
METAR EDDP 081420Z 23004KT 170V260 CAVOK 28/11 Q1020 NOSIG=
METAR EDDR 081420Z 18005KT 170V300 CAVOK 30/11 Q1020 NOSIG=
METAR EDDW 081420Z 26006KT CAVOK 30/08 Q1018 NOSIG=
####018000159####
SACN92 KWBC 081424
METAR CWJU 081400Z AUTO 27011KT 12/10 RMK AO1 SLP202 T01200103
53001=
METAR CWKD 081300Z AUTO 20/17 RMK AO1 SLP166 T01950171 58006=
####018000167####
SADN33 EKCH 081420
METAR EKKA 081420Z 20006KT 160V220 9999 FEW007 FEW010TCU BKN012
19/18 Q1018=
METAR EKSP 081420Z 26008KT 9999 FEW025 BKN150 BKN250 21/15 Q1019=
####018000080####
SACN91 KWBC 081424
METAR CWIX 081400Z AUTO 02002KT 27/23 RMK AO1 T02710225=
####018003727####
SAUS70 KWBC 081424
METAR
KFMH 081415Z AUTO 15011G15KT 10SM OVC017 25/21 A3011 RMK AO2=
K3J7 081419Z AUTO 30003KT 10SM CLR 30/23 A3000 RMK AO2=
KAMN 081416Z AUTO 27005KT 7SM CLR 24/22 A3001 RMK AO2=
KAQP 081413Z AUTO 26007KT 10SM CLR 21/19 A3011 RMK AO2=
KASJ 081417Z AUTO 04004KT 10SM CLR 29/24 A2998 RMK AO2=
KBFW 081413Z AUTO 28004KT 10SM CLR 25/15 A3002 RMK AO2=
KCDA 081415Z AUTO 16005KT 7SM CLR 28/21 A3009 RMK AO2=
KCDD 081411Z AUTO 26003KT 10SM CLR 23/18 A3003 RMK AO2=
KCTZ 081420Z AUTO 04004KT 7SM SCT100 31/22 A2997 RMK AO2=
KCVX 081415Z AUTO 23005KT 7SM BKN006 OVC060 22/20 A3002 RMK
     AO2=
KCWV 081429Z AUTO 33006KT 10SM CLR 33/22 A3000 RMK AO2=
KDVP 081417Z AUTO 29007KT 10SM CLR 22/14 A3018 RMK AO2
     T02150137=
KEBS 081415Z AUTO 35008KT 10SM CLR 21/16 A3014 RMK AO2=
KERY 081416Z AUTO 34005KT 10SM SCT005 21/19 A3000 RMK AO2=
KETH 081414Z AUTO 27006KT 10SM CLR 22/16 A3012 RMK AO2=
KFKS 081415Z AUTO 00000KT 10SM BKN017 22/20 A3000 RMK AO2=
KFOZ 081413Z AUTO 24006KT 10SM CLR 21/14 A3006 RMK AO2=
KFQD 081419Z AUTO 32004KT 10SM CLR 32/18 A3005 RMK AO2=
KGOV 081415Z AUTO 23004KT 4SM RA BKN008 BKN015 OVC027 22/22 A3004
     RMK AO2=
KHYX 081416Z AUTO 25004KT 10SM BKN070 BKN090 26/21 A3001 RMK
     AO2=
KISQ 081415Z AUTO 01006KT 10SM OVC010 22/19 A2999 RMK AO2=
KLDM 081416Z AUTO 24004KT 7SM OVC005 23/22 A3002 RMK AO2=
KMCD 081416Z AUTO 00000KT M1/4SM -RA OVC001 20/17 A3000 RMK
     AO2=
KMZH 081411Z AUTO 26005KT 10SM CLR 21/15 A3006 RMK AO2=
KONZ 081417Z AUTO 19005KT 10SM CLR 29/22 A3002 RMK AO2=
KORB 081414Z AUTO 27007KT 10SM CLR 20/13 A3002 RMK AO2=
KOSC 081414Z AUTO 00000KT 10SM -DZ SCT021 SCT030 BKN080 23/22
     A3000 RMK AO2=
KOWA 081413Z AUTO 29005KT 10SM CLR 20/17 A3013 RMK AO2=
KPHN 081416Z AUTO 21005KT 10SM CLR 30/21 A3001 RMK AO2=
KRMY 081415Z AUTO 13004KT 10SM CLR 27/22 A3003 RMK AO2=
KSJX 081416Z AUTO 00000KT 1 1/2SM BR OVC002 20/19 A3000 RMK
     AO2=
KSLH 081415Z AUTO 25003KT 5SM -RA SCT007 OVC012 22/22 A2999 RMK
     AO2=
KTTF 081414Z AUTO 26007KT 10SM SCT075 32/21 A3002 RMK AO2=
KTVK 081415Z AUTO 36005KT 10SM SCT008 21/20 A3011 RMK AO2=
KVWU 081411Z AUTO 23008KT 10SM CLR 21/16 A3005 RMK AO2=
KXVG 081416Z AUTO 29004KT 10SM CLR 21/14 A3006 RMK AO2=
KJYL 081421Z AUTO 34004KT 10SM CLR 32/21 A3000 RMK AO2=
KMFV 081422Z AUTO 09005KT 10SM CLR 27/22 A3002 RMK AO2=
KMQI 081416Z AUTO 04010KT 10SM CLR 28/23 A2997 RMK AO2=
KMWK 081422Z AUTO 00000KT 7SM CLR 31/20 A3006 RMK AO2=
KPGV 081420Z AUTO 05005KT 7SM SCT080 29/22 A2998 RMK AO2=
KPSK 081422Z AUTO 01003KT 7SM CLR 31/16 A3015 RMK AO2=
KPTB 081422Z AUTO 10003KT 7SM CLR 32/22 A2999 RMK AO2=
KSIF 081420Z AUTO 36005KT 7SM CLR 33/21 A3002 RMK AO2=
KTPF 081420Z AUTO 07005KT 10SM CLR 28/22 A3001 RMK AO2=
KTSP 081415Z AUTO 00000KT 9SM CLR 15/06 A3004 RMK AO2=
KTVI 081420Z AUTO 36004KT 10SM CLR 30/21 A3004 RMK AO2=
KUKF 081421Z AUTO 00000KT 7SM CLR 31/20 A3008 RMK AO1=
KUNV 081420Z AUTO 04003KT 10SM CLR 29/19 A3009 RMK AO2
     T02890193=
KW99 081419Z AUTO 06003KT 10SM CLR 31/16 A3007 RMK AO2=
K0R3 081419Z AUTO 08004KT 10SM BKN010 BKN014 OVC019 28/26 A3003
     RMK AO2 LTG DSNT SW=
K1A5 081420Z AUTO 00000KT 10SM CLR 26/18 A3015 RMK AO2
     T02610178=
K3I2 081420Z AUTO 00000KT 10SM CLR 28/21 A3009 RMK AO2=
K47A 081420Z AUTO 35004KT 10SM CLR 32/17 A3007 RMK AO2 LTG DSNT SW
     T03150170=
KACP 081419Z AUTO 06004KT 10SM BKN013 29/26 A3003 RMK AO2=
KAVC 081420Z AUTO 00000KT 7SM CLR 31/22 A3005 RMK AO2=
KBCB 081420Z AUTO 08004KT 10SM CLR 31/21 A3016 RMK AO2=
KBGE 081421Z AUTO 00000KT 10SM CLR 30/20 A3003 RMK AO2=
KBIJ 081420Z AUTO 24004KT 10SM CLR 32/21 A3003 RMK AO2=
####018001569####
SAUS70 KWBC 081424 RRA
METAR
KBQK 081417Z AUTO 30006KT 10SM CLR 30/23 A3001 RMK AO1 T02960225
     PNO=
KBQP 081428Z AUTO 11003KT 10SM CLR 29/26 A3008 RMK AO2=
KCCO 081420Z AUTO 00000KT 10SM CLR 29/22 A3006 RMK AO1=
KCDH 081420Z AUTO 00000KT 8SM BKN005 25/24 A3009 RMK AO2=
KCPK 081420Z AUTO 05009KT 10SM CLR 30/21 A2999 RMK AO2=
KCTJ 081420Z AUTO 36005KT 10SM CLR 32/20 A3008 RMK AO2
     T03190202=
KDNN 081418Z AUTO 32004KT 10SM CLR 28/21 A3007 RMK AO2=
KDPL 081420Z AUTO 01005KT 7SM CLR 30/21 A2998 RMK AO2=
KDQH 081420Z AUTO 28005KT 10SM CLR 32/18 A3002 RMK AO1=
KEDE 081416Z AUTO 06005KT 10SM SCT019 SCT024 30/22 A2998 RMK
     AO2=
KEMV 081417Z AUTO 07007KT 10SM CLR 30/23 A2999 RMK AO2=
KEXX 081419Z AUTO 35003KT 7SM CLR 29/21 A3002 RMK AO2=
KEZF 081418Z AUTO 14003KT 7SM CLR 31/27 A2999 RMK AO2
     T03070266=
KF24 081419Z AUTO 10SM OVC095 27/24 A3011 RMK AO2 T02710241=
KFKN 081420Z AUTO 07005KT 10SM SCT018 30/23 A2999 RMK AO1=
KGEV 081421Z AUTO 02004KT 10SM CLR 28/17 A3019 RMK AO2=
KGHG 081420Z AUTO 10009KT 10SM CLR 27/22 A3010 RMK AO2=
KHBI 081421Z AUTO 02003KT 7SM CLR 31/19 A3003 RMK AO2=
KHDC 081422Z AUTO 09005KT 10SM SCT012 SCT017 30/27 A3006 RMK
     AO2=
KHLX 081421Z AUTO 04003KT 7SM CLR 28/22 A3018 RMK AO2=
KHOE 081419Z AUTO 33005KT 10SM CLR 30/21 A3003 RMK AO2
     T02950212=
KHRJ 081421Z AUTO 03008KT 7SM CLR 34/21 A2997 RMK AO2=
KIPJ 081420Z AUTO 36004KT 10SM CLR 32/18 A3003 RMK AO2
     T03240184=
KJES 081420Z AUTO 30006KT 10SM CLR 30/24 A3000 RMK AO2
     T02980241=
####018000281####
SPXX60 KWBC 081424
SPECI
KNQI 081421Z 04007KT 6SM -RA BKN010CB BKN085 BKN280 28/26 A2986
     RMK AO2 RAB21 CB DSNT NE AND E-SE AND NW P0000 $=
KNGP 081421Z 07006KT 10SM -RA FEW012 SCT019CB SCT030 27/26 A2985
     RMK AO2 CB DSNT N TCU DSNT E-SE AND SW-W WR// P0000 $=
####018000517####
SADL31 EDZO 081420
METAR EDDF 081420Z 20006KT 060V210 CAVOK 31/11 Q1019 NOSIG=
METAR EDDH 081420Z 25006KT CAVOK 29/10 Q1018 NOSIG=
METAR EDDK 081420Z 17006G20KT 150V210 CAVOK 32/10 Q1018 NOSIG=
METAR EDDL 081420Z 20007KT CAVOK 32/08 Q1018 NOSIG=
METAR EDDM 081420Z 10002KT CAVOK 26/11 Q1022 NOSIG=
METAR EDDN 081420Z 12002KT CAVOK 29/07 Q1021 NOSIG=
METAR EDDS 081420Z 10004KT CAVOK 29/10 Q1021 NOSIG=
METAR EDDT 081420Z 26001KT CAVOK 29/07 Q1020 NOSIG=
METAR EDDV 081420Z 26006KT CAVOK 30/09 Q1018 NOSIG=
####018000513####
SADN31 EKCH 081420
METAR EKCH 081420Z 17011KT CAVOK 22/15 Q1020 NOSIG=
METAR EKBI 081420Z 20006KT 160V230 9999 -SHRA FEW013 BKN055
BKN100 19/18 Q1019=
METAR EKYT 081420Z 23007KT 5000 -RA FEW010 BKN022 18/18 Q1018=
METAR EKRK 081420Z AUTO 27011KT 9999NDV -RA  BKN050/// 20/16
Q1020=
METAR EKAH 081420Z AUTO 24002KT 9999NDV -SHRA  SCT037/// BKN095///
22/15 Q1019=
METAR EKEB 081420Z AUTO 19008KT 150V220 9999NDV BKN004/// BKN042///
19/18 Q1018=
METAR EKRN 081420Z AUTO 18004KT 9999NDV NCD 21/14 Q1022=
####018000291####
SAUS80 KWBC 081424
METAR
KPZQ 081415Z AUTO 26004KT 5SM -RA SCT015 SCT047 OVC065 22/22 A3001
     RMK AO2=
KAYS 081420Z AUTO 30006KT 10SM CLR 30/23 A3002 RMK AO1=
KDBN 081420Z AUTO 33006KT 10SM CLR 32/21 A3000 RMK AO1=
KJNX 081419Z AUTO 01008KT 10SM SCT080 29/19 A2998 RMK AO2=
####018000146####
SADN32 EKCH 081420
METAR EKVJ 081420Z NIL=
METAR EKSB 081420Z NIL=
METAR EKSN 081420Z NIL=
METAR EKVD 081420Z NIL=
METAR EKOD 081420Z NIL=
####018000418####
SPUS80 KWBC 081424
SPECI
KATT 081420Z AUTO 08004KT 1 3/4SM RA BR FEW007 BKN010 OVC015 25/24
     A3000 RMK AO2 RAE1357B14 P0002=
KJLN 081421Z 33005KT 1 1/4SM RA BR BKN013 BKN030 OVC055 22/22
     A3009 RMK AO2 P0011=
KVCT 081421Z 03006KT 6SM -RA BR FEW008 SCT038 BKN050 25/24 A2992
     RMK AO2 P0011=
KGDP 081422Z AUTO 06022KT 4SM BR BKN002 OVC006 17/17 A3027 RMK AO2
     PK WND 05026/1417 TSNO=
####018000747####
SPUS70 KWBC 081424
SPECI
KDAW 081421Z AUTO VRB03KT 6SM HZ BKN015 27/21 A3008 RMK AO2=
KFRG 081421Z 15006KT 10SM FEW015 BKN025 BKN060 26/22 A3006 RMK
     AO2=
KHRL 081421Z 34010KT 10SM BKN007 27/26 A2979 RMK AO2=
KSPI 081422Z 29004KT 10SM FEW008 BKN018 OVC026 26/23 A3006 RMK
     AO2=
KVPZ 081422Z AUTO 18006KT 5SM BR FEW006 SCT046 24/23 A3004 RMK AO2
     RAE1355 P0000=
KBIV 081422Z AUTO 22003KT 1 3/4SM +RA BR OVC001 24/22 A3004 RMK
     AO2 P0020=
KCOT 081422Z AUTO 04008KT 10SM -RA SCT009 BKN013 BKN030 26/24
     A2992 RMK AO2 RAB01 P0000=
KDEN 081422Z 02006KT 1 1/2SM BR SCT005 BKN015 OVC039 16/14 A3034
     RMK AO2 SFC VIS 3=
KGAG 081422Z AUTO 04006KT 3SM RA BR OVC005 21/20 A3017 RMK AO2
     P0005=
####018000087####
SAAF36 KWBC 081400 RRC
METAR
HRYR 081430Z 14003KT 9999 BKN030 25/13 Q1019 NOSIG=
####018000073####
SAAF34 KWBC 081400 RRC
METAR
FBKE 081400Z NIL=
FBSP 081400Z NIL=
####018000194####
SAAS31 KWBC 081405 RRB
METAR
VCBI 081410Z 09007KT 9000 -TSRA FEW011 SCT016 SCT018CB 25/24 Q1010
     NOSIG=
VRMM 081400Z 35009KT 9999 FEW018TCU SCT024 BKN120 28/25 Q1010
     NOSIG=
####018000129####
SAAW41 KWBC 081450
METAR
LTAU 081420Z 28008KT 250V310 9999 SCT040 33/11 Q1008 TEMPO FM1600
     -TSRA RMK RWY07 26008KT=
####018000129####
SACI32 KWBC 081400 RRB
METAR
ZMUB 081430Z 14012G18MPS 9999 -SHRA SCT030CB SCT033 15/11 Q1007
     NOSIG RMK QFE648.6 76=
####018000433####
SADL33 KWBC 081415 RRA
METAR
EDDB 081420Z 05004KT CAVOK 28/06 Q1020 NOSIG=
EDDC 081420Z VRB03KT CAVOK 27/09 Q1021 NOSIG=
EDDG 081420Z 22007KT CAVOK 31/10 Q1018 NOSIG=
EDDP 081420Z 23004KT 170V260 CAVOK 28/11 Q1020 NOSIG=
EDDR 081420Z 18005KT 170V300 CAVOK 30/11 Q1020 NOSIG=
EDDT 081420Z 26001KT CAVOK 29/07 Q1020 NOSIG=
EDDV 081420Z 26006KT CAVOK 30/09 Q1018 NOSIG=
EDDW 081420Z 26006KT CAVOK 30/08 Q1018 NOSIG=
####018000111####
SAIO31 KWBC 081400 RRC
METAR
VRMM 081400Z 35009KT 9999 FEW018TCU SCT024 BKN120 28/25 Q1010
     NOSIG=
####018000107####
SARA31 KWBC 081400 RRF
METAR
UAFO 081400Z 04003MPS 9999 FEW050 31/13 Q1018 NOSIG RMK
     QFEM684=
####018000081####
SAXX61 KWBC 081400 RRD
METAR
EDDS 081420Z 10004KT CAVOK 29/10 Q1021 NOSIG=
####018000216####
SADN34 EKCH 081420
METAR EKGF 081420Z NIL=
METAR EKHN 081420Z AUTO 19011KT 9999NDV FEW023/// SCT031///
SCT072/// 17/14 Q1020=
METAR EKHR 081420Z AUTO 20010KT 9000NDV FEW003/// SCT008///
BKN027/// 17/17 Q1018=
####018000440####
SAXX99 KWBC 081400 RRR
METAR
BKPR 081430Z 34009KT 9999 SCT030 BKN060 17/11 Q1022 NOSIG RMK
     BLU=
EDDE 081420Z VRB03KT CAVOK 28/10 Q1021 NOSIG=
EVLA 081420Z AUTO 32005KT 290V020 9999 NCD 22/15 Q1019=
EVVA 081420Z AUTO 31009KT CAVOK 21/17 Q1018=
LTBR 081420Z 31014KT 9999 SCT035TCU BKN100 23/18 Q1012 TEMPO -TSRA
     RMK RWY07 28011KT=
LTBU 081420Z 31015KT 9999 SCT025TCU BKN100 16/14 Q1014 RMK RWY23
     29016KT=
####018000085####
SAUS41 KWBC 081400 RRD
METAR
KCTZ 081420Z AUTO 04004KT 7SM SCT100 31/22 A2997=
####018000077####
SPUS42 KWBC 081424
SPECI
KHRL 081421Z 34010KT 10SM BKN007 27/26 A2979=
####018000091####
SPUS52 KWBC 081424
SPECI
KGDP 081422Z AUTO 06022KT 4SM BR BKN002 OVC006 17/17 A3027=
####018000097####
SPUS52 KWBC 081424
SPECI
KVCT 081421Z 03006KT 6SM -RA BR FEW008 SCT038 BKN050 25/24 A2992=
####018000102####
SPUS53 KWBC 081424
SPECI
KJLN 081421Z 33005KT 1 1/4SM RA BR BKN013 BKN030 OVC055 22/22
A3009=
####018000107####
SATU20 LTAA 081350 RRB
METAR LTCC 081420Z 15008KT 110V190 CAVOK 40/02 Q1005 NOSIG RMK RWY16
19012KT=
####018000151####
SADN32 EKCH 081420
METAR EKVJ 081420Z NIL=
METAR EKSB 081420Z NIL=
METAR EKSN 081420Z NIL=
METAR EKVD 081420Z NIL=
METAR EKOD 081420Z NIL=
####018000524####
SADN31 EKCH 081420
METAR EKCH 081420Z 17011KT CAVOK 22/15 Q1020 NOSIG=
METAR EKBI 081420Z 20006KT 160V230 9999 -SHRA FEW013 BKN055
BKN100 19/18 Q1019=
METAR EKYT 081420Z 23007KT 5000 -RA FEW010 BKN022 18/18 Q1018=
METAR EKRK 081420Z AUTO 27011KT 9999NDV -RA  BKN050/// 20/16
Q1020=
METAR EKAH 081420Z AUTO 24002KT 9999NDV -SHRA  SCT037/// BKN095///
22/15 Q1019=
METAR EKEB 081420Z AUTO 19008KT 150V220 9999NDV BKN004/// BKN042///
19/18 Q1018=
METAR EKRN 081420Z AUTO 18004KT 9999NDV NCD 21/14 Q1022=
####018000642####
SASN31 ESWI 081420
METAR ESGG 081420Z 20012KT 9999 FEW007 SCT016 BKN025 16/14 Q1019=
METAR ESGJ 081420Z 24012KT 9999 -RA BKN044 21/11 Q1019=
METAR ESGP 081420Z 19012KT 8000 -RA SCT008 BKN013 17/16 Q1018=
METAR ESGT 081420Z 20010KT 9999 -RA SCT017 BKN020 18/14 Q1018=
METAR ESMK 081420Z 23010KT 200V250 CAVOK 26/11 Q1020=
METAR ESMQ 081420Z 16012KT CAVOK 25/14 Q1018=
METAR ESMS 081420Z 21010KT 170V240 CAVOK 24/10 Q1021=
METAR ESMT 081420Z NIL=
METAR ESMX 081420Z 26009KT 210V290 CAVOK 25/12 Q1019=
METAR ESTA 081420Z 16008KT CAVOK ///// Q1020=
METAR ESTL 081420Z AUTO 22007KT 190V250 9999NDV OVC054/// 24/12
Q1020=
####018000506####
SAFI31 EFHK 081420
METAR EFHK 081420Z 35004KT 300V070 9999 TS FEW040CB BKN060 27/17
Q1014 BECMG 4000 TSRA=
EFJY 081420Z 10002KT 9999 SCT040 SCT200 25/17 Q1014=
METAR EFKU 081420Z AUTO VRB03KT CAVOK 25/17 Q1014=
EFOU 081420Z VRB01KT 9999 FEW040 BKN200 24/11 Q1014=
METAR EFRO 081420Z AUTO 14005KT 070V180 CAVOK 21/09
 Q1015=
EFTP 081420Z 30007KT 270V360 CAVOK 25/10 Q1015=
METAR EFTU 081420Z AUTO 31009KT CAVOK 25/11 Q1015=
EFVA 081420Z 22007KT 180V290 9999 FEW030 SCT200 25/11 Q1013=
####018000078####
SACN87 CWAO 081422
WWL SA 1422 AUTO4 M M M 175/13/M/MMMM/M/ 1004 7MMM=

####018000077####
SPUS72 KWBC 081424
SPECI
KHRL 081421Z 34010KT 10SM BKN007 27/26 A2979=
####018000097####
SPUS72 KWBC 081424
SPECI
KNGP 081421Z 07006KT 10SM -RA FEW012 SCT019CB SCT030 27/26 A2985=
####018000097####
SPUS72 KWBC 081424
SPECI
KVCT 081421Z 03006KT 6SM -RA BR FEW008 SCT038 BKN050 25/24 A2992=
####018000102####
SPUS73 KWBC 081424
SPECI
KJLN 081421Z 33005KT 1 1/4SM RA BR BKN013 BKN030 OVC055 22/22
A3009=
####018000384####
SASW32 LSSW 081420
METAR LSGC 081420Z 17004KT 140V200 CAVOK 27/13 Q1024=
METAR LSGS 081420Z 25016KT 9999 FEW120 SCT250 31/13 Q1019=
METAR LSZG 081420Z VRB02KT 9999 FEW050 30/13 Q1020 NOSIG=
METAR LSZR 081420Z 01004KT 340V060 CAVOK 27/13 Q1021 NOSIG RMK K=
METAR LSZS 081420Z 29012KT 240V330 9999 FEW070 25/06 Q1026=
METAR LSZC 081420Z 08004KT 050V110 CAVOK 29/17 Q1021=
####018000549####
SARS18 KAWN 081400 RRF
METAR EETN 081420Z 29013KT CAVOK 25/17 Q1014 NOSIG=
METAR EFHK 081420Z 35004KT 300V070 9999 TS FEW040CB BKN060 27/17 Q1014
      BECMG 4000 TSRA=
METAR EVLA 081420Z AUTO 32005KT 290V020 9999 NCD 22/15 Q1019=
METAR EVRA 081420Z 31011KT 270V340 9999 OVC030 21/16 Q1016 NOSIG=
METAR EYKA 081420Z 29006KT 240V340 9999 OVC028 17/14 Q1016=
METAR EYPA 081420Z 33006KT CAVOK 20/15 Q1019=
METAR EYVI 081420Z 29010KT 260V320 7000 BKN006 OVC012 15/14 Q1015 NOSIG=
METAR UAFM 081400Z 24005MPS CAVOK 30/07 Q1012 NOSIG=
####018000091####
SPUS81 KWBC 081424
SPECI
KGDP 081422Z AUTO 06022KT 4SM BR BKN002 OVC006 17/17 A3027=
####018000102####
SPUS81 KWBC 081424
SPECI
KJLN 081421Z 33005KT 1 1/4SM RA BR BKN013 BKN030 OVC055 22/22
A3009=
####018002959####
SAUS20 KNKA 081424
METAR K3A1 081420Z AUTO 36005KT 10SM CLR 30/24 A3011 RMK AO2 
     T03000240=
METAR K4A9 081420Z AUTO 03005KT 10SM CLR 30/20 A3007 RMK AO2 
     T03040199=
METAR K4R4 081420Z AUTO 00000KT 10SM CLR 31/26 A3004 RMK AO2 
     T03120255=
METAR K8A0 081419Z AUTO 05004KT 10SM CLR 30/20 A3008 RMK AO2=
METAR KAFP 081420Z AUTO 01003KT 10SM CLR 31/19 A2998 RMK AO2 
     T03120192=
METAR KALX 081420Z AUTO 05003KT 10SM CLR 31/21 A3005 RMK AO1=
METAR KCPC 081420Z AUTO 05008KT 7SM CLR 30/23 A2995 RMK AO2 
     T03030227=
METAR KDRI 081420Z AUTO 11006KT 10SM BKN010 27/27 A3005 RMK AO2 
     LTG DSNT SW=
METAR KEHO 081420Z AUTO 05006KT 10SM CLR 31/20 A3004 RMK AO2 
     T03130203=
METAR KEYF 081420Z AUTO 00000KT 7SM CLR 31/22 A2996 RMK AO2 
     T03070216=
METAR KFFA 081418Z AUTO 06007KT 030V090 10SM CLR 28/22 A2998 RMK 
     AO2 T02750223=
METAR KGAO 081420Z AUTO 07008KT SCT018 SCT025 SCT029 30/25 A3004 
     RMK AO2 PWINO=
METAR KGWW 081420Z AUTO 03005KT 7SM SCT080 SCT095 SCT120 28/22 
     A2998 RMK AO2 T02820216=
METAR KHNZ 081420Z AUTO 04005KT 7SM SCT110 31/21 A3001 RMK AO2 
     T03090205=
METAR KHQU 081422Z AUTO 30003KT 10SM CLR 32/19 A3005 RMK AO1=
METAR KHSP 081420Z AUTO 07005KT 10SM CLR 27/17 A3027 RMK AO2=
METAR KHWY 081420Z AUTO 11004KT 7SM SCT110 31/22 A3001 RMK AO2=
METAR KIDI 081420Z AUTO 00000KT 7SM CLR 28/21 A3010 RMK AO2=
METAR KIXA 081420Z AUTO 05007KT 10SM CLR 30/21 A2997 RMK AO2 
     T03010212=
METAR KJGG 081420Z AUTO 00000KT 10SM CLR 31/22 A3001 RMK AO1=
METAR KJKA 081420Z AUTO 00000KT 10SM CLR 32/25 A3004 RMK AO2 
     T03200251=
METAR KJYO 081420Z AUTO 06004KT 7SM CLR 32/22 A3002 RMK AO2=
METAR KLDJ 081420Z AUTO 14006KT 5SM HZ SCT010 SCT030 SCT035 27/23 
     A3004 RMK AO2 T02710228=
METAR KLGC 081415Z AUTO 00000KT 10SM CLR 31/21 A3004 RMK AO1=
METAR KLHZ 081420Z AUTO 05005KT 10SM SCT090 32/20 A3000 RMK AO2 
     T03180202=
METAR KLKU 081420Z AUTO 00000KT 7SM CLR 31/21 A3001 RMK AO2=
METAR KLNP 081418Z AUTO 03006KT 10SM CLR 27/18 A3020 RMK AO1=
METAR KLOM 081420Z AUTO 14006KT 7SM SCT020 29/23 A3004 RMK AO1 
     T02920225=
SPECI KMAF 081422Z 05007KT 10SM BKN008 BKN014 OVC024 22/20 A3014 RMK 
    AO2=
METAR KMDQ 081420Z AUTO 00000KT 10SM CLR 30/22 A3009 RMK AO2 
     T03020218=
METAR KMGR 081420Z AUTO 30004KT 10SM CLR 31/18 A3004 RMK AO2=
METAR KMKJ 081420Z AUTO 00000KT 10SM CLR 29/12 A3021 RMK AO1=
METAR KMLJ 081423Z AUTO 00000KT 10SM CLR 31/22 A3002 RMK AO2=
METAR KMQS 081420Z AUTO 12006KT 9SM CLR 29/22 A3007 RMK AO2=
METAR KMRN 081420Z AUTO 31003KT 10SM SCT085 28/16 A3012 RMK AO2=
METAR KMTV 081420Z AUTO 00000KT 7SM CLR 33/21 A3006 RMK AO2=
METAR KOBE 081421Z AUTO 08006KT 10SM SCT026 29/22 A3000 RMK AO2=
METAR KOKV 081420Z AUTO 35005KT 10SM CLR 33/18 A3004 RMK AO2 
     T03290175=
METAR KOMH 081420Z AUTO 02005KT 7SM CLR 31/24 A3004 RMK AO2 
     T03100236=
####018000097####
SPUS81 KWBC 081424
SPECI
KVCT 081421Z 03006KT 6SM -RA BR FEW008 SCT038 BKN050 25/24 A2992=
####018001698####
SAEW KAWN 081400 RRI
METAR EDDB 081420Z 05004KT CAVOK 28/06 Q1020 NOSIG=
METAR EDDC 081420Z VRB03KT CAVOK 27/09 Q1021 NOSIG=
METAR EDDE 081420Z VRB03KT CAVOK 28/10 Q1021 NOSIG=
METAR EDDF 081420Z 20006KT 060V210 CAVOK 31/11 Q1019 NOSIG=
METAR EDDG 081420Z 22007KT CAVOK 31/10 Q1018 NOSIG=
METAR EDDH 081420Z 25006KT CAVOK 29/10 Q1018 NOSIG=
METAR EDDK 081420Z 17006G20KT 150V210 CAVOK 32/10 Q1018 NOSIG=
METAR EDDL 081420Z 20007KT CAVOK 32/08 Q1018 NOSIG=
METAR EDDM 081420Z 10002KT CAVOK 26/11 Q1022 NOSIG=
METAR EDDN 081420Z 12002KT CAVOK 29/07 Q1021 NOSIG=
METAR EDDP 081420Z 23004KT 170V260 CAVOK 28/11 Q1020 NOSIG=
METAR EDDR 081420Z 18005KT 170V300 CAVOK 30/11 Q1020 NOSIG=
METAR EDDS 081420Z 10004KT CAVOK 29/10 Q1021 NOSIG=
METAR EDDT 081420Z 26001KT CAVOK 29/07 Q1020 NOSIG=
METAR EDDV 081420Z 26006KT CAVOK 30/09 Q1018 NOSIG=
METAR EDDW 081420Z 26006KT CAVOK 30/08 Q1018 NOSIG=
METAR EHEH 081425Z AUTO 25004KT 9999NDV FEW350 31/11 Q1018 BLU BLU=
METAR EKAH 081420Z AUTO 24002KT 9999NDV -SHRA SCT037/// BKN095/// 22/15
      Q1019=
METAR EKCH 081420Z 17011KT CAVOK 22/15 Q1020 NOSIG=
METAR EKEB 081420Z AUTO 19008KT 150V220 9999NDV BKN004/// BKN042///
      19/18 Q1018=
METAR EKKA 081420Z 20006KT 160V220 9999 FEW007 FEW010TCU BKN012 19/18
      Q1018=
METAR EKSP 081420Z 26008KT 9999 FEW025 BKN150 BKN250 21/15 Q1019=
METAR ETUO 081350Z 27006KT CAVOK 31/09 Q1018 BLU NOSIG=
METAR LSGG 081420Z 22008KT 190V260 9999 FEW060 BKN250 32/11 Q1021 NOSIG=
METAR LSZA 081420Z 19007KT 9999 FEW055 29/17 Q1021 NOSIG=
METAR LSZB 081420Z 30005KT 250V360 CAVOK 31/11 Q1021 NOSIG=
METAR LSZH 081420Z 10004KT 030V130 CAVOK 29/12 Q1021 NOSIG=
####018001698####
SAEU KAWN 081400 RRX
METAR EDDB 081420Z 05004KT CAVOK 28/06 Q1020 NOSIG=
METAR EDDC 081420Z VRB03KT CAVOK 27/09 Q1021 NOSIG=
METAR EDDE 081420Z VRB03KT CAVOK 28/10 Q1021 NOSIG=
METAR EDDF 081420Z 20006KT 060V210 CAVOK 31/11 Q1019 NOSIG=
METAR EDDG 081420Z 22007KT CAVOK 31/10 Q1018 NOSIG=
METAR EDDH 081420Z 25006KT CAVOK 29/10 Q1018 NOSIG=
METAR EDDK 081420Z 17006G20KT 150V210 CAVOK 32/10 Q1018 NOSIG=
METAR EDDL 081420Z 20007KT CAVOK 32/08 Q1018 NOSIG=
METAR EDDM 081420Z 10002KT CAVOK 26/11 Q1022 NOSIG=
METAR EDDN 081420Z 12002KT CAVOK 29/07 Q1021 NOSIG=
METAR EDDP 081420Z 23004KT 170V260 CAVOK 28/11 Q1020 NOSIG=
METAR EDDR 081420Z 18005KT 170V300 CAVOK 30/11 Q1020 NOSIG=
METAR EDDS 081420Z 10004KT CAVOK 29/10 Q1021 NOSIG=
METAR EDDT 081420Z 26001KT CAVOK 29/07 Q1020 NOSIG=
METAR EDDV 081420Z 26006KT CAVOK 30/09 Q1018 NOSIG=
METAR EDDW 081420Z 26006KT CAVOK 30/08 Q1018 NOSIG=
METAR EHEH 081425Z AUTO 25004KT 9999NDV FEW350 31/11 Q1018 BLU BLU=
METAR EKAH 081420Z AUTO 24002KT 9999NDV -SHRA SCT037/// BKN095/// 22/15
      Q1019=
METAR EKCH 081420Z 17011KT CAVOK 22/15 Q1020 NOSIG=
METAR EKEB 081420Z AUTO 19008KT 150V220 9999NDV BKN004/// BKN042///
      19/18 Q1018=
METAR EKKA 081420Z 20006KT 160V220 9999 FEW007 FEW010TCU BKN012 19/18
      Q1018=
METAR EKSP 081420Z 26008KT 9999 FEW025 BKN150 BKN250 21/15 Q1019=
METAR ETUO 081350Z 27006KT CAVOK 31/09 Q1018 BLU NOSIG=
METAR LSGG 081420Z 22008KT 190V260 9999 FEW060 BKN250 32/11 Q1021 NOSIG=
METAR LSZA 081420Z 19007KT 9999 FEW055 29/17 Q1021 NOSIG=
METAR LSZB 081420Z 30005KT 250V360 CAVOK 31/11 Q1021 NOSIG=
METAR LSZH 081420Z 10004KT 030V130 CAVOK 29/12 Q1021 NOSIG=
####018000075####
SACN94 CWAO 081419
WQV SA 1419 AUTO8 M M M M/20/17/0913/M/M M 60MM=

####018001206####
SAUS20 KNKA 081424
METAR KONX 081420Z AUTO 05007KT 10SM SCT017 28/22 A2999 RMK AO2 
     T02810216=
METAR KOPN 081420Z AUTO 30003KT 10SM CLR 32/24 A3005 RMK AO1=
METAR KPCM 081420Z AUTO 00000KT 10SM SCT022 29/21 A3003 RMK AO2=
METAR KRCZ 081420Z AUTO 01004KT 10SM CLR 31/21 A2998 RMK AO2 
     T03100207=
METAR KRHP 081424Z AUTO 00000KT 10SM CLR 27/19 A3012 RMK AO2=
METAR KRUQ 081421Z AUTO 35005KT 7SM CLR 31/21 A3002 RMK AO2=
METAR KSVH 081420Z AUTO 05007KT 7SM CLR 31/18 A3005 RMK AO2 
     T03100180=
METAR KTBR 081420Z AUTO 33005KT 10SM CLR 31/20 A3000 RMK AO2 
     T03060204=
METAR KTDF 081422Z AUTO 01004KT 7SM CLR 30/19 A3001 RMK AO1=
METAR KTNB 081422Z AUTO 00000KT 10SM CLR 27/16 A3019 RMK AO2=
SPECI KTRL 081422Z AUTO 14007KT 10SM SCT014 BKN044 28/22 A3006 RMK 
    AO2=
METAR KVDI 081423Z AUTO 27005KT 10SM CLR 31/20 A3002 RMK AO1=
METAR KVJI 081422Z AUTO 00000KT 7SM 29/20 A3015 RMK AO2=
METAR KVUJ 081419Z AUTO 01005KT 7SM SCT085 33/21 A2999 RMK AO2=
METAR KVVG 081415Z AUTO 05003KT 28/21 A3002 RMK AO2=
METAR KW22 081420Z AUTO 00000KT 9SM CLR 28/19 A3013 RMK AO2=
METAR KW45 081420Z AUTO 01004KT 10SM CLR 32/19 A3005 RMK AO2 
     T03180192=
####018000122####
SAHW31 KMSC 081424
SPECI PHLI 081423Z 05013KT 10SM -RA BKN025 BKN044 OVC070 24/18 A3004 
    RMK AO2 RAB14 P0000 $=
####018000304####
SAUS20 KNKA 081424
SPECI KCEC 081423Z AUTO 35003KT 2SM BR OVC001 10/09 A2997 RMK AO2=
SPECI KMHT 081423Z 18007KT 8SM SCT022 BKN047 BKN110 28/21 A3006 RMK 
    AO2=
SPECI KOXC 081418Z 17009KT 4SM BR BKN006 OVC015 25/22 A3011=
SPECI KRBD 081423Z 12005KT 10SM SCT009 OVC016 26/24 A3005 RMK AO2=
####018000114####
SAAK41 KNKA 081424
SPECI PAPN 081423Z AUTO 24003KT 9SM SCT009 OVC018 08/08 A2994 RMK 
    AO2 PWINO TSNO $=
####018000527####
SPUS99 KWBC 081425
SPECI
KMAF 081422Z 05007KT 10SM BKN008 BKN014 OVC024 22/20 A3014 RMK
     AO2=
KTRL 081422Z AUTO 14007KT 10SM SCT014 BKN044 28/22 A3006 RMK
     AO2=
PAPN 081423Z AUTO 24003KT 9SM SCT009 OVC018 08/08 A2994 RMK AO2
     PWINO TSNO $=
KCEC 081423Z AUTO 35003KT 2SM BR OVC001 10/09 A2997 RMK AO2=
KMHT 081423Z 18007KT 8SM SCT022 BKN047 BKN110 28/21 A3006 RMK
     AO2=
KOXC 081418Z 17009KT 4SM BR BKN006 OVC015 25/22 A3011=
KRBD 081423Z 12005KT 10SM SCT009 OVC016 26/24 A3005 RMK AO2=
####018003639####
SAUS99 KWBC 081425
METAR
K3A1 081420Z AUTO 36005KT 10SM CLR 30/24 A3011 RMK AO2
     T03000240=
K4A9 081420Z AUTO 03005KT 10SM CLR 30/20 A3007 RMK AO2
     T03040199=
K4R4 081420Z AUTO 00000KT 10SM CLR 31/26 A3004 RMK AO2
     T03120255=
K8A0 081419Z AUTO 05004KT 10SM CLR 30/20 A3008 RMK AO2=
KAFP 081420Z AUTO 01003KT 10SM CLR 31/19 A2998 RMK AO2
     T03120192=
KALX 081420Z AUTO 05003KT 10SM CLR 31/21 A3005 RMK AO1=
KCPC 081420Z AUTO 05008KT 7SM CLR 30/23 A2995 RMK AO2
     T03030227=
KDRI 081420Z AUTO 11006KT 10SM BKN010 27/27 A3005 RMK AO2 LTG DSNT
     SW=
KEHO 081420Z AUTO 05006KT 10SM CLR 31/20 A3004 RMK AO2
     T03130203=
KEYF 081420Z AUTO 00000KT 7SM CLR 31/22 A2996 RMK AO2
     T03070216=
KFFA 081418Z AUTO 06007KT 030V090 10SM CLR 28/22 A2998 RMK AO2
     T02750223=
KGAO 081420Z AUTO 07008KT SCT018 SCT025 SCT029 30/25 A3004 RMK AO2
     PWINO=
KGWW 081420Z AUTO 03005KT 7SM SCT080 SCT095 SCT120 28/22 A2998 RMK
     AO2 T02820216=
KHNZ 081420Z AUTO 04005KT 7SM SCT110 31/21 A3001 RMK AO2
     T03090205=
KHQU 081422Z AUTO 30003KT 10SM CLR 32/19 A3005 RMK AO1=
KHSP 081420Z AUTO 07005KT 10SM CLR 27/17 A3027 RMK AO2=
KHWY 081420Z AUTO 11004KT 7SM SCT110 31/22 A3001 RMK AO2=
KIDI 081420Z AUTO 00000KT 7SM CLR 28/21 A3010 RMK AO2=
KIXA 081420Z AUTO 05007KT 10SM CLR 30/21 A2997 RMK AO2
     T03010212=
KJGG 081420Z AUTO 00000KT 10SM CLR 31/22 A3001 RMK AO1=
KJKA 081420Z AUTO 00000KT 10SM CLR 32/25 A3004 RMK AO2
     T03200251=
KJYO 081420Z AUTO 06004KT 7SM CLR 32/22 A3002 RMK AO2=
KLDJ 081420Z AUTO 14006KT 5SM HZ SCT010 SCT030 SCT035 27/23 A3004
     RMK AO2 T02710228=
KLGC 081415Z AUTO 00000KT 10SM CLR 31/21 A3004 RMK AO1=
KLHZ 081420Z AUTO 05005KT 10SM SCT090 32/20 A3000 RMK AO2
     T03180202=
KLKU 081420Z AUTO 00000KT 7SM CLR 31/21 A3001 RMK AO2=
KLNP 081418Z AUTO 03006KT 10SM CLR 27/18 A3020 RMK AO1=
KLOM 081420Z AUTO 14006KT 7SM SCT020 29/23 A3004 RMK AO1
     T02920225=
KMDQ 081420Z AUTO 00000KT 10SM CLR 30/22 A3009 RMK AO2
     T03020218=
KMGR 081420Z AUTO 30004KT 10SM CLR 31/18 A3004 RMK AO2=
KMKJ 081420Z AUTO 00000KT 10SM CLR 29/12 A3021 RMK AO1=
KMLJ 081423Z AUTO 00000KT 10SM CLR 31/22 A3002 RMK AO2=
KMQS 081420Z AUTO 12006KT 9SM CLR 29/22 A3007 RMK AO2=
KMRN 081420Z AUTO 31003KT 10SM SCT085 28/16 A3012 RMK AO2=
KMTV 081420Z AUTO 00000KT 7SM CLR 33/21 A3006 RMK AO2=
KOBE 081421Z AUTO 08006KT 10SM SCT026 29/22 A3000 RMK AO2=
KOKV 081420Z AUTO 35005KT 10SM CLR 33/18 A3004 RMK AO2
     T03290175=
KOMH 081420Z AUTO 02005KT 7SM CLR 31/24 A3004 RMK AO2
     T03100236=
KONX 081420Z AUTO 05007KT 10SM SCT017 28/22 A2999 RMK AO2
     T02810216=
KOPN 081420Z AUTO 30003KT 10SM CLR 32/24 A3005 RMK AO1=
KPCM 081420Z AUTO 00000KT 10SM SCT022 29/21 A3003 RMK AO2=
KRCZ 081420Z AUTO 01004KT 10SM CLR 31/21 A2998 RMK AO2
     T03100207=
KRHP 081424Z AUTO 00000KT 10SM CLR 27/19 A3012 RMK AO2=
KRUQ 081421Z AUTO 35005KT 7SM CLR 31/21 A3002 RMK AO2=
KSVH 081420Z AUTO 05007KT 7SM CLR 31/18 A3005 RMK AO2
     T03100180=
KTBR 081420Z AUTO 33005KT 10SM CLR 31/20 A3000 RMK AO2
     T03060204=
KTDF 081422Z AUTO 01004KT 7SM CLR 30/19 A3001 RMK AO1=
KTNB 081422Z AUTO 00000KT 10SM CLR 27/16 A3019 RMK AO2=
KVDI 081423Z AUTO 27005KT 10SM CLR 31/20 A3002 RMK AO1=
KVJI 081422Z AUTO 00000KT 7SM 29/20 A3015 RMK AO2=
KVUJ 081419Z AUTO 01005KT 7SM SCT085 33/21 A2999 RMK AO2=
KVVG 081415Z AUTO 05003KT 28/21 A3002 RMK AO2=
KW22 081420Z AUTO 00000KT 9SM CLR 28/19 A3013 RMK AO2=
KW45 081420Z AUTO 01004KT 10SM CLR 32/19 A3005 RMK AO2
     T03180192=
####018000583####
SASN33 ESWI 081420
METAR ESNG 081420Z 11004KT 9999 -RA NSC 15/14 Q1013=
METAR ESNK 081420Z AUTO 20008KT 9999NDV FEW049/// SCT054/// 23/13
Q1011=
METAR ESNN 081420Z AUTO 21005KT 170V240 9999NDV FEW027/// 23/12
Q1012=
METAR ESNO 081420Z 17012KT CAVOK 21/13 Q1013=
METAR ESNQ 081420Z 17012KT 9999 -RA BKN069 15/13 Q1012 REDZ=
METAR ESNS 081420Z AUTO 14008KT 110V180 9999NDV ////// 23/09 Q1013=
METAR ESNU 081420Z 19010KT CAVOK 21/12 Q1013=
METAR ESNZ 081420Z 18007KT CAVOK 20/10 Q1011=
METAR ESUT 081420Z AUTO 31008KT 9999NDV RA SCT040/// BKN053///
OVC064/// 15/09 Q1010=
####018000465####
SAUK31 EGGY 081420
METAR EGBB 081420Z 20007KT 150V250 CAVOK 23/08 Q1017=
METAR EGCC 081420Z 22010KT 9999 SCT046 21/09 Q1017=
METAR EGKK 081420Z 22008KT 170V240 9999 SCT046 26/14 Q1018=
METAR EGLL 081420Z 26010KT 230V290 9999 SCT035 25/14 Q1018=
METAR EGPF 081420Z 22018KT CAVOK 17/09 Q1013=
METAR EGPH 081420Z 24015KT 9999 SCT045 20/07 Q1013=
METAR EGPK 081420Z 24014KT 9999 FEW026 19/09 Q1014=
METAR EGSS 081420Z 21009KT 180V250 9999 SCT035 25/15 Q1018=
####018000136####
SAMX41 MMMX 081424
METAR MMMX 081420Z 00000KT 4SM SCT006 BKN010 OVC020 15/14 A3022
      TEMPO 4SM HZ SCT008 OVC020 RMK 8/7// HZY=
####018000530####
SASN32 ESWI 081420
METAR ESKN 081420Z 23011KT 190V270 9999 SCT049 26/13 Q1017=
METAR ESOE 081420Z 24010KT 9999 FEW043 23/14 Q1017=
METAR ESOK 081420Z 21008KT 9999 SCT030 22/14 Q1017=
METAR ESOW 081420Z 23009KT 9999 BKN042 24/14 Q1017=
METAR ESSA 081420Z 26011KT 9999 SCT045 24/13 Q1016 NOSIG=
METAR ESSB 081420Z 26009KT 230V300 9999 SCT045 26/13 Q1016=
METAR ESSD 081420Z AUTO 24010KT 9999NDV FEW026/// BKN031/// 20/14
Q1016=
METAR ESSP 081420Z 26011KT CAVOK 25/12 Q1017=
METAR ESSV 081420Z 25011KT CAVOK 23/12 Q1019=
####018000148####
SASN34 ESWI 081420
METAR ESDF 081420Z NIL=
METAR ESPA 081420Z 14011KT CAVOK 18/14 Q1015=
METAR ESSL 081420Z 23007KT 190V280 CAVOK 25/12 Q1017=
####018000415####
SAUK35 EGGY 081420
METAR EGHH 081420Z 17011KT 9999 FEW027 22/15 Q1018=
METAR EGKA 081420Z NIL=
METAR EGKB 081420Z 24007KT 210V280 9999 BKN035 25/13 Q1019 =
METAR EGLF 081420Z NIL=
METAR EGMC 081420Z 20006KT 9999 FEW042 26/15 Q1018=
METAR EGMD 081420Z 21010KT 9999 FEW020 21/16 Q1019=
METAR EGMH 081420Z 19009KT 150V240 9999 FEW024 28/14 Q1018 =
METAR EGTC 081420Z 23009KT 190V260 9999 FEW045 22/11 Q1018=
####018000465####
SASN35 ESWI 081420
METAR ESGL 081420Z AUTO 23011KT 9999NDV FEW015/// SCT019/// OVC023///
 19/15 Q1018=
METAR ESGR 081420Z AUTO 22012KT 9999NDV BKN037/// OVC066/// 20/14
Q1018=
METAR ESKM 081420Z NIL=
METAR ESNL 081420Z 15012KT 9999 SCT045 23/10 Q1011=
METAR ESNX 081420Z AUTO 15005KT 9999NDV BKN044/// 16/14 Q1013=
METAR ESNY 081420Z AUTO 23009KT 200V260 9999 FEW047 25/14 Q1014=
METAR ESSF 081420Z NIL=
METAR ESSK 081420Z NIL=
METAR ESUD 081420Z NIL=
####018000378####
SASW32 LSSW 081420
METAR LSGC 081420Z 17004KT 140V200 CAVOK 27/13 Q1024=
METAR LSGS 081420Z 25016KT 9999 FEW120 SCT250 31/13 Q1019=
METAR LSZG 081420Z VRB02KT 9999 FEW050 30/13 Q1020 NOSIG=
METAR LSZR 081420Z 01004KT 340V060 CAVOK 27/13 Q1021 NOSIG RMK K=
METAR LSZS 081420Z 29012KT 240V330 9999 FEW070 25/06 Q1026=
METAR LSZC 081420Z 08004KT 050V110 CAVOK 29/17 Q1021=
####018000384####
SAFI32 EFHK 081420
EFHA 081420Z AUTO 29003KT CAVOK 24/15 Q1014=
EFHF 081420Z 07009G20KT 360V110 9999 VCTS FEW048 BKN055CB 24/18
Q1014=
EFKA 081420Z AUTO 21005KT 150V270 CAVOK 26/10 Q1014=
EFKK 081420Z VRB03KT CAVOK 25/10 Q1014=
EFMA 081420Z 19011KT CAVOK 21/14 Q1016=
EFPO 081420Z AUTO 26006KT 210V300 CAVOK 24/11 Q1015=
EFSI 081420Z AUTO 24005KT 170V320 CAVOK 26/09 Q1014=
####018000526####
SAUK34 EGGY 081420
METAR EGHD 081420Z 19009KT 150V240 9999 FEW030 20/14 Q1019=
METAR EGHE 081420Z NIL=
METAR COR EGHK 081420Z 15006KT 9999 SCT018 18/15 Q1017 NOSIG=
METAR EGHQ 081420Z 29006KT 260V330 9999 FEW028 18/11 Q1018=
METAR EGJA 081420Z 30007KT 280V030 9999 FEW006 19/17 Q1020=
METAR EGJB 081420Z 32006KT 290V350 9999 FEW013 20/16 Q1019=
METAR EGJJ 081420Z 28010KT 240V330 9999 FEW010 21/17 Q1019 NOSIG=
METAR EGTE 081420Z 16015KT 9999 FEW035 21/15 Q1018=
METAR EGTG 081420Z 28007KT 9999 FEW040 21/11 Q1018=
####018000097####
SPUS31 KWBC 081425
SPECI
KDEN 081422Z 02006KT 1 1/2SM BR SCT005 BKN015 OVC039 16/14 A3034=
####018000102####
SAKY31 RUMS 081400 CCA
METAR COR UAFO 081400Z 04003MPS 9999 FEW050 31/14 Q1018 NOSIG RMK
QFEM684=
####018000088####
SAUK31 EGGY 081420 CCA
METAR COR EGCC 081420Z 22010KT 9999 SCT046 21/09 Q1017 NOSIG=
####018000080####
SALY31 HLLT 081430
METAR HLLT 081420Z 35010KT 320V040 8000 SKC 31/19 Q1018=
####018000377####
SAUK33 EGGY 081420
METAR EGGD 081420Z 28006KT 240V320 9999 FEW039 21/10 Q1019=
METAR EGGP 081420Z 25011KT 9999 SCT048 20/09 Q1017=
METAR EGHI 081420Z 22010KT 170V290 9999 FEW028 SCT048 23/14 Q1018 =
METAR EGNS 081420Z NIL=
METAR EGNT 081420Z NIL=
METAR EGNV 081420Z 24017KT 9999 FEW040 21/08 Q1016=
METAR COR EGPB 081420Z 20013KT 9999 FEW030 15/11 Q1008 NOSIG=
####018000105####
SATU20 LTAA 081350 RRC
METAR LTAN 081420Z 32009KT 9999 SCT040 33/07 Q1009 NOSIG RMK RWY19
21010KT=
####018000170####
SADN33 EKCH 081420
METAR EKKA 081420Z 20006KT 160V220 9999 FEW007 FEW010TCU BKN012
19/18 Q1018=
METAR EKSP 081420Z 26008KT 9999 FEW025 BKN150 BKN250 21/15 Q1019=
####018000595####
SASN33 ESWI 081420
METAR ESNG 081420Z 11004KT 9999 -RA NSC 15/14 Q1013=
METAR ESNK 081420Z AUTO 20008KT 9999NDV FEW049/// SCT054/// 23/13
Q1011=
METAR ESNN 081420Z AUTO 21005KT 170V240 9999NDV FEW027/// 23/12
Q1012=
METAR ESNO 081420Z 17012KT CAVOK 21/13 Q1013=
METAR ESNQ 081420Z 17012KT 9999 -RA BKN069 15/13 Q1012 REDZ=
METAR ESNS 081420Z AUTO 14008KT 110V180 9999NDV ////// 23/09 Q1013=
METAR ESNU 081420Z 19010KT CAVOK 21/12 Q1013=
METAR ESNZ 081420Z 18007KT CAVOK 20/10 Q1011=
METAR ESUT 081420Z AUTO 31008KT 9999NDV RA SCT040/// BKN053///
OVC064/// 15/09 Q1010=
####018000392####
SAFI32 EFHK 081420
EFHA 081420Z AUTO 29003KT CAVOK 24/15 Q1014=
EFHF 081420Z 07009G20KT 360V110 9999 VCTS FEW048 BKN055CB 24/18
Q1014=
EFKA 081420Z AUTO 21005KT 150V270 CAVOK 26/10 Q1014=
EFKK 081420Z VRB03KT CAVOK 25/10 Q1014=
EFMA 081420Z 19011KT CAVOK 21/14 Q1016=
EFPO 081420Z AUTO 26006KT 210V300 CAVOK 24/11 Q1015=
EFSI 081420Z AUTO 24005KT 170V320 CAVOK 26/09 Q1014=
####018000498####
SAUK32 EGGY 081420
METAR EGAA 081420Z 21013KT 9999 SCT035 17/10 Q1014=
METAR EGAC 081420Z 20014KT 160V230 9999 FEW033 SCT042 18/11
    Q1014=
METAR EGFF 081420Z 30006KT 270V340 9999 FEW030 20/11 Q1018=
METAR EGGW 081420Z 22007KT 180V250 9999 FEW042 24/12 Q1018=
METAR EGLC 081420Z 24007KT 200V270 9999 SCT040 25/14 Q1018=
METAR EGNM 081420Z 25009KT 9999 SCT040 18/09 Q1017=
METAR EGNX 081420Z 24009KT CAVOK 22/07 Q1017=
METAR EGPD 081420Z 23010KT 9999 FEW048 18/08 Q1011 NOSIG=
####018000089####
SAUK31 EGGY 081420 CCA
METAR COR EGCC 081420Z 22010KT 9999 SCT046 21/09 Q1017 NOSIG=
####018000476####
SASN35 ESWI 081420
METAR ESGL 081420Z AUTO 23011KT 9999NDV FEW015/// SCT019/// OVC023///
 19/15 Q1018=
METAR ESGR 081420Z AUTO 22012KT 9999NDV BKN037/// OVC066/// 20/14
Q1018=
METAR ESKM 081420Z NIL=
METAR ESNL 081420Z 15012KT 9999 SCT045 23/10 Q1011=
METAR ESNX 081420Z AUTO 15005KT 9999NDV BKN044/// 16/14 Q1013=
METAR ESNY 081420Z AUTO 23009KT 200V260 9999 FEW047 25/14 Q1014=
METAR ESSF 081420Z NIL=
METAR ESSK 081420Z NIL=
METAR ESUD 081420Z NIL=
####018000473####
SAUK31 EGGY 081420
METAR EGBB 081420Z 20007KT 150V250 CAVOK 23/08 Q1017=
METAR EGCC 081420Z 22010KT 9999 SCT046 21/09 Q1017=
METAR EGKK 081420Z 22008KT 170V240 9999 SCT046 26/14 Q1018=
METAR EGLL 081420Z 26010KT 230V290 9999 SCT035 25/14 Q1018=
METAR EGPF 081420Z 22018KT CAVOK 17/09 Q1013=
METAR EGPH 081420Z 24015KT 9999 SCT045 20/07 Q1013=
METAR EGPK 081420Z 24014KT 9999 FEW026 19/09 Q1014=
METAR EGSS 081420Z 21009KT 180V250 9999 SCT035 25/15 Q1018=
####018000423####
SAUK35 EGGY 081420
METAR EGHH 081420Z 17011KT 9999 FEW027 22/15 Q1018=
METAR EGKA 081420Z NIL=
METAR EGKB 081420Z 24007KT 210V280 9999 BKN035 25/13 Q1019 =
METAR EGLF 081420Z NIL=
METAR EGMC 081420Z 20006KT 9999 FEW042 26/15 Q1018=
METAR EGMD 081420Z 21010KT 9999 FEW020 21/16 Q1019=
METAR EGMH 081420Z 19009KT 150V240 9999 FEW024 28/14 Q1018 =
METAR EGTC 081420Z 23009KT 190V260 9999 FEW045 22/11 Q1018=
####018000085####
SAUK33 EGGY 081420 RRA
METAR EGNS 081420Z 19011KT 9999 FEW012 16/13 Q1016 NOSIG=
####018000221####
SADN34 EKCH 081420
METAR EKGF 081420Z NIL=
METAR EKHN 081420Z AUTO 19011KT 9999NDV FEW023/// SCT031///
SCT072/// 17/14 Q1020=
METAR EKHR 081420Z AUTO 20010KT 9000NDV FEW003/// SCT008///
BKN027/// 17/17 Q1018=
####018000540####
SASN32 ESWI 081420
METAR ESKN 081420Z 23011KT 190V270 9999 SCT049 26/13 Q1017=
METAR ESOE 081420Z 24010KT 9999 FEW043 23/14 Q1017=
METAR ESOK 081420Z 21008KT 9999 SCT030 22/14 Q1017=
METAR ESOW 081420Z 23009KT 9999 BKN042 24/14 Q1017=
METAR ESSA 081420Z 26011KT 9999 SCT045 24/13 Q1016 NOSIG=
METAR ESSB 081420Z 26009KT 230V300 9999 SCT045 26/13 Q1016=
METAR ESSD 081420Z AUTO 24010KT 9999NDV FEW026/// BKN031/// 20/14
Q1016=
METAR ESSP 081420Z 26011KT CAVOK 25/12 Q1017=
METAR ESSV 081420Z 25011KT CAVOK 23/12 Q1019=
####018000151####
SASN34 ESWI 081420
METAR ESDF 081420Z NIL=
METAR ESPA 081420Z 14011KT CAVOK 18/14 Q1015=
METAR ESSL 081420Z 23007KT 190V280 CAVOK 25/12 Q1017=
####018000075####
SAMJ41 LWOH 081430
METAR LWOH 081430Z 01008KT 9999 BKN050 19/09 Q1019=
####018000535####
SAUK34 EGGY 081420
METAR EGHD 081420Z 19009KT 150V240 9999 FEW030 20/14 Q1019=
METAR EGHE 081420Z NIL=
METAR COR EGHK 081420Z 15006KT 9999 SCT018 18/15 Q1017 NOSIG=
METAR EGHQ 081420Z 29006KT 260V330 9999 FEW028 18/11 Q1018=
METAR EGJA 081420Z 30007KT 280V030 9999 FEW006 19/17 Q1020=
METAR EGJB 081420Z 32006KT 290V350 9999 FEW013 20/16 Q1019=
METAR EGJJ 081420Z 28010KT 240V330 9999 FEW010 21/17 Q1019 NOSIG=
METAR EGTE 081420Z 16015KT 9999 FEW035 21/15 Q1018=
METAR EGTG 081420Z 28007KT 9999 FEW040 21/11 Q1018=
####018000102####
SPUS52 KWBC 081425
SPECI
KCOT 081422Z AUTO 04008KT 10SM -RA SCT009 BKN013 BKN030 26/24
A2992=
####018000087####
SPUS52 KWBC 081425
SPECI
KGAG 081422Z AUTO 04006KT 3SM RA BR OVC005 21/20 A3017=
####018001761####
SAEU KAWN 081400 RRX
METAR EGAA 081420Z 21013KT 9999 SCT035 17/10 Q1014=
METAR EGAC 081420Z 20014KT 160V230 9999 FEW033 SCT042 18/11 Q1014=
METAR EGBB 081420Z 20007KT 150V250 CAVOK 23/08 Q1017=
METAR EGCC 081420Z 22010KT 9999 SCT046 21/09 Q1017=
METAR EGFF 081420Z 30006KT 270V340 9999 FEW030 20/11 Q1018=
METAR EGGW 081420Z 22007KT 180V250 9999 FEW042 24/12 Q1018=
METAR EGHD 081420Z 19009KT 150V240 9999 FEW030 20/14 Q1019=
METAR EGJA 081420Z 30007KT 280V030 9999 FEW006 19/17 Q1020=
METAR EGJB 081420Z 32006KT 290V350 9999 FEW013 20/16 Q1019=
METAR EGJJ 081420Z 28010KT 240V330 9999 FEW010 21/17 Q1019 NOSIG=
METAR EGKK 081420Z 22008KT 170V240 9999 SCT046 26/14 Q1018=
METAR EGLC 081420Z 24007KT 200V270 9999 SCT040 25/14 Q1018=
METAR EGLL 081420Z 26010KT 230V290 9999 SCT035 25/14 Q1018=
METAR EGMC 081420Z 20006KT 9999 FEW042 26/15 Q1018=
METAR EGMD 081420Z 21010KT 9999 FEW020 21/16 Q1019=
METAR EGNM 081420Z 25009KT 9999 SCT040 18/09 Q1017=
METAR EGNX 081420Z 24009KT CAVOK 22/07 Q1017=
METAR EGPD 081420Z 23010KT 9999 FEW048 18/08 Q1011 NOSIG=
METAR EGPF 081420Z 22018KT CAVOK 17/09 Q1013=
METAR EGPH 081420Z 24015KT 9999 SCT045 20/07 Q1013=
METAR EGPK 081420Z 24014KT 9999 FEW026 19/09 Q1014=
METAR EGSS 081420Z 21009KT 180V250 9999 SCT035 25/15 Q1018=
METAR EGTC 081420Z 23009KT 190V260 9999 FEW045 22/11 Q1018=
METAR EGTE 081420Z 16015KT 9999 FEW035 21/15 Q1018=
METAR EGTG 081420Z 28007KT 9999 FEW040 21/11 Q1018=
METAR EKBI 081420Z 20006KT 160V230 9999 -SHRA FEW013 BKN055 BKN100
      19/18 Q1019=
METAR EKRK 081420Z AUTO 27011KT 9999NDV -RA BKN050/// 20/16 Q1020=
METAR EKRN 081420Z AUTO 18004KT 9999NDV NCD 21/14 Q1022=
METAR EKYT 081420Z 23007KT 5000 -RA FEW010 BKN022 18/18 Q1018=
####018001779####
SAUK KAWN 081400 RRE
METAR EGAA 081420Z 21013KT 9999 SCT035 17/10 Q1014=
METAR EGAC 081420Z 20014KT 160V230 9999 FEW033 SCT042 18/11 Q1014=
METAR EGBB 081420Z 20007KT 150V250 CAVOK 23/08 Q1017=
METAR EGCC 081420Z 22010KT 9999 SCT046 21/09 Q1017=
METAR EGFF 081420Z 30006KT 270V340 9999 FEW030 20/11 Q1018=
METAR EGGP 081420Z 25011KT 9999 SCT048 20/09 Q1017=
METAR EGGW 081420Z 22007KT 180V250 9999 FEW042 24/12 Q1018=
METAR EGHD 081420Z 19009KT 150V240 9999 FEW030 20/14 Q1019=
METAR EGHH 081420Z 17011KT 9999 FEW027 22/15 Q1018=
METAR EGHI 081420Z 22010KT 170V290 9999 FEW028 SCT048 23/14 Q1018=
METAR EGJA 081420Z 30007KT 280V030 9999 FEW006 19/17 Q1020=
METAR EGJB 081420Z 32006KT 290V350 9999 FEW013 20/16 Q1019=
METAR EGJJ 081420Z 28010KT 240V330 9999 FEW010 21/17 Q1019 NOSIG=
METAR EGKB 081420Z 24007KT 210V280 9999 BKN035 25/13 Q1019=
METAR EGKK 081420Z 22008KT 170V240 9999 SCT046 26/14 Q1018=
METAR EGLC 081420Z 24007KT 200V270 9999 SCT040 25/14 Q1018=
METAR EGLL 081420Z 26010KT 230V290 9999 SCT035 25/14 Q1018=
METAR EGMC 081420Z 20006KT 9999 FEW042 26/15 Q1018=
METAR EGMD 081420Z 21010KT 9999 FEW020 21/16 Q1019=
METAR EGMH 081420Z 19009KT 150V240 9999 FEW024 28/14 Q1018=
METAR EGNM 081420Z 25009KT 9999 SCT040 18/09 Q1017=
METAR EGNX 081420Z 24009KT CAVOK 22/07 Q1017=
METAR EGPD 081420Z 23010KT 9999 FEW048 18/08 Q1011 NOSIG=
METAR EGPF 081420Z 22018KT CAVOK 17/09 Q1013=
METAR EGPH 081420Z 24015KT 9999 SCT045 20/07 Q1013=
METAR EGPK 081420Z 24014KT 9999 FEW026 19/09 Q1014=
METAR EGSS 081420Z 21009KT 180V250 9999 SCT035 25/15 Q1018=
METAR EGTC 081420Z 23009KT 190V260 9999 FEW045 22/11 Q1018=
METAR EGTE 081420Z 16015KT 9999 FEW035 21/15 Q1018=
METAR EGTG 081420Z 28007KT 9999 FEW040 21/11 Q1018=
####018000091####
SPUS53 KWBC 081425
SPECI
KSPI 081422Z 29004KT 10SM FEW008 BKN018 OVC026 26/23 A3006=
####018000105####
SATU20 LTAA 081350 RRB
METAR LTCC 081420Z 15008KT 110V190 CAVOK 40/02 Q1005 NOSIG RMK RWY16 19012KT=
####018000094####
SPEW35 LEMM 081424
SPECI LETO 081424Z 23004KT 160V320 9999 FEW040CB 34/07 Q1017 
NOSIG=
####018000300####
SATU20 LTAA 081350 RRA
METAR LTAU 081420Z 28008KT 250V310 9999 SCT040 33/11 Q1008 TEMPO FM1600 -TSRA RMK RWY07 26008KT=
METAR LTBR 081420Z 31014KT 9999 SCT035TCU BKN100 23/18 Q1012 TEMPO -TSRA RMK RWY07 28011KT=
METAR LTBU 081420Z 31015KT 9999 SCT025TCU BKN100 16/14 Q1014 RMK RWY23 29016KT=
####018000097####
SPUS73 KWBC 081425
SPECI
KDEN 081422Z 02006KT 1 1/2SM BR SCT005 BKN015 OVC039 16/14 A3034=
####018001138####
SADL51 ETGT 081420
METAR
EDHK 081420Z 25007KT 9999 FEW060 BKN120 BKN250 28/10 Q1019
      BLU BLU=
ETGG 081420Z 27013KT 9999 BKN100 24/16 Q1019
      BLU=
ETGY 081420Z 34003KT 9999 FEW080 BKN250 32/08 Q1018
      BLU+=
ETHB 081420Z 22004KT 9999 FEW080 BKN250 31/10 Q1018
      BLU+BLU+=
ETHC 081420Z 22007KT 9999 FEW070 SCT240 31/09 Q1018
      BLU+BLU+=
ETHE 081420Z 26007KT 9999 FEW070 BKN300 31/09 Q1018
      BLU+BLU+=
ETHF 081420Z 21005KT 9999 FEW300 29/10 Q1020
      BLU+BLU+=
ETHS 081420Z 18005KT 9999 FEW070 31/07 Q1018
      BLU+BLU+=
ETMN 081420Z 36005KT 9999 SCT120 BKN270 29/12 Q1018
      BLU+BLU+ TEMPO BLU=
ETND NIL=
ETNH 081420Z 28009KT 9999 FEW060 BKN110 28/10 Q1019
      BLU BLU+ TEMPO BLU=
ETNJ NIL=
ETNL 081420Z 19006KT 9999 SCT100 29/10 Q1019
      BLU+FCST CANCEL=
ETNS NIL=
ETNT NIL=
ETNU 081420Z 27004KT 9999 SCT150 27/10 Q1020
      BLU+=
ETNW 081420Z 21005KT 9999 FEW070 BKN300 31/10 Q1018
      BLU+BLU+=
ETSH 081420Z 13005KT 9999 FEW150 SCT250 29/06 Q1020
      BLU+BLU+=
ETWM 081420Z 27007KT 9999 FEW070 BKN210 31/10 Q1018
      BLU+=
####018000104####
SAKY31 RUMS 081400 CCA
METAR COR UAFO 081400Z 04003MPS 9999 FEW050 31/14 Q1018 NOSIG RMK
QFEM684=
####018000091####
SPUS73 KWBC 081425
SPECI
KSPI 081422Z 29004KT 10SM FEW008 BKN018 OVC026 26/23 A3006=
####018000096####
SPCN47 CWAO 081423
SPECI CYTL 081423Z AUTO 26006KT 9SM FEW015 FEW084 SCT097 19/15 A2977=

####018000117####
SAUS41 KCAR 081425
MTR40B
METAR K40B 081425Z AUTO 19010G14KT 30/22 A3001 RMK AO1 SLP150
     T02970215 57007
####018000180####
SAUS44 KCRP 081425 COR
MTRCRP
SPECI KCRP 081420Z 05016G21KT 3/4SM +RA BR FEW009 BKN021CB OVC040 
26/25 A2987 RMK AO2 RAB1356 CB OHD-N-E-SE MOV NW TCU DSNT NE S SW 
P0011
####018000354####
SPNA35 KAWN 081425 RRA
SPECI KACY 081420Z 10004KT 1 3/4SM +RA BR SCT019 BKN065 24/23 A3006
      RMK AO2 VIS 1V3 P0002=
SPECI KNGP 081421Z 07006KT 10SM -RA FEW012 SCT019CB SCT030 27/26 A2985
      RMK AO2 CB DSNT N TCU DSNT E-SE AND SW-W WR// P0000 $=
SPECI TTPP 081415Z 00000KT 2000 TSRA FEW004 ST010CB BKN035 26/25 Q1013
      CB SE/ENE=
####018000399####
SANO33 ENMI 081420
METAR ENAT 081420Z NIL=
METAR ENBL 081420Z NIL=
METAR ENFL 081420Z 20014KT 160V250 9999 FEW013 FEW040TCU 16/12
           Q1012=
METAR ENKB 081420Z 31005KT 280V350 9999 FEW065TCU SCT095 16/10
           Q1011=
METAR ENKR 081420Z NIL=
METAR ENML 081420Z 32009KT 9999 VCSH FEW040 BKN060 20/09 Q1010=
METAR ENNA 081420Z 16009KT 9999 FEW045CB SCT070 23/09 Q1012 =
####018000203####
SANO37 ENMI 081420
METAR ENNO 081420Z NIL=
METAR ENOV 081420Z NIL=
METAR ENSD 081420Z NIL=
METAR ENSG 081420Z NIL=
METAR ENSN 081420Z NIL=
METAR ENSR 081420Z NIL=
METAR ENSS 081420Z NIL=
####018000203####
SANO34 ENMI 081420
METAR ENBN 081420Z NIL=
METAR ENBV 081420Z NIL=
METAR ENDI 081420Z NIL=
METAR ENFG 081420Z NIL=
METAR ENHF 081420Z NIL=
METAR ENRA 081420Z NIL=
METAR ENSH 081420Z NIL=
####018000221####
SANO38 ENMI 081420
METAR ENDR 081420Z NIL=
METAR ENEK 081420Z NIL=
METAR ENGC 081420Z 19025KT CAVOK 13/11 Q1009=
METAR ENHE 081420Z 20026KT CAVOK 15/11 Q1009=
METAR ENOA 081420Z NIL=
METAR ENSL 081420Z NIL=
####018000709####
SADL34 EDZO 081420
METAR EDAC 081420Z 01004KT 300V060 CAVOK 27/12 Q1021=
METAR EDAH 081420Z 15005KT 120V190 CAVOK 25/10 Q1021=
METAR EDGS 081420Z 19008KT 120V260 CAVOK 26/10 Q1022=
METAR EDHL 081420Z 27006KT 220V310 CAVOK 29/13 Q1018=
METAR EDJA 081420Z VRB03KT CAVOK 28/11 Q1022=
METAR EDLN 081420Z 21006KT 140V270 CAVOK 32/10 Q1018=
METAR EDLP 081420Z VRB03KT CAVOK 32/11 Q1019=
METAR EDLW 081420Z 25008KT 210V290 CAVOK 31/11 Q1019=
METAR EDMA 081420Z 01004KT 280V080 CAVOK 28/09 Q1021=
METAR EDQM 081420Z VRB04KT CAVOK 26/09 Q1023=
METAR EDRZ 081420Z 18004KT 110V230 CAVOK 31/12 Q1020=
METAR EDSB 081420Z VRB04KT CAVOK 32/10 Q1019=
METAR EDXW 081420Z 22006KT CAVOK 20/15 Q1019=
####018001506####
SPZZ40 KAWN 081425 RRD
SPECI CYHU 081420Z AUTO 22005KT 190V270 9SM FEW008 30/23 A2999 RMK
      SLP155 DENSITY ALT 1700FT RVR MISG=
SPECI CYRT 081421Z 07010KT 3SM -DZ BR OVC003 RMK ST8 VIS VRB 1-5=
SPECI CYTS 081418Z 32008KT 2SM -SHRA SCT004 BKN022 OVC032 RMK SF3SC2SC2=
SPECI CYZE 081420Z AUTO 22007KT 9SM -RA FEW015 SCT048 SCT081 OVC092
      21/20 A2998 RMK SLP154 DENSITY ALT 1400FT=
SPECI EDHK 081422Z 25007KT 9999 FEW060 BKN120 BKN250 28/10 Q1019 BLU
      BLU=
SPECI EHWO 081421Z AUTO 28007KT 9999NDV FEW380 29/14 Q1018 BLU=
SPECI KHOP 081417Z AUTO 26005KT 10SM CLR 31/22 A3009 RMK AO2 DZB1416E1417
      SLP184=
SPECI KHOP 081421Z AUTO 26004KT 10SM -DZ CLR 31/23 A3009 RMK AO2 DZB1416
      SLP184=
SPECI KLTS 081413Z AUTO 34005KT 10SM -DZ FEW005 23/23 A3009 RMK AO2
      RAE1409DZB1409 SLP176 VISNO RWY35L CHINO RWY35L $=
SPECI KNGP 081421Z 07006KT 10SM -RA FEW012 SCT019CB SCT030 27/26 A2985
      RMK AO2 CB DSNT N TCU DSNT E-SE AND SW-W WR// P0000 $=
SPECI KNQI 081421Z 04007KT 6SM -RA BKN010CB BKN085 BKN280 28/26 A2986
      RMK AO2 RAB21 CB DSNT NE AND E-SE AND NW P0000 $=
SPECI RKJK 081418Z 07004KT 1200 R36/0550V0650 -RA FEW120 24/21 A2979
      RMK AO2A RAB1418 SLP088 $=
SPECI RKJK 081419Z 07004KT 1600 R36/0550V0650 -RA FEW120 24/21 A2979
      RMK AO2A RAB1418 SLP088 $=
SPECI TTPP 081415Z 00000KT 2000 TSRA FEW004 ST010CB BKN035 26/25 Q1013
      CB SE/ENE=
SPECI YBRM 081420Z AUTO 01004KT 7000NDV // BKN024 OVC029 22/21 Q1012=
####018000511####
SANO32 ENMI 081420
METAR ENAL 081420Z 23018KT 9999 SCT048TCU 17/09 Q1010=
METAR ENCN 081420Z 19011KT 9999 FEW015 BKN120 18/15 Q1016=
METAR ENHD 081420Z 21012KT 9999 FEW030 16/12 Q1015=
METAR ENRO 081420Z 14007KT 110V230 9999 SCT045 BKN110 17/09 Q1011=
METAR ENRY 081420Z 18009KT 150V210 9999 -RA BKN007 17/15 Q1016=
METAR ENSB 081420Z NIL=
METAR ENTC 081420Z 01008KT 9999 VCSH FEW055 BKN085 18/08 Q1010 TEMPO
           SHRA FEW030CB=
METAR ENTO 081420Z 20012KT 9000 -DZ BKN005 16/15 Q1016=
