####018000139####
SACN46 CWAO 081100 CCB
METAR CYXZ 081100Z CCA 00000KT 15SM SCT003 BKN040 OVC080 17/17 A2996
RMK ST3SC2AS2 /R20 AFT 00UTC/ SLP148=

####018000085####
SABC40 FBSK 081100 RRB
METAR FBSK 081100Z 06008KT 9999 BKN020 19/08 Q1031 NOSIG=
####018000133####
SAUS44 KMAF 081110
MTRGDP
SPECI KGDP 081109Z AUTO 05026KT 1/4SM FG BKN005 OVC060 16/16 A3021 
RMK AO2 PK WND 05028/1107 TSNO
####018000741####
SPUS99 KWBC 081111
SPECI
KHBR 081108Z AUTO 06003KT 6SM BR FEW004 OVC070 23/22 A3008 RMK AO2
     TSE02=
KLFT 081108Z 08003KT 10SM BKN004 25/23 A3000 RMK AO2=
KLNR 081108Z AUTO 00000KT 3/4SM BR OVC002 21/20 A3004 RMK AO2=
KMKG 081108Z 12003KT 1 3/4SM RA BR SCT036 BKN070 OVC095 23/22
     A3002 RMK AO2 RAB02 P0001 $=
KOWD 081108Z 14004KT 10SM FEW018 23/19 A3009 RMK AO2=
KSTC 081108Z AUTO 00000KT 1/2SM FG CLR 13/12 A3009 RMK AO2=
KARB 081109Z AUTO 00000KT 6SM BR CLR 21/20 A3004 RMK AO2=
KDVN 081109Z AUTO 30005KT 2 1/2SM BR OVC007 22/21 A3005 RMK AO2
     CIG 003V010=
KFRG 081109Z 16005KT 9SM BKN006 OVC010 24/23 A3005 RMK AO2 CIG
     004V009=
KORF 081107Z 11006KT 10SM SCT010 BKN110 26/23 A2997 RMK AO2=
####018003733####
SAUS99 KWBC 081111
METAR
KGWB 081105Z AUTO 00000KT 3SM HZ CLR 22/17 A3006 RMK AO2=
KGYB 081105Z AUTO 07005KT 7SM BKN008 BKN014 OVC095 25/24 A2998 RMK
     AO2 T02500240=
KGYI 081104Z AUTO 14005KT 10SM SCT024 25/24 A3004 RMK AO2 LTG DSNT
     N T02500236=
KHBV 081100Z AUTO 35004KT 10SM SCT005 SCT012 BKN017 25/24 A2987
     RMK AO2 T02500236=
KHHF 081105Z AUTO 36004KT 10SM -RA SCT036 BKN050 21/20 A3013 RMK
     AO2 T02110195=
KHRX 081105Z AUTO 36009KT 7SM BKN007 OVC010 17/16 A3022 RMK AO2
     T01690161=
KHSB 081105Z AUTO 00000KT 4SM BR CLR 22/21 A3005 RMK AO2=
KIJX 081105Z AUTO 00000KT 2SM -DZ CLR 23/23 A3004 RMK AO2
     T02330226=
KINJ 081105Z AUTO 08005KT 4SM BR SCT028 25/23 A3001 RMK AO2
     T02460228=
KJAS 081106Z AUTO 07003KT 7SM SCT009 25/24 A3002 RMK AO2
     T02450236=
KJDD 081105Z AUTO 00000KT 4SM BR OVC002 24/24 A3004 RMK AO2=
KJSO 081110Z AUTO 09003KT 5SM BR BKN001 23/23 A3004 RMK AO2 LTG
     DSNT N T02330233=
KJXI 081105Z AUTO 00000KT OVC002 24/24 A3005 RMK AO2=
KLNC 081105Z AUTO 11003KT 10SM SCT007 BKN012 BKN110 24/24 A3001
     RMK AO2 T02440242=
KOLY 081103Z AUTO 00000KT 2 1/2SM BR CLR 23/22 A3005 RMK AO2=
KPEQ 081104Z AUTO RMK AO2 PWINO=
KPNT 081105Z AUTO 00000KT 2SM BR SCT007 OVC048 22/22 A3004 RMK
     AO2=
KPRG 081105Z AUTO 00000KT 4SM BR BKN120 22/21 A3005 RMK AO2
     T02200215=
KRCR 081107Z AUTO 15003KT 7SM CLR 25/22 A3005 RMK AO2=
KRPJ 081105Z AUTO 00000KT 3SM BR BKN007 OVC013 21/20 A3004 RMK AO2
     T02100199=
KRSV 081102Z AUTO 00000KT 4SM BR CLR 23/23 A3006 RMK AO2
     T02330225=
KSLR 081102Z AUTO 11003KT 7SM SCT007 OVC037 25/24 A3005 RMK AO2
     LTG DSNT N T02500235=
KSNK 081106Z AUTO 02008KT 7SM BKN003 OVC008 21/20 A3009 RMK AO2
     T02080200=
KSOA 081100Z AUTO 36003KT 8SM 22/21 A3007 RMK AO2=
KSWW 081105Z AUTO 03005KT 3/4SM OVC002 21/21 A3010 RMK AO1
     T02130210=
KT65 081105Z AUTO 35004KT 10SM SCT046 BKN055 BKN065 26/25 A2978
     RMK AO2 T02550245=
KT82 081105Z AUTO 09003KT 23/22 A3002 RMK AO1 T02250216=
KUVA 081105Z AUTO 05005KT 10SM OVC023 24/23 A2996 RMK AO2
     T02410230=
K11R 081106Z AUTO 05004KT 7SM SCT080 24/23 A2995 RMK AO2 LTG DSNT
     N AND SE=
K5C1 081106Z AUTO 05003KT 7SM BKN007 BKN011 OVC017 24/23 A2999 RMK
     AO1=
KCCA 081115Z AUTO 00000KT 7SM OVC006 23/23 A3007 RMK AO2=
KCDN 081115Z AUTO 00000KT 10SM CLR 24/20 A3000 RMK A02 P000=
KCKI 081115Z AUTO 00000KT 22/21 A2996 RMK AO2 PWINO=
KJWY 081105Z AUTO 12004KT 7SM 25/23 A3002 RMK AO2 T02450227=
KLBR 081105Z AUTO 00000KT 5SM OVC002 24/23 A3004 RMK AO2
     T02390230=
KLHB 081104Z AUTO 07004KT 5SM BR SCT009 25/23 A2997 RMK AO2
     T02490231=
KLRO 081115Z AUTO 00000KT 7SM CLR 23/19 A2996 RMK AO2=
KLUD 081105Z AUTO 00000KT 10SM CLR 24/23 A3003 RMK AO2
     T02400225=
KM30 081106Z AUTO 00000KT 10SM SCT120 22/21 A3006 RMK AO2=
KMDD 081100Z AUTO 02005KT 7SM BKN002 BKN110 22/21 A3008 RMK AO2
     T02150205=
KMKN 081100Z AUTO 00000KT 10SM 23/23 A3004 RMK AO2=
KMKS 081115Z AUTO 00000KT 7SM CLR 22/20 A2996 RMK AO2 TSNO=
KMNZ 081109Z AUTO 12004KT 10SM OVC009 24/24 A3002 RMK AO2
     T02430240=
KMQB 081105Z AUTO 28004KT 5SM BR OVC004 23/23 A3006 RMK AO2
     T02300226=
KMWA 081105Z AUTO 18003KT 10SM SCT100 24/23 A3007 RMK AO2
     T02420232=
KMZZ 081055Z AUTO 00000KT 5SM BR BKN110 22/20 A3006 RMK AO2=
KOSA 081104Z AUTO 00000KT 5SM CLR 24/24 A3005 RMK AO1
     T02430238=
KPEZ 081105Z AUTO 02004KT 10SM OVC009 25/24 A2992 RMK AO2
     T02500235=
KPKV 081106Z AUTO 08003KT 7SM -RA SCT020 BKN040 OVC070 24/22 A2986
     RMK AO2 T02430224=
KPPA 081105Z AUTO 36007KT 10SM SCT005 BKN060 BKN080 17/16 A3019
     RMK AO2=
####018000839####
SAUS99 KWBC 081111 RRA
METAR
KPSN 081105Z AUTO 09006KT 7SM 24/23 A3002 RMK AO2 T02410232=
KPYX 081110Z AUTO 01006KT 7SM BKN090 OVC110 19/18 A3018 RMK AO2
     T01850175=
KRAS 081105Z AUTO 13007KT 8SM SCT013 BKN025 OVC038 28/26 A2985 RMK
     AO2=
KRBO 081105Z AUTO 01005KT 10SM CLR 26/25 A2983 RMK AO2 LTG DSNT NE
     T02600248=
KRFI 081105Z AUTO 00000KT 7SM CLR 24/23 A3002 RMK AO2
     T02360226=
KRPH 081105Z AUTO 00000KT 10SM CLR 22/21 A3002 RMK AO2
     T02210209=
KRWV 081100Z AUTO 00000KT 8SM BKN008 24/24 A2999 RMK AO2=
KRYW 081105Z AUTO 10007KT 1 1/4SM +RA BKN002 OVC011 23/22 A2999
     RMK AO2 P0005=
KSAR 081105Z AUTO 19005KT 7SM OVC065 26/23 A3005 RMK AO2=
KSEP 081105Z AUTO 00000KT 10SM SCT011 BKN032 BKN080 23/22 A3003
     RMK AO1=
KSLO 081103Z AUTO 19003KT 10SM CLR A3005 RMK AO2=
####018001519####
SARS18 KAWN 081100 RRD
METAR UHHH 081100Z 02004MPS 9999 SCT033CB OVC100 17/15 Q1010 NOSIG
      RMK QFE751/1002 55090060=
METAR UHMM 081100Z 26002MPS 9999 OVC007 12/11 Q1016 RMK QFE747 88010070
      MT OBSC=
METAR UHNN 081100Z 05002MPS 9999 -SHRA FEW010 BKN024CB OVC070 11/10
      Q1013 RMK QFE755=
METAR UHPP 081100Z VRB01MPS 9999 FEW010 07/05 Q1018 NOSIG RMK QBB300
      QFE760/1013 SC070=
METAR UHSS 081100Z 00000MPS 9999 BKN018 13/12 Q1011 NOSIG RMK MT OBSC
      QFE757/1009 19CLRD70=
METAR UHWW 081100Z 18003MPS 9999 SCT013 BKN023 OVC090 17/14 Q1011 NOSIG
      RMK QFE757/1009 75CLRD70=
METAR UIAA 081100Z 12004MPS 070V190 9999 VCTS BKN040CB OVC100 24/11
      Q1007 NOSIG RMK QFE697 29CLRD70=
METAR UIBB 081100Z 06003MPS 9999 BKN200 27/13 Q1006 NOSIG RMK QFE711/0949
      30CLRD60=
METAR UIII 081100Z VRB01MPS CAVOK 21/13 Q1006 NOSIG RMK QFE712/0950
      12CLRD60=
METAR UIUU 081100Z 00000MPS 9999 SCT033CB OVC100 22/13 Q1007 NOSIG
      RMK QFE711/0948=
METAR ULWW 081100Z 15005MPS 9999 SCT050TCU BKN/// 32/16 Q1016 NOSIG
      RMK QFE751 15CLRD60=
METAR URKA 081100Z 08004MPS 9999 SCT026 29/19 Q1012 NOSIG RMK 065=
METAR URMM 081100Z 11006G09MPS 9999 BKN043 31/19 Q1012 NOSIG RMK /
      SC070=
METAR URSS 081100Z 28004MPS 9999 FEW040 28/20 Q1010 NOSIG RMK / QFE756
      06CLRD70=
METAR UUEE 081100Z 17004MPS 9999 SCT050CB BKN200 28/14 Q1015 NOSIG=
METAR UWPP 081100Z 12005MPS 9999 SCT033 BKN100 32/09 Q1014 NOSIG RMK
      QFE746 11090060=
####018000092####
SAUK51 EGGY 081050 RRC
METAR EGXT 081050Z 23012KT 9999 FEW025 SCT012 BKN250 20/07 Q1018=
####018000380####
SARA33 RUMS 081100
METAR UIAA 081100Z 12004MPS 070V190 9999 VCTS BKN040CB OVC100 24/11
Q1007 NOSIG RMK     QFE697 29CLRD70=
METAR UIBB 081100Z 06003MPS 9999 BKN200 27/13 Q1006 NOSIG RMK
QFE711/0949 30CLRD60=
METAR UIII 081100Z VRB01MPS CAVOK 21/13 Q1006 NOSIG RMK QFE712/0950
12CLRD60=
METAR UIUU 081100Z 00000MPS 9999 SCT033CB OVC100 22/13 Q1007 NOSIG
RMK QFE711/0948=
####018000490####
SARA31 RUMS 081100
METAR UEEE 081100Z 13001MPS 9999 SCT050CB OVC100 21/13 Q1007 NOSIG
RMK QFE747 2309//60=
METAR UELL 081100Z VRB01MPS 9999 VCFG BKN026CB OVC200 13/12 Q1012
TEMPO 0600 FG VV003 RMK QFE684 08CLRD70=
METAR UERP 081100Z 01004MPS 9999 BKN033CB BKN100 16/06 Q1014 NOSIG
RMK QFE717 35090065=
METAR UERR 081100Z 33002MPS 9999 BKN020CB OVC200 15/14 Q1012 NOSIG
RMK QFE728 24290255=
METAR UESO 081100Z NIL=
METAR UEST 081100Z 11002MPS CAVOK 05/03 Q1017 NOSIG RMK QFE762=
####018000397####
SARA35 RUMS 081100
METAR ULDD 081100Z NIL=
METAR UOHH 081100Z 02003MPS 9999 FEW030 SCT/// 12/03 Q1023 NOSIG RMK
QFE761 06090060=
METAR UOII 081100Z 16004MPS 9999 SCT033CB BKN040 24/14 Q1006 TEMPO
-TSRA RMK QFE752 30////60=
METAR UOOO 081100Z 03009G10MPS CAVOK 23/10 Q1010 NOSIG RMK QFE743
010///60=
METAR USCM 081100Z 07004MPS 020V150 9999 FEW050 27/01 Q1015 NOSIG
01090065 RMK QFE722=
####018000943####
SARS31 RUMS 081100
METAR ULAA 081100Z 33003G06MPS 270V020 9999 FEW030CB 27/17 Q1015
TEMPO VRB14MPS TSRA RMK QFE760/1013 SC070=
METAR ULKK 081100Z 31002MPS 6000 SCT033 SCT099 32/16 Q1015 NOSIG RMK
QFE757=
METAR ULMM 081100Z 00000MPS 9999 BKN023 15/08 Q1018 NOSIG RMK QFE756
32190060=
METAR ULOL 081100Z NIL=
METAR ULOO 081100Z VRB02MPS P6000 SCT033 BKN200 28/18 Q1012 NOSIG RMK
QFE755=
METAR ULWW 081100Z 15005MPS 9999 SCT050TCU BKN/// 32/16 Q1016 NOSIG
RMK QFE751 15CLRD60=
METAR UMKK 081100Z 30007MPS P8000 FEW030 SCT200 22/15 Q1020 NOSIG RMK
QFE 764 SC07=
METAR UUBP 081100Z 00000MPS 9999 BKN033CB BKN/// 28/16 Q1013 NOSIG=
METAR UUOB 081100Z 21004MPS 9999 SCT040 BKN200 28/16 Q1014 NOSIG RMK
SC065=
METAR UUOK 081100Z 12002MPS 9999 BKN026 28/16 Q1012 NOSIG=
METAR UUOO 081100Z VRB01MPS 9999 SCT033 30/14 Q1014 NOSIG RMK
13090070=
METAR UWGG 081100Z 10003MPS 040V220 8000 FEW033 34/09 Q1016 NOSIG RMK
QFE755 18090070=
####018000775####
SARA34 RUMS 081100
METAR UNAA 081100Z 08003MPS 040V100 9999 SCT030CB BKN100 19/12 Q1011
RMK QFE736 202///55=
METAR UNBB 081100Z 19007MPS 9999 -SHRA BKN019CB 15/08 Q1010 NOSIG RMK
QFE735=
METAR UNEE 081100Z 27005MPS 9999 SCT026 BKN200 18/13 Q1008 NOSIG RMK
QFE734 23CLRD60=
METAR UNKL 081100Z 00000MPS 9999 SCT023CB OVC083 18/12 Q1010 NOSIG
RMK QFE732 29////60=
METAR UNNT 081100Z 24006MPS 9999 BKN060CB OVC100 20/01 Q1007 WS RWY25
NOSIG RMK QFE745/0994 25090070=
METAR UNOO 081100Z 33003MPS 9999 BKN025CB 13/10 Q1008 NOSIG 25CLRD06
RMK QFE748=
METAR UNWW 081100Z NIL=
METAR USTR 081100Z 34006G09MPS 9999 SCT046 19/05 Q1012 NOSIG RMK
QFE749/0999 30CLRD65=
METAR USHH 081100Z 32002G05MPS 280V010 9000 -SHRA SCT016CB OVC080
11/09 Q1009 NOSIG RMK QFE753 SC06=
####018000646####
SARA32 RUMS 081100
METAR UHHH 081100Z 02004MPS 9999 SCT033CB OVC100 17/15 Q1010 NOSIG
RMK QFE751/1002 55090060=
METAR UHMA 081100Z NIL=
METAR UHMM 081100Z 26002MPS 9999 OVC007 12/11 Q1016 RMK QFE747
88010070 MT OBSC=
METAR UHMP 081100Z NIL=
METAR UHNN 081100Z 05002MPS 9999 -SHRA FEW010 BKN024CB OVC070 11/10
Q1013 RMK QFE755=
METAR UHPP 081100Z VRB01MPS 9999 FEW010 07/05 Q1018 NOSIG RMK QBB300
QFE760/1013 SC070=
METAR UHSH 081100Z NIL=
METAR UHSS 081100Z 00000MPS 9999 BKN018 13/12 Q1011 NOSIG RMK MT OBSC
QFE757/1009 19CLRD70=
METAR UHWW 081100Z 18003MPS 9999 SCT013 BKN023 OVC090 17/14 Q1011
NOSIG RMK QFE757/1009 75CLRD70=
####018000265####
SARS34 RUMS 081100
METAR UUYH 081100Z 00000MPS CAVOK 27/08 Q1016 NOSIG RMK QFE 750
18CLRD60=
METAR UUYS 081100Z 16003MPS CAVOK 21/06 Q1016 NOSIG RMK QFE755
14CLRD60=
METAR UUYY 081100Z 12002MPS 9999 FEW033 BKN200 30/14 Q1016 NOSIG
01CLRD61 RMK QFE753/1004=
####018000079####
SPUS42 KWBC 081111
SPECI
KAMA 081108Z 35012KT 5SM BR OVC003 17/17 A3020=
####018001557####
SAIY40 LIIB 081100
METAR LIMG 081050Z 07008KT 9999 SCT080 30/24 Q1021 RMK VIS MIN 9999=
METAR LIMK 081055Z 34003KT 9999 BKN025 20/13 Q1023 RMK BKN VAL NIL
      VIS MIN 9999=
METAR LIMN 081055Z /////KT 9999 FEW030 27/15 Q1021 RMK FEW VIS MIN
      9999 BLU=
METAR LIMP 081050Z 06004KT 330V120 CAVOK 28/14 Q1022 RMK VIS MIN
9999=
METAR LIMS 081055Z 12009KT 060V150 CAVOK 28/15 Q1021 RMK SKC VIS MIN
      9999 WIND THR30 10006KT BLU=
METAR LIMZ 081050Z 35005KT 8000 FEW025 BKN045 25/17 Q1024 RMK VIS
MIN 8000=
METAR LIPA 081055Z 21008KT 9999 FEW060 25/18 Q1022 RMK FEW VIS MIN
      9999 A3019 BLU=
METAR LIPB 081050Z 17011KT CAVOK 28/12 Q1021 RMK MON LIB VIS MIN
9999=
METAR LIPC 081055Z 11010KT CAVOK 28/14 Q1022 RMK FEW FEW200 VIS MIN
      9999 WIND THR12 11009KT BLU=
METAR LIPF 081055Z 27002KT 9999 FEW050 27/19 Q1021 RMK FEW VIS MIN
      9999=
METAR LIPH 081045Z 16004KT 9999 SCT025 27/20 Q1023 RMK SCT VIS MIN
      9999 WIND THR07 /////KT BLU=
METAR LIPI 081055Z 20005KT 9999 FEW030 26/19 Q1021 RMK FEW VIS MIN
     9999 WIND THR06 18004KT BLU=
METAR LIPL 081055Z 14004KT 9999 FEW035 27/18 Q1022 RMK SCT VIS MIN
      9999 BLU=
METAR LIPO 081050Z 20004KT 100V230 9999 FEW065 28/14 Q1021 RMK VIS
MIN 9999=
METAR LIPQ 081050Z VRB03KT CAVOK 26/15 Q1022=
METAR LIPR 081045Z 08011KT CAVOK 28/17 Q1021 RMK SKC VIS MIN 9999
      WIND THR31 09011KT BLU=
METAR LIPS 081055Z 20003KT 9999 FEW025 29/18 Q1022 RMK FEW VIS MIN
     9999 BLU=
METAR LIPX 081045Z 12003KT 9999 FEW040 29/13 Q1021 RMK FEW VIS MIN
      9999 BLU=
####018000938####
SARS32 RUMS 081100
METAR URKA 081100Z 08004MPS 9999 SCT026 29/19 Q1012 NOSIG RMK  065=
METAR URKK 081100Z 07005G08MPS 9999 SCT030 BKN300 30/20 Q1012 NOSIG
RMK QFE756 SC070=
METAR URKM 081100Z 12004MPS 9999 SCT040 BKN100 31/18 Q1012 NOSIG RMK
QFE741=
METAR URML 081100Z 04006MPS 9999 SKC 32/21 Q1012 NOSIG RMK QFE759 /
07=
METAR URMM 081100Z 11006G09MPS 9999 BKN043 31/19 Q1012 NOSIG RMK /
SC070=
METAR URMN 081100Z 08001MPS 9999 BKN036CB BKN110 29/20 Q1013 NOSIG
RMK / QFE723 SC07=
METAR URMT 081100Z 06005G08MPS 9999 SCT020 BKN100 28/16 Q1014 NOSIG
RMK QFE721 SC07=
METAR URRR 081100Z 13002MPS 070V190 9999 FEW033 30/14 Q1013 NOSIG RMK
SC070=
METAR URSS 081100Z 28004MPS 9999 FEW040 28/20 Q1010 NOSIG RMK /
QFE756 06CLRD70=
METAR URWA 081100Z 28002MPS CAVOK 38/12 Q1011 NOSIG RMK SC07=
METAR URWI 081100Z 00000MPS CAVOK 31/16 Q1013 NOSIG RMK SC065=
METAR URWW 081100Z 34003G06MPS CAVOK 30/15 Q1014 NOSIG RMK SC070=
####018000262####
SAAF18 LFPW 081100 RRA
METAR FMEE 081100Z 11023KT 9999 FEW023 24/17 Q1020 TEMPO 13028G38KT=
METAR FMMI 081100Z 11010KT 080V150 9999 BKN020 19/12 Q1025 NOSIG=
METAR FMMT 081100Z 22014KT 9999 SCT017 25/21 Q1021=
METAR FMNM 081100Z ///10KT CAVOK 30/13 Q1013=
####018000996####
SARS35 RUMS 081100
METAR USPP 081100Z 32003MPS 270V360 CAVOK 28/08 Q1015 NOSIG RMK
QFE751/1001 21090060=
METAR UWKD 081100Z 25004MPS 220V300 9999 SCT033CB BKN070 32/12 Q1015
TEMPO VRB15MPS 3000 TSRA RMK QFE750/1000 792/0350=
METAR UWKE 081100Z 08003MPS 9999 FEW040 31/09 Q1016 NOSIG RMK
QFE745/0993 22090070=
METAR UWKS 081100Z 33003MPS 9999 BKN033CB 32/12 Q1016 NOSIG RMK
QFE747 SC0.60=
METAR UWLL 081100Z 07003MPS 9999 SCT050CB 31/11 Q1015 NOSIG RMK
QFE749/0999 SC065=
METAR UWLW 081100Z 01002MPS 8000 FEW040CB 33/14 Q1014 NOSIG 02CLRD60
RMK QFE755=
METAR UWOR 081100Z 05007PS CAVOK 29/02 Q1014 07CLRD65 NOSIG RMK
QFE735/0980=
METAR UWOO 081100Z 07007MPS P5000 FEW070 32/04 Q1012 08LRD65 NOSIG
RMK QFE749/0998=
METAR UWPP 081100Z 12005MPS 9999 SCT033 BKN100 32/09 Q1014 NOSIG RMK
QFE746 11090060=
METAR UWSS 081100Z 09005MPS CAVOK 31/09 Q1014 NOSIG RMK QFE749
120///60=
METAR UWWW 081100Z 06008MPS 9999 SCT033 BKN200 32/09 Q1015 NOSIG RMK
QFE748/0998 05CLRD60 15//99//=
####018000729####
SARA36 RUMS 081100
METAR UWUU 081100Z 04004G08MPS 020V110 CAVOK 28/10 Q1015 82010060
NOSIG RMK QFE750/1000=
METAR USCC 081100Z 34004G07MPS 300V020 9999 FEW040 SCT200 25/01 Q1014
NOSIG RMK QFE740 27000070=
METAR USDD 081100Z 03008G12MPS CAVOK 17/01 Q1016 NOSIG RMK
QFE756/1008 SC060=
METAR USMU 081100Z 01005MPS 9999 SCT026CB OVC066 14/11 Q1006 NOSIG
RMK QFE748 09250345=
METAR USNN 081100Z 15004MPS P6000 FEW026 SCT200 17/10 Q1003 NOSIG RMK
QFE747 SC065=
METAR USRK 081100Z 34003MPS 6000 BKN022 OVC066 14/10 Q1004 NOSIG RMK
QFE747 351///55=
METAR USRR 081100Z 36003MPS 7000 OVC010 12/10 Q1004 TEMPO BKN007 RMK
QFE748 25////60=
METAR USSS 081100Z 33006G10MPS 300V010 CAVOK 25/02 Q1014 NOSIG RMK
QFE740 260///70=
####018000115####
SARA34 RUMS 081100 RRA
METAR UNWW 081100Z 24001MPS 9999 BKN026CB OVC100 16/08 Q1010 NOSIG
RMK QFE731 1929//60=
####018000432####
SARS33 RUMS 081100
METAR ULLI 081100Z 11002MPS 010V170 9999 SCT040TCU BKN200 31/15 Q1013
NOSIG=
METAR UUDD 081100Z 14006MPS 9999 SCT043TCU BKN200 27/15 Q1015 TEMPO
TSRA=
METAR UUEE 081100Z 17004MPS 9999 SCT050CB BKN200 28/14 Q1015 NOSIG=
METAR UUEM 081100Z NIL=
METAR UUWW 081100Z 15002MPS 100V190 9999 SCT040 BKN100 26/16 Q1015
06000070 NOSIG=
METAR UUMO 081100Z VRB02MPS CAVOK 26/15 Q1015 NOSIG RMK QFE747/0996
SC060=
####018000324####
SAAF21 LFPW 081100 RRA
METAR FAJS 081100Z 06007KT 020V080 9999 SCT039 14/04 Q1035 NOSIG=
METAR FALA 081100Z 02008KT 340V050 9999 SCT035 18/04 Q1033 NOSIG=
METAR FAMM 081100Z 02010KT 9999 FEW040 18/04 Q1031 NOSIG=
METAR FAPE 081100Z 04013KT CAVOK 17/10 Q1023 NOSIG=
METAR FAUP 081100Z 35021KT CAVOK 22/02 Q1026 NOSIG=
####018000192####
SAAF20 LFPW 081100 RRA
METAR FABL 081100Z 34010KT 9999 FEW045 18/06 Q1032 NOSIG=
METAR FAEL 081100Z 05010KT 020V080 9999 FEW040 22/11 Q1025=
METAR FAGG 081100Z VRB02KT CAVOK 17/07 Q1021=
####018000087####
SAKN61 HKJK 081100
METAR HKJK 081100Z VRB02KT 9999 BKN020 OVC100 17/14 Q1023 NOSIG=
####018001502####
SAIY42 LIIB 081100
METAR LIBF 081050Z 33018KT CAVOK 28/07 Q1020 RMK VIS MIN 9999=
METAR LIEA 081050Z VRB03KT CAVOK 32/21 Q1019 RMK VIS MIN 9999=
METAR LIED 081055Z 15012KT 9999 33/18 Q1018 RMK FEW VIS MIN 9999 BLU=
METAR LIEO 081050Z 04011KT 9999 FEW030 30/20 Q1020 RMK VIS MIN
9999=
METAR LIMA 081050Z VRB03KT 9999 SCT040 25/16 Q1023 RMK VIS MIN 9999=
METAR LIQN 081050Z 36005KT CAVOK 27/17 Q1021 RMK VIS MIN 9999=
METAR LIQO 081055Z 00000KT 9999 FEW003 25/20 Q1021 RMK FEW VAL NIL NC
      VIS MIN 9999=
METAR LIQW 081055Z 19003KT 9999 FEW030 29/18 Q1020 RMK FEW VIS MIN
      9999 BLU=
METAR LIRE 081055Z 23010KT 9999 FEW020 28/20 Q1019 RMK FEW VIS MIN
      9999 WIND THR31 22010KT BLU=
METAR LIRG 081055Z 27007KT 9999 SCT033 31/18 Q1019 RMK SCT MON NE
     LIB NC VIS MIN 9999 BLU=
METAR LIRH 081055Z 36005KT 9999 SCT035 29/19 Q1020 RMK SCT MON LIB NC
      VIS MIN 9999 WIND THR16 24006KT BLU=
METAR LIRI 081050Z 02011KT CAVOK 29/11 Q1019 RMK VIS MIN 9999=
METAR LIRK 081055Z 13010KT CAVOK 16/14 Q1027 RMK SCT SCT060 MON NE
      LIB NC VAL NIL NC VIS MIN 9999=
METAR LIRL 081055Z 24008KT 9999 FEW020 FEW025TCU 30/18 Q1018 RMK SCT
      MON LIB NC VIS MIN 9999 BLU=
METAR LIRM 081055Z 08008KT CAVOK 29/15 Q1019 RMK SKC VIS MIN 9999
      WIND THR06 06007KT BLU=
METAR LIRS 081055Z 21010KT 9999 FEW040 31/14 Q1019 RMK SCT SCT200 VIS
      MIN 9999 WIND THR21 /////KT BLU=
METAR LIRT 081055Z 01009KT 9999 FEW015 17/07 Q1023 RMK FEW MON LIB
      VAL NIL VIS MIN 9999=
####018000090####
SAUK39 EGRR 081050 RRI
METAR EGYE 081050Z 24010KT 9999 FEW035 SCT100 ///// Q1017 BLU=
####018000440####
SAPO61 LPAM 081100
METAR LPAR 081100Z /////KT CAVOK 25/19 Q1015 RMK ESTMD WND 18007KT=
METAR LPBJ 081100Z 22007KT CAVOK 30/18 Q1016=
METAR LPMR 081100Z 28008KT 7000 BKN006 SCT016 20/18 Q1015=
METAR LPMT 081100Z 22012KT CAVOK 25/18 Q1015=
METAR LPOV 081100Z 24007KT 6000 SCT007 BKN016 21/19 Q1014=
METAR LPST 081100Z 32008KT 4000 BR OVC008 19/17 Q1016=
METAR LPLA 081100Z 15005KT 9999 -SHRA FEW008 SCT016 BKN028 20/18
      Q1024=
####018000256####
SACA31 TNCC 081100
METAR TNCC 081100Z 09012KT 9999 SCT017 29/25 Q1011 NOSIG=
METAR TNCA 081100Z 08011KT 9999 FEW017 29/25 Q1011 NOSIG=
METAR TNCB 081100Z AUTO /////KT //// ////// 28/25 Q1012 NOSIG=
METAR TNCE 081100Z 06011KT 9999 FEW018 28/24 Q1016=
####018000121####
SACZ41 LKPW 081100
METAR COR LKKU 081100Z 35010KT CAVOK 23/08 Q1022=
METAR LKLB 081103Z VRB05KT CAVOK 23/06 Q1023=
####018000093####
SPUS52 KWBC 081111
SPECI
KGDP 081109Z AUTO 05026KT 1/4SM FG BKN005 OVC060 16/16 A3021=
####018000075####
SAID31 EGGY 081100
METAR WALL 081100Z 00000KT 9999 FEW020 26/24 Q1008=
####018000373####
SAAL31 DAAA 081100
METAR DAAG 081100Z 04005KT 330V070 CAVOK 33/18 Q1019=
METAR DAAT 081100Z 11013KT 050V160 CAVOK 33/03 Q1022=
METAR DABB 081100Z 01012KT CAVOK 28/19 Q1019=
METAR DABC 081100Z 34008KT CAVOK 32/07 Q1023=
METAR DAON 081100Z 36008KT CAVOK 35/21 Q1017=
METAR DAOO 081100Z 36013KT CAVOK 27/21 Q1016=
METAR DAUH 081100Z 10014KT CAVOK 38/21 Q1018=
####018000229####
SANG31 YBBN 081100
METAR AYPY 081100Z NIL=
METAR AYWK 081100Z NIL=
METAR AYVN 081100Z NIL=
METAR AYNZ 081100Z NIL=
METAR AYMH 081100Z NIL=
METAR AYGN 081100Z NIL=
METAR AYMO 081100Z NIL=
METAR AGGH 081100Z NIL=
####018001523####
SAAU31 YBBN 081100
METAR YPAD 081100Z 09006KT CAVOK 07/04 Q1026=
METAR YBAS 081100Z AUTO 07007KT 9999NDV // NCD 09/06 Q1020=
METAR YBBN 081100Z 19009KT 9999 FEW040 SCT090 17/11 Q1020
NOSIG=
METAR YBCS 081100Z 16008KT 9999 FEW024 BKN040 23/20 Q1016
RMK FU=
METAR YSCB 081100Z AUTO 00000KT 9999NDV // NCD 05/03 Q1028=
METAR YPXM 081100Z AUTO 20005KT 9999NDV // NCD 23/20 Q1013=
METAR YPCC 081100Z AUTO 14009KT 9999NDV // SCT043 SCT058 26/22 Q1012=
METAR YCFS 081100Z AUTO 23011KT 9999NDV // SCT068 14/10 Q1023=
METAR YPDN 081100Z 03005KT CAVOK 26/20 Q1013=
METAR YBCG 081100Z AUTO 20011KT 9999NDV // SCT043 BKN060 15/13 Q1021=
METAR YHID 081100Z AUTO 15010KT 9999NDV // SCT030 SCT040 BKN054 25/23
Q1013=
METAR YPJT 081100Z AUTO 02008KT 9999NDV // NCD 14/13 Q0997=
METAR YPKU 081100Z AUTO 11006KT 9999NDV // NCD 24/15 Q1014=
METAR YPLM 081100Z AUTO 20003KT 9999NDV // BKN023 OVC028 21/17 Q1009=
METAR YMML 081100Z 00000KT 9999 FEW043 SCT250 08/06 Q1028
RMK HZ
NOSIG=
METAR YPPH 081100Z 01010KT 9999 FEW024 BKN083 14/13 Q0998
RMK WBD 0.7
INTER 1100/1200 27025G35KT 3000 +SHRA BKN010
INTER 1200/1400 27030G50KT 2000 TSGS BKN010 FEW030CB=
METAR YSSY 081100Z 22011KT 9999 VCSH FEW006 SCT040 BKN055 12/11
Q1027
FM1100 22010KT 9999 -SHRA SCT025 BKN040
INTER 1100/1400 5000 SHRA BKN010=
METAR YSTW 081100Z AUTO 14008KT 9999NDV // NCD 08/04 Q1024=
METAR YPTN 081100Z AUTO 11005KT 9999NDV // SCT049 23/16 Q1015=
METAR YBTL 081100Z 13007KT 9999 FEW015 BKN040 22/20 Q1017=
####018000244####
SAEE31 LOWM 081100
METAR UACK 081100Z 31008G12MPS 9999 FEW053 BKN067 19/01 Q1011
02010070 NOSIG RMK QFE734=
METAR UACP 081100Z NIL=
METAR UAII 081100Z NIL=
METAR UADD 081100Z NIL=
METAR UASK 081100Z NIL=
METAR UASP 081100Z NIL=
####018000456####
SAID31 WIII 081100
METAR WIMM 081100Z 03005KT 6000 FEW016CB FEW017 31/24 Q1008 NOSIG= 
METAR WAAA 081100Z VRB01KT 9999 FEW020 26/26 Q1009= 
METAR WIDD 081100Z 20005KT 9999 FEW017 28/25 Q1009= 
METAR WADD 081100Z 00000KT 9999 FEW018 28/25 Q1008 NOSIG= 
METAR WIII 081100Z 25003KT 6000 FEW018CB SCT020 25/23 Q1010RERA RMK C
B TO SE NOSIG= 
METAR WARR 081100Z 09003KT 9999 FEW020CB SCT020 28/24 Q1009 NSG= 
METAR WIHH NIL=
METAR WABB NIL=
####018000105####
SAUS44 KLIX 081111
MTRNBG
SPECI KNBG 081109Z 04003KT 6SM BR FEW010 BKN250 25/23 A3002 RMK AO2 
$
####018000394####
SAID32 WIII 081100
METAR WAMM 081100Z 12006KT 9999 FEW025 27/23 Q1009 NOSIG= 
METAR WIPT 081100Z 00000KT 9999 FEW020TCU 28/24 Q1010= 
METAR WIOO 081100Z 26008KT 8000 BKN009 28/25 Q.1010 NOSIG = 
METAR WALL 081100Z 00000KT 9999 FEW020 26/24 Q1008 NOSIG= 
METAR WADA 081100Z 02003KT 8000 HZ SCT016 29/24 Q1009= 
METAR WIBB NIL=
METAR WIKN NIL=
METAR WIPP NIL=
METAR WAOO NIL=
####018000075####
SAAT31 TAPA 081104
METAR TAPA 081100Z 08011KT 9999 FEW020 28/24 Q1015=
####018000452####
SAAO33 DRRN 081100
METAR DBBB 081100Z 21008KT 190V260 8000 SCT012 BKN120 28/25 Q1014
NOSIG=
METAR DFFD 081100Z NIL=
METAR DGAA 081100Z 23010KT 9999 FEW011 BKN015 BKN250 29/23 Q1015
NOSIG=
METAR DNKN 081100Z NIL=
METAR DNMM 081100Z NIL=
METAR DRRN 081100Z VRB02KT CAVOK 30/21 Q1013 NOSIG=
METAR DXXX 081100Z 20010KT 180V250 9999 SCT016 29/24 Q1015 NOSIG=
METAR FTTJ 081100Z 21004KT 140V260 9999  FEW040 BKN140 32/28 Q1014
NOSIG=
####018001347####
SAAU32 YBBN 081100
METAR YAMB 081100Z AUTO 19007KT 9999NDV // SCT044 BKN079 OVC088 16/10
Q1021=
METAR YMAV 081100Z AUTO 10002KT 9999NDV // OVC046 10/07 Q1028=
METAR YBRM 081100Z 36004KT 3600 -SHRA SCT017 SCT025 OVC031 23/23
Q1012=
METAR YCIN 081100Z AUTO 13005KT //// // ////// 22/19 Q1013=
METAR YSDU 081100Z AUTO 04004KT 9999NDV // NCD 08/04 Q1025=
METAR YFRT 081100Z AUTO 05011KT //// // ////// 15/02 Q1014=
METAR YGEL 081100Z AUTO 33011KT 3800NDV // SCT011 BKN020 OVC026 16/15
Q1002=
METAR YPGV 081100Z 15009KT 9999 FEW014 SCT021 BKN350 24/22 Q1014=
METAR YBHM 081100Z AUTO 14017KT //// // ////// 19/16 Q1018=
METAR YMHB 081100Z NIL=
METAR YPKG 081100Z AUTO 36011KT 9999NDV // SCT073 BKN088 18/04 Q1005=
METAR YMLT 081100Z AUTO 17004KT 9999NDV // SCT036 02/01 Q1030=
METAR YBMA 081100Z AUTO 22003KT 9999NDV // NCD 10/09 Q1020=
METAR YSNF 081100Z 12008KT 9999 FEW025 BKN030 BKN060 15/09 Q1018=
METAR YPEA 081100Z AUTO 36012KT 9999NDV // SCT032 SCT046 SCT072 15/13
Q0998=
METAR YPPD 081100Z AUTO 05016KT 9999NDV // SCT079 SCT120 23/20 Q1009=
METAR YSRI 081100Z AUTO 22007KT 9999NDV // SCT043 OVC055 11/10 Q1027=
METAR YBRK 081100Z 21004KT 9999 FEW012 OVC035 14/13 Q1020=
METAR YWLM 081100Z AUTO 31003KT 9999NDV // ////// 10/10 Q1026=
METAR YPWR 081100Z AUTO 09005KT 9999NDV // NCD 07/M00 Q1023=
####018000202####
SAID33 WIII 081100
METAR WATT 081100Z 00000KT 8000 SCT017 27/25 Q1011= 
METAR WABP NIL=
METAR WAJJ NIL=
METAR WAKK NIL=
METAR WAPP NIL=
METAR WARS NIL=
METAR WIAT NIL=
METAR WALR NIL=
####018000085####
SAAO33 DRRN 081100 RRA
METAR DNMM 081100Z 25007KT 9999 BKN013 30/25 Q1015 NOSIG=
####018001720####
SASD20 OEJD 081100
METAR OEAB 081100Z 03010KT 9000 FEW020 SCT200 32/M01 Q1020 NOSIG=
METAR OEAH 081100Z 33009KT CAVOK 46/06 Q1000 NOSIG=
METAR OEBA 081100Z 11013KT 9000 SKC 36/04 Q1016 NOSIG=
METAR OEBH 081100Z 07010KT CAVOK 40/04 Q1010 NOSIG=
METAR OEDF 081100Z 36016KT CAVOK 45/03 Q0999 NOSIG=
METAR OEDM 081100Z 09010KT CAVOK 43/04 Q1010=
METAR OEDR 081100Z 02011KT 8000 SKC 43/09 Q0998 NOSIG=
METAR OEGN 081100Z 23008KT CAVOK 37/27 Q1000 NOSIG=
METAR OEGS 081100Z 02011KT CAVOK 45/07 Q1007=
METAR OEGT 081100Z NIL=
METAR OEHL 081100Z 12008KT CAVOK 43/04 Q1012=
METAR OEJN 081100Z 33010KT CAVOK 38/25 Q1001 NOSIG=
METAR OEKB 081100Z 18002KT 9999 FEW045 46/20=
METAR OEKJ 081100Z NIL=
METAR OEKK 081100Z 04007KT CAVOK 44/15 Q1005=
METAR OEKM 081100Z 06022KT 7000 SCT022 32/01 Q1019 NOSIG=
METAR OEMA 081100Z 06012KT 9999 FEW045 46/M01 Q1005 NOSIG=
METAR OEMH 081100Z NIL=
METAR OEMK 081100Z 27002KT CAVOK 45/25 Q1000=
METAR OENG 081100Z 03010KT 4000 DU SCT030 SCT080 40/M01 Q1011 NOSIG=
METAR OEPA 081100Z 36014KT CAVOK 45/05 Q1003=
METAR OERF 081100Z 32007KT CAVOK 44/12 Q1006=
METAR OERK 081100Z 36017G29KT 5000 BLDU SKC 43/M03 Q1006 NOSIG=
METAR OERR 081100Z 30005KT CAVOK 45/10 Q1006=
METAR OERY 081100Z 03018KT 3000 SA SKC 44/00 Q1007 NOSIG=
METAR OESH 081100Z 03017KT 3000 BLDU SKC 42/15 Q1001 NOSIG=
METAR OESK 081100Z 22005KT CAVOK 43/00 Q1008=
METAR OETB 081100Z 21003KT CAVOK 40/05 Q1009 NOSIG=
METAR OETF 081100Z 11008KT 9999 FEW030 39/00 Q1014 NOSIG=
METAR OETR 081100Z NIL=
METAR OEWD 081000Z 03010KT 4000 BLDU SKC 44/11 Q1003=
METAR OEWJ 081100Z 30023KT 8000 SKC 33/28 Q1003=
METAR OEYN 081100Z 26014KT 6000 SKC 42/22 Q0999 TEMPO 4000=
####018000999####
SAYE20 OYSC 081100
METAR OYAA 081100Z NIL=
METAR OYAG 081100Z 08015KT 9999 SCT030 30/24 Q1002=
METAR OYAM 081100Z NIL=
METAR OYAR 081100Z 36008KT 4000 DU NSC 30/01 Q////=
METAR OYAS 081100Z 35005KT 5000 NSC 34/25 Q1005=
METAR OYAT 081100Z 36012KT CAVOK 40/10 Q0999=
METAR OYDM 081100Z 02013KT 6000 SCT030 30/01 Q////=
METAR OYHD 081100Z 24007KT 8000 NSC 35/28 Q1001=
METAR OYIB 081100Z 34004KT 5000 DU SCT025 28/17 Q1015=
METAR OYKD 081100Z 20012KT 7000 NSC 34/23 Q////=
METAR OYMB 081100Z 06016KT 6000 FEW030 41/M05 Q1004=
METAR OYMK 081100Z 33004KT CAVOK 34/26 Q////=
METAR OYMT 081100Z VRB02KT 7000 NSC 28/18 Q////=
METAR OYRN 081100Z 20021KT 6000 NSC 31/24 Q1000=
METAR OYSD 081100Z 05004KT 6000 SCT030 28/M04 Q////=
METAR OYSH 081100Z 02016KT 2000 DU FEW030 34/01 Q////=
METAR OYSN 081100Z 03017G27KT 3000 DU SCT030 30/M04 Q1021=
METAR OYSQ 081100Z NIL=
METAR OYSY 081100Z VRB03KT 6000 NSC 43/07 Q1001=
METAR OYTZ 081100Z 33010KT 7000 NSC 32/12 Q1008=
####018000081####
SASD32 OEJD 081100
METAR OETF 081100Z 11008KT 9999 FEW030 39/00 Q1014 NOSIG=
####018000096####
SPCN48 CWAO 081110
SPECI CYOY 081110Z AUTO 00000KT 9SM BKN013 BKN058 BKN069 20/16 A3000=

####018000079####
SPUS72 KWBC 081111
SPECI
KAMA 081108Z 35012KT 5SM BR OVC003 17/17 A3020=
####018000783####
SAEW KAWN 081100 RRH
METAR EDHI 081050Z 23007KT 190V280 CAVOK 28/11 Q1019=
METAR LFCG 081100Z 11006KT 070V150 CAVOK 33/16 Q1019=
METAR LFDB 081100Z 12005KT 080V170 CAVOK 31/15 Q1018=
METAR LFDH 081100Z 07007KT 020V130 CAVOK 33/16 Q1017=
METAR LFHP 081100Z VRB02KT CAVOK 28/09 Q1023=
METAR LFKB 081100Z 11006KT 070V160 9999 FEW021 29/21 Q1020 NOSIG=
METAR LFMC 081100Z 11006KT 070V140 9999 FEW050 32/19 Q1020=
METAR LFOF 081100Z 20007KT 160V260 CAVOK 29/11 Q1018 NOSIG=
METAR LFOI 081104Z 31006KT 250V010 CAVOK 26/12 Q1019=
METAR LFOR 081100Z VRB02KT CAVOK 31/08 Q1019=
METAR LFRJ 081100Z AUTO VRB04KT 9999NDV SCT021/// BKN210/// 22/16 Q1019=
METAR LFRL 081100Z 32007KT 280V010 9999 FEW018 SCT230 21/16 Q1019=
METAR LFXA 081100Z VRB05KT CAVOK 31/14 Q1021=
####018001743####
SAEU KAWN 081100 RRV
METAR EDHI 081050Z 23007KT 190V280 CAVOK 28/11 Q1019=
METAR EGYE 081050Z 24010KT 9999 FEW035 SCT100 ///// Q1017 BLU=
METAR LEBG 081100Z 19007KT 150V260 CAVOK 33/09 Q1021=
METAR LFOI 081104Z 31006KT 250V010 CAVOK 26/12 Q1019=
METAR LIBH 081055Z 33018G30KT CAVOK 28/10 Q1016 RMK SKC QUK 2 QUL 1
      E VIS MAR 20 KM VIS MIN 9999=
METAR LIBR 081045Z /////KT 9999 FEW020 25/15 Q1017 NOSIGNOSIG RMK FEW
      VIS MIN 9999 WIND THR13 WIND THR31 34018KT BLU=
METAR LIBY 081055Z 01018G30KT CAVOK 25/08 Q1016 RMK SKC QUK 3 QUL 1
      N VIS MAR 20 KM VIS MIN 9999=
METAR LICF 081055Z 00000KT 9999 SCT030TCU 30/25 Q1017 RMK BKN SCT080
      QUK 1 QUL 0 VIS MAR 10 KM MON E CLD CIME VAR RAPID MON W LIB
      NC VIS MIN 9999=
METAR LICG 081055Z 31008KT 260V360 CAVOK 24/22 Q1019 RMK SKC VIS MIN
      9999 WIND THR08 VRB06KT WIND THR21 30006KT BLU=
METAR LICJ 081050Z 04016KT CAVOK 27/23 Q1018 RMK VIS MIN 9999=
METAR LICL 081055Z 24009KT CAVOK 25/22 Q1018 RMK SKC QUK 2 QUL 1 SW
      VIS MAR 15 KM VIS MIN 9999=
METAR LICT 081055Z 32013KT 9999 FEW022 30/26 Q1018 RMK FEW VIS MIN
      9999 WIND THR13 31009KT BLU=
METAR LIEB 081055Z 01007KT 9999 SCT025TCU 30/25 Q1018 RMK SCT QUK 2
      QUL 0 VIS MAR 20 KM MON INVIS VIS MIN 8000W=
METAR LIEC 081055Z 05014KT 9999 FEW020 29/26 Q1019 RMK FEW QUK 2 QUL
      0 VIS MAR 15 KM VIS MIN 9999=
METAR LIEE 081055Z 16011KT 9999 FEW020 28/20 Q1019 RMK FEW VIS MIN
      9999 WIND THR14 18015KT BLU=
METAR LPAR 081100Z /////KT CAVOK 25/19 Q1015 RMK ESTMD WND 18007KT=
METAR LPBJ 081100Z 22007KT CAVOK 30/18 Q1016=
METAR LPMR 081100Z 28008KT 7000 BKN006 SCT016 20/18 Q1015=
METAR LPST 081100Z 32008KT 4000 BR OVC008 19/17 Q1016=
####018000417####
SPNA14 KAWN 081111 RRA
SPECI KNEL 081107Z AUTO 14006KT 4SM HZ OVC005 25/22 A3003 RMK AO2 $=
SPECI KNPA 081102Z 00000KT 7SM MIFG FEW250 24/23 A3002 RMK FIRST=
SPECI KNSE 081103Z 00000KT 3/4SM BR FEW001 SCT250 22/21 A3003 RMK AO2
      $=
SPECI KSZL 081100Z 00000KT 10SM BKN003 22/22 A3005 RMK AO2A SLP170
      $=
SPECI KWRI 081108Z AUTO 18004KT 1 3/4SM BR FEW001 24/24 A3001 RMK AO2
      SLP163 $=
####018001218####
SAXN17 KAWN 081100 RRE
METAR PHNG 081057Z 08007KT 10SM SCT020 BKN040 24/19 A3004 RMK AO2 RAE05
      SLP168 P0000 T02440194 $=
METAR RCKH 081100Z 31004KT 240V350 9999 FEW013 BKN250 30/26 Q1009 NOSIG=
METAR RCTP 081100Z 23011KT 9999 FEW025 BKN120 BKN200 29/24 Q1007 NOSIG=
METAR RJAA 081100Z 16004KT 9999 FEW020 BKN/// 23/21 Q1011 NOSIG RMK
      1CU020 A2985=
METAR RJCC 081100Z 21006KT 2500 -DZ BR BKN002 18/16 Q1010 RMK 7ST002
      A2985=
METAR RJFF 081100Z 30006KT 260V330 6000 FEW025 BKN030 BKN/// 25/21
      Q1009 RMK 1CU025 5CU030 A2980=
METAR RJFK 081100Z 15004KT 9999 FEW030 BKN/// 24/20 Q1010 RMK 1CU030
      A2984=
METAR RJOO 081100Z 21004KT 160V250 9999 FEW030 BKN/// 27/21 Q1009 RMK
      1CU030 A2980=
METAR RJTT 081100Z 18016KT 9999 FEW009 SCT014 BKN/// 25/22 Q1010 RMK
      1ST009 3CU014 A2983=
METAR ROAH 081100Z 19012KT 9999 SCT012 SCT080 BKN150 29/27 Q1010 RMK
      3CU012 4AC080 5AC150 A2983=
METAR TFFF 081105Z 08011KT 9999 FEW020 SCT026 29/24 Q1014 NOSIG=
METAR COR TFFF 081106Z 08010KT 9999 FEW020 SCT026 29/24 Q1014 NOSIG=
METAR TNCM 081100Z 09009KT 9999 FEW019 28/23 Q1016=
METAR ZGGG 081100Z 14005MPS 9999 FEW050TCU SCT050 33/26 Q1004 NOSIG=
####018000560####
SAXX70 KAWN 081100 RRK
METAR KQFU 081050Z AUTO 09001KT 7SM CLR 24/19 A2990 RMK A02=
METAR KQOW 081055Z AUTO RMK AO2 SLPNO $=
METAR KQEI 081110Z AUTO 13004KT 7SM -SHRA CLR 23/19 A2993 RMK A02=
METAR KQEN 081110Z AUTO 27007KT 7SM BKN075 20/16 A3041 RMK A02=
METAR KQEP 081110Z AUTO 19003KT 3SM -RA BKN034 25/19 A2987 RMK A02=
METAR KQER 081110Z AUTO 09002KT 2SM -RA BR OVC036 22/19 A2989 RMK A02=
METAR KQES 081110Z AUTO 02002KT 7SM FEW120 23/20 A2985 RMK A02=
METAR KQFV 081110Z AUTO 04003KT 6SM -DZ FEW027 BKN031 22/19 A3002 RMK
      A02=
####018000093####
SPUS81 KWBC 081111
SPECI
KGDP 081109Z AUTO 05026KT 1/4SM FG BKN005 OVC060 16/16 A3021=
####018001157####
SAUS20 KNKA 081111
SPECI KAUG 081110Z AUTO 16006KT 2SM BR OVC003 21/20 A3010 RMK AO2=
METAR KBNL 081115Z AUTO 32006KT 10SM CLR 23/18 A2999 RMK AO2 =
SPECI KCEF 081107Z AUTO 17007KT 10SM BKN008 24/22 A3006 RMK AO2 CIG
      008V011 SLP181 PWINO $=
METAR KCQW 081115Z AUTO 29005KT 5SM  HZ CLR 22/18 A2997 RMK AO2 =
METAR KIGQ 081100Z AUTO 00000KT 3SM BR BKN090 23/22 A3003 RMK AO2=
METAR KLKR 081115Z AUTO 00000KT 7SM CLR 19/19 A3001 RMK AO2 =
METAR KOLV 081115Z AUTO 00000KT 8SM CLR 23/23 A3009 RMK A01 P000 =
SPECI KTAN 081110Z AUTO 15004KT 10SM OVC010 22/21 A3008 RMK AO2 CIG 
    007V012=
METAR KTAZ 081105Z AUTO 00000KT 2 1/2SM BR CLR 23/23 A3003 RMK AO2=
METAR KTFP 081105Z AUTO 01003KT 10SM VCTS SCT022 SCT032 BKN039 
     27/25 A2982 RMK AO2 LTG DSNT N T02660251=
METAR KTIP 081105Z AUTO 00000KT 4SM BR SCT100 24/23 A3005 RMK AO2 
     T02400232=
METAR KTYQ 081105Z AUTO 00000KT 5SM BR SCT070 OVC090 22/21 A3007 
     RMK AO2=
METAR KVYS 081105Z AUTO 00000KT 3SM BR BKN014 OVC023 23/22 A3003 
     RMK AO2 T02310215=
METAR KXBP 081105Z AUTO 00000KT 10SM CLR 23/22 A3003 RMK AO2 LTG 
     DSNT NE T02320221=
####018000129####
SPUS90 KWBC 081112
SPECI KGDP 081109Z AUTO 05026KT 1/4SM FG BKN005 OVC060 16/16 A3021
     RMK AO2 PK WND 05028/1107 TSNO=
####018000073####
SAAL41 DAMM 081100 RRB
METAR DAAJ 081100Z 05008KT CAVOK 35/05 Q1020=
####018000267####
SPUS99 KWBC 081112
SPECI
KAUG 081110Z AUTO 16006KT 2SM BR OVC003 21/20 A3010 RMK AO2=
KCEF 081107Z AUTO 17007KT 10SM BKN008 24/22 A3006 RMK AO2 CIG
     008V011 SLP181 PWINO $=
KTAN 081110Z AUTO 15004KT 10SM OVC010 22/21 A3008 RMK AO2 CIG
     007V012=
####018000096####
SAUS98 KWBC 081112
METAR KEHA 081108Z AUTO 35005KT 17/17 RMK AO1 PK WND 07 073
T01720167=
####018000832####
SAUS99 KWBC 081112
METAR
KBNL 081115Z AUTO 32006KT 10SM CLR 23/18 A2999 RMK AO2=
KCQW 081115Z AUTO 29005KT 5SM HZ CLR 22/18 A2997 RMK AO2=
KIGQ 081100Z AUTO 00000KT 3SM BR BKN090 23/22 A3003 RMK AO2=
KLKR 081115Z AUTO 00000KT 7SM CLR 19/19 A3001 RMK AO2=
KOLV 081115Z AUTO 00000KT 8SM CLR 23/23 A3009 RMK A01 P000=
KTAZ 081105Z AUTO 00000KT 2 1/2SM BR CLR 23/23 A3003 RMK AO2=
KTFP 081105Z AUTO 01003KT 10SM VCTS SCT022 SCT032 BKN039 27/25
     A2982 RMK AO2 LTG DSNT N T02660251=
KTIP 081105Z AUTO 00000KT 4SM BR SCT100 24/23 A3005 RMK AO2
     T02400232=
KTYQ 081105Z AUTO 00000KT 5SM BR SCT070 OVC090 22/21 A3007 RMK
     AO2=
KVYS 081105Z AUTO 00000KT 3SM BR BKN014 OVC023 23/22 A3003 RMK AO2
     T02310215=
KXBP 081105Z AUTO 00000KT 10SM CLR 23/22 A3003 RMK AO2 LTG DSNT NE
     T02320221=
####018000272####
SAAF31 KWBC 081100 RRB
METAR
DBBB 081100Z 21008KT 190V260 8000 SCT012 BKN120 28/25 Q1014
     NOSIG=
DGAA 081100Z 23010KT 9999 FEW011 BKN015 BKN250 29/23 Q1015
     NOSIG=
DNKN 081100Z NIL=
DNMM 081100Z NIL=
DRRN 081100Z VRB02KT CAVOK 30/21 Q1013 NOSIG=
####018000109####
SAAF32 KWBC 081100 RRB
METAR
FTTJ 081100Z 21004KT 140V260 9999 FEW040 BKN140 32/28 Q1014
     NOSIG=
####018000228####
SANG31 YBBN 081100
METAR AYPY 081100Z NIL=
METAR AYWK 081100Z NIL=
METAR AYVN 081100Z NIL=
METAR AYNZ 081100Z NIL=
METAR AYMH 081100Z NIL=
METAR AYGN 081100Z NIL=
METAR AYMO 081100Z NIL=
METAR AGGH 081100Z NIL=
####018003745####
SAUS70 KWBC 081112
METAR
KGWB 081105Z AUTO 00000KT 3SM HZ CLR 22/17 A3006 RMK AO2=
KGYB 081105Z AUTO 07005KT 7SM BKN008 BKN014 OVC095 25/24 A2998 RMK
     AO2 T02500240=
KGYI 081104Z AUTO 14005KT 10SM SCT024 25/24 A3004 RMK AO2 LTG DSNT
     N T02500236=
KHHF 081105Z AUTO 36004KT 10SM -RA SCT036 BKN050 21/20 A3013 RMK
     AO2 T02110195=
KHRX 081105Z AUTO 36009KT 7SM BKN007 OVC010 17/16 A3022 RMK AO2
     T01690161=
KHSB 081105Z AUTO 00000KT 4SM BR CLR 22/21 A3005 RMK AO2=
KIJX 081105Z AUTO 00000KT 2SM -DZ CLR 23/23 A3004 RMK AO2
     T02330226=
KINJ 081105Z AUTO 08005KT 4SM BR SCT028 25/23 A3001 RMK AO2
     T02460228=
KJAS 081106Z AUTO 07003KT 7SM SCT009 25/24 A3002 RMK AO2
     T02450236=
KJDD 081105Z AUTO 00000KT 4SM BR OVC002 24/24 A3004 RMK AO2=
KJSO 081110Z AUTO 09003KT 5SM BR BKN001 23/23 A3004 RMK AO2 LTG
     DSNT N T02330233=
KJXI 081105Z AUTO 00000KT OVC002 24/24 A3005 RMK AO2=
KLNC 081105Z AUTO 11003KT 10SM SCT007 BKN012 BKN110 24/24 A3001
     RMK AO2 T02440242=
KOLY 081103Z AUTO 00000KT 2 1/2SM BR CLR 23/22 A3005 RMK AO2=
KPEQ 081104Z AUTO RMK AO2 PWINO=
KPNT 081105Z AUTO 00000KT 2SM BR SCT007 OVC048 22/22 A3004 RMK
     AO2=
KPRG 081105Z AUTO 00000KT 4SM BR BKN120 22/21 A3005 RMK AO2
     T02200215=
KRPJ 081105Z AUTO 00000KT 3SM BR BKN007 OVC013 21/20 A3004 RMK AO2
     T02100199=
KRSV 081102Z AUTO 00000KT 4SM BR CLR 23/23 A3006 RMK AO2
     T02330225=
KSLR 081102Z AUTO 11003KT 7SM SCT007 OVC037 25/24 A3005 RMK AO2
     LTG DSNT N T02500235=
KSNK 081106Z AUTO 02008KT 7SM BKN003 OVC008 21/20 A3009 RMK AO2
     T02080200=
KSWW 081105Z AUTO 03005KT 3/4SM OVC002 21/21 A3010 RMK AO1
     T02130210=
KT65 081105Z AUTO 35004KT 10SM SCT046 BKN055 BKN065 26/25 A2978
     RMK AO2 T02550245=
KT82 081105Z AUTO 09003KT 23/22 A3002 RMK AO1 T02250216=
KUVA 081105Z AUTO 05005KT 10SM OVC023 24/23 A2996 RMK AO2
     T02410230=
K11R 081106Z AUTO 05004KT 7SM SCT080 24/23 A2995 RMK AO2 LTG DSNT
     N AND SE=
K5C1 081106Z AUTO 05003KT 7SM BKN007 BKN011 OVC017 24/23 A2999 RMK
     AO1=
KCCA 081115Z AUTO 00000KT 7SM OVC006 23/23 A3007 RMK AO2=
KCDN 081115Z AUTO 00000KT 10SM CLR 24/20 A3000 RMK A02 P000=
KCKI 081115Z AUTO 00000KT 22/21 A2996 RMK AO2 PWINO=
KJWY 081105Z AUTO 12004KT 7SM 25/23 A3002 RMK AO2 T02450227=
KLBR 081105Z AUTO 00000KT 5SM OVC002 24/23 A3004 RMK AO2
     T02390230=
KLHB 081104Z AUTO 07004KT 5SM BR SCT009 25/23 A2997 RMK AO2
     T02490231=
KLRO 081115Z AUTO 00000KT 7SM CLR 23/19 A2996 RMK AO2=
KLUD 081105Z AUTO 00000KT 10SM CLR 24/23 A3003 RMK AO2
     T02400225=
KM30 081106Z AUTO 00000KT 10SM SCT120 22/21 A3006 RMK AO2=
KMKS 081115Z AUTO 00000KT 7SM CLR 22/20 A2996 RMK AO2 TSNO=
KMNZ 081109Z AUTO 12004KT 10SM OVC009 24/24 A3002 RMK AO2
     T02430240=
KMQB 081105Z AUTO 28004KT 5SM BR OVC004 23/23 A3006 RMK AO2
     T02300226=
KMWA 081105Z AUTO 18003KT 10SM SCT100 24/23 A3007 RMK AO2
     T02420232=
KOSA 081104Z AUTO 00000KT 5SM CLR 24/24 A3005 RMK AO1
     T02430238=
KPEZ 081105Z AUTO 02004KT 10SM OVC009 25/24 A2992 RMK AO2
     T02500235=
KPKV 081106Z AUTO 08003KT 7SM -RA SCT020 BKN040 OVC070 24/22 A2986
     RMK AO2 T02430224=
KPPA 081105Z AUTO 36007KT 10SM SCT005 BKN060 BKN080 17/16 A3019
     RMK AO2=
KPYX 081110Z AUTO 01006KT 7SM BKN090 OVC110 19/18 A3018 RMK AO2
     T01850175=
KRAS 081105Z AUTO 13007KT 8SM SCT013 BKN025 OVC038 28/26 A2985 RMK
     AO2=
KRBO 081105Z AUTO 01005KT 10SM CLR 26/25 A2983 RMK AO2 LTG DSNT NE
     T02600248=
KRPH 081105Z AUTO 00000KT 10SM CLR 22/21 A3002 RMK AO2
     T02210209=
KRYW 081105Z AUTO 10007KT 1 1/4SM +RA BKN002 OVC011 23/22 A2999
     RMK AO2 P0005=
####018000885####
SAUS70 KWBC 081112 RRA
METAR
KSAR 081105Z AUTO 19005KT 7SM OVC065 26/23 A3005 RMK AO2=
KSLO 081103Z AUTO 19003KT 10SM CLR A3005 RMK AO2=
KBNL 081115Z AUTO 32006KT 10SM CLR 23/18 A2999 RMK AO2=
KCQW 081115Z AUTO 29005KT 5SM HZ CLR 22/18 A2997 RMK AO2=
KLKR 081115Z AUTO 00000KT 7SM CLR 19/19 A3001 RMK AO2=
KOLV 081115Z AUTO 00000KT 8SM CLR 23/23 A3009 RMK A01 P000=
KTAZ 081105Z AUTO 00000KT 2 1/2SM BR CLR 23/23 A3003 RMK AO2=
KTFP 081105Z AUTO 01003KT 10SM VCTS SCT022 SCT032 BKN039 27/25
     A2982 RMK AO2 LTG DSNT N T02660251=
KTIP 081105Z AUTO 00000KT 4SM BR SCT100 24/23 A3005 RMK AO2
     T02400232=
KTYQ 081105Z AUTO 00000KT 5SM BR SCT070 OVC090 22/21 A3007 RMK
     AO2=
KVYS 081105Z AUTO 00000KT 3SM BR BKN014 OVC023 23/22 A3003 RMK AO2
     T02310215=
KXBP 081105Z AUTO 00000KT 10SM CLR 23/22 A3003 RMK AO2 LTG DSNT NE
     T02320221=
####018001522####
SAAU31 YBBN 081100
METAR YPAD 081100Z 09006KT CAVOK 07/04 Q1026=
METAR YBAS 081100Z AUTO 07007KT 9999NDV // NCD 09/06 Q1020=
METAR YBBN 081100Z 19009KT 9999 FEW040 SCT090 17/11 Q1020
NOSIG=
METAR YBCS 081100Z 16008KT 9999 FEW024 BKN040 23/20 Q1016
RMK FU=
METAR YSCB 081100Z AUTO 00000KT 9999NDV // NCD 05/03 Q1028=
METAR YPXM 081100Z AUTO 20005KT 9999NDV // NCD 23/20 Q1013=
METAR YPCC 081100Z AUTO 14009KT 9999NDV // SCT043 SCT058 26/22 Q1012=
METAR YCFS 081100Z AUTO 23011KT 9999NDV // SCT068 14/10 Q1023=
METAR YPDN 081100Z 03005KT CAVOK 26/20 Q1013=
METAR YBCG 081100Z AUTO 20011KT 9999NDV // SCT043 BKN060 15/13 Q1021=
METAR YHID 081100Z AUTO 15010KT 9999NDV // SCT030 SCT040 BKN054 25/23
Q1013=
METAR YPJT 081100Z AUTO 02008KT 9999NDV // NCD 14/13 Q0997=
METAR YPKU 081100Z AUTO 11006KT 9999NDV // NCD 24/15 Q1014=
METAR YPLM 081100Z AUTO 20003KT 9999NDV // BKN023 OVC028 21/17 Q1009=
METAR YMML 081100Z 00000KT 9999 FEW043 SCT250 08/06 Q1028
RMK HZ
NOSIG=
METAR YPPH 081100Z 01010KT 9999 FEW024 BKN083 14/13 Q0998
RMK WBD 0.7
INTER 1100/1200 27025G35KT 3000 +SHRA BKN010
INTER 1200/1400 27030G50KT 2000 TSGS BKN010 FEW030CB=
METAR YSSY 081100Z 22011KT 9999 VCSH FEW006 SCT040 BKN055 12/11
Q1027
FM1100 22010KT 9999 -SHRA SCT025 BKN040
INTER 1100/1400 5000 SHRA BKN010=
METAR YSTW 081100Z AUTO 14008KT 9999NDV // NCD 08/04 Q1024=
METAR YPTN 081100Z AUTO 11005KT 9999NDV // SCT049 23/16 Q1015=
METAR YBTL 081100Z 13007KT 9999 FEW015 BKN040 22/20 Q1017=
####018001346####
SAAU32 YBBN 081100
METAR YAMB 081100Z AUTO 19007KT 9999NDV // SCT044 BKN079 OVC088 16/10
Q1021=
METAR YMAV 081100Z AUTO 10002KT 9999NDV // OVC046 10/07 Q1028=
METAR YBRM 081100Z 36004KT 3600 -SHRA SCT017 SCT025 OVC031 23/23
Q1012=
METAR YCIN 081100Z AUTO 13005KT //// // ////// 22/19 Q1013=
METAR YSDU 081100Z AUTO 04004KT 9999NDV // NCD 08/04 Q1025=
METAR YFRT 081100Z AUTO 05011KT //// // ////// 15/02 Q1014=
METAR YGEL 081100Z AUTO 33011KT 3800NDV // SCT011 BKN020 OVC026 16/15
Q1002=
METAR YPGV 081100Z 15009KT 9999 FEW014 SCT021 BKN350 24/22 Q1014=
METAR YBHM 081100Z AUTO 14017KT //// // ////// 19/16 Q1018=
METAR YMHB 081100Z NIL=
METAR YPKG 081100Z AUTO 36011KT 9999NDV // SCT073 BKN088 18/04 Q1005=
METAR YMLT 081100Z AUTO 17004KT 9999NDV // SCT036 02/01 Q1030=
METAR YBMA 081100Z AUTO 22003KT 9999NDV // NCD 10/09 Q1020=
METAR YSNF 081100Z 12008KT 9999 FEW025 BKN030 BKN060 15/09 Q1018=
METAR YPEA 081100Z AUTO 36012KT 9999NDV // SCT032 SCT046 SCT072 15/13
Q0998=
METAR YPPD 081100Z AUTO 05016KT 9999NDV // SCT079 SCT120 23/20 Q1009=
METAR YSRI 081100Z AUTO 22007KT 9999NDV // SCT043 OVC055 11/10 Q1027=
METAR YBRK 081100Z 21004KT 9999 FEW012 OVC035 14/13 Q1020=
METAR YWLM 081100Z AUTO 31003KT 9999NDV // ////// 10/10 Q1026=
METAR YPWR 081100Z AUTO 09005KT 9999NDV // NCD 07/M00 Q1023=
####018000395####
SAUS70 KWBC 081100 RRL
METAR
KHBV 081100Z AUTO 35004KT 10SM SCT005 SCT012 BKN017 25/24 A2987
     RMK AO2 T02500236=
KMDD 081100Z AUTO 02005KT 7SM BKN002 BKN110 22/21 A3008 RMK AO2
     T02150205=
KMZZ 081055Z AUTO 00000KT 5SM BR BKN110 22/20 A3006 RMK AO2=
KRWV 081100Z AUTO 00000KT 8SM BKN008 24/24 A2999 RMK AO2=
KIGQ 081100Z AUTO 00000KT 3SM BR BKN090 23/22 A3003 RMK AO2=
####018000248####
SAUS80 KWBC 081112
METAR
KPSN 081105Z AUTO 09006KT 7SM 24/23 A3002 RMK AO2 T02410232=
KRFI 081105Z AUTO 00000KT 7SM CLR 24/23 A3002 RMK AO2
     T02360226=
KSEP 081105Z AUTO 00000KT 10SM SCT011 BKN032 BKN080 23/22 A3003
     RMK AO1=
####018000134####
SAXX60 KWBC 081100 RRI
METAR
PHNG 081057Z 08007KT 10SM SCT020 BKN040 24/19 A3004 RMK AO2 RAE05
     SLP168 P0000 T02440194 $=
####018000140####
SAUS80 KWBC 081100 RRD
METAR
KSOA 081100Z AUTO 36003KT 8SM 22/21 A3007 RMK AO2=
KMKN 081100Z AUTO 00000KT 10SM 23/23 A3004 RMK AO2=
####018000356####
SPUS80 KWBC 081112
SPECI
KMKG 081108Z 12003KT 1 3/4SM RA BR SCT036 BKN070 OVC095 23/22
     A3002 RMK AO2 RAB02 P0001 $=
KSTC 081108Z AUTO 00000KT 1/2SM FG CLR 13/12 A3009 RMK AO2=
KORF 081107Z 11006KT 10SM SCT010 BKN110 26/23 A2997 RMK AO2=
KGDP 081109Z AUTO 05026KT 1/4SM FG BKN005 OVC060 16/16 A3021 RMK
     AO2 PK WND 05028/1107 TSNO=
####018000659####
SPUS70 KWBC 081112
SPECI
KHBR 081108Z AUTO 06003KT 6SM BR FEW004 OVC070 23/22 A3008 RMK AO2
     TSE02=
KLFT 081108Z 08003KT 10SM BKN004 25/23 A3000 RMK AO2=
KLNR 081108Z AUTO 00000KT 3/4SM BR OVC002 21/20 A3004 RMK AO2=
KOWD 081108Z 14004KT 10SM FEW018 23/19 A3009 RMK AO2=
KARB 081109Z AUTO 00000KT 6SM BR CLR 21/20 A3004 RMK AO2=
KDVN 081109Z AUTO 30005KT 2 1/2SM BR OVC007 22/21 A3005 RMK AO2
     CIG 003V010=
KFRG 081109Z 16005KT 9SM BKN006 OVC010 24/23 A3005 RMK AO2 CIG
     004V009=
KAUG 081110Z AUTO 16006KT 2SM BR OVC003 21/20 A3010 RMK AO2=
KTAN 081110Z AUTO 15004KT 10SM OVC010 22/21 A3008 RMK AO2 CIG
     007V012=
####018000073####
SAAS31 KWBC 081105 RRA
METAR
VOBG 081100Z NIL=
VOCI 081100Z NIL=
####018000198####
SPXX60 KWBC 081112
SPECI
KNBG 081109Z 04003KT 6SM BR FEW010 BKN250 25/23 A3002 RMK AO2
     $=
KCEF 081107Z AUTO 17007KT 10SM BKN008 24/22 A3006 RMK AO2 CIG
     008V011 SLP181 PWINO $=
####018001582####
SAZZ40 KAWN 081100 RRN
METAR DAAE 081100Z 09009KT CAVOK 27/22 Q1019=
METAR DAAP 081100Z 26008KT CAVOK 40/12 Q1015=
METAR DAAV 081100Z 36010KT CAVOK 30/21 Q1019=
METAR DAAY 081100Z 33004KT CAVOK 35/12 Q1025=
METAR DABT 081100Z 30012KT CAVOK 34/07 Q1023=
METAR DAOF 081100Z 08010KT 4000 HZ NSC 41/06 Q1014=
METAR DAOR 081100Z 18004KT CAVOK 38/05 Q1023=
METAR DAUB 081100Z 13012KT CAVOK 35/15 Q1017=
METAR DAUE 081100Z 04016KT CAVOK 37/09 Q1020=
METAR DAUG 081100Z 15005KT CAVOK 36/10 Q1021=
METAR DAUI 081100Z 08024KT 2600 BLSA NSC 43/05 Q1013=
METAR DAUK 081100Z 18010KT CAVOK 35/15 Q1019=
METAR DAUT 081100Z ///18KT 4000 DRSA NSC 40/09 Q1016=
METAR OEAH 081100Z 33009KT CAVOK 46/06 Q1000 NOSIG=
METAR OEGS 081100Z 02011KT CAVOK 45/07 Q1007=
METAR OEHL 081100Z 12008KT CAVOK 43/04 Q1012=
METAR OEKK 081100Z 04007KT CAVOK 44/15 Q1005=
METAR OEPA 081100Z 36014KT CAVOK 45/05 Q1003=
METAR OETB 081100Z 21003KT CAVOK 40/05 Q1009 NOSIG=
METAR ORBI 081100Z 30014KT CAVOK 44/08 Q1003 NOSIG=
METAR ORMM 081100Z 32018KT 8000 SKC 49/M04 Q0998=
METAR SADF 081100Z 00000KT CAVOK 04/02 Q1019=
METAR TDCF 081100Z 15006KT 9999 -SHRA BKN016TCU 24/22 Q1014=
METAR TNCA 081100Z 08011KT 9999 FEW017 29/25 Q1011 NOSIG=
METAR TNCB 081100Z AUTO /////KT //// ////// 28/25 Q1012 NOSIG=
METAR TNCC 081100Z 09012KT 9999 SCT017 29/25 Q1011 NOSIG=
METAR TNCE 081100Z 06011KT 9999 FEW018 28/24 Q1016=
METAR TNCM 081100Z 09009KT 9999 FEW019 28/23 Q1016=
METAR UUYY 081100Z 12002MPS 9999 FEW033 BKN200 30/14 Q1016 NOSIG 01CLRD61
      RMK QFE753/1004=
####018000247####
SACN50 CWAO 081100 RRA
VQZ SA 1100 AUTO8 M M M 194/10/08/0000/M/ 3006 62MM=
VSL SA 1100 AUTO8 M M M 196/10/08/0502/M/ 1005 89MM=
VXS SA 1100 AUTO8 M M M 191/08/06/0000/M/ 1005 24MM=
ZKA SA 1100 AUTO8 M M M 187/15/M/1302/M/ 1010 2MMM=

####018000193####
SACN82 CWAO 081100 RRA
MFM SA 1100 AUTO8 M M M 170/20/19/0000/M/ 1003 48MM=
MLU SA 1100 AUTO8 M M M 158/25/23/1805/M/ 1008 03MM=
WDM SA 1100 AUTO8 M M M 189/09/08/0508/M/ 4000 66MM=

####018000618####
SACN88 CWAO 081100 RRA
ABF SA 1100 AUTO8 M M M 215/12/12/1013/M/ 3003 76MM=
ABR SA 1100 AUTO7 M M M 212/21/18/1403/M/ 2005 55MM=
ABT SA 1100 AUTO8 M M M M/22/19/2310/M/ M 97MM=
AFC SA 1100 AUTO8 M M M 185/21/18/1804/M/ 1011 73MM=
AHK SA 1100 AUTO7 M M M 200/19/18/2408/M/M 3006 39MM=
AHW SA 1100 AUTO7 M M M M/20/17/2802/M/M M 11MM=
AOS SA 1100 AUTO7 M M M M/16/16/2007/M/M M 00MM=
ARP SA 1100 AUTO8 M M M 165/22/21/2401/M/ 1011 67MM=
WBK SA 1100 AUTO8 M M M 189/20/18/2206/M/ 3002 25MM=
WHO SA 1100 AUTO8 M M M 117/11/09/1603/M/M 6018 47MM=
WZF SA 1100 AUTO8 M M M M/22/20/1701/M/M M 41MM=

####018000584####
SACN94 CWAO 081100 RRA
WQF SA 1100 AUTO8 M M M M/14/09/2403/M/ M 57MM=
WQH SA 1100 AUTO8 M M M M/24/22/3502/M/ M 72MM=
WQQ SA 1100 AUTO8 M M M M/10/09/1701/M/ M 92MM=
WQY SA 1100 AUTO8 M M M 115/09/09/3608/M/0008 PCPN 0.6MM PAST HR
3009 20MM=
WRA SA 1100 AUTO8 M 9.+ M 244/08/08/0704/M/ 1007 44MM=
WRJ SA 1100 AUTO8 M M M 196/10/10/2803/M/ 0000 22MM=
WRZ SA 1100 AUTO8 M M M 155/15/M/0504/M/ 3005 7MMM=
WSN SA 1100 AUTO8 M M M 178/22/19/MMMM/M/ 1001 70MM=
WST SA 1100 AUTO8 M M M M/16/15/0602/M/ M 96MM=
WSU SA 1100 AUTO8 M M M 159/13/11/2103/M/ 3003 60MM=

####018000246####
SAAW33 KWBC 081100 RRC
METAR
OYAA 081100Z NIL=
OYAR 081100Z 36008KT 4000 DU NSC 30/01 Q////=
OYHD 081100Z 24007KT 8000 NSC 35/28 Q1001=
OYSN 081100Z 03017G27KT 3000 DU SCT030 30/M04 Q1021=
OYTZ 081100Z 33010KT 7000 NSC 32/12 Q1008=
####018000322####
SACN93 CWAO 081100 RRA
WNC SA 1100 AUTO8 M M M 162/22/22/0000/M/ 3007 88MM=
WNZ SA 1100 AUTO8 M M M 141/17/14/1702/M/ 0006 74MM=
WOC SA 1100 AUTO8 M M M 154/19/17/0901/M/ 1006 60MM=
WOD SA 1100 AUTO8 M M M 133/22/M/3305/M/ 1004 0MMM=
WOJ SA 1100 AUTO8 M M M 160/15/11/0106/M/ PK WND 3418 1027Z 3008
34MM=

####018000083####
SACN66 CWAO 081100 RRA
ZHB SA 1100 AUTO8 M M M 173/09/08/2304/M/ 3005 39MM=

####018000439####
SACN78 CWAO 081100 RRA
TAG SA 1100 AUTO8 M M M 162/14/13/2403/M/ 3000 09MM=
TMS SA 1100 AUTO8 M M M 118/19/18/2003/M/ 8021 21MM=
TPQ SA 1100 AUTO8 M M M 167/22/21/0000/M/ 3004 17MM=
TXR SA 1100 AUTO8 M M M 136/20/19/1404/M/0004 PCPN 0.4MM PAST HR
8005 44MM=
WAJ SA 1100 AUTO8 M M M 164/25/22/MMMM/M/M 5000 99MM=
WBE SA 1100 AUTO8 M M M 163/17/17/1102/M/ 8004 48MM=
XBI SA 1100 AUTO8 M M M 166/22/20/0000/M/ 0001 23MM=

####018000652####
SACN92 CWAO 081100 RRA
WJI SA 1100 AUTO8 M M M 214/10/09/2704/M/ 3005 43MM=
WJL SA 1100 AUTO8 M M M 164/14/11/0803/M/ 1009 74MM=
WJT SA 1100 AUTO8 M M M 162/18/17/0000/M/ 3004 03MM=
WJW SA 1100 AUTO8 M M M 223/06/04/1803/M/ 1009 93MM=
WJX SA 1100 AUTO8 M M M 212/11/10/2805/M/ 3002 99MM=
WKA SA 1100 AUTO8 M M M M/M/M/0000/M/M M MMMM=
WKB SA 1100 AUTO8 M M M 197/14/11/0903/M/ 5002 23MM=
WLE SA 1100 AUTO8 M M M 214/10/10/1902/M/ 3001 39MM=
WLF SA 1100 AUTO8 M M M 116/15/14/2103/M/0004 PCPN 0.4MM PAST HR
6005 58MM=
WLV SA 1100 AUTO8 M M M 178/09/06/2002/M/ 8008 84MM=
WMI SA 1100 AUTO8 M M M 162/16/15/0203/M/ 1011 88MM=

####018000138####
SACN87 CWAO 081100 RRA
WJD SA 1100 AUTO8 M M M 142/09/08/2803/M/ 3005 03MM=
WZG SA 1100 AUTO8 M M M 242/04/02/3601/M/ 1005 29MM=

####018000278####
SAPO31 KWBC 081100 RRB
METAR
LPBJ 081100Z 22007KT CAVOK 30/18 Q1016=
LPMR 081100Z 28008KT 7000 BKN006 SCT016 20/18 Q1015=
LPMT 081100Z 22012KT CAVOK 25/18 Q1015=
LPOV 081100Z 24007KT 6000 SCT007 BKN016 21/19 Q1014=
LPST 081100Z 32008KT 4000 BR OVC008 19/17 Q1016=
####018000200####
SACN47 CWAO 081100 RRA
METAR CYGP 081100Z 00000KT 15SM FEW008 SCT120 18/16 A3001 RMK ST1AC2
SLP162=
METAR CYGR 081100Z 22015KT 12SM FEW040 BKN080 20/17 A3004 RMK SC2AC5
CU AOSCTD SLP171=

####018001356####
SAAU32 AMMC 081100
METAR YAMB 081100Z AUTO 19007KT 9999NDV // SCT044 BKN079 OVC088 16/10 Q1021=
METAR YBCG 081100Z AUTO 20011KT 9999NDV // SCT043 BKN060 15/13 Q1021=
METAR YBHM 081100Z AUTO 14017KT //// // ////// 19/16 Q1018=
METAR YBMA 081100Z AUTO 22003KT 9999NDV // NCD 10/09 Q1020=
METAR YBRK 081100Z 21004KT 9999 FEW012 OVC035 14/13 Q1020=
METAR YBRM 081100Z 36004KT 3600 -SHRA SCT017 SCT025 OVC031 23/23 Q1012=
METAR YCIN 081100Z AUTO 13005KT //// // ////// 22/19 Q1013=
METAR YFRT 081100Z AUTO 05011KT //// // ////// 15/02 Q1014=
METAR YMAV 081100Z AUTO 10002KT 9999NDV // OVC046 10/07 Q1028=
METAR YMHB 081100Z 31006KT CAVOK 03/01 Q1030=
METAR YMLT 081100Z AUTO 17004KT 9999NDV // SCT036 02/01 Q1030=
METAR YPEA 081100Z AUTO 36012KT 9999NDV // SCT032 SCT046 SCT072 15/13 Q0998=
METAR YPGV 081100Z 15009KT 9999 FEW014 SCT021 BKN350 24/22 Q1014=
METAR YPKG 081100Z AUTO 36011KT 9999NDV // SCT073 BKN088 18/04 Q1005=
METAR YPPD 081100Z AUTO 05016KT 9999NDV // SCT079 SCT120 23/20 Q1009=
METAR YSCB 081100Z AUTO 00000KT 9999NDV // NCD 05/03 Q1028=
METAR YSDU 081100Z AUTO 04004KT 9999NDV // NCD 08/04 Q1025=
METAR YSNF 081100Z 12008KT 9999 FEW025 BKN030 BKN060 15/09 Q1018=
METAR YSRI 081100Z AUTO 22007KT 9999NDV // SCT043 OVC055 11/10 Q1027=
METAR YWLM 081100Z AUTO 31003KT 9999NDV // ////// 10/10 Q1026=

####018000083####
SADL31 KWBC 081050 RRB
METAR
EDHI 081050Z 23007KT 190V280 CAVOK 28/11 Q1019=
####018000343####
SACN90 CWAO 081100 RRA
WER SA 1100 AUTO8 M M M M/M/M/0410/M/M M MMMM=
WFE SA 1100 AUTO8 M M M M/14/10/2202/M/ M 23MM=
WFF SA 1100 AUTO8 M M M 191/09/06/2505/M/ 2002 84MM=
WGD SA 1100 AUTO8 M M M 161/23/20/1405/M/ 3001 20MM=
WGL SA 1100 AUTO8 M M M 173/24/24/1704/M/M 0001 22MM=
WGM SA 1100 AUTO8 M M M M/08/05/2105/M/ M 03MM=

####018000103####
SACN31 CWAO 081100 RRA
METAR CYUL 081100Z 24004KT 12SM FEW080 26/21 RMK AC1 ALTM MISG
SLP158=

####018000407####
SAIY41 KWBC 081050 RRD
METAR
LIBY 081055Z 01018G30KT CAVOK 25/08 Q1016 RMK SKC QUK 3 QUL 1 N
     VIS MAR 20 KM VIS MIN 9999=
LICF 081055Z 00000KT 9999 SCT030TCU 30/25 Q1017 RMK BKN SCT080 QUK
     1 QUL 0 VIS MAR 10 KM MON E CLD CIME VAR RAPID MON W LIB NC
     VIS MIN 9999=
LIEB 081055Z 01007KT 9999 SCT025TCU 30/25 Q1018 RMK SCT QUK 2 QUL
     0 VIS MAR 20 KM MON INVIS VIS MIN 8000W=
####018000083####
SACN86 CWAO 081100 RRA
WPO SA 1100 AUTO8 M M M 193/12/11/2804/M/ 3012 95MM=

####018001568####
SARA31 KWBC 081100 RRC
METAR
UEEE 081100Z 13001MPS 9999 SCT050CB OVC100 21/13 Q1007 NOSIG RMK
     QFE747 2309//60=
UHHH 081100Z 02004MPS 9999 SCT033CB OVC100 17/15 Q1010 NOSIG RMK
     QFE751/1002 55090060=
UHMA 081100Z NIL=
UHMM 081100Z 26002MPS 9999 OVC007 12/11 Q1016 RMK QFE747 88010070
     MT OBSC=
UHMP 081100Z NIL=
UHPP 081100Z VRB01MPS 9999 FEW010 07/05 Q1018 NOSIG RMK QBB300
     QFE760/1013 SC070=
UHSS 081100Z 00000MPS 9999 BKN018 13/12 Q1011 NOSIG RMK MT OBSC
     QFE757/1009 19CLRD70=
UHWW 081100Z 18003MPS 9999 SCT013 BKN023 OVC090 17/14 Q1011 NOSIG
     RMK QFE757/1009 75CLRD70=
UIAA 081100Z 12004MPS 070V190 9999 VCTS BKN040CB OVC100 24/11
     Q1007 NOSIG RMK     QFE697 29CLRD70=
UIAA 081100Z 12004MPS 070V190 9999 VCTS BKN040CB OVC100 24/11
     Q1007 NOSIG RMK QFE697 29CLRD70=
UIBB 081100Z 06003MPS 9999 BKN200 27/13 Q1006 NOSIG RMK
     QFE711/0949 30CLRD60=
UIII 081100Z VRB01MPS CAVOK 21/13 Q1006 NOSIG RMK QFE712/0950
     12CLRD60=
UIUU 081100Z 00000MPS 9999 SCT033CB OVC100 22/13 Q1007 NOSIG RMK
     QFE711/0948=
ULAA 081100Z 33003G06MPS 270V020 9999 FEW030CB 27/17 Q1015 TEMPO
     VRB14MPS TSRA RMK QFE760/1013 SC070=
UNAA 081100Z 08003MPS 040V100 9999 SCT030CB BKN100 19/12 Q1011 RMK
     QFE736 202///55=
UNNT 081100Z 24006MPS 9999 BKN060CB OVC100 20/01 Q1007 WS RWY25
     NOSIG RMK QFE745/0994 25090070=
USNN 081100Z 15004MPS P6000 FEW026 SCT200 17/10 Q1003 NOSIG RMK
     QFE747 SC065=
UUEE 081100Z 17004MPS 9999 SCT050CB BKN200 28/14 Q1015 NOSIG=
####018000232####
SAID31 KWBC 081100 RRA
METAR
WAAA 081100Z VRB01KT 9999 FEW020 26/26 Q1009=
WIII 081100Z 25003KT 6000 FEW018CB SCT020 25/23 Q1010RERA RMK C B
     TO SE NOSIG=
WIMM 081100Z 03005KT 6000 FEW016CB FEW017 31/24 Q1008 NOSIG=
####018001184####
SARS32 KWBC 081100 RRA
METAR
URKA 081100Z 08004MPS 9999 SCT026 29/19 Q1012 NOSIG RMK 065=
URKA 081100Z 08004MPS 9999 SCT026 29/19 Q1012 NOSIG RMK  065=
URKK 081100Z 07005G08MPS 9999 SCT030 BKN300 30/20 Q1012 NOSIG RMK
     QFE756 SC070=
URKM 081100Z 12004MPS 9999 SCT040 BKN100 31/18 Q1012 NOSIG RMK
     QFE741=
URMM 081100Z 11006G09MPS 9999 BKN043 31/19 Q1012 NOSIG RMK /
     SC070=
URMM 081100Z 11006G09MPS 9999 BKN043 31/19 Q1012 NOSIG RMK /
     SC070=
URMN 081100Z 08001MPS 9999 BKN036CB BKN110 29/20 Q1013 NOSIG RMK /
     QFE723 SC07=
URMN 081100Z 08001MPS 9999 BKN036CB BKN110 29/20 Q1013 NOSIG RMK
     / QFE723 SC07=
URMT 081100Z 06005G08MPS 9999 SCT020 BKN100 28/16 Q1014 NOSIG RMK
     QFE721 SC07=
URRR 081100Z 13002MPS 070V190 9999 FEW033 30/14 Q1013 NOSIG RMK
     SC070=
URSS 081100Z 28004MPS 9999 FEW040 28/20 Q1010 NOSIG RMK / QFE756
     06CLRD70=
URSS 081100Z 28004MPS 9999 FEW040 28/20 Q1010 NOSIG RMK / QFE756
     06CLRD70=
URWA 081100Z 28002MPS CAVOK 38/12 Q1011 NOSIG RMK SC07=
URWI 081100Z 00000MPS CAVOK 31/16 Q1013 NOSIG RMK SC065=
URWW 081100Z 34003G06MPS CAVOK 30/15 Q1014 NOSIG RMK SC070=
####018000256####
SASD44 KWBC 081100 RRA
METAR
OETB 081100Z 21003KT CAVOK 40/05 Q1009 NOSIG=
OETF 081100Z 11008KT 9999 FEW030 39/00 Q1014 NOSIG=
OETR 081100Z NIL=
OEWJ 081100Z 30023KT 8000 SKC 33/28 Q1003=
OEYN 081100Z 26014KT 6000 SKC 42/22 Q0999 TEMPO 4000=
####018000192####
SACN70 CWAO 081100 RRA
WOO SA 1100 AUTO8 M M M M/12/08/2907/M/ M 87MM=
WSZ SA 1100 AUTO8 M M M 158/12/12/2605/M/0008 3008 45MM=
XWG SA 1100 AUTO8 M M M 152/12/11/2805/M/ 3011 34MM=

####018000364####
SASD43 KWBC 081100 RRA
METAR
OEMK 081100Z 27002KT CAVOK 45/25 Q1000=
OENG 081100Z 03010KT 4000 DU SCT030 SCT080 40/M01 Q1011 NOSIG=
OEPA 081100Z 36014KT CAVOK 45/05 Q1003=
OERF 081100Z 32007KT CAVOK 44/12 Q1006=
OERR 081100Z 30005KT CAVOK 45/10 Q1006=
OESH 081100Z 03017KT 3000 BLDU SKC 42/15 Q1001 NOSIG=
OESK 081100Z 22005KT CAVOK 43/00 Q1008=
####018000083####
SACN60 CWAO 081100 RRA
PCI SA 1100 AUTO8 M M M 218/11/08/MMMM/M/ 6007 93MM=

####018000447####
SAID31 WIII 081100
METAR WIMM 081100Z 03005KT 6000 FEW016CB FEW017 31/24 Q1008 NOSIG= 
METAR WAAA 081100Z VRB01KT 9999 FEW020 26/26 Q1009= 
METAR WIDD 081100Z 20005KT 9999 FEW017 28/25 Q1009= 
METAR WADD 081100Z 00000KT 9999 FEW018 28/25 Q1008 NOSIG= 
METAR WIII 081100Z 25003KT 6000 FEW018CB SCT020 25/23 Q1010RERA RMK C
B TO SE NOSIG= 
METAR WARR 081100Z 09003KT 9999 FEW020CB SCT020 28/24 Q1009 NSG= 
METAR WIHH NIL=
METAR WABB NIL=
####018000109####
SAAS32 KWBC 081105 RRA
METAR
VMMC 081100Z 19013KT 170V260 9999 FEW025 SCT090 30/26 Q1006
     NOSIG=
####018001508####
SARS41 KWBC 081100 RRA
METAR
UUBP 081100Z 00000MPS 9999 BKN033CB BKN/// 28/16 Q1013 NOSIG=
UUEE 081100Z 17004MPS 9999 SCT050CB BKN200 28/14 Q1015 NOSIG=
UUEM 081100Z NIL=
UUOO 081100Z VRB01MPS 9999 SCT033 30/14 Q1014 NOSIG RMK
     13090070=
UUWW 081100Z 15002MPS 100V190 9999 SCT040 BKN100 26/16 Q1015
     06000070 NOSIG=
UUYH 081100Z 00000MPS CAVOK 27/08 Q1016 NOSIG RMK QFE 750
     18CLRD60=
UUYS 081100Z 16003MPS CAVOK 21/06 Q1016 NOSIG RMK QFE755
     14CLRD60=
UUYY 081100Z 12002MPS 9999 FEW033 BKN200 30/14 Q1016 NOSIG
     01CLRD61 RMK QFE753/1004=
UWGG 081100Z 10003MPS 040V220 8000 FEW033 34/09 Q1016 NOSIG RMK
     QFE755 18090070=
UWKD 081100Z 25004MPS 220V300 9999 SCT033CB BKN070 32/12 Q1015
     TEMPO VRB15MPS 3000 TSRA RMK QFE750/1000 792/0350=
UWKE 081100Z 08003MPS 9999 FEW040 31/09 Q1016 NOSIG RMK
     QFE745/0993 22090070=
UWLW 081100Z 01002MPS 8000 FEW040CB 33/14 Q1014 NOSIG 02CLRD60 RMK
     QFE755=
UWOO 081100Z 07007MPS P5000 FEW070 32/04 Q1012 08LRD65 NOSIG RMK
     QFE749/0998=
UWOO 081100Z 07007MPS P5000 FEW070 32/04 Q1012 08LRD65 NOSIG RMK
     QFE749/0998=
UWPP 081100Z 12005MPS 9999 SCT033 BKN100 32/09 Q1014 NOSIG RMK
     QFE746 11090060=
UWSS 081100Z 09005MPS CAVOK 31/09 Q1014 NOSIG RMK QFE749
     120///60=
UWUU 081100Z 04004G08MPS 020V110 CAVOK 28/10 Q1015 82010060 NOSIG
     RMK QFE750/1000=
UWWW 081100Z 06008MPS 9999 SCT033 BKN200 32/09 Q1015 NOSIG RMK
     QFE748/0998 05CLRD60 15//99//=
####018000085####
SAAI41 FHAW 081050
METAR FHAW 081050Z 13016KT 9999 FEW025 BKN035 27/20 Q1017 BLU=
####018000366####
SAAL31 DAAA 081100
METAR DAAG 081100Z 04005KT 330V070 CAVOK 33/18 Q1019=
METAR DAAT 081100Z 11013KT 050V160 CAVOK 33/03 Q1022=
METAR DABB 081100Z 01012KT CAVOK 28/19 Q1019=
METAR DABC 081100Z 34008KT CAVOK 32/07 Q1023=
METAR DAON 081100Z 36008KT CAVOK 35/21 Q1017=
METAR DAOO 081100Z 36013KT CAVOK 27/21 Q1016=
METAR DAUH 081100Z 10014KT CAVOK 38/21 Q1018=
####018000081####
SACA33 KWBC 081100 RRC
METAR
TNCM 081100Z 09009KT 9999 FEW019 28/23 Q1016=
####018000083####
SACN82 CWAO 081000 RRB
MLU SA 1000 AUTO8 M M M 157/23/22/1802/M/ 3007 51MM=

####018000744####
SACN95 CWAO 081100 RRA
WTA SA 1100 AUTO8 M M M 161/28/22/1701/M/ 1006 62MM=
WTN SA 1100 AUTO8 M M M 161/18/17/2603/M/ 1006 77MM=
WTT SA 1100 AUTO8 M M M M/24/23/2104/M/M M 19MM=
WTY SA 1100 AUTO8 M M M 148/24/22/2005/M/ 1008 81MM=
WUT SA 1100 AUTO8 M M M 185/10/08/2604/M/M 3009 73MM=
WVC SA 1100 AUTO8 M M M 213/13/10/2708/M/ 3004 61MM=
WVI SA 1100 AUTO8 M M M 177/13/11/2406/M/ 6009 78MM=
WVP SA 1100 AUTO8 M M M 218/11/08/3302/M/ 4000 60MM=
WVU SA 1100 AUTO8 M M M 211/16/16/1711/M/ 3013 18MM=
WWC SA 1100 AUTO8 M M M 113/11/07/MM07/M/ 8007 64MM=
WWK SA 1100 AUTO8 M M M 157/17/14/0101/M/ 3007 90MM=
WWP SA 1100 AUTO8 M M M 183/10/08/3002/M/ 2005 63MM=
WXA SA 1100 AUTO8 M M M 217/13/05/2509/M/0007 6005 53MM=

####018000084####
SAAO33 DRRN 081100 RRA
METAR DNMM 081100Z 25007KT 9999 BKN013 30/25 Q1015 NOSIG=
####018000406####
SACN97 CWAO 081100 RRA
XBO SA 1100 AUTO8 M M M M/18/17/0707/M/ M 28MM=
XEC SA 1100 AUTO8 M M M M/14/13/MMMM/M/ SUNSH 0 M 96MM=
XHA SA 1100 AUTO8 M M M 156/25/23/1802/M/ 3003 75MM=
XMY SA 1100 AUTO8 M M M M/19/17/MMMM/M/ M 07MM=
XSH SA 1100 AUTO7 M M M 152/24/20/0602/M/ 3009 23MM=
XTP SA 1100 AUTO8 M M M 226/11/10/1906/M/ 6003 98MM=
XVG SA 1100 AUTO8 M M M 158/13/08/2107/M/ 6007 32MM=

####018000259####
SACI31 KWBC 081100 RRA
METAR
RCKH 081100Z 31004KT 240V350 9999 FEW013 BKN250 30/26 Q1009
     NOSIG=
RCSS 081100Z 27008KT 9999 FEW020 BKN035 BKN080 31/23 Q1007
     NOSIG=
RCTP 081100Z 23011KT 9999 FEW025 BKN120 BKN200 29/24 Q1007
     NOSIG=
####018000081####
SAJM31 MKJP 081100
METAR MKJP 081100Z 11012KT 9999 SCT020 BKN220 27/19 Q1012=
####018000143####
SAXX99 KWBC 081100 CCD
METAR
CYXZ 081100Z CCA 00000KT 15SM SCT003 BKN040 OVC080 17/17 A2996 RMK
     ST3SC2AS2 /R20 AFT 00UTC/ SLP148=
####018000075####
SANT31 KWBC 081100 RRA
METAR
LPBJ 081100Z 22007KT CAVOK 30/18 Q1016=
####018001091####
SAAU31 KWBC 081100 RRA
METAR
YBCG 081100Z AUTO 20011KT 9999NDV // SCT043 BKN060 15/13 Q1021=
YBCS 081100Z 16008KT 9999 FEW024 BKN040 23/20 Q1016 RMK FU=
YBMA 081100Z AUTO 22003KT 9999NDV // NCD 10/09 Q1020=
YBRK 081100Z 21004KT 9999 FEW012 OVC035 14/13 Q1020=
YBRM 081100Z 36004KT 3600 -SHRA SCT017 SCT025 OVC031 23/23
     Q1012=
YMHB 081100Z NIL=
YMML 081100Z 00000KT 9999 FEW043 SCT250 08/06 Q1028 RMK HZ
     NOSIG=
YPAD 081100Z 09006KT CAVOK 07/04 Q1026=
YPDN 081100Z 03005KT CAVOK 26/20 Q1013=
YPEA 081100Z AUTO 36012KT 9999NDV // SCT032 SCT046 SCT072 15/13
     Q0998=
YPPD 081100Z AUTO 05016KT 9999NDV // SCT079 SCT120 23/20 Q1009=
YPPH 081100Z 01010KT 9999 FEW024 BKN083 14/13 Q0998 RMK WBD 0.7
     INTER 1100/1200 27025G35KT 3000 +SHRA BKN010 INTER 1200/1400
     27030G50KT 2000 TSGS BKN010 FEW030CB=
YSCB 081100Z AUTO 00000KT 9999NDV // NCD 05/03 Q1028=
YSDU 081100Z AUTO 04004KT 9999NDV // NCD 08/04 Q1025=
YSNF 081100Z 12008KT 9999 FEW025 BKN030 BKN060 15/09 Q1018=
YSRI 081100Z AUTO 22007KT 9999NDV // SCT043 OVC055 11/10 Q1027=
####018000290####
SASD41 KWBC 081100 RRA
METAR
OEAB 081100Z 03010KT 9000 FEW020 SCT200 32/M01 Q1020 NOSIG=
OEAH 081100Z 33009KT CAVOK 46/06 Q1000 NOSIG=
OEBA 081100Z 11013KT 9000 SKC 36/04 Q1016 NOSIG=
OEBH 081100Z 07010KT CAVOK 40/04 Q1010 NOSIG=
OEGN 081100Z 23008KT CAVOK 37/27 Q1000 NOSIG=
####018000083####
SACN95 CWAO 081000 RRF
WTN SA 1000 AUTO8 M M M 160/17/16/1001/M/ 2007 50MM=

####018000188####
SACN98 CWAO 081100 RRA
XVN SA 1100 AUTO8 M M M 156/25/21/2602/M/ 3004 71MM=
ZKD SA 1100 AUTO8 M M M M/11/09/2603/M/ M 87MM=
ZMJ SA 1100 AUTO8 M M M 215/10/09/2705/M/ 3007 76MM=

####018000113####
SAUS45 KCYS 081112
MTRECS
SAUS70 KECS 081107
METAR KECS 081059Z AUTO 00000KT 10SM CLR 12/09 A3030 RMK

####018000629####
SACN96 CWAO 081100 RRA
WXL SA 1100 AUTO8 M M M M/10/08/1703/M/ M 72MM=
WXN SA 1100 AUTO8 M M M 230/12/07/2103/M/ 6005 59MM=
WXZ SA 1100 AUTO8 M M M 141/17/16/0000/M/0192 PCPN 0.8MM PAST HR
6010 97MM=
WYJ SA 1100 AUTO8 M M M M/16/12/3202/M/ M 50MM=
WZA SA 1100 AUTO8 M M M 151/22/12/0412+18/M/ PK WND 0318 1053Z 1006
79MM=
WZL SA 1100 AUTO8 M M M 183/23/06/2906/M/ 0001 77MM=
WZQ SA 1100 AUTO8 M M M 188/23/17/1807/M/M 1005 61MM=
WZT SA 1100 AUTO8 M M M M/11/M/MMMM/M/ M 6MMM=
XKE SA 1100 AUTO8 M M M 159/23/21/2102/M/ 3005 43MM=
ZUG SA 1100 AUTO8 M M M M/16/11/3110+16/M/ PK WND 3117 1031Z M
00MM=

####018000082####
SACN85 CWAO 081100 RRA
WWE SA 1100 AUTO8 M M M 217/16/M/2104/M/ 1016 5MMM=

####018000603####
SACN89 CWAO 081100 RRA
WAG SA 1100 AUTO8 M M M 202/11/10/1702/M/M 0000 74MM=
WAV SA 1100 AUTO8 M M M 218/06/04/0000/M/ 6006 62MM=
WBL SA 1100 AUTO8 M M M 160/15/10/2914/M/M PK WND 2918 1041Z 3006
04MM=
WBO SA 1100 AUTO8 M M M 219/10/10/1803/M/ 5000 77MM=
WBY SA 1100 AUTO8 M M M 163/12/12/0809/M/0003 1004 76MM=
WCJ SA 1100 AUTO8 M M M 145/16/16/1302/M/0004 1010 39MM=
WCO SA 1100 AUTO8 M M M 149/25/21/1202/M/ 6001 04MM=
WDI SA 1100 AUTO8 M M M M/14/13/1901/M/ M 96MM=
WDK SA 1100 AUTO8 M M M 224/08/07/0201/M/ 6006 16MM=
WDW SA 1100 AUTO8 M M M 186/09/07/MMMM/M/ 6006 74MM=

####018000132####
SAIY31 KWBC 081050 RRD
METAR
LIEE 081055Z 16011KT 9999 FEW020 28/20 Q1019 RMK FEW VIS MIN 9999
     WIND THR14 18015KT BLU=
####018000078####
SACN94 CWAO 081000 RRF
WQH SA 1000 AUTO8 M M M M/23/22/1502/M/ M 06MM=

####018000113####
SAUS45 KCYS 081112
MTRW43
SAUS70 KW43 081105
METAR KW43 081055Z AUTO 21005KT 10SM CLR 09/07 A3030 RMK

####018000113####
SAAW34 KWBC 081045 RRG
METAR
UACP 081100Z NIL=
UADD 081100Z NIL=
UAII 081100Z NIL=
UASP 081100Z NIL=
####018000097####
SACN46 CWAO 081100 RRA
METAR CYQK 081100Z 26005KT 15SM FEW120 15/13 A2998 RMK AC1 SLP152=

####018000120####
SAUR30 UKMS 081100 RRA
METAR UKHH 081100Z 19004MPS 150V230 9999 SCT033
         BKN200  30/15 Q1014 260///65 NOSIG=
####018000097####
SACN41 CWAO 081100 RRA
METAR CYYE 081100Z 00000KT 20SM FEW210 12/06 A3002 RMK CI0 SLP171=

####018000119####
SACN48 CWAO 081100 RRA
METAR CYMT 081100Z 17002KT 15SM FEW045 FEW070 SCT200 21/19 A3000 RMK
CU1AC2CI0 SLP158=

####018000073####
SAPH31 KWBC 081100 RRA
METAR
RPMD 081100Z NIL=
RPMZ 081100Z NIL=
####018000780####
SARS31 KWBC 081100 RRB
METAR
UELL 081100Z VRB01MPS 9999 VCFG BKN026CB OVC200 13/12 Q1012 TEMPO
     0600 FG VV003 RMK QFE684 08CLRD70=
UEST 081100Z 11002MPS CAVOK 05/03 Q1017 NOSIG RMK QFE762=
ULLI 081100Z 11002MPS 010V170 9999 SCT040TCU BKN200 31/15 Q1013
     NOSIG=
ULMM 081100Z 00000MPS 9999 BKN023 15/08 Q1018 NOSIG RMK QFE756
     32190060=
UOHH 081100Z 02003MPS 9999 FEW030 SCT/// 12/03 Q1023 NOSIG RMK
     QFE761 06090060=
UOOO 081100Z 03009G10MPS CAVOK 23/10 Q1010 NOSIG RMK QFE743
     010///60=
UUDD 081100Z 14006MPS 9999 SCT043TCU BKN200 27/15 Q1015 TEMPO
     TSRA=
UUEE 081100Z 17004MPS 9999 SCT050CB BKN200 28/14 Q1015 NOSIG=
UUEM 081100Z NIL=
UUWW 081100Z 15002MPS 100V190 9999 SCT040 BKN100 26/16 Q1015
     06000070 NOSIG=
####018000082####
SACN93 CWAO 081000 RRH
WOD SA 1000 AUTO8 M M M 134/19/M/3303/M/ 3003 1MMM=

####018000083####
SASD44 KWBC 081000 RRB
METAR
OEWD 081000Z 03010KT 4000 BLDU SKC 44/11 Q1003=
####018001725####
SAIY42 LIIB 081100
METAR LIBF 081050Z 33018KT CAVOK 28/07 Q1020 RMK VIS MIN 9999=
METAR LIEA 081050Z VRB03KT CAVOK 32/21 Q1019 RMK VIS MIN 9999=
METAR LIED 081055Z 15012KT 9999 33/18 Q1018 RMK FEW VIS MIN 9999 BLU=
METAR LIEO 081050Z 04011KT 9999 FEW030 30/20 Q1020 RMK VIS MIN
9999=
METAR LIMA 081050Z VRB03KT 9999 SCT040 25/16 Q1023 RMK VIS MIN 9999=
METAR LIQN 081050Z 36005KT CAVOK 27/17 Q1021 RMK VIS MIN 9999=
METAR LIQO 081055Z 00000KT 9999 FEW003 25/20 Q1021 RMK FEW VAL NIL NC
VIS MIN 9999=
METAR LIQW 081055Z 19003KT 9999 FEW030 29/18 Q1020 RMK FEW VIS MIN
9999 BLU=
METAR LIRE 081055Z 23010KT 9999 FEW020 28/20 Q1019 RMK FEW VIS MIN
9999 WIND THR31 22010KT BLU=
METAR LIRG 081055Z 27007KT 9999 SCT033 31/18 Q1019 RMK SCT MON NE
LIB NC VIS MIN 9999 BLU=
METAR LIRH 081055Z 36005KT 9999 SCT035 29/19 Q1020 RMK SCT MON LIB NC
VIS MIN 9999 WIND THR16 24006KT BLU=
METAR LIRI 081050Z 02011KT CAVOK 29/11 Q1019 RMK VIS MIN 9999=
METAR LIRK 081055Z 13010KT CAVOK 16/14 Q1027 RMK SCT SCT060 MON NE
LIB NC VAL NIL NC VIS MIN 9999=
METAR LIRL 081055Z 24008KT 9999 FEW020 FEW025TCU 30/18 Q1018 RMK SCT
MON LIB NC VIS MIN 9999 BLU=
METAR LIRM 081055Z 08008KT CAVOK 29/15 Q1019 RMK SKC VIS MIN 9999
WIND THR06 06007KT BLU=
METAR LIRS 081055Z 21010KT 9999 FEW040 31/14 Q1019 RMK SCT SCT200 VIS
MIN 9999 WIND THR21 /////KT BLU=
METAR LIRT 081055Z 01009KT 9999 FEW015 17/07 Q1023 RMK FEW MON LIB
VAL NIL VIS MIN 9999=
METAR LIRU 081050Z 25003KT 9999 SCT040 30/19 Q1021 RMK VIS MIN 9999=
METAR LIRV 081055Z 25005KT 9999 FEW028 29/18 Q1021 RMK FEW MON E SE
LIB NC VIS MIN 9999 BLU=
METAR LIRX 081055Z 16004KT CAVOK 28/11 Q1020 RMK SKC VIS MIN 9999E
VIS MAR 25 KM=
####018001353####
SAAU32 AMMC 081100
METAR YAMB 081100Z AUTO 19007KT 9999NDV // SCT044 BKN079 OVC088 16/10 Q1021=
METAR YBCG 081100Z AUTO 20011KT 9999NDV // SCT043 BKN060 15/13 Q1021=
METAR YBHM 081100Z AUTO 14017KT //// // ////// 19/16 Q1018=
METAR YBMA 081100Z AUTO 22003KT 9999NDV // NCD 10/09 Q1020=
METAR YBRK 081100Z 21004KT 9999 FEW012 OVC035 14/13 Q1020=
METAR YBRM 081100Z 36004KT 3600 -SHRA SCT017 SCT025 OVC031 23/23 Q1012=
METAR YCIN 081100Z AUTO 13005KT //// // ////// 22/19 Q1013=
METAR YFRT 081100Z AUTO 05011KT //// // ////// 15/02 Q1014=
METAR YMAV 081100Z AUTO 10002KT 9999NDV // OVC046 10/07 Q1028=
METAR YMHB 081100Z 31006KT CAVOK 03/01 Q1030=
METAR YMLT 081100Z AUTO 17004KT 9999NDV // SCT036 02/01 Q1030=
METAR YPEA 081100Z AUTO 36012KT 9999NDV // SCT032 SCT046 SCT072 15/13 Q0998=
METAR YPGV 081100Z 15009KT 9999 FEW014 SCT021 BKN350 24/22 Q1014=
METAR YPKG 081100Z AUTO 36011KT 9999NDV // SCT073 BKN088 18/04 Q1005=
METAR YPPD 081100Z AUTO 05016KT 9999NDV // SCT079 SCT120 23/20 Q1009=
METAR YSCB 081100Z AUTO 00000KT 9999NDV // NCD 05/03 Q1028=
METAR YSDU 081100Z AUTO 04004KT 9999NDV // NCD 08/04 Q1025=
METAR YSNF 081100Z 12008KT 9999 FEW025 BKN030 BKN060 15/09 Q1018=
METAR YSRI 081100Z AUTO 22007KT 9999NDV // SCT043 OVC055 11/10 Q1027=
METAR YWLM 081100Z AUTO 31003KT 9999NDV // ////// 10/10 Q1026=
####018000456####
SAJP31 KWBC 081100 RRA
METAR
RJAA 081100Z 16004KT 9999 FEW020 BKN/// 23/21 Q1011 NOSIG RMK
     1CU020 A2985=
RJCC 081100Z 21006KT 2500 -DZ BR BKN002 18/16 Q1010 RMK 7ST002
     A2985=
RJFK 081100Z 15004KT 9999 FEW030 BKN/// 24/20 Q1010 RMK 1CU030
     A2984=
RJOO 081100Z 21004KT 160V250 9999 FEW030 BKN/// 27/21 Q1009 RMK
     1CU030 A2980=
RJTT 081100Z 18016KT 9999 FEW009 SCT014 BKN/// 25/22 Q1010 RMK
     1ST009 3CU014 A2983=
####018000108####
SARA31 KWBC 080800 RRI
METAR
UTNU 080830Z 21002MPS 150V240 CAVOK 41/09 Q1008 R13/CLRD60
     NOSIG=
####018000295####
SASD42 KWBC 081100 RRA
METAR
OEGS 081100Z 02011KT CAVOK 45/07 Q1007=
OEGT 081100Z NIL=
OEHL 081100Z 12008KT CAVOK 43/04 Q1012=
OEKB 081100Z 18002KT 9999 FEW045 46/20=
OEKK 081100Z 04007KT CAVOK 44/15 Q1005=
OEKM 081100Z 06022KT 7000 SCT022 32/01 Q1019 NOSIG=
OEMH 081100Z NIL=
####018000122####
SAUR30 UKMS 081100 RRA
METAR UKHH 081100Z 19004MPS 150V230 9999 SCT033
         BKN200  30/15 Q1014 260///65 NOSIG=
####018000336####
SACN91 CWAO 081100 RRA
WGR SA 1100 AUTO8 M M M 167/20/17/2314+20/M/ PK WND 2221 1046Z 3002
67MM=
WHM SA 1100 AUTO8 M M M M/25/23/2303/M/M M 19MM=
WII SA 1100 AUTO8 M M M M/18/14/3116/M/M PK WND 3019 1058Z M 75MM=
WIS SA 1100 AUTO8 M M M 170/21/20/1702/M/ 1002 48MM=
WIW SA 1100 AUTO8 M M M 201/09/08/2604/M/ 3004 51MM=

####018000119####
SACZ41 LKPW 081100
METAR COR LKKU 081100Z 35010KT CAVOK 23/08 Q1022=
METAR LKLB 081103Z VRB05KT CAVOK 23/06 Q1023=
####018000068####
SAUY41 SUSO 081100
METAR SUSO 081100Z 12004KT CAVOK 05/04 Q1020=
####018000132####
SAEE31 LOWM 081100 RRA
METAR UASK 081100Z 01002MPS 9999 SCT033 BKN100 23/11 Q1012
                   300/0060 NOSIG RMK QFE733=
####018000441####
SAAO33 DRRN 081100
METAR DBBB 081100Z 21008KT 190V260 8000 SCT012 BKN120 28/25 Q1014
NOSIG=
METAR DFFD 081100Z NIL=
METAR DGAA 081100Z 23010KT 9999 FEW011 BKN015 BKN250 29/23 Q1015
NOSIG=
METAR DNKN 081100Z NIL=
METAR DNMM 081100Z NIL=
METAR DRRN 081100Z VRB02KT CAVOK 30/21 Q1013 NOSIG=
METAR DXXX 081100Z 20010KT 180V250 9999 SCT016 29/24 Q1015 NOSIG=
METAR FTTJ 081100Z 21004KT 140V260 9999  FEW040 BKN140 32/28 Q1014
NOSIG=
####018000134####
SAEE31 LOWM 081100 RRA
METAR UASK 081100Z 01002MPS 9999 SCT033 BKN100 23/11 Q1012
                   300/0060 NOSIG RMK QFE733=
####018000237####
SAEE31 LOWM 081100
METAR UACK 081100Z 31008G12MPS 9999 FEW053 BKN067 19/01 Q1011
02010070 NOSIG RMK QFE734=
METAR UACP 081100Z NIL=
METAR UAII 081100Z NIL=
METAR UADD 081100Z NIL=
METAR UASK 081100Z NIL=
METAR UASP 081100Z NIL=
####018001171####
SAAG05 SABM 081100
METAR SAAR 081100Z  00000KT 9000  NSC  00/M00
Q1018=
METAR SABE 081100Z  27009KT CAVOK 09/M01 Q1019=
METAR SACO 081100Z  34010KT CAVOK 09/M08 Q1020=
METAR SADF 081100Z  00000KT CAVOK 04/02 Q1019=
METAR SAEZ 081100Z 27001KT CAVOK 03/00 Q1019=
METAR SAME 081100Z 00000KT CAVOK 03/M04 Q1015=
METAR SANT 081100Z NIL=
METAR SAOC 081100Z 320006KT FEW070 05/006 Q1015=
METAR SARC 081100Z  14008KT 8000  BKN008  11/09
Q1019=
METAR SARE 081100Z 14007KT 9999 BKN006 SCT100 10/09 Q1019=
METAR SARF 081100Z  18008KT 9999  BKN006 SCT018
14/12 Q1017=
METAR SARI 081100Z  20004KT 7000  NSC  16/16 Q1019=
METAR SARL 081100Z  14005KT 9999  06/05 Q1020=
METAR SARP 081100Z  07007KT 9999  SCT005 OVC015
15/13 Q1018=
METAR SASA 081100Z NIL=
METAR SASJ 081100Z  00000KT CAVOK 10/08 Q1018=
METAR SAVC 081100Z  23008KT CAVOK 06/M00 Q1000=
METAR SAWE 081100Z NIL=
METAR SAWG 081100Z  29016KT 9999  SCT025 SCT100
03/M06 Q0991=
METAR SAWH 081100Z  05006KT 9999  FEW035 BKN100
01/M01 Q0984=
METAR SAZM 081100Z  32014KT CAVOK 06/01 Q1014=
METAR SAZN 081100Z 27010KT CAVOK 07/01 Q1009=
METAR SAZS 081100Z  32008KT 4000 RA BKN007 OVC040
01/00 Q1005=
####018000836####
SARS33 KWBC 081100 RRA
METAR
USCC 081100Z 34004G07MPS 300V020 9999 FEW040 SCT200 25/01 Q1014
     NOSIG RMK QFE740 27000070=
USDD 081100Z 03008G12MPS CAVOK 17/01 Q1016 NOSIG RMK QFE756/1008
     SC060=
USMU 081100Z 01005MPS 9999 SCT026CB OVC066 14/11 Q1006 NOSIG RMK
     QFE748 09250345=
USNN 081100Z 15004MPS P6000 FEW026 SCT200 17/10 Q1003 NOSIG RMK
     QFE747 SC065=
USPP 081100Z 32003MPS 270V360 CAVOK 28/08 Q1015 NOSIG RMK
     QFE751/1001 21090060=
USRK 081100Z 34003MPS 6000 BKN022 OVC066 14/10 Q1004 NOSIG RMK
     QFE747 351///55=
USRR 081100Z 36003MPS 7000 OVC010 12/10 Q1004 TEMPO BKN007 RMK
     QFE748 25////60=
USSS 081100Z 33006G10MPS 300V010 CAVOK 25/02 Q1014 NOSIG RMK
     QFE740 260///70=
USTR 081100Z 34006G09MPS 9999 SCT046 19/05 Q1012 NOSIG RMK
     QFE749/0999 30CLRD65=
####018003225####
SAXX99 KWBC 081100 RRK
METAR
DAUI 081100Z 08024KT 2600 BLSA NSC 43/05 Q1013=
DFFD 081100Z NIL=
EGXT 081050Z 23012KT 9999 FEW025 SCT012 BKN250 20/07 Q1018=
EGYE 081050Z 24010KT 9999 FEW035 SCT100 ///// Q1017 BLU=
LKKU 081100Z 35010KT CAVOK 23/08 Q1022=
LKLB 081103Z VRB05KT CAVOK 23/06 Q1023=
LPAR 081100Z /////KT CAVOK 25/19 Q1015 RMK ESTMD WND 18007KT=
OEDM 081100Z 09010KT CAVOK 43/04 Q1010=
OEKJ 081100Z NIL=
OYAG 081100Z 08015KT 9999 SCT030 30/24 Q1002=
OYAM 081100Z NIL=
OYAT 081100Z 36012KT CAVOK 40/10 Q0999=
OYDM 081100Z 02013KT 6000 SCT030 30/01 Q////=
OYIB 081100Z 34004KT 5000 DU SCT025 28/17 Q1015=
OYRN 081100Z 20021KT 6000 NSC 31/24 Q1000=
OYSH 081100Z 02016KT 2000 DU FEW030 34/01 Q////=
OYSQ 081100Z NIL=
OYSY 081100Z VRB03KT 6000 NSC 43/07 Q1001=
RPLI 081100Z NIL=
UACK 081100Z 31008G12MPS 9999 FEW053 BKN067 19/01 Q1011 02010070
     NOSIG RMK QFE734=
UERP 081100Z 01004MPS 9999 BKN033CB BKN100 16/06 Q1014 NOSIG RMK
     QFE717 35090065=
UERR 081100Z 33002MPS 9999 BKN020CB OVC200 15/14 Q1012 NOSIG RMK
     QFE728 24290255=
UESO 081100Z NIL=
UHNN 081100Z 05002MPS 9999 -SHRA FEW010 BKN024CB OVC070 11/10
     Q1013 RMK QFE755=
UHSH 081100Z NIL=
ULDD 081100Z NIL=
ULKK 081100Z 31002MPS 6000 SCT033 SCT099 32/16 Q1015 NOSIG RMK
     QFE757=
ULOL 081100Z NIL=
ULOO 081100Z VRB02MPS P6000 SCT033 BKN200 28/18 Q1012 NOSIG RMK
     QFE755=
ULWW 081100Z 15005MPS 9999 SCT050TCU BKN/// 32/16 Q1016 NOSIG RMK
     QFE751 15CLRD60=
UMKK 081100Z 30007MPS P8000 FEW030 SCT200 22/15 Q1020 NOSIG RMK
     QFE 764 SC07=
UNBB 081100Z 19007MPS 9999 -SHRA BKN019CB 15/08 Q1010 NOSIG RMK
     QFE735=
UNEE 081100Z 27005MPS 9999 SCT026 BKN200 18/13 Q1008 NOSIG RMK
     QFE734 23CLRD60=
UNKL 081100Z 00000MPS 9999 SCT023CB OVC083 18/12 Q1010 NOSIG RMK
     QFE732 29////60=
UNOO 081100Z 33003MPS 9999 BKN025CB 13/10 Q1008 NOSIG 25CLRD06 RMK
     QFE748=
UNWW 081100Z 24001MPS 9999 BKN026CB OVC100 16/08 Q1010 NOSIG RMK
     QFE731 1929//60=
UNWW 081100Z NIL=
UOII 081100Z 16004MPS 9999 SCT033CB BKN040 24/14 Q1006 TEMPO -TSRA
     RMK QFE752 30////60=
URML 081100Z 04006MPS 9999 SKC 32/21 Q1012 NOSIG RMK QFE759 /
     07=
URML 081100Z 04006MPS 9999 SKC 32/21 Q1012 NOSIG RMK QFE759 /
     07=
UWLL 081100Z 07003MPS 9999 SCT050CB 31/11 Q1015 NOSIG RMK
     QFE749/0999 SC065=
UWOR 081100Z 05007PS CAVOK 29/02 Q1014 07CLRD65 NOSIG RMK
     QFE735/0980=
VTSG 081100Z VRB02KT 9000 FEW020 SCT120 BKN300 24/23 Q1009 A2979
     RWY32 INFO L=
WADD 081100Z 00000KT 9999 FEW018 28/25 Q1008 NOSIG=
WALL 081100Z 00000KT 9999 FEW020 26/24 Q1008=
WARR 081100Z 09003KT 9999 FEW020CB SCT020 28/24 Q1009 NSG=
YAMB 081100Z AUTO 19007KT 9999NDV // SCT044 BKN079 OVC088 16/10
     Q1021=
YBHM 081100Z AUTO 14017KT //// // ////// 19/16 Q1018=
YCIN 081100Z AUTO 13005KT //// // ////// 22/19 Q1013=
YFRT 081100Z AUTO 05011KT //// // ////// 15/02 Q1014=
YMAV 081100Z AUTO 10002KT 9999NDV // OVC046 10/07 Q1028=
YMLT 081100Z AUTO 17004KT 9999NDV // SCT036 02/01 Q1030=
YPGV 081100Z 15009KT 9999 FEW014 SCT021 BKN350 24/22 Q1014=
YPKG 081100Z AUTO 36011KT 9999NDV // SCT073 BKN088 18/04 Q1005=
####018000727####
SAAO32 GOOY 081100
METAR GABS 081100Z 25007KT 210V280 9999 FEW030 31/22 Q1016 NOSIG=
METAR GGOV 081100Z 18007KT 130V230 9999 SCT014TCU FEW020CB BKN250
               30/23 Q1013 NOSIG=
METAR GOOY 081100Z 18007KT 150V210 9999 SCT013 30/24 Q1012 NOSIG=
METAR DIAP 081100Z 21008KT 7000 SCT012 BKN070 28/24 Q1015 NOSIG=
METAR GQNN 081100Z 18012KT 6000 SCT020 30/23 Q1013 NOSIG=
METAR GQPP 081100Z 02003KT 8000 NSC 27/19 Q1012 NOSIG=
METAR GUCY 081100Z NIL=
METAR GVAC 081100Z 07011KT 9999 BKN014 25/19 Q1014 NOSIG=
METAR GFLL 081100Z 15006KT 9999 SCT015 FEW028CB 28/24 Q1014 CB-NE=
METAR GBYD 081100Z 22004KT 9999 SCT011 FEW020CB 32/26 Q1013  CB E-W=
METAR GLRB 081100Z 15006KT 9999 BKN018 FEW026CB 29/24 Q1015 CB-S=
####018000081####
SAAL41 DAMM 081100 RRA
METAR DAUI 081100Z  08024KT 2600 BLSA NSC 43/05 Q1013=
####018000737####
SAHK31 VHHH 081100
METAR VHHH 081100Z 21009KT 140V230 9999 FEW015 SCT028 31/25 
Q1006 NOSIG=
METAR RCTP 081100Z 23011KT 9999 FEW025 BKN120 BKN200 29/24
Q1007 NOSIG=
METAR RCKH 081100Z 31004KT 240V350 9999 FEW013 BKN250 30/26
Q1009 NOSIG=
METAR RCSS 081100Z 27008KT 9999 FEW020 BKN035 BKN080 31/23
Q1007 NOSIG=
METAR VMMC 081100Z 19013KT 170V260 9999 FEW025 SCT090 30/26
     Q1006 NOSIG=
METAR RPLL 081100Z 10002KT 9999 FEW025TCU BKN300 31/25 Q1009 NOSIG 
           RMK TCU S A2980=
METAR RPVM 081100Z 16004KT 9999 FEW018CB BKN250 30/26 Q1010 A2982
           CB W W/ OCNL LTNG=
METAR RPMD 081100Z NIL=
METAR RPLB 081100Z 21006KT 9999 FEW020 BKN280 30/25 Q1009 NOSIG=
METAR RPLI 081100Z NIL=
METAR RPMZ 081100Z NIL=
####018000406####
SAUS20 KNKA 081111
SPECI KCEW 081109Z AUTO 00000KT 4SM BR FEW001 20/20 A3004 RMK AO2=
SPECI KCSM 081111Z AUTO 01007KT 9SM BKN009 BKN012 23/21 A3011 RMK 
    AO2 CIG 007V012=
METAR KEKM 081055Z 00000KT 5SM BR CLR 23/22 A3005 RMK AO2=
SPECI KNSE 081103Z 00000KT 3/4SM BR FEW001 SCT250 22/21 A3003 RMK AO2
      $=
SPECI KODO 081110Z AUTO 03008KT 7SM FEW003 BKN120 21/20 A3009 RMK 
    AO2=
####018000617####
SAUZ31 UTTW 081100
UTFN NIL=
METAR UTNN 081100Z 23004MPS 210V270 CAVOK 43/06 Q1007 R33/CLRD70
NOSIG=
METAR UTNU 081100Z VRB01MPS CAVOK 43/08 Q1007 R13/CLRD60 NOSIG=
METAR UTSA 081100Z 02007MPS 9999 NSC 41/04 Q1008 R88/CLRD70 NOSIG=
METAR UTSB 081100Z 01007MPS CAVOK 41/02 Q1007 R01/CLRD70 TEMPO
01008MPS=
UTSH NIL=
METAR UTSK 081100Z 32005MPS CAVOK 41/12 Q1006 R16/CLRD70=
METAR UTSS 081100Z 04003MPS 9999 NSC 35/10 Q1010 R88/CLRD70 NOSIG=
UTST NIL=
METAR UTTT 081100Z 29004MPS 250V310 CAVOK 39/04 Q1010 R08R/CLRD70
NOSIG=
METAR UTTP 081100Z 25002MPS CAVOK 38/08 Q1010 R88/CLRD70 NOSIG=
####018000086####
SASD31 OEJD 081100 RRA
METAR OYSN 081100Z 03017G27KT 3000 DU SCT030 30/M04 Q1021=
####018000091####
SPUS52 KWBC 081112
SPECI
KHBR 081108Z AUTO 06003KT 6SM BR FEW004 OVC070 23/22 A3008=
####018000907####
SAUS43 KWBC 081100 RRC
METAR
KC75 081104Z AUTO 00000KT 4SM BR SCT008 OVC014 24/24 A3003=
KDNV 081105Z AUTO 00000KT 4SM BR SCT090 22/21 A3002=
KENL 081104Z AUTO 20003KT 10SM SCT065 24/16 A3005=
KFEP 081105Z AUTO 21003KT 4SM BR CLR 22/20 A3004=
KFOA 081105Z AUTO 00000KT 4SM BR CLR 25/25 A3005=
KFWC 081105Z AUTO 00000KT 5SM BR CLR 23/22 A3005=
KGBG 081105Z AUTO 00000KT 2 1/2SM BR BKN002 OVC006 23/22 A3004=
KHSB 081105Z AUTO 00000KT 4SM BR CLR 22/21 A3005=
KIJX 081105Z AUTO 00000KT 2SM -DZ CLR 23/23 A3004=
KMQB 081105Z AUTO 28004KT 5SM BR OVC004 23/23 A3006=
KMWA 081105Z AUTO 18003KT 10SM SCT100 24/23 A3007=
KOLY 081103Z AUTO 00000KT 2 1/2SM BR CLR 23/22 A3005=
KPNT 081105Z AUTO 00000KT 2SM BR SCT007 OVC048 22/22 A3004=
KPRG 081105Z AUTO 00000KT 4SM BR BKN120 22/21 A3005=
KSAR 081105Z AUTO 19005KT 7SM OVC065 26/23 A3005=
KSLO 081103Z AUTO 19003KT 10SM CLR A3005=
####018000077####
SPUS52 KWBC 081112
SPECI
KLFT 081108Z 08003KT 10SM BKN004 25/23 A3000=
####018000211####
SAUS44 KWBC 081100 RRB
METAR
K11R 081106Z AUTO 05004KT 7SM SCT080 24/23 A2995=
KBPG 081105Z AUTO 36007KT 7SM SCT120 21/20 A3010=
KBYY 081106Z AUTO 07006KT 10SM SCT039 SCT049 SCT065 26/25
     A2988=
####018000102####
SPUS53 KWBC 081112
SPECI
KMKG 081108Z 12003KT 1 3/4SM RA BR SCT036 BKN070 OVC095 23/22
A3002=
####018000083####
SPUS53 KWBC 081112
SPECI
KSTC 081108Z AUTO 00000KT 1/2SM FG CLR 13/12 A3009=
####018000311####
SAPS31 NZKL 081100
METAR NCRG 081100Z 03006KT 9999 SCT014 BKN290 25/24 Q1017=
METAR NFTF 081100Z 17002KT 9999 FEW015 19/18 Q1015=
METAR NGFU 081100Z 08007KT 50KM FEW020 28/25 Q1010=
METAR NIUE 081100Z AUTO 13006KT //// ////// 24/24 Q1015=
METAR NSFA 081100Z 09004KT 45KM FEW020 26/24 Q1012 RMK DEW=
####018000107####
SAUS52 KWBC 081100 RRB
METAR
KSEP 081105Z AUTO 00000KT 10SM SCT011 BKN032 BKN080 23/22
     A3003=
####018000107####
SAUS53 KWBC 081100 RRC
METAR
KLNC 081105Z AUTO 11003KT 10SM SCT007 BKN012 BKN110 24/24
     A3001=
####018000079####
SPAL40 DAMM 081059
SPECI
DAUI 081045Z 08024KT 2600 BLSA NSC 43/05 Q1013=
####018000077####
SPUS72 KWBC 081112
SPECI
KLFT 081108Z 08003KT 10SM BKN004 25/23 A3000=
####018000083####
SPUS73 KWBC 081112
SPECI
KSTC 081108Z AUTO 00000KT 1/2SM FG CLR 13/12 A3009=
####018000160####
SAUK KAWN 081100 RRD
METAR EGXT 081050Z 23012KT 9999 FEW025 SCT012 BKN250 20/07 Q1018 BLU=
METAR EGYE 081050Z 24010KT 9999 FEW035 SCT100 ///// Q1017 BLU=
####018000102####
SPUS73 KWBC 081112
SPECI
KMKG 081108Z 12003KT 1 3/4SM RA BR SCT036 BKN070 OVC095 23/22
A3002=
####018000162####
SPXX70 KAWN 081100
SPECI KQGV 081106Z 33027G36KT 3200 BLDU 46/M09 A2955=
SPECI KQAY 081109Z AUTO 35014G24KT 4200 HZ CLR 48/ A2952 RMK AO2 SLP991
      $=
####018000081####
SAUS72 KWBC 081100 RRE
METAR
TNCM 081100Z 09009KT 9999 FEW019 28/23 Q1016=
####018000102####
SPUS81 KWBC 081112
SPECI
KMKG 081108Z 12003KT 1 3/4SM RA BR SCT036 BKN070 OVC095 23/22
A3002=
####018000083####
SPUS81 KWBC 081112
SPECI
KSTC 081108Z AUTO 00000KT 1/2SM FG CLR 13/12 A3009=
####018000151####
SAMS31 WMKK 081100 CCB
METAR 081100Z
METAR WBSB 081100Z 14003KT 8000 -SHRA FEW014 FEW016CB BKN140 25/25 
Q1009
     RETS
     TEMPO -SHRA=
####018000778####
SAUS20 KNKA 081112
METAR K36U 081115Z AUTO 00000KT 10SM CLR 10/06 A3022 RMK AO2=
SPECI KBMG 081111Z 00000KT 3SM BR CLR 22/21 A3006 RMK AO2=
SPECI KDGW 081111Z AUTO 00000KT 2SM BR FEW001 06/05 A3035 RMK AO2 
    VIS 3/4V5 $=
METAR KDUC 081112Z AUTO 07003KT 10SM CLR 22/22 A3004 RMK AO2 LTG 
     DSNT NE=
SPECI KEKQ 081110Z AUTO 00000KT 1SM BR CLR 19/18 A3011 RMK AO2 =
SPECI KGAG 081111Z AUTO 36004KT 10SM FEW009 BKN110 21/19 A3014 RMK 
    AO2 RAE1056 P0000=
SPECI KGLH 081111Z AUTO 00000KT 1/4SM FG CLR 22/22 A3005 RMK AO2=
SPECI KMFE 081111Z 33006KT 10SM SCT006 BKN033 26/24 A2981 RMK AO2=
SPECI KMHK 081111Z AUTO 36003KT 5SM BR BKN020 22/21 A3010 RMK AO2=
METAR KONM 081107Z AUTO 31003KT 10SM SCT080 SCT110 18/15 A3022 
     RMK AO2 T01800150=
####018000304####
SAUS99 KWBC 081113
METAR
KEKM 081055Z 00000KT 5SM BR CLR 23/22 A3005 RMK AO2=
K36U 081115Z AUTO 00000KT 10SM CLR 10/06 A3022 RMK AO2=
KDUC 081112Z AUTO 07003KT 10SM CLR 22/22 A3004 RMK AO2 LTG DSNT
     NE=
KONM 081107Z AUTO 31003KT 10SM SCT080 SCT110 18/15 A3022 RMK AO2
     T01800150=
####018000802####
SPUS99 KWBC 081113
SPECI
KCEW 081109Z AUTO 00000KT 4SM BR FEW001 20/20 A3004 RMK AO2=
KCSM 081111Z AUTO 01007KT 9SM BKN009 BKN012 23/21 A3011 RMK AO2
     CIG 007V012=
KNSE 081103Z 00000KT 3/4SM BR FEW001 SCT250 22/21 A3003 RMK AO2
     $=
KODO 081110Z AUTO 03008KT 7SM FEW003 BKN120 21/20 A3009 RMK
     AO2=
KBMG 081111Z 00000KT 3SM BR CLR 22/21 A3006 RMK AO2=
KDGW 081111Z AUTO 00000KT 2SM BR FEW001 06/05 A3035 RMK AO2 VIS
     3/4V5 $=
KEKQ 081110Z AUTO 00000KT 1SM BR CLR 19/18 A3011 RMK AO2=
KGAG 081111Z AUTO 36004KT 10SM FEW009 BKN110 21/19 A3014 RMK AO2
     RAE1056 P0000=
KGLH 081111Z AUTO 00000KT 1/4SM FG CLR 22/22 A3005 RMK AO2=
KMFE 081111Z 33006KT 10SM SCT006 BKN033 26/24 A2981 RMK AO2=
KMHK 081111Z AUTO 36003KT 5SM BR BKN020 22/21 A3010 RMK AO2=
####018000144####
SAMX55 MMMY 081100
METAR MMMA 081109Z RTD 31005KT 6SM -RA  BKN010 OVC012 26/25 A2980 
      RMK 60208 8/5// BINOVC RTS=





TX OPMET V1
####018000077####
SPAL40 DAMM 081059
SPECI
DAUI 081045Z 08024KT 2600 BLSA NSC 43/05 Q1013=
####018000556####
SAAL33 DAAA 081100
METAR DAAD 081100Z NIL=
METAR DAAE 081100Z 09009KT CAVOK 27/22 Q1019=
METAR DAAJ 081100Z NIL=
METAR DAAP 081100Z 26008KT CAVOK 40/12 Q1015=
METAR DAAV 081100Z 36010KT CAVOK 30/21 Q1019=
METAR DABT 081100Z 30012KT CAVOK 34/07 Q1023=
METAR DAFH 081100Z 12014KT CAVOK 35/16 Q1022=
METAR DATG 081100Z NIL=
METAR DATM 081100Z NIL=
METAR DAUE 081100Z 04016KT CAVOK 37/09 Q1020=
METAR DAUI 081100Z NIL=
METAR DAUK 081100Z NIL=
METAR DAUO 081100Z 15002KT CAVOK 35/17 Q1018=
METAR DAUT 081100Z ///18KT 4000 DRSA  NSC 40/09 Q1016=
####018000475####
SAAL32 DAAA 081100
METAR DAAS 081100Z 12007KT CAVOK 34/07 Q1024=
METAR DABS 081100Z 34006KT CAVOK 32/10 Q1023=
METAR DAOB 081100Z 06006KT CAVOK 37/06 Q1023=
METAR DAOF 081100Z 08010KT 4000 HZ NSC 41/06 Q1014=
METAR DAOR 081100Z 18004KT CAVOK 38/05 Q1023=
METAR DAUA 081100Z NIL=
METAR DAUB 081100Z 13012KT CAVOK 35/15 Q1017=
METAR DAUG 081100Z 15005KT CAVOK 36/10 Q1021=
METAR DAUU 081100Z 00000KT CAVOK 38/18 Q1018=
METAR DAUZ 081100Z 22005KT CAVOK 38/07 Q1017=
####018000072####
SAAL33 DAAA 081100 RRA
METAR DAUK 081100Z 18010KT CAVOK 35/15 Q1019=
####018000603####
SAUZ31 UTTW 081100
UTFN NIL=
METAR UTNN 081100Z 23004MPS 210V270 CAVOK 43/06 Q1007 R33/CLRD70
NOSIG=
METAR UTNU 081100Z VRB01MPS CAVOK 43/08 Q1007 R13/CLRD60 NOSIG=
METAR UTSA 081100Z 02007MPS 9999 NSC 41/04 Q1008 R88/CLRD70 NOSIG=
METAR UTSB 081100Z 01007MPS CAVOK 41/02 Q1007 R01/CLRD70 TEMPO
01008MPS=
UTSH NIL=
METAR UTSK 081100Z 32005MPS CAVOK 41/12 Q1006 R16/CLRD70=
METAR UTSS 081100Z 04003MPS 9999 NSC 35/10 Q1010 R88/CLRD70 NOSIG=
UTST NIL=
METAR UTTT 081100Z 29004MPS 250V310 CAVOK 39/04 Q1010 R08R/CLRD70
NOSIG=
METAR UTTP 081100Z 25002MPS CAVOK 38/08 Q1010 R88/CLRD70 NOSIG=
####018001692####
SAIY42 LIIB 081100
METAR LIBF 081050Z 33018KT CAVOK 28/07 Q1020 RMK VIS MIN 9999=
METAR LIEA 081050Z VRB03KT CAVOK 32/21 Q1019 RMK VIS MIN 9999=
METAR LIED 081055Z 15012KT 9999 33/18 Q1018 RMK FEW VIS MIN 9999 BLU=
METAR LIEO 081050Z 04011KT 9999 FEW030 30/20 Q1020 RMK VIS MIN
9999=
METAR LIMA 081050Z VRB03KT 9999 SCT040 25/16 Q1023 RMK VIS MIN 9999=
METAR LIQN 081050Z 36005KT CAVOK 27/17 Q1021 RMK VIS MIN 9999=
METAR LIQO 081055Z 00000KT 9999 FEW003 25/20 Q1021 RMK FEW VAL NIL NC
VIS MIN 9999=
METAR LIQW 081055Z 19003KT 9999 FEW030 29/18 Q1020 RMK FEW VIS MIN
9999 BLU=
METAR LIRE 081055Z 23010KT 9999 FEW020 28/20 Q1019 RMK FEW VIS MIN
9999 WIND THR31 22010KT BLU=
METAR LIRG 081055Z 27007KT 9999 SCT033 31/18 Q1019 RMK SCT MON NE
LIB NC VIS MIN 9999 BLU=
METAR LIRH 081055Z 36005KT 9999 SCT035 29/19 Q1020 RMK SCT MON LIB NC
VIS MIN 9999 WIND THR16 24006KT BLU=
METAR LIRI 081050Z 02011KT CAVOK 29/11 Q1019 RMK VIS MIN 9999=
METAR LIRK 081055Z 13010KT CAVOK 16/14 Q1027 RMK SCT SCT060 MON NE
LIB NC VAL NIL NC VIS MIN 9999=
METAR LIRL 081055Z 24008KT 9999 FEW020 FEW025TCU 30/18 Q1018 RMK SCT
MON LIB NC VIS MIN 9999 BLU=
METAR LIRM 081055Z 08008KT CAVOK 29/15 Q1019 RMK SKC VIS MIN 9999
WIND THR06 06007KT BLU=
METAR LIRS 081055Z 21010KT 9999 FEW040 31/14 Q1019 RMK SCT SCT200 VIS
MIN 9999 WIND THR21 /////KT BLU=
METAR LIRT 081055Z 01009KT 9999 FEW015 17/07 Q1023 RMK FEW MON LIB
VAL NIL VIS MIN 9999=
METAR LIRU 081050Z 25003KT 9999 SCT040 30/19 Q1021 RMK VIS MIN 9999=
METAR LIRV 081055Z 25005KT 9999 FEW028 29/18 Q1021 RMK FEW MON E SE
LIB NC VIS MIN 9999 BLU=
METAR LIRX 081055Z 16004KT CAVOK 28/11 Q1020 RMK SKC VIS MIN 9999E
VIS MAR 25 KM=
####018001687####
SASD20 OEJD 081100
METAR OEAB 081100Z 03010KT 9000 FEW020 SCT200 32/M01 Q1020 NOSIG=
METAR OEAH 081100Z 33009KT CAVOK 46/06 Q1000 NOSIG=
METAR OEBA 081100Z 11013KT 9000 SKC 36/04 Q1016 NOSIG=
METAR OEBH 081100Z 07010KT CAVOK 40/04 Q1010 NOSIG=
METAR OEDF 081100Z 36016KT CAVOK 45/03 Q0999 NOSIG=
METAR OEDM 081100Z 09010KT CAVOK 43/04 Q1010=
METAR OEDR 081100Z 02011KT 8000 SKC 43/09 Q0998 NOSIG=
METAR OEGN 081100Z 23008KT CAVOK 37/27 Q1000 NOSIG=
METAR OEGS 081100Z 02011KT CAVOK 45/07 Q1007=
METAR OEGT 081100Z NIL=
METAR OEHL 081100Z 12008KT CAVOK 43/04 Q1012=
METAR OEJN 081100Z 33010KT CAVOK 38/25 Q1001 NOSIG=
METAR OEKB 081100Z 18002KT 9999 FEW045 46/20=
METAR OEKJ 081100Z NIL=
METAR OEKK 081100Z 04007KT CAVOK 44/15 Q1005=
METAR OEKM 081100Z 06022KT 7000 SCT022 32/01 Q1019 NOSIG=
METAR OEMA 081100Z 06012KT 9999 FEW045 46/M01 Q1005 NOSIG=
METAR OEMH 081100Z NIL=
METAR OEMK 081100Z 27002KT CAVOK 45/25 Q1000=
METAR OENG 081100Z 03010KT 4000 DU SCT030 SCT080 40/M01 Q1011 NOSIG=
METAR OEPA 081100Z 36014KT CAVOK 45/05 Q1003=
METAR OERF 081100Z 32007KT CAVOK 44/12 Q1006=
METAR OERK 081100Z 36017G29KT 5000 BLDU SKC 43/M03 Q1006 NOSIG=
METAR OERR 081100Z 30005KT CAVOK 45/10 Q1006=
METAR OERY 081100Z 03018KT 3000 SA SKC 44/00 Q1007 NOSIG=
METAR OESH 081100Z 03017KT 3000 BLDU SKC 42/15 Q1001 NOSIG=
METAR OESK 081100Z 22005KT CAVOK 43/00 Q1008=
METAR OETB 081100Z 21003KT CAVOK 40/05 Q1009 NOSIG=
METAR OETF 081100Z 11008KT 9999 FEW030 39/00 Q1014 NOSIG=
METAR OETR 081100Z NIL=
METAR OEWD 081000Z 03010KT 4000 BLDU SKC 44/11 Q1003=
METAR OEWJ 081100Z 30023KT 8000 SKC 33/28 Q1003=
METAR OEYN 081100Z 26014KT 6000 SKC 42/22 Q0999 TEMPO 4000=
####018000086####
SPCN47 CWAO 081111
SPECI CYAM 081111Z 21002KT 4SM BR SCT003 OVC007 RMK SF4SF4=

####018000084####
SPUS51 KWBC 081113
SPECI
KAUG 081110Z AUTO 16006KT 2SM BR OVC003 21/20 A3010=
####018000084####
SADO31 TDPD 081100
METAR TDCF 081100Z 15006KT 9999 -SHRA BKN016TCU 24/22 Q1014=
####018000326####
SABN31 OBBI 081100
METAR OBBI 081100Z 02009KT 5000 HZ NSC 36/27 Q0999 BECMG 3000=
METAR OEDF 081100Z 36016KT CAVOK 45/03 Q0999 NOSIG=
METAR OEDR 081100Z 02011KT 8000 SKC 43/09 Q0998 NOSIG=
METAR OTBD 081100Z 02007KT 360V060 6000 NSC 37/29 Q0999 NOSIG=
METAR OKBK 081100Z 34020KT 7000 -BLDU SKC 48/M09 Q0999 NOSIG=
####018000687####
SAEG31 HECA 081100
METAR HEMM 081100Z 33010KT CAVOK 29/20 Q1012=
HEAX 081100Z 31012KT 9999 SCT020 29/22 Q1010=
HECA 081100Z 33008KT CAVOK 33/17 Q1010=
HELX 081100Z 33008KT CAVOK 39/11 Q1007=
HESN 081100Z NIL=
HEAR 081100Z 33007KT CAVOK 31/21 Q1009=
HEGN 081100Z 35024KT CAVOK 37/10 Q1006=
HEPS 081100Z 35007KT 9999 FEW025 30/22 Q1010=
HEIS 081100Z 33007KT CAVOK 32/18 Q1009=
HESH 081100Z 02014KT CAVOK 37/11 Q1006=
HEAT 081100Z 34015KT CAVOK 35/12 Q1011=
HEBA 081100Z NIL=
HEBL 081100Z 01015KT CAVOK 40/08 Q1009=
HESC 081100Z 06010KT CAVOK 32/10 Q1018=
HEDF 081100Z NIL=
HETR 081100Z 31020KT CAVOK 30/21 Q1006=
HEMA 081100Z 01020KT CAVOK 36/17 Q1005=
####018000294####
SABC40 FBSK 081100
METAR FBSK 081100Z 06008KT 9999 BKN020 19/08 Q1031 NOSIG=
METAR FBFT 081100Z 10015KT 9999 BKN015 20/10 Q1030=
METAR FBMN 081100Z 09012KT CAVOK 23/06 Q1027=
METAR FBKE 081100Z /////KT 9999 FEW020 22/07 Q1027=
METAR FBSP 081100Z /////KT 9999 BKN020 18/09 Q1030=

####018000878####
SASA KAWN 081100 RRE
METAR SAAR 081100Z 00000KT 9000 NSC 00/M00 Q1018=
METAR SADF 081100Z 00000KT CAVOK 04/02 Q1019=
METAR SAOC 081100Z 320006KT FEW070 05/006 Q1015=
METAR SARC 081100Z 14008KT 8000 BKN008 11/09 Q1019=
METAR SARI 081100Z 20004KT 7000 NSC 16/16 Q1019=
METAR SARL 081100Z 14005KT 9999 06/05 Q1020=
METAR SAVC 081100Z 23008KT CAVOK 06/M00 Q1000=
METAR SAZM 081100Z 32014KT CAVOK 06/01 Q1014=
METAR SAZN 081100Z 27010KT CAVOK 07/01 Q1009=
METAR SLTR 081100Z 00000KT 8000 VCSH SCT015 FEW020CB BKN070 22/21 Q1013=
METAR SUDU 081100Z 33004KT 9999 FEW023 04/03 Q1019=
METAR SULS 081100Z 30005KT 9999 FEW016 06/03 Q1018=
METAR SUMU 081100Z 31006KT CAVOK 03/03 Q1018 NOSIG=
METAR SUSO 081100Z 12004KT CAVOK 05/04 Q1020=
METAR SVSR 081100Z 18003KT 8000 -DZ FEW013CBE BKN016 24/24 Q1011=
METAR SVVP 081100Z 13004KT 9999 BKN013 24/23 Q1005=
####018000423####
SAXX70 KAWN 081100 RRL
METAR KQCC 081055Z AUTO VRB04KT 9999 FEW065 39/14 A2975 RMK AO2 SLP003
      T03890136 $=
METAR KQD2 081055Z AUTO 23007G13KT 190V290 9999 CLR 35/M05 A2999 RMK
      AO2 SLP023 T03501048 $=
METAR KQEQ 081110Z AUTO 34003KT 5SM BR OVC035 23/20 A2982 RMK A02=
METAR KQEW 081110Z AUTO 21001KT 7SM FEW100 25/21 A2982 RMK A02=
METAR KQFB 081110Z AUTO 27007KT 5SM BR CLR 24/21 A2992 RMK A02=
####018000260####
SPNA35 KAWN 081113
SPECI KNBG 081109Z 04003KT 6SM BR FEW010 BKN250 25/23 A3002 RMK AO2
      $=
SPECI KNPA 081102Z 00000KT 7SM MIFG FEW250 24/23 A3002 RMK FIRST=
SPECI KWRI 081108Z AUTO 18004KT 1 3/4SM BR FEW001 24/24 A3001 RMK AO2
      SLP163 $=
####018000101####
SAUS90 KWBC 081114
METAR KEHA 081108Z AUTO 35005KT 17/17 RMK AO1 PK WND 07 073
     T01720167=
####018000107####
SAAE31 VTBB 081100 RRA
METAR VVNB 081100Z 09014KT 9999 FEW026CB BKN100 35/28 Q1000 NO
          SIG=
####018001189####
SACO20 SKBO 081100
METAR
SKAR 081100Z NIL=
SKBG 081100Z NIL=
SKBO 081100Z VRB02KT 1200 PRFG BKN010 11/10 A3031=
SKBQ 081100Z 22004KT 2000 BR SCT004 25/25 A2987=
SKCC 081100Z 36004KT 9999 SCT015 SCT090 XX/XX A2997=
SKCG 081100Z VRB02KT 9999 FEW012TCU 26/25 A2986=
SKCL 081100Z 00000KT 9999 BKN020 BKN080 21/19 A3000=
SKEJ 081100Z NIL=
SKIB 081100Z NIL=
SKIP 081100Z 00000KT 5000 BCFG BKN016 SCT070 10/09 A3037=
SKLC 081100Z 00000KT 9999 MIFG FEW015 24/24 A2986=
SKLT 081100Z 00000KT 9999 SCT015 BKN080 24/24 A2988=
SKMD 081100Z 00000KT 6000 BKN030 SCT080 18/16 A3008=
SKMR 081100Z 00000KT 9999 FEW015 SCT080 24/23 A2984=
SKMZ 081100Z NIL=
SKNV 081100Z 00000KT 9999 FEW007 OVC090 23/22 A2992=
SKPC 081100Z NIL=
SKPE 081100Z VRB02KT 9999 FEW015 BKN080 18/16 A3010=
SKPS 081100Z NIL=
SKPV 081100Z NIL=
SKRG 081100Z 00000KT 2500 BCFG BKN003 BKN080 14/14 A3028=
SKRH 081100Z 07004KT 9999 TSRA FEW020CB OVC090 23/22 A2988=
SKSM 081100Z NIL=
SKSP 081100Z 08006KT 9999 SCT015 28/25 A2982=
SKUC 081100Z NIL=
SKUI 081100Z NIL=
SKVP 081100Z 03006KT 9000 BKN010 SCT080 23/23 A2994=
SKVV 081100Z 00000KT 9999 SCT023 BKN080 XX/XX A2993=
NNNN
####018000159####
SAAF05 LFPW 081100 RRA
METAR DBBB 081100Z 21008KT 190V260 8000 SCT012 BKN120 28/25 Q1014
NOSIG=
METAR DNMM 081100Z 25007KT 9999 BKN013 30/25 Q1015 NOSIG=
####018000092####
SAAF08 LFPW 081100 RRA
METAR GABS 081100Z 25007KT 210V280 9999 FEW030 31/22 Q1016 NOSIG=
####018000154####
SAAF14 LFPW 081100 RRA
METAR DRRN 081100Z VRB02KT CAVOK 30/21 Q1013 NOSIG=
METAR FTTJ 081100Z 21004KT 140V260 9999  FEW040 BKN140 32/28 Q1014
NOSIG=
####018000391####
SAAF13 LFPW 081100 RRA
METAR GBYD 081100Z 22004KT 9999 SCT011 FEW020CB 32/26 Q1013  CB E-W=
METAR GFLL 081100Z 15006KT 9999 SCT015 FEW028CB 28/24 Q1014 CB-NE=
METAR GGOV 081100Z 18007KT 130V230 9999 SCT014TCU FEW020CB BKN250
               30/23 Q1013 NOSIG=
METAR GLRB 081100Z 15006KT 9999 BKN018 FEW026CB 29/24 Q1015 CB-S=
METAR GVAC 081100Z 07011KT 9999 BKN014 25/19 Q1014 NOSIG=
####018000169####
SACN87 KWBC 081114
METAR CWJD 081100Z AUTO 28003KT 09/08 RMK AO1 SLP142 T00900083
53005=
METAR CWZG 081100Z AUTO 36001KT 04/02 RMK AO1 SLP242 T00420019
51005=
####018000243####
SACN78 KWBC 081114
METAR CXBI 081100Z AUTO 00000KT 22/20 RMK AO1 SLP166 T02220203
50001=
METAR CXBI 081100Z AUTO 00000KT 22/20 RMK AO1 SLP166 T02220203
50001=
METAR CXBI 081100Z AUTO 00000KT 22/20 RMK AO1 SLP166 T02220203
50001=
####018000169####
SACN88 KWBC 081114
METAR CWBK 081100Z AUTO 22006KT 20/18 RMK AO1 SLP189 T02020175
53002=
METAR CWBK 081100Z AUTO 22006KT 20/18 RMK AO1 SLP189 T02020175
53002=
####018000099####
SAAF27 LFPW 081100 RRA
METAR DGAA 081100Z 23010KT 9999 FEW011 BKN015 BKN250 29/23 Q1015
NOSIG=
####018000465####
SACN92 KWBC 081114
METAR CWJI 081100Z AUTO 27004KT 10/09 RMK AO1 SLP214 T01040093
53005=
METAR CWJT 081100Z AUTO 00000KT 18/17 RMK AO1 SLP162 T01800173
53004=
METAR CWJW 081100Z AUTO 18003KT 06/04 RMK AO1 SLP223 T00590043
51009=
METAR CWJX 081100Z AUTO 28005KT 11/10 RMK AO1 SLP212 T01090099
53002=
METAR CWLE 081100Z AUTO 19002KT 10/10 RMK AO1 SLP214 T01030099
53001=
METAR CWLE 081100Z AUTO 19002KT 10/10 RMK AO1 SLP214 T01030099
53001=
####018000402####
SACN91 KWBC 081114
METAR CWGR 081100Z AUTO 23014G20KT 20/17 RMK AO1 PK WND 22021/1046
SLP167 T01960167 53002=
METAR CWHM 081100Z AUTO 23003KT 25/23 RMK AO1 T02510229=
METAR CWII 081100Z AUTO 31016KT 18/14 RMK AO1 PK WND 30019/1058
T01770135=
METAR CWIS 081100Z AUTO 17002KT 21/20 RMK AO1 SLP170 T02140198
51002=
METAR CWIW 081100Z AUTO 26004KT 09/08 RMK AO1 SLP201 T00850081
53004=
####018000741####
SACN85 KWBC 081114
METAR CWDM 081100Z AUTO 05008KT 09/08 RMK AO1 SLP189 T00860076
54000=
METAR CWDM 081100Z AUTO 05008KT 09/08 RMK AO1 SLP189 T00860076
54000=
METAR CWHO 081100Z AUTO 16003KT 11/09 RMK AO1 SLP117 T01140087
56018=
METAR CWHO 081100Z AUTO 16003KT 11/09 RMK AO1 SLP117 T01140087
56018=
METAR CWER 081100Z AUTO 04010KT RMK AO1 =
METAR CWRA 081100Z AUTO 9SM M01/M01 RMK AO1 24408/08/0704/1007
T10061006=
METAR CWRA 081100Z AUTO 9SM M01/M01 RMK AO1 24408/08/0704/1007
T10061006=
METAR CWBY 081100Z AUTO 08009KT 12/12 RMK AO1 1004 SLP163
T01170116 50003=
METAR CWWE 081100Z AUTO 21004KT 16/ RMK AO1 SLP217 T0155 51016=
METAR CWBY 081100Z AUTO 08009KT 12/12 RMK AO1 1004 SLP163
T01170116 50003=
####018000302####
SACN90 KWBC 081114
METAR CWFF 081100Z AUTO 25005KT 09/06 RMK AO1 SLP191 T00880064
52002=
METAR CWGD 081100Z AUTO 14005KT 23/20 RMK AO1 SLP161 T02320200
53001=
METAR CWGL 081100Z AUTO 17004KT 24/24 RMK AO1 SLP173 T02420242
50001=
METAR CWGM 081100Z AUTO 21005KT 08/05 RMK AO1 T00800053=
####018001208####
SACN96 KWBC 081114
METAR CWXL 081100Z AUTO 17003KT 10/08 RMK AO1 T00970082=
METAR CWYJ 081100Z AUTO 32002KT 16/12 RMK AO1 T01550120=
METAR CWZA 081100Z AUTO 04012G18KT 22/12 RMK AO1 PK WND 03018/1053
SLP151 T02170119 51006=
METAR CWZL 081100Z AUTO 29006KT 23/06 RMK AO1 SLP183 T02270057
50001=
METAR CWZQ 081100Z AUTO 18007KT 23/17 RMK AO1 SLP188 T02260171
51005=
METAR CXKE 081100Z AUTO 21002KT 23/21 RMK AO1 SLP159 T02340213
53005=
METAR CWYJ 081100Z AUTO 32002KT 16/12 RMK AO1 T01550120=
METAR CWZA 081100Z AUTO 04012G18KT 22/12 RMK AO1 PK WND 03018/1053
SLP151 T02170119 51006=
METAR CWZL 081100Z AUTO 29006KT 23/06 RMK AO1 SLP183 T02270057
50001=
METAR CWZQ 081100Z AUTO 18007KT 23/17 RMK AO1 SLP188 T02260171
51005=
METAR CXKE 081100Z AUTO 21002KT 23/21 RMK AO1 SLP159 T02340213
53005=
METAR CWYJ 081100Z AUTO 32002KT 16/12 RMK AO1 T01550120=
METAR CWZA 081100Z AUTO 04012G18KT 22/12 RMK AO1 PK WND 03018/1053
SLP151 T02170119 51006=
METAR CWZL 081100Z AUTO 29006KT 23/06 RMK AO1 SLP183 T02270057
50001=
METAR CWZQ 081100Z AUTO 18007KT 23/17 RMK AO1 SLP188 T02260171
51005=
METAR CXKE 081100Z AUTO 21002KT 23/21 RMK AO1 SLP159 T02340213
53005=
####018000072####
SAAL41 DAMM 081100 RRB
METAR DAAJ 081100Z 05008KT CAVOK 35/05 Q1020=
####018000227####
SACN93 KWBC 081114
METAR CWOC 081100Z AUTO 09001KT 19/17 RMK AO1 SLP154 T01860170
51006=
METAR CWOD 081100Z AUTO 33005KT 22/ RMK AO1 SLP133 T0220 51004=
METAR CWOD 081000Z AUTO 33003KT 19/ RMK AO1 SLP134 T0191 53003=
####018000773####
SACN94 KWBC 081114
METAR CWQH 081100Z AUTO 35002KT 24/22 RMK AO1 T02370222=
METAR CWRJ 081100Z AUTO 28003KT 10/10 RMK AO1 SLP196 T01020102
50000=
METAR CWRZ 081100Z AUTO 05004KT 15/ RMK AO1 SLP155 T0147 53005=
METAR CWST 081100Z AUTO 06002KT 16/15 RMK AO1 T01590146=
METAR CWRJ 081100Z AUTO 28003KT 10/10 RMK AO1 SLP196 T01020102
50000=
METAR CWRZ 081100Z AUTO 05004KT 15/ RMK AO1 SLP155 T0147 53005=
METAR CWST 081100Z AUTO 06002KT 16/15 RMK AO1 T01590146=
METAR CWST 081100Z AUTO 06002KT 16/15 RMK AO1 T01590146=
METAR CWQH 081000Z AUTO 15002KT 23/22 RMK AO1 T02300216=
METAR CWST 081100Z AUTO 06002KT 16/15 RMK AO1 T01590146=
METAR CWST 081100Z AUTO 06002KT 16/15 RMK AO1 T01590146=
METAR CWST 081100Z AUTO 06002KT 16/15 RMK AO1 T01590146=
####018000909####
SACN95 KWBC 081114
METAR CWTN 081000Z AUTO 10001KT 17/16 RMK AO1 SLP160 T01650160
52007=
METAR CWTA 081100Z AUTO 17001KT 28/22 RMK AO1 SLP161 T02760222
51006=
METAR CWTN 081100Z AUTO 26003KT 18/17 RMK AO1 SLP161 T01770167
51006=
METAR CWTT 081100Z AUTO 21004KT 24/23 RMK AO1 T02410229=
METAR CWTY 081100Z AUTO 20005KT 24/22 RMK AO1 SLP148 T02380221
51008=
METAR CWVI 081100Z AUTO 24006KT 13/11 RMK AO1 SLP177 T01270108
56009=
METAR CWVP 081100Z AUTO 33002KT 11/08 RMK AO1 SLP218 T01060080
54000=
METAR CWVU 081100Z AUTO 17011KT 16/16 RMK AO1 SLP211 T01610158
53013=
METAR CWWK 081100Z AUTO 01001KT 17/14 RMK AO1 SLP157 T01690140
53007=
METAR CWXA 081100Z AUTO 25009KT 13/05 RMK AO1 6005 SLP217
T01250053 50007=
METAR CWXA 081100Z AUTO 25009KT 13/05 RMK AO1 6005 SLP217
T01250053 50007=
METAR CWXA 081100Z AUTO 25009KT 13/05 RMK AO1 6005 SLP217
T01250053 50007=
####018000657####
SACN86 KWBC 081114
METAR CWPO 081100Z AUTO 28004KT 12/11 RMK AO1 SLP193 T01190105
53012=
METAR CWAJ 081100Z AUTO 25/22 RMK AO1 SLP164 T02490219 55000=
METAR CWBE 081100Z AUTO 11002KT 17/17 RMK AO1 SLP163 T01740168
58004=
METAR CWAJ 081100Z AUTO 25/22 RMK AO1 SLP164 T02490219 55000=
METAR CWBE 081100Z AUTO 11002KT 17/17 RMK AO1 SLP163 T01740168
58004=
METAR CWAJ 081100Z AUTO 25/22 RMK AO1 SLP164 T02490219 55000=
METAR CWBE 081100Z AUTO 11002KT 17/17 RMK AO1 SLP163 T01740168
58004=
METAR CWNC 081100Z AUTO 00000KT 22/22 RMK AO1 SLP162 T02180218
53007=
METAR CWNZ 081100Z AUTO 17002KT 17/14 RMK AO1 SLP141 T01670144
50006=
####018000697####
SACN89 KWBC 081114
METAR CWAV 081100Z AUTO 00000KT 06/04 RMK AO1 SLP218 T00560042
56006=
METAR CWBO 081100Z AUTO 18003KT 10/10 RMK AO1 SLP219 T00970097
55000=
METAR CWCJ 081100Z AUTO 13002KT 16/16 RMK AO1 1010 SLP145
T01630159 50004=
METAR CWCO 081100Z AUTO 12002KT 25/21 RMK AO1 SLP149 T02500214
56001=
METAR CWDK 081100Z AUTO 02001KT 08/07 RMK AO1 SLP224 T00810066
56006=
METAR CWBO 081100Z AUTO 18003KT 10/10 RMK AO1 SLP219 T00970097
55000=
METAR CWCJ 081100Z AUTO 13002KT 16/16 RMK AO1 1010 SLP145
T01630159 50004=
METAR CWCO 081100Z AUTO 12002KT 25/21 RMK AO1 SLP149 T02500214
56001=
METAR CWDK 081100Z AUTO 02001KT 08/07 RMK AO1 SLP224 T00810066
56006=
####018000081####
SAAL33 DAAA 081100 RRB
METAR DAUI 081100Z  08024KT 2600 BLSA NSC 43/05 Q1013=
####018000085####
SASD31 OEJD 081100 RRA
METAR OYSN 081100Z 03017G27KT 3000 DU SCT030 30/M04 Q1021=
####018000958####
SACN97 KWBC 081114
METAR CXBO 081100Z AUTO 07007KT 18/17 RMK AO1 T01820168=
METAR CXEC 081100Z AUTO 14/13 RMK AO1 SUNSH 0 T01390126=
METAR CXHA 081100Z AUTO 18002KT 25/23 RMK AO1 SLP156 T02470225
53003=
METAR CXMY 081100Z AUTO 19/17 RMK AO1 T01900167=
METAR CXSH 081100Z AUTO 06002KT 24/20 RMK AO1 SLP152 T02420203
53009=
METAR CXTP 081100Z AUTO 19006KT 11/10 RMK AO1 SLP226 T01090098
56003=
METAR CXHA 081100Z AUTO 18002KT 25/23 RMK AO1 SLP156 T02470225
53003=
METAR CXMY 081100Z AUTO 19/17 RMK AO1 T01900167=
METAR CXSH 081100Z AUTO 06002KT 24/20 RMK AO1 SLP152 T02420203
53009=
METAR CXTP 081100Z AUTO 19006KT 11/10 RMK AO1 SLP226 T01090098
56003=
METAR CXHA 081100Z AUTO 18002KT 25/23 RMK AO1 SLP156 T02470225
53003=
METAR CXMY 081100Z AUTO 19/17 RMK AO1 T01900167=
METAR CXSH 081100Z AUTO 06002KT 24/20 RMK AO1 SLP152 T02420203
53009=
METAR CXTP 081100Z AUTO 19006KT 11/10 RMK AO1 SLP226 T01090098
56003=
####018000092####
SPUS80 KWBC 081114
SPECI
KMHK 081111Z AUTO 36003KT 5SM BR BKN020 22/21 A3010 RMK AO2=
####018000249####
SAUS70 KWBC 081114
METAR
K36U 081115Z AUTO 00000KT 10SM CLR 10/06 A3022 RMK AO2=
KDUC 081112Z AUTO 07003KT 10SM CLR 22/22 A3004 RMK AO2 LTG DSNT
     NE=
KONM 081107Z AUTO 31003KT 10SM SCT080 SCT110 18/15 A3022 RMK AO2
     T01800150=
####018000103####
SAUS80 KWBC 081114
METAR
KEHA 081108Z AUTO 35005KT 17/17 RMK AO1 PK WND 07 073
     T01720167=
####018000088####
SAUS70 KWBC 081100 RRM
METAR
KEKM 081055Z 00000KT 5SM BR CLR 23/22 A3005 RMK AO2=
####018000739####
SPUS70 KWBC 081114
SPECI
KCEW 081109Z AUTO 00000KT 4SM BR FEW001 20/20 A3004 RMK AO2=
KCSM 081111Z AUTO 01007KT 9SM BKN009 BKN012 23/21 A3011 RMK AO2
     CIG 007V012=
KNSE 081103Z 00000KT 3/4SM BR FEW001 SCT250 22/21 A3003 RMK AO2
     $=
KODO 081110Z AUTO 03008KT 7SM FEW003 BKN120 21/20 A3009 RMK
     AO2=
KBMG 081111Z 00000KT 3SM BR CLR 22/21 A3006 RMK AO2=
KDGW 081111Z AUTO 00000KT 2SM BR FEW001 06/05 A3035 RMK AO2 VIS
     3/4V5 $=
KEKQ 081110Z AUTO 00000KT 1SM BR CLR 19/18 A3011 RMK AO2=
KGAG 081111Z AUTO 36004KT 10SM FEW009 BKN110 21/19 A3014 RMK AO2
     RAE1056 P0000=
KGLH 081111Z AUTO 00000KT 1/4SM FG CLR 22/22 A3005 RMK AO2=
KMFE 081111Z 33006KT 10SM SCT006 BKN033 26/24 A2981 RMK AO2=
####018000111####
SAAK41 KNKA 081113
SPECI PAKI 081109Z AUTO 00000KT 1 3/4SM BR CLR 08/08 A3002 RMK AO2 
    PWINO TSNO $=
####018000092####
SAAW32 KWBC 081100 RRB
METAR
OTBD 081100Z 02007KT 360V060 6000 NSC 37/29 Q0999 NOSIG=
####018000081####
SAAF34 KWBC 081100 RRB
METAR
FBSP 081100Z /////KT 9999 BKN020 18/09 Q1030=
####018000072####
SAAL33 DAAA 081100 RRC
METAR DAAJ 081100Z 05008KT CAVOK 35/05 Q1020=
####018000075####
SAAF36 KWBC 081100 RRB
METAR
HEMA 081100Z 01020KT CAVOK 36/17 Q1005=
####018000381####
SAAF35 KWBC 081100 RRA
METAR
HEAX 081100Z 31012KT 9999 SCT020 29/22 Q1010=
HEBL 081100Z 01015KT CAVOK 40/08 Q1009=
HECA 081100Z 33008KT CAVOK 33/17 Q1010=
HEGN 081100Z 35024KT CAVOK 37/10 Q1006=
HELX 081100Z 33008KT CAVOK 39/11 Q1007=
HEMM 081100Z 33010KT CAVOK 29/20 Q1012=
HEPS 081100Z 35007KT 9999 FEW025 30/22 Q1010=
HESC 081100Z 06010KT CAVOK 32/10 Q1018=
####018000080####
SASD32 OEJD 081100
METAR OETF 081100Z 11008KT 9999 FEW030 39/00 Q1014 NOSIG=
####018000096####
SAAW34 KWBC 081045 RRH
METAR
UTSS 081100Z 04003MPS 9999 NSC 35/10 Q1010 R88/CLRD70 NOSIG=
####018000266####
SAAF17 LFPW 081100 RRA
METAR HEAX 081100Z 31012KT 9999 SCT020 29/22 Q1010=
METAR HEBL 081100Z 01015KT CAVOK 40/08 Q1009=
METAR HEGN 081100Z 35024KT CAVOK 37/10 Q1006=
METAR HELX 081100Z 33008KT CAVOK 39/11 Q1007=
METAR HEMM 081100Z 33010KT CAVOK 29/20 Q1012=
####018000097####
SAAS33 KWBC 081105 RRA
METAR
VVNB 081100Z 09014KT 9999 FEW026CB BKN100 35/28 Q1000 NO SIG=
####018002985####
SAUS20 KNKA 081113
METAR K1F0 081108Z AUTO 00000KT 10SM SCT080 24/24 A3002 RMK AO2 
     LTG DSNT NE=
METAR K4O4 081108Z AUTO 00000KT 4SM CLR 23/22 A3006 RMK AO2 LTG 
     DSNT N=
METAR KADH 081110Z AUTO 17003KT 7SM SCT025 23/22 A3004 RMK AO2 
     LTG DSNT NE=
METAR KADM 081110Z AUTO 00000KT 7SM SCT021 BKN025 OVC070 23/23 
     A3003 RMK AO2 LTG DSNT N=
METAR KAIK 081115Z AUTO 28004KT 10SM CLR 23/22 A3005 RMK AO2 PNO=
METAR KALM 081110Z AUTO 14004KT 10SM CLR 16/14 A3014 RMK AO2=
METAR KARW 081115Z AUTO 28008KT 10SM CLR 25/19 A2998 RMK AO2=
METAR KATS 081110Z AUTO 34008KT 10SM -RA BKN035 19/18 A3017 RMK 
     AO2=
METAR KAXS 081110Z AUTO 06009KT 3/4SM -RA BKN004 BKN017 OVC022 
     23/22 A3008 RMK AO2 P0053 T02320219=
METAR KAXX 081110Z AUTO 00000KT 10SM CLR 05/04 A3048 RMK AO2=
SPECI KBAZ 081112Z AUTO 04006KT 8SM SCT013 BKN024 BKN030 25/24 A2993 
    RMK AO2=
METAR KBDN 081115Z AUTO 21005KT 10SM CLR 12/03 A3011 RMK AO2 =
METAR KBVS 081110Z AUTO 03006KT 10SM CLR 19/12 A2998 RMK A01 P000=
METAR KCHK 081111Z AUTO 00000KT 5SM BR CLR 22/22 A3005 RMK AO2 
     LTG DSNT NE=
METAR KCLK 081113Z AUTO 02006KT 10SM SCT025 22/20 A3007 RMK AO2=
METAR KCQB 081110Z AUTO RMK AO2 PWINO TSNO=
METAR KCUH 081110Z AUTO 00000KT 7SM -RA BKN021 BKN035 OVC060 
     23/23 A3005 RMK AO2=
METAR KDUA 081117Z AUTO 15005KT 10SM CLR 24/23 A3004 RMK AO2 LTG 
     DSNT N=
SPECI KDXR 081112Z 00000KT 1 1/4SM BR OVC003 23/22 A3008 RMK AO2=
SPECI KEWN 081112Z 03005KT 2SM BR FEW009 25/24 A2995 RMK AO2=
METAR KFDW 081115Z AUTO 34004KT 10SM CLR 24/18 A3001 RMK AO1=
METAR KFET 081110Z AUTO 34003KT 10SM CLR 17/16 A3017 RMK AO2 LTG 
     DSNT S=
METAR KGCD 081110Z AUTO 12006KT 10SM CLR 14/03 A3011 RMK AO2 
     T01430030=
METAR KGCM 081115Z AUTO 29003KT 3SM +VCTSRA BKN007 OVC012 23/23 
     A3007 RMK AO2 LTG DSNT NE S AND NW P0019=
METAR KGLY 081115Z AUTO 00000KT 5SM  BR BKN006 22/22 A3005 RMK AO2 
     =
METAR KGMJ 081114Z AUTO 00000KT OVC021 26/26 A3005 RMK AO2 PWINO=
SPECI KHIB 081112Z AUTO 00000KT 10SM CLR 09/09 A3004 RMK AO2=
METAR KIDP 081110Z AUTO 00000KT 10SM VCTS BKN033 BKN041 BKN100 
     21/20 A3006 RMK AO2 LTG DSNT SE=
SPECI KIXD 081112Z 36003KT 1SM BR VV001 21/20 A3006 RMK AO2=
SPECI KLAA 081112Z AUTO 13004KT 10SM FEW004 OVC100 17/16 A3025 RMK 
    AO2=
METAR KLAM 081110Z AUTO 00000KT 10SM CLR 15/08 A3037 RMK AO2=
METAR KLRU 081111Z AUTO 36003KT 10SM CLR 20/15 A3016 RMK AO2=
METAR KMEZ 081115Z AUTO 00000KT 7SM SCT012 SCT028 BKN045 25/23 
     A3008 RMK AO2 LTG DSNT NW=
METAR KOJA 081110Z AUTO 01005KT 10SM BKN013 OVC023 22/22 A3008 
     RMK AO2 LTG DSNT E=
METAR KOKM 081111Z AUTO 01003KT 10SM -RA OVC005 24/24 A3004 RMK 
     AO1 LTG DSNT NE=
METAR KONP 081110Z AUTO 20006KT 10SM OVC004 11/09 A3000 RMK AO1=
METAR KORS 081110Z AUTO 00000KT 10SM CLR 14/12 A2995 RMK AO2=
METAR KOUN 081112Z AUTO 00000KT 10SM OVC011 25/23 A3006 RMK AO2 
     LTG DSNT NE=
####018000081####
SABZ20 SBTT 081100
METAR SBTT 081100Z 06002KT 9999 FEW006 BKN070 24/24 Q1011=
####018000212####
SAAG31 KWBC 081100 RRA
METAR
SAAR 081100Z 00000KT 9000 NSC 00/M00 Q1018=
SARC 081100Z 14008KT 8000 BKN008 11/09 Q1019=
SARI 081100Z 20004KT 7000 NSC 16/16 Q1019=
SASA 081100Z NIL=
SAWE 081100Z NIL=
####018000092####
SAAW33 KWBC 081100 RRD
METAR
OBBI 081100Z 02009KT 5000 HZ NSC 36/27 Q0999 BECMG 3000=
####018000074####
SABZ20 SBPV 081100
METAR SBPV 081100Z 00000KT 9999 FEW020 24/22 Q1012=
####018000092####
SAAW42 KWBC 081100 RRB
METAR
OBBI 081100Z 02009KT 5000 HZ NSC 36/27 Q0999 BECMG 3000=
####018000136####
SAAG41 KWBC 081100 RRA
METAR
SANT 081100Z NIL=
SARL 081100Z 14005KT 9999 06/05 Q1020=
SAZN 081100Z 27010KT CAVOK 07/01 Q1009=
####018000780####
SAUS20 KNKA 081113
METAR KPSO 081115Z AUTO 30003KT 10SM CLR 08/05 A3039 RMK AO2=
METAR KPTS 081110Z AUTO 14004KT 10SM SCT028 SCT038 BKN045 22/22 
     A3006 RMK AO2 LTG DSNT E THRU SW T02200221=
METAR KPVJ 081107Z AUTO 29003KT 7SM CLR 24/23 A3004 RMK AO2 LTG 
     DSNT NE=
METAR KSNL 081112Z AUTO 36005KT 7SM VCTS OVC005 24/23 A3005 RMK 
     AO2=
METAR KSVC 081110Z AUTO 05008KT 10SM OVC110 18/14 A3022 RMK AO2=
METAR KTEX 081111Z AUTO 12008KT 10SM SCT085 OVC110 12/04 A3046 
     RMK AO2=
METAR KTMK 081113Z AUTO 11003KT 10SM OVC006 12/12 A2996 RMK AO2=
METAR KTQH 081114Z AUTO 00000KT 10SM SCT017 BKN026 OVC033 23/23 
     A3005 RMK AO2=
METAR KWWR 081109Z AUTO 36005KT 10SM SCT009 SCT041 BKN120 22/21 
     A3015 RMK AO2 LTG DSNT E T02150205=
####018000248####
SACA33 KWBC 081100 RRD
METAR
TNCA 081100Z 08011KT 9999 FEW017 29/25 Q1011 NOSIG=
TNCB 081100Z AUTO /////KT //// ////// 28/25 Q1012 NOSIG=
TNCC 081100Z 09012KT 9999 SCT017 29/25 Q1011 NOSIG=
TNCE 081100Z 06011KT 9999 FEW018 28/24 Q1016=
####018000090####
SACA41 KWBC 081100 RRA
METAR
TDCF 081100Z 15006KT 9999 -SHRA BKN016TCU 24/22 Q1014=
####018000107####
SACN31 KWBC 081100 RRB
METAR
CYUL 081100Z 24004KT 12SM FEW080 26/21 RMK AC1 ALTM MISG
     SLP158=
####018000101####
SAPH31 RPLC 081100
METAR RPLC 081100Z
33004G19KT 9999 FEW036 BKN270 27/22 Q1010 A2983 RMK/NOSIG=
####018000424####
SARA31 KWBC 081100 RRD
METAR
UTNN 081100Z 23004MPS 210V270 CAVOK 43/06 Q1007 R33/CLRD70
     NOSIG=
UTNU 081100Z VRB01MPS CAVOK 43/08 Q1007 R13/CLRD60 NOSIG=
UTSA 081100Z 02007MPS 9999 NSC 41/04 Q1008 R88/CLRD70 NOSIG=
UTSB 081100Z 01007MPS CAVOK 41/02 Q1007 R01/CLRD70 TEMPO
     01008MPS=
UTSK 081100Z 32005MPS CAVOK 41/12 Q1006 R16/CLRD70=
UTSS 081100Z 04003MPS 9999 NSC 35/10 Q1010 R88/CLRD70 NOSIG=
####018000243####
SASA31 KWBC 081100 RRB
METAR
SKBO 081100Z VRB02KT 1200 PRFG BKN010 11/10 A3031=
SKBQ 081100Z 22004KT 2000 BR SCT004 25/25 A2987=
SKCG 081100Z VRB02KT 9999 FEW012TCU 26/25 A2986=
SKLT 081100Z 00000KT 9999 SCT015 BKN080 24/24 A2988=
####018000088####
SASA41 KWBC 081100 RRB
METAR
SKMD 081100Z 00000KT 6000 BKN030 SCT080 18/16 A3008=
####018000119####
SAUR31 KWBC 081100 RRB
METAR
UKHH 081100Z 19004MPS 150V230 9999 SCT033 BKN200 30/15 Q1014
     260///65 NOSIG=
####018000143####
SAVN42 KWBC 081100 RRA
METAR
SVSR 081100Z 18003KT 8000 -DZ FEW013CBE BKN016 24/24 Q1011=
SVVP 081100Z 13004KT 9999 BKN013 24/23 Q1005=
####018001149####
SAXX99 KWBC 081100 RRL
METAR
CYGP 081100Z 00000KT 15SM FEW008 SCT120 18/16 A3001 RMK ST1AC2
     SLP162=
CYGR 081100Z 22015KT 12SM FEW040 BKN080 20/17 A3004 RMK SC2AC5 CU
     AOSCTD SLP171=
CYMT 081100Z 17002KT 15SM FEW045 FEW070 SCT200 21/19 A3000 RMK
     CU1AC2CI0 SLP158=
CYQK 081100Z 26005KT 15SM FEW120 15/13 A2998 RMK AC1 SLP152=
CYYE 081100Z 00000KT 20SM FEW210 12/06 A3002 RMK CI0 SLP171=
DAAJ 081100Z 05008KT CAVOK 35/05 Q1020=
DAUK 081100Z NIL=
HEAR 081100Z 33007KT CAVOK 31/21 Q1009=
HEAT 081100Z 34015KT CAVOK 35/12 Q1011=
HEIS 081100Z 33007KT CAVOK 32/18 Q1009=
HESH 081100Z 02014KT CAVOK 37/11 Q1006=
SAOC 081100Z 320006KT FEW070 05/006 Q1015=
SKIP 081100Z 00000KT 5000 BCFG BKN016 SCT070 10/09 A3037=
SKLC 081100Z 00000KT 9999 MIFG FEW015 24/24 A2986=
SKMR 081100Z 00000KT 9999 FEW015 SCT080 24/23 A2984=
SKNV 081100Z 00000KT 9999 FEW007 OVC090 23/22 A2992=
SKRH 081100Z 07004KT 9999 TSRA FEW020CB OVC090 23/22 A2988=
SKVP 081100Z 03006KT 9000 BKN010 SCT080 23/23 A2994=
SKVV 081100Z 00000KT 9999 SCT023 BKN080 XX/XX A2993=
UTTP 081100Z 25002MPS CAVOK 38/08 Q1010 R88/CLRD70 NOSIG=
####018000084####
SPUS42 KWBC 081114
SPECI
KMFE 081111Z 33006KT 10SM SCT006 BKN033 26/24 A2981=
####018000089####
SPUS52 KWBC 081114
SPECI
KGAG 081111Z AUTO 36004KT 10SM FEW009 BKN110 21/19 A3014=
####018000084####
SPUS53 KWBC 081114
SPECI
KMHK 081111Z AUTO 36003KT 5SM BR BKN020 22/21 A3010=
####018000207####
SAUS20 KNKA 081114
METAR KOAJ 081115Z AUTO 00000KT 6SM CLR 23/22 A2994 RMK AO1=
METAR KSOP 081115Z AUTO 00000KT 10SM CLR 23/18 A2998 RMK AO1=
METAR KUDG 081115Z 32004KT 10SM CLR 24/18 A2997 RMK AO1=
####018000084####
SPUS72 KWBC 081114
SPECI
KCEW 081109Z AUTO 00000KT 4SM BR FEW001 20/20 A3004=
####018000084####
SPUS72 KWBC 081114
SPECI
KMFE 081111Z 33006KT 10SM SCT006 BKN033 26/24 A2981=
####018000084####
SPUS73 KWBC 081114
SPECI
KMHK 081111Z AUTO 36003KT 5SM BR BKN020 22/21 A3010=
####018000084####
SPUS81 KWBC 081114
SPECI
KMHK 081111Z AUTO 36003KT 5SM BR BKN020 22/21 A3010=
####018000072####
SAAT31 TAPA 081104
METAR TAPA 081100Z 08011KT 9999 FEW020 28/24 Q1015=####018001413####
SPZZ40 KAWN 081114 RRB
SPECI CYAM 081111Z 21002KT 4SM BR SCT003 OVC007 RMK SF4SF4=
SPECI CYOY 081110Z AUTO 00000KT 9SM BKN013 BKN058 BKN069 20/16 A3000=
SPECI CYUS 081104Z AUTO ///// 9SM FEW092 11/ A2979=
SPECI DAUI 081045Z 08024KT 2600 BLSA NSC 43/05 Q1013=
SPECI EBLB 081054Z 27006KT 9999 FEW160 26/10 Q1022 BLU BLU=
SPECI EGUN 081108Z 24008KT 9999 BKN032 OVC120 22/17 A3007 RMK AO2A
      BLU=
SPECI KDYS 081111Z 02006KT 10SM FEW005 OVC009 21/21 A3005 RMK AO2A
      SLP158 $=
SPECI KGRK 081110Z 07004KT 7SM -SHRA SCT009 BKN013 OVC029 26/24 A2999=
SPECI KLTS 081106Z AUTO 08003KT 10SM BKN019 23/22 A3007 RMK AO2 CIG
      015V022 SLP168 $=
SPECI KLTS 081109Z AUTO 06004KT 10SM SCT017 BKN022 23/23 A3007 RMK
      AO2 SLP168 $=
SPECI KLTS 081110Z AUTO 06005KT 10SM R35R/5500VP6000FT -RA SCT017 BKN022
      23/23 A3007 RMK AO2 RAB1110 SLP169 $=
SPECI KNBG 081109Z 04003KT 6SM BR FEW010 BKN250 25/23 A3002 RMK AO2
      $=
SPECI KNEL 081107Z AUTO 14006KT 4SM HZ OVC005 25/22 A3003 RMK AO2 $=
SPECI KNPA 081102Z 00000KT 7SM MIFG FEW250 24/23 A3002 RMK FIRST=
SPECI KWRI 081112Z AUTO 17003KT 2SM BR FEW001 24/24 A3001 RMK AO2 SLP164
      $=
PAEH SP 1115 AWOS CLR BLO 120 10 48/-20/0000/999=
PATC SP 1115 AWOS CLR BLO 120 10 46/43/0210/014=
SPECI RODN 081111Z AUTO 18012KT 9999 SCT016 BKN023 BKN210 29/26 A2985
      RMK AO2 BKN023 V SCT CIG 018 RWY05 SLP106=
####018000645####
SAAM31 FCBB 081100
METAR FCBB 081100Z 22008KT 180V250 6000  SCT017 BKN022 25/20 Q1015
NOSIG=
METAR FCPP 081100Z 22006KT 8000 SCT017 BKN033 25/20 Q1014 NOSIG=
METAR FEFF 081100Z NIL=
METAR FGSL 081100Z NIL=
METAR FKKD 081100Z 22003KT 170V200 9999 BKN013 FEW016CB 30/25 Q1014
BECMG BKN016 FEW020CB=
METAR FKYS 081100Z 23005KT 9999 BKN013 26/20 Q1019 NOSIG=
METAR FNLU 081100Z NIL=
METAR FOOG 081100Z NIL=
METAR FOOL 081100Z 20004KT 150V250 8000 SCT011 BKN040 28/22 Q1015
NOSIG=
METAR FOON 081100Z 05002KT 7000 OVC020 27/22 Q1017=
METAR FPST 081100Z NIL=
METAR FZAA 081100Z 23010KT 4000 BR BKN018 25/19 Q1015 NOSIG=
####018000954####
SAKO51 RJTD 081100
METAR RKPC 081100Z 09009KT 4500 BR SCT030 OVC120 25/20 Q1007 NOSIG=
METAR RKPC 081100Z 09009KT 4500 BR SCT030 OVC120 25/20 Q1007 NOSIG=
METAR RKPK 081100Z 14004KT 9999 FEW030 BKN200 24/17 Q1009 NOSIG=
METAR RKPK 081100Z 14004KT 9999 FEW030 BKN200 24/17 Q1009 NOSIG=
METAR RKSI 081100Z 28002KT 9000 -RA FEW040 OVC110 24/19 Q1008 NOSIG=
METAR RKSM 081100Z 16006KT 9000 -RA BR SCT030 OVC100 23/21 A2979=
METAR RKSS 081100Z 18005KT 9999 -RA SCT030 OVC110 25/15 Q1008 NOSIG=
METAR RKSS 081100Z 18005KT 9999 -RA SCT030 OVC110 25/15 Q1008 NOSIG=
METAR RKTN 081100Z 33003KT 8000 -RA FEW025CB BKN040 OVC200 25/23
           Q1008 NOSIG=
METAR RKTN 081100Z 33003KT 8000 -RA FEW025CB BKN040 OVC200 25/23
           Q1008 NOSIG=
METAR RKTU 081100Z 31005KT 9000 SCT030 SCT100 OVC200 26/19 Q1009
           TEMPO 4500 -RA=
METAR RKTU 081100Z 31005KT 9000 SCT030 SCT100 OVC200 26/19 Q1009
           TEMPO 4500 -RA=
