####018000081####
SPUS44 KWBC 081225
SPECI
KHQM 081222Z AUTO 27008KT 1 1/2SM BR 13/12 A2996=
####018000103####
SPUS52 KWBC 081225
SPECI
KVCT 081223Z 04007KT 2 1/2SM +RA BR SCT016 BKN026 OVC046 24/24
A2990=
####018000088####
SPUS53 KWBC 081225
SPECI
KCNU 081222Z AUTO 08007KT 1 1/2SM BR OVC001 23/22 A3006=
####018000081####
SALV32 EVRA 081220 RRI
METAR EVLA 081220Z 30006KT 270V340 CAVOK 22/15 Q1018=
####018000081####
SALV32 EVRA 081220 RRL
METAR EVLA 081220Z 30006KT 270V340 CAVOK 22/15 Q1018=
####018000399####
SAUK33 EGGY 081220
METAR EGGD 081220Z 32006KT 280V040 9999 FEW033 20/10 Q1019=
METAR EGGP 081220Z 24012KT 9999 SCT046 20/09 Q1017=
METAR EGHI 081220Z 23006KT 170V300 9999 SCT032 BKN038 21/14 Q1018 =
METAR EGNS 081220Z NIL=
METAR EGNT 081220Z 25016KT 9999 FEW040 20/07 Q1014=
METAR EGNV 081220Z 24014KT 9999 FEW040 19/11 Q1016=
METAR COR EGPB 081220Z 20014KT CAVOK 15/11 Q1007 NOSIG=
####018000545####
SAUK34 EGGY 081220
METAR EGHD 081220Z 21007KT 170V280 9999 FEW022 19/13 Q1020=
METAR EGHE 081220Z 20009KT 9999 FEW020 18/13 Q1019=
METAR EGHK 081220Z 15005KT 9999 SCT020 18/15 Q1018=
METAR EGHQ 081220Z 30006KT 250V330 9999 FEW025 18/13 Q1019=
METAR EGJA 081220Z 25005KT 9999 FEW006 19/16 Q1020=
METAR EGJB 081220Z 25005KT 210V290 9999 FEW013 20/17 Q1020=
METAR EGJJ 081220Z 27007KT 220V340 9999 FEW008 20/17 Q1019 NOSIG=
METAR EGTE 081220Z 17010KT 9999 FEW030 21/14 Q1018=
METAR EGTG 081220Z 27007KT 9999 FEW030 20/10 Q1018=
####018000081####
SALV32 EVRA 081220 RRK
METAR EVLA 081220Z 30006KT 270V340 CAVOK 22/15 Q1018=
####018000081####
SALV32 EVRA 081220 RRM
METAR EVLA 081220Z 30006KT 270V340 CAVOK 22/15 Q1018=
####018000093####
SAQB31 LQSM 081200 CCY
METAR LQSA 081200Z 29007KT 230V010 9999 SCT060 22/12 Q1023 NOSIG=
####018000447####
SAUK35 EGGY 081220
METAR EGHH 081220Z 18009KT 9999 6000S VCFG FEW026 SCT035 21/16
    Q1019=
METAR EGKA 081220Z NIL=
METAR EGKB 081220Z 20009KT 160V250 9999 BKN035 24/14 Q1019 =
METAR EGLF 081220Z NIL=
METAR EGMC 081220Z 22005KT 180V260 9999 FEW032 24/16 Q1018=
METAR EGMD 081220Z 20008KT 9999 FEW020 21/16 Q1019=
METAR EGMH 081220Z 12011KT 9999 FEW020 23/17 Q1019 =
METAR EGTC 081220Z 22008KT 190V280 9999 FEW034 21/12 Q1018=
####018000404####
SAFI32 EFHK 081220
EFHA 081220Z 12003KT 9999 FEW030TCU BKN200 24/14 Q1015=
EFHF 081220Z 34005KT 290V010 9999 FEW042 SCT055 27/19 Q1013=
EFKA 081220Z 21005KT 150V260 9999 FEW045 BKN200 25/11 Q1015=
EFKK 081220Z AUTO 14007KT 090V190 CAVOK 25/11 Q1014=
EFMA 081220Z 21009KT CAVOK 21/13 Q1016=
EFPO 081220Z AUTO 27007KT 230V310 CAVOK 23/12 Q1016=
EFSI 081220Z AUTO VRB03KT CAVOK 26/12 Q1015=
####018000081####
SALV32 EVRA 081220 RRJ
METAR EVLA 081220Z 30006KT 270V340 CAVOK 22/15 Q1018=
####018000087####
SAUK31 EGGY 081220 RRA
METAR EGSS 081220Z 22008KT 180V270 9999 BKN026 23/15 Q1018=
####018000621####
SASN33 ESWI 081220
METAR ESNG 081220Z 14008KT 9999 DZ FEW074 17/13 Q1014 RERA=
METAR ESNK 081220Z AUTO 18009KT 9999NDV BKN046/// 21/14 Q1012=
METAR ESNN 081220Z AUTO 24006KT 210V280 9999NDV FEW037///
BKN043/// 22/13 Q1013=
METAR ESNO 081220Z AUTO 18011KT 140V210 9999NDV FEW076/// 20/10
Q1013=
METAR ESNQ 081220Z 18010KT 9999 -RA FEW018 SCT061 17/10 Q1013 REDZ=
METAR ESNS 081220Z AUTO 14011KT 9999NDV ////// 22/09 Q1014=
METAR ESNU 081220Z 17008KT 140V210 CAVOK 21/13 Q1014=
METAR ESNZ 081220Z 19008KT CAVOK 20/11 Q1011=
METAR ESUT 081220Z AUTO 14011KT 9999NDV BKN051/// OVC110/// 19/11
Q1010=
####018000098####
SAEU31 BKPR 081230
METAR BKPR 081230Z 05006KT 9999 SCT030 BKN070 17/11 Q1021 NOSIG RMK
BLU=
####018000115####
SATU20 LTAA 081150 RRB
METAR LTCC 081220Z 20010KT 170V230 CAVOK 41/02 Q1005 NOSIG RMK RWY16
17010KT 130V220=
####018000211####
SADN34 EKCH 081220
METAR EKGF 081220Z NIL=
METAR EKHN 081220Z AUTO VRB03KT 9999NDV BKN029/// BKN079///
18/14 Q1020=
METAR EKHR 081220Z AUTO 20010KT 9000NDV SCT008/// BKN037///
BKN075/// 17/17 Q1018=
####018000492####
SAUK32 EGGY 081220
METAR EGAA 081220Z 22013KT 9999 FEW038 17/09 Q1014=
METAR EGAC 081220Z 21016KT 9999 FEW023 SCT039 18/08 Q1014=
METAR EGFF 081220Z 22006KT 9999 FEW030 21/11 Q1018=
METAR EGGW 081220Z 23006KT 180V270 9999 SCT027 23/14 Q1018=
METAR EGLC 081220Z 28006KT 260V320 9999 SCT032 22/15 Q1018=
METAR EGNM 081220Z 27012KT 230V310 9999 SCT040 18/08 Q1017=
METAR EGNX 081220Z 26011KT 230V300 CAVOK 21/08 Q1018=
METAR EGPD 081220Z 21015KT 9999 FEW042 19/08 Q1010 NOSIG=
####018000085####
SAMP31 LMMM 081230 RRA
METAR HLLT 081220Z
33006KT 270V010 8000 SKC 31/18 Q1018=
####018000081####
SALV32 EVRA 081220 RRN
METAR EVLA 081220Z 30006KT 270V340 CAVOK 22/15 Q1018=
####018000117####
SAIY42 LIIB 081200 RRB
METAR LIRX 081155Z 17004KT CAVOK 28/15 Q1020 RMK SKC VIS MIN 9999E
      VIS MAR 25 KM=
####018000157####
SASN34 ESWI 081220
METAR ESDF 081220Z NIL=
METAR ESPA 081220Z 13012KT CAVOK 19/13 Q1015=
METAR ESSL 081220Z 23007KT 190V270 9999 SCT045 24/12 Q1018=
####018000489####
SAUK31 EGGY 081220
METAR EGBB 081220Z 24006KT 200V290 9999 FEW040 21/09 Q1018=
METAR EGCC 081220Z 23012G22KT 200V280 9999 SCT038 BKN044 19/10
    Q1017=
METAR EGKK 081220Z 24006KT 180V270 9999 SCT040 25/14 Q1018=
METAR EGLL 081220Z 24009KT 190V290 9999 SCT023 SCT033 23/14
    Q1018=
METAR EGPF 081220Z 22018KT 9999 SCT030 18/10 Q1013=
METAR EGPH 081220Z 25014G25KT 9999 FEW035 18/07 Q1013=
METAR EGPK 081220Z 25016KT 9999 FEW024 19/10 Q1014=
METAR EGSS 081220Z NIL=
####018000073####
SASD20 OEJD 081200 RRA
METAR OEPA 081200Z 36014KT CAVOK 45/05 Q1003=
####018000505####
SASN35 ESWI 081220
METAR ESGL 081220Z AUTO 24009KT 9999NDV FEW037/// BKN071/// 21/15 
Q1018=
METAR ESGR 081220Z AUTO 21014KT 9999NDV BKN043/// BKN210/// 22/14
Q1018=
METAR ESKM 081220Z NIL=
METAR ESNL 081220Z AUTO 15012KT 9999NDV SCT052/// BKN100/// 21/11
Q1013=
METAR ESNX 081220Z AUTO 15003KT 9999NDV -RA FEW009/// SCT029///
15/14 Q1014=
METAR ESNY 081220Z AUTO 28009KT 230V310 9999 FEW041 23/15 Q1014=
METAR ESSF 081220Z NIL=
METAR ESSK 081220Z NIL=
METAR ESUD 081220Z NIL=
####018000086####
SAMP31 LMMM 081230 RRA
METAR HLLT 081220Z 
33006KT 270V010 8000 SKC 31/18 Q1018=
####018000084####
SAMP31 LMMM 081230 RRA
METAR HLLT 081220Z 33006KT 270V010 8000 SKC 31/18 Q1018=
####018000494####
SASN32 ESWI 081220
METAR ESKN 081220Z 28011KT 230V320 9999 SCT048 25/13 Q1017=
METAR ESOE 081220Z NIL=
METAR ESOK 081220Z 24004KT 9999 BKN023 18/14 Q1017=
METAR ESOW 081220Z 25011KT CAVOK 24/14 Q1017=
METAR ESSA 081220Z 23013KT 9999 FEW045 25/14 Q1016 NOSIG=
METAR ESSB 081220Z 26010KT 220V310 9999 SCT048 25/12 Q1016=
METAR ESSD 081220Z AUTO 25010KT 9999NDV BKN027/// 20/13 Q1016=
METAR ESSP 081220Z 26012KT CAVOK 24/12 Q1017=
METAR ESSV 081220Z 28007KT CAVOK 22/10 Q1019=
####018000081####
SPUS53 KWBC 081225
SPECI
KLXV 081223Z AUTO 11003KT 7SM OVC002 06/05 A3052=
####018000103####
SPUS72 KWBC 081225
SPECI
KVCT 081223Z 04007KT 2 1/2SM +RA BR SCT016 BKN026 OVC046 24/24
A2990=
####018000081####
SPUS74 KWBC 081225
SPECI
KHQM 081222Z AUTO 27008KT 1 1/2SM BR 13/12 A2996=
####018000102####
SPUS75 KWBC 081225
SPECI
PAIL 081221Z AUTO 00000KT 1/4SM FG FEW001 BKN007 OVC090 08/08
A2993=
####018000079####
SPUS81 KWBC 081225
SPECI
KBDL 081222Z 14009KT 3SM HZ OVC008 25/22 A3007=
####018000088####
SPUS81 KWBC 081225
SPECI
KCNU 081222Z AUTO 08007KT 1 1/2SM BR OVC001 23/22 A3006=
####018000144####
SAUS41 KCAR 081225
MTR40B
METAR K40B 081225Z AUTO VRB02KT 28/22 A3002 RMK AO1 SLP157
     T02790223 10280 20198 54000 P0000 60001 70001
####018000081####
SPUS81 KWBC 081225
SPECI
KLXV 081223Z AUTO 11003KT 7SM OVC002 06/05 A3052=
####018000103####
SPUS81 KWBC 081225
SPECI
KVCT 081223Z 04007KT 2 1/2SM +RA BR SCT016 BKN026 OVC046 24/24
A2990=
####018000083####
SPUS81 KWBC 081225
SPECI
PASN 081221Z 06012KT 8SM SCT002 OVC044 05/05 A2993=
####018000733####
SADL34 EDZO 081220
METAR EDAC 081220Z 28005KT 200V350 CAVOK 26/13 Q1021=
METAR EDAH 081220Z 17004KT 130V240 CAVOK 25/09 Q1021=
METAR EDGS 081220Z 18008KT 110V240 CAVOK 25/09 Q1022=
METAR EDHL 081220Z 21008KT 160V270 CAVOK 29/12 Q1019=
METAR EDLN 081220Z 23006KT 120V290 CAVOK 30/10 Q1019=
METAR EDLP 081220Z VRB04KT CAVOK 30/11 Q1020=
METAR EDLW 081220Z 26004KT 180V340 CAVOK 31/10 Q1020=
METAR EDMA 081220Z 18005KT 130V280 CAVOK 26/09 Q1022=
METAR EDNY 081220Z 19005KT CAVOK 28/11 Q1022=
METAR EDQM 081220Z 10004KT 010V160 CAVOK 24/08 Q1023=
METAR EDRZ 081220Z 17005KT 110V250 CAVOK 30/12 Q1021=
METAR EDSB 081220Z VRB03KT CAVOK 30/12 Q1020=
METAR EDXW 081220Z 23011KT 8000 RA FEW020 BKN064 19/14 Q1019=
####018000798####
SAZZ40 KAWN 081200 RRS
METAR DAUI 081200Z 07024KT 6000 DRSA NSC 45/07 Q1013=
METAR EFKU 081220Z AUTO 30005KT CAVOK 24/18 Q1015=
METAR EFOU 081220Z VRB03KT 9999 FEW040 BKN200 22/10 Q1015=
METAR EGMH 081220Z 12011KT 9999 FEW020 23/17 Q1019=
METAR KNQI 081156Z COR 01005KT 10SM TS SCT014CB BKN140 BKN280 27/24
      A2983 RMK AO2 SLP097 OCNL LTGICCG VC NE-E TSB28RAE19 TS NE-E
      MOV W CB DSNT S P0006 60017 70017 T02670244 10272 20267
      51003 $=
METAR LQBK 081230Z 27006KT 9999 FEW040 24/11 Q1022 NOSIG=
METAR OEPA 081200Z 36014KT CAVOK 45/05 Q1003=
METAR OKBK 081230Z 34019KT 6000 -BLDU SKC 48/M07 Q0999 NOSIG=
METAR SBJF 081200Z 04007KT CAVOK 19/09 Q1023=
METAR SBKG 081200Z 18008KT 9999 BKN018 SCT100 23/20 Q1018=
METAR SBMK 081200Z 16002KT CAVOK 20/14 Q1023=
####018000333####
SANA14 KAWN 081200 RRF
METAR KNQI 081156Z COR 01005KT 10SM TS SCT014CB BKN140 BKN280 27/24
      A2983 RMK AO2 SLP097 OCNL LTGICCG VC NE-E TSB28RAE19 TS NE-E
      MOV W CB DSNT S P0006 60017 70017 T02670244 10272 20267
      51003 $=
METAR KOSC 081214Z AUTO 18003KT 7SM SCT015 SCT075 SCT100 23/21 A2999
      RMK AO2=
####018001201####
SADL51 ETGT 081220
METAR
EDHK 081220Z 24007KT 9999 FEW050 BKN120 28/11 Q1019
      BLU BLU=
ETGG 081220Z 22012KT 9999 BKN090 26/10 Q1019
      BLU=
ETGY NIL=
ETHB 081220Z 24006KT 9999 FEW070 30/10 Q1019
      BLU+BLU+=
ETHC NIL=
ETHE 081220Z 18005KT 9999 FEW070 BKN300 30/10 Q1019
      BLU+BLU+=
ETHF 081220Z 19006KT 9999 FEW300 28/10 Q1020
      BLU+BLU+=
ETHS 081220Z 22006KT 9999 FEW120 30/07 Q1019
      BLU+BLU+=
ETMN 081220Z 24007KT 9999 BKN110 SCT270 28/10 Q1019
      BLU BLU+ TEMPO BLU=
ETND 081220Z 24007KT 9999 FEW060 SCT280 30/10 Q1019
      BLU+=
ETNH 081220Z 25010KT 9999 BKN120 SCT280 27/09 Q1019
      BLU BLU+ TEMPO BLU=
ETNJ NIL=
ETNL 081220Z 16007KT 9999 FEW090 27/10 Q1020
      BLU+BLU+=
ETNS 081220Z 22011KT 9999 FEW070 SCT120 BKN240 28/06 Q1019
      BLU+BLU=
ETNT 081220Z 25009KT 9999 FEW060 SCT110 29/12 Q1018
      BLU+BLU+=
ETNU 081220Z 14004KT 9999 FEW100 BKN150 26/11 Q1021
      BLU FCST CANCEL=
ETNW 081220Z 21007KT 9999 FEW070 SCT300 30/10 Q1019
      BLU+BLU+=
ETSH 081220Z 21004KT 9999 FEW150 SCT250 28/07 Q1021
      BLU+BLU+=
ETWM 081220Z 25007KT 9999 FEW070 BKN210 29/08 Q1018
      BLU+=
####018000203####
SANO37 ENMI 081220
METAR ENNO 081220Z NIL=
METAR ENOV 081220Z NIL=
METAR ENSD 081220Z NIL=
METAR ENSG 081220Z NIL=
METAR ENSN 081220Z NIL=
METAR ENSR 081220Z NIL=
METAR ENSS 081220Z NIL=
####018000759####
SAUS20 KNKA 081225
METAR KUXL 081220Z AUTO 06007KT 10SM OVC009 26/25 A3000 RMK AO2 
     LTG DSNT W=
METAR KCLS 081215Z AUTO 00000KT 10SM CLR 12/12 A2996 RMK AO2 =
SPECI KCNM 081224Z AUTO 32009KT 9SM -RA BKN007 OVC015 19/18 A3015 
    RMK AO2 P0004=
SPECI KEWR 081224Z 18006KT 2SM BR BKN004 BKN009 OVC110 26/25 A3005 
    RMK AO2 SFC VIS 2 1/2=
METAR KFYJ 081223Z AUTO 07004KT 5SM SCT075 SCT095 28/26 A3002 RMK 
     AO1=
METAR KGZL 081215Z AUTO 15003KT 7SM CLR 24/23 A3004 RMK AO2 =
METAR KHQU 081224Z AUTO 00000KT 10SM CLR 25/20 A3007 RMK AO1=
METAR KJFZ 081220Z AUTO 00000KT 5SM CLR 24/21 A3018 RMK=
METAR KSHD 081220Z AUTO 00000KT 5SM HZ CLR 26/19 A3009 RMK AO2=
METAR KVDF 081216Z AUTO 00000KT 10SM CLR 24/23 A3001 RMK AO2=
####018000105####
SAAK41 KNKA 081225
SPECI PAHC 081223Z AUTO 00000KT 1 3/4SM BR CLR 09/08 A2998 RMK AO2 
    TSNO $=
####018000411####
SANO33 ENMI 081220
METAR ENAT 081220Z NIL=
METAR ENBL 081220Z NIL=
METAR ENEV 081220Z NIL=
METAR ENFL 081220Z 20015KT 160V240 9999 FEW015 SCT050 16/12 Q1011=
METAR ENKB 081220Z 30007KT 270V340 9999 VCSH FEW045 SCT061 20/08
           Q1009=
METAR ENKR 081220Z NIL=
METAR ENML 081220Z 25010KT 9999 VCSH FEW040 BKN060 20/08 Q1009=
METAR ENNA 081220Z 15012KT 9999 FEW045CB SCT070 24/09 Q1012 =
####018000306####
SANO38 ENMI 081220
METAR ENDR 081220Z NIL=
METAR ENEK 081220Z 23011KT CAVOK 16/12 Q1015 W15/S3=
METAR ENGC 081220Z 19026KT CAVOK 13/11 Q1009=
METAR ENHE 081220Z 18017KT 9999 SCT040 15/11 Q1009=
METAR ENOA 081220Z 19023KT 9999 FEW045 13/11 Q1010=
METAR ENSL 081220Z 22020KT CAVOK 14/11 Q1013=
####018000203####
SANO34 ENMI 081220
METAR ENBN 081220Z NIL=
METAR ENBV 081220Z NIL=
METAR ENDI 081220Z NIL=
METAR ENFG 081220Z NIL=
METAR ENHF 081220Z NIL=
METAR ENRA 081220Z NIL=
METAR ENSH 081220Z NIL=
####018000575####
SANO32 ENMI 081220
METAR ENAL 081220Z 24004KT 170V320 9999 VCSH FEW030CB BKN055 17/11
           Q1010=
METAR ENCN 081220Z 19007KT 9000 BKN038 17/15 Q1016=
METAR ENHD 081220Z 20010KT 9999 FEW020 SCT210 17/11 Q1014=
METAR ENRO 081220Z 21014KT 160V250 9999 -SHRA FEW015 SCT040 BKN070
           15/07 Q1012=
METAR ENRY 081220Z 19008KT 160V230 9000 -RA BKN007 17/15 Q1016 TEMPO
           SCT007 BKN015=
METAR ENSB 081220Z NIL=
METAR ENTC 081220Z 36006KT 300V020 9999 FEW065 SCT082 19/09 Q1010=
METAR ENTO 081220Z 19012KT 9999 SCT006 BKN011 16/15 Q1016=
####018000210####
SPUS90 KWBC 081226
SPECI KLXV 081223Z AUTO 11003KT 7SM OVC002 06/05 A3052 RMK AO2 CIG
     001V005 TSNO=
SPECI KVCT 081223Z 04007KT 2 1/2SM +RA BR SCT016 BKN026 OVC046
     24/24 A2990 RMK AO2 P0012=
####018000136####
SAUS90 KWBC 081226
METAR K40B 081225Z AUTO VRB02KT 28/22 A3002 RMK AO1 SLP157
     T02790223 10280 20198 54000 P0000 60001 70001=
####018000245####
SADL35 EDZO 081220
METAR EDHI 081220Z 23007KT 160V290 CAVOK 30/12 Q1019=
METAR EDMO 081220Z 01009KT 340V150 CAVOK 25/08 Q1023=
METAR EDOP 081220Z 21010KT 160V270 CAVOK 29/08 Q1020=
METAR EDTD 081220Z 12005KT 070V150 CAVOK 26/10 Q1023=
####018000303####
SADL33 EDZO 081220
METAR EDFE 081220Z VRB03KT CAVOK 30/11 Q1020=
METAR EDFH 081220Z 15009KT 110V180 CAVOK 28/11 Q1021=
METAR EDFM 081220Z VRB03KT 030V030 CAVOK 32/11 Q1020=
METAR EDLV 081220Z NIL=
METAR EDTL 081220Z VRB05KT CAVOK 30/12 Q1019=
METAR EDVK 081220Z 21007KT CAVOK 27/09 Q1021=
####018000177####
SANO36 ENMI 081220
METAR ENBS 081220Z NIL=
METAR ENHK 081220Z NIL=
METAR ENHV 081220Z NIL=
METAR ENLK 081220Z NIL=
METAR ENMH 081220Z NIL=
METAR ENNK 081220Z NIL=
####018000203####
SANO35 ENMI 081220
METAR ENMS 081220Z NIL=
METAR ENRM 081220Z NIL=
METAR ENRS 081220Z NIL=
METAR ENSK 081220Z NIL=
METAR ENSO 081220Z NIL=
METAR ENST 081220Z NIL=
METAR ENVD 081220Z NIL=
####018000634####
SANO31 ENMI 081220
METAR ENAN 081220Z 32006KT 9999 FEW045 SCT090 BKN200 16/10 Q1010
           NOSIG=
METAR ENBR 081220Z 21013KT 9999 FEW025 SCT045 17/10 Q1013 NOSIG =
METAR ENBO 081220Z 27010KT 9999 SCT050CB 14/11 Q1010 TEMPO SHRA=
METAR ENDU 081220Z VRB02KT 9999 VCSH FEW050 BKN070 19/11 Q1010=
METAR ENGM 081210Z 18014KT 9999 FEW013 SCT021 BKN040 17/14 Q1015
           NOSIG=
METAR ENOL 081220Z 02004KT 9999 FEW025TCU SCT080 19/07 Q1010 NOSIG=
METAR ENVA 081220Z 26018G28KT 9999 VCSH FEW040CB SCT070 18/13 Q1010
           RETS TEMPO TSRA =
METAR ENZV 081220Z 20010KT 9999 FEW020 BKN170 18/12 Q1015 NOSIG=
####018000079####
SACN87 KWBC 081226
METAR CWWL 081222Z AUTO 12/ RMK AO1 SLP173 T0122 51005=
####018000526####
SAUS99 KWBC 081226
METAR
KUXL 081220Z AUTO 06007KT 10SM OVC009 26/25 A3000 RMK AO2 LTG DSNT
     W=
KCLS 081215Z AUTO 00000KT 10SM CLR 12/12 A2996 RMK AO2=
KFYJ 081223Z AUTO 07004KT 5SM SCT075 SCT095 28/26 A3002 RMK
     AO1=
KGZL 081215Z AUTO 15003KT 7SM CLR 24/23 A3004 RMK AO2=
KHQU 081224Z AUTO 00000KT 10SM CLR 25/20 A3007 RMK AO1=
KJFZ 081220Z AUTO 00000KT 5SM CLR 24/21 A3018 RMK=
KSHD 081220Z AUTO 00000KT 5SM HZ CLR 26/19 A3009 RMK AO2=
KVDF 081216Z AUTO 00000KT 10SM CLR 24/23 A3001 RMK AO2=
####018000080####
SACN96 KWBC 081226
METAR CWZQ 081220Z AUTO 19010KT 24/17 RMK AO1 T02360169=
####018000284####
SPUS99 KWBC 081226
SPECI
PAHC 081223Z AUTO 00000KT 1 3/4SM BR CLR 09/08 A2998 RMK AO2 TSNO
     $=
KCNM 081224Z AUTO 32009KT 9SM -RA BKN007 OVC015 19/18 A3015 RMK
     AO2 P0004=
KEWR 081224Z 18006KT 2SM BR BKN004 BKN009 OVC110 26/25 A3005 RMK
     AO2 SFC VIS 2 1/2=
####018000080####
SALV32 EVRA 081220 RRN
METAR EVLA 081220Z 30006KT 270V340 CAVOK 22/15 Q1018=
####018000086####
SAUK31 EGGY 081220 RRA
METAR EGSS 081220Z 22008KT 180V270 9999 BKN026 23/15 Q1018=
####018000080####
SALV32 EVRA 081220 RRP
METAR EVLA 081220Z 30006KT 270V340 CAVOK 22/15 Q1018=
####018000080####
SALV32 EVRA 081220 RRO
METAR EVLA 081220Z 30006KT 270V340 CAVOK 22/15 Q1018=
####018000115####
SAIY42 LIIB 081200 RRB
METAR LIRX 081155Z 17004KT CAVOK 28/15 Q1020 RMK SKC VIS MIN 9999E
      VIS MAR 25 KM=
####018000387####
SAOS31 LOWM 081220
METAR LOWW 081220Z 33007KT 290V010 9999 FEW055 24/10 Q1022 NOSIG=
METAR LOWL 081220Z 07004KT 340V150 CAVOK 24/09 Q1022 NOSIG=
METAR LOWS 081220Z VRB02KT 9999 FEW070 25/07 Q1022 NOSIG=
METAR LOWI 081220Z 09005KT 010V150 9999 FEW080 28/14 Q1020 NOSIG=
METAR LOWG 081220Z VRB03KT CAVOK 26/11 Q1022 NOSIG=
METAR LOWK 081220Z VRB03KT 9999 FEW060 26/10 Q1022 NOSIG=
####018000090####
SAOS32 LOWM 081220
METAR LOXZ 081220Z VRB04KT 70KM FEW060CU 25/11 Q1022 NOSIG RMK FEW=
####018000196####
SANO37 ENMI 081220
METAR ENNO 081220Z NIL=
METAR ENOV 081220Z NIL=
METAR ENSD 081220Z NIL=
METAR ENSG 081220Z NIL=
METAR ENSN 081220Z NIL=
METAR ENSR 081220Z NIL=
METAR ENSS 081220Z NIL=
####018000111####
SAUK31 EGGY 081220 CCA
METAR COR EGCC 081220Z 23012G22KT 200V280 9999 SCT038 BKN044 19/10
    Q1017 NOSIG=
####018000371####
SABX31 EBBR 081220
METAR EBAW 081220Z 23007KT 180V300 CAVOK 30/12 Q1019 NOSIG=
METAR EBBR 081220Z VRB04KT CAVOK 30/12 Q1019 NOSIG=
METAR EBCI 081220Z 35004KT 300V070 CAVOK 29/10 Q1019 NOSIG=
METAR EBLG 081220Z 28008KT 250V330 CAVOK 30/09 Q1020 NOSIG=
METAR EBOS 081220Z 35006KT 320V020 CAVOK 22/16 Q1019 NOSIG=
METAR ELLX 081220Z VRB04KT CAVOK 30/06 Q1021 NOSIG=
####018000080####
SALV32 EVRA 081220 RRQ
METAR EVLA 081220Z 30006KT 270V340 CAVOK 22/15 Q1018=
####018000085####
SAUK51 EGGY 081150 RRC
METAR EGXT 081150Z 23012KT 9999 FEW035 BKN250 21/05 Q1018=
####018000080####
SALV32 EVRA 081220 RRR
METAR EVLA 081220Z 30006KT 270V340 CAVOK 22/15 Q1018=
####018000321####
SAFI33 EFHK 081220
EFJO 081220Z AUTO 05004KT 360V130 CAVOK 28/18 Q1014=
EFLP 081220Z AUTO 16007KT 090V240 CAVOK 31/14 Q1013=
EFMI 081220Z AUTO VRB02KT 9999 FEW042 SCT065 28/18 Q1014=
EFSA 081220Z 16002KT 9999 FEW055TCU FEW055CB 30/17 Q1014=
EFUT 081220Z 18010KT 130V220 CAVOK 30/14 Q1013=
METAR EFVR 081225Z NIL=
####018000196####
SANO35 ENMI 081220
METAR ENMS 081220Z NIL=
METAR ENRM 081220Z NIL=
METAR ENRS 081220Z NIL=
METAR ENSK 081220Z NIL=
METAR ENSO 081220Z NIL=
METAR ENST 081220Z NIL=
METAR ENVD 081220Z NIL=
####018000402####
SANO33 ENMI 081220
METAR ENAT 081220Z NIL=
METAR ENBL 081220Z NIL=
METAR ENEV 081220Z NIL=
METAR ENFL 081220Z 20015KT 160V240 9999 FEW015 SCT050 16/12 Q1011=
METAR ENKB 081220Z 30007KT 270V340 9999 VCSH FEW045 SCT061 20/08
           Q1009=
METAR ENKR 081220Z NIL=
METAR ENML 081220Z 25010KT 9999 VCSH FEW040 BKN060 20/08 Q1009=
METAR ENNA 081220Z 15012KT 9999 FEW045CB SCT070 24/09 Q1012 =
####018000300####
SANO38 ENMI 081220
METAR ENDR 081220Z NIL=
METAR ENEK 081220Z 23011KT CAVOK 16/12 Q1015 W15/S3=
METAR ENGC 081220Z 19026KT CAVOK 13/11 Q1009=
METAR ENHE 081220Z 18017KT 9999 SCT040 15/11 Q1009=
METAR ENOA 081220Z 19023KT 9999 FEW045 13/11 Q1010=
METAR ENSL 081220Z 22020KT CAVOK 14/11 Q1013=
####018000564####
SANO32 ENMI 081220
METAR ENAL 081220Z 24004KT 170V320 9999 VCSH FEW030CB BKN055 17/11
           Q1010=
METAR ENCN 081220Z 19007KT 9000 BKN038 17/15 Q1016=
METAR ENHD 081220Z 20010KT 9999 FEW020 SCT210 17/11 Q1014=
METAR ENRO 081220Z 21014KT 160V250 9999 -SHRA FEW015 SCT040 BKN070
           15/07 Q1012=
METAR ENRY 081220Z 19008KT 160V230 9000 -RA BKN007 17/15 Q1016 TEMPO
           SCT007 BKN015=
METAR ENSB 081220Z NIL=
METAR ENTC 081220Z 36006KT 300V020 9999 FEW065 SCT082 19/09 Q1010=
METAR ENTO 081220Z 19012KT 9999 SCT006 BKN011 16/15 Q1016=
####018000086####
SAAF35 KWBC 081200 RRA
METAR
HLLT 081220Z 33006KT 270V010 8000 SKC 31/18 Q1018=
####018000087####
SAAF36 KWBC 081200 RRB
METAR
HRYR 081230Z VRB06KT 9999 SCT030 26/13 Q1020 NOSIG=
####018000122####
SAAW41 KWBC 081250 RRA
METAR
LTCC 081220Z 20010KT 170V230 CAVOK 41/02 Q1005 NOSIG RMK RWY16
     17010KT 130V220=
####018000260####
SAAF13 LFPW 081200 RRB
METAR GOGG 081200Z 18008KT 9999 BKN016 TCU 33/26 Q1015=
METAR GOGS 081200Z 18006KT 9999 SCT016 31/26 Q1013=
METAR GOSS 081200Z 24006KT 9999 FEW013 BKN230 32/25 Q1013=
METAR GOTT 081200Z 22004KT 160V270 9999 BKN013 TCU 32/27 Q1014=
####018000623####
SANO31 ENMI 081220
METAR ENAN 081220Z 32006KT 9999 FEW045 SCT090 BKN200 16/10 Q1010
           NOSIG=
METAR ENBR 081220Z 21013KT 9999 FEW025 SCT045 17/10 Q1013 NOSIG =
METAR ENBO 081220Z 27010KT 9999 SCT050CB 14/11 Q1010 TEMPO SHRA=
METAR ENDU 081220Z VRB02KT 9999 VCSH FEW050 BKN070 19/11 Q1010=
METAR ENGM 081210Z 18014KT 9999 FEW013 SCT021 BKN040 17/14 Q1015
           NOSIG=
METAR ENOL 081220Z 02004KT 9999 FEW025TCU SCT080 19/07 Q1010 NOSIG=
METAR ENVA 081220Z 26018G28KT 9999 VCSH FEW040CB SCT070 18/13 Q1010
           RETS TEMPO TSRA =
METAR ENZV 081220Z 20010KT 9999 FEW020 BKN170 18/12 Q1015 NOSIG=
####018000080####
SALV32 EVRA 081220 RRS
METAR EVLA 081220Z 30006KT 270V340 CAVOK 22/15 Q1018=
####018000196####
SANO34 ENMI 081220
METAR ENBN 081220Z NIL=
METAR ENBV 081220Z NIL=
METAR ENDI 081220Z NIL=
METAR ENFG 081220Z NIL=
METAR ENHF 081220Z NIL=
METAR ENRA 081220Z NIL=
METAR ENSH 081220Z NIL=
####018000080####
SALV32 EVRA 081220 RRT
METAR EVLA 081220Z 30006KT 270V340 CAVOK 22/15 Q1018=
####018000603####
SPUS70 KWBC 081226
SPECI
KPWA 081222Z 00000KT 6SM BR SCT004 23/21 A3007 RMK AO2=
KCYS 081223Z 00000KT 9SM OVC010 12/11 A3037 RMK AO2=
KMAF 081223Z 03007KT 10SM SCT005 OVC015 21/20 A3010 RMK AO2=
KSGF 081223Z 15003KT 7SM BKN007 OVC011 23/23 A3008 RMK AO2 CIG
     003V010=
KTTN 081223Z 00000KT 1 3/4SM HZ BKN009 26/23 A3004 RMK AO2=
PAHC 081223Z AUTO 00000KT 1 3/4SM BR CLR 09/08 A2998 RMK AO2 TSNO
     $=
KCNM 081224Z AUTO 32009KT 9SM -RA BKN007 OVC015 19/18 A3015 RMK
     AO2 P0004=
KEWR 081224Z 18006KT 2SM BR BKN004 BKN009 OVC110 26/25 A3005 RMK
     AO2 SFC VIS 2 1/2=
####018000455####
SAXX60 KWBC 081200 RRN
METAR
KNQI 081156Z COR 01005KT 10SM TS SCT014CB BKN140 BKN280 27/24
     A2983 RMK AO2 SLP097 OCNL LTGICCG VC NE-E TSB28RAE19 TS NE-E
     MOV W CB DSNT S P0006 60017 70017 T02670244 10272 20267 51003
     $=
KNQI 081156Z COR 01005KT 10SM TS SCT014CB BKN140 BKN280 27/24
     A2983 RMK AO2 SLP097 OCNL LTGICCG VC NE-E TSB28RAE19 TS NE-E
     MOV W CB DSNT S P0006 60017 70017 T02670244 10272 20267 51003
     $=
####018003741####
SAUS70 KWBC 081226
METAR
KRMN 081220Z AUTO 10003KT 5SM BR SCT120 27/26 A3004 RMK AO2=
KRUQ 081222Z AUTO 00000KT 10SM SCT095 25/21 A3003 RMK AO2=
KSFQ 081220Z AUTO 00000KT 7SM CLR 26/24 A3001 RMK AO2=
KSIF 081221Z AUTO 00000KT 7SM CLR 28/22 A3003 RMK AO2=
KSVH 081220Z AUTO 00000KT 7SM CLR 26/19 A3006 RMK AO2
     T02610186=
KTBR 081220Z AUTO 27003KT 10SM CLR 26/20 A3000 RMK AO2
     T02590198=
KVJI 081222Z AUTO 09003KT 5SM HZ CLR 24/20 RMK AO2=
KVVG 081215Z AUTO 01003KT 23/23 A3002 RMK AO2=
KW22 081220Z AUTO 00000KT 5SM BR CLR 22/21 A3014 RMK AO2=
KW45 081220Z AUTO 00000KT 7SM CLR 26/20 A3006 RMK AO2
     T02590196=
KWDR 081220Z AUTO 29003KT 10SM CLR 26/21 A3008 RMK AO1=
KXLL 081220Z AUTO 12004KT 7SM CLR 27/23 A3006 RMK AO2
     T02700229=
KXSA 081220Z AUTO 00000KT 5SM CLR 28/25 A3000 RMK AO2 PWINO=
K8A0 081219Z AUTO 01004KT 10SM CLR 26/22 A3009 RMK AO2=
KAFP 081220Z AUTO 00000KT 10SM CLR 26/17 A2999 RMK AO2
     T02610173=
KALX 081220Z AUTO 00000KT 10SM CLR 25/22 A3006 RMK AO1=
KCPC 081220Z AUTO 01003KT 10SM CLR 27/20 A2994 RMK AO2
     T02650203=
KEHO 081220Z AUTO 00000KT 10SM CLR 23/19 A3004 RMK AO2
     T02320186=
KEYF 081220Z AUTO 00000KT 7SM CLR 26/20 A2996 RMK AO2
     T02580203=
KFFA 081218Z AUTO 07005KT 10SM CLR 27/23 A2997 RMK AO2
     T02650225=
KGAO 081220Z AUTO 07005KT 10SM CLR 27/25 A3001 RMK AO2=
KGWW 081220Z AUTO 04005KT 5SM HZ SCT120 26/22 A2996 RMK AO2
     T02620219=
KHDC 081223Z AUTO 07004KT 10SM CLR 27/26 A3005 RMK AO2=
KHNZ 081220Z AUTO 02004KT 5SM HZ SCT110 27/21 A3001 RMK AO2
     T02680208=
KIDI 081220Z AUTO 00000KT 7SM SCT070 23/21 A3012 RMK AO2=
KIER 081220Z AUTO 00000KT 7SM OVC100 24/24 A3005 RMK AO2 PWINO=
KIXA 081220Z AUTO 05005KT 5SM HZ SCT075 SCT085 BKN110 26/22 A2998
     RMK AO2 T02580217=
KJGG 081220Z AUTO 00000KT 7SM SCT013 BKN019 BKN075 28/26 A3001 RMK
     AO1=
KJKA 081220Z AUTO 00000KT 7SM CLR 28/26 A3003 RMK AO2
     T02760264=
KJYL 081222Z AUTO 00000KT 10SM CLR 26/22 A3002 RMK AO2=
KJYO 081220Z AUTO 35003KT 7SM CLR 29/20 A3003 RMK AO2=
KLDJ 081220Z AUTO 12003KT 4SM BR OVC004 25/23 A3005 RMK AO2
     T02470231=
KLGC 081215Z AUTO 00000KT 10SM CLR 24/24 A3004 RMK AO1=
KLHZ 081220Z AUTO 01003KT 7SM SCT085 SCT120 28/20 A3000 RMK AO2
     T02800201=
KLKU 081220Z AUTO 01005KT 7SM CLR 28/20 A3001 RMK AO2=
KLNP 081218Z AUTO 00000KT 7SM CLR 24/19 A3020 RMK AO1=
KLOM 081220Z AUTO 14005KT 5SM CLR 28/23 A3003 RMK AO1
     T02780226=
KLWB 081222Z AUTO 00000KT 5SM HZ BKN055 22/18 A3018 RMK AO2=
KMDQ 081220Z AUTO 00000KT 10SM CLR 25/22 A3009 RMK AO2
     T02470220=
KMGR 081220Z AUTO 00000KT 10SM CLR 25/21 A3005 RMK AO2=
KMKJ 081220Z AUTO 00000KT 5SM SCT085 22/09 A3023 RMK AO1=
KMQS 081220Z AUTO 14004KT 5SM CLR 26/23 A3007 RMK AO2 PWINO
     PNO=
KMTV 081220Z AUTO 00000KT 7SM CLR 27/22 A3007 RMK AO2=
KOBE 081221Z AUTO 04004KT 10SM CLR 26/23 A3000 RMK AO2=
KOKV 081220Z AUTO 00000KT 7SM CLR 29/19 A3005 RMK AO2
     T02920187=
KOMH 081220Z AUTO 34005KT 7SM SCT110 28/21 A3004 RMK AO2
     T02820212=
KONX 081220Z AUTO 07008KT 10SM SCT012 OVC120 27/22 A2999 RMK AO2
     T02700216=
KOPN 081220Z AUTO 00000KT 10SM CLR 27/23 A3006 RMK AO1=
KPCM 081220Z AUTO 04003KT 10SM CLR 25/23 A3003 RMK AO2=
KPGV 081221Z AUTO 00000KT 4SM BR SCT120 25/23 A2997 RMK AO2=
KRCZ 081220Z AUTO 35004KT 10SM CLR 26/19 A2998 RMK AO2
     T02590193=
KOSC 081214Z AUTO 18003KT 7SM SCT015 SCT075 SCT100 23/21 A2999 RMK
     AO2=
KUXL 081220Z AUTO 06007KT 10SM OVC009 26/25 A3000 RMK AO2 LTG DSNT
     W=
KCLS 081215Z AUTO 00000KT 10SM CLR 12/12 A2996 RMK AO2=
KFYJ 081223Z AUTO 07004KT 5SM SCT075 SCT095 28/26 A3002 RMK
     AO1=
####018000138####
SAUS80 KWBC 081226
METAR
K40B 081225Z AUTO VRB02KT 28/22 A3002 RMK AO1 SLP157 T02790223
     10280 20198 54000 P0000 60001 70001=
####018000080####
SALV32 EVRA 081220 RRU
METAR EVLA 081220Z 30006KT 270V340 CAVOK 22/15 Q1018=
####018000319####
SAUS70 KWBC 081226 RRA
METAR
KGZL 081215Z AUTO 15003KT 7SM CLR 24/23 A3004 RMK AO2=
KHQU 081224Z AUTO 00000KT 10SM CLR 25/20 A3007 RMK AO1=
KJFZ 081220Z AUTO 00000KT 5SM CLR 24/21 A3018 RMK=
KSHD 081220Z AUTO 00000KT 5SM HZ CLR 26/19 A3009 RMK AO2=
KVDF 081216Z AUTO 00000KT 10SM CLR 24/23 A3001 RMK AO2=
####018000206####
SPUS80 KWBC 081226
SPECI
KLXV 081223Z AUTO 11003KT 7SM OVC002 06/05 A3052 RMK AO2 CIG
     001V005 TSNO=
KVCT 081223Z 04007KT 2 1/2SM +RA BR SCT016 BKN026 OVC046 24/24
     A2990 RMK AO2 P0012=
####018000742####
SAIY31 LIIB 081220
METAR LIEA 081220Z 18008KT 150V210 9999 FEW025 32/22 Q1019=
METAR LIEE 081215Z 16011KT 9999 FEW020 28/21 Q1019 NOSIG=
METAR LIEO 081220Z 05011KT CAVOK 30/21 Q1019=
METAR LIMC 081220Z VRB05KT 9999 FEW025 28/15 Q1021 NOSIG=
METAR LIME 081220Z 11005KT 060V160 9999 BKN050 27/15 Q1022=
METAR LIMF 081220Z 03003KT 9999 BKN060 26/15 Q1022=
METAR LIMJ 081220Z 16006KT 9999 FEW035 29/25 Q1020=
METAR LIML 081220Z VRB03KT 9999 FEW030 28/15 Q1021 NOSIG=
METAR LIRA 081215Z 27008KT 180V310 9999 FEW018 30/17 Q1020=
METAR LIRF 081220Z 23011KT 190V260 CAVOK 29/19 Q1020 NOSIG=
METAR LIRN 081220Z 06009KT CAVOK 29/14 Q1019=
METAR LIRP 081215Z 12003KT CAVOK 30/15 Q1020 NOSIG=
METAR LIRQ 081220Z VRB04KT CAVOK 31/13 Q1019=
####018000171####
SANO36 ENMI 081220
METAR ENBS 081220Z NIL=
METAR ENHK 081220Z NIL=
METAR ENHV 081220Z NIL=
METAR ENLK 081220Z NIL=
METAR ENMH 081220Z NIL=
METAR ENNK 081220Z NIL=
####018000028####
SABX31 KWBC 081220
NIL=
####018000515####
SAIY32 LIIB 081220
METAR LIBD 081220Z 02014KT CAVOK 25/12 Q1020=
METAR LIBR 081215Z /////KT CAVOK 25/13 Q1018 NOSIG=
METAR LICC 081220Z 11012KT CAVOK 28/21 Q1018=
METAR LICJ 081220Z 03013KT 9999 FEW018 27/23 Q1018=
METAR LIPE 081220Z VRB05KT CAVOK 30/14 Q1020=
METAR LIPH 081215Z 15004KT 9999 SCT025 27/20 Q1022=
METAR LIPQ 081220Z VRB02KT CAVOK 27/14 Q1022=
METAR LIPR 081215Z 07012KT CAVOK 28/19 Q1021=
METAR LIPX 081215Z 29001KT 9999 FEW040 30/13 Q1021=
METAR LIPZ 081220Z 13007KT CAVOK 27/18 Q1022=
####018000116####
SPXX60 KWBC 081226
SPECI
KNZY 081223Z 33005KT 8SM -DZ FEW009 OVC015 18/13 A2990 RMK AO2
     DZB22 P0000 $=
####018000741####
SADL31 KWBC 081220
METAR
EDBB NIL=
EDBT NIL=
EDCK NIL=
EDDF 081220Z VRB03KT CAVOK 29/10 Q1020 NOSIG=
EDDH 081220Z 24007KT 190V260 CAVOK 29/12 Q1019 NOSIG=
EDDK 081220Z 14004KT 100V230 CAVOK 31/10 Q1019 NOSIG=
EDDL 081220Z 24007KT 220V320 CAVOK 30/09 Q1019 NOSIG=
EDDM 081220Z 12006KT 060V140 CAVOK 25/09 Q1022 NOSIG=
EDDN 081220Z 16006KT 130V200 CAVOK 28/08 Q1022 NOSIG=
EDDS 081220Z VRB02KT CAVOK 28/09 Q1021 NOSIG=
EDDW 081220Z VRB03KT CAVOK 30/09 Q1018 NOSIG=
EDFE 081220Z VRB03KT CAVOK 30/11 Q1020=
EDFM 081220Z VRB03KT 030V030 CAVOK 32/11 Q1020=
EDHI 081220Z 23007KT 160V290 CAVOK 30/12 Q1019=
EDHL 081220Z 21008KT 160V270 CAVOK 29/12 Q1019=
EDKB NIL=
EDKS NIL=
EDLE NIL=
EDLG NIL=
EDLI NIL=
####018000527####
SADL32 KWBC 081220
METAR
EDLN 081220Z 23006KT 120V290 CAVOK 30/10 Q1019=
EDLP 081220Z VRB04KT CAVOK 30/11 Q1020=
EDLS NIL=
EDLW 081220Z 26004KT 180V340 CAVOK 31/10 Q1020=
EDMA 081220Z 18005KT 130V280 CAVOK 26/09 Q1022=
EDML NIL=
EDMO 081220Z 01009KT 340V150 CAVOK 25/08 Q1023=
EDMS NIL=
EDQD NIL=
EDQM 081220Z 10004KT 010V160 CAVOK 24/08 Q1023=
EDRS NIL=
EDRT NIL=
EDTB NIL=
EDTD 081220Z 12005KT 070V150 CAVOK 26/10 Q1023=
EDTF NIL=
EDTK NIL=
EDTO NIL=
EDTY NIL=
EDTZ NIL=
EDVE NIL=
####018000175####
SADL33 KWBC 081215 RRB
METAR
EDNY 081220Z 19005KT CAVOK 28/11 Q1022=
EDVK 081220Z 21007KT CAVOK 27/09 Q1021=
EDXW 081220Z 23011KT 8000 RA FEW020 BKN064 19/14 Q1019=
####018000868####
SADN31 KWBC 081220
METAR
EKAH 081220Z AUTO 20006KT 150V250 9999NDV BKN080/// 22/14
     Q1019=
EKBI 081220Z 25006KT 210V290 9999 FEW018 FEW025CB BKN095 20/15
     Q1019=
EKCH 081220Z 16013KT CAVOK 22/15 Q1020 NOSIG=
EKEB 081220Z AUTO 25010KT 6000NDV -SHRA BKN046/// 19/16 Q1019=
EKHO NIL=
EKKA 081220Z 19008KT 160V220 8000 -SHRA FEW009 FEW018TCU BKN030
     18/17 Q1018 TEMPO 4000 SHRA SCT020CB=
EKMB NIL=
EKOD 081220Z NIL=
EKRK 081220Z AUTO 20011KT 160V230 9999NDV BKN050/// 26/11
     Q1019=
EKRN 081220Z AUTO 21004KT 170V240 9999NDV NCD 20/15 Q1022=
EKSB 081220Z NIL=
EKSN 081220Z NIL=
EKSP 081220Z 23011KT CAVOK 25/11 Q1019 NOSIG RMK BKN090=
EKSV NIL=
EKTS NIL=
EKVA NIL=
EKVD 081220Z NIL=
EKVG NIL=
EKVJ 081220Z NIL=
EKVL NIL=
EKYT 081220Z 18012KT 9999 -RA FEW012 BKN020 18/16 Q1018 TEMPO 7000
     BKN012=
####018001459####
SAEN31 KWBC 081220
METAR
EETN 081220Z 32009KT 280V350 CAVOK 25/18 Q1014 NOSIG=
EFHF 081220Z 34005KT 290V010 9999 FEW042 SCT055 27/19 Q1013=
EFHK 081220Z 32007KT 280V350 9999 FEW039 BKN050 27/18 Q1014
     NOSIG=
EFIV NIL=
EFJY 081220Z VRB02KT 9999 SCT030 SCT080 24/17 Q1015=
EFKE NIL=
EFKK 081220Z AUTO 14007KT 090V190 CAVOK 25/11 Q1014=
EFKU 081220Z AUTO 30005KT CAVOK 24/18 Q1015=
EFMA 081220Z 21009KT CAVOK 21/13 Q1016=
EFOU 081220Z VRB03KT 9999 FEW040 BKN200 22/10 Q1015=
EFPN NIL=
EFPO 081220Z AUTO 27007KT 230V310 CAVOK 23/12 Q1016=
EFRO 081220Z AUTO 12006KT 060V180 CAVOK 21/08 Q1016=
EFTN NIL=
EFTP 081220Z 24004KT 170V340 9999 FEW045 SCT200 26/14 Q1015=
EFTU 081220Z AUTO 29011KT CAVOK 25/13 Q1015=
EFVA 081220Z 27007KT 180V320 9999 FEW030 SCT200 25/14 Q1014=
ENBO 081220Z 27010KT 9999 SCT050CB 14/11 Q1010 TEMPO SHRA=
ENBR 081220Z 21013KT 9999 FEW025 SCT045 17/10 Q1013 NOSIG=
ENCN 081220Z 19007KT 9000 BKN038 17/15 Q1016=
ENEB NIL=
ENFB NIL=
ENGM NIL=
ENHD 081220Z 20010KT 9999 FEW020 SCT210 17/11 Q1014=
ENKR 081220Z NIL=
ENSB 081220Z NIL=
ENTC 081220Z 36006KT 300V020 9999 FEW065 SCT082 19/09 Q1010=
ENVA 081220Z 26018G28KT 9999 VCSH FEW040CB SCT070 18/13 Q1010 RETS
     TEMPO TSRA=
ENZV 081220Z 20010KT 9999 FEW020 BKN170 18/12 Q1015 NOSIG=
EVRA 081220Z 32012KT 9999 OVC021 20/15 Q1015 NOSIG=
EYVI 081220Z 28011KT 250V320 2600 SHRA BKN006 OVC012CB 15/14 Q1015
     NOSIG=
####018000095####
SAEM31 KWBC 081200 CCA
METAR
LQSA 081200Z 29007KT 230V010 9999 SCT060 22/12 Q1023 NOSIG=
####018000108####
SAEN31 KWBC 081150 RRB
METAR
ENGM 081210Z 18014KT 9999 FEW013 SCT021 BKN040 17/14 Q1015
     NOSIG=
####018000028####
SAGR31 KWBC 081220
NIL=
####018000028####
SAGR41 KWBC 081220
NIL=
####018000028####
SAIY31 KWBC 081220
NIL=
####018000028####
SAIY32 KWBC 081220
NIL=
####018000028####
SAIY41 KWBC 081220
NIL=
####018000028####
SAIY43 KWBC 081220
NIL=
####018000028####
SAIY42 KWBC 081220
NIL=
####018000118####
SAIY43 KWBC 081150 RRD
METAR
LIRX 081155Z 17004KT CAVOK 28/15 Q1020 RMK SKC VIS MIN 9999E VIS
     MAR 25 KM=
####018000342####
SANL31 KWBC 081220
METAR
EHAM NIL=
EHBD NIL=
EHBK NIL=
EHDL NIL=
EHEH 081225Z AUTO 28006KT 9999NDV NCD 31/11 Q1018 BLU BLU=
EHGG NIL=
EHGR NIL=
EHHO NIL=
EHHV NIL=
EHKD NIL=
EHLE NIL=
EHLW NIL=
EHMZ NIL=
EHRD NIL=
EHSB NIL=
EHTE NIL=
EHTW NIL=
EHTX NIL=
EHVB NIL=
EHVK NIL=
EHVL NIL=
EHWO NIL=
####018000714####
SANO41 KWBC 081220
METAR
ENAL 081220Z 24004KT 170V320 9999 VCSH FEW030CB BKN055 17/11
     Q1010=
ENAN 081220Z 32006KT 9999 FEW045 SCT090 BKN200 16/10 Q1010
     NOSIG=
ENAT 081220Z NIL=
ENBL 081220Z NIL=
ENBN 081220Z NIL=
ENBV 081220Z NIL=
ENDI 081220Z NIL=
ENDU 081220Z VRB02KT 9999 VCSH FEW050 BKN070 19/11 Q1010=
ENEK 081220Z 23011KT CAVOK 16/12 Q1015 W15/S3=
ENEV 081220Z NIL=
ENFG 081220Z NIL=
ENFL 081220Z 20015KT 160V240 9999 FEW015 SCT050 16/12 Q1011=
ENFR NIL=
ENGC 081220Z 19026KT CAVOK 13/11 Q1009=
ENHF 081220Z NIL=
ENHV 081220Z NIL=
ENKB 081220Z 30007KT 270V340 9999 VCSH FEW045 SCT061 20/08
     Q1009=
ENLI NIL=
ENLK 081220Z NIL=
ENMH 081220Z NIL=
####018000827####
SANO42 KWBC 081220
METAR
ENML 081220Z 25010KT 9999 VCSH FEW040 BKN060 20/08 Q1009=
ENMS 081220Z NIL=
ENNA 081220Z 15012KT 9999 FEW045CB SCT070 24/09 Q1012=
ENNK 081220Z NIL=
ENNM NIL=
ENNO 081220Z NIL=
ENOA 081220Z 19023KT 9999 FEW045 13/11 Q1010=
ENOL 081220Z 02004KT 9999 FEW025TCU SCT080 19/07 Q1010 NOSIG=
ENOV 081220Z NIL=
ENRA 081220Z NIL=
ENRM 081220Z NIL=
ENRO 081220Z 21014KT 160V250 9999 -SHRA FEW015 SCT040 BKN070 15/07
     Q1012=
ENRS 081220Z NIL=
ENRY 081220Z 19008KT 160V230 9000 -RA BKN007 17/15 Q1016 TEMPO
     SCT007 BKN015=
ENSD 081220Z NIL=
ENSG 081220Z NIL=
ENSH 081220Z NIL=
ENSK 081220Z NIL=
ENSN 081220Z NIL=
ENSO 081220Z NIL=
ENSR 081220Z NIL=
ENST 081220Z NIL=
ENSV NIL=
ENTO 081220Z 19012KT 9999 SCT006 BKN011 16/15 Q1016=
ENVD 081220Z NIL=
####018000771####
SAPA32 KWBC 081200
METAR
NCRG 081200Z 05008KT 9999 FEW010 SCT015 25/24 Q1017=
NFFN 081200Z 11004KT 40KM FEW030 21/19 Q1014 NOSIG RMK RR NIL=
NFNA 081200Z 31005KT 40KM FEW024 SCT300 20/19 Q1014 RMK RR NIL DEW
     HVY=
NFTF 081200Z 00000KT 9999 FEW015 18/17 Q1015=
NFTV NIL=
NGFU 081200Z 08006KT 50KM FEW020 28/25 Q1010=
NGTA NIL=
NIUE 081200Z AUTO 15004KT //// ////// 24/24 Q1015=
NLWW NIL=
NSFA 081200Z 00000KT 50KM FEW024 25/23 Q1012=
NSFI NIL=
NSFU NIL=
NSMA NIL=
NSTU 081152Z 07011KT 10SM FEW016 28/26 A2989 RMK SLP122 60006
     70018 8/100 T02770256 10281 20267 57002=
NTAA 081200Z VRB02KT 9999 FEW023 25/21 Q1015 WS ALL RWY NOSIG=
NTTG NIL=
NTTO NIL=
NVVV NIL=
NWWW 081200Z AUTO VRB02KT 9999NDV FEW035/// 17/15 Q1016=
####018000084####
SPUS42 KWBC 081226
SPECI
KMAF 081223Z 03007KT 10SM SCT005 OVC015 21/20 A3010=
####018000075####
SASD43 KWBC 081200 RRB
METAR
OEPA 081200Z 36014KT CAVOK 45/05 Q1003=
####018001216####
SASN31 KWBC 081220
METAR
ESDB NIL=
ESDF 081220Z NIL=
ESGG 081220Z 21012KT 7000 -RA BR FEW005 SCT015 BKN022 16/15
     Q1019=
ESGJ 081220Z AUTO 21015KT 9999NDV FEW045/// BKN067/// 23/10
     Q1019=
ESGP 081220Z 18011KT 9999 FEW009 OVC027 17/16 Q1018 REDZ=
ESKN 081220Z 28011KT 230V320 9999 SCT048 25/13 Q1017=
ESMK 081220Z 21009KT 180V240 CAVOK 26/11 Q1020=
ESMS 081220Z 18011KT 160V220 CAVOK 24/11 Q1021=
ESMX 081220Z 21009KT 170V320 CAVOK 25/11 Q1020=
ESNN 081220Z AUTO 24006KT 210V280 9999NDV FEW037/// BKN043///
     22/13 Q1013=
ESNO 081220Z AUTO 18011KT 140V210 9999NDV FEW076/// 20/10
     Q1013=
ESNQ 081220Z 18010KT 9999 -RA FEW018 SCT061 17/10 Q1013 REDZ=
ESNS 081220Z AUTO 14011KT 9999NDV ////// 22/09 Q1014=
ESNU 081220Z 17008KT 140V210 CAVOK 21/13 Q1014=
ESOK 081220Z 24004KT 9999 BKN023 18/14 Q1017=
ESOW 081220Z 25011KT CAVOK 24/14 Q1017=
ESPA 081220Z 13012KT CAVOK 19/13 Q1015=
ESPC NIL=
ESSA 081220Z 23013KT 9999 FEW045 25/14 Q1016 NOSIG=
ESSB 081220Z 26010KT 220V310 9999 SCT048 25/12 Q1016=
ESSD 081220Z AUTO 25010KT 9999NDV BKN027/// 20/13 Q1016=
ESSN NIL=
ESSP 081220Z 26012KT CAVOK 24/12 Q1017=
ESSV 081220Z 28007KT CAVOK 22/10 Q1019=
####018000486####
SASW31 KWBC 081220
METAR
LSGC 081220Z NIL=
LSGG 081220Z 21007KT 150V270 9999 FEW080 SCT300 31/12 Q1021
     NOSIG=
LSGL NIL=
LSGN NIL=
LSGS 081220Z 23008KT 200V270 9999 FEW120 30/13 Q1019=
LSZA 081220Z NIL=
LSZB 081220Z NIL=
LSZD NIL=
LSZG 081220Z 24004KT 160V290 9999 FEW050 28/13 Q1021 NOSIG=
LSZH 081220Z VRB03KT CAVOK 28/13 Q1022 NOSIG=
LSZL NIL=
LSZR 081220Z 31003KT 250V350 CAVOK 25/14 Q1022 NOSIG RMK I=
LSZS 081220Z VRB05G20KT CAVOK 26/08 Q1026=
####018001053####
SAUK31 KWBC 081220
METAR
EGAA 081220Z 22013KT 9999 FEW038 17/09 Q1014=
EGBB 081220Z 24006KT 200V290 9999 FEW040 21/09 Q1018=
EGCC 081220Z 23012G22KT 200V280 9999 SCT038 BKN044 19/10 Q1017=
EGFF 081220Z 22006KT 9999 FEW030 21/11 Q1018=
EGGD 081220Z 32006KT 280V040 9999 FEW033 20/10 Q1019=
EGGP 081220Z 24012KT 9999 SCT046 20/09 Q1017=
EGGW 081220Z 23006KT 180V270 9999 SCT027 23/14 Q1018=
EGHD 081220Z 21007KT 170V280 9999 FEW022 19/13 Q1020=
EGHH 081220Z 18009KT 9999 6000S VCFG FEW026 SCT035 21/16 Q1019=
EGHI 081220Z 23006KT 170V300 9999 SCT032 BKN038 21/14 Q1018=
EGJB 081220Z 25005KT 210V290 9999 FEW013 20/17 Q1020=
EGJJ 081220Z 27007KT 220V340 9999 FEW008 20/17 Q1019 NOSIG=
EGKA 081220Z NIL=
EGKB 081220Z 20009KT 160V250 9999 BKN035 24/14 Q1019=
EGKK 081220Z 24006KT 180V270 9999 SCT040 25/14 Q1018=
EGLF 081220Z NIL=
EGLL 081220Z 24009KT 190V290 9999 SCT023 SCT033 23/14 Q1018=
EGMC 081220Z 22005KT 180V260 9999 FEW032 24/16 Q1018=
EGMD 081220Z 20008KT 9999 FEW020 21/16 Q1019=
EGNH NIL=
EGNJ NIL=
####018000632####
SAUK32 KWBC 081220
METAR
EGNM 081220Z 27012KT 230V310 9999 SCT040 18/08 Q1017=
EGNS 081220Z NIL=
EGNT 081220Z 25016KT 9999 FEW040 20/07 Q1014=
EGNV 081220Z 24014KT 9999 FEW040 19/11 Q1016=
EGNX 081220Z 26011KT 230V300 CAVOK 21/08 Q1018=
EGPA NIL=
EGPB 081220Z 20014KT CAVOK 15/11 Q1007 NOSIG=
EGPC NIL=
EGPD 081220Z 21015KT 9999 FEW042 19/08 Q1010 NOSIG=
EGPF 081220Z 22018KT 9999 SCT030 18/10 Q1013=
EGPH 081220Z 25014G25KT 9999 FEW035 18/07 Q1013=
EGPK 081220Z 25016KT 9999 FEW024 19/10 Q1014=
EGSH NIL=
EGTE 081220Z 17010KT 9999 FEW030 21/14 Q1018=
EGTG 081220Z 27007KT 9999 FEW030 20/10 Q1018=
####018000544####
SAUK41 KWBC 081220
METAR
EGAC 081220Z 21016KT 9999 FEW023 SCT039 18/08 Q1014=
EGAE NIL=
EGBE NIL=
EGBJ NIL=
EGDC NIL=
EGDG NIL=
EGDL NIL=
EGDM NIL=
EGDN NIL=
EGDP NIL=
EGDR NIL=
EGDY NIL=
EGFH NIL=
EGGP 081220Z 24012KT 9999 SCT046 20/09 Q1017=
EGGW 081220Z 23006KT 180V270 9999 SCT027 23/14 Q1018=
EGHE 081220Z 20009KT 9999 FEW020 18/13 Q1019=
EGJA 081220Z 25005KT 9999 FEW006 19/16 Q1020=
EGLC 081220Z 28006KT 260V320 9999 SCT032 22/15 Q1018=
EGNC NIL=
EGNT 081220Z 25016KT 9999 FEW040 20/07 Q1014=
####018000425####
SAUK42 KWBC 081220
METAR
EGOS NIL=
EGOV NIL=
EGPC NIL=
EGPE NIL=
EGPF 081220Z 22018KT 9999 SCT030 18/10 Q1013=
EGPL NIL=
EGPM NIL=
EGPN NIL=
EGPO NIL=
EGPT NIL=
EGPU NIL=
EGPW NIL=
EGQJ NIL=
EGQK NIL=
EGQL NIL=
EGQM NIL=
EGQS NIL=
EGSC NIL=
EGSS 081220Z 22008KT 180V270 9999 BKN026 23/15 Q1018=
EGSS 081220Z NIL=
EGTC 081220Z 22008KT 190V280 9999 FEW034 21/12 Q1018=
EGTI NIL=
####018000181####
SAXX61 KWBC 081200 RRC
METAR
EDAH 081220Z 17004KT 130V240 CAVOK 25/09 Q1021=
EDMA 081220Z 18005KT 130V280 CAVOK 26/09 Q1022=
EGPK 081220Z 25016KT 9999 FEW024 19/10 Q1014=
####018000083####
SPUS43 KWBC 081226
SPECI
KSGF 081223Z 15003KT 7SM BKN007 OVC011 23/23 A3008=
####018000112####
SAXX99 KWBC 081200 CCE
METAR
EGXW 081150Z 27009KT 9999 FEW040 SCT100 BKN250 21/09 Q1017 BLU
     NOSIG=
####018000109####
SAXX99 KWBC 081100 CCI
METAR
EGVP 081050Z 23002KT 9999 BKN012 19/15 Q1018 GRN BECMG SCT025
     BLU=
####018003513####
SAXX99 KWBC 081200 RRS
METAR
BKPR 081230Z 05006KT 9999 SCT030 BKN070 17/11 Q1021 NOSIG RMK
     BLU=
CZEV 081200Z AUTO 32005KT 06/03 RMK AO1 SLP186 T00620032 53005=
EDAC 081220Z 28005KT 200V350 CAVOK 26/13 Q1021=
EDFH 081220Z 15009KT 110V180 CAVOK 28/11 Q1021=
EDGS 081220Z 18008KT 110V240 CAVOK 25/09 Q1022=
EDHK 081220Z 24007KT 9999 FEW050 BKN120 28/11 Q1019 BLU BLU=
EDLV 081220Z NIL=
EDOP 081220Z 21010KT 160V270 CAVOK 29/08 Q1020=
EDRZ 081220Z 17005KT 110V250 CAVOK 30/12 Q1021=
EDSB 081220Z VRB03KT CAVOK 30/12 Q1020=
EDTL 081220Z VRB05KT CAVOK 30/12 Q1019=
EFHA 081220Z 12003KT 9999 FEW030TCU BKN200 24/14 Q1015=
EFKA 081220Z 21005KT 150V260 9999 FEW045 BKN200 25/11 Q1015=
EFSI 081220Z AUTO VRB03KT CAVOK 26/12 Q1015=
EGHK 081220Z 15005KT 9999 SCT020 18/15 Q1018=
EGMH 081220Z 12011KT 9999 FEW020 23/17 Q1019=
EGTG 081220Z 27007KT 9999 FEW030 20/10 Q1018=
EKGF 081220Z NIL=
ENBS 081220Z NIL=
ENDR 081220Z NIL=
ENHE 081220Z 18017KT 9999 SCT040 15/11 Q1009=
ENHK 081220Z NIL=
ENSS 081220Z NIL=
ESGR 081220Z AUTO 21014KT 9999NDV BKN043/// BKN210/// 22/14
     Q1018=
ESGT 081220Z 20014KT 9999 BKN020 19/15 Q1018=
ESKM 081220Z NIL=
ESMQ 081220Z 17013KT CAVOK 23/14 Q1019=
ESMT 081220Z NIL=
ESNG 081220Z 14008KT 9999 DZ FEW074 17/13 Q1014 RERA=
ESNK 081220Z AUTO 18009KT 9999NDV BKN046/// 21/14 Q1012=
ESNL 081220Z AUTO 15012KT 9999NDV SCT052/// BKN100/// 21/11
     Q1013=
ESNX 081220Z AUTO 15003KT 9999NDV -RA FEW009/// SCT029/// 15/14
     Q1014=
ESNY 081220Z AUTO 28009KT 230V310 9999 FEW041 23/15 Q1014=
ESOE 081220Z NIL=
ESSF 081220Z NIL=
ESSK 081220Z NIL=
ESSL 081220Z 23007KT 190V270 9999 SCT045 24/12 Q1018=
ESTA 081220Z 18011KT CAVOK 23/15 Q1020=
ESTL 081220Z AUTO 19009KT 150V220 9999NDV FEW045/// SCT070///
     24/11 Q1020=
ESUD 081220Z NIL=
ESUT 081220Z AUTO 14011KT 9999NDV BKN051/// OVC110/// 19/11
     Q1010=
ETGG 081220Z 22012KT 9999 BKN090 26/10 Q1019 BLU=
ETGZ 081220Z 24003KT 9999 FEW330 25/08 Q1024 BLU+=
ETHA 081220Z 33003KT 9999 FEW055 25/10 Q1023 BLU+BLU+=
ETHB 081220Z 24006KT 9999 FEW070 30/10 Q1019 BLU+BLU+=
ETHE 081220Z 18005KT 9999 FEW070 BKN300 30/10 Q1019 BLU+BLU+=
ETHF 081220Z 19006KT 9999 FEW300 28/10 Q1020 BLU+BLU+=
ETHL 081220Z VRB02KT 9999 FEW140 27/08 Q1022 BLU+BLU+=
ETHN 081220Z 19003KT 9999 FEW250 27/09 Q1022 BLU+BLU+=
ETHR 081220Z 08005KT 9999 FEW340 26/06 Q1022 BLU+BLU+=
ETHS 081220Z 22006KT 9999 FEW120 30/07 Q1019 BLU+BLU+=
ETMN 081220Z 24007KT 9999 BKN110 SCT270 28/10 Q1019 BLU BLU+ TEMPO
     BLU=
ETND 081220Z 24007KT 9999 FEW060 SCT280 30/10 Q1019 BLU+=
ETNH 081220Z 25010KT 9999 BKN120 SCT280 27/09 Q1019 BLU BLU+ TEMPO
     BLU=
ETNL 081220Z 16007KT 9999 FEW090 27/10 Q1020 BLU+BLU+=
ETNN 081220Z 16005KT 9999 FEW060 SCT300 31/04 Q1019 BLU+BLU+=
ETNS 081220Z 22011KT 9999 FEW070 SCT120 BKN240 28/06 Q1019
     BLU+BLU=
ETNT 081220Z 25009KT 9999 FEW060 SCT110 29/12 Q1018 BLU+BLU+=
ETNU 081220Z 14004KT 9999 FEW100 BKN150 26/11 Q1021 BLU FCST
     CANCEL=
ETNW 081220Z 21007KT 9999 FEW070 SCT300 30/10 Q1019 BLU+BLU+=
ETSA 081220Z 04004KT 9999 25/10 Q1023 BLU+BLU+=
ETSB 081220Z 21006KT 9999 FEW300 28/09 Q1021 BLU+BLU+=
ETSE 081220Z 08001KT 9999 FEW170 24/07 Q1023 BLU+BLU+=
ETSH 081220Z 21004KT 9999 FEW150 SCT250 28/07 Q1021 BLU+BLU+=
ETSI 081220Z 14004KT 9999 26/07 Q1022 BLU+BLU+=
ETSN 081220Z 07005KT 9999 FEW160 26/07 Q1022 BLU+=
ETWM 081220Z 25007KT 9999 FEW070 BKN210 29/08 Q1018 BLU+=
####018000079####
SPUS52 KWBC 081226
SPECI
KPWA 081222Z 00000KT 6SM BR SCT004 23/21 A3007=
####018000182####
SAUS44 KFWD 081226
MTRNQI
SPECI KNQI 081224Z 02007KT 1 3/4SM +TSRA BR SCT010 BKN012CB OVC045 
27/24 A2983 RMK AO2 RAB16 OCNL LTGICCG OHD TS OHD MOV W CB DSNT S-SW 
P0001 $
####018000076####
SPUS53 KWBC 081226
SPECI
KCYS 081223Z 00000KT 9SM OVC010 12/11 A3037=
####018000525####
SAIY32 LIIB 081220
METAR LIBD 081220Z 02014KT CAVOK 25/12 Q1020=
METAR LIBR 081215Z /////KT CAVOK 25/13 Q1018 NOSIG=
METAR LICC 081220Z 11012KT CAVOK 28/21 Q1018=
METAR LICJ 081220Z 03013KT 9999 FEW018 27/23 Q1018=
METAR LIPE 081220Z VRB05KT CAVOK 30/14 Q1020=
METAR LIPH 081215Z 15004KT 9999 SCT025 27/20 Q1022=
METAR LIPQ 081220Z VRB02KT CAVOK 27/14 Q1022=
METAR LIPR 081215Z 07012KT CAVOK 28/19 Q1021=
METAR LIPX 081215Z 29001KT 9999 FEW040 30/13 Q1021=
METAR LIPZ 081220Z 13007KT CAVOK 27/18 Q1022=
####018000755####
SAIY31 LIIB 081220
METAR LIEA 081220Z 18008KT 150V210 9999 FEW025 32/22 Q1019=
METAR LIEE 081215Z 16011KT 9999 FEW020 28/21 Q1019 NOSIG=
METAR LIEO 081220Z 05011KT CAVOK 30/21 Q1019=
METAR LIMC 081220Z VRB05KT 9999 FEW025 28/15 Q1021 NOSIG=
METAR LIME 081220Z 11005KT 060V160 9999 BKN050 27/15 Q1022=
METAR LIMF 081220Z 03003KT 9999 BKN060 26/15 Q1022=
METAR LIMJ 081220Z 16006KT 9999 FEW035 29/25 Q1020=
METAR LIML 081220Z VRB03KT 9999 FEW030 28/15 Q1021 NOSIG=
METAR LIRA 081215Z 27008KT 180V310 9999 FEW018 30/17 Q1020=
METAR LIRF 081220Z 23011KT 190V260 CAVOK 29/19 Q1020 NOSIG=
METAR LIRN 081220Z 06009KT CAVOK 29/14 Q1019=
METAR LIRP 081215Z 12003KT CAVOK 30/15 Q1020 NOSIG=
METAR LIRQ 081220Z VRB04KT CAVOK 31/13 Q1019=
####018001852####
SAEW KAWN 081200 RRJ
METAR EDAC 081220Z 28005KT 200V350 CAVOK 26/13 Q1021=
METAR EDHK 081220Z 24007KT 9999 FEW050 BKN120 28/11 Q1019 BLU BLU=
METAR EDLW 081220Z 26004KT 180V340 CAVOK 31/10 Q1020=
METAR EDXW 081220Z 23011KT 8000 RA FEW020 BKN064 19/14 Q1019=
METAR EGJJ 081220Z 27007KT 220V340 9999 FEW008 20/17 Q1019 NOSIG=
METAR EKRK 081220Z AUTO 20011KT 160V230 9999NDV BKN050/// 26/11 Q1019=
METAR ETGG 081220Z 22012KT 9999 BKN090 26/10 Q1019 BLU=
METAR ETGZ 081220Z 24003KT 9999 FEW330 25/08 Q1024 BLU/=
METAR ETHA 081220Z 33003KT 9999 FEW055 25/10 Q1023 BLU/BLU/=
METAR ETHB 081220Z 24006KT 9999 FEW070 30/10 Q1019 BLU/BLU/=
METAR ETHE 081220Z 18005KT 9999 FEW070 BKN300 30/10 Q1019 BLU/BLU/=
METAR ETHF 081220Z 19006KT 9999 FEW300 28/10 Q1020 BLU/BLU/=
METAR ETHL 081220Z VRB02KT 9999 FEW140 27/08 Q1022 BLU/BLU/=
METAR ETHN 081220Z 19003KT 9999 FEW250 27/09 Q1022 BLU/BLU/=
METAR ETHR 081220Z 08005KT 9999 FEW340 26/06 Q1022 BLU/BLU/=
METAR ETHS 081220Z 22006KT 9999 FEW120 30/07 Q1019 BLU/BLU/=
METAR ETND 081220Z 24007KT 9999 FEW060 SCT280 30/10 Q1019 BLU/=
METAR ETNH 081220Z 25010KT 9999 BKN120 SCT280 27/09 Q1019 BLU BLU/
      TEMPO BLU=
METAR ETNL 081220Z 16007KT 9999 FEW090 27/10 Q1020 BLU/BLU/=
METAR ETNN 081220Z 16005KT 9999 FEW060 SCT300 31/04 Q1019 BLU/BLU/=
METAR ETNS 081220Z 22011KT 9999 FEW070 SCT120 BKN240 28/06 Q1019 BLU/BLU=
METAR ETNT 081220Z 25009KT 9999 FEW060 SCT110 29/12 Q1018 BLU/BLU/=
METAR ETNU 081220Z 14004KT 9999 FEW100 BKN150 26/11 Q1021 BLU FCST
      CANCEL=
METAR ETSA 081220Z 04004KT 9999 25/10 Q1023 BLU/BLU/=
METAR ETSB 081220Z 21006KT 9999 FEW300 28/09 Q1021 BLU/BLU/=
METAR ETSE 081220Z 08001KT 9999 FEW170 24/07 Q1023 BLU/BLU/=
METAR ETSI 081220Z 14004KT 9999 26/07 Q1022 BLU/BLU/=
METAR ETSN 081220Z 07005KT 9999 FEW160 26/07 Q1022 BLU/=
####018001792####
SAEU KAWN 081200 RRX
METAR EDLW 081220Z 26004KT 180V340 CAVOK 31/10 Q1020=
METAR EGHD 081220Z 21007KT 170V280 9999 FEW022 19/13 Q1020=
METAR EGHE 081220Z 20009KT 9999 FEW020 18/13 Q1019=
METAR EGJA 081220Z 25005KT 9999 FEW006 19/16 Q1020=
METAR EGJB 081220Z 25005KT 210V290 9999 FEW013 20/17 Q1020=
METAR EGJJ 081220Z 27007KT 220V340 9999 FEW008 20/17 Q1019 NOSIG=
METAR EGSS 081220Z 22008KT 180V270 9999 BKN026 23/15 Q1018=
METAR EGTE 081220Z 17010KT 9999 FEW030 21/14 Q1018=
METAR EGTG 081220Z 27007KT 9999 FEW030 20/10 Q1018=
METAR EGXW 081150Z 27009KT 9999 FEW040 SCT100 BKN250 21/09 Q1017 BLU
      NOSIG=
METAR ETGG 081220Z 22012KT 9999 BKN090 26/10 Q1019 BLU=
METAR ETGZ 081220Z 24003KT 9999 FEW330 25/08 Q1024 BLU/=
METAR ETHA 081220Z 33003KT 9999 FEW055 25/10 Q1023 BLU/BLU/=
METAR ETHB 081220Z 24006KT 9999 FEW070 30/10 Q1019 BLU/BLU/=
METAR ETHE 081220Z 18005KT 9999 FEW070 BKN300 30/10 Q1019 BLU/BLU/=
METAR ETHL 081220Z VRB02KT 9999 FEW140 27/08 Q1022 BLU/BLU/=
METAR ETHN 081220Z 19003KT 9999 FEW250 27/09 Q1022 BLU/BLU/=
METAR ETHR 081220Z 08005KT 9999 FEW340 26/06 Q1022 BLU/BLU/=
METAR ETHS 081220Z 22006KT 9999 FEW120 30/07 Q1019 BLU/BLU/=
METAR ETNL 081220Z 16007KT 9999 FEW090 27/10 Q1020 BLU/BLU/=
METAR ETNN 081220Z 16005KT 9999 FEW060 SCT300 31/04 Q1019 BLU/BLU/=
METAR ETNT 081220Z 25009KT 9999 FEW060 SCT110 29/12 Q1018 BLU/BLU/=
METAR ETSA 081220Z 04004KT 9999 25/10 Q1023 BLU/BLU/=
METAR ETSB 081220Z 21006KT 9999 FEW300 28/09 Q1021 BLU/BLU/=
METAR ETSE 081220Z 08001KT 9999 FEW170 24/07 Q1023 BLU/BLU/=
METAR ETSI 081220Z 14004KT 9999 26/07 Q1022 BLU/BLU/=
METAR ETSN 081220Z 07005KT 9999 FEW160 26/07 Q1022 BLU/=
METAR LIRX 081155Z 17004KT CAVOK 28/15 Q1020 RMK SKC VIS MIN 9999E
      VIS MAR 25 KM=
####018000084####
SPUS72 KWBC 081226
SPECI
KMAF 081223Z 03007KT 10SM SCT005 OVC015 21/20 A3010=
####018000113####
SATU20 LTAA 081150 RRB
METAR LTCC 081220Z 20010KT 170V230 CAVOK 41/02 Q1005 NOSIG RMK RWY16 17010KT 130V220=
####018000081####
SALV32 EVRA 081220 RRO
METAR EVLA 081220Z 30006KT 270V340 CAVOK 22/15 Q1018=
####018000318####
SADL36 EDZO 081220
METAR EDHK 081220Z 24007KT 9999 FEW050 BKN120 28/11 Q1019
      BLU BLU=
METAR ETNL 081220Z 16007KT 9999 FEW090 27/10 Q1020
      BLU+BLU+=
METAR ETNU 081220Z 14004KT 9999 FEW100 BKN150 26/11 Q1021
      BLU FCST CANCEL=
METAR ETSI 081220Z 14004KT 9999 26/07 Q1022
      BLU+BLU+=
####018000081####
SALV32 EVRA 081220 RRP
METAR EVLA 081220Z 30006KT 270V340 CAVOK 22/15 Q1018=
####018000091####
SAOS32 LOWM 081220
METAR LOXZ 081220Z VRB04KT 70KM FEW060CU 25/11 Q1022 NOSIG RMK FEW=
####018000081####
SALV32 EVRA 081220 RRT
METAR EVLA 081220Z 30006KT 270V340 CAVOK 22/15 Q1018=
####018000085####
SAAL41 DAMM 081200 CCA
METAR COR DAUI 081200Z 07024KT 6000 DRSA NSC 45/07 Q1013=
####018000081####
SALV32 EVRA 081220 RRQ
METAR EVLA 081220Z 30006KT 270V340 CAVOK 22/15 Q1018=
####018000393####
SAOS31 LOWM 081220
METAR LOWW 081220Z 33007KT 290V010 9999 FEW055 24/10 Q1022 NOSIG=
METAR LOWL 081220Z 07004KT 340V150 CAVOK 24/09 Q1022 NOSIG=
METAR LOWS 081220Z VRB02KT 9999 FEW070 25/07 Q1022 NOSIG=
METAR LOWI 081220Z 09005KT 010V150 9999 FEW080 28/14 Q1020 NOSIG=
METAR LOWG 081220Z VRB03KT CAVOK 26/11 Q1022 NOSIG=
METAR LOWK 081220Z VRB03KT 9999 FEW060 26/10 Q1022 NOSIG=
####018000082####
SAMJ41 LWOH 081230
METAR LWOH 081230Z 34010KT 9999 FEW040 BKN050 20/10 Q1019=
####018000327####
SAFI33 EFHK 081220
EFJO 081220Z AUTO 05004KT 360V130 CAVOK 28/18 Q1014=
EFLP 081220Z AUTO 16007KT 090V240 CAVOK 31/14 Q1013=
EFMI 081220Z AUTO VRB02KT 9999 FEW042 SCT065 28/18 Q1014=
EFSA 081220Z 16002KT 9999 FEW055TCU FEW055CB 30/17 Q1014=
EFUT 081220Z 18010KT 130V220 CAVOK 30/14 Q1013=
METAR EFVR 081225Z NIL=
####018000377####
SABX31 EBBR 081220
METAR EBAW 081220Z 23007KT 180V300 CAVOK 30/12 Q1019 NOSIG=
METAR EBBR 081220Z VRB04KT CAVOK 30/12 Q1019 NOSIG=
METAR EBCI 081220Z 35004KT 300V070 CAVOK 29/10 Q1019 NOSIG=
METAR EBLG 081220Z 28008KT 250V330 CAVOK 30/09 Q1020 NOSIG=
METAR EBOS 081220Z 35006KT 320V020 CAVOK 22/16 Q1019 NOSIG=
METAR ELLX 081220Z VRB04KT CAVOK 30/06 Q1021 NOSIG=
####018000081####
SALV32 EVRA 081220 RRR
METAR EVLA 081220Z 30006KT 270V340 CAVOK 22/15 Q1018=
####018000081####
SALV32 EVRA 081220 RRS
METAR EVLA 081220Z 30006KT 270V340 CAVOK 22/15 Q1018=
####018000113####
SAUK31 EGGY 081220 CCA
METAR COR EGCC 081220Z 23012G22KT 200V280 9999 SCT038 BKN044 19/10
    Q1017 NOSIG=
####018000116####
SAIY42 LIIB 081200 RRB
METAR LIRX 081155Z 17004KT CAVOK 28/15 Q1020 RMK SKC VIS MIN 9999E
      VIS MAR 25 KM=
####018000085####
SAUK33 EGGY 081220 RRA
METAR EGNS 081220Z 20011KT 9999 FEW025 17/12 Q1016 NOSIG=
####018000081####
SABZ34 SBBR 081200 RRA
METAR SBCX 081200Z 21004KT 0000 FG VV/// 10/09 Q1020=
####018000076####
SPUS73 KWBC 081226
SPECI
KCYS 081223Z 00000KT 9SM OVC010 12/11 A3037=
####018000240####
SAUS20 KNKA 081226
SPECI KCRS 081225Z AUTO 08005KT 10SM BKN013 OVC075 25/24 A3002 RMK 
    AO2=
SPECI KDEQ 081225Z AUTO 09003KT 10SM BKN005 OVC050 24/23 A3005 RMK 
    AO2=
METAR KTDF 081224Z AUTO 00000KT 4SM CLR A3002 RMK AO1=
####018000083####
SPUS73 KWBC 081226
SPECI
KSGF 081223Z 15003KT 7SM BKN007 OVC011 23/23 A3008=
####018000276####
SASA KAWN 081200 RRH
METAR SBBW 081200Z 20002KT CAVOK 23/15 Q1019=
METAR SBKG 081200Z 18008KT 9999 BKN018 SCT100 23/20 Q1018=
METAR SBMK 081200Z 16002KT CAVOK 20/14 Q1023=
METAR SBPC 081200Z 09002KT CAVOK 12/08 Q1025=
METAR SBPN 081200Z 18008KT CAVOK 25/14 Q1016=
####018001668####
SAEU KAWN 081200 RRX
METAR EDAC 081220Z 28005KT 200V350 CAVOK 26/13 Q1021=
METAR EDAH 081220Z 17004KT 130V240 CAVOK 25/09 Q1021=
METAR EDFH 081220Z 15009KT 110V180 CAVOK 28/11 Q1021=
METAR EDHK 081220Z 24007KT 9999 FEW050 BKN120 28/11 Q1019 BLU BLU=
METAR EDHL 081220Z 21008KT 160V270 CAVOK 29/12 Q1019=
METAR EDLN 081220Z 23006KT 120V290 CAVOK 30/10 Q1019=
METAR EDLP 081220Z VRB04KT CAVOK 30/11 Q1020=
METAR EDMA 081220Z 18005KT 130V280 CAVOK 26/09 Q1022=
METAR EDNY 081220Z 19005KT CAVOK 28/11 Q1022=
METAR EDQM 081220Z 10004KT 010V160 CAVOK 24/08 Q1023=
METAR EDSB 081220Z VRB03KT CAVOK 30/12 Q1020=
METAR EDTL 081220Z VRB05KT CAVOK 30/12 Q1019=
METAR EDVK 081220Z 21007KT CAVOK 27/09 Q1021=
METAR EDXW 081220Z 23011KT 8000 RA FEW020 BKN064 19/14 Q1019=
METAR ENEK 081220Z 23011KT CAVOK 16/12 Q1015 W15/S3=
METAR ENNA 081220Z 15012KT 9999 FEW045CB SCT070 24/09 Q1012=
METAR ENRO 081220Z 21014KT 160V250 9999 -SHRA FEW015 SCT040 BKN070
      15/07 Q1012=
METAR ETHF 081220Z 19006KT 9999 FEW300 28/10 Q1020 BLU/BLU/=
METAR ETMN 081220Z 24007KT 9999 BKN110 SCT270 28/10 Q1019 BLU BLU/
      TEMPO BLU=
METAR ETND 081220Z 24007KT 9999 FEW060 SCT280 30/10 Q1019 BLU/=
METAR ETNH 081220Z 25010KT 9999 BKN120 SCT280 27/09 Q1019 BLU BLU/
      TEMPO BLU=
METAR ETNS 081220Z 22011KT 9999 FEW070 SCT120 BKN240 28/06 Q1019 BLU/BLU=
METAR ETNU 081220Z 14004KT 9999 FEW100 BKN150 26/11 Q1021 BLU FCST
      CANCEL=
METAR ETNW 081220Z 21007KT 9999 FEW070 SCT300 30/10 Q1019 BLU/BLU/=
METAR ETSH 081220Z 21004KT 9999 FEW150 SCT250 28/07 Q1021 BLU/BLU/=
METAR ETWM 081220Z 25007KT 9999 FEW070 BKN210 29/08 Q1018 BLU/=
####018001691####
SAEU KAWN 081200 RRX
METAR EBAW 081220Z 23007KT 180V300 CAVOK 30/12 Q1019 NOSIG=
METAR EBOS 081220Z 35006KT 320V020 CAVOK 22/16 Q1019 NOSIG=
METAR COR EGCC 081220Z 23012G22KT 200V280 9999 SCT038 BKN044 19/10
      Q1017 NOSIG=
METAR LIBD 081220Z 02014KT CAVOK 25/12 Q1020=
METAR LIBR 081215Z /////KT CAVOK 25/13 Q1018 NOSIG=
METAR LICC 081220Z 11012KT CAVOK 28/21 Q1018=
METAR LICJ 081220Z 03013KT 9999 FEW018 27/23 Q1018=
METAR LIEA 081220Z 18008KT 150V210 9999 FEW025 32/22 Q1019=
METAR LIEE 081215Z 16011KT 9999 FEW020 28/21 Q1019 NOSIG=
METAR LIEO 081220Z 05011KT CAVOK 30/21 Q1019=
METAR LIMC 081220Z VRB05KT 9999 FEW025 28/15 Q1021 NOSIG=
METAR LIME 081220Z 11005KT 060V160 9999 BKN050 27/15 Q1022=
METAR LIMJ 081220Z 16006KT 9999 FEW035 29/25 Q1020=
METAR LIML 081220Z VRB03KT 9999 FEW030 28/15 Q1021 NOSIG=
METAR LIPE 081220Z VRB05KT CAVOK 30/14 Q1020=
METAR LIPH 081215Z 15004KT 9999 SCT025 27/20 Q1022=
METAR LIPQ 081220Z VRB02KT CAVOK 27/14 Q1022=
METAR LIPR 081215Z 07012KT CAVOK 28/19 Q1021=
METAR LIPX 081215Z 29001KT 9999 FEW040 30/13 Q1021=
METAR LIPZ 081220Z 13007KT CAVOK 27/18 Q1022=
METAR LIRA 081215Z 27008KT 180V310 9999 FEW018 30/17 Q1020=
METAR LIRF 081220Z 23011KT 190V260 CAVOK 29/19 Q1020 NOSIG=
METAR LIRQ 081220Z VRB04KT CAVOK 31/13 Q1019=
METAR LOWG 081220Z VRB03KT CAVOK 26/11 Q1022 NOSIG=
METAR LOWI 081220Z 09005KT 010V150 9999 FEW080 28/14 Q1020 NOSIG=
METAR LOWK 081220Z VRB03KT 9999 FEW060 26/10 Q1022 NOSIG=
METAR LOWL 081220Z 07004KT 340V150 CAVOK 24/09 Q1022 NOSIG=
METAR LOWS 081220Z VRB02KT 9999 FEW070 25/07 Q1022 NOSIG=
METAR LOWW 081220Z 33007KT 290V010 9999 FEW055 24/10 Q1022 NOSIG=
####018001791####
SAEU KAWN 081200 RRX
METAR EBBR 081220Z VRB04KT CAVOK 30/12 Q1019 NOSIG=
METAR EBCI 081220Z 35004KT 300V070 CAVOK 29/10 Q1019 NOSIG=
METAR EBLG 081220Z 28008KT 250V330 CAVOK 30/09 Q1020 NOSIG=
METAR EDHI 081220Z 23007KT 160V290 CAVOK 30/12 Q1019=
METAR EDMO 081220Z 01009KT 340V150 CAVOK 25/08 Q1023=
METAR EDOP 081220Z 21010KT 160V270 CAVOK 29/08 Q1020=
METAR ELLX 081220Z VRB04KT CAVOK 30/06 Q1021 NOSIG=
METAR ENAL 081220Z 24004KT 170V320 9999 VCSH FEW030CB BKN055 17/11
      Q1010=
METAR ENAN 081220Z 32006KT 9999 FEW045 SCT090 BKN200 16/10 Q1010 NOSIG=
METAR ENBO 081220Z 27010KT 9999 SCT050CB 14/11 Q1010 TEMPO SHRA=
METAR ENBR 081220Z 21013KT 9999 FEW025 SCT045 17/10 Q1013 NOSIG=
METAR ENCN 081220Z 19007KT 9000 BKN038 17/15 Q1016=
METAR ENDU 081220Z VRB02KT 9999 VCSH FEW050 BKN070 19/11 Q1010=
METAR ENFL 081220Z 20015KT 160V240 9999 FEW015 SCT050 16/12 Q1011=
METAR ENGC 081220Z 19026KT CAVOK 13/11 Q1009=
METAR ENGM 081210Z 18014KT 9999 FEW013 SCT021 BKN040 17/14 Q1015 NOSIG=
METAR ENHD 081220Z 20010KT 9999 FEW020 SCT210 17/11 Q1014=
METAR ENHE 081220Z 18017KT 9999 SCT040 15/11 Q1009=
METAR ENKB 081220Z 30007KT 270V340 9999 VCSH FEW045 SCT061 20/08 Q1009=
METAR ENML 081220Z 25010KT 9999 VCSH FEW040 BKN060 20/08 Q1009=
METAR ENOA 081220Z 19023KT 9999 FEW045 13/11 Q1010=
METAR ENOL 081220Z 02004KT 9999 FEW025TCU SCT080 19/07 Q1010 NOSIG=
METAR ENRY 081220Z 19008KT 160V230 9000 -RA BKN007 17/15 Q1016 TEMPO
      SCT007 BKN015=
METAR ENTC 081220Z 36006KT 300V020 9999 FEW065 SCT082 19/09 Q1010=
METAR ENTO 081220Z 19012KT 9999 SCT006 BKN011 16/15 Q1016=
METAR ENVA 081220Z 26018G28KT 9999 VCSH FEW040CB SCT070 18/13 Q1010
      RETS TEMPO TSRA=
METAR ENZV 081220Z 20010KT 9999 FEW020 BKN170 18/12 Q1015 NOSIG=
####018000094####
SPCN51 CWAO 081225
SPECI CZCP 081225Z AUTO 28023KT 9SM SCT004 BKN007 OVC018 03/ A2986=

####018000089####
SAZA42 FAJS 081230
METAR FAJS 081230Z 08007KT 030V130 9999 SCT045 16/04 Q1033 NOSIG=
####018000535####
SAUS20 KNKA 081226
METAR KBXK 081215Z AUTO 00000KT 10SM CLR 23/00 A2979 RMK AO1 =
SPECI KFOK 081225Z 14006KT 10SM FEW015 BKN035 26/21 A3009 RMK AO2=
SPECI KLXV 081223Z AUTO 11003KT 7SM OVC002 06/05 A3052 RMK AO2 CIG
     001V005 TSNO=
METAR KPAN 081235Z AUTO 00000KT 10SM CLR 21/03 A3015 RMK AO1 =
SPECI KPWK 081225Z 24004KT 5SM BR FEW006 BKN027 OVC060 24/22 A3005 
    RMK AO2=
METAR KRQO 081235Z AUTO 00000KT M1/4SM FG OVC001 23/23 A3009 RMK 
     AO2=
SPECI KTOP 081225Z 35003KT 7SM BKN007 23/21 A3008 RMK AO2=
####018000262####
SAUS99 KWBC 081227
METAR
KTDF 081224Z AUTO 00000KT 4SM CLR A3002 RMK AO1=
KBXK 081215Z AUTO 00000KT 10SM CLR 23/00 A2979 RMK AO1=
KPAN 081235Z AUTO 00000KT 10SM CLR 21/03 A3015 RMK AO1=
KRQO 081235Z AUTO 00000KT M1/4SM FG OVC001 23/23 A3009 RMK AO2=
####018000460####
SPUS99 KWBC 081227
SPECI
KCRS 081225Z AUTO 08005KT 10SM BKN013 OVC075 25/24 A3002 RMK
     AO2=
KDEQ 081225Z AUTO 09003KT 10SM BKN005 OVC050 24/23 A3005 RMK
     AO2=
KFOK 081225Z 14006KT 10SM FEW015 BKN035 26/21 A3009 RMK AO2=
KLXV 081223Z AUTO 11003KT 7SM OVC002 06/05 A3052 RMK AO2 CIG
     001V005 TSNO=
KPWK 081225Z 24004KT 5SM BR FEW006 BKN027 OVC060 24/22 A3005 RMK
     AO2=
KTOP 081225Z 35003KT 7SM BKN007 23/21 A3008 RMK AO2=
####018000310####
SADL36 EDZO 081220
METAR EDHK 081220Z 24007KT 9999 FEW050 BKN120 28/11 Q1019
      BLU BLU=
METAR ETNL 081220Z 16007KT 9999 FEW090 27/10 Q1020
      BLU+BLU+=
METAR ETNU 081220Z 14004KT 9999 FEW100 BKN150 26/11 Q1021
      BLU FCST CANCEL=
METAR ETSI 081220Z 14004KT 9999 26/07 Q1022
      BLU+BLU+=
####018000080####
SALV32 EVRA 081220 RRV
METAR EVLA 081220Z 30006KT 270V340 CAVOK 22/15 Q1018=
####018000084####
SAAL41 DAMM 081200 CCA
METAR COR DAUI 081200Z 07024KT 6000 DRSA NSC 45/07 Q1013=
####018000145####
SASW31 LSSW 081220 RRA
METAR LSZB 081220Z VRB03KT CAVOK 30/11 Q1021 NOSIG=
METAR LSZA 081220Z 18005KT 140V220 9999 FEW055 28/16 Q1022 NOSIG=
####018000084####
SAAL33 DAAA 081200 CCA
METAR COR DAUI 081200Z 07024KT 6000 DRSA NSC 45/07 Q1013=
####018000080####
SALV32 EVRA 081220 RRW
METAR EVLA 081220Z 30006KT 270V340 CAVOK 22/15 Q1018=
####018000088####
SAZA42 FAJS 081230
METAR FAJS 081230Z 08007KT 030V130 9999 SCT045 16/04 Q1033 NOSIG=
####018000368####
SAFI34 EFHK 081220
EFET 081220Z AUTO 17008KT 110V210 CAVOK 20/06 Q1013=
EFIV 081220Z AUTO 20005KT 130V300 CAVOK 22/08 Q1015=
EFKE 081220Z AUTO 21007KT 170V260 9999 FEW043 21/13 Q1015=
EFKI 081220Z AUTO 33005KT 290V010 CAVOK 23/14 Q1015=
EFKS 081220Z AUTO 06003KT CAVOK 20/10 Q1016=
EFKT 081220Z AUTO 15008KT 110V200 CAVOK 21/09 Q1014=
METAR EFSO 081226Z NIL=
####018000108####
SAUK31 EGGY 081220 CCB
METAR COR EGLL 081220Z 24009KT 190V290 9999 SCT023 SCT033 23/14
    Q1018 NOSIG=
####018000093####
SPUS31 KWBC 081227
SPECI
KEWR 081224Z 18006KT 2SM BR BKN004 BKN009 OVC110 26/25 A3005=
####018000083####
SAUS31 KWBC 081200 RRB
METAR
KLGC 081215Z AUTO 00000KT 10SM CLR 24/24 A3004=
####018000124####
SAUS41 KWBC 081200 RRD
METAR
K40B 081225Z AUTO VRB02KT 28/22 A3002=
KWDR 081220Z AUTO 29003KT 10SM CLR 26/21 A3008=
####018000183####
SAUS42 KWBC 081200 RRC
METAR
KBQK 081217Z AUTO 28007KT 10SM CLR 24/22 A3001=
KLGC 081215Z AUTO 00000KT 10SM CLR 24/24 A3004=
KOPN 081220Z AUTO 00000KT 10SM CLR 27/23 A3006=
####018000092####
SPUS52 KWBC 081227
SPECI
KCNM 081224Z AUTO 32009KT 9SM -RA BKN007 OVC015 19/18 A3015=
####018000532####
SANL40 EHWX 081225
METAR EHDL 081225Z AUTO 24007KT 9999NDV BKN140 29/12 Q1018 
BLU=
METAR EHEH 081225Z AUTO 28006KT 9999NDV NCD 31/11 Q1018 
BLU BLU=
METAR EHGR 081225Z AUTO 22006KT 9999NDV FEW069 BKN400 30/11 Q1018 
BLU BLU=
METAR EHLW 081225Z AUTO 23008KT 9999NDV BKN068 OVC084 24/17 Q1019 
BLU BLU=
METAR EHVK 081225Z AUTO 28006KT 9999NDV NCD 31/11 Q1018 
BLU BLU=
METAR EHVL 081225Z AUTO 25011KT 9999NDV OVC058 20/16 Q1019 
BLU=
METAR EHWO 081225Z AUTO 29007KT 9999NDV FEW390 28/12 Q1019 
BLU BLU=
####018000120####
SAUS51 KWBC 081200 RRB
METAR
K40B 081225Z AUTO VRB02KT 28/22 A3002=
KIPJ 081220Z AUTO 00000KT 10SM 25/18 A3004=
####018000136####
SAUS52 KWBC 081200 RRC
METAR
KAYS 081220Z AUTO 27004KT 10SM CLR 24/22 A3003=
KVUJ 081218Z AUTO 00000KT 10SM SCT090 27/20 A2999=
####018000082####
SAUS53 KWBC 081200 RRG
METAR
KJNX 081220Z AUTO 35006KT 7SM CLR 27/21 A2997=
####018000092####
SPUS72 KWBC 081227
SPECI
KCNM 081224Z AUTO 32009KT 9SM -RA BKN007 OVC015 19/18 A3015=
####018000081####
SALV32 EVRA 081220 RRU
METAR EVLA 081220Z 30006KT 270V340 CAVOK 22/15 Q1018=
####018000375####
SAFI34 EFHK 081220
EFET 081220Z AUTO 17008KT 110V210 CAVOK 20/06 Q1013=
EFIV 081220Z AUTO 20005KT 130V300 CAVOK 22/08 Q1015=
EFKE 081220Z AUTO 21007KT 170V260 9999 FEW043 21/13 Q1015=
EFKI 081220Z AUTO 33005KT 290V010 CAVOK 23/14 Q1015=
EFKS 081220Z AUTO 06003KT CAVOK 20/10 Q1016=
EFKT 081220Z AUTO 15008KT 110V200 CAVOK 21/09 Q1014=
METAR EFSO 081226Z NIL=
####018000081####
SALV32 EVRA 081220 RRW
METAR EVLA 081220Z 30006KT 270V340 CAVOK 22/15 Q1018=
####018000081####
SALV32 EVRA 081220 RRV
METAR EVLA 081220Z 30006KT 270V340 CAVOK 22/15 Q1018=
####018000110####
SAUK31 EGGY 081220 CCB
METAR COR EGLL 081220Z 24009KT 190V290 9999 SCT023 SCT033 23/14
    Q1018 NOSIG=
####018000666####
SAPS31 NFFN 081200
METAR NCRG 081200Z 05008KT 9999 FEW010 SCT015 25/24 Q1017=
METAR NFFN 081200Z 11004KT 40KM FEW030 21/19 Q1014 NOSIG RMK RR NIL=
METAR NFNA 081200Z 31005KT 40KM FEW024 SCT300 20/19 Q1014 RMK RR NIL 
DEW HVY=
METAR NGFU 081200Z 08006KT 50KM FEW020 28/25 Q1010=
METAR NGTA 081200Z NIL=
METAR NIUE 081200Z AUTO 15004KT //// ////// 24/24 Q1015=
METAR NSFA 081200Z 00000KT 50KM FEW024 25/23 Q1012=
METAR NSTU 081152Z 07011KT 10SM FEW016 28/26 A2989 RMK SLP122 60006 
70018 8/100 T02770256 10281 20267 57002=
METAR NTAA 081200Z VRB02KT 9999 FEW023 25/21 Q1015 WS ALL RWY NOSIG=
METAR NWWW 081200Z NIL=
METAR PLCH 081200Z NIL=
####018000147####
SASW31 LSSW 081220 RRA
METAR LSZB 081220Z VRB03KT CAVOK 30/11 Q1021 NOSIG=
METAR LSZA 081220Z 18005KT 140V220 9999 FEW055 28/16 Q1022 NOSIG=
####018000674####
SAPS32 NFFN 081200
METAR NFNA 081200Z 31005KT 40KM FEW024 SCT300 20/19 Q1014 RMK RR NIL 
DEW HVY=
METAR NFTF 081200Z 00000KT 9999 FEW015 18/17 Q1015=
METAR NFTL 081200Z NIL=
METAR NFTV 081200Z 00000KT 9999 SCT016 BKN040 23/21 Q1014=
METAR NLWW 081200Z AUTO 11006KT 080V150 9999NDV SCT018/// SCT026/// 
28/24 Q1011=
METAR NSAP 081200Z NIL=
METAR NSFA 081200Z 00000KT 50KM FEW024 25/23 Q1012=
METAR NSTU 081152Z 07011KT 10SM FEW016 28/26 A2989 RMK SLP122 60006 
70018 8/100 T02770256 10281 20267 57002=
METAR NTAA 081200Z VRB02KT 9999 FEW023 25/21 Q1015 WS ALL RWY NOSIG=
METAR NVSS 081200Z NIL=
METAR NVVV 081200Z NIL=
METAR NWWW 081200Z NIL=
####018000082####
SAUS54 KWBC 081200 RRD
METAR
KJNX 081220Z AUTO 35006KT 7SM CLR 27/21 A2997=
####018000084####
SACN96 CWAO 081200 RRD
WYH SA 1200 AUTO8 M M M 143/14/13/2101/M/M 8004 16MM=

####018000128####
SACN59 CWAO 081200 RRD
XDB SA 1200 AUTO8 M M M M/08/05/2107/M/ M 18MM=
XTH SA 1200 AUTO8 M M M M/13/10/2207/M/ M 41MM=

####018000104####
SACN50 CWAO 081200 RRB
WFG SA 1200 AUTO8 M M M 175/14/11/3320/M/M PK WND 3424 1157Z 3004
62MM=

####018000084####
SACN96 CWAO 081000 RRH
WYH SA 1000 AUTO8 M M M 149/12/11/2801/M/M 5001 83MM=

####018000084####
SACN96 CWAO 081100 RRG
WYH SA 1100 AUTO8 M M M 147/12/12/0000/M/M 0000 30MM=

####018000142####
SACN78 CWAO 081200 RRC
TXR SA 1200 AUTO8 M M M 132/22/21/1506/M/0004 7009 97MM=
XRG SA 1200 AUTO8 M M M 172/27/22/2105/M/ 0001 74MM=

####018000075####
SACN95 CWAO 081215
WWA SA 1215 AUTO8 M M M M/19/10/0202/M/M M 17MM=

####018000228####
SACN98 CWAO 081200 RRD
XCP SA 1200 AUTO8 M M M M/10/09/2404/M/ M 65MM=
XDP SA 1200 AUTO8 M M M M/12/11/2104/M/ M 42MM=
XPA SA 1200 AUTO8 M M M M/10/09/2602/M/ M 19MM=
XWM SA 1200 AUTO8 M M M M/10/09/0000/M/ M 12MM=

####018000198####
SACN92 CWAO 081200 RRD
WLF SA 1200 AUTO8 M M M 113/17/14/2104/M/0004 8005 74MM=
WME SA 1200 AUTO8 M M M 157/19/13/0808/M/M 1007 43MM=
WMM SA 1200 AUTO8 M M M 154/13/12/0901/M/ 1007 48MM=

####018000083####
SACN93 CWAO 081200 RRC
WPA SA 1200 AUTO8 M M M 207/04/03/MMMM/M/ 5000 51MM=

####018000083####
SAUS72 KWBC 081200 RRF
METAR
KBQK 081217Z AUTO 28007KT 10SM CLR 24/22 A3001=
####018000109####
SAUK39 EGRR 081150 RRM
METAR EGDM 081150Z 20008KT 9999 SCT022 SCT250 20/15 Q1018 WHT BECMG
SCT025 BLU=
####018001471####
SPZZ40 KAWN 081227 RRE
SPECI CYMO 081221Z AUTO 31008KT 9SM FEW030 OVC090 19/17 A2987=
SPECI CYMO 081223Z AUTO 32009KT 9SM -RA FEW035 OVC090 19/18 A2988=
SPECI CYRL 081222Z 28007KT 15SM FEW006 BKN010 RMK SF1SC5=
SPECI CYSB 081222Z 18007KT 2 1/2SM BR OVC004 RMK FG3SF5 CIG RAG=
SPECI CYZE 081224Z AUTO 20008KT 6SM BR FEW004 BKN100 BKN120 20/19 A2997
      RMK SLP148 DENSITY ALT 1300FT=
SPECI KDYS 081222Z 00000KT 10SM BKN005 OVC009 22/21 A3007 RMK AO2A
      SLP163 $=
SPECI KIAB 081223Z AUTO 01009KT 10SM CLR 22/22 A3009 RMK AO2 RAB1208E1223DZB1221E1222
      SLP179=
SPECI KMGE 081211Z COR 00000KT 10SM CLR 25/20 A3007 RMK SLP169 COR
      1227 $=
SPECI KNQI 081218Z 02007KT 3SM TSRA BR FEW010 BKN014CB BKN140 BKN280
      27/24 A2983 RMK AO2 RAB16 OCNL LTGICCG VC N-NE TS N-NE MOV W
      CB DSNT S-SW P0001 $=
SPECI KNSE 081215Z 00000KT 5SM BR FEW250 26/23 A3003 RMK AO2 VIS E
      AND W 3 $=
SPECI KNZY 081223Z 33005KT 8SM -DZ FEW009 OVC015 18/13 A2990 RMK AO2
      DZB22 P0000 $=
SPECI KRIV 081226Z VRB02KT 2SM BR OVC003 13/13 A2991 RMK AO2A SLP123=
SPECI KTIK 081223Z AUTO 34004KT 10SM SCT006 OVC014 23/23 A3006 RMK
      AO2 SLP167 $=
SPECI MMPB 081213Z 17006KT 1/2SM -RA FG VV001 14/14 A3022 RMK 8////
      VRBL CONDS=
SPECI RJFN 081221Z 13003KT 4000 BR FEW020 BKN/// 24/23 Q1009 RMK 1CU020
      A2982 VIS SW-W 3500M=
SPECI YPPD 081222Z AUTO 03008KT 2800NDV // BKN013 BKN023 OVC034 21/21
      Q1010=
####018000540####
SPNA14 KAWN 081227 RRD
SPECI KNQI 081218Z 02007KT 3SM TSRA BR FEW010 BKN014CB BKN140 BKN280
      27/24 A2983 RMK AO2 RAB16 OCNL LTGICCG VC N-NE TS N-NE MOV W
      CB DSNT S-SW P0001 $=
SPECI KNSE 081215Z 00000KT 5SM BR FEW250 26/23 A3003 RMK AO2 VIS E
      AND W 3 $=
SPECI KNZY 081223Z 33005KT 8SM -DZ FEW009 OVC015 18/13 A2990 RMK AO2
      DZB22 P0000 $=
SPECI KRIV 081226Z VRB02KT 2SM BR OVC003 13/13 A2991 RMK AO2A SLP123=
SPECI KTIK 081223Z AUTO 34004KT 10SM SCT006 OVC014 23/23 A3006 RMK
      AO2 SLP167 $=
####018000141####
SPXX70 KAWN 081200 RRA
SPECI KQAY 081224Z AUTO 01014G24KT 4700 HZ BKN023 BKN027 48/M01 A2950
      RMK AO2 PK WND 36026/1200 SLP985 $=
####018001675####
SAEW KAWN 081200 RRK
METAR EBAW 081220Z 23007KT 180V300 CAVOK 30/12 Q1019 NOSIG=
METAR EBBR 081220Z VRB04KT CAVOK 30/12 Q1019 NOSIG=
METAR EBCI 081220Z 35004KT 300V070 CAVOK 29/10 Q1019 NOSIG=
METAR EBLG 081220Z 28008KT 250V330 CAVOK 30/09 Q1020 NOSIG=
METAR EBOS 081220Z 35006KT 320V020 CAVOK 22/16 Q1019 NOSIG=
METAR EDAH 081220Z 17004KT 130V240 CAVOK 25/09 Q1021=
METAR EDFH 081220Z 15009KT 110V180 CAVOK 28/11 Q1021=
METAR EDHI 081220Z 23007KT 160V290 CAVOK 30/12 Q1019=
METAR EDHL 081220Z 21008KT 160V270 CAVOK 29/12 Q1019=
METAR EDLN 081220Z 23006KT 120V290 CAVOK 30/10 Q1019=
METAR EDLP 081220Z VRB04KT CAVOK 30/11 Q1020=
METAR EDMA 081220Z 18005KT 130V280 CAVOK 26/09 Q1022=
METAR EDMO 081220Z 01009KT 340V150 CAVOK 25/08 Q1023=
METAR EDNY 081220Z 19005KT CAVOK 28/11 Q1022=
METAR EDOP 081220Z 21010KT 160V270 CAVOK 29/08 Q1020=
METAR EDQM 081220Z 10004KT 010V160 CAVOK 24/08 Q1023=
METAR EDSB 081220Z VRB03KT CAVOK 30/12 Q1020=
METAR EDTL 081220Z VRB05KT CAVOK 30/12 Q1019=
METAR EDVK 081220Z 21007KT CAVOK 27/09 Q1021=
METAR EHVL 081225Z AUTO 25011KT 9999NDV OVC058 20/16 Q1019 BLU=
METAR EHWO 081225Z AUTO 29007KT 9999NDV FEW390 28/12 Q1019 BLU BLU=
METAR ELLX 081220Z VRB04KT CAVOK 30/06 Q1021 NOSIG=
METAR ETMN 081220Z 24007KT 9999 BKN110 SCT270 28/10 Q1019 BLU BLU/
      TEMPO BLU=
METAR ETNW 081220Z 21007KT 9999 FEW070 SCT300 30/10 Q1019 BLU/BLU/=
METAR ETSH 081220Z 21004KT 9999 FEW150 SCT250 28/07 Q1021 BLU/BLU/=
METAR ETWM 081220Z 25007KT 9999 FEW070 BKN210 29/08 Q1018 BLU/=
METAR LSZA 081220Z 18005KT 140V220 9999 FEW055 28/16 Q1022 NOSIG=
METAR LSZB 081220Z VRB03KT CAVOK 30/11 Q1021 NOSIG=
####018000068####
SAUS90 KWBC 081228
METAR K40B 081225Z AUTO VRB02KT 28/22 A3002=
####018000169####
SPUS90 KWBC 081228
SPECI KSBN 081226Z 22003KT 3SM -TSRA BR BKN020 BKN035CB OVC046
     23/22 A3006 RMK AO2 TSB25RAB1155 OCNL LTGIC OHD TS OHD MOV NE
     P0006=
####018000081####
SAMJ41 LWSK 081230
METAR LWSK 081230Z 35013KT 9999 BKN046 19/11 Q1020 NOSIG=
####018000166####
SAUS43 KIWX 081227
MTRSBN
SPECI KSBN 081226Z 22003KT 3SM -TSRA BR BKN020 BKN035CB OVC046 23/22 
A3006 RMK AO2 TSB25RAB1155 OCNL LTGIC OHD TS OHD MOV NE P0006
####018000930####
SAUS20 KNKA 081227
METAR K1H2 081225Z AUTO 22004KT 10SM OVC043 27/24 A3005 RMK AO2 
     T02650236=
METAR KAAA 081223Z AUTO 00000KT 4SM BR SCT044 BKN060 BKN100 23/22 
     A3004 RMK AO2 T02290222=
SPECI KBAZ 081226Z AUTO 05006KT 6SM BR BKN011 OVC016 25/24 A2994 RMK 
    AO2=
SPECI KDAW 081226Z AUTO 00000KT 3SM HZ BKN009 BKN014 24/21 A3009 RMK 
    AO2 CIG 007V013=
METAR KHQZ 081226Z AUTO 09003KT 7SM OVC060 25/23 A3004 RMK AO2=
SPECI KLCH 081226Z 06007KT 8SM BKN009 OVC021 26/24 A3000 RMK AO2=
SPECI KLWC 081226Z AUTO 33003KT 7SM BKN006 23/22 A3008 RMK AO2=
METAR KORG 081225Z AUTO 08008KT 5SM BR OVC006 16/14 A2999 RMK AO2 
     LTG DSNT SW AND W=
SPECI KPBI 081226Z 00000KT 6SM -RA BR SCT009 SCT028CB BKN042 26/26 
    A2996 RMK AO2 CB OHD-ALQDS MOV W P0016=
METAR KPVW 081221Z AUTO 03006KT 10SM BKN007 18/17 A3016 RMK AO2=
METAR KRCR 081225Z AUTO 21003KT 10SM BKN055 27/21 A3005 RMK AO2=
####018000471####
SAUS99 KWBC 081228
METAR
K1H2 081225Z AUTO 22004KT 10SM OVC043 27/24 A3005 RMK AO2
     T02650236=
KAAA 081223Z AUTO 00000KT 4SM BR SCT044 BKN060 BKN100 23/22 A3004
     RMK AO2 T02290222=
KHQZ 081226Z AUTO 09003KT 7SM OVC060 25/23 A3004 RMK AO2=
KORG 081225Z AUTO 08008KT 5SM BR OVC006 16/14 A2999 RMK AO2 LTG
     DSNT SW AND W=
KPVW 081221Z AUTO 03006KT 10SM BKN007 18/17 A3016 RMK AO2=
KRCR 081225Z AUTO 21003KT 10SM BKN055 27/21 A3005 RMK AO2=
####018000243####
SACN87 KWBC 081228
METAR CWME 081200Z AUTO 08008KT 19/13 RMK AO1 SLP157 T01940133
51007=
METAR CWME 081200Z AUTO 08008KT 19/13 RMK AO1 SLP157 T01940133
51007=
METAR CWME 081200Z AUTO 08008KT 19/13 RMK AO1 SLP157 T01940133
51007=
####018000427####
SPUS99 KWBC 081228
SPECI
KBAZ 081226Z AUTO 05006KT 6SM BR BKN011 OVC016 25/24 A2994 RMK
     AO2=
KDAW 081226Z AUTO 00000KT 3SM HZ BKN009 BKN014 24/21 A3009 RMK AO2
     CIG 007V013=
KLCH 081226Z 06007KT 8SM BKN009 OVC021 26/24 A3000 RMK AO2=
KLWC 081226Z AUTO 33003KT 7SM BKN006 23/22 A3008 RMK AO2=
KPBI 081226Z 00000KT 6SM -RA BR SCT009 SCT028CB BKN042 26/26 A2996
     RMK AO2 CB OHD-ALQDS MOV W P0016=
####018000243####
SACN92 KWBC 081228
METAR CWMM 081200Z AUTO 09001KT 13/12 RMK AO1 SLP154 T01340118
51007=
METAR CWMM 081200Z AUTO 09001KT 13/12 RMK AO1 SLP154 T01340118
51007=
METAR CWMM 081200Z AUTO 09001KT 13/12 RMK AO1 SLP154 T01340118
51007=
####018000080####
SACN95 KWBC 081228
METAR CWWA 081215Z AUTO 02002KT 19/10 RMK AO1 T01910097=
####018000838####
SPXX60 KWBC 081228
SPECI
KNQI 081224Z 02007KT 1 3/4SM +TSRA BR SCT010 BKN012CB OVC045 27/24
     A2983 RMK AO2 RAB16 OCNL LTGICCG OHD TS OHD MOV W CB DSNT
     S-SW P0001 $=
KDYS 081222Z 00000KT 10SM BKN005 OVC009 22/21 A3007 RMK AO2A
     SLP163 $=
KIAB 081223Z AUTO 01009KT 10SM CLR 22/22 A3009 RMK AO2
     RAB1208E1223DZB1221E1222 SLP179=
KMGE 081211Z COR 00000KT 10SM CLR 25/20 A3007 RMK SLP169 COR 1227
     $=
KNQI 081218Z 02007KT 3SM TSRA BR FEW010 BKN014CB BKN140 BKN280
     27/24 A2983 RMK AO2 RAB16 OCNL LTGICCG VC N-NE TS N-NE MOV W
     CB DSNT S-SW P0001 $=
KNZY 081223Z 33005KT 8SM -DZ FEW009 OVC015 18/13 A2990 RMK AO2
     DZB22 P0000 $=
KRIV 081226Z VRB02KT 2SM BR OVC003 13/13 A2991 RMK AO2A SLP123=
KTIK 081223Z AUTO 34004KT 10SM SCT006 OVC014 23/23 A3006 RMK AO2
     SLP167 $=
####018000855####
SPUS70 KWBC 081228
SPECI
KCRS 081225Z AUTO 08005KT 10SM BKN013 OVC075 25/24 A3002 RMK
     AO2=
KDEQ 081225Z AUTO 09003KT 10SM BKN005 OVC050 24/23 A3005 RMK
     AO2=
KFOK 081225Z 14006KT 10SM FEW015 BKN035 26/21 A3009 RMK AO2=
KPWK 081225Z 24004KT 5SM BR FEW006 BKN027 OVC060 24/22 A3005 RMK
     AO2=
KTOP 081225Z 35003KT 7SM BKN007 23/21 A3008 RMK AO2=
KNSE 081215Z 00000KT 5SM BR FEW250 26/23 A3003 RMK AO2 VIS E AND W
     3 $=
KBAZ 081226Z AUTO 05006KT 6SM BR BKN011 OVC016 25/24 A2994 RMK
     AO2=
KDAW 081226Z AUTO 00000KT 3SM HZ BKN009 BKN014 24/21 A3009 RMK AO2
     CIG 007V013=
KLCH 081226Z 06007KT 8SM BKN009 OVC021 26/24 A3000 RMK AO2=
KLWC 081226Z AUTO 33003KT 7SM BKN006 23/22 A3008 RMK AO2=
KPBI 081226Z 00000KT 6SM -RA BR SCT009 SCT028CB BKN042 26/26 A2996
     RMK AO2 CB OHD-ALQDS MOV W P0016=
####018000277####
SAGR33 LGAT 081220
METAR LGHI 081220Z NIL=
METAR LGKC 081220Z NIL=
METAR LGKF 081220Z NIL=
METAR LGKP 081220Z NIL=
METAR LGKZ 081220Z NIL=
METAR LGMK 081220Z 02021G32KT 9999 FEW015 24/17 Q1012=
METAR LGNX 081220Z NIL=
METAR LGPA 081220Z NIL=
METAR LGSO 081220Z NIL=
####018000609####
SAGR31 LGAT 081220
METAR LGAD 081220Z 29010KT 9999 FEW020 27/15 Q1014=
METAR LGAV 081220Z 04020KT 9999 SCT030 26/13 Q1013 NOSIG=
METAR LGIR 081220Z 35008KT 9999 FEW020 29/23 Q1011 NOSIG=
METAR LGKL 081220Z 34012G25KT 9999 FEW030 33/12 Q1011=
METAR LGKO 081220Z 31017KT 280V340 CAVOK 29/18 Q1009=
METAR LGKR 081220Z 31022KT CAVOK 28/10 Q1013 NOSIG=
METAR LGLM 081220Z 03013KT 9999 FEW008 SCT020 21/16 Q1013=
METAR LGRP 081220Z NIL=
METAR LGSA 081220Z 35012KT 9999 FEW020 33/14 Q1012=
METAR LGSM 081220Z 35010KT 9999 FEW030 31/17 Q1009=
METAR LGTS 081220Z 34019G29KT 9999 FEW025 24/11 Q1016 NOSIG=
####018000072####
SASN34 ESWI 081220 RRA
METAR ESDF 081220Z 21010KT CAVOK 23/12 Q1020=
####018000498####
SAGR32 LGAT 081220
METAR LGAL 081220Z 03007KT 0000 FEW020TCU SCT025 21/15 Q1015=
METAR LGEL 081220Z 35013G23KT CAVOK 29/12 Q1011=
METAR LGKV 081220Z 06010KT 6000 TSRA SCT020CB SCT025TCU BKN080 18/16
      Q1014=
METAR LGMT 081220Z 36015KT 9999 FEW025 27/18 Q1011=
METAR LGPZ 081220Z 25011KT 9999 FEW025 27/19 Q1013 NOSIG=
METAR LGRX 081220Z 28011KT 9999 FEW025 28/14 Q1012 NOSIG=
METAR LGSK 081220Z NIL=
METAR LGSR 081220Z 01014KT 9999 FEW025 27/18 Q1011 NOSIG=
METAR LGZA 081220Z NIL=
####018000255####
SPUS80 KWBC 081228
SPECI
KLXV 081223Z AUTO 11003KT 7SM OVC002 06/05 A3052 RMK AO2 CIG
     001V005 TSNO=
KSBN 081226Z 22003KT 3SM -TSRA BR BKN020 BKN035CB OVC046 23/22
     A3006 RMK AO2 TSB25RAB1155 OCNL LTGIC OHD TS OHD MOV NE
     P0006=
####018000643####
SAUS70 KWBC 081228
METAR
KTDF 081224Z AUTO 00000KT 4SM CLR A3002 RMK AO1=
KBXK 081215Z AUTO 00000KT 10SM CLR 23/00 A2979 RMK AO1=
KPAN 081235Z AUTO 00000KT 10SM CLR 21/03 A3015 RMK AO1=
KRQO 081235Z AUTO 00000KT M1/4SM FG OVC001 23/23 A3009 RMK AO2=
K1H2 081225Z AUTO 22004KT 10SM OVC043 27/24 A3005 RMK AO2
     T02650236=
KAAA 081223Z AUTO 00000KT 4SM BR SCT044 BKN060 BKN100 23/22 A3004
     RMK AO2 T02290222=
KHQZ 081226Z AUTO 09003KT 7SM OVC060 25/23 A3004 RMK AO2=
KORG 081225Z AUTO 08008KT 5SM BR OVC006 16/14 A2999 RMK AO2 LTG
     DSNT SW AND W=
KPVW 081221Z AUTO 03006KT 10SM BKN007 18/17 A3016 RMK AO2=
####018000280####
SANL31 EHDB 081225
METAR EHAM 081225Z 26007KT 190V360 CAVOK 25/13 Q1019 NOSIG=
METAR EHBK 081225Z AUTO VRB04KT 9999NDV NCD 30/11 Q1019 NOSIG=
METAR EHGG 081225Z AUTO 26011KT 210V310 9999NDV NSC 27/12 Q1019
NOSIG=
METAR EHRD 081225Z 28004KT 220V340 CAVOK 25/16 Q1019 NOSIG=
####018000353####
SABX31 KWBC 081220 RRA
METAR
EBAW 081220Z 23007KT 180V300 CAVOK 30/12 Q1019 NOSIG=
EBBR 081220Z VRB04KT CAVOK 30/12 Q1019 NOSIG=
EBCI 081220Z 35004KT 300V070 CAVOK 29/10 Q1019 NOSIG=
EBLG 081220Z 28008KT 250V330 CAVOK 30/09 Q1020 NOSIG=
EBOS 081220Z 35006KT 320V020 CAVOK 22/16 Q1019 NOSIG=
ELLX 081220Z VRB04KT CAVOK 30/06 Q1021 NOSIG=
####018000098####
SADL52 ETGT 081220 RRA
METAR
ETSL 081220Z 10005KT 9999 FEW040 25/08 Q1022
      BLU+BLU+=
####018000149####
SAEN31 KWBC 081220 RRA
METAR
EFIV 081220Z AUTO 20005KT 130V300 CAVOK 22/08 Q1015=
EFKE 081220Z AUTO 21007KT 170V260 9999 FEW043 21/13 Q1015=
####018000121####
SPJP42 KWBC 081228
SPECI
RJFN 081221Z 13003KT 4000 BR FEW020 BKN/// 24/23 Q1009 RMK 1CU020
A2982 VIS SW-W 3500M=
####018000369####
SAEM31 KWBC 081200 RRD
METAR
LOWG 081220Z VRB03KT CAVOK 26/11 Q1022 NOSIG=
LOWI 081220Z 09005KT 010V150 9999 FEW080 28/14 Q1020 NOSIG=
LOWK 081220Z VRB03KT 9999 FEW060 26/10 Q1022 NOSIG=
LOWL 081220Z 07004KT 340V150 CAVOK 24/09 Q1022 NOSIG=
LOWS 081220Z VRB02KT 9999 FEW070 25/07 Q1022 NOSIG=
LOWW 081220Z 33007KT 290V010 9999 FEW055 24/10 Q1022 NOSIG=
####018000087####
SAIY41 KWBC 081220 RRA
METAR
LIMC 081220Z VRB05KT 9999 FEW025 28/15 Q1021 NOSIG=
####018000625####
SAIY31 KWBC 081220 RRA
METAR
LIBD 081220Z 02014KT CAVOK 25/12 Q1020=
LIBR 081215Z /////KT CAVOK 25/13 Q1018 NOSIG=
LICC 081220Z 11012KT CAVOK 28/21 Q1018=
LICJ 081220Z 03013KT 9999 FEW018 27/23 Q1018=
LIEA 081220Z 18008KT 150V210 9999 FEW025 32/22 Q1019=
LIEE 081215Z 16011KT 9999 FEW020 28/21 Q1019 NOSIG=
LIEO 081220Z 05011KT CAVOK 30/21 Q1019=
LIMC 081220Z VRB05KT 9999 FEW025 28/15 Q1021 NOSIG=
LIME 081220Z 11005KT 060V160 9999 BKN050 27/15 Q1022=
LIMF 081220Z 03003KT 9999 BKN060 26/15 Q1022=
LIMJ 081220Z 16006KT 9999 FEW035 29/25 Q1020=
LIML 081220Z VRB03KT 9999 FEW030 28/15 Q1021 NOSIG=
####018000499####
SAIY32 KWBC 081220 RRA
METAR
LIPE 081220Z VRB05KT CAVOK 30/14 Q1020=
LIPH 081215Z 15004KT 9999 SCT025 27/20 Q1022=
LIPQ 081220Z VRB02KT CAVOK 27/14 Q1022=
LIPR 081215Z 07012KT CAVOK 28/19 Q1021=
LIPX 081215Z 29001KT 9999 FEW040 30/13 Q1021=
LIPZ 081220Z 13007KT CAVOK 27/18 Q1022=
LIRA 081215Z 27008KT 180V310 9999 FEW018 30/17 Q1020=
LIRF 081220Z 23011KT 190V260 CAVOK 29/19 Q1020 NOSIG=
LIRP 081215Z 12003KT CAVOK 30/15 Q1020 NOSIG=
LIRQ 081220Z VRB04KT CAVOK 31/13 Q1019=
####018000081####
SAIY43 KWBC 081220 RRA
METAR
LIPX 081215Z 29001KT 9999 FEW040 30/13 Q1021=
####018000434####
SANL31 KWBC 081220 RRA
METAR
EHDL 081225Z AUTO 24007KT 9999NDV BKN140 29/12 Q1018 BLU=
EHGR 081225Z AUTO 22006KT 9999NDV FEW069 BKN400 30/11 Q1018 BLU
     BLU=
EHLW 081225Z AUTO 23008KT 9999NDV BKN068 OVC084 24/17 Q1019 BLU
     BLU=
EHVK 081225Z AUTO 28006KT 9999NDV NCD 31/11 Q1018 BLU BLU=
EHVL 081225Z AUTO 25011KT 9999NDV OVC058 20/16 Q1019 BLU=
EHWO 081225Z AUTO 29007KT 9999NDV FEW390 28/12 Q1019 BLU BLU=
####018000143####
SASW31 KWBC 081220 RRA
METAR
LSZA 081220Z 18005KT 140V220 9999 FEW055 28/16 Q1022 NOSIG=
LSZB 081220Z VRB03KT CAVOK 30/11 Q1021 NOSIG=
####018000188####
SAUK31 KWBC 081220 CCA
METAR
EGCC 081220Z 23012G22KT 200V280 9999 SCT038 BKN044 19/10 Q1017
     NOSIG=
EGLL 081220Z 24009KT 190V290 9999 SCT023 SCT033 23/14 Q1018
     NOSIG=
####018000087####
SAUK32 KWBC 081220 RRA
METAR
EGNS 081220Z 20011KT 9999 FEW025 17/12 Q1016 NOSIG=
####018000116####
SAUK41 KWBC 081150 RRD
METAR
EGDM 081150Z 20008KT 9999 SCT022 SCT250 20/15 Q1018 WHT BECMG
     SCT025 BLU=
####018000075####
SAXX61 KWBC 081200 RRD
METAR
LIRN 081220Z 06009KT CAVOK 29/14 Q1019=
####018001549####
SAXX99 KWBC 081200 RRT
METAR
EFET 081220Z AUTO 17008KT 110V210 CAVOK 20/06 Q1013=
EFJO 081220Z AUTO 05004KT 360V130 CAVOK 28/18 Q1014=
EFKI 081220Z AUTO 33005KT 290V010 CAVOK 23/14 Q1015=
EFKS 081220Z AUTO 06003KT CAVOK 20/10 Q1016=
EFKT 081220Z AUTO 15008KT 110V200 CAVOK 21/09 Q1014=
EFLP 081220Z AUTO 16007KT 090V240 CAVOK 31/14 Q1013=
EFMI 081220Z AUTO VRB02KT 9999 FEW042 SCT065 28/18 Q1014=
EFSA 081220Z 16002KT 9999 FEW055TCU FEW055CB 30/17 Q1014=
EFUT 081220Z 18010KT 130V220 CAVOK 30/14 Q1013=
EFVR 081225Z NIL=
EGXT 081150Z 23012KT 9999 FEW035 BKN250 21/05 Q1018=
ETGZ 081220Z 24003KT 9999 FEW330 25/08 Q1024 BLU/=
ETHE 081220Z 18005KT 9999 FEW070 BKN300 30/10 Q1019 BLU/BLU/=
ETMN 081220Z 24007KT 9999 BKN110 SCT270 28/10 Q1019 BLU BLU/ TEMPO
     BLU=
ETND 081220Z 24007KT 9999 FEW060 SCT280 30/10 Q1019 BLU/=
ETNH 081220Z 25010KT 9999 BKN120 SCT280 27/09 Q1019 BLU BLU/ TEMPO
     BLU=
ETNN 081220Z 16005KT 9999 FEW060 SCT300 31/04 Q1019 BLU/BLU/=
ETNS 081220Z 22011KT 9999 FEW070 SCT120 BKN240 28/06 Q1019
     BLU/BLU=
ETNT 081220Z 25009KT 9999 FEW060 SCT110 29/12 Q1018 BLU/BLU/=
ETNW 081220Z 21007KT 9999 FEW070 SCT300 30/10 Q1019 BLU/BLU/=
ETSA 081220Z 04004KT 9999 25/10 Q1023 BLU/BLU/=
ETSH 081220Z 21004KT 9999 FEW150 SCT250 28/07 Q1021 BLU/BLU/=
ETSI 081220Z 14004KT 9999 26/07 Q1022 BLU/BLU/=
ETSN 081220Z 07005KT 9999 FEW160 26/07 Q1022 BLU/=
ETWM 081220Z 25007KT 9999 FEW070 BKN210 29/08 Q1018 BLU/=
LOXZ 081220Z VRB04KT 70KM FEW060CU 25/11 Q1022 NOSIG RMK FEW=
####018000095####
SAZA31 KWBC 081200 RRA
METAR
FAJS 081230Z 08007KT 030V130 9999 SCT045 16/04 Q1033 NOSIG=
####018001704####
SAEU KAWN 081200 RRX
METAR EGDM 081150Z 20008KT 9999 SCT022 SCT250 20/15 Q1018 WHT BECMG
      SCT025 BLU=
METAR COR EGLL 081220Z 24009KT 190V290 9999 SCT023 SCT033 23/14 Q1018
      NOSIG=
METAR EGNS 081220Z 20011KT 9999 FEW025 17/12 Q1016 NOSIG=
METAR EHAM 081225Z 26007KT 190V360 CAVOK 25/13 Q1019 NOSIG=
METAR EHBK 081225Z AUTO VRB04KT 9999NDV NCD 30/11 Q1019 NOSIG=
METAR EHDL 081225Z AUTO 24007KT 9999NDV BKN140 29/12 Q1018 BLU=
METAR EHGG 081225Z AUTO 26011KT 210V310 9999NDV NSC 27/12 Q1019 NOSIG=
METAR EHGR 081225Z AUTO 22006KT 9999NDV FEW069 BKN400 30/11 Q1018 BLU
      BLU=
METAR EHLW 081225Z AUTO 23008KT 9999NDV BKN068 OVC084 24/17 Q1019 BLU
      BLU=
METAR EHRD 081225Z 28004KT 220V340 CAVOK 25/16 Q1019 NOSIG=
METAR EHVK 081225Z AUTO 28006KT 9999NDV NCD 31/11 Q1018 BLU BLU=
METAR EHVL 081225Z AUTO 25011KT 9999NDV OVC058 20/16 Q1019 BLU=
METAR EHWO 081225Z AUTO 29007KT 9999NDV FEW390 28/12 Q1019 BLU BLU=
METAR LGIR 081220Z 35008KT 9999 FEW020 29/23 Q1011 NOSIG=
METAR LGKL 081220Z 34012G25KT 9999 FEW030 33/12 Q1011=
METAR LGKO 081220Z 31017KT 280V340 CAVOK 29/18 Q1009=
METAR LGKR 081220Z 31022KT CAVOK 28/10 Q1013 NOSIG=
METAR LGSM 081220Z 35010KT 9999 FEW030 31/17 Q1009=
METAR LGTS 081220Z 34019G29KT 9999 FEW025 24/11 Q1016 NOSIG=
METAR LIMF 081220Z 03003KT 9999 BKN060 26/15 Q1022=
METAR LIRN 081220Z 06009KT CAVOK 29/14 Q1019=
METAR LIRP 081215Z 12003KT CAVOK 30/15 Q1020 NOSIG=
METAR LSZA 081220Z 18005KT 140V220 9999 FEW055 28/16 Q1022 NOSIG=
METAR LSZB 081220Z VRB03KT CAVOK 30/11 Q1021 NOSIG=
METAR LWOH 081230Z 34010KT 9999 FEW040 BKN050 20/10 Q1019=
METAR LWSK 081230Z 35013KT 9999 BKN046 19/11 Q1020 NOSIG=
####018000076####
SPUS52 KWBC 081228
SPECI
KTOP 081225Z 35003KT 7SM BKN007 23/21 A3008=
####018000103####
SPUS53 KWBC 081228
SPECI
KSBN 081226Z 22003KT 3SM -TSRA BR BKN020 BKN035CB OVC046 23/22
A3006=
####018000620####
SAGR31 LGAT 081220
METAR LGAD 081220Z 29010KT 9999 FEW020 27/15 Q1014=
METAR LGAV 081220Z 04020KT 9999 SCT030 26/13 Q1013 NOSIG=
METAR LGIR 081220Z 35008KT 9999 FEW020 29/23 Q1011 NOSIG=
METAR LGKL 081220Z 34012G25KT 9999 FEW030 33/12 Q1011=
METAR LGKO 081220Z 31017KT 280V340 CAVOK 29/18 Q1009=
METAR LGKR 081220Z 31022KT CAVOK 28/10 Q1013 NOSIG=
METAR LGLM 081220Z 03013KT 9999 FEW008 SCT020 21/16 Q1013=
METAR LGRP 081220Z NIL=
METAR LGSA 081220Z 35012KT 9999 FEW020 33/14 Q1012=
METAR LGSM 081220Z 35010KT 9999 FEW030 31/17 Q1009=
METAR LGTS 081220Z 34019G29KT 9999 FEW025 24/11 Q1016 NOSIG=
####018000508####
SAGR32 LGAT 081220
METAR LGAL 081220Z 03007KT 0000 FEW020TCU SCT025 21/15 Q1015=
METAR LGEL 081220Z 35013G23KT CAVOK 29/12 Q1011=
METAR LGKV 081220Z 06010KT 6000 TSRA SCT020CB SCT025TCU BKN080 18/16
      Q1014=
METAR LGMT 081220Z 36015KT 9999 FEW025 27/18 Q1011=
METAR LGPZ 081220Z 25011KT 9999 FEW025 27/19 Q1013 NOSIG=
METAR LGRX 081220Z 28011KT 9999 FEW025 28/14 Q1012 NOSIG=
METAR LGSK 081220Z NIL=
METAR LGSR 081220Z 01014KT 9999 FEW025 27/18 Q1011 NOSIG=
METAR LGZA 081220Z NIL=
####018000286####
SAGR33 LGAT 081220
METAR LGHI 081220Z NIL=
METAR LGKC 081220Z NIL=
METAR LGKF 081220Z NIL=
METAR LGKP 081220Z NIL=
METAR LGKZ 081220Z NIL=
METAR LGMK 081220Z 02021G32KT 9999 FEW015 24/17 Q1012=
METAR LGNX 081220Z NIL=
METAR LGPA 081220Z NIL=
METAR LGSO 081220Z NIL=
####018000073####
SASN34 ESWI 081220 RRA
METAR ESDF 081220Z 21010KT CAVOK 23/12 Q1020=
####018000285####
SANL31 EHDB 081225
METAR EHAM 081225Z 26007KT 190V360 CAVOK 25/13 Q1019 NOSIG=
METAR EHBK 081225Z AUTO VRB04KT 9999NDV NCD 30/11 Q1019 NOSIG=
METAR EHGG 081225Z AUTO 26011KT 210V310 9999NDV NSC 27/12 Q1019
NOSIG=
METAR EHRD 081225Z 28004KT 220V340 CAVOK 25/16 Q1019 NOSIG=
####018000103####
SPUS73 KWBC 081228
SPECI
KSBN 081226Z 22003KT 3SM -TSRA BR BKN020 BKN035CB OVC046 23/22
A3006=
####018000103####
SPUS81 KWBC 081228
SPECI
KSBN 081226Z 22003KT 3SM -TSRA BR BKN020 BKN035CB OVC046 23/22
A3006=
####018000060####
SAUS45 KTFX 081228
MTR8S0
METAR K8S0 081125Z 26005KT 
####018000301####
SPUS17 KAWN 081228 RRD
SPECI KDYS 081222Z 00000KT 10SM BKN005 OVC009 22/21 A3007 RMK AO2A
      SLP163 $=
SPECI KIAB 081223Z AUTO 01009KT 10SM CLR 22/22 A3009 RMK AO2 RAB1208E1223DZB1221E1222
      SLP179=
SPECI KMGE 081211Z COR 00000KT 10SM CLR 25/20 A3007 RMK SLP169 COR
      1227 $=
####018000081####
SADL33 EDZO 081220 RRA
METAR EDLV 081220Z 16007KT 080V220 CAVOK 32/11 Q1019=
####018002936####
SAUS20 KNKA 081228
METAR K0F2 081224Z AUTO 14003KT 5SM BR SCT038 SCT065 23/22 A3004 
     RMK AO2 T02290219=
METAR K11R 081224Z AUTO 06006KT 5SM VCTS BR OVC006 25/24 A2996 
     RMK AO2 LTG DSNT E AND SE=
METAR K3LF 081223Z AUTO 23003KT 7SM SCT035 BKN040 BKN065 25/23 
     A3005 RMK AO2=
METAR K3T5 081224Z AUTO 11006KT 4SM +RA SCT007 BKN013 OVC028 
     25/24 A2994 RMK AO2 LTG DSNT E P0007 T02520237=
METAR K5C1 081224Z AUTO 00000KT 7SM SCT004 SCT010 BKN050 23/22 
     A2999 RMK AO1=
METAR K6R3 081221Z AUTO 00000KT 5SM -RA SCT006 SCT011 SCT041 
     25/25 A2998 RMK AO2 LTG DSNT SW P0001 T02450245=
METAR KAJG 081225Z AUTO 00000KT 7SM CLR 25/23 A3005 RMK AO2 
     T02530232=
METAR KAPY 081222Z AUTO 34005KT 10SM CLR 25/24 A2985 RMK AO2 LTG 
     DSNT SE T02500243=
METAR KAQO 081225Z AUTO 00000KT 24/23 A3003 RMK AO2=
METAR KARM 081225Z AUTO 06005KT 10SM VCTS BKN017 BKN024 OVC032 
     26/24 A2993 RMK AO2 LTG DSNT N AND NE P0001 T02590243=
METAR KASW 081225Z AUTO 00000KT 10SM CLR 26/21 A3006 RMK AO2 
     T02610209=
METAR KAXH 081225Z AUTO 07004KT 10SM TS SCT060 BKN075 BKN090 
     25/23 A2994 RMK AO2 LTG DSNT N AND NE T02500230=
METAR KBBD 081225Z AUTO 07003KT 10SM FEW033 OVC050 23/22 A3004 RMK=
METAR KBEA 081223Z AUTO 05005KT 7SM RA SCT017 BKN048 OVC085 24/24 
     A2987 RMK AO2 P0004 T02420242=
METAR KBKD 081221Z AUTO 00000KT 4SM BR BKN002 OVC012 24/23 A3004 
     RMK AO2 T02350230=
METAR KBKS 081226Z AUTO 36006KT 10SM SCT004 SCT021 SCT025 26/25 
     A2982 RMK AO1 T02610247=
METAR KBPC 081228Z AUTO 02003KT 10SM OVC008 20/18 A3018 RMK AO2=
METAR KBPG 081225Z AUTO 02009KT 7SM SCT004 OVC010 22/21 A3012 RMK 
     AO1 T02200206=
METAR KBYY 081226Z AUTO 10004KT 4SM -RA SCT015 BKN032 OVC055 
     26/25 A2990 RMK AO2 T02600252=
METAR KC09 081224Z AUTO 00000KT 2SM BR BKN005 OVC024 22/21 A3004 
     RMK AO2=
METAR KC75 081223Z AUTO 00000KT 5SM BR SCT008 BKN013 OVC017 24/23 
     A3003 RMK AO2=
METAR KCIR 081222Z AUTO 00000KT 10SM SCT110 27/23 A3007 RMK AO2=
METAR KCPT 081225Z AUTO 07004KT 7SM BKN008 BKN013 OVC019 24/24 
     A3005 RMK AO2=
METAR KCUL 081225Z AUTO 17003KT 10SM CLR 25/23 A3005 RMK AO2 
     T02540226=
METAR KCVB 081224Z AUTO 05006KT 7SM SCT046 25/24 A2995 RMK AO2 
     T02510243=
METAR KCWC 081225Z AUTO 00000KT 10SM CLR 24/22 A3004 RMK AO2 
     T02370222=
METAR KDKB 081221Z AUTO 26005KT 2 1/2SM BR BKN004 OVC016 22/21 
     A3005 RMK AO2 T02160212=
METAR KDKR 081225Z AUTO 09005KT 5SM  BR CLR 24/24 A3004 RMK AO2 
     LTG DSNT N=
METAR KDNV 081225Z AUTO 00000KT 7SM CLR 25/22 A3002 RMK AO2 
     T02460216=
SPECI KDVN 081227Z AUTO 30005KT 4SM BR BKN006 OVC012 23/22 A3005 RMK 
    AO2 CIG 003V008=
METAR KDZB 081225Z AUTO 00000KT 4SM BR BKN007 BKN012 OVC017 24/24 
     A2999 RMK AO2 LTG DSNT E T02380240=
METAR KECU 081225Z AUTO 06004KT 7SM SCT004 22/21 A3010 RMK AO2=
####018000075####
SACN94 CWAO 081222
WQR SA 1222 AUTO8 M M M M/12/12/1005/M/M M 55MM=

####018000385####
SAAM31 FCBB 081200 RRC
METAR COR FKKD 081200Z 25006KT 180V340 9999 -RA BKN016 FEW020CB 28/26
      Q1014 TEMPO 4000 -TSRA BKN013 SCT016CB BKN100=
METAR COR FEFF 081200Z 20004KT 9999 FEW026 BKN300 30/21 Q1013 NOSIG=
METAR FGSL 081200Z 28006KT 250V310 9999 TS BKN013 FEW020CB BKN130
      26/25 Q1014 NOSIG=
METAR FPST 081200Z 15012KT 9999 FEW020 BKN110 28/22 Q1014 NOSIG=
####018001034####
SAAM20 FCBB 081200
METAR FCBB 081200Z 23007KT 190V280 6000 BKN022 26/19 Q1014 NOSIG=
METAR FCPP 081200Z 20008KT 7000 FEW017 BKN033 24/21 Q1013 NOSIG=
METAR COR FKKD 081200Z 25006KT 180V340 9999 -RA BKN016 FEW020CB 28/26
      Q1014 TEMPO 4000 -TSRA BKN013 SCT016CB BKN100=
METAR FKYS 081200Z 19003KT 140V240 9999 BKN016 26/20 Q1017 NOSIG=
METAR FKKR 081200Z 08004KT 9999 SCT020 BKN130 27/22 Q1012 NOSIG=
METAR FKKN NIL=
METAR FKKL NIL=
METAR FEFT NIL=
METAR FEFG NIL=
METAR COR FEFF 081200Z 20004KT 9999 FEW026 BKN300 30/21 Q1013 NOSIG=
METAR FOOL 081200Z 22005KT 180V270 8000 SCT011 28/22 Q1014 NOSIG=
METAR FOOG NIL=
METAR FOON NIL=
METAR FGSL 081200Z 28006KT 250V310 9999 TS BKN013 FEW020CB BKN130
      26/25 Q1014 NOSIG=
METAR FGBT NIL=
METAR FZRF NIL=
METAR FZOS NIL=
METAR FZAA 081200Z 23006KT 4000 BR SCT021 26/19 Q1013 NOSIG=
METAR FZIC NIL=
METAR FZFK NIL=
METAR FZQA NIL=
METAR FNHU NIL=
METAR FNLU NIL=
METAR FPST 081200Z 15012KT 9999 FEW020 BKN110 28/22 Q1014 NOSIG=
####018002672####
SAUS20 KNKA 081228
METAR KENL 081224Z AUTO 21007KT 10SM SCT045 BKN065 27/19 A3005 
     RMK AO2 T02700187=
METAR KERV 081225Z AUTO 04003KT 10SM SCT012 SCT017 BKN026 23/22 
     A3001 RMK AO2 T02330215=
METAR KF05 081224Z AUTO 05007KT 10SM BKN028 OVC034 24/22 A3006 
     RMK AO2 T02400223=
METAR KFEP 081225Z AUTO 29004KT 10SM SCT008 24/21 A3005 RMK AO2 
     T02350214=
SPECI KFLD 081227Z AUTO 27005KT 10SM BKN005 BKN009 22/21 A3002 RMK 
    AO2 CIG 003V009=
METAR KFOA 081225Z AUTO 00000KT 7SM CLR 27/26 A3005 RMK AO2 
     T02680258=
METAR KFWC 081225Z AUTO 00000KT 10SM CLR 26/24 A3005 RMK AO2=
METAR KFWS 081225Z AUTO 00000KT 5SM -DZ BKN022 BKN028 OVC039 
     25/24 A3004 RMK AO2 T02480235=
METAR KGBG 081225Z AUTO 30004KT 7SM OVC006 23/22 A3004 RMK AO2=
METAR KGDJ 081224Z AUTO 10005KT 10SM DZ BKN008 OVC039 26/24 A3004 
     RMK AO2 T02560237=
METAR KGLE 081224Z AUTO 14003KT 10SM BKN060 OVC075 26/23 A3006 
     RMK AO2=
METAR KGNC 081225Z AUTO 07006KT 2 1/2SM +RA SCT007 BKN017 OVC075 
     20/19 A3016 RMK AO2 P0012 T01990191=
METAR KHBV 081220Z AUTO 35008KT 10SM SCT008 SCT015 25/24 A2987 
     RMK AO2 T02470235=
SPECI KHOT 081227Z AUTO 10003KT 8SM FEW005 OVC010 24/23 A3009 RMK 
    AO2 CIG 008V014=
METAR KIKK 081225Z AUTO 00000KT 2 1/2SM HZ SCT060 SCT100 26/23 
     A3004 RMK AO2=
SPECI KJLN 081227Z 00000KT 5SM VCTS BR BKN004 BKN024 OVC075 22/22 
    A3008 RMK AO2 TSB22RAB15E22 FRQ LTGIC OVHD P0001=
METAR KJOT 081226Z AUTO 00000KT 2 1/2SM -RA SCT024 SCT033 SCT040 
     23/22 A3003 RMK AO2=
METAR KLOT 081222Z AUTO 00000KT 2SM BR BKN024 BKN039 OVC055 23/23 
     A3003 RMK AO2=
SPECI KNSE 081215Z 00000KT 5SM BR FEW250 26/23 A3003 RMK AO2 VIS E
      AND W 3 $=
METAR KOLY 081223Z AUTO 00000KT 10SM SCT046 27/23 A3005 RMK AO2=
METAR KOXI 081225Z AUTO 35003KT 1 1/2SM SCT008 SCT019 BKN055 
     23/22 A3004 RMK AO1 T02270215=
METAR KOZA 081221Z AUTO 00000KT 7SM BKN020 BKN120 22/22 A3008 RMK 
     AO2 T02240216=
METAR KPNT 081225Z AUTO 15003KT 5SM BR SCT008 BKN070 OVC085 23/22 
     A3004 RMK AO2=
METAR KPPQ 081225Z AUTO 00000KT 7SM SCT001 23/23 A3007 RMK AO2=
METAR KPRG 081225Z AUTO 21004KT 7SM SCT035 26/23 A3006 RMK AO2 
     T02580234=
METAR KRPJ 081225Z AUTO 00000KT 4SM BR SCT005 SCT012 SCT016 22/20 
     A3005 RMK AO2 T02150202=
METAR KRSV 081222Z AUTO 00000KT 10SM CLR 27/24 A3006 RMK AO2 
     T02700240=
SPECI KSBN 081226Z 22003KT 3SM -TSRA BR BKN020 BKN035CB OVC046
     23/22 A3006 RMK AO2 TSB25RAB1155 OCNL LTGIC OHD TS OHD MOV NE
     P0006=
METAR KSFY 081225Z AUTO 32005KT 5SM BR BKN007 BKN011 23/22 A3005 
     RMK AO2=
####018000100####
SAUS46 KSGX 081228
MTRNXF
SPECI KNXF 081227Z AUTO 34003KT 7SM OVC013 17/13 A2990 RMK AO2 TSNO
####018000175####
SAUS20 KNKA 081228
SPECI KDGW 081227Z AUTO 00000KT 10SM SCT001 06/06 A3035 RMK AO2 $=
SPECI KILG 081227Z 17006KT 1 1/2SM BR BKN003 26/23 A3004 RMK AO2 SFC 
    VIS 2=
####018003697####
SAUS99 KWBC 081229
METAR
K0F2 081224Z AUTO 14003KT 5SM BR SCT038 SCT065 23/22 A3004 RMK AO2
     T02290219=
K11R 081224Z AUTO 06006KT 5SM VCTS BR OVC006 25/24 A2996 RMK AO2
     LTG DSNT E AND SE=
K3LF 081223Z AUTO 23003KT 7SM SCT035 BKN040 BKN065 25/23 A3005 RMK
     AO2=
K3T5 081224Z AUTO 11006KT 4SM +RA SCT007 BKN013 OVC028 25/24 A2994
     RMK AO2 LTG DSNT E P0007 T02520237=
K5C1 081224Z AUTO 00000KT 7SM SCT004 SCT010 BKN050 23/22 A2999 RMK
     AO1=
K6R3 081221Z AUTO 00000KT 5SM -RA SCT006 SCT011 SCT041 25/25 A2998
     RMK AO2 LTG DSNT SW P0001 T02450245=
KAJG 081225Z AUTO 00000KT 7SM CLR 25/23 A3005 RMK AO2
     T02530232=
KAPY 081222Z AUTO 34005KT 10SM CLR 25/24 A2985 RMK AO2 LTG DSNT SE
     T02500243=
KAQO 081225Z AUTO 00000KT 24/23 A3003 RMK AO2=
KARM 081225Z AUTO 06005KT 10SM VCTS BKN017 BKN024 OVC032 26/24
     A2993 RMK AO2 LTG DSNT N AND NE P0001 T02590243=
KASW 081225Z AUTO 00000KT 10SM CLR 26/21 A3006 RMK AO2
     T02610209=
KAXH 081225Z AUTO 07004KT 10SM TS SCT060 BKN075 BKN090 25/23 A2994
     RMK AO2 LTG DSNT N AND NE T02500230=
KBBD 081225Z AUTO 07003KT 10SM FEW033 OVC050 23/22 A3004 RMK=
KBEA 081223Z AUTO 05005KT 7SM RA SCT017 BKN048 OVC085 24/24 A2987
     RMK AO2 P0004 T02420242=
KBKD 081221Z AUTO 00000KT 4SM BR BKN002 OVC012 24/23 A3004 RMK AO2
     T02350230=
KBKS 081226Z AUTO 36006KT 10SM SCT004 SCT021 SCT025 26/25 A2982
     RMK AO1 T02610247=
KBPC 081228Z AUTO 02003KT 10SM OVC008 20/18 A3018 RMK AO2=
KBPG 081225Z AUTO 02009KT 7SM SCT004 OVC010 22/21 A3012 RMK AO1
     T02200206=
KBYY 081226Z AUTO 10004KT 4SM -RA SCT015 BKN032 OVC055 26/25 A2990
     RMK AO2 T02600252=
KC09 081224Z AUTO 00000KT 2SM BR BKN005 OVC024 22/21 A3004 RMK
     AO2=
KC75 081223Z AUTO 00000KT 5SM BR SCT008 BKN013 OVC017 24/23 A3003
     RMK AO2=
KCIR 081222Z AUTO 00000KT 10SM SCT110 27/23 A3007 RMK AO2=
KCPT 081225Z AUTO 07004KT 7SM BKN008 BKN013 OVC019 24/24 A3005 RMK
     AO2=
KCUL 081225Z AUTO 17003KT 10SM CLR 25/23 A3005 RMK AO2
     T02540226=
KCVB 081224Z AUTO 05006KT 7SM SCT046 25/24 A2995 RMK AO2
     T02510243=
KCWC 081225Z AUTO 00000KT 10SM CLR 24/22 A3004 RMK AO2
     T02370222=
KDKB 081221Z AUTO 26005KT 2 1/2SM BR BKN004 OVC016 22/21 A3005 RMK
     AO2 T02160212=
KDKR 081225Z AUTO 09005KT 5SM BR CLR 24/24 A3004 RMK AO2 LTG DSNT
     N=
KDNV 081225Z AUTO 00000KT 7SM CLR 25/22 A3002 RMK AO2
     T02460216=
KDZB 081225Z AUTO 00000KT 4SM BR BKN007 BKN012 OVC017 24/24 A2999
     RMK AO2 LTG DSNT E T02380240=
KECU 081225Z AUTO 06004KT 7SM SCT004 22/21 A3010 RMK AO2=
KENL 081224Z AUTO 21007KT 10SM SCT045 BKN065 27/19 A3005 RMK AO2
     T02700187=
KERV 081225Z AUTO 04003KT 10SM SCT012 SCT017 BKN026 23/22 A3001
     RMK AO2 T02330215=
KF05 081224Z AUTO 05007KT 10SM BKN028 OVC034 24/22 A3006 RMK AO2
     T02400223=
KFEP 081225Z AUTO 29004KT 10SM SCT008 24/21 A3005 RMK AO2
     T02350214=
KFOA 081225Z AUTO 00000KT 7SM CLR 27/26 A3005 RMK AO2
     T02680258=
KFWC 081225Z AUTO 00000KT 10SM CLR 26/24 A3005 RMK AO2=
KFWS 081225Z AUTO 00000KT 5SM -DZ BKN022 BKN028 OVC039 25/24 A3004
     RMK AO2 T02480235=
KGBG 081225Z AUTO 30004KT 7SM OVC006 23/22 A3004 RMK AO2=
KGDJ 081224Z AUTO 10005KT 10SM DZ BKN008 OVC039 26/24 A3004 RMK
     AO2 T02560237=
KGLE 081224Z AUTO 14003KT 10SM BKN060 OVC075 26/23 A3006 RMK
     AO2=
KGNC 081225Z AUTO 07006KT 2 1/2SM +RA SCT007 BKN017 OVC075 20/19
     A3016 RMK AO2 P0012 T01990191=
KHBV 081220Z AUTO 35008KT 10SM SCT008 SCT015 25/24 A2987 RMK AO2
     T02470235=
KIKK 081225Z AUTO 00000KT 2 1/2SM HZ SCT060 SCT100 26/23 A3004 RMK
     AO2=
####018000913####
SAUS99 KWBC 081229 RRA
METAR
KJOT 081226Z AUTO 00000KT 2 1/2SM -RA SCT024 SCT033 SCT040 23/22
     A3003 RMK AO2=
KLOT 081222Z AUTO 00000KT 2SM BR BKN024 BKN039 OVC055 23/23 A3003
     RMK AO2=
KOLY 081223Z AUTO 00000KT 10SM SCT046 27/23 A3005 RMK AO2=
KOXI 081225Z AUTO 35003KT 1 1/2SM SCT008 SCT019 BKN055 23/22 A3004
     RMK AO1 T02270215=
KOZA 081221Z AUTO 00000KT 7SM BKN020 BKN120 22/22 A3008 RMK AO2
     T02240216=
KPNT 081225Z AUTO 15003KT 5SM BR SCT008 BKN070 OVC085 23/22 A3004
     RMK AO2=
KPPQ 081225Z AUTO 00000KT 7SM SCT001 23/23 A3007 RMK AO2=
KPRG 081225Z AUTO 21004KT 7SM SCT035 26/23 A3006 RMK AO2
     T02580234=
KRPJ 081225Z AUTO 00000KT 4SM BR SCT005 SCT012 SCT016 22/20 A3005
     RMK AO2 T02150202=
KRSV 081222Z AUTO 00000KT 10SM CLR 27/24 A3006 RMK AO2
     T02700240=
KSFY 081225Z AUTO 32005KT 5SM BR BKN007 BKN011 23/22 A3005 RMK
     AO2=
####018000078####
SAGR31 LGAT 081220 RRA
METAR LGRP 081220Z 25014KT CAVOK 29/19 Q1008 NOSIG=
####018000095####
SAAF14 LFPW 081200 CCA
METAR COR FEFF 081200Z 20004KT 9999 FEW026 BKN300 30/21 Q1013 NOSIG=
####018000074####
SAEW LEJR 081230
METAR LEJR 081230Z 22005KT 130V300 CAVOK 32/14 Q1016=
####018000163####
SANL32 EHDB 081225
METAR EHEH 081225Z AUTO 28006KT 9999NDV NCD 31/11 Q1018 
BLU BLU=
METAR EHKD 081225Z AUTO 25010KT 9999NDV OVC075/// 21/15 Q1019 
BLU BLU=
####018000775####
SPUS99 KWBC 081229
SPECI
KDVN 081227Z AUTO 30005KT 4SM BR BKN006 OVC012 23/22 A3005 RMK AO2
     CIG 003V008=
KFLD 081227Z AUTO 27005KT 10SM BKN005 BKN009 22/21 A3002 RMK AO2
     CIG 003V009=
KHOT 081227Z AUTO 10003KT 8SM FEW005 OVC010 24/23 A3009 RMK AO2
     CIG 008V014=
KJLN 081227Z 00000KT 5SM VCTS BR BKN004 BKN024 OVC075 22/22 A3008
     RMK AO2 TSB22RAB15E22 FRQ LTGIC OVHD P0001=
KNSE 081215Z 00000KT 5SM BR FEW250 26/23 A3003 RMK AO2 VIS E AND W
     3 $=
KSBN 081226Z 22003KT 3SM -TSRA BR BKN020 BKN035CB OVC046 23/22
     A3006 RMK AO2 TSB25RAB1155 OCNL LTGIC OHD TS OHD MOV NE
     P0006=
KDGW 081227Z AUTO 00000KT 10SM SCT001 06/06 A3035 RMK AO2 $=
KILG 081227Z 17006KT 1 1/2SM BR BKN003 26/23 A3004 RMK AO2 SFC VIS
     2=
####018000150####
SAAF11 LFPW 081200 CCB
METAR COR FKKD 081200Z 25006KT 180V340 9999 -RA BKN016 FEW020CB 28/26
      Q1014 TEMPO 4000 -TSRA BKN013 SCT016CB BKN100=
####018000704####
SAAM31 FCBB 081200
METAR FCBB 081200Z 23007KT 190V280 6000 BKN022 26/19 Q1014 NOSIG=
METAR FCPP 081200Z 20008KT 7000 FEW017 BKN033 24/21 Q1013 NOSIG=
METAR COR FKKD 081200Z 25006KT 180V340 9999 -RA BKN016 FEW020CB 28/26
      Q1014 TEMPO 4000 -TSRA BKN013 SCT016CB BKN100=
METAR FKYS 081200Z 19003KT 140V240 9999 BKN016 26/20 Q1017 NOSIG=
METAR COR FEFF 081200Z 20004KT 9999 FEW026 BKN300 30/21 Q1013 NOSIG=
METAR FOOL 081200Z 22005KT 180V270 8000 SCT011 28/22 Q1014 NOSIG=
METAR FGSL 081200Z 28006KT 250V310 9999 TS BKN013 FEW020CB BKN130
      26/25 Q1014 NOSIG=
METAR FZAA 081200Z 23006KT 4000 BR SCT021 26/19 Q1013 NOSIG=
METAR FPST 081200Z 15012KT 9999 FEW020 BKN110 28/22 Q1014 NOSIG=
####018000379####
SAAM31 FCBB 081200 RRC
METAR COR FKKD 081200Z 25006KT 180V340 9999 -RA BKN016 FEW020CB 28/26
      Q1014 TEMPO 4000 -TSRA BKN013 SCT016CB BKN100=
METAR COR FEFF 081200Z 20004KT 9999 FEW026 BKN300 30/21 Q1013 NOSIG=
METAR FGSL 081200Z 28006KT 250V310 9999 TS BKN013 FEW020CB BKN130
      26/25 Q1014 NOSIG=
METAR FPST 081200Z 15012KT 9999 FEW020 BKN110 28/22 Q1014 NOSIG=
####018001008####
SAAM20 FCBB 081200
METAR FCBB 081200Z 23007KT 190V280 6000 BKN022 26/19 Q1014 NOSIG=
METAR FCPP 081200Z 20008KT 7000 FEW017 BKN033 24/21 Q1013 NOSIG=
METAR COR FKKD 081200Z 25006KT 180V340 9999 -RA BKN016 FEW020CB 28/26
      Q1014 TEMPO 4000 -TSRA BKN013 SCT016CB BKN100=
METAR FKYS 081200Z 19003KT 140V240 9999 BKN016 26/20 Q1017 NOSIG=
METAR FKKR 081200Z 08004KT 9999 SCT020 BKN130 27/22 Q1012 NOSIG=
METAR FKKN NIL=
METAR FKKL NIL=
METAR FEFT NIL=
METAR FEFG NIL=
METAR COR FEFF 081200Z 20004KT 9999 FEW026 BKN300 30/21 Q1013 NOSIG=
METAR FOOL 081200Z 22005KT 180V270 8000 SCT011 28/22 Q1014 NOSIG=
METAR FOOG NIL=
METAR FOON NIL=
METAR FGSL 081200Z 28006KT 250V310 9999 TS BKN013 FEW020CB BKN130
      26/25 Q1014 NOSIG=
METAR FGBT NIL=
METAR FZRF NIL=
METAR FZOS NIL=
METAR FZAA 081200Z 23006KT 4000 BR SCT021 26/19 Q1013 NOSIG=
METAR FZIC NIL=
METAR FZFK NIL=
METAR FZQA NIL=
METAR FNHU NIL=
METAR FNLU NIL=
METAR FPST 081200Z 15012KT 9999 FEW020 BKN110 28/22 Q1014 NOSIG=
####018000099####
SPUS31 KWBC 081229
SPECI
KPBI 081226Z 00000KT 6SM -RA BR SCT009 SCT028CB BKN042 26/26 A2996=
####018000083####
SPUS42 KWBC 081229
SPECI
KLCH 081226Z 06007KT 8SM BKN009 OVC021 26/24 A3000=
####018000715####
SAAM31 FCBB 081200
METAR FCBB 081200Z 23007KT 190V280 6000 BKN022 26/19 Q1014 NOSIG=
METAR FCPP 081200Z 20008KT 7000 FEW017 BKN033 24/21 Q1013 NOSIG=
METAR COR FKKD 081200Z 25006KT 180V340 9999 -RA BKN016 FEW020CB 28/26
      Q1014 TEMPO 4000 -TSRA BKN013 SCT016CB BKN100=
METAR FKYS 081200Z 19003KT 140V240 9999 BKN016 26/20 Q1017 NOSIG=
METAR COR FEFF 081200Z 20004KT 9999 FEW026 BKN300 30/21 Q1013 NOSIG=
METAR FOOL 081200Z 22005KT 180V270 8000 SCT011 28/22 Q1014 NOSIG=
METAR FGSL 081200Z 28006KT 250V310 9999 TS BKN013 FEW020CB BKN130
      26/25 Q1014 NOSIG=
METAR FZAA 081200Z 23006KT 4000 BR SCT021 26/19 Q1013 NOSIG=
METAR FPST 081200Z 15012KT 9999 FEW020 BKN110 28/22 Q1014 NOSIG=
####018000152####
SAAM31 FCBB 081200 CCB
METAR COR FKKD 081200Z 25006KT 180V340 9999 -RA BKN016 FEW020CB 28/26
      Q1014 TEMPO 4000 -TSRA BKN013 SCT016CB BKN100=
####018000096####
SAAM31 FCBB 081200 CCC
METAR COR FEFF 081200Z 20004KT 9999 FEW026 BKN300 30/21 Q1013 NOSIG=
####018000083####
SPUS72 KWBC 081229
SPECI
KLCH 081226Z 06007KT 8SM BKN009 OVC021 26/24 A3000=
####018000099####
SPUS72 KWBC 081229
SPECI
KPBI 081226Z 00000KT 6SM -RA BR SCT009 SCT028CB BKN042 26/26 A2996=
####018000079####
SAGR31 LGAT 081220 RRA
METAR LGRP 081220Z 25014KT CAVOK 29/19 Q1008 NOSIG=
####018000168####
SATU20 LTAA 081150 RRC
METAR LTCE 081220Z 33005KT 270V020 9999 SCT030 31/09 Q1016 NOSIG RMK
RWY08R 08007KT 020V110 RWY26R 36004KT 310V060 RWY08L 06007KT 010V110=
####018000167####
SANL32 EHDB 081225
METAR EHEH 081225Z AUTO 28006KT 9999NDV NCD 31/11 Q1018 
BLU BLU=
METAR EHKD 081225Z AUTO 25010KT 9999NDV OVC075/// 21/15 Q1019 
BLU BLU=
####018000085####
SAMD90 KWBC 081229
METAR K2G4 081225Z AUTO 02003KT 10SM CLR 24/14 A3020 RMK AO1=
####018000094####
SAMD90 KWBC 081229
METAR KCGE 081226Z AUTO 13005KT 5SM SCT006 SCT009 26/25 A3003 RMK AO1=
####018000084####
SAMD90 KWBC 081229
METAR K2W6 081228Z AUTO 08004KT 7SM CLR 27/24 A3002 RMK AO1=
####018000084####
SAMD90 KWBC 081229
METAR KFME 081230Z AUTO 10003KT 5SM CLR 26/23 A3004 RMK AO1=
####018000084####
SAMD90 KWBC 081229
METAR KCGS 081230Z AUTO 00000KT 5SM CLR 28/24 A3002 RMK AO1=
####018000087####
SAMD90 KWBC 081229
METAR KFDK 081228Z AUTO 00000KT 5SM HZ CLR 30/20 A3006 RMK AO2=
####018000084####
SAMD90 KWBC 081229
METAR KDMW 081228Z AUTO 12003KT 7SM CLR 28/22 A3006 RMK AO2=
####018000084####
SAMD90 KWBC 081229
METAR KCBE 081228Z AUTO 00000KT 7SM CLR 24/19 A3011 RMK AO1=
####018000084####
SAMD90 KWBC 081229
METAR KW29 081228Z AUTO 11003KT 5SM CLR 27/23 A3002 RMK AO1=
####018000091####
SPCN42 CWAO 081228
SPECI CYUA 081228Z AUTO 23007KT 3SM -DZ FEW011 BKN020 05/ A3006=

####018000075####
SPCN44 CWAO 081228
SPECI CYUS 081228Z AUTO ///// 9SM CLR 12/ A2979=

####018000106####
SAEU KAWN 081100 RRX
METAR EGVP 081050Z 23002KT 9999 BKN012 19/15 Q1018 GRN BECMG SCT025
      BLU=
####018000906####
SAUK KAWN 081200 RRG
METAR COR EGCC 081220Z 23012G22KT 200V280 9999 SCT038 BKN044 19/10
      Q1017 NOSIG=
METAR EGDM 081150Z 20008KT 9999 SCT022 SCT250 20/15 Q1018 WHT BECMG
      SCT025 BLU=
METAR EGHD 081220Z 21007KT 170V280 9999 FEW022 19/13 Q1020=
METAR EGHE 081220Z 20009KT 9999 FEW020 18/13 Q1019=
METAR EGJA 081220Z 25005KT 9999 FEW006 19/16 Q1020=
METAR EGJB 081220Z 25005KT 210V290 9999 FEW013 20/17 Q1020=
METAR EGJJ 081220Z 27007KT 220V340 9999 FEW008 20/17 Q1019 NOSIG=
METAR COR EGLL 081220Z 24009KT 190V290 9999 SCT023 SCT033 23/14 Q1018
      NOSIG=
METAR EGNS 081220Z 20011KT 9999 FEW025 17/12 Q1016 NOSIG=
METAR EGSS 081220Z 22008KT 180V270 9999 BKN026 23/15 Q1018=
METAR EGTE 081220Z 17010KT 9999 FEW030 21/14 Q1018=
METAR EGTG 081220Z 27007KT 9999 FEW030 20/10 Q1018=
METAR EGXW 081150Z 27009KT 9999 FEW040 SCT100 BKN250 21/09 Q1017 BLU
      NOSIG=
####018000085####
SARS18 KAWN 081200 RRG
METAR ESSA 081220Z 23013KT 9999 FEW045 25/14 Q1016 NOSIG=
####018000106####
SAUK KAWN 081100 RRL
METAR EGVP 081050Z 23002KT 9999 BKN012 19/15 Q1018 GRN BECMG SCT025
      BLU=
####018000096####
SAUK39 EGRR 081150 RRN
METAR EGDY 081150Z 22008KT 9999 FEW035 BKN220 23/15 Q1018 BLU NOSIG=
####018000106####
SAUK39 EGRR 081150 RRO
METAR EGXE 081150Z 24014KT 9999 FEW040 SCT060 BKN250 19/10 Q1016 BLU
 NOSIG=
####018000079####
SADL41 EGRR 081150
METAR ETUO 081150Z 22006KT CAVOK 30/09 Q1019 BLU NOSIG=
####018000096####
SAUK39 EGRR 081150 RRP
METAR EGDR 081150Z 22007KT 9999 FEW022 BKN220 19/14 Q1019 BLU NOSIG=
####018000639####
SAUS90 KWBC 081230
METAR K8S0 081125Z 26005KT=
METAR K2G4 081225Z AUTO 02003KT 10SM CLR 24/14 A3020 RMK AO1=
METAR KCGE 081226Z AUTO 13005KT 5SM SCT006 SCT009 26/25 A3003 RMK
     AO1=
METAR KCBE 081228Z AUTO 00000KT 7SM CLR 24/19 A3011 RMK AO1=
METAR KFDK 081228Z AUTO 00000KT 5SM HZ CLR 30/20 A3006 RMK AO2=
METAR K2W6 081228Z AUTO 08004KT 7SM CLR 27/24 A3002 RMK AO1=
METAR KFME 081230Z AUTO 10003KT 5SM CLR 26/23 A3004 RMK AO1=
METAR KW29 081228Z AUTO 11003KT 5SM CLR 27/23 A3002 RMK AO1=
METAR KDMW 081228Z AUTO 12003KT 7SM CLR 28/22 A3006 RMK AO2=
METAR KCGS 081230Z AUTO 00000KT 5SM CLR 28/24 A3002 RMK AO1=
####018000120####
SPUS90 KWBC 081230
SPECI KVCT 081228Z 02005KT 1 1/2SM +RA BR SCT016 BKN030 OVC046
     24/24 A2990 RMK AO2 P0024=
####018000124####
SAUS44 KCRP 081229
MTRVCT
SPECI KVCT 081228Z 02005KT 1 1/2SM +RA BR SCT016 BKN030 OVC046 24/24 
A2990 RMK AO2 P0024
####018000091####
SAAJ31 UBBB 081230
METAR UBBB 081230Z 35020KT CAVOK 32/26 Q1010 NOSIG RMK
R88CLRD70=
####018000750####
SAUS20 KNKA 081229
METAR KPYX 081230Z AUTO 36008KT 5SM BKN004 BKN020 OVC090 19/18 
     A3018 RMK AO2 T01860178=
METAR KRAS 081225Z AUTO 09007KT 6SM  BR FEW001 BKN060 BKN075 
     27/25 A2985 RMK AO2 P0001=
METAR KRBO 081225Z AUTO 07004KT 7SM -RA SCT006 BKN018 OVC080 
     26/25 A2985 RMK AO2 LTG DSNT S P0005 T02610251=
METAR KRPH 081225Z AUTO 00000KT 10SM CLR 23/21 A3003 RMK AO2 
     T02270212=
METAR KSEP 081225Z AUTO 00000KT 5SM SCT015 SCT021 BKN036 23/22 
     A3005 RMK AO1=
METAR KSLR 081222Z AUTO 14005KT 5SM BR SCT006 OVC050 25/24 A3007 
     RMK AO2 T02540237=
METAR KSNK 081226Z AUTO 04007KT 7SM OVC005 21/20 A3011 RMK AO2 
     T02080198=
SPECI KVIH 081228Z AUTO 00000KT 9SM BKN017 24/22 A3007 RMK AO2=
####018002907####
SAUS20 KNKA 081229
SPECI KAAO 081228Z AUTO 01006KT 10SM BKN004 22/21 A3009 RMK AO2=
METAR KDUX 081227Z AUTO 36007KT 4SM BR OVC004 18/17 A3022 RMK AO2 
     T01760170=
METAR KE38 081225Z AUTO 00000KT 10SM CLR 16/15 A3022 RMK AO2 
     T01570153=
METAR KEBG 081226Z AUTO 01007KT 10SM BKN005 BKN040 OVC055 26/25 
     A2980 RMK AO2 LTG DSNT S T02640250=
SPECI KGKY 081229Z 12005KT 10SM -RA SCT009 BKN014 OVC024 26/23 A3003 
    RMK AO2 RAB27 P0000=
METAR KGOP 081220Z AUTO 00000KT 9SM BKN007 BKN043 25/24 A3003 RMK 
     AO2=
METAR KGVT 081225Z AUTO 12003KT 10SM RA SCT043 OVC049 25/23 A3005 
     RMK AO2=
METAR KGWB 081225Z AUTO 00000KT 7SM CLR 26/18 A3007 RMK AO2=
METAR KGYB 081225Z AUTO 06003KT 7SM SCT006 SCT026 OVC032 25/24 
     A3000 RMK AO2 T02500240=
METAR KGYI 081225Z AUTO 12004KT 25/24 A3005 RMK AO2 T02500240 
     PWINO=
METAR KHHF 081225Z AUTO 08006KT 5SM RA SCT008 BKN013 OVC029 21/20 
     A3015 RMK AO2 P0002 T02110202=
METAR KHRX 081225Z AUTO 01008KT 10SM OVC020 17/17 A3022 RMK AO2 
     T01730166=
METAR KHSB 081225Z AUTO 00000KT 10SM CLR 25/22 A3006 RMK AO2=
SPECI KHWV 081228Z AUTO 13006KT 10SM FEW015 OVC050 26/22 A3008 RMK 
    AO2=
METAR KIJX 081225Z AUTO 00000KT 7SM CLR 24/23 A3005 RMK AO2 
     T02380230=
METAR KINJ 081225Z AUTO 08006KT 7SM SCT080 25/23 A3002 RMK AO2 
     T02450229=
METAR KJAS 081226Z AUTO 07005KT 7SM SCT008 25/24 A3004 RMK AO2 
     T02500240=
METAR KJSO 081230Z AUTO 00000KT 4SM BR BKN002 24/24 A3006 RMK AO2 
     LTG DSNT S T02350235=
METAR KJWY 081225Z AUTO 00000KT 7SM 25/23 A3004 RMK AO2 T02450230=
METAR KJXI 081225Z AUTO 00000KT OVC001 24/24 A3006 RMK AO2=
METAR KLBR 081225Z AUTO 00000KT 4SM OVC006 24/23 A3006 RMK AO2 
     T02410232=
METAR KLHB 081224Z AUTO 07007KT 3SM BR BKN120 25/24 A2998 RMK AO2 
     LTG DSNT SE T02540235=
METAR KLNC 081225Z AUTO 00000KT 7SM BKN005 BKN049 OVC120 25/24 
     A3003 RMK AO2 T02450243=
METAR KLUD 081225Z AUTO 13003KT 10SM SCT025 SCT055 BKN065 24/23 
     A3005 RMK AO2 T02430226=
METAR KM30 081226Z AUTO 23003KT 7SM CLR 26/22 A3006 RMK AO2=
METAR KMDD 081220Z AUTO 03006KT 5SM BR SCT004 BKN010 OVC013 22/21 
     A3012 RMK AO2 T02160205=
METAR KMKN 081220Z AUTO 00000KT 10SM 23/23 A3005 RMK AO2=
METAR KMNZ 081229Z AUTO 08003KT 7SM -DZ OVC005 25/25 A3003 RMK 
     AO2 T02450245=
METAR KMQB 081225Z AUTO 31006KT 10SM BKN004 OVC008 23/22 A3007 
     RMK AO2 T02310224=
METAR KOSA 081224Z AUTO 00000KT 3SM OVC002 25/24 A3007 RMK AO1 
     T02450240=
METAR KPEZ 081225Z AUTO 02007KT 7SM BKN017 BKN025 BKN050 25/23 
     A2993 RMK AO2 T02510233=
METAR KPKV 081226Z AUTO 00000KT 5SM BR SCT012 BKN020 OVC025 24/23 
     A2987 RMK AO2 T02430227=
METAR KPPA 081225Z AUTO 02005KT 4SM DZ BKN003 OVC007 18/17 A3021 
     RMK AO2=
METAR KPSN 081225Z AUTO 09006KT 7SM 25/23 A3004 RMK AO2 T02450234=
####018003064####
SAUS99 KWBC 081230
METAR
KPYX 081230Z AUTO 36008KT 5SM BKN004 BKN020 OVC090 19/18 A3018 RMK
     AO2 T01860178=
KRAS 081225Z AUTO 09007KT 6SM BR FEW001 BKN060 BKN075 27/25 A2985
     RMK AO2 P0001=
KRBO 081225Z AUTO 07004KT 7SM -RA SCT006 BKN018 OVC080 26/25 A2985
     RMK AO2 LTG DSNT S P0005 T02610251=
KRPH 081225Z AUTO 00000KT 10SM CLR 23/21 A3003 RMK AO2
     T02270212=
KSEP 081225Z AUTO 00000KT 5SM SCT015 SCT021 BKN036 23/22 A3005 RMK
     AO1=
KSLR 081222Z AUTO 14005KT 5SM BR SCT006 OVC050 25/24 A3007 RMK AO2
     T02540237=
KSNK 081226Z AUTO 04007KT 7SM OVC005 21/20 A3011 RMK AO2
     T02080198=
KDUX 081227Z AUTO 36007KT 4SM BR OVC004 18/17 A3022 RMK AO2
     T01760170=
KE38 081225Z AUTO 00000KT 10SM CLR 16/15 A3022 RMK AO2
     T01570153=
KEBG 081226Z AUTO 01007KT 10SM BKN005 BKN040 OVC055 26/25 A2980
     RMK AO2 LTG DSNT S T02640250=
KGOP 081220Z AUTO 00000KT 9SM BKN007 BKN043 25/24 A3003 RMK
     AO2=
KGVT 081225Z AUTO 12003KT 10SM RA SCT043 OVC049 25/23 A3005 RMK
     AO2=
KGWB 081225Z AUTO 00000KT 7SM CLR 26/18 A3007 RMK AO2=
KGYB 081225Z AUTO 06003KT 7SM SCT006 SCT026 OVC032 25/24 A3000 RMK
     AO2 T02500240=
KGYI 081225Z AUTO 12004KT 25/24 A3005 RMK AO2 T02500240 PWINO=
KHHF 081225Z AUTO 08006KT 5SM RA SCT008 BKN013 OVC029 21/20 A3015
     RMK AO2 P0002 T02110202=
KHRX 081225Z AUTO 01008KT 10SM OVC020 17/17 A3022 RMK AO2
     T01730166=
KHSB 081225Z AUTO 00000KT 10SM CLR 25/22 A3006 RMK AO2=
KIJX 081225Z AUTO 00000KT 7SM CLR 24/23 A3005 RMK AO2
     T02380230=
KINJ 081225Z AUTO 08006KT 7SM SCT080 25/23 A3002 RMK AO2
     T02450229=
KJAS 081226Z AUTO 07005KT 7SM SCT008 25/24 A3004 RMK AO2
     T02500240=
KJSO 081230Z AUTO 00000KT 4SM BR BKN002 24/24 A3006 RMK AO2 LTG
     DSNT S T02350235=
KJWY 081225Z AUTO 00000KT 7SM 25/23 A3004 RMK AO2 T02450230=
KJXI 081225Z AUTO 00000KT OVC001 24/24 A3006 RMK AO2=
KLBR 081225Z AUTO 00000KT 4SM OVC006 24/23 A3006 RMK AO2
     T02410232=
KLHB 081224Z AUTO 07007KT 3SM BR BKN120 25/24 A2998 RMK AO2 LTG
     DSNT SE T02540235=
KLNC 081225Z AUTO 00000KT 7SM BKN005 BKN049 OVC120 25/24 A3003 RMK
     AO2 T02450243=
KLUD 081225Z AUTO 13003KT 10SM SCT025 SCT055 BKN065 24/23 A3005
     RMK AO2 T02430226=
KM30 081226Z AUTO 23003KT 7SM CLR 26/22 A3006 RMK AO2=
KMDD 081220Z AUTO 03006KT 5SM BR SCT004 BKN010 OVC013 22/21 A3012
     RMK AO2 T02160205=
KMKN 081220Z AUTO 00000KT 10SM 23/23 A3005 RMK AO2=
KMNZ 081229Z AUTO 08003KT 7SM -DZ OVC005 25/25 A3003 RMK AO2
     T02450245=
KMQB 081225Z AUTO 31006KT 10SM BKN004 OVC008 23/22 A3007 RMK AO2
     T02310224=
KOSA 081224Z AUTO 00000KT 3SM OVC002 25/24 A3007 RMK AO1
     T02450240=
KPEZ 081225Z AUTO 02007KT 7SM BKN017 BKN025 BKN050 25/23 A2993 RMK
     AO2 T02510233=
KPKV 081226Z AUTO 00000KT 5SM BR SCT012 BKN020 OVC025 24/23 A2987
     RMK AO2 T02430227=
KPPA 081225Z AUTO 02005KT 4SM DZ BKN003 OVC007 18/17 A3021 RMK
     AO2=
KPSN 081225Z AUTO 09006KT 7SM 25/23 A3004 RMK AO2 T02450234=
####018000080####
SACN94 KWBC 081230
METAR CWQR 081222Z AUTO 10005KT 12/12 RMK AO1 T01150115=
####018000318####
SPUS99 KWBC 081230
SPECI
KVIH 081228Z AUTO 00000KT 9SM BKN017 24/22 A3007 RMK AO2=
KAAO 081228Z AUTO 01006KT 10SM BKN004 22/21 A3009 RMK AO2=
KGKY 081229Z 12005KT 10SM -RA SCT009 BKN014 OVC024 26/23 A3003 RMK
     AO2 RAB27 P0000=
KHWV 081228Z AUTO 13006KT 10SM FEW015 OVC050 26/22 A3008 RMK
     AO2=
####018000150####
SAAM31 FCBB 081200 CCB
METAR COR FKKD 081200Z 25006KT 180V340 9999 -RA BKN016 FEW020CB 28/26
      Q1014 TEMPO 4000 -TSRA BKN013 SCT016CB BKN100=
####018000474####
SAUK37 EGGY 081220
METAR EGAE 081220Z 24011KT 9999 FEW020 SCT040 18/10 Q1012=
METAR EGNC 081220Z 25012KT 210V280 9999 FEW020 SCT035 17/10 Q1015=
METAR EGNH 081220Z 23010KT 9999 FEW030 19/11 Q1017=
METAR EGNJ 081220Z 23013KT 200V260 9999 SCT040 22/10 Q1017=
METAR EGNR 081220Z 28011KT 240V330 9999 FEW030 21/10 Q1017=
METAR EGPE 081220Z 22021KT 9999 VCSH FEW022 SCT035 18/10 Q1009=
METAR EGPI 081220Z NIL=
METAR EGPN 081220Z 24016KT 9999 FEW032 SCT045 17/12 Q1012=
####018000397####
SAUK36 EGGY 081220
METAR EGBE 081220Z NIL=
METAR EGBJ 081220Z 22005KT 190V280 9999 FEW035 22/09 Q1018=
METAR EGCN 081220Z 25013KT 9999 FEW041 22/08 Q1017=
METAR EGDL 081220Z NIL=
METAR EGSC 081220Z 23008KT 180V270 9999 SCT038 23/14 Q1018=
METAR EGSD 081220Z NIL=
METAR COR EGSH 081220Z 21007KT 170V300 9999 SCT023 23/15 Q1018
    NOSIG=
METAR EGVN 081220Z NIL=
METAR EGWU 081220Z NIL=
####018000093####
SAUK35 EGGY 081220 RRA
METAR EGLF 081220Z 25008KT 230V300 9999 SCT025 BKN038 22/15 Q1019=
####018000089####
SAAJ31 UBBB 081230
METAR UBBB 081230Z 35020KT CAVOK 32/26 Q1010 NOSIG RMK
R88CLRD70=
####018000094####
SPXX60 KWBC 081230
SPECI
KNXF 081227Z AUTO 34003KT 7SM OVC013 17/13 A2990 RMK AO2 TSNO=
####018000372####
SAUK38 EGGY 081220
METAR EGEC 081220Z NIL=
METAR EGPA 081220Z 22014KT 9999 VCSH FEW020CB SCT045 18/12 Q1007=
METAR EGPC 081220Z 20015KT 9999 FEW020 17/11 Q1008=
METAR EGPL 081220Z 22022KT 9999 VCSH FEW018 16/12 Q1008=
METAR COR EGPM 081220Z 23023KT 9999 SCT028 16/10 Q1006 NOSIG=
METAR EGPO 081220Z 23023KT 9999 FEW024 SCT032 18/11 Q1006=
METAR EGPU 081220Z NIL=
####018000803####
SPUS70 KWBC 081230
SPECI
KDVN 081227Z AUTO 30005KT 4SM BR BKN006 OVC012 23/22 A3005 RMK AO2
     CIG 003V008=
KFLD 081227Z AUTO 27005KT 10SM BKN005 BKN009 22/21 A3002 RMK AO2
     CIG 003V009=
KHOT 081227Z AUTO 10003KT 8SM FEW005 OVC010 24/23 A3009 RMK AO2
     CIG 008V014=
KNSE 081215Z 00000KT 5SM BR FEW250 26/23 A3003 RMK AO2 VIS E AND W
     3 $=
KDGW 081227Z AUTO 00000KT 10SM SCT001 06/06 A3035 RMK AO2 $=
KILG 081227Z 17006KT 1 1/2SM BR BKN003 26/23 A3004 RMK AO2 SFC VIS
     2=
KVIH 081228Z AUTO 00000KT 9SM BKN017 24/22 A3007 RMK AO2=
KAAO 081228Z AUTO 01006KT 10SM BKN004 22/21 A3009 RMK AO2=
KGKY 081229Z 12005KT 10SM -RA SCT009 BKN014 OVC024 26/23 A3003 RMK
     AO2 RAB27 P0000=
KHWV 081228Z AUTO 13006KT 10SM FEW015 OVC050 26/22 A3008 RMK
     AO2=
####018003708####
SAUS70 KWBC 081230
METAR
K0F2 081224Z AUTO 14003KT 5SM BR SCT038 SCT065 23/22 A3004 RMK AO2
     T02290219=
K11R 081224Z AUTO 06006KT 5SM VCTS BR OVC006 25/24 A2996 RMK AO2
     LTG DSNT E AND SE=
K3LF 081223Z AUTO 23003KT 7SM SCT035 BKN040 BKN065 25/23 A3005 RMK
     AO2=
K3T5 081224Z AUTO 11006KT 4SM +RA SCT007 BKN013 OVC028 25/24 A2994
     RMK AO2 LTG DSNT E P0007 T02520237=
K5C1 081224Z AUTO 00000KT 7SM SCT004 SCT010 BKN050 23/22 A2999 RMK
     AO1=
K6R3 081221Z AUTO 00000KT 5SM -RA SCT006 SCT011 SCT041 25/25 A2998
     RMK AO2 LTG DSNT SW P0001 T02450245=
KAJG 081225Z AUTO 00000KT 7SM CLR 25/23 A3005 RMK AO2
     T02530232=
KAQO 081225Z AUTO 00000KT 24/23 A3003 RMK AO2=
KARM 081225Z AUTO 06005KT 10SM VCTS BKN017 BKN024 OVC032 26/24
     A2993 RMK AO2 LTG DSNT N AND NE P0001 T02590243=
KASW 081225Z AUTO 00000KT 10SM CLR 26/21 A3006 RMK AO2
     T02610209=
KAXH 081225Z AUTO 07004KT 10SM TS SCT060 BKN075 BKN090 25/23 A2994
     RMK AO2 LTG DSNT N AND NE T02500230=
KBBD 081225Z AUTO 07003KT 10SM FEW033 OVC050 23/22 A3004 RMK=
KBEA 081223Z AUTO 05005KT 7SM RA SCT017 BKN048 OVC085 24/24 A2987
     RMK AO2 P0004 T02420242=
KBKD 081221Z AUTO 00000KT 4SM BR BKN002 OVC012 24/23 A3004 RMK AO2
     T02350230=
KBKS 081226Z AUTO 36006KT 10SM SCT004 SCT021 SCT025 26/25 A2982
     RMK AO1 T02610247=
KBPC 081228Z AUTO 02003KT 10SM OVC008 20/18 A3018 RMK AO2=
KBPG 081225Z AUTO 02009KT 7SM SCT004 OVC010 22/21 A3012 RMK AO1
     T02200206=
KBYY 081226Z AUTO 10004KT 4SM -RA SCT015 BKN032 OVC055 26/25 A2990
     RMK AO2 T02600252=
KC09 081224Z AUTO 00000KT 2SM BR BKN005 OVC024 22/21 A3004 RMK
     AO2=
KC75 081223Z AUTO 00000KT 5SM BR SCT008 BKN013 OVC017 24/23 A3003
     RMK AO2=
KCPT 081225Z AUTO 07004KT 7SM BKN008 BKN013 OVC019 24/24 A3005 RMK
     AO2=
KCVB 081224Z AUTO 05006KT 7SM SCT046 25/24 A2995 RMK AO2
     T02510243=
KCWC 081225Z AUTO 00000KT 10SM CLR 24/22 A3004 RMK AO2
     T02370222=
KDKB 081221Z AUTO 26005KT 2 1/2SM BR BKN004 OVC016 22/21 A3005 RMK
     AO2 T02160212=
KDKR 081225Z AUTO 09005KT 5SM BR CLR 24/24 A3004 RMK AO2 LTG DSNT
     N=
KDNV 081225Z AUTO 00000KT 7SM CLR 25/22 A3002 RMK AO2
     T02460216=
KDZB 081225Z AUTO 00000KT 4SM BR BKN007 BKN012 OVC017 24/24 A2999
     RMK AO2 LTG DSNT E T02380240=
KECU 081225Z AUTO 06004KT 7SM SCT004 22/21 A3010 RMK AO2=
KENL 081224Z AUTO 21007KT 10SM SCT045 BKN065 27/19 A3005 RMK AO2
     T02700187=
KERV 081225Z AUTO 04003KT 10SM SCT012 SCT017 BKN026 23/22 A3001
     RMK AO2 T02330215=
KF05 081224Z AUTO 05007KT 10SM BKN028 OVC034 24/22 A3006 RMK AO2
     T02400223=
KFEP 081225Z AUTO 29004KT 10SM SCT008 24/21 A3005 RMK AO2
     T02350214=
KFOA 081225Z AUTO 00000KT 7SM CLR 27/26 A3005 RMK AO2
     T02680258=
KFWC 081225Z AUTO 00000KT 10SM CLR 26/24 A3005 RMK AO2=
KFWS 081225Z AUTO 00000KT 5SM -DZ BKN022 BKN028 OVC039 25/24 A3004
     RMK AO2 T02480235=
KGBG 081225Z AUTO 30004KT 7SM OVC006 23/22 A3004 RMK AO2=
KGDJ 081224Z AUTO 10005KT 10SM DZ BKN008 OVC039 26/24 A3004 RMK
     AO2 T02560237=
KGLE 081224Z AUTO 14003KT 10SM BKN060 OVC075 26/23 A3006 RMK
     AO2=
KGNC 081225Z AUTO 07006KT 2 1/2SM +RA SCT007 BKN017 OVC075 20/19
     A3016 RMK AO2 P0012 T01990191=
KHBV 081220Z AUTO 35008KT 10SM SCT008 SCT015 25/24 A2987 RMK AO2
     T02470235=
KIKK 081225Z AUTO 00000KT 2 1/2SM HZ SCT060 SCT100 26/23 A3004 RMK
     AO2=
KJOT 081226Z AUTO 00000KT 2 1/2SM -RA SCT024 SCT033 SCT040 23/22
     A3003 RMK AO2=
KLOT 081222Z AUTO 00000KT 2SM BR BKN024 BKN039 OVC055 23/23 A3003
     RMK AO2=
KOLY 081223Z AUTO 00000KT 10SM SCT046 27/23 A3005 RMK AO2=
####018000103####
SAUK51 EGGY 081150 RRD
METAR EGDM 081150Z 20008KT 9999 SCT022 SCT250 20/15 Q1018 BECMG
    SCT025=
####018000085####
SANG31 AMMC 081200 RRA
METAR AYPY 081200Z 18015KT 9999 BKN040 26/22 Q1010 HZ=

####018000700####
SANL33 EHDB 081225
METAR EHAK 081225Z AUTO 21010KT 9999NDV 17/12 Q1017=
METAR EHDV 081225Z NIL=
METAR EHFD 081225Z AUTO 23012KT 9999NDV BKN024/// OVC027/// 17/16
Q1018=
METAR EHFZ 081225Z AUTO 22009KT 9999NDV FEW019/// SCT031/// BKN036///
17/15 Q1018=
METAR EHJA 081225Z AUTO 24010KT 9999NDV 16/13 Q1018=
METAR EHJR 081225Z NIL=
METAR EHKV 081225Z AUTO 23009KT 9999NDV SCT021/// BKN025/// OVC029///
17/15 Q1018=
METAR EHMA 081225Z AUTO 25010KT 9999NDV 21/17 Q1019=
METAR EHMG 081225Z AUTO 23012KT 9999NDV 17/15 Q1018=
METAR EHPG 081225Z AUTO 22011KT 9999NDV ///////// 16/15 Q1019=
METAR EHQE 081225Z AUTO 22012KT 9999NDV 16/15 Q1019=
METAR EHSA 081225Z NIL=
METAR EHSC 081225Z NIL=
####018000095####
SAAM31 FCBB 081200 CCC
METAR COR FEFF 081200Z 20004KT 9999 FEW026 BKN300 30/21 Q1013 NOSIG=
####018000157####
SAAF11 LFPW 081200 RRC
METAR FKKR 081200Z 08004KT 9999 SCT020 BKN130 27/22 Q1012 NOSIG=
METAR FPST 081200Z 15012KT 9999 FEW020 BKN110 28/22 Q1014 NOSIG=
####018000497####
SAUS80 KWBC 081230
METAR
KCIR 081222Z AUTO 00000KT 10SM SCT110 27/23 A3007 RMK AO2=
KCUL 081225Z AUTO 17003KT 10SM CLR 25/23 A3005 RMK AO2
     T02540226=
KSFY 081225Z AUTO 32005KT 5SM BR BKN007 BKN011 23/22 A3005 RMK
     AO2=
KCBE 081228Z AUTO 00000KT 7SM CLR 24/19 A3011 RMK AO1=
KSEP 081225Z AUTO 00000KT 5SM SCT015 SCT021 BKN036 23/22 A3005 RMK
     AO1=
KMKN 081220Z AUTO 00000KT 10SM 23/23 A3005 RMK AO2=
KPSN 081225Z AUTO 09006KT 7SM 25/23 A3004 RMK AO2 T02450234=
####018000210####
SAPK31 OPKC 081230
METAR OPGD 081230Z NIL=
METAR OPKC 081230Z NIL=
METAR OPLA 081225Z 14004KT 6000 SCT040 37/23 Q1002=
METAR OPNH 081230Z NIL=
METAR OPPS 081230Z NIL=
METARNIL=
METAR OPSK 081230Z NIL=
####018003728####
SAUS70 KWBC 081230 RRA
METAR
KOXI 081225Z AUTO 35003KT 1 1/2SM SCT008 SCT019 BKN055 23/22 A3004
     RMK AO1 T02270215=
KOZA 081221Z AUTO 00000KT 7SM BKN020 BKN120 22/22 A3008 RMK AO2
     T02240216=
KPNT 081225Z AUTO 15003KT 5SM BR SCT008 BKN070 OVC085 23/22 A3004
     RMK AO2=
KPPQ 081225Z AUTO 00000KT 7SM SCT001 23/23 A3007 RMK AO2=
KPRG 081225Z AUTO 21004KT 7SM SCT035 26/23 A3006 RMK AO2
     T02580234=
KRPJ 081225Z AUTO 00000KT 4SM BR SCT005 SCT012 SCT016 22/20 A3005
     RMK AO2 T02150202=
KRSV 081222Z AUTO 00000KT 10SM CLR 27/24 A3006 RMK AO2
     T02700240=
K2G4 081225Z AUTO 02003KT 10SM CLR 24/14 A3020 RMK AO1=
KFDK 081228Z AUTO 00000KT 5SM HZ CLR 30/20 A3006 RMK AO2=
K2W6 081228Z AUTO 08004KT 7SM CLR 27/24 A3002 RMK AO1=
KW29 081228Z AUTO 11003KT 5SM CLR 27/23 A3002 RMK AO1=
KCGS 081230Z AUTO 00000KT 5SM CLR 28/24 A3002 RMK AO1=
KPYX 081230Z AUTO 36008KT 5SM BKN004 BKN020 OVC090 19/18 A3018 RMK
     AO2 T01860178=
KRAS 081225Z AUTO 09007KT 6SM BR FEW001 BKN060 BKN075 27/25 A2985
     RMK AO2 P0001=
KRBO 081225Z AUTO 07004KT 7SM -RA SCT006 BKN018 OVC080 26/25 A2985
     RMK AO2 LTG DSNT S P0005 T02610251=
KRPH 081225Z AUTO 00000KT 10SM CLR 23/21 A3003 RMK AO2
     T02270212=
KSLR 081222Z AUTO 14005KT 5SM BR SCT006 OVC050 25/24 A3007 RMK AO2
     T02540237=
KSNK 081226Z AUTO 04007KT 7SM OVC005 21/20 A3011 RMK AO2
     T02080198=
KDUX 081227Z AUTO 36007KT 4SM BR OVC004 18/17 A3022 RMK AO2
     T01760170=
KE38 081225Z AUTO 00000KT 10SM CLR 16/15 A3022 RMK AO2
     T01570153=
KEBG 081226Z AUTO 01007KT 10SM BKN005 BKN040 OVC055 26/25 A2980
     RMK AO2 LTG DSNT S T02640250=
KGOP 081220Z AUTO 00000KT 9SM BKN007 BKN043 25/24 A3003 RMK
     AO2=
KGVT 081225Z AUTO 12003KT 10SM RA SCT043 OVC049 25/23 A3005 RMK
     AO2=
KGWB 081225Z AUTO 00000KT 7SM CLR 26/18 A3007 RMK AO2=
KGYB 081225Z AUTO 06003KT 7SM SCT006 SCT026 OVC032 25/24 A3000 RMK
     AO2 T02500240=
KGYI 081225Z AUTO 12004KT 25/24 A3005 RMK AO2 T02500240 PWINO=
KHHF 081225Z AUTO 08006KT 5SM RA SCT008 BKN013 OVC029 21/20 A3015
     RMK AO2 P0002 T02110202=
KHRX 081225Z AUTO 01008KT 10SM OVC020 17/17 A3022 RMK AO2
     T01730166=
KHSB 081225Z AUTO 00000KT 10SM CLR 25/22 A3006 RMK AO2=
KIJX 081225Z AUTO 00000KT 7SM CLR 24/23 A3005 RMK AO2
     T02380230=
KINJ 081225Z AUTO 08006KT 7SM SCT080 25/23 A3002 RMK AO2
     T02450229=
KJAS 081226Z AUTO 07005KT 7SM SCT008 25/24 A3004 RMK AO2
     T02500240=
KJSO 081230Z AUTO 00000KT 4SM BR BKN002 24/24 A3006 RMK AO2 LTG
     DSNT S T02350235=
KJWY 081225Z AUTO 00000KT 7SM 25/23 A3004 RMK AO2 T02450230=
KJXI 081225Z AUTO 00000KT OVC001 24/24 A3006 RMK AO2=
KLBR 081225Z AUTO 00000KT 4SM OVC006 24/23 A3006 RMK AO2
     T02410232=
KLHB 081224Z AUTO 07007KT 3SM BR BKN120 25/24 A2998 RMK AO2 LTG
     DSNT SE T02540235=
KLNC 081225Z AUTO 00000KT 7SM BKN005 BKN049 OVC120 25/24 A3003 RMK
     AO2 T02450243=
KLUD 081225Z AUTO 13003KT 10SM SCT025 SCT055 BKN065 24/23 A3005
     RMK AO2 T02430226=
KM30 081226Z AUTO 23003KT 7SM CLR 26/22 A3006 RMK AO2=
KMDD 081220Z AUTO 03006KT 5SM BR SCT004 BKN010 OVC013 22/21 A3012
     RMK AO2 T02160205=
KMNZ 081229Z AUTO 08003KT 7SM -DZ OVC005 25/25 A3003 RMK AO2
     T02450245=
KMQB 081225Z AUTO 31006KT 10SM BKN004 OVC008 23/22 A3007 RMK AO2
     T02310224=
KOSA 081224Z AUTO 00000KT 3SM OVC002 25/24 A3007 RMK AO1
     T02450240=
KPEZ 081225Z AUTO 02007KT 7SM BKN017 BKN025 BKN050 25/23 A2993 RMK
     AO2 T02510233=
KPKV 081226Z AUTO 00000KT 5SM BR SCT012 BKN020 OVC025 24/23 A2987
     RMK AO2 T02430227=
KPPA 081225Z AUTO 02005KT 4SM DZ BKN003 OVC007 18/17 A3021 RMK
     AO2=
####018000155####
SAAF32 KWBC 081200 RRE
METAR
FKKR 081200Z 08004KT 9999 SCT020 BKN130 27/22 Q1012 NOSIG=
FPST 081200Z 15012KT 9999 FEW020 BKN110 28/22 Q1014 NOSIG=
####018000096####
SAUZ31 UTTT 081230
METAR UTTT 081230Z 26002MPS 180V330 CAVOK 38/07 Q1009
R08R/CLRD70 NOSIG=
####018000383####
SPUS80 KWBC 081230
SPECI
KJLN 081227Z 00000KT 5SM VCTS BR BKN004 BKN024 OVC075 22/22 A3008
     RMK AO2 TSB22RAB15E22 FRQ LTGIC OVHD P0001=
KSBN 081226Z 22003KT 3SM -TSRA BR BKN020 BKN035CB OVC046 23/22
     A3006 RMK AO2 TSB25RAB1155 OCNL LTGIC OHD TS OHD MOV NE
     P0006=
KVCT 081228Z 02005KT 1 1/2SM +RA BR SCT016 BKN030 OVC046 24/24
     A2990 RMK AO2 P0024=
####018000116####
SAXX60 KWBC 081230
METAR
KAPY 081222Z AUTO 34005KT 10SM CLR 25/24 A2985 RMK AO2 LTG DSNT SE
     T02500243=
####018000094####
SAAF34 KWBC 081200 RRD
METAR
FEFF 081200Z 20004KT 9999 FEW026 BKN300 30/21 Q1013 NOSIG=
####018000182####
SAAW41 KWBC 081250 RRB
METAR
LTCE 081220Z 33005KT 270V020 9999 SCT030 31/09 Q1016 NOSIG RMK
     RWY08R 08007KT 020V110 RWY26R 36004KT 310V060 RWY08L 06007KT
     010V110=
####018000918####
SAGR31 KWBC 081220 RRA
METAR
LGAD 081220Z 29010KT 9999 FEW020 27/15 Q1014=
LGAL 081220Z 03007KT 0000 FEW020TCU SCT025 21/15 Q1015=
LGAV 081220Z 04020KT 9999 SCT030 26/13 Q1013 NOSIG=
LGEL 081220Z 35013G23KT CAVOK 29/12 Q1011=
LGIR 081220Z 35008KT 9999 FEW020 29/23 Q1011 NOSIG=
LGKF 081220Z NIL=
LGKL 081220Z 34012G25KT 9999 FEW030 33/12 Q1011=
LGKO 081220Z 31017KT 280V340 CAVOK 29/18 Q1009=
LGKR 081220Z 31022KT CAVOK 28/10 Q1013 NOSIG=
LGKV 081220Z 06010KT 6000 TSRA SCT020CB SCT025TCU BKN080 18/16
     Q1014=
LGLM 081220Z 03013KT 9999 FEW008 SCT020 21/16 Q1013=
LGMT 081220Z 36015KT 9999 FEW025 27/18 Q1011=
LGRP 081220Z 25014KT CAVOK 29/19 Q1008 NOSIG=
LGRP 081220Z NIL=
LGSA 081220Z 35012KT 9999 FEW020 33/14 Q1012=
LGSM 081220Z 35010KT 9999 FEW030 31/17 Q1009=
LGSR 081220Z 01014KT 9999 FEW025 27/18 Q1011 NOSIG=
LGTS 081220Z 34019G29KT 9999 FEW025 24/11 Q1016 NOSIG=
####018000272####
SAGR41 KWBC 081220 RRA
METAR
LGKP 081220Z NIL=
LGKZ 081220Z NIL=
LGMK 081220Z 02021G32KT 9999 FEW015 24/17 Q1012=
LGPZ 081220Z 25011KT 9999 FEW025 27/19 Q1013 NOSIG=
LGRX 081220Z 28011KT 9999 FEW025 28/14 Q1012 NOSIG=
LGSK 081220Z NIL=
LGZA 081220Z NIL=
####018000087####
SAEW32 LEMM 081200 RRA
METAR LEST 081200Z 08006KT 050V130 CAVOK 27/18 Q1015 NOSIG=
####018000352####
SANL31 KWBC 081220 RRB
METAR
EHAM 081225Z 26007KT 190V360 CAVOK 25/13 Q1019 NOSIG=
EHBK 081225Z AUTO VRB04KT 9999NDV NCD 30/11 Q1019 NOSIG=
EHGG 081225Z AUTO 26011KT 210V310 9999NDV NSC 27/12 Q1019
     NOSIG=
EHKD 081225Z AUTO 25010KT 9999NDV OVC075/// 21/15 Q1019 BLU
     BLU=
EHRD 081225Z 28004KT 220V340 CAVOK 25/16 Q1019 NOSIG=
