####018002940####
SAUS20 KNKA 081450
METAR KC75 081447Z AUTO 26003KT 10SM SCT010 SCT022 BKN026 25/23 
     A3004 RMK AO2=
SPECI KCNM 081449Z AUTO 33011KT 10SM -RA BKN020 OVC095 20/18 A3019 
    RMK AO2 P0002=
METAR KFOA 081445Z AUTO 19006KT 10SM CLR 32/27 A3005 RMK AO2 LTG 
     DSNT W T03150265=
SPECI KHBR 081450Z AUTO 06007KT 9SM SCT005 24/23 A3011 RMK AO2=
METAR KIKK 081445Z AUTO 18004KT 7SM SCT010 SCT025 BKN030 29/24 
     A3003 RMK AO2=
METAR KMWA 081449Z 22007KT 15SM BKN110 OVC250 29/24 A3007=
METAR KOSA 081444Z AUTO 12004KT 10SM SCT010 SCT016 27/24 A3008 
     RMK AO1 T02670240=
METAR KPEZ 081445Z AUTO 06008KT 10SM -DZ BKN013 OVC021 26/23 
     A2995 RMK AO2 T02550232=
METAR KPPA 081445Z AUTO 06010KT 10SM BKN007 BKN011 OVC075 20/18 
     A3022 RMK AO2=
METAR KPSN 081445Z AUTO 11008KT 7SM 27/24 A3006 RMK AO2 T02680244=
METAR KPYX 081450Z AUTO 35007KT 3SM OVC004 19/18 A3022 RMK AO2 
     T01920184=
METAR KRAS 081445Z AUTO 10012KT 6SM  BR FEW018 SCT031 BKN044 
     28/26 A2989 RMK AO2=
METAR KRBO 081445Z AUTO 06010G16KT 1 3/4SM +RA BKN010 BKN037 
     OVC049 26/25 A2988 RMK AO2 P0014 60020 T02640252=
METAR KRFI 081445Z AUTO 12008KT 7SM BKN011 OVC110 28/24 A3006 RMK 
     AO2 T02760236=
METAR KRPH 081445Z AUTO 12003KT 10SM SCT017 SCT049 BKN060 28/22 
     A3004 RMK AO2 T02770215=
METAR KRWV 081440Z AUTO 00000KT 3SM  BR BKN009 OVC016 26/24 A3003 
     RMK AO2=
METAR KRYW 081445Z AUTO 05004KT 3SM +RA BKN007 OVC012 25/23 A3002 
     RMK AO2=
METAR KRYY 081448Z 32005KT 10SM SKC 32/22 A3006=
METAR KSAR 081445Z AUTO 24004KT 5SM HZ CLR 28/24 A3006 RMK AO2 
     LTG DSNT N=
METAR KSEE 081447Z 28006KT 4SM BR BKN008 OVC012 16/13 A2993=
METAR KSEP 081445Z AUTO 09004KT 10SM SCT005 SCT011 SCT021 25/23 
     A3007 RMK AO1 P0009=
METAR KSLO 081445Z AUTO 27006KT 10SM VCTS BKN050 BKN085 OVC110 
     29/23 A3006 RMK AO2 LTG DSNT N T02890227=
METAR KSLR 081442Z AUTO 15005KT 7SM SCT014 SCT080 28/23 A3008 RMK 
     AO2 T02770227=
METAR KSNK 081445Z AUTO 05009KT 10SM OVC009 24/22 A3013 RMK AO2 
     T02360217=
METAR KSOA 081440Z AUTO 05007KT 8SM 25/22 A3011 RMK AO2=
METAR KSQL 081447Z 29008KT 10SM OVC012 13/10 A2995=
METAR KSWF 081445Z 11008KT 4SM HZ SCT100 29/23 A3008=
METAR KSWW 081445Z AUTO 06005KT 2SM OVC002 22/22 A3013 RMK AO1 
     T02230219=
METAR KT65 081445Z AUTO 01008KT 7SM BKN011 OVC015 27/26 A2980 RMK 
     AO2 P0003 60003 T02700257=
METAR KT82 081445Z AUTO 06006KT SCT013 BKN029 OVC044 25/22 A3005 
     RMK AO1 T02530218=
METAR KTAZ 081445Z AUTO 24004KT 10SM SCT095 28/24 A3005 RMK AO2 
     LTG DSNT SE AND S=
METAR KTFP 081445Z AUTO 36005KT 7SM VCTSRA SCT013 BKN022 OVC042 
     28/26 A2986 RMK AO2 P0012 60020 T02750256=
METAR KUVA 081445Z AUTO 03007KT 7SM SCT017 26/23 A2997 RMK AO2 
     T02620225=
METAR KXBP 081445Z AUTO 15004KT 10SM SCT032 SCT038 BKN044 26/23 
     A3007 RMK AO2 T02620230=
####018000184####
SAAK41 KNKA 081450
METAR PAHZ 081450Z 00000KT 20SM SCT050 10/09 A3003 RMK FIRST
     NOSEPCI=
METAR PAPT 081445Z 00000KT 10SM -RA FEW020 OVC060 08/08 A3000 RMK
     NOSPECI=
####018000081####
SRPR30 KWAL 081450
CE2D864E 189145036bB1r@IH@IH@II@II@II@IJ@IJ@IKM 43+0NN 161E####018000089####
SAUK39 EGRR 070450 CCA
METAR COR EGDR 070450Z 24010KT 0300 FG VV/// 16/16 Q1020 RED=
####018000252####
SACA31 TNCC 081400
METAR TNCC 081400Z 09012KT 9999 FEW020 31/26 Q1013 NOSIG=
METAR TNCA 081400Z 08018KT 9999 FEW018 31/24 Q1012 NOSIG=
METAR TNCB 081400Z 08010KT 9999 FEW018 31/24 Q1013 NOSIG= 
METAR TNCE 081400Z 06013KT 9999 FEW020 30/25 Q1016=
####018003139####
SAUS99 KWBC 081451
METAR
KCCA 081455Z AUTO 00000KT 10SM SCT011 BKN090 26/23 A3010 RMK
     AO2=
KCDN 081455Z AUTO 34006KT 10SM CLR 33/21 A2998 RMK A02 P000=
KCKI 081455Z AUTO 28005KT 10SM CLR 32/20 A2994 RMK AO2=
KLRO 081455Z AUTO 31008KT 8SM CLR 31/21 A2994 RMK AO2=
KMHR 081446Z 16003KT 10SM FEW150 14/10 A2987=
KMKS 081455Z AUTO 34007KT 7SM SCT002 31/21 A2995 RMK AO2 TSNO=
KMMU 081445Z 17004KT 3SM BR BKN015 OVC030 29/23 A3005=
KC75 081447Z AUTO 26003KT 10SM SCT010 SCT022 BKN026 25/23 A3004
     RMK AO2=
KFOA 081445Z AUTO 19006KT 10SM CLR 32/27 A3005 RMK AO2 LTG DSNT W
     T03150265=
KIKK 081445Z AUTO 18004KT 7SM SCT010 SCT025 BKN030 29/24 A3003 RMK
     AO2=
KMWA 081449Z 22007KT 15SM BKN110 OVC250 29/24 A3007=
KOSA 081444Z AUTO 12004KT 10SM SCT010 SCT016 27/24 A3008 RMK AO1
     T02670240=
KPEZ 081445Z AUTO 06008KT 10SM -DZ BKN013 OVC021 26/23 A2995 RMK
     AO2 T02550232=
KPPA 081445Z AUTO 06010KT 10SM BKN007 BKN011 OVC075 20/18 A3022
     RMK AO2=
KPSN 081445Z AUTO 11008KT 7SM 27/24 A3006 RMK AO2 T02680244=
KPYX 081450Z AUTO 35007KT 3SM OVC004 19/18 A3022 RMK AO2
     T01920184=
KRAS 081445Z AUTO 10012KT 6SM BR FEW018 SCT031 BKN044 28/26 A2989
     RMK AO2=
KRBO 081445Z AUTO 06010G16KT 1 3/4SM +RA BKN010 BKN037 OVC049
     26/25 A2988 RMK AO2 P0014 60020 T02640252=
KRFI 081445Z AUTO 12008KT 7SM BKN011 OVC110 28/24 A3006 RMK AO2
     T02760236=
KRPH 081445Z AUTO 12003KT 10SM SCT017 SCT049 BKN060 28/22 A3004
     RMK AO2 T02770215=
KRWV 081440Z AUTO 00000KT 3SM BR BKN009 OVC016 26/24 A3003 RMK
     AO2=
KRYW 081445Z AUTO 05004KT 3SM +RA BKN007 OVC012 25/23 A3002 RMK
     AO2=
KRYY 081448Z 32005KT 10SM SKC 32/22 A3006=
KSAR 081445Z AUTO 24004KT 5SM HZ CLR 28/24 A3006 RMK AO2 LTG DSNT
     N=
KSEE 081447Z 28006KT 4SM BR BKN008 OVC012 16/13 A2993=
KSEP 081445Z AUTO 09004KT 10SM SCT005 SCT011 SCT021 25/23 A3007
     RMK AO1 P0009=
KSLO 081445Z AUTO 27006KT 10SM VCTS BKN050 BKN085 OVC110 29/23
     A3006 RMK AO2 LTG DSNT N T02890227=
KSLR 081442Z AUTO 15005KT 7SM SCT014 SCT080 28/23 A3008 RMK AO2
     T02770227=
KSNK 081445Z AUTO 05009KT 10SM OVC009 24/22 A3013 RMK AO2
     T02360217=
KSOA 081440Z AUTO 05007KT 8SM 25/22 A3011 RMK AO2=
KSQL 081447Z 29008KT 10SM OVC012 13/10 A2995=
KSWF 081445Z 11008KT 4SM HZ SCT100 29/23 A3008=
KSWW 081445Z AUTO 06005KT 2SM OVC002 22/22 A3013 RMK AO1
     T02230219=
KT65 081445Z AUTO 01008KT 7SM BKN011 OVC015 27/26 A2980 RMK AO2
     P0003 60003 T02700257=
KT82 081445Z AUTO 06006KT SCT013 BKN029 OVC044 25/22 A3005 RMK AO1
     T02530218=
KTAZ 081445Z AUTO 24004KT 10SM SCT095 28/24 A3005 RMK AO2 LTG DSNT
     SE AND S=
KTFP 081445Z AUTO 36005KT 7SM VCTSRA SCT013 BKN022 OVC042 28/26
     A2986 RMK AO2 P0012 60020 T02750256=
KUVA 081445Z AUTO 03007KT 7SM SCT017 26/23 A2997 RMK AO2
     T02620225=
KXBP 081445Z AUTO 15004KT 10SM SCT032 SCT038 BKN044 26/23 A3007
     RMK AO2 T02620230=
PAHZ 081450Z 00000KT 20SM SCT050 10/09 A3003 RMK FIRST NOSEPCI=
PAPT 081445Z 00000KT 10SM -RA FEW020 OVC060 08/08 A3000 RMK
     NOSPECI=
####018000230####
SPUS99 KWBC 081451
SPECI
KDTN 081449Z 11004KT 10SM BKN012 27/24 A3006 RMK AO2=
KCNM 081449Z AUTO 33011KT 10SM -RA BKN020 OVC095 20/18 A3019 RMK
     AO2 P0002=
KHBR 081450Z AUTO 06007KT 9SM SCT005 24/23 A3011 RMK AO2=
####018000108####
SAKA31 PTRO 081500
METAR PTRO 081450Z 00000KT 14SM BKN016CB BKN120 OVC300 26/24 A2991 
RMK CB VC ALQDS
####018000158####
SPAW33 KWBC 081451
SPECI
OMAA 081442Z 12014KT 0800 R13R/0900N R31L/0800N R13L/0700VP2000D
R31R/1100VP2000D DU VV/// 38/19 Q0999 A2952 TEMPO 500 BLDU=
####018000102####
SAUS44 KLIX 081450 COR
MTRBTR
SPECI KBTR 081446Z 09005KT 10SM SCT010 BKN020 28/24 A3004 RMK AO2
####018000110####
SPEW35 LEMM 081450
SPECI LEVS 081450Z 15021G42KT 050V190 9999 TS SHRA FEW050CB 28/13 
Q1018 WS ALL RWY=
####018000082####
SALT32 EYVI 081450
METAR EYKA 081450Z 29006KT 240V340 9999 OVC028 18/14 Q1016=
####018000106####
SPSA32 KWBC 081451
SPECI
SLTR 081432Z 14012KT 5000 -RA FEW008 SCT017 FEW020CB OVC070 21/21
Q1015=
####018000098####
SAET20 HAAB 081500
METAR HAAB 081500Z 26007KT 9999 FEW010 FEW020CB BKN020 BKN080 15/13
Q1023=
####018000074####
SALT34 EYVI 081450
METAR EYSA 081450Z 31011KT 9999 OVC041 20/14 Q1017=
####018000088####
SALV31 EVRA 081450
METAR EVRA 081450Z 31010KT 280V350 9999 OVC030 21/16 Q1016 NOSIG=
####018000100####
SALT31 EYVI 081450
METAR EYVI 081450Z 29009KT 9999 VCSH SCT007CB OVC012 15/14 Q1015
     NOSIG=
####018000074####
SAEO31 EETN 081450
METAR EETN 081450Z 30012KT CAVOK 25/15 Q1014 NOSIG=
####018000139####
SPXX62 KWBC 081451
SPECI
RKJK 081447Z 35003KT 1600 R36/0650V0750 BR SCT130 23/21 A2979 RMK
AO2A RAB1418E1439DZB1439E1447 SLP090 $=
####018000083####
SPUS31 KWBC 081451
SPECI
KLGA 081448Z 19007KT 8SM BKN018 OVC024 27/22 A3004=
####018000088####
SPCN47 CWAO 081450
SPECI CYRL 081450Z 31009KT 15SM -RA BKN015 BKN080 RMK SC6AC2=

####018000110####
SAUS42 KWBC 081400 RRG
METAR
KGLE 081446Z AUTO 15006KT 2SM +RA SCT012 BKN018 OVC030 26/23
     A3008=
####018001216####
SAUS43 KWBC 081400 RRJ
METAR
K1H2 081445Z AUTO 25007KT 10SM TS SCT024 SCT044 OVC100 30/24
     A3005=
KAAA 081443Z AUTO 27003KT 10SM SCT008 BKN015 OVC090 25/22
     A3006=
KC09 081444Z AUTO 23004KT 10SM SCT015 SCT020 BKN027 24/21
     A3003=
KDKB 081445Z AUTO 30006KT 10SM SCT015 SCT020 24/22 A3004=
KDNV 081445Z AUTO 21005KT 10SM CLR 29/23 A3001=
KENL 081444Z AUTO 23007KT 10SM CLR 28/20 A3006=
KFEP 081445Z AUTO 33004KT 10SM OVC011 24/21 A3005=
KFWC 081445Z AUTO 22005KT 10SM BKN050 30/24 A3005=
KGBG 081445Z AUTO 32003KT 5SM BR SCT008 OVC013 24/22 A3006=
KHSB 081445Z AUTO 23007KT 10SM SCT100 29/21 A3006=
KIGQ 081445Z AUTO 00000KT 7SM OVC030 24/23 A3003=
KIJX 081445Z AUTO 29004KT 7SM SCT007 BKN011 BKN019 25/23 A3006=
KJOT 081446Z AUTO 19003KT 10SM SCT015 SCT026 25/23 A3003=
KLOT 081441Z AUTO 29004KT 10SM BKN014 BKN022 OVC029 25/23
     A3003=
KMQB 081445Z AUTO 34005KT 10SM OVC008 24/22 A3008=
KOLY 081445Z AUTO 22003KT 10SM CLR 32/24 A3005=
KPNT 081445Z AUTO 26005KT 10SM SCT013 BKN017 OVC027 25/23
     A3004=
KPPQ 081445Z AUTO 00000KT 10SM SCT007 BKN012 BKN018 24/23
     A3008=
KPRG 081445Z AUTO 25004KT 10SM SCT039 SCT048 SCT110 28/23
     A3005=
####018000144####
SPXX62 KWBC 081451
SPECI
RKSO 081443Z AUTO 08005KT 4800 R27/1200VP1500 BR CLR 21/ A2979 RMK
AO2 RAE1401B1418E1428DZB1401E1432 SLP087 $=
####018000079####
SAKW35 OKBK 081500
METAR OKBK 081500Z 34016KT 7000 SKC 46/M02 Q0999 NOSIG=
####018000091####
SPUS43 KWBC 081451
SPECI
KMKE 081448Z 28009KT 10SM FEW011 SCT014 SCT190 26/20 A3001=
####018000213####
SAUS44 KWBC 081400 RRG
METAR
K11R 081444Z AUTO 08008KT 4SM RA SCT023 BKN031 24/23 A3000=
KBPG 081445Z AUTO 02006KT 7SM OVC008 22/20 A3015=
KBYY 081446Z AUTO 06008KT 7SM SCT019 SCT025 BKN055 29/27 A2993=
####018000096####
SPUS42 KWBC 081451
SPECI
KBRO 081448Z 31006KT 6SM RA BR FEW006 BKN022 OVC031 27/26 A2978=
####018000087####
SAUS51 KWBC 081400 RRE
METAR
KACY 081449Z 13003KT 3SM -RA BR SCT015 24/23 A3006=
####018000107####
SAUS53 KWBC 081400 RRL
METAR
KLNC 081445Z AUTO 00000KT 10SM SCT013 SCT018 BKN120 27/24
     A3005=
####018000075####
SAEO31 EETN 081450
METAR EETN 081450Z 30012KT CAVOK 25/15 Q1014 NOSIG=
####018000336####
SAIS31 LLBG 081450
METAR LLBG 081450Z 30010KT 9999 FEW030 28/20 Q1009 NOSIG=
METAR LLOV 081450Z 01009KT CAVOK 36/10 Q1008=
METAR LLET 081450Z 02015G25KT CAVOK 40/11 Q1004=
METAR LLHA 081450Z 29008KT 9999 SCT025 28/20 Q1009=
METAR LLIB 081450Z 33009KT CAVOK 33/12 Q1008=
METAR LLSD 081450Z 29009KT 9999 SCT026 28/21 Q1009=
####018000089####
SALV31 EVRA 081450
METAR EVRA 081450Z 31010KT 280V350 9999 OVC030 21/16 Q1016 NOSIG=
####018000098####
SAEU31 BKPR 081500
METAR BKPR 081500Z 34010KT 9999 SCT030 BKN060 17/10 Q1022 NOSIG RMK
BLU=
####018000083####
SALT32 EYVI 081450
METAR EYKA 081450Z 29006KT 240V340 9999 OVC028 18/14 Q1016=
####018000075####
SALT34 EYVI 081450
METAR EYSA 081450Z 31011KT 9999 OVC041 20/14 Q1017=
####018000166####
SAMP31 LMMM 081500
METAR HLLT 081450Z
02009KT 340V060 CAVOK 30/18 Q1018=
METAR HLLB NIL=
METAR LMML 081445Z 10009KT 060V150 9999 FEW021 28/21 Q1018 NOSIG =
####018000125####
SAUS54 KWBC 081400 RRG
METAR
KIGM 081448Z AUTO VRB04KT 10SM CLR 30/M01 A2999=
KJDN 081448Z AUTO 27005KT 21/10 A3019=
####018000096####
SPCN47 CWAO 081449
SPECI CYXR 081449Z AUTO 20012G17KT 8SM -RA FEW018 FEW098 25/21 A2989=

####018000072####
SAAK17 KAWN 081500
PATC SA 1455 AWOS CLR BLO 120 10 47/43/0108/013=
####018000096####
SPUS72 KWBC 081451
SPECI
KBRO 081448Z 31006KT 6SM RA BR FEW006 BKN022 OVC031 27/26 A2978=
####018000838####
SAXX70 KAWN 081500 RRB
METAR KQEI 081450Z AUTO 11003KT 6SM -RA OVC055 20/18 A2997 RMK A02=
METAR KQEN 081450Z AUTO 23006KT 7SM -DZ BKN070 18/16 A3041 RMK A02=
METAR KQEP 081450Z AUTO 17004KT 3SM -RA OVC060 21/18 A2988 RMK A02=
METAR KQER 081450Z AUTO 22001KT 3SM BR SCT004 21/19 A2990 RMK A02=
METAR KQES 081450Z AUTO 11001KT 4SM BR SCT110 SCT140 22/19 A2986 RMK
      A02=
METAR KQEY 081450Z AUTO 20002KT 7SM FEW065 FEW110 23/20 A2961 RMK A02=
METAR KQFV 081450Z AUTO 00000KT 4SM BR SCT001 BKN025 20/18 A3004 RMK
      A02=
METAR KQAJ 081455Z 27006KT 9999 CLR 44/03 A2966 RMK SLP031 WND DATA
      ESTMD ALSTG/SLP ESTMD 56008=
METAR KQSA 081455Z 34017G23KT 9999 FEW120 33/M01 A2991 RMK SLP308 WND
      DATA ESTMD ALSTG/SLP ESTMD 53003=
METAR KQEV 081500Z AUTO 24001KT 4SM -SHRA BKN045 21/19 A2981 RMK A02=
####018000378####
SAXN17 KAWN 081400 RRL
METAR MMPN 081444Z 00000KT 1SM BR BKN003 OVC010 17/16 A3007 RMK SLP///
      5/// 9// 6//// 8/7// LWR ST ARND RTS=
METAR TNCA 081400Z 08018KT 9999 FEW018 31/24 Q1012 NOSIG=
METAR TNCB 081400Z 08010KT 9999 FEW018 31/24 Q1013 NOSIG=
METAR TNCC 081400Z 09012KT 9999 FEW020 31/26 Q1013 NOSIG=
METAR TNCE 081400Z 06013KT 9999 FEW020 30/25 Q1016=
####018000076####
SAHW31 KMSC 081450
METAR PGRO 081450Z 10010KT 7SM FEW025 27/24 A2991
=
####018000084####
SAUS74 KWBC 081400 RRF
METAR
KIWA 081447Z 09012G18KT 35SM FEW120 37/11 A2985=
####018000131####
SPUS17 KAWN 081451 RRG
SPECI KFSI 081445Z AUTO 06008KT 10SM -RA BKN017 27/22 A3007 RMK AO2
      RAB1445 CIG 015V019 SLP167=
####018000091####
SPUS73 KWBC 081451
SPECI
KMKE 081448Z 28009KT 10SM FEW011 SCT014 SCT190 26/20 A3001=
####018000097####
SAUS90 KWBC 081452
METAR KU78 081436Z 15017KT 20SM SKC 17/07 A3029 RMK SLPNO
     NOSPECI=
####018000320####
SAUS90 KWBC 081500
METAR KIGM 081448Z AUTO VRB04KT 10SM CLR 30/M01 A2999 RMK AO2
     SLP074 T03001011 51008 TSNO=
METAR KACY 081449Z 13003KT 3SM -RA BR SCT015 24/23 A3006 RMK AO2
     SLP177 P0010 60014 T02440233 55000=
METAR MYEG 081459Z AUTO 15006KT 10SM CLR 30/24 A2998 RMK AO2 LTG
     DSNT N AND NW=
####018000101####
SPUS90 KWBC 081452 CCA
SPECI KBTR 081446Z 09005KT 10SM SCT010 BKN020 28/24 A3004 RMK
     AO2=
####018000107####
SAUS45 KPIH 081451
MTRU78

METAR KU78 081436Z 15017KT 20SM SKC 17/07 A3029 RMK SLPNO NOSPECI


####018001217####
SAUS20 KNKA 081451
METAR KAEG 081450Z 11016G19KT 10SM SKC 20/08 A3032=
METAR KBNL 081455Z AUTO 30007KT 10SM CLR 34/19 A2999 RMK AO2 =
METAR KCQW 081455Z AUTO 04006KT 5SM  HZ CLR 33/20 A2997 RMK AO2 =
SPECI KDBQ 081450Z 33005KT 10SM SCT015 BKN019 24/21 A3008 RMK AO2=
SPECI KDEN 081450Z 30003KT 1/2SM BR BKN007 BKN012 OVC017 16/14 A3034 
    RMK AO2 SFC VIS 3 CIG 005V010=
METAR KGPM 081450Z 12008KT 10SM SCT010 BKN020  28/23 A3005=
METAR KISM 081450Z 06003KT 10SM BKN032 28/21 A3004=
METAR KLKR 081455Z AUTO 36005KT 7SM CLR 32/23 A3000 RMK AO2 =
METAR KMWC 081445Z 30010KT 10SM OVC016 23/20 A3003=
METAR KOCF 081450Z 00000KT 10SM CLR 28/21 A3002=
METAR KPKV 081448Z AUTO 00000KT 5SM -RA SCT011 BKN021 OVC047 
     24/23 A2991 RMK AO2 P0026 T02440225=
SPECI KRKP 081450Z AUTO 10013G18KT 2 1/2SM RA FEW014 BKN029 OVC060 
    A2987 RMK AO2 TSE07 P0009 FZRANO=
METAR KTIP 081445Z AUTO 24006KT 10SM SCT020 28/25 A3005 RMK AO2 
     T02820247=
METAR KTRK 081450Z 00000KT 10SM FEW050 BKN100 10/07 A3018 RMK NO
    SPECI=
METAR KTYQ 081445Z AUTO 25009KT 10SM CLR 30/23 A3006 RMK AO2=
METAR KVYS 081445Z AUTO 32007KT 10SM SCT012 SCT016 OVC025 25/22 
     A3004 RMK AO2 T02500218=
####018000852####
SAUS99 KWBC 081452
METAR
KAEG 081450Z 11016G19KT 10SM SKC 20/08 A3032=
KBNL 081455Z AUTO 30007KT 10SM CLR 34/19 A2999 RMK AO2=
KCQW 081455Z AUTO 04006KT 5SM HZ CLR 33/20 A2997 RMK AO2=
KGPM 081450Z 12008KT 10SM SCT010 BKN020 28/23 A3005=
KISM 081450Z 06003KT 10SM BKN032 28/21 A3004=
KLKR 081455Z AUTO 36005KT 7SM CLR 32/23 A3000 RMK AO2=
KMWC 081445Z 30010KT 10SM OVC016 23/20 A3003=
KOCF 081450Z 00000KT 10SM CLR 28/21 A3002=
KPKV 081448Z AUTO 00000KT 5SM -RA SCT011 BKN021 OVC047 24/23 A2991
     RMK AO2 P0026 T02440225=
KTIP 081445Z AUTO 24006KT 10SM SCT020 28/25 A3005 RMK AO2
     T02820247=
KTRK 081450Z 00000KT 10SM FEW050 BKN100 10/07 A3018 RMK NO
     SPECI=
KTYQ 081445Z AUTO 25009KT 10SM CLR 30/23 A3006 RMK AO2=
KVYS 081445Z AUTO 32007KT 10SM SCT012 SCT016 OVC025 25/22 A3004
     RMK AO2 T02500218=
####018000096####
SAUS98 KWBC 081452
METAR KEHA 081448Z AUTO 02010KT 17/16 RMK AO1 PK WND 15 006
T01720162=
####018000299####
SPUS99 KWBC 081452
SPECI
KDBQ 081450Z 33005KT 10SM SCT015 BKN019 24/21 A3008 RMK AO2=
KDEN 081450Z 30003KT 1/2SM BR BKN007 BKN012 OVC017 16/14 A3034 RMK
     AO2 SFC VIS 3 CIG 005V010=
KRKP 081450Z AUTO 10013G18KT 2 1/2SM RA FEW014 BKN029 OVC060 A2987
     RMK AO2 TSE07 P0009 FZRANO=
####018000111####
SPSP31 KWBC 081452
SPECI
LEVS 081450Z 15021G42KT 050V190 9999 TS SHRA FEW050CB 28/13 Q1018
WS ALL RWY=
####018000163####
SAPQ50 KWBC 081500
METAR
PTRO 081450Z 00000KT 14SM BKN016CB BKN120 OVC300 26/24 A2991 RMK
     CB VC ALQDS=
PGRO 081450Z 10010KT 7SM FEW025 27/24 A2991=
####018000174####
SAAW31 KWBC 081430 RRA
METAR
LLBG 081450Z 30010KT 9999 FEW030 28/20 Q1009 NOSIG=
LLET 081450Z 02015G25KT CAVOK 40/11 Q1004=
LLOV 081450Z 01009KT CAVOK 36/10 Q1008=
####018000081####
SAEE31 KWBC 081430 RRC
METAR
EYSA 081450Z 31011KT 9999 OVC041 20/14 Q1017=
####018000083####
SACN96 CWAO 081400 RRE
XND SA 1400 AUTO8 M M M 214/14/07/MM01/M/ 0000 89MM=

####018000095####
SAMM31 KWBC 081430 RRA
METAR
LMML 081445Z 10009KT 060V150 9999 FEW021 28/21 Q1018 NOSIG=
####018000178####
SACN60 CWAO 081400 RRD
PHE SA 1400 AUTO8 M M M M/15/12/MMMM/M/ M 22MM=
PRD SA 1400 AUTO8 M M M M/13/07/2502/M/ M 04MM=
PSA SA 1400 AUTO8 M M M M/14/11/MMMM/M/ M 79MM=

####018000083####
SACN88 CWAO 081400 RRG
WZN SA 1400 AUTO8 M M M 212/13/M/1014/M/M 8001 6MMM=

####018000083####
SACN97 CWAO 081400 RRF
XLL SA 1400 AUTO8 M M M 154/16/14/1701/M/ 0000 29MM=

####018000453####
SACN59 CWAO 081400 RRI
NLB SA 1400 AUTO8 M M M M/14/12/2604/M/ M 10MM=
NLD SA 1400 AUTO8 M M M M/14/12/1502/M/0005 PCPN 0.5MM PAST HR M
05MM=
NNR SA 1400 AUTO8 M M M M/15/09/2609/M/ M 97MM=
NTK SA 1400 AUTO8 M M M M/15/11/1803/M/ M 58MM=
PCA SA 1400 AUTO8 M M M M/18/13/2205/M/ M 78MM=
PCM SA 1400 AUTO8 M M M M/17/13/MMMM/M/ M 09MM=
PQU SA 1400 AUTO8 M M M M/17/12/1401/M/ M 78MM=
PTR SA 1400 AUTO8 M M M M/18/12/MMMM/M/ M 15MM=

####018003332####
SAUS70 KWBC 081500
METAR
KCCA 081455Z AUTO 00000KT 10SM SCT011 BKN090 26/23 A3010 RMK
     AO2=
KCDN 081455Z AUTO 34006KT 10SM CLR 33/21 A2998 RMK A02 P000=
KCKI 081455Z AUTO 28005KT 10SM CLR 32/20 A2994 RMK AO2=
KLRO 081455Z AUTO 31008KT 8SM CLR 31/21 A2994 RMK AO2=
KMKS 081455Z AUTO 34007KT 7SM SCT002 31/21 A2995 RMK AO2 TSNO=
KMMU 081445Z 17004KT 3SM BR BKN015 OVC030 29/23 A3005=
KC75 081447Z AUTO 26003KT 10SM SCT010 SCT022 BKN026 25/23 A3004
     RMK AO2=
KFOA 081445Z AUTO 19006KT 10SM CLR 32/27 A3005 RMK AO2 LTG DSNT W
     T03150265=
KIKK 081445Z AUTO 18004KT 7SM SCT010 SCT025 BKN030 29/24 A3003 RMK
     AO2=
KMWA 081449Z 22007KT 15SM BKN110 OVC250 29/24 A3007=
KPEZ 081445Z AUTO 06008KT 10SM -DZ BKN013 OVC021 26/23 A2995 RMK
     AO2 T02550232=
KPPA 081445Z AUTO 06010KT 10SM BKN007 BKN011 OVC075 20/18 A3022
     RMK AO2=
KPYX 081450Z AUTO 35007KT 3SM OVC004 19/18 A3022 RMK AO2
     T01920184=
KRAS 081445Z AUTO 10012KT 6SM BR FEW018 SCT031 BKN044 28/26 A2989
     RMK AO2=
KRBO 081445Z AUTO 06010G16KT 1 3/4SM +RA BKN010 BKN037 OVC049
     26/25 A2988 RMK AO2 P0014 60020 T02640252=
KRPH 081445Z AUTO 12003KT 10SM SCT017 SCT049 BKN060 28/22 A3004
     RMK AO2 T02770215=
KRYW 081445Z AUTO 05004KT 3SM +RA BKN007 OVC012 25/23 A3002 RMK
     AO2=
KRYY 081448Z 32005KT 10SM SKC 32/22 A3006=
KSAR 081445Z AUTO 24004KT 5SM HZ CLR 28/24 A3006 RMK AO2 LTG DSNT
     N=
KSEE 081447Z 28006KT 4SM BR BKN008 OVC012 16/13 A2993=
KSLO 081445Z AUTO 27006KT 10SM VCTS BKN050 BKN085 OVC110 29/23
     A3006 RMK AO2 LTG DSNT N T02890227=
KSNK 081445Z AUTO 05009KT 10SM OVC009 24/22 A3013 RMK AO2
     T02360217=
KSQL 081447Z 29008KT 10SM OVC012 13/10 A2995=
KSWF 081445Z 11008KT 4SM HZ SCT100 29/23 A3008=
KSWW 081445Z AUTO 06005KT 2SM OVC002 22/22 A3013 RMK AO1
     T02230219=
KT65 081445Z AUTO 01008KT 7SM BKN011 OVC015 27/26 A2980 RMK AO2
     P0003 60003 T02700257=
KT82 081445Z AUTO 06006KT SCT013 BKN029 OVC044 25/22 A3005 RMK AO1
     T02530218=
KTAZ 081445Z AUTO 24004KT 10SM SCT095 28/24 A3005 RMK AO2 LTG DSNT
     SE AND S=
KTFP 081445Z AUTO 36005KT 7SM VCTSRA SCT013 BKN022 OVC042 28/26
     A2986 RMK AO2 P0012 60020 T02750256=
KUVA 081445Z AUTO 03007KT 7SM SCT017 26/23 A2997 RMK AO2
     T02620225=
KXBP 081445Z AUTO 15004KT 10SM SCT032 SCT038 BKN044 26/23 A3007
     RMK AO2 T02620230=
PAHZ 081450Z 00000KT 20SM SCT050 10/09 A3003 RMK FIRST NOSEPCI=
PAPT 081445Z 00000KT 10SM -RA FEW020 OVC060 08/08 A3000 RMK
     NOSPECI=
KAEG 081450Z 11016G19KT 10SM SKC 20/08 A3032=
KBNL 081455Z AUTO 30007KT 10SM CLR 34/19 A2999 RMK AO2=
KCQW 081455Z AUTO 04006KT 5SM HZ CLR 33/20 A2997 RMK AO2=
KGPM 081450Z 12008KT 10SM SCT010 BKN020 28/23 A3005=
KLKR 081455Z AUTO 36005KT 7SM CLR 32/23 A3000 RMK AO2=
KMWC 081445Z 30010KT 10SM OVC016 23/20 A3003=
KOCF 081450Z 00000KT 10SM CLR 28/21 A3002=
KPKV 081448Z AUTO 00000KT 5SM -RA SCT011 BKN021 OVC047 24/23 A2991
     RMK AO2 P0026 T02440225=
KTIP 081445Z AUTO 24006KT 10SM SCT020 28/25 A3005 RMK AO2
     T02820247=
KTRK 081450Z 00000KT 10SM FEW050 BKN100 10/07 A3018 RMK NO
     SPECI=
KTYQ 081445Z AUTO 25009KT 10SM CLR 30/23 A3006 RMK AO2=
KVYS 081445Z AUTO 32007KT 10SM SCT012 SCT016 OVC025 25/22 A3004
     RMK AO2 T02500218=
####018000096####
SPUS80 KWBC 081452 CCA
SPECI
KBTR 081446Z 09005KT 10SM SCT010 BKN020 28/24 A3004 RMK AO2=
####018000437####
SPUS70 KWBC 081452
SPECI
KDTN 081449Z 11004KT 10SM BKN012 27/24 A3006 RMK AO2=
KCNM 081449Z AUTO 33011KT 10SM -RA BKN020 OVC095 20/18 A3019 RMK
     AO2 P0002=
KHBR 081450Z AUTO 06007KT 9SM SCT005 24/23 A3011 RMK AO2=
KDEN 081450Z 30003KT 1/2SM BR BKN007 BKN012 OVC017 16/14 A3034 RMK
     AO2 SFC VIS 3 CIG 005V010=
KRKP 081450Z AUTO 10013G18KT 2 1/2SM RA FEW014 BKN029 OVC060 A2987
     RMK AO2 TSE07 P0009 FZRANO=
####018000510####
SAUS80 KWBC 081500
METAR
KIGM 081448Z AUTO VRB04KT 10SM CLR 30/M01 A2999 RMK AO2 SLP074
     T03001011 51008 TSNO=
KACY 081449Z 13003KT 3SM -RA BR SCT015 24/23 A3006 RMK AO2 SLP177
     P0010 60014 T02440233 55000=
KPSN 081445Z AUTO 11008KT 7SM 27/24 A3006 RMK AO2 T02680244=
KRFI 081445Z AUTO 12008KT 7SM BKN011 OVC110 28/24 A3006 RMK AO2
     T02760236=
KSEP 081445Z AUTO 09004KT 10SM SCT005 SCT011 SCT021 25/23 A3007
     RMK AO1 P0009=
KISM 081450Z 06003KT 10SM BKN032 28/21 A3004=
####018000077####
SAXX60 KWBC 081500
METAR
KMHR 081446Z 16003KT 10SM FEW150 14/10 A2987=
####018000084####
SACN89 CWAO 081400 RRE
WDT SA 1400 AUTO7 M M M 163/24/22/1503/M/M 8004 65MM=

####018000161####
SAPO31 KWBC 081400 RRE
METAR
LPFL 081400Z 20007KT 170V280 9999 FEW021TCU SCT040 24/17 Q1021 RMK
     WIND RWY36 23007KT 170V310 POS MID 21008KT 180V250=
####018000089####
SAFR32 KWBC 081430 RRA
METAR
LFOB 081448Z 22008KT 180V250 CAVOK 32/08 Q1018 NOSIG=
####018000298####
SPXX60 KWBC 081452
SPECI
KFSI 081445Z AUTO 06008KT 10SM -RA BKN017 27/22 A3007 RMK AO2
     RAB1445 CIG 015V019 SLP167=
KNEL 081443Z AUTO 16008KT 8SM OVC016 27/21 A3005 RMK AO2 $=
KSKF 081443Z 04009KT 10SM BKN013 26/ A2995 RMK AO2A
     RAB1439E1441DZB1427E1443 CIG 010V017 SLP133 $=
####018000083####
SACN94 CWAO 081400 RRF
WSQ SA 1400 AUTO8 M M M 099/06/05/2505/M/ 0000 45MM=

####018000092####
SPUS80 KWBC 081452
SPECI
KDBQ 081450Z 33005KT 10SM SCT015 BKN019 24/21 A3008 RMK AO2=
####018000107####
SPEW35 LEMM 081450
SPECI LEVS 081450Z 15021G42KT 050V190 9999 TS SHRA FEW050CB 28/13
Q1018 WS ALL RWY=
####018000243####
SACA33 KWBC 081400 RRD
METAR
TNCA 081400Z 08018KT 9999 FEW018 31/24 Q1012 NOSIG=
TNCB 081400Z 08010KT 9999 FEW018 31/24 Q1013 NOSIG=
TNCC 081400Z 09012KT 9999 FEW020 31/26 Q1013 NOSIG=
TNCE 081400Z 06013KT 9999 FEW020 30/25 Q1016=
####018000082####
SAUS80 KWBC 081452
METAR
KSOA 081440Z AUTO 05007KT 8SM 25/22 A3011 RMK AO2=
####018000338####
SAUS70 KWBC 081452
METAR
KOSA 081444Z AUTO 12004KT 10SM SCT010 SCT016 27/24 A3008 RMK AO1
     T02670240=
KRWV 081440Z AUTO 00000KT 3SM BR BKN009 OVC016 26/24 A3003 RMK
     AO2=
KSLR 081442Z AUTO 15005KT 7SM SCT014 SCT080 28/23 A3008 RMK AO2
     T02770227=
KU78 081436Z 15017KT 20SM SKC 17/07 A3029 RMK SLPNO NOSPECI=
####018000097####
SAXX99 KWBC 081400 RRX
METAR
WARR 081430Z 19006KT 8000 FEW020CB SCT020 25/23 Q1011 RETSRA=
####018000075####
SADL45 ETGT 081450
METAR
ETNG 081450Z 29005KT CAVOK 32/12 Q1018 NOSIG=
####018000088####
SPUS42 KWBC 081452 CCA
SPECI
KBTR 081446Z 09005KT 10SM SCT010 BKN020 28/24 A3004=
####018000088####
SASC20 FSIA 081400
METAR FSIA 081404Z 15006KT 9999 SCT017 SCT250 27/22 Q1012 NOSIG=
####018000093####
SPUS52 KWBC 081452
SPECI
KCNM 081449Z AUTO 33011KT 10SM -RA BKN020 OVC095 20/18 A3019=
####018000081####
SPUS52 KWBC 081452
SPECI
KHBR 081450Z AUTO 06007KT 9SM SCT005 24/23 A3011=
####018000104####
SAUS45 KPIH 081452
MTR77M

METAR K77M 081436Z 00000KT 25SM FEW130 15/03 RMK SLPNO NOSPECI


####018000119####
SAUS46 KSGX 081452
MTRSAN
METAR KSAN 081451Z 34003KT 6SM BR OVC014 16/14 A2994 RMK AO2 SLP138 
T01610139 51010
####018000163####
SAMP31 LMMM 081500
METAR HLLT 081450Z
02009KT 340V060 CAVOK 30/18 Q1018=
METAR HLLB NIL=
METAR LMML 081445Z 10009KT 060V150 9999 FEW021 28/21 Q1018 NOSIG =
####018000164####
SAMP31 LMMM 081500
METAR HLLT 081450Z 
02009KT 340V060 CAVOK 30/18 Q1018=
METAR HLLB NIL=
METAR LMML 081445Z 10009KT 060V150 9999 FEW021 28/21 Q1018 NOSIG =
####018000102####
SALT31 EYVI 081450
METAR EYVI 081450Z 29009KT 9999 VCSH SCT007CB OVC012 15/14 Q1015
     NOSIG=
####018000164####
SAMP31 LMMM 081500
METAR HLLT 081450Z 02009KT 340V060 CAVOK 30/18 Q1018=
METAR HLLB NIL=
METAR LMML 081445Z 10009KT 060V150 9999 FEW021 28/21 Q1018 NOSIG =
####018000079####
SALY31 HLLT 081500
METAR HLLT 081450Z 
02009KT 340V060 CAVOK 30/18 Q1018=
####018000083####
SAEO32 EETN 081450
METAR EETU 081450Z VRB04KT 3000 +TSRA BKN031CB 22/20 Q1014=
####018000088####
SPUS72 KWBC 081452 CCA
SPECI
KBTR 081446Z 09005KT 10SM SCT010 BKN020 28/24 A3004=
####018000093####
SPUS72 KWBC 081452
SPECI
KCNM 081449Z AUTO 33011KT 10SM -RA BKN020 OVC095 20/18 A3019=
####018000088####
SPUS81 KWBC 081452 CCA
SPECI
KBTR 081446Z 09005KT 10SM SCT010 BKN020 28/24 A3004=
####018000075####
SAGI32 EGRR 081450
METAR LXGB 081450Z 11012KT CAVOK 28/17 Q1016 NOSIG=
####018000079####
SAAE31 VTBB 081430 RRI
METAR VDPP 081430Z 03002KT 9999 SCT020 28/23 Q1008=
####018000090####
SAXX70 KAWN 081400 RRV
METAR KQFU 081430Z AUTO 05002KT 7SM VV003 22/18 A2991 RMK A02=
####018000276####
SAUS20 KNKA 081452
METAR KCWF 081450Z 08007KT 7SM BKN011 28/28 A3003=
METAR KGEU 081447Z 00000KT 20SM FEW120 SCT200 31/07 A2984=
METAR KSJT 081451Z 08006KT 7SM OVC004 24/22 A3008 RMK AO2 SLP163 
    T02390222 51011=
METAR KTZR 081450Z 00000KT 7SM SKC 30/19 A3007=
####018000084####
SAIN90 VECC 081450
METAR VECC 081450Z 18009KT 3500 HZ FEW020 31/24 Q1005 NOSIG=
####018000084####
SACA01 KMSC 081452
METAR TJPS 081450Z 17012KT 8SM FEW030  32/27 A3000 HZ ALQDS=
####018000107####
SAAK41 KNKA 081452
SPECI PAWD 081450Z AUTO 00000KT 10SM SCT023 OVC055 10/09 A2999 RMK 
    AO2 TSNO=
####018002422####
SAUS20 KNKA 081452
METAR KLGU 081451Z AUTO 01003KT 10SM CLR 19/06 A3019 RMK AO2 SLP174 
    T01890061 51008=
METAR KMDW 081451Z 25003KT 7SM SCT012 BKN017 OVC023 24/22 A3003 RMK 
    AO2 RAB14E23 SLP157 P0000 60003 T02440217 50002=
METAR KMPV 081451Z AUTO 20006KT 7SM CLR 29/22 A3010 RMK AO2 SLP184 
    T02940222 58007=
METAR KMYL 081451Z AUTO 00000KT 10SM CLR 14/06 A3022 RMK AO2 SLP191 
    T01440061 50006=
METAR KOKC 081452Z 36007KT 10SM BKN014 BKN026 27/22 A3008 RMK AO2 
    SLP171 T02720222 53006=
METAR KONM 081447Z AUTO 35006KT 10SM CLR 21/15 A3028 RMK AO2 
     T02100146=
METAR KORD 081451Z 28006KT 10SM SCT012 SCT017 BKN050 25/22 A3003 RMK 
    AO2 RAE1356 SLP163 P0000 60001 T02500222 58002=
METAR KOXR 081451Z 28004KT 7SM OVC009 14/13 A2993 RMK AO2 SLP136 
    T01440128 53010 $=
METAR KPHX 081451Z 10003KT 10SM FEW140 SCT160 35/01 A2982 RMK AO2 
    SLP074 T03500011 51015=
METAR KPIT 081451Z 20005KT 8SM CLR 30/18 A3008 RMK AO2 SLP182 
    T03000183 58005=
METAR KPWM 081451Z 17008KT 10SM FEW014 24/20 A3010 RMK AO2 SLP192 
    T02390200 51002 $=
METAR KRDU 081451Z 07009KT 6SM HZ SCT080 BKN250 32/21 A2999 RMK AO2 
    SLP150 T03220206 58002=
METAR KROW 081451Z 01006KT 10SM -RA SCT034 BKN050 BKN075 20/17 A3023 
    RMK AO2 SLP180 P0001 60001 T02000172 53013=
SPECI KRVS 081451Z 00000KT 10SM SCT008 BKN022 OVC028 25/23 A3006 RMK 
    AO2=
METAR KSLK 081451Z AUTO 23006KT 10SM CLR 29/21 A3007 RMK AO2 SLP171 
    T02940206 58006=
METAR KSMO 081451Z 23003KT 7SM OVC009 16/13 A2994 RMK AO2 CIG 
    006V010 SLP137 T01610133 53013=
SPECI KSNY 081451Z AUTO 00000KT 10SM FEW009 BKN013 18/14 A3034 RMK 
    AO2=
METAR KSPS 081452Z 09004KT 10SM BKN013 BKN250 27/22 A3007 RMK AO2 
    SLP169 T02670222 53011=
METAR KSTL 081451Z 27004KT 10SM SCT009 BKN060 BKN250 27/24 A3006 RMK 
    AO2 RAE22 SLP167 P0000 60000 T02670239 56001=
METAR KTEB 081451Z 21005KT 4SM DZ OVC017 27/22 A3004 RMK AO2 DZB32 
    SLP171 P0000 60000 T02670222 51002=
METAR KTIX 081447Z VRB04KT 7SM SCT020 28/19 A3002=
SPECI KTVC 081451Z 24005KT 10SM FEW005 BKN010 OVC120 24/21 A2999 RMK 
    AO2=
METAR KU78 081436Z 15017KT 20SM SKC 17/07 A3029 RMK SLPNO
     NOSPECI=
METAR KVNY 081451Z 14004KT 3SM BR OVC008 16/13 A2993 RMK AO2 SLP129 
    T01560133 53011=
METAR KYNG 081451Z VRB03KT 7SM CLR 30/18 A3008 RMK AO2 SLP174 
    T03000183 58008=
####018002951####
SAUS20 KNKA 081452
METAR K1F0 081447Z AUTO 00000KT 26/24 A3005 RMK AO2 PWINO=
METAR KACT 081451Z 08007KT 9SM FEW013 BKN049 27/23 A3003 RMK AO2 
    RAB1355E05 SLP162 P0000 60000 T02720233 51012=
METAR KAHN 081451Z VRB03KT 7SM CLR 32/21 A3003 RMK AO2 SLP161 
    T03220206 58001 $=
SPECI KAKO 081451Z AUTO 16007KT 10SM OVC007 16/14 A3033 RMK AO2 CIG 
    004V010 TSNO=
METAR KALB 081451Z 14004KT 6SM HZ FEW090 31/22 A3003 RMK AO2 SLP167 
    T03060217 58003=
METAR KANE 081445Z 29008KT 12SM FEW200 23/17 A3011=
METAR KASH 081451Z 13007KT 10SM FEW024 29/21 A3008 RMK AO2 58003 
    T02880211 SLP188=
METAR KAVX 081451Z AUTO 26006KT M1/4SM FG VV001 12/12 A2995 RMK AO2 
    SLP137 P0001 60001 T01170117 53009 TSNO=
METAR KBAZ 081451Z AUTO 07009KT 5SM -RA BR SCT006 BKN010 OVC017 
    25/24 A2996 RMK AO2 CIG 008V014 SLP136 P0012 60015 T02500244 
    51006=
METAR KBDL 081451Z 15006KT 5SM HZ SCT016 BKN022 BKN030 28/22 A3006 
    RMK AO2 SLP177 T02780222 58003=
METAR KBGD 081451Z AUTO 06008KT 10SM OVC006 21/19 A3022 RMK AO2 CIG 
    004V010 SLP199 T02060189 53004=
METAR KBKW 081451Z AUTO VRB04KT 6SM HZ CLR 28/18 A3017 RMK AO2 
    SLP175 T02780183 58001 VISNO RWY19 $=
SPECI KBTR 081446Z 09005KT 10SM SCT010 BKN020 28/24 A3004 RMK
     AO2=
METAR KCAK 081451Z 25003KT 10SM FEW042 29/17 A3008 RMK AO2 SLP174 
    8/100 T02940172 58007=
METAR KCLE 081451Z 21005KT 10SM CLR 31/18 A3006 RMK AO2 SLP170 
    T03110183 58010 $=
METAR KCMH 081451Z 00000KT 6SM HZ CLR 31/20 A3006 RMK AO2 SLP170 
    T03060200 58008=
METAR KCSG 081451Z 00000KT 10SM CLR 32/21 A3002 RMK AO2 SLP161 
    T03170206 58003=
METAR KDAW 081451Z AUTO 16005KT 7SM SCT017 BKN042 28/21 A3008 RMK 
    AO2 SLP181 T02780211 58004=
SPECI KDEQ 081451Z AUTO VRB05KT 10SM BKN013 BKN048 OVC075 27/24 
    A3006 RMK AO2=
METAR KDUC 081452Z AUTO 06006KT 10SM SCT017 SCT024 27/23 A3007 
     RMK AO2=
METAR KEKM 081450Z 16004KT 5SM -RA SCT044 BKN050 OVC070 24/23
    A3004 RMK AO2=
METAR KEKN 081451Z AUTO 00000KT 7SM CLR 27/18 A3014 RMK AO2 SLP194 
    T02720183 58009 TSNO=
METAR KELP 081451Z 06007KT 10SM FEW040 SCT110 25/15 A3016 RMK AO2 
    SLP138 T02500150 51009=
METAR KERI 081451Z 22005KT 9SM CLR 32/18 A3004 RMK AO2 SLP166 
    T03170178 58007=
METAR KEWR 081451Z VRB05KT 10SM FEW015 SCT025 SCT060 OVC130 27/23 
    A3005 RMK AO2 SLP175 HAZE ALOFT T02720233 51002=
METAR KHDO 081451Z AUTO 07012KT 10SM BKN018 BKN022 BKN033 28/23 
    A2998 RMK AO2 SLP136 T02780228 51008=
METAR KHTS 081451Z 00000KT 6SM HZ FEW085 31/20 A3008 RMK AO2 SLP175 
    T03110200 58005=
METAR KILG 081451Z 18007KT 10SM CLR 28/21 A3004 RMK AO2 SLP170 
    T02830211 58001=
METAR KJFK 081451Z 15009KT 10SM BKN015 BKN022 BKN130 27/22 A3006 RMK 
    AO2 SLP178 60000 T02670217 50000=
METAR KLGA 081451Z 19007KT 8SM BKN018 OVC024 27/22 A3004 RMK AO2 
    RAE06 SLP173 P0001 60001 T02720222 57001=
####018000121####
SAUS43 KMQT 081452
MTRP59
METAR KP59 081451Z AUTO 36010KT 20/16 A2999 RMK AO2 SLP149 T02000161 
50004 PWINO TSNO
####018000121####
SAUS41 KGYX 081452
MTRCON
METAR KCON 081451Z AUTO 19007KT 7SM FEW020 27/21 A3008 RMK AO2 
SLP184 T02720211 58002
####018003706####
SAUS99 KWBC 081453
METAR
KCWF 081450Z 08007KT 7SM BKN011 28/28 A3003=
KGEU 081447Z 00000KT 20SM FEW120 SCT200 31/07 A2984=
KSJT 081451Z 08006KT 7SM OVC004 24/22 A3008 RMK AO2 SLP163
     T02390222 51011=
KTZR 081450Z 00000KT 7SM SKC 30/19 A3007=
K1F0 081447Z AUTO 00000KT 26/24 A3005 RMK AO2 PWINO=
KACT 081451Z 08007KT 9SM FEW013 BKN049 27/23 A3003 RMK AO2
     RAB1355E05 SLP162 P0000 60000 T02720233 51012=
KAHN 081451Z VRB03KT 7SM CLR 32/21 A3003 RMK AO2 SLP161 T03220206
     58001 $=
KALB 081451Z 14004KT 6SM HZ FEW090 31/22 A3003 RMK AO2 SLP167
     T03060217 58003=
KANE 081445Z 29008KT 12SM FEW200 23/17 A3011=
KASH 081451Z 13007KT 10SM FEW024 29/21 A3008 RMK AO2 58003
     T02880211 SLP188=
KAVX 081451Z AUTO 26006KT M1/4SM FG VV001 12/12 A2995 RMK AO2
     SLP137 P0001 60001 T01170117 53009 TSNO=
KBAZ 081451Z AUTO 07009KT 5SM -RA BR SCT006 BKN010 OVC017 25/24
     A2996 RMK AO2 CIG 008V014 SLP136 P0012 60015 T02500244
     51006=
KBDL 081451Z 15006KT 5SM HZ SCT016 BKN022 BKN030 28/22 A3006 RMK
     AO2 SLP177 T02780222 58003=
KBGD 081451Z AUTO 06008KT 10SM OVC006 21/19 A3022 RMK AO2 CIG
     004V010 SLP199 T02060189 53004=
KBKW 081451Z AUTO VRB04KT 6SM HZ CLR 28/18 A3017 RMK AO2 SLP175
     T02780183 58001 VISNO RWY19 $=
KCAK 081451Z 25003KT 10SM FEW042 29/17 A3008 RMK AO2 SLP174 8/100
     T02940172 58007=
KCLE 081451Z 21005KT 10SM CLR 31/18 A3006 RMK AO2 SLP170 T03110183
     58010 $=
KCMH 081451Z 00000KT 6SM HZ CLR 31/20 A3006 RMK AO2 SLP170
     T03060200 58008=
KCSG 081451Z 00000KT 10SM CLR 32/21 A3002 RMK AO2 SLP161 T03170206
     58003=
KDAW 081451Z AUTO 16005KT 7SM SCT017 BKN042 28/21 A3008 RMK AO2
     SLP181 T02780211 58004=
KDUC 081452Z AUTO 06006KT 10SM SCT017 SCT024 27/23 A3007 RMK
     AO2=
KEKM 081450Z 16004KT 5SM -RA SCT044 BKN050 OVC070 24/23 A3004 RMK
     AO2=
KEKN 081451Z AUTO 00000KT 7SM CLR 27/18 A3014 RMK AO2 SLP194
     T02720183 58009 TSNO=
KELP 081451Z 06007KT 10SM FEW040 SCT110 25/15 A3016 RMK AO2 SLP138
     T02500150 51009=
KERI 081451Z 22005KT 9SM CLR 32/18 A3004 RMK AO2 SLP166 T03170178
     58007=
KEWR 081451Z VRB05KT 10SM FEW015 SCT025 SCT060 OVC130 27/23 A3005
     RMK AO2 SLP175 HAZE ALOFT T02720233 51002=
KHDO 081451Z AUTO 07012KT 10SM BKN018 BKN022 BKN033 28/23 A2998
     RMK AO2 SLP136 T02780228 51008=
KHTS 081451Z 00000KT 6SM HZ FEW085 31/20 A3008 RMK AO2 SLP175
     T03110200 58005=
KILG 081451Z 18007KT 10SM CLR 28/21 A3004 RMK AO2 SLP170 T02830211
     58001=
KJFK 081451Z 15009KT 10SM BKN015 BKN022 BKN130 27/22 A3006 RMK AO2
     SLP178 60000 T02670217 50000=
KLGA 081451Z 19007KT 8SM BKN018 OVC024 27/22 A3004 RMK AO2 RAE06
     SLP173 P0001 60001 T02720222 57001=
KLGU 081451Z AUTO 01003KT 10SM CLR 19/06 A3019 RMK AO2 SLP174
     T01890061 51008=
KMDW 081451Z 25003KT 7SM SCT012 BKN017 OVC023 24/22 A3003 RMK AO2
     RAB14E23 SLP157 P0000 60003 T02440217 50002=
KMPV 081451Z AUTO 20006KT 7SM CLR 29/22 A3010 RMK AO2 SLP184
     T02940222 58007=
KMYL 081451Z AUTO 00000KT 10SM CLR 14/06 A3022 RMK AO2 SLP191
     T01440061 50006=
KOKC 081452Z 36007KT 10SM BKN014 BKN026 27/22 A3008 RMK AO2 SLP171
     T02720222 53006=
KONM 081447Z AUTO 35006KT 10SM CLR 21/15 A3028 RMK AO2
     T02100146=
KORD 081451Z 28006KT 10SM SCT012 SCT017 BKN050 25/22 A3003 RMK AO2
     RAE1356 SLP163 P0000 60001 T02500222 58002=
KOXR 081451Z 28004KT 7SM OVC009 14/13 A2993 RMK AO2 SLP136
     T01440128 53010 $=
KPHX 081451Z 10003KT 10SM FEW140 SCT160 35/01 A2982 RMK AO2 SLP074
     T03500011 51015=
KPIT 081451Z 20005KT 8SM CLR 30/18 A3008 RMK AO2 SLP182 T03000183
     58005=
####018000273####
SASW31 LSSW 081450
METAR LSZH 081450Z 32004KT 240V040 CAVOK 30/11 Q1021 NOSIG=
METAR LSGG 081450Z 22009KT 180V250 9999 FEW050 BKN250 32/11 Q1020
    NOSIG=
METAR LSZB 081450Z VRB03KT CAVOK 31/13 Q1021 NOSIG=
METAR LSZA 081450Z 19007KT 9999 FEW055 29/16 Q1021 NOSIG=
####018000129####
SAMH31 PKMR 081500
METAR PKMR 081450Z 07009KT 15SM FEW015 SCT045 BKN120 OVC300 28/24
A2978 RMK SLP085 8/878 T02770239 57015
####018000207####
SASW39 LSSW 081450
METAR LSMA 081450Z NIL=
METAR LSMD 081450Z NIL=
METAR LSME 081450Z NIL=
METAR LSMM 081450Z NIL=
METAR LSMP 081450Z NIL=
METAR LSMS 081450Z 25018KT 9999 FEW120 SCT250 31/13 Q1019=
####018000151####
SAUS44 KMAF 081452
MTRGDP
METAR KGDP 081451Z AUTO 05022KT 9SM BKN002 BKN095 18/17 A3026 RMK 
AO2 PK WND 06026/1435 SLP177 T01780167 50013 TSNO
####018000121####
SAUS45 KPIH 081452
MTRSNT
METAR KSNT 081451Z AUTO 00000KT 09/02 A3035 RMK AO2 SLP201 T00890017 
50003 PWINO TSNO
####018000096####
SAGU31 MGGT 081500
METAR
MGGT 081500Z 18004KT CAVOK 19/15 Q1024 A30.24 SCT080 BKN100 NOSIG=
####018000568####
SPUS99 KWBC 081453
SPECI
PAWD 081450Z AUTO 00000KT 10SM SCT023 OVC055 10/09 A2999 RMK AO2
     TSNO=
KAKO 081451Z AUTO 16007KT 10SM OVC007 16/14 A3033 RMK AO2 CIG
     004V010 TSNO=
KBTR 081446Z 09005KT 10SM SCT010 BKN020 28/24 A3004 RMK AO2=
KDEQ 081451Z AUTO VRB05KT 10SM BKN013 BKN048 OVC075 27/24 A3006
     RMK AO2=
KRVS 081451Z 00000KT 10SM SCT008 BKN022 OVC028 25/23 A3006 RMK
     AO2=
KSNY 081451Z AUTO 00000KT 10SM FEW009 BKN013 18/14 A3034 RMK
     AO2=
KTVC 081451Z 24005KT 10SM FEW005 BKN010 OVC120 24/21 A2999 RMK
     AO2=
####018001114####
SAUS99 KWBC 081453 RRA
METAR
KPWM 081451Z 17008KT 10SM FEW014 24/20 A3010 RMK AO2 SLP192
     T02390200 51002 $=
KRDU 081451Z 07009KT 6SM HZ SCT080 BKN250 32/21 A2999 RMK AO2
     SLP150 T03220206 58002=
KROW 081451Z 01006KT 10SM -RA SCT034 BKN050 BKN075 20/17 A3023 RMK
     AO2 SLP180 P0001 60001 T02000172 53013=
KSLK 081451Z AUTO 23006KT 10SM CLR 29/21 A3007 RMK AO2 SLP171
     T02940206 58006=
KSMO 081451Z 23003KT 7SM OVC009 16/13 A2994 RMK AO2 CIG 006V010
     SLP137 T01610133 53013=
KSPS 081452Z 09004KT 10SM BKN013 BKN250 27/22 A3007 RMK AO2 SLP169
     T02670222 53011=
KSTL 081451Z 27004KT 10SM SCT009 BKN060 BKN250 27/24 A3006 RMK AO2
     RAE22 SLP167 P0000 60000 T02670239 56001=
KTEB 081451Z 21005KT 4SM DZ OVC017 27/22 A3004 RMK AO2 DZB32
     SLP171 P0000 60000 T02670222 51002=
KTIX 081447Z VRB04KT 7SM SCT020 28/19 A3002=
KU78 081436Z 15017KT 20SM SKC 17/07 A3029 RMK SLPNO NOSPECI=
KVNY 081451Z 14004KT 3SM BR OVC008 16/13 A2993 RMK AO2 SLP129
     T01560133 53011=
KYNG 081451Z VRB03KT 7SM CLR 30/18 A3008 RMK AO2 SLP174 T03000183
     58008=
####018000165####
SAUS44 KEWX 081452
MTRATT
METAR KATT 081451Z AUTO VRB03KT 4SM -RA BR SCT010 BKN021 OVC065 
25/24 A3000 RMK AO2 RAE1357B14 SLP147 P0008 60009 T02500239 51007
####018000074####
SAAZ61 LPLA 081500
METAR LPLA 081500Z 26009KT 9999 SCT015 23/18 Q1023=
####018000074####
SAGI32 EGRR 081450
METAR LXGB 081450Z 11012KT CAVOK 28/17 Q1016 NOSIG=
####018000128####
SALV32 EVRA 081450
METAR EVLA 081450Z AUTO VRB04KT 9999 NCD 22/14 Q1019=
METAR EVVA 081450Z AUTO 32008KT CAVOK 21/16 Q1018=
####018000095####
SPUS31 KWBC 081453
SPECI
KDEN 081450Z 30003KT 1/2SM BR BKN007 BKN012 OVC017 16/14 A3034=
####018000086####
SAAI41 FHAW 081450
METAR FHAW 081450Z 13015KT 9999 FEW030 BKN300 29/19 Q1015 BLU=
####018000116####
SAMO31 ZMUB 081500
METAR ZMUB 081500Z 14013G19MPS 9999 SCT030CB SCT033 15/11 Q1007
 NOSIG
 RMK QFE648.5 76=
####018000140####
SAUS41 KAKQ 081453
MTRORF
METAR KORF 081451Z 08012G16KT 10SM FEW020 SCT080 SCT100 29/21 A2999 
RMK AO2 SLP156 60000 T02890211 51003
####018000146####
SAUS41 KOKX 081453
MTRNYC
METAR KNYC 081451Z AUTO VRB04KT 8SM SCT017 27/23 A3008 RMK AO2 RAE09 
SLP175 P0000 60000 T02720228 58001 TSNO $
####018000124####
SAUS45 KTWC 081453
MTRSAD
METAR KSAD 081451Z AUTO 16007KT 10SM CLR 27/13 A3006 RMK AO2 SLP124 
T02670128 51013 TSNO
####018000127####
SAUS42 KMHX 081452
MTRHSE
METAR KHSE 081451Z AUTO 06010G16KT 10SM CLR 28/23 A2995 RMK AO2 
SLP140 T02830228 53003 TSNO
####018000113####
SAUS41 KPHI 081453
MTRABE
METAR KABE 081451Z 08005KT 7SM CLR 31/22 A3003 RMK AO2 SLP166 
T03060217 58003
####018000140####
SAUS46 KLOX 081453
MTRSMX
METAR KSMX 081451Z 30004KT 3SM BR BKN004 OVC010 12/11 A2995 RMK AO2 
CIG 003V007 SLP145 T01220111 51011 $
####018000085####
SPCN44 CWAO 081452
SPECI CYUS 081452Z AUTO ///// 9SM FEW066 FEW087 15/ A2978=

####018000121####
SAUS43 KDTX 081453
MTRP58
METAR KP58 081451Z AUTO 28004KT 27/22 A2999 RMK AO2 SLP146 T02670222 
50000 PWINO TSNO
####018000155####
SAUS44 KCRP 081453
MTRVCT
METAR KVCT 081451Z 03006KT 8SM -RA SCT025 SCT037 BKN055 26/25 A2992 
RMK AO2 RAE23B42 SLP130 P0011 60039 T02560250 50009
####018000084####
SPUS53 KWBC 081453
SPECI
KDBQ 081450Z 33005KT 10SM SCT015 BKN019 24/21 A3008=
####018000095####
SPUS73 KWBC 081453
SPECI
KDEN 081450Z 30003KT 1/2SM BR BKN007 BKN012 OVC017 16/14 A3034=
####018000130####
SALV32 EVRA 081450
METAR EVLA 081450Z AUTO VRB04KT 9999 NCD 22/14 Q1019=
METAR EVVA 081450Z AUTO 32008KT CAVOK 21/16 Q1018=
####018000077####
SAEO32 EETN 081450
METAR EEKE 081450Z 31010KT 280V340 CAVOK 23/09 Q1017=
####018000278####
SASW31 LSSW 081450
METAR LSZH 081450Z 32004KT 240V040 CAVOK 30/11 Q1021 NOSIG=
METAR LSGG 081450Z 22009KT 180V250 9999 FEW050 BKN250 32/11 Q1020
    NOSIG=
METAR LSZB 081450Z VRB03KT CAVOK 31/13 Q1021 NOSIG=
METAR LSZA 081450Z 19007KT 9999 FEW055 29/16 Q1021 NOSIG=
####018000212####
SASW39 LSSW 081450
METAR LSMA 081450Z NIL=
METAR LSMD 081450Z NIL=
METAR LSME 081450Z NIL=
METAR LSMM 081450Z NIL=
METAR LSMP 081450Z NIL=
METAR LSMS 081450Z 25018KT 9999 FEW120 SCT250 31/13 Q1019=
####018000084####
SPUS81 KWBC 081453
SPECI
KDBQ 081450Z 33005KT 10SM SCT015 BKN019 24/21 A3008=
####018000415####
SADL32 EDZO 081450
METAR EDDB 081450Z 08003KT CAVOK 29/07 Q1020 NOSIG=
METAR EDDC 081450Z 27004KT CAVOK 27/09 Q1021 NOSIG=
METAR EDDE 081450Z 31004KT CAVOK 29/10 Q1020 NOSIG=
METAR EDDG 081450Z 25007KT CAVOK 31/09 Q1018 NOSIG=
METAR EDDP 081450Z 31004KT 290V020 CAVOK 28/11 Q1020 NOSIG=
METAR EDDR 081450Z 24005KT 140V260 CAVOK 30/11 Q1020 NOSIG=
METAR EDDW 081450Z 26009KT CAVOK 31/09 Q1018 NOSIG=
####018000081####
SACV20 GVBA 081500
METAR GVBA 081500Z 04012KT 9999 BKN015 28/20 Q1012 NOSIG=
####018000515####
SADL31 EDZO 081450
METAR EDDF 081450Z 10005KT CAVOK 31/11 Q1019 NOSIG=
METAR EDDH 081450Z 24007KT CAVOK 29/11 Q1018 NOSIG=
METAR EDDK 081450Z VRB03KT CAVOK 32/10 Q1018 NOSIG=
METAR EDDL 081450Z 11005KT 100V180 CAVOK 32/08 Q1018 NOSIG=
METAR EDDM 081450Z VRB03KT CAVOK 25/08 Q1022 NOSIG=
METAR EDDN 081450Z VRB01KT CAVOK 29/07 Q1021 NOSIG=
METAR EDDS 081450Z 07003KT CAVOK 29/08 Q1020 NOSIG=
METAR EDDT 081450Z VRB02KT CAVOK 29/07 Q1020 NOSIG=
METAR EDDV 081450Z 19007KT CAVOK 30/10 Q1018 NOSIG=
####018000564####
SAXX70 KAWN 081500 RRC
METAR KQEL 081450Z AUTO 01002KT 5SM BR FEW080 21/19 A2975 RMK A02=
METAR KQEQ 081450Z AUTO 00000KT 2SM BR CLR 22/20 A2983 RMK A02=
METAR KQEW 081450Z AUTO 29004KT 7SM -SHRA SCT029 SCT085 24/18 A2985
      RMK A02=
METAR KQFB 081450Z AUTO 16006KT 3SM BR BKN022 23/19 A2994 RMK A02=
METAR KQFS 081455Z AUTO 10005G13KT 4600 -SHRA BR SCT011 BKN014 BKN018
      23/21 A2982 RMK AO2 SLP093 P0000 60001 T02330211 50000 $=
METAR KQHT 081455Z 23004KT 9999 FEW200 28/06 A2993 RMK SLP098 WND DATA
      ESTMD ALSTG/SLP ESTMD 55000=
####018000529####
SAIN31 VABB 081440
METAR VAAH 081440Z 20010KT 5000 HZ SCT020 FEW030CB BKN080 27/24
    Q1005 NOSIG=
METAR VABB 081440Z 19006KT 3200 HZ SCT020 FEW025TCU BKN100 28/25
     Q1008 TEMPO 1500 SHRA=
METAR VOHS 081440Z 25005KT 5000 HZ SCT020 BKN100 24/23 Q1012 NOSIG=
METAR VOHY 081440Z 26005KT 5000 -DZ SCT010 SCT015 BKN080 25/20 Q1011
    NOSIG=
METAR VOMM 081440Z 16003KT 4000 HZ SCT020 BKN100 OVC200 27/26 Q1009
     NOSIG=
METAR VOTV 081440Z 34004KT 4000 HZ FEW015 FEW025CB(E) BKN200 27/24
    Q1010 NOSIG=
####018002952####
SAUS20 KNKA 081453
METAR KIDP 081450Z AUTO 01003KT 10SM SCT009 BKN014 OVC031 24/21 
     A3008 RMK AO2 LTG DSNT E=
METAR KIOW 081452Z AUTO 35003KT 10SM CLR 26/21 A3007 RMK AO2 SLP178 
    T02560206 53000=
METAR KISN 081452Z 08003KT 10SM FEW090 19/12 A3016 RMK AO2 SLP208 
    T01940122 51005=
METAR KIZA 081450Z AUTO 00000KT 7SM OVC007 13/11 A2994 RMK AO2=
METAR KJSV 081450Z AUTO 14004KT 10SM BKN032 BKN048 26/23 A3006 
     RMK AO2 LTG DSNT N=
METAR KJWG 081450Z AUTO 03008KT 10SM BKN011 BKN080 23/23 A3013 
     RMK AO2=
METAR KL35 081451Z AUTO 08005KT 10SM CLR 14/M02 A3020 RMK AO2=
METAR KLAM 081450Z AUTO 00000KT 10SM CLR 17/09 A3042 RMK AO2=
METAR KLRU 081451Z AUTO 06007KT 10SM CLR 24/14 A3021 RMK AO2=
METAR KLWC 081452Z AUTO 04005KT 8SM OVC012 24/22 A3011 RMK AO2 
    SLP188 T02440222 50013=
METAR KMDH 081452Z 24007KT 10SM FEW090 29/23 A3006 RMK AO2 SLP175 
    T02890228 50001=
METAR KMEB 081452Z AUTO 04009KT 7SM CLR 33/21 A2997 RMK AO2 SLP145 
    T03280206 50001=
METAR KMHK 081452Z 03007KT 8SM BKN011 OVC019 23/20 A3015 RMK AO2 
    SLP200 T02280200 53016=
METAR KMKE 081452Z 28007KT 10SM SCT017 SCT190 26/20 A3001 RMK AO2 
    SLP158 T02560200 55003=
METAR KMLI 081452Z VRB03KT 10SM FEW011 26/22 A3005 RMK AO2 SLP171 
    T02560222 52002=
METAR KMWH 081452Z 03009KT 10SM CLR 23/08 A3003 RMK AO2 SLP160 
    T02280078 50002=
METAR KOJA 081450Z AUTO 03007KT 10SM -RA BKN009 23/21 A3011 RMK 
     AO2=
METAR KOKM 081451Z AUTO 00000KT 7SM SCT004 BKN009 OVC035 26/25 
     A3006 RMK AO1 LTG DSNT NE=
METAR KOMA 081452Z 35006KT 10SM BKN250 23/18 A3016 RMK AO2 SLP207 
    T02280183 51005=
METAR KONP 081450Z AUTO 00000KT 1/4SM FG OVC002 11/10 A3001 RMK 
     AO1=
METAR KORS 081450Z AUTO 33004KT 10SM CLR 19/16 A2998 RMK AO2=
METAR KPLU 081450Z AUTO 00000KT 10SM FEW035 SCT050 20/15 A2996 
     RMK AO2=
METAR KPPF 081452Z AUTO 00000KT 10SM BKN011 OVC047 25/22 A3010 RMK 
    AO2 SLP182 T02500222 51011=
METAR KPTS 081450Z AUTO 00000KT 10SM -TSRA OVC003 24/24 A3008 RMK 
     AO2 LTG DSNT E AND SE P0002 60026 T02350235=
METAR KPVJ 081448Z AUTO 13003KT 10SM OVC009 27/23 A3007 RMK AO2=
METAR KPWK 081452Z 30008G18KT 10SM BKN014 BKN027 BKN032 26/22 A3004 
    RMK AO2 SLP166 60000 T02560217 50000=
METAR KRKR 081452Z AUTO 18007KT 10SM SCT023 BKN080 29/26 A3006 
     RMK AO2 LTG DSNT N=
METAR KRYN 081445Z 10018G23KT 10SM CLR 32/11 A2992=
METAR KSGF 081452Z 00000KT 10SM BKN016 OVC021 26/22 A3009 RMK AO2 
    SLP176 T02610217 51003=
METAR KSNL 081452Z AUTO 02005KT 10SM SCT009 OVC016 27/24 A3009 
     RMK AO2=
METAR KSPI 081452Z 32003KT 10SM FEW014 BKN022 OVC029 26/23 A3006 RMK 
    AO2 SLP175 T02560233 53005=
METAR KSRE 081450Z AUTO 00000KT 10SM CLR 25/24 A3007 RMK AO2 LTG 
     DSNT NE=
METAR KSVC 081450Z AUTO 10008KT 10SM BKN100 21/13 A3026 RMK AO2=
METAR KTEX 081451Z AUTO 00000KT 10SM CLR 16/06 A3047 RMK AO2=
####018000510####
SAUS20 KNKA 081453
METAR KTMK 081453Z AUTO 00000KT 7SM OVC004 12/12 A2998 RMK AO2=
METAR KTQH 081455Z AUTO 00000KT 7SM OVC007 23/23 A3009 RMK AO2=
METAR KUGN 081452Z 29005KT 10SM BKN019 BKN025 OVC032 26/21 A3002 RMK 
    AO2 SLP155 T02560211 51001=
METAR KVCV 081448Z 12007KT 10SM SKC 23/03 A2996=
METAR KVTN 081452Z AUTO 00000KT 10SM CLR 22/12 A3026 RMK AO2 SLP233 
    T02170122 50004=
METAR KWWR 081449Z AUTO 02008KT 7SM RA BKN005 OVC018 22/21 A3019 
     RMK AO2 P0004 60004 T02150206=
####018002992####
SAUS20 KNKA 081453
METAR K4O4 081448Z AUTO 13006KT SCT001 SCT013 27/23 A3008 RMK AO2 
     LTG DSNT N=
METAR KADH 081450Z AUTO 21003KT 10SM SCT006 24/22 A3007 RMK AO2=
METAR KALM 081450Z AUTO 17008KT 10SM CLR 22/15 A3018 RMK AO2=
METAR KARR 081452Z 28007KT 9SM BKN009 BKN013 OVC020 25/22 A3004 RMK 
    AO2 SLP167 60000 T02500222 51001=
METAR KATL 081452Z 32005KT 10SM CLR 32/20 A3006 RMK AO2 SLP164 
    T03220200 50001=
METAR KATS 081450Z AUTO 01010KT 10SM FEW027 BKN037 OVC050 19/18 
     A3021 RMK AO2=
METAR KAXS 081450Z AUTO 32005KT 7SM -RA SCT020 BKN030 OVC038 
     23/22 A3012 RMK AO2 P0009 60013 T02310220=
METAR KAXX 081450Z AUTO 00000KT 10SM CLR 11/06 A3049 RMK AO2=
METAR KBIS 081452Z 27004KT 10SM CLR 21/12 A3016 RMK AO2 SLP208 
    T02110117 51003=
METAR KBOW 081450Z 05004KT 15SM SCT024 27/20 A3003=
METAR KBVS 081450Z AUTO 02005KT 9SM CLR 21/14 A2999 RMK A01 P000=
METAR KBYH 081450Z 00000KT 10SM SKC 32/23 A3007=
METAR KCFV 081452Z AUTO 05003KT 10SM BKN009 25/22 A3008 RMK AO2 
    SLP180 T02500222 51010=
METAR KCHK 081451Z AUTO 35006KT 7SM BKN004 24/24 A3007 RMK AO2=
METAR KCID 081452Z 33006KT 10SM BKN011 23/20 A3008 RMK AO2 SLP181 
    T02330200 51005=
METAR KCKV 081452Z AUTO 24003KT 10SM CLR 31/22 A3008 RMK AO2 SLP179 
    T03110217 50001=
METAR KCLK 081453Z AUTO 02008KT 10SM SCT011 23/20 A3011 RMK AO2=
METAR KCLT 081452Z 01007KT 5SM HZ CLR 33/19 A3002 RMK AO2 SLP153 
    T03280194 58003=
METAR KCNU 081452Z AUTO 04003KT 6SM BR OVC003 23/22 A3010 RMK AO2 
    SLP184 60001 T02330217 51016=
METAR KCQB 081450Z AUTO 01003KT 7SM 24/24 A3007 RMK AO2 TSNO=
METAR KCUH 081450Z AUTO 07003KT 10SM OVC008 26/24 A3007 RMK AO2=
METAR KDCA 081452Z 11008KT 7SM FEW055 SCT110 32/22 A3001 RMK AO2 
    SLP162 T03170217 51001=
METAR KDDC 081452Z AUTO 01011KT 7SM OVC005 19/17 A3022 RMK AO2 
    SLP211 T01940172 53007=
METAR KDPA 081452Z 27008KT 10SM SCT012 BKN017 BKN036 26/22 A3003 RMK 
    AO2 SLP164 60002 T02560222 51000=
METAR KDUA 081457Z AUTO 18007KT 10SM -RA BKN010 OVC033 27/24 
     A3007 RMK AO2=
METAR KDVN 081452Z AUTO 34004KT 10SM CLR 26/21 A3006 RMK AO2 SLP174 
    T02560211 55000=
METAR KEMT 081449Z VRB04KT 3SM BR OVC012 A2993=
METAR KEST 081452Z AUTO 33007KT 10SM CLR 23/16 A3017 RMK AO2 SLP211 
    T02280161 50006=
METAR KFWS 081449Z 12004KT 5SM BR BKN007 OVC075  26/24 A3007=
METAR KGCD 081450Z AUTO 12009KT 10SM CLR 19/03 A3014 RMK AO2 
     T01860031=
METAR KGCM 081455Z AUTO 06006KT 10SM BKN005 OVC010 24/23 A3009 
     RMK AO2 LTG DSNT NE=
METAR KGLS 081452Z 10013KT 10SM SCT085 SCT110 28/24 A2997 RMK AO2 
    LTG DSNT W RAB29E45 SLP147 P0000 60001 T02780244 53013=
METAR KGMJ 081454Z AUTO 00000KT OVC008 26/24 A3008 RMK AO2 P0001 
     PWINO=
METAR KHUT 081452Z 03006KT 4SM BR OVC007 22/21 A3017 RMK AO2 CIG 
    005V009 SLP197 T02170206 53016=
METAR KIAD 081452Z VRB04KT 6SM HZ CLR 32/22 A3001 RMK AO2 SLP158 
    T03170222 58003=
####018000262####
SAAK41 KNKA 081453
METAR PAGM 081452Z AUTO 30004KT 10SM CLR 06/04 A3016 RMK VIA AWOS 
     PHONE =
METAR PAJV 081450Z 00000KT 10SM SCT040 BKN080 OVC110 11/07 A2997 RMK 
     NOSPECI =
METAR PALR 081450Z 00000KT 10SM SCT120 BKN150 BKN300 13/05 A3012=
####018000122####
SAFK41 EGYP 081450
METAR EGYP 081450Z 01030KT 3500 -DZ BKN006 OVC018 06/05 Q0989 YLO1
 TEMPO 4000 RADZ BKN006 YLO1=
####018000088####
SPMC32 GMMC 081400 RRB
GMFZ 081450Z 27004KT 9999 TS SCT030TCU BKN040CB 39/21 Q1015=
####018001914####
SAUS90 KWBC 081500
METAR KEHA 081448Z AUTO 02010KT 17/16 RMK AO1 PK WND 15 006
     T01720162=
METAR KSAN 081451Z 34003KT 6SM BR OVC014 16/14 A2994 RMK AO2
     SLP138 T01610139 51010=
METAR KP59 081451Z AUTO 36010KT 20/16 A2999 RMK AO2 SLP149
     T02000161 50004 PWINO TSNO=
METAR KCON 081451Z AUTO 19007KT 7SM FEW020 27/21 A3008 RMK AO2
     SLP184 T02720211 58002=
METAR KGDP 081451Z AUTO 05022KT 9SM BKN002 BKN095 18/17 A3026 RMK
     AO2 PK WND 06026/1435 SLP177 T01780167 50013 TSNO=
METAR KSNT 081451Z AUTO 00000KT 09/02 A3035 RMK AO2 SLP201
     T00890017 50003 PWINO TSNO=
METAR KATT 081451Z AUTO VRB03KT 4SM -RA BR SCT010 BKN021 OVC065
     25/24 A3000 RMK AO2 RAE1357B14 SLP147 P0008 60009 T02500239
     51007=
METAR KNYC 081451Z AUTO VRB04KT 8SM SCT017 27/23 A3008 RMK AO2
     RAE09 SLP175 P0000 60000 T02720228 58001 TSNO $=
METAR KHSE 081451Z AUTO 06010G16KT 10SM CLR 28/23 A2995 RMK AO2
     SLP140 T02830228 53003 TSNO=
METAR KORF 081451Z 08012G16KT 10SM FEW020 SCT080 SCT100 29/21
     A2999 RMK AO2 SLP156 60000 T02890211 51003=
METAR KSAD 081451Z AUTO 16007KT 10SM CLR 27/13 A3006 RMK AO2
     SLP124 T02670128 51013 TSNO=
METAR KSMX 081451Z 30004KT 3SM BR BKN004 OVC010 12/11 A2995 RMK
     AO2 CIG 003V007 SLP145 T01220111 51011 $=
METAR KABE 081451Z 08005KT 7SM CLR 31/22 A3003 RMK AO2 SLP166
     T03060217 58003=
METAR KP58 081451Z AUTO 28004KT 27/22 A2999 RMK AO2 SLP146
     T02670222 50000 PWINO TSNO=
METAR KVCT 081451Z 03006KT 8SM -RA SCT025 SCT037 BKN055 26/25
     A2992 RMK AO2 RAE23B42 SLP130 P0011 60039 T02560250 50009=
METAR KBLU 081452Z AUTO 00000KT 10SM CLR 23/03 A3010 RMK AO2
     SLP091 T02280033 53004 TSNO=
METAR KREO 081452Z AUTO 00000KT 18/M01 A3013 RMK AO2 SLP165
     T01831006 51007 PWINO TSNO=
METAR K9V9 081452Z AUTO VRB04KT 21/15 A3021 RMK AO2 SLP220
     T02110150 53003 PWINO TSNO=
####018000087####
SAUS90 KWBC 081454
METAR K77M 081436Z 00000KT 25SM FEW130 15/03 RMK SLPNO NOSPECI=
####018000124####
SAUS46 KSTO 081453
MTRBLU
METAR KBLU 081452Z AUTO 00000KT 10SM CLR 23/03 A3010 RMK AO2 SLP091 
T02280033 53004 TSNO
####018000072####
SALY31 HLLM 081500
METAR HLLM 081450Z 01010KT 7000 SKC 27/21 Q1018=
####018000152####
SAUS44 KMAF 081453
MTRNFW
METAR KNFW 081452Z 13005KT 10SM FEW012 BKN024 OVC040 27/23 A3009 RMK 
AO2 RAB18E47 SLP172 P0000 60000 T02670233 51011
####018000070####
SALY31 HLLS 081500
METAR HLLS 081450Z 08012KT CAVOK 38/ 08 Q1015=
####018000122####
SAUS46 KPQR 081453
MTRREO
METAR KREO 081452Z AUTO 00000KT 18/M01 A3013 RMK AO2 SLP165 
T01831006 51007 PWINO TSNO
####018000121####
SAUS43 KFSD 081453
MTR9V9
METAR K9V9 081452Z AUTO VRB04KT 21/15 A3021 RMK AO2 SLP220 T02110150 
53003 PWINO TSNO
####018002468####
SAUS99 KWBC 081454 RRA
METAR
KIZA 081450Z AUTO 00000KT 7SM OVC007 13/11 A2994 RMK AO2=
KJSV 081450Z AUTO 14004KT 10SM BKN032 BKN048 26/23 A3006 RMK AO2
     LTG DSNT N=
KJWG 081450Z AUTO 03008KT 10SM BKN011 BKN080 23/23 A3013 RMK
     AO2=
KL35 081451Z AUTO 08005KT 10SM CLR 14/M02 A3020 RMK AO2=
KLAM 081450Z AUTO 00000KT 10SM CLR 17/09 A3042 RMK AO2=
KLRU 081451Z AUTO 06007KT 10SM CLR 24/14 A3021 RMK AO2=
KLWC 081452Z AUTO 04005KT 8SM OVC012 24/22 A3011 RMK AO2 SLP188
     T02440222 50013=
KMDH 081452Z 24007KT 10SM FEW090 29/23 A3006 RMK AO2 SLP175
     T02890228 50001=
KMEB 081452Z AUTO 04009KT 7SM CLR 33/21 A2997 RMK AO2 SLP145
     T03280206 50001=
KMHK 081452Z 03007KT 8SM BKN011 OVC019 23/20 A3015 RMK AO2 SLP200
     T02280200 53016=
KMKE 081452Z 28007KT 10SM SCT017 SCT190 26/20 A3001 RMK AO2 SLP158
     T02560200 55003=
KMLI 081452Z VRB03KT 10SM FEW011 26/22 A3005 RMK AO2 SLP171
     T02560222 52002=
KMWH 081452Z 03009KT 10SM CLR 23/08 A3003 RMK AO2 SLP160 T02280078
     50002=
KOJA 081450Z AUTO 03007KT 10SM -RA BKN009 23/21 A3011 RMK AO2=
KOKM 081451Z AUTO 00000KT 7SM SCT004 BKN009 OVC035 26/25 A3006 RMK
     AO1 LTG DSNT NE=
KOMA 081452Z 35006KT 10SM BKN250 23/18 A3016 RMK AO2 SLP207
     T02280183 51005=
KONP 081450Z AUTO 00000KT 1/4SM FG OVC002 11/10 A3001 RMK AO1=
KORS 081450Z AUTO 33004KT 10SM CLR 19/16 A2998 RMK AO2=
KPLU 081450Z AUTO 00000KT 10SM FEW035 SCT050 20/15 A2996 RMK
     AO2=
KPPF 081452Z AUTO 00000KT 10SM BKN011 OVC047 25/22 A3010 RMK AO2
     SLP182 T02500222 51011=
KPTS 081450Z AUTO 00000KT 10SM -TSRA OVC003 24/24 A3008 RMK AO2
     LTG DSNT E AND SE P0002 60026 T02350235=
KPVJ 081448Z AUTO 13003KT 10SM OVC009 27/23 A3007 RMK AO2=
KPWK 081452Z 30008G18KT 10SM BKN014 BKN027 BKN032 26/22 A3004 RMK
     AO2 SLP166 60000 T02560217 50000=
KRKR 081452Z AUTO 18007KT 10SM SCT023 BKN080 29/26 A3006 RMK AO2
     LTG DSNT N=
KRYN 081445Z 10018G23KT 10SM CLR 32/11 A2992=
KSGF 081452Z 00000KT 10SM BKN016 OVC021 26/22 A3009 RMK AO2 SLP176
     T02610217 51003=
KSNL 081452Z AUTO 02005KT 10SM SCT009 OVC016 27/24 A3009 RMK
     AO2=
KSPI 081452Z 32003KT 10SM FEW014 BKN022 OVC029 26/23 A3006 RMK AO2
     SLP175 T02560233 53005=
KSRE 081450Z AUTO 00000KT 10SM CLR 25/24 A3007 RMK AO2 LTG DSNT
     NE=
KSVC 081450Z AUTO 10008KT 10SM BKN100 21/13 A3026 RMK AO2=
KTEX 081451Z AUTO 00000KT 10SM CLR 16/06 A3047 RMK AO2=
####018000095####
SACN89 KWBC 081454
METAR CWDT 081400Z AUTO 15003KT 24/22 RMK AO1 SLP163 T02360215
58004=
####018000095####
SACN97 KWBC 081454
METAR CXLL 081400Z AUTO 17001KT 16/14 RMK AO1 SLP154 T01620139
50000=
####018000408####
SADL32 EDZO 081450
METAR EDDB 081450Z 08003KT CAVOK 29/07 Q1020 NOSIG=
METAR EDDC 081450Z 27004KT CAVOK 27/09 Q1021 NOSIG=
METAR EDDE 081450Z 31004KT CAVOK 29/10 Q1020 NOSIG=
METAR EDDG 081450Z 25007KT CAVOK 31/09 Q1018 NOSIG=
METAR EDDP 081450Z 31004KT 290V020 CAVOK 28/11 Q1020 NOSIG=
METAR EDDR 081450Z 24005KT 140V260 CAVOK 30/11 Q1020 NOSIG=
METAR EDDW 081450Z 26009KT CAVOK 31/09 Q1018 NOSIG=
####018000300####
SAGL31 BGSF 081450
METAR BGSF 081450Z 23005KT 200V270 9999 FEW040 SCT070 18/04 Q1006=
METAR BGBW 081450Z 25008KT 220V290 9999 FEW040 16/05 Q1008 RMK 
1SC =
METAR BGGH 081450Z 20006KT 150V230 9999 SCT010 07/03 Q1009=
METAR BGJN 081453Z NIL=
METAR BGKK 081450Z 06007KT 9999 SCT120 08/03 Q1009=
####018003720####
SAUS99 KWBC 081454
METAR
K4O4 081448Z AUTO 13006KT SCT001 SCT013 27/23 A3008 RMK AO2 LTG
     DSNT N=
KADH 081450Z AUTO 21003KT 10SM SCT006 24/22 A3007 RMK AO2=
KALM 081450Z AUTO 17008KT 10SM CLR 22/15 A3018 RMK AO2=
KARR 081452Z 28007KT 9SM BKN009 BKN013 OVC020 25/22 A3004 RMK AO2
     SLP167 60000 T02500222 51001=
KATL 081452Z 32005KT 10SM CLR 32/20 A3006 RMK AO2 SLP164 T03220200
     50001=
KATS 081450Z AUTO 01010KT 10SM FEW027 BKN037 OVC050 19/18 A3021
     RMK AO2=
KAXS 081450Z AUTO 32005KT 7SM -RA SCT020 BKN030 OVC038 23/22 A3012
     RMK AO2 P0009 60013 T02310220=
KAXX 081450Z AUTO 00000KT 10SM CLR 11/06 A3049 RMK AO2=
KBIS 081452Z 27004KT 10SM CLR 21/12 A3016 RMK AO2 SLP208 T02110117
     51003=
KBOW 081450Z 05004KT 15SM SCT024 27/20 A3003=
KBVS 081450Z AUTO 02005KT 9SM CLR 21/14 A2999 RMK A01 P000=
KBYH 081450Z 00000KT 10SM SKC 32/23 A3007=
KCFV 081452Z AUTO 05003KT 10SM BKN009 25/22 A3008 RMK AO2 SLP180
     T02500222 51010=
KCHK 081451Z AUTO 35006KT 7SM BKN004 24/24 A3007 RMK AO2=
KCID 081452Z 33006KT 10SM BKN011 23/20 A3008 RMK AO2 SLP181
     T02330200 51005=
KCKV 081452Z AUTO 24003KT 10SM CLR 31/22 A3008 RMK AO2 SLP179
     T03110217 50001=
KCLK 081453Z AUTO 02008KT 10SM SCT011 23/20 A3011 RMK AO2=
KCLT 081452Z 01007KT 5SM HZ CLR 33/19 A3002 RMK AO2 SLP153
     T03280194 58003=
KCNU 081452Z AUTO 04003KT 6SM BR OVC003 23/22 A3010 RMK AO2 SLP184
     60001 T02330217 51016=
KCQB 081450Z AUTO 01003KT 7SM 24/24 A3007 RMK AO2 TSNO=
KCUH 081450Z AUTO 07003KT 10SM OVC008 26/24 A3007 RMK AO2=
KDCA 081452Z 11008KT 7SM FEW055 SCT110 32/22 A3001 RMK AO2 SLP162
     T03170217 51001=
KDDC 081452Z AUTO 01011KT 7SM OVC005 19/17 A3022 RMK AO2 SLP211
     T01940172 53007=
KDPA 081452Z 27008KT 10SM SCT012 BKN017 BKN036 26/22 A3003 RMK AO2
     SLP164 60002 T02560222 51000=
KDUA 081457Z AUTO 18007KT 10SM -RA BKN010 OVC033 27/24 A3007 RMK
     AO2=
KDVN 081452Z AUTO 34004KT 10SM CLR 26/21 A3006 RMK AO2 SLP174
     T02560211 55000=
KEMT 081449Z VRB04KT 3SM BR OVC012 A2993=
KEST 081452Z AUTO 33007KT 10SM CLR 23/16 A3017 RMK AO2 SLP211
     T02280161 50006=
KFWS 081449Z 12004KT 5SM BR BKN007 OVC075 26/24 A3007=
KGCD 081450Z AUTO 12009KT 10SM CLR 19/03 A3014 RMK AO2
     T01860031=
KGCM 081455Z AUTO 06006KT 10SM BKN005 OVC010 24/23 A3009 RMK AO2
     LTG DSNT NE=
KGLS 081452Z 10013KT 10SM SCT085 SCT110 28/24 A2997 RMK AO2 LTG
     DSNT W RAB29E45 SLP147 P0000 60001 T02780244 53013=
KGMJ 081454Z AUTO 00000KT OVC008 26/24 A3008 RMK AO2 P0001
     PWINO=
KHUT 081452Z 03006KT 4SM BR OVC007 22/21 A3017 RMK AO2 CIG 005V009
     SLP197 T02170206 53016=
KIAD 081452Z VRB04KT 6SM HZ CLR 32/22 A3001 RMK AO2 SLP158
     T03170222 58003=
PAGM 081452Z AUTO 30004KT 10SM CLR 06/04 A3016 RMK VIA AWOS
     PHONE=
PAJV 081450Z 00000KT 10SM SCT040 BKN080 OVC110 11/07 A2997 RMK
     NOSPECI=
PALR 081450Z 00000KT 10SM SCT120 BKN150 BKN300 13/05 A3012=
KTMK 081453Z AUTO 00000KT 7SM OVC004 12/12 A2998 RMK AO2=
KTQH 081455Z AUTO 00000KT 7SM OVC007 23/23 A3009 RMK AO2=
KUGN 081452Z 29005KT 10SM BKN019 BKN025 OVC032 26/21 A3002 RMK AO2
     SLP155 T02560211 51001=
KVCV 081448Z 12007KT 10SM SKC 23/03 A2996=
KVTN 081452Z AUTO 00000KT 10SM CLR 22/12 A3026 RMK AO2 SLP233
     T02170122 50004=
KWWR 081449Z AUTO 02008KT 7SM RA BKN005 OVC018 22/21 A3019 RMK AO2
     P0004 60004 T02150206=
KIDP 081450Z AUTO 01003KT 10SM SCT009 BKN014 OVC031 24/21 A3008
     RMK AO2 LTG DSNT E=
KIOW 081452Z AUTO 35003KT 10SM CLR 26/21 A3007 RMK AO2 SLP178
     T02560206 53000=
KISN 081452Z 08003KT 10SM FEW090 19/12 A3016 RMK AO2 SLP208
     T01940122 51005=
####018000087####
SACN88 KWBC 081454
METAR CWZN 081400Z AUTO 10014KT 13/ RMK AO1 SLP212 T0126 58001=
####018000147####
SAKA31 PTYA 081500
METAR PTYA 081451Z VRB05KT 12SM SCT016CB BKN130 OVC300 27/24 A2987
RMK CB VC ALQDS SLP117 8/378 T02720239 403240261 58002=
####018000164####
SAVN24 SVMG 081500

METAR SVMG 081500Z 07012KT 9999 SCT010 BKN080 31/24 Q1013 TEMPO=
METAR SVCU 081500Z NIL=
METAR SVCP 081500Z NIL=
METAR SVGI 081500Z NIL=
####018000655####
SASN31 ESWI 081450
METAR ESGG 081450Z 19011KT 4900 -RA BR BKN005 BKN020 16/15 Q1019
REDZ=
METAR ESGJ 081450Z 23014KT 9999 SCT048 BKN055 21/11 Q1019 RERA
REDZ=
METAR ESGP 081450Z 19010KT 8000 DZ FEW008 SCT010 BKN014 17/15
Q1018 RERA=
METAR ESGT 081450Z 21012KT 9999 -RA BKN017 18/14 Q1018=
METAR ESMK 081450Z 22009KT 180V260 CAVOK 26/12 Q1020=
METAR ESMQ 081450Z 22013KT CAVOK 27/13 Q1018=
METAR ESMS 081450Z 20007KT CAVOK 24/11 Q1021=
METAR ESMT 081450Z NIL=
METAR ESMX 081450Z 26011KT 210V290 CAVOK 24/11 Q1019=
METAR ESTA 081450Z 16008KT 9999 BKN056 21?15 Q1020=
METAR ESTL 081450Z AUTO 21009KT 9999NDV FEW034/// BKN055/// 23/11
Q1020=
####018000506####
SADL31 EDZO 081450
METAR EDDF 081450Z 10005KT CAVOK 31/11 Q1019 NOSIG=
METAR EDDH 081450Z 24007KT CAVOK 29/11 Q1018 NOSIG=
METAR EDDK 081450Z VRB03KT CAVOK 32/10 Q1018 NOSIG=
METAR EDDL 081450Z 11005KT 100V180 CAVOK 32/08 Q1018 NOSIG=
METAR EDDM 081450Z VRB03KT CAVOK 25/08 Q1022 NOSIG=
METAR EDDN 081450Z VRB01KT CAVOK 29/07 Q1021 NOSIG=
METAR EDDS 081450Z 07003KT CAVOK 29/08 Q1020 NOSIG=
METAR EDDT 081450Z VRB02KT CAVOK 29/07 Q1020 NOSIG=
METAR EDDV 081450Z 19007KT CAVOK 30/10 Q1018 NOSIG=
####018000087####
SPMC31 GMMC 081400 RRB
GMFZ 081450Z 27004KT 9999 TS SCT030TCU BKN040CB 39/21 Q1015=
####018000491####
SAFI31 EFHK 081450
METAR EFHK 081450Z 07006KT 9999 -TSRA SCT040CB BKN060 24/19 Q1014
TEMPO 6000 TSRA=
EFJY 081450Z 13002KT 9999 SCT040 SCT200 25/17 Q1014=
METAR EFKU 081450Z AUTO 32004KT CAVOK 25/17 Q1014=
EFOU 081450Z VRB02KT 9999 FEW045 BKN200 24/10 Q1014=
METAR EFRO 081450Z AUTO 15005KT 110V190 CAVOK 21/10
 Q1015=
EFTP 081450Z 27005KT 230V310 CAVOK 24/11 Q1015=
METAR EFTU 081450Z AUTO 29008KT CAVOK 26/10 Q1015=
EFVA 081450Z 22008KT 170V260 9999 FEW030 SCT200 24/12 Q1014=
####018000128####
SAPR01 SPIM 081500
METAR
SPIM 081500Z 22005KT 9999 SCT011 OVC025 17/14 Q1015 NOSIG 
         RMK BIRD HAZARD RWY 15 PP000=
####018000198####
SADN32 EKCH 081450
METAR EKVJ 081450Z NIL=
METAR EKSB 081450Z 28007KT 240V300 CAVOK 24/12 Q1018=
METAR EKSN 081450Z NIL=
METAR EKVD 081450Z NIL=
METAR EKOD 081450Z 20009KT CAVOK 25/12 Q1018=
####018000195####
SAXX60 KWBC 081500
METAR
KBYH 081450Z 00000KT 10SM SKC 32/23 A3007=
KNFW 081452Z 13005KT 10SM FEW012 BKN024 OVC040 27/23 A3009 RMK AO2
     RAB18E47 SLP172 P0000 60000 T02670233 51011=
####018000092####
SPUS80 KWBC 081454
SPECI
KBTR 081446Z 09005KT 10SM SCT010 BKN020 28/24 A3004 RMK AO2=
####018000089####
SAUS80 KWBC 081454
METAR
K77M 081436Z 00000KT 25SM FEW130 15/03 RMK SLPNO NOSPECI=
####018000092####
SAUS70 KWBC 081454
METAR
KU78 081436Z 15017KT 20SM SKC 17/07 A3029 RMK SLPNO NOSPECI=
####018003718####
SAUS70 KWBC 081500 RRA
METAR
KARR 081452Z 28007KT 9SM BKN009 BKN013 OVC020 25/22 A3004 RMK AO2
     SLP167 60000 T02500222 51001=
KATL 081452Z 32005KT 10SM CLR 32/20 A3006 RMK AO2 SLP164 T03220200
     50001=
KATS 081450Z AUTO 01010KT 10SM FEW027 BKN037 OVC050 19/18 A3021
     RMK AO2=
KAXS 081450Z AUTO 32005KT 7SM -RA SCT020 BKN030 OVC038 23/22 A3012
     RMK AO2 P0009 60013 T02310220=
KAXX 081450Z AUTO 00000KT 10SM CLR 11/06 A3049 RMK AO2=
KBIS 081452Z 27004KT 10SM CLR 21/12 A3016 RMK AO2 SLP208 T02110117
     51003=
KBOW 081450Z 05004KT 15SM SCT024 27/20 A3003=
KBVS 081450Z AUTO 02005KT 9SM CLR 21/14 A2999 RMK A01 P000=
KCFV 081452Z AUTO 05003KT 10SM BKN009 25/22 A3008 RMK AO2 SLP180
     T02500222 51010=
KCHK 081451Z AUTO 35006KT 7SM BKN004 24/24 A3007 RMK AO2=
KCKV 081452Z AUTO 24003KT 10SM CLR 31/22 A3008 RMK AO2 SLP179
     T03110217 50001=
KCLK 081453Z AUTO 02008KT 10SM SCT011 23/20 A3011 RMK AO2=
KCLT 081452Z 01007KT 5SM HZ CLR 33/19 A3002 RMK AO2 SLP153
     T03280194 58003=
KCQB 081450Z AUTO 01003KT 7SM 24/24 A3007 RMK AO2 TSNO=
KCUH 081450Z AUTO 07003KT 10SM OVC008 26/24 A3007 RMK AO2=
KDCA 081452Z 11008KT 7SM FEW055 SCT110 32/22 A3001 RMK AO2 SLP162
     T03170217 51001=
KDDC 081452Z AUTO 01011KT 7SM OVC005 19/17 A3022 RMK AO2 SLP211
     T01940172 53007=
KDPA 081452Z 27008KT 10SM SCT012 BKN017 BKN036 26/22 A3003 RMK AO2
     SLP164 60002 T02560222 51000=
KDUA 081457Z AUTO 18007KT 10SM -RA BKN010 OVC033 27/24 A3007 RMK
     AO2=
KDVN 081452Z AUTO 34004KT 10SM CLR 26/21 A3006 RMK AO2 SLP174
     T02560211 55000=
KEMT 081449Z VRB04KT 3SM BR OVC012 A2993=
KEST 081452Z AUTO 33007KT 10SM CLR 23/16 A3017 RMK AO2 SLP211
     T02280161 50006=
KFWS 081449Z 12004KT 5SM BR BKN007 OVC075 26/24 A3007=
KGCD 081450Z AUTO 12009KT 10SM CLR 19/03 A3014 RMK AO2
     T01860031=
KGCM 081455Z AUTO 06006KT 10SM BKN005 OVC010 24/23 A3009 RMK AO2
     LTG DSNT NE=
KGLS 081452Z 10013KT 10SM SCT085 SCT110 28/24 A2997 RMK AO2 LTG
     DSNT W RAB29E45 SLP147 P0000 60001 T02780244 53013=
KGMJ 081454Z AUTO 00000KT OVC008 26/24 A3008 RMK AO2 P0001
     PWINO=
KHUT 081452Z 03006KT 4SM BR OVC007 22/21 A3017 RMK AO2 CIG 005V009
     SLP197 T02170206 53016=
KIAD 081452Z VRB04KT 6SM HZ CLR 32/22 A3001 RMK AO2 SLP158
     T03170222 58003=
PAGM 081452Z AUTO 30004KT 10SM CLR 06/04 A3016 RMK VIA AWOS
     PHONE=
PAJV 081450Z 00000KT 10SM SCT040 BKN080 OVC110 11/07 A2997 RMK
     NOSPECI=
PALR 081450Z 00000KT 10SM SCT120 BKN150 BKN300 13/05 A3012=
KTMK 081453Z AUTO 00000KT 7SM OVC004 12/12 A2998 RMK AO2=
KTQH 081455Z AUTO 00000KT 7SM OVC007 23/23 A3009 RMK AO2=
KUGN 081452Z 29005KT 10SM BKN019 BKN025 OVC032 26/21 A3002 RMK AO2
     SLP155 T02560211 51001=
KVCV 081448Z 12007KT 10SM SKC 23/03 A2996=
KWWR 081449Z AUTO 02008KT 7SM RA BKN005 OVC018 22/21 A3019 RMK AO2
     P0004 60004 T02150206=
KIDP 081450Z AUTO 01003KT 10SM SCT009 BKN014 OVC031 24/21 A3008
     RMK AO2 LTG DSNT E=
KIOW 081452Z AUTO 35003KT 10SM CLR 26/21 A3007 RMK AO2 SLP178
     T02560206 53000=
KISN 081452Z 08003KT 10SM FEW090 19/12 A3016 RMK AO2 SLP208
     T01940122 51005=
KJSV 081450Z AUTO 14004KT 10SM BKN032 BKN048 26/23 A3006 RMK AO2
     LTG DSNT N=
KJWG 081450Z AUTO 03008KT 10SM BKN011 BKN080 23/23 A3013 RMK
     AO2=
KL35 081451Z AUTO 08005KT 10SM CLR 14/M02 A3020 RMK AO2=
KLAM 081450Z AUTO 00000KT 10SM CLR 17/09 A3042 RMK AO2=
KLRU 081451Z AUTO 06007KT 10SM CLR 24/14 A3021 RMK AO2=
KLWC 081452Z AUTO 04005KT 8SM OVC012 24/22 A3011 RMK AO2 SLP188
     T02440222 50013=
KMDH 081452Z 24007KT 10SM FEW090 29/23 A3006 RMK AO2 SLP175
     T02890228 50001=
####018000268####
SAPQ50 KWBC 081500 RRA
METAR
PKMR 081450Z 07009KT 15SM FEW015 SCT045 BKN120 OVC300 28/24 A2978
     RMK SLP085 8/878 T02770239 57015=
PTYA 081451Z VRB05KT 12SM SCT016CB BKN130 OVC300 27/24 A2987 RMK
     CB VC ALQDS SLP117 8/378 T02720239 403240261 58002=
####018000087####
SPMC32 GMMC 081400 RRB
GMFZ 081450Z 27004KT 9999 TS SCT030TCU BKN040CB 39/21 Q1015=
####018000539####
SADN31 EKCH 081450
METAR EKCH 081450Z 18011KT 9999 -SHRA FEW050CB BKN070 20/16
Q1020 TEMPO SHRA BKN050CB=
METAR EKBI 081450Z 22007KT 180V240 9999 FEW015 BKN045 20/19
Q1019=
METAR EKYT 081450Z 22006KT 8000 -RA SCT008 BKN012 18/18 Q1018=
METAR EKRK 081450Z AUTO 26005KT 230V290 9999NDV FEW043/// BKN049///
20/16 Q1020=
METAR EKAH 081450Z AUTO 19002KT 9999NDV BKN084/// 22/15 Q1019=
METAR EKEB 081450Z AUTO 18007KT 150V210 5000NDV FEW005/// BKN032///
19/17 Q1018=
METAR EKRN 081450Z AUTO 15005KT 120V180 9999NDV NCD 20/12 Q1021=
####018000082####
SAPM31 MPTO 081500
METAR
MPTO 081500Z 00000KT 9999 SCT018 29/24 Q1012 NOSIG=
####018000505####
SPUS70 KWBC 081454
SPECI
PAWD 081450Z AUTO 00000KT 10SM SCT023 OVC055 10/09 A2999 RMK AO2
     TSNO=
KAKO 081451Z AUTO 16007KT 10SM OVC007 16/14 A3033 RMK AO2 CIG
     004V010 TSNO=
KDEQ 081451Z AUTO VRB05KT 10SM BKN013 BKN048 OVC075 27/24 A3006
     RMK AO2=
KRVS 081451Z 00000KT 10SM SCT008 BKN022 OVC028 25/23 A3006 RMK
     AO2=
KSNY 081451Z AUTO 00000KT 10SM FEW009 BKN013 18/14 A3034 RMK
     AO2=
KTVC 081451Z 24005KT 10SM FEW005 BKN010 OVC120 24/21 A2999 RMK
     AO2=
####018003693####
SAUS70 KWBC 081500
METAR
KCWF 081450Z 08007KT 7SM BKN011 28/28 A3003=
KGEU 081447Z 00000KT 20SM FEW120 SCT200 31/07 A2984=
KSJT 081451Z 08006KT 7SM OVC004 24/22 A3008 RMK AO2 SLP163
     T02390222 51011=
KTZR 081450Z 00000KT 7SM SKC 30/19 A3007=
K1F0 081447Z AUTO 00000KT 26/24 A3005 RMK AO2 PWINO=
KACT 081451Z 08007KT 9SM FEW013 BKN049 27/23 A3003 RMK AO2
     RAB1355E05 SLP162 P0000 60000 T02720233 51012=
KAHN 081451Z VRB03KT 7SM CLR 32/21 A3003 RMK AO2 SLP161 T03220206
     58001 $=
KANE 081445Z 29008KT 12SM FEW200 23/17 A3011=
KASH 081451Z 13007KT 10SM FEW024 29/21 A3008 RMK AO2 58003
     T02880211 SLP188=
KAVX 081451Z AUTO 26006KT M1/4SM FG VV001 12/12 A2995 RMK AO2
     SLP137 P0001 60001 T01170117 53009 TSNO=
KBAZ 081451Z AUTO 07009KT 5SM -RA BR SCT006 BKN010 OVC017 25/24
     A2996 RMK AO2 CIG 008V014 SLP136 P0012 60015 T02500244
     51006=
KBGD 081451Z AUTO 06008KT 10SM OVC006 21/19 A3022 RMK AO2 CIG
     004V010 SLP199 T02060189 53004=
KCLE 081451Z 21005KT 10SM CLR 31/18 A3006 RMK AO2 SLP170 T03110183
     58010 $=
KCMH 081451Z 00000KT 6SM HZ CLR 31/20 A3006 RMK AO2 SLP170
     T03060200 58008=
KCSG 081451Z 00000KT 10SM CLR 32/21 A3002 RMK AO2 SLP161 T03170206
     58003=
KDAW 081451Z AUTO 16005KT 7SM SCT017 BKN042 28/21 A3008 RMK AO2
     SLP181 T02780211 58004=
KDUC 081452Z AUTO 06006KT 10SM SCT017 SCT024 27/23 A3007 RMK
     AO2=
KEKM 081450Z 16004KT 5SM -RA SCT044 BKN050 OVC070 24/23 A3004 RMK
     AO2=
KERI 081451Z 22005KT 9SM CLR 32/18 A3004 RMK AO2 SLP166 T03170178
     58007=
KEWR 081451Z VRB05KT 10SM FEW015 SCT025 SCT060 OVC130 27/23 A3005
     RMK AO2 SLP175 HAZE ALOFT T02720233 51002=
KHDO 081451Z AUTO 07012KT 10SM BKN018 BKN022 BKN033 28/23 A2998
     RMK AO2 SLP136 T02780228 51008=
KILG 081451Z 18007KT 10SM CLR 28/21 A3004 RMK AO2 SLP170 T02830211
     58001=
KJFK 081451Z 15009KT 10SM BKN015 BKN022 BKN130 27/22 A3006 RMK AO2
     SLP178 60000 T02670217 50000=
KLGA 081451Z 19007KT 8SM BKN018 OVC024 27/22 A3004 RMK AO2 RAE06
     SLP173 P0001 60001 T02720222 57001=
KLGU 081451Z AUTO 01003KT 10SM CLR 19/06 A3019 RMK AO2 SLP174
     T01890061 51008=
KMDW 081451Z 25003KT 7SM SCT012 BKN017 OVC023 24/22 A3003 RMK AO2
     RAB14E23 SLP157 P0000 60003 T02440217 50002=
KMPV 081451Z AUTO 20006KT 7SM CLR 29/22 A3010 RMK AO2 SLP184
     T02940222 58007=
KOKC 081452Z 36007KT 10SM BKN014 BKN026 27/22 A3008 RMK AO2 SLP171
     T02720222 53006=
KONM 081447Z AUTO 35006KT 10SM CLR 21/15 A3028 RMK AO2
     T02100146=
KORD 081451Z 28006KT 10SM SCT012 SCT017 BKN050 25/22 A3003 RMK AO2
     RAE1356 SLP163 P0000 60001 T02500222 58002=
KPHX 081451Z 10003KT 10SM FEW140 SCT160 35/01 A2982 RMK AO2 SLP074
     T03500011 51015=
KPIT 081451Z 20005KT 8SM CLR 30/18 A3008 RMK AO2 SLP182 T03000183
     58005=
KPWM 081451Z 17008KT 10SM FEW014 24/20 A3010 RMK AO2 SLP192
     T02390200 51002 $=
KRDU 081451Z 07009KT 6SM HZ SCT080 BKN250 32/21 A2999 RMK AO2
     SLP150 T03220206 58002=
KSLK 081451Z AUTO 23006KT 10SM CLR 29/21 A3007 RMK AO2 SLP171
     T02940206 58006=
KSMO 081451Z 23003KT 7SM OVC009 16/13 A2994 RMK AO2 CIG 006V010
     SLP137 T01610133 53013=
KSTL 081451Z 27004KT 10SM SCT009 BKN060 BKN250 27/24 A3006 RMK AO2
     RAE22 SLP167 P0000 60000 T02670239 56001=
KTIX 081447Z VRB04KT 7SM SCT020 28/19 A3002=
KVNY 081451Z 14004KT 3SM BR OVC008 16/13 A2993 RMK AO2 SLP129
     T01560133 53011=
K4O4 081448Z AUTO 13006KT SCT001 SCT013 27/23 A3008 RMK AO2 LTG
     DSNT N=
KADH 081450Z AUTO 21003KT 10SM SCT006 24/22 A3007 RMK AO2=
KALM 081450Z AUTO 17008KT 10SM CLR 22/15 A3018 RMK AO2=
####018001690####
SAUS70 KWBC 081500 RRB
METAR
KMEB 081452Z AUTO 04009KT 7SM CLR 33/21 A2997 RMK AO2 SLP145
     T03280206 50001=
KMKE 081452Z 28007KT 10SM SCT017 SCT190 26/20 A3001 RMK AO2 SLP158
     T02560200 55003=
KMLI 081452Z VRB03KT 10SM FEW011 26/22 A3005 RMK AO2 SLP171
     T02560222 52002=
KMWH 081452Z 03009KT 10SM CLR 23/08 A3003 RMK AO2 SLP160 T02280078
     50002=
KOJA 081450Z AUTO 03007KT 10SM -RA BKN009 23/21 A3011 RMK AO2=
KOKM 081451Z AUTO 00000KT 7SM SCT004 BKN009 OVC035 26/25 A3006 RMK
     AO1 LTG DSNT NE=
KOMA 081452Z 35006KT 10SM BKN250 23/18 A3016 RMK AO2 SLP207
     T02280183 51005=
KONP 081450Z AUTO 00000KT 1/4SM FG OVC002 11/10 A3001 RMK AO1=
KORS 081450Z AUTO 33004KT 10SM CLR 19/16 A2998 RMK AO2=
KPLU 081450Z AUTO 00000KT 10SM FEW035 SCT050 20/15 A2996 RMK
     AO2=
KPPF 081452Z AUTO 00000KT 10SM BKN011 OVC047 25/22 A3010 RMK AO2
     SLP182 T02500222 51011=
KPVJ 081448Z AUTO 13003KT 10SM OVC009 27/23 A3007 RMK AO2=
KPWK 081452Z 30008G18KT 10SM BKN014 BKN027 BKN032 26/22 A3004 RMK
     AO2 SLP166 60000 T02560217 50000=
KRKR 081452Z AUTO 18007KT 10SM SCT023 BKN080 29/26 A3006 RMK AO2
     LTG DSNT N=
KRYN 081445Z 10018G23KT 10SM CLR 32/11 A2992=
KSGF 081452Z 00000KT 10SM BKN016 OVC021 26/22 A3009 RMK AO2 SLP176
     T02610217 51003=
KSNL 081452Z AUTO 02005KT 10SM SCT009 OVC016 27/24 A3009 RMK
     AO2=
KSPI 081452Z 32003KT 10SM FEW014 BKN022 OVC029 26/23 A3006 RMK AO2
     SLP175 T02560233 53005=
KSRE 081450Z AUTO 00000KT 10SM CLR 25/24 A3007 RMK AO2 LTG DSNT
     NE=
KSVC 081450Z AUTO 10008KT 10SM BKN100 21/13 A3026 RMK AO2=
KTEX 081451Z AUTO 00000KT 10SM CLR 16/06 A3047 RMK AO2=
####018003584####
SAUS80 KWBC 081500
METAR
KEHA 081448Z AUTO 02010KT 17/16 RMK AO1 PK WND 15 006
     T01720162=
KSAN 081451Z 34003KT 6SM BR OVC014 16/14 A2994 RMK AO2 SLP138
     T01610139 51010=
KALB 081451Z 14004KT 6SM HZ FEW090 31/22 A3003 RMK AO2 SLP167
     T03060217 58003=
KBDL 081451Z 15006KT 5SM HZ SCT016 BKN022 BKN030 28/22 A3006 RMK
     AO2 SLP177 T02780222 58003=
KBKW 081451Z AUTO VRB04KT 6SM HZ CLR 28/18 A3017 RMK AO2 SLP175
     T02780183 58001 VISNO RWY19 $=
KCAK 081451Z 25003KT 10SM FEW042 29/17 A3008 RMK AO2 SLP174 8/100
     T02940172 58007=
KEKN 081451Z AUTO 00000KT 7SM CLR 27/18 A3014 RMK AO2 SLP194
     T02720183 58009 TSNO=
KELP 081451Z 06007KT 10SM FEW040 SCT110 25/15 A3016 RMK AO2 SLP138
     T02500150 51009=
KHTS 081451Z 00000KT 6SM HZ FEW085 31/20 A3008 RMK AO2 SLP175
     T03110200 58005=
KMYL 081451Z AUTO 00000KT 10SM CLR 14/06 A3022 RMK AO2 SLP191
     T01440061 50006=
KOXR 081451Z 28004KT 7SM OVC009 14/13 A2993 RMK AO2 SLP136
     T01440128 53010 $=
KROW 081451Z 01006KT 10SM -RA SCT034 BKN050 BKN075 20/17 A3023 RMK
     AO2 SLP180 P0001 60001 T02000172 53013=
KSPS 081452Z 09004KT 10SM BKN013 BKN250 27/22 A3007 RMK AO2 SLP169
     T02670222 53011=
KTEB 081451Z 21005KT 4SM DZ OVC017 27/22 A3004 RMK AO2 DZB32
     SLP171 P0000 60000 T02670222 51002=
KYNG 081451Z VRB03KT 7SM CLR 30/18 A3008 RMK AO2 SLP174 T03000183
     58008=
KP59 081451Z AUTO 36010KT 20/16 A2999 RMK AO2 SLP149 T02000161
     50004 PWINO TSNO=
KCON 081451Z AUTO 19007KT 7SM FEW020 27/21 A3008 RMK AO2 SLP184
     T02720211 58002=
KGDP 081451Z AUTO 05022KT 9SM BKN002 BKN095 18/17 A3026 RMK AO2 PK
     WND 06026/1435 SLP177 T01780167 50013 TSNO=
KSNT 081451Z AUTO 00000KT 09/02 A3035 RMK AO2 SLP201 T00890017
     50003 PWINO TSNO=
KATT 081451Z AUTO VRB03KT 4SM -RA BR SCT010 BKN021 OVC065 25/24
     A3000 RMK AO2 RAE1357B14 SLP147 P0008 60009 T02500239
     51007=
KNYC 081451Z AUTO VRB04KT 8SM SCT017 27/23 A3008 RMK AO2 RAE09
     SLP175 P0000 60000 T02720228 58001 TSNO $=
KHSE 081451Z AUTO 06010G16KT 10SM CLR 28/23 A2995 RMK AO2 SLP140
     T02830228 53003 TSNO=
KORF 081451Z 08012G16KT 10SM FEW020 SCT080 SCT100 29/21 A2999 RMK
     AO2 SLP156 60000 T02890211 51003=
KSAD 081451Z AUTO 16007KT 10SM CLR 27/13 A3006 RMK AO2 SLP124
     T02670128 51013 TSNO=
KSMX 081451Z 30004KT 3SM BR BKN004 OVC010 12/11 A2995 RMK AO2 CIG
     003V007 SLP145 T01220111 51011 $=
KABE 081451Z 08005KT 7SM CLR 31/22 A3003 RMK AO2 SLP166 T03060217
     58003=
KP58 081451Z AUTO 28004KT 27/22 A2999 RMK AO2 SLP146 T02670222
     50000 PWINO TSNO=
KVCT 081451Z 03006KT 8SM -RA SCT025 SCT037 BKN055 26/25 A2992 RMK
     AO2 RAE23B42 SLP130 P0011 60039 T02560250 50009=
KCID 081452Z 33006KT 10SM BKN011 23/20 A3008 RMK AO2 SLP181
     T02330200 51005=
KCNU 081452Z AUTO 04003KT 6SM BR OVC003 23/22 A3010 RMK AO2 SLP184
     60001 T02330217 51016=
KVTN 081452Z AUTO 00000KT 10SM CLR 22/12 A3026 RMK AO2 SLP233
     T02170122 50004=
KIZA 081450Z AUTO 00000KT 7SM OVC007 13/11 A2994 RMK AO2=
KMHK 081452Z 03007KT 8SM BKN011 OVC019 23/20 A3015 RMK AO2 SLP200
     T02280200 53016=
KPTS 081450Z AUTO 00000KT 10SM -TSRA OVC003 24/24 A3008 RMK AO2
     LTG DSNT E AND SE P0002 60026 T02350235=
KBLU 081452Z AUTO 00000KT 10SM CLR 23/03 A3010 RMK AO2 SLP091
     T02280033 53004 TSNO=
KREO 081452Z AUTO 00000KT 18/M01 A3013 RMK AO2 SLP165 T01831006
     51007 PWINO TSNO=
K9V9 081452Z AUTO VRB04KT 21/15 A3021 RMK AO2 SLP220 T02110150
     53003 PWINO TSNO=
####018000444####
SAAS31 KWBC 081430 RRD
METAR
VAAH 081440Z 20010KT 5000 HZ SCT020 FEW030CB BKN080 27/24 Q1005
     NOSIG=
VABB 081440Z 19006KT 3200 HZ SCT020 FEW025TCU BKN100 28/25 Q1008
     TEMPO 1500 SHRA=
VOHY 081440Z 26005KT 5000 -DZ SCT010 SCT015 BKN080 25/20 Q1011
     NOSIG=
VOMM 081440Z 16003KT 4000 HZ SCT020 BKN100 OVC200 27/26 Q1009
     NOSIG=
VOTV 081440Z 34004KT 4000 HZ FEW015 FEW025CB(E) BKN200 27/24 Q1010
     NOSIG=
####018000081####
SAAS33 KWBC 081430 RRF
METAR
VDPP 081430Z 03002KT 9999 SCT020 28/23 Q1008=
####018000124####
SAUS41 KLWX 081453
MTRNHK
METAR KNHK 081452Z 10007KT 10SM FEW012 SCT120 29/22 A3002 RMK AO2 
SLP166 T02890217 51008
####018000121####
SAUS46 KSGX 081453
MTRCZZ
METAR KCZZ 081452Z AUTO 00000KT 11/11 A2991 RMK AO2 SLP106 T01110111 
51010 PWINO TSNO
####018000433####
SADL33 KWBC 081445 RRA
METAR
EDDB 081450Z 08003KT CAVOK 29/07 Q1020 NOSIG=
EDDC 081450Z 27004KT CAVOK 27/09 Q1021 NOSIG=
EDDG 081450Z 25007KT CAVOK 31/09 Q1018 NOSIG=
EDDP 081450Z 31004KT 290V020 CAVOK 28/11 Q1020 NOSIG=
EDDR 081450Z 24005KT 140V260 CAVOK 30/11 Q1020 NOSIG=
EDDT 081450Z VRB02KT CAVOK 29/07 Q1020 NOSIG=
EDDV 081450Z 19007KT CAVOK 30/10 Q1018 NOSIG=
EDDW 081450Z 26009KT CAVOK 31/09 Q1018 NOSIG=
####018000081####
SAEW31 KWBC 081430 RRB
METAR
LXGB 081450Z 11012KT CAVOK 28/17 Q1016 NOSIG=
####018000094####
SAIO31 KWBC 081400 RRG
METAR
FSIA 081404Z 15006KT 9999 SCT017 SCT250 27/22 Q1012 NOSIG=
####018000083####
SAUS31 KWBC 081400 RRD
METAR
KSWF 081445Z 11008KT 4SM HZ SCT100 29/23 A3008=
####018000090####
SAUS41 KWBC 081400 RRI
METAR
KMMU 081445Z 17004KT 3SM BR BKN015 OVC030 29/23 A3005=
####018000189####
SAES20 MSLP 081500
METAR MSLP 081450Z 14002KT 9999 FEW027 SCT110 BKN250 28/23 Q1012 A2989 DSTN CB TO S=

METAR MSSS 081450Z 34003KT 9999 FEW020 BKN300 23/21 Q1015 A2999 DSTN CB TO S= 
####018000207####
SADN34 EKCH 081450
METAR EKGF 081450Z NIL=
METAR EKHN 081450Z AUTO 18012KT 9999NDV SCT031/// BKN076///
17/14 Q1020=
METAR EKHR 081450Z AUTO 20009KT 9999NDV FEW004/// BKN034///
BKN043/// 17/17 Q1018=
####018000166####
SADN33 EKCH 081450
METAR EKKA 081451Z 21006KT 170V250 9999 FEW008 SCT010 BKN012
19/18 Q1018=
METAR EKSP 081450Z 23006KT 190V260 9999 FEW025 BKN170 22/14
Q1019=
####018000131####
SAUS46 KLOX 081454
MTRNZY
METAR KNZY 081452Z 00000KT 8SM FEW008 OVC013 18/14 A2992 RMK AO2 
SLP131 60000 T01780139 51010 $
####018000124####
SAUS45 KSLC 081454
MTRMLF
METAR KMLF 081452Z AUTO 00000KT 10SM CLR 22/01 A3015 RMK AO2 SLP144 
T02170006 51007 TSNO
####018000127####
SAUS46 KLOX 081454
MTRSDB
METAR KSDB 081452Z AUTO 13004KT 10SM CLR 24/M02 A3005 RMK AO2 SLP115 
T02441022 53007 TSNO $
####018002991####
SAUS20 KNKA 081453
METAR KAFN 081452Z AUTO 19005KT 10SM FEW015 SCT020 26/20 A3012 RMK 
    AO2 SLP196 T02610200 50001=
METAR KAFW 081453Z 16004KT 10SM SCT010 BKN055 27/23 A3005 RMK AO2 
    RAB11E22 SLP160 P0000 60000 T02720233 52010=
METAR KALS 081452Z AUTO 00000KT 10SM CLR 14/08 A3042 RMK AO2 SLP232 
    T01440078 50003=
METAR KAQW 081452Z AUTO VRB06KT 7SM CLR 28/22 A3005 RMK AO2 SLP173 
    T02830222 56005=
METAR KBDR 081452Z 08008KT 9SM SCT060 26/22 A3006 RMK AO2 SLP179 
    T02560222 50001=
METAR KBLF 081452Z AUTO 01005KT 8SM CLR 28/17 A3019 RMK AO2 SLP177 
    T02830172 58001=
METAR KBLH 081452Z AUTO 00000KT 10SM CLR 32/M02 A2978 RMK AO2 SLP075 
    T03171017 53014=
METAR KBML 081452Z AUTO 18005KT 8SM CLR 31/21 A3007 RMK AO2 SLP175 
    T03110211 58010=
METAR KBVI 081447Z 30005KT 5SM HZ SKC 31/22 A3011=
METAR KCDS 081453Z AUTO 09009G15KT 10SM BKN008 OVC011 23/21 A3015 
    RMK AO2 CIG 005V009 SLP188 T02280206 51014=
METAR KCQX 081452Z AUTO 16005KT 10SM BKN027 OVC034 23/19 A3012 RMK 
    AO2 SLP201 T02330194 58001=
METAR KCRS 081453Z AUTO 12006KT 10SM SCT012 BKN070 27/24 A3004 RMK 
    AO2 SLP168 T02720239 53006=
METAR KCSM 081453Z 04007KT 9SM -RA BKN008 BKN012 23/22 A3014 RMK AO2 
    CIG 005V011 SLP184 P0000 60000 T02330217 51007=
METAR KCUB 081453Z AUTO VRB05KT 10SM CLR 34/19 A2998 RMK AO2 SLP150 
    T03440189 58005=
METAR KCVG 081452Z 19007KT 6SM HZ FEW090 30/22 A3008 RMK AO2 SLP173 
    T03000217 58004=
METAR KDTO 081453Z 14006KT 10SM FEW030 SCT038 BKN047 26/24 A3006 RMK 
    AO2 RAB36E47 SLP168 P0000 60000 T02610239 51012=
METAR KELD 081453Z AUTO 14004KT 10SM FEW015 28/24 A3008 RMK AO2 
    SLP182 T02780244 51008=
METAR KFIT 081452Z AUTO 15011G14KT 10SM FEW023 29/21 A3009 RMK AO2 
    SLP186 T02890211 58004=
METAR KFLO 081453Z 03005KT 8SM CLR 31/21 A2996 RMK AO2 SLP142 
    T03110211 54000=
METAR KFTW 081453Z 12005KT 10SM BKN007 BKN025 BKN055 26/24 A3005 RMK 
    AO2 RAB13E51 SLP165 P0001 60001 T02560244 51012=
METAR KGGG 081453Z 12005KT 10SM SCT013 28/24 A3006 RMK AO2 SLP173 
    T02780244 51008=
METAR KGKY 081453Z 13007KT 10SM FEW012 SCT017 BKN028 27/23 A3005 RMK 
    AO2 PK WND 10026/1442 SLP166 60000 T02720233 51007=
METAR KGNV 081453Z 00000KT 10SM CLR 29/20 A3002 RMK AO2 SLP163 
    T02940200 50002=
METAR KIEN 081452Z AUTO 00000KT 10SM CLR 19/13 A3028 RMK AO2 SLP235 
    T01890128 58002=
METAR KIJD 081452Z AUTO VRB03KT 9SM SCT023 BKN028 BKN034 27/21 A3008 
    RMK AO2 SLP185 T02670211 58002=
METAR KMAF 081453Z 05009KT 10SM BKN008 BKN014 OVC024 22/20 A3014 RMK 
    AO2 SLP165 T02170200 51006=
METAR KMFD 081452Z 28003KT 8SM CLR 30/18 A3008 RMK AO2 SLP173 
    T03000183 58008=
METAR KMHV 081450Z 00000KT 40SM SKC 24/04 A2994=
METAR KMLC 081453Z AUTO 19005KT 7SM -RA BKN014 OVC018 25/23 A3007 
    RMK AO2 RAB53 SLP173 P0000 60000 T02500233 51009=
METAR KOAJ 081455Z AUTO 02008KT 8SM CLR 29/24 A2997 RMK AO1 52007=
####018001169####
SAUS20 KNKA 081453
METAR KOKB 081452Z AUTO 00000KT 8SM OVC017 18/14 A2992 RMK AO2 
    SLP132 T01830139 53006=
METAR KORE 081452Z AUTO 14005KT 8SM OVC014 26/22 A3009 RMK AO2 
    RAB32E43 SLP186 P0000 60000 T02560217 58001=
METAR KPYM 081452Z AUTO 00000KT 10SM SCT029 28/19 A3009 RMK AO2 
    SLP189 T02830194 57006=
METAR KRAP 081452Z 00000KT 10SM CLR 21/11 A3026 RMK AO2 SLP231 
    T02110111 50001=
METAR KSOP 081455Z AUTO 06005KT 9SM CLR 33/21 A2998 RMK AO1 57003=
METAR KSSI 081453Z AUTO 30007KT 10SM FEW090 31/19 A3000 RMK AO2 
    SLP159 T03060194 58001=
METAR KSUX 081452Z 32003KT 10SM CLR 24/17 A3017 RMK AO2 SLP211 
    T02390167 50000=
METAR KTAN 081452Z AUTO 16004KT 10SM SCT026 27/20 A3007 RMK AO2 
    SLP181 T02720200 56007=
METAR KTOL 081452Z 24005KT 10SM CLR 32/20 A3002 RMK AO2 SLP160 
    T03170200 58007=
METAR KTRL 081453Z AUTO 14007KT 10SM SCT018 29/22 A3005 RMK AO2 
    SLP169 T02940222 51002=
METAR KTRM 081452Z AUTO 36003KT 10SM CLR 28/13 A2974 RMK AO2 SLP073 
    T02780128 51012=
METAR KUDG 081455Z 06007KT 10SM CLR 33/21 A2999 RMK AO1 52003=
METAR KVQQ 081450Z 02004KT 10SM CLR 30/20 A3001 =
####018000589####
SAUS43 KWBC 081400 RRK
METAR
KC75 081447Z AUTO 26003KT 10SM SCT010 SCT022 BKN026 25/23
     A3004=
KFOA 081445Z AUTO 19006KT 10SM CLR 32/27 A3005=
KIKK 081445Z AUTO 18004KT 7SM SCT010 SCT025 BKN030 29/24 A3003=
KMWA 081449Z 22007KT 15SM BKN110 OVC250 29/24 A3007=
KSAR 081445Z AUTO 24004KT 5SM HZ CLR 28/24 A3006=
KSLO 081445Z AUTO 27006KT 10SM VCTS BKN050 BKN085 OVC110 29/23
     A3006=
KTAZ 081445Z AUTO 24004KT 10SM SCT095 28/24 A3005=
KTIP 081445Z AUTO 24006KT 10SM SCT020 28/25 A3005=
KVYS 081445Z AUTO 32007KT 10SM SCT012 SCT016 OVC025 25/22
     A3004=
####018000107####
SAUS52 KWBC 081400 RRG
METAR
KSEP 081445Z AUTO 09004KT 10SM SCT005 SCT011 SCT021 25/23
     A3007=
####018000081####
SACH01 SCFA 081500
METAR SCFA 081500Z VRB02KT 9999 FEW023 15/07 Q1017 NOSIG=
####018000153####
SASY31 OSDI 081500
OSDI 081500Z 23022KT CAVOK 34/06 Q1008=
OSAP 081500Z 28017KT CAVOK 31/17 Q1006=
OSLK 081500Z 19004KT 9999 FEW030 28/21 Q1009=
####018000501####
SAFI31 EFHK 081450
METAR EFHK 081450Z 07006KT 9999 -TSRA SCT040CB BKN060 24/19 Q1014
TEMPO 6000 TSRA=
EFJY 081450Z 13002KT 9999 SCT040 SCT200 25/17 Q1014=
METAR EFKU 081450Z AUTO 32004KT CAVOK 25/17 Q1014=
EFOU 081450Z VRB02KT 9999 FEW045 BKN200 24/10 Q1014=
METAR EFRO 081450Z AUTO 15005KT 110V190 CAVOK 21/10
 Q1015=
EFTP 081450Z 27005KT 230V310 CAVOK 24/11 Q1015=
METAR EFTU 081450Z AUTO 29008KT CAVOK 26/10 Q1015=
EFVA 081450Z 22008KT 170V260 9999 FEW030 SCT200 24/12 Q1014=
####018000550####
SADN31 EKCH 081450
METAR EKCH 081450Z 18011KT 9999 -SHRA FEW050CB BKN070 20/16
Q1020 TEMPO SHRA BKN050CB=
METAR EKBI 081450Z 22007KT 180V240 9999 FEW015 BKN045 20/19
Q1019=
METAR EKYT 081450Z 22006KT 8000 -RA SCT008 BKN012 18/18 Q1018=
METAR EKRK 081450Z AUTO 26005KT 230V290 9999NDV FEW043/// BKN049///
20/16 Q1020=
METAR EKAH 081450Z AUTO 19002KT 9999NDV BKN084/// 22/15 Q1019=
METAR EKEB 081450Z AUTO 18007KT 150V210 5000NDV FEW005/// BKN032///
19/17 Q1018=
METAR EKRN 081450Z AUTO 15005KT 120V180 9999NDV NCD 20/12 Q1021=
####018000306####
SAGL31 BGSF 081450
METAR BGSF 081450Z 23005KT 200V270 9999 FEW040 SCT070 18/04 Q1006=
METAR BGBW 081450Z 25008KT 220V290 9999 FEW040 16/05 Q1008 RMK 
1SC =
METAR BGGH 081450Z 20006KT 150V230 9999 SCT010 07/03 Q1009=
METAR BGJN 081453Z NIL=
METAR BGKK 081450Z 06007KT 9999 SCT120 08/03 Q1009=
####018000088####
SPMC31 GMMC 081400 RRB
GMFZ 081450Z 27004KT 9999 TS SCT030TCU BKN040CB 39/21 Q1015=
####018000670####
SASN31 ESWI 081450
METAR ESGG 081450Z 19011KT 4900 -RA BR BKN005 BKN020 16/15 Q1019
REDZ=
METAR ESGJ 081450Z 23014KT 9999 SCT048 BKN055 21/11 Q1019 RERA
REDZ=
METAR ESGP 081450Z 19010KT 8000 DZ FEW008 SCT010 BKN014 17/15
Q1018 RERA=
METAR ESGT 081450Z 21012KT 9999 -RA BKN017 18/14 Q1018=
METAR ESMK 081450Z 22009KT 180V260 CAVOK 26/12 Q1020=
METAR ESMQ 081450Z 22013KT CAVOK 27/13 Q1018=
METAR ESMS 081450Z 20007KT CAVOK 24/11 Q1021=
METAR ESMT 081450Z NIL=
METAR ESMX 081450Z 26011KT 210V290 CAVOK 24/11 Q1019=
METAR ESTA 081450Z 16008KT 9999 BKN056 21?15 Q1020=
METAR ESTL 081450Z AUTO 21009KT 9999NDV FEW034/// BKN055/// 23/11
Q1020=
####018000203####
SADN32 EKCH 081450
METAR EKVJ 081450Z NIL=
METAR EKSB 081450Z 28007KT 240V300 CAVOK 24/12 Q1018=
METAR EKSN 081450Z NIL=
METAR EKVD 081450Z NIL=
METAR EKOD 081450Z 20009KT CAVOK 25/12 Q1018=
####018000170####
SADN33 EKCH 081450
METAR EKKA 081451Z 21006KT 170V250 9999 FEW008 SCT010 BKN012
19/18 Q1018=
METAR EKSP 081450Z 23006KT 190V260 9999 FEW025 BKN170 22/14
Q1019=
####018000081####
SACV20 GVNP 081500
METAR GVNP 081500Z 07013KT 9999 FEW023 29/20 Q1012 NOSIG=
####018000068####
SAUS53 KWBC 081400 RRM
METAR
KEHA 081448Z AUTO 02010KT 17/16=
####018000106####
SPAU31 AMMC 081454
SPECI YBRM 081454Z AUTO 04007KT 8000NDV // BKN024 BKN032 OVC040 22/21 Q1012=


####018000110####
SAUS43 KBIS 081454
MTRN60
METAR KN60 081452Z AUTO 31005KT 20/14 A3013 RMK AO1 SLP200 T02000139 
50003
####018000100####
SPAU31 AMMC 081454
SPECI YBRM 081454Z AUTO 04007KT 8000NDV // BKN024 BKN032 OVC040 22/21 Q1012=
####018000099####
SAUS73 KWBC 081400 RRH
METAR
KIKK 081445Z AUTO 18004KT 7SM SCT010 SCT025 BKN030 29/24 A3003=
####018000091####
SPUS73 KWBC 081454
SPECI
KTVC 081451Z 24005KT 10SM FEW005 BKN010 OVC120 24/21 A2999=
####018000078####
SAMZ40 FQMA 081500
METAR FQBR 081500Z 16005KT 9999 FEW020 23/19 Q1025=

####018001494####
SAEW KAWN 081500
METAR EDDB 081450Z 08003KT CAVOK 29/07 Q1020 NOSIG=
METAR EDDC 081450Z 27004KT CAVOK 27/09 Q1021 NOSIG=
METAR EDDE 081450Z 31004KT CAVOK 29/10 Q1020 NOSIG=
METAR EDDF 081450Z 10005KT CAVOK 31/11 Q1019 NOSIG=
METAR EDDG 081450Z 25007KT CAVOK 31/09 Q1018 NOSIG=
METAR EDDH 081450Z 24007KT CAVOK 29/11 Q1018 NOSIG=
METAR EDDK 081450Z VRB03KT CAVOK 32/10 Q1018 NOSIG=
METAR EDDL 081450Z 11005KT 100V180 CAVOK 32/08 Q1018 NOSIG=
METAR EDDM 081450Z VRB03KT CAVOK 25/08 Q1022 NOSIG=
METAR EDDN 081450Z VRB01KT CAVOK 29/07 Q1021 NOSIG=
METAR EDDP 081450Z 31004KT 290V020 CAVOK 28/11 Q1020 NOSIG=
METAR EDDR 081450Z 24005KT 140V260 CAVOK 30/11 Q1020 NOSIG=
METAR EDDS 081450Z 07003KT CAVOK 29/08 Q1020 NOSIG=
METAR EDDT 081450Z VRB02KT CAVOK 29/07 Q1020 NOSIG=
METAR EDDV 081450Z 19007KT CAVOK 30/10 Q1018 NOSIG=
METAR EDDW 081450Z 26009KT CAVOK 31/09 Q1018 NOSIG=
METAR EHEH 081455Z AUTO 25007KT 9999NDV NCD 31/11 Q1018 BLU BLU=
METAR EKKA 081451Z 21006KT 170V250 9999 FEW008 SCT010 BKN012 19/18
      Q1018=
METAR EKSP 081450Z 23006KT 190V260 9999 FEW025 BKN170 22/14 Q1019=
METAR ETNG 081450Z 29005KT CAVOK 32/12 Q1018 NOSIG=
METAR LFOB 081448Z 22008KT 180V250 CAVOK 32/08 Q1018 NOSIG=
METAR LSGG 081450Z 22009KT 180V250 9999 FEW050 BKN250 32/11 Q1020 NOSIG=
METAR LSZA 081450Z 19007KT 9999 FEW055 29/16 Q1021 NOSIG=
METAR LSZB 081450Z VRB03KT CAVOK 31/13 Q1021 NOSIG=
METAR LSZH 081450Z 32004KT 240V040 CAVOK 30/11 Q1021 NOSIG=
####018000326####
SAUS17 KAWN 081500
METAR KBLV 081455Z AUTO 30003KT 10SM SCT016 28/24 A3005 RMK AO2 SLP173
      60003 T02840245 50003=
METAR KBYH 081450Z 00000KT 10SM SKC 32/23 A3007=
METAR KHMN 081455Z 20006KT 10SM CLR 23/15 A3018 RMK AO2A SLP138 T02350146
      51011 $=
METAR KIWA 081447Z 09012G18KT 35SM FEW120 37/11 A2985=
####018000126####
SPNA35 KAWN 081454 RRD
SPECI KBRO 081448Z 31006KT 6SM RA BR FEW006 BKN022 OVC031 27/26 A2978
      RMK AO2 RAB24 P0003=
####018001713####
SAEU KAWN 081500
METAR EDDB 081450Z 08003KT CAVOK 29/07 Q1020 NOSIG=
METAR EDDC 081450Z 27004KT CAVOK 27/09 Q1021 NOSIG=
METAR EDDE 081450Z 31004KT CAVOK 29/10 Q1020 NOSIG=
METAR EDDF 081450Z 10005KT CAVOK 31/11 Q1019 NOSIG=
METAR EDDG 081450Z 25007KT CAVOK 31/09 Q1018 NOSIG=
METAR EDDH 081450Z 24007KT CAVOK 29/11 Q1018 NOSIG=
METAR EDDK 081450Z VRB03KT CAVOK 32/10 Q1018 NOSIG=
METAR EDDL 081450Z 11005KT 100V180 CAVOK 32/08 Q1018 NOSIG=
METAR EDDM 081450Z VRB03KT CAVOK 25/08 Q1022 NOSIG=
METAR EDDN 081450Z VRB01KT CAVOK 29/07 Q1021 NOSIG=
METAR EDDP 081450Z 31004KT 290V020 CAVOK 28/11 Q1020 NOSIG=
METAR EDDR 081450Z 24005KT 140V260 CAVOK 30/11 Q1020 NOSIG=
METAR EDDS 081450Z 07003KT CAVOK 29/08 Q1020 NOSIG=
METAR EDDT 081450Z VRB02KT CAVOK 29/07 Q1020 NOSIG=
METAR EDDV 081450Z 19007KT CAVOK 30/10 Q1018 NOSIG=
METAR EDDW 081450Z 26009KT CAVOK 31/09 Q1018 NOSIG=
METAR EHEH 081455Z AUTO 25007KT 9999NDV NCD 31/11 Q1018 BLU BLU=
METAR EKSP 081450Z 23006KT 190V260 9999 FEW025 BKN170 22/14 Q1019=
METAR ETNG 081450Z 29005KT CAVOK 32/12 Q1018 NOSIG=
METAR GVAC 081500Z 04008KT 9999 BKN015 BKN018 26/20 Q1013 NOSIG=
METAR LFOB 081448Z 22008KT 180V250 CAVOK 32/08 Q1018 NOSIG=
METAR LMML 081445Z 10009KT 060V150 9999 FEW021 28/21 Q1018 NOSIG=
METAR LPLA 081500Z 26009KT 9999 SCT015 23/18 Q1023=
METAR LSGG 081450Z 22009KT 180V250 9999 FEW050 BKN250 32/11 Q1020 NOSIG=
METAR LSZA 081450Z 19007KT 9999 FEW055 29/16 Q1021 NOSIG=
METAR LSZB 081450Z VRB03KT CAVOK 31/13 Q1021 NOSIG=
METAR LSZH 081450Z 32004KT 240V040 CAVOK 30/11 Q1021 NOSIG=
METAR LWSK 081500Z 02005KT 9999 BKN040 19/11 Q1020 NOSIG=
METAR LXGB 081450Z 11012KT CAVOK 28/17 Q1016 NOSIG=
####018000315####
SPNA14 KAWN 081454 RRG
SPECI KSKF 081443Z COR 04009KT 7SM BKN013 26/26 A2995 RMK COR 1451
      $=
SPECI KSKF 081443Z 04009KT 10SM BKN013 26/ A2995 RMK AO2A RAB1439E1441DZB1427E1443
      CIG 010V017 SLP133 $=
SPECI KSKF 081453Z 05011KT 5SM -SHRA BR FEW007 BKN012 OVC020 26/26
      A2995 RMK AO2A $=
####018000541####
SARS18 KAWN 081500
METAR EETN 081450Z 30012KT CAVOK 25/15 Q1014 NOSIG=
METAR EETU 081450Z VRB04KT 3000 +TSRA BKN031CB 22/20 Q1014=
METAR EFHK 081450Z 07006KT 9999 -TSRA SCT040CB BKN060 24/19 Q1014 TEMPO
      6000 TSRA=
METAR EVLA 081450Z AUTO VRB04KT 9999 NCD 22/14 Q1019=
METAR EVRA 081450Z 31010KT 280V350 9999 OVC030 21/16 Q1016 NOSIG=
METAR EYKA 081450Z 29006KT 240V340 9999 OVC028 18/14 Q1016=
METAR EYPA 081450Z 33006G17KT CAVOK 21/15 Q1019=
METAR EYVI 081450Z 29009KT 9999 VCSH SCT007CB OVC012 15/14 Q1015 NOSIG=
####018000349####
SAXN17 KAWN 081500
METAR MGGT 081500Z 18004KT CAVOK 19/15 Q1024 A30/24 SCT080 BKN100 NOSIG=
METAR MPTO 081500Z 00000KT 9999 SCT018 29/24 Q1012 NOSIG=
PAEH SA 1455 AWOS M60 OVC 10 50/-18/0000/997=
PATC SA 1455 AWOS CLR BLO 120 10 47/43/0108/013=
METAR PTRO 081450Z 00000KT 14SM BKN016CB BKN120 OVC300 26/24 A2991
      RMK CB VC ALQDS=
####018000121####
SAUS45 KMSO 081454
MTRP69
METAR KP69 081452Z AUTO 00000KT 13/11 A3012 RMK AO2 SLP190 T01330106 
58003 PWINO TSNO
####018000081####
SAMJ41 LWSK 081500
METAR LWSK 081500Z 02005KT 9999 BKN040 19/11 Q1020 NOSIG=
####018000360####
SASW32 LSSW 081450
METAR LSGC 081450Z VRB02KT CAVOK 27/12 Q1024=
METAR LSGS 081450Z 25018KT 9999 FEW120 SCT250 31/13 Q1019=
METAR LSZG 081450Z VRB02KT 9999 FEW060 30/13 Q1020 NOSIG=
METAR LSZR 081450Z VRB02KT CAVOK 27/13 Q1021 NOSIG RMK L=
METAR LSZS 081450Z 30009KT 250V340 9999 FEW070 25/06 Q1026=
METAR LSZC 081450Z 07004KT CAVOK 29/16 Q1021=
####018001690####
SAZZ40 KAWN 081500
METAR BGBW 081450Z 25008KT 220V290 9999 FEW040 16/05 Q1008 RMK 1SC=
METAR BGGH 081450Z 20006KT 150V230 9999 SCT010 07/03 Q1009=
METAR BGKK 081450Z 06007KT 9999 SCT120 08/03 Q1009=
METAR BGSF 081450Z 23005KT 200V270 9999 FEW040 SCT070 18/04 Q1006=
METAR EFKU 081450Z AUTO 32004KT CAVOK 25/17 Q1014=
METAR EFOU 081450Z VRB02KT 9999 FEW045 BKN200 24/10 Q1014=
METAR KBLV 081455Z AUTO 30003KT 10SM SCT016 28/24 A3005 RMK AO2 SLP173
      60003 T02840245 50003=
METAR KBYH 081450Z 00000KT 10SM SKC 32/23 A3007=
METAR KHMN 081455Z 20006KT 10SM CLR 23/15 A3018 RMK AO2A SLP138 T02350146
      51011 $=
METAR KNFW 081452Z 13005KT 10SM FEW012 BKN024 OVC040 27/23 A3009 RMK
      AO2 RAB18E47 SLP172 P0000 60000 T02670233 51011=
METAR KNSI 081456Z 30007KT 6SM BR OVC011 13/11 A2992 RMK SLP138 T01280106
      55003=
METAR KSAN 081451Z 34003KT 6SM BR OVC014 16/14 A2994 RMK AO2 SLP138
      T01610139 51010=
METAR LLBG 081450Z 30010KT 9999 FEW030 28/20 Q1009 NOSIG=
METAR LLET 081450Z 02015G25KT CAVOK 40/11 Q1004=
METAR LLOV 081450Z 01009KT CAVOK 36/10 Q1008=
METAR LPLA 081500Z 26009KT 9999 SCT015 23/18 Q1023=
METAR MGGT 081500Z 18004KT CAVOK 19/15 Q1024 A30/24 SCT080 BKN100 NOSIG=
METAR MPTO 081500Z 00000KT 9999 SCT018 29/24 Q1012 NOSIG=
METAR OAFZ 081450Z AUTO 14004KT //// ////// 31/07 Q1014=
METAR OAMS 081450Z 34003KT 9999 SKC 39/M00 Q1005 BLU/BLU/=
METAR OKBK 081500Z 34016KT 7000 SKC 46/M02 Q0999 NOSIG=
METAR OSAP 081500Z 28017KT CAVOK 31/17 Q1006=
METAR OSDI 081500Z 23022KT CAVOK 34/06 Q1008=
METAR OSLK 081500Z 19004KT 9999 FEW030 28/21 Q1009=
METAR TJPS 081450Z 17012KT 8SM FEW030 32/27 A3000 HZ ALQDS=
####018000128####
SAUS46 KPDT 081454
MTRHMS
METAR KHMS 081450Z 30010KT 15SM SKC 27/06 A2998 RMK SLP148 T02650063
     52007 RSNK 21/01011
####018002976####
SAUS20 KNKA 081454
METAR KBDE 081453Z AUTO 31008KT 260V330 10SM CLR 22/14 A3002 RMK AO2 
    SLP165 T02170144 53005=
METAR KBDN 081455Z AUTO 00000KT 10SM CLR 19/04 A3013 RMK AO2 =
METAR KBEH 081453Z AUTO 00000KT 6SM BR FEW018 OVC028 24/23 A3003 RMK 
    AO2 RAB21E51 SLP164 P0004 60004 T02390228 56000 $=
METAR KBFD 081453Z AUTO 15004KT 10SM CLR 28/17 A3013 RMK AO2 SLP184 
    T02780167 58009=
METAR KBFI 081453Z 00000KT 10SM CLR 22/13 A2996 RMK AO2 SLP146 
    T02220133 51006=
METAR KBFM 081453Z 10004KT 10SM CLR 31/24 A3005 RMK AO2 SLP174 
    T03060239 50001=
METAR KBGR 081453Z 17011KT 10SM FEW025 BKN055 OVC100 24/19 A3010 RMK 
    AO2 SLP188 T02390194 58002=
METAR KBHK 081453Z AUTO 25008KT 10SM CLR 21/10 A3022 RMK AO2 SLP217 
    T02110100 50003=
METAR KBHM 081453Z 00000KT 10SM CLR 33/21 A3008 RMK AO2 SLP175 
    T03280211 58004=
METAR KBIE 081450Z AUTO 02006KT 10SM CLR 23/19 A3017 RMK AO2 
     T02250190=
METAR KBIL 081453Z 21007KT 10SM CLR 16/07 A3026 RMK AO2 SLP224 
    T01560072 50003=
METAR KBIV 081453Z AUTO 18004KT 2SM RA BR OVC001 24/22 A3004 RMK AO2 
    SLP167 P0043 60059 T02390217 53000=
METAR KBKE 081453Z AUTO 00000KT 10SM CLR 16/08 A3014 RMK AO2 SLP184 
    T01610083 51006=
METAR KBLI 081453Z 01003KT 10SM CLR 20/14 A2998 RMK AO2 SLP157 
    T02000144 50003=
METAR KBMG 081453Z 27007KT CLR 29/23 A3006 RMK AO2 SLP169 6//// 
    T02940228 58002=
METAR KBMQ 081453Z AUTO 09006KT 8SM FEW015 BKN048 OVC060 26/22 A3005 
    RMK AO2 RAB1355E04 SLP157 P0000 60000 T02610222 51008=
METAR KBNA 081453Z 31004KT 10SM FEW140 SCT200 31/21 A3008 RMK AO2 
    SLP178 T03110206 50000 $=
METAR KBOI 081453Z 13010KT 10SM CLR 22/07 A3010 RMK AO2 SLP165 
    T02170067 51014=
METAR KBPI 081453Z AUTO 03004KT 10SM CLR 14/03 A3041 RMK AO2 SLP212 
    T01390033 50002=
METAR KBPK 081453Z AUTO 22003KT 9SM FEW041 25/22 A3009 RMK AO2 
    SLP180 T02500222 51008=
METAR KBPT 081453Z 08015KT 10SM BKN009 28/25 A3000 RMK AO2 SLP157 
    T02830250 51012=
METAR KBRD 081453Z AUTO 29008KT 10SM CLR 23/13 A3009 RMK AO2 SLP184 
    T02330133 53001=
METAR KBTA 081450Z AUTO 02010KT 10SM CLR 22/17 A3017 RMK AO2 
     T02210166=
METAR KBTL 081453Z 23005KT 9SM -RA FEW015 26/22 A3004 RMK AO2 RAB35 
    SLP166 P0001 60001 T02560222 57005=
METAR KBTM 081453Z AUTO 00000KT 10SM CLR 13/02 A3032 RMK AO2 SLP227 
    T01280017 58002=
METAR KBUR 081453Z 16004KT 5SM BR OVC007 16/13 A2993 RMK AO2 SLP126 
    T01560133 53012=
METAR KBVN 081450Z AUTO 01003KT 10SM CLR 22/15 A3021 RMK AO2 
     T02210150=
METAR KBVY 081453Z VRB05KT 10SM CLR 27/21 A3008 RMK AO2 SLP180 6//// 
    T02670211 58003 PNO=
METAR KBWG 081453Z AUTO 00000KT 10SM CLR 31/22 A3007 RMK AO2 SLP176 
    T03110217 50000=
METAR KBYI 081453Z AUTO 06011KT 10SM CLR 18/06 A3015 RMK AO2 SLP172 
    T01780056 50006=
METAR KCCR 081453Z 21003KT 10SM CLR 14/10 A2992 RMK AO2 SLP118 
    T01440100 53006=
####018002931####
SAUS20 KNKA 081454
METAR KCDC 081453Z AUTO 04003KT 10SM CLR 21/02 A3019 RMK AO2 SLP145 
    T02110022 53008=
METAR KCGC 081455Z AUTO 00000KT 10SM CLR 29/21 A3001 RMK=
METAR KCHD 081450Z 06013KT 40SM FEW120 34/12 A2983=
METAR KCHO 081453Z 04008KT 7SM CLR 34/19 A3002 RMK AO2 SLP156 
    T03390189 58002=
METAR KCLL 081453Z 11010KT 10SM OVC014 27/23 A3000 RMK AO2 TSB38E53 
    SLP155 T02720228 53012=
METAR KCLM 081453Z AUTO A3001 RMK AO2 SLPNO 6//// PWINO FZRANO $=
METAR KCMI 081453Z 27005KT 10SM BKN019 BKN095 29/24 A3005 RMK AO2 
    SLP168 T02890239 50001=
METAR KCMX 081453Z AUTO 29011KT 10SM CLR 21/16 A3001 RMK AO2 SLP160 
    T02110156 50004=
METAR KCNM 081453Z AUTO 33013KT 10SM -RA BKN020 OVC090 20/19 A3018 
    RMK AO2 SLP175 P0002 60015 T02000189 50008=
METAR KCNO 081453Z 00000KT 2SM HZ OVC011 16/13 A2995 RMK AO2 SLP138 
    T01560128 51015=
METAR KCNY 081453Z AUTO 07010KT 10SM CLR 24/06 A3016 RMK AO2 SLP151 
    T02390056 51010=
METAR KCOT 081453Z AUTO 04008KT 10SM BKN011 OVC017 27/23 A2992 RMK 
    AO2 RAB01E35 SLP123 P0000 60001 T02670233 53006=
METAR KCRQ 081453Z 00000KT 5SM HZ BKN008 OVC015 17/14 A2992 RMK AO2 
    CIG 006V010 SLP130 T01720139 53006=
METAR KCSV 081453Z AUTO 05004KT 7SM CLR 31/18 A3015 RMK AO2 SLP181 
    T03060178 58003=
METAR KCXO 081453Z 00000KT 10SM -TSRA FEW006 SCT014 BKN050 24/23 
    A3001 RMK AO2 TSB44RAB23 SLP158 P0036 60036 T02390233 53012=
METAR KDAG 081453Z AUTO 26009KT 10SM CLR 26/02 A2990 RMK AO2 SLP094 
    T02560022 52009 TSNO=
METAR KDAN 081453Z AUTO VRB04KT 5SM HZ CLR 34/19 A3001 RMK AO2 
    SLP149 T03390194 58003=
METAR KDBQ 081453Z 36005KT 10SM BKN015 24/21 A3008 RMK AO2 SLP178 
    T02390206 53001=
METAR KDCU 081453Z AUTO 02008KT 10SM CLR 33/20 A3008 RMK AO2 SLP177 
    T03280200 58001=
METAR KDEW 081453Z AUTO 03012KT 10SM CLR 20/08 A3009 RMK AO2 SLP177 
    T02000083 53006=
METAR KDHT 081453Z AUTO 02010KT 10SM SCT010 BKN016 OVC029 18/16 
    A3029 RMK AO2 SLP208 T01830161 53013=
METAR KDLN 081453Z AUTO 23006KT 10SM CLR 12/06 A3031 RMK AO2 SLP229 
    T01170056 50002=
METAR KDLS 081453Z AUTO 00000KT 10SM CLR 19/07 A2999 RMK AO2 SLP153 
    T01940072 51009=
METAR KDMN 081453Z AUTO 06016KT 10SM CLR 23/13 A3017 RMK AO2 SLP140 
    T02330133 51010=
METAR KDNL 081453Z AUTO 28005KT 10SM CLR 34/17 A3001 RMK AO2 SLP153 
    T03390172 58005=
METAR KDRT 081453Z AUTO 04003KT 10SM BKN019 28/22 A2998 RMK AO2 
    SLP134 T02780222 51006=
METAR KDVO 081450Z AUTO 36005KT 10SM OVC010 13/12 A2995 RMK AO2=
METAR KDVT 081453Z 10009G14KT 10SM CLR 35/09 A2984 RMK AO2 SLP074 
    T03500094 51013=
METAR KDWH 081453Z 06004KT 9SM -RA FEW018 24/24 A3000 RMK AO2 LTG 
    DSNT N SLP155 P0004 60017 T02440239=
METAR KEET 081453Z AUTO 05003KT 10SM CLR 33/20 A3006 RMK AO2 SLP169 
    T03280200 58001=
METAR KEGE 081450Z 00000KT 10SM FEW100 13/09 A3040=
####018002998####
SAUS20 KNKA 081454
METAR K36U 081457Z AUTO 00000KT 10SM CLR 17/06 A3025 RMK AO2=
METAR KPMV 081450Z AUTO 02006KT 10SM CLR 24/18 A3016 RMK AO2 
     T02360177=
METAR KABR 081453Z AUTO 27006KT 10SM CLR 23/13 A3015 RMK AO2 SLP202 
    T02330133 53003=
METAR KACK 081453Z 14010KT 10SM CLR 23/20 A3009 RMK AO2 SLP190 
    T02330200 58004=
METAR KACV 081453Z AUTO 25003KT 1 1/4SM R32/4000VP6000FT BR OVC001 
    10/09 A2996 RMK AO2 SLP149 T01000094 55002=
METAR KAEX 081453Z AUTO 13006KT 10SM FEW080 29/24 A3004 RMK AO2 
    SLP174 T02890239 51006=
METAR KAFK 081450Z AUTO 02008KT 10SM CLR 23/19 A3015 RMK AO2 
     T02290186=
METAR KAGS 081453Z 32007KT 10SM CLR 36/19 A2998 RMK AO2 SLP151 
    T03560189 58004=
METAR KAIK 081455Z AUTO 28008KT 10SM CLR 33/25 A3004 RMK AO2 PNO=
METAR KALI 081453Z AUTO 05011KT 10SM FEW007 SCT027 BKN041 27/25 
    A2988 RMK AO2 RAB39E49 SLP114 P0000 60007 T02670250 53014=
METAR KALW 081453Z 16005KT 10SM CLR 22/08 A3002 RMK AO2 SLP156 
    T02170083 53009=
METAR KAMA 081453Z 03009KT 10SM OVC007 19/17 A3024 RMK AO2 SLP200 
    T01890172 53008=
METAR KAMW 081453Z AUTO 36006KT 10SM FEW016 23/19 A3014 RMK AO2 
    SLP197 T02280189 51009=
METAR KANB 081453Z AUTO 16003KT 9SM CLR 32/21 A3005 RMK AO2 SLP165 
    T03170211 58003=
METAR KANW 081450Z AUTO 33005KT 10SM CLR 21/12 A3026 RMK AO2 
     T02070124=
METAR KAOH 081453Z AUTO 20007KT 10SM 30/21 A3006 RMK AO2 SLP170 
    T03000206 58006 $=
METAR KAOO 081453Z AUTO VRB04KT 7SM CLR 29/18 A3010 RMK AO2 SLP178 
    T02940183 58006=
METAR KAPF 081453Z 05006KT 10SM SCT025 31/24 A2999 RMK AO2 SLP153 
    T03060239 51006=
METAR KARA 081453Z 10008KT 10SM CLR 29/24 A3004 RMK AO2 SLP170 
    T02890244 51008=
METAR KARW 081455Z AUTO 33006KT 10SM CLR 31/20 A2997 RMK AO2=
METAR KASD 081453Z AUTO 07004KT 10SM CLR 30/24 A3004 RMK AO2 SLP171 
    T03000239 50003=
METAR KASX 081453Z AUTO 25005KT 10SM CLR 23/17 A3005 RMK AO2 SLP175 
    T02330167 58001=
METAR KATY 081453Z AUTO 25007KT 10SM CLR 22/15 A3016 RMK AO2 SLP206 
    T02220150 51004=
METAR KAUG 081453Z AUTO 20007KT 160V230 10SM BKN015 24/21 A3010 RMK 
    AO2 SLP191 T02440206 58001=
METAR KAUH 081450Z AUTO 02006KT 10SM CLR 21/15 A3022 RMK AO2 
     T02110149=
METAR KAUN 081450Z AUTO 00000KT 10SM CLR 23/16 A2989 RMK AO1=
METAR KAUS 081453Z 07007KT 6SM -RA BR SCT007 BKN012 OVC028 26/24 
    A2999 RMK AO2 SLP143 P0038 60038 T02560244 51009=
METAR KAWM 081453Z AUTO VRB04KT 10SM CLR 30/23 A3008 RMK AO2 SLP180 
    T03000233 51006=
METAR KAXN 081453Z AUTO 29006KT 10SM CLR 23/14 A3013 RMK AO2 SLP199 
    T02330144 56001=
METAR KAZO 081453Z 00000KT 3SM -RA OVC060 25/22 A3003 RMK AO2 
    RAB1359E23B45 SLP163 P0003 60003 T02500222 58005=
METAR KBAF 081453Z 19004KT 7SM OVC013 26/22 A3007 RMK AO2 RAB13E24 
    SLP180 P0000 60000 T02610222 50001=
METAR KBCE 081453Z AUTO 00000KT 10SM CLR 19/02 A3035 RMK AO2 SLP158 
    T01890017 51009 TSNO=
####018000133####
SPCN47 CWAO 081454
SPECI CYZE 081454Z AUTO 21005KT 9SM -RA FEW048 BKN071 OVC085 21/20
 A2998 RMK SLP154 DENSITY ALT 1400FT=

####018000116####
SAUS42 KCHS 081454
MTRSAV
METAR KSAV 081453Z 30008KT 10SM CLR 32/20 A2999 RMK AO2 SLP154 
T03170200 58005 $
####018000127####
SAUS44 KMAF 081454
MTR6R6
METAR K6R6 081453Z AUTO 07008KT 24/22 A3006 RMK AO2 SLP144 60001 
T02440217 51010 PWINO TSNO
####018000114####
SAUS43 KFGF 081454
MTRFAR
METAR KFAR 081453Z 27006KT 10SM CLR 23/14 A3008 RMK AO2 SLP184 
T02330139 50000
####018000116####
SAUS43 KMKX 081454
MTRMSN
METAR KMSN 081453Z 31007KT 9SM BKN016 24/21 A3003 RMK AO2 SLP165 
T02440211 51002
####018000127####
SAUS45 KABQ 081454
MTRCQC
METAR KCQC 081453Z AUTO 08009KT 10SM FEW011 14/11 A3040 RMK AO2 
SLP225 T01440111 51008 TSNO
####018000106####
SAUS43 KAPX 081454
MTRANJ
SPECI KANJ 081453Z AUTO 26006KT 10SM SCT006 OVC013 20/18 A2998 RMK 
AO2
####018000122####
SAUS45 KLKN 081454
MTRELY
METAR KELY 081453Z AUTO 18007KT 10SM CLR 16/M01 A3025 RMK AO2 SLP139 
T01611011 51005 $
####018000124####
SAUS45 KABQ 081454
MTRRTN
METAR KRTN 081453Z AUTO 17003KT 10SM CLR 18/11 A3037 RMK AO2 SLP213 
T01830106 50003 TSNO
####018000124####
SAUS46 KSEW 081454
MTRUIL
METAR KUIL 081453Z AUTO 00000KT 10SM CLR 19/12 A2997 RMK AO2 SLP147 
T01940122 51009 TSNO
####018000119####
SAUS45 KRIW 081454
MTRLND
METAR KLND 081453Z AUTO 01003KT 10SM CLR 16/05 A3035 RMK AO2 SLP228 
T01560050 50001
####018001705####
SAEU KAWN 081500 RRA
METAR EGGD 081450Z 30004KT 240V360 9999 FEW035 21/11 Q1018=
METAR EGGP 081450Z 25012KT 9999 FEW049 20/09 Q1017=
METAR EGHD 081450Z 23005KT 150V290 9999 FEW030 21/14 Q1019=
METAR EGHE 081450Z 19007KT 9999 FEW016 BKN025 20/15 Q1018=
METAR EGJA 081450Z 33007KT 310V010 9999 FEW006 19/16 Q1019=
METAR EGJB 081450Z 32004KT 250V020 9999 FEW012 20/16 Q1019=
METAR EGJJ 081450Z 28009KT 240V310 9999 FEW010 20/17 Q1019 NOSIG=
METAR EGKB 081450Z 22008KT 160V250 9999 SCT045 25/13 Q1018=
METAR EGLF 081450Z 22007KT 170V270 9999 SCT032 24/15 Q1018=
METAR EGMC 081450Z 24005KT 180V280 9999 FEW042 26/15 Q1018=
METAR EGNT 081450Z 24010KT 9999 FEW045 21/07 Q1015=
METAR EGPF 081450Z 23017KT 9999 FEW035 18/09 Q1013=
METAR EGPK 081450Z 25013KT 9999 FEW026 19/11 Q1014=
METAR EGTC 081450Z 21010KT 180V260 9999 FEW045 23/11 Q1017=
METAR EGTE 081450Z 16015KT 9999 FEW030 21/15 Q1017=
METAR EGTG 081450Z 28007KT 9999 FEW040 21/10 Q1018=
METAR EKAH 081450Z AUTO 19002KT 9999NDV BKN084/// 22/15 Q1019=
METAR EKBI 081450Z 22007KT 180V240 9999 FEW015 BKN045 20/19 Q1019=
METAR EKCH 081450Z 18011KT 9999 -SHRA FEW050CB BKN070 20/16 Q1020 TEMPO
      SHRA BKN050CB=
METAR EKEB 081450Z AUTO 18007KT 150V210 5000NDV FEW005/// BKN032///
      19/17 Q1018=
METAR EKKA 081451Z 21006KT 170V250 9999 FEW008 SCT010 BKN012 19/18
      Q1018=
METAR EKOD 081450Z 20009KT CAVOK 25/12 Q1018=
METAR EKRK 081450Z AUTO 26005KT 230V290 9999NDV FEW043/// BKN049///
      20/16 Q1020=
METAR EKRN 081450Z AUTO 15005KT 120V180 9999NDV NCD 20/12 Q1021=
METAR EKSB 081450Z 28007KT 240V300 CAVOK 24/12 Q1018=
METAR EKYT 081450Z 22006KT 8000 -RA SCT008 BKN012 18/18 Q1018=
####018001824####
SAUK KAWN 081500
METAR EGAA 081450Z 21011KT 9999 SCT035 16/10 Q1014=
METAR EGAC 081450Z 16013KT 9999 FEW033 SCT042 17/11 Q1014=
METAR EGCC 081450Z 22012KT 9999 -SHRA FEW033 SCT046 21/10 Q1017=
METAR EGFF 081450Z 29006KT 240V340 9999 FEW029 21/11 Q1018=
METAR EGGD 081450Z 30004KT 240V360 9999 FEW035 21/11 Q1018=
METAR EGGP 081450Z 25012KT 9999 FEW049 20/09 Q1017=
METAR EGHD 081450Z 23005KT 150V290 9999 FEW030 21/14 Q1019=
METAR EGHE 081450Z 19007KT 9999 FEW016 BKN025 20/15 Q1018=
METAR EGHI 081450Z 19009KT 120V240 9999 FEW028 SCT048 23/14 Q1018=
METAR EGJA 081450Z 33007KT 310V010 9999 FEW006 19/16 Q1019=
METAR EGJB 081450Z 32004KT 250V020 9999 FEW012 20/16 Q1019=
METAR EGJJ 081450Z 28009KT 240V310 9999 FEW010 20/17 Q1019 NOSIG=
METAR EGKA 081450Z 21009KT 9999 4000SW FEW000 20/17 Q1019=
METAR EGKB 081450Z 22008KT 160V250 9999 SCT045 25/13 Q1018=
METAR EGKK 081450Z 21008KT 180V250 9999 SCT046 25/13 Q1018=
METAR EGLC 081450Z 23007KT 200V270 9999 SCT040 26/14 Q1018=
METAR EGLF 081450Z 22007KT 170V270 9999 SCT032 24/15 Q1018=
METAR EGLL 081450Z 26011KT 210V280 9999 SCT037 25/14 Q1018=
METAR EGMC 081450Z 24005KT 180V280 9999 FEW042 26/15 Q1018=
METAR EGMD 081450Z 21010KT 9999 FEW020 21/16 Q1019=
METAR EGMH 081450Z 20011KT 180V240 9999 FEW024 27/14 Q1018=
METAR EGNT 081450Z 24010KT 9999 FEW045 21/07 Q1015=
METAR EGNV 081450Z 25016KT 9999 FEW040 21/09 Q1016=
METAR COR EGPB 081450Z 20013KT 9999 FEW030 15/11 Q1008 NOSIG=
METAR EGPF 081450Z 23017KT 9999 FEW035 18/09 Q1013=
METAR EGPK 081450Z 25013KT 9999 FEW026 19/11 Q1014=
METAR EGSS 081450Z 24007KT 200V330 9999 BKN037 24/15 Q1018=
METAR EGTC 081450Z 21010KT 180V260 9999 FEW045 23/11 Q1017=
METAR EGTE 081450Z 16015KT 9999 FEW030 21/15 Q1017=
METAR EGTG 081450Z 28007KT 9999 FEW040 21/10 Q1018=
####018000127####
SAUS45 KABQ 081454
MTRTCS
METAR KTCS 081453Z AUTO 03013KT 10SM FEW110 21/14 A3023 RMK AO2 
SLP168 T02060139 51010 TSNO
####018000124####
SAUS46 KPQR 081454
MTRBNO
METAR KBNO 081453Z AUTO 00000KT 10SM CLR 19/04 A3015 RMK AO2 SLP172 
T01890039 51007 TSNO
####018000127####
SAUS45 KPUB 081454
MTRLXV
METAR KLXV 081453Z AUTO VRB03KT 10SM SCT010 08/06 A3053 RMK AO2 
SLP208 T00830056 50004 TSNO
####018000114####
SAUS42 KTAE 081454
MTRTLH
METAR KTLH 081453Z 35006KT 10SM CLR 32/19 A3003 RMK AO2 SLP166 
T03170189 58002
####018002992####
SAUS20 KNKA 081454
METAR KHKY 081453Z VRB04KT 8SM CLR 34/19 A3005 RMK AO2 SLP148 6//// 
    T03390189 58004 PNO $=
METAR KHLG 081453Z 24003KT 8SM CLR 30/18 A3009 RMK AO2 SLP178 
    T03000178 58005=
METAR KHLN 081453Z 00000KT 10SM CLR 14/04 A3026 RMK AO2 SLP241 
    T01390044 50001=
METAR KHOT 081453Z AUTO 18003KT 10SM BKN016 BKN022 27/23 A3010 RMK 
    AO2 SLP187 T02670233 50004=
METAR KHOU 081453Z 12007KT 080V170 10SM -RA SCT020 SCT040 BKN050 
    OVC150 26/24 A2997 RMK AO2 SLP154 P0001 60011 T02610239 51017=
METAR KHQM 081453Z AUTO 23004KT 1/2SM FG 13/13 A2998 RMK AO2 SLP156 
    T01280128 51010 $=
METAR KHRI 081453Z AUTO 12003KT 10SM CLR 21/08 A2999 RMK AO2 SLP149 
    T02060078 51010=
METAR KHRL 081452Z 35011KT 9SM RA BKN007 BKN014 OVC019 26/26 A2978 
    RMK AO2 RAB27 SLP084 P0000 60000 T02610261 50002=
METAR KHRO 081453Z AUTO 14003KT 10SM BKN085 26/22 A3011 RMK AO2 
    SLP180 T02560222 50004=
METAR KHSI 081453Z AUTO 04006KT 10SM CLR 21/16 A3023 RMK AO2 SLP226 
    T02060161 53005=
METAR KHSV 081453Z 35008KT 10SM FEW200 33/23 A3008 RMK AO2 SLP176 
    T03280228 58001 $=
METAR KHUF 081453Z 24003KT 10SM CLR 30/23 A3004 RMK AO2 SLP167 
    T03000228 58003 $=
METAR KHUL 081453Z AUTO 20008G14KT 7SM CLR 27/22 A3002 RMK AO2 
    SLP162 T02670217 58007=
METAR KHVR 081453Z AUTO VRB04KT 10SM CLR 17/10 A3021 RMK AO2 SLP219 
    T01720100 50002=
METAR KHWO 081453Z AUTO 08006KT 10SM FEW027 31/24 A2999 RMK AO2 
    SLP156 T03110239 53009=
METAR KHYR 081453Z AUTO 28003KT 10SM CLR 23/16 A3008 RMK AO2 SLP183 
    T02330161 50002=
METAR KIAH 081453Z 05006KT 10SM -RA FEW009 SCT022 BKN095 OVC130 
    25/24 A2999 RMK AO2 TSE08 SLP156 TS MOV NW P0006 6//// T02500239=
METAR KIBM 081450Z AUTO 07004KT 10SM SCT012 BKN028 OVC034 15/11 
     A3034 RMK AO2 T01460112=
METAR KICR 081453Z AUTO VRB05KT 10SM CLR 23/12 A3022 RMK AO2 SLP222 
    T02330122 50004 TSNO $=
METAR KIDA 081453Z 02008KT 10SM CLR 18/08 A3022 RMK AO2 SLP199 
    T01830083 51004=
METAR KILM 081453Z 08007KT 8SM CLR 31/22 A2995 RMK AO2 SLP140 
    T03060222 51007=
METAR KIPL 081453Z AUTO 14005KT 10SM CLR 27/13 A2974 RMK AO2 SLP072 
    T02720128 51017=
METAR KIWI 081453Z AUTO 16006KT 10SM FEW085 23/20 A3012 RMK AO2 
    SLP197 T02330200 58001=
METAR KJBR 081453Z AUTO 26005KT 10SM CLR 29/22 A3007 RMK AO2 SLP180 
    T02940222 50004 $=
METAR KJER 081453Z AUTO 07011KT 10SM CLR 18/05 A3015 RMK AO2 SLP177 
    T01830050 51007=
METAR KJKL 081453Z AUTO 00000KT 6SM HZ CLR 29/22 A3012 RMK AO2 
    SLP182 T02890217 58001=
METAR KJYR 081450Z AUTO 02006KT 10SM CLR 22/17 A3021 RMK AO2=
METAR KLCG 081450Z AUTO 36005KT 10SM CLR 23/16 A3019 RMK AO2 
     T02280159=
METAR KLBX 081453Z AUTO 06007KT 7SM -RA FEW028 SCT070 BKN085 26/24 
    A2994 RMK AO2 LTG DSNT N RAB18E29B48 SLP139 P0000 60009 
    T02560244 51013=
METAR KLCH 081453Z 09011KT 10SM 30/26 A3001 RMK AO2 SLP171 T03000256 
    51008=
####018002958####
SAUS20 KNKA 081454
METAR KELN 081453Z AUTO 00000KT 10SM 19/ A3007 RMK AO2 SLP169 6//// 
    T0189 $=
METAR KENW 081453Z 29008KT 10SM SCT018 26/21 A3003 RMK AO2 SLP163 
    T02560206 58001=
METAR KEPH 081453Z AUTO 01010KT 10SM CLR 25/06 A3002 RMK AO2 SLP156 
    T02500061 51005=
METAR KEQY 081453Z AUTO 02006KT 7SM FEW090 32/20 A3000 RMK AO2 
    SLP155 T03170200 58002=
METAR KESF 081453Z AUTO 14006KT 10SM FEW009 SCT014 28/24 A3006 RMK 
    AO2 SLP176 T02830244 51005=
METAR KEVW 081453Z AUTO 07011KT 10SM CLR 14/05 A3035 RMK AO2 SLP193 
    T01440050 52005 TSNO=
METAR KEWB 081453Z 13008KT 10SM FEW022 28/21 A3008 RMK AO2 SLP184 
    T02780206 58003=
METAR KEYE 081453Z AUTO 27005KT 10SM CLR 31/22 A3004 RMK AO2 SLP165 
    T03060222 58003=
METAR KEYW 081453Z 03004KT 10SM BKN017 BKN035 29/25 A2998 RMK AO2 
    SLP152 T02940250 51012=
METAR KFAT 081453Z 34004KT 10SM CLR 21/09 A2987 RMK AO2 SLP110 
    T02110094 53015=
METAR KFAY 081453Z AUTO 03010KT 8SM CLR 34/21 A2996 RMK AO2 SLP137 
    T03390211 50001=
METAR KFCM 081453Z 29007KT 10SM CLR 24/16 A3011 RMK AO2 SLP190 
    T02390156 50002=
METAR KFDW 081455Z AUTO 00000KT 10SM CLR 32/18 A3000 RMK AO1=
METAR KFET 081451Z AUTO 36004KT 10SM CLR 22/17 A3019 RMK AO2=
METAR KFFC 081453Z AUTO 34006KT 9SM CLR 33/18 A3005 RMK AO2 SLP167 
    T03280183 58003=
METAR KFFT 081453Z AUTO 21005KT 4SM HZ CLR 31/21 A3007 RMK AO2 
    SLP173 T03110206 58004=
METAR KFHR 081453Z AUTO 36007KT 10SM CLR 22/14 A2999 RMK AO2 SLP156 
    T02170144 51005=
METAR KFLD 081453Z AUTO 32009KT 10SM BKN019 25/20 A3002 RMK AO2 
    SLP162 T02500200 55000=
METAR KFLL 081453Z 11009KT 10SM SCT023 BKN031 30/24 A2997 RMK AO2 
    SLP149 T03000244 53011=
METAR KFMN 081453Z 10012KT 10SM CLR 23/07 A3026 RMK AO2 SLP182 
    T02280072 50007=
METAR KFMY 081453Z 08004KT 10SM FEW025 29/22 A2998 RMK AO2 SLP155 
    T02940217 53003=
METAR KFPR 081453Z 05007KT 10SM SCT030 29/21 A3001 RMK AO2 SLP160 
    T02940211 53007=
METAR KFSM 081453Z 07003KT 10SM -RA SCT021 BKN043 OVC050 27/23 A3006 
    RMK AO2 RAB39 SLP173 P0000 60000 T02720233 51006=
METAR KFST 081453Z AUTO 02005KT 9SM -RA BKN006 OVC013 22/21 A3013 
    RMK AO2 RAE27B50 SLP156 P0000 60000 T02220206 51015=
METAR KFTY 081453Z VRB03KT 7SM CLR 33/20 A3004 RMK AO2 SLP162 
    T03330200 58003=
METAR KFUL 081453Z 00000KT 6SM HZ OVC015 17/13 A2993 RMK AO2 SLP133 
    T01670128 53014=
METAR KFVE 081453Z AUTO 13006KT 5SM HZ BKN022 BKN026 BKN032 28/23 
    A2999 RMK AO2 SLP149 T02780233 57006=
METAR KFYV 081453Z 19008KT 10SM OVC018 25/22 A3009 RMK AO2 SLP177 
    P0001 60001 T02500222 53001=
METAR KGEG 081453Z 03007KT 10SM CLR 19/08 A3009 RMK AO2 SLP172 
    T01890083 53006=
METAR KGEY 081453Z AUTO 00000KT 9SM CLR 18/06 A3028 RMK AO2 SLP224 
    T01780056 50003=
METAR KGEZ 081453Z AUTO 20005KT 8SM CLR 29/22 A3004 RMK AO2 SLP164 
    T02940222 58003=
####018002952####
SAUS20 KNKA 081454
METAR KOGD 081453Z 35007KT 10SM FEW075 22/07 A3015 RMK AO2 SLP150 
    T02220067 51010 $=
METAR KOLF 081453Z AUTO 25003KT 10SM CLR 19/11 A3017 RMK AO2 SLP214 
    T01890111 51007=
METAR KOLV 081450Z 35006KT 7SM FEW250 32/23 A3009=
METAR KOMK 081453Z AUTO 36009KT 10SM CLR 21/09 A3007 RMK AO2 SLP175 
    T02110089 53003=
METAR KONL 081450Z AUTO 33005KT 10SM CLR 22/14 A3023 RMK AO2 
     T02210141=
METAR KONO 081453Z AUTO 26003KT 10SM CLR 18/08 A3010 RMK AO2 SLP180 
    T01780078 51014=
METAR KONT 081453Z 00000KT 2SM BR OVC009 15/13 A2993 RMK AO2 SLP129 
    T01500128 51014=
METAR KOPF 081453Z VRB03KT 10SM FEW029 31/24 A2997 RMK AO2 SLP151 
    T03060239 51007=
METAR KORF 081451Z 08012G16KT 10SM FEW020 SCT080 SCT100 29/21
     A2999 RMK AO2 SLP156 60000 T02890211 51003=
METAR KOSH 081453Z 32007KT 10SM BKN015 OVC020 24/21 A3002 RMK AO2 
    SLP151 T02440206 51003=
METAR KOSU 081453Z 28004KT 9SM CLR 31/20 A3007 RMK AO2 SLP173 
    T03060200 58009=
METAR KOUN 081453Z AUTO 34007KT 10SM BKN015 28/23 A3008 RMK AO2=
METAR KOVE 081453Z AUTO 14003KT 10SM CLR 20/12 A2987 RMK AO2 SLP114 
    T02000122 51007 TSNO=
METAR KOVS 081453Z AUTO 34006KT 10SM FEW018 SCT022 26/20 A3006 RMK 
    AO2 SLP176 T02560200 50005=
METAR KOWD 081453Z 18006KT 10SM FEW028 28/18 A3008 RMK AO2 SLP184 
    T02830183 58005=
METAR KOXB 081453Z AUTO 07007KT 9SM CLR 27/24 A3003 RMK AO2 SLP169 
    T02670239 53003 $=
METAR KPAE 081453Z 02004KT 10SM CLR 21/12 A2999 RMK AO2 SLP151 
    T02110117 53004=
METAR KPAH 081453Z 27005KT 10SM CLR 31/23 A3005 RMK AO2 SLP171 
    T03110233 50001=
METAR KPBF 081453Z AUTO 31003KT 10SM FEW015 28/23 A3009 RMK AO2 
    SLP187 T02830233 50008=
METAR KPBI 081453Z 06011KT 10SM SCT020CB SCT026 BKN033 33/27 A2998 
    RMK AO2 SLP150 CB OHD-N-NE-E-SE-S-SW-W MOV SW 60016 T03260267 
    53007 $=
METAR KPDK 081453Z 02006KT 10SM CLR 34/18 A3005 RMK AO2 SLP152 
    T03390178 58003=
METAR KPDT 081453Z 14003KT 10SM CLR 21/08 A3001 RMK AO2 SLP145 
    T02060078 51009=
METAR KPDX 081453Z 32005KT 10SM FEW250 21/14 A2993 RMK AO2 SLP134 
    T02060139 51010=
METAR KPGD 081453Z AUTO 08008KT 10SM SCT031 29/22 A3002 RMK AO2 
    SLP166 T02890217 51003 TSNO=
METAR KPIE 081453Z 07004KT 10SM CLR 28/21 A3001 RMK AO2 SLP161 
    T02780206 50004=
METAR KPIH 081453Z 02004KT 10SM CLR 16/06 A3020 RMK AO2 SLP190 
    T01610061 51009=
METAR KPIL 081453Z AUTO 30010KT 6SM -RA BR SCT010 BKN016 BKN024 
    28/26 A2975 RMK AO2 SLP073 P0002 60004 T02780261 58006=
METAR KPIR 081453Z AUTO 25004KT 10SM CLR 21/14 A3019 RMK AO2 SLP212 
    T02110139 50004=
METAR KPKB 081453Z 00000KT 7SM CLR 31/20 A3010 RMK AO2 SLP185 
    T03060200 58005=
METAR KPKD 081453Z AUTO 31007KT 10SM CLR 22/13 A3009 RMK AO2 SLP188 
    T02170128 51002=
METAR KPMD 081453Z 00000KT 10SM CLR 24/01 A2994 RMK AO2 SLP107 
    T02390006 53011 $=
####018002920####
SAUS20 KNKA 081454
METAR KMHE 081453Z AUTO 30004KT 10SM CLR 23/16 A3018 RMK AO2 SLP213 
    T02280156 50003 TSNO=
METAR KMHT 081453Z 19006KT 9SM SCT047 BKN110 28/21 A3006 RMK AO2 
    SLP187 T02830206 58002=
METAR KMIA 081453Z 00000KT 10SM BKN023TCU BKN130 BKN300 29/25 A2997 
    RMK AO2 RAB06E21 SLP150 CB DSNT S TCU SW-NW P0000 60000 
    T02890250 51008=
METAR KMIC 081453Z VRB06KT 10SM CLR 24/16 A3010 RMK AO2 SLP186 
    T02440161 50002=
METAR KMIE 081453Z 21006KT 10SM FEW065 SCT080 29/20 A3005 RMK AO2 
    SLP163 T02940200 58007=
METAR KMIW 081453Z AUTO 36008KT 10SM CLR 23/20 A3011 RMK AO2 SLP190 
    T02330200 51007=
METAR KMKL 081453Z 29005KT 10SM CLR 31/23 A3008 RMK AO2 SLP181 
    T03060228 58001=
METAR KMLE 081450Z AUTO 04003KT 10SM CLR 23/15 A3016 RMK AO2 
     T02270153=
METAR KMLP 081453Z AUTO 12007G14KT 10SM CLR 14/02 A3027 RMK AO2 
    SLP162 T01390022 58000 TSNO=
METAR KMLS 081453Z AUTO 21005KT 10SM CLR 20/11 A3021 RMK AO2 SLP214 
    T02000106 50003=
METAR KMLT 081453Z AUTO 18007KT 140V220 7SM OVC017 26/21 A3006 RMK 
    AO2 SLP183 T02610211 58003=
METAR KMMH 081450Z AUTO 00000KT 10SM CLR 14/04 A3024 RMK AO1=
METAR KMMK 081453Z AUTO 16006KT 5SM HZ FEW016 BKN055 28/22 A3006 RMK 
    AO2 SLP177 T02830222 58002=
METAR KMMV 081453Z AUTO 27003KT 10SM CLR 16/11 A2995 RMK AO2 SLP139 
    T01610111 51014=
METAR KMNN 081453Z AUTO VRB03KT 10SM CLR 30/20 A3007 RMK AO2 SLP173 
    T03000200 58008=
METAR KMOD 081453Z 35007KT 10SM CLR 17/11 A2986 RMK AO2 SLP111 
    T01720111 53008=
METAR KMRB 081453Z AUTO 36003KT 6SM HZ CLR 32/18 A3003 RMK AO2 
    SLP162 T03170178 58004=
METAR KMSL 081453Z AUTO VRB06KT 10SM CLR 32/21 A3009 RMK AO2 SLP182 
    T03170211 58002=
METAR KMSO 081453Z 16003KT 10SM CLR 15/07 A3021 RMK AO2 SLP216 
    T01500072 50002=
METAR KMSP 081453Z 29004KT 10SM CLR 24/16 A3011 RMK AO2 SLP192 
    T02390161 50001=
METAR KMSS 081453Z AUTO 21003KT 8SM CLR 31/23 A2999 RMK AO2 SLP153 
    T03060233 58009=
METAR KMSY 081453Z 12007KT 10SM SCT025 BKN032 30/23 A3004 RMK AO2 
    SLP174 T03000228 50006=
METAR KMTH 081453Z AUTO 03005KT 10SM FEW043 BKN080 28/24 A2997 RMK 
    AO2 SLP149 60000 T02780239 53009 $=
METAR KMVY 081453Z 15010KT 10SM FEW025 27/21 A3009 RMK AO2 SLP188 
    T02670206 58003=
METAR KMYF 081453Z 33003KT 4SM BR OVC009 16/14 A2993 RMK AO2 CIG 
    006V011 SLP131 T01610144 51009=
METAR KMYV 081453Z AUTO 10SM CLR 18/11 A2986 RMK AO2 SLP114 
    T01780111 53008=
METAR KNEW 081453Z 06008KT 10SM SCT021 BKN027 29/25 A3005 RMK AO2 
    SLP167 T02940250 51007=
METAR KOAK 081453Z 28008KT 10SM OVC007 14/11 A2996 RMK AO2 CIG 
    007V011 SLP144 T01440106 52010=
METAR KODX 081453Z AUTO 00000KT 10SM CLR 22/16 A3023 RMK AO2 SLP230 
    T02220161 53002=
METAR KOGA 081450Z AUTO 00000KT 10SM BKN038 OVC060 18/16 A3030 
     RMK AO2 T01810159=
####018002990####
SAUS20 KNKA 081454
METAR KSDL 081453Z 09008KT 10SM CLR 35/12 A2986 RMK AO2 SLP079 
    T03500117 51014=
METAR KSEA 081453Z 04004KT 10SM CLR 23/12 A2998 RMK AO2 SLP154 
    T02280122 52007=
METAR KSFF 081453Z 26003KT 10SM CLR 19/10 A3008 RMK AO2 SLP172 
    T01890100 51004=
METAR KSHN 081453Z AUTO 00000KT 10SM CLR 20/13 A2995 RMK AO2 SLP139 
    T02000133 51005=
METAR KSHR 081453Z AUTO 00000KT 10SM CLR 17/08 A3027 RMK AO2 SLP234 
    T01670083 50001=
METAR KSIY 081453Z AUTO 05003KT 10SM CLR 22/08 A3000 RMK AO2 SLP141 
    T02170083 51008=
METAR KSJC 081453Z 32005KT 8SM FEW008 BKN012 OVC015 15/12 A2994 RMK 
    AO2 SLP138 T01500117 51010=
METAR KSLC 081453Z 15006KT 10SM FEW090 BKN130 23/07 A3013 RMK AO2 
    SLP148 VIRGA DSNT N AND SE-SW T02280067 51008=
METAR KSMF 081453Z 17006KT 10SM CLR 15/11 A2986 RMK AO2 SLP110 
    T01500111 53009=
METAR KSNA 081453Z VRB03KT 5SM HZ OVC015 18/13 A2993 RMK AO2 SLP134 
    T01830128 53012=
METAR KSNS 081453Z 33004KT 7SM OVC007 13/11 A2995 RMK AO2 SLP151 
    T01280111 53010=
METAR KSPB 081453Z AUTO 00000KT 10SM CLR 20/15 A2993 RMK AO2 SLP133 
    T02000150 53011=
METAR KSPG 081453Z 10004KT 10SM CLR 28/22 A3000 RMK AO2 SLP157 
    T02780222 50006=
METAR KSPL 081455Z AUTO 08006KT 27/25 A2976 RMK AO2 PWINO PNO =
METAR KSPW 081453Z AUTO 33007KT 10SM CLR 23/16 A3017 RMK AO2 SLP210 
    T02330161 50003=
METAR KSRQ 081453Z 09007KT 10SM SCT030 29/21 A2999 RMK AO2 SLP155 
    T02940211 50003=
METAR KSSF 081453Z 06008KT 5SM RA BR BKN010 OVC018 26/24 A2995 RMK 
    AO2 RAB24 CIG 007V013 SLP131 P0001 60001 T02610239 53009=
METAR KSTC 081453Z 29008KT 10SM CLR 24/14 A3010 RMK AO2 SLP197 
    T02440139 50002=
METAR KSTP 081453Z 32008KT 10SM CLR 24/16 A3011 RMK AO2 SLP189 
    T02440161 50001=
METAR KSTS 081453Z 14003KT 10SM OVC004 12/10 A2993 RMK AO2 SLP129 
    T01220100 52008=
METAR KTCC 081453Z AUTO 04009KT 10SM BKN015 BKN020 OVC100 19/15 
    A3027 RMK AO2 SLP207 T01890150 53009=
METAR KTCL 081453Z 02003KT 10SM CLR 33/23 A3005 RMK AO2 SLP174 
    T03280228 58001=
METAR KTIW 081453Z VRB03KT 10SM FEW090 20/13 A2997 RMK AO2 SLP144 
    T02000128 51006=
METAR KTMB 081453Z 08011KT 10SM SCT027 SCT032 BKN042 32/26 A2997 RMK 
    AO2 SLP148 T03220256 51009=
METAR KTOI 081453Z 15003KT 10SM CLR 31/23 A3004 RMK AO2 SLP168 
    T03110233 58001=
METAR KTPA 081453Z VRB05KT 10SM FEW040 SCT200 29/18 A3001 RMK AO2 
    SLP162 T02890183 50004=
METAR KTTD 081453Z 00000KT 10SM CLR 21/13 A2992 RMK AO2 SLP130 
    T02060133 51012=
METAR KTUS 081453Z AUTO 12017G25KT 10SM CLR 32/11 A2995 RMK AO2 
    SLP085 T03170111 51014=
METAR KTVC 081453Z 24005KT 10SM FEW005 BKN010 OVC120 24/21 A2999 RMK 
    AO2 SLP152 60002 T02440211 58002=
METAR KTVL 081453Z AUTO VRB04KT 10SM CLR 14/07 A3018 RMK AO2 SLP160 
    T01440067 51006=
METAR KTVR 081453Z AUTO 00000KT 10SM 29/23 A3007 RMK AO2 SLP189 
    6//// T02940233 50005 PNO $=
####018002993####
SAUS20 KNKA 081454
METAR KGFK 081453Z 33006KT 10SM CLR 22/14 A3007 RMK AO2 SLP180 
    T02220139 50006=
METAR KGFL 081453Z AUTO 17003KT 8SM CLR 31/22 A3001 RMK AO2 SLP160 
    T03060222 58006=
METAR KGGW 081453Z AUTO 28003KT 10SM CLR 18/11 A3018 RMK AO2 SLP215 
    T01830111 51008 TSNO=
METAR KGIF 081453Z AUTO 11003KT 10SM SCT032 28/19 A3003 RMK AO2 
    SLP167 T02830189 50007 TSNO=
METAR KGLH 081453Z VRB04KT 10SM CLR 30/23 A3007 RMK AO2 SLP187 
    T03000233 50004=
METAR KGLR 081453Z AUTO 25005KT 7SM -RA FEW008 SCT016 22/21 A3003 
    RMK AO2 SLP162 P0002 60011 T02170206 58001=
METAR KGLY 081455Z AUTO 04005KT 10SM SCT012 SCT120 26/24 A3008 RMK 
     AO2 =
METAR KGMU 081453Z VRB05KT 10SM CLR 33/17 A3005 RMK AO2 SLP162 
    T03330172 58002=
METAR KGPT 081453Z 00000KT 10SM FEW015 32/24 A3003 RMK AO2 SLP169 
    T03170239 50000=
METAR KGRB 081453Z 32004KT 10SM SCT019 24/20 A3001 RMK AO2 SLP158 
    T02440200 50003=
METAR KGRI 081453Z 01004KT 10SM CLR 21/15 A3023 RMK AO2 SLP227 
    T02060150 53007=
METAR KGRR 081453Z 31006KT 2SM +RA BR BKN008 OVC016 24/22 A3004 RMK 
    AO2 VIS 1 1/4 RWY 8R RAE1354B10 SLP167 P0008 60008 T02390222 
    55001=
METAR KGSH 081453Z AUTO 00000KT 2 1/2SM -RA BR FEW024 BKN055 OVC070 
    24/22 A3006 RMK AO2 SLP171 P0003 60003 T02390222 53001=
METAR KGSP 081453Z 02005KT 9SM CLR 33/18 A3003 RMK AO2 SLP153 
    T03280178 58003=
METAR KGTF 081453Z 19005KT 10SM CLR 17/07 A3023 RMK AO2 SLP218 
    T01720072 50001=
METAR KGUP 081453Z AUTO 22004KT 10SM CLR 21/08 A3030 RMK AO2 SLP073 
    T02110078 52008=
METAR KGVL 081453Z AUTO 34005KT 10SM CLR 32/19 A3008 RMK AO2 SLP166 
    T03170194 58001=
METAR KGWO 081453Z AUTO 03004KT 10SM CLR 31/24 A3007 RMK AO2 SLP180 
    T03060239 50001=
METAR KHAO 081453Z AUTO 19003KT 5SM HZ CLR 32/22 A3007 RMK AO2 
    SLP175 T03170222 58008=
METAR KHBG 081453Z AUTO 00000KT 10SM CLR 31/24 A3006 RMK AO2 SLP175 
    T03060239 50003=
METAR KHDE 081450Z AUTO 02005KT 10SM SCT090 SCT120 21/16 A3024 
     RMK AO2 T02060156=
METAR KHEI 081453Z AUTO 26008KT 10SM CLR 21/11 A3021 RMK AO2 SLP219 
    T02060111 51003=
METAR KHFD 081453Z 12006KT 8SM OVC029 28/23 A3005 RMK AO2 SLP177 
    T02830228 58002=
METAR KHGR 081453Z 04005KT 5SM HZ CLR 33/18 A3003 RMK AO2 SLP171 
    T03280178 58003=
METAR KHHR 081453Z 23003KT 8SM OVC010 17/14 A2994 RMK AO2 SLP136 
    T01670139 53011=
METAR KHIB 081453Z AUTO 23005KT 10SM CLR 22/14 A3006 RMK AO2 SLP176 
    T02220139 50002=
METAR KHIO 081453Z 00000KT 10SM CLR 21/13 A2993 RMK AO2 SLP130 
    T02110133 52012=
METAR KHJH 081450Z AUTO 36005KT 10SM CLR 22/18 A3019 RMK AO2 
     T02150181=
METAR KHJO 081453Z AUTO 30006KT 10SM CLR 21/11 A2987 RMK AO2 SLP114 
    T02110111 53015=
METAR KHKA 081453Z AUTO 25005KT 6SM HZ CLR 31/23 A3007 RMK AO2 
    SLP181 T03060228 50002=
METAR KHKS 081453Z 02003KT 10SM CLR 31/23 A3008 RMK AO2 SLP178 
    T03060228 51003=
####018002984####
SAUS20 KNKA 081454
METAR KLEB 081453Z 22006KT 5SM HZ BKN017 29/23 A3005 RMK AO2 SLP164 
    T02890228 58004=
METAR KLEE 081453Z BKN001 OVC007 A3003 RMK AO2 SLPNO 51007 $=
METAR KLFK 081453Z AUTO VRB05KT 10SM BKN012 BKN020 28/24 A3003 RMK 
    AO2 SLP165 T02780244 51005=
METAR KLFT 081453Z VRB05KT 10SM FEW012 SCT019 BKN025 28/24 A3004 RMK 
    AO2 SLP171 T02830244 51004=
METAR KLGB 081453Z 00000KT 8SM OVC013 17/13 A2993 RMK AO2 SLP136 
    T01670133 53013=
METAR KLHM 081451Z AUTO 16006KT 10SM CLR 18/11 A2985 RMK AO1 
     T01840110=
METAR KLHQ 081453Z AUTO 00000KT 6SM HZ CLR 30/22 A3008 RMK AO2 
    SLP176 T03000217 58008=
METAR KLIT 081453Z 22005KT 10SM SCT012 BKN250 28/24 A3009 RMK AO2 
    SLP190 BKN011 V SCT T02830239 50006=
METAR KLLQ 081453Z AUTO 00000KT 10SM FEW090 28/24 A3010 RMK AO2 
    SLP188 T02830244 50006=
METAR KLMT 081453Z 35010KT 10SM FEW050 SCT100 BKN200 20/08 A3008 RMK 
    AO2 SLP135 T02000078 51006=
METAR KLOL 081453Z AUTO 03005KT 10SM CLR 23/M03 A3004 RMK AO2 SLP124 
    T02331033 51012=
METAR KLOU 081453Z 00000KT 6SM HZ CLR 31/21 A3006 RMK AO2 SLP172 
    T03110211 58002=
METAR KLOZ 081453Z AUTO 09005KT 5SM HZ CLR 30/20 A3011 RMK AO2 
    SLP179 60000 T03000200 58004=
METAR KLSE 081453Z 31008KT 10SM CLR 25/19 A3007 RMK AO2 SLP173 
    T02500189 51009=
METAR KLUK 081453Z 19005KT 5SM HZ CLR 31/23 A3006 RMK AO2 SLP174 
    T03060228 58007=
METAR KLVJ 081453Z AUTO 00000KT 10SM VCTS SCT015 SCT033 OVC048 24/22 
    A2999 RMK AO2 TSB23RAB20E52 SLP154 P0008 60018 T02390217 51018=
METAR KLVK 081453Z 30005KT 13/11 A2993 RMK AO2 SLP132 T01330111 $=
METAR KLVM 081453Z AUTO 32004KT 10SM CLR 14/06 A3029 RMK AO2 SLP230 
    T01390061 58004=
METAR KLVS 081453Z AUTO 03008KT 10SM SCT013 14/11 A3041 RMK AO2 
    SLP218 T01390106 51005 TSNO=
METAR KLWV 081453Z AUTO 24004KT 9SM FEW030 32/23 A3004 RMK AO2 
    SLP167 T03170228 50001=
METAR KLXN 081450Z AUTO 36004KT 10SM BKN055 OVC065 20/17 A3026 
     RMK AO2 T01950170=
METAR KMAE 081453Z AUTO 30006KT 10SM CLR 20/11 A2986 RMK AO2 SLP110 
    T02000106 53013=
METAR KMCB 081453Z AUTO 05005KT 10SM CLR 28/23 A3007 RMK AO2 SLP177 
    6//// T02830228 50005 $=
METAR KMCE 081453Z AUTO 32009KT 10SM CLR 18/11 A2985 RMK AO2 SLP107 
    T01830106 51010=
METAR KMCO 081453Z 17003KT 10SM SCT031 SCT250 28/18 A3002 RMK AO2 
    SLP164 T02830183 51007=
METAR KMEM 081453Z 27006KT 10SM FEW150 32/22 A3009 RMK AO2 SLP183 
    T03170222 51004=
METAR KMEZ 081455Z AUTO 18003KT 7SM SCT018 OVC033 27/23 A3011 RMK 
     AO2=
METAR KMFE 081453Z 36010KT 10SM BKN010 OVC016 28/25 A2982 RMK AO2 
    CIG 009V012 SLP095 T02780250 53004=
METAR KMFR 081453Z 00000KT 10SM SCT110 22/12 A2994 RMK AO2 SLP123 
    T02220122 51012=
METAR KMGW 081453Z VRB03KT 6SM HZ CLR 29/19 A3011 RMK AO2 SLP182 
    T02940189 58005=
METAR KMGY 081453Z AUTO 24005KT 7SM CLR 30/21 A3007 RMK AO2 SLP174 
    T03000211 58004=
####018002997####
SAUS20 KNKA 081454
METAR KPMP 081453Z 09009KT 10SM SCT021 30/24 A2998 RMK AO2 SLP153 
    T03000244 53010=
METAR KPQL 081453Z 00000KT 10SM CLR 30/24 A3003 RMK AO2 SLP171 
    T03000239 50000=
METAR KPRB 081453Z AUTO 32003KT 8SM OVC005 13/11 A2994 RMK AO2 
    SLP134 T01330111 51010=
METAR KPSC 081453Z 36004KT 10SM CLR 21/11 A3000 RMK AO2 SLP156 
    T02110111 51011=
METAR KPSO 081455Z AUTO 00000KT 10SM CLR 17/05 A3042 RMK AO2=
METAR KPSP 081453Z 00000KT 10SM CLR 27/13 A2977 RMK AO2 SLP078 
    T02720133 51014=
METAR KPSX 081453Z AUTO 11013G21KT 10SM CLR 29/25 A2990 RMK AO2 
    RAE15 SLP125 P0001 60006 T02940250 53007=
METAR KPUC 081453Z AUTO 00000KT 10SM CLR 22/03 A3026 RMK AO2 SLP162 
    T02170033 51005 TSNO=
METAR KPUW 081453Z AUTO 09007KT 10SM CLR 21/08 A3009 RMK AO2 SLP173 
    T02110083 53003=
METAR KPVD 081451Z 14008KT 10SM BKN017 BKN250 27/21 A3010 RMK
    SLP191 T02720206 58002=
METAR KRAC 081453Z AUTO 32005KT 10SM SCT017 26/21 A3003 RMK AO2 
    SLP166 60001 T02560211 50000=
METAR KRAL 081453Z 00000KT 3SM HZ OVC007 16/13 A2994 RMK AO2 SLP124 
    T01560128 51013=
METAR KRBG 081453Z AUTO 00000KT 10SM CLR 18/12 A2996 RMK AO2 SLP141 
    T01830117 51008=
METAR KRDD 081453Z 00000KT 10SM CLR 24/15 A2985 RMK AO2 SLP100 
    T02390150 51010=
METAR KRHI 081453Z AUTO VRB04KT 10SM CLR 22/16 A3007 RMK AO2 SLP177 
    T02220161 51006=
METAR KRIW 081453Z AUTO VRB04KT 10SM CLR 16/07 A3035 RMK AO2 SLP227 
    T01560072 51002=
METAR KRKP 081453Z AUTO 09012KT 1 3/4SM +RA FEW011 BKN033 OVC060 
    A2988 RMK AO2 TSE07 SLP121 P0011 60054 51017 FZRANO=
METAR KRME 081453Z 00000KT 9SM CLR 29/22 A3005 RMK AO2 SLP170 
    T02940217 58006=
METAR KRMG 081453Z AUTO 34004KT 10SM CLR 32/19 A3005 RMK AO2 SLP163 
    T03220194 58002=
METAR KRNT 081453Z 00000KT 10SM CLR 19/14 A2996 RMK AO2 SLP151 
    T01940139 51006=
METAR KRSW 081453Z 06006KT 10SM SCT025 29/22 A2999 RMK AO2 SLP152 
    T02940222 51003=
METAR KRUE 081453Z AUTO 23003KT 10SM BKN014 BKN018 OVC043 27/23 
    A3009 RMK AO2 SLP181 60003 T02720233 51008=
METAR KRWF 081453Z AUTO 29005KT 10SM CLR 24/17 A3013 RMK AO2 SLP198 
    T02390167 50001=
METAR KRWI 081453Z AUTO VRB04KT 7SM CLR 31/22 A2998 RMK AO2 SLP151 
    60000 T03060217 50002=
METAR KRXE 081453Z AUTO 04007KT 10SM CLR 16/07 A3025 RMK AO2 SLP204 
    T01610072 50004=
METAR KSAC 081453Z 21006KT 10SM 15/11 A2987 RMK AO2 SLP114 T01500106 
    53007 $=
METAR KSAF 081453Z 00000KT 10SM CLR 18/09 A3036 RMK AO2 SLP195 
    T01780094 53007=
METAR KSAN 081451Z 34003KT 6SM BR OVC014 16/14 A2994 RMK AO2
     SLP138 T01610139 51010=
METAR KSAT 081453Z 06007KT 4SM -RA BR BKN008 OVC023 25/25 A2997 RMK 
    AO2 RAB1354 SLP131 P0005 60005 T02500250 53007=
METAR KSBA 081453Z 00000KT 7SM OVC009 14/12 A2993 RMK AO2 SLP135 
    T01440122 53009 $=
METAR KSBM 081453Z AUTO 31006KT 10SM FEW018 BKN026 BKN030 26/21 
    A3001 RMK AO2 SLP158 T02560211=
####018003747####
SAUS99 KWBC 081455 RRC
METAR
KASD 081453Z AUTO 07004KT 10SM CLR 30/24 A3004 RMK AO2 SLP171
     T03000239 50003=
KASX 081453Z AUTO 25005KT 10SM CLR 23/17 A3005 RMK AO2 SLP175
     T02330167 58001=
KATY 081453Z AUTO 25007KT 10SM CLR 22/15 A3016 RMK AO2 SLP206
     T02220150 51004=
KAUG 081453Z AUTO 20007KT 160V230 10SM BKN015 24/21 A3010 RMK AO2
     SLP191 T02440206 58001=
KAUH 081450Z AUTO 02006KT 10SM CLR 21/15 A3022 RMK AO2
     T02110149=
KAUN 081450Z AUTO 00000KT 10SM CLR 23/16 A2989 RMK AO1=
KAUS 081453Z 07007KT 6SM -RA BR SCT007 BKN012 OVC028 26/24 A2999
     RMK AO2 SLP143 P0038 60038 T02560244 51009=
KAWM 081453Z AUTO VRB04KT 10SM CLR 30/23 A3008 RMK AO2 SLP180
     T03000233 51006=
KAXN 081453Z AUTO 29006KT 10SM CLR 23/14 A3013 RMK AO2 SLP199
     T02330144 56001=
KAZO 081453Z 00000KT 3SM -RA OVC060 25/22 A3003 RMK AO2
     RAB1359E23B45 SLP163 P0003 60003 T02500222 58005=
KBAF 081453Z 19004KT 7SM OVC013 26/22 A3007 RMK AO2 RAB13E24
     SLP180 P0000 60000 T02610222 50001=
KBCE 081453Z AUTO 00000KT 10SM CLR 19/02 A3035 RMK AO2 SLP158
     T01890017 51009 TSNO=
KGFK 081453Z 33006KT 10SM CLR 22/14 A3007 RMK AO2 SLP180 T02220139
     50006=
KGFL 081453Z AUTO 17003KT 8SM CLR 31/22 A3001 RMK AO2 SLP160
     T03060222 58006=
KGGW 081453Z AUTO 28003KT 10SM CLR 18/11 A3018 RMK AO2 SLP215
     T01830111 51008 TSNO=
KGIF 081453Z AUTO 11003KT 10SM SCT032 28/19 A3003 RMK AO2 SLP167
     T02830189 50007 TSNO=
KGLH 081453Z VRB04KT 10SM CLR 30/23 A3007 RMK AO2 SLP187 T03000233
     50004=
KGLR 081453Z AUTO 25005KT 7SM -RA FEW008 SCT016 22/21 A3003 RMK
     AO2 SLP162 P0002 60011 T02170206 58001=
KGLY 081455Z AUTO 04005KT 10SM SCT012 SCT120 26/24 A3008 RMK
     AO2=
KGMU 081453Z VRB05KT 10SM CLR 33/17 A3005 RMK AO2 SLP162 T03330172
     58002=
KGPT 081453Z 00000KT 10SM FEW015 32/24 A3003 RMK AO2 SLP169
     T03170239 50000=
KGRB 081453Z 32004KT 10SM SCT019 24/20 A3001 RMK AO2 SLP158
     T02440200 50003=
KGRI 081453Z 01004KT 10SM CLR 21/15 A3023 RMK AO2 SLP227 T02060150
     53007=
KGRR 081453Z 31006KT 2SM +RA BR BKN008 OVC016 24/22 A3004 RMK AO2
     VIS 1 1/4 RWY 8R RAE1354B10 SLP167 P0008 60008 T02390222
     55001=
KGSH 081453Z AUTO 00000KT 2 1/2SM -RA BR FEW024 BKN055 OVC070
     24/22 A3006 RMK AO2 SLP171 P0003 60003 T02390222 53001=
KGSP 081453Z 02005KT 9SM CLR 33/18 A3003 RMK AO2 SLP153 T03280178
     58003=
KGTF 081453Z 19005KT 10SM CLR 17/07 A3023 RMK AO2 SLP218 T01720072
     50001=
KGUP 081453Z AUTO 22004KT 10SM CLR 21/08 A3030 RMK AO2 SLP073
     T02110078 52008=
KGVL 081453Z AUTO 34005KT 10SM CLR 32/19 A3008 RMK AO2 SLP166
     T03170194 58001=
KGWO 081453Z AUTO 03004KT 10SM CLR 31/24 A3007 RMK AO2 SLP180
     T03060239 50001=
KHAO 081453Z AUTO 19003KT 5SM HZ CLR 32/22 A3007 RMK AO2 SLP175
     T03170222 58008=
KHBG 081453Z AUTO 00000KT 10SM CLR 31/24 A3006 RMK AO2 SLP175
     T03060239 50003=
KHDE 081450Z AUTO 02005KT 10SM SCT090 SCT120 21/16 A3024 RMK AO2
     T02060156=
KHEI 081453Z AUTO 26008KT 10SM CLR 21/11 A3021 RMK AO2 SLP219
     T02060111 51003=
KHFD 081453Z 12006KT 8SM OVC029 28/23 A3005 RMK AO2 SLP177
     T02830228 58002=
KHGR 081453Z 04005KT 5SM HZ CLR 33/18 A3003 RMK AO2 SLP171
     T03280178 58003=
KHHR 081453Z 23003KT 8SM OVC010 17/14 A2994 RMK AO2 SLP136
     T01670139 53011=
KHIB 081453Z AUTO 23005KT 10SM CLR 22/14 A3006 RMK AO2 SLP176
     T02220139 50002=
KHIO 081453Z 00000KT 10SM CLR 21/13 A2993 RMK AO2 SLP130 T02110133
     52012=
KHJH 081450Z AUTO 36005KT 10SM CLR 22/18 A3019 RMK AO2
     T02150181=
KHJO 081453Z AUTO 30006KT 10SM CLR 21/11 A2987 RMK AO2 SLP114
     T02110111 53015=
####018003704####
SAUS99 KWBC 081455 RRA
METAR
KMLC 081453Z AUTO 19005KT 7SM -RA BKN014 OVC018 25/23 A3007 RMK
     AO2 RAB53 SLP173 P0000 60000 T02500233 51009=
KOAJ 081455Z AUTO 02008KT 8SM CLR 29/24 A2997 RMK AO1 52007=
KBDE 081453Z AUTO 31008KT 260V330 10SM CLR 22/14 A3002 RMK AO2
     SLP165 T02170144 53005=
KBDN 081455Z AUTO 00000KT 10SM CLR 19/04 A3013 RMK AO2=
KBEH 081453Z AUTO 00000KT 6SM BR FEW018 OVC028 24/23 A3003 RMK AO2
     RAB21E51 SLP164 P0004 60004 T02390228 56000 $=
KBFD 081453Z AUTO 15004KT 10SM CLR 28/17 A3013 RMK AO2 SLP184
     T02780167 58009=
KBFI 081453Z 00000KT 10SM CLR 22/13 A2996 RMK AO2 SLP146 T02220133
     51006=
KBFM 081453Z 10004KT 10SM CLR 31/24 A3005 RMK AO2 SLP174 T03060239
     50001=
KBGR 081453Z 17011KT 10SM FEW025 BKN055 OVC100 24/19 A3010 RMK AO2
     SLP188 T02390194 58002=
KBHK 081453Z AUTO 25008KT 10SM CLR 21/10 A3022 RMK AO2 SLP217
     T02110100 50003=
KBHM 081453Z 00000KT 10SM CLR 33/21 A3008 RMK AO2 SLP175 T03280211
     58004=
KBIE 081450Z AUTO 02006KT 10SM CLR 23/19 A3017 RMK AO2
     T02250190=
KBIL 081453Z 21007KT 10SM CLR 16/07 A3026 RMK AO2 SLP224 T01560072
     50003=
KBIV 081453Z AUTO 18004KT 2SM RA BR OVC001 24/22 A3004 RMK AO2
     SLP167 P0043 60059 T02390217 53000=
KBKE 081453Z AUTO 00000KT 10SM CLR 16/08 A3014 RMK AO2 SLP184
     T01610083 51006=
KBLI 081453Z 01003KT 10SM CLR 20/14 A2998 RMK AO2 SLP157 T02000144
     50003=
KBMG 081453Z 27007KT CLR 29/23 A3006 RMK AO2 SLP169 6////
     T02940228 58002=
KBMQ 081453Z AUTO 09006KT 8SM FEW015 BKN048 OVC060 26/22 A3005 RMK
     AO2 RAB1355E04 SLP157 P0000 60000 T02610222 51008=
KBNA 081453Z 31004KT 10SM FEW140 SCT200 31/21 A3008 RMK AO2 SLP178
     T03110206 50000 $=
KBOI 081453Z 13010KT 10SM CLR 22/07 A3010 RMK AO2 SLP165 T02170067
     51014=
KBPI 081453Z AUTO 03004KT 10SM CLR 14/03 A3041 RMK AO2 SLP212
     T01390033 50002=
KBPK 081453Z AUTO 22003KT 9SM FEW041 25/22 A3009 RMK AO2 SLP180
     T02500222 51008=
KBPT 081453Z 08015KT 10SM BKN009 28/25 A3000 RMK AO2 SLP157
     T02830250 51012=
KBRD 081453Z AUTO 29008KT 10SM CLR 23/13 A3009 RMK AO2 SLP184
     T02330133 53001=
KBTA 081450Z AUTO 02010KT 10SM CLR 22/17 A3017 RMK AO2
     T02210166=
KBTL 081453Z 23005KT 9SM -RA FEW015 26/22 A3004 RMK AO2 RAB35
     SLP166 P0001 60001 T02560222 57005=
KBTM 081453Z AUTO 00000KT 10SM CLR 13/02 A3032 RMK AO2 SLP227
     T01280017 58002=
KBUR 081453Z 16004KT 5SM BR OVC007 16/13 A2993 RMK AO2 SLP126
     T01560133 53012=
KBVN 081450Z AUTO 01003KT 10SM CLR 22/15 A3021 RMK AO2
     T02210150=
KBVY 081453Z VRB05KT 10SM CLR 27/21 A3008 RMK AO2 SLP180 6////
     T02670211 58003 PNO=
KBWG 081453Z AUTO 00000KT 10SM CLR 31/22 A3007 RMK AO2 SLP176
     T03110217 50000=
KBYI 081453Z AUTO 06011KT 10SM CLR 18/06 A3015 RMK AO2 SLP172
     T01780056 50006=
KCCR 081453Z 21003KT 10SM CLR 14/10 A2992 RMK AO2 SLP118 T01440100
     53006=
KCDC 081453Z AUTO 04003KT 10SM CLR 21/02 A3019 RMK AO2 SLP145
     T02110022 53008=
KCGC 081455Z AUTO 00000KT 10SM CLR 29/21 A3001 RMK=
KCHD 081450Z 06013KT 40SM FEW120 34/12 A2983=
KCHO 081453Z 04008KT 7SM CLR 34/19 A3002 RMK AO2 SLP156 T03390189
     58002=
KCLL 081453Z 11010KT 10SM OVC014 27/23 A3000 RMK AO2 TSB38E53
     SLP155 T02720228 53012=
KCLM 081453Z AUTO A3001 RMK AO2 SLPNO 6//// PWINO FZRANO $=
KCMI 081453Z 27005KT 10SM BKN019 BKN095 29/24 A3005 RMK AO2 SLP168
     T02890239 50001=
KCMX 081453Z AUTO 29011KT 10SM CLR 21/16 A3001 RMK AO2 SLP160
     T02110156 50004=
KCNM 081453Z AUTO 33013KT 10SM -RA BKN020 OVC090 20/19 A3018 RMK
     AO2 SLP175 P0002 60015 T02000189 50008=
####018003706####
SAUS99 KWBC 081455
METAR
KOKB 081452Z AUTO 00000KT 8SM OVC017 18/14 A2992 RMK AO2 SLP132
     T01830139 53006=
KORE 081452Z AUTO 14005KT 8SM OVC014 26/22 A3009 RMK AO2 RAB32E43
     SLP186 P0000 60000 T02560217 58001=
KPYM 081452Z AUTO 00000KT 10SM SCT029 28/19 A3009 RMK AO2 SLP189
     T02830194 57006=
KRAP 081452Z 00000KT 10SM CLR 21/11 A3026 RMK AO2 SLP231 T02110111
     50001=
KSOP 081455Z AUTO 06005KT 9SM CLR 33/21 A2998 RMK AO1 57003=
KSSI 081453Z AUTO 30007KT 10SM FEW090 31/19 A3000 RMK AO2 SLP159
     T03060194 58001=
KSUX 081452Z 32003KT 10SM CLR 24/17 A3017 RMK AO2 SLP211 T02390167
     50000=
KTAN 081452Z AUTO 16004KT 10SM SCT026 27/20 A3007 RMK AO2 SLP181
     T02720200 56007=
KTOL 081452Z 24005KT 10SM CLR 32/20 A3002 RMK AO2 SLP160 T03170200
     58007=
KTRL 081453Z AUTO 14007KT 10SM SCT018 29/22 A3005 RMK AO2 SLP169
     T02940222 51002=
KTRM 081452Z AUTO 36003KT 10SM CLR 28/13 A2974 RMK AO2 SLP073
     T02780128 51012=
KUDG 081455Z 06007KT 10SM CLR 33/21 A2999 RMK AO1 52003=
KVQQ 081450Z 02004KT 10SM CLR 30/20 A3001=
KAFN 081452Z AUTO 19005KT 10SM FEW015 SCT020 26/20 A3012 RMK AO2
     SLP196 T02610200 50001=
KAFW 081453Z 16004KT 10SM SCT010 BKN055 27/23 A3005 RMK AO2
     RAB11E22 SLP160 P0000 60000 T02720233 52010=
KALS 081452Z AUTO 00000KT 10SM CLR 14/08 A3042 RMK AO2 SLP232
     T01440078 50003=
KAQW 081452Z AUTO VRB06KT 7SM CLR 28/22 A3005 RMK AO2 SLP173
     T02830222 56005=
KBDR 081452Z 08008KT 9SM SCT060 26/22 A3006 RMK AO2 SLP179
     T02560222 50001=
KBLF 081452Z AUTO 01005KT 8SM CLR 28/17 A3019 RMK AO2 SLP177
     T02830172 58001=
KBLH 081452Z AUTO 00000KT 10SM CLR 32/M02 A2978 RMK AO2 SLP075
     T03171017 53014=
KBML 081452Z AUTO 18005KT 8SM CLR 31/21 A3007 RMK AO2 SLP175
     T03110211 58010=
KBVI 081447Z 30005KT 5SM HZ SKC 31/22 A3011=
KCDS 081453Z AUTO 09009G15KT 10SM BKN008 OVC011 23/21 A3015 RMK
     AO2 CIG 005V009 SLP188 T02280206 51014=
KCQX 081452Z AUTO 16005KT 10SM BKN027 OVC034 23/19 A3012 RMK AO2
     SLP201 T02330194 58001=
KCRS 081453Z AUTO 12006KT 10SM SCT012 BKN070 27/24 A3004 RMK AO2
     SLP168 T02720239 53006=
KCSM 081453Z 04007KT 9SM -RA BKN008 BKN012 23/22 A3014 RMK AO2 CIG
     005V011 SLP184 P0000 60000 T02330217 51007=
KCUB 081453Z AUTO VRB05KT 10SM CLR 34/19 A2998 RMK AO2 SLP150
     T03440189 58005=
KCVG 081452Z 19007KT 6SM HZ FEW090 30/22 A3008 RMK AO2 SLP173
     T03000217 58004=
KDTO 081453Z 14006KT 10SM FEW030 SCT038 BKN047 26/24 A3006 RMK AO2
     RAB36E47 SLP168 P0000 60000 T02610239 51012=
KELD 081453Z AUTO 14004KT 10SM FEW015 28/24 A3008 RMK AO2 SLP182
     T02780244 51008=
KFIT 081452Z AUTO 15011G14KT 10SM FEW023 29/21 A3009 RMK AO2
     SLP186 T02890211 58004=
KFLO 081453Z 03005KT 8SM CLR 31/21 A2996 RMK AO2 SLP142 T03110211
     54000=
KFTW 081453Z 12005KT 10SM BKN007 BKN025 BKN055 26/24 A3005 RMK AO2
     RAB13E51 SLP165 P0001 60001 T02560244 51012=
KGGG 081453Z 12005KT 10SM SCT013 28/24 A3006 RMK AO2 SLP173
     T02780244 51008=
KGKY 081453Z 13007KT 10SM FEW012 SCT017 BKN028 27/23 A3005 RMK AO2
     PK WND 10026/1442 SLP166 60000 T02720233 51007=
KGNV 081453Z 00000KT 10SM CLR 29/20 A3002 RMK AO2 SLP163 T02940200
     50002=
KIEN 081452Z AUTO 00000KT 10SM CLR 19/13 A3028 RMK AO2 SLP235
     T01890128 58002=
KIJD 081452Z AUTO VRB03KT 9SM SCT023 BKN028 BKN034 27/21 A3008 RMK
     AO2 SLP185 T02670211 58002=
KMAF 081453Z 05009KT 10SM BKN008 BKN014 OVC024 22/20 A3014 RMK AO2
     SLP165 T02170200 51006=
KMFD 081452Z 28003KT 8SM CLR 30/18 A3008 RMK AO2 SLP173 T03000183
     58008=
KMHV 081450Z 00000KT 40SM SKC 24/04 A2994=
####018003711####
SAUS99 KWBC 081455 RRD
METAR
KHKA 081453Z AUTO 25005KT 6SM HZ CLR 31/23 A3007 RMK AO2 SLP181
     T03060228 50002=
KHKS 081453Z 02003KT 10SM CLR 31/23 A3008 RMK AO2 SLP178 T03060228
     51003=
KHKY 081453Z VRB04KT 8SM CLR 34/19 A3005 RMK AO2 SLP148 6////
     T03390189 58004 PNO $=
KHLG 081453Z 24003KT 8SM CLR 30/18 A3009 RMK AO2 SLP178 T03000178
     58005=
KHLN 081453Z 00000KT 10SM CLR 14/04 A3026 RMK AO2 SLP241 T01390044
     50001=
KHOT 081453Z AUTO 18003KT 10SM BKN016 BKN022 27/23 A3010 RMK AO2
     SLP187 T02670233 50004=
KHOU 081453Z 12007KT 080V170 10SM -RA SCT020 SCT040 BKN050 OVC150
     26/24 A2997 RMK AO2 SLP154 P0001 60011 T02610239 51017=
KHQM 081453Z AUTO 23004KT 1/2SM FG 13/13 A2998 RMK AO2 SLP156
     T01280128 51010 $=
KHRI 081453Z AUTO 12003KT 10SM CLR 21/08 A2999 RMK AO2 SLP149
     T02060078 51010=
KHRL 081452Z 35011KT 9SM RA BKN007 BKN014 OVC019 26/26 A2978 RMK
     AO2 RAB27 SLP084 P0000 60000 T02610261 50002=
KHRO 081453Z AUTO 14003KT 10SM BKN085 26/22 A3011 RMK AO2 SLP180
     T02560222 50004=
KHSI 081453Z AUTO 04006KT 10SM CLR 21/16 A3023 RMK AO2 SLP226
     T02060161 53005=
KHSV 081453Z 35008KT 10SM FEW200 33/23 A3008 RMK AO2 SLP176
     T03280228 58001 $=
KHUF 081453Z 24003KT 10SM CLR 30/23 A3004 RMK AO2 SLP167 T03000228
     58003 $=
KHUL 081453Z AUTO 20008G14KT 7SM CLR 27/22 A3002 RMK AO2 SLP162
     T02670217 58007=
KHVR 081453Z AUTO VRB04KT 10SM CLR 17/10 A3021 RMK AO2 SLP219
     T01720100 50002=
KHWO 081453Z AUTO 08006KT 10SM FEW027 31/24 A2999 RMK AO2 SLP156
     T03110239 53009=
KHYR 081453Z AUTO 28003KT 10SM CLR 23/16 A3008 RMK AO2 SLP183
     T02330161 50002=
KIAH 081453Z 05006KT 10SM -RA FEW009 SCT022 BKN095 OVC130 25/24
     A2999 RMK AO2 TSE08 SLP156 TS MOV NW P0006 6////
     T02500239=
KIBM 081450Z AUTO 07004KT 10SM SCT012 BKN028 OVC034 15/11 A3034
     RMK AO2 T01460112=
KICR 081453Z AUTO VRB05KT 10SM CLR 23/12 A3022 RMK AO2 SLP222
     T02330122 50004 TSNO $=
KIDA 081453Z 02008KT 10SM CLR 18/08 A3022 RMK AO2 SLP199 T01830083
     51004=
KILM 081453Z 08007KT 8SM CLR 31/22 A2995 RMK AO2 SLP140 T03060222
     51007=
KIPL 081453Z AUTO 14005KT 10SM CLR 27/13 A2974 RMK AO2 SLP072
     T02720128 51017=
KIWI 081453Z AUTO 16006KT 10SM FEW085 23/20 A3012 RMK AO2 SLP197
     T02330200 58001=
KJBR 081453Z AUTO 26005KT 10SM CLR 29/22 A3007 RMK AO2 SLP180
     T02940222 50004 $=
KJER 081453Z AUTO 07011KT 10SM CLR 18/05 A3015 RMK AO2 SLP177
     T01830050 51007=
KJKL 081453Z AUTO 00000KT 6SM HZ CLR 29/22 A3012 RMK AO2 SLP182
     T02890217 58001=
KJYR 081450Z AUTO 02006KT 10SM CLR 22/17 A3021 RMK AO2=
KLCG 081450Z AUTO 36005KT 10SM CLR 23/16 A3019 RMK AO2
     T02280159=
KLBX 081453Z AUTO 06007KT 7SM -RA FEW028 SCT070 BKN085 26/24 A2994
     RMK AO2 LTG DSNT N RAB18E29B48 SLP139 P0000 60009 T02560244
     51013=
KLCH 081453Z 09011KT 10SM 30/26 A3001 RMK AO2 SLP171 T03000256
     51008=
KELN 081453Z AUTO 00000KT 10SM 19/ A3007 RMK AO2 SLP169 6////
     T0189 $=
KENW 081453Z 29008KT 10SM SCT018 26/21 A3003 RMK AO2 SLP163
     T02560206 58001=
KEPH 081453Z AUTO 01010KT 10SM CLR 25/06 A3002 RMK AO2 SLP156
     T02500061 51005=
KEQY 081453Z AUTO 02006KT 7SM FEW090 32/20 A3000 RMK AO2 SLP155
     T03170200 58002=
KESF 081453Z AUTO 14006KT 10SM FEW009 SCT014 28/24 A3006 RMK AO2
     SLP176 T02830244 51005=
KEVW 081453Z AUTO 07011KT 10SM CLR 14/05 A3035 RMK AO2 SLP193
     T01440050 52005 TSNO=
KEWB 081453Z 13008KT 10SM FEW022 28/21 A3008 RMK AO2 SLP184
     T02780206 58003=
KEYE 081453Z AUTO 27005KT 10SM CLR 31/22 A3004 RMK AO2 SLP165
     T03060222 58003=
####018003686####
SAUS99 KWBC 081455 RRF
METAR
KMSO 081453Z 16003KT 10SM CLR 15/07 A3021 RMK AO2 SLP216 T01500072
     50002=
KMSP 081453Z 29004KT 10SM CLR 24/16 A3011 RMK AO2 SLP192 T02390161
     50001=
KMSS 081453Z AUTO 21003KT 8SM CLR 31/23 A2999 RMK AO2 SLP153
     T03060233 58009=
KMSY 081453Z 12007KT 10SM SCT025 BKN032 30/23 A3004 RMK AO2 SLP174
     T03000228 50006=
KMTH 081453Z AUTO 03005KT 10SM FEW043 BKN080 28/24 A2997 RMK AO2
     SLP149 60000 T02780239 53009 $=
KMVY 081453Z 15010KT 10SM FEW025 27/21 A3009 RMK AO2 SLP188
     T02670206 58003=
KMYF 081453Z 33003KT 4SM BR OVC009 16/14 A2993 RMK AO2 CIG 006V011
     SLP131 T01610144 51009=
KMYV 081453Z AUTO 10SM CLR 18/11 A2986 RMK AO2 SLP114 T01780111
     53008=
KNEW 081453Z 06008KT 10SM SCT021 BKN027 29/25 A3005 RMK AO2 SLP167
     T02940250 51007=
KOAK 081453Z 28008KT 10SM OVC007 14/11 A2996 RMK AO2 CIG 007V011
     SLP144 T01440106 52010=
KODX 081453Z AUTO 00000KT 10SM CLR 22/16 A3023 RMK AO2 SLP230
     T02220161 53002=
KOGA 081450Z AUTO 00000KT 10SM BKN038 OVC060 18/16 A3030 RMK AO2
     T01810159=
KOGD 081453Z 35007KT 10SM FEW075 22/07 A3015 RMK AO2 SLP150
     T02220067 51010 $=
KOLF 081453Z AUTO 25003KT 10SM CLR 19/11 A3017 RMK AO2 SLP214
     T01890111 51007=
KOLV 081450Z 35006KT 7SM FEW250 32/23 A3009=
KOMK 081453Z AUTO 36009KT 10SM CLR 21/09 A3007 RMK AO2 SLP175
     T02110089 53003=
KONL 081450Z AUTO 33005KT 10SM CLR 22/14 A3023 RMK AO2
     T02210141=
KONO 081453Z AUTO 26003KT 10SM CLR 18/08 A3010 RMK AO2 SLP180
     T01780078 51014=
KONT 081453Z 00000KT 2SM BR OVC009 15/13 A2993 RMK AO2 SLP129
     T01500128 51014=
KOPF 081453Z VRB03KT 10SM FEW029 31/24 A2997 RMK AO2 SLP151
     T03060239 51007=
KORF 081451Z 08012G16KT 10SM FEW020 SCT080 SCT100 29/21 A2999 RMK
     AO2 SLP156 60000 T02890211 51003=
KOSH 081453Z 32007KT 10SM BKN015 OVC020 24/21 A3002 RMK AO2 SLP151
     T02440206 51003=
KOSU 081453Z 28004KT 9SM CLR 31/20 A3007 RMK AO2 SLP173 T03060200
     58009=
KOUN 081453Z AUTO 34007KT 10SM BKN015 28/23 A3008 RMK AO2=
KOVE 081453Z AUTO 14003KT 10SM CLR 20/12 A2987 RMK AO2 SLP114
     T02000122 51007 TSNO=
KOVS 081453Z AUTO 34006KT 10SM FEW018 SCT022 26/20 A3006 RMK AO2
     SLP176 T02560200 50005=
KOWD 081453Z 18006KT 10SM FEW028 28/18 A3008 RMK AO2 SLP184
     T02830183 58005=
KOXB 081453Z AUTO 07007KT 9SM CLR 27/24 A3003 RMK AO2 SLP169
     T02670239 53003 $=
KPAE 081453Z 02004KT 10SM CLR 21/12 A2999 RMK AO2 SLP151 T02110117
     53004=
KPAH 081453Z 27005KT 10SM CLR 31/23 A3005 RMK AO2 SLP171 T03110233
     50001=
KPBF 081453Z AUTO 31003KT 10SM FEW015 28/23 A3009 RMK AO2 SLP187
     T02830233 50008=
KPBI 081453Z 06011KT 10SM SCT020CB SCT026 BKN033 33/27 A2998 RMK
     AO2 SLP150 CB OHD-N-NE-E-SE-S-SW-W MOV SW 60016 T03260267
     53007 $=
KPDK 081453Z 02006KT 10SM CLR 34/18 A3005 RMK AO2 SLP152 T03390178
     58003=
KPDT 081453Z 14003KT 10SM CLR 21/08 A3001 RMK AO2 SLP145 T02060078
     51009=
KPDX 081453Z 32005KT 10SM FEW250 21/14 A2993 RMK AO2 SLP134
     T02060139 51010=
KPGD 081453Z AUTO 08008KT 10SM SCT031 29/22 A3002 RMK AO2 SLP166
     T02890217 51003 TSNO=
KPIE 081453Z 07004KT 10SM CLR 28/21 A3001 RMK AO2 SLP161 T02780206
     50004=
KPIH 081453Z 02004KT 10SM CLR 16/06 A3020 RMK AO2 SLP190 T01610061
     51009=
KPIL 081453Z AUTO 30010KT 6SM -RA BR SCT010 BKN016 BKN024 28/26
     A2975 RMK AO2 SLP073 P0002 60004 T02780261 58006=
KPIR 081453Z AUTO 25004KT 10SM CLR 21/14 A3019 RMK AO2 SLP212
     T02110139 50004=
KPKB 081453Z 00000KT 7SM CLR 31/20 A3010 RMK AO2 SLP185 T03060200
     58005=
####018003710####
SAUS99 KWBC 081455 RRB
METAR
KCNO 081453Z 00000KT 2SM HZ OVC011 16/13 A2995 RMK AO2 SLP138
     T01560128 51015=
KCNY 081453Z AUTO 07010KT 10SM CLR 24/06 A3016 RMK AO2 SLP151
     T02390056 51010=
KCOT 081453Z AUTO 04008KT 10SM BKN011 OVC017 27/23 A2992 RMK AO2
     RAB01E35 SLP123 P0000 60001 T02670233 53006=
KCRQ 081453Z 00000KT 5SM HZ BKN008 OVC015 17/14 A2992 RMK AO2 CIG
     006V010 SLP130 T01720139 53006=
KCSV 081453Z AUTO 05004KT 7SM CLR 31/18 A3015 RMK AO2 SLP181
     T03060178 58003=
KCXO 081453Z 00000KT 10SM -TSRA FEW006 SCT014 BKN050 24/23 A3001
     RMK AO2 TSB44RAB23 SLP158 P0036 60036 T02390233 53012=
KDAG 081453Z AUTO 26009KT 10SM CLR 26/02 A2990 RMK AO2 SLP094
     T02560022 52009 TSNO=
KDAN 081453Z AUTO VRB04KT 5SM HZ CLR 34/19 A3001 RMK AO2 SLP149
     T03390194 58003=
KDBQ 081453Z 36005KT 10SM BKN015 24/21 A3008 RMK AO2 SLP178
     T02390206 53001=
KDCU 081453Z AUTO 02008KT 10SM CLR 33/20 A3008 RMK AO2 SLP177
     T03280200 58001=
KDEW 081453Z AUTO 03012KT 10SM CLR 20/08 A3009 RMK AO2 SLP177
     T02000083 53006=
KDHT 081453Z AUTO 02010KT 10SM SCT010 BKN016 OVC029 18/16 A3029
     RMK AO2 SLP208 T01830161 53013=
KDLN 081453Z AUTO 23006KT 10SM CLR 12/06 A3031 RMK AO2 SLP229
     T01170056 50002=
KDLS 081453Z AUTO 00000KT 10SM CLR 19/07 A2999 RMK AO2 SLP153
     T01940072 51009=
KDMN 081453Z AUTO 06016KT 10SM CLR 23/13 A3017 RMK AO2 SLP140
     T02330133 51010=
KDNL 081453Z AUTO 28005KT 10SM CLR 34/17 A3001 RMK AO2 SLP153
     T03390172 58005=
KDRT 081453Z AUTO 04003KT 10SM BKN019 28/22 A2998 RMK AO2 SLP134
     T02780222 51006=
KDVO 081450Z AUTO 36005KT 10SM OVC010 13/12 A2995 RMK AO2=
KDVT 081453Z 10009G14KT 10SM CLR 35/09 A2984 RMK AO2 SLP074
     T03500094 51013=
KDWH 081453Z 06004KT 9SM -RA FEW018 24/24 A3000 RMK AO2 LTG DSNT N
     SLP155 P0004 60017 T02440239=
KEET 081453Z AUTO 05003KT 10SM CLR 33/20 A3006 RMK AO2 SLP169
     T03280200 58001=
KEGE 081450Z 00000KT 10SM FEW100 13/09 A3040=
K36U 081457Z AUTO 00000KT 10SM CLR 17/06 A3025 RMK AO2=
KPMV 081450Z AUTO 02006KT 10SM CLR 24/18 A3016 RMK AO2
     T02360177=
KABR 081453Z AUTO 27006KT 10SM CLR 23/13 A3015 RMK AO2 SLP202
     T02330133 53003=
KACK 081453Z 14010KT 10SM CLR 23/20 A3009 RMK AO2 SLP190 T02330200
     58004=
KACV 081453Z AUTO 25003KT 1 1/4SM R32/4000VP6000FT BR OVC001 10/09
     A2996 RMK AO2 SLP149 T01000094 55002=
KAEX 081453Z AUTO 13006KT 10SM FEW080 29/24 A3004 RMK AO2 SLP174
     T02890239 51006=
KAFK 081450Z AUTO 02008KT 10SM CLR 23/19 A3015 RMK AO2
     T02290186=
KAGS 081453Z 32007KT 10SM CLR 36/19 A2998 RMK AO2 SLP151 T03560189
     58004=
KAIK 081455Z AUTO 28008KT 10SM CLR 33/25 A3004 RMK AO2 PNO=
KALI 081453Z AUTO 05011KT 10SM FEW007 SCT027 BKN041 27/25 A2988
     RMK AO2 RAB39E49 SLP114 P0000 60007 T02670250 53014=
KALW 081453Z 16005KT 10SM CLR 22/08 A3002 RMK AO2 SLP156 T02170083
     53009=
KAMA 081453Z 03009KT 10SM OVC007 19/17 A3024 RMK AO2 SLP200
     T01890172 53008=
KAMW 081453Z AUTO 36006KT 10SM FEW016 23/19 A3014 RMK AO2 SLP197
     T02280189 51009=
KANB 081453Z AUTO 16003KT 9SM CLR 32/21 A3005 RMK AO2 SLP165
     T03170211 58003=
KANW 081450Z AUTO 33005KT 10SM CLR 21/12 A3026 RMK AO2
     T02070124=
KAOH 081453Z AUTO 20007KT 10SM 30/21 A3006 RMK AO2 SLP170
     T03000206 58006 $=
KAOO 081453Z AUTO VRB04KT 7SM CLR 29/18 A3010 RMK AO2 SLP178
     T02940183 58006=
KAPF 081453Z 05006KT 10SM SCT025 31/24 A2999 RMK AO2 SLP153
     T03060239 51006=
KARA 081453Z 10008KT 10SM CLR 29/24 A3004 RMK AO2 SLP170 T02890244
     51008=
KARW 081455Z AUTO 33006KT 10SM CLR 31/20 A2997 RMK AO2=
####018001216####
SAUS99 KWBC 081455 RRI
METAR
KSTP 081453Z 32008KT 10SM CLR 24/16 A3011 RMK AO2 SLP189 T02440161
     50001=
KSTS 081453Z 14003KT 10SM OVC004 12/10 A2993 RMK AO2 SLP129
     T01220100 52008=
KTCC 081453Z AUTO 04009KT 10SM BKN015 BKN020 OVC100 19/15 A3027
     RMK AO2 SLP207 T01890150 53009=
KTCL 081453Z 02003KT 10SM CLR 33/23 A3005 RMK AO2 SLP174 T03280228
     58001=
KTIW 081453Z VRB03KT 10SM FEW090 20/13 A2997 RMK AO2 SLP144
     T02000128 51006=
KTMB 081453Z 08011KT 10SM SCT027 SCT032 BKN042 32/26 A2997 RMK AO2
     SLP148 T03220256 51009=
KTOI 081453Z 15003KT 10SM CLR 31/23 A3004 RMK AO2 SLP168 T03110233
     58001=
KTPA 081453Z VRB05KT 10SM FEW040 SCT200 29/18 A3001 RMK AO2 SLP162
     T02890183 50004=
KTTD 081453Z 00000KT 10SM CLR 21/13 A2992 RMK AO2 SLP130 T02060133
     51012=
KTUS 081453Z AUTO 12017G25KT 10SM CLR 32/11 A2995 RMK AO2 SLP085
     T03170111 51014=
KTVC 081453Z 24005KT 10SM FEW005 BKN010 OVC120 24/21 A2999 RMK AO2
     SLP152 60002 T02440211 58002=
KTVL 081453Z AUTO VRB04KT 10SM CLR 14/07 A3018 RMK AO2 SLP160
     T01440067 51006=
KTVR 081453Z AUTO 00000KT 10SM 29/23 A3007 RMK AO2 SLP189 6////
     T02940233 50005 PNO $=
####018003710####
SAUS99 KWBC 081455 RRE
METAR
KEYW 081453Z 03004KT 10SM BKN017 BKN035 29/25 A2998 RMK AO2 SLP152
     T02940250 51012=
KFAT 081453Z 34004KT 10SM CLR 21/09 A2987 RMK AO2 SLP110 T02110094
     53015=
KFAY 081453Z AUTO 03010KT 8SM CLR 34/21 A2996 RMK AO2 SLP137
     T03390211 50001=
KFCM 081453Z 29007KT 10SM CLR 24/16 A3011 RMK AO2 SLP190 T02390156
     50002=
KFDW 081455Z AUTO 00000KT 10SM CLR 32/18 A3000 RMK AO1=
KFET 081451Z AUTO 36004KT 10SM CLR 22/17 A3019 RMK AO2=
KFFC 081453Z AUTO 34006KT 9SM CLR 33/18 A3005 RMK AO2 SLP167
     T03280183 58003=
KFFT 081453Z AUTO 21005KT 4SM HZ CLR 31/21 A3007 RMK AO2 SLP173
     T03110206 58004=
KFHR 081453Z AUTO 36007KT 10SM CLR 22/14 A2999 RMK AO2 SLP156
     T02170144 51005=
KFLD 081453Z AUTO 32009KT 10SM BKN019 25/20 A3002 RMK AO2 SLP162
     T02500200 55000=
KFLL 081453Z 11009KT 10SM SCT023 BKN031 30/24 A2997 RMK AO2 SLP149
     T03000244 53011=
KFMN 081453Z 10012KT 10SM CLR 23/07 A3026 RMK AO2 SLP182 T02280072
     50007=
KFMY 081453Z 08004KT 10SM FEW025 29/22 A2998 RMK AO2 SLP155
     T02940217 53003=
KFPR 081453Z 05007KT 10SM SCT030 29/21 A3001 RMK AO2 SLP160
     T02940211 53007=
KFSM 081453Z 07003KT 10SM -RA SCT021 BKN043 OVC050 27/23 A3006 RMK
     AO2 RAB39 SLP173 P0000 60000 T02720233 51006=
KFST 081453Z AUTO 02005KT 9SM -RA BKN006 OVC013 22/21 A3013 RMK
     AO2 RAE27B50 SLP156 P0000 60000 T02220206 51015=
KFTY 081453Z VRB03KT 7SM CLR 33/20 A3004 RMK AO2 SLP162 T03330200
     58003=
KFUL 081453Z 00000KT 6SM HZ OVC015 17/13 A2993 RMK AO2 SLP133
     T01670128 53014=
KFVE 081453Z AUTO 13006KT 5SM HZ BKN022 BKN026 BKN032 28/23 A2999
     RMK AO2 SLP149 T02780233 57006=
KFYV 081453Z 19008KT 10SM OVC018 25/22 A3009 RMK AO2 SLP177 P0001
     60001 T02500222 53001=
KGEG 081453Z 03007KT 10SM CLR 19/08 A3009 RMK AO2 SLP172 T01890083
     53006=
KGEY 081453Z AUTO 00000KT 9SM CLR 18/06 A3028 RMK AO2 SLP224
     T01780056 50003=
KGEZ 081453Z AUTO 20005KT 8SM CLR 29/22 A3004 RMK AO2 SLP164
     T02940222 58003=
KMHE 081453Z AUTO 30004KT 10SM CLR 23/16 A3018 RMK AO2 SLP213
     T02280156 50003 TSNO=
KMHT 081453Z 19006KT 9SM SCT047 BKN110 28/21 A3006 RMK AO2 SLP187
     T02830206 58002=
KMIA 081453Z 00000KT 10SM BKN023TCU BKN130 BKN300 29/25 A2997 RMK
     AO2 RAB06E21 SLP150 CB DSNT S TCU SW-NW P0000 60000 T02890250
     51008=
KMIC 081453Z VRB06KT 10SM CLR 24/16 A3010 RMK AO2 SLP186 T02440161
     50002=
KMIE 081453Z 21006KT 10SM FEW065 SCT080 29/20 A3005 RMK AO2 SLP163
     T02940200 58007=
KMIW 081453Z AUTO 36008KT 10SM CLR 23/20 A3011 RMK AO2 SLP190
     T02330200 51007=
KMKL 081453Z 29005KT 10SM CLR 31/23 A3008 RMK AO2 SLP181 T03060228
     58001=
KMLE 081450Z AUTO 04003KT 10SM CLR 23/15 A3016 RMK AO2
     T02270153=
KMLP 081453Z AUTO 12007G14KT 10SM CLR 14/02 A3027 RMK AO2 SLP162
     T01390022 58000 TSNO=
KMLS 081453Z AUTO 21005KT 10SM CLR 20/11 A3021 RMK AO2 SLP214
     T02000106 50003=
KMLT 081453Z AUTO 18007KT 140V220 7SM OVC017 26/21 A3006 RMK AO2
     SLP183 T02610211 58003=
KMMH 081450Z AUTO 00000KT 10SM CLR 14/04 A3024 RMK AO1=
KMMK 081453Z AUTO 16006KT 5SM HZ FEW016 BKN055 28/22 A3006 RMK AO2
     SLP177 T02830222 58002=
KMMV 081453Z AUTO 27003KT 10SM CLR 16/11 A2995 RMK AO2 SLP139
     T01610111 51014=
KMNN 081453Z AUTO VRB03KT 10SM CLR 30/20 A3007 RMK AO2 SLP173
     T03000200 58008=
KMOD 081453Z 35007KT 10SM CLR 17/11 A2986 RMK AO2 SLP111 T01720111
     53008=
KMRB 081453Z AUTO 36003KT 6SM HZ CLR 32/18 A3003 RMK AO2 SLP162
     T03170178 58004=
KMSL 081453Z AUTO VRB06KT 10SM CLR 32/21 A3009 RMK AO2 SLP182
     T03170211 58002=
####018003697####
SAUS99 KWBC 081455 RRG
METAR
KPKD 081453Z AUTO 31007KT 10SM CLR 22/13 A3009 RMK AO2 SLP188
     T02170128 51002=
KPMD 081453Z 00000KT 10SM CLR 24/01 A2994 RMK AO2 SLP107 T02390006
     53011 $=
KPMP 081453Z 09009KT 10SM SCT021 30/24 A2998 RMK AO2 SLP153
     T03000244 53010=
KPQL 081453Z 00000KT 10SM CLR 30/24 A3003 RMK AO2 SLP171 T03000239
     50000=
KPRB 081453Z AUTO 32003KT 8SM OVC005 13/11 A2994 RMK AO2 SLP134
     T01330111 51010=
KPSC 081453Z 36004KT 10SM CLR 21/11 A3000 RMK AO2 SLP156 T02110111
     51011=
KPSO 081455Z AUTO 00000KT 10SM CLR 17/05 A3042 RMK AO2=
KPSP 081453Z 00000KT 10SM CLR 27/13 A2977 RMK AO2 SLP078 T02720133
     51014=
KPSX 081453Z AUTO 11013G21KT 10SM CLR 29/25 A2990 RMK AO2 RAE15
     SLP125 P0001 60006 T02940250 53007=
KPUC 081453Z AUTO 00000KT 10SM CLR 22/03 A3026 RMK AO2 SLP162
     T02170033 51005 TSNO=
KPUW 081453Z AUTO 09007KT 10SM CLR 21/08 A3009 RMK AO2 SLP173
     T02110083 53003=
KPVD 081451Z 14008KT 10SM BKN017 BKN250 27/21 A3010 RMK SLP191
     T02720206 58002=
KRAC 081453Z AUTO 32005KT 10SM SCT017 26/21 A3003 RMK AO2 SLP166
     60001 T02560211 50000=
KRAL 081453Z 00000KT 3SM HZ OVC007 16/13 A2994 RMK AO2 SLP124
     T01560128 51013=
KRBG 081453Z AUTO 00000KT 10SM CLR 18/12 A2996 RMK AO2 SLP141
     T01830117 51008=
KRDD 081453Z 00000KT 10SM CLR 24/15 A2985 RMK AO2 SLP100 T02390150
     51010=
KRHI 081453Z AUTO VRB04KT 10SM CLR 22/16 A3007 RMK AO2 SLP177
     T02220161 51006=
KRIW 081453Z AUTO VRB04KT 10SM CLR 16/07 A3035 RMK AO2 SLP227
     T01560072 51002=
KRKP 081453Z AUTO 09012KT 1 3/4SM +RA FEW011 BKN033 OVC060 A2988
     RMK AO2 TSE07 SLP121 P0011 60054 51017 FZRANO=
KRME 081453Z 00000KT 9SM CLR 29/22 A3005 RMK AO2 SLP170 T02940217
     58006=
KRMG 081453Z AUTO 34004KT 10SM CLR 32/19 A3005 RMK AO2 SLP163
     T03220194 58002=
KRNT 081453Z 00000KT 10SM CLR 19/14 A2996 RMK AO2 SLP151 T01940139
     51006=
KRSW 081453Z 06006KT 10SM SCT025 29/22 A2999 RMK AO2 SLP152
     T02940222 51003=
KRUE 081453Z AUTO 23003KT 10SM BKN014 BKN018 OVC043 27/23 A3009
     RMK AO2 SLP181 60003 T02720233 51008=
KRWF 081453Z AUTO 29005KT 10SM CLR 24/17 A3013 RMK AO2 SLP198
     T02390167 50001=
KRWI 081453Z AUTO VRB04KT 7SM CLR 31/22 A2998 RMK AO2 SLP151 60000
     T03060217 50002=
KRXE 081453Z AUTO 04007KT 10SM CLR 16/07 A3025 RMK AO2 SLP204
     T01610072 50004=
KSAC 081453Z 21006KT 10SM 15/11 A2987 RMK AO2 SLP114 T01500106
     53007 $=
KSAF 081453Z 00000KT 10SM CLR 18/09 A3036 RMK AO2 SLP195 T01780094
     53007=
KSAN 081451Z 34003KT 6SM BR OVC014 16/14 A2994 RMK AO2 SLP138
     T01610139 51010=
KSAT 081453Z 06007KT 4SM -RA BR BKN008 OVC023 25/25 A2997 RMK AO2
     RAB1354 SLP131 P0005 60005 T02500250 53007=
KSBA 081453Z 00000KT 7SM OVC009 14/12 A2993 RMK AO2 SLP135
     T01440122 53009 $=
KSBM 081453Z AUTO 31006KT 10SM FEW018 BKN026 BKN030 26/21 A3001
     RMK AO2 SLP158 T02560211=
KLEB 081453Z 22006KT 5SM HZ BKN017 29/23 A3005 RMK AO2 SLP164
     T02890228 58004=
KLEE 081453Z BKN001 OVC007 A3003 RMK AO2 SLPNO 51007 $=
KLFK 081453Z AUTO VRB05KT 10SM BKN012 BKN020 28/24 A3003 RMK AO2
     SLP165 T02780244 51005=
KLFT 081453Z VRB05KT 10SM FEW012 SCT019 BKN025 28/24 A3004 RMK AO2
     SLP171 T02830244 51004=
KLGB 081453Z 00000KT 8SM OVC013 17/13 A2993 RMK AO2 SLP136
     T01670133 53013=
KLHM 081451Z AUTO 16006KT 10SM CLR 18/11 A2985 RMK AO1
     T01840110=
KLHQ 081453Z AUTO 00000KT 6SM HZ CLR 30/22 A3008 RMK AO2 SLP176
     T03000217 58008=
KLIT 081453Z 22005KT 10SM SCT012 BKN250 28/24 A3009 RMK AO2 SLP190
     BKN011 V SCT T02830239 50006=
####018003714####
SAUS99 KWBC 081455 RRH
METAR
KLLQ 081453Z AUTO 00000KT 10SM FEW090 28/24 A3010 RMK AO2 SLP188
     T02830244 50006=
KLMT 081453Z 35010KT 10SM FEW050 SCT100 BKN200 20/08 A3008 RMK AO2
     SLP135 T02000078 51006=
KLOL 081453Z AUTO 03005KT 10SM CLR 23/M03 A3004 RMK AO2 SLP124
     T02331033 51012=
KLOU 081453Z 00000KT 6SM HZ CLR 31/21 A3006 RMK AO2 SLP172
     T03110211 58002=
KLOZ 081453Z AUTO 09005KT 5SM HZ CLR 30/20 A3011 RMK AO2 SLP179
     60000 T03000200 58004=
KLSE 081453Z 31008KT 10SM CLR 25/19 A3007 RMK AO2 SLP173 T02500189
     51009=
KLUK 081453Z 19005KT 5SM HZ CLR 31/23 A3006 RMK AO2 SLP174
     T03060228 58007=
KLVJ 081453Z AUTO 00000KT 10SM VCTS SCT015 SCT033 OVC048 24/22
     A2999 RMK AO2 TSB23RAB20E52 SLP154 P0008 60018 T02390217
     51018=
KLVK 081453Z 30005KT 13/11 A2993 RMK AO2 SLP132 T01330111 $=
KLVM 081453Z AUTO 32004KT 10SM CLR 14/06 A3029 RMK AO2 SLP230
     T01390061 58004=
KLVS 081453Z AUTO 03008KT 10SM SCT013 14/11 A3041 RMK AO2 SLP218
     T01390106 51005 TSNO=
KLWV 081453Z AUTO 24004KT 9SM FEW030 32/23 A3004 RMK AO2 SLP167
     T03170228 50001=
KLXN 081450Z AUTO 36004KT 10SM BKN055 OVC065 20/17 A3026 RMK AO2
     T01950170=
KMAE 081453Z AUTO 30006KT 10SM CLR 20/11 A2986 RMK AO2 SLP110
     T02000106 53013=
KMCB 081453Z AUTO 05005KT 10SM CLR 28/23 A3007 RMK AO2 SLP177
     6//// T02830228 50005 $=
KMCE 081453Z AUTO 32009KT 10SM CLR 18/11 A2985 RMK AO2 SLP107
     T01830106 51010=
KMCO 081453Z 17003KT 10SM SCT031 SCT250 28/18 A3002 RMK AO2 SLP164
     T02830183 51007=
KMEM 081453Z 27006KT 10SM FEW150 32/22 A3009 RMK AO2 SLP183
     T03170222 51004=
KMEZ 081455Z AUTO 18003KT 7SM SCT018 OVC033 27/23 A3011 RMK
     AO2=
KMFE 081453Z 36010KT 10SM BKN010 OVC016 28/25 A2982 RMK AO2 CIG
     009V012 SLP095 T02780250 53004=
KMFR 081453Z 00000KT 10SM SCT110 22/12 A2994 RMK AO2 SLP123
     T02220122 51012=
KMGW 081453Z VRB03KT 6SM HZ CLR 29/19 A3011 RMK AO2 SLP182
     T02940189 58005=
KMGY 081453Z AUTO 24005KT 7SM CLR 30/21 A3007 RMK AO2 SLP174
     T03000211 58004=
KSDL 081453Z 09008KT 10SM CLR 35/12 A2986 RMK AO2 SLP079 T03500117
     51014=
KSEA 081453Z 04004KT 10SM CLR 23/12 A2998 RMK AO2 SLP154 T02280122
     52007=
KSFF 081453Z 26003KT 10SM CLR 19/10 A3008 RMK AO2 SLP172 T01890100
     51004=
KSHN 081453Z AUTO 00000KT 10SM CLR 20/13 A2995 RMK AO2 SLP139
     T02000133 51005=
KSHR 081453Z AUTO 00000KT 10SM CLR 17/08 A3027 RMK AO2 SLP234
     T01670083 50001=
KSIY 081453Z AUTO 05003KT 10SM CLR 22/08 A3000 RMK AO2 SLP141
     T02170083 51008=
KSJC 081453Z 32005KT 8SM FEW008 BKN012 OVC015 15/12 A2994 RMK AO2
     SLP138 T01500117 51010=
KSLC 081453Z 15006KT 10SM FEW090 BKN130 23/07 A3013 RMK AO2 SLP148
     VIRGA DSNT N AND SE-SW T02280067 51008=
KSMF 081453Z 17006KT 10SM CLR 15/11 A2986 RMK AO2 SLP110 T01500111
     53009=
KSNA 081453Z VRB03KT 5SM HZ OVC015 18/13 A2993 RMK AO2 SLP134
     T01830128 53012=
KSNS 081453Z 33004KT 7SM OVC007 13/11 A2995 RMK AO2 SLP151
     T01280111 53010=
KSPB 081453Z AUTO 00000KT 10SM CLR 20/15 A2993 RMK AO2 SLP133
     T02000150 53011=
KSPG 081453Z 10004KT 10SM CLR 28/22 A3000 RMK AO2 SLP157 T02780222
     50006=
KSPL 081455Z AUTO 08006KT 27/25 A2976 RMK AO2 PWINO PNO=
KSPW 081453Z AUTO 33007KT 10SM CLR 23/16 A3017 RMK AO2 SLP210
     T02330161 50003=
KSRQ 081453Z 09007KT 10SM SCT030 29/21 A2999 RMK AO2 SLP155
     T02940211 50003=
KSSF 081453Z 06008KT 5SM RA BR BKN010 OVC018 26/24 A2995 RMK AO2
     RAB24 CIG 007V013 SLP131 P0001 60001 T02610239 53009=
KSTC 081453Z 29008KT 10SM CLR 24/14 A3010 RMK AO2 SLP197 T02440139
     50002=
####018000085####
SAAI41 FHAW 081450
METAR FHAW 081450Z 13015KT 9999 FEW030 BKN300 29/19 Q1015 BLU=
####018000081####
SABZ21 SBFN 081500
METAR SBFN 081500Z 10004KT 9999 SCT017 BKN100 28/24 Q1014=
####018000068####
SABZ23 SBCB 081500
METAR SBCB 081500Z 08009KT CAVOK 26/17 Q1017=
####018000487####
SAUK31 EGGY 081450
METAR EGBB 081450Z 26008G18KT 190V300 CAVOK 22/09 Q1017=
METAR EGCC 081450Z 22012KT 9999 -SHRA FEW033 SCT046 21/10 Q1017=
METAR EGKK 081450Z 21008KT 180V250 9999 SCT046 25/13 Q1018=
METAR EGLL 081450Z 26011KT 210V280 9999 SCT037 25/14 Q1018=
METAR EGPF 081450Z 23017KT 9999 FEW035 18/09 Q1013=
METAR EGPH 081450Z 23016KT 9999 SCT045 20/07 Q1013=
METAR EGPK 081450Z 25013KT 9999 FEW026 19/11 Q1014=
METAR EGSS 081450Z 24007KT 200V330 9999 BKN037 24/15 Q1018=
####018000120####
SAFK41 EGYP 081450
METAR EGYP 081450Z 01030KT 3500 -DZ BKN006 OVC018 06/05 Q0989 YLO1
 TEMPO 4000 RADZ BKN006 YLO1=
####018000081####
SABZ20 SBBE 081500
METAR SBBE 081500Z 15007KT 9999 SCT017 SCT100 32/23 Q1013=
####018000530####
SASN32 ESWI 081450
METAR ESKN 081450Z 24010KT CAVOK 25/12 Q1017=
METAR ESOE 081450Z 24010KT 210V290 9999 FEW043 SCT055 22/14 Q1017=
METAR ESOK 081450Z 22007KT 9999 SCT035 BKN100 21/14 Q1017=
METAR ESOW 081450Z 23009KT 9999 BKN043 24/13 Q1016=
METAR ESSA 081450Z 27012KT 9999 FEW045 25/14 Q1016 NOSIG=
METAR ESSB 081450Z 27012KT 9999 SCT048 25/13 Q1016=
METAR ESSD 081450Z AUTO 24012KT 9999NDV FEW025/// BKN030/// 19/13
Q1016=
METAR ESSP 081450Z 26010KT CAVOK 25/12 Q1017=
METAR ESSV 081450Z 24013KT CAVOK 22/13 Q1019=
####018000072####
SADN34 EKCH 081450 RRA
METAR EKGF 081450Z 24011KT CAVOK 16/15 Q1018=
####018000466####
SAUK35 EGGY 081450
METAR EGHH 081450Z NIL=
METAR EGKA 081450Z 21009KT 9999 4000SW FEW000 20/17 Q1019=
METAR EGKB 081450Z 22008KT 160V250 9999 SCT045 25/13 Q1018 =
METAR EGLF 081450Z 22007KT 170V270 9999 SCT032 24/15 Q1018=
METAR EGMC 081450Z 24005KT 180V280 9999 FEW042 26/15 Q1018=
METAR EGMD 081450Z 21010KT 9999 FEW020 21/16 Q1019=
METAR EGMH 081450Z 20011KT 180V240 9999 FEW024 27/14 Q1018 =
METAR EGTC 081450Z 21010KT 180V260 9999 FEW045 23/11 Q1017=
####018000068####
SABZ18 SBSJ 081500
METAR SBSJ 081500Z 00000KT CAVOK 22/11 Q1021=
####018000128####
SAMX53 MMMZ 081500
METAR MMCN 081453Z 00000KT 10SM  BKN080 BKN200 28/21 A2976 
      RMK SLP078 8/055 RTS=





TX_OPMET
####018000513####
SASN33 ESWI 081450
METAR ESNG 081450Z NIL=
METAR ESNK 081450Z AUTO 20012KT 9999NDV FEW110/// 23/12 Q1011=
METAR ESNN 081450Z 19007KT 160V220 9999 FEW046 23/12 Q1012=
METAR ESNO 081450Z 16010KT CAVOK 20/13 Q1012=
METAR ESNQ 081450Z 18011KT 9999 -RA BKN035 14/13 Q1012=
METAR ESNS 081450Z 14010KT CAVOK 23/10 Q1013=
METAR ESNU 081450Z 18008KT 130V210 CAVOK 20/12 Q1013=
METAR ESNZ 081450Z 20008KT CAVOK 20/09 Q1011=
METAR ESUT 081450Z AUTO VRB03KT 8000NDV -RA FEW019/// SCT043///
BKN059/// 13/10 Q1011=
####018000458####
SASN35 ESWI 081450
METAR ESGL 081450Z AUTO 22012KT 9999NDV SCT020/// OVC026/// 20/16 
Q1018=
METAR ESGR 081450Z AUTO 21012KT 9999NDV BKN031/// OVC041/// 20/14
Q1018=
METAR ESKM 081450Z NIL=
METAR ESNL 081450Z AUTO 17010KT 9999NDV FEW049/// 22/10 Q1011=
METAR ESNX 081450Z AUTO 13007KT 9999NDV BKN047/// 16/14 Q1013=
METAR ESNY 081450Z AUTO 26010KT 9999 FEW048 25/14 Q1014=
METAR ESSF 081450Z NIL=
METAR ESSK 081450Z NIL=
METAR ESUD 081450Z NIL=
####018000354####
SASW32 LSSW 081450
METAR LSGC 081450Z VRB02KT CAVOK 27/12 Q1024=
METAR LSGS 081450Z 25018KT 9999 FEW120 SCT250 31/13 Q1019=
METAR LSZG 081450Z VRB02KT 9999 FEW060 30/13 Q1020 NOSIG=
METAR LSZR 081450Z VRB02KT CAVOK 27/13 Q1021 NOSIG RMK L=
METAR LSZS 081450Z 30009KT 250V340 9999 FEW070 25/06 Q1026=
METAR LSZC 081450Z 07004KT CAVOK 29/16 Q1021=
####018000170####
SASN34 ESWI 081450
METAR ESDF 081450Z 21010KT 180V250 CAVOK 22/12 Q1020=
METAR ESPA 081450Z 15009KT CAVOK 18/14 Q1014=
METAR ESSL 081450Z 25007KT CAVOK 24/12 Q1017=
####018000543####
SAUK34 EGGY 081450
METAR EGHD 081450Z 23005KT 150V290 9999 FEW030 21/14 Q1019=
METAR EGHE 081450Z 19007KT 9999 FEW016 BKN025 20/15 Q1018=
METAR EGHK 081450Z 16005KT 9999 SCT018 18/15 Q1017=
METAR EGHQ 081450Z 28007KT 9999 FEW024 18/12 Q1018=
METAR EGJA 081450Z 33007KT 310V010 9999 FEW006 19/16 Q1019=
METAR EGJB 081450Z 32004KT 250V020 9999 FEW012 20/16 Q1019=
METAR EGJJ 081450Z 28009KT 240V310 9999 FEW010 20/17 Q1019 NOSIG=
METAR EGTE 081450Z 16015KT 9999 FEW030 21/15 Q1017=
METAR EGTG 081450Z 28007KT 9999 FEW040 21/10 Q1018=
####018000463####
SADR31 MDSD 081500
METAR
MDPP 081500Z 12010KT 8000 FEW020CB 32/26 Q1016 DU/ALL QDS=
MDST 081500Z 10012KT 9999 SCT020 30/25 Q1015= 
MDCY 081500Z 18005KT 9999 FEW020 30/26 Q1015=
MDPC 081500Z 09004KT 9999 FEW018 30/25 Q1014=
MDJB 081500Z 09006KT 9999 SCT020 30/26 Q1015=
MDLR 081500Z 09008KT 8000 FEW020 31/26 Q1016 DU/ALL QDS=
MDBH 081500Z 09008KT 9999 FEW017CB FEW018 SCT300 31/28 Q1017
CB/SE/S=
MDSD 081500Z 11007KT 9999 SCT022 30/24 Q1015=
####018000101####
SPAU32 YBBN 081454
SPECI YBRM 081454Z AUTO 04007KT 8000NDV // BKN024 BKN032 OVC040 22/21
Q1012=
####018000336####
SAFI32 EFHK 081450
EFHA 081450Z AUTO 33001KT CAVOK 25/16 Q1014=
METAR EFHF 081454Z NIL=
EFKA 081450Z AUTO VRB03KT CAVOK 26/10 Q1014=
EFKK 081450Z 31004KT 240V030 CAVOK 25/13 Q1013=
EFMA 081450Z 20010KT CAVOK 21/14 Q1016=
EFPO 081450Z AUTO 27008KT 230V300 CAVOK 23/11 Q1015=
EFSI 081450Z AUTO 25004KT 200V320 CAVOK 26/09 Q1014=
####018000104####
SPAU31 KWBC 081455
SPECI
YBRM 081454Z AUTO 04007KT 8000NDV // BKN024 BKN032 OVC040 22/21
Q1012=
####018000141####
SAUS44 KLZK 081454
MTRMWT
METAR KMWT 081453Z AUTO VRB04KT 10SM FEW015 SCT050 SCT060 26/23 
A3008 RMK AO2 SLP176 T02610228 51008 TSNO
####018000124####
SAUS44 KLIX 081454
MTRMSY
METAR KMSY 081453Z 12007KT 10SM SCT025 BKN032 30/23 A3004 RMK AO2 
SLP174 T03000228 50006
####018000126####
SAUS44 KMRX 081454
MTROQT
METAR KOQT 081453Z AUTO 00000KT 6SM HZ CLR 31/22 A3009 RMK AO2 
SLP168 T03110217 58005 TSNO
####018000124####
SAUS45 KFGZ 081455
MTRRQE
METAR KRQE 081453Z AUTO VRB04KT 10SM CLR 20/08 A3032 RMK AO2 SLP143 
T02000078 53011 TSNO
####018002997####
SAUS20 KNKA 081454
METAR KAAF 081453Z AUTO 02006KT 10SM CLR 31/22 A3002 RMK AO2 SLP164 
    T03110222 50000=
METAR KABY 081453Z 23005KT 10SM CLR 31/20 A3004 RMK AO2 SLP170 
    T03110200 58002=
METAR KADG 081453Z AUTO VRB04KT 9SM CLR 31/20 A3004 RMK AO2 SLP166 
    T03060200 58006=
METAR KAGC 081453Z 20004KT 6SM HZ CLR 30/18 A3008 RMK AO2 SLP178 
    T03000183 58005=
METAR KAIA 081453Z AUTO 00000KT 10SM CLR 18/13 A3031 RMK AO2 SLP233 
    T01830128 50001=
METAR KAKO 081453Z AUTO 16007KT 10SM BKN007 OVC011 17/14 A3033 RMK 
    AO2 CIG 004V010 SLP237 T01670139 52002 TSNO=
METAR KAPA 081453Z 34006KT 2 1/2SM HZ BKN002 BKN030 14/12 A3037 RMK 
    AO2 SFC VIS 5 SLP241 T01440117 51011=
METAR KARB 081453Z 00000KT 10SM CLR 30/21 A3002 RMK AO2 SLP158 
    T03000211 58007=
METAR KASE 081453Z 36005KT 10SM CLR 12/07 A3040 RMK AO2 SLP200 
    T01220067 50006=
METAR KASG 081453Z 20005KT 8SM BKN016 OVC043 25/22 A3013=
METAR KBBW 081453Z AUTO 00000KT 10SM FEW065 22/16 A3025 RMK AO2 
    SLP230 T02170156 51004=
METAR KBCT 081453Z AUTO 10008KT 10SM SCT024 31/24 A2999 =
METAR KBFF 081453Z AUTO 00000KT 10SM CLR 18/13 A3031 RMK AO2 SLP234 
    T01830133 51002=
METAR KBGM 081453Z VRB03KT 8SM CLR 29/21 A3012 RMK AO2 SLP182 
    T02890206 58003=
METAR KBKL 081453Z 19006KT 8SM CLR 33/17 A3002 RMK AO2 SLP160 
    T03280167 58012=
METAR KBRL 081453Z AUTO 9SM FEW009 25/22 A3007 RMK AO2 SLP177 6//// 
    T02500217 50008=
METAR KBVO 081453Z 06003KT 10SM FEW010 BKN014 OVC100 25/22 A3008 RMK 
    AO2 SLP176 T02500222 51009=
METAR KBYG 081453Z AUTO 00000KT 10SM CLR 19/03 A3031 RMK AO2 SLP221 
    T01940033 51002=
METAR KCAG 081453Z AUTO VRB03KT 10SM CLR 15/08 A3034 RMK AO2 SLP219 
    T01500078 50003=
METAR KCDR 081453Z AUTO 00000KT 10SM CLR 18/12 A3029 RMK AO2 SLP245 
    T01830117 58003=
METAR KCDW 081453Z 16006KT 2 1/2SM -RA SCT018 BKN029 27/24 A3005 RMK 
    AO2 RAB36 SLP180 P0002 60002 T02670239 51001=
METAR KCEW 081453Z AUTO 11004KT 10SM CLR 31/24 A3004 RMK AO2 SLP170 
    T03110239 58001=
METAR KCEZ 081453Z AUTO 11009G17KT 10SM CLR 23/07 A3027 RMK AO2 
    SLP164 T02280072 50007=
METAR KCGI 081453Z 26004KT 10SM FEW110 29/24 A3005 RMK AO2 SLP171 
    T02940244 50000=
METAR KCKB 081453Z 31003KT 6SM HZ CLR 29/19 A3009 RMK AO2 SLP173 
    T02940194 58004=
METAR KCPR 081453Z 24005KT 10SM CLR 15/07 A3035 RMK AO2 SLP234 
    T01500067 50001 $=
METAR KCPS 081453Z 00000KT 10SM FEW022 SCT042 BKN055 28/22 A3005 RMK 
    AO2 SLP169 60000 T02830222 50002=
METAR KCRG 081453Z 00000KT 10SM CLR 31/19 A3001 RMK AO2 SLP162 
    T03060189 58001=
METAR KCYS 081453Z 00000KT 10SM BKN040 BKN047 14/11 A3038 RMK AO2 
    SLP236 T01440106 53002=
METAR KDAL 081453Z 12007KT 9SM BKN016 BKN025 OVC050 27/23 A3004 RMK 
    AO2 SLP166 60001 T02720233 51008=
METAR KDEN 081453Z 34003KT 1/2SM BR BKN007 BKN012 OVC017 16/14 A3034 
    RMK AO2 SFC VIS 3 CIG 005V010 SLP223 T01560139 53005=
####018000116####
SAUS46 KLOX 081455
MTRLAX
METAR KLAX 081453Z 24005KT 7SM OVC009 16/13 A2994 RMK AO2 SLP136 
T01560128 53012
####018000215####
SAAK41 KNKA 081454
METAR PATA 081452Z 00000KT 10SM FEW080 11/07 A3005 RMK AO2 SLP176 
    T01110067 50000=
METAR PHJR 081453Z AUTO 00000KT 10SM BKN060 23/18 A3003 RMK AO2 
    SLP174 T02280178 53000 TSNO=
####018000074####
SALY31 HLLM 081500
METAR HLLM 081450Z 
01010KT 7000 SKC 27/21 Q1018=
####018001611####
SAUS20 KNKA 081454
METAR KSTJ 081453Z 02008KT 10SM OVC013 23/20 A3012 RMK AO2 SLP193 
    T02330200 51016=
METAR KSWO 081453Z 01006KT 10SM OVC006 25/22 A3007 RMK AO2 CIG 
    006V010 SLP172 T02500222 51009=
METAR KTDZ 081453Z AUTO 25004KT 10SM CLR 32/20 A3003 RMK AO2 SLP161 
    T03170200 58009=
METAR KTHV 081453Z AUTO 00000KT 7SM CLR 32/22 A3002 RMK AO2 SLP165 
    T03220217 56004=
METAR KTKI 081453Z 13003KT 10SM SCT010 SCT055 BKN065 26/24 A3006 RMK 
    AO2 RAE13 SLP173 P0001 60012 T02610244 51009=
METAR KTOP 081453Z 03008KT 10SM OVC011 24/22 A3012 RMK AO2 SLP190 
    T02440217 50012=
METAR KTOR 081453Z AUTO VRB03KT 10SM CLR 17/12 A3031 RMK AO2 SLP234 
    T01670122 55001=
METAR KTTN 081453Z 23005KT 5SM HZ BKN019 OVC031 28/23 A3004 RMK AO2 
    SLP163 T02830228 58001=
METAR KTUL 081453Z 04003KT 10SM BKN008 OVC013 25/23 A3006 RMK AO2 
    SLP169 T02500233 53006=
METAR KTXK 081453Z 08003KT 10SM BKN010 BKN016 OVC080 26/24 A3008 RMK 
    AO2 SLP183 T02610239 51010=
METAR KTYR 081453Z 12008KT 10SM FEW012 27/24 A3007 RMK AO2 SLP176 
    T02720239 51008=
METAR KUNO 081453Z AUTO 26006KT 10SM FEW017 BKN023 BKN100 27/22 
    A3011 RMK AO2 SLP180 T02670217 50004=
METAR KVIH 081453Z AUTO 08003KT 10SM FEW005 BKN015 BKN060 26/23 
    A3007 RMK AO2 SLP172 60001 T02610228 50004=
METAR KVLD 081453Z 36005KT 10SM CLR 31/20 A3002 RMK AO2 SLP173 
    T03060200 58003=
METAR KYIP 081453Z 25006KT 10SM CLR 32/19 A3002 RMK AO2 SLP158 
    T03170194 58007=
METAR KZZV 081453Z AUTO VRB03KT 8SM CLR 29/22 A3007 RMK AO2 SLP174 
    T02940217 58006=
####018001685####
SAUS20 KNKA 081454
METAR KTWF 081453Z 08011KT 10SM CLR 19/06 A3016 RMK AO2 SLP162 
    T01890061 51009=
METAR KUAO 081453Z AUTO VRB04KT 10SM CLR 19/13 A2994 RMK AO2 SLP138 
    T01890128 51013=
METAR KUTS 081453Z AUTO 00000KT 8SM BKN009 27/24 A3002 RMK AO2 LTG 
    DSNT S RAB29E44 CIG 006V013 SLP159 P0000 60000 T02720244 53009=
METAR KUUU 081453Z AUTO VRB05KT 10SM FEW013 26/22 A3010 RMK AO2 
    SLP188 T02560217 58004=
METAR KVCB 081453Z AUTO 24006KT 10SM CLR 18/11 A2986 RMK AO2 SLP111 
    T01830106 53009=
METAR KVEL 081453Z AUTO 00000KT 10SM CLR 19/06 A3027 RMK AO2 SLP191 
    T01890061 51007=
METAR KVGT 081453Z 00000KT 10SM CLR 30/M01 A2991 RMK AO2 SLP086 
    T03001006 53014=
METAR KVPC 081453Z AUTO 00000KT 9SM CLR 31/22 A3006 RMK AO2 SLP166 
    T03060217 58003=
METAR KVPZ 081453Z AUTO 21004KT 9SM SCT010 BKN041 OVC050 26/23 A3004 
    RMK AO2 RAE1355 SLP166 P0000 60000 T02560228 57002=
METAR KVRB 081453Z 06007KT 10SM SCT025 29/21 A3001 RMK AO2 SLP160 
    T02940206 53009=
METAR KVUO 081453Z AUTO 00000KT 10SM CLR 21/14 A2993 RMK AO2 SLP135 
    T02110144 53012=
METAR KWRL 081453Z AUTO VRB05KT 10SM CLR 19/04 A3028 RMK AO2 SLP220 
    T01940039 50001=
METAR KWST 081453Z AUTO 13009KT 10SM FEW006 25/21 A3009 RMK AO2 
    SLP188 T02500211 58001=
METAR KWVI 081453Z AUTO 00000KT 10SM OVC007 13/11 A2996 RMK AO2 
    SLP143 T01280111 51011=
METAR KXFL 081448Z VRB03KT 10SM CLR 29/22 A3002=
METAR KXNA 081453Z 18005KT 4SM RA BR SCT017 BKN023 OVC031 23/22 
    A3010 RMK AO2 RAB39 SLP178 P0005 60005 T02330222 52004=
METAR KYKM 081453Z 29007KT 10SM CLR 22/08 A3003 RMK AO2 SLP162 
    T02170078 51004=
####018002982####
SAUS20 KNKA 081454
METAR KMCW 081453Z AUTO 01010KT 10SM CLR 22/17 A3015 RMK AO2 SLP199 
    T02220167 50007=
METAR KMKO 081453Z AUTO 14003KT 9SM FEW003 OVC010 24/23 A3007 RMK 
    AO2 RAE51 SLP175 P0000 60000 T02440233 51008=
METAR KMLU 081453Z 00000KT 10SM CLR 31/24 A3008 RMK AO2 SLP185 
    T03060244 51007=
METAR KMPO 081453Z AUTO VRB03KT 8SM CLR 28/21 A3011 RMK AO2 SLP181 
    T02830206 58002=
METAR KMTJ 081453Z AUTO VRB04KT 10SM CLR 21/06 A3029 RMK AO2 SLP178 
    T02110061 50004=
METAR KMTO 081453Z AUTO 23003KT 10SM BKN033 27/24 A3005 RMK AO2 
    RAB36E53 SLP169 P0003 60003 T02670244 51001=
METAR KMWL 081453Z AUTO 12004KT 10SM FEW013 SCT024 OVC038 26/24 
    A3005 RMK AO2 RAB35E51 SLP162 P0001 60001 T02560239 53010=
METAR KOJC 081453Z 08003KT 8SM SCT012 BKN024 OVC031 24/22 A3011 RMK 
    AO2 SLP185 T02440217 51007=
METAR KORL 081453Z 09003KT 10SM FEW031 28/20 A3002 RMK AO2 SLP169 
    T02830200 51007=
METAR KOTM 081453Z AUTO 36004KT 9SM CLR 23/21 A3009 RMK AO2 SLP183 
    T02330206 51004=
METAR KPBG 081453Z AUTO 13008KT 6SM HZ CLR 29/23 A2999 RMK AO2 
    SLP153 T02890228 58008=
METAR KPEO 081453Z AUTO 25004KT 8SM CLR 31/20 A3006 RMK AO2 SLP170 
    T03060200 58008=
METAR KPGA 081453Z AUTO 00000KT 10SM CLR 27/01 A3011 RMK AO2 SLP120 
    T02720011 51014=
METAR KPHD 081453Z AUTO 00000KT 9SM CLR 30/20 A3008 RMK AO2 SLP177 
    T03000200 58008=
METAR KPNC 081453Z AUTO 02009KT 10SM OVC013 26/22 A3009 RMK AO2 
    SLP178 T02560222 51010=
METAR KPNS 081453Z 08004KT 10SM CLR 31/24 A3003 RMK AO2 SLP169 
    T03060244 58001=
METAR KPOF 081453Z AUTO 24006KT 10SM CLR 30/23 A3006 RMK AO2 SLP171 
    T03000233 50002=
METAR KPOU 081453Z 13006KT 6SM HZ CLR 29/22 A3004 RMK AO2 SLP166 
    T02890222 50000=
METAR KPRC 081453Z 00000KT 10SM SCT060 25/03 A3014 RMK AO2 SLP110 
    T02500033 51012=
METAR KPTK 081453Z 24006KT 10SM FEW110 SCT220 31/20 A3002 RMK AO2 
    SLP154 T03110200 58007=
METAR KPUB 081453Z 00000KT 10SM CLR 17/13 A3031 RMK AO2 SLP215 
    T01720133 53003=
METAR KPWA 081453Z 01006KT 10SM FEW013 26/22 A3009 RMK AO2 SLP172 
    T02610217 53007=
METAR KRBD 081453Z 13006KT 10SM SCT011 BKN018 BKN025 27/23 A3005 RMK 
    AO2 SLP166 60001 T02670233 51005=
METAR KRSL 081453Z AUTO 02008KT 10SM BKN017 OVC043 21/18 A3019 RMK 
    AO2 SLP210 T02110178 51004=
METAR KRVS 081453Z 00000KT 10SM SCT008 BKN022 OVC028 25/23 A3006 RMK 
    AO2 SLP181 T02500233 51005=
METAR KRWL 081453Z AUTO 06007KT 10SM CLR 14/07 A3040 RMK AO2 SLP222 
    T01390072 58000=
METAR KSEG 081453Z AUTO 00000KT 8SM CLR 35/18 A3003 RMK AO2 SLP162 
    T03500183 58008=
METAR KSLN 081453Z 04008KT 10SM BKN010 23/19 A3016 RMK AO2 SLP201 
    T02280194 53006=
METAR KSMQ 081453Z AUTO 00000KT 6SM HZ FEW023 29/23 A3002 RMK AO2 
    SLP164 T02890233 58003=
METAR KSNY 081453Z AUTO 00000KT 10SM FEW009 BKN013 BKN021 18/14 
    A3034 RMK AO2 SLP240 T01780139 51002=
####018000562####
SAHW31 KMSC 081454
METAR PHNL 081453Z 08006KT 10SM FEW032 BKN055 24/18 A3002 RMK AO2 
    SLP163 T02390178 53000=
METAR PHTO 081453Z 25004KT 10SM FEW055 BKN070 21/17 A3002 RMK AO2 
    SLP164 60013 T02060172 55000=
METAR PHKO 081453Z AUTO 10004KT 10SM FEW070 23/18 A2996 RMK AO2 
    SLP146 T02280178 55002 TSNO=
METAR PHLI 081453Z 08015G24KT 10SM -RA SCT025 BKN029 BKN048 23/18 
    A3004 RMK AO2 RAB14 SLP170 P0003 60003 T02320184 55001 $=
METAR PHJR 081453Z AUTO 00000KT 10SM BKN060 23/18 A3003 RMK AO2 
    SLP174 T02280178 53000 TSNO=
####018000119####
SAUS41 KAKQ 081455
MTRNUI
METAR KNUI 081453Z AUTO 08007KT 10SM CLR 29/22 A3001 RMK AO2 SLP163 
T02890217 51006
####018002954####
SAUS20 KNKA 081454
METAR KDET 081453Z 23007KT 10SM CLR 32/19 A3001 RMK AO2 SLP155 
    T03220194 58008=
METAR KDFI 081453Z AUTO 21006KT 10SM CLR 31/20 A3004 RMK AO2 SLP165 
    T03060200 58006=
METAR KDFW 081453Z 13006KT 10SM SCT009 BKN014 OVC060 27/24 A3005 RMK 
    AO2 RAB08E34 SLP165 P0000 60001 T02670239 51008=
METAR KDGW 081453Z AUTO 00000KT 10SM CLR 13/09 A3035 RMK AO2 SLP251 
    T01280089 50001 $=
METAR KDHN 081453Z VRB03KT 10SM CLR 33/17 A3007 RMK AO2 SLP176 
    T03280172 58003=
METAR KDKK 081453Z AUTO 20003KT 10SM FEW100 31/18 A3004 RMK AO2 
    SLP167 T03110183 58007=
METAR KDMO 081453Z AUTO 01004KT 10SM OVC017 26/22 A3009 RMK AO2 
    SLP180 T02610222 58001=
METAR KDRO 081453Z AUTO 07005KT 10SM CLR 19/06 A3035 RMK AO2 SLP199 
    T01940061 51009=
METAR KDTN 081453Z 09004KT 10SM BKN014 28/24 A3006 RMK AO2 SLP177 
    T02780244 50003=
METAR KDTS 081453Z AUTO VRB03KT 10SM CLR 30/24 A3002 RMK AO2 SLP166 
    T03000239 50001=
METAR KDTW 081453Z 26004KT 8SM FEW220 31/21 A3001 RMK AO2 SLP157 
    T03110206 58007=
METAR KDXR 081453Z 17005KT 5SM BR BKN009 OVC017 25/24 A3008 RMK AO2 
    RAE16 CIG 007V011 SLP182 P0001 60004 T02500239 58001=
METAR KECP 081453Z 00000KT 10SM CLR 31/22 A3002 RMK AO2 SLP176 
    T03110217 58000=
METAR KEEO 081453Z AUTO 00000KT 10SM CLR 17/07 A3033 RMK AO2 SLP198 
    T01670067 50005 $=
METAR KELM 081453Z 00000KT 9SM CLR 31/19 A3006 RMK AO2 SLP170 
    T03110189 58011=
METAR KEMP 081453Z AUTO 03004KT 10SM SCT015 BKN047 BKN055 24/20 
    A3014 RMK AO2 SLP196 T02390200 53011=
METAR KFDR 081453Z AUTO 03005KT 10SM 27/23 A3007 RMK AO2 SLP165 
    T02670228 53010=
METAR KFDY 081453Z AUTO 21004KT 9SM CLR 31/21 A3004 RMK AO2 SLP161 
    T03060211 58008=
METAR KFNB 081453Z AUTO 05008KT 10SM CLR 23/19 A3014 RMK AO2 SLP198 
    T02280189 53009=
METAR KFNT 081453Z 16004KT 10SM SCT200 30/21 A3001 RMK AO2 SLP156 
    T03000211 58009=
METAR KFOE 081453Z 01009KT 10SM OVC005 23/21 A3012 RMK AO2 SLP190 
    T02330211 51011=
METAR KFOK 081453Z 11006KT 10SM CLR 27/19 A3008 RMK AO2 SLP185 
    T02670189 55002=
METAR KFRG 081453Z 13008KT 10SM SCT019 BKN025 BKN060 27/22 A3006 RMK 
    AO2 SLP178 60001 T02670222 50001=
METAR KFWN 081453Z AUTO VRB06KT 6SM HZ BKN030 30/22 A3005 RMK AO2 
    SLP170 T03000222 58003=
METAR KFXE 081453Z 09009KT 10SM SCT027 31/23 A2998 RMK AO2 SLP153 
    T03060233 51010=
METAR KGAG 081453Z AUTO 03007KT 8SM -RA OVC005 21/20 A3017 RMK AO2 
    CIG 003V007 SLP195 P0005 60007 T02110200 53008=
METAR KGCC 081453Z AUTO 22006KT 10SM CLR 19/07 A3030 RMK AO2 SLP229 
    T01940067 51002=
METAR KGJT 081453Z 12010KT 10SM CLR 23/06 A3022 RMK AO2 SLP165 
    T02280061 51008=
METAR KGKJ 081453Z AUTO VRB03KT 10SM CLR 29/19 A3009 RMK AO2 SLP177 
    T02940189 58007=
METAR KGLD 081453Z AUTO 00000KT 10SM SCT038 BKN085 18/15 A3030 RMK 
    AO2 SLP233 T01780150 50000=
####018000202####
SACA01 KMSC 081454
METAR TISX 081453Z 12016KT 10SM SCT030 32/24 A3002 RMK AO2 SLP164 
    T03170239 51007=
METAR TIST 081453Z 08012KT 10SM CLR 32/24 A3002 RMK AO2 SLP165 
    T03170239 51009=
####018003000####
SAUS20 KNKA 081454
METAR KGOK 081453Z AUTO 00000KT 9SM OVC007 26/22 A3008 RMK AO2 CIG 
    006V010 SLP176 T02560222 53008=
METAR KGUY 081453Z AUTO 02010KT 4SM -RA BR SCT008 OVC014 19/18 A3024 
    RMK AO2 RAB1358 SLP201 P0001 60003 T01890178 51007=
METAR KGZH 081453Z AUTO 00000KT 10SM CLR 32/23 A3005 RMK AO2 SLP171 
    T03170233 58001=
METAR KHLC 081453Z AUTO 03008KT 10SM CLR 21/15 A3023 RMK AO2 SLP223 
    T02060150 50001=
METAR KHVN 081453Z 15006KT 10SM FEW015 BKN031 BKN120 27/22 A3006 RMK 
    AO2 SLP180 T02720222 58000=
METAR KHZY 081453Z AUTO 23006KT 10SM FEW090 30/21 A3007 RMK AO2 
    SLP173 T03000206 58007=
METAR KIAG 081453Z 21005KT 10SM FEW100 31/21 A3002 RMK AO2 SLP159 
    8/030 T03060206 58008=
METAR KICT 081453Z 02009KT 10SM BKN009 OVC013 23/21 A3014 RMK AO2 
    SLP192 T02330206 51014=
METAR KIML 081453Z AUTO 01003KT 10SM BKN100 19/14 A3029 RMK AO2 
    SLP239 P0001 60001 T01940144 50003=
METAR KINK 081453Z AUTO 06010KT 10SM OVC028 24/19 A3012 RMK AO2 
    SLP158 60000 T02390194 51010 TSNO=
METAR KITR 081453Z AUTO 09003KT 10SM FEW004 BKN060 OVC090 17/15 
    A3033 RMK AO2 SLP234 60000 T01670150 53004=
METAR KIXD 081453Z 04007KT 8SM OVC011 24/21 A3012 RMK AO2 SLP188 
    T02390211 51013=
METAR KJAC 081451Z 00000KT 10SM SKC 14/01 A3038=
METAR KJEF 081453Z 00000KT 10SM BKN006 OVC014 26/23 A3007 RMK AO2 
    SLP167 T02560228 50005=
METAR KJLN 081453Z 06004KT 10SM -RA BKN013 BKN030 OVC055 22/22 A3009 
    RMK AO2 SLP179 P0013 60091 T02220217 50006=
METAR KLAA 081453Z AUTO 13005KT 10SM BKN007 OVC090 17/16 A3028 RMK 
    AO2 RAE02 CIG 005V010 SLP217 P0000 60001 T01720161 50005=
METAR KLAN 081453Z 00000KT 10SM FEW030 SCT120 BKN200 28/21 A3002 RMK 
    AO2 SLP159 T02830211 58008 $=
METAR KLAR 081453Z AUTO 17005KT 10SM SCT006 BKN019 11/08 A3042 RMK 
    AO2 SLP233 T01060083 53004=
METAR KLAW 081453Z 06008KT 10SM BKN018 27/23 A3008 RMK AO2 SLP172 
    T02720228 53006=
METAR KLBB 081453Z 02006KT 10SM BKN008 BKN040 OVC220 22/19 A3019 RMK 
    AO2 RAB29E42 SLP180 P0000 60000 T02170189 53014=
METAR KLBF 081453Z AUTO 00000KT 10SM CLR 21/16 A3027 RMK AO2 SLP234 
    T02110156 51003=
METAR KLHX 081453Z AUTO 13003KT 10SM BKN012 OVC018 18/15 A3031 RMK 
    AO2 SLP217 6//// T01780150 53004 PNO=
METAR KLNS 081453Z 09004KT 7SM CLR 32/21 A3003 RMK AO2 PK WND 
    33047/1427 SLP164 T03170206 58001=
METAR KLPR 081453Z AUTO 20005KT 9SM CLR 32/22 A3005 RMK AO2 SLP167 
    T03170217 58009=
METAR KLWD 081453Z AUTO 01005KT 10SM FEW010 23/21 A3012 RMK AO2 
    SLP192 T02280206 51007=
METAR KLXT 081453Z AUTO 04004KT 9SM OVC008 24/22 A3011 RMK AO2 
    SLP188 T02390217 50005=
METAR KMBS 081453Z 30004KT 10SM SCT060 26/22 A3002 RMK AO2 SLP161 
    T02610217 50002=
METAR KMCI 081453Z 06006KT 9SM FEW007 BKN012 OVC018 25/23 A3011 RMK 
    AO2 SLP186 T02500228 51013=
METAR KMCK 081453Z AUTO 00000KT 10SM CLR 19/15 A3027 RMK AO2 SLP237 
    T01940150 51007=
####018000073####
SALY31 HLLS 081500
METAR HLLS 081450Z 
08012KT CAVOK 38/ 08 Q1015 =
####018000131####
SAGM31 PGUM 081455
MTRGUM
METAR PGUM 081454Z 12007KT 10SM BKN020 BKN028 BKN035 27/24 A2989 RMK 
AO2 SLP114 T02720244 58010
####018000116####
SAUS46 KSGX 081455
MTRSDM
METAR KSDM 081453Z 00000KT 7SM OVC010 16/13 A2993 RMK AO2 SLP131 
T01560133 53010
