####018000109####
SAUS90 KWBC 081426
METAR K40B 081425Z AUTO 19010G14KT 30/22 A3001 RMK AO1 SLP150
     T02970215 57007=
####018000180####
SPUS90 KWBC 081426 CCA
SPECI KCRP 081420Z 05016G21KT 3/4SM +RA BR FEW009 BKN021CB OVC040
     26/25 A2987 RMK AO2 RAB1356 CB OHD-N-E-SE MOV NW TCU DSNT NE
     S SW P0011=
####018000120####
SPUS90 KWBC 081426
SPECI KACY 081424Z 11004KT 1 1/2SM +RA BR FEW001 BKN017 BKN065
     24/23 A3006 RMK AO2 P0006=
####018000264####
SABC40 FBSK 081400 RRA
METAR FBSK 081400Z 07016KT 9999 SCT020 20/07 Q1028 NOSIG=
METAR FBFT 081400Z 11011KT 9999 BKN020 20/10 Q1028=
METAR FBMN 081400Z 12009KT CAVOK 25/04 Q1024=
METAR FBKE 081400Z 11015KT CAVOK 23/06 Q1025=
METAR FBSP 081400Z NIL=

####018000649####
SANO31 ENMI 081420
METAR ENAN 081420Z 29010KT 9999 8000SE TSRA FEW030 BKN045 13/10
           Q1011=
METAR ENBR 081420Z 19014KT 9999 FEW020 16/10 Q1014 NOSIG =
METAR ENBO 081420Z VRB03KT 120V060 9999 FEW040CB BKN080 15/11 Q1011
           TEMPO TS SHRA BKN030CB=
METAR ENDU 081420Z 00000KT 9999 VCSH FEW050 SCT060 BKN180 18/11
           Q1009=
METAR ENGM 081410Z 19012KT 160V220 9999 BKN015 17/14 Q1015 TEMPO
           BKN014=
METAR ENOL 081420Z 33004KT 9999 SCT030TCU 21/07 Q1010 NOSIG=
METAR ENVA 081420Z 33007KT 9999 FEW040CB FEW060 21/12 Q1010 NOSIG =
METAR ENZV 081420Z 21011KT 9999 FEW020 BKN150 18/12 Q1015 NOSIG=
####018000341####
SADL33 EDZO 081420
METAR EDFE 081420Z VRB03KT CAVOK 30/09 Q1019=
METAR EDFH 081420Z VRB04KT 100V100 CAVOK 30/12 Q1021=
METAR EDFM 081420Z VRB02KT 190V190 CAVOK 33/10 Q1019=
METAR EDLV 081420Z 20008KT 150V260 CAVOK 31/09 Q1018=
METAR EDTL 081420Z VRB02KT CAVOK 31/08 Q1019=
METAR EDVK 081420Z 21005KT 150V300 CAVOK 28/10 Q1020=
####018000237####
SADL35 EDZO 081420
METAR EDHI 081420Z VRB06KT CAVOK 30/12 Q1018=
METAR EDMO 081420Z 03005KT 310V080 CAVOK 26/08 Q1022=
METAR EDOP 081420Z 19008KT 150V230 CAVOK 31/09 Q1019=
METAR EDTD 081420Z 09005KT 050V120 CAVOK 28/11 Q1022=
####018000278####
SANO35 ENMI 081420
METAR ENMS 081420Z NIL=
METAR ENRM 081420Z 31003KT 260V350 9999 FEW035 19/11 Q1011=
METAR ENRS 081420Z NIL=
METAR ENSK 081420Z NIL=
METAR ENSO 081420Z 18011KT 140V210 9999 FEW035TCU 18/09 Q1014=
METAR ENST 081420Z NIL=
METAR ENVD 081420Z NIL=
####018000245####
SANO36 ENMI 081420
METAR ENBS 081420Z NIL=
METAR ENHK 081420Z 15005KT 9999 FEW030 SCT060 BKN100 19/09 Q1011=
METAR ENHV 081420Z NIL=
METAR ENLK 081420Z NIL=
METAR ENMH 081420Z NIL=
METAR ENNK 081420Z NIL=
METAR ENNM 081420Z NIL=
####018000098####
SPEW35 LEMM 081425
SPECI COR LETO 081425Z 22004KT 160V320 9999 SCT040CB 34/07 Q1017 
NOSIG=
####018000124####
SAUS41 KPHI 081425
MTRACY
SPECI KACY 081424Z 11004KT 1 1/2SM +RA BR FEW001 BKN017 BKN065 24/23 
A3006 RMK AO2 P0006
####018000261####
SABC40 FBSK 081400 RRA
METAR FBSK 081400Z 07016KT 9999 SCT020 20/07 Q1028 NOSIG=
METAR FBFT 081400Z 11011KT 9999 BKN020 20/10 Q1028=
METAR FBMN 081400Z 12009KT CAVOK 25/04 Q1024=
METAR FBKE 081400Z 11015KT CAVOK 23/06 Q1025=
METAR FBSP 081400Z NIL=
####018001714####
SAEU KAWN 081400 RRX
METAR EDAC 081420Z 01004KT 300V060 CAVOK 27/12 Q1021=
METAR EDAH 081420Z 15005KT 120V190 CAVOK 25/10 Q1021=
METAR EDFH 081420Z VRB04KT 100V100 CAVOK 30/12 Q1021=
METAR EDHI 081420Z VRB06KT CAVOK 30/12 Q1018=
METAR EDHK 081420Z 25007KT 9999 FEW060 BKN120 BKN250 28/10 Q1019 BLU
      BLU=
METAR EDLN 081420Z 21006KT 140V270 CAVOK 32/10 Q1018=
METAR EDLP 081420Z VRB03KT CAVOK 32/11 Q1019=
METAR EDLW 081420Z 25008KT 210V290 CAVOK 31/11 Q1019=
METAR EDMO 081420Z 03005KT 310V080 CAVOK 26/08 Q1022=
METAR EDOP 081420Z 19008KT 150V230 CAVOK 31/09 Q1019=
METAR EDQM 081420Z VRB04KT CAVOK 26/09 Q1023=
METAR EDTL 081420Z VRB02KT CAVOK 31/08 Q1019=
METAR EDVK 081420Z 21005KT 150V300 CAVOK 28/10 Q1020=
METAR EDXW 081420Z 22006KT CAVOK 20/15 Q1019=
METAR ETHB 081420Z 22004KT 9999 FEW080 BKN250 31/10 Q1018 BLU/BLU/=
METAR ETHC 081420Z 22007KT 9999 FEW070 SCT240 31/09 Q1018 BLU/BLU/=
METAR ETHE 081420Z 26007KT 9999 FEW070 BKN300 31/09 Q1018 BLU/BLU/=
METAR ETHF 081420Z 21005KT 9999 FEW300 29/10 Q1020 BLU/BLU/=
METAR ETHS 081420Z 18005KT 9999 FEW070 31/07 Q1018 BLU/BLU/=
METAR ETNH 081420Z 28009KT 9999 FEW060 BKN110 28/10 Q1019 BLU BLU/
      TEMPO BLU=
METAR ETNL 081420Z 19006KT 9999 SCT100 29/10 Q1019 BLU/FCST CANCEL=
METAR ETNU 081420Z 27004KT 9999 SCT150 27/10 Q1020 BLU/=
METAR LOWG 081420Z 15003KT 060V230 CAVOK 27/10 Q1021 NOSIG=
METAR LOWI 081420Z 08006KT 030V120 9999 FEW080 29/13 Q1020 NOSIG=
METAR LOWK 081420Z VRB03KT 9999 FEW060 27/11 Q1021 NOSIG=
METAR LOWL 081420Z VRB02KT CAVOK 26/10 Q1022 NOSIG=
METAR LOWS 081420Z VRB04KT 9999 FEW060 26/08 Q1021 NOSIG=
METAR LOWW 081420Z 35008KT 320V020 CAVOK 25/09 Q1022 NOSIG=
####018001866####
SAEU KAWN 081400 RRX
METAR COR EGCC 081420Z 22010KT 9999 SCT046 21/09 Q1017 NOSIG=
METAR EGGD 081420Z 28006KT 240V320 9999 FEW039 21/10 Q1019=
METAR EGGP 081420Z 25011KT 9999 SCT048 20/09 Q1017=
METAR EGHH 081420Z 17011KT 9999 FEW027 22/15 Q1018=
METAR EGHI 081420Z 22010KT 170V290 9999 FEW028 SCT048 23/14 Q1018=
METAR EGKB 081420Z 24007KT 210V280 9999 BKN035 25/13 Q1019=
METAR EGMH 081420Z 19009KT 150V240 9999 FEW024 28/14 Q1018=
METAR EGNS 081420Z 19011KT 9999 FEW012 16/13 Q1016 NOSIG=
METAR EGNV 081420Z 24017KT 9999 FEW040 21/08 Q1016=
METAR COR EGPB 081420Z 20013KT 9999 FEW030 15/11 Q1008 NOSIG=
METAR ETGG 081420Z 27013KT 9999 BKN100 24/16 Q1019 BLU=
METAR ETGY 081420Z 34003KT 9999 FEW080 BKN250 32/08 Q1018 BLU/=
METAR ETGZ 081420Z VRB02KT 9999 FEW060 27/11 Q1024 BLU/=
METAR ETHA 081420Z 05005KT 9999 FEW060 26/10 Q1022 BLU/BLU/=
METAR ETHL 081420Z 25002KT 9999 FEW140 28/09 Q1022 BLU/BLU/=
METAR ETHN 081420Z 20005KT 9999 FEW250 27/08 Q1021 BLU/BLU/=
METAR ETHR 081420Z 05003KT 9999 FEW340 28/06 Q1021 BLU/BLU/=
METAR ETMN 081420Z 36005KT 9999 SCT120 BKN270 29/12 Q1018 BLU/BLU/
      TEMPO BLU=
METAR ETNN 081420Z 27003KT 9999 FEW060 SCT300 31/04 Q1018 BLU/BLU/=
METAR ETNW 081420Z 21005KT 9999 FEW070 BKN300 31/10 Q1018 BLU/BLU/=
METAR ETSA 081420Z 35006KT 9999 FEW050 27/11 Q1022 BLU/BLU/=
METAR ETSB 081420Z 26005KT 9999 FEW060 28/07 Q1021 BLU/BLU/=
METAR ETSE 081420Z VRB01KT 9999 FEW300 26/07 Q1022 BLU/FCST CANCEL=
METAR ETSH 081420Z 13005KT 9999 FEW150 SCT250 29/06 Q1020 BLU/BLU/=
METAR ETSI 081420Z 02003KT 9999 27/07 Q1022 BLU/BLU/=
METAR ETSL 081420Z 31003KT 9999 FEW050 26/08 Q1022 BLU/BLU/=
METAR ETSN 081420Z 01003KT 9999 FEW300 27/08 Q1022 BLU/FCST CANCEL=
METAR ETWM 081420Z 27007KT 9999 FEW070 BKN210 31/10 Q1018 BLU/=
METAR LWOH 081430Z 01008KT 9999 BKN050 19/09 Q1019=
####018001854####
SAEW KAWN 081400 RRJ
METAR EDFH 081420Z VRB04KT 100V100 CAVOK 30/12 Q1021=
METAR EDTL 081420Z VRB02KT CAVOK 31/08 Q1019=
METAR EGJJ 081420Z 28010KT 240V330 9999 FEW010 21/17 Q1019 NOSIG=
METAR EKBI 081420Z 20006KT 160V230 9999 -SHRA FEW013 BKN055 BKN100
      19/18 Q1019=
METAR EKRK 081420Z AUTO 27011KT 9999NDV -RA BKN050/// 20/16 Q1020=
METAR EKRN 081420Z AUTO 18004KT 9999NDV NCD 21/14 Q1022=
METAR EKYT 081420Z 23007KT 5000 -RA FEW010 BKN022 18/18 Q1018=
METAR ETGG 081420Z 27013KT 9999 BKN100 24/16 Q1019 BLU=
METAR ETGY 081420Z 34003KT 9999 FEW080 BKN250 32/08 Q1018 BLU/=
METAR ETGZ 081420Z VRB02KT 9999 FEW060 27/11 Q1024 BLU/=
METAR ETHA 081420Z 05005KT 9999 FEW060 26/10 Q1022 BLU/BLU/=
METAR ETHE 081420Z 26007KT 9999 FEW070 BKN300 31/09 Q1018 BLU/BLU/=
METAR ETHL 081420Z 25002KT 9999 FEW140 28/09 Q1022 BLU/BLU/=
METAR ETHN 081420Z 20005KT 9999 FEW250 27/08 Q1021 BLU/BLU/=
METAR ETHR 081420Z 05003KT 9999 FEW340 28/06 Q1021 BLU/BLU/=
METAR ETHS 081420Z 18005KT 9999 FEW070 31/07 Q1018 BLU/BLU/=
METAR ETMN 081420Z 36005KT 9999 SCT120 BKN270 29/12 Q1018 BLU/BLU/
      TEMPO BLU=
METAR ETNN 081420Z 27003KT 9999 FEW060 SCT300 31/04 Q1018 BLU/BLU/=
METAR ETNU 081420Z 27004KT 9999 SCT150 27/10 Q1020 BLU/=
METAR ETNW 081420Z 21005KT 9999 FEW070 BKN300 31/10 Q1018 BLU/BLU/=
METAR ETSA 081420Z 35006KT 9999 FEW050 27/11 Q1022 BLU/BLU/=
METAR ETSB 081420Z 26005KT 9999 FEW060 28/07 Q1021 BLU/BLU/=
METAR ETSE 081420Z VRB01KT 9999 FEW300 26/07 Q1022 BLU/FCST CANCEL=
METAR ETSH 081420Z 13005KT 9999 FEW150 SCT250 29/06 Q1020 BLU/BLU/=
METAR ETSI 081420Z 02003KT 9999 27/07 Q1022 BLU/BLU/=
METAR ETSL 081420Z 31003KT 9999 FEW050 26/08 Q1022 BLU/BLU/=
METAR ETSN 081420Z 01003KT 9999 FEW300 27/08 Q1022 BLU/FCST CANCEL=
METAR ETWM 081420Z 27007KT 9999 FEW070 BKN210 31/10 Q1018 BLU/=
####018001311####
SAUS20 KNKA 081425
METAR KUXL 081420Z AUTO 07007KT 10SM BKN009 28/26 A3002 RMK AO2 
     LTG DSNT SW=
SPECI KAJO 081423Z AUTO 35003KT 5SM BR SCT011 16/13 A2994 RMK AO2 $=
METAR KCLS 081415Z AUTO 00000KT 10SM CLR 15/13 A2998 RMK AO2 =
SPECI KDEN 081424Z 02005KT 1/4SM BR FEW005 BKN015 OVC039 16/14 A3034 
    RMK AO2 SFC VIS 3=
METAR KFYJ 081423Z AUTO 07008KT 10SM SCT023 32/24 A3002 RMK AO1=
METAR KGZL 081415Z AUTO 19004KT 9SM -RA BKN027 25/23 A3006 RMK AO2 
     =
METAR KIER 081420Z AUTO 09004KT 10SM SCT011 SCT100 28/26 A3005 
     RMK AO2 PWINO=
METAR KJFZ 081420Z AUTO 00000KT 9SM CLR 26/21 A3018 RMK=
METAR KLWB 081423Z AUTO 00000KT 7SM SCT060 27/18 A3017 RMK AO2=
METAR KOCW 081421Z AUTO 05004KT 10SM CLR 28/23 A2997 RMK AO2=
METAR KRMN 081420Z AUTO 00000KT 5SM HZ SCT090 30/27 A3005 RMK AO2=
METAR KSFQ 081420Z AUTO 03004KT 10SM CLR 29/23 A3000 RMK AO2=
METAR KSHD 081420Z AUTO 04003KT 7SM CLR 32/19 A3008 RMK AO2=
SPECI KSLN 081424Z 02010KT 10SM SCT010 22/19 A3015 RMK AO2=
METAR KVDF 081416Z AUTO 00000KT 10SM CLR 29/22 A3002 RMK AO2=
METAR KWDR 081420Z AUTO 00000KT 10SM CLR 30/22 A3008 RMK AO1=
METAR KXLL 081420Z AUTO 00000KT 7SM CLR 30/23 A3005 RMK AO2 
     T02960231=
METAR KXSA 081420Z AUTO 08007KT 10SM BKN022 30/22 A3001 RMK AO2 
     PWINO=
####018000080####
SACN94 KWBC 081426
METAR CWQV 081419Z AUTO 09013KT 20/17 RMK AO1 T01960170=
####018000079####
SACN87 KWBC 081426
METAR CWWL 081422Z AUTO 13/ RMK AO1 SLP175 T0127 51004=
####018000241####
SPUS99 KWBC 081426
SPECI
KAJO 081423Z AUTO 35003KT 5SM BR SCT011 16/13 A2994 RMK AO2 $=
KDEN 081424Z 02005KT 1/4SM BR FEW005 BKN015 OVC039 16/14 A3034 RMK
     AO2 SFC VIS 3=
KSLN 081424Z 02010KT 10SM SCT010 22/19 A3015 RMK AO2=
####018000986####
SAUS99 KWBC 081426
METAR
KUXL 081420Z AUTO 07007KT 10SM BKN009 28/26 A3002 RMK AO2 LTG DSNT
     SW=
KCLS 081415Z AUTO 00000KT 10SM CLR 15/13 A2998 RMK AO2=
KFYJ 081423Z AUTO 07008KT 10SM SCT023 32/24 A3002 RMK AO1=
KGZL 081415Z AUTO 19004KT 9SM -RA BKN027 25/23 A3006 RMK AO2=
KIER 081420Z AUTO 09004KT 10SM SCT011 SCT100 28/26 A3005 RMK AO2
     PWINO=
KJFZ 081420Z AUTO 00000KT 9SM CLR 26/21 A3018 RMK=
KLWB 081423Z AUTO 00000KT 7SM SCT060 27/18 A3017 RMK AO2=
KOCW 081421Z AUTO 05004KT 10SM CLR 28/23 A2997 RMK AO2=
KRMN 081420Z AUTO 00000KT 5SM HZ SCT090 30/27 A3005 RMK AO2=
KSFQ 081420Z AUTO 03004KT 10SM CLR 29/23 A3000 RMK AO2=
KSHD 081420Z AUTO 04003KT 7SM CLR 32/19 A3008 RMK AO2=
KVDF 081416Z AUTO 00000KT 10SM CLR 29/22 A3002 RMK AO2=
KWDR 081420Z AUTO 00000KT 10SM CLR 30/22 A3008 RMK AO1=
KXLL 081420Z AUTO 00000KT 7SM CLR 30/23 A3005 RMK AO2
     T02960231=
KXSA 081420Z AUTO 08007KT 10SM BKN022 30/22 A3001 RMK AO2
     PWINO=
####018000091####
SPEW35 LEMM 081424
SPECI LETO 081424Z 23004KT 160V320 9999 FEW040CB 34/07 Q1017
NOSIG=
####018000371####
SABX31 EBBR 081420
METAR EBAW 081420Z 21008KT 160V240 CAVOK 31/12 Q1018 NOSIG=
METAR EBBR 081420Z VRB04KT CAVOK 30/11 Q1019 NOSIG=
METAR EBCI 081420Z 19005KT 070V230 CAVOK 31/11 Q1019 NOSIG=
METAR EBLG 081420Z 18006KT 130V230 CAVOK 31/09 Q1019 NOSIG=
METAR EBOS 081420Z 35005KT 320V030 CAVOK 23/14 Q1019 NOSIG=
METAR ELLX 081420Z VRB04KT CAVOK 30/09 Q1020 NOSIG=
####018000381####
SAOS31 LOWM 081420
METAR LOWW 081420Z 35008KT 320V020 CAVOK 25/09 Q1022 NOSIG=
METAR LOWL 081420Z VRB02KT CAVOK 26/10 Q1022 NOSIG=
METAR LOWS 081420Z VRB04KT 9999 FEW060 26/08 Q1021 NOSIG=
METAR LOWI 081420Z 08006KT 030V120 9999 FEW080 29/13 Q1020 NOSIG=
METAR LOWG 081420Z 15003KT 060V230 CAVOK 27/10 Q1021 NOSIG=
METAR LOWK 081420Z VRB03KT 9999 FEW060 27/11 Q1021 NOSIG=
####018000090####
SAOS32 LOWM 081420
METAR LOXZ 081420Z 08006KT 70KM FEW070CU 26/09 Q1021 NOSIG RMK SCT=
####018000196####
SANO34 ENMI 081420
METAR ENBN 081420Z NIL=
METAR ENBV 081420Z NIL=
METAR ENDI 081420Z NIL=
METAR ENFG 081420Z NIL=
METAR ENHF 081420Z NIL=
METAR ENRA 081420Z NIL=
METAR ENSH 081420Z NIL=
####018000196####
SANO37 ENMI 081420
METAR ENNO 081420Z NIL=
METAR ENOV 081420Z NIL=
METAR ENSD 081420Z NIL=
METAR ENSG 081420Z NIL=
METAR ENSN 081420Z NIL=
METAR ENSR 081420Z NIL=
METAR ENSS 081420Z NIL=
####018000215####
SANO38 ENMI 081420
METAR ENDR 081420Z NIL=
METAR ENEK 081420Z NIL=
METAR ENGC 081420Z 19025KT CAVOK 13/11 Q1009=
METAR ENHE 081420Z 20026KT CAVOK 15/11 Q1009=
METAR ENOA 081420Z NIL=
METAR ENSL 081420Z NIL=
####018000390####
SANO33 ENMI 081420
METAR ENAT 081420Z NIL=
METAR ENBL 081420Z NIL=
METAR ENFL 081420Z 20014KT 160V250 9999 FEW013 FEW040TCU 16/12
           Q1012=
METAR ENKB 081420Z 31005KT 280V350 9999 FEW065TCU SCT095 16/10
           Q1011=
METAR ENKR 081420Z NIL=
METAR ENML 081420Z 32009KT 9999 VCSH FEW040 BKN060 20/09 Q1010=
METAR ENNA 081420Z 16009KT 9999 FEW045CB SCT070 23/09 Q1012 =
####018000095####
SPCN31 KWBC 081426
SPECI
CYTL 081423Z AUTO 26006KT 9SM FEW015 FEW084 SCT097 19/15 A2977=
####018000193####
SAAW41 KWBC 081450 RRA
METAR
LTAN 081420Z 32009KT 9999 SCT040 33/07 Q1009 NOSIG RMK RWY19
     21010KT=
LTCC 081420Z 15008KT 110V190 CAVOK 40/02 Q1005 NOSIG RMK RWY16
     19012KT=
####018000028####
SABX31 KWBC 081420
NIL=
####018000075####
SAAF34 KWBC 081400 RRD
METAR
FBKE 081400Z 11015KT CAVOK 23/06 Q1025=
####018000182####
SPUS80 KWBC 081426 CCA
SPECI
KCRP 081420Z 05016G21KT 3/4SM +RA BR FEW009 BKN021CB OVC040 26/25
     A2987 RMK AO2 RAB1356 CB OHD-N-E-SE MOV NW TCU DSNT NE S SW
     P0011=
####018000637####
SANO31 ENMI 081420
METAR ENAN 081420Z 29010KT 9999 8000SE TSRA FEW030 BKN045 13/10
           Q1011=
METAR ENBR 081420Z 19014KT 9999 FEW020 16/10 Q1014 NOSIG =
METAR ENBO 081420Z VRB03KT 120V060 9999 FEW040CB BKN080 15/11 Q1011
           TEMPO TS SHRA BKN030CB=
METAR ENDU 081420Z 00000KT 9999 VCSH FEW050 SCT060 BKN180 18/11
           Q1009=
METAR ENGM 081410Z 19012KT 160V220 9999 BKN015 17/14 Q1015 TEMPO
           BKN014=
METAR ENOL 081420Z 33004KT 9999 SCT030TCU 21/07 Q1010 NOSIG=
METAR ENVA 081420Z 33007KT 9999 FEW040CB FEW060 21/12 Q1010 NOSIG =
METAR ENZV 081420Z 21011KT 9999 FEW020 BKN150 18/12 Q1015 NOSIG=
####018000502####
SANO32 ENMI 081420
METAR ENAL 081420Z 23018KT 9999 SCT048TCU 17/09 Q1010=
METAR ENCN 081420Z 19011KT 9999 FEW015 BKN120 18/15 Q1016=
METAR ENHD 081420Z 21012KT 9999 FEW030 16/12 Q1015=
METAR ENRO 081420Z 14007KT 110V230 9999 SCT045 BKN110 17/09 Q1011=
METAR ENRY 081420Z 18009KT 150V210 9999 -RA BKN007 17/15 Q1016=
METAR ENSB 081420Z NIL=
METAR ENTC 081420Z 01008KT 9999 VCSH FEW055 BKN085 18/08 Q1010 TEMPO
           SHRA FEW030CB=
METAR ENTO 081420Z 20012KT 9000 -DZ BKN005 16/15 Q1016=
####018003719####
SAUS70 KWBC 081426
METAR
K3A1 081420Z AUTO 36005KT 10SM CLR 30/24 A3011 RMK AO2
     T03000240=
K4A9 081420Z AUTO 03005KT 10SM CLR 30/20 A3007 RMK AO2
     T03040199=
K4R4 081420Z AUTO 00000KT 10SM CLR 31/26 A3004 RMK AO2
     T03120255=
K8A0 081419Z AUTO 05004KT 10SM CLR 30/20 A3008 RMK AO2=
KAFP 081420Z AUTO 01003KT 10SM CLR 31/19 A2998 RMK AO2
     T03120192=
KALX 081420Z AUTO 05003KT 10SM CLR 31/21 A3005 RMK AO1=
KCPC 081420Z AUTO 05008KT 7SM CLR 30/23 A2995 RMK AO2
     T03030227=
KDRI 081420Z AUTO 11006KT 10SM BKN010 27/27 A3005 RMK AO2 LTG DSNT
     SW=
KEHO 081420Z AUTO 05006KT 10SM CLR 31/20 A3004 RMK AO2
     T03130203=
KEYF 081420Z AUTO 00000KT 7SM CLR 31/22 A2996 RMK AO2
     T03070216=
KFFA 081418Z AUTO 06007KT 030V090 10SM CLR 28/22 A2998 RMK AO2
     T02750223=
KGAO 081420Z AUTO 07008KT SCT018 SCT025 SCT029 30/25 A3004 RMK AO2
     PWINO=
KGWW 081420Z AUTO 03005KT 7SM SCT080 SCT095 SCT120 28/22 A2998 RMK
     AO2 T02820216=
KHNZ 081420Z AUTO 04005KT 7SM SCT110 31/21 A3001 RMK AO2
     T03090205=
KHQU 081422Z AUTO 30003KT 10SM CLR 32/19 A3005 RMK AO1=
KHSP 081420Z AUTO 07005KT 10SM CLR 27/17 A3027 RMK AO2=
KHWY 081420Z AUTO 11004KT 7SM SCT110 31/22 A3001 RMK AO2=
KIDI 081420Z AUTO 00000KT 7SM CLR 28/21 A3010 RMK AO2=
KIXA 081420Z AUTO 05007KT 10SM CLR 30/21 A2997 RMK AO2
     T03010212=
KJGG 081420Z AUTO 00000KT 10SM CLR 31/22 A3001 RMK AO1=
KJKA 081420Z AUTO 00000KT 10SM CLR 32/25 A3004 RMK AO2
     T03200251=
KJYO 081420Z AUTO 06004KT 7SM CLR 32/22 A3002 RMK AO2=
KLDJ 081420Z AUTO 14006KT 5SM HZ SCT010 SCT030 SCT035 27/23 A3004
     RMK AO2 T02710228=
KLGC 081415Z AUTO 00000KT 10SM CLR 31/21 A3004 RMK AO1=
KLHZ 081420Z AUTO 05005KT 10SM SCT090 32/20 A3000 RMK AO2
     T03180202=
KLKU 081420Z AUTO 00000KT 7SM CLR 31/21 A3001 RMK AO2=
KLNP 081418Z AUTO 03006KT 10SM CLR 27/18 A3020 RMK AO1=
KLOM 081420Z AUTO 14006KT 7SM SCT020 29/23 A3004 RMK AO1
     T02920225=
KMDQ 081420Z AUTO 00000KT 10SM CLR 30/22 A3009 RMK AO2
     T03020218=
KMGR 081420Z AUTO 30004KT 10SM CLR 31/18 A3004 RMK AO2=
KMKJ 081420Z AUTO 00000KT 10SM CLR 29/12 A3021 RMK AO1=
KMLJ 081423Z AUTO 00000KT 10SM CLR 31/22 A3002 RMK AO2=
KMQS 081420Z AUTO 12006KT 9SM CLR 29/22 A3007 RMK AO2=
KMRN 081420Z AUTO 31003KT 10SM SCT085 28/16 A3012 RMK AO2=
KMTV 081420Z AUTO 00000KT 7SM CLR 33/21 A3006 RMK AO2=
KOBE 081421Z AUTO 08006KT 10SM SCT026 29/22 A3000 RMK AO2=
KOKV 081420Z AUTO 35005KT 10SM CLR 33/18 A3004 RMK AO2
     T03290175=
KOMH 081420Z AUTO 02005KT 7SM CLR 31/24 A3004 RMK AO2
     T03100236=
KONX 081420Z AUTO 05007KT 10SM SCT017 28/22 A2999 RMK AO2
     T02810216=
KOPN 081420Z AUTO 30003KT 10SM CLR 32/24 A3005 RMK AO1=
KPCM 081420Z AUTO 00000KT 10SM SCT022 29/21 A3003 RMK AO2=
KRCZ 081420Z AUTO 01004KT 10SM CLR 31/21 A2998 RMK AO2
     T03100207=
KRHP 081424Z AUTO 00000KT 10SM CLR 27/19 A3012 RMK AO2=
KRUQ 081421Z AUTO 35005KT 7SM CLR 31/21 A3002 RMK AO2=
KSVH 081420Z AUTO 05007KT 7SM CLR 31/18 A3005 RMK AO2
     T03100180=
KTBR 081420Z AUTO 33005KT 10SM CLR 31/20 A3000 RMK AO2
     T03060204=
KTDF 081422Z AUTO 01004KT 7SM CLR 30/19 A3001 RMK AO1=
KTNB 081422Z AUTO 00000KT 10SM CLR 27/16 A3019 RMK AO2=
KVDI 081423Z AUTO 27005KT 10SM CLR 31/20 A3002 RMK AO1=
KVJI 081422Z AUTO 00000KT 7SM 29/20 A3015 RMK AO2=
KVUJ 081419Z AUTO 01005KT 7SM SCT085 33/21 A2999 RMK AO2=
KVVG 081415Z AUTO 05003KT 28/21 A3002 RMK AO2=
KW22 081420Z AUTO 00000KT 9SM CLR 28/19 A3013 RMK AO2=
KW45 081420Z AUTO 01004KT 10SM CLR 32/19 A3005 RMK AO2
     T03180192=
KUXL 081420Z AUTO 07007KT 10SM BKN009 28/26 A3002 RMK AO2 LTG DSNT
     SW=
####018000111####
SAUS80 KWBC 081426
METAR
K40B 081425Z AUTO 19010G14KT 30/22 A3001 RMK AO1 SLP150 T02970215
     57007=
####018000910####
SAUS70 KWBC 081426 RRA
METAR
KCLS 081415Z AUTO 00000KT 10SM CLR 15/13 A2998 RMK AO2=
KFYJ 081423Z AUTO 07008KT 10SM SCT023 32/24 A3002 RMK AO1=
KGZL 081415Z AUTO 19004KT 9SM -RA BKN027 25/23 A3006 RMK AO2=
KIER 081420Z AUTO 09004KT 10SM SCT011 SCT100 28/26 A3005 RMK AO2
     PWINO=
KJFZ 081420Z AUTO 00000KT 9SM CLR 26/21 A3018 RMK=
KLWB 081423Z AUTO 00000KT 7SM SCT060 27/18 A3017 RMK AO2=
KOCW 081421Z AUTO 05004KT 10SM CLR 28/23 A2997 RMK AO2=
KRMN 081420Z AUTO 00000KT 5SM HZ SCT090 30/27 A3005 RMK AO2=
KSFQ 081420Z AUTO 03004KT 10SM CLR 29/23 A3000 RMK AO2=
KSHD 081420Z AUTO 04003KT 7SM CLR 32/19 A3008 RMK AO2=
KVDF 081416Z AUTO 00000KT 10SM CLR 29/22 A3002 RMK AO2=
KWDR 081420Z AUTO 00000KT 10SM CLR 30/22 A3008 RMK AO1=
KXLL 081420Z AUTO 00000KT 7SM CLR 30/23 A3005 RMK AO2
     T02960231=
KXSA 081420Z AUTO 08007KT 10SM BKN022 30/22 A3001 RMK AO2
     PWINO=
####018000095####
SPEW35 LEMM 081425
SPECI COR LETO 081425Z 22004KT 160V320 9999 SCT040CB 34/07 Q1017
NOSIG=
####018000316####
SAFI33 EFHK 081420
EFJO 081420Z AUTO 05007KT 010V080 CAVOK 28/18 Q1014=
EFLP 081420Z AUTO 19006KT 130V260 CAVOK 30/12 Q1013=
EFMI 081420Z AUTO 33004KT 280V070 CAVOK 28/19 Q1013=
EFSA 081420Z AUTO 07005KT 030V110 CAVOK 30/16 Q1013=
EFUT 081420Z AUTO 16008KT 130V200 CAVOK 30/13 Q1013=
METAR EFVR 081425Z NIL=
####018000109####
SPCA33 KWBC 081426
SPECI
TTPP 081415Z 00000KT 2000 TSRA FEW004 ST010CB BKN035 26/25 Q1013
CB SE/ENE=
####018000217####
SPUS80 KWBC 081426
SPECI
PHLI 081423Z 05013KT 10SM -RA BKN025 BKN044 OVC070 24/18 A3004 RMK
     AO2 RAB14 P0000 $=
KACY 081424Z 11004KT 1 1/2SM +RA BR FEW001 BKN017 BKN065 24/23
     A3006 RMK AO2 P0006=
####018000657####
SPXX60 KWBC 081426
SPECI
KHOP 081417Z AUTO 26005KT 10SM CLR 31/22 A3009 RMK AO2
     DZB1416E1417 SLP184=
KHOP 081421Z AUTO 26004KT 10SM -DZ CLR 31/23 A3009 RMK AO2 DZB1416
     SLP184=
KLTS 081413Z AUTO 34005KT 10SM -DZ FEW005 23/23 A3009 RMK AO2
     RAE1409DZB1409 SLP176 VISNO RWY35L CHINO RWY35L $=
KNGP 081421Z 07006KT 10SM -RA FEW012 SCT019CB SCT030 27/26 A2985
     RMK AO2 CB DSNT N TCU DSNT E-SE AND SW-W WR// P0000 $=
KNQI 081421Z 04007KT 6SM -RA BKN010CB BKN085 BKN280 28/26 A2986
     RMK AO2 RAB21 CB DSNT NE AND E-SE AND NW P0000 $=
TTPP 081415Z 00000KT 2000 TSRA FEW004 ST010CB BKN035 26/25 Q1013
     CB SE/ENE=
####018000271####
SANO35 ENMI 081420
METAR ENMS 081420Z NIL=
METAR ENRM 081420Z 31003KT 260V350 9999 FEW035 19/11 Q1011=
METAR ENRS 081420Z NIL=
METAR ENSK 081420Z NIL=
METAR ENSO 081420Z 18011KT 140V210 9999 FEW035TCU 18/09 Q1014=
METAR ENST 081420Z NIL=
METAR ENVD 081420Z NIL=
####018000652####
SPUS70 KWBC 081426
SPECI
KMAF 081422Z 05007KT 10SM BKN008 BKN014 OVC024 22/20 A3014 RMK
     AO2=
KTRL 081422Z AUTO 14007KT 10SM SCT014 BKN044 28/22 A3006 RMK
     AO2=
KCEC 081423Z AUTO 35003KT 2SM BR OVC001 10/09 A2997 RMK AO2=
KMHT 081423Z 18007KT 8SM SCT022 BKN047 BKN110 28/21 A3006 RMK
     AO2=
KOXC 081418Z 17009KT 4SM BR BKN006 OVC015 25/22 A3011=
KRBD 081423Z 12005KT 10SM SCT009 OVC016 26/24 A3005 RMK AO2=
KAJO 081423Z AUTO 35003KT 5SM BR SCT011 16/13 A2994 RMK AO2 $=
KDEN 081424Z 02005KT 1/4SM BR FEW005 BKN015 OVC039 16/14 A3034 RMK
     AO2 SFC VIS 3=
KSLN 081424Z 02010KT 10SM SCT010 22/19 A3015 RMK AO2=
####018000712####
SADL31 KWBC 081420
METAR
EDBB NIL=
EDBT NIL=
EDCK NIL=
EDDF 081420Z 20006KT 060V210 CAVOK 31/11 Q1019 NOSIG=
EDDH 081420Z 25006KT CAVOK 29/10 Q1018 NOSIG=
EDDK 081420Z 17006G20KT 150V210 CAVOK 32/10 Q1018 NOSIG=
EDDL 081420Z 20007KT CAVOK 32/08 Q1018 NOSIG=
EDDM 081420Z 10002KT CAVOK 26/11 Q1022 NOSIG=
EDDN 081420Z 12002KT CAVOK 29/07 Q1021 NOSIG=
EDDS 081420Z 10004KT CAVOK 29/10 Q1021 NOSIG=
EDDW 081420Z 26006KT CAVOK 30/08 Q1018 NOSIG=
EDFE 081420Z VRB03KT CAVOK 30/09 Q1019=
EDFM 081420Z VRB02KT 190V190 CAVOK 33/10 Q1019=
EDHI 081420Z VRB06KT CAVOK 30/12 Q1018=
EDHL 081420Z 27006KT 220V310 CAVOK 29/13 Q1018=
EDKB NIL=
EDKS NIL=
EDLE NIL=
EDLG NIL=
EDLI NIL=
####018000125####
SADL33 KWBC 081415 RRB
METAR
EDVK 081420Z 21005KT 150V300 CAVOK 28/10 Q1020=
EDXW 081420Z 22006KT CAVOK 20/15 Q1019=
####018000519####
SADL32 KWBC 081420
METAR
EDLN 081420Z 21006KT 140V270 CAVOK 32/10 Q1018=
EDLP 081420Z VRB03KT CAVOK 32/11 Q1019=
EDLS NIL=
EDLW 081420Z 25008KT 210V290 CAVOK 31/11 Q1019=
EDMA 081420Z 01004KT 280V080 CAVOK 28/09 Q1021=
EDML NIL=
EDMO 081420Z 03005KT 310V080 CAVOK 26/08 Q1022=
EDMS NIL=
EDQD NIL=
EDQM 081420Z VRB04KT CAVOK 26/09 Q1023=
EDRS NIL=
EDRT NIL=
EDTB NIL=
EDTD 081420Z 09005KT 050V120 CAVOK 28/11 Q1022=
EDTF NIL=
EDTK NIL=
EDTO NIL=
EDTY NIL=
EDTZ NIL=
EDVE NIL=
####018000827####
SADN31 KWBC 081420
METAR
EKAH 081420Z AUTO 24002KT 9999NDV -SHRA SCT037/// BKN095/// 22/15
     Q1019=
EKBI 081420Z 20006KT 160V230 9999 -SHRA FEW013 BKN055 BKN100 19/18
     Q1019=
EKCH 081420Z 17011KT CAVOK 22/15 Q1020 NOSIG=
EKEB 081420Z AUTO 19008KT 150V220 9999NDV BKN004/// BKN042///
     19/18 Q1018=
EKHO NIL=
EKKA 081420Z 20006KT 160V220 9999 FEW007 FEW010TCU BKN012 19/18
     Q1018=
EKMB NIL=
EKOD 081420Z NIL=
EKRK 081420Z AUTO 27011KT 9999NDV -RA BKN050/// 20/16 Q1020=
EKRN 081420Z AUTO 18004KT 9999NDV NCD 21/14 Q1022=
EKSB 081420Z NIL=
EKSN 081420Z NIL=
EKSP 081420Z 26008KT 9999 FEW025 BKN150 BKN250 21/15 Q1019=
EKSV NIL=
EKTS NIL=
EKVA NIL=
EKVD 081420Z NIL=
EKVG NIL=
EKVJ 081420Z NIL=
EKVL NIL=
EKYT 081420Z 23007KT 5000 -RA FEW010 BKN022 18/18 Q1018=
####018001484####
SAEN31 KWBC 081420
METAR
EETN 081420Z 29013KT CAVOK 25/17 Q1014 NOSIG=
EFHF 081420Z 07009G20KT 360V110 9999 VCTS FEW048 BKN055CB 24/18
     Q1014=
EFHK 081420Z 35004KT 300V070 9999 TS FEW040CB BKN060 27/17 Q1014
     BECMG 4000 TSRA=
EFIV NIL=
EFJY 081420Z 10002KT 9999 SCT040 SCT200 25/17 Q1014=
EFKE NIL=
EFKK 081420Z VRB03KT CAVOK 25/10 Q1014=
EFKU 081420Z AUTO VRB03KT CAVOK 25/17 Q1014=
EFMA 081420Z 19011KT CAVOK 21/14 Q1016=
EFOU 081420Z VRB01KT 9999 FEW040 BKN200 24/11 Q1014=
EFPN NIL=
EFPO 081420Z AUTO 26006KT 210V300 CAVOK 24/11 Q1015=
EFRO 081420Z AUTO 14005KT 070V180 CAVOK 21/09 Q1015=
EFTN NIL=
EFTP 081420Z 30007KT 270V360 CAVOK 25/10 Q1015=
EFTU 081420Z AUTO 31009KT CAVOK 25/11 Q1015=
EFVA 081420Z 22007KT 180V290 9999 FEW030 SCT200 25/11 Q1013=
ENBO 081420Z VRB03KT 120V060 9999 FEW040CB BKN080 15/11 Q1011
     TEMPO TS SHRA BKN030CB=
ENBR 081420Z 19014KT 9999 FEW020 16/10 Q1014 NOSIG=
ENCN 081420Z 19011KT 9999 FEW015 BKN120 18/15 Q1016=
ENEB NIL=
ENFB NIL=
ENGM NIL=
ENHD 081420Z 21012KT 9999 FEW030 16/12 Q1015=
ENKR 081420Z NIL=
ENSB 081420Z NIL=
ENTC 081420Z 01008KT 9999 VCSH FEW055 BKN085 18/08 Q1010 TEMPO
     SHRA FEW030CB=
ENVA 081420Z 33007KT 9999 FEW040CB FEW060 21/12 Q1010 NOSIG=
ENZV 081420Z 21011KT 9999 FEW020 BKN150 18/12 Q1015 NOSIG=
EVRA 081420Z 31011KT 270V340 9999 OVC030 21/16 Q1016 NOSIG=
EYVI 081420Z 29010KT 260V320 7000 BKN006 OVC012 15/14 Q1015
     NOSIG=
####018000363####
SAEM31 KWBC 081400 RRC
METAR
LOWG 081420Z 15003KT 060V230 CAVOK 27/10 Q1021 NOSIG=
LOWI 081420Z 08006KT 030V120 9999 FEW080 29/13 Q1020 NOSIG=
LOWK 081420Z VRB03KT 9999 FEW060 27/11 Q1021 NOSIG=
LOWL 081420Z VRB02KT CAVOK 26/10 Q1022 NOSIG=
LOWS 081420Z VRB04KT 9999 FEW060 26/08 Q1021 NOSIG=
LOWW 081420Z 35008KT 320V020 CAVOK 25/09 Q1022 NOSIG=
####018000109####
SAEN31 KWBC 081350 RRB
METAR
ENGM 081410Z 19012KT 160V220 9999 BKN015 17/14 Q1015 TEMPO
     BKN014=
####018000028####
SAGR31 KWBC 081420
NIL=
####018000028####
SAGR41 KWBC 081420
NIL=
####018000028####
SAIY31 KWBC 081420
NIL=
####018000089####
SPNL31 KWBC 081426
SPECI
EHWO 081421Z AUTO 28007KT 9999NDV FEW380 29/14 Q1018 BLU=
####018000028####
SAIY32 KWBC 081420
NIL=
####018000028####
SAIY41 KWBC 081420
NIL=
####018000028####
SAIY42 KWBC 081420
NIL=
####018000028####
SAIY43 KWBC 081420
NIL=
####018000142####
SAMX31 KWBC 081445 RRA
METAR
MMMX 081420Z 00000KT 4SM SCT006 BKN010 OVC020 15/14 A3022 TEMPO
     4SM HZ SCT008 OVC020 RMK 8/7// HZY=
####018000123####
SPXX62 KWBC 081426
SPECI
RKJK 081419Z 07004KT 1600 R36/0550V0650 -RA FEW120 24/21 A2979 RMK
AO2A RAB1418 SLP088 $=
####018000123####
SPXX62 KWBC 081426
SPECI
RKJK 081418Z 07004KT 1200 R36/0550V0650 -RA FEW120 24/21 A2979 RMK
AO2A RAB1418 SLP088 $=
####018000345####
SANL31 KWBC 081420
METAR
EHAM NIL=
EHBD NIL=
EHBK NIL=
EHDL NIL=
EHEH 081425Z AUTO 25004KT 9999NDV FEW350 31/11 Q1018 BLU BLU=
EHGG NIL=
EHGR NIL=
EHHO NIL=
EHHV NIL=
EHKD NIL=
EHLE NIL=
EHLW NIL=
EHMZ NIL=
EHRD NIL=
EHSB NIL=
EHTE NIL=
EHTW NIL=
EHTX NIL=
EHVB NIL=
EHVK NIL=
EHVL NIL=
EHWO NIL=
####018000658####
SANO41 KWBC 081420
METAR
ENAL 081420Z 23018KT 9999 SCT048TCU 17/09 Q1010=
ENAN 081420Z 29010KT 9999 8000SE TSRA FEW030 BKN045 13/10
     Q1011=
ENAT 081420Z NIL=
ENBL 081420Z NIL=
ENBN 081420Z NIL=
ENBV 081420Z NIL=
ENDI 081420Z NIL=
ENDU 081420Z 00000KT 9999 VCSH FEW050 SCT060 BKN180 18/11
     Q1009=
ENEK 081420Z NIL=
ENEV NIL=
ENFG 081420Z NIL=
ENFL 081420Z 20014KT 160V250 9999 FEW013 FEW040TCU 16/12 Q1012=
ENFR NIL=
ENGC 081420Z 19025KT CAVOK 13/11 Q1009=
ENHF 081420Z NIL=
ENHV 081420Z NIL=
ENKB 081420Z 31005KT 280V350 9999 FEW065TCU SCT095 16/10 Q1011=
ENLI NIL=
ENLK 081420Z NIL=
ENMH 081420Z NIL=
####018000825####
SANO42 KWBC 081420
METAR
ENML 081420Z 32009KT 9999 VCSH FEW040 BKN060 20/09 Q1010=
ENMS 081420Z NIL=
ENNA 081420Z 16009KT 9999 FEW045CB SCT070 23/09 Q1012=
ENNK 081420Z NIL=
ENNM 081420Z NIL=
ENNO 081420Z NIL=
ENOA 081420Z NIL=
ENOL 081420Z 33004KT 9999 SCT030TCU 21/07 Q1010 NOSIG=
ENOV 081420Z NIL=
ENRA 081420Z NIL=
ENRM 081420Z 31003KT 260V350 9999 FEW035 19/11 Q1011=
ENRO 081420Z 14007KT 110V230 9999 SCT045 BKN110 17/09 Q1011=
ENRS 081420Z NIL=
ENRY 081420Z 18009KT 150V210 9999 -RA BKN007 17/15 Q1016=
ENSD 081420Z NIL=
ENSG 081420Z NIL=
ENSH 081420Z NIL=
ENSK 081420Z NIL=
ENSN 081420Z NIL=
ENSO 081420Z 18011KT 140V210 9999 FEW035TCU 18/09 Q1014=
ENSR 081420Z NIL=
ENST 081420Z NIL=
ENSV NIL=
ENTO 081420Z 20012KT 9000 -DZ BKN005 16/15 Q1016=
ENVD 081420Z NIL=
####018000110####
SPUS42 KWBC 081426 CCA
SPECI
KCRP 081420Z 05016G21KT 3/4SM +RA BR FEW009 BKN021CB OVC040 26/25
A2987=
####018000731####
SAPA32 KWBC 081400
METAR
NCRG 081400Z 05008KT 9999 FEW012 SCT015 25/24 Q1017=
NFFN 081400Z 12006KT 40KM FEW030 20/18 Q1013 NOSIG RMK RR NIL=
NFNA 081400Z 00000KT 40KM FEW024 19/19 Q1014 RMK RR NIL DEW
     HVY=
NFTF 081400Z 00000KT 9999 FEW015 18/17 Q1015=
NFTV NIL=
NGFU 081400Z 08007KT 50KM SCT020TCU 28/24 Q1009=
NGTA NIL=
NIUE 081400Z AUTO 14004KT //// ////// 23/21 Q1014=
NLWW NIL=
NSFA 081400Z 00000KT 50KM FEW024 24/23 Q1011=
NSFI NIL=
NSFU NIL=
NSMA NIL=
NSTU 081350Z 10012KT 10SM SCT016 BKN040 28/26 A2987 RMK SHRAB24E48
     SLP115 T02770262=
NTAA 081400Z AUTO 15006KT 9999NDV NCD 25/22 Q1014=
NTTG NIL=
NTTO NIL=
NVVV NIL=
NWWW 081400Z AUTO 13002KT 9999NDV NCD 16/15 Q1015=
####018000107####
SARA31 KWBC 081400 CCB
METAR
UAFO 081400Z 04003MPS 9999 FEW050 31/14 Q1018 NOSIG RMK
     QFEM684=
####018000091####
SPUS42 KWBC 081426
SPECI
KMAF 081422Z 05007KT 10SM BKN008 BKN014 OVC024 22/20 A3014=
####018001151####
SASN31 KWBC 081420
METAR
ESDB NIL=
ESDF 081420Z NIL=
ESGG 081420Z 20012KT 9999 FEW007 SCT016 BKN025 16/14 Q1019=
ESGJ 081420Z 24012KT 9999 -RA BKN044 21/11 Q1019=
ESGP 081420Z 19012KT 8000 -RA SCT008 BKN013 17/16 Q1018=
ESKN 081420Z 23011KT 190V270 9999 SCT049 26/13 Q1017=
ESMK 081420Z 23010KT 200V250 CAVOK 26/11 Q1020=
ESMS 081420Z 21010KT 170V240 CAVOK 24/10 Q1021=
ESMX 081420Z 26009KT 210V290 CAVOK 25/12 Q1019=
ESNN 081420Z AUTO 21005KT 170V240 9999NDV FEW027/// 23/12
     Q1012=
ESNO 081420Z 17012KT CAVOK 21/13 Q1013=
ESNQ 081420Z 17012KT 9999 -RA BKN069 15/13 Q1012 REDZ=
ESNS 081420Z AUTO 14008KT 110V180 9999NDV ////// 23/09 Q1013=
ESNU 081420Z 19010KT CAVOK 21/12 Q1013=
ESOK 081420Z 21008KT 9999 SCT030 22/14 Q1017=
ESOW 081420Z 23009KT 9999 BKN042 24/14 Q1017=
ESPA 081420Z 14011KT CAVOK 18/14 Q1015=
ESPC NIL=
ESSA 081420Z 26011KT 9999 SCT045 24/13 Q1016 NOSIG=
ESSB 081420Z 26009KT 230V300 9999 SCT045 26/13 Q1016=
ESSD 081420Z AUTO 24010KT 9999NDV FEW026/// BKN031/// 20/14
     Q1016=
ESSN NIL=
ESSP 081420Z 26011KT CAVOK 25/12 Q1017=
ESSV 081420Z 25011KT CAVOK 23/12 Q1019=
####018001004####
SAUK31 KWBC 081420
METAR
EGAA 081420Z 21013KT 9999 SCT035 17/10 Q1014=
EGBB 081420Z 20007KT 150V250 CAVOK 23/08 Q1017=
EGCC 081420Z 22010KT 9999 SCT046 21/09 Q1017=
EGFF 081420Z 30006KT 270V340 9999 FEW030 20/11 Q1018=
EGGD 081420Z 28006KT 240V320 9999 FEW039 21/10 Q1019=
EGGP 081420Z 25011KT 9999 SCT048 20/09 Q1017=
EGGW 081420Z 22007KT 180V250 9999 FEW042 24/12 Q1018=
EGHD 081420Z 19009KT 150V240 9999 FEW030 20/14 Q1019=
EGHH 081420Z 17011KT 9999 FEW027 22/15 Q1018=
EGHI 081420Z 22010KT 170V290 9999 FEW028 SCT048 23/14 Q1018=
EGJB 081420Z 32006KT 290V350 9999 FEW013 20/16 Q1019=
EGJJ 081420Z 28010KT 240V330 9999 FEW010 21/17 Q1019 NOSIG=
EGKA 081420Z NIL=
EGKB 081420Z 24007KT 210V280 9999 BKN035 25/13 Q1019=
EGKK 081420Z 22008KT 170V240 9999 SCT046 26/14 Q1018=
EGLF 081420Z NIL=
EGLL 081420Z 26010KT 230V290 9999 SCT035 25/14 Q1018=
EGMC 081420Z 20006KT 9999 FEW042 26/15 Q1018=
EGMD 081420Z 21010KT 9999 FEW020 21/16 Q1019=
EGNH NIL=
EGNJ NIL=
####018000087####
SAUK31 KWBC 081420 CCA
METAR
EGCC 081420Z 22010KT 9999 SCT046 21/09 Q1017 NOSIG=
####018000596####
SASW31 KWBC 081420
METAR
LSGC 081420Z 17004KT 140V200 CAVOK 27/13 Q1024=
LSGG 081420Z 22008KT 190V260 9999 FEW060 BKN250 32/11 Q1021
     NOSIG=
LSGL NIL=
LSGN NIL=
LSGS 081420Z 25016KT 9999 FEW120 SCT250 31/13 Q1019=
LSZA 081420Z 19007KT 9999 FEW055 29/17 Q1021 NOSIG=
LSZB 081420Z 30005KT 250V360 CAVOK 31/11 Q1021 NOSIG=
LSZD NIL=
LSZG 081420Z VRB02KT 9999 FEW050 30/13 Q1020 NOSIG=
LSZH 081420Z 10004KT 030V130 CAVOK 29/12 Q1021 NOSIG=
LSZL NIL=
LSZR 081420Z 01004KT 340V060 CAVOK 27/13 Q1021 NOSIG RMK K=
LSZS 081420Z 29012KT 240V330 9999 FEW070 25/06 Q1026=
####018000238####
SANO36 ENMI 081420
METAR ENBS 081420Z NIL=
METAR ENHK 081420Z 15005KT 9999 FEW030 SCT060 BKN100 19/09 Q1011=
METAR ENHV 081420Z NIL=
METAR ENLK 081420Z NIL=
METAR ENMH 081420Z NIL=
METAR ENNK 081420Z NIL=
METAR ENNM 081420Z NIL=
####018000504####
SAUK41 KWBC 081420
METAR
EGAC 081420Z 20014KT 160V230 9999 FEW033 SCT042 18/11 Q1014=
EGAE NIL=
EGBE NIL=
EGBJ NIL=
EGDC NIL=
EGDG NIL=
EGDL NIL=
EGDM NIL=
EGDN NIL=
EGDP NIL=
EGDR NIL=
EGDY NIL=
EGFH NIL=
EGGP 081420Z 25011KT 9999 SCT048 20/09 Q1017=
EGGW 081420Z 22007KT 180V250 9999 FEW042 24/12 Q1018=
EGHE 081420Z NIL=
EGJA 081420Z 30007KT 280V030 9999 FEW006 19/17 Q1020=
EGLC 081420Z 24007KT 200V270 9999 SCT040 25/14 Q1018=
EGNC NIL=
EGNT 081420Z NIL=
####018000123####
SAIY40 LIIB 081400 RRB
METAR LIPC 081355Z 12013KT CAVOK 28/14 Q1021 RMK SKC VIS MIN 9999
      WIND THR12 10011KT BLU=
####018000115####
SAIY42 LIIB 081400 RRA
METAR LIRX 081355Z 17005KT CAVOK 29/18 Q1020 RMK SKC VIS MIN 9999E
      VIS MAR 25 KM=
####018000639####
SAUK32 KWBC 081420
METAR
EGNM 081420Z 25009KT 9999 SCT040 18/09 Q1017=
EGNS 081420Z 19011KT 9999 FEW012 16/13 Q1016 NOSIG=
EGNS 081420Z NIL=
EGNT 081420Z NIL=
EGNV 081420Z 24017KT 9999 FEW040 21/08 Q1016=
EGNX 081420Z 24009KT CAVOK 22/07 Q1017=
EGPA NIL=
EGPB 081420Z 20013KT 9999 FEW030 15/11 Q1008 NOSIG=
EGPC NIL=
EGPD 081420Z 23010KT 9999 FEW048 18/08 Q1011 NOSIG=
EGPF 081420Z 22018KT CAVOK 17/09 Q1013=
EGPH 081420Z 24015KT 9999 SCT045 20/07 Q1013=
EGPK 081420Z 24014KT 9999 FEW026 19/09 Q1014=
EGSH NIL=
EGTE 081420Z 16015KT 9999 FEW035 21/15 Q1018=
EGTG 081420Z 28007KT 9999 FEW040 21/11 Q1018=
####018000399####
SAUK42 KWBC 081420
METAR
EGOS NIL=
EGOV NIL=
EGPC NIL=
EGPE NIL=
EGPF 081420Z 22018KT CAVOK 17/09 Q1013=
EGPL NIL=
EGPM NIL=
EGPN NIL=
EGPO NIL=
EGPT NIL=
EGPU NIL=
EGPW NIL=
EGQJ NIL=
EGQK NIL=
EGQL NIL=
EGQM NIL=
EGQS NIL=
EGSC NIL=
EGSS 081420Z 21009KT 180V250 9999 SCT035 25/15 Q1018=
EGTC 081420Z 23009KT 190V260 9999 FEW045 22/11 Q1018=
EGTI NIL=
####018000181####
SAXX61 KWBC 081400 RRE
METAR
EDAH 081420Z 15005KT 120V190 CAVOK 25/10 Q1021=
EDMA 081420Z 01004KT 280V080 CAVOK 28/09 Q1021=
EGPK 081420Z 24014KT 9999 FEW026 19/09 Q1014=
####018003747####
SAXX99 KWBC 081400 RRS
METAR
CZEV 081400Z AUTO 29007KT 07/04 RMK AO1 SLP187 T00720042 51003=
EDAC 081420Z 01004KT 300V060 CAVOK 27/12 Q1021=
EDFH 081420Z VRB04KT 100V100 CAVOK 30/12 Q1021=
EDGS 081420Z 19008KT 120V260 CAVOK 26/10 Q1022=
EDHK 081420Z 25007KT 9999 FEW060 BKN120 BKN250 28/10 Q1019 BLU
     BLU=
EDLV 081420Z 20008KT 150V260 CAVOK 31/09 Q1018=
EDOP 081420Z 19008KT 150V230 CAVOK 31/09 Q1019=
EDRZ 081420Z 18004KT 110V230 CAVOK 31/12 Q1020=
EDSB 081420Z VRB04KT CAVOK 32/10 Q1019=
EDTL 081420Z VRB02KT CAVOK 31/08 Q1019=
EFHA 081420Z AUTO 29003KT CAVOK 24/15 Q1014=
EFKA 081420Z AUTO 21005KT 150V270 CAVOK 26/10 Q1014=
EFSI 081420Z AUTO 24005KT 170V320 CAVOK 26/09 Q1014=
EGHK 081420Z 15006KT 9999 SCT018 18/15 Q1017 NOSIG=
EGMH 081420Z 19009KT 150V240 9999 FEW024 28/14 Q1018=
EGTG 081420Z 28007KT 9999 FEW040 21/11 Q1018=
EKGF 081420Z NIL=
ENBS 081420Z NIL=
ENDR 081420Z NIL=
ENHE 081420Z 20026KT CAVOK 15/11 Q1009=
ENHK 081420Z 15005KT 9999 FEW030 SCT060 BKN100 19/09 Q1011=
ENSS 081420Z NIL=
ESGR 081420Z AUTO 22012KT 9999NDV BKN037/// OVC066/// 20/14
     Q1018=
ESGT 081420Z 20010KT 9999 -RA SCT017 BKN020 18/14 Q1018=
ESKM 081420Z NIL=
ESMQ 081420Z 16012KT CAVOK 25/14 Q1018=
ESMT 081420Z NIL=
ESNG 081420Z 11004KT 9999 -RA NSC 15/14 Q1013=
ESNK 081420Z AUTO 20008KT 9999NDV FEW049/// SCT054/// 23/13
     Q1011=
ESNL 081420Z 15012KT 9999 SCT045 23/10 Q1011=
ESNX 081420Z AUTO 15005KT 9999NDV BKN044/// 16/14 Q1013=
ESNY 081420Z AUTO 23009KT 200V260 9999 FEW047 25/14 Q1014=
ESOE 081420Z 24010KT 9999 FEW043 23/14 Q1017=
ESSF 081420Z NIL=
ESSK 081420Z NIL=
ESSL 081420Z 23007KT 190V280 CAVOK 25/12 Q1017=
ESTA 081420Z 16008KT CAVOK ///// Q1020=
ESTL 081420Z AUTO 22007KT 190V250 9999NDV OVC054/// 24/12
     Q1020=
ESUD 081420Z NIL=
ESUT 081420Z AUTO 31008KT 9999NDV RA SCT040/// BKN053/// OVC064///
     15/09 Q1010=
ETGG 081420Z 27013KT 9999 BKN100 24/16 Q1019 BLU=
ETGY 081420Z 34003KT 9999 FEW080 BKN250 32/08 Q1018 BLU/=
ETGY 081420Z 34003KT 9999 FEW080 BKN250 32/08 Q1018 BLU+=
ETGZ 081420Z VRB02KT 9999 FEW060 27/11 Q1024 BLU/=
ETHA 081420Z 05005KT 9999 FEW060 26/10 Q1022 BLU/BLU/=
ETHB 081420Z 22004KT 9999 FEW080 BKN250 31/10 Q1018 BLU/BLU/=
ETHB 081420Z 22004KT 9999 FEW080 BKN250 31/10 Q1018 BLU+BLU+=
ETHC 081420Z 22007KT 9999 FEW070 SCT240 31/09 Q1018 BLU/BLU/=
ETHC 081420Z 22007KT 9999 FEW070 SCT240 31/09 Q1018 BLU+BLU+=
ETHE 081420Z 26007KT 9999 FEW070 BKN300 31/09 Q1018 BLU/BLU/=
ETHE 081420Z 26007KT 9999 FEW070 BKN300 31/09 Q1018 BLU+BLU+=
ETHF 081420Z 21005KT 9999 FEW300 29/10 Q1020 BLU+BLU+=
ETHL 081420Z 25002KT 9999 FEW140 28/09 Q1022 BLU/BLU/=
ETHN 081420Z 20005KT 9999 FEW250 27/08 Q1021 BLU/BLU/=
ETHR 081420Z 05003KT 9999 FEW340 28/06 Q1021 BLU/BLU/=
ETHS 081420Z 18005KT 9999 FEW070 31/07 Q1018 BLU+BLU+=
ETMN 081420Z 36005KT 9999 SCT120 BKN270 29/12 Q1018 BLU/BLU/ TEMPO
     BLU=
ETMN 081420Z 36005KT 9999 SCT120 BKN270 29/12 Q1018 BLU+BLU+ TEMPO
     BLU=
ETNH 081420Z 28009KT 9999 FEW060 BKN110 28/10 Q1019 BLU BLU/ TEMPO
     BLU=
ETNH 081420Z 28009KT 9999 FEW060 BKN110 28/10 Q1019 BLU BLU+ TEMPO
     BLU=
ETNL 081420Z 19006KT 9999 SCT100 29/10 Q1019 BLU/FCST CANCEL=
ETNL 081420Z 19006KT 9999 SCT100 29/10 Q1019 BLU+FCST CANCEL=
ETNN 081420Z 27003KT 9999 FEW060 SCT300 31/04 Q1018 BLU/BLU/=
ETNU 081420Z 27004KT 9999 SCT150 27/10 Q1020 BLU/=
ETNU 081420Z 27004KT 9999 SCT150 27/10 Q1020 BLU+=
ETNW 081420Z 21005KT 9999 FEW070 BKN300 31/10 Q1018 BLU/BLU/=
ETNW 081420Z 21005KT 9999 FEW070 BKN300 31/10 Q1018 BLU+BLU+=
ETSA 081420Z 35006KT 9999 FEW050 27/11 Q1022 BLU/BLU/=
ETSB 081420Z 26005KT 9999 FEW060 28/07 Q1021 BLU/BLU/=
####018000516####
SAXX99 KWBC 081400 RRT
METAR
ETSE 081420Z VRB01KT 9999 FEW300 26/07 Q1022 BLU/FCST CANCEL=
ETSH 081420Z 13005KT 9999 FEW150 SCT250 29/06 Q1020 BLU/BLU/=
ETSH 081420Z 13005KT 9999 FEW150 SCT250 29/06 Q1020 BLU+BLU+=
ETSI 081420Z 02003KT 9999 27/07 Q1022 BLU/BLU/=
ETSL 081420Z 31003KT 9999 FEW050 26/08 Q1022 BLU/BLU/=
ETSN 081420Z 01003KT 9999 FEW300 27/08 Q1022 BLU/FCST CANCEL=
ETWM 081420Z 27007KT 9999 FEW070 BKN210 31/10 Q1018 BLU/=
ETWM 081420Z 27007KT 9999 FEW070 BKN210 31/10 Q1018 BLU+=
####018000103####
SPUS51 KWBC 081426
SPECI
KACY 081424Z 11004KT 1 1/2SM +RA BR FEW001 BKN017 BKN065 24/23
A3006=
####018000082####
SPCN52 CWAO 081421
SPECI CWSA 081421Z AUTO 22008KT 4SM OVC001 19/19 A3021=

####018000314####
SADL36 EDZO 081420
METAR EDHK 081420Z 25007KT 9999 FEW060 BKN120 BKN250 28/10 Q1019
      BLU BLU=
METAR ETNL 081420Z 19006KT 9999 SCT100 29/10 Q1019
      BLU+FCST CANCEL=
METAR ETNU 081420Z 27004KT 9999 SCT150 27/10 Q1020
      BLU+=
METAR ETSI 081420Z 02003KT 9999 27/07 Q1022
      BLU+BLU+=
####018000110####
SPUS72 KWBC 081426 CCA
SPECI
KCRP 081420Z 05016G21KT 3/4SM +RA BR FEW009 BKN021CB OVC040 26/25
A2987=
####018000091####
SPUS72 KWBC 081426
SPECI
KMAF 081422Z 05007KT 10SM BKN008 BKN014 OVC024 22/20 A3014=
####018000084####
SPUS74 KWBC 081426
SPECI
KCEC 081423Z AUTO 35003KT 2SM BR OVC001 10/09 A2997=
####018000103####
SPUS81 KWBC 081426
SPECI
KACY 081424Z 11004KT 1 1/2SM +RA BR FEW001 BKN017 BKN065 24/23
A3006=
####018000110####
SPUS81 KWBC 081426 CCA
SPECI
KCRP 081420Z 05016G21KT 3/4SM +RA BR FEW009 BKN021CB OVC040 26/25
A2987=
####018000117####
SAIY42 LIIB 081400 RRA
METAR LIRX 081355Z 17005KT CAVOK 29/18 Q1020 RMK SKC VIS MIN 9999E
      VIS MAR 25 KM=
####018000125####
SAIY40 LIIB 081400 RRB
METAR LIPC 081355Z 12013KT CAVOK 28/14 Q1021 RMK SKC VIS MIN 9999
      WIND THR12 10011KT BLU=
####018000083####
SPCN48 CWAO 081420
SPECI CYAS 081420Z 25004KT 8SM BKN003 OVC026 RMK ST7SC1=

####018000116####
SAUS45 KPUB 081426
MTRLXV
SPECI KLXV 081424Z AUTO 00000KT 10SM BKN010 08/06 A3053 RMK AO2 CIG 
007V013 TSNO
####018000240####
SAXN17 KAWN 081400 RRH
METAR MMMX 081420Z 00000KT 4SM SCT006 BKN010 OVC020 15/14 A3022 TEMPO
      4SM HZ SCT008 OVC020 RMK 8/7// HZY=
METAR PKWA 081420Z AUTO 09005KT 10SM BKN023 BKN031 BKN080 26/24 A2982
      RMK AO2 T02590237=
####018000085####
SAMP31 LMMM 081430 RRA
METAR HLLT 081420Z
35010KT 320V040 8000 SKC 31/19 Q1018=
####018000082####
SALY31 HLLT 081430
METAR HLLT 081420Z 
35010KT 320V040 8000 SKC 31/19 Q1018=
####018000553####
SAIY32 LIIB 081420
METAR LIBD 081420Z 02016KT 360V060 CAVOK 25/12 Q1020=
METAR LIBR 081415Z /////KT CAVOK 26/14 Q1018 NOSIG=
METAR LICC 081420Z 10013KT 9999 FEW040 28/20 Q1017=
METAR LICJ 081420Z 04015KT 9999 FEW018 28/23 Q1018=
METAR LIPE 081420Z 07006KT 030V110 CAVOK 30/14 Q1020=
METAR LIPH 081415Z 18005KT 9999 FEW025 28/21 Q1021=
METAR LIPQ 081420Z VRB03KT CAVOK 27/15 Q1021=
METAR LIPR 081415Z 08012KT CAVOK 28/19 Q1021=
METAR LIPX 081415Z 13003KT 9999 FEW040 30/14 Q1020=
METAR LIPZ 081420Z 14007KT 9999 FEW040 27/18 Q1021=
####018000116####
SAIY42 LIIB 081400 RRA
METAR LIRX 081355Z 17005KT CAVOK 29/18 Q1020 RMK SKC VIS MIN 9999E
      VIS MAR 25 KM=
####018000086####
SAMP31 LMMM 081430 RRA
METAR HLLT 081420Z 
35010KT 320V040 8000 SKC 31/19 Q1018=
####018000086####
SAMP31 LMMM 081430 RRA
METAR HLLT 081420Z
35010KT 320V040 8000 SKC 31/19 Q1018=
####018000781####
SAIY31 LIIB 081420
METAR LIEA 081420Z 19006KT 150V230 9999 FEW025 32/20 Q1019=
METAR LIEE 081415Z 15014KT 9999 FEW020 28/20 Q1018 NOSIG=
METAR LIEO 081420Z 05011KT 020V090 CAVOK 31/22 Q1019=
METAR LIMC 081420Z 24007KT 210V290 9999 FEW025 28/16 Q1021 NOSIG=
METAR LIME 081420Z 26004KT 200V330 9999 SCT050 27/16 Q1021=
METAR LIMF 081420Z 19004KT CAVOK 27/16 Q1021=
METAR LIMJ 081420Z 17006KT 9999 FEW035 29/24 Q1019=
METAR LIML 081420Z 12005KT 070V170 9999 FEW030 29/16 Q1020 NOSIG=
METAR LIRA 081415Z 24007KT 180V300 9999 FEW020 30/17 Q1019=
METAR LIRF 081420Z 24011KT 210V270 CAVOK 29/18 Q1019 NOSIG=
METAR LIRN 081420Z 06007KT CAVOK 29/14 Q1018=
METAR LIRP 081415Z 32011KT CAVOK 31/18 Q1019 NOSIG=
METAR LIRQ 081420Z 10004KT 360V170 CAVOK 32/13 Q1019=
####018000124####
SAIY40 LIIB 081400 RRB
METAR LIPC 081355Z 12013KT CAVOK 28/14 Q1021 RMK SKC VIS MIN 9999
      WIND THR12 10011KT BLU=
####018000118####
SAUS44 KFWD 081426
MTRHLR
SPECI KHLR 081424Z AUTO 07005KT 9SM SCT009 BKN014 OVC060 26/ A3003 
RMK AO2 T0261 $
####018000317####
SASA KAWN 081400 RRI
METAR SBJR 081400Z 02005KT CAVOK 29/15 Q1018=
METAR SBME 081400Z 04010KT CAVOK 29/18 Q1018=
METAR SBMK 081400Z 10006KT 9999 FEW035 24/13 Q1022=
METAR SBMT 081400Z 02003KT CAVOK 24/08 Q1022=
METAR SBST 081400Z 36007KT CAVOK 29/07 Q1017=
METAR SBUL 081400Z 02010KT CAVOK 24/08 Q1022=
####018000392####
SPUS17 KAWN 081426 RRC
SPECI KHOP 081421Z AUTO 26004KT 10SM -DZ CLR 31/23 A3009 RMK AO2 DZB1416
      SLP184=
SPECI KLTS 081413Z AUTO 34005KT 10SM -DZ FEW005 23/23 A3009 RMK AO2
      RAE1409DZB1409 SLP176 VISNO RWY35L CHINO RWY35L $=
SPECI KLTS 081420Z 33006KT 10SM SCT006 SCT010 BKN015 BKN075 23/23 A3010
      RMK AO2A RAE1409DZB1409E1420 SLP177 VISNO RWY35L CHINO RWY35L $=
####018000415####
SAZZ40 KAWN 081400 RRS
METAR EFKU 081420Z AUTO VRB03KT CAVOK 25/17 Q1014=
METAR EFOU 081420Z VRB01KT 9999 FEW040 BKN200 24/11 Q1014=
METAR EGMH 081420Z 19009KT 150V240 9999 FEW024 28/14 Q1018=
METAR OKBK 081430Z 34016KT 7000 SKC 47/M05 Q0999 NOSIG=
METAR SBJF 081400Z 36007KT CAVOK 23/09 Q1023=
METAR SBKG 081400Z 15010KT 9999 BKN020 26/20 Q1018=
METAR SBMK 081400Z 10006KT 9999 FEW035 24/13 Q1022=
####018001836####
SAEU KAWN 081400 RRX
METAR EBBR 081420Z VRB04KT CAVOK 30/11 Q1019 NOSIG=
METAR EBOS 081420Z 35005KT 320V030 CAVOK 23/14 Q1019 NOSIG=
METAR EDHL 081420Z 27006KT 220V310 CAVOK 29/13 Q1018=
METAR EDMA 081420Z 01004KT 280V080 CAVOK 28/09 Q1021=
METAR EDSB 081420Z VRB04KT CAVOK 32/10 Q1019=
METAR ENAL 081420Z 23018KT 9999 SCT048TCU 17/09 Q1010=
METAR ENAN 081420Z 29010KT 9999 8000SE TSRA FEW030 BKN045 13/10 Q1011=
METAR ENBO 081420Z VRB03KT 120V060 9999 FEW040CB BKN080 15/11 Q1011
      TEMPO TS SHRA BKN030CB=
METAR ENBR 081420Z 19014KT 9999 FEW020 16/10 Q1014 NOSIG=
METAR ENCN 081420Z 19011KT 9999 FEW015 BKN120 18/15 Q1016=
METAR ENDU 081420Z 00000KT 9999 VCSH FEW050 SCT060 BKN180 18/11 Q1009=
METAR ENFL 081420Z 20014KT 160V250 9999 FEW013 FEW040TCU 16/12 Q1012=
METAR ENGC 081420Z 19025KT CAVOK 13/11 Q1009=
METAR ENGM 081410Z 19012KT 160V220 9999 BKN015 17/14 Q1015 TEMPO BKN014=
METAR ENHD 081420Z 21012KT 9999 FEW030 16/12 Q1015=
METAR ENHE 081420Z 20026KT CAVOK 15/11 Q1009=
METAR ENKB 081420Z 31005KT 280V350 9999 FEW065TCU SCT095 16/10 Q1011=
METAR ENML 081420Z 32009KT 9999 VCSH FEW040 BKN060 20/09 Q1010=
METAR ENNA 081420Z 16009KT 9999 FEW045CB SCT070 23/09 Q1012=
METAR ENOL 081420Z 33004KT 9999 SCT030TCU 21/07 Q1010 NOSIG=
METAR ENRM 081420Z 31003KT 260V350 9999 FEW035 19/11 Q1011=
METAR ENRO 081420Z 14007KT 110V230 9999 SCT045 BKN110 17/09 Q1011=
METAR ENRY 081420Z 18009KT 150V210 9999 -RA BKN007 17/15 Q1016=
METAR ENSO 081420Z 18011KT 140V210 9999 FEW035TCU 18/09 Q1014=
METAR ENTC 081420Z 01008KT 9999 VCSH FEW055 BKN085 18/08 Q1010 TEMPO
      SHRA FEW030CB=
METAR ENTO 081420Z 20012KT 9000 -DZ BKN005 16/15 Q1016=
METAR ENVA 081420Z 33007KT 9999 FEW040CB FEW060 21/12 Q1010 NOSIG=
METAR ENZV 081420Z 21011KT 9999 FEW020 BKN150 18/12 Q1015 NOSIG=
####018000086####
SAUK34 EGGY 081420 RRA
METAR EGHE 081420Z 21008KT 9999 FEW018 BKN025 19/15 Q1018=
####018000089####
SAQB31 LQSM 081430
METAR LQSA 081430Z 31006KT 260V360 9999 SCT060 23/12 Q1022 NOSIG=
####018000160####
SATU20 LTAA 081350 RRD
METAR LTCE 081420Z 11004KT 040V140 9999 SCT030 30/09 Q1016 NOSIG RMK
RWY08R 18007KT 110V220 RWY26R VRB03KT RWY08L 19008KT 130V250=
####018000322####
SAFI33 EFHK 081420
EFJO 081420Z AUTO 05007KT 010V080 CAVOK 28/18 Q1014=
EFLP 081420Z AUTO 19006KT 130V260 CAVOK 30/12 Q1013=
EFMI 081420Z AUTO 33004KT 280V070 CAVOK 28/19 Q1013=
EFSA 081420Z AUTO 07005KT 030V110 CAVOK 30/16 Q1013=
EFUT 081420Z AUTO 16008KT 130V200 CAVOK 30/13 Q1013=
METAR EFVR 081425Z NIL=
####018000089####
SAPK31 OPKC 081430
METAR OPKC 081425Z 22012KTS 8000 SCT020 SCT100 33/26 Q1003 NOSIG=
####018000387####
SAOS31 LOWM 081420
METAR LOWW 081420Z 35008KT 320V020 CAVOK 25/09 Q1022 NOSIG=
METAR LOWL 081420Z VRB02KT CAVOK 26/10 Q1022 NOSIG=
METAR LOWS 081420Z VRB04KT 9999 FEW060 26/08 Q1021 NOSIG=
METAR LOWI 081420Z 08006KT 030V120 9999 FEW080 29/13 Q1020 NOSIG=
METAR LOWG 081420Z 15003KT 060V230 CAVOK 27/10 Q1021 NOSIG=
METAR LOWK 081420Z VRB03KT 9999 FEW060 27/11 Q1021 NOSIG=
####018000377####
SABX31 EBBR 081420
METAR EBAW 081420Z 21008KT 160V240 CAVOK 31/12 Q1018 NOSIG=
METAR EBBR 081420Z VRB04KT CAVOK 30/11 Q1019 NOSIG=
METAR EBCI 081420Z 19005KT 070V230 CAVOK 31/11 Q1019 NOSIG=
METAR EBLG 081420Z 18006KT 130V230 CAVOK 31/09 Q1019 NOSIG=
METAR EBOS 081420Z 35005KT 320V030 CAVOK 23/14 Q1019 NOSIG=
METAR ELLX 081420Z VRB04KT CAVOK 30/09 Q1020 NOSIG=
####018000091####
SAOS32 LOWM 081420
METAR LOXZ 081420Z 08006KT 70KM FEW070CU 26/09 Q1021 NOSIG RMK SCT=
####018000090####
SPCN49 CWAO 081425
SPECI CYDF 081425Z 22004KT 10SM -SHRA BKN053 OVC068 RMK SC6AC2=

####018000496####
SAUS20 KNKA 081426
SPECI KAAF 081424Z AUTO 01008KT 1 3/4SM HZ CLR 31/23 A3002 RMK AO2=
SPECI KCRP 081420Z 05016G21KT 3/4SM +RA BR FEW009 BKN021CB OVC040
     26/25 A2987 RMK AO2 RAB1356 CB OHD-N-E-SE MOV NW TCU DSNT NE
     S SW P0011=
SPECI KDHT 081425Z AUTO 01012KT 10SM BKN008 BKN014 OVC022 18/17 
    A3028 RMK AO2 CIG 008V011=
SPECI KDWH 081425Z 06005KT 6SM -RA BR BKN020 24/23 A2999 RMK AO2 
    P0003=
SPECI KLFT 081425Z 11005KT 10SM FEW008 OVC012 27/24 A3004 RMK AO2=
####018000455####
SAUS20 KNKA 081426
METAR KBXK 081415Z AUTO 00000KT 9SM CLR 28/M01 A2982 RMK AO1 =
SPECI KCDS 081426Z AUTO 06008KT 10SM BKN011 BKN110 24/21 A3013 RMK 
    AO2=
SPECI KCID 081425Z 34006KT 6SM HZ SCT009 23/20 A3007 RMK AO2=
SPECI KMLC 081425Z AUTO 18003KT 10SM SCT013 BKN018 OVC024 25/23 
    A3007 RMK AO2=
METAR KRQO 081435Z AUTO 00000KT 10SM BKN003 24/23 A3009 RMK AO2=
SPECI KTXK 081425Z 00000KT 10SM SCT012 OVC080 26/24 A3008 RMK AO2=
####018000148####
SAUS99 KWBC 081427
METAR
KBXK 081415Z AUTO 00000KT 9SM CLR 28/M01 A2982 RMK AO1=
KRQO 081435Z AUTO 00000KT 10SM BKN003 24/23 A3009 RMK AO2=
####018000752####
SPUS99 KWBC 081427
SPECI
KAAF 081424Z AUTO 01008KT 1 3/4SM HZ CLR 31/23 A3002 RMK AO2=
KCRP 081420Z 05016G21KT 3/4SM +RA BR FEW009 BKN021CB OVC040 26/25
     A2987 RMK AO2 RAB1356 CB OHD-N-E-SE MOV NW TCU DSNT NE S SW
     P0011=
KDHT 081425Z AUTO 01012KT 10SM BKN008 BKN014 OVC022 18/17 A3028
     RMK AO2 CIG 008V011=
KDWH 081425Z 06005KT 6SM -RA BR BKN020 24/23 A2999 RMK AO2
     P0003=
KLFT 081425Z 11005KT 10SM FEW008 OVC012 27/24 A3004 RMK AO2=
KCDS 081426Z AUTO 06008KT 10SM BKN011 BKN110 24/21 A3013 RMK
     AO2=
KCID 081425Z 34006KT 6SM HZ SCT009 23/20 A3007 RMK AO2=
KMLC 081425Z AUTO 18003KT 10SM SCT013 BKN018 OVC024 25/23 A3007
     RMK AO2=
KTXK 081425Z 00000KT 10SM SCT012 OVC080 26/24 A3008 RMK AO2=
####018000088####
SAQB31 LQSM 081430
METAR LQSA 081430Z 31006KT 260V360 9999 SCT060 23/12 Q1022 NOSIG=
####018000083####
SAKN64 HKMO 081400
METAR HKMO 081400Z 19015KT 9999 FEW026TCU 27/19 Q1015 NOSIG=
####018000085####
SAUK34 EGGY 081420 RRA
METAR EGHE 081420Z 21008KT 9999 FEW018 BKN025 19/15 Q1018=
####018000306####
SADL36 EDZO 081420
METAR EDHK 081420Z 25007KT 9999 FEW060 BKN120 BKN250 28/10 Q1019
      BLU BLU=
METAR ETNL 081420Z 19006KT 9999 SCT100 29/10 Q1019
      BLU+FCST CANCEL=
METAR ETNU 081420Z 27004KT 9999 SCT150 27/10 Q1020
      BLU+=
METAR ETSI 081420Z 02003KT 9999 27/07 Q1022
      BLU+BLU+=
####018000543####
SAIY32 LIIB 081420
METAR LIBD 081420Z 02016KT 360V060 CAVOK 25/12 Q1020=
METAR LIBR 081415Z /////KT CAVOK 26/14 Q1018 NOSIG=
METAR LICC 081420Z 10013KT 9999 FEW040 28/20 Q1017=
METAR LICJ 081420Z 04015KT 9999 FEW018 28/23 Q1018=
METAR LIPE 081420Z 07006KT 030V110 CAVOK 30/14 Q1020=
METAR LIPH 081415Z 18005KT 9999 FEW025 28/21 Q1021=
METAR LIPQ 081420Z VRB03KT CAVOK 27/15 Q1021=
METAR LIPR 081415Z 08012KT CAVOK 28/19 Q1021=
METAR LIPX 081415Z 13003KT 9999 FEW040 30/14 Q1020=
METAR LIPZ 081420Z 14007KT 9999 FEW040 27/18 Q1021=
####018000768####
SAIY31 LIIB 081420
METAR LIEA 081420Z 19006KT 150V230 9999 FEW025 32/20 Q1019=
METAR LIEE 081415Z 15014KT 9999 FEW020 28/20 Q1018 NOSIG=
METAR LIEO 081420Z 05011KT 020V090 CAVOK 31/22 Q1019=
METAR LIMC 081420Z 24007KT 210V290 9999 FEW025 28/16 Q1021 NOSIG=
METAR LIME 081420Z 26004KT 200V330 9999 SCT050 27/16 Q1021=
METAR LIMF 081420Z 19004KT CAVOK 27/16 Q1021=
METAR LIMJ 081420Z 17006KT 9999 FEW035 29/24 Q1019=
METAR LIML 081420Z 12005KT 070V170 9999 FEW030 29/16 Q1020 NOSIG=
METAR LIRA 081415Z 24007KT 180V300 9999 FEW020 30/17 Q1019=
METAR LIRF 081420Z 24011KT 210V270 CAVOK 29/18 Q1019 NOSIG=
METAR LIRN 081420Z 06007KT CAVOK 29/14 Q1018=
METAR LIRP 081415Z 32011KT CAVOK 31/18 Q1019 NOSIG=
METAR LIRQ 081420Z 10004KT 360V170 CAVOK 32/13 Q1019=
####018000366####
SAFI34 EFHK 081420
EFET 081420Z AUTO 18007KT 130V220 9999 -SHRA OVC060 19/07 Q1013=
EFIV 081420Z 17006KT 120V210 CAVOK 21/08 Q1015=
EFKE 081420Z AUTO 22006KT 180V270 CAVOK 21/11 Q1015=
EFKI 081420Z AUTO VRB04KT 9999 FEW037 SCT097 24/15 Q1015=
EFKS 081420Z AUTO VRB01KT CAVOK 21/09 Q1016=
EFKT 081420Z AUTO 17009KT CAVOK 21/09 Q1014=
METAR EFSO 081426Z NIL=
####018000099####
SAHW31 KWBC 081400 RRA
METAR
PHLI 081423Z 05013KT 10SM -RA BKN025 BKN044 OVC070 24/18 A3004=
####018000095####
SPUS31 KWBC 081427
SPECI
KDEN 081424Z 02005KT 1/4SM BR FEW005 BKN015 OVC039 16/14 A3034=
####018000083####
SAUS31 KWBC 081400 RRB
METAR
KLGC 081415Z AUTO 00000KT 10SM CLR 31/21 A3004=
####018000127####
SAUS41 KWBC 081400 RRE
METAR
K40B 081425Z AUTO 19010G14KT 30/22 A3001=
KWDR 081420Z AUTO 00000KT 10SM CLR 30/22 A3008=
####018001690####
SAEU KAWN 081400 RRX
METAR EBAW 081420Z 21008KT 160V240 CAVOK 31/12 Q1018 NOSIG=
METAR EBCI 081420Z 19005KT 070V230 CAVOK 31/11 Q1019 NOSIG=
METAR EBLG 081420Z 18006KT 130V230 CAVOK 31/09 Q1019 NOSIG=
METAR EGHE 081420Z 21008KT 9999 FEW018 BKN025 19/15 Q1018=
METAR ELLX 081420Z VRB04KT CAVOK 30/09 Q1020 NOSIG=
METAR ENHK 081420Z 15005KT 9999 FEW030 SCT060 BKN100 19/09 Q1011=
METAR LIBD 081420Z 02016KT 360V060 CAVOK 25/12 Q1020=
METAR LIBR 081415Z /////KT CAVOK 26/14 Q1018 NOSIG=
METAR LICC 081420Z 10013KT 9999 FEW040 28/20 Q1017=
METAR LICJ 081420Z 04015KT 9999 FEW018 28/23 Q1018=
METAR LIEA 081420Z 19006KT 150V230 9999 FEW025 32/20 Q1019=
METAR LIEE 081415Z 15014KT 9999 FEW020 28/20 Q1018 NOSIG=
METAR LIEO 081420Z 05011KT 020V090 CAVOK 31/22 Q1019=
METAR LIME 081420Z 26004KT 200V330 9999 SCT050 27/16 Q1021=
METAR LIMF 081420Z 19004KT CAVOK 27/16 Q1021=
METAR LIMJ 081420Z 17006KT 9999 FEW035 29/24 Q1019=
METAR LIPC 081355Z 12013KT CAVOK 28/14 Q1021 RMK SKC VIS MIN 9999 WIND
      THR12 10011KT BLU=
METAR LIPE 081420Z 07006KT 030V110 CAVOK 30/14 Q1020=
METAR LIPH 081415Z 18005KT 9999 FEW025 28/21 Q1021=
METAR LIPQ 081420Z VRB03KT CAVOK 27/15 Q1021=
METAR LIPR 081415Z 08012KT CAVOK 28/19 Q1021=
METAR LIPX 081415Z 13003KT 9999 FEW040 30/14 Q1020=
METAR LIPZ 081420Z 14007KT 9999 FEW040 27/18 Q1021=
METAR LIRA 081415Z 24007KT 180V300 9999 FEW020 30/17 Q1019=
METAR LIRN 081420Z 06007KT CAVOK 29/14 Q1018=
METAR LIRP 081415Z 32011KT CAVOK 31/18 Q1019 NOSIG=
METAR LIRX 081355Z 17005KT CAVOK 29/18 Q1020 RMK SKC VIS MIN 9999E
      VIS MAR 25 KM=
METAR LQSA 081430Z 31006KT 260V360 9999 SCT060 23/12 Q1022 NOSIG=
####018000183####
SAUS42 KWBC 081400 RRC
METAR
KBQK 081417Z AUTO 30006KT 10SM CLR 30/23 A3001=
KLGC 081415Z AUTO 00000KT 10SM CLR 31/21 A3004=
KOPN 081420Z AUTO 30003KT 10SM CLR 32/24 A3005=
####018000127####
SAUS51 KWBC 081400 RRB
METAR
K40B 081425Z AUTO 19010G14KT 30/22 A3001=
KIPJ 081420Z AUTO 36004KT 10SM CLR 32/18 A3003=
####018000135####
SAUS52 KWBC 081400 RRC
METAR
KAYS 081420Z AUTO 30006KT 10SM CLR 30/23 A3002=
KVUJ 081419Z AUTO 01005KT 7SM SCT085 33/21 A2999=
####018000135####
SAUS53 KWBC 081400 RRF
METAR
KJNX 081419Z AUTO 01008KT 10SM SCT080 29/19 A2998=
KTDF 081422Z AUTO 01004KT 7SM CLR 30/19 A3001=
####018000632####
SAPS31 NFFN 081400
METAR NCRG 081400Z 05008KT 9999 FEW012 SCT015 25/24 Q1017=
METAR NFFN 081400Z 12006KT 40KM FEW030 20/18 Q1013 NOSIG RMK RR NIL=
METAR NFNA 081400Z 00000KT 40KM FEW024 19/19 Q1014 RMK RR NIL DEW 
HVY=
METAR NGFU 081400Z 08007KT 50KM SCT020TCU 28/24 Q1009=
METAR NGTA 081400Z NIL=
METAR NIUE 081400Z AUTO 14004KT //// ////// 23/21 Q1014=
METAR NSFA 081400Z 00000KT 50KM FEW024 24/23 Q1011=
METAR NSTU 081350Z 10012KT 10SM SCT016 BKN040 28/26 A2987 RMK 
SHRAB24E48 SLP115 T02770262=
METAR NTAA 081400Z AUTO 15006KT 9999NDV NCD 25/22 Q1014=
METAR NWWW 081400Z NIL=
METAR PLCH 081400Z NIL=
####018000086####
SAUS54 KWBC 081400 RRC
METAR
KJNX 081419Z AUTO 01008KT 10SM SCT080 29/19 A2998=
####018000082####
SPUS53 KWBC 081427
SPECI
KLXV 081424Z AUTO 00000KT 10SM BKN010 08/06 A3053=
####018000077####
SPUS53 KWBC 081427
SPECI
KSLN 081424Z 02010KT 10SM SCT010 22/19 A3015=
####018000083####
SAUS72 KWBC 081400 RRF
METAR
KBQK 081417Z AUTO 30006KT 10SM CLR 30/23 A3001=
####018000095####
SPUS73 KWBC 081427
SPECI
KDEN 081424Z 02005KT 1/4SM BR FEW005 BKN015 OVC039 16/14 A3034=
####018000077####
SPUS73 KWBC 081427
SPECI
KSLN 081424Z 02010KT 10SM SCT010 22/19 A3015=
####018000078####
SACN70 CWAO 081400 RRC
XMN SA 1400 AUTO8 M M M M/17/11/2104/M/ M 60MM=

####018000075####
SACN95 CWAO 081415
WWA SA 1415 AUTO8 M M M M/23/12/0000/M/M M 22MM=

####018000136####
SACN98 CWAO 081400 RRD
XCP SA 1400 AUTO8 M M M M/15/10/2103/M/0018 M 43MM=
XWM SA 1400 AUTO8 M M M M/16/11/0000/M/0012 M 10MM=

####018000084####
SACN92 CWAO 081400 RRD
WME SA 1400 AUTO8 M M M 160/19/13/0809/M/M 2005 23MM=

####018000128####
SACN59 CWAO 081400 RRD
XDB SA 1400 AUTO8 M M M M/16/09/2004/M/ M 48MM=
XTH SA 1400 AUTO8 M M M M/15/12/0803/M/ M 66MM=

####018000104####
SACN50 CWAO 081400 RRB
WFG SA 1400 AUTO8 M M M 174/14/11/3620/M/M PK WND 3524 1330Z 1004
82MM=

####018000083####
SACN93 CWAO 081400 RRD
WPA SA 1400 AUTO8 M M M 191/12/08/MMMM/M/ 3002 99MM=

####018000079####
SACN94 CWAO 081400 RRD
WQV SA 1400 AUTO8 M M M M/20/17/0913/M/M M 51MM=

####018001314####
SACO20 SKBO 081400
METAR
SKAR 081400Z NIL=
SKBG 081400Z VRB02KT 4000S BCFG SCT015 22/20 A3006=
SKBO 081400Z 03004KT 9999 SCT017 BKN070 15/11 A3035 RERA=
SKBQ 081400Z 20004KT 8000 HZ SCT010 BKN070 28/26 A2992=
SKCC 081400Z 00000KT 9999 SCT012 SCT090 27/22 A2999=
SKCG 081400Z 07003KT 9999 SCT015 BKN070 28/25 A2990=
SKCL 081400Z 00000KT 8000 FEW005 SCT020 BKN090 23/20 A3005=
SKEJ 081400Z 19004KT 9999 SCT010 SCT100 26/25 A2993=
SKIB 081400Z NIL=
SKIP 081400Z 06003KT 9999 BKN018 12/10 A3042=
SKLC 081400Z 21004KT 9999 SCT015 27/24 A2991=
SKLT 081400Z 00000KT 9999 FEW015 SCT070 28/25 A2993=
SKMD 081400Z 00000KT 6000 SCT030 OVC080 20/15 A3014=
SKMR 081400Z 00000KT 9999 SCT015 BKN090 27/25 A2989=
SKMZ 081400Z NIL=
SKNV 081400Z 01003KT 9999 FEW007 BKN100 24/21 A2998=
SKPC 081400Z NIL=
SKPE 081400Z 00000KT 9999 FEW015 BKN080 21/18 A3014=
SKPS 081400Z NIL=
SKPV 081400Z NIL=
SKRG 081400Z VRB02KT 4000 -DZ BR BKN004 SCT080 15/14 A3033=
SKRH 081400Z 14005KT 9999 FEW020 OVC090 25/23 A2990 RETSRA=
SKSM 081400Z NIL=
SKSP 081400Z 09005KT 9999 FEW015 30/26 A2987=
SKUC 081400Z 00000KT 1500 -DZ OVC008 22/22 A2997 REDZ=
SKUI 081400Z NIL=
SKVP 081400Z 06005KT 8000 -DZ FEW005 BKN070 23/23 A2996 REDZ=
SKVV 081400Z 00000KT 9999 FEW023 OVC080 26/22 A2997=
NNNN
####018000093####
SPUS81 KWBC 081427
SPECI
KHLR 081424Z AUTO 07005KT 9SM SCT009 BKN014 OVC060 26/ A3003=
####018000082####
SPUS81 KWBC 081427
SPECI
KLXV 081424Z AUTO 00000KT 10SM BKN010 08/06 A3053=
####018000118####
SANA14 KAWN 081400 RRG
METAR KOSC 081414Z AUTO 00000KT 10SM -DZ SCT021 SCT030 BKN080 23/22
      A3000 RMK AO2=
####018000120####
SANO33 ENMI 081420 RRA
METAR ENEV 081425Z 27005KT 200V020 9999 VCSH FEW020 SCT034 BKN053
           14/11 Q1010 =
####018000112####
SPUS90 KWBC 081428
SPECI KLXV 081424Z AUTO 00000KT 10SM BKN010 08/06 A3053 RMK AO2
     CIG 007V013 TSNO=
####018000071####
SAUS90 KWBC 081428
METAR K40B 081425Z AUTO 19010G14KT 30/22 A3001=
####018000754####
SAUS20 KNKA 081427
SPECI KACV 081426Z AUTO 00000KT 4SM BR OVC001 10/09 A2996 RMK AO2=
SPECI KCXO 081426Z 17009KT 2 1/2SM +RA BR BKN009 BKN015 24/23 A3001 
    RMK AO2 RAB23 CIG 007V012 P0005=
SPECI KGRR 081426Z 33005KT 2SM -RA BR BKN008 BKN024 OVC080 25/23 
    A3003 RMK AO2 RAE1354B10 P0001=
METAR KGYB 081426Z AUTO 00000KT 2 1/2SM RA SCT011 BKN020 OVC029 
     23/23 A3003 RMK AO2 P0024=
METAR KHQZ 081426Z AUTO 13009KT 10SM SCT015 SCT020 BKN065 28/23 
     A3006 RMK AO2=
METAR KORG 081425Z AUTO 08009KT 7SM BKN012 BKN018 18/14 A3001 RMK 
     AO2 LTG DSNT S AND SW=
METAR KPAN 081435Z AUTO 12006KT 10SM FEW034 24/06 A3018 RMK AO1 =
METAR KRCR 081425Z AUTO 03003KT 4SM BR SCT042 SCT060 SCT100 25/24 
     A3005 RMK AO2=
####018001703####
SAEW KAWN 081400 RRK
METAR EBAW 081420Z 21008KT 160V240 CAVOK 31/12 Q1018 NOSIG=
METAR EBBR 081420Z VRB04KT CAVOK 30/11 Q1019 NOSIG=
METAR EBCI 081420Z 19005KT 070V230 CAVOK 31/11 Q1019 NOSIG=
METAR EBLG 081420Z 18006KT 130V230 CAVOK 31/09 Q1019 NOSIG=
METAR EBOS 081420Z 35005KT 320V030 CAVOK 23/14 Q1019 NOSIG=
METAR EDAC 081420Z 01004KT 300V060 CAVOK 27/12 Q1021=
METAR EDAH 081420Z 15005KT 120V190 CAVOK 25/10 Q1021=
METAR EDHI 081420Z VRB06KT CAVOK 30/12 Q1018=
METAR EDHK 081420Z 25007KT 9999 FEW060 BKN120 BKN250 28/10 Q1019 BLU
      BLU=
METAR EDHL 081420Z 27006KT 220V310 CAVOK 29/13 Q1018=
METAR EDLN 081420Z 21006KT 140V270 CAVOK 32/10 Q1018=
METAR EDLP 081420Z VRB03KT CAVOK 32/11 Q1019=
METAR EDLW 081420Z 25008KT 210V290 CAVOK 31/11 Q1019=
METAR EDMA 081420Z 01004KT 280V080 CAVOK 28/09 Q1021=
METAR EDMO 081420Z 03005KT 310V080 CAVOK 26/08 Q1022=
METAR EDOP 081420Z 19008KT 150V230 CAVOK 31/09 Q1019=
METAR EDQM 081420Z VRB04KT CAVOK 26/09 Q1023=
METAR EDSB 081420Z VRB04KT CAVOK 32/10 Q1019=
METAR EDVK 081420Z 21005KT 150V300 CAVOK 28/10 Q1020=
METAR EDXW 081420Z 22006KT CAVOK 20/15 Q1019=
METAR EHAM 081425Z 29008KT 260V320 CAVOK 26/14 Q1019 NOSIG=
METAR EHGG 081425Z AUTO 25009KT 200V290 9999NDV NSC 27/13 Q1018 NOSIG=
METAR ELLX 081420Z VRB04KT CAVOK 30/09 Q1020 NOSIG=
METAR ETHB 081420Z 22004KT 9999 FEW080 BKN250 31/10 Q1018 BLU/BLU/=
METAR ETHC 081420Z 22007KT 9999 FEW070 SCT240 31/09 Q1018 BLU/BLU/=
METAR ETHF 081420Z 21005KT 9999 FEW300 29/10 Q1020 BLU/BLU/=
METAR ETNH 081420Z 28009KT 9999 FEW060 BKN110 28/10 Q1019 BLU BLU/
      TEMPO BLU=
METAR ETNL 081420Z 19006KT 9999 SCT100 29/10 Q1019 BLU/FCST CANCEL=
####018000077####
SAUK39 EGRR 081350 RRG
METAR EGXG 081350Z 26012KT CAVOK 22/06 Q1016 BLU=
####018000096####
SAUK39 EGRR 081350 RRF
METAR EGDM 081350Z 21011KT 9999 SCT033 BKN200 24/14 Q1018 BLU NOSIG=
####018000494####
SAUS20 KNKA 081427
SPECI KAAO 081426Z AUTO 03007KT 10SM OVC010 23/21 A3013 RMK AO2 CIG 
    005V014=
SPECI KCQX 081426Z AUTO 15007KT 10SM BKN029 BKN036 23/19 A3012 RMK 
    AO2=
SPECI KGLD 081426Z AUTO 15003KT 10SM FEW008 BKN038 17/16 A3030 RMK 
    AO2=
SPECI KJLN 081426Z 36003KT 3SM RA BR BKN013 BKN030 OVC055 22/22 
    A3009 RMK AO2 P0012=
SPECI KSPS 081427Z 08004KT 10SM BKN011 BKN250 27/23 A3006 RMK AO2=
SPECI KTOP 081426Z 02009KT 10SM OVC011 24/22 A3012 RMK AO2=
####018000442####
SAUS99 KWBC 081428
METAR
KGYB 081426Z AUTO 00000KT 2 1/2SM RA SCT011 BKN020 OVC029 23/23
     A3003 RMK AO2 P0024=
KHQZ 081426Z AUTO 13009KT 10SM SCT015 SCT020 BKN065 28/23 A3006
     RMK AO2=
KORG 081425Z AUTO 08009KT 7SM BKN012 BKN018 18/14 A3001 RMK AO2
     LTG DSNT S AND SW=
KPAN 081435Z AUTO 12006KT 10SM FEW034 24/06 A3018 RMK AO1=
KRCR 081425Z AUTO 03003KT 4SM BR SCT042 SCT060 SCT100 25/24 A3005
     RMK AO2=
####018000733####
SPUS99 KWBC 081428
SPECI
KACV 081426Z AUTO 00000KT 4SM BR OVC001 10/09 A2996 RMK AO2=
KCXO 081426Z 17009KT 2 1/2SM +RA BR BKN009 BKN015 24/23 A3001 RMK
     AO2 RAB23 CIG 007V012 P0005=
KGRR 081426Z 33005KT 2SM -RA BR BKN008 BKN024 OVC080 25/23 A3003
     RMK AO2 RAE1354B10 P0001=
KAAO 081426Z AUTO 03007KT 10SM OVC010 23/21 A3013 RMK AO2 CIG
     005V014=
KCQX 081426Z AUTO 15007KT 10SM BKN029 BKN036 23/19 A3012 RMK
     AO2=
KGLD 081426Z AUTO 15003KT 10SM FEW008 BKN038 17/16 A3030 RMK
     AO2=
KJLN 081426Z 36003KT 3SM RA BR BKN013 BKN030 OVC055 22/22 A3009
     RMK AO2 P0012=
KSPS 081427Z 08004KT 10SM BKN011 BKN250 27/23 A3006 RMK AO2=
KTOP 081426Z 02009KT 10SM OVC011 24/22 A3012 RMK AO2=
####018000095####
SACN87 KWBC 081428
METAR CWME 081400Z AUTO 08009KT 19/13 RMK AO1 SLP160 T01920133
52005=
####018000080####
SACN95 KWBC 081428
METAR CWWA 081415Z AUTO 00000KT 23/12 RMK AO1 T02320122=
####018000080####
SACN94 KWBC 081428
METAR CWQV 081400Z AUTO 09013KT 20/17 RMK AO1 T01950171=
####018000118####
SANO33 ENMI 081420 RRA
METAR ENEV 081425Z 27005KT 200V020 9999 VCSH FEW020 SCT034 BKN053
           14/11 Q1010 =
####018000280####
SANL31 EHDB 081425
METAR EHAM 081425Z 29008KT 260V320 CAVOK 26/14 Q1019 NOSIG=
METAR EHBK 081425Z AUTO VRB03KT 9999NDV NCD 31/11 Q1018 NOSIG=
METAR EHGG 081425Z AUTO 25009KT 200V290 9999NDV NSC 27/13 Q1018
NOSIG=
METAR EHRD 081425Z 30006KT 210V020 CAVOK 27/14 Q1018 NOSIG=
####018000116####
SPXX60 KWBC 081428
SPECI
KHLR 081424Z AUTO 07005KT 9SM SCT009 BKN014 OVC060 26/ A3003 RMK
     AO2 T0261 $=
####018000934####
SPUS70 KWBC 081428
SPECI
KDHT 081425Z AUTO 01012KT 10SM BKN008 BKN014 OVC022 18/17 A3028
     RMK AO2 CIG 008V011=
KDWH 081425Z 06005KT 6SM -RA BR BKN020 24/23 A2999 RMK AO2
     P0003=
KLFT 081425Z 11005KT 10SM FEW008 OVC012 27/24 A3004 RMK AO2=
KCDS 081426Z AUTO 06008KT 10SM BKN011 BKN110 24/21 A3013 RMK
     AO2=
KMLC 081425Z AUTO 18003KT 10SM SCT013 BKN018 OVC024 25/23 A3007
     RMK AO2=
KTXK 081425Z 00000KT 10SM SCT012 OVC080 26/24 A3008 RMK AO2=
KACV 081426Z AUTO 00000KT 4SM BR OVC001 10/09 A2996 RMK AO2=
KCXO 081426Z 17009KT 2 1/2SM +RA BR BKN009 BKN015 24/23 A3001 RMK
     AO2 RAB23 CIG 007V012 P0005=
KAAO 081426Z AUTO 03007KT 10SM OVC010 23/21 A3013 RMK AO2 CIG
     005V014=
KCQX 081426Z AUTO 15007KT 10SM BKN029 BKN036 23/19 A3012 RMK
     AO2=
KGLD 081426Z AUTO 15003KT 10SM FEW008 BKN038 17/16 A3030 RMK
     AO2=
KTOP 081426Z 02009KT 10SM OVC011 24/22 A3012 RMK AO2=
####018000636####
SPUS80 KWBC 081428
SPECI
KLXV 081424Z AUTO 00000KT 10SM BKN010 08/06 A3053 RMK AO2 CIG
     007V013 TSNO=
KAAF 081424Z AUTO 01008KT 1 3/4SM HZ CLR 31/23 A3002 RMK AO2=
KCRP 081420Z 05016G21KT 3/4SM +RA BR FEW009 BKN021CB OVC040 26/25
     A2987 RMK AO2 RAB1356 CB OHD-N-E-SE MOV NW TCU DSNT NE S SW
     P0011=
KCID 081425Z 34006KT 6SM HZ SCT009 23/20 A3007 RMK AO2=
KGRR 081426Z 33005KT 2SM -RA BR BKN008 BKN024 OVC080 25/23 A3003
     RMK AO2 RAE1354B10 P0001=
KJLN 081426Z 36003KT 3SM RA BR BKN013 BKN030 OVC055 22/22 A3009
     RMK AO2 P0012=
KSPS 081427Z 08004KT 10SM BKN011 BKN250 27/23 A3006 RMK AO2=
####018000563####
SAUS70 KWBC 081428
METAR
KBXK 081415Z AUTO 00000KT 9SM CLR 28/M01 A2982 RMK AO1=
KRQO 081435Z AUTO 00000KT 10SM BKN003 24/23 A3009 RMK AO2=
KOSC 081414Z AUTO 00000KT 10SM -DZ SCT021 SCT030 BKN080 23/22
     A3000 RMK AO2=
KGYB 081426Z AUTO 00000KT 2 1/2SM RA SCT011 BKN020 OVC029 23/23
     A3003 RMK AO2 P0024=
KHQZ 081426Z AUTO 13009KT 10SM SCT015 SCT020 BKN065 28/23 A3006
     RMK AO2=
KORG 081425Z AUTO 08009KT 7SM BKN012 BKN018 18/14 A3001 RMK AO2
     LTG DSNT S AND SW=
KPAN 081435Z AUTO 12006KT 10SM FEW034 24/06 A3018 RMK AO1=
####018000090####
SAAF36 KWBC 081400 RRD
METAR
HKMO 081400Z 19015KT 9999 FEW026TCU 27/19 Q1015 NOSIG=
####018000086####
SAAF35 KWBC 081400 RRD
METAR
HLLT 081420Z 35010KT 320V040 8000 SKC 31/19 Q1018=
####018000174####
SAAW41 KWBC 081450 RRB
METAR
LTCE 081420Z 11004KT 040V140 9999 SCT030 30/09 Q1016 NOSIG RMK
     RWY08R 18007KT 110V220 RWY26R VRB03KT RWY08L 19008KT
     130V250=
####018000095####
SAAW34 KWBC 081415 RRA
METAR
OPKC 081425Z 22012KTS 8000 SCT020 SCT100 33/26 Q1003 NOSIG=
####018000353####
SABX31 KWBC 081420 RRA
METAR
EBAW 081420Z 21008KT 160V240 CAVOK 31/12 Q1018 NOSIG=
EBBR 081420Z VRB04KT CAVOK 30/11 Q1019 NOSIG=
EBCI 081420Z 19005KT 070V230 CAVOK 31/11 Q1019 NOSIG=
EBLG 081420Z 18006KT 130V230 CAVOK 31/09 Q1019 NOSIG=
EBOS 081420Z 35005KT 320V030 CAVOK 23/14 Q1019 NOSIG=
ELLX 081420Z VRB04KT CAVOK 30/09 Q1020 NOSIG=
####018000138####
SAEN31 KWBC 081420 RRA
METAR
EFIV 081420Z 17006KT 120V210 CAVOK 21/08 Q1015=
EFKE 081420Z AUTO 22006KT 180V270 CAVOK 21/11 Q1015=
####018000521####
SAIY32 KWBC 081420 RRA
METAR
LIPE 081420Z 07006KT 030V110 CAVOK 30/14 Q1020=
LIPH 081415Z 18005KT 9999 FEW025 28/21 Q1021=
LIPQ 081420Z VRB03KT CAVOK 27/15 Q1021=
LIPR 081415Z 08012KT CAVOK 28/19 Q1021=
LIPX 081415Z 13003KT 9999 FEW040 30/14 Q1020=
LIPZ 081420Z 14007KT 9999 FEW040 27/18 Q1021=
LIRA 081415Z 24007KT 180V300 9999 FEW020 30/17 Q1019=
LIRF 081420Z 24011KT 210V270 CAVOK 29/18 Q1019 NOSIG=
LIRP 081415Z 32011KT CAVOK 31/18 Q1019 NOSIG=
LIRQ 081420Z 10004KT 360V170 CAVOK 32/13 Q1019=
####018000657####
SAIY31 KWBC 081420 RRA
METAR
LIBD 081420Z 02016KT 360V060 CAVOK 25/12 Q1020=
LIBR 081415Z /////KT CAVOK 26/14 Q1018 NOSIG=
LICC 081420Z 10013KT 9999 FEW040 28/20 Q1017=
LICJ 081420Z 04015KT 9999 FEW018 28/23 Q1018=
LIEA 081420Z 19006KT 150V230 9999 FEW025 32/20 Q1019=
LIEE 081415Z 15014KT 9999 FEW020 28/20 Q1018 NOSIG=
LIEO 081420Z 05011KT 020V090 CAVOK 31/22 Q1019=
LIMC 081420Z 24007KT 210V290 9999 FEW025 28/16 Q1021 NOSIG=
LIME 081420Z 26004KT 200V330 9999 SCT050 27/16 Q1021=
LIMF 081420Z 19004KT CAVOK 27/16 Q1021=
LIMJ 081420Z 17006KT 9999 FEW035 29/24 Q1019=
LIML 081420Z 12005KT 070V170 9999 FEW030 29/16 Q1020 NOSIG=
####018000095####
SAIY41 KWBC 081420 RRA
METAR
LIMC 081420Z 24007KT 210V290 9999 FEW025 28/16 Q1021 NOSIG=
####018000081####
SAIY43 KWBC 081420 RRA
METAR
LIPX 081415Z 13003KT 9999 FEW040 30/14 Q1020=
####018000126####
SAIY42 KWBC 081350 RRC
METAR
LIPC 081355Z 12013KT CAVOK 28/14 Q1021 RMK SKC VIS MIN 9999 WIND
     THR12 10011KT BLU=
####018000118####
SAIY43 KWBC 081350 RRD
METAR
LIRX 081355Z 17005KT CAVOK 29/18 Q1020 RMK SKC VIS MIN 9999E VIS
     MAR 25 KM=
####018000163####
SANL31 KWBC 081420 RRA
METAR
EHAM 081425Z 29008KT 260V320 CAVOK 26/14 Q1019 NOSIG=
EHGG 081425Z AUTO 25009KT 200V290 9999NDV NSC 27/13 Q1018
     NOSIG=
####018000115####
SANO41 KWBC 081420 RRA
METAR
ENEV 081425Z 27005KT 200V020 9999 VCSH FEW020 SCT034 BKN053 14/11
     Q1010=
####018000075####
SACN94 CWAO 081422
WQR SA 1422 AUTO8 M M M M/12/12/1409/M/M M 88MM=

####018000098####
SAUK41 KWBC 081350 RRH
METAR
EGDM 081350Z 21011KT 9999 SCT033 BKN200 24/14 Q1018 BLU NOSIG=
####018000088####
SAUK41 KWBC 081420 RRA
METAR
EGHE 081420Z 21008KT 9999 FEW018 BKN025 19/15 Q1018=
####018000075####
SAXX61 KWBC 081400 RRF
METAR
LIRN 081420Z 06007KT CAVOK 29/14 Q1018=
####018000771####
SAXX99 KWBC 081400 RRU
METAR
EFET 081420Z AUTO 18007KT 130V220 9999 -SHRA OVC060 19/07
     Q1013=
EFJO 081420Z AUTO 05007KT 010V080 CAVOK 28/18 Q1014=
EFKI 081420Z AUTO VRB04KT 9999 FEW037 SCT097 24/15 Q1015=
EFKS 081420Z AUTO VRB01KT CAVOK 21/09 Q1016=
EFKT 081420Z AUTO 17009KT CAVOK 21/09 Q1014=
EFLP 081420Z AUTO 19006KT 130V260 CAVOK 30/12 Q1013=
EFMI 081420Z AUTO 33004KT 280V070 CAVOK 28/19 Q1013=
EFSA 081420Z AUTO 07005KT 030V110 CAVOK 30/16 Q1013=
EFUT 081420Z AUTO 16008KT 130V200 CAVOK 30/13 Q1013=
EFVR 081425Z NIL=
EGXG 081350Z 26012KT CAVOK 22/06 Q1016 BLU=
ETSI 081420Z 02003KT 9999 27/07 Q1022 BLU+BLU+=
LOXZ 081420Z 08006KT 70KM FEW070CU 26/09 Q1021 NOSIG RMK SCT=
SKCC 081400Z 00000KT 9999 SCT012 SCT090 27/22 A2999=
####018000111####
SAUS44 KLZK 081427
MTRMWT
SPECI KMWT 081426Z AUTO 00000KT 10SM SCT017 BKN060 26/23 A3009 RMK 
AO2 TSNO
####018000085####
SPUS52 KWBC 081428
SPECI
KAAF 081424Z AUTO 01008KT 1 3/4SM HZ CLR 31/23 A3002=
####018000089####
SPUS52 KWBC 081428
SPECI
KCDS 081426Z AUTO 06008KT 10SM BKN011 BKN110 24/21 A3013=
####018000096####
SPUS52 KWBC 081428
SPECI
KDHT 081425Z AUTO 01012KT 10SM BKN008 BKN014 OVC022 18/17 A3028=
####018000084####
SPUS52 KWBC 081428
SPECI
KLFT 081425Z 11005KT 10SM FEW008 OVC012 27/24 A3004=
####018000096####
SPUS52 KWBC 081428
SPECI
KMLC 081425Z AUTO 18003KT 10SM SCT013 BKN018 OVC024 25/23 A3007=
####018000079####
SPUS53 KWBC 081428
SPECI
KCID 081425Z 34006KT 6SM HZ SCT009 23/20 A3007=
####018000148####
SAUS44 KFWD 081428
MTRNQI
SPECI KNQI 081421Z COR 04007KT 6SM -RA BKN010CB BKN085 BKN280 28/26 
A2986 RMK AO2 RAB21 CB NE-SE-S MOV W P0000 $
####018000373####
SAFI34 EFHK 081420
EFET 081420Z AUTO 18007KT 130V220 9999 -SHRA OVC060 19/07 Q1013=
EFIV 081420Z 17006KT 120V210 CAVOK 21/08 Q1015=
EFKE 081420Z AUTO 22006KT 180V270 CAVOK 21/11 Q1015=
EFKI 081420Z AUTO VRB04KT 9999 FEW037 SCT097 24/15 Q1015=
EFKS 081420Z AUTO VRB01KT CAVOK 21/09 Q1016=
EFKT 081420Z AUTO 17009KT CAVOK 21/09 Q1014=
METAR EFSO 081426Z NIL=
####018000285####
SANL31 EHDB 081425
METAR EHAM 081425Z 29008KT 260V320 CAVOK 26/14 Q1019 NOSIG=
METAR EHBK 081425Z AUTO VRB03KT 9999NDV NCD 31/11 Q1018 NOSIG=
METAR EHGG 081425Z AUTO 25009KT 200V290 9999NDV NSC 27/13 Q1018
NOSIG=
METAR EHRD 081425Z 30006KT 210V020 CAVOK 27/14 Q1018 NOSIG=
####018000627####
SAPS32 NFFN 081400
METAR NFNA 081400Z 00000KT 40KM FEW024 19/19 Q1014 RMK RR NIL DEW 
HVY=
METAR NFTF 081400Z 00000KT 9999 FEW015 18/17 Q1015=
METAR NFTL 081400Z NIL=
METAR NFTV 081400Z 16006KT 9999 SCT016 BKN040 23/21 Q1014=
METAR NLWW 081400Z AUTO 13006KT 100V160 9999NDV FEW010/// 26/24 
Q1011=
METAR NSAP 081400Z NIL=
METAR NSFA 081400Z 00000KT 50KM FEW024 24/23 Q1011=
METAR NSTU 081350Z 10012KT 10SM SCT016 BKN040 28/26 A2987 RMK 
SHRAB24E48 SLP115 T02770262=
METAR NTAA 081400Z AUTO 15006KT 9999NDV NCD 25/22 Q1014=
METAR NVSS 081400Z NIL=
METAR NVVV 081400Z NIL=
METAR NWWW 081400Z NIL=
####018000084####
SPUS72 KWBC 081428
SPECI
KLFT 081425Z 11005KT 10SM FEW008 OVC012 27/24 A3004=
####018000096####
SPUS72 KWBC 081428
SPECI
KMLC 081425Z AUTO 18003KT 10SM SCT013 BKN018 OVC024 25/23 A3007=
####018000084####
SPUS72 KWBC 081428
SPECI
KTXK 081425Z 00000KT 10SM SCT012 OVC080 26/24 A3008=
####018000079####
SPUS73 KWBC 081428
SPECI
KCID 081425Z 34006KT 6SM HZ SCT009 23/20 A3007=
####018000085####
SPUS81 KWBC 081428
SPECI
KAAF 081424Z AUTO 01008KT 1 3/4SM HZ CLR 31/23 A3002=
####018000079####
SPUS81 KWBC 081428
SPECI
KCID 081425Z 34006KT 6SM HZ SCT009 23/20 A3007=
####018000073####
SADL34 EDZO 081420 RRA
METAR EDNY 081420Z VRB03KT CAVOK 30/11 Q1021=
####018000060####
SAUS45 KTFX 081428
MTR8S0
METAR K8S0 081325Z 08002KT 
####018000106####
SAUK39 EGRR 081350 RRH
METAR EGUB 081350Z AUTO 22008KT 9999NDV // FEW044/// SCT190/// 24/12
 Q1018=
####018002945####
SAUS20 KNKA 081428
METAR K0F2 081424Z AUTO 14004KT 3SM RA SCT006 BKN035 OVC048 23/22 
     A3006 RMK AO2 P0022 T02250215=
METAR K11R 081425Z AUTO 08007KT 5SM -RA SCT021 SCT027 SCT037 
     25/23 A3000 RMK AO2 LTG DSNT SE P0005=
METAR K1H2 081425Z AUTO 24010KT 10SM VCTS SCT043 BKN100 30/24 
     A3005 RMK AO2 LTG DSNT W T03030242=
METAR K3LF 081425Z AUTO 21003KT 10SM TS SCT075 SCT080 BKN120 
     24/23 A3007 RMK AO2 LTG DSNT E AND SE=
METAR K3T5 081424Z AUTO 00000KT 2 1/2SM +RA SCT008 BKN016 OVC036 
     25/24 A2997 RMK AO2 LTG DSNT SE P0012 T02480235=
METAR K6R3 081421Z AUTO 08005KT 7SM OVC006 27/26 A3000 RMK AO2 
     LTG DSNT S T02710261=
METAR KAAA 081423Z AUTO 28004KT 10SM SCT008 BKN012 OVC120 25/23 
     A3005 RMK AO2 LTG DSNT S T02470225=
METAR KAJG 081425Z AUTO 25005KT 10SM SCT043 SCT049 BKN055 29/24 
     A3005 RMK AO2 LTG DSNT W AND NW T02900239=
METAR KAPY 081423Z AUTO 36007KT 10SM SCT008 OVC039 27/24 A2987 
     RMK AO2 T02660240=
METAR KAQO 081425Z AUTO 07005KT 8SM BKN012 BKN019 OVC047 26/23 
     A3006 RMK AO2=
METAR KARM 081425Z AUTO 05007KT 7SM SCT008 BKN015 OVC070 27/25 
     A2995 RMK AO2 LTG DSNT E T02680249=
METAR KASW 081425Z AUTO 27009KT 7SM OVC050 25/22 A3007 RMK AO2 
     T02520216=
SPECI KAUW 081427Z AUTO 31004KT 10SM SCT017 23/18 A3004 RMK AO2=
METAR KAXH 081425Z AUTO 12005KT 3SM +VCTSRA SCT013 BKN020 OVC036 
     26/24 A2998 RMK AO2 LTG DSNT E AND SE P0008 T02560235=
METAR KBBD 081425Z AUTO 11003KT 10SM BKN009 BKN034 OVC055 24/22 
     A3006 RMK=
METAR KBEA 081423Z AUTO 05009KT 10SM RA SCT005 BKN025 OVC120 
     24/24 A2990 RMK AO2 P0001 T02440244=
METAR KBKD 081421Z AUTO 13004KT 10SM SCT006 BKN030 26/24 A3005 
     RMK AO2 T02610237=
METAR KBKS 081426Z AUTO 01007KT 10SM BKN008 OVC011 27/26 A2985 
     RMK AO1 T02730255=
METAR KBPC 081428Z AUTO 04005KT 10SM OVC008 20/19 A3020 RMK AO2=
METAR KBPG 081425Z AUTO 03008KT 10SM OVC008 22/20 A3015 RMK AO1 
     T02200200=
METAR KBYY 081426Z AUTO 08007KT 7SM CLR 29/27 A2992 RMK AO2 
     T02860269=
METAR KC09 081424Z AUTO 23003KT 10SM SCT012 SCT020 BKN025 24/22 
     A3003 RMK AO2=
METAR KCIR 081422Z AUTO 24005KT 10SM CLR 30/23 A3007 RMK AO2 LTG 
     DSNT N=
METAR KCPT 081425Z AUTO 09007KT 7SM SCT008 BKN011 BKN075 26/24 
     A3007 RMK AO2=
METAR KCUL 081425Z AUTO 18005KT 10SM CLR 30/23 A3005 RMK AO2 LTG 
     DSNT NW T02960230=
METAR KDKB 081425Z AUTO 32006KT 10SM SCT009 SCT015 SCT024 24/23 
     A3004 RMK AO2 T02400227=
METAR KDKR 081425Z AUTO 09005KT 5SM  BR CLR 27/27 A3005 RMK AO2=
METAR KDNV 081425Z AUTO 21004KT 10SM CLR 28/22 A3001 RMK AO2 
     T02780224=
SPECI KDPA 081427Z 24004KT 8SM BKN010 BKN013 BKN050 24/23 A3003 RMK 
    AO2 CIG 007V011=
METAR KDZB 081425Z AUTO 07004KT 5SM BR SCT011 BKN016 BKN039 26/24 
     A3000 RMK AO2 T02610240=
METAR KECU 081425Z AUTO 04006KT 9SM FEW010 24/22 A3011 RMK AO2=
####018001822####
SAUS20 KNKA 081428
METAR KENL 081424Z AUTO 24005KT 10SM VCTS SCT080 28/20 A3005 RMK 
     AO2 LTG DSNT N AND NW T02830200=
METAR KERV 081425Z AUTO 02004KT 10SM SCT019 BKN031 OVC042 25/22 
     A3003 RMK AO2 T02470222=
METAR KF05 081424Z AUTO 08006KT 030V090 10SM SCT013 SCT055 BKN070 
     27/23 A3008 RMK AO2 T02730228=
METAR KFEP 081425Z AUTO 29004KT 10SM BKN008 OVC012 24/21 A3005 
     RMK AO2 T02360207=
METAR KFOA 081425Z AUTO 20005KT 10SM VCTS CLR 31/27 A3005 RMK AO2 
     LTG DSNT W AND NW T03130266=
SPECI KGCK 081427Z 34009KT 10SM BKN013 BKN017 OVC025 19/17 A3026 RMK 
    AO2=
METAR KJOT 081426Z AUTO 20003KT 7SM SCT009 SCT026 26/23 A3003 RMK 
     AO2=
METAR KLOT 081421Z AUTO 25003KT 10SM SCT009 SCT015 BKN022 25/23 
     A3003 RMK AO2=
SPECI KLXV 081424Z AUTO 00000KT 10SM BKN010 08/06 A3053 RMK AO2
     CIG 007V013 TSNO=
METAR KOLY 081425Z AUTO 19005KT 10SM SCT043 31/24 A3005 RMK AO2 
     LTG DSNT W AND NW=
METAR KOXI 081425Z AUTO 00000KT 10SM SCT100 25/22 A3002 RMK AO1 
     T02500224=
METAR KOZA 081421Z AUTO 11005KT 10SM SCT012 OVC022 25/22 A3010 
     RMK AO2 T02480215=
METAR KPNT 081425Z AUTO 27005KT 10SM SCT011 OVC017 25/23 A3004 
     RMK AO2 LTG DSNT S=
METAR KPPQ 081425Z AUTO 29003KT 10SM SCT013 BKN024 BKN030 24/23 
     A3008 RMK AO2 LTG DSNT SE=
METAR KPRG 081425Z AUTO 24005KT 10SM CLR 28/23 A3005 RMK AO2 LTG 
     DSNT SW AND W T02900237=
METAR KPVW 081421Z AUTO 02006KT 10SM OVC009 21/19 A3019 RMK AO2=
METAR KRPJ 081425Z AUTO 29006KT 10SM OVC016 23/20 A3005 RMK AO2 
     T02260199=
METAR KRSV 081425Z AUTO 26007KT 10SM CLR 31/23 A3006 RMK AO2 
     T03050234=
METAR KSFY 081425Z AUTO 33004KT 10SM SCT007 25/21 A3004 RMK AO2=
SPECI KUUU 081427Z AUTO 13007KT 10SM FEW008 BKN013 25/22 A3010 RMK 
    AO2=
####018003745####
SAUS99 KWBC 081429
METAR
K0F2 081424Z AUTO 14004KT 3SM RA SCT006 BKN035 OVC048 23/22 A3006
     RMK AO2 P0022 T02250215=
K11R 081425Z AUTO 08007KT 5SM -RA SCT021 SCT027 SCT037 25/23 A3000
     RMK AO2 LTG DSNT SE P0005=
K1H2 081425Z AUTO 24010KT 10SM VCTS SCT043 BKN100 30/24 A3005 RMK
     AO2 LTG DSNT W T03030242=
K3LF 081425Z AUTO 21003KT 10SM TS SCT075 SCT080 BKN120 24/23 A3007
     RMK AO2 LTG DSNT E AND SE=
K3T5 081424Z AUTO 00000KT 2 1/2SM +RA SCT008 BKN016 OVC036 25/24
     A2997 RMK AO2 LTG DSNT SE P0012 T02480235=
K6R3 081421Z AUTO 08005KT 7SM OVC006 27/26 A3000 RMK AO2 LTG DSNT
     S T02710261=
KAAA 081423Z AUTO 28004KT 10SM SCT008 BKN012 OVC120 25/23 A3005
     RMK AO2 LTG DSNT S T02470225=
KAJG 081425Z AUTO 25005KT 10SM SCT043 SCT049 BKN055 29/24 A3005
     RMK AO2 LTG DSNT W AND NW T02900239=
KAPY 081423Z AUTO 36007KT 10SM SCT008 OVC039 27/24 A2987 RMK AO2
     T02660240=
KAQO 081425Z AUTO 07005KT 8SM BKN012 BKN019 OVC047 26/23 A3006 RMK
     AO2=
KARM 081425Z AUTO 05007KT 7SM SCT008 BKN015 OVC070 27/25 A2995 RMK
     AO2 LTG DSNT E T02680249=
KASW 081425Z AUTO 27009KT 7SM OVC050 25/22 A3007 RMK AO2
     T02520216=
KAXH 081425Z AUTO 12005KT 3SM +VCTSRA SCT013 BKN020 OVC036 26/24
     A2998 RMK AO2 LTG DSNT E AND SE P0008 T02560235=
KBBD 081425Z AUTO 11003KT 10SM BKN009 BKN034 OVC055 24/22 A3006
     RMK=
KBEA 081423Z AUTO 05009KT 10SM RA SCT005 BKN025 OVC120 24/24 A2990
     RMK AO2 P0001 T02440244=
KBKD 081421Z AUTO 13004KT 10SM SCT006 BKN030 26/24 A3005 RMK AO2
     T02610237=
KBKS 081426Z AUTO 01007KT 10SM BKN008 OVC011 27/26 A2985 RMK AO1
     T02730255=
KBPC 081428Z AUTO 04005KT 10SM OVC008 20/19 A3020 RMK AO2=
KBPG 081425Z AUTO 03008KT 10SM OVC008 22/20 A3015 RMK AO1
     T02200200=
KBYY 081426Z AUTO 08007KT 7SM CLR 29/27 A2992 RMK AO2
     T02860269=
KC09 081424Z AUTO 23003KT 10SM SCT012 SCT020 BKN025 24/22 A3003
     RMK AO2=
KCIR 081422Z AUTO 24005KT 10SM CLR 30/23 A3007 RMK AO2 LTG DSNT
     N=
KCPT 081425Z AUTO 09007KT 7SM SCT008 BKN011 BKN075 26/24 A3007 RMK
     AO2=
KCUL 081425Z AUTO 18005KT 10SM CLR 30/23 A3005 RMK AO2 LTG DSNT NW
     T02960230=
KDKB 081425Z AUTO 32006KT 10SM SCT009 SCT015 SCT024 24/23 A3004
     RMK AO2 T02400227=
KDKR 081425Z AUTO 09005KT 5SM BR CLR 27/27 A3005 RMK AO2=
KDNV 081425Z AUTO 21004KT 10SM CLR 28/22 A3001 RMK AO2
     T02780224=
KDZB 081425Z AUTO 07004KT 5SM BR SCT011 BKN016 BKN039 26/24 A3000
     RMK AO2 T02610240=
KECU 081425Z AUTO 04006KT 9SM FEW010 24/22 A3011 RMK AO2=
KENL 081424Z AUTO 24005KT 10SM VCTS SCT080 28/20 A3005 RMK AO2 LTG
     DSNT N AND NW T02830200=
KERV 081425Z AUTO 02004KT 10SM SCT019 BKN031 OVC042 25/22 A3003
     RMK AO2 T02470222=
KF05 081424Z AUTO 08006KT 030V090 10SM SCT013 SCT055 BKN070 27/23
     A3008 RMK AO2 T02730228=
KFEP 081425Z AUTO 29004KT 10SM BKN008 OVC012 24/21 A3005 RMK AO2
     T02360207=
KFOA 081425Z AUTO 20005KT 10SM VCTS CLR 31/27 A3005 RMK AO2 LTG
     DSNT W AND NW T03130266=
KJOT 081426Z AUTO 20003KT 7SM SCT009 SCT026 26/23 A3003 RMK
     AO2=
KLOT 081421Z AUTO 25003KT 10SM SCT009 SCT015 BKN022 25/23 A3003
     RMK AO2=
KOLY 081425Z AUTO 19005KT 10SM SCT043 31/24 A3005 RMK AO2 LTG DSNT
     W AND NW=
KOXI 081425Z AUTO 00000KT 10SM SCT100 25/22 A3002 RMK AO1
     T02500224=
KOZA 081421Z AUTO 11005KT 10SM SCT012 OVC022 25/22 A3010 RMK AO2
     T02480215=
KPNT 081425Z AUTO 27005KT 10SM SCT011 OVC017 25/23 A3004 RMK AO2
     LTG DSNT S=
KPPQ 081425Z AUTO 29003KT 10SM SCT013 BKN024 BKN030 24/23 A3008
     RMK AO2 LTG DSNT SE=
KPRG 081425Z AUTO 24005KT 10SM CLR 28/23 A3005 RMK AO2 LTG DSNT SW
     AND W T02900237=
####018000308####
SAUS99 KWBC 081429 RRA
METAR
KPVW 081421Z AUTO 02006KT 10SM OVC009 21/19 A3019 RMK AO2=
KRPJ 081425Z AUTO 29006KT 10SM OVC016 23/20 A3005 RMK AO2
     T02260199=
KRSV 081425Z AUTO 26007KT 10SM CLR 31/23 A3006 RMK AO2
     T03050234=
KSFY 081425Z AUTO 33004KT 10SM SCT007 25/21 A3004 RMK AO2=
####018000415####
SPUS99 KWBC 081429
SPECI
KAUW 081427Z AUTO 31004KT 10SM SCT017 23/18 A3004 RMK AO2=
KDPA 081427Z 24004KT 8SM BKN010 BKN013 BKN050 24/23 A3003 RMK AO2
     CIG 007V011=
KGCK 081427Z 34009KT 10SM BKN013 BKN017 OVC025 19/17 A3026 RMK
     AO2=
KLXV 081424Z AUTO 00000KT 10SM BKN010 08/06 A3053 RMK AO2 CIG
     007V013 TSNO=
KUUU 081427Z AUTO 13007KT 10SM FEW008 BKN013 25/22 A3010 RMK
     AO2=
####018000177####
SANL32 EHDB 081425
METAR EHEH 081425Z AUTO 25004KT 9999NDV FEW350 31/11 Q1018 
BLU BLU=
METAR EHKD 081425Z AUTO 25009KT 9999NDV BKN075/// BKN080/// 21/16
Q1019 
BLU BLU=
####018000097####
SPUS43 KWBC 081429
SPECI
KGRR 081426Z 33005KT 2SM -RA BR BKN008 BKN024 OVC080 25/23 A3003=
####018000089####
SAAJ31 UBBB 081430
METAR UBBB 081430Z 34018KT CAVOK 30/29 Q1010 NOSIG RMK
R88CLRD70=
####018000077####
SPUS52 KWBC 081429
SPECI
KTOP 081426Z 02009KT 10SM OVC011 24/22 A3012=
####018000084####
SPUS52 KWBC 081429
SPECI
KSPS 081427Z 08004KT 10SM BKN011 BKN250 27/23 A3006=
####018000173####
SADL51 ETGT 081420 RRA
METAR
ETND 081420Z 22006KT 9999 FEW070 BKN280 30/10 Q1018
      BLU+=
ETNT 081420Z 29009KT 9999 SCT060 SCT120 27/15 Q1018
      BLU+BLU+=
####018000091####
SAAJ31 UBBB 081430
METAR UBBB 081430Z 34018KT CAVOK 30/29 Q1010 NOSIG RMK
R88CLRD70=
####018000096####
SPUS53 KWBC 081429
SPECI
KJLN 081426Z 36003KT 3SM RA BR BKN013 BKN030 OVC055 22/22 A3009=
####018000104####
SADL51 ETGT 081420 RRB
METAR
ETNS 081420Z 26010KT 9999 BKN110 BKN190 27/09 Q1019
      BLU BLU=
####018000089####
SPUS53 KWBC 081429
SPECI
KGLD 081426Z AUTO 15003KT 10SM FEW008 BKN038 17/16 A3030=
####018000182####
SANL32 EHDB 081425
METAR EHEH 081425Z AUTO 25004KT 9999NDV FEW350 31/11 Q1018 
BLU BLU=
METAR EHKD 081425Z AUTO 25009KT 9999NDV BKN075/// BKN080/// 21/16
Q1019 
BLU BLU=
####018000097####
SPUS73 KWBC 081429
SPECI
KGRR 081426Z 33005KT 2SM -RA BR BKN008 BKN024 OVC080 25/23 A3003=
####018000096####
SPUS73 KWBC 081429
SPECI
KJLN 081426Z 36003KT 3SM RA BR BKN013 BKN030 OVC055 22/22 A3009=
####018000084####
SPUS74 KWBC 081429
SPECI
KACV 081426Z AUTO 00000KT 4SM BR OVC001 10/09 A2996=
####018000097####
SPUS81 KWBC 081429
SPECI
KGRR 081426Z 33005KT 2SM -RA BR BKN008 BKN024 OVC080 25/23 A3003=
####018000096####
SPUS81 KWBC 081429
SPECI
KJLN 081426Z 36003KT 3SM RA BR BKN013 BKN030 OVC055 22/22 A3009=
####018000084####
SAMP31 LMMM 081430 RRA
METAR HLLT 081420Z 35010KT 320V040 8000 SKC 31/19 Q1018=
####018002947####
SAUS20 KNKA 081429
SPECI KBMQ 081428Z AUTO 09004KT 8SM FEW012 SCT027 OVC046 26/22 A3005 
    RMK AO2 RAB1355E04 P0000=
METAR KC75 081428Z AUTO 00000KT 10SM BKN022 BKN110 25/24 A3004 
     RMK AO2=
SPECI KCSM 081428Z 03006KT 8SM -RA BKN006 BKN010 OVC016 23/21 A3014 
    RMK AO2 CIG 005V009 P0000=
METAR KCVB 081424Z AUTO 06005KT 2SM -RA BKN009 OVC014 26/25 A2997 
     RMK AO2 P0016 T02550253=
METAR KCWC 081425Z AUTO 13009KT 110V210 10SM CLR 27/23 A3007 RMK 
     AO2 T02700225=
SPECI KCXO 081428Z 17008KT 1 3/4SM +RA BR SCT009 BKN013 OVC018 24/23 
    A3001 RMK AO2 RAB23 P0007=
METAR KDUX 081427Z AUTO 03008KT 10SM BKN005 OVC048 18/18 A3024 
     RMK AO2 T01830175=
METAR KE38 081425Z AUTO 00000KT 10SM CLR 21/18 A3024 RMK AO2 
     T02120183=
METAR KEBG 081426Z AUTO 02010KT 10SM SCT009 BKN047 OVC075 28/26 
     A2983 RMK AO2 T02790256=
METAR KGBG 081425Z AUTO 00000KT 4SM BR BKN008 OVC013 23/22 A3006 
     RMK AO2 LTG DSNT SE=
METAR KGDJ 081424Z AUTO 04004KT 10SM OVC010 27/24 A3006 RMK AO2 
     T02650236=
METAR KGNC 081425Z AUTO 05008KT 10SM SCT048 BKN065 OVC100 22/20 
     A3018 RMK AO2 T02160198=
METAR KGOP 081420Z AUTO 08005KT 6SM  BR SCT009 SCT027 BKN045 
     26/24 A3005 RMK AO2=
METAR KGVT 081425Z AUTO 13005KT 10SM SCT012 BKN055 27/23 A3007 
     RMK AO2=
METAR KGWB 081425Z AUTO 23006KT 10SM SCT055 SCT075 30/16 A3005 
     RMK AO2=
METAR KGYB 081425Z AUTO 00000KT 2SM RA BKN011 BKN020 OVC029 23/23 
     A3003 RMK AO2 P0024 T02310230=
METAR KGYI 081424Z AUTO 15010KT BKN037 BKN050 OVC080 26/25 A3007 
     RMK AO2 T02600247 PWINO=
METAR KHBV 081420Z AUTO 02008KT 10SM BKN014 OVC031 26/24 A2990 
     RMK AO2 T02600236=
METAR KHHF 081425Z AUTO 02003KT 10SM BKN007 BKN016 OVC070 21/20 
     A3017 RMK AO2 T02110203=
METAR KHRX 081425Z AUTO 04011G16KT 10SM BKN009 OVC028 19/17 A3024 
     RMK AO2 T01930170=
METAR KHSB 081425Z AUTO 23003KT 10SM SCT100 29/21 A3006 RMK AO2 
     LTG DSNT N=
METAR KIGQ 081425Z AUTO 00000KT 4SM BR SCT007 BKN031 24/23 A3003 
     RMK AO2 P0008=
METAR KIJX 081425Z AUTO 29004KT 7SM VCTS SCT007 BKN011 25/23 
     A3007 RMK AO2 LTG DSNT SE T02460230=
METAR KINJ 081425Z AUTO 10008KT 7SM SCT010 BKN027 BKN034 26/23 
     A3004 RMK AO2 T02610231=
METAR KJAS 081426Z AUTO 11006KT 10SM SCT012 29/25 A3005 RMK AO2 
     T02850254=
METAR KJDD 081425Z AUTO 13004KT 7SM BKN010 BKN014 26/25 A3007 RMK 
     AO2=
METAR KJSO 081430Z AUTO 10004KT 7SM BKN110 25/24 A3008 RMK AO2 
     T02530240=
METAR KJWY 081425Z AUTO 10005KT 7SM 26/23 A3006 RMK AO2 T02600228=
METAR KJXI 081425Z AUTO 11003KT CLR 27/24 A3008 RMK AO2=
METAR KLBR 081425Z AUTO 15004KT 10SM SCT007 SCT055 27/23 A3007 
     RMK AO2 T02650231=
METAR KLHB 081424Z AUTO 08004KT 3SM HZ OVC013 27/24 A3001 RMK AO2 
     T02660237=
METAR KLNC 081425Z AUTO 10005KT 10SM SCT008 SCT013 BKN018 26/24 
     A3005 RMK AO2 T02620241=
####018001417####
SAUS20 KNKA 081429
METAR KLUD 081425Z AUTO 12007KT 10SM BKN013 BKN029 BKN041 26/23 
     A3007 RMK AO2 T02620226=
METAR KM30 081426Z AUTO 23003KT 10SM CLR 29/22 A3006 RMK AO2 LTG 
     DSNT NW=
METAR KMDD 081420Z AUTO 04006KT 10SM OVC006 22/21 A3014 RMK AO2 
     T02220205=
METAR KMKN 081420Z AUTO 09005KT 5SM  BR 25/24 A3007 RMK AO2=
METAR KMNZ 081430Z AUTO 11006KT 10SM OVC009 26/24 A3005 RMK AO2 
     T02600237=
METAR KMQB 081425Z AUTO 33006KT 7SM OVC008 24/22 A3009 RMK AO2 
     T02350220=
METAR KOSA 081424Z AUTO 11006KT 10SM BKN008 26/24 A3008 RMK AO1 
     T02630241=
METAR KPEZ 081425Z AUTO 06007KT 10SM -RA BKN011 OVC023 26/23 
     A2995 RMK AO2 T02560230=
METAR KPKV 081426Z AUTO 14006KT 10SM SCT011 BKN018 OVC038 25/23 
     A2990 RMK AO2 P0011 T02460229=
METAR KPPA 081425Z AUTO 05011KT 10SM OVC007 19/18 A3022 RMK AO2=
METAR KPSN 081425Z AUTO 08006KT 7SM 27/24 A3006 RMK AO2 T02650244=
METAR KPYX 081430Z AUTO 34008KT 4SM OVC004 20/19 A3021 RMK AO2 
     T01960188=
METAR KRBO 081425Z AUTO 04006KT 10SM -RA SCT037 SCT047 BKN085 
     27/26 A2987 RMK AO2 P0001 T02670255=
METAR KRPH 081425Z AUTO 16004KT 10SM SCT060 27/22 A3004 RMK AO2 
     T02730217=
METAR KSEP 081425Z AUTO 07003KT 2SM SCT006 BKN021 OVC034 24/22 
     A3007 RMK AO1 P0009=
SPECI KSSF 081428Z 05010G15KT 10SM -RA BKN012 BKN020 BKN027 27/23 
    A2995 RMK AO2 RAB24 P0000=
####018000089####
SPUS81 KWBC 081429
SPECI
KMWT 081426Z AUTO 00000KT 10SM SCT017 BKN060 26/23 A3009=
####018000084####
SPUS81 KWBC 081429
SPECI
KSPS 081427Z 08004KT 10SM BKN011 BKN250 27/23 A3006=
####018000078####
SPCN44 CWAO 081428
SPECI CYUS 081428Z AUTO ///// 9SM FEW089 14/ A2978=

####018000153####
SARS18 KAWN 081400 RRG
METAR ESSA 081420Z 26011KT 9999 SCT045 24/13 Q1016 NOSIG=
METAR UBBB 081430Z 34018KT CAVOK 30/29 Q1010 NOSIG RMK R88CLRD70=
####018000375####
SPNA14 KAWN 081429 RRC
SPECI KNGP 081421Z 07006KT 10SM -RA FEW012 SCT019CB SCT030 27/26 A2985
      RMK AO2 CB DSNT N TCU DSNT E-SE AND SW-W WR// P0000 $=
SPECI KNQI 081421Z 04007KT 6SM -RA BKN010CB BKN085 BKN280 28/26 A2986
      RMK AO2 RAB21 CB DSNT NE AND E-SE AND NW P0000 $=
SPECI KTIK 081423Z AUTO 36005KT 10SM SCT009 25/22 A3007 RMK AO2 SLP172
      $=
####018000597####
SAUK KAWN 081400 RRF
METAR COR EGCC 081420Z 22010KT 9999 SCT046 21/09 Q1017 NOSIG=
METAR EGDM 081350Z 21011KT 9999 SCT033 BKN200 24/14 Q1018 BLU NOSIG=
METAR EGGD 081420Z 28006KT 240V320 9999 FEW039 21/10 Q1019=
METAR EGHE 081420Z 21008KT 9999 FEW018 BKN025 19/15 Q1018=
METAR EGNS 081420Z 19011KT 9999 FEW012 16/13 Q1016 NOSIG=
METAR EGNV 081420Z 24017KT 9999 FEW040 21/08 Q1016=
METAR COR EGPB 081420Z 20013KT 9999 FEW030 15/11 Q1008 NOSIG=
METAR EGUB 081350Z AUTO 22008KT 9999NDV // FEW044/// SCT190/// 24/12
      Q1018=
METAR EGXG 081350Z 26012KT CAVOK 22/06 Q1016 BLU=
####018000075####
SALY31 HLLB 081430
METAR HLLB 081425Z 32025KT 9999 FEW025 30/18 Q1016=
####018001751####
SAEU KAWN 081400 RRX
METAR EDHL 081420Z 27006KT 220V310 CAVOK 29/13 Q1018 RMK V=
METAR EDLW 081420Z 25008KT 210V290 CAVOK 31/11 Q1019 RMK ATIS W=
METAR EDNY 081420Z VRB03KT CAVOK 30/11 Q1021 RMK ATIS V=
METAR EGDM 081350Z 21011KT 9999 SCT033 BKN200 24/14 Q1018 BLU NOSIG=
METAR EGUB 081350Z AUTO 22008KT 9999NDV // FEW044/// SCT190/// 24/12
      Q1018=
METAR EGXG 081350Z 26012KT CAVOK 22/06 Q1016 BLU=
METAR EHAM 081425Z 29008KT 260V320 CAVOK 26/14 Q1019 NOSIG=
METAR EHBK 081425Z AUTO VRB03KT 9999NDV NCD 31/11 Q1018 NOSIG=
METAR EHDL 081425Z AUTO 17005KT 9999NDV NCD 31/13 Q1018 BLU=
METAR EHGG 081425Z AUTO 25009KT 200V290 9999NDV NSC 27/13 Q1018 NOSIG=
METAR EHGR 081425Z AUTO 08004KT 9999NDV FEW360 31/11 Q1018 BLU BLU=
METAR EHKD 081425Z AUTO 25009KT 9999NDV BKN075/// BKN080/// 21/16 Q1019
      BLU BLU=
METAR EHLW 081425Z AUTO 24008KT 9999NDV OVC160 25/17 Q1018 BLU BLU=
METAR EHRD 081425Z 30006KT 210V020 CAVOK 27/14 Q1018 NOSIG=
METAR EHVK 081425Z AUTO 22005G18KT 9999NDV FEW270 32/11 Q1018 BLU BLU=
METAR EHVL 081425Z AUTO 26011KT 9999NDV FEW077 BKN089 BKN160 20/16
      Q1019 BLU=
METAR EHWO 081425Z AUTO 28007KT 9999NDV FEW380 29/14 Q1018 BLU=
METAR ENEV 081425Z 27005KT 200V020 9999 VCSH FEW020 SCT034 BKN053 14/11
      Q1010=
METAR ETND 081420Z 22006KT 9999 FEW070 BKN280 30/10 Q1018 BLU/=
METAR ETNS 081420Z 26010KT 9999 BKN110 BKN190 27/09 Q1019 BLU BLU=
METAR ETNT 081420Z 29009KT 9999 SCT060 SCT120 27/15 Q1018 BLU/BLU/=
METAR LIMC 081420Z 24007KT 210V290 9999 FEW025 28/16 Q1021 NOSIG=
METAR LIML 081420Z 12005KT 070V170 9999 FEW030 29/16 Q1020 NOSIG=
METAR LIRF 081420Z 24011KT 210V270 CAVOK 29/18 Q1019 NOSIG=
METAR LIRQ 081420Z 10004KT 360V170 CAVOK 32/13 Q1019=
####018000051####
SAUS90 KWBC 081430
METAR K8S0 081325Z 08002KT=
####018000107####
SPUS90 KWBC 081430
SPECI KMWT 081426Z AUTO 00000KT 10SM SCT017 BKN060 26/23 A3009 RMK
     AO2 TSNO=
####018000105####
SPFG20 SOCA 081427
SPECI SOCA 081427Z 08007KT 030V120 9000 BKN019 SCT043 27/25 Q1013
NOSIG RMK B2=
####018000389####
SAUK36 EGGY 081420
METAR EGBE 081420Z NIL=
METAR EGBJ 081420Z 23008KT 9999 FEW045 23/08 Q1018=
METAR EGCN 081420Z 25014KT 9999 FEW049 23/09 Q1018=
METAR EGDL 081420Z NIL=
METAR EGSC 081420Z 22008KT 150V260 9999 FEW042 24/12 Q1018=
METAR EGSD 081420Z NIL=
METAR COR EGSH 081420Z 23009KT 170V280 9999 SCT034 26/13 Q1018
    NOSIG=
METAR EGVN 081420Z NIL=
METAR EGWU 081420Z NIL=
####018000080####
SACN94 KWBC 081430
METAR CWQR 081422Z AUTO 14009KT 12/12 RMK AO1 T01180118=
####018000257####
SAPK31 OPKC 081430
METAR OPGD 081430Z NIL=
METAR OPKC 081425Z 22012KTS 8000 SCT020 SCT100 33/26 Q1003 NOSIG=
METAR OPLA 081425Z 14010KT 6000 SCT040 36/23 Q1003=
METAR OPNH 081430Z NIL=
METAR OPPS 081430Z NIL=????????????R?1?
METAR OPSK 081430Z NIL=
####018000491####
SAUS20 KNKA 081429
SPECI KBMI 081429Z 26008KT 10SM FEW012 BKN017 BKN065 25/23 A3007 RMK 
    AO2 $=
SPECI KFST 081428Z AUTO 36005KT 9SM SCT006 BKN013 OVC055 22/21 A3012 
    RMK AO2 RAE27 P0000=
SPECI KGUY 081428Z AUTO 02009KT 6SM -RA BR SCT008 OVC012 19/18 A3024 
    RMK AO2 RAB1358 P0000=
SPECI KISP 081428Z 14008KT 10SM BKN021 BKN130 BKN250 28/19 A3004 RMK 
    AO2=
SPECI KMKO 081428Z AUTO 00000KT 7SM -RA FEW003 OVC010 24/23 A3007 
    RMK AO2 CIG 007V012 P0000=
####018000420####
SPUS99 KWBC 081430
SPECI
KBMQ 081428Z AUTO 09004KT 8SM FEW012 SCT027 OVC046 26/22 A3005 RMK
     AO2 RAB1355E04 P0000=
KCSM 081428Z 03006KT 8SM -RA BKN006 BKN010 OVC016 23/21 A3014 RMK
     AO2 CIG 005V009 P0000=
KCXO 081428Z 17008KT 1 3/4SM +RA BR SCT009 BKN013 OVC018 24/23
     A3001 RMK AO2 RAB23 P0007=
KSSF 081428Z 05010G15KT 10SM -RA BKN012 BKN020 BKN027 27/23 A2995
     RMK AO2 RAB24 P0000=
####018003631####
SAUS99 KWBC 081430
METAR
KC75 081428Z AUTO 00000KT 10SM BKN022 BKN110 25/24 A3004 RMK
     AO2=
KCVB 081424Z AUTO 06005KT 2SM -RA BKN009 OVC014 26/25 A2997 RMK
     AO2 P0016 T02550253=
KCWC 081425Z AUTO 13009KT 110V210 10SM CLR 27/23 A3007 RMK AO2
     T02700225=
KDUX 081427Z AUTO 03008KT 10SM BKN005 OVC048 18/18 A3024 RMK AO2
     T01830175=
KE38 081425Z AUTO 00000KT 10SM CLR 21/18 A3024 RMK AO2
     T02120183=
KEBG 081426Z AUTO 02010KT 10SM SCT009 BKN047 OVC075 28/26 A2983
     RMK AO2 T02790256=
KGBG 081425Z AUTO 00000KT 4SM BR BKN008 OVC013 23/22 A3006 RMK AO2
     LTG DSNT SE=
KGDJ 081424Z AUTO 04004KT 10SM OVC010 27/24 A3006 RMK AO2
     T02650236=
KGNC 081425Z AUTO 05008KT 10SM SCT048 BKN065 OVC100 22/20 A3018
     RMK AO2 T02160198=
KGOP 081420Z AUTO 08005KT 6SM BR SCT009 SCT027 BKN045 26/24 A3005
     RMK AO2=
KGVT 081425Z AUTO 13005KT 10SM SCT012 BKN055 27/23 A3007 RMK
     AO2=
KGWB 081425Z AUTO 23006KT 10SM SCT055 SCT075 30/16 A3005 RMK
     AO2=
KGYB 081425Z AUTO 00000KT 2SM RA BKN011 BKN020 OVC029 23/23 A3003
     RMK AO2 P0024 T02310230=
KGYI 081424Z AUTO 15010KT BKN037 BKN050 OVC080 26/25 A3007 RMK AO2
     T02600247 PWINO=
KHBV 081420Z AUTO 02008KT 10SM BKN014 OVC031 26/24 A2990 RMK AO2
     T02600236=
KHHF 081425Z AUTO 02003KT 10SM BKN007 BKN016 OVC070 21/20 A3017
     RMK AO2 T02110203=
KHRX 081425Z AUTO 04011G16KT 10SM BKN009 OVC028 19/17 A3024 RMK
     AO2 T01930170=
KHSB 081425Z AUTO 23003KT 10SM SCT100 29/21 A3006 RMK AO2 LTG DSNT
     N=
KIGQ 081425Z AUTO 00000KT 4SM BR SCT007 BKN031 24/23 A3003 RMK AO2
     P0008=
KIJX 081425Z AUTO 29004KT 7SM VCTS SCT007 BKN011 25/23 A3007 RMK
     AO2 LTG DSNT SE T02460230=
KINJ 081425Z AUTO 10008KT 7SM SCT010 BKN027 BKN034 26/23 A3004 RMK
     AO2 T02610231=
KJAS 081426Z AUTO 11006KT 10SM SCT012 29/25 A3005 RMK AO2
     T02850254=
KJDD 081425Z AUTO 13004KT 7SM BKN010 BKN014 26/25 A3007 RMK
     AO2=
KJSO 081430Z AUTO 10004KT 7SM BKN110 25/24 A3008 RMK AO2
     T02530240=
KJWY 081425Z AUTO 10005KT 7SM 26/23 A3006 RMK AO2 T02600228=
KJXI 081425Z AUTO 11003KT CLR 27/24 A3008 RMK AO2=
KLBR 081425Z AUTO 15004KT 10SM SCT007 SCT055 27/23 A3007 RMK AO2
     T02650231=
KLHB 081424Z AUTO 08004KT 3SM HZ OVC013 27/24 A3001 RMK AO2
     T02660237=
KLNC 081425Z AUTO 10005KT 10SM SCT008 SCT013 BKN018 26/24 A3005
     RMK AO2 T02620241=
KLUD 081425Z AUTO 12007KT 10SM BKN013 BKN029 BKN041 26/23 A3007
     RMK AO2 T02620226=
KM30 081426Z AUTO 23003KT 10SM CLR 29/22 A3006 RMK AO2 LTG DSNT
     NW=
KMDD 081420Z AUTO 04006KT 10SM OVC006 22/21 A3014 RMK AO2
     T02220205=
KMKN 081420Z AUTO 09005KT 5SM BR 25/24 A3007 RMK AO2=
KMNZ 081430Z AUTO 11006KT 10SM OVC009 26/24 A3005 RMK AO2
     T02600237=
KMQB 081425Z AUTO 33006KT 7SM OVC008 24/22 A3009 RMK AO2
     T02350220=
KOSA 081424Z AUTO 11006KT 10SM BKN008 26/24 A3008 RMK AO1
     T02630241=
KPEZ 081425Z AUTO 06007KT 10SM -RA BKN011 OVC023 26/23 A2995 RMK
     AO2 T02560230=
KPKV 081426Z AUTO 14006KT 10SM SCT011 BKN018 OVC038 25/23 A2990
     RMK AO2 P0011 T02460229=
KPPA 081425Z AUTO 05011KT 10SM OVC007 19/18 A3022 RMK AO2=
KPSN 081425Z AUTO 08006KT 7SM 27/24 A3006 RMK AO2 T02650244=
KPYX 081430Z AUTO 34008KT 4SM OVC004 20/19 A3021 RMK AO2
     T01960188=
KRBO 081425Z AUTO 04006KT 10SM -RA SCT037 SCT047 BKN085 27/26
     A2987 RMK AO2 P0001 T02670255=
KRPH 081425Z AUTO 16004KT 10SM SCT060 27/22 A3004 RMK AO2
     T02730217=
KSEP 081425Z AUTO 07003KT 2SM SCT006 BKN021 OVC034 24/22 A3007 RMK
     AO1 P0009=
####018000099####
SAAJ31 UBBB 081430
UBBN 081430Z 12014KT 9999 NSC 36/09 Q1007 R14R/CLRD60 NOSIG
RMK G/O QFE681=
####018000646####
SANL33 EHDB 081425
METAR EHAK 081425Z AUTO 23009KT 9999NDV 16/13 Q1017=
METAR EHDV 081425Z NIL=
METAR EHFD 081425Z AUTO 22012KT 9999NDV SCT040/// 17/15 Q1019=
METAR EHFZ 081425Z AUTO 23009KT 9999NDV 17/15 Q1019=
METAR EHJA 081425Z AUTO 22008KT 9999NDV 16/13 Q1018=
METAR EHJR 081425Z NIL=
METAR EHKV 081425Z AUTO 25010KT 9999NDV SCT029/// 17/15 Q1019=
METAR EHMA 081425Z AUTO 26013KT 9999NDV 22/17 Q1019=
METAR EHMG 081425Z AUTO 25010KT 9999NDV 17/15 Q1019=
METAR EHPG 081425Z AUTO 20010KT 180V240 9999NDV ///////// 16/15
Q1019=
METAR EHQE 081425Z AUTO 22010KT 9999NDV 16/15 Q1019=
METAR EHSA 081425Z NIL=
METAR EHSC 081425Z NIL=
####018000088####
SAUZ31 UTTT 081430
METAR UTTT 081430Z 36003MPS CAVOK 36/09 Q1009 R08R/CLRD70
NOSIG=
####018000194####
SPUS80 KWBC 081430
SPECI
KMWT 081426Z AUTO 00000KT 10SM SCT017 BKN060 26/23 A3009 RMK AO2
     TSNO=
KLXV 081424Z AUTO 00000KT 10SM BKN010 08/06 A3053 RMK AO2 CIG
     007V013 TSNO=
####018000114####
SAXX60 KWBC 081430
METAR
KAPY 081423Z AUTO 36007KT 10SM SCT008 OVC039 27/24 A2987 RMK AO2
     T02660240=
####018000404####
SAUK37 EGGY 081420
METAR EGAE 081420Z 21011KT 9999 FEW022 19/10 Q1012=
METAR EGNC 081420Z NIL=
METAR EGNH 081420Z 24011KT 9999 FEW031 19/11 Q1017=
METAR EGNJ 081420Z 23014KT 200V260 9999 SCT040 24/08 Q1017=
METAR EGNR 081420Z 24011KT 9999 SCT040 21/09 Q1017=
METAR EGPE 081420Z 21020KT 9999 FEW018 SCT048 17/09 Q1010=
METAR EGPI 081420Z NIL=
METAR EGPN 081420Z 24020KT 9999 SCT045 19/11 Q1012=
####018000403####
SAUK38 EGGY 081420
METAR EGEC 081420Z NIL=
METAR EGPA 081420Z 24012KT 9999 -RADZ FEW020CB SCT028 BKN035
    14/12 Q1009 RERA=
METAR EGPC 081420Z 21014G24KT 170V240 9999 SHRA SCT020 16/11
    Q1009=
METAR EGPL 081420Z 22020KT 9999 FEW018 15/12 Q1009=
METAR EGPM 081420Z 22022KT 9999 FEW029 16/10 Q1007=
METAR EGPO 081420Z 22025KT 9999 VCSH FEW022CB SCT034 18/10 Q1007=
METAR EGPU 081420Z NIL=
####018003429####
SAUS70 KWBC 081430 RRA
METAR
KC75 081428Z AUTO 00000KT 10SM BKN022 BKN110 25/24 A3004 RMK
     AO2=
KCVB 081424Z AUTO 06005KT 2SM -RA BKN009 OVC014 26/25 A2997 RMK
     AO2 P0016 T02550253=
KCWC 081425Z AUTO 13009KT 110V210 10SM CLR 27/23 A3007 RMK AO2
     T02700225=
KDUX 081427Z AUTO 03008KT 10SM BKN005 OVC048 18/18 A3024 RMK AO2
     T01830175=
KE38 081425Z AUTO 00000KT 10SM CLR 21/18 A3024 RMK AO2
     T02120183=
KEBG 081426Z AUTO 02010KT 10SM SCT009 BKN047 OVC075 28/26 A2983
     RMK AO2 T02790256=
KGBG 081425Z AUTO 00000KT 4SM BR BKN008 OVC013 23/22 A3006 RMK AO2
     LTG DSNT SE=
KGDJ 081424Z AUTO 04004KT 10SM OVC010 27/24 A3006 RMK AO2
     T02650236=
KGNC 081425Z AUTO 05008KT 10SM SCT048 BKN065 OVC100 22/20 A3018
     RMK AO2 T02160198=
KGOP 081420Z AUTO 08005KT 6SM BR SCT009 SCT027 BKN045 26/24 A3005
     RMK AO2=
KGVT 081425Z AUTO 13005KT 10SM SCT012 BKN055 27/23 A3007 RMK
     AO2=
KGWB 081425Z AUTO 23006KT 10SM SCT055 SCT075 30/16 A3005 RMK
     AO2=
KGYB 081425Z AUTO 00000KT 2SM RA BKN011 BKN020 OVC029 23/23 A3003
     RMK AO2 P0024 T02310230=
KGYI 081424Z AUTO 15010KT BKN037 BKN050 OVC080 26/25 A3007 RMK AO2
     T02600247 PWINO=
KHBV 081420Z AUTO 02008KT 10SM BKN014 OVC031 26/24 A2990 RMK AO2
     T02600236=
KHHF 081425Z AUTO 02003KT 10SM BKN007 BKN016 OVC070 21/20 A3017
     RMK AO2 T02110203=
KHRX 081425Z AUTO 04011G16KT 10SM BKN009 OVC028 19/17 A3024 RMK
     AO2 T01930170=
KHSB 081425Z AUTO 23003KT 10SM SCT100 29/21 A3006 RMK AO2 LTG DSNT
     N=
KIGQ 081425Z AUTO 00000KT 4SM BR SCT007 BKN031 24/23 A3003 RMK AO2
     P0008=
KIJX 081425Z AUTO 29004KT 7SM VCTS SCT007 BKN011 25/23 A3007 RMK
     AO2 LTG DSNT SE T02460230=
KINJ 081425Z AUTO 10008KT 7SM SCT010 BKN027 BKN034 26/23 A3004 RMK
     AO2 T02610231=
KJAS 081426Z AUTO 11006KT 10SM SCT012 29/25 A3005 RMK AO2
     T02850254=
KJDD 081425Z AUTO 13004KT 7SM BKN010 BKN014 26/25 A3007 RMK
     AO2=
KJSO 081430Z AUTO 10004KT 7SM BKN110 25/24 A3008 RMK AO2
     T02530240=
KJWY 081425Z AUTO 10005KT 7SM 26/23 A3006 RMK AO2 T02600228=
KJXI 081425Z AUTO 11003KT CLR 27/24 A3008 RMK AO2=
KLBR 081425Z AUTO 15004KT 10SM SCT007 SCT055 27/23 A3007 RMK AO2
     T02650231=
KLHB 081424Z AUTO 08004KT 3SM HZ OVC013 27/24 A3001 RMK AO2
     T02660237=
KLNC 081425Z AUTO 10005KT 10SM SCT008 SCT013 BKN018 26/24 A3005
     RMK AO2 T02620241=
KLUD 081425Z AUTO 12007KT 10SM BKN013 BKN029 BKN041 26/23 A3007
     RMK AO2 T02620226=
KM30 081426Z AUTO 23003KT 10SM CLR 29/22 A3006 RMK AO2 LTG DSNT
     NW=
KMDD 081420Z AUTO 04006KT 10SM OVC006 22/21 A3014 RMK AO2
     T02220205=
KMNZ 081430Z AUTO 11006KT 10SM OVC009 26/24 A3005 RMK AO2
     T02600237=
KMQB 081425Z AUTO 33006KT 7SM OVC008 24/22 A3009 RMK AO2
     T02350220=
KOSA 081424Z AUTO 11006KT 10SM BKN008 26/24 A3008 RMK AO1
     T02630241=
KPEZ 081425Z AUTO 06007KT 10SM -RA BKN011 OVC023 26/23 A2995 RMK
     AO2 T02560230=
KPKV 081426Z AUTO 14006KT 10SM SCT011 BKN018 OVC038 25/23 A2990
     RMK AO2 P0011 T02460229=
KPPA 081425Z AUTO 05011KT 10SM OVC007 19/18 A3022 RMK AO2=
KPYX 081430Z AUTO 34008KT 4SM OVC004 20/19 A3021 RMK AO2
     T01960188=
KRBO 081425Z AUTO 04006KT 10SM -RA SCT037 SCT047 BKN085 27/26
     A2987 RMK AO2 P0001 T02670255=
KRPH 081425Z AUTO 16004KT 10SM SCT060 27/22 A3004 RMK AO2
     T02730217=
####018003711####
SAUS70 KWBC 081430
METAR
K0F2 081424Z AUTO 14004KT 3SM RA SCT006 BKN035 OVC048 23/22 A3006
     RMK AO2 P0022 T02250215=
K11R 081425Z AUTO 08007KT 5SM -RA SCT021 SCT027 SCT037 25/23 A3000
     RMK AO2 LTG DSNT SE P0005=
K1H2 081425Z AUTO 24010KT 10SM VCTS SCT043 BKN100 30/24 A3005 RMK
     AO2 LTG DSNT W T03030242=
K3LF 081425Z AUTO 21003KT 10SM TS SCT075 SCT080 BKN120 24/23 A3007
     RMK AO2 LTG DSNT E AND SE=
K3T5 081424Z AUTO 00000KT 2 1/2SM +RA SCT008 BKN016 OVC036 25/24
     A2997 RMK AO2 LTG DSNT SE P0012 T02480235=
K6R3 081421Z AUTO 08005KT 7SM OVC006 27/26 A3000 RMK AO2 LTG DSNT
     S T02710261=
KAAA 081423Z AUTO 28004KT 10SM SCT008 BKN012 OVC120 25/23 A3005
     RMK AO2 LTG DSNT S T02470225=
KAJG 081425Z AUTO 25005KT 10SM SCT043 SCT049 BKN055 29/24 A3005
     RMK AO2 LTG DSNT W AND NW T02900239=
KAQO 081425Z AUTO 07005KT 8SM BKN012 BKN019 OVC047 26/23 A3006 RMK
     AO2=
KARM 081425Z AUTO 05007KT 7SM SCT008 BKN015 OVC070 27/25 A2995 RMK
     AO2 LTG DSNT E T02680249=
KASW 081425Z AUTO 27009KT 7SM OVC050 25/22 A3007 RMK AO2
     T02520216=
KAXH 081425Z AUTO 12005KT 3SM +VCTSRA SCT013 BKN020 OVC036 26/24
     A2998 RMK AO2 LTG DSNT E AND SE P0008 T02560235=
KBBD 081425Z AUTO 11003KT 10SM BKN009 BKN034 OVC055 24/22 A3006
     RMK=
KBEA 081423Z AUTO 05009KT 10SM RA SCT005 BKN025 OVC120 24/24 A2990
     RMK AO2 P0001 T02440244=
KBKD 081421Z AUTO 13004KT 10SM SCT006 BKN030 26/24 A3005 RMK AO2
     T02610237=
KBKS 081426Z AUTO 01007KT 10SM BKN008 OVC011 27/26 A2985 RMK AO1
     T02730255=
KBPC 081428Z AUTO 04005KT 10SM OVC008 20/19 A3020 RMK AO2=
KBPG 081425Z AUTO 03008KT 10SM OVC008 22/20 A3015 RMK AO1
     T02200200=
KBYY 081426Z AUTO 08007KT 7SM CLR 29/27 A2992 RMK AO2
     T02860269=
KC09 081424Z AUTO 23003KT 10SM SCT012 SCT020 BKN025 24/22 A3003
     RMK AO2=
KCPT 081425Z AUTO 09007KT 7SM SCT008 BKN011 BKN075 26/24 A3007 RMK
     AO2=
KDKB 081425Z AUTO 32006KT 10SM SCT009 SCT015 SCT024 24/23 A3004
     RMK AO2 T02400227=
KDKR 081425Z AUTO 09005KT 5SM BR CLR 27/27 A3005 RMK AO2=
KDNV 081425Z AUTO 21004KT 10SM CLR 28/22 A3001 RMK AO2
     T02780224=
KDZB 081425Z AUTO 07004KT 5SM BR SCT011 BKN016 BKN039 26/24 A3000
     RMK AO2 T02610240=
KECU 081425Z AUTO 04006KT 9SM FEW010 24/22 A3011 RMK AO2=
KENL 081424Z AUTO 24005KT 10SM VCTS SCT080 28/20 A3005 RMK AO2 LTG
     DSNT N AND NW T02830200=
KERV 081425Z AUTO 02004KT 10SM SCT019 BKN031 OVC042 25/22 A3003
     RMK AO2 T02470222=
KF05 081424Z AUTO 08006KT 030V090 10SM SCT013 SCT055 BKN070 27/23
     A3008 RMK AO2 T02730228=
KFEP 081425Z AUTO 29004KT 10SM BKN008 OVC012 24/21 A3005 RMK AO2
     T02360207=
KFOA 081425Z AUTO 20005KT 10SM VCTS CLR 31/27 A3005 RMK AO2 LTG
     DSNT W AND NW T03130266=
KJOT 081426Z AUTO 20003KT 7SM SCT009 SCT026 26/23 A3003 RMK
     AO2=
KLOT 081421Z AUTO 25003KT 10SM SCT009 SCT015 BKN022 25/23 A3003
     RMK AO2=
KOLY 081425Z AUTO 19005KT 10SM SCT043 31/24 A3005 RMK AO2 LTG DSNT
     W AND NW=
KOXI 081425Z AUTO 00000KT 10SM SCT100 25/22 A3002 RMK AO1
     T02500224=
KOZA 081421Z AUTO 11005KT 10SM SCT012 OVC022 25/22 A3010 RMK AO2
     T02480215=
KPNT 081425Z AUTO 27005KT 10SM SCT011 OVC017 25/23 A3004 RMK AO2
     LTG DSNT S=
KPPQ 081425Z AUTO 29003KT 10SM SCT013 BKN024 BKN030 24/23 A3008
     RMK AO2 LTG DSNT SE=
KPRG 081425Z AUTO 24005KT 10SM CLR 28/23 A3005 RMK AO2 LTG DSNT SW
     AND W T02900237=
KPVW 081421Z AUTO 02006KT 10SM OVC009 21/19 A3019 RMK AO2=
KRPJ 081425Z AUTO 29006KT 10SM OVC016 23/20 A3005 RMK AO2
     T02260199=
KRSV 081425Z AUTO 26007KT 10SM CLR 31/23 A3006 RMK AO2
     T03050234=
####018000146####
SPXX60 KWBC 081430
SPECI
KNQI 081421Z COR 04007KT 6SM -RA BKN010CB BKN085 BKN280 28/26
     A2986 RMK AO2 RAB21 CB NE-SE-S MOV W P0000 $=
####018000721####
SPUS70 KWBC 081430
SPECI
KAUW 081427Z AUTO 31004KT 10SM SCT017 23/18 A3004 RMK AO2=
KDPA 081427Z 24004KT 8SM BKN010 BKN013 BKN050 24/23 A3003 RMK AO2
     CIG 007V011=
KGCK 081427Z 34009KT 10SM BKN013 BKN017 OVC025 19/17 A3026 RMK
     AO2=
KUUU 081427Z AUTO 13007KT 10SM FEW008 BKN013 25/22 A3010 RMK
     AO2=
KBMQ 081428Z AUTO 09004KT 8SM FEW012 SCT027 OVC046 26/22 A3005 RMK
     AO2 RAB1355E04 P0000=
KCSM 081428Z 03006KT 8SM -RA BKN006 BKN010 OVC016 23/21 A3014 RMK
     AO2 CIG 005V009 P0000=
KCXO 081428Z 17008KT 1 3/4SM +RA BR SCT009 BKN013 OVC018 24/23
     A3001 RMK AO2 RAB23 P0007=
KSSF 081428Z 05010G15KT 10SM -RA BKN012 BKN020 BKN027 27/23 A2995
     RMK AO2 RAB24 P0000=
####018000459####
SAUS80 KWBC 081430
METAR
KCIR 081422Z AUTO 24005KT 10SM CLR 30/23 A3007 RMK AO2 LTG DSNT
     N=
KCUL 081425Z AUTO 18005KT 10SM CLR 30/23 A3005 RMK AO2 LTG DSNT NW
     T02960230=
KSFY 081425Z AUTO 33004KT 10SM SCT007 25/21 A3004 RMK AO2=
KMKN 081420Z AUTO 09005KT 5SM BR 25/24 A3007 RMK AO2=
KPSN 081425Z AUTO 08006KT 7SM 27/24 A3006 RMK AO2 T02650244=
KSEP 081425Z AUTO 07003KT 2SM SCT006 BKN021 OVC034 24/22 A3007 RMK
     AO1 P0009=
####018000081####
SAAF35 KWBC 081400 RRE
METAR
HLLB 081425Z 32025KT 9999 FEW025 30/18 Q1016=
####018000094####
SADL32 KWBC 081420 RRA
METAR
EDLW 081420Z 25008KT 210V290 CAVOK 31/11 Q1019 RMK ATIS W=
####018000089####
SADL31 KWBC 081420 RRA
METAR
EDHL 081420Z 27006KT 220V310 CAVOK 29/13 Q1018 RMK V=
####018000128####
SADL33 KWBC 081415 RRC
METAR
EDNY 081420Z VRB03KT CAVOK 30/11 Q1021 RMK ATIS V=
EDNY 081420Z VRB03KT CAVOK 30/11 Q1021=
####018000632####
SANL31 KWBC 081420 RRB
METAR
EHBK 081425Z AUTO VRB03KT 9999NDV NCD 31/11 Q1018 NOSIG=
EHDL 081425Z AUTO 17005KT 9999NDV NCD 31/13 Q1018 BLU=
EHGR 081425Z AUTO 08004KT 9999NDV FEW360 31/11 Q1018 BLU BLU=
EHKD 081425Z AUTO 25009KT 9999NDV BKN075/// BKN080/// 21/16 Q1019
     BLU BLU=
EHLW 081425Z AUTO 24008KT 9999NDV OVC160 25/17 Q1018 BLU BLU=
EHRD 081425Z 30006KT 210V020 CAVOK 27/14 Q1018 NOSIG=
EHVK 081425Z AUTO 22005G18KT 9999NDV FEW270 32/11 Q1018 BLU
     BLU=
EHVL 081425Z AUTO 26011KT 9999NDV FEW077 BKN089 BKN160 20/16 Q1019
     BLU=
EHWO 081425Z AUTO 28007KT 9999NDV FEW380 29/14 Q1018 BLU=
####018000107####
SPSA31 KWBC 081430
SPECI
SOCA 081427Z 08007KT 030V120 9000 BKN019 SCT043 27/25 Q1013 NOSIG
RMK B2=
####018000412####
SAUK37 EGGY 081420
METAR EGAE 081420Z 21011KT 9999 FEW022 19/10 Q1012=
METAR EGNC 081420Z NIL=
METAR EGNH 081420Z 24011KT 9999 FEW031 19/11 Q1017=
METAR EGNJ 081420Z 23014KT 200V260 9999 SCT040 24/08 Q1017=
METAR EGNR 081420Z 24011KT 9999 SCT040 21/09 Q1017=
METAR EGPE 081420Z 21020KT 9999 FEW018 SCT048 17/09 Q1010=
METAR EGPI 081420Z NIL=
METAR EGPN 081420Z 24020KT 9999 SCT045 19/11 Q1012=
