####018000902####
SAEW KAWN 080700 RRG
METAR ETOR 080655Z 00000KT 9999 FEW060 FEW120 FEW200 25/11 A3015 RMK
      BLU=
METAR LFBY 080700Z 11001KT CAVOK 23/18 Q1016=
METAR LFLD 080700Z 11004KT 070V160 CAVOK 22/14 Q1020=
METAR LFLM 080700Z 00000KT CAVOK 23/12 Q1021=
METAR LFLQ 080700Z 33004KT CAVOK 22/13 Q1020=
METAR LFLV 080704Z VRB01KT CAVOK 21/14 Q1020=
METAR LFLW 080700Z 09005KT CAVOK 21/13 Q1022=
METAR LFMT 080708Z 05006KT 010V070 CAVOK 25/14 Q1020 NOSIG=
METAR LFMY 080704Z 04003KT 010V070 CAVOK 27/18 Q1020=
METAR LFOE 080700Z VRB01KT CAVOK 21/11 Q1019=
METAR LFOF 080700Z VRB03KT CAVOK 20/11 Q1019 NOSIG=
METAR LFOI 080700Z 30003KT 270V340 CAVOK 18/11 Q1019=
METAR LFOR 080700Z 00000KT CAVOK 23/12 Q1019=
METAR LFRJ 080700Z AUTO 00000KT 9999NDV OVC009/// 17/15 Q1020=
METAR LFRL 080700Z 36003KT 320V020 9999 BKN009 17/15 Q1019=
METAR LFXA 080700Z VRB01KT CAVOK 22/15 Q1021=
####018000306####
SPUS17 KAWN 080710 RRA
SPECI KGRK 080709Z 09005KT 7SM BKN014 BKN050 27/23 A2998=
SPECI KHST 080707Z AUTO 03007KT 10SM FEW021 SCT029 SCT038 SCT047 27/25
      A2993 RMK AO2 DZB0656E0707 FEW V SCT SLP137 $=
SPECI KLTS 080657Z AUTO 36003KT 10SM -DZ CLR 24/22 A3004 RMK AO2 DZB0657
      SLP155 $=
####018000175####
SAXX70 KAWN 080700 RRI
METAR KQOW 080655Z AUTO RMK AO2 SLPNO $=
METAR KQXJ 080655Z 30018G27KT 4000 DU HZ SCT000 43/01 A2958 RMK DU
      SCT000 SLP020 PA+337 DA+3622=
####018000402####
SPNA14 KAWN 080710
SPECI KNSE 080702Z AUTO 31003KT 3SM BR CLR 23/21 A3003 RMK AO2 $=
SPECI KNTU 080703Z 11003KT 4SM BR FEW005 26/24 A2994 RMK AO2 CHINO
      RWY 05R $=
SPECI KWRI 080705Z AUTO 13003KT 2 1/2SM R18/5000V5500FT R24/2800FT
      BR OVC002 24/24 A2999 RMK AO2 SLP157 $=
SPECI KWRI 080708Z AUTO 00000KT 3SM R18/5500FT R24/2800FT BR OVC002
      24/24 A2999 RMK AO2 SLP157 $=
####018000462####
SPNA35 KAWN 080710
SPECI KHST 080707Z AUTO 03007KT 10SM FEW021 SCT029 SCT038 SCT047 27/25
      A2993 RMK AO2 DZB0656E0707 FEW V SCT SLP137 $=
SPECI KNTU 080703Z 11003KT 4SM BR FEW005 26/24 A2994 RMK AO2 CHINO
      RWY 05R $=
SPECI KWRI 080705Z AUTO 13003KT 2 1/2SM R18/5000V5500FT R24/2800FT
      BR OVC002 24/24 A2999 RMK AO2 SLP157 $=
SPECI KWRI 080708Z AUTO 00000KT 3SM R18/5500FT R24/2800FT BR OVC002
      24/24 A2999 RMK AO2 SLP157 $=
####018000091####
SPUS73 KWBC 080710
SPECI
KSTJ 080706Z AUTO 18005KT 5SM BR SCT006 OVC120 23/22 A3006=
####018000079####
SAIR33 OIII 080700 RRB
METAR OIHH 080650Z 00000KT CAVOK 30/03 Q1017 A3005=
####018000073####
SAAL41 DAMM 080700 RRB
METAR DAAP 080700Z 11008KT CAVOK 32/10 Q1016=
####018000357####
SAAL31 DAAA 080700
METAR DAAG 080700Z 00000KT CAVOK 25/19 Q1018=
METAR DAAT 080700Z 10012KT CAVOK 29/02 Q1022=
METAR DABB 080700Z 21005KT CAVOK 24/17 Q1020=
METAR DABC 080700Z 00000KT CAVOK 21/13 Q1023=
METAR DAON 080700Z 00000KT CAVOK 27/19 Q1016=
METAR DAOO 080700Z 03004KT CAVOK 24/20 Q1016=
METAR DAUH 080700Z 12014KT CAVOK 30/21 Q1018=
####018000073####
SAME31 OLBA 080700 RRA
METAR OJAQ 080700Z 36018KT CAVOK 32/25 Q1008=
####018000076####
SPMC32 GMMC 080600 RRA
GMFM 080640Z 00000KT 3000 BR SKC 21/19 Q1017 M2=
####018000087####
SAFR34 LFPW 080700 RRA
METAR LFMT 080708Z 05006KT 010V070 CAVOK 25/14 Q1020 NOSIG=
####018000934####
SARS32 RUMS 080700
METAR URKA 080700Z 09002MPS 9999 SCT030 27/20 Q1013 NOSIG RMK уг 065=
METAR URKK 080700Z 08005MPS 9999 FEW030 SCT100 27/19 Q1013 NOSIG RMK
QFE757 SC070=
METAR URKM 080700Z 10002MPS CAVOK 27/18 Q1013 NOSIG RMK QFE741=
METAR URML 080700Z 01005G10MPS 9999 SKC 30/20 Q1013 NOSIG RMK QFE759
з/п уг07=
METAR URMM 080700Z 09004G07MPS 060V130 9999 SCT040 27/20 Q1014 NOSIG
RMK з/п SC070=
METAR URMN 080700Z 01001MPS 9999 SCT026 25/19 Q1015 NOSIG RMK з/п
QFE724 SC07=
METAR URMT 080700Z 07005G09MPS 9999 FEW020 26/17 Q1015 NOSIG RMK
QFE721 SC07=
METAR URRR 080700Z VRB01MPS 9999 FEW023 28/17 Q1014 NOSIG RMK SC070=
METAR URSS 080700Z 26002MPS 9999 SKC 27/21 Q1011 NOSIG RMK з/п QFE757
06CLRD70=
METAR URWA 080700Z 36004MPS CAVOK 33/13 Q1011 NOSIG RMK SC07=
METAR URWI 080700Z 01003MPS CAVOK 27/18 Q1014 NOSIG RMK SC065=
METAR URWW 080700Z 33004G07MPS CAVOK 27/18 Q1014 NOSIG RMK SC070=
####018000779####
SARA36 RUMS 080700
METAR UWUU 080700Z 06004MPS 020V110 CAVOK 26/08 Q1016 82010060 NOSIG
RMK QFE751/1001 MOD TURB 500-1600=
METAR USCC 080700Z 35007G10MPS 310V020 9999 FEW040 24/03 Q1014 NOSIG
RMK QFE741 27000070=
METAR USDD 080700Z 04009G12MPS CAVOK 15/00 Q1016 NOSIG RMK
QFE756/1008 SC060=
METAR USMU 080700Z 01007MPS 9000 -SHRA SCT019CB OVC066 10/09 Q1005
NOSIG RMK QFE748 09250345=
METAR USNN 080700Z 16005MPS P6000 SCT026CB BKN200 18/12 Q1002 NOSIG
RMK QFE746 SC065=
METAR USRK 080700Z 36004MPS 5000 BR OVC012 12/11 Q1002 TEMPO 2000 BR
BKN004 RMK QFE745 351///55=
METAR USRR 080700Z 36004G07MPS 6000 OVC009 12/10 Q1003 TEMPO BKN005
RMK QFE747 йръ 25////60=
METAR USSS 080700Z 36006G09MPS 320V020 CAVOK 23/02 Q1015 NOSIG RMK
QFE741 260///70=
####018000073####
SAJD31 OJAI 080700 RRA
METAR OJAQ 080700Z 36018KT CAVOK 32/25 Q1008=
####018000073####
SAJD20 OJAM 080700 RRA
METAR OJAQ 080700Z 36018KT CAVOK 32/25 Q1008=
####018000073####
SAIN31 EGGY 080700
METAR VOBG 080700Z NIL=
METAR VOCI 080700Z NIL=
####018000077####
SALY31 HLLB 080700
METAR HLLB 080650Z 
01010KT 8000 FEW020 28/19 Q1016=
####018000086####
SAPO32 LPMG 080700 RRA
METAR LPPD 080700Z 26005KT 9999 SCT014 BKN020 19/15 Q1023=
####018000081####
SAMP31 LMMM 080700 RRB
METAR HLLB 080650Z 
01010KT 8000 FEW020 28/19 Q1016=
####018000087####
SADN31 EKCH 080650 RRA
METAR EKBI 080650Z 18005KT 150V230 9999 BKN040 19/15 Q1018=
####018002867####
SAUS20 KNKA 080710
METAR KCCA 080715Z AUTO 00000KT 4SM  BR CLR 23/22 A3006 RMK AO2 =
METAR KCDN 080715Z AUTO 27003KT 10SM CLR 26/23 A2999 RMK A02 P000 
     =
METAR KCKI 080715Z AUTO 00000KT 10SM CLR 23/21 A2996 RMK AO2=
SPECI KCYS 080709Z AUTO 10006KT 2 1/2SM -RA BR OVC002 12/12 A3036 
    RMK AO2 RAB02 P0000 TSNO=
METAR KIGQ 080700Z AUTO 00000KT 3SM BR SCT055 24/22 A3004 RMK AO2=
METAR KLRO 080715Z AUTO 00000KT 10SM CLR 24/19 A2996 RMK AO2 =
METAR KMKS 080715Z AUTO 28003KT 10SM CLR 24/20 A2996 RMK AO2 TSNO=
METAR KMWA 080705Z AUTO 00000KT 10SM CLR 24/24 A3006 RMK AO2 
     T02440235=
METAR KMZZ 080655Z AUTO 00000KT 7SM CLR 21/19 A3007 RMK AO2=
METAR KOSA 080704Z AUTO 00000KT 7SM OVC012 25/24 A3002 RMK AO1 
     T02480241=
METAR KPEZ 080705Z AUTO 04006KT 10SM BKN015 25/23 A2993 RMK AO2 
     T02520228=
METAR KPKV 080706Z AUTO 06010KT 10SM BKN015 BKN025 BKN038 25/23 
     A2987 RMK AO2 T02480232=
METAR KPPA 080705Z AUTO 33005KT 10SM SCT085 BKN110 18/17 A3017 
     RMK AO2=
METAR KPSN 080705Z AUTO 12004KT 10SM 24/24 A3001 RMK AO2 T02420235=
METAR KPYX 080710Z AUTO 04010KT 7SM SCT060 SCT075 OVC110 20/19 
     A3016 RMK AO2 T02010185=
METAR KRAS 080705Z AUTO 09011KT 5SM  BR FEW001 FEW017 SCT032 
     28/26 A2986 RMK AO2 LTG DSNT N=
METAR KRBO 080705Z AUTO 02005KT 10SM SCT080 BKN090 BKN120 27/26 
     A2985 RMK AO2 LTG DSNT NE T02660255=
METAR KRFI 080705Z AUTO 00000KT 7SM CLR 25/24 A3000 RMK AO2 
     T02450235=
METAR KRPH 080705Z AUTO 05003KT 10SM CLR 24/21 A2998 RMK AO2 
     T02350212=
METAR KRWV 080700Z AUTO 00000KT 10SM BKN006 BKN019 24/24 A2999 
     RMK AO2=
METAR KRYW 080705Z AUTO 09003KT 10SM OVC012 25/22 A2999 RMK AO2=
METAR KSAR 080705Z AUTO 18003KT 10SM CLR 26/23 A3005 RMK AO2 LTG 
     DSNT W=
METAR KSEP 080705Z AUTO 00000KT 10SM SCT026 SCT070 23/21 A3001 
     RMK AO1=
METAR KSLR 080702Z AUTO 00000KT 10SM CLR 25/23 A3003 RMK AO2 
     T02530230=
METAR KSNK 080706Z AUTO 00000KT 10SM BKN110 21/20 A3007 RMK AO2 
     T02080197=
METAR KSOA 080700Z AUTO 00000KT 10SM 24/21 A3007 RMK AO2=
METAR KSWW 080705Z AUTO 14006KT 10SM CLR 22/21 A3007 RMK AO1 
     T02210208=
METAR KT65 080705Z AUTO 36005KT 10SM SCT050 26/25 A2981 RMK AO2 
     T02620252=
METAR KT82 080705Z AUTO 11003KT 24/23 A3001 RMK AO1 T02360225=
METAR KTAZ 080705Z AUTO 00000KT 10SM CLR 24/23 A3003 RMK AO2=
METAR KTFP 080705Z AUTO 00000KT 10SM -RA SCT015 SCT027 SCT075 
     27/26 A2984 RMK AO2 T02700255=
METAR KTIP 080705Z AUTO 31004KT 10SM SCT050 SCT060 SCT070 24/23 
     A3005 RMK AO2 T02420228=
SPECI KUUU 080709Z AUTO 15004KT 8SM FEW004 SCT017 BKN029 22/21 A3006 
    RMK AO2=
METAR KUVA 080705Z AUTO 03004KT 10SM CLR 24/23 A2994 RMK AO2 
     T02410227=
METAR KXBP 080705Z AUTO 13003KT 10SM BKN043 25/22 A3001 RMK AO2 
     T02510222=
####018000126####
SAAK41 KNKA 080710
SPECI PAWD 080708Z AUTO 00000KT 2SM -RA BR BKN003 BKN008 OVC060 
    10/09 A2998 RMK AO2 P0000 TSNO=
####018001484####
SARS18 KAWN 080700 RRD
METAR UHHH 080700Z 03007MPS 9999 BKN029CB OVC100 18/13 Q1010 NOSIG
      RMK QFE751/1001 55090060=
METAR UHPP 080700Z 18007MPS 9999 NSC 11/07 Q1017 NOSIG RMK QFE759/1012
      MT OBS SC070=
METAR UIAA 080700Z VRB02MPS 9999 BKN050CB OVC200 31/10 Q1005 TEMPO
      -TSRA RMK QFE695 29CLRD70=
METAR UIII 080700Z 16005MPS 9999 FEW050CB SCT100 OVC200 21/12 Q1006
      NOSIG RMK QFE712/0950 12CLRD60=
METAR ULLI 080700Z 13003MPS 090V170 CAVOK 27/19 Q1013 NOSIG=
METAR ULWW 080700Z 12004MPS CAVOK 29/19 Q1016 NOSIG RMK QFE751 15CLRD60=
METAR UMKK 080700Z 30006MPS P8000 BKN200 21/17 Q1019 NOSIG RMK QFE
      763 SC07=
METAR URKA 080700Z 09002MPS 9999 SCT030 27/20 Q1013 NOSIG RMK 065=
METAR URMM 080700Z 09004G07MPS 060V130 9999 SCT040 27/20 Q1014 NOSIG
      RMK / SC070=
METAR URSS 080700Z 26002MPS 9999 SKC 27/21 Q1011 NOSIG RMK / QFE757
      06CLRD70=
METAR UUDD 080700Z 13003MPS 100V160 CAVOK 23/18 Q1015 NOSIG=
METAR UUEE 080700Z 12005MPS CAVOK 26/17 Q1014 NOSIG=
METAR UUWW 080700Z 13003MPS 8000 SCT100 BKN200 22/18 Q1014 06000070
      NOSIG=
METAR UWGG 080700Z 12004MPS 8000 SKC 31/10 Q1016 NOSIG RMK QFE755 18090070=
METAR UWKD 080700Z 36003G06MPS CAVOK 31/13 Q1015 NOSIG RMK QFE752/1002
      11CLRD70=
METAR UWOO 080700Z 06006MPS 030V090 P5000 SCT070 30/04 Q1013 08/LRD65
      NOSIG RMK QFE749/0999=
METAR UWPP 080700Z 12004MPS 9999 SCT033CB BKN100 26/11 Q1014 NOSIG
      RMK QFE746 11090069=
####018000084####
SAMD90 KWBC 080710
METAR KCGE 080707Z AUTO 00000KT 5SM CLR 25/23 A2999 RMK AO1=
####018000084####
SAMD90 KWBC 080710
METAR K2W6 080709Z AUTO 00000KT 7SM CLR 23/21 A2999 RMK AO1=
####018000085####
SAMD90 KWBC 080710
METAR KCBE 080710Z AUTO 01003KT 10SM CLR 23/18 A3009 RMK AO1=
####018000084####
SAMD90 KWBC 080710
METAR KCGS 080715Z AUTO 00000KT 7SM CLR 26/23 A2999 RMK AO1=
####018000088####
SAMD90 KWBC 080710
METAR K2G4 080710Z AUTO 00000KT 10SM OVC060 23/13 A3019 RMK AO1=
####018000162####
SAIN33 VECC 080650 RRA
METAR VGEG 080650Z 17008KT 7000 FEW028 SCT120 31/26 Q1008 NOSIG=
METAR VGZR 080650Z 18007KT 5000 HZ SCT015 BKN100 35/25 Q1006 NOSIG=
####018000084####
SAMD90 KWBC 080710
METAR KFME 080712Z AUTO 10004KT 5SM CLR 21/21 A3001 RMK AO1=
####018000084####
SAMD90 KWBC 080710
METAR KDMW 080710Z AUTO 00000KT 7SM CLR 27/21 A3003 RMK AO2=
####018000084####
SAMD90 KWBC 080710
METAR KMTN 080712Z AUTO 00000KT 7SM CLR 27/24 A3000 RMK AO2=
####018000087####
SAMD90 KWBC 080710
METAR KFDK 080704Z AUTO 00000KT 7SM SCT090 24/21 A3002 RMK AO2=
####018000087####
SAMD90 KWBC 080710
METAR KESN 080715Z AUTO 00000KT 5SM BR CLR 23/23 A3001 RMK AO2=
####018000075####
SASD32 OEJD 080700
METAR OETF 080700Z 12006KT CAVOK 35/04 Q1016 NOSIG=
####018001690####
SASD20 OEJD 080700
METAR OEAB 080700Z 05014KT 8000 FEW020 SCT200 30/00 Q1022 NOSIG=
METAR OEAH 080700Z 01010KT 9000 NSC 42/09 Q1003 NOSIG=
METAR OEBA 080700Z 11008KT 8000 SKC 33/05 Q1018 NOSIG=
METAR OEBH 080700Z 08006KT CAVOK 37/04 Q1013 NOSIG=
METAR OEDF 080700Z 01008KT 8000 NSC 41/09 Q1001 NOSIG=
METAR OEDM 080700Z 07010KT CAVOK 39/05 Q1011=
METAR OEDR 080700Z 35009KT 6000 SKC 42/13 Q0999 NOSIG=
METAR OEGN 080700Z 17007KT CAVOK 36/27 Q1003 NOSIG=
METAR OEGS 080700Z 09006KT CAVOK 40/08 Q1009=
METAR OEGT 080700Z 29008KT CAVOK 31/02 Q1010=
METAR OEHL 080700Z 13002KT CAVOK 40/02 Q1014 NOSIG=
METAR OEJN 080700Z 32012KT CAVOK 35/26 Q1002 NOSIG=
METAR OEKB 080700Z 00000KT CAVOK 42/26=
METAR OEKJ 080700Z NIL=
METAR OEKK 080700Z 06008KT CAVOK 42/11 Q1006=
METAR OEKM 080700Z 09014KT 9000 SKC 30/05 Q1021 NOSIG=
METAR OEMA 080700Z 22003KT CAVOK 42/01 Q1007 NOSIG=
METAR OEMH 080700Z NIL=
METAR OEMK 080700Z 33002KT CAVOK 38/23 Q1002=
METAR OENG 080700Z 06005KT 5000 DU SKC 36/00 Q1013 NOSIG=
METAR OEPA 080700Z 36012KT CAVOK 42/04 Q1005=
METAR OERF 080700Z 34002KT CAVOK 40/11 Q1007=
METAR OERK 080700Z 04013KT CAVOK 40/02 Q1009 NOSIG=
METAR OERR 080700Z 10012KT CAVOK 40/10 Q1008=
METAR OERY 080700Z 07012KT 4000 DU SKC 41/02 Q1009 NOSIG=
METAR OESH 080700Z 02009KT 6000 FEW040 40/13 Q1005 NOSIG=
METAR OESK 080700Z NIL=
METAR OETB 080700Z 33003KT CAVOK 32/09 Q1011 NOSIG=
METAR OETF 080700Z 12006KT CAVOK 35/04 Q1016 NOSIG=
METAR OETR 080700Z 02010KT CAVOK 34/05 Q1011=
METAR OEWD 080700Z 05014KT 7000 SKC 39/09 Q1007=
METAR OEWJ 080700Z 31019KT CAVOK 32/27 Q1004=
METAR OEYN 080700Z 17007KT CAVOK 36/21 Q1001 NOSIG=
####018003743####
SAUS99 KWBC 080711
METAR
KASW 080705Z AUTO 00000KT 10SM CLR 23/21 A3006 RMK AO2
     T02300207=
KBPG 080705Z AUTO 09003KT 10SM CLR 22/20 A3009 RMK AO1
     T02200198=
KBYY 080706Z AUTO 08007KT 7SM -DZ SCT025 SCT035 BKN085 27/26 A2989
     RMK AO2 T02680260=
KCPT 080705Z AUTO 12007KT 10SM SCT018 25/24 A3001 RMK AO2=
KCVB 080704Z AUTO 09004KT 10SM CLR 25/24 A2995 RMK AO2
     T02510235=
KCWC 080705Z AUTO 12007KT 10SM CLR 25/22 A3002 RMK AO2
     T02460220=
KDUX 080707Z AUTO 00000KT 7SM RA SCT020 BKN025 BKN038 17/16 A3021
     RMK AO2 P0001 T01720162=
KEBG 080706Z AUTO 00000KT 10SM -DZ SCT012 SCT025 BKN060 27/25
     A2983 RMK AO2 T02670250=
KERV 080705Z AUTO 09004KT 10SM SCT013 SCT120 23/22 A2999 RMK AO2
     T02330216=
KF05 080704Z AUTO 36003KT 10SM CLR 24/22 A3003 RMK AO2
     T02370220=
KFEP 080705Z AUTO 00000KT 7SM DZ SCT029 BKN050 OVC060 24/22 A3002
     RMK AO2 T02360215=
KFOA 080705Z AUTO 00000KT 7SM SCT110 26/25 A3004 RMK AO2
     T02560251=
KFWC 080705Z AUTO 00000KT 7SM SCT110 24/23 A3004 RMK AO2=
KFWS 080705Z AUTO 00000KT 10SM SCT014 OVC019 25/23 A3002 RMK AO2
     T02530230=
KGBG 080705Z AUTO 20005KT 10SM -RA OVC008 23/22 A3002 RMK AO2=
KGDJ 080704Z AUTO 00000KT 10SM OVC021 25/23 A3001 RMK AO2
     T02520233=
KGNC 080705Z AUTO 00000KT 10SM OVC100 21/19 A3012 RMK AO2
     T02050192=
KGOP 080700Z AUTO 00000KT 10SM FEW049 26/23 A3001 RMK AO2=
KGVT 080705Z AUTO 17006KT 10SM CLR 25/23 A3001 RMK AO2=
KGWB 080705Z AUTO 00000KT 10SM CLR 24/17 A3006 RMK AO2=
KGYB 080705Z AUTO 09005KT 10SM SCT008 BKN012 OVC021 25/24 A2999
     RMK AO2 T02500237=
KGYI 080704Z AUTO 15007KT 10SM BKN070 BKN080 26/23 A3001 RMK AO2
     T02610233=
KHBV 080700Z AUTO 02003KT 10SM BKN006 OVC011 25/24 A2989 RMK AO2
     T02520240=
KHHF 080705Z AUTO 00000KT 10SM SCT047 OVC100 23/22 A3012 RMK AO2
     LTG DSNT SW THRU N T02310217=
KHRX 080705Z AUTO 06005KT 10SM SCT004 SCT014 OVC018 18/17 A3021
     RMK AO2 T01750165=
KHSB 080705Z AUTO 00000KT 5SM BR CLR 22/21 A3005 RMK AO2=
KIJX 080705Z AUTO 00000KT 4SM BR SCT022 SCT037 SCT075 24/23 A3005
     RMK AO2 LTG DSNT N AND NE T02360227=
KIKK 080705Z AUTO 00000KT 4SM HZ CLR 26/23 A3004 RMK AO2 LTG DSNT
     SW=
KINJ 080705Z AUTO 12004KT 10SM CLR 25/23 A2999 RMK AO2
     T02480227=
KJAS 080706Z AUTO 08003KT 10SM CLR 25/24 A3001 RMK AO2
     T02500237=
KJDD 080705Z AUTO 00000KT 7SM BKN006 BKN010 24/24 A3001 RMK
     AO2=
KJSO 080710Z AUTO 00000KT 7SM CLR 24/24 A3003 RMK AO2
     T02360235=
KJWY 080705Z AUTO 15006KT 10SM 25/22 A3000 RMK AO2 T02450224=
KJXI 080705Z AUTO 00000KT OVC008 26/25 A3002 RMK AO2=
KLBR 080705Z AUTO 00000KT 7SM SCT004 BKN019 24/23 A3003 RMK AO2
     T02400230=
KLHB 080703Z AUTO 09004KT 7SM BKN110 25/24 A2997 RMK AO2
     T02520235=
KLNC 080705Z AUTO 00000KT 10SM CLR 24/24 A3000 RMK AO2
     T02410238=
KLUD 080705Z AUTO 13005KT 10SM SCT040 25/22 A3001 RMK AO2
     T02500218=
KM30 080706Z AUTO 00000KT 5SM BR CLR 22/21 A3004 RMK AO2=
KMDD 080700Z AUTO 12006KT 10SM OVC120 23/20 A3009 RMK AO2
     T02300201=
KMKN 080700Z AUTO 00000KT 10SM 24/22 A3002 RMK AO2=
KMNZ 080709Z AUTO 14006KT 10SM BKN023 25/23 A3001 RMK AO2
     T02500233=
KMQB 080705Z AUTO 22004KT 10SM BKN008 BKN036 OVC045 23/23 A3005
     RMK AO2 LTG DSNT SW T02310230=
KPNT 080705Z AUTO 00000KT 5SM BR SCT040 OVC110 23/22 A3004 RMK
     AO2=
KPRG 080705Z AUTO 00000KT 5SM BR BKN110 21/21 A3005 RMK AO2
     T02190212=
KRPJ 080705Z AUTO 00000KT 4SM -DZ CLR 21/20 A3004 RMK AO2
     T02070197=
KRSV 080702Z AUTO 00000KT 10SM SCT085 26/23 A3005 RMK AO2
     T02550231=
KCCA 080715Z AUTO 00000KT 4SM BR CLR 23/22 A3006 RMK AO2=
####018000587####
SPUS99 KWBC 080711
SPECI
KBML 080708Z AUTO 00000KT 1 1/2SM BR BKN003 BKN007 OVC050 19/19
     A3008 RMK AO2 CIG 001V005 $=
KJEF 080708Z AUTO 11003KT 10SM -RA FEW021 BKN029 OVC085 24/23
     A3004 RMK AO2 LTG DSNT E AND SE RAB0654 P0000=
KOWD 080708Z AUTO 15003KT 6SM HZ OVC011 24/21 A3005 RMK AO2=
PAWD 080708Z AUTO 00000KT 2SM -RA BR BKN003 BKN008 OVC060 10/09
     A2998 RMK AO2 P0000 TSNO=
KCYS 080709Z AUTO 10006KT 2 1/2SM -RA BR OVC002 12/12 A3036 RMK
     AO2 RAB02 P0000 TSNO=
KUUU 080709Z AUTO 15004KT 8SM FEW004 SCT017 BKN029 22/21 A3006 RMK
     AO2=
####018000285####
SANG31 YBBN 080700
METAR AYPY 080700Z NIL=
METAR AYWK 080700Z NIL=
METAR AYVN 080700Z NIL=
METAR AYNZ 080700Z NIL=
METAR AYMH 080700Z NIL=
METAR AYGN 080700Z NIL=
METAR AYMO 080700Z NIL=
METAR AGGH 080700Z  09002KT 9999 FEW017 SCT100 OVC300 26/24 Q1009=
RMKS: REDZ=
####018002400####
SAUS99 KWBC 080711 RRA
METAR
KCDN 080715Z AUTO 27003KT 10SM CLR 26/23 A2999 RMK A02 P000=
KCKI 080715Z AUTO 00000KT 10SM CLR 23/21 A2996 RMK AO2=
KIGQ 080700Z AUTO 00000KT 3SM BR SCT055 24/22 A3004 RMK AO2=
KLRO 080715Z AUTO 00000KT 10SM CLR 24/19 A2996 RMK AO2=
KMKS 080715Z AUTO 28003KT 10SM CLR 24/20 A2996 RMK AO2 TSNO=
KMWA 080705Z AUTO 00000KT 10SM CLR 24/24 A3006 RMK AO2
     T02440235=
KMZZ 080655Z AUTO 00000KT 7SM CLR 21/19 A3007 RMK AO2=
KOSA 080704Z AUTO 00000KT 7SM OVC012 25/24 A3002 RMK AO1
     T02480241=
KPEZ 080705Z AUTO 04006KT 10SM BKN015 25/23 A2993 RMK AO2
     T02520228=
KPKV 080706Z AUTO 06010KT 10SM BKN015 BKN025 BKN038 25/23 A2987
     RMK AO2 T02480232=
KPPA 080705Z AUTO 33005KT 10SM SCT085 BKN110 18/17 A3017 RMK
     AO2=
KPSN 080705Z AUTO 12004KT 10SM 24/24 A3001 RMK AO2 T02420235=
KPYX 080710Z AUTO 04010KT 7SM SCT060 SCT075 OVC110 20/19 A3016 RMK
     AO2 T02010185=
KRAS 080705Z AUTO 09011KT 5SM BR FEW001 FEW017 SCT032 28/26 A2986
     RMK AO2 LTG DSNT N=
KRBO 080705Z AUTO 02005KT 10SM SCT080 BKN090 BKN120 27/26 A2985
     RMK AO2 LTG DSNT NE T02660255=
KRFI 080705Z AUTO 00000KT 7SM CLR 25/24 A3000 RMK AO2
     T02450235=
KRPH 080705Z AUTO 05003KT 10SM CLR 24/21 A2998 RMK AO2
     T02350212=
KRWV 080700Z AUTO 00000KT 10SM BKN006 BKN019 24/24 A2999 RMK
     AO2=
KRYW 080705Z AUTO 09003KT 10SM OVC012 25/22 A2999 RMK AO2=
KSAR 080705Z AUTO 18003KT 10SM CLR 26/23 A3005 RMK AO2 LTG DSNT
     W=
KSEP 080705Z AUTO 00000KT 10SM SCT026 SCT070 23/21 A3001 RMK
     AO1=
KSLR 080702Z AUTO 00000KT 10SM CLR 25/23 A3003 RMK AO2
     T02530230=
KSNK 080706Z AUTO 00000KT 10SM BKN110 21/20 A3007 RMK AO2
     T02080197=
KSOA 080700Z AUTO 00000KT 10SM 24/21 A3007 RMK AO2=
KSWW 080705Z AUTO 14006KT 10SM CLR 22/21 A3007 RMK AO1
     T02210208=
KT65 080705Z AUTO 36005KT 10SM SCT050 26/25 A2981 RMK AO2
     T02620252=
KT82 080705Z AUTO 11003KT 24/23 A3001 RMK AO1 T02360225=
KTAZ 080705Z AUTO 00000KT 10SM CLR 24/23 A3003 RMK AO2=
KTFP 080705Z AUTO 00000KT 10SM -RA SCT015 SCT027 SCT075 27/26
     A2984 RMK AO2 T02700255=
KTIP 080705Z AUTO 31004KT 10SM SCT050 SCT060 SCT070 24/23 A3005
     RMK AO2 T02420228=
KUVA 080705Z AUTO 03004KT 10SM CLR 24/23 A2994 RMK AO2
     T02410227=
KXBP 080705Z AUTO 13003KT 10SM BKN043 25/22 A3001 RMK AO2
     T02510222=
####018001497####
SAAU31 YBBN 080700
METAR YPAD 080700Z 19003KT 9999 FEW045 SCT060 13/09 Q1025=
METAR YBAS 080700Z 12009KT 9999 FEW034 16/06 Q1019=
METAR YBBN 080700Z 17010KT 9999 FEW030 SCT040 BKN105 18/10 Q1018
NOSIG=
METAR YBCS 080700Z 13008KT 9999 FEW026 BKN040 25/19 Q1014=
METAR YSCB 080700Z 06005KT 9999 FEW050 09/02 Q1026
RMK USE TAF FOR ARRIVALS 0900Z
NOSIG=
METAR YPXM 080700Z AUTO 16007KT 9999NDV // SCT018 26/22 Q1012=
METAR YPCC 080700Z 13009KT 9999 FEW021 28/22 Q1012=
METAR YCFS 080700Z 21016KT 9999 -SHRA FEW025 SCT030 BKN065 15/12
Q1021=
METAR YPDN 080700Z 36011KT 9999 SCT049 BKN400 30/20 Q1011=
METAR YBCG 080700Z AUTO 19012KT 9999NDV // SCT055 OVC094 16/12 Q1019=
METAR YHID 080700Z AUTO 13014KT 9999NDV // SCT017 BKN033 OVC060 26/23
Q1011=
METAR YPJT 080700Z AUTO 35014KT 9999NDV // SCT015 BKN053 OVC082 16/14
Q1000=
METAR YPKU 080700Z 15006KT CAVOK 27/14 Q1012=
METAR YPLM 080700Z 07006KT 9999 FEW010 BKN080 BKN200 21/16 Q1008
RMK HZ=
METAR YMML 080700Z 18005KT 9999 FEW031 BKN042 11/04 Q1027
NOSIG=
METAR YPPH 080700Z 36013KT 1800 SHRA SCT018 OVC050 FEW022CB 15/14
Q1000
FM0700 33018G28KT 9999 -SHRA BKN020
INTER 0700/1000 27025G35KT 3000 +SHRA BKN010=
METAR YSSY 080700Z 21015KT 9999 SCT035 BKN080 12/12 Q1025
INTER 0715/1000 5000 SHRA BKN015=
METAR YSTW 080700Z AUTO 13012KT 9999NDV // SCT049 BKN058 15/05 Q1022=
METAR YPTN 080700Z 12009KT CAVOK 29/14 Q1012=
METAR YBTL 080700Z 06008KT 9999 FEW030 SCT045 BKN080 23/19 Q1015=
####018001377####
SAAU32 YBBN 080700
METAR YAMB 080700Z 18010KT 9999 BKN040 BKN050 18/10 Q1020=
METAR YMAV 080700Z AUTO 12005KT 9999NDV // OVC052 11/08 Q1027=
METAR YBRM 080700Z 06009KT 9999 SCT034 29/20 Q1010=
METAR YCIN 080700Z AUTO 12006KT //// // ////// 25/19 Q1011=
METAR YSDU 080700Z AUTO 12007KT 9999NDV // NCD 12/05 Q1023=
METAR YFRT 080700Z AUTO 02014KT //// // ////// 18/02 Q1014=
METAR YGEL 080700Z 33023KT 9999 -SHRA FEW024 SCT060 BKN085 20/13
Q1003=
METAR YPGV 080700Z 14014KT 9999 SCT018 BKN050 25/21 Q1012=
METAR YBHM 080700Z AUTO 14013KT //// // ////// 19/16 Q1016=
METAR YMHB 080700Z 00000KT 9999 FEW035 08/05 Q1029=
METAR YPKG 080700Z 35009G19KT CAVOK 20/04 Q1006
RMK 5CU062=
METAR YMLT 080700Z AUTO 15003KT 9999NDV // SCT037 07/04 Q1029=
METAR YBMA 080700Z AUTO 18012KT 9999NDV // NCD 17/11 Q1018=
METAR YSNF 080700Z 11010KT 9999 SCT020 BKN025 BKN100 14/10 Q1016=
METAR YPEA 080700Z 35018KT 9999 -SHRA BKN018 BKN025 16/12 Q1000
INTER 0700/1000 34020G30KT 3000 +SHRA BKN010=
METAR YPPD 080700Z 04013KT 9999 BKN016 25/20 Q1009=
METAR YSRI 080700Z AUTO 00000KT 9999NDV // SCT028 BKN037 OVC052 12/11
Q1026=
METAR YBRK 080700Z 24004KT 9999 VCSH FEW004 BKN030 13/12 Q1018=
METAR YWLM 080700Z 26006KT 9999 VCSH SCT020 BKN040 13/12 Q1024
INTER 0700/1000 4000 SHRA BKN010=
METAR YPWR 080700Z AUTO 08007KT 9999NDV // NCD 15/M02 Q1023=
####018000572####
SAAL33 DAAA 080700
METAR DAAD 080700Z 00000KT CAVOK 29/12 Q1022=
METAR DAAE 080700Z 24008KT CAVOK 24/17 Q1018=
METAR DAAJ 080700Z NIL=
METAR DAAP 080700Z NIL=
METAR DAAV 080700Z 00000KT CAVOK 23/17 Q1018=
METAR DABT 080700Z 04004KT CAVOK 20/10 Q1023=
METAR DAFH 080700Z 13008KT CAVOK 29/17 Q1022=
METAR DATG 080700Z NIL=
METAR DATM 080700Z NIL=
METAR DAUE 080700Z 06008KT CAVOK 30/12 Q1019=
METAR DAUI 080700Z NIL=
METAR DAUK 080700Z 14006KT CAVOK 28/18 Q1017=
METAR DAUO 080700Z 10011KT CAVOK 28/16 Q1018=
METAR DAUT 080700Z ///10KT 8000 NSC 29/09 Q1015=
####018000651####
SAAO32 GOOY 080700
METAR GABS 080700Z 21003KT CAVOK 25/24 Q1015 NOSIG=
METAR GGOV 080700Z NIL=
METAR GOOY 080700Z 16005KT 130V190 9999 FEW013 SCT230 27/24 Q1011
NOSIG=
METAR DIAP 080700Z 00000KT 6000 SCT012 SCT080 BKN260 25/24 Q1014
NOSIG=
METAR GQNN 080700Z 19005KT 6000 NSC 26/23 Q1011 NOSIG=
METAR GQPP 080700Z 35014KT 8000 NSC 21/19 Q1010 NOSIG=
METAR GUCY 080700Z NIL=
METAR GVAC 080700Z 05012KT 9999 BKN017 23/19 Q1012 NOSIG=
METAR GFLL 080700Z 09010KT 9999 SCT012 FEW027CB 23/22 Q1012 CB-NE=
METAR GBYD 080700Z 18007KT 9999 -RA BKN011 FEW016CB 25/25 Q1012=
METAR COR GLRB 080700Z 00000KT 9999 BKN012 FEW024CB 24/23 Q1014
CB-SW=
####018000885####
SAHK31 VHHH 080700
METAR VHHH 080700Z 24014KT 9999 FEW020 SCT030 34/24 Q1007 NOSIG=
METAR RCTP 080700Z 24019KT 9999 FEW025 SCT150 33/25 Q1006
NOSIG=
METAR RCKH 080700Z 25012KT 210V290 9999 FEW013 BKN200 32/26
Q1008 NOSIG RMK 28013KT/RWY09=
METAR RCSS 080700Z 31010KT 280V350 9999 FEW020 SCT030 BKN080 34/24
Q1006 NOSIG RMK 32009KT/R10=
METAR VMMC 080700Z 19013KT 180V260 9999 FEW015 SCT025 BKN090
     31/27 Q1006 NOSIG=
METAR RPLL 080700Z 11007KT 9999 FEW023CB FEW025 BKN300 33/25 Q1008
           NOSIG RMK CB NNE, SE A2977=
METAR RPVM 080700Z 06006KT 9999 FEW020 SCT100 BKN250 32/28 Q1008
           A2977=
METAR RPMD 080700Z
18006 9999 FEW015CB SCT290 31/27 1008 CB NE SW=
METAR RPLB 080700Z NIL=
METAR RPLI 080700Z
27010KT 9999 OCCSNL TS SCT019CB 34/29 Q1008 RETS=
METAR RPMZ 080700Z 09004KT 9999 SCT018CB SCT120 BKN350 34/27 Q1010
           CB NW, TSTM S=
####018000369####
SAEE31 LOWM 080700
METAR UACK 080700Z 33008G11MPS 9999 BKN051 18/03 Q1011 02010070 NOSIG
RMK QFE735=
METAR UACP 080700Z NIL=
METAR UAII 080700Z NIL=
METAR UADD 080700Z 02004MPS 020V090 9999 NSC 32/04 Q1014
NOSIG RMK QFE703/0938=
METAR UASK 080700Z 30003MPS 9999 SCT033 BKN100 21/10 Q1012
                   300/0060 NOSIG RMK QFE734=
METAR UASP 080700Z NIL=
####018000115####
SACZ41 LKPW 080700
METAR LKKU 080700Z 35004KT CAVOK 18/11 Q1023=
METAR LKLB 080700Z VRB03KT CAVOK 20/07 Q1024=
####018001657####
SASD20 OEJD 080700
METAR OEAB 080700Z 05014KT 8000 FEW020 SCT200 30/00 Q1022 NOSIG=
METAR OEAH 080700Z 01010KT 9000 NSC 42/09 Q1003 NOSIG=
METAR OEBA 080700Z 11008KT 8000 SKC 33/05 Q1018 NOSIG=
METAR OEBH 080700Z 08006KT CAVOK 37/04 Q1013 NOSIG=
METAR OEDF 080700Z 01008KT 8000 NSC 41/09 Q1001 NOSIG=
METAR OEDM 080700Z 07010KT CAVOK 39/05 Q1011=
METAR OEDR 080700Z 35009KT 6000 SKC 42/13 Q0999 NOSIG=
METAR OEGN 080700Z 17007KT CAVOK 36/27 Q1003 NOSIG=
METAR OEGS 080700Z 09006KT CAVOK 40/08 Q1009=
METAR OEGT 080700Z 29008KT CAVOK 31/02 Q1010=
METAR OEHL 080700Z 13002KT CAVOK 40/02 Q1014 NOSIG=
METAR OEJN 080700Z 32012KT CAVOK 35/26 Q1002 NOSIG=
METAR OEKB 080700Z 00000KT CAVOK 42/26=
METAR OEKJ 080700Z NIL=
METAR OEKK 080700Z 06008KT CAVOK 42/11 Q1006=
METAR OEKM 080700Z 09014KT 9000 SKC 30/05 Q1021 NOSIG=
METAR OEMA 080700Z 22003KT CAVOK 42/01 Q1007 NOSIG=
METAR OEMH 080700Z NIL=
METAR OEMK 080700Z 33002KT CAVOK 38/23 Q1002=
METAR OENG 080700Z 06005KT 5000 DU SKC 36/00 Q1013 NOSIG=
METAR OEPA 080700Z 36012KT CAVOK 42/04 Q1005=
METAR OERF 080700Z 34002KT CAVOK 40/11 Q1007=
METAR OERK 080700Z 04013KT CAVOK 40/02 Q1009 NOSIG=
METAR OERR 080700Z 10012KT CAVOK 40/10 Q1008=
METAR OERY 080700Z 07012KT 4000 DU SKC 41/02 Q1009 NOSIG=
METAR OESH 080700Z 02009KT 6000 FEW040 40/13 Q1005 NOSIG=
METAR OESK 080700Z NIL=
METAR OETB 080700Z 33003KT CAVOK 32/09 Q1011 NOSIG=
METAR OETF 080700Z 12006KT CAVOK 35/04 Q1016 NOSIG=
METAR OETR 080700Z 02010KT CAVOK 34/05 Q1011=
METAR OEWD 080700Z 05014KT 7000 SKC 39/09 Q1007=
METAR OEWJ 080700Z 31019KT CAVOK 32/27 Q1004=
METAR OEYN 080700Z 17007KT CAVOK 36/21 Q1001 NOSIG=
####018000072####
SAAL41 DAMM 080700 RRB
METAR DAAP 080700Z 11008KT CAVOK 32/10 Q1016=
####018000098####
SAAF13 LFPW 080700 CCA
METAR COR GLRB 080700Z 00000KT 9999 BKN012 FEW024CB 24/23 Q1014
CB-SW=
####018000074####
SAAG01 SABM 080700 RRC
METAR SAME 080700Z 00000KT CAVOK 03/M03 Q1015=
####018000108####
SPUS41 KWBC 080711
SPECI
KWRI 080708Z AUTO 00000KT 3SM R18/5500FT R24/2800FT BR OVC002
24/24 A2999=
####018001717####
SAEU KAWN 080700 RRW
METAR COR EGDM 080650Z 30006KT 6000 BR FEW005 BKN012 15/14 Q1019 GRN=
METAR EKBI 080650Z 18005KT 150V230 9999 BKN040 19/15 Q1018=
METAR LEBG 080700Z 04005KT 360V120 CAVOK 22/15 Q1020=
METAR LFLV 080704Z VRB01KT CAVOK 21/14 Q1020=
METAR LFMT 080708Z 05006KT 010V070 CAVOK 25/14 Q1020 NOSIG=
METAR LFMY 080704Z 04003KT 010V070 CAVOK 27/18 Q1020=
METAR LFRL 080700Z 36003KT 320V020 9999 BKN009 17/15 Q1019=
METAR LIBH 080655Z 34015KT CAVOK 24/15 Q1017 RMK SKC QUK 1 QUL 0 VIS
      MAR 20 KM VIS MIN 9999=
METAR LIBY 080655Z 34015KT 9999 FEW020 23/14 Q1015 RMK FEW QUK 3 QUL
      1 N VIS MAR 20 KM VIS MIN 9999=
METAR LICF 080655Z 34002KT 9999 FEW040 27/24 Q1017 RMK FEW QUK 1 QUL
      0 VIS MAR 10 KM MON LIB NC VIS MIN 9999=
METAR LICL 080655Z 22006KT CAVOK 24/21 Q1017 RMK SKC QUK 1 QUL 0 VIS
      MAR 10 KM VIS MIN 9999=
METAR LIEB 080655Z 03007KT 9999 SCT020 26/23 Q1017 RMK SCT QUK 0 QUL
      0 VIS MAR 15 KM MON W CIME INC NC VIS MIN 9999=
METAR LIEC 080655Z 02015KT 9999 FEW020 25/22 Q1017 RMK FEW QUK 2 QUL
      0 VIS MAR 15 KM VIS MIN 9999=
METAR LIEE 080655Z 28005KT CAVOK 23/19 Q1018 RMK VIS MIN 9999 WIND
      THR14 33006KT BLU=
METAR LIPX 080645Z 06009KT 9999 SCT060 BKN080 25/15 Q1021 RMK BKN VIS
      //END PART 01//=
METAR LOIH 080700Z 00000KT 35KM SKC 22/15 Q1021 RMK SKC=
METAR LOWZ 080700Z 29003KT 30KM SKC 14/08 Q1024 RMK SKC=
METAR LPBJ 080700Z 15004KT CAVOK 22/19 Q1015=
METAR LPMT 080700Z 02005KT CAVOK 20/18 Q1014 CLD5 FEW220 BLU=
METAR LPPD 080700Z 26005KT 9999 SCT014 BKN020 19/15 Q1023=
METAR LPST 080700Z VRB02KT 9999 FEW003 17/17 Q1014=
METAR COR LRSV 080700Z 29010KT 9999 SCT010 BKN020 15/14 Q1017=
####018000085####
SPUS51 KWBC 080711
SPECI
KGFL 080707Z AUTO 00000KT 1 3/4SM BR CLR 21/21 A3002=
####018000087####
SAMD90 KWBC 080710
METAR KW29 080709Z AUTO 11003KT 7SM SCT100 26/22 A2998 RMK AO1=
####018000076####
SANM40 FYWW 080700 RRA
METAR FYGF 080700Z 07005KT CAVOK 15/12 Q////=

####018000378####
SAEE31 LOWM 080700
METAR UACK 080700Z 33008G11MPS 9999 BKN051 18/03 Q1011 02010070 NOSIG
RMK QFE735=
METAR UACP 080700Z NIL=
METAR UAII 080700Z NIL=
METAR UADD 080700Z 02004MPS 020V090 9999 NSC 32/04 Q1014
NOSIG RMK QFE703/0938=
METAR UASK 080700Z 30003MPS 9999 SCT033 BKN100 21/10 Q1012
                   300/0060 NOSIG RMK QFE734=
METAR UASP 080700Z NIL=
####018000466####
SAID31 WIII 080700
METAR WIMM 080700Z 01008KT 7000 SCT017 33/24 Q1009 NOSIG= 
METAR WIDD 080700Z 25005KT 9999 SCT017 29/24 Q1009= 
METAR WAAA 080700Z 30008KT 270V330 9999 FEW020 31/26 Q1008= 
METAR WIII 080700Z 32006KT 290V360 8000 FEW019CB SCT02031/22 Q1009 RM
K CB TO W NOSIG= 
METAR WADD 080700Z 09007KT 9999 FEW018CB FEW018 30/25 Q1008 NOSIG= 
METAR WARR 080700Z 10007KT 9999 FEW020CB FEW020 29/23 Q1008 NSG= 
METAR WIHH NIL=
METAR WABB NIL=
####018000082####
SPUS81 KWBC 080711
SPECI
KOXR 080707Z AUTO 29008KT 10SM OVC013 16/12 A2991=
####018000103####
SAID31 EGGY 080700
METAR WALL 080700Z 12005KT 9999 FEW020CB SCT020 32/26 Q1007 RMK CB TO
    SW=
####018000087####
SADN31 EKCH 080650 RRB
METAR EKBI 080650Z 18005KT 150V230 9999 BKN040 19/15 Q1018=
####018000516####
SAID32 WIII 080700
METAR WAMM 080700Z 24005KT 9999 FEW025 31/23 Q1008 NOSIG= 
METAR WIPT 080700Z 22004KT 190V260 9999 FEW020TCU 29/23 Q1010= 
METAR WIPP 080700Z 00000KT 8000 -RA FEW015 26/23 Q1010= 
METAR WADA 080700Z 34010KT 9999 HZ SCT016 33/25 Q1008= 
METAR WAOO 080700Z 20008KT 9000 TS FEW020CB SCT013 29/24 Q1008 CB TO 
S= 
METAR WALL 080700Z 12005KT 9999 FEW020CB SCT020 32/26 Q1007 CB TO SW 
NOSIG= 
METAR WIBB 080700Z 00000KT 9999 SCT015 30/24 Q1008= 
METAR WIKN NIL=
METAR WIOO NIL=
####018000202####
SAID33 WIII 080700
METAR WATT 080700Z 32004KT 9999 SCT017 31/25 Q1009= 
METAR WABP NIL=
METAR WAJJ NIL=
METAR WAKK NIL=
METAR WAPP NIL=
METAR WARS NIL=
METAR WIAT NIL=
METAR WALR NIL=
####018000117####
SACZ41 LKPW 080700
METAR LKKU 080700Z 35004KT CAVOK 18/11 Q1023=
METAR LKLB 080700Z VRB03KT CAVOK 20/07 Q1024=
####018000451####
SAAO33 DRRN 080700
METAR DBBB 080700Z VRB02KT 3200 BR FEW010 BKN110 25/25 Q1013 BECMG
6000 NSW=
METAR DFFD 080700Z NIL=
METAR DGAA 080700Z NIL=
METAR DNKN 080700Z 24010KT 9999 FEW020  24/21 Q1014 NOSIG=
METAR DNMM 080700Z 00000KT 5000 BR FEW007 24/24 Q1015 TEMPO 3000=
METAR DRRN 080700Z 00000KT CAVOK 25/22 Q1012 NOSIG=
METAR DXXX 080700Z VRB03KT 7000 SCT010 25/24 Q1014 NOSIG=
METAR FTTJ 080700Z 21008KT CAVOK 25/23 Q1014 NOSIG=
####018001498####
SAAU31 YBBN 080700
METAR YPAD 080700Z 19003KT 9999 FEW045 SCT060 13/09 Q1025=
METAR YBAS 080700Z 12009KT 9999 FEW034 16/06 Q1019=
METAR YBBN 080700Z 17010KT 9999 FEW030 SCT040 BKN105 18/10 Q1018
NOSIG=
METAR YBCS 080700Z 13008KT 9999 FEW026 BKN040 25/19 Q1014=
METAR YSCB 080700Z 06005KT 9999 FEW050 09/02 Q1026
RMK USE TAF FOR ARRIVALS 0900Z
NOSIG=
METAR YPXM 080700Z AUTO 16007KT 9999NDV // SCT018 26/22 Q1012=
METAR YPCC 080700Z 13009KT 9999 FEW021 28/22 Q1012=
METAR YCFS 080700Z 21016KT 9999 -SHRA FEW025 SCT030 BKN065 15/12
Q1021=
METAR YPDN 080700Z 36011KT 9999 SCT049 BKN400 30/20 Q1011=
METAR YBCG 080700Z AUTO 19012KT 9999NDV // SCT055 OVC094 16/12 Q1019=
METAR YHID 080700Z AUTO 13014KT 9999NDV // SCT017 BKN033 OVC060 26/23
Q1011=
METAR YPJT 080700Z AUTO 35014KT 9999NDV // SCT015 BKN053 OVC082 16/14
Q1000=
METAR YPKU 080700Z 15006KT CAVOK 27/14 Q1012=
METAR YPLM 080700Z 07006KT 9999 FEW010 BKN080 BKN200 21/16 Q1008
RMK HZ=
METAR YMML 080700Z 18005KT 9999 FEW031 BKN042 11/04 Q1027
NOSIG=
METAR YPPH 080700Z 36013KT 1800 SHRA SCT018 OVC050 FEW022CB 15/14
Q1000
FM0700 33018G28KT 9999 -SHRA BKN020
INTER 0700/1000 27025G35KT 3000 +SHRA BKN010=
METAR YSSY 080700Z 21015KT 9999 SCT035 BKN080 12/12 Q1025
INTER 0715/1000 5000 SHRA BKN015=
METAR YSTW 080700Z AUTO 13012KT 9999NDV // SCT049 BKN058 15/05 Q1022=
METAR YPTN 080700Z 12009KT CAVOK 29/14 Q1012=
METAR YBTL 080700Z 06008KT 9999 FEW030 SCT045 BKN080 23/19 Q1015=
####018000081####
SAMP31 LMMM 080700 RRB
METAR HLLB 080650Z
01010KT 8000 FEW020 28/19 Q1016=
####018000392####
SAUS20 KNKA 080711
METAR KE38 080705Z AUTO 00000KT 10SM SCT100 20/17 A3019 RMK AO2 
     T01980166=
SPECI KGKY 080710Z AUTO 17004KT 10SM BKN018 26/23 A3000 RMK AO2=
SPECI KNSE 080702Z AUTO 31003KT 3SM BR CLR 23/21 A3003 RMK AO2 $=
METAR KTYQ 080705Z AUTO 00000KT 7SM CLR 21/20 A3007 RMK AO2=
METAR KVYS 080705Z AUTO 00000KT 7SM -RA SCT065 23/22 A3003 RMK 
     AO2 T02310215=
####018000133####
SAMC32 GMMC 080700 RRA
METAR GMMH 080700Z 01022KT 6000 BKN010 19/17 Q1013=
METAR GMML 080700Z 03016KT 8000 OVC016 19/14 Q1015=
####018000174####
SANA14 KAWN 080700 RRE
METAR KNFG 080656Z 00000KT 5SM BR OVC015 16/13 A2991 RMK AO2 SLP127
      T01610133=
METAR SEGU 080700Z 21005KT 9999 BKN030 23/18 Q1011 NOSIG=
####018000079####
SAMC32 GMMC 080700 RRB
METAR GMTN 080700Z 00000KT 7000 BKN100 22/19 Q1015=
####018001544####
SAZZ40 KAWN 080700 RRO
METAR CYBR 080700Z 29007KT 15SM FEW058 BKN200 12/12 A3003 RMK SC2CI0
      SLP174=
METAR DAAE 080700Z 24008KT CAVOK 24/17 Q1018=
METAR DAAP 080700Z 11008KT CAVOK 32/10 Q1016=
METAR DAAV 080700Z 00000KT CAVOK 23/17 Q1018=
METAR DAAY 080700Z 00000KT 9999 FEW033 26/13 Q1025=
METAR DABT 080700Z 04004KT CAVOK 20/10 Q1023=
METAR DAOB 080700Z 00000KT CAVOK 25/11 Q1022=
METAR DAOF 080700Z 10008KT 3500 HZ NSC 32/07 Q1011=
METAR DAOR 080700Z 09006KT CAVOK 30/05 Q1022=
METAR DAUA 080700Z 01022KT 7000 DRSA NSC 33/05 Q1013=
METAR DAUB 080700Z 12012KT CAVOK 30/16 Q1017=
METAR DAUE 080700Z 06008KT CAVOK 30/12 Q1019=
METAR DAUG 080700Z 00000KT CAVOK 30/12 Q1021=
METAR DAUK 080700Z 14006KT CAVOK 28/18 Q1017=
METAR DAUO 080700Z 10011KT CAVOK 28/16 Q1018=
METAR DAUT 080700Z ///10KT 8000 NSC 29/09 Q1015=
METAR DAUU 080700Z 12012KT CAVOK 31/17 Q1017=
METAR DBBB 080700Z VRB02KT 3200 BR FEW010 BKN110 25/25 Q1013 BECMG
      6000 NSW=
METAR OEPA 080700Z 36012KT CAVOK 42/04 Q1005=
METAR OEWJ 080700Z 31019KT CAVOK 32/27 Q1004=
METAR OJAQ 080700Z 36018KT CAVOK 32/25 Q1008=
METAR UUYY 080700Z VRB02MPS 9999 FEW023 29/17 Q1016 NOSIG 19CLRD61
      RMK QFE753/1004=
METAR ZBHH 080700Z 22003MPS 160V260 9999 SCT040 30/09 Q1010 NOSIG=
METAR ZHHH 080700Z 08007MPS 1500 R04/1000VP2000D SHRA SCT010 SCT030CB
      OVC040 24/24 Q1002 RETS TEMPO RA=
METAR ZSNJ 080700Z 10003MPS 070V130 4000 HZ NSC 30/22 Q1003 NOSIG=
METAR ZUCK 080700Z 22002MPS 3000 BR SCT020 31/25 Q1003 NOSIG=
####018000087####
SPCN42 CWAO 080710
SPECI CYUA 080710Z AUTO 31016KT 9SM BKN005 OVC013 05/ A3007=

####018000815####
SAUS90 KWBC 080712
METAR K2G4 080710Z AUTO 00000KT 10SM OVC060 23/13 A3019 RMK
     AO1=
METAR KCBE 080710Z AUTO 01003KT 10SM CLR 23/18 A3009 RMK AO1=
METAR K2W6 080709Z AUTO 00000KT 7SM CLR 23/21 A2999 RMK AO1=
METAR KCGS 080715Z AUTO 00000KT 7SM CLR 26/23 A2999 RMK AO1=
METAR KCGE 080707Z AUTO 00000KT 5SM CLR 25/23 A2999 RMK AO1=
METAR KDMW 080710Z AUTO 00000KT 7SM CLR 27/21 A3003 RMK AO2=
METAR KFME 080712Z AUTO 10004KT 5SM CLR 21/21 A3001 RMK AO1=
METAR KMTN 080712Z AUTO 00000KT 7SM CLR 27/24 A3000 RMK AO2=
METAR KFDK 080704Z AUTO 00000KT 7SM SCT090 24/21 A3002 RMK AO2=
METAR KESN 080715Z AUTO 00000KT 5SM BR CLR 23/23 A3001 RMK AO2=
METAR KW29 080709Z AUTO 11003KT 7SM SCT100 26/22 A2998 RMK AO1=
METAR KEHA 080708Z AUTO 29006KT 17/15 RMK AO1 PK WND 12 008
     T01670151=
####018000152####
SPUS99 KWBC 080712
SPECI
KGKY 080710Z AUTO 17004KT 10SM BKN018 26/23 A3000 RMK AO2=
KNSE 080702Z AUTO 31003KT 3SM BR CLR 23/21 A3003 RMK AO2 $=
####018000245####
SAUS99 KWBC 080712
METAR
KE38 080705Z AUTO 00000KT 10SM SCT100 20/17 A3019 RMK AO2
     T01980166=
KTYQ 080705Z AUTO 00000KT 7SM CLR 21/20 A3007 RMK AO2=
KVYS 080705Z AUTO 00000KT 7SM -RA SCT065 23/22 A3003 RMK AO2
     T02310215=
####018000096####
SAUS98 KWBC 080712
METAR KEHA 080708Z AUTO 29006KT 17/15 RMK AO1 PK WND 12 008
T01670151=
####018000085####
SAPO32 LPMG 080700 RRA
METAR LPPD 080700Z 26005KT 9999 SCT014 BKN020 19/15 Q1023=
####018000068####
SAAG SAVC 080700
METAR SAVC 080700Z  25014KT CAVOK 05/M02 Q0998=
####018000457####
SAID31 WIII 080700
METAR WIMM 080700Z 01008KT 7000 SCT017 33/24 Q1009 NOSIG= 
METAR WIDD 080700Z 25005KT 9999 SCT017 29/24 Q1009= 
METAR WAAA 080700Z 30008KT 270V330 9999 FEW020 31/26 Q1008= 
METAR WIII 080700Z 32006KT 290V360 8000 FEW019CB SCT02031/22 Q1009 RM
K CB TO W NOSIG= 
METAR WADD 080700Z 09007KT 9999 FEW018CB FEW018 30/25 Q1008 NOSIG= 
METAR WARR 080700Z 10007KT 9999 FEW020CB FEW020 29/23 Q1008 NSG= 
METAR WIHH NIL=
METAR WABB NIL=
####018000076####
SAAG SARP 080700
METAR SARP 080700Z  11003KT 9999  OVC005  15/14
Q1017=
####018000072####
SAAL33 DAAA 080700 RRA
METAR DAAP 080700Z 11008KT CAVOK 32/10 Q1016=
####018000072####
SANM40 FYWW 080700 RRA
METAR FYGF 080700Z 07005KT CAVOK 15/12 Q////=
####018000074####
SASD32 OEJD 080700
METAR OETF 080700Z 12006KT CAVOK 35/04 Q1016 NOSIG=
####018000164####
SAAF05 LFPW 080700 RRB
METAR DBBB 080700Z VRB02KT 3200 BR FEW010 BKN110 25/25 Q1013 BECMG
6000 NSW=
METAR DNKN 080700Z 24010KT 9999 FEW020  24/21 Q1014 NOSIG=
####018003707####
SAUS70 KWBC 080712
METAR
KASW 080705Z AUTO 00000KT 10SM CLR 23/21 A3006 RMK AO2
     T02300207=
KBPG 080705Z AUTO 09003KT 10SM CLR 22/20 A3009 RMK AO1
     T02200198=
KBYY 080706Z AUTO 08007KT 7SM -DZ SCT025 SCT035 BKN085 27/26 A2989
     RMK AO2 T02680260=
KCPT 080705Z AUTO 12007KT 10SM SCT018 25/24 A3001 RMK AO2=
KCVB 080704Z AUTO 09004KT 10SM CLR 25/24 A2995 RMK AO2
     T02510235=
KCWC 080705Z AUTO 12007KT 10SM CLR 25/22 A3002 RMK AO2
     T02460220=
KDUX 080707Z AUTO 00000KT 7SM RA SCT020 BKN025 BKN038 17/16 A3021
     RMK AO2 P0001 T01720162=
KEBG 080706Z AUTO 00000KT 10SM -DZ SCT012 SCT025 BKN060 27/25
     A2983 RMK AO2 T02670250=
KERV 080705Z AUTO 09004KT 10SM SCT013 SCT120 23/22 A2999 RMK AO2
     T02330216=
KF05 080704Z AUTO 36003KT 10SM CLR 24/22 A3003 RMK AO2
     T02370220=
KFEP 080705Z AUTO 00000KT 7SM DZ SCT029 BKN050 OVC060 24/22 A3002
     RMK AO2 T02360215=
KFOA 080705Z AUTO 00000KT 7SM SCT110 26/25 A3004 RMK AO2
     T02560251=
KFWC 080705Z AUTO 00000KT 7SM SCT110 24/23 A3004 RMK AO2=
KFWS 080705Z AUTO 00000KT 10SM SCT014 OVC019 25/23 A3002 RMK AO2
     T02530230=
KGBG 080705Z AUTO 20005KT 10SM -RA OVC008 23/22 A3002 RMK AO2=
KGDJ 080704Z AUTO 00000KT 10SM OVC021 25/23 A3001 RMK AO2
     T02520233=
KGNC 080705Z AUTO 00000KT 10SM OVC100 21/19 A3012 RMK AO2
     T02050192=
KGVT 080705Z AUTO 17006KT 10SM CLR 25/23 A3001 RMK AO2=
KGWB 080705Z AUTO 00000KT 10SM CLR 24/17 A3006 RMK AO2=
KGYB 080705Z AUTO 09005KT 10SM SCT008 BKN012 OVC021 25/24 A2999
     RMK AO2 T02500237=
KGYI 080704Z AUTO 15007KT 10SM BKN070 BKN080 26/23 A3001 RMK AO2
     T02610233=
KHHF 080705Z AUTO 00000KT 10SM SCT047 OVC100 23/22 A3012 RMK AO2
     LTG DSNT SW THRU N T02310217=
KHRX 080705Z AUTO 06005KT 10SM SCT004 SCT014 OVC018 18/17 A3021
     RMK AO2 T01750165=
KHSB 080705Z AUTO 00000KT 5SM BR CLR 22/21 A3005 RMK AO2=
KIJX 080705Z AUTO 00000KT 4SM BR SCT022 SCT037 SCT075 24/23 A3005
     RMK AO2 LTG DSNT N AND NE T02360227=
KIKK 080705Z AUTO 00000KT 4SM HZ CLR 26/23 A3004 RMK AO2 LTG DSNT
     SW=
KINJ 080705Z AUTO 12004KT 10SM CLR 25/23 A2999 RMK AO2
     T02480227=
KJAS 080706Z AUTO 08003KT 10SM CLR 25/24 A3001 RMK AO2
     T02500237=
KJDD 080705Z AUTO 00000KT 7SM BKN006 BKN010 24/24 A3001 RMK
     AO2=
KJSO 080710Z AUTO 00000KT 7SM CLR 24/24 A3003 RMK AO2
     T02360235=
KJWY 080705Z AUTO 15006KT 10SM 25/22 A3000 RMK AO2 T02450224=
KJXI 080705Z AUTO 00000KT OVC008 26/25 A3002 RMK AO2=
KLBR 080705Z AUTO 00000KT 7SM SCT004 BKN019 24/23 A3003 RMK AO2
     T02400230=
KLHB 080703Z AUTO 09004KT 7SM BKN110 25/24 A2997 RMK AO2
     T02520235=
KLNC 080705Z AUTO 00000KT 10SM CLR 24/24 A3000 RMK AO2
     T02410238=
KLUD 080705Z AUTO 13005KT 10SM SCT040 25/22 A3001 RMK AO2
     T02500218=
KM30 080706Z AUTO 00000KT 5SM BR CLR 22/21 A3004 RMK AO2=
KMNZ 080709Z AUTO 14006KT 10SM BKN023 25/23 A3001 RMK AO2
     T02500233=
KMQB 080705Z AUTO 22004KT 10SM BKN008 BKN036 OVC045 23/23 A3005
     RMK AO2 LTG DSNT SW T02310230=
KPNT 080705Z AUTO 00000KT 5SM BR SCT040 OVC110 23/22 A3004 RMK
     AO2=
KPRG 080705Z AUTO 00000KT 5SM BR BKN110 21/21 A3005 RMK AO2
     T02190212=
KRPJ 080705Z AUTO 00000KT 4SM -DZ CLR 21/20 A3004 RMK AO2
     T02070197=
KRSV 080702Z AUTO 00000KT 10SM SCT085 26/23 A3005 RMK AO2
     T02550231=
KCCA 080715Z AUTO 00000KT 4SM BR CLR 23/22 A3006 RMK AO2=
KCDN 080715Z AUTO 27003KT 10SM CLR 26/23 A2999 RMK A02 P000=
KCKI 080715Z AUTO 00000KT 10SM CLR 23/21 A2996 RMK AO2=
KLRO 080715Z AUTO 00000KT 10SM CLR 24/19 A2996 RMK AO2=
KMKS 080715Z AUTO 28003KT 10SM CLR 24/20 A2996 RMK AO2 TSNO=
####018000131####
SAMC32 GMMC 080700 RRA
METAR GMMH 080700Z 01022KT 6000 BKN010 19/17 Q1013=
METAR GMML 080700Z 03016KT 8000 OVC016 19/14 Q1015=
####018000141####
SAUS80 KWBC 080700 RRE
METAR
KMKN 080700Z AUTO 00000KT 10SM 24/22 A3002 RMK AO2=
KSOA 080700Z AUTO 00000KT 10SM 24/21 A3007 RMK AO2=
####018000452####
SAUS70 KWBC 080700 RRK
METAR
KGOP 080700Z AUTO 00000KT 10SM FEW049 26/23 A3001 RMK AO2=
KHBV 080700Z AUTO 02003KT 10SM BKN006 OVC011 25/24 A2989 RMK AO2
     T02520240=
KMDD 080700Z AUTO 12006KT 10SM OVC120 23/20 A3009 RMK AO2
     T02300201=
KIGQ 080700Z AUTO 00000KT 3SM BR SCT055 24/22 A3004 RMK AO2=
KMZZ 080655Z AUTO 00000KT 7SM CLR 21/19 A3007 RMK AO2=
KRWV 080700Z AUTO 00000KT 10SM BKN006 BKN019 24/24 A2999 RMK
     AO2=
####018000218####
SAAF13 LFPW 080700 RRA
METAR GBYD 080700Z 18007KT 9999 -RA BKN011 FEW016CB 25/25 Q1012=
METAR GFLL 080700Z 09010KT 9999 SCT012 FEW027CB 23/22 Q1012 CB-NE=
METAR GVAC 080700Z 05012KT 9999 BKN017 23/19 Q1012 NOSIG=
####018000115####
SAXX60 KWBC 080700 RRI
METAR
KNFG 080656Z 00000KT 5SM BR OVC015 16/13 A2991 RMK AO2 SLP127
     T01610133=
####018000235####
SAAF31 KWBC 080700 RRA
METAR
DBBB 080700Z VRB02KT 3200 BR FEW010 BKN110 25/25 Q1013 BECMG 6000
     NSW=
DGAA 080700Z NIL=
DNKN 080700Z 24010KT 9999 FEW020 24/21 Q1014 NOSIG=
DRRN 080700Z 00000KT CAVOK 25/22 Q1012 NOSIG=
####018000280####
SAAG31 KWBC 080700 RRA
METAR
SAAR 080700Z 00000KT CAVOK 02/M01 Q1020=
SABE 080700Z NIL=
SAME 080700Z 00000KT CAVOK 03/M03 Q1015=
SAME 080700Z NIL=
SARC 080700Z 18006KT 9999 10/09 Q1019=
SARP 080700Z NIL=
SASJ 080700Z NIL=
SAWE 080700Z NIL=
SAZM 080700Z NIL=
####018000116####
SAAS32 KWBC 080705 RRA
METAR
VMMC 080700Z 19013KT 180V260 9999 FEW015 SCT025 BKN090 31/27 Q1006
     NOSIG=
####018000081####
SAAO31 KWBC 080700 RRA
METAR
GMTN 080700Z 00000KT 7000 BKN100 22/19 Q1015=
####018000081####
SAAF32 KWBC 080700 RRB
METAR
FTTJ 080700Z 21008KT CAVOK 25/23 Q1014 NOSIG=
####018000078####
SAMC32 GMMC 080700 RRB
METAR GMTN 080700Z 00000KT 7000 BKN100 22/19 Q1015=
####018000078####
SAAF08 LFPW 080700 RRA
METAR GABS 080700Z 21003KT CAVOK 25/24 Q1015 NOSIG=
####018000073####
SAAS31 KWBC 080705 RRA
METAR
VOBG 080700Z NIL=
VOCI 080700Z NIL=
####018000078####
SAAF17 LFPW 080700 RRA
METAR HLLB 080650Z 01010KT 8000 FEW020 28/19 Q1016=
####018000078####
SASD31 OEJD 080700 RRB
METAR OYSN 080700Z 05011KT 4000 DU NSC 29/03 Q1023=
####018000131####
SAAF14 LFPW 080700 RRA
METAR DRRN 080700Z 00000KT CAVOK 25/22 Q1012 NOSIG=
METAR FTTJ 080700Z 21008KT CAVOK 25/23 Q1014 NOSIG=
####018000081####
SAAW32 KWBC 080630 RRE
METAR
OIHH 080650Z 00000KT CAVOK 30/03 Q1017 A3005=
####018000156####
SAAG41 KWBC 080700 RRA
METAR
SANT 080700Z 36010KT 9999 10/05 Q1020=
SARL 080700Z NIL=
SAVC 080700Z NIL=
SAZN 080700Z 25003KT CAVOK 05/01 Q1011=
####018002264####
SAUS70 KWBC 080712 RRA
METAR
KMWA 080705Z AUTO 00000KT 10SM CLR 24/24 A3006 RMK AO2
     T02440235=
KOSA 080704Z AUTO 00000KT 7SM OVC012 25/24 A3002 RMK AO1
     T02480241=
KPEZ 080705Z AUTO 04006KT 10SM BKN015 25/23 A2993 RMK AO2
     T02520228=
KPKV 080706Z AUTO 06010KT 10SM BKN015 BKN025 BKN038 25/23 A2987
     RMK AO2 T02480232=
KPPA 080705Z AUTO 33005KT 10SM SCT085 BKN110 18/17 A3017 RMK
     AO2=
KPYX 080710Z AUTO 04010KT 7SM SCT060 SCT075 OVC110 20/19 A3016 RMK
     AO2 T02010185=
KRAS 080705Z AUTO 09011KT 5SM BR FEW001 FEW017 SCT032 28/26 A2986
     RMK AO2 LTG DSNT N=
KRBO 080705Z AUTO 02005KT 10SM SCT080 BKN090 BKN120 27/26 A2985
     RMK AO2 LTG DSNT NE T02660255=
KRPH 080705Z AUTO 05003KT 10SM CLR 24/21 A2998 RMK AO2
     T02350212=
KRYW 080705Z AUTO 09003KT 10SM OVC012 25/22 A2999 RMK AO2=
KSAR 080705Z AUTO 18003KT 10SM CLR 26/23 A3005 RMK AO2 LTG DSNT
     W=
KSLR 080702Z AUTO 00000KT 10SM CLR 25/23 A3003 RMK AO2
     T02530230=
KSNK 080706Z AUTO 00000KT 10SM BKN110 21/20 A3007 RMK AO2
     T02080197=
KSWW 080705Z AUTO 14006KT 10SM CLR 22/21 A3007 RMK AO1
     T02210208=
KT65 080705Z AUTO 36005KT 10SM SCT050 26/25 A2981 RMK AO2
     T02620252=
KT82 080705Z AUTO 11003KT 24/23 A3001 RMK AO1 T02360225=
KTAZ 080705Z AUTO 00000KT 10SM CLR 24/23 A3003 RMK AO2=
KTFP 080705Z AUTO 00000KT 10SM -RA SCT015 SCT027 SCT075 27/26
     A2984 RMK AO2 T02700255=
KTIP 080705Z AUTO 31004KT 10SM SCT050 SCT060 SCT070 24/23 A3005
     RMK AO2 T02420228=
KUVA 080705Z AUTO 03004KT 10SM CLR 24/23 A2994 RMK AO2
     T02410227=
KXBP 080705Z AUTO 13003KT 10SM BKN043 25/22 A3001 RMK AO2
     T02510222=
K2G4 080710Z AUTO 00000KT 10SM OVC060 23/13 A3019 RMK AO1=
K2W6 080709Z AUTO 00000KT 7SM CLR 23/21 A2999 RMK AO1=
KCGS 080715Z AUTO 00000KT 7SM CLR 26/23 A2999 RMK AO1=
KMTN 080712Z AUTO 00000KT 7SM CLR 27/24 A3000 RMK AO2=
KFDK 080704Z AUTO 00000KT 7SM SCT090 24/21 A3002 RMK AO2=
KW29 080709Z AUTO 11003KT 7SM SCT100 26/22 A2998 RMK AO1=
KE38 080705Z AUTO 00000KT 10SM SCT100 20/17 A3019 RMK AO2
     T01980166=
KTYQ 080705Z AUTO 00000KT 7SM CLR 21/20 A3007 RMK AO2=
KVYS 080705Z AUTO 00000KT 7SM -RA SCT065 23/22 A3003 RMK AO2
     T02310215=
####018000710####
SPUS70 KWBC 080712
SPECI
KBML 080708Z AUTO 00000KT 1 1/2SM BR BKN003 BKN007 OVC050 19/19
     A3008 RMK AO2 CIG 001V005 $=
KJEF 080708Z AUTO 11003KT 10SM -RA FEW021 BKN029 OVC085 24/23
     A3004 RMK AO2 LTG DSNT E AND SE RAB0654 P0000=
KOWD 080708Z AUTO 15003KT 6SM HZ OVC011 24/21 A3005 RMK AO2=
PAWD 080708Z AUTO 00000KT 2SM -RA BR BKN003 BKN008 OVC060 10/09
     A2998 RMK AO2 P0000 TSNO=
KCYS 080709Z AUTO 10006KT 2 1/2SM -RA BR OVC002 12/12 A3036 RMK
     AO2 RAB02 P0000 TSNO=
KUUU 080709Z AUTO 15004KT 8SM FEW004 SCT017 BKN029 22/21 A3006 RMK
     AO2=
KGKY 080710Z AUTO 17004KT 10SM BKN018 26/23 A3000 RMK AO2=
KNSE 080702Z AUTO 31003KT 3SM BR CLR 23/21 A3003 RMK AO2 $=
####018000176####
SAAW34 KWBC 080645 RRE
METAR
UACP 080700Z NIL=
UADD 080700Z 02004MPS 020V090 9999 NSC 32/04 Q1014 NOSIG RMK
     QFE703/0938=
UAII 080700Z NIL=
UASP 080700Z NIL=
####018000434####
SAUS80 KWBC 080712
METAR
KPSN 080705Z AUTO 12004KT 10SM 24/24 A3001 RMK AO2 T02420235=
KRFI 080705Z AUTO 00000KT 7SM CLR 25/24 A3000 RMK AO2
     T02450235=
KSEP 080705Z AUTO 00000KT 10SM SCT026 SCT070 23/21 A3001 RMK
     AO1=
KCBE 080710Z AUTO 01003KT 10SM CLR 23/18 A3009 RMK AO1=
KESN 080715Z AUTO 00000KT 5SM BR CLR 23/23 A3001 RMK AO2=
KEHA 080708Z AUTO 29006KT 17/15 RMK AO1 PK WND 12 008
     T01670151=
####018000075####
SAAW42 KWBC 080700 RRB
METAR
OJAQ 080700Z 36018KT CAVOK 32/25 Q1008=
####018000948####
SAAU31 KWBC 080700 RRA
METAR
YBCG 080700Z AUTO 19012KT 9999NDV // SCT055 OVC094 16/12 Q1019=
YBMA 080700Z AUTO 18012KT 9999NDV // NCD 17/11 Q1018=
YBRK 080700Z 24004KT 9999 VCSH FEW004 BKN030 13/12 Q1018=
YBRM 080700Z 06009KT 9999 SCT034 29/20 Q1010=
YMHB 080700Z 00000KT 9999 FEW035 08/05 Q1029=
YPAD 080700Z 19003KT 9999 FEW045 SCT060 13/09 Q1025=
YPDN 080700Z 36011KT 9999 SCT049 BKN400 30/20 Q1011=
YPEA 080700Z 35018KT 9999 -SHRA BKN018 BKN025 16/12 Q1000 INTER
     0700/1000 34020G30KT 3000 +SHRA BKN010=
YPLM 080700Z 07006KT 9999 FEW010 BKN080 BKN200 21/16 Q1008 RMK
     HZ=
YPPD 080700Z 04013KT 9999 BKN016 25/20 Q1009=
YSCB 080700Z 06005KT 9999 FEW050 09/02 Q1026 RMK USE TAF FOR
     ARRIVALS 0900Z NOSIG=
YSDU 080700Z AUTO 12007KT 9999NDV // NCD 12/05 Q1023=
YSNF 080700Z 11010KT 9999 SCT020 BKN025 BKN100 14/10 Q1016=
YSRI 080700Z AUTO 00000KT 9999NDV // SCT028 BKN037 OVC052 12/11
     Q1026=
####018000287####
SACI31 KWBC 080700 RRA
METAR
RCKH 080700Z 25012KT 210V290 9999 FEW013 BKN200 32/26 Q1008 NOSIG
     RMK 28013KT/RWY09=
RCSS 080700Z 31010KT 280V350 9999 FEW020 SCT030 BKN080 34/24 Q1006
     NOSIG RMK 32009KT/R10=
RCTP 080700Z 24019KT 9999 FEW025 SCT150 33/25 Q1006 NOSIG=
####018000696####
SAUS20 KNKA 080711
METAR KBNL 080715Z AUTO 26004KT 10SM CLR 24/19 A3000 RMK AO2 =
SPECI KBRL 080710Z AUTO 3SM BR CLR 23/22 A3001 RMK AO2 $=
METAR KCQW 080715Z AUTO 27004KT 7SM CLR 25/18 A2997 RMK AO2 =
SPECI KIML 080710Z AUTO 00000KT 10SM BKN030 OVC060 17/15 A3027 RMK 
    AO2=
METAR KLKR 080715Z AUTO 00000KT 9SM CLR 20/20 A2999 RMK AO2 =
SPECI KMCI 080710Z 36003KT 8SM SCT008 BKN014 BKN045 23/22 A3008 RMK 
    AO2 $=
METAR KNFG 080656Z 00000KT 5SM BR OVC015 16/13 A2991 RMK AO2 SLP127
      T01610133=
METAR KOLV 080715Z AUTO 00000KT 8SM CLR 24/24 A3006 RMK A01 P000 =
SPECI KSBM 080710Z AUTO 26004KT 10SM -RA SCT015 OVC095 23/22 A3001 
    RMK AO2 RAB0659 P0000=
####018000089####
SADN31 KWBC 080650 RRA
METAR
EKBI 080650Z 18005KT 150V230 9999 BKN040 19/15 Q1018=
####018000088####
SAEW31 KWBC 080700 RRB
METAR
LPPD 080700Z 26005KT 9999 SCT014 BKN020 19/15 Q1023=
####018000139####
SAEM31 KWBC 080700 RRB
METAR
LOIH 080700Z 00000KT 35KM SKC 22/15 Q1021 RMK SKC=
LOWZ 080700Z 29003KT 30KM SKC 14/08 Q1024 RMK SKC=
####018000133####
SAIQ31 KWBC 080700 RRB
METAR
KQXJ 080655Z 30018G27KT 4000 DU HZ SCT000 43/01 A2958 RMK DU
     SCT000 SLP020 PA+337 DA+3622=
####018000089####
SAFR32 KWBC 080700 RRA
METAR
LFMT 080708Z 05006KT 010V070 CAVOK 25/14 Q1020 NOSIG=
####018000233####
SAID31 KWBC 080700 RRA
METAR
WAAA 080700Z 30008KT 270V330 9999 FEW020 31/26 Q1008=
WIII 080700Z 32006KT 290V360 8000 FEW019CB SCT02031/22 Q1009 RM K
     CB TO W NOSIG=
WIMM 080700Z 01008KT 7000 SCT017 33/24 Q1009 NOSIG=
####018000122####
SAIY31 KWBC 080650 RRC
METAR
LIEE 080655Z 28005KT CAVOK 23/19 Q1018 RMK VIS MIN 9999 WIND THR14
     33006KT BLU=
####018000085####
SAHK31 VHHH 080700 RRA
METAR RPLB 080700 24008KT 9999 FEW020 BKN300 34/22 Q1008=
####018000075####
SAFR41 KWBC 080700 RRB
METAR
LFLV 080704Z VRB01KT CAVOK 21/14 Q1020=
####018000123####
SAIY32 KWBC 080550 RRF
METAR
LIPX 080645Z 06009KT 9999 SCT060 BKN080 25/15 Q1021 RMK BKN VIS
     //END PART 01//=
####018000370####
SAIY41 KWBC 080650 RRC
METAR
LIBY 080655Z 34015KT 9999 FEW020 23/14 Q1015 RMK FEW QUK 3 QUL 1 N
     VIS MAR 20 KM VIS MIN 9999=
LICF 080655Z 34002KT 9999 FEW040 27/24 Q1017 RMK FEW QUK 1 QUL 0
     VIS MAR 10 KM MON LIB NC VIS MIN 9999=
LIEB 080655Z 03007KT 9999 SCT020 26/23 Q1017 RMK SCT QUK 0 QUL 0
     VIS MAR 15 KM MON W CIME INC NC VIS MIN 9999=
####018000123####
SAIY43 KWBC 080550 RRF
METAR
LIPX 080645Z 06009KT 9999 SCT060 BKN080 25/15 Q1021 RMK BKN VIS
     //END PART 01//=
####018000075####
SANT31 KWBC 080700 RRA
METAR
LPBJ 080700Z 15004KT CAVOK 22/19 Q1015=
####018000284####
SAPO31 KWBC 080700 RRB
METAR
LPBJ 080700Z 15004KT CAVOK 22/19 Q1015=
LPMT 080700Z 02005KT CAVOK 20/18 Q1014 CLD5 FEW220 BLU=
LPOV 080700Z 17008KT 6000 FEW005 19/17 Q1013=
LPPD 080700Z 26005KT 9999 SCT014 BKN020 19/15 Q1023=
LPST 080700Z VRB02KT 9999 FEW003 17/17 Q1014=
####018000116####
SAPH31 KWBC 080700 RRA
METAR
RPLB 080700Z NIL=
RPMD 080700Z 18006 9999 FEW015CB SCT290 31/27 1008 CB NE SW=
####018000709####
SARS31 KWBC 080700 RRB
METAR
UELL 080700Z 18002MPS 9999 SCT026CB BKN200 19/14 Q1010 TEMPO TS
     RMK QFE683 08CLRD70=
UEST 080700Z 11004MPS CAVOK 10/01 Q1016 NOSIG RMK QFE761
     21000060=
ULLI 080700Z 13003MPS 090V170 CAVOK 27/19 Q1013 NOSIG=
ULMM 080700Z 32003MPS 9999 BKN012CB 12/09 Q1016 NOSIG RMK QFE755
     32190060=
UOHH 080700Z 00000MPS 9999 FEW030 11/04 Q1023 NOSIG RMK QFE761
     06090060=
UOOO 080700Z 03007G09MPS CAVOK 21/09 Q1010 NOSIG RMK QFE743
     010///60=
UUDD 080700Z 13003MPS 100V160 CAVOK 23/18 Q1015 NOSIG=
UUEE 080700Z 12005MPS CAVOK 26/17 Q1014 NOSIG=
UUEM 080700Z NIL=
UUWW 080700Z 13003MPS 8000 SCT100 BKN200 22/18 Q1014 06000070
     NOSIG=
####018001472####
SARA31 KWBC 080700 RRC
METAR
UEEE 080700Z 34002MPS 9999 SCT050CB BKN200 25/08 Q1008 TEMPO
     VRB14MPS -TSRA RMK QFE747 2309//60=
UHHH 080700Z 03007MPS 9999 BKN029CB OVC100 18/13 Q1010 NOSIG RMK
     QFE751/1001 55090060=
UHMA 080700Z NIL=
UHMM 080700Z 25002MPS 9999 OVC026 14/12 Q1016 NOSIG RMK QFE747
     88010070 MT OBSC=
UHMP 080700Z NIL=
UHPP 080700Z 18007MPS 9999 NSC 11/07 Q1017 NOSIG RMK QFE759/1012
     MT OBS SC070=
UHSS 080700Z 16003MPS 9999 BKN023CB 15/12 Q1010 NOSIG RMK MT OBSC
     QFE756/1008 19CLRD70=
UHWW 080700Z 24006MPS 210V270 9999 BKN021 OVC070 21/16 Q1009 NOSIG
     RMK QFE756/1008 75CLRD70=
UIAA 080700Z VRB02MPS 9999 BKN050CB OVC200 31/10 Q1005 TEMPO -TSRA
     RMK QFE695 29CLRD70=
UIBB 080700Z 06004MPS 9999 FEW033 BKN200 28/13 Q1006 NOSIG RMK
     QFE712/0949 30CLRD60=
UIII 080700Z 16005MPS 9999 FEW050CB SCT100 OVC200 21/12 Q1006
     NOSIG RMK QFE712/0950 12CLRD60=
UIUU 080700Z 21006G11MPS 9999 SCT040CB OVC100 25/12 Q1007 NOSIG
     RMK QFE711/0948=
ULAA 080700Z 29004MPS 250V330 CAVOK 26/19 Q1014 NOSIG RMK
     QFE759/1012 SC070=
UNAA 080700Z 19003MPS 150V220 9999 SCT030CB BKN100 22/13 Q1008
     NOSIG RMK QFE734 201///65=
UNNT 080700Z 25006G13MPS 200V280 9999 -SHRA BKN050CB OVC100 17/06
     Q1007 NOSIG RMK QFE745/0994 25090070=
USNN 080700Z 16005MPS P6000 SCT026CB BKN200 18/12 Q1002 NOSIG RMK
     QFE746 SC065=
UUEE 080700Z 12005MPS CAVOK 26/17 Q1014 NOSIG=
####018001131####
SARS32 KWBC 080700 RRA
METAR
URKA 080700Z 09002MPS 9999 SCT030 27/20 Q1013 NOSIG RMK уг 065=
URKA 080700Z 09002MPS 9999 SCT030 27/20 Q1013 NOSIG RMK 065=
URKK 080700Z 08005MPS 9999 FEW030 SCT100 27/19 Q1013 NOSIG RMK
     QFE757 SC070=
URKM 080700Z 10002MPS CAVOK 27/18 Q1013 NOSIG RMK QFE741=
URMM 080700Z 09004G07MPS 060V130 9999 SCT040 27/20 Q1014 NOSIG RMK
     з/п SC070=
URMM 080700Z 09004G07MPS 060V130 9999 SCT040 27/20 Q1014 NOSIG RMK
     / SC070=
URMN 080700Z 01001MPS 9999 SCT026 25/19 Q1015 NOSIG RMK з/п QFE724
     SC07=
URMN 080700Z 01001MPS 9999 SCT026 25/19 Q1015 NOSIG RMK / QFE724
     SC07=
URMT 080700Z 07005G09MPS 9999 FEW020 26/17 Q1015 NOSIG RMK QFE721
     SC07=
URRR 080700Z VRB01MPS 9999 FEW023 28/17 Q1014 NOSIG RMK SC070=
URSS 080700Z 26002MPS 9999 SKC 27/21 Q1011 NOSIG RMK з/п QFE757
     06CLRD70=
URSS 080700Z 26002MPS 9999 SKC 27/21 Q1011 NOSIG RMK / QFE757
     06CLRD70=
URWA 080700Z 36004MPS CAVOK 33/13 Q1011 NOSIG RMK SC07=
URWI 080700Z 01003MPS CAVOK 27/18 Q1014 NOSIG RMK SC065=
URWW 080700Z 33004G07MPS CAVOK 27/18 Q1014 NOSIG RMK SC070=
####018000944####
SARS33 KWBC 080700 RRA
METAR
USCC 080700Z 35007G10MPS 310V020 9999 FEW040 24/03 Q1014 NOSIG RMK
     QFE741 27000070=
USDD 080700Z 04009G12MPS CAVOK 15/00 Q1016 NOSIG RMK QFE756/1008
     SC060=
USMU 080700Z 01007MPS 9000 -SHRA SCT019CB OVC066 10/09 Q1005 NOSIG
     RMK QFE748 09250345=
USNN 080700Z 16005MPS P6000 SCT026CB BKN200 18/12 Q1002 NOSIG RMK
     QFE746 SC065=
USPP 080700Z 35002MPS 280V360 CAVOK 26/09 Q1016 NOSIG RMK
     QFE751/1002 21090060=
USRK 080700Z 36004MPS 5000 BR OVC012 12/11 Q1002 TEMPO 2000 BR
     BKN004 RMK QFE745 351///55=
USRR 080700Z 36004G07MPS 6000 OVC009 12/10 Q1003 TEMPO BKN005 RMK
     QFE747 йръ 25////60=
USRR 080700Z 36004G07MPS 6000 OVC009 12/10 Q1003 TEMPO BKN005 RMK
     QFE747 25////60=
USSS 080700Z 36006G09MPS 320V020 CAVOK 23/02 Q1015 NOSIG RMK
     QFE741 260///70=
USTR 080700Z 32009G12MPS 9999 NSC 19/05 Q1011 NOSIG RMK
     QFE749/0998 30CLRD65=
####018001435####
SARS41 KWBC 080700 RRA
METAR
UUBP 080700Z 00000MPS 9999 FEW033 SCT/// 23/19 Q1012 NOSIG=
UUEE 080700Z 12005MPS CAVOK 26/17 Q1014 NOSIG=
UUEM 080700Z NIL=
UUOO 080700Z VRB02MPS 9999 FEW033 25/16 Q1014 NOSIG RMK
     13090070=
UUWW 080700Z 13003MPS 8000 SCT100 BKN200 22/18 Q1014 06000070
     NOSIG=
UUYH 080700Z 22002MPS CAVOK 23/07 Q1018 NOSIG RMK QFE 751
     18CLRD60=
UUYS 080700Z 16002MPS CAVOK 19/07 Q1017 NOSIG RMK QFE756
     14CLRD60=
UUYY 080700Z VRB02MPS 9999 FEW023 29/17 Q1016 NOSIG 19CLRD61 RMK
     QFE753/1004=
UWGG 080700Z 12004MPS 8000 SKC 31/10 Q1016 NOSIG RMK QFE755
     18090070=
UWKD 080700Z 36003G06MPS CAVOK 31/13 Q1015 NOSIG RMK QFE752/1002
     11CLRD70=
UWKE 080700Z 00000MPS CAVOK 28/10 Q1016 NOSIG RMK QFE745/0994
     22090070=
UWLW 080700Z 11002MPS 8000 SKC 31/13 Q1015 NOSIG 02CLRD60 RMK
     QFE755=
UWOO 080700Z 06006MPS 030V090 P5000 SCT070 30/04 Q1013 08уLRD65
     NOSIG RMK QFE749/0999=
UWOO 080700Z 06006MPS 030V090 P5000 SCT070 30/04 Q1013 08LRD65
     NOSIG RMK QFE749/0999=
UWPP 080700Z 12004MPS 9999 SCT033CB BKN100 26/11 Q1014 NOSIG RMK
     QFE746 11090069=
UWSS 080700Z 06003MPS CAVOK 26/12 Q1015 NOSIG RMK QFE749
     120///60=
UWUU 080700Z 06004MPS 020V110 CAVOK 26/08 Q1016 82010060 NOSIG RMK
     QFE751/1001 MOD TURB 500-1600=
UWWW 080700Z 06006MPS CAVOK 29/08 Q1016 NOSIG RMK QFE749/0998
     05CLRD60 15//99//=
####018000292####
SASD41 KWBC 080700 RRA
METAR
OEAB 080700Z 05014KT 8000 FEW020 SCT200 30/00 Q1022 NOSIG=
OEAH 080700Z 01010KT 9000 NSC 42/09 Q1003 NOSIG=
OEBA 080700Z 11008KT 8000 SKC 33/05 Q1018 NOSIG=
OEBH 080700Z 08006KT CAVOK 37/04 Q1013 NOSIG=
OEGN 080700Z 17007KT CAVOK 36/27 Q1003 NOSIG=
####018000329####
SASD43 KWBC 080700 RRA
METAR
OEMK 080700Z 33002KT CAVOK 38/23 Q1002=
OENG 080700Z 06005KT 5000 DU SKC 36/00 Q1013 NOSIG=
OEPA 080700Z 36012KT CAVOK 42/04 Q1005=
OERF 080700Z 34002KT CAVOK 40/11 Q1007=
OERR 080700Z 10012KT CAVOK 40/10 Q1008=
OESH 080700Z 02009KT 6000 FEW040 40/13 Q1005 NOSIG=
OESK 080700Z NIL=
####018000314####
SASD42 KWBC 080700 RRA
METAR
OEGS 080700Z 09006KT CAVOK 40/08 Q1009=
OEGT 080700Z 29008KT CAVOK 31/02 Q1010=
OEHL 080700Z 13002KT CAVOK 40/02 Q1014 NOSIG=
OEKB 080700Z 00000KT CAVOK 42/26=
OEKK 080700Z 06008KT CAVOK 42/11 Q1006=
OEKM 080700Z 09014KT 9000 SKC 30/05 Q1021 NOSIG=
OEMH 080700Z NIL=
####018000306####
SASD44 KWBC 080700 RRA
METAR
OETB 080700Z 33003KT CAVOK 32/09 Q1011 NOSIG=
OETF 080700Z 12006KT CAVOK 35/04 Q1016 NOSIG=
OETR 080700Z 02010KT CAVOK 34/05 Q1011=
OEWD 080700Z 05014KT 7000 SKC 39/09 Q1007=
OEWJ 080700Z 31019KT CAVOK 32/27 Q1004=
OEYN 080700Z 17007KT CAVOK 36/21 Q1001 NOSIG=
####018000085####
SAUS41 KWBC 080700 RRC
METAR
KFDK 080704Z AUTO 00000KT 7SM SCT090 24/21 A3002=
####018000091####
SAUK41 KWBC 080650 CCB
METAR
EGDM 080650Z 30006KT 6000 BR FEW005 BKN012 15/14 Q1019=
####018000083####
SAUS42 KWBC 080700 RRC
METAR
KGLE 080704Z AUTO 00000KT 10SM CLR 25/23 A3002=
####018002954####
SAXX99 KWBC 080700 RRL
METAR
DAAP 080700Z 11008KT CAVOK 32/10 Q1016=
DFFD 080700Z NIL=
GMML 080700Z 03016KT 8000 OVC016 19/14 Q1015=
KCBE 080710Z AUTO 01003KT 10SM CLR 23/18 A3009 RMK AO1=
KESN 080715Z AUTO 00000KT 5SM BR CLR 23/23 A3001 RMK AO2=
KFME 080712Z AUTO 10004KT 5SM CLR 21/21 A3001 RMK AO1=
LKKU 080700Z 35004KT CAVOK 18/11 Q1023=
LKLB 080700Z VRB03KT CAVOK 20/07 Q1024=
OEDM 080700Z 07010KT CAVOK 39/05 Q1011=
OEKJ 080700Z NIL=
RPLI 080700Z 27010KT 9999 OCCSNL TS SCT019CB 34/29 Q1008 RETS=
SADF 080700Z NIL=
SAOC 080700Z 36014KT 9999 04/M06 Q1017=
UACK 080700Z 33008G11MPS 9999 BKN051 18/03 Q1011 02010070 NOSIG
     RMK QFE735=
UERP 080700Z 03005MPS 9999 SCT038 BKN046 15/08 Q1014 NOSIG RMK
     QFE716 35090065=
UERR 080700Z 31005MPS 9999 SCT013 OVC023CB 14/14 Q1011 NOSIG RMK
     QFE727 24290255=
UESO 080700Z 26009G13MPS 9999 OVC008 07/05 Q1003 NOSIG RMK QFE750
     SC060=
UHNN 080700Z 08001MPS 9999 -SHRA BKN010CB OVC070 13/12 Q1012 NOSIG
     RMK QBB310 QFE754 110///60=
UHSH 080700Z NIL=
ULDD 080700Z 08009MPS CAVOK 07/03 Q1019 NOSIG RMK QFE764=
ULKK 080700Z VRB01MPS 6000 FEW099 30/19 Q1015 NOSIG RMK QFE757=
ULOL 080700Z NIL=
ULOO 080700Z VRB01MPS P6000 FEW033 SCT200 26/19 Q1012 NOSIG RMK
     QFE755=
ULWW 080700Z 12004MPS CAVOK 29/19 Q1016 NOSIG RMK QFE751
     15CLRD60=
UMKK 080700Z 30006MPS P8000 BKN200 21/17 Q1019 NOSIG RMK QFE 763
     SC07=
UNBB 080700Z 21008MPS 9999 VCTS SCT033CB SCT100 20/04 Q1008 NOSIG
     RMK QFE734=
UNEE 080700Z 26006G11MPS 9999 SCT026 BKN200 18/15 Q1008 NOSIG RMK
     QFE733 23CLRD60=
UNKL 080700Z VRB01MPS 9999 BKN017CB OVC083 17/15 Q1009 NOSIG RMK
     QFE731 29////55=
UNOO 080700Z 29006G09MPS 9999 BKN023CB 13/09 Q1007 NOSIG 25CLRD06
     RMK QFE747=
UNWW 080700Z 31004MPS 9999 BKN026CB OVC130 18/09 Q1009 NOSIG RMK
     QFE730 19CLRD70=
UOII 080700Z 10005MPS 9999 FEW040 BKN200 28/16 Q1005 NOSIG RMK
     QFE751 30////60=
URML 080700Z 01005G10MPS 9999 SKC 30/20 Q1013 NOSIG RMK QFE759 з/п
     уг07=
URML 080700Z 01005G10MPS 9999 SKC 30/20 Q1013 NOSIG RMK QFE759 /
     07=
UWLL 080700Z 10002MPS CAVOK 29/09 Q1016 NOSIG RMK QFE749/0999
     SC065=
UWOR 080700Z 05008MPS CAVOK 26/05 Q1015 07CLRD65 NOSIG RMK
     QFE736/0981=
WADD 080700Z 09007KT 9999 FEW018CB FEW018 30/25 Q1008 NOSIG=
WALL 080700Z 12005KT 9999 FEW020CB SCT020 32/26 Q1007 RMK CB TO
     SW=
WARR 080700Z 10007KT 9999 FEW020CB FEW020 29/23 Q1008 NSG=
YAMB 080700Z 18010KT 9999 BKN040 BKN050 18/10 Q1020=
YBHM 080700Z AUTO 14013KT //// // ////// 19/16 Q1016=
YCIN 080700Z AUTO 12006KT //// // ////// 25/19 Q1011=
YFRT 080700Z AUTO 02014KT //// // ////// 18/02 Q1014=
YMAV 080700Z AUTO 12005KT 9999NDV // OVC052 11/08 Q1027=
YMLT 080700Z AUTO 15003KT 9999NDV // SCT037 07/04 Q1029=
YPGV 080700Z 14014KT 9999 SCT018 BKN050 25/21 Q1012=
YPKG 080700Z 35009G19KT CAVOK 20/04 Q1006 RMK 5CU062=
####018001510####
SAUS43 KWBC 080700 RRB
METAR
K1H2 080705Z AUTO 00000KT 10SM SCT120 25/24 A3004=
KAAA 080703Z AUTO 00000KT 5SM BR BKN070 OVC095 23/22 A3004=
KC09 080704Z AUTO 00000KT 4SM BR OVC110 21/21 A3003=
KDKB 080701Z AUTO 00000KT 7SM -DZ BKN015 BKN022 BKN090 22/21
     A3004=
KDNV 080705Z AUTO 00000KT 10SM CLR 23/21 A3002=
KENL 080704Z AUTO 20003KT 10SM CLR 24/16 A3004=
KFEP 080705Z AUTO 00000KT 7SM DZ SCT029 BKN050 OVC060 24/22
     A3002=
KFOA 080705Z AUTO 00000KT 7SM SCT110 26/25 A3004=
KFWC 080705Z AUTO 00000KT 7SM SCT110 24/23 A3004=
KGBG 080705Z AUTO 20005KT 10SM -RA OVC008 23/22 A3002=
KHSB 080705Z AUTO 00000KT 5SM BR CLR 22/21 A3005=
KIGQ 080700Z AUTO 00000KT 3SM BR SCT055 24/22 A3004=
KIJX 080705Z AUTO 00000KT 4SM BR SCT022 SCT037 SCT075 24/23
     A3005=
KIKK 080705Z AUTO 00000KT 4SM HZ CLR 26/23 A3004=
KJOT 080706Z AUTO 00000KT 7SM SCT023 23/22 A3003=
KLOT 080701Z AUTO 00000KT 7SM SCT027 SCT120 23/22 A3004=
KMQB 080705Z AUTO 22004KT 10SM BKN008 BKN036 OVC045 23/23
     A3005=
KMWA 080705Z AUTO 00000KT 10SM CLR 24/24 A3006=
KOLY 080703Z AUTO 00000KT 5SM BR SCT090 24/23 A3004=
KPNT 080705Z AUTO 00000KT 5SM BR SCT040 OVC110 23/22 A3004=
KPPQ 080705Z AUTO 00000KT 3SM -RA BKN001 BKN030 OVC049 23/23
     A3005=
KPRG 080705Z AUTO 00000KT 5SM BR BKN110 21/21 A3005=
KSAR 080705Z AUTO 18003KT 10SM CLR 26/23 A3005=
KTAZ 080705Z AUTO 00000KT 10SM CLR 24/23 A3003=
KTIP 080705Z AUTO 31004KT 10SM SCT050 SCT060 SCT070 24/23
     A3005=
####018000079####
SASD31 OEJD 080700 RRB
METAR OYSN 080700Z 05011KT 4000 DU NSC 29/03 Q1023=
####018000209####
SAUS44 KWBC 080700 RRB
METAR
K11R 080704Z AUTO 07004KT 7SM CLR 25/24 A2995=
KBPG 080705Z AUTO 09003KT 10SM CLR 22/20 A3009=
KBYY 080706Z AUTO 08007KT 7SM -DZ SCT025 SCT035 BKN085 27/26
     A2989=
####018000135####
SAUS51 KWBC 080700 RRA
METAR
KCBE 080710Z AUTO 01003KT 10SM CLR 23/18 A3009=
KESN 080715Z AUTO 00000KT 5SM BR CLR 23/23 A3001=
####018000579####
SABN32 OBBI 080700
METAR OMAA 080700Z 17010KT 130V250 CAVOK 40/17 Q1000 A2954 NOSIG=
METAR OMAD NIL=
METAR OMAL 080700Z 21007KT 160V250 7000 NSC 38/26 Q1003 A2963=
METAR OMDB 080700Z VRB04KT CAVOK 41/22 Q1001 BECMG 34010KT=
METAR OMDW 080700Z 18005KT 120V250 CAVOK 40/21 Q1001 NOSIG=
METAR OMFJ 080700Z 08009KT 040V120 6000 FEW020 34/26 Q1002 A2960=
METAR OMRK 080700Z 34004KT CAVOK 41/28 Q0999 A2952=
METAR OMSJ 080700Z 36003KT 260V070 6000 NSC 41/20 Q1001=
METAR OOMS 080700Z 01006KT 330V050 6000 BKN025 SCT120
BKN250 33/29 Q1002 NOSIG=
METAR OOSA NIL=
####018000088####
SASC20 FSIA 080700
METAR FSIA 080704Z 13006KT 9999 SCT016 BKN240 27/22 Q1013 NOSIG=
####018000093####
SAUS52 KWBC 080700 RRC
METAR
KSEP 080705Z AUTO 00000KT 10SM SCT026 SCT070 23/21 A3001=
####018000113####
SAUS45 KCYS 080712
MTRECS
SAUS70 KECS 080707
METAR KECS 080659Z AUTO 10006KT 10SM CLR 15/10 A3030 RMK

####018000113####
SAUS45 KCYS 080712
MTRW43
SAUS70 KW43 080705
METAR KW43 080655Z AUTO 19009KT 10SM CLR 09/07 A3029 RMK

####018000092####
SPUS53 KWBC 080712
SPECI
KCYS 080709Z AUTO 10006KT 2 1/2SM -RA BR OVC002 12/12 A3036=
####018000083####
SAUS53 KWBC 080700 RRD
METAR
KLNC 080705Z AUTO 00000KT 10SM CLR 24/24 A3000=
####018000091####
SAID31 WIII 080700
METAR WABB 080700Z 31007KT 9999 RA FEW017CB BKN020 28/24 Q1008 NSG=
####018001378####
SAAU32 YBBN 080700
METAR YAMB 080700Z 18010KT 9999 BKN040 BKN050 18/10 Q1020=
METAR YMAV 080700Z AUTO 12005KT 9999NDV // OVC052 11/08 Q1027=
METAR YBRM 080700Z 06009KT 9999 SCT034 29/20 Q1010=
METAR YCIN 080700Z AUTO 12006KT //// // ////// 25/19 Q1011=
METAR YSDU 080700Z AUTO 12007KT 9999NDV // NCD 12/05 Q1023=
METAR YFRT 080700Z AUTO 02014KT //// // ////// 18/02 Q1014=
METAR YGEL 080700Z 33023KT 9999 -SHRA FEW024 SCT060 BKN085 20/13
Q1003=
METAR YPGV 080700Z 14014KT 9999 SCT018 BKN050 25/21 Q1012=
METAR YBHM 080700Z AUTO 14013KT //// // ////// 19/16 Q1016=
METAR YMHB 080700Z 00000KT 9999 FEW035 08/05 Q1029=
METAR YPKG 080700Z 35009G19KT CAVOK 20/04 Q1006
RMK 5CU062=
METAR YMLT 080700Z AUTO 15003KT 9999NDV // SCT037 07/04 Q1029=
METAR YBMA 080700Z AUTO 18012KT 9999NDV // NCD 17/11 Q1018=
METAR YSNF 080700Z 11010KT 9999 SCT020 BKN025 BKN100 14/10 Q1016=
METAR YPEA 080700Z 35018KT 9999 -SHRA BKN018 BKN025 16/12 Q1000
INTER 0700/1000 34020G30KT 3000 +SHRA BKN010=
METAR YPPD 080700Z 04013KT 9999 BKN016 25/20 Q1009=
METAR YSRI 080700Z AUTO 00000KT 9999NDV // SCT028 BKN037 OVC052 12/11
Q1026=
METAR YBRK 080700Z 24004KT 9999 VCSH FEW004 BKN030 13/12 Q1018=
METAR YWLM 080700Z 26006KT 9999 VCSH SCT020 BKN040 13/12 Q1024
INTER 0700/1000 4000 SHRA BKN010=
METAR YPWR 080700Z AUTO 08007KT 9999NDV // NCD 15/M02 Q1023=
####018000080####
SAMP31 LMMM 080700 RRB
METAR HLLB 080650Z
01010KT 8000 FEW020 28/19 Q1016=
####018000072####
SASU01 HSSS 080700
METAR HSSS 080700Z 25006KT 6000M HZ 35/15 Q1010=
####018000092####
SPUS73 KWBC 080712
SPECI
KCYS 080709Z AUTO 10006KT 2 1/2SM -RA BR OVC002 12/12 A3036=
####018000145####
SAUS73 KWBC 080700 RRD
METAR
KALN 080703Z AUTO 00000KT 10SM SCT046 SCT100 25/24 A3003=
KIKK 080705Z AUTO 00000KT 4SM HZ CLR 26/23 A3004=
####018000163####
SACN70 CWAO 080700 RRA
WSZ SA 0700 AUTO8 M M M 149/15/14/2907/M/0002 PCPN 0.2MM PAST HR
3008 80MM=
XWG SA 0700 AUTO8 M M M 139/14/12/2606/M/ 0003 34MM=

####018000480####
SACN94 CWAO 080700 RRA
WQF SA 0700 AUTO8 M M M M/17/06/3203/M/ M 82MM=
WQH SA 0700 AUTO8 M M M M/23/21/1403/M/ M 54MM=
WQY SA 0700 AUTO8 M M M 104/09/09/3511/M/ PK WND 3517 0615Z 3001
49MM=
WRA SA 0700 AUTO8 M 9.+ M 229/08/08/0506/M/ 2002 11MM=
WRJ SA 0700 AUTO8 M M M 196/12/12/1103/M/ 0007 32MM=
WRK SA 0700 AUTO8 M M M 172/19/18/0000/M/ 8004 01MM=
WSN SA 0700 AUTO8 M M M 176/21/20/MMMM/M/ 7006 28MM=
WSU SA 0700 AUTO8 M M M 155/14/13/2403/M/ 0000 35MM=

####018000182####
SACN91 CWAO 080700 RRA
WIG SA 0700 AUTO8 M M M M/M/M/0209/M/M M MMMM=
WIZ SA 0700 AUTO7 M M M M/25/22/2102/M/ M 69MM=
WJH SA 0700 AUTO8 M M M 135/11/08/2603/M/ 7004 59MM=

####018000406####
SACN90 CWAO 080700 RRA
WFO SA 0700 AUTO8 M M M 147/14/09/2806/M/M 4000 42MM=
WFP SA 0700 AUTO8 M M M 128/08/06/3105/M/M 7030 64MM=
WFW SA 0700 AUTO7 M M M 161/14/13/1204/M/ 3003 64MM=
WGD SA 0700 AUTO8 M M M 162/24/20/1401/M/ 6007 61MM=
WGF SA 0700 AUTO8 M M M M/13/13/0000/M/ M 44MM=
WGM SA 0700 AUTO8 M M M M/08/06/2204/M/ M 50MM=
WGN SA 0700 AUTO8 M M M 155/15/12/2706/M/M 4000 69MM=

####018000083####
SACN82 CWAO 080700 RRA
MFM SA 0700 AUTO8 M M M 166/18/17/3301/M/ 8001 13MM=

####018000463####
SACN89 CWAO 080700 RRA
WBL SA 0700 AUTO8 M M M 152/16/11/2912/M/M 1001 60MM=
WBY SA 0700 AUTO8 M M M 153/11/10/0710+16/M/ 7006 54MM=
WBZ SA 0700 AUTO8 M M M 151/25/22/2303/M/ 1001 67MM=
WCO SA 0700 AUTO8 M M M 152/23/21/1401/M/ 6008 75MM=
WDI SA 0700 AUTO8 M M M M/11/11/0000/M/ M 27MM=
WDU SA 0700 AUTO8 M M M M/13/09/1708/M/M M 11MM=
WDW SA 0700 AUTO8 M M M 199/07/06/MMMM/M/ 5006 80MM=
WDZ SA 0700 AUTO8 M M M 204/13/10/1702/M/ 1006 87MM=

####018000136####
SACN85 CWAO 080700 RRA
WPK SA 0700 AUTO8 M M M 169/17/M/0000/M/ 8001 1MMM=
WWE SA 0700 AUTO8 M M M 199/15/M/2305/M/ 8006 5MMM=

####018000083####
SACN50 CWAO 080700 RRA
VSL SA 0700 AUTO8 M M M 188/16/11/0601/M/ 3005 53MM=

####018000137####
SACN93 CWAO 080600 RRH
WNQ SA 0600 AUTO7 M M M 144/24/23/1702/M/ 1004 45MM=
WOD SA 0600 AUTO8 M M M 131/20/M/3205/M/ 2002 2MMM=

####018000594####
SACN95 CWAO 080700 RRA
WTG SA 0700 AUTO8 M M M 157/13/M/0414/M/ PK WND 0417 0639Z 5000
7MMM=
WTS SA 0700 AUTO8 M M M 182/11/10/2402/M/ 1004 44MM=
WTT SA 0700 AUTO8 M M M M/24/24/2202/M/M M 47MM=
WVI SA 0700 AUTO8 M M M 187/13/12/2304/M/ 6002 25MM=
WVN SA 0700 AUTO8 M M M 210/14/12/2602/M/ 3003 65MM=
WVP SA 0700 AUTO8 M M M 219/11/07/3302/M/ 3002 96MM=
WVW SA 0700 AUTO8 M M M 206/09/08/1103/M/M 8000 71MM=
WWC SA 0700 AUTO8 M M M 124/10/08/MM05/M/ 4000 39MM=
WWP SA 0700 AUTO8 M M M 174/13/10/3203/M/ 2004 96MM=
WXG SA 0700 AUTO8 M M M 195/12/12/3405/M/ 1004 55MM=

####018000083####
SACN63 CWAO 080700 RRA
XAR SA 0700 AUTO8 M M M 021/09/08/0504/M/ 8005 63MM=

####018000515####
SACN88 CWAO 080700 RRA
ABR SA 0700 AUTO7 M M M 199/16/16/1601/M/ 8002 17MM=
ABT SA 0700 AUTO8 M M M M/21/17/2208/M/ M 88MM=
AFC SA 0700 AUTO8 M M M 174/20/18/2104/M/ 5003 66MM=
AHK SA 0700 AUTO7 M M M 186/16/16/2702/M/M 5005 30MM=
AHR SA 0700 AUTO8 M M M 176/19/17/2007/M/ 6002 85MM=
AHW SA 0700 AUTO7 M M M M/18/16/2203/M/M M 50MM=
AOH SA 0700 AUTO8 M M M 190/19/18/2404/M/ 2002 56MM=
AVA SA 0700 AUTO8 M M M 230/08/08/1305/M/ 4000 35MM=
XGD SA 0700 AUTO8 M M M 217/09/08/MMMM/M/ 6006 22MM=

####018000413####
SACN78 CWAO 080700 RRA
TKR SA 0700 AUTO8 M M M 148/17/13/2405/M/ 8003 53MM=
TMS SA 0700 AUTO8 M M M 142/19/17/1401/M/ 8011 62MM=
TXR SA 0700 AUTO8 M M M 144/20/20/1403/M/ 8010 37MM=
WBE SA 0700 AUTO8 M M M 173/18/18/0203/M/ 8009 47MM=
WLS SA 0700 AUTO8 M M M 175/22/20/1501/M/ 6006 77MM=
XRG SA 0700 AUTO8 M M M 175/22/19/1201/M/ 8005 14MM=
XZC SA 0700 AUTO8 M M M 119/20/15/1602/M/ 8011 08MM=

####018000104####
SACN47 CWAO 080700 RRA
METAR CYGP 080700Z 00000KT 15SM SKC 15/14 A2996 RMK VIA YQB FIC
SLP145=

####018000248####
SACN98 CWAO 080700 RRA
XPC SA 0700 AUTO8 M M M 149/22/22/1301/M/ 6010 95MM=
XTO SA 0700 AUTO8 M M M 165/26/23/MMMM/M/ 7005 58MM=
XVN SA 0700 AUTO8 M M M 155/24/21/2204/M/ 8002 09MM=
ZMJ SA 0700 AUTO8 M M M 200/13/12/2906/M/ 2004 26MM=

####018000668####
SACN97 CWAO 080700 RRA
XBO SA 0700 AUTO8 M M M M/19/18/0911/M/ M 06MM=
XCH SA 0700 AUTO7 M M M M/18/18/MMMM/M/ M 47MM=
XDI SA 0700 AUTO8 M M M 154/21/19/2002/M/ 7004 22MM=
XDW SA 0700 AUTO8 M M M M/15/13/2510/M/ M 45MM=
XET SA 0700 AUTO8 M M M 165/21/21/2902/M/ 8008 25MM=
XHA SA 0700 AUTO8 M M M 154/25/22/2303/M/ 8006 99MM=
XHI SA 0700 AUTO8 M M M 123/04/02/2505/M/ 7004 97MM=
XLU SA 0700 AUTO8 M M M 131/11/08/3201/M/ 5000 11MM=
XSH SA 0700 AUTO7 M M M 144/24/20/0201/M/ 3001 12MM=
XSW SA 0700 AUTO7 M M M M/08/07/1402/M/ M 57MM=
XVG SA 0700 AUTO8 M M M 166/17/09/1805/M/ 6003 54MM=
XWN SA 0700 AUTO8 M M M 145/18/13/2603/M/ 0004 17MM=

####018000083####
SACN66 CWAO 080700 RRA
ZHB SA 0700 AUTO8 M M M 167/11/09/2605/M/ 1002 10MM=

####018000562####
SACN93 CWAO 080700 RRA
WMX SA 0700 AUTO8 M M M M/15/11/MMMM/M/ M 48MM=
WNE SA 0700 AUTO8 M M M 157/22/17/2108/M/ 5001 29MM=
WNH SA 0700 AUTO8 M M M 156/14/13/0802/M/ 1002 58MM=
WNK SA 0700 AUTO8 M M M M/14/12/2605/M/ M 83MM=
WNQ SA 0700 AUTO7 M M M 143/26/22/2604/M/ 4000 08MM=
WOD SA 0700 AUTO8 M M M 131/19/M/3302/M/ 1001 0MMM=
WOE SA 0700 AUTO8 M M M M/14/07/3508/M/ M 53MM=
WOJ SA 0700 AUTO8 M M M 142/20/14/3311/M/ 8001 73MM=
WPE SA 0700 AUTO8 M M M 188/13/12/2803/M/ 8008 73MM=
WPG SA 0700 AUTO8 M M M 155/16/14/2504/M/ 0001 99MM=

####018000670####
SACN96 CWAO 080700 RRA
WXS SA 0700 AUTO8 M M M 148/17/16/1703/M/ 6002 56MM=
WYH SA 0700 AUTO8 M M M 150/14/13/3101/M/M 3001 98MM=
WYQ SA 0700 AUTO8 M M M 159/10/10/2802/M/ 1001 48MM=
WZE SA 0700 AUTO8 M M M M/13/12/2705/M/ M 21MM=
WZL SA 0700 AUTO8 M M M 183/22/09/2908/M/ 2002 27MM=
WZQ SA 0700 AUTO8 M M M 180/21/17/1707/M/M 8001 22MM=
WZT SA 0700 AUTO8 M M M M/11/M/MMMM/M/ M 8MMM=
XFV SA 0700 AUTO8 M M M M/15/15/0000/M/ M 30MM=
XGM SA 0700 AUTO8 M 4.5 M 187/16/M/2004/M/ 5008 0MMM=
XKE SA 0700 AUTO8 M M M 155/22/20/2101/M/ 5000 02MM=
ZPK SA 0700 AUTO8 M M M 119/09/07/0806/M/ 6010 22MM=
ZUG SA 0700 AUTO8 M M M M/14/13/2505/M/ M 46MM=

####018000121####
SACN49 CWAO 080700 RRA
METAR CYGW 080700Z 13006KT 10SM FEW080 SCT200 15/12 A2989 RMK AC2CC1
VIA YQB FIC SLP123=

####018000173####
SACN31 CWAO 080700 RRA
METAR CYUL 080700Z 24005KT 15SM FEW240 26/22 A2998 RMK CI1 VIA YQB
FIC SLP153=
METAR CYXX 080700Z 03004KT 15SM SKC 19/15 A2995 RMK SLP142=

####018000193####
SACN92 CWAO 080700 RRA
WJI SA 0700 AUTO8 M M M 201/12/11/2702/M/ 1004 12MM=
WLE SA 0700 AUTO8 M M M 207/12/12/0606/M/ 2006 40MM=
WLV SA 0700 AUTO8 M M M 189/09/06/0000/M/ 0001 63MM=

####018000303####
SAPS31 NZKL 080700
METAR NCRG 080700Z 11005KT 9999 SCT014 BKN290 24/23 Q1017=
METAR NFTF 080700Z 20002KT 9999 FEW015 19/18 Q1015=
METAR NGFU 080700Z 07008KT 50KM FEW020 29/23 Q1009=
METAR NIUE 080700Z AUTO 16006KT //// ////// 25/24 Q1013=
METAR NSFA 080700Z 08006KT 45KM FEW020 28/25 Q1011=
####018000638####
SAXX70 KAWN 080700 RRJ
METAR KQFU 080650Z AUTO 05005KT 7SM OVC070 27/17 A2988 RMK A02=
METAR KQEI 080710Z AUTO 31005KT 7SM SCT075 28/17 A2991 RMK A02=
METAR KQEN 080710Z AUTO 06005KT 3SM BR SCT003 BKN060 18/16 A3039 RMK
      A02=
METAR KQEP 080710Z AUTO 19002KT 7SM FEW050 29/16 A2985 RMK A02=
METAR KQER 080710Z AUTO 26003KT 7SM FEW050 26/18 A2987 RMK A02=
METAR KQES 080710Z AUTO 32005KT 7SM CLR 21/17 A2984 RMK A02=
METAR KQEY 080710Z AUTO 31006KT 7SM CLR 28/16 A2958 RMK A02=
METAR KQFV 080710Z AUTO 19001KT 7SM FEW040 SCT070 27/16 A2999 RMK A02=
METAR KQEV 080720Z AUTO 34002KT 7SM FEW095 29/18 A2977 RMK A02=
####018000107####
SAAK41 KNKA 080712
SPECI PASN 080710Z AUTO 08012KT 10SM SCT007 OVC035 06/05 A2993 RMK 
    AO2 TSNO=
####018000702####
SAUZ31 UTTW 080700
METAR UTFN 080700Z 15001MPS 9999 FEW050CB 33/12 Q1011 R28/CLRD70
NOSIG=
METAR UTNN 080700Z 18005MPS CAVOK 39/10 Q1008 R15/CLRD70 NOSIG=
METAR UTNU 080700Z 17004MPS 140V210 CAVOK 39/18 Q1008 R13/CLRD60
NOSIG=
METAR UTSA 080700Z 04006MPS 9999 NSC 38/06 Q1010 R88/CLRD70 NOSIG=
METAR UTSB 080700Z 01007MPS CAVOK 38/05 Q1009 R01/CLRD70 NOSIG=
METAR UTSH 080700Z 09002MPS 9999 NSC 38/15 Q1014 R99/CLRD070=
METAR UTSK 080700Z 27002MPS CAVOK 40/10 Q1008 R16/CLRD70=
METAR UTSS 080700Z 09005MPS 9999 NSC 34/12 Q1011 R88/CLRD70 NOSIG=
UTST NIL=
METAR UTTT 080700Z 23002MPS 7000 NSC 37/11 Q1011 R08R/CLRD70 NOSIG=
METAR UTTP 080700Z 20001MPS CAVOK 35/09 Q1011 R88/CLRD70 NOSIG=
####018000409####
SPUS99 KWBC 080713
SPECI
KBRL 080710Z AUTO 3SM BR CLR 23/22 A3001 RMK AO2 $=
KIML 080710Z AUTO 00000KT 10SM BKN030 OVC060 17/15 A3027 RMK
     AO2=
KMCI 080710Z 36003KT 8SM SCT008 BKN014 BKN045 23/22 A3008 RMK AO2
     $=
KSBM 080710Z AUTO 26004KT 10SM -RA SCT015 OVC095 23/22 A3001 RMK
     AO2 RAB0659 P0000=
PASN 080710Z AUTO 08012KT 10SM SCT007 OVC035 06/05 A2993 RMK AO2
     TSNO=
####018000345####
SAUS99 KWBC 080713
METAR
KBNL 080715Z AUTO 26004KT 10SM CLR 24/19 A3000 RMK AO2=
KCQW 080715Z AUTO 27004KT 7SM CLR 25/18 A2997 RMK AO2=
KLKR 080715Z AUTO 00000KT 9SM CLR 20/20 A2999 RMK AO2=
KNFG 080656Z 00000KT 5SM BR OVC015 16/13 A2991 RMK AO2 SLP127
     T01610133=
KOLV 080715Z AUTO 00000KT 8SM CLR 24/24 A3006 RMK A01 P000=
####018000084####
SAHK31 VHHH 080700 RRA
METAR RPLB 080700 24008KT 9999 FEW020 BKN300 34/22 Q1008=
####018000090####
SAID31 WIII 080700
METAR WABB 080700Z 31007KT 9999 RA FEW017CB BKN020 28/24 Q1008 NSG=
####018000134####
SAAG01 SABM 080700 RRD
METAR SARP 080700Z  11003KT 9999  OVC005  15/14
Q1017=
METAR SAVC 080700Z  25014KT CAVOK 05/M02 Q0998=
####018001168####
SAUS20 KNKA 080712
METAR K2G4 080710Z AUTO 00000KT 10SM OVC060 23/13 A3019 RMK
     AO1=
METAR K2W6 080709Z AUTO 00000KT 7SM CLR 23/21 A2999 RMK AO1=
METAR K36U 080715Z AUTO 00000KT 10SM CLR 14/05 A3019 RMK AO2=
METAR KCBE 080710Z AUTO 01003KT 10SM CLR 23/18 A3009 RMK AO1=
METAR KCGE 080707Z AUTO 00000KT 5SM CLR 25/23 A2999 RMK AO1=
METAR KCGS 080715Z AUTO 00000KT 7SM CLR 26/23 A2999 RMK AO1=
METAR KFDK 080704Z AUTO 00000KT 7SM SCT090 24/21 A3002 RMK AO2=
METAR KDMW 080710Z AUTO 00000KT 7SM CLR 27/21 A3003 RMK AO2=
METAR KDUC 080712Z AUTO 01004KT 10SM CLR 23/22 A3003 RMK AO2=
METAR KESN 080715Z AUTO 00000KT 5SM BR CLR 23/23 A3001 RMK AO2=
METAR KFME 080712Z AUTO 10004KT 5SM CLR 21/21 A3001 RMK AO1=
METAR KMTN 080712Z AUTO 00000KT 7SM CLR 27/24 A3000 RMK AO2=
METAR KONM 080707Z AUTO 00000KT 10SM CLR 20/13 A3023 RMK AO2 
     T01980133=
SPECI KSTC 080711Z AUTO 00000KT 9SM CLR 14/13 A3008 RMK AO2=
SPECI KTOP 080711Z AUTO 05010KT 4SM RA BR SCT015 OVC070 22/21 A3007 
    RMK AO2 P0008=
SPECI KUCP 080712Z AUTO 00000KT 1SM BR CLR 19/18 A3010 RMK AO2 $=
METAR KW29 080709Z AUTO 11003KT 7SM SCT100 26/22 A2998 RMK AO1=
####018000715####
SAUZ31 UTTW 080700
METAR UTFN 080700Z 15001MPS 9999 FEW050CB 33/12 Q1011 R28/CLRD70
NOSIG=
METAR UTNN 080700Z 18005MPS CAVOK 39/10 Q1008 R15/CLRD70 NOSIG=
METAR UTNU 080700Z 17004MPS 140V210 CAVOK 39/18 Q1008 R13/CLRD60
NOSIG=
METAR UTSA 080700Z 04006MPS 9999 NSC 38/06 Q1010 R88/CLRD70 NOSIG=
METAR UTSB 080700Z 01007MPS CAVOK 38/05 Q1009 R01/CLRD70 NOSIG=
METAR UTSH 080700Z 09002MPS 9999 NSC 38/15 Q1014 R99/CLRD070=
METAR UTSK 080700Z 27002MPS CAVOK 40/10 Q1008 R16/CLRD70=
METAR UTSS 080700Z 09005MPS 9999 NSC 34/12 Q1011 R88/CLRD70 NOSIG=
UTST NIL=
METAR UTTT 080700Z 23002MPS 7000 NSC 37/11 Q1011 R08R/CLRD70 NOSIG=
METAR UTTP 080700Z 20001MPS CAVOK 35/09 Q1011 R88/CLRD70 NOSIG=
####018000106####
SAUS46 KSGX 080713
MTRRNM
SPECI KRNM 080711Z AUTO 00000KT 4SM BR OVC004 14/13 A2992 RMK AO2 
TSNO
####018000596####
SACO20 SKBO 080700
METAR
SKAR 080700Z NIL=
SKBG 080700Z NIL=
SKBO 080700Z NIL=
SKBQ 080700Z NIL=
SKCC 080700Z NIL=
SKCG 080700Z NIL=
SKCL 080700Z NIL=
SKEJ 080700Z NIL=
SKIB 080700Z NIL=
SKIP 080700Z NIL=
SKLC 080700Z NIL=
SKLT 080700Z NIL=
SKMD 080700Z NIL=
SKMR 080700Z NIL=
SKMZ 080700Z NIL=
SKNV 080700Z NIL=
SKPC 080700Z NIL=
SKPE 080700Z NIL=
SKPS 080700Z NIL=
SKPV 080700Z NIL=
SKRG 080700Z NIL=
SKRH 080700Z NIL=
SKSM 080700Z NIL=
SKSP 080700Z NIL=
SKUC 080700Z NIL=
SKUI 080700Z NIL=
SKVP 080700Z NIL=
SKVV 080700Z NIL=
NNNN
####018001392####
SPZZ40 KAWN 080713 RRB
SPECI BGTL 080708Z AUTO 00000KT 0800 FG VV001 05/05 A2985 RMK AO2 SLP112=
SPECI CYUA 080710Z AUTO 31016KT 9SM BKN005 OVC013 05/ A3007=
SPECI CYUS 080704Z AUTO ///// 9SM CLR 11/ A2981=
SPECI EGUL 080710Z AUTO 22009KT 9999 -DZ BKN024 OVC031 17/16 A3005
      RMK AO2 DZB0708 SLP178=
SPECI EGUN 080709Z AUTO 25008KT 9999 FEW007 BKN014 OVC022 17/17 A3006
      RMK AO2 VIS 4000 RWY11 SLP170=
SPECI EHLW 080709Z AUTO 22008KT //// R24/P3000N // OVC110 21/16 Q1018
      RE// BLU BLU=
SPECI KAFF 080711Z AUTO 01003KT 10SM BKN013 OVC041 13/12 A3040 RMK
      AO2 BKN V SCT SLP206=
SPECI KGRK 080709Z 09005KT 7SM BKN014 BKN050 27/23 A2998=
SPECI KNSE 080702Z AUTO 31003KT 3SM BR CLR 23/21 A3003 RMK AO2 $=
SPECI KTBN 080710Z AUTO 32007KT 4SM R14/5500VP6000FT HZ FEW001 BKN040
      OVC050 23/ A3007 RMK AO2 SLP162 $=
SPECI KWRI 080708Z AUTO 00000KT 3SM R18/5500FT R24/2800FT BR OVC002
      24/24 A2999 RMK AO2 SLP157 $=
SPECI KWRI 080710Z AUTO 00000KT 3SM R18/5500VP6000FT R24/2800FT BR
      OVC002 24/24 A2999 RMK AO2 SLP156 $=
SPECI LFRQ 080655Z 04005KT 020V080 4000 BR FEW001 16/16 Q1019 BECMG
      6000 NSW RMK B3=
PATC SP 0715 AWOS CLR BLO 120 10 53/44/0000/016=
SPECI RJCK 080703Z VRB01KT 4900 BR SCT002 BKN003 18/16 Q1009 RMK 3ST002
      7ST003 A2981=
SPECI SBSV 080705Z 35004KT 4000 -RA SCT017 SCT070 21/20 Q1017=
####018000091####
SPCN52 CWAO 080708
SPECI CWSA 080708Z AUTO 24007KT 1/8SM BKN001 OVC005 17/17 A3017=

####018000073####
SAAL40 DAMM 080700 RRA
METAR DAUZ 080700Z 05012KT CAVOK 30/07 Q1017=
####018000077####
SAAL40 DAMM 080700 CCA
METAR COR DAUZ 080700Z 05012KT CAVOK 30/07 Q1017=
####018000090####
SAUK39 EGRR 080650 RRG
METAR EGUY 080650Z 28012KT 9999 FEW020 BKN150 17/12 Q1018 BLU=
####018000099####
SAUK39 EGRR 080650 RRF
METAR EGUO 080650Z 00000KT 9999 FEW015 SCT020 BKN090 15/13 Q1020
WHT=
####018000102####
SPUS90 KWBC 080714
SPECI KRNM 080711Z AUTO 00000KT 4SM BR OVC004 14/13 A2992 RMK AO2
     TSNO=
####018000079####
SAUS90 KWBC 080714
METAR KFDK 080704Z AUTO 00000KT 7SM SCT090 24/21 A3002=
####018000234####
SPUS99 KWBC 080714
SPECI
KSTC 080711Z AUTO 00000KT 9SM CLR 14/13 A3008 RMK AO2=
KTOP 080711Z AUTO 05010KT 4SM RA BR SCT015 OVC070 22/21 A3007 RMK
     AO2 P0008=
KUCP 080712Z AUTO 00000KT 1SM BR CLR 19/18 A3010 RMK AO2 $=
####018000382####
SACN85 KWBC 080714
METAR CWPK 080700Z AUTO 00000KT 17/ RMK AO1 SLP169 T0171 58001=
METAR CWWE 080700Z AUTO 23005KT 15/ RMK AO1 SLP199 T0145 58006=
METAR CWRA 080700Z AUTO 9SM M01/M01 RMK AO1 22908/08/0506/2002
T10091009=
METAR CWBY 080700Z AUTO 07010G16KT 11/10 RMK AO1 SLP153 T01050104
57006=
METAR CWNH 080700Z AUTO 08002KT 14/13 RMK AO1 SLP156 T01350128
51002=
####018000243####
SACN89 KWBC 080714
METAR CWBZ 080700Z AUTO 23003KT 25/22 RMK AO1 SLP151 T02460217
51001=
METAR CWCO 080700Z AUTO 14001KT 23/21 RMK AO1 SLP152 T02270205
56008=
METAR CWDZ 080700Z AUTO 17002KT 13/10 RMK AO1 SLP204 T01280097
51006=
####018000861####
SAUS99 KWBC 080714
METAR
K2G4 080710Z AUTO 00000KT 10SM OVC060 23/13 A3019 RMK AO1=
K2W6 080709Z AUTO 00000KT 7SM CLR 23/21 A2999 RMK AO1=
K36U 080715Z AUTO 00000KT 10SM CLR 14/05 A3019 RMK AO2=
KCBE 080710Z AUTO 01003KT 10SM CLR 23/18 A3009 RMK AO1=
KCGE 080707Z AUTO 00000KT 5SM CLR 25/23 A2999 RMK AO1=
KCGS 080715Z AUTO 00000KT 7SM CLR 26/23 A2999 RMK AO1=
KFDK 080704Z AUTO 00000KT 7SM SCT090 24/21 A3002 RMK AO2=
KDMW 080710Z AUTO 00000KT 7SM CLR 27/21 A3003 RMK AO2=
KDUC 080712Z AUTO 01004KT 10SM CLR 23/22 A3003 RMK AO2=
KESN 080715Z AUTO 00000KT 5SM BR CLR 23/23 A3001 RMK AO2=
KFME 080712Z AUTO 10004KT 5SM CLR 21/21 A3001 RMK AO1=
KMTN 080712Z AUTO 00000KT 7SM CLR 27/24 A3000 RMK AO2=
KONM 080707Z AUTO 00000KT 10SM CLR 20/13 A3023 RMK AO2
     T01980133=
KW29 080709Z AUTO 11003KT 7SM SCT100 26/22 A2998 RMK AO1=
####018000198####
SACN91 KWBC 080714
METAR CWIG 080700Z AUTO 02009KT RMK AO1 =
METAR CWIZ 080700Z AUTO 21002KT 25/22 RMK AO1 T02460219=
METAR CWJH 080700Z AUTO 26003KT 11/08 RMK AO1 SLP135 T01050079
57004=
####018000074####
SAPO61 LPAM 080700
METAR LPMR 080700Z 14004KT 9999 FEW005 19/17 Q1014=
####018000085####
SAHK31 VHHH 080700 RRA
METAR RPLB 080700Z 24008KT 9999 FEW020 BKN300 34/22 Q1008=
####018000243####
SACN88 KWBC 080714
METAR CAHR 080700Z AUTO 20007KT 19/17 RMK AO1 SLP176 T01880165
56002=
METAR CAHR 080700Z AUTO 20007KT 19/17 RMK AO1 SLP176 T01880165
56002=
METAR CAHR 080700Z AUTO 20007KT 19/17 RMK AO1 SLP176 T01880165
56002=
####018000095####
SACN78 KWBC 080714
METAR CXZC 080700Z AUTO 16002KT 20/15 RMK AO1 SLP119 T02000148
58011=
####018000179####
SAAG05 SABM 080700 RRA
METAR SAME 080700Z 00000KT CAVOK 03/M03 Q1015=
METAR SARP 080700Z  11003KT 9999  OVC005  15/14
Q1017=
METAR SAVC 080700Z  25014KT CAVOK 05/M02 Q0998=
####018000169####
SACN86 KWBC 080714
METAR CWBE 080700Z AUTO 02003KT 18/18 RMK AO1 SLP173 T01840177
58009=
METAR CWLS 080700Z AUTO 15001KT 22/20 RMK AO1 SLP175 T02170197
56006=
####018000567####
SACN93 KWBC 080714
METAR CWNQ 080600Z AUTO 17002KT 24/23 RMK AO1 SLP144 T02440225
51004=
METAR CWOD 080600Z AUTO 32005KT 20/ RMK AO1 SLP131 T0202 52002=
METAR CWNE 080700Z AUTO 21008KT 22/17 RMK AO1 SLP157 T02220169
55001=
METAR CWNK 080700Z AUTO 26005KT 14/12 RMK AO1 T01380123=
METAR CWNQ 080700Z AUTO 26004KT 26/22 RMK AO1 SLP143 T02600218
54000=
METAR CWOD 080700Z AUTO 33002KT 19/ RMK AO1 SLP131 T0190 51001=
METAR CWOE 080700Z AUTO 35008KT 14/07 RMK AO1 T01350073=
METAR CWPE 080700Z AUTO 28003KT 13/12 RMK AO1 SLP188 T01270123
58008=
####018000669####
SACN95 KWBC 080714
METAR CWTG 080700Z AUTO 04014KT 13/ RMK AO1 PK WND 04017/0639
SLP157 T0127 55000=
METAR CWTT 080700Z AUTO 22002KT 24/24 RMK AO1 T02440237=
METAR CWVI 080700Z AUTO 23004KT 13/12 RMK AO1 SLP187 T01320115
56002=
METAR CWVN 080700Z AUTO 26002KT 14/12 RMK AO1 SLP210 T01360115
53003=
METAR CWVP 080700Z AUTO 33002KT 11/07 RMK AO1 SLP219 T01090066
53002=
METAR CWTT 080700Z AUTO 22002KT 24/24 RMK AO1 T02440237=
METAR CWVI 080700Z AUTO 23004KT 13/12 RMK AO1 SLP187 T01320115
56002=
METAR CWVN 080700Z AUTO 26002KT 14/12 RMK AO1 SLP210 T01360115
53003=
METAR CWVP 080700Z AUTO 33002KT 11/07 RMK AO1 SLP219 T01090066
53002=
####018000169####
SACN92 KWBC 080714
METAR CWJI 080700Z AUTO 27002KT 12/11 RMK AO1 SLP201 T01210112
51004=
METAR CWLE 080700Z AUTO 06006KT 12/12 RMK AO1 SLP207 T01240120
52006=
####018000752####
SACN97 KWBC 080714
METAR CXBO 080700Z AUTO 09011KT 19/18 RMK AO1 T01900176=
METAR CXCH 080700Z AUTO 18/18 RMK AO1 T01840177=
METAR CXDI 080700Z AUTO 20002KT 21/19 RMK AO1 SLP154 T02120192
57004=
METAR CXDW 080700Z AUTO 25010KT 15/13 RMK AO1 T01540125=
METAR CXET 080700Z AUTO 29002KT 21/21 RMK AO1 SLP165 T02120205
58008=
METAR CXHA 080700Z AUTO 23003KT 25/22 RMK AO1 SLP154 T02490219
58006=
METAR CXSH 080700Z AUTO 02001KT 24/20 RMK AO1 SLP144 T02410202
53001=
METAR CXSW 080700Z AUTO 14002KT 08/07 RMK AO1 T00750067=
METAR CXWN 080700Z AUTO 26003KT 18/13 RMK AO1 SLP145 T01810127
50004=
METAR CXSW 080700Z AUTO 14002KT 08/07 RMK AO1 T00750067=
METAR CXWN 080700Z AUTO 26003KT 18/13 RMK AO1 SLP145 T01810127
50004=
####018000076####
SAAL40 DAMM 080700 CCA
METAR COR DAUZ 080700Z 05012KT CAVOK 30/07 Q1017=
####018000147####
SAUS80 KWBC 080714
METAR
KCBE 080710Z AUTO 01003KT 10SM CLR 23/18 A3009 RMK AO1=
KESN 080715Z AUTO 00000KT 5SM BR CLR 23/23 A3001 RMK AO2=
####018000072####
SAAL40 DAMM 080700 RRA
METAR DAUZ 080700Z 05012KT CAVOK 30/07 Q1017=
####018000542####
SPXX60 KWBC 080714
SPECI
KAFF 080711Z AUTO 01003KT 10SM BKN013 OVC041 13/12 A3040 RMK AO2
     BKN V SCT SLP206=
KGRK 080709Z 09005KT 7SM BKN014 BKN050 27/23 A2998=
KTBN 080710Z AUTO 32007KT 4SM R14/5500VP6000FT HZ FEW001 BKN040
     OVC050 23/ A3007 RMK AO2 SLP162 $=
KWRI 080708Z AUTO 00000KT 3SM R18/5500FT R24/2800FT BR OVC002
     24/24 A2999 RMK AO2 SLP157 $=
KWRI 080710Z AUTO 00000KT 3SM R18/5500VP6000FT R24/2800FT BR
     OVC002 24/24 A2999 RMK AO2 SLP156 $=
PATC SP 0715 AWOS CLR BLO 120 10 53/44/0000/016=
####018000686####
SACN90 KWBC 080714
METAR CWGD 080700Z AUTO 14001KT 24/20 RMK AO1 SLP162 T02360201
56007=
METAR CWGM 080700Z AUTO 22004KT 08/06 RMK AO1 T00750060=
METAR CWGD 080700Z AUTO 14001KT 24/20 RMK AO1 SLP162 T02360201
56007=
METAR CWGM 080700Z AUTO 22004KT 08/06 RMK AO1 T00750060=
METAR CWGD 080700Z AUTO 14001KT 24/20 RMK AO1 SLP162 T02360201
56007=
METAR CWGM 080700Z AUTO 22004KT 08/06 RMK AO1 T00750060=
METAR CWGD 080700Z AUTO 14001KT 24/20 RMK AO1 SLP162 T02360201
56007=
METAR CWGM 080700Z AUTO 22004KT 08/06 RMK AO1 T00750060=
METAR CWGD 080700Z AUTO 14001KT 24/20 RMK AO1 SLP162 T02360201
56007=
METAR CWGM 080700Z AUTO 22004KT 08/06 RMK AO1 T00750060=
####018000243####
SACN96 KWBC 080714
METAR CWZL 080700Z AUTO 29008KT 22/09 RMK AO1 SLP183 T02220087
52002=
METAR CWZQ 080700Z AUTO 17007KT 21/17 RMK AO1 SLP180 T02120172
58001=
METAR CXKE 080700Z AUTO 21001KT 22/20 RMK AO1 SLP155 T02200202
55000=
####018000076####
SAAL32 DAAA 080700 CCA
METAR COR DAUZ 080700Z 05012KT CAVOK 30/07 Q1017=
####018000539####
SPUS70 KWBC 080714
SPECI
KBRL 080710Z AUTO 3SM BR CLR 23/22 A3001 RMK AO2 $=
KIML 080710Z AUTO 00000KT 10SM BKN030 OVC060 17/15 A3027 RMK
     AO2=
KMCI 080710Z 36003KT 8SM SCT008 BKN014 BKN045 23/22 A3008 RMK AO2
     $=
KSBM 080710Z AUTO 26004KT 10SM -RA SCT015 OVC095 23/22 A3001 RMK
     AO2 RAB0659 P0000=
KTOP 080711Z AUTO 05010KT 4SM RA BR SCT015 OVC070 22/21 A3007 RMK
     AO2 P0008=
KUCP 080712Z AUTO 00000KT 1SM BR CLR 19/18 A3010 RMK AO2 $=
KNSE 080702Z AUTO 31003KT 3SM BR CLR 23/21 A3003 RMK AO2 $=
####018000075####
SAAL31 KWBC 080700 RRB
METAR
DAUZ 080700Z 05012KT CAVOK 30/07 Q1017=
####018000081####
SAAG31 KWBC 080700 RRB
METAR
SARP 080700Z 11003KT 9999 OVC005 15/14 Q1017=
####018000078####
SAAF35 KWBC 080700 RRB
METAR
HSSS 080700Z 25006KT 6000M HZ 35/15 Q1010=
####018000241####
SPUS80 KWBC 080714
SPECI
PASN 080710Z AUTO 08012KT 10SM SCT007 OVC035 06/05 A2993 RMK AO2
     TSNO=
KSTC 080711Z AUTO 00000KT 9SM CLR 14/13 A3008 RMK AO2=
KRNM 080711Z AUTO 00000KT 4SM BR OVC004 14/13 A2992 RMK AO2
     TSNO=
####018000115####
SAXX60 KWBC 080700 RRJ
METAR
KNFG 080656Z 00000KT 5SM BR OVC015 16/13 A2991 RMK AO2 SLP127
     T01610133=
####018000228####
SACN94 KWBC 080714
METAR CWQH 080700Z AUTO 14003KT 23/21 RMK AO1 T02250214=
METAR CWRJ 080700Z AUTO 11003KT 12/12 RMK AO1 SLP196 T01230122
50007=
METAR CWRK 080700Z AUTO 00000KT 19/18 RMK AO1 SLP172 T01900181
58004=
####018000072####
SAAL32 DAAA 080700 RRA
METAR DAUZ 080700Z 05012KT CAVOK 30/07 Q1017=
####018000806####
SAUS70 KWBC 080714
METAR
KBNL 080715Z AUTO 26004KT 10SM CLR 24/19 A3000 RMK AO2=
KCQW 080715Z AUTO 27004KT 7SM CLR 25/18 A2997 RMK AO2=
KLKR 080715Z AUTO 00000KT 9SM CLR 20/20 A2999 RMK AO2=
KOLV 080715Z AUTO 00000KT 8SM CLR 24/24 A3006 RMK A01 P000=
K2G4 080710Z AUTO 00000KT 10SM OVC060 23/13 A3019 RMK AO1=
K2W6 080709Z AUTO 00000KT 7SM CLR 23/21 A2999 RMK AO1=
K36U 080715Z AUTO 00000KT 10SM CLR 14/05 A3019 RMK AO2=
KCGS 080715Z AUTO 00000KT 7SM CLR 26/23 A2999 RMK AO1=
KFDK 080704Z AUTO 00000KT 7SM SCT090 24/21 A3002 RMK AO2=
KDUC 080712Z AUTO 01004KT 10SM CLR 23/22 A3003 RMK AO2=
KMTN 080712Z AUTO 00000KT 7SM CLR 27/24 A3000 RMK AO2=
KONM 080707Z AUTO 00000KT 10SM CLR 20/13 A3023 RMK AO2
     T01980133=
KW29 080709Z AUTO 11003KT 7SM SCT100 26/22 A2998 RMK AO1=
####018000076####
SAAG41 KWBC 080700 RRB
METAR
SAVC 080700Z 25014KT CAVOK 05/M02 Q0998=
####018000096####
SAAW34 KWBC 080645 RRF
METAR
UTSS 080700Z 09005MPS 9999 NSC 34/12 Q1011 R88/CLRD70 NOSIG=
####018000080####
SPAK32 KWBC 080714
SPECI
PATC SP 0715 AWOS CLR BLO 120 10 53/44/0000/016=
####018000171####
SACN31 KWBC 080700 RRB
METAR
CYUL 080700Z 24005KT 15SM FEW240 26/22 A2998 RMK CI1 VIA YQB FIC
     SLP153=
CYXX 080700Z 03004KT 15SM SKC 19/15 A2995 RMK SLP142=
####018000112####
SPFR32 KWBC 080714
SPECI
LFRQ 080655Z 04005KT 020V080 4000 BR FEW001 16/16 Q1019 BECMG 6000
NSW RMK B3=
####018000097####
SAID31 KWBC 080700 RRB
METAR
WABB 080700Z 31007KT 9999 RA FEW017CB BKN020 28/24 Q1008 NSG=
####018000094####
SAIO31 KWBC 080700 RRB
METAR
FSIA 080704Z 13006KT 9999 SCT016 BKN240 27/22 Q1013 NOSIG=
####018000113####
SPJP41 KWBC 080714
SPECI
RJCK 080703Z VRB01KT 4900 BR SCT002 BKN003 18/16 Q1009 RMK 3ST002
7ST003 A2981=
####018002954####
SAUS20 KNKA 080713
METAR K1F0 080709Z AUTO 00000KT 10SM SCT036 24/23 A2999 RMK AO2=
METAR K4O4 080708Z AUTO 10003KT 10SM SCT001 BKN015 23/22 A3004 
     RMK AO2=
METAR KADH 080710Z AUTO 00000KT 5SM BR OVC004 23/22 A3002 RMK AO2=
METAR KADM 080710Z AUTO 00000KT 7SM SCT065 23/23 A3000 RMK AO2=
METAR KAFK 080710Z AUTO 01004KT 7SM SCT120 20/19 A3009 RMK AO2 
     T02030191=
METAR KALM 080710Z AUTO 33005KT 10SM FEW100 20/14 A3016 RMK AO2=
METAR KANW 080710Z AUTO 00000KT 10SM OVC110 17/15 A3023 RMK AO2 
     T01660152=
SPECI KAQW 080712Z AUTO 00000KT 4SM BR CLR 19/18 A3005 RMK AO2=
METAR KATS 080710Z AUTO 35012KT 8SM -RA SCT026 BKN034 OVC046 
     19/18 A3016 RMK AO2=
METAR KAUH 080710Z AUTO 34005KT 10SM CLR 16/15 A3017 RMK AO2 
     T01600150=
METAR KAXS 080710Z AUTO 33004KT 10SM -RA CLR 24/22 A3006 RMK AO2 
     T02370221=
METAR KAXX 080710Z AUTO 25003KT 10SM CLR 05/04 A3047 RMK AO2=
SPECI KBAZ 080712Z AUTO 06006KT 10SM SCT028 BKN036 OVC045 26/23 
    A2993 RMK AO2=
METAR KBVS 080710Z AUTO 32004KT 10SM CLR 16/14 A2996 RMK A01 P000=
METAR KCHK 080711Z AUTO 00000KT 10SM SCT021 SCT100 23/23 A3004 
     RMK AO2=
METAR KCLK 080713Z AUTO 04003KT 10SM CLR 22/21 A3007 RMK AO2=
METAR KCQB 080710Z AUTO 01003KT 10SM 23/23 A3003 RMK AO2 TSNO=
METAR KCUH 080710Z AUTO 05003KT 10SM SCT040 SCT047 OVC065 25/23 
     A3003 RMK AO2=
METAR KDUA 080717Z AUTO 15007KT 10SM OVC075 26/23 A3001 RMK AO2=
METAR KGCD 080710Z AUTO 16008KT 10SM CLR 19/04 A3010 RMK AO2 
     T01890044=
METAR KGCM 080715Z AUTO 00000KT 4SM +RA SCT002 BKN005 OVC024 
     22/22 A3006 RMK AO2 LTG DSNT SE P0003=
METAR KGMJ 080714Z AUTO 00000KT 26/26 A3004 RMK AO2 P0002 PWINO=
SPECI KHIB 080712Z AUTO 00000KT 1/2SM FG CLR 11/10 A3005 RMK AO2=
METAR KIDP 080710Z AUTO 35004KT 10SM SCT045 SCT060 21/20 A3004 
     RMK AO2=
SPECI KISW 080712Z AUTO 24005KT 10SM FEW012 22/21 A3000 RMK AO2 TSNO=
SPECI KITR 080712Z AUTO 00000KT 10SM BKN010 OVC016 17/15 A3031 RMK 
    AO2=
METAR KIZA 080709Z AUTO 00000KT 10SM OVC009 14/11 A2992 RMK AO2=
METAR KJSV 080710Z AUTO 00000KT 10SM BKN070 23/23 A3003 RMK AO2 
     LTG DSNT NW=
METAR KL35 080711Z AUTO 00000KT 10SM CLR 08/M06 A3018 RMK AO2=
METAR KLAM 080710Z AUTO 00000KT 10SM SCT120 15/09 A3036 RMK AO2=
METAR KLRU 080711Z AUTO 04010KT 10SM CLR 21/14 A3016 RMK AO2=
METAR KOJA 080710Z AUTO 00000KT 7SM CLR 22/22 A3008 RMK AO2=
METAR KOKM 080711Z AUTO 06004KT 10SM BKN021 24/24 A3002 RMK AO1=
METAR KONP 080710Z AUTO 21009KT 4SM BR OVC002 11/10 A2998 RMK AO1=
METAR KORS 080710Z AUTO 00000KT 10SM CLR 17/12 A2993 RMK AO2=
METAR KPLU 080710Z AUTO 00000KT 10SM FEW035 SCT049 16/14 A2993 
     RMK AO2=
METAR KPTS 080710Z AUTO 00000KT 10SM CLR 22/ A3004 RMK AO2 T0220=
METAR KPVJ 080707Z AUTO 00000KT 10SM BKN011 24/23 A3002 RMK AO2=
SPECI KRKP 080712Z AUTO 10012KT 10SM SCT019 BKN028 28/26 A2984 RMK 
    AO2 LTG DSNT N AND NE TSE0658=
####018000735####
SAUS20 KNKA 080713
METAR KRKR 080712Z AUTO 00000KT 10SM BKN028 27/23 A3003 RMK AO2=
METAR KSNL 080712Z AUTO 36004KT 10SM BKN007 BKN022 OVC047 25/24 
     A3004 RMK AO2=
METAR KSRE 080710Z AUTO 00000KT 7SM 24/24 A3002 RMK AO2=
METAR KSVC 080710Z AUTO 11008KT 5SM -RA FEW022 SCT031 BKN037 
     17/14 A3024 RMK AO2 P0002=
SPECI KTKI 080713Z AUTO 16003KT 10SM BKN019 26/23 A3000 RMK AO2=
METAR KTMK 080713Z AUTO 19004KT 10SM OVC008 13/12 A2994 RMK AO2=
METAR KTQH 080715Z AUTO 13003KT 10SM BKN012 BKN026 BKN034 23/23 
     A3004 RMK AO2=
METAR KWDG 080710Z AUTO 03007KT 10SM -DZ SCT029 SCT047 BKN060 
     22/22 A3009 RMK AO2=
METAR KWWR 080709Z AUTO 36008KT 10SM SCT027 23/21 A3014 RMK AO2 
     T02250206=
####018000099####
SPNT31 KWBC 080714
SPECI
BGTL 080708Z AUTO 00000KT 0800 FG VV001 05/05 A2985 RMK AO2 SLP112=
####018000111####
SPNL31 KWBC 080714
SPECI
EHLW 080709Z AUTO 22008KT //// R24/P3000N // OVC110 21/16 Q1018
RE// BLU BLU=
####018000090####
SPUS31 KWBC 080714
SPECI
KMCI 080710Z 36003KT 8SM SCT008 BKN014 BKN045 23/22 A3008=
####018000087####
SAPH31 KWBC 080700 RRB
METAR
RPLB 080700 24008KT 9999 FEW020 BKN300 34/22 Q1008=
####018000408####
SARA31 KWBC 080700 RRD
METAR
UTNN 080700Z 18005MPS CAVOK 39/10 Q1008 R15/CLRD70 NOSIG=
UTNU 080700Z 17004MPS 140V210 CAVOK 39/18 Q1008 R13/CLRD60
     NOSIG=
UTSA 080700Z 04006MPS 9999 NSC 38/06 Q1010 R88/CLRD70 NOSIG=
UTSB 080700Z 01007MPS CAVOK 38/05 Q1009 R01/CLRD70 NOSIG=
UTSK 080700Z 27002MPS CAVOK 40/10 Q1008 R16/CLRD70=
UTSS 080700Z 09005MPS 9999 NSC 34/12 Q1011 R88/CLRD70 NOSIG=
####018000319####
SAXX99 KWBC 080700 RRM
METAR
CYGP 080700Z 00000KT 15SM SKC 15/14 A2996 RMK VIA YQB FIC
     SLP145=
CYGW 080700Z 13006KT 10SM FEW080 SCT200 15/12 A2989 RMK AC2CC1 VIA
     YQB FIC SLP123=
EGUY 080650Z 28012KT 9999 FEW020 BKN150 17/12 Q1018 BLU=
UTTP 080700Z 20001MPS CAVOK 35/09 Q1011 R88/CLRD70 NOSIG=
####018000118####
SPXX61 KWBC 080714
SPECI
EGUL 080710Z AUTO 22009KT 9999 -DZ BKN024 OVC031 17/16 A3005 RMK
AO2 DZB0708 SLP178=
####018000128####
SPXX61 KWBC 080714
SPECI
EGUN 080709Z AUTO 25008KT 9999 FEW007 BKN014 OVC022 17/17 A3006
RMK AO2 VIS 4000 RWY11 SLP170=
####018000114####
SPUS41 KWBC 080714
SPECI
KWRI 080710Z AUTO 00000KT 3SM R18/5500VP6000FT R24/2800FT BR
OVC002 24/24 A2999=
####018000073####
SPUS53 KWBC 080714
SPECI
KBRL 080710Z AUTO 3SM BR CLR 23/22 A3001=
####018000089####
SPUS53 KWBC 080714
SPECI
KIML 080710Z AUTO 00000KT 10SM BKN030 OVC060 17/15 A3027=
####018000087####
SABN32 OBBI 080700 RRA
METAR OMAD 080700Z 16009KT 130V190 CAVOK 40/18 Q1000 A2955=
####018000073####
SPUS73 KWBC 080714
SPECI
KBRL 080710Z AUTO 3SM BR CLR 23/22 A3001=
####018000090####
SPUS73 KWBC 080714
SPECI
KMCI 080710Z 36003KT 8SM SCT008 BKN014 BKN045 23/22 A3008=
####018000084####
SPUS81 KWBC 080714
SPECI
KRNM 080711Z AUTO 00000KT 4SM BR OVC004 14/13 A2992=
####018000089####
SPUS81 KWBC 080714
SPECI
PASN 080710Z AUTO 08012KT 10SM SCT007 OVC035 06/05 A2993=
####018000871####
SAUS20 KNKA 080714
METAR KAIK 080715Z AUTO 25004KT 10SM CLR 23/22 A3004 RMK AO2 PNO=
METAR KARW 080715Z AUTO 26005KT 10SM CLR 25/18 A2998 RMK AO2=
METAR KBDN 080715Z AUTO 29005KT 10SM CLR 19/03 A3009 RMK AO2 =
METAR KFDW 080715Z AUTO 27004KT 10SM CLR 27/17 A3000 RMK AO1=
METAR KGLY 080715Z AUTO 00000KT 5SM  BR FEW007 OVC065 23/23 A3004 
     RMK AO2 LTG DSNT E =
SPECI KLBX 080713Z AUTO 12006KT 10SM SCT025 BKN029 OVC060 27/25 
    A2990 RMK AO2=
METAR KMEZ 080715Z AUTO 00000KT 10SM BKN014 BKN018 OVC024 25/23 
     A3006 RMK AO2=
METAR KMYR 080715Z AUTO 28009KT 10SM CLR 26/21 A2996 RMK AO1=
METAR KOAJ 080715Z AUTO 00000KT 10SM CLR 23/22 A2992 RMK AO1=
METAR KOCF 080715Z AUTO 00000KT 9SM CLR 21/21 A3001 RMK AO1=
METAR KSOP 080715Z AUTO 32003KT 10SM CLR 26/17 A2997 RMK AO1=
METAR KUDG 080715Z 27006KT 10SM FEW100 27/18 A2998 RMK AO1=
####018000476####
SASA KAWN 080700 RRD
METAR SAAR 080700Z 00000KT CAVOK 02/M01 Q1020=
METAR SAME 080700Z 00000KT CAVOK 03/M03 Q1015=
METAR SANT 080700Z 36010KT 9999 10/05 Q1020=
METAR SAOC 080700Z 36014KT 9999 04/M06 Q1017=
METAR SARC 080700Z 18006KT 9999 10/09 Q1019=
METAR SARP 080700Z 11003KT 9999 OVC005 15/14 Q1017=
METAR SAVC 080700Z 25014KT CAVOK 05/M02 Q0998=
METAR SAWH 080700Z 25003KT 9999 SCT035 BKN100 02/M01 Q0986=
METAR SAZN 080700Z 25003KT CAVOK 05/01 Q1011=
####018000965####
SAXN17 KAWN 080700 RRF
METAR NCRG 080700Z 11005KT 9999 SCT014 BKN290 24/23 Q1017=
METAR NFTF 080700Z 20002KT 9999 FEW015 19/18 Q1015=
METAR RCKH 080700Z 25012KT 210V290 9999 FEW013 BKN200 32/26 Q1008 NOSIG
      RMK 28013KT/RWY09=
METAR RCTP 080700Z 24019KT 9999 FEW025 SCT150 33/25 Q1006 NOSIG=
METAR RJAA 080700Z 22004KT 180V280 9999 FEW025 BKN/// 28/22 Q1009 NOSIG
      RMK 1CU025 A2980=
METAR RJCC 080700Z 16007KT 6000 -DZ FEW003 BKN004 19/17 Q1008 RMK 2ST003
      7ST004 A2979=
METAR RJFF 080700Z 29006KT 250V340 9999 FEW025 BKN/// 29/20 Q1007 RMK
      1CU025 A2975=
METAR RJFK 080700Z 18010KT 9999 FEW030 BKN/// 28/20 Q1009 RMK 1CU030
      A2982=
METAR RJOO 080700Z 23008KT 200V260 9999 FEW030 BKN/// 31/19 Q1007 RMK
      1CU030 A2975=
METAR RJTT 080700Z 19013KT 9999 FEW030 BKN/// 28/22 Q1008 RMK 1CU030
      A2979=
METAR ROAH 080700Z 20014KT 9999 FEW010 SCT015 BKN/// 30/27 Q1009 RMK
      1CU010 4CU015 A2980=
####018000205####
SAXX60 KAWN 080700 RRC
METAR RJOO 080700Z 23008KT 200V260 9999 FEW030 BKN/// 31/19 Q1007 RMK
      1CU030 A2975=
METAR RJTT 080700Z 19013KT 9999 FEW030 BKN/// 28/22 Q1008 RMK 1CU030
      A2979=
####018000444####
SAXX70 KAWN 080700 RRK
METAR KQCC 080655Z AUTO VRB05KT 9999 FEW100 39/14 A2985 RMK AO2 SLP036
      T03890138 $=
METAR KQEJ 080700Z AUTO 32002KT 7SM FEW075 28/17 A2989 RMK A02=
METAR KQEL 080710Z AUTO 19003KT 7SM CLR 28/19 A2970 RMK A02=
METAR KQEQ 080710Z AUTO 22005KT 7SM CLR 26/18 A2980 RMK A02=
METAR KQEW 080710Z AUTO 03003KT 7SM CLR 27/19 A2980 RMK A02=
METAR KQFB 080710Z AUTO 32007KT 1SM +RA OVC015 25/20 A2990 RMK A02=
####018000087####
SANA35 KAWN 080700 RRD
METAR SAWH 080700Z 25003KT 9999 SCT035 BKN100 02/M01 Q0986=
####018000124####
SACN45 CWAO 080700 CCB
METAR CYRT 080700Z CCA 09011KT 1/4SM -RA FG VV001 05/05 A2960 RMK FG8
OBS TAKEN +12 SLP026=

####018000130####
SAAK41 KNKA 080714
SPECI PAWD 080712Z AUTO 08003KT 1 3/4SM -RA BR BKN001 BKN008 OVC060 
    10/09 A2998 RMK AO2 P0000 TSNO=
####018000893####
SAKO51 RJTD 080700
METAR RKPC 080700Z 07009KT 4700 BR FEW010 SCT030 BKN190 25/21 Q1009
           NOSIG=
METAR RKPC 080700Z 07009KT 4700 BR FEW010 SCT030 BKN190 25/21 Q1009
           NOSIG=
METAR RKPK 080700Z 12008KT 9999 SCT030 BKN200 25/17 Q1008 NOSIG=
METAR RKPK 080700Z 12008KT 9999 SCT030 BKN200 25/17 Q1008 NOSIG=
METAR RKSI 080700Z 26005KT 220V290 9999 FEW040 OVC140 24/19 Q1008
           NOSIG=
METAR RKSM 080700Z 25003KT 9999 FEW030 SCT100 BKN200 28/19 A2979=
METAR RKSS 080700Z 28005KT 9999 FEW030 OVC120 27/15 Q1008 NOSIG=
METAR RKSS 080700Z 28005KT 9999 FEW030 OVC120 27/15 Q1008 NOSIG=
METAR RKTN 080700Z 14006KT 9999 SCT030 BKN200 29/20 Q1007 NOSIG=
METAR RKTN 080700Z 14006KT 9999 SCT030 BKN200 29/20 Q1007 NOSIG=
METAR RKTU 080700Z 25005KT 9000 SCT030 BKN200 29/19 Q1008 NOSIG=
METAR RKTU 080700Z 25005KT 9000 SCT030 BKN200 29/19 Q1008 NOSIG=
####018000094####
SPCN42 CWAO 080713
SPECI CYUA 080713Z AUTO 31016KT 9SM OVC004 OVC011 OVC013 05/ A3007=

####018003556####
SAUS99 KWBC 080715
METAR
K1F0 080709Z AUTO 00000KT 10SM SCT036 24/23 A2999 RMK AO2=
K4O4 080708Z AUTO 10003KT 10SM SCT001 BKN015 23/22 A3004 RMK
     AO2=
KADH 080710Z AUTO 00000KT 5SM BR OVC004 23/22 A3002 RMK AO2=
KADM 080710Z AUTO 00000KT 7SM SCT065 23/23 A3000 RMK AO2=
KAFK 080710Z AUTO 01004KT 7SM SCT120 20/19 A3009 RMK AO2
     T02030191=
KALM 080710Z AUTO 33005KT 10SM FEW100 20/14 A3016 RMK AO2=
KANW 080710Z AUTO 00000KT 10SM OVC110 17/15 A3023 RMK AO2
     T01660152=
KATS 080710Z AUTO 35012KT 8SM -RA SCT026 BKN034 OVC046 19/18 A3016
     RMK AO2=
KAUH 080710Z AUTO 34005KT 10SM CLR 16/15 A3017 RMK AO2
     T01600150=
KAXS 080710Z AUTO 33004KT 10SM -RA CLR 24/22 A3006 RMK AO2
     T02370221=
KAXX 080710Z AUTO 25003KT 10SM CLR 05/04 A3047 RMK AO2=
KBVS 080710Z AUTO 32004KT 10SM CLR 16/14 A2996 RMK A01 P000=
KCHK 080711Z AUTO 00000KT 10SM SCT021 SCT100 23/23 A3004 RMK
     AO2=
KCLK 080713Z AUTO 04003KT 10SM CLR 22/21 A3007 RMK AO2=
KCQB 080710Z AUTO 01003KT 10SM 23/23 A3003 RMK AO2 TSNO=
KCUH 080710Z AUTO 05003KT 10SM SCT040 SCT047 OVC065 25/23 A3003
     RMK AO2=
KDUA 080717Z AUTO 15007KT 10SM OVC075 26/23 A3001 RMK AO2=
KGCD 080710Z AUTO 16008KT 10SM CLR 19/04 A3010 RMK AO2
     T01890044=
KGCM 080715Z AUTO 00000KT 4SM +RA SCT002 BKN005 OVC024 22/22 A3006
     RMK AO2 LTG DSNT SE P0003=
KGMJ 080714Z AUTO 00000KT 26/26 A3004 RMK AO2 P0002 PWINO=
KIDP 080710Z AUTO 35004KT 10SM SCT045 SCT060 21/20 A3004 RMK
     AO2=
KIZA 080709Z AUTO 00000KT 10SM OVC009 14/11 A2992 RMK AO2=
KJSV 080710Z AUTO 00000KT 10SM BKN070 23/23 A3003 RMK AO2 LTG DSNT
     NW=
KL35 080711Z AUTO 00000KT 10SM CLR 08/M06 A3018 RMK AO2=
KLAM 080710Z AUTO 00000KT 10SM SCT120 15/09 A3036 RMK AO2=
KLRU 080711Z AUTO 04010KT 10SM CLR 21/14 A3016 RMK AO2=
KOJA 080710Z AUTO 00000KT 7SM CLR 22/22 A3008 RMK AO2=
KOKM 080711Z AUTO 06004KT 10SM BKN021 24/24 A3002 RMK AO1=
KONP 080710Z AUTO 21009KT 4SM BR OVC002 11/10 A2998 RMK AO1=
KORS 080710Z AUTO 00000KT 10SM CLR 17/12 A2993 RMK AO2=
KPLU 080710Z AUTO 00000KT 10SM FEW035 SCT049 16/14 A2993 RMK
     AO2=
KPTS 080710Z AUTO 00000KT 10SM CLR 22/ A3004 RMK AO2 T0220=
KPVJ 080707Z AUTO 00000KT 10SM BKN011 24/23 A3002 RMK AO2=
KRKR 080712Z AUTO 00000KT 10SM BKN028 27/23 A3003 RMK AO2=
KSNL 080712Z AUTO 36004KT 10SM BKN007 BKN022 OVC047 25/24 A3004
     RMK AO2=
KSRE 080710Z AUTO 00000KT 7SM 24/24 A3002 RMK AO2=
KSVC 080710Z AUTO 11008KT 5SM -RA FEW022 SCT031 BKN037 17/14 A3024
     RMK AO2 P0002=
KTMK 080713Z AUTO 19004KT 10SM OVC008 13/12 A2994 RMK AO2=
KTQH 080715Z AUTO 13003KT 10SM BKN012 BKN026 BKN034 23/23 A3004
     RMK AO2=
KWDG 080710Z AUTO 03007KT 10SM -DZ SCT029 SCT047 BKN060 22/22
     A3009 RMK AO2=
KWWR 080709Z AUTO 36008KT 10SM SCT027 23/21 A3014 RMK AO2
     T02250206=
KAIK 080715Z AUTO 25004KT 10SM CLR 23/22 A3004 RMK AO2 PNO=
KARW 080715Z AUTO 26005KT 10SM CLR 25/18 A2998 RMK AO2=
KBDN 080715Z AUTO 29005KT 10SM CLR 19/03 A3009 RMK AO2=
KFDW 080715Z AUTO 27004KT 10SM CLR 27/17 A3000 RMK AO1=
KGLY 080715Z AUTO 00000KT 5SM BR FEW007 OVC065 23/23 A3004 RMK AO2
     LTG DSNT E=
KMEZ 080715Z AUTO 00000KT 10SM BKN014 BKN018 OVC024 25/23 A3006
     RMK AO2=
KMYR 080715Z AUTO 28009KT 10SM CLR 26/21 A2996 RMK AO1=
KOAJ 080715Z AUTO 00000KT 10SM CLR 23/22 A2992 RMK AO1=
KOCF 080715Z AUTO 00000KT 9SM CLR 21/21 A3001 RMK AO1=
KSOP 080715Z AUTO 32003KT 10SM CLR 26/17 A2997 RMK AO1=
KUDG 080715Z 27006KT 10SM FEW100 27/18 A2998 RMK AO1=
####018000721####
SPUS99 KWBC 080715
SPECI
KAQW 080712Z AUTO 00000KT 4SM BR CLR 19/18 A3005 RMK AO2=
KBAZ 080712Z AUTO 06006KT 10SM SCT028 BKN036 OVC045 26/23 A2993
     RMK AO2=
KHIB 080712Z AUTO 00000KT 1/2SM FG CLR 11/10 A3005 RMK AO2=
KISW 080712Z AUTO 24005KT 10SM FEW012 22/21 A3000 RMK AO2 TSNO=
KITR 080712Z AUTO 00000KT 10SM BKN010 OVC016 17/15 A3031 RMK
     AO2=
KRKP 080712Z AUTO 10012KT 10SM SCT019 BKN028 28/26 A2984 RMK AO2
     LTG DSNT N AND NE TSE0658=
KTKI 080713Z AUTO 16003KT 10SM BKN019 26/23 A3000 RMK AO2=
KLBX 080713Z AUTO 12006KT 10SM SCT025 BKN029 OVC060 27/25 A2990
     RMK AO2=
PAWD 080712Z AUTO 08003KT 1 3/4SM -RA BR BKN001 BKN008 OVC060
     10/09 A2998 RMK AO2 P0000 TSNO=
####018000075####
SASD20 OEJD 080700 RRA
METAR OEKJ 080700Z 03020KT 8000 SKC 42/00 Q1008=
####018000081####
SAJM31 MKJP 080700
METAR MKJP 080700Z 11012KT 9999 FEW020 BKN220 27/20 Q1013=
####018002071####
SAUS20 KNKA 080714
METAR KPMV 080710Z AUTO 33003KT 5SM BR CLR 21/20 A3010 RMK AO2 
     T02060198=
SPECI KAKO 080713Z AUTO 13010KT 9SM OVC004 15/14 A3032 RMK AO2 CIG 
    003V008 TSNO=
SPECI KAMA 080713Z 04010KT 1SM RA BR FEW016 BKN055 OVC080 17/17 
    A3019 RMK AO2 SFC VIS 3 P0009 $=
METAR KAUN 080710Z AUTO 11008KT 10SM CLR 22/12 A2988 RMK AO1=
METAR KBIE 080710Z AUTO 36005KT 5SM BR SCT009 20/19 A3011 RMK AO2 
     T02000191=
METAR KBTA 080710Z AUTO 33007KT 10SM CLR 20/17 A3012 RMK AO2 
     T01960173=
METAR KBVN 080710Z AUTO 35003KT 10SM CLR 16/15 A3018 RMK AO2 
     T01560145=
METAR KDVO 080710Z AUTO 31005KT 10SM BKN012 12/12 A2993 RMK AO2=
SPECI KFOE 080713Z AUTO 06008KT 8SM -RA SCT023 OVC095 22/20 A3008 
    RMK AO2 P0002=
SPECI KFOK 080713Z AUTO 13003KT 3SM BR OVC001 24/22 A3005 RMK AO2 
    TSNO=
METAR KHDE 080710Z AUTO 35004KT 10SM CLR 17/15 A3020 RMK AO2 
     T01650151=
METAR KHJH 080710Z AUTO 01007KT 10SM SCT023 20/18 A3014 RMK AO2 
     T02000182=
METAR KIBM 080710Z AUTO 14003KT 7SM OVC018 12/11 A3031 RMK AO2 
     T01220112=
METAR KJYR 080710Z AUTO 36006KT 10SM CLR 17/16 A3016 RMK AO2=
METAR KLCG 080710Z AUTO 00000KT 10SM SCT120 16/15 A3016 RMK AO2 
     T01590152=
METAR KLHM 080711Z AUTO 17008KT 10SM CLR 20/12 A2980 RMK AO1 
     T02000120=
METAR KLXN 080710Z AUTO 33005KT 10SM CLR 15/15 A3022 RMK AO2 
     T01510145=
SPECI KMKO 080712Z AUTO 07004KT 10SM BKN009 BKN017 OVC060 23/23 
    A3003 RMK AO2 LTG DSNT N CIG 008V013=
METAR KMLE 080710Z AUTO 33005KT 10SM CLR 21/17 A3011 RMK AO2 
     T02070172=
METAR KMMH 080710Z AUTO 27006KT 10SM CLR 14/03 A3020 RMK AO1=
METAR KOGA 080710Z AUTO 27004KT 10SM OVC060 16/15 A3027 RMK AO2 
     T01620150=
METAR KONL 080710Z AUTO 27003KT 10SM OVC110 16/14 A3021 RMK AO2 
     T01560143=
METAR KPNA 080710Z AUTO 00000KT 10SM CLR 11/00 A3036 RMK AO2 
     T01111005=
METAR KPTT 080710Z AUTO 36007KT 10SM CLR 19/18 A3014 RMK AO2=
SPECI KVAY 080713Z AUTO 12003KT 2 1/2SM BR BKN003 23/22 A3000 RMK 
    AO2=
####018000104####
SANG31 AMMC 080700
METAR AYMO 080700Z AUTO 17003KT //// // ////// 30/24 Q1008=
METAR AYPY NIL=

####018000108####
SAUS44 KCRP 080715
MTRVCT
SPECI KVCT 080713Z AUTO 03007KT 10SM TS FEW020 26/25 A2988 RMK AO2 
TSB07
####018000094####
SPUS52 KWBC 080715
SPECI
KTOP 080711Z AUTO 05010KT 4SM RA BR SCT015 OVC070 22/21 A3007=
####018000078####
SAMN31 TNCM 080700
METAR TNCM 080700Z 10008KT 9999 SCT018 28/24 Q1015=
####018000089####
SAUS43 KWBC 080700 RRC
METAR
KVYS 080705Z AUTO 00000KT 7SM -RA SCT065 23/22 A3003=
####018000078####
SPUS53 KWBC 080715
SPECI
KSTC 080711Z AUTO 00000KT 9SM CLR 14/13 A3008=
####018000082####
SAUS44 KWBC 080700 RRC
METAR
KOLV 080715Z AUTO 00000KT 8SM CLR 24/24 A3006=
####018000183####
SAZA42 FAJS 080700 RRB
METAR FAWK 080700Z 14010KT 4000 BR NSC 10/// Q1038=
METAR FASK 080700Z 18005KT 7000 NSC 09/// Q1035=
METAR FALM 080700Z 13510KT 9000 BKN012 14/// 1034=
####018000078####
SPUS73 KWBC 080715
SPECI
KSTC 080711Z AUTO 00000KT 9SM CLR 14/13 A3008=
####018000087####
SAER32 OMAE 080700 RRA
METAR OMAD 080700Z 16009KT 130V190 CAVOK 40/18 Q1000 A2955=
####018000076####
SASD20 OEJD 080700 RRA
METAR OEKJ 080700Z 03020KT 8000 SKC 42/00 Q1008=
####018000068####
SAUS53 KWBC 080700 RRE
METAR
KEHA 080708Z AUTO 29006KT 17/15=
####018000078####
SPUS81 KWBC 080715
SPECI
KSTC 080711Z AUTO 00000KT 9SM CLR 14/13 A3008=
