####018000684####
SAFR36 LFPW 081300
METAR LFBA 081300Z 11011KT 080V140 CAVOK 34/14 Q1016 NOSIG=
METAR LFGJ 081300Z AUTO 22007KT 170V280 9999NDV NSC 31/10 Q1020=
METAR LFJR 081300Z AUTO 14004KT 010V180 9999NDV NCD 33/09 Q1017=
METAR LFMD 081300Z AUTO 18006KT 140V210 9999NDV FEW056 29/22 Q1020=
METAR LFMH 081300Z 11006KT 040V150 CAVOK 32/13 Q1020 NOSIG=
METAR LFOT 081300Z AUTO VRB03KT 9999NDV NSC 33/11 Q1018=
METAR LFPN 081300Z VRB04KT CAVOK 31/09 Q1019 NOSIG=
METAR LFRC 081300Z AUTO 02007KT 340V050 9999NDV NSC 21/16 Q1019=
METAR LFRG 081300Z AUTO 34005KT 280V040 9999NDV NSC 28/16 Q1019=
METAR LFRK 081300Z 36006KT 310V060 CAVOK 25/15 Q1019 NOSIG=
METAR LFBE 081300Z NIL=
####018000554####
SAFR37 LFPW 081300
METAR LFAQ 081300Z AUTO 15005KT 100V210 9999NDV NSC 30/10 Q1018=
METAR LFBU 081300Z AUTO 14007KT 080V200 9999NDV NSC 34/08 Q1017=
METAR LFLN 081300Z AUTO VRB03KT 9999NDV NSC 32/13 Q1019=
METAR LFRH 081300Z 26011KT CAVOK 23/15 Q1019=
METAR LFRQ 081300Z 26006KT 210V290 9999 FEW040 26/13 Q1019 NOSIG=
METAR LFRT 081300Z 05006KT 010V120 CAVOK 22/15 Q1019=
METAR LFSD 081300Z AUTO 18006KT 120V230 9999NDV NSC 32/10 Q1020=
METAR LFTW 081300Z AUTO 18007KT 130V230 9999NDV ///////// 32/15
Q1020=
METAR LFPM 081300Z NIL=
####018000079####
SAJD31 OJAI 081300 RRA
METAR OJAI 081300Z 28010KT CAVOK 33/03 Q1012 NOSIG=
####018000627####
SAFR32 LFPW 081300
METAR LFBD 081300Z 08009KT 030V130 9999 FEW046 BKN230 35/12 Q1016
NOSIG=
METAR LFBH 081300Z AUTO 30010KT 9999NDV NSC 32/11 Q1017=
METAR LFBI 081300Z 16004KT 090V230 CAVOK 33/10 Q1017 NOSIG=
METAR LFBL 081300Z 15005KT 090V220 CAVOK 31/12 Q1019 NOSIG=
METAR LFBO 081300Z 11011KT CAVOK 35/11 Q1017 NOSIG=
METAR LFBT 081300Z 05006KT 010V100 CAVOK 35/18 Q1017 NOSIG=
METAR LFBZ 081300Z 29009KT 250V310 CAVOK 26/22 Q1015 NOSIG=
METAR LFLX 081300Z 23005KT 170V280 CAVOK 32/12 Q1018 NOSIG=
METAR LFML 081300Z 27006KT CAVOK 33/19 Q1019 NOSIG=
METAR LFBP 081300Z NIL=
METAR LFLB 081300Z NIL=
####018000565####
SAFR33 LFPW 081300
METAR LFKB 081300Z 10006KT 060V140 9999 FEW026 29/21 Q1019 NOSIG=
METAR LFKC 081300Z 36011KT 9000 FEW010 FEW043TCU 29/22 Q1020 NOSIG=
METAR LFKF 081300Z 22007KT 170V260 9999 FEW036TCU 32/23 Q1019 NOSIG=
METAR LFKJ 081300Z 19010KT 9999 FEW030 FEW046TCU 30/23 Q1019 NOSIG=
METAR LFLC 081300Z 13005KT 070V170 CAVOK 32/11 Q1019 NOSIG=
METAR LFMP 081300Z 08008KT 050V120 9999 FEW057 SCT260 30/16 Q1019
NOSIG=
METAR LFMV 081300Z AUTO VRB04KT 9999NDV NSC 35/13 Q1019=
METAR LFSL 081300Z AUTO 10008KT 060V130 9999NDV NSC 32/13 Q1019=
####018000079####
SAJD20 OJAM 081300 RRA
METAR OJAI 081300Z 28010KT CAVOK 33/03 Q1012 NOSIG=
####018000073####
SASN32 ESWI 081250 RRA
METAR ESSP 081250Z 26011KT CAVOK 25/12 Q1017=
####018000529####
SATS32 DTTA 081300
METAR DTKA 081300Z 30008KT 260V350 9999 FEW020 27/21 Q1019 NOSIG=
METAR DTMB 081300Z 03013KT CAVOK 30/16 Q1018 NOSIG=
METAR DTNZ 081300Z AUTO 10013KT CAVOK 30/16 Q1018=
METAR DTTA 081300Z 36011KT 330V030 CAVOK 29/20 Q1018  NOSIG=
METAR DTTF 081300Z 22006KT CAVOK 36/12 Q1015 NOSIG=
METAR DTTG 081300Z 08010KT CAVOK 33/13 Q1017 NOSIG=
METAR DTTJ 081300Z 08012KT CAVOK 31/19 Q1018 NOSIG=
METAR DTTX 081300Z 15010KT CAVOK 30/21 Q1018 NOSIG=
METAR DTTZ 081300Z 17002KT CAVOK 36/22 Q1017 NOSIG=
####018000082####
SAMJ41 LWOH 081300
METAR LWOH 081300Z 36008KT 9999 FEW040 BKN050 19/10 Q1019=
####018000073####
SAGR32 LGAT 081250 RRA
METAR LGZA 081250Z 32016KT CAVOK 29/09 Q1013=
####018000407####
SAFR31 LFPW 081300
METAR LFMN 081300Z 12005KT 9999 FEW016 29/23 Q1020 NOSIG=
METAR LFPG 081300Z VRB03KT CAVOK 31/10 Q1018 NOSIG=
METAR LFPO 081300Z 27007KT 240V310 CAVOK 32/09 Q1018 NOSIG=
METAR LFQQ 081300Z 20009KT 150V260 CAVOK 31/12 Q1018 NOSIG=
METAR LFRB 081300Z VRB03KT 9999 FEW030 24/16 Q1019 NOSIG=
METAR LFRS 081300Z 26008KT 230V290 CAVOK 33/11 Q1017 NOSIG=
METAR LFLL 081300Z NIL=
####018000075####
SAJD20 OJAM 081300
METAR OJAI 081300Z 28010KT CAVOK 33/03 Q1012 NOSIG=
####018000394####
SARO31 LROM 081300
METAR LRBS 081300Z 30004KT 270V340 9999 FEW025 22/16 Q1016 NOSIG=
METAR LRCK 081300Z 36009KT 310V050 9999 FEW039 25/17 Q1014 BECMG
FEW035CB BKN040=
METAR LROP 081300Z 26004KT 210V320 9999 FEW040CB FEW045 22/15 Q1016
880///95 NOSIG=
METAR LRSB 081300Z 01004KT 330V040 9999 SCT030 OVC086 17/13 Q1020=
METAR LRTR 081300Z 36009KT 320V050 9999 SCT040 25/13 Q1020=
####018000627####
SAKO31 RKSI 081300
METAR RKSI 081300Z 25005KT 8000 -DZ FEW030 OVC110 22/19 Q1009
           NOSIG=
METAR RKSS 081300Z 35001KT 8000 SCT030 OVC100 23/18 Q1009 NOSIG =
METAR RKPC 081300Z 00000KT 4000 BR SCT030 OVC120 24/20 Q1009 NOSIG =
METAR RKPK 081300Z 23004KT 9999 SCT050 BKN200 23/19 Q1010 NOSIG =
METAR RKTU 081300Z 12003KT 9000 -RA SCT030 BKN080 OVC200 24/20 
           Q1010 TEMPO 4500 BR =
METAR RKTN 081300Z 15005KT 6000 SCT020 BKN040 OVC200 24/21 Q1009
           NOSIG=
METAR RKJB 081300Z 16004KT 6000 SCT025 BKN120 24/20 Q1009 NOSIG =
METAR RKNY 081300Z AUTO 23004KT3000NDV NCD 20/18 Q1009 =
####018000523####
SATS40 DTTA 081300
METAR DTKA 081300Z 30008KT 260V350 9999 FEW020 27/21 Q1019 NOSIG=
METAR DTMB 081300Z 03013KT CAVOK 30/16 Q1018 NOSIG=
METAR DTNZ 081300Z AUTO 10013KT CAVOK 30/16 Q1018=
METAR DTTA 081300Z 36011KT 330V030 CAVOK 29/20 Q1018  NOSIG=
METAR DTTF 081300Z 22006KT CAVOK 36/12 Q1015 NOSIG=
METAR DTTJ 081300Z 08012KT CAVOK 31/19 Q1018 NOSIG=
METAR DTTR 081300Z 06008KT CAVOK 36/08 Q1018=
METAR DTTX 081300Z 15010KT CAVOK 30/21 Q1018 NOSIG=
METAR DTTZ 081300Z 17002KT CAVOK 36/22 Q1017 NOSIG=
####018000079####
SAGR33 LGAT 081250 RRB
METAR LGPA 081250Z 02018KT 9999 FEW025 26/17 Q1011=
####018000594####
SAFR35 LFPW 081300
METAR LFMI 081300Z AUTO 18008KT 120V220 9999NDV NSC 34/13 Q1019=
METAR LFMK 081300Z AUTO 09016KT 9999NDV NSC 34/13 Q1018=
METAR LFRD 081300Z AUTO 36008KT 320V030 9999NDV NSC 22/15 Q1019=
METAR LFRN 081300Z AUTO 20005G16KT 140V280 9999NDV NSC 31/11 Q1018=
METAR LFRO 081300Z AUTO 02008KT 340V050 9999NDV NSC 21/16 Q1019=
METAR LFRZ 081300Z AUTO 21010KT 9999NDV NSC 31/09 Q1018=
METAR LFSB 081300Z 35004KT 290V080 CAVOK 31/11 Q1020 NOSIG=
METAR LFST 081300Z VRB03KT CAVOK 31/11 Q1020 NOSIG=
METAR LFTH 081300Z 22007KT 160V250 9999 FEW026 28/22 Q1020 NOSIG=
####018000317####
SATS42 DTTA 081300
METAR DTTB 081300Z 35010KT CAVOK 30/18 Q1020=
METAR DTTD 081300Z 08006KT CAVOK 33/09 Q1019=
METAR DTTK 081300Z 12004KT CAVOK 37/09 Q1017 SIROCCO=
METAR DTTL 081300Z 36006KT CAVOK 30/21 Q1018=
METAR DTTN 081300Z 33008KT CAVOK 34/15 Q1017=
METAR DTTR 081300Z 06008KT CAVOK 36/08 Q1018=
####018000075####
SAJD31 OJAI 081300
METAR OJAI 081300Z 28010KT CAVOK 33/03 Q1012 NOSIG=
####018000107####
SAPH31 RPLC 081200
METAR RPLC 081200Z
31004KT 9000 FEW036 SCT100 BKN270 26/23 Q1011 A2986 RMK/NOSIG=
####018000459####
SAMS32 WMKK 081300
METAR 081300Z
METAR WBGG 081300Z 25006KT 9999 FEW015CB SCT020 BKN150 24/22 Q1012
RETS
     NOSIG=
METAR WBKK 081300Z 11006KT 9999 FEW014 SCT140 BKN270 25/23 Q1010
NOSIG=
METAR WMKJ 081300Z 21003KT 9999 FEW022 BKN300 27/24 Q1010=
METAR WMKK 081300Z 00000KT 9999 FEW030 BKN280 27/25 Q1009 NOSIG=
METAR WMKP 081300Z 06001KT 9000 FEW025 BKN270 28/25 Q1010 NOSIG=
METAR WMSA 081300Z 25001KT 9000 FEW026 BKN280 29/25 Q1009=
####018000815####
SAFR34 LFPW 081300
METAR LFCR 081300Z AUTO 14006KT 090V200 9999NDV NSC 33/04 Q1021=
METAR LFJL 081300Z AUTO VRB03KT 9999NDV NSC 31/07 Q1020=
METAR LFLP 081300Z AUTO 24007KT 180V280 9999NDV NSC 31/13 Q1021=
METAR LFLS 081300Z 22008KT 190V270 9999 FEW050 32/13 Q1021 NOSIG=
METAR LFLY 081300Z 20007KT 150V270 CAVOK 33/12 Q1019 NOSIG=
METAR LFMT 081300Z 18008KT CAVOK 30/15 Q1020 NOSIG=
METAR LFMU 081300Z AUTO 15007KT 100V200 9999NDV NSC 30/14 Q1020=
METAR LFOB 081300Z 20005KT 140V310 CAVOK 31/10 Q1018 NOSIG=
METAR LFOH 081300Z AUTO 34012KT 9999NDV NSC 22/15 Q1019=
METAR LFOK 081300Z AUTO 30006KT 260V330 9999NDV NSC 32/09 Q1019=
METAR LFOP 081300Z VRB03KT CAVOK 31/13 Q1018 NOSIG=
METAR LFPB 081300Z VRB04KT CAVOK 32/09 Q1018 NOSIG=
METAR LFSN 081300Z VRB04KT CAVOK 31/13 Q1019 NOSIG=
####018000237####
SAGG31 UGTB 081300
METAR UGTB 081300Z 06008KT 9999 SCT050 BKN100 34/16 Q1013 NOSIG RMK
      13CLRD80=
METAR UGKO 081300Z 27004KT 9999 SCT050CB BKN100 30/23 Q1010 NOSIG=
METAR UGSB 081300Z 29004KT 9999 BKN020CB 27/23 Q1009 NOSIG=
####018000169####
SACY31 LCLK 081300
METAR LCLK 081300Z 19016KT 9999 FEW030 30/22 Q1007 NOSIG=
METAR LCPH 081300Z 25007KT 210V280 9999 FEW030 29/23 Q1008=
METAR LCNC 081300Z NIL=
####018000086####
SAIN31 VABB 081240 RRA
METAR VOTR 081240Z 00000KT 8000 FEW020 BKN250 32/24 Q1007=
####018000079####
SPUS73 KWBC 081305
SPECI
KMHK 081302Z 02008KT 5SM BR OVC008 22/20 A3012=
####018001878####
SAEW KAWN 081300 RRE
METAR LFBA 081300Z 11011KT 080V140 CAVOK 34/14 Q1016 NOSIG=
METAR LFBC 081300Z AUTO 10009KT 050V150 9999NDV NSC 38/11 Q1015=
METAR LFBF 081300Z AUTO 11009KT 070V150 9999NDV // NSC 35/15 Q1018=
METAR LFBM 081300Z AUTO 11010KT 080V150 9999NDV NSC 36/17 Q1015=
METAR LFBT 081300Z 05006KT 010V100 CAVOK 35/18 Q1017 NOSIG=
METAR LFBY 081300Z 10009KT 070V140 CAVOK 37/20 Q1014=
METAR LFCG 081300Z 12006KT 070V150 CAVOK 34/18 Q1018=
METAR LFDB 081300Z 12006KT 090V150 CAVOK 34/14 Q1017=
METAR LFGJ 081300Z AUTO 22007KT 170V280 9999NDV NSC 31/10 Q1020=
METAR LFHP 081300Z 14005KT 070V200 CAVOK 30/09 Q1023=
METAR LFKB 081300Z 10006KT 060V140 9999 FEW026 29/21 Q1019 NOSIG=
METAR LFKC 081300Z 36011KT 9000 FEW010 FEW043TCU 29/22 Q1020 NOSIG=
METAR LFKF 081300Z 22007KT 170V260 9999 FEW036TCU 32/23 Q1019 NOSIG=
METAR LFKJ 081300Z 19010KT 9999 FEW030 FEW046TCU 30/23 Q1019 NOSIG=
METAR LFLC 081300Z 13005KT 070V170 CAVOK 32/11 Q1019 NOSIG=
METAR LFLX 081300Z 23005KT 170V280 CAVOK 32/12 Q1018 NOSIG=
METAR LFMD 081300Z AUTO 18006KT 140V210 9999NDV FEW056 29/22 Q1020=
METAR LFMH 081300Z 11006KT 040V150 CAVOK 32/13 Q1020 NOSIG=
METAR LFMI 081300Z AUTO 18008KT 120V220 9999NDV NSC 34/13 Q1019=
METAR LFMP 081300Z 08008KT 050V120 9999 FEW057 SCT260 30/16 Q1019 NOSIG=
METAR LFOT 081300Z AUTO VRB03KT 9999NDV NSC 33/11 Q1018=
METAR LFPN 081300Z VRB04KT CAVOK 31/09 Q1019 NOSIG=
METAR LFRC 081300Z AUTO 02007KT 340V050 9999NDV NSC 21/16 Q1019=
METAR LFRD 081300Z AUTO 36008KT 320V030 9999NDV NSC 22/15 Q1019=
METAR LFRK 081300Z 36006KT 310V060 CAVOK 25/15 Q1019 NOSIG=
METAR LFRO 081300Z AUTO 02008KT 340V050 9999NDV NSC 21/16 Q1019=
METAR LFSL 081300Z AUTO 10008KT 060V130 9999NDV NSC 32/13 Q1019=
METAR LFTH 081300Z 22007KT 160V250 9999 FEW026 28/22 Q1020 NOSIG=
METAR LFXA 081300Z VRB05KT CAVOK 33/13 Q1020=
####018000902####
SPZZ40 KAWN 081305
SPECI CYRT 081254Z 07010KT 1 1/2SM -DZ BR OVC003 RMK FG2ST6=
SPECI CYZH 081302Z AUTO 23003KT 9SM BKN029 BKN085 OVC096 15/13 A3005=
SPECI KGUS 081300Z AUTO 22004KT 10SM BKN055 25/23 A3005 RMK AO2 RAE1300
      SLP169 $=
SPECI KHST 081259Z AUTO 07008KT 10SM SCT021 SCT026 30/25 A2996 RMK
      AO2 SCT026 V BKN SLP148 $=
SPECI KRIV 081304Z 26003KT 1 1/2SM BR OVC003 13/12 A2992 RMK AO2A SLP130=
SPECI KXMR 081301Z AUTO 04004KT 10SM -DZ CLR 28/22 A3000 RMK AO2 DZB1301
      SLP160=
SPECI LLET 081227Z 03018G28KT CAVOK 40/11 Q1004=
SPECI MMMX 081300Z 18003KT 2 1/2SM -RA HZ SCT008 BKN010 OVC020 15/14
      A3020 NOSIG RMK 60235 8/7// VSBY TWR=
SPECI PAED 081258Z AUTO 00000KT 10SM FEW055 BKN080 BKN100 12/11 A2998
      RMK AO2 RAE1256DZB1256E1258 SLP152 $=
SPECI RKJK 081302Z 06008KT 2800 R36/0900V1000 HZ FEW120 24/20 A2980
      RMK AO2A SLP093 $=
####018000195####
SAUS17 KAWN 081200 RRI
METAR KLTS 081155Z 04007KT 9SM RA BKN009 BKN015 BKN027 22/22 A3008
      RMK A02 RAB1110 BKN009 V SCT SLP171 P0022 60022 70026
      T02220222 10239 20222 53010 $=
####018000472####
SAXX70 KAWN 081300 RRH
METAR KQEJ 081250Z AUTO 00000KT 2SM -RA BR FEW003 BKN029 22/20 A2996
      RMK A02=
METAR KQAE 081255Z 35008G16KT 9000 DU HZ CLR 45/07 A2962 RMK SLP026=
METAR KQAQ 081255Z 31009G18KT 8000 HZ FU CLR 45/08 A2962 RMK SLP026
      PA +400 DA +3834=
METAR KQOX 081255Z AUTO 19004KT 9999 CLR 28/02 A3016 RMK AO2 SLP076
      T02790020 $=
METAR KQQY 081255Z AUTO VRB01KT 9999 BKN150 BKN170 24/20 A3001 RMK
      AO2 SLP148 T02430203 $=
####018000206####
SAXN17 KAWN 081200 RRN
METAR MMBT 081240Z 00000KT 6SM SCT030 OVC130 23/22 A2989 RMK 8/76/
      VRB COND=
METAR MMCB 081240Z 00000KT 1/4SM FG BKN004 OVC100 18/16 A3001 RMK 8/77/
      OCNL DROPS=
####018001904####
SAEU KAWN 081300 RRO
METAR LFBA 081300Z 11011KT 080V140 CAVOK 34/14 Q1016 NOSIG=
METAR LFBC 081300Z AUTO 10009KT 050V150 9999NDV NSC 38/11 Q1015=
METAR LFBF 081300Z AUTO 11009KT 070V150 9999NDV // NSC 35/15 Q1018=
METAR LFBM 081300Z AUTO 11010KT 080V150 9999NDV NSC 36/17 Q1015=
METAR LFBY 081300Z 10009KT 070V140 CAVOK 37/20 Q1014=
METAR LFGJ 081300Z AUTO 22007KT 170V280 9999NDV NSC 31/10 Q1020=
METAR LFHP 081300Z 14005KT 070V200 CAVOK 30/09 Q1023=
METAR LFKB 081300Z 10006KT 060V140 9999 FEW026 29/21 Q1019 NOSIG=
METAR LFKC 081300Z 36011KT 9000 FEW010 FEW043TCU 29/22 Q1020 NOSIG=
METAR LFKF 081300Z 22007KT 170V260 9999 FEW036TCU 32/23 Q1019 NOSIG=
METAR LFKJ 081300Z 19010KT 9999 FEW030 FEW046TCU 30/23 Q1019 NOSIG=
METAR LFLC 081300Z 13005KT 070V170 CAVOK 32/11 Q1019 NOSIG=
METAR LFMD 081300Z AUTO 18006KT 140V210 9999NDV FEW056 29/22 Q1020=
METAR LFMH 081300Z 11006KT 040V150 CAVOK 32/13 Q1020 NOSIG=
METAR LFMP 081300Z 08008KT 050V120 9999 FEW057 SCT260 30/16 Q1019 NOSIG=
METAR LFOT 081300Z AUTO VRB03KT 9999NDV NSC 33/11 Q1018=
METAR LFPN 081300Z VRB04KT CAVOK 31/09 Q1019 NOSIG=
METAR LFRC 081300Z AUTO 02007KT 340V050 9999NDV NSC 21/16 Q1019=
METAR LFRD 081300Z AUTO 36008KT 320V030 9999NDV NSC 22/15 Q1019=
METAR LFRK 081300Z 36006KT 310V060 CAVOK 25/15 Q1019 NOSIG=
METAR LFRO 081300Z AUTO 02008KT 340V050 9999NDV NSC 21/16 Q1019=
METAR LFSL 081300Z AUTO 10008KT 060V130 9999NDV NSC 32/13 Q1019=
METAR LRBS 081300Z 30004KT 270V340 9999 FEW025 22/16 Q1016 NOSIG=
METAR LRCK 081300Z 36009KT 310V050 9999 FEW039 25/17 Q1014 BECMG FEW035CB
      BKN040=
METAR LROP 081300Z 26004KT 210V320 9999 FEW040CB FEW045 22/15 Q1016
      880///95 NOSIG=
METAR LRSB 081300Z 01004KT 330V040 9999 SCT030 OVC086 17/13 Q1020=
METAR LRTR 081300Z 36009KT 320V050 9999 SCT040 25/13 Q1020=
METAR LWSK 081300Z 35006KT 9999 BKN040 19/11 Q1020 NOSIG=
####018001431####
SANA14 KAWN 081300 RRC
METAR KNEL 081300Z AUTO 14006KT 9SM BKN100 26/20 A3005 RMK AO2 SLP174
      T02560200 $=
METAR KNFL 081256Z AUTO 27005KT 10SM CLR 17/01 A3002 RMK AO2 SLP134
      T01720006 TSNO=
METAR KNGU 081259Z 07008KT 10SM FEW012 SCT070 BKN100 27/20 A3001 RMK
      AO2 SLP163 T02720200=
METAR KNID 081256Z 00000KT 10SM CLR 18/03 A2988 RMK AO2 SLP096 T01830028
      $=
METAR KNLC 081256Z AUTO 31008KT 10SM CLR 17/10 A2984 RMK AO2 SLP103
      T01670100 TSNO $=
METAR KNQI 081256Z COR 03008KT 9SM FEW006 BKN016CB BKN140 BKN280 27/25
      A2983 RMK AO2 TSE40RAB16E40 SLP099 OCNL LTGICCG DSNT W-N CB
      DSNT SE-S AND W-N P0004 T02720250 $=
METAR KNSE 081256Z 00000KT 9SM FEW250 28/24 A3004 RMK AO2 SLP156 T02780239
      $=
METAR KNSE 081256Z 00000KT 9SM FEW250 28/24 A3004 RMK AO2 SLP156 T02780239
      $=
METAR KNTD 081256Z 28006KT 7SM SCT009 OVC011 14/13 A2990 RMK AO2 SLP127
      LAG PK 12/12/27007 T01440128 PNO $=
METAR KNTU 081256Z 07007KT 10SM SCT015 BKN050 BKN100 26/22 A2999 RMK
      AO2 SLP156 T02610222 $=
METAR KOSC 081254Z AUTO 23004KT 7SM SCT060 BKN075 BKN090 23/21 A3000
      RMK AO2=
METAR KPAM 081255Z 36006KT 10SM CLR 27/25 A3003 RMK AO2A SLP169 T02730248=
METAR KSZL 081255Z COR 00000KT 3SM -DZ BR OVC004 23/22 A3008 RMK A02A
      VIS 2 1/2 RWY01 CIG003V007 SLP181 P0000 T02290224 COR 1300=
METAR SBBR 081300Z 07013KT CAVOK 21/09 Q1024=
####018000078####
SADO31 TDPD 081300
METAR TDCF 081300Z 09005KT 9999 SCT018 30/24 Q1015=
####018000086####
SPUS74 KWBC 081305
SPECI
KSMX 081303Z 30004KT 3SM BR BKN002 OVC005 12/11 A2994=
####018000521####
SAIR34 OIII 081300
METAR OIAG 081300Z 18006KT CAVOK 45/17 Q0998 A2949=
METAR OIAM 081300Z 17006KT CAVOK 45/14 Q0996 A2944=
METAR OICI 081300Z 28010KT CAVOK 37/M06 Q1013 A2992 863.9=
METAR OIKQ 081300Z 11010KT 7000 NSC 37/25 Q0999 A2950=
METAR OINN 081300Z 34012KT 9999 FEW030 31/25 Q1009 A2981=
METAR OINR 081300Z 02008KT 9999 FEW030 31/22 Q1009 A2981=
METAR OISL 081300Z 24012KT 5000 DU FEW035CB SCT040 41/18 Q1003
A2963=
METAR OISY 081300Z 12008KT CAVOK 26/16 Q1017 A3003=
METAR OITZ 081300Z NIL=
####018000104####
SPUS81 KWBC 081305
SPECI
KHTL 081302Z AUTO 24004KT 6SM -RA BR FEW010 SCT022 OVC065 22/21
A3005=
####018000079####
SPUS81 KWBC 081305
SPECI
KMHK 081302Z 02008KT 5SM BR OVC008 22/20 A3012=
####018000088####
SPUS81 KWBC 081305
SPECI
KNUI 081303Z AUTO 09007KT 7SM BKN013 BKN021 27/24 A3001=
####018000086####
SPUS81 KWBC 081305
SPECI
KSMX 081303Z 30004KT 3SM BR BKN002 OVC005 12/11 A2994=
####018000080####
SPUS81 KWBC 081305
SPECI
PASN 081301Z 07010KT 1/2SM FG VV001 05/05 A2993=
####018000354####
SAIN33 VECC 081250
METAR VECC 081250Z 22009KT 4500 HZ SCT018 SCT100 32/23 Q1004 NOSIG=
METAR VEPT 081250Z 10001KT 4000 HZ SCT020 SCT025 FEW030CB
    BKN100 36/23 Q1001 NOSIG=
METAR VGEG 081250Z 24005KT 7000 FEW018 SCT120 28/25 Q1006
      NOSIG=
METAR VGZR 081250Z 18006KT 5000 HZ SCT015 BKN100 32/27 Q1004 NOSIG=
METAR VNKT 081250Z NIL=
####018000035####
SAQB31 LQTZ 081300
METAR
NIL
####018000098####
SAMG20 FMMI 081300
METAR FMMI 081300Z 10008KT 080V150 9999 BKN020 SCT023 17/13 Q1025
NOSIG=
####018000184####
SAOM32 OOMS 081300
METAR OOMS 081300Z 06006KT 030V090 6000 SCT025 OVC100
33/28 Q1000 NOSIG=
METAR OOSA 081250Z 15007KT 8000 FEW008 SC012 BKN020
28/23 Q1002 NOSIG RH76 RMK05=
####018000477####
SAIR32 OIII 081300
METAR OIAA 081300Z 30006KT 8000 SKC 49/02 Q0997=
METAR OIBK 081300Z 20008KT 5000 HZ SKC 37/24 Q0999 A2951=
METAR OICC 081300Z 20008KT CAVOK 42/M03 Q1012 A2991
864.4=
METAR OIGG 081300Z 05004KT CAVOK 31/21 Q1010 A2983=
METAR OIIE 081300Z 12014KT CAVOK 42/M06 Q1009 A2980
896.5 05:=
METAR OITR 081300Z 10006KT CAVOK 35/10 Q1012 A2989=
METAR OIYY 081300Z 04006KT CAVOK 41/M09 Q1012 A2990=
METAR OAKN 081300Z NIL=
METAR OAKB 081300Z NIL=
####018000184####
SAOM20 OOMS 081300
METAR OOMS 081300Z 06006KT 030V090 6000 SCT025 OVC100
33/28 Q1000 NOSIG=
METAR OOSA 081250Z 15007KT 8000 FEW008 SC012 BKN020
28/23 Q1002 NOSIG RH76 RMK05=
####018000083####
SAUK39 EGRR 081250 RRC
METAR EGWC 081250Z 21014KT 9999 BKN035 21/10 Q1018 BLU=
####018000081####
SAMJ41 LWSK 081300
METAR LWSK 081300Z 35006KT 9999 BKN040 19/11 Q1020 NOSIG=
####018000457####
SAIR35 OIII 081300
METAR OIAD 081300Z NIL=
METAR OIBJ 081300Z 23016KT 6000 SKC 36/20 Q1005 A2969=
METAR OIBS 081300Z 07006KT 7000 SKC 35/30 Q0998 A2950=
METAR OIHR 081300Z NIL=
METAR OIKM 081300Z NIL=
METAR OIKR 081300Z 32010KT CAVOK 37/M04 Q1014 A2995=
METAR OING 081300Z 28018KT 9999 FEW035 34/21 Q1010 A2983=
METAR OIZB 081300Z 33014KT CAVOK 44/02 Q1002 A2961=
METAR OIZI 081300Z 23016KT 4000 SA SCT045TCU FEW200 41/16 Q1002
A2960=
####018000120####
SACN99 CQCM 081300
METAR CQCM 081300Z  01009KT 6SM HZ FEW040CB 40/20 A2951 RMK
WND/ALTM ESTD CB1 T04010201=


####018001041####
SAUS20 KNKA 081305
METAR KADM 081255Z 00000KT 7SM BKN018 OVC028 24/24 A3004=
METAR KCLS 081255Z AUTO 00000KT 10SM CLR 12/12 A2997 RMK AO2 =
SPECI KFIT 081304Z AUTO 14007KT 10SM SCT018 SCT045 27/21 A3010 RMK 
    AO2=
SPECI KGUY 081304Z AUTO 35007KT 10SM FEW017 SCT022 OVC110 18/17 
    A3022 RMK AO2=
METAR KGZL 081255Z AUTO 00000KT 9SM BKN049 24/23 A3005 RMK AO2 =
SPECI KHLC 081304Z AUTO 03003KT 10SM OVC031 19/15 A3024 RMK AO2=
SPECI KLXT 081304Z AUTO 01007KT 10SM BKN014 OVC075 23/21 A3010 RMK 
    AO2=
SPECI KMFE 081304Z 34008KT 10SM FEW008 SCT011 BKN033 26/24 A2981 RMK 
    AO2=
SPECI KMHT 081300Z COR 20005KT 6SM HZ BKN016 26/22 A3007 RMK AO2=
SPECI KOKB 081304Z AUTO 9SM BKN012 OVC018 17/14 A2990 RMK AO2 $=
SPECI KPHL 081304Z VRB03KT 5SM HZ SCT010 SCT100 27/23 A3004 RMK AO2=
SPECI KPQL 081304Z 01003KT 10SM SCT012 BKN047 26/26 A3005 RMK AO2=
SPECI KUTS 081304Z AUTO 00000KT 7SM SCT007 BKN085 BKN100 25/23 A3000 
    RMK AO2=
SPECI KWST 081304Z AUTO 09005KT 9SM OVC004 23/21 A3009 RMK AO2=
####018000188####
SPAU31 AMMC 081305
SPECI YSSY 081300Z 24007KT 9999 -SHRA FEW010 SCT020 BKN050 11/11 Q1027
     FM1300 22008KT 9999 -SHRA SCT020 BKN045
     INTER 1300/1600 5000 SHRA BKN010=


####018000182####
SPAU31 AMMC 081305
SPECI YSSY 081300Z 24007KT 9999 -SHRA FEW010 SCT020 BKN050 11/11 Q1027
     FM1300 22008KT 9999 -SHRA SCT020 BKN045
     INTER 1300/1600 5000 SHRA BKN010=
####018000502####
SAIR36 OIII 081300
METAR OIBA 081300Z 03006KT 5000 HZ SKC 36/28 Q0998 A2948=
METAR OIBV 081300Z 15008KT 6000 SKC 35/26 Q0998 A2949=
METAR OIFS 081300Z 10010KT CAVOK 35/01 Q1020 A3014 796.3=
METAR OIIP 081300Z 12016KT 6000 SKC 39/M03 Q1012=
METAR OIMB 081300Z 03016KT CAVOK 36/08 Q1014 A2996=
METAR OIMN 081300Z 31019KT CAVOK 35/10 Q1015 A2996=
METAR OIMS 081300Z NIL=
METAR OIMT 081300Z 06010KT 4000 DU SKC 43/M01 Q1005 A2970=
METAR OIZJ 081300Z 16010KT 6000 NSC 32/28 Q1000 A2954=
####018000398####
SAIR37 OIII 081300
METAR OIBQ 081300Z 27004KT CAVOK 37/19 Q0998 A2949=
METAR OIIK 081300Z 13012KT CAVOK 40/01 Q1013 A2992=
METAR OIMC 081300Z 36006KT CAVOK 42/09 Q1007 A2974=
METAR OIMD 081300Z 07010KT CAVOK 39/M00 Q1008 A2979=
METAR OIMQ 081300Z 06012KT CAVOK 40/03 Q1012 A2989=
METAR OISR 081300Z NIL=
METAR OITK 081300Z NIL=
METAR OITM 081300Z 30006KT CAVOK 37/08 Q1012 A2989=
####018000101####
SPUS90 KWBC 081306
SPECI KSMX 081303Z 30004KT 3SM BR BKN002 OVC005 12/11 A2994 RMK
     AO2 $=
####018001646####
SASA KAWN 081300 RRC
METAR SASA 081300Z 00000KT CAVOK 11/06 Q1021=
METAR SBPL 081300Z 16011KT 9999 SCT023 26/18 Q1019=
METAR SCAP 081300Z 21010KT 9999 SCT040 03/02 Q1012=
METAR SCAR 081300Z VRB01KT 9999 OVC021 15/09 Q1016=
METAR SCAS 081300Z 33006KT 8000 VCSH OVC020 03/00 Q1009=
METAR SCBA 081300Z AUTO 26006KT CAVOK M04/M07 Q1003=
METAR SCCI 081300Z 34016KT 9999 FEW025 SCT070 M03/M05 Q0985 NOSIG=
METAR SCDA 081300Z 03008KT 9999 OVC026 15/09 Q1017=
METAR SCEL 081300Z 25004KT 230V310 4000 BR SCT130 02/01 Q1023 NOSIG=
METAR SCFA 081300Z 06005KT 9999 BKN022 13/07 Q1017 NOSIG=
METAR SCGE 081300Z 36005KT 2000 -RA OVC006 08/08 Q1018=
METAR SCGZ 081300Z 15004KT CAVOK M01/M02 Q0984=
METAR SCIE 081300Z 28010KT 9999 BKN012 13/11 Q1020=
METAR SCNT 081300Z 31024G34KT 9999 SCT020 03/M05 Q0989=
METAR SCON 081300Z 29004KT 99999 SCT023 04/02 Q1013=
METAR SCRD 081300Z 17012KT CAVOK 09/04 Q1021=
METAR SCSE 081300Z 13005KT 090V150 CAVOK 08/05 Q1018 NEFO PLAYA SKC=
METAR SCTB 081300Z 00000KT 8000 SCT090 03/03 Q1023=
METAR SCTE 081300Z 22008KT 9999 BKN027 BKN050 07/06 Q1013 NOSIG=
METAR SPHI 081300Z 16009KT 9999 SCT012 SCT100 16/13 Q1015 RMK BIRD
      HAZARD RWY 19/01 PP000=
METAR SPQT 081300Z /////KT 9999 BKN010 26/24 Q1012 NOSIG RMK BIRD HAZARD
      RWY 06/24 PP000=
METAR SPRU 081300Z VRB02KT 6000 OVC015 16/13 Q1014 RMK BIRD HAZARD
      RWY20 PP000=
METAR SPSO 081300Z 11005KT CAVOK 14/11 Q1014 RMK PP000=
METAR SPZO 081300Z 00000KT 9999 FEW033 SCT033 09/03 Q1034 NOSIG RMK
      PP000=
METAR SUDU 081300Z 24004KT CAVOK 08/04 Q1020=
METAR SULS 081300Z 28010KT CAVOK 10/04 Q1019=
####018000085####
SAIR31 OIII 081300 RRA
METAR OIKB 081250Z 20010KT 4000 HZ NSC 36/27 Q0999 A2951=
####018000201####
SAUS99 KWBC 081306
METAR
KADM 081255Z 00000KT 7SM BKN018 OVC028 24/24 A3004=
KCLS 081255Z AUTO 00000KT 10SM CLR 12/12 A2997 RMK AO2=
KGZL 081255Z AUTO 00000KT 9SM BKN049 24/23 A3005 RMK AO2=
####018000791####
SPUS99 KWBC 081306
SPECI
KFIT 081304Z AUTO 14007KT 10SM SCT018 SCT045 27/21 A3010 RMK
     AO2=
KGUY 081304Z AUTO 35007KT 10SM FEW017 SCT022 OVC110 18/17 A3022
     RMK AO2=
KHLC 081304Z AUTO 03003KT 10SM OVC031 19/15 A3024 RMK AO2=
KLXT 081304Z AUTO 01007KT 10SM BKN014 OVC075 23/21 A3010 RMK
     AO2=
KMFE 081304Z 34008KT 10SM FEW008 SCT011 BKN033 26/24 A2981 RMK
     AO2=
KMHT 081300Z COR 20005KT 6SM HZ BKN016 26/22 A3007 RMK AO2=
KOKB 081304Z AUTO 9SM BKN012 OVC018 17/14 A2990 RMK AO2 $=
KPHL 081304Z VRB03KT 5SM HZ SCT010 SCT100 27/23 A3004 RMK AO2=
KPQL 081304Z 01003KT 10SM SCT012 BKN047 26/26 A3005 RMK AO2=
KUTS 081304Z AUTO 00000KT 7SM SCT007 BKN085 BKN100 25/23 A3000 RMK
     AO2=
KWST 081304Z AUTO 09005KT 9SM OVC004 23/21 A3009 RMK AO2=
####018000820####
SAUR31 UKMS 081300
METAR UKLR 081300Z 31006MPS 9999 SCT030 BKN100 22/14
         Q1018 30090070 NOSIG=
METAR UKLI 081300Z 32004MPS 270V010 9999 SCT021CB
         BKN026 18/15 Q1020 28290565 NOSIG=
METAR UKON 081300Z 32004MPS 290V360 9999 FEW033CB
         OVC200 29/17 Q1013 05090075 NOSIG=
METAR UKCM 081300Z 12003MPS 080V190 CAVOK 29/14 Q1013
          20010065 NOSIG=
METAR UKCW 081300Z 07003MPS 010V110 9999 BKN040 30/15
          Q1014 2709//70 NOSIG=
METAR UKLU 081300Z 36003MPS 9999 BKN040 24/12 Q1020
         10090070 NOSIG=
METAR UKKK 081300Z 30003MPS 260V350 9999 BKN035 26/16
         Q1015  26CLRD70 NOSIG=
METAR UKKM 081300Z 33004MPS 300V360 9999 BKN040 25/17
         Q1015  33CLRD70 NOSIG=
METAR UKLN 081300Z 29005MPS 260V330 9999 BKN015
         BKN033CB 16/14 Q1020 3319//65 NOSIG=
####018000096####
SAMR20 TFFF 081300
METAR TFFF 081300Z 08015KT 020V100 9999 FEW020 SCT026 31/24 Q1014
NOSIG=
####018000067####
SAAG SAST 081300
METAR SAST 081300Z  00000KT CAVOK 15/10 Q1018=
####018000096####
SPAK31 KWBC 081306
SPECI
PAED 081258Z AUTO 00000KT 10SM FEW055 BKN080 BKN100 12/11 A2998=
####018000091####
SAUK51 EGGY 081250 RRB
METAR EGUB 081250Z 21009KT 9999 SCT038 BKN220 24/19 Q1018 NOSIG=
####018000067####
SAAG SAZM 081300
METAR SAZM 081300Z  32013KT CAVOK 08/02 Q1014=
####018000372####
SAIE31 EIDB 081300
METAR EIDW 081300Z 23012KT 200V260 9999 FEW022 BKN050 BKN100 17/09
     Q1015 NOSIG=
METAR EINN 081300Z 22010KT 9999 -RADZ FEW016 SCT028 BKN050 15/12
     Q1015 NOSIG=
METAR EICK 081300Z 20010KT 9999 -RA SCT008 BKN025 BKN038 14/13 Q1016
     NOSIG=
METAR EIKN 081300Z 19009KT 140V230 9999 FEW015 FEW018CB BKN040 BKN100
     13/12 Q1014 NOSIG=
####018000081####
SAJM31 MKJS 081300
METAR MKJS 081300Z 13001KT 9999 FEW024 BKN220 29/23 Q1013=
####018000166####
SACY31 LCLK 081300
METAR LCLK 081300Z 19016KT 9999 FEW030 30/22 Q1007 NOSIG=
METAR LCPH 081300Z 25007KT 210V280 9999 FEW030 29/23 Q1008=
METAR LCNC 081300Z NIL=
####018000923####
SAGU31 MGGT 081300
METAR
METAR MGTK 081300Z 00000KT CAVOK 23/23 Q1012 A2989 OVC090 =
METAR MGHT 081300Z 00000KT 9999 FEW004 OVC018 16/15 QFE 812.5 MTN N CUB C/L =
METAR MGPB 081300Z 00000KT 9999 SCT018 OVC090 24/23 Q1011 A2986 =
METAR MGGT 081300Z 00000KT CAVOK 17/14 Q1023 A3021 SCT080 BKN100 NOSIG =
METAR MGSJ 081300Z 00000KT CAVOK 24/23 Q1012 A2988 BKN090 BKN200 =
METAR MGRT 081300Z 00000KT 9999 SCT018 OVC100 24/22 Q1014 A2994 VOL. SANTA MARIA EN ACTIVIDAD =
METAR MGQZ 081300Z 00000KT 7000 FEW008 BKN070 12/12 QFE 767.2 BR =
METAR MGCB 081300Z 23004KT 9999 FEW018 OVC070 19/17 QFE 868.9 =
METAR MGZA 081300Z 00000KT CAVOK 24/22 QFE 987.2 FEW070 OVC100 =
METAR MGES 081300Z 00000KT 9999 SCT012 OVC080 20/19 QFE 909.5 =
METAR MGMT 081300Z 00000KT CAVOK 25/23 QFE 1007.0 SCT070 OVC200 =
METAR MGTU 081300Z 00000KT 9999 SCT018 BKN080 25/24 =
METAR MGCP 081300Z 360004KT CAVOK 24/23 QFEV 1008.1 BKN070 =
####018000673####
SAFR36 LFPW 081300
METAR LFBA 081300Z 11011KT 080V140 CAVOK 34/14 Q1016 NOSIG=
METAR LFGJ 081300Z AUTO 22007KT 170V280 9999NDV NSC 31/10 Q1020=
METAR LFJR 081300Z AUTO 14004KT 010V180 9999NDV NCD 33/09 Q1017=
METAR LFMD 081300Z AUTO 18006KT 140V210 9999NDV FEW056 29/22 Q1020=
METAR LFMH 081300Z 11006KT 040V150 CAVOK 32/13 Q1020 NOSIG=
METAR LFOT 081300Z AUTO VRB03KT 9999NDV NSC 33/11 Q1018=
METAR LFPN 081300Z VRB04KT CAVOK 31/09 Q1019 NOSIG=
METAR LFRC 081300Z AUTO 02007KT 340V050 9999NDV NSC 21/16 Q1019=
METAR LFRG 081300Z AUTO 34005KT 280V040 9999NDV NSC 28/16 Q1019=
METAR LFRK 081300Z 36006KT 310V060 CAVOK 25/15 Q1019 NOSIG=
METAR LFBE 081300Z NIL=
####018000387####
SARO31 LROM 081300
METAR LRBS 081300Z 30004KT 270V340 9999 FEW025 22/16 Q1016 NOSIG=
METAR LRCK 081300Z 36009KT 310V050 9999 FEW039 25/17 Q1014 BECMG
FEW035CB BKN040=
METAR LROP 081300Z 26004KT 210V320 9999 FEW040CB FEW045 22/15 Q1016
880///95 NOSIG=
METAR LRSB 081300Z 01004KT 330V040 9999 SCT030 OVC086 17/13 Q1020=
METAR LRTR 081300Z 36009KT 320V050 9999 SCT040 25/13 Q1020=
####018000236####
SAGG31 UGTB 081300
METAR UGTB 081300Z 06008KT 9999 SCT050 BKN100 34/16 Q1013 NOSIG RMK
      13CLRD80=
METAR UGKO 081300Z 27004KT 9999 SCT050CB BKN100 30/23 Q1010 NOSIG=
METAR UGSB 081300Z 29004KT 9999 BKN020CB 27/23 Q1009 NOSIG=
####018000522####
SAVN26 SVMC 081300
METAR SVMC 081300Z 36003KT 9999 SCT013 SCT070 28/26 Q1012=
METAR SVJC 081300Z 09009KT 9999 FEW030 27/25 Q1012=
METAR SVSA 081300Z 00000KT 9999 BKN020 25/20 Q1016=
METAR SVCR 081300Z 00000KT 9999 SCT016 BKN060 25/23 Q1012=
METAR SVVG 081300Z 00000KT 9999 OVC030 XX/XX Q1013=
METAR SVSZ 081300Z 00000KT 9999 SCT020 XX/XX Q1012=
METAR SVMD 081300Z 25004KT 4000 BR SCT023 BKN090 18/16 Q1021=
METAR SVPM 081300Z 00000KT 9999 SCT035 XX/XX Q1016=
METAR SVLF 081300Z 00000KT 9999 BKN040 XX/XX Q1014=
####018000358####
SAAF33 KWBC 081300
METAR
FLLI NIL=
FLLS 081300Z 07014KT 9/9 BKN040 19/08 Q1027=
FLMF NIL=
FLND NIL=
FNHU NIL=
FNLU NIL=
FQBR 081300Z 19008KT 9999 FEW020 24/18 Q1024=
FQMA 081300Z 10007KT 9999 FEW020 24/16 Q1027 NOSIG=
FVBU NIL=
FVCZ NIL=
FVFA NIL=
FVHA NIL=
FVMV NIL=
FVTL NIL=
FWCL NIL=
FWGL NIL=
FWKI NIL=
FWUU NIL=
####018000323####
SAXX60 KWBC 081306
METAR
KNQI 081134Z COR 02005KT 10SM TS SCT014CB BKN140 BKN280 27/24
     A2983 RMK AO2 OCNL LTGICCG VC NE-SE TSB28RAE19 TS NE-SE MOV W
     P0006=
KNQI 081134Z COR 02005KT 10SM TS SCT014CB BKN140 BKN280 27/24
     A2983 RMK AO2 OCNL LTGICCG VC NE-SE TSB28RAE19 TS NE-SE MOV W
     P0006=
####018000400####
SAFR31 LFPW 081300
METAR LFMN 081300Z 12005KT 9999 FEW016 29/23 Q1020 NOSIG=
METAR LFPG 081300Z VRB03KT CAVOK 31/10 Q1018 NOSIG=
METAR LFPO 081300Z 27007KT 240V310 CAVOK 32/09 Q1018 NOSIG=
METAR LFQQ 081300Z 20009KT 150V260 CAVOK 31/12 Q1018 NOSIG=
METAR LFRB 081300Z VRB03KT 9999 FEW030 24/16 Q1019 NOSIG=
METAR LFRS 081300Z 26008KT 230V290 CAVOK 33/11 Q1017 NOSIG=
METAR LFLL 081300Z NIL=
####018000384####
SAAF31 KWBC 081300
METAR
DBBB NIL=
DGAA NIL=
DGSI NIL=
DIAP 081300Z 19006KT 160V240 8000 SCT012 BKN020 29/25 Q1014
     NOSIG=
DIAV NIL=
DIBK NIL=
DIST NIL=
DNAA NIL=
DNCA NIL=
DNIL NIL=
DNKA NIL=
DNKN NIL=
DNMA NIL=
DNMM NIL=
DNPO NIL=
DNSO NIL=
DRRN NIL=
DRZA NIL=
DXNG NIL=
DXXX 081300Z 20012KT 9999 FEW016 FEW025CB 29/24 Q1013 NOSIG=
####018000072####
SASN32 ESWI 081250 RRA
METAR ESSP 081250Z 26011KT CAVOK 25/12 Q1017=
####018000078####
SAGR33 LGAT 081250 RRB
METAR LGPA 081250Z 02018KT 9999 FEW025 26/17 Q1011=
####018002845####
SAUS70 KWBC 081300 RRG
METAR
KGTU 081249Z 06006KT 5SM BR BKN005 OVC012 24/22 A3003=
KNSE 081256Z 00000KT 9SM FEW250 28/24 A3004 RMK AO2 SLP156
     T02780239 $=
TJBQ 081250Z 07007KT 10SM SKC 30/26 A3001=
KUXL 081300Z AUTO 06007KT 10SM OVC007 26/25 A3000 RMK AO2=
KEDE 081258Z AUTO 00000KT 10SM CLR 27/23 A2998 RMK AO2=
KFFA 081258Z AUTO 06006KT 10SM CLR 27/22 A2997 RMK AO2
     T02690223=
KGAO 081300Z AUTO 07004KT CLR 28/25 A3002 RMK AO2 PWINO=
KGWW 081300Z AUTO 03004KT 5SM HZ SCT080 27/22 A2997 RMK AO2
     T02700216=
KHNZ 081300Z AUTO 04004KT 7SM SCT110 29/20 A3001 RMK AO2
     T02870198=
KIER 081300Z AUTO 10004KT 7SM OVC100 25/25 A3005 RMK AO2 PWINO=
KIXA 081300Z AUTO 06005KT 7SM SCT075 27/21 A2999 RMK AO2
     T02710213=
KJFZ 081300Z AUTO 00000KT 6SM CLR 23/21 A3018 RMK=
KLDJ 081300Z AUTO 13003KT 4SM BR OVC006 26/24 A3005 RMK AO2
     T02600237=
KLHZ 081300Z AUTO 02006KT 7SM SCT120 30/19 A3000 RMK AO2
     T02970194=
KLKU 081300Z AUTO 01007KT 7SM CLR 29/20 A3001 RMK AO2=
KLNP 081258Z AUTO 01004KT 10SM CLR 25/19 A3020 RMK AO1=
KMDQ 081300Z AUTO 00000KT 10SM CLR 27/22 A3009 RMK AO2
     T02690221=
KMKJ 081300Z AUTO 29003KT 7SM CLR 24/11 A3023 RMK AO1=
KMTV 081300Z AUTO 00000KT 7SM CLR 29/22 A3007 RMK AO2=
KOKV 081300Z AUTO 30007KT 10SM CLR 31/18 A3006 RMK AO2
     T03090181=
KOMH 081300Z AUTO 33005KT 7SM SCT110 29/22 A3004 RMK AO2
     T02890216=
KONX 081300Z AUTO 05007KT 030V090 10SM CLR 27/22 A2999 RMK AO2
     T02730219=
KOPN 081300Z AUTO 27004KT 10SM CLR 29/24 A3006 RMK AO1=
KPCM 081300Z AUTO 06003KT 10SM CLR 27/22 A3003 RMK AO2=
KRCZ 081300Z AUTO 35004KT 10SM CLR 28/19 A2998 RMK AO2
     T02750192=
KRMN 081300Z AUTO 00000KT 5SM BR SCT012 SCT090 27/26 A3005 RMK
     AO2=
KSFQ 081300Z AUTO 07004KT 10SM CLR 27/24 A3001 RMK AO2 LTG DSNT
     E=
KSHD 081300Z AUTO 00000KT 7SM CLR 27/19 A3009 RMK AO2=
KTBR 081300Z AUTO 29005KT 10SM CLR 27/20 A3001 RMK AO2
     T02740202=
KVDF 081256Z AUTO 00000KT 10SM CLR 27/23 A3002 RMK AO2=
KVVG 081255Z AUTO 36003KT 26/22 A3002 RMK AO2=
KW22 081300Z AUTO 00000KT 7SM CLR 24/19 A3014 RMK AO2=
KW45 081300Z AUTO 00000KT 7SM CLR 28/20 A3006 RMK AO2
     T02760197=
KWDR 081300Z AUTO 34004KT 10SM CLR 27/21 A3008 RMK AO1=
KXLL 081300Z AUTO 00000KT 7SM CLR 28/23 A3005 RMK AO2
     T02800230=
KXSA 081300Z AUTO 10006KT 7SM SCT014 29/23 A3001 RMK AO2 PWINO=
KNSE 081256Z 00000KT 9SM FEW250 28/24 A3004 RMK AO2 SLP156
     T02780239 $=
KNSE 081256Z 00000KT 9SM FEW250 28/24 A3004 RMK AO2 SLP156
     T02780239 $=
KOSC 081254Z AUTO 23004KT 7SM SCT060 BKN075 BKN090 23/21 A3000 RMK
     AO2=
KADM 081255Z 00000KT 7SM BKN018 OVC028 24/24 A3004=
KCLS 081255Z AUTO 00000KT 10SM CLR 12/12 A2997 RMK AO2=
KGZL 081255Z AUTO 00000KT 9SM BKN049 24/23 A3005 RMK AO2=
####018000154####
SAUS80 KWBC 081300 RRC
METAR
PHNY 081256Z AUTO 03012KT 10SM BKN036 BKN045 19/18 A3005 RMK AO2
     TSNO T01940183 BKN V OVC RAE03 P0000 SLP155 $=
####018000105####
SAPH31 RPLC 081200
METAR RPLC 081200Z
31004KT 9000 FEW036 SCT100 BKN270 26/23 Q1011 A2986 RMK/NOSIG=
####018000028####
SAAF32 KWBC 081300
NIL=
####018000085####
SABZ20 SBBE 081300 CCA
METAR SBBE 081300Z 10009KT 9999 FEW015 SCT100 31/22 Q1014=
####018000483####
SPXX60 KWBC 081306
SPECI
KGUS 081300Z AUTO 22004KT 10SM BKN055 25/23 A3005 RMK AO2 RAE1300
     SLP169 $=
KHST 081259Z AUTO 07008KT 10SM SCT021 SCT026 30/25 A2996 RMK AO2
     SCT026 V BKN SLP148 $=
KRIV 081304Z 26003KT 1 1/2SM BR OVC003 13/12 A2992 RMK AO2A
     SLP130=
KXMR 081301Z AUTO 04004KT 10SM -DZ CLR 28/22 A3000 RMK AO2 DZB1301
     SLP160=
PAED 081258Z AUTO 00000KT 10SM FEW055 BKN080 BKN100 12/11 A2998
     RMK AO2 RAE1256DZB1256E1258 SLP152 $=
####018000544####
SAFR37 LFPW 081300
METAR LFAQ 081300Z AUTO 15005KT 100V210 9999NDV NSC 30/10 Q1018=
METAR LFBU 081300Z AUTO 14007KT 080V200 9999NDV NSC 34/08 Q1017=
METAR LFLN 081300Z AUTO VRB03KT 9999NDV NSC 32/13 Q1019=
METAR LFRH 081300Z 26011KT CAVOK 23/15 Q1019=
METAR LFRQ 081300Z 26006KT 210V290 9999 FEW040 26/13 Q1019 NOSIG=
METAR LFRT 081300Z 05006KT 010V120 CAVOK 22/15 Q1019=
METAR LFSD 081300Z AUTO 18006KT 120V230 9999NDV NSC 32/10 Q1020=
METAR LFTW 081300Z AUTO 18007KT 130V230 9999NDV ///////// 32/15
Q1020=
METAR LFPM 081300Z NIL=
####018000544####
SAAF34 KWBC 081300
METAR
FALA 081300Z 03008KT 350V090 9999 FEW049 18/04 Q1031 NOSIG=
FBDR NIL=
FBFT 081300Z 11010KT 9999 BKN020 20/10 Q1029=
FBGR NIL=
FBGZ NIL=
FBJW NIL=
FBKE NIL=
FBMN 081300Z 07013KT CAVOK 25/05 Q1025=
FBMP NIL=
FBSK 081300Z 07012KT 9999 BKN020 21/07 Q1028 NOSIG=
FBSP NIL=
FBSW NIL=
FBTE NIL=
FBTS NIL=
FDMS 081300Z 00000KT 9999 SCT035 19/12 Q1029 NOSIG=
FEFF NIL=
FXMM NIL=
FXMU NIL=
FYWB 081300Z 04016KT CAVOK 34/08 Q1016=
FYWH 081300Z AUTO 02010KT //// // ////// 21/M01 Q1026=
####018000195####
SAXX60 KWBC 081200 RRR
METAR
KLTS 081155Z 04007KT 9SM RA BKN009 BKN015 BKN027 22/22 A3008 RMK
     A02 RAB1110 BKN009 V SCT SLP171 P0022 60022 70026 T02220222
     10239 20222 53010 $=
####018000927####
SAGU31 MGGT 081300
METAR
METAR MGTK 081300Z 00000KT CAVOK 23/23 Q1012 A2989 OVC090 =
METAR MGHT 081300Z 00000KT 9999 FEW004 OVC018 16/15 QFE 812.5 MTN N
CUB C/L =
METAR MGPB 081300Z 00000KT 9999 SCT018 OVC090 24/23 Q1011 A2986 =
METAR MGGT 081300Z 00000KT CAVOK 17/14 Q1023 A3021 SCT080 BKN100
NOSIG
=
METAR MGSJ 081300Z 00000KT CAVOK 24/23 Q1012 A2988 BKN090 BKN200 =
METAR MGRT 081300Z 00000KT 9999 SCT018 OVC100 24/22 Q1014 A2994 VOL.
SANTA MARIA EN ACTIVIDAD =
METAR MGQZ 081300Z 00000KT 7000 FEW008 BKN070 12/12 QFE 767.2 BR =
METAR MGCB 081300Z 23004KT 9999 FEW018 OVC070 19/17 QFE 868.9 =
METAR MGZA 081300Z 00000KT CAVOK 24/22 QFE 987.2 FEW070 OVC100 =
METAR MGES 081300Z 00000KT 9999 SCT012 OVC080 20/19 QFE 909.5 =
METAR MGMT 081300Z 00000KT CAVOK 25/23 QFE 1007.0 SCT070 OVC200 =
METAR MGTU 081300Z 00000KT 9999 SCT018 BKN080 25/24 =
METAR MGCP 081300Z 360004KT CAVOK 24/23 QFEV 1008.1 BKN070 =
####018000076####
SABC40 FBSK 081300 RRA
METAR FBKE 081300Z 09014KT CAVOK 24/07 Q1025=

####018000072####
SAGR32 LGAT 081250 RRA
METAR LGZA 081250Z 32016KT CAVOK 29/09 Q1013=
####018000436####
SAUS70 KWBC 081306
METAR
PABA 081301Z AUTO 28014KT 10SM BKN042 OVC055 07/04 A3001 RMK AO2
     SLP162 T00720044=
KHDC 081303Z AUTO 08003KT 10SM CLR 28/27 A3006 RMK AO2=
KOBE 081301Z AUTO 06006KT 10SM CLR 27/23 A3000 RMK AO2=
KPGV 081302Z AUTO 05005KT 4SM HZ SCT013 SCT100 SCT120 27/23 A2999
     RMK AO2=
KTNB 081302Z AUTO 28005KT 7SM CLR 26/17 A3021 RMK AO2=
KVDI 081303Z AUTO 28003KT 10SM CLR 28/21 A3003 RMK AO1=
####018000068####
SABZ24 SBCR 081300
METAR SBCR 081300Z 08004KT CAVOK 27/12 Q1015=
####018000028####
SAAA31 KWBC 081300
NIL=
####018000238####
SPUS80 KWBC 081306
SPECI
KNUI 081303Z AUTO 09007KT 7SM BKN013 BKN021 27/24 A3001 RMK
     AO2=
KSMX 081303Z 30004KT 3SM BR BKN002 OVC005 12/11 A2994 RMK AO2
     $=
KHLC 081304Z AUTO 03003KT 10SM OVC031 19/15 A3024 RMK AO2=
####018000081####
SABZ21 SBMO 081300
METAR SBMO 081300Z 30002KT 9999 SCT020 SCT100 26/20 Q1017=
####018001505####
SAXX60 KWBC 081300 RRF
METAR
KHLR 081256Z AUTO 09004KT 8SM -RA OVC007 26/ A3001 RMK AO2 RAB54
     SLP154 P0000 T0256 $=
PHBK 081256Z AUTO 12003KT 10SM BKN060 OVC070 24/18 A3000 RMK AO2
     SLP162 T02440178 TSNO $=
PWAK 081255Z 07013KT 6SM BR SKC 27/26 A2998 RMK AO2A=
K79J 081256Z AUTO 00000KT 10SM CLR 28/22 A3003 RMK AO2 SLP165
     T02780222 TSNO $=
KNGU 081259Z 07008KT 10SM FEW012 SCT070 BKN100 27/20 A3001 RMK AO2
     SLP163 T02720200=
KNEL 081300Z AUTO 14006KT 9SM BKN100 26/20 A3005 RMK AO2 SLP174
     T02560200 $=
KNFL 081256Z AUTO 27005KT 10SM CLR 17/01 A3002 RMK AO2 SLP134
     T01720006 TSNO=
KNGU 081259Z 07008KT 10SM FEW012 SCT070 BKN100 27/20 A3001 RMK AO2
     SLP163 T02720200=
KNID 081256Z 00000KT 10SM CLR 18/03 A2988 RMK AO2 SLP096 T01830028
     $=
KNLC 081256Z AUTO 31008KT 10SM CLR 17/10 A2984 RMK AO2 SLP103
     T01670100 TSNO $=
KNQI 081256Z COR 03008KT 9SM FEW006 BKN016CB BKN140 BKN280 27/25
     A2983 RMK AO2 TSE40RAB16E40 SLP099 OCNL LTGICCG DSNT W-N CB
     DSNT SE-S AND W-N P0004 T02720250 $=
KNTD 081256Z 28006KT 7SM SCT009 OVC011 14/13 A2990 RMK AO2 SLP127
     LAG PK 12/12/27007 T01440128 PNO $=
KNTU 081256Z 07007KT 10SM SCT015 BKN050 BKN100 26/22 A2999 RMK AO2
     SLP156 T02610222 $=
KPAM 081255Z 36006KT 10SM CLR 27/25 A3003 RMK AO2A SLP169
     T02730248=
KSZL 081255Z COR 00000KT 3SM -DZ BR OVC004 23/22 A3008 RMK A02A
     VIS 2 1/2 RWY01 CIG003V007 SLP181 P0000 T02290224 COR
     1300=
####018000616####
SAKO31 RKSI 081300
METAR RKSI 081300Z 25005KT 8000 -DZ FEW030 OVC110 22/19 Q1009
           NOSIG=
METAR RKSS 081300Z 35001KT 8000 SCT030 OVC100 23/18 Q1009 NOSIG =
METAR RKPC 081300Z 00000KT 4000 BR SCT030 OVC120 24/20 Q1009 NOSIG =
METAR RKPK 081300Z 23004KT 9999 SCT050 BKN200 23/19 Q1010 NOSIG =
METAR RKTU 081300Z 12003KT 9000 -RA SCT030 BKN080 OVC200 24/20 
           Q1010 TEMPO 4500 BR =
METAR RKTN 081300Z 15005KT 6000 SCT020 BKN040 OVC200 24/21 Q1009
           NOSIG=
METAR RKJB 081300Z 16004KT 6000 SCT025 BKN120 24/20 Q1009 NOSIG =
METAR RKNY 081300Z AUTO 23004KT3000NDV NCD 20/18 Q1009 =
####018000382####
SAAF35 KWBC 081300
METAR
HDAM NIL=
HEAX NIL=
HEBA NIL=
HEBL NIL=
HECA 081300Z 31008KT CAVOK 33/17 Q1010 NOSIG=
HEGN NIL=
HELX NIL=
HEMM NIL=
HEPS NIL=
HERN NIL=
HESC NIL=
HESN NIL=
HLLB 081250Z 33022KT 9999 FEW025 31/17 Q1016=
HLLS NIL=
HLLT 081250Z 35007KT 310V040 8000 SKC 31/18 Q1018=
HSKA NIL=
HSPN NIL=
HSSJ NIL=
HSSP NIL=
HSSS NIL=
####018001527####
SPUS70 KWBC 081306
SPECI
KMWL 081302Z AUTO 12005KT 10SM FEW008 BKN024 BKN031 24/23 A3003
     RMK AO2 $=
PAHC 081302Z AUTO 00000KT 1 1/4SM BR CLR 08/07 A2998 RMK AO2 TSNO
     VIS 1/2V5 $=
KACT 081304Z 06005KT 8SM BKN014 OVC020 26/23 A3001 RMK AO2=
KAFN 081303Z AUTO 18004KT 6SM BR SCT008 BKN032 OVC065 23/21 A3013
     RMK AO2=
KARR 081303Z 30003KT 2 1/2SM -RA BR BKN006 BKN016 OVC027 23/22
     A3005 RMK AO2 RAB1257 P0000 $=
KCEC 081303Z AUTO 00000KT 2 1/2SM BR OVC001 10/09 A2998 RMK
     AO2=
KDPA 081303Z 26005KT 2 1/2SM -RA BR OVC014 23/22 A3004 RMK AO2
     RAB03 P0000=
KDXR 081303Z 00000KT 2SM -RA BR OVC003 24/23 A3009 RMK AO2
     P0000=
KHFD 081303Z 17006KT 6SM HZ BKN017 BKN047 27/23 A3007 RMK AO2=
KJEF 081303Z 00000KT 4SM BR OVC003 24/23 A3007 RMK AO2 CIG
     002V007=
KFIT 081304Z AUTO 14007KT 10SM SCT018 SCT045 27/21 A3010 RMK
     AO2=
KGUY 081304Z AUTO 35007KT 10SM FEW017 SCT022 OVC110 18/17 A3022
     RMK AO2=
KLXT 081304Z AUTO 01007KT 10SM BKN014 OVC075 23/21 A3010 RMK
     AO2=
KMFE 081304Z 34008KT 10SM FEW008 SCT011 BKN033 26/24 A2981 RMK
     AO2=
KMHT 081300Z COR 20005KT 6SM HZ BKN016 26/22 A3007 RMK AO2=
KOKB 081304Z AUTO 9SM BKN012 OVC018 17/14 A2990 RMK AO2 $=
KPHL 081304Z VRB03KT 5SM HZ SCT010 SCT100 27/23 A3004 RMK AO2=
KPQL 081304Z 01003KT 10SM SCT012 BKN047 26/26 A3005 RMK AO2=
KUTS 081304Z AUTO 00000KT 7SM SCT007 BKN085 BKN100 25/23 A3000 RMK
     AO2=
KWST 081304Z AUTO 09005KT 9SM OVC004 23/21 A3009 RMK AO2=
####018000335####
SAAF36 KWBC 081300
METAR
HAAB NIL=
HAAY NIL=
HADR NIL=
HBBA NIL=
HCMH NIL=
HCMI NIL=
HCMK NIL=
HCMM NIL=
HCMV NIL=
HEMA NIL=
HFFF NIL=
HKJK NIL=
HKMO NIL=
HKNA NIL=
HRYR 081300Z 20003KT 9999 BKN030 26/13 Q1020 NOSIG=
HTDA NIL=
HTKJ NIL=
HTZA NIL=
HUEN NIL=
HUKS NIL=
HUMA NIL=
HUSO NIL=
####018000174####
SPAU31 KWBC 081306
SPECI
YSSY 081300Z 24007KT 9999 -SHRA FEW010 SCT020 BKN050 11/11 Q1027
FM1300 22008KT 9999 -SHRA SCT020 BKN045 INTER 1300/1600 5000 SHRA
BKN010=
####018000074####
SPAW31 KWBC 081306
SPECI
LLET 081227Z 03018G28KT CAVOK 40/11 Q1004=
####018000028####
SAAL31 KWBC 081300
NIL=
####018001116####
SAAK31 KWBC 081300
METAR
PABR 081253Z 24017KT 10SM FEW150 SCT190 SCT250 07/03 A2997=
PACD 081253Z 10SM FEW050 SCT180 05/04 A2989=
PAED 081255Z AUTO 00000KT 10SM -RA FEW003 BKN075 BKN090 BKN100
     12/11 A2997=
PAEI 081255Z AUTO 00000KT 10SM CLR 09/06 A3004=
PAEN 081253Z AUTO 04011KT 10SM BKN100 14/12 A2993=
PAFA 081253Z 34003KT 10SM FEW100 SCT200 11/07 A3004=
PAFS 081256Z AUTO 00000KT 10SM CLR 11/06 A2999=
PAFY NIL=
PAJN 081253Z 00000KT 10SM BKN200 09/08 A3018=
PAKN 081254Z 35003KT 10SM SCT060 08/08 A2990=
PAKT 081253Z AUTO VRB03KT 10SM CLR 16/11 A3008=
PANC 081253Z 00000KT 10SM OVC080 12/11 A2997=
PAOM 081253Z 35009KT 10SM FEW200 13/08 A3007=
PAOR 081253Z 00000KT 10SM FEW070 08/08 A3007=
PAOT 081253Z 29010KT 10SM FEW038 SCT090 BKN200 11/07 A3011=
PARY 081256Z AUTO 36006KT 10SM CLR 14/06 A3005=
PASC 081253Z 24012KT 10SM OVC230 08/05 A3003=
PASG NIL=
PASI 081253Z 00000KT 1/4SM FG VV001 12/12 A3017=
PATQ 081256Z AUTO 24012KT 10SM CLR 08/04 A3003=
PAVD 081256Z 14004KT 10SM OVC090 11/08 A3008=
PAWG 081256Z AUTO 28004KT 10SM CLR 12/09 A3013=
PFYU NIL=
####018000995####
SAAO31 KWBC 081300
METAR
GCFV 081300Z 05016KT 9999 FEW020 23/19 Q1017=
GCHI 081300Z 01012KT 330V060 9999 FEW014 SCT022 23/18 Q1019=
GCLA 081300Z 01013KT 340V040 9999 FEW020 25/18 Q1019=
GCLP 081300Z 02025KT 9999 FEW020 25/17 Q1017 NOSIG=
GCRR 081300Z 36017KT 330V030 9999 FEW020 27/19 Q1017=
GCTS 081300Z 11016KT 080V140 9999 FEW020 25/18 Q1017 NOSIG=
GCXO 081300Z 29012KT 9999 FEW005 23/17 Q1020 NOSIG=
GEML 081300Z 09008KT 060V140 9999 FEW012 26/21 Q1016=
GMAA NIL=
GMAT NIL=
GMFF 081300Z 28008KT 8000 SCT033 BKN100 33/20 Q1018 NOSIG=
GMFO 081300Z 21007KT 140V280 CAVOK 44/09 Q1017 NOSIG=
GMME 081300Z 35006KT 310V020 6000 SCT010 BKN016 26/19 Q1016
     NOSIG=
GMMN 081300Z 35010KT 320V060 9999 SCT016 BKN023 28/19 Q1017
     NOSIG=
GMMX 081300Z 30008KT 250V340 8000 FEW026 37/16 Q1016 NOSIG=
GMOY NIL=
GMTA 081300Z 36010KT CAVOK 24/20 Q1016=
GMTN 081300Z NIL=
GMTT 081300Z 27008KT 240V300 8000 FEW016 SCT100 27/20 Q1016
     NOSIG=
GSAI NIL=
####018000333####
SAAO33 KWBC 081300
METAR
GBYD 081300Z VRB03KT SCT012 FEWCB018 BKN120 30/27 Q1013 CB
     S-NW=
GFLL NIL=
GGOV NIL=
GLRB NIL=
GOGG NIL=
GOGS NIL=
GOOY 081300Z 16009KT 120V210 9999 SCT013 31/25 Q1012 NOSIG=
GOSS NIL=
GOTT NIL=
GOTY NIL=
GUCY NIL=
GUFH NIL=
GULB NIL=
GUNZ NIL=
GUOK NIL=
GUXD NIL=
####018000365####
SAPO31 LPMG 081300
METAR LPFR 081300Z 24010KT 9999 FEW012 24/20 Q1016=
METAR LPMA 081300Z VRB07G18KT 9999 FEW016 24/17 Q1020 RS17006KT 
0519006KT 2302015KT=
METAR LPPR 081300Z 21006KT 180V260 7000 SCT006 BKN007 21/18 Q1016=
METAR LPPS 081300Z 01011KT 350V050 9999 FEW016 SCT030 23/15 Q1021=
METAR LPPT 081300Z 27009KT 230V310 CAVOK 29/19 Q1016 NOSIG=
####018000224####
SAAO32 KWBC 081300
METAR
GABS NIL=
GAGO NIL=
GAKY NIL=
GAMB NIL=
GANR NIL=
GATB NIL=
GQNI NIL=
GQNK NIL=
GQNN 081300Z 21013KT 6000 NSC 32/23 Q1012 NOSIG=
GQNP NIL=
GQPH NIL=
GQPP NIL=
GQPV NIL=
####018000088####
SAAS31 KWBC 081230 RRD
METAR
VOTR 081240Z 00000KT 8000 FEW020 BKN250 32/24 Q1007=
####018000028####
SAAU31 KWBC 081300
NIL=
####018000376####
SAAW31 KWBC 081300
METAR
LLBG NIL=
LLBS NIL=
LLET NIL=
LLJR NIL=
LLOV NIL=
LTAC NIL=
LTAF NIL=
LTAI NIL=
LTBA NIL=
LTBJ NIL=
LTBS NIL=
OEPS NIL=
OJAI 081300Z 28010KT CAVOK 33/03 Q1012 NOSIG=
OJAI 081300Z NIL=
OJAM 081300Z 28009KT 6000 NSC 33/07 Q1011 NOSIG=
OJJR NIL=
OLBA 081300Z 24007KT CAVOK 29/19 Q1011 NOSIG=
UGEE NIL=
UGGG NIL=
####018001599####
SAAW32 KWBC 081300
METAR
OEDF 081300Z 01015KT CAVOK 44/04 Q0998 NOSIG=
OEDR 081300Z 04011KT 8000 SKC 41/13 Q0997 NOSIG=
OEJN 081300Z 30014KT CAVOK 37/25 Q1001 NOSIG=
OEMA 081300Z 08008KT 9999 SCT045 47/M04 Q1004 NOSIG=
OERK 081300Z 01016KT 8000 BLDU SKC 43/M03 Q1006 NOSIG=
OIAA 081300Z 30006KT 8000 SKC 49/02 Q0997=
OIAW 081300Z 24006KT CAVOK 48/07 Q0997 A2944=
OIBB 081300Z 26010KT CAVOK 35/28 Q0999 A2950=
OIBK 081300Z 20008KT 5000 HZ SKC 37/24 Q0999 A2951=
OICC 081300Z 20008KT CAVOK 42/M03 Q1012 A2991 864.4=
OICK 081300Z NIL=
OICS 081300Z 19014KT CAVOK 41/M03 Q1011 A2986=
OIFM 081300Z 18008KT CAVOK 40/06 Q1015 A2997=
OIFP NIL=
OIGG 081300Z 05004KT CAVOK 31/21 Q1010 A2983=
OIHH 081300Z NIL=
OIII 081300Z NIL=
OIIM NIL=
OIIP NIL=
OIIX NIL=
OIKB 081300Z NIL=
OIKK 081300Z 04004KT CAVOK 36/M02 Q1015 A2999=
OIMM 081300Z 05014KT CAVOK 38/M00 Q1013 A2993=
OINN NIL=
OINR NIL=
OINZ 081300Z 28008KT CAVOK 33/23 Q1010 A2983=
OISM NIL=
OISS 081300Z NIL=
OITL 081300Z 07022KT CAVOK 24/12 Q1017 A3004=
OITR 081300Z 10006KT CAVOK 35/10 Q1012 A2989=
OITT 081300Z 03010KT CAVOK 38/05 Q1013 A2993=
OIYY 081300Z 04006KT CAVOK 41/M09 Q1012 A2990=
OIZH 081300Z 36008KT CAVOK 37/M04 Q1011 A2988=
OKBK 081300Z 34020KT 6000 -BLDU SKC 47/M05 Q0999 NOSIG=
ORBI 081300Z 32012KT CAVOK 44/05 Q1003 NOSIG=
ORBS NIL=
ORMM 081300Z 32020KT 8000 SKC 49/M02 Q0997=
OSAP 081300Z 28016KT CAVOK 34/16 Q1006=
OSDI 081300Z 21020KT CAVOK 38/06 Q1008=
OSLK 081300Z 24006KT 9999 SCT030 28/19 Q1009=
OTBD NIL=
OTBH NIL=
OTMA NIL=
OTMS NIL=
####018000087####
SAAW32 KWBC 081230 RRA
METAR
OIKB 081250Z 20010KT 4000 HZ NSC 36/27 Q0999 A2951=
####018001139####
SAAK32 KWBC 081300
METAR
PABA 081301Z AUTO 28014KT 10SM BKN042 OVC055 07/04 A3001=
PABI 081253Z AUTO 00000KT 10SM CLR 10/07 A3008=
PACZ 081255Z AUTO 05008KT 10SM 11/08 A3003=
PACZ SA 1255 AWOS MM 10 51/47/0508/003=
PADK 081256Z 04013KT 8SM SCT006 BKN011 OVC022 07/06 A2949=
PADL 081256Z 29004KT 10SM FEW038 OVC080 09/08 A2996=
PADQ 081253Z 30005KT 10SM FEW017 BKN034 OVC049 11/09 A2986=
PAEH 081255Z AUTO 14004KT 10SM CLR 09/M28 A2997=
PAEH SA 1255 AWOS CLR BLO 120 10 49/-19/1404/997=
PAFB NIL=
PAGA 081258Z AUTO 00000KT 10SM CLR 10/08 A3006=
PAIM 081255Z AUTO 30006KT 10SM CLR 10/07 A3007=
PAIM SA 1255 AWOS CLR BLO 120 10 50/45/3006/007=
PALU 081255Z AUTO 21026G31KT 10SM CLR 12/03 A3005=
PALU SA 1255 AWOS CLR BLO 120 10 53/38/2126G31/ 005=
PASV 081255Z AUTO 00000KT 10SM SCT110 09/07 A2994=
PASV SA 1255 AWOS 110 SCT 10 49/45/0000/994=
PASY 081256Z AUTO 02014KT 7SM OVC002 A2974=
PATC 081255Z AUTO 02009KT 10SM CLR 08/06 A3013=
PATC SA 1255 AWOS CLR BLO 120 10 46/43/0209/013=
PATL 081255Z AUTO 05004KT 10SM CLR 12/06 A2999=
PATL SA 1255 AWOS CLR BLO 120 10 53/43/0504/999=
PBTI NIL=
####018000684####
SAAW33 KWBC 081300
METAR
OBBI NIL=
OMAA 081300Z 34013KT 9000 NSC 41/23 Q0997 A2946 NOSIG=
OMAL 081300Z 22009KT 180V250 9999 FEW045TCU 34/25 Q1001 A2956=
OMDB 081300Z 35011KT 7000 FEW035 40/22 Q0999 NOSIG=
OMFJ 081300Z 11007KT 040V140 6000 FEW025 34/27 Q1000 A2955=
OMRK 081300Z 35009KT CAVOK 41/35 Q0998 A2947=
OMSJ 081300Z 35010KT 320V020 7000 FEW030 40/21 Q0999=
OOMA NIL=
OOMS 081300Z 06006KT 030V090 6000 SCT025 OVC100 33/28 Q1000
     NOSIG=
OOSA NIL=
OOTH NIL=
OPMT NIL=
OYAA 081300Z 22009KT 6000 NSC 36/18 Q1000=
OYAR NIL=
OYHD NIL=
OYJA NIL=
OYMB 081300Z 03027KT 2000 SA FEW030 41/M09 Q1003=
OYSM NIL=
OYSN 081300Z NIL=
OYTZ NIL=
####018000073####
SAAW34 KWBC 081245 RRD
METAR
OAKB 081300Z NIL=
OAKN 081300Z NIL=
####018000307####
SAAW42 KWBC 081300
METAR
OBAH NIL=
OBBI NIL=
OBBQ NIL=
OBSC NIL=
OBZI NIL=
OJAQ 081300Z 36016KT CAVOK 39/30 Q1005=
OKBC NIL=
OKTK NIL=
OKZK NIL=
OMAD 081300Z NIL=
OMAU NIL=
OMDZ NIL=
OMGK NIL=
OMMA NIL=
OMMS NIL=
OMSA NIL=
OMSQ NIL=
OMSR NIL=
OSAS NIL=
OSGN NIL=
####018000118####
SAAW33 KWBC 081230 RRA
METAR
OOSA 081250Z 15007KT 8000 FEW008 SC012 BKN020 28/23 Q1002 NOSIG
     RH76 RMK05=
####018000028####
SABO41 KWBC 081300
NIL=
####018000588####
SABZ41 KWBC 081300
METAR
SBAA NIL=
SBAF NIL=
SBAR 081300Z 18007KT 9999 SCT015 27/24 Q1018=
SBBG NIL=
SBBH NIL=
SBBI NIL=
SBBU NIL=
SBCJ 081300Z 08004KT CAVOK 27/17 Q1019=
SBCO NIL=
SBCR NIL=
SBCT 081300Z 04004KT CAVOK 17/13 Q1022=
SBCV NIL=
SBCY 081300Z 01007KT CAVOK 26/14 Q1015=
SBCZ 081300Z 00000KT 9999 SCT030 BKN100 26/24 Q1013=
SBDN NIL=
SBFL 081300Z 15010KT 9999 FEW023 SCT100 21/16 Q1018=
SBFN 081300Z 10010KT 9999 SCT017 FEW025TCU BKN100 25/23 Q1015=
SBGO 081300Z 05010KT CAVOK 26/12 Q1021=
SBGW NIL=
SBHT NIL=
SBIH NIL=
SBIL NIL=
####018000960####
SABZ31 KWBC 081300
METAR
SBBE 081300Z 10009KT 9999 FEW013 SCT100 31/22 Q1014=
SBBR 081300Z 07013KT CAVOK 21/09 Q1024=
SBBV 081300Z 00000KT 9999 SCT020 SCT070 27/23 Q1013=
SBCF 081300Z 14006KT CAVOK 17/10 Q1024=
SBCG 081300Z 06013KT CAVOK 25/08 Q1017=
SBEG 081300Z 00000KT CAVOK 28/22 Q1013=
SBFI 081300Z 14007KT 9999 FEW020 BKN100 17/15 Q1018=
SBFZ 081300Z 13011KT 9999 FEW018 BKN090 29/20 Q1014=
SBGL 081300Z 10002KT CAVOK 24/14 Q1018=
SBGR 081300Z 01004KT CAVOK 21/08 Q1023=
SBKP 081300Z 01004KT 8000 NSC 21/09 Q1022=
SBNT 081300Z 14009KT 9999 SCT023 BKN100 28/23 Q1015=
SBPA 081300Z 18005KT 5000 BR BKN010 SCT015 OVC030 14/12 Q1021=
SBPS 081300Z 27005KT 9999 SCT010 BKN100 21/19 Q1020=
SBRF 081300Z 18006KT 9999 FEW020 BKN070 27/22 Q1016=
SBSL 081300Z 06010KT 9999 SCT017 30/24 Q1014=
SBSN 081300Z 09010KT 9999 SCT020 30/24 Q1013=
SBSV 081300Z 21010KT 3000 -RA BR BKN007 SCT017 BKN070 24/22
     Q1019=
SBTT NIL=
####018000111####
SAUS41 KBUF 081306
MTRROC
METAR KROC 081254Z COR 22006KT 9SM CLR 26/21 A3005 RMK AO2 SLP173 
T02610206
####018000331####
SACA42 KWBC 081300
METAR
TIST 081253Z 09012KT 10SM CLR 30/24 A3000=
TISX 081253Z 09011KT 10SM SCT022 29/24 A3000=
TJBQ 081250Z 07007KT 10SM SKC 30/26 A3001=
TJMZ 081250Z 05006KT 6SM HZ FEW030 31/25 A3002=
TJNR NIL=
TJPS 081250Z 09008KT 8SM FEW030 31/24 A2998=
TJSJ 081256Z 08006KT 10SM FEW020 SCT036 29/26 A3001=
####018000785####
SABZ42 KWBC 081300
METAR
SBJR NIL=
SBLO 081300Z 22001KT CAVOK 19/13 Q1021=
SBMA 081300Z 12006KT CAVOK 31/21 Q1015=
SBME NIL=
SBMN 081300Z 10003KT 9999 FEW015 29/25 Q1013=
SBMO NIL=
SBMQ 081300Z 08006KT 9999 SCT020 32/26 Q1014=
SBMT NIL=
SBPC NIL=
SBPK 081300Z 27008KT CAVOK 13/06 Q1021=
SBPP 081300Z 01006KT CAVOK 24/11 Q1018=
SBPV 081300Z 06006KT CAVOK 28/23 Q1013=
SBRB 081300Z 04008KT CAVOK 29/24 Q1013=
SBRJ 081300Z 01005KT CAVOK 23/17 Q1018=
SBSC NIL=
SBSJ 081300Z 00000KT CAVOK 17/11 Q1023=
SBSM NIL=
SBSP 081300Z 32005KT CAVOK 20/08 Q1023=
SBST NIL=
SBTE 081300Z 23003KT 9999 BKN020 29/24 Q1015=
SBTU NIL=
SBUG 081300Z 11012KT CAVOK 11/06 Q1021=
SBUR NIL=
SBVH NIL=
SBVT 081300Z 02008KT 9999 FEW026 26/19 Q1021=
SBYS NIL=
####018000696####
SACA31 KWBC 081300
METAR
MBJT NIL=
MBPV NIL=
MBSC NIL=
MKJP 081300Z 11012KT 9999 FEW022 SCT250 29/20 Q1013=
MKJS NIL=
MUCM 081250Z VRB02KT 9000 FEW020 27/23 Q1015=
MUCU 081257Z VRB02KT 9000 FEW020CB 27/23 Q1016=
MUHA 081255Z 07004KT 040V100 8000 FEW040 28/24 Q1014=
MUVR 081250Z /////KT 9000 FEW020 27/23 Q1015=
MWCB NIL=
MWCR NIL=
MYAM NIL=
MYAT NIL=
MYBS NIL=
MYEC NIL=
MYEG 081259Z AUTO 16005KT 10SM CLR 29/24 A2997 RMK AO2=
MYEH NIL=
MYEM NIL=
MYGF 081300Z 08006KT 9999 FEW015CB 29/25 A2998 RMK CB S /=
MYGF 081300Z 08006KT 9999 FEW015CB 29/25 A2998 RMK CB S=
MYGW NIL=
MYNN 081300Z 00000KT 9999 VCSH SCT015CB SCT100 BKN220 30/26
     A2997=
####018000575####
SABZ43 KWBC 081300
METAR
SBAN NIL=
SBAT NIL=
SBBA NIL=
SBBQ NIL=
SBBW NIL=
SBCC NIL=
SBER NIL=
SBES NIL=
SBGA NIL=
SBIZ NIL=
SBJF NIL=
SBJP 081300Z 19008KT 9999 SCT020 BKN070 27/22 Q1016=
SBKG NIL=
SBLB NIL=
SBLP NIL=
SBMK NIL=
SBMS NIL=
SBMZ NIL=
SBPB 081300Z 06010KT 9999 FEW020 SCT100 31/22 Q1013=
SBPJ NIL=
SBPL 081300Z 16011KT 9999 SCT023 26/18 Q1019=
SBPN NIL=
SBQV NIL=
SBRP 081300Z 13004KT 9000 NSC 21/11 Q1021=
SBTF 081300Z 13005KT 9999 FEW020 BKN100 29/26 Q1013=
SBTK NIL=
SBUF NIL=
SBUI NIL=
SBUL NIL=
####018001068####
SACA32 KWBC 081300
METAR
MDLR 081300Z 10008KT 9999 FEW018 SCT280 28/25 Q1016 MDBH 081300Z
     09006KT 9999 FEW017CB FEW018 SCT300 30/27 Q1016 CB/SW=
MDPC 081300Z 09004KT 9999 FEW018 27/24 Q1013=
MDPP 081300Z 00000KT 8000 DU FEW018 29/26 Q1016 DU/ALL QDS=
MDSD 081300Z 06004KT 9999 FEW020 27/23 Q1015=
MDST 081300Z 11004KT 5000 BR SCT018 25/24 Q1016 BR/ALL QDS=
MTCH NIL=
MTPP 081300Z 09010KT 7000 FEW024 SCT200 29/24 Q1015 A2999=
TAPA NIL=
TIST 081253Z 09012KT 10SM CLR 30/24 A3000 RMK AO2 SLP160
     T03000244=
TISX 081253Z 09011KT 10SM SCT022 29/24 A3000 RMK AO2 SLP158
     T02940239=
TJBQ 081250Z 07007KT 10SM SKC 30/26 A3001=
TJMZ 081250Z 05006KT 6SM HZ FEW030 31/25 A3002=
TJNR NIL=
TJPS 081250Z 09008KT 8SM FEW030 31/24 A2998 RMK HZ ALQDS=
TJSJ 081256Z 08006KT 10SM FEW020 SCT036 29/26 A3001 RMK AO2 SLP161
     T02890256=
TKPK 081300Z 08014KT 9999 VCSH SCT016 30/25 Q1016=
TKPN 081300Z 10013KT 9999 VCSH SCT020 30/25 Q1015=
TQPF NIL=
TRPM NIL=
TUPJ 081300Z 11011KT 9999 SCT021 28/24 A3001 RMK=
TUPW NIL=
####018000134####
SPMX31 KWBC 081306
SPECI
MMMX 081300Z 18003KT 2 1/2SM -RA HZ SCT008 BKN010 OVC020 15/14
A3020 NOSIG RMK 60235 8/7// VSBY TWR=
####018000379####
SAHW31 KWBC 081300
METAR
PBKH NIL=
PHJR 081253Z 00000KT 10SM SCT060 22/17 A3001=
PHKO 081253Z AUTO 12006KT 10SM BKN065 23/18 A2996=
PHLI 081253Z 06014KT 10SM FEW027 OVC060 24/18 A3004=
PHNL 081253Z 07005KT 10SM FEW039 SCT055 23/18 A3000=
PHOG 081254Z AUTO 03010KT 10SM CLR 23/17 A3000=
PHTO 081253Z 22006KT 10SM RA FEW020 BKN026 OVC034 21/19 A3002=
PNGF NIL=
####018000609####
SACA33 KWBC 081300
METAR
TBPB 081300Z 08020KT 9999 SCT020 BKN280 31/25 Q1014 NOSIG=
TDPD NIL=
TDPR NIL=
TFFF 081300Z 08015KT 020V100 9999 FEW020 SCT026 31/24 Q1014
     NOSIG=
TFFG NIL=
TFFJ NIL=
TFFR 081300Z 11009KT 070V130 9999 SCT026 30/24 Q1015 NOSIG=
TGPY NIL=
TGPZ NIL=
TLPC 081300Z 11010KT 9999 FEW026 BKN280 30/25 Q1014=
TLPL 081300Z 09020KT 9999 SCT024 BKN280 30/24 Q1014=
TNCA NIL=
TNCB NIL=
TNCC NIL=
TNCE NIL=
TNCM 081300Z 08013KT 9999 SCT021 30/23 Q1016=
TTCP NIL=
TTPP NIL=
TVSM NIL=
TVSU NIL=
TVSV 081300Z 11016KT 9999 BKN022 BKN280 30/25 Q1014=
####018001151####
SACA35 KWBC 081300
METAR
MGGI NIL=
MGPB NIL=
MGSJ NIL=
MHLC 081300Z 19005KT 9999 FEW018 SCT080 BKN200 27/24 Q1010 A2984
     NOSIG=
MHLM 081300Z 36004KT 9999 FEW008 SCT028 OVC080 26/25 Q1012 A2989
     NOSIG=
MHTG 081300Z 25003KT 5000 VCSH FEW006 BKN022 OVC080 20/19 Q1018
     A3006 NOSIG=
MNPC NIL=
MPBO NIL=
MPCH NIL=
MPDA NIL=
MPMG NIL=
MPSA NIL=
MPTO 081300Z 07005KT 9999 SCT018 27/25 Q1011 NOSIG=
MRLB 081300Z 00000KT 9999 FEW005 SCT020 BKN100 23/23 A2988 RMK LOW
     ST ARND=
MRLM 081300Z 21003KT 9999 -DZ BKN010 SCT090 24/22 A2988 RMK RN DST
     N=
MROC 081300Z 01002KT 9999 4000S BR BKN120 21/21 A3004 FOG BANK S
     SSW TEMPO 24006KT=
MRPV 081300Z 00000KT CAVOK 20/19 A3001 RMK BKN120 DUST APCH RNY 09
     WET RNY TEMPO 24004KT=
MSLP 081250Z 00000KT 9999 FEW020 BKN250 24/23 Q1011 A2986 FEW110
     DSTN CB TO SW=
MSSS 081250Z 35002KT 9999 FEW020 SCT120 BKN300 21/20 Q1015
     A2998=
MZBZ 081300Z 14005KT 9999 FEW014 SCT030 BKN220 26/24 A2986 Q1011
     DIS CBTOP-S/SW NOSIG=
MZBZ 081300Z 14005KT 9999 FEW014 SCT030 BKN220 26/24 A2986 Q1011
     DIS CBTOP-S,SW NOSIG=
####018000578####
SACA41 KWBC 081300
METAR
MKBK NIL=
MUBA NIL=
MUBY NIL=
MUCA NIL=
MUCL 081251Z 14006KT 9999 FEW018 28/26 Q1015=
MUCM 081250Z VRB02KT 9000 FEW020 27/23 Q1015=
MUCU 081257Z VRB02KT 9000 FEW020CB 27/23 Q1016=
MUGM 081256Z 01005KT 9999 FEW100 BKN250 28/22 A2997 RMK SLP148
     T02780222=
MUGT NIL=
MUHA 081255Z 07004KT 040V100 8000 FEW040 28/24 Q1014=
MUMO NIL=
MUMZ 081251Z 08004KT 9000 FEW025 XX/XX Q1014=
MUNG NIL=
MUVR 081250Z /////KT 9000 FEW020 27/23 Q1015=
MUVT NIL=
MYEF NIL=
MYSM NIL=
TABS NIL=
TAOA NIL=
TBBI NIL=
TDCF NIL=
####018000326####
SAPA41 KWBC 081300
METAR
PGSN 081254Z 10012KT 10SM FEW019 SCT026 28/24 A2992=
PGUA 081255Z AUTO 11010KT 10SM CLR 26/ A2992=
PGUM 081254Z 11008KT 10SM CLR 27/24 A2992=
PJON NIL=
PKMJ NIL=
PKWA 081300Z AUTO 15008KT 10SM -DZ SCT010 BKN047 OVC065 26/23
     A2983=
PWAK 081255Z 07013KT 6SM BR SKC 27/26 A2998=
####018000818####
SACA45 KWBC 081300
METAR
MGFL NIL=
MGGT 081300Z 00000KT CAVOK 17/14 Q1023 A3021 SCT080 BKN100
     NOSIG=
MGHT NIL=
MHAM 081300Z 00000KT 9999 FEW018 +DZ OVC070 24/24=
MHCA 081300Z 180004KT 9999 SCT028TCU BKN070 22/22 TCU TD=
MHCH 081300Z 00000KT 9999 FEW006 BKN070 24/23 FEW028 REDZ CL TD
     BR=
MHLE 081300Z 00000KT 9999 FEW008 SCT070 BKN200 15/15 Q1022=
MHNJ NIL=
MHNO 081300Z 00000KT 9999 FEW035 BKN090 20/// HZ=
MHPL NIL=
MHRO 081300Z 08009KT 9999 FEW018CB BKN200 29/25 Q1010 A2982
     NOSIG=
MHSR NIL=
MHTE 081300Z 36006KT 9999 BKN024TCU BKN080 23/22 Q1009 TCU TD
     HZ=
MHYR 081300Z 36004KT 9999 SCT020 BKN080 22/22 BR=
MNMG 081300Z 27006KT 9000 FEW015 SCT018 24/23 Q1011 A2988 REDZ
     CBRA/NW/N/NE/SE/CB/SW/W/E=
MNPC NIL=
MPSA NIL=
MRCH NIL=
MSAC NIL=
####018000028####
SACI31 KWBC 081300
NIL=
####018000028####
SACI41 KWBC 081300
NIL=
####018000028####
SACN31 KWBC 081300
NIL=
####018000680####
SACI32 KWBC 081300
METAR
ZBAA NIL=
ZBTJ NIL=
ZBYN NIL=
ZGGG NIL=
ZGNN NIL=
ZGSZ NIL=
ZHHH NIL=
ZKPY NIL=
ZLLL NIL=
ZMUB 081300Z 15011MPS 9999 SCT030CB SCT033 16/11 Q1007 NOSIG RMK
     QFE648.8 74=
ZPPP NIL=
ZSAM NIL=
ZSHC NIL=
ZSNJ NIL=
ZSOF NIL=
ZSPD NIL=
ZSSS NIL=
ZUBD NIL=
ZUCD NIL=
ZUCK NIL=
ZUDF NIL=
ZUDS NIL=
ZUDX NIL=
ZUDZ NIL=
ZUFJ NIL=
ZUFL NIL=
ZUGH NIL=
ZUGY NIL=
ZULP NIL=
ZULS NIL=
ZULZ NIL=
ZUMY NIL=
ZUNC NIL=
ZUSN NIL=
ZUTR NIL=
ZUUU NIL=
ZUWF NIL=
ZUWX NIL=
ZUXC NIL=
ZUXJ NIL=
ZUXY NIL=
ZUYB NIL=
ZUZY NIL=
ZWTN NIL=
ZWWW NIL=
ZYHB NIL=
ZYTL NIL=
ZYYY NIL=
####018000676####
SAPQ31 KWBC 081300
METAR
PGRO NIL=
PGSN 081254Z 10012KT 10SM FEW019 SCT026 28/24 A2992=
PGUM 081254Z 11008KT 10SM CLR 27/24 A2992=
PGWT NIL=
PKMJ NIL=
PKMR 081256Z 06012KT 15SM SCT015 BKN045 BKN120 OVC140 27/24
     A2981=
PKRO NIL=
PKWA 081300Z AUTO 15008KT 10SM -DZ SCT010 BKN047 OVC065 26/23
     A2983=
PTKK 081252Z VRB04KT 15SM FEW014 BKN120 OVC280 26/23 A2985=
PTKR 081254Z 08006KT 14SM SCT017CB SCT120 OVC300 27/25 A2988=
PTPN NIL=
PTRO 081257Z 06007KT 13SM TS BKN016CB BKN120 OVC300 26/24
     A2991=
PTSA NIL=
PTTP NIL=
PTYA 081250Z 10009KT 12SM SCT016 BKN130 OVC300 28/24 A2990=
PWAK 081255Z 07013KT 6SM BR SKC 27/26 A2998=
####018000705####
SAEE31 KWBC 081300
METAR
EPGD 081300Z 08009KT 040V110 9999 FEW036 24/13 Q1021=
EPKK 081300Z VRB03KT CAVOK 24/06 Q1022=
EPKT 081300Z 35004KT CAVOK 23/08 Q1022=
EPPO 081300Z VRB05KT CAVOK 25/07 Q1021=
EPQT NIL=
EPRZ 081300Z 30008KT 260V340 9999 FEW046 23/10 Q1021=
EPSC NIL=
EPWA 081300Z 31010KT 270V340 CAVOK 23/11 Q1020 NOSIG=
EYSA NIL=
UKBB 081300Z 30003MPS 260V330 9999 BKN040 26/17 Q1014 88CLRD95
     NOSIG=
UKKK 081300Z 30003MPS 260V350 9999 BKN035 26/16 Q1015 26CLRD70
     NOSIG=
UKLL 081300Z 32004MPS 260V030 9999 SCT035 BKN100 21/12 Q1021
     31210365 NOSIG=
UKOO 081300Z 33005MPS 300V360 CAVOK 27/14 Q1014 34090070 NOSIG=
UMII NIL=
UMMM NIL=
UMMS NIL=
####018000745####
SAEE32 KWBC 081300
METAR
LBBG 081300Z 30006MPS 260V340 9999 -RA BKN021 BKN033 18/16 Q1014
     NOSIG=
LBPD 081300Z VRB02MPS 9999 -RA SCT035 OVC050 17/15 Q1017 NOSIG=
LBSF 081300Z 29005MPS 260V320 9999 FEW030 BKN045 20/12 Q1018
     NOSIG=
LBWN 081300Z 30006MPS 9999 FEW030 SCT045 22/17 Q1013 NOSIG=
LHBP 081300Z 27006KT 220V020 CAVOK 25/10 Q1021 NOSIG=
LHTA NIL=
LRAR NIL=
LRBS 081300Z 30004KT 270V340 9999 FEW025 22/16 Q1016 NOSIG=
LRCK 081300Z 36009KT 310V050 9999 FEW039 25/17 Q1014 BECMG
     FEW035CB BKN040=
LROP 081300Z 26004KT 210V320 9999 FEW040CB FEW045 22/15 Q1016
     880///95 NOSIG=
LRTC NIL=
LRTM NIL=
LRTR 081300Z 36009KT 320V050 9999 SCT040 25/13 Q1020=
LUCC NIL=
LUKK NIL=
LURN NIL=
####018000071####
SALY31 HLLS 081300
METAR HLLS 081255Z O4O11KT  CAVOK  37/O9 Q1O16=
####018001599####
SAEM31 KWBC 081300
METAR
KQLA NIL=
KQLH NIL=
KQLX NIL=
LATI 081300Z 36018G28KT 340V050 9999 FEW050 27/12 Q1016 NOSIG=
LDDU 081300Z 30010KT 260V340 9999 FEW045 26/10 Q1018 NOSIG=
LDDV NIL=
LDKT NIL=
LDOS 081300Z VRB05KT 9999 FEW033 25/08 Q1021 NOSIG=
LDPL 081300Z 24009KT 190V300 9999 FEW058 26/13 Q1021 NOSIG=
LDRI 081300Z VRB02KT 9999 FEW043 26/10 Q10210 NOSIG=
LDSP 081300Z 23010KT 190V250 CAVOK 28/08 Q1019 NOSIG=
LDZA 081300Z VRB03KT CAVOK 26/09 Q1021 NOSIG=
LDZD 081300Z 30015KT 250V350 CAVOK 28/07 Q1020=
LJLJ NIL=
LJMB NIL=
LJPZ NIL=
LKIB NIL=
LKMT 081300Z 03004KT 320V090 CAVOK 23/11 Q1023 NOSIG=
LKPR 081300Z VRB03KT CAVOK 24/12 Q1023 NOSIG=
LKTB 081300Z VRB01KT CAVOK 25/08 Q1022 NOSIG=
LKTT NIL=
LOAV NIL=
LOIH NIL=
LOIJ NIL=
LOLW NIL=
LOWG NIL=
LOWH NIL=
LOWI NIL=
LOWK NIL=
LOWL NIL=
LOWS NIL=
LOWW NIL=
LOWZ NIL=
LQSA NIL=
LWOH 081300Z 36008KT 9999 FEW040 BKN050 19/10 Q1019=
LWSK 081300Z 35006KT 9999 BKN040 19/11 Q1020 NOSIG=
LYBE 081300Z 33010KT CAVOK 23/12 Q1021 NOSIG=
LYDU NIL=
LYLJ NIL=
LYMB NIL=
LYNI 081300Z 33012KT 9999 FEW020 SCT026 19/13 Q1020 NOSIG=
LYOH NIL=
LYOS NIL=
LYPG 081300Z 01018KT 300V110 9999 SCT040 28/09 Q1017 NOSIG=
LYPL NIL=
LYPR 081300Z NIL=
LYPZ NIL=
LYRI NIL=
LYSA NIL=
LYSK NIL=
LYSP NIL=
LYTI NIL=
LYTV 081300Z 01007KT 9999 FEW053 29/10 Q1017 NOSIG=
LYZA NIL=
LYZD NIL=
LZIB 081300Z 35007KT 270V040 CAVOK 25/07 Q1021=
LZKZ 081300Z 01006KT 330V110 CAVOK 24/06 Q1020 NOSIG=
LZTT 081300Z 08011KT 040V120 9999 FEW053 21/07 Q1022 NOSIG=
####018000028####
SAEW31 KWBC 081300
NIL=
####018000114####
SPXX62 KWBC 081306
SPECI
RKJK 081302Z 06008KT 2800 R36/0900V1000 HZ FEW120 24/20 A2980 RMK
AO2A SLP093 $=
####018001003####
SAFR31 KWBC 081300
METAR
LFAC NIL=
LFAT NIL=
LFBD 081300Z 08009KT 030V130 9999 FEW046 BKN230 35/12 Q1016
     NOSIG=
LFBH 081300Z AUTO 30010KT 9999NDV NSC 32/11 Q1017=
LFBI 081300Z 16004KT 090V230 CAVOK 33/10 Q1017 NOSIG=
LFBO 081300Z 11011KT CAVOK 35/11 Q1017 NOSIG=
LFBP 081300Z NIL=
LFBT 081300Z 05006KT 010V100 CAVOK 35/18 Q1017 NOSIG=
LFBZ 081300Z 29009KT 250V310 CAVOK 26/22 Q1015 NOSIG=
LFGJ 081300Z AUTO 22007KT 170V280 9999NDV NSC 31/10 Q1020=
LFKB 081300Z 10006KT 060V140 9999 FEW026 29/21 Q1019 NOSIG=
LFKC 081300Z 36011KT 9000 FEW010 FEW043TCU 29/22 Q1020 NOSIG=
LFKJ 081300Z 19010KT 9999 FEW030 FEW046TCU 30/23 Q1019 NOSIG=
LFLB 081300Z NIL=
LFLC 081300Z 13005KT 070V170 CAVOK 32/11 Q1019 NOSIG=
LFLL 081300Z NIL=
LFLS 081300Z 22008KT 190V270 9999 FEW050 32/13 Q1021 NOSIG=
LFLY 081300Z 20007KT 150V270 CAVOK 33/12 Q1019 NOSIG=
LFMD 081300Z AUTO 18006KT 140V210 9999NDV FEW056 29/22 Q1020=
LFMH 081300Z 11006KT 040V150 CAVOK 32/13 Q1020 NOSIG=
####018001375####
SAFR32 KWBC 081300
METAR
LFML 081300Z 27006KT CAVOK 33/19 Q1019 NOSIG=
LFMN 081300Z 12005KT 9999 FEW016 29/23 Q1020 NOSIG=
LFMP 081300Z 08008KT 050V120 9999 FEW057 SCT260 30/16 Q1019
     NOSIG=
LFMT 081300Z 18008KT CAVOK 30/15 Q1020 NOSIG=
LFOB 081300Z 20005KT 140V310 CAVOK 31/10 Q1018 NOSIG=
LFOH 081300Z AUTO 34012KT 9999NDV NSC 22/15 Q1019=
LFOT 081300Z AUTO VRB03KT 9999NDV NSC 33/11 Q1018=
LFPB 081300Z VRB04KT CAVOK 32/09 Q1018 NOSIG=
LFPG 081300Z VRB03KT CAVOK 31/10 Q1018 NOSIG=
LFPN 081300Z VRB04KT CAVOK 31/09 Q1019 NOSIG=
LFPO 081300Z 27007KT 240V310 CAVOK 32/09 Q1018 NOSIG=
LFQQ 081300Z 20009KT 150V260 CAVOK 31/12 Q1018 NOSIG=
LFRB 081300Z VRB03KT 9999 FEW030 24/16 Q1019 NOSIG=
LFRC 081300Z AUTO 02007KT 340V050 9999NDV NSC 21/16 Q1019=
LFRD 081300Z AUTO 36008KT 320V030 9999NDV NSC 22/15 Q1019=
LFRG NIL=
LFRK 081300Z 36006KT 310V060 CAVOK 25/15 Q1019 NOSIG=
LFRN 081300Z AUTO 20005G16KT 140V280 9999NDV NSC 31/11 Q1018=
LFRO 081300Z AUTO 02008KT 340V050 9999NDV NSC 21/16 Q1019=
LFRQ NIL=
LFRS 081300Z 26008KT 230V290 CAVOK 33/11 Q1017 NOSIG=
LFRT NIL=
LFRZ 081300Z AUTO 21010KT 9999NDV NSC 31/09 Q1018=
LFSB 081300Z 35004KT 290V080 CAVOK 31/11 Q1020 NOSIG=
LFSF NIL=
LFSN 081300Z VRB04KT CAVOK 31/13 Q1019 NOSIG=
LFSR NIL=
LFST 081300Z VRB03KT CAVOK 31/11 Q1020 NOSIG=
LFTW NIL=
LFVP NIL=
####018000856####
SAFR41 KWBC 081300
METAR
LFAF NIL=
LFBA 081300Z 11011KT 080V140 CAVOK 34/14 Q1016 NOSIG=
LFBC 081300Z AUTO 10009KT 050V150 9999NDV NSC 38/11 Q1015=
LFBL 081300Z 15005KT 090V220 CAVOK 31/12 Q1019 NOSIG=
LFBM 081300Z AUTO 11010KT 080V150 9999NDV NSC 36/17 Q1015=
LFKF 081300Z 22007KT 170V260 9999 FEW036TCU 32/23 Q1019 NOSIG=
LFLD NIL=
LFLV NIL=
LFOE NIL=
LFOP 081300Z VRB03KT CAVOK 31/13 Q1018 NOSIG=
LFPB 081300Z VRB04KT CAVOK 32/09 Q1018 NOSIG=
LFPG 081300Z VRB03KT CAVOK 31/10 Q1018 NOSIG=
LFPV NIL=
LFQB NIL=
LFQQ 081300Z 20009KT 150V260 CAVOK 31/12 Q1018 NOSIG=
LFRH NIL=
LFRM NIL=
LFSC NIL=
LFSD 081300Z AUTO 18006KT 120V230 9999NDV NSC 32/10 Q1020=
LFSI NIL=
LFSL 081300Z AUTO 10008KT 060V130 9999NDV NSC 32/13 Q1019=
LFSO NIL=
LFSX NIL=
LFTH 081300Z 22007KT 160V250 9999 FEW026 28/22 Q1020 NOSIG=
####018000186####
SAHA31 KWBC 081300
METAR
KQHA NIL=
MTCA NIL=
MTCH NIL=
MTEG NIL=
MTJA NIL=
MTJE NIL=
MTPP 081300Z 09010KT 7000 FEW024 SCT200 29/24 Q1015 A2999=
MTPX NIL=
MTTP NIL=
####018000075####
SAGR41 KWBC 081250 RRC
METAR
LGZA 081250Z 32016KT CAVOK 29/09 Q1013=
####018000028####
SAID31 KWBC 081300
NIL=
####018000376####
SAIE31 KWBC 081300
METAR
EICK 081300Z 20010KT 9999 -RA SCT008 BKN025 BKN038 14/13 Q1016
     NOSIG=
EIDB NIL=
EIDW 081300Z 23012KT 200V260 9999 FEW022 BKN050 BKN100 17/09 Q1015
     NOSIG=
EIKN 081300Z 19009KT 140V230 9999 FEW015 FEW018CB BKN040 BKN100
     13/12 Q1014 NOSIG=
EINN 081300Z 22010KT 9999 -RADZ FEW016 SCT028 BKN050 15/12 Q1015
     NOSIG=
####018000507####
SAIO31 KWBC 081300
METAR
FIMP NIL=
FIMR NIL=
FJDG NIL=
FMCH NIL=
FMCV NIL=
FMCZ NIL=
FMEE NIL=
FMMI 081300Z 10008KT 080V150 9999 BKN020 SCT023 17/13 Q1025
     NOSIG=
FMMT NIL=
FMNN NIL=
FSIA NIL=
FSSS NIL=
VRMM NIL=
VYMD NIL=
VYYY NIL=
WBGG 081300Z 25006KT 9999 FEW015CB SCT020 BKN150 24/22 Q1012 RETS
     NOSIG=
WBKK 081300Z 11006KT 9999 FEW014 SCT140 BKN270 25/23 Q1010
     NOSIG=
WBSB 081300Z 18008KT 9999 FEW005 FEW016CB BKN140 25/24 Q1010
     NOSIG=
####018000820####
SAIQ31 KWBC 081300
METAR
KQAD 081255Z AUTO 29007G13KT 230V030 5000 CLR 46/06 A2955 RMK AO2
     SLP003 T04600056=
KQAE 081255Z 35008G16KT 9000 DU HZ CLR 45/07 A2962 RMK SLP026=
KQEZ NIL=
KQMG 081255Z AUTO 03012KT 12SM FEW150 20/15 A3018 RMK AO2 SLP153
     T02020146 $=
KQMH NIL=
KQTO 081255Z 29015KT 9999 CLR 45/04 A2959 RMK SLP018=
KQTU 081255Z VRB02KT 9999 CLR 45/M03 A2961 RMK SLP006=
KQTW NIL=
KQTX 081255Z 26010G15KT 9999 CLR 44/M02 A2965 RMK SLP012=
KQTZ 081255Z 31011G17KT 9999 CLR 44/05 A2961 RMK SLP021 QNH1002MB
     ALSTG/SLP ESTMD WND DATA ESTMD=
KQVO NIL=
KQXJ 081255Z 31018G31KT 2000 BLDU BKN000 47/02 A2953 RMK PK WND
     31035/27 DU BKN000 SLP001 PA+384 DA+4102=
KQXN NIL=
ORBI 081300Z 32012KT CAVOK 44/05 Q1003 NOSIG=
ORER 081300Z 23007KT CAVOK 43/M04 Q1004=
####018000503####
SAIQ32 KWBC 081300
METAR
KQAJ 081255Z 31006G13KT 9999 CLR 44/04 A2967 RMK SLP034 WND DATA
     ESTMD ALSTG/SLP ESTMD=
KQAQ 081255Z 31009G18KT 8000 HZ FU CLR 45/08 A2962 RMK SLP026 PA
     +400 DA +3834=
KQAV NIL=
KQAX NIL=
KQAZ NIL=
KQCO NIL=
KQCT NIL=
KQMA NIL=
KQPA NIL=
KQPB NIL=
KQPC NIL=
KQPD NIL=
KQSE NIL=
KQSL 081255Z 31014G19KT 9999 CLR 45/02 A2964 RMK SLP025
     Q1003MB=
KQTI 081255Z AUTO 23011KT 9999 CLR 43/00 A2965 RMK AO2 SLP015
     T04311001=
####018001674####
SAUS31 KWBC 081300
METAR
KABQ 081256Z 10014KT 10SM SCT100 OVC200 19/09 A3028=
KATL 081252Z 33006KT 10SM CLR 27/19 A3006=
KBGR 081253Z 19008KT 160V240 10SM BKN009 23/20 A3010=
KBHM 081253Z 00000KT 10SM CLR 28/22 A3008=
KBNA 081253Z 00000KT 10SM FEW038 SCT180 SCT250 28/22 A3009=
KBOS 081254Z 14006KT 10SM SCT230 24/20 A3010=
KBWI 081254Z 13005KT 5SM HZ FEW110 29/22 A3001=
KCHS 081256Z 31006KT 8SM CLR 27/21 A2997=
KCLE 081251Z 20005KT 10SM FEW060 SCT100 27/19 A3008=
KCLT 081252Z 33006KT 8SM CLR 28/18 A3003=
KCVG 081252Z 17004KT 6SM HZ CLR 27/21 A3009=
KDEN 081253Z 05003KT 1/4SM R35L/2400V6000FT BR OVC003 14/14
     A3033=
KDFW 081253Z 15004KT 4SM -RA BR BKN010 BKN026 OVC070 25/24
     A3003=
KDTW 081253Z 21003KT 6SM HZ FEW150 28/21 A3003=
KEWR 081251Z VRB03KT 2SM BR BKN004 OVC007 26/25 A3005=
KFLL 081253Z 08008KT 10SM SCT021 29/24 A2995=
KIAD 081252Z 00000KT 5SM HZ FEW060 29/23 A3002=
KIAH NIL=
KIND 081254Z 22006KT 8SM FEW060 BKN210 27/21 A3004=
KJAX 081256Z 28005KT 10SM CLR 24/21 A3002=
KJFK 081251Z 15007KT 10SM FEW009 BKN014 BKN030 OVC130 26/21
     A3006=
KLAS 081256Z 21007KT 10SM FEW150 26/M03 A2984=
KLAX 081253Z 00000KT 7SM BCFG OVC012 16/13 A2991=
KLGA 081251Z 12008KT 5SM HZ BKN010 BKN036 OVC130 28/23 A3005=
KLGC 081255Z AUTO 00000KT 10SM CLR 27/27 A3006=
KLIT 081253Z 25003KT 10SM FEW008 BKN150 BKN250 25/23 A3009=
KLOU 081253Z 18003KT 5SM HZ CLR 27/22 A3007=
KMCI 081253Z 02005KT 3/4SM BR OVC002 23/22 A3009=
KMCO 081253Z VRB05KT 10SM FEW018 FEW250 27/21 A3001=
KMEM 081253Z 00000KT 10SM FEW150 SCT250 28/22 A3008=
KMIA 081253Z 05007KT 10SM SCT018TCU SCT130 SCT300 30/24 A2996=
####018000500####
SAJP31 KWBC 081300
METAR
RJAA 081300Z 15004KT 9999 FEW020 SCT150 BKN/// 22/21 Q1011
     NOSIG=
RJAH 081300Z 00000KT 9999 FEW030 SCT/// 23/22 Q1010=
RJCC 081300Z 19004KT 160V240 1100 R19R/1600VP1800N R01R/0900V1400D
     -DZ BR BKN002 17/17 Q1010=
RJCH NIL=
RJFK NIL=
RJFT NIL=
RJFU NIL=
RJNN NIL=
RJOO NIL=
RJSS NIL=
RJTT 081300Z 18014KT 9999 FEW007 SCT010 BKN150 25/23 Q1011=
RODN 081255Z AUTO 16010KT 9999 FEW018 OVC200 29/26 A2985 RMK AO2
     SLP107 T02870264=
####018000028####
SAJP41 KWBC 081300
NIL=
####018000312####
SAJP42 KWBC 081300
METAR
RJDK NIL=
RJDM NIL=
RJDO NIL=
RJDT NIL=
RJEB NIL=
RJEC NIL=
RJEO NIL=
RJER NIL=
RJFA NIL=
RJFC NIL=
RJFE NIL=
RJFG NIL=
RJFM NIL=
RJFN NIL=
RJFO NIL=
RJFR 081300Z 08005KT 9000 SCT025 BKN/// 26/22 Q1009=
RJFY NIL=
RJFZ NIL=
RJKA NIL=
RJKB NIL=
####018000326####
SAJP43 KWBC 081300
METAR
RJKI NIL=
RJKN NIL=
RJNF NIL=
RJNG NIL=
RJNH NIL=
RJNO NIL=
RJNT NIL=
RJNY NIL=
RJOA NIL=
RJOB NIL=
RJOC NIL=
RJOE NIL=
RJOF NIL=
RJOI 081300Z 00000KT 9000 HZ SCT045 BKN120 OVC230 27/23 A2983 RMK
     SLP100 T02670228=
RJOK NIL=
RJOM NIL=
RJOP NIL=
RJOR NIL=
####018000028####
SAJP44 KWBC 081300
NIL=
####018000028####
SAKN41 KWBC 081300
NIL=
####018000209####
SAJP45 KWBC 081300
METAR
RJTJ NIL=
RJTK NIL=
RJTL NIL=
RJTO NIL=
RJTQ NIL=
RJTR NIL=
RJTU NIL=
RJTX NIL=
RJTY 081255Z AUTO 11003KT 9999 CLR 24/22 A2990 RMK AO2 SLP118
     T02390219 $=
####018001271####
SAUS31 KWBC 081300 RRA
METAR
KMSP 081253Z 00000KT 10SM CLR 21/17 A3011=
KMSY 081253Z 11004KT 10SM FEW016 SCT250 28/24 A3003=
KOAK 081253Z 31007KT 8SM OVC007 14/11 A2994=
KOKC 081252Z 33004KT 10SM FEW028 SCT080 BKN200 23/22 A3006=
KONT 081253Z 22004KT 3SM BR OVC010 15/13 A2991=
KORD 081251Z 26004KT 5SM BR FEW006 BKN022 OVC055 23/22 A3003=
KORF 081251Z 07006KT 10SM -RA FEW016 BKN080 BKN100 27/21 A2999=
KPBI 081253Z 00000KT 7SM -RA FEW012 BKN022CB BKN055 27/26
     A2996=
KPHF 081254Z 11005KT 10SM CLR 27/23 A3001=
KPHL 081254Z 13004KT 4SM HZ SCT008 BKN110 BKN250 27/23 A3004=
KPHX 081251Z 00000KT 10SM SCT170 31/03 A2979=
KPIT 081251Z 00000KT 6SM HZ FEW055 26/19 A3010=
KRDU 081251Z 36004KT 5SM HZ BKN080 BKN250 29/19 A3000=
KSAN 081251Z 32004KT 8SM OVC015 16/14 A2993=
KSEA 081253Z 35005KT 10SM CLR 18/12 A2997=
KSFO 081256Z COR 27012KT 10SM OVC008 13/11 A2993=
KSFO 081256Z 27012KT 10SM BKN008 13/11 A2993=
KSTL 081251Z COR 24004KT 10SM FEW009 BKN025TCU BKN080 BKN150
     BKN250 26/23 A3007=
KSTL 081251Z 24004KT 10SM BKN025TCU BKN080 BKN150 BKN250 26/23
     A3007=
KSWF 081254Z VRB04KT 4SM HZFT BKN100 27/22 A3008=
KTEB 081251Z 18007KT 4SM HZ OVC017 27/23 A3004=
KTPA 081253Z 00000KT 10SM FEW200 27/21 A3002=
####018000494####
SAKO31 KWBC 081300
METAR
RKNY 081300Z AUTO 23004KT3000NDV NCD 20/18 Q1009=
RKPC 081300Z 00000KT 4000 BR SCT030 OVC120 24/20 Q1009 NOSIG=
RKPK 081300Z 23004KT 9999 SCT050 BKN200 23/19 Q1010 NOSIG=
RKSI 081300Z 25005KT 8000 -DZ FEW030 OVC110 22/19 Q1009 NOSIG=
RKSS 081300Z 35001KT 8000 SCT030 OVC100 23/18 Q1009 NOSIG=
RKTN 081300Z 15005KT 6000 SCT020 BKN040 OVC200 24/21 Q1009
     NOSIG=
RKTU 081300Z 12003KT 9000 -RA SCT030 BKN080 OVC200 24/20 Q1010
     TEMPO 4500 BR=
####018000028####
SAKO41 KWBC 081300
NIL=
####018001769####
SAXN17 KAWN 081300 RRD
METAR MKJP 081300Z 11012KT 9999 FEW022 SCT250 29/20 Q1013=
METAR MRLB 081300Z 00000KT 9999 FEW005 SCT020 BKN100 23/23 A2988 RMK
      LOW ST ARND=
METAR MRLM 081300Z 21003KT 9999 -DZ BKN010 SCT090 24/22 A2988 RMK RN
      DST N=
METAR MUHA 081255Z 07004KT 040V100 8000 FEW040 28/24 Q1014=
METAR NTAA 081300Z 09003KT 9999 FEW023 25/22 Q1015 WS ALL RWY NOSIG=
METAR NWWW 081300Z AUTO VRB02KT 9999NDV NCD 16/15 Q1016=
METAR RJAA 081300Z 15004KT 9999 FEW020 SCT150 BKN/// 22/21 Q1011 NOSIG
      RMK 1CU020 3AC150 A2986=
METAR RJCC 081300Z 19004KT 160V240 1100 R19R/1600VP1800N R01R/0900V1400D
      -DZ BR BKN002 17/17 Q1010 RMK 7ST002 A2985=
METAR RJFF 081300Z 25002KT 8000 FEW020 BKN/// 25/21 Q1009 RMK 1CU020
      A2980=
METAR RJTT 081300Z 18014KT 9999 FEW007 SCT010 BKN150 25/23 Q1011 RMK
      1ST007 3CU010 6AC150 A2985=
METAR RKSS 081300Z 35001KT 8000 SCT030 OVC100 23/18 Q1009 NOSIG=
METAR ROAH 081300Z 18016KT 9999 FEW010 SCT100 BKN150 29/27 Q1010 RMK
      2CU010 3AC100 6AC150 A2984=
METAR SKBQ 081300Z 00000KT 5000 BR SCT005 BKN070 26/26 A2991=
METAR SKCG 081300Z 09004KT 9999 FEW015CB SCT200 28/25 A2988 RMK CB/N/S=
METAR SKCL 081300Z VRB02KT 9999 FEW017 BKN090 22/20 A3003=
METAR SOCA 081300Z 11006KT 070V160 9999 FEW013 SCT020 30/25 Q1013 NOSIG=
METAR SVBM 081300Z 07004KT 9999 OVC010 24/22 Q////=
METAR TAPA 081300Z 07012KT 9999 FEW022 30/24 Q1015=
METAR TFFF 081300Z 08015KT 020V100 9999 FEW020 SCT026 31/24 Q1014 NOSIG=
METAR TFFR 081300Z 11009KT 070V130 9999 SCT026 30/24 Q1015 NOSIG=
METAR TKPK 081300Z 08014KT 9999 VCSH SCT016 30/25 Q1016=
METAR TLPL 081300Z 09020KT 9999 SCT024 BKN280 30/24 Q1014=
METAR VHHH 081300Z 19007KT 140V240 9999 FEW020 31/25 Q1007 NOSIG=
####018000780####
SAEW32 LEMM 081300
METAR LEAS 081300Z NIL=
METAR LEBB 081300Z 31011KT 280V340 8000 FEW025 26/20 Q1017 TEMPO
SCT030CB=
METAR LECO 081300Z 01007KT CAVOK 22/19 Q1015=
METAR LEGE 081300Z 19007KT 150V240 CAVOK 33/18 Q1019=
METAR LEST 081300Z 08006KT 050V120 9999 FEW025 29/18 Q1015 NOSIG=
METAR LEZG 081300Z 10009KT 060V150 9999 FEW035 FEW040TCU 37/13
Q1017=
METAR LESO 081300Z 35003KT 310V070 CAVOK 28/21 Q1015=
METAR LEVT 081300Z 11005KT 070V160 9999 SCT050 33/17 Q1017=
METAR LERS 081300Z 20008KT 150V240 CAVOK 29/14 Q1020=
METAR LEMH 081300Z 08006KT 020V170 CAVOK 30/18 Q1020=
METAR LEAM 081300Z 08016KT 9999 FEW050 39/04 Q1015=
METAR LEGR 081300Z 17015KT 140V200 9999 FEW060 39/06 Q1017=
METAR LERL 081300Z 12009KT 080V150 9999 FEW050 37/05 Q1018=
####018000759####
SAMS33 WMKK 081300
METAR 081300Z
METAR WMAU 081300Z 15003KT 9999 FEW025 SCT140 BKN270 28/25 Q////
QFF1009=
METAR WMBA 081300Z 00000KT 9999 FEW032 BKN280 28/25 Q1010=
METAR WMKA 081300Z 26002KT 9999 FEW030 BKN280 28/26 Q1010=
METAR WMKB 081300Z 29004KT 9000 SCT025 SCT140 BKN280 30/25 Q1010
     TEMPO 7000 SHRA=
METAR WMKC 081300Z 00000KT 9999 FEW017CB SCT140 BKN240 29/23 Q1010=
METAR WMKD 081300Z 35013G34KT 9999 -TSRA FEW008 FEW017CB SCT025
BKN280
     25/23 Q1011 NOSIG=
METAR WMKI 081300Z 20002KT 9999 FEW032 BKN150 BKN280 28/25 Q1010=
METAR WMKL 081300Z 30002KT 9999 FEW017CB BKN280 29/25 Q1010=
METAR WMKM 081300Z 00000KT 9999 FEW030 SCT140 BKN280 28/24 Q1010=
METAR WMKN 081300Z 21003KT 9999 FEW024 BKN250 26/22 Q1010=
####018000656####
SAEW31 LEMM 081300
METAR LEMD 081300Z 15010KT 110V170 9999 FEW060TCU 32/12 Q1018
WS R18L WS R18R NOSIG=
METAR LEBL 081300Z 20014KT CAVOK 28/21 Q1019 NOSIG=
METAR LEPA 081300Z 23014KT CAVOK 31/14 Q1020 NOSIG=
METAR LEZL 081300Z 23007KT 180V280 9999 FEW025 33/14 Q1015 NOSIG=
METAR LEMG 081300Z 11006KT 070V150 9999 FEW040 30/14 Q1017 NOSIG=
METAR LEVC 081300Z 10010KT 050V140 CAVOK 32/17 Q1018 NOSIG=
METAR LEAL 081300Z 08011KT 050V110 CAVOK 31/17 Q1019 NOSIG=
METAR LEIB 081300Z 08007KT 030V120 CAVOK 29/20 Q1020 NOSIG=
METAR LELC 081300Z 06011KT 030V100 CAVOK 28/20 Q1018 NOSIG=
METAR LEVX 081300Z VRB03KT 8000 FEW030 24/19 Q1015=
####018000195####
SAMM31 KWBC 081300
METAR
LCEN NIL=
LCLK 081300Z 19016KT 9999 FEW030 30/22 Q1007 NOSIG=
LCNC 081300Z NIL=
LCPH 081300Z 25007KT 210V280 9999 FEW030 29/23 Q1008=
LCRA NIL=
LMML NIL=
####018000143####
SAMX31 KWBC 081345 RRA
METAR
MMMX 081300Z 18003KT 2 1/2SM -RA HZ SCT008 BKN010 OVC020 15/14
     A3020 NOSIG RMK 60235 8/7// VSBY TWR=
####018000930####
SANT31 KWBC 081300
METAR
BGBW 081250Z 26006KT 230V290 9999 FEW040 14/05 Q1008 RMK 1SC=
BGCO 081250Z 01017KT 9999 SCT064 BKN120 09/02 Q1008 RMK LAST=
BGGH 081255Z NIL=
BGGH 081250Z VRB03KT 9999 SCT004 OVC008 06/03 Q1009=
BGJN 081255Z NIL=
BGJN 081250Z VRB03KT 9999 0500N VCFG FEW001 07/04 Q1009 RMK
     1ST=
BGKK 081250Z 26004KT 9999 FEW080 SCT120 08/04 Q1009=
BGSF 081250Z 08005KT 040V120 9999 FEW070 15/01 Q1007=
BGTL 081255Z AUTO 26005KT 8000 BR FEW001 05/05 A2982 RMK AO2
     SLP103 T00520051=
BIAR 081300Z 35015KT 9999 -RA BKN020 08/06 Q0996=
BIEG 081300Z 36012KT 9999 VV004 09/08 Q0991 RESHRA=
BIKF 081300Z 03019KT 9999 FEW018 SCT035 BKN110 12/06 Q0995=
BIRK 081300Z 36020G30KT 260V170 9999 -SHRA FEW030 SCT050 11/07
     Q0993=
GVAC 081300Z 08010KT 9999 BKN014 BKN018 25/20 Q1014 NOSIG=
GVPR NIL=
LPBJ NIL=
LPLA 081300Z 17007KT 9999 -SHRA SCT013 BKN028 21/19 Q1024=
TXKF NIL=
####018001384####
SAPA31 KWBC 081300
METAR
AGGG NIL=
AGGH NIL=
ANAU NIL=
AYPY NIL=
PGNT NIL=
PGRO NIL=
PGSN 081254Z 10012KT 10SM FEW019 SCT026 28/24 A2992 RMK AO2
     RAB09E21 SLP129 P0000 T02780244=
PGUA 081255Z AUTO 11010KT 10SM CLR 26/ A2992 RMK AO2 SLP113 T0260
     VISNO RWY24L $=
PGUM 081254Z 11008KT 10SM CLR 27/24 A2992 RMK AO2 SLP123
     T02720244=
PGWT NIL=
PHJH NIL=
PHJR 081253Z 00000KT 10SM SCT060 22/17 A3001 RMK AO2 SLP170
     T02220172=
PHMK 081254Z AUTO 05006KT 10SM BKN050 22/18 A3002 RMK AO2 SLP167
     T02170178 TSNO=
PJON NIL=
PKMJ NIL=
PKMR 081256Z 06012KT 15SM SCT015 BKN045 BKN120 OVC140 27/24 A2981
     RMK SLP095 T02720238=
PKWA 081300Z AUTO 15008KT 10SM -DZ SCT010 BKN047 OVC065 26/23
     A2983 RMK AO2 P0003 T02600232=
PLCH NIL=
PMDY 081256Z AUTO 00000KT 10SM CLR 24/19 A3008 RMK AO2 TSNO
     T02380194 SLP491=
PTKK 081252Z VRB04KT 15SM FEW014 BKN120 OVC280 26/23 A2985 RMK
     SLP111 T02620229=
PTKR 081254Z 08006KT 14SM SCT017CB SCT120 OVC300 27/25 A2988 RMK
     CB ALQDS MOV W SLP118 T02710246=
PTPN NIL=
PTRO 081257Z 06007KT 13SM TS BKN016CB BKN120 OVC300 26/24 A2991
     RMK OCNL LTGCA SE-S TS SE MOV W CB VC ALQDS=
PTSA NIL=
PTTP NIL=
PTYA 081250Z 10009KT 12SM SCT016 BKN130 OVC300 28/24 A2990 RMK
     SLP125 T02780238=
PWAK 081255Z 07013KT 6SM BR SKC 27/26 A2998 RMK AO2A=
####018000028####
SAPH31 KWBC 081300
NIL=
####018000118####
SAPH31 KWBC 081200 RRB
METAR
RPLC 081200Z 31004KT 9000 FEW036 SCT100 BKN270 26/23 Q1011 A2986
     RMK/NOSIG=
####018000186####
SAUS20 KNKA 081306
METAR KNSE 081256Z 00000KT 9SM FEW250 28/24 A3004 RMK AO2 SLP156 T02780239
      $=
METAR KPAM 081255Z 36006KT 10SM CLR 27/25 A3003 RMK AO2A SLP169 T02730248=
####018001045####
SARA31 KWBC 081300
METAR
UAAA NIL=
UACC NIL=
UAFM NIL=
UAFO NIL=
UAFP NIL=
UAOO NIL=
UARR NIL=
UATE NIL=
UATG NIL=
UATT NIL=
UBBB 081300Z 35018KT CAVOK 32/26 Q1010 NOSIG RMK R88CLRD70=
UBBG 081300Z 08014KT 9999 SCT083 36/16 Q1009 NOSIG RMK
     R12L/CLRD70=
UBEE NIL=
UEEE NIL=
UGEE NIL=
UGEL NIL=
UGGG NIL=
UGGN NIL=
UGMM NIL=
UGSS NIL=
UHHH NIL=
UHMA NIL=
UHMD NIL=
UHME NIL=
UHML NIL=
UHMM NIL=
UHMO NIL=
UHMP NIL=
UHPP NIL=
UHSS NIL=
UHWW NIL=
UIAA NIL=
UIBB NIL=
UIII NIL=
UIUU NIL=
ULAA NIL=
UMBB NIL=
UMGG NIL=
UMII NIL=
UMMG NIL=
UMMM NIL=
UMMS NIL=
UNAA NIL=
UNNN NIL=
UNNT NIL=
USNN NIL=
UTAA NIL=
UTAK NIL=
UTAT NIL=
UTAV NIL=
UTDD NIL=
UTDL NIL=
UTEE NIL=
UTKA NIL=
UTKF NIL=
UTKK NIL=
UTNK NIL=
UTNN NIL=
UTNR NIL=
UTNU NIL=
UTSA NIL=
UTSB NIL=
UTSD NIL=
UTSK NIL=
UTSS NIL=
UTST NIL=
UTTA NIL=
UTTR NIL=
UTTT 081300Z 00000MPS CAVOK 38/06 Q1009 R08R/CLRD70 NOSIG=
UTTW NIL=
UUEE NIL=
####018000270####
SAPO31 KWBC 081300
METAR
LPAZ NIL=
LPBJ NIL=
LPFL NIL=
LPFR NIL=
LPHR NIL=
LPLA 081300Z 17007KT 9999 -SHRA SCT013 BKN028 21/19 Q1024=
LPMA NIL=
LPMR NIL=
LPMT NIL=
LPOV NIL=
LPPD NIL=
LPPR NIL=
LPPS NIL=
LPPT NIL=
LPST NIL=
LPTN NIL=
####018000028####
SARS31 KWBC 081300
NIL=
####018000028####
SARS33 KWBC 081300
NIL=
####018000028####
SARS32 KWBC 081300
NIL=
####018000028####
SARS41 KWBC 081300
NIL=
####018001209####
SASA32 KWBC 081300
METAR
SCAR 081300Z VRB01KT 9999 OVC021 15/09 Q1016=
SCBA 081300Z AUTO 26006KT CAVOK M04/M07 Q1003=
SCCF 081300Z 10025KT CAVOK 06/M12 Q1025=
SCCH 081300Z 36008KT 3000 RA BKN020 OVC030 08/08 Q1020=
SCCI 081300Z 34016KT 9999 FEW025 SCT070 M03/M05 Q0985 NOSIG=
SCDA 081300Z 03008KT 9999 OVC026 15/09 Q1017=
SCEL 081300Z 25004KT 230V310 4000 BR SCT130 02/01 Q1023 NOSIG=
SCFA 081300Z 06005KT 9999 BKN022 13/07 Q1017 NOSIG=
SCGE 081300Z 36005KT 2000 -RA OVC006 08/08 Q1018=
SCIE 081300Z 28010KT 9999 BKN012 13/11 Q1020=
SCIP 081300Z 11002KT 9999 SCT020 18/17 Q1022 TEMPO 5000 -SHRA=
SCTE 081300Z 22008KT 9999 BKN027 BKN050 07/06 Q1013 NOSIG=
SGAS 081300Z 14007KT 9000 BKN010 OVC015 17/15 Q1016=
SGES 081300Z 15007KT 9999 FEW030 BKN080 18/16 Q1016=
SLCB 081300Z 15003KT 4000E FU FEW027 SCT200 14/08 Q1027=
SLCZ NIL=
SLLP 081300Z VRB02KT 9999 FEW015 04/M04 Q1038=
SLTJ NIL=
SLTR NIL=
SLVR 081300Z 17012KT 9999 FEW025 BKN070 BKN200 20/16 Q1017=
SUAA 081300Z 29006KT CAVOK 06/04 Q1019=
SUCA 081300Z 32004KT CAVOK 08/03 Q1018=
SULS 081300Z 28010KT CAVOK 10/04 Q1019=
SUMU 081300Z 29005KT CAVOK 10/07 Q1019 NOSIG=
SUPE NIL=
SURV NIL=
SUSO NIL=
####018001380####
SASA31 KWBC 081300
METAR
SEGU NIL=
SEQU NIL=
SKBO 081300Z 04004KT 9000 FEW015 BKN070 13/11 A3034 RMK HZ
     NOSIG=
SKBQ 081300Z 00000KT 5000 BR SCT005 BKN070 26/26 A2991=
SKCG 081300Z 09004KT 9999 FEW015CB SCT200 28/25 A2988 RMK
     CB/N/S=
SKCL 081300Z VRB02KT 9999 FEW017 BKN090 22/20 A3003=
SKLT 081300Z 00000KT 9999 FEW015 BKN070 27/25 A2991 RMK APCLO=
SKRG 081300Z VRB02KT 4000 BR BKN004 SCT080 15/14 A3032=
SKSP 081300Z 10007KT 9999 SCT015TCU 29/26 A2987 REDZ=
SMNI NIL=
SMZO NIL=
SMZY NIL=
SOCA 081300Z 11006KT 070V160 9999 FEW013 SCT020 30/25 Q1013
     NOSIG=
SPIM 081300Z 18004KT 6000 SCT015 OVC023 16/14 Q1014 NOSIG RMK BIRD
     HAZARD RWY 15 PP000=
SPQT 081300Z /////KT 9999 BKN010 26/24 Q1012 NOSIG RMK BIRD HAZARD
     RWY 06/24 PP000=
SPQU 081300Z 07004KT CAVOK 13/M13 Q1025 NOSIG RMK PP000=
SPSO 081300Z 11005KT CAVOK 14/11 Q1014 RMK PP000=
SPTN 081300Z 12003KT 8000 OVC012 11/09 Q1013 RMK PP000=
SPYL NIL=
SPZO 081300Z 00000KT 9999 FEW033 SCT033 09/03 Q1034 NOSIG RMK
     PP000=
SVBC 081300Z 00000KT 9999 FEW010 29/24 Q1013=
SVMC 081300Z 36003KT 9999 SCT013 SCT070 28/26 Q1012=
SVMG 081300Z 07009KT 9999 SCT010 SCT080 30/28 Q1013 NOSIG=
SVMI 081300Z 00000KT 9999 FEW016 BKN100 26/24 Q1015=
SYCJ 081300Z 10010KT 9999 BKN019 SCT300 30/26 Q1009 JP SW AND N-NE
     TEMPO SHRA SHRA=
SYTM NIL=
####018000258####
SASA41 KWBC 081300
METAR
SEMT NIL=
SEPA NIL=
SKBG 081300Z 00000KT 9999 2000S BCFG SCST012 20/19 A3005=
SKMD NIL=
SKPE 081300Z 00000KT 9999 FEW018 SCT090 20/17 A3012=
SKSM NIL=
SKVG NIL=
SMJP 081300Z 11007KT 9999 SCT018 29/25 Q1013 NOSIG=
####018000341####
SASA42 KWBC 081300
METAR
SCAC NIL=
SCHA NIL=
SCSE 081300Z 13005KT 090V150 CAVOK 08/05 Q1018 NEFO PLAYA SKC=
SCTC 081300Z 28008KT 9999 FEW009 BKN015 10/09 Q1016=
SCTI NIL=
SCVD 081300Z 27013KT 4000 -SHRA BKN020TCU 11/09 Q1014 RMK HR89=
SELT NIL=
SUAG NIL=
SUDU 081300Z 24004KT CAVOK 08/04 Q1020=
SUPU NIL=
SUTB NIL=
####018000028####
SASD41 KWBC 081300
NIL=
####018000083####
SPUS52 KWBC 081306
SPECI
KACT 081304Z 06005KT 8SM BKN014 OVC020 26/23 A3001=
####018000028####
SASD42 KWBC 081300
NIL=
####018000312####
SASD43 KWBC 081300
METAR
OEMK NIL=
OEML NIL=
OEMU NIL=
OENG NIL=
OEOA NIL=
OEOF NIL=
OEOH NIL=
OEOS NIL=
OEOT NIL=
OEPA NIL=
OERC NIL=
OERF NIL=
OERG NIL=
OERL NIL=
OERR NIL=
OERX NIL=
OERY 081300Z 04015KT 5000 SA SKC 44/M02 Q1006 NOSIG=
OESH NIL=
OESK NIL=
OESM NIL=
####018000028####
SASD44 KWBC 081300
NIL=
####018000075####
SASN31 KWBC 081250 RRB
METAR
ESSP 081250Z 26011KT CAVOK 25/12 Q1017=
####018000028####
SATN41 KWBC 081300
NIL=
####018001589####
SASP31 KWBC 081300
METAR
LEAL 081300Z 08011KT 050V110 CAVOK 31/17 Q1019 NOSIG=
LEAM 081300Z 08016KT 9999 FEW050 39/04 Q1015=
LEAS 081300Z NIL=
LEBB 081300Z 31011KT 280V340 8000 FEW025 26/20 Q1017 TEMPO
     SCT030CB=
LEBL 081300Z 20014KT CAVOK 28/21 Q1019 NOSIG=
LECO 081300Z 01007KT CAVOK 22/19 Q1015=
LEGE 081300Z 19007KT 150V240 CAVOK 33/18 Q1019=
LEGR 081300Z 17015KT 140V200 9999 FEW060 39/06 Q1017=
LEIB 081300Z 08007KT 030V120 CAVOK 29/20 Q1020 NOSIG=
LEJR 081300Z VRB05KT CAVOK 32/14 Q1015=
LELC 081300Z 06011KT 030V100 CAVOK 28/20 Q1018 NOSIG=
LELL 081300Z 14009KT 090V190 CAVOK 31/14 Q1019=
LEMD 081300Z 15010KT 110V170 9999 FEW060TCU 32/12 Q1018 WS R18L WS
     R18R NOSIG=
LEMG 081300Z 11006KT 070V150 9999 FEW040 30/14 Q1017 NOSIG=
LEMH 081300Z 08006KT 020V170 CAVOK 30/18 Q1020=
LEPA 081300Z 23014KT CAVOK 31/14 Q1020 NOSIG=
LEPP 081300Z 18010KT 140V230 CAVOK 37/14 Q1018=
LERS 081300Z 20008KT 150V240 CAVOK 29/14 Q1020=
LESO 081300Z 35003KT 310V070 CAVOK 28/21 Q1015=
LEST 081300Z 08006KT 050V120 9999 FEW025 29/18 Q1015 NOSIG=
LETO 081300Z 09006KT 020V150 9999 FEW070 31/12 Q1018 NOSIG=
LEVC 081300Z 10010KT 050V140 CAVOK 32/17 Q1018 NOSIG=
LEVD 081300Z 18005KT CAVOK 34/08 Q1018=
LEVS 081300Z 13010KT 080V170 CAVOK 32/11 Q1018=
LEVT 081300Z 11005KT 070V160 9999 SCT050 33/17 Q1017=
LEVX 081300Z VRB03KT 8000 FEW030 24/19 Q1015=
LEXJ 081300Z 28008KT 240V310 9999 SCT018 25/19 Q1016=
LEZG 081300Z 10009KT 060V150 9999 FEW035 FEW040TCU 37/13 Q1017=
LEZL 081300Z 23007KT 180V280 9999 FEW025 33/14 Q1015 NOSIG=
####018001685####
SAUS41 KWBC 081300
METAR
K40B NIL=
KABE 081251Z 00000KT 5SM HZ CLR 27/22 A3005=
KAGC 081253Z 00000KT 3SM HZ CLR 27/19 A3010=
KAKR 081254Z AUTO 22003KT 8SM CLR 27/19 A3009=
KALB 081251Z 00000KT 7SM FEW080 28/20 A3004=
KART 081256Z AUTO 25005KT 9SM CLR 28/22 A3004=
KAVP 081254Z 00000KT 6SM HZ CLR 27/19 A3008=
KBAF 081253Z 16004KT 4SM HZ OVC011 24/22 A3008=
KBDL 081251Z 17007KT 3SM HZ OVC008 25/22 A3008=
KBDR 081252Z 10006KT 6SM BR OVC022 25/23 A3007=
KBED 081256Z 23008KT 8SM BKN014 BKN020 26/21 A3009=
KBTV 081254Z 19004KT 7SM CLR 28/22 A3002=
KBUF 081254Z 23004KT 10SM FEW090 28/19 A3006=
KBVY 081253Z 18009KT 10SM CLR 24/19 A3009=
KCAE 081256Z 32004KT 10SM CLR 29/21 A3000=
KCAK 081251Z 23003KT 7SM CLR 26/18 A3009=
KCEF 081255Z 13003KT 6SM -RA BR OVC011 25/22 A3008=
KCMH 081251Z 00000KT 6SM HZ FEW070 26/21 A3008=
KCRQ 081253Z AUTO 00000KT 5SM HZ FEW007 OVC013 17/14 A2990=
KCRW 081254Z 00000KT 3SM HZ CLR 24/21 A3010=
KCTZ 081300Z AUTO 03006KT 5SM HZ CLR 29/22 A2996=
KDAY 081256Z 20003KT 6SM R06L/5500VP6000FT HZ CLR 27/19 A3010=
KDOV 081257Z 13008KT 10SM FEW130 26/23 A3002=
KERI 081251Z 16007KT 9SM CLR 27/19 A3006=
KEWB 081253Z 13007KT 10SM BKN006 OVC011 24/21 A3010=
KFDK NIL=
KFVE 081253Z AUTO 16004KT 5SM HZ FEW060 26/23 A3001=
KGON 081256Z 13010KT 5SM HZ FEW007 SCT022 SCT029 25/21 A3007=
KGSO 081254Z 03004KT 5SM HZ CLR 29/18 A3004=
KGSP 081253Z 00000KT 10SM CLR 28/19 A3004=
KHPN 081256Z 15005KT 2SM DZ BR BKN004 OVC009 25/23 A3007=
KHTS 081251Z 00000KT 3SM HZ CLR 26/22 A3010=
KHUL 081253Z AUTO 17007KT 110V190 5SM HZ CLR 24/20 A3004=
KHVN 081253Z 11007KT 8SM BKN007 BKN015 OVC026 24/22 A3007=
####018000096####
SPUS52 KWBC 081306
SPECI
KMWL 081302Z AUTO 12005KT 10SM FEW008 BKN024 BKN031 24/23 A3003=
####018000585####
SATS31 KWBC 081300
METAR
DTMB 081300Z 03013KT CAVOK 30/16 Q1018 NOSIG=
DTTA 081300Z 36011KT 330V030 CAVOK 29/20 Q1018 NOSIG=
DTTB 081300Z 35010KT CAVOK 30/18 Q1020=
DTTD 081300Z 08006KT CAVOK 33/09 Q1019=
DTTG 081300Z 08010KT CAVOK 33/13 Q1017 NOSIG=
DTTJ 081300Z 08012KT CAVOK 31/19 Q1018 NOSIG=
DTTK 081300Z 12004KT CAVOK 37/09 Q1017 SIROCCO=
DTTL 081300Z 36006KT CAVOK 30/21 Q1018=
DTTN 081300Z 33008KT CAVOK 34/15 Q1017=
DTTR 081300Z 06008KT CAVOK 36/08 Q1018=
DTTX 081300Z 15010KT CAVOK 30/21 Q1018 NOSIG=
DTTZ 081300Z 17002KT CAVOK 36/22 Q1017 NOSIG=
####018001453####
SAUR31 KWBC 081300
METAR
UKBB 081300Z 30003MPS 260V330 9999 BKN040 26/17 Q1014 88CLRD95
     NOSIG=
UKCC 081300Z 08003MPS 010V150 CAVOK 29/16 Q1014 08090070 NOSIG=
UKCW 081300Z 07003MPS 010V110 9999 BKN040 30/15 Q1014 2709//70
     NOSIG=
UKDD 081300Z VRB02MPS 9999 SCT033CB BKN200 29/19 Q1014 08090070
     TEMPO VRB10G15MPS -TSRA SQ BKN020CB=
UKDE 081300Z 24002MPS 160V300 9999 SCT050 30/17 Q1014 20CLRD70
     NOSIG=
UKDR 081300Z 00000MPS 9999 VCTS SCT033CB BKN200 28/17 Q1013
     1809//70 TEMPO 26006G14MPS 3100 -TSRAGR BKN015CB=
UKFF 081300Z 03003MPS 340V060 CAVOK 29/17 Q1012 01010070 NOSIG=
UKHH 081300Z 19002MPS 120V270 9999 SCT040 BKN200 30/14 Q1014
     080///65 NOSIG=
UKKE NIL=
UKKK 081300Z 30003MPS 260V350 9999 BKN035 26/16 Q1015 26CLRD70
     NOSIG=
UKKM 081300Z 33004MPS 300V360 9999 BKN040 25/17 Q1015 33CLRD70
     NOSIG=
UKLI 081300Z 32004MPS 270V010 9999 SCT021CB BKN026 18/15 Q1020
     28290565 NOSIG=
UKLL 081300Z 32004MPS 260V030 9999 SCT035 BKN100 21/12 Q1021
     31210365 NOSIG=
UKLN 081300Z 29005MPS 260V330 9999 BKN015 BKN033CB 16/14 Q1020
     3319//65 NOSIG=
UKLR 081300Z 31006MPS 9999 SCT030 BKN100 22/14 Q1018 30090070
     NOSIG=
UKLT NIL=
UKLU 081300Z 36003MPS 9999 BKN040 24/12 Q1020 10090070 NOSIG=
UKON 081300Z 32004MPS 290V360 9999 FEW033CB OVC200 29/17 Q1013
     05090075 NOSIG=
UKOO 081300Z 33005MPS 300V360 CAVOK 27/14 Q1014 34090070 NOSIG=
####018000439####
SAVN42 KWBC 081300
METAR
SVPC 081300Z NIL=
SVPM 081300Z 00000KT 9999 SCT035 XX/XX Q1016=
SVPR NIL=
SVSA 081300Z 00000KT 9999 BKN020 25/20 Q1016=
SVSE NIL=
SVSO 081300Z NIL=
SVSP 081300Z 00000KT 7000 +HZ BKN040 XX/XX Q1014=
SVSR NIL=
SVST NIL=
SVSZ 081300Z 00000KT 9999 SCT020 XX/XX Q1012=
SVTM NIL=
SVVA 081300Z 14003KT 9999 BKN016 25/23 Q1014=
SVVL 081300Z 00000KT 8000 +HZ OVC040CB 22/20 Q1023=
SVVP NIL=
####018001472####
SAXX61 KWBC 081300
METAR
EDAD NIL=
EDAH 081250Z VRB03KT CAVOK 25/08 Q1021=
EDAR NIL=
EDAS NIL=
EDDS 081250Z VRB03KT CAVOK 28/09 Q1021 NOSIG=
EDEB NIL=
EDEH NIL=
EDEU NIL=
EDIC NIL=
EDID NIL=
EDIE NIL=
EDIH NIL=
EDIK NIL=
EDMA 081250Z VRB02KT 170V170 CAVOK 26/09 Q1022=
EGPK 081250Z 24017KT 9999 FEW024 19/09 Q1014=
EGUA NIL=
EGUL 081255Z AUTO 23008KT 9999 SCT034 23/14 A3005 RMK AO2 SLP179
     T02270141=
EGUN 081255Z 26008KT 9999 BKN033 BKN043 22/17 A3006 RMK AO2A
     SLP170 T02190166 BLU=
EGVA 081255Z AUTO 23009KT 9999 -DZ FEW100 SCT180 BKN210 22/09
     A3006 RMK AO2 RAB1246E1247DZB1247 SLP179 P0000 T02240087=
EGVJ NIL=
EGWZ NIL=
ETAD 081255Z AUTO 21004KT 9999 CLR 29/08 A3015 RMK AO2 SLP193
     T02940081 $=
ETAR 081255Z AUTO VRB04KT 9999 CLR 30/15 A3012 RMK AO2 SLP193
     T03040154 $=
KQHT 081255Z 25009G15KT 9999 FEW150 BKN200 32/02 A2993 RMK SLP099
     WND DATA ESTMD ALSTG/SLP ESTMD=
KQIR 081255Z 08013G17KT 8000 HZ CLR 42/26 A2949 RMK AO2A SLP983
     T04160258=
KQJL NIL=
KQUZ NIL=
LEMO 081300Z 26005KT 190V300 CAVOK 32/18 Q1016 NOSIG=
LERT NIL=
LICZ NIL=
LIRN 081250Z 05007KT CAVOK 29/14 Q1019=
LIYW 081255Z AUTO 22008KT 9999 FEW049 27/16 A3018 RMK AO2 SLP215
     T02690165=
LPLA 081300Z 17007KT 9999 -SHRA SCT013 BKN028 21/19 Q1024=
LTAC 081250Z 06012KT 9999 FEW030CB SCT035 29/14 Q1010 TEMPO
     -TSRA=
LTAG 081250Z 19013KT 9999 SCT035 31/20 Q1007 NOSIG=
####018001221####
SAXX62 KWBC 081300
METAR
FJDG NIL=
FUDG NIL=
PHBK 081256Z AUTO 12003KT 10SM BKN060 OVC070 24/18 A3000 RMK AO2
     SLP162 T02440178 TSNO $=
PHHI 081255Z AUTO 01004KT 10SM -DZ BKN036 OVC044 20/18 A3003 RMK
     AO2 DZB1241 SLP156 P0000 T01990181=
PHNG 081257Z 11007KT 10SM 24/21 A3002 RMK AO2 SLP159 T02390206
     $=
PHSF NIL=
PJON NIL=
PKMJ NIL=
PKWA 081300Z AUTO 15008KT 10SM -DZ SCT010 BKN047 OVC065 26/23
     A2983 RMK AO2 P0003 T02600232=
PMDY 081256Z AUTO 00000KT 10SM CLR 24/19 A3008 RMK AO2 TSNO
     T02380194 SLP491=
PTSA NIL=
PWAK 081255Z 07013KT 6SM BR SKC 27/26 A2998 RMK AO2A=
RJOI 081300Z 00000KT 9000 HZ SCT045 BKN120 OVC230 27/23 A2983 RMK
     SLP100 T02670228=
RJTA NIL=
RJTX NIL=
RJTY 081255Z AUTO 11003KT 9999 CLR 24/22 A2990 RMK AO2 SLP118
     T02390219 $=
RKJJ NIL=
RKJK NIL=
RKNC NIL=
RKPK 081300Z 23004KT 9999 SCT050 BKN200 23/19 Q1010 NOSIG=
RKSB NIL=
RKSG NIL=
RKSK NIL=
RKSM NIL=
RKSO 081255Z AUTO 28003KT 9999 -DZ FEW120 23/23 A2981 RMK AO2
     DZB1248 SLP096 P0000 T02280228 $=
RKST NIL=
RKSY NIL=
RKTG NIL=
RKTH NIL=
RODN 081255Z AUTO 16010KT 9999 FEW018 OVC200 29/26 A2985 RMK AO2
     SLP107 T02870264=
####018000375####
SACZ43 LKPW 081300
METAR LKCV 081300Z 16004KT 110V220 CAVOK 24/08 Q1022 NOSIG=
METAR LKKB 081300Z 32005KT 260V020 CAVOK 25/09 Q1022 NOSIG=
METAR LKLN 081300Z AUTO VRB04G17KT CAVOK 25/09 Q1023=
METAR LKNA 081300Z 05004KT CAVOK 23/08 Q1023 NOSIG=
METAR LKPD 081300Z VRB02KT CAVOK 25/06 Q1022 NOSIG=
METAR COR LKPO 081300Z 31003KT 270V340 CAVOK 23/11 Q1022 NOSIG=
####018003744####
SAXX99 KWBC 081300
METAR
A29E NIL=
ANYN NIL=
APCL NIL=
ARND NIL=
ASSW NIL=
AT20 NIL=
ATAR NIL=
AVOK NIL=
AYMO NIL=
AZNZ NIL=
BAJO NIL=
BGAA 081250Z 33003KT 0400 FG VV002 04/03 Q1009=
BGMQ 081250Z 20005KT 1300 BR VV003 05/05 Q1009=
BGQQ 081255Z NIL=
BGQQ 081250Z 19003KT 4000 BR BKN002 04/M03 Q1010 RMK 6ST VIS
     9999NE=
BGSS 081250Z 24003KT 9999 0900SE VCFG SCT000 04/04 Q1008=
BGUK 081250Z 30005KT 9999 SKC 05/03 Q1009=
BGUQ 081250Z 08011KT 9999 SKC 10/06 Q1009=
BH31 NIL=
BKPR 081300Z 01006KT 340V040 9999 SCT030 BKN070 17/11 Q1021 NOSIG
     RMK BLU=
BOVE NIL=
CHEC NIL=
CI41 NIL=
CMBB NIL=
CMBR NIL=
CMCT NIL=
CMCW NIL=
CMFM NIL=
CMGB NIL=
CMHN NIL=
CMHW NIL=
CMLA NIL=
CMPD NIL=
CMPL NIL=
CMRI NIL=
CMRU NIL=
CMRY NIL=
CMSB NIL=
CMSC NIL=
CMSX NIL=
CMYT NIL=
CPBT NIL=
CPEH NIL=
CPFI NIL=
CPIR NIL=
CPRO NIL=
CPRY NIL=
CPST NIL=
CPSV NIL=
CPXL NIL=
CQCM 081300Z 01009KT 6SM HZ FEW040CB 40/20 A2951 RMK WND/ALTM ESTD
     CB1 T04010201=
CTAE NIL=
CTAL NIL=
CTCK NIL=
CTCW NIL=
CTWN NIL=
CWAE NIL=
CWBU NIL=
CWCA NIL=
CWCL NIL=
CWDL NIL=
CWEU NIL=
CWFD NIL=
CWGZ NIL=
CWHN NIL=
CWIK NIL=
CWIL NIL=
CWKM NIL=
CWKW NIL=
CWLI NIL=
CWLX NIL=
CWLY NIL=
CWMT NIL=
CWOB NIL=
CWRH NIL=
CWRX NIL=
CWSA NIL=
CWSW NIL=
CWTU NIL=
CWUP NIL=
CWUW NIL=
CWVD NIL=
CWVH NIL=
CWWU NIL=
CWXR NIL=
CWYK NIL=
CWYM NIL=
CWZZ NIL=
CXAK NIL=
CXDB NIL=
CXFM NIL=
CXHD NIL=
CXHP NIL=
CXMG NIL=
CXMO NIL=
CXOL NIL=
CXPL NIL=
CXSC NIL=
CXSL NIL=
CXSP NIL=
CXTH NIL=
CXVM NIL=
CXVW NIL=
CYAH NIL=
CYAM NIL=
CYAS NIL=
CYAY NIL=
CYAZ NIL=
CYBB NIL=
CYBC NIL=
CYBD NIL=
CYBK NIL=
CYBL NIL=
CYBN NIL=
CYBR NIL=
CYBU NIL=
CYBV NIL=
CYBW NIL=
CYBX NIL=
CYCB NIL=
CYCD NIL=
CYCG NIL=
CYCO NIL=
CYCP NIL=
CYCQ NIL=
CYCS NIL=
CYCX NIL=
CYCY NIL=
CYDA NIL=
CYDB NIL=
CYDC NIL=
CYDF NIL=
CYDN NIL=
CYDP NIL=
CYED NIL=
CYEK NIL=
CYEL NIL=
CYEN NIL=
CYET NIL=
CYEV NIL=
CYFO NIL=
CYFR NIL=
CYFS NIL=
CYGE NIL=
CYGH NIL=
CYGK NIL=
CYGP NIL=
CYGQ NIL=
CYGR NIL=
CYGT NIL=
CYGV NIL=
CYGW NIL=
CYGX NIL=
CYHA NIL=
CYHD NIL=
CYHE NIL=
CYHH NIL=
CYHI NIL=
CYHK NIL=
CYHM NIL=
CYHU NIL=
CYHY NIL=
CYIK NIL=
CYIO NIL=
CYIV NIL=
CYJF NIL=
CYKA NIL=
CYKD NIL=
CYKF NIL=
CYKG NIL=
CYKJ NIL=
CYKO NIL=
CYKQ NIL=
CYKY NIL=
CYKZ NIL=
CYLD NIL=
CYLJ NIL=
CYLK NIL=
CYLL NIL=
CYLT NIL=
CYLU NIL=
CYLW NIL=
CYMA NIL=
CYMJ NIL=
CYMM NIL=
CYMO NIL=
CYMT NIL=
CYMU NIL=
CYNA NIL=
CYNC NIL=
CYND NIL=
CYNE NIL=
CYNM NIL=
CYOA NIL=
CYOC NIL=
CYOD NIL=
CYOJ NIL=
CYOY NIL=
CYPA NIL=
CYPC NIL=
CYPE NIL=
CYPG NIL=
CYPH NIL=
CYPQ NIL=
CYPR NIL=
CYPW NIL=
CYPX NIL=
CYPY NIL=
CYQA NIL=
CYQD NIL=
CYQF NIL=
CYQH NIL=
CYQI NIL=
CYQK NIL=
CYQL NIL=
CYQR NIL=
CYQT NIL=
CYQU NIL=
CYQV NIL=
CYQW NIL=
CYQZ NIL=
CYRA NIL=
CYRJ NIL=
CYRL NIL=
CYRT NIL=
CYRV NIL=
CYSB NIL=
CYSC NIL=
CYSD NIL=
CYSF NIL=
CYSK NIL=
CYSL NIL=
CYSM NIL=
CYSN NIL=
CYSR NIL=
CYSY NIL=
CYTH NIL=
CYTJ NIL=
CYTQ NIL=
CYTS NIL=
CYTZ NIL=
CYUA NIL=
CYUB NIL=
CYUS NIL=
CYUT NIL=
CYUX NIL=
CYVC NIL=
CYVM NIL=
CYVO NIL=
CYVQ NIL=
CYVT NIL=
CYVV NIL=
CYWA NIL=
CYWH NIL=
CYWJ NIL=
CYWL NIL=
CYWO NIL=
CYWY NIL=
CYXC NIL=
CYXD NIL=
CYXE NIL=
CYXH NIL=
CYXJ NIL=
CYXL NIL=
CYXN NIL=
CYXP NIL=
CYXQ NIL=
CYXR NIL=
CYXS NIL=
CYXT NIL=
CYXZ NIL=
CYYB NIL=
CYYD NIL=
CYYE NIL=
CYYF NIL=
####018001082####
SAUS41 KWBC 081300 RRA
METAR
KIAG 081253Z 23006KT 8SM FEW100 27/21 A3005=
KILG 081251Z 14005KT 3/4SM R01/5500VP6000FT BR OVC003 25/23
     A3004=
KILM 081253Z 05007KT 7SM CLR 28/22 A2994=
KINT 081254Z 02006KT 10SM CLR 28/18 A3005=
KLSV 081255Z AUTO 02004KT 10SM FEW140 23/M03 A2985=
KLUK 081253Z 00000KT 2SM HZ CLR 26/23 A3008=
KLWM 081254Z VRB04KT 10SM FEW019 BKN044 27/21 A3011=
KMDT 081256Z 00000KT 4SM HZ CLR 29/21 A3002=
KMMU NIL=
KMSS 081253Z AUTO 25004KT 7SM CLR 27/23 A3002=
KOGS NIL=
KOLD NIL=
KOQU 081250Z 14004KT 4SM BR OVC005 23/ A3014=
KORH 081254Z 19005KT 10SM OVC011 24/21 A3013=
KPQI 081255Z AUTO 14008KT 10SM CLR 24/20 A3000=
KPSM 081255Z 17005KT 10SM FEW040 BKN200 25/21 A3009=
KPVD 081251Z 16006KT 10SM BKN100 24/20 A3011=
KPWM 081251Z 19009KT 7SM OVC004 22/20 A3010=
KROC 081254Z COR 22006KT 9SM CLR 26/21 A3005=
KROC 081254Z 22006KT 9SM FEW090 26/21 A3005=
KSCH NIL=
KSYR 081254Z 00000KT 7SM CLR 28/21 A3005=
KWDR 081300Z AUTO 34004KT 10SM CLR 27/21 A3008=
KWRI 081255Z AUTO 15007KT 9SM FEW100 26/24 A3003=
####018000191####
SALJ31 LJLJ 081300
METAR LJLJ 081300Z 13004KT 060V200 9999 FEW043 25/10 Q1022 NOSIG=
METAR LJMB 081300Z 22004KT 9999 FEW040 26/08 Q1022=
METAR LJPZ 081300Z 30009KT CAVOK 26/10 Q1021=
####018000090####
SAUS41 KWBC 081300 CCA
METAR
KRIC 081254Z 13007KT 5SM HZ FEW150 SCT250 28/22 A3000=
####018000515####
SATS40 DTTA 081300
METAR DTKA 081300Z 30008KT 260V350 9999 FEW020 27/21 Q1019 NOSIG=
METAR DTMB 081300Z 03013KT CAVOK 30/16 Q1018 NOSIG=
METAR DTNZ 081300Z AUTO 10013KT CAVOK 30/16 Q1018=
METAR DTTA 081300Z 36011KT 330V030 CAVOK 29/20 Q1018  NOSIG=
METAR DTTF 081300Z 22006KT CAVOK 36/12 Q1015 NOSIG=
METAR DTTJ 081300Z 08012KT CAVOK 31/19 Q1018 NOSIG=
METAR DTTR 081300Z 06008KT CAVOK 36/08 Q1018=
METAR DTTX 081300Z 15010KT CAVOK 30/21 Q1018 NOSIG=
METAR DTTZ 081300Z 17002KT CAVOK 36/22 Q1017 NOSIG=
####018000124####
SAKY31 RUMS 081300
METAR UAFM 081300Z 24006MPS CAVOK 32/08 Q1012 TEMPO 24007G12MPS FCST
WS=
METAR UAFO 081300Z NIL=
####018000396####
SARO32 LROM 081300
METAR LRAR 081300Z 02008KT 320V060 9999 BKN045 24/14 Q1020=
METAR LRBM 081300Z 31004KT 230V020 9999 SCT042 21/14 Q1019=
METAR LRCL 081300Z 29008KT 9999 BKN045 19/13 Q1020 0821//95=
METAR LROD 081300Z 36010KT 320V020 CAVOK 23/12 Q1020=
METAR LRSM 081300Z 33008KT 9999 BKN043 23/15 Q1020=
METAR LRTM 081300Z 32004KT 270V010 9999 FEW018 SCT033 BKN036 19/14
Q1020=
####018000077####
SAEO32 EETN 081250
METAR EEKA 081250Z 29008KT 280V330 CAVOK 22/13 Q1016=
####018000077####
SALJ32 LJLJ 081300
METAR LJCE 081300Z 14002KT CAVOK 26/09 Q1022 RMK BLU=
####018000352####
SARO33 LROM 081300
METAR LRBC 081300Z 01014KT 350V050 9999 FEW021 BKN033 23/17 Q1017=
METAR LRCV 081300Z 25004KT 190V340 9999 FEW030 BKN040 23/14 Q1017=
METAR LRIA 081300Z 31014KT 270V350 9999 SCT022 BKN029 22/17 Q1017=
METAR LRSV 081300Z 31020KT 9999 SCT012 BKN049 17/14 Q1019=
METAR LRTC 081300Z 36010KT 9999 FEW030CB BKN040 24/17 Q1014=
####018000105####
SATU31 LTAA 081250 CCA
METAR LTFJ 081250Z 01017KT 9999 BKN030 23/17 Q1011 TEMPO FM1400 4000 
TSRA=
####018000318####
SATS41 DTTA 081300
METAR DTTB 081300Z 35010KT CAVOK 30/18 Q1020=
METAR DTTD 081300Z 08006KT CAVOK 33/09 Q1019=
METAR DTTG 081300Z 08010KT CAVOK 33/13 Q1017 NOSIG=
METAR DTTK 081300Z 12004KT CAVOK 37/09 Q1017 SIROCCO=
METAR DTTL 081300Z 36006KT CAVOK 30/21 Q1018=
METAR DTTN 081300Z 33008KT CAVOK 34/15 Q1017=
####018000093####
SAUK39 EGRR 081250 RRD
METAR EGDY 081250Z 20009KT 9999 FWE035 SCT100 BKN220 22/14 Q1018=
####018000701####
SAKZ31 RUMS 081300
METAR UAAA 081300Z 27004MPS 240V310 9999 SCT050CB BKN100 28/10 Q1013
88CLRD65 TEMPO TS=
METAR UACC 081300Z 32006MPS CAVOK 23/02 Q1008 220/0070 NOSIG RMK
QFE725/0967=
METAR UAKK 081300Z 13004MPS 100V160 9999 SCT050CB BKN/// 22/06 Q1008
230///70 TEMPO TSRA RMK QFE709/0946=
METAR UAOO 081300Z NIL=
METAR UARR 081300Z NIL=
METAR UATE 081300Z 02006MPS CAVOK 39/08 Q1009 300///70 NOSIG RMK
QFE755/1007=
METAR UATG 081300Z 31006G09MPS CAVOK 40/08 Q1008 32CLRD70 NOSIG RMK
QFE758/1011 =
METAR UATT 081300Z 06005MPS 030V100 9999 NSC 33/02 Q1010 13CLRD70
NOSIG RMK QFE738/0984=
METAR UAUU 081300Z 34008MPS CAVOK 26/M03 Q1012 33CLRD70 NOSIG RMK
QFE743/0991=
####018000272####
SATR31 RUMS 081300
METAR UTAA 081300Z 12004MPS 080V150 9999 SKC 43/04 Q1007 NOSIG=
METAR UTAK 081300Z 29005MPS CAVOK 37/16 Q1008 NOSIG=
METAR UTAM 081300Z 01006MPS CAVOK 42/06 Q1005 NOSIG=
METAR UTAT 081300Z NIL=
METAR UTAV 081300Z 04003MPS CAVOK 38/10 Q1005=
####018000189####
SATA31 RUMS 081300
METAR UTDD 081300Z 00000MPS 9999 SKC 36/07 Q1008 09CLRD70 NOSIG RMK
QFE689/0918=
METAR UTDL 081300Z 27004MPS 9999 FEW053 38/08 Q1008 NOSIG RMK QFE719
8809//70=
####018000166####
SAAY31 RUMS 081300
METAR UDYZ 081300Z VRB01MPS 9999 FEW050 38/12 Q1008 09010070 NOSIG=
METAR UDSG 081300Z 07010MPS 9999 SCT050TCU 29/15 Q1015 02CLRD70
NOSIG=
####018003735####
SAXX99 KWBC 081300 RRB
METAR
EGXX 081250Z 24009KT CAVOK ///// Q//// BLU=
EGXZ 081250Z 25013KT 9999 SCT040 21/09 Q1016 BLU=
EGYC NIL=
EGYD 081250Z NIL=
EGYE NIL=
EGYH NIL=
EGYM 081250Z 23010KT 9999 FEW040 BKN220 23/11 Q1018 BLU NOSIG=
EGYP NIL=
EGYW NIL=
EKGF 081250Z 20011KT 9999 FEW030 SCT090 16/16 Q1018=
EKGF 081250Z 20010KT CAVOK 16/16 Q1017=
ENBS 081250Z 18012KT 9999 FEW030 15/07 Q1016=
ENDR 081250Z NIL=
ENHE 081250Z 18021KT 9999 SCT040 15/11 Q1009=
ENHK 081250Z 13009KT CAVOK 18/09 Q1011=
ENHK 081250Z NIL=
ENSS 081250Z NIL=
EPLL NIL=
EPWR 081300Z 08002KT CAVOK 26/10 Q1022=
EQAC NIL=
EQAV NIL=
EQBA NIL=
EQBC NIL=
EQBF NIL=
ERAR NIL=
ESGR 081250Z AUTO 23009KT 9999NDV OVC041/// 22/14 Q1018=
ESGT 081250Z 19012KT 9999 SCT016 SCT035 19/14 Q1018=
ESGT 081250Z NIL=
ESKM 081250Z NIL=
ESMQ 081250Z 17012KT CAVOK 24/14 Q1019=
ESMT 081250Z 19011KT CAVOK 23/14 Q1020=
ESNG 081250Z 22007KT 190V250 9000 RA BKN045 15/13 Q1014 REDZ=
ESNK 081250Z AUTO 15011KT 9999NDV SCT041/// BKN052/// 21/13
     Q1012=
ESNL 081250Z AUTO 14013KT 9999NDV FEW050/// 21/10 Q1012=
ESNX 081250Z AUTO 14004KT 9000NDV RA FEW009/// SCT017/// BKN038///
     15/14 Q1014=
ESNY 081250Z AUTO 25009KT 220V290 9999 FEW037 24/15 Q1014=
ESOE 081250Z NIL=
ESSF 081250Z NIL=
ESSK 081250Z NIL=
ESSL 081250Z 21009KT 130V240 9999 FEW046 25/12 Q1018=
ESTA 081250Z 17010KT CAVOK 23/15 Q1020=
ESTL 081250Z AUTO 20010KT 9999NDV SCT053/// BKN064/// 24/11
     Q1020=
ESUD 081250Z NIL=
ESUT 081250Z AUTO 15012KT 9999NDV SCT046/// BKN057/// BKN130///
     18/11 Q1009=
ETER NIL=
ETGG NIL=
ETGY NIL=
ETGZ NIL=
ETHA NIL=
ETHB NIL=
ETHC NIL=
ETHE NIL=
ETHF NIL=
ETHL NIL=
ETHM NIL=
ETHN NIL=
ETHR NIL=
ETHS NIL=
ETME NIL=
ETMN NIL=
ETND NIL=
ETNH NIL=
ETNJ NIL=
ETNL NIL=
ETNN NIL=
ETNP NIL=
ETNS NIL=
ETNT NIL=
ETNU NIL=
ETNW NIL=
ETOU 081255Z AUTO VRB06KT 9999 CLR 29/10 A3013 RMK AO2 SLP200
     T02920101=
ETSA NIL=
ETSB NIL=
ETSE NIL=
ETSH NIL=
ETSI NIL=
ETSL NIL=
ETSN NIL=
ETUO 081250Z 25005KT CAVOK 31/10 Q1019 BLU=
ETWM NIL=
EVLA 081250Z 33006KT 270V040 CAVOK 22/16 Q1019=
EVVA 081250Z AUTO 32009KT 300V010 CAVOK 22/17 Q1018=
EW09 NIL=
EW20 NIL=
EYAR NIL=
EYKA 081250Z 28010KT 250V340 9999 OVC033 17/14 Q1016=
EYPA 081250Z 32007KT 270V060 CAVOK 21/16 Q1019=
EYZR NIL=
FAAB NIL=
FAGC 081300Z AUTO 02005KT //// // ////// 17/02 Q1031=
FAJB 081300Z AUTO 02003KT //// // ////// 17/02 Q1031=
FAKD NIL=
FAKM NIL=
FAMM 081300Z 04008KT 9999 FEW040 20/03 Q1029 NOSIG=
FANS NIL=
FAPP 081300Z 06008KT 9999 BKN035 17/06 Q1030 NOSIG=
FAPS NIL=
FARG NIL=
FASI 081300Z AUTO 04006G17KT //// // ////// 18/M03 Q1031=
FASR NIL=
FAVE NIL=
FAVV 081300Z AUTO 06008KT //// // ////// 18/02 Q1029=
FBFG NIL=
FBGH NIL=
FBLT NIL=
FBPA NIL=
FBSN NIL=
FBWD NIL=
FDGZ NIL=
FDWD NIL=
FEFG NIL=
FKYS NIL=
FMEP 081300Z 12029KT 9999 FEW021 23/14 Q1020=
FMMS NIL=
FMNA NIL=
FMSD NIL=
FMST NIL=
FNBG NIL=
FNCA NIL=
FNCE NIL=
FNCZ NIL=
FNDU NIL=
FNGI NIL=
FNLB NIL=
FNMA NIL=
FNME NIL=
FNMI NIL=
FNMO NIL=
FNMQ NIL=
FNNG NIL=
FNSA NIL=
FNSP NIL=
FNSR NIL=
FNSU NIL=
FNTO NIL=
FNUB NIL=
FNUE NIL=
FNUG NIL=
FNZE NIL=
FOGM NIL=
FOGR NIL=
FOOB NIL=
FOOC NIL=
FOOD NIL=
FOOE NIL=
FOOK NIL=
FOOM NIL=
FOOR NIL=
FOOT NIL=
FOOY NIL=
FQCH NIL=
FQIN NIL=
FQLC 081300Z 15006KT 9999 BKN013 19/07 Q1025 TX/20,1=
FQNP NIL=
FQPB NIL=
FQQL 081300Z 14010KT 9999 BKN020 26/18 Q1022=
FQTE NIL=
FQTT NIL=
FQVL NIL=
FQXX NIL=
FTTA NIL=
FTTC NIL=
FTTD NIL=
FVKB NIL=
FVWN NIL=
FYGO NIL=
####018003720####
SAXX99 KWBC 081300 RRA
METAR
CYYG NIL=
CYYH NIL=
CYYL NIL=
CYYN NIL=
CYYU NIL=
CYYY NIL=
CYZE NIL=
CYZG NIL=
CYZH NIL=
CYZP NIL=
CYZR NIL=
CYZS NIL=
CYZT NIL=
CYZU NIL=
CYZW NIL=
CZCP NIL=
CZEM NIL=
CZEV NIL=
CZFA NIL=
CZFM NIL=
CZFN NIL=
CZFS NIL=
CZHY NIL=
CZMU NIL=
CZOL NIL=
CZPC NIL=
CZPS NIL=
CZSM NIL=
CZST NIL=
CZUM NIL=
DAAD NIL=
DAAE NIL=
DAAJ NIL=
DAAP NIL=
DAAS NIL=
DAAV NIL=
DAAY NIL=
DABO NIL=
DABT NIL=
DAFH NIL=
DAMR NIL=
DAOB NIL=
DAOF NIL=
DAOL NIL=
DAOR NIL=
DAOV NIL=
DATG NIL=
DATM NIL=
DAUB NIL=
DAUE NIL=
DAUI NIL=
DAUK NIL=
DAUL NIL=
DAUO NIL=
DAUS NIL=
DAUT NIL=
DAUU NIL=
DFFD NIL=
DFOO NIL=
DJ21 NIL=
DNEN NIL=
DNIB NIL=
DRZR NIL=
DTKA 081300Z 30008KT 260V350 9999 FEW020 27/21 Q1019 NOSIG=
DTTF 081300Z 22006KT CAVOK 36/12 Q1015 NOSIG=
DTTH NIL=
DUPE NIL=
EATR NIL=
EATZ NIL=
EDAC 081250Z 22005KT 160V250 CAVOK 27/12 Q1021=
EDDE 081250Z 35003KT CAVOK 27/09 Q1021 NOSIG=
EDFH 081250Z 16006KT 050V210 CAVOK 28/12 Q1021=
EDGS 081250Z 21007KT 170V260 CAVOK 25/10 Q1022=
EDHK NIL=
EDLV 081250Z VRB06KT CAVOK 32/10 Q1019=
EDOP 081250Z 18008KT 120V230 CAVOK 30/09 Q1020=
EDRZ 081250Z 12005KT 070V200 CAVOK 30/12 Q1021=
EDSB 081250Z 34006KT 260V060 CAVOK 31/12 Q1020=
EDTL 081250Z 26005KT 180V320 CAVOK 30/07 Q1019=
EEKA 081250Z NIL=
EEKE 081250Z 33012KT CAVOK 24/12 Q1016=
EEPU 081250Z 31009KT 260V340 9999 BKN028 26/19 Q1014=
EETU 081250Z AUTO 28005KT 240V310 5000NDV -RA FEW003/// BKN039///
     21/18 Q1013=
EFCA NIL=
EFET 081250Z AUTO 16010KT 120V220 CAVOK 20/06 Q1013=
EFHA 081250Z VRB01KT 9999 FEW030TCU SCT035 BKN200 25/15 Q1015=
EFJO 081250Z AUTO 36004KT 310V070 CAVOK 28/18 Q1014=
EFKA 081250Z 21005KT 150V240 CAVOK 25/11 Q1014=
EFKI 081250Z AUTO 34005KT 310V030 CAVOK 23/14 Q1015=
EFKS 081250Z AUTO 18003KT CAVOK 21/10 Q1016=
EFKT 081250Z AUTO 16008KT 090V190 CAVOK 21/08 Q1014=
EFLP 081250Z AUTO 17007KT 100V230 CAVOK 31/12 Q1013=
EFMI 081250Z AUTO 36004KT 290V110 9999 FEW044 28/19 Q1013=
EFSA 081250Z VRB02KT 9999 FEW055TCU FEW055CB 30/17 Q1013=
EFSI 081250Z AUTO 19004KT 130V290 CAVOK 25/11 Q1014=
EFUT 081250Z 16008KT 070V220 CAVOK 30/14 Q1013=
EFVR 081255Z NIL=
EGCN 081250Z 25011KT 220V280 9999 SCT048 23/09 Q1017=
EGDX 081250Z 26007KT 9999 FEW020 20/11 Q1018 BLU=
EGEC 081250Z 24010KT 9999 FEW024 SCT036 16/10 Q1013=
EGHK 081250Z 15006KT 9999 SCT020 18/15 Q1018=
EGHK 081250Z NIL=
EGMH 081250Z 13010KT 9999 FEW020 21/17 Q1019=
EGNO NIL=
EGNR 081250Z 27008KT 230V320 9999 SCT040 21/10 Q1017=
EGOM 081250Z 25015KT 9999 SCT026 SCT032 17/10 Q1015 BLU=
EGOP 081250Z 21010KT 9999 -SHRA FEW017 BKN090 17/14 Q1019 BLU=
EGPI 081250Z 22014KT 9999 FEW022 17/11 Q1013=
EGPI 081250Z NIL=
EGQA 081250Z 21013KT 9999 -SHRA FEW020 SCT030 15/// Q1010 BLU=
EGTG 081250Z 28009KT 9999 FEW030 21/09 Q1018=
EGUB 081250Z 21009KT 9999 SCT038 BKN220 24/19 Q1018 BLU NOSIG=
EGUB 081250Z NIL=
EGUW NIL=
EGUY NIL=
EGVN 081250Z NIL=
EGVO 081250Z 23009KT 9999 BKN024 BKN030 22/15 Q1018 WHT BECMG
     BKN025 BLU=
EGVP NIL=
EGWC 081250Z 21014KT 9999 BKN035 21/10 Q1018 BLU=
EGWU 081250Z 24008KT 9999 SCT032 BKN250 23/14 Q1018 NOSIG=
EGWU 081250Z 24008KT 9999 SCT032 BKN250 23/14 Q1018 BLU NOSIG=
EGXC 081250Z NIL=
EGXD 081250Z 24014KT 9999 FEW045 BKN250 21/08 Q1016 BLU NOSIG=
EGXE NIL=
EGXG 081250Z 24013KT CAVOK 22/07 Q1016 BLU=
EGXJ NIL=
EGXT 081250Z NIL=
EGXT 081250Z 25008KT 9999 FEW040 BKN250 23/06 Q1017=
EGXT 081250Z 25008KT 9999 FEW040 BKN250 23/06 Q1017 BLU=
EGXU 081250Z 26011KT 9999 SCT045 SCT250 20/09 Q1016 BLU NOSIG=
EGXW NIL=
####018003689####
SAXX99 KWBC 081300 RRC
METAR
FYML 081300Z AUTO 08010KT //// // ////// 19/M04 Q1025=
FYOA NIL=
FYOJ NIL=
FYOW NIL=
FYWE NIL=
FYWW 081300Z 03007KT CAVOK 21/M00 Q1025=
FZAB NIL=
FZOA NIL=
FZOS NIL=
FZRF NIL=
FZSA NIL=
GDAB NIL=
GMAD 081300Z 24009KT 190V270 9999 FEW020 28/18 Q1014 NOSIG=
GMFM 081300Z 34005KT 6000 FEW026 31/20 Q1018=
GMMC 081300Z NIL=
GMML 081300Z 03017KT 8000 SCT020 28/17 Q1016=
GMMW 081300Z 06015KT CAVOK 30/20 Q1016=
GMMZ 081300Z 12010KT 9999 FEW040 FEW050TCU 38/00 Q1024=
GOIT NIL=
HCMF NIL=
HEAR NIL=
HEAT NIL=
HEIS NIL=
HESH NIL=
HETB NIL=
HKMV NIL=
HLLM 081250Z 34009KT 7000 SKC 28/21 Q1019=
HTMT NIL=
HTSU NIL=
HUAR NIL=
HUGU NIL=
HUJI NIL=
HUKA NIL=
HUKB NIL=
HULI NIL=
HUMI NIL=
HUS0 NIL=
HUTO NIL=
HWRS NIL=
IKVG NIL=
JP30 NIL=
K4O4 NIL=
K5T6 NIL=
K8S0 NIL=
KARL NIL=
KAUD NIL=
KBFU NIL=
KBIT NIL=
KBRX NIL=
KBVR NIL=
KCBE NIL=
KCHJ NIL=
KCMS NIL=
KCTD NIL=
KDHS NIL=
KDRC NIL=
KEGI 081255Z AUTO 00000KT 10SM CLR 26/24 A3004 RMK AO2 SLP172
     T02630240 $=
KESN 081253Z 13005KT 5SM BR SKC 27/24 A3006=
KFIR NIL=
KFME 081251Z AUTO 09003KT 5SM CLR 26/22 A3004 RMK AO1=
KGYH NIL=
KHLD NIL=
KIDV NIL=
KIKA NIL=
KPAT NIL=
KPIN NIL=
KPUM NIL=
KRIM NIL=
KSGE NIL=
KSHC NIL=
KSIB NIL=
KSKL NIL=
KTMH NIL=
KVDW NIL=
LBGO 081300Z 27003MPS 8000 -DZ SCT013 BKN030 OVC050 16/15 Q1017
     NOSIG=
LDLO 081300Z 31011KT CAVOK 28/10 Q1021=
LDSB 081300Z VRB02KT CAVOK 24/11 Q1021=
LEAB 081300Z 15016KT CAVOK 35/03 Q1021 NOSIG=
LEBA 081300Z 27007KT 220V300 9999 FEW045 34/14 Q1015=
LEBR NIL=
LEBZ 081300Z 31007KT CAVOK 35/13 Q1014=
LEGA NIL=
LEGT NIL=
LELN 081300Z 20012KT 160V240 9999 FEW055TCU 32/09 Q1019=
LERI NIL=
LESA 081300Z VRB02KT 9999 FEW048 35/15 Q1018=
LETO 081300Z 09006KT 020V150 9999 FEW070 31/12 Q1018 NOSIG=
LFBE NIL=
LFBG NIL=
LFCR 081300Z AUTO 14006KT 090V200 9999NDV NSC 33/04 Q1021=
LFJL 081300Z AUTO VRB03KT 9999NDV NSC 31/07 Q1020=
LFLX 081300Z 23005KT 170V280 CAVOK 32/12 Q1018 NOSIG=
LFMI 081300Z AUTO 18008KT 120V220 9999NDV NSC 34/13 Q1019=
LFMK 081300Z AUTO 09016KT 9999NDV NSC 34/13 Q1018=
LFMO NIL=
LFMU 081300Z AUTO 15007KT 100V200 9999NDV NSC 30/14 Q1020=
LFMV 081300Z AUTO VRB04KT 9999NDV NSC 35/13 Q1019=
LFOA NIL=
LFOJ NIL=
LFOK 081300Z AUTO 30006KT 260V330 9999NDV NSC 32/09 Q1019=
LFQI NIL=
LGHI 081250Z NIL=
LGHI 081250Z 36010KT CAVOK 28/18 Q1011=
LGKC 081250Z NIL=
LGNX 081250Z NIL=
LGPA 081250Z 02018KT 9999 FEW025 26/17 Q1011=
LGPA 081250Z NIL=
LGSO 081250Z 01015KT 9999 FEW018 25/17 Q1012=
LHDC NIL=
LHKE NIL=
LHPP NIL=
LHSA NIL=
LHSN NIL=
LHUD NIL=
LICP NIL=
LIMP NIL=
LIMZ NIL=
LIRM NIL=
LKCS NIL=
LKCV 081300Z 16004KT 110V220 CAVOK 24/08 Q1022 NOSIG RMK BLU+
     BLU+=
LKHO NIL=
LKKB NIL=
LKKU NIL=
LKKV 081300Z VRB03KT CAVOK 24/10 Q1023=
LKLB NIL=
LKLN NIL=
LKNA 081300Z 05004KT CAVOK 23/08 Q1023 NOSIG RMK BLU+ BLU+=
LKPD 081300Z VRB02KT CAVOK 25/06 Q1022 NOSIG RMK BLU+ BLU+=
LKPO 081300Z 31003KT 270V340 CAVOK 23/11 Q1022 NOSIG RMK BLU+
     BLU+=
LLIB 081250Z 35008KT CAVOK 34/14 Q1009=
LLSD 081250Z 29010KT 9999 FEW025 29/21 Q1009=
LOAG NIL=
LOAN NIL=
LOGG NIL=
LOLF NIL=
LOXA NIL=
LOXN NIL=
LOXT 081250Z VRB05KT 50KM FEW060CU 26/13 Q1022 NOSIG RMK FEW=
LOXZ 081250Z 06004KT 70KM FEW060CU 25/11 Q1022 NOSIG RMK FEW=
LPAR NIL=
LQBK 081300Z 35004KT 9999 SCT040 24/11 Q1021 NOSIG=
LQMO 081300Z 35010KT 9999 FEW045 28/10 Q1017=
LQTZ NIL=
LTAB 081250Z 05010KT 9999 TS FEW025CB BKN035 30/11 Q1008 TEMPO
     -TSRA RMK RWY06 06010KT=
####018003741####
SAXX99 KWBC 081300 RRD
METAR
LTAE 081250Z 02005KT 9999 -TSRA FEW030CB BKN035 29/13 Q1009 RETS
     BECMG TL1350 NSW RMK RWY21 04013KT=
LTAZ 081250Z 11008KT 9999 FEW040 SCT100 34/11 Q1008=
LTBR 081250Z 32017G27KT 9999 SCT035TCU BKN100 25/18 Q1011 TEMPO
     -TSRA RMK RWY07 31011KT=
LTBR 081250Z 32017G27KT 9999 SCT035TCU BKN100 25/18 Q1011 TEMPO
     -TSRA=
LTBU 081250Z 33010KT 9999 -SHRA SCT030TCU BKN100 18/15 Q1014 RMK
     RWY23 32011KT=
LTBU 081250Z 33010KT 9999 -SHRA SCT030TCU BKN100 18/15 Q1014=
LTCD NIL=
LTCF 081250Z 11011KT 080V140 9999 FEW035 29/08 Q1018=
LTFC NIL=
LTFH 081250Z 05008KT 010V100 9999 SCT036 BKN100 27/23 Q1009
     NOSIG=
LTFJ 081250Z 01017KT 9999 BKN030 23/17 Q1011 NOSIG=
LWIS NIL=
LZKC 081300Z 36008KT 300V080 CAVOK 23/09 Q1020=
LZLU 081300Z 19004KT 9999 FEW060 25/11 Q1021=
LZNI 081300Z 33008KT 280V070 9999 FEW070 26/08 Q1021=
LZPE 081300Z 32005KT 230V360 9999 FEW056 25/09 Q1021=
LZPP 081300Z 36006KT 330V060 CAVOK 24/11 Q1021=
LZSL 081300Z 23006KT 090V260 CAVOK 27/11 Q1020=
LZZI 081300Z 04005KT 340V100 CAVOK 24/08 Q1021=
MBCH NIL=
MDHE NIL=
METAR UHHH 081300Z 04002MPS 9999 SCT033CB OVC100 16/15 Q1011
     NOSIG=
METR NIL=
MGBP NIL=
MGGG NIL=
MGTK NIL=
MH31 NIL=
MH40 NIL=
MHTR 081300Z 00000KT 9999 FEW025 BKN250 27/24 FEW080 HZ=
MMAN NIL=
MMCB NIL=
MMCP NIL=
MMCT NIL=
MMEP 081253Z 00000KT 4SM BKN003 OVC009 22/21 A2999 RMK 8/8// BR
     ARND=
MMIA 081259Z RTD 00000KT 5SM HZ BKN030 21/18 A2992 RMK 8/700=
MMIO NIL=
MMIT NIL=
MMLM NIL=
MMLO NIL=
MMLT NIL=
MMMV NIL=
MMOX NIL=
MMPA 081255Z RTD 34004KT 5SM SCT070 BKN280 26/24 A2987 RMK 8/033
     DSNT CB, TCU ALQDS=
MMPA 081250Z NIL=
MMPB 081252Z 16006KT 2SM -RA BR SCT004 BKN010 OVC100 14/14 A3021
     RMK 6//// 8/72/ VRBL CONDS=
MMPG NIL=
MMPN NIL=
MMPS 081250Z 06006KT 15SM SCT015 BKN070 OVC240 25/19 A2998 RMK
     8/263=
MMQT NIL=
MMTB NIL=
MMTG NIL=
MMVA NIL=
MNBL NIL=
MNCH NIL=
MNJG NIL=
MNJU NIL=
MNRS NIL=
MO31 NIL=
MP31 NIL=
MPB0 NIL=
MSLU NIL=
MSSA NIL=
MSSM NIL=
MTAR NIL=
MUCC NIL=
MUCF NIL=
MUHG 081250Z 20006KT 160V250 9000 FEW020 28/23 Q1015=
MZ40 NIL=
N025 NIL=
N100 NIL=
N240 NIL=
N270 NIL=
NFLB NIL=
NFTL NIL=
NGTT NIL=
NVSC NIL=
NVSL NIL=
NVSS NIL=
NVVA NIL=
NVVW NIL=
OAHR 081255Z 02011KT CAVOK 38/M02 Q1009 RMK SKC VIS MIN 9999
     BLU=
OBBC NIL=
OBBD NIL=
OBBF NIL=
OBBH NIL=
OBBJ NIL=
OBBR NIL=
OEDM NIL=
OEKJ NIL=
OIIE 081300Z 12014KT CAVOK 42/M06 Q1009 A2980 896.5 05:=
OSDZ NIL=
OSIG NIL=
OSKL 081300Z 28012KT CAVOK 41/04 Q1004=
OYAG NIL=
OYAM NIL=
OYAT NIL=
OYDM NIL=
OYHJ NIL=
OYIB NIL=
OYRN NIL=
OYSH NIL=
OYSQ 081300Z 23040G57KT 9999 FEW018 32/23 Q1005=
OYSY NIL=
P040 NIL=
P103 NIL=
P154 NIL=
PART NIL=
PCPN NIL=
PESI NIL=
PICE NIL=
PORT NIL=
PRXZ NIL=
RJBB 081300Z 23008KT 9999 FEW050 BKN/// 26/23 Q1009 NOSIG=
RJBH NIL=
RJBT NIL=
RJFS 081300Z VRB02KT 9999 FEW030 BKN/// 25/22 Q1008=
RJGG 081300Z 12005KT 9999 FEW010 BKN/// 25/23 Q1010 NOSIG=
RJNW NIL=
RJOW NIL=
RJSF NIL=
RJSR NIL=
RJSY NIL=
RKJY NIL=
RKNN NIL=
RKNR NIL=
RKPM NIL=
RKPS NIL=
RKSC NIL=
RKTI NIL=
RKTL NIL=
RKTS NIL=
ROIG NIL=
ROKJ NIL=
ROMY NIL=
RORS NIL=
ROTM 081258Z 19012KT 9999 SCT010 BKN100 BKN180 27/26 A2987 RMK
     SLP098 T02670261=
ROYN NIL=
RPLI NIL=
RTAR NIL=
RTIR NIL=
RUMS NIL=
SAAJ NIL=
SABO NIL=
SADF 081300Z 29002KT CAVOK 09/04 Q1019=
SADP NIL=
SAMM NIL=
SAMR NIL=
SANC NIL=
SANL NIL=
SAOC NIL=
SAOS NIL=
SAOU NIL=
SAPR NIL=
SAST NIL=
SATR NIL=
SAVE NIL=
SAVV NIL=
SAVY NIL=
SAWH NIL=
####018002904####
SAXX99 KWBC 081300 RRE
METAR
SAZR NIL=
SAZY NIL=
SCJO 081300Z 30004KT 9999 SCT020 BKN040 08/07 Q1012=
SKAR NIL=
SKCC 081300Z 00000KT 9999 SCT018 SCT090 25/22 A2999=
SKEJ NIL=
SKIB NIL=
SKIP NIL=
SKLC NIL=
SKMR NIL=
SKMZ NIL=
SKNV NIL=
SKPC NIL=
SKPS NIL=
SKPV NIL=
SKRH NIL=
SKUC NIL=
SKUI NIL=
SKVP NIL=
SKVV NIL=
SLAS NIL=
SLET NIL=
SLGY NIL=
SLJV NIL=
SLSB NIL=
SLSM NIL=
SLTI NIL=
SSSA NIL=
STAC NIL=
SUME NIL=
SVCP 081300Z NIL=
SVCZ NIL=
SVGD NIL=
SVJM NIL=
SVLO NIL=
SVVG 081300Z 00000KT 9999 OVC030 XX/XX Q1013=
SYGO 1300Z 10010KT 9999 BKN018 30/24 Q1012=
T016 NIL=
T020 NIL=
T100 NIL=
TAAR NIL=
TEST NIL=
THIS NIL=
TNNC NIL=
TRPG 081300Z 09015KT 9999 SCT020 29/24 Q1016 RMK SLT HZ=
TSRA NIL=
TURE NIL=
TYAR NIL=
TZAR NIL=
UACK NIL=
UBBN 081300Z 14008KT 9999 NSC 39/07 Q1007 R14R/CLRD60 NOSIG RMK
     G/O QFE681=
UDYZ NIL=
UERP NIL=
UERR NIL=
UESO NIL=
UGKO NIL=
UGSB NIL=
UGSP NIL=
UHMG NIL=
UHNN NIL=
UHSH NIL=
ULDD NIL=
ULKK NIL=
ULOL NIL=
ULOO NIL=
ULWW NIL=
UMED NIL=
UMKK NIL=
UMOO NIL=
UNBB NIL=
UNEE NIL=
UNKL NIL=
UNOO NIL=
UNWW NIL=
UOII NIL=
URML NIL=
UTAN NIL=
UTKN NIL=
UTNC NIL=
UTO2 NIL=
UTO4 NIL=
UTO7 NIL=
UTO8 NIL=
UTTP NIL=
UWLL NIL=
UWOR NIL=
V130 NIL=
V150 NIL=
V290 NIL=
VCSH NIL=
VIBR NIL=
VIJP NIL=
VILK NIL=
VTBO NIL=
VTCH NIL=
VTCL NIL=
VTCN NIL=
VTCP NIL=
VTCT NIL=
VTPB NIL=
VTPH NIL=
VTPM NIL=
VTPO NIL=
VTPP NIL=
VTPT NIL=
VTSB NIL=
VTSC NIL=
VTSE NIL=
VTSF NIL=
VTSG NIL=
VTSK NIL=
VTSM NIL=
VTSR NIL=
VTST NIL=
VTUD NIL=
VTUI NIL=
VTUJ NIL=
VTUK NIL=
VTUL NIL=
VTUO NIL=
VTUQ NIL=
VTUU NIL=
VTUV NIL=
VTUW NIL=
W016 NIL=
W020 NIL=
W090 NIL=
W250 NIL=
WADD NIL=
WALL NIL=
WARR NIL=
WBGB NIL=
WBGR NIL=
WBGS NIL=
WBGY NIL=
WBGZ NIL=
WBKL NIL=
WBKS NIL=
WBKT NIL=
WBKW NIL=
WIHH NIL=
WMAU NIL=
WMBA NIL=
WMKA NIL=
WMKB NIL=
WMKC NIL=
WMKD NIL=
WMKI NIL=
WMKL NIL=
WMKM NIL=
WMKN NIL=
WTAR NIL=
XX39 NIL=
XX99 NIL=
YAMB NIL=
YBHM NIL=
YCIN NIL=
YFRT NIL=
YMAV NIL=
YMLT NIL=
YPGV NIL=
YPKG NIL=
YPKU NIL=
YSTW 081300Z AUTO 14007KT 9999NDV // NCD 06/04 Q1024=
YSWG 081300Z AUTO 12004KT 9999NDV // NCD 04/02 Q1027=
YTEF 081300Z AUTO 01006KT //// // ////// 21/16 Q1012=
YTNK 081300Z AUTO 10008KT 9999NDV // NCD 15/11 Q1019=
YTRE 081300Z AUTO 26004KT //// // ////// 11/11 Q1026=
YWGT 081300Z AUTO 23005KT //// // ////// 02/02 Q1028=
YWHA 081300Z AUTO 06003KT 9999NDV // NCD 03/01 Q1024=
YWLM 081300Z AUTO 25007KT 9999NDV // ////// 10/10 Q1026=
ZBHH NIL=
ZBLA NIL=
ZBSJ NIL=
ZBYC NIL=
ZGHA NIL=
ZGKL NIL=
ZGOW NIL=
ZJHK NIL=
ZLXY NIL=
ZSQD NIL=
ZSTX NIL=
ZWSH NIL=
ZYCC NIL=
ZYMY NIL=
ZYTX NIL=
####018001694####
SAUS42 KWBC 081300
METAR
KAMA 081253Z 01011KT 7SM BKN005 OVC010 18/17 A3022=
KAUS 081253Z 05008KT 8SM FEW008 BKN024 OVC043 26/24 A2997=
KBPP NIL=
KBPT 081253Z 08008KT 9SM BKN009 OVC015 27/25 A2998=
KBQK 081257Z AUTO 28006KT 10SM CLR 26/23 A3002=
KBRO 081253Z 32007KT 10SM SCT005 BKN011 BKN026 26/25 A2977=
KCHA 081253Z 00000KT 10SM CLR 27/19 A3009=
KCRP 081251Z 04008KT 5SM RA BR SCT022CB BKN040 BKN049 26/25
     A2985=
KDAL 081253Z 13006KT 8SM -RA FEW009 SCT016 OVC024 26/24 A3003=
KDRT 081253Z AUTO 00000KT 8SM OVC015 24/23 A2997=
KELP 081251Z 04009KT 10SM FEW035 SCT060 SCT110 22/15 A3014=
KEYW 081253Z 04005KT 10SM SCT085 29/24 A2996=
KFPR 081253Z 06006KT 10SM SCT040 28/21 A2999=
KFTW 081253Z 13004KT 10SM BKN011 OVC016 25/23 A3002=
KFTY 081253Z 00000KT 8SM CLR 27/19 A3006=
KFXE 081253Z 07008KT 10SM SCT023 29/23 A2996=
KGLE NIL=
KGLS 081252Z 10012KT 10SM -RA FEW026 SCT095 26/23 A2994=
KGPT 081253Z 01004KT 10SM CLR 28/25 A3004=
KHOU 081253Z 08006KT 9SM -RA FEW010 BKN090 OVC110 24/22 A2995=
KHRL 081252Z 35011KT 10SM FEW021 BKN031 BKN040 26/26 A2977=
KHSV 081253Z 04005KT 10SM FEW250 30/22 A3009=
KLCH 081253Z 07007KT 9SM BKN006 OVC021 26/24 A3000=
KLGC 081255Z AUTO 00000KT 10SM CLR 27/27 A3006=
KLRD 081256Z 03009KT 9SM FEW008 BKN044 27/24 A2991=
KMAF 081253Z 03008KT 10SM BKN005 OVC013 21/20 A3012=
KMFE 081253Z 34009KT 10SM BKN008 BKN033 BKN041 26/24 A2980=
KMOB 081256Z 00000KT 10SM SCT020 28/24 A3006=
KNEW 081253Z 07009KT 10SM SCT017 28/26 A3004=
KOPF 081253Z 06009KT 10SM FEW023 29/24 A2996=
KOPN 081300Z AUTO 27004KT 10SM CLR 29/24 A3006=
KPDK 081253Z 02003KT 10SM CLR 28/18 A3006=
KPFN NIL=
KPGL NIL=
####018000182####
SAUS42 KWBC 081300 CCA
METAR
KBTR 081253Z 06006KT 6SM BR BKN003 OVC007 25/24 A3004=
KMGM 081253Z 33003KT 10SM CLR 28/22 A3004=
KTYS 081253Z 00000KT 6SM HZ CLR 27/19 A3009=
####018000501####
SAUS42 KWBC 081300 RRA
METAR
KPIE 081253Z 06004KT 10SM FEW033 26/22 A3001=
KPNS 081253Z 00000KT 10SM CLR 27/24 A3004=
KQAO NIL=
KRSW 081253Z 03006KT 10SM CLR 27/22 A2999=
KSAT 081253Z 04006KT 8SM BKN013 BKN060 OVC250 26/24 A2995=
KSAV 081253Z 29007KT 10SM CLR 27/20 A3000=
KSHV 081256Z 15003KT 10SM BKN090 BKN280 25/24 A3005=
KSSI 081253Z AUTO 25005KT 10SM CLR 26/21 A3001=
KTMB 081253Z 05004KT 10SM CLR 29/25 A2996=
KTUL 081253Z 35005KT 10SM FEW015 SCT030 BKN080 23/23 A3003=
####018000766####
SACI31 ZBBB 081300
METAR ZBAA 081300Z 18005MPS CAVOK 30/16 Q1005 NOSIG=
METAR ZBSJ 081300Z 15002MPS 8000 NSC 28/20 Q1005 NOSIG=
METAR ZBTJ 081300Z 14003MPS CAVOK 26/17 Q1006 NOSIG=
METAR ZBYN 081300Z 09006MPS CAVOK 27/15 Q1009 NOSIG=
METAR ZGGG 081300Z 16003MPS 9999 SCT033 32/25 Q1006 NOSIG=
METAR ZSHC 081300Z VRB02MPS 5000 BR SCT026 26/24 Q1005 NOSIG=
METAR ZSPD 081300Z 11005MPS 9999 BKN009 27/24 Q1006 NOSIG=
METAR ZSSS 081300Z 12004G09MPS 080V150 9999 BKN015 27/23 Q1005 BECMG
 BKN011
 OVC040=
METAR ZWSH 081300Z 19003MPS CAVOK 32/M00 Q1012 NOSIG=
METAR ZWWW 081300Z 21004MPS 9999 FEW033CB 31/08 Q1011 NOSIG=
METAR ZYTL 081300Z 34004MPS 5000 BR SCT033 23/20 Q1008 NOSIG=
METAR ZYTX 081300Z VRB01MPS 9999 FEW030 20/18 Q1007 NOSIG=
####018000083####
SAZW40 FVHA 081300 RRA
METAR  FVHA 081300Z 10010KT CAVOK 20/02 Q1028 NOSIG=

####018001697####
SAUS43 KWBC 081300
METAR
K12C NIL=
K1H2 NIL=
KAAA NIL=
KAPN 081254Z VRB03KT 4SM -RA BR SCT035 BKN048 OVC060 23/21
     A3001=
KAZO 081253Z VRB03KT 5SM HZ CLR 26/21 A3004=
KBDE 081253Z AUTO 25004KT 10SM CLR 17/13 A3001=
KBTL 081253Z 00000KT 10SM CLR 26/21 A3006=
KBTM 081253Z AUTO 00000KT 10SM CLR 06/01 A3033=
KC09 NIL=
KC75 NIL=
KCGX NIL=
KCIU 081255Z AUTO 32006KT 9SM BKN005 OVC009 20/18 A2999=
KCMX 081253Z AUTO 30003KT 10SM SCT110 21/16 A3000=
KCOS 081254Z 11004KT 10SM CLR 13/12 A3036=
KCPR 081253Z 33003KT 10SM CLR 07/06 A3035=
KDET 081253Z AUTO 23004KT 10SM CLR 29/21 A3003=
KDKB NIL=
KDLH 081255Z 28007KT 10SM CLR 20/14 A3006=
KDNV NIL=
KDSM 081254Z 34008KT 10SM FEW009 BKN250 22/19 A3011=
KELO 081253Z AUTO 24006KT 10SM CLR 18/15 A3002=
KENL NIL=
KFAR 081253Z 23005KT 10SM CLR 18/13 A3008=
KFEP NIL=
KFNT 081253Z AUTO 00000KT 9SM CLR 27/21 A3004=
KFOA NIL=
KFWC NIL=
KGBG NIL=
KGFK 081253Z 31006KT 10SM FEW080 18/14 A3006=
KGRB 081253Z 30004KT 3SM BR OVC004 22/21 A3001=
KGRM NIL=
KGRR 081253Z 00000KT 2 1/2SM BR FEW006 SCT050 OVC130 24/22
     A3004=
KHSB NIL=
KICT 081253Z 36008KT 10SM BKN008 BKN080 BKN120 23/21 A3011=
KIGQ NIL=
KIJX NIL=
KIKK NIL=
KINL 081255Z AUTO 26006KT 10SM CLR 17/14 A3001=
KISN NIL=
KJOT NIL=
KLEX 081254Z 17003KT 4SM HZ CLR 27/20 A3010=
KLOT NIL=
KMBS 081253Z 26005KT 10SM SCT110 24/22 A3003=
KMDW 081251Z 00000KT 4SM -RA BR FEW007 BKN039 OVC050 24/22
     A3003=
KMKC 081254Z 36003KT 10SM OVC008 23/21 A3009=
KMKE 081252Z 26006KT 10SM BKN019 OVC080 23/21 A3002=
KMLI 081252Z 30006KT 9SM BKN011 24/22 A3004=
KMOT 081254Z 23005KT 10SM FEW080 16/12 A3012=
####018000777####
SAUS43 KWBC 081300 RRA
METAR
KMQB NIL=
KMQT NIL=
KMWA 081253Z 23005KT 15SM BKN070 BKN250 27/24 A3007=
KOLY NIL=
KOMA 081252Z 35007KT 10SM FEW005 SCT022 BKN250 20/19 A3016=
KPHN 081255Z AUTO 19004KT 10SM CLR 27/21 A3002=
KPIA 081254Z 30004KT 10SM OVC006 23/22 A3005=
KPNT NIL=
KPPQ NIL=
KPRG NIL=
KPTK 081253Z 30005KT 9SM FEW150 SCT240 28/21 A3004=
KPUB 081253Z 00000KT 10SM CLR 15/13 A3031=
KRAD NIL=
KSAR NIL=
KSAW 081250Z 31003KT 10SM SCT015 20/18 A2999=
KSDF 081256Z 12003KT 5SM HZ FEW100 28/21 A3007=
KSGF 081252Z 17003KT 9SM OVC007 23/23 A3008=
KSLO NIL=
KSTP 081253Z 31006KT 10SM CLR 21/16 A3011=
KSUS 081254Z 24003KT 10SM -RA OVC024 24/23 A3005=
KTAZ NIL=
KTIP NIL=
KTOL 081252Z 23005KT 8SM CLR 27/20 A3005=
KVYS NIL=
####018000086####
SAIR31 OIII 081300 RRB
METAR OIII 081300Z 12006KT CAVOK 40/M04 Q1012 A2989 877.5=
####018000114####
SAFP20 LFVP 081300
METAR
METAR LFVP 081300Z 10005KT 0600 R26/0800V1400D FG OVC002 12/12
Q1022 NOSIG=
/=
####018000083####
SPUS72 KWBC 081306
SPECI
KACT 081304Z 06005KT 8SM BKN014 OVC020 26/23 A3001=
####018001651####
SAUS44 KWBC 081300
METAR
K11R NIL=
KBFI 081253Z 00000KT 10SM CLR 18/12 A2995=
KBIL 081253Z 23005KT 10SM FEW120 13/06 A3026=
KBKE 081253Z AUTO 00000KT 10SM CLR 06/06 A3013=
KBLI 081253Z AUTO 00000KT 10SM CLR 14/13 A2997=
KBOI 081253Z 14004KT 10SM CLR 17/06 A3008=
KBPG NIL=
KBYY NIL=
KCLM 081253Z AUTO A2999=
KCTB 081256Z AUTO 28005KT 10SM CLR 09/06 A3023=
KCXL NIL=
KDUG 081256Z AUTO 09005KT 10SM CLR 24/12 A3008=
KEKA NIL=
KFAT 081253Z 31009KT 10SM CLR 19/09 A2984=
KGDV 081255Z AUTO 18003KT 10SM CLR 14/09 A3018=
KGEG 081253Z 04006KT 10SM CLR 16/08 A3008=
KGGW 081253Z AUTO 29004KT 10SM CLR 13/09 A3017=
KGLH 081253Z 00000KT 10SM CLR 26/24 A3007=
KGPI 081255Z AUTO 36005KT 10SM CLR 13/08 A3019=
KGTF 081253Z 22004KT 10SM CLR 11/07 A3023=
KGWO 081253Z AUTO 06003KT 10SM CLR 26/23 A3007=
KHLN 081253Z 00000KT 10SM CLR 10/04 A3026=
KHQM 081253Z AUTO 27004KT 1/2SM FG 13/12 A2996=
KHVR 081253Z AUTO 24003KT 10SM CLR 10/09 A3021=
KIPL 081253Z AUTO 00000KT 9SM CLR 23/15 A2971=
KLBB 081253Z 06006KT 10SM FEW040 SCT055 BKN110 BKN250 20/17
     A3016=
KMSO 081253Z 12004KT 10SM CLR 11/07 A3022=
KMWH 081252Z AUTO 01005KT 10SM CLR 14/07 A3003=
KNOW NIL=
KNUW 081256Z 00000KT 10SM CLR 16/10 A2997=
KOLF 081253Z AUTO 00000KT 10SM CLR 13/09 A3017=
KOLM 081254Z AUTO 00000KT 10SM CLR 12/10 A2996=
KOLS 081254Z AUTO VRB03KT 10SM CLR 24/09 A3000=
KOLV 081250Z 00000KT 7SM FEW250 27/26 A3009=
KPAE 081253Z AUTO 00000KT 10SM CLR 18/12 A2998=
KPDX 081253Z 28003KT 10SM FEW080 17/13 A2991=
KPMD 081253Z 17003KT 10SM CLR 15/02 A2992=
KRNO 081255Z 00000KT 10SM SCT120 BKN160 19/06 A3006=
####018000543####
SAUS44 KWBC 081300 RRA
METAR
KRNT 081253Z AUTO 00000KT 9SM CLR 16/13 A2995=
KSAC 081253Z 18003KT 10SM CLR 13/10 A2985=
KSCK 081255Z AUTO 36003KT 10SM CLR 12/11 A2985=
KSDM 081253Z AUTO 00000KT 10SM OVC010 16/13 A2991=
KSFF 081253Z 00000KT 10SM CLR 13/11 A3008=
KSJC 081253Z 00000KT 7SM FEW008 BKN011 OVC013 15/12 A2992=
KSLC 081253Z 00000KT 10SM FEW090 BKN130 18/08 A3011=
KSMF 081253Z 15008KT 10SM CLR 13/11 A2984=
KTIW 081253Z AUTO 00000KT 10SM CLR 18/12 A2996=
KTUS 081253Z 15005KT 10SM CLR 28/10 A2993=
KYUM NIL=
####018000788####
SACI32 ZBBB 081300
METAR ZGKL 081300Z VRB01MPS CAVOK 31/25 Q1004 NOSIG=
METAR ZGNN 081300Z 13003MPS CAVOK 30/25 Q1004 NOSIG=
METAR ZGOW 081300Z 19005MPS 9999 FEW020 29/26 Q1008 NOSIG=
METAR ZGSZ 081300Z 17006MPS 9999 FEW020 30/25 Q1007 NOSIG=
METAR ZLXY 081300Z 08002MPS 040V120 2000 BR SCT030 OVC050 23/21
 Q1008 NOSIG=
METAR ZMUB 081300Z 15011MPS 9999 SCT030CB SCT033 16/11 Q1007 NOSIG
 RMK QFE648.8
 74=
METAR ZPPP 081300Z 19004MPS 9999 FEW026 BKN050 22/16 Q1015 NOSIG=
METAR ZSAM 081300Z 19003MPS CAVOK 30/24 Q1007 NOSIG=
METAR ZSFZ 081300Z 21006MPS 9999 SCT020 28/24 Q1006 NOSIG=
METAR ZSNB 081300Z 15003MPS 8000 -SHRA SCT030 24/24 Q1005 NOSIG=
METAR ZSQD 081300Z 16003MPS CAVOK 23/19 Q1008 NOSIG=
METAR ZUUU 081300Z VRB01MPS CAVOK 28/25 Q1003 NOSIG=
####018001673####
SAEW KAWN 081300 RRF
METAR ETIH 081255Z AUTO VRB03KT 9999 CLR 25/09 A3021 RMK AO2 SLP219
      T02540089=
METAR LFKS 081300Z AUTO 11005KT 050V170 9999NDV NSC 30/23 Q1020=
METAR LFLD 081300Z VRB04KT CAVOK 33/08 Q1018=
METAR LFLM 081300Z 15005KT 060V230 CAVOK 31/13 Q1020=
METAR LFLN 081300Z AUTO VRB03KT 9999NDV NSC 32/13 Q1019=
METAR LFLQ 081300Z 16008KT 100V220 CAVOK 35/10 Q1019=
METAR LFLV 081300Z VRB02KT CAVOK 33/12 Q1019=
METAR LFLW 081300Z VRB05KT CAVOK 31/07 Q1022=
METAR LFMC 081300Z 12008KT 080V170 9999 FEW040 33/18 Q1020=
METAR LFOA 081300Z AUTO VRB03KT 9999NDV NSC 32/13 Q1019=
METAR LFOC 081300Z AUTO VRB05KT 9999NDV NSC 33/08 Q1018=
METAR LFOF 081300Z VRB03KT CAVOK 31/11 Q1018 NOSIG=
METAR LFOI 081300Z 29006KT 220V340 CAVOK 28/14 Q1018=
METAR LFOJ 081300Z 21006KT 180V270 CAVOK 32/13 Q1018=
METAR LFOR 081300Z VRB05KT CAVOK 33/08 Q1018=
METAR LFOW 081300Z VRB06KT CAVOK 30/11 Q1018=
METAR LFPV 081300Z AUTO 23004KT 140V300 9999NDV NSC 30/09 Q1019=
METAR LFQG 081300Z VRB05KT CAVOK 31/14 Q1019=
METAR LFQI 081300Z VRB06KT CAVOK 31/11 Q1018=
METAR LFRH 081300Z 26011KT CAVOK 23/15 Q1019=
METAR LFRI 081300Z VRB06KT CAVOK 33/09 Q1018 NOSIG=
METAR LFRJ 081300Z AUTO 33005KT 260V010 9999NDV FEW025/// SCT034///
      24/17 Q1019=
METAR LFRT 081300Z 05006KT 010V120 CAVOK 22/15 Q1019=
METAR LFSF 081300Z AUTO 13003KT 040V190 9999NDV NSC 32/09 Q1019=
METAR LFSI 081300Z AUTO 12005KT 060V170 9999NDV NSC 32/09 Q1019=
METAR LFSO 081300Z AUTO VRB04KT 9999NDV NSC 31/11 Q1020=
METAR LFSR 081300Z AUTO VRB02KT 9999NDV NSC 32/10 Q1018=
METAR LFTW 081300Z AUTO 18007KT 130V230 9999NDV ///////// 32/15 Q1020=
####018000217####
SPUS17 KAWN 081306
SPECI KGUS 081300Z AUTO 22004KT 10SM BKN055 25/23 A3005 RMK AO2 RAE1300
      SLP169 $=
SPECI KHST 081259Z AUTO 07008KT 10SM SCT021 SCT026 30/25 A2996 RMK
      AO2 SCT026 V BKN SLP148 $=
####018001646####
SAEU KAWN 081300 RRP
METAR ETIH 081255Z AUTO VRB03KT 9999 CLR 25/09 A3021 RMK AO2 SLP219
      T02540089=
METAR LEGT 081300Z 14009KT CAVOK 30/14 Q1019=
METAR LERI 081300Z 07012KT 020V120 CAVOK 34/21 Q1018 NOSIG=
METAR LFCG 081300Z 12006KT 070V150 CAVOK 34/18 Q1018=
METAR LFDB 081300Z 12006KT 090V150 CAVOK 34/14 Q1017=
METAR LFLD 081300Z VRB04KT CAVOK 33/08 Q1018=
METAR LFLM 081300Z 15005KT 060V230 CAVOK 31/13 Q1020=
METAR LFLN 081300Z AUTO VRB03KT 9999NDV NSC 32/13 Q1019=
METAR LFLQ 081300Z 16008KT 100V220 CAVOK 35/10 Q1019=
METAR LFLV 081300Z VRB02KT CAVOK 33/12 Q1019=
METAR LFLW 081300Z VRB05KT CAVOK 31/07 Q1022=
METAR LFMC 081300Z 12008KT 080V170 9999 FEW040 33/18 Q1020=
METAR LFOA 081300Z AUTO VRB03KT 9999NDV NSC 32/13 Q1019=
METAR LFOF 081300Z VRB03KT CAVOK 31/11 Q1018 NOSIG=
METAR LFOI 081300Z 29006KT 220V340 CAVOK 28/14 Q1018=
METAR LFOR 081300Z VRB05KT CAVOK 33/08 Q1018=
METAR LFOW 081300Z VRB06KT CAVOK 30/11 Q1018=
METAR LFQG 081300Z VRB05KT CAVOK 31/14 Q1019=
METAR LFRH 081300Z 26011KT CAVOK 23/15 Q1019=
METAR LFRI 081300Z VRB06KT CAVOK 33/09 Q1018 NOSIG=
METAR LFRJ 081300Z AUTO 33005KT 260V010 9999NDV FEW025/// SCT034///
      24/17 Q1019=
METAR LFRT 081300Z 05006KT 010V120 CAVOK 22/15 Q1019=
METAR LFSF 081300Z AUTO 13003KT 040V190 9999NDV NSC 32/09 Q1019=
METAR LFSI 081300Z AUTO 12005KT 060V170 9999NDV NSC 32/09 Q1019=
METAR LFSO 081300Z AUTO VRB04KT 9999NDV NSC 31/11 Q1020=
METAR LFSR 081300Z AUTO VRB02KT 9999NDV NSC 32/10 Q1018=
METAR LFTW 081300Z AUTO 18007KT 130V230 9999NDV ///////// 32/15 Q1020=
METAR LFXA 081300Z VRB05KT CAVOK 33/13 Q1020=
####018000496####
SAUS17 KAWN 081300 RRD
METAR K79J 081256Z AUTO 00000KT 10SM CLR 28/22 A3003 RMK AO2 SLP165
      T02780222 TSNO $=
METAR K79J 081256Z AUTO 00000KT 10SM CLR 28/22 A3003 RMK AO2 SLP165
      T02780222 TSNO $=
METAR KHRT 081255Z 00000KT 10SM CLR 27/26 A3003 RMK AO2A SLP170 T02660261
      $=
METAR KNJM 081257Z AUTO 01005KT 7SM FEW014 29/24 A2994 RMK AO2 SLP143
      T02890244 $=
METAR PABA 081301Z AUTO 28014KT 10SM BKN042 OVC055 07/04 A3001 RMK
      AO2 SLP162 T00720044=
####018000194####
SPNA35 KAWN 081306
SPECI KBRO 081301Z 32008KT 10SM SCT005 BKN026 26/25 A2977 RMK AO2=
SPECI KHST 081259Z AUTO 07008KT 10SM SCT021 SCT026 30/25 A2996 RMK
      AO2 SCT026 V BKN SLP148 $=
####018000343####
SAPO32 LPMG 081300
METAR LPAZ 081300Z 25006KT 9999 BKN016 BKN030 21/20 Q1025=
METAR LPFL 081300Z 20007KT 150V240 9999 FEW023TCU BKN040 24/17 Q1022=
METAR LPHR 081300Z 22007KT 9999 SCT013 BKN035 23/18 Q1023=
METAR LPLA 081300Z 17007KT 9999 -SHRA SCT013 BKN028 21/19 Q1024=
METAR LPPD 081300Z 24006KT 9999 FEW020 BKN030 20/16 Q1024=
####018000088####
SPUS74 KWBC 081306
SPECI
KCEC 081303Z AUTO 00000KT 2 1/2SM BR OVC001 10/09 A2998=
####018001154####
SAUS51 KWBC 081300
METAR
K40B NIL=
KACY 081254Z 10006KT 6SM -RA BR SCT013 BKN020 24/22 A3006=
KAUG 081253Z AUTO 19003KT 5SM BR OVC005 22/20 A3011=
KAVL 081254Z 36004KT 7SM CLR 24/18 A3015=
KBGM 081253Z 00000KT 5SM HZ CLR 26/20 A3013=
KBKW 081251Z AUTO 00000KT 5SM HZ CLR 24/19 A3018=
KCBE NIL=
KCHH NIL=
KCON 081251Z AUTO 14004KT 4SM HZ OVC010 24/22 A3009=
KDCA 081252Z 07003KT 4SM HZ FEW060 SCT110 SCT250 29/22 A3002=
KEKN 081251Z AUTO 00000KT 4SM HZ CLR 22/18 A3017=
KESN 081253Z 13005KT 5SM BR SKC 27/24 A3006=
KGFL 081253Z AUTO 18003KT 5SM HZ FEW090 27/22 A3004=
KGSP 081253Z 00000KT 10SM CLR 28/19 A3004=
KHAT NIL=
KHSS NIL=
KIPJ 081300Z AUTO 00000KT 10SM CLR 27/19 A3004=
KIPT 081254Z 25004KT 7SM CLR 25/18 A3006=
KLYH 081254Z 36005KT 6SM HZ CLR 29/19 A3006=
KMHT 081253Z 20005KT 5SM HZ BKN014 26/22 A3007=
KMPV 081251Z AUTO 00000KT 5SM HZ CLR 26/22 A3011=
KMWN NIL=
KMYR NIL=
KNYC 081251Z AUTO VRB04KT 5SM HZ BKN011 BKN020 26/23 A3008=
KPNE 081254Z 13005KT 2 1/2SM HZ OVC006 26/23 A3006=
KROA 081254Z 01004KT 6SM HZ FEW085 29/18 A3010=
KSMQ 081253Z AUTO 00000KT 4SM HZ FEW014 26/23 A3003=
####018000095####
SAUS51 KWBC 081300 CCA
METAR
KWAL 081254Z 09008KT 10SM BKN011 BKN120 OVC250 26/22 A3002=
####018000183####
SAAK41 KNKA 081306
SPECI PAHC 081304Z AUTO 00000KT 1/2SM FG CLR 07/07 A2998 RMK AO2 
    TSNO $=
SPECI PPIZ 081303Z AUTO 21010KT 2SM HZ CLR 06/02 A3008 RMK AO2 TSNO 
    $=
####018000079####
SAIR34 OIII 081300 RRA
METAR OITZ 081300Z 09014KT CAVOK 37/00 Q1014 A2996=
####018001677####
SAUS52 KWBC 081300
METAR
K3R1 NIL=
KAAF 081253Z AUTO 01007KT 10SM CLR 28/24 A3003=
KABR 081253Z AUTO 27003KT 10SM CLR 19/15 A3014=
KACT 081251Z 04005KT 9SM FEW010 BKN016 OVC021 26/24 A3001=
KAGS 081253Z 31004KT 10SM CLR 31/20 A3000=
KAHN 081251Z 31003KT 7SM CLR 26/21 A3005=
KALI 081253Z AUTO 03008KT 10SM -RA BKN006 BKN015 OVC027 25/24
     A2985=
KAUS 081253Z 05008KT 8SM FEW008 BKN024 OVC043 26/24 A2997=
KAYS 081300Z AUTO 27008KT 10SM CLR 26/23 A3003=
KBVE NIL=
KCAO 081255Z AUTO 35009KT 10SM CLR 16/13 A3030=
KCDS 081253Z AUTO 04006KT 10SM CLR 23/21 A3011=
KCKL NIL=
KCLL 081253Z 06008KT 7SM OVC007 26/23 A2997=
KCNM 081253Z AUTO 33009KT 9SM -RA OVC013 19/18 A3015=
KCOT 081253Z AUTO 03005KT 10SM -RA FEW017 BKN034 OVC060 25/23
     A2990=
KCSG 081251Z 00000KT 10SM CLR 27/20 A3004=
KCTY 081253Z AUTO VRB03KT 25/23 A3002=
KDHT 081253Z AUTO 36010KT 10SM OVC007 18/17 A3025=
KECP 081253Z 32004KT 10SM CLR 27/24 A3003=
KELD 081253Z AUTO 00000KT 7SM CLR 24/24 A3006=
KELP 081251Z 04009KT 10SM FEW035 SCT060 SCT110 22/15 A3014=
KESF 081253Z AUTO 08003KT 10SM CLR 26/24 A3005=
KFCL NIL=
KFSM 081253Z 09003KT 10SM CLR 26/23 A3005=
KFYV 081253Z 00000KT 10SM BKN018 OVC024 23/22 A3009=
KGAG 081253Z AUTO 36007KT 10SM -RA OVC009 21/19 A3016=
KGDP 081251Z AUTO 05020KT 10SM FEW042 OVC110 17/16 A3024=
KHBR 081253Z AUTO 05005KT 3SM -RA BR OVC008 23/22 A3010=
KHDO 081251Z AUTO 01006KT 10SM CLR 25/23 A2997=
KHOT 081253Z AUTO 00000KT 9SM OVC012 25/23 A3009=
KHRO 081253Z AUTO 15003KT 10SM SCT046 BKN100 24/22 A3011=
KINK 081253Z AUTO 02006KT 10SM OVC023 22/20 A3010=
KIPT 081254Z 25004KT 7SM CLR 25/18 A3006=
####018000417####
SAMG20 FMMI 081300
METAR FMNA 081300Z 12023KT 9999 SCT020 SCT040 25/18 Q1016=
METAR FMNM 081300Z 16008KT CAVOK 31/13 Q1015=
METAR FMMI 081300Z 10008KT 080V150 9999 BKN020 SCT023 17/13 Q1025
 NOSIG=
METAR FMMT 081300Z 20014KT 9999 VCSH SCT017 BKN033 23/21 Q1021=
METAR FMSD 081300Z 08014KT 8000 VCSH SCT017 BKN033 20/18 Q1025=
METAR FMCH 081300Z 21010KT 170V240 9999 FEW025 SCT030 28/19 Q1018
NOSIG=
####018001123####
SAIY41 LIIB 081300
METAR LIMH 081255Z 08002KT 9999 SCT000TCU 07/M01 Q1040 RMK SCT MON
      CLD SCT VAL S CLD SCT VIS MIN 9999=
METAR LIMT 081255Z /////KT 9999 16/12 Q1024 RMK OVC MON LIB VAL NIL
      VIS MIN 9999=
METAR LIMU 081255Z 11006KT 9999 FEW026 30/22 Q1020 RMK BKN BKN070 QUK
      2 QUL 1 S VIS MAR 15 KM VIS MIN 9999=
METAR LIMV 081255Z 34009KT 7000 SCT012 25/19 Q1022 RMK SCT MON LIB
      CUF VAL FOSCHIA VIS MIN 7000=
METAR LIMY 081255Z /////KT 9000 SCT026 23/16 Q1023 RMK BKN VAL
      FOSCHIA VIS MIN 9000=
METAR LIVD 081255Z 00000KT CAVOK 24/08 Q1023 RMK SKC VIS MIN 9999=
METAR LIVE 081300Z NIL=
METAR LIVF 081255Z 05004KT CAVOK 27/07 Q1022 RMK SKC MON LIB VAL NIL
      VIS MIN 9999=
METAR LIVM 081255Z 13009KT CAVOK 28/21 Q1021 RMK SKC QUK 2 QUL 1 SE
      VIS MAR 30 KM VIS MIN 9999=
METAR LIVO 081255Z 01003KT 9999 FEW040 26/12 Q1021 RMK FEW VIS MIN
      9999=
METAR LIVR 081255Z /////KT 9999 FEW030 17/14 Q1028 RMK FEW MON LCLD
      CIME VIS MIN 9999=
METAR LIVT 081255Z 26002KT CAVOK 25/15 Q1021 RMK SKC QUK 1 QUL 0 VIS
      MAR 20 KM VIS MIN 9999=
####018001714####
SAIY42 LIIB 081300
METAR LIBF 081250Z 32018KT CAVOK 28/06 Q1019 RMK VIS MIN 9999=
METAR LIEA 081250Z 21007KT 170V330 9999 FEW025 33/19 Q1019 RMK VIS
MIN 9999=
METAR LIED 081300Z NIL=
METAR LIEO 081250Z 05012KT CAVOK 30/20 Q1019 RMK VIS MIN 9999=
METAR LIMA 081250Z VRB03KT CAVOK 26/16 Q1022 RMK VIS MIN 9999=
METAR LIQN 081250Z 32008KT 9999 FEW045 29/17 Q1021 RMK VIS MIN 9999=
METAR LIQO 081255Z 20005KT 9999 SCT003 29/22 Q1022 RMK SCT VAL NIL NC
      VIS MIN 9999=
METAR LIQW 081300Z NIL=
METAR LIRE 081255Z 24010KT 9999 FEW020 28/20 Q1019 RMK FEW VIS MIN
      9999 WIND THR31 24009KT BLU=
METAR LIRG 081255Z 25010KT 9999 SCT033TCU 31/20 Q1019 RMK SCT MON
     NE LIB NC VIS MIN 9999 BLU=
METAR LIRH 081255Z 28005KT 9999 FEW030 SCT035 FEW040CB 30/20 Q1019
      RMK BKN MON LIB NC VIS MIN 9999 WIND THR16 28006KT BLU=
METAR LIRI 081250Z 03008KT CAVOK 30/12 Q1018 RMK VIS MIN 9999=
METAR LIRK 081255Z 12006KT CAVOK 16/15 Q1027 RMK BKN BKN060 MON NE
      LIB NC VAL NIL NC VIS MIN 9999=
METAR LIRL 081255Z 25008KT 9999 FEW020 30/17 Q1019 RMK FEW MON LIB NC
      VIS MIN 9999 BLU=
METAR LIRM 081255Z 12010KT 9999 FEW016 30/14 Q1019 RMK FEW VIS MIN
      9999 WIND THR06 06005KT BLU=
METAR LIRS 081255Z 23012KT 9999 FEW040 30/21 Q1019 RMK FEW VIS MIN
      9999 WIND THR21 /////KT BLU=
METAR LIRT 081255Z 36009KT CAVOK 18/05 Q1023 RMK SKC MON LIB VAL NIL
      VIS MIN 9999=
METAR LIRU 081250Z 23007KT 9999 SCT040 30/17 Q1020 RMK VIS MIN 9999=
METAR LIRV 081255Z 27013KT 9999 SCT028 29/22 Q1020 RMK SCT MON E SE
      LIB NC VIS MIN 9999 BLU=
METAR LIRX 081300Z NIL=
METAR LIRZ 081250Z 02010KT 330V060 9999 FEW040 31/11 Q1020 RMK VIS
MIN 9999=
####018000433####
SAMG20 FMMI 081300
METAR 081300Z
METAR FMNA 081300Z 12023KT 9999 SCT020 SCT040 25/18 Q1016=
METAR FMNM 081300Z 16008KT CAVOK 31/13 Q1015=
METAR FMMI 081300Z 10008KT 080V150 9999 BKN020 SCT023 17/13 Q1025
 NOSIG=
METAR FMMT 081300Z 20014KT 9999 VCSH SCT017 BKN033 23/21 Q1021=
METAR FMSD 081300Z 08014KT 8000 VCSH SCT017 BKN033 20/18 Q1025=
METAR FMCH 081300Z 21010KT 170V240 9999 FEW025 SCT030 28/19 Q1018
NOSIG=
####018001757####
SAIY40 LIIB 081300
METAR LIMG 081250Z 06007KT 9999 FEW060 30/25 Q1020 RMK VIS MIN 9999=
METAR LIMK 081255Z 00000KT CAVOK 21/12 Q1023 RMK SKC VAL NIL VIS MIN
      9999=
METAR LIMN 081255Z /////KT 9999 FEW030 28/17 Q1021 RMK FEW VIS MIN
      9999 BLU=
METAR LIMP 081250Z 07006KT 040V100 CAVOK 29/14 Q1021 RMK VIS MIN
9999=
METAR LIMS 081255Z 13003KT CAVOK 30/15 Q1020 RMK SKC VIS MIN 9999
      WIND THR30 13005KT BLU=
METAR LIMZ 081250Z 32005KT 8000 FEW035 SCT060 25/18 Q1023 RMK VIS
MIN 8000=
METAR LIPA 081255Z 22008KT 9999 FEW050 26/18 Q1021 RMK FEW VIS MIN
      9999 A3017 BLU=
METAR LIPB 081250Z 18013KT CAVOK 30/12 Q1019 RMK MON LIB VIS MIN
9999=
METAR LIPC 081300Z NIL=
METAR LIPF 081255Z 19004KT 9999 FEW035 29/20 Q1021 RMK FEW VIS MIN
      9999=
METAR LIPH 081245Z 13004KT 9999 SCT025 27/20 Q1022 RMK SCT VIS MIN
      9999 WIND THR07 /////KT BLU=
METAR LIPI 081255Z 19008KT CAVOK 27/19 Q1022 RMK SKC VIS MIN 9999 WIND THR06 19007KT BLU=
METAR LIPL 081255Z 06002KT 9999 FEW036 29/17 Q1021 RMK FEW VIS MIN
      9999 BLU=
METAR LIPO 081250Z 24005KT 100V260 9999 FEW050 29/12 Q1020 RMK VIS
MIN 9999=
METAR LIPQ 081250Z 28004KT CAVOK 27/14 Q1022=
METAR LIPR 081245Z 08011KT CAVOK 28/19 Q1021 RMK SKC VIS MIN 9999
      WIND THR31 08012KT BLU=
METAR LIPS 081255Z 00000KT 9999 SCT030 28/17 Q1021 RMK SCT VIS MIN
      9999 BLU=
METAR LIPX 081245Z 20005KT 9999 FEW040 30/14 Q1021 RMK FEW VIS MIN
      9999 BLU=
METAR LIPY 081250Z 06008KT 020V100 CAVOK 27/13 Q1021 RMK VIS MIN
9999=
METAR LIVC 081255Z 00000KT 9999 SCT001 16/11 Q1031 RMK SCT MON LIB
      VAL NIL VIS MIN 9999=
METAR LIVP 081255Z VRB03KT 9999 FEW003 15/11 Q1029 RMK FEW MON LIB
      VAL NIL VIS MIN 9999=
####018000225####
SAUS52 KWBC 081300 CCA
METAR
KDAB 081253Z 33003KT 10SM FEW024 SCT250 27/21 A3002=
KMCN 081253Z 30005KT 10SM CLR 27/20 A3003=
KTRI 081253Z 00000KT 6SM HZ CLR 25/20 A3013=
KTUP 081253Z 05005KT 10SM CLR 27/22 A3008=
####018001349####
SAUS52 KWBC 081300 RRA
METAR
KJAN 081254Z 00000KT 10SM CLR 26/23 A3007=
KJBR 081253Z AUTO 23005KT 10SM CLR 27/22 A3007=
KJCT 081251Z AUTO 00000KT 6SM BR FEW004 BKN026 23/22 A3003=
KJQF 081255Z 36005KT 10SM SCT100 29/17 A3002=
KLFK 081253Z AUTO 09007KT 10SM FEW010 27/24 A3002=
KLFT 081253Z 00000KT 10SM OVC004 26/24 A3003=
KMEI 081258Z 33006KT 10SM CLR 26/23 A3007=
KMLC 081253Z AUTO 18003KT 10SM BKN009 BKN021 OVC031 24/23
     A3005=
KMLU 081253Z 09004KT 10SM CLR 26/24 A3008=
KMWL 081253Z AUTO 12006KT 10SM SCT022 BKN031 24/23 A3003=
KPBF 081253Z AUTO 00000KT 10SM CLR 26/23 A3008=
KPNC 081253Z AUTO 00000KT 8SM OVC028 23/22 A3007=
KPSX 081253Z AUTO 10014G22KT 6SM RA BR CLR 26/24 A2988=
KPWA 081253Z 34004KT 7SM CLR 23/21 A3007=
KQAO NIL=
KRMG 081253Z AUTO 00000KT 10SM CLR 26/19 A3006=
KRSL 081253Z AUTO 35009KT 10SM OVC013 19/17 A3018=
KSEP NIL=
KSHV 081256Z 15003KT 10SM BKN090 BKN280 25/24 A3005=
KSPS 081252Z COR 04006KT 10SM FEW008 FEW250 24/22 A3004=
KSPS 081252Z 04006KT 10SM CLR 24/22 A3004=
KTLH 081253Z 33006KT 10SM BCFG CLR 27/23 A3004=
KTOP 081253Z 36007KT 7SM OVC007 23/22 A3009=
KVCT 081251Z 28003KT 10SM BKN020 OVC029 24/24 A2990=
KVGT 081253Z 00000KT 10SM CLR 26/M04 A2987=
KVUJ 081258Z AUTO 00000KT 10SM SCT090 28/21 A2999=
KWRB 081255Z 34006KT 10SM CLR 27/22 A3003=
####018001652####
SAUS53 KWBC 081300
METAR
KAIA 081253Z AUTO 02003KT 10SM SCT034 OVC047 15/13 A3031=
KAID NIL=
KALO 081254Z AUTO 34008KT 10SM CLR 21/19 A3009=
KALS 081252Z AUTO 00000KT 10SM CLR 10/08 A3042=
KANW 081250Z AUTO 29004KT 10SM CLR 17/14 A3025=
KBBW 081253Z AUTO 00000KT 10SM SCT090 SCT120 18/16 A3024=
KBFF 081253Z AUTO 00000KT 10SM FEW042 BKN055 15/13 A3031=
KBIE 081250Z AUTO 36008KT 10SM CLR 19/18 A3016=
KBIS 081252Z 27003KT 10SM CLR 16/11 A3016=
KBPI 081253Z AUTO 00000KT 10SM BKN100 08/02 A3041=
KBRL 081253Z AUTO 7SM OVC004 23/22 A3005=
KCAG 081253Z AUTO 00000KT 10SM BKN110 09/07 A3034=
KCGI 081253Z 25003KT 10SM BKN100 27/24 A3005=
KCID 081252Z 33008KT 9SM BKN005 21/19 A3007=
KCNK 081255Z AUTO 35006KT 10SM BKN033 OVC043 20/18 A3017=
KCNU 081252Z AUTO 11006KT 1 1/4SM BR OVC001 23/22 A3007=
KCOU 081254Z 00000KT 10SM FEW003 OVC011 23/22 A3009=
KCYS 081253Z 00000KT 10SM OVC016 13/11 A3037=
KCZD NIL=
KDBQ 081253Z 00000KT 6SM BR SCT005 SCT021 22/21 A3007=
KDDC 081252Z AUTO 01008KT 3SM BR OVC003 18/17 A3020=
KDVL 081255Z AUTO 30007KT 10SM FEW085 17/12 A3010=
KEAR 081255Z AUTO 36006KT 10SM CLR 16/14 A3025=
KEHA NIL=
KEVV 081254Z 21003KT 10SM CLR 28/22 A3007=
KF55 NIL=
KFNB 081253Z AUTO 36007KT 10SM BKN009 22/19 A3011=
KFSD 081256Z 00000KT 10SM R03/5500VP6000FT CLR 19/16 A3017=
KFWA 081254Z COR 20003KT 8SM FEW060 SCT250 27/21 A3006=
KFWA 081254Z 20003KT 8SM FEW060 27/21 A3006=
KGCC 081253Z AUTO 15004KT 10SM CLR 12/08 A3030=
KGCK 081254Z 01010KT 10SM SCT017 18/16 A3024=
KGJT 081253Z 09010KT 10SM CLR 20/07 A3020=
KGLD 081253Z AUTO 08003KT 10SM SCT003 OVC016 17/16 A3032=
####018001789####
SASA KAWN 081300 RRD
METAR SAEZ 081300Z 32004KT CAVOK 09/01 Q1019=
METAR SAME 081300Z 00000KT 9999 NSC 04/M03 Q1015=
METAR SAVC 081300Z 27009KT CAVOK 04/M01 Q1001=
METAR SBBE 081300Z 10009KT 9999 FEW015 SCT100 31/22 Q1014=
METAR SBMO 081300Z 30002KT 9999 SCT020 SCT100 26/20 Q1017=
METAR SBSL 081300Z 06010KT 9999 SCT017 30/24 Q1014=
METAR SCCH 081300Z 36008KT 3000 RA BKN020 OVC030 08/08 Q1020=
METAR SKBG 081300Z 00000KT 9999 2000S BCFG SCST012 20/19 A3005=
METAR SKBO 081300Z 04004KT 9000 FEW015 BKN070 13/11 A3034 RMK HZ NOSIG=
METAR SKBQ 081300Z 00000KT 5000 BR SCT005 BKN070 26/26 A2991=
METAR SKCG 081300Z 09004KT 9999 FEW015CB SCT200 28/25 A2988 RMK CB/N/S=
METAR SKCL 081300Z VRB02KT 9999 FEW017 BKN090 22/20 A3003=
METAR SKLT 081300Z 00000KT 9999 FEW015 BKN070 27/25 A2991 RMK APCLO=
METAR SKPE 081300Z 00000KT 9999 FEW018 SCT090 20/17 A3012=
METAR SKRG 081300Z VRB02KT 4000 BR BKN004 SCT080 15/14 A3032=
METAR SKSP 081300Z 10007KT 9999 SCT015TCU 29/26 A2987 REDZ=
METAR SUAA 081300Z 29006KT CAVOK 06/04 Q1019=
METAR SUCA 081300Z 32004KT CAVOK 08/03 Q1018=
METAR SUMU 081300Z 29005KT CAVOK 10/07 Q1019 NOSIG=
METAR SVAC 081300Z 00000KT 5000 -DZ BKN017 24/23 Q1014=
METAR SVBI 081300Z 00000KT 9999 FEW015 OVC045 XX/XX Q1013=
METAR SVBM 081300Z 07004KT 9999 OVC010 24/22 Q////=
METAR SVCB 081300Z 00000KT 9999 OVC015 XX/XX QXXXX=
METAR SVGU 081300Z 23005KT 9000 OVC020 25/24 Q1011=
METAR SVMD 081300Z 25004KT 4000 BR SCT023 BKN090 18/16 Q1021=
METAR SVPR 081300Z 00000KT 9999 BKN050 XX/XX Q1013=
METAR SVSP 081300Z 00000KT 7000 +HZ BKN040 XX/XX Q1014=
METAR SVSR 081300Z 16003KT 9999 BKN016 24/24 Q1012 REDZ=
METAR SVVA 081300Z 14003KT 9999 BKN016 25/23 Q1014=
METAR SVVL 081300Z 00000KT 8000 +HZ OVC040CB 22/20 Q1023=
####018001658####
SAUS53 KWBC 081300 RRA
METAR
KGPZ 081255Z AUTO 27006KT 10SM CLR 18/14 A3007=
KGRI 081253Z 36004KT 10SM CLR 17/15 A3022=
KHON 081255Z AUTO 28004KT 10SM CLR 18/14 A3016=
KHSI 081253Z AUTO 01004KT 10SM CLR 17/15 A3021=
KHTL 081253Z AUTO 24005KT 4SM -RA BR FEW010 BKN019 OVC070 22/21
     A3005=
KIML 081253Z AUTO 00000KT 10SM FEW027 BKN095 17/15 A3029=
KIRK 081255Z AUTO 35005KT 10SM CLR 22/21 A3009=
KJAC 081255Z AUTO 36003KT 10SM CLR 07/00 A3038=
KJAC 081251Z 00000KT 10SM SKC 07/00 A3038=
KJKL 081253Z AUTO 00000KT 4SM HZ CLR 25/21 A3013=
KJLN 081253Z 33005KT 1/2SM VCTS FG BKN004 BKN010 OVC070 22/22
     A3008=
KJNX 081259Z AUTO 02003KT 7SM CLR 28/21 A2997=
KLAN 081253Z 21004KT 9SM FEW120 SCT200 26/21 A3005=
KLBF 081253Z AUTO 31004KT 10SM CLR 17/16 A3027=
KLIH NIL=
KLNC NIL=
KLND 081253Z AUTO 00000KT 10SM FEW120 10/04 A3035=
KLNK 081254Z 36007KT 10SM CLR 19/17 A3017=
KLXV 081253Z AUTO 00000KT 10SM OVC004 06/05 A3052=
KMCK 081253Z AUTO 00000KT 10SM CLR 17/16 A3026=
KMCW 081253Z AUTO 34008KT 10SM CLR 19/18 A3015=
KMFD 081252Z 22004KT 5SM HZ CLR 26/19 A3010=
KMHK 081252Z 02007KT 5SM BR OVC010 22/21 A3011=
KMHN NIL=
KMKG 081255Z 16005KT 6SM BR FEW005 OVC055 24/22 A3002=
KMMO NIL=
KMSN 081253Z VRB03KT 6SM BR OVC006 22/21 A3004=
KODX 081253Z AUTO 32003KT 10SM FEW090 17/16 A3022=
KONL 081250Z AUTO 00000KT 10SM CLR 18/16 A3022=
KOTM 081253Z AUTO 35006KT 7SM CLR 21/20 A3008=
KOVN NIL=
KPAH 081253Z 24005KT 10SM CLR 27/23 A3006=
KPKD 081253Z AUTO 27006KT 10SM CLR 17/14 A3009=
KRAP 081252Z 29005KT 10SM CLR 15/11 A3026=
KRFD 081254Z 30006KT 10SM SCT006 OVC180 24/21 A3006=
####018000825####
SAUS53 KWBC 081300 RRB
METAR
KRIW 081253Z AUTO 00000KT 10SM CLR 11/06 A3035=
KRST 081254Z 34010KT 10SM CLR 20/18 A3013=
KSBN 081254Z 13003KT 5SM -RA BR FEW035 BKN060 OVC075 23/22
     A3006=
KSHR 081253Z AUTO 00000KT 10SM CLR 09/07 A3027=
KSLN 081253Z 35011KT 5SM BR OVC006 21/19 A3014=
KSPI 081252Z 00000KT 10SM SCT030 25/23 A3005=
KSSM NIL=
KSTC 081253Z 26004KT 10SM CLR 19/16 A3010=
KSUX 081252Z 33005KT 10SM CLR 18/17 A3018=
KSVM NIL=
KTCS 081253Z AUTO 36005KT 10SM SCT100 18/14 A3021=
KTDF 081302Z AUTO 00000KT 5SM CLR 27/21 A3002=
KUDG 081255Z 33006KT 10SM CLR 28/19 A2999=
KUIN 081254Z AUTO 30006KT 10SM BKN005 OVC010 23/22 A3007=
KVIH 081253Z AUTO 00000KT 8SM -RA OVC015 24/22 A3007=
KVTN 081252Z AUTO 22004KT 10SM CLR 16/15 A3026=
KYNG 081251Z 14005KT 7SM FEW060 26/18 A3009=
####018000310####
SAJP35 RJTD 081300
METAR RJAA 081300Z 15004KT 9999 FEW020 SCT150 BKN/// 22/21 Q1011
           NOSIG=
METAR RJBB 081300Z 23008KT 9999 FEW050 BKN/// 26/23 Q1009 NOSIG=
METAR RJTT 081300Z 18014KT 9999 FEW007 SCT010 BKN150 25/23 Q1011=
METAR RJGG 081300Z 12005KT 9999 FEW010 BKN/// 25/23 Q1010 NOSIG=
####018000432####
SAJP37 RJTD 081300
METAR RJAA 081300Z 15004KT 9999 FEW020 SCT150 BKN/// 22/21 Q1011
           NOSIG=
METAR RJBB 081300Z 23008KT 9999 FEW050 BKN/// 26/23 Q1009 NOSIG=
METAR RJTT 081300Z 18014KT 9999 FEW007 SCT010 BKN150 25/23 Q1011=
METAR RJFF 081300Z 25002KT 8000 FEW020 BKN/// 25/21 Q1009=
METAR RJGG 081300Z 12005KT 9999 FEW010 BKN/// 25/23 Q1010 NOSIG=
METAR RJFR 081300Z 08005KT 9000 SCT025 BKN/// 26/22 Q1009=
####018000378####
SAJP31 RJTD 081300
METAR RJAA 081300Z 15004KT 9999 FEW020 SCT150 BKN/// 22/21 Q1011
           NOSIG=
METAR RJBB 081300Z 23008KT 9999 FEW050 BKN/// 26/23 Q1009 NOSIG=
METAR RJTT 081300Z 18014KT 9999 FEW007 SCT010 BKN150 25/23 Q1011=
METAR ROAH 081300Z 18016KT 9999 FEW010 SCT100 BKN150 29/27 Q1010=
METAR RJGG 081300Z 12005KT 9999 FEW010 BKN/// 25/23 Q1010 NOSIG=
####018000197####
SAJP32 RJTD 081300
METAR RJFF 081300Z 25002KT 8000 FEW020 BKN/// 25/21 Q1009=
METAR RJCC 081300Z 19004KT 160V240 1100 R19R/1600VP1800N
           R01R/0900V1400D -DZ BR BKN002 17/17 Q1010=
####018000676####
SAJP36 RJTD 081300
METAR RJAA 081300Z 15004KT 9999 FEW020 SCT150 BKN/// 22/21 Q1011
           NOSIG=
METAR RJBB 081300Z 23008KT 9999 FEW050 BKN/// 26/23 Q1009 NOSIG=
METAR RJTT 081300Z 18014KT 9999 FEW007 SCT010 BKN150 25/23 Q1011=
METAR ROAH 081300Z 18016KT 9999 FEW010 SCT100 BKN150 29/27 Q1010=
METAR RJFF 081300Z 25002KT 8000 FEW020 BKN/// 25/21 Q1009=
METAR RJGG 081300Z 12005KT 9999 FEW010 BKN/// 25/23 Q1010 NOSIG=
METAR RJCC 081300Z 19004KT 160V240 1100 R19R/1600VP1800N
           R01R/0900V1400D -DZ BR BKN002 17/17 Q1010=
METAR RJNK 081300Z VRB02KT 9000 FEW015 BKN/// 24/21 Q1009=
METAR RJAH 081300Z 00000KT 9999 FEW030 SCT/// 23/22 Q1010=
####018001673####
SAUS54 KWBC 081300
METAR
KAST 081255Z AUTO 20003KT 4SM BR OVC003 12/11 A2996=
KAWH NIL=
KBFL 081254Z AUTO 00000KT 10SM CLR 20/11 A2986=
KBIH 081256Z AUTO 00000KT 10SM CLR 12/02 A3001=
KBLU 081252Z AUTO 00000KT 10SM CLR 21/03 A3009=
KBNY NIL=
KBUO NIL=
KBZN 081256Z 00000KT 10SM CLR 09/06 A3030=
KCNY 081253Z AUTO 14003KT 10SM CLR 21/05 A3014=
KCQV NIL=
KCZK NIL=
KCZZ 081252Z AUTO 00000KT 08/07 A2989=
KDRA 081255Z AUTO 00000KT 10SM CLR 19/M11 A2996=
KELY 081253Z AUTO 17008KT 10SM CLR 06/M03 A3024=
KEUG 081254Z 20006KT 10SM FEW150 SCT300 12/10 A2994=
KFLG 081256Z 00000KT 10SM SCT120 10/01 A3028=
KGNG NIL=
KHMM NIL=
KHMS NIL=
KHTH NIL=
KIGM NIL=
KINW 081256Z AUTO 10SM CLR 19/02 A3013=
KIZA NIL=
KJDN NIL=
KJNW NIL=
KJNX 081259Z AUTO 02003KT 7SM CLR 28/21 A2997=
KLGB 081253Z 30004KT 9SM OVC013 17/13 A2991=
KLWS 081256Z AUTO 10005KT 10SM CLR 16/09 A3004=
KMEH 081256Z AUTO 00000KT 10SM CLR 06/04 A3012=
KMFR 081253Z AUTO 00000KT 10SM CLR 20/12 A2992=
KMHS 081256Z AUTO 05003KT 10SM CLR 12/07 A3002=
KMLD NIL=
KMLF 081252Z AUTO 20004KT 10SM CLR 12/02 A3014=
KMQM NIL=
KMWS NIL=
KNUQ 081256Z AUTO 03003KT 10SM OVC011 15/12 A2993=
KOLM 081254Z AUTO 00000KT 10SM CLR 12/10 A2996=
KOWY NIL=
KPDT 081253Z 09004KT 10SM CLR 14/07 A2999=
KPFC NIL=
KPGA 081253Z AUTO 27003KT 10SM CLR 23/02 A3008=
KPIH 081253Z 00000KT 10SM CLR 07/03 A3019=
KPUC 081253Z AUTO 33003KT 10SM CLR 13/02 A3025=
KRBL 081254Z AUTO 18003KT 10SM CLR 21/14 A2985=
KRDD 081253Z AUTO 17004KT 10SM CLR 22/16 A2983=
KSDB 081252Z AUTO 29004KT 10SM CLR 21/M01 A3003=
KSHN 081253Z AUTO 00000KT 10SM CLR 11/09 A2994=
####018000083####
SAUS54 KWBC 081300 CCA
METAR
KSMP 081256Z AUTO VRB03KT 10SM CLR 15/04 A3016=
####018000473####
SAUS54 KWBC 081300 RRA
METAR
KSJN 081254Z AUTO 14006KT 10SM CLR 21/06 A3019=
KSLC 081253Z 00000KT 10SM FEW090 BKN130 18/08 A3011=
KSMX 081251Z 30005KT 3SM BR OVC005 12/11 A2993=
KSOW 081250Z AUTO 21003KT 10SM OVC110 19/04 A3026=
KSVE NIL=
KTRK 081250Z AUTO 00000KT 10SM CLR 08/06 A3017=
KUIL 081253Z AUTO 00000KT 10SM CLR 14/10 A2995=
KWEY NIL=
KWMC 081256Z AUTO 20003KT 10SM CLR 12/M04 A3008=
KXCN NIL=
KYKM 081253Z 29006KT 10SM CLR 12/08 A3003=
####018000104####
SAGD31 TGPY 081300
METAR TGPY 081300Z 08012KT 9999 FEW019 SCT038 FEW///CB 27/25 Q1013 CB
TOP SE-SSE=####018001739####
SAZZ40 KAWN 081300 RRN
METAR MGHT 081300Z 00000KT 9999 FEW004 OVC018 16/15 QFE 812/5 MTN N
      CUB C/L=
METAR MGSJ 081300Z 00000KT CAVOK 24/23 Q1012 A2988 BKN090 BKN200=
METAR MKJS 081300Z 13001KT 9999 FEW024 BKN220 29/23 Q1013=
METAR MYEG 081259Z AUTO 16005KT 10SM CLR 29/24 A2997 RMK AO2=
METAR OIAW 081300Z 24006KT CAVOK 48/07 Q0997 A2944=
METAR OIFM 081300Z 18008KT CAVOK 40/06 Q1015 A2997=
METAR OIKB 081250Z 20010KT 4000 HZ NSC 36/27 Q0999 A2951=
METAR OIKK 081300Z 04004KT CAVOK 36/M02 Q1015 A2999=
METAR OIMM 081300Z 05014KT CAVOK 38/M00 Q1013 A2993=
METAR OITT 081300Z 03010KT CAVOK 38/05 Q1013 A2993=
METAR OIZH 081300Z 36008KT CAVOK 37/M04 Q1011 A2988=
METAR OJAI 081300Z 28010KT CAVOK 33/03 Q1012 NOSIG=
METAR SCAP 081300Z 21010KT 9999 SCT040 03/02 Q1012=
METAR SCAS 081300Z 33006KT 8000 VCSH OVC020 03/00 Q1009=
METAR SCGE 081300Z 36005KT 2000 -RA OVC006 08/08 Q1018=
METAR SCGZ 081300Z 15004KT CAVOK M01/M02 Q0984=
METAR SCNT 081300Z 31024G34KT 9999 SCT020 03/M05 Q0989=
METAR SCON 081300Z 29004KT 99999 SCT023 04/02 Q1013=
METAR SCRD 081300Z 17012KT CAVOK 09/04 Q1021=
METAR SCSE 081300Z 13005KT 090V150 CAVOK 08/05 Q1018 NEFO PLAYA SKC=
METAR SCTB 081300Z 00000KT 8000 SCT090 03/03 Q1023=
METAR TAPA 081300Z 07012KT 9999 FEW022 30/24 Q1015=
METAR TDCF 081300Z 09005KT 9999 SCT018 30/24 Q1015=
METAR TLPL 081300Z 09020KT 9999 SCT024 BKN280 30/24 Q1014=
METAR TVSV 081300Z 11016KT 9999 BKN022 BKN280 30/25 Q1014=
METAR WMKJ 081300Z 21003KT 9999 FEW022 BKN300 27/24 Q1010=
METAR WMKK 081300Z 00000KT 9999 FEW030 BKN280 27/25 Q1009 NOSIG=
METAR WMKP 081300Z 06001KT 9000 FEW025 BKN270 28/25 Q1010 NOSIG=
METAR WMSA 081300Z 25001KT 9000 FEW026 BKN280 29/25 Q1009=
####018000535####
SAUS20 KNKA 081306
SPECI KBDL 081305Z 18005KT 4SM HZ SCT010 OVC016 26/22 A3007 RMK AO2=
METAR KBXK 081255Z AUTO 05003KT 10SM CLR 25/M02 A2980 RMK AO1 =
SPECI KHOT 081305Z AUTO 00000KT 9SM OVC009 25/23 A3009 RMK AO2 CIG 
    006V014=
SPECI KLUK 081305Z 00000KT 4SM HZ CLR 26/23 A3008 RMK AO2=
SPECI KMFI 081305Z AUTO 33005KT 5SM BR OVC003 20/19 A3005 RMK AO2 
    CIG 001V005=
METAR KPAN 081315Z AUTO 10005KT 10SM CLR 21/04 A3016 RMK AO1 =
METAR KRQO 081315Z AUTO 00000KT 1/2SM FG OVC001 23/23 A3009 RMK 
     AO2=
####018000093####
SANI20 DNMM 081300
METAR DNMM 081300Z 24010KT 9999 BKN012 FEW020CB 29/26 Q1014 NOSIG=

####018000460####
SPUS99 KWBC 081307
SPECI
PAHC 081304Z AUTO 00000KT 1/2SM FG CLR 07/07 A2998 RMK AO2 TSNO
     $=
PPIZ 081303Z AUTO 21010KT 2SM HZ CLR 06/02 A3008 RMK AO2 TSNO
     $=
KBDL 081305Z 18005KT 4SM HZ SCT010 OVC016 26/22 A3007 RMK AO2=
KHOT 081305Z AUTO 00000KT 9SM OVC009 25/23 A3009 RMK AO2 CIG
     006V014=
KLUK 081305Z 00000KT 4SM HZ CLR 26/23 A3008 RMK AO2=
KMFI 081305Z AUTO 33005KT 5SM BR OVC003 20/19 A3005 RMK AO2 CIG
     001V005=
####018000370####
SAUS99 KWBC 081307
METAR
KNSE 081256Z 00000KT 9SM FEW250 28/24 A3004 RMK AO2 SLP156
     T02780239 $=
KPAM 081255Z 36006KT 10SM CLR 27/25 A3003 RMK AO2A SLP169
     T02730248=
KBXK 081255Z AUTO 05003KT 10SM CLR 25/M02 A2980 RMK AO1=
KPAN 081315Z AUTO 10005KT 10SM CLR 21/04 A3016 RMK AO1=
KRQO 081315Z AUTO 00000KT 1/2SM FG OVC001 23/23 A3009 RMK AO2=
####018000067####
SAAG SASJ 081300
METAR SASJ 081300Z  00000KT CAVOK 15/09 Q1018=
####018000076####
SAAG SARF 081300
METAR SARF 081300Z  16014KT 9999  OVC008  15/12
Q1018=
####018000645####
SAEW31 LEMM 081300
METAR LEMD 081300Z 15010KT 110V170 9999 FEW060TCU 32/12 Q1018
WS R18L WS R18R NOSIG=
METAR LEBL 081300Z 20014KT CAVOK 28/21 Q1019 NOSIG=
METAR LEPA 081300Z 23014KT CAVOK 31/14 Q1020 NOSIG=
METAR LEZL 081300Z 23007KT 180V280 9999 FEW025 33/14 Q1015 NOSIG=
METAR LEMG 081300Z 11006KT 070V150 9999 FEW040 30/14 Q1017 NOSIG=
METAR LEVC 081300Z 10010KT 050V140 CAVOK 32/17 Q1018 NOSIG=
METAR LEAL 081300Z 08011KT 050V110 CAVOK 31/17 Q1019 NOSIG=
METAR LEIB 081300Z 08007KT 030V120 CAVOK 29/20 Q1020 NOSIG=
METAR LELC 081300Z 06011KT 030V100 CAVOK 28/20 Q1018 NOSIG=
METAR LEVX 081300Z VRB03KT 8000 FEW030 24/19 Q1015=
####018000407####
SAEW35 LEMM 081300
METAR LEAB 081300Z 15016KT CAVOK 35/03 Q1021 NOSIG=
METAR LEBZ 081300Z 31007KT CAVOK 35/13 Q1014=
METAR LELN 081300Z 20012KT 160V240 9999 FEW055TCU 32/09 Q1019=
METAR LESA 081300Z VRB02KT 9999 FEW048 35/15 Q1018=
METAR LETO 081300Z 09006KT 020V150 9999 FEW070 31/12 Q1018 NOSIG=
METAR LEVD 081300Z 18005KT CAVOK 34/08 Q1018=
METAR LEVS 081300Z 13010KT 080V170 CAVOK 32/11 Q1018=
####018000132####
SAAF17 LFPW 081300
METAR HLLB 081250Z 33022KT 9999 FEW025 31/17 Q1016=
METAR HLLT 081250Z 35007KT 310V040 8000 SKC 31/18 Q1018=
####018000198####
SAPM31 MPTO 081300
METAR
MPMG 081300Z 00000KT 9999 FEW016 28/23 Q1012=
MPCH 081300Z 00000KT 9999 FEW010 SCT030 OVC090 Q1013=
MPBO 081300Z 00000KT 9999 FEW015 BKN090 26/23 Q1010 RERA RWY DAMP=
####018000067####
SAAG SABE 081300
METAR SABE 081300Z  29005KT CAVOK 12/00 Q1019=
####018000072####
SAAG SARE 081300
METAR SARE 081300Z 11011KT 9999 SCT008 12/09 Q1019=
####018000193####
SAAG01 SABM 081300 RRA
METAR SABE 081300Z  29005KT CAVOK 12/00 Q1019=
METAR SARE 081300Z 11011KT 9999 SCT008 12/09 Q1019=
METAR SARP 081300Z  07006KT 6000  SCT005 BKN015
15/14 Q1018=
####018000211####
SAEW36 LEMM 081300
METAR GCHI 081300Z 01012KT 330V060 9999 FEW014 SCT022 23/18 Q1019=
METAR GCLA 081300Z 01013KT 340V040 9999 FEW020 25/18 Q1019=
METAR GEML 081300Z 09008KT 060V140 9999 FEW012 26/21 Q1016=
####018000074####
SAAF18 LFPW 081300
METAR FIMP 081300Z 14015KT 9999 SCT016 23/16 Q1021=
####018000840####
SACI41 ZBBB 081300
METAR ZBHH 081300Z 17001MPS 9999 SCT040 FEW040TCU 26/12 Q1009 NOSIG=
METAR ZGHA 081300Z 15002MPS CAVOK 31/28 Q1001 NOSIG=
METAR ZHCC 081300Z 30002MPS 2500 BR NSC 26/23 Q1006 NOSIG=
METAR ZHHH 081300Z 04002MPS 9999 SCT010 BKN030 25/25 Q1004 NOSIG=
METAR ZJHK 081300Z 16003MPS 130V210 CAVOK 29/25 Q1006 NOSIG=
METAR ZJSY 081300Z 13003MPS 100V170 9999 FEW013 SCT016 30/26 Q1007
 NOSIG=
METAR ZLLL 081300Z 01007MPS 9999 BKN046 19/09 Q1018 BECMG 340002MPS=
METAR ZSNJ 081300Z 04001MPS 2200 BR BKN023 27/23 Q1004 NOSIG=
METAR ZSOF 081300Z 06002MPS 030V090 8000 SCT023 27/26 Q1004 NOSIG=
METAR ZUCK 081300Z 12002MPS 3000 BR NSC 28/25 Q1003 NOSIG=
METAR ZYCC 081300Z 32003MPS 5000 -SHRA BR SCT005 FEW023TCU BKN023
 19/18 Q1007
 NOSIG=
METAR ZYHB 081300Z 36003MPS 5000 BR SCT033 19/17 Q1008 NOSIG=
####018000086####
SPUS31 KWBC 081307
SPECI
KPHL 081304Z VRB03KT 5SM HZ SCT010 SCT100 27/23 A3004=
####018001799####
SAEU KAWN 081300 RRQ
METAR EGDY 081250Z 20009KT 9999 FWE035 SCT100 BKN220 22/14 Q1018=
METAR EGWC 081250Z 21014KT 9999 BKN035 21/10 Q1018 BLU=
METAR LECV 081300Z 03010KT 9999 FEW060 28/13 Q1022=
METAR LELO 081300Z 08009KT 050V120 9999 FEW050 33/17 Q1017=
METAR LERT 081300Z 29007KT 230V340 CAVOK 26/20 Q1016 NOSIG=
METAR LFKS 081300Z AUTO 11005KT 050V170 9999NDV NSC 30/23 Q1020=
METAR LFMO 081300Z AUTO VRB02KT 9999NDV NSC 35/12 Q1019=
METAR LFMY 081300Z 18004KT 120V250 CAVOK 34/15 Q1019=
METAR LFOC 081300Z AUTO VRB05KT 9999NDV NSC 33/08 Q1018=
METAR LFOE 081300Z VRB04KT CAVOK 32/09 Q1018=
METAR LFOJ 081300Z 21006KT 180V270 CAVOK 32/13 Q1018=
METAR LFPC 081300Z 12005KT 050V170 CAVOK 31/11 Q1018=
METAR LFPV 081300Z AUTO 23004KT 140V300 9999NDV NSC 30/09 Q1019=
METAR LFQI 081300Z VRB06KT CAVOK 31/11 Q1018=
METAR LFRM 081300Z 14004KT 070V210 CAVOK 33/09 Q1018=
METAR LFRQ 081300Z 26006KT 210V290 9999 FEW040 26/13 Q1019 NOSIG=
METAR LFSX 081300Z AUTO VRB03KT 9999NDV NSC 31/11 Q1020=
METAR LFYR 081300Z VRB03KT CAVOK 33/10 Q1018=
METAR LGZA 081250Z 32016KT CAVOK 29/09 Q1013=
METAR LJLJ 081300Z 13004KT 060V200 9999 FEW043 25/10 Q1022 NOSIG=
METAR LJMB 081300Z 22004KT 9999 FEW040 26/08 Q1022=
METAR LJPZ 081300Z 30009KT CAVOK 26/10 Q1021=
METAR LPFR 081300Z 24010KT 9999 FEW012 24/20 Q1016=
METAR LPPR 081300Z 21006KT 180V260 7000 SCT006 BKN007 21/18 Q1016=
METAR LPPS 081300Z 01011KT 350V050 9999 FEW016 SCT030 23/15 Q1021=
METAR LPPT 081300Z 27009KT 230V310 CAVOK 29/19 Q1016 NOSIG=
METAR LRBC 081300Z 01014KT 350V050 9999 FEW021 BKN033 23/17 Q1017=
METAR LRBM 081300Z 31004KT 230V020 9999 SCT042 21/14 Q1019=
METAR LRSV 081300Z 31020KT 9999 SCT012 BKN049 17/14 Q1019=
METAR LWOH 081300Z 36008KT 9999 FEW040 BKN050 19/10 Q1019=
####018000091####
SPUS42 KWBC 081307
SPECI
KMFE 081304Z 34008KT 10SM FEW008 SCT011 BKN033 26/24 A2981=
####018001658####
SAUS72 KWBC 081300
METAR
KABI 081252Z 12003KT 7SM OVC008 22/21 A3008=
KABQ 081256Z 10014KT 10SM SCT100 OVC200 19/09 A3028=
KABY 081253Z 00000KT 10SM CLR 26/21 A3006=
KACT 081251Z 04005KT 9SM FEW010 BKN016 OVC021 26/24 A3001=
KAEX 081253Z AUTO 00000KT 10SM FEW006 26/24 A3004=
KAFW 081253Z 13005KT 9SM FEW011 SCT070 BKN120 26/23 A3003=
KAHN 081251Z 31003KT 7SM CLR 26/21 A3005=
KALI 081253Z AUTO 03008KT 10SM -RA BKN006 BKN015 OVC027 25/24
     A2985=
KAMA 081253Z 01011KT 7SM BKN005 OVC010 18/17 A3022=
KANB 081253Z AUTO 00000KT 9SM CLR 25/21 A3007=
KAPF 081253Z 05007KT 10SM CLR 28/23 A2998=
KATL 081252Z 33006KT 10SM CLR 27/19 A3006=
KAUS 081253Z 05008KT 8SM FEW008 BKN024 OVC043 26/24 A2997=
KBFM 081253Z 29003KT 10SM CLR 27/25 A3006=
KBHM 081253Z 00000KT 10SM CLR 28/22 A3008=
KBNA 081253Z 00000KT 10SM FEW038 SCT180 SCT250 28/22 A3009=
KBPT 081253Z 08008KT 9SM BKN009 OVC015 27/25 A2998=
KBQK 081257Z AUTO 28006KT 10SM CLR 26/23 A3002=
KBRO 081253Z 32007KT 10SM SCT005 BKN011 BKN026 26/25 A2977=
KCEW 081253Z AUTO 00000KT 10SM CLR 26/24 A3005=
KCHA 081253Z 00000KT 10SM CLR 27/19 A3009=
KCLL 081253Z 06008KT 7SM OVC007 26/23 A2997=
KCNM 081253Z AUTO 33009KT 9SM -RA OVC013 19/18 A3015=
KCRP 081251Z 04008KT 5SM RA BR SCT022CB BKN040 BKN049 26/25
     A2985=
KCSG 081251Z 00000KT 10SM CLR 27/20 A3004=
KCSV 081253Z AUTO 00000KT 7SM CLR 27/18 A3016=
KDAL 081253Z 13006KT 8SM -RA FEW009 SCT016 OVC024 26/24 A3003=
KDFW 081253Z 15004KT 4SM -RA BR BKN010 BKN026 OVC070 25/24
     A3003=
KDHN 081253Z 00000KT 10SM CLR 27/23 A3008=
KDLF 081255Z AUTO 31003KT 10SM FEW015 SCT041 24/23 A2998=
####018001167####
SABO59 SLLP 081300
METAR SLCO 081300Z 00000KT 9999 SCT080 26/24 Q1014=
METAR SLRY 081300Z 00000KT 6000 VCSH FEW008 BKN015 FEW023CB BKN070
23/23 Q1015=
METAR SLRQ 081300Z 00000KT 9999 SCT008 OVC015 23/23 Q1014=
METAR SLOR 081300Z 00000KT 9999 SKC 03/M04 Q1036=
METAR SLRI 081300Z 36004KT 7000 SKC 28/24 Q1013=
METAR SLJO 081300Z 00000KT 9999 NSC 27/23 Q1013=
METAR SLMG 081300Z 00000KT 9999 FEW020 SCT080 26/22 Q1015=
METAR SLSA 081300Z 00000KT 9999 FEW023 SCT070 BKN200 26/24 Q1012=
METAR SLSU 081300Z 04008KT 9999 FEW013 11/08 Q1029=
METAR SLPO 081300Z 24006KT 9999 SKC 04/M06 Q1037=
METAR SLVM 081300Z 15010KT 9999 FEW020 17/14 Q1026=
METAR SLTJ 081300Z 00000KT 9999 SKC 11/06 Q1022=
METAR SLYA 081300Z 18006KT 9999 SCT023 15/11 Q1021=
METAR SLET 081300Z 15010KT 9999 SCT080 19/16 Q1016=
METAR SLCP 081300Z 19005KT 9999 BKN006 OVC070 21/20 Q1018=
METAR SLSI 081300Z 19010KT 9999 FEW017 OVC070 23/21 Q1017=
METAR SLJE 081300Z 21006KT 8000 BKN017 24/20 Q1018=
METAR SLRB 081300Z 00000KT 9999 BKN017 23/19 Q1018=
METAR SLPS 081300Z 36005KT 9999 FEW070 28/16 Q1013=
METAR SLCA 081300Z 18004KT 8000 SCT030 SCT070 18/14 Q1020=
####018001165####
SABO SLLP 081300
METAR SLCO 081300Z 00000KT 9999 SCT080 26/24 Q1014=
METAR SLRY 081300Z 00000KT 6000 VCSH FEW008 BKN015 FEW023CB BKN070
23/23 Q1015=
METAR SLRQ 081300Z 00000KT 9999 SCT008 OVC015 23/23 Q1014=
METAR SLOR 081300Z 00000KT 9999 SKC 03/M04 Q1036=
METAR SLRI 081300Z 36004KT 7000 SKC 28/24 Q1013=
METAR SLJO 081300Z 00000KT 9999 NSC 27/23 Q1013=
METAR SLMG 081300Z 00000KT 9999 FEW020 SCT080 26/22 Q1015=
METAR SLSA 081300Z 00000KT 9999 FEW023 SCT070 BKN200 26/24 Q1012=
METAR SLSU 081300Z 04008KT 9999 FEW013 11/08 Q1029=
METAR SLPO 081300Z 24006KT 9999 SKC 04/M06 Q1037=
METAR SLVM 081300Z 15010KT 9999 FEW020 17/14 Q1026=
METAR SLTJ 081300Z 00000KT 9999 SKC 11/06 Q1022=
METAR SLYA 081300Z 18006KT 9999 SCT023 15/11 Q1021=
METAR SLET 081300Z 15010KT 9999 SCT080 19/16 Q1016=
METAR SLCP 081300Z 19005KT 9999 BKN006 OVC070 21/20 Q1018=
METAR SLSI 081300Z 19010KT 9999 FEW017 OVC070 23/21 Q1017=
METAR SLJE 081300Z 21006KT 8000 BKN017 24/20 Q1018=
METAR SLRB 081300Z 00000KT 9999 BKN017 23/19 Q1018=
METAR SLPS 081300Z 36005KT 9999 FEW070 28/16 Q1013=
METAR SLCA 081300Z 18004KT 8000 SCT030 SCT070 18/14 Q1020=
####018001678####
SAUS72 KWBC 081300 RRA
METAR
KDMN 081253Z AUTO 05009KT 10SM CLR 22/13 A3014=
KELP 081251Z 04009KT 10SM FEW035 SCT060 SCT110 22/15 A3014=
KESF 081253Z AUTO 08003KT 10SM CLR 26/24 A3005=
KEYW 081253Z 04005KT 10SM SCT085 29/24 A2996=
KFLL 081253Z 08008KT 10SM SCT021 29/24 A2995=
KFSM 081253Z 09003KT 10SM CLR 26/23 A3005=
KFTW 081253Z 13004KT 10SM BKN011 OVC016 25/23 A3002=
KFTY 081253Z 00000KT 8SM CLR 27/19 A3006=
KGGG 081253Z 10004KT 10SM FEW005 25/24 A3005=
KGLS 081252Z 10012KT 10SM -RA FEW026 SCT095 26/23 A2994=
KGNV 081253Z 00000KT 10SM CLR 26/22 A3002=
KGPT 081253Z 01004KT 10SM CLR 28/25 A3004=
KGUP 081253Z AUTO 00000KT 10SM CLR 17/07 A3028=
KGWO 081253Z AUTO 06003KT 10SM CLR 26/23 A3007=
KHOT 081253Z AUTO 00000KT 9SM OVC012 25/23 A3009=
KHOU 081253Z 08006KT 9SM -RA FEW010 BKN090 OVC110 24/22 A2995=
KHRL 081252Z 35011KT 10SM FEW021 BKN031 BKN040 26/26 A2977=
KHRO 081253Z AUTO 15003KT 10SM SCT046 BKN100 24/22 A3011=
KHSV 081253Z 04005KT 10SM FEW250 30/22 A3009=
KIAH NIL=
KINK 081253Z AUTO 02006KT 10SM OVC023 22/20 A3010=
KJAN 081254Z 00000KT 10SM CLR 26/23 A3007=
KJAX 081256Z 28005KT 10SM CLR 24/21 A3002=
KJBR 081253Z AUTO 23005KT 10SM CLR 27/22 A3007=
KLBB 081253Z 06006KT 10SM FEW040 SCT055 BKN110 BKN250 20/17
     A3016=
KLCH 081253Z 07007KT 9SM BKN006 OVC021 26/24 A3000=
KLFT 081253Z 00000KT 10SM OVC004 26/24 A3003=
KLIT 081253Z 25003KT 10SM FEW008 BKN150 BKN250 25/23 A3009=
KLRD 081256Z 03009KT 9SM FEW008 BKN044 27/24 A2991=
KLRU 081251Z AUTO 01007KT 10SM CLR 21/14 A3018=
KMAF 081253Z 03008KT 10SM BKN005 OVC013 21/20 A3012=
KMCO 081253Z VRB05KT 10SM FEW018 FEW250 27/21 A3001=
####018000292####
SANZ31 NZKL 081300

METAR NZAA 081300Z 23009KT 9999 FEW025 10/07 Q1012 NOSIG=
METAR NZWN 081300Z 19026G36KT 9999 -SHRA FEW015 SCT030 BKN037 08/05
         Q1013 WS R16 TEMPO 6000 SHRA =
METAR NZCH 081300Z 22009KT 9999 FEW014 SCT035 BKN045 06/03 Q1017
         TEMPO 6000 SHRA =
####018001650####
SAUS72 KWBC 081300 RRB
METAR
KMEI 081258Z 33006KT 10SM CLR 26/23 A3007=
KMEM 081253Z 00000KT 10SM FEW150 SCT250 28/22 A3008=
KMFE 081253Z 34009KT 10SM BKN008 BKN033 BKN041 26/24 A2980=
KMIA 081253Z 05007KT 10SM SCT018TCU SCT130 SCT300 30/24 A2996=
KMKL 081253Z 28003KT 10SM CLR 27/23 A3009=
KMLB 081253Z 04004KT 10SM FEW025 28/20 A3000=
KMLC 081253Z AUTO 18003KT 10SM BKN009 BKN021 OVC031 24/23
     A3005=
KMLU 081253Z 09004KT 10SM CLR 26/24 A3008=
KMOB 081256Z 00000KT 10SM SCT020 28/24 A3006=
KMSL 081253Z AUTO 31003KT 10SM CLR 26/23 A3010=
KMSY 081253Z 11004KT 10SM FEW016 SCT250 28/24 A3003=
KNEW 081253Z 07009KT 10SM SCT017 28/26 A3004=
KNGP 081256Z VRB04KT 10SM FEW010 SCT021CB BKN033 28/25 A2983=
KOKC 081252Z 33004KT 10SM FEW028 SCT080 BKN200 23/22 A3006=
KPBI 081253Z 00000KT 7SM -RA FEW012 BKN022CB BKN055 27/26
     A2996=
KPDK 081253Z 02003KT 10SM CLR 28/18 A3006=
KPFN NIL=
KPIE 081253Z 06004KT 10SM FEW033 26/22 A3001=
KPNS 081253Z 00000KT 10SM CLR 27/24 A3004=
KROW 081251Z 36007KT 10SM SCT039 OVC050 20/16 A3019=
KRSW 081253Z 03006KT 10SM CLR 27/22 A2999=
KSAT 081253Z 04006KT 8SM BKN013 BKN060 OVC250 26/24 A2995=
KSFB NIL=
KSHV 081256Z 15003KT 10SM BKN090 BKN280 25/24 A3005=
KSJT 081251Z 04005KT 10SM OVC008 23/21 A3006=
KSRQ 081253Z 08004KT 10SM CLR 27/23 A2999=
KSSI 081253Z AUTO 25005KT 10SM CLR 26/21 A3001=
KTCC 081253Z AUTO 05008KT 10SM FEW018 OVC075 18/16 A3025=
KTCL 081253Z 00000KT 10SM CLR 28/23 A3005=
KTCS 081253Z AUTO 36005KT 10SM SCT100 18/14 A3021=
KTLH 081253Z 33006KT 10SM BCFG CLR 27/23 A3004=
KTPA 081253Z 00000KT 10SM FEW200 27/21 A3002=
####018000374####
SAUS72 KWBC 081300 CCA
METAR
KBTR 081253Z 06006KT 6SM BR BKN003 OVC007 25/24 A3004=
KDAB 081253Z 33003KT 10SM FEW024 SCT250 27/21 A3002=
KMCN 081253Z 30005KT 10SM CLR 27/20 A3003=
KMGM 081253Z 33003KT 10SM CLR 28/22 A3004=
KTRI 081253Z 00000KT 6SM HZ CLR 25/20 A3013=
KTUP 081253Z 05005KT 10SM CLR 27/22 A3008=
KTYS 081253Z 00000KT 6SM HZ CLR 27/19 A3009=
####018000723####
SAUS72 KWBC 081300 RRC
METAR
KTUL 081253Z 35005KT 10SM FEW015 SCT030 BKN080 23/23 A3003=
KTXK 081253Z 00000KT 8SM OVC003 24/24 A3007=
KTYR 081253Z 12005KT 10SM CLR 26/23 A3006=
KVCT 081251Z 28003KT 10SM BKN020 OVC029 24/24 A2990=
KVLD 081253Z 00000KT 10SM CLR 27/21 A3003=
KVRB 081253Z 04007KT 10SM CLR 28/21 A2999=
TIST 081253Z 09012KT 10SM CLR 30/24 A3000=
TISX 081253Z 09011KT 10SM SCT022 29/24 A3000=
TJBQ 081250Z 07007KT 10SM SKC 30/26 A3001=
TJMZ 081250Z 05006KT 6SM HZ FEW030 31/25 A3002=
TJPS 081250Z 09008KT 8SM FEW030 31/24 A2998=
TJSJ 081256Z 08006KT 10SM FEW020 SCT036 29/26 A3001=
TKPK 081300Z 08014KT 9999 VCSH SCT016 30/25 Q1016=
TNCM 081300Z 08013KT 9999 SCT021 30/23 Q1016=
####018000268####
SAEQ01 SEQU 081300
METAR
SEQU 081300Z 08001KT 9999 FEW100 SCT300 12/08 Q1027 RMK A3035
NOSIG=
SEGU 081300Z  20005KT 9999  BKN040 OVC100 23/19 Q1012 NOSIG=
SEMT 081300Z 20006KT 9999 BKN020 BKN100 23/20 Q1013=
SELT 081300Z 00000KT 9999 FEW300 09/06 Q1032=
####018000087####
SANL33 EHDB 081255 RRA
METAR EHJR 081255Z AUTO 25006G06KT //// 17/15 Q1019 W16/S2=
####018000087####
SANL33 EHDB 081255 RRC
METAR EHSA 081255Z AUTO 20008G09KT 9999 17/16 Q1019 W16/S2=
####018001740####
SAIY40 LIIB 081300
METAR LIMG 081250Z 06007KT 9999 FEW060 30/25 Q1020 RMK VIS MIN 9999=
METAR LIMK 081255Z 00000KT CAVOK 21/12 Q1023 RMK SKC VAL NIL VIS MIN
      9999=
METAR LIMN 081255Z /////KT 9999 FEW030 28/17 Q1021 RMK FEW VIS MIN
      9999 BLU=
METAR LIMP 081250Z 07006KT 040V100 CAVOK 29/14 Q1021 RMK VIS MIN
9999=
METAR LIMS 081255Z 13003KT CAVOK 30/15 Q1020 RMK SKC VIS MIN 9999
      WIND THR30 13005KT BLU=
METAR LIMZ 081250Z 32005KT 8000 FEW035 SCT060 25/18 Q1023 RMK VIS
MIN 8000=
METAR LIPA 081255Z 22008KT 9999 FEW050 26/18 Q1021 RMK FEW VIS MIN
      9999 A3017 BLU=
METAR LIPB 081250Z 18013KT CAVOK 30/12 Q1019 RMK MON LIB VIS MIN
9999=
METAR LIPC 081300Z NIL=
METAR LIPF 081255Z 19004KT 9999 FEW035 29/20 Q1021 RMK FEW VIS MIN
      9999=
METAR LIPH 081245Z 13004KT 9999 SCT025 27/20 Q1022 RMK SCT VIS MIN
      9999 WIND THR07 /////KT BLU=
METAR LIPI 081255Z 19008KT CAVOK 27/19 Q1022 RMK SKC VIS MIN 9999 WIND THR06 19007KT BLU=
METAR LIPL 081255Z 06002KT 9999 FEW036 29/17 Q1021 RMK FEW VIS MIN
      9999 BLU=
METAR LIPO 081250Z 24005KT 100V260 9999 FEW050 29/12 Q1020 RMK VIS
MIN 9999=
METAR LIPQ 081250Z 28004KT CAVOK 27/14 Q1022=
METAR LIPR 081245Z 08011KT CAVOK 28/19 Q1021 RMK SKC VIS MIN 9999
      WIND THR31 08012KT BLU=
METAR LIPS 081255Z 00000KT 9999 SCT030 28/17 Q1021 RMK SCT VIS MIN
      9999 BLU=
METAR LIPX 081245Z 20005KT 9999 FEW040 30/14 Q1021 RMK FEW VIS MIN
      9999 BLU=
METAR LIPY 081250Z 06008KT 020V100 CAVOK 27/13 Q1021 RMK VIS MIN
9999=
METAR LIVC 081255Z 00000KT 9999 SCT001 16/11 Q1031 RMK SCT MON LIB
      VAL NIL VIS MIN 9999=
METAR LIVP 081255Z VRB03KT 9999 FEW003 15/11 Q1029 RMK FEW MON LIB
      VAL NIL VIS MIN 9999=
####018000139####
SAEW40 LEMM 081300
METAR LEBG 081300Z 14010KT 110V180 9999 SCT045 32/12 Q1020=
METAR LEHC 081300Z 12009KT 070V150 CAVOK 35/16 Q1020=
####018000094####
SAIY41 LIIB 081300 RRA
METAR LIVE 081255Z 18006KT CAVOK 21/12 Q1025 RMK SKC VIS MIN 9999=
####018000076####
SAAT31 TAPA 081304
METAR TAPA 081300Z 07012KT 9999  FEW022 30/24 Q1015=
####018000143####
SALC31 TLPL 081300
METAR TLPL 081300Z 09020KT 9999 SCT024 BKN280 30/24 Q1014=
METAR TLPC 081300Z 11010KT 9999 FEW026 BKN280 30/25 Q1014=
####018000087####
SANL33 EHDB 081255 RRB
METAR EHSC 081255Z AUTO 20005G05KT 9999 18/15 Q1019 W///S2=
####018000407####
SAPL31 EPWA 081300
METAR EPWA 081300Z 31010KT 270V340 CAVOK 23/11 Q1020 NOSIG=
METAR EPGD 081300Z 08009KT 040V110 9999 FEW036 24/13 Q1021=
METAR EPKK 081300Z VRB03KT CAVOK 24/06 Q1022=
METAR EPPO 081300Z VRB05KT CAVOK 25/07 Q1021=
METAR EPRZ 081300Z 30008KT 260V340 9999 FEW046 23/10 Q1021=
METAR EPBY 081300Z 35004KT 300V040 CAVOK 25/08 Q1021=
METAR EPZG 081300Z 23005KT CAVOK 27/07 Q1021=
####018000364####
SAPO31 LPMG 081300
METAR LPFR 081300Z 24010KT 9999 FEW012 24/20 Q1016=
METAR LPMA 081300Z VRB07G18KT 9999 FEW016 24/17 Q1020 RS17006KT
0519006KT 2302015KT=
METAR LPPR 081300Z 21006KT 180V260 7000 SCT006 BKN007 21/18 Q1016=
METAR LPPS 081300Z 01011KT 350V050 9999 FEW016 SCT030 23/15 Q1021=
METAR LPPT 081300Z 27009KT 230V310 CAVOK 29/19 Q1016 NOSIG=
####018001703####
SAIY42 LIIB 081300
METAR LIBF 081250Z 32018KT CAVOK 28/06 Q1019 RMK VIS MIN 9999=
METAR LIEA 081250Z 21007KT 170V330 9999 FEW025 33/19 Q1019 RMK VIS
MIN 9999=
METAR LIED 081300Z NIL=
METAR LIEO 081250Z 05012KT CAVOK 30/20 Q1019 RMK VIS MIN 9999=
METAR LIMA 081250Z VRB03KT CAVOK 26/16 Q1022 RMK VIS MIN 9999=
METAR LIQN 081250Z 32008KT 9999 FEW045 29/17 Q1021 RMK VIS MIN 9999=
METAR LIQO 081255Z 20005KT 9999 SCT003 29/22 Q1022 RMK SCT VAL NIL NC
      VIS MIN 9999=
METAR LIQW 081300Z NIL=
METAR LIRE 081255Z 24010KT 9999 FEW020 28/20 Q1019 RMK FEW VIS MIN
      9999 WIND THR31 24009KT BLU=
METAR LIRG 081255Z 25010KT 9999 SCT033TCU 31/20 Q1019 RMK SCT MON
     NE LIB NC VIS MIN 9999 BLU=
METAR LIRH 081255Z 28005KT 9999 FEW030 SCT035 FEW040CB 30/20 Q1019
      RMK BKN MON LIB NC VIS MIN 9999 WIND THR16 28006KT BLU=
METAR LIRI 081250Z 03008KT CAVOK 30/12 Q1018 RMK VIS MIN 9999=
METAR LIRK 081255Z 12006KT CAVOK 16/15 Q1027 RMK BKN BKN060 MON NE
      LIB NC VAL NIL NC VIS MIN 9999=
METAR LIRL 081255Z 25008KT 9999 FEW020 30/17 Q1019 RMK FEW MON LIB NC
      VIS MIN 9999 BLU=
METAR LIRM 081255Z 12010KT 9999 FEW016 30/14 Q1019 RMK FEW VIS MIN
      9999 WIND THR06 06005KT BLU=
METAR LIRS 081255Z 23012KT 9999 FEW040 30/21 Q1019 RMK FEW VIS MIN
      9999 WIND THR21 /////KT BLU=
METAR LIRT 081255Z 36009KT CAVOK 18/05 Q1023 RMK SKC MON LIB VAL NIL
      VIS MIN 9999=
METAR LIRU 081250Z 23007KT 9999 SCT040 30/17 Q1020 RMK VIS MIN 9999=
METAR LIRV 081255Z 27013KT 9999 SCT028 29/22 Q1020 RMK SCT MON E SE
      LIB NC VIS MIN 9999 BLU=
METAR LIRX 081300Z NIL=
METAR LIRZ 081250Z 02010KT 330V060 9999 FEW040 31/11 Q1020 RMK VIS
MIN 9999=
####018000111####
SAIY42 LIIB 081300 RRA
METAR LIQW 081255Z 21003KT 9999 SCT025 30/20 Q1020 RMK SCT VIS MIN
      9999 BLU=
####018000104####
SATU31 LTAA 081250 CCA
METAR LTFJ 081250Z 01017KT 9999 BKN030 23/17 Q1011 TEMPO FM1400 4000
TSRA=
####018000073####
SALY31 HLLS 081300
METAR HLLS 081255Z 
O4O11KT  CAVOK  37/O9 Q1O16=
####018000320####
SAPL32 EPWA 081300
METAR EPKT 081300Z 35004KT CAVOK 23/08 Q1022=
METAR EPLL 081300Z 35007G17KT CAVOK 23/05 Q1022=
METAR EPSC 081300Z 00000KT CAVOK 25/11 Q1021=
METAR EPWR 081300Z 08002KT CAVOK 26/10 Q1022=
METAR EPBY 081300Z 35004KT 300V040 CAVOK 25/08 Q1021=
METAR EPZG 081300Z 23005KT CAVOK 27/07 Q1021=
####018000075####
SADO31 TDPD 081300
METAR TDCF 081300Z 09005KT 9999 SCT018 30/24 Q1015=
####018001113####
SAIY41 LIIB 081300
METAR LIMH 081255Z 08002KT 9999 SCT000TCU 07/M01 Q1040 RMK SCT MON
      CLD SCT VAL S CLD SCT VIS MIN 9999=
METAR LIMT 081255Z /////KT 9999 16/12 Q1024 RMK OVC MON LIB VAL NIL
      VIS MIN 9999=
METAR LIMU 081255Z 11006KT 9999 FEW026 30/22 Q1020 RMK BKN BKN070 QUK
      2 QUL 1 S VIS MAR 15 KM VIS MIN 9999=
METAR LIMV 081255Z 34009KT 7000 SCT012 25/19 Q1022 RMK SCT MON LIB
      CUF VAL FOSCHIA VIS MIN 7000=
METAR LIMY 081255Z /////KT 9000 SCT026 23/16 Q1023 RMK BKN VAL
      FOSCHIA VIS MIN 9000=
METAR LIVD 081255Z 00000KT CAVOK 24/08 Q1023 RMK SKC VIS MIN 9999=
METAR LIVE 081300Z NIL=
METAR LIVF 081255Z 05004KT CAVOK 27/07 Q1022 RMK SKC MON LIB VAL NIL
      VIS MIN 9999=
METAR LIVM 081255Z 13009KT CAVOK 28/21 Q1021 RMK SKC QUK 2 QUL 1 SE
      VIS MAR 30 KM VIS MIN 9999=
METAR LIVO 081255Z 01003KT 9999 FEW040 26/12 Q1021 RMK FEW VIS MIN
      9999=
METAR LIVR 081255Z /////KT 9999 FEW030 17/14 Q1028 RMK FEW MON LCLD
      CIME VIS MIN 9999=
METAR LIVT 081255Z 26002KT CAVOK 25/15 Q1021 RMK SKC QUK 1 QUL 0 VIS
      MAR 20 KM VIS MIN 9999=
####018001538####
SAIY43 LIIB 081300
METAR LIBA 081255Z /////KT CAVOK 29/09 Q1020 RMK FEW FEW200 VIS MIN
      9999 WIND THR29 31012KT BLU=
METAR LIBC 081250Z 04019KT CAVOK 27/09 Q1017 RMK VIS MIN 9999=
METAR LIBD 081250Z 36014KT CAVOK 25/12 Q1020 RMK VIS MIN 9999=
METAR LIBG 081250Z 01016KT 360V040 CAVOK 28/10 Q1018 RMK VIS MIN
9999=
METAR LIBN 081255Z 33023G36KT CAVOK 26/10 Q1017 RMK FEW FEW200 VIS
      MIN 9999 WIND THR14 34020G35KT BLU=
METAR LIBP 081250Z 05005KT CAVOK 26/07 Q1021 RMK VIS MIN 9999=
METAR LIBQ 081255Z 26005KT 9999 FEW008TCU SCT009 17/11 Q1024 RMK SCT
      MON LIB VAL NIL VIS MIN 9999=
METAR LIBR 081245Z /////KT CAVOK 25/13 Q1018 NOSIG RMK SKC VIS MIN
      9999 WIND THR13 WIND THR31 33019KT BLU=
METAR LIBV 081255Z 01017G27KT CAVOK 25/10 Q1017 RMK SKC VIS MIN 9999
      WIND THR14 36018KT BLU=
METAR LICA 081250Z 27014KT 9999 FEW030 29/22 Q1017 RMK VIS MIN 9999=
METAR LICC 081250Z 11013KT CAVOK 28/20 Q1018 RMK VIS MIN 9999=
METAR LICD 081250Z 35007KT CAVOK 26/21 Q1019 RMK VIS MIN 9999=
METAR LICG 081255Z 34007KT 9999 FEW016 24/22 Q1019 RMK BKN SCT200 VIS
      MIN 9999 WIND THR08 33006KT WIND THR21 36007KT BLU=
METAR LICJ 081250Z 04015KT 9999 FEW018 28/23 Q1018 RMK VIS MIN 9999=
METAR LICR 081250Z 22007KT 200V260 9999 FEW020 BKN040 27/20 Q1018
RMK VIS MIN 9999=
METAR LICT 081255Z 33013G24KT 9999 FEW022 30/25 Q1018 RMK FEW VIS MIN
      9999 WIND THR13 33010KT BLU=
METAR LICZ 081255Z 10017KT 9999 FEW020 30/20 Q1017 RMK FEW VIS MIN
      9999 WIND THR28 //////KT BLU=
####018001682####
SAUS73 KWBC 081300
METAR
KABR 081253Z AUTO 27003KT 10SM CLR 19/15 A3014=
KALN 081250Z 00000KT 05SM BR BKN008 OVC080 25/24 A3006=
KALO 081254Z AUTO 34008KT 10SM CLR 21/19 A3009=
KAPN 081254Z VRB03KT 4SM -RA BR SCT035 BKN048 OVC060 23/21
     A3001=
KASE 081253Z 00000KT 10SM FEW100 07/06 A3039=
KATY 081253Z AUTO 23003KT 10SM CLR 18/14 A3015=
KAXN 081253Z AUTO 28007KT 10SM CLR 19/16 A3013=
KAZO 081253Z VRB03KT 5SM HZ CLR 26/21 A3004=
KBDE 081253Z AUTO 25004KT 10SM CLR 17/13 A3001=
KBFF 081253Z AUTO 00000KT 10SM FEW042 BKN055 15/13 A3031=
KBIS 081252Z 27003KT 10SM CLR 16/11 A3016=
KBJC 081252Z 34008KT 8SM BKN006 BKN025 13/10 A3033=
KBKF 081255Z 36005KT 3/4SM BR OVC002 13/13 A3034=
KBRL 081253Z AUTO 7SM OVC004 23/22 A3005=
KBTL 081253Z 00000KT 10SM CLR 26/21 A3006=
KCGI 081253Z 25003KT 10SM BKN100 27/24 A3005=
KCID 081252Z 33008KT 9SM BKN005 21/19 A3007=
KCIU 081255Z AUTO 32006KT 9SM BKN005 OVC009 20/18 A2999=
KCMI 081253Z 25005KT 10SM CLR 26/23 A3005=
KCMX 081253Z AUTO 30003KT 10SM SCT110 21/16 A3000=
KCOS 081254Z 11004KT 10SM CLR 13/12 A3036=
KCOU 081254Z 00000KT 10SM FEW003 OVC011 23/22 A3009=
KCPR 081253Z 33003KT 10SM CLR 07/06 A3035=
KCYS 081253Z 00000KT 10SM OVC016 13/11 A3037=
KDDC 081252Z AUTO 01008KT 3SM BR OVC003 18/17 A3020=
KDEC 081254Z 00000KT 7SM FEW007 SCT070 27/23 A3006=
KDEN 081253Z 05003KT 1/4SM R35L/2400V6000FT BR OVC003 14/14
     A3033=
KDET 081253Z AUTO 23004KT 10SM CLR 29/21 A3003=
KDLH 081255Z 28007KT 10SM CLR 20/14 A3006=
KDSM 081254Z 34008KT 10SM FEW009 BKN250 22/19 A3011=
KDTW 081253Z 21003KT 6SM HZ FEW150 28/21 A3003=
KEAU 081256Z 32004KT 10SM CLR 20/18 A3007=
####018000091####
SPUS72 KWBC 081307
SPECI
KMFE 081304Z 34008KT 10SM FEW008 SCT011 BKN033 26/24 A2981=
####018001657####
SAUS73 KWBC 081300 RRA
METAR
KEGE 081250Z 00000KT 10SM SKC 09/08 A3040=
KELO 081253Z AUTO 24006KT 10SM CLR 18/15 A3002=
KEVV 081254Z 21003KT 10SM CLR 28/22 A3007=
KFAR 081253Z 23005KT 10SM CLR 18/13 A3008=
KFNT 081253Z AUTO 00000KT 9SM CLR 27/21 A3004=
KFSD 081256Z 00000KT 10SM R03/5500VP6000FT CLR 19/16 A3017=
KFWA 081254Z COR 20003KT 8SM FEW060 SCT250 27/21 A3006=
KFWA 081254Z 20003KT 8SM FEW060 27/21 A3006=
KGCK 081254Z 01010KT 10SM SCT017 18/16 A3024=
KGFK 081253Z 31006KT 10SM FEW080 18/14 A3006=
KGJT 081253Z 09010KT 10SM CLR 20/07 A3020=
KGRB 081253Z 30004KT 3SM BR OVC004 22/21 A3001=
KGRI 081253Z 36004KT 10SM CLR 17/15 A3022=
KGRR 081253Z 00000KT 2 1/2SM BR FEW006 SCT050 OVC130 24/22
     A3004=
KGYY NIL=
KHIB 081253Z AUTO 21005KT 10SM CLR 18/16 A3005=
KHON 081255Z AUTO 28004KT 10SM CLR 18/14 A3016=
KHUF 081253Z 25005KT 9SM CLR 28/23 A3006=
KHUT 081252Z 01008KT 2 1/2SM BR OVC004 21/21 A3014=
KICT 081253Z 36008KT 10SM BKN008 BKN080 BKN120 23/21 A3011=
KIKK NIL=
KIND 081254Z 22006KT 8SM FEW060 BKN210 27/21 A3004=
KINL 081255Z AUTO 26006KT 10SM CLR 17/14 A3001=
KIRK 081255Z AUTO 35005KT 10SM CLR 22/21 A3009=
KJAC 081255Z AUTO 36003KT 10SM CLR 07/00 A3038=
KJAC 081251Z 00000KT 10SM SKC 07/00 A3038=
KJLN 081253Z 33005KT 1/2SM VCTS FG BKN004 BKN010 OVC070 22/22
     A3008=
KJMS 081256Z AUTO 27005KT 10SM CLR 16/14 A3011=
KJXN 081256Z 00000KT 10SM CLR 26/21 A3006=
KLAN 081253Z 21004KT 9SM FEW120 SCT200 26/21 A3005=
KLAR 081253Z AUTO 00000KT 6SM BR OVC004 08/08 A3041=
KLBF 081253Z AUTO 31004KT 10SM CLR 17/16 A3027=
KLBL 081255Z 36014KT 5SM OVC005 19/17 A3023=
####018000199####
SARE20 FMEE 081300
METAR
FMCZ 081300Z 13009KT 9999 SCT023 26/18 Q1016=
FMEE 081300Z 12019KT 9999 FEW023 SCT060 22/15 Q1021 TEMPO
13028G38KT=
FMEP 081300Z 12029KT 9999 FEW021 23/14 Q1020=
####018001660####
SAUS73 KWBC 081300 RRB
METAR
KLEX 081254Z 17003KT 4SM HZ CLR 27/20 A3010=
KLNK 081254Z 36007KT 10SM CLR 19/17 A3017=
KLOU 081253Z 18003KT 5SM HZ CLR 27/22 A3007=
KLOZ 081253Z AUTO 00000KT 3SM HZ CLR 24/21 A3012=
KLSE 081253Z 34009KT 10SM CLR 22/18 A3006=
KMBS 081253Z 26005KT 10SM SCT110 24/22 A3003=
KMCI 081253Z 02005KT 3/4SM BR OVC002 23/22 A3009=
KMDW 081251Z 00000KT 4SM -RA BR FEW007 BKN039 OVC050 24/22
     A3003=
KMHK 081252Z 02007KT 5SM BR OVC010 22/21 A3011=
KMKC 081254Z 36003KT 10SM OVC008 23/21 A3009=
KMKE 081252Z 26006KT 10SM BKN019 OVC080 23/21 A3002=
KMKG 081255Z 16005KT 6SM BR FEW005 OVC055 24/22 A3002=
KMLI 081252Z 30006KT 9SM BKN011 24/22 A3004=
KMOT 081254Z 23005KT 10SM FEW080 16/12 A3012=
KMSN 081253Z VRB03KT 6SM BR OVC006 22/21 A3004=
KMSP 081253Z 00000KT 10SM CLR 21/17 A3011=
KOFF 081255Z AUTO VRB05KT 10SM CLR 21/19 A3014=
KOMA 081252Z 35007KT 10SM FEW005 SCT022 BKN250 20/19 A3016=
KORD 081251Z 26004KT 5SM BR FEW006 BKN022 OVC055 23/22 A3003=
KOSH 081253Z 26005KT 8SM SCT004 23/21 A3001=
KOTM 081253Z AUTO 35006KT 7SM CLR 21/20 A3008=
KOWB 081256Z 21003KT 10SM CLR 29/24 A3008=
KPAH 081253Z 24005KT 10SM CLR 27/23 A3006=
KPIA 081254Z 30004KT 10SM OVC006 23/22 A3005=
KPIR 081253Z AUTO 24006KT 10SM CLR 16/12 A3019=
KPLN 081254Z AUTO 26004KT 6SM -RA BR OVC007 22/21 A3000=
KPTK 081253Z 30005KT 9SM FEW150 SCT240 28/21 A3004=
KPUB 081253Z 00000KT 10SM CLR 15/13 A3031=
KRAP 081252Z 29005KT 10SM CLR 15/11 A3026=
KRFD 081254Z 30006KT 10SM SCT006 OVC180 24/21 A3006=
KRKS 081254Z AUTO 05007KT 10SM FEW120 09/06 A3036=
KRST 081254Z 34010KT 10SM CLR 20/18 A3013=
####018000183####
SABC40 FBSK 081300
METAR FBFT 081300Z 11010KT 9999 BKN020 20/10 Q1029=
METAR FBMN 081300Z 07013KT CAVOK 25/05 Q1025=
METAR FBSK 081300Z 07012KT 9999 BKN020 21/07 Q1028 NOSIG=
####018000978####
SAAE31 VTBB 081300
METAR VTBS 081300Z 18003KT 9999 FEW020 SCT120 BKN300 30/25 Q1007 
           NOSIG=
METAR VTBD 081300Z 16005KT 9999 FEW020 SCT120 BKN300 30/24 Q1007
           NOSIG=
METAR VTCC 081300Z 05010KT 9999 FEW025CB SCT035 BKN300 29/22 Q1008
           A2978 CB NE,E,SSE=
METAR VTBU 081300Z 19002KT 9999 FEW020 BKN300 31/26 Q1007 A2975=
METAR VTSS 081300Z NIL=
METAR VTSP 081300Z 33004KT 9000 FEW020 SCT120 BKN300 29/23 Q1010
           A2984=
METAR VLVT 081300Z NIL=
METAR VYYY 081300Z NIL=
METAR VVTS 081300Z 15010KT 8000 TS SCT015 SCT017CB 27/22 Q1009
           TEMPO            TL1330   1000 TSRA=
METAR VVNB 081300Z 09007KT 060V130 CAVOK 30/24 Q1002 NOSIG=
METAR VDPP 081300Z 22003KT 9000 SCT015 FEW017CB SCT040 29/22 Q1008
           CB:NE NW=
METAR VVDN 081300Z 24008KT 9999 FEW017 SCT300 26/21 Q1008 NOSIG=
METAR VYMD 081300Z NIL=
METAR VDSR 081300Z 18005KT 8000 SCT017 SCT130 27/23 Q1008=
METAR VVPB 081300Z NIL=
####018000085####
SAEW37 LEMM 081300 RRA
METAR LEGA 081300Z 18017G27KT 9999 FEW060TCU 39/14 Q1017=
####018001016####
SAUS73 KWBC 081300 RRC
METAR
KSAW 081250Z 31003KT 10SM SCT015 20/18 A2999=
KSBN 081254Z 13003KT 5SM -RA BR FEW035 BKN060 OVC075 23/22
     A3006=
KSDF 081256Z 12003KT 5SM HZ FEW100 28/21 A3007=
KSDM 081253Z AUTO 00000KT 10SM OVC010 16/13 A2991=
KSGF 081252Z 17003KT 9SM OVC007 23/23 A3008=
KSLN 081253Z 35011KT 5SM BR OVC006 21/19 A3014=
KSPI 081252Z 00000KT 10SM SCT030 25/23 A3005=
KSTC 081253Z 26004KT 10SM CLR 19/16 A3010=
KSTJ 081253Z 01008KT 9SM OVC009 23/21 A3009=
KSTL 081251Z COR 24004KT 10SM FEW009 BKN025TCU BKN080 BKN150
     BKN250 26/23 A3007=
KSTL 081251Z 24004KT 10SM BKN025TCU BKN080 BKN150 BKN250 26/23
     A3007=
KSTP 081253Z 31006KT 10SM CLR 21/16 A3011=
KSUS 081254Z 24003KT 10SM -RA OVC024 24/23 A3005=
KSUX 081252Z 33005KT 10SM CLR 18/17 A3018=
KTVC 081253Z 00000KT 7SM BKN014 OVC028 22/21 A3000=
KUIN 081254Z AUTO 30006KT 10SM BKN005 OVC010 23/22 A3007=
KWRL 081253Z AUTO 24003KT 10SM CLR 11/05 A3029=
KYIP 081253Z 24003KT 10SM CLR 28/21 A3005=
####018000082####
SPUS81 KWBC 081307
SPECI
KHLC 081304Z AUTO 03003KT 10SM OVC031 19/15 A3024=
####018000085####
SAIR33 OIII 081300 RRA
METAR OIBL 081250Z 21010KT 4000 HZ SKC 37/27 Q0999 A2951=
####018001694####
SAUS74 KWBC 081300
METAR
KACV 081253Z AUTO 00000KT 10SM OVC003 10/09 A2996=
KALW 081253Z AUTO 13004KT 10SM CLR 17/07 A3000=
KBFI 081253Z 00000KT 10SM CLR 18/12 A2995=
KBFL 081254Z AUTO 00000KT 10SM CLR 20/11 A2986=
KBIL 081253Z 23005KT 10SM FEW120 13/06 A3026=
KBKE 081253Z AUTO 00000KT 10SM CLR 06/06 A3013=
KBLI 081253Z AUTO 00000KT 10SM CLR 14/13 A2997=
KBOI 081253Z 14004KT 10SM CLR 17/06 A3008=
KBTM 081253Z AUTO 00000KT 10SM CLR 06/01 A3033=
KBUR 081253Z 35005KT 6SM HZ OVC007 16/13 A2990=
KBYI 081253Z AUTO VRB03KT 10SM CLR 11/05 A3015=
KBZN 081256Z 00000KT 10SM CLR 09/06 A3030=
KCDC 081253Z AUTO 17003KT 10SM CLR 15/03 A3017=
KCEC 081256Z AUTO 00000KT 3SM BR OVC003 10/09 A2998=
KCLM 081253Z AUTO A2999=
KCTB 081256Z AUTO 28005KT 10SM CLR 09/06 A3023=
KCXL NIL=
KEKO 081256Z AUTO 00000KT 10SM CLR 11/M02 A3014=
KEUG 081254Z 20006KT 10SM FEW150 SCT300 12/10 A2994=
KFAT 081253Z 31009KT 10SM CLR 19/09 A2984=
KFLG 081256Z 00000KT 10SM SCT120 10/01 A3028=
KGCN 081254Z 04003KT 10SM CLR 11/M01 A3025=
KGEG 081253Z 04006KT 10SM CLR 16/08 A3008=
KGGW 081253Z AUTO 29004KT 10SM CLR 13/09 A3017=
KGTF 081253Z 22004KT 10SM CLR 11/07 A3023=
KHLN 081253Z 00000KT 10SM CLR 10/04 A3026=
KHQM 081253Z AUTO 27004KT 1/2SM FG 13/12 A2996=
KIDA 081253Z 36008KT 10SM CLR 09/06 A3022=
KIWA NIL=
KLAS 081256Z 21007KT 10SM FEW150 26/M03 A2984=
KLAX 081253Z 00000KT 7SM BCFG OVC012 16/13 A2991=
KLGB 081253Z 30004KT 9SM OVC013 17/13 A2991=
KLMT 081253Z AUTO 00000KT 10SM CLR 16/09 A3007=
KLVM 081253Z AUTO 31004KT 10SM CLR 07/04 A3031=
KMFR 081253Z AUTO 00000KT 10SM CLR 20/12 A2992=
KMLS 081253Z AUTO 15003KT 10SM CLR 13/11 A3021=
####018001652####
SAUS74 KWBC 081300 RRA
METAR
KMRY 081254Z 28004KT 10SM OVC006 13/10 A2994=
KMSO 081253Z 12004KT 10SM CLR 11/07 A3022=
KMYV 081253Z AUTO 15003KT 10SM CLR 15/11 A2984=
KNTD 081256Z 28006KT 7SM SCT009 OVC011 14/13 A2990=
KOAK 081253Z 31007KT 8SM OVC007 14/11 A2994=
KOGD 081253Z 20004KT 10SM CLR 18/06 A3013=
KOLM 081254Z AUTO 00000KT 10SM CLR 12/10 A2996=
KONT 081253Z 22004KT 3SM BR OVC010 15/13 A2991=
KOTH 081255Z 23003KT 10SM OVC006 09/08 A3000=
KPAE 081253Z AUTO 00000KT 10SM CLR 18/12 A2998=
KPDX 081253Z 28003KT 10SM FEW080 17/13 A2991=
KPHX 081251Z 00000KT 10SM SCT170 31/03 A2979=
KPIH 081253Z 00000KT 10SM CLR 07/03 A3019=
KPMD 081253Z 17003KT 10SM CLR 15/02 A2992=
KPRB 081253Z AUTO 34003KT 8SM OVC005 12/11 A2992=
KPRC 081253Z 00000KT 10SM SCT060 17/01 A3012=
KPSP 081253Z 00000KT 10SM CLR 23/13 A2976=
KRBL 081254Z AUTO 18003KT 10SM CLR 21/14 A2985=
KRDD 081253Z AUTO 17004KT 10SM CLR 22/16 A2983=
KRDM 081256Z 00000KT 10SM CLR 08/02 A3008=
KRNO 081255Z 00000KT 10SM SCT120 BKN160 19/06 A3006=
KRNT 081253Z AUTO 00000KT 9SM CLR 16/13 A2995=
KSAC 081253Z 18003KT 10SM CLR 13/10 A2985=
KSAN 081251Z 32004KT 8SM OVC015 16/14 A2993=
KSBA 081253Z 00000KT 9SM OVC011 14/12 A2991=
KSBD NIL=
KSBP 081256Z 00000KT 6SM BR OVC005 12/12 A2993=
KSCK 081255Z AUTO 36003KT 10SM CLR 12/11 A2985=
KSEA 081253Z 35005KT 10SM CLR 18/12 A2997=
KSFF 081253Z 00000KT 10SM CLR 13/11 A3008=
KSFO 081256Z COR 27012KT 10SM OVC008 13/11 A2993=
KSFO 081256Z 27012KT 10SM BKN008 13/11 A2993=
KSHR 081253Z AUTO 00000KT 10SM CLR 09/07 A3027=
KSJC 081253Z 00000KT 7SM FEW008 BKN011 OVC013 15/12 A2992=
####018000574####
SAUS74 KWBC 081300 RRB
METAR
KSLC 081253Z 00000KT 10SM FEW090 BKN130 18/08 A3011=
KSMF 081253Z 15008KT 10SM CLR 13/11 A2984=
KSMX 081251Z 30005KT 3SM BR OVC005 12/11 A2993=
KSNA 081253Z 00000KT 8SM OVC015 18/13 A2991=
KSNS 081253Z 28003KT 8SM OVC009 13/11 A2993=
KTIW 081253Z AUTO 00000KT 10SM CLR 18/12 A2996=
KTUS 081253Z 15005KT 10SM CLR 28/10 A2993=
KTVL 081253Z AUTO 00000KT 10SM CLR 08/05 A3017=
KTWF 081253Z 10011KT 10SM CLR 16/01 A3014=
KUKI 081256Z AUTO 00000KT 10SM CLR 12/09 A2991=
KYKM 081253Z 29006KT 10SM CLR 12/08 A3003=
KYUM NIL=
####018000086####
SAIR33 OIII 081300 RRB
METAR OIHH 081250Z 20006KT 9999 FEW040 39/M05 Q1014 A2995=
####018000799####
SACN92 CWAO 081300
WJI NIL=
WJK NIL=
WJL SA 1300 AUTO8 M M M 160/14/11/2304/M/ 8002 74MM=
WJM NIL=
WJN NIL=
WJO NIL=
WJP NIL=
WJR SA 1300 AUTO8 M M M 208/15/M/0301/M/ 1007 8MMM=
WJT NIL=
WJU NIL=
WJV SA 1300 AUTO8 M M M 188/15/08/1005/M/ 3010 60MM=
WJW SA 1300 AUTO8 M M M 228/05/04/2003/M/ 3006 11MM=
WJX NIL=
WKA NIL=
WKB SA 1300 AUTO8 M M M 193/15/12/2602/M/ 8003 43MM=
WKD NIL=
WKF SA 1300 AUTO8 M M M M/15/M/MMMM/M/ M 8MMM=
WKG NIL=
WKH SA 1300 AUTO8 M M M M/22/M/MMMM/M/M M 7MMM=
WKX NIL=
WLC NIL=
WLE NIL=
WLF NIL=
WLG NIL=
WLJ NIL=
WLK NIL=
WLM SA 1300 AUTO8 M M M M/19/10/3609/M/ M 18MM=
WLQ NIL=
WLU NIL=
WLV NIL=
WME NIL=
WMF NIL=
WMI NIL=
WMJ SA 1300 AUTO8 M M M 159/27/21/1602/M/ 8003 23MM=
WMM NIL=
WMQ NIL=

####018000086####
SACN40 CWAO 081300
METAR CYWH 081300Z 05003KT 15SM SKC 18/11 A2998 RMK SLP151=

####018001375####
SACN50 CWAO 081300
VAS SA 1300 AUTO8 M M M M/15/06/2102/M/M M 83MM=
VLY SA 1300 AUTO8 M M M 190/14/10/1601/M/ 3014 81MM=
VMO SA 1300 AUTO8 M M M M/M/M/MMMM/M/ M MMMM=
VOA NIL=
VOB SA 1300 AUTO8 M M M 181/16/07/0000/M/ M001 50MM=
VOC SA 1300 AUTO8 M M M 183/11/08/0000/M/ 2004 63MM=
VOD SA 1300 AUTO8 M M M 181/11/05/0802/M/ 3002 05MM=
VOE NIL=
VOF SA 1300 AUTO8 M M M M/13/07/3602/M/M M 86MM=
VOG NIL=
VOH SA 1300 AUTO8 M M M M/15/02/0504/M/M M 72MM=
VOI NIL=
VOJ SA 1300 AUTO8 M M M M/17/M/0503/M/ M 3MMM=
VOK SA 1300 AUTO8 M M M M/14/07/0601/M/M M 18MM=
VOL NIL=
VOM SA 1300 AUTO8 M M M 155/20/10/3001/M/ 1009 99MM=
VOO SA 1300 AUTO8 M M M 166/13/10/0000/M/ M006 66MM=
VOP SA 1300 AUTO8 M M M 161/14/12/0702/M/ M 12MM=
VOQ SA 1300 AUTO8 M M M 154/15/11/2601/M/ M007 24MM=
VOU SA 1300 AUTO8 M M M 154/15/11/3202/M/ M 17MM=
VOV SA 1300 AUTO8 M M M M/11/07/0401/M/M M 58MM=
VOW NIL=
VOX NIL=
VOY SA 1300 AUTO8 M M M M/11/06/3302/M/M M 44MM=
VOZ NIL=
VQZ NIL=
VSL NIL=
VTS SA 1300 AUTO8 M M M 155/19/14/3402/M/ 2008 88MM=
VWB SA 1300 AUTO8 M M M M/16/05/MMMM/M/M M 83MM=
VXS NIL=
WFG NIL=
WGP SA 1300 AUTO8 M M M 181/11/10/MMMM/M/ 1012 78MM=
WHC SA 1300 AUTO8 M M M M/18/11/MMMM/M/ M 02MM=
WPN SA 1300 AUTO8 M M M M/11/M/2401/M/M M 0MMM=
WPU SA 1300 AUTO8 M M M 215/07/03/2802/M/ 1009 87MM=
ZKA NIL=

####018001830####
SACN44 CWAO 081300
METAR CWIQ NIL=
METAR CWRF 081300Z AUTO ///// 12/ A2971=
METAR CWVD 081300Z AUTO ///// 12/ A2982 RMK SLP122=
METAR CYBW 081300Z 31005KT 30SM FEW160 BKN280 07/06 A3020 RMK AC1CI0
SLP234=
METAR CYCY 081300Z AUTO 09004KT 9SM FEW066 11/07 A2981 RMK SLP098=
METAR CYED 081300Z AUTO 01002KT 9SM CLR 14/13 A3008 RMK SLP189=
METAR CYEK 081300Z 17003KT 15SM OVC003 07/07 A2960 RMK ST8 SLP024=
METAR CYIO 081300Z AUTO 23004KT 9SM SCT068 OVC090 07/04 A2979 RMK
SLP092=
METAR CYLJ 081300Z 23007KT 15SM FEW090 BKN120 BKN250 14/12 A3001 RMK
ACC2AC4CI1 SH S + NNW SLP171=
METAR CYLT 081300Z 17021G26KT 25SM SCT240 16/05 A2965 RMK CI0 SLP041=
METAR CYMJ NIL=
METAR CYOD 081300Z 28004KT 15SM BKN070 BKN160 BKN250 15/13 A3004 RMK
AC6AC1CI0 ACC ASOCTD SH DIST W SLP180=
METAR CYPE 081300Z 23004KT 15SM BKN060 16/12 A3004 RMK SC7 SLP176=
METAR CYQV 081300Z AUTO 28005KT 9SM CLR 13/11 A3009 RMK SLP199=
METAR CYSF 081300Z AUTO 31010KT 9SM CLR 16/08 A2984 RMK SLP113
 DENSITY ALT 1200FT=
METAR CYSM 081300Z 00000KT 15SM FEW080 BKN120 BKN220 15/11 A2992 RMK
AC1AC4CI1 SLP137=
METAR CYSR 081300Z 25006KT 40SM FEW020 SCT040 SCT220 11/04 A2979 RMK
SF1SC2CI1 SLP119=
METAR CYTH 081300Z 26007KT 15SM FEW072 SCT090 BKN250 13/10 A2981 RMK
ACC1AC2CI1 FEW VIRGA S SLP101=
METAR CYUB 081300Z 31017G22KT 15SM BKN010 05/02 A3003 RMK SC7 CIG RAG
7.1/4.9/0.4 SLP169=
METAR CYUJ NIL=
METAR CYUS 081300Z AUTO ///// 9SM CLR 13/ A2979 RMK SLP090=
METAR CYUX 081300Z 02004KT 15SM BKN081 BKN100 BKN210 08/05 A2981 RMK
AC5AC1CI0 VIRGA E SLP097=
METAR CYVT 081300Z 00000KT 15SM SCT020 BKN070 BKN220 16/11 A2996 RMK
SC3AC2CI0 SLP153=
METAR CYXH 081300Z 22004KT 30SM SCT270 12/10 A3017 RMK CI0 SLP223=
METAR CYZU 081300Z 00000KT 15SM BKN070 BKN240 12/08 A3010 RMK AC2CI0
SLP194=

####018000985####
SACN52 CWAO 081300
METAR CWEU 081300Z 18009KT 40SM FEW050 BKN150 OVC200 13/03 A2965 RMK
CF0AC0CI0 SLP043=
METAR CWFD 081300Z AUTO 01004KT 9SM 11/ RMK ALTM MISG=
METAR CWGZ 081300Z 00000KT 45SM FEW100 FEW220 05/02 A2976 RMK AC1CI1
SLP082=
METAR CWKP 081300Z AUTO 22005KT 07/ A2984 RMK SLP128=
METAR CWRH 081300Z AUTO ///// 10/ A2976 RMK SLP099=
METAR CWSA NIL=
METAR CWTU 081300Z AUTO 16009KT 11/ A2992 RMK SLP147=
METAR CWWU 081300Z 19007KT 15SM OVC014 16/12 A3022 RMK SC8 SLP233=
METAR CWXR 081300Z AUTO 32004KT 05/ A2987 RMK SLP122=
METAR CWYM 081300Z AUTO 14009KT 13/ RMK ALTM MISG SLP121=
METAR CYPD 081300Z AUTO 18008KT 9SM CLR 24/17 A3012 RMK SLP201
 DENSITY ALT 1200FT=
METAR CZEM NIL=
METAR CZFM 081300Z 18003KT 35SM FEW020 BKN040 BKN070 08/07 A3010 RMK
SF0SC3AC3 15.1/7.4/9.2 SLP195=
METAR CZFN NIL=
METAR CZPC 081300Z AUTO 28005KT 9SM CLR 09/08 A3022 RMK SLP232=
METAR CZUM 081300Z AUTO 23006KT 9SM FEW079 23/16 A2990 RMK SLP128=

####018000387####
SACN70 CWAO 081300
PGF SA 1300 AUTO8 M M M 163/17/12/2805/M/ 1012 51MM=
PGH NIL=
PLE NIL=
POY SA 1300 AUTO8 M M M 176/14/12/3007/M/ 1016 21MM=
PQD SA 1300 AUTO8 M M M 142/14/10/2608/M/ 1001 86MM=
PSU NIL=
PYQ SA 1300 AUTO8 M M M 030/14/11/2508/M/ 8006 65MM=
WEX SA 1300 AUTO8 M M M 158/16/13/3109/M/ 3016 43MM=
WJD NIL=
WOO NIL=
WSZ NIL=
XMN NIL=
XWG NIL=

####018000113####
SACN52 CWAO 081300 CCA
METAR CWGZ 081300Z CCA 00000KT 45SM FEW100 FEW220 05/02 A2978 RMK
AC1CI1 SLP090=

####018000101####
SACN63 CWAO 081300
NVQ NIL=
WMT NIL=
XAR NIL=
ZEV NIL=
ZFS NIL=
ZHY NIL=
ZSM NIL=

####018000800####
SACN59 CWAO 081300
NLB NIL=
NLD NIL=
NNR NIL=
NPK NIL=
NTK NIL=
PAA NIL=
PAH NIL=
PBA NIL=
PBE NIL=
PBH NIL=
PBL NIL=
PBR NIL=
PBS NIL=
PBT NIL=
PBV NIL=
PCA NIL=
PCM NIL=
PCR NIL=
PEA NIL=
PEH NIL=
PFI NIL=
PFO NIL=
PGE NIL=
PGL NIL=
PIR NIL=
PMR NIL=
PQL NIL=
PQU NIL=
PRA NIL=
PRL SA 1300 AUTO8 M M M M/15/12/MMMM/M/ M 68MM=
PRO NIL=
PRR NIL=
PRY NIL=
PSD NIL=
PSP NIL=
PST NIL=
PSV NIL=
PTH NIL=
PTR NIL=
PTU NIL=
PVA NIL=
PWB NIL=
PXL NIL=
WCT SA 1300 AUTO8 M M M 208/13/09/2406/M/ 7006 72MM=
WLB NIL=
XAK NIL=
XDB NIL=
XFM NIL=
XHD NIL=
XHP NIL=
XMG NIL=
XMO NIL=
XOL NIL=
XPL NIL=
XSC NIL=
XSL NIL=
XSP NIL=
XTH NIL=
XVM NIL=
XVW NIL=
ZMU NIL=
ZOL NIL=
ZPS NIL=

####018000113####
SACN45 CWAO 081300 CCA
METAR CYCO 081300Z CCA 12004KT 13SM VCSH VCFG OVC014 05/05 A2988 RMK
SC8 SLP121=

####018000084####
SACN98 CWAO 081200 RRH
XWB SA 1200 AUTO8 M M M 086/11/03/1602/M/M 7005 12MM=

####018001390####
SACN96 CWAO 081300
WXL NIL=
WXN NIL=
WXP SA 1300 AUTO8 M M M 077/10/04/2707/M/ 8007 19MM=
WXS SA 1300 AUTO8 M M M 160/19/18/3104/M/ 1002 38MM=
WXW NIL=
WXZ SA 1300 AUTO8 M M M 148/18/17/1903/M/ 3007 06MM=
WYA NIL=
WYE NIL=
WYF NIL=
WYH SA 1300 AUTO8 M M M 140/14/12/2202/M/M 8009 40MM=
WYI SA 1300 AUTO8 M M M 196/09/08/1714/M/ PK WND 1817 1206Z 8011
30MM=
WYJ NIL=
WYL SA 1300 AUTO8 M M M M/03/02/0604/M/ M 41MM=
WYQ SA 1300 AUTO8 M M M 169/11/10/0305/M/ 0005 79MM=
WYW NIL=
WYY NIL=
WZA NIL=
WZE NIL=
WZL NIL=
WZO SA 1300 AUTO8 M M M M/M/M/0104/M/M M MMMM=
WZQ NIL=
WZR NIL=
WZS SA 1300 AUTO8 M M M 158/22/20/2301/M/ 0003 57MM=
WZT NIL=
WZV NIL=
WZY NIL=
XBD SA 1300 AUTO8 M M M 160/14/12/2103/M/ 0002 55MM=
XBQ NIL=
XEL NIL=
XFV SA 1300 AUTO8 M M M M/16/15/0202/M/ M 37MM=
XGM SA 1300 AUTO8 M 0.2 M 204/17/M/2007/M/ 1011 9MMM=
XHM SA 1300 AUTO8 M M M M/28/21/2202/M/ M 78MM=
XKA NIL=
XKE NIL=
XND NIL=
XOA SA 1300 AUTO8 M M M 148/29/20/2601/M/ 0000 52MM=
XPS SA 1300 AUTO8  CLR M M M/15/12/2902/M/ SUNSH 10 M 19MM=
XPT SA 1300 AUTO8 M M M M/27/21/MMMM/M/M M 20MM=
XWF SA 1300 AUTO8 M M M 200/12/08/3102/M/ 1006 16MM=
ZGH NIL=
ZOC SA 1300 AUTO8 M M M 192/08/07/0802/M/ 3008 79MM=
ZPK SA 1300 AUTO8 M M M 128/06/04/3119/M/ PK WND 3123 1204Z 3013
77MM=
ZQT NIL=
ZUB NIL=
ZUG NIL=
ZWN NIL=

####018000961####
SACN49 CWAO 081300
METAR CYAY 081300Z AUTO 17007KT 9SM OVC017 13/10 A3006 RMK SLP181=
METAR CYCX 081300Z 20007KT 12SM BKN066 23/19 A3008 RMK AC6 DA+1269FT
SLP186=
METAR CYDF 081300Z 00000KT 15SM OVC053 13/10 A3011 RMK SC8 SLP196=
METAR CYDP 081300Z 34004KT 15SM FEW100 SCT210 14/09 A2983 RMK AC2CI2
SLP100=
METAR CYGW 081300Z 14004KT 15SM FEW025 SCT080 BKN120 OVC220 20/15
A2985 RMK SC1AC2AS2CI0 CU EMBD SLP110=
METAR CYHH 081300Z 16003KT 15SM FEW065 BKN100 OVC160 24/15 A2991 RMK
SC2AC3AC2 SLP132=
METAR CYLU 081300Z 25010KT 2SM -SHRA BR BCFG OVC006 14/14 A2974 RMK
ST8 SLP074=
METAR CYNC 081300Z 15003KT 10SM -DZ SCT015 OVC030 18/17 A2988 RMK
ST3SC5 SLP118=
METAR CYSJ 081300Z 20011KT 1/2SM R23/3000VP6000FT/U FG VV002 17/15
A3015 RMK FG8 SLP212=
METAR CYTQ 081300Z 27021KT 12SM FEW014 SCT022 14/12 A2973 RMK ST1SC3
SLP071=
METAR CYYG 081300Z 22013G18KT 15SM FEW011 SCT110 BKN280 22/19 A3008
RMK SF1AC2CI1 SLP187=

####018000112####
SACN86 CWAO 081300
WBE NIL=
WCU NIL=
WNL NIL=
WPO NIL=
WPS NIL=
WSI NIL=
WWX NIL=
WWZ NIL=

####018000767####
SACN91 CWAO 081300
WGR NIL=
WGT SA 1300 AUTO8 M M M 155/20/14/3208/M/M 3011 19MM=
WGW NIL=
WGX NIL=
WGY SA 1300 AUTO8 M M M 214/13/11/0000/M/ 7002 90MM=
WHA NIL=
WHD NIL=
WHI NIL=
WHL SA 1300 AUTO8 M M M 171/14/M/2503/M/ 0002 0MMM=
WHM SA 1300 AUTO8 M M M M/29/23/2601/M/M M 05MM=
WHQ NIL=
WHT SA 1300 AUTO8 M M M 215/06/03/2702/M/ 8001 60MM=
WHV SA 1300 AUTO8 M M M 162/27/22/1904/M/ 1001 24MM=
WID NIL=
WIG NIL=
WII NIL=
WIJ NIL=
WIN NIL=
WIO NIL=
WIP SA 1300 AUTO7 M M M M/13/M/0204/M/ M 8MMM=
WIS NIL=
WIT NIL=
WIW NIL=
WIX NIL=
WIY NIL=
WIZ NIL=
WJB SA 1300 AUTO8 M M M M/22/18/0403/M/ M 79MM=
WJC SA 1300 AUTO8 M M M 047/08/08/MM14/M/0002 PCPN 0.2MM PAST HR PK
WND MM17 1255Z 4000 20MM=
WJH NIL=

####018001649####
SACN41 CWAO 081300
METAR CBBC 081300Z AUTO 00000KT 9SM CLR 13/12 A3001 RMK SLP164=
METAR CYBD 081300Z 00000KT 15SM SKC 13/12 A3006 RMK MIFG ON RWY
SLP181=
METAR CYCD 081300Z 29003KT 30SM SKC 18/10 A3001 RMK SLP161=
METAR CYCG 081300Z 00000KT 15SM SKC 11/08 A3015 RMK SLP204=
METAR CYDA 081300Z 07002KT 20SM FEW240 06/04 A3009 RMK CI1 CI TR
CLIMAT 22.5/5.0/0.0 SLP200=
METAR CYGE 081300Z 00000KT 30SM FEW240 09/06 A3022 RMK CI1 SLP229=
METAR CYKA 081300Z 11002KT 40SM SKC 15/09 A3013 RMK SLP198=
METAR CYLW 081300Z AUTO VRB02KT 9SM CLR 12/08 A3011 RMK SLP199=
METAR CYMA NIL=
METAR CYOC 081300Z 00000KT 20SM FEW002 SCT013 OVC030 08/07 A3007 RMK
SF2ST2SC4 CLIMAT 12.5/7.5/2.4MM SLP193=
METAR CYPW 081300Z 00000KT 50SM SKC 12/11 A3002 RMK SLP165=
METAR CYQH 081300Z 00000KT 40SM SKC 11/08 A3012 RMK SLP208=
METAR CYQU 081300Z 36003KT 25SM FEW100 SCT210 14/11 A3010 RMK AC1CI1
SLP195=
METAR CYSD NIL=
METAR CYWL 081300Z 13003KT 15SM SKC 12/08 A3015 RMK SLP204=
METAR CYXJ 081300Z 21002KT 15SM FEW100 FEW200 15/09 A3011 RMK AC1CI0
SLP197=
METAR CYXT 081300Z 02004KT 20SM SKC 16/11 A3008 RMK SLP186=
METAR CYXY 081300Z 21005KT 40SM FEW120 SCT210 09/05 A3015 RMK AC1CI1
SLP222=
METAR CYYD 081300Z 00000KT 25SM SKC 09/08 A3011 RMK SLP194=
METAR CYYE NIL=
METAR CYYF 081300Z 00000KT 15SM SKC 17/09 A3010 RMK SLP189=
METAR CYZW 081300Z 29002KT 30SM FEW150 FEW250 07/04 A3016 RMK AC1CI1
CLIMAT 23.0/6.0/0.0 SLP225=
METAR CYZY 081300Z AUTO 05002KT 9SM CLR 11/08 A3011 RMK SLP197=
METAR CZFA 081300Z 00000KT 30SM VCFG FEW060 10/09 A3011 RMK SC2
CLIMAT 22.6/8.9/0.4MM SLP207=
METAR CZMT NIL=

####018001847####
SACN47 CWAO 081300
METAR CYAM 081300Z 28007KT 5SM -RA BR BKN003 OVC008 19/18 A2998 RMK
SF6SC2 SLP152=
METAR CYFT 081300Z 27003KT 15SM FEW020 BKN080 BKN210 19/13 A2986 RMK
SC1AC5CS2 SLP115=
METAR CYGP 081300Z 21002KT 15SM SCT140 24/19 A2999 RMK AC2 HZ SLP157=
METAR CYGR 081300Z 22017KT 15SM BKN040 BKN080 21/17 A3004 RMK SC5AC2
SLP171=
METAR CYHD 081300Z AUTO 29009KT 9SM CLR 18/14 A2996 RMK SLP147=
METAR CYHU 081300Z AUTO VRB04KT 7SM CLR 28/22 A2999 RMK SLP158
 DENSITY ALT 1500FT RVR MISG=
METAR CYKO NIL=
METAR CYMO 081300Z AUTO 31008KT 9SM -RA FEW047 OVC069 19/18 A2989 RMK
PCPN 0.5MM PAST HR SLP124=
METAR CYNA 081300Z AUTO 09011KT 9SM OVC005 OVC051 OVC056 14/12 A3004
RMK SLP172=
METAR CYND 081300Z 00000KT 15SM SKC 28/21 A3000 RMK SLP159=
METAR CYPQ 081300Z AUTO ///// 9SM CLR 27/23 A3003 RMK SLP167=
METAR CYQT 081300Z 28006KT 20SM SKC 21/17 A2998 RMK SLP154=
METAR CYRJ 081300Z 30003KT 12SM FEW025 SCT045 SCT220 26/20 A2998 RMK
CU1SC3CI1 SLP151=
METAR CYRL 081300Z 26008KT 15SM -RA BKN010 16/14 A2995 RMK SC7
SLP143=
METAR CYTL 081300Z AUTO 25007KT 9SM FEW068 FEW080 FEW093 17/14 A2978
RMK SLP090=
METAR CYTS NIL=
METAR CYTZ 081300Z AUTO 24003KT 6SM HZ CLR 23/20 A3002 RMK SLP165
 DENSITY ALT 1100FT RVR MISG=
METAR CYVP 081300Z 27009G15KT 15SM BKN021 16/12 A2977 RMK SC7 SLP081=
METAR CYVV 081300Z 18004KT 15SM FEW050 SCT100 BKN150 27/22 A3001 RMK
SC1AC3AC1 TCU ASOCTD SLP159=
METAR CYWA 081300Z AUTO 08003KT 9SM CLR 24/21 A3000 RMK SLP160=
METAR CYXR 081300Z AUTO 19007KT 9SM CLR 24/21 A2991 RMK SLP117=
METAR CYYY 081300Z 05007KT 5SM BR BKN004 OVC010 14/13 A3002 RMK
SF6SF2 SLP167=
METAR CYZE 081300Z AUTO 20005KT 8SM OVC100 20/19 A2997 RMK SLP151
 DENSITY ALT 1300FT=
METAR CYZR 081300Z AUTO 19006KT 9SM CLR 28/21 A3001 RMK SLP159
 DENSITY ALT 2100FT=

####018001973####
SACN43 CWAO 081300
METAR CWHN 081300Z AUTO 30007KT 280V340 9SM BKN086 16/11 A3002 RMK
SLP171=
METAR CWLO NIL=
METAR CYBK 081300Z 35008KT 20SM BKN045 OVC090 11/10 A2971 RMK SC5AS2
SLP062=
METAR CYBR 081300Z 26004KT 15SM SCT053 BKN240 13/12 A3010 RMK SC3CI1
SLP200=
METAR CYBU NIL=
METAR CYDN 081300Z AUTO 27009KT 9SM CLR 14/10 A3005 RMK SLP182=
METAR CYEN 081300Z 28004KT 15SM FEW040 FEW140 BKN250 14/12 A3014 RMK
SC1AC1CI2 SLP210=
METAR CYET 081300Z AUTO 28005KT 9SM CLR 10/07 A3011 RMK SLP196=
METAR CYGX 081300Z 24006KT 15SM FEW025 15/11 A2974 RMK SC2 SLP077=
METAR CYKJ 081300Z AUTO 28009KT 9SM CLR 14/08 A2989 RMK SLP137=
METAR CYLL 081300Z 24009KT 15SM FEW075 SCT150 BKN250 14/12 A3007 RMK
ACC1AC2CI2 SLP190=
METAR CYMM 081300Z AUTO 23005KT 9SM FEW077 14/10 A2998 RMK SLP159=
METAR CYNE 081300Z AUTO 29006KT 250V320 9SM BKN090 15/11 A2989 RMK
SLP128=
METAR CYOJ 081300Z 00000KT 15SM FEW050 FEW120 14/13 A2997 RMK SC2AC1
SLP156=
METAR CYPA 081300Z 24004KT 15SM FEW050 FEW100 BKN250 14/11 A3005 RMK
SC1AC1CI0 SLP185=
METAR CYPG 081300Z 32007KT 15SM FEW050 FEW090 FEW250 16/10 A3007 RMK
SC1AC1CI1 TR SC AC SLP184=
METAR CYPY 081300Z AUTO 24002KT 9SM CLR 13/13 A2993 RMK SLP141=
METAR CYQF 081300Z 00000KT 15SM FEW080 FEW120 BKN250 11/08 A3014 RMK
ACC1AC1CI1 ACC/AC TR SLP211=
METAR CYQL 081300Z 25006KT 40SM FEW100 FEW240 12/10 A3018 RMK AC1CI1
SLP218=
METAR CYQR 081300Z 35003KT 15SM FEW074 FEW250 14/11 A3014 RMK AC2CI0
SLP214=
METAR CYQW 081300Z AUTO 22005KT 9SM BKN096 13/12 A3011 RMK SLP206=
METAR CYVC 081300Z 28010KT 15SM FEW040 SCT140 BKN250 16/10 A2996 RMK
SC2AC2CI1 SLP152=
METAR CYXD 081300Z AUTO 36009KT 9SM CLR 16/12 A3009 RMK SLP188=
METAR CYYL 081300Z AUTO 28009KT 9SM FEW100 15/09 A2981 RMK SLP104
 DENSITY ALT 1500FT=
METAR CYYN 081300Z AUTO 26008KT 9SM CLR 13/12 A3016 RMK SLP214=
METAR CYZH 081300Z AUTO 23004KT 9SM -RA BKN029 BKN085 OVC096 15/13
A3005 RMK SLP181=

####018000640####
SACN60 CWAO 081300
PAC NIL=
PAF NIL=
PAT NIL=
PAZ NIL=
PBB NIL=
PBD NIL=
PBN NIL=
PCC NIL=
PCI SA 1300 AUTO8 M M M 218/11/08/MMMM/M/ 8002 02MM=
PDA NIL=
PDB NIL=
PDU NIL=
PEB NIL=
PEL NIL=
PET NIL=
PFA NIL=
PFB NIL=
PFM NIL=
PGC NIL=
PGI NIL=
PHA NIL=
PHE NIL=
PHR NIL=
PHU NIL=
PHW NIL=
PIA NIL=
PJT NIL=
PKA NIL=
PKI NIL=
PLA NIL=
PLC NIL=
PLF NIL=
PLG NIL=
PMA NIL=
PMB NIL=
PML NIL=
PMN NIL=
PNS NIL=
PPL NIL=
PRD NIL=
PRF NIL=
PRH NIL=
PRS NIL=
PRW NIL=
PSA NIL=
PSH NIL=
PSL NIL=
PSW NIL=
PTA NIL=
PTC NIL=
PVI NIL=
PWT NIL=

####018000519####
SACN66 CWAO 081300
PIF SA 1300 AUTO8 M M M 127/15/09/2807/M/ 8002 79MM=
PIL SA 1300 AUTO8 M M M 166/15/12/2104/M/ 7005 82MM=
POX NIL=
PQW NIL=
WBD NIL=
WBU SA 1300 AUTO8 M M M 175/13/09/2708/M/ 0000 44MM=
WDC SA 1300 AUTO8 M M M 131/15/09/0107/M/ 3001 25MM=
WEH SA 1300 AUTO8 M M M 218/13/09/1303/M/ 3005 44MM=
WIK NIL=
WKO SA 1300 AUTO8 M M M 223/14/10/3304/M/ 1007 87MM=
WOY SA 1300 AUTO8 M M M 201/13/09/3106/M/ 1006 17MM=
XBK SA 1300 AUTO8 M M M 199/14/10/3003/M/ 3013 21MM=
ZHB NIL=

####018000976####
SACN88 CWAO 081300
AAW NIL=
ABB NIL=
ABF NIL=
ABR NIL=
ABT SA 1300 AUTO8 M M M M/26/19/2310+15/M/ PK WND 2218 1237Z M
50MM=
ACP NIL=
ACQ NIL=
ADS NIL=
AFC NIL=
AFY SA 1300 AUTO7 M M M M/21/18/MMMM/M/ M 56MM=
AHD NIL=
AHK NIL=
AHR NIL=
AHW NIL=
AJT NIL=
AKC SA 1300 AUTO7 M M M M/25/20/MMMM/M/ M 86MM=
AMS NIL=
AOH NIL=
AOS NIL=
APR NIL=
AQY NIL=
ARP SA 1300 AUTO8 M M M 165/23/21/1803/M/ 0003 22MM=
AVA NIL=
AWR NIL=
ERM NIL=
WAR NIL=
WBK SA 1300 AUTO8 M M M 190/24/19/2107/M/ 1003 55MM=
WBV SA 1300 AUTO8 M M M 224/17/17/2505/M/M 1009 86MM=
WDA NIL=
WDO NIL=
WHO NIL=
WNS NIL=
WRN SA 1300 AUTO8 M M M 204/20/16/2216+23/M/M PK WND 2223 1258Z
8001 82MM=
WSS NIL=
WXI NIL=
WZF NIL=
WZN NIL=
WZU SA 1300 AUTO7 M M M M/20/19/2205/M/ M 28MM=
XGD NIL=
XKT NIL=
XNP NIL=
ZCR SA 1300 AUTO8 M M M 162/19/18/0702/M/ 0008 71MM=
ZDB NIL=
ZSP SA 1300 AUTO8 M M M 175/24/19/2209/M/ 6002 26MM=

####018000574####
SACN82 CWAO 081300
MAN NIL=
MBR NIL=
MCT NIL=
MCW NIL=
MFM SA 1300 AUTO8 M M M 165/25/20/2104/M/ 8003 31MM=
MGB NIL=
MHB NIL=
MHN NIL=
MHW NIL=
MIN NIL=
MLA NIL=
MLI NIL=
MLT NIL=
MLU SA 1300 AUTO8 M M M 160/28/23/2405/M/ 1003 42MM=
MMY NIL=
MPD NIL=
MPL NIL=
MQK NIL=
MQP NIL=
MRF NIL=
MRI NIL=
MRU NIL=
MRY NIL=
MSB NIL=
MSC NIL=
MSI SA 1300 AUTO8 M M M 173/28/23/2406/M/ 3004 51MM=
MSR NIL=
MSX NIL=
MTH NIL=
MWD NIL=
MYT NIL=
WDM SA 1300 AUTO8 M M M 181/10/08/0606/M/ 8007 14MM=
WHP NIL=
WQB NIL=

####018002308####
SACN46 CWAO 081300
METAR CYBC 081300Z AUTO 11003KT 8SM OVC002 14/13 A3003 RMK SLP171=
METAR CYBN 081300Z AUTO 22003KT 9SM CLR 28/20 A3003 RMK SLP164=
METAR CYEL 081300Z 23008KT 1 1/2SM BR VV002 21/21 A2999 RMK FG8 WNDS
ESTD SLP154=
METAR CYFR NIL=
METAR CYGK 081300Z 24003KT 5SM HZ FEW080 27/23 A3004 RMK AC1 SLP172=
METAR CYGQ 081300Z 23006KT 15SM FEW009 FEW020 19/17 A2995 RMK SF2SC1
SLP142=
METAR CYHM 081300Z 24006KT 15SM FEW120 27/21 A3006 RMK AC1 SLP176=
METAR CYKF 081300Z AUTO VRB02KT 9SM CLR 26/19 A3007 RMK SLP176
 DENSITY ALT 2300FT=
METAR CYKL 081300Z AUTO 29008KT 260V320 9SM CLR 20/13 A2991 RMK PCPN
0.5MM PAST HR SLP134=
METAR CYKZ 081300Z 10002KT 8SM FEW260 29/22 A3003 RMK CI1 SLP166=
METAR CYLD 081300Z 34004KT 15SM -RA SCT017 OVC035 16/16 A2998 RERA
RMK SC2SC6 SLP152=
METAR CYOO 081300Z AUTO 14003KT 8SM CLR 27/22 A3003 RMK SLP166
 DENSITY ALT 1800FT=
METAR CYPL 081300Z 25005KT 15SM TS SCT040CB SCT100 BKN270 18/14 A2987
RMK CB3AC1CI1 CB W - NW - N SLP119=
METAR CYQA 081300Z AUTO 18006KT 9SM CLR 27/23 A3002 RMK SLP165
 DENSITY ALT 2300FT=
METAR CYQK 081300Z 30008KT 15SM FEW020 BKN074 17/14 A3000 RMK CF1AC4
SLP159=
METAR CYRB 081300Z 16005KT 15SM FEW140 08/04 A2976 RMK AS0 SLP083=
METAR CYSB 081300Z 19008KT 10SM OVC004 22/20 A2999 RMK SF8 SLP151=
METAR CYSC 081300Z AUTO 21005KT 180V270 9SM CLR 27/22 A3004 RMK
 DENSITY ALT 2200FT=
METAR CYSN 081300Z 22005KT 10SM SKC 29/22 A3003 RMK SLP166=
METAR CYSP 081300Z 00000KT 15SM FEW007 SCT040 BKN100 BKN230 18/18
A2997 RMK SF1SC2AC2CI1 VIS 6 NW SLP153=
METAR CYVO 081300Z 19007KT 15SM FEW042 FEW100 BKN280 BKN320 24/21
A2995 RMK SC1AC2CC2CI1 SLP142=
METAR CYVQ 081300Z 29008KT 15SM -SHRA SCT008 BKN040 OVC080 13/12
A3000 RMK SC3SC2AC3 PRESRR SLP161=
METAR CYXL 081300Z 27006KT 15SM FEW110 19/14 A2994 RMK AC1 SLP142=
METAR CYXU 081300Z 20004KT 10SM FEW030TCU 27/21 A3006 RMK TCU1 CB TOP
NW TCU TOPS DSTNT S SLP175=
METAR CYXZ 081300Z 18002KT 15SM BKN015 BKN080 18/17 A2998 RMK ST6AC1
SLP155=
METAR CYYB 081300Z 20005KT 8SM FEW020 SCT100 BKN250 24/21 A3001 RMK
CU1AC2CI1 SLP157=
METAR CYYH 081300Z 05003KT 15SM FEW030 BKN040 BKN210 14/07 A2980 RMK
SC2SC4CI0 SLP093=
METAR CYYU 081300Z 00000KT 7SM -SHRA OVC020 17/17 A2993 RMK SC8 BR
SLP136=

####018000122####
SACN85 CWAO 081300
WBK NIL=
WHO NIL=
WPK SA 1300 AUTO8 M M M 165/25/M/3001/M/ 8002 3MMM=
WWE NIL=
YGS NIL=

####018001704####
SACN45 CWAO 081300
METAR CYBB 081300Z 00000KT 15SM BKN090 11/07 A2981 RMK AC6 SLP096=
METAR CYCB 081300Z 33008KT 15SM FEW060 SCT140 11/08 A2984 RMK SC1AC1
SLP107=
METAR CYCO 081300Z 12004KT 13SM VCFG OVC014 05/05 A2988 RMK SC8
SLP121=
METAR CYCS NIL=
METAR CYFS 081300Z 00000KT 15SM FEW055 15/13 A2997 RMK SC1 SLP154=
METAR CYGH 081300Z 31006KT 15SM FEW017 OVC070 11/09 A3004 RMK CF2CU6
22.3/10.0/TR/TR SLP177=
METAR CYGT 081300Z 00000KT 15SM FEW010 FEW040 FEW080 13/05 A2981 RMK
CF1SC1AC1 SLP099=
METAR CYHI NIL=
METAR CYHK 081300Z 03009KT 15SM OVC089 11/08 A2980 RMK AC6
/12.5/8.0/0/NIL SLP093=
METAR CYHY 081300Z 22003KT 15SM FEW020 SCT070 BKN210 15/14 A2995 RMK
SC1AC3CI1 SLP147=
METAR CYJF NIL=
METAR CYKD NIL=
METAR CYLC 081300Z 00000KT 15SM BKN035 BKN040 BKN070 14/04 A2974 RMK
SC5SC2AC1 SLP074=
METAR CYLK NIL=
METAR CYOA 081300Z 31007KT 15SM FEW070 10/08 A2989 RMK AC1 SLP141=
METAR CYPC 081300Z 32022KT 15SM OVC012 06/04 A2992 RMK SC8
9.7/5.5/0.6MM SLP134=
METAR CYRA NIL=
METAR CYRT 081300Z 06011G16KT 1 1/2SM -DZ BR OVC003 07/06 A2961 RMK
FG2ST6 SLP029=
METAR CYSY NIL=
METAR CYTE 081300Z 09009KT 15SM FEW070 07/04 A2974 RMK AC2 SLP074=
METAR CYUT 081300Z 00000KT 25SM FEW070 SCT090 10/03 A2979 RMK AC2AS2
SLP089=
METAR CYVM NIL=
METAR CYWJ 081300Z 29008KT 40SM VCSH FEW070 SCT120 BKN300 13/10 A2992
RMK AC1AS1CI0 VIS LWR NW 21.5/9.9/0/0 SLP142=
METAR CYWY NIL=
METAR CYXN 081300Z 00000KT 3SM -RA BR OVC003 04/04 A2960 RMK FG3ST5
SLP024=
METAR CYXP 081300Z 26007KT 15SM FEW090 FEW150 10/05 A2980 RMK AC1AC1
SLP094=
METAR CYZS 081300Z 08012G19KT 15SM FEW020 SCT070 OVC210 15/03 A2967
RMK SC1AC2CI2 SLP052=

####018001796####
SACN48 CWAO 081300
METAR CYAD 081300Z 00000KT 8SM -SHRA BKN050 OVC120 18/15 A2992 RMK
SC6AS2 SLP136=
METAR CYAH 081300Z 13004KT 15SM SCT120 BKN250 22/14 A2994 RMK AC3CI2
SLP144=
METAR CYAS 081300Z 00000KT 1/2SM FG VV004 08/08 A2969 RMK FG8 SLP059=
METAR CYBX 081300Z 23003KT 15SM OVC025 13/10 A3006 RMK SC8 SLP181=
METAR CYCL NIL=
METAR CYGV 081300Z AUTO 07007KT 9SM OVC006 OVC070 15/13 A3002 RMK
SLP165=
METAR CYHA 081300Z 10008KT 3SM -RA FEW010 OVC025 07/06 A2969 RMK
ST1SC7 SLP054=
METAR CYIK 081300Z 04005KT 15SM FEW030 BKN070 BKN220 10/06 A2962 RMK
SC2AC4CS1 SLP033=
METAR CYKG 081300Z 00000KT 12SM RA OVC020 08/04 A2968 RMK SC8 SLP058=
METAR CYKQ NIL=
METAR CYLA 081300Z 26015G20KT 15SM BKN015 OVC066 14/12 A2970 RMK
SC6AS2 SLP060=
METAR CYMH 081300Z 18007KT 15SM FEW014 BKN039 BKN090 16/11 A3002 RMK
CU2SC2AC1 SLP166=
METAR CYML NIL=
METAR CYMT 081300Z 14006KT 15SM FEW030TCU SCT070 26/19 A2998 RMK
TCU1AC2 SLP149=
METAR CYMU 081300Z 00000KT 15SM FEW004 OVC035 13/12 A2987 RMK SF2SC6
SLP120=
METAR CYNM 081300Z AUTO 17005KT 9SM FEW083 24/17 A2990 RMK SLP124=
METAR CYOY 081300Z AUTO 00000KT 9SM OVC006 OVC033 21/17 A3001 RMK
SLP162=
METAR CYPH 081300Z 24012KT 3/8SM -DZ FG VV001 08/08 A2981 RMK FG8
SLP098=
METAR CYPX 081300Z 24021KT 1 3/4SM -DZ BR OVC003 07/07 A2970 RMK ST8
VIA CYQB FIC SLP059=
METAR CYQI 081300Z 15003KT 3/8SM FG VV002 19/19 A3019 RMK FG8 VIS NW
3/4 RVR RWY 24 1800 FT SLP224=
METAR CYSK 081300Z 11003KT 15SM BKN020 12/10 A2986 RMK SC6 SLP112=
METAR CYSL 081300Z 18006KT 5SM HZ SKC 26/22 A3003 RMK SLP167=
METAR CYUY 081300Z 18007KT 15SM FEW035 SCT060 BKN100 OVC240 24/19
A2993 RMK SC2SC2AC2CI1 SLP134=
METAR CYWK 081300Z 25008KT 15SM BKN300 24/16 A2996 RMK CI2 SLP143=
METAR CYZG NIL=

####018000270####
SACN62 CWAO 081300
LWIS CYDL 081300Z AUTO 02003KT 08/04 A3020=
LWIS CYER 081300Z AUTO 35002KT 15/14 A2972=
LWIS CYLH 081300Z AUTO 23004KT 170V250 19/16 A2983=
LWIS CZMD 081300Z AUTO 24007KT 15/14 A2979=
LWIS CZSJ 081300Z AUTO 27004KT 15/14 RMK ALTM MISG=

####018001822####
SACN42 CWAO 081300
METAR CYAZ 081300Z 00000KT 15SM SKC 14/13 A2996 RMK SLP145=
METAR CYBL 081300Z 29005KT 30SM SKC 17/11 A3001 RMK SLP161=
METAR CYBV 081300Z 30012G20KT 15SM FEW015 FEW100 17/13 A2994 RMK
SC2AC1 SLP142=
METAR CYCP 081300Z 00000KT 15SM FEW300 06/05 A3020 RMK CI1 SLP227=
METAR CYCQ 081300Z 00000KT 35SM FEW120 FEW230 10/08 A3011 RMK AC1CI1
TR AC/CONTRAILS SLP201=
METAR CYDB 081300Z 00000KT 30SM FEW080 SCT120 BKN240 03/M00 A3010 RMK
AC1AC2CI2 ACSL E CLIMAT 23.0/2.5/0.0 SLP213=
METAR CYDC 081300Z 00000KT 15SM SKC 10/06 A3017 RMK SLP203=
METAR CYDQ 081300Z AUTO 26004KT 9SM CLR 12/09 A3010 RMK SLP204=
METAR CYEV 081300Z 30007KT 15SM BKN019 BKN060 07/04 A3007 RMK SC6SC1
SLP186=
METAR CYFO 081300Z 30007KT 15SM FEW070 16/10 A2993 RMK AC1 SLP141=
METAR CYHE 081300Z AUTO 09009KT 9SM CLR 18/12 A3005 RMK SLP174=
METAR CYIV 081300Z 31006KT 15SM FEW005 SCT020 BKN080 BKN250 15/13
A2983 RMK SF1SC3AC0CI0 SLP107=
METAR CYKY 081300Z 00000KT 15SM FEW100 BKN250 12/12 A3014 RMK AC1CI2
SLP211=
METAR CYMD NIL=
METAR CYPR 081300Z AUTO 13003KT 9SM CLR 13/12 RMK PRES MISG=
METAR CYPS NIL=
METAR CYQD 081300Z 27011G16KT 15SM FEW045 FEW070 14/11 A2996 RMK
SC1AC1 TRAC SLP150=
METAR CYQZ 081300Z AUTO 00000KT 9SM CLR 10/09 A3012 RMK SLP209=
METAR CYRV 081300Z AUTO 00000KT 6SM CLR 11/10 A3016 RMK SLP214=
METAR CYSE NIL=
METAR CYUA 081300Z AUTO 21008KT 9SM OVC023 06/ A3006 RMK SLP183=
METAR CYXC 081300Z 28005KT 25SM FEW100 FEW240 12/06 A3022 RMK AC1CI0
SLP220=
METAR CYXE 081300Z 24008KT 15SM FEW110 OVC270 14/12 A3009 RMK AC1CI2
SLP199=
METAR CYXQ NIL=
METAR CYXS 081300Z AUTO 00000KT 9SM CLR 09/07 A3010 RMK SLP207=
METAR CYZP 081300Z AUTO 26010KT 9SM CLR 16/11 A3008 RMK SLP188=
METAR CYZT 081300Z 00000KT 20SM SKC 11/09 A3004 RMK SLP171=

####018000082####
SACN87 CWAO 081200 RRD
WEK SA 1200 AUTO8 M M M 168/13/M/1106/M/ 1008 6MMM=

####018001193####
SACN95 CWAO 081300
WTA NIL=
WTD NIL=
WTE NIL=
WTF NIL=
WTG NIL=
WTM NIL=
WTN SA 1300 AUTO8 M M M 163/19/17/1105/M/ 3003 14MM=
WTR NIL=
WTS NIL=
WTT NIL=
WTX NIL=
WTY SA 1300 AUTO8 M M M 150/24/22/2008/M/ 0003 47MM=
WUI NIL=
WUK NIL=
WUS SA 1300 AUTO8 M M M 191/17/06/2907/M/ 3010 60MM=
WUT SA 1300 AUTO8 M M M 194/12/09/2806/M/M 1011 24MM=
WUX NIL=
WUY NIL=
WVC NIL=
WVF SA 1300 AUTO8 M M M M/19/M/3307/M/M M 9MMM=
WVI NIL=
WVN NIL=
WVO SA 1300 AUTO8 M M M M/12/11/1603/M/ M 37MM=
WVP NIL=
WVQ SA 1300 AUTO8 M M M M/27/23/2404/M/ M 92MM=
WVT SA 1300 AUTO8 M M M 162/16/10/0000/M/0003 PCPN 0.3MM PAST HR
7003 84MM=
WVU NIL=
WVV SA 1300 AUTO8 M M M 155/19/08/3608/M/ 3004 77MM=
WVW NIL=
WVZ NIL=
WWA SA 1300 AUTO8 M M M 153/19/10/0402/M/ 2004 38MM=
WWB SA 1300 AUTO8 M M M 162/27/19/2505/M/M 0000 18MM=
WWC NIL=
WWE NIL=
WWF NIL=
WWK NIL=
WWN NIL=
WWO SA 1300 AUTO8 M M M M/02/02/0000/M/ M 48MM=
WWP NIL=
WXA SA 1300 AUTO8 M M M 222/12/05/2409+17/M/ PK WND 2517 1251Z 3002
28MM=
WXB SA 1300 AUTO8 M M M M/11/10/2503/M/ M 07MM=
WXC NIL=
WXG NIL=
WZW SA 1300 AUTO8 M M M 227/08/05/2902/M/ 3002 67MM=

####018000113####
SACN31 CWAO 081300 CCA
METAR CYQY 081300Z CCA 24009KT 15SM FEW180 FEW210 26/18 A3010 RMK
AC2CC1 SLP194=

####018002354####
SACN31 CWAO 081300
METAR CYAW 081300Z 23005KT 6SM BR OVC003 20/19 A3018 RMK SF8 FIRST
OBS SLP221=
METAR CYBG 081300Z 04006KT 6SM BR BKN089 22/19 A2998 RMK AC7 SLP154=
METAR CYCH NIL=
METAR CYEG 081300Z 18002KT 15SM FEW120 FEW240 BKN270 13/12 A3009 RMK
ACC1CI1CI0 CONTRAILS SLP195=
METAR CYFB 081300Z 15005KT 30SM FEW120 FEW250 11/04 A2978 RMK AC1CI1
SLP086=
METAR CYFC 081300Z AUTO 20012KT 9SM FEW061 23/19 A3007 RMK SLP185
 DENSITY ALT 800FT MAX WND 22019KT AT 1234Z RVR MISG=
METAR CYGL 081300Z 17008KT 15SM -RA SCT050 OVC100 19/16 A2990 RMK
SC4AS4 SLP127=
METAR CYHZ 081300Z 21014KT 12SM BKN010 23/20 A3018 RMK SC5 SLP218=
METAR CYJT 081300Z 08007KT 15SM -SHRA FEW015 BKN030 OVC080 19/17
A3008 RMK SC1SC5AC2 SLP187=
METAR CYMX 081300Z 00000KT 10SM SKC 28/21 A3001 RMK HAZY SLP161=
METAR CYOW 081300Z 22002KT 15SM SKC 29/21 A3001 RMK SLP162=
METAR CYQB 081300Z 04005KT 5SM HZ FEW006 BKN013 BKN064 21/18 A3002
RMK SF2SC5SC1 SLP165=
METAR CYQG 081300Z 24004KT 12SM SKC 29/22 A3003 RMK SLP164=
METAR CYQM 081300Z 24020KT 15SM FEW020 25/20 A3006 RMK CU1 SLP181=
METAR CYQQ 081300Z 00000KT 20SM SKC 17/11 A3001 RMK SLP162=
METAR CYQX 081300Z 22004KT 20SM FEW053 BKN072 BKN100 19/15 A3013 RMK
SC2AC4AC2 SLP207=
METAR CYQY 081300Z 24009KT 15SM FEW180 FEW210 26/18 A3008 RMK AC2CC1
SLP186=
METAR CYTR 081300Z 18003KT 7SM FEW100 27/20 A3003 RMK AC1 SLP167=
METAR CYUL 081300Z 20004KT 12SM FEW080 FEW120 28/23 A3000 RMK AC1AC1
SLP159=
METAR CYVR 081300Z 30006KT 30SM SKC 18/13 A2999 RMK SLP156=
METAR CYWG 081300Z 31008KT 15SM FEW070 FEW250 16/13 A3003 RMK AC1CI1
SLP171=
METAR CYXX NIL=
METAR CYYC 081300Z 20005KT 40SM FEW120 BKN250 12/09 A3018 RMK AC1CI3
HZ SE-SW SLP224=
METAR CYYJ 081300Z 28005KT 30SM SKC 16/10 A2999 RMK SLP156=
METAR CYYQ 081300Z 26009KT 15SM FEW025 FEW080 14/11 A2964 RMK SC1AC1
SLP039=
METAR CYYR 081300Z 21004KT 15SM OVC021 20/15 A2992 RMK SC7 SLP133=
METAR CYYT 081300Z 18010KT 15SM OVC011 13/11 A3022 RMK SC8 SLP238=
METAR CYYZ 081300Z 14004KT 15SM FEW100 28/23 A3004 RMK AC1 SLP168=
METAR CYZF 081300Z 00000KT 15SM FEW075 FEW100 SCT210 17/10 A2993 RMK
AC1AC1CI1 SLP140=
METAR CYZV 081300Z 00000KT 4SM BR BKN003 OVC008 13/13 A3005 RMK
SF5ST3 SLP178=
METAR CYZX 081300Z 25008KT 15SM BKN016 24/19 A3015 RMK SC6 WNDY HILL
23008KT SLP209=

####018001155####
SACN97 CWAO 081300
XAT NIL=
XBK NIL=
XBO NIL=
XCA SA 1300 AUTO8 M M M 144/20/18/1301/M/ 7005 06MM=
XCH SA 1300 AUTO7 M M M M/26/17/MMMM/M/ M 59MM=
XCK SA 1300 AUTO7 M M M M/09/M/0000/M/M M 5MMM=
XDE NIL=
XDI SA 1300 AUTO8 M M M 154/28/19/2104/M/ 8002 94MM=
XDW NIL=
XEA NIL=
XEC NIL=
XEG NIL=
XET SA 1300 AUTO8 M M M 163/27/21/3103/M/ 7002 34MM=
XFA SA 1300 AUTO8 M M M 168/13/11/2201/M/ 3004 88MM=
XGH NIL=
XHA SA 1300 AUTO8 M M M 152/29/22/2502/M/ 8001 38MM=
XHF SA 1300 AUTO8 M M M M/27/21/MMMM/M/ M 94MM=
XHI NIL=
XIB SA 1300 AUTO7 M M M 178/23/16/3603/M/ 0003 58MM=
XLC NIL=
XLL NIL=
XLT NIL=
XLU SA 1300 AUTO8 M M M 132/14/09/0000/M/ 8001 56MM=
XMD NIL=
XMI SA 1300 AUTO8 M M M 219/20/19/2309/M/M 1010 05MM=
XMM NIL=
XMP NIL=
XMW NIL=
XMY SA 1300 AUTO8 M M M M/25/20/MMMM/M/ M 97MM=
XNM NIL=
XOX SA 1300 AUTO8 M M M 147/16/10/3008/M/ 6005 78MM=
XPV NIL=
XQA NIL=
XQT NIL=
XRH NIL=
XSH NIL=
XSR SA 1300 AUTO8 M M M 182/16/08/MMMM/M/ 1008 41MM=
XSW SA 1300 AUTO7 M M M M/11/09/1804/M/ M 66MM=
XTL NIL=
XTN NIL=
XTP NIL=
XTV NIL=
XVG NIL=
XWN NIL=
XZU NIL=

####018001070####
SACN94 CWAO 081300
WQC SA 1300 AUTO8 M M M 169/13/11/3302/M/ 3008 52MM=
WQD NIL=
WQE NIL=
WQF NIL=
WQH SA 1300 AUTO8 M M M M/28/24/2203/M/ M 91MM=
WQK SA 1300 AUTO8 M M M M/M/M/MM06/M/M M MMMM=
WQL NIL=
WQM NIL=
WQO NIL=
WQP NIL=
WQQ SA 1300 AUTO8 M M M M/13/11/2004/M/ M 96MM=
WQR NIL=
WQS NIL=
WQU NIL=
WQV NIL=
WQW NIL=
WQY NIL=
WQZ NIL=
WRA NIL=
WRD NIL=
WRE NIL=
WRJ NIL=
WRK SA 1300 AUTO8 M M M 170/27/21/2003/M/ 8002 20MM=
WRM NIL=
WRR NIL=
WRT NIL=
WRU NIL=
WRV NIL=
WRY SA 1300 AUTO8 M M M 226/11/07/2803/M/ 3001 75MM=
WRZ NIL=
WSB SA 1300 AUTO8 M M M M/21/M/3104/M/ M 3MMM=
WSD SA 1300 AUTO8 M M M 178/21/19/2112+18/M/0007 PCPN 0.7MM PAST HR
PK WND 2120 1205Z 4000 50MM=
WSF NIL=
WSG SA 1300 AUTO7 M M M 174/13/13/0206/M/ 0006 39MM=
WSK SA 1300 AUTO8 M M M 167/15/10/0202/M/ 1007 02MM=
WSL NIL=
WSN NIL=
WSP SA 1300 AUTO8 M M M 153/15/M/MM02/M/ 3004 3MMM=
WSQ NIL=
WSR NIL=
WST NIL=
WSU NIL=
WSV SA 1300 AUTO8 M M M 228/06/05/MMMM/M/ 3009 90MM=
WSX NIL=
WSY NIL=

####018000824####
SACN90 CWAO 081300
WEA SA 1300 AUTO8 M M M 161/17/14/3004/M/ 1015 67MM=
WEB SA 1300 AUTO8 M M M 153/14/12/1001/M/ 3007 27MM=
WEC NIL=
WEE NIL=
WEF NIL=
WEI NIL=
WEL SA 1300 AUTO8 M M M M/20/13/2905/M/ M 72MM=
WEO NIL=
WEP SA 1300 AUTO8 M M M 181/20/19/2015+20/M/ PK WND 2121 1200Z 0004
86MM=
WER SA 1300 AUTO8 M M M M/M/M/0410/M/M M MMMM=
WEW NIL=
WEZ SA 1300 AUTO8 M M M 150/18/15/3004/M/ 1005 43MM=
WFE NIL=
WFF NIL=
WFJ NIL=
WFO NIL=
WFP NIL=
WFQ SA 1300 AUTO7 M M M M/28/23/1903/M/ M 12MM=
WFW SA 1300 AUTO7 M M M 171/15/14/1103/M/ 1006 64MM=
WFX NIL=
WFZ NIL=
WGB SA 1300 AUTO8 M M M 155/19/12/2606/M/ 3008 10MM=
WGD SA 1300 AUTO8 M M M 160/26/20/1606/M/ 1001 22MM=
WGF NIL=
WGH NIL=
WGL NIL=
WGM NIL=
WGN SA 1300 AUTO8 M M M 175/17/13/3108/M/M 1016 68MM=

####018000893####
SACN93 CWAO 081300
WMU NIL=
WMX SA 1300 AUTO8 M M M M/16/11/MMMM/M/ M 06MM=
WMY NIL=
WMZ NIL=
WNC SA 1300 AUTO8 M M M 161/22/21/1501/M/ 0002 29MM=
WND NIL=
WNE SA 1300 AUTO8 M M M 167/21/18/2417/M/ PK WND 2420 1230Z 1001
00MM=
WNH NIL=
WNK NIL=
WNM SA 1300 AUTO8 M M M 209/11/11/MMMM/M/ 3008 22MM=
WNP NIL=
WNQ NIL=
WNR SA 1300 AUTO8 M M M M/10/-01/2404/M/M M 95MM=
WNT NIL=
WNV NIL=
WNX NIL=
WNZ NIL=
WOC SA 1300 AUTO8 M M M 158/22/20/2802/M/ 0005 85MM=
WOD SA 1300 AUTO8 M M M 134/26/M/0402/M/ 0000 9MMM=
WOE NIL=
WOG NIL=
WOI NIL=
WOJ NIL=
WOK NIL=
WON SA 1300 AUTO8 M M M 200/06/04/0603/M/ 1006 16MM=
WOQ NIL=
WOV NIL=
WOW NIL=
WPA NIL=
WPB NIL=
WPD NIL=
WPE NIL=
WPF NIL=
WPG NIL=
WPL NIL=
WPR SA 1300 AUTO8 M M M 204/11/M/0000/M/M 3010 9MMM=
WPZ SA 1300 AUTO8 M M M 202/04/04/0000/M/ 1004 46MM=
WQA NIL=

####018000298####
SACN87 CWAO 081300
WEK SA 1300 AUTO8 M M M 169/13/M/1804/M/ 1005 6MMM=
WEQ SA 1300 AUTO8 M M M 177/13/10/2306/M/ 1008 82MM=
WJD NIL=
WLP SA 1300 AUTO8 M M M 170/12/12/0903/M/ 2002 26MM=
WPU NIL=
WRO NIL=
WWL NIL=
WWS NIL=
WZG SA 1300 AUTO8 M M M 242/08/03/2302/M/ 1006 93MM=

####018000609####
SACN98 CWAO 081300
XAF NIL=
XAG NIL=
XAJ NIL=
XBA NIL=
XBR NIL=
XBW NIL=
XCD NIL=
XCP NIL=
XCS NIL=
XDK NIL=
XDP NIL=
XFR NIL=
XHR NIL=
XKI NIL=
XKM NIL=
XLB SA 1300 AUTO8 M M M 221/19/19/2307/M/ 3005 95MM=
XOY NIL=
XPA NIL=
XPC NIL=
XRB NIL=
XRL NIL=
XSE NIL=
XTD SA 1300 AUTO8 M M M 200/26/17/2211+18/M/ PK WND 2118 1259Z 8001
75MM=
XTO NIL=
XVN NIL=
XWB SA 1300 AUTO8 M M M 084/13/04/0508/M/M 6006 48MM=
XWM NIL=
XYH NIL=
XZV NIL=
ZKD NIL=
ZLW NIL=
ZMJ NIL=
ZPR NIL=
ZQH NIL=
ZQZ NIL=
ZRP NIL=
ZTB NIL=
ZZJ NIL=
ZZP NIL=

####018000084####
SACN98 CWAO 081100 RRH
XWB SA 1100 AUTO8 M M M 087/11/03/0303/M/M 8003 62MM=

####018000918####
SACN89 CWAO 081300
WAF NIL=
WAG NIL=
WAQ NIL=
WAS SA 1300 AUTO8 M M M 152/20/10/0321/M/ 1014 94MM=
WAV NIL=
WAY NIL=
WBA SA 1300 AUTO8 M M M M/25/21/1505/M/ M 24MM=
WBG NIL=
WBJ NIL=
WBL NIL=
WBM NIL=
WBO SA 1300 AUTO8 M M M 215/12/12/1903/M/ 8002 66MM=
WBS SA 1300 AUTO8 M M M M/25/21/2007/M/M M 28MM=
WBT NIL=
WBY SA 1300 AUTO8 M M M 165/15/14/0504/M/ 3003 79MM=
WBZ SA 1300 AUTO8 M M M 157/28/23/2407/M/ 1002 04MM=
WCF NIL=
WCG NIL=
WCH SA 1300 AUTO8 M M M 156/18/15/2405/M/ 3001 22MM=
WCI NIL=
WCJ NIL=
WCO NIL=
WCQ NIL=
WDB NIL=
WDD NIL=
WDE NIL=
WDF NIL=
WDI SA 1300 AUTO8 M M M M/18/16/2203/M/ M 46MM=
WDJ SA 1300 AUTO8 M M M 212/13/10/3403/M/ 3010 48MM=
WDK NIL=
WDN NIL=
WDP NIL=
WDQ NIL=
WDR SA 1300 AUTO8 M M M M/17/M/3510/M/M M 2MMM=
WDT NIL=
WDU NIL=
WDV NIL=
WDW SA 1300 AUTO8 M M M 173/12/09/MMMM/M/ 8015 10MM=
WDZ NIL=

####018000797####
SACN78 CWAO 081300
TAE NIL=
TAG SA 1300 AUTO8 M M M 164/18/15/2606/M/ 1004 95MM=
TAL NIL=
TBO NIL=
TBT NIL=
TCK NIL=
TCW NIL=
TGT NIL=
TKG SA 1300 AUTO8 M M M 168/27/23/2403/M/ 1004 88MM=
TKR NIL=
TMS SA 1300 AUTO8 M M M 131/18/17/3008/M/0033 PCPN 3.3MM PAST HR
3003 56MM=
TNK NIL=
TPQ NIL=
TRA SA 1300 AUTO8 M M M 150/18/15/2604/M/ 3006 96MM=
TTR NIL=
TWL NIL=
TWN NIL=
TXR SA 1300 AUTO8 M M M 127/24/20/1808/M/ 8010 82MM=
TZR NIL=
WAJ NIL=
WBE NIL=
WKK NIL=
WLS SA 1300 AUTO8 M M M 172/22/21/1302/M/0034 PCPN 3.4MM PAST HR
8003 16MM=
WNB NIL=
WNL NIL=
WPC NIL=
WPS NIL=
WWX NIL=
XBI NIL=
XRG NIL=
XZC NIL=
YLH SA 1300 AUTO M M M 108/19/16/2304/M/M 170V250 8009 48MM=
ZEL SA 1300 AUTO8 M M M 180/25/20/2404/M/ 3001 32MM=

####018001368####
SACN51 CWAO 081300
METAR CWAE 081300Z 00000KT 15SM SKC 11/08 A3013 RMK SLP192=
METAR CWCA 081300Z 22010G15KT 15SM FEW020 BKN200 15/11 A2994 RMK
CU1CI3 TR CU SLP139=
METAR CWCL 081300Z AUTO 00000KT 9SM CLR 09/06 A3017 RMK SLP206=
METAR CWDL NIL=
METAR CWIL 081300Z AUTO 34009KT 07/ A2981 RMK SLP103=
METAR CWKM 081300Z AUTO 17003KT 06/ A3004 RMK SLP178=
METAR CWKW 081300Z AUTO 10003KT 11/ A2971 RMK SLP078=
METAR CWLI 081300Z AUTO ///// 03/ A2997 RMK SLP160=
METAR CWLX 081300Z AUTO 19002KT 15/ A2978 RMK SLP094=
METAR CWLY 081300Z AUTO 00000KT 9SM CLR 14/10 A3009 RMK SLP188=
METAR CWOB 081300Z AUTO ///// 9SM CLR 13/ A2979 RMK SLP114=
METAR CWPX 081300Z AUTO 35010KT 09/ A2985 RMK SLP124=
METAR CWRX 081300Z AUTO 33003KT 09/ A2978=
METAR CWSW 081300Z 00000KT 20SM FEW260 06/05 A3028 RMK CI1 SLP250=
METAR CWUP 081300Z AUTO 08006KT 12/ A2981 RMK SLP109=
METAR CWUW 081300Z AUTO ///// 9SM CLR 14/ A2981 RMK SLP116=
METAR CWVH 081300Z AUTO 29017KT 04/ A3003 RMK SLP185=
METAR CWYK 081300Z AUTO ///// 12/ A2980 RMK SLP110=
METAR CWZZ 081300Z AUTO ///// 9SM SCT061 BKN089 14/ A2974 RMK SLP085=
METAR CZBF 081300Z 00000KT 5SM BR BKN005 BKN007 23/22 A3001 RMK
SF6ST2 SLP164=
METAR CZCP 081300Z AUTO 28023KT 9SM OVC005 OVC013 OVC025 03/ A2987
RMK SLP121=
METAR CZST 081300Z 00000KT 15SM SKC 10/09 A3010 RMK DEW SLP194=

####018001664####
SAEU KAWN 081300 RRR
METAR LIMH 081255Z 08002KT 9999 SCT000TCU 07/M01 Q1040 RMK SCT MON
      CLD SCT VAL S CLD SCT VIS MIN 9999=
METAR LIMV 081255Z 34009KT 7000 SCT012 25/19 Q1022 RMK SCT MON LIB
      CUF VAL FOSCHIA VIS MIN 7000=
METAR LIMY 081255Z /////KT 9000 SCT026 23/16 Q1023 RMK BKN VAL FOSCHIA
      VIS MIN 9000=
METAR LIVD 081255Z 00000KT CAVOK 24/08 Q1023 RMK SKC VIS MIN 9999=
METAR LIVF 081255Z 05004KT CAVOK 27/07 Q1022 RMK SKC MON LIB VAL NIL
      VIS MIN 9999=
METAR LIVM 081255Z 13009KT CAVOK 28/21 Q1021 RMK SKC QUK 2 QUL 1 SE
      VIS MAR 30 KM VIS MIN 9999=
METAR LIVO 081255Z 01003KT 9999 FEW040 26/12 Q1021 RMK FEW VIS MIN
      9999=
METAR LIVR 081255Z /////KT 9999 FEW030 17/14 Q1028 RMK FEW MON LCLD
      CIME VIS MIN 9999=
METAR LIVT 081255Z 26002KT CAVOK 25/15 Q1021 RMK SKC QUK 1 QUL 0 VIS
      MAR 20 KM VIS MIN 9999=
METAR LPAZ 081300Z 25006KT 9999 BKN016 BKN030 21/20 Q1025=
METAR LPFL 081300Z 20007KT 150V240 9999 FEW023TCU BKN040 24/17 Q1022=
METAR LPHR 081300Z 22007KT 9999 SCT013 BKN035 23/18 Q1023=
METAR LPPD 081300Z 24006KT 9999 FEW020 BKN030 20/16 Q1024=
METAR LRAR 081300Z 02008KT 320V060 9999 BKN045 24/14 Q1020=
METAR LRCL 081300Z 29008KT 9999 BKN045 19/13 Q1020 0821//95=
METAR LRCV 081300Z 25004KT 190V340 9999 FEW030 BKN040 23/14 Q1017=
METAR LRIA 081300Z 31014KT 270V350 9999 SCT022 BKN029 22/17 Q1017=
METAR LROD 081300Z 36010KT 320V020 CAVOK 23/12 Q1020=
METAR LRSM 081300Z 33008KT 9999 BKN043 23/15 Q1020=
METAR LRTC 081300Z 36010KT 9999 FEW030CB BKN040 24/17 Q1014=
METAR LRTM 081300Z 32004KT 270V010 9999 FEW018 SCT033 BKN036 19/14
      Q1020=
####018001563####
SAEU KAWN 081300 RRS
METAR LIEO 081250Z 05012KT CAVOK 30/20 Q1019 RMK VIS MIN 9999=
METAR LIMS 081255Z 13003KT CAVOK 30/15 Q1020 RMK SKC VIS MIN 9999 WIND
      THR30 13005KT BLU=
METAR LIMT 081255Z /////KT 9999 16/12 Q1024 RMK OVC MON LIB VAL NIL
      VIS MIN 9999=
METAR LIMU 081255Z 11006KT 9999 FEW026 30/22 Q1020 RMK BKN BKN070 QUK
      2 QUL 1 S VIS MAR 15 KM VIS MIN 9999=
METAR LIPB 081250Z 18013KT CAVOK 30/12 Q1019 RMK MON LIB VIS MIN 9999=
METAR LIPH 081245Z 13004KT 9999 SCT025 27/20 Q1022 RMK SCT VIS MIN
      9999 WIND THR07 /////KT BLU=
METAR LIPI 081255Z 19008KT CAVOK 27/19 Q1022 RMK SKC VIS MIN 9999 WIND
      THR06 19007KT BLU=
METAR LIQN 081250Z 32008KT 9999 FEW045 29/17 Q1021 RMK VIS MIN 9999=
METAR LIQO 081255Z 20005KT 9999 SCT003 29/22 Q1022 RMK SCT VAL NIL
      NC VIS MIN 9999=
METAR LIRE 081255Z 24010KT 9999 FEW020 28/20 Q1019 RMK FEW VIS MIN
      9999 WIND THR31 24009KT BLU=
METAR LIRK 081255Z 12006KT CAVOK 16/15 Q1027 RMK BKN BKN060 MON NE
      LIB NC VAL NIL NC VIS MIN 9999=
METAR LIRL 081255Z 25008KT 9999 FEW020 30/17 Q1019 RMK FEW MON LIB
      NC VIS MIN 9999 BLU=
METAR LIRM 081255Z 12010KT 9999 FEW016 30/14 Q1019 RMK FEW VIS MIN
      9999 WIND THR06 06005KT BLU=
METAR LIRS 081255Z 23012KT 9999 FEW040 30/21 Q1019 RMK FEW VIS MIN
      9999 WIND THR21 /////KT BLU=
METAR LIRT 081255Z 36009KT CAVOK 18/05 Q1023 RMK SKC MON LIB VAL NIL
      VIS MIN 9999=
METAR LIRV 081255Z 27013KT 9999 SCT028 29/22 Q1020 RMK SCT MON E SE
      LIB NC VIS MIN 9999 BLU=
####018001057####
SAUS75 KWBC 081300
METAR
PABR 081253Z 24017KT 10SM FEW150 SCT190 SCT250 07/03 A2997=
PABT 081253Z 00000KT 10SM SCT100 09/08 A3007=
PACV 081253Z 15010G17KT 10SM BKN031 OVC041 11/10 A3009=
PADL 081256Z 29004KT 10SM FEW038 OVC080 09/08 A2996=
PADU 081258Z AUTO 11015G27KT 080V140 10SM OVC021 08/04 A2977=
PAEN 081253Z AUTO 04011KT 10SM BKN100 14/12 A2993=
PAGA 081258Z AUTO 00000KT 10SM CLR 10/08 A3006=
PAGK 081253Z AUTO 36003KT 10SM SCT110 07/05 A3006=
PAGY 081253Z AUTO 00000KT 10SM CLR 09/09 A3019=
PAIL 081253Z AUTO 36003KT 1/2SM -RA FG FEW025 OVC070 08/08
     A2994=
PAKN 081254Z 35003KT 10SM SCT060 08/08 A2990=
PAKT 081253Z AUTO VRB03KT 10SM CLR 16/11 A3008=
PASC 081253Z 24012KT 10SM OVC230 08/05 A3003=
PASI 081253Z 00000KT 1/4SM FG VV001 12/12 A3017=
PATA 081252Z AUTO 35004KT 10SM CLR 07/04 A3005=
PAUN 081256Z AUTO 06012KT 10SM CLR 13/04 A3001=
PAVD 081256Z 14004KT 10SM OVC090 11/08 A3008=
PHJH NIL=
PHMK 081254Z AUTO 05006KT 10SM BKN050 22/18 A3002=
PMDY 081256Z AUTO 00000KT 10SM CLR 24/19 A3008=
####018000109####
SAKY31 RUMS 081300 RRA
METAR UAFO 081300Z 31003MPS 9999 FEW050CB SCT100 33/12 Q1017 NOSIG
RMK QFEM684=
####018000112####
SAIY42 LIIB 081300 RRA
METAR LIQW 081255Z 21003KT 9999 SCT025 30/20 Q1020 RMK SCT VIS MIN
      9999 BLU=
####018001469####
SAEU KAWN 081300 RRT
METAR LIEA 081250Z 21007KT 170V330 9999 FEW025 33/19 Q1019 RMK VIS
      MIN 9999=
METAR LIMG 081250Z 06007KT 9999 FEW060 30/25 Q1020 RMK VIS MIN 9999=
METAR LIMK 081255Z 00000KT CAVOK 21/12 Q1023 RMK SKC VAL NIL VIS MIN
      9999=
METAR LIMN 081255Z /////KT 9999 FEW030 28/17 Q1021 RMK FEW VIS MIN
      9999 BLU=
METAR LIPA 081255Z 22008KT 9999 FEW050 26/18 Q1021 RMK FEW VIS MIN
      9999 A3017 BLU=
METAR LIPF 081255Z 19004KT 9999 FEW035 29/20 Q1021 RMK FEW VIS MIN
      9999=
METAR LIPL 081255Z 06002KT 9999 FEW036 29/17 Q1021 RMK FEW VIS MIN
      9999 BLU=
METAR LIPR 081245Z 08011KT CAVOK 28/19 Q1021 RMK SKC VIS MIN 9999 WIND
      THR31 08012KT BLU=
METAR LIPS 081255Z 00000KT 9999 SCT030 28/17 Q1021 RMK SCT VIS MIN
      9999 BLU=
METAR LIPX 081245Z 20005KT 9999 FEW040 30/14 Q1021 RMK FEW VIS MIN
      9999 BLU=
METAR LIPY 081250Z 06008KT 020V100 CAVOK 27/13 Q1021 RMK VIS MIN 9999=
METAR LIRG 081255Z 25010KT 9999 SCT033TCU 31/20 Q1019 RMK SCT MON NE
      LIB NC VIS MIN 9999 BLU=
METAR LIRH 081255Z 28005KT 9999 FEW030 SCT035 FEW040CB 30/20 Q1019
      RMK BKN MON LIB NC VIS MIN 9999 WIND THR16 28006KT BLU=
METAR LIRU 081250Z 23007KT 9999 SCT040 30/17 Q1020 RMK VIS MIN 9999=
METAR LIVC 081255Z 00000KT 9999 SCT001 16/11 Q1031 RMK SCT MON LIB
      VAL NIL VIS MIN 9999=
METAR LIVP 081255Z VRB03KT 9999 FEW003 15/11 Q1029 RMK FEW MON LIB
      VAL NIL VIS MIN 9999=
####018000908####
SAUK KAWN 081300 RRC
METAR EGDX 081250Z 26007KT 9999 FEW020 20/11 Q1018 BLU=
METAR EGDY 081250Z 20009KT 9999 FWE035 SCT100 BKN220 22/14 Q1018=
METAR COR EGLF 081250Z 28006KT 220V330 9999 SCT032 BKN038 23/15 Q1018=
METAR EGOM 081250Z 25015KT 9999 SCT026 SCT032 17/10 Q1015 BLU=
METAR EGQA 081250Z 21013KT 9999 -SHRA FEW020 SCT030 15/// Q1010 BLU=
METAR EGUB 081250Z 21009KT 9999 SCT038 BKN220 24/19 Q1018 BLU NOSIG=
METAR EGWC 081250Z 21014KT 9999 BKN035 21/10 Q1018 BLU=
METAR EGXZ 081250Z 25013KT 9999 SCT040 21/09 Q1016 BLU=
METAR EICK 081300Z 20010KT 9999 -RA SCT008 BKN025 BKN038 14/13 Q1016
      NOSIG=
METAR EIDW 081300Z 23012KT 200V260 9999 FEW022 BKN050 BKN100 17/09
      Q1015 NOSIG=
METAR EIKN 081300Z 19009KT 140V230 9999 FEW015 FEW018CB BKN040 BKN100
      13/12 Q1014 NOSIG=
METAR EINN 081300Z 22010KT 9999 -RADZ FEW016 SCT028 BKN050 15/12 Q1015
      NOSIG=
####018001801####
SAUS90 KWBC 081300 RRC
METAR KROC 081254Z COR 22006KT 9SM CLR 26/21 A3005 RMK AO2 SLP173
     T02610206=
METAR KABE 081251Z 00000KT 5SM HZ CLR 27/22 A3005=
METAR KALB 081251Z 00000KT 7SM FEW080 28/20 A3004=
METAR KART 081256Z AUTO 25005KT 9SM CLR 28/22 A3004=
METAR KAVP 081254Z 00000KT 6SM HZ CLR 27/19 A3008=
METAR KBDL 081251Z 17007KT 3SM HZ OVC008 25/22 A3008=
METAR KBDR 081252Z 10006KT 6SM BR OVC022 25/23 A3007=
METAR KBTV 081254Z 19004KT 7SM CLR 28/22 A3002=
METAR KBUF 081254Z 23004KT 10SM FEW090 28/19 A3006=
METAR KCAE 081256Z 32004KT 10SM CLR 29/21 A3000=
METAR KCAK 081251Z 23003KT 7SM CLR 26/18 A3009=
METAR KCMH 081251Z 00000KT 6SM HZ FEW070 26/21 A3008=
METAR KCRQ 081253Z AUTO 00000KT 5SM HZ FEW007 OVC013 17/14
     A2990=
METAR KCRW 081254Z 00000KT 3SM HZ CLR 24/21 A3010=
METAR KDAY 081256Z 20003KT 6SM R06L/5500VP6000FT HZ CLR 27/19
     A3010=
METAR KERI 081251Z 16007KT 9SM CLR 27/19 A3006=
METAR KGSO 081254Z 03004KT 5SM HZ CLR 29/18 A3004=
METAR KGSP 081253Z 00000KT 10SM CLR 28/19 A3004=
METAR KHTS 081251Z 00000KT 3SM HZ CLR 26/22 A3010=
METAR KHUL 081253Z AUTO 17007KT 110V190 5SM HZ CLR 24/20 A3004=
METAR KIAG 081253Z 23006KT 8SM FEW100 27/21 A3005=
METAR KILG 081251Z 14005KT 3/4SM R01/5500VP6000FT BR OVC003 25/23
     A3004=
METAR KILM 081253Z 05007KT 7SM CLR 28/22 A2994=
METAR KMSS 081253Z AUTO 25004KT 7SM CLR 27/23 A3002=
METAR KORH 081254Z 19005KT 10SM OVC011 24/21 A3013=
METAR KPVD 081251Z 16006KT 10SM BKN100 24/20 A3011=
METAR KPWM 081251Z 19009KT 7SM OVC004 22/20 A3010=
METAR KROC 081254Z COR 22006KT 9SM CLR 26/21 A3005=
METAR KROC 081254Z 22006KT 9SM FEW090 26/21 A3005=
METAR KSYR 081254Z 00000KT 7SM CLR 28/21 A3005=
METAR KMZZ 081255Z AUTO 19004KT 7SM BKN095 25/20 A3007 RMK AO2=
####018000088####
SAUS90 KWBC 081300 CCD
METAR KRIC 081254Z 13007KT 5SM HZ FEW150 SCT250 28/22 A3000=
####018001018####
SAAM20 FCBB 081300
METAR FCBB 081300Z 21008KT 270V160 7000 FEW023 27/20 Q1013 NOSIG=
METAR FCPP 081300Z 18008KT 7000 FEW013 OVC033 24/21 Q1012 NOSIG=
METAR FKKD 081300Z VRB04KT 9999 BKN016 FEW020CB BKN120 28/25 Q1013
      TEMPO 4000 TSRA BKN013 SCT016CB BKN100=
METAR FKYS 081300Z 25003KT 210V280 9999 BKN016 26/20 Q1016 NOSIG=
METAR FKKR 081300Z 08004KT 9999 FEW020 BKN130 BKN300 27/23 Q1012
      NOSIG=
METAR FKKN NIL=
METAR FKKL NIL=
METAR FEFT NIL=
METAR FEFG NIL=
METAR FEFF 081300Z 18002KT 9999 FEW026 FEW040CB BKN300 31/22 Q1013
      NOSIG=
METAR FOOL 081300Z 23006KT 190V260 9000 SCT011 BKN030 27/23 Q1013
      NOSIG=
METAR FOOG NIL=
METAR FOON NIL=
METAR FGSL 081300Z 29005KT 270V330 7000 -TSRA BKN013 FEW020CB BKN130
      25/25 Q1013 NOSIG=
METAR FGBT NIL=
METAR FZRF NIL=
METAR FZOS NIL=
METAR FZAA 081300Z 27008KT 4000 BR SKC 27/19 Q1012 NOSIG=
METAR FZIC NIL=
METAR FZFK NIL=
METAR FZQA NIL=
METAR FNHU NIL=
METAR FNLU NIL=
METAR FPST NIL=
####018002215####
SAUS20 KNKA 081307
METAR K0F2 081304Z AUTO 00000KT 5SM BR SCT011 BKN017 BKN045 23/22 
     A3005 RMK AO2 T02330221=
METAR K11R 081304Z AUTO 07005KT 5SM BR OVC006 26/24 A2998 RMK AO2=
METAR K1H2 081305Z AUTO 23006KT 10SM SCT043 27/24 A3006 RMK AO2 
     T02740237=
METAR K3T5 081304Z AUTO 10005KT 7SM RA SCT015 BKN042 OVC060 25/24 
     A2994 RMK AO2 LTG DSNT E P0001 T02510237=
METAR K5C1 081305Z AUTO 05004KT 10SM BKN004 BKN010 OVC017 24/23 
     A3000 RMK AO1=
METAR KAJG 081305Z AUTO 00000KT 10SM BKN041 27/23 A3006 RMK AO2 
     T02650234=
METAR KAPY 081303Z AUTO 36007KT 10SM SCT034 25/24 A2985 RMK AO2 
     LTG DSNT SE T02510243=
METAR KAQO 081305Z AUTO 00000KT OVC022 25/23 A3004 RMK AO2=
METAR KARM 081305Z AUTO 04006KT 7SM -DZ SCT039 SCT048 BKN060 
     27/25 A2993 RMK AO2 T02650247=
METAR KC09 081304Z AUTO 00000KT 2SM BR SCT003 OVC022 22/22 A3003 
     RMK AO2=
METAR KC75 081303Z AUTO 00000KT 10SM BKN008 BKN011 OVC022 24/23 
     A3004 RMK AO2=
METAR KCUL 081305Z AUTO 22004KT 10SM CLR 27/22 A3006 RMK AO2 
     T02710220=
SPECI KCYS 081306Z 00000KT 10SM SCT008 OVC016 13/12 A3037 RMK AO2=
SPECI KGUS 081300Z AUTO 22004KT 10SM BKN055 25/23 A3005 RMK AO2 RAE1300
      SLP169 $=
METAR KHQZ 081306Z AUTO 11005KT 7SM OVC060 25/23 A3004 RMK AO2=
METAR KHRT 081255Z 00000KT 10SM CLR 27/26 A3003 RMK AO2A SLP170 T02660261
      $=
SPECI KITR 081306Z AUTO 00000KT 10SM FEW005 BKN030 OVC045 17/15 
    A3032 RMK AO2=
METAR KJOT 081306Z AUTO 00000KT 2 1/2SM BR 24/22 A3003 RMK AO2=
SPECI KMKE 081306Z 28008KT 10SM FEW017 SCT022 BKN080 24/21 A3002 RMK 
    AO2=
METAR KORG 081305Z AUTO 07008KT 5SM BR OVC006 16/14 A3000 RMK AO2=
METAR KOXI 081305Z AUTO 09005KT 2 1/2SM SCT050 OVC070 23/22 A3003 
     RMK AO1 T02270215=
METAR KOZA 081301Z AUTO 09005KT 10SM SCT005 BKN022 OVC032 23/22 
     A3009 RMK AO2 T02300216=
METAR KPPQ 081305Z AUTO 30003KT 10SM BKN003 BKN009 23/23 A3008 
     RMK AO2=
METAR KPVW 081301Z AUTO 02007KT 10SM OVC007 20/18 A3018 RMK AO2=
METAR KSFY 081305Z AUTO 32005KT 10SM BKN007 OVC011 23/21 A3005 
     RMK AO2=
SPECI KUIN 081306Z AUTO 31004KT 10SM OVC010 23/22 A3007 RMK AO2 CIG 
    004V013=
####018000416####
SPUS99 KWBC 081308
SPECI
KCYS 081306Z 00000KT 10SM SCT008 OVC016 13/12 A3037 RMK AO2=
KGUS 081300Z AUTO 22004KT 10SM BKN055 25/23 A3005 RMK AO2 RAE1300
     SLP169 $=
KITR 081306Z AUTO 00000KT 10SM FEW005 BKN030 OVC045 17/15 A3032
     RMK AO2=
KMKE 081306Z 28008KT 10SM FEW017 SCT022 BKN080 24/21 A3002 RMK
     AO2=
KUIN 081306Z AUTO 31004KT 10SM OVC010 23/22 A3007 RMK AO2 CIG
     004V013=
####018001724####
SAUS99 KWBC 081308
METAR
KMZZ 081255Z AUTO 19004KT 7SM BKN095 25/20 A3007 RMK AO2=
K0F2 081304Z AUTO 00000KT 5SM BR SCT011 BKN017 BKN045 23/22 A3005
     RMK AO2 T02330221=
K11R 081304Z AUTO 07005KT 5SM BR OVC006 26/24 A2998 RMK AO2=
K1H2 081305Z AUTO 23006KT 10SM SCT043 27/24 A3006 RMK AO2
     T02740237=
K3T5 081304Z AUTO 10005KT 7SM RA SCT015 BKN042 OVC060 25/24 A2994
     RMK AO2 LTG DSNT E P0001 T02510237=
K5C1 081305Z AUTO 05004KT 10SM BKN004 BKN010 OVC017 24/23 A3000
     RMK AO1=
KAJG 081305Z AUTO 00000KT 10SM BKN041 27/23 A3006 RMK AO2
     T02650234=
KAPY 081303Z AUTO 36007KT 10SM SCT034 25/24 A2985 RMK AO2 LTG DSNT
     SE T02510243=
KAQO 081305Z AUTO 00000KT OVC022 25/23 A3004 RMK AO2=
KARM 081305Z AUTO 04006KT 7SM -DZ SCT039 SCT048 BKN060 27/25 A2993
     RMK AO2 T02650247=
KC09 081304Z AUTO 00000KT 2SM BR SCT003 OVC022 22/22 A3003 RMK
     AO2=
KC75 081303Z AUTO 00000KT 10SM BKN008 BKN011 OVC022 24/23 A3004
     RMK AO2=
KCUL 081305Z AUTO 22004KT 10SM CLR 27/22 A3006 RMK AO2
     T02710220=
KHQZ 081306Z AUTO 11005KT 7SM OVC060 25/23 A3004 RMK AO2=
KHRT 081255Z 00000KT 10SM CLR 27/26 A3003 RMK AO2A SLP170
     T02660261 $=
KJOT 081306Z AUTO 00000KT 2 1/2SM BR 24/22 A3003 RMK AO2=
KORG 081305Z AUTO 07008KT 5SM BR OVC006 16/14 A3000 RMK AO2=
KOXI 081305Z AUTO 09005KT 2 1/2SM SCT050 OVC070 23/22 A3003 RMK
     AO1 T02270215=
KOZA 081301Z AUTO 09005KT 10SM SCT005 BKN022 OVC032 23/22 A3009
     RMK AO2 T02300216=
KPPQ 081305Z AUTO 30003KT 10SM BKN003 BKN009 23/23 A3008 RMK
     AO2=
KPVW 081301Z AUTO 02007KT 10SM OVC007 20/18 A3018 RMK AO2=
KSFY 081305Z AUTO 32005KT 10SM BKN007 OVC011 23/21 A3005 RMK
     AO2=
####018000355####
SAEW34 LEMM 081300
METAR LEBA 081300Z 27007KT 220V300 9999 FEW045 34/14 Q1015=
METAR LEDA 081300Z 18007KT 150V230 CAVOK 37/14 Q1018=
METAR LEJR 081300Z VRB05KT CAVOK 32/14 Q1015=
METAR LELL 081300Z 14009KT 090V190 CAVOK 31/14 Q1019=
METAR LEPP 081300Z 18010KT 140V230 CAVOK 37/14 Q1018=
METAR LEXJ 081300Z 28008KT 240V310 9999 SCT018 25/19 Q1016=
####018000291####
SANZ31 NZKL 081300

METAR NZAA 081300Z 23009KT 9999 FEW025 10/07 Q1012 NOSIG=
METAR NZWN 081300Z 19026G36KT 9999 -SHRA FEW015 SCT030 BKN037 08/05
         Q1013 WS R16 TEMPO 6000 SHRA =
METAR NZCH 081300Z 22009KT 9999 FEW014 SCT035 BKN045 06/03 Q1017
         TEMPO 6000 SHRA =
####018000080####
SAEO32 EGGY 081250 RRA
METAR EEKA 081250Z 29008KT 280V330 CAVOK 22/13 Q1016=
####018000369####
SACZ43 LKPW 081300
METAR LKCV 081300Z 16004KT 110V220 CAVOK 24/08 Q1022 NOSIG=
METAR LKKB 081300Z 32005KT 260V020 CAVOK 25/09 Q1022 NOSIG=
METAR LKLN 081300Z AUTO VRB04G17KT CAVOK 25/09 Q1023=
METAR LKNA 081300Z 05004KT CAVOK 23/08 Q1023 NOSIG=
METAR LKPD 081300Z VRB02KT CAVOK 25/06 Q1022 NOSIG=
METAR COR LKPO 081300Z 31003KT 270V340 CAVOK 23/11 Q1022 NOSIG=
####018000389####
SARO32 LROM 081300
METAR LRAR 081300Z 02008KT 320V060 9999 BKN045 24/14 Q1020=
METAR LRBM 081300Z 31004KT 230V020 9999 SCT042 21/14 Q1019=
METAR LRCL 081300Z 29008KT 9999 BKN045 19/13 Q1020 0821//95=
METAR LROD 081300Z 36010KT 320V020 CAVOK 23/12 Q1020=
METAR LRSM 081300Z 33008KT 9999 BKN043 23/15 Q1020=
METAR LRTM 081300Z 32004KT 270V010 9999 FEW018 SCT033 BKN036 19/14
Q1020=
####018000347####
SARO33 LROM 081300
METAR LRBC 081300Z 01014KT 350V050 9999 FEW021 BKN033 23/17 Q1017=
METAR LRCV 081300Z 25004KT 190V340 9999 FEW030 BKN040 23/14 Q1017=
METAR LRIA 081300Z 31014KT 270V350 9999 SCT022 BKN029 22/17 Q1017=
METAR LRSV 081300Z 31020KT 9999 SCT012 BKN049 17/14 Q1019=
METAR LRTC 081300Z 36010KT 9999 FEW030CB BKN040 24/17 Q1014=
####018000782####
SAZA31 FAPR 081300
METAR FABL 081300Z 36008KT 320V040 9999 FEW050 18/04 Q1030 NOSIG=
METAR FACT 081300Z VRB02KT CAVOK 23/00 Q1017 NOSIG=
METAR FAEL 081300Z 06012KT 9999 FEW050 21/13 Q1023=
METAR FAGG 081300Z 16005KT CAVOK 19/10 Q1019=
METAR FAJS 081300Z 03008KT 350V070 9999 SCT045 17/02 Q1032 NOSIG=
METAR FAKN 081300Z 06004KT 9999 SCT030 FEW030TCU 19/09 Q1031 NOSIG=
METAR FALA 081300Z 03008KT 350V090 9999 FEW049 18/04 Q1031 NOSIG=
METAR FALE 081300Z 06015KT CAVOK 22/16 Q1026 NOSIG=
METAR FAMM 081300Z 04008KT 9999 FEW040 20/03 Q1029 NOSIG=
METAR FAPE 081300Z 06012KT CAVOK 18/12 Q1021 NOSIG=
METAR FAPN 081300Z AUTO 10005KT //// // ////// 21/04 Q1029=
METAR FAPP 081300Z 06008KT 9999 BKN035 17/06 Q1030 NOSIG=
METAR FAUP 081300Z 35015KT CAVOK 24/02 Q1025 NOSIG=
####018000107####
SAMX55 MMCS 081301
METAR MMCS 081300Z RTD 02010KT 10SM FEW030 SCT080 23/17 A3013
      RMK 8/570 HZY=
####018000187####
SAPH RPLL 081300
METAR RPLL 081300Z 11003KT 9000 FEW025 31/26 Q1010 NOSIG RMK A2980=
METAR RPVM 081300Z 00000KT 9999 FEW018CB SCT090 BKN250 29/26 Q1011
           A2985 OCNL LTNG N=
####018000795####
SACN86 KWBC 081308
CWBE RMK NIL=
CWCU RMK NIL=
CWNL RMK NIL=
CWPO RMK NIL=
CWPS RMK NIL=
CWSI RMK NIL=
CWWX RMK NIL=
CWWZ RMK NIL=
CWHP RMK NIL=
METAR CWNC 081300Z AUTO 15001KT 22/21 RMK AO1 SLP161 T02220209
50002=
CWNZ RMK NIL=
CTAE RMK NIL=
CTAL RMK NIL=
CTCK RMK NIL=
CTCW RMK NIL=
CTWN RMK NIL=
CWAJ RMK NIL=
CWBE RMK NIL=
METAR CWLS 081300Z AUTO 13002KT 22/21 RMK AO1 4PAST HR 8003 SLP172
P0013 T02210206 50034=
CWNB RMK NIL=
CWNL RMK NIL=
CWPC RMK NIL=
CWPS RMK NIL=
CWWX RMK NIL=
METAR CWWB 081300Z AUTO 25005KT 27/19 RMK AO1 SLP162 T02710188
50000=
METAR CWWB 081300Z AUTO 25005KT 27/19 RMK AO1 SLP162 T02710188
50000=
METAR CWWB 081300Z AUTO 25005KT 27/19 RMK AO1 SLP162 T02710188
50000=
CWDQ RMK NIL=
CWDV RMK NIL=
####018000999####
SACN90 KWBC 081308
METAR CWEB 081300Z AUTO 10001KT 14/12 RMK AO1 SLP153 T01420117
53007=
CWEE RMK NIL=
METAR CWEL 081300Z AUTO 29005KT 20/13 RMK AO1 T01970132=
CWEW RMK NIL=
METAR CWEZ 081300Z AUTO 30004KT 18/15 RMK AO1 SLP150 T01840153
51005=
CWFF RMK NIL=
CWFJ RMK NIL=
METAR CWFQ 081300Z AUTO 19003KT 28/23 RMK AO1 T02810232=
METAR CWGB 081300Z AUTO 26006KT 19/12 RMK AO1 SLP155 T01910120
53008=
METAR CWGD 081300Z AUTO 16006KT 26/20 RMK AO1 SLP160 T02620202
51001=
CWGH RMK NIL=
CWGL RMK NIL=
CWGM RMK NIL=
CWEE RMK NIL=
METAR CWEL 081300Z AUTO 29005KT 20/13 RMK AO1 T01970132=
CWEW RMK NIL=
METAR CWEZ 081300Z AUTO 30004KT 18/15 RMK AO1 SLP150 T01840153
51005=
CWFF RMK NIL=
CWFJ RMK NIL=
METAR CWFQ 081300Z AUTO 19003KT 28/23 RMK AO1 T02810232=
METAR CWGB 081300Z AUTO 26006KT 19/12 RMK AO1 SLP155 T01910120
53008=
METAR CWGD 081300Z AUTO 16006KT 26/20 RMK AO1 SLP160 T02620202
51001=
CWGH RMK NIL=
CWGL RMK NIL=
CWGM RMK NIL=
####018002209####
SACN94 KWBC 081308
CWND RMK NIL=
METAR CWQH 081300Z AUTO 22003KT 28/24 RMK AO1 T02790241=
METAR CWQK 081300Z AUTO RMK AO1 =
CWQO RMK NIL=
CWQP RMK NIL=
CWQR RMK NIL=
CWQV RMK NIL=
CWRJ RMK NIL=
METAR CWRK 081300Z AUTO 20003KT 27/21 RMK AO1 SLP170 T02720210
58002=
CWRT RMK NIL=
METAR CWRY 081300Z AUTO 28003KT 11/07 RMK AO1 SLP226 T01070065
53001=
CWRZ RMK NIL=
METAR CWSD 081300Z AUTO 21012G18KT 21/19 RMK AO1 7PAST HR 4000 PK
WND 21020/1205 SLP178 P0003 T02050190 50007=
METAR CWSG 081300Z AUTO 02006KT 13/13 RMK AO1 SLP174 T01330129
50006=
METAR CWSK 081300Z AUTO 02002KT 15/10 RMK AO1 SLP167 T01500102
51007=
CWSL RMK NIL=
METAR CWSP 081300Z AUTO 15/ RMK AO1 SLP153 T0153 53004=
CWSR RMK NIL=
CWST RMK NIL=
METAR CWQH 081300Z AUTO 22003KT 28/24 RMK AO1 T02790241=
METAR CWQK 081300Z AUTO RMK AO1 =
CWQO RMK NIL=
CWQP RMK NIL=
CWQR RMK NIL=
CWQV RMK NIL=
CWRJ RMK NIL=
METAR CWRK 081300Z AUTO 20003KT 27/21 RMK AO1 SLP170 T02720210
58002=
CWRT RMK NIL=
METAR CWRY 081300Z AUTO 28003KT 11/07 RMK AO1 SLP226 T01070065
53001=
CWRZ RMK NIL=
METAR CWSD 081300Z AUTO 21012G18KT 21/19 RMK AO1 7PAST HR 4000 PK
WND 21020/1205 SLP178 P0003 T02050190 50007=
METAR CWSG 081300Z AUTO 02006KT 13/13 RMK AO1 SLP174 T01330129
50006=
METAR CWSK 081300Z AUTO 02002KT 15/10 RMK AO1 SLP167 T01500102
51007=
CWSL RMK NIL=
METAR CWSP 081300Z AUTO 15/ RMK AO1 SLP153 T0153 53004=
CWSR RMK NIL=
CWST RMK NIL=
METAR CWQH 081300Z AUTO 22003KT 28/24 RMK AO1 T02790241=
METAR CWQK 081300Z AUTO RMK AO1 =
CWQO RMK NIL=
CWQP RMK NIL=
CWQR RMK NIL=
CWQV RMK NIL=
CWRJ RMK NIL=
METAR CWRK 081300Z AUTO 20003KT 27/21 RMK AO1 SLP170 T02720210
58002=
CWRT RMK NIL=
METAR CWRY 081300Z AUTO 28003KT 11/07 RMK AO1 SLP226 T01070065
53001=
CWRZ RMK NIL=
METAR CWSD 081300Z AUTO 21012G18KT 21/19 RMK AO1 7PAST HR 4000 PK
WND 21020/1205 SLP178 P0003 T02050190 50007=
METAR CWSG 081300Z AUTO 02006KT 13/13 RMK AO1 SLP174 T01330129
50006=
METAR CWSK 081300Z AUTO 02002KT 15/10 RMK AO1 SLP167 T01500102
51007=
CWSL RMK NIL=
METAR CWSP 081300Z AUTO 15/ RMK AO1 SLP153 T0153 53004=
CWSR RMK NIL=
CWST RMK NIL=
####018000970####
SACN85 KWBC 081308
CWEF RMK NIL=
METAR CWEP 081300Z AUTO 20015G20KT 20/19 RMK AO1 PK WND 21021/1200
SLP181 T01980186 50004=
METAR CWER 081300Z AUTO 04010KT RMK AO1 =
CWHO RMK NIL=
METAR CWPK 081300Z AUTO 30001KT 25/ RMK AO1 SLP165 T0253 58002=
CWWE RMK NIL=
CYGS RMK NIL=
CWEF RMK NIL=
METAR CWEP 081300Z AUTO 20015G20KT 20/19 RMK AO1 PK WND 21021/1200
SLP181 T01980186 50004=
METAR CWER 081300Z AUTO 04010KT RMK AO1 =
METAR CWDM 081300Z AUTO 06006KT 10/08 RMK AO1 SLP181 T01010084
58007=
CWNH RMK NIL=
METAR CWBV 081300Z AUTO 25005KT 17/17 RMK AO1 SLP224 T01680166
51009=
CWDO RMK NIL=
CWHO RMK NIL=
METAR CWRN 081300Z AUTO 22016G23KT 20/16 RMK AO1 PK WND 22023/1258
SLP204 T01980162 58001=
CWSS RMK NIL=
CWRA RMK NIL=
CWSF RMK NIL=
CWRA RMK NIL=
CWSF RMK NIL=
CWRA RMK NIL=
CWSF RMK NIL=
CWWE RMK NIL=
CWWE RMK NIL=
CWWE RMK NIL=
METAR CWBY 081300Z AUTO 05004KT 15/14 RMK AO1 SLP165 T01470139
53003=
####018000739####
SACN93 KWBC 081308
CWMZ RMK NIL=
METAR CWNE 081300Z AUTO 24017KT 21/18 RMK AO1 PK WND 24020/1230
SLP167 T02100180 51001=
CWNK RMK NIL=
METAR CWNM 081300Z AUTO 11/11 RMK AO1 SLP209 T01120112 53008=
CWNP RMK NIL=
CWNQ RMK NIL=
CWNX RMK NIL=
METAR CWOC 081300Z AUTO 28002KT 22/20 RMK AO1 SLP158 T02180195
50005=
METAR CWOD 081300Z AUTO 04002KT 26/ RMK AO1 SLP134 T0259 50000=
CWOE RMK NIL=
CWOQ RMK NIL=
CWPB RMK NIL=
CWPD RMK NIL=
CWPE RMK NIL=
CWPF RMK NIL=
METAR CWPR 081300Z AUTO 00000KT 11/ RMK AO1 SLP204 T0109 53010=
METAR CWPZ 081300Z AUTO 00000KT 04/04 RMK AO1 SLP202 T00440036
51004=
CWQA RMK NIL=
METAR CWPZ 081300Z AUTO 00000KT 04/04 RMK AO1 SLP202 T00440036
51004=
CWQA RMK NIL=
####018000587####
SANM40 FYWW 081300
METAR FYKB 081300Z AUTO 01009G57KT //// // ////// 24/01 Q1022=
METAR FYKT 081300Z AUTO 03015KT //// // ////// 25/00 Q1024=
METAR FYKX 081300Z AUTO 13009G23KT //// // ////// ///// Q1022=
METAR FYML 081300Z AUTO 08010KT //// // ////// 19/M04 Q1025=
METAR FYOT 081300Z AUTO 05008G18KT //// // ////// 24/03 Q////=
METAR FYRU 081300Z 09008KT CAVOK 25/03 Q1022=
METAR FYWB 081300Z 04016KT CAVOK 34/08 Q1016=
METAR FYWB 081300Z 04016KT CAVOK 34/08 Q1016=
METAR FYWH 081300Z AUTO 02010KT //// // ////// 21/M01 Q1026=
METAR FYWW 081300Z 03007KT CAVOK 21/M00 Q1025=
####018000964####
SACN91 KWBC 081308
CWGR RMK NIL=
METAR CWGT 081300Z AUTO 32008KT 20/14 RMK AO1 SLP155 T02010139
53011=
CWGW RMK NIL=
CWGX RMK NIL=
METAR CWGY 081300Z AUTO 00000KT 13/11 RMK AO1 SLP214 T01290110
57002=
CWHA RMK NIL=
CWHD RMK NIL=
CWHI RMK NIL=
METAR CWHL 081300Z AUTO 25003KT 14/ RMK AO1 SLP171 T0140 50002=
METAR CWHM 081300Z AUTO 26001KT 29/23 RMK AO1 T02900225=
CWHQ RMK NIL=
METAR CWHT 081300Z AUTO 27002KT 06/03 RMK AO1 SLP215 T00560030
58001=
METAR CWHV 081300Z AUTO 19004KT 27/22 RMK AO1 SLP162 T02720224
51001=
CWID RMK NIL=
CWIG RMK NIL=
CWII RMK NIL=
CWIJ RMK NIL=
CWIN RMK NIL=
CWIO RMK NIL=
METAR CWIP 081300Z AUTO 02004KT 13/ RMK AO1 T0128=
CWIS RMK NIL=
CWIT RMK NIL=
CWIW RMK NIL=
CWIX RMK NIL=
CWIY RMK NIL=
CWIZ RMK NIL=
METAR CWJB 081300Z AUTO 04003KT 22/18 RMK AO1 T02170179=
METAR CWJC 081300Z AUTO 08/08 RMK AO1 2PAST HR M17 4000 SLP047
P0001 T00820080 50002=
CWJH RMK NIL=
####018000637####
SACN92 KWBC 081308
CWJI RMK NIL=
CWJM RMK NIL=
CWJO RMK NIL=
METAR CWJR 081300Z AUTO 03001KT 15/ RMK AO1 SLP208 T0148 51007=
CWJT RMK NIL=
CWJU RMK NIL=
METAR CWJV 081300Z AUTO 10005KT 15/08 RMK AO1 SLP188 T01460080
53010=
METAR CWJW 081300Z AUTO 20003KT 05/04 RMK AO1 SLP228 T00510041
53006=
CWJX RMK NIL=
CWKD RMK NIL=
CWKG RMK NIL=
METAR CWKH 081300Z AUTO 22/ RMK AO1 T0217=
CWKX RMK NIL=
CWLC RMK NIL=
CWLE RMK NIL=
METAR CWLM 081300Z AUTO 36009KT 19/10 RMK AO1 T01910098=
CWLU RMK NIL=
METAR CWMJ 081300Z AUTO 16002KT 27/21 RMK AO1 SLP159 T02720213
58003=
CWMM RMK NIL=
CWMQ RMK NIL=
####018000387####
SACN88 KWBC 081308
CWBK RMK NIL=
CAHR RMK NIL=
CERM RMK NIL=
CWAR RMK NIL=
METAR CWBK 081300Z AUTO 21007KT 24/19 RMK AO1 SLP190 T02350185
51003=
CWDA RMK NIL=
CWXI RMK NIL=
CWZN RMK NIL=
CXNP RMK NIL=
METAR CZCR 081300Z AUTO 07002KT 19/18 RMK AO1 SLP162 T01870181
50008=
CZDB RMK NIL=
METAR CZSP 081300Z AUTO 22009KT 24/19 RMK AO1 SLP175 T02420186
56002=
####018001675####
SACN96 KWBC 081308
CWXL RMK NIL=
CWYJ RMK NIL=
METAR CWYL 081300Z AUTO 06004KT 03/02 RMK AO1 T00340021=
CWYY RMK NIL=
CWZA RMK NIL=
CWZL RMK NIL=
METAR CWZO 081300Z AUTO 01004KT RMK AO1 =
CWZQ RMK NIL=
METAR CWZS 081300Z AUTO 23001KT 22/20 RMK AO1 SLP158 T02150197
50003=
CWZV RMK NIL=
METAR CXHM 081300Z AUTO 22002KT 28/21 RMK AO1 T02770208=
CXKA RMK NIL=
CXKE RMK NIL=
CWYJ RMK NIL=
METAR CWYL 081300Z AUTO 06004KT 03/02 RMK AO1 T00340021=
CWYY RMK NIL=
CWZA RMK NIL=
CWZL RMK NIL=
METAR CWZO 081300Z AUTO 01004KT RMK AO1 =
CWZQ RMK NIL=
METAR CWZS 081300Z AUTO 23001KT 22/20 RMK AO1 SLP158 T02150197
50003=
CWZV RMK NIL=
METAR CXHM 081300Z AUTO 22002KT 28/21 RMK AO1 T02770208=
CXKA RMK NIL=
CXKE RMK NIL=
CWYJ RMK NIL=
METAR CWYL 081300Z AUTO 06004KT 03/02 RMK AO1 T00340021=
CWYY RMK NIL=
CWZA RMK NIL=
CWZL RMK NIL=
METAR CWZO 081300Z AUTO 01004KT RMK AO1 =
CWZQ RMK NIL=
METAR CWZS 081300Z AUTO 23001KT 22/20 RMK AO1 SLP158 T02150197
50003=
CWZV RMK NIL=
METAR CXHM 081300Z AUTO 22002KT 28/21 RMK AO1 T02770208=
CXKA RMK NIL=
CXKE RMK NIL=
METAR CXHM 081300Z AUTO 22002KT 28/21 RMK AO1 T02770208=
CXKA RMK NIL=
CXKE RMK NIL=
METAR CXHM 081300Z AUTO 22002KT 28/21 RMK AO1 T02770208=
CXKA RMK NIL=
CXKE RMK NIL=
METAR CXHM 081300Z AUTO 22002KT 28/21 RMK AO1 T02770208=
CXKA RMK NIL=
CXKE RMK NIL=
METAR CXHM 081300Z AUTO 22002KT 28/21 RMK AO1 T02770208=
CXKA RMK NIL=
CXKE RMK NIL=
METAR CXHM 081300Z AUTO 22002KT 28/21 RMK AO1 T02770208=
CXKA RMK NIL=
CXKE RMK NIL=
METAR CXHM 081300Z AUTO 22002KT 28/21 RMK AO1 T02770208=
CXKA RMK NIL=
CXKE RMK NIL=
####018001547####
SACN95 KWBC 081308
CWTA RMK NIL=
CWTG RMK NIL=
METAR CWTN 081300Z AUTO 11005KT 19/17 RMK AO1 SLP163 T01910174
53003=
CWTT RMK NIL=
METAR CWTY 081300Z AUTO 20008KT 24/22 RMK AO1 SLP150 T02440217
50003=
METAR CWUS 081300Z AUTO 29007KT 17/06 RMK AO1 SLP191 T01660060
53010=
CWUX RMK NIL=
METAR CWVF 081300Z AUTO 33007KT 19/ RMK AO1 T0189=
CWVI RMK NIL=
CWVN RMK NIL=
CWVP RMK NIL=
METAR CWVQ 081300Z AUTO 24004KT 27/23 RMK AO1 T02690232=
CWVU RMK NIL=
METAR CWVV 081300Z AUTO 36008KT 19/08 RMK AO1 SLP155 T01870077
53004=
CWVZ RMK NIL=
METAR CWWA 081300Z AUTO 04002KT 19/10 RMK AO1 SLP153 T01930098
52004=
CWWF RMK NIL=
CWWK RMK NIL=
METAR CWXA 081300Z AUTO 24009G17KT 12/05 RMK AO1 PK WND 25017/1251
SLP222 T01220048 53002=
CWXC RMK NIL=
CWVU RMK NIL=
METAR CWVV 081300Z AUTO 36008KT 19/08 RMK AO1 SLP155 T01870077
53004=
CWVZ RMK NIL=
METAR CWWA 081300Z AUTO 04002KT 19/10 RMK AO1 SLP153 T01930098
52004=
CWWF RMK NIL=
CWWK RMK NIL=
METAR CWXA 081300Z AUTO 24009G17KT 12/05 RMK AO1 PK WND 25017/1251
SLP222 T01220048 53002=
CWXC RMK NIL=
CWVU RMK NIL=
METAR CWVV 081300Z AUTO 36008KT 19/08 RMK AO1 SLP155 T01870077
53004=
CWVZ RMK NIL=
METAR CWWA 081300Z AUTO 04002KT 19/10 RMK AO1 SLP153 T01930098
52004=
CWWF RMK NIL=
CWWK RMK NIL=
METAR CWXA 081300Z AUTO 24009G17KT 12/05 RMK AO1 PK WND 25017/1251
SLP222 T01220048 53002=
CWXC RMK NIL=
METAR CWXA 081300Z AUTO 24009G17KT 12/05 RMK AO1 PK WND 25017/1251
SLP222 T01220048 53002=
CWXC RMK NIL=
####018000114####
SPXX60 KWBC 081308
SPECI
KGUS 081300Z AUTO 22004KT 10SM BKN055 25/23 A3005 RMK AO2 RAE1300
     SLP169 $=
####018000119####
SAXX60 KWBC 081308
METAR
KAPY 081303Z AUTO 36007KT 10SM SCT034 25/24 A2985 RMK AO2 LTG DSNT
     SE T02510243=
####018000081####
SAAF33 KWBC 081300 RRA
METAR
FVHA 081300Z 10010KT CAVOK 20/02 Q1028 NOSIG=
####018000604####
SAAF32 KWBC 081300 RRA
METAR
FCBB 081300Z 21008KT 270V160 7000 FEW023 27/20 Q1013 NOSIG=
FCPP 081300Z 18008KT 7000 FEW013 OVC033 24/21 Q1012 NOSIG=
FGSL 081300Z 29005KT 270V330 7000 -TSRA BKN013 FEW020CB BKN130
     25/25 Q1013 NOSIG=
FKKD 081300Z VRB04KT 9999 BKN016 FEW020CB BKN120 28/25 Q1013 TEMPO
     4000 TSRA BKN013 SCT016CB BKN100=
FKKR 081300Z 08004KT 9999 FEW020 BKN130 BKN300 27/23 Q1012
     NOSIG=
FMNM 081300Z 16008KT CAVOK 31/13 Q1015=
FOOL 081300Z 23006KT 190V260 9000 SCT011 BKN030 27/23 Q1013
     NOSIG=
FZAA 081300Z 27008KT 4000 BR SKC 27/19 Q1012 NOSIG=
####018001635####
SACN87 KWBC 081308
CWME RMK NIL=
METAR CWEK 081300Z AUTO 18004KT 13/ RMK AO1 SLP169 T0126 51005=
METAR CWEQ 081300Z AUTO 23006KT 13/10 RMK AO1 SLP177 T01280102
51008=
CWJD RMK NIL=
METAR CWLP 081300Z AUTO 09003KT 12/12 RMK AO1 SLP170 T01220116
52002=
CWPU RMK NIL=
CWRO RMK NIL=
CWWL RMK NIL=
CWWS RMK NIL=
METAR CWZG 081300Z AUTO 23002KT 08/03 RMK AO1 SLP242 T00790033
51006=
CWJD RMK NIL=
METAR CWLP 081300Z AUTO 09003KT 12/12 RMK AO1 SLP170 T01220116
52002=
CWPU RMK NIL=
CWRO RMK NIL=
CWWL RMK NIL=
CWWS RMK NIL=
METAR CWZG 081300Z AUTO 23002KT 08/03 RMK AO1 SLP242 T00790033
51006=
METAR CWCT 081300Z AUTO 24006KT 13/09 RMK AO1 SLP208 T01270092
57006=
CWLB RMK NIL=
CWLB RMK NIL=
METAR CWDC 081300Z AUTO 01007KT 15/09 RMK AO1 SLP131 T01520085
53001=
METAR CWEH 081300Z AUTO 13003KT 13/09 RMK AO1 SLP218 T01340094
53005=
METAR CWKO 081300Z AUTO 33004KT 14/10 RMK AO1 SLP223 T01380097
51007=
METAR CWOY 081300Z AUTO 31006KT 13/09 RMK AO1 SLP201 T01310087
51006=
CWQS RMK NIL=
CWRM RMK NIL=
CWRU RMK NIL=
CWQS RMK NIL=
CWRM RMK NIL=
CWRU RMK NIL=
METAR CWEK 081200Z AUTO 11006KT 13/ RMK AO1 SLP168 T0126 51008=
CWQS RMK NIL=
CWRM RMK NIL=
CWRU RMK NIL=
METAR CWVT 081300Z AUTO 00000KT 16/10 RMK AO1 3PAST HR 7003 SLP162
P0001 T01580104 50003=
METAR CWZW 081300Z AUTO 29002KT 08/05 RMK AO1 SLP227 T00760047
53002=
METAR CWZW 081300Z AUTO 29002KT 08/05 RMK AO1 SLP227 T00760047
53002=
METAR CWZW 081300Z AUTO 29002KT 08/05 RMK AO1 SLP227 T00760047
53002=
METAR CWZW 081300Z AUTO 29002KT 08/05 RMK AO1 SLP227 T00760047
53002=
####018000173####
SPAU31 YBBN 081305
SPECI YSSY 081300Z 24007KT 9999 -SHRA FEW010 SCT020 BKN050 11/11
Q1027
FM1300 22008KT 9999 -SHRA SCT020 BKN045
INTER 1300/1600 5000 SHRA BKN010=
####018000096####
SAAF31 KWBC 081300 RRA
METAR
DNMM 081300Z 24010KT 9999 BKN012 FEW020CB 29/26 Q1014 NOSIG=
####018001559####
SAUS70 KWBC 081308
METAR
PABA 081301Z AUTO 28014KT 10SM BKN042 OVC055 07/04 A3001 RMK AO2
     SLP162 T00720044=
KPAN 081315Z AUTO 10005KT 10SM CLR 21/04 A3016 RMK AO1=
KRQO 081315Z AUTO 00000KT 1/2SM FG OVC001 23/23 A3009 RMK AO2=
K0F2 081304Z AUTO 00000KT 5SM BR SCT011 BKN017 BKN045 23/22 A3005
     RMK AO2 T02330221=
K11R 081304Z AUTO 07005KT 5SM BR OVC006 26/24 A2998 RMK AO2=
K1H2 081305Z AUTO 23006KT 10SM SCT043 27/24 A3006 RMK AO2
     T02740237=
K3T5 081304Z AUTO 10005KT 7SM RA SCT015 BKN042 OVC060 25/24 A2994
     RMK AO2 LTG DSNT E P0001 T02510237=
K5C1 081305Z AUTO 05004KT 10SM BKN004 BKN010 OVC017 24/23 A3000
     RMK AO1=
KAJG 081305Z AUTO 00000KT 10SM BKN041 27/23 A3006 RMK AO2
     T02650234=
KAQO 081305Z AUTO 00000KT OVC022 25/23 A3004 RMK AO2=
KARM 081305Z AUTO 04006KT 7SM -DZ SCT039 SCT048 BKN060 27/25 A2993
     RMK AO2 T02650247=
KC09 081304Z AUTO 00000KT 2SM BR SCT003 OVC022 22/22 A3003 RMK
     AO2=
KC75 081303Z AUTO 00000KT 10SM BKN008 BKN011 OVC022 24/23 A3004
     RMK AO2=
KHQZ 081306Z AUTO 11005KT 7SM OVC060 25/23 A3004 RMK AO2=
KJOT 081306Z AUTO 00000KT 2 1/2SM BR 24/22 A3003 RMK AO2=
KORG 081305Z AUTO 07008KT 5SM BR OVC006 16/14 A3000 RMK AO2=
KOXI 081305Z AUTO 09005KT 2 1/2SM SCT050 OVC070 23/22 A3003 RMK
     AO1 T02270215=
KOZA 081301Z AUTO 09005KT 10SM SCT005 BKN022 OVC032 23/22 A3009
     RMK AO2 T02300216=
KPPQ 081305Z AUTO 30003KT 10SM BKN003 BKN009 23/23 A3008 RMK
     AO2=
KPVW 081301Z AUTO 02007KT 10SM OVC007 20/18 A3018 RMK AO2=
####018002402####
SACN97 KWBC 081308
CXKT RMK NIL=
CXAT RMK NIL=
CXBK RMK NIL=
CXBO RMK NIL=
METAR CXCA 081300Z AUTO 13001KT 20/18 RMK AO1 SLP144 T02000176
57005=
METAR CXCH 081300Z AUTO 26/17 RMK AO1 T02550169=
METAR CXCK 081300Z AUTO 00000KT 09/ RMK AO1 T0085=
CXDE RMK NIL=
METAR CXDI 081300Z AUTO 21004KT 28/19 RMK AO1 SLP154 T02790194
58002=
CXDW RMK NIL=
CXEA RMK NIL=
CXEC RMK NIL=
CXEG RMK NIL=
METAR CXET 081300Z AUTO 31003KT 27/21 RMK AO1 SLP163 T02730214
57002=
CXGH RMK NIL=
METAR CXHA 081300Z AUTO 25002KT 29/22 RMK AO1 SLP152 T02930218
58001=
METAR CXHF 081300Z AUTO 27/21 RMK AO1 T02690214=
METAR CXIB 081300Z AUTO 36003KT 23/16 RMK AO1 SLP178 T02250158
50003=
CXLC RMK NIL=
CXLL RMK NIL=
CXMD RMK NIL=
METAR CXMI 081300Z AUTO 23009KT 20/19 RMK AO1 SLP219 T02000185
51010=
CXMM RMK NIL=
METAR CXMY 081300Z AUTO 25/20 RMK AO1 T02490197=
CXNM RMK NIL=
METAR CXOX 081300Z AUTO 30008KT 16/10 RMK AO1 SLP147 T01570098
56005=
CXPV RMK NIL=
CXQA RMK NIL=
CXQT RMK NIL=
CXRH RMK NIL=
CXSH RMK NIL=
METAR CXSR 081300Z AUTO 16/08 RMK AO1 SLP182 T01640081 51008=
METAR CXSW 081300Z AUTO 18004KT 11/09 RMK AO1 T01060086=
CXTN RMK NIL=
CXTP RMK NIL=
CXTV RMK NIL=
CXWN RMK NIL=
CXZU RMK NIL=
METAR CXBK 081300Z AUTO 30003KT 14/10 RMK AO1 SLP199 T01420101
53013=
METAR CXIB 081300Z AUTO 36003KT 23/16 RMK AO1 SLP178 T02250158
50003=
CXLC RMK NIL=
CXLL RMK NIL=
CXMD RMK NIL=
METAR CXMI 081300Z AUTO 23009KT 20/19 RMK AO1 SLP219 T02000185
51010=
CXMM RMK NIL=
METAR CXMY 081300Z AUTO 25/20 RMK AO1 T02490197=
CXNM RMK NIL=
METAR CXOX 081300Z AUTO 30008KT 16/10 RMK AO1 SLP147 T01570098
56005=
CXPV RMK NIL=
CXQA RMK NIL=
CXQT RMK NIL=
CXRH RMK NIL=
CXSH RMK NIL=
METAR CXSR 081300Z AUTO 16/08 RMK AO1 SLP182 T01640081 51008=
METAR CXSW 081300Z AUTO 18004KT 11/09 RMK AO1 T01060086=
CXTN RMK NIL=
CXTP RMK NIL=
CXTV RMK NIL=
CXWN RMK NIL=
CXZU RMK NIL=
METAR CXMY 081300Z AUTO 25/20 RMK AO1 T02490197=
CXNM RMK NIL=
METAR CXOX 081300Z AUTO 30008KT 16/10 RMK AO1 SLP147 T01570098
56005=
CXPV RMK NIL=
CXQA RMK NIL=
CXQT RMK NIL=
CXRH RMK NIL=
CXSH RMK NIL=
METAR CXSR 081300Z AUTO 16/08 RMK AO1 SLP182 T01640081 51008=
METAR CXSW 081300Z AUTO 18004KT 11/09 RMK AO1 T01060086=
CXTN RMK NIL=
CXTP RMK NIL=
CXTV RMK NIL=
CXWN RMK NIL=
CXZU RMK NIL=
####018000094####
SPUS80 KWBC 081308
SPECI
KBDL 081305Z 18005KT 4SM HZ SCT010 OVC016 26/22 A3007 RMK AO2=
####018000179####
SAUS80 KWBC 081308
METAR
KCUL 081305Z AUTO 22004KT 10SM CLR 27/22 A3006 RMK AO2
     T02710220=
KSFY 081305Z AUTO 32005KT 10SM BKN007 OVC011 23/21 A3005 RMK
     AO2=
####018000697####
SPUS70 KWBC 081308
SPECI
PAHC 081304Z AUTO 00000KT 1/2SM FG CLR 07/07 A2998 RMK AO2 TSNO
     $=
PPIZ 081303Z AUTO 21010KT 2SM HZ CLR 06/02 A3008 RMK AO2 TSNO
     $=
KHOT 081305Z AUTO 00000KT 9SM OVC009 25/23 A3009 RMK AO2 CIG
     006V014=
KLUK 081305Z 00000KT 4SM HZ CLR 26/23 A3008 RMK AO2=
KMFI 081305Z AUTO 33005KT 5SM BR OVC003 20/19 A3005 RMK AO2 CIG
     001V005=
KCYS 081306Z 00000KT 10SM SCT008 OVC016 13/12 A3037 RMK AO2=
KITR 081306Z AUTO 00000KT 10SM FEW005 BKN030 OVC045 17/15 A3032
     RMK AO2=
KMKE 081306Z 28008KT 10SM FEW017 SCT022 BKN080 24/21 A3002 RMK
     AO2=
KUIN 081306Z AUTO 31004KT 10SM OVC010 23/22 A3007 RMK AO2 CIG
     004V013=
####018000113####
SAUS80 KWBC 081300 RRD
METAR
KROC 081254Z COR 22006KT 9SM CLR 26/21 A3005 RMK AO2 SLP173
     T02610206=
####018000617####
SACN89 KWBC 081308
CWAF RMK NIL=
CWAQ RMK NIL=
CWAV RMK NIL=
METAR CWBA 081300Z AUTO 15005KT 25/21 RMK AO1 T02520214=
CWBG RMK NIL=
METAR CWBO 081300Z AUTO 19003KT 12/12 RMK AO1 SLP215 T01160116
58002=
METAR CWBS 081300Z AUTO 20007KT 25/21 RMK AO1 T02520208=
CWBT RMK NIL=
METAR CWBZ 081300Z AUTO 24007KT 28/23 RMK AO1 SLP157 T02800234
51002=
CWCF RMK NIL=
CWCG RMK NIL=
CWCI RMK NIL=
CWCJ RMK NIL=
CWCO RMK NIL=
CWCQ RMK NIL=
CWDD RMK NIL=
CWDF RMK NIL=
METAR CWDJ 081300Z AUTO 34003KT 13/10 RMK AO1 SLP212 T01340098
53010=
CWDK RMK NIL=
CWDT RMK NIL=
CWDZ RMK NIL=
####018000535####
SAXX60 KWBC 081300 RRG
METAR
KPAM 081255Z 36006KT 10SM CLR 27/25 A3003 RMK AO2A SLP169
     T02730248=
K79J 081256Z AUTO 00000KT 10SM CLR 28/22 A3003 RMK AO2 SLP165
     T02780222 TSNO $=
K79J 081256Z AUTO 00000KT 10SM CLR 28/22 A3003 RMK AO2 SLP165
     T02780222 TSNO $=
KHRT 081255Z 00000KT 10SM CLR 27/26 A3003 RMK AO2A SLP170
     T02660261 $=
KNJM 081257Z AUTO 01005KT 7SM FEW014 29/24 A2994 RMK AO2 SLP143
     T02890244 $=
KHRT 081255Z 00000KT 10SM CLR 27/26 A3003 RMK AO2A SLP170
     T02660261 $=
####018000152####
SAAF34 KWBC 081300 RRA
METAR
FBKE 081300Z 09014KT CAVOK 24/07 Q1025=
FEFF 081300Z 18002KT 9999 FEW026 FEW040CB BKN300 31/22 Q1013
     NOSIG=
####018000233####
SACN78 KWBC 081308
CTNK RMK NIL=
METAR CTRA 081300Z AUTO 26004KT 18/15 RMK AO1 SLP150 T01790146
53006=
CWKK RMK NIL=
CXBI RMK NIL=
CXZC RMK NIL=
METAR CZEL 081300Z AUTO 24004KT 25/20 RMK AO1 SLP180 T02530202
53001=
####018000088####
SAAW32 KWBC 081230 RRB
METAR
OIHH 081250Z 20006KT 9999 FEW040 39/M05 Q1014 A2995=
####018000088####
SAAW32 KWBC 081300 RRA
METAR
OIII 081300Z 12006KT CAVOK 40/M04 Q1012 A2989 877.5=
####018000173####
SAUS70 KWBC 081300 RRH
METAR
KNSE 081256Z 00000KT 9SM FEW250 28/24 A3004 RMK AO2 SLP156
     T02780239 $=
KBXK 081255Z AUTO 05003KT 10SM CLR 25/M02 A2980 RMK AO1=
####018000777####
SAAW34 KWBC 081245 RRE
METAR
UAAA 081300Z 27004MPS 240V310 9999 SCT050CB BKN100 28/10 Q1013
     88CLRD65 TEMPO TS=
UACC 081300Z 32006MPS CAVOK 23/02 Q1008 220/0070 NOSIG RMK
     QFE725/0967=
UAKK 081300Z 13004MPS 100V160 9999 SCT050CB BKN/// 22/06 Q1008
     230///70 TEMPO TSRA RMK QFE709/0946=
UAOO 081300Z NIL=
UARR 081300Z NIL=
UATE 081300Z 02006MPS CAVOK 39/08 Q1009 300///70 NOSIG RMK
     QFE755/1007=
UATG 081300Z 31006G09MPS CAVOK 40/08 Q1008 32CLRD70 NOSIG RMK
     QFE758/1011=
UATT 081300Z 06005MPS 030V100 9999 NSC 33/02 Q1010 13CLRD70 NOSIG
     RMK QFE738/0984=
UAUU 081300Z 34008MPS CAVOK 26/M03 Q1012 33CLRD70 NOSIG RMK
     QFE743/0991=
UTDD 081300Z 00000MPS 9999 SKC 36/07 Q1008 09CLRD70 NOSIG RMK
     QFE689/0918=
####018000971####
SABO41 KWBC 081300 RRA
METAR
SLCA 081300Z 18004KT 8000 SCT030 SCT070 18/14 Q1020=
SLCO 081300Z 00000KT 9999 SCT080 26/24 Q1014=
SLCP 081300Z 19005KT 9999 BKN006 OVC070 21/20 Q1018=
SLJE 081300Z 21006KT 8000 BKN017 24/20 Q1018=
SLJO 081300Z 00000KT 9999 NSC 27/23 Q1013=
SLMG 081300Z 00000KT 9999 FEW020 SCT080 26/22 Q1015=
SLOR 081300Z 00000KT 9999 SKC 03/M04 Q1036=
SLPO 081300Z 24006KT 9999 SKC 04/M06 Q1037=
SLPS 081300Z 36005KT 9999 FEW070 28/16 Q1013=
SLRB 081300Z 00000KT 9999 BKN017 23/19 Q1018=
SLRI 081300Z 36004KT 7000 SKC 28/24 Q1013=
SLRQ 081300Z 00000KT 9999 SCT008 OVC015 23/23 Q1014=
SLRY 081300Z 00000KT 6000 VCSH FEW008 BKN015 FEW023CB BKN070 23/23
     Q1015=
SLSA 081300Z 00000KT 9999 FEW023 SCT070 BKN200 26/24 Q1012=
SLSI 081300Z 19010KT 9999 FEW017 OVC070 23/21 Q1017=
SLSU 081300Z 04008KT 9999 FEW013 11/08 Q1029=
SLVM 081300Z 15010KT 9999 FEW020 17/14 Q1026=
SLYA 081300Z 18006KT 9999 SCT023 15/11 Q1021=
####018000088####
SABZ31 KWBC 081300 CCA
METAR
SBBE 081300Z 10009KT 9999 FEW015 SCT100 31/22 Q1014=
####018000075####
SABZ41 KWBC 081300 RRA
METAR
SBCR 081300Z 08004KT CAVOK 27/12 Q1015=
####018000088####
SABZ42 KWBC 081300 RRA
METAR
SBMO 081300Z 30002KT 9999 SCT020 SCT100 26/20 Q1017=
####018000081####
SACA32 KWBC 081300 RRA
METAR
TAPA 081300Z 07012KT 9999 FEW022 30/24 Q1015=
####018000088####
SACA31 KWBC 081300 RRA
METAR
MKJS 081300Z 13001KT 9999 FEW024 BKN220 29/23 Q1013=
####018000336####
SACA35 KWBC 081300 RRA
METAR
MGPB 081300Z 00000KT 9999 SCT018 OVC090 24/23 Q1011 A2986=
MGSJ 081300Z 00000KT CAVOK 24/23 Q1012 A2988 BKN090 BKN200=
MPBO 081300Z 00000KT 9999 FEW015 BKN090 26/23 Q1010 RERA RWY
     DAMP=
MPCH 081300Z 00000KT 9999 FEW010 SCT030 OVC090 Q1013=
MPMG 081300Z 00000KT 9999 FEW016 28/23 Q1012=
####018000081####
SACA41 KWBC 081300 RRA
METAR
TDCF 081300Z 09005KT 9999 SCT018 30/24 Q1015=
####018000193####
SACA45 KWBC 081300 RRA
METAR
MGHT 081300Z 00000KT 9999 FEW004 OVC018 16/15 QFE 812/5 MTN N CUB
     C/L=
MGHT 081300Z 00000KT 9999 FEW004 OVC018 16/15 QFE 812.5 MTN N CUB
     C/L=
####018001175####
SACI32 KWBC 081300 RRA
METAR
ZBAA 081300Z 18005MPS CAVOK 30/16 Q1005 NOSIG=
ZBTJ 081300Z 14003MPS CAVOK 26/17 Q1006 NOSIG=
ZBYN 081300Z 09006MPS CAVOK 27/15 Q1009 NOSIG=
ZGGG 081300Z 16003MPS 9999 SCT033 32/25 Q1006 NOSIG=
ZGNN 081300Z 13003MPS CAVOK 30/25 Q1004 NOSIG=
ZGSZ 081300Z 17006MPS 9999 FEW020 30/25 Q1007 NOSIG=
ZHHH 081300Z 04002MPS 9999 SCT010 BKN030 25/25 Q1004 NOSIG=
ZLLL 081300Z 01007MPS 9999 BKN046 19/09 Q1018 BECMG 340002MPS=
ZPPP 081300Z 19004MPS 9999 FEW026 BKN050 22/16 Q1015 NOSIG=
ZSAM 081300Z 19003MPS CAVOK 30/24 Q1007 NOSIG=
ZSHC 081300Z VRB02MPS 5000 BR SCT026 26/24 Q1005 NOSIG=
ZSNJ 081300Z 04001MPS 2200 BR BKN023 27/23 Q1004 NOSIG=
ZSOF 081300Z 06002MPS 030V090 8000 SCT023 27/26 Q1004 NOSIG=
ZSPD 081300Z 11005MPS 9999 BKN009 27/24 Q1006 NOSIG=
ZSSS 081300Z 12004G09MPS 080V150 9999 BKN015 27/23 Q1005 BECMG
     BKN011 OVC040=
ZUCK 081300Z 12002MPS 3000 BR NSC 28/25 Q1003 NOSIG=
ZUUU 081300Z VRB01MPS CAVOK 28/25 Q1003 NOSIG=
ZWWW 081300Z 21004MPS 9999 FEW033CB 31/08 Q1011 NOSIG=
ZYHB 081300Z 36003MPS 5000 BR SCT033 19/17 Q1008 NOSIG=
ZYTL 081300Z 34004MPS 5000 BR SCT033 23/20 Q1008 NOSIG=
####018000117####
SACN31 KWBC 081300 CCA
METAR
CYQY 081300Z CCA 24009KT 15SM FEW180 FEW210 26/18 A3010 RMK AC2CC1
     SLP194=
####018003529####
SACN31 KWBC 081300 RRA
METAR
CYAW 081300Z 23005KT 6SM BR OVC003 20/19 A3018 RMK SF8 FIRST OBS
     SLP221=
CYBG 081300Z 04006KT 6SM BR BKN089 22/19 A2998 RMK AC7 SLP154=
CYDQ 081300Z AUTO 26004KT 9SM CLR 12/09 A3010 RMK SLP204=
CYEG 081300Z 18002KT 15SM FEW120 FEW240 BKN270 13/12 A3009 RMK
     ACC1CI1CI0 CONTRAILS SLP195=
CYFB 081300Z 15005KT 30SM FEW120 FEW250 11/04 A2978 RMK AC1CI1
     SLP086=
CYFC 081300Z AUTO 20012KT 9SM FEW061 23/19 A3007 RMK SLP185
     DENSITY ALT 800FT MAX WND 22019KT AT 1234Z RVR MISG=
CYFT 081300Z 27003KT 15SM FEW020 BKN080 BKN210 19/13 A2986 RMK
     SC1AC5CS2 SLP115=
CYGL 081300Z 17008KT 15SM -RA SCT050 OVC100 19/16 A2990 RMK SC4AS4
     SLP127=
CYHZ 081300Z 21014KT 12SM BKN010 23/20 A3018 RMK SC5 SLP218=
CYJT 081300Z 08007KT 15SM -SHRA FEW015 BKN030 OVC080 19/17 A3008
     RMK SC1SC5AC2 SLP187=
CYKL 081300Z AUTO 29008KT 260V320 9SM CLR 20/13 A2991 RMK PCPN
     0.5MM PAST HR SLP134=
CYMH 081300Z 18007KT 15SM FEW014 BKN039 BKN090 16/11 A3002 RMK
     CU2SC2AC1 SLP166=
CYMX 081300Z 00000KT 10SM SKC 28/21 A3001 RMK HAZY SLP161=
CYOW 081300Z 22002KT 15SM SKC 29/21 A3001 RMK SLP162=
CYPL 081300Z 25005KT 15SM TS SCT040CB SCT100 BKN270 18/14 A2987
     RMK CB3AC1CI1 CB W - NW - N SLP119=
CYQB 081300Z 04005KT 5SM HZ FEW006 BKN013 BKN064 21/18 A3002 RMK
     SF2SC5SC1 SLP165=
CYQG 081300Z 24004KT 12SM SKC 29/22 A3003 RMK SLP164=
CYQM 081300Z 24020KT 15SM FEW020 25/20 A3006 RMK CU1 SLP181=
CYQQ 081300Z 00000KT 20SM SKC 17/11 A3001 RMK SLP162=
CYQX 081300Z 22004KT 20SM FEW053 BKN072 BKN100 19/15 A3013 RMK
     SC2AC4AC2 SLP207=
CYQY 081300Z 24009KT 15SM FEW180 FEW210 26/18 A3008 RMK AC2CC1
     SLP186=
CYRB 081300Z 16005KT 15SM FEW140 08/04 A2976 RMK AS0 SLP083=
CYSJ 081300Z 20011KT 1/2SM R23/3000VP6000FT/U FG VV002 17/15 A3015
     RMK FG8 SLP212=
CYTE 081300Z 09009KT 15SM FEW070 07/04 A2974 RMK AC2 SLP074=
CYTL 081300Z AUTO 25007KT 9SM FEW068 FEW080 FEW093 17/14 A2978 RMK
     SLP090=
CYTR 081300Z 18003KT 7SM FEW100 27/20 A3003 RMK AC1 SLP167=
CYUL 081300Z 20004KT 12SM FEW080 FEW120 28/23 A3000 RMK AC1AC1
     SLP159=
CYUY 081300Z 18007KT 15SM FEW035 SCT060 BKN100 OVC240 24/19 A2993
     RMK SC2SC2AC2CI1 SLP134=
CYVP 081300Z 27009G15KT 15SM BKN021 16/12 A2977 RMK SC7 SLP081=
CYVR 081300Z 30006KT 30SM SKC 18/13 A2999 RMK SLP156=
CYWG 081300Z 31008KT 15SM FEW070 FEW250 16/13 A3003 RMK AC1CI1
     SLP171=
CYWK 081300Z 25008KT 15SM BKN300 24/16 A2996 RMK CI2 SLP143=
CYXU 081300Z 20004KT 10SM FEW030TCU 27/21 A3006 RMK TCU1 CB TOP NW
     TCU TOPS DSTNT S SLP175=
CYXY 081300Z 21005KT 40SM FEW120 SCT210 09/05 A3015 RMK AC1CI1
     SLP222=
CYYC 081300Z 20005KT 40SM FEW120 BKN250 12/09 A3018 RMK AC1CI3 HZ
     SE-SW SLP224=
CYYJ 081300Z 28005KT 30SM SKC 16/10 A2999 RMK SLP156=
CYYQ 081300Z 26009KT 15SM FEW025 FEW080 14/11 A2964 RMK SC1AC1
     SLP039=
CYYR 081300Z 21004KT 15SM OVC021 20/15 A2992 RMK SC7 SLP133=
CYYT 081300Z 18010KT 15SM OVC011 13/11 A3022 RMK SC8 SLP238=
CYYZ 081300Z 14004KT 15SM FEW100 28/23 A3004 RMK AC1 SLP168=
CYZF 081300Z 00000KT 15SM FEW075 FEW100 SCT210 17/10 A2993 RMK
     AC1AC1CI1 SLP140=
CYZV 081300Z 00000KT 4SM BR BKN003 OVC008 13/13 A3005 RMK SF5ST3
     SLP178=
CYZX 081300Z 25008KT 15SM BKN016 24/19 A3015 RMK SC6 WNDY HILL
     23008KT SLP209=
CYZY 081300Z AUTO 05002KT 9SM CLR 11/08 A3011 RMK SLP197=
CZBF 081300Z 00000KT 5SM BR BKN005 BKN007 23/22 A3001 RMK SF6ST2
     SLP164=
####018000075####
SAEE31 KWBC 081300 RRA
METAR
EPSC 081300Z 00000KT CAVOK 25/11 Q1021=
####018000223####
SAEE32 KWBC 081300 RRA
METAR
LRAR 081300Z 02008KT 320V060 9999 BKN045 24/14 Q1020=
LRTC 081300Z 36010KT 9999 FEW030CB BKN040 24/17 Q1014=
LRTM 081300Z 32004KT 270V010 9999 FEW018 SCT033 BKN036 19/14
     Q1020=
####018000373####
SAEW31 KWBC 081300 RRA
METAR
LPAZ 081300Z 25006KT 9999 BKN016 BKN030 21/20 Q1025=
LPFR 081300Z 24010KT 9999 FEW012 24/20 Q1016=
LPPD 081300Z 24006KT 9999 FEW020 BKN030 20/16 Q1024=
LPPR 081300Z 21006KT 180V260 7000 SCT006 BKN007 21/18 Q1016=
LPPS 081300Z 01011KT 350V050 9999 FEW016 SCT030 23/15 Q1021=
LPPT 081300Z 27009KT 230V310 CAVOK 29/19 Q1016 NOSIG=
####018000185####
SAEM31 KWBC 081300 RRA
METAR
LJLJ 081300Z 13004KT 060V200 9999 FEW043 25/10 Q1022 NOSIG=
LJMB 081300Z 22004KT 9999 FEW040 26/08 Q1022=
LJPZ 081300Z 30009KT CAVOK 26/10 Q1021=
####018000412####
SAFR32 KWBC 081300 RRA
METAR
LFRQ 081300Z 26006KT 210V290 9999 FEW040 26/13 Q1019 NOSIG=
LFRT 081300Z 05006KT 010V120 CAVOK 22/15 Q1019=
LFSF 081300Z AUTO 13003KT 040V190 9999NDV NSC 32/09 Q1019=
LFSR 081300Z AUTO VRB02KT 9999NDV NSC 32/10 Q1018=
LFTW 081300Z AUTO 18007KT 130V230 9999NDV ///////// 32/15
     Q1020=
LFVP 081300Z 10005KT 0600 R26/0800V1400D FG OVC002 12/12 Q1022
     NOSIG=
####018000479####
SAFR41 KWBC 081300 RRA
METAR
LFLD 081300Z VRB04KT CAVOK 33/08 Q1018=
LFLV 081300Z VRB02KT CAVOK 33/12 Q1019=
LFOE 081300Z VRB04KT CAVOK 32/09 Q1018=
LFPV 081300Z AUTO 23004KT 140V300 9999NDV NSC 30/09 Q1019=
LFRH 081300Z 26011KT CAVOK 23/15 Q1019=
LFRM 081300Z 14004KT 070V210 CAVOK 33/09 Q1018=
LFSI 081300Z AUTO 12005KT 060V170 9999NDV NSC 32/09 Q1019=
LFSO 081300Z AUTO VRB04KT 9999NDV NSC 31/11 Q1020=
LFSX 081300Z AUTO VRB03KT 9999NDV NSC 31/11 Q1020=
####018000384####
SAIO31 KWBC 081300 RRA
METAR
FIMP 081300Z 14015KT 9999 SCT016 23/16 Q1021=
FMCH 081300Z 21010KT 170V240 9999 FEW025 SCT030 28/19 Q1018
     NOSIG=
FMCZ 081300Z 13009KT 9999 SCT023 26/18 Q1016=
FMEE 081300Z 12019KT 9999 FEW023 SCT060 22/15 Q1021 TEMPO
     13028G38KT=
FMMT 081300Z 20014KT 9999 VCSH SCT017 BKN033 23/21 Q1021=
VYMD 081300Z NIL=
VYYY 081300Z NIL=
####018000917####
SAIY31 KWBC 081250 RRB
METAR
LIBC 081250Z 04019KT CAVOK 27/09 Q1017 RMK VIS MIN 9999=
LIBD 081250Z 36014KT CAVOK 25/12 Q1020 RMK VIS MIN 9999=
LIBP 081250Z 05005KT CAVOK 26/07 Q1021 RMK VIS MIN 9999=
LICA 081250Z 27014KT 9999 FEW030 29/22 Q1017 RMK VIS MIN 9999=
LICC 081250Z 11013KT CAVOK 28/20 Q1018 RMK VIS MIN 9999=
LICG 081255Z 34007KT 9999 FEW016 24/22 Q1019 RMK BKN SCT200 VIS
     MIN 9999 WIND THR08 33006KT WIND THR21 36007KT BLU=
LICJ 081250Z 04015KT 9999 FEW018 28/23 Q1018 RMK VIS MIN 9999=
LICR 081250Z 22007KT 200V260 9999 FEW020 BKN040 27/20 Q1018 RMK
     VIS MIN 9999=
LICT 081255Z 33013G24KT 9999 FEW022 30/25 Q1018 RMK FEW VIS MIN
     9999 WIND THR13 33010KT BLU=
LIEA 081250Z 21007KT 170V330 9999 FEW025 33/19 Q1019 RMK VIS MIN
     9999=
LIEO 081250Z 05012KT CAVOK 30/20 Q1019 RMK VIS MIN 9999=
LIMG 081250Z 06007KT 9999 FEW060 30/25 Q1020 RMK VIS MIN 9999=
####018000143####
SAIY31 KWBC 081150 RRE
METAR
LIBR 081245Z /////KT CAVOK 25/13 Q1018 NOSIG RMK SKC VIS MIN 9999
     WIND THR13 WIND THR31 33019KT BLU=
####018000086####
SPUS41 KWBC 081308
SPECI
KBDL 081305Z 18005KT 4SM HZ SCT010 OVC016 26/22 A3007=
####018000305####
SAIY32 KWBC 081150 RRD
METAR
LIPH 081245Z 13004KT 9999 SCT025 27/20 Q1022 RMK SCT VIS MIN 9999
     WIND THR07 /////KT BLU=
LIPR 081245Z 08011KT CAVOK 28/19 Q1021 RMK SKC VIS MIN 9999 WIND
     THR31 08012KT BLU=
LIPX 081245Z 20005KT 9999 FEW040 30/14 Q1021 RMK FEW VIS MIN 9999
     BLU=
####018000341####
SAIY32 KWBC 081250 RRB
METAR
LIPB 081250Z 18013KT CAVOK 30/12 Q1019 RMK MON LIB VIS MIN
     9999=
LIPO 081250Z 24005KT 100V260 9999 FEW050 29/12 Q1020 RMK VIS MIN
     9999=
LIPY 081250Z 06008KT 020V100 CAVOK 27/13 Q1021 RMK VIS MIN
     9999=
LIRZ 081250Z 02010KT 330V060 9999 FEW040 31/11 Q1020 RMK VIS MIN
     9999=
####018000690####
SAIY41 KWBC 081250 RRB
METAR
LIBA 081255Z /////KT CAVOK 29/09 Q1020 RMK FEW FEW200 VIS MIN 9999
     WIND THR29 31012KT BLU=
LIBG 081250Z 01016KT 360V040 CAVOK 28/10 Q1018 RMK VIS MIN
     9999=
LIBN 081255Z 33023G36KT CAVOK 26/10 Q1017 RMK FEW FEW200 VIS MIN
     9999 WIND THR14 34020G35KT BLU=
LIBQ 081255Z 26005KT 9999 FEW008TCU SCT009 17/11 Q1024 RMK SCT MON
     LIB VAL NIL VIS MIN 9999=
LIBV 081255Z 01017G27KT CAVOK 25/10 Q1017 RMK SKC VIS MIN 9999
     WIND THR14 36018KT BLU=
LICD 081250Z 35007KT CAVOK 26/21 Q1019 RMK VIS MIN 9999=
LICZ 081255Z 10017KT 9999 FEW020 30/20 Q1017 RMK FEW VIS MIN 9999
     WIND THR28 //////KT BLU=
LIED 081300Z NIL=
####018001209####
SAIY42 KWBC 081250 RRA
METAR
LIMH 081255Z 08002KT 9999 SCT000TCU 07/M01 Q1040 RMK SCT MON CLD
     SCT VAL S CLD SCT VIS MIN 9999=
LIMK 081255Z 00000KT CAVOK 21/12 Q1023 RMK SKC VAL NIL VIS MIN
     9999=
LIMN 081255Z /////KT 9999 FEW030 28/17 Q1021 RMK FEW VIS MIN 9999
     BLU=
LIMS 081255Z 13003KT CAVOK 30/15 Q1020 RMK SKC VIS MIN 9999 WIND
     THR30 13005KT BLU=
LIMT 081255Z /////KT 9999 16/12 Q1024 RMK OVC MON LIB VAL NIL VIS
     MIN 9999=
LIMU 081255Z 11006KT 9999 FEW026 30/22 Q1020 RMK BKN BKN070 QUK 2
     QUL 1 S VIS MAR 15 KM VIS MIN 9999=
LIMV 081255Z 34009KT 7000 SCT012 25/19 Q1022 RMK SCT MON LIB CUF
     VAL FOSCHIA VIS MIN 7000=
LIMY 081255Z /////KT 9000 SCT026 23/16 Q1023 RMK BKN VAL FOSCHIA
     VIS MIN 9000=
LIPA 081255Z 22008KT 9999 FEW050 26/18 Q1021 RMK FEW VIS MIN 9999
     A3017 BLU=
LIPC 081300Z NIL=
LIPF 081255Z 19004KT 9999 FEW035 29/20 Q1021 RMK FEW VIS MIN
     9999=
LIPI 081255Z 19008KT CAVOK 27/19 Q1022 RMK SKC VIS MIN 9999 WIND
     THR06 19007KT BLU=
LIPL 081255Z 06002KT 9999 FEW036 29/17 Q1021 RMK FEW VIS MIN 9999
     BLU=
LIPS 081255Z 00000KT 9999 SCT030 28/17 Q1021 RMK SCT VIS MIN 9999
     BLU=
####018002023####
SAIY43 KWBC 081250 RRA
METAR
LIQN 081250Z 32008KT 9999 FEW045 29/17 Q1021 RMK VIS MIN 9999=
LIQO 081255Z 20005KT 9999 SCT003 29/22 Q1022 RMK SCT VAL NIL NC
     VIS MIN 9999=
LIQW 081300Z NIL=
LIQW 081255Z 21003KT 9999 SCT025 30/20 Q1020 RMK SCT VIS MIN 9999
     BLU=
LIRE 081255Z 24010KT 9999 FEW020 28/20 Q1019 RMK FEW VIS MIN 9999
     WIND THR31 24009KT BLU=
LIRG 081255Z 25010KT 9999 SCT033TCU 31/20 Q1019 RMK SCT MON NE LIB
     NC VIS MIN 9999 BLU=
LIRH 081255Z 28005KT 9999 FEW030 SCT035 FEW040CB 30/20 Q1019 RMK
     BKN MON LIB NC VIS MIN 9999 WIND THR16 28006KT BLU=
LIRK 081255Z 12006KT CAVOK 16/15 Q1027 RMK BKN BKN060 MON NE LIB
     NC VAL NIL NC VIS MIN 9999=
LIRL 081255Z 25008KT 9999 FEW020 30/17 Q1019 RMK FEW MON LIB NC
     VIS MIN 9999 BLU=
LIRS 081255Z 23012KT 9999 FEW040 30/21 Q1019 RMK FEW VIS MIN 9999
     WIND THR21 /////KT BLU=
LIRT 081255Z 36009KT CAVOK 18/05 Q1023 RMK SKC MON LIB VAL NIL VIS
     MIN 9999=
LIRU 081250Z 23007KT 9999 SCT040 30/17 Q1020 RMK VIS MIN 9999=
LIRV 081255Z 27013KT 9999 SCT028 29/22 Q1020 RMK SCT MON E SE LIB
     NC VIS MIN 9999 BLU=
LIRX 081300Z NIL=
LIRZ 081250Z 02010KT 330V060 9999 FEW040 31/11 Q1020 RMK VIS MIN
     9999=
LIVC 081255Z 00000KT 9999 SCT001 16/11 Q1031 RMK SCT MON LIB VAL
     NIL VIS MIN 9999=
LIVD 081255Z 00000KT CAVOK 24/08 Q1023 RMK SKC VIS MIN 9999=
LIVE 081300Z NIL=
LIVE 081255Z 18006KT CAVOK 21/12 Q1025 RMK SKC VIS MIN 9999=
LIVF 081255Z 05004KT CAVOK 27/07 Q1022 RMK SKC MON LIB VAL NIL VIS
     MIN 9999=
LIVM 081255Z 13009KT CAVOK 28/21 Q1021 RMK SKC QUK 2 QUL 1 SE VIS
     MAR 30 KM VIS MIN 9999=
LIVO 081255Z 01003KT 9999 FEW040 26/12 Q1021 RMK FEW VIS MIN
     9999=
LIVP 081255Z VRB03KT 9999 FEW003 15/11 Q1029 RMK FEW MON LIB VAL
     NIL VIS MIN 9999=
LIVR 081255Z /////KT 9999 FEW030 17/14 Q1028 RMK FEW MON LCLD CIME
     VIS MIN 9999=
LIVT 081255Z 26002KT CAVOK 25/15 Q1021 RMK SKC QUK 1 QUL 0 VIS MAR
     20 KM VIS MIN 9999=
####018000113####
SAIY43 KWBC 081150 RRF
METAR
LIPX 081245Z 20005KT 9999 FEW040 30/14 Q1021 RMK FEW VIS MIN 9999
     BLU=
####018000076####
SPUS41 KWBC 081308
SPECI
KLUK 081305Z 00000KT 4SM HZ CLR 26/23 A3008=
####018000352####
SAJP31 KWBC 081300 RRA
METAR
RJAA 081300Z 15004KT 9999 FEW020 SCT150 BKN/// 22/21 Q1011 NOSIG
     RMK 1CU020 3AC150 A2986=
RJCC 081300Z 19004KT 160V240 1100 R19R/1600VP1800N R01R/0900V1400D
     -DZ BR BKN002 17/17 Q1010 RMK 7ST002 A2985=
RJTT 081300Z 18014KT 9999 FEW007 SCT010 BKN150 25/23 Q1011 RMK
     1ST007 3CU010 6AC150 A2985=
####018000582####
SAPO31 KWBC 081300 RRA
METAR
LPAZ 081300Z 25006KT 9999 BKN016 BKN030 21/20 Q1025=
LPFL 081300Z 20007KT 150V240 9999 FEW023TCU BKN040 24/17 Q1022=
LPFR 081300Z 24010KT 9999 FEW012 24/20 Q1016=
LPHR 081300Z 22007KT 9999 SCT013 BKN035 23/18 Q1023=
LPMA 081300Z VRB07G18KT 9999 FEW016 24/17 Q1020 RS17006KT
     0519006KT 2302015KT=
LPPD 081300Z 24006KT 9999 FEW020 BKN030 20/16 Q1024=
LPPR 081300Z 21006KT 180V260 7000 SCT006 BKN007 21/18 Q1016=
LPPS 081300Z 01011KT 350V050 9999 FEW016 SCT030 23/15 Q1021=
LPPT 081300Z 27009KT 230V310 CAVOK 29/19 Q1016 NOSIG=
####018001019####
SARA31 KWBC 081300 RRA
METAR
UAAA 081300Z 27004MPS 240V310 9999 SCT050CB BKN100 28/10 Q1013
     88CLRD65 TEMPO TS=
UACC 081300Z 32006MPS CAVOK 23/02 Q1008 220/0070 NOSIG RMK
     QFE725/0967=
UAFM 081300Z 24006MPS CAVOK 32/08 Q1012 TEMPO 24007G12MPS FCST
     WS=
UAFO 081300Z 31003MPS 9999 FEW050CB SCT100 33/12 Q1017 NOSIG RMK
     QFEM684=
UAFO 081300Z NIL=
UAOO 081300Z NIL=
UARR 081300Z NIL=
UATE 081300Z 02006MPS CAVOK 39/08 Q1009 300///70 NOSIG RMK
     QFE755/1007=
UATG 081300Z 31006G09MPS CAVOK 40/08 Q1008 32CLRD70 NOSIG RMK
     QFE758/1011=
UATT 081300Z 06005MPS 030V100 9999 NSC 33/02 Q1010 13CLRD70 NOSIG
     RMK QFE738/0984=
UTAA 081300Z 12004MPS 080V150 9999 SKC 43/04 Q1007 NOSIG=
UTAK 081300Z 29005MPS CAVOK 37/16 Q1008 NOSIG=
UTAT 081300Z NIL=
UTAV 081300Z 04003MPS CAVOK 38/10 Q1005=
UTDD 081300Z 00000MPS 9999 SKC 36/07 Q1008 09CLRD70 NOSIG RMK
     QFE689/0918=
UTDL 081300Z 27004MPS 9999 FEW053 38/08 Q1008 NOSIG RMK QFE719
     8809//70=
####018000082####
SARS31 KWBC 081300 RRA
METAR
UTAM 081300Z 01006MPS CAVOK 42/06 Q1005 NOSIG=
####018000172####
SASA31 KWBC 081300 RRA
METAR
SEGU 081300Z 20005KT 9999 BKN040 OVC100 23/19 Q1012 NOSIG=
SEQU 081300Z 08001KT 9999 FEW100 SCT300 12/08 Q1027 RMK A3035
     NOSIG=
####018000078####
SASA32 KWBC 081300 RRA
METAR
SLTJ 081300Z 00000KT 9999 SKC 11/06 Q1022=
####018000081####
SASA42 KWBC 081300 RRA
METAR
SELT 081300Z 00000KT 9999 FEW300 09/06 Q1032=
####018000088####
SASA41 KWBC 081300 RRA
METAR
SEMT 081300Z 20006KT 9999 BKN020 BKN100 23/20 Q1013=
####018000095####
SAUK41 KWBC 081250 RRC
METAR
EGDY 081250Z 20009KT 9999 FWE035 SCT100 BKN220 22/14 Q1018=
####018000134####
SAVN42 KWBC 081300 RRA
METAR
SVPR 081300Z 00000KT 9999 BKN050 XX/XX Q1013=
SVSR 081300Z 16003KT 9999 BKN016 24/24 Q1012 REDZ=
####018000189####
SAXX61 KWBC 081300 RRA
METAR
LERT 081300Z 29007KT 230V340 CAVOK 26/20 Q1016 NOSIG=
LICZ 081255Z 10017KT 9999 FEW020 30/20 Q1017 RMK FEW VIS MIN 9999
     WIND THR28 //////KT BLU=
####018003742####
SAXX99 KWBC 081300 RRF
METAR
CWAE 081300Z 00000KT 15SM SKC 11/08 A3013 RMK SLP192=
CWCA 081300Z 22010G15KT 15SM FEW020 BKN200 15/11 A2994 RMK CU1CI3
     TR CU SLP139=
CWCL 081300Z AUTO 00000KT 9SM CLR 09/06 A3017 RMK SLP206=
CWEU 081300Z 18009KT 40SM FEW050 BKN150 OVC200 13/03 A2965 RMK
     CF0AC0CI0 SLP043=
CWFD 081300Z AUTO 01004KT 9SM 11/ RMK ALTM MISG=
CWGZ 081300Z 00000KT 45SM FEW100 FEW220 05/02 A2976 RMK AC1CI1
     SLP082=
CWHN 081300Z AUTO 30007KT 280V340 9SM BKN086 16/11 A3002 RMK
     SLP171=
CWIL 081300Z AUTO 34009KT 07/ A2981 RMK SLP103=
CWKM 081300Z AUTO 17003KT 06/ A3004 RMK SLP178=
CWKW 081300Z AUTO 10003KT 11/ A2971 RMK SLP078=
CWLI 081300Z AUTO ///// 03/ A2997 RMK SLP160=
CWLX 081300Z AUTO 19002KT 15/ A2978 RMK SLP094=
CWLY 081300Z AUTO 00000KT 9SM CLR 14/10 A3009 RMK SLP188=
CWOB 081300Z AUTO ///// 9SM CLR 13/ A2979 RMK SLP114=
CWRH 081300Z AUTO ///// 10/ A2976 RMK SLP099=
CWRX 081300Z AUTO 33003KT 09/ A2978=
CWSW 081300Z 00000KT 20SM FEW260 06/05 A3028 RMK CI1 SLP250=
CWTU 081300Z AUTO 16009KT 11/ A2992 RMK SLP147=
CWUP 081300Z AUTO 08006KT 12/ A2981 RMK SLP109=
CWUW 081300Z AUTO ///// 9SM CLR 14/ A2981 RMK SLP116=
CWVD 081300Z AUTO ///// 12/ A2982 RMK SLP122=
CWVH 081300Z AUTO 29017KT 04/ A3003 RMK SLP185=
CWWU 081300Z 19007KT 15SM OVC014 16/12 A3022 RMK SC8 SLP233=
CWXR 081300Z AUTO 32004KT 05/ A2987 RMK SLP122=
CWYK 081300Z AUTO ///// 12/ A2980 RMK SLP110=
CWYM 081300Z AUTO 14009KT 13/ RMK ALTM MISG SLP121=
CWZZ 081300Z AUTO ///// 9SM SCT061 BKN089 14/ A2974 RMK SLP085=
CYAH 081300Z 13004KT 15SM SCT120 BKN250 22/14 A2994 RMK AC3CI2
     SLP144=
CYAM 081300Z 28007KT 5SM -RA BR BKN003 OVC008 19/18 A2998 RMK
     SF6SC2 SLP152=
CYAS 081300Z 00000KT 1/2SM FG VV004 08/08 A2969 RMK FG8 SLP059=
CYAY 081300Z AUTO 17007KT 9SM OVC017 13/10 A3006 RMK SLP181=
CYAZ 081300Z 00000KT 15SM SKC 14/13 A2996 RMK SLP145=
CYBB 081300Z 00000KT 15SM BKN090 11/07 A2981 RMK AC6 SLP096=
CYBC 081300Z AUTO 11003KT 8SM OVC002 14/13 A3003 RMK SLP171=
CYBD 081300Z 00000KT 15SM SKC 13/12 A3006 RMK MIFG ON RWY
     SLP181=
CYBK 081300Z 35008KT 20SM BKN045 OVC090 11/10 A2971 RMK SC5AS2
     SLP062=
CYBL 081300Z 29005KT 30SM SKC 17/11 A3001 RMK SLP161=
CYBN 081300Z AUTO 22003KT 9SM CLR 28/20 A3003 RMK SLP164=
CYBR 081300Z 26004KT 15SM SCT053 BKN240 13/12 A3010 RMK SC3CI1
     SLP200=
CYBV 081300Z 30012G20KT 15SM FEW015 FEW100 17/13 A2994 RMK SC2AC1
     SLP142=
CYBW 081300Z 31005KT 30SM FEW160 BKN280 07/06 A3020 RMK AC1CI0
     SLP234=
CYBX 081300Z 23003KT 15SM OVC025 13/10 A3006 RMK SC8 SLP181=
CYCB 081300Z 33008KT 15SM FEW060 SCT140 11/08 A2984 RMK SC1AC1
     SLP107=
CYCD 081300Z 29003KT 30SM SKC 18/10 A3001 RMK SLP161=
CYCG 081300Z 00000KT 15SM SKC 11/08 A3015 RMK SLP204=
CYCO 081300Z 12004KT 13SM VCFG OVC014 05/05 A2988 RMK SC8
     SLP121=
CYCP 081300Z 00000KT 15SM FEW300 06/05 A3020 RMK CI1 SLP227=
CYCQ 081300Z 00000KT 35SM FEW120 FEW230 10/08 A3011 RMK AC1CI1 TR
     AC/CONTRAILS SLP201=
CYCX 081300Z 20007KT 12SM BKN066 23/19 A3008 RMK AC6 DA+1269FT
     SLP186=
CYCY 081300Z AUTO 09004KT 9SM FEW066 11/07 A2981 RMK SLP098=
CYDA 081300Z 07002KT 20SM FEW240 06/04 A3009 RMK CI1 CI TR CLIMAT
     22.5/5.0/0.0 SLP200=
CYDB 081300Z 00000KT 30SM FEW080 SCT120 BKN240 03/M00 A3010 RMK
     AC1AC2CI2 ACSL E CLIMAT 23.0/2.5/0.0 SLP213=
CYDC 081300Z 00000KT 15SM SKC 10/06 A3017 RMK SLP203=
CYDF 081300Z 00000KT 15SM OVC053 13/10 A3011 RMK SC8 SLP196=
CYDN 081300Z AUTO 27009KT 9SM CLR 14/10 A3005 RMK SLP182=
CYDP 081300Z 34004KT 15SM FEW100 SCT210 14/09 A2983 RMK AC2CI2
     SLP100=
CYED 081300Z AUTO 01002KT 9SM CLR 14/13 A3008 RMK SLP189=
####018003749####
SAXX99 KWBC 081300 RRG
METAR
CYEK 081300Z 17003KT 15SM OVC003 07/07 A2960 RMK ST8 SLP024=
CYEL 081300Z 23008KT 1 1/2SM BR VV002 21/21 A2999 RMK FG8 WNDS
     ESTD SLP154=
CYEN 081300Z 28004KT 15SM FEW040 FEW140 BKN250 14/12 A3014 RMK
     SC1AC1CI2 SLP210=
CYET 081300Z AUTO 28005KT 9SM CLR 10/07 A3011 RMK SLP196=
CYEV 081300Z 30007KT 15SM BKN019 BKN060 07/04 A3007 RMK SC6SC1
     SLP186=
CYFO 081300Z 30007KT 15SM FEW070 16/10 A2993 RMK AC1 SLP141=
CYFS 081300Z 00000KT 15SM FEW055 15/13 A2997 RMK SC1 SLP154=
CYGE 081300Z 00000KT 30SM FEW240 09/06 A3022 RMK CI1 SLP229=
CYGH 081300Z 31006KT 15SM FEW017 OVC070 11/09 A3004 RMK CF2CU6
     22.3/10.0/TR/TR SLP177=
CYGK 081300Z 24003KT 5SM HZ FEW080 27/23 A3004 RMK AC1 SLP172=
CYGP 081300Z 21002KT 15SM SCT140 24/19 A2999 RMK AC2 HZ SLP157=
CYGQ 081300Z 23006KT 15SM FEW009 FEW020 19/17 A2995 RMK SF2SC1
     SLP142=
CYGR 081300Z 22017KT 15SM BKN040 BKN080 21/17 A3004 RMK SC5AC2
     SLP171=
CYGT 081300Z 00000KT 15SM FEW010 FEW040 FEW080 13/05 A2981 RMK
     CF1SC1AC1 SLP099=
CYGV 081300Z AUTO 07007KT 9SM OVC006 OVC070 15/13 A3002 RMK
     SLP165=
CYGW 081300Z 14004KT 15SM FEW025 SCT080 BKN120 OVC220 20/15 A2985
     RMK SC1AC2AS2CI0 CU EMBD SLP110=
CYGX 081300Z 24006KT 15SM FEW025 15/11 A2974 RMK SC2 SLP077=
CYHA 081300Z 10008KT 3SM -RA FEW010 OVC025 07/06 A2969 RMK ST1SC7
     SLP054=
CYHD 081300Z AUTO 29009KT 9SM CLR 18/14 A2996 RMK SLP147=
CYHE 081300Z AUTO 09009KT 9SM CLR 18/12 A3005 RMK SLP174=
CYHH 081300Z 16003KT 15SM FEW065 BKN100 OVC160 24/15 A2991 RMK
     SC2AC3AC2 SLP132=
CYHK 081300Z 03009KT 15SM OVC089 11/08 A2980 RMK AC6
     /12.5/8.0/0/NIL SLP093=
CYHM 081300Z 24006KT 15SM FEW120 27/21 A3006 RMK AC1 SLP176=
CYHU 081300Z AUTO VRB04KT 7SM CLR 28/22 A2999 RMK SLP158 DENSITY
     ALT 1500FT RVR MISG=
CYHY 081300Z 22003KT 15SM FEW020 SCT070 BKN210 15/14 A2995 RMK
     SC1AC3CI1 SLP147=
CYIK 081300Z 04005KT 15SM FEW030 BKN070 BKN220 10/06 A2962 RMK
     SC2AC4CS1 SLP033=
CYIO 081300Z AUTO 23004KT 9SM SCT068 OVC090 07/04 A2979 RMK
     SLP092=
CYIV 081300Z 31006KT 15SM FEW005 SCT020 BKN080 BKN250 15/13 A2983
     RMK SF1SC3AC0CI0 SLP107=
CYKA 081300Z 11002KT 40SM SKC 15/09 A3013 RMK SLP198=
CYKF 081300Z AUTO VRB02KT 9SM CLR 26/19 A3007 RMK SLP176 DENSITY
     ALT 2300FT=
CYKG 081300Z 00000KT 12SM RA OVC020 08/04 A2968 RMK SC8 SLP058=
CYKJ 081300Z AUTO 28009KT 9SM CLR 14/08 A2989 RMK SLP137=
CYKY 081300Z 00000KT 15SM FEW100 BKN250 12/12 A3014 RMK AC1CI2
     SLP211=
CYKZ 081300Z 10002KT 8SM FEW260 29/22 A3003 RMK CI1 SLP166=
CYLD 081300Z 34004KT 15SM -RA SCT017 OVC035 16/16 A2998 RERA RMK
     SC2SC6 SLP152=
CYLJ 081300Z 23007KT 15SM FEW090 BKN120 BKN250 14/12 A3001 RMK
     ACC2AC4CI1 SH S + NNW SLP171=
CYLL 081300Z 24009KT 15SM FEW075 SCT150 BKN250 14/12 A3007 RMK
     ACC1AC2CI2 SLP190=
CYLT 081300Z 17021G26KT 25SM SCT240 16/05 A2965 RMK CI0 SLP041=
CYLU 081300Z 25010KT 2SM -SHRA BR BCFG OVC006 14/14 A2974 RMK ST8
     SLP074=
CYLW 081300Z AUTO VRB02KT 9SM CLR 12/08 A3011 RMK SLP199=
CYMM 081300Z AUTO 23005KT 9SM FEW077 14/10 A2998 RMK SLP159=
CYMO 081300Z AUTO 31008KT 9SM -RA FEW047 OVC069 19/18 A2989 RMK
     PCPN 0.5MM PAST HR SLP124=
CYMT 081300Z 14006KT 15SM FEW030TCU SCT070 26/19 A2998 RMK TCU1AC2
     SLP149=
CYMU 081300Z 00000KT 15SM FEW004 OVC035 13/12 A2987 RMK SF2SC6
     SLP120=
CYNA 081300Z AUTO 09011KT 9SM OVC005 OVC051 OVC056 14/12 A3004 RMK
     SLP172=
CYNC 081300Z 15003KT 10SM -DZ SCT015 OVC030 18/17 A2988 RMK ST3SC5
     SLP118=
CYND 081300Z 00000KT 15SM SKC 28/21 A3000 RMK SLP159=
CYNE 081300Z AUTO 29006KT 250V320 9SM BKN090 15/11 A2989 RMK
     SLP128=
####018003743####
SAXX99 KWBC 081300 RRH
METAR
CYNM 081300Z AUTO 17005KT 9SM FEW083 24/17 A2990 RMK SLP124=
CYOA 081300Z 31007KT 15SM FEW070 10/08 A2989 RMK AC1 SLP141=
CYOC 081300Z 00000KT 20SM FEW002 SCT013 OVC030 08/07 A3007 RMK
     SF2ST2SC4 CLIMAT 12.5/7.5/2.4MM SLP193=
CYOD 081300Z 28004KT 15SM BKN070 BKN160 BKN250 15/13 A3004 RMK
     AC6AC1CI0 ACC ASOCTD SH DIST W SLP180=
CYOJ 081300Z 00000KT 15SM FEW050 FEW120 14/13 A2997 RMK SC2AC1
     SLP156=
CYOY 081300Z AUTO 00000KT 9SM OVC006 OVC033 21/17 A3001 RMK
     SLP162=
CYPA 081300Z 24004KT 15SM FEW050 FEW100 BKN250 14/11 A3005 RMK
     SC1AC1CI0 SLP185=
CYPC 081300Z 32022KT 15SM OVC012 06/04 A2992 RMK SC8 9.7/5.5/0.6MM
     SLP134=
CYPE 081300Z 23004KT 15SM BKN060 16/12 A3004 RMK SC7 SLP176=
CYPG 081300Z 32007KT 15SM FEW050 FEW090 FEW250 16/10 A3007 RMK
     SC1AC1CI1 TR SC AC SLP184=
CYPH 081300Z 24012KT 3/8SM -DZ FG VV001 08/08 A2981 RMK FG8
     SLP098=
CYPQ 081300Z AUTO ///// 9SM CLR 27/23 A3003 RMK SLP167=
CYPR 081300Z AUTO 13003KT 9SM CLR 13/12 RMK PRES MISG=
CYPW 081300Z 00000KT 50SM SKC 12/11 A3002 RMK SLP165=
CYPX 081300Z 24021KT 1 3/4SM -DZ BR OVC003 07/07 A2970 RMK ST8 VIA
     CYQB FIC SLP059=
CYPY 081300Z AUTO 24002KT 9SM CLR 13/13 A2993 RMK SLP141=
CYQA 081300Z AUTO 18006KT 9SM CLR 27/23 A3002 RMK SLP165 DENSITY
     ALT 2300FT=
CYQD 081300Z 27011G16KT 15SM FEW045 FEW070 14/11 A2996 RMK SC1AC1
     TRAC SLP150=
CYQF 081300Z 00000KT 15SM FEW080 FEW120 BKN250 11/08 A3014 RMK
     ACC1AC1CI1 ACC/AC TR SLP211=
CYQH 081300Z 00000KT 40SM SKC 11/08 A3012 RMK SLP208=
CYQI 081300Z 15003KT 3/8SM FG VV002 19/19 A3019 RMK FG8 VIS NW 3/4
     RVR RWY 24 1800 FT SLP224=
CYQK 081300Z 30008KT 15SM FEW020 BKN074 17/14 A3000 RMK CF1AC4
     SLP159=
CYQL 081300Z 25006KT 40SM FEW100 FEW240 12/10 A3018 RMK AC1CI1
     SLP218=
CYQR 081300Z 35003KT 15SM FEW074 FEW250 14/11 A3014 RMK AC2CI0
     SLP214=
CYQT 081300Z 28006KT 20SM SKC 21/17 A2998 RMK SLP154=
CYQU 081300Z 36003KT 25SM FEW100 SCT210 14/11 A3010 RMK AC1CI1
     SLP195=
CYQV 081300Z AUTO 28005KT 9SM CLR 13/11 A3009 RMK SLP199=
CYQW 081300Z AUTO 22005KT 9SM BKN096 13/12 A3011 RMK SLP206=
CYQZ 081300Z AUTO 00000KT 9SM CLR 10/09 A3012 RMK SLP209=
CYRJ 081300Z 30003KT 12SM FEW025 SCT045 SCT220 26/20 A2998 RMK
     CU1SC3CI1 SLP151=
CYRL 081300Z 26008KT 15SM -RA BKN010 16/14 A2995 RMK SC7
     SLP143=
CYRT 081300Z 06011G16KT 1 1/2SM -DZ BR OVC003 07/06 A2961 RMK
     FG2ST6 SLP029=
CYRV 081300Z AUTO 00000KT 6SM CLR 11/10 A3016 RMK SLP214=
CYSB 081300Z 19008KT 10SM OVC004 22/20 A2999 RMK SF8 SLP151=
CYSC 081300Z AUTO 21005KT 180V270 9SM CLR 27/22 A3004 RMK DENSITY
     ALT 2200FT=
CYSF 081300Z AUTO 31010KT 9SM CLR 16/08 A2984 RMK SLP113 DENSITY
     ALT 1200FT=
CYSK 081300Z 11003KT 15SM BKN020 12/10 A2986 RMK SC6 SLP112=
CYSL 081300Z 18006KT 5SM HZ SKC 26/22 A3003 RMK SLP167=
CYSM 081300Z 00000KT 15SM FEW080 BKN120 BKN220 15/11 A2992 RMK
     AC1AC4CI1 SLP137=
CYSN 081300Z 22005KT 10SM SKC 29/22 A3003 RMK SLP166=
CYSR 081300Z 25006KT 40SM FEW020 SCT040 SCT220 11/04 A2979 RMK
     SF1SC2CI1 SLP119=
CYTH 081300Z 26007KT 15SM FEW072 SCT090 BKN250 13/10 A2981 RMK
     ACC1AC2CI1 FEW VIRGA S SLP101=
CYTQ 081300Z 27021KT 12SM FEW014 SCT022 14/12 A2973 RMK ST1SC3
     SLP071=
CYTZ 081300Z AUTO 24003KT 6SM HZ CLR 23/20 A3002 RMK SLP165
     DENSITY ALT 1100FT RVR MISG=
CYUA 081300Z AUTO 21008KT 9SM OVC023 06/ A3006 RMK SLP183=
CYUB 081300Z 31017G22KT 15SM BKN010 05/02 A3003 RMK SC7 CIG RAG
     7.1/4.9/0.4 SLP169=
CYUS 081300Z AUTO ///// 9SM CLR 13/ A2979 RMK SLP090=
CYUT 081300Z 00000KT 25SM FEW070 SCT090 10/03 A2979 RMK AC2AS2
     SLP089=
####018003713####
SAXX99 KWBC 081300 RRI
METAR
CYUX 081300Z 02004KT 15SM BKN081 BKN100 BKN210 08/05 A2981 RMK
     AC5AC1CI0 VIRGA E SLP097=
CYVC 081300Z 28010KT 15SM FEW040 SCT140 BKN250 16/10 A2996 RMK
     SC2AC2CI1 SLP152=
CYVO 081300Z 19007KT 15SM FEW042 FEW100 BKN280 BKN320 24/21 A2995
     RMK SC1AC2CC2CI1 SLP142=
CYVQ 081300Z 29008KT 15SM -SHRA SCT008 BKN040 OVC080 13/12 A3000
     RMK SC3SC2AC3 PRESRR SLP161=
CYVT 081300Z 00000KT 15SM SCT020 BKN070 BKN220 16/11 A2996 RMK
     SC3AC2CI0 SLP153=
CYVV 081300Z 18004KT 15SM FEW050 SCT100 BKN150 27/22 A3001 RMK
     SC1AC3AC1 TCU ASOCTD SLP159=
CYWA 081300Z AUTO 08003KT 9SM CLR 24/21 A3000 RMK SLP160=
CYWH 081300Z 05003KT 15SM SKC 18/11 A2998 RMK SLP151=
CYWJ 081300Z 29008KT 40SM VCSH FEW070 SCT120 BKN300 13/10 A2992
     RMK AC1AS1CI0 VIS LWR NW 21.5/9.9/0/0 SLP142=
CYWL 081300Z 13003KT 15SM SKC 12/08 A3015 RMK SLP204=
CYXC 081300Z 28005KT 25SM FEW100 FEW240 12/06 A3022 RMK AC1CI0
     SLP220=
CYXD 081300Z AUTO 36009KT 9SM CLR 16/12 A3009 RMK SLP188=
CYXE 081300Z 24008KT 15SM FEW110 OVC270 14/12 A3009 RMK AC1CI2
     SLP199=
CYXH 081300Z 22004KT 30SM SCT270 12/10 A3017 RMK CI0 SLP223=
CYXJ 081300Z 21002KT 15SM FEW100 FEW200 15/09 A3011 RMK AC1CI0
     SLP197=
CYXL 081300Z 27006KT 15SM FEW110 19/14 A2994 RMK AC1 SLP142=
CYXN 081300Z 00000KT 3SM -RA BR OVC003 04/04 A2960 RMK FG3ST5
     SLP024=
CYXP 081300Z 26007KT 15SM FEW090 FEW150 10/05 A2980 RMK AC1AC1
     SLP094=
CYXR 081300Z AUTO 19007KT 9SM CLR 24/21 A2991 RMK SLP117=
CYXS 081300Z AUTO 00000KT 9SM CLR 09/07 A3010 RMK SLP207=
CYXT 081300Z 02004KT 20SM SKC 16/11 A3008 RMK SLP186=
CYXZ 081300Z 18002KT 15SM BKN015 BKN080 18/17 A2998 RMK ST6AC1
     SLP155=
CYYB 081300Z 20005KT 8SM FEW020 SCT100 BKN250 24/21 A3001 RMK
     CU1AC2CI1 SLP157=
CYYD 081300Z 00000KT 25SM SKC 09/08 A3011 RMK SLP194=
CYYF 081300Z 00000KT 15SM SKC 17/09 A3010 RMK SLP189=
CYYG 081300Z 22013G18KT 15SM FEW011 SCT110 BKN280 22/19 A3008 RMK
     SF1AC2CI1 SLP187=
CYYH 081300Z 05003KT 15SM FEW030 BKN040 BKN210 14/07 A2980 RMK
     SC2SC4CI0 SLP093=
CYYL 081300Z AUTO 28009KT 9SM FEW100 15/09 A2981 RMK SLP104
     DENSITY ALT 1500FT=
CYYN 081300Z AUTO 26008KT 9SM CLR 13/12 A3016 RMK SLP214=
CYYU 081300Z 00000KT 7SM -SHRA OVC020 17/17 A2993 RMK SC8 BR
     SLP136=
CYYY 081300Z 05007KT 5SM BR BKN004 OVC010 14/13 A3002 RMK SF6SF2
     SLP167=
CYZE 081300Z AUTO 20005KT 8SM OVC100 20/19 A2997 RMK SLP151
     DENSITY ALT 1300FT=
CYZH 081300Z AUTO 23004KT 9SM -RA BKN029 BKN085 OVC096 15/13 A3005
     RMK SLP181=
CYZP 081300Z AUTO 26010KT 9SM CLR 16/11 A3008 RMK SLP188=
CYZR 081300Z AUTO 19006KT 9SM CLR 28/21 A3001 RMK SLP159 DENSITY
     ALT 2100FT=
CYZS 081300Z 08012G19KT 15SM FEW020 SCT070 OVC210 15/03 A2967 RMK
     SC1AC2CI2 SLP052=
CYZT 081300Z 00000KT 20SM SKC 11/09 A3004 RMK SLP171=
CYZU 081300Z 00000KT 15SM BKN070 BKN240 12/08 A3010 RMK AC2CI0
     SLP194=
CYZW 081300Z 29002KT 30SM FEW150 FEW250 07/04 A3016 RMK AC1CI1
     CLIMAT 23.0/6.0/0.0 SLP225=
CZCP 081300Z AUTO 28023KT 9SM OVC005 OVC013 OVC025 03/ A2987 RMK
     SLP121=
CZFA 081300Z 00000KT 30SM VCFG FEW060 10/09 A3011 RMK SC2 CLIMAT
     22.6/8.9/0.4MM SLP207=
CZFM 081300Z 18003KT 35SM FEW020 BKN040 BKN070 08/07 A3010 RMK
     SF0SC3AC3 15.1/7.4/9.2 SLP195=
CZPC 081300Z AUTO 28005KT 9SM CLR 09/08 A3022 RMK SLP232=
CZST 081300Z 00000KT 15SM SKC 10/09 A3010 RMK DEW SLP194=
CZUM 081300Z AUTO 23006KT 9SM FEW079 23/16 A2990 RMK SLP128=
EEKA 081250Z 29008KT 280V330 CAVOK 22/13 Q1016=
EGUB 081250Z 21009KT 9999 SCT038 BKN220 24/19 Q1018 NOSIG=
EPLL 081300Z 35007G17KT CAVOK 23/05 Q1022=
####018000126####
SAUS45 KSLC 081307
MTRNKX
SPECI KNKX 081306Z 00000KT 10SM DZ OVC008 16/14 A2991 RMK AO2 
RAE02DZB02 CIG 005V011 P0000
####018000279####
SAXX99 KWBC 081300 CCA
METAR
CWGZ 081300Z CCA 00000KT 45SM FEW100 FEW220 05/02 A2978 RMK AC1CI1
     SLP090=
CYCO 081300Z CCA 12004KT 13SM VCSH VCFG OVC014 05/05 A2988 RMK SC8
     SLP121=
LTFJ 081250Z 01017KT 9999 BKN030 23/17 Q1011 TEMPO FM1400 4000
     TSRA=
####018002553####
SAXX99 KWBC 081300 RRJ
METAR
FKYS 081300Z 25003KT 210V280 9999 BKN016 26/20 Q1016 NOSIG=
FMNA 081300Z 12023KT 9999 SCT020 SCT040 25/18 Q1016=
FMSD 081300Z 08014KT 8000 VCSH SCT017 BKN033 20/18 Q1025=
LEGT 081300Z 14009KT CAVOK 30/14 Q1019=
LERI 081300Z 07012KT 020V120 CAVOK 34/21 Q1018 NOSIG=
LFMO 081300Z AUTO VRB02KT 9999NDV NSC 35/12 Q1019=
LFOA 081300Z AUTO VRB03KT 9999NDV NSC 32/13 Q1019=
LFOJ 081300Z 21006KT 180V270 CAVOK 32/13 Q1018=
LFQI 081300Z VRB06KT CAVOK 31/11 Q1018=
LIMP 081250Z 07006KT 040V100 CAVOK 29/14 Q1021 RMK VIS MIN
     9999=
LIMZ 081250Z 32005KT 8000 FEW035 SCT060 25/18 Q1023 RMK VIS MIN
     8000=
LIRM 081255Z 12010KT 9999 FEW016 30/14 Q1019 RMK FEW VIS MIN 9999
     WIND THR06 06005KT BLU=
LKCV 081300Z 16004KT 110V220 CAVOK 24/08 Q1022 NOSIG=
LKKB 081300Z 32005KT 260V020 CAVOK 25/09 Q1022 NOSIG=
LKLN 081300Z AUTO VRB04G17KT CAVOK 25/09 Q1023=
LKNA 081300Z 05004KT CAVOK 23/08 Q1023 NOSIG=
LKPD 081300Z VRB02KT CAVOK 25/06 Q1022 NOSIG=
LKPO 081300Z 31003KT 270V340 CAVOK 23/11 Q1022 NOSIG=
MGTK 081300Z 00000KT CAVOK 23/23 Q1012 A2989 OVC090=
SLET 081300Z 15010KT 9999 SCT080 19/16 Q1016=
UDYZ 081300Z VRB01MPS 9999 FEW050 38/12 Q1008 09010070 NOSIG=
WMAU 081300Z 15003KT 9999 FEW025 SCT140 BKN270 28/25 Q////
     QFF1009=
WMBA 081300Z 00000KT 9999 FEW032 BKN280 28/25 Q1010=
WMKA 081300Z 26002KT 9999 FEW030 BKN280 28/26 Q1010=
WMKB 081300Z 29004KT 9000 SCT025 SCT140 BKN280 30/25 Q1010 TEMPO
     7000 SHRA=
WMKC 081300Z 00000KT 9999 FEW017CB SCT140 BKN240 29/23 Q1010=
WMKD 081300Z 35013G34KT 9999 -TSRA FEW008 FEW017CB SCT025 BKN280
     25/23 Q1011 NOSIG=
WMKI 081300Z 20002KT 9999 FEW032 BKN150 BKN280 28/25 Q1010=
WMKL 081300Z 30002KT 9999 FEW017CB BKN280 29/25 Q1010=
WMKM 081300Z 00000KT 9999 FEW030 SCT140 BKN280 28/24 Q1010=
WMKN 081300Z 21003KT 9999 FEW024 BKN250 26/22 Q1010=
ZBHH 081300Z 17001MPS 9999 SCT040 FEW040TCU 26/12 Q1009 NOSIG=
ZBSJ 081300Z 15002MPS 8000 NSC 28/20 Q1005 NOSIG=
ZGHA 081300Z 15002MPS CAVOK 31/28 Q1001 NOSIG=
ZGKL 081300Z VRB01MPS CAVOK 31/25 Q1004 NOSIG=
ZGOW 081300Z 19005MPS 9999 FEW020 29/26 Q1008 NOSIG=
ZJHK 081300Z 16003MPS 130V210 CAVOK 29/25 Q1006 NOSIG=
ZLXY 081300Z 08002MPS 040V120 2000 BR SCT030 OVC050 23/21 Q1008
     NOSIG=
ZSQD 081300Z 16003MPS CAVOK 23/19 Q1008 NOSIG=
ZWSH 081300Z 19003MPS CAVOK 32/M00 Q1012 NOSIG=
ZYCC 081300Z 32003MPS 5000 -SHRA BR SCT005 FEW023TCU BKN023 19/18
     Q1007 NOSIG=
ZYTX 081300Z VRB01MPS 9999 FEW030 20/18 Q1007 NOSIG=
####018000081####
SPUS52 KWBC 081308
SPECI
KHOT 081305Z AUTO 00000KT 9SM OVC009 25/23 A3009=
####018000095####
SPUS31 KKCI 081301
SPECI
K7R3 081301Z 04004KT6 10SM FEW003 SCT070 26/25 A3002 RMK DA012=
####018000081####
SAFR37 LFPW 081300 RRA
METAR LFPM 081304Z 19005KT 120V260 CAVOK 32/11 Q1018=
####018000363####
SATH32 VTBB 081300
METAR VTSB 081300Z 16002KT 9999 SCT020 SCT120 29/26 Q1009 A2980=
METAR VTSM 081300Z 30004KT 9999 FEW020 BKN300 31/25 Q1009 A2981=
METAR VTSF 081300Z NIL=
METAR VTSC 081300Z NIL=
METAR VTSK 081300Z NIL=
METAR VTST 081300Z NIL=
METAR VTSR 081300Z NIL=
METAR VTSG 081300Z NIL=
METAR VTSE 081300Z NIL=
METAR VTSH 081300Z NIL=
####018001548####
SAIY43 LIIB 081300
METAR LIBA 081255Z /////KT CAVOK 29/09 Q1020 RMK FEW FEW200 VIS MIN
      9999 WIND THR29 31012KT BLU=
METAR LIBC 081250Z 04019KT CAVOK 27/09 Q1017 RMK VIS MIN 9999=
METAR LIBD 081250Z 36014KT CAVOK 25/12 Q1020 RMK VIS MIN 9999=
METAR LIBG 081250Z 01016KT 360V040 CAVOK 28/10 Q1018 RMK VIS MIN
9999=
METAR LIBN 081255Z 33023G36KT CAVOK 26/10 Q1017 RMK FEW FEW200 VIS
      MIN 9999 WIND THR14 34020G35KT BLU=
METAR LIBP 081250Z 05005KT CAVOK 26/07 Q1021 RMK VIS MIN 9999=
METAR LIBQ 081255Z 26005KT 9999 FEW008TCU SCT009 17/11 Q1024 RMK SCT
      MON LIB VAL NIL VIS MIN 9999=
METAR LIBR 081245Z /////KT CAVOK 25/13 Q1018 NOSIG RMK SKC VIS MIN
      9999 WIND THR13 WIND THR31 33019KT BLU=
METAR LIBV 081255Z 01017G27KT CAVOK 25/10 Q1017 RMK SKC VIS MIN 9999
      WIND THR14 36018KT BLU=
METAR LICA 081250Z 27014KT 9999 FEW030 29/22 Q1017 RMK VIS MIN 9999=
METAR LICC 081250Z 11013KT CAVOK 28/20 Q1018 RMK VIS MIN 9999=
METAR LICD 081250Z 35007KT CAVOK 26/21 Q1019 RMK VIS MIN 9999=
METAR LICG 081255Z 34007KT 9999 FEW016 24/22 Q1019 RMK BKN SCT200 VIS
      MIN 9999 WIND THR08 33006KT WIND THR21 36007KT BLU=
METAR LICJ 081250Z 04015KT 9999 FEW018 28/23 Q1018 RMK VIS MIN 9999=
METAR LICR 081250Z 22007KT 200V260 9999 FEW020 BKN040 27/20 Q1018
RMK VIS MIN 9999=
METAR LICT 081255Z 33013G24KT 9999 FEW022 30/25 Q1018 RMK FEW VIS MIN
      9999 WIND THR13 33010KT BLU=
METAR LICZ 081255Z 10017KT 9999 FEW020 30/20 Q1017 RMK FEW VIS MIN
      9999 WIND THR28 //////KT BLU=
####018000107####
SAGD31 TGPY 081300
METAR TGPY 081300Z 08012KT 9999 FEW019 SCT038 FEW///CB 27/25 Q1013 CB
TOP SE-SSE=
####018000618####
SABY31 UMMN 081300
METAR UMBB 081300Z 31006G09MPS 8000 SCT031 24/13 Q1019 R29/CLRD//
NOSIG=
METAR UMGG 081300Z VRB02MPS 9999 BKN050CB BKN100 26/17 Q1014
R28/290550 NOSIG=
METAR UMII 081300Z 20005MPS P6000 BKN020CB 20/18 Q1014 R23/CLRD//
TEMPO 2000 SHRA BKN005 =
METAR UMMG 081300Z 32007G10MPS 9999 BKN023 BKN066 23/13 Q1016
R35/CLRD// NOSIG=
METAR UMMM 081300Z 26006G09MPS 6000 OVC012CB 18/15 Q1015 R30/CLRD//
NOSIG RMK QFE742=
METAR UMMS 081300Z 28003G06MPS 250V310 9999 OVC014 18/15 Q1015
R31/CLRD// NOSIG=
METAR UMOO 081300Z 29002MPS 9999 BKN023CB BKN/// 22/18 Q1013
R31/290056 NOSIG=
####018000081####
SPUS72 KWBC 081308
SPECI
KHOT 081305Z AUTO 00000KT 9SM OVC009 25/23 A3009=
####018000073####
SABC40 FBSK 081300 RRA
METAR FBKE 081300Z 09014KT CAVOK 24/07 Q1025=
####018000437####
SAAL40 DAMM 081300
METAR DAAG 081300Z 05013KT CAVOK 34/16 Q1018=
METAR DAAT 081300Z NIL=
METAR DABB 081300Z 02014KT CAVOK 28/21 Q1019=
METAR DABC 081300Z 36012KT CAVOK 34/05 Q1022=
METAR DABS 081300Z 32006KT CAVOK 35/06 Q1023=
METAR DAON 081300Z 02010KT 9999 FEW026 37/20 Q1016=
METAR DAOO 081300Z 35012KT CAVOK 30/21 Q1016=
METAR DAUH 081300Z 08010KT CAVOK 39/21 Q1017=
METAR DAUZ 081300Z 09005KT CAVOK 38/07 Q1016=
####018000666####
SAAM31 FCBB 081300
METAR FCBB 081300Z 21008KT 270V160 7000 FEW023 27/20 Q1013 NOSIG=
METAR FCPP 081300Z 18008KT 7000 FEW013 OVC033 24/21 Q1012 NOSIG=
METAR FKKD 081300Z VRB04KT 9999 BKN016 FEW020CB BKN120 28/25 Q1013
      TEMPO 4000 TSRA BKN013 SCT016CB BKN100=
METAR FKYS 081300Z 25003KT 210V280 9999 BKN016 26/20 Q1016 NOSIG=
METAR FEFF 081300Z 18002KT 9999 FEW026 FEW040CB BKN300 31/22 Q1013
      NOSIG=
METAR FOOL 081300Z 23006KT 190V260 9000 SCT011 BKN030 27/23 Q1013
      NOSIG=
METAR FGSL 081300Z 29005KT 270V330 7000 -TSRA BKN013 FEW020CB BKN130
      25/25 Q1013 NOSIG=
METAR FZAA 081300Z 27008KT 4000 BR SKC 27/19 Q1012 NOSIG=
####018001437####
SAUS20 KNKA 081308
METAR KGOP 081300Z AUTO 00000KT 8SM SCT007 BKN046 25/24 A3004 RMK 
     AO2=
METAR KGVT 081305Z AUTO 12003KT 10SM OVC049 25/23 A3006 RMK AO2=
METAR KGWB 081305Z AUTO 22004KT 10SM CLR 28/17 A3006 RMK AO2=
METAR KGYI 081304Z AUTO 15008KT 25/24 A3005 RMK AO2 T02520243 
     PWINO=
METAR KHBV 081300Z AUTO 36009KT 10SM BKN008 BKN015 OVC021 25/24 
     A2988 RMK AO2 LTG DSNT SE T02510235=
METAR KHRX 081305Z AUTO 01010KT 10SM OVC022 18/17 A3023 RMK AO2 
     T01780165=
METAR KHSB 081305Z AUTO 21004KT 10SM CLR 26/22 A3006 RMK AO2=
METAR KIJX 081305Z AUTO 25004KT 7SM SCT007 24/23 A3007 RMK AO2 
     T02410232=
METAR KINJ 081305Z AUTO 08005KT 5SM BR SCT070 BKN080 25/23 A3003 
     RMK AO2 T02480232=
METAR KJDD 081305Z AUTO 00000KT 6SM  BR BKN005 BKN011 26/25 A3006 
     RMK AO2=
METAR KOLY 081303Z AUTO 00000KT 7SM SCT060 28/23 A3005 RMK AO2=
SPECI KOVS 081307Z AUTO 32006KT 10SM OVC011 22/20 A3006 RMK AO2=
METAR KPNT 081305Z AUTO 00000KT 10SM BKN027 OVC039 24/23 A3004 
     RMK AO2=
METAR KPRG 081305Z AUTO 24005KT 10SM CLR 27/23 A3006 RMK AO2 
     T02700235=
METAR KRCR 081307Z AUTO 29003KT 10SM SCT055 SCT070 BKN100 27/22 
     A3005 RMK AO2=
METAR KRPJ 081305Z AUTO 29004KT 7SM BKN005 23/21 A3005 RMK AO2 
     T02260206=
METAR KRSV 081302Z AUTO 23005KT 10SM CLR 29/24 A3007 RMK AO2 
     T02860236=
METAR KTZR 081255Z 00000KT 7SM SKC 27/20 A3009=
####018002932####
SAUS20 KNKA 081308
METAR K3LF 081303Z AUTO 23006KT 2 1/2SM +RA SCT009 BKN021 OVC090 
     25/23 A3006 RMK AO2 P0004 LTG DSNT SW=
METAR K6R3 081301Z AUTO 08005KT 5SM BR OVC006 25/25 A2999 RMK AO2 
     T02500251=
METAR KASW 081305Z AUTO 23004KT 10SM SCT075 28/21 A3005 RMK AO2 
     T02800209=
METAR KAXH 081305Z AUTO 07006KT 7SM RA SCT042 SCT050 OVC075 25/24 
     A2994 RMK AO2 T02510235=
METAR KBBD 081305Z AUTO 09004KT 10SM FEW008 OVC050 23/22 A3005 RMK=
METAR KBEA 081303Z AUTO 04008KT 10SM -DZ BKN005 BKN020 OVC028 
     25/25 A2988 RMK AO2 LTG DSNT S T02450245=
METAR KBKD 081301Z AUTO 10004KT 7SM SCT002 BKN014 OVC027 24/23 
     A3005 RMK AO2 T02400232=
METAR KBKS 081306Z AUTO 36007KT 10SM OVC006 26/25 A2982 RMK AO1 
     T02620248=
METAR KBPC 081308Z AUTO 36004KT 10SM OVC006 20/19 A3019 RMK AO2=
METAR KBPG 081305Z AUTO 02007KT 10SM BKN006 OVC014 22/21 A3013 
     RMK AO1 T02200205=
METAR KBYY 081306Z AUTO 07007KT 4SM -RA SCT019 BKN032 BKN042 
     27/26 A2990 RMK AO2 T02660260=
METAR KCIR 081302Z AUTO 23004KT 10SM SCT120 28/23 A3007 RMK AO2=
METAR KCPT 081305Z AUTO 07004KT 5SM  BR SCT006 BKN026 OVC045 
     24/24 A3006 RMK AO2=
METAR KCVB 081304Z AUTO 06006KT 7SM CLR 26/24 A2996 RMK AO2 
     T02550243=
METAR KCWC 081305Z AUTO 09003KT 10SM SCT021 25/23 A3005 RMK AO2 
     T02510225=
METAR KDKB 081301Z AUTO 28004KT 7SM BKN009 BKN016 22/22 A3004 RMK 
     AO2 T02200216=
METAR KDKR 081305Z AUTO 09005KT 5SM  BR CLR 26/26 A3004 RMK AO2=
METAR KDNV 081305Z AUTO 00000KT 7SM CLR 26/22 A3002 RMK AO2 
     T02610223=
METAR KDUX 081307Z AUTO 33004KT 5SM DZ SCT004 SCT033 OVC046 18/17 
     A3024 RMK AO2 T01770171=
METAR KDZB 081305Z AUTO 06003KT 4SM BR BKN005 BKN009 BKN022 25/25 
     A2999 RMK AO2 LTG DSNT SE T02450245=
METAR KE38 081305Z AUTO 00000KT 10SM CLR 18/17 A3023 RMK AO2 
     T01760171=
METAR KEBG 081306Z AUTO 01009G15KT 10SM OVC005 27/25 A2980 RMK 
     AO2 T02670253=
METAR KECU 081305Z AUTO 04005KT 8SM CLR 23/22 A3010 RMK AO2=
METAR KENL 081304Z AUTO 22007KT 10SM SCT047 BKN065 BKN090 27/19 
     A3005 RMK AO2 T02710188=
METAR KERV 081305Z AUTO 06003KT 10SM SCT016 BKN026 OVC030 25/22 
     A3001 RMK AO2 T02470222=
METAR KF05 081304Z AUTO 06003KT 10SM BKN032 OVC038 24/22 A3006 
     RMK AO2 T02440224=
METAR KFEP 081305Z AUTO 30004KT 5SM HZ OVC006 24/21 A3006 RMK AO2 
     T02360213=
METAR KFOA 081305Z AUTO 18004KT 10SM CLR 29/26 A3006 RMK AO2 
     T02900264=
METAR KFWC 081305Z AUTO 21003KT 10SM CLR 27/24 A3006 RMK AO2=
METAR KFWS 081305Z AUTO 00000KT 4SM DZ BKN005 BKN011 OVC019 25/24 
     A3005 RMK AO2 T02480235=
METAR KGBG 081305Z AUTO 00000KT 10SM OVC004 23/22 A3005 RMK AO2=
METAR KGDJ 081304Z AUTO 10004KT 10SM BKN008 OVC049 26/24 A3005 
     RMK AO2 T02580238=
METAR KGNC 081305Z AUTO 02005KT 5SM -DZ SCT011 SCT022 BKN050 
     20/20 A3016 RMK AO2 T02020196=
####018000086####
SPUS81 KWBC 081308
SPECI
KBDL 081305Z 18005KT 4SM HZ SCT010 OVC016 26/22 A3007=
####018001614####
SASA KAWN 081300 RRE
METAR SABE 081300Z 29005KT CAVOK 12/00 Q1019=
METAR SARE 081300Z 11011KT 9999 SCT008 12/09 Q1019=
METAR SARF 081300Z 16014KT 9999 OVC008 15/12 Q1018=
METAR SASJ 081300Z 00000KT CAVOK 15/09 Q1018=
METAR SAZM 081300Z 32013KT CAVOK 08/02 Q1014=
METAR SBCR 081300Z 08004KT CAVOK 27/12 Q1015=
METAR SELT 081300Z 00000KT 9999 FEW300 09/06 Q1032=
METAR SEQU 081300Z 08001KT 9999 FEW100 SCT300 12/08 Q1027 RMK A3035
      NOSIG=
METAR SLCA 081300Z 18004KT 8000 SCT030 SCT070 18/14 Q1020=
METAR SLCO 081300Z 00000KT 9999 SCT080 26/24 Q1014=
METAR SLCP 081300Z 19005KT 9999 BKN006 OVC070 21/20 Q1018=
METAR SLET 081300Z 15010KT 9999 SCT080 19/16 Q1016=
METAR SLJE 081300Z 21006KT 8000 BKN017 24/20 Q1018=
METAR SLJO 081300Z 00000KT 9999 NSC 27/23 Q1013=
METAR SLMG 081300Z 00000KT 9999 FEW020 SCT080 26/22 Q1015=
METAR SLOR 081300Z 00000KT 9999 SKC 03/M04 Q1036=
METAR SLPO 081300Z 24006KT 9999 SKC 04/M06 Q1037=
METAR SLPS 081300Z 36005KT 9999 FEW070 28/16 Q1013=
METAR SLRB 081300Z 00000KT 9999 BKN017 23/19 Q1018=
METAR SLRI 081300Z 36004KT 7000 SKC 28/24 Q1013=
METAR SLRQ 081300Z 00000KT 9999 SCT008 OVC015 23/23 Q1014=
METAR SLRY 081300Z 00000KT 6000 VCSH FEW008 BKN015 FEW023CB BKN070
      23/23 Q1015=
METAR SLSA 081300Z 00000KT 9999 FEW023 SCT070 BKN200 26/24 Q1012=
METAR SLSI 081300Z 19010KT 9999 FEW017 OVC070 23/21 Q1017=
METAR SLSU 081300Z 04008KT 9999 FEW013 11/08 Q1029=
METAR SLTJ 081300Z 00000KT 9999 SKC 11/06 Q1022=
METAR SLVM 081300Z 15010KT 9999 FEW020 17/14 Q1026=
METAR SLYA 081300Z 18006KT 9999 SCT023 15/11 Q1021=
####018001714####
SAEU KAWN 081300 RRU
METAR LEBG 081300Z 14010KT 110V180 9999 SCT045 32/12 Q1020=
METAR LIBA 081255Z /////KT CAVOK 29/09 Q1020 RMK FEW FEW200 VIS MIN
      9999 WIND THR29 31012KT BLU=
METAR LIBC 081250Z 04019KT CAVOK 27/09 Q1017 RMK VIS MIN 9999=
METAR LIBD 081250Z 36014KT CAVOK 25/12 Q1020 RMK VIS MIN 9999=
METAR LIBG 081250Z 01016KT 360V040 CAVOK 28/10 Q1018 RMK VIS MIN 9999=
METAR LIBN 081255Z 33023G36KT CAVOK 26/10 Q1017 RMK FEW FEW200 VIS
      MIN 9999 WIND THR14 34020G35KT BLU=
METAR LIBP 081250Z 05005KT CAVOK 26/07 Q1021 RMK VIS MIN 9999=
METAR LIBQ 081255Z 26005KT 9999 FEW008TCU SCT009 17/11 Q1024 RMK SCT
      MON LIB VAL NIL VIS MIN 9999=
METAR LIBR 081245Z /////KT CAVOK 25/13 Q1018 NOSIG RMK SKC VIS MIN
      9999 WIND THR13 WIND THR31 33019KT BLU=
METAR LIBV 081255Z 01017G27KT CAVOK 25/10 Q1017 RMK SKC VIS MIN 9999
      WIND THR14 36018KT BLU=
METAR LICA 081250Z 27014KT 9999 FEW030 29/22 Q1017 RMK VIS MIN 9999=
METAR LICD 081250Z 35007KT CAVOK 26/21 Q1019 RMK VIS MIN 9999=
METAR LICG 081255Z 34007KT 9999 FEW016 24/22 Q1019 RMK BKN SCT200 VIS
      MIN 9999 WIND THR08 33006KT WIND THR21 36007KT BLU=
METAR LICR 081250Z 22007KT 200V260 9999 FEW020 BKN040 27/20 Q1018 RMK
      VIS MIN 9999=
METAR LIRZ 081250Z 02010KT 330V060 9999 FEW040 31/11 Q1020 RMK VIS
      MIN 9999=
METAR LIVE 081255Z 18006KT CAVOK 21/12 Q1025 RMK SKC VIS MIN 9999=
METAR LKKV 081300Z VRB03KT CAVOK 24/10 Q1023 RMK REG QNH 1020=
METAR LKMT 081300Z 03004KT 320V090 CAVOK 23/11 Q1023 NOSIG RMK REG
      QNH 1020=
METAR LKPR 081300Z VRB03KT CAVOK 24/12 Q1023 NOSIG RMK REG QNH 1020=
METAR LKTB 081300Z VRB01KT CAVOK 25/08 Q1022 NOSIG RMK REG QNH 1020=
####018001237####
SAAL41 DAMM 081300
METAR DAAD 081300Z 00000KT CAVOK 39/14 Q1021=
METAR DAAE 081300Z 09010KT CAVOK 29/22 Q1019=
METAR DAAJ 081300Z NIL=
METAR DAAP 081300Z 15012KT CAVOK 40/10 Q1014=
METAR DAAS 081300Z 32010KT CAVOK 35/03 Q1024=
METAR DAAV 081300Z 36010KT CAVOK 30/23 Q1019=
METAR DAAY 081300Z 34008KT CAVOK 38/11 Q1024=
METAR DABT 081300Z NIL=
METAR DAFH 081300Z NIL=
METAR DAMH 081300Z 04008KT CAVOK 40/12 Q1015=
METAR DAOB 081300Z 03007KT CAVOK 38/07 Q1022=
METAR DAOF 081300Z 11004KT 4000 HZ NSC 45/05 Q1013=
METAR DAOI 081300Z 06008KT CAVOK 43/05 Q1015=
METAR DAOL 081300Z NIL=
METAR DAOR 081300Z 11004KT CAVOK 40/05 Q1022=
METAR DAOV 081300Z 03010KT CAVOK 43/06 Q1018=
METAR DATF 081300Z 02014KT CAVOK 40/08 Q1015=
METAR DATG 081300Z NIL=
METAR DATM 081300Z NIL=
METAR DAUA 081300Z 36019KT 7000 DRSA NSC 44/07 Q1012=
METAR DAUB 081300Z 24008KT CAVOK 37/15 Q1016=
METAR DAUE 081300Z 03010KT CAVOK 38/09 Q1020=
METAR DAUG 081300Z NIL=
METAR DAUI 081300Z NIL=
METAR DAUK 081300Z 00000KT CAVOK 37/16 Q1017=
METAR DAUL 081300Z NIL=
METAR DAUO 081300Z 00000KT CAVOK 38/16 Q1017=
METAR DAUT 081300Z ///18KT 4000 DRSA NSC 43/09 Q1014=
METAR DAUU 081300Z 05010KT CAVOK 39/16 Q1017=
####018000258####
SABO SLLP 081300
METAR SLLP 081300Z VRB02KT 9999 FEW015 04/M04 Q1038=
METAR SLVR 081300Z 17012KT 9999 FEW025 BKN070 BKN200 20/16 Q1017=
METAR SLCB 081300Z 15003KT 4000E FU FEW027 SCT200 14/08 Q1027=
METAR SLTJ 081300Z 00000KT 9999 SKC 11/06 Q1022=
####018000260####
SABO59 SLLP 081300
METAR SLLP 081300Z VRB02KT 9999 FEW015 04/M04 Q1038=
METAR SLVR 081300Z 17012KT 9999 FEW025 BKN070 BKN200 20/16 Q1017=
METAR SLCB 081300Z 15003KT 4000E FU FEW027 SCT200 14/08 Q1027=
METAR SLTJ 081300Z 00000KT 9999 SKC 11/06 Q1022=
####018000161####
SAEU KAWN 081200 RRX
METAR EBFN 081155Z 34005KT 9999 FEW042 BKN200 23/17 Q1020 BLU BLU=
METAR EBFN 081225Z 35005KT 9999 FEW042 BKN200 23/17 Q1019 BLU BLU=
####018000161####
SAEW KAWN 081200 RRP
METAR EBFN 081155Z 34005KT 9999 FEW042 BKN200 23/17 Q1020 BLU BLU=
METAR EBFN 081225Z 35005KT 9999 FEW042 BKN200 23/17 Q1019 BLU BLU=
####018001381####
SANA35 KAWN 081300 RRC
METAR KNGU 081259Z 07008KT 10SM FEW012 SCT070 BKN100 27/20 A3001 RMK
      AO2 SLP163 T02720200=
METAR MKJP 081300Z 11012KT 9999 FEW022 SCT250 29/20 Q1013=
METAR MKJS 081300Z 13001KT 9999 FEW024 BKN220 29/23 Q1013=
METAR SCAR 081300Z VRB01KT 9999 OVC021 15/09 Q1016=
METAR SCBA 081300Z AUTO 26006KT CAVOK M04/M07 Q1003=
METAR SCDA 081300Z 03008KT 9999 OVC026 15/09 Q1017=
METAR SCEL 081300Z 25004KT 230V310 4000 BR SCT130 02/01 Q1023 NOSIG=
METAR SCFA 081300Z 06005KT 9999 BKN022 13/07 Q1017 NOSIG=
METAR SCIE 081300Z 28010KT 9999 BKN012 13/11 Q1020=
METAR SCTE 081300Z 22008KT 9999 BKN027 BKN050 07/06 Q1013 NOSIG=
METAR SKBQ 081300Z 00000KT 5000 BR SCT005 BKN070 26/26 A2991=
METAR SKCG 081300Z 09004KT 9999 FEW015CB SCT200 28/25 A2988 RMK CB/N/S=
METAR SKSP 081300Z 10007KT 9999 SCT015TCU 29/26 A2987 REDZ=
METAR SPHI 081300Z 16009KT 9999 SCT012 SCT100 16/13 Q1015 RMK BIRD
      HAZARD RWY 19/01 PP000=
METAR SPQU 081300Z 07004KT CAVOK 13/M13 Q1025 NOSIG RMK PP000=
METAR SPRU 081300Z VRB02KT 6000 OVC015 16/13 Q1014 RMK BIRD HAZARD
      RWY20 PP000=
METAR SPSO 081300Z 11005KT CAVOK 14/11 Q1014 RMK PP000=
METAR TFFF 081300Z 08015KT 020V100 9999 FEW020 SCT026 31/24 Q1014 NOSIG=
METAR TFFR 081300Z 11009KT 070V130 9999 SCT026 30/24 Q1015 NOSIG=
METAR TVSV 081300Z 11016KT 9999 BKN022 BKN280 30/25 Q1014=
####018000163####
SAXX70 KAWN 081300 RRI
METAR KQHA 081255Z 26002KT 9999 SKC 28/23 A2997 RMK AO2A SLP491=
METAR KQVE 081255Z AUTO VRB06KT 9999 CLR 36/14 A2981 RMK AO2 SLP016=
####018000295####
SAGL KAWN 081300 RRB
METAR BIAR 081300Z 35015KT 9999 -RA BKN020 08/06 Q0996=
METAR BIEG 081300Z 36012KT 9999 VV004 09/08 Q0991 RESHRA=
METAR BIKF 081300Z 03019KT 9999 FEW018 SCT035 BKN110 12/06 Q0995=
METAR BIRK 081300Z 36020G30KT 260V170 9999 -SHRA FEW030 SCT050 11/07
      Q0993=
####018000096####
SAUK39 EGRR 081250 RRE
METAR EGXW 081250Z 28010KT 9999 FEW048 BKN250 22/08 Q1017 BLU NOSIG=
####018000152####
SANM40 FYWW 081300 RRA
METAR FYAN 081300Z AUTO 01008KT //// // ////// 22/02 Q1025=
METAR FYOA 081300Z AUTO 04007KT //// // ////// 26/02 Q1020=

####018000124####
SAHW40 PHFO 081308
MTRNGF
METAR PHNG 081257Z COR 11007KT 10SM SCT026 BKN040 24/21 A3002 RMK 
AO2 SLP159 T02390206 $
####018000977####
SAAE31 VTBB 081300
METAR VTBS 081300Z 18003KT 9999 FEW020 SCT120 BKN300 30/25 Q1007
           NOSIG=
METAR VTBD 081300Z 16005KT 9999 FEW020 SCT120 BKN300 30/24 Q1007
           NOSIG=
METAR VTCC 081300Z 05010KT 9999 FEW025CB SCT035 BKN300 29/22 Q1008
           A2978 CB NE,E,SSE=
METAR VTBU 081300Z 19002KT 9999 FEW020 BKN300 31/26 Q1007 A2975=
METAR VTSS 081300Z NIL=
METAR VTSP 081300Z 33004KT 9000 FEW020 SCT120 BKN300 29/23 Q1010
           A2984=
METAR VLVT 081300Z NIL=
METAR VYYY 081300Z NIL=
METAR VVTS 081300Z 15010KT 8000 TS SCT015 SCT017CB 27/22 Q1009
           TEMPO            TL1330   1000 TSRA=
METAR VVNB 081300Z 09007KT 060V130 CAVOK 30/24 Q1002 NOSIG=
METAR VDPP 081300Z 22003KT 9000 SCT015 FEW017CB SCT040 29/22 Q1008
           CB:NE NW=
METAR VVDN 081300Z 24008KT 9999 FEW017 SCT300 26/21 Q1008 NOSIG=
METAR VYMD 081300Z NIL=
METAR VDSR 081300Z 18005KT 8000 SCT017 SCT130 27/23 Q1008=
METAR VVPB 081300Z NIL=
####018000073####
SAAT31 TAPA 081304
METAR TAPA 081300Z 07012KT 9999  FEW022 30/24 Q1015=####018000086####
SPCN47 CWAO 081307
SPECI CYAM 081307Z 28010KT 5SM BR BKN002 OVC006 RMK SF6SF2=

####018000287####
SAUS20 KNKA 081308
SPECI KCRS 081306Z AUTO 08005KT 10SM FEW008 BKN013 BKN022 26/24 
    A3002 RMK AO2=
METAR KIAH 081302Z 07006KT 1SM -TSRA FEW008 OVC025CB 26/24 A2998
    RMK TSB35 OCNLLTGIC NE-S TS VC MOV NW=
METAR KMZZ 081255Z AUTO 19004KT 7SM BKN095 25/20 A3007 RMK AO2=
####018000441####
SAUS99 KWBC 081309 RRA
METAR
KGBG 081305Z AUTO 00000KT 10SM OVC004 23/22 A3005 RMK AO2=
KGDJ 081304Z AUTO 10004KT 10SM BKN008 OVC049 26/24 A3005 RMK AO2
     T02580238=
KGNC 081305Z AUTO 02005KT 5SM -DZ SCT011 SCT022 BKN050 20/20 A3016
     RMK AO2 T02020196=
KIAH 081302Z 07006KT 1SM -TSRA FEW008 OVC025CB 26/24 A2998 RMK
     TSB35 OCNLLTGIC NE-S TS VC MOV NW=
KMZZ 081255Z AUTO 19004KT 7SM BKN095 25/20 A3007 RMK AO2=
####018003700####
SAUS99 KWBC 081309
METAR
KGOP 081300Z AUTO 00000KT 8SM SCT007 BKN046 25/24 A3004 RMK
     AO2=
KGVT 081305Z AUTO 12003KT 10SM OVC049 25/23 A3006 RMK AO2=
KGWB 081305Z AUTO 22004KT 10SM CLR 28/17 A3006 RMK AO2=
KGYI 081304Z AUTO 15008KT 25/24 A3005 RMK AO2 T02520243 PWINO=
KHBV 081300Z AUTO 36009KT 10SM BKN008 BKN015 OVC021 25/24 A2988
     RMK AO2 LTG DSNT SE T02510235=
KHRX 081305Z AUTO 01010KT 10SM OVC022 18/17 A3023 RMK AO2
     T01780165=
KHSB 081305Z AUTO 21004KT 10SM CLR 26/22 A3006 RMK AO2=
KIJX 081305Z AUTO 25004KT 7SM SCT007 24/23 A3007 RMK AO2
     T02410232=
KINJ 081305Z AUTO 08005KT 5SM BR SCT070 BKN080 25/23 A3003 RMK AO2
     T02480232=
KJDD 081305Z AUTO 00000KT 6SM BR BKN005 BKN011 26/25 A3006 RMK
     AO2=
KOLY 081303Z AUTO 00000KT 7SM SCT060 28/23 A3005 RMK AO2=
KPNT 081305Z AUTO 00000KT 10SM BKN027 OVC039 24/23 A3004 RMK
     AO2=
KPRG 081305Z AUTO 24005KT 10SM CLR 27/23 A3006 RMK AO2
     T02700235=
KRCR 081307Z AUTO 29003KT 10SM SCT055 SCT070 BKN100 27/22 A3005
     RMK AO2=
KRPJ 081305Z AUTO 29004KT 7SM BKN005 23/21 A3005 RMK AO2
     T02260206=
KRSV 081302Z AUTO 23005KT 10SM CLR 29/24 A3007 RMK AO2
     T02860236=
KTZR 081255Z 00000KT 7SM SKC 27/20 A3009=
K3LF 081303Z AUTO 23006KT 2 1/2SM +RA SCT009 BKN021 OVC090 25/23
     A3006 RMK AO2 P0004 LTG DSNT SW=
K6R3 081301Z AUTO 08005KT 5SM BR OVC006 25/25 A2999 RMK AO2
     T02500251=
KASW 081305Z AUTO 23004KT 10SM SCT075 28/21 A3005 RMK AO2
     T02800209=
KAXH 081305Z AUTO 07006KT 7SM RA SCT042 SCT050 OVC075 25/24 A2994
     RMK AO2 T02510235=
KBBD 081305Z AUTO 09004KT 10SM FEW008 OVC050 23/22 A3005 RMK=
KBEA 081303Z AUTO 04008KT 10SM -DZ BKN005 BKN020 OVC028 25/25
     A2988 RMK AO2 LTG DSNT S T02450245=
KBKD 081301Z AUTO 10004KT 7SM SCT002 BKN014 OVC027 24/23 A3005 RMK
     AO2 T02400232=
KBKS 081306Z AUTO 36007KT 10SM OVC006 26/25 A2982 RMK AO1
     T02620248=
KBPC 081308Z AUTO 36004KT 10SM OVC006 20/19 A3019 RMK AO2=
KBPG 081305Z AUTO 02007KT 10SM BKN006 OVC014 22/21 A3013 RMK AO1
     T02200205=
KBYY 081306Z AUTO 07007KT 4SM -RA SCT019 BKN032 BKN042 27/26 A2990
     RMK AO2 T02660260=
KCIR 081302Z AUTO 23004KT 10SM SCT120 28/23 A3007 RMK AO2=
KCPT 081305Z AUTO 07004KT 5SM BR SCT006 BKN026 OVC045 24/24 A3006
     RMK AO2=
KCVB 081304Z AUTO 06006KT 7SM CLR 26/24 A2996 RMK AO2
     T02550243=
KCWC 081305Z AUTO 09003KT 10SM SCT021 25/23 A3005 RMK AO2
     T02510225=
KDKB 081301Z AUTO 28004KT 7SM BKN009 BKN016 22/22 A3004 RMK AO2
     T02200216=
KDKR 081305Z AUTO 09005KT 5SM BR CLR 26/26 A3004 RMK AO2=
KDNV 081305Z AUTO 00000KT 7SM CLR 26/22 A3002 RMK AO2
     T02610223=
KDUX 081307Z AUTO 33004KT 5SM DZ SCT004 SCT033 OVC046 18/17 A3024
     RMK AO2 T01770171=
KDZB 081305Z AUTO 06003KT 4SM BR BKN005 BKN009 BKN022 25/25 A2999
     RMK AO2 LTG DSNT SE T02450245=
KE38 081305Z AUTO 00000KT 10SM CLR 18/17 A3023 RMK AO2
     T01760171=
KEBG 081306Z AUTO 01009G15KT 10SM OVC005 27/25 A2980 RMK AO2
     T02670253=
KECU 081305Z AUTO 04005KT 8SM CLR 23/22 A3010 RMK AO2=
KENL 081304Z AUTO 22007KT 10SM SCT047 BKN065 BKN090 27/19 A3005
     RMK AO2 T02710188=
KERV 081305Z AUTO 06003KT 10SM SCT016 BKN026 OVC030 25/22 A3001
     RMK AO2 T02470222=
KF05 081304Z AUTO 06003KT 10SM BKN032 OVC038 24/22 A3006 RMK AO2
     T02440224=
KFEP 081305Z AUTO 30004KT 5SM HZ OVC006 24/21 A3006 RMK AO2
     T02360213=
KFOA 081305Z AUTO 18004KT 10SM CLR 29/26 A3006 RMK AO2
     T02900264=
KFWC 081305Z AUTO 21003KT 10SM CLR 27/24 A3006 RMK AO2=
KFWS 081305Z AUTO 00000KT 4SM DZ BKN005 BKN011 OVC019 25/24 A3005
     RMK AO2 T02480235=
####018000172####
SPUS99 KWBC 081309
SPECI
KOVS 081307Z AUTO 32006KT 10SM OVC011 22/20 A3006 RMK AO2=
KCRS 081306Z AUTO 08005KT 10SM FEW008 BKN013 BKN022 26/24 A3002
     RMK AO2=
####018000387####
SAMX34 MMMD 081300
METAR MMCZ 081245Z 09008KT 6SM  BKN100 BKN200 26/24 A2988 
      RMK 8/079 SC HZY=
METAR MMMD 081248Z 10007KT 5SM  SCT005 BKN080 BKN140 18/18 A2988 
      RMK 8/670 HZY CI=
METAR MMTP 081245Z 00000KT 10SM BKN020 OVC160 24/23 A2990
      RMK 8/57/=
METAR MMUN 081245Z 11008KT 6SM  BKN015TCU BKN090 OVC280 28/25 A2990 
      RMK 8/277 HZ LWR SC BINOVC=
####018000033####
SAQB31 LQTZ 081300
METAR
NIL
####018000086####
SANL33 EHDB 081255 RRA
METAR EHJR 081255Z AUTO 25006G06KT //// 17/15 Q1019 W16/S2=
####018000267####
SATR31 RUMS 081300
METAR UTAA 081300Z 12004MPS 080V150 9999 SKC 43/04 Q1007 NOSIG=
METAR UTAK 081300Z 29005MPS CAVOK 37/16 Q1008 NOSIG=
METAR UTAM 081300Z 01006MPS CAVOK 42/06 Q1005 NOSIG=
METAR UTAT 081300Z NIL=
METAR UTAV 081300Z 04003MPS CAVOK 38/10 Q1005=
####018000080####
SAKN64 HKMO 081300
METAR HKMO 081300Z 18015KT 9999 FEW026 28/19 Q1015 NOSIG=
####018000215####
SAMX41 MMMX 081304
METAR MMIT 081300Z RTD 00000KT 5SM HZ BKN010 OVC070 27/25 A2978 RMK 
           8/66/ BINOVC =
METAR MMTB 081200Z RTD 00000KT 6SM HZ BKN020 22/20 A2984 RMK 8/6// 
           OCNL DROPS =
####018000163####
SAAY31 RUMS 081300
METAR UDYZ 081300Z VRB01MPS 9999 FEW050 38/12 Q1008 09010070 NOSIG=
METAR UDSG 081300Z 07010MPS 9999 SCT050TCU 29/15 Q1015 02CLRD70
NOSIG=
####018000086####
SANL33 EHDB 081255 RRB
METAR EHSC 081255Z AUTO 20005G05KT 9999 18/15 Q1019 W///S2=
####018000082####
SAAG SARP 081300
METAR SARP 081300Z  07006KT 6000  SCT005 BKN015
15/14 Q1018=
####018000121####
SAKY31 RUMS 081300
METAR UAFM 081300Z 24006MPS CAVOK 32/08 Q1012 TEMPO 24007G12MPS FCST
WS=
METAR UAFO 081300Z NIL=
####018000685####
SAKZ31 RUMS 081300
METAR UAAA 081300Z 27004MPS 240V310 9999 SCT050CB BKN100 28/10 Q1013
88CLRD65 TEMPO TS=
METAR UACC 081300Z 32006MPS CAVOK 23/02 Q1008 220/0070 NOSIG RMK
QFE725/0967=
METAR UAKK 081300Z 13004MPS 100V160 9999 SCT050CB BKN/// 22/06 Q1008
230///70 TEMPO TSRA RMK QFE709/0946=
METAR UAOO 081300Z NIL=
METAR UARR 081300Z NIL=
METAR UATE 081300Z 02006MPS CAVOK 39/08 Q1009 300///70 NOSIG RMK
QFE755/1007=
METAR UATG 081300Z 31006G09MPS CAVOK 40/08 Q1008 32CLRD70 NOSIG RMK
QFE758/1011 =
METAR UATT 081300Z 06005MPS 030V100 9999 NSC 33/02 Q1010 13CLRD70
NOSIG RMK QFE738/0984=
METAR UAUU 081300Z 34008MPS CAVOK 26/M03 Q1012 33CLRD70 NOSIG RMK
QFE743/0991=
####018000096####
SAMG20 FMMI 081300
METAR FMMI 081300Z 10008KT 080V150 9999 BKN020 SCT023 17/13 Q1025
NOSIG=
####018000394####
SAPK31 OPKC 081300
METAR OPGD 081300Z NIL=
METAR OPKC 081300Z 24009KTS 8000 SCT030 SCT100 34/24 Q1002 NOSIG=
METAR OPLA 081300Z NIL=
METAR OPNH 081300Z 36005KT 6000M SCT035 SCT100 36/24 Q.1001=
METAR OPPS 081255Z NE-12KTS 6000 HZ FEW040 FEW100 38/24 Q1001.7=
METAR OPRN 081300Z 23014KT 9999 SCT040 39/18 Q1004.0=
METAR OPSK 081255Z 13006KTS 2500 HZ SCT040 SCT100 34/24 QNH 1001 
R.H.
####018000086####
SANL33 EHDB 081255 RRC
METAR EHSA 081255Z AUTO 20008G09KT 9999 17/16 Q1019 W16/S2=
####018000438####
SAAP32 FAPR 081300
METAR FABL 081300Z 36008KT 320V040 9999 FEW050 18/04 Q1030 NOSIG=
METAR FAJS 081300Z 03008KT 350V070 9999 SCT045 17/02 Q1032 NOSIG=
METAR FDMS 081300Z 00000KT 9999 SCT035 19/12 Q1029 NOSIG=
METAR FLLS 081300Z 07014KT 9/9 BKN040 19/08 Q1027=
METAR FQBR 081300Z 19008KT 9999 FEW020 24/18 Q1024=
METAR FQMA 081300Z 10007KT 9999 FEW020 24/16 Q1027 NOSIG=
METAR FXMM 081300Z 36015KT 9999 FEW035 17/M01 Q1032 NOSIG=
####018000141####
SAAG01 SABM 081300 RRB
METAR SACO 081300Z  34005KT CAVOK 11/M05 Q1019=
METAR SAWH 081300Z  27003KT 9999  FEW030 SCT100
00/M05 Q0983=
####018000074####
SAAT31 TQPF 081300
METAR TQPF 081300Z 08013KT 9999 SCT021 30/// Q1016 
####018000263####
SAEQ01 SEQU 081300
METAR
SEQU 081300Z 08001KT 9999 FEW100 SCT300 12/08 Q1027 RMK A3035 
NOSIG=
SEGU 081300Z  20005KT 9999  BKN040 OVC100 23/19 Q1012 NOSIG=
SEMT 081300Z 20006KT 9999 BKN020 BKN100 23/20 Q1013=
SELT 081300Z 00000KT 9999 FEW300 09/06 Q1032=
####018000109####
SAAE31 VTBB 081300 RRA
METAR VYYY 081300Z 27008KT 7000 SCT020 FEW030CB SCT110 29/26 Q
           1007=
####018000390####
SARA35 RUMS 081300
METAR ULDD 081300Z NIL=
METAR UOHH 081300Z 36003MPS 9999 CAVOK 15/04 Q1023 NOSIG RMK QFE761=
METAR UOII 081300Z 29002MPS 160V290 9999 -SHRA BKN026CB BKN100 19/17
Q1008 TEMPO -TSRA RMK QFE753 12////60=
METAR UOOO 081300Z 02008G10MPS CAVOK 21/10 Q1010 NOSIG RMK QFE743
010///60=
METAR USCM 081300Z VRB02MPS 9999 SKC 27/01 Q1014 NOSIG 01090065 RMK
QFE722=
####018000525####
SATH33 VTBB 081300
METAR VTUD 081300Z 14004KT 9999 FEW020CB 32/23 Q1006 A2972 CB S,NW
           INFO O RWY30=
METAR VTUI 081300Z NIL=
METAR VTUK 081300Z 18004KT 160V220 9999 FEW018 CB BKN300 32/22
           Q1006 A2971 TS CB N,W RWY21 INFO O=
METAR VTUU 081300Z NIL=
METAR VTUL 081300Z NIL=
METAR VTUO 081300Z NIL=
METAR VTUW 081300Z 00000KT 9999 FEW026 SCT300 30/24 Q1007 A2974
           RWY15=
METAR VTUQ 081300Z NIL=
METAR VTUV 081300Z NIL=
METAR VTUJ 081300Z NIL=
METAR VTBO 081300Z NIL=
####018000501####
SARA31 RUMS 081300
METAR UEEE 081300Z 26001MPS 9999 -SHRA BKN040CB OVC100 16/14 Q1009
NOSIG RMK QFE748 23290150=
METAR UELL 081300Z VRB01MPS 9999 VCFG SCT030CB BKN200 12/11 Q1012
TEMPO 0600 FG VV003 RMK QFE685 08290050=
METAR UERP 081300Z 02003MPS 9999 SCT040 BKN100 13/06 Q1014 NOSIG RMK
QFE717 35090065=
METAR UERR 081300Z VRB01MPS CAVOK 15/14 Q1012 NOSIG RMK QFE728
24CLRD60=
METAR UESO 081300Z NIL=
METAR UEST 081300Z 15002MPS 9999 -RA OVC130 05/03 Q1017 NOSIG RMK
QFE762=
####018000976####
SARS35 RUMS 081300
METAR USPP 081300Z 35004MPS CAVOK 26/11 Q1015 NOSIG RMK QFE750/1000
21090060=
METAR UWKD 081300Z 28003MPS 250V310 9999 FEW050CB SCT070 32/13 Q1015
TEMPO VRB15MPS 3000 TSRA RMK QFE750/1000 79CLRD70=
METAR UWKE 081300Z NIL=
METAR UWKS 081300Z 07002MPS 030V100 9999 VCTS BKN033CB 27/16 Q1016
NOSIG RMK QFE748 SC0.60=
METAR UWLL 081300Z 08003MPS 9999 SCT050CB 32/10 Q1015 NOSIG RMK
QFE749/0998 SC065=
METAR UWLW 081300Z 02003MPS 8000 FEW040CB 33/14 Q1014 TEMPO -TSRA
02CLRD60 RMK QFE754=
METAR UWOR 081300Z 05005MPS CAVOK 29/00 Q1014 07CLRD65 NOSIG RMK
QFE735/0980=
METAR UWOO 081300Z 05004MPS 020V100 P5000 FEW220 32/02 Q1012 08LRD65
NOSIG RMK QFE748/0998=
METAR UWPP 081300Z 14006MPS 9999 SCT033 BKN100 33/09 Q1013 NOSIG RMK
QFE745 11090060=
METAR UWSS 081300Z 05005MPS CAVOK 31/09 Q1014 NOSIG RMK QFE748
120///60=
METAR UWWW 081300Z 08005MPS 9999 FEW033 BKN200 32/07 Q1014 NOSIG RMK
QFE748/0997 05CLRD60 15//99//=
####018000100####
SATH31 VTBB 081300
METAR VTCT 081300Z 23007KT 9999 SCT030 25/22 Q1008 A2978 RMK/RWY03
INFO N=
####018000395####
SARA33 RUMS 081300
METAR UIAA 081300Z 31005MPS 9999 VCTS -SHRA BKN033CB OVC100 18/15
Q1009 NOSIG RMK     QFE698 29CLRD70=
METAR UIBB 081300Z 06002MPS 9999 BKN200 23/14 Q1006 NOSIG RMK
QFE711/0949 30CLRD60=
METAR UIII 081300Z 16004MPS CAVOK 18/11 Q1006 NOSIG RMK QFE712/0950
12CLRD60=
METAR UIUU 081300Z 00000MPS 9999 SCT033CB OVC100 21/14 Q1007 NOSIG
RMK QFE711/0949 26CLRD60=
####018000348####
SAME31 OLBA 081300
METAR OLBA 081300Z 24007KT CAVOK 29/19 Q1011 NOSIG=
METAR OSDI 081300Z 21020KT CAVOK 38/06 Q1008=
METAR OSAP 081300Z 28016KT CAVOK 34/16 Q1006=
METAR OSLK NIL=
METAR OJAI 081300Z 28010KT CAVOK 33/03 Q1012 NOSIG=
METAR OJAM 081300Z 28009KT 6000 NSC 33/07 Q1011 NOSIG=
METAR OJAQ 081300Z 36016KT CAVOK 39/30 Q1005=
####018000915####
SARS32 RUMS 081300
METAR URKA 081300Z NIL=
METAR URKK 081300Z 05006G09MPS 020V090 9999 BKN043 30/20 Q1011 NOSIG
RMK QFE755 SC070=
METAR URKM 081300Z 07003MPS 9999 SCT040 BKN100 30/17 Q1011 NOSIG RMK
QFE740=
METAR URML 081300Z 08005MPS 9999 FEW100 32/19 Q1012 NOSIG RMK QFE759
/ 07=
METAR URMM 081300Z 12004G07MPS 080V140 9999 BKN046 31/19 Q1012 NOSIG
RMK / SC070=
METAR URMN 081300Z 06003MPS 9999 BKN036CB BKN110 28/19 Q1013 NOSIG
RMK / QFE723 SC07=
METAR URMT 081300Z 05005G08MPS 9999 SCT026CB BKN100 28/17 Q1014 NOSIG
RMK QFE720 SC07=
METAR URRR 081300Z VRB01MPS 9999 FEW036 31/16 Q1013 NOSIG RMK SC070=
METAR URSS 081300Z 29005MPS 9999 FEW040 27/21 Q1009 NOSIG RMK /
QFE755 06CLRD70=
METAR URWA 081300Z 28002MPS CAVOK 38/11 Q1010 NOSIG RMK SC07=
METAR URWI 081300Z VRB02MPS CAVOK 31/16 Q1013 NOSIG RMK SC065=
METAR URWW 081300Z 30004MPS CAVOK 31/11 Q1014 NOSIG RMK SC070=
####018000116####
SATD31 TTPP 081300 RRA
METAR
TTPP 081300Z ///06KT 3000 -RA FEW006 FEW010CB SCT012 BKN035 26/25
Q1013 NOSIG=
####018000582####
SARA32 RUMS 081300
METAR UHHH 081300Z 04002MPS 9999 SCT033CB OVC100 16/15 Q1011 NOSIG
RMK QFE752/1002 55090060=
METAR UHMA 081300Z NIL=
METAR UHMM 081300Z 24002MPS 9999 OVC008 12/11 Q1016 RMK QFE747
88010070 MT OBSC=
METAR UHMP 081300Z NIL=
METAR UHNN 081300Z 08002MPS 9999 -SHRA FEW010 BKN023CB OVC070 11/10
Q1013 RMK QFE755=
METAR UHPP 081300Z NIL=
METAR UHSH 081300Z NIL=
METAR UHSS 081300Z 00000MPS 9999 BKN018 13/12 Q1011 RMK MT OBSC
QFE757/1010=
METAR UHWW 081300Z 22003MPS 9999 SCT013 BKN023CB OVC100 16/15 Q1011
NOSIG RMK QFE757/1010 75CLRD70=
####018000892####
SARA34 RUMS 081300
METAR UNAA 081300Z VRB02MPS 9999 SCT030CB BKN100 18/12 Q1012 NOSIG
RMK QFE736 202///55=
METAR COR UNBB 081300Z 14003MPS 9999 SCT040 SCT100 14/11 Q1009 NOSIG
RMK QFE735=
METAR UNEE 081300Z 18004MPS 9999 SCT026CB BKN066 BKN200 19/09 Q1009
NOSIG RMK QFE734 23CLRD60=
METAR UNKL 081300Z 27005G08MPS 9999 -SHRA VCTS BKN023CB OVC083 13/11
Q1011 TEMPO 26013G18MPS 1000 TSRA RMK QFE732 29////55=
METAR UNNT 081300Z 26005MPS 9999 SCT060CB BKN100 19/05 Q1007 NOSIG
RMK QFE745/0994 25090070=
METAR UNOO 081300Z 31004MPS 9999 BKN030CB 14/10 Q1008 NOSIG 25CLRD06
RMK QFE748=
METAR UNWW 081300Z 14002MPS 9999 SCT026CB OVC130 14/09 Q1011 NOSIG
RMK QFE731 1929//60=
METAR USTR 081300Z 04002MPS 9999 SCT046 19/06 Q1012 NOSIG RMK
QFE750/1000 30CLRD65=
METAR USHH 081300Z 34003G08MPS 280V060 8000 -SHRA SCT015CB OVC080
10/09 Q1009 NOSIG RMK QFE753 SC06=
####018000462####
SARS33 RUMS 081300
METAR ULLI 081300Z 00000MPS 9999 VCTS BKN033CB BKN066 BKN200 30/14
Q1013 TEMPO TSRA=
METAR UUDD 081300Z 17004MPS 130V210 9999 FEW050TCU BKN100 28/15 Q1015
TEMPO VRB12MPS TSRA=
METAR UUEE 081300Z 17005MPS 140V200 9999 SCT050CB BKN200 29/12 Q1015
NOSIG=
METAR UUEM 081300Z NIL=
METAR UUWW 081300Z 19004MPS CAVOK 27/15 Q1015 24000070 NOSIG=
METAR UUMO 081300Z 15004MPS 110V210 CAVOK 27/15 Q1015 NOSIG RMK
QFE746/0995 SC060=
####018000976####
SARS31 RUMS 081300
METAR ULAA 081300Z 30004MPS 270V330 9999 FEW033 28/17 Q1015 TEMPO
TSRA RMK QFE760/1014 SC070=
METAR ULKK 081300Z 34002MPS 6000 FEW033 SCT099 32/16 Q1015 NOSIG RMK
QFE756=
METAR ULMM 081300Z 06001G04MPS 9999 BKN026 17/08 Q1018 NOSIG RMK
QFE756 32190060=
METAR ULOL 081300Z NIL=
METAR ULOO 081300Z VRB01MPS P6000 TS SCT033CB BKN047 BKN200 27/18
Q1012 NOSIG RMK QFE755=
METAR ULWW 081300Z 17004MPS 9999 SCT050TCU BKN/// 32/14 Q1016 NOSIG
RMK QFE751 15CLRD60=
METAR UMKK 081300Z 30006MPS P8000 FEW030 SCT200 22/13 Q1020 NOSIG RMK
QFE 764 SC07=
METAR UUBP 081300Z 36001MPS 9999 BKN033CB BKN/// 25/19 Q1014 NOSIG=
METAR UUOB 081300Z 27004MPS 9999 BKN040CB BKN200 27/17 Q1014 NOSIG
RMK SC065=
METAR UUOK 081300Z 29002MPS 9999 BKN033 29/17 Q1012 NOSIG=
METAR UUOO 081300Z VRB01MPS 9999 SCT033CB BKN100 29/13 Q1014 NOSIG
RMK 13090070=
METAR UWGG 081300Z 13002MPS 100V180 8000 FEW033 34/09 Q1015 NOSIG RMK
QFE754 18090070=
####018000667####
SARA36 RUMS 081300
METAR UWUU 081300Z 36006G09MPS CAVOK 29/10 Q1015 82010060 NOSIG RMK
QFE750/1000=
METAR USCC 081300Z 01006G09MPS 9999 FEW040 FEW200 25/02 Q1013 NOSIG
RMK QFE740 27000070=
METAR USDD 081300Z 05008G11MPS CAVOK 17/00 Q1015 NOSIG RMK
QFE755/1007 SC060=
METAR USMU 081300Z 01005MPS 9999 SCT037CB OVC066 15/13 Q1007 NOSIG
RMK QFE749 09250345=
METAR USNN 081300Z 16004MPS P6000 SCT026 BKN200 18/11 Q1003 NOSIG RMK
QFE748 SC065=
METAR USRK 081300Z 34003MPS 6000 BKN022 OVC066 15/11 Q1004 NOSIG RMK
QFE747 351///55=
METAR USRR 081300Z 34003MPS 7000 OVC012 13/11 Q1005 TEMPO BKN007 RMK
QFE748 25////60=
METAR USSS 081300Z NIL=
####018000089####
SAUK34 EGGY 081250 CCA
METAR COR EGHK 081250Z 15006KT 9999 SCT020 18/15 Q1018 NOSIG=
####018000271####
SARS34 RUMS 081300
METAR UUYH 081300Z 20001MPS CAVOK 27/11 Q1016 NOSIG RMK QFE 750
18CLRD60=
METAR UUYS 081300Z 17003MPS CAVOK 20/07 Q1015 NOSIG RMK QFE754
14CLRD60=
METAR UUYY 081300Z 21003MPS 9999 FEW036 OVC200 30/15 Q1015 NOSIG
19CLRD61 RMK QFE753/1004=
####018000091####
SPUS43 KWBC 081309
SPECI
KMKE 081306Z 28008KT 10SM FEW017 SCT022 BKN080 24/21 A3002=
####018000334####
SAUS43 KWBC 081300 RRB
METAR
K1H2 081305Z AUTO 23006KT 10SM SCT043 27/24 A3006=
KC09 081304Z AUTO 00000KT 2SM BR SCT003 OVC022 22/22 A3003=
KC75 081303Z AUTO 00000KT 10SM BKN008 BKN011 OVC022 24/23
     A3004=
KJOT 081306Z AUTO 00000KT 2 1/2SM BR 24/22 A3003=
KPPQ 081305Z AUTO 30003KT 10SM BKN003 BKN009 23/23 A3008=
####018000088####
SAUS44 KWBC 081300 RRB
METAR
K11R 081304Z AUTO 07005KT 5SM BR OVC006 26/24 A2998=
####018000084####
SPUS53 KWBC 081309
SPECI
KCYS 081306Z 00000KT 10SM SCT008 OVC016 13/12 A3037=
####018000710####
SAAO32 GOOY 081300
METAR GABS 081300Z VRB02KT 9999 FEW030 33/21 Q1015 NOSIG=
METAR GGOV 081300Z 20009KT 140V260 9999 BKN015TCU FEW020CB 31/23
Q1013                    NOSIG=
METAR GOOY 081300Z 16009KT 120V210 9999 SCT013 31/25 Q1012 NOSIG=
METAR DIAP 081300Z 19006KT 160V240 8000 SCT012 BKN020 29/25 Q1014
NOSIG=
METAR GQNN 081300Z 21013KT 6000 NSC 32/23 Q1012 NOSIG=
METAR GQPP 081300Z NIL=
METAR GUCY 081300Z NIL=
METAR GVAC 081300Z 08010KT 9999 BKN014 BKN018 25/20 Q1014 NOSIG=
METAR GFLL 081300Z 15010KT 9999 SCT012 FEW028CB 29/24 Q1013 CB-NE=
METAR GBYD 081300Z VRB03KT SCT012 FEWCB018 BKN120 30/27 Q1013 CB
S-NW=
METAR GLRB 081300Z 25005KT 9999 BKN018 30/25 Q1013 NOSIG=

####018000082####
SPUS53 KWBC 081309
SPECI
KUIN 081306Z AUTO 31004KT 10SM OVC010 23/22 A3007=
####018000084####
SPUS73 KWBC 081309
SPECI
KCYS 081306Z 00000KT 10SM SCT008 OVC016 13/12 A3037=
####018000091####
SPUS73 KWBC 081309
SPECI
KMKE 081306Z 28008KT 10SM FEW017 SCT022 BKN080 24/21 A3002=
####018000082####
SPUS73 KWBC 081309
SPECI
KUIN 081306Z AUTO 31004KT 10SM OVC010 23/22 A3007=
####018000214####
SAXX60 KAWN 081300 RRB
METAR PHNG 081257Z 11007KT 10SM 24/21 A3002 RMK AO2 SLP159 T02390206
      $=
METAR RJTT 081300Z 18014KT 9999 FEW007 SCT010 BKN150 25/23 Q1011 RMK
      1ST007 3CU010 6AC150 A2985=
####018000707####
SAAO32 GOOY 081300
METAR GABS 081300Z VRB02KT 9999 FEW030 33/21 Q1015 NOSIG=
METAR GGOV 081300Z 20009KT 140V260 9999 BKN015TCU FEW020CB 31/23
Q1013                    NOSIG=
METAR GOOY 081300Z 16009KT 120V210 9999 SCT013 31/25 Q1012 NOSIG=
METAR DIAP 081300Z 19006KT 160V240 8000 SCT012 BKN020 29/25 Q1014
NOSIG=
METAR GQNN 081300Z 21013KT 6000 NSC 32/23 Q1012 NOSIG=
METAR GQPP 081300Z NIL=
METAR GUCY 081300Z NIL=
METAR GVAC 081300Z 08010KT 9999 BKN014 BKN018 25/20 Q1014 NOSIG=
METAR GFLL 081300Z 15010KT 9999 SCT012 FEW028CB 29/24 Q1013 CB-NE=
METAR GBYD 081300Z VRB03KT SCT012 FEWCB018 BKN120 30/27 Q1013 CB
S-NW=
METAR GLRB 081300Z 25005KT 9999 BKN018 30/25 Q1013 NOSIG=
####018000122####
SAUS46 KPDT 081309
MTRHMS
METAR KHMS 081250Z 31010KT 15SM SKC 21/06 A2996 RMK SLP142 T02050064
     RSNK 20/01013
####018000073####
SAEG31 HECA 081200 RRA
METAR HEMA 081200Z 02022KT CAVOK 36/17 Q1005=
####018000703####
SAEG31 HECA 081300
METAR HEMM 081300Z 33010KT CAVOK 28/21 Q1012=
HEAX 081300Z 32013KT 9999 FEW020 30/21 Q1010=
HECA 081300Z 31008KT CAVOK 33/17 Q1010=
HELX 081300Z 30012KT CAVOK 40/11 Q1006=
HESN 081300Z NIL=
HEAR 081300Z 33009KT CAVOK 30/22 Q1009=
HEGN 081300Z 36019KT CAVOK 37/09 Q1005=
HEPS 081300Z 34011KT CAVOK 29/23 Q1010=
HEIS 081300Z 33010KT CAVOK 33/18 Q1009=
HESH 081300Z 36012KT CAVOK 39/11 Q1005=
HEAT 081300Z 34014KT CAVOK 36/12 Q1010=
HEBA 081300Z 33015KT CAVOK 29/20 Q1011=
HEBL 081300Z 04014KT CAVOK 40/08 Q1008=
HESC 081300Z 05010KT CAVOK 32/10 Q1018=
HEDF 081300Z NIL=
HETR 081300Z 32019KT CAVOK 32/20 Q1005=
HEMA 081300Z 01020KT CAVOK 34/17 Q1005=
####018000977####
SARS35 RUMS 081300
METAR USPP 081300Z 35004MPS CAVOK 26/11 Q1015 NOSIG RMK QFE750/1000
21090060=
METAR UWKD 081300Z 28003MPS 250V310 9999 FEW050CB SCT070 32/13 Q1015
TEMPO VRB15MPS 3000 TSRA RMK QFE750/1000 79CLRD70=
METAR UWKE 081300Z NIL=
METAR UWKS 081300Z 07002MPS 030V100 9999 VCTS BKN033CB 27/16 Q1016
NOSIG RMK QFE748 SC0.60=
METAR UWLL 081300Z 08003MPS 9999 SCT050CB 32/10 Q1015 NOSIG RMK
QFE749/0998 SC065=
METAR UWLW 081300Z 02003MPS 8000 FEW040CB 33/14 Q1014 TEMPO -TSRA
02CLRD60 RMK QFE754=
METAR UWOR 081300Z 05005MPS CAVOK 29/00 Q1014 07CLRD65 NOSIG RMK
QFE735/0980=
METAR UWOO 081300Z 05004MPS 020V100 P5000 FEW220 32/02 Q1012 08LRD65
NOSIG RMK QFE748/0998=
METAR UWPP 081300Z 14006MPS 9999 SCT033 BKN100 33/09 Q1013 NOSIG RMK
QFE745 11090060=
METAR UWSS 081300Z 05005MPS CAVOK 31/09 Q1014 NOSIG RMK QFE748
120///60=
METAR UWWW 081300Z 08005MPS 9999 FEW033 BKN200 32/07 Q1014 NOSIG RMK
QFE748/0997 05CLRD60 15//99//=
####018001561####
SAIY40 LIIB 081300
METAR LIMG 081250Z 06007KT 9999 FEW060 30/25 Q1020 RMK VIS MIN 9999=
METAR LIMK 081255Z 00000KT CAVOK 21/12 Q1023 RMK SKC VAL NIL VIS MIN
      9999=
METAR LIMN 081255Z /////KT 9999 FEW030 28/17 Q1021 RMK FEW VIS MIN
      9999 BLU=
METAR LIMP 081250Z 07006KT 040V100 CAVOK 29/14 Q1021 RMK VIS MIN
9999=
METAR LIMS 081255Z 13003KT CAVOK 30/15 Q1020 RMK SKC VIS MIN 9999
      WIND THR30 13005KT BLU=
METAR LIMZ 081250Z 32005KT 8000 FEW035 SCT060 25/18 Q1023 RMK VIS
MIN 8000=
METAR LIPA 081255Z 22008KT 9999 FEW050 26/18 Q1021 RMK FEW VIS MIN
      9999 A3017 BLU=
METAR LIPB 081250Z 18013KT CAVOK 30/12 Q1019 RMK MON LIB VIS MIN
9999=
METAR LIPC 081300Z NIL=
METAR LIPF 081255Z 19004KT 9999 FEW035 29/20 Q1021 RMK FEW VIS MIN
      9999=
METAR LIPH 081245Z 13004KT 9999 SCT025 27/20 Q1022 RMK SCT VIS MIN
      9999 WIND THR07 /////KT BLU=
METAR LIPI 081255Z 19008KT CAVOK 27/19 Q1022 RMK SKC VIS MIN 9999
WIND THR06 19007KT BLU=
METAR LIPL 081255Z 06002KT 9999 FEW036 29/17 Q1021 RMK FEW VIS MIN
      9999 BLU=
METAR LIPO 081250Z 24005KT 100V260 9999 FEW050 29/12 Q1020 RMK VIS
MIN 9999=
METAR LIPQ 081250Z 28004KT CAVOK 27/14 Q1022=
METAR LIPR 081245Z 08011KT CAVOK 28/19 Q1021 RMK SKC VIS MIN 9999
      WIND THR31 08012KT BLU=
METAR LIPS 081255Z 00000KT 9999 SCT030 28/17 Q1021 RMK SCT VIS MIN
      9999 BLU=
METAR LIPX 081245Z 20005KT 9999 FEW040 30/14 Q1021 RMK FEW VIS MIN
      9999 BLU=
METAR LIPY 081250Z 06008KT 020V100 CAVOK 27/13 Q1021 RMK VIS MIN
9999=
####018001593####
SAIY42 LIIB 081300
METAR LIBF 081250Z 32018KT CAVOK 28/06 Q1019 RMK VIS MIN 9999=
METAR LIEA 081250Z 21007KT 170V330 9999 FEW025 33/19 Q1019 RMK VIS
MIN 9999=
METAR LIED 081300Z NIL=
METAR LIEO 081250Z 05012KT CAVOK 30/20 Q1019 RMK VIS MIN 9999=
METAR LIMA 081250Z VRB03KT CAVOK 26/16 Q1022 RMK VIS MIN 9999=
METAR LIQN 081250Z 32008KT 9999 FEW045 29/17 Q1021 RMK VIS MIN 9999=
METAR LIQO 081255Z 20005KT 9999 SCT003 29/22 Q1022 RMK SCT VAL NIL NC
      VIS MIN 9999=
METAR LIQW 081300Z NIL=
METAR LIRE 081255Z 24010KT 9999 FEW020 28/20 Q1019 RMK FEW VIS MIN
      9999 WIND THR31 24009KT BLU=
METAR LIRG 081255Z 25010KT 9999 SCT033TCU 31/20 Q1019 RMK SCT MON
     NE LIB NC VIS MIN 9999 BLU=
METAR LIRH 081255Z 28005KT 9999 FEW030 SCT035 FEW040CB 30/20 Q1019
      RMK BKN MON LIB NC VIS MIN 9999 WIND THR16 28006KT BLU=
METAR LIRI 081250Z 03008KT CAVOK 30/12 Q1018 RMK VIS MIN 9999=
METAR LIRK 081255Z 12006KT CAVOK 16/15 Q1027 RMK BKN BKN060 MON NE
      LIB NC VAL NIL NC VIS MIN 9999=
METAR LIRL 081255Z 25008KT 9999 FEW020 30/17 Q1019 RMK FEW MON LIB NC
      VIS MIN 9999 BLU=
METAR LIRM 081255Z 12010KT 9999 FEW016 30/14 Q1019 RMK FEW VIS MIN
      9999 WIND THR06 06005KT BLU=
METAR LIRS 081255Z 23012KT 9999 FEW040 30/21 Q1019 RMK FEW VIS MIN
      9999 WIND THR21 /////KT BLU=
METAR LIRT 081255Z 36009KT CAVOK 18/05 Q1023 RMK SKC MON LIB VAL NIL
      VIS MIN 9999=
METAR LIRU 081250Z 23007KT 9999 SCT040 30/17 Q1020 RMK VIS MIN 9999=
METAR LIRV 081255Z 27013KT 9999 SCT028 29/22 Q1020 RMK SCT MON E SE
//END PART 01//=
####018000141####
SACN49 CWAO 081300 CCA
METAR CYGW 081300Z CCA 14004KT 15SM FEW025 SCT080 BKN120 OVC220 20/15
A2985 RMK SC1AC2AS2CI0 CU EMBD SLP110=

####018000097####
SPNA14 KAWN 081309
SPECI KRIV 081304Z 26003KT 1 1/2SM BR OVC003 13/12 A2992 RMK AO2A SLP130=
####018000118####
SAUS90 KWBC 081300 RRD
METAR KHMS 081250Z 31010KT 15SM SKC 21/06 A2996 RMK SLP142
     T02050064 RSNK 20/01013=
####018000100####
SPUS90 KWBC 081310
SPECI K7R3 081301Z 04004KT6 10SM FEW003 SCT070 26/25 A3002 RMK
     DA012=
####018000086####
SAMC32 GMMC 081300 RRA
METAR GMMC 081300Z 36007KT 5000 SCT016 BKN026 25/20 Q1013=
####018002965####
SAUS20 KNKA 081309
SPECI KBAF 081308Z 15004KT 4SM HZ OVC009 24/22 A3008 RMK AO2 CIG 
    008V012=
SPECI KCNU 081308Z AUTO 07004KT 1 1/2SM BR OVC001 23/22 A3009 RMK 
    AO2=
METAR KGLE 081306Z AUTO 15006KT 10SM SCT070 26/23 A3006 RMK AO2=
SPECI KGOK 081308Z AUTO 00000KT 7SM FEW003 SCT024 23/22 A3006 RMK 
    AO2=
SPECI KGRB 081308Z 31005KT 2 1/2SM BR OVC006 22/21 A3000 RMK AO2 CIG 
    002V008=
METAR KJAS 081306Z AUTO 09006KT 7SM BKN006 26/25 A3004 RMK AO2 
     T02580245=
METAR KJSO 081310Z AUTO 08003KT 4SM BR BKN002 BKN120 24/24 A3007 
     RMK AO2 T02360235=
METAR KJWY 081305Z AUTO 10004KT 7SM 25/23 A3004 RMK AO2 T02480233=
METAR KJXI 081305Z AUTO 12004KT OVC003 25/25 A3007 RMK AO2=
METAR KLBR 081305Z AUTO 13004KT 7SM BKN003 OVC009 25/23 A3006 RMK 
     AO2 T02490233=
METAR KLHB 081304Z AUTO 07007KT 3SM HZ BKN007 26/24 A2999 RMK AO2 
     T02580235=
METAR KLNC 081305Z AUTO 10003KT 7SM BKN055 OVC070 25/25 A3004 RMK 
     AO2 T02470245=
METAR KLUD 081305Z AUTO 13004KT 10SM SCT011 SCT029 SCT065 25/23 
     A3005 RMK AO2 T02480226=
METAR KM30 081306Z AUTO 00000KT 10SM CLR 26/22 A3007 RMK AO2=
METAR KMDD 081300Z AUTO 04006KT 7SM BKN006 OVC014 22/21 A3013 RMK 
     AO2 T02180205=
METAR KMKN 081300Z AUTO 00000KT 9SM 24/24 A3006 RMK AO2=
METAR KMNZ 081310Z AUTO 08003KT 7SM BKN005 OVC010 25/25 A3004 RMK 
     AO2 T02460246=
METAR KMQB 081305Z AUTO 00000KT 10SM OVC006 23/22 A3008 RMK AO2 
     T02320221=
METAR KOSA 081304Z AUTO 00000KT 5SM OVC004 25/24 A3007 RMK AO1 
     T02490244=
METAR KPEZ 081305Z AUTO 04005KT 7SM SCT011 BKN018 OVC049 25/24 
     A2993 RMK AO2 T02520235=
METAR KPKV 081306Z AUTO 10012G20KT 3/4SM +RA BKN005 BKN011 OVC017 
     25/23 A2989 RMK AO2 P0038 T02460228=
METAR KPPA 081305Z AUTO 02005KT 7SM OVC003 18/17 A3021 RMK AO2=
METAR KPSN 081305Z AUTO 08006KT 7SM 25/24 A3004 RMK AO2 T02460235=
METAR KPYX 081310Z AUTO 36005KT 5SM OVC004 19/18 A3019 RMK AO2 
     T01870180=
METAR KRBO 081305Z AUTO 03007KT 10SM SCT005 SCT024 BKN042 26/25 
     A2984 RMK AO2 LTG DSNT SE T02620253=
METAR KRFI 081305Z AUTO 00000KT 5SM BR BKN100 25/23 A3005 RMK AO2 
     T02490232=
METAR KRPH 081305Z AUTO 00000KT 10SM CLR 24/22 A3003 RMK AO2 
     T02370215=
METAR KRWV 081300Z AUTO 06006KT 5SM  BR OVC006 25/24 A3001 RMK AO2=
METAR KSEP 081305Z AUTO 07003KT 4SM BKN002 BKN006 OVC044 23/22 
     A3005 RMK AO1=
METAR KSLR 081302Z AUTO 13005KT 5SM HZ SCT008 OVC060 26/24 A3007 
     RMK AO2 T02640235=
METAR KSNK 081306Z AUTO 04008KT 10SM BKN005 OVC011 21/20 A3012 
     RMK AO2 T02080197=
METAR KSWW 081305Z AUTO 02004KT 1 1/2SM OVC002 22/21 A3012 RMK 
     AO1 T02170213=
METAR KT65 081305Z AUTO 01006KT 10SM VCTS SCT060 26/25 A2979 RMK 
     AO2 T02630249=
SPECI KTAN 081308Z AUTO VRB05KT 10SM BKN016 26/21 A3009 RMK AO2=
SPECI KVIH 081308Z AUTO 00000KT 8SM -RA SCT007 BKN015 BKN046 24/22 
    A3008 RMK AO2 P0000=
####018000116####
SAHW31 KMSC 081309
SPECI PHTO 081308Z 27005KT 10SM FEW027 BKN033 OVC040 21/19 A3002 RMK 
    AO2 RAE08 P0002=
####018000087####
SPCN42 CWAO 081306
SPECI CYUA 081306Z AUTO 21008KT 9SM FEW023 OVC030 06/ A3006=

####018000120####
SPCN47 CWAO 081308
SPECI CYMO 081308Z AUTO 30010KT 2 3/8SM RA FEW038 OVC067 19/18 A2990
RMK VSBY VRBL 1.5V9.+=

####018000075####
SPCN44 CWAO 081304
SPECI CYUS 081304Z AUTO ///// 9SM CLR 13/ A2979=

####018001693####
SAZZ40 KAWN 081300 RRO
METAR CWAE 081300Z 00000KT 15SM SKC 11/08 A3013 RMK SLP192=
METAR CYBR 081300Z 26004KT 15SM SCT053 BKN240 13/12 A3010 RMK SC3CI1
      SLP200=
METAR CYPC 081300Z 32022KT 15SM OVC012 06/04 A2992 RMK SC8 9.7/5.5/0.6MM
      SLP134=
METAR DAAE 081300Z 09010KT CAVOK 29/22 Q1019=
METAR DAUA 081300Z 36019KT 7000 DRSA NSC 44/07 Q1012=
METAR FKKD 081300Z VRB04KT 9999 BKN016 FEW020CB BKN120 28/25 Q1013
      TEMPO 4000 TSRA BKN013 SCT016CB BKN100=
METAR FKYS 081300Z 25003KT 210V280 9999 BKN016 26/20 Q1016 NOSIG=
METAR LKKV 081300Z VRB03KT CAVOK 24/10 Q1023 RMK REG QNH 1020=
METAR MGPB 081300Z 00000KT 9999 SCT018 OVC090 24/23 Q1011 A2986=
METAR MGQZ 081300Z 00000KT 7000 FEW008 BKN070 12/12 QFE 767/2 BR=
METAR MGZA 081300Z 00000KT CAVOK 24/22 QFE 987/2 FEW070 OVC100=
METAR MUCU 081257Z VRB02KT 9000 FEW020CB 27/23 Q1016=
METAR OIII 081300Z 12006KT CAVOK 40/M04 Q1012 A2989 877/5=
METAR PHNG 081257Z 11007KT 10SM 24/21 A3002 RMK AO2 SLP159 T02390206
      $=
METAR TGPY 081300Z 08012KT 9999 FEW019 SCT038 FEW///CB 27/25 Q1013
      CB TOP SE-SSE=
METAR UACC 081300Z 32006MPS CAVOK 23/02 Q1008 220/0070 NOSIG RMK QFE725/0967=
METAR UAFM 081300Z 24006MPS CAVOK 32/08 Q1012 TEMPO 24007G12MPS FCST
      WS=
METAR UATT 081300Z 06005MPS 030V100 9999 NSC 33/02 Q1010 13CLRD70 NOSIG
      RMK QFE738/0984=
METAR ZBHH 081300Z 17001MPS 9999 SCT040 FEW040TCU 26/12 Q1009 NOSIG=
METAR ZHHH 081300Z 04002MPS 9999 SCT010 BKN030 25/25 Q1004 NOSIG=
METAR ZSNJ 081300Z 04001MPS 2200 BR BKN023 27/23 Q1004 NOSIG=
METAR ZUCK 081300Z 12002MPS 3000 BR NSC 28/25 Q1003 NOSIG=
METAR ZWSH 081300Z 19003MPS CAVOK 32/M00 Q1012 NOSIG=
####018000487####
SPUS99 KWBC 081310
SPECI
KBAF 081308Z 15004KT 4SM HZ OVC009 24/22 A3008 RMK AO2 CIG
     008V012=
KCNU 081308Z AUTO 07004KT 1 1/2SM BR OVC001 23/22 A3009 RMK
     AO2=
KGOK 081308Z AUTO 00000KT 7SM FEW003 SCT024 23/22 A3006 RMK
     AO2=
KGRB 081308Z 31005KT 2 1/2SM BR OVC006 22/21 A3000 RMK AO2 CIG
     002V008=
KTAN 081308Z AUTO VRB05KT 10SM BKN016 26/21 A3009 RMK AO2=
KVIH 081308Z AUTO 00000KT 8SM -RA SCT007 BKN015 BKN046 24/22 A3008
     RMK AO2 P0000=
####018002283####
SAUS99 KWBC 081310
METAR
KGLE 081306Z AUTO 15006KT 10SM SCT070 26/23 A3006 RMK AO2=
KJAS 081306Z AUTO 09006KT 7SM BKN006 26/25 A3004 RMK AO2
     T02580245=
KJSO 081310Z AUTO 08003KT 4SM BR BKN002 BKN120 24/24 A3007 RMK AO2
     T02360235=
KJWY 081305Z AUTO 10004KT 7SM 25/23 A3004 RMK AO2 T02480233=
KJXI 081305Z AUTO 12004KT OVC003 25/25 A3007 RMK AO2=
KLBR 081305Z AUTO 13004KT 7SM BKN003 OVC009 25/23 A3006 RMK AO2
     T02490233=
KLHB 081304Z AUTO 07007KT 3SM HZ BKN007 26/24 A2999 RMK AO2
     T02580235=
KLNC 081305Z AUTO 10003KT 7SM BKN055 OVC070 25/25 A3004 RMK AO2
     T02470245=
KLUD 081305Z AUTO 13004KT 10SM SCT011 SCT029 SCT065 25/23 A3005
     RMK AO2 T02480226=
KM30 081306Z AUTO 00000KT 10SM CLR 26/22 A3007 RMK AO2=
KMDD 081300Z AUTO 04006KT 7SM BKN006 OVC014 22/21 A3013 RMK AO2
     T02180205=
KMKN 081300Z AUTO 00000KT 9SM 24/24 A3006 RMK AO2=
KMNZ 081310Z AUTO 08003KT 7SM BKN005 OVC010 25/25 A3004 RMK AO2
     T02460246=
KMQB 081305Z AUTO 00000KT 10SM OVC006 23/22 A3008 RMK AO2
     T02320221=
KOSA 081304Z AUTO 00000KT 5SM OVC004 25/24 A3007 RMK AO1
     T02490244=
KPEZ 081305Z AUTO 04005KT 7SM SCT011 BKN018 OVC049 25/24 A2993 RMK
     AO2 T02520235=
KPKV 081306Z AUTO 10012G20KT 3/4SM +RA BKN005 BKN011 OVC017 25/23
     A2989 RMK AO2 P0038 T02460228=
KPPA 081305Z AUTO 02005KT 7SM OVC003 18/17 A3021 RMK AO2=
KPSN 081305Z AUTO 08006KT 7SM 25/24 A3004 RMK AO2 T02460235=
KPYX 081310Z AUTO 36005KT 5SM OVC004 19/18 A3019 RMK AO2
     T01870180=
KRBO 081305Z AUTO 03007KT 10SM SCT005 SCT024 BKN042 26/25 A2984
     RMK AO2 LTG DSNT SE T02620253=
KRFI 081305Z AUTO 00000KT 5SM BR BKN100 25/23 A3005 RMK AO2
     T02490232=
KRPH 081305Z AUTO 00000KT 10SM CLR 24/22 A3003 RMK AO2
     T02370215=
KRWV 081300Z AUTO 06006KT 5SM BR OVC006 25/24 A3001 RMK AO2=
KSEP 081305Z AUTO 07003KT 4SM BKN002 BKN006 OVC044 23/22 A3005 RMK
     AO1=
KSLR 081302Z AUTO 13005KT 5SM HZ SCT008 OVC060 26/24 A3007 RMK AO2
     T02640235=
KSNK 081306Z AUTO 04008KT 10SM BKN005 OVC011 21/20 A3012 RMK AO2
     T02080197=
KSWW 081305Z AUTO 02004KT 1 1/2SM OVC002 22/21 A3012 RMK AO1
     T02170213=
KT65 081305Z AUTO 01006KT 10SM VCTS SCT060 26/25 A2979 RMK AO2
     T02630249=
####018000329####
SAEW37 LEMM 081300
METAR LEBR 081300Z AUTO 10011KT CAVOK 38/15 Q1017=
METAR LEGA 081300Z NIL=
METAR LEGT 081300Z 14009KT CAVOK 30/14 Q1019=
METAR LEMO 081300Z 26005KT 190V300 CAVOK 32/18
Q1016 NOSIG=
METAR LERI 081300Z 07012KT 020V120 CAVOK 34/21 Q1018 NOSIG=
METAR LERT 081300Z 29007KT 230V340 CAVOK 26/20 Q1016 NOSIG=
####018000752####
SACI31 ZBBB 081300
METAR ZBAA 081300Z 18005MPS CAVOK 30/16 Q1005 NOSIG=
METAR ZBSJ 081300Z 15002MPS 8000 NSC 28/20 Q1005 NOSIG=
METAR ZBTJ 081300Z 14003MPS CAVOK 26/17 Q1006 NOSIG=
METAR ZBYN 081300Z 09006MPS CAVOK 27/15 Q1009 NOSIG=
METAR ZGGG 081300Z 16003MPS 9999 SCT033 32/25 Q1006 NOSIG=
METAR ZSHC 081300Z VRB02MPS 5000 BR SCT026 26/24 Q1005 NOSIG=
METAR ZSPD 081300Z 11005MPS 9999 BKN009 27/24 Q1006 NOSIG=
METAR ZSSS 081300Z 12004G09MPS 080V150 9999 BKN015 27/23 Q1005 BECMG
 BKN011
 OVC040=
METAR ZWSH 081300Z 19003MPS CAVOK 32/M00 Q1012 NOSIG=
METAR ZWWW 081300Z 21004MPS 9999 FEW033CB 31/08 Q1011 NOSIG=
METAR ZYTL 081300Z 34004MPS 5000 BR SCT033 23/20 Q1008 NOSIG=
METAR ZYTX 081300Z VRB01MPS 9999 FEW030 20/18 Q1007 NOSIG=
####018000137####
SAEW40 LEMM 081300
METAR LEBG 081300Z 14010KT 110V180 9999 SCT045 32/12 Q1020=
METAR LEHC 081300Z 12009KT 070V150 CAVOK 35/16 Q1020=
####018000424####
SAMG20 FMMI 081300
METAR 081300Z
METAR FMNA 081300Z 12023KT 9999 SCT020 SCT040 25/18 Q1016=
METAR FMNM 081300Z 16008KT CAVOK 31/13 Q1015=
METAR FMMI 081300Z 10008KT 080V150 9999 BKN020 SCT023 17/13 Q1025
 NOSIG=
METAR FMMT 081300Z 20014KT 9999 VCSH SCT017 BKN033 23/21 Q1021=
METAR FMSD 081300Z 08014KT 8000 VCSH SCT017 BKN033 20/18 Q1025=
METAR FMCH 081300Z 21010KT 170V240 9999 FEW025 SCT030 28/19 Q1018
NOSIG=
####018000400####
SAPL31 EPWA 081300
METAR EPWA 081300Z 31010KT 270V340 CAVOK 23/11 Q1020 NOSIG=
METAR EPGD 081300Z 08009KT 040V110 9999 FEW036 24/13 Q1021=
METAR EPKK 081300Z VRB03KT CAVOK 24/06 Q1022=
METAR EPPO 081300Z VRB05KT CAVOK 25/07 Q1021=
METAR EPRZ 081300Z 30008KT 260V340 9999 FEW046 23/10 Q1021=
METAR EPBY 081300Z 35004KT 300V040 CAVOK 25/08 Q1021=
METAR EPZG 081300Z 23005KT CAVOK 27/07 Q1021=
####018000314####
SAPL32 EPWA 081300
METAR EPKT 081300Z 35004KT CAVOK 23/08 Q1022=
METAR EPLL 081300Z 35007G17KT CAVOK 23/05 Q1022=
METAR EPSC 081300Z 00000KT CAVOK 25/11 Q1021=
METAR EPWR 081300Z 08002KT CAVOK 26/10 Q1022=
METAR EPBY 081300Z 35004KT 300V040 CAVOK 25/08 Q1021=
METAR EPZG 081300Z 23005KT CAVOK 27/07 Q1021=
####018000080####
SAFR37 LFPW 081300 RRA
METAR LFPM 081304Z 19005KT 120V260 CAVOK 32/11 Q1018=
####018000358####
SAPO31 LPMG 081300
METAR LPFR 081300Z 24010KT 9999 FEW012 24/20 Q1016=
METAR LPMA 081300Z VRB07G18KT 9999 FEW016 24/17 Q1020 RS17006KT
0519006KT 2302015KT=
METAR LPPR 081300Z 21006KT 180V260 7000 SCT006 BKN007 21/18 Q1016=
METAR LPPS 081300Z 01011KT 350V050 9999 FEW016 SCT030 23/15 Q1021=
METAR LPPT 081300Z 27009KT 230V310 CAVOK 29/19 Q1016 NOSIG=
####018000088####
SAHK31 VHHH 081300
METAR VHHH 081300Z 19007KT 140V240 9999 FEW020 31/25 Q1007 NOSIG=
####018001724####
SAIY40 LIIB 081300
METAR LIMG 081250Z 06007KT 9999 FEW060 30/25 Q1020 RMK VIS MIN 9999=
METAR LIMK 081255Z 00000KT CAVOK 21/12 Q1023 RMK SKC VAL NIL VIS MIN
      9999=
METAR LIMN 081255Z /////KT 9999 FEW030 28/17 Q1021 RMK FEW VIS MIN
      9999 BLU=
METAR LIMP 081250Z 07006KT 040V100 CAVOK 29/14 Q1021 RMK VIS MIN
9999=
METAR LIMS 081255Z 13003KT CAVOK 30/15 Q1020 RMK SKC VIS MIN 9999
      WIND THR30 13005KT BLU=
METAR LIMZ 081250Z 32005KT 8000 FEW035 SCT060 25/18 Q1023 RMK VIS
MIN 8000=
METAR LIPA 081255Z 22008KT 9999 FEW050 26/18 Q1021 RMK FEW VIS MIN
      9999 A3017 BLU=
METAR LIPB 081250Z 18013KT CAVOK 30/12 Q1019 RMK MON LIB VIS MIN
9999=
METAR LIPC 081300Z NIL=
METAR LIPF 081255Z 19004KT 9999 FEW035 29/20 Q1021 RMK FEW VIS MIN
      9999=
METAR LIPH 081245Z 13004KT 9999 SCT025 27/20 Q1022 RMK SCT VIS MIN
      9999 WIND THR07 /////KT BLU=
METAR LIPI 081255Z 19008KT CAVOK 27/19 Q1022 RMK SKC VIS MIN 9999
    WIND THR06 19007KT BLU=
METAR LIPL 081255Z 06002KT 9999 FEW036 29/17 Q1021 RMK FEW VIS MIN
      9999 BLU=
METAR LIPO 081250Z 24005KT 100V260 9999 FEW050 29/12 Q1020 RMK VIS
MIN 9999=
METAR LIPQ 081250Z 28004KT CAVOK 27/14 Q1022=
METAR LIPR 081245Z 08011KT CAVOK 28/19 Q1021 RMK SKC VIS MIN 9999
      WIND THR31 08012KT BLU=
METAR LIPS 081255Z 00000KT 9999 SCT030 28/17 Q1021 RMK SCT VIS MIN
      9999 BLU=
METAR LIPX 081245Z 20005KT 9999 FEW040 30/14 Q1021 RMK FEW VIS MIN
      9999 BLU=
METAR LIPY 081250Z 06008KT 020V100 CAVOK 27/13 Q1021 RMK VIS MIN
9999=
METAR LIVC 081255Z 00000KT 9999 SCT001 16/11 Q1031 RMK SCT MON LIB
      VAL NIL VIS MIN 9999=
METAR LIVP 081255Z VRB03KT 9999 FEW003 15/11 Q1029 RMK FEW MON LIB
      VAL NIL VIS MIN 9999=
####018000173####
SAUS80 KWBC 081300 RRE
METAR
KHMS 081250Z 31010KT 15SM SKC 21/06 A2996 RMK SLP142 T02050064
     RSNK 20/01013=
KMKN 081300Z AUTO 00000KT 9SM 24/24 A3006 RMK AO2=
####018001802####
SAUS70 KWBC 081310 RRA
METAR
KJAS 081306Z AUTO 09006KT 7SM BKN006 26/25 A3004 RMK AO2
     T02580245=
KJSO 081310Z AUTO 08003KT 4SM BR BKN002 BKN120 24/24 A3007 RMK AO2
     T02360235=
KJWY 081305Z AUTO 10004KT 7SM 25/23 A3004 RMK AO2 T02480233=
KJXI 081305Z AUTO 12004KT OVC003 25/25 A3007 RMK AO2=
KLBR 081305Z AUTO 13004KT 7SM BKN003 OVC009 25/23 A3006 RMK AO2
     T02490233=
KLHB 081304Z AUTO 07007KT 3SM HZ BKN007 26/24 A2999 RMK AO2
     T02580235=
KLNC 081305Z AUTO 10003KT 7SM BKN055 OVC070 25/25 A3004 RMK AO2
     T02470245=
KLUD 081305Z AUTO 13004KT 10SM SCT011 SCT029 SCT065 25/23 A3005
     RMK AO2 T02480226=
KM30 081306Z AUTO 00000KT 10SM CLR 26/22 A3007 RMK AO2=
KMNZ 081310Z AUTO 08003KT 7SM BKN005 OVC010 25/25 A3004 RMK AO2
     T02460246=
KMQB 081305Z AUTO 00000KT 10SM OVC006 23/22 A3008 RMK AO2
     T02320221=
KOSA 081304Z AUTO 00000KT 5SM OVC004 25/24 A3007 RMK AO1
     T02490244=
KPEZ 081305Z AUTO 04005KT 7SM SCT011 BKN018 OVC049 25/24 A2993 RMK
     AO2 T02520235=
KPKV 081306Z AUTO 10012G20KT 3/4SM +RA BKN005 BKN011 OVC017 25/23
     A2989 RMK AO2 P0038 T02460228=
KPPA 081305Z AUTO 02005KT 7SM OVC003 18/17 A3021 RMK AO2=
KPYX 081310Z AUTO 36005KT 5SM OVC004 19/18 A3019 RMK AO2
     T01870180=
KRBO 081305Z AUTO 03007KT 10SM SCT005 SCT024 BKN042 26/25 A2984
     RMK AO2 LTG DSNT SE T02620253=
KRPH 081305Z AUTO 00000KT 10SM CLR 24/22 A3003 RMK AO2
     T02370215=
KSLR 081302Z AUTO 13005KT 5SM HZ SCT008 OVC060 26/24 A3007 RMK AO2
     T02640235=
KSNK 081306Z AUTO 04008KT 10SM BKN005 OVC011 21/20 A3012 RMK AO2
     T02080197=
KSWW 081305Z AUTO 02004KT 1 1/2SM OVC002 22/21 A3012 RMK AO1
     T02170213=
KT65 081305Z AUTO 01006KT 10SM VCTS SCT060 26/25 A2979 RMK AO2
     T02630249=
####018000622####
SPUS70 KWBC 081310
SPECI
K7R3 081301Z 04004KT6 10SM FEW003 SCT070 26/25 A3002 RMK DA012=
KOVS 081307Z AUTO 32006KT 10SM OVC011 22/20 A3006 RMK AO2=
KCRS 081306Z AUTO 08005KT 10SM FEW008 BKN013 BKN022 26/24 A3002
     RMK AO2=
KBAF 081308Z 15004KT 4SM HZ OVC009 24/22 A3008 RMK AO2 CIG
     008V012=
KGOK 081308Z AUTO 00000KT 7SM FEW003 SCT024 23/22 A3006 RMK
     AO2=
KGRB 081308Z 31005KT 2 1/2SM BR OVC006 22/21 A3000 RMK AO2 CIG
     002V008=
KTAN 081308Z AUTO VRB05KT 10SM BKN016 26/21 A3009 RMK AO2=
KVIH 081308Z AUTO 00000KT 8SM -RA SCT007 BKN015 BKN046 24/22 A3008
     RMK AO2 P0000=
####018000277####
SAXX60 KWBC 081300 RRH
METAR
KNGU 081259Z 07008KT 10SM FEW012 SCT070 BKN100 27/20 A3001 RMK AO2
     SLP163 T02720200=
PHNG 081257Z 11007KT 10SM 24/21 A3002 RMK AO2 SLP159 T02390206
     $=
PHNG 081257Z 11007KT 10SM 24/21 A3002 RMK AO2 SLP159 T02390206
     $=
####018000409####
SAMG20 FMMI 081300
METAR FMNA 081300Z 12023KT 9999 SCT020 SCT040 25/18 Q1016=
METAR FMNM 081300Z 16008KT CAVOK 31/13 Q1015=
METAR FMMI 081300Z 10008KT 080V150 9999 BKN020 SCT023 17/13 Q1025
 NOSIG=
METAR FMMT 081300Z 20014KT 9999 VCSH SCT017 BKN033 23/21 Q1021=
METAR FMSD 081300Z 08014KT 8000 VCSH SCT017 BKN033 20/18 Q1025=
METAR FMCH 081300Z 21010KT 170V240 9999 FEW025 SCT030 28/19 Q1018
NOSIG=
####018000314####
SAUS80 KWBC 081310
METAR
KCIR 081302Z AUTO 23004KT 10SM SCT120 28/23 A3007 RMK AO2=
KPSN 081305Z AUTO 08006KT 7SM 25/24 A3004 RMK AO2 T02460235=
KRFI 081305Z AUTO 00000KT 5SM BR BKN100 25/23 A3005 RMK AO2
     T02490232=
KSEP 081305Z AUTO 07003KT 4SM BKN002 BKN006 OVC044 23/22 A3005 RMK
     AO1=
####018000462####
SAUS70 KWBC 081300 RRI
METAR
KGOP 081300Z AUTO 00000KT 8SM SCT007 BKN046 25/24 A3004 RMK
     AO2=
KHBV 081300Z AUTO 36009KT 10SM BKN008 BKN015 OVC021 25/24 A2988
     RMK AO2 LTG DSNT SE T02510235=
KTZR 081255Z 00000KT 7SM SKC 27/20 A3009=
KMZZ 081255Z AUTO 19004KT 7SM BKN095 25/20 A3007 RMK AO2=
KMDD 081300Z AUTO 04006KT 7SM BKN006 OVC014 22/21 A3013 RMK AO2
     T02180205=
KRWV 081300Z AUTO 06006KT 5SM BR OVC006 25/24 A3001 RMK AO2=
####018000192####
SPUS80 KWBC 081310
SPECI
PHTO 081308Z 27005KT 10SM FEW027 BKN033 OVC040 21/19 A3002 RMK AO2
     RAE08 P0002=
KCNU 081308Z AUTO 07004KT 1 1/2SM BR OVC001 23/22 A3009 RMK
     AO2=
####018001681####
SAIY42 LIIB 081300
METAR LIBF 081250Z 32018KT CAVOK 28/06 Q1019 RMK VIS MIN 9999=
METAR LIEA 081250Z 21007KT 170V330 9999 FEW025 33/19 Q1019 RMK VIS
MIN 9999=
METAR LIED 081300Z NIL=
METAR LIEO 081250Z 05012KT CAVOK 30/20 Q1019 RMK VIS MIN 9999=
METAR LIMA 081250Z VRB03KT CAVOK 26/16 Q1022 RMK VIS MIN 9999=
METAR LIQN 081250Z 32008KT 9999 FEW045 29/17 Q1021 RMK VIS MIN 9999=
METAR LIQO 081255Z 20005KT 9999 SCT003 29/22 Q1022 RMK SCT VAL NIL NC
      VIS MIN 9999=
METAR LIQW 081300Z NIL=
METAR LIRE 081255Z 24010KT 9999 FEW020 28/20 Q1019 RMK FEW VIS MIN
      9999 WIND THR31 24009KT BLU=
METAR LIRG 081255Z 25010KT 9999 SCT033TCU 31/20 Q1019 RMK SCT MON
     NE LIB NC VIS MIN 9999 BLU=
METAR LIRH 081255Z 28005KT 9999 FEW030 SCT035 FEW040CB 30/20 Q1019
      RMK BKN MON LIB NC VIS MIN 9999 WIND THR16 28006KT BLU=
METAR LIRI 081250Z 03008KT CAVOK 30/12 Q1018 RMK VIS MIN 9999=
METAR LIRK 081255Z 12006KT CAVOK 16/15 Q1027 RMK BKN BKN060 MON NE
      LIB NC VAL NIL NC VIS MIN 9999=
METAR LIRL 081255Z 25008KT 9999 FEW020 30/17 Q1019 RMK FEW MON LIB NC
      VIS MIN 9999 BLU=
METAR LIRM 081255Z 12010KT 9999 FEW016 30/14 Q1019 RMK FEW VIS MIN
      9999 WIND THR06 06005KT BLU=
METAR LIRS 081255Z 23012KT 9999 FEW040 30/21 Q1019 RMK FEW VIS MIN
      9999 WIND THR21 /////KT BLU=
METAR LIRT 081255Z 36009KT CAVOK 18/05 Q1023 RMK SKC MON LIB VAL NIL
      VIS MIN 9999=
METAR LIRU 081250Z 23007KT 9999 SCT040 30/17 Q1020 RMK VIS MIN 9999=
METAR LIRV 081255Z 27013KT 9999 SCT028 29/22 Q1020 RMK SCT MON E SE
      LIB NC VIS MIN 9999 BLU=
METAR LIRX 081300Z NIL=
METAR LIRZ 081250Z 02010KT 330V060 9999 FEW040 31/11 Q1020 RMK VIS
MIN 9999=
####018000124####
SPXX60 KWBC 081310
SPECI
KNKX 081306Z 00000KT 10SM DZ OVC008 16/14 A2991 RMK AO2 RAE02DZB02
     CIG 005V011 P0000=
####018003744####
SAUS70 KWBC 081310
METAR
KGVT 081305Z AUTO 12003KT 10SM OVC049 25/23 A3006 RMK AO2=
KGWB 081305Z AUTO 22004KT 10SM CLR 28/17 A3006 RMK AO2=
KGYI 081304Z AUTO 15008KT 25/24 A3005 RMK AO2 T02520243 PWINO=
KHRX 081305Z AUTO 01010KT 10SM OVC022 18/17 A3023 RMK AO2
     T01780165=
KHSB 081305Z AUTO 21004KT 10SM CLR 26/22 A3006 RMK AO2=
KIJX 081305Z AUTO 25004KT 7SM SCT007 24/23 A3007 RMK AO2
     T02410232=
KINJ 081305Z AUTO 08005KT 5SM BR SCT070 BKN080 25/23 A3003 RMK AO2
     T02480232=
KJDD 081305Z AUTO 00000KT 6SM BR BKN005 BKN011 26/25 A3006 RMK
     AO2=
KOLY 081303Z AUTO 00000KT 7SM SCT060 28/23 A3005 RMK AO2=
KPNT 081305Z AUTO 00000KT 10SM BKN027 OVC039 24/23 A3004 RMK
     AO2=
KPRG 081305Z AUTO 24005KT 10SM CLR 27/23 A3006 RMK AO2
     T02700235=
KRPJ 081305Z AUTO 29004KT 7SM BKN005 23/21 A3005 RMK AO2
     T02260206=
KRSV 081302Z AUTO 23005KT 10SM CLR 29/24 A3007 RMK AO2
     T02860236=
K3LF 081303Z AUTO 23006KT 2 1/2SM +RA SCT009 BKN021 OVC090 25/23
     A3006 RMK AO2 P0004 LTG DSNT SW=
K6R3 081301Z AUTO 08005KT 5SM BR OVC006 25/25 A2999 RMK AO2
     T02500251=
KASW 081305Z AUTO 23004KT 10SM SCT075 28/21 A3005 RMK AO2
     T02800209=
KAXH 081305Z AUTO 07006KT 7SM RA SCT042 SCT050 OVC075 25/24 A2994
     RMK AO2 T02510235=
KBBD 081305Z AUTO 09004KT 10SM FEW008 OVC050 23/22 A3005 RMK=
KBEA 081303Z AUTO 04008KT 10SM -DZ BKN005 BKN020 OVC028 25/25
     A2988 RMK AO2 LTG DSNT S T02450245=
KBKD 081301Z AUTO 10004KT 7SM SCT002 BKN014 OVC027 24/23 A3005 RMK
     AO2 T02400232=
KBKS 081306Z AUTO 36007KT 10SM OVC006 26/25 A2982 RMK AO1
     T02620248=
KBPC 081308Z AUTO 36004KT 10SM OVC006 20/19 A3019 RMK AO2=
KBPG 081305Z AUTO 02007KT 10SM BKN006 OVC014 22/21 A3013 RMK AO1
     T02200205=
KBYY 081306Z AUTO 07007KT 4SM -RA SCT019 BKN032 BKN042 27/26 A2990
     RMK AO2 T02660260=
KCPT 081305Z AUTO 07004KT 5SM BR SCT006 BKN026 OVC045 24/24 A3006
     RMK AO2=
KCVB 081304Z AUTO 06006KT 7SM CLR 26/24 A2996 RMK AO2
     T02550243=
KCWC 081305Z AUTO 09003KT 10SM SCT021 25/23 A3005 RMK AO2
     T02510225=
KDKB 081301Z AUTO 28004KT 7SM BKN009 BKN016 22/22 A3004 RMK AO2
     T02200216=
KDKR 081305Z AUTO 09005KT 5SM BR CLR 26/26 A3004 RMK AO2=
KDNV 081305Z AUTO 00000KT 7SM CLR 26/22 A3002 RMK AO2
     T02610223=
KDUX 081307Z AUTO 33004KT 5SM DZ SCT004 SCT033 OVC046 18/17 A3024
     RMK AO2 T01770171=
KDZB 081305Z AUTO 06003KT 4SM BR BKN005 BKN009 BKN022 25/25 A2999
     RMK AO2 LTG DSNT SE T02450245=
KE38 081305Z AUTO 00000KT 10SM CLR 18/17 A3023 RMK AO2
     T01760171=
KEBG 081306Z AUTO 01009G15KT 10SM OVC005 27/25 A2980 RMK AO2
     T02670253=
KECU 081305Z AUTO 04005KT 8SM CLR 23/22 A3010 RMK AO2=
KENL 081304Z AUTO 22007KT 10SM SCT047 BKN065 BKN090 27/19 A3005
     RMK AO2 T02710188=
KERV 081305Z AUTO 06003KT 10SM SCT016 BKN026 OVC030 25/22 A3001
     RMK AO2 T02470222=
KF05 081304Z AUTO 06003KT 10SM BKN032 OVC038 24/22 A3006 RMK AO2
     T02440224=
KFEP 081305Z AUTO 30004KT 5SM HZ OVC006 24/21 A3006 RMK AO2
     T02360213=
KFOA 081305Z AUTO 18004KT 10SM CLR 29/26 A3006 RMK AO2
     T02900264=
KFWC 081305Z AUTO 21003KT 10SM CLR 27/24 A3006 RMK AO2=
KFWS 081305Z AUTO 00000KT 4SM DZ BKN005 BKN011 OVC019 25/24 A3005
     RMK AO2 T02480235=
KGBG 081305Z AUTO 00000KT 10SM OVC004 23/22 A3005 RMK AO2=
KGDJ 081304Z AUTO 10004KT 10SM BKN008 OVC049 26/24 A3005 RMK AO2
     T02580238=
KGNC 081305Z AUTO 02005KT 5SM -DZ SCT011 SCT022 BKN050 20/20 A3016
     RMK AO2 T02020196=
KIAH 081302Z 07006KT 1SM -TSRA FEW008 OVC025CB 26/24 A2998 RMK
     TSB35 OCNLLTGIC NE-S TS VC MOV NW=
KGLE 081306Z AUTO 15006KT 10SM SCT070 26/23 A3006 RMK AO2=
####018001101####
SAIY41 LIIB 081300
METAR LIMH 081255Z 08002KT 9999 SCT000TCU 07/M01 Q1040 RMK SCT MON
      CLD SCT VAL S CLD SCT VIS MIN 9999=
METAR LIMT 081255Z /////KT 9999 16/12 Q1024 RMK OVC MON LIB VAL NIL
      VIS MIN 9999=
METAR LIMU 081255Z 11006KT 9999 FEW026 30/22 Q1020 RMK BKN BKN070 QUK
      2 QUL 1 S VIS MAR 15 KM VIS MIN 9999=
METAR LIMV 081255Z 34009KT 7000 SCT012 25/19 Q1022 RMK SCT MON LIB
      CUF VAL FOSCHIA VIS MIN 7000=
METAR LIMY 081255Z /////KT 9000 SCT026 23/16 Q1023 RMK BKN VAL
      FOSCHIA VIS MIN 9000=
METAR LIVD 081255Z 00000KT CAVOK 24/08 Q1023 RMK SKC VIS MIN 9999=
METAR LIVE 081300Z NIL=
METAR LIVF 081255Z 05004KT CAVOK 27/07 Q1022 RMK SKC MON LIB VAL NIL
      VIS MIN 9999=
METAR LIVM 081255Z 13009KT CAVOK 28/21 Q1021 RMK SKC QUK 2 QUL 1 SE
      VIS MAR 30 KM VIS MIN 9999=
METAR LIVO 081255Z 01003KT 9999 FEW040 26/12 Q1021 RMK FEW VIS MIN
      9999=
METAR LIVR 081255Z /////KT 9999 FEW030 17/14 Q1028 RMK FEW MON LCLD
      CIME VIS MIN 9999=
METAR LIVT 081255Z 26002KT CAVOK 25/15 Q1021 RMK SKC QUK 1 QUL 0 VIS
      MAR 20 KM VIS MIN 9999=
####018000107####
SAKY31 RUMS 081300 RRA
METAR UAFO 081300Z 31003MPS 9999 FEW050CB SCT100 33/12 Q1017 NOSIG
RMK QFEM684=
####018000075####
SAAF36 KWBC 081200 RRD
METAR
HEMA 081200Z 02022KT CAVOK 36/17 Q1005=
####018000417####
SAAF35 KWBC 081300 RRA
METAR
HEAX 081300Z 32013KT 9999 FEW020 30/21 Q1010=
HEBA 081300Z 33015KT CAVOK 29/20 Q1011=
HEBL 081300Z 04014KT CAVOK 40/08 Q1008=
HECA 081300Z 31008KT CAVOK 33/17 Q1010=
HEGN 081300Z 36019KT CAVOK 37/09 Q1005=
HELX 081300Z 30012KT CAVOK 40/11 Q1006=
HEMM 081300Z 33010KT CAVOK 28/21 Q1012=
HEPS 081300Z 34011KT CAVOK 29/23 Q1010=
HESC 081300Z 05010KT CAVOK 32/10 Q1018=
####018001521####
SAIY43 LIIB 081300
METAR LIBA 081255Z /////KT CAVOK 29/09 Q1020 RMK FEW FEW200 VIS MIN
      9999 WIND THR29 31012KT BLU=
METAR LIBC 081250Z 04019KT CAVOK 27/09 Q1017 RMK VIS MIN 9999=
METAR LIBD 081250Z 36014KT CAVOK 25/12 Q1020 RMK VIS MIN 9999=
METAR LIBG 081250Z 01016KT 360V040 CAVOK 28/10 Q1018 RMK VIS MIN
9999=
METAR LIBN 081255Z 33023G36KT CAVOK 26/10 Q1017 RMK FEW FEW200 VIS
      MIN 9999 WIND THR14 34020G35KT BLU=
METAR LIBP 081250Z 05005KT CAVOK 26/07 Q1021 RMK VIS MIN 9999=
METAR LIBQ 081255Z 26005KT 9999 FEW008TCU SCT009 17/11 Q1024 RMK SCT
      MON LIB VAL NIL VIS MIN 9999=
METAR LIBR 081245Z /////KT CAVOK 25/13 Q1018 NOSIG RMK SKC VIS MIN
      9999 WIND THR13 WIND THR31 33019KT BLU=
METAR LIBV 081255Z 01017G27KT CAVOK 25/10 Q1017 RMK SKC VIS MIN 9999
      WIND THR14 36018KT BLU=
METAR LICA 081250Z 27014KT 9999 FEW030 29/22 Q1017 RMK VIS MIN 9999=
METAR LICC 081250Z 11013KT CAVOK 28/20 Q1018 RMK VIS MIN 9999=
METAR LICD 081250Z 35007KT CAVOK 26/21 Q1019 RMK VIS MIN 9999=
METAR LICG 081255Z 34007KT 9999 FEW016 24/22 Q1019 RMK BKN SCT200 VIS
      MIN 9999 WIND THR08 33006KT WIND THR21 36007KT BLU=
METAR LICJ 081250Z 04015KT 9999 FEW018 28/23 Q1018 RMK VIS MIN 9999=
METAR LICR 081250Z 22007KT 200V260 9999 FEW020 BKN040 27/20 Q1018
RMK VIS MIN 9999=
METAR LICT 081255Z 33013G24KT 9999 FEW022 30/25 Q1018 RMK FEW VIS MIN
      9999 WIND THR13 33010KT BLU=
METAR LICZ 081255Z 10017KT 9999 FEW020 30/20 Q1017 RMK FEW VIS MIN
      9999 WIND THR28 //////KT BLU=
####018000129####
SAAF36 KWBC 081300 RRA
METAR
HEMA 081300Z 01020KT CAVOK 34/17 Q1005=
HKMO 081300Z 18015KT 9999 FEW026 28/19 Q1015 NOSIG=
####018000216####
SAAG41 KWBC 081300
METAR
SAAC NIL=
SAAV NIL=
SAGS NIL=
SANE NIL=
SANT NIL=
SANU NIL=
SAOR NIL=
SARL NIL=
SATM NIL=
SAVC 081300Z 27009KT CAVOK 04/M01 Q1001=
SAVT NIL=
SAZB NIL=
SAZN NIL=
####018000602####
SAAG31 KWBC 081300
METAR
SAAG NIL=
SAAP NIL=
SAAR NIL=
SABE 081300Z 29005KT CAVOK 12/00 Q1019=
SACO NIL=
SADD NIL=
SAEZ 081300Z 32004KT CAVOK 09/01 Q1019=
SAME 081300Z 00000KT 9999 NSC 04/M03 Q1015=
SARC NIL=
SARE 081300Z 11011KT 9999 SCT008 12/09 Q1019=
SARF 081300Z 16014KT 9999 OVC008 15/12 Q1018=
SARI 081300Z 20006KT 2000 BR BKN002 SCT100 17/17 Q1020=
SARP 081300Z 07006KT 6000 SCT005 BKN015 15/14 Q1018=
SASA 081300Z 00000KT CAVOK 11/06 Q1021=
SASJ 081300Z 00000KT CAVOK 15/09 Q1018=
SAWE NIL=
SAWG NIL=
SAZM 081300Z 32013KT CAVOK 08/02 Q1014=
SAZS NIL=
####018000465####
SAAL31 KWBC 081300 RRA
METAR
DAAG 081300Z 05013KT CAVOK 34/16 Q1018=
DAAT 081300Z NIL=
DABB 081300Z 02014KT CAVOK 28/21 Q1019=
DABC 081300Z 36012KT CAVOK 34/05 Q1022=
DABS 081300Z 32006KT CAVOK 35/06 Q1023=
DAON 081300Z 02010KT 9999 FEW026 37/20 Q1016=
DAOO 081300Z 35012KT CAVOK 30/21 Q1016=
DAUA 081300Z 36019KT 7000 DRSA NSC 44/07 Q1012=
DAUG 081300Z NIL=
DAUH 081300Z 08010KT CAVOK 39/21 Q1017=
DAUZ 081300Z 09005KT CAVOK 38/07 Q1016=
####018000251####
SAAO33 KWBC 081300 RRA
METAR
GFLL 081300Z 15010KT 9999 SCT012 FEW028CB 29/24 Q1013 CB-NE=
GGOV 081300Z 20009KT 140V260 9999 BKN015TCU FEW020CB 31/23 Q1013
     NOSIG=
GLRB 081300Z 25005KT 9999 BKN018 30/25 Q1013 NOSIG=
GUCY 081300Z NIL=
####018000107####
SAAO32 KWBC 081300 RRA
METAR
GABS 081300Z VRB02KT 9999 FEW030 33/21 Q1015 NOSIG=
GQPP 081300Z NIL=
####018000378####
SAAS32 KWBC 081305
METAR
RKPC 081300Z 00000KT 4000 BR SCT030 OVC120 24/20 Q1009 NOSIG=
RKPK 081300Z 23004KT 9999 SCT050 BKN200 23/19 Q1010 NOSIG=
RKSS 081300Z 35001KT 8000 SCT030 OVC100 23/18 Q1009 NOSIG=
VHHH 081300Z 19007KT 140V240 9999 FEW020 31/25 Q1007 NOSIG=
VMMC NIL=
ZJSY 081300Z 13003MPS 100V170 9999 FEW013 SCT016 30/26 Q1007
     NOSIG=
ZKPY NIL=
####018000404####
SAAS31 KWBC 081305
METAR
VAAH NIL=
VABB NIL=
VABG NIL=
VAGO NIL=
VANP NIL=
VANY NIL=
VCBI NIL=
VECC NIL=
VEPT NIL=
VGEG NIL=
VGZR NIL=
VIAR NIL=
VIBN NIL=
VIDP NIL=
VNKT NIL=
VOBG NIL=
VOCI NIL=
VOHY NIL=
VOMM NIL=
VONY NIL=
VOTR NIL=
VOTV NIL=
VQPR NIL=
VQTU NIL=
VRMM NIL=
VTBS 081300Z 18003KT 9999 FEW020 SCT120 BKN300 30/25 Q1007
     NOSIG=
####018001436####
SAAS33 KWBC 081305
METAR
VBRR NIL=
VDPP 081300Z 22003KT 9000 SCT015 FEW017CB SCT040 29/22 Q1008 CB:NE
     NW=
VDSR 081300Z 18005KT 8000 SCT017 SCT130 27/23 Q1008=
VLVT 081300Z NIL=
VTBA NIL=
VTBD 081300Z 16005KT 9999 FEW020 SCT120 BKN300 30/24 Q1007
     NOSIG=
VTBU 081300Z 19002KT 9999 FEW020 BKN300 31/26 Q1007 A2975=
VTCC 081300Z 05010KT 9999 FEW025CB SCT035 BKN300 29/22 Q1008 A2978
     CB NE,E,SSE=
VTSP 081300Z 33004KT 9000 FEW020 SCT120 BKN300 29/23 Q1010
     A2984=
VTSS 081300Z NIL=
VVDN 081300Z 24008KT 9999 FEW017 SCT300 26/21 Q1008 NOSIG=
VVGL NIL=
VVNB 081300Z 09007KT 060V130 CAVOK 30/24 Q1002 NOSIG=
VVTS 081300Z 15010KT 8000 TS SCT015 SCT017CB 27/22 Q1009 TEMPO
     TL1330 1000 TSRA=
WBGG 081300Z 25006KT 9999 FEW015CB SCT020 BKN150 24/22 Q1012 RETS
     NOSIG=
WBKK 081300Z 11006KT 9999 FEW014 SCT140 BKN270 25/23 Q1010
     NOSIG=
WMAM NIL=
WMKJ 081300Z 21003KT 9999 FEW022 BKN300 27/24 Q1010=
WMKK 081300Z 00000KT 9999 FEW030 BKN280 27/25 Q1009 NOSIG=
WMKP 081300Z 06001KT 9000 FEW025 BKN270 28/25 Q1010 NOSIG=
WMSA 081300Z 25001KT 9000 FEW026 BKN280 29/25 Q1009=
WPDL NIL=
WPEC NIL=
WSAP 081300Z 23002KT 9999 FEW016 BKN220 29/24 Q1010=
WSSL 081300Z 21004KT 9999 FEW018 BKN280 28/24 Q1010=
WSSL 081300Z 21004KT 9999 FEW018 BKN280 28/24 Q1010 RMK 1030Z
     Q1008=
WSSS 081300Z 20003KT 170V240 9999 FEW016 SCT190 28/24 Q1010
     NOSIG=
####018000107####
SAAW34 KWBC 081245 RRF
METAR
OPSK 081255Z 13006KTS 2500 HZ SCT040 SCT100 34/24 QNH 1001
     R.H.=
####018000088####
SAAW32 KWBC 081300 RRB
METAR
OIII 081300Z 12006KT CAVOK 40/M04 Q1012 A2989 877/5=
####018000096####
SABX31 KWBC 081150 RRB
METAR
EBFN 081155Z 34005KT 9999 FEW042 BKN200 23/17 Q1020 BLU BLU=
####018000096####
SABX31 KWBC 081220 RRD
METAR
EBFN 081225Z 35005KT 9999 FEW042 BKN200 23/17 Q1019 BLU BLU=
####018000081####
SACA32 KWBC 081300 RRB
METAR
TQPF 081300Z 08013KT 9999 SCT021 30/// Q1016=
####018000118####
SACA33 KWBC 081300 RRA
METAR
TGPY 081300Z 08012KT 9999 FEW019 SCT038 FEW///CB 27/25 Q1013 CB
     TOP SE-SSE=
####018000299####
SAEE31 KWBC 081300 RRB
METAR
UMII 081300Z 20005MPS P6000 BKN020CB 20/18 Q1014 R23/CLRD// TEMPO
     2000 SHRA BKN005=
UMMM 081300Z 26006G09MPS 6000 OVC012CB 18/15 Q1015 R30/CLRD//
     NOSIG RMK QFE742=
UMMS 081300Z 28003G06MPS 250V310 9999 OVC014 18/15 Q1015
     R31/CLRD// NOSIG=
####018000243####
SAEM31 KWBC 081300 RRB
METAR
LKMT 081300Z 03004KT 320V090 CAVOK 23/11 Q1023 NOSIG RMK REG QNH
     1020=
LKPR 081300Z VRB03KT CAVOK 24/12 Q1023 NOSIG RMK REG QNH 1020=
LKTB 081300Z VRB01KT CAVOK 25/08 Q1022 NOSIG RMK REG QNH 1020=
####018000098####
SAIO31 KWBC 081300 RRB
METAR
VYYY 081300Z 27008KT 7000 SCT020 FEW030CB SCT110 29/26 Q 1007=
####018000094####
SAHA31 KWBC 081300 RRA
METAR
KQHA 081255Z 26002KT 9999 SKC 28/23 A2997 RMK AO2A SLP491=
####018000121####
SAIY43 KWBC 081250 RRB
METAR
LIRV 081255Z 27013KT 9999 SCT028 29/22 Q1020 RMK SCT MON E SE
     //END PART 01//=
####018000122####
SAUS41 KOKX 081310
MTRNYC
SPECI KNYC 081308Z AUTO 00000KT 5SM HZ SCT011 BKN020 BKN027 26/23 
A3008 RMK AO2 TSNO $
####018000109####
SAMX41 KWBC 081345
METAR
MMCS 081300Z RTD 02010KT 10SM FEW030 SCT080 23/17 A3013 RMK 8/570
     HZY=
####018000293####
SANZ31 KWBC 081300
METAR
NZAA 081300Z 23009KT 9999 FEW025 10/07 Q1012 NOSIG=
NZCH 081300Z 22009KT 9999 FEW014 SCT035 BKN045 06/03 Q1017 TEMPO
     6000 SHRA=
NZOH NIL=
NZWN 081300Z 19026G36KT 9999 -SHRA FEW015 SCT030 BKN037 08/05
     Q1013 WS R16 TEMPO 6000 SHRA=
NZWP NIL=
####018000186####
SAPH31 KWBC 081300 RRA
METAR
RPLL 081300Z 11003KT 9000 FEW025 31/26 Q1010 NOSIG RMK A2980=
RPVM 081300Z 00000KT 9999 FEW018CB SCT090 BKN250 29/26 Q1011 A2985
     OCNL LTNG N=
####018000434####
SAPR41 KWBC 081300
METAR
SPCL NIL=
SPEC NIL=
SPEI NIL=
SPEO NIL=
SPGM NIL=
SPHI 081300Z 16009KT 9999 SCT012 SCT100 16/13 Q1015 RMK BIRD
     HAZARD RWY 19/01 PP000=
SPHO NIL=
SPHY NIL=
SPJA NIL=
SPJI NIL=
SPJL NIL=
SPJN NIL=
SPJR NIL=
SPME NIL=
SPMS NIL=
SPNC NIL=
SPPY NIL=
SPRU 081300Z VRB02KT 6000 OVC015 16/13 Q1014 RMK BIRD HAZARD RWY20
     PP000=
SPST NIL=
SPTU NIL=
SPUR NIL=
####018001876####
SARA31 KWBC 081300 RRB
METAR
UEEE 081300Z 26001MPS 9999 -SHRA BKN040CB OVC100 16/14 Q1009 NOSIG
     RMK QFE748 23290150=
UHHH 081300Z 04002MPS 9999 SCT033CB OVC100 16/15 Q1011 NOSIG RMK
     QFE752/1002 55090060=
UHMA 081300Z NIL=
UHMM 081300Z 24002MPS 9999 OVC008 12/11 Q1016 RMK QFE747 88010070
     MT OBSC=
UHMP 081300Z NIL=
UHPP 081300Z NIL=
UHSS 081300Z 00000MPS 9999 BKN018 13/12 Q1011 RMK MT OBSC
     QFE757/1010=
UHWW 081300Z 22003MPS 9999 SCT013 BKN023CB OVC100 16/15 Q1011
     NOSIG RMK QFE757/1010 75CLRD70=
UIAA 081300Z 31005MPS 9999 VCTS -SHRA BKN033CB OVC100 18/15 Q1009
     NOSIG RMK QFE698 29CLRD70=
UIBB 081300Z 06002MPS 9999 BKN200 23/14 Q1006 NOSIG RMK
     QFE711/0949 30CLRD60=
UIII 081300Z 16004MPS CAVOK 18/11 Q1006 NOSIG RMK QFE712/0950
     12CLRD60=
UIUU 081300Z 00000MPS 9999 SCT033CB OVC100 21/14 Q1007 NOSIG RMK
     QFE711/0949 26CLRD60=
ULAA 081300Z 30004MPS 270V330 9999 FEW033 28/17 Q1015 TEMPO TSRA
     RMK QFE760/1014 SC070=
UMBB 081300Z 31006G09MPS 8000 SCT031 24/13 Q1019 R29/CLRD//
     NOSIG=
UMGG 081300Z VRB02MPS 9999 BKN050CB BKN100 26/17 Q1014 R28/290550
     NOSIG=
UMII 081300Z 20005MPS P6000 BKN020CB 20/18 Q1014 R23/CLRD// TEMPO
     2000 SHRA BKN005=
UMMG 081300Z 32007G10MPS 9999 BKN023 BKN066 23/13 Q1016 R35/CLRD//
     NOSIG=
UMMM 081300Z 26006G09MPS 6000 OVC012CB 18/15 Q1015 R30/CLRD//
     NOSIG RMK QFE742=
UMMS 081300Z 28003G06MPS 250V310 9999 OVC014 18/15 Q1015
     R31/CLRD// NOSIG=
UNAA 081300Z VRB02MPS 9999 SCT030CB BKN100 18/12 Q1012 NOSIG RMK
     QFE736 202///55=
UNNT 081300Z 26005MPS 9999 SCT060CB BKN100 19/05 Q1007 NOSIG RMK
     QFE745/0994 25090070=
USNN 081300Z 16004MPS P6000 SCT026 BKN200 18/11 Q1003 NOSIG RMK
     QFE748 SC065=
UUEE 081300Z 17005MPS 140V200 9999 SCT050CB BKN200 29/12 Q1015
     NOSIG=
####018000812####
SARS32 KWBC 081300 RRA
METAR
URKA 081300Z NIL=
URKK 081300Z 05006G09MPS 020V090 9999 BKN043 30/20 Q1011 NOSIG RMK
     QFE755 SC070=
URKM 081300Z 07003MPS 9999 SCT040 BKN100 30/17 Q1011 NOSIG RMK
     QFE740=
URMM 081300Z 12004G07MPS 080V140 9999 BKN046 31/19 Q1012 NOSIG RMK
     / SC070=
URMN 081300Z 06003MPS 9999 BKN036CB BKN110 28/19 Q1013 NOSIG RMK /
     QFE723 SC07=
URMT 081300Z 05005G08MPS 9999 SCT026CB BKN100 28/17 Q1014 NOSIG
     RMK QFE720 SC07=
URRR 081300Z VRB01MPS 9999 FEW036 31/16 Q1013 NOSIG RMK SC070=
URSS 081300Z 29005MPS 9999 FEW040 27/21 Q1009 NOSIG RMK / QFE755
     06CLRD70=
URWA 081300Z 28002MPS CAVOK 38/11 Q1010 NOSIG RMK SC07=
URWI 081300Z VRB02MPS CAVOK 31/16 Q1013 NOSIG RMK SC065=
URWW 081300Z 30004MPS CAVOK 31/11 Q1014 NOSIG RMK SC070=
####018000788####
SARS31 KWBC 081300 RRB
METAR
UELL 081300Z VRB01MPS 9999 VCFG SCT030CB BKN200 12/11 Q1012 TEMPO
     0600 FG VV003 RMK QFE685 08290050=
UEST 081300Z 15002MPS 9999 -RA OVC130 05/03 Q1017 NOSIG RMK
     QFE762=
ULLI 081300Z 00000MPS 9999 VCTS BKN033CB BKN066 BKN200 30/14 Q1013
     TEMPO TSRA=
ULMM 081300Z 06001G04MPS 9999 BKN026 17/08 Q1018 NOSIG RMK QFE756
     32190060=
UOHH 081300Z 36003MPS 9999 CAVOK 15/04 Q1023 NOSIG RMK QFE761=
UOOO 081300Z 02008G10MPS CAVOK 21/10 Q1010 NOSIG RMK QFE743
     010///60=
UUDD 081300Z 17004MPS 130V210 9999 FEW050TCU BKN100 28/15 Q1015
     TEMPO VRB12MPS TSRA=
UUEE 081300Z 17005MPS 140V200 9999 SCT050CB BKN200 29/12 Q1015
     NOSIG=
UUEM 081300Z NIL=
UUWW 081300Z 19004MPS CAVOK 27/15 Q1015 24000070 NOSIG=
####018001451####
SARS41 KWBC 081300 RRA
METAR
UUBP 081300Z 36001MPS 9999 BKN033CB BKN/// 25/19 Q1014 NOSIG=
UUEE 081300Z 17005MPS 140V200 9999 SCT050CB BKN200 29/12 Q1015
     NOSIG=
UUEM 081300Z NIL=
UUOO 081300Z VRB01MPS 9999 SCT033CB BKN100 29/13 Q1014 NOSIG RMK
     13090070=
UUWW 081300Z 19004MPS CAVOK 27/15 Q1015 24000070 NOSIG=
UUYH 081300Z 20001MPS CAVOK 27/11 Q1016 NOSIG RMK QFE 750
     18CLRD60=
UUYS 081300Z 17003MPS CAVOK 20/07 Q1015 NOSIG RMK QFE754
     14CLRD60=
UUYY 081300Z 21003MPS 9999 FEW036 OVC200 30/15 Q1015 NOSIG
     19CLRD61 RMK QFE753/1004=
UWGG 081300Z 13002MPS 100V180 8000 FEW033 34/09 Q1015 NOSIG RMK
     QFE754 18090070=
UWKD 081300Z 28003MPS 250V310 9999 FEW050CB SCT070 32/13 Q1015
     TEMPO VRB15MPS 3000 TSRA RMK QFE750/1000 79CLRD70=
UWKE 081300Z NIL=
UWLW 081300Z 02003MPS 8000 FEW040CB 33/14 Q1014 TEMPO -TSRA
     02CLRD60 RMK QFE754=
UWOO 081300Z 05004MPS 020V100 P5000 FEW220 32/02 Q1012 08LRD65
     NOSIG RMK QFE748/0998=
UWOO 081300Z 05004MPS 020V100 P5000 FEW220 32/02 Q1012 08LRD65
     NOSIG RMK QFE748/0998=
UWPP 081300Z 14006MPS 9999 SCT033 BKN100 33/09 Q1013 NOSIG RMK
     QFE745 11090060=
UWSS 081300Z 05005MPS CAVOK 31/09 Q1014 NOSIG RMK QFE748
     120///60=
UWUU 081300Z 36006G09MPS CAVOK 29/10 Q1015 82010060 NOSIG RMK
     QFE750/1000=
UWWW 081300Z 08005MPS 9999 FEW033 BKN200 32/07 Q1014 NOSIG RMK
     QFE748/0997 05CLRD60 15//99//=
####018000750####
SARS33 KWBC 081300 RRA
METAR
USCC 081300Z 01006G09MPS 9999 FEW040 FEW200 25/02 Q1013 NOSIG RMK
     QFE740 27000070=
USDD 081300Z 05008G11MPS CAVOK 17/00 Q1015 NOSIG RMK QFE755/1007
     SC060=
USMU 081300Z 01005MPS 9999 SCT037CB OVC066 15/13 Q1007 NOSIG RMK
     QFE749 09250345=
USNN 081300Z 16004MPS P6000 SCT026 BKN200 18/11 Q1003 NOSIG RMK
     QFE748 SC065=
USPP 081300Z 35004MPS CAVOK 26/11 Q1015 NOSIG RMK QFE750/1000
     21090060=
USRK 081300Z 34003MPS 6000 BKN022 OVC066 15/11 Q1004 NOSIG RMK
     QFE747 351///55=
USRR 081300Z 34003MPS 7000 OVC012 13/11 Q1005 TEMPO BKN007 RMK
     QFE748 25////60=
USSS 081300Z NIL=
USTR 081300Z 04002MPS 9999 SCT046 19/06 Q1012 NOSIG RMK
     QFE750/1000 30CLRD65=
####018000126####
SAXX62 KWBC 081300 RRA
METAR
PHNG 081257Z COR 11007KT 10SM SCT026 BKN040 24/21 A3002 RMK AO2
     SLP159 T02390206 $=
####018003749####
SAXX99 KWBC 081300 RRK
METAR
CMFM 081300Z AUTO 21004KT 25/20 RMK AO1 SLP165 T02530201 58003=
CWBU 081300Z AUTO 27008KT 13/09 RMK AO1 SLP175 T01340094 50000=
DAAD 081300Z 00000KT CAVOK 39/14 Q1021=
DAAE 081300Z 09010KT CAVOK 29/22 Q1019=
DAAJ 081300Z NIL=
DAAP 081300Z 15012KT CAVOK 40/10 Q1014=
DAAS 081300Z 32010KT CAVOK 35/03 Q1024=
DAAV 081300Z 36010KT CAVOK 30/23 Q1019=
DAAY 081300Z 34008KT CAVOK 38/11 Q1024=
DABT 081300Z NIL=
DAFH 081300Z NIL=
DAOB 081300Z 03007KT CAVOK 38/07 Q1022=
DAOF 081300Z 11004KT 4000 HZ NSC 45/05 Q1013=
DAOL 081300Z NIL=
DAOR 081300Z 11004KT CAVOK 40/05 Q1022=
DAOV 081300Z 03010KT CAVOK 43/06 Q1018=
DATG 081300Z NIL=
DATM 081300Z NIL=
DAUB 081300Z 24008KT CAVOK 37/15 Q1016=
DAUE 081300Z 03010KT CAVOK 38/09 Q1020=
DAUI 081300Z NIL=
DAUK 081300Z 00000KT CAVOK 37/16 Q1017=
DAUL 081300Z NIL=
DAUO 081300Z 00000KT CAVOK 38/16 Q1017=
DAUT 081300Z ///18KT 4000 DRSA NSC 43/09 Q1014=
DAUU 081300Z 05010KT CAVOK 39/16 Q1017=
EGXW 081250Z 28010KT 9999 FEW048 BKN250 22/08 Q1017 BLU NOSIG=
FYOA 081300Z AUTO 04007KT //// // ////// 26/02 Q1020=
GMMC 081300Z 36007KT 5000 SCT016 BKN026 25/20 Q1013=
HEAR 081300Z 33009KT CAVOK 30/22 Q1009=
HEAT 081300Z 34014KT CAVOK 36/12 Q1010=
HEIS 081300Z 33010KT CAVOK 33/18 Q1009=
HESH 081300Z 36012KT CAVOK 39/11 Q1005=
LKKV 081300Z VRB03KT CAVOK 24/10 Q1023 RMK REG QNH 1020=
MMIT 081300Z RTD 00000KT 5SM HZ BKN010 OVC070 27/25 A2978 RMK
     8/66/ BINOVC=
UERP 081300Z 02003MPS 9999 SCT040 BKN100 13/06 Q1014 NOSIG RMK
     QFE717 35090065=
UERR 081300Z VRB01MPS CAVOK 15/14 Q1012 NOSIG RMK QFE728
     24CLRD60=
UESO 081300Z NIL=
UHNN 081300Z 08002MPS 9999 -SHRA FEW010 BKN023CB OVC070 11/10
     Q1013 RMK QFE755=
UHSH 081300Z NIL=
ULDD 081300Z NIL=
ULKK 081300Z 34002MPS 6000 FEW033 SCT099 32/16 Q1015 NOSIG RMK
     QFE756=
ULOL 081300Z NIL=
ULOO 081300Z VRB01MPS P6000 TS SCT033CB BKN047 BKN200 27/18 Q1012
     NOSIG RMK QFE755=
ULWW 081300Z 17004MPS 9999 SCT050TCU BKN/// 32/14 Q1016 NOSIG RMK
     QFE751 15CLRD60=
UMKK 081300Z 30006MPS P8000 FEW030 SCT200 22/13 Q1020 NOSIG RMK
     QFE 764 SC07=
UMOO 081300Z 29002MPS 9999 BKN023CB BKN/// 22/18 Q1013 R31/290056
     NOSIG=
UNBB 081300Z 14003MPS 9999 SCT040 SCT100 14/11 Q1009 NOSIG RMK
     QFE735=
UNEE 081300Z 18004MPS 9999 SCT026CB BKN066 BKN200 19/09 Q1009
     NOSIG RMK QFE734 23CLRD60=
UNKL 081300Z 27005G08MPS 9999 -SHRA VCTS BKN023CB OVC083 13/11
     Q1011 TEMPO 26013G18MPS 1000 TSRA RMK QFE732 29////55=
UNOO 081300Z 31004MPS 9999 BKN030CB 14/10 Q1008 NOSIG 25CLRD06 RMK
     QFE748=
UNWW 081300Z 14002MPS 9999 SCT026CB OVC130 14/09 Q1011 NOSIG RMK
     QFE731 1929//60=
UOII 081300Z 29002MPS 160V290 9999 -SHRA BKN026CB BKN100 19/17
     Q1008 TEMPO -TSRA RMK QFE753 12////60=
URML 081300Z 08005MPS 9999 FEW100 32/19 Q1012 NOSIG RMK QFE759 /
     07=
UWLL 081300Z 08003MPS 9999 SCT050CB 32/10 Q1015 NOSIG RMK
     QFE749/0998 SC065=
UWOR 081300Z 05005MPS CAVOK 29/00 Q1014 07CLRD65 NOSIG RMK
     QFE735/0980=
VTBO 081300Z NIL=
VTCT 081300Z 23007KT 9999 SCT030 25/22 Q1008 A2978 RMK/RWY03 INFO
     N=
VTSB 081300Z 16002KT 9999 SCT020 SCT120 29/26 Q1009 A2980=
VTSC 081300Z NIL=
VTSE 081300Z NIL=
VTSF 081300Z NIL=
VTSG 081300Z NIL=
VTSK 081300Z NIL=
VTSM 081300Z 30004KT 9999 FEW020 BKN300 31/25 Q1009 A2981=
VTSR 081300Z NIL=
VTST 081300Z NIL=
VTUD 081300Z 14004KT 9999 FEW020CB 32/23 Q1006 A2972 CB S,NW INFO
     O RWY30=
VTUI 081300Z NIL=
VTUJ 081300Z NIL=
VTUK 081300Z 18004KT 160V220 9999 FEW018 CB BKN300 32/22 Q1006
     A2971 TS CB N,W RWY21 INFO O=
VTUL 081300Z NIL=
VTUO 081300Z NIL=
VTUQ 081300Z NIL=
####018000147####
SAXX99 KWBC 081300 RRL
METAR
VTUU 081300Z NIL=
VTUV 081300Z NIL=
VTUW 081300Z 00000KT 9999 FEW026 SCT300 30/24 Q1007 A2974
     RWY15=
####018000199####
SAXX99 KWBC 081300 CCB
METAR
CYGW 081300Z CCA 14004KT 15SM FEW025 SCT080 BKN120 OVC220 20/15
     A2985 RMK SC1AC2AS2CI0 CU EMBD SLP110=
EGHK 081250Z 15006KT 9999 SCT020 18/15 Q1018 NOSIG=
####018000551####
SAZA31 KWBC 081300
METAR
FABB NIL=
FABE NIL=
FABL 081300Z 36008KT 320V040 9999 FEW050 18/04 Q1030 NOSIG=
FABM NIL=
FACT 081300Z VRB02KT CAVOK 23/00 Q1017 NOSIG=
FADN NIL=
FAEL 081300Z 06012KT 9999 FEW050 21/13 Q1023=
FAGG 081300Z 16005KT CAVOK 19/10 Q1019=
FAGM NIL=
FAJS 081300Z 03008KT 350V070 9999 SCT045 17/02 Q1032 NOSIG=
FAKT NIL=
FALW NIL=
FALZ NIL=
FAPB NIL=
FAPE 081300Z 06012KT CAVOK 18/12 Q1021 NOSIG=
FAPR NIL=
FASB NIL=
FAUP 081300Z 35015KT CAVOK 24/02 Q1025 NOSIG=
FAWH NIL=
FAWK 081300Z NIL=
####018000517####
SAHK31 VHHH 081300
METAR VHHH 081300Z 19007KT 140V240 9999 FEW020 31/25 Q1007 NOSIG=
METAR RCTP 081300Z NIL=
METAR RCKH 081300Z NIL=
METAR RCSS 081300Z NIL=
METAR VMMC 081300Z 19008KT 180V260 9999 FEW020 29/26 Q1007
     NOSIG=
METAR RPLL 081300Z 11003KT 9000 FEW025 31/26 Q1010 NOSIG RMK A2980=
METAR RPVM 081300Z 00000KT 9999 FEW018CB SCT090 BKN250 29/26 Q1011
           A2985 OCNL LTNG N=
METAR RPMD 081300Z NIL=
METAR RPLB 081300Z NIL=
METAR RPLI 081300Z NIL=
METAR RPMZ 081300Z NIL=
####018000341####
SAAL31 DAAA 081300
METAR DAAG 081300Z 05013KT CAVOK 34/16 Q1018=
METAR DAAT 081300Z NIL=
METAR DABB 081300Z 02014KT CAVOK 28/21 Q1019=
METAR DABC 081300Z 36012KT CAVOK 34/05 Q1022=
METAR DAON 081300Z 02010KT 9999 FEW026 37/20 Q1016=
METAR DAOO 081300Z 35012KT CAVOK 30/21 Q1016=
METAR DAUH 081300Z 08010KT CAVOK 39/21 Q1017=
####018000087####
SAFR31 LFPW 081300 RRA
METAR LFLL 081308Z 18007KT 150V240 CAVOK 32/13 Q1019 NOSIG=
####018000087####
SANO35 ENMI 081250 RRB
METAR ENMS 081250Z 32005KT 9999 FEW050 SCT070 19/10 Q1009 =
####018000405####
SARA33 RUMS 081300
METAR UIAA 081300Z 31005MPS 9999 VCTS -SHRA BKN033CB OVC100 18/15
Q1009 NOSIG RMK     QFE698 29CLRD70=
METAR UIBB 081300Z 06002MPS 9999 BKN200 23/14 Q1006 NOSIG RMK
QFE711/0949 30CLRD60=
METAR UIII 081300Z 16004MPS CAVOK 18/11 Q1006 NOSIG RMK QFE712/0950
12CLRD60=
METAR UIUU 081300Z 00000MPS 9999 SCT033CB OVC100 21/14 Q1007 NOSIG
RMK QFE711/0949 26CLRD60=
####018001522####
SAIY42 LIIB 081300
METAR LIBF 081250Z 32018KT CAVOK 28/06 Q1019 RMK VIS MIN 9999=
METAR LIEA 081250Z 21007KT 170V330 9999 FEW025 33/19 Q1019 RMK VIS
MIN 9999=
METAR LIED 081300Z NIL=
METAR LIEO 081250Z 05012KT CAVOK 30/20 Q1019 RMK VIS MIN 9999=
METAR LIMA 081250Z VRB03KT CAVOK 26/16 Q1022 RMK VIS MIN 9999=
METAR LIQN 081250Z 32008KT 9999 FEW045 29/17 Q1021 RMK VIS MIN 9999=
METAR LIQO 081255Z 20005KT 9999 SCT003 29/22 Q1022 RMK SCT VAL NIL NC
VIS MIN 9999=
METAR LIQW 081300Z NIL=
METAR LIRE 081255Z 24010KT 9999 FEW020 28/20 Q1019 RMK FEW VIS MIN
9999 WIND THR31 24009KT BLU=
METAR LIRG 081255Z 25010KT 9999 SCT033TCU 31/20 Q1019 RMK SCT MON
NE LIB NC VIS MIN 9999 BLU=
METAR LIRH 081255Z 28005KT 9999 FEW030 SCT035 FEW040CB 30/20 Q1019
RMK BKN MON LIB NC VIS MIN 9999 WIND THR16 28006KT BLU=
METAR LIRI 081250Z 03008KT CAVOK 30/12 Q1018 RMK VIS MIN 9999=
METAR LIRK 081255Z 12006KT CAVOK 16/15 Q1027 RMK BKN BKN060 MON NE
LIB NC VAL NIL NC VIS MIN 9999=
METAR LIRL 081255Z 25008KT 9999 FEW020 30/17 Q1019 RMK FEW MON LIB NC
VIS MIN 9999 BLU=
METAR LIRM 081255Z 12010KT 9999 FEW016 30/14 Q1019 RMK FEW VIS MIN
9999 WIND THR06 06005KT BLU=
METAR LIRS 081255Z 23012KT 9999 FEW040 30/21 Q1019 RMK FEW VIS MIN
9999 WIND THR21 /////KT BLU=
METAR LIRT 081255Z 36009KT CAVOK 18/05 Q1023 RMK SKC MON LIB VAL NIL
VIS MIN 9999=
METAR LIRU 081250Z 23007KT 9999 SCT040 30/17 Q1020 RMK VIS MIN 9999=
METAR LIRV 081255Z 27013KT 9999 SCT028 29/22 Q1020 RMK SCT MON E SE=
####018001763####
SAIY40 LIIB 081300
METAR LIMG 081250Z 06007KT 9999 FEW060 30/25 Q1020 RMK VIS MIN 9999=
METAR LIMK 081255Z 00000KT CAVOK 21/12 Q1023 RMK SKC VAL NIL VIS MIN
      9999=
METAR LIMN 081255Z /////KT 9999 FEW030 28/17 Q1021 RMK FEW VIS MIN
      9999 BLU=
METAR LIMP 081250Z 07006KT 040V100 CAVOK 29/14 Q1021 RMK VIS MIN
9999=
METAR LIMS 081255Z 13003KT CAVOK 30/15 Q1020 RMK SKC VIS MIN 9999
      WIND THR30 13005KT BLU=
METAR LIMZ 081250Z 32005KT 8000 FEW035 SCT060 25/18 Q1023 RMK VIS
MIN 8000=
METAR LIPA 081255Z 22008KT 9999 FEW050 26/18 Q1021 RMK FEW VIS MIN
      9999 A3017 BLU=
METAR LIPB 081250Z 18013KT CAVOK 30/12 Q1019 RMK MON LIB VIS MIN
9999=
METAR LIPC 081300Z NIL=
METAR LIPF 081255Z 19004KT 9999 FEW035 29/20 Q1021 RMK FEW VIS MIN
      9999=
METAR LIPH 081245Z 13004KT 9999 SCT025 27/20 Q1022 RMK SCT VIS MIN
      9999 WIND THR07 /////KT BLU=
METAR LIPI 081255Z 19008KT CAVOK 27/19 Q1022 RMK SKC VIS MIN 9999
    WIND THR06 19007KT BLU=
METAR LIPL 081255Z 06002KT 9999 FEW036 29/17 Q1021 RMK FEW VIS MIN
      9999 BLU=
METAR LIPO 081250Z 24005KT 100V260 9999 FEW050 29/12 Q1020 RMK VIS
MIN 9999=
METAR LIPQ 081250Z 28004KT CAVOK 27/14 Q1022=
METAR LIPR 081245Z 08011KT CAVOK 28/19 Q1021 RMK SKC VIS MIN 9999
      WIND THR31 08012KT BLU=
METAR LIPS 081255Z 00000KT 9999 SCT030 28/17 Q1021 RMK SCT VIS MIN
      9999 BLU=
METAR LIPX 081245Z 20005KT 9999 FEW040 30/14 Q1021 RMK FEW VIS MIN
      9999 BLU=
METAR LIPY 081250Z 06008KT 020V100 CAVOK 27/13 Q1021 RMK VIS MIN
9999=
METAR LIVC 081255Z 00000KT 9999 SCT001 16/11 Q1031 RMK SCT MON LIB
      VAL NIL VIS MIN 9999=
METAR LIVP 081255Z VRB03KT 9999 FEW003 15/11 Q1029 RMK FEW MON LIB
      VAL NIL VIS MIN 9999=
####018000925####
SARS32 RUMS 081300
METAR URKA 081300Z NIL=
METAR URKK 081300Z 05006G09MPS 020V090 9999 BKN043 30/20 Q1011 NOSIG
RMK QFE755 SC070=
METAR URKM 081300Z 07003MPS 9999 SCT040 BKN100 30/17 Q1011 NOSIG RMK
QFE740=
METAR URML 081300Z 08005MPS 9999 FEW100 32/19 Q1012 NOSIG RMK QFE759
/ 07=
METAR URMM 081300Z 12004G07MPS 080V140 9999 BKN046 31/19 Q1012 NOSIG
RMK / SC070=
METAR URMN 081300Z 06003MPS 9999 BKN036CB BKN110 28/19 Q1013 NOSIG
RMK / QFE723 SC07=
METAR URMT 081300Z 05005G08MPS 9999 SCT026CB BKN100 28/17 Q1014 NOSIG
RMK QFE720 SC07=
METAR URRR 081300Z VRB01MPS 9999 FEW036 31/16 Q1013 NOSIG RMK SC070=
METAR URSS 081300Z 29005MPS 9999 FEW040 27/21 Q1009 NOSIG RMK /
QFE755 06CLRD70=
METAR URWA 081300Z 28002MPS CAVOK 38/11 Q1010 NOSIG RMK SC07=
METAR URWI 081300Z VRB02MPS CAVOK 31/16 Q1013 NOSIG RMK SC065=
METAR URWW 081300Z 30004MPS CAVOK 31/11 Q1014 NOSIG RMK SC070=
####018001499####
SARS18 KAWN 081300 RRC
METAR UAAA 081300Z 27004MPS 240V310 9999 SCT050CB BKN100 28/10 Q1013
      88CLRD65 TEMPO TS=
METAR UACC 081300Z 32006MPS CAVOK 23/02 Q1008 220/0070 NOSIG RMK QFE725/0967=
METAR UAFM 081300Z 24006MPS CAVOK 32/08 Q1012 TEMPO 24007G12MPS FCST
      WS=
METAR UATE 081300Z 02006MPS CAVOK 39/08 Q1009 300///70 NOSIG RMK QFE755/1007=
METAR UATT 081300Z 06005MPS 030V100 9999 NSC 33/02 Q1010 13CLRD70 NOSIG
      RMK QFE738/0984=
METAR ULLI 081300Z 00000MPS 9999 VCTS BKN033CB BKN066 BKN200 30/14
      Q1013 TEMPO TSRA=
METAR UMGG 081300Z VRB02MPS 9999 BKN050CB BKN100 26/17 Q1014 R28/290550
      NOSIG=
METAR UMII 081300Z 20005MPS P6000 BKN020CB 20/18 Q1014 R23/D TEMPO
      2000 SHRA BKN005=
METAR UMMM 081300Z 26006G09MPS 6000 OVC012CB 18/15 Q1015 R30/D NOSIG
      RMK QFE742=
METAR UMMS 081300Z 28003G06MPS 250V310 9999 OVC014 18/15 Q1015 R31/D
      NOSIG=
METAR UTAA 081300Z 12004MPS 080V150 9999 SKC 43/04 Q1007 NOSIG=
METAR UTDD 081300Z 00000MPS 9999 SKC 36/07 Q1008 09CLRD70 NOSIG RMK
      QFE689/0918=
METAR UUDD 081300Z 17004MPS 130V210 9999 FEW050TCU BKN100 28/15 Q1015
      TEMPO VRB12MPS TSRA=
METAR UUEE 081300Z 17005MPS 140V200 9999 SCT050CB BKN200 29/12 Q1015
      NOSIG=
METAR UUWW 081300Z 19004MPS CAVOK 27/15 Q1015 24000070 NOSIG=
METAR UWPP 081300Z 14006MPS 9999 SCT033 BKN100 33/09 Q1013 NOSIG RMK
      QFE745 11090060=
METAR VTBD 081300Z 16005KT 9999 FEW020 SCT120 BKN300 30/24 Q1007 NOSIG=
