####018000396####
SAIR31 OIII 080930
METAR OIAW 080930Z NIL=
METAR OIFM 080930Z 17010KT CAVOK 38/05 Q1017 A3003=
METAR OIII 080930Z 11006KT CAVOK 38/M03 ???????0????P?UI?OIKB
080930Z NIL=
METAR OIKK 080930Z NIL=
METAR OIMM 080930Z 07012KT CAVOK 38/M02 Q1014 A2996=
METAR OISS 080930Z NIL=
METAR OITT 080930Z 10014KT CAVOK 36/04 Q1014 A2997=
METAR OIZH 080930Z 07006KT CAVOK 37/M04 Q1013 A2992=
####018000747####
SAUS99 KWBC 080935
METAR
KAIK 080935Z AUTO 28003KT 10SM CLR 23/22 A3003 RMK AO2 PNO=
KARW 080935Z AUTO 27006KT 10SM CLR 24/18 A2997 RMK AO2=
KBDN 080935Z AUTO 00000KT 10SM CLR 14/03 A3010 RMK AO2=
KFDW 080935Z AUTO 27005KT 10SM CLR 25/17 A3000 RMK AO1=
KGLY 080935Z AUTO 00000KT 10SM CLR 23/23 A3003 RMK AO2=
KMEZ 080935Z AUTO 00000KT 10SM BKN015 BKN021 OVC031 25/23 A3006
     RMK AO2=
KMYR 080935Z AUTO 30007KT 10SM CLR 25/19 A2995 RMK AO1=
KOAJ 080935Z AUTO 34003KT 10SM CLR 22/20 A2993 RMK AO1=
KOCF 080935Z AUTO 00000KT 5SM CLR 20/20 A3000 RMK AO1=
KPSO 080935Z AUTO 00000KT 10SM CLR 11/05 A3038 RMK AO2=
KSOP 080935Z AUTO 00000KT 10SM CLR 23/17 A2996 RMK AO1=
KUDG 080935Z 34003KT 10SM CLR 24/18 A2998 RMK AO1=
####018000385####
SPUS99 KWBC 080935
SPECI
KBAZ 080933Z AUTO 05007KT 10SM FEW011 BKN030 25/24 A2993 RMK
     AO2=
KASH 080933Z 13004KT 4SM BR BKN008 23/22 A3007 RMK AO2=
KGCK 080933Z AUTO 03009KT 10SM BKN013 BKN043 OVC055 18/17 A3021
     RMK AO2=
KLAA 080933Z AUTO 08005KT 9SM FEW004 SCT015 OVC023 17/17 A3026 RMK
     AO2=
KLWD 080933Z AUTO 32004KT 6SM BR CLR 20/19 A3008 RMK AO2=
####018000504####
SAFR36 LFPW 080930
METAR LFGJ 080930Z AUTO 19004KT 120V280 9999NDV NSC 26/15 Q1020=
METAR LFMD 080930Z AUTO 16008KT 110V180 9999NDV NSC 29/22 Q1020=
METAR LFOT 080930Z AUTO 11005KT 080V160 9999NDV NSC 29/10 Q1019=
METAR LFRC 080930Z AUTO 33004KT 260V070 9999NDV FEW016 20/16 Q1019=
METAR LFRG 080930Z AUTO 01006KT 340V060 9999NDV NSC 24/13 Q1020=
METAR LFBA 080930Z NIL=
METAR LFBE 080930Z NIL=
METAR LFJR 080930Z NIL=
METAR LFMH 080930Z NIL=
METAR LFPN 080930Z NIL=
METAR LFRK 080930Z NIL=
####018000457####
SAFR37 LFPW 080930
METAR LFAQ 080930Z AUTO 21005KT 180V260 9999NDV NSC 26/12 Q1019=
METAR LFBU 080930Z AUTO 15005KT 110V190 9999NDV NSC 30/11 Q1018=
METAR LFLN 080930Z AUTO VRB03KT 9999NDV NSC 28/15 Q1020=
METAR LFPM 080930Z VRB02KT CAVOK 29/14 Q1019=
METAR LFSD 080930Z AUTO 15004KT 090V220 9999NDV NSC 27/13 Q1020=
METAR LFTW 080930Z AUTO VRB03KT 9999NDV NSC 30/15 Q1020=
METAR LFRH 080930Z NIL=
METAR LFRQ 080930Z NIL=
METAR LFRT 080930Z NIL=
####018000361####
SARO31 LROM 080930
METAR LRBS 080930Z VRB01KT 9999 FEW018 BKN047 20/14 Q1016 NOSIG=
METAR LRCK 080930Z 01010KT 340V070 9999 SCT035 22/15 Q1015 NOSIG=
METAR LROP 080930Z VRB02KT 9999 FEW040CB BKN047 20/13 Q1016
880///95 NOSIG=
METAR LRSB 080930Z 03004KT 350V060 9999 BKN026 OVC086 15/12 Q1020=
METAR LRTR 080930Z 36006KT 320V040 9999 FEW042 20/14 Q1020=
####018000408####
SAFR31 LFPW 080930
METAR LFLL 080930Z 13004KT 090V230 CAVOK 27/15 Q1021 NOSIG=
METAR LFMN 080930Z 09007KT 9999 FEW023 29/21 Q1020 NOSIG=
METAR LFPG 080930Z 20003KT 140V270 CAVOK 28/10 Q1019 NOSIG=
METAR LFPO 080930Z 17005KT 140V200 CAVOK 28/12 Q1019 NOSIG=
METAR LFQQ 080930Z 26004KT 190V330 CAVOK 26/13 Q1019 NOSIG=
METAR LFRB 080930Z VRB03KT 9999 BKN010 20/15 Q1019 NOSIG=
METAR LFRS 080930Z NIL=
####018000091####
SAIE31 EIDB 080930 RRA
METAR EICK 080930Z 21010KT 9999 SCT012 BKN030 14/12 Q1016 NOSIG=
####018000143####
SAEW36 LEMM 080930
METAR GCLA 080930Z 01010KT 340V040 9999 BKN020 23/17 Q1019=
METAR GEML 080930Z 08009KT 040V120 9999 FEW014 26/20 Q1017=
####018000585####
SAEW31 LEMM 080930
METAR LEMD 080930Z 02004KT 350V090 CAVOK 30/12 Q1019 NOSIG=
METAR LEBL 080930Z 21015KT CAVOK 27/20 Q1019 NOSIG=
METAR LEPA 080930Z 21005KT 170V250 CAVOK 30/10 Q1020 NOSIG=
METAR LEZL 080930Z 28007KT 250V330 9999 SCT020 28/18 Q1016 NOSIG=
METAR LEMG 080930Z 14009KT 090V190 9999 FEW030 31/14 Q1016 NOSIG=
METAR LEVC 080930Z 10004KT 060V150 CAVOK 30/18 Q1019 NOSIG=
METAR LEAL 080930Z 08005KT 030V140 CAVOK 31/13 Q1019 NOSIG=
METAR LEIB 080930Z 07009KT 030V130 CAVOK 28/22 Q1019 NOSIG=
METAR LELC 080930Z NIL=
METAR LEVX 080930Z VRB03KT CAVOK 27/22 Q1013=
####018000178####
SAEW35 LEMM 080930
METAR LESA 080930Z VRB01KT CAVOK 31/14 Q1019=
METAR LEVD 080930Z 18006KT 140V240 CAVOK 30/12 Q1020=
METAR LEVS 080930Z 13005KT 030V160 CAVOK 30/13 Q1021=
####018000087####
SAKO31 RKSI 080930
METAR RKSI 080930Z 21004KT 9999 FEW040 OVC120 24/19 Q1007 NOSIG=
####018000087####
SPCN42 CWAO 080933
SPECI CYUA 080933Z AUTO 24006KT 9SM OVC002 OVC014 05/ A3008=

####018000299####
SAEW34 LEMM 080930
METAR LEDA 080930Z 14004KT 070V210 CAVOK 31/14 Q1020=
METAR LEJR 080930Z 24003KT 120V290 CAVOK 27/19 Q1016=
METAR LELL 080930Z VRB03KT CAVOK 29/15 Q1019=
METAR LEPP 080930Z 00000KT 9999 FEW060 31/15 Q1019=
METAR LEXJ 080930Z 28007KT 250V310 8000 SCT016 SCT020 24/19 Q1016=
####018000097####
SAHK31 VHHH 080930
METAR VHHH 080930Z 20013KT 150V230 9999 FEW020 SCT030 33/24 
Q1006 NOSIG=
####018000084####
SAGU31 MGGT 080930
METAR
METAR MGGT 080930Z 19004KT 9999 BKN015 FEW090 NOSIG =
####018000091####
SPCN42 CWAO 080933
SPECI CYIV 080933Z 29008KT 2SM SHRA BR BKN037 OVC050 RMK SC7SC1=

####018000112####
SAAE31 VTBB 080900 RRB
METAR VYYY 080900Z 26005G15KT 8000 BKN015 FEW018CB BKN110 33/27 Q
           1006=
####018000166####
SANM40 FYWW 080930
METAR FYWB 080930Z 07024KT 9999 R09/M0050VP1500U VV/// 31/04 Q1017 =
METAR FYWB 080930Z 07024KT 9999 R09/M0050VP1500U VV/// 31/04 Q1017 =

####018000082####
SPUS52 KWBC 080935
SPECI
KHDO 080932Z AUTO 04004KT 10SM SCT026 24/23 A2996=
####018001852####
SAEU KAWN 080900 RRX
METAR LEAL 080930Z 08005KT 030V140 CAVOK 31/13 Q1019 NOSIG=
METAR LEAM 080930Z 07018KT CAVOK 36/07 Q1016=
METAR LEAS 080930Z VRB01KT 9999 4000S FEW002 OVC012 20/19 Q1018 NOSIG=
METAR LEBB 080930Z 00000KT 8000 NSC 27/22 Q1015 NOSIG=
METAR LEBL 080930Z 21015KT CAVOK 27/20 Q1019 NOSIG=
METAR COR LECO 080930Z 16006KT 140V200 9999 FEW003 SCT010 20/20 Q1014=
METAR LEMG 080930Z 14009KT 090V190 9999 FEW030 31/14 Q1016 NOSIG=
METAR LEMH 080930Z 21006KT 170V260 CAVOK 28/20 Q1021=
METAR LEPA 080930Z 21005KT 170V250 CAVOK 30/10 Q1020 NOSIG=
METAR LEPP 080930Z 00000KT 9999 FEW060 31/15 Q1019=
METAR LESA 080930Z VRB01KT CAVOK 31/14 Q1019=
METAR LESO 080930Z 01005KT 330V050 CAVOK 24/19 Q1015=
METAR LEVC 080930Z 10004KT 060V150 CAVOK 30/18 Q1019 NOSIG=
METAR LEVD 080930Z 18006KT 140V240 CAVOK 30/12 Q1020=
METAR LEVS 080930Z 13005KT 030V160 CAVOK 30/13 Q1021=
METAR LEXJ 080930Z 28007KT 250V310 8000 SCT016 SCT020 24/19 Q1016=
METAR LEZG 080930Z 10010KT 060V140 CAVOK 31/17 Q1018=
METAR LFBO 080930Z 11010KT CAVOK 30/13 Q1019 NOSIG=
METAR LFLL 080930Z 13004KT 090V230 CAVOK 27/15 Q1021 NOSIG=
METAR LFMD 080930Z AUTO 16008KT 110V180 9999NDV NSC 29/22 Q1020=
METAR LFMN 080930Z 09007KT 9999 FEW023 29/21 Q1020 NOSIG=
METAR LFOT 080930Z AUTO 11005KT 080V160 9999NDV NSC 29/10 Q1019=
METAR LFPG 080930Z 20003KT 140V270 CAVOK 28/10 Q1019 NOSIG=
METAR LFPO 080930Z 17005KT 140V200 CAVOK 28/12 Q1019 NOSIG=
METAR LFQQ 080930Z 26004KT 190V330 CAVOK 26/13 Q1019 NOSIG=
METAR LFRB 080930Z VRB03KT 9999 BKN010 20/15 Q1019 NOSIG=
METAR LFRC 080930Z AUTO 33004KT 260V070 9999NDV FEW016 20/16 Q1019=
METAR LFRO 080930Z AUTO VRB03KT 9999NDV BKN017 19/15 Q1019=
METAR LRSB 080930Z 03004KT 350V060 9999 BKN026 OVC086 15/12 Q1020=
METAR LRTR 080930Z 36006KT 320V040 9999 FEW042 20/14 Q1020=
####018000110####
SAUS41 KAKQ 080935
MTRNTU
SPECI KNTU 080933Z 09007KT 10SM FEW005 SCT050 BKN100 25/24 A2995 RMK 
AO2 $
####018000515####
SAFR36 LFPW 080930
METAR LFGJ 080930Z AUTO 19004KT 120V280 9999NDV NSC 26/15 Q1020=
METAR LFMD 080930Z AUTO 16008KT 110V180 9999NDV NSC 29/22 Q1020=
METAR LFOT 080930Z AUTO 11005KT 080V160 9999NDV NSC 29/10 Q1019=
METAR LFRC 080930Z AUTO 33004KT 260V070 9999NDV FEW016 20/16 Q1019=
METAR LFRG 080930Z AUTO 01006KT 340V060 9999NDV NSC 24/13 Q1020=
METAR LFBA 080930Z NIL=
METAR LFBE 080930Z NIL=
METAR LFJR 080930Z NIL=
METAR LFMH 080930Z NIL=
METAR LFPN 080930Z NIL=
METAR LFRK 080930Z NIL=
####018000706####
SAEW32 LEMM 080930
METAR LEAS 080930Z VRB01KT 9999 4000S FEW002 OVC012 20/19 Q1018
NOSIG=
METAR LEBB 080930Z 00000KT 8000 NSC 27/22 Q1015 NOSIG=
METAR COR LECO 080930Z 16006KT 140V200 9999 FEW003 SCT010 20/20
Q1014=
METAR LEGE 080930Z 04001KT CAVOK 31/19 Q1019=
METAR LEST 080930Z 11009KT 9999 FEW018 19/18 Q1015 NOSIG=
METAR LEZG 080930Z 10010KT 060V140 CAVOK 31/17 Q1018=
METAR LESO 080930Z 01005KT 330V050 CAVOK 24/19 Q1015=
METAR LEVT 080930Z 08001KT CAVOK 30/16 Q1018=
METAR LERS 080930Z NIL=
METAR LEMH 080930Z 21006KT 170V260 CAVOK 28/20 Q1021=
METAR LEAM 080930Z 07018KT CAVOK 36/07 Q1016=
METAR LEGR 080930Z VRB02KT 9999 FEW060 32/11 Q1018=
METAR LERL 080930Z NIL=
####018000088####
SAKO31 RKSI 080930
METAR RKSI 080930Z 21004KT 9999 FEW040 OVC120 24/19 Q1007 NOSIG=
####018000454####
SAFR32 LFPW 080930
METAR LFBD 080930Z 10008KT 070V130 CAVOK 30/12 Q1017 NOSIG=
METAR LFBH 080930Z AUTO 19004KT 140V230 9999NDV NSC 30/13 Q1018=
METAR LFBO 080930Z 11010KT CAVOK 30/13 Q1019 NOSIG=
METAR LFML 080930Z 27008KT 9999 FEW046 30/19 Q1020 BECMG 22015KT=
METAR LFBI 080930Z NIL=
METAR LFBL 080930Z NIL=
METAR LFBP 080930Z NIL=
METAR LFBT 080930Z NIL=
METAR LFBZ 080930Z NIL=
METAR LFLB 080930Z NIL=
METAR LFLX 080930Z NIL=
####018000609####
SAFR34 LFPW 080930
METAR LFCR 080930Z AUTO VRB04KT 9999NDV NSC 30/09 Q1022=
METAR LFJL 080930Z AUTO VRB02KT 9999NDV NSC 27/09 Q1021=
METAR LFLP 080930Z AUTO VRB03KT 9999NDV NSC 27/12 Q1022=
METAR LFMU 080930Z AUTO 08007KT 040V130 9999NDV NSC 29/13 Q1020=
METAR LFOH 080930Z AUTO 36013KT 9999NDV NSC 19/13 Q1019=
METAR LFOK 080930Z AUTO 22004KT 190V260 9999NDV NSC 28/10 Q1020=
METAR LFPB 080930Z 17005KT 080V230 CAVOK 29/11 Q1019 NOSIG=
METAR LFLS 080930Z NIL=
METAR LFLY 080930Z NIL=
METAR LFMT 080930Z NIL=
METAR LFOB 080930Z NIL=
METAR LFOP 080930Z NIL=
METAR LFSN 080930Z NIL=
####018000092####
SAIE31 EIDB 080930 RRA
METAR EICK 080930Z 21010KT 9999 SCT012 BKN030 14/12 Q1016 NOSIG=
####018000243####
SATS40 DTTA 080930
METAR DTMB 080930Z 02006KT CAVOK 27/17 Q1019 NOSIG=
METAR DTNZ 080930Z AUTO 09009KT CAVOK 29/13 Q1019=
METAR DTTA 080930Z 28005KT 9999 FEW026 30/16 Q1019  NOSIG=
METAR DTTJ 080930Z 06006KT CAVOK 30/22 Q1019 NOSIG=
####018000466####
SAFR37 LFPW 080930
METAR LFAQ 080930Z AUTO 21005KT 180V260 9999NDV NSC 26/12 Q1019=
METAR LFBU 080930Z AUTO 15005KT 110V190 9999NDV NSC 30/11 Q1018=
METAR LFLN 080930Z AUTO VRB03KT 9999NDV NSC 28/15 Q1020=
METAR LFPM 080930Z VRB02KT CAVOK 29/14 Q1019=
METAR LFSD 080930Z AUTO 15004KT 090V220 9999NDV NSC 27/13 Q1020=
METAR LFTW 080930Z AUTO VRB03KT 9999NDV NSC 30/15 Q1020=
METAR LFRH 080930Z NIL=
METAR LFRQ 080930Z NIL=
METAR LFRT 080930Z NIL=
####018000367####
SARO31 LROM 080930
METAR LRBS 080930Z VRB01KT 9999 FEW018 BKN047 20/14 Q1016 NOSIG=
METAR LRCK 080930Z 01010KT 340V070 9999 SCT035 22/15 Q1015 NOSIG=
METAR LROP 080930Z VRB02KT 9999 FEW040CB BKN047 20/13 Q1016
880///95 NOSIG=
METAR LRSB 080930Z 03004KT 350V060 9999 BKN026 OVC086 15/12 Q1020=
METAR LRTR 080930Z 36006KT 320V040 9999 FEW042 20/14 Q1020=
####018000339####
SAEW33 LEMM 080930
METAR GCLP 080930Z 01022KT 9999 BKN018 24/17 Q1017 NOSIG=
METAR GCXO 080930Z 29014KT 0100 R30/0375V0900D R12/0125N FG
OVC000 17/17 Q1020 NOSIG=
METAR GCTS 080930Z 07014KT 9999 BKN014 22/18 Q1017 NOSIG=
METAR GCRR 080930Z 01016KT 9999 SCT018 24/18 Q1017=
METAR GCFV 080930Z 05011KT 9999 FEW018 22/18 Q1017=
####018000514####
SAFR35 LFPW 080930
METAR LFMI 080930Z AUTO VRB03KT 9999NDV NSC 32/14 Q1020=
METAR LFRD 080930Z AUTO 02005KT 330V070 9999NDV FEW014 20/15 Q1019=
METAR LFRN 080930Z AUTO 34006KT 300V020 9999NDV NSC 23/15 Q1018=
METAR LFRO 080930Z AUTO VRB03KT 9999NDV BKN017 19/15 Q1019=
METAR LFRZ 080930Z AUTO 02004KT 330V060 9999NDV NSC 27/14 Q1018=
METAR LFSB 080930Z 09005KT 030V170 CAVOK 27/10 Q1021 NOSIG=
METAR LFST 080930Z VRB03KT CAVOK 26/11 Q1020 NOSIG=
METAR LFMK 080930Z NIL=
METAR LFTH 080930Z NIL=
####018000415####
SAFR31 LFPW 080930
METAR LFLL 080930Z 13004KT 090V230 CAVOK 27/15 Q1021 NOSIG=
METAR LFMN 080930Z 09007KT 9999 FEW023 29/21 Q1020 NOSIG=
METAR LFPG 080930Z 20003KT 140V270 CAVOK 28/10 Q1019 NOSIG=
METAR LFPO 080930Z 17005KT 140V200 CAVOK 28/12 Q1019 NOSIG=
METAR LFQQ 080930Z 26004KT 190V330 CAVOK 26/13 Q1019 NOSIG=
METAR LFRB 080930Z VRB03KT 9999 BKN010 20/15 Q1019 NOSIG=
METAR LFRS 080930Z NIL=
####018000387####
SAFR33 LFPW 080930
METAR LFKB 080930Z 10006KT 070V130 9999 FEW021 29/22 Q1019 NOSIG=
METAR LFKJ 080930Z 24009KT 9999 FEW026 27/22 Q1019 NOSIG=
METAR LFMV 080930Z AUTO 23004KT 160V270 9999NDV NSC 31/17 Q1020=
METAR LFSL 080930Z AUTO 14004KT 080V180 9999NDV NSC 27/14 Q1020=
METAR LFKC 080930Z NIL=
METAR LFKF 080930Z NIL=
METAR LFLC 080930Z NIL=
METAR LFMP 080930Z NIL=
####018000089####
SAMG20 FMMI 080930
METAR FMMI 080930Z 11011KT 080V170 9999 BKN020 18/11 Q1026 NOSIG=
####018001887####
SAEU KAWN 080900 RRX
METAR LFBC 080930Z AUTO 09009KT 050V130 9999NDV NSC 32/12 Q1016=
METAR LFBD 080930Z 10008KT 070V130 CAVOK 30/12 Q1017 NOSIG=
METAR LFBF 080930Z AUTO 11008KT 080V150 9999NDV // NSC 30/15 Q1019=
METAR LFBG 080930Z AUTO 10007KT 060V130 9999NDV NSC 30/14 Q1018=
METAR LFBM 080930Z AUTO 11009KT 9999NDV NSC 31/17 Q1016=
METAR LFCR 080930Z AUTO VRB04KT 9999NDV NSC 30/09 Q1022=
METAR LFGJ 080930Z AUTO 19004KT 120V280 9999NDV NSC 26/15 Q1020=
METAR LFJL 080930Z AUTO VRB02KT 9999NDV NSC 27/09 Q1021=
METAR LFKB 080930Z 10006KT 070V130 9999 FEW021 29/22 Q1019 NOSIG=
METAR LFKJ 080930Z 24009KT 9999 FEW026 27/22 Q1019 NOSIG=
METAR LFMI 080930Z AUTO VRB03KT 9999NDV NSC 32/14 Q1020=
METAR LFML 080930Z 27008KT 9999 FEW046 30/19 Q1020 BECMG 22015KT=
METAR LFMU 080930Z AUTO 08007KT 040V130 9999NDV NSC 29/13 Q1020=
METAR LFOH 080930Z AUTO 36013KT 9999NDV NSC 19/13 Q1019=
METAR LFPB 080930Z 17005KT 080V230 CAVOK 29/11 Q1019 NOSIG=
METAR LFPV 080930Z AUTO /////KT 9999NDV NSC 27/13 Q1019=
METAR LFRD 080930Z AUTO 02005KT 330V070 9999NDV FEW014 20/15 Q1019=
METAR LFRN 080930Z AUTO 34006KT 300V020 9999NDV NSC 23/15 Q1018=
METAR LFRZ 080930Z AUTO 02004KT 330V060 9999NDV NSC 27/14 Q1018=
METAR LFSB 080930Z 09005KT 030V170 CAVOK 27/10 Q1021 NOSIG=
METAR LFSF 080930Z AUTO VRB02KT 9999NDV NSC 27/09 Q1020=
METAR LFSI 080930Z AUTO VRB03KT 9999NDV NSC 28/12 Q1020=
METAR LFSL 080930Z AUTO 14004KT 080V180 9999NDV NSC 27/14 Q1020=
METAR LFSR 080930Z AUTO VRB01KT 9999NDV NSC 29/11 Q1019=
METAR LFST 080930Z VRB03KT CAVOK 26/11 Q1020 NOSIG=
METAR LFSX 080930Z AUTO 16005KT 120V200 9999NDV NSC 27/13 Q1021=
METAR LRBS 080930Z VRB01KT 9999 FEW018 BKN047 20/14 Q1016 NOSIG=
METAR LRCK 080930Z 01010KT 340V070 9999 SCT035 22/15 Q1015 NOSIG=
METAR LROP 080930Z VRB02KT 9999 FEW040CB BKN047 20/13 Q1016 880///95
      NOSIG=
####018001925####
SAEW KAWN 080900 RRN
METAR LFBC 080930Z AUTO 09009KT 050V130 9999NDV NSC 32/12 Q1016=
METAR LFBD 080930Z 10008KT 070V130 CAVOK 30/12 Q1017 NOSIG=
METAR LFBF 080930Z AUTO 11008KT 080V150 9999NDV // NSC 30/15 Q1019=
METAR LFBO 080930Z 11010KT CAVOK 30/13 Q1019 NOSIG=
METAR LFCR 080930Z AUTO VRB04KT 9999NDV NSC 30/09 Q1022=
METAR LFGJ 080930Z AUTO 19004KT 120V280 9999NDV NSC 26/15 Q1020=
METAR LFJL 080930Z AUTO VRB02KT 9999NDV NSC 27/09 Q1021=
METAR LFKB 080930Z 10006KT 070V130 9999 FEW021 29/22 Q1019 NOSIG=
METAR LFKJ 080930Z 24009KT 9999 FEW026 27/22 Q1019 NOSIG=
METAR LFLL 080930Z 13004KT 090V230 CAVOK 27/15 Q1021 NOSIG=
METAR LFMD 080930Z AUTO 16008KT 110V180 9999NDV NSC 29/22 Q1020=
METAR LFMI 080930Z AUTO VRB03KT 9999NDV NSC 32/14 Q1020=
METAR LFML 080930Z 27008KT 9999 FEW046 30/19 Q1020 BECMG 22015KT=
METAR LFMN 080930Z 09007KT 9999 FEW023 29/21 Q1020 NOSIG=
METAR LFMU 080930Z AUTO 08007KT 040V130 9999NDV NSC 29/13 Q1020=
METAR LFOH 080930Z AUTO 36013KT 9999NDV NSC 19/13 Q1019=
METAR LFOT 080930Z AUTO 11005KT 080V160 9999NDV NSC 29/10 Q1019=
METAR LFPB 080930Z 17005KT 080V230 CAVOK 29/11 Q1019 NOSIG=
METAR LFPG 080930Z 20003KT 140V270 CAVOK 28/10 Q1019 NOSIG=
METAR LFPO 080930Z 17005KT 140V200 CAVOK 28/12 Q1019 NOSIG=
METAR LFQQ 080930Z 26004KT 190V330 CAVOK 26/13 Q1019 NOSIG=
METAR LFRB 080930Z VRB03KT 9999 BKN010 20/15 Q1019 NOSIG=
METAR LFRC 080930Z AUTO 33004KT 260V070 9999NDV FEW016 20/16 Q1019=
METAR LFRD 080930Z AUTO 02005KT 330V070 9999NDV FEW014 20/15 Q1019=
METAR LFRN 080930Z AUTO 34006KT 300V020 9999NDV NSC 23/15 Q1018=
METAR LFRO 080930Z AUTO VRB03KT 9999NDV BKN017 19/15 Q1019=
METAR LFRZ 080930Z AUTO 02004KT 330V060 9999NDV NSC 27/14 Q1018=
METAR LFSB 080930Z 09005KT 030V170 CAVOK 27/10 Q1021 NOSIG=
METAR LFSL 080930Z AUTO 14004KT 080V180 9999NDV NSC 27/14 Q1020=
METAR LFST 080930Z VRB03KT CAVOK 26/11 Q1020 NOSIG=
####018000072####
SASA KAWN 080900 RRG
METAR SAZM 080900Z 32005KT CAVOK 01/M01 Q1014=
####018000863####
SAXN17 KAWN 080900 RRI
METAR NWWW 080930Z AUTO 15002KT 9999NDV NCD 17/15 Q1016=
METAR RCKH 080930Z 29008KT 230V010 9999 FEW013 BKN200 31/26 Q1008 NOSIG=
METAR RCTP 080930Z 23013KT 9999 FEW025 BKN080 BKN200 30/25 Q1006 NOSIG=
METAR RJAA 080930Z 16006KT 9999 FEW020 BKN/// 26/23 Q1010 NOSIG RMK
      1CU020 A2983=
METAR RJCC 080930Z 18007KT 150V210 3000 BR BKN002 18/17 Q1010 RMK 7ST002
      A2982=
METAR RJFF 080930Z 32006KT 290V010 5000 BR NSC 26/21 Q1008 RMK 1AC130
      A2978=
METAR RJTT 080930Z 19014KT 9999 FEW020 BKN/// 26/22 Q1009 RMK 1CU020
      A2981=
METAR ROAH 080930Z 20011KT 9999 FEW010 SCT080 BKN100 29/26 Q1009 RMK
      1CU010 4AC080 6AC100 A2980=
METAR TFFF 080930Z AUTO 07009KT 9999NDV SCT011/// BKN023/// BKN030///
      28/24 Q1013=
METAR VHHH 080930Z 20013KT 150V230 9999 FEW020 SCT030 33/24 Q1006 NOSIG=
####018000375####
SAPO31 LPMG 080930
METAR LPFR 080930Z 23006KT 190V260 9000 SCT009 BKN011 23/20 Q1016=
METAR LPMA 080930Z 20004KT 170V260 9999 FEW016 23/17 Q1020 RS10003KT 
0518004KT 2303009G19KT=
METAR LPPR 080930Z 23008KT 190V260 5000 BR SCT250 22/19 Q1014=
METAR LPPS 080930Z 01011KT 9999 FEW016 SCT030 21/15 Q1020=
METAR LPPT 080930Z 18005KT 100V240 CAVOK 26/19 Q1015 NOSIG=
####018002967####
SAUS20 KNKA 080935
METAR KGAI 080935Z 00000KT 8SM BKN090 25/21 A3004 RMK AO1 
     =
METAR KGBD 080935Z AUTO 02007KT 10SM OVC015 19/18 A3016 RMK AO1=
METAR KGDV 080935Z AUTO 18005KT 10SM CLR 11/08 A3016 RMK AO1=
METAR KGPZ 080935Z AUTO 19004KT 10SM CLR 13/12 A3005 RMK AO1=
METAR KGTR 080935Z 34003KT 10SM CLR 24/23 A3004 RMK AO1=
METAR KGUC 080935Z AUTO 03003KT 10SM FEW120 09/03 A3044 RMK AO1=
METAR KGXY 080935Z AUTO 08004KT 10SM OVC009 15/12 A3032 RMK AO1=
METAR KHDN 080935Z 11009KT 10SM CLR 10/06 A3031 RMK AO1=
METAR KHEF 080935Z AUTO 01003KT 7SM SCT090 23/19 A3000 RMK AO1=
METAR KHEZ 080935Z AUTO 00000KT 8SM CLR 22/22 A3004 RMK AO1=
METAR KHNB 080935Z AUTO 00000KT 10SM BKN065 BKN080 OVC095 23/22 
    A3006 RMK AO1=
METAR KHYS 080935Z AUTO 02007KT 10SM OVC020 19/17 A3018 RMK AO1=
METAR KIWD 080935Z AUTO 00000KT 10SM BKN060 OVC110 16/15 A3000 RMK 
    AO1=
METAR KJAC 080935Z AUTO 03006KT 10SM CLR 08/M01 A3034 RMK AO1=
METAR KJHW 080935Z AUTO 00000KT 3SM CLR 19/18 A3012 RMK AO1=
SPECI KJLN 080934Z 35003KT 3SM VCTS +RA BR SCT007 BKN016 OVC023 
    23/23 A3005 RMK AO2 TSB28 P0069=
METAR KKLS 080935Z AUTO 00000KT 10SM CLR 16/13 A2991 RMK AO1=
METAR KLBL 080935Z 06008KT 10SM SCT038 OVC047 19/17 A3021 RMK AO1=
METAR KLCI 080935Z AUTO 00000KT 10SM OVC100 22/19 A3005 RMK AO1=
METAR KLEW 080935Z 16004KT 3SM OVC003 20/19 A3009 RMK AO1=
METAR KLGD 080935Z AUTO 00000KT 10SM CLR 11/05 A3005 RMK AO1=
METAR KLHM 080931Z AUTO 16007KT 10SM CLR 17/11 A2982 RMK AO1 
     T01700110=
METAR KLKV 080935Z AUTO 34010KT 10SM CLR 09/01 A3012 RMK AO1=
SPECI KLNR 080934Z AUTO 22003KT 10SM BKN006 OVC010 21/19 A3002 RMK 
    AO2=
METAR KLPC 080935Z AUTO 00000KT 10SM OVC012 14/11 A2991 RMK AO1 PNO=
METAR KLRU 080932Z AUTO 05003KT 10SM CLR 19/15 A3016 RMK AO2=
METAR KLUX 080935Z AUTO 29004KT 10SM CLR 22/22 A3001 RMK AO2=
METAR KLXN 080930Z AUTO 30004KT 10SM OVC049 16/16 A3023 RMK AO2 
     T01630155=
METAR KMBL 080935Z AUTO 00000KT 10SM FEW065 OVC100 22/19 A2999 RMK 
    AO1=
METAR KMER 080935Z AUTO 32006KT 10SM CLR 18/11 A2983 RMK AO1 =
METAR KMJX 080935Z AUTO 00000KT 2SM SCT014 BKN060 BKN090 23/22 A3002 
    RMK AO1=
METAR KMKT 080935Z 30004KT 10SM CLR 17/16 A3009 RMK AO1=
METAR KMLE 080930Z AUTO 00000KT 10SM CLR 20/17 A3012 RMK AO2 
     T01980168=
METAR KMMH 080930Z AUTO 28006G09KT 10SM CLR 12/02 A3021 RMK AO1=
METAR KMML 080935Z AUTO 27004KT 10SM CLR 14/12 A3012 RMK AO1=
METAR KMNI 080935Z AUTO 00000KT 10SM CLR 24/22 A2995 RMK AO2=
METAR KMNM 080935Z AUTO 00000KT 5SM BKN011 BKN021 OVC038 21/19 A2998 
    RMK AO1=
METAR KMRF 080935Z AUTO 01006KT 10SM SCT120 16/13 A3017 RMK AO1=
METAR KMSV 080935Z AUTO 4SM CLR 21/18 A3010 RMK AO1=
METAR KMTW 080935Z 16006KT 10SM OVC110 22/21 A2997 RMK AO1=
METAR KMVN 080935Z AUTO 00000KT 2 1/2SM CLR 22/21 A3005 RMK AO1=
METAR KOGA 080930Z AUTO 00000KT 5SM BR BKN090 16/15 A3026 RMK AO2 
     T01550145=
####018002949####
SAUS20 KNKA 080935
METAR KPMV 080930Z AUTO 33003KT 10SM CLR 20/19 A3012 RMK AO2 
     T01950186=
METAR KAEG 080935Z AUTO 00000KT 10SM FEW120 16/08 A3028 RMK AO1  =
METAR KAFJ 080935Z AUTO 00000KT M1/4SM OVC003 17/17 A3011 RMK AO1=
METAR KAIZ 080935Z AUTO 00000KT 10SM SCT028 BKN070 22/21 A3005 RMK 
    AO1=
SPECI KAQW 080934Z AUTO 00000KT 2SM BR CLR 18/18 A3006 RMK AO2=
METAR KARG 080935Z AUTO 21005KT 9SM CLR 24/22 A3005 RMK AO1=
METAR KAUO 080935Z AUTO 00000KT 10SM CLR 25/21 A3002 RMK AO1=
METAR KAWO 080935Z AUTO 00000KT 10SM CLR 15/14 A2997 RMK AO1=
METAR KBHB 080935Z AUTO 19007KT 1SM OVC002 18/18 A3010 RMK AO1=
METAR KBID 080935Z AUTO 14006KT 1/4SM OVC002 21/20 A3006 RMK AO1=
METAR KBKX 080935Z AUTO 00000KT 10SM CLR 14/12 A3016 RMK AO1=
METAR KBLM 080935Z AUTO 13006KT 4SM FEW065 FEW070 BKN100 24/21 A3004 
    RMK AO1=
METAR KBOW 080935Z AUTO 00000KT 10SM CLR 21/21 A2999 RMK AO2 =
METAR KBTP 080935Z AUTO 03004KT 2SM CLR 18/18 A3009 RMK AO1=
METAR KBVX 080935Z AUTO 14004KT 10SM CLR 24/22 A3005 RMK AO1=
METAR KCGC 080935Z AUTO 00000KT 10SM CLR 21/21 A2998 RMK=
METAR KCGZ 080935Z AUTO 00000KT 10SM CLR 29/00 A2979 RMK AO1=
METAR KCIU 080935Z AUTO 22006KT 9SM FEW090 BKN120 19/18 A2995 RMK 
    AO1=
METAR KCOD 080935Z 16004KT 10SM CLR 11/02 A3032 RMK AO1=
METAR KCOE 080935Z AUTO 04009KT 10SM CLR 17/08 A3009 RMK AO1=
METAR KCVN 080935Z AUTO 05004KT 10SM BKN120 17/14 A3021 RMK AO1=
METAR KCVO 080935Z AUTO 28012KT 10SM CLR 14/09 A2991 RMK AO1=
METAR KCWI 080935Z 00000KT 2 1/2SM OVC003 A3003 RMK AO1=
METAR KDUC 080934Z AUTO 05003KT 10SM CLR 22/22 A3004 RMK AO2=
METAR KDVL 080935Z AUTO 25006KT 10SM CLR 16/13 A3006 RMK AO1=
METAR KDYB 080935Z AUTO 00000KT 10SM CLR 22/20 A2996 RMK AO1=
METAR KDYR 080935Z AUTO 24003KT 10SM CLR 24/19 A3006 RMK AO1=
METAR KEAR 080935Z AUTO 33003KT 10SM CLR 15/13 A3023 RMK AO1=
METAR KEEN 080935Z AUTO 00000KT 2 1/2SM FEW110 22/21 A3006 RMK AO1=
METAR KEGE 080935Z 09007KT 10SM CLR 09/08 A3036 RMK AO1=
METAR KEHR 080935Z AUTO 00000KT 6SM FEW090 22/18 A3005 RMK AO1=
METAR KENV 080935Z 21003KT 10SM CLR 20/M01 A3008 RMK AO1=
METAR KESC 080935Z AUTO 00000KT 7SM CLR 19/16 A2996 RMK AO1=
METAR KEUL 080935Z AUTO 00000KT 10SM CLR 14/07 A3005 RMK AO1=
METAR KEWK 080935Z AUTO 34005KT 10SM OVC006 21/19 A3007 RMK AO1=
METAR KFAM 080935Z AUTO 19003KT 10SM FEW080 FEW100 23/22 A3008 RMK 
    AO1=
SPECI KFIT 080934Z AUTO 14007KT 4SM BR BKN010 OVC065 23/21 A3007 RMK 
    AO2=
METAR KFKL 080935Z 00000KT 5SM CLR 19/17 A3014 RMK AO1=
METAR KFLP 080935Z AUTO 11003KT 10SM BKN090 23/22 A3004 RMK AO1=
METAR KFNL 080935Z AUTO 07005KT 3SM BKN002 14/13 A3032 RMK AO1=
METAR KFOD 080935Z AUTO 33003KT 10SM CLR 18/17 A3011 RMK AO1=
METAR KFRM 080935Z AUTO 10SM CLR 16/14 A3013 RMK AO1=
METAR KFTN 080935Z AUTO 00000KT 10SM BKN024 25/23 A2991 RMK AO1 =
METAR KGAD 080935Z AUTO 00000KT 10SM CLR 22/19 A3004 RMK AO1=
####018000085####
SAUS20 KNKA 080935
METAR KYKN 080935Z AUTO 28003KT 10SM CLR 17/14 A3017 RMK AO1=
####018002971####
SAUS20 KNKA 080935
METAR KOKK 080935Z AUTO 15003KT 7SM BKN100 22/16 A3005 RMK AO1=
METAR KOLU 080935Z AUTO 00000KT 10SM CLR 16/14 A3017 RMK AO1=
METAR KONL 080930Z AUTO 28003KT 10SM BKN120 16/14 A3021 RMK AO2 
     T01610144=
METAR KOTG 080935Z AUTO 25003KT 10SM CLR 14/13 A3015 RMK AO1=
METAR KOTH 080935Z 29003KT 10SM BKN008 10/08 A3000 RMK AO1=
METAR KOXC 080935Z 00000KT 1 1/2SM OVC003 22/21 A3008 RMK AO1=
METAR KPIB 080935Z AUTO 32003KT 9SM CLR 23/21 A3004 RMK AO1=
METAR KPNA 080930Z AUTO 29004KT 10SM CLR 06/02 A3039 RMK AO2 
     T00550017=
METAR KPQI 080935Z AUTO 15005KT 9SM CLR 21/18 A2999 RMK AO1=
METAR KPTN 080935Z AUTO 07004KT 10SM CLR 24/M09 A3000 RMK AO1=
METAR KPTT 080930Z AUTO 02007KT 7SM SCT003 OVC008 20/19 A3014 RMK 
     AO2=
METAR KPTV 080935Z AUTO 17005KT 10SM CLR 19/12 A2984 RMK AO1=
METAR KPVC 080935Z 17007KT 7SM OVC003 21/20 A3009 RMK AO1=
METAR KPVU 080935Z 00000KT 10SM CLR 16/09 A3012 RMK AO1=
METAR KPWT 080935Z AUTO 04010KT 10SM CLR 23/06 A2997 RMK AO1=
METAR KRKD 080935Z AUTO 20004KT M1/4SM OVC002 18/17 A3009 RMK AO1=
METAR KRKR 080934Z AUTO 18003KT 10SM OVC031 27/25 A3003 RMK AO2=
METAR KRUT 080935Z AUTO 13008KT 5SM CLR 21/19 A3005 RMK AO1=
METAR KSDY 080935Z AUTO 20005KT 10SM CLR 12/09 A3015 RMK AO1=
METAR KSFM 080935Z 00000KT 1SM OVC002 21/18 A3008 RMK AO1=
METAR KSFZ 080935Z AUTO 00000KT 10SM OVC012 22/21 A3007 RMK AO1=
METAR KSGT 080935Z 13004KT 10SM CLR 23/22 A3005 RMK AO1=
METAR KSGU 080935Z AUTO 10003KT 10SM CLR 26/01 A2995 RMK AO1=
METAR KSKX 080935Z AUTO 03003KT 10SM BKN110 11/04 A3037 RMK AO1=
METAR KSLG 080935Z AUTO 17007KT 10SM BKN021 23/21 A3006 RMK AO1=
METAR KSMN 080935Z AUTO 00000KT 10SM CLR 08/02 A3023 RMK AO1=
METAR KSOW 080930Z AUTO 24008KT 10SM SCT100 21/04 A3025 RMK AO2=
METAR KSPA 080935Z AUTO 00000KT 10SM CLR 22/22 A3001 RMK AO2=
METAR KSPL 080935Z AUTO RMK AO2 PWINO PNO =
METAR KSQI 080935Z 00000KT 5SM BKN003 OVC065 22/22 A3003 RMK AO1=
METAR KSUE 080935Z AUTO 28003KT 6SM BKN008 BKN120 21/19 A2998 RMK 
    AO1=
METAR KSUN 080931Z AUTO 30008G15KT 10SM CLR 11/01 A3024 RMK AO2=
METAR KSZT 080930Z AUTO 00000KT 10SM CLR 10/08 A3010 RMK AO2=
METAR KTIF 080930Z AUTO 00000KT 10SM OVC100 16/15 A3025 RMK AO2 
     T01560145=
METAR KTRK 080930Z AUTO 00000KT 10SM CLR 12/08 A3015 RMK AO2=
METAR KTVF 080935Z AUTO 26007KT 10SM CLR 14/11 A3004 RMK AO1=
METAR KUTA 080935Z AUTO 00000KT 10SM CLR 23/22 A3007 RMK AO2=
METAR KVBT 080935Z AUTO 20003KT 10SM BKN032 23/21 A3003 RMK AO1=
METAR KVIS 080935Z AUTO 30004KT 10SM CLR 20/13 A2980 RMK AO1=
SPECI KVSF 080934Z AUTO 00000KT 2 1/2SM BR BKN002 21/19 A3007 RMK 
    AO2 $=
SPECI KWST 080934Z AUTO 09006KT 2 1/2SM BR OVC002 22/21 A3007 RMK 
    AO2=
METAR KWVL 080935Z AUTO 19003KT 8SM OVC006 21/19 A3004 RMK AO1=
METAR KWWD 080935Z AUTO 8SM SCT120 23/23 A3002 RMK AO1=
METAR KX40 080935Z AUTO 00000KT 7SM CLR 22/22 A3000 RMK AO2 
     T02220215=
####018000106####
SPUS90 KWBC 080936
SPECI KNTU 080933Z 09007KT 10SM FEW005 SCT050 BKN100 25/24 A2995
     RMK AO2 $=
####018000376####
SAPO31 LPMG 080930
METAR LPFR 080930Z 23006KT 190V260 9000 SCT009 BKN011 23/20 Q1016=
METAR LPMA 080930Z 20004KT 170V260 9999 FEW016 23/17 Q1020 RS10003KT 
0518004KT 2303009G19KT=
METAR LPPR 080930Z 23008KT 190V260 5000 BR SCT250 22/19 Q1014=
METAR LPPS 080930Z 01011KT 9999 FEW016 SCT030 21/15 Q1020=
METAR LPPT 080930Z 18005KT 100V240 CAVOK 26/19 Q1015 NOSIG=
####018003738####
SAUS99 KWBC 080936
METAR
KOKK 080935Z AUTO 15003KT 7SM BKN100 22/16 A3005 RMK AO1=
KOLU 080935Z AUTO 00000KT 10SM CLR 16/14 A3017 RMK AO1=
KONL 080930Z AUTO 28003KT 10SM BKN120 16/14 A3021 RMK AO2
     T01610144=
KOTG 080935Z AUTO 25003KT 10SM CLR 14/13 A3015 RMK AO1=
KOTH 080935Z 29003KT 10SM BKN008 10/08 A3000 RMK AO1=
KOXC 080935Z 00000KT 1 1/2SM OVC003 22/21 A3008 RMK AO1=
KPIB 080935Z AUTO 32003KT 9SM CLR 23/21 A3004 RMK AO1=
KPNA 080930Z AUTO 29004KT 10SM CLR 06/02 A3039 RMK AO2
     T00550017=
KPQI 080935Z AUTO 15005KT 9SM CLR 21/18 A2999 RMK AO1=
KPTN 080935Z AUTO 07004KT 10SM CLR 24/M09 A3000 RMK AO1=
KPTT 080930Z AUTO 02007KT 7SM SCT003 OVC008 20/19 A3014 RMK
     AO2=
KPTV 080935Z AUTO 17005KT 10SM CLR 19/12 A2984 RMK AO1=
KPVC 080935Z 17007KT 7SM OVC003 21/20 A3009 RMK AO1=
KPVU 080935Z 00000KT 10SM CLR 16/09 A3012 RMK AO1=
KPWT 080935Z AUTO 04010KT 10SM CLR 23/06 A2997 RMK AO1=
KRKD 080935Z AUTO 20004KT M1/4SM OVC002 18/17 A3009 RMK AO1=
KRKR 080934Z AUTO 18003KT 10SM OVC031 27/25 A3003 RMK AO2=
KRUT 080935Z AUTO 13008KT 5SM CLR 21/19 A3005 RMK AO1=
KSDY 080935Z AUTO 20005KT 10SM CLR 12/09 A3015 RMK AO1=
KSFM 080935Z 00000KT 1SM OVC002 21/18 A3008 RMK AO1=
KSFZ 080935Z AUTO 00000KT 10SM OVC012 22/21 A3007 RMK AO1=
KSGT 080935Z 13004KT 10SM CLR 23/22 A3005 RMK AO1=
KSGU 080935Z AUTO 10003KT 10SM CLR 26/01 A2995 RMK AO1=
KSKX 080935Z AUTO 03003KT 10SM BKN110 11/04 A3037 RMK AO1=
KSLG 080935Z AUTO 17007KT 10SM BKN021 23/21 A3006 RMK AO1=
KSMN 080935Z AUTO 00000KT 10SM CLR 08/02 A3023 RMK AO1=
KSOW 080930Z AUTO 24008KT 10SM SCT100 21/04 A3025 RMK AO2=
KSPA 080935Z AUTO 00000KT 10SM CLR 22/22 A3001 RMK AO2=
KSPL 080935Z AUTO RMK AO2 PWINO PNO=
KSQI 080935Z 00000KT 5SM BKN003 OVC065 22/22 A3003 RMK AO1=
KSUE 080935Z AUTO 28003KT 6SM BKN008 BKN120 21/19 A2998 RMK
     AO1=
KSUN 080931Z AUTO 30008G15KT 10SM CLR 11/01 A3024 RMK AO2=
KSZT 080930Z AUTO 00000KT 10SM CLR 10/08 A3010 RMK AO2=
KTIF 080930Z AUTO 00000KT 10SM OVC100 16/15 A3025 RMK AO2
     T01560145=
KTRK 080930Z AUTO 00000KT 10SM CLR 12/08 A3015 RMK AO2=
KTVF 080935Z AUTO 26007KT 10SM CLR 14/11 A3004 RMK AO1=
KUTA 080935Z AUTO 00000KT 10SM CLR 23/22 A3007 RMK AO2=
KVBT 080935Z AUTO 20003KT 10SM BKN032 23/21 A3003 RMK AO1=
KVIS 080935Z AUTO 30004KT 10SM CLR 20/13 A2980 RMK AO1=
KWVL 080935Z AUTO 19003KT 8SM OVC006 21/19 A3004 RMK AO1=
KWWD 080935Z AUTO 8SM SCT120 23/23 A3002 RMK AO1=
KX40 080935Z AUTO 00000KT 7SM CLR 22/22 A3000 RMK AO2
     T02220215=
KYKN 080935Z AUTO 28003KT 10SM CLR 17/14 A3017 RMK AO1=
KPMV 080930Z AUTO 33003KT 10SM CLR 20/19 A3012 RMK AO2
     T01950186=
KAEG 080935Z AUTO 00000KT 10SM FEW120 16/08 A3028 RMK AO1=
KAFJ 080935Z AUTO 00000KT M1/4SM OVC003 17/17 A3011 RMK AO1=
KAIZ 080935Z AUTO 00000KT 10SM SCT028 BKN070 22/21 A3005 RMK
     AO1=
KARG 080935Z AUTO 21005KT 9SM CLR 24/22 A3005 RMK AO1=
KAUO 080935Z AUTO 00000KT 10SM CLR 25/21 A3002 RMK AO1=
KAWO 080935Z AUTO 00000KT 10SM CLR 15/14 A2997 RMK AO1=
KBHB 080935Z AUTO 19007KT 1SM OVC002 18/18 A3010 RMK AO1=
KBID 080935Z AUTO 14006KT 1/4SM OVC002 21/20 A3006 RMK AO1=
KBKX 080935Z AUTO 00000KT 10SM CLR 14/12 A3016 RMK AO1=
KBLM 080935Z AUTO 13006KT 4SM FEW065 FEW070 BKN100 24/21 A3004 RMK
     AO1=
KBOW 080935Z AUTO 00000KT 10SM CLR 21/21 A2999 RMK AO2=
KBTP 080935Z AUTO 03004KT 2SM CLR 18/18 A3009 RMK AO1=
KBVX 080935Z AUTO 14004KT 10SM CLR 24/22 A3005 RMK AO1=
KCGC 080935Z AUTO 00000KT 10SM CLR 21/21 A2998 RMK=
KCGZ 080935Z AUTO 00000KT 10SM CLR 29/00 A2979 RMK AO1=
KCIU 080935Z AUTO 22006KT 9SM FEW090 BKN120 19/18 A2995 RMK
     AO1=
KCOD 080935Z 16004KT 10SM CLR 11/02 A3032 RMK AO1=
####018003743####
SAUS99 KWBC 080936 RRA
METAR
KCOE 080935Z AUTO 04009KT 10SM CLR 17/08 A3009 RMK AO1=
KCVN 080935Z AUTO 05004KT 10SM BKN120 17/14 A3021 RMK AO1=
KCVO 080935Z AUTO 28012KT 10SM CLR 14/09 A2991 RMK AO1=
KCWI 080935Z 00000KT 2 1/2SM OVC003 A3003 RMK AO1=
KDUC 080934Z AUTO 05003KT 10SM CLR 22/22 A3004 RMK AO2=
KDVL 080935Z AUTO 25006KT 10SM CLR 16/13 A3006 RMK AO1=
KDYB 080935Z AUTO 00000KT 10SM CLR 22/20 A2996 RMK AO1=
KDYR 080935Z AUTO 24003KT 10SM CLR 24/19 A3006 RMK AO1=
KEAR 080935Z AUTO 33003KT 10SM CLR 15/13 A3023 RMK AO1=
KEEN 080935Z AUTO 00000KT 2 1/2SM FEW110 22/21 A3006 RMK AO1=
KEGE 080935Z 09007KT 10SM CLR 09/08 A3036 RMK AO1=
KEHR 080935Z AUTO 00000KT 6SM FEW090 22/18 A3005 RMK AO1=
KENV 080935Z 21003KT 10SM CLR 20/M01 A3008 RMK AO1=
KESC 080935Z AUTO 00000KT 7SM CLR 19/16 A2996 RMK AO1=
KEUL 080935Z AUTO 00000KT 10SM CLR 14/07 A3005 RMK AO1=
KEWK 080935Z AUTO 34005KT 10SM OVC006 21/19 A3007 RMK AO1=
KFAM 080935Z AUTO 19003KT 10SM FEW080 FEW100 23/22 A3008 RMK
     AO1=
KFKL 080935Z 00000KT 5SM CLR 19/17 A3014 RMK AO1=
KFLP 080935Z AUTO 11003KT 10SM BKN090 23/22 A3004 RMK AO1=
KFNL 080935Z AUTO 07005KT 3SM BKN002 14/13 A3032 RMK AO1=
KFOD 080935Z AUTO 33003KT 10SM CLR 18/17 A3011 RMK AO1=
KFRM 080935Z AUTO 10SM CLR 16/14 A3013 RMK AO1=
KFTN 080935Z AUTO 00000KT 10SM BKN024 25/23 A2991 RMK AO1=
KGAD 080935Z AUTO 00000KT 10SM CLR 22/19 A3004 RMK AO1=
KGAI 080935Z 00000KT 8SM BKN090 25/21 A3004 RMK AO1=
KGBD 080935Z AUTO 02007KT 10SM OVC015 19/18 A3016 RMK AO1=
KGDV 080935Z AUTO 18005KT 10SM CLR 11/08 A3016 RMK AO1=
KGPZ 080935Z AUTO 19004KT 10SM CLR 13/12 A3005 RMK AO1=
KGTR 080935Z 34003KT 10SM CLR 24/23 A3004 RMK AO1=
KGUC 080935Z AUTO 03003KT 10SM FEW120 09/03 A3044 RMK AO1=
KGXY 080935Z AUTO 08004KT 10SM OVC009 15/12 A3032 RMK AO1=
KHDN 080935Z 11009KT 10SM CLR 10/06 A3031 RMK AO1=
KHEF 080935Z AUTO 01003KT 7SM SCT090 23/19 A3000 RMK AO1=
KHEZ 080935Z AUTO 00000KT 8SM CLR 22/22 A3004 RMK AO1=
KHNB 080935Z AUTO 00000KT 10SM BKN065 BKN080 OVC095 23/22 A3006
     RMK AO1=
KHYS 080935Z AUTO 02007KT 10SM OVC020 19/17 A3018 RMK AO1=
KIWD 080935Z AUTO 00000KT 10SM BKN060 OVC110 16/15 A3000 RMK
     AO1=
KJAC 080935Z AUTO 03006KT 10SM CLR 08/M01 A3034 RMK AO1=
KJHW 080935Z AUTO 00000KT 3SM CLR 19/18 A3012 RMK AO1=
KKLS 080935Z AUTO 00000KT 10SM CLR 16/13 A2991 RMK AO1=
KLBL 080935Z 06008KT 10SM SCT038 OVC047 19/17 A3021 RMK AO1=
KLCI 080935Z AUTO 00000KT 10SM OVC100 22/19 A3005 RMK AO1=
KLEW 080935Z 16004KT 3SM OVC003 20/19 A3009 RMK AO1=
KLGD 080935Z AUTO 00000KT 10SM CLR 11/05 A3005 RMK AO1=
KLHM 080931Z AUTO 16007KT 10SM CLR 17/11 A2982 RMK AO1
     T01700110=
KLKV 080935Z AUTO 34010KT 10SM CLR 09/01 A3012 RMK AO1=
KLPC 080935Z AUTO 00000KT 10SM OVC012 14/11 A2991 RMK AO1 PNO=
KLRU 080932Z AUTO 05003KT 10SM CLR 19/15 A3016 RMK AO2=
KLUX 080935Z AUTO 29004KT 10SM CLR 22/22 A3001 RMK AO2=
KLXN 080930Z AUTO 30004KT 10SM OVC049 16/16 A3023 RMK AO2
     T01630155=
KMBL 080935Z AUTO 00000KT 10SM FEW065 OVC100 22/19 A2999 RMK
     AO1=
KMER 080935Z AUTO 32006KT 10SM CLR 18/11 A2983 RMK AO1=
KMJX 080935Z AUTO 00000KT 2SM SCT014 BKN060 BKN090 23/22 A3002 RMK
     AO1=
KMKT 080935Z 30004KT 10SM CLR 17/16 A3009 RMK AO1=
KMLE 080930Z AUTO 00000KT 10SM CLR 20/17 A3012 RMK AO2
     T01980168=
KMMH 080930Z AUTO 28006G09KT 10SM CLR 12/02 A3021 RMK AO1=
KMML 080935Z AUTO 27004KT 10SM CLR 14/12 A3012 RMK AO1=
KMNI 080935Z AUTO 00000KT 10SM CLR 24/22 A2995 RMK AO2=
KMNM 080935Z AUTO 00000KT 5SM BKN011 BKN021 OVC038 21/19 A2998 RMK
     AO1=
KMRF 080935Z AUTO 01006KT 10SM SCT120 16/13 A3017 RMK AO1=
KMSV 080935Z AUTO 4SM CLR 21/18 A3010 RMK AO1=
####018000230####
SAUS99 KWBC 080936 RRB
METAR
KMTW 080935Z 16006KT 10SM OVC110 22/21 A2997 RMK AO1=
KMVN 080935Z AUTO 00000KT 2 1/2SM CLR 22/21 A3005 RMK AO1=
KOGA 080930Z AUTO 00000KT 5SM BR BKN090 16/15 A3026 RMK AO2
     T01550145=
####018000491####
SPUS99 KWBC 080936
SPECI
KVSF 080934Z AUTO 00000KT 2 1/2SM BR BKN002 21/19 A3007 RMK AO2
     $=
KWST 080934Z AUTO 09006KT 2 1/2SM BR OVC002 22/21 A3007 RMK
     AO2=
KAQW 080934Z AUTO 00000KT 2SM BR CLR 18/18 A3006 RMK AO2=
KFIT 080934Z AUTO 14007KT 4SM BR BKN010 OVC065 23/21 A3007 RMK
     AO2=
KJLN 080934Z 35003KT 3SM VCTS +RA BR SCT007 BKN016 OVC023 23/23
     A3005 RMK AO2 TSB28 P0069=
KLNR 080934Z AUTO 22003KT 10SM BKN006 OVC010 21/19 A3002 RMK
     AO2=
####018000418####
SARO32 LROM 080930
METAR LRAR 080930Z 02010KT 340V050 9999 SCT033 21/15 Q1020=
METAR LRBM 080930Z VRB02KT 9999 FEW009 SCT018 17/16 Q1019 1019//95=
METAR LRCL 080930Z 29008KT 9999 FEW012 SCT019 BKN024 16/13 Q1020
0821//95=
METAR LROD 080930Z 02008KT 330V050 9999 FEW035 21/14 Q1021=
METAR LRSM 080930Z 05008KT 9999 SCT030 21/13 Q1020=
METAR LRTM 080930Z 22006KT 190V250 9999 FEW010 SCT015 BKN023 17/14
Q1020=
####018000326####
SARO33 LROM 080930
METAR LRBC 080930Z 36014KT 330V040 9999 BKN030 23/16 Q1017=
METAR LRCV 080930Z 06004KT 350V150 9999 FEW029 21/14 Q1017=
METAR LRIA 080930Z 32010KT 270V010 9999 FEW020 SCT034 23/17 Q1017=
METAR LRSV 080930Z 32016KT 9999 BKN010 16/15 Q1018=
METAR LRTC 080930Z 35012KT 9999 FEW030CB BKN040 22/17 Q1014=
####018000161####
SANM40 FYWW 080930
METAR FYWB 080930Z 07024KT 9999 R09/M0050VP1500U VV/// 31/04 Q1017 =
METAR FYWB 080930Z 07024KT 9999 R09/M0050VP1500U VV/// 31/04 Q1017 =
####018000088####
SAMG20 FMMI 080930
METAR FMMI 080930Z 11011KT 080V170 9999 BKN020 18/11 Q1026 NOSIG=
####018000103####
SPIY43 LIIB 080836
SPECI LIBG 080836Z 36017G28KT 330V030 9999 FEW028 27/09 Q1018 RMK
VIS MIN 9999=
####018000369####
SAPO31 LPMG 080930
METAR LPFR 080930Z 23006KT 190V260 9000 SCT009 BKN011 23/20 Q1016=
METAR LPMA 080930Z 20004KT 170V260 9999 FEW016 23/17 Q1020 RS10003KT
0518004KT 2303009G19KT=
METAR LPPR 080930Z 23008KT 190V260 5000 BR SCT250 22/19 Q1014=
METAR LPPS 080930Z 01011KT 9999 FEW016 SCT030 21/15 Q1020=
METAR LPPT 080930Z 18005KT 100V240 CAVOK 26/19 Q1015 NOSIG=
####018000108####
SPXX60 KWBC 080936
SPECI
KNTU 080933Z 09007KT 10SM FEW005 SCT050 BKN100 25/24 A2995 RMK AO2
     $=
####018000264####
SAUS80 KWBC 080936
METAR
KSOW 080930Z AUTO 24008KT 10SM SCT100 21/04 A3025 RMK AO2=
KDVL 080935Z AUTO 25006KT 10SM CLR 16/13 A3006 RMK AO1=
KEAR 080935Z AUTO 33003KT 10SM CLR 15/13 A3023 RMK AO1=
KGPZ 080935Z AUTO 19004KT 10SM CLR 13/12 A3005 RMK AO1=
####018000687####
SPUS70 KWBC 080936
SPECI
KBAZ 080933Z AUTO 05007KT 10SM FEW011 BKN030 25/24 A2993 RMK
     AO2=
KASH 080933Z 13004KT 4SM BR BKN008 23/22 A3007 RMK AO2=
KGCK 080933Z AUTO 03009KT 10SM BKN013 BKN043 OVC055 18/17 A3021
     RMK AO2=
KLAA 080933Z AUTO 08005KT 9SM FEW004 SCT015 OVC023 17/17 A3026 RMK
     AO2=
KVSF 080934Z AUTO 00000KT 2 1/2SM BR BKN002 21/19 A3007 RMK AO2
     $=
KWST 080934Z AUTO 09006KT 2 1/2SM BR OVC002 22/21 A3007 RMK
     AO2=
KAQW 080934Z AUTO 00000KT 2SM BR CLR 18/18 A3006 RMK AO2=
KFIT 080934Z AUTO 14007KT 4SM BR BKN010 OVC065 23/21 A3007 RMK
     AO2=
KLNR 080934Z AUTO 22003KT 10SM BKN006 OVC010 21/19 A3002 RMK
     AO2=
####018000726####
SAUS70 KWBC 080936 RRB
METAR
KMKT 080935Z 30004KT 10SM CLR 17/16 A3009 RMK AO1=
KMLE 080930Z AUTO 00000KT 10SM CLR 20/17 A3012 RMK AO2
     T01980168=
KMMH 080930Z AUTO 28006G09KT 10SM CLR 12/02 A3021 RMK AO1=
KMML 080935Z AUTO 27004KT 10SM CLR 14/12 A3012 RMK AO1=
KMNI 080935Z AUTO 00000KT 10SM CLR 24/22 A2995 RMK AO2=
KMNM 080935Z AUTO 00000KT 5SM BKN011 BKN021 OVC038 21/19 A2998 RMK
     AO1=
KMRF 080935Z AUTO 01006KT 10SM SCT120 16/13 A3017 RMK AO1=
KMSV 080935Z AUTO 4SM CLR 21/18 A3010 RMK AO1=
KMTW 080935Z 16006KT 10SM OVC110 22/21 A2997 RMK AO1=
KMVN 080935Z AUTO 00000KT 2 1/2SM CLR 22/21 A3005 RMK AO1=
KOGA 080930Z AUTO 00000KT 5SM BR BKN090 16/15 A3026 RMK AO2
     T01550145=
####018003722####
SAUS70 KWBC 080936
METAR
KAIK 080935Z AUTO 28003KT 10SM CLR 23/22 A3003 RMK AO2 PNO=
KARW 080935Z AUTO 27006KT 10SM CLR 24/18 A2997 RMK AO2=
KBDN 080935Z AUTO 00000KT 10SM CLR 14/03 A3010 RMK AO2=
KFDW 080935Z AUTO 27005KT 10SM CLR 25/17 A3000 RMK AO1=
KGLY 080935Z AUTO 00000KT 10SM CLR 23/23 A3003 RMK AO2=
KMEZ 080935Z AUTO 00000KT 10SM BKN015 BKN021 OVC031 25/23 A3006
     RMK AO2=
KMYR 080935Z AUTO 30007KT 10SM CLR 25/19 A2995 RMK AO1=
KOAJ 080935Z AUTO 34003KT 10SM CLR 22/20 A2993 RMK AO1=
KOCF 080935Z AUTO 00000KT 5SM CLR 20/20 A3000 RMK AO1=
KPSO 080935Z AUTO 00000KT 10SM CLR 11/05 A3038 RMK AO2=
KSOP 080935Z AUTO 00000KT 10SM CLR 23/17 A2996 RMK AO1=
KUDG 080935Z 34003KT 10SM CLR 24/18 A2998 RMK AO1=
KOKK 080935Z AUTO 15003KT 7SM BKN100 22/16 A3005 RMK AO1=
KOLU 080935Z AUTO 00000KT 10SM CLR 16/14 A3017 RMK AO1=
KONL 080930Z AUTO 28003KT 10SM BKN120 16/14 A3021 RMK AO2
     T01610144=
KOTG 080935Z AUTO 25003KT 10SM CLR 14/13 A3015 RMK AO1=
KOTH 080935Z 29003KT 10SM BKN008 10/08 A3000 RMK AO1=
KOXC 080935Z 00000KT 1 1/2SM OVC003 22/21 A3008 RMK AO1=
KPIB 080935Z AUTO 32003KT 9SM CLR 23/21 A3004 RMK AO1=
KPNA 080930Z AUTO 29004KT 10SM CLR 06/02 A3039 RMK AO2
     T00550017=
KPQI 080935Z AUTO 15005KT 9SM CLR 21/18 A2999 RMK AO1=
KPTN 080935Z AUTO 07004KT 10SM CLR 24/M09 A3000 RMK AO1=
KPTT 080930Z AUTO 02007KT 7SM SCT003 OVC008 20/19 A3014 RMK
     AO2=
KPTV 080935Z AUTO 17005KT 10SM CLR 19/12 A2984 RMK AO1=
KPVC 080935Z 17007KT 7SM OVC003 21/20 A3009 RMK AO1=
KPVU 080935Z 00000KT 10SM CLR 16/09 A3012 RMK AO1=
KPWT 080935Z AUTO 04010KT 10SM CLR 23/06 A2997 RMK AO1=
KRKD 080935Z AUTO 20004KT M1/4SM OVC002 18/17 A3009 RMK AO1=
KRKR 080934Z AUTO 18003KT 10SM OVC031 27/25 A3003 RMK AO2=
KRUT 080935Z AUTO 13008KT 5SM CLR 21/19 A3005 RMK AO1=
KSDY 080935Z AUTO 20005KT 10SM CLR 12/09 A3015 RMK AO1=
KSFM 080935Z 00000KT 1SM OVC002 21/18 A3008 RMK AO1=
KSFZ 080935Z AUTO 00000KT 10SM OVC012 22/21 A3007 RMK AO1=
KSGT 080935Z 13004KT 10SM CLR 23/22 A3005 RMK AO1=
KSGU 080935Z AUTO 10003KT 10SM CLR 26/01 A2995 RMK AO1=
KSKX 080935Z AUTO 03003KT 10SM BKN110 11/04 A3037 RMK AO1=
KSLG 080935Z AUTO 17007KT 10SM BKN021 23/21 A3006 RMK AO1=
KSMN 080935Z AUTO 00000KT 10SM CLR 08/02 A3023 RMK AO1=
KSPA 080935Z AUTO 00000KT 10SM CLR 22/22 A3001 RMK AO2=
KSPL 080935Z AUTO RMK AO2 PWINO PNO=
KSQI 080935Z 00000KT 5SM BKN003 OVC065 22/22 A3003 RMK AO1=
KSUE 080935Z AUTO 28003KT 6SM BKN008 BKN120 21/19 A2998 RMK
     AO1=
KSUN 080931Z AUTO 30008G15KT 10SM CLR 11/01 A3024 RMK AO2=
KSZT 080930Z AUTO 00000KT 10SM CLR 10/08 A3010 RMK AO2=
KTIF 080930Z AUTO 00000KT 10SM OVC100 16/15 A3025 RMK AO2
     T01560145=
KTRK 080930Z AUTO 00000KT 10SM CLR 12/08 A3015 RMK AO2=
KTVF 080935Z AUTO 26007KT 10SM CLR 14/11 A3004 RMK AO1=
KUTA 080935Z AUTO 00000KT 10SM CLR 23/22 A3007 RMK AO2=
KVBT 080935Z AUTO 20003KT 10SM BKN032 23/21 A3003 RMK AO1=
KVIS 080935Z AUTO 30004KT 10SM CLR 20/13 A2980 RMK AO1=
KWVL 080935Z AUTO 19003KT 8SM OVC006 21/19 A3004 RMK AO1=
KWWD 080935Z AUTO 8SM SCT120 23/23 A3002 RMK AO1=
KX40 080935Z AUTO 00000KT 7SM CLR 22/22 A3000 RMK AO2
     T02220215=
KYKN 080935Z AUTO 28003KT 10SM CLR 17/14 A3017 RMK AO1=
KPMV 080930Z AUTO 33003KT 10SM CLR 20/19 A3012 RMK AO2
     T01950186=
KAEG 080935Z AUTO 00000KT 10SM FEW120 16/08 A3028 RMK AO1=
KAFJ 080935Z AUTO 00000KT M1/4SM OVC003 17/17 A3011 RMK AO1=
KAIZ 080935Z AUTO 00000KT 10SM SCT028 BKN070 22/21 A3005 RMK
     AO1=
KARG 080935Z AUTO 21005KT 9SM CLR 24/22 A3005 RMK AO1=
KAUO 080935Z AUTO 00000KT 10SM CLR 25/21 A3002 RMK AO1=
KAWO 080935Z AUTO 00000KT 10SM CLR 15/14 A2997 RMK AO1=
####018000189####
SPUS80 KWBC 080936
SPECI
KLWD 080933Z AUTO 32004KT 6SM BR CLR 20/19 A3008 RMK AO2=
KJLN 080934Z 35003KT 3SM VCTS +RA BR SCT007 BKN016 OVC023 23/23
     A3005 RMK AO2 TSB28 P0069=
####018003746####
SAUS70 KWBC 080936 RRA
METAR
KBHB 080935Z AUTO 19007KT 1SM OVC002 18/18 A3010 RMK AO1=
KBID 080935Z AUTO 14006KT 1/4SM OVC002 21/20 A3006 RMK AO1=
KBKX 080935Z AUTO 00000KT 10SM CLR 14/12 A3016 RMK AO1=
KBLM 080935Z AUTO 13006KT 4SM FEW065 FEW070 BKN100 24/21 A3004 RMK
     AO1=
KBOW 080935Z AUTO 00000KT 10SM CLR 21/21 A2999 RMK AO2=
KBTP 080935Z AUTO 03004KT 2SM CLR 18/18 A3009 RMK AO1=
KBVX 080935Z AUTO 14004KT 10SM CLR 24/22 A3005 RMK AO1=
KCGC 080935Z AUTO 00000KT 10SM CLR 21/21 A2998 RMK=
KCGZ 080935Z AUTO 00000KT 10SM CLR 29/00 A2979 RMK AO1=
KCIU 080935Z AUTO 22006KT 9SM FEW090 BKN120 19/18 A2995 RMK
     AO1=
KCOD 080935Z 16004KT 10SM CLR 11/02 A3032 RMK AO1=
KCOE 080935Z AUTO 04009KT 10SM CLR 17/08 A3009 RMK AO1=
KCVN 080935Z AUTO 05004KT 10SM BKN120 17/14 A3021 RMK AO1=
KCVO 080935Z AUTO 28012KT 10SM CLR 14/09 A2991 RMK AO1=
KCWI 080935Z 00000KT 2 1/2SM OVC003 A3003 RMK AO1=
KDUC 080934Z AUTO 05003KT 10SM CLR 22/22 A3004 RMK AO2=
KDYB 080935Z AUTO 00000KT 10SM CLR 22/20 A2996 RMK AO1=
KDYR 080935Z AUTO 24003KT 10SM CLR 24/19 A3006 RMK AO1=
KEEN 080935Z AUTO 00000KT 2 1/2SM FEW110 22/21 A3006 RMK AO1=
KEGE 080935Z 09007KT 10SM CLR 09/08 A3036 RMK AO1=
KEHR 080935Z AUTO 00000KT 6SM FEW090 22/18 A3005 RMK AO1=
KENV 080935Z 21003KT 10SM CLR 20/M01 A3008 RMK AO1=
KESC 080935Z AUTO 00000KT 7SM CLR 19/16 A2996 RMK AO1=
KEUL 080935Z AUTO 00000KT 10SM CLR 14/07 A3005 RMK AO1=
KEWK 080935Z AUTO 34005KT 10SM OVC006 21/19 A3007 RMK AO1=
KFAM 080935Z AUTO 19003KT 10SM FEW080 FEW100 23/22 A3008 RMK
     AO1=
KFKL 080935Z 00000KT 5SM CLR 19/17 A3014 RMK AO1=
KFLP 080935Z AUTO 11003KT 10SM BKN090 23/22 A3004 RMK AO1=
KFNL 080935Z AUTO 07005KT 3SM BKN002 14/13 A3032 RMK AO1=
KFOD 080935Z AUTO 33003KT 10SM CLR 18/17 A3011 RMK AO1=
KFRM 080935Z AUTO 10SM CLR 16/14 A3013 RMK AO1=
KFTN 080935Z AUTO 00000KT 10SM BKN024 25/23 A2991 RMK AO1=
KGAD 080935Z AUTO 00000KT 10SM CLR 22/19 A3004 RMK AO1=
KGAI 080935Z 00000KT 8SM BKN090 25/21 A3004 RMK AO1=
KGBD 080935Z AUTO 02007KT 10SM OVC015 19/18 A3016 RMK AO1=
KGDV 080935Z AUTO 18005KT 10SM CLR 11/08 A3016 RMK AO1=
KGTR 080935Z 34003KT 10SM CLR 24/23 A3004 RMK AO1=
KGUC 080935Z AUTO 03003KT 10SM FEW120 09/03 A3044 RMK AO1=
KGXY 080935Z AUTO 08004KT 10SM OVC009 15/12 A3032 RMK AO1=
KHDN 080935Z 11009KT 10SM CLR 10/06 A3031 RMK AO1=
KHEF 080935Z AUTO 01003KT 7SM SCT090 23/19 A3000 RMK AO1=
KHEZ 080935Z AUTO 00000KT 8SM CLR 22/22 A3004 RMK AO1=
KHNB 080935Z AUTO 00000KT 10SM BKN065 BKN080 OVC095 23/22 A3006
     RMK AO1=
KHYS 080935Z AUTO 02007KT 10SM OVC020 19/17 A3018 RMK AO1=
KIWD 080935Z AUTO 00000KT 10SM BKN060 OVC110 16/15 A3000 RMK
     AO1=
KJAC 080935Z AUTO 03006KT 10SM CLR 08/M01 A3034 RMK AO1=
KJHW 080935Z AUTO 00000KT 3SM CLR 19/18 A3012 RMK AO1=
KKLS 080935Z AUTO 00000KT 10SM CLR 16/13 A2991 RMK AO1=
KLBL 080935Z 06008KT 10SM SCT038 OVC047 19/17 A3021 RMK AO1=
KLCI 080935Z AUTO 00000KT 10SM OVC100 22/19 A3005 RMK AO1=
KLEW 080935Z 16004KT 3SM OVC003 20/19 A3009 RMK AO1=
KLGD 080935Z AUTO 00000KT 10SM CLR 11/05 A3005 RMK AO1=
KLHM 080931Z AUTO 16007KT 10SM CLR 17/11 A2982 RMK AO1
     T01700110=
KLKV 080935Z AUTO 34010KT 10SM CLR 09/01 A3012 RMK AO1=
KLPC 080935Z AUTO 00000KT 10SM OVC012 14/11 A2991 RMK AO1 PNO=
KLRU 080932Z AUTO 05003KT 10SM CLR 19/15 A3016 RMK AO2=
KLUX 080935Z AUTO 29004KT 10SM CLR 22/22 A3001 RMK AO2=
KLXN 080930Z AUTO 30004KT 10SM OVC049 16/16 A3023 RMK AO2
     T01630155=
KMBL 080935Z AUTO 00000KT 10SM FEW065 OVC100 22/19 A2999 RMK
     AO1=
KMER 080935Z AUTO 32006KT 10SM CLR 18/11 A2983 RMK AO1=
KMJX 080935Z AUTO 00000KT 2SM SCT014 BKN060 BKN090 23/22 A3002 RMK
     AO1=
####018000069####
SAAF35 KWBC 080900 RRD
METAR
HSSS 080930Z 03006KT CAVOK Q1009=
####018000097####
SAAF34 KWBC 080900 RRD
METAR
FYWB 080930Z 07024KT 9999 R09/M0050VP1500U VV/// 31/04 Q1017=
####018000803####
SAAO31 KWBC 080930
METAR
GCFV 080930Z 05011KT 9999 FEW018 22/18 Q1017=
GCHI NIL=
GCLA 080930Z 01010KT 340V040 9999 BKN020 23/17 Q1019=
GCLP 080930Z 01022KT 9999 BKN018 24/17 Q1017 NOSIG=
GCRR 080930Z 01016KT 9999 SCT018 24/18 Q1017=
GCTS 080930Z 07014KT 9999 BKN014 22/18 Q1017 NOSIG=
GCXO 080930Z 29014KT 0100 R30/0375V0900D R12/0125N FG OVC000 17/17
     Q1020 NOSIG=
GEML 080930Z 08009KT 040V120 9999 FEW014 26/20 Q1017=
GMAA NIL=
GMAT NIL=
GMFF 080930Z NIL=
GMFO NIL=
GMME 080930Z 32005KT 300V010 6000 SCT010 23/19 Q1016 NOSIG=
GMMN 080930Z 02008KT 340V040 9999 SCT010 BKN023 25/19 Q1016
     NOSIG=
GMMX 080930Z VRB02KT 6000 FEW026 28/19 Q1016 NOSIG=
GMOY NIL=
GMTA NIL=
GMTN NIL=
GMTT 080930Z 27008KT 8000 SCT016 BKN100 25/20 Q1016 NOSIG=
GSAI NIL=
####018000028####
SAAS31 KWBC 080930
NIL=
####018000241####
SAAS32 KWBC 080930
METAR
RKPC NIL=
RKPK NIL=
RKSS NIL=
VHHH 080930Z 20013KT 150V230 9999 FEW020 SCT030 33/24 Q1006
     NOSIG=
VMMC 080930Z 19014KT 180V260 9999 FEW025 SCT090 31/27 Q1005
     NOSIG=
ZJSY NIL=
ZKPY NIL=
####018000412####
SAAS33 KWBC 080930
METAR
VBRR NIL=
VDPP NIL=
VDSR NIL=
VLVT NIL=
VTBA NIL=
VTBD NIL=
VTBU NIL=
VTCC NIL=
VTSP NIL=
VTSS NIL=
VVDN NIL=
VVGL NIL=
VVNB NIL=
VVTS NIL=
WBGG NIL=
WBKK NIL=
WMAM NIL=
WMKJ NIL=
WMKK NIL=
WMKP NIL=
WMSA NIL=
WPDL NIL=
WPEC NIL=
WSAP NIL=
WSSL NIL=
WSSS 080930Z 22004KT 190V250 9999 FEW017 SCT160 BKN270 29/25 Q1008
     NOSIG=
####018001863####
SAEU KAWN 080900 RRX
METAR EICK 080930Z 21010KT 9999 SCT012 BKN030 14/12 Q1016 NOSIG=
METAR LELO 080930Z 09011KT 060V130 CAVOK 29/17 Q1018=
METAR LFKS 080930Z AUTO 09008KT 050V120 9999NDV FEW096 30/22 Q1020=
METAR LFLN 080930Z AUTO VRB03KT 9999NDV NSC 28/15 Q1020=
METAR LFMO 080930Z VRB02KT CAVOK 30/16 Q1020=
METAR LFMY 080930Z VRB03KT CAVOK 31/17 Q1020=
METAR LFOA 080930Z AUTO 10006KT 060V150 9999NDV NSC 28/12 Q1019=
METAR LFOC 080930Z AUTO 21003KT 140V290 9999NDV NSC 29/11 Q1019=
METAR LFOJ 080930Z 20004KT 140V290 CAVOK 28/13 Q1019=
METAR LFPC 080930Z VRB04KT CAVOK 28/13 Q1019=
METAR LFPM 080930Z VRB02KT CAVOK 29/14 Q1019=
METAR LFQI 080930Z 24007KT 200V280 CAVOK 27/12 Q1019=
METAR LFRJ 080930Z AUTO 02003KT 320V100 9999NDV BKN015/// 20/15 Q1019=
METAR LFSD 080930Z AUTO 15004KT 090V220 9999NDV NSC 27/13 Q1020=
METAR LFSO 080930Z AUTO 28003KT 200V360 9999NDV NSC 27/11 Q1021=
METAR LFTW 080930Z AUTO VRB03KT 9999NDV NSC 30/15 Q1020=
METAR LJLJ 080930Z VRB02KT 9999 FEW040 22/10 Q1024 NOSIG=
METAR LJMB 080930Z 06004KT 320V250 9999 FEW040 23/08 Q1023=
METAR LJPZ 080930Z 29004KT 260V330 CAVOK 25/10 Q1022=
METAR LPFR 080930Z 23006KT 190V260 9000 SCT009 BKN011 23/20 Q1016=
METAR LPPR 080930Z 23008KT 190V260 5000 BR SCT250 22/19 Q1014=
METAR LPPS 080930Z 01011KT 9999 FEW016 SCT030 21/15 Q1020=
METAR LRAR 080930Z 02010KT 340V050 9999 SCT033 21/15 Q1020=
METAR LRBC 080930Z 36014KT 330V040 9999 BKN030 23/16 Q1017=
METAR LRCL 080930Z 29008KT 9999 FEW012 SCT019 BKN024 16/13 Q1020 0821//95=
METAR LRCV 080930Z 06004KT 350V150 9999 FEW029 21/14 Q1017=
METAR LRIA 080930Z 32010KT 270V010 9999 FEW020 SCT034 23/17 Q1017=
METAR LROD 080930Z 02008KT 330V050 9999 FEW035 21/14 Q1021=
METAR LRSV 080930Z 32016KT 9999 BKN010 16/15 Q1018=
METAR LRTC 080930Z 35012KT 9999 FEW030CB BKN040 22/17 Q1014=
####018000028####
SAAW31 KWBC 080930
NIL=
####018000915####
SAAW32 KWBC 080930
METAR
OEDF NIL=
OEDR NIL=
OEJN NIL=
OEMA NIL=
OERK NIL=
OIAA NIL=
OIAW 080930Z NIL=
OIBB NIL=
OIBK NIL=
OICC NIL=
OICK NIL=
OICS NIL=
OIFM 080930Z 17010KT CAVOK 38/05 Q1017 A3003=
OIFP NIL=
OIGG NIL=
OIHH NIL=
OIII 080930Z 11006KT CAVOK 38/M03 0 P UI OIKB 080930Z NIL=
OIII 080930Z 11006KT CAVOK 38/M03 Q1014 A2994 879.1=
OIIM NIL=
OIIP NIL=
OIIX NIL=
OIKB 080930Z NIL=
OIKK 080930Z NIL=
OIMM 080930Z 07012KT CAVOK 38/M02 Q1014 A2996=
OINN NIL=
OINR NIL=
OINZ NIL=
OISM NIL=
OISS 080930Z NIL=
OITL NIL=
OITR NIL=
OITT 080930Z 10014KT CAVOK 36/04 Q1014 A2997=
OIYY NIL=
OIZH 080930Z 07006KT CAVOK 37/M04 Q1013 A2992=
OKBK 080930Z 34018KT CAVOK 47/M10 Q1001 NOSIG=
ORBI NIL=
ORBS NIL=
ORMM NIL=
OSAP NIL=
OSDI NIL=
OSLK NIL=
OTBD 080930Z 02010KT 6000 NSC 36/29 Q1000 NOSIG=
OTBH NIL=
OTMA NIL=
OTMS NIL=
####018000028####
SAAW33 KWBC 080930
NIL=
####018000096####
SAAW34 KWBC 080915 RRC
METAR
UTSS 080930Z 08004MPS 9999 NSC 35/14 Q1010 R88/CLRD70 NOSIG=
####018000119####
SACA33 KWBC 080900 RRC
METAR
TFFF 080930Z AUTO 07009KT 9999NDV SCT011/// BKN023/// BKN030///
     28/24 Q1013=
####018000082####
SACA45 KWBC 080900 RRA
METAR
MGGT 080930Z 19004KT 9999 BKN015 FEW090 NOSIG=
####018000653####
SAEE31 KWBC 080930
METAR
EPGD 080930Z 31006KT 250V360 CAVOK 23/10 Q1021=
EPKK 080930Z 28007KT 240V330 9999 FEW046 21/07 Q1022=
EPKT 080930Z 31009KT CAVOK 20/07 Q1023=
EPPO 080930Z 32008KT 280V030 CAVOK 22/09 Q1022=
EPQT NIL=
EPRZ 080930Z 32010KT 280V010 9999 SCT036 21/11 Q1021=
EPSC NIL=
EPWA 080930Z 29010KT 250V340 9999 FEW040 21/11 Q1021 NOSIG=
EYSA NIL=
UKBB 080930Z 30003MPS 270V340 9999 BKN026 24/19 Q1014 88CLRD95
     NOSIG=
UKKK NIL=
UKLL 080930Z 31004MPS 260V010 9999 OVC046 17/12 Q1020 31210365
     NOSIG=
UKOO 080930Z 01003MPS 320V050 CAVOK 25/16 Q1014 34090070 NOSIG=
UMII NIL=
UMMM NIL=
UMMS NIL=
####018000720####
SAEE32 KWBC 080930
METAR
LBBG 080930Z 28007MPS 250V310 9999 FEW023 BKN072 BKN110 18/14
     Q1015 NOSIG=
LBPD 080930Z 26004MPS 9999 -RA SCT035 SCT050 OVC060 16/13 Q1017
     RERA NOSIG=
LBSF 080930Z 27006MPS 9999 BKN036 17/12 Q1018 NOSIG=
LBWN 080930Z 27004MPS 220V020 9999 SCT023 20/15 Q1014 NOSIG=
LHBP 080930Z 21007KT 170V240 9999 SCT048 22/10 Q1022 NOSIG=
LHTA NIL=
LRAR NIL=
LRBS 080930Z VRB01KT 9999 FEW018 BKN047 20/14 Q1016 NOSIG=
LRCK 080930Z 01010KT 340V070 9999 SCT035 22/15 Q1015 NOSIG=
LROP 080930Z VRB02KT 9999 FEW040CB BKN047 20/13 Q1016 880///95
     NOSIG=
LRTC NIL=
LRTM NIL=
LRTR 080930Z 36006KT 320V040 9999 FEW042 20/14 Q1020=
LUCC NIL=
LUKK NIL=
LURN NIL=
####018001648####
SAEM31 KWBC 080930
METAR
KQLA NIL=
KQLH NIL=
KQLX NIL=
LATI 080930Z 01012KT 270V070 9999 FEW040 26/13 Q1016 NOSIG=
LDDU 080930Z 35010KT 250V060 9999 FEW043 25/06 Q1019 NOSIG=
LDDV NIL=
LDKT NIL=
LDOS 080930Z VRB03KT 9999 FEW033 22/10 Q1022 NOSIG=
LDPL 080930Z 12004KT 070V170 CAVOK 25/14 Q1022 NOSIG=
LDRI 080930Z NIL=
LDSP 080930Z 11006KT 030V210 CAVOK 27/06 Q1020 NOSIG=
LDZA 080930Z VRB02KT 9999 FEW045 24/09 Q1023 NOSIG=
LDZD 080930Z VRB06KT CAVOK 26/05 Q1021 NOSIG=
LJLJ NIL=
LJMB NIL=
LJPZ NIL=
LKIB NIL=
LKMT 080930Z VRB03KT 9999 FEW043 20/10 Q1023 NOSIG=
LKPR 080930Z 02003KT 310V110 CAVOK 21/09 Q1024 NOSIG=
LKTB 080930Z 32006KT 250V030 CAVOK 22/09 Q1023 NOSIG=
LKTT NIL=
LOAV NIL=
LOIH NIL=
LOIJ NIL=
LOLW NIL=
LOWG NIL=
LOWH NIL=
LOWI NIL=
LOWK NIL=
LOWL NIL=
LOWS NIL=
LOWW NIL=
LOWZ NIL=
LQSA 080930Z 28006KT 250V310 9999 SCT040 BKN050 19/11 Q1024
     NOSIG=
LWOH 080930Z 03008KT 350V070 9999 SCT035 20/07 Q1019=
LWSK 080930Z 01008KT 9999 BKN040 17/10 Q1020 NOSIG=
LYBE 080930Z 35009KT CAVOK 21/12 Q1022 NOSIG=
LYDU NIL=
LYLJ NIL=
LYMB NIL=
LYNI 080930Z 32008KT 280V350 9999 FEW020 BKN033 16/13 Q1020
     NOSIG=
LYOH NIL=
LYOS NIL=
LYPG 080930Z 02016KT 9999 FEW040 26/07 Q1017 NOSIG=
LYPL NIL=
LYPR 080930Z NIL=
LYPZ NIL=
LYRI NIL=
LYSA NIL=
LYSK NIL=
LYSP NIL=
LYTI NIL=
LYTV 080930Z 32006G16KT 9999 FEW053 28/09 Q1018 NOSIG=
LYZA NIL=
LYZD NIL=
LZIB 080930Z 34013KT 310V020 CAVOK 23/06 Q1023=
LZKZ 080930Z 02008KT 340V060 CAVOK 21/09 Q1021 NOSIG=
LZTT 080930Z 14005KT 080V210 9999 FEW040 19/08 Q1022 NOSIG=
####018000310####
SAEW31 KWBC 080930
METAR
LPAZ NIL=
LPFR 080930Z 23006KT 190V260 9000 SCT009 BKN011 23/20 Q1016=
LPFU NIL=
LPPD NIL=
LPPR 080930Z 23008KT 190V260 5000 BR SCT250 22/19 Q1014=
LPPS 080930Z 01011KT 9999 FEW016 SCT030 21/15 Q1020=
LPPT 080930Z 18005KT 100V240 CAVOK 26/19 Q1015 NOSIG=
LXGB NIL=
####018000704####
SAFR31 KWBC 080930
METAR
LFAC NIL=
LFAT NIL=
LFBD 080930Z 10008KT 070V130 CAVOK 30/12 Q1017 NOSIG=
LFBH 080930Z AUTO 19004KT 140V230 9999NDV NSC 30/13 Q1018=
LFBI 080930Z NIL=
LFBO 080930Z 11010KT CAVOK 30/13 Q1019 NOSIG=
LFBP 080930Z NIL=
LFBT 080930Z NIL=
LFBZ 080930Z NIL=
LFGJ 080930Z AUTO 19004KT 120V280 9999NDV NSC 26/15 Q1020=
LFKB 080930Z 10006KT 070V130 9999 FEW021 29/22 Q1019 NOSIG=
LFKC 080930Z NIL=
LFKJ 080930Z 24009KT 9999 FEW026 27/22 Q1019 NOSIG=
LFLB 080930Z NIL=
LFLC 080930Z NIL=
LFLL 080930Z 13004KT 090V230 CAVOK 27/15 Q1021 NOSIG=
LFLS 080930Z NIL=
LFLY 080930Z NIL=
LFMD 080930Z AUTO 16008KT 110V180 9999NDV NSC 29/22 Q1020=
LFMH NIL=
####018001237####
SAFR32 KWBC 080930
METAR
LFML 080930Z 27008KT 9999 FEW046 30/19 Q1020 BECMG 22015KT=
LFMN 080930Z 09007KT 9999 FEW023 29/21 Q1020 NOSIG=
LFMP 080930Z NIL=
LFMT 080930Z NIL=
LFOB 080930Z NIL=
LFOH 080930Z AUTO 36013KT 9999NDV NSC 19/13 Q1019=
LFOT 080930Z AUTO 11005KT 080V160 9999NDV NSC 29/10 Q1019=
LFPB 080930Z 17005KT 080V230 CAVOK 29/11 Q1019 NOSIG=
LFPG 080930Z 20003KT 140V270 CAVOK 28/10 Q1019 NOSIG=
LFPN NIL=
LFPO 080930Z 17005KT 140V200 CAVOK 28/12 Q1019 NOSIG=
LFQQ 080930Z 26004KT 190V330 CAVOK 26/13 Q1019 NOSIG=
LFRB 080930Z VRB03KT 9999 BKN010 20/15 Q1019 NOSIG=
LFRC 080930Z AUTO 33004KT 260V070 9999NDV FEW016 20/16 Q1019=
LFRD 080930Z AUTO 02005KT 330V070 9999NDV FEW014 20/15 Q1019=
LFRG NIL=
LFRK NIL=
LFRN 080930Z AUTO 34006KT 300V020 9999NDV NSC 23/15 Q1018=
LFRO 080930Z AUTO VRB03KT 9999NDV BKN017 19/15 Q1019=
LFRQ NIL=
LFRS 080930Z NIL=
LFRT NIL=
LFRZ 080930Z AUTO 02004KT 330V060 9999NDV NSC 27/14 Q1018=
LFSB 080930Z 09005KT 030V170 CAVOK 27/10 Q1021 NOSIG=
LFSF 080930Z AUTO VRB02KT 9999NDV NSC 27/09 Q1020=
LFSN 080930Z NIL=
LFSR 080930Z AUTO VRB01KT 9999NDV NSC 29/11 Q1019=
LFST 080930Z VRB03KT CAVOK 26/11 Q1020 NOSIG=
LFTW NIL=
LFVP NIL=
####018000751####
SAFR41 KWBC 080930
METAR
LFAF NIL=
LFBA NIL=
LFBC 080930Z AUTO 09009KT 050V130 9999NDV NSC 32/12 Q1016=
LFBL 080930Z NIL=
LFBM 080930Z AUTO 11009KT 9999NDV NSC 31/17 Q1016=
LFKF 080930Z NIL=
LFLD NIL=
LFLV NIL=
LFOE NIL=
LFOP 080930Z NIL=
LFPB 080930Z 17005KT 080V230 CAVOK 29/11 Q1019 NOSIG=
LFPG 080930Z 20003KT 140V270 CAVOK 28/10 Q1019 NOSIG=
LFPV 080930Z AUTO /////KT 9999NDV NSC 27/13 Q1019=
LFQB NIL=
LFQQ 080930Z 26004KT 190V330 CAVOK 26/13 Q1019 NOSIG=
LFRH NIL=
LFRM NIL=
LFSC NIL=
LFSD NIL=
LFSI 080930Z AUTO VRB03KT 9999NDV NSC 28/12 Q1020=
LFSL 080930Z AUTO 14004KT 080V180 9999NDV NSC 27/14 Q1020=
LFSO NIL=
LFSX 080930Z AUTO 16005KT 120V200 9999NDV NSC 27/13 Q1021=
LFTH 080930Z NIL=
####018000082####
SPCN48 CWAO 080934
SPECI CYPH 080934Z AUTO 24016KT 4SM OVC002 06/05 A2979=

####018000028####
SAHA31 KWBC 080930
NIL=
####018000327####
SAIE31 KWBC 080930
METAR
EICK 080930Z 21010KT 9999 SCT012 BKN030 14/12 Q1016 NOSIG=
EIDB NIL=
EIDW 080930Z 22013KT 9999 FEW026 SCT130 BKN180 16/10 Q1015
     NOSIG=
EIKN 080930Z 22010KT 180V250 9999 FEW018CB SCT045 BKN150 14/10
     Q1013 NOSIG=
EINN 080930Z 17011KT 9999 -RA FEW015 OVC060 15/12 Q1015 NOSIG=
####018000028####
SAIQ31 KWBC 080930
NIL=
####018000089####
SATG20 DXXX 080930
METAR DXXX 080930Z 24007KT 210V280 9999 FEW012 29/24 Q1015 NOSIG=
####018000170####
SAIO31 KWBC 080900 RRF
METAR
FMMI 080930Z 11011KT 080V170 9999 BKN020 18/11 Q1026 NOSIG=
VYYY 080900Z 26005G15KT 8000 BKN015 FEW018CB BKN110 33/27 Q
     1006=
####018000075####
SAEG31 HECA 080930
METAR HECA 080930Z 30008KT CAVOK 31/18 Q1011 NOSIG=
####018000028####
SAIQ32 KWBC 080930
NIL=
####018000384####
SAJP31 KWBC 080930
METAR
RJAA 080930Z 16006KT 9999 FEW020 BKN/// 26/23 Q1010 NOSIG RMK
     1CU020 A2983=
RJAH NIL=
RJCC 080930Z 18007KT 150V210 3000 BR BKN002 18/17 Q1010 RMK 7ST002
     A2982=
RJCH NIL=
RJFK NIL=
RJFT NIL=
RJFU NIL=
RJNN NIL=
RJOO NIL=
RJSS NIL=
RJTT 080930Z 19014KT 9999 FEW020 BKN/// 26/22 Q1009 RMK 1CU020
     A2981=
RODN NIL=
####018000028####
SAJP42 KWBC 080930
NIL=
####018000028####
SAJP41 KWBC 080930
NIL=
####018000028####
SAJP43 KWBC 080930
NIL=
####018000028####
SAJP45 KWBC 080930
NIL=
####018000094####
SAKO31 KWBC 080900 RRA
METAR
RKSI 080930Z 21004KT 9999 FEW040 OVC120 24/19 Q1007 NOSIG=
####018000028####
SAJP44 KWBC 080930
NIL=
####018000195####
SAMM31 KWBC 080930
METAR
LCEN NIL=
LCLK 080930Z 19016KT 9999 FEW025 30/22 Q1008 NOSIG=
LCNC 080930Z NIL=
LCPH 080930Z 22006KT 170V270 9999 FEW030 28/23 Q1009=
LCRA NIL=
LMML NIL=
####018000095####
SANT31 KWBC 080900 RRB
METAR
BIKF 080930Z 02018KT 9999 FEW015 SCT030 BKN070 11/05 Q0993=
####018000086####
SAPA32 KWBC 080900 RRA
METAR
NWWW 080930Z AUTO 15002KT 9999NDV NCD 17/15 Q1016=
####018000362####
SAPO31 KWBC 080900 RRB
METAR
LPFR 080930Z 23006KT 190V260 9000 SCT009 BKN011 23/20 Q1016=
LPMA 080930Z 20004KT 170V260 9999 FEW016 23/17 Q1020 RS10003KT
     0518004KT 2303009G19KT=
LPPR 080930Z 23008KT 190V260 5000 BR SCT250 22/19 Q1014=
LPPS 080930Z 01011KT 9999 FEW016 SCT030 21/15 Q1020=
LPPT 080930Z 18005KT 100V240 CAVOK 26/19 Q1015 NOSIG=
####018000247####
SARA31 KWBC 080900 RRG
METAR
UTSB 080930Z 36006MPS CAVOK 40/04 Q1008 R01/CLRD70 TEMPO
     01008MPS=
UTSS 080930Z 08004MPS 9999 NSC 35/14 Q1010 R88/CLRD70 NOSIG=
UTST 080930Z 21002MPS 160V310 CAVOK 41/03 Q1006 R88/CLRD70
     NOSIG=
####018000180####
SAAY31 RUMS 080930
METAR UDYZ 080930Z 19002G07MPS 110V250 9999 FEW050 36/13 Q1010
09010070 NOSIG=
METAR UDSG 080930Z 07005G10MPS 040V110 9999 NSC 30/14 Q1016 02CLRD70
NOSIG=
####018000026####
SAKY31 RUMS 080930
NIL
####018000676####
SAKZ31 RUMS 080930
METAR UAAA 080930Z 07003MPS 030V110 9999 SCT050CB BKN100 30/11 Q1013
88CLRD65 TEMPO TS=
METAR UACC 080930Z 28004MPS 230V360 CAVOK 24/03 Q1009 220/0070 NOSIG
RMK QFE726/0968=
METAR UAKK 080930Z VRB01MPS CAVOK 24/02 Q1009 230///70 NOSIG RMK
QFE710/0947=
METAR UAOO 080930Z NIL=
METAR UARR 080930Z NIL=
METAR UATE 080930Z 35006G12MPS 270V010 CAVOK 39/08 Q1010 300///70
NOSIG RMK QFE756/1008=
METAR UATG 080930Z 35006G10MPS CAVOK 39/10 Q1009 32CLRD70 NOSIG RMK
QFE759/1012 =
METAR UATT 080930Z 05010MPS 9999 NSC 32/03 Q1011 13CLRD70 NOSIG RMK
QFE738/0985=
METAR UAUU 080930Z 33007MPS 290V360 CAVOK 25/M01 Q1013 33CLRD70 NOSIG
RMK QFE744/0992=
####018001444####
SASP31 KWBC 080930
METAR
LEAL 080930Z 08005KT 030V140 CAVOK 31/13 Q1019 NOSIG=
LEAM 080930Z 07018KT CAVOK 36/07 Q1016=
LEAS 080930Z VRB01KT 9999 4000S FEW002 OVC012 20/19 Q1018
     NOSIG=
LEBB 080930Z 00000KT 8000 NSC 27/22 Q1015 NOSIG=
LEBL 080930Z 21015KT CAVOK 27/20 Q1019 NOSIG=
LECO 080930Z 16006KT 140V200 9999 FEW003 SCT010 20/20 Q1014=
LEGE 080930Z 04001KT CAVOK 31/19 Q1019=
LEGR 080930Z VRB02KT 9999 FEW060 32/11 Q1018=
LEIB 080930Z 07009KT 030V130 CAVOK 28/22 Q1019 NOSIG=
LEJR 080930Z 24003KT 120V290 CAVOK 27/19 Q1016=
LELC 080930Z NIL=
LELL 080930Z VRB03KT CAVOK 29/15 Q1019=
LEMD 080930Z 02004KT 350V090 CAVOK 30/12 Q1019 NOSIG=
LEMG 080930Z 14009KT 090V190 9999 FEW030 31/14 Q1016 NOSIG=
LEMH 080930Z 21006KT 170V260 CAVOK 28/20 Q1021=
LEPA 080930Z 21005KT 170V250 CAVOK 30/10 Q1020 NOSIG=
LEPP 080930Z 00000KT 9999 FEW060 31/15 Q1019=
LERS 080930Z NIL=
LESO 080930Z 01005KT 330V050 CAVOK 24/19 Q1015=
LEST 080930Z 11009KT 9999 FEW018 19/18 Q1015 NOSIG=
LETO NIL=
LEVC 080930Z 10004KT 060V150 CAVOK 30/18 Q1019 NOSIG=
LEVD 080930Z 18006KT 140V240 CAVOK 30/12 Q1020=
LEVS 080930Z 13005KT 030V160 CAVOK 30/13 Q1021=
LEVT 080930Z 08001KT CAVOK 30/16 Q1018=
LEVX 080930Z VRB03KT CAVOK 27/22 Q1013=
LEXJ 080930Z 28007KT 250V310 8000 SCT016 SCT020 24/19 Q1016=
LEZG 080930Z 10010KT 060V140 CAVOK 31/17 Q1018=
LEZL 080930Z 28007KT 250V330 9999 SCT020 28/18 Q1016 NOSIG=
####018000287####
SATS31 KWBC 080930
METAR
DTMB 080930Z 02006KT CAVOK 27/17 Q1019 NOSIG=
DTTA 080930Z 28005KT 9999 FEW026 30/16 Q1019 NOSIG=
DTTB NIL=
DTTD NIL=
DTTG NIL=
DTTJ 080930Z 06006KT CAVOK 30/22 Q1019 NOSIG=
DTTK NIL=
DTTL NIL=
DTTN NIL=
DTTR NIL=
DTTX NIL=
DTTZ NIL=
####018000602####
SAXX99 KWBC 080900 RRW
METAR
EPWR 080930Z VRB04KT CAVOK 23/09 Q1023=
LESA 080930Z VRB01KT CAVOK 31/14 Q1019=
LFBG 080930Z AUTO 10007KT 060V130 9999NDV NSC 30/14 Q1018=
LFCR 080930Z AUTO VRB04KT 9999NDV NSC 30/09 Q1022=
LFJL 080930Z AUTO VRB02KT 9999NDV NSC 27/09 Q1021=
LFLX 080930Z NIL=
LFMI 080930Z AUTO VRB03KT 9999NDV NSC 32/14 Q1020=
LFMK 080930Z NIL=
LFMU 080930Z AUTO 08007KT 040V130 9999NDV NSC 29/13 Q1020=
LFMV 080930Z AUTO 23004KT 160V270 9999NDV NSC 31/17 Q1020=
LFOK 080930Z AUTO 22004KT 190V260 9999NDV NSC 28/10 Q1020=
LKKV 080930Z VRB02KT CAVOK 21/08 Q1024=
####018000107####
SAXX99 KWBC 080900 CCB
METAR
EGHK 080920Z 15005KT 9999 15005KT 9999 FEW020 17/15 Q1018
     NOSIG=
####018000090####
SACA01 KMSC 080935
SPECI TISX 080934Z 09006KT 10SM BKN023 BKN027 27/24 A2997 RMK AO2=
####018000083####
SAUS51 KWBC 080900 RRD
METAR
KMYR 080935Z AUTO 30007KT 10SM CLR 25/19 A2995=
####018000317####
SAIR31 OIII 080930
METAR OIAW 080930Z NIL=
METAR OIFM 080930Z 17010KT CAVOK 38/05 Q1017 A3003=
METAR OIKK 080930Z NIL=
METAR OIMM 080930Z 07012KT CAVOK 38/M02 Q1014 A2996=
METAR OISS 080930Z NIL=
METAR OITT 080930Z 10014KT CAVOK 36/04 Q1014 A2997=
METAR OIZH 080930Z 07006KT CAVOK 37/M04 Q1013 A2992=
####018000077####
SALJ32 LJLJ 080930
METAR LJCE 080930Z 15002KT CAVOK 24/08 Q1023 RMK BLU=
####018000199####
SALJ31 LJLJ 080930
METAR LJLJ 080930Z VRB02KT 9999 FEW040 22/10 Q1024 NOSIG=
METAR LJMB 080930Z 06004KT 320V250 9999 FEW040 23/08 Q1023=
METAR LJPZ 080930Z 29004KT 260V330 CAVOK 25/10 Q1022=
####018000195####
SATA31 RUMS 080930
METAR UTDD 080930Z VRB01MPS 9999 FEW066 37/06 Q1010 09CLRD70 NOSIG
RMK QFE690/0920=
METAR UTDL 080930Z 21001MPS 9999 FEW056TCU 37/08 Q1008 NOSIG RMK
QFE718 8809//70=
####018000331####
SARO33 LROM 080930
METAR LRBC 080930Z 36014KT 330V040 9999 BKN030 23/16 Q1017=
METAR LRCV 080930Z 06004KT 350V150 9999 FEW029 21/14 Q1017=
METAR LRIA 080930Z 32010KT 270V010 9999 FEW020 SCT034 23/17 Q1017=
METAR LRSV 080930Z 32016KT 9999 BKN010 16/15 Q1018=
METAR LRTC 080930Z 35012KT 9999 FEW030CB BKN040 22/17 Q1014=
####018000426####
SARO32 LROM 080930
METAR LRAR 080930Z 02010KT 340V050 9999 SCT033 21/15 Q1020=
METAR LRBM 080930Z VRB02KT 9999 FEW009 SCT018 17/16 Q1019 1019//95=
METAR LRCL 080930Z 29008KT 9999 FEW012 SCT019 BKN024 16/13 Q1020
0821//95=
METAR LROD 080930Z 02008KT 330V050 9999 FEW035 21/14 Q1021=
METAR LRSM 080930Z 05008KT 9999 SCT030 21/13 Q1020=
METAR LRTM 080930Z 22006KT 190V250 9999 FEW010 SCT015 BKN023 17/14
Q1020=
####018000375####
SAPO31 LPMG 080930
METAR LPFR 080930Z 23006KT 190V260 9000 SCT009 BKN011 23/20 Q1016=
METAR LPMA 080930Z 20004KT 170V260 9999 FEW016 23/17 Q1020 RS10003KT
0518004KT 2303009G19KT=
METAR LPPR 080930Z 23008KT 190V260 5000 BR SCT250 22/19 Q1014=
METAR LPPS 080930Z 01011KT 9999 FEW016 SCT030 21/15 Q1020=
METAR LPPT 080930Z 18005KT 100V240 CAVOK 26/19 Q1015 NOSIG=
####018000184####
SAAY31 RUMS 080930
METAR UDYZ 080930Z 19002G07MPS 110V250 9999 FEW050 36/13 Q1010
09010070 NOSIG=
METAR UDSG 080930Z 07005G10MPS 040V110 9999 NSC 30/14 Q1016 02CLRD70
NOSIG=
####018000692####
SAKZ31 RUMS 080930
METAR UAAA 080930Z 07003MPS 030V110 9999 SCT050CB BKN100 30/11 Q1013
88CLRD65 TEMPO TS=
METAR UACC 080930Z 28004MPS 230V360 CAVOK 24/03 Q1009 220/0070 NOSIG
RMK QFE726/0968=
METAR UAKK 080930Z VRB01MPS CAVOK 24/02 Q1009 230///70 NOSIG RMK
QFE710/0947=
METAR UAOO 080930Z NIL=
METAR UARR 080930Z NIL=
METAR UATE 080930Z 35006G12MPS 270V010 CAVOK 39/08 Q1010 300///70
NOSIG RMK QFE756/1008=
METAR UATG 080930Z 35006G10MPS CAVOK 39/10 Q1009 32CLRD70 NOSIG RMK
QFE759/1012 =
METAR UATT 080930Z 05010MPS 9999 NSC 32/03 Q1011 13CLRD70 NOSIG RMK
QFE738/0985=
METAR UAUU 080930Z 33007MPS 290V360 CAVOK 25/M01 Q1013 33CLRD70 NOSIG
RMK QFE744/0992=
####018000096####
SPUS53 KWBC 080936
SPECI
KGCK 080933Z AUTO 03009KT 10SM BKN013 BKN043 OVC055 18/17 A3021=
####018000181####
SAUS53 KWBC 080900 RRH
METAR
KANW 080930Z AUTO 25003KT 10SM BKN120 16/15 A3023=
KBIE 080930Z AUTO 35005KT 10SM CLR 19/18 A3013=
KUDG 080935Z 34003KT 10SM CLR 24/18 A2998=
####018000086####
SAUS54 KWBC 080900 RRE
METAR
KIZA 080929Z AUTO 00000KT 10SM OVC009 13/11 A2991=
####018000096####
SPUS73 KWBC 080936
SPECI
KGCK 080933Z AUTO 03009KT 10SM BKN013 BKN043 OVC055 18/17 A3021=
####018000752####
SACI31 ZBBB 080930
METAR ZBAA 080930Z 16002MPS 110V210 CAVOK 36/10 Q1003 NOSIG=
ZBSJ NIL=
METAR ZBTJ 080930Z 16007MPS CAVOK 31/17 Q1004 NOSIG=
METAR ZBYN 080930Z 17002MPS CAVOK 31/12 Q1007 NOSIG=
METAR ZGGG 080930Z 14005MPS 9999 FEW050TCU BKN050 35/26 Q1004 NOSIG=
METAR ZSHC 080930Z 25002MPS 6000 -SHRA BKN020 FEW033CB 28/23 Q1005
 TEMPO TSRA
 SCT033CB=
METAR ZSPD 080930Z 09006MPS 050V130 9999 BKN013 27/24 Q1006 NOSIG=
METAR ZSSS 080930Z 12005MPS 090V150 9999 BKN023 28/23 Q1005 BECMG
 BKN011
 OVC040=
ZWSH NIL=
METAR ZWWW 080930Z 32003MPS 290V360 9999 FEW050CB 33/07 Q1011 NOSIG=
METAR ZYTL 080930Z 24004MPS 200V260 9999 SCT033 27/19 Q1006 NOSIG=
METAR ZYTX 080930Z 02004MPS 9999 -SHRA SCT030CB 23/17 Q1006 NOSIG=
####018001519####
SAUS20 KNKA 080936
METAR K20V 080927Z AUTO 00000KT 10SM SCT024 07/05 A3042 RMK AO2=
METAR K4BM 080932Z AUTO 20003KT 7SM -DZ 05/04 A3064 RMK AO2=
METAR K5SM 080933Z AUTO 10003KT 10SM CLR 08/02 A3055 RMK AO2=
METAR K7BM 080936Z AUTO 00000KT 10SM OVC028 10/06 A3055 RMK AO2=
METAR KBDU 080937Z AUTO 34005KT 7SM SCT003 15/14 A3032 RMK AO2=
METAR KBJC 080937Z AUTO 00000KT 3SM BR SCT075 13/12 A3033 RMK AO2=
METAR KCCU 080936Z AUTO 18022G26KT 10SM CLR 05/02 A3064 RMK AO2=
SPECI KESF 080935Z AUTO 00000KT 6SM BR SCT013 23/22 A3002 RMK AO2=
METAR KGTU 080935Z 00000KT 8SM SCT008 BKN013 OVC021 24/22 A3001 RMK 
    AO1=
METAR KHYI 080935Z AUTO 05004KT 10SM FEW013 SCT018 BKN027 A2994 RMK 
    AO1=
METAR KILE 080935Z 12005KT 10SM SCT020 BKN024 OVC034 24/22 A2997 RMK 
    AO1=
SPECI KLBX 080935Z AUTO 10008KT 10SM VCTS FEW041 SCT070 BKN080 28/24 
    A2987 RMK AO2 LTG DSNT S AND SW TSB29=
METAR KMYP 080836Z AUTO 06011KT M1/4SM +SN OVC001 03/03 A3074 RMK
     AO2=
METAR KOCH 080935Z AUTO 10005KT 10SM CLR 24/19 A3000 RMK AO1=
METAR KPRX 080935Z 11005KT 6SM SCT015 OVC021 24/22 A3002 RMK AO1=
METAR KPVJ 080930Z AUTO 00000KT 7SM CLR 24/23 A3003 RMK AO2=
METAR KPWG 080935Z AUTO 09003KT 10SM SCT013 OVC024 25/22 A2999 RMK 
    AO1 LTG DSNT E=
METAR KTPL 080935Z 10005KT 10SM SCT013 BKN019 OVC025 24/23 A2998 RMK 
    AO1 
    WEA:RA P0001=
METAR KVTP 080940Z AUTO 11004KT 1/2SM OVC001 06/05 A3056 RMK AO2=
METAR KWYS 080930Z AUTO 00000KT 10SM CLR 00/00 A3036 RMK AO2=
####018000732####
SPNA14 KAWN 080936 RRE
SPECI KNSE 080928Z AUTO 00000KT 3SM BR CLR 23/21 A3002 RMK AO2 $=
SPECI KOZR 080931Z AUTO 00000KT 8SM R06/5000VP6000FT CLR 21/21 A3002
      RMK AO2 SLP163=
SPECI KPSM 080932Z 14006KT 4SM BR OVC007 21/20 A3006 RMK AO2A=
SPECI KSKF 080932Z 06006KT 10SM -DZ OVC014 26/ A2992 RMK AO2A RAB0909E0922DZB0910E0912B0929
      OVC V BKN SLP122 $=
SPECI KSKF 080933Z 06007KT 10SM -DZ BKN012 OVC017 26/ A2992 RMK AO2A
      RAB0909E0922DZB0910E0912B0929 OVC V BKN SLP122 $=
SPECI KWRI 080931Z AUTO 13003KT 1/4SM R18/1200V2400FT R24/0300FT FG
      VV001 23/23 A3000 RMK AO2 SLP158 $=
SPECI KWRI 080935Z AUTO 13003KT 1/2SM R18/1400V3000FT R24/0300FT FG
      VV001 23/23 A3000 RMK AO2 SLP159 $=
####018000204####
SAPO32 LPMG 080930
METAR LPFL 080930Z 18006KT 9999 FEW023 BKN045 22/18 Q1022=
METAR LPHR 080930Z 19003KT 9999 FEW016 SCT035 22/19 Q1023=
METAR LPPD 080930Z VRB02KT 9999 FEW017 BKN030 20/15 Q1024=
####018000075####
SACN95 CWAO 080931
WTM SA 0931 AUTO8 M M M M/10/09/1812/M/M M 55MM=

####018000092####
SPCN51 CWAO 080935
SPECI CWZZ 080935Z AUTO ///// 2SM BKN014 OVC037 OVC048 11/ A2979=

####018000118####
SANA35 KAWN 080900 RRG
METAR TFFF 080930Z AUTO 07009KT 9999NDV SCT011/// BKN023/// BKN030///
      28/24 Q1013=
####018000731####
SAZZ40 KAWN 080900 RRT
METAR BIKF 080930Z 02018KT 9999 FEW015 SCT030 BKN070 11/05 Q0993=
METAR DAUT 080900Z ///24KT 2000 DRSA NSC 37/10 Q1016=
METAR LKKV 080930Z VRB02KT CAVOK 21/08 Q1024 RMK REG QNH 1021=
METAR MGGT 080930Z 19004KT 9999 BKN015 FEW090 NOSIG=
METAR OIFM 080930Z 17010KT CAVOK 38/05 Q1017 A3003=
METAR OIII 080930Z 11006KT CAVOK 38/M03 Q1014 A2994 879/1=
METAR OIMM 080930Z 07012KT CAVOK 38/M02 Q1014 A2996=
METAR OITT 080930Z 10014KT CAVOK 36/04 Q1014 A2997=
METAR OIZH 080930Z 07006KT CAVOK 37/M04 Q1013 A2992=
METAR TFFF 080930Z AUTO 07009KT 9999NDV SCT011/// BKN023/// BKN030///
      28/24 Q1013=
METAR WSSS 080930Z 22004KT 190V250 9999 FEW017 SCT160 BKN270 29/25
      Q1008 NOSIG=
####018000080####
SACN88 CWAO 080931
WDA SA 0931 AUTO8 M M M 199/08/08/1105/M/M 8003 66MM=

####018000081####
SPUS81 KWBC 080936
SPECI
KLWD 080933Z AUTO 32004KT 6SM BR CLR 20/19 A3008=
####018001770####
SPZZ40 KAWN 080936 RRH
SPECI BGTL 080932Z AUTO 00000KT 0400 FG VV001 04/04 A2984 RMK AO2 SLP110=
SPECI CWZZ 080933Z AUTO ///// 5/8SM BKN014 OVC037 OVC048 11/ A2979=
SPECI CYIV 080933Z 29008KT 2SM SHRA BR BKN037 OVC050 RMK SC7SC1=
SPECI CYTZ 080933Z AUTO 21003KT 2 1/2SM BR CLR 20/19 A3001 RMK SLP162
      DENSITY ALT 700FT RVR MISG=
SPECI CYUA 080933Z AUTO 24006KT 9SM OVC002 OVC014 05/ A3008=
SPECI KNSE 080928Z AUTO 00000KT 3SM BR CLR 23/21 A3002 RMK AO2 $=
SPECI KNTU 080933Z 09007KT 10SM FEW005 SCT050 BKN100 25/24 A2995 RMK
      AO2 $=
SPECI KPSM 080932Z 14006KT 4SM BR OVC007 21/20 A3006 RMK AO2A=
SPECI KSKF 080932Z 06006KT 10SM -DZ OVC014 26/ A2992 RMK AO2A RAB0909E0922DZB0910E0912B0929
      OVC V BKN SLP122 $=
SPECI KSKF 080933Z 06007KT 10SM -DZ BKN012 OVC017 26/ A2992 RMK AO2A
      RAB0909E0922DZB0910E0912B0929 OVC V BKN SLP122 $=
SPECI KTBN 080935Z AUTO 00000KT 10SM BKN021 BKN035 OVC200 22/ A3006
      RMK AO2 VIS 1 3/4 RWY32 BKN021 V SCT SLP163 $=
SPECI KWRI 080935Z AUTO 13003KT 1/2SM R18/1400V3000FT R24/0300FT FG
      VV001 23/23 A3000 RMK AO2 SLP159 $=
SPECI LIBG 080836Z 36017G28KT 330V030 9999 FEW028 27/09 Q1018 RMK VIS
      MIN 9999=
PACZ SP 0935 AWOS MM 10 52/47/0408/006=
PAEH SP 0935 AWOS M16 BKN 10 48/-20/0000/001=
PAIM SP 0935 AWOS CLR BLO 120 10 53/46/3104/009=
PALU SP 0935 AWOS CLR BLO 120 10 55/35/2014/010=
PASV SP 0935 AWOS 36 SCT 60 SCT M100 BKN 10 49/47/0000/998=
PATL SP 0935 AWOS CLR BLO 120 10 60/43/0304/000=
SPECI RJSM 080927Z 03003KT 350V110 8000 -SHRA FEW005 BKN040 BKN080
      22/18 Q1009 RMK 1ST005 6SC040 5AC080 A2980 WIND BY EQPT/10=
SPECI RJST 080932Z 14007KT 110V180 9999 FEW008 BKN090 BKN200 23/21
      Q1010 RMK 1ST008 5AC090 A2984 1ST008 NE-E=
####018000119####
SPCN46 CWAO 080936
SPECI CYQA 080936Z AUTO 15002KT 2 1/4SM BR CLR 19/19 A3003 RMK SLP170
 DENSITY ALT 1400FT=

####018000119####
SPCN46 CWAO 080936
SPECI CYKF 080936Z AUTO 00000KT 1 1/2SM BR CLR 19/19 A3006 RMK SLP175
 DENSITY ALT 1600FT=

####018000122####
SPCN46 CWAO 080936
SPECI CYSC 080936Z AUTO VRB02KT 2 1/2SM BR SCT086 21/21 A3003 RMK
 SLP169 DENSITY ALT 1500FT=

####018001685####
SAUS20 KNKA 080936
METAR K0A9 080935Z AUTO 00000KT 7SM FEW080 19/18 A3011 RMK=
METAR KBBG 080935Z AUTO 00000KT 3SM BR CLR 22/22 A3007 RMK AO2 =
METAR KBBP 080935Z AUTO 26003KT 10SM CLR 22/19 A2995 RMK AO2=
METAR KBKN 080935Z AUTO 36007KT 10SM CLR 22/22 A3004 RMK AO2 =
SPECI KBMI 080936Z AUTO 00000KT 3SM BR SCT001 BKN021 BKN060 23/22 
    A3005 RMK AO2 PWINO TSB07E30 P0010 $=
SPECI KCEW 080936Z AUTO 00000KT 7SM CLR 21/21 A3003 RMK AO2=
METAR KCIC 080935Z AUTO 16005KT 10SM CLR 23/13 A2982 RMK AO1 =
METAR KCMR 080935Z AUTO 18006KT 10SM SCT110 17/02 A3025 RMK AO1 =
SPECI KFVE 080935Z AUTO 18004KT 2SM BR SCT002 BKN060 22/22 A3000 RMK 
    AO2=
METAR KGGE 080935Z AUTO 28003KT 10SM CLR 23/22 A2994 RMK AO2=
METAR KHVS 080935Z AUTO 35003KT 10SM SCT090 25/18 A2998 RMK AO2=
SPECI KLWM 080935Z AUTO 14003KT 3SM HZ SCT014 SCT044 OVC070 24/21 
    A3008 RMK AO2=
METAR KMAO 080935Z AUTO 30005KT 10SM CLR 25/19 A2993 RMK AO2=
METAR KNQA 080935Z AUTO 00000KT 10SM CLR 23/23 A3006 RMK=
SPECI KNTU 080933Z 09007KT 10SM FEW005 SCT050 BKN100 25/24 A2995
     RMK AO2 $=
SPECI KPKB 080935Z AUTO 00000KT 2 1/2SM BR SCT001 20/19 A3010 RMK 
    AO2 TSNO=
METAR KRCE 080935Z AUTO 35004KT 5SM BR CLR 22/22 A3006 RMK AO2 =
SPECI KRVS 080935Z 18007KT 1 3/4SM +TSRA BR FEW007 BKN015 OVC070 
    23/23 A3003 RMK AO2 LTG DSNT NE TSB0859 P0022=
METAR KSMS 080935Z AUTO 00000KT 10SM CLR 24/19 A2997 RMK AO2 =
METAR KSRR 080935Z AUTO 21005KT 10SM SCT009 BKN018 BKN022 13/13 
     A3034 RMK AO2 =
METAR KVQQ 080935Z AUTO 00000KT 10SM CLR 17/17 A3000 RMK AO2 =
SPECI KY50 080933Z AUTO 28005KT 5SM BR SCT008 SCT014 BKN023 22/22 
    A3000 RMK AO2 $=
####018000122####
SPCN47 CWAO 080936
SPECI CYZE 080936Z AUTO 18005KT 1 3/4SM BR OVC002 19/19 A2997 RMK
 SLP151 DENSITY ALT 1100FT=

####018000085####
SAIR31 OIII 080930 RRA
METAR OIKB 080930Z 21006KT 5000 HZ NSC 38/25 Q1001 A2956=
####018000132####
SAUS44 KCRP 080936
MTRCRP
SPECI KCRP 080935Z 34006KT 9SM -RA FEW009 BKN021 BKN032 26/25 A2983 
RMK AO2 TSE35 TS DSIPT P0052
####018002066####
SAUS99 KWBC 080937
METAR
K20V 080927Z AUTO 00000KT 10SM SCT024 07/05 A3042 RMK AO2=
K4BM 080932Z AUTO 20003KT 7SM -DZ 05/04 A3064 RMK AO2=
K5SM 080933Z AUTO 10003KT 10SM CLR 08/02 A3055 RMK AO2=
K7BM 080936Z AUTO 00000KT 10SM OVC028 10/06 A3055 RMK AO2=
KBDU 080937Z AUTO 34005KT 7SM SCT003 15/14 A3032 RMK AO2=
KBJC 080937Z AUTO 00000KT 3SM BR SCT075 13/12 A3033 RMK AO2=
KCCU 080936Z AUTO 18022G26KT 10SM CLR 05/02 A3064 RMK AO2=
KGTU 080935Z 00000KT 8SM SCT008 BKN013 OVC021 24/22 A3001 RMK
     AO1=
KHYI 080935Z AUTO 05004KT 10SM FEW013 SCT018 BKN027 A2994 RMK
     AO1=
KILE 080935Z 12005KT 10SM SCT020 BKN024 OVC034 24/22 A2997 RMK
     AO1=
KMYP 080836Z AUTO 06011KT M1/4SM +SN OVC001 03/03 A3074 RMK
     AO2=
KOCH 080935Z AUTO 10005KT 10SM CLR 24/19 A3000 RMK AO1=
KPRX 080935Z 11005KT 6SM SCT015 OVC021 24/22 A3002 RMK AO1=
KPVJ 080930Z AUTO 00000KT 7SM CLR 24/23 A3003 RMK AO2=
KPWG 080935Z AUTO 09003KT 10SM SCT013 OVC024 25/22 A2999 RMK AO1
     LTG DSNT E=
KTPL 080935Z 10005KT 10SM SCT013 BKN019 OVC025 24/23 A2998 RMK AO1
     WEA:RA P0001=
KVTP 080940Z AUTO 11004KT 1/2SM OVC001 06/05 A3056 RMK AO2=
KWYS 080930Z AUTO 00000KT 10SM CLR 00/00 A3036 RMK AO2=
K0A9 080935Z AUTO 00000KT 7SM FEW080 19/18 A3011 RMK=
KBBG 080935Z AUTO 00000KT 3SM BR CLR 22/22 A3007 RMK AO2=
KBBP 080935Z AUTO 26003KT 10SM CLR 22/19 A2995 RMK AO2=
KBKN 080935Z AUTO 36007KT 10SM CLR 22/22 A3004 RMK AO2=
KCIC 080935Z AUTO 16005KT 10SM CLR 23/13 A2982 RMK AO1=
KCMR 080935Z AUTO 18006KT 10SM SCT110 17/02 A3025 RMK AO1=
KGGE 080935Z AUTO 28003KT 10SM CLR 23/22 A2994 RMK AO2=
KHVS 080935Z AUTO 35003KT 10SM SCT090 25/18 A2998 RMK AO2=
KMAO 080935Z AUTO 30005KT 10SM CLR 25/19 A2993 RMK AO2=
KNQA 080935Z AUTO 00000KT 10SM CLR 23/23 A3006 RMK=
KRCE 080935Z AUTO 35004KT 5SM BR CLR 22/22 A3006 RMK AO2=
KSMS 080935Z AUTO 00000KT 10SM CLR 24/19 A2997 RMK AO2=
KSRR 080935Z AUTO 21005KT 10SM SCT009 BKN018 BKN022 13/13 A3034
     RMK AO2=
KVQQ 080935Z AUTO 00000KT 10SM CLR 17/17 A3000 RMK AO2=
####018000097####
SAAG01 SABM 080900 RRE
METAR COR SAWG 080900Z  29008KT 9999  SCT030
SCT100  M04/M06 Q0990=
####018000086####
SANL33 EHDB 080925 RRC
METAR EHSA 080925Z AUTO 24009G09KT 9999 16/15 Q1019 W16/S2=
####018000089####
SAAG SAWG 080900 CCA
METAR SAWG 080900Z  29008KT 9999  SCT030
SCT100  M04/M06 Q0990=
####018000080####
SAQB31 LQBK 080930
METAR LQBK 080930Z 34002KT 9999 FEW036 22/10 Q1022 NOSIG=
####018000399####
SAPL31 EPWA 080930
METAR EPWA 080930Z 29010KT 250V340 9999 FEW040 21/11 Q1021
      NOSIG=
METAR EPGD 080930Z 31006KT 250V360 CAVOK 23/10 Q1021=
METAR EPKK 080930Z 28007KT 240V330 9999 FEW046 21/07 Q1022=
METAR EPPO 080930Z 32008KT 280V030 CAVOK 22/09 Q1022=
METAR EPRZ 080930Z 32010KT 280V010 9999 SCT036 21/11 Q1021=
METAR EPBY 080930Z NIL=
METAR EPZG 080930Z VRB06KT CAVOK 24/08 Q1023=
####018000080####
SPAK32 KWBC 080937
SPECI
PAIM SP 0935 AWOS CLR BLO 120 10 53/46/3104/009=
####018000071####
SPAK32 KWBC 080937
SPECI
PACZ SP 0935 AWOS MM 10 52/47/0408/006=
####018000095####
SPBZ21 SBSV 080935
SPECI SBSV 080930Z 21004KT 9999 4500NW -SHRA BKN011 SCT017 22/21
Q1018=
####018000191####
SATR31 RUMS 080930
METAR UTAA 080930Z 07005MPS 030V120 9999 SKC 44/03 Q1008 NOSIG=
METAR UTAK 080930Z NIL=
METAR UTAM 080930Z NIL=
METAR UTAT 080930Z NIL=
METAR UTAV 080930Z NIL=
####018000091####
SPAK32 KWBC 080937
SPECI
PASV SP 0935 AWOS 36 SCT 60 SCT M100 BKN 10 49/47/0000/998=
####018000186####
SATR31 RUMS 080930
METAR UTAA 080930Z 07005MPS 030V120 9999 SKC 44/03 Q1008 NOSIG=
METAR UTAK 080930Z NIL=
METAR UTAM 080930Z NIL=
METAR UTAT 080930Z NIL=
METAR UTAV 080930Z NIL=
####018000201####
SAPO32 LPMG 080930
METAR LPFL 080930Z 18006KT 9999 FEW023 BKN045 22/18 Q1022=
METAR LPHR 080930Z 19003KT 9999 FEW016 SCT035 22/19 Q1023=
METAR LPPD 080930Z VRB02KT 9999 FEW017 BKN030 20/15 Q1024=
####018000370####
SAAL31 DAAA 080930
METAR DAAG 080930Z 35009KT 320V020 CAVOK 30/18 Q1019=
METAR DAAT 080930Z 11016KT 080V140 CAVOK 32/03 Q1022=
METAR DABB 080930Z 02009KT CAVOK 29/14 Q1019=
METAR DABC 080930Z 00000KT CAVOK 30/11 Q1023=
METAR COR DAON 080930Z 36006KT CAVOK 32/20 Q1017=
METAR DAOO 080930Z 36012KT CAVOK 29/21 Q1017=
METAR DAUH 080930Z 10014KT CAVOK 36/20 Q1018=
####018000887####
SPUS99 KWBC 080937
SPECI
KESF 080935Z AUTO 00000KT 6SM BR SCT013 23/22 A3002 RMK AO2=
KLBX 080935Z AUTO 10008KT 10SM VCTS FEW041 SCT070 BKN080 28/24
     A2987 RMK AO2 LTG DSNT S AND SW TSB29=
KBMI 080936Z AUTO 00000KT 3SM BR SCT001 BKN021 BKN060 23/22 A3005
     RMK AO2 PWINO TSB07E30 P0010 $=
KCEW 080936Z AUTO 00000KT 7SM CLR 21/21 A3003 RMK AO2=
KFVE 080935Z AUTO 18004KT 2SM BR SCT002 BKN060 22/22 A3000 RMK
     AO2=
KLWM 080935Z AUTO 14003KT 3SM HZ SCT014 SCT044 OVC070 24/21 A3008
     RMK AO2=
KNTU 080933Z 09007KT 10SM FEW005 SCT050 BKN100 25/24 A2995 RMK AO2
     $=
KPKB 080935Z AUTO 00000KT 2 1/2SM BR SCT001 20/19 A3010 RMK AO2
     TSNO=
KRVS 080935Z 18007KT 1 3/4SM +TSRA BR FEW007 BKN015 OVC070 23/23
     A3003 RMK AO2 LTG DSNT NE TSB0859 P0022=
KY50 080933Z AUTO 28005KT 5SM BR SCT008 SCT014 BKN023 22/22 A3000
     RMK AO2 $=
####018001166####
SACN60 CWAO 080900 RRA
PAF SA 0900 AUTO8 M M M M/16/10/MMMM/M/ M 30MM=
PBB SA 0900 AUTO8 M M M M/13/10/MMMM/M/ M 02MM=
PBN SA 0900 AUTO8 M M M M/16/12/3504/M/0008 M 67MM=
PDB SA 0900 AUTO8 M M M M/15/11/MMMM/M/ M 04MM=
PEL SA 0900 AUTO8 M M M M/16/13/3104/M/0013 PCPN 1.3MM PAST HR M
59MM=
PFA SA 0900 AUTO8 M M M M/10/10/MMMM/M/ M 48MM=
PFB SA 0900 AUTO8 M M M M/12/10/MMMM/M/ M 48MM=
PGC SA 0900 AUTO8 M M M M/15/11/2103/M/ M 19MM=
PHA SA 0900 AUTO8 M M M M/11/09/MMMM/M/0007 M 23MM=
PHW SA 0900 AUTO8 M M M M/16/10/2503/M/ M 93MM=
PJT SA 0900 AUTO8 M M M M/18/09/2909/M/0004 M 72MM=
PLC SA 0900 AUTO8 M M M M/14/13/2103/M/ M 57MM=
PLG SA 0900 AUTO8 M M M M/14/09/0205/M/M M 14MM=
PNS SA 0900 AUTO8 M M M M/12/10/MMMM/M/ M 75MM=
PRF SA 0900 AUTO8 M M M M/16/11/1004/M/ M 41MM=
PRW SA 0900 AUTO8 M M M M/12/11/MMMM/M/ M 46MM=
PSH SA 0900 AUTO8 M M M M/12/11/MMMM/M/ M 95MM=
PSW SA 0900 AUTO8 M M M M/14/10/2603/M/ M 81MM=
PTA SA 0900 AUTO8 M M M M/15/10/MMMM/M/ M 14MM=
PTC SA 0900 AUTO8 M M M M/19/10/MMMM/M/ M 95MM=
PVI SA 0900 AUTO8 M M M M/12/11/MMMM/M/ M 07MM=
PWT SA 0900 AUTO8 M M M M/12/10/MMMM/M/ M 67MM=

####018000139####
SACN95 CWAO 080900 RRD
WTM SA 0900 AUTO8 M M M 225/10/08/1809/M/M 1008 63MM=
WTX SA 0900 AUTO8 M M M 145/17/14/2508/M/ 8003 15MM=

####018000078####
SACN98 CWAO 080900 RRF
XCD SA 0900 AUTO8 M M M M/14/11/2401/M/ M 76MM=

####018000086####
SANL33 EHDB 080925 RRB
METAR EHSC 080925Z AUTO 28012G14KT 9999 17/15 Q1020 W///S2=
####018000764####
SAUR31 UKMS 080930
METAR UKLR 080930Z 31004MPS 270V340 9999 BKN023
         BKN100  21/16 Q1018 30090070 NOSIG=
METAR UKLI 080930Z 28002MPS 260V320 9999 SCT016CB
         BKN023 16/14 Q1020 28290565 NOSIG=
METAR UKON 080930Z 31003MPS 250V010 9999 FEW033
         OVC200  27/18 Q1013 05090075 NOSIG=
METAR UKCM 080930Z 14004MPS 100V210 CAVOK 28/18 Q1014
          02010065 NOSIG=
METAR UKCW 080930Z VRB02MPS 9999 BKN040 30/16 Q1015
         2709//70 NOSIG=
METAR UKLU NIL=
METAR UKKK 080930Z 27003MPS 240V310 9999 BKN021 23/18
         Q1015  26CLRD70 NOSIG=
METAR UKKM 080930Z 33004MPS 290V010 9999 BKN024 23/18
         Q1014  33CLRD70 NOSIG=
METAR UKLN 080930Z 30005MPS 250V350 9999 -SHRA BKN011
          BKN033CB 15/14 Q1019 3309//70 NOSIG=
####018000083####
SACN89 CWAO 080900 RRC
WDK SA 0900 AUTO8 M M M 224/10/09/0501/M/ 8003 00MM=

####018000086####
SANL33 EHDB 080925 RRA
METAR EHJR 080925Z AUTO 27017G17KT //// 16/15 Q1018 W///S3=
####018000781####
SAUR31 UKMS 080930
METAR UKLR 080930Z 31004MPS 270V340 9999 BKN023
         BKN100  21/16 Q1018 30090070 NOSIG=
METAR UKLI 080930Z 28002MPS 260V320 9999 SCT016CB
         BKN023 16/14 Q1020 28290565 NOSIG=
METAR UKON 080930Z 31003MPS 250V010 9999 FEW033
         OVC200  27/18 Q1013 05090075 NOSIG=
METAR UKCM 080930Z 14004MPS 100V210 CAVOK 28/18 Q1014
          02010065 NOSIG=
METAR UKCW 080930Z VRB02MPS 9999 BKN040 30/16 Q1015
         2709//70 NOSIG=
METAR UKLU NIL=
METAR UKKK 080930Z 27003MPS 240V310 9999 BKN021 23/18
         Q1015  26CLRD70 NOSIG=
METAR UKKM 080930Z 33004MPS 290V010 9999 BKN024 23/18
         Q1014  33CLRD70 NOSIG=
METAR UKLN 080930Z 30005MPS 250V350 9999 -SHRA BKN011
          BKN033CB 15/14 Q1019 3309//70 NOSIG=
####018000289####
SAPL32 EPWA 080930
METAR EPKT 080930Z 31009KT CAVOK 20/07 Q1023=
METAR EPLL 080930Z 29006KT 260V010 CAVOK 21/07 Q1022=
METAR EPSC 080930Z 00000KT CAVOK 22/11 Q1022=
METAR EPWR 080930Z VRB04KT CAVOK 23/09 Q1023=
METAR EPBY 080930Z NIL=
METAR EPZG 080930Z VRB06KT CAVOK 24/08 Q1023=
####018000027####
SAKY31 RUMS 080930
NIL
####018000087####
SACN78 CWAO 080900 RRD
WKK SA 0900 AUTO8 M M M 144/17/16/2003/M/0009 6011 65MM=

####018000080####
SPAK32 KWBC 080937
SPECI
PALU SP 0935 AWOS CLR BLO 120 10 55/35/2014/010=
####018000077####
SPAK32 KWBC 080937
SPECI
PAEH SP 0935 AWOS M16 BKN 10 48/-20/0000/001=
####018000080####
SPAK32 KWBC 080937
SPECI
PATL SP 0935 AWOS CLR BLO 120 10 60/43/0304/000=
####018000736####
SACI31 ZBBB 080930
METAR ZBAA 080930Z 16002MPS 110V210 CAVOK 36/10 Q1003 NOSIG=
ZBSJ NIL=
METAR ZBTJ 080930Z 16007MPS CAVOK 31/17 Q1004 NOSIG=
METAR ZBYN 080930Z 17002MPS CAVOK 31/12 Q1007 NOSIG=
METAR ZGGG 080930Z 14005MPS 9999 FEW050TCU BKN050 35/26 Q1004 NOSIG=
METAR ZSHC 080930Z 25002MPS 6000 -SHRA BKN020 FEW033CB 28/23 Q1005
 TEMPO TSRA
 SCT033CB=
METAR ZSPD 080930Z 09006MPS 050V130 9999 BKN013 27/24 Q1006 NOSIG=
METAR ZSSS 080930Z 12005MPS 090V150 9999 BKN023 28/23 Q1005 BECMG
 BKN011
 OVC040=
ZWSH NIL=
METAR ZWWW 080930Z 32003MPS 290V360 9999 FEW050CB 33/07 Q1011 NOSIG=
METAR ZYTL 080930Z 24004MPS 200V260 9999 SCT033 27/19 Q1006 NOSIG=
METAR ZYTX 080930Z 02004MPS 9999 -SHRA SCT030CB 23/17 Q1006 NOSIG=
####018000378####
SACN59 CWAO 080900 RRF
PAH SA 0900 AUTO8 M M M M/12/11/MMMM/M/ M 20MM=
PBV SA 0900 AUTO8 M M M M/11/08/MMMM/M/ M 13MM=
PGL SA 0900 AUTO8 M M M M/11/09/1902/M/ M 03MM=
PTH SA 0900 AUTO8 M M M M/12/10/MMMM/M/ M 21MM=
PVA SA 0900 AUTO8 M M M M/12/11/MMMM/M/ M 07MM=
XHP SA 0900 AUTO8 M M M M/12/10/1202/M/ M 06MM=
XMG SA 0900 AUTO8 M M M M/15/13/2407/M/ M 68MM=

####018000083####
SACN92 CWAO 080900 RRE
WMI SA 0900 AUTO8 M M M 155/15/15/0101/M/ 2008 45MM=

####018000083####
SACN91 CWAO 080900 RRD
WIJ SA 0900 AUTO8 M M M 142/09/07/3407/M/ 0001 91MM=

####018000128####
SACN97 CWAO 080900 RRE
XEC SA 0900 AUTO8 M M M M/15/13/MMMM/M/ M 32MM=
XEG SA 0900 AUTO8 M M M M/12/12/MMMM/M/ M 44MM=

####018000138####
SACN88 CWAO 080900 RRE
WDA SA 0900 AUTO8 M M M 200/07/07/1006/M/ 8006 44MM=
ZCR SA 0900 AUTO8 M M M 152/18/17/2101/M/ 3003 92MM=

####018000083####
SACN93 CWAO 080900 RRD
WOI SA 0900 AUTO8 M M M 181/08/06/2602/M/ 0008 26MM=

####018000107####
SPIY41 KWBC 080937
SPECI
LIBG 080836Z 36017G28KT 330V030 9999 FEW028 27/09 Q1018 RMK VIS
MIN 9999=
####018000154####
SPJP44 KWBC 080937
SPECI
RJSM 080927Z 03003KT 350V110 8000 -SHRA FEW005 BKN040 BKN080 22/18
Q1009 RMK 1ST005 6SC040 5AC080 A2980 WIND BY EQPT/10=
####018000137####
SPJP44 KWBC 080937
SPECI
RJST 080932Z 14007KT 110V180 9999 FEW008 BKN090 BKN200 23/21 Q1010
RMK 1ST008 5AC090 A2984 1ST008 NE-E=
####018000099####
SPNT31 KWBC 080937
SPECI
BGTL 080932Z AUTO 00000KT 0400 FG VV001 04/04 A2984 RMK AO2 SLP110=
####018000154####
SPXX62 KWBC 080937
SPECI
RJSM 080927Z 03003KT 350V110 8000 -SHRA FEW005 BKN040 BKN080 22/18
Q1009 RMK 1ST005 6SC040 5AC080 A2980 WIND BY EQPT/10=
####018000079####
SPUS41 KWBC 080937
SPECI
KPSM 080932Z 14006KT 4SM BR OVC007 21/20 A3006=
####018000114####
SPUS41 KWBC 080937
SPECI
KWRI 080935Z AUTO 13003KT 1/2SM R18/1400V3000FT R24/0300FT FG
VV001 23/23 A3000=
####018001260####
SAAE31 VTBB 080930
METAR VTBS 080930Z 07004KT 360V100 9999 TS FEW020CB SCT035 BKN120 
           29/22 Q1006 TS N-NE NOSIG=
METAR VTBD 080930Z 31010KT 9999 FEW018CB SCT120 BKN300 34/22 Q1005
           CB SE NOSIG=
METAR VTCC 080930Z 22006KT 9999 FEW025CB BKN300 34/20 Q1006 A2973
           A2973 CB N=
METAR VTBU 080930Z 02002KT 9999 FEW020CB BKN300 33/26 Q1006 A2973
           CB NW=
METAR VTSS 080930Z 24005KT 9999 FEW016CB SCT020 BKN300 32/21 Q1007
           A2976 CB OVER AD=
METAR VTSP 080930Z 29010KT 9000 FEW018 SCT120 BKN300 29/24 Q1009
           A2980=
METAR VLVT 080930Z 18004KT 9999 SCT016 FEW040 34/23 Q1004=
METAR VYYY 080930Z NIL=
METAR VVTS 080930Z 36008KT 8000 -SHRA FEW015TCU SCT017 28/23 Q1006
           NOSIG=
METAR VVNB 080930Z 08008KT 9999 SCT030 36/26 Q1000 NOSIG=
METAR VDPP 080930Z 21003KT 9999 SCT015 FEW017CB 31/23 Q1005 CB:NE
           NW SE W=
METAR VVDN 080930Z 21014KT 190V250 6000 FEW017CB SCT300 31/21 Q1007
           NOSIG=
METAR VYMD 080930Z 19007KT 8000 BKN020 FEW025CB OVC110 35/24 Q
          .1005=
METAR VDSR 080930Z 29006KT 240V310 9999 SCT015 FEW018CB SCT040
           35/23 Q1004 CB:SE,NE=
METAR VVPB 080930Z 19006KT 9999 SCT020 BKN300 34/22 Q1004 NOSIG=
####018000087####
SANL33 EHDB 080925 RRA
METAR EHJR 080925Z AUTO 27017G17KT //// 16/15 Q1018 W///S3=
####018000081####
SAEW32 LEMM 080930 RRA
METAR LERS 080930Z 21006KT 160V250 CAVOK 28/18 Q1019=
####018000087####
SANL33 EHDB 080925 RRC
METAR EHSA 080925Z AUTO 24009G09KT 9999 16/15 Q1019 W16/S2=
####018000087####
SANL33 EHDB 080925 RRB
METAR EHSC 080925Z AUTO 28012G14KT 9999 17/15 Q1020 W///S2=
####018000407####
SAPL31 EPWA 080930
METAR EPWA 080930Z 29010KT 250V340 9999 FEW040 21/11 Q1021
      NOSIG=
METAR EPGD 080930Z 31006KT 250V360 CAVOK 23/10 Q1021=
METAR EPKK 080930Z 28007KT 240V330 9999 FEW046 21/07 Q1022=
METAR EPPO 080930Z 32008KT 280V030 CAVOK 22/09 Q1022=
METAR EPRZ 080930Z 32010KT 280V010 9999 SCT036 21/11 Q1021=
METAR EPBY 080930Z NIL=
METAR EPZG 080930Z VRB06KT CAVOK 24/08 Q1023=
####018000295####
SAPL32 EPWA 080930
METAR EPKT 080930Z 31009KT CAVOK 20/07 Q1023=
METAR EPLL 080930Z 29006KT 260V010 CAVOK 21/07 Q1022=
METAR EPSC 080930Z 00000KT CAVOK 22/11 Q1022=
METAR EPWR 080930Z VRB04KT CAVOK 23/09 Q1023=
METAR EPBY 080930Z NIL=
METAR EPZG 080930Z VRB06KT CAVOK 24/08 Q1023=
####018000377####
SAAL31 DAAA 080930
METAR DAAG 080930Z 35009KT 320V020 CAVOK 30/18 Q1019=
METAR DAAT 080930Z 11016KT 080V140 CAVOK 32/03 Q1022=
METAR DABB 080930Z 02009KT CAVOK 29/14 Q1019=
METAR DABC 080930Z 00000KT CAVOK 30/11 Q1023=
METAR COR DAON 080930Z 36006KT CAVOK 32/20 Q1017=
METAR DAOO 080930Z 36012KT CAVOK 29/21 Q1017=
METAR DAUH 080930Z 10014KT CAVOK 36/20 Q1018=
####018000079####
SPUS51 KWBC 080937
SPECI
KPSM 080932Z 14006KT 4SM BR OVC007 21/20 A3006=
####018000104####
SPUS53 KWBC 080937
SPECI
KJLN 080934Z 35003KT 3SM VCTS +RA BR SCT007 BKN016 OVC023 23/23
A3005=
####018000108####
SPCN46 CWAO 080935
SPECI CYYB 080935Z 20002KT 4SM BR SCT004 SCT030 BKN110 BKN250 RMK
SF2SC1AC1CI1=

####018000089####
SPCN46 CWAO 080935
SPECI CYKL 080935Z AUTO 21004KT 9SM BKN024 OVC076 15/12 A2990=

####018000104####
SPUS73 KWBC 080937
SPECI
KJLN 080934Z 35003KT 3SM VCTS +RA BR SCT007 BKN016 OVC023 23/23
A3005=
####018000985####
SAUS20 KNKA 080937
METAR K04W 080934Z AUTO 00000KT 10SM CLR 15/15 A3006 RMK AO2 
     T01540150=
METAR KC29 080935Z AUTO 00000KT 10SM SCT004 21/20 A3001 RMK AO2 
     T02120197=
METAR KD39 080934Z AUTO 00000KT 10SM CLR 16/15 A3010 RMK AO2 
     T01620150=
SPECI KDDC 080936Z AUTO 03007KT 5SM BR SCT007 18/17 A3017 RMK AO2=
METAR KDLL 080934Z AUTO 29004KT 10SM OVC004 21/20 A3000 RMK AO2=
SPECI KNSE 080928Z AUTO 00000KT 3SM BR CLR 23/21 A3002 RMK AO2 $=
SPECI KOZR 080931Z AUTO 00000KT 8SM R06/5000VP6000FT CLR 21/21 A3002
      RMK AO2 SLP163=
SPECI KPSM 080932Z 14006KT 4SM BR OVC007 21/20 A3006 RMK AO2A=
SPECI KSET 080936Z AUTO 00000KT 2 1/2SM BR BKN004 24/24 A3001 RMK 
    AO2 RAE10 P0000=
METAR KY51 080935Z AUTO 30004KT 7SM CLR 20/19 A3004 RMK AO1 
     T01960192=
METAR PAAK 080936Z AUTO 08016G21KT 10SM SCT021 BKN038 OVC110 07/04 
    A2961 RMK AO1 PNO=
METAR PAHP 080936Z AUTO 35006KT 10SM OVC075 11/08 A3006 RMK AO1 PNO 
    TSNO=
####018000104####
SPUS81 KWBC 080937
SPECI
KJLN 080934Z 35003KT 3SM VCTS +RA BR SCT007 BKN016 OVC023 23/23
A3005=
####018000478####
SAJP51 RJTD 080930
METAR RJAA 080930Z 16006KT 9999 FEW020 BKN/// 26/23 Q1010 NOSIG=
METAR RJBB 080930Z 24011KT 9999 FEW030 BKN/// 26/23 Q1008 NOSIG=
METAR RJCC 080930Z 18007KT 150V210 3000 BR BKN002 18/17 Q1010=
METAR RJFF 080930Z 32006KT 290V010 5000 BR NSC 26/21 Q1008=
METAR RJGG 080930Z 14010KT 9999 FEW015 BKN/// 26/22 Q1008 NOSIG=
METAR RJTT 080930Z 19014KT 9999 FEW020 BKN/// 26/22 Q1009=
METAR ROAH 080930Z 20011KT 9999 FEW010 SCT080 BKN100 29/26 Q1009=
####018001259####
SAAE31 VTBB 080930
METAR VTBS 080930Z 07004KT 360V100 9999 TS FEW020CB SCT035 BKN120
           29/22 Q1006 TS N-NE NOSIG=
METAR VTBD 080930Z 31010KT 9999 FEW018CB SCT120 BKN300 34/22 Q1005
           CB SE NOSIG=
METAR VTCC 080930Z 22006KT 9999 FEW025CB BKN300 34/20 Q1006 A2973
           A2973 CB N=
METAR VTBU 080930Z 02002KT 9999 FEW020CB BKN300 33/26 Q1006 A2973
           CB NW=
METAR VTSS 080930Z 24005KT 9999 FEW016CB SCT020 BKN300 32/21 Q1007
           A2976 CB OVER AD=
METAR VTSP 080930Z 29010KT 9000 FEW018 SCT120 BKN300 29/24 Q1009
           A2980=
METAR VLVT 080930Z 18004KT 9999 SCT016 FEW040 34/23 Q1004=
METAR VYYY 080930Z NIL=
METAR VVTS 080930Z 36008KT 8000 -SHRA FEW015TCU SCT017 28/23 Q1006
           NOSIG=
METAR VVNB 080930Z 08008KT 9999 SCT030 36/26 Q1000 NOSIG=
METAR VDPP 080930Z 21003KT 9999 SCT015 FEW017CB 31/23 Q1005 CB:NE
           NW SE W=
METAR VVDN 080930Z 21014KT 190V250 6000 FEW017CB SCT300 31/21 Q1007
           NOSIG=
METAR VYMD 080930Z 19007KT 8000 BKN020 FEW025CB OVC110 35/24 Q
          .1005=
METAR VDSR 080930Z 29006KT 240V310 9999 SCT015 FEW018CB SCT040
           35/23 Q1004 CB:SE,NE=
METAR VVPB 080930Z 19006KT 9999 SCT020 BKN300 34/22 Q1004 NOSIG=
####018002987####
SAAK41 KNKA 080937
METAR PAAK 080936Z AUTO 08016G21KT 10SM SCT021 BKN038 OVC110 07/04 
    A2961 RMK AO1 PNO=
METAR PABL 080936Z AUTO 33007KT 10SM CLR 10/06 A3016 RMK AO1 PNO=
METAR PABV 080936Z AUTO 00000KT 10SM CLR 12/08 RMK AO1 PNO=
METAR PADK 080936Z 05014KT 10SM FEW013 BKN021 OVC050 07/06 A2957 RMK 
    AO1 PNO=
METAR PADL 080936Z 33008KT 10SM OVC075 11/08 A2998 RMK AO1 PNO TSNO=
METAR PAEM 080936Z AUTO 34003KT 10SM BKN080 OVC120 11/08 A3005 RMK 
    AO1 PNO=
METAR PAFE 080936Z AUTO 00000KT 10SM CLR 11/09 A3018 RMK AO1 PNO=
METAR PAFM 080936Z AUTO 30003KT 10SM CLR 15/09 A3011 RMK AO1 PNO=
METAR PAGL 080936Z AUTO 35007KT 10SM CLR 14/09 A3014 RMK AO1 PNO=
METAR PAGS 080936Z AUTO 00000KT 10SM CLR 10/09 A3019 RMK AO1 PNO=
METAR PAHP 080936Z AUTO 35006KT 10SM OVC075 11/08 A3006 RMK AO1 PNO 
    TSNO=
METAR PAHY 080936Z AUTO 03003KT 10SM CLR 17/10 A3012 RMK AO1 PNO=
METAR PAII 080936Z AUTO 02006KT 10SM OVC055 11/08 A2997 RMK AO1 PNO=
METAR PAIN 080936Z AUTO 00000KT 10SM CLR 09/06 A3008 RMK AO1 PNO=
METAR PAJC 080936Z AUTO 00000KT 10SM OVC017 08/05 A2995 RMK AO1 PNO=
METAR PAKK 080936Z AUTO 01010KT 10SM CLR 14/08 A3006 RMK AO1 PNO=
METAR PAKP 080936Z AUTO 35003KT 10SM OVC033 11/04 A3012 RMK AO1=
METAR PAMD 080936Z AUTO 09017G22KT 7SM SCT004 BKN013 OVC023 09/08 
    A3002 RMK AO1 PNO=
METAR PAMH 080936Z 00000KT 10SM CLR 15/05 A3000 RMK AO1 PNO=
METAR PAMM 080936Z AUTO 00000KT 10SM CLR 19/11 A3009 RMK AO1 PNO=
METAR PAMY 080936Z 31008KT 1 1/4SM SCT002 OVC050 04/03 A3006 RMK AO1=
METAR PANI 080936Z AUTO 00000KT 10SM CLR 10/08 A3001 RMK AO1 PNO=
METAR PANV 080936Z AUTO 27004KT 10SM BKN085 OVC090 13/08 A3000 RMK 
    AO1 PNO=
METAR PAPG 080936Z 03004KT 10SM CLR 13/10 A3014 RMK AO1 
      PNO=
METAR PAPH 080936Z AUTO 08005KT 10SM CLR 05/04 A2996 RMK AO1 PNO=
SPECI PAPN 080936Z AUTO 00000KT 1SM BR BKN060 07/06 A2994 RMK AO2 
    PWINO TSNO $=
METAR PAPO 080936Z AUTO 13008KT 10SM CLR 05/03 A3013 RMK AO1 PNO=
METAR PARC 080936Z AUTO 10004KT 10SM SCT060 10/02 A3004 RMK AO1 PNO=
METAR PASA 080936Z AUTO 06005KT 10SM CLR 05/03 A3020 RMK AO1 PNO=
METAR PASD 080936Z AUTO 00000KT 10SM OVC044 07/06 A2995 RMK AO1 PNO=
METAR PASH 080936Z AUTO 04003KT 10SM CLR 06/04 A3019 RMK AO1 PNO=
METAR PASK 080936Z 24006KT 10SM CLR 12/07 A3011 RMK AO1 PNO=
METAR PASL 080936Z AUTO 00000KT 10SM OVC090 11/08 A3001 RMK AO1 PNO=
METAR PASM 080936Z AUTO 04003KT 10SM OVC100 09/08 A3006 RMK AO1 PNO=
SPECI PATO 080935Z AUTO 10013G27KT 070V150 5SM RA BR FEW024 BKN032 
    OVC043 13/11 A3001 RMK AO2 PK WND 11037/0905 P0011 T01280111 
    TSNO=
METAR PAUN 080936Z AUTO 12006KT 10SM CLR 13/05 A3002 RMK AO1 PNO=
METAR PAVD 080936Z 00000KT 10SM OVC090 11/07 A3009 RMK AO1 
      PNO=
METAR PAWG 080936Z AUTO 00000KT 10SM CLR 14/11 A3013 RMK AO1 PNO=
METAR PAWN 080936Z AUTO 23003KT 10SM CLR 11/03 A3014 RMK AO1 PNO=
METAR PAWS 080936Z AUTO 04005KT 10SM OVC090 12/09 A3000 RMK AO1 PNO=
####018000092####
SAAK41 KNKA 080937
METAR PAZK 080936Z AUTO 07009KT 10SM FEW110 10/03 A3009 RMK AO1 PNO=
####018000082####
SPCN48 CWAO 080936
SPECI CYGV 080936Z AUTO 07007KT 9SM OVC004 14/12 A3003=

####018000102####
SAUS90 KWBC 081000
METAR KSYN 080950Z AUTO 21003KT 10SM CLR 17/16 A3007 RMK AO2
     T01700157=
####018000128####
SPUS90 KWBC 080938
SPECI KCRP 080935Z 34006KT 9SM -RA FEW009 BKN021 BKN032 26/25
     A2983 RMK AO2 TSE35 TS DSIPT P0052=
####018003733####
SAUS90 KWBC 080938
METAR KFPK 080935Z AUTO 00000KT 10SM CLR 22/20 A3004 RMK AO2=
METAR KMOP 080934Z AUTO 25003KT 10SM SCT040 OVC100 23/23 A3002 RMK
     AO2=
METAR KCAD 080934Z AUTO 22006KT 10SM SCT080 SCT120 22/20 A3002 RMK
     AO2=
METAR KMGN 080934Z AUTO 00000KT 10SM BKN110 21/20 A2996 RMK
     AO2=
METAR KHAI 080935Z AUTO 00000KT 5SM BR SCT060 SCT075 21/20 A3004
     RMK AO2=
METAR KLWA 080936Z AUTO 29003KT 10SM SCT050 23/21 A3004 RMK
     AO2=
METAR KDRM 080936Z AUTO 15005KT 1 3/4SM BR OVC002 20/20 A2995 RMK
     AO2=
METAR KVLL 080934Z AUTO 00000KT 10SM CLR 25/21 A3005 RMK AO2=
METAR KCFS 080935Z AUTO 00000KT 1 1/4SM BR VV007 20/20 A3001 RMK
     AO2=
METAR KOZW 080935Z AUTO 00000KT 7SM CLR 23/21 A3004 RMK AO2=
METAR KRNP 080935Z AUTO 20003KT 10SM CLR 22/21 A3002 RMK AO2=
METAR KDUH 080934Z AUTO 00000KT 10SM SCT070 22/18 A3004 RMK
     AO2=
METAR KJYM 080935Z AUTO 00000KT 10SM CLR 22/19 A3006 RMK AO2=
METAR KBAX 080935Z AUTO 00000KT 5SM BR CLR 21/21 A3000 RMK AO2=
METAR KIRS 080935Z AUTO 00000KT 7SM CLR 22/19 A3004 RMK AO2=
METAR KACB 080935Z AUTO 00000KT 10SM BKN110 24/21 A2997 RMK
     AO2=
METAR KRQB 080934Z AUTO 18003KT 10SM SCT070 BKN090 OVC110 22/21
     A3002 RMK AO2=
METAR KOEB 080935Z AUTO 00000KT 10SM CLR 23/20 A3004 RMK AO2=
METAR K4I3 080935Z AUTO 00000KT 10SM SCT060 20/19 A3009 RMK
     AO2=
METAR KAUM 080935Z AUTO 32005KT 10SM CLR 18/17 A3007 RMK AO2=
METAR KFFX 080934Z AUTO 21006KT 4SM -RA SCT110 22/21 A3003 RMK
     AO2=
METAR KCNB 080937Z AUTO 24005KT 10SM CLR 16/13 A3013 RMK AO2
     T01580130=
METAR KCKN 080935Z AUTO 22004KT 10SM CLR 13/12 A3005 RMK AO2=
METAR KCFE 080934Z AUTO 00000KT 10SM CLR 17/16 A3009 RMK AO2
     T01710162=
METAR KCQM 080937Z AUTO 00000KT 10SM CLR 15/14 A3003 RMK AO2=
METAR KDTL 080935Z AUTO 29003KT 10SM CLR 16/11 A3009 RMK AO2=
METAR KBDH 080935Z AUTO 00000KT 10SM CLR 16/14 A3012 RMK AO2=
METAR KCBG 080935Z AUTO 00000KT 10SM CLR 16/14 A3007 RMK AO2=
METAR KADC 080936Z AUTO 24005KT 10SM CLR 14/13 A3008 RMK AO2=
METAR KHAF 080930Z AUTO 00000KT 10SM OVC006 12/10 A2994 RMK
     AO2=
METAR KCKC 080935Z AUTO 30004KT 10SM CLR 15/13 A3003 RMK AO2=
METAR KJYG 080934Z AUTO 26003KT 10SM CLR 16/16 A3013 RMK AO2=
METAR KCOQ 080936Z AUTO 29005KT 10SM CLR 14/14 A3005 RMK AO2=
METAR KACQ 080938Z AUTO 00000KT 1SM BR VV007 16/15 A3011 RMK
     AO2=
METAR KRGK 080935Z AUTO 27003KT 10SM CLR 19/17 A3005 RMK AO2=
METAR KFSE 080934Z AUTO 19005KT 10SM CLR 12/11 A3005 RMK AO2=
METAR KY70 080934Z AUTO 33003KT 5SM RA SCT005 BKN048 OVC085 23/22
     A3003 RMK AO2 T02280217=
METAR KUKT 080930Z AUTO 00000KT 5SM CLR 20/20 A3004 RMK AO1=
METAR KPQN 080933Z AUTO 00000KT 10SM CLR 16/14 A3016 RMK AO2=
METAR KFGN 080934Z AUTO 26008KT 1SM DZ VV007 17/13 A2996 RMK
     AO2=
METAR KPNM 080933Z AUTO 00000KT 5SM BR CLR 14/14 A3008 RMK AO2=
METAR KPWC 080933Z AUTO 00000KT 10SM CLR 10/09 A3008 RMK AO2=
METAR KFFM 080933Z AUTO 20003KT 10SM CLR 15/14 A3008 RMK AO2=
METAR KGDB 080932Z AUTO 23004KT 10SM CLR 14/14 A3014 RMK AO2
     T01420136=
METAR KAIT 080933Z AUTO 00000KT 1/2SM FG VV005 12/11 A3006 RMK
     AO2=
METAR KGHW 080933Z AUTO 22006KT 10SM CLR 14/13 A3013 RMK AO2=
METAR KMWM 080933Z AUTO 25003KT 10SM CLR 14/14 A3013 RMK AO2=
METAR KULM 080935Z AUTO 29005KT 10SM CLR 15/13 A3011 RMK AO2=
METAR KBBB 080933Z AUTO 24003KT 10SM CLR 14/14 A3011 RMK AO2=
METAR KTWM 080933Z AUTO 29003KT 10SM CLR 16/13 A3001 RMK AO2=
METAR KMGG 080935Z AUTO 27003KT 10SM CLR 16/15 A3009 RMK AO2
     T01630151=
METAR KMOX 080930Z AUTO 22003KT 10SM CLR 15/14 A3008 RMK AO2=
METAR KTEW 080932Z AUTO 00000KT 7SM CLR 21/20 A3004 RMK AO2=
####018002632####
SAUS90 KWBC 080938 RRA
METAR KCVH 080930Z AUTO 00000KT 10SM OVC010 13/11 A2992 RMK
     AO1=
METAR KDYT 080934Z AUTO 25004KT 10SM CLR 19/16 A3004 RMK AO2=
METAR KFSO 080938Z AUTO 00000KT 3SM BR BKN060 OVC075 23/22 A3001
     RMK AO2=
METAR KFBL 080934Z AUTO 30004KT 10SM CLR 17/16 A3010 RMK AO2=
METAR KLYV 080938Z AUTO 00000KT 7SM CLR 15/13 A3015 RMK AO2=
METAR KEFK 080935Z AUTO 22006KT 3SM BR CLR 20/19 A3006 RMK AO2=
METAR KRRT 080934Z AUTO 24006KT 10SM CLR 14/12 A3001 RMK AO2=
METAR KTOB 080934Z AUTO 00000KT 10SM CLR 18/17 A3009 RMK AO2=
METAR KLXL 080934Z AUTO 00000KT 3/4SM BR VV005 12/11 A3007 RMK
     AO2=
METAR KEVM 080932Z AUTO 00000KT 10SM CLR 15/13 A3002 RMK AO1=
METAR KELO 080933Z AUTO 22003KT 10SM CLR 14/13 A3002 RMK AO2=
METAR KANE 080935Z AUTO 29003KT 10SM 17/16 A3008 RMK AO2=
METAR KROX 080935Z AUTO 21004KT 10SM CLR 14/12 A3000 RMK AO2=
METAR KVVV 080936Z AUTO 28004KT 10SM CLR 17/14 A3011 RMK AO2=
METAR KROS 080935Z AUTO 27003KT 10SM CLR 15/14 A3007 RMK AO2
     T01500142=
METAR KHCD 080932Z AUTO 24004KT 5SM BR CLR 14/13 A3010 RMK AO2
     T01380130=
METAR KSGS 080933Z AUTO 00000KT 10SM CLR 19/16 A3007 RMK AO2
     T01900160=
METAR KMJQ 080932Z AUTO 27003KT 5SM BR CLR 14/14 A3014 RMK AO2=
METAR KHCO 080934Z AUTO 18005KT 10SM CLR 12/12 A3004 RMK AO2=
METAR KLVN 080929Z AUTO 26003KT 10SM CLR 17/17 A3008 RMK AO2=
METAR KPEX 080933Z AUTO 25004KT 7SM CLR 13/13 A3011 RMK AO2
     T01260125=
METAR KJMR 080938Z AUTO 29003KT 10SM CLR 15/13 A3008 RMK AO2=
METAR KJKJ 080934Z AUTO 25003KT 10SM CLR 15/14 A3006 RMK AO2=
METAR KMVE 080934Z AUTO 29005KT 10SM CLR 16/15 A3010 RMK AO2=
METAR KTKC 080933Z AUTO 26005KT 10SM CLR 16/13 A3014 RMK AO2
     T01580131=
METAR KGYL 080935Z AUTO 24003KT 10SM CLR 15/14 A3009 RMK AO2
     T01490142=
METAR KDXX 080934Z AUTO 00000KT 10SM CLR 14/14 A3010 RMK AO2=
METAR KHZX 080932Z AUTO 00000KT 1/2SM VV005 12/12 A3007 RMK
     AO2=
METAR KSAZ 080934Z AUTO 24003KT 10SM CLR 15/15 A3008 RMK AO2=
METAR KONA 080931Z AUTO 30005KT 10SM CLR 20/18 A3002 RMK AO2=
METAR KOVL 080933Z AUTO 29003KT 10SM CLR 13/11 A3011 RMK AO2
     T01250111=
METAR KLJF 080932Z AUTO 28004KT 10SM CLR 17/16 A3011 RMK AO2=
METAR KAEL 080931Z AUTO 32004KT 10SM CLR 17/17 A3008 RMK AO2=
METAR K29G 080934Z AUTO 00000KT 7SM SCT060 19/18 A3009 RMK AO2
     T01940181 PWINO=
METAR KMRT 080933Z AUTO 00000KT 5SM CLR 20/19 A3011 RMK AO2
     T02030187=
METAR KIKW 080933Z AUTO 24004KT 10SM SCT060 BKN120 23/21 A3001 RMK
     AO2 T02250214=
METAR KMDS 080925Z AUTO 28005KT 10SM CLR 14/14 A3017 RMK AO2=
####018003706####
SAUS99 KWBC 080938 RRA
METAR
KRRT 080934Z AUTO 24006KT 10SM CLR 14/12 A3001 RMK AO2=
KTOB 080934Z AUTO 00000KT 10SM CLR 18/17 A3009 RMK AO2=
KLXL 080934Z AUTO 00000KT 3/4SM BR VV005 12/11 A3007 RMK AO2=
KEVM 080932Z AUTO 00000KT 10SM CLR 15/13 A3002 RMK AO1=
KELO 080933Z AUTO 22003KT 10SM CLR 14/13 A3002 RMK AO2=
KANE 080935Z AUTO 29003KT 10SM 17/16 A3008 RMK AO2=
KROX 080935Z AUTO 21004KT 10SM CLR 14/12 A3000 RMK AO2=
KSYN 080950Z AUTO 21003KT 10SM CLR 17/16 A3007 RMK AO2
     T01700157=
KVVV 080936Z AUTO 28004KT 10SM CLR 17/14 A3011 RMK AO2=
KROS 080935Z AUTO 27003KT 10SM CLR 15/14 A3007 RMK AO2
     T01500142=
KHCD 080932Z AUTO 24004KT 5SM BR CLR 14/13 A3010 RMK AO2
     T01380130=
KSGS 080933Z AUTO 00000KT 10SM CLR 19/16 A3007 RMK AO2
     T01900160=
KMJQ 080932Z AUTO 27003KT 5SM BR CLR 14/14 A3014 RMK AO2=
KHCO 080934Z AUTO 18005KT 10SM CLR 12/12 A3004 RMK AO2=
KLVN 080929Z AUTO 26003KT 10SM CLR 17/17 A3008 RMK AO2=
KPEX 080933Z AUTO 25004KT 7SM CLR 13/13 A3011 RMK AO2
     T01260125=
KJMR 080938Z AUTO 29003KT 10SM CLR 15/13 A3008 RMK AO2=
KJKJ 080934Z AUTO 25003KT 10SM CLR 15/14 A3006 RMK AO2=
KMVE 080934Z AUTO 29005KT 10SM CLR 16/15 A3010 RMK AO2=
KTKC 080933Z AUTO 26005KT 10SM CLR 16/13 A3014 RMK AO2
     T01580131=
KGYL 080935Z AUTO 24003KT 10SM CLR 15/14 A3009 RMK AO2
     T01490142=
KDXX 080934Z AUTO 00000KT 10SM CLR 14/14 A3010 RMK AO2=
KHZX 080932Z AUTO 00000KT 1/2SM VV005 12/12 A3007 RMK AO2=
KSAZ 080934Z AUTO 24003KT 10SM CLR 15/15 A3008 RMK AO2=
KONA 080931Z AUTO 30005KT 10SM CLR 20/18 A3002 RMK AO2=
KOVL 080933Z AUTO 29003KT 10SM CLR 13/11 A3011 RMK AO2
     T01250111=
KLJF 080932Z AUTO 28004KT 10SM CLR 17/16 A3011 RMK AO2=
KAEL 080931Z AUTO 32004KT 10SM CLR 17/17 A3008 RMK AO2=
K29G 080934Z AUTO 00000KT 7SM SCT060 19/18 A3009 RMK AO2 T01940181
     PWINO=
KMRT 080933Z AUTO 00000KT 5SM CLR 20/19 A3011 RMK AO2
     T02030187=
KIKW 080933Z AUTO 24004KT 10SM SCT060 BKN120 23/21 A3001 RMK AO2
     T02250214=
KMDS 080925Z AUTO 28005KT 10SM CLR 14/14 A3017 RMK AO2=
K04W 080934Z AUTO 00000KT 10SM CLR 15/15 A3006 RMK AO2
     T01540150=
KC29 080935Z AUTO 00000KT 10SM SCT004 21/20 A3001 RMK AO2
     T02120197=
KD39 080934Z AUTO 00000KT 10SM CLR 16/15 A3010 RMK AO2
     T01620150=
KDLL 080934Z AUTO 29004KT 10SM OVC004 21/20 A3000 RMK AO2=
KY51 080935Z AUTO 30004KT 7SM CLR 20/19 A3004 RMK AO1
     T01960192=
PAAK 080936Z AUTO 08016G21KT 10SM SCT021 BKN038 OVC110 07/04 A2961
     RMK AO1 PNO=
PAHP 080936Z AUTO 35006KT 10SM OVC075 11/08 A3006 RMK AO1 PNO
     TSNO=
PAZK 080936Z AUTO 07009KT 10SM FEW110 10/03 A3009 RMK AO1 PNO=
PAAK 080936Z AUTO 08016G21KT 10SM SCT021 BKN038 OVC110 07/04 A2961
     RMK AO1 PNO=
PABL 080936Z AUTO 33007KT 10SM CLR 10/06 A3016 RMK AO1 PNO=
PABV 080936Z AUTO 00000KT 10SM CLR 12/08 RMK AO1 PNO=
PADK 080936Z 05014KT 10SM FEW013 BKN021 OVC050 07/06 A2957 RMK AO1
     PNO=
PADL 080936Z 33008KT 10SM OVC075 11/08 A2998 RMK AO1 PNO TSNO=
PAEM 080936Z AUTO 34003KT 10SM BKN080 OVC120 11/08 A3005 RMK AO1
     PNO=
PAFE 080936Z AUTO 00000KT 10SM CLR 11/09 A3018 RMK AO1 PNO=
PAFM 080936Z AUTO 30003KT 10SM CLR 15/09 A3011 RMK AO1 PNO=
PAGL 080936Z AUTO 35007KT 10SM CLR 14/09 A3014 RMK AO1 PNO=
PAGS 080936Z AUTO 00000KT 10SM CLR 10/09 A3019 RMK AO1 PNO=
PAHP 080936Z AUTO 35006KT 10SM OVC075 11/08 A3006 RMK AO1 PNO
     TSNO=
PAHY 080936Z AUTO 03003KT 10SM CLR 17/10 A3012 RMK AO1 PNO=
PAII 080936Z AUTO 02006KT 10SM OVC055 11/08 A2997 RMK AO1 PNO=
PAIN 080936Z AUTO 00000KT 10SM CLR 09/06 A3008 RMK AO1 PNO=
PAJC 080936Z AUTO 00000KT 10SM OVC017 08/05 A2995 RMK AO1 PNO=
####018003717####
SAUS99 KWBC 080938
METAR
KFPK 080935Z AUTO 00000KT 10SM CLR 22/20 A3004 RMK AO2=
KMOP 080934Z AUTO 25003KT 10SM SCT040 OVC100 23/23 A3002 RMK
     AO2=
KCAD 080934Z AUTO 22006KT 10SM SCT080 SCT120 22/20 A3002 RMK
     AO2=
KMGN 080934Z AUTO 00000KT 10SM BKN110 21/20 A2996 RMK AO2=
KHAI 080935Z AUTO 00000KT 5SM BR SCT060 SCT075 21/20 A3004 RMK
     AO2=
KLWA 080936Z AUTO 29003KT 10SM SCT050 23/21 A3004 RMK AO2=
KDRM 080936Z AUTO 15005KT 1 3/4SM BR OVC002 20/20 A2995 RMK
     AO2=
KVLL 080934Z AUTO 00000KT 10SM CLR 25/21 A3005 RMK AO2=
KCFS 080935Z AUTO 00000KT 1 1/4SM BR VV007 20/20 A3001 RMK AO2=
KOZW 080935Z AUTO 00000KT 7SM CLR 23/21 A3004 RMK AO2=
KRNP 080935Z AUTO 20003KT 10SM CLR 22/21 A3002 RMK AO2=
KDUH 080934Z AUTO 00000KT 10SM SCT070 22/18 A3004 RMK AO2=
KJYM 080935Z AUTO 00000KT 10SM CLR 22/19 A3006 RMK AO2=
KBAX 080935Z AUTO 00000KT 5SM BR CLR 21/21 A3000 RMK AO2=
KIRS 080935Z AUTO 00000KT 7SM CLR 22/19 A3004 RMK AO2=
KACB 080935Z AUTO 00000KT 10SM BKN110 24/21 A2997 RMK AO2=
KRQB 080934Z AUTO 18003KT 10SM SCT070 BKN090 OVC110 22/21 A3002
     RMK AO2=
KOEB 080935Z AUTO 00000KT 10SM CLR 23/20 A3004 RMK AO2=
K4I3 080935Z AUTO 00000KT 10SM SCT060 20/19 A3009 RMK AO2=
KAUM 080935Z AUTO 32005KT 10SM CLR 18/17 A3007 RMK AO2=
KFFX 080934Z AUTO 21006KT 4SM -RA SCT110 22/21 A3003 RMK AO2=
KCNB 080937Z AUTO 24005KT 10SM CLR 16/13 A3013 RMK AO2
     T01580130=
KCKN 080935Z AUTO 22004KT 10SM CLR 13/12 A3005 RMK AO2=
KCFE 080934Z AUTO 00000KT 10SM CLR 17/16 A3009 RMK AO2
     T01710162=
KCQM 080937Z AUTO 00000KT 10SM CLR 15/14 A3003 RMK AO2=
KDTL 080935Z AUTO 29003KT 10SM CLR 16/11 A3009 RMK AO2=
KBDH 080935Z AUTO 00000KT 10SM CLR 16/14 A3012 RMK AO2=
KCBG 080935Z AUTO 00000KT 10SM CLR 16/14 A3007 RMK AO2=
KADC 080936Z AUTO 24005KT 10SM CLR 14/13 A3008 RMK AO2=
KHAF 080930Z AUTO 00000KT 10SM OVC006 12/10 A2994 RMK AO2=
KCKC 080935Z AUTO 30004KT 10SM CLR 15/13 A3003 RMK AO2=
KJYG 080934Z AUTO 26003KT 10SM CLR 16/16 A3013 RMK AO2=
KCOQ 080936Z AUTO 29005KT 10SM CLR 14/14 A3005 RMK AO2=
KACQ 080938Z AUTO 00000KT 1SM BR VV007 16/15 A3011 RMK AO2=
KRGK 080935Z AUTO 27003KT 10SM CLR 19/17 A3005 RMK AO2=
KFSE 080934Z AUTO 19005KT 10SM CLR 12/11 A3005 RMK AO2=
KY70 080934Z AUTO 33003KT 5SM RA SCT005 BKN048 OVC085 23/22 A3003
     RMK AO2 T02280217=
KUKT 080930Z AUTO 00000KT 5SM CLR 20/20 A3004 RMK AO1=
KPQN 080933Z AUTO 00000KT 10SM CLR 16/14 A3016 RMK AO2=
KFGN 080934Z AUTO 26008KT 1SM DZ VV007 17/13 A2996 RMK AO2=
KPNM 080933Z AUTO 00000KT 5SM BR CLR 14/14 A3008 RMK AO2=
KPWC 080933Z AUTO 00000KT 10SM CLR 10/09 A3008 RMK AO2=
KFFM 080933Z AUTO 20003KT 10SM CLR 15/14 A3008 RMK AO2=
KGDB 080932Z AUTO 23004KT 10SM CLR 14/14 A3014 RMK AO2
     T01420136=
KAIT 080933Z AUTO 00000KT 1/2SM FG VV005 12/11 A3006 RMK AO2=
KGHW 080933Z AUTO 22006KT 10SM CLR 14/13 A3013 RMK AO2=
KMWM 080933Z AUTO 25003KT 10SM CLR 14/14 A3013 RMK AO2=
KULM 080935Z AUTO 29005KT 10SM CLR 15/13 A3011 RMK AO2=
KBBB 080933Z AUTO 24003KT 10SM CLR 14/14 A3011 RMK AO2=
KTWM 080933Z AUTO 29003KT 10SM CLR 16/13 A3001 RMK AO2=
KMGG 080935Z AUTO 27003KT 10SM CLR 16/15 A3009 RMK AO2
     T01630151=
KMOX 080930Z AUTO 22003KT 10SM CLR 15/14 A3008 RMK AO2=
KTEW 080932Z AUTO 00000KT 7SM CLR 21/20 A3004 RMK AO2=
KCVH 080930Z AUTO 00000KT 10SM OVC010 13/11 A2992 RMK AO1=
KDYT 080934Z AUTO 25004KT 10SM CLR 19/16 A3004 RMK AO2=
KFSO 080938Z AUTO 00000KT 3SM BR BKN060 OVC075 23/22 A3001 RMK
     AO2=
KFBL 080934Z AUTO 30004KT 10SM CLR 17/16 A3010 RMK AO2=
KLYV 080938Z AUTO 00000KT 7SM CLR 15/13 A3015 RMK AO2=
KEFK 080935Z AUTO 22006KT 3SM BR CLR 20/19 A3006 RMK AO2=
####018001503####
SAUS99 KWBC 080938 RRB
METAR
PAKK 080936Z AUTO 01010KT 10SM CLR 14/08 A3006 RMK AO1 PNO=
PAKP 080936Z AUTO 35003KT 10SM OVC033 11/04 A3012 RMK AO1=
PAMD 080936Z AUTO 09017G22KT 7SM SCT004 BKN013 OVC023 09/08 A3002
     RMK AO1 PNO=
PAMH 080936Z 00000KT 10SM CLR 15/05 A3000 RMK AO1 PNO=
PAMM 080936Z AUTO 00000KT 10SM CLR 19/11 A3009 RMK AO1 PNO=
PAMY 080936Z 31008KT 1 1/4SM SCT002 OVC050 04/03 A3006 RMK AO1=
PANI 080936Z AUTO 00000KT 10SM CLR 10/08 A3001 RMK AO1 PNO=
PANV 080936Z AUTO 27004KT 10SM BKN085 OVC090 13/08 A3000 RMK AO1
     PNO=
PAPG 080936Z 03004KT 10SM CLR 13/10 A3014 RMK AO1 PNO=
PAPH 080936Z AUTO 08005KT 10SM CLR 05/04 A2996 RMK AO1 PNO=
PAPO 080936Z AUTO 13008KT 10SM CLR 05/03 A3013 RMK AO1 PNO=
PARC 080936Z AUTO 10004KT 10SM SCT060 10/02 A3004 RMK AO1 PNO=
PASA 080936Z AUTO 06005KT 10SM CLR 05/03 A3020 RMK AO1 PNO=
PASD 080936Z AUTO 00000KT 10SM OVC044 07/06 A2995 RMK AO1 PNO=
PASH 080936Z AUTO 04003KT 10SM CLR 06/04 A3019 RMK AO1 PNO=
PASK 080936Z 24006KT 10SM CLR 12/07 A3011 RMK AO1 PNO=
PASL 080936Z AUTO 00000KT 10SM OVC090 11/08 A3001 RMK AO1 PNO=
PASM 080936Z AUTO 04003KT 10SM OVC100 09/08 A3006 RMK AO1 PNO=
PAUN 080936Z AUTO 12006KT 10SM CLR 13/05 A3002 RMK AO1 PNO=
PAVD 080936Z 00000KT 10SM OVC090 11/07 A3009 RMK AO1 PNO=
PAWG 080936Z AUTO 00000KT 10SM CLR 14/11 A3013 RMK AO1 PNO=
PAWN 080936Z AUTO 23003KT 10SM CLR 11/03 A3014 RMK AO1 PNO=
PAWS 080936Z AUTO 04005KT 10SM OVC090 12/09 A3000 RMK AO1 PNO=
####018000095####
SACN89 KWBC 080938
METAR CWDK 080900Z AUTO 05001KT 10/09 RMK AO1 SLP224 T01000090
58003=
####018000243####
SACN88 KWBC 080938
METAR CWDA 080931Z AUTO 11005KT 08/08 RMK AO1 SLP199 T00760076
58003=
METAR CWDA 080900Z AUTO 10006KT 07/07 RMK AO1 SLP200 T00740074
58006=
METAR CZCR 080900Z AUTO 21001KT 18/17 RMK AO1 SLP152 T01790172
53003=
####018000095####
SACN91 KWBC 080938
METAR CWIJ 080900Z AUTO 34007KT 09/07 RMK AO1 SLP142 T00890071
50001=
####018000614####
SPUS99 KWBC 080938
SPECI
KDDC 080936Z AUTO 03007KT 5SM BR SCT007 18/17 A3017 RMK AO2=
KNSE 080928Z AUTO 00000KT 3SM BR CLR 23/21 A3002 RMK AO2 $=
KOZR 080931Z AUTO 00000KT 8SM R06/5000VP6000FT CLR 21/21 A3002 RMK
     AO2 SLP163=
KPSM 080932Z 14006KT 4SM BR OVC007 21/20 A3006 RMK AO2A=
KSET 080936Z AUTO 00000KT 2 1/2SM BR BKN004 24/24 A3001 RMK AO2
     RAE10 P0000=
PAPN 080936Z AUTO 00000KT 1SM BR BKN060 07/06 A2994 RMK AO2 PWINO
     TSNO $=
PATO 080935Z AUTO 10013G27KT 070V150 5SM RA BR FEW024 BKN032
     OVC043 13/11 A3001 RMK AO2 PK WND 11037/0905 P0011 T01280111
     TSNO=
####018000100####
SACN78 KWBC 080938
METAR CWKK 080900Z AUTO 20003KT 17/16 RMK AO1 6011 SLP144
T01660155 50009=
####018000123####
SACN97 KWBC 080938
METAR CXEC 080900Z AUTO 15/13 RMK AO1 T01530132=
METAR CXEG 080900Z AUTO 12/12 RMK AO1 T01240124=
####018000085####
SAGR31 LGAT 080920 RRB
METAR LGLM 080920Z 03007KT 9999 FEW008 BKN020 21/17 Q1013=
####018000109####
SAGR32 LGAT 080920 RRA
METAR LGAL 080920Z 03008KT 9999 FEW008 FEW020TCU BKN025 BKN080 17/16
      Q1015=
####018000325####
SABY31 UMMN 080930
METAR UMBB 080930Z 30003MPS 8000 FEW033 21/13 Q1018 NOSIG=
METAR UMGG 080930Z 23005MPS 9999 BKN015CB BKN100 26/18 Q1013
R28/190055 NOSIG=
METAR UMMM 080930Z 28005MPS 9999 BKN020 19/15 Q1014 R30/290050
NOSIG RMK QFE741=
METAR UMMS 080930Z 28004MPS 230V320 9999 BKN016 20/16 Q1014
R31/CLRD// NOSIG=
####018000130####
SPUS80 KWBC 080938
SPECI
KCRP 080935Z 34006KT 9SM -RA FEW009 BKN021 BKN032 26/25 A2983 RMK
     AO2 TSE35 TS DSIPT P0052=
####018001160####
SPXX60 KWBC 080938
SPECI
KNTU 080933Z 09007KT 10SM FEW005 SCT050 BKN100 25/24 A2995 RMK AO2
     $=
KPSM 080932Z 14006KT 4SM BR OVC007 21/20 A3006 RMK AO2A=
KSKF 080932Z 06006KT 10SM -DZ OVC014 26/ A2992 RMK AO2A
     RAB0909E0922DZB0910E0912B0929 OVC V BKN SLP122 $=
KSKF 080933Z 06007KT 10SM -DZ BKN012 OVC017 26/ A2992 RMK AO2A
     RAB0909E0922DZB0910E0912B0929 OVC V BKN SLP122 $=
KTBN 080935Z AUTO 00000KT 10SM BKN021 BKN035 OVC200 22/ A3006 RMK
     AO2 VIS 1 3/4 RWY32 BKN021 V SCT SLP163 $=
KWRI 080935Z AUTO 13003KT 1/2SM R18/1400V3000FT R24/0300FT FG
     VV001 23/23 A3000 RMK AO2 SLP159 $=
PACZ SP 0935 AWOS MM 10 52/47/0408/006=
PAEH SP 0935 AWOS M16 BKN 10 48/-20/0000/001=
PAIM SP 0935 AWOS CLR BLO 120 10 53/46/3104/009=
PALU SP 0935 AWOS CLR BLO 120 10 55/35/2014/010=
PASV SP 0935 AWOS 36 SCT 60 SCT M100 BKN 10 49/47/0000/998=
PATL SP 0935 AWOS CLR BLO 120 10 60/43/0304/000=
KNTU 080933Z 09007KT 10SM FEW005 SCT050 BKN100 25/24 A2995 RMK AO2
     $=
KOZR 080931Z AUTO 00000KT 8SM R06/5000VP6000FT CLR 21/21 A3002 RMK
     AO2 SLP163=
KPSM 080932Z 14006KT 4SM BR OVC007 21/20 A3006 RMK AO2A=
####018000225####
SAUS80 KWBC 080938
METAR
K4BM 080932Z AUTO 20003KT 7SM -DZ 05/04 A3064 RMK AO2=
KSMS 080935Z AUTO 00000KT 10SM CLR 24/19 A2997 RMK AO2=
PADK 080936Z 05014KT 10SM FEW013 BKN021 OVC050 07/06 A2957 RMK AO1
     PNO=
####018003743####
SAUS70 KWBC 080938
METAR
K20V 080927Z AUTO 00000KT 10SM SCT024 07/05 A3042 RMK AO2=
K5SM 080933Z AUTO 10003KT 10SM CLR 08/02 A3055 RMK AO2=
K7BM 080936Z AUTO 00000KT 10SM OVC028 10/06 A3055 RMK AO2=
KBDU 080937Z AUTO 34005KT 7SM SCT003 15/14 A3032 RMK AO2=
KBJC 080937Z AUTO 00000KT 3SM BR SCT075 13/12 A3033 RMK AO2=
KCCU 080936Z AUTO 18022G26KT 10SM CLR 05/02 A3064 RMK AO2=
KGTU 080935Z 00000KT 8SM SCT008 BKN013 OVC021 24/22 A3001 RMK
     AO1=
KHYI 080935Z AUTO 05004KT 10SM FEW013 SCT018 BKN027 A2994 RMK
     AO1=
KILE 080935Z 12005KT 10SM SCT020 BKN024 OVC034 24/22 A2997 RMK
     AO1=
KMYP 080836Z AUTO 06011KT M1/4SM +SN OVC001 03/03 A3074 RMK
     AO2=
KOCH 080935Z AUTO 10005KT 10SM CLR 24/19 A3000 RMK AO1=
KPRX 080935Z 11005KT 6SM SCT015 OVC021 24/22 A3002 RMK AO1=
KPVJ 080930Z AUTO 00000KT 7SM CLR 24/23 A3003 RMK AO2=
KPWG 080935Z AUTO 09003KT 10SM SCT013 OVC024 25/22 A2999 RMK AO1
     LTG DSNT E=
KTPL 080935Z 10005KT 10SM SCT013 BKN019 OVC025 24/23 A2998 RMK AO1
     WEA:RA P0001=
KVTP 080940Z AUTO 11004KT 1/2SM OVC001 06/05 A3056 RMK AO2=
KWYS 080930Z AUTO 00000KT 10SM CLR 00/00 A3036 RMK AO2=
K0A9 080935Z AUTO 00000KT 7SM FEW080 19/18 A3011 RMK=
KBBG 080935Z AUTO 00000KT 3SM BR CLR 22/22 A3007 RMK AO2=
KBBP 080935Z AUTO 26003KT 10SM CLR 22/19 A2995 RMK AO2=
KBKN 080935Z AUTO 36007KT 10SM CLR 22/22 A3004 RMK AO2=
KCIC 080935Z AUTO 16005KT 10SM CLR 23/13 A2982 RMK AO1=
KCMR 080935Z AUTO 18006KT 10SM SCT110 17/02 A3025 RMK AO1=
KGGE 080935Z AUTO 28003KT 10SM CLR 23/22 A2994 RMK AO2=
KHVS 080935Z AUTO 35003KT 10SM SCT090 25/18 A2998 RMK AO2=
KMAO 080935Z AUTO 30005KT 10SM CLR 25/19 A2993 RMK AO2=
KNQA 080935Z AUTO 00000KT 10SM CLR 23/23 A3006 RMK=
KRCE 080935Z AUTO 35004KT 5SM BR CLR 22/22 A3006 RMK AO2=
KSRR 080935Z AUTO 21005KT 10SM SCT009 BKN018 BKN022 13/13 A3034
     RMK AO2=
KVQQ 080935Z AUTO 00000KT 10SM CLR 17/17 A3000 RMK AO2=
K04W 080934Z AUTO 00000KT 10SM CLR 15/15 A3006 RMK AO2
     T01540150=
KC29 080935Z AUTO 00000KT 10SM SCT004 21/20 A3001 RMK AO2
     T02120197=
KD39 080934Z AUTO 00000KT 10SM CLR 16/15 A3010 RMK AO2
     T01620150=
KDLL 080934Z AUTO 29004KT 10SM OVC004 21/20 A3000 RMK AO2=
KY51 080935Z AUTO 30004KT 7SM CLR 20/19 A3004 RMK AO1
     T01960192=
PAAK 080936Z AUTO 08016G21KT 10SM SCT021 BKN038 OVC110 07/04 A2961
     RMK AO1 PNO=
PAHP 080936Z AUTO 35006KT 10SM OVC075 11/08 A3006 RMK AO1 PNO
     TSNO=
PAZK 080936Z AUTO 07009KT 10SM FEW110 10/03 A3009 RMK AO1 PNO=
PAAK 080936Z AUTO 08016G21KT 10SM SCT021 BKN038 OVC110 07/04 A2961
     RMK AO1 PNO=
PABL 080936Z AUTO 33007KT 10SM CLR 10/06 A3016 RMK AO1 PNO=
PABV 080936Z AUTO 00000KT 10SM CLR 12/08 RMK AO1 PNO=
PADL 080936Z 33008KT 10SM OVC075 11/08 A2998 RMK AO1 PNO TSNO=
PAEM 080936Z AUTO 34003KT 10SM BKN080 OVC120 11/08 A3005 RMK AO1
     PNO=
PAFE 080936Z AUTO 00000KT 10SM CLR 11/09 A3018 RMK AO1 PNO=
PAFM 080936Z AUTO 30003KT 10SM CLR 15/09 A3011 RMK AO1 PNO=
PAGL 080936Z AUTO 35007KT 10SM CLR 14/09 A3014 RMK AO1 PNO=
PAGS 080936Z AUTO 00000KT 10SM CLR 10/09 A3019 RMK AO1 PNO=
PAHP 080936Z AUTO 35006KT 10SM OVC075 11/08 A3006 RMK AO1 PNO
     TSNO=
PAHY 080936Z AUTO 03003KT 10SM CLR 17/10 A3012 RMK AO1 PNO=
PAII 080936Z AUTO 02006KT 10SM OVC055 11/08 A2997 RMK AO1 PNO=
PAIN 080936Z AUTO 00000KT 10SM CLR 09/06 A3008 RMK AO1 PNO=
PAJC 080936Z AUTO 00000KT 10SM OVC017 08/05 A2995 RMK AO1 PNO=
PAKK 080936Z AUTO 01010KT 10SM CLR 14/08 A3006 RMK AO1 PNO=
PAKP 080936Z AUTO 35003KT 10SM OVC033 11/04 A3012 RMK AO1=
PAMD 080936Z AUTO 09017G22KT 7SM SCT004 BKN013 OVC023 09/08 A3002
     RMK AO1 PNO=
PAMH 080936Z 00000KT 10SM CLR 15/05 A3000 RMK AO1 PNO=
####018001235####
SAUS70 KWBC 080938 RRA
METAR
PAMM 080936Z AUTO 00000KT 10SM CLR 19/11 A3009 RMK AO1 PNO=
PAMY 080936Z 31008KT 1 1/4SM SCT002 OVC050 04/03 A3006 RMK AO1=
PANI 080936Z AUTO 00000KT 10SM CLR 10/08 A3001 RMK AO1 PNO=
PANV 080936Z AUTO 27004KT 10SM BKN085 OVC090 13/08 A3000 RMK AO1
     PNO=
PAPG 080936Z 03004KT 10SM CLR 13/10 A3014 RMK AO1 PNO=
PAPH 080936Z AUTO 08005KT 10SM CLR 05/04 A2996 RMK AO1 PNO=
PAPO 080936Z AUTO 13008KT 10SM CLR 05/03 A3013 RMK AO1 PNO=
PARC 080936Z AUTO 10004KT 10SM SCT060 10/02 A3004 RMK AO1 PNO=
PASA 080936Z AUTO 06005KT 10SM CLR 05/03 A3020 RMK AO1 PNO=
PASD 080936Z AUTO 00000KT 10SM OVC044 07/06 A2995 RMK AO1 PNO=
PASH 080936Z AUTO 04003KT 10SM CLR 06/04 A3019 RMK AO1 PNO=
PASK 080936Z 24006KT 10SM CLR 12/07 A3011 RMK AO1 PNO=
PASL 080936Z AUTO 00000KT 10SM OVC090 11/08 A3001 RMK AO1 PNO=
PASM 080936Z AUTO 04003KT 10SM OVC100 09/08 A3006 RMK AO1 PNO=
PAUN 080936Z AUTO 12006KT 10SM CLR 13/05 A3002 RMK AO1 PNO=
PAVD 080936Z 00000KT 10SM OVC090 11/07 A3009 RMK AO1 PNO=
PAWG 080936Z AUTO 00000KT 10SM CLR 14/11 A3013 RMK AO1 PNO=
PAWN 080936Z AUTO 23003KT 10SM CLR 11/03 A3014 RMK AO1 PNO=
PAWS 080936Z AUTO 04005KT 10SM OVC090 12/09 A3000 RMK AO1 PNO=
####018001225####
SPUS70 KWBC 080938
SPECI
KESF 080935Z AUTO 00000KT 6SM BR SCT013 23/22 A3002 RMK AO2=
KLBX 080935Z AUTO 10008KT 10SM VCTS FEW041 SCT070 BKN080 28/24
     A2987 RMK AO2 LTG DSNT S AND SW TSB29=
KNSE 080928Z AUTO 00000KT 3SM BR CLR 23/21 A3002 RMK AO2 $=
KBMI 080936Z AUTO 00000KT 3SM BR SCT001 BKN021 BKN060 23/22 A3005
     RMK AO2 PWINO TSB07E30 P0010 $=
KCEW 080936Z AUTO 00000KT 7SM CLR 21/21 A3003 RMK AO2=
KFVE 080935Z AUTO 18004KT 2SM BR SCT002 BKN060 22/22 A3000 RMK
     AO2=
KLWM 080935Z AUTO 14003KT 3SM HZ SCT014 SCT044 OVC070 24/21 A3008
     RMK AO2=
KPKB 080935Z AUTO 00000KT 2 1/2SM BR SCT001 20/19 A3010 RMK AO2
     TSNO=
KRVS 080935Z 18007KT 1 3/4SM +TSRA BR FEW007 BKN015 OVC070 23/23
     A3003 RMK AO2 LTG DSNT NE TSB0859 P0022=
KY50 080933Z AUTO 28005KT 5SM BR SCT008 SCT014 BKN023 22/22 A3000
     RMK AO2 $=
KDDC 080936Z AUTO 03007KT 5SM BR SCT007 18/17 A3017 RMK AO2=
KNSE 080928Z AUTO 00000KT 3SM BR CLR 23/21 A3002 RMK AO2 $=
KSET 080936Z AUTO 00000KT 2 1/2SM BR BKN004 24/24 A3001 RMK AO2
     RAE10 P0000=
PATO 080935Z AUTO 10013G27KT 070V150 5SM RA BR FEW024 BKN032
     OVC043 13/11 A3001 RMK AO2 PK WND 11037/0905 P0011 T01280111
     TSNO=
####018000095####
SAAF31 KWBC 080900 RRG
METAR
DXXX 080930Z 24007KT 210V280 9999 FEW012 29/24 Q1015 NOSIG=
####018000081####
SAAF35 KWBC 080900 RRE
METAR
HECA 080930Z 30008KT CAVOK 31/18 Q1011 NOSIG=
####018000090####
SAAG31 KWBC 080900 CCA
METAR
SAWG 080900Z 29008KT 9999 SCT030 SCT100 M04/M06 Q0990=
####018000343####
SAAL31 KWBC 080900 RRC
METAR
DAAG 080930Z 35009KT 320V020 CAVOK 30/18 Q1019=
DAAT 080930Z 11016KT 080V140 CAVOK 32/03 Q1022=
DABB 080930Z 02009KT CAVOK 29/14 Q1019=
DABC 080930Z 00000KT CAVOK 30/11 Q1023=
DAON 080930Z 36006KT CAVOK 32/20 Q1017=
DAOO 080930Z 36012KT CAVOK 29/21 Q1017=
DAUH 080930Z 10014KT CAVOK 36/20 Q1018=
####018000129####
SAAS31 KWBC 080930 RRA
METAR
VTBS 080930Z 07004KT 360V100 9999 TS FEW020CB SCT035 BKN120 29/22
     Q1006 TS N-NE NOSIG=
####018000866####
SAAS33 KWBC 080930 RRA
METAR
VDPP 080930Z 21003KT 9999 SCT015 FEW017CB 31/23 Q1005 CB:NE NW SE
     W=
VDSR 080930Z 29006KT 240V310 9999 SCT015 FEW018CB SCT040 35/23
     Q1004 CB:SE,NE=
VLVT 080930Z 18004KT 9999 SCT016 FEW040 34/23 Q1004=
VTBD 080930Z 31010KT 9999 FEW018CB SCT120 BKN300 34/22 Q1005 CB SE
     NOSIG=
VTBU 080930Z 02002KT 9999 FEW020CB BKN300 33/26 Q1006 A2973 CB
     NW=
VTCC 080930Z 22006KT 9999 FEW025CB BKN300 34/20 Q1006 A2973 A2973
     CB N=
VTSP 080930Z 29010KT 9000 FEW018 SCT120 BKN300 29/24 Q1009
     A2980=
VTSS 080930Z 24005KT 9999 FEW016CB SCT020 BKN300 32/21 Q1007 A2976
     CB OVER AD=
VVDN 080930Z 21014KT 190V250 6000 FEW017CB SCT300 31/21 Q1007
     NOSIG=
VVNB 080930Z 08008KT 9999 SCT030 36/26 Q1000 NOSIG=
VVTS 080930Z 36008KT 8000 -SHRA FEW015TCU SCT017 28/23 Q1006
     NOSIG=
####018000142####
SAAW32 KWBC 080930 RRA
METAR
OIII 080930Z 11006KT CAVOK 38/M03 Q1014 A2994 879/1=
OIKB 080930Z 21006KT 5000 HZ NSC 38/25 Q1001 A2956=
####018000097####
SPBZ31 KWBC 080938
SPECI
SBSV 080930Z 21004KT 9999 4500NW -SHRA BKN011 SCT017 22/21 Q1018=
####018000771####
SAAW34 KWBC 080915 RRD
METAR
UAAA 080930Z 07003MPS 030V110 9999 SCT050CB BKN100 30/11 Q1013
     88CLRD65 TEMPO TS=
UACC 080930Z 28004MPS 230V360 CAVOK 24/03 Q1009 220/0070 NOSIG RMK
     QFE726/0968=
UAKK 080930Z VRB01MPS CAVOK 24/02 Q1009 230///70 NOSIG RMK
     QFE710/0947=
UAOO 080930Z NIL=
UARR 080930Z NIL=
UATE 080930Z 35006G12MPS 270V010 CAVOK 39/08 Q1010 300///70 NOSIG
     RMK QFE756/1008=
UATG 080930Z 35006G10MPS CAVOK 39/10 Q1009 32CLRD70 NOSIG RMK
     QFE759/1012=
UATT 080930Z 05010MPS 9999 NSC 32/03 Q1011 13CLRD70 NOSIG RMK
     QFE738/0985=
UAUU 080930Z 33007MPS 290V360 CAVOK 25/M01 Q1013 33CLRD70 NOSIG
     RMK QFE744/0992=
UTDD 080930Z VRB01MPS 9999 FEW066 37/06 Q1010 09CLRD70 NOSIG RMK
     QFE690/0920=
####018000088####
SPCN31 KWBC 080938
SPECI
CYKL 080935Z AUTO 21004KT 9SM BKN024 OVC076 15/12 A2990=
####018000096####
SACA32 KWBC 080900 RRB
METAR
TISX 080934Z 09006KT 10SM BKN023 BKN027 27/24 A2997 RMK AO2=
####018000115####
SPCN46 CWAO 080937
SPECI CYKF 080937Z AUTO 00000KT 3SM BR CLR 19/19 A3006 RMK SLP175
 DENSITY ALT 1600FT=

####018000619####
SACI32 KWBC 080900 RRC
METAR
ZBAA 080930Z 16002MPS 110V210 CAVOK 36/10 Q1003 NOSIG=
ZBTJ 080930Z 16007MPS CAVOK 31/17 Q1004 NOSIG=
ZBYN 080930Z 17002MPS CAVOK 31/12 Q1007 NOSIG=
ZGGG 080930Z 14005MPS 9999 FEW050TCU BKN050 35/26 Q1004 NOSIG=
ZSHC 080930Z 25002MPS 6000 -SHRA BKN020 FEW033CB 28/23 Q1005 TEMPO
     TSRA SCT033CB=
ZSPD 080930Z 09006MPS 050V130 9999 BKN013 27/24 Q1006 NOSIG=
ZSSS 080930Z 12005MPS 090V150 9999 BKN023 28/23 Q1005 BECMG BKN011
     OVC040=
ZWWW 080930Z 32003MPS 290V360 9999 FEW050CB 33/07 Q1011 NOSIG=
ZYTL 080930Z 24004MPS 200V260 9999 SCT033 27/19 Q1006 NOSIG=
####018000154####
SAEE31 KWBC 080930 RRA
METAR
EPSC 080930Z 00000KT CAVOK 22/11 Q1022=
UKKK 080930Z 27003MPS 240V310 9999 BKN021 23/18 Q1015 26CLRD70
     NOSIG=
####018000146####
SAEE32 KWBC 080930 RRA
METAR
LRAR 080930Z 02010KT 340V050 9999 SCT033 21/15 Q1020=
LRTC 080930Z 35012KT 9999 FEW030CB BKN040 22/17 Q1014=
####018000193####
SAEM31 KWBC 080930 RRA
METAR
LJLJ 080930Z VRB02KT 9999 FEW040 22/10 Q1024 NOSIG=
LJMB 080930Z 06004KT 320V250 9999 FEW040 23/08 Q1023=
LJPZ 080930Z 29004KT 260V330 CAVOK 25/10 Q1022=
####018000088####
SAEW31 KWBC 080930 RRA
METAR
LPPD 080930Z VRB02KT 9999 FEW017 BKN030 20/15 Q1024=
####018000086####
SAFR32 KWBC 080930 RRA
METAR
LFTW 080930Z AUTO VRB03KT 9999NDV NSC 30/15 Q1020=
####018000155####
SAFR41 KWBC 080930 RRA
METAR
LFSD 080930Z AUTO 15004KT 090V220 9999NDV NSC 27/13 Q1020=
LFSO 080930Z AUTO 28003KT 200V360 9999NDV NSC 27/11 Q1021=
####018000119####
SAIO31 KWBC 080900 RRG
METAR
VYMD 080930Z 19007KT 8000 BKN020 FEW025CB OVC110 35/24 Q .1005=
VYYY 080930Z NIL=
####018000208####
SAJP31 KWBC 080930 RRA
METAR
RJAA 080930Z 16006KT 9999 FEW020 BKN/// 26/23 Q1010 NOSIG=
RJCC 080930Z 18007KT 150V210 3000 BR BKN002 18/17 Q1010=
RJTT 080930Z 19014KT 9999 FEW020 BKN/// 26/22 Q1009=
####018000198####
SAPO31 KWBC 080900 RRC
METAR
LPFL 080930Z 18006KT 9999 FEW023 BKN045 22/18 Q1022=
LPHR 080930Z 19003KT 9999 FEW016 SCT035 22/19 Q1023=
LPPD 080930Z VRB02KT 9999 FEW017 BKN030 20/15 Q1024=
####018000805####
SARA31 KWBC 080900 RRH
METAR
UAAA 080930Z 07003MPS 030V110 9999 SCT050CB BKN100 30/11 Q1013
     88CLRD65 TEMPO TS=
UACC 080930Z 28004MPS 230V360 CAVOK 24/03 Q1009 220/0070 NOSIG RMK
     QFE726/0968=
UAOO 080930Z NIL=
UARR 080930Z NIL=
UATE 080930Z 35006G12MPS 270V010 CAVOK 39/08 Q1010 300///70 NOSIG
     RMK QFE756/1008=
UATG 080930Z 35006G10MPS CAVOK 39/10 Q1009 32CLRD70 NOSIG RMK
     QFE759/1012=
UATT 080930Z 05010MPS 9999 NSC 32/03 Q1011 13CLRD70 NOSIG RMK
     QFE738/0985=
UTAA 080930Z 07005MPS 030V120 9999 SKC 44/03 Q1008 NOSIG=
UTAK 080930Z NIL=
UTAT 080930Z NIL=
UTAV 080930Z NIL=
UTDD 080930Z VRB01MPS 9999 FEW066 37/06 Q1010 09CLRD70 NOSIG RMK
     QFE690/0920=
UTDL 080930Z 21001MPS 9999 FEW056TCU 37/08 Q1008 NOSIG RMK QFE718
     8809//70=
####018000053####
SARS31 KWBC 080900 RRC
METAR
UTAM 080930Z NIL=
####018000091####
SPUS41 KWBC 080938
SPECI
KFVE 080935Z AUTO 18004KT 2SM BR SCT002 BKN060 22/22 A3000=
####018000083####
SASP31 KWBC 080930 RRA
METAR
LERS 080930Z 21006KT 160V250 CAVOK 28/18 Q1019=
####018001572####
SAUS20 KNKA 080937
METAR K1P1 080935Z AUTO 00000KT M1/4SM FG OVC005 21/20 A3007 RMK 
     AO2 T02140202=
SPECI KBML 080936Z AUTO 00000KT 1/4SM FG OVC001 20/20 A3010 RMK AO2 
    $=
METAR KBVU 080935Z AUTO 00000KT 10SM CLR 24/03 A2985 RMK AO2 =
SPECI KBVY 080936Z 13006KT 6SM BR SCT015 22/20 A3007 RMK AO2 PNO=
SPECI KDAW 080936Z AUTO VRB03KT 1SM BR OVC003 22/21 A3007 RMK AO2 $=
SPECI KDEQ 080937Z AUTO 07004KT 10SM SCT006 BKN015 OVC032 24/23 
    A3002 RMK AO2=
METAR KE80 080935Z AUTO 28005KT 10SM CLR 18/11 A3023 RMK AO2 
     T01830112=
METAR KEDC 080935Z AUTO 07005KT BKN010 BKN016 OVC032 25/25 A2996 
     RMK AO2 =
METAR KEIK 080935Z AUTO 00000KT 7SM CLR 11/11 A3031 RMK AO2=
METAR KEOE 080935Z AUTO 22003KT 10SM CLR 22/20 A3003 RMK AO2=
METAR KFMH 080935Z AUTO 16007KT 5SM BR OVC003 21/20 A3009 RMK AO2 
     =
METAR KIFP 080935Z AUTO 17003KT 10SM CLR 30/M01 A2973 RMK AO2 =
SPECI KLAR 080936Z AUTO 29003KT 7SM FEW017 SCT021 08/07 A3039 RMK 
    AO2=
METAR KMAN 080935Z AUTO 00000KT 10SM CLR 14/07 A3004 RMK AO1 =
SPECI KOWD 080936Z AUTO 16003KT 9SM BKN016 BKN055 21/18 A3007 RMK 
    AO2=
METAR KPVF 080935Z AUTO 00000KT 10SM CLR 22/12 A2994 RMK AO1 =
METAR KRBW 080935Z AUTO 28003KT 10SM CLR 23/20 A2997 RMK AO2=
METAR KRCM 080935Z AUTO 00000KT 4SM -DZ SCT017 SCT035 SCT047 22/22 
     A3003 RMK AO2 P0008=
METAR KSNC 080935Z AUTO 00000KT M1/4SM  FG OVC001 22/ A3006 RMK AO2
      =
METAR KTME 080935Z AUTO 04007KT 5SM 25/25 A2992 RMK AO1 =
METAR KUOX 080935Z AUTO 00000KT 10SM CLR 22/20 A3009 RMK AO2 =
####018000609####
SAUR31 KWBC 080850 RRB
METAR
UKCW 080930Z VRB02MPS 9999 BKN040 30/16 Q1015 2709//70 NOSIG=
UKKK 080930Z 27003MPS 240V310 9999 BKN021 23/18 Q1015 26CLRD70
     NOSIG=
UKKM 080930Z 33004MPS 290V010 9999 BKN024 23/18 Q1014 33CLRD70
     NOSIG=
UKLI 080930Z 28002MPS 260V320 9999 SCT016CB BKN023 16/14 Q1020
     28290565 NOSIG=
UKLN 080930Z 30005MPS 250V350 9999 -SHRA BKN011 BKN033CB 15/14
     Q1019 3309//70 NOSIG=
UKLR 080930Z 31004MPS 270V340 9999 BKN023 BKN100 21/16 Q1018
     30090070 NOSIG=
UKON 080930Z 31003MPS 250V010 9999 FEW033 OVC200 27/18 Q1013
     05090075 NOSIG=
####018000098####
SPUS41 KWBC 080938
SPECI
KLWM 080935Z AUTO 14003KT 3SM HZ SCT014 SCT044 OVC070 24/21 A3008=
####018000094####
SPUS42 KWBC 080938
SPECI
KCRP 080935Z 34006KT 9SM -RA FEW009 BKN021 BKN032 26/25 A2983=
####018000666####
SAXX99 KWBC 080900 RRX
METAR
EPLL 080930Z 29006KT 260V010 CAVOK 21/07 Q1022=
LFMO 080930Z VRB02KT CAVOK 30/16 Q1020=
LFOA 080930Z AUTO 10006KT 060V150 9999NDV NSC 28/12 Q1019=
LFOJ 080930Z 20004KT 140V290 CAVOK 28/13 Q1019=
LFQI 080930Z 24007KT 200V280 CAVOK 27/12 Q1019=
LKKV 080930Z VRB02KT CAVOK 21/08 Q1024 RMK REG QNH 1021=
LQBK 080930Z 34002KT 9999 FEW036 22/10 Q1022 NOSIG=
RJBB 080930Z 24011KT 9999 FEW030 BKN/// 26/23 Q1008 NOSIG=
RJGG 080930Z 14010KT 9999 FEW015 BKN/// 26/22 Q1008 NOSIG=
UDYZ 080930Z 19002G07MPS 110V250 9999 FEW050 36/13 Q1010 09010070
     NOSIG=
ZYTX 080930Z 02004MPS 9999 -SHRA SCT030CB 23/17 Q1006 NOSIG=
####018000080####
SACN88 CWAO 080931
WNS SA 0931 AUTO8 M M M 200/18/17/MMMM/M/M 3003 74MM=

####018000084####
SPUS52 KWBC 080938
SPECI
KESF 080935Z AUTO 00000KT 6SM BR SCT013 23/22 A3002=
####018000078####
SPUS72 KWBC 080938
SPECI
KCEW 080936Z AUTO 00000KT 7SM CLR 21/21 A3003=
####018000094####
SPUS72 KWBC 080938
SPECI
KCRP 080935Z 34006KT 9SM -RA FEW009 BKN021 BKN032 26/25 A2983=
####018000084####
SPUS72 KWBC 080938
SPECI
KESF 080935Z AUTO 00000KT 6SM BR SCT013 23/22 A3002=
####018000086####
SAGR31 LGAT 080920 RRB
METAR LGLM 080920Z 03007KT 9999 FEW008 BKN020 21/17 Q1013=
####018000111####
SAGR32 LGAT 080920 RRA
METAR LGAL 080920Z 03008KT 9999 FEW008 FEW020TCU BKN025 BKN080 17/16
      Q1015=
####018000073####
SAEG31 HECA 080800 RRA
METAR HESN 080800Z 33014KT CAVOK 35/08 Q1010=
####018000332####
SABY31 UMMN 080930
METAR UMBB 080930Z 30003MPS 8000 FEW033 21/13 Q1018 NOSIG=
METAR UMGG 080930Z 23005MPS 9999 BKN015CB BKN100 26/18 Q1013
R28/190055 NOSIG=
METAR UMMM 080930Z 28005MPS 9999 BKN020 19/15 Q1014 R30/290050
NOSIG RMK QFE741=
METAR UMMS 080930Z 28004MPS 230V320 9999 BKN016 20/16 Q1014
R31/CLRD// NOSIG=
####018000094####
SPUS81 KWBC 080938
SPECI
KCRP 080935Z 34006KT 9SM -RA FEW009 BKN021 BKN032 26/25 A2983=
####018000451####
SAAL40 DAMM 080930
METAR DAAG 080930Z 35009KT 320V020 CAVOK 30/18 Q1019=
METAR DAAT 080930Z 11016KT 080V140 CAVOK 32/03 Q1022=
METAR DABB 080930Z 02009KT CAVOK 29/14 Q1019=
METAR DABC 080930Z 00000KT CAVOK 30/11 Q1023=
METAR DABS 080930Z 34006KT CAVOK 30/10 Q1023=
METAR COR DAON 080930Z 36006KT CAVOK 32/20 Q1017=
METAR DAOO 080930Z 36012KT CAVOK 29/21 Q1017=
METAR DAUH 080930Z 10014KT CAVOK 36/20 Q1018=
METAR DAUZ 080930Z NIL=
####018000091####
SAGL KAWN 080900 RRB
METAR BIKF 080930Z 02018KT 9999 FEW015 SCT030 BKN070 11/05 Q0993=
####018000084####
SPCN47 CWAO 080937
SPECI CYAM 080937Z 11002KT 4SM BR OVC004 RMK SF8 CIG RAG=

####018000112####
SPCN31 CWAO 080936
SPECI CYZV 080936Z 09003KT 2SM -DZ BR VCFG OVC003 RMK FG2ST6 CIG VRB
2-4 VIS S 1/2=

####018000123####
SPCN47 CWAO 080938
SPECI CYTZ 080938Z AUTO 19004KT 2SM BR CLR 20/19 A3001 RMK SLP162
 DENSITY ALT 700FT RVR MISG=

####018002966####
SAUS20 KNKA 080938
METAR K1A6 080935Z AUTO 00000KT 3SM BR CLR 21/21 A3010 RMK AO2=
METAR K21D 080938Z AUTO 31005KT 10SM CLR 17/16 A3007 RMK AO2=
METAR K29G 080934Z AUTO 00000KT 7SM SCT060 19/18 A3009 RMK AO2
     T01940181 PWINO=
METAR K4I3 080935Z AUTO 00000KT 10SM SCT060 20/19 A3009 RMK
     AO2=
METAR KACB 080935Z AUTO 00000KT 10SM BKN110 24/21 A2997 RMK
     AO2=
METAR KACQ 080938Z AUTO 00000KT 1SM BR VV007 16/15 A3011 RMK
     AO2=
METAR KADC 080936Z AUTO 24005KT 10SM CLR 14/13 A3008 RMK AO2=
METAR KAEL 080931Z AUTO 32004KT 10SM CLR 17/17 A3008 RMK AO2=
METAR KAIG 080935Z AUTO 32003KT 10SM CLR 18/17 A3000 RMK AO2=
METAR KAIT 080933Z AUTO 00000KT 1/2SM FG VV005 12/11 A3006 RMK
     AO2=
METAR KANE 080935Z AUTO 29003KT 10SM 17/16 A3008 RMK AO2=
METAR KARV 080932Z AUTO 33005KT 10SM BKN008 BKN013 19/17 A3003 
     RMK AO2 T01860173=
METAR KATW 080935Z AUTO 25007KT 7SM OVC005 22/21 A3000 RMK AO2=
METAR KAUM 080935Z AUTO 32005KT 10SM CLR 18/17 A3007 RMK AO2=
METAR KBAX 080935Z AUTO 00000KT 5SM BR CLR 21/21 A3000 RMK AO2=
METAR KBBB 080933Z AUTO 24003KT 10SM CLR 14/14 A3011 RMK AO2=
METAR KBDH 080935Z AUTO 00000KT 10SM CLR 16/14 A3012 RMK AO2=
METAR KBJI 080934Z AUTO 24006KT 10SM CLR 15/13 A3005 RMK AO2=
METAR KBWP 080931Z AUTO 24003KT 10SM CLR 14/13 A3008 RMK AO1 
     T01440130=
METAR KCAD 080934Z AUTO 22006KT 10SM SCT080 SCT120 22/20 A3002 RMK
     AO2=
METAR KCBG 080935Z AUTO 00000KT 10SM CLR 16/14 A3007 RMK AO2=
METAR KCFE 080934Z AUTO 00000KT 10SM CLR 17/16 A3009 RMK AO2
     T01710162=
METAR KCFS 080935Z AUTO 00000KT 1 1/4SM BR VV007 20/20 A3001 RMK
     AO2=
METAR KCKC 080935Z AUTO 30004KT 10SM CLR 15/13 A3003 RMK AO2=
METAR KCKN 080935Z AUTO 22004KT 10SM CLR 13/12 A3005 RMK AO2=
METAR KCLI 080935Z AUTO 00000KT 3SM BR OVC003 22/21 A2998 RMK AO2=
METAR KCMY 080935Z AUTO 00000KT 10SM CLR 20/19 A3002 RMK AO2 
     T01960188=
METAR KCNB 080937Z AUTO 24005KT 10SM CLR 16/13 A3013 RMK AO2
     T01580130=
METAR KCOQ 080936Z AUTO 29005KT 10SM CLR 14/14 A3005 RMK AO2=
METAR KCQM 080937Z AUTO 00000KT 10SM CLR 15/14 A3003 RMK AO2=
SPECI KCRP 080935Z 34006KT 9SM -RA FEW009 BKN021 BKN032 26/25
     A2983 RMK AO2 TSE35 TS DSIPT P0052=
METAR KCVH 080930Z AUTO 00000KT 10SM OVC010 13/11 A2992 RMK
     AO1=
METAR KCWA 080935Z AUTO 30007KT 7SM OVC003 19/19 A3002 RMK AO2 
     T01900191=
METAR KDRM 080936Z AUTO 15005KT 1 3/4SM BR OVC002 20/20 A2995 RMK
     AO2=
METAR KDTL 080935Z AUTO 29003KT 10SM CLR 16/11 A3009 RMK AO2=
METAR KDUH 080934Z AUTO 00000KT 10SM SCT070 22/18 A3004 RMK
     AO2=
METAR KDVK 080937Z AUTO 00000KT 5SM 21/19 A3009 RMK AO1=
METAR KDXX 080934Z AUTO 00000KT 10SM CLR 14/14 A3010 RMK AO2=
METAR KDYT 080934Z AUTO 25004KT 10SM CLR 19/16 A3004 RMK AO2=
METAR KEFK 080935Z AUTO 22006KT 3SM BR CLR 20/19 A3006 RMK AO2=
SPECI KELD 080937Z AUTO 00000KT 6SM BR BKN001 BKN085 23/23 A3004 RMK 
    AO2=
####018002589####
SAUS20 KNKA 080938
METAR KMOX 080930Z AUTO 22003KT 10SM CLR 15/14 A3008 RMK AO2=
METAR KMRT 080933Z AUTO 00000KT 5SM CLR 20/19 A3011 RMK AO2
     T02030187=
METAR KMVE 080934Z AUTO 29005KT 10SM CLR 16/15 A3010 RMK AO2=
METAR KMWM 080933Z AUTO 25003KT 10SM CLR 14/14 A3013 RMK AO2=
METAR KMWO 080935Z AUTO 00000KT 2 1/2SM BR CLR 20/20 A3008 RMK AO2=
METAR KOEB 080935Z AUTO 00000KT 10SM CLR 23/20 A3004 RMK AO2=
METAR KONA 080931Z AUTO 30005KT 10SM CLR 20/18 A3002 RMK AO2=
METAR KOVL 080933Z AUTO 29003KT 10SM CLR 13/11 A3011 RMK AO2
     T01250111=
METAR KOZW 080935Z AUTO 00000KT 7SM CLR 23/21 A3004 RMK AO2=
METAR KPEX 080933Z AUTO 25004KT 7SM CLR 13/13 A3011 RMK AO2
     T01260125=
METAR KPNM 080933Z AUTO 00000KT 5SM BR CLR 14/14 A3008 RMK AO2=
METAR KPQN 080933Z AUTO 00000KT 10SM CLR 16/14 A3016 RMK AO2=
METAR KPVB 080933Z AUTO 00000KT 1/4SM OVC001 20/20 A3004 RMK AO1 
     T02010195=
METAR KPWC 080933Z AUTO 00000KT 10SM CLR 10/09 A3008 RMK AO2=
METAR KRGK 080935Z AUTO 27003KT 10SM CLR 19/17 A3005 RMK AO2=
METAR KRNP 080935Z AUTO 20003KT 10SM CLR 22/21 A3002 RMK AO2=
METAR KROS 080935Z AUTO 27003KT 10SM CLR 15/14 A3007 RMK AO2
     T01500142=
METAR KROX 080935Z AUTO 21004KT 10SM CLR 14/12 A3000 RMK AO2=
METAR KRQB 080934Z AUTO 18003KT 10SM SCT070 BKN090 OVC110 22/21
     A3002 RMK AO2=
METAR KRRT 080934Z AUTO 24006KT 10SM CLR 14/12 A3001 RMK AO2=
METAR KRZN 080934Z AUTO 00000KT 10SM CLR 17/16 A3006 RMK AO2 
     T01670155=
METAR KSAZ 080934Z AUTO 24003KT 10SM CLR 15/15 A3008 RMK AO2=
METAR KSGS 080933Z AUTO 00000KT 10SM CLR 19/16 A3007 RMK AO2
     T01900160=
METAR KSYN 080950Z AUTO 21003KT 10SM CLR 17/16 A3007 RMK AO2
     T01700157=
METAR KTEW 080932Z AUTO 00000KT 7SM CLR 21/20 A3004 RMK AO2=
METAR KTKC 080933Z AUTO 26005KT 10SM CLR 16/13 A3014 RMK AO2
     T01580131=
METAR KTOB 080934Z AUTO 00000KT 10SM CLR 18/17 A3009 RMK AO2=
METAR KTWM 080933Z AUTO 29003KT 10SM CLR 16/13 A3001 RMK AO2=
METAR KTZR 080936Z AUTO 00000KT 5SM BR CLR 20/19 A3008 RMK AO2=
METAR KUKT 080930Z AUTO 00000KT 5SM CLR 20/20 A3004 RMK AO1=
METAR KULM 080935Z AUTO 29005KT 10SM CLR 15/13 A3011 RMK AO2=
METAR KUNI 080935Z AUTO 00000KT 5SM HZ CLR 22/17 A3008 RMK AO2 
     T02170169=
METAR KVES 080934Z AUTO 00000KT 5SM BR CLR 20/19 A3008 RMK AO2 
     T01960188=
METAR KVLL 080934Z AUTO 00000KT 10SM CLR 25/21 A3005 RMK AO2=
METAR KVVV 080936Z AUTO 28004KT 10SM CLR 17/14 A3011 RMK AO2=
METAR KY70 080934Z AUTO 33003KT 5SM RA SCT005 BKN048 OVC085 23/22
     A3003 RMK AO2 T02280217=
####018002965####
SAUS20 KNKA 080938
METAR KELO 080933Z AUTO 22003KT 10SM CLR 14/13 A3002 RMK AO2=
METAR KEVM 080932Z AUTO 00000KT 10SM CLR 15/13 A3002 RMK AO1=
METAR KFBL 080934Z AUTO 30004KT 10SM CLR 17/16 A3010 RMK AO2=
METAR KFFM 080933Z AUTO 20003KT 10SM CLR 15/14 A3008 RMK AO2=
METAR KFFX 080934Z AUTO 21006KT 4SM -RA SCT110 22/21 A3003 RMK
     AO2=
METAR KFGN 080934Z AUTO 26008KT 1SM DZ VV007 17/13 A2996 RMK
     AO2=
METAR KFPK 080935Z AUTO 00000KT 10SM CLR 22/20 A3004 RMK AO2=
SPECI KFRG 080937Z AUTO 16006KT 5SM BR BKN004 BKN016 BKN110 25/24 
    A3003 RMK AO2 CIG 003V008=
METAR KFSE 080934Z AUTO 19005KT 10SM CLR 12/11 A3005 RMK AO2=
METAR KFSO 080938Z AUTO 00000KT 3SM BR BKN060 OVC075 23/22 A3001
     RMK AO2=
SPECI KFZY 080937Z AUTO 00000KT 1 1/4SM BR CLR 21/20 A3004 RMK AO2=
METAR KGDB 080932Z AUTO 23004KT 10SM CLR 14/14 A3014 RMK AO2
     T01420136=
SPECI KGFL 080937Z AUTO 00000KT 1/4SM FG VV020 20/20 A3003 RMK AO2=
METAR KGHW 080933Z AUTO 22006KT 10SM CLR 14/13 A3013 RMK AO2=
SPECI KGON 080937Z AUTO 11009KT 9SM BKN004 OVC013 23/21 A3005 RMK 
    AO2=
METAR KGYL 080935Z AUTO 24003KT 10SM CLR 15/14 A3009 RMK AO2
     T01490142=
METAR KHAF 080930Z AUTO 00000KT 10SM OVC006 12/10 A2994 RMK
     AO2=
METAR KHAI 080935Z AUTO 00000KT 5SM BR SCT060 SCT075 21/20 A3004
     RMK AO2=
METAR KHCD 080932Z AUTO 24004KT 5SM BR CLR 14/13 A3010 RMK AO2
     T01380130=
METAR KHCO 080934Z AUTO 18005KT 10SM CLR 12/12 A3004 RMK AO2=
SPECI KHIB 080937Z AUTO 00000KT 3/4SM BR CLR 09/08 A3004 RMK AO2=
METAR KHZX 080932Z AUTO 00000KT 1/2SM VV005 12/12 A3007 RMK
     AO2=
METAR KIKW 080933Z AUTO 24004KT 10SM SCT060 BKN120 23/21 A3001 RMK
     AO2 T02250214=
METAR KIRS 080935Z AUTO 00000KT 7SM CLR 22/19 A3004 RMK AO2=
METAR KIWA 080936Z AUTO 02005KT 10SM CLR 36/02 A2979 RMK AO2=
METAR KJKJ 080934Z AUTO 25003KT 10SM CLR 15/14 A3006 RMK AO2=
METAR KJMR 080938Z AUTO 29003KT 10SM CLR 15/13 A3008 RMK AO2=
METAR KJYG 080934Z AUTO 26003KT 10SM CLR 16/16 A3013 RMK AO2=
METAR KJYM 080935Z AUTO 00000KT 10SM CLR 22/19 A3006 RMK AO2=
METAR KL35 080936Z AUTO 00000KT 10SM CLR 06/M05 A3018 RMK AO2=
METAR KLCK 080935Z AUTO 00000KT 3SM BR CLR 22/21 A3007 RMK AO2 
     T02170206=
METAR KLJF 080932Z AUTO 28004KT 10SM CLR 17/16 A3011 RMK AO2=
METAR KLVN 080929Z AUTO 26003KT 10SM CLR 17/17 A3008 RMK AO2=
METAR KLWA 080936Z AUTO 29003KT 10SM SCT050 23/21 A3004 RMK
     AO2=
METAR KLXL 080934Z AUTO 00000KT 3/4SM BR VV005 12/11 A3007 RMK
     AO2=
METAR KLYV 080938Z AUTO 00000KT 7SM CLR 15/13 A3015 RMK AO2=
METAR KMDS 080925Z AUTO 28005KT 10SM CLR 14/14 A3017 RMK AO2=
METAR KMGG 080935Z AUTO 27003KT 10SM CLR 16/15 A3009 RMK AO2
     T01630151=
METAR KMGN 080934Z AUTO 00000KT 10SM BKN110 21/20 A2996 RMK
     AO2=
METAR KMJQ 080932Z AUTO 27003KT 5SM BR CLR 14/14 A3014 RMK AO2=
METAR KMOP 080934Z AUTO 25003KT 10SM SCT040 OVC100 23/23 A3002 RMK
     AO2=
####018003715####
SAUS99 KWBC 080939
METAR
K1P1 080935Z AUTO 00000KT M1/4SM FG OVC005 21/20 A3007 RMK AO2
     T02140202=
KBVU 080935Z AUTO 00000KT 10SM CLR 24/03 A2985 RMK AO2=
KE80 080935Z AUTO 28005KT 10SM CLR 18/11 A3023 RMK AO2
     T01830112=
KEDC 080935Z AUTO 07005KT BKN010 BKN016 OVC032 25/25 A2996 RMK
     AO2=
KEIK 080935Z AUTO 00000KT 7SM CLR 11/11 A3031 RMK AO2=
KEOE 080935Z AUTO 22003KT 10SM CLR 22/20 A3003 RMK AO2=
KFMH 080935Z AUTO 16007KT 5SM BR OVC003 21/20 A3009 RMK AO2=
KIFP 080935Z AUTO 17003KT 10SM CLR 30/M01 A2973 RMK AO2=
KMAN 080935Z AUTO 00000KT 10SM CLR 14/07 A3004 RMK AO1=
KPVF 080935Z AUTO 00000KT 10SM CLR 22/12 A2994 RMK AO1=
KRBW 080935Z AUTO 28003KT 10SM CLR 23/20 A2997 RMK AO2=
KRCM 080935Z AUTO 00000KT 4SM -DZ SCT017 SCT035 SCT047 22/22 A3003
     RMK AO2 P0008=
KSNC 080935Z AUTO 00000KT M1/4SM FG OVC001 22/ A3006 RMK AO2=
KTME 080935Z AUTO 04007KT 5SM 25/25 A2992 RMK AO1=
KUOX 080935Z AUTO 00000KT 10SM CLR 22/20 A3009 RMK AO2=
K1A6 080935Z AUTO 00000KT 3SM BR CLR 21/21 A3010 RMK AO2=
K21D 080938Z AUTO 31005KT 10SM CLR 17/16 A3007 RMK AO2=
K29G 080934Z AUTO 00000KT 7SM SCT060 19/18 A3009 RMK AO2 T01940181
     PWINO=
K4I3 080935Z AUTO 00000KT 10SM SCT060 20/19 A3009 RMK AO2=
KACB 080935Z AUTO 00000KT 10SM BKN110 24/21 A2997 RMK AO2=
KACQ 080938Z AUTO 00000KT 1SM BR VV007 16/15 A3011 RMK AO2=
KADC 080936Z AUTO 24005KT 10SM CLR 14/13 A3008 RMK AO2=
KAEL 080931Z AUTO 32004KT 10SM CLR 17/17 A3008 RMK AO2=
KAIG 080935Z AUTO 32003KT 10SM CLR 18/17 A3000 RMK AO2=
KAIT 080933Z AUTO 00000KT 1/2SM FG VV005 12/11 A3006 RMK AO2=
KANE 080935Z AUTO 29003KT 10SM 17/16 A3008 RMK AO2=
KARV 080932Z AUTO 33005KT 10SM BKN008 BKN013 19/17 A3003 RMK AO2
     T01860173=
KATW 080935Z AUTO 25007KT 7SM OVC005 22/21 A3000 RMK AO2=
KAUM 080935Z AUTO 32005KT 10SM CLR 18/17 A3007 RMK AO2=
KBAX 080935Z AUTO 00000KT 5SM BR CLR 21/21 A3000 RMK AO2=
KBBB 080933Z AUTO 24003KT 10SM CLR 14/14 A3011 RMK AO2=
KBDH 080935Z AUTO 00000KT 10SM CLR 16/14 A3012 RMK AO2=
KBJI 080934Z AUTO 24006KT 10SM CLR 15/13 A3005 RMK AO2=
KBWP 080931Z AUTO 24003KT 10SM CLR 14/13 A3008 RMK AO1
     T01440130=
KCAD 080934Z AUTO 22006KT 10SM SCT080 SCT120 22/20 A3002 RMK
     AO2=
KCBG 080935Z AUTO 00000KT 10SM CLR 16/14 A3007 RMK AO2=
KCFE 080934Z AUTO 00000KT 10SM CLR 17/16 A3009 RMK AO2
     T01710162=
KCFS 080935Z AUTO 00000KT 1 1/4SM BR VV007 20/20 A3001 RMK AO2=
KCKC 080935Z AUTO 30004KT 10SM CLR 15/13 A3003 RMK AO2=
KCKN 080935Z AUTO 22004KT 10SM CLR 13/12 A3005 RMK AO2=
KCLI 080935Z AUTO 00000KT 3SM BR OVC003 22/21 A2998 RMK AO2=
KCMY 080935Z AUTO 00000KT 10SM CLR 20/19 A3002 RMK AO2
     T01960188=
KCNB 080937Z AUTO 24005KT 10SM CLR 16/13 A3013 RMK AO2
     T01580130=
KCOQ 080936Z AUTO 29005KT 10SM CLR 14/14 A3005 RMK AO2=
KCQM 080937Z AUTO 00000KT 10SM CLR 15/14 A3003 RMK AO2=
KCVH 080930Z AUTO 00000KT 10SM OVC010 13/11 A2992 RMK AO1=
KCWA 080935Z AUTO 30007KT 7SM OVC003 19/19 A3002 RMK AO2
     T01900191=
KDRM 080936Z AUTO 15005KT 1 3/4SM BR OVC002 20/20 A2995 RMK
     AO2=
KDTL 080935Z AUTO 29003KT 10SM CLR 16/11 A3009 RMK AO2=
KDUH 080934Z AUTO 00000KT 10SM SCT070 22/18 A3004 RMK AO2=
KDVK 080937Z AUTO 00000KT 5SM 21/19 A3009 RMK AO1=
KDXX 080934Z AUTO 00000KT 10SM CLR 14/14 A3010 RMK AO2=
KDYT 080934Z AUTO 25004KT 10SM CLR 19/16 A3004 RMK AO2=
KEFK 080935Z AUTO 22006KT 3SM BR CLR 20/19 A3006 RMK AO2=
KMOX 080930Z AUTO 22003KT 10SM CLR 15/14 A3008 RMK AO2=
KMRT 080933Z AUTO 00000KT 5SM CLR 20/19 A3011 RMK AO2
     T02030187=
KMVE 080934Z AUTO 29005KT 10SM CLR 16/15 A3010 RMK AO2=
KMWM 080933Z AUTO 25003KT 10SM CLR 14/14 A3013 RMK AO2=
####018003717####
SAUS99 KWBC 080939 RRA
METAR
KMWO 080935Z AUTO 00000KT 2 1/2SM BR CLR 20/20 A3008 RMK AO2=
KOEB 080935Z AUTO 00000KT 10SM CLR 23/20 A3004 RMK AO2=
KONA 080931Z AUTO 30005KT 10SM CLR 20/18 A3002 RMK AO2=
KOVL 080933Z AUTO 29003KT 10SM CLR 13/11 A3011 RMK AO2
     T01250111=
KOZW 080935Z AUTO 00000KT 7SM CLR 23/21 A3004 RMK AO2=
KPEX 080933Z AUTO 25004KT 7SM CLR 13/13 A3011 RMK AO2
     T01260125=
KPNM 080933Z AUTO 00000KT 5SM BR CLR 14/14 A3008 RMK AO2=
KPQN 080933Z AUTO 00000KT 10SM CLR 16/14 A3016 RMK AO2=
KPVB 080933Z AUTO 00000KT 1/4SM OVC001 20/20 A3004 RMK AO1
     T02010195=
KPWC 080933Z AUTO 00000KT 10SM CLR 10/09 A3008 RMK AO2=
KRGK 080935Z AUTO 27003KT 10SM CLR 19/17 A3005 RMK AO2=
KRNP 080935Z AUTO 20003KT 10SM CLR 22/21 A3002 RMK AO2=
KROS 080935Z AUTO 27003KT 10SM CLR 15/14 A3007 RMK AO2
     T01500142=
KROX 080935Z AUTO 21004KT 10SM CLR 14/12 A3000 RMK AO2=
KRQB 080934Z AUTO 18003KT 10SM SCT070 BKN090 OVC110 22/21 A3002
     RMK AO2=
KRRT 080934Z AUTO 24006KT 10SM CLR 14/12 A3001 RMK AO2=
KRZN 080934Z AUTO 00000KT 10SM CLR 17/16 A3006 RMK AO2
     T01670155=
KSAZ 080934Z AUTO 24003KT 10SM CLR 15/15 A3008 RMK AO2=
KSGS 080933Z AUTO 00000KT 10SM CLR 19/16 A3007 RMK AO2
     T01900160=
KSYN 080950Z AUTO 21003KT 10SM CLR 17/16 A3007 RMK AO2
     T01700157=
KTEW 080932Z AUTO 00000KT 7SM CLR 21/20 A3004 RMK AO2=
KTKC 080933Z AUTO 26005KT 10SM CLR 16/13 A3014 RMK AO2
     T01580131=
KTOB 080934Z AUTO 00000KT 10SM CLR 18/17 A3009 RMK AO2=
KTWM 080933Z AUTO 29003KT 10SM CLR 16/13 A3001 RMK AO2=
KTZR 080936Z AUTO 00000KT 5SM BR CLR 20/19 A3008 RMK AO2=
KUKT 080930Z AUTO 00000KT 5SM CLR 20/20 A3004 RMK AO1=
KULM 080935Z AUTO 29005KT 10SM CLR 15/13 A3011 RMK AO2=
KUNI 080935Z AUTO 00000KT 5SM HZ CLR 22/17 A3008 RMK AO2
     T02170169=
KVES 080934Z AUTO 00000KT 5SM BR CLR 20/19 A3008 RMK AO2
     T01960188=
KVLL 080934Z AUTO 00000KT 10SM CLR 25/21 A3005 RMK AO2=
KVVV 080936Z AUTO 28004KT 10SM CLR 17/14 A3011 RMK AO2=
KY70 080934Z AUTO 33003KT 5SM RA SCT005 BKN048 OVC085 23/22 A3003
     RMK AO2 T02280217=
KELO 080933Z AUTO 22003KT 10SM CLR 14/13 A3002 RMK AO2=
KEVM 080932Z AUTO 00000KT 10SM CLR 15/13 A3002 RMK AO1=
KFBL 080934Z AUTO 30004KT 10SM CLR 17/16 A3010 RMK AO2=
KFFM 080933Z AUTO 20003KT 10SM CLR 15/14 A3008 RMK AO2=
KFFX 080934Z AUTO 21006KT 4SM -RA SCT110 22/21 A3003 RMK AO2=
KFGN 080934Z AUTO 26008KT 1SM DZ VV007 17/13 A2996 RMK AO2=
KFPK 080935Z AUTO 00000KT 10SM CLR 22/20 A3004 RMK AO2=
KFSE 080934Z AUTO 19005KT 10SM CLR 12/11 A3005 RMK AO2=
KFSO 080938Z AUTO 00000KT 3SM BR BKN060 OVC075 23/22 A3001 RMK
     AO2=
KGDB 080932Z AUTO 23004KT 10SM CLR 14/14 A3014 RMK AO2
     T01420136=
KGHW 080933Z AUTO 22006KT 10SM CLR 14/13 A3013 RMK AO2=
KGYL 080935Z AUTO 24003KT 10SM CLR 15/14 A3009 RMK AO2
     T01490142=
KHAF 080930Z AUTO 00000KT 10SM OVC006 12/10 A2994 RMK AO2=
KHAI 080935Z AUTO 00000KT 5SM BR SCT060 SCT075 21/20 A3004 RMK
     AO2=
KHCD 080932Z AUTO 24004KT 5SM BR CLR 14/13 A3010 RMK AO2
     T01380130=
KHCO 080934Z AUTO 18005KT 10SM CLR 12/12 A3004 RMK AO2=
KHZX 080932Z AUTO 00000KT 1/2SM VV005 12/12 A3007 RMK AO2=
KIKW 080933Z AUTO 24004KT 10SM SCT060 BKN120 23/21 A3001 RMK AO2
     T02250214=
KIRS 080935Z AUTO 00000KT 7SM CLR 22/19 A3004 RMK AO2=
KIWA 080936Z AUTO 02005KT 10SM CLR 36/02 A2979 RMK AO2=
KJKJ 080934Z AUTO 25003KT 10SM CLR 15/14 A3006 RMK AO2=
KJMR 080938Z AUTO 29003KT 10SM CLR 15/13 A3008 RMK AO2=
KJYG 080934Z AUTO 26003KT 10SM CLR 16/16 A3013 RMK AO2=
KJYM 080935Z AUTO 00000KT 10SM CLR 22/19 A3006 RMK AO2=
KL35 080936Z AUTO 00000KT 10SM CLR 06/M05 A3018 RMK AO2=
####018000998####
SPUS99 KWBC 080939
SPECI
KBML 080936Z AUTO 00000KT 1/4SM FG OVC001 20/20 A3010 RMK AO2
     $=
KBVY 080936Z 13006KT 6SM BR SCT015 22/20 A3007 RMK AO2 PNO=
KDAW 080936Z AUTO VRB03KT 1SM BR OVC003 22/21 A3007 RMK AO2 $=
KDEQ 080937Z AUTO 07004KT 10SM SCT006 BKN015 OVC032 24/23 A3002
     RMK AO2=
KLAR 080936Z AUTO 29003KT 7SM FEW017 SCT021 08/07 A3039 RMK
     AO2=
KOWD 080936Z AUTO 16003KT 9SM BKN016 BKN055 21/18 A3007 RMK
     AO2=
KCRP 080935Z 34006KT 9SM -RA FEW009 BKN021 BKN032 26/25 A2983 RMK
     AO2 TSE35 TS DSIPT P0052=
KELD 080937Z AUTO 00000KT 6SM BR BKN001 BKN085 23/23 A3004 RMK
     AO2=
KFRG 080937Z AUTO 16006KT 5SM BR BKN004 BKN016 BKN110 25/24 A3003
     RMK AO2 CIG 003V008=
KFZY 080937Z AUTO 00000KT 1 1/4SM BR CLR 21/20 A3004 RMK AO2=
KGFL 080937Z AUTO 00000KT 1/4SM FG VV020 20/20 A3003 RMK AO2=
KGON 080937Z AUTO 11009KT 9SM BKN004 OVC013 23/21 A3005 RMK
     AO2=
KHIB 080937Z AUTO 00000KT 3/4SM BR CLR 09/08 A3004 RMK AO2=
####018000442####
SAAL40 DAMM 080930
METAR DAAG 080930Z 35009KT 320V020 CAVOK 30/18 Q1019=
METAR DAAT 080930Z 11016KT 080V140 CAVOK 32/03 Q1022=
METAR DABB 080930Z 02009KT CAVOK 29/14 Q1019=
METAR DABC 080930Z 00000KT CAVOK 30/11 Q1023=
METAR DABS 080930Z 34006KT CAVOK 30/10 Q1023=
METAR COR DAON 080930Z 36006KT CAVOK 32/20 Q1017=
METAR DAOO 080930Z 36012KT CAVOK 29/21 Q1017=
METAR DAUH 080930Z 10014KT CAVOK 36/20 Q1018=
METAR DAUZ 080930Z NIL=
####018000737####
SAUS99 KWBC 080939 RRB
METAR
KLCK 080935Z AUTO 00000KT 3SM BR CLR 22/21 A3007 RMK AO2
     T02170206=
KLJF 080932Z AUTO 28004KT 10SM CLR 17/16 A3011 RMK AO2=
KLVN 080929Z AUTO 26003KT 10SM CLR 17/17 A3008 RMK AO2=
KLWA 080936Z AUTO 29003KT 10SM SCT050 23/21 A3004 RMK AO2=
KLXL 080934Z AUTO 00000KT 3/4SM BR VV005 12/11 A3007 RMK AO2=
KLYV 080938Z AUTO 00000KT 7SM CLR 15/13 A3015 RMK AO2=
KMDS 080925Z AUTO 28005KT 10SM CLR 14/14 A3017 RMK AO2=
KMGG 080935Z AUTO 27003KT 10SM CLR 16/15 A3009 RMK AO2
     T01630151=
KMGN 080934Z AUTO 00000KT 10SM BKN110 21/20 A2996 RMK AO2=
KMJQ 080932Z AUTO 27003KT 5SM BR CLR 14/14 A3014 RMK AO2=
KMOP 080934Z AUTO 25003KT 10SM SCT040 OVC100 23/23 A3002 RMK
     AO2=
####018000111####
SANK31 MNMG 080800
METAR
METAR MNMG 080800Z 00000KT 9999 FEW020CB SCT022 25/24 Q1010 A2985
CB/N/NW/SW/FL=
####018000105####
SANK31 MNMG 080800
METAR
MNMG 080800Z 00000KT 9999 FEW020CB SCT022 25/24 Q1010 A2985
CB/N/NW/SW/FL=
####018000131####
SAAK31 KWBC 080900 RRB
METAR
PAVD 080936Z 00000KT 10SM OVC090 11/07 A3009=
PAWG 080936Z AUTO 00000KT 10SM CLR 14/11 A3013=
####018000088####
SACA42 KWBC 080900 RRA
METAR
TISX 080934Z 09006KT 10SM BKN023 BKN027 27/24 A2997=
####018000143####
SAAK32 KWBC 080900 RRB
METAR
PADK 080936Z 05014KT 10SM FEW013 BKN021 OVC050 07/06 A2957=
PADL 080936Z 33008KT 10SM OVC075 11/08 A2998=
####018000111####
SPCN31 KWBC 080939
SPECI
CYZV 080936Z 09003KT 2SM -DZ BR VCFG OVC003 RMK FG2ST6 CIG VRB 2-4
VIS S 1/2=
####018000082####
SAUS41 KWBC 080900 RRG
METAR
KPQI 080935Z AUTO 15005KT 9SM CLR 21/18 A2999=
####018000142####
SAUS43 KWBC 080900 RRH
METAR
KCIU 080935Z AUTO 22006KT 9SM FEW090 BKN120 19/18 A2995=
KELO 080933Z AUTO 22003KT 10SM CLR 14/13 A3002=
####018000083####
SAUS44 KWBC 080900 RRF
METAR
KGDV 080935Z AUTO 18005KT 10SM CLR 11/08 A3016=
####018001624####
SPZZ40 KAWN 080939 RRI
SPECI BGTL 080934Z AUTO 00000KT 0800 FG VV001 04/04 A2984 RMK AO2 VIS
      2800 RWY26 SLP110=
SPECI CWZZ 080935Z AUTO ///// 2SM BKN014 OVC037 OVC048 11/ A2979=
SPECI CYAM 080937Z 11002KT 4SM BR OVC004 RMK SF8 CIG RAG=
SPECI CYGV 080936Z AUTO 07007KT 9SM OVC004 14/12 A3003=
SPECI CYKF 080936Z AUTO 00000KT 1 1/2SM BR CLR 19/19 A3006 RMK SLP175
      DENSITY ALT 1600FT=
SPECI CYKF 080937Z AUTO 00000KT 3SM BR CLR 19/19 A3006 RMK SLP175 DENSITY
      ALT 1600FT=
SPECI CYKL 080935Z AUTO 21004KT 9SM BKN024 OVC076 15/12 A2990=
SPECI CYPH 080934Z AUTO 24016KT 4SM OVC002 06/05 A2979=
SPECI CYQA 080936Z AUTO 15002KT 2 1/4SM BR CLR 19/19 A3003 RMK SLP170
      DENSITY ALT 1400FT=
SPECI CYSC 080936Z AUTO VRB02KT 2 1/2SM BR SCT086 21/21 A3003 RMK SLP169
      DENSITY ALT 1500FT=
SPECI CYYB 080935Z 20002KT 4SM BR SCT004 SCT030 BKN110 BKN250 RMK SF2SC1AC1CI1=
SPECI CYZE 080936Z AUTO 18005KT 1 3/4SM BR OVC002 19/19 A2997 RMK SLP151
      DENSITY ALT 1100FT=
SPECI CYZV 080936Z 09003KT 2SM -DZ BR VCFG OVC003 RMK FG2ST6 CIG VRB
      2-4 VIS S 1/2=
SPECI KDAA 080938Z AUTO 00000KT 9SM R32/5500VP6000FT CLR 24/21 A2999
      RMK AO2 SLP156=
SPECI KFRI 080933Z AUTO 35004KT 10SM BKN022 OVC140 22/21 A3010 RMK
      AO2 CIG 020V026 BKN V SCT SLP182=
SPECI KNSE 080928Z AUTO 00000KT 3SM BR CLR 23/21 A3002 RMK AO2 $=
SPECI KRND 080936Z AUTO 05007KT 10SM SCT008 BKN013 OVC019 25/23 A2994
      RMK AO2 SLP127=
SPECI SBSV 080930Z 21004KT 9999 4500NW -SHRA BKN011 SCT017 22/21 Q1018=
SPECI TISX 080934Z 09006KT 10SM BKN023 BKN027 27/24 A2997 RMK AO2=
####018000287####
SAUS53 KWBC 080900 RRI
METAR
KDVL 080935Z AUTO 25006KT 10SM CLR 16/13 A3006=
KEAR 080935Z AUTO 33003KT 10SM CLR 15/13 A3023=
KGPZ 080935Z AUTO 19004KT 10SM CLR 13/12 A3005=
KJAC 080935Z AUTO 03006KT 10SM CLR 08/M01 A3034=
KONL 080930Z AUTO 28003KT 10SM BKN120 16/14 A3021=
####018000092####
SPCN51 CWAO 080938
SPECI CWZZ 080938Z AUTO ///// 3SM BKN014 OVC048 OVC066 11/ A2979=

####018000084####
SPUS53 KWBC 080939
SPECI
KDDC 080936Z AUTO 03007KT 5SM BR SCT007 18/17 A3017=
####018000136####
SAUS54 KWBC 080900 RRF
METAR
KSOW 080930Z AUTO 24008KT 10SM SCT100 21/04 A3025=
KTRK 080930Z AUTO 00000KT 10SM CLR 12/08 A3015=
####018000138####
SAUS72 KWBC 080900 RRG
METAR
KLRU 080932Z AUTO 05003KT 10SM CLR 19/15 A3016=
TISX 080934Z 09006KT 10SM BKN023 BKN027 27/24 A2997=
####018000101####
SPCN49 CWAO 080937
SPECI CYSJ 080937Z 19006KT 1/8SM R23/1100V1600FT/N FG VV001 15/ RMK
FG8=

####018000538####
SAAO32 GOOY 080930
METAR GABS 080930Z 25006KT 9999 FEW030 29/22 Q1016 NOSIG=
METAR GGOV 080930Z NIL=
METAR GOOY 080930Z 16007KT 120V210 9999 SCT013 29/24 Q1012 NOSIG=
METAR DIAP 080930Z VRB03KT 7000 SCT012 BKN080 27/25 Q1015 TEMPO
BKN012 BKN070=
METAR GQNN 080930Z 18008KT 150V210 6000 SCT020 28/23 Q1013 NOSIG=
METAR GQPP 080930Z NIL=
METAR GUCY 080930Z NIL=
METAR GVAC 080930Z NIL=
METAR GFLL 080930Z NIL=
METAR GBYD 080930Z NIL=
METAR GLRB 080930Z 00000KT 9999 SCT015 FEW025CB BKN100 27/24 Q1015
 CB-SW=

####018000348####
SAUS73 KWBC 080900 RRI
METAR
KBJC 080937Z AUTO 00000KT 3SM BR SCT075 13/12 A3033=
KCIU 080935Z AUTO 22006KT 9SM FEW090 BKN120 19/18 A2995=
KEGE 080935Z 09007KT 10SM CLR 09/08 A3036=
KELO 080933Z AUTO 22003KT 10SM CLR 14/13 A3002=
KJAC 080935Z AUTO 03006KT 10SM CLR 08/M01 A3034=
KLBL 080935Z 06008KT 10SM SCT038 OVC047 19/17 A3021=
####018000084####
SPUS73 KWBC 080939
SPECI
KDDC 080936Z AUTO 03007KT 5SM BR SCT007 18/17 A3017=
####018000081####
SAUS74 KWBC 080900 RRE
METAR
KOTH 080935Z 29003KT 10SM BKN008 10/08 A3000=
####018000179####
SAUS75 KWBC 080900 RRB
METAR
PADL 080936Z 33008KT 10SM OVC075 11/08 A2998=
PAUN 080936Z AUTO 12006KT 10SM CLR 13/05 A3002=
PAVD 080936Z 00000KT 10SM OVC090 11/07 A3009=
####018000088####
SAMD90 KWBC 080939
METAR K2G4 080935Z AUTO 00000KT 10SM SCT065 22/12 A3019 RMK AO1=
####018001285####
SAEW KAWN 080900 RRO
METAR LFBG 080930Z AUTO 10007KT 060V130 9999NDV NSC 30/14 Q1018=
METAR LFBM 080930Z AUTO 11009KT 9999NDV NSC 31/17 Q1016=
METAR LFKS 080930Z AUTO 09008KT 050V120 9999NDV FEW096 30/22 Q1020=
METAR LFLN 080930Z AUTO VRB03KT 9999NDV NSC 28/15 Q1020=
METAR LFMO 080930Z VRB02KT CAVOK 30/16 Q1020=
METAR LFMY 080930Z VRB03KT CAVOK 31/17 Q1020=
METAR LFOA 080930Z AUTO 10006KT 060V150 9999NDV NSC 28/12 Q1019=
METAR LFOC 080930Z AUTO 21003KT 140V290 9999NDV NSC 29/11 Q1019=
METAR LFOJ 080930Z 20004KT 140V290 CAVOK 28/13 Q1019=
METAR LFPC 080930Z VRB04KT CAVOK 28/13 Q1019=
METAR LFPM 080930Z VRB02KT CAVOK 29/14 Q1019=
METAR LFPV 080930Z AUTO /////KT 9999NDV NSC 27/13 Q1019=
METAR LFQI 080930Z 24007KT 200V280 CAVOK 27/12 Q1019=
METAR LFRJ 080930Z AUTO 02003KT 320V100 9999NDV BKN015/// 20/15 Q1019=
METAR LFSD 080930Z AUTO 15004KT 090V220 9999NDV NSC 27/13 Q1020=
METAR LFSF 080930Z AUTO VRB02KT 9999NDV NSC 27/09 Q1020=
METAR LFSI 080930Z AUTO VRB03KT 9999NDV NSC 28/12 Q1020=
METAR LFSO 080930Z AUTO 28003KT 200V360 9999NDV NSC 27/11 Q1021=
METAR LFSR 080930Z AUTO VRB01KT 9999NDV NSC 29/11 Q1019=
METAR LFSX 080930Z AUTO 16005KT 120V200 9999NDV NSC 27/13 Q1021=
METAR LFTW 080930Z AUTO VRB03KT 9999NDV NSC 30/15 Q1020=
####018000327####
SAUK KAWN 080900 RRI
METAR EICK 080930Z 21010KT 9999 SCT012 BKN030 14/12 Q1016 NOSIG=
METAR EIDW 080930Z 22013KT 9999 FEW026 SCT130 BKN180 16/10 Q1015 NOSIG=
METAR EIKN 080930Z 22010KT 180V250 9999 FEW018CB SCT045 BKN150 14/10
      Q1013 NOSIG=
METAR EINN 080930Z 17011KT 9999 -RA FEW015 OVC060 15/12 Q1015 NOSIG=
####018000111####
SAXX60 KAWN 080900 RRC
METAR RJTT 080930Z 19014KT 9999 FEW020 BKN/// 26/22 Q1009 RMK 1CU020
      A2981=
####018000535####
SAAO32 GOOY 080930
METAR GABS 080930Z 25006KT 9999 FEW030 29/22 Q1016 NOSIG=
METAR GGOV 080930Z NIL=
METAR GOOY 080930Z 16007KT 120V210 9999 SCT013 29/24 Q1012 NOSIG=
METAR DIAP 080930Z VRB03KT 7000 SCT012 BKN080 27/25 Q1015 TEMPO
BKN012 BKN070=
METAR GQNN 080930Z 18008KT 150V210 6000 SCT020 28/23 Q1013 NOSIG=
METAR GQPP 080930Z NIL=
METAR GUCY 080930Z NIL=
METAR GVAC 080930Z NIL=
METAR GFLL 080930Z NIL=
METAR GBYD 080930Z NIL=
METAR GLRB 080930Z 00000KT 9999 SCT015 FEW025CB BKN100 27/24 Q1015
 CB-SW=
####018002955####
SAUS20 KNKA 080939
METAR K14Y 080938Z AUTO 00000KT 10SM CLR 15/14 A3010 RMK AO2 
     T01480144=
METAR K4M9 080935Z AUTO 22005KT 8SM CLR 24/24 A3005 RMK AO2 =
METAR KAEJ 080935Z AUTO 00000KT 10SM SCT050 OVC110 10/08 A3046 RMK 
     AO2=
METAR KBBF 081035Z AUTO VRB07G21KT 9SM FEW024 FEW035 SCT043 29/27
     A2979 RMK A01=
SPECI KBOK 080939Z AUTO 00000KT 1/2SM FG OVC002 09/09 A2996 RMK AO2 
    $=
METAR KBQX 080935Z AUTO 12017G25KT 5SM HZ FEW017 FEW048 SCT090
     28/26 A2983 RMK A01=
METAR KBUU 080936Z AUTO 19003KT 7SM BKN100 21/21 A3000 RMK AO2=
METAR KDLP 080935Z AUTO 10011KT 10SM SCT016 SCT033 28/25 A2998 RMK
     A01=
METAR KEDU 080935Z AUTO 16004KT 10SM CLR 14/10 A2981 RMK AO1=
METAR KEFT 080935Z AUTO 24004KT 10SM CLR 21/19 A3002 RMK AO2 
     T02070194=
METAR KEGV 080932Z AUTO 31003KT 10SM SCT008 18/18 A3001 RMK AO2 
     T01820183=
METAR KEHC 080935Z AUTO 12022KT 7SM FEW020 FEW027 SCT034 29/25
     A2991 RMK A01=
METAR KEIR 080935Z AUTO VRB04G13KT 9SM FEW016 FEW021 FEW036 28/25
     A2996 RMK A01=
METAR KEMK 080935Z AUTO 14023KT 7SM FEW022 FEW031 FEW038 29/25
     A2985 RMK A01=
METAR KETB 080932Z AUTO 00000KT 5SM RA BKN090 OVC110 22/21 A3000 
     RMK AO2 P0001 T02150205=
METAR KEZS 080935Z AUTO 00000KT 7SM OVC005 23/22 A2998 RMK AO2 
     T02250216=
METAR KGBK 080935Z AUTO 10015G23KT 10SM FEW035 29/25 A2989 RMK A01=
METAR KGLW 080933Z AUTO 00000KT 7SM CLR 21/20 A3007 RMK AO2 
     T02060195=
METAR KGVX 080935Z AUTO 13027KT 1 3/4SM BR BKN004 OVC038 M40/
     A2988 RMK A01=
METAR KGYH 080935Z AUTO 00000KT 10SM CLR 22/20 A3003 RMK AO2=
METAR KHFJ 080935Z AUTO 00000KT 7SM SCT043 22/22 A3003 RMK AO1=
METAR KHQI 080935Z AUTO 11024KT 4SM HZ 28/26 A2987 RMK A01=
METAR KHXD 080935Z AUTO 22006KT 10SM CLR 24/21 A2999 RMK AO2 P0000 
     =
METAR KHYW 080935Z AUTO 00000KT 10SM SCT090 24/23 A2993 RMK AO2=
METAR KIPN 080935Z AUTO 09014KT 10SM BKN020 BKN026 /57 A2998 RMK
     A01=
METAR KJVL 080935Z AUTO 28003KT 10SM BKN095 BKN120 22/20 A3001 
     RMK AO2 T02180200=
METAR KJZI 080935Z AUTO 28006KT 10SM CLR 23/23 A2996 RMK A02 P000 
     =
SPECI KLEB 080938Z AUTO 00000KT 1 1/2SM BR FEW001 22/19 A3005 RMK 
    AO2=
METAR KLNL 080935Z AUTO 31004KT 10SM BKN011 BKN014 BKN023 18/17 
     A3003 RMK AO2 T01830170=
METAR KLUM 080935Z AUTO 30007KT 10SM CLR 18/17 A3004 RMK AO2=
METAR KMCJ 080935Z AUTO 09007KT 10SM CLR 27/24 A2988 RMK AO1 =
METAR KMDJ 080935Z AUTO 14012KT 10SM FEW019 BKN060 28/25 A2998 RMK
     A01=
METAR KMDZ 080935Z AUTO 00000KT M1/4SM FG OVC001 19/18 A3002 RMK 
     AO2=
METAR KMHR 080935Z AUTO 15006KT 10SM CLR 13/10 A2986 RMK AO1=
METAR KMIU 080935Z AUTO 11019KT 7SM FEW007 BKN040 OVC095 27/26
     A2980 RMK A01=
METAR KMRJ 080935Z AUTO 00000KT 10SM SCT003 OVC010 21/19 A3003 
     RMK AO2 T02050188=
METAR KMWC 080935Z AUTO 00000KT 7SM -RA OVC065 21/20 A3000 RMK 
     AO2 P0001=
####018001160####
SAUS20 KNKA 080939
METAR KMYT 080935Z AUTO 13014KT 10SM FEW017 28/25 A2994 RMK A01=
METAR KMZG 080935Z AUTO 00000KT 10SM CLR 29/25 A2979 RMK A01=
METAR KOEO 080935Z AUTO 29003KT 10SM CLR 18/17 A3008 RMK AO2=
SPECI KOTM 080938Z AUTO 30005KT 5SM BR SCT010 BKN016 21/21 A3005 RMK 
    AO2=
METAR KPBH 080935Z AUTO 00000KT 10SM BKN026 20/19 A3004 RMK AO2=
METAR KPCZ 080935Z AUTO 00000KT 3SM BR SCT003 SCT007 23/21 A2998 
     RMK AO2 T02260212=
METAR KPDC 080933Z AUTO 29005KT 10SM CLR 22/21 A3001 RMK AO2 
     T02170205=
SPECI KPKB 080938Z AUTO 00000KT 1SM BR VV001 21/19 A3010 RMK AO2 
    TSNO RVRNO=
METAR KRCX 080935Z AUTO 31005KT 10SM CLR 19/17 A3004 RMK AO2 
     T01850168=
METAR KSCF 080940Z AUTO 15018KT 8SM SCT016 BKN020 BKN025 29/26
     A2990 RMK A01=
METAR KSPF 080935Z AUTO 00000KT 10SM CLR 11/08 A3028 RMK AO2 =
METAR KVBS 080935Z AUTO 12021KT 10SM SCT019 SCT025 BKN029 29/25
     A2991 RMK A01=
METAR KVNP 080935Z AUTO 14008KT 9SM 28/25 A2996 RMK A01=
SPECI KVTA 080938Z AUTO 00000KT 1SM BR BKN060 19/18 A3008 RMK AO2=
METAR KY63 080940Z AUTO 22005KT 10SM CLR 15/14 A3010 RMK AO2 
     T01450138=
####018000084####
SAMD90 KWBC 080939
METAR KDMW 080937Z AUTO 00000KT 7SM CLR 25/21 A3004 RMK AO2=
####018000093####
SAMD90 KWBC 080939
METAR K2W6 080938Z AUTO 00000KT 3SM 23/23 A3000 RMK AO1 SKY OBSCURED=
####018000100####
SAMD90 KWBC 080939
METAR KCGE 080936Z AUTO 00000KT 2 1/2SM 25/25 A3000 RMK AO1 SKY 
OBSCURED=
####018000087####
SAMD90 KWBC 080939
METAR KMTN 080933Z AUTO 00000KT 5SM BR CLR 26/24 A3001 RMK AO2=
####018000084####
SAMD90 KWBC 080939
METAR KCGS 080940Z AUTO 00000KT 7SM CLR 26/23 A3000 RMK AO1=
####018000087####
SAMD90 KWBC 080939
METAR KFME 080939Z AUTO 00000KT 3SM SCT100 20/20 A3002 RMK AO1=
####018000090####
SAMD90 KWBC 080939
METAR KFDK 080938Z AUTO 00000KT 5SM BR SCT100 24/22 A3004 RMK AO2=
####018000084####
SAMD90 KWBC 080939
METAR KCBE 080938Z AUTO 00000KT 5SM CLR 20/18 A3010 RMK AO1=
####018000091####
SAMD90 KWBC 080939
METAR KESN 080942Z AUTO 00000KT 2 1/2SM BR CLR 22/22 A3003 RMK AO2=
####018001511####
SARS18 KAWN 080900 RRI
METAR UAAA 080930Z 07003MPS 030V110 9999 SCT050CB BKN100 30/11 Q1013
      88CLRD65 TEMPO TS=
METAR UACC 080930Z 28004MPS 230V360 CAVOK 24/03 Q1009 220/0070 NOSIG
      RMK QFE726/0968=
METAR UAFM 080930Z 32005MPS CAVOK 34/07 Q1012 NOSIG=
METAR UATE 080930Z 35006G12MPS 270V010 CAVOK 39/08 Q1010 300///70 NOSIG
      RMK QFE756/1008=
METAR UATT 080930Z 05010MPS 9999 NSC 32/03 Q1011 13CLRD70 NOSIG RMK
      QFE738/0985=
METAR UKKK 080930Z 27003MPS 240V310 9999 BKN021 23/18 Q1015 26CLRD70
      NOSIG=
METAR ULLI 080930Z 14002MPS 080V190 CAVOK 30/18 Q1014 NOSIG=
METAR UMGG 080930Z 23005MPS 9999 BKN015CB BKN100 26/18 Q1013 R28/190055
      NOSIG=
METAR UMMM 080930Z 28005MPS 9999 BKN020 19/15 Q1014 R30/290050 NOSIG
      RMK QFE741=
METAR UMMS 080930Z 28004MPS 230V320 9999 BKN016 20/16 Q1014 R31/D NOSIG=
METAR URKA 080930Z 03003MPS 9999 SCT026 28/18 Q1013 NOSIG RMK 065=
METAR URMM 080930Z 10005G07MPS 9999 BKN040 29/19 Q1013 NOSIG RMK /
      SC070=
METAR UTAA 080930Z 07005MPS 030V120 9999 SKC 44/03 Q1008 NOSIG=
METAR UTDD 080930Z VRB01MPS 9999 FEW066 37/06 Q1010 09CLRD70 NOSIG
      RMK QFE690/0920=
METAR UUDD 080930Z 15004MPS 110V180 9999 SCT044 BKN200 27/16 Q1015
      NOSIG=
METAR UUEE 080930Z 11004MPS 9999 SCT050TCU BKN200 28/14 Q1015 NOSIG=
METAR UUWW 080930Z 14003MPS 9999 FEW040 BKN100 25/16 Q1015 06000070
      NOSIG=
METAR VTBD 080930Z 31010KT 9999 FEW018CB SCT120 BKN300 34/22 Q1005
      CB SE NOSIG=
####018000084####
SAMD90 KWBC 080939
METAR KW29 080938Z AUTO 00000KT 4SM CLR 24/23 A3000 RMK AO1=
####018000086####
SPCN48 CWAO 080938
SPECI CYPH 080938Z AUTO 24017KT 3 1/2SM OVC001 05/05 A2979=

####018000794####
SAUS90 KWBC 080940
METAR K2G4 080935Z AUTO 00000KT 10SM SCT065 22/12 A3019 RMK
     AO1=
METAR K2W6 080938Z AUTO 00000KT 3SM 23/23 A3000 RMK AO1 SKY
     OBSCURED=
METAR KCGS 080940Z AUTO 00000KT 7SM CLR 26/23 A3000 RMK AO1=
METAR KMTN 080933Z AUTO 00000KT 5SM BR CLR 26/24 A3001 RMK AO2=
METAR KDMW 080937Z AUTO 00000KT 7SM CLR 25/21 A3004 RMK AO2=
METAR KCGE 080936Z AUTO 00000KT 2 1/2SM 25/25 A3000 RMK AO1 SKY
     OBSCURED=
METAR KCBE 080938Z AUTO 00000KT 5SM CLR 20/18 A3010 RMK AO1=
METAR KFDK 080938Z AUTO 00000KT 5SM BR SCT100 24/22 A3004 RMK
     AO2=
METAR KESN 080942Z AUTO 00000KT 2 1/2SM BR CLR 22/22 A3003 RMK
     AO2=
METAR KFME 080939Z AUTO 00000KT 3SM SCT100 20/20 A3002 RMK AO1=
METAR KW29 080938Z AUTO 00000KT 4SM CLR 24/23 A3000 RMK AO1=
####018000397####
SPUS99 KWBC 080940
SPECI
KOTM 080938Z AUTO 30005KT 5SM BR SCT010 BKN016 21/21 A3005 RMK
     AO2=
KPKB 080938Z AUTO 00000KT 1SM BR VV001 21/19 A3010 RMK AO2 TSNO
     RVRNO=
KVTA 080938Z AUTO 00000KT 1SM BR BKN060 19/18 A3008 RMK AO2=
KBOK 080939Z AUTO 00000KT 1/2SM FG OVC002 09/09 A2996 RMK AO2
     $=
KLEB 080938Z AUTO 00000KT 1 1/2SM BR FEW001 22/19 A3005 RMK
     AO2=
####018003374####
SAUS99 KWBC 080940
METAR
KMYT 080935Z AUTO 13014KT 10SM FEW017 28/25 A2994 RMK A01=
KMZG 080935Z AUTO 00000KT 10SM CLR 29/25 A2979 RMK A01=
KOEO 080935Z AUTO 29003KT 10SM CLR 18/17 A3008 RMK AO2=
KPBH 080935Z AUTO 00000KT 10SM BKN026 20/19 A3004 RMK AO2=
KPCZ 080935Z AUTO 00000KT 3SM BR SCT003 SCT007 23/21 A2998 RMK AO2
     T02260212=
KPDC 080933Z AUTO 29005KT 10SM CLR 22/21 A3001 RMK AO2
     T02170205=
KRCX 080935Z AUTO 31005KT 10SM CLR 19/17 A3004 RMK AO2
     T01850168=
KSCF 080940Z AUTO 15018KT 8SM SCT016 BKN020 BKN025 29/26 A2990 RMK
     A01=
KSPF 080935Z AUTO 00000KT 10SM CLR 11/08 A3028 RMK AO2=
KVBS 080935Z AUTO 12021KT 10SM SCT019 SCT025 BKN029 29/25 A2991
     RMK A01=
KVNP 080935Z AUTO 14008KT 9SM 28/25 A2996 RMK A01=
KY63 080940Z AUTO 22005KT 10SM CLR 15/14 A3010 RMK AO2
     T01450138=
K14Y 080938Z AUTO 00000KT 10SM CLR 15/14 A3010 RMK AO2
     T01480144=
K4M9 080935Z AUTO 22005KT 8SM CLR 24/24 A3005 RMK AO2=
KAEJ 080935Z AUTO 00000KT 10SM SCT050 OVC110 10/08 A3046 RMK
     AO2=
KBBF 081035Z AUTO VRB07G21KT 9SM FEW024 FEW035 SCT043 29/27 A2979
     RMK A01=
KBQX 080935Z AUTO 12017G25KT 5SM HZ FEW017 FEW048 SCT090 28/26
     A2983 RMK A01=
KBUU 080936Z AUTO 19003KT 7SM BKN100 21/21 A3000 RMK AO2=
KDLP 080935Z AUTO 10011KT 10SM SCT016 SCT033 28/25 A2998 RMK
     A01=
KEDU 080935Z AUTO 16004KT 10SM CLR 14/10 A2981 RMK AO1=
KEFT 080935Z AUTO 24004KT 10SM CLR 21/19 A3002 RMK AO2
     T02070194=
KEGV 080932Z AUTO 31003KT 10SM SCT008 18/18 A3001 RMK AO2
     T01820183=
KEHC 080935Z AUTO 12022KT 7SM FEW020 FEW027 SCT034 29/25 A2991 RMK
     A01=
KEIR 080935Z AUTO VRB04G13KT 9SM FEW016 FEW021 FEW036 28/25 A2996
     RMK A01=
KEMK 080935Z AUTO 14023KT 7SM FEW022 FEW031 FEW038 29/25 A2985 RMK
     A01=
KETB 080932Z AUTO 00000KT 5SM RA BKN090 OVC110 22/21 A3000 RMK AO2
     P0001 T02150205=
KEZS 080935Z AUTO 00000KT 7SM OVC005 23/22 A2998 RMK AO2
     T02250216=
KGBK 080935Z AUTO 10015G23KT 10SM FEW035 29/25 A2989 RMK A01=
KGLW 080933Z AUTO 00000KT 7SM CLR 21/20 A3007 RMK AO2
     T02060195=
KGVX 080935Z AUTO 13027KT 1 3/4SM BR BKN004 OVC038 M40/ A2988 RMK
     A01=
KGYH 080935Z AUTO 00000KT 10SM CLR 22/20 A3003 RMK AO2=
KHFJ 080935Z AUTO 00000KT 7SM SCT043 22/22 A3003 RMK AO1=
KHQI 080935Z AUTO 11024KT 4SM HZ 28/26 A2987 RMK A01=
KHXD 080935Z AUTO 22006KT 10SM CLR 24/21 A2999 RMK AO2 P0000=
KHYW 080935Z AUTO 00000KT 10SM SCT090 24/23 A2993 RMK AO2=
KIPN 080935Z AUTO 09014KT 10SM BKN020 BKN026 /57 A2998 RMK A01=
KJVL 080935Z AUTO 28003KT 10SM BKN095 BKN120 22/20 A3001 RMK AO2
     T02180200=
KJZI 080935Z AUTO 28006KT 10SM CLR 23/23 A2996 RMK A02 P000=
KLNL 080935Z AUTO 31004KT 10SM BKN011 BKN014 BKN023 18/17 A3003
     RMK AO2 T01830170=
KLUM 080935Z AUTO 30007KT 10SM CLR 18/17 A3004 RMK AO2=
KMCJ 080935Z AUTO 09007KT 10SM CLR 27/24 A2988 RMK AO1=
KMDJ 080935Z AUTO 14012KT 10SM FEW019 BKN060 28/25 A2998 RMK
     A01=
KMDZ 080935Z AUTO 00000KT M1/4SM FG OVC001 19/18 A3002 RMK AO2=
KMHR 080935Z AUTO 15006KT 10SM CLR 13/10 A2986 RMK AO1=
KMIU 080935Z AUTO 11019KT 7SM FEW007 BKN040 OVC095 27/26 A2980 RMK
     A01=
KMRJ 080935Z AUTO 00000KT 10SM SCT003 OVC010 21/19 A3003 RMK AO2
     T02050188=
KMWC 080935Z AUTO 00000KT 7SM -RA OVC065 21/20 A3000 RMK AO2
     P0001=
####018000079####
SAKY31 RUMS 080930 RRA
METAR UAFM 080930Z 32005MPS CAVOK 34/07 Q1012 NOSIG=
####018000724####
SARA36 RUMS 080930
METAR UWUU 080930Z 01003G06MPS CAVOK 27/08 Q1015 82010060 NOSIG RMK
QFE750/1001 MOD TURB 500-1600=
METAR USCC 080930Z 32008G12MPS 9999 SCT040 25/01 Q1014 NOSIG RMK
QFE740 27000070=
METAR USDD 080930Z 05009G12MPS CAVOK 17/01 Q1016 NOSIG RMK
QFE756/1008 SC060=
METAR USMU 080930Z 01006MPS 9999 SCT026CB OVC066 13/10 Q1005 NOSIG
RMK QFE748 09250345=
METAR USNN 080930Z 15005MPS P6000 SCT026 BKN200 18/09 Q1003 NOSIG RMK
QFE747 SC065=
METAR USRK 080930Z 35003MPS 6000 BKN019 OVC066 13/11 Q1003 NOSIG RMK
QFE746 351///55=
METAR USRR 080930Z 35004MPS 7000 OVC010 12/10 Q1004 TEMPO BKN007 RMK
QFE747 25////60=
METAR USSS 080930Z 35007G10MPS 310V030 CAVOK 24/04 Q1015 NOSIG RMK
QFE740 260///70=
####018000745####
SARS35 RUMS 080930
METAR USPP 080930Z 31003MPS 250V360 CAVOK 27/10 Q1016 NOSIG RMK
QFE751/1001 21090060=
METAR UWKD 080930Z NIL=
METAR UWKE 080930Z 07004MPS 9999 FEW040 30/11 Q1016 NOSIG RMK
QFE745/0993 22090070=
METAR UWKS 080930Z 00000MPS 9999 TS BKN033CB 31/11 Q1016 TEMPO
VRB12MPS -TSRA SQ RMK QFE747 SC0.60=
METAR UWLL 080930Z 11002MPS CAVOK 31/10 Q1016 NOSIG RMK QFE749/0999
SC065=
METAR UWLW 080930Z NIL=
METAR UWOR 080930Z NIL=
METAR UWOO 080930Z NIL=
METAR UWPP 080930Z 13004MPS 9999 SCT033 BKN100 30/09 Q1014 NOSIG RMK
QFE746 11090060=
METAR UWSS 080930Z 04006MPS 9999 FEW050TCU BKN066 30/13 Q1015 NOSIG
RMK QFE749 120///60=
METAR UWWW 080930Z 08006G09MPS CAVOK 30/10 Q1015 NOSIG RMK
QFE748/0998 05CLRD60 15//99//=
####018000410####
SARA31 RUMS 080930
METAR UEEE 080930Z 00000MPS 9999 SCT050CB BKN100 23/09 Q1008 NOSIG
RMK QFE747 2309//60=
METAR UELL 080930Z NIL=
METAR UERP 080930Z 02005MPS 9999 SCT033CB BKN100 16/067 Q1014 NOSIG
RMK QFE716 35090065=
METAR UERR 080930Z 33003MPS 9999 BKN020CB 14/14 Q1012 NOSIG RMK
QFE727 24290255=
METAR UESO 080930Z NIL=
METAR UEST 080930Z 14002MPS CAVOK 07/03 Q1017 NOSIG RMK QFE762
21000060=
####018000408####
SARS33 RUMS 080930
METAR ULLI 080930Z 14002MPS 080V190 CAVOK 30/18 Q1014 NOSIG=
METAR UUDD 080930Z 15004MPS 110V180 9999 SCT044 BKN200 27/16 Q1015
NOSIG=
METAR UUEE 080930Z 11004MPS 9999 SCT050TCU BKN200 28/14 Q1015 NOSIG=
METAR UUEM 080930Z NIL=
METAR UUWW 080930Z 14003MPS 9999 FEW040 BKN100 25/16 Q1015 06000070
NOSIG=
METAR UUMO 080930Z 13003MPS CAVOK 25/15 Q1015 NOSIG RMK QFE747/0995
SC060=
####018000853####
SARA34 RUMS 080930
METAR UNAA 080930Z 35002MPS 260V010 9999 SCT026CB BKN100 18/13 Q1011
TEMPO 34010G15MPS 2000 TSRA RMK QFE735 202///55=
METAR UNBB 080930Z 19008MPS 9999 BKN033CB 18/07 Q1009 NOSIG RMK
QFE734=
METAR UNEE 080930Z 18006MPS 9999 SCT026 BKN200 19/11 Q1008 NOSIG RMK
QFE733 23CLRD60=
METAR UNKL 080930Z 26002MPS 9999 SCT020CB BKN083 17/13 Q1009 NOSIG
RMK QFE731 29////55=
METAR UNNT 080930Z 20003G08MPS 150V250 9999 BKN056CB OVC100 20/02
Q1007 NOSIG RMK QFE745/0993 25090070=
METAR UNOO 080930Z 30005G08MPS 9999 BKN023 14/09 Q1007 NOSIG 25CLRD06
RMK QFE747=
METAR UNWW 080930Z 19006MPS 9999 BKN026CB OVC130 20/11 Q1009 NOSIG
RMK QFE730 19CLRD70=
METAR USTR 080930Z 33008G11MPS CAVOK 21/03 Q1011 NOSIG RMK
QFE749/0999 30CLRD65=
METAR USHH 080930Z 32003G07MPS 280V010 9999 BKN019CB OVC080 11/09
Q1009 NOSIG RMK QFE753 SC06=
####018000091####
SAFR36 LFPW 080930 RRA
METAR LFJR 080930Z AUTO 18004KT 150V230 9999NDV NCD 29/13 Q1018=
####018000397####
SARA35 RUMS 080930
METAR ULDD 080930Z NIL=
METAR UOHH 080930Z 02004MPS 9999 FEW030 SCT/// 12/03 Q1023 NOSIG RMK
QFE761 06090060=
METAR UOII 080930Z 18003MPS 9999 FEW033CB BKN040 29/17 Q1005 TEMPO
-TSRA RMK QFE751 30////60=
METAR UOOO 080930Z 02008G10MPS CAVOK 23/10 Q1010 NOSIG RMK QFE743
010///60=
METAR USCM 080930Z 03003MPS 340V070 9999 FEW050 26/01 Q1015 NOSIG
01090065 RMK QFE723=
####018000258####
SARS34 RUMS 080930
METAR UUYH 080930Z VRB02MPS CAVOK 25/08 Q1017 NOSIG RMK QFE 751
18CLRD60=
METAR UUYS 080930Z 16003MPS CAVOK 21/07 Q1017 NOSIG RMK QFE755
14CLRD60=
METAR UUYY 080930Z VRB01MPS 9999 SCT030 30/13 Q1016 NOSIG 01CLRD61
RMK QFE753/1004=
####018000392####
SARA33 RUMS 080930
METAR UIAA 080930Z 01002MPS 330V040 9999 BKN043CB OVC200 26/11 Q1006
NOSIG RMK QFE696 29CLRD70=
METAR UIBB 080930Z 07004MPS 9999 FEW033 BKN200 28/12 Q1005 NOSIG RMK
QFE711/0948 30CLRD60=
METAR UIII 080930Z 15005MPS CAVOK 21/11 Q1006 NOSIG RMK QFE712/0950
12CLRD60=
METAR UIUU 080930Z 29002MPS 260V330 9999 -SHRA SCT033CB OVC100 22/14
Q1006 NOSIG RMK QFE711/0948=
####018000678####
SARS31 RUMS 080930
METAR ULAA 080930Z 31005MPS 270V360 9999 FEW030CB 27/17 Q1015 NOSIG
RMK QFE760/1013 SC070=
METAR ULKK 080930Z NIL=
METAR ULMM 080930Z 35003MPS 320V030 9999 BKN020 15/09 Q1017 NOSIG RMK
QFE756 32190060=
METAR ULOL 080930Z NIL=
METAR ULOO 080930Z VRB02MPS P6000 SCT033 BKN200 28/16 Q1012 NOSIG RMK
QFE755=
METAR ULWW 080930Z NIL=
METAR UMKK 080930Z 31005MPS P8000 SCT200 23/13 Q1019 NOSIG RMK QFE
763 SC07=
METAR UUBP 080930Z NIL=
METAR UUOB 080930Z NIL=
METAR UUOK 080930Z NIL=
METAR UUOO 080930Z 14002G05MPS 030V190 9999 SCT033 28/15 Q1014 NOSIG
RMK 13090070=
METAR UWGG 080930Z 14004MPS 8000 FEW033 33/08 Q1016 NOSIG RMK QFE755
18090070=
####018000460####
SARA32 RUMS 080930
METAR UHHH 080930Z 03005MPS 9999 BKN031CB OVC100 18/13 Q1010 NOSIG
RMK QFE751/1001 55090060=
METAR UHMA 080930Z NIL=
METAR UHMM 080930Z NIL=
METAR UHMP 080930Z NIL=
METAR UHNN 080930Z NIL=
METAR UHPP 080930Z NIL=
METAR UHSH 080930Z NIL=
METAR UHSS 080930Z 18002MPS 9999 BKN020 14/12 Q1011 NOSIG RMK MT OBSC
QFE757/1009 19CLRD70=
METAR UHWW 080930Z 21005MPS 9999 SCT013 BKN023 OVC070 18/15 Q1010
NOSIG RMK QFE756/1009 75CLRD70=
####018000110####
SANK31 MNMG 080900
METAR
METAR MNMG 080900Z 00000KT 9999 FEW020CB SCT022 25/24 Q1010 A2983
CB/N/NW/W/FL=
####018000877####
SARS32 RUMS 080930
METAR URKA 080930Z 03003MPS 9999 SCT026 28/18 Q1013 NOSIG RMK  065=
METAR URKK 080930Z 09005MPS 030V120 9999 SCT030 SCT300 29/18 Q1012
NOSIG RMK QFE756 SC070=
METAR URKM 080930Z NIL=
METAR URML 080930Z 02003G08MPS 9999 SKC 32/21 Q1013 NOSIG RMK QFE759
/ 07=
METAR URMM 080930Z 10005G07MPS 9999 BKN040 29/19 Q1013 NOSIG RMK /
SC070=
METAR URMN 080930Z 09002MPS 9999 SCT026TCU BKN110 27/20 Q1014 NOSIG
RMK / QFE724 SC07=
METAR URMT 080930Z 08005G08MPS 9999 SCT020 28/17 Q1015 NOSIG RMK
QFE721 SC07=
METAR URRR 080930Z 08002MPS 9999 FEW026 29/12 Q1014 NOSIG RMK SC070=
METAR URSS 080930Z 28003MPS 9999 FEW040 28/21 Q1010 NOSIG RMK /
QFE757 06CLRD70=
METAR URWA 080930Z 35003MPS CAVOK 37/11 Q1011 NOSIG RMK SC07=
METAR URWI 080930Z VRB01MPS CAVOK 29/16 Q1013 NOSIG RMK SC065=
METAR URWW 080930Z 31004G07MPS CAVOK 29/16 Q1014 NOSIG RMK SC070=
####018000104####
SAUS80 KWBC 081000
METAR
KSYN 080950Z AUTO 21003KT 10SM CLR 17/16 A3007 RMK AO2
     T01700157=
####018000225####
SAXX60 KWBC 080940
METAR
KMRT 080933Z AUTO 00000KT 5SM CLR 20/19 A3011 RMK AO2
     T02030187=
KGBK 080935Z AUTO 10015G23KT 10SM FEW035 29/25 A2989 RMK A01=
KMHR 080935Z AUTO 15006KT 10SM CLR 13/10 A2986 RMK AO1=
####018003420####
SAUS70 KWBC 080940 RRB
METAR
K2G4 080935Z AUTO 00000KT 10SM SCT065 22/12 A3019 RMK AO1=
KMZG 080935Z AUTO 00000KT 10SM CLR 29/25 A2979 RMK A01=
KOEO 080935Z AUTO 29003KT 10SM CLR 18/17 A3008 RMK AO2=
KPBH 080935Z AUTO 00000KT 10SM BKN026 20/19 A3004 RMK AO2=
KPCZ 080935Z AUTO 00000KT 3SM BR SCT003 SCT007 23/21 A2998 RMK AO2
     T02260212=
KPDC 080933Z AUTO 29005KT 10SM CLR 22/21 A3001 RMK AO2
     T02170205=
KRCX 080935Z AUTO 31005KT 10SM CLR 19/17 A3004 RMK AO2
     T01850168=
KSPF 080935Z AUTO 00000KT 10SM CLR 11/08 A3028 RMK AO2=
KVBS 080935Z AUTO 12021KT 10SM SCT019 SCT025 BKN029 29/25 A2991
     RMK A01=
KVNP 080935Z AUTO 14008KT 9SM 28/25 A2996 RMK A01=
KY63 080940Z AUTO 22005KT 10SM CLR 15/14 A3010 RMK AO2
     T01450138=
K14Y 080938Z AUTO 00000KT 10SM CLR 15/14 A3010 RMK AO2
     T01480144=
K4M9 080935Z AUTO 22005KT 8SM CLR 24/24 A3005 RMK AO2=
KAEJ 080935Z AUTO 00000KT 10SM SCT050 OVC110 10/08 A3046 RMK
     AO2=
KBBF 081035Z AUTO VRB07G21KT 9SM FEW024 FEW035 SCT043 29/27 A2979
     RMK A01=
KBQX 080935Z AUTO 12017G25KT 5SM HZ FEW017 FEW048 SCT090 28/26
     A2983 RMK A01=
KBUU 080936Z AUTO 19003KT 7SM BKN100 21/21 A3000 RMK AO2=
KDLP 080935Z AUTO 10011KT 10SM SCT016 SCT033 28/25 A2998 RMK
     A01=
KEFT 080935Z AUTO 24004KT 10SM CLR 21/19 A3002 RMK AO2
     T02070194=
KEGV 080932Z AUTO 31003KT 10SM SCT008 18/18 A3001 RMK AO2
     T01820183=
KEHC 080935Z AUTO 12022KT 7SM FEW020 FEW027 SCT034 29/25 A2991 RMK
     A01=
KEIR 080935Z AUTO VRB04G13KT 9SM FEW016 FEW021 FEW036 28/25 A2996
     RMK A01=
KEMK 080935Z AUTO 14023KT 7SM FEW022 FEW031 FEW038 29/25 A2985 RMK
     A01=
KETB 080932Z AUTO 00000KT 5SM RA BKN090 OVC110 22/21 A3000 RMK AO2
     P0001 T02150205=
KEZS 080935Z AUTO 00000KT 7SM OVC005 23/22 A2998 RMK AO2
     T02250216=
KGLW 080933Z AUTO 00000KT 7SM CLR 21/20 A3007 RMK AO2
     T02060195=
KGVX 080935Z AUTO 13027KT 1 3/4SM BR BKN004 OVC038 M40/ A2988 RMK
     A01=
KGYH 080935Z AUTO 00000KT 10SM CLR 22/20 A3003 RMK AO2=
KHFJ 080935Z AUTO 00000KT 7SM SCT043 22/22 A3003 RMK AO1=
KHQI 080935Z AUTO 11024KT 4SM HZ 28/26 A2987 RMK A01=
KHXD 080935Z AUTO 22006KT 10SM CLR 24/21 A2999 RMK AO2 P0000=
KHYW 080935Z AUTO 00000KT 10SM SCT090 24/23 A2993 RMK AO2=
KIPN 080935Z AUTO 09014KT 10SM BKN020 BKN026 /57 A2998 RMK A01=
KJVL 080935Z AUTO 28003KT 10SM BKN095 BKN120 22/20 A3001 RMK AO2
     T02180200=
KJZI 080935Z AUTO 28006KT 10SM CLR 23/23 A2996 RMK A02 P000=
KLNL 080935Z AUTO 31004KT 10SM BKN011 BKN014 BKN023 18/17 A3003
     RMK AO2 T01830170=
KLUM 080935Z AUTO 30007KT 10SM CLR 18/17 A3004 RMK AO2=
KMCJ 080935Z AUTO 09007KT 10SM CLR 27/24 A2988 RMK AO1=
KMDJ 080935Z AUTO 14012KT 10SM FEW019 BKN060 28/25 A2998 RMK
     A01=
KMDZ 080935Z AUTO 00000KT M1/4SM FG OVC001 19/18 A3002 RMK AO2=
KMIU 080935Z AUTO 11019KT 7SM FEW007 BKN040 OVC095 27/26 A2980 RMK
     A01=
KMRJ 080935Z AUTO 00000KT 10SM SCT003 OVC010 21/19 A3003 RMK AO2
     T02050188=
KMWC 080935Z AUTO 00000KT 7SM -RA OVC065 21/20 A3000 RMK AO2
     P0001=
K2W6 080938Z AUTO 00000KT 3SM 23/23 A3000 RMK AO1 SKY OBSCURED=
KCGS 080940Z AUTO 00000KT 7SM CLR 26/23 A3000 RMK AO1=
KMTN 080933Z AUTO 00000KT 5SM BR CLR 26/24 A3001 RMK AO2=
KFDK 080938Z AUTO 00000KT 5SM BR SCT100 24/22 A3004 RMK AO2=
KW29 080938Z AUTO 00000KT 4SM CLR 24/23 A3000 RMK AO1=
####018000847####
SAUS80 KWBC 080940
METAR
KSNC 080935Z AUTO 00000KT M1/4SM FG OVC001 22/ A3006 RMK AO2=
K29G 080934Z AUTO 00000KT 7SM SCT060 19/18 A3009 RMK AO2 T01940181
     PWINO=
KCLI 080935Z AUTO 00000KT 3SM BR OVC003 22/21 A2998 RMK AO2=
KDVK 080937Z AUTO 00000KT 5SM 21/19 A3009 RMK AO1=
KROS 080935Z AUTO 27003KT 10SM CLR 15/14 A3007 RMK AO2
     T01500142=
KTKC 080933Z AUTO 26005KT 10SM CLR 16/13 A3014 RMK AO2
     T01580131=
KIKW 080933Z AUTO 24004KT 10SM SCT060 BKN120 23/21 A3001 RMK AO2
     T02250214=
KLYV 080938Z AUTO 00000KT 7SM CLR 15/13 A3015 RMK AO2=
KMYT 080935Z AUTO 13014KT 10SM FEW017 28/25 A2994 RMK A01=
KSCF 080940Z AUTO 15018KT 8SM SCT016 BKN020 BKN025 29/26 A2990 RMK
     A01=
KCBE 080938Z AUTO 00000KT 5SM CLR 20/18 A3010 RMK AO1=
KESN 080942Z AUTO 00000KT 2 1/2SM BR CLR 22/22 A3003 RMK AO2=
####018003690####
SAUS70 KWBC 080940
METAR
K1P1 080935Z AUTO 00000KT M1/4SM FG OVC005 21/20 A3007 RMK AO2
     T02140202=
KBVU 080935Z AUTO 00000KT 10SM CLR 24/03 A2985 RMK AO2=
KE80 080935Z AUTO 28005KT 10SM CLR 18/11 A3023 RMK AO2
     T01830112=
KEDC 080935Z AUTO 07005KT BKN010 BKN016 OVC032 25/25 A2996 RMK
     AO2=
KEIK 080935Z AUTO 00000KT 7SM CLR 11/11 A3031 RMK AO2=
KEOE 080935Z AUTO 22003KT 10SM CLR 22/20 A3003 RMK AO2=
KFMH 080935Z AUTO 16007KT 5SM BR OVC003 21/20 A3009 RMK AO2=
KIFP 080935Z AUTO 17003KT 10SM CLR 30/M01 A2973 RMK AO2=
KMAN 080935Z AUTO 00000KT 10SM CLR 14/07 A3004 RMK AO1=
KPVF 080935Z AUTO 00000KT 10SM CLR 22/12 A2994 RMK AO1=
KRBW 080935Z AUTO 28003KT 10SM CLR 23/20 A2997 RMK AO2=
KRCM 080935Z AUTO 00000KT 4SM -DZ SCT017 SCT035 SCT047 22/22 A3003
     RMK AO2 P0008=
KTME 080935Z AUTO 04007KT 5SM 25/25 A2992 RMK AO1=
KUOX 080935Z AUTO 00000KT 10SM CLR 22/20 A3009 RMK AO2=
K1A6 080935Z AUTO 00000KT 3SM BR CLR 21/21 A3010 RMK AO2=
K21D 080938Z AUTO 31005KT 10SM CLR 17/16 A3007 RMK AO2=
K4I3 080935Z AUTO 00000KT 10SM SCT060 20/19 A3009 RMK AO2=
KACB 080935Z AUTO 00000KT 10SM BKN110 24/21 A2997 RMK AO2=
KACQ 080938Z AUTO 00000KT 1SM BR VV007 16/15 A3011 RMK AO2=
KADC 080936Z AUTO 24005KT 10SM CLR 14/13 A3008 RMK AO2=
KAEL 080931Z AUTO 32004KT 10SM CLR 17/17 A3008 RMK AO2=
KAIG 080935Z AUTO 32003KT 10SM CLR 18/17 A3000 RMK AO2=
KAIT 080933Z AUTO 00000KT 1/2SM FG VV005 12/11 A3006 RMK AO2=
KANE 080935Z AUTO 29003KT 10SM 17/16 A3008 RMK AO2=
KARV 080932Z AUTO 33005KT 10SM BKN008 BKN013 19/17 A3003 RMK AO2
     T01860173=
KATW 080935Z AUTO 25007KT 7SM OVC005 22/21 A3000 RMK AO2=
KAUM 080935Z AUTO 32005KT 10SM CLR 18/17 A3007 RMK AO2=
KBAX 080935Z AUTO 00000KT 5SM BR CLR 21/21 A3000 RMK AO2=
KBBB 080933Z AUTO 24003KT 10SM CLR 14/14 A3011 RMK AO2=
KBDH 080935Z AUTO 00000KT 10SM CLR 16/14 A3012 RMK AO2=
KBJI 080934Z AUTO 24006KT 10SM CLR 15/13 A3005 RMK AO2=
KBWP 080931Z AUTO 24003KT 10SM CLR 14/13 A3008 RMK AO1
     T01440130=
KCAD 080934Z AUTO 22006KT 10SM SCT080 SCT120 22/20 A3002 RMK
     AO2=
KCBG 080935Z AUTO 00000KT 10SM CLR 16/14 A3007 RMK AO2=
KCFE 080934Z AUTO 00000KT 10SM CLR 17/16 A3009 RMK AO2
     T01710162=
KCFS 080935Z AUTO 00000KT 1 1/4SM BR VV007 20/20 A3001 RMK AO2=
KCKC 080935Z AUTO 30004KT 10SM CLR 15/13 A3003 RMK AO2=
KCKN 080935Z AUTO 22004KT 10SM CLR 13/12 A3005 RMK AO2=
KCMY 080935Z AUTO 00000KT 10SM CLR 20/19 A3002 RMK AO2
     T01960188=
KCNB 080937Z AUTO 24005KT 10SM CLR 16/13 A3013 RMK AO2
     T01580130=
KCOQ 080936Z AUTO 29005KT 10SM CLR 14/14 A3005 RMK AO2=
KCQM 080937Z AUTO 00000KT 10SM CLR 15/14 A3003 RMK AO2=
KCVH 080930Z AUTO 00000KT 10SM OVC010 13/11 A2992 RMK AO1=
KCWA 080935Z AUTO 30007KT 7SM OVC003 19/19 A3002 RMK AO2
     T01900191=
KDRM 080936Z AUTO 15005KT 1 3/4SM BR OVC002 20/20 A2995 RMK
     AO2=
KDTL 080935Z AUTO 29003KT 10SM CLR 16/11 A3009 RMK AO2=
KDUH 080934Z AUTO 00000KT 10SM SCT070 22/18 A3004 RMK AO2=
KDXX 080934Z AUTO 00000KT 10SM CLR 14/14 A3010 RMK AO2=
KDYT 080934Z AUTO 25004KT 10SM CLR 19/16 A3004 RMK AO2=
KEFK 080935Z AUTO 22006KT 3SM BR CLR 20/19 A3006 RMK AO2=
KMOX 080930Z AUTO 22003KT 10SM CLR 15/14 A3008 RMK AO2=
KMVE 080934Z AUTO 29005KT 10SM CLR 16/15 A3010 RMK AO2=
KMWM 080933Z AUTO 25003KT 10SM CLR 14/14 A3013 RMK AO2=
KMWO 080935Z AUTO 00000KT 2 1/2SM BR CLR 20/20 A3008 RMK AO2=
KOEB 080935Z AUTO 00000KT 10SM CLR 23/20 A3004 RMK AO2=
KONA 080931Z AUTO 30005KT 10SM CLR 20/18 A3002 RMK AO2=
KOVL 080933Z AUTO 29003KT 10SM CLR 13/11 A3011 RMK AO2
     T01250111=
KOZW 080935Z AUTO 00000KT 7SM CLR 23/21 A3004 RMK AO2=
####018003742####
SAUS70 KWBC 080940 RRA
METAR
KPEX 080933Z AUTO 25004KT 7SM CLR 13/13 A3011 RMK AO2
     T01260125=
KPNM 080933Z AUTO 00000KT 5SM BR CLR 14/14 A3008 RMK AO2=
KPQN 080933Z AUTO 00000KT 10SM CLR 16/14 A3016 RMK AO2=
KPVB 080933Z AUTO 00000KT 1/4SM OVC001 20/20 A3004 RMK AO1
     T02010195=
KPWC 080933Z AUTO 00000KT 10SM CLR 10/09 A3008 RMK AO2=
KRGK 080935Z AUTO 27003KT 10SM CLR 19/17 A3005 RMK AO2=
KRNP 080935Z AUTO 20003KT 10SM CLR 22/21 A3002 RMK AO2=
KROX 080935Z AUTO 21004KT 10SM CLR 14/12 A3000 RMK AO2=
KRQB 080934Z AUTO 18003KT 10SM SCT070 BKN090 OVC110 22/21 A3002
     RMK AO2=
KRRT 080934Z AUTO 24006KT 10SM CLR 14/12 A3001 RMK AO2=
KRZN 080934Z AUTO 00000KT 10SM CLR 17/16 A3006 RMK AO2
     T01670155=
KSAZ 080934Z AUTO 24003KT 10SM CLR 15/15 A3008 RMK AO2=
KSGS 080933Z AUTO 00000KT 10SM CLR 19/16 A3007 RMK AO2
     T01900160=
KTEW 080932Z AUTO 00000KT 7SM CLR 21/20 A3004 RMK AO2=
KTOB 080934Z AUTO 00000KT 10SM CLR 18/17 A3009 RMK AO2=
KTWM 080933Z AUTO 29003KT 10SM CLR 16/13 A3001 RMK AO2=
KTZR 080936Z AUTO 00000KT 5SM BR CLR 20/19 A3008 RMK AO2=
KUKT 080930Z AUTO 00000KT 5SM CLR 20/20 A3004 RMK AO1=
KULM 080935Z AUTO 29005KT 10SM CLR 15/13 A3011 RMK AO2=
KUNI 080935Z AUTO 00000KT 5SM HZ CLR 22/17 A3008 RMK AO2
     T02170169=
KVES 080934Z AUTO 00000KT 5SM BR CLR 20/19 A3008 RMK AO2
     T01960188=
KVLL 080934Z AUTO 00000KT 10SM CLR 25/21 A3005 RMK AO2=
KVVV 080936Z AUTO 28004KT 10SM CLR 17/14 A3011 RMK AO2=
KY70 080934Z AUTO 33003KT 5SM RA SCT005 BKN048 OVC085 23/22 A3003
     RMK AO2 T02280217=
KELO 080933Z AUTO 22003KT 10SM CLR 14/13 A3002 RMK AO2=
KEVM 080932Z AUTO 00000KT 10SM CLR 15/13 A3002 RMK AO1=
KFBL 080934Z AUTO 30004KT 10SM CLR 17/16 A3010 RMK AO2=
KFFM 080933Z AUTO 20003KT 10SM CLR 15/14 A3008 RMK AO2=
KFFX 080934Z AUTO 21006KT 4SM -RA SCT110 22/21 A3003 RMK AO2=
KFGN 080934Z AUTO 26008KT 1SM DZ VV007 17/13 A2996 RMK AO2=
KFPK 080935Z AUTO 00000KT 10SM CLR 22/20 A3004 RMK AO2=
KFSE 080934Z AUTO 19005KT 10SM CLR 12/11 A3005 RMK AO2=
KFSO 080938Z AUTO 00000KT 3SM BR BKN060 OVC075 23/22 A3001 RMK
     AO2=
KGDB 080932Z AUTO 23004KT 10SM CLR 14/14 A3014 RMK AO2
     T01420136=
KGHW 080933Z AUTO 22006KT 10SM CLR 14/13 A3013 RMK AO2=
KGYL 080935Z AUTO 24003KT 10SM CLR 15/14 A3009 RMK AO2
     T01490142=
KHAF 080930Z AUTO 00000KT 10SM OVC006 12/10 A2994 RMK AO2=
KHAI 080935Z AUTO 00000KT 5SM BR SCT060 SCT075 21/20 A3004 RMK
     AO2=
KHCD 080932Z AUTO 24004KT 5SM BR CLR 14/13 A3010 RMK AO2
     T01380130=
KHCO 080934Z AUTO 18005KT 10SM CLR 12/12 A3004 RMK AO2=
KHZX 080932Z AUTO 00000KT 1/2SM VV005 12/12 A3007 RMK AO2=
KIRS 080935Z AUTO 00000KT 7SM CLR 22/19 A3004 RMK AO2=
KIWA 080936Z AUTO 02005KT 10SM CLR 36/02 A2979 RMK AO2=
KJKJ 080934Z AUTO 25003KT 10SM CLR 15/14 A3006 RMK AO2=
KJMR 080938Z AUTO 29003KT 10SM CLR 15/13 A3008 RMK AO2=
KJYG 080934Z AUTO 26003KT 10SM CLR 16/16 A3013 RMK AO2=
KJYM 080935Z AUTO 00000KT 10SM CLR 22/19 A3006 RMK AO2=
KL35 080936Z AUTO 00000KT 10SM CLR 06/M05 A3018 RMK AO2=
KLCK 080935Z AUTO 00000KT 3SM BR CLR 22/21 A3007 RMK AO2
     T02170206=
KLJF 080932Z AUTO 28004KT 10SM CLR 17/16 A3011 RMK AO2=
KLVN 080929Z AUTO 26003KT 10SM CLR 17/17 A3008 RMK AO2=
KLWA 080936Z AUTO 29003KT 10SM SCT050 23/21 A3004 RMK AO2=
KLXL 080934Z AUTO 00000KT 3/4SM BR VV005 12/11 A3007 RMK AO2=
KMDS 080925Z AUTO 28005KT 10SM CLR 14/14 A3017 RMK AO2=
KMGG 080935Z AUTO 27003KT 10SM CLR 16/15 A3009 RMK AO2
     T01630151=
KMGN 080934Z AUTO 00000KT 10SM BKN110 21/20 A2996 RMK AO2=
KMJQ 080932Z AUTO 27003KT 5SM BR CLR 14/14 A3014 RMK AO2=
KMOP 080934Z AUTO 25003KT 10SM SCT040 OVC100 23/23 A3002 RMK
     AO2=
####018000130####
SPUS80 KWBC 080940
SPECI
KCRP 080935Z 34006KT 9SM -RA FEW009 BKN021 BKN032 26/25 A2983 RMK
     AO2 TSE35 TS DSIPT P0052=
####018000075####
SAAF35 KWBC 080800 RRE
METAR
HESN 080800Z 33014KT CAVOK 35/08 Q1010=
####018000374####
SPXX60 KWBC 080940
SPECI
KFZY 080937Z AUTO 00000KT 1 1/4SM BR CLR 21/20 A3004 RMK AO2=
KDAA 080938Z AUTO 00000KT 9SM R32/5500VP6000FT CLR 24/21 A2999 RMK
     AO2 SLP156=
KFRI 080933Z AUTO 35004KT 10SM BKN022 OVC140 22/21 A3010 RMK AO2
     CIG 020V026 BKN V SCT SLP182=
KRND 080936Z AUTO 05007KT 10SM SCT008 BKN013 OVC019 25/23 A2994
     RMK AO2 SLP127=
####018000522####
SAAO32 GOOY 080930
METAR GABS 080930Z 25006KT 9999 FEW030 29/22 Q1016 NOSIG=
METAR GGOV 080930Z NIL=
METAR GOOY 080930Z 16007KT 120V210 9999 SCT013 29/24 Q1012 NOSIG=
METAR DIAP 080930Z VRB03KT 7000 SCT012 BKN080 27/25 Q1015 TEMPO
BKN012 BKN070=
METAR GQNN 080930Z 18008KT 150V210 6000 SCT020 28/23 Q1013 NOSIG=
METAR GQPP 080930Z NIL=
METAR GUCY 080930Z NIL=
METAR GVAC 080930Z NIL=
METAR GFLL 080930Z NIL=
METAR GBYD 080930Z NIL=
METAR GLRB 080930Z 00000KT 9999 SCT015 FEW025CB BKN100 27/24 Q1015
 CB-SW=
####018000095####
SAAG05 SABM 080900 RRC
METAR COR SAWG 080900Z  29008KT 9999  SCT030
SCT100  M04/M06 Q0990=
####018001326####
SPUS70 KWBC 080940
SPECI
KBML 080936Z AUTO 00000KT 1/4SM FG OVC001 20/20 A3010 RMK AO2
     $=
KBVY 080936Z 13006KT 6SM BR SCT015 22/20 A3007 RMK AO2 PNO=
KDAW 080936Z AUTO VRB03KT 1SM BR OVC003 22/21 A3007 RMK AO2 $=
KDEQ 080937Z AUTO 07004KT 10SM SCT006 BKN015 OVC032 24/23 A3002
     RMK AO2=
KLAR 080936Z AUTO 29003KT 7SM FEW017 SCT021 08/07 A3039 RMK
     AO2=
KOWD 080936Z AUTO 16003KT 9SM BKN016 BKN055 21/18 A3007 RMK
     AO2=
KELD 080937Z AUTO 00000KT 6SM BR BKN001 BKN085 23/23 A3004 RMK
     AO2=
KFRG 080937Z AUTO 16006KT 5SM BR BKN004 BKN016 BKN110 25/24 A3003
     RMK AO2 CIG 003V008=
KGFL 080937Z AUTO 00000KT 1/4SM FG VV020 20/20 A3003 RMK AO2=
KGON 080937Z AUTO 11009KT 9SM BKN004 OVC013 23/21 A3005 RMK
     AO2=
KHIB 080937Z AUTO 00000KT 3/4SM BR CLR 09/08 A3004 RMK AO2=
KNSE 080928Z AUTO 00000KT 3SM BR CLR 23/21 A3002 RMK AO2 $=
TISX 080934Z 09006KT 10SM BKN023 BKN027 27/24 A2997 RMK AO2=
KOTM 080938Z AUTO 30005KT 5SM BR SCT010 BKN016 21/21 A3005 RMK
     AO2=
KPKB 080938Z AUTO 00000KT 1SM BR VV001 21/19 A3010 RMK AO2 TSNO
     RVRNO=
KVTA 080938Z AUTO 00000KT 1SM BR BKN060 19/18 A3008 RMK AO2=
KBOK 080939Z AUTO 00000KT 1/2SM FG OVC002 09/09 A2996 RMK AO2
     $=
KLEB 080938Z AUTO 00000KT 1 1/2SM BR FEW001 22/19 A3005 RMK
     AO2=
####018000095####
SAAL31 KWBC 080900 RRD
METAR
DABS 080930Z 34006KT CAVOK 30/10 Q1023=
DAUZ 080930Z NIL=
####018000190####
SAAO33 KWBC 080900 RRE
METAR
GBYD 080930Z NIL=
GFLL 080930Z NIL=
GGOV 080930Z NIL=
GLRB 080930Z 00000KT 9999 SCT015 FEW025CB BKN100 27/24 Q1015
     CB-SW=
GUCY 080930Z NIL=
####018000107####
SAAO32 KWBC 080900 RRD
METAR
GABS 080930Z 25006KT 9999 FEW030 29/22 Q1016 NOSIG=
GQPP 080930Z NIL=
####018000871####
SARA34 RUMS 080930
METAR UNAA 080930Z 35002MPS 260V010 9999 SCT026CB BKN100 18/13 Q1011
TEMPO 34010G15MPS 2000 TSRA RMK QFE735 202///55=
METAR UNBB 080930Z 19008MPS 9999 BKN033CB 18/07 Q1009 NOSIG RMK
QFE734=
METAR UNEE 080930Z 18006MPS 9999 SCT026 BKN200 19/11 Q1008 NOSIG RMK
QFE733 23CLRD60=
METAR UNKL 080930Z 26002MPS 9999 SCT020CB BKN083 17/13 Q1009 NOSIG
RMK QFE731 29////55=
METAR UNNT 080930Z 20003G08MPS 150V250 9999 BKN056CB OVC100 20/02
Q1007 NOSIG RMK QFE745/0993 25090070=
METAR UNOO 080930Z 30005G08MPS 9999 BKN023 14/09 Q1007 NOSIG 25CLRD06
RMK QFE747=
METAR UNWW 080930Z 19006MPS 9999 BKN026CB OVC130 20/11 Q1009 NOSIG
RMK QFE730 19CLRD70=
METAR USTR 080930Z 33008G11MPS CAVOK 21/03 Q1011 NOSIG RMK
QFE749/0999 30CLRD65=
METAR USHH 080930Z 32003G07MPS 280V010 9999 BKN019CB OVC080 11/09
Q1009 NOSIG RMK QFE753 SC06=
####018000417####
SARS33 RUMS 080930
METAR ULLI 080930Z 14002MPS 080V190 CAVOK 30/18 Q1014 NOSIG=
METAR UUDD 080930Z 15004MPS 110V180 9999 SCT044 BKN200 27/16 Q1015
NOSIG=
METAR UUEE 080930Z 11004MPS 9999 SCT050TCU BKN200 28/14 Q1015 NOSIG=
METAR UUEM 080930Z NIL=
METAR UUWW 080930Z 14003MPS 9999 FEW040 BKN100 25/16 Q1015 06000070
NOSIG=
METAR UUMO 080930Z 13003MPS CAVOK 25/15 Q1015 NOSIG RMK QFE747/0995
SC060=
####018000472####
SARA32 RUMS 080930
METAR UHHH 080930Z 03005MPS 9999 BKN031CB OVC100 18/13 Q1010 NOSIG
RMK QFE751/1001 55090060=
METAR UHMA 080930Z NIL=
METAR UHMM 080930Z NIL=
METAR UHMP 080930Z NIL=
METAR UHNN 080930Z NIL=
METAR UHPP 080930Z NIL=
METAR UHSH 080930Z NIL=
METAR UHSS 080930Z 18002MPS 9999 BKN020 14/12 Q1011 NOSIG RMK MT OBSC
QFE757/1009 19CLRD70=
METAR UHWW 080930Z 21005MPS 9999 SCT013 BKN023 OVC070 18/15 Q1010
NOSIG RMK QFE756/1009 75CLRD70=
####018000400####
SARA33 RUMS 080930
METAR UIAA 080930Z 01002MPS 330V040 9999 BKN043CB OVC200 26/11 Q1006
NOSIG RMK QFE696 29CLRD70=
METAR UIBB 080930Z 07004MPS 9999 FEW033 BKN200 28/12 Q1005 NOSIG RMK
QFE711/0948 30CLRD60=
METAR UIII 080930Z 15005MPS CAVOK 21/11 Q1006 NOSIG RMK QFE712/0950
12CLRD60=
METAR UIUU 080930Z 29002MPS 260V330 9999 -SHRA SCT033CB OVC100 22/14
Q1006 NOSIG RMK QFE711/0948=
####018000406####
SARA35 RUMS 080930
METAR ULDD 080930Z NIL=
METAR UOHH 080930Z 02004MPS 9999 FEW030 SCT/// 12/03 Q1023 NOSIG RMK
QFE761 06090060=
METAR UOII 080930Z 18003MPS 9999 FEW033CB BKN040 29/17 Q1005 TEMPO
-TSRA RMK QFE751 30////60=
METAR UOOO 080930Z 02008G10MPS CAVOK 23/10 Q1010 NOSIG RMK QFE743
010///60=
METAR USCM 080930Z 03003MPS 340V070 9999 FEW050 26/01 Q1015 NOSIG
01090065 RMK QFE723=
####018000264####
SARS34 RUMS 080930
METAR UUYH 080930Z VRB02MPS CAVOK 25/08 Q1017 NOSIG RMK QFE 751
18CLRD60=
METAR UUYS 080930Z 16003MPS CAVOK 21/07 Q1017 NOSIG RMK QFE755
14CLRD60=
METAR UUYY 080930Z VRB01MPS 9999 SCT030 30/13 Q1016 NOSIG 01CLRD61
RMK QFE753/1004=
####018000080####
SAKY31 RUMS 080930 RRA
METAR UAFM 080930Z 32005MPS CAVOK 34/07 Q1012 NOSIG=
####018000763####
SARS35 RUMS 080930
METAR USPP 080930Z 31003MPS 250V360 CAVOK 27/10 Q1016 NOSIG RMK
QFE751/1001 21090060=
METAR UWKD 080930Z NIL=
METAR UWKE 080930Z 07004MPS 9999 FEW040 30/11 Q1016 NOSIG RMK
QFE745/0993 22090070=
METAR UWKS 080930Z 00000MPS 9999 TS BKN033CB 31/11 Q1016 TEMPO
VRB12MPS -TSRA SQ RMK QFE747 SC0.60=
METAR UWLL 080930Z 11002MPS CAVOK 31/10 Q1016 NOSIG RMK QFE749/0999
SC065=
METAR UWLW 080930Z NIL=
METAR UWOR 080930Z NIL=
METAR UWOO 080930Z NIL=
METAR UWPP 080930Z 13004MPS 9999 SCT033 BKN100 30/09 Q1014 NOSIG RMK
QFE746 11090060=
METAR UWSS 080930Z 04006MPS 9999 FEW050TCU BKN066 30/13 Q1015 NOSIG
RMK QFE749 120///60=
METAR UWWW 080930Z 08006G09MPS CAVOK 30/10 Q1015 NOSIG RMK
QFE748/0998 05CLRD60 15//99//=
####018000696####
SARS31 RUMS 080930
METAR ULAA 080930Z 31005MPS 270V360 9999 FEW030CB 27/17 Q1015 NOSIG
RMK QFE760/1013 SC070=
METAR ULKK 080930Z NIL=
METAR ULMM 080930Z 35003MPS 320V030 9999 BKN020 15/09 Q1017 NOSIG RMK
QFE756 32190060=
METAR ULOL 080930Z NIL=
METAR ULOO 080930Z VRB02MPS P6000 SCT033 BKN200 28/16 Q1012 NOSIG RMK
QFE755=
METAR ULWW 080930Z NIL=
METAR UMKK 080930Z 31005MPS P8000 SCT200 23/13 Q1019 NOSIG RMK QFE
763 SC07=
METAR UUBP 080930Z NIL=
METAR UUOB 080930Z NIL=
METAR UUOK 080930Z NIL=
METAR UUOO 080930Z 14002G05MPS 030V190 9999 SCT033 28/15 Q1014 NOSIG
RMK 13090070=
METAR UWGG 080930Z 14004MPS 8000 FEW033 33/08 Q1016 NOSIG RMK QFE755
18090070=
####018000895####
SARS32 RUMS 080930
METAR URKA 080930Z 03003MPS 9999 SCT026 28/18 Q1013 NOSIG RMK  065=
METAR URKK 080930Z 09005MPS 030V120 9999 SCT030 SCT300 29/18 Q1012
NOSIG RMK QFE756 SC070=
METAR URKM 080930Z NIL=
METAR URML 080930Z 02003G08MPS 9999 SKC 32/21 Q1013 NOSIG RMK QFE759
/ 07=
METAR URMM 080930Z 10005G07MPS 9999 BKN040 29/19 Q1013 NOSIG RMK /
SC070=
METAR URMN 080930Z 09002MPS 9999 SCT026TCU BKN110 27/20 Q1014 NOSIG
RMK / QFE724 SC07=
METAR URMT 080930Z 08005G08MPS 9999 SCT020 28/17 Q1015 NOSIG RMK
QFE721 SC07=
METAR URRR 080930Z 08002MPS 9999 FEW026 29/12 Q1014 NOSIG RMK SC070=
METAR URSS 080930Z 28003MPS 9999 FEW040 28/21 Q1010 NOSIG RMK /
QFE757 06CLRD70=
METAR URWA 080930Z 35003MPS CAVOK 37/11 Q1011 NOSIG RMK SC07=
METAR URWI 080930Z VRB01MPS CAVOK 29/16 Q1013 NOSIG RMK SC065=
METAR URWW 080930Z 31004G07MPS CAVOK 29/16 Q1014 NOSIG RMK SC070=
####018000420####
SARA31 RUMS 080930
METAR UEEE 080930Z 00000MPS 9999 SCT050CB BKN100 23/09 Q1008 NOSIG
RMK QFE747 2309//60=
METAR UELL 080930Z NIL=
METAR UERP 080930Z 02005MPS 9999 SCT033CB BKN100 16/067 Q1014 NOSIG
RMK QFE716 35090065=
METAR UERR 080930Z 33003MPS 9999 BKN020CB 14/14 Q1012 NOSIG RMK
QFE727 24290255=
METAR UESO 080930Z NIL=
METAR UEST 080930Z 14002MPS CAVOK 07/03 Q1017 NOSIG RMK QFE762
21000060=
####018000740####
SARA36 RUMS 080930
METAR UWUU 080930Z 01003G06MPS CAVOK 27/08 Q1015 82010060 NOSIG RMK
QFE750/1001 MOD TURB 500-1600=
METAR USCC 080930Z 32008G12MPS 9999 SCT040 25/01 Q1014 NOSIG RMK
QFE740 27000070=
METAR USDD 080930Z 05009G12MPS CAVOK 17/01 Q1016 NOSIG RMK
QFE756/1008 SC060=
METAR USMU 080930Z 01006MPS 9999 SCT026CB OVC066 13/10 Q1005 NOSIG
RMK QFE748 09250345=
METAR USNN 080930Z 15005MPS P6000 SCT026 BKN200 18/09 Q1003 NOSIG RMK
QFE747 SC065=
METAR USRK 080930Z 35003MPS 6000 BKN019 OVC066 13/11 Q1003 NOSIG RMK
QFE746 351///55=
METAR USRR 080930Z 35004MPS 7000 OVC010 12/10 Q1004 TEMPO BKN007 RMK
QFE747 25////60=
METAR USSS 080930Z 35007G10MPS 310V030 CAVOK 24/04 Q1015 NOSIG RMK
QFE740 260///70=
####018000092####
SPCA32 KWBC 080940
SPECI
TISX 080934Z 09006KT 10SM BKN023 BKN027 27/24 A2997 RMK AO2=
####018000084####
SPCA42 KWBC 080940
SPECI
TISX 080934Z 09006KT 10SM BKN023 BKN027 27/24 A2997=
####018000098####
SPCN31 KWBC 080940
SPECI
CYSJ 080937Z 19006KT 1/8SM R23/1100V1600FT/N FG VV001 15/ RMK FG8=
####018000104####
SANK31 MNMG 080900
METAR
MNMG 080900Z 00000KT 9999 FEW020CB SCT022 25/24 Q1010 A2983
CB/N/NW/W/FL=
####018000117####
SACA45 KWBC 080800 RRA
METAR
MNMG 080800Z 00000KT 9999 FEW020CB SCT022 25/24 Q1010 A2985
     CB/N/NW/SW/FL=
####018000198####
SAEE31 KWBC 080930 RRB
METAR
UMMM 080930Z 28005MPS 9999 BKN020 19/15 Q1014 R30/290050 NOSIG RMK
     QFE741=
UMMS 080930Z 28004MPS 230V320 9999 BKN016 20/16 Q1014 R31/CLRD//
     NOSIG=
####018000167####
SAGR31 KWBC 080920 RRB
METAR
LGAL 080920Z 03008KT 9999 FEW008 FEW020TCU BKN025 BKN080 17/16
     Q1015=
LGLM 080920Z 03007KT 9999 FEW008 BKN020 21/17 Q1013=
####018000117####
SAMX31 KWBC 080845 RRE
METAR
MNMG 080800Z 00000KT 9999 FEW020CB SCT022 25/24 Q1010 A2985
     CB/N/NW/SW/FL=
####018000079####
SPUS41 KWBC 080940
SPECI
KBVY 080936Z 13006KT 6SM BR SCT015 22/20 A3007=
####018000053####
SANT31 KWBC 080900 RRC
METAR
GVAC 080930Z NIL=
####018000116####
SPNT31 KWBC 080940
SPECI
BGTL 080934Z AUTO 00000KT 0800 FG VV001 04/04 A2984 RMK AO2 VIS
2800 RWY26 SLP110=
####018000335####
SARA31 KWBC 080900 RRI
METAR
UMBB 080930Z 30003MPS 8000 FEW033 21/13 Q1018 NOSIG=
UMGG 080930Z 23005MPS 9999 BKN015CB BKN100 26/18 Q1013 R28/190055
     NOSIG=
UMMM 080930Z 28005MPS 9999 BKN020 19/15 Q1014 R30/290050 NOSIG RMK
     QFE741=
UMMS 080930Z 28004MPS 230V320 9999 BKN016 20/16 Q1014 R31/CLRD//
     NOSIG=
####018000088####
SPUS41 KWBC 080940
SPECI
KGON 080937Z AUTO 11009KT 9SM BKN004 OVC013 23/21 A3005=
####018000083####
SPCN52 CWAO 080935
SPECI CWSA 080935Z AUTO 23006KT 1/8SM VV001 16/16 A3020=

####018000091####
SPCN52 CWAO 080931
SPECI CWSA 080931Z AUTO 23006KT 1/8SM SCT005 BKN018 16/16 A3020=

####018000214####
SAXX99 KWBC 080900 RRX
METAR
KCBE 080938Z AUTO 00000KT 5SM CLR 20/18 A3010 RMK AO1=
KESN 080942Z AUTO 00000KT 2 1/2SM BR CLR 22/22 A3003 RMK AO2=
KFME 080939Z AUTO 00000KT 3SM SCT100 20/20 A3002 RMK AO1=
####018000085####
SPUS51 KWBC 080940
SPECI
KGFL 080937Z AUTO 00000KT 1/4SM FG VV020 20/20 A3003=
####018000091####
SPUS52 KWBC 080940
SPECI
KELD 080937Z AUTO 00000KT 6SM BR BKN001 BKN085 23/23 A3004=
####018000087####
SAUS20 KNKA 080939
SPECI KFIG 080938Z AUTO 02003KT 3SM BR CLR 17/17 A3011 RMK AO2=
