####018003715####
SAUS90 KWBC 080720
METAR KFKA 080722Z AUTO 31006KT 7SM CLR 20/19 A3006 RMK AO2
     T01960190=
METAR KFPK 080716Z AUTO 00000KT 3SM BR CLR 21/20 A3003 RMK AO2=
METAR KMOP 080714Z AUTO 00000KT 5SM BR CLR 22/22 A3002 RMK AO2=
METAR KCAD 080714Z AUTO 23003KT 10SM SCT110 22/21 A3004 RMK
     AO2=
METAR KMGN 080714Z AUTO 00000KT 7SM BKN100 21/20 A2998 RMK AO2=
METAR KHAI 080715Z AUTO 00000KT 7SM CLR 22/21 A3005 RMK AO2=
METAR KLWA 080716Z AUTO 00000KT 10SM SCT050 SCT065 BKN120 23/21
     A3004 RMK AO2=
METAR KDRM 080716Z AUTO 27006KT 242V312 2 1/2SM RA BKN001 BKN009
     OVC041 19/19 A3001 RMK AO2=
METAR KVLL 080714Z AUTO 00000KT 10SM CLR 26/21 A3006 RMK AO2=
METAR KCFS 080715Z AUTO 00000KT 2SM BR CLR 21/21 A3003 RMK AO2=
METAR KOZW 080715Z AUTO 00000KT 10SM CLR 23/21 A3005 RMK AO2=
METAR KRNP 080715Z AUTO 00000KT 10SM CLR 22/21 A3003 RMK AO2=
METAR KDUH 080715Z AUTO 00000KT 7SM CLR 22/18 A3005 RMK AO2=
METAR KJYM 080715Z AUTO 00000KT 5SM BR CLR 21/19 A3006 RMK AO2=
METAR KBAX 080715Z AUTO 00000KT 4SM BR SCT075 22/21 A3002 RMK
     AO2=
METAR KIRS 080715Z AUTO 00000KT 10SM CLR 23/19 A3005 RMK AO2=
METAR KACB 080715Z AUTO 00000KT 10SM OVC110 23/21 A2999 RMK
     AO2=
METAR KRQB 080714Z AUTO 00000KT 10SM -RA BKN065 BKN075 OVC090
     23/22 A3004 RMK AO2=
METAR KOEB 080715Z AUTO 27003KT 10SM CLR 23/20 A3005 RMK AO2=
METAR K4I3 080716Z AUTO 00000KT 10SM CLR 21/18 A3010 RMK AO2=
METAR KAUM 080715Z AUTO 32005KT 10SM SCT041 19/18 A3007 RMK
     AO2=
METAR KFFX 080715Z AUTO 26005KT 7SM -RA SCT075 OVC090 23/21 A3003
     RMK AO2=
METAR KCNB 080718Z AUTO 24004KT 10SM CLR 15/13 A3013 RMK AO2
     T01500125=
METAR KCKN 080715Z AUTO 26004KT 10SM CLR 15/12 A3004 RMK AO2=
METAR KCFE 080715Z AUTO 29003KT 10SM CLR 19/17 A3009 RMK AO2
     T01860165=
METAR KCQM 080717Z AUTO 00000KT 10SM CLR 13/13 A3005 RMK AO2=
METAR KDTL 080715Z AUTO 25005KT 10SM CLR 18/13 A3008 RMK AO2=
METAR KBDH 080715Z AUTO 29003KT 7SM CLR 15/14 A3011 RMK AO2=
METAR KCBG 080715Z AUTO 00000KT 10SM CLR 17/15 A3006 RMK AO2=
METAR KADC 080717Z AUTO 23004KT 10SM CLR 13/12 A3008 RMK AO2=
METAR KHAF 080710Z AUTO 26003KT 8SM OVC008 12/10 A2994 RMK AO2=
METAR KCKC 080715Z AUTO 29003KT 10SM CLR 15/13 A3004 RMK AO2=
METAR KJYG 080715Z AUTO 00000KT 10SM CLR 17/17 A3012 RMK AO2=
METAR KCOQ 080716Z AUTO 29004KT 10SM CLR 14/14 A3005 RMK AO2=
METAR KACQ 080719Z AUTO 31006KT 10SM CLR 17/17 A3010 RMK AO2=
METAR KRGK 080715Z AUTO 29003KT 10SM CLR 21/18 A3004 RMK AO2=
METAR KFSE 080714Z AUTO 21004KT 10SM CLR 14/13 A3004 RMK AO2=
METAR KY70 080715Z AUTO 23006KT 10SM SCT055 SCT065 BKN120 24/21
     A3002 RMK AO2 T02430213=
METAR KUKT 080715Z AUTO 00000KT 5SM CLR 22/21 A3003 RMK AO1=
METAR KTEW 080712Z AUTO 00000KT 7SM CLR 21/20 A3004 RMK AO2=
METAR KCVH 080710Z AUTO 00000KT 10SM CLR 12/11 A2993 RMK AO1=
METAR KDYT 080714Z AUTO 31004KT 10SM SCT060 22/16 A3004 RMK
     AO2=
METAR KFSO 080718Z AUTO 00000KT 5SM BR SCT070 23/22 A3000 RMK
     AO2=
METAR KFBL 080714Z AUTO 30004KT 10SM CLR 18/17 A3008 RMK AO2=
METAR KLYV 080718Z AUTO 00000KT 10SM CLR 14/13 A3016 RMK AO2=
METAR KEFK 080715Z AUTO 21003KT 4SM BR SCT050 SCT075 SCT085 21/20
     A3005 RMK AO2=
METAR KRRT 080714Z AUTO 23006KT 10SM CLR 16/13 A3000 RMK AO2=
METAR KTOB 080715Z AUTO 00000KT 10SM CLR 19/18 A3008 RMK AO2=
METAR KLXL 080714Z AUTO 00000KT 5SM BR CLR 13/12 A3008 RMK AO2=
METAR KEVM 080712Z AUTO 00000KT 1/2SM FG VV005 13/12 A3003 RMK
     AO1=
METAR KELO 080713Z AUTO 00000KT 10SM CLR 14/13 A3003 RMK AO2=
METAR KANE 080715Z AUTO 29005KT 10SM 19/17 A3007 RMK AO2=
METAR KROX 080714Z AUTO 25005KT 10SM CLR 17/14 A3000 RMK AO2=
####018001806####
SAUS90 KWBC 080720 RRA
METAR KSYN 080730Z AUTO 30003KT 10SM CLR 19/17 A3006 RMK AO2
     T01910173=
METAR KVVV 080716Z AUTO 23003KT 10SM CLR 17/14 A3011 RMK AO2=
METAR KROS 080715Z AUTO 30003KT 10SM CLR 18/16 A3006 RMK AO2
     T01770157=
METAR KHCD 080712Z AUTO 28003KT 10SM CLR 15/14 A3009 RMK AO2
     T01450135=
METAR KSGS 080713Z AUTO 32004KT 10SM CLR 21/17 A3006 RMK AO2
     T02060170=
METAR KMJQ 080712Z AUTO 29003KT 7SM CLR 15/15 A3013 RMK AO2=
METAR KHCO 080714Z AUTO 00000KT 10SM CLR 13/13 A3004 RMK AO2=
METAR KLVN 080708Z AUTO 31006KT 10SM CLR 19/17 A3007 RMK AO2=
METAR KPEX 080713Z AUTO 24003KT 7SM CLR 14/13 A3010 RMK AO2
     T01360134=
METAR KJMR 080718Z AUTO 00000KT 7SM CLR 15/13 A3008 RMK AO2=
METAR KJKJ 080714Z AUTO 23004KT 10SM CLR 17/16 A3005 RMK AO2=
METAR KMVE 080714Z AUTO 29004KT 10SM CLR 18/16 A3010 RMK AO2=
METAR KTKC 080713Z AUTO 25005KT 10SM CLR 15/14 A3014 RMK AO2
     T01540137=
METAR KGYL 080714Z AUTO 00000KT 10SM CLR 17/15 A3008 RMK AO2
     T01650152=
METAR KDXX 080714Z AUTO 00000KT 10SM CLR 15/15 A3010 RMK AO2=
METAR KHZX 080711Z AUTO 00000KT 4SM CLR 14/14 A3007 RMK AO2=
METAR KSAZ 080714Z AUTO 00000KT 10SM CLR 14/14 A3008 RMK AO2=
METAR KONA 080711Z AUTO 31004KT 10SM CLR 20/18 A3001 RMK AO2=
METAR KOVL 080714Z AUTO 00000KT 10SM CLR 14/12 A3010 RMK AO2
     T01400123=
METAR KLJF 080712Z AUTO 00000KT 10SM CLR 16/16 A3010 RMK AO2=
METAR KAEL 080710Z AUTO 31004KT 10SM CLR 18/17 A3007 RMK AO2=
METAR K29G 080714Z AUTO 00000KT 7SM CLR 20/18 A3009 RMK AO2
     T02000181 PWINO=
METAR KMRT 080713Z AUTO 00000KT 5SM CLR 21/19 A3011 RMK AO2
     T02110191=
METAR KIKW 080714Z AUTO 3SM BR CLR 22/21 A3001 RMK AO2
     T02160206=
METAR KMDS 080705Z AUTO 28004KT 10SM CLR 15/15 A3017 RMK AO2=
####018000132####
SANI20 DNMM 080700
METAR DNIB 080700Z 25002KT 9999 BKN011 24/23 Q1014=
METAR DNMA 080700Z 21007KT 9999 BKN060 28/23 Q1012=

####018000256####
SPUS99 KWBC 080720
SPECI
PAWD 080717Z AUTO 00000KT 2SM -RA BR SCT001 BKN048 OVC060 10/09
     A2998 RMK AO2 P0000 TSNO=
KBJJ 080718Z AUTO 00000KT 2 1/2SM BR CLR 19/18 A3010 RMK AO2=
KLHQ 080718Z AUTO 00000KT 2 1/2SM BR CLR 19/19 A3008 RMK AO2=
####018002448####
SAUS99 KWBC 080720
METAR
KBBF 080815Z AUTO VRB05G14KT 10SM FEW090 30/27 A2982 RMK A01=
KBQX 080715Z AUTO 12019G31KT 9SM SCT022 SCT036 BKN050 29/26 A2985
     RMK A01=
KDLP 080715Z AUTO 10SM SCT016 28/25 A2998 RMK A01=
KEDU 080715Z AUTO 18007KT 10SM CLR 16/10 A2981 RMK AO1=
KEHC 080715Z AUTO 11025KT 6SM HZ FEW016 FEW030 FEW036 28/26 A2992
     RMK A01=
KEIR 080715Z AUTO VRB05G16KT 9SM CLR 28/25 A2997 RMK A01=
KEMK 080715Z AUTO 14026KT 7SM FEW022 SCT048 BKN095 29/25 A2987 RMK
     A01=
KGBK 080715Z AUTO 10020G26KT 10SM CLR 29/25 A2990 RMK A01=
KHQI 080715Z AUTO 10032KT 7SM FEW034 SCT060 29/26 A2989 RMK
     A01=
KIPN 080715Z AUTO 11012KT 10SM CLR /57 A2998 RMK A01=
KMDJ 080715Z AUTO 13016KT 10SM FEW021 SCT044 BKN060 29/24 A2999
     RMK A01=
KMDZ 080715Z AUTO 28003KT 1 1/2SM BR BKN001 OVC006 20/19 A3003 RMK
     AO2=
KMHR 080715Z AUTO 18006KT 10SM CLR 15/10 A2984 RMK AO1=
KMIU 080715Z AUTO 10017KT 7SM FEW041 BKN050 BKN080 29/26 A2982 RMK
     A01=
KMRJ 080715Z AUTO 30004KT 10SM CLR 20/19 A3002 RMK AO2
     T02030187=
KMWC 080715Z AUTO 00000KT 10SM -RA SCT075 BKN085 OVC110 21/20
     A3001 RMK AO2 P0001=
KMYT 080715Z AUTO 13016G22KT 9SM CLR 28/24 A2996 RMK A01=
KMZG 080715Z AUTO 00000KT 10SM FEW024 FEW029 29/24 A2982 RMK
     A01=
KOEO 080715Z AUTO 00000KT 10SM CLR 19/17 A3006 RMK AO2=
KPBH 080715Z AUTO 00000KT 1 1/2SM BR OVC003 21/19 A3004 RMK
     AO2=
KPCZ 080715Z AUTO 18005KT 7SM CLR 22/20 A2998 RMK AO2
     T02170203=
KPDC 080713Z AUTO 00000KT 5SM BR OVC004 23/21 A3002 RMK AO2
     T02250212=
KRCX 080715Z AUTO 24003KT 10SM CLR 20/19 A3004 RMK AO2
     T01950185=
KRNH 080716Z AUTO 30003KT 10SM CLR 19/17 A3006 RMK AO2
     T01850170=
KRPD 080714Z AUTO 00000KT 10SM CLR 19/18 A3004 RMK AO2
     T01930175=
KRRL 080715Z AUTO 32004KT 7SM OVC001 19/19 A3002 RMK AO2
     T01910187=
KRYV 080715Z AUTO 00000KT 10SM -RA CLR 23/20 A3001 RMK AO2=
KSCF 080720Z AUTO 15022KT 8SM BKN018 BKN025 BKN029 29/26 A2991 RMK
     A01=
KSTE 080715Z AUTO 20004KT 4SM BR OVC005 22/21 A3000 RMK AO2=
KSUW 080715Z AUTO 30003KT 10SM SCT060 19/15 A3002 RMK AO2=
KTKV 080715Z AUTO 00000KT 7SM SCT010 BKN095 18/17 A3003 RMK AO2
     T01770170=
KUES 080715Z AUTO 24003KT 7SM SCT090 SCT110 21/20 A3003 RMK AO2
     T02120197=
KVBS 080715Z AUTO 12022KT 10SM SCT021 29/25 A2993 RMK A01=
KVNP 080715Z AUTO 10008G16KT 7SM 28/26 A2997 RMK A01=
####018000131####
SAAF05 LFPW 080700 RRC
METAR DNIB 080700Z 25002KT 9999 BKN011 24/23 Q1014=
METAR DNMA 080700Z 21007KT 9999 BKN060 28/23 Q1012=
####018000126####
SAAF13 LFPW 080700 RRB
METAR GGOV 080700Z 17006KT 140V200 9999 FEW009 SCT014TCU FEW020CB
      BKN090 26/25 Q1012  NOSIG=
####018000715####
SAAM31 FCBB 080700
METAR FCBB 080700Z 23005KT 4000  BR NSC 22/20 Q1016 BECMG 6000 NSW=
METAR FCPP 080700Z VRB03KT 1500 R17/P1500 BR BKN016 21/21 Q1014 BECMG
3000 BR=
METAR FKKD 080700Z VRB01KT 8000 TS BKN013 FEW016CB OVC120 25/24
Q1015 NOSIG=
METAR FKYS 080700Z 24003KT 8000 FEW003 BKN006 22/20 Q1019 NOSIG=
METAR FEFF 080700Z 00000KT 9999 SCT013 OVC150 23/23 Q1015 NOSIG=
METAR FOOL 080700Z 17007KT 140V200 8000 SCT010 BKN030 25/21 Q1015
NOSIG=
METAR FGSL 080700Z 00000KT 9999 SCT013 FEW020CB BKN130 25/25
Q1014 NOSIG=
METAR FZAA 080700Z 00000KT 3000 BR SKC 21/20 Q1016 NIL=
METAR FNLU 080700Z VRB03KT 5000 BKN020 21/19 Q1015 NOSIG=
METAR FPST 080700Z 18010KT 9999 FEW020 BKN110 23/20 Q1014 NOSIG=
####018000099####
SAAO33 DRRN 080700 RRA
METAR DFFD 080700Z 35004KT 270V040 9999 -RA FEW016 BKN130 23/22 Q1018
=
####018000191####
SPAU31 YBBN 080719
SPECI YPPH 080717Z 29009KT 1500 +SHRA FEW009 SCT022 OVC045 FEW022CB
15/14 Q1000
FM0717 33018G28KT 9999 -SHRA BKN020
INTER 0717/1017 27025G35KT 3000 +SHRA BKN010=
####018000148####
SAXX60 KWBC 080720
METAR
KGBK 080715Z AUTO 10020G26KT 10SM CLR 29/25 A2990 RMK A01=
KMHR 080715Z AUTO 18006KT 10SM CLR 15/10 A2984 RMK AO1=
####018000307####
SAUS80 KWBC 080720
METAR
KDVK 080717Z AUTO 00000KT 7SM 21/19 A3009 RMK AO1=
KMYT 080715Z AUTO 13016G22KT 9SM CLR 28/24 A2996 RMK A01=
KSCF 080720Z AUTO 15022KT 8SM BKN018 BKN025 BKN029 29/26 A2991 RMK
     A01=
KTKV 080715Z AUTO 00000KT 7SM SCT010 BKN095 18/17 A3003 RMK AO2
     T01770170=
####018000812####
SPXX60 KWBC 080720
SPECI
KWRI 080715Z AUTO 00000KT 3SM R18/5500VP6000FT R24/2800FT BR
     OVC001 24/24 A2999 RMK AO2 SLP156 $=
PACZ SP 0715 AWOS MM 10 54/51/0509/006=
PAEH SP 0715 AWOS M20 BKN 49 OVC 10 49/-19/0000/000=
PAIM SP 0715 AWOS CLR BLO 120 10 60/44/0000/008=
PALU SP 0715 AWOS CLR BLO 120 10 55/34/2223/009=
PASV SP 0715 AWOS M90 BKN 10 50/49/0000/996=
PATL SP 0715 AWOS CLR BLO 120 10 63/42/0404/999=
PGUA 080712Z AUTO 07014KT 10SM SCT017 BKN024 28/ A2986 RMK AO2 CIG
     021V026 BKN V SCT SLP092 VISNO RWY24L $=
PGUA 080716Z AUTO 07014KT 10SM SCT017 SCT023 28/ A2986 RMK AO2
     SCT023 V BKN SLP092 VISNO RWY24L $=
PHHI 080716Z AUTO 03004KT 9SM -RA SCT033 BKN055 22/18 A3006 RMK
     AO2 RAB0716 SLP169=
KNFW 080717Z AUTO 14006KT 10SM BKN022 27/22 A3003 RMK AO2=
####018000095####
SPUS80 KWBC 080720
SPECI
KMWT 080714Z AUTO 00000KT 10SM OVC014 23/23 A3004 RMK AO2 TSNO=
####018003696####
SAUS70 KWBC 080720
METAR
K14Y 080718Z AUTO 00000KT 5SM BR CLR 15/14 A3010 RMK AO2
     T01450142=
K4M9 080715Z AUTO 19005KT 10SM BKN039 25/25 A3005 RMK AO2=
KAEJ 080715Z AUTO 00000KT 10SM OVC046 10/07 A3046 RMK AO2=
KAIG 080715Z AUTO 29003KT 2 1/2SM BR OVC003 19/19 A3000 RMK
     AO2=
KARV 080712Z AUTO 29003KT 10SM CLR 19/18 A3003 RMK AO2
     T01870177=
KATW 080715Z AUTO 21007KT 10SM -RA SCT034 SCT060 BKN065 21/20
     A3000 RMK AO2 P0001=
KBVU 080715Z AUTO 33004KT 10SM CLR 26/02 A2984 RMK AO2=
KBWP 080711Z AUTO 25004KT 10SM CLR 16/14 A3008 RMK AO1
     T01560137=
KCWA 080715Z AUTO 00000KT 10SM SCT006 20/20 A3000 RMK AO2
     T01980198=
KDCM 080715Z AUTO 31003KT 7SM CLR 22/21 A3000 RMK AO2=
KEFT 080715Z AUTO 00000KT 10SM BKN080 OVC110 21/19 A3000 RMK AO2
     T02100193=
KEGV 080712Z AUTO 27003KT 4SM BR BKN002 OVC013 19/19 A3002 RMK AO2
     T01910192=
KETB 080712Z AUTO 28004KT 10SM SCT100 BKN120 22/21 A3001 RMK AO2
     T02240206=
KEZS 080715Z AUTO 00000KT 7SM -RA BKN005 OVC013 22/21 A2997 RMK
     AO2 P0001 T02200212=
KGLW 080713Z AUTO 08004KT 7SM CLR 22/20 A3007 RMK AO2
     T02150199=
KGYH 080715Z AUTO 29003KT 10SM CLR 23/19 A3003 RMK AO2=
KHFJ 080715Z AUTO 00000KT 7SM SCT060 23/23 A3003 RMK AO1=
KHYW 080715Z AUTO 00000KT 7SM BKN120 25/23 A2994 RMK AO2=
KJVL 080715Z AUTO 00000KT 10SM SCT050 OVC080 23/20 A3001 RMK AO2
     T02260200=
KLCK 080715Z AUTO 00000KT 5SM HZ CLR 23/21 A3007 RMK AO2
     T02340205=
KLNL 080715Z AUTO 00000KT 5SM BR CLR 19/18 A3002 RMK AO2
     T01850180=
KLUM 080715Z AUTO 27004KT 10SM SCT055 SCT070 20/19 A3003 RMK
     AO2=
KMCJ 080715Z AUTO 12011G18KT 9SM CLR 27/24 A2990 RMK AO1=
KMWO 080715Z AUTO 00000KT 4SM BR CLR 21/20 A3008 RMK AO2=
KPVB 080713Z AUTO 00000KT 10SM BKN120 20/19 A3002 RMK AO1
     T01960188=
KRZN 080714Z AUTO 31006KT 10SM OVC047 20/16 A3005 RMK AO2
     T01970162=
KSME 080715Z AUTO 00000KT 5SM BR 21/20 A3008 RMK AO2=
KUNI 080715Z AUTO 00000KT 1 1/2SM HZ VV007 23/18 A3007 RMK AO2
     T02270182=
KVES 080714Z AUTO 00000KT 7SM CLR 21/20 A3007 RMK AO2
     T02100196=
KY63 080720Z AUTO 20005KT 10SM CLR 16/15 A3009 RMK AO2
     T01550145=
KBBF 080815Z AUTO VRB05G14KT 10SM FEW090 30/27 A2982 RMK A01=
KBQX 080715Z AUTO 12019G31KT 9SM SCT022 SCT036 BKN050 29/26 A2985
     RMK A01=
KDLP 080715Z AUTO 10SM SCT016 28/25 A2998 RMK A01=
KEHC 080715Z AUTO 11025KT 6SM HZ FEW016 FEW030 FEW036 28/26 A2992
     RMK A01=
KEIR 080715Z AUTO VRB05G16KT 9SM CLR 28/25 A2997 RMK A01=
KEMK 080715Z AUTO 14026KT 7SM FEW022 SCT048 BKN095 29/25 A2987 RMK
     A01=
KHQI 080715Z AUTO 10032KT 7SM FEW034 SCT060 29/26 A2989 RMK
     A01=
KIPN 080715Z AUTO 11012KT 10SM CLR /57 A2998 RMK A01=
KMDJ 080715Z AUTO 13016KT 10SM FEW021 SCT044 BKN060 29/24 A2999
     RMK A01=
KMDZ 080715Z AUTO 28003KT 1 1/2SM BR BKN001 OVC006 20/19 A3003 RMK
     AO2=
KMIU 080715Z AUTO 10017KT 7SM FEW041 BKN050 BKN080 29/26 A2982 RMK
     A01=
KMRJ 080715Z AUTO 30004KT 10SM CLR 20/19 A3002 RMK AO2
     T02030187=
KMWC 080715Z AUTO 00000KT 10SM -RA SCT075 BKN085 OVC110 21/20
     A3001 RMK AO2 P0001=
KMZG 080715Z AUTO 00000KT 10SM FEW024 FEW029 29/24 A2982 RMK
     A01=
KOEO 080715Z AUTO 00000KT 10SM CLR 19/17 A3006 RMK AO2=
KPBH 080715Z AUTO 00000KT 1 1/2SM BR OVC003 21/19 A3004 RMK
     AO2=
KPCZ 080715Z AUTO 18005KT 7SM CLR 22/20 A2998 RMK AO2
     T02170203=
KPDC 080713Z AUTO 00000KT 5SM BR OVC004 23/21 A3002 RMK AO2
     T02250212=
KRCX 080715Z AUTO 24003KT 10SM CLR 20/19 A3004 RMK AO2
     T01950185=
KRNH 080716Z AUTO 30003KT 10SM CLR 19/17 A3006 RMK AO2
     T01850170=
####018000572####
SAUS70 KWBC 080720 RRA
METAR
KRPD 080714Z AUTO 00000KT 10SM CLR 19/18 A3004 RMK AO2
     T01930175=
KRRL 080715Z AUTO 32004KT 7SM OVC001 19/19 A3002 RMK AO2
     T01910187=
KRYV 080715Z AUTO 00000KT 10SM -RA CLR 23/20 A3001 RMK AO2=
KSTE 080715Z AUTO 20004KT 4SM BR OVC005 22/21 A3000 RMK AO2=
KSUW 080715Z AUTO 30003KT 10SM SCT060 19/15 A3002 RMK AO2=
KUES 080715Z AUTO 24003KT 7SM SCT090 SCT110 21/20 A3003 RMK AO2
     T02120197=
KVBS 080715Z AUTO 12022KT 10SM SCT021 29/25 A2993 RMK A01=
KVNP 080715Z AUTO 10008G16KT 7SM 28/26 A2997 RMK A01=
####018000616####
SPUS70 KWBC 080720
SPECI
KAMW 080717Z AUTO 35008KT 10SM BKN019 21/19 A3008 RMK AO2=
KLHX 080717Z AUTO 34011KT 7SM RA FEW024 OVC065 16/15 A3031 RMK AO2
     PNO $=
KMCI 080717Z 35003KT 9SM SCT008 BKN016 OVC045 23/22 A3008 RMK AO2
     $=
KSSF 080717Z AUTO 07006KT 10SM BKN019 26/23 A2993 RMK AO2=
KSTJ 080717Z AUTO 20008KT 5SM BR BKN004 OVC120 23/22 A3007 RMK
     AO2=
PAWD 080717Z AUTO 00000KT 2SM -RA BR SCT001 BKN048 OVC060 10/09
     A2998 RMK AO2 P0000 TSNO=
KBJJ 080718Z AUTO 00000KT 2 1/2SM BR CLR 19/18 A3010 RMK AO2=
KLHQ 080718Z AUTO 00000KT 2 1/2SM BR CLR 19/19 A3008 RMK AO2=
####018000463####
SAAF32 KWBC 080700 RRD
METAR
FCBB 080700Z 23005KT 4000 BR NSC 22/20 Q1016 BECMG 6000 NSW=
FCPP 080700Z VRB03KT 1500 R17/P1500 BR BKN016 21/21 Q1014 BECMG
     3000 BR=
FGSL 080700Z 00000KT 9999 SCT013 FEW020CB BKN130 25/25 Q1014
     NOSIG=
FKKD 080700Z VRB01KT 8000 TS BKN013 FEW016CB OVC120 25/24 Q1015
     NOSIG=
FOOL 080700Z 17007KT 140V200 8000 SCT010 BKN030 25/21 Q1015
     NOSIG=
FZAA 080700Z 00000KT 3000 BR SKC 21/20 Q1016 NIL=
####018000081####
SAAF31 KWBC 080700 RRB
METAR
DNMA 080700Z 21007KT 9999 BKN060 28/23 Q1012=
####018000191####
SPAU31 KWBC 080720
SPECI
YPPH 080717Z 29009KT 1500 +SHRA FEW009 SCT022 OVC045 FEW022CB
15/14 Q1000 FM0717 33018G28KT 9999 -SHRA BKN020 INTER 0717/1017
27025G35KT 3000 +SHRA BKN010=
####018000335####
SAAO33 KWBC 080700 RRB
METAR
GGOV 080700Z 17006KT 140V200 9999 FEW009 SCT014TCU FEW020CB BKN090
     26/25 Q1012 NOSIG=
GOGG 080700Z VRB02KT 9999 BKN015 SCT230 26/25 Q1012=
GOGS 080700Z 22006KT 9999 SCT015 SCT230 27/25 Q1011=
GOSS 080700Z 18002KT CAVOK 27/25 Q1011=
GOTT 080700Z 28006KT 9999 BKN013 FEW230 28/26 Q1012=
####018000028####
SAAW34 KWBC 080715
NIL=
####018000106####
SPIQ31 KWBC 080720
SPECI
KQMG 080714Z AUTO 03011KT 12SM FEW036 BKN100 21/15 A3016 RMK AO2
SLP141=
####018000028####
SADL33 KWBC 080715
NIL=
####018000090####
SPUS31 KWBC 080720
SPECI
KMCI 080717Z 35003KT 9SM SCT008 BKN016 OVC045 23/22 A3008=
####018000107####
SAIY43 KWBC 080650 RRC
METAR
LIQW 080655Z 29005KT CAVOK 26/20 Q1019 RMK SKC VIS MIN 9999
     BLU=
####018000553####
SAXX99 KWBC 080700 RRP
METAR
CZEV 080700Z AUTO 31014KT 07/04 RMK AO1 PK WND 29027/0604 SLP172
     T00700038 51017=
CZFS 080700Z AUTO 31003KT 16/14 RMK AO1 SLP155 T01570140 51006=
CZSM 080700Z AUTO 27002KT 13/09 RMK AO1 SLP131 T01330088 58002=
DNIB 080700Z 25002KT 9999 BKN011 24/23 Q1014=
EYPA 080720Z 33006KT 250V050 CAVOK 19/15 Q1017 NOSIG=
FKYS 080700Z 24003KT 8000 FEW003 BKN006 22/20 Q1019 NOSIG=
KGYH 080715Z AUTO 29003KT 10SM CLR 23/19 A3003 RMK AO2=
VTUU 080700Z 22006KT 9999 FEW025 SCT300 35/22 Q1006 A2971
     NOSIG=
####018000101####
SAAO33 DRRN 080700 RRA
METAR DFFD 080700Z 35004KT 270V040 9999 -RA FEW016 BKN130 23/22 Q1018
=
####018000100####
SAUS46 KSGX 080720
MTRNXF
SPECI KNXF 080718Z AUTO 30007KT 7SM OVC015 17/13 A2991 RMK AO2 TSNO
####018000083####
SPCN48 CWAO 080718
SPECI CYPH 080718Z AUTO 24019KT 5/8SM VV001 06/05 A2976=

####018000108####
SAAM31 FCBB 080700 RRB
METAR FCPP 080700Z VRB03KT 1500 R17/P1500 BR BKN016 21/21 Q1014 BECMG
3000 BR=
####018000090####
SPUS73 KWBC 080720
SPECI
KMCI 080717Z 35003KT 9SM SCT008 BKN016 OVC045 23/22 A3008=
####018000091####
SPUS73 KWBC 080720
SPECI
KSTJ 080717Z AUTO 20008KT 5SM BR BKN004 OVC120 23/22 A3007=
####018000255####
SASG21 GOOY 080700
METAR GOTT 080700Z 28006KT 9999 BKN013 FEW230 28/26 Q1012=
METAR GOGS 080700Z 22006KT 9999 SCT015 SCT230 27/25 Q1011=
METAR GOSS 080700Z 18002KT CAVOK 27/25 Q1011=
METAR GOGG 080700Z VRB02KT 9999 BKN015 SCT230 26/25 Q1012=

####018000257####
SPNA14 KAWN 080720 RRB
SPECI KWRI 080715Z AUTO 00000KT 3SM R18/5500VP6000FT R24/2800FT BR
      OVC001 24/24 A2999 RMK AO2 SLP156 $=
SPECI KWRI 080719Z AUTO 00000KT 2 1/2SM R18/5000VP6000FT R24/2800FT
      BR OVC001 24/24 A2999 RMK AO2 SLP156 $=
####018000257####
SPNA35 KAWN 080720 RRB
SPECI KWRI 080715Z AUTO 00000KT 3SM R18/5500VP6000FT R24/2800FT BR
      OVC001 24/24 A2999 RMK AO2 SLP156 $=
SPECI KWRI 080719Z AUTO 00000KT 2 1/2SM R18/5000VP6000FT R24/2800FT
      BR OVC001 24/24 A2999 RMK AO2 SLP156 $=
####018003000####
SAUS20 KNKA 080720
METAR KEVM 080712Z AUTO 00000KT 1/2SM FG VV005 13/12 A3003 RMK
     AO1=
METAR KFBL 080714Z AUTO 30004KT 10SM CLR 18/17 A3008 RMK AO2=
METAR KFFL 080715Z AUTO 28003KT 4SM CLR 22/20 A3003 RMK AO2=
METAR KFFX 080715Z AUTO 26005KT 7SM -RA SCT075 OVC090 23/21 A3003
     RMK AO2=
METAR KFKA 080722Z AUTO 31006KT 7SM CLR 20/19 A3006 RMK AO2
     T01960190=
METAR KFPK 080716Z AUTO 00000KT 3SM BR CLR 21/20 A3003 RMK AO2=
METAR KFSE 080714Z AUTO 21004KT 10SM CLR 14/13 A3004 RMK AO2=
METAR KFSO 080718Z AUTO 00000KT 5SM BR SCT070 23/22 A3000 RMK
     AO2=
METAR KFSW 080715Z AUTO 19003KT 7SM CLR 23/21 A3002 RMK AO2=
METAR KFXY 080715Z AUTO 31004KT 10SM CLR 18/17 A3009 RMK AO2=
METAR KGGI 080715Z AUTO 32004KT 10SM CLR 22/20 A3006 RMK AO2=
METAR KGYL 080714Z AUTO 00000KT 10SM CLR 17/15 A3008 RMK AO2
     T01650152=
METAR KHAF 080710Z AUTO 26003KT 8SM OVC008 12/10 A2994 RMK AO2=
METAR KHAI 080715Z AUTO 00000KT 7SM CLR 22/21 A3005 RMK AO2=
METAR KHCD 080712Z AUTO 28003KT 10SM CLR 15/14 A3009 RMK AO2
     T01450135=
METAR KHCO 080714Z AUTO 00000KT 10SM CLR 13/13 A3004 RMK AO2=
METAR KHNR 080715Z AUTO 34003KT 7SM CLR 18/18 A3014 RMK AO2=
METAR KHXD 080715Z AUTO 24007KT 10SM CLR 24/21 A2999 RMK AO2 P0000 
     =
METAR KHZX 080711Z AUTO 00000KT 4SM CLR 14/14 A3007 RMK AO2=
METAR KICL 080715Z AUTO 01004KT 10SM CLR 22/19 A3007 RMK AO2=
METAR KIFA 080715Z AUTO 32004KT 7SM BKN018 BKN090 BKN110 20/20 
     A3008 RMK AO2=
METAR KIKW 080714Z AUTO 3SM BR CLR 22/21 A3001 RMK AO2
     T02160206=
METAR KIRS 080715Z AUTO 00000KT 10SM CLR 23/19 A3005 RMK AO2=
SPECI KISW 080719Z AUTO 26005KT 10SM FEW007 22/21 A3000 RMK AO2 TSNO=
METAR KJKJ 080714Z AUTO 23004KT 10SM CLR 17/16 A3005 RMK AO2=
METAR KJMR 080718Z AUTO 00000KT 7SM CLR 15/13 A3008 RMK AO2=
METAR KJYG 080715Z AUTO 00000KT 10SM CLR 17/17 A3012 RMK AO2=
METAR KJYM 080715Z AUTO 00000KT 5SM BR CLR 21/19 A3006 RMK AO2=
METAR KJZI 080715Z AUTO 28007KT 10SM CLR 24/24 A2996 RMK A02 P000 
     =
METAR KLJF 080712Z AUTO 00000KT 10SM CLR 16/16 A3010 RMK AO2=
METAR KLVN 080708Z AUTO 31006KT 10SM CLR 19/17 A3007 RMK AO2=
METAR KLWA 080716Z AUTO 00000KT 10SM SCT050 SCT065 BKN120 23/21
     A3004 RMK AO2=
METAR KLXL 080714Z AUTO 00000KT 5SM BR CLR 13/12 A3008 RMK AO2=
METAR KLYV 080718Z AUTO 00000KT 10SM CLR 14/13 A3016 RMK AO2=
METAR KMDS 080705Z AUTO 28004KT 10SM CLR 15/15 A3017 RMK AO2=
METAR KMGN 080714Z AUTO 00000KT 7SM BKN100 21/20 A2998 RMK AO2=
METAR KMJQ 080712Z AUTO 29003KT 7SM CLR 15/15 A3013 RMK AO2=
METAR KMOP 080714Z AUTO 00000KT 5SM BR CLR 22/22 A3002 RMK AO2=
METAR KMRT 080713Z AUTO 00000KT 5SM CLR 21/19 A3011 RMK AO2
     T02110191=
METAR KMVE 080714Z AUTO 29004KT 10SM CLR 18/16 A3010 RMK AO2=
METAR KOEB 080715Z AUTO 27003KT 10SM CLR 23/20 A3005 RMK AO2=
METAR KONA 080711Z AUTO 31004KT 10SM CLR 20/18 A3001 RMK AO2=
METAR KOVL 080714Z AUTO 00000KT 10SM CLR 14/12 A3010 RMK AO2
     T01400123=
####018002955####
SAUS20 KNKA 080720
METAR K29G 080714Z AUTO 00000KT 7SM CLR 20/18 A3009 RMK AO2
     T02000181 PWINO=
METAR K4I3 080716Z AUTO 00000KT 10SM CLR 21/18 A3010 RMK AO2=
METAR KACB 080715Z AUTO 00000KT 10SM OVC110 23/21 A2999 RMK
     AO2=
METAR KACQ 080719Z AUTO 31006KT 10SM CLR 17/17 A3010 RMK AO2=
METAR KADC 080717Z AUTO 23004KT 10SM CLR 13/12 A3008 RMK AO2=
METAR KAEL 080710Z AUTO 31004KT 10SM CLR 18/17 A3007 RMK AO2=
METAR KANE 080715Z AUTO 29005KT 10SM 19/17 A3007 RMK AO2=
METAR KAUM 080715Z AUTO 32005KT 10SM SCT041 19/18 A3007 RMK
     AO2=
METAR KAWG 080715Z AUTO 26003KT 7SM CLR 22/20 A3002 RMK AO2=
METAR KAXA 080715Z AUTO 32005KT 10SM CLR 18/18 A3010 RMK AO2=
METAR KBAX 080715Z AUTO 00000KT 4SM BR SCT075 22/21 A3002 RMK
     AO2=
METAR KBDH 080715Z AUTO 29003KT 7SM CLR 15/14 A3011 RMK AO2=
METAR KBNW 080715Z AUTO 34006KT 10SM CLR 21/18 A3009 RMK AO2=
METAR KBWD 080715Z AUTO 13003KT 10SM FEW021 SCT025 BKN030 23/22 
     A3000 RMK AO2 =
METAR KCAD 080714Z AUTO 23003KT 10SM SCT110 22/21 A3004 RMK
     AO2=
METAR KCAV 080715Z AUTO 00000KT 10SM SCT025 21/20 A3008 RMK AO2=
METAR KCBF 080715Z AUTO 35005KT 10SM CLR 20/16 A3011 RMK AO2=
METAR KCBG 080715Z AUTO 00000KT 10SM CLR 17/15 A3006 RMK AO2=
METAR KCCY 080715Z AUTO 00000KT 7SM BKN025 20/17 A3007 RMK AO2=
METAR KCFE 080715Z AUTO 29003KT 10SM CLR 19/17 A3009 RMK AO2
     T01860165=
METAR KCFS 080715Z AUTO 00000KT 2SM BR CLR 21/21 A3003 RMK AO2=
METAR KCIN 080715Z AUTO 34005KT 7SM CLR 20/17 A3011 RMK AO2=
METAR KCKC 080715Z AUTO 29003KT 10SM CLR 15/13 A3004 RMK AO2=
METAR KCKN 080715Z AUTO 26004KT 10SM CLR 15/12 A3004 RMK AO2=
METAR KCLI 080715Z AUTO 00000KT 7SM -RA BKN004 22/21 A2998 RMK AO2=
METAR KCMY 080715Z AUTO 30003KT 10SM CLR 21/20 A3002 RMK AO2 
     T02140204=
METAR KCNB 080718Z AUTO 24004KT 10SM CLR 15/13 A3013 RMK AO2
     T01500125=
METAR KCNC 080715Z AUTO 00000KT 10SM CLR 21/18 A3005 RMK AO2=
METAR KCOQ 080716Z AUTO 29004KT 10SM CLR 14/14 A3005 RMK AO2=
METAR KCQM 080717Z AUTO 00000KT 10SM CLR 13/13 A3005 RMK AO2=
METAR KCSQ 080715Z AUTO 33004KT 7SM CLR 21/20 A3008 RMK AO2=
METAR KCVH 080710Z AUTO 00000KT 10SM CLR 12/11 A2993 RMK AO1=
METAR KDEH 080715Z AUTO 00000KT 10SM CLR 21/18 A3006 RMK AO2=
METAR KDNS 080715Z AUTO 36003KT 7SM OVC025 21/17 A3014 RMK AO2=
METAR KDRM 080716Z AUTO 27006KT 242V312 2 1/2SM RA BKN001 BKN009
     OVC041 19/19 A3001 RMK AO2=
METAR KDTL 080715Z AUTO 25005KT 10SM CLR 18/13 A3008 RMK AO2=
METAR KDUH 080715Z AUTO 00000KT 7SM CLR 22/18 A3005 RMK AO2=
METAR KDXX 080714Z AUTO 00000KT 10SM CLR 15/15 A3010 RMK AO2=
METAR KDYT 080714Z AUTO 31004KT 10SM SCT060 22/16 A3004 RMK
     AO2=
METAR KEFK 080715Z AUTO 21003KT 4SM BR SCT050 SCT075 SCT085 21/20
     A3005 RMK AO2=
METAR KELO 080713Z AUTO 00000KT 10SM CLR 14/13 A3003 RMK AO2=
METAR KEOK 080715Z AUTO 00000KT 10SM SCT055 SCT100 BKN120 23/20 
     A3002 RMK AO2=
####018000107####
SAUS46 KLOX 080720
MTR3A6
METAR K3A6 080810Z AUTO 36003KT 11/10 A2990 RMK AO1 SLP143 T01130100 52027
####018001598####
SAUS20 KNKA 080720
METAR KOZW 080715Z AUTO 00000KT 10SM CLR 23/21 A3005 RMK AO2=
METAR KPEX 080713Z AUTO 24003KT 7SM CLR 14/13 A3010 RMK AO2
     T01360134=
METAR KRGK 080715Z AUTO 29003KT 10SM CLR 21/18 A3004 RMK AO2=
METAR KRNP 080715Z AUTO 00000KT 10SM CLR 22/21 A3003 RMK AO2=
METAR KROS 080715Z AUTO 30003KT 10SM CLR 18/16 A3006 RMK AO2
     T01770157=
METAR KROX 080714Z AUTO 25005KT 10SM CLR 17/14 A3000 RMK AO2=
METAR KRQB 080714Z AUTO 00000KT 10SM -RA BKN065 BKN075 OVC090
     23/22 A3004 RMK AO2=
METAR KRRT 080714Z AUTO 23006KT 10SM CLR 16/13 A3000 RMK AO2=
SPECI KRVS 080719Z 17004KT 1 1/2SM +TSRA BR SCT008 BKN015 OVC041 
    23/23 A3002 RMK AO2 TSB18 P0018=
METAR KSAZ 080714Z AUTO 00000KT 10SM CLR 14/14 A3008 RMK AO2=
METAR KSGS 080713Z AUTO 32004KT 10SM CLR 21/17 A3006 RMK AO2
     T02060170=
METAR KSPF 080715Z AUTO 00000KT 10SM CLR 12/08 A3028 RMK AO2 =
METAR KSYN 080730Z AUTO 30003KT 10SM CLR 19/17 A3006 RMK AO2
     T01910173=
METAR KTEW 080712Z AUTO 00000KT 7SM CLR 21/20 A3004 RMK AO2=
METAR KTKC 080713Z AUTO 25005KT 10SM CLR 15/14 A3014 RMK AO2
     T01540137=
METAR KTOB 080715Z AUTO 00000KT 10SM CLR 19/18 A3008 RMK AO2=
METAR KUKT 080715Z AUTO 00000KT 5SM CLR 22/21 A3003 RMK AO1=
METAR KUNU 080712Z AUTO 00000KT 10SM -RA SCT041 SCT055 BKN070 
     21/20 A3002 RMK AO2 P0001 T02100195=
METAR KVLL 080714Z AUTO 00000KT 10SM CLR 26/21 A3006 RMK AO2=
METAR KVVV 080716Z AUTO 23003KT 10SM CLR 17/14 A3011 RMK AO2=
METAR KY70 080715Z AUTO 23006KT 10SM SCT055 SCT065 BKN120 24/21
     A3002 RMK AO2 T02430213=
####018000083####
SPCN42 CWAO 080719
SPECI CYUA 080719Z AUTO 31016G22KT 9SM OVC006 05/ A3007=

####018000121####
SAMH31 PKWA 080720
METAR PKWA 080720Z AUTO 06013KT 4SM +RA SCT007 BKN039 OVC060 25/23 A2983 RMK AO2 P0007 T02520232=
####018003747####
SAUS99 KWBC 080721
METAR
KEVM 080712Z AUTO 00000KT 1/2SM FG VV005 13/12 A3003 RMK AO1=
KFBL 080714Z AUTO 30004KT 10SM CLR 18/17 A3008 RMK AO2=
KFFL 080715Z AUTO 28003KT 4SM CLR 22/20 A3003 RMK AO2=
KFFX 080715Z AUTO 26005KT 7SM -RA SCT075 OVC090 23/21 A3003 RMK
     AO2=
KFKA 080722Z AUTO 31006KT 7SM CLR 20/19 A3006 RMK AO2
     T01960190=
KFPK 080716Z AUTO 00000KT 3SM BR CLR 21/20 A3003 RMK AO2=
KFSE 080714Z AUTO 21004KT 10SM CLR 14/13 A3004 RMK AO2=
KFSO 080718Z AUTO 00000KT 5SM BR SCT070 23/22 A3000 RMK AO2=
KFSW 080715Z AUTO 19003KT 7SM CLR 23/21 A3002 RMK AO2=
KFXY 080715Z AUTO 31004KT 10SM CLR 18/17 A3009 RMK AO2=
KGGI 080715Z AUTO 32004KT 10SM CLR 22/20 A3006 RMK AO2=
KGYL 080714Z AUTO 00000KT 10SM CLR 17/15 A3008 RMK AO2
     T01650152=
KHAF 080710Z AUTO 26003KT 8SM OVC008 12/10 A2994 RMK AO2=
KHAI 080715Z AUTO 00000KT 7SM CLR 22/21 A3005 RMK AO2=
KHCD 080712Z AUTO 28003KT 10SM CLR 15/14 A3009 RMK AO2
     T01450135=
KHCO 080714Z AUTO 00000KT 10SM CLR 13/13 A3004 RMK AO2=
KHNR 080715Z AUTO 34003KT 7SM CLR 18/18 A3014 RMK AO2=
KHXD 080715Z AUTO 24007KT 10SM CLR 24/21 A2999 RMK AO2 P0000=
KHZX 080711Z AUTO 00000KT 4SM CLR 14/14 A3007 RMK AO2=
KICL 080715Z AUTO 01004KT 10SM CLR 22/19 A3007 RMK AO2=
KIFA 080715Z AUTO 32004KT 7SM BKN018 BKN090 BKN110 20/20 A3008 RMK
     AO2=
KIKW 080714Z AUTO 3SM BR CLR 22/21 A3001 RMK AO2 T02160206=
KIRS 080715Z AUTO 00000KT 10SM CLR 23/19 A3005 RMK AO2=
KJKJ 080714Z AUTO 23004KT 10SM CLR 17/16 A3005 RMK AO2=
KJMR 080718Z AUTO 00000KT 7SM CLR 15/13 A3008 RMK AO2=
KJYG 080715Z AUTO 00000KT 10SM CLR 17/17 A3012 RMK AO2=
KJYM 080715Z AUTO 00000KT 5SM BR CLR 21/19 A3006 RMK AO2=
KJZI 080715Z AUTO 28007KT 10SM CLR 24/24 A2996 RMK A02 P000=
KLJF 080712Z AUTO 00000KT 10SM CLR 16/16 A3010 RMK AO2=
KLVN 080708Z AUTO 31006KT 10SM CLR 19/17 A3007 RMK AO2=
KLWA 080716Z AUTO 00000KT 10SM SCT050 SCT065 BKN120 23/21 A3004
     RMK AO2=
KLXL 080714Z AUTO 00000KT 5SM BR CLR 13/12 A3008 RMK AO2=
KLYV 080718Z AUTO 00000KT 10SM CLR 14/13 A3016 RMK AO2=
KMDS 080705Z AUTO 28004KT 10SM CLR 15/15 A3017 RMK AO2=
KMGN 080714Z AUTO 00000KT 7SM BKN100 21/20 A2998 RMK AO2=
KMJQ 080712Z AUTO 29003KT 7SM CLR 15/15 A3013 RMK AO2=
KMOP 080714Z AUTO 00000KT 5SM BR CLR 22/22 A3002 RMK AO2=
KMRT 080713Z AUTO 00000KT 5SM CLR 21/19 A3011 RMK AO2
     T02110191=
KMVE 080714Z AUTO 29004KT 10SM CLR 18/16 A3010 RMK AO2=
KOEB 080715Z AUTO 27003KT 10SM CLR 23/20 A3005 RMK AO2=
KONA 080711Z AUTO 31004KT 10SM CLR 20/18 A3001 RMK AO2=
KOVL 080714Z AUTO 00000KT 10SM CLR 14/12 A3010 RMK AO2
     T01400123=
K29G 080714Z AUTO 00000KT 7SM CLR 20/18 A3009 RMK AO2 T02000181
     PWINO=
K4I3 080716Z AUTO 00000KT 10SM CLR 21/18 A3010 RMK AO2=
KACB 080715Z AUTO 00000KT 10SM OVC110 23/21 A2999 RMK AO2=
KACQ 080719Z AUTO 31006KT 10SM CLR 17/17 A3010 RMK AO2=
KADC 080717Z AUTO 23004KT 10SM CLR 13/12 A3008 RMK AO2=
KAEL 080710Z AUTO 31004KT 10SM CLR 18/17 A3007 RMK AO2=
KANE 080715Z AUTO 29005KT 10SM 19/17 A3007 RMK AO2=
KAUM 080715Z AUTO 32005KT 10SM SCT041 19/18 A3007 RMK AO2=
KAWG 080715Z AUTO 26003KT 7SM CLR 22/20 A3002 RMK AO2=
KAXA 080715Z AUTO 32005KT 10SM CLR 18/18 A3010 RMK AO2=
KBAX 080715Z AUTO 00000KT 4SM BR SCT075 22/21 A3002 RMK AO2=
KBDH 080715Z AUTO 29003KT 7SM CLR 15/14 A3011 RMK AO2=
KBNW 080715Z AUTO 34006KT 10SM CLR 21/18 A3009 RMK AO2=
KBWD 080715Z AUTO 13003KT 10SM FEW021 SCT025 BKN030 23/22 A3000
     RMK AO2=
KCAD 080714Z AUTO 23003KT 10SM SCT110 22/21 A3004 RMK AO2=
KCAV 080715Z AUTO 00000KT 10SM SCT025 21/20 A3008 RMK AO2=
KCBF 080715Z AUTO 35005KT 10SM CLR 20/16 A3011 RMK AO2=
KCBG 080715Z AUTO 00000KT 10SM CLR 17/15 A3006 RMK AO2=
####018000196####
SPUS99 KWBC 080721
SPECI
KISW 080719Z AUTO 26005KT 10SM FEW007 22/21 A3000 RMK AO2 TSNO=
KRVS 080719Z 17004KT 1 1/2SM +TSRA BR SCT008 BKN015 OVC041 23/23
     A3002 RMK AO2 TSB18 P0018=
####018002924####
SAUS99 KWBC 080721 RRA
METAR
KCCY 080715Z AUTO 00000KT 7SM BKN025 20/17 A3007 RMK AO2=
KCFE 080715Z AUTO 29003KT 10SM CLR 19/17 A3009 RMK AO2
     T01860165=
KCFS 080715Z AUTO 00000KT 2SM BR CLR 21/21 A3003 RMK AO2=
KCIN 080715Z AUTO 34005KT 7SM CLR 20/17 A3011 RMK AO2=
KCKC 080715Z AUTO 29003KT 10SM CLR 15/13 A3004 RMK AO2=
KCKN 080715Z AUTO 26004KT 10SM CLR 15/12 A3004 RMK AO2=
KCLI 080715Z AUTO 00000KT 7SM -RA BKN004 22/21 A2998 RMK AO2=
KCMY 080715Z AUTO 30003KT 10SM CLR 21/20 A3002 RMK AO2
     T02140204=
KCNB 080718Z AUTO 24004KT 10SM CLR 15/13 A3013 RMK AO2
     T01500125=
KCNC 080715Z AUTO 00000KT 10SM CLR 21/18 A3005 RMK AO2=
KCOQ 080716Z AUTO 29004KT 10SM CLR 14/14 A3005 RMK AO2=
KCQM 080717Z AUTO 00000KT 10SM CLR 13/13 A3005 RMK AO2=
KCSQ 080715Z AUTO 33004KT 7SM CLR 21/20 A3008 RMK AO2=
KCVH 080710Z AUTO 00000KT 10SM CLR 12/11 A2993 RMK AO1=
KDEH 080715Z AUTO 00000KT 10SM CLR 21/18 A3006 RMK AO2=
KDNS 080715Z AUTO 36003KT 7SM OVC025 21/17 A3014 RMK AO2=
KDRM 080716Z AUTO 27006KT 242V312 2 1/2SM RA BKN001 BKN009 OVC041
     19/19 A3001 RMK AO2=
KDTL 080715Z AUTO 25005KT 10SM CLR 18/13 A3008 RMK AO2=
KDUH 080715Z AUTO 00000KT 7SM CLR 22/18 A3005 RMK AO2=
KDXX 080714Z AUTO 00000KT 10SM CLR 15/15 A3010 RMK AO2=
KDYT 080714Z AUTO 31004KT 10SM SCT060 22/16 A3004 RMK AO2=
KEFK 080715Z AUTO 21003KT 4SM BR SCT050 SCT075 SCT085 21/20 A3005
     RMK AO2=
KELO 080713Z AUTO 00000KT 10SM CLR 14/13 A3003 RMK AO2=
KEOK 080715Z AUTO 00000KT 10SM SCT055 SCT100 BKN120 23/20 A3002
     RMK AO2=
KOZW 080715Z AUTO 00000KT 10SM CLR 23/21 A3005 RMK AO2=
KPEX 080713Z AUTO 24003KT 7SM CLR 14/13 A3010 RMK AO2
     T01360134=
KRGK 080715Z AUTO 29003KT 10SM CLR 21/18 A3004 RMK AO2=
KRNP 080715Z AUTO 00000KT 10SM CLR 22/21 A3003 RMK AO2=
KROS 080715Z AUTO 30003KT 10SM CLR 18/16 A3006 RMK AO2
     T01770157=
KROX 080714Z AUTO 25005KT 10SM CLR 17/14 A3000 RMK AO2=
KRQB 080714Z AUTO 00000KT 10SM -RA BKN065 BKN075 OVC090 23/22
     A3004 RMK AO2=
KRRT 080714Z AUTO 23006KT 10SM CLR 16/13 A3000 RMK AO2=
KSAZ 080714Z AUTO 00000KT 10SM CLR 14/14 A3008 RMK AO2=
KSGS 080713Z AUTO 32004KT 10SM CLR 21/17 A3006 RMK AO2
     T02060170=
KSPF 080715Z AUTO 00000KT 10SM CLR 12/08 A3028 RMK AO2=
KSYN 080730Z AUTO 30003KT 10SM CLR 19/17 A3006 RMK AO2
     T01910173=
KTEW 080712Z AUTO 00000KT 7SM CLR 21/20 A3004 RMK AO2=
KTKC 080713Z AUTO 25005KT 10SM CLR 15/14 A3014 RMK AO2
     T01540137=
KTOB 080715Z AUTO 00000KT 10SM CLR 19/18 A3008 RMK AO2=
KUKT 080715Z AUTO 00000KT 5SM CLR 22/21 A3003 RMK AO1=
KUNU 080712Z AUTO 00000KT 10SM -RA SCT041 SCT055 BKN070 21/20
     A3002 RMK AO2 P0001 T02100195=
KVLL 080714Z AUTO 00000KT 10SM CLR 26/21 A3006 RMK AO2=
KVVV 080716Z AUTO 23003KT 10SM CLR 17/14 A3011 RMK AO2=
KY70 080715Z AUTO 23006KT 10SM SCT055 SCT065 BKN120 24/21 A3002
     RMK AO2 T02430213=
####018000082####
SAFR36 LFPW 080700 CCA
METAR COR LFBE 080700Z VRB03KT CAVOK 21/16 Q1018 NOSIG=
####018000106####
SAAM31 FCBB 080700 RRB
METAR FCPP 080700Z VRB03KT 1500 R17/P1500 BR BKN016 21/21 Q1014 BECMG
3000 BR=
####018000076####
SALT32 EYVI 080720
METAR EYKA 080720Z 28008KT 250V310 CAVOK 18/14 Q1015=
####018000080####
SAEO31 EETN 080720
METAR EETN 080720Z 32007KT 9999 FEW010 22/18 Q1014 NOSIG=
####018000080####
SALV31 EVRA 080720
METAR EVRA 080720Z 32011KT 9999 OVC005 18/17 Q1014 NOSIG=
####018000100####
SALT31 EYVI 080720
METAR EYVI 080720Z 27007KT 2600 SHRA BKN010CB OVC020 15/14 Q1014
     NOSIG=
####018000131####
SAAK31 KWBC 080700 RRA
METAR
PAVD 080716Z 00000KT 10SM OVC090 10/07 A3011=
PAWG 080716Z AUTO 28005KT 10SM CLR 15/11 A3013=
####018000129####
SAAK32 KWBC 080700 RRA
METAR
PADK 080716Z 06011KT 10SM 07/06 A2959=
PADL 080716Z 30006KT 10SM BKN060 OVC120 11/08 A2997=
####018000110####
SAPA41 KWBC 080700 RRA
METAR
PKWA 080720Z AUTO 06013KT 4SM +RA SCT007 BKN039 OVC060 25/23
     A2983=
####018000110####
SAPQ31 KWBC 080700 RRA
METAR
PKWA 080720Z AUTO 06013KT 4SM +RA SCT007 BKN039 OVC060 25/23
     A2983=
####018000178####
SAUS20 KNKA 080720
SPECI KHZY 080719Z AUTO 00000KT 2SM BR CLR 19/19 A3008 RMK AO2=
SPECI KUCP 080720Z AUTO 00000KT 1 1/2SM BR CLR 19/19 A3010 RMK AO2 
    VIS 1V2 1/2 $=
####018000118####
SPUS41 KWBC 080721
SPECI
KWRI 080719Z AUTO 00000KT 2 1/2SM R18/5000VP6000FT R24/2800FT BR
OVC001 24/24 A2999=
####018000083####
SAUS43 KWBC 080700 RRE
METAR
KELO 080713Z AUTO 00000KT 10SM CLR 14/13 A3003=
####018000119####
SPCN46 CWAO 080720
SPECI CYQA 080720Z AUTO 00000KT 2 1/4SM BR CLR 19/19 A3003 RMK SLP170
 DENSITY ALT 1400FT=

####018000983####
SABZ31 SBBR 080700
METAR SBAR 080700Z 25003KT 9999 SCT015 22/22 Q1015=
METAR SBCV 080700Z NIL=
METAR SBFN 080700Z NIL=
METAR SBFZ 080700Z 12006KT 9999 SCT017 SCT100 25/22 Q1013=
METAR SBIL 080700Z 28005KT 9999 SCT020 22/21 Q1017=
METAR SBJP 080700Z 23004KT 9999 FEW020 BKN070 22/21 Q1014=
METAR SBJU 080700Z NIL=
METAR SBKG 080700Z NIL=
METAR SBLE 080700Z NIL=
METAR SBLP 080700Z NIL=
METAR SBMO 080700Z 00000KT 9999 FEW020 BKN100 21/20 Q1015=
METAR SBMS 080700Z NIL=
METAR SBNT 080700Z 19004KT 9999 SCT018 SCT070 22/21 Q1014=
METAR SBPB 080700Z NIL=
METAR SBPL 080700Z NIL=
METAR SBPS 080700Z 27002KT 4000 -RA BR BKN005 BKN100 18/18 Q1018=
METAR SBQV 080700Z NIL=
METAR SBRF 080700Z 24004KT 9999 SCT016 BKN070 22/21 Q1014=
METAR SBSL 080700Z 08002KT 9999 SCT017 26/24 Q1012=
METAR SBSV 080700Z 05003KT 9999 SCT017 22/21 Q1016=
METAR SBTC 080700Z NIL=
METAR SBTE 080700Z 22001KT 9999 FEW020 BKN100 25/23 Q1012=
METAR SBUF 080700Z NIL=
####018000413####
SABZ32 SBBR 080700
METAR SBAN 080700Z 13005KT CAVOK 16/09 Q1021=
METAR SBBR 080700Z 12005KT CAVOK 17/08 Q1022=
METAR SBBW 080700Z NIL=
METAR SBCG 080700Z 18004KT CAVOK 17/09 Q1016=
METAR SBCR 080700Z NIL=
METAR SBCY 080700Z 03004KT CAVOK 20/14 Q1013=
METAR SBGO 080700Z 34002KT CAVOK 14/11 Q1019=
METAR SBPJ 080700Z 10003KT CAVOK 18/13 Q1014=
METAR SBPN 080700Z NIL=
METAR SBPP 080700Z NIL=
####018001666####
SABZ33 SBBR 080700
METAR SBAF 080700Z 00000KT CAVOK 14/12 Q1019=
METAR SBAQ 080700Z NIL=
METAR SBAS 080700Z NIL=
METAR SBAU 080700Z NIL=
METAR SBAX 080700Z NIL=
METAR SBBH 080700Z 09003KT CAVOK 11/09 Q1022=
METAR SBBI 080700Z NIL=
METAR SBBQ 080700Z NIL=
METAR SBBT 080700Z NIL=
METAR SBBU 080700Z 06009KT CAVOK 17/11 Q1018=
METAR SBBZ 080700Z NIL=
METAR SBCB 080700Z NIL=
METAR SBCF 080700Z 00000KT CAVOK 10/07 Q1022=
METAR SBCO 080700Z NIL=
METAR SBCP 080700Z NIL=
METAR SBDN 080700Z 08007KT CAVOK 19/10 Q1017=
METAR SBES 080700Z NIL=
METAR SBFS 080700Z NIL=
METAR SBGA 080700Z NIL=
METAR SBGL 080700Z 00000KT CAVOK 15/13 Q1019=
METAR SBGR 080700Z 07006KT CAVOK 11/10 Q1021=
METAR SBGU 080700Z NIL=
METAR SBGW 080700Z NIL=
METAR SBIP 080700Z NIL=
METAR SBJF 080700Z NIL=
METAR SBJR 080700Z NIL=
METAR SBKP 080700Z 10008KT CAVOK 12/09 Q1020=
METAR SBLN 080700Z NIL=
METAR SBLS 080700Z NIL=
METAR SBME 080700Z 34005KT CAVOK 16/15 Q1018=
METAR SBMK 080700Z NIL=
METAR SBML 080700Z NIL=
METAR SBMT 080700Z NIL=
METAR SBPC 080700Z NIL=
METAR SBPR 080700Z NIL=
METAR SBRJ 080700Z NIL=
METAR SBRP 080700Z 13005KT CAVOK 13/09 Q1019=
METAR SBRQ 080700Z NIL=
METAR SBRS 080700Z NIL=
METAR SBSA 080700Z NIL=
METAR SBSC 080700Z NIL=
METAR SBSJ 080700Z 00000KT 5000 BR SCT010 12/11 Q1022=
METAR SBSP 080700Z 06005KT CAVOK 17/10 Q1020=
METAR SBSR 080700Z NIL=
METAR SBST 080700Z NIL=
METAR SBTA 080700Z NIL=
METAR SBUL 080700Z 09006KT CAVOK 15/07 Q1021=
METAR SBUP 080700Z NIL=
METAR SBUR 080700Z 08003KT CAVOK 16/07 Q1020=
METAR SBVT 080700Z 30002KT 9999 FEW020 17/16 Q1020=
####018000031####
SABZ33 SBBR 080700 RRA
NIL
####018000725####
SABZ34 SBBR 080700
METAR SBBG 080700Z NIL=
METAR SBBI 080700Z NIL=
METAR SBCA 080600Z 04015KT CAVOK 19/11 Q1018=
METAR SBCH 080700Z NIL=
METAR SBCM 080700Z NIL=
METAR SBCO 080700Z NIL=
METAR SBCT 080700Z 05001KT CAVOK 12/11 Q1020=
METAR SBCX 080700Z NIL=
METAR SBFI 080700Z 18002KT 9999 FEW020 SCT100 16/14 Q1015=
METAR SBFL 080700Z 31009KT CAVOK 20/18 Q1013=
METAR SBJV 080700Z NIL=
METAR SBLO 080700Z 24001KT CAVOK 17/13 Q1018=
METAR SBMG 080700Z NIL=
METAR SBNF 080700Z NIL=
METAR SBNM 080700Z NIL=
METAR SBPA 080700Z 21004KT 9999 BKN023 OVC045 18/14 Q1016=
METAR SBPF 080700Z NIL=
METAR SBPG 080700Z NIL=
METAR SBPK 080700Z NIL=
METAR SBRG 080700Z NIL=
METAR SBSM 080700Z NIL=
####018001393####
SABZ30 SBBR 080700
METAR SBAA 080700Z NIL=
METAR SBAM 080700Z NIL=
METAR SBAT 080700Z NIL=
METAR SBBA 080700Z NIL=
METAR SBBC 080700Z NIL=
METAR SBBE 080700Z 11006KT 9999 FEW017 26/22 Q1012=
METAR SBBV 080700Z 00000KT 9999 SCT025 SCT100 25/23 Q1011=
METAR SBCC 080700Z NIL=
METAR SBCI 080700Z NIL=
METAR SBCJ 080700Z NIL=
METAR SBCZ 080700Z 00000KT 8000 FEW003 SCT020 24/24 Q1011=
METAR SBEG 080700Z 00000KT 9999 FEW010 SCT100 25/22 Q1012=
METAR SBEK 080700Z NIL=
METAR SBGM 080700Z NIL=
METAR SBHT 080700Z NIL=
METAR SBIC 080700Z NIL=
METAR SBIH 080700Z NIL=
METAR SBIZ 080700Z NIL=
METAR SBLB 080700Z NIL=
METAR SBMA 080700Z 27004KT CAVOK ///// Q1012=
METAR SBMD 080700Z NIL=
METAR SBMN 080700Z 02005KT 9999 FEW010 BKN100 26/24 Q1011=
METAR SBMQ 080700Z 36002KT CAVOK 25/25 Q1012=
METAR SBMY 080700Z NIL=
METAR SBMZ 080700Z NIL=
METAR SBOI 080700Z NIL=
METAR SBPV 080700Z 00000KT CAVOK 24/23 Q1011=
METAR SBRB 080700Z 00000KT CAVOK 23/23 Q1012=
METAR SBSL 080700Z 08002KT 9999 SCT017 26/24 Q1012=
METAR SBSN 080700Z 16003KT CAVOK 24/22 Q1011=
METAR SBSY 080700Z NIL=
METAR SBTF 080700Z NIL=
METAR SBTK 080700Z NIL=
METAR SBTT 080700Z NIL=
METAR SBTU 080700Z NIL=
METAR SBUA 080700Z NIL=
METAR SBUI 080700Z NIL=
METAR SBVH 080700Z NIL=
METAR SBXG 080700Z NIL=
METAR SBXV 080700Z NIL=
METAR SBYA 080700Z NIL=
####018000594####
SABZ35 SBBR 080700
METAR SACO 080700Z  36011KT CAVOK 07/M01 Q1020=
METAR SAEZ 080700Z 29005KT CAVOK 04/00 Q1019=
METAR SAME 080700Z 00000KT CAVOK 03/M03 Q1015=
METAR SEQU 080700Z 00000KT 9999 FEW020 SCT100 10/08 Q1027=
METAR SGAS 080700Z 16012KT 9999 BKN010 OVC017 18/16 Q1015=
METAR SKBO 080700Z 00000KT 9999 BKN012 12/11 A3030 NOSIG=
METAR SKCL 080600Z 35003KT 9999 FEW025 BKN100 20/18 A3001=
METAR SLLP 080700Z 10003KT 2000E VCFG FEW003 M04/M04 Q1036=
METAR SPIM 080700Z 00000KT 7000 SCT010 OVC022 16/14 Q1014 NOSIG=
METAR SUMU 080700Z 34005KT CAVOK 04/03 Q1017 NOSIG=
####018000083####
SAFR36 LFPW 080700 CCA
METAR COR LFBE 080700Z VRB03KT CAVOK 21/16 Q1018 NOSIG=
####018000077####
SALT32 EYVI 080720
METAR EYKA 080720Z 28008KT 250V310 CAVOK 18/14 Q1015=
####018000081####
SALV31 EVRA 080720
METAR EVRA 080720Z 32011KT 9999 OVC005 18/17 Q1014 NOSIG=
####018000081####
SAEO31 EETN 080720
METAR EETN 080720Z 32007KT 9999 FEW010 22/18 Q1014 NOSIG=
####018000102####
SALT31 EYVI 080720
METAR EYVI 080720Z 27007KT 2600 SHRA BKN010CB OVC020 15/14 Q1014
     NOSIG=
####018000083####
SAUS73 KWBC 080700 RRF
METAR
KELO 080713Z AUTO 00000KT 10SM CLR 14/13 A3003=
####018000083####
SAUS74 KWBC 080700 RRD
METAR
KIWA 080716Z AUTO 00000KT 10SM CLR 33/04 A2979=
####018000186####
SAUS75 KWBC 080700 RRA
METAR
PADL 080716Z 30006KT 10SM BKN060 OVC120 11/08 A2997=
PAUN 080716Z AUTO 33005KT 10SM CLR 16/11 A3002=
PAVD 080716Z 00000KT 10SM OVC090 10/07 A3011=
####018000730####
SAAM31 FCBB 080700
METAR FCBB 080700Z 23005KT 4000  BR NSC 22/20 Q1016 BECMG 6000 NSW=
SPECI FCPP 080700Z VRB03KT 1500 R17/P1500 BR BKN016 21/21 Q1014 BECMG
3000 BR=
METAR FKKD 080700Z VRB01KT 8000 TS BKN013 FEW016CB OVC120 25/24
Q1015 NOSIG=
METAR FKYS 080700Z 24003KT 8000 FEW003 BKN006 22/20 Q1019 NOSIG=
METAR FEFF 080700Z 00000KT 9999 SCT013 OVC150 23/23 Q1015 NOSIG=
METAR FOOL 080700Z 17007KT 140V200 8000 SCT010 BKN030 25/21 Q1015
NOSIG=
METAR FGSL 080700Z 00000KT 9999 SCT013 FEW020CB BKN130 25/25
Q1014 NOSIG=
METAR FZAA 080700Z 00000KT 3000 BR SKC 21/20 Q1016 NIL=
METAR FNLU 080700Z VRB03KT 5000 BKN020 21/19 Q1015 NOSIG =
METAR FPST 080700Z 18010KT 9999 FEW020 BKN110 23/20 Q1014 NOSIG=
####018000122####
SPXX70 KAWN 080700 RRA
SPECI KQDM 080719Z AUTO 13009G14KT 9SM VCTS FEW060 29/12 A3025 RMK
      AO2 SLP113 PWINO $=
####018000083####
SPCN42 CWAO 080720
SPECI CYUA 080720Z AUTO 31017G22KT 9SM OVC005 05/ A3007=

####018001777####
SPZZ40 KAWN 080721 RRD
SPECI CYFC 080718Z AUTO 20006KT 8SM BKN010 19/18 A3003 RMK SLP172 DENSITY
      ALT 400FT RVR MISG=
SPECI CYPH 080718Z AUTO 24019KT 5/8SM VV001 06/05 A2976=
SPECI CYPQ 080717Z AUTO ///// 3/8SM CLR 21/21 A3003 RMK VSBY VRBL 0.1V5.0=
SPECI CYUA 080719Z AUTO 31016G22KT 9SM OVC006 05/ A3007=
SPECI CYUS 080716Z AUTO ///// 9SM CLR 11/ A2980=
SPECI EGUN 080715Z AUTO 25008KT 9999 -RA SCT007 OVC018 17/17 A3007
      RMK AO2 VIS 2800 RWY11 RAB0711 CIG 013V021 SLP170=
SPECI KNFW 080717Z AUTO 14006KT 10SM BKN022 27/22 A3003 RMK AO2=
SPECI KWRI 080719Z AUTO 00000KT 2 1/2SM R18/5000VP6000FT R24/2800FT
      BR OVC001 24/24 A2999 RMK AO2 SLP156 $=
SPECI LECO 080718Z 02010KT 340V070 1500 -RA BKN003 19/19 Q1016=
SPECI RJCK 080717Z 21003KT 160V240 2300 BR SCT002 BKN003 17/16 Q1009
      RMK 4ST002 7ST003 A2981=
SPECI RJNG 080708Z 23005KT 9999 FEW020 BKN030 BKN230 31/20 Q1007 RMK
      1CU020 5CU030 A2976=
SPECI RJOH 080706Z 06009KT 8000 FEW020 BKN170 OVC240 27/21 Q1008 RMK
      2CU020 5AC170 A2977=
SPECI RJSM 080706Z 12009KT 7000 SCT003 SCT005 BKN080 20/18 Q1008 RMK
      3ST003 4ST005 7AC080 A2979 WIND BY EQPT/10 VIS NE-E 3000M=
SPECI RJST 080711Z 16006KT 9999 -TSRA FEW002 SCT006 BKN013 SCT015CB
      22/22 Q1009 RMK 2ST002 3ST006 5ST013 3CB015 A2980 VIS NE-SE
      5KM FBL TS E MOV E=
SPECI RODN 080719Z AUTO 19014G21KT 9999 SCT021 BKN026 BKN190 30/26
      A2981 RMK AO2 BKN026 V SCT CIG 020 RWY05 SLP095=
SPECI RODN 080720Z AUTO 20015G21KT 9999 SCT021 BKN140 BKN190 30/26
      A2981 RMK AO2 SCT V BKN SLP095=
SPECI YPPH 080717Z 29009KT 1500 +SHRA FEW009 SCT022 OVC045 FEW022CB
      15/14 Q1000 FM0717 33018G28KT 9999 -SHRA BKN020 INTER
      0717/1017 27025G35KT 3000 +SHRA BKN010=
####018001416####
SAUS20 KNKA 080721
SPECI KBDR 080720Z AUTO 06006KT 3SM BR SCT004 24/23 A3003 RMK AO2=
SPECI KBIV 080720Z AUTO 24005KT 3SM RA BKN001 OVC044 25/22 A3005 RMK 
    AO2 RAB03 P0003=
SPECI KCYS 080720Z AUTO 09004KT 3SM -RA BR OVC002 12/12 A3036 RMK 
    AO2 RAB02 P0000 TSNO=
METAR KI75 080715Z AUTO 00000KT 5SM CLR 20/20 A3005 RMK AO2=
METAR KIIB 080715Z AUTO 00000KT 3SM CLR 20/19 A3004 RMK AO1=
METAR KIKV 080715Z AUTO 35006KT 10SM CLR 21/19 A3007 RMK AO2=
METAR KLRJ 080715Z AUTO 00000KT 5SM CLR 16/15 A3015 RMK AO2=
METAR KMPZ 080715Z AUTO 29003KT 10SM CLR 22/21 A3002 RMK AO2=
METAR KMUT 080715Z AUTO 00000KT 7SM SCT090 24/22 A3001 RMK AO2=
METAR KMXO 080715Z AUTO 00000KT 5SM CLR 21/20 A3002 RMK AO2=
METAR KORC 080715Z AUTO 33004KT 10SM CLR 18/18 A3015 RMK AO2=
METAR KOXV 080715Z AUTO 00000KT 7SM CLR 21/20 A3005 RMK AO2=
METAR KPEA 080715Z AUTO 00000KT 5SM CLR 22/22 A3005 RMK AO2=
METAR KRDK 080715Z AUTO 00000KT 10SM SCT085 21/18 A3008 RMK AO2=
METAR KSDA 080715Z AUTO 04003KT 10SM CLR 22/20 A3008 RMK AO2=
METAR KSHL 080715Z AUTO 32004KT 2SM CLR 16/15 A3016 RMK AO2=
SPECI KSPI 080720Z AUTO 27003KT 7SM VCTS RA BKN020 BKN050 OVC090 
    24/23 A3005 RMK AO2 TSB16 P0000=
METAR KTNU 080715Z AUTO 35004KT 10SM CLR 22/20 A3006 RMK AO2=
METAR KVTI 080715Z AUTO 00000KT 10SM BKN011 21/21 A3004 RMK AO2=
SPECI KZZV 080720Z AUTO 00000KT 2SM BR CLR 20/19 A3008 RMK AO2=
####018002238####
SAUS90 KWBC 080722
METAR K3A6 080810Z AUTO 36003KT 11/10 A2990 RMK AO1 SLP143
     T01130100 52027=
METAR KCVX 080715Z AUTO 14004KT 5SM BR SCT100 21/20 A3000 RMK
     AO2=
METAR KFKS 080715Z AUTO 20005KT 10SM -DZ CLR 23/18 A3000 RMK
     AO2=
METAR KSLH 080715Z AUTO 00000KT 7SM OVC100 21/21 A2998 RMK AO2=
METAR KSJX 080716Z AUTO 00000KT 10SM BKN120 20/19 A2997 RMK
     AO2=
METAR KLDM 080716Z AUTO 23010G16KT 10SM -RA SCT080 BKN110 24/21
     A3003 RMK AO2=
METAR KSAW 080719Z AUTO 00000KT 10SM BKN003 BKN110 18/17 A2996 RMK
     AO2=
METAR KGOV 080715Z AUTO 00000KT 5SM BR SCT100 21/21 A3003 RMK
     AO2=
METAR KPZQ 080715Z AUTO 20007KT 7SM CLR 22/22 A3000 RMK AO2=
METAR KHYX 080715Z AUTO 18004KT 10SM CLR 22/21 A3002 RMK AO2=
METAR KPHN 080716Z AUTO 00000KT 2SM BR CLR 20/19 A3003 RMK AO2=
METAR KONZ 080717Z AUTO 00000KT 10SM CLR 27/21 A3002 RMK AO2=
METAR KISQ 080716Z AUTO 00000KT 10SM SCT008 BKN013 OVC020 20/18
     A2997 RMK AO2=
METAR KRMY 080715Z AUTO 00000KT 7SM CLR 22/20 A3005 RMK AO2=
METAR KOSC 080714Z AUTO 00000KT 5SM BR CLR 20/18 A3002 RMK AO2=
METAR KTTF 080713Z AUTO 00000KT 10SM CLR 23/23 A3003 RMK AO2=
METAR KAMN 080716Z AUTO 00000KT 3SM BR CLR 22/21 A3001 RMK AO2=
METAR KMCD 080715Z AUTO 00000KT 10SM SCT090 120 21/18 A2999 RMK
     AO2=
METAR KERY 080716Z AUTO 12004KT 10SM SCT024 SCT035 SCT060 20/19
     A2997 RMK AO2=
METAR KDVP 080716Z AUTO 00000KT 10SM CLR 15/13 A3017 RMK AO2
     T01490131=
METAR KCDD 080711Z AUTO 00000KT 10SM CLR 13/13 A3004 RMK AO2=
METAR KFOZ 080713Z AUTO 00000KT 1/2SM FG VV005 13/12 A3005 RMK
     AO2=
METAR KAQP 080714Z AUTO 22003KT 10SM CLR 16/16 A3010 RMK AO2=
METAR KETH 080714Z AUTO 21004KT 10SM CLR 15/14 A3010 RMK AO2=
METAR KXVG 080716Z AUTO 00000KT 7SM CLR 11/11 A3004 RMK AO2=
METAR KORB 080714Z AUTO 00000KT 10SM CLR 14/13 A3002 RMK AO2=
METAR KMZH 080711Z AUTO 00000KT 10SM SCT100 15/14 A3004 RMK
     AO2=
METAR KBFW 080713Z AUTO 00000KT 10SM SCT055 SCT100 17/16 A3000 RMK
     AO2=
METAR KVWU 080711Z AUTO 00000KT 10SM CLR 15/14 A3002 RMK AO2=
METAR KOWA 080713Z AUTO 30006KT 10SM CLR 18/17 A3006 RMK AO2=
METAR KCDA 080715Z AUTO 00000KT 5SM BR CLR 20/18 A3009 RMK AO2=
####018000092####
SAAE31 VTBB 080700 RRA
METAR VVPB 080700Z 06009KT 9999 FEW016 BKN300 37/21 Q1005 NOSIG=
####018000578####
SPUS99 KWBC 080722
SPECI
KHZY 080719Z AUTO 00000KT 2SM BR CLR 19/19 A3008 RMK AO2=
KUCP 080720Z AUTO 00000KT 1 1/2SM BR CLR 19/19 A3010 RMK AO2 VIS
     1V2 1/2 $=
KBDR 080720Z AUTO 06006KT 3SM BR SCT004 24/23 A3003 RMK AO2=
KBIV 080720Z AUTO 24005KT 3SM RA BKN001 OVC044 25/22 A3005 RMK AO2
     RAB03 P0003=
KCYS 080720Z AUTO 09004KT 3SM -RA BR OVC002 12/12 A3036 RMK AO2
     RAB02 P0000 TSNO=
KSPI 080720Z AUTO 27003KT 7SM VCTS RA BKN020 BKN050 OVC090 24/23
     A3005 RMK AO2 TSB16 P0000=
KZZV 080720Z AUTO 00000KT 2SM BR CLR 20/19 A3008 RMK AO2=
####018002803####
SAUS99 KWBC 080722
METAR
KCVX 080715Z AUTO 14004KT 5SM BR SCT100 21/20 A3000 RMK AO2=
KFKS 080715Z AUTO 20005KT 10SM -DZ CLR 23/18 A3000 RMK AO2=
KSLH 080715Z AUTO 00000KT 7SM OVC100 21/21 A2998 RMK AO2=
KSJX 080716Z AUTO 00000KT 10SM BKN120 20/19 A2997 RMK AO2=
KLDM 080716Z AUTO 23010G16KT 10SM -RA SCT080 BKN110 24/21 A3003
     RMK AO2=
KSAW 080719Z AUTO 00000KT 10SM BKN003 BKN110 18/17 A2996 RMK
     AO2=
KGOV 080715Z AUTO 00000KT 5SM BR SCT100 21/21 A3003 RMK AO2=
KPZQ 080715Z AUTO 20007KT 7SM CLR 22/22 A3000 RMK AO2=
KHYX 080715Z AUTO 18004KT 10SM CLR 22/21 A3002 RMK AO2=
KPHN 080716Z AUTO 00000KT 2SM BR CLR 20/19 A3003 RMK AO2=
KONZ 080717Z AUTO 00000KT 10SM CLR 27/21 A3002 RMK AO2=
KISQ 080716Z AUTO 00000KT 10SM SCT008 BKN013 OVC020 20/18 A2997
     RMK AO2=
KRMY 080715Z AUTO 00000KT 7SM CLR 22/20 A3005 RMK AO2=
KOSC 080714Z AUTO 00000KT 5SM BR CLR 20/18 A3002 RMK AO2=
KTTF 080713Z AUTO 00000KT 10SM CLR 23/23 A3003 RMK AO2=
KAMN 080716Z AUTO 00000KT 3SM BR CLR 22/21 A3001 RMK AO2=
KMCD 080715Z AUTO 00000KT 10SM SCT090 120 21/18 A2999 RMK AO2=
KERY 080716Z AUTO 12004KT 10SM SCT024 SCT035 SCT060 20/19 A2997
     RMK AO2=
KDVP 080716Z AUTO 00000KT 10SM CLR 15/13 A3017 RMK AO2
     T01490131=
KCDD 080711Z AUTO 00000KT 10SM CLR 13/13 A3004 RMK AO2=
KFOZ 080713Z AUTO 00000KT 1/2SM FG VV005 13/12 A3005 RMK AO2=
KAQP 080714Z AUTO 22003KT 10SM CLR 16/16 A3010 RMK AO2=
KETH 080714Z AUTO 21004KT 10SM CLR 15/14 A3010 RMK AO2=
KXVG 080716Z AUTO 00000KT 7SM CLR 11/11 A3004 RMK AO2=
KORB 080714Z AUTO 00000KT 10SM CLR 14/13 A3002 RMK AO2=
KMZH 080711Z AUTO 00000KT 10SM SCT100 15/14 A3004 RMK AO2=
KBFW 080713Z AUTO 00000KT 10SM SCT055 SCT100 17/16 A3000 RMK
     AO2=
KVWU 080711Z AUTO 00000KT 10SM CLR 15/14 A3002 RMK AO2=
KOWA 080713Z AUTO 30006KT 10SM CLR 18/17 A3006 RMK AO2=
KCDA 080715Z AUTO 00000KT 5SM BR CLR 20/18 A3009 RMK AO2=
KI75 080715Z AUTO 00000KT 5SM CLR 20/20 A3005 RMK AO2=
KIIB 080715Z AUTO 00000KT 3SM CLR 20/19 A3004 RMK AO1=
KIKV 080715Z AUTO 35006KT 10SM CLR 21/19 A3007 RMK AO2=
KLRJ 080715Z AUTO 00000KT 5SM CLR 16/15 A3015 RMK AO2=
KMPZ 080715Z AUTO 29003KT 10SM CLR 22/21 A3002 RMK AO2=
KMUT 080715Z AUTO 00000KT 7SM SCT090 24/22 A3001 RMK AO2=
KMXO 080715Z AUTO 00000KT 5SM CLR 21/20 A3002 RMK AO2=
KORC 080715Z AUTO 33004KT 10SM CLR 18/18 A3015 RMK AO2=
KOXV 080715Z AUTO 00000KT 7SM CLR 21/20 A3005 RMK AO2=
KPEA 080715Z AUTO 00000KT 5SM CLR 22/22 A3005 RMK AO2=
KRDK 080715Z AUTO 00000KT 10SM SCT085 21/18 A3008 RMK AO2=
KSDA 080715Z AUTO 04003KT 10SM CLR 22/20 A3008 RMK AO2=
KSHL 080715Z AUTO 32004KT 2SM CLR 16/15 A3016 RMK AO2=
KTNU 080715Z AUTO 35004KT 10SM CLR 22/20 A3006 RMK AO2=
KVTI 080715Z AUTO 00000KT 10SM BKN011 21/21 A3004 RMK AO2=
####018000251####
SAAF11 LFPW 080700 RRB
METAR FCPP 080700Z VRB03KT 1500 R17/P1500 BR BKN016 21/21 Q1014 BECMG
3000 BR=
METAR FKKD 080700Z VRB01KT 8000 TS BKN013 FEW016CB OVC120 25/24
Q1015 NOSIG=
METAR FKYS 080700Z 24003KT 8000 FEW003 BKN006 22/20 Q1019 NOSIG=
####018000099####
SAAF08 LFPW 080700 RRB
METAR DFFD 080700Z 35004KT 270V040 9999 -RA FEW016 BKN130 23/22 Q1018
=
####018003725####
SAUS70 KWBC 080722
METAR
KEVM 080712Z AUTO 00000KT 1/2SM FG VV005 13/12 A3003 RMK AO1=
KFBL 080714Z AUTO 30004KT 10SM CLR 18/17 A3008 RMK AO2=
KFFL 080715Z AUTO 28003KT 4SM CLR 22/20 A3003 RMK AO2=
KFFX 080715Z AUTO 26005KT 7SM -RA SCT075 OVC090 23/21 A3003 RMK
     AO2=
KFKA 080722Z AUTO 31006KT 7SM CLR 20/19 A3006 RMK AO2
     T01960190=
KFPK 080716Z AUTO 00000KT 3SM BR CLR 21/20 A3003 RMK AO2=
KFSE 080714Z AUTO 21004KT 10SM CLR 14/13 A3004 RMK AO2=
KFSO 080718Z AUTO 00000KT 5SM BR SCT070 23/22 A3000 RMK AO2=
KFSW 080715Z AUTO 19003KT 7SM CLR 23/21 A3002 RMK AO2=
KFXY 080715Z AUTO 31004KT 10SM CLR 18/17 A3009 RMK AO2=
KGGI 080715Z AUTO 32004KT 10SM CLR 22/20 A3006 RMK AO2=
KGYL 080714Z AUTO 00000KT 10SM CLR 17/15 A3008 RMK AO2
     T01650152=
KHAF 080710Z AUTO 26003KT 8SM OVC008 12/10 A2994 RMK AO2=
KHAI 080715Z AUTO 00000KT 7SM CLR 22/21 A3005 RMK AO2=
KHCD 080712Z AUTO 28003KT 10SM CLR 15/14 A3009 RMK AO2
     T01450135=
KHCO 080714Z AUTO 00000KT 10SM CLR 13/13 A3004 RMK AO2=
KHNR 080715Z AUTO 34003KT 7SM CLR 18/18 A3014 RMK AO2=
KHXD 080715Z AUTO 24007KT 10SM CLR 24/21 A2999 RMK AO2 P0000=
KHZX 080711Z AUTO 00000KT 4SM CLR 14/14 A3007 RMK AO2=
KICL 080715Z AUTO 01004KT 10SM CLR 22/19 A3007 RMK AO2=
KIFA 080715Z AUTO 32004KT 7SM BKN018 BKN090 BKN110 20/20 A3008 RMK
     AO2=
KIRS 080715Z AUTO 00000KT 10SM CLR 23/19 A3005 RMK AO2=
KJKJ 080714Z AUTO 23004KT 10SM CLR 17/16 A3005 RMK AO2=
KJMR 080718Z AUTO 00000KT 7SM CLR 15/13 A3008 RMK AO2=
KJYG 080715Z AUTO 00000KT 10SM CLR 17/17 A3012 RMK AO2=
KJYM 080715Z AUTO 00000KT 5SM BR CLR 21/19 A3006 RMK AO2=
KJZI 080715Z AUTO 28007KT 10SM CLR 24/24 A2996 RMK A02 P000=
KLJF 080712Z AUTO 00000KT 10SM CLR 16/16 A3010 RMK AO2=
KLVN 080708Z AUTO 31006KT 10SM CLR 19/17 A3007 RMK AO2=
KLWA 080716Z AUTO 00000KT 10SM SCT050 SCT065 BKN120 23/21 A3004
     RMK AO2=
KLXL 080714Z AUTO 00000KT 5SM BR CLR 13/12 A3008 RMK AO2=
KMDS 080705Z AUTO 28004KT 10SM CLR 15/15 A3017 RMK AO2=
KMGN 080714Z AUTO 00000KT 7SM BKN100 21/20 A2998 RMK AO2=
KMJQ 080712Z AUTO 29003KT 7SM CLR 15/15 A3013 RMK AO2=
KMOP 080714Z AUTO 00000KT 5SM BR CLR 22/22 A3002 RMK AO2=
KMVE 080714Z AUTO 29004KT 10SM CLR 18/16 A3010 RMK AO2=
KOEB 080715Z AUTO 27003KT 10SM CLR 23/20 A3005 RMK AO2=
KONA 080711Z AUTO 31004KT 10SM CLR 20/18 A3001 RMK AO2=
KOVL 080714Z AUTO 00000KT 10SM CLR 14/12 A3010 RMK AO2
     T01400123=
K4I3 080716Z AUTO 00000KT 10SM CLR 21/18 A3010 RMK AO2=
KACB 080715Z AUTO 00000KT 10SM OVC110 23/21 A2999 RMK AO2=
KACQ 080719Z AUTO 31006KT 10SM CLR 17/17 A3010 RMK AO2=
KADC 080717Z AUTO 23004KT 10SM CLR 13/12 A3008 RMK AO2=
KAEL 080710Z AUTO 31004KT 10SM CLR 18/17 A3007 RMK AO2=
KANE 080715Z AUTO 29005KT 10SM 19/17 A3007 RMK AO2=
KAUM 080715Z AUTO 32005KT 10SM SCT041 19/18 A3007 RMK AO2=
KAWG 080715Z AUTO 26003KT 7SM CLR 22/20 A3002 RMK AO2=
KAXA 080715Z AUTO 32005KT 10SM CLR 18/18 A3010 RMK AO2=
KBAX 080715Z AUTO 00000KT 4SM BR SCT075 22/21 A3002 RMK AO2=
KBDH 080715Z AUTO 29003KT 7SM CLR 15/14 A3011 RMK AO2=
KBNW 080715Z AUTO 34006KT 10SM CLR 21/18 A3009 RMK AO2=
KBWD 080715Z AUTO 13003KT 10SM FEW021 SCT025 BKN030 23/22 A3000
     RMK AO2=
KCAD 080714Z AUTO 23003KT 10SM SCT110 22/21 A3004 RMK AO2=
KCAV 080715Z AUTO 00000KT 10SM SCT025 21/20 A3008 RMK AO2=
KCBF 080715Z AUTO 35005KT 10SM CLR 20/16 A3011 RMK AO2=
KCBG 080715Z AUTO 00000KT 10SM CLR 17/15 A3006 RMK AO2=
KCCY 080715Z AUTO 00000KT 7SM BKN025 20/17 A3007 RMK AO2=
KCFE 080715Z AUTO 29003KT 10SM CLR 19/17 A3009 RMK AO2
     T01860165=
KCFS 080715Z AUTO 00000KT 2SM BR CLR 21/21 A3003 RMK AO2=
KCIN 080715Z AUTO 34005KT 7SM CLR 20/17 A3011 RMK AO2=
####018000101####
SAAF27 LFPW 080700 RRA
METAR FGSL 080700Z 00000KT 9999 SCT013 FEW020CB BKN130 25/25
Q1014 NOSIG=
####018000658####
SAUS80 KWBC 080722
METAR
KIKW 080714Z AUTO 3SM BR CLR 22/21 A3001 RMK AO2 T02160206=
KLYV 080718Z AUTO 00000KT 10SM CLR 14/13 A3016 RMK AO2=
K29G 080714Z AUTO 00000KT 7SM CLR 20/18 A3009 RMK AO2 T02000181
     PWINO=
KCLI 080715Z AUTO 00000KT 7SM -RA BKN004 22/21 A2998 RMK AO2=
K3A6 080810Z AUTO 36003KT 11/10 A2990 RMK AO1 SLP143 T01130100
     52027=
KROS 080715Z AUTO 30003KT 10SM CLR 18/16 A3006 RMK AO2
     T01770157=
KSYN 080730Z AUTO 30003KT 10SM CLR 19/17 A3006 RMK AO2
     T01910173=
KTKC 080713Z AUTO 25005KT 10SM CLR 15/14 A3014 RMK AO2
     T01540137=
KVTI 080715Z AUTO 00000KT 10SM BKN011 21/21 A3004 RMK AO2=
####018000266####
SPXX60 KWBC 080722
SPECI
KNXF 080718Z AUTO 30007KT 7SM OVC015 17/13 A2991 RMK AO2 TSNO=
KNFW 080717Z AUTO 14006KT 10SM BKN022 27/22 A3003 RMK AO2=
KWRI 080719Z AUTO 00000KT 2 1/2SM R18/5000VP6000FT R24/2800FT BR
     OVC001 24/24 A2999 RMK AO2 SLP156 $=
####018000252####
SAAF13 LFPW 080700 RRC
METAR GOGG 080700Z VRB02KT 9999 BKN015 SCT230 26/25 Q1012=
METAR GOGS 080700Z 22006KT 9999 SCT015 SCT230 27/25 Q1011=
METAR GOSS 080700Z 18002KT CAVOK 27/25 Q1011=
METAR GOTT 080700Z 28006KT 9999 BKN013 FEW230 28/26 Q1012=
####018000682####
SPUS70 KWBC 080722
SPECI
KISW 080719Z AUTO 26005KT 10SM FEW007 22/21 A3000 RMK AO2 TSNO=
KRVS 080719Z 17004KT 1 1/2SM +TSRA BR SCT008 BKN015 OVC041 23/23
     A3002 RMK AO2 TSB18 P0018=
KHZY 080719Z AUTO 00000KT 2SM BR CLR 19/19 A3008 RMK AO2=
KUCP 080720Z AUTO 00000KT 1 1/2SM BR CLR 19/19 A3010 RMK AO2 VIS
     1V2 1/2 $=
KBIV 080720Z AUTO 24005KT 3SM RA BKN001 OVC044 25/22 A3005 RMK AO2
     RAB03 P0003=
KCYS 080720Z AUTO 09004KT 3SM -RA BR OVC002 12/12 A3036 RMK AO2
     RAB02 P0000 TSNO=
KSPI 080720Z AUTO 27003KT 7SM VCTS RA BKN020 BKN050 OVC090 24/23
     A3005 RMK AO2 TSB16 P0000=
KZZV 080720Z AUTO 00000KT 2SM BR CLR 20/19 A3008 RMK AO2=
####018000103####
SAXX60 KWBC 080722
METAR
KMRT 080713Z AUTO 00000KT 5SM CLR 21/19 A3011 RMK AO2
     T02110191=
####018003136####
SAUS70 KWBC 080722 RRA
METAR
KCKC 080715Z AUTO 29003KT 10SM CLR 15/13 A3004 RMK AO2=
KCKN 080715Z AUTO 26004KT 10SM CLR 15/12 A3004 RMK AO2=
KCMY 080715Z AUTO 30003KT 10SM CLR 21/20 A3002 RMK AO2
     T02140204=
KCNB 080718Z AUTO 24004KT 10SM CLR 15/13 A3013 RMK AO2
     T01500125=
KCNC 080715Z AUTO 00000KT 10SM CLR 21/18 A3005 RMK AO2=
KCOQ 080716Z AUTO 29004KT 10SM CLR 14/14 A3005 RMK AO2=
KCQM 080717Z AUTO 00000KT 10SM CLR 13/13 A3005 RMK AO2=
KCSQ 080715Z AUTO 33004KT 7SM CLR 21/20 A3008 RMK AO2=
KCVH 080710Z AUTO 00000KT 10SM CLR 12/11 A2993 RMK AO1=
KDEH 080715Z AUTO 00000KT 10SM CLR 21/18 A3006 RMK AO2=
KDNS 080715Z AUTO 36003KT 7SM OVC025 21/17 A3014 RMK AO2=
KDRM 080716Z AUTO 27006KT 242V312 2 1/2SM RA BKN001 BKN009 OVC041
     19/19 A3001 RMK AO2=
KDTL 080715Z AUTO 25005KT 10SM CLR 18/13 A3008 RMK AO2=
KDUH 080715Z AUTO 00000KT 7SM CLR 22/18 A3005 RMK AO2=
KDXX 080714Z AUTO 00000KT 10SM CLR 15/15 A3010 RMK AO2=
KDYT 080714Z AUTO 31004KT 10SM SCT060 22/16 A3004 RMK AO2=
KEFK 080715Z AUTO 21003KT 4SM BR SCT050 SCT075 SCT085 21/20 A3005
     RMK AO2=
KELO 080713Z AUTO 00000KT 10SM CLR 14/13 A3003 RMK AO2=
KEOK 080715Z AUTO 00000KT 10SM SCT055 SCT100 BKN120 23/20 A3002
     RMK AO2=
KOZW 080715Z AUTO 00000KT 10SM CLR 23/21 A3005 RMK AO2=
KPEX 080713Z AUTO 24003KT 7SM CLR 14/13 A3010 RMK AO2
     T01360134=
KRGK 080715Z AUTO 29003KT 10SM CLR 21/18 A3004 RMK AO2=
KRNP 080715Z AUTO 00000KT 10SM CLR 22/21 A3003 RMK AO2=
KROX 080714Z AUTO 25005KT 10SM CLR 17/14 A3000 RMK AO2=
KRQB 080714Z AUTO 00000KT 10SM -RA BKN065 BKN075 OVC090 23/22
     A3004 RMK AO2=
KRRT 080714Z AUTO 23006KT 10SM CLR 16/13 A3000 RMK AO2=
KSAZ 080714Z AUTO 00000KT 10SM CLR 14/14 A3008 RMK AO2=
KSGS 080713Z AUTO 32004KT 10SM CLR 21/17 A3006 RMK AO2
     T02060170=
KSPF 080715Z AUTO 00000KT 10SM CLR 12/08 A3028 RMK AO2=
KTEW 080712Z AUTO 00000KT 7SM CLR 21/20 A3004 RMK AO2=
KTOB 080715Z AUTO 00000KT 10SM CLR 19/18 A3008 RMK AO2=
KUKT 080715Z AUTO 00000KT 5SM CLR 22/21 A3003 RMK AO1=
KUNU 080712Z AUTO 00000KT 10SM -RA SCT041 SCT055 BKN070 21/20
     A3002 RMK AO2 P0001 T02100195=
KVLL 080714Z AUTO 00000KT 10SM CLR 26/21 A3006 RMK AO2=
KVVV 080716Z AUTO 23003KT 10SM CLR 17/14 A3011 RMK AO2=
KY70 080715Z AUTO 23006KT 10SM SCT055 SCT065 BKN120 24/21 A3002
     RMK AO2 T02430213=
KIIB 080715Z AUTO 00000KT 3SM CLR 20/19 A3004 RMK AO1=
KIKV 080715Z AUTO 35006KT 10SM CLR 21/19 A3007 RMK AO2=
KLRJ 080715Z AUTO 00000KT 5SM CLR 16/15 A3015 RMK AO2=
KMPZ 080715Z AUTO 29003KT 10SM CLR 22/21 A3002 RMK AO2=
KMUT 080715Z AUTO 00000KT 7SM SCT090 24/22 A3001 RMK AO2=
KMXO 080715Z AUTO 00000KT 5SM CLR 21/20 A3002 RMK AO2=
KORC 080715Z AUTO 33004KT 10SM CLR 18/18 A3015 RMK AO2=
KOXV 080715Z AUTO 00000KT 7SM CLR 21/20 A3005 RMK AO2=
KPEA 080715Z AUTO 00000KT 5SM CLR 22/22 A3005 RMK AO2=
KRDK 080715Z AUTO 00000KT 10SM SCT085 21/18 A3008 RMK AO2=
KSDA 080715Z AUTO 04003KT 10SM CLR 22/20 A3008 RMK AO2=
KSHL 080715Z AUTO 32004KT 2SM CLR 16/15 A3016 RMK AO2=
KTNU 080715Z AUTO 35004KT 10SM CLR 22/20 A3006 RMK AO2=
####018000092####
SPUS80 KWBC 080722
SPECI
KBDR 080720Z AUTO 06006KT 3SM BR SCT004 24/23 A3003 RMK AO2=
####018000337####
SABZ42 KWBC 080700 RRA
METAR
SBJR 080700Z NIL=
SBME 080700Z 34005KT CAVOK 16/15 Q1018=
SBMT 080700Z NIL=
SBPC 080700Z NIL=
SBPK 080700Z NIL=
SBPP 080700Z NIL=
SBRJ 080700Z NIL=
SBSC 080700Z NIL=
SBSM 080700Z NIL=
SBST 080700Z NIL=
SBTU 080700Z NIL=
SBUR 080700Z 08003KT CAVOK 16/07 Q1020=
SBVH 080700Z NIL=
####018000469####
SABZ41 KWBC 080700 RRA
METAR
SBAA 080700Z NIL=
SBAF 080700Z 00000KT CAVOK 14/12 Q1019=
SBBG 080700Z NIL=
SBBH 080700Z 09003KT CAVOK 11/09 Q1022=
SBBI 080700Z NIL=
SBBU 080700Z 06009KT CAVOK 17/11 Q1018=
SBCJ 080700Z NIL=
SBCO 080700Z NIL=
SBCR 080700Z NIL=
SBCV 080700Z NIL=
SBDN 080700Z 08007KT CAVOK 19/10 Q1017=
SBFN 080700Z NIL=
SBGW 080700Z NIL=
SBHT 080700Z NIL=
SBIH 080700Z NIL=
SBIL 080700Z 28005KT 9999 SCT020 22/21 Q1017=
####018000053####
SABZ31 KWBC 080700 RRA
METAR
SBTT 080700Z NIL=
####018000619####
SABZ43 KWBC 080700 RRA
METAR
SBAN 080700Z 13005KT CAVOK 16/09 Q1021=
SBAT 080700Z NIL=
SBBA 080700Z NIL=
SBBQ 080700Z NIL=
SBBW 080700Z NIL=
SBCC 080700Z NIL=
SBES 080700Z NIL=
SBGA 080700Z NIL=
SBIZ 080700Z NIL=
SBJF 080700Z NIL=
SBKG 080700Z NIL=
SBLB 080700Z NIL=
SBLP 080700Z NIL=
SBMK 080700Z NIL=
SBMS 080700Z NIL=
SBMZ 080700Z NIL=
SBPB 080700Z NIL=
SBPJ 080700Z 10003KT CAVOK 18/13 Q1014=
SBPL 080700Z NIL=
SBPN 080700Z NIL=
SBQV 080700Z NIL=
SBTF 080700Z NIL=
SBTK 080700Z NIL=
SBUF 080700Z NIL=
SBUI 080700Z NIL=
SBUL 080700Z 09006KT CAVOK 15/07 Q1021=
####018000143####
SPJP31 KWBC 080722
SPECI
RODN 080719Z AUTO 19014G21KT 9999 SCT021 BKN026 BKN190 30/26 A2981
RMK AO2 BKN026 V SCT CIG 020 RWY05 SLP095=
####018000126####
SPJP31 KWBC 080722
SPECI
RODN 080720Z AUTO 20015G21KT 9999 SCT021 BKN140 BKN190 30/26 A2981
RMK AO2 SCT V BKN SLP095=
####018000121####
SPJP41 KWBC 080722
SPECI
RJCK 080717Z 21003KT 160V240 2300 BR SCT002 BKN003 17/16 Q1009 RMK
4ST002 7ST003 A2981=
####018000117####
SPJP43 KWBC 080722
SPECI
RJNG 080708Z 23005KT 9999 FEW020 BKN030 BKN230 31/20 Q1007 RMK
1CU020 5CU030 A2976=
####018000117####
SPJP43 KWBC 080722
SPECI
RJOH 080706Z 06009KT 8000 FEW020 BKN170 OVC240 27/21 Q1008 RMK
2CU020 5AC170 A2977=
####018000155####
SPJP44 KWBC 080722
SPECI
RJSM 080706Z 12009KT 7000 SCT003 SCT005 BKN080 20/18 Q1008 RMK
3ST003 4ST005 7AC080 A2979 WIND BY EQPT/10 VIS NE-E 3000M=
####018000177####
SPJP44 KWBC 080722
SPECI
RJST 080711Z 16006KT 9999 -TSRA FEW002 SCT006 BKN013 SCT015CB
22/22 Q1009 RMK 2ST002 3ST006 5ST013 3CB015 A2980 VIS NE-SE 5KM
FBL TS E MOV E=
####018000081####
SPCN45 CWAO 080719
SPECI CYRT 080719Z 08010KT 1/4SM -DZ FG VV001 RMK FG8=

####018000126####
SPXX62 KWBC 080722
SPECI
RODN 080720Z AUTO 20015G21KT 9999 SCT021 BKN140 BKN190 30/26 A2981
RMK AO2 SCT V BKN SLP095=
####018000145####
SPXX61 KWBC 080722
SPECI
EGUN 080715Z AUTO 25008KT 9999 -RA SCT007 OVC018 17/17 A3007 RMK
AO2 VIS 2800 RWY11 RAB0711 CIG 013V021 SLP170=
####018000143####
SPXX62 KWBC 080722
SPECI
RODN 080719Z AUTO 19014G21KT 9999 SCT021 BKN026 BKN190 30/26 A2981
RMK AO2 BKN026 V SCT CIG 020 RWY05 SLP095=
####018000155####
SPXX62 KWBC 080722
SPECI
RJSM 080706Z 12009KT 7000 SCT003 SCT005 BKN080 20/18 Q1008 RMK
3ST003 4ST005 7AC080 A2979 WIND BY EQPT/10 VIS NE-E 3000M=
####018000134####
SAPA31 KWBC 080700 RRA
METAR
PKWA 080720Z AUTO 06013KT 4SM +RA SCT007 BKN039 OVC060 25/23 A2983
     RMK AO2 P0007 T02520232=
####018000149####
SASA31 KWBC 080700 RRB
METAR
SEQU 080700Z 00000KT 9999 FEW020 SCT100 10/08 Q1027=
SPIM 080700Z 00000KT 7000 SCT010 OVC022 16/14 Q1014 NOSIG=
####018000134####
SAXX62 KWBC 080700 RRB
METAR
PKWA 080720Z AUTO 06013KT 4SM +RA SCT007 BKN039 OVC060 25/23 A2983
     RMK AO2 P0007 T02520232=
####018000157####
SAXX99 KWBC 080700 RRQ
METAR
DFFD 080700Z 35004KT 270V040 9999 -RA FEW016 BKN130 23/22
     Q1018=
EYKA 080720Z 28008KT 250V310 CAVOK 18/14 Q1015=
####018001071####
SABZ01 SBBR 080700
METAR SBBE 080700Z 11006KT 9999 FEW017 26/22 Q1012=
METAR SBBR 080700Z 12005KT CAVOK 17/08 Q1022=
METAR SBBV 080700Z 00000KT 9999 SCT025 SCT100 25/23 Q1011=
METAR SBCF 080700Z 00000KT CAVOK 10/07 Q1022=
METAR SBCG 080700Z 18004KT CAVOK 17/09 Q1016=
METAR SBCR 080700Z NIL=
METAR SBCT 080700Z 05001KT CAVOK 12/11 Q1020=
METAR SBEG 080700Z 00000KT 9999 FEW010 SCT100 25/22 Q1012=
METAR SBFI 080700Z 18002KT 9999 FEW020 SCT100 16/14 Q1015=
METAR SBFL 080700Z 31009KT CAVOK 20/18 Q1013=
METAR SBFZ 080700Z 12006KT 9999 SCT017 SCT100 25/22 Q1013=
METAR SBGR 080700Z 07006KT CAVOK 11/10 Q1021=
METAR SBKP 080700Z 10008KT CAVOK 12/09 Q1020=
METAR SBLO 080700Z 24001KT CAVOK 17/13 Q1018=
METAR SBMQ 080700Z 36002KT CAVOK 25/25 Q1012=
METAR SBPA 080700Z 21004KT 9999 BKN023 OVC045 18/14 Q1016=
METAR SBPP 080700Z NIL=
METAR SBRB 080700Z 00000KT CAVOK 23/23 Q1012=
METAR SBSJ 080700Z 00000KT 5000 BR SCT010 12/11 Q1022=
METAR SBSL 080700Z 08002KT 9999 SCT017 26/24 Q1012=
METAR SBSN 080700Z 16003KT CAVOK 24/22 Q1011=
####018000106####
SAEU31 BKPR 080730
METAR BKPR 080730Z 36004KT 340V040 9999 SCT040 BKN080 16/10 Q1020
NOSIG RMK BLU=
####018000177####
SATU20 LTAA 080650 RRB
METAR LTAN 080720Z 01009KT CAVOK 27/14 Q1013 NOSIG RMK RWY19 03009KT=
METAR LTAU 080720Z 12002KT 9999 FEW040 27/15 Q1013 NOSIG RMK RWY07
VRB02KT=
####018000134####
SAMP31 LMMM 080730
METAR HLLT NIL=
METAR HLLB NIL=
METAR LMML 080715Z 32004KT 270V360 9000 FEW013 25/21 Q1018 BECMG 9999
 =
####018000155####
SASB31 VCCC 080710
VCBI 080710Z 24009KT 220V300 9999 FEW016 30/24 Q1010 NOSIG=
VRMM 080700Z 32007KT 9999 FEW017 BKN110 30/24 Q1011 TEMPO 5000 -SHRA=
####018000103####
SPCN47 CWAO 080720
SPECI CYPQ 080720Z AUTO ///// 1/8SM CLR 20/20 A3003 RMK VSBY VRBL
0.1V5.0=

####018000131####
SAMP31 LMMM 080730
METAR HLLT NIL=
METAR HLLB NIL=
METAR LMML 080715Z 32004KT 270V360 9000 FEW013 25/21 Q1018 BECMG 9999
 =
####018000086####
SAUS20 KNKA 080722
METAR KO22 080715Z AUTO 00000KT 10SM CLR 18/11 A2991 RMK AO1 =
####018000083####
SACN63 CWAO 080700 RRC
ZHY SA 0700 AUTO8 M M M 140/17/12/3204/M/ 3001 85MM=

####018000083####
SACN50 CWAO 080700 RRB
VOC SA 0700 AUTO8 M M M 169/16/10/0000/M/ 1014 89MM=

####018000083####
SACN66 CWAO 080700 RRB
WIK SA 0700 AUTO8 M M M 185/12/12/2703/M/ 5000 06MM=

####018000189####
SACN97 CWAO 080700 RRC
XDE SA 0700 AUTO8 M M M 153/11/10/MMMM/M/M 8004 95MM=
XMM SA 0700 AUTO8 M M M M/15/11/MMMM/M/ M 66MM=
XQA SA 0700 AUTO8 M M M 139/08/07/MMMM/M/ 7008 78MM=

####018000083####
SACN60 CWAO 080700 RRA
PCI SA 0700 AUTO8 M M M 219/15/09/MMMM/M/ 0002 59MM=

####018000097####
SACN48 CWAO 080700 RRA
METAR CYMT 080700Z 09002KT 15SM FEW070 17/16 A3000 RMK AC2 SLP160=

####018000083####
SACN78 CWAO 080700 RRC
TPQ SA 0700 AUTO8 M M M 165/20/18/0000/M/ 8006 73MM=

####018000083####
SACN92 CWAO 080700 RRC
WJU SA 0700 AUTO8 M M M 199/12/11/2709/M/ 3002 40MM=

####018000501####
SACN98 CWAO 080700 RRC
XBR SA 0700 AUTO8 M M M M/11/09/3108/M/ M 88MM=
XDP SA 0700 AUTO8 M M M M/11/10/1203/M/ M 97MM=
XFR SA 0700 AUTO8 M M M M/18/08/3207/M/ PK WND 2920 0658Z M 21MM=
XHR SA 0700 AUTO8 M M M M/11/08/1708/M/ M 34MM=
XKM SA 0700 AUTO8 M M M M/11/09/2406/M/ M 93MM=
XOY SA 0700 AUTO8 M M M M/12/09/3105/M/ M 52MM=
XPA SA 0700 AUTO8 M M M M/13/11/1801/M/ M 91MM=
XRL SA 0700 AUTO8 M M M M/15/12/2306/M/ M 46MM=
ZTB SA 0700 AUTO8 M M M 151/18/15/2404/M/ 6010 31MM=

####018000083####
SACN91 CWAO 080700 RRC
WGY SA 0700 AUTO8 M M M 214/12/11/2707/M/ 1004 18MM=

####018000083####
SACN92 CWAO 080600 RRG
WKD SA 0600 AUTO7 M M M 172/15/15/MMMM/M/ 0006 47MM=

####018000078####
SACN97 CWAO 080600 RRG
XMM SA 0600 AUTO8 M M M M/15/11/MMMM/M/ M 78MM=

####018000138####
SACN94 CWAO 080700 RRC
WQL SA 0700 AUTO8 M M M 201/13/10/2004/M/ 0003 35MM=
WRU SA 0700 AUTO8 M M M 152/17/14/3614/M/ 4000 07MM=

####018000103####
SACN87 CWAO 080700 RRB
WRO SA 0700 AUTO8 M M M 189/13/11/2514/M/ PK WND 2717 0633Z 1001
04MM=

####018000078####
SACN96 CWAO 080700 RRC
WXL SA 0700 AUTO8 M M M M/13/10/2202/M/ M 73MM=

####018000078####
SACN89 CWAO 080600 RRG
WDP SA 0600 AUTO7 M M M M/16/16/MMMM/M/ M 99MM=

####018000118####
SACN43 CWAO 080700 RRA
METAR CYQW 080700Z AUTO 14004KT 9SM CLR 09/08 A3012 RMK SLP213
 TS/LTNG TEMPO UNAVBL=

####018000133####
SACN59 CWAO 080700 RRB
WCT SA 0700 AUTO8 M M M 214/11/11/2405/M/ 0003 32MM=
XSC SA 0700 AUTO8 M M M M/12/10/2708/M/ M 91MM=

####018000162####
SAUS17 KAWN 080700 RRE
METAR KFMH 080715Z AUTO 16006KT 1 1/4SM BR OVC002 21/20 A3007 RMK AO2=
METAR KIWA 080716Z AUTO 00000KT 10SM CLR 33/04 A2979 RMK AO2=
####018000325####
SAZZ40 KAWN 080700 RRQ
METAR DFFD 080700Z 35004KT 270V040 9999 -RA FEW016 BKN130 23/22 Q1018=
METAR FKKD 080700Z VRB01KT 8000 TS BKN013 FEW016CB OVC120 25/24 Q1015
      NOSIG=
METAR FKYS 080700Z 24003KT 8000 FEW003 BKN006 22/20 Q1019 NOSIG=
METAR KFMH 080715Z AUTO 16006KT 1 1/4SM BR OVC002 21/20 A3007 RMK AO2=
####018000632####
SAXX70 KAWN 080700 RRN
METAR KQFU 080700Z AUTO 05005KT 7SM OVC055 27/17 A2988 RMK A02=
METAR KQEI 080720Z AUTO 26006KT 7SM SCT075 28/17 A2991 RMK A02=
METAR KQEN 080720Z AUTO 06005KT 7SM SCT003 SCT026 BKN065 18/17 A3039
      RMK A02=
METAR KQEP 080720Z AUTO 20002KT 7SM FEW050 29/17 A2985 RMK A02=
METAR KQER 080720Z AUTO 19002KT 7SM FEW028 26/17 A2987 RMK A02=
METAR KQES 080720Z AUTO 30010KT 7SM CLR 21/18 A2984 RMK A02=
METAR KQEY 080720Z AUTO 34004KT 7SM CLR 29/16 A2957 RMK A02=
METAR KQFV 080720Z AUTO 31001KT 7SM FEW040 27/16 A3000 RMK A02=
METAR KQEV 080730Z AUTO 23001KT 7SM CLR 30/18 A2976 RMK A02=
####018002946####
SAUS20 KNKA 080722
METAR K0R3 080719Z AUTO 00000KT 10SM CLR 25/25 A2999 RMK AO2=
METAR K1A5 080720Z AUTO 00000KT 5SM BR CLR 18/16 A3015 RMK AO2 
     T01770163=
METAR K3J7 080719Z AUTO 00000KT 10SM CLR 23/21 A3000 RMK AO2=
METAR K47A 080720Z AUTO 00000KT 10SM CLR 22/19 A3007 RMK AO2 LTG 
     DSNT SW T02200188=
METAR KAMN 080716Z AUTO 00000KT 3SM BR CLR 22/21 A3001 RMK AO2=
METAR KAQP 080714Z AUTO 22003KT 10SM CLR 16/16 A3010 RMK AO2=
METAR KAVC 080720Z AUTO 35003KT 7SM BKN090 120 26/19 A3002 RMK AO2=
METAR KBCB 080720Z AUTO 00000KT 5SM BR CLR 21/21 A3014 RMK AO2=
METAR KBFW 080713Z AUTO 00000KT 10SM SCT055 SCT100 17/16 A3000 RMK
     AO2=
METAR KBIJ 080720Z AUTO 00000KT 10SM CLR 20/ A3002 RMK AO2=
SPECI KBML 080721Z AUTO 00000KT 3SM BR OVC003 20/19 A3008 RMK AO2 
    CIG 001V005 $=
METAR KBQP 080727Z AUTO 07003KT 3SM BR SCT001 24/24 A3003 RMK AO2=
METAR KCDA 080715Z AUTO 00000KT 5SM BR CLR 20/18 A3009 RMK AO2=
METAR KCDD 080711Z AUTO 00000KT 10SM CLR 13/13 A3004 RMK AO2=
METAR KCPK 080721Z AUTO 00000KT 3SM BR SCT009 22/22 A2995 RMK AO2=
METAR KCTZ 080720Z AUTO 00000KT 7SM CLR 23/22 A2992 RMK AO2=
METAR KCVX 080715Z AUTO 14004KT 5SM BR SCT100 21/20 A3000 RMK
     AO2=
METAR KDPL 080720Z AUTO 00000KT 7SM CLR 23/22 A2992 RMK AO2=
METAR KDVP 080716Z AUTO 00000KT 10SM CLR 15/13 A3017 RMK AO2
     T01490131=
METAR KEDE 080716Z AUTO 01003KT 4SM BR SCT120 24/22 A2995 RMK AO2=
METAR KERY 080716Z AUTO 12004KT 10SM SCT024 SCT035 SCT060 20/19
     A2997 RMK AO2=
METAR KETH 080714Z AUTO 21004KT 10SM CLR 15/14 A3010 RMK AO2=
METAR KEXX 080719Z AUTO 00000KT 10SM CLR 23/17 A2999 RMK AO2=
METAR KFKS 080715Z AUTO 20005KT 10SM -DZ CLR 23/18 A3000 RMK
     AO2=
METAR KFOZ 080713Z AUTO 00000KT 1/2SM FG VV005 13/12 A3005 RMK
     AO2=
METAR KFQD 080719Z AUTO 00000KT 10SM CLR 22/18 A3004 RMK AO2=
METAR KGOV 080715Z AUTO 00000KT 5SM BR SCT100 21/21 A3003 RMK
     AO2=
METAR KHQU 080720Z AUTO 00000KT 10SM CLR 22/19 A3006 RMK AO1=
METAR KHRJ 080721Z AUTO 00000KT 7SM CLR 27/20 A2994 RMK AO2=
METAR KHYX 080715Z AUTO 18004KT 10SM CLR 22/21 A3002 RMK AO2=
METAR KISQ 080716Z AUTO 00000KT 10SM SCT008 BKN013 OVC020 20/18
     A2997 RMK AO2=
SPECI KIXD 080721Z AUTO 31007KT 6SM BR FEW002 SCT015 SCT032 23/21 
    A3008 RMK AO2=
METAR KJNX 080719Z AUTO 00000KT 3SM CLR 22/22 A2993 RMK AO2=
METAR KJYL 080721Z AUTO 18003KT 10SM CLR 23/21 A3001 RMK AO2=
METAR KLDM 080716Z AUTO 23010G16KT 10SM -RA SCT080 BKN110 24/21
     A3003 RMK AO2=
METAR KMCD 080715Z AUTO 00000KT 10SM SCT090 120 21/18 A2999 RMK
     AO2=
METAR KMQI 080715Z AUTO 07004KT 10SM CLR 26/24 A2993 RMK AO2=
METAR KMRN 080719Z AUTO 00000KT 10SM CLR 19/17 A3010 RMK AO2=
METAR KMZH 080711Z AUTO 00000KT 10SM SCT100 15/14 A3004 RMK
     AO2=
METAR KONZ 080717Z AUTO 00000KT 10SM CLR 27/21 A3002 RMK AO2=
METAR KORB 080714Z AUTO 00000KT 10SM CLR 14/13 A3002 RMK AO2=
####018001135####
SAUS20 KNKA 080722
METAR KOSC 080714Z AUTO 00000KT 5SM BR CLR 20/18 A3002 RMK AO2=
SPECI KOVS 080721Z AUTO 24003KT 10SM SCT010 BKN018 21/20 A3002 RMK 
    AO2=
METAR KOWA 080713Z AUTO 30006KT 10SM CLR 18/17 A3006 RMK AO2=
METAR KPGV 080720Z AUTO 05006KT 7SM SCT110 25/20 A2995 RMK AO2=
METAR KPHN 080716Z AUTO 00000KT 2SM BR CLR 20/19 A3003 RMK AO2=
SPECI KPUB 080721Z AUTO 00000KT 10SM SCT012 BKN044 OVC080 15/13 
    A3033 RMK AO2=
METAR KPZQ 080715Z AUTO 20007KT 7SM CLR 22/22 A3000 RMK AO2=
METAR KRMY 080715Z AUTO 00000KT 7SM CLR 22/20 A3005 RMK AO2=
METAR KSAW 080719Z AUTO 00000KT 10SM BKN003 BKN110 18/17 A2996 RMK
     AO2=
METAR KSJX 080716Z AUTO 00000KT 10SM BKN120 20/19 A2997 RMK
     AO2=
METAR KSLH 080715Z AUTO 00000KT 7SM OVC100 21/21 A2998 RMK AO2=
METAR KTTF 080713Z AUTO 00000KT 10SM CLR 23/23 A3003 RMK AO2=
METAR KUKF 080721Z AUTO 00000KT 10SM CLR 22/18 A3006 RMK AO1=
METAR KUNV 080720Z AUTO 00000KT 7SM CLR 20/18 A3009 RMK AO2 
     T02020182=
METAR KVWU 080711Z AUTO 00000KT 10SM CLR 15/14 A3002 RMK AO2=
METAR KXVG 080716Z AUTO 00000KT 7SM CLR 11/11 A3004 RMK AO2=
####018000715####
SAEG31 HECA 080700
METAR HEMM 080700Z 31010KT CAVOK 27/21 Q1012=
HEAX 080700Z 30011KT 9999 FEW020 28/22 Q1010=
HECA 080700Z 01008KT CAVOK 28/19 Q1011=
HELX 080700Z 35006KT CAVOK 34/13 Q1009=
HESN 080700Z NIL=
HEAR 080700Z 27003KT CAVOK 29/20 Q1009=
HEGN 080700Z 33020KT CAVOK 33/20 Q1007=
HEPS 080700Z 24006KT 9999 BKN025 27/22 Q1010=
HEIS 080700Z 28005KT 9999 SCT025 27/20 Q1010=
HESH 080700Z 36018KT CAVOK 33/14 Q1007=
HEAT 080700Z 34008KT CAVOK 31/13 Q1011=
HEBA 080700Z 28016KT CAVOK 27/21 Q1011=
HEBL 080700Z 04006KT CAVOK 37/09 Q1011=
HESC 080700Z 04008KT CAVOK 27/12 Q1018=
HEDF 080700Z NIL=
HETR 080700Z 31025KT CAVOK 28/22 Q1006=
HEMA 080700Z 36015KT CAVOK 33/17 Q1007=
####018003407####
SAUS99 KWBC 080723
METAR
KO22 080715Z AUTO 00000KT 10SM CLR 18/11 A2991 RMK AO1=
K0R3 080719Z AUTO 00000KT 10SM CLR 25/25 A2999 RMK AO2=
K1A5 080720Z AUTO 00000KT 5SM BR CLR 18/16 A3015 RMK AO2
     T01770163=
K3J7 080719Z AUTO 00000KT 10SM CLR 23/21 A3000 RMK AO2=
K47A 080720Z AUTO 00000KT 10SM CLR 22/19 A3007 RMK AO2 LTG DSNT SW
     T02200188=
KAMN 080716Z AUTO 00000KT 3SM BR CLR 22/21 A3001 RMK AO2=
KAQP 080714Z AUTO 22003KT 10SM CLR 16/16 A3010 RMK AO2=
KAVC 080720Z AUTO 35003KT 7SM BKN090 120 26/19 A3002 RMK AO2=
KBCB 080720Z AUTO 00000KT 5SM BR CLR 21/21 A3014 RMK AO2=
KBFW 080713Z AUTO 00000KT 10SM SCT055 SCT100 17/16 A3000 RMK
     AO2=
KBIJ 080720Z AUTO 00000KT 10SM CLR 20/ A3002 RMK AO2=
KBQP 080727Z AUTO 07003KT 3SM BR SCT001 24/24 A3003 RMK AO2=
KCDA 080715Z AUTO 00000KT 5SM BR CLR 20/18 A3009 RMK AO2=
KCDD 080711Z AUTO 00000KT 10SM CLR 13/13 A3004 RMK AO2=
KCPK 080721Z AUTO 00000KT 3SM BR SCT009 22/22 A2995 RMK AO2=
KCTZ 080720Z AUTO 00000KT 7SM CLR 23/22 A2992 RMK AO2=
KCVX 080715Z AUTO 14004KT 5SM BR SCT100 21/20 A3000 RMK AO2=
KDPL 080720Z AUTO 00000KT 7SM CLR 23/22 A2992 RMK AO2=
KDVP 080716Z AUTO 00000KT 10SM CLR 15/13 A3017 RMK AO2
     T01490131=
KEDE 080716Z AUTO 01003KT 4SM BR SCT120 24/22 A2995 RMK AO2=
KERY 080716Z AUTO 12004KT 10SM SCT024 SCT035 SCT060 20/19 A2997
     RMK AO2=
KETH 080714Z AUTO 21004KT 10SM CLR 15/14 A3010 RMK AO2=
KEXX 080719Z AUTO 00000KT 10SM CLR 23/17 A2999 RMK AO2=
KFKS 080715Z AUTO 20005KT 10SM -DZ CLR 23/18 A3000 RMK AO2=
KFOZ 080713Z AUTO 00000KT 1/2SM FG VV005 13/12 A3005 RMK AO2=
KFQD 080719Z AUTO 00000KT 10SM CLR 22/18 A3004 RMK AO2=
KGOV 080715Z AUTO 00000KT 5SM BR SCT100 21/21 A3003 RMK AO2=
KHQU 080720Z AUTO 00000KT 10SM CLR 22/19 A3006 RMK AO1=
KHRJ 080721Z AUTO 00000KT 7SM CLR 27/20 A2994 RMK AO2=
KHYX 080715Z AUTO 18004KT 10SM CLR 22/21 A3002 RMK AO2=
KISQ 080716Z AUTO 00000KT 10SM SCT008 BKN013 OVC020 20/18 A2997
     RMK AO2=
KJNX 080719Z AUTO 00000KT 3SM CLR 22/22 A2993 RMK AO2=
KJYL 080721Z AUTO 18003KT 10SM CLR 23/21 A3001 RMK AO2=
KLDM 080716Z AUTO 23010G16KT 10SM -RA SCT080 BKN110 24/21 A3003
     RMK AO2=
KMCD 080715Z AUTO 00000KT 10SM SCT090 120 21/18 A2999 RMK AO2=
KMQI 080715Z AUTO 07004KT 10SM CLR 26/24 A2993 RMK AO2=
KMRN 080719Z AUTO 00000KT 10SM CLR 19/17 A3010 RMK AO2=
KMZH 080711Z AUTO 00000KT 10SM SCT100 15/14 A3004 RMK AO2=
KONZ 080717Z AUTO 00000KT 10SM CLR 27/21 A3002 RMK AO2=
KORB 080714Z AUTO 00000KT 10SM CLR 14/13 A3002 RMK AO2=
KOSC 080714Z AUTO 00000KT 5SM BR CLR 20/18 A3002 RMK AO2=
KOWA 080713Z AUTO 30006KT 10SM CLR 18/17 A3006 RMK AO2=
KPGV 080720Z AUTO 05006KT 7SM SCT110 25/20 A2995 RMK AO2=
KPHN 080716Z AUTO 00000KT 2SM BR CLR 20/19 A3003 RMK AO2=
KPZQ 080715Z AUTO 20007KT 7SM CLR 22/22 A3000 RMK AO2=
KRMY 080715Z AUTO 00000KT 7SM CLR 22/20 A3005 RMK AO2=
KSAW 080719Z AUTO 00000KT 10SM BKN003 BKN110 18/17 A2996 RMK
     AO2=
KSJX 080716Z AUTO 00000KT 10SM BKN120 20/19 A2997 RMK AO2=
KSLH 080715Z AUTO 00000KT 7SM OVC100 21/21 A2998 RMK AO2=
KTTF 080713Z AUTO 00000KT 10SM CLR 23/23 A3003 RMK AO2=
KUKF 080721Z AUTO 00000KT 10SM CLR 22/18 A3006 RMK AO1=
KUNV 080720Z AUTO 00000KT 7SM CLR 20/18 A3009 RMK AO2
     T02020182=
KVWU 080711Z AUTO 00000KT 10SM CLR 15/14 A3002 RMK AO2=
KXVG 080716Z AUTO 00000KT 7SM CLR 11/11 A3004 RMK AO2=
####018000354####
SPUS99 KWBC 080723
SPECI
KBML 080721Z AUTO 00000KT 3SM BR OVC003 20/19 A3008 RMK AO2 CIG
     001V005 $=
KIXD 080721Z AUTO 31007KT 6SM BR FEW002 SCT015 SCT032 23/21 A3008
     RMK AO2=
KOVS 080721Z AUTO 24003KT 10SM SCT010 BKN018 21/20 A3002 RMK
     AO2=
KPUB 080721Z AUTO 00000KT 10SM SCT012 BKN044 OVC080 15/13 A3033
     RMK AO2=
####018000067####
SAAG SAZM 080700
METAR SAZM 080700Z  32005KT CAVOK 04/03 Q1014=
####018000126####
SALV32 EVRA 080720
METAR EVLA 080720Z VRB05KT CAVOK 21/15 Q1018=
METAR EVVA 080720Z AUTO 34011KT 9999 FEW013 21/17 Q1017=
####018000219####
SASW31 LSSW 080720
METAR LSZH 080720Z NIL=
METAR LSGG 080720Z VRB01KT CAVOK 23/12 Q1022 NOSIG=
METAR LSZB 080720Z VRB01KT CAVOK 21/14 Q1022 NOSIG=
METAR LSZA 080720Z 19004KT 150V220 9999 BKN050 24/14 Q1023 NOSIG=
####018000084####
SPUS41 KWBC 080723
SPECI
KBDR 080720Z AUTO 06006KT 3SM BR SCT004 24/23 A3003=
####018000074####
SAAG01 SABM 080700 RRE
METAR SAZM 080700Z  32005KT CAVOK 04/03 Q1014=
####018000090####
SPCN47 CWAO 080719
SPECI CYQT 080719Z 19004KT 15SM BKN069 OVC150 19/16 RMK AC6AC2=

####018000088####
SPUS53 KWBC 080723
SPECI
KCYS 080720Z AUTO 09004KT 3SM -RA BR OVC002 12/12 A3036=
####018000105####
SPUS53 KWBC 080723
SPECI
KSPI 080720Z AUTO 27003KT 7SM VCTS RA BKN020 BKN050 OVC090 24/23
A3005=
####018000088####
SPUS73 KWBC 080723
SPECI
KCYS 080720Z AUTO 09004KT 3SM -RA BR OVC002 12/12 A3036=
####018000105####
SPUS73 KWBC 080723
SPECI
KSPI 080720Z AUTO 27003KT 7SM VCTS RA BKN020 BKN050 OVC090 24/23
A3005=
####018000128####
SALV32 EVRA 080720
METAR EVLA 080720Z VRB05KT CAVOK 21/15 Q1018=
METAR EVVA 080720Z AUTO 34011KT 9999 FEW013 21/17 Q1017=
####018000223####
SASW31 LSSW 080720
METAR LSZH 080720Z NIL=
METAR LSGG 080720Z VRB01KT CAVOK 23/12 Q1022 NOSIG=
METAR LSZB 080720Z VRB01KT CAVOK 21/14 Q1022 NOSIG=
METAR LSZA 080720Z 19004KT 150V220 9999 BKN050 24/14 Q1023 NOSIG=
####018000097####
SATU20 LTAA 080650 RRC
METAR LTBR 080720Z 01006KT CAVOK 26/15 Q1012 NOSIG RMK RWY07 33006KT=
####018000084####
SPUS81 KWBC 080723
SPECI
KBDR 080720Z AUTO 06006KT 3SM BR SCT004 24/23 A3003=
####018000332####
SAIN31 VABB 080710
METAR VAAH 080710Z 14005KT 4000 HZ SCT015 SCT020 31/25 Q1005
    NOSIG=
METAR VABB 080710Z 27006KT 2500 HZ SCT012 SCT018 FEW030CB OVC080
     27/25 Q1008 TEMPO 1500 SHRA=
METAR VOMM 080710Z 11005KT 2000 -DZ SCT018 OVC080 27/25 Q1010 NOSIG=
METAR VOTR 080710Z 29004KT 6000 SCT020 OVC100 32/24 Q1010=
####018000077####
SAUK39 EGRR 080650 RRH
METAR EGXP 080650Z 23006KT CAVOK 15/11 Q1017 BLU=
####018000507####
SADL31 EDZO 080720
METAR EDDF 080720Z VRB03KT CAVOK 22/12 Q1021 NOSIG=
METAR EDDH 080720Z 17007KT CAVOK 22/12 Q1019 NOSIG=
METAR EDDK 080720Z 14006KT CAVOK 24/12 Q1020 NOSIG=
METAR EDDL 080720Z 18007KT CAVOK 25/11 Q1019 NOSIG=
METAR EDDM 080720Z 07004KT CAVOK 19/12 Q1023 NOSIG=
METAR EDDN 080720Z 13004KT CAVOK 21/10 Q1023 NOSIG=
METAR EDDS 080720Z 14004KT CAVOK 22/11 Q1022 NOSIG=
METAR EDDT 080720Z 22003KT CAVOK 22/09 Q1022 NOSIG=
METAR EDDV 080720Z 17004KT CAVOK 24/11 Q1020 NOSIG=
####018000399####
SADL32 EDZO 080720
METAR EDDB 080720Z VRB02KT CAVOK 22/09 Q1022 NOSIG=
METAR EDDC 080720Z VRB02KT CAVOK 20/10 Q1023 NOSIG=
METAR EDDE 080720Z 17002KT CAVOK 21/09 Q1022 NOSIG=
METAR EDDG 080720Z VRB03KT CAVOK 24/12 Q1020 NOSIG=
METAR EDDP 080720Z 19004KT CAVOK 20/13 Q1022 NOSIG=
METAR EDDR 080720Z 08004KT CAVOK 22/12 Q1021 NOSIG=
METAR EDDW 080720Z 17003KT CAVOK 24/12 Q1019 NOSIG=
####018000385####
SARS18 KAWN 080700 RRF
METAR EETN 080720Z 32007KT 9999 FEW010 22/18 Q1014 NOSIG=
METAR EVLA 080720Z VRB05KT CAVOK 21/15 Q1018=
METAR EVRA 080720Z 32011KT 9999 OVC005 18/17 Q1014 NOSIG=
METAR EYKA 080720Z 28008KT 250V310 CAVOK 18/14 Q1015=
METAR EYPA 080720Z 33006KT 250V050 CAVOK 19/15 Q1017 NOSIG=
METAR EYVI 080720Z 27007KT 2600 SHRA BKN010CB OVC020 15/14 Q1014 NOSIG=
####018000075####
SACN96 CWAO 080720
WZQ SA 0720 AUTO8 M M M M/22/17/1807/M/M M 61MM=

####018000082####
SPAL40 DAMM 080725
SPECI
DAUI 080710Z 06024KT 0600 BLSA VV/// 35/08 Q1012 =
####018002956####
SAUS20 KNKA 080723
METAR K3A1 080720Z AUTO 00000KT 10SM CLR 22/22 A3009 RMK AO2 
     T02170218=
METAR K3I2 080720Z AUTO 00000KT 3SM BR CLR 19/19 A3008 RMK AO2=
METAR K4A9 080720Z AUTO 00000KT 10SM CLR 21/19 A3006 RMK AO2 
     T02110188=
METAR K4R4 080720Z AUTO 00000KT 1/2SM FG BKN010 23/23 A3001 RMK 
     AO2 T02330225=
METAR K8A0 080719Z AUTO 00000KT 10SM CLR 25/21 A3006 RMK AO2=
METAR KACP 080719Z AUTO 00000KT 5SM BR CLR 23/23 A2999 RMK AO2=
METAR KAFP 080720Z AUTO 02004KT 10SM CLR 22/17 A2998 RMK AO2 
     T02230173=
METAR KALX 080720Z AUTO 00000KT 10SM CLR 22/21 A3004 RMK AO1=
METAR KAYS 080720Z AUTO 00000KT 10SM CLR 23/21 A3001 RMK AO1=
METAR KBGE 080721Z AUTO 00000KT 10SM CLR 21/20 A3002 RMK AO2=
METAR KBQK 080717Z AUTO 00000KT 1 1/2SM VV007 22/22 A3000 RMK AO1 
     VIS 1/2V5 T02200215 PNO=
METAR KCCO 080720Z AUTO 00000KT 5SM CLR 21/21 A3005 RMK AO1=
METAR KCDH 080720Z AUTO 00000KT 1 3/4SM BR OVC001 23/23 A3003 RMK 
     AO2=
SPECI KCNM 080722Z AUTO 00000KT 10SM VCTS -RA SCT023 BKN029 OVC090 
    21/19 A3012 RMK AO2 LTG DSNT SE TSB22RAB07 P0001=
METAR KCPC 080720Z AUTO 00000KT 10SM CLR 28/19 A2993 RMK AO2 
     T02750190=
METAR KCPK 080720Z AUTO 00000KT 3SM BR BKN009 22/22 A2995 RMK AO2=
METAR KCTJ 080720Z AUTO 00000KT 10SM CLR 21/20 A3006 RMK AO2 
     T02070199=
METAR KCWF 080720Z AUTO 07005KT 7SM CLR 24/24 A2999 RMK AO2=
METAR KCWV 080725Z AUTO 00000KT 7SM CLR 21/21 A3001 RMK AO2 
     T02110212=
METAR KDBN 080720Z AUTO 00000KT 10SM CLR 23/20 A3000 RMK AO1=
METAR KDNN 080718Z AUTO 00000KT 10SM CLR 21/21 A3005 RMK AO2=
METAR KDQH 080720Z AUTO 00000KT 10SM CLR 23/21 A3002 RMK AO1=
METAR KDRI 080720Z AUTO 00000KT 10SM SCT015 SCT027 23/23 A3001 
     RMK AO2=
METAR KEHO 080720Z AUTO 00000KT 10SM CLR 21/19 A3002 RMK AO2 
     T02130186=
METAR KEMV 080717Z AUTO 06003KT 7SM CLR 23/21 A2996 RMK AO2=
METAR KEZF 080718Z AUTO 00000KT 7SM BKN110 27/25 A2997 RMK AO2 
     T02680246=
METAR KF24 080719Z AUTO 10SM CLR 25/23 A3004 RMK AO2 T02460234=
METAR KFKN 080720Z AUTO 00000KT 7SM 24/22 A2995 RMK AO1=
METAR KGEV 080721Z AUTO 31003KT 10SM CLR 24/17 A3019 RMK AO2=
METAR KGHG 080720Z AUTO 13005KT 10SM BKN027 21/20 A3007 RMK AO2=
METAR KHLX 080721Z AUTO 00000KT 10SM CLR 25/21 A3016 RMK AO2=
METAR KHOE 080719Z AUTO 00000KT 10SM CLR 22/ A3002 RMK AO2 T0221=
METAR KHSP 080720Z AUTO 07004KT 10SM CLR 23/15 A3026 RMK AO2=
METAR KHUM 080720Z AUTO 2 1/2SM BR CLR 24/24 A2999 RMK AO2 P0001=
METAR KHWY 080720Z AUTO 01003KT 10SM CLR 26/18 A2998 RMK AO2=
METAR KIDI 080720Z AUTO 00000KT 5SM CLR 19/19 A3011 RMK AO2=
METAR KIPJ 080720Z AUTO 00000KT 10SM CLR 20/18 A3002 RMK AO2 
     T01980175=
METAR KJES 080720Z AUTO 28004KT 10SM CLR 21/21 A3000 RMK AO2 
     T02100211=
METAR KJGG 080720Z AUTO 00000KT 5SM SCT120 27/24 A2997 RMK AO1=
METAR KJKA 080720Z AUTO 00000KT 4SM BR CLR 26/25 A3002 RMK AO2 
     T02610252=
####018001739####
SAUS20 KNKA 080723
METAR KJQF 080720Z AUTO 00000KT 10SM CLR 24/18 A3000 RMK AO2 
     T02390175=
METAR KLGC 080715Z AUTO 00000KT 10SM CLR 22/ A3003 RMK AO1=
METAR KLOM 080720Z AUTO 00000KT 7SM CLR 22/21 A3001 RMK AO1 
     T02240205=
METAR KLWB 080721Z AUTO 00000KT 5SM HZ SCT065 SCT090 21/18 A3015 
     RMK AO2=
METAR KMFV 080722Z AUTO 00000KT 3SM BR BKN006 BKN100 25/24 A2998 
     RMK AO2=
METAR KMGR 080720Z AUTO 00000KT 10SM CLR 22/21 A3003 RMK AO2=
METAR KMMU 080720Z AUTO 00000KT 5SM BR CLR 21/20 RMK AO2 T02080203=
METAR KMWK 080722Z AUTO 00000KT 7SM CLR 24/18 A3004 RMK AO2=
METAR KOCW 080719Z AUTO 04006KT 5SM HZ CLR 26/21 A2993 RMK AO2=
METAR KPSK 080722Z AUTO 00000KT 7SM CLR 25/18 A3014 RMK AO2=
METAR KPTB 080722Z AUTO 00000KT 5SM BR CLR 22/21 A2997 RMK AO2=
METAR KRUQ 080721Z AUTO 00000KT 10SM CLR 21/20 A3000 RMK AO2=
SPECI KSFO 080722Z 29009KT 10SM BKN008 13/10 A2993 RMK AO2=
METAR KSIF 080720Z AUTO 00000KT 7SM BKN090 BKN110 23/21 A3001 RMK 
     AO2=
METAR KSVH 080720Z AUTO 00000KT 10SM CLR 22/16 A3004 RMK AO2 
     T02150156=
METAR KTDF 080722Z AUTO 00000KT 2 1/2SM CLR 21/21 A3000 RMK AO1=
METAR KTPF 080720Z AUTO 00000KT 10SM CLR 24/23 A3000 RMK AO2=
METAR KTSP 080715Z AUTO 26005KT 10SM CLR 15/07 A3003 RMK AO2 =
SPECI KUUU 080722Z AUTO 14006KT 7SM BKN004 OVC029 22/21 A3006 RMK 
    AO2=
METAR KVDI 080722Z AUTO 26003KT 10SM CLR 24/21 A3001 RMK AO1=
SPECI KVIH 080722Z AUTO 01003KT 8SM SCT002 BKN039 OVC049 23/22 A3005 
    RMK AO2 LTG DSNT N AND NW=
METAR KVJI 080723Z AUTO 00000KT 5SM BR CLR 22/19 A3014 RMK AO2=
METAR KVUJ 080719Z AUTO 00000KT 10SM SCT095 22/18 A2997 RMK AO2=
METAR KW99 080719Z AUTO 00000KT 7SM SCT085 21/17 A3009 RMK AO2=
####018000707####
SAEG31 HECA 080700
METAR HEBL 080700Z 04006KT CAVOK       37/09 Q1011 NOSIG=
METAR HEAX 080700Z 30011KT 9999 FEW020 28/22 Q1010 NOSIG=
METAR HEMM 080700Z 31010KT CAVOK       27/21 Q1012 NOSIG=
METAR HEPS 080700Z 24006KT 9999 BKN025 27/22 Q1010 NOSIG=
METAR HELX 080700Z 35006KT CAVOK       34/13 Q1009 NOSIG=
METAR HESN 080700Z NIL=
METAR HEGN 080700Z 33020KT CAVOK       33/20 Q1007 NOSIG=
METAR HESH 080700Z 36018KT CAVOK       33/14 Q1007 NOSIG=
METAR HEBA 080700Z 28016KT CAVOK       27/21 Q1011 NOSIG=
METAR HEMA 080700Z 36015KT CAVOK       33/17 Q1007 NOSIG=
METAR HETB 080700Z 32010KT CAVOK       25/13 Q1014 NOSIG=
METAR HESC 080700Z 04008KT CAVOK       27/12 Q1018 NOSIG=
####018000088####
SABN32 OBBI 080700 RRA
METAR OMAD 080700Z 16009KT 130V190 CAVTK 40/18 Q1000 A2955=T
####018003746####
SAUS99 KWBC 080724
METAR
K3A1 080720Z AUTO 00000KT 10SM CLR 22/22 A3009 RMK AO2
     T02170218=
K3I2 080720Z AUTO 00000KT 3SM BR CLR 19/19 A3008 RMK AO2=
K4A9 080720Z AUTO 00000KT 10SM CLR 21/19 A3006 RMK AO2
     T02110188=
K4R4 080720Z AUTO 00000KT 1/2SM FG BKN010 23/23 A3001 RMK AO2
     T02330225=
K8A0 080719Z AUTO 00000KT 10SM CLR 25/21 A3006 RMK AO2=
KACP 080719Z AUTO 00000KT 5SM BR CLR 23/23 A2999 RMK AO2=
KAFP 080720Z AUTO 02004KT 10SM CLR 22/17 A2998 RMK AO2
     T02230173=
KALX 080720Z AUTO 00000KT 10SM CLR 22/21 A3004 RMK AO1=
KAYS 080720Z AUTO 00000KT 10SM CLR 23/21 A3001 RMK AO1=
KBGE 080721Z AUTO 00000KT 10SM CLR 21/20 A3002 RMK AO2=
KBQK 080717Z AUTO 00000KT 1 1/2SM VV007 22/22 A3000 RMK AO1 VIS
     1/2V5 T02200215 PNO=
KCCO 080720Z AUTO 00000KT 5SM CLR 21/21 A3005 RMK AO1=
KCDH 080720Z AUTO 00000KT 1 3/4SM BR OVC001 23/23 A3003 RMK
     AO2=
KCPC 080720Z AUTO 00000KT 10SM CLR 28/19 A2993 RMK AO2
     T02750190=
KCPK 080720Z AUTO 00000KT 3SM BR BKN009 22/22 A2995 RMK AO2=
KCTJ 080720Z AUTO 00000KT 10SM CLR 21/20 A3006 RMK AO2
     T02070199=
KCWF 080720Z AUTO 07005KT 7SM CLR 24/24 A2999 RMK AO2=
KCWV 080725Z AUTO 00000KT 7SM CLR 21/21 A3001 RMK AO2
     T02110212=
KDBN 080720Z AUTO 00000KT 10SM CLR 23/20 A3000 RMK AO1=
KDNN 080718Z AUTO 00000KT 10SM CLR 21/21 A3005 RMK AO2=
KDQH 080720Z AUTO 00000KT 10SM CLR 23/21 A3002 RMK AO1=
KDRI 080720Z AUTO 00000KT 10SM SCT015 SCT027 23/23 A3001 RMK
     AO2=
KEHO 080720Z AUTO 00000KT 10SM CLR 21/19 A3002 RMK AO2
     T02130186=
KEMV 080717Z AUTO 06003KT 7SM CLR 23/21 A2996 RMK AO2=
KEZF 080718Z AUTO 00000KT 7SM BKN110 27/25 A2997 RMK AO2
     T02680246=
KF24 080719Z AUTO 10SM CLR 25/23 A3004 RMK AO2 T02460234=
KFKN 080720Z AUTO 00000KT 7SM 24/22 A2995 RMK AO1=
KGEV 080721Z AUTO 31003KT 10SM CLR 24/17 A3019 RMK AO2=
KGHG 080720Z AUTO 13005KT 10SM BKN027 21/20 A3007 RMK AO2=
KHLX 080721Z AUTO 00000KT 10SM CLR 25/21 A3016 RMK AO2=
KHOE 080719Z AUTO 00000KT 10SM CLR 22/ A3002 RMK AO2 T0221=
KHSP 080720Z AUTO 07004KT 10SM CLR 23/15 A3026 RMK AO2=
KHUM 080720Z AUTO 2 1/2SM BR CLR 24/24 A2999 RMK AO2 P0001=
KHWY 080720Z AUTO 01003KT 10SM CLR 26/18 A2998 RMK AO2=
KIDI 080720Z AUTO 00000KT 5SM CLR 19/19 A3011 RMK AO2=
KIPJ 080720Z AUTO 00000KT 10SM CLR 20/18 A3002 RMK AO2
     T01980175=
KJES 080720Z AUTO 28004KT 10SM CLR 21/21 A3000 RMK AO2
     T02100211=
KJGG 080720Z AUTO 00000KT 5SM SCT120 27/24 A2997 RMK AO1=
KJKA 080720Z AUTO 00000KT 4SM BR CLR 26/25 A3002 RMK AO2
     T02610252=
KJQF 080720Z AUTO 00000KT 10SM CLR 24/18 A3000 RMK AO2
     T02390175=
KLGC 080715Z AUTO 00000KT 10SM CLR 22/ A3003 RMK AO1=
KLOM 080720Z AUTO 00000KT 7SM CLR 22/21 A3001 RMK AO1
     T02240205=
KLWB 080721Z AUTO 00000KT 5SM HZ SCT065 SCT090 21/18 A3015 RMK
     AO2=
KMFV 080722Z AUTO 00000KT 3SM BR BKN006 BKN100 25/24 A2998 RMK
     AO2=
KMGR 080720Z AUTO 00000KT 10SM CLR 22/21 A3003 RMK AO2=
KMMU 080720Z AUTO 00000KT 5SM BR CLR 21/20 RMK AO2 T02080203=
KMWK 080722Z AUTO 00000KT 7SM CLR 24/18 A3004 RMK AO2=
KOCW 080719Z AUTO 04006KT 5SM HZ CLR 26/21 A2993 RMK AO2=
KPSK 080722Z AUTO 00000KT 7SM CLR 25/18 A3014 RMK AO2=
KPTB 080722Z AUTO 00000KT 5SM BR CLR 22/21 A2997 RMK AO2=
KRUQ 080721Z AUTO 00000KT 10SM CLR 21/20 A3000 RMK AO2=
KSIF 080720Z AUTO 00000KT 7SM BKN090 BKN110 23/21 A3001 RMK
     AO2=
KSVH 080720Z AUTO 00000KT 10SM CLR 22/16 A3004 RMK AO2
     T02150156=
KTDF 080722Z AUTO 00000KT 2 1/2SM CLR 21/21 A3000 RMK AO1=
KTPF 080720Z AUTO 00000KT 10SM CLR 24/23 A3000 RMK AO2=
KTSP 080715Z AUTO 26005KT 10SM CLR 15/07 A3003 RMK AO2=
KVDI 080722Z AUTO 26003KT 10SM CLR 24/21 A3001 RMK AO1=
####018000095####
SACN91 KWBC 080724
METAR CWGY 080700Z AUTO 27007KT 12/11 RMK AO1 SLP214 T01210108
51004=
####018000378####
SPUS99 KWBC 080724
SPECI
KCNM 080722Z AUTO 00000KT 10SM VCTS -RA SCT023 BKN029 OVC090 21/19
     A3012 RMK AO2 LTG DSNT SE TSB22RAB07 P0001=
KSFO 080722Z 29009KT 10SM BKN008 13/10 A2993 RMK AO2=
KUUU 080722Z AUTO 14006KT 7SM BKN004 OVC029 22/21 A3006 RMK
     AO2=
KVIH 080722Z AUTO 01003KT 8SM SCT002 BKN039 OVC049 23/22 A3005 RMK
     AO2 LTG DSNT N AND NW=
####018000261####
SACN87 KWBC 080724
METAR CWRU 080700Z AUTO 36014KT 17/14 RMK AO1 SLP152 T01700137
54000=
METAR CWRO 080700Z AUTO 25014KT 13/11 RMK AO1 PK WND 27017/0633
SLP189 T01300114 51001=
METAR CWCT 080700Z AUTO 24005KT 11/11 RMK AO1 SLP214 T01130112
50003=
####018000251####
SACN97 KWBC 080724
METAR CXDE 080700Z AUTO 11/10 RMK AO1 SLP153 T01090095 58004=
METAR CXMM 080700Z AUTO 15/11 RMK AO1 T01460106=
METAR CXQA 080700Z AUTO 08/07 RMK AO1 SLP139 T00770068 57008=
METAR CXMM 080600Z AUTO 15/11 RMK AO1 T01470108=
####018000159####
SACN92 KWBC 080724
METAR CWKD 080600Z AUTO 15/15 RMK AO1 SLP172 T01540147 50006=
METAR CWJU 080700Z AUTO 27009KT 12/11 RMK AO1 SLP199 T01240110
53002=
####018000139####
SACN96 KWBC 080724
METAR CWXL 080700Z AUTO 22002KT 13/10 RMK AO1 T01270103=
METAR CWZQ 080720Z AUTO 18007KT 22/17 RMK AO1 T02160171=
####018000214####
SAUS99 KWBC 080724 RRA
METAR
KVJI 080723Z AUTO 00000KT 5SM BR CLR 22/19 A3014 RMK AO2=
KVUJ 080719Z AUTO 00000KT 10SM SCT095 22/18 A2997 RMK AO2=
KW99 080719Z AUTO 00000KT 7SM SCT085 21/17 A3009 RMK AO2=
####018000476####
SAFI31 EFHK 080720
METAR EFHK 080720Z 32007KT 290V360 9999 FEW025 BKN200 25/19 Q1014
NOSIG=
EFJY 080720Z 00000KT 9999 BKN012 20/17 Q1015=
METAR EFKU 080720Z AUTO VRB02KT 9999NDV OVC014 
21/17 Q1016=
EFOU 080720Z VRB02KT 9999 FEW018 19/14 Q1016=
METAR EFRO 080720Z AUTO 21004KT 160V260 CAVOK 17/12
 Q1017=
EFTP 080720Z 35003KT 9999 FEW040 22/13 Q1016=
METAR EFTU 080720Z AUTO 34005KT 280V020 CAVOK 22/11 Q1016=
EFVA 080720Z 27002KT 9999 FEW020 BKN200 20/15 Q1015=
####018000088####
SAQB31 LQSM 080730
METAR LQSA 080730Z 31004KT 250V010 9999 SCT050 17/11 Q1024 NOSIG=
####018000627####
SASN31 ESWI 080720
METAR ESGG 080720Z 19013KT 9999 BKN037 19/13 Q1018=
METAR ESGJ 080720Z AUTO 22010KT 9999NDV ////// 19/11 Q1019=
METAR ESGP 080720Z 19016KT 9999 BKN036 OVC042 19/15 Q1018=
METAR ESGT 080720Z 19010KT 160V220 9999 FEW035 BKN045 19/13 Q1017=
METAR ESMK 080720Z 23005KT 210V270 CAVOK 22/13 Q1021=
METAR ESMQ 080720Z 17005KT 120V210 CAVOK 22/12 Q1020=
METAR ESMS 080720Z 20010KT CAVOK 21/13 Q1021=
METAR ESMT 080720Z 17011KT CAVOK 19/14 Q1020=
METAR ESMX 080720Z 21005KT 160V260 CAVOK 20/11 Q1020=
METAR ESTA 080720Z 17009KT CAVOK 19/14 Q1020=
METAR ESTL 080720Z AUTO 21010KT 9999NDV NCD 21/14 Q1020=
####018000195####
SADN33 EKCH 080720
METAR EKKA 080720Z 21009KT 170V240 9999 FEW030 BKN060 20/14
Q1017 TEMPO 6000 SHRA SCT020CB=
METAR EKSP 080720Z 19009KT 150V210 CAVOK 21/12 Q1018 NOSIG RMK
SCT050 BKN150=
####018000498####
SADL31 EDZO 080720
METAR EDDF 080720Z VRB03KT CAVOK 22/12 Q1021 NOSIG=
METAR EDDH 080720Z 17007KT CAVOK 22/12 Q1019 NOSIG=
METAR EDDK 080720Z 14006KT CAVOK 24/12 Q1020 NOSIG=
METAR EDDL 080720Z 18007KT CAVOK 25/11 Q1019 NOSIG=
METAR EDDM 080720Z 07004KT CAVOK 19/12 Q1023 NOSIG=
METAR EDDN 080720Z 13004KT CAVOK 21/10 Q1023 NOSIG=
METAR EDDS 080720Z 14004KT CAVOK 22/11 Q1022 NOSIG=
METAR EDDT 080720Z 22003KT CAVOK 22/09 Q1022 NOSIG=
METAR EDDV 080720Z 17004KT CAVOK 24/11 Q1020 NOSIG=
####018000392####
SADL32 EDZO 080720
METAR EDDB 080720Z VRB02KT CAVOK 22/09 Q1022 NOSIG=
METAR EDDC 080720Z VRB02KT CAVOK 20/10 Q1023 NOSIG=
METAR EDDE 080720Z 17002KT CAVOK 21/09 Q1022 NOSIG=
METAR EDDG 080720Z VRB03KT CAVOK 24/12 Q1020 NOSIG=
METAR EDDP 080720Z 19004KT CAVOK 20/13 Q1022 NOSIG=
METAR EDDR 080720Z 08004KT CAVOK 22/12 Q1021 NOSIG=
METAR EDDW 080720Z 17003KT CAVOK 24/12 Q1019 NOSIG=
####018000146####
SADN32 EKCH 080720
METAR EKVJ 080720Z NIL=
METAR EKSB 080720Z NIL=
METAR EKSN 080720Z NIL=
METAR EKVD 080720Z NIL=
METAR EKOD 080720Z NIL=
####018000194####
SADN34 EKCH 080720
METAR EKGF 080720Z NIL=
METAR EKHN 080720Z AUTO 20008KT 170V240 9999NDV BKN046/// 18/14
Q1018=
METAR EKHR 080720Z AUTO 20013KT 9999NDV SCT043/// OVC050///
18/15 Q1017=
####018000325####
SAAF17 LFPW 080700 RRB
METAR HEAX 080700Z 30011KT 9999 FEW020 28/22 Q1010=
METAR HEBL 080700Z 04006KT CAVOK 37/09 Q1011=
METAR HEGN 080700Z 33020KT CAVOK 33/20 Q1007=
METAR HELX 080700Z 35006KT CAVOK 34/13 Q1009=
METAR HEMM 080700Z 31010KT CAVOK 27/21 Q1012=
METAR HETB 080700Z 32010KT CAVOK       25/13 Q1014 NOSIG=
####018000461####
SADN31 EKCH 080720
METAR EKCH 080720Z 18010KT CAVOK 21/15 Q1020 NOSIG=
METAR EKBI 080720Z 19004KT 150V230 9999 FEW038 BKN045 19/15
Q1018=
METAR EKYT 080720Z 23011KT 9999 BKN032 BKN120 20/14 Q1017 NOSIG=
METAR EKRK 080720Z 18010KT CAVOK 21/14 Q1020=
METAR EKAH 080720Z AUTO 19007KT 140V270 9999NDV FEW038/// SCT150///
21/13 Q1018=
METAR EKEB 080720Z AUTO 20009KT 9999NDV OVC044/// 21/17 Q1017=
METAR EKRN 080720Z AUTO 21003KT 9999NDV NCD 19/15 Q1022=
####018003530####
SAUS70 KWBC 080724 RRA
METAR
K4R4 080720Z AUTO 00000KT 1/2SM FG BKN010 23/23 A3001 RMK AO2
     T02330225=
K8A0 080719Z AUTO 00000KT 10SM CLR 25/21 A3006 RMK AO2=
KACP 080719Z AUTO 00000KT 5SM BR CLR 23/23 A2999 RMK AO2=
KAFP 080720Z AUTO 02004KT 10SM CLR 22/17 A2998 RMK AO2
     T02230173=
KALX 080720Z AUTO 00000KT 10SM CLR 22/21 A3004 RMK AO1=
KBGE 080721Z AUTO 00000KT 10SM CLR 21/20 A3002 RMK AO2=
KBQK 080717Z AUTO 00000KT 1 1/2SM VV007 22/22 A3000 RMK AO1 VIS
     1/2V5 T02200215 PNO=
KCCO 080720Z AUTO 00000KT 5SM CLR 21/21 A3005 RMK AO1=
KCDH 080720Z AUTO 00000KT 1 3/4SM BR OVC001 23/23 A3003 RMK
     AO2=
KCPC 080720Z AUTO 00000KT 10SM CLR 28/19 A2993 RMK AO2
     T02750190=
KCPK 080720Z AUTO 00000KT 3SM BR BKN009 22/22 A2995 RMK AO2=
KCTJ 080720Z AUTO 00000KT 10SM CLR 21/20 A3006 RMK AO2
     T02070199=
KCWF 080720Z AUTO 07005KT 7SM CLR 24/24 A2999 RMK AO2=
KCWV 080725Z AUTO 00000KT 7SM CLR 21/21 A3001 RMK AO2
     T02110212=
KDNN 080718Z AUTO 00000KT 10SM CLR 21/21 A3005 RMK AO2=
KDQH 080720Z AUTO 00000KT 10SM CLR 23/21 A3002 RMK AO1=
KDRI 080720Z AUTO 00000KT 10SM SCT015 SCT027 23/23 A3001 RMK
     AO2=
KEHO 080720Z AUTO 00000KT 10SM CLR 21/19 A3002 RMK AO2
     T02130186=
KEMV 080717Z AUTO 06003KT 7SM CLR 23/21 A2996 RMK AO2=
KEZF 080718Z AUTO 00000KT 7SM BKN110 27/25 A2997 RMK AO2
     T02680246=
KF24 080719Z AUTO 10SM CLR 25/23 A3004 RMK AO2 T02460234=
KFKN 080720Z AUTO 00000KT 7SM 24/22 A2995 RMK AO1=
KGEV 080721Z AUTO 31003KT 10SM CLR 24/17 A3019 RMK AO2=
KGHG 080720Z AUTO 13005KT 10SM BKN027 21/20 A3007 RMK AO2=
KHLX 080721Z AUTO 00000KT 10SM CLR 25/21 A3016 RMK AO2=
KHOE 080719Z AUTO 00000KT 10SM CLR 22/ A3002 RMK AO2 T0221=
KHSP 080720Z AUTO 07004KT 10SM CLR 23/15 A3026 RMK AO2=
KHUM 080720Z AUTO 2 1/2SM BR CLR 24/24 A2999 RMK AO2 P0001=
KHWY 080720Z AUTO 01003KT 10SM CLR 26/18 A2998 RMK AO2=
KIDI 080720Z AUTO 00000KT 5SM CLR 19/19 A3011 RMK AO2=
KIPJ 080720Z AUTO 00000KT 10SM CLR 20/18 A3002 RMK AO2
     T01980175=
KJES 080720Z AUTO 28004KT 10SM CLR 21/21 A3000 RMK AO2
     T02100211=
KJGG 080720Z AUTO 00000KT 5SM SCT120 27/24 A2997 RMK AO1=
KJKA 080720Z AUTO 00000KT 4SM BR CLR 26/25 A3002 RMK AO2
     T02610252=
KLGC 080715Z AUTO 00000KT 10SM CLR 22/ A3003 RMK AO1=
KLOM 080720Z AUTO 00000KT 7SM CLR 22/21 A3001 RMK AO1
     T02240205=
KLWB 080721Z AUTO 00000KT 5SM HZ SCT065 SCT090 21/18 A3015 RMK
     AO2=
KMFV 080722Z AUTO 00000KT 3SM BR BKN006 BKN100 25/24 A2998 RMK
     AO2=
KMGR 080720Z AUTO 00000KT 10SM CLR 22/21 A3003 RMK AO2=
KMMU 080720Z AUTO 00000KT 5SM BR CLR 21/20 RMK AO2 T02080203=
KMWK 080722Z AUTO 00000KT 7SM CLR 24/18 A3004 RMK AO2=
KOCW 080719Z AUTO 04006KT 5SM HZ CLR 26/21 A2993 RMK AO2=
KPSK 080722Z AUTO 00000KT 7SM CLR 25/18 A3014 RMK AO2=
KPTB 080722Z AUTO 00000KT 5SM BR CLR 22/21 A2997 RMK AO2=
KRUQ 080721Z AUTO 00000KT 10SM CLR 21/20 A3000 RMK AO2=
KSIF 080720Z AUTO 00000KT 7SM BKN090 BKN110 23/21 A3001 RMK
     AO2=
KSVH 080720Z AUTO 00000KT 10SM CLR 22/16 A3004 RMK AO2
     T02150156=
KTDF 080722Z AUTO 00000KT 2 1/2SM CLR 21/21 A3000 RMK AO1=
KTPF 080720Z AUTO 00000KT 10SM CLR 24/23 A3000 RMK AO2=
KTSP 080715Z AUTO 26005KT 10SM CLR 15/07 A3003 RMK AO2=
KVDI 080722Z AUTO 26003KT 10SM CLR 24/21 A3001 RMK AO1=
KVJI 080723Z AUTO 00000KT 5SM BR CLR 22/19 A3014 RMK AO2=
KVUJ 080719Z AUTO 00000KT 10SM SCT095 22/18 A2997 RMK AO2=
KW99 080719Z AUTO 00000KT 7SM SCT085 21/17 A3009 RMK AO2=
####018000647####
SPUS70 KWBC 080724
SPECI
KBML 080721Z AUTO 00000KT 3SM BR OVC003 20/19 A3008 RMK AO2 CIG
     001V005 $=
KIXD 080721Z AUTO 31007KT 6SM BR FEW002 SCT015 SCT032 23/21 A3008
     RMK AO2=
KOVS 080721Z AUTO 24003KT 10SM SCT010 BKN018 21/20 A3002 RMK
     AO2=
KPUB 080721Z AUTO 00000KT 10SM SCT012 BKN044 OVC080 15/13 A3033
     RMK AO2=
KCNM 080722Z AUTO 00000KT 10SM VCTS -RA SCT023 BKN029 OVC090 21/19
     A3012 RMK AO2 LTG DSNT SE TSB22RAB07 P0001=
KUUU 080722Z AUTO 14006KT 7SM BKN004 OVC029 22/21 A3006 RMK
     AO2=
KVIH 080722Z AUTO 01003KT 8SM SCT002 BKN039 OVC049 23/22 A3005 RMK
     AO2 LTG DSNT N AND NW=
####018000080####
SPAL40 DAMM 080725
SPECI
DAUI 080710Z 06024KT 0600 BLSA VV/// 35/08 Q1012 =
####018003709####
SAUS70 KWBC 080724
METAR
KO22 080715Z AUTO 00000KT 10SM CLR 18/11 A2991 RMK AO1=
KFMH 080715Z AUTO 16006KT 1 1/4SM BR OVC002 21/20 A3007 RMK
     AO2=
KIWA 080716Z AUTO 00000KT 10SM CLR 33/04 A2979 RMK AO2=
KFMH 080715Z AUTO 16006KT 1 1/4SM BR OVC002 21/20 A3007 RMK
     AO2=
K0R3 080719Z AUTO 00000KT 10SM CLR 25/25 A2999 RMK AO2=
K1A5 080720Z AUTO 00000KT 5SM BR CLR 18/16 A3015 RMK AO2
     T01770163=
K3J7 080719Z AUTO 00000KT 10SM CLR 23/21 A3000 RMK AO2=
K47A 080720Z AUTO 00000KT 10SM CLR 22/19 A3007 RMK AO2 LTG DSNT SW
     T02200188=
KAMN 080716Z AUTO 00000KT 3SM BR CLR 22/21 A3001 RMK AO2=
KAQP 080714Z AUTO 22003KT 10SM CLR 16/16 A3010 RMK AO2=
KAVC 080720Z AUTO 35003KT 7SM BKN090 120 26/19 A3002 RMK AO2=
KBCB 080720Z AUTO 00000KT 5SM BR CLR 21/21 A3014 RMK AO2=
KBFW 080713Z AUTO 00000KT 10SM SCT055 SCT100 17/16 A3000 RMK
     AO2=
KBIJ 080720Z AUTO 00000KT 10SM CLR 20/ A3002 RMK AO2=
KBQP 080727Z AUTO 07003KT 3SM BR SCT001 24/24 A3003 RMK AO2=
KCDA 080715Z AUTO 00000KT 5SM BR CLR 20/18 A3009 RMK AO2=
KCDD 080711Z AUTO 00000KT 10SM CLR 13/13 A3004 RMK AO2=
KCPK 080721Z AUTO 00000KT 3SM BR SCT009 22/22 A2995 RMK AO2=
KCTZ 080720Z AUTO 00000KT 7SM CLR 23/22 A2992 RMK AO2=
KCVX 080715Z AUTO 14004KT 5SM BR SCT100 21/20 A3000 RMK AO2=
KDPL 080720Z AUTO 00000KT 7SM CLR 23/22 A2992 RMK AO2=
KDVP 080716Z AUTO 00000KT 10SM CLR 15/13 A3017 RMK AO2
     T01490131=
KEDE 080716Z AUTO 01003KT 4SM BR SCT120 24/22 A2995 RMK AO2=
KERY 080716Z AUTO 12004KT 10SM SCT024 SCT035 SCT060 20/19 A2997
     RMK AO2=
KETH 080714Z AUTO 21004KT 10SM CLR 15/14 A3010 RMK AO2=
KEXX 080719Z AUTO 00000KT 10SM CLR 23/17 A2999 RMK AO2=
KFKS 080715Z AUTO 20005KT 10SM -DZ CLR 23/18 A3000 RMK AO2=
KFOZ 080713Z AUTO 00000KT 1/2SM FG VV005 13/12 A3005 RMK AO2=
KFQD 080719Z AUTO 00000KT 10SM CLR 22/18 A3004 RMK AO2=
KGOV 080715Z AUTO 00000KT 5SM BR SCT100 21/21 A3003 RMK AO2=
KHQU 080720Z AUTO 00000KT 10SM CLR 22/19 A3006 RMK AO1=
KHRJ 080721Z AUTO 00000KT 7SM CLR 27/20 A2994 RMK AO2=
KHYX 080715Z AUTO 18004KT 10SM CLR 22/21 A3002 RMK AO2=
KISQ 080716Z AUTO 00000KT 10SM SCT008 BKN013 OVC020 20/18 A2997
     RMK AO2=
KJYL 080721Z AUTO 18003KT 10SM CLR 23/21 A3001 RMK AO2=
KLDM 080716Z AUTO 23010G16KT 10SM -RA SCT080 BKN110 24/21 A3003
     RMK AO2=
KMCD 080715Z AUTO 00000KT 10SM SCT090 120 21/18 A2999 RMK AO2=
KMQI 080715Z AUTO 07004KT 10SM CLR 26/24 A2993 RMK AO2=
KMRN 080719Z AUTO 00000KT 10SM CLR 19/17 A3010 RMK AO2=
KMZH 080711Z AUTO 00000KT 10SM SCT100 15/14 A3004 RMK AO2=
KONZ 080717Z AUTO 00000KT 10SM CLR 27/21 A3002 RMK AO2=
KORB 080714Z AUTO 00000KT 10SM CLR 14/13 A3002 RMK AO2=
KOSC 080714Z AUTO 00000KT 5SM BR CLR 20/18 A3002 RMK AO2=
KOWA 080713Z AUTO 30006KT 10SM CLR 18/17 A3006 RMK AO2=
KPGV 080720Z AUTO 05006KT 7SM SCT110 25/20 A2995 RMK AO2=
KPHN 080716Z AUTO 00000KT 2SM BR CLR 20/19 A3003 RMK AO2=
KRMY 080715Z AUTO 00000KT 7SM CLR 22/20 A3005 RMK AO2=
KSAW 080719Z AUTO 00000KT 10SM BKN003 BKN110 18/17 A2996 RMK
     AO2=
KSJX 080716Z AUTO 00000KT 10SM BKN120 20/19 A2997 RMK AO2=
KSLH 080715Z AUTO 00000KT 7SM OVC100 21/21 A2998 RMK AO2=
KTTF 080713Z AUTO 00000KT 10SM CLR 23/23 A3003 RMK AO2=
KUKF 080721Z AUTO 00000KT 10SM CLR 22/18 A3006 RMK AO1=
KUNV 080720Z AUTO 00000KT 7SM CLR 20/18 A3009 RMK AO2
     T02020182=
KVWU 080711Z AUTO 00000KT 10SM CLR 15/14 A3002 RMK AO2=
KXVG 080716Z AUTO 00000KT 7SM CLR 11/11 A3004 RMK AO2=
K3A1 080720Z AUTO 00000KT 10SM CLR 22/22 A3009 RMK AO2
     T02170218=
K3I2 080720Z AUTO 00000KT 3SM BR CLR 19/19 A3008 RMK AO2=
K4A9 080720Z AUTO 00000KT 10SM CLR 21/19 A3006 RMK AO2
     T02110188=
####018000073####
SAAG05 SABM 080700 RRB
METAR SAZM 080700Z  32005KT CAVOK 04/03 Q1014=
####018000334####
SAUS80 KWBC 080724
METAR
KJNX 080719Z AUTO 00000KT 3SM CLR 22/22 A2993 RMK AO2=
KPZQ 080715Z AUTO 20007KT 7SM CLR 22/22 A3000 RMK AO2=
KAYS 080720Z AUTO 00000KT 10SM CLR 23/21 A3001 RMK AO1=
KDBN 080720Z AUTO 00000KT 10SM CLR 23/20 A3000 RMK AO1=
KJQF 080720Z AUTO 00000KT 10SM CLR 24/18 A3000 RMK AO2
     T02390175=
####018000085####
SPUS80 KWBC 080724
SPECI
KSFO 080722Z 29009KT 10SM BKN008 13/10 A2993 RMK AO2=
####018000075####
SAAG31 KWBC 080700 RRC
METAR
SAZM 080700Z 32005KT CAVOK 04/03 Q1014=
####018000839####
SAAF35 KWBC 080700 RRC
METAR
HEAX 080700Z 30011KT 9999 FEW020 28/22 Q1010 NOSIG=
HEAX 080700Z 30011KT 9999 FEW020 28/22 Q1010=
HEBA 080700Z 28016KT CAVOK 27/21 Q1011 NOSIG=
HEBA 080700Z 28016KT CAVOK 27/21 Q1011=
HEBL 080700Z 04006KT CAVOK 37/09 Q1011 NOSIG=
HEBL 080700Z 04006KT CAVOK 37/09 Q1011=
HECA 080700Z 01008KT CAVOK 28/19 Q1011=
HEGN 080700Z 33020KT CAVOK 33/20 Q1007 NOSIG=
HEGN 080700Z 33020KT CAVOK 33/20 Q1007=
HELX 080700Z 35006KT CAVOK 34/13 Q1009 NOSIG=
HELX 080700Z 35006KT CAVOK 34/13 Q1009=
HEMM 080700Z 31010KT CAVOK 27/21 Q1012 NOSIG=
HEMM 080700Z 31010KT CAVOK 27/21 Q1012=
HEPS 080700Z 24006KT 9999 BKN025 27/22 Q1010 NOSIG=
HEPS 080700Z 24006KT 9999 BKN025 27/22 Q1010=
HESC 080700Z 04008KT CAVOK 27/12 Q1018 NOSIG=
HESC 080700Z 04008KT CAVOK 27/12 Q1018=
HESN 080700Z NIL=
####018000123####
SAAF36 KWBC 080700 RRA
METAR
HEMA 080700Z 36015KT CAVOK 33/17 Q1007 NOSIG=
HEMA 080700Z 36015KT CAVOK 33/17 Q1007=
####018000455####
SAAS31 KWBC 080705 RRC
METAR
VAAH 080710Z 14005KT 4000 HZ SCT015 SCT020 31/25 Q1005 NOSIG=
VABB 080710Z 27006KT 2500 HZ SCT012 SCT018 FEW030CB OVC080 27/25
     Q1008 TEMPO 1500 SHRA=
VCBI 080710Z 24009KT 220V300 9999 FEW016 30/24 Q1010 NOSIG=
VOMM 080710Z 11005KT 2000 -DZ SCT018 OVC080 27/25 Q1010 NOSIG=
VOTR 080710Z 29004KT 6000 SCT020 OVC100 32/24 Q1010=
VRMM 080700Z 32007KT 9999 FEW017 BKN110 30/24 Q1011 TEMPO 5000
     -SHRA=
####018000174####
SAAW41 KWBC 080750
METAR
LTAN 080720Z 01009KT CAVOK 27/14 Q1013 NOSIG RMK RWY19 03009KT=
LTAU 080720Z 12002KT 9999 FEW040 27/15 Q1013 NOSIG RMK RWY07
     VRB02KT=
####018000089####
SAAW42 KWBC 080700 RRD
METAR
OMAD 080700Z 16009KT 130V190 CAVTK 40/18 Q1000 A2955=
####018000417####
SADL33 KWBC 080715 RRA
METAR
EDDB 080720Z VRB02KT CAVOK 22/09 Q1022 NOSIG=
EDDC 080720Z VRB02KT CAVOK 20/10 Q1023 NOSIG=
EDDG 080720Z VRB03KT CAVOK 24/12 Q1020 NOSIG=
EDDP 080720Z 19004KT CAVOK 20/13 Q1022 NOSIG=
EDDR 080720Z 08004KT CAVOK 22/12 Q1021 NOSIG=
EDDT 080720Z 22003KT CAVOK 22/09 Q1022 NOSIG=
EDDV 080720Z 17004KT CAVOK 24/11 Q1020 NOSIG=
EDDW 080720Z 17003KT CAVOK 24/12 Q1019 NOSIG=
####018000078####
SACN87 CWAO 080722
WWL SA 0722 AUTO4 M M M 170/13/M/MMMM/M/ 0002 8MMM=

####018000112####
SAIO31 KWBC 080700 RRD
METAR
VRMM 080700Z 32007KT 9999 FEW017 BKN110 30/24 Q1011 TEMPO 5000
     -SHRA=
####018000107####
SAMM31 KWBC 080700 RRA
METAR
LMML 080715Z 32004KT 270V360 9000 FEW013 25/21 Q1018 BECMG
     9999=
####018000081####
SAXX61 KWBC 080700 RRB
METAR
EDDS 080720Z 14004KT CAVOK 22/11 Q1022 NOSIG=
####018000082####
SAUS41 KWBC 080700 RRE
METAR
KCTZ 080720Z AUTO 00000KT 7SM CLR 23/22 A2992=
####018000747####
SAXX99 KWBC 080700 RRR
METAR
BKPR 080730Z 36004KT 340V040 9999 SCT040 BKN080 16/10 Q1020 NOSIG
     RMK BLU=
CYMT 080700Z 09002KT 15SM FEW070 17/16 A3000 RMK AC2 SLP160=
CYQW 080700Z AUTO 14004KT 9SM CLR 09/08 A3012 RMK SLP213 TS/LTNG
     TEMPO UNAVBL=
EDDE 080720Z 17002KT CAVOK 21/09 Q1022 NOSIG=
EVLA 080720Z VRB05KT CAVOK 21/15 Q1018=
EVVA 080720Z AUTO 34011KT 9999 FEW013 21/17 Q1017=
HEAR 080700Z 27003KT CAVOK 29/20 Q1009=
HEAT 080700Z 34008KT CAVOK 31/13 Q1011=
HEIS 080700Z 28005KT 9999 SCT025 27/20 Q1010=
HESH 080700Z 36018KT CAVOK 33/14 Q1007 NOSIG=
HESH 080700Z 36018KT CAVOK 33/14 Q1007=
HETB 080700Z 32010KT CAVOK 25/13 Q1014 NOSIG=
LTBR 080720Z 01006KT CAVOK 26/15 Q1012 NOSIG RMK RWY07 33006KT=
####018000096####
SPUS43 KWBC 080724
SPECI
KPUB 080721Z AUTO 00000KT 10SM SCT012 BKN044 OVC080 15/13 A3033=
####018000145####
SAUS43 KWBC 080700 RRF
METAR
KPHN 080716Z AUTO 00000KT 2SM BR CLR 20/19 A3003=
KSAW 080719Z AUTO 00000KT 10SM BKN003 BKN110 18/17 A2996=
####018000082####
SAUS53 KWBC 080700 RRG
METAR
KJNX 080719Z AUTO 00000KT 3SM CLR 22/22 A2993=
####018000082####
SAUS54 KWBC 080700 RRC
METAR
KJNX 080719Z AUTO 00000KT 3SM CLR 22/22 A2993=
####018000096####
SPUS73 KWBC 080724
SPECI
KPUB 080721Z AUTO 00000KT 10SM SCT012 BKN044 OVC080 15/13 A3033=
####018000093####
SAUS73 KWBC 080700 RRG
METAR
KSAW 080719Z AUTO 00000KT 10SM BKN003 BKN110 18/17 A2996=
####018000487####
SAFI31 EFHK 080720
METAR EFHK 080720Z 32007KT 290V360 9999 FEW025 BKN200 25/19 Q1014
NOSIG=
EFJY 080720Z 00000KT 9999 BKN012 20/17 Q1015=
METAR EFKU 080720Z AUTO VRB02KT 9999NDV OVC014 
21/17 Q1016=
EFOU 080720Z VRB02KT 9999 FEW018 19/14 Q1016=
METAR EFRO 080720Z AUTO 21004KT 160V260 CAVOK 17/12
 Q1017=
EFTP 080720Z 35003KT 9999 FEW040 22/13 Q1016=
METAR EFTU 080720Z AUTO 34005KT 280V020 CAVOK 22/11 Q1016=
EFVA 080720Z 27002KT 9999 FEW020 BKN200 20/15 Q1015=
####018000175####
SATU20 LTAA 080650 RRB
METAR LTAN 080720Z 01009KT CAVOK 27/14 Q1013 NOSIG RMK RWY19 03009KT=
METAR LTAU 080720Z 12002KT 9999 FEW040 27/15 Q1013 NOSIG RMK RWY07 VRB02KT=
####018000104####
SATH31 VTBB 080700 RRB
METAR VTCT 080700Z 26006KT 9999 SCT025 34/22 Q1007 A2974 RMK/RWY03
INFO H=
####018000707####
SAEG32 HECA 080700
METAR HEBL 080700Z 04006KT CAVOK       37/09 Q1011 NOSIG=
METAR HEAX 080700Z 30011KT 9999 FEW020 28/22 Q1010 NOSIG=
METAR HEMM 080700Z 31010KT CAVOK       27/21 Q1012 NOSIG=
METAR HEPS 080700Z 24006KT 9999 BKN025 27/22 Q1010 NOSIG=
METAR HELX 080700Z 35006KT CAVOK       34/13 Q1009 NOSIG=
METAR HESN 080700Z NIL=
METAR HEGN 080700Z 33020KT CAVOK       33/20 Q1007 NOSIG=
METAR HESH 080700Z 36018KT CAVOK       33/14 Q1007 NOSIG=
METAR HEBA 080700Z 28016KT CAVOK       27/21 Q1011 NOSIG=
METAR HEMA 080700Z 36015KT CAVOK       33/17 Q1007 NOSIG=
METAR HETB 080700Z 32010KT CAVOK       25/13 Q1014 NOSIG=
METAR HESC 080700Z 04008KT CAVOK       27/12 Q1018 NOSIG=
####018000089####
SAQB31 LQSM 080730
METAR LQSA 080730Z 31004KT 250V010 9999 SCT050 17/11 Q1024 NOSIG=
####018000470####
SADN31 EKCH 080720
METAR EKCH 080720Z 18010KT CAVOK 21/15 Q1020 NOSIG=
METAR EKBI 080720Z 19004KT 150V230 9999 FEW038 BKN045 19/15
Q1018=
METAR EKYT 080720Z 23011KT 9999 BKN032 BKN120 20/14 Q1017 NOSIG=
METAR EKRK 080720Z 18010KT CAVOK 21/14 Q1020=
METAR EKAH 080720Z AUTO 19007KT 140V270 9999NDV FEW038/// SCT150///
21/13 Q1018=
METAR EKEB 080720Z AUTO 20009KT 9999NDV OVC044/// 21/17 Q1017=
METAR EKRN 080720Z AUTO 21003KT 9999NDV NCD 19/15 Q1022=
####018000638####
SASN31 ESWI 080720
METAR ESGG 080720Z 19013KT 9999 BKN037 19/13 Q1018=
METAR ESGJ 080720Z AUTO 22010KT 9999NDV ////// 19/11 Q1019=
METAR ESGP 080720Z 19016KT 9999 BKN036 OVC042 19/15 Q1018=
METAR ESGT 080720Z 19010KT 160V220 9999 FEW035 BKN045 19/13 Q1017=
METAR ESMK 080720Z 23005KT 210V270 CAVOK 22/13 Q1021=
METAR ESMQ 080720Z 17005KT 120V210 CAVOK 22/12 Q1020=
METAR ESMS 080720Z 20010KT CAVOK 21/13 Q1021=
METAR ESMT 080720Z 17011KT CAVOK 19/14 Q1020=
METAR ESMX 080720Z 21005KT 160V260 CAVOK 20/11 Q1020=
METAR ESTA 080720Z 17009KT CAVOK 19/14 Q1020=
METAR ESTL 080720Z AUTO 21010KT 9999NDV NCD 21/14 Q1020=
####018000117####
SAMO31 ZMUB 080730
METAR ZMUB 080730Z 21007MPS 9999 -SHRA SCT030CB SCT033 16/14 Q1010 
 NOSIG RMK QFE650.6 84=
####018000085####
SAAU69 AMMC 080700 CCA
METAR YSWG 080700Z 00000KT 9999 FEW035 12/04 Q1026=


####018001615####
SAEW KAWN 080700 RRI
METAR EBBL 080655Z VRB03KT 9999 FEW220 25/12 Q1019 BLU BLU=
METAR EBFS 080655Z 16004KT 9999 SCT250 22/11 Q1020 BLU BLU=
METAR EDDB 080720Z VRB02KT CAVOK 22/09 Q1022 NOSIG=
METAR EDDC 080720Z VRB02KT CAVOK 20/10 Q1023 NOSIG=
METAR EDDE 080720Z 17002KT CAVOK 21/09 Q1022 NOSIG=
METAR EDDF 080720Z VRB03KT CAVOK 22/12 Q1021 NOSIG=
METAR EDDG 080720Z VRB03KT CAVOK 24/12 Q1020 NOSIG=
METAR EDDH 080720Z 17007KT CAVOK 22/12 Q1019 NOSIG=
METAR EDDK 080720Z 14006KT CAVOK 24/12 Q1020 NOSIG=
METAR EDDL 080720Z 18007KT CAVOK 25/11 Q1019 NOSIG=
METAR EDDM 080720Z 07004KT CAVOK 19/12 Q1023 NOSIG=
METAR EDDN 080720Z 13004KT CAVOK 21/10 Q1023 NOSIG=
METAR EDDP 080720Z 19004KT CAVOK 20/13 Q1022 NOSIG=
METAR EDDR 080720Z 08004KT CAVOK 22/12 Q1021 NOSIG=
METAR EDDS 080720Z 14004KT CAVOK 22/11 Q1022 NOSIG=
METAR EDDT 080720Z 22003KT CAVOK 22/09 Q1022 NOSIG=
METAR EDDV 080720Z 17004KT CAVOK 24/11 Q1020 NOSIG=
METAR EDDW 080720Z 17003KT CAVOK 24/12 Q1019 NOSIG=
METAR EHEH 080725Z AUTO 22005KT 9999NDV NCD 26/13 Q1019 BLU BLU=
METAR EKCH 080720Z 18010KT CAVOK 21/15 Q1020 NOSIG=
METAR EKKA 080720Z 21009KT 170V240 9999 FEW030 BKN060 20/14 Q1017 TEMPO
      6000 SHRA SCT020CB=
METAR EKRN 080720Z AUTO 21003KT 9999NDV NCD 19/15 Q1022=
METAR EKSP 080720Z 19009KT 150V210 CAVOK 21/12 Q1018 NOSIG RMK SCT050
      BKN150=
METAR COR LFBE 080700Z VRB03KT CAVOK 21/16 Q1018 NOSIG=
METAR LSGG 080720Z VRB01KT CAVOK 23/12 Q1022 NOSIG=
METAR LSZA 080720Z 19004KT 150V220 9999 BKN050 24/14 Q1023 NOSIG=
METAR LSZB 080720Z VRB01KT CAVOK 21/14 Q1022 NOSIG=
####018001702####
SAEU KAWN 080700 RRX
METAR EBBL 080655Z VRB03KT 9999 FEW220 25/12 Q1019 BLU BLU=
METAR EBFS 080655Z 16004KT 9999 SCT250 22/11 Q1020 BLU BLU=
METAR EDDB 080720Z VRB02KT CAVOK 22/09 Q1022 NOSIG=
METAR EDDC 080720Z VRB02KT CAVOK 20/10 Q1023 NOSIG=
METAR EDDE 080720Z 17002KT CAVOK 21/09 Q1022 NOSIG=
METAR EDDF 080720Z VRB03KT CAVOK 22/12 Q1021 NOSIG=
METAR EDDG 080720Z VRB03KT CAVOK 24/12 Q1020 NOSIG=
METAR EDDH 080720Z 17007KT CAVOK 22/12 Q1019 NOSIG=
METAR EDDK 080720Z 14006KT CAVOK 24/12 Q1020 NOSIG=
METAR EDDL 080720Z 18007KT CAVOK 25/11 Q1019 NOSIG=
METAR EDDM 080720Z 07004KT CAVOK 19/12 Q1023 NOSIG=
METAR EDDN 080720Z 13004KT CAVOK 21/10 Q1023 NOSIG=
METAR EDDP 080720Z 19004KT CAVOK 20/13 Q1022 NOSIG=
METAR EDDR 080720Z 08004KT CAVOK 22/12 Q1021 NOSIG=
METAR EDDS 080720Z 14004KT CAVOK 22/11 Q1022 NOSIG=
METAR EDDT 080720Z 22003KT CAVOK 22/09 Q1022 NOSIG=
METAR EDDV 080720Z 17004KT CAVOK 24/11 Q1020 NOSIG=
METAR EDDW 080720Z 17003KT CAVOK 24/12 Q1019 NOSIG=
METAR EHEH 080725Z AUTO 22005KT 9999NDV NCD 26/13 Q1019 BLU BLU=
METAR EKKA 080720Z 21009KT 170V240 9999 FEW030 BKN060 20/14 Q1017 TEMPO
      6000 SHRA SCT020CB=
METAR EKRN 080720Z AUTO 21003KT 9999NDV NCD 19/15 Q1022=
METAR EKSP 080720Z 19009KT 150V210 CAVOK 21/12 Q1018 NOSIG RMK SCT050
      BKN150=
METAR COR LFBE 080700Z VRB03KT CAVOK 21/16 Q1018 NOSIG=
METAR LMML 080715Z 32004KT 270V360 9000 FEW013 25/21 Q1018 BECMG 9999=
METAR LQSA 080730Z 31004KT 250V010 9999 SCT050 17/11 Q1024 NOSIG=
METAR LSGG 080720Z VRB01KT CAVOK 23/12 Q1022 NOSIG=
METAR LSZA 080720Z 19004KT 150V220 9999 BKN050 24/14 Q1023 NOSIG=
METAR LSZB 080720Z VRB01KT CAVOK 21/14 Q1022 NOSIG=
####018000398####
SAUS20 KNKA 080724
METAR KW22 080720Z AUTO 00000KT 5SM  BR FEW070 21/20 A3013 RMK AO2=
METAR KW45 080720Z AUTO 00000KT 10SM CLR 24/19 A3004 RMK AO2 
     T02390191=
METAR KWDR 080720Z AUTO 00000KT 10SM CLR 23/20 A3008 RMK AO1=
METAR KXLL 080720Z AUTO 00000KT 7SM CLR 25/22 A3003 RMK AO2 
     T02450221=
METAR KXSA 080720Z AUTO 00000KT 5SM BKN120 24/23 A2997 RMK AO2 
     PWINO=
####018002965####
SAUS20 KNKA 080724
METAR KUXL 080720Z AUTO 08006KT 10SM CLR 26/24 A2997 RMK AO2=
METAR KEYF 080720Z AUTO 29003KT 10SM SCT110 27/19 A2993 RMK AO2 
     T02740188=
METAR KFFA 080718Z AUTO 08004KT 10SM CLR 25/24 A2994 RMK AO2 
     T02500236=
METAR KFYJ 080723Z AUTO 00000KT 4SM CLR 26/24 A2997 RMK AO1=
METAR KGAO 080720Z AUTO 00000KT 10SM SCT015 SCT022 27/25 A3000 
     RMK AO2=
METAR KGWW 080720Z AUTO 00000KT 10SM CLR 25/20 A2993 RMK AO2 
     T02450203=
METAR KHBI 080723Z AUTO 00000KT 10SM CLR 23/18 A3001 RMK AO2=
METAR KHDC 080723Z AUTO 00000KT 10SM CLR 26/26 A3002 RMK AO2=
METAR KHNZ 080720Z AUTO 00000KT 7SM SCT100 24/19 A2998 RMK AO2 
     T02390185=
SPECI KHVN 080723Z AUTO 07003KT 3SM HZ OVC004 24/23 A3003 RMK AO2=
METAR KIER 080720Z AUTO 00000KT 10SM CLR 24/24 A3000 RMK AO2 PWINO=
SPECI KILG 080723Z AUTO 10003KT 6SM HZ FEW009 26/22 A3001 RMK AO2 $=
METAR KISO 080720Z AUTO 00000KT 10SM CLR 24/20 A2993 RMK AO2 
     T02400197=
METAR KIXA 080720Z AUTO 00000KT 7SM CLR 23/19 A2994 RMK AO2 
     T02270191=
METAR KJFZ 080720Z AUTO 00000KT 8SM FEW070 22/21 A3017 RMK=
METAR KLDJ 080720Z AUTO 11003KT 4SM BR OVC002 25/23 A3001 RMK AO2 
     T02460232=
METAR KLHZ 080720Z AUTO 00000KT 7SM CLR 23/19 A2997 RMK AO2 
     T02290190=
METAR KLKU 080720Z AUTO 00000KT 5SM HZ SCT075 24/21 A2999 RMK AO2=
METAR KLNP 080718Z AUTO 00000KT 5SM CLR 20/18 A3019 RMK AO1=
SPECI KLWC 080723Z AUTO 31006KT 10SM BKN008 OVC024 22/21 A3008 RMK 
    AO2=
METAR KMDQ 080720Z AUTO 00000KT 10SM CLR 22/22 A3007 RMK AO2 
     T02240216=
METAR KMKJ 080720Z AUTO 00000KT 2 1/2SM CLR 18/08 A3021 RMK AO1=
METAR KMLJ 080724Z AUTO 00000KT 10SM CLR 23/23 A3002 RMK AO2=
METAR KMQS 080720Z AUTO 00000KT 8SM CLR 24/22 A3004 RMK AO2 PWINO 
     PNO=
METAR KMTV 080720Z AUTO 00000KT 4SM BR CLR 22/21 A3004 RMK AO2=
METAR KOBE 080721Z AUTO 00000KT 10SM CLR 23/22 A2997 RMK AO2=
METAR KOKV 080720Z AUTO 00000KT 7SM SCT100 25/19 A3003 RMK AO2 
     T02490190=
METAR KOMH 080720Z AUTO 00000KT 10SM CLR 27/21 A3002 RMK AO2 
     T02650209=
METAR KONX 080720Z AUTO 00000KT 5SM BR SCT090 26/24 A2995 RMK AO2 
     T02600240=
METAR KOPN 080720Z AUTO 00000KT 10SM CLR 26/22 A3005 RMK AO1=
METAR KPCM 080720Z AUTO 00000KT 10SM CLR 24/23 A3002 RMK AO2=
METAR KRCZ 080720Z AUTO 00000KT 10SM SCT095 26/18 A2996 RMK AO2 
     T02580183=
METAR KRHP 080724Z AUTO 00000KT 7SM CLR 18/17 A3012 RMK AO2=
METAR KRMN 080720Z AUTO 00000KT 5SM BR SCT075 BKN100 23/23 A3000 
     RMK AO2=
METAR KSFQ 080720Z AUTO 00000KT 5SM BR CLR 23/21 A2996 RMK AO2=
METAR KSHD 080720Z AUTO 00000KT 7SM CLR 24/18 A3007 RMK AO2=
METAR KTBR 080720Z AUTO 00000KT 10SM CLR 24/20 A3000 RMK AO2 
     T02360202=
METAR KTNB 080722Z AUTO 00000KT 10SM CLR 16/13 A3020 RMK AO2=
METAR KTVI 080720Z AUTO 00000KT 10SM CLR 22/22 A3003 RMK AO2 
     T02220215=
METAR KVDF 080716Z AUTO 00000KT 10SM CLR 23/22 A3000 RMK AO2=
