####018000093####
SAAH10 OAKB 081050
METAR OAKB 081050Z VRB02KT 9999 SCT070 34/08 Q1014 NOSIG RMK BLU BLU=
####018000119####
SAUS45 KFGZ 081050
MTRIGM
METAR KIGM 081048Z AUTO 00000KT 10SM CLR 22/M03 A2995 RMK AO2 SLP066 
T02171028 TSNO
####018001642####
SPZZ40 KAWN 081050 RRM
SPECI CWHN 081043Z AUTO 23003KT 200V280 9SM FEW038 FEW045 OVC055 14/10
      A3002=
SPECI CYEK 081046Z AUTO 07004KT 1/8SM VV001 07/07 A2959=
SPECI CYGK 081045Z 00000KT 4SM HZ FEW058 RMK SC2=
SPECI CYGV 081046Z AUTO 09005KT 9SM OVC003 14/12 A3003=
SPECI CYHU 081045Z AUTO 22004KT 7SM FEW006 26/22 A2999 RMK SLP156 DENSITY
      ALT 1300FT RVR MISG=
SPECI CYKF 081046Z AUTO 13004KT 060V130 2SM BR CLR 20/20 A3006 RMK
      SLP176 DENSITY ALT 1700FT VIS VRB 1 1/4-3=
SPECI CYPY 081047Z AUTO 27002KT 9SM CLR 11/11 A2993=
SPECI CYTZ 081046Z AUTO 21002KT 2SM BR FEW003 20/19 A3002 RMK SLP166
      DENSITY ALT 700FT RVR MISG=
SPECI CYYY 081045Z 08002KT 3/4SM R06/2200V4500FT/D BR VV003 RMK FG8=
SPECI CZBF 081047Z 00000KT 5/8SM BR OVC005 RMK FG6SF2=
SPECI KDTS 081045Z AUTO 00000KT 3SM BR FEW001 24/23 A3001 RMK AO2=
SPECI KEGI 081045Z AUTO 00000KT 1/2SM R18/1000VP6000FT FG CLR 21/21
      A3003 RMK AO2 SLP168 $=
SPECI KEGI 081048Z AUTO 00000KT 3/4SM R18/1000VP6000FT BR CLR 21/21
      A3003 RMK AO2 SLP167 $=
SPECI KNEL 081042Z AUTO 00000KT 2SM BR SCT005 SCT070 OVC100 24/22 A3003
      RMK AO2 $=
SPECI KNQI 081045Z AUTO 02007KT 2 1/2SM +RA BR BKN022 BKN031 OVC060
      27/24 A2983 RMK AO2 RAB18 P0007 $=
SPECI KPSM 081045Z 15005KT 7SM FEW010 BKN040 OVC075 23/21 A3007 RMK
      AO2A=
SPECI KRIV 081049Z AUTO 29005KT 4SM BR OVC003 13/12 A2990 RMK AO2 SLP121=
SPECI KWRI 081048Z AUTO 00000KT 1SM R18/4500VP6000FT R24/2800VP6000FT
      BR VV001 23/23 A3001 RMK AO2 SLP161 $=
SPECI YBRM 081044Z AUTO 36005KT 7000NDV // BKN025 BKN029 OVC035 24/22
      Q1011=
####018000077####
SAEO32 EETN 081050
METAR EEKE 081050Z 34008KT 290V010 CAVOK 22/13 Q1016=
####018000083####
SALT34 EYVI 081050
METAR EYSA 081050Z 33015KT 300V360 9999 OVC030 17/12 Q1017=
####018000095####
SAEO32 EETN 081050
METAR EETU 081050Z 31003KT 250V040 9999 FEW026TCU SCT033 26/19
Q1013=
####018000102####
SPAU32 YBBN 081049
SPECI YBRM 081044Z AUTO 36005KT 7000NDV // BKN025 BKN029 OVC035 24/22
Q1011=
####018000091####
SPUS73 KWBC 081050
SPECI
KLAR 081047Z AUTO 00000KT 3SM BR FEW002 BKN020 07/06 A3039=
####018000547####
SAUS20 KNKA 081050
METAR KCCA 081055Z AUTO 00000KT 5SM  BR OVC006 23/22 A3007 RMK AO2 
     P0001 =
METAR KCDN 081055Z AUTO 00000KT 10SM CLR 23/20 A3000 RMK A02 P000 
     =
METAR KCKI 081055Z AUTO 00000KT 22/20 A2996 RMK AO2 PWINO=
SPECI KCRS 081049Z AUTO 10003KT 10SM FEW010 BKN015 25/24 A2999 RMK 
    AO2=
SPECI KGKY 081049Z AUTO 13007KT 10SM BKN015 OVC022 25/23 A3001 RMK 
    AO2=
METAR KLRO 081055Z AUTO 00000KT 8SM CLR 23/19 A2995 RMK AO2 =
METAR KMKS 081055Z AUTO 00000KT 5SM BR CLR 22/20 A2996 RMK AO2 
     TSNO=
####018000078####
SAMZ40 FQMA 081101
METAR FQBR 081100Z 18008KT 9999 SCT020 24/17 Q1026=

####018000832####
SPNA14 KAWN 081050 RRH
SPECI KEGI 081045Z AUTO 00000KT 1/2SM R18/1000VP6000FT FG CLR 21/21
      A3003 RMK AO2 SLP168 $=
SPECI KEGI 081048Z AUTO 00000KT 3/4SM R18/1000VP6000FT BR CLR 21/21
      A3003 RMK AO2 SLP167 $=
SPECI KNEL 081042Z AUTO 00000KT 2SM BR SCT005 SCT070 OVC100 24/22 A3003
      RMK AO2 $=
SPECI KNQI 081045Z AUTO 02007KT 2 1/2SM +RA BR BKN022 BKN031 OVC060
      27/24 A2983 RMK AO2 RAB18 P0007 $=
SPECI KPSM 081045Z 15005KT 7SM FEW010 BKN040 OVC075 23/21 A3007 RMK
      AO2A=
SPECI KRIV 081049Z AUTO 29005KT 4SM BR OVC003 13/12 A2990 RMK AO2 SLP121=
SPECI KTIK 081042Z AUTO 01006KT 10SM FEW007 BKN011 BKN022 OVC031 23/23
      A3005 RMK AO2 BKN022 V OVC SLP161 $=
SPECI KWRI 081048Z AUTO 00000KT 1SM R18/4500VP6000FT R24/2800VP6000FT
      BR VV001 23/23 A3001 RMK AO2 SLP161 $=
####018000090####
SAXX70 KAWN 081100 RRA
METAR KQTU 081055Z VRB06KT 9999 PO CLR 45/02 A2964 RMK SLP015=
####018000080####
SARS18 KAWN 081000 RRK
METAR UAFM 081030Z 29005MPS CAVOK 33/06 Q1012 NOSIG=
####018000073####
SAUS81 KWBC 081048
&EHA SA 1048  AMOS 63/61/3405/M PK WND 09 064

####018000103####
SAXX98 KWBC 081050
METAR MYEG 081059Z AUTO 15004KT 10SM SCT019 SCT025 SCT033 27/24 A2993 RMK AO2
####018000110####
SPCN31 CWAO 081049
SPECI CYQX 081049Z 18009KT 20SM FEW005 FEW030 BKN055 BKN100 14/ RMK
SF2SC1SC2AC2=

####018000086####
SPCN46 CWAO 081049
SPECI CYBC 081049Z AUTO 10002KT 2 1/2SM OVC000 13/13 A3003=

####018000091####
SPCN46 CWAO 081049
SPECI CYSB 081049Z 20004KT 3/4SM R22/P6000FT/U BR VV002 RMK FG8=

####018000081####
SRPR30 KWAL 081050
CE2D864E 189105036bB1r@II@IJ@IJ@IK@IK@IL@IL@IMI 43+0NN 161E####018002985####
SAUS20 KNKA 081050
SPECI KFFT 081049Z AUTO 00000KT 2SM BR CLR 21/19 A3008 RMK AO2=
SPECI KGRR 081049Z 23003KT 2 1/2SM BR SCT120 BKN200 24/22 A3004 RMK 
    AO2=
SPECI KHTS 081049Z AUTO 00000KT 1 1/4SM BR CLR 21/20 A3009 RMK AO2 
    TSNO=
METAR KIGQ 081040Z AUTO 00000KT 2 1/2SM BR SCT060 SCT075 OVC100 
     23/22 A3002 RMK AO2=
SPECI KLAA 081049Z AUTO 09005KT 10SM -RA SCT016 OVC100 17/16 A3025 
    RMK AO2 RAB08 P0001=
SPECI KLSE 081049Z AUTO 34005KT 7SM FEW011 21/20 A3003 RMK AO2=
METAR KMQB 081045Z AUTO 28004KT 4SM BR OVC004 23/23 A3006 RMK AO2 
     T02300226=
METAR KMWA 081045Z AUTO 00000KT 10SM CLR 24/24 A3006 RMK AO2 
     T02420235=
METAR KPKV 081046Z AUTO 13003KT 7SM DZ SCT020 BKN037 OVC046 24/22 
     A2987 RMK AO2 P0010 T02400221=
METAR KPPA 081045Z AUTO 02006KT 10SM SCT060 SCT080 BKN090 17/16 
     A3018 RMK AO2=
METAR KPSN 081045Z AUTO 09006KT 7SM 24/23 A3002 RMK AO2 T02410234=
METAR KPYX 081050Z AUTO 04006KT 7SM SCT026 BKN090 OVC120 19/18 
     A3018 RMK AO2 P0002 T01850175=
METAR KRAS 081045Z AUTO 10009KT 4SM  BR FEW001 SCT015 BKN020 
     28/26 A2985 RMK AO2 P0001=
METAR KRBO 081045Z AUTO 03005KT 10SM SCT055 26/25 A2983 RMK AO2 
     P0001 T02600250=
METAR KRFI 081045Z AUTO 00000KT 7SM CLR 24/23 A3002 RMK AO2 
     T02360226=
METAR KRPH 081045Z AUTO 00000KT 10SM CLR 22/21 A3001 RMK AO2 
     T02230211=
METAR KRWV 081040Z AUTO 00000KT 8SM SCT008 SCT017 SCT024 24/24 
     A2998 RMK AO2=
METAR KRYW 081045Z AUTO 07005KT 3SM RA SCT004 BKN008 OVC016 24/23 
     A2999 RMK AO2 P0001=
METAR KSAR 081045Z AUTO 19005KT 7SM BKN065 26/23 A3005 RMK AO2=
METAR KSEP 081045Z AUTO 00000KT 10SM BKN011 BKN090 23/22 A3003 
     RMK AO1=
METAR KSLO 081041Z AUTO 19003KT 10SM SCT047 24/22 A3005 RMK AO2 
     T02400217=
METAR KSLR 081042Z AUTO 09003KT 7SM OVC033 25/24 A3005 RMK AO2 
     T02500235=
METAR KSNK 081046Z AUTO 02007KT 7SM OVC003 21/20 A3009 RMK AO2 
     T02080200=
METAR KSOA 081040Z AUTO 00000KT 8SM 22/21 A3007 RMK AO2=
METAR KSWW 081045Z AUTO 01004KT 3/4SM OVC002 21/21 A3010 RMK AO1 
     T02130210=
METAR KT65 081045Z AUTO 02003KT 10SM SCT046 SCT110 26/25 A2978 
     RMK AO2 P0001 T02550246=
METAR KT82 081045Z AUTO 10003KT OVC032 23/22 A3002 RMK AO1 
     T02250217=
METAR KTAZ 081045Z AUTO 00000KT 2SM BR CLR 23/23 A3003 RMK AO2=
METAR KTFP 081046Z AUTO 06005KT 10SM -RA SCT016 BKN048 OVC060 
     27/25 A2982 RMK AO2 P0001 T02680252=
METAR KTIP 081045Z AUTO 00000KT 3SM BR SCT100 24/23 A3005 RMK AO2 
     LTG DSNT N T02400232=
METAR KTYQ 081045Z AUTO 00000KT 4SM BR BKN090 22/21 A3006 RMK AO2=
METAR KUVA 081045Z AUTO 04005KT 10SM OVC021 24/23 A2995 RMK AO2 
     T02410230=
METAR KVYS 081045Z AUTO 00000KT 4SM BR OVC014 23/22 A3003 RMK AO2 
     T02300215=
SPECI KWST 081049Z AUTO 07004KT 10SM FEW002 OVC018 22/21 A3008 RMK 
    AO2=
METAR KXBP 081045Z AUTO 00000KT 10SM CLR 23/22 A3003 RMK AO2 
     T02330222=
####018002629####
SAUS99 KWBC 081051
METAR
KCCA 081055Z AUTO 00000KT 5SM BR OVC006 23/22 A3007 RMK AO2
     P0001=
KCDN 081055Z AUTO 00000KT 10SM CLR 23/20 A3000 RMK A02 P000=
KCKI 081055Z AUTO 00000KT 22/20 A2996 RMK AO2 PWINO=
KLRO 081055Z AUTO 00000KT 8SM CLR 23/19 A2995 RMK AO2=
KMKS 081055Z AUTO 00000KT 5SM BR CLR 22/20 A2996 RMK AO2 TSNO=
KIGQ 081040Z AUTO 00000KT 2 1/2SM BR SCT060 SCT075 OVC100 23/22
     A3002 RMK AO2=
KMQB 081045Z AUTO 28004KT 4SM BR OVC004 23/23 A3006 RMK AO2
     T02300226=
KMWA 081045Z AUTO 00000KT 10SM CLR 24/24 A3006 RMK AO2
     T02420235=
KPKV 081046Z AUTO 13003KT 7SM DZ SCT020 BKN037 OVC046 24/22 A2987
     RMK AO2 P0010 T02400221=
KPPA 081045Z AUTO 02006KT 10SM SCT060 SCT080 BKN090 17/16 A3018
     RMK AO2=
KPSN 081045Z AUTO 09006KT 7SM 24/23 A3002 RMK AO2 T02410234=
KPYX 081050Z AUTO 04006KT 7SM SCT026 BKN090 OVC120 19/18 A3018 RMK
     AO2 P0002 T01850175=
KRAS 081045Z AUTO 10009KT 4SM BR FEW001 SCT015 BKN020 28/26 A2985
     RMK AO2 P0001=
KRBO 081045Z AUTO 03005KT 10SM SCT055 26/25 A2983 RMK AO2 P0001
     T02600250=
KRFI 081045Z AUTO 00000KT 7SM CLR 24/23 A3002 RMK AO2
     T02360226=
KRPH 081045Z AUTO 00000KT 10SM CLR 22/21 A3001 RMK AO2
     T02230211=
KRWV 081040Z AUTO 00000KT 8SM SCT008 SCT017 SCT024 24/24 A2998 RMK
     AO2=
KRYW 081045Z AUTO 07005KT 3SM RA SCT004 BKN008 OVC016 24/23 A2999
     RMK AO2 P0001=
KSAR 081045Z AUTO 19005KT 7SM BKN065 26/23 A3005 RMK AO2=
KSEP 081045Z AUTO 00000KT 10SM BKN011 BKN090 23/22 A3003 RMK
     AO1=
KSLO 081041Z AUTO 19003KT 10SM SCT047 24/22 A3005 RMK AO2
     T02400217=
KSLR 081042Z AUTO 09003KT 7SM OVC033 25/24 A3005 RMK AO2
     T02500235=
KSNK 081046Z AUTO 02007KT 7SM OVC003 21/20 A3009 RMK AO2
     T02080200=
KSOA 081040Z AUTO 00000KT 8SM 22/21 A3007 RMK AO2=
KSWW 081045Z AUTO 01004KT 3/4SM OVC002 21/21 A3010 RMK AO1
     T02130210=
KT65 081045Z AUTO 02003KT 10SM SCT046 SCT110 26/25 A2978 RMK AO2
     P0001 T02550246=
KT82 081045Z AUTO 10003KT OVC032 23/22 A3002 RMK AO1 T02250217=
KTAZ 081045Z AUTO 00000KT 2SM BR CLR 23/23 A3003 RMK AO2=
KTFP 081046Z AUTO 06005KT 10SM -RA SCT016 BKN048 OVC060 27/25
     A2982 RMK AO2 P0001 T02680252=
KTIP 081045Z AUTO 00000KT 3SM BR SCT100 24/23 A3005 RMK AO2 LTG
     DSNT N T02400232=
KTYQ 081045Z AUTO 00000KT 4SM BR BKN090 22/21 A3006 RMK AO2=
KUVA 081045Z AUTO 04005KT 10SM OVC021 24/23 A2995 RMK AO2
     T02410230=
KVYS 081045Z AUTO 00000KT 4SM BR OVC014 23/22 A3003 RMK AO2
     T02300215=
KXBP 081045Z AUTO 00000KT 10SM CLR 23/22 A3003 RMK AO2
     T02330222=
####018000617####
SPUS99 KWBC 081051
SPECI
KCRS 081049Z AUTO 10003KT 10SM FEW010 BKN015 25/24 A2999 RMK
     AO2=
KGKY 081049Z AUTO 13007KT 10SM BKN015 OVC022 25/23 A3001 RMK
     AO2=
KFFT 081049Z AUTO 00000KT 2SM BR CLR 21/19 A3008 RMK AO2=
KGRR 081049Z 23003KT 2 1/2SM BR SCT120 BKN200 24/22 A3004 RMK
     AO2=
KHTS 081049Z AUTO 00000KT 1 1/4SM BR CLR 21/20 A3009 RMK AO2
     TSNO=
KLAA 081049Z AUTO 09005KT 10SM -RA SCT016 OVC100 17/16 A3025 RMK
     AO2 RAB08 P0001=
KLSE 081049Z AUTO 34005KT 7SM FEW011 21/20 A3003 RMK AO2=
KWST 081049Z AUTO 07004KT 10SM FEW002 OVC018 22/21 A3008 RMK
     AO2=
####018000216####
SAMX45 MMMY 081049
METAR MMMY 081043Z 32008KT 15SM  SKC 24/22 A2986 RMK ISOL AC=
METAR MMAN 081043Z 28008KT 10SM  SCT040 24/23 A2990 RMK 8/500=
METAR MMIO 081040Z 00000KT 8SM BKN040 18/15 A3010 RMK 8/500 HZY=
####018000104####
SPAU31 KWBC 081051
SPECI
YBRM 081044Z AUTO 36005KT 7000NDV // BKN025 BKN029 OVC035 24/22
Q1011=
####018000092####
SAAH10 OAKB 081050
METAR OAKB 081050Z VRB02KT 9999 SCT070 34/08 Q1014 NOSIG RMK BLU BLU=
####018000074####
SAEO31 EETN 081050
METAR EETN 081050Z 32009KT CAVOK 24/18 Q1014 NOSIG=
####018000100####
SAKY31 RUMS 081030 RRB
METAR UAFO 081030Z 33003MPS 9999 FEW050CB 34/14 Q1017 NOSIG RMK
QFEM684=
####018000091####
SALT31 EYVI 081050
METAR EYVI 081050Z 29011KT 250V320 2600 RA OVC005 15/14 Q1015 NOSIG=
####018000097####
SALV31 EVRA 081050
METAR EVRA 081050Z 32010KT 280V350 9999 SCT010 OVC023 19/15 Q1016 
NOSIG=
####018000074####
SAQB31 LQMO 081100
METAR LQMO 081100Z 01012KT 9999 FEW045 28/09 Q1017=
####018000109####
SPCN31 KWBC 081051
SPECI
CYQX 081049Z 18009KT 20SM FEW005 FEW030 BKN055 BKN100 14/ RMK
SF2SC1SC2AC2=
####018000089####
SALT32 EYVI 081050
METAR EYKA 081050Z 28008KT 220V320 9999 BKN027 OVC034 17/14 Q1016=
####018000093####
SAUZ31 UTTW 081030
METAR UTSA 081030Z 02007MPS 9999 FEW160 40/04 Q1008 R88/CLRD70
NOSIG=
####018000107####
SPUS31 KWBC 081051
SPECI
KJFK 081048Z 14006KT 1/8SM R04R/1800V3000FT BR BKN002 BKN120 24/23
A3004=
####018000090####
SPUS41 KWBC 081051
SPECI
KPSM 081045Z 15005KT 7SM FEW010 BKN040 OVC075 23/21 A3007=
####018000119####
SPUS41 KWBC 081051
SPECI
KWRI 081048Z AUTO 00000KT 1SM R18/4500VP6000FT R24/2800VP6000FT BR
VV001 23/23 A3001=
####018000093####
SAUS42 KWBC 081000 RRG
METAR
KGLE 081044Z AUTO 00000KT 10SM BKN024 BKN090 26/23 A3005=
####018001132####
SAUS43 KWBC 081000 RRJ
METAR
K1H2 081045Z AUTO 12003KT 4SM BR CLR 23/23 A3004=
KAAA 081043Z AUTO 00000KT 1 3/4SM BR VV007 22/22 A3003=
KC09 081044Z AUTO 00000KT 2SM BR SCT047 SCT065 BKN120 21/21
     A3002=
KC75 081044Z AUTO 00000KT 4SM BR BKN014 OVC039 24/24 A3003=
KDKB 081041Z AUTO 17006KT 1 1/2SM BR OVC002 22/21 A3002=
KDNV 081045Z AUTO 00000KT 5SM BR SCT090 22/21 A3001=
KENL 081045Z AUTO 00000KT 10SM SCT049 SCT060 24/16 A3004=
KFEP 081045Z AUTO 00000KT 5SM BR SCT029 22/20 A3003=
KFOA 081045Z AUTO 00000KT 3SM BR CLR 25/25 A3004=
KFWC 081045Z AUTO 00000KT 5SM BR CLR 22/21 A3004=
KGBG 081045Z AUTO 28003KT 1 3/4SM BR OVC002 23/22 A3004=
KHSB 081045Z AUTO 00000KT 4SM BR CLR 22/21 A3005=
KIJX 081045Z AUTO 00000KT 2 1/2SM RA 24/23 A3004=
KJOT 081046Z AUTO 00000KT 2SM BR CLR 23/22 A3002=
KLOT 081041Z AUTO 00000KT 2SM BR SCT085 22/21 A3001=
KOLY 081043Z AUTO 00000KT 4SM BR CLR 23/22 A3004=
KPNT 081045Z AUTO 14003KT 2 1/2SM VCTSBR SCT007 BKN046 120 22/22
     A3004=
KPPQ 081045Z AUTO 00000KT 7SM -RA SCT050 SCT065 23/22 A3005=
KPRG 081045Z AUTO 00000KT 4SM BR CLR 21/21 A3005=
####018000090####
SPUS51 KWBC 081051
SPECI
KPSM 081045Z 15005KT 7SM FEW010 BKN040 OVC075 23/21 A3007=
####018000219####
SAUS44 KWBC 081000 RRH
METAR
K11R 081044Z AUTO 04003KT 7SM CLR 24/23 A2995=
KBPG 081045Z AUTO 36003KT 7SM SCT095 SCT120 21/20 A3009=
KBYY 081046Z AUTO 09005KT 10SM -RA SCT022 SCT035 BKN048 26/25
     A2987=
####018000081####
SPUS52 KWBC 081051
SPECI
KJCT 081048Z AUTO 00000KT 8SM SCT014 22/21 A3000=
####018000097####
SPUS53 KWBC 081051
SPECI
KSPI 081048Z 00000KT 3SM -RA BR FEW008 SCT026 BKN045 23/23 A3004=
####018000093####
SAUS53 KWBC 081000 RRM
METAR
KLNC 081045Z AUTO 00000KT 10SM BKN009 OVC020 25/24 A3001=
####018000099####
SALV31 EVRA 081050
METAR EVRA 081050Z 32010KT 280V350 9999 SCT010 OVC023 19/15 Q1016 
NOSIG=
####018000125####
SAUS54 KWBC 081000 RRH
METAR
KIGM 081048Z AUTO 00000KT 10SM CLR 22/M03 A2995=
KJDN 081048Z AUTO 27005KT 11/07 A3018=
####018000321####
SAIS31 LLBG 081050
METAR LLBG 081050Z 28008KT CAVOK 31/17 Q1009 NOSIG=
METAR LLOV 081050Z 33005KT CAVOK 35/09 Q1010=
METAR LLET 081050Z 03015KT CAVOK 39/12 Q1005=
METAR LLHA 081050Z 25009KT 9999 FEW025 30/17 Q1009=
METAR LLIB 081050Z 19008KT CAVOK 33/16 Q1009=
METAR LLSD 081050Z 26011KT CAVOK 29/21 Q1009=
####018000095####
SAUZ31 UTTW 081030
METAR UTSA 081030Z 02007MPS 9999 FEW160 40/04 Q1008 R88/CLRD70
NOSIG=
####018000090####
SALT32 EYVI 081050
METAR EYKA 081050Z 28008KT 220V320 9999 BKN027 OVC034 17/14 Q1016=
####018000075####
SAQB31 LQMO 081100
METAR LQMO 081100Z 01012KT 9999 FEW045 28/09 Q1017=
####018000102####
SAKY31 RUMS 081030 RRB
METAR UAFO 081030Z 33003MPS 9999 FEW050CB 34/14 Q1017 NOSIG RMK
QFEM684=
####018000075####
SAEO31 EETN 081050
METAR EETN 081050Z 32009KT CAVOK 24/18 Q1014 NOSIG=
####018000092####
SALT31 EYVI 081050
METAR EYVI 081050Z 29011KT 250V320 2600 RA OVC005 15/14 Q1015 NOSIG=
####018000096####
SAUZ31 UTTW 081030
METAR UTSA 081030Z 02007MPS 9999 FEW160 40/04 Q1008 R88/CLRD70 
NOSIG=
####018000120####
SAMP31 LMMM 081100
METAR HLLT NIL=
METAR HLLB NIL=
METAR LMML 081045Z 04007KT 360V090 CAVOK 29/20 Q1018 NOSIG =
####018000136####
SAYE20 OYAA 081100
METAR OYAA 081100Z 21015KT 6000 NSC 34/20 Q1001=
METAR OYSQ 081100Z 22047G57KT 9999 FEW018 SCT200 33/24 Q1001=
####018000170####
SAFA31 EKCH 081050
METAR EKVG 081050Z 18014KT 9999 -SHRA SCT004 BKN008 BKN012 11/10
Q0993 RMK/RWY 13/31 CLOSED DUE WIP. SEE NOTAM E0050/10 WIND
850FT VRB06G23KT=
####018000079####
SAHW31 KMSC 081051
METAR PGRO 081050Z 09013G19KT 7SM FEW020 27/24 A2992
=
####018000331####
SAUS20 KNKA 081051
METAR KBVI 081047Z 00000KT 4SM HZ SCT060 24/21 A3013=
SPECI KFNB 081050Z AUTO 34007KT 10SM BKN017 21/20 A3009 RMK AO2=
METAR KHXD 081050Z 21006KT 10SM SKC 23/21 A2998=
METAR KLBE 081050Z 00000KT 4SM BR SCT200 18/17 A3011=
SPECI KLCH 081050Z AUTO 06007KT 9SM BKN011 OVC024 25/23 A2997 RMK 
    AO2=
####018000142####
SAUS73 KWBC 081000 RRI
METAR
KALN 081043Z AUTO 00000KT 7SM SCT045 BKN055 25/24 A3004=
KGYY 081045Z VRB04KT 4SM BR OVC055 24/23 A3002=
####018000097####
SPUS73 KWBC 081051
SPECI
KSPI 081048Z 00000KT 3SM -RA BR FEW008 SCT026 BKN045 23/23 A3004=
####018000072####
SAAK17 KAWN 081100
PATC SA 1055 AWOS CLR BLO 120 10 46/43/0209/015=
####018000085####
SAKW35 OKBK 081100
METAR OKBK 081100Z 34020KT 7000 -BLDU SKC 48/M09 Q0999 NOSIG=
####018000105####
SAUS41 KGYX 081051
MTRMWN
METAR KMWN 081049Z 16002KT 6SM HZ FEW000 FEW001 16/14
RMK HZ FEW000

####018000099####
SPUS90 KWBC 081052
SPECI KJCT 081048Z AUTO 00000KT 8SM SCT014 22/21 A3000 RMK AO2
     TSNO=
####018000371####
SAUS90 KWBC 081100
METAR KJDN 081048Z AUTO 27005KT 11/07 A3018 RMK AO2 SLP216
     T01060072 PWINO TSNO=
METAR KIGM 081048Z AUTO 00000KT 10SM CLR 22/M03 A2995 RMK AO2
     SLP066 T02171028 TSNO=
METAR MYEG 081059Z AUTO 15004KT 10SM SCT019 SCT025 SCT033 27/24
     A2993 RMK AO2=
METAR KMWN 081049Z 16002KT 6SM HZ FEW000 FEW001 16/14 RMK HZ
     FEW000=
####018000130####
SPCN47 CWAO 081051
SPECI CYTZ 081051Z AUTO 20002KT 1 1/4SM BR BKN003 20/19 A3002 RMK
 SLP166 DENSITY ALT 700FT RVR MISG=

####018000827####
SAUS20 KNKA 081051
METAR KBNL 081055Z AUTO 32004KT 10SM CLR 23/18 A2999 RMK AO2 =
METAR KCQW 081055Z AUTO 27005KT 5SM  HZ CLR 22/18 A2997 RMK AO2 =
SPECI KDAL 081051Z 14007KT 10SM FEW016 BKN027 BKN037 26/23 A3001 RMK 
    AO2=
SPECI KEKQ 081049Z AUTO 00000KT 1 1/4SM BR CLR 18/18 A3012 RMK AO2 =
SPECI KFZY 081050Z AUTO 00000KT 3SM BR CLR 23/22 A3004 RMK AO2=
METAR KGYH 081047Z 00000KT 10SM CLR 22/19 A3004=
SPECI KILN 081050Z AUTO 00000KT 3SM BR CLR 21/19 A3009 RMK AO2=
METAR KISM 081050Z 00000KT 10SM SKC 22/21 A3000 RMK FIRST=
METAR KLKR 081055Z AUTO 00000KT 5SM BR CLR 18/18 A3001 RMK AO2 =
METAR KMYR 081045Z 31008KT 10SM SCT110 25/19 A2996 =
METAR KOLV 081055Z AUTO 00000KT 8SM CLR 23/23 A3009 RMK A01 P000 =
SPECI KPSM 081045Z 15005KT 7SM FEW010 BKN040 OVC075 23/21 A3007 RMK
      AO2A=
####018000096####
SAUS98 KWBC 081052
METAR KEHA 081048Z AUTO 34005KT 17/16 RMK AO1 PK WND 09 064
T01720162=
####018000502####
SPUS99 KWBC 081052
SPECI
KFNB 081050Z AUTO 34007KT 10SM BKN017 21/20 A3009 RMK AO2=
KLCH 081050Z AUTO 06007KT 9SM BKN011 OVC024 25/23 A2997 RMK
     AO2=
KDAL 081051Z 14007KT 10SM FEW016 BKN027 BKN037 26/23 A3001 RMK
     AO2=
KEKQ 081049Z AUTO 00000KT 1 1/4SM BR CLR 18/18 A3012 RMK AO2=
KFZY 081050Z AUTO 00000KT 3SM BR CLR 23/22 A3004 RMK AO2=
KILN 081050Z AUTO 00000KT 3SM BR CLR 21/19 A3009 RMK AO2=
KPSM 081045Z 15005KT 7SM FEW010 BKN040 OVC075 23/21 A3007 RMK
     AO2A=
####018000562####
SAUS99 KWBC 081052
METAR
KBVI 081047Z 00000KT 4SM HZ SCT060 24/21 A3013=
KHXD 081050Z 21006KT 10SM SKC 23/21 A2998=
KLBE 081050Z 00000KT 4SM BR SCT200 18/17 A3011=
KBNL 081055Z AUTO 32004KT 10SM CLR 23/18 A2999 RMK AO2=
KCQW 081055Z AUTO 27005KT 5SM HZ CLR 22/18 A2997 RMK AO2=
KGYH 081047Z 00000KT 10SM CLR 22/19 A3004=
KISM 081050Z 00000KT 10SM SKC 22/21 A3000 RMK FIRST=
KLKR 081055Z AUTO 00000KT 5SM BR CLR 18/18 A3001 RMK AO2=
KMYR 081045Z 31008KT 10SM SCT110 25/19 A2996=
KOLV 081055Z AUTO 00000KT 8SM CLR 23/23 A3009 RMK A01 P000=
####018000123####
SAMX53 MMMZ 081100
METAR MMDO 081048Z 03008KT 6SM  SCT015 OVC020 18/17 A3012 
      RMK 8/8// RTS=





TX OPMET V1
####018000134####
SAYE20 OYAA 081100
METAR OYAA 081100Z 21015KT 6000 NSC 34/20 Q1001=
METAR OYSQ 081100Z 22047G57KT 9999 FEW018 SCT200 33/24 Q1001=
####018000167####
SAFA31 EKCH 081050
METAR EKVG 081050Z 18014KT 9999 -SHRA SCT004 BKN008 BKN012 11/10
Q0993 RMK/RWY 13/31 CLOSED DUE WIP. SEE NOTAM E0050/10 WIND
850FT VRB06G23KT=
####018000095####
SAGU31 MGGT 081100
METAR
MGGT 081100Z 20003KT 9999 FEW015 BKN090 16/14 Q1022 A3018 NOSIG =
####018000117####
SACS31 MROC 081100
METAR
MROC 081100Z 00000KT 9999 BR SCT005 SCT100 19/19 A3001 RMK
             VIS 5000 NE S=
####018000143####
SAKA31 PTYA 081100
METAR PTYA 081050Z 10012KT 12SM SCT016CB SCT030 BKN130 OVC300 27/23
A2987 RMK SHRAB30E38 CB VC NE-SE SLP117 T02700231=
####018000130####
SACS31 MROC 081100
METAR
MROC 081100Z 00000KT 9999 BR SCT005 SCT100 19/19 A3001 RMK
             VIS 5000 NE S=






####018000353####
SAUS70 KWBC 081052
METAR
KIGQ 081040Z AUTO 00000KT 2 1/2SM BR SCT060 SCT075 OVC100 23/22
     A3002 RMK AO2=
KRWV 081040Z AUTO 00000KT 8SM SCT008 SCT017 SCT024 24/24 A2998 RMK
     AO2=
KSLO 081041Z AUTO 19003KT 10SM SCT047 24/22 A3005 RMK AO2
     T02400217=
KSLR 081042Z AUTO 09003KT 7SM OVC033 25/24 A3005 RMK AO2
     T02500235=
####018000687####
SPXX60 KWBC 081052
SPECI
KDTS 081045Z AUTO 00000KT 3SM BR FEW001 24/23 A3001 RMK AO2=
KNEL 081042Z AUTO 00000KT 2SM BR SCT005 SCT070 OVC100 24/22 A3003
     RMK AO2 $=
KNQI 081045Z AUTO 02007KT 2 1/2SM +RA BR BKN022 BKN031 OVC060
     27/24 A2983 RMK AO2 RAB18 P0007 $=
KPSM 081045Z 15005KT 7SM FEW010 BKN040 OVC075 23/21 A3007 RMK
     AO2A=
KRIV 081049Z AUTO 29005KT 4SM BR OVC003 13/12 A2990 RMK AO2
     SLP121=
KWRI 081048Z AUTO 00000KT 1SM R18/4500VP6000FT R24/2800VP6000FT BR
     VV001 23/23 A3001 RMK AO2 SLP161 $=
KFZY 081050Z AUTO 00000KT 3SM BR CLR 23/22 A3004 RMK AO2=
KPSM 081045Z 15005KT 7SM FEW010 BKN040 OVC075 23/21 A3007 RMK
     AO2A=
####018000074####
SAQB31 LQSM 081100
METAR LQTZ 081100Z VRB02KT 9999 FEW040 21/// Q1023=
####018000082####
SAUS80 KWBC 081052
METAR
KSOA 081040Z AUTO 00000KT 8SM 22/21 A3007 RMK AO2=
####018000728####
SPUS70 KWBC 081052
SPECI
KJCT 081048Z AUTO 00000KT 8SM SCT014 22/21 A3000 RMK AO2 TSNO=
KCRS 081049Z AUTO 10003KT 10SM FEW010 BKN015 25/24 A2999 RMK
     AO2=
KGKY 081049Z AUTO 13007KT 10SM BKN015 OVC022 25/23 A3001 RMK
     AO2=
KFFT 081049Z AUTO 00000KT 2SM BR CLR 21/19 A3008 RMK AO2=
KLAA 081049Z AUTO 09005KT 10SM -RA SCT016 OVC100 17/16 A3025 RMK
     AO2 RAB08 P0001=
KLSE 081049Z AUTO 34005KT 7SM FEW011 21/20 A3003 RMK AO2=
KWST 081049Z AUTO 07004KT 10SM FEW002 OVC018 22/21 A3008 RMK
     AO2=
KLCH 081050Z AUTO 06007KT 9SM BKN011 OVC024 25/23 A2997 RMK
     AO2=
KEKQ 081049Z AUTO 00000KT 1 1/4SM BR CLR 18/18 A3012 RMK AO2=
KILN 081050Z AUTO 00000KT 3SM BR CLR 21/19 A3009 RMK AO2=
####018000165####
SAAW31 KWBC 081030 RRA
METAR
LLBG 081050Z 28008KT CAVOK 31/17 Q1009 NOSIG=
LLET 081050Z 03015KT CAVOK 39/12 Q1005=
LLOV 081050Z 33005KT CAVOK 35/09 Q1010=
####018000201####
SAPQ50 KWBC 081100
METAR
PGRO 081050Z 09013G19KT 7SM FEW020 27/24 A2992=
PTYA 081050Z 10012KT 12SM SCT016CB SCT030 BKN130 OVC300 27/23
     A2987 RMK SHRAB30E38 CB VC NE-SE SLP117 T02700231=
####018000319####
SPUS80 KWBC 081052
SPECI
KGRR 081049Z 23003KT 2 1/2SM BR SCT120 BKN200 24/22 A3004 RMK
     AO2=
KHTS 081049Z AUTO 00000KT 1 1/4SM BR CLR 21/20 A3009 RMK AO2
     TSNO=
KFNB 081050Z AUTO 34007KT 10SM BKN017 21/20 A3009 RMK AO2=
KDAL 081051Z 14007KT 10SM FEW016 BKN027 BKN037 26/23 A3001 RMK
     AO2=
####018000607####
SAUS80 KWBC 081100
METAR
KJDN 081048Z AUTO 27005KT 11/07 A3018 RMK AO2 SLP216 T01060072
     PWINO TSNO=
KIGM 081048Z AUTO 00000KT 10SM CLR 22/M03 A2995 RMK AO2 SLP066
     T02171028 TSNO=
KPSN 081045Z AUTO 09006KT 7SM 24/23 A3002 RMK AO2 T02410234=
KRFI 081045Z AUTO 00000KT 7SM CLR 24/23 A3002 RMK AO2
     T02360226=
KSEP 081045Z AUTO 00000KT 10SM BKN011 BKN090 23/22 A3003 RMK
     AO1=
KMWN 081049Z 16002KT 6SM HZ FEW000 FEW001 16/14 RMK HZ FEW000=
KISM 081050Z 00000KT 10SM SKC 22/21 A3000 RMK FIRST=
KEHA 081048Z AUTO 34005KT 17/16 RMK AO1 PK WND 09 064
     T01720162=
####018002518####
SAUS70 KWBC 081100
METAR
KCCA 081055Z AUTO 00000KT 5SM BR OVC006 23/22 A3007 RMK AO2
     P0001=
KCDN 081055Z AUTO 00000KT 10SM CLR 23/20 A3000 RMK A02 P000=
KCKI 081055Z AUTO 00000KT 22/20 A2996 RMK AO2 PWINO=
KLRO 081055Z AUTO 00000KT 8SM CLR 23/19 A2995 RMK AO2=
KMKS 081055Z AUTO 00000KT 5SM BR CLR 22/20 A2996 RMK AO2 TSNO=
KMQB 081045Z AUTO 28004KT 4SM BR OVC004 23/23 A3006 RMK AO2
     T02300226=
KMWA 081045Z AUTO 00000KT 10SM CLR 24/24 A3006 RMK AO2
     T02420235=
KPKV 081046Z AUTO 13003KT 7SM DZ SCT020 BKN037 OVC046 24/22 A2987
     RMK AO2 P0010 T02400221=
KPPA 081045Z AUTO 02006KT 10SM SCT060 SCT080 BKN090 17/16 A3018
     RMK AO2=
KPYX 081050Z AUTO 04006KT 7SM SCT026 BKN090 OVC120 19/18 A3018 RMK
     AO2 P0002 T01850175=
KRAS 081045Z AUTO 10009KT 4SM BR FEW001 SCT015 BKN020 28/26 A2985
     RMK AO2 P0001=
KRBO 081045Z AUTO 03005KT 10SM SCT055 26/25 A2983 RMK AO2 P0001
     T02600250=
KRPH 081045Z AUTO 00000KT 10SM CLR 22/21 A3001 RMK AO2
     T02230211=
KRYW 081045Z AUTO 07005KT 3SM RA SCT004 BKN008 OVC016 24/23 A2999
     RMK AO2 P0001=
KSAR 081045Z AUTO 19005KT 7SM BKN065 26/23 A3005 RMK AO2=
KSNK 081046Z AUTO 02007KT 7SM OVC003 21/20 A3009 RMK AO2
     T02080200=
KSWW 081045Z AUTO 01004KT 3/4SM OVC002 21/21 A3010 RMK AO1
     T02130210=
KT65 081045Z AUTO 02003KT 10SM SCT046 SCT110 26/25 A2978 RMK AO2
     P0001 T02550246=
KT82 081045Z AUTO 10003KT OVC032 23/22 A3002 RMK AO1 T02250217=
KTAZ 081045Z AUTO 00000KT 2SM BR CLR 23/23 A3003 RMK AO2=
KTFP 081046Z AUTO 06005KT 10SM -RA SCT016 BKN048 OVC060 27/25
     A2982 RMK AO2 P0001 T02680252=
KTIP 081045Z AUTO 00000KT 3SM BR SCT100 24/23 A3005 RMK AO2 LTG
     DSNT N T02400232=
KTYQ 081045Z AUTO 00000KT 4SM BR BKN090 22/21 A3006 RMK AO2=
KUVA 081045Z AUTO 04005KT 10SM OVC021 24/23 A2995 RMK AO2
     T02410230=
KVYS 081045Z AUTO 00000KT 4SM BR OVC014 23/22 A3003 RMK AO2
     T02300215=
KXBP 081045Z AUTO 00000KT 10SM CLR 23/22 A3003 RMK AO2
     T02330222=
KBVI 081047Z 00000KT 4SM HZ SCT060 24/21 A3013=
KHXD 081050Z 21006KT 10SM SKC 23/21 A2998=
KLBE 081050Z 00000KT 4SM BR SCT200 18/17 A3011=
KBNL 081055Z AUTO 32004KT 10SM CLR 23/18 A2999 RMK AO2=
KCQW 081055Z AUTO 27005KT 5SM HZ CLR 22/18 A2997 RMK AO2=
KGYH 081047Z 00000KT 10SM CLR 22/19 A3004=
KLKR 081055Z AUTO 00000KT 5SM BR CLR 18/18 A3001 RMK AO2=
KMYR 081045Z 31008KT 10SM SCT110 25/19 A2996=
KOLV 081055Z AUTO 00000KT 8SM CLR 23/23 A3009 RMK A01 P000=
####018000089####
SAEE31 KWBC 081030 RRC
METAR
EYSA 081050Z 33015KT 300V360 9999 OVC030 17/12 Q1017=
####018000118####
SAUS46 KSGX 081052
MTRSAN
METAR KSAN 081051Z 31005KT 10SM SCT014 OVC017 17/13 A2991 RMK AO2 
SLP126 T01670133
####018000089####
SAMM31 KWBC 081030 RRA
METAR
LMML 081045Z 04007KT 360V090 CAVOK 29/20 Q1018 NOSIG=
####018000175####
SARA31 KWBC 081000 RRL
METAR
UAFO 081030Z 33003MPS 9999 FEW050CB 34/14 Q1017 NOSIG RMK
     QFEM684=
UTSA 081030Z 02007MPS 9999 FEW160 40/04 Q1008 R88/CLRD70 NOSIG=
####018000085####
SPUS41 KWBC 081052
SPECI
KHTS 081049Z AUTO 00000KT 1 1/4SM BR CLR 21/20 A3009=
####018000090####
SPUS43 KWBC 081052
SPECI
KGRR 081049Z 23003KT 2 1/2SM BR SCT120 BKN200 24/22 A3004=
####018000128####
SACN60 CWAO 081000 RRD
PHE SA 1000 AUTO8 M M M M/09/09/MMMM/M/ M 48MM=
PRD SA 1000 AUTO8 M M M M/12/08/1910/M/ M 57MM=

####018000139####
SACN97 CWAO 081000 RRG
XLC SA 1000 AUTO8 M M M 144/12/09/MMMM/M/M 3002 42MM=
XLL SA 1000 AUTO8 M M M 156/11/11/2101/M/ 8011 44MM=

####018000084####
SACN89 CWAO 081000 RRG
WDT SA 1000 AUTO7 M M M 167/18/18/3103/M/M 3004 22MM=

####018000083####
SACN96 CWAO 081000 RRF
XND SA 1000 AUTO8 M M M 231/07/07/MM01/M/ 8000 28MM=

####018000083####
SACN88 CWAO 081000 RRH
WZN SA 1000 AUTO8 M M M 211/11/M/1412/M/M 1006 1MMM=

####018000411####
SACN59 CWAO 081000 RRH
NLB SA 1000 AUTO8 M M M M/15/12/2206/M/0009 PCPN 0.9MM PAST HR M
68MM=
NLD SA 1000 AUTO8 M M M M/10/09/3006/M/0004 M 20MM=
NNR SA 1000 AUTO8 M M M M/10/08/2606/M/ M 76MM=
NTK SA 1000 AUTO8 M M M M/13/10/2003/M/ M 51MM=
PCM SA 1000 AUTO8 M M M M/08/08/MMMM/M/0004 M 37MM=
PQU SA 1000 AUTO8 M M M M/11/09/1804/M/ M 24MM=
PTR SA 1000 AUTO8 M M M M/13/10/MMMM/M/ M 21MM=

####018000083####
SACN94 CWAO 081000 RRE
WSQ SA 1000 AUTO8 M M M 098/06/04/2708/M/ 3002 64MM=

####018000090####
SPUS73 KWBC 081052
SPECI
KGRR 081049Z 23003KT 2 1/2SM BR SCT120 BKN200 24/22 A3004=
####018000081####
SPUS73 KWBC 081052
SPECI
KLSE 081049Z AUTO 34005KT 7SM FEW011 21/20 A3003=
####018000116####
SAZS31 NSTU 081100
METAR NSTU 081050Z 09011KT 10SM SCT016 SCT045 28/26 A2990 RMK SLP125 
 T02780262 403000260=
####018000098####
SAEU31 BKPR 081100
METAR BKPR 081100Z 01008KT 9999 SCT030 BKN070 16/11 Q1021 NOSIG RMK
BLU=
####018000118####
SAMP31 LMMM 081100
METAR HLLT NIL=
METAR HLLB NIL=
METAR LMML 081045Z 04007KT 360V090 CAVOK 29/20 Q1018 NOSIG =
####018000090####
SPUS81 KWBC 081052
SPECI
KGRR 081049Z 23003KT 2 1/2SM BR SCT120 BKN200 24/22 A3004=
####018000085####
SPUS81 KWBC 081052
SPECI
KHTS 081049Z AUTO 00000KT 1 1/4SM BR CLR 21/20 A3009=
####018000092####
SPCN51 CWAO 081051
SPECI CZCP 081051Z AUTO 29022KT 1/8SM DZ OVC017 OVC021 05/ A2984=

####018000076####
SALY31 HLLT 081100
METAR HLLT 081050Z 33005KT 280V030 8000 31/19 Q1019=
####018000594####
SAXX70 KAWN 081100 RRB
METAR KQEI 081050Z AUTO 15002KT 7SM -SHRA CLR 23/19 A2993 RMK A02=
METAR KQEN 081050Z AUTO 27008KT 7SM BKN075 20/16 A3040 RMK A02=
METAR KQEP 081050Z AUTO 00000KT 7SM DZ OVC060 26/19 A2986 RMK A02=
METAR KQER 081050Z AUTO 12001KT 2SM -RA BR OVC055 22/20 A2988 RMK A02=
METAR KQES 081050Z AUTO 19003KT 6SM BR BKN120 24/20 A2984 RMK A02=
METAR KQEY 081050Z AUTO 32005KT 7SM BKN100 27/17 A2959 RMK A02=
METAR KQFV 081050Z AUTO 35004KT 6SM BR FEW024 BKN031 23/19 A3002 RMK
      A02=
METAR KQEV 081100Z AUTO 30001KT 7SM FEW080 FEW100 26/20 A2979 RMK A02=
####018000091####
SAXX70 KAWN 081000 RRW
METAR KQFU 081030Z AUTO 22003KT 7SM OVC040 24/19 A2989 RMK A02=
####018002204####
SAUS20 KNKA 081052
METAR KLGA 081051Z 05006KT 3SM HZ BKN015 BKN095 BKN130 26/23 A3003 
    RMK AO2 VIS 2 R22 SW SLP168 T02560228=
METAR KLGU 081051Z AUTO 00000KT 10SM CLR 13/07 A3015 RMK AO2 SLP164 
    T01280067=
SPECI KLUK 081051Z 00000KT 1 1/2SM R21L/3500V4500FT BCFG CLR 22/21 
    A3008 RMK AO2=
METAR KMDW 081051Z 00000KT 4SM -RA BR FEW020 BKN042 BKN130 OVC200 
    24/22 A3002 RMK AO2 RAB29 SLP153 P0002 T02390217=
METAR KMPV 081051Z AUTO 00000KT 2 1/2SM BR CLR 22/20 A3012 RMK AO2 
    SLP191 T02170200=
METAR KMYL 081051Z AUTO 00000KT 10SM CLR 07/04 A3018 RMK AO2 SLP188 
    T00670039=
METAR KOKM 081051Z AUTO 01004KT 10SM OVC005 24/24 A3004 RMK AO1 
     LTG DSNT NE AND E=
METAR KONM 081047Z AUTO 00000KT 10SM BKN110 18/15 A3021 RMK AO2 
     T01810148=
METAR KORD 081051Z 18003KT 9SM -RA FEW025 SCT060 BKN075 OVC150 23/22 
    A3002 RMK AO2 RAB48 SLP159 P0000 T02280222=
METAR KOXR 081051Z AUTO 30005KT 10SM OVC011 15/13 A2990 RMK AO2 
    SLP124 T01500128 $=
METAR KPHX 081051Z 00000KT 10SM FEW170 31/02 A2976 RMK AO2 SLP055 
    T03110017 $=
SPECI KPIA 081051Z 20003KT 1 3/4SM BR SCT005 OVC010 23/22 A3003 RMK 
    AO2 CIG 008V012=
METAR KPIT 081051Z 00000KT 5SM HZ SCT050 21/18 A3010 RMK AO2 SLP187 
    T02110183=
METAR KPWM 081051Z 19007KT 9SM OVC006 22/20 A3009 RMK AO2 CIG 
    006V009 SLP188 T02170200 $=
METAR KRDU 081051Z 03005KT 5SM HZ SCT080 25/19 A2999 RMK AO2 SLP147 
    T02500189 $=
METAR KROW 081051Z AUTO 36008KT 10SM OVC031 20/16 A3018 RMK AO2 
    SLP161 T02000161 TSNO=
METAR KSLK 081051Z AUTO 00000KT 5SM HZ CLR 21/18 A3009 RMK AO2 
    SLP176 T02110183=
METAR KSMO 081051Z AUTO 00000KT 10SM OVC011 16/13 A2990 RMK AO2 
    SLP124 T01610128=
METAR KSTL 081051Z 23003KT 10SM FEW012 BKN044 BKN080 BKN250 26/23 
    A3005 RMK AO2 SLP161 TCU DSNT NW T02560233=
METAR KTEB 081051Z 00000KT 3SM MIFG CLR 26/22 A3002 RMK AO2 SLP165 
    T02610222=
METAR KTIX 081047Z VRB05KT 7SM FEW030 21/19 A2999 RMK FIRST=
METAR KVNY 081051Z AUTO 00000KT 6SM BR OVC008 15/13 A2989 RMK AO2 
    SLP116 T01500128=
METAR KYNG 081051Z 00000KT 5SM BR HZ FEW060 19/18 A3010 RMK AO2 
    SLP182 T01940178=
####018002953####
SAUS20 KNKA 081052
METAR K36U 081055Z AUTO 15004KT 10SM CLR 09/04 A3022 RMK AO2=
METAR KAHN 081051Z AUTO 00000KT 5SM BR CLR 22/19 A3004 RMK AO2 
    SLP162 T02170194 $=
METAR KALB 081051Z 00000KT 4SM HZ FEW080 24/22 A3004 RMK AO2 SLP170 
    T02440217=
SPECI KALI 081051Z AUTO 03008KT 10SM -RA SCT006 25/24 A2983 RMK AO2 
    RAE21B50 P0000=
METAR KASH 081051Z VRB03KT 4SM HZ FEW015 BKN039 24/22 A3008 RMK AO2 
    T02440216 SLP188=
METAR KAVX 081051Z AUTO 33003KT 1/4SM FG VV001 12/12 A2992 RMK AO2 
    SLP122 T01170117 TSNO=
METAR KBAZ 081051Z AUTO 05006KT 9SM FEW008 SCT030 BKN060 25/24 A2993 
    RMK AO2 RAB09E31 SLP124 P0001 T02500239=
METAR KBDL 081051Z 15004KT 5SM HZ BKN010 BKN100 24/22 A3006 RMK AO2 
    SLP176 T02440217=
METAR KBGD 081051Z AUTO 35005KT 10SM BKN031 BKN070 OVC095 18/18 
    A3019 RMK AO2 SLP183 T01830178=
METAR KBKW 081051Z AUTO 00000KT 3SM BR FEW070 20/18 A3017 RMK AO2 
    SLP176 T02000183 VISNO RWY19 $=
METAR KCHK 081051Z AUTO 00000KT 5SM BR SCT080 22/22 A3004 RMK AO2=
METAR KCLE 081051Z 16003KT 5SM HZ FEW060 22/18 A3008 RMK AO2 SLP180 
    T02220178 $=
METAR KCMH 081051Z 00000KT 6SM BR SCT065 22/20 A3008 RMK AO2 SLP177 
    T02220200=
METAR KCQB 081050Z AUTO 23/23 RMK AO2 PWINO TSNO=
METAR KCSG 081051Z AUTO 00000KT 10SM CLR 23/20 A3003 RMK AO2 SLP161 
    T02330200=
METAR KDAW 081051Z AUTO 16003KT 1 3/4SM BR 22/21 A3008 RMK AO2 
    SLP182 T02220206 $=
METAR KDUC 081052Z AUTO 00000KT 10SM CLR 22/22 A3004 RMK AO2=
METAR KEKN 081051Z AUTO 00000KT 1 1/2SM BR SCT075 17/17 A3016 RMK 
    AO2 SLP202 T01720167 TSNO=
METAR KELP 081051Z 36011KT 10SM FEW032 SCT055 BKN100 22/14 A3012 RMK 
    AO2 SLP122 T02220144=
METAR KERI 081051Z 18005KT 6SM HZ CLR 22/18 A3007 RMK AO2 SLP176 
    T02170183=
METAR KEWR 081051Z 22003KT 4SM BR FEW005 SCT100 BKN130 BKN250 26/25 
    A3003 RMK AO2 SLP168 T02610250=
METAR KGCM 081055Z AUTO 00000KT 4SM +TSRA SCT006 OVC012 23/23 
     A3006 RMK AO2 LTG DSNT ALQS P0015=
METAR KGMJ 081054Z AUTO 00000KT 26/26 A3005 RMK AO2 P0004 PWINO=
METAR KHDO 081051Z AUTO 03005KT 10SM CLR 24/22 A2996 RMK AO2 SLP127 
    T02390222=
SPECI KHFD 081051Z 15003KT 2 1/2SM BR OVC008 25/23 A3005 RMK AO2=
METAR KHTS 081051Z AUTO 00000KT 1SM BR CLR 21/20 A3009 RMK AO2 
    SLP178 T02060200 TSNO=
SPECI KHVN 081051Z 13005KT 3SM BR OVC004 24/23 A3005 RMK AO2 CIG 
    002V008=
SPECI KHYA 081051Z 12003KT 10SM OVC016 22/21 A3010 RMK AO2=
METAR KILG 081051Z 00000KT 2SM BR CLR 25/23 A3002 RMK AO2 SLP165 
    T02500233 $=
SPECI KIRK 081051Z AUTO 32003KT 4SM BR CLR 19/19 A3007 RMK AO2=
SPECI KJCT 081048Z AUTO 00000KT 8SM SCT014 22/21 A3000 RMK AO2
     TSNO=
METAR KJFK 081051Z 13007KT 1/8SM R04R/1800V3500FT BR BKN002 BKN120 
    24/23 A3004 RMK AO2 SFC VIS 1 1/2 SLP173 VIS SE-SW 1 T02440228 $=
METAR KJSV 081050Z AUTO 00000KT 10SM SCT040 23/22 A3004 RMK AO2 
     LTG DSNT N AND NW=
####018000126####
SPCN47 CWAO 081052
SPECI CYTZ 081052Z AUTO 19002KT 1SM BR BKN003 20/19 A3002 RMK SLP166
 DENSITY ALT 700FT RVR MISG=

####018000110####
SAUS45 KBOU 081052
MTRABH
SPECI KABH 081051Z AUTO 26007KT 2SM BR BKN003 OVC008 12/12 A3037 RMK 
AO2 $
####018000122####
SAUS46 KLOX 081052
MTRSMX
METAR KSMX 081051Z AUTO 00000KT 8SM OVC007 12/11 A2992 RMK AO2 
SLP133 T01220106 TSNO $
####018000125####
SAUS41 KGYX 081052
MTRCON
METAR KCON 081051Z AUTO 16003KT 3SM BR BKN006 OVC037 23/22 A3008 RMK 
AO2 SLP182 T02280217
####018000142####
SAUS44 KCRP 081052
MTRVCT
METAR KVCT 081051Z AUTO 00000KT 4SM -RA BR BKN013 BKN022 OVC060 
25/24 A2989 RMK AO2 SLP120 P0008 T02500244
####018000110####
SAUS41 KCLE 081052
MTRCAK
METAR KCAK 081051Z 00000KT 4SM BR CLR 21/19 A3010 RMK AO2 SLP182 
T02110189
####018000120####
SAUS44 KSJT 081052
MTRJCT
METAR KJCT 081051Z AUTO 00000KT 8SM FEW014 22/21 A3001 RMK AO2 
SLP122 T02220211 TSNO
####018000075####
SACH01 SCFA 081100
METAR SCFA 081100Z 00000KT 9999 OVC017 12/07 Q1016=
####018003716####
SAUS99 KWBC 081053
METAR
K36U 081055Z AUTO 15004KT 10SM CLR 09/04 A3022 RMK AO2=
KAHN 081051Z AUTO 00000KT 5SM BR CLR 22/19 A3004 RMK AO2 SLP162
     T02170194 $=
KALB 081051Z 00000KT 4SM HZ FEW080 24/22 A3004 RMK AO2 SLP170
     T02440217=
KASH 081051Z VRB03KT 4SM HZ FEW015 BKN039 24/22 A3008 RMK AO2
     T02440216 SLP188=
KAVX 081051Z AUTO 33003KT 1/4SM FG VV001 12/12 A2992 RMK AO2
     SLP122 T01170117 TSNO=
KBAZ 081051Z AUTO 05006KT 9SM FEW008 SCT030 BKN060 25/24 A2993 RMK
     AO2 RAB09E31 SLP124 P0001 T02500239=
KBDL 081051Z 15004KT 5SM HZ BKN010 BKN100 24/22 A3006 RMK AO2
     SLP176 T02440217=
KBGD 081051Z AUTO 35005KT 10SM BKN031 BKN070 OVC095 18/18 A3019
     RMK AO2 SLP183 T01830178=
KBKW 081051Z AUTO 00000KT 3SM BR FEW070 20/18 A3017 RMK AO2 SLP176
     T02000183 VISNO RWY19 $=
KCHK 081051Z AUTO 00000KT 5SM BR SCT080 22/22 A3004 RMK AO2=
KCLE 081051Z 16003KT 5SM HZ FEW060 22/18 A3008 RMK AO2 SLP180
     T02220178 $=
KCMH 081051Z 00000KT 6SM BR SCT065 22/20 A3008 RMK AO2 SLP177
     T02220200=
KCQB 081050Z AUTO 23/23 RMK AO2 PWINO TSNO=
KCSG 081051Z AUTO 00000KT 10SM CLR 23/20 A3003 RMK AO2 SLP161
     T02330200=
KDAW 081051Z AUTO 16003KT 1 3/4SM BR 22/21 A3008 RMK AO2 SLP182
     T02220206 $=
KDUC 081052Z AUTO 00000KT 10SM CLR 22/22 A3004 RMK AO2=
KEKN 081051Z AUTO 00000KT 1 1/2SM BR SCT075 17/17 A3016 RMK AO2
     SLP202 T01720167 TSNO=
KELP 081051Z 36011KT 10SM FEW032 SCT055 BKN100 22/14 A3012 RMK AO2
     SLP122 T02220144=
KERI 081051Z 18005KT 6SM HZ CLR 22/18 A3007 RMK AO2 SLP176
     T02170183=
KEWR 081051Z 22003KT 4SM BR FEW005 SCT100 BKN130 BKN250 26/25
     A3003 RMK AO2 SLP168 T02610250=
KGCM 081055Z AUTO 00000KT 4SM +TSRA SCT006 OVC012 23/23 A3006 RMK
     AO2 LTG DSNT ALQS P0015=
KGMJ 081054Z AUTO 00000KT 26/26 A3005 RMK AO2 P0004 PWINO=
KHDO 081051Z AUTO 03005KT 10SM CLR 24/22 A2996 RMK AO2 SLP127
     T02390222=
KHTS 081051Z AUTO 00000KT 1SM BR CLR 21/20 A3009 RMK AO2 SLP178
     T02060200 TSNO=
KILG 081051Z 00000KT 2SM BR CLR 25/23 A3002 RMK AO2 SLP165
     T02500233 $=
KJFK 081051Z 13007KT 1/8SM R04R/1800V3500FT BR BKN002 BKN120 24/23
     A3004 RMK AO2 SFC VIS 1 1/2 SLP173 VIS SE-SW 1 T02440228
     $=
KJSV 081050Z AUTO 00000KT 10SM SCT040 23/22 A3004 RMK AO2 LTG DSNT
     N AND NW=
KLGA 081051Z 05006KT 3SM HZ BKN015 BKN095 BKN130 26/23 A3003 RMK
     AO2 VIS 2 R22 SW SLP168 T02560228=
KLGU 081051Z AUTO 00000KT 10SM CLR 13/07 A3015 RMK AO2 SLP164
     T01280067=
KMDW 081051Z 00000KT 4SM -RA BR FEW020 BKN042 BKN130 OVC200 24/22
     A3002 RMK AO2 RAB29 SLP153 P0002 T02390217=
KMPV 081051Z AUTO 00000KT 2 1/2SM BR CLR 22/20 A3012 RMK AO2
     SLP191 T02170200=
KMYL 081051Z AUTO 00000KT 10SM CLR 07/04 A3018 RMK AO2 SLP188
     T00670039=
KOKM 081051Z AUTO 01004KT 10SM OVC005 24/24 A3004 RMK AO1 LTG DSNT
     NE AND E=
KONM 081047Z AUTO 00000KT 10SM BKN110 18/15 A3021 RMK AO2
     T01810148=
KORD 081051Z 18003KT 9SM -RA FEW025 SCT060 BKN075 OVC150 23/22
     A3002 RMK AO2 RAB48 SLP159 P0000 T02280222=
KOXR 081051Z AUTO 30005KT 10SM OVC011 15/13 A2990 RMK AO2 SLP124
     T01500128 $=
KPHX 081051Z 00000KT 10SM FEW170 31/02 A2976 RMK AO2 SLP055
     T03110017 $=
KPIT 081051Z 00000KT 5SM HZ SCT050 21/18 A3010 RMK AO2 SLP187
     T02110183=
KPWM 081051Z 19007KT 9SM OVC006 22/20 A3009 RMK AO2 CIG 006V009
     SLP188 T02170200 $=
KRDU 081051Z 03005KT 5SM HZ SCT080 25/19 A2999 RMK AO2 SLP147
     T02500189 $=
KROW 081051Z AUTO 36008KT 10SM OVC031 20/16 A3018 RMK AO2 SLP161
     T02000161 TSNO=
KSLK 081051Z AUTO 00000KT 5SM HZ CLR 21/18 A3009 RMK AO2 SLP176
     T02110183=
####018000117####
SAMH31 PKMR 081100
METAR PKMR 081050Z 07012KT 15SM FEW015 SCT045 BKN120 OVC300 28/24
A2983 RMK SLP105 T02750236
####018000247####
SASW31 LSSW 081050
METAR LSZH 081050Z VRB03KT CAVOK 26/12 Q1022 NOSIG=
METAR LSGG 081050Z VRB04KT CAVOK 29/12 Q1022 NOSIG=
METAR LSZB 081050Z 32005KT 280V030 CAVOK 28/13 Q1022 NOSIG=
METAR LSZA 081050Z 18005KT 9999 SCT055 27/13 Q1022 NOSIG=
####018000609####
SPUS99 KWBC 081053
SPECI
KALI 081051Z AUTO 03008KT 10SM -RA SCT006 25/24 A2983 RMK AO2
     RAE21B50 P0000=
KHFD 081051Z 15003KT 2 1/2SM BR OVC008 25/23 A3005 RMK AO2=
KHVN 081051Z 13005KT 3SM BR OVC004 24/23 A3005 RMK AO2 CIG
     002V008=
KHYA 081051Z 12003KT 10SM OVC016 22/21 A3010 RMK AO2=
KIRK 081051Z AUTO 32003KT 4SM BR CLR 19/19 A3007 RMK AO2=
KJCT 081048Z AUTO 00000KT 8SM SCT014 22/21 A3000 RMK AO2 TSNO=
KLUK 081051Z 00000KT 1 1/2SM R21L/3500V4500FT BCFG CLR 22/21 A3008
     RMK AO2=
KPIA 081051Z 20003KT 1 3/4SM BR SCT005 OVC010 23/22 A3003 RMK AO2
     CIG 008V012=
####018000541####
SAUS99 KWBC 081053 RRA
METAR
KSMO 081051Z AUTO 00000KT 10SM OVC011 16/13 A2990 RMK AO2 SLP124
     T01610128=
KSTL 081051Z 23003KT 10SM FEW012 BKN044 BKN080 BKN250 26/23 A3005
     RMK AO2 SLP161 TCU DSNT NW T02560233=
KTEB 081051Z 00000KT 3SM MIFG CLR 26/22 A3002 RMK AO2 SLP165
     T02610222=
KTIX 081047Z VRB05KT 7SM FEW030 21/19 A2999 RMK FIRST=
KVNY 081051Z AUTO 00000KT 6SM BR OVC008 15/13 A2989 RMK AO2 SLP116
     T01500128=
KYNG 081051Z 00000KT 5SM BR HZ FEW060 19/18 A3010 RMK AO2 SLP182
     T01940178=
####018000081####
SABZ21 SBFZ 081100
METAR SBFZ 081100Z 15007KT 9999 SCT018 BKN100 26/21 Q1015=
####018000136####
SALV32 EVRA 081050
METAR EVLA 081050Z 31006KT 240V020 CAVOK 22/15 Q1018=
METAR EVVA 081050Z AUTO 32010KT 300V360 CAVOK 22/17 Q1018=
####018000073####
SAAG SAWG 081000 CCA
METAR SAWG 081000Z  29008KT CAVOK M05/M06 Q0991=
####018000617####
SAMX41 MMMX 081051
METAR MMMX 081049Z 00000KT 2SM -RA FEW008 OVC020 15/14 A3018
      NOSIG RMK 60075 8/4//=
METAR MMAA 081046Z 00000KT 8SM SCT020TCU SCT090 BKN300 26/22 A2976
      RMK 8/232=
METAR MMQT 081045Z 06010KT 5SM BKN015 BKN120 OVC250 17/15 A3014
      RMK 8/532 LWR ST=
METAR MMTM 081041Z 22006KT 6SM  SCT010 BKN020 BKN070 OVC200 25/24 
      A2980 RMK 8/837 BR OCNLS DROPS/BINOVC RTS=
METAR MMTO 081045Z 00000KT 3SM HZ SCT015 OVC070 13/11 A3024
      RMK 8/47/ OCNL DROPS=
METAR MMVR 081045Z 00000KT 7SM -RA  SCT012CB OVC080 25/25 A2980 
      RMK 60055 8/36/ INTMT -RA VRB COND=
####018000208####
SASW39 LSSW 081050
METAR LSMA 081050Z NIL=
METAR LSMD 081050Z NIL=
METAR LSME 081050Z NIL=
METAR LSMM 081050Z NIL=
METAR LSMP 081050Z NIL=
METAR LSMS 081050Z 24008KT 200V310 9999 FEW100 28/14 Q1021=
####018000124####
SAMX51 MMMX 081100
METAR MMPB 081048Z 09003KT 2SM RA  VV004 14/14 A3021 
      RMK 6//// 8//// RTS=





TX OPMET V1
####018000069####
SABZ22 SBBR 081100
METAR SBBR 081100Z 26002KT CAVOK 15/09 Q1024 =
####018000087####
SPAU32 YBBN 081052
SPECI YBRM 081044Z 36005KT 2500 -SHRA SCT025 OVC035 24/22 Q1011=
####018000080####
SAAG01 SABM 081000 CCA
METAR COR SAWG 081000Z  29008KT CAVOK M05/M06 Q0991=
####018000118####
SAUS41 KAKQ 081052
MTRORF
METAR KORF 081051Z 11007KT 10SM BKN010 BKN110 26/23 A2997 RMK AO2 
SLP149 T02560233
####018000091####
SPUS42 KWBC 081053
SPECI
KDAL 081051Z 14007KT 10SM FEW016 BKN027 BKN037 26/23 A3001=
####018000088####
SPUS42 KWBC 081053
SPECI
KLCH 081050Z AUTO 06007KT 9SM BKN011 OVC024 25/23 A2997=
####018000082####
SPUS53 KWBC 081053
SPECI
KFNB 081050Z AUTO 34007KT 10SM BKN017 21/20 A3009=
####018000115####
SAUS43 KMQT 081053
MTRP59
METAR KP59 081051Z AUTO 00000KT 17/16 A2998 RMK AO2 SLP144 T01670156 
PWINO TSNO
####018000118####
SAUS45 KTWC 081052
MTRSAD
METAR KSAD 081051Z AUTO 15011KT 10SM CLR 24/11 A3000 RMK AO2 SLP098 
T02440111 TSNO
####018000110####
SAUS41 KPHI 081053
MTRABE
METAR KABE 081051Z 09006KT 5SM HZ CLR 24/21 A3004 RMK AO2 SLP168 
T02390211
####018000118####
SAUS42 KMHX 081053
MTRHSE
METAR KHSE 081051Z AUTO 07007KT 10SM CLR 24/23 A2993 RMK AO2 SLP135 
T02440228 TSNO
####018000125####
SAUS41 KOKX 081053
MTRNYC
METAR KNYC 081051Z AUTO VRB03KT 5SM HZ BKN016 27/23 A3006 RMK AO2 
SLP169 T02670228 TSNO $
####018000091####
SPUS72 KWBC 081053
SPECI
KDAL 081051Z 14007KT 10SM FEW016 BKN027 BKN037 26/23 A3001=
####018000088####
SPUS72 KWBC 081053
SPECI
KLCH 081050Z AUTO 06007KT 9SM BKN011 OVC024 25/23 A2997=
####018000154####
SAUS44 KMAF 081053
MTRGDP
METAR KGDP 081051Z AUTO 05022KT 3/4SM BR BKN005 BKN016 OVC100 16/16 
A3022 RMK AO2 RAB01E33 SLP159 P0000 T01610161 TSNO
####018000115####
SAUS43 KDTX 081053
MTRP58
METAR KP58 081051Z AUTO 00000KT 25/22 A2999 RMK AO2 SLP147 T02500217 
PWINO TSNO
####018000091####
SPUS81 KWBC 081053
SPECI
KABH 081051Z AUTO 26007KT 2SM BR BKN003 OVC008 12/12 A3037=
####018000091####
SPUS81 KWBC 081053
SPECI
KDAL 081051Z 14007KT 10SM FEW016 BKN027 BKN037 26/23 A3001=
####018000082####
SPUS81 KWBC 081053
SPECI
KFNB 081050Z AUTO 34007KT 10SM BKN017 21/20 A3009=
####018000078####
SPCN44 CWAO 081052
SPECI CYUS 081052Z AUTO ///// 9SM FEW092 11/ A2979=

####018000138####
SALV32 EVRA 081050
METAR EVLA 081050Z 31006KT 240V020 CAVOK 22/15 Q1018=
METAR EVVA 081050Z AUTO 32010KT 300V360 CAVOK 22/17 Q1018=
####018000088####
SPAU32 YBBN 081052
SPECI YBRM 081044Z 36005KT 2500 -SHRA SCT025 OVC035 24/22 Q1011=
####018000213####
SASW39 LSSW 081050
METAR LSMA 081050Z NIL=
METAR LSMD 081050Z NIL=
METAR LSME 081050Z NIL=
METAR LSMM 081050Z NIL=
METAR LSMP 081050Z NIL=
METAR LSMS 081050Z 24008KT 200V310 9999 FEW100 28/14 Q1021=
####018000237####
SASY31 OSDI 081100
OSDI 081100Z 20016KT CAVOK 38/01 Q1009=
OSAP 081100Z 29017KT CAVOK 33/17 Q1006=
OSLK 081100Z 23012KT 9999 SCT030 28/20 Q1009=
OSDZ 081100Z 19010KT CAVOK 38/14 Q1006=
OSKL 081100Z 18009KT CAVOK 41/04 Q1005=
####018000075####
SAQB31 LQSM 081100
METAR LQTZ 081100Z VRB02KT 9999 FEW040 21/// Q1023=
####018000082####
SAMP31 LMMM 081100 RRA
METAR HLLT 081050Z
33005KT 280V030 8000 31/19 Q1019=
####018000251####
SASW31 LSSW 081050
METAR LSZH 081050Z VRB03KT CAVOK 26/12 Q1022 NOSIG=
METAR LSGG 081050Z VRB04KT CAVOK 29/12 Q1022 NOSIG=
METAR LSZB 081050Z 32005KT 280V030 CAVOK 28/13 Q1022 NOSIG=
METAR LSZA 081050Z 18005KT 9999 SCT055 27/13 Q1022 NOSIG=
####018000407####
SAUS20 KNKA 081053
METAR KACT 081051Z 07004KT 10SM FEW036 SCT085 SCT120 26/23 A2999 RMK 
    AO2 SLP147 T02560233=
METAR KMMU 081045Z 00000KT 4SM HZ BCFG FEW250 22/21 A3004=
SPECI KMWL 081051Z AUTO 13003KT 10SM SCT019 23/22 A3000 RMK AO2=
METAR KSJT 081051Z AUTO 00000KT 10SM FEW120 22/20 A3002 RMK AO2 
    SLP141 T02170200=
METAR KUES 081045Z 23005KT 7SM SCT008 BKN015 OVC026 21/19 A3003=
####018000145####
SAUS44 KEWX 081053
MTRATT
METAR KATT 081051Z AUTO 00000KT 9SM BKN010 BKN014 OVC025 25/23 A2996 
RMK AO2 RAE0956 SLP132 P0000 T02500233 $
####018000145####
SAUS44 KCRP 081053
MTRCRP
METAR KCRP 081051Z 35007KT 10SM FEW010 SCT025 BKN048 26/25 A2983 RMK 
AO2 RAE0953B19E30 SLP099 P0000 T02560250
####018000422####
SAIN31 VABB 081040
METAR VABB 081040Z 18010KT 3200 HZ SCT010 SCT018 FEW025TCU BKN090
     29/25 Q1006 TEMPO 1500 SHRA=
METAR VOHS 081040Z 25011KT 5000 HZ SCT010 SCT015 BKN080 26/23 Q1010
    NOSIG=
METAR VOMM 081040Z 12007KT 4000 HZ SCT015 SCT100 OVC200 28/26 Q1007
     NOSIG=
METAR VOTR 081040Z VRB03KT 8000 SCT020 OVC100 34/23 Q1007=
METAR VOTV 081040Z 33006KT 6000 FEW015 FEW025CB 27/24 Q1008 NOSIG=
####018000110####
SAUS41 KPHI 081053
MTRNEL
SPECI KNEL 081051Z AUTO 00000KT 2SM BR BKN005 OVC100 24/22 A3003 RMK 
AO2 $
####018000123####
SAUS45 KPIH 081053
MTRSNT
METAR KSNT 081051Z AUTO 00000KT 01/M01 A3032 RMK AO2 SLP195 
T00111011 PWINO FZRANO TSNO
####018000534####
SAEW KAWN 081100
METAR EHEH 081055Z AUTO 25007KT 9999NDV BKN130 30/12 Q1019 BLU BLU=
METAR EKVG 081050Z 18014KT 9999 -SHRA SCT004 BKN008 BKN012 11/10 Q0993
      RMK/RWY 13/31 CLOSED DUE WIP/ SEE NOTAM E0050/10 WIND 850FT
      VRB06G23KT=
METAR ETNG 081050Z 26006KT CAVOK 29/11 Q1020 NOSIG=
METAR LSGG 081050Z VRB04KT CAVOK 29/12 Q1022 NOSIG=
METAR LSZA 081050Z 18005KT 9999 SCT055 27/13 Q1022 NOSIG=
METAR LSZB 081050Z 32005KT 280V030 CAVOK 28/13 Q1022 NOSIG=
METAR LSZH 081050Z VRB03KT CAVOK 26/12 Q1022 NOSIG=
####018000704####
SAEU KAWN 081100
METAR EHEH 081055Z AUTO 25007KT 9999NDV BKN130 30/12 Q1019 BLU BLU=
METAR EKVG 081050Z 18014KT 9999 -SHRA SCT004 BKN008 BKN012 11/10 Q0993
      RMK/RWY 13/31 CLOSED DUE WIP/ SEE NOTAM E0050/10 WIND 850FT
      VRB06G23KT=
METAR ETNG 081050Z 26006KT CAVOK 29/11 Q1020 NOSIG=
METAR LMML 081045Z 04007KT 360V090 CAVOK 29/20 Q1018 NOSIG=
METAR LQMO 081100Z 01012KT 9999 FEW045 28/09 Q1017=
METAR LQTZ 081100Z VRB02KT 9999 FEW040 21/// Q1023=
METAR LSGG 081050Z VRB04KT CAVOK 29/12 Q1022 NOSIG=
METAR LSZA 081050Z 18005KT 9999 SCT055 27/13 Q1022 NOSIG=
METAR LSZB 081050Z 32005KT 280V030 CAVOK 28/13 Q1022 NOSIG=
METAR LSZH 081050Z VRB03KT CAVOK 26/12 Q1022 NOSIG=
####018000394####
SPNA35 KAWN 081053 RRG
SPECI KJFK 081048Z 14006KT 1/8SM R04R/1800V3000FT BR BKN002 BKN120
      24/23 A3004 RMK AO2 SFC VIS 1 1/2 VIS SE-SW 1 $=
SPECI KWRI 081048Z AUTO 00000KT 1SM R18/4500VP6000FT R24/2800VP6000FT
      BR VV001 23/23 A3001 RMK AO2 SLP161 $=
SPECI KWRI 081051Z AUTO 00000KT 1 1/4SM R18/5000VP6000FT R24/4500VP6000FT
      BR SCT001 24/24 A3001 RMK AO2 SLP162 $=
####018000423####
SADL32 EDZO 081050
METAR EDDB 081050Z VRB02KT CAVOK 26/07 Q1021 NOSIG=
METAR EDDC 081050Z VRB03KT CAVOK 25/09 Q1022 NOSIG=
METAR EDDE 081050Z 11004KT 010V140 CAVOK 27/09 Q1022 NOSIG=
METAR EDDG 081050Z 26004KT 170V280 CAVOK 29/09 Q1019 NOSIG=
METAR EDDP 081050Z 20004KT 150V210 CAVOK 26/09 Q1021 NOSIG=
METAR EDDR 081050Z VRB01KT CAVOK 28/12 Q1021 NOSIG=
METAR EDDW 081050Z 20007KT CAVOK 29/08 Q1019 NOSIG=
####018000555####
SADL31 EDZO 081050
METAR EDDF 081050Z 16005KT 080V210 CAVOK 28/10 Q1021 NOSIG=
METAR EDDH 081050Z 17006KT 150V230 CAVOK 28/12 Q1019 NOSIG=
METAR EDDK 081050Z 21005KT 180V260 CAVOK 29/08 Q1019 NOSIG=
METAR EDDL 081050Z 27008KT CAVOK 30/09 Q1019 NOSIG=
METAR EDDM 081050Z 08008KT CAVOK 23/08 Q1023 NOSIG=
METAR EDDN 081050Z 15005KT 120V180 CAVOK 26/08 Q1022 NOSIG=
METAR EDDS 081050Z VRB03KT CAVOK 26/08 Q1022 NOSIG=
METAR EDDT 081050Z 16004KT 070V200 CAVOK 26/06 Q1021 NOSIG=
METAR EDDV 081050Z 27006KT 160V280 CAVOK 29/10 Q1020 NOSIG=
####018000106####
SPUS90 KWBC 081054
SPECI KNEL 081051Z AUTO 00000KT 2SM BR BKN005 OVC100 24/22 A3003
     RMK AO2 $=
####018002076####
SAUS90 KWBC 081100
METAR KEHA 081048Z AUTO 34005KT 17/16 RMK AO1 PK WND 09 064
     T01720162=
METAR KSAN 081051Z 31005KT 10SM SCT014 OVC017 17/13 A2991 RMK AO2
     SLP126 T01670133=
METAR KCON 081051Z AUTO 16003KT 3SM BR BKN006 OVC037 23/22 A3008
     RMK AO2 SLP182 T02280217=
METAR KSMX 081051Z AUTO 00000KT 8SM OVC007 12/11 A2992 RMK AO2
     SLP133 T01220106 TSNO $=
METAR KVCT 081051Z AUTO 00000KT 4SM -RA BR BKN013 BKN022 OVC060
     25/24 A2989 RMK AO2 SLP120 P0008 T02500244=
METAR KCAK 081051Z 00000KT 4SM BR CLR 21/19 A3010 RMK AO2 SLP182
     T02110189=
METAR KJCT 081051Z AUTO 00000KT 8SM FEW014 22/21 A3001 RMK AO2
     SLP122 T02220211 TSNO=
METAR KORF 081051Z 11007KT 10SM BKN010 BKN110 26/23 A2997 RMK AO2
     SLP149 T02560233=
METAR KNYC 081051Z AUTO VRB03KT 5SM HZ BKN016 27/23 A3006 RMK AO2
     SLP169 T02670228 TSNO $=
METAR KSAD 081051Z AUTO 15011KT 10SM CLR 24/11 A3000 RMK AO2
     SLP098 T02440111 TSNO=
METAR KABE 081051Z 09006KT 5SM HZ CLR 24/21 A3004 RMK AO2 SLP168
     T02390211=
METAR KP59 081051Z AUTO 00000KT 17/16 A2998 RMK AO2 SLP144
     T01670156 PWINO TSNO=
METAR KHSE 081051Z AUTO 07007KT 10SM CLR 24/23 A2993 RMK AO2
     SLP135 T02440228 TSNO=
METAR KGDP 081051Z AUTO 05022KT 3/4SM BR BKN005 BKN016 OVC100
     16/16 A3022 RMK AO2 RAB01E33 SLP159 P0000 T01610161 TSNO=
METAR KP58 081051Z AUTO 00000KT 25/22 A2999 RMK AO2 SLP147
     T02500217 PWINO TSNO=
METAR KATT 081051Z AUTO 00000KT 9SM BKN010 BKN014 OVC025 25/23
     A2996 RMK AO2 RAE0956 SLP132 P0000 T02500233 $=
METAR KCRP 081051Z 35007KT 10SM FEW010 SCT025 BKN048 26/25 A2983
     RMK AO2 RAE0953B19E30 SLP099 P0000 T02560250=
METAR KSNT 081051Z AUTO 00000KT 01/M01 A3032 RMK AO2 SLP195
     T00111011 PWINO FZRANO TSNO=
METAR KREO 081052Z AUTO 07007KT 11/M02 A3011 RMK AO2 SLP160
     T01111017 PWINO TSNO=
METAR KMLF 081052Z AUTO 26006KT 10SM CLR 13/01 A3010 RMK AO2
     SLP128 T01330011 TSNO=
METAR KBLU 081052Z AUTO 35004KT 10SM CLR 21/04 A3009 RMK AO2
     SLP087 T02060044 TSNO=
####018000083####
SAAK41 KNKA 081053
SPECI PASI 081051Z 25003KT 10SM BKN002 13/12 A3018 RMK AO2=
####018000070####
SABZ22 SBBR 081100
METAR SBBR 081100Z 26002KT CAVOK 15/09 Q1024 =
####018000075####
SAGI32 EGRR 081050
METAR LXGB 081050Z 09014KT CAVOK 26/16 Q1016 NOSIG=
####018000116####
SAUS46 KPQR 081053
MTRREO
METAR KREO 081052Z AUTO 07007KT 11/M02 A3011 RMK AO2 SLP160 
T01111017 PWINO TSNO
####018000104####
SAAH10 OAKN 081100
METAR OAKN 081050Z 28007KT 9999 FEW150 41/05 Q1007 BLU NOSIG RMK A2974
DA7100=
####018000118####
SAUS46 KSTO 081053
MTRBLU
METAR KBLU 081052Z AUTO 35004KT 10SM CLR 21/04 A3009 RMK AO2 SLP087 
T02060044 TSNO
####018000118####
SAUS45 KSLC 081053
MTRMLF
METAR KMLF 081052Z AUTO 26006KT 10SM CLR 13/01 A3010 RMK AO2 SLP128 
T01330011 TSNO
####018000120####
SAUS41 KLWX 081053
MTRNHK
METAR KNHK 081052Z 09004KT 3SM BR FEW010 SCT110 26/24 A3000 RMK AO2 
SLP158 T02610239
####018000121####
SAFK41 EGYP 081050
METAR EGYP 081050Z 02024KT 2500 RADZ FEW005 BKN015 OVC045 05/04 Q0994
 YLO1 TEMPO 5000 -RA WHT=
####018002945####
SAUS20 KNKA 081053
METAR K4O4 081048Z AUTO 11004KT 4SM SCT001 SCT013 23/22 A3005 RMK 
     AO2=
METAR KADH 081050Z AUTO 17005KT 7SM SCT023 23/22 A3003 RMK AO2 
     LTG DSNT NE=
METAR KADM 081050Z AUTO 00000KT 7SM BKN027 BKN037 OVC070 23/23 
     A3002 RMK AO2=
METAR KAFK 081050Z AUTO 36005KT 5SM BR CLR 19/18 A3013 RMK AO2 
     T01920182=
METAR KAFN 081052Z AUTO 18003KT 5SM BR FEW050 BKN080 23/21 A3011 RMK 
    AO2 SLP192 T02280211 $=
METAR KAIK 081055Z AUTO 28004KT 10SM CLR 23/22 A3004 RMK AO2 PNO=
METAR KALM 081050Z AUTO 16005KT 10SM CLR 17/14 A3014 RMK AO2=
METAR KALS 081052Z AUTO 27006KT 10SM CLR 07/07 A3041 RMK AO2 SLP243 
    T00720067=
METAR KANW 081050Z AUTO 00000KT 10SM SCT110 17/15 A3023 RMK AO2 
     T01650147=
METAR KAQW 081052Z AUTO 00000KT 2 1/2SM BR CLR 20/19 A3007 RMK AO2 
    SLP179 T02000189=
METAR KARR 081052Z AUTO 20003KT 1 3/4SM -RA BR FEW031 SCT055 BKN080 
    22/22 A3003 RMK AO2 RAB0957E08B40 SLP163 P0001 T02220217 $=
METAR KARW 081055Z AUTO 27004KT 10SM CLR 24/19 A2998 RMK AO2=
METAR KATL 081052Z 31003KT 10SM CLR 24/18 A3005 RMK AO2 SLP162 
    T02440183 $=
METAR KATS 081050Z AUTO 34008KT 10SM -RA BKN037 OVC046 19/17 
     A3016 RMK AO2=
METAR KAUH 081050Z AUTO 34006KT 10SM CLR 15/14 A3019 RMK AO2 
     T01540144=
METAR KAUN 081050Z AUTO 10005KT 10SM CLR 21/14 A2987 RMK AO1=
METAR KAXS 081050Z AUTO 00000KT 10SM BKN026 OVC031 24/22 A3007 
     RMK AO2 LTG DSNT NE T02350219=
METAR KAXX 081050Z AUTO 17004KT 10SM SCT120 05/04 A3048 RMK AO2=
METAR KBDN 081055Z AUTO 19004KT 10SM CLR 12/03 A3011 RMK AO2 =
METAR KBDR 081052Z 11004KT 2 1/2SM BR OVC004 25/23 A3005 RMK AO2 
    SLP175 T02500233=
METAR KBIS 081052Z 00000KT 10SM CLR 11/09 A3014 RMK AO2 SLP204 
    T01110094=
METAR KBLF 081052Z AUTO 25003KT 4SM HZ CLR 22/18 A3019 RMK AO2 
    SLP179 T02170178=
METAR KBLH 081052Z AUTO 00000KT 10SM CLR 27/M03 A2972 RMK AO2 SLP056 
    T02671033=
METAR KBML 081052Z AUTO 00000KT M1/4SM FG VV001 21/21 A3010 RMK AO2 
    SLP187 T02060206 $=
METAR KBVS 081050Z AUTO 04008KT 10SM CLR 19/13 A2997 RMK A01 P000=
METAR KCEW 081053Z AUTO 00000KT 5SM BR CLR 20/20 A3004 RMK AO2 
    SLP168 T02000200=
METAR KCFV 081052Z AUTO 00000KT 10SM FEW032 22/21 A3005 RMK AO2 
    SLP168 T02220211=
METAR KCID 081052Z 32004KT 9SM CLR 20/19 A3005 RMK AO2 SLP171 
    T02000189=
METAR KCKV 081052Z AUTO 00000KT 10SM CLR 23/22 A3007 RMK AO2 SLP175 
    T02280217=
METAR KCLK 081053Z AUTO 01007KT 10SM -DZ SCT047 SCT070 22/20 
     A3007 RMK AO2=
METAR KCLT 081052Z 33004KT 10SM FEW140 23/17 A3002 RMK AO2 SLP155 
    T02280172=
METAR KCNU 081052Z AUTO 36004KT 5SM BR OVC003 22/21 A3005 RMK AO2 
    CIG 002V005 SLP165 T02220206=
METAR KCQX 081052Z AUTO 16004KT 9SM OVC001 20/19 A3012 RMK AO2 
    SLP200 T02000194=
METAR KCUH 081050Z AUTO 00000KT 7SM -RA SCT021 BKN037 BKN045 
     23/23 A3004 RMK AO2=
####018002949####
SAUS20 KNKA 081053
METAR KCVG 081052Z 00000KT 5SM BR CLR 22/20 A3009 RMK AO2 SLP177 
    T02220200=
METAR KDCA 081052Z 08003KT 6SM HZ FEW050 SCT250 27/22 A3001 RMK AO2 
    SLP161 T02720222=
METAR KDDC 081052Z AUTO 01006KT 5SM BR OVC003 18/17 A3018 RMK AO2 
    SLP195 T01830172=
METAR KDPA 081052Z 16003KT 4SM -RA BR BKN065 OVC090 23/22 A3002 RMK 
    AO2 RAB42 SLP159 P0000 T02280222=
METAR KDTN 081053Z AUTO 11003KT 10SM CLR 24/23 A3003 RMK AO2 SLP167 
    T02440233=
METAR KDTO 081053Z AUTO 12005KT 10SM CLR 25/23 A3001 RMK AO2 SLP154 
    T02500233=
METAR KDUA 081057Z AUTO 15006KT 10SM CLR 24/23 A3004 RMK AO2=
METAR KDVN 081052Z AUTO 28003KT 4SM BR OVC007 22/21 A3005 RMK AO2 
    SLP169 T02220211=
METAR KEST 081052Z AUTO 31007KT 9SM CLR 16/14 A3014 RMK AO2 SLP202 
    T01560144=
METAR KFDW 081055Z AUTO 28004KT 10SM CLR 24/18 A3001 RMK AO1=
METAR KFET 081050Z AUTO 34003KT 10SM CLR 17/16 A3016 RMK AO2=
METAR KFIT 081052Z AUTO 15004KT 5SM HZ OVC010 24/22 A3009 RMK AO2 
    SLP187 T02440217=
METAR KGCD 081050Z AUTO 13007KT 10SM CLR 14/04 A3011 RMK AO2 
     T01440035=
METAR KGKY 081053Z AUTO 13006KT 10SM -RA FEW012 BKN017 OVC028 25/23 
    A3001 RMK AO2 RAB50 SLP153 P0000 T02500228=
METAR KGLS 081052Z 15013KT 10SM -RA FEW012 BKN024 OVC039 26/24 A2991 
    RMK AO2 RAB20 SLP129 P0022 T02560239=
METAR KGLY 081055Z AUTO 00000KT 5SM  BR BKN004 22/22 A3006 RMK AO2 
     LTG DSNT SE AND S =
METAR KHUT 081052Z AUTO 35006KT 6SM BR BKN004 21/21 A3012 RMK AO2 
    SLP179 T02110206=
METAR KIAD 081052Z 00000KT 5SM HZ FEW075 BKN095 BKN250 26/22 A3001 
    RMK AO2 SLP158 T02610217=
METAR KIDP 081050Z AUTO 00000KT 10SM BKN100 21/20 A3004 RMK AO2 
     LTG DSNT E THRU S=
METAR KIEN 081052Z AUTO 00000KT 10SM CLR 08/07 A3028 RMK AO2 SLP245 
    T00780067=
METAR KIJD 081052Z AUTO 15007KT 4SM BR OVC006 23/22 A3008 RMK AO2 
    CIG 003V008 SLP184 T02330222=
METAR KIOW 081052Z AUTO 00000KT 10SM FEW090 21/20 A3006 RMK AO2 
    SLP173 T02110200=
METAR KISN 081052Z 00000KT 10SM CLR 12/11 A3012 RMK AO2 SLP197 
    T01220106=
METAR KIZA 081050Z AUTO 00000KT 10SM OVC009 13/11 A2991 RMK AO2=
METAR KJWG 081050Z AUTO 01004KT 5SM BR OVC004 22/22 A3010 RMK AO2=
METAR KLAL 081050Z 03004KT 10SM SKC 23/21 A2998=
METAR KLAM 081050Z AUTO 21003KT 10SM CLR 15/08 A3037 RMK AO2=
METAR KLRU 081051Z AUTO 01003KT 10SM CLR 21/14 A3016 RMK AO2=
METAR KLWC 081052Z AUTO 32004KT 10SM CLR 21/20 A3006 RMK AO2 SLP170 
    T02110200=
METAR KMDH 081052Z AUTO 00000KT 9SM FEW070 SCT100 24/22 A3005 RMK 
    AO2 SLP172 T02440222=
METAR KMEB 081052Z AUTO 00000KT 10SM CLR 23/17 A2996 RMK AO2 SLP141 
    T02330172=
METAR KMEZ 081055Z AUTO 00000KT 10SM BKN043 25/23 A3008 RMK AO2=
METAR KMFD 081052Z 18004KT 5SM HZ CLR 20/17 A3010 RMK AO2 SLP182 
    T02000172=
METAR KMHK 081052Z AUTO 00000KT 6SM BR SCT018 22/21 A3010 RMK AO2 
    SLP183 T02170206=
####018000095####
SACN89 KWBC 081054
METAR CWDT 081000Z AUTO 31003KT 18/18 RMK AO1 SLP167 T01820182
53004=
####018000159####
SACN97 KWBC 081054
METAR CXLC 081000Z AUTO 12/09 RMK AO1 SLP144 T01240092 53002=
METAR CXLL 081000Z AUTO 21001KT 11/11 RMK AO1 SLP156 T01140114
58011=
####018002084####
SAUS99 KWBC 081054 RRA
METAR
KEST 081052Z AUTO 31007KT 9SM CLR 16/14 A3014 RMK AO2 SLP202
     T01560144=
KFDW 081055Z AUTO 28004KT 10SM CLR 24/18 A3001 RMK AO1=
KFET 081050Z AUTO 34003KT 10SM CLR 17/16 A3016 RMK AO2=
KFIT 081052Z AUTO 15004KT 5SM HZ OVC010 24/22 A3009 RMK AO2 SLP187
     T02440217=
KGCD 081050Z AUTO 13007KT 10SM CLR 14/04 A3011 RMK AO2
     T01440035=
KGKY 081053Z AUTO 13006KT 10SM -RA FEW012 BKN017 OVC028 25/23
     A3001 RMK AO2 RAB50 SLP153 P0000 T02500228=
KGLS 081052Z 15013KT 10SM -RA FEW012 BKN024 OVC039 26/24 A2991 RMK
     AO2 RAB20 SLP129 P0022 T02560239=
KGLY 081055Z AUTO 00000KT 5SM BR BKN004 22/22 A3006 RMK AO2 LTG
     DSNT SE AND S=
KHUT 081052Z AUTO 35006KT 6SM BR BKN004 21/21 A3012 RMK AO2 SLP179
     T02110206=
KIAD 081052Z 00000KT 5SM HZ FEW075 BKN095 BKN250 26/22 A3001 RMK
     AO2 SLP158 T02610217=
KIDP 081050Z AUTO 00000KT 10SM BKN100 21/20 A3004 RMK AO2 LTG DSNT
     E THRU S=
KIEN 081052Z AUTO 00000KT 10SM CLR 08/07 A3028 RMK AO2 SLP245
     T00780067=
KIJD 081052Z AUTO 15007KT 4SM BR OVC006 23/22 A3008 RMK AO2 CIG
     003V008 SLP184 T02330222=
KIOW 081052Z AUTO 00000KT 10SM FEW090 21/20 A3006 RMK AO2 SLP173
     T02110200=
KISN 081052Z 00000KT 10SM CLR 12/11 A3012 RMK AO2 SLP197
     T01220106=
KIZA 081050Z AUTO 00000KT 10SM OVC009 13/11 A2991 RMK AO2=
KJWG 081050Z AUTO 01004KT 5SM BR OVC004 22/22 A3010 RMK AO2=
KLAL 081050Z 03004KT 10SM SKC 23/21 A2998=
KLAM 081050Z AUTO 21003KT 10SM CLR 15/08 A3037 RMK AO2=
KLRU 081051Z AUTO 01003KT 10SM CLR 21/14 A3016 RMK AO2=
KLWC 081052Z AUTO 32004KT 10SM CLR 21/20 A3006 RMK AO2 SLP170
     T02110200=
KMDH 081052Z AUTO 00000KT 9SM FEW070 SCT100 24/22 A3005 RMK AO2
     SLP172 T02440222=
KMEB 081052Z AUTO 00000KT 10SM CLR 23/17 A2996 RMK AO2 SLP141
     T02330172=
KMEZ 081055Z AUTO 00000KT 10SM BKN043 25/23 A3008 RMK AO2=
KMFD 081052Z 18004KT 5SM HZ CLR 20/17 A3010 RMK AO2 SLP182
     T02000172=
KMHK 081052Z AUTO 00000KT 6SM BR SCT018 22/21 A3010 RMK AO2 SLP183
     T02170206=
####018000087####
SACN88 KWBC 081054
METAR CWZN 081000Z AUTO 14012KT 11/ RMK AO1 SLP211 T0111 51006=
####018000146####
SPUS99 KWBC 081054
SPECI
KMWL 081051Z AUTO 13003KT 10SM SCT019 23/22 A3000 RMK AO2=
PASI 081051Z 25003KT 10SM BKN002 13/12 A3018 RMK AO2=
####018003709####
SAUS99 KWBC 081054
METAR
KACT 081051Z 07004KT 10SM FEW036 SCT085 SCT120 26/23 A2999 RMK AO2
     SLP147 T02560233=
KMMU 081045Z 00000KT 4SM HZ BCFG FEW250 22/21 A3004=
KSJT 081051Z AUTO 00000KT 10SM FEW120 22/20 A3002 RMK AO2 SLP141
     T02170200=
KUES 081045Z 23005KT 7SM SCT008 BKN015 OVC026 21/19 A3003=
K4O4 081048Z AUTO 11004KT 4SM SCT001 SCT013 23/22 A3005 RMK
     AO2=
KADH 081050Z AUTO 17005KT 7SM SCT023 23/22 A3003 RMK AO2 LTG DSNT
     NE=
KADM 081050Z AUTO 00000KT 7SM BKN027 BKN037 OVC070 23/23 A3002 RMK
     AO2=
KAFK 081050Z AUTO 36005KT 5SM BR CLR 19/18 A3013 RMK AO2
     T01920182=
KAFN 081052Z AUTO 18003KT 5SM BR FEW050 BKN080 23/21 A3011 RMK AO2
     SLP192 T02280211 $=
KAIK 081055Z AUTO 28004KT 10SM CLR 23/22 A3004 RMK AO2 PNO=
KALM 081050Z AUTO 16005KT 10SM CLR 17/14 A3014 RMK AO2=
KALS 081052Z AUTO 27006KT 10SM CLR 07/07 A3041 RMK AO2 SLP243
     T00720067=
KANW 081050Z AUTO 00000KT 10SM SCT110 17/15 A3023 RMK AO2
     T01650147=
KAQW 081052Z AUTO 00000KT 2 1/2SM BR CLR 20/19 A3007 RMK AO2
     SLP179 T02000189=
KARR 081052Z AUTO 20003KT 1 3/4SM -RA BR FEW031 SCT055 BKN080
     22/22 A3003 RMK AO2 RAB0957E08B40 SLP163 P0001 T02220217
     $=
KARW 081055Z AUTO 27004KT 10SM CLR 24/19 A2998 RMK AO2=
KATL 081052Z 31003KT 10SM CLR 24/18 A3005 RMK AO2 SLP162 T02440183
     $=
KATS 081050Z AUTO 34008KT 10SM -RA BKN037 OVC046 19/17 A3016 RMK
     AO2=
KAUH 081050Z AUTO 34006KT 10SM CLR 15/14 A3019 RMK AO2
     T01540144=
KAUN 081050Z AUTO 10005KT 10SM CLR 21/14 A2987 RMK AO1=
KAXS 081050Z AUTO 00000KT 10SM BKN026 OVC031 24/22 A3007 RMK AO2
     LTG DSNT NE T02350219=
KAXX 081050Z AUTO 17004KT 10SM SCT120 05/04 A3048 RMK AO2=
KBDN 081055Z AUTO 19004KT 10SM CLR 12/03 A3011 RMK AO2=
KBDR 081052Z 11004KT 2 1/2SM BR OVC004 25/23 A3005 RMK AO2 SLP175
     T02500233=
KBIS 081052Z 00000KT 10SM CLR 11/09 A3014 RMK AO2 SLP204
     T01110094=
KBLF 081052Z AUTO 25003KT 4SM HZ CLR 22/18 A3019 RMK AO2 SLP179
     T02170178=
KBLH 081052Z AUTO 00000KT 10SM CLR 27/M03 A2972 RMK AO2 SLP056
     T02671033=
KBML 081052Z AUTO 00000KT M1/4SM FG VV001 21/21 A3010 RMK AO2
     SLP187 T02060206 $=
KBVS 081050Z AUTO 04008KT 10SM CLR 19/13 A2997 RMK A01 P000=
KCEW 081053Z AUTO 00000KT 5SM BR CLR 20/20 A3004 RMK AO2 SLP168
     T02000200=
KCFV 081052Z AUTO 00000KT 10SM FEW032 22/21 A3005 RMK AO2 SLP168
     T02220211=
KCID 081052Z 32004KT 9SM CLR 20/19 A3005 RMK AO2 SLP171
     T02000189=
KCKV 081052Z AUTO 00000KT 10SM CLR 23/22 A3007 RMK AO2 SLP175
     T02280217=
KCLK 081053Z AUTO 01007KT 10SM -DZ SCT047 SCT070 22/20 A3007 RMK
     AO2=
KCLT 081052Z 33004KT 10SM FEW140 23/17 A3002 RMK AO2 SLP155
     T02280172=
KCNU 081052Z AUTO 36004KT 5SM BR OVC003 22/21 A3005 RMK AO2 CIG
     002V005 SLP165 T02220206=
KCQX 081052Z AUTO 16004KT 9SM OVC001 20/19 A3012 RMK AO2 SLP200
     T02000194=
KCUH 081050Z AUTO 00000KT 7SM -RA SCT021 BKN037 BKN045 23/23 A3004
     RMK AO2=
KCVG 081052Z 00000KT 5SM BR CLR 22/20 A3009 RMK AO2 SLP177
     T02220200=
KDCA 081052Z 08003KT 6SM HZ FEW050 SCT250 27/22 A3001 RMK AO2
     SLP161 T02720222=
KDDC 081052Z AUTO 01006KT 5SM BR OVC003 18/17 A3018 RMK AO2 SLP195
     T01830172=
KDPA 081052Z 16003KT 4SM -RA BR BKN065 OVC090 23/22 A3002 RMK AO2
     RAB42 SLP159 P0000 T02280222=
KDTN 081053Z AUTO 11003KT 10SM CLR 24/23 A3003 RMK AO2 SLP167
     T02440233=
KDTO 081053Z AUTO 12005KT 10SM CLR 25/23 A3001 RMK AO2 SLP154
     T02500233=
KDUA 081057Z AUTO 15006KT 10SM CLR 24/23 A3004 RMK AO2=
KDVN 081052Z AUTO 28003KT 4SM BR OVC007 22/21 A3005 RMK AO2 SLP169
     T02220211=
####018000112####
SAKA31 PTKK 081100
METAR PTKK 081050Z VRB05KT 15SM FEW014 BKN120 OVC280 26/23 A2984 RMK
 SLP106 T02560232=
####018000121####
SAMX53 MMMZ 081100
METAR MMCN 081052Z 00000KT 10SM  FEW080 SCT200 26/20 A2973 
      RMK 8/036 RTS=





TX_OPMET
####018000126####
SAPQ50 KWBC 081100
METAR
PKMR 081050Z 07012KT 15SM FEW015 SCT045 BKN120 OVC300 28/24 A2983
     RMK SLP105 T02750236=
####018003673####
SAUS70 KWBC 081100 RRA
METAR
KADH 081050Z AUTO 17005KT 7SM SCT023 23/22 A3003 RMK AO2 LTG DSNT
     NE=
KADM 081050Z AUTO 00000KT 7SM BKN027 BKN037 OVC070 23/23 A3002 RMK
     AO2=
KAFK 081050Z AUTO 36005KT 5SM BR CLR 19/18 A3013 RMK AO2
     T01920182=
KAFN 081052Z AUTO 18003KT 5SM BR FEW050 BKN080 23/21 A3011 RMK AO2
     SLP192 T02280211 $=
KAIK 081055Z AUTO 28004KT 10SM CLR 23/22 A3004 RMK AO2 PNO=
KALM 081050Z AUTO 16005KT 10SM CLR 17/14 A3014 RMK AO2=
KANW 081050Z AUTO 00000KT 10SM SCT110 17/15 A3023 RMK AO2
     T01650147=
KAQW 081052Z AUTO 00000KT 2 1/2SM BR CLR 20/19 A3007 RMK AO2
     SLP179 T02000189=
KARR 081052Z AUTO 20003KT 1 3/4SM -RA BR FEW031 SCT055 BKN080
     22/22 A3003 RMK AO2 RAB0957E08B40 SLP163 P0001 T02220217
     $=
KARW 081055Z AUTO 27004KT 10SM CLR 24/19 A2998 RMK AO2=
KATL 081052Z 31003KT 10SM CLR 24/18 A3005 RMK AO2 SLP162 T02440183
     $=
KATS 081050Z AUTO 34008KT 10SM -RA BKN037 OVC046 19/17 A3016 RMK
     AO2=
KAUH 081050Z AUTO 34006KT 10SM CLR 15/14 A3019 RMK AO2
     T01540144=
KAUN 081050Z AUTO 10005KT 10SM CLR 21/14 A2987 RMK AO1=
KAXS 081050Z AUTO 00000KT 10SM BKN026 OVC031 24/22 A3007 RMK AO2
     LTG DSNT NE T02350219=
KAXX 081050Z AUTO 17004KT 10SM SCT120 05/04 A3048 RMK AO2=
KBDN 081055Z AUTO 19004KT 10SM CLR 12/03 A3011 RMK AO2=
KBIS 081052Z 00000KT 10SM CLR 11/09 A3014 RMK AO2 SLP204
     T01110094=
KBLF 081052Z AUTO 25003KT 4SM HZ CLR 22/18 A3019 RMK AO2 SLP179
     T02170178=
KBLH 081052Z AUTO 00000KT 10SM CLR 27/M03 A2972 RMK AO2 SLP056
     T02671033=
KBML 081052Z AUTO 00000KT M1/4SM FG VV001 21/21 A3010 RMK AO2
     SLP187 T02060206 $=
KBVS 081050Z AUTO 04008KT 10SM CLR 19/13 A2997 RMK A01 P000=
KCEW 081053Z AUTO 00000KT 5SM BR CLR 20/20 A3004 RMK AO2 SLP168
     T02000200=
KCFV 081052Z AUTO 00000KT 10SM FEW032 22/21 A3005 RMK AO2 SLP168
     T02220211=
KCKV 081052Z AUTO 00000KT 10SM CLR 23/22 A3007 RMK AO2 SLP175
     T02280217=
KCLK 081053Z AUTO 01007KT 10SM -DZ SCT047 SCT070 22/20 A3007 RMK
     AO2=
KCLT 081052Z 33004KT 10SM FEW140 23/17 A3002 RMK AO2 SLP155
     T02280172=
KCQX 081052Z AUTO 16004KT 9SM OVC001 20/19 A3012 RMK AO2 SLP200
     T02000194=
KCUH 081050Z AUTO 00000KT 7SM -RA SCT021 BKN037 BKN045 23/23 A3004
     RMK AO2=
KCVG 081052Z 00000KT 5SM BR CLR 22/20 A3009 RMK AO2 SLP177
     T02220200=
KDCA 081052Z 08003KT 6SM HZ FEW050 SCT250 27/22 A3001 RMK AO2
     SLP161 T02720222=
KDDC 081052Z AUTO 01006KT 5SM BR OVC003 18/17 A3018 RMK AO2 SLP195
     T01830172=
KDPA 081052Z 16003KT 4SM -RA BR BKN065 OVC090 23/22 A3002 RMK AO2
     RAB42 SLP159 P0000 T02280222=
KDTN 081053Z AUTO 11003KT 10SM CLR 24/23 A3003 RMK AO2 SLP167
     T02440233=
KDTO 081053Z AUTO 12005KT 10SM CLR 25/23 A3001 RMK AO2 SLP154
     T02500233=
KDUA 081057Z AUTO 15006KT 10SM CLR 24/23 A3004 RMK AO2=
KDVN 081052Z AUTO 28003KT 4SM BR OVC007 22/21 A3005 RMK AO2 SLP169
     T02220211=
KEST 081052Z AUTO 31007KT 9SM CLR 16/14 A3014 RMK AO2 SLP202
     T01560144=
KFDW 081055Z AUTO 28004KT 10SM CLR 24/18 A3001 RMK AO1=
KFET 081050Z AUTO 34003KT 10SM CLR 17/16 A3016 RMK AO2=
KFIT 081052Z AUTO 15004KT 5SM HZ OVC010 24/22 A3009 RMK AO2 SLP187
     T02440217=
KGCD 081050Z AUTO 13007KT 10SM CLR 14/04 A3011 RMK AO2
     T01440035=
KGKY 081053Z AUTO 13006KT 10SM -RA FEW012 BKN017 OVC028 25/23
     A3001 RMK AO2 RAB50 SLP153 P0000 T02500228=
KGLS 081052Z 15013KT 10SM -RA FEW012 BKN024 OVC039 26/24 A2991 RMK
     AO2 RAB20 SLP129 P0022 T02560239=
KGLY 081055Z AUTO 00000KT 5SM BR BKN004 22/22 A3006 RMK AO2 LTG
     DSNT SE AND S=
####018003706####
SAUS70 KWBC 081100
METAR
K36U 081055Z AUTO 15004KT 10SM CLR 09/04 A3022 RMK AO2=
KAHN 081051Z AUTO 00000KT 5SM BR CLR 22/19 A3004 RMK AO2 SLP162
     T02170194 $=
KASH 081051Z VRB03KT 4SM HZ FEW015 BKN039 24/22 A3008 RMK AO2
     T02440216 SLP188=
KAVX 081051Z AUTO 33003KT 1/4SM FG VV001 12/12 A2992 RMK AO2
     SLP122 T01170117 TSNO=
KBAZ 081051Z AUTO 05006KT 9SM FEW008 SCT030 BKN060 25/24 A2993 RMK
     AO2 RAB09E31 SLP124 P0001 T02500239=
KBGD 081051Z AUTO 35005KT 10SM BKN031 BKN070 OVC095 18/18 A3019
     RMK AO2 SLP183 T01830178=
KCHK 081051Z AUTO 00000KT 5SM BR SCT080 22/22 A3004 RMK AO2=
KCLE 081051Z 16003KT 5SM HZ FEW060 22/18 A3008 RMK AO2 SLP180
     T02220178 $=
KCMH 081051Z 00000KT 6SM BR SCT065 22/20 A3008 RMK AO2 SLP177
     T02220200=
KCQB 081050Z AUTO 23/23 RMK AO2 PWINO TSNO=
KCSG 081051Z AUTO 00000KT 10SM CLR 23/20 A3003 RMK AO2 SLP161
     T02330200=
KDAW 081051Z AUTO 16003KT 1 3/4SM BR 22/21 A3008 RMK AO2 SLP182
     T02220206 $=
KDUC 081052Z AUTO 00000KT 10SM CLR 22/22 A3004 RMK AO2=
KERI 081051Z 18005KT 6SM HZ CLR 22/18 A3007 RMK AO2 SLP176
     T02170183=
KEWR 081051Z 22003KT 4SM BR FEW005 SCT100 BKN130 BKN250 26/25
     A3003 RMK AO2 SLP168 T02610250=
KGCM 081055Z AUTO 00000KT 4SM +TSRA SCT006 OVC012 23/23 A3006 RMK
     AO2 LTG DSNT ALQS P0015=
KGMJ 081054Z AUTO 00000KT 26/26 A3005 RMK AO2 P0004 PWINO=
KHDO 081051Z AUTO 03005KT 10SM CLR 24/22 A2996 RMK AO2 SLP127
     T02390222=
KILG 081051Z 00000KT 2SM BR CLR 25/23 A3002 RMK AO2 SLP165
     T02500233 $=
KJFK 081051Z 13007KT 1/8SM R04R/1800V3500FT BR BKN002 BKN120 24/23
     A3004 RMK AO2 SFC VIS 1 1/2 SLP173 VIS SE-SW 1 T02440228
     $=
KJSV 081050Z AUTO 00000KT 10SM SCT040 23/22 A3004 RMK AO2 LTG DSNT
     N AND NW=
KLGA 081051Z 05006KT 3SM HZ BKN015 BKN095 BKN130 26/23 A3003 RMK
     AO2 VIS 2 R22 SW SLP168 T02560228=
KLGU 081051Z AUTO 00000KT 10SM CLR 13/07 A3015 RMK AO2 SLP164
     T01280067=
KMDW 081051Z 00000KT 4SM -RA BR FEW020 BKN042 BKN130 OVC200 24/22
     A3002 RMK AO2 RAB29 SLP153 P0002 T02390217=
KMPV 081051Z AUTO 00000KT 2 1/2SM BR CLR 22/20 A3012 RMK AO2
     SLP191 T02170200=
KOKM 081051Z AUTO 01004KT 10SM OVC005 24/24 A3004 RMK AO1 LTG DSNT
     NE AND E=
KONM 081047Z AUTO 00000KT 10SM BKN110 18/15 A3021 RMK AO2
     T01810148=
KORD 081051Z 18003KT 9SM -RA FEW025 SCT060 BKN075 OVC150 23/22
     A3002 RMK AO2 RAB48 SLP159 P0000 T02280222=
KPHX 081051Z 00000KT 10SM FEW170 31/02 A2976 RMK AO2 SLP055
     T03110017 $=
KPIT 081051Z 00000KT 5SM HZ SCT050 21/18 A3010 RMK AO2 SLP187
     T02110183=
KPWM 081051Z 19007KT 9SM OVC006 22/20 A3009 RMK AO2 CIG 006V009
     SLP188 T02170200 $=
KRDU 081051Z 03005KT 5SM HZ SCT080 25/19 A2999 RMK AO2 SLP147
     T02500189 $=
KSLK 081051Z AUTO 00000KT 5SM HZ CLR 21/18 A3009 RMK AO2 SLP176
     T02110183=
KSMO 081051Z AUTO 00000KT 10SM OVC011 16/13 A2990 RMK AO2 SLP124
     T01610128=
KSTL 081051Z 23003KT 10SM FEW012 BKN044 BKN080 BKN250 26/23 A3005
     RMK AO2 SLP161 TCU DSNT NW T02560233=
KTIX 081047Z VRB05KT 7SM FEW030 21/19 A2999 RMK FIRST=
KVNY 081051Z AUTO 00000KT 6SM BR OVC008 15/13 A2989 RMK AO2 SLP116
     T01500128=
KJCT 081051Z AUTO 00000KT 8SM FEW014 22/21 A3001 RMK AO2 SLP122
     T02220211 TSNO=
KACT 081051Z 07004KT 10SM FEW036 SCT085 SCT120 26/23 A2999 RMK AO2
     SLP147 T02560233=
KMMU 081045Z 00000KT 4SM HZ BCFG FEW250 22/21 A3004=
KSJT 081051Z AUTO 00000KT 10SM FEW120 22/20 A3002 RMK AO2 SLP141
     T02170200=
KUES 081045Z 23005KT 7SM SCT008 BKN015 OVC026 21/19 A3003=
K4O4 081048Z AUTO 11004KT 4SM SCT001 SCT013 23/22 A3005 RMK
     AO2=
####018003341####
SAUS80 KWBC 081100
METAR
KSAN 081051Z 31005KT 10SM SCT014 OVC017 17/13 A2991 RMK AO2 SLP126
     T01670133=
KALB 081051Z 00000KT 4SM HZ FEW080 24/22 A3004 RMK AO2 SLP170
     T02440217=
KBDL 081051Z 15004KT 5SM HZ BKN010 BKN100 24/22 A3006 RMK AO2
     SLP176 T02440217=
KBKW 081051Z AUTO 00000KT 3SM BR FEW070 20/18 A3017 RMK AO2 SLP176
     T02000183 VISNO RWY19 $=
KEKN 081051Z AUTO 00000KT 1 1/2SM BR SCT075 17/17 A3016 RMK AO2
     SLP202 T01720167 TSNO=
KELP 081051Z 36011KT 10SM FEW032 SCT055 BKN100 22/14 A3012 RMK AO2
     SLP122 T02220144=
KHTS 081051Z AUTO 00000KT 1SM BR CLR 21/20 A3009 RMK AO2 SLP178
     T02060200 TSNO=
KMYL 081051Z AUTO 00000KT 10SM CLR 07/04 A3018 RMK AO2 SLP188
     T00670039=
KOXR 081051Z AUTO 30005KT 10SM OVC011 15/13 A2990 RMK AO2 SLP124
     T01500128 $=
KROW 081051Z AUTO 36008KT 10SM OVC031 20/16 A3018 RMK AO2 SLP161
     T02000161 TSNO=
KTEB 081051Z 00000KT 3SM MIFG CLR 26/22 A3002 RMK AO2 SLP165
     T02610222=
KYNG 081051Z 00000KT 5SM BR HZ FEW060 19/18 A3010 RMK AO2 SLP182
     T01940178=
KCON 081051Z AUTO 16003KT 3SM BR BKN006 OVC037 23/22 A3008 RMK AO2
     SLP182 T02280217=
KSMX 081051Z AUTO 00000KT 8SM OVC007 12/11 A2992 RMK AO2 SLP133
     T01220106 TSNO $=
KVCT 081051Z AUTO 00000KT 4SM -RA BR BKN013 BKN022 OVC060 25/24
     A2989 RMK AO2 SLP120 P0008 T02500244=
KCAK 081051Z 00000KT 4SM BR CLR 21/19 A3010 RMK AO2 SLP182
     T02110189=
KORF 081051Z 11007KT 10SM BKN010 BKN110 26/23 A2997 RMK AO2 SLP149
     T02560233=
KNYC 081051Z AUTO VRB03KT 5SM HZ BKN016 27/23 A3006 RMK AO2 SLP169
     T02670228 TSNO $=
KSAD 081051Z AUTO 15011KT 10SM CLR 24/11 A3000 RMK AO2 SLP098
     T02440111 TSNO=
KABE 081051Z 09006KT 5SM HZ CLR 24/21 A3004 RMK AO2 SLP168
     T02390211=
KP59 081051Z AUTO 00000KT 17/16 A2998 RMK AO2 SLP144 T01670156
     PWINO TSNO=
KHSE 081051Z AUTO 07007KT 10SM CLR 24/23 A2993 RMK AO2 SLP135
     T02440228 TSNO=
KGDP 081051Z AUTO 05022KT 3/4SM BR BKN005 BKN016 OVC100 16/16
     A3022 RMK AO2 RAB01E33 SLP159 P0000 T01610161 TSNO=
KP58 081051Z AUTO 00000KT 25/22 A2999 RMK AO2 SLP147 T02500217
     PWINO TSNO=
KATT 081051Z AUTO 00000KT 9SM BKN010 BKN014 OVC025 25/23 A2996 RMK
     AO2 RAE0956 SLP132 P0000 T02500233 $=
KCRP 081051Z 35007KT 10SM FEW010 SCT025 BKN048 26/25 A2983 RMK AO2
     RAE0953B19E30 SLP099 P0000 T02560250=
KSNT 081051Z AUTO 00000KT 01/M01 A3032 RMK AO2 SLP195 T00111011
     PWINO FZRANO TSNO=
KREO 081052Z AUTO 07007KT 11/M02 A3011 RMK AO2 SLP160 T01111017
     PWINO TSNO=
KMLF 081052Z AUTO 26006KT 10SM CLR 13/01 A3010 RMK AO2 SLP128
     T01330011 TSNO=
KBLU 081052Z AUTO 35004KT 10SM CLR 21/04 A3009 RMK AO2 SLP087
     T02060044 TSNO=
KALS 081052Z AUTO 27006KT 10SM CLR 07/07 A3041 RMK AO2 SLP243
     T00720067=
KBDR 081052Z 11004KT 2 1/2SM BR OVC004 25/23 A3005 RMK AO2 SLP175
     T02500233=
KCID 081052Z 32004KT 9SM CLR 20/19 A3005 RMK AO2 SLP171
     T02000189=
KCNU 081052Z AUTO 36004KT 5SM BR OVC003 22/21 A3005 RMK AO2 CIG
     002V005 SLP165 T02220206=
KIZA 081050Z AUTO 00000KT 10SM OVC009 13/11 A2991 RMK AO2=
KMFD 081052Z 18004KT 5SM HZ CLR 20/17 A3010 RMK AO2 SLP182
     T02000172=
KMHK 081052Z AUTO 00000KT 6SM BR SCT018 22/21 A3010 RMK AO2 SLP183
     T02170206=
####018000105####
SAMX41 MMMX 081053
METAR MMPB 081048Z 09003KT 2SM RA  VV004 14/14 A3021 
      RMK 6//// 8//// RTS=
####018000177####
SPUS80 KWBC 081054
SPECI
KIRK 081051Z AUTO 32003KT 4SM BR CLR 19/19 A3007 RMK AO2=
KPIA 081051Z 20003KT 1 3/4SM BR SCT005 OVC010 23/22 A3003 RMK AO2
     CIG 008V012=
####018000067####
SAAG SAME 081100
METAR SAME 081100Z 00000KT CAVOK 03/M04 Q1015=
####018000546####
SADL31 EDZO 081050
METAR EDDF 081050Z 16005KT 080V210 CAVOK 28/10 Q1021 NOSIG=
METAR EDDH 081050Z 17006KT 150V230 CAVOK 28/12 Q1019 NOSIG=
METAR EDDK 081050Z 21005KT 180V260 CAVOK 29/08 Q1019 NOSIG=
METAR EDDL 081050Z 27008KT CAVOK 30/09 Q1019 NOSIG=
METAR EDDM 081050Z 08008KT CAVOK 23/08 Q1023 NOSIG=
METAR EDDN 081050Z 15005KT 120V180 CAVOK 26/08 Q1022 NOSIG=
METAR EDDS 081050Z VRB03KT CAVOK 26/08 Q1022 NOSIG=
METAR EDDT 081050Z 16004KT 070V200 CAVOK 26/06 Q1021 NOSIG=
METAR EDDV 081050Z 27006KT 160V280 CAVOK 29/10 Q1020 NOSIG=
####018000118####
SAXX60 KWBC 081100
METAR
KNHK 081052Z 09004KT 3SM BR FEW010 SCT110 26/24 A3000 RMK AO2
     SLP158 T02610239=
####018000416####
SADL32 EDZO 081050
METAR EDDB 081050Z VRB02KT CAVOK 26/07 Q1021 NOSIG=
METAR EDDC 081050Z VRB03KT CAVOK 25/09 Q1022 NOSIG=
METAR EDDE 081050Z 11004KT 010V140 CAVOK 27/09 Q1022 NOSIG=
METAR EDDG 081050Z 26004KT 170V280 CAVOK 29/09 Q1019 NOSIG=
METAR EDDP 081050Z 20004KT 150V210 CAVOK 26/09 Q1021 NOSIG=
METAR EDDR 081050Z VRB01KT CAVOK 28/12 Q1021 NOSIG=
METAR EDDW 081050Z 20007KT CAVOK 29/08 Q1019 NOSIG=
####018000077####
SAAG31 KWBC 081000 CCA
METAR
SAWG 081000Z 29008KT CAVOK M05/M06 Q0991=
####018000509####
SADN31 EKCH 081050
METAR EKCH 081050Z 17012KT CAVOK 22/14 Q1020 NOSIG=
METAR EKBI 081050Z 24008KT 200V260 9999 -SHRA FEW023 BKN080
22/15 Q1019=
METAR EKYT 081050Z 20009KT 160V220 9999 FEW025 BKN028 20/15
Q1018 NOSIG=
METAR EKRK 081050Z AUTO 19011KT 9999NDV FEW050/// BKN070///
25/11 Q1020=
METAR EKAH 081050Z AUTO 20004KT 150V250 9999NDV -SHRA  BKN053///
21/15 Q1019=
METAR EKEB 081050Z AUTO 24009KT 9999NDV BKN089/// 20/15 Q1018=
METAR EKRN 081050Z AUTO 22004KT 180V250 9999NDV NCD 20/16 Q1022=
####018001573####
SPZZ40 KAWN 081053 RRN
SPECI CYBC 081049Z AUTO 10002KT 2 1/2SM OVC000 13/13 A3003=
SPECI CYQX 081049Z 18009KT 20SM FEW005 FEW030 BKN055 BKN100 14/ RMK
      SF2SC1SC2AC2=
SPECI CYSB 081049Z 20004KT 3/4SM R22/P6000FT/U BR VV002 RMK FG8=
SPECI CYTZ 081051Z AUTO 20002KT 1 1/4SM BR BKN003 20/19 A3002 RMK SLP166
      DENSITY ALT 700FT RVR MISG=
SPECI CYTZ 081052Z AUTO 19002KT 1SM BR BKN003 20/19 A3002 RMK SLP166
      DENSITY ALT 700FT RVR MISG=
SPECI CYUS 081052Z AUTO ///// 9SM FEW092 11/ A2979=
SPECI KEGI 081049Z AUTO 00000KT 1SM R18/2400VP6000FT BR CLR 21/21 A3003
      RMK AO2 SLP167 $=
SPECI KEGI 081051Z AUTO 00000KT 1 1/4SM R18/2400VP6000FT BR CLR 21/21
      A3003 RMK AO2 SLP168 $=
SPECI KEGI 081052Z AUTO 00000KT 1 3/4SM R18/2400VP6000FT BR CLR 21/21
      A3003 RMK AO2 SLP168 $=
SPECI KHRT 081046Z AUTO 00000KT 1 1/2SM R18/2800VP6000FT BR CLR 23/23
      A3001 RMK AO2 SLP165 $=
SPECI KHRT 081047Z AUTO 00000KT 1 1/4SM R18/2800VP6000FT BR CLR 23/23
      A3001 RMK AO2 SLP165 $=
SPECI KSKF 081051Z 04007KT 9SM -RA BKN013 BKN021 25/ A2992 RMK AO2A
      RAB1051 SLP123 $=
SPECI KWRI 081051Z AUTO 00000KT 1 1/4SM R18/5000VP6000FT R24/4500VP6000FT
      BR SCT001 24/24 A3001 RMK AO2 SLP162 $=
SPECI RJCH 081045Z VRB01KT 9999 FEW004 BKN009 BKN011 20/19 Q1009 RMK
      1ST004 5ST009 7ST011 A2982=
SPECI RJCK 081043Z 21006KT 0200 R35/0550N +DZ VV001 16/15 Q1010 RMK
      A2985=
SPECI RKJK 081049Z 09004KT 9999 FEW007 SCT090 24/22 A2978 RMK AO2A
      RAE1019B1034E1046DZB1019E1021B1046E1049 SLP085 $=
####018000193####
SADN33 EKCH 081050
METAR EKKA 081050Z 19005KT 160V220 3500 SHRA SCT018CB BKN030
17/15 Q1018 TEMPO 6000 -SHRA=
METAR EKSP 081050Z 22014KT CAVOK 26/09 Q1018 NOSIG RMK FEW097
SCT120 BKN250=
####018000472####
SAFI31 EFHK 081050
METAR EFHK 081050Z VRB03KT 9999 BKN040 28/17 Q1014 NOSIG=
EFJY 081050Z VRB01KT 9999 SCT023 SCT080 23/17 Q1016=
METAR EFKU 081050Z AUTO 31009KT CAVOK 23/18 Q1015=
EFOU 081050Z VRB02KT 9999 FEW025 SCT200 21/12 Q1015=
METAR EFRO 081050Z AUTO 06004KT 9999NDV FEW043 
20/09 Q1016=
EFTP 081050Z VRB03KT 9999 FEW040 25/15 Q1015=
METAR EFTU 081050Z AUTO 34005KT 260V020 CAVOK 26/07 Q1015=
EFVA 081050Z 16005KT 070V230 9999 FEW030 BKN200 24/12 Q1015=
####018000327####
SAGL31 BGSF 081050
METAR BGSF 081050Z 06008KT 9999 BKN070 13/02 Q1008=
METAR BGBW 081050Z 27005KT 9999 FEW030 12/04 Q1008 RMK 1SC =
METAR BGGH 081050Z 24004KT 200V280 9999 OVC004 05/03 Q1010=
METAR BGJN 081050Z 32004KT 280V360 9999 VCFG FEW100 07/05 Q1009 
RMK 1AC =
METAR BGKK 081050Z 05009KT 9999 SCT120 07/04 Q1009=
####018000578####
SPUS70 KWBC 081054
SPECI
KALI 081051Z AUTO 03008KT 10SM -RA SCT006 25/24 A2983 RMK AO2
     RAE21B50 P0000=
KHFD 081051Z 15003KT 2 1/2SM BR OVC008 25/23 A3005 RMK AO2=
KHVN 081051Z 13005KT 3SM BR OVC004 24/23 A3005 RMK AO2 CIG
     002V008=
KHYA 081051Z 12003KT 10SM OVC016 22/21 A3010 RMK AO2=
KJCT 081048Z AUTO 00000KT 8SM SCT014 22/21 A3000 RMK AO2 TSNO=
KLUK 081051Z 00000KT 1 1/2SM R21L/3500V4500FT BCFG CLR 22/21 A3008
     RMK AO2=
KMWL 081051Z AUTO 13003KT 10SM SCT019 23/22 A3000 RMK AO2=
PASI 081051Z 25003KT 10SM BKN002 13/12 A3018 RMK AO2=
####018000164####
SAVN24 SVMG 081100

METAR SVMG 081100Z 09010KT 9999 SCT010 SCT080 28/27 Q1012 NOSIG=
METAR SVCU 081100Z NIL=
METAR SVCP 081100Z NIL=
METAR SVGI 081100Z NIL=
####018000300####
SADN32 EKCH 081050
METAR EKVJ 081050Z 20008KT 5000 RA FEW010 BKN018 BKN020 20/17 Q1018=
METAR EKSB 081050Z 21007KT 170V230 CAVOK 25/13 Q1018=
METAR EKSN 081050Z 19011KT 9999 SCT023 BKN047 21/15 Q1017=
METAR EKVD 081050Z 23016KT CAVOK 26/12 Q1018=
METAR EKOD 081050Z 19011KT CAVOK 25/11 Q1019=
####018000639####
SASN31 ESWI 081050
METAR ESGG 081050Z 20013KT 5000 SHRA BR FEW003 SCT015 BKN020CB
17/15 Q1019=
METAR ESGJ 081050Z AUTO 22013KT 9999NDV FEW043/// 22/11 Q1019=
METAR ESGP 081050Z 19013KT 9999 VCSH FEW013 SCT019 BKN032 17/16
Q1018 REDZ=
METAR ESGT 081050Z NIL=
METAR ESMK 081050Z 19008KT 150V220 CAVOK 26/12 Q1020=
METAR ESMQ 081050Z 18014KT CAVOK 23/12 Q1020=
METAR ESMS 081050Z 19011KT CAVOK 23/10 Q1021=
METAR ESMT 081050Z 18014KT CAVOK 23/13 Q1020=
METAR ESMX 081050Z 20011KT 160V250 CAVOK 24/11 Q1020=
METAR ESTA 081050Z 17014KT CAVOK 22/13 Q1020=
METAR ESTL 081050Z AUTO 20010KT 9999NDV FEW027/// OVC055/// 23/12
Q1020=
####018000202####
SADN34 EKCH 081050
METAR EKGF 081050Z NIL=
METAR EKHN 081050Z AUTO 22003KT 9999NDV FEW068/// BKN087///
18/14 Q1020=
METAR EKHR 081050Z AUTO 20008KT 4600NDV SHRA  FEW026/// BKN044///
17/16 Q1018=
####018000077####
SPAL40 DAMM 081024
SPECI DAUA 081024Z 03026KT 4000 DRSA NSC 41/07 Q1014=
####018000327####
SAAS31 KWBC 081030 RRC
METAR
VABB 081040Z 18010KT 3200 HZ SCT010 SCT018 FEW025TCU BKN090 29/25
     Q1006 TEMPO 1500 SHRA=
VOMM 081040Z 12007KT 4000 HZ SCT015 SCT100 OVC200 28/26 Q1007
     NOSIG=
VOTR 081040Z VRB03KT 8000 SCT020 OVC100 34/23 Q1007=
VOTV 081040Z 33006KT 6000 FEW015 FEW025CB 27/24 Q1008 NOSIG=
####018000076####
SPAL40 DAMM 081024
SPECI DAUA 081024Z 03026KT 4000 DRSA NSC 41/07 Q1014=
####018000119####
SAUS44 KSJT 081053
MTRABI
METAR KABI 081052Z 01005KT 7SM SCT002 BKN010 22/21 A3006 RMK AO2 
SLP157 T02170211 $
####018000187####
SPXX60 KWBC 081054
SPECI
KABH 081051Z AUTO 26007KT 2SM BR BKN003 OVC008 12/12 A3037 RMK AO2
     $=
KNEL 081051Z AUTO 00000KT 2SM BR BKN005 OVC100 24/22 A3003 RMK AO2
     $=
####018000362####
SAGU31 MGGT 081100
METAR
METAR MGTK 081100Z 00000KT 9999 BKN012 BKN090 23/23 Q1011 A2986 =
METAR MGHT 081100Z 00000KT 9999 OVC012 16/15 QFE 816.0 =
METAR MGPB 081100Z 00000KT 9999 FEW016 OVC090 24/23 Q1010 A2983 =
METAR MGGT 081100Z 20003KT 9999 FEW015 BKN090 16/14 Q1022 A3018 NOSIG
=
METAR MGSJ  081100Z 00000KT 9999 SCT020 BKN090 23/23 Q1012 A2988 =
####018000108####
SAUS42 KJAX 081053
MTRNRB
METAR KNRB 081052Z 00000KT 10SM CLR 24/21 A3000 RMK AO2 SLP158 
T02390211
####018000079####
SAAG05 SABM 081000 CCA
METAR COR SAWG 081000Z  29008KT CAVOK M05/M06 Q0991=
####018001185####
SAUS70 KWBC 081100 RRB
METAR
KHUT 081052Z AUTO 35006KT 6SM BR BKN004 21/21 A3012 RMK AO2 SLP179
     T02110206=
KIAD 081052Z 00000KT 5SM HZ FEW075 BKN095 BKN250 26/22 A3001 RMK
     AO2 SLP158 T02610217=
KIDP 081050Z AUTO 00000KT 10SM BKN100 21/20 A3004 RMK AO2 LTG DSNT
     E THRU S=
KIEN 081052Z AUTO 00000KT 10SM CLR 08/07 A3028 RMK AO2 SLP245
     T00780067=
KIJD 081052Z AUTO 15007KT 4SM BR OVC006 23/22 A3008 RMK AO2 CIG
     003V008 SLP184 T02330222=
KIOW 081052Z AUTO 00000KT 10SM FEW090 21/20 A3006 RMK AO2 SLP173
     T02110200=
KISN 081052Z 00000KT 10SM CLR 12/11 A3012 RMK AO2 SLP197
     T01220106=
KJWG 081050Z AUTO 01004KT 5SM BR OVC004 22/22 A3010 RMK AO2=
KLAL 081050Z 03004KT 10SM SKC 23/21 A2998=
KLAM 081050Z AUTO 21003KT 10SM CLR 15/08 A3037 RMK AO2=
KLRU 081051Z AUTO 01003KT 10SM CLR 21/14 A3016 RMK AO2=
KLWC 081052Z AUTO 32004KT 10SM CLR 21/20 A3006 RMK AO2 SLP170
     T02110200=
KMDH 081052Z AUTO 00000KT 9SM FEW070 SCT100 24/22 A3005 RMK AO2
     SLP172 T02440222=
KMEB 081052Z AUTO 00000KT 10SM CLR 23/17 A2996 RMK AO2 SLP141
     T02330172=
KMEZ 081055Z AUTO 00000KT 10SM BKN043 25/23 A3008 RMK AO2=
####018000449####
SADL33 KWBC 081045 RRA
METAR
EDDB 081050Z VRB02KT CAVOK 26/07 Q1021 NOSIG=
EDDC 081050Z VRB03KT CAVOK 25/09 Q1022 NOSIG=
EDDG 081050Z 26004KT 170V280 CAVOK 29/09 Q1019 NOSIG=
EDDP 081050Z 20004KT 150V210 CAVOK 26/09 Q1021 NOSIG=
EDDR 081050Z VRB01KT CAVOK 28/12 Q1021 NOSIG=
EDDT 081050Z 16004KT 070V200 CAVOK 26/06 Q1021 NOSIG=
EDDV 081050Z 27006KT 160V280 CAVOK 29/10 Q1020 NOSIG=
EDDW 081050Z 20007KT CAVOK 29/08 Q1019 NOSIG=
####018000081####
SAEW31 KWBC 081030 RRB
METAR
LXGB 081050Z 09014KT CAVOK 26/16 Q1016 NOSIG=
####018000303####
SAMX31 KWBC 081045 RRB
METAR
MMAA 081046Z 00000KT 8SM SCT020TCU SCT090 BKN300 26/22 A2976 RMK
     8/232=
MMMX 081049Z 00000KT 2SM -RA FEW008 OVC020 15/14 A3018 NOSIG RMK
     60075 8/4//=
MMVR 081045Z 00000KT 7SM -RA SCT012CB OVC080 25/25 A2980 RMK 60055
     8/36/ INTMT -RA VRB COND=
####018000108####
SAMX41 KWBC 081045 RRB
METAR
MMDO 081048Z 03008KT 6SM SCT015 OVC020 18/17 A3012 RMK 8/8//
     RTS=
####018000118####
SAMX42 KWBC 081045 RRA
METAR
MMTO 081045Z 00000KT 3SM HZ SCT015 OVC070 13/11 A3024 RMK 8/47/
     OCNL DROPS=
####018000239####
SAXX99 KWBC 081000 RRX
METAR
KGYH 081047Z 00000KT 10SM CLR 22/19 A3004=
MMPB 081048Z 09003KT 2SM RA VV004 14/14 A3021 RMK 6//// 8////
     RTS=
MMQT 081045Z 06010KT 5SM BKN015 BKN120 OVC250 17/15 A3014 RMK
     8/532 LWR ST=
####018000115####
SAMO31 ZMUB 081100
METAR ZMUB 081100Z 15009MPS 9999 -RA FEW030CB BKN033 16/12 Q1008 
 NOSIG RMK QFE649.3 76=
####018000079####
SPUS41 KWBC 081054
SPECI
KHVN 081051Z 13005KT 3SM BR OVC004 24/23 A3005=
####018000099####
SPUS41 KWBC 081054
SPECI
KLUK 081051Z 00000KT 1 1/2SM R21L/3500V4500FT BCFG CLR 22/21 A3008=
####018000115####
SAUS46 KSGX 081053
MTRCZZ
METAR KCZZ 081052Z AUTO 00000KT 08/08 A2987 RMK AO2 SLP090 T00830078 
PWINO TSNO
####018000115####
SAUS43 KFSD 081054
MTR9V9
METAR K9V9 081052Z AUTO 28004KT 16/13 A3018 RMK AO2 SLP212 T01560128 
PWINO TSNO
####018001057####
SAUS20 KNKA 081053
METAR KTAN 081052Z AUTO 16004KT 10SM OVC008 22/21 A3008 RMK AO2 CIG 
    005V010 SLP184 T02170206=
METAR KTEX 081051Z AUTO 09003KT 10SM BKN110 12/04 A3046 RMK AO2=
METAR KTMK 081053Z AUTO 14003KT 7SM OVC006 12/12 A2996 RMK AO2=
METAR KTOL 081052Z 25003KT 7SM CLR 23/18 A3005 RMK AO2 SLP169 
    T02330183=
METAR KTQH 081055Z AUTO 00000KT 10SM BKN022 BKN033 23/23 A3004 
     RMK AO2=
METAR KTRM 081052Z AUTO 32004KT 10SM CLR 24/12 A2968 RMK AO2 SLP055 
    T02390122=
METAR KTXK 081053Z 00000KT 1SM BR VV001 23/23 A3005 RMK AO2 SLP171 
    T02330233=
METAR KUDG 081055Z 30005KT 10SM CLR 24/18 A2997 RMK AO1=
METAR KUGN 081052Z AUTO 18006KT 4SM -RA BR FEW050 BKN060 OVC080 
    23/21 A3001 RMK AO2 RAB23 SLP151 P0001 T02280211=
METAR KVTN 081052Z AUTO 23006KT 10SM SCT120 15/14 A3024 RMK AO2 
    SLP229 T01500139=
METAR KWDG 081050Z AUTO 00000KT 10SM SCT095 21/21 A3008 RMK AO2 
     LTG DSNT E=
METAR KWWR 081049Z AUTO 35005KT 10SM DZ SCT041 SCT050 BKN110 
     22/21 A3015 RMK AO2 T02170207=
####018002994####
SAUS20 KNKA 081053
METAR KMKE 081052Z 27004KT 6SM -RA BR FEW007 SCT080 OVC110 23/22 
    A3001 RMK AO2 RAE15B39 SLP157 P0000 T02280217=
METAR KMKO 081053Z AUTO 19004KT 10SM BKN023 OVC028 23/23 A3004 RMK 
    AO2 LTG DSNT N AND NW TSE0955B35E50 SLP163 T02330228=
METAR KMLI 081052Z 23005KT 10SM OVC007 23/22 A3003 RMK AO2 SLP166 
    T02280217 $=
METAR KMWH 081052Z AUTO 36005KT 10SM CLR 15/07 A3001 RMK AO2 SLP156 
    T01500072=
METAR KMWL 081053Z AUTO 13003KT 10SM FEW019 23/22 A3000 RMK AO2 
    SLP146 T02280217=
METAR KOAJ 081055Z AUTO 00000KT 7SM CLR 23/21 A2994 RMK AO1=
METAR KOCF 081055Z AUTO 00000KT 7SM OVC002 20/20 A3001 RMK AO1=
METAR KOJA 081050Z AUTO 35005KT 10SM SCT007 OVC011 22/22 A3008 
     RMK AO2=
METAR KOKB 081052Z AUTO 30003KT 8SM OVC018 17/14 A2989 RMK AO2 
    SLP120 T01720139=
METAR KOKC 081052Z 01005KT 10SM FEW021 BKN080 OVC130 23/22 A3005 RMK 
    AO2 SLP161 T02330222=
METAR KOMA 081052Z 34005KT 10SM FEW029 SCT250 19/18 A3014 RMK AO2 
    SLP199 T01940183=
METAR KONP 081050Z AUTO 19007KT 10SM OVC004 11/09 A2999 RMK AO1=
METAR KORE 081052Z AUTO 17005KT 7SM SCT013 BKN080 BKN100 24/22 A3008 
    RMK AO2 SLP181 T02390217=
METAR KORS 081050Z AUTO 00000KT 10SM CLR 15/12 A2995 RMK AO2=
METAR KOUN 081052Z AUTO 00000KT 10SM SCT011 BKN020 BKN026 25/23 
     A3005 RMK AO2 LTG DSNT NE=
METAR KPIA 081052Z 20003KT 1 3/4SM BR SCT005 OVC010 23/22 A3003 RMK 
    AO2 CIG 008V013 SLP166 T02280217=
METAR KPLU 081050Z AUTO 00000KT 10SM CLR 13/13 A2994 RMK AO2=
METAR KPPF 081052Z AUTO 00000KT 10SM FEW100 22/21 A3005 RMK AO2 
    SLP166 T02170206=
METAR KPTS 081050Z AUTO 13006KT 10SM VCTS SCT028 SCT037 SCT044 
     22/22 A3005 RMK AO2 LTG DSNT SE THRU SW T02200221=
METAR KPVJ 081047Z AUTO 00000KT 7SM CLR 24/23 A3003 RMK AO2=
METAR KPWA 081053Z 35006KT 8SM OVC004 23/21 A3005 RMK AO2 SLP162 
    T02280211=
METAR KPWK 081052Z 16004KT 3SM BR FEW049 BKN055 OVC095 23/22 A3003 
    RMK AO2 RAB32E42 SLP163 P0000 T02330222=
METAR KPYM 081052Z AUTO 15006KT 10SM BKN008 OVC080 24/21 A3010 RMK 
    AO2 SLP191 T02390206=
METAR KRAP 081052Z AUTO 30008KT 10SM CLR 11/08 A3025 RMK AO2 SLP235 
    T01060083=
METAR KRKR 081052Z AUTO 00000KT 10SM BKN029 BKN034 27/24 A3003 
     RMK AO2 LTG DSNT NW=
METAR KSGF 081052Z 00000KT 8SM FEW055 23/22 A3006 RMK AO2 LTG DSNT 
    NW SLP165 T02280222=
METAR KSNL 081052Z AUTO 36005KT 7SM BKN005 OVC010 24/23 A3006 RMK 
     AO2 LTG DSNT NE=
METAR KSOP 081055Z AUTO 00000KT 10SM CLR 23/18 A2997 RMK AO1=
METAR KSPI 081052Z 00000KT 7SM -RA FEW008 SCT025 BKN045 23/23 A3004 
    RMK AO2 RAB34 SLP167 P0010 T02330228=
METAR KSPS 081052Z 10004KT 10SM CLR 23/22 A3003 RMK AO2 SLP154 
    T02280217=
METAR KSRE 081050Z AUTO 00000KT 5SM BR CLR 24/24 A3004 RMK AO2 
     LTG DSNT NE=
METAR KSUX 081052Z 31004KT 6SM BR CLR 16/15 A3016 RMK AO2 SLP208 
    T01610150=
METAR KSVC 081050Z AUTO 06008KT 10SM OVC100 18/14 A3022 RMK AO2=
####018000114####
SAUS41 KPHI 081054 COR
MTRABE
METAR KABE 081051Z 09006KT 5SM HZ CLR 24/21 A3004 RMK AO2 SLP168 
T02390211
####018000485####
SAUS43 KWBC 081000 RRK
METAR
KIGQ 081040Z AUTO 00000KT 2 1/2SM BR SCT060 SCT075 OVC100 23/22
     A3002=
KMQB 081045Z AUTO 28004KT 4SM BR OVC004 23/23 A3006=
KMWA 081045Z AUTO 00000KT 10SM CLR 24/24 A3006=
KSAR 081045Z AUTO 19005KT 7SM BKN065 26/23 A3005=
KSLO 081041Z AUTO 19003KT 10SM SCT047 24/22 A3005=
KTAZ 081045Z AUTO 00000KT 2SM BR CLR 23/23 A3003=
KTIP 081045Z AUTO 00000KT 3SM BR SCT100 24/23 A3005=
KVYS 081045Z AUTO 00000KT 4SM BR OVC014 23/22 A3003=
####018000090####
SPUS43 KWBC 081054
SPECI
KPIA 081051Z 20003KT 1 3/4SM BR SCT005 OVC010 23/22 A3003=
####018000269####
SASW32 LSSW 081050
METAR LSGC 081050Z NIL=
METAR LSGS 081050Z 24008KT 200V310 9999 FEW100 28/14 Q1021=
METAR LSZG 081050Z NIL=
METAR LSZR 081050Z 28004KT CAVOK 23/16 Q1022 NOSIG RMK H=
METAR LSZS 081050Z 23007KT CAVOK 23/11 Q1026=
METAR LSZC 081050Z NIL=
####018000132####
SAUS51 KWBC 081000 RRE
METAR
KMWN 081049Z 16002KT 6SM HZ FEW000 FEW001 16/14=
KMYR 081045Z 31008KT 10SM SCT110 25/19 A2996=
####018000116####
SAUS44 KMAF 081054
MTRNFW
METAR KNFW 081052Z AUTO 00000KT 10SM FEW012 26/22 A3005 RMK AO2 
SLP159 T02610222
####018000120####
SAUS46 KLOX 081054
MTRSDB
METAR KSDB 081052Z AUTO 31006KT 10SM CLR 19/00 A3002 RMK AO2 SLP106 
T01940000 TSNO $
####018000135####
SAUS46 KLOX 081054
MTRNZY
METAR KNZY 081052Z 31006KT 8SM -DZ FEW008 OVC016 18/14 A2989 RMK AO2 
DZB52 SLP120 P0000 T01830139 $
####018000093####
SAUS52 KWBC 081000 RRH
METAR
KSEP 081045Z AUTO 00000KT 10SM BKN011 BKN090 23/22 A3003=
####018000086####
SPUS52 KWBC 081054
SPECI
KALI 081051Z AUTO 03008KT 10SM -RA SCT006 25/24 A2983=
####018000068####
SAUS53 KWBC 081000 RRN
METAR
KEHA 081048Z AUTO 34005KT 17/16=
####018000081####
SPUS53 KWBC 081054
SPECI
KIRK 081051Z AUTO 32003KT 4SM BR CLR 19/19 A3007=
####018000333####
SAGL31 BGSF 081050
METAR BGSF 081050Z 06008KT 9999 BKN070 13/02 Q1008=
METAR BGBW 081050Z 27005KT 9999 FEW030 12/04 Q1008 RMK 1SC =
METAR BGGH 081050Z 24004KT 200V280 9999 OVC004 05/03 Q1010=
METAR BGJN 081050Z 32004KT 280V360 9999 VCFG FEW100 07/05 Q1009 
RMK 1AC =
METAR BGKK 081050Z 05009KT 9999 SCT120 07/04 Q1009=
####018000081####
SAMP31 LMMM 081100 RRA
METAR HLLT 081050Z
33005KT 280V030 8000 31/19 Q1019=
####018000305####
SADN32 EKCH 081050
METAR EKVJ 081050Z 20008KT 5000 RA FEW010 BKN018 BKN020 20/17 Q1018=
METAR EKSB 081050Z 21007KT 170V230 CAVOK 25/13 Q1018=
METAR EKSN 081050Z 19011KT 9999 SCT023 BKN047 21/15 Q1017=
METAR EKVD 081050Z 23016KT CAVOK 26/12 Q1018=
METAR EKOD 081050Z 19011KT CAVOK 25/11 Q1019=
####018000197####
SADN33 EKCH 081050
METAR EKKA 081050Z 19005KT 160V220 3500 SHRA SCT018CB BKN030
17/15 Q1018 TEMPO 6000 -SHRA=
METAR EKSP 081050Z 22014KT CAVOK 26/09 Q1018 NOSIG RMK FEW097
SCT120 BKN250=
####018000113####
SATU20 LTAA 080950 RRF
METAR LTBF 080950Z 34017KT 310V010 9999 SCT035 26/16 Q1012 NOSIG RMK
RWY18 35017KT=
####018000653####
SASN31 ESWI 081050
METAR ESGG 081050Z 20013KT 5000 SHRA BR FEW003 SCT015 BKN020CB
17/15 Q1019=
METAR ESGJ 081050Z AUTO 22013KT 9999NDV FEW043/// 22/11 Q1019=
METAR ESGP 081050Z 19013KT 9999 VCSH FEW013 SCT019 BKN032 17/16
Q1018 REDZ=
METAR ESGT 081050Z NIL=
METAR ESMK 081050Z 19008KT 150V220 CAVOK 26/12 Q1020=
METAR ESMQ 081050Z 18014KT CAVOK 23/12 Q1020=
METAR ESMS 081050Z 19011KT CAVOK 23/10 Q1021=
METAR ESMT 081050Z 18014KT CAVOK 23/13 Q1020=
METAR ESMX 081050Z 20011KT 160V250 CAVOK 24/11 Q1020=
METAR ESTA 081050Z 17014KT CAVOK 22/13 Q1020=
METAR ESTL 081050Z AUTO 20010KT 9999NDV FEW027/// OVC055/// 23/12
Q1020=
####018000207####
SADN34 EKCH 081050
METAR EKGF 081050Z NIL=
METAR EKHN 081050Z AUTO 22003KT 9999NDV FEW068/// BKN087///
18/14 Q1020=
METAR EKHR 081050Z AUTO 20008KT 4600NDV SHRA  FEW026/// BKN044///
17/16 Q1018=
####018000481####
SAFI31 EFHK 081050
METAR EFHK 081050Z VRB03KT 9999 BKN040 28/17 Q1014 NOSIG=
EFJY 081050Z VRB01KT 9999 SCT023 SCT080 23/17 Q1016=
METAR EFKU 081050Z AUTO 31009KT CAVOK 23/18 Q1015=
EFOU 081050Z VRB02KT 9999 FEW025 SCT200 21/12 Q1015=
METAR EFRO 081050Z AUTO 06004KT 9999NDV FEW043 
20/09 Q1016=
EFTP 081050Z VRB03KT 9999 FEW040 25/15 Q1015=
METAR EFTU 081050Z AUTO 34005KT 260V020 CAVOK 26/07 Q1015=
EFVA 081050Z 16005KT 070V230 9999 FEW030 BKN200 24/12 Q1015=
####018000520####
SADN31 EKCH 081050
METAR EKCH 081050Z 17012KT CAVOK 22/14 Q1020 NOSIG=
METAR EKBI 081050Z 24008KT 200V260 9999 -SHRA FEW023 BKN080
22/15 Q1019=
METAR EKYT 081050Z 20009KT 160V220 9999 FEW025 BKN028 20/15
Q1018 NOSIG=
METAR EKRK 081050Z AUTO 19011KT 9999NDV FEW050/// BKN070///
25/11 Q1020=
METAR EKAH 081050Z AUTO 20004KT 150V250 9999NDV -SHRA  BKN053///
21/15 Q1019=
METAR EKEB 081050Z AUTO 24009KT 9999NDV BKN089/// 20/15 Q1018=
METAR EKRN 081050Z AUTO 22004KT 180V250 9999NDV NCD 20/16 Q1022=
####018000078####
SALY31 HLLT 081100
METAR HLLT 081050Z 
33005KT 280V030 8000 31/19 Q1019=
####018000082####
SAMP31 LMMM 081100 RRA
METAR HLLT 081050Z 
33005KT 280V030 8000 31/19 Q1019=
####018000086####
SPUS72 KWBC 081054
SPECI
KALI 081051Z AUTO 03008KT 10SM -RA SCT006 25/24 A2983=
####018000081####
SPUS73 KWBC 081054
SPECI
KIRK 081051Z AUTO 32003KT 4SM BR CLR 19/19 A3007=
####018000090####
SPUS73 KWBC 081054
SPECI
KPIA 081051Z 20003KT 1 3/4SM BR SCT005 OVC010 23/22 A3003=
####018000117####
SAUS45 KMSO 081054
MTRP69
METAR KP69 081052Z AUTO 35003KT 11/10 A3012 RMK AO2 SLP180 T01110100 
PWINO TSNO $
####018002961####
SAUS20 KNKA 081054
METAR KOAK 081053Z 29008KT 10SM OVC007 15/11 A2993 RMK AO2 SLP133 
    T01500111=
METAR KODX 081053Z AUTO 34003KT 10SM OVC085 16/16 A3021 RMK AO2 
    SLP225 T01610156=
METAR KOGA 081050Z AUTO 00000KT 7SM OVC095 15/14 A3027 RMK AO2 
     T01500140=
METAR KONL 081050Z AUTO 28004KT 10SM SCT110 17/15 A3022 RMK AO2 
     T01660150=
METAR KOSH 081053Z 00000KT 9SM FEW014 22/20 A2999 RMK AO2 SLP143 
    T02170200=
METAR KOVE 081053Z AUTO 16007KT 10SM CLR 19/12 A2984 RMK AO2 SLP105 
    T01890122 TSNO=
METAR KOXB 081053Z AUTO 07005KT 9SM FEW085 24/24 A3002 RMK AO2 
    SLP165 T02440239 $=
METAR KPAH 081053Z AUTO 00000KT 10SM CLR 24/22 A3005 RMK AO2 SLP170 
    T02390217=
METAR KPBF 081053Z AUTO 00000KT 7SM CLR 24/22 A3006 RMK AO2 SLP177 
    T02390222=
METAR KPDK 081053Z 00000KT 10SM CLR 22/19 A3005 RMK AO2 SLP155 
    T02170189=
METAR KPIL 081053Z AUTO 01005KT 10SM FEW023 28/26 A2977 RMK AO2 
    RAE11 SLP079 P0007 T02780256 $=
METAR KPIR 081053Z AUTO 23006KT 10SM CLR 14/12 A3017 RMK AO2 SLP207 
    T01390122=
METAR KPKD 081053Z AUTO 00000KT 7SM CLR 13/13 A3008 RMK AO2 SLP186 
    T01330128=
METAR KPNA 081050Z AUTO 29005KT 10SM CLR 04/01 A3039 RMK AO2 
     T00400010=
METAR KPQL 081053Z AUTO 00000KT 1/2SM FG VV001 23/23 A3003 RMK AO2 
    SLP169 T02330233=
METAR KPRB 081053Z AUTO 27003KT 10SM OVC007 12/11 A2990 RMK AO2 
    SLP121 T01220106=
METAR KPSX 081053Z AUTO 10010KT 10SM CLR 27/25 A2986 RMK AO2 SLP111 
    T02720250=
METAR KPTT 081050Z AUTO 02010KT 5SM BR OVC004 20/20 A3015 RMK AO2=
METAR KRAC 081053Z AUTO 18005KT 3SM BR SCT002 OVC095 23/22 A3002 RMK 
    AO2 RAE0955B41E51 SLP161 P0000 T02280217=
METAR KRBD 081053Z 11005KT 10SM BKN009 OVC016 25/23 A3001 RMK AO2 
    CIG 006V011 SLP151 T02500233=
METAR KRDD 081053Z AUTO 00000KT 10SM CLR 22/15 A2982 RMK AO2 SLP091 
    T02220150=
METAR KRKP 081053Z AUTO 09006KT 10SM FEW028 SCT050 BKN090 26/25 
    A2983 RMK AO2 LTG DSNT W AND NW RAE45 SLP102 P0005 T02610250=
METAR KRNT 081053Z AUTO 00000KT 10SM CLR 16/14 A2994 RMK AO2 SLP144 
    T01610139=
METAR KRUE 081053Z AUTO 00000KT 10SM CLR 24/23 A3006 RMK AO2 SLP170 
    T02390228=
METAR KRWF 081053Z AUTO 30006KT 10SM CLR 15/14 A3012 RMK AO2 SLP197 
    T01500139=
METAR KRWI 081053Z AUTO 03004KT 4SM HZ CLR 24/21 A2996 RMK AO2 
    SLP145 T02440206=
METAR KSAC 081053Z 18006KT 10SM CLR 14/10 A2984 RMK AO2 SLP103 
    T01390100=
METAR KSAN 081051Z 31005KT 10SM SCT014 OVC017 17/13 A2991 RMK AO2
     SLP126 T01670133=
METAR KSAT 081053Z 05005KT 7SM BKN011 OVC050 25/23 A2994 RMK AO2 
    RAE10 SLP120 P0000 T02500233=
METAR KSBM 081053Z AUTO 00000KT 8SM FEW070 22/21 A3000 RMK AO2 
    RAB19E45 SLP155 P0001 T02170211 $=
METAR KSDL 081053Z 27004KT 10SM CLR 31/04 A2980 RMK AO2 SLP060 
    T03060039=
METAR KSIY 081053Z AUTO 07004KT 10SM CLR 18/08 A2996 RMK AO2 SLP127 
    T01780078 $=
####018002990####
SAUS20 KNKA 081054
METAR KPMV 081050Z AUTO 00000KT 7SM CLR 19/18 A3014 RMK AO2 
     T01900182=
METAR KABR 081053Z AUTO 23003KT 6SM BR CLR 14/13 A3013 RMK AO2 
    SLP199 T01390128=
METAR KACV 081053Z AUTO 00000KT 4SM BR OVC001 10/09 A2996 RMK AO2 
    SLP152 T01000094=
METAR KAGS 081053Z 00000KT 10SM CLR 22/20 A2999 RMK AO2 SLP154 
    T02170200=
METAR KALI 081053Z AUTO 04007KT 10SM -RA SCT006 SCT029 25/24 A2983 
    RMK AO2 RAE21B50 SLP099 P0000 T02500244=
METAR KAMW 081053Z AUTO 34007KT 5SM BR FEW090 19/18 A3010 RMK AO2 
    SLP185 T01940183=
METAR KANB 081053Z AUTO 00000KT 8SM CLR 21/19 A3005 RMK AO2 SLP165 
    T02110194=
METAR KAOO 081053Z AUTO 00000KT 2 1/2SM HZ CLR 20/17 A3011 RMK AO2 
    SLP183 T02000172=
METAR KARA 081053Z AUTO 09003KT 6SM BR CLR 24/24 A3000 RMK AO2 
    SLP157 T02440239=
METAR KASD 081053Z AUTO 00000KT 10SM CLR 24/23 A3001 RMK AO2 SLP163 
    T02390228=
METAR KASX 081053Z AUTO 26003KT 10SM SCT065 16/16 A3004 RMK AO2 
    SLP172 T01560156=
METAR KATY 081053Z AUTO 24006KT 10SM CLR 15/13 A3015 RMK AO2 SLP205 
    T01500133=
METAR KAUS 081053Z 06005KT 10SM SCT014 26/24 A2995 RMK AO2 SLP127 
    T02560239=
METAR KAWM 081053Z AUTO 00000KT 10SM CLR 23/22 A3006 RMK AO2 SLP173 
    T02330222=
METAR KAXN 081053Z AUTO 24006KT 10SM CLR 15/14 A3012 RMK AO2 SLP199 
    P0001 T01500139=
METAR KAZO 081053Z 00000KT 2 1/2SM BR CLR 22/21 A3005 RMK AO2 SLP169 
    T02220206 $=
METAR KBCT 081047Z AUTO 08005KT 10SM -RA FEW021 SCT048 BKN060 28/24 
     A2995 =
METAR KBDE 081053Z AUTO 00000KT 10SM CLR 14/12 A3001 RMK AO2 SLP161 
    T01390117=
METAR KBEH 081053Z AUTO 00000KT 4SM BR CLR 23/22 A3004 RMK AO2 
    SLP165 T02280222 $=
METAR KBFD 081053Z AUTO 00000KT 4SM BR CLR 18/16 A3016 RMK AO2 
    SLP193 T01780161=
METAR KBFM 081053Z 00000KT 7SM CLR 23/22 A3004 RMK AO2 SLP173 
    T02280217=
METAR KBHM 081053Z 00000KT 7SM CLR 24/22 A3008 RMK AO2 SLP175 
    T02390217=
METAR KBIE 081050Z AUTO 35003KT 10SM SCT017 18/17 A3015 RMK AO2 
     T01810170=
METAR KBIV 081053Z AUTO 00000KT 7SM CLR 24/22 A3004 RMK AO2 SLP166 
    T02390217=
METAR KBMQ 081053Z AUTO 09003KT 10SM SCT011 BKN023 23/22 A3001 RMK 
    AO2 SLP142 T02330217 $=
METAR KBNA 081053Z 00000KT 10SM FEW080 SCT200 24/22 A3008 RMK AO2 
    SLP178 T02440217=
METAR KBPK 081053Z AUTO 00000KT 8SM OVC070 22/22 A3006 RMK AO2 
    SLP168 T02220217=
METAR KBPT 081053Z 08008KT 10SM FEW009 26/24 A2995 RMK AO2 RAB35E46 
    SLP142 P0000 T02560244 $=
METAR KBRD 081053Z AUTO 22005KT 10SM CLR 16/13 A3008 RMK AO2 SLP184 
    T01560128=
METAR KBRO 081053Z 34003KT 10SM FEW016 26/25 A2977 RMK AO2 RAE0959 
    SLP079 P0000 T02610250=
METAR KBTA 081050Z AUTO 35004KT 10SM CLR 19/17 A3014 RMK AO2 
     T01850170=
METAR KBTL 081053Z 00000KT 7SM CLR 23/21 A3006 RMK AO2 SLP172 
    T02280206=
METAR KBVN 081050Z AUTO 00000KT 10SM OVC090 17/15 A3020 RMK AO2 
     T01650152=
####018002974####
SAUS20 KNKA 081054
METAR KBWG 081053Z AUTO 00000KT 6SM BR CLR 23/21 A3007 RMK AO2 
    SLP177 T02280211=
METAR KCCR 081053Z AUTO 25004KT 10SM BKN013 13/10 A2990 RMK AO2 
    SLP111 T01280100=
METAR KCDS 081053Z AUTO 00000KT 10SM BKN034 23/21 A3010 RMK AO2 
    SLP167 T02280211=
METAR KCHO 081053Z 00000KT 4SM HZ CLR 23/21 A3002 RMK AO2 SLP156 
    T02330206=
METAR KCLL 081053Z AUTO 07007KT 10SM CLR 25/23 A2995 RMK AO2 SLP138 
    T02500228=
METAR KCMI 081053Z 18003KT 5SM BR CLR 23/22 A3004 RMK AO2 SLP165 
    T02280217=
METAR KCOT 081053Z AUTO 03006KT 10SM SCT017 BKN044 OVC060 25/23 
    A2990 RMK AO2 RAE03B22E32 SLP115 P0000 T02500228=
METAR KCSV 081053Z AUTO 00000KT 6SM HZ CLR 21/17 A3015 RMK AO2 
    SLP185 T02060167=
METAR KCXO 081053Z VRB03KT 7SM FEW005 24/23 A2995 RMK AO2 SLP138 
    T02390233=
METAR KDAN 081053Z AUTO 00000KT 4SM HZ FEW110 25/19 A3002 RMK AO2 
    SLP152 T02500189=
METAR KDBQ 081053Z 00000KT 7SM OVC018 21/20 A3006 RMK AO2 SLP173 
    T02060200=
METAR KDCU 081053Z AUTO 00000KT 9SM CLR 22/21 A3007 RMK AO2 SLP176 
    T02220206=
METAR KDMN 081053Z AUTO 03013KT 10SM CLR 21/13 A3013 RMK AO2 
    RAB0958E16 SLP116 P0000 T02110133=
METAR KDNL 081053Z AUTO 30007KT 10SM CLR 27/18 A3001 RMK AO2 SLP157 
    T02720178=
METAR KDRT 081053Z AUTO 00000KT 10SM SCT065 24/22 A2994 RMK AO2 
    SLP122 T02440222=
METAR KDVO 081050Z AUTO 00000KT 10SM BKN014 12/11 A2992 RMK AO2=
METAR KDWH 081053Z 06006KT 7SM BKN005 24/24 A2994 RMK AO2 SLP135 
    T02440239=
METAR KEET 081053Z AUTO 00000KT 5SM BR CLR 23/22 A3006 RMK AO2 
    SLP169 T02330217=
METAR KENW 081053Z AUTO VRB03KT 6SM BR FEW031 OVC080 22/22 A3001 RMK 
    AO2 RAB14E51 SLP160 P0002 T02220217 $=
METAR KEQY 081053Z AUTO 34003KT 10SM CLR 25/17 A3000 RMK AO2 SLP154 
    T02500172=
METAR KESF 081053Z AUTO 00000KT 5SM BR SCT015 22/22 A3003 RMK AO2 
    SLP166 T02220217=
METAR KFAT 081053Z 33004KT 10SM CLR 21/08 A2982 RMK AO2 SLP093 
    T02060083=
METAR KFAY 081053Z AUTO 35006KT 8SM CLR 26/18 A2994 RMK AO2 SLP132 
    T02560183=
METAR KFCM 081053Z AUTO 30003KT 10SM CLR 18/16 A3009 RMK AO2 SLP185 
    T01780156=
METAR KFFC 081053Z AUTO 00000KT 6SM BR CLR 20/18 A3005 RMK AO2 
    SLP168 T02000183=
METAR KFLD 081053Z AUTO 00000KT 6SM BR CLR 21/20 A3001 RMK AO2 
    SLP159 T02110200=
METAR KFMN 081053Z AUTO 07009KT 10SM CLR 19/06 A3021 RMK AO2 SLP159 
    T01890056=
METAR KFSM 081053Z 00000KT 10SM BKN032 24/22 A3003 RMK AO2 SLP164 
    T02440222=
METAR KFTY 081053Z 00000KT 7SM CLR 20/18 A3005 RMK AO2 SLP163 
    T02000183=
METAR KFYV 081053Z 00000KT 10SM OVC027 22/21 A3007 RMK AO2 SLP169 
    T02170211=
METAR KGEG 081053Z 07004KT 10SM CLR 17/08 A3007 RMK AO2 SLP165 
    T01720078=
METAR KGFK 081053Z 22005KT 10SM FEW080 14/12 A3004 RMK AO2 SLP172 
    T01440122=
METAR KGLH 081053Z AUTO 00000KT 7SM CLR 22/22 A3005 RMK AO2 SLP182 
    T02220222=
####018002294####
SAUS20 KNKA 081054
METAR KSJC 081053Z AUTO VRB03KT 9SM OVC013 15/12 A2991 RMK AO2 
    SLP129 T01500117=
METAR KSMF 081053Z 18008KT 10SM CLR 14/11 A2982 RMK AO2 SLP096 
    T01440106=
METAR KSOW 081050Z AUTO 00000KT 10SM SCT110 21/03 A3024 RMK AO2=
METAR KSPW 081053Z AUTO 31005KT 5SM BR CLR 15/14 A3015 RMK AO2 
    SLP205 T01500139=
METAR KSSF 081053Z AUTO 03005KT 10SM SCT013 BKN036 BKN045 26/23 
    A2992 RMK AO2 SLP118 T02610233=
METAR KSTC 081053Z AUTO 00000KT 4SM BR CLR 13/12 A3009 RMK AO2 
    SLP197 T01330122=
METAR KSTP 081053Z 32005KT 10SM CLR 18/16 A3009 RMK AO2 SLP185 
    T01780161=
METAR KSTS 081053Z AUTO 12004KT 10SM OVC006 12/10 A2991 RMK AO2 
    SLP120 T01220100=
METAR KSUN 081051Z AUTO 31010G15KT 10SM CLR 10/01 A3023 RMK AO2=
METAR KSZT 081050Z AUTO 28003KT 10SM CLR 09/08 A3011 RMK AO2=
METAR KTCL 081053Z AUTO 00000KT 7SM CLR 24/22 A3005 RMK AO2 SLP173 
    T02390217=
METAR KTIW 081053Z AUTO 04004KT 10SM FEW090 21/11 A2995 RMK AO2 
    SLP136 T02060111=
METAR KTOI 081053Z AUTO 00000KT 7SM CLR 22/21 A3004 RMK AO2 SLP166 
    T02170211=
METAR KTRL 081053Z AUTO 11004KT 10SM SCT043 27/22 A3002 RMK AO2 
    RAB42E51 SLP159 P0000 T02670222=
METAR KTUS 081053Z 00000KT 10SM CLR 29/05 A2990 RMK AO2 SLP066 
    T02890050=
METAR KTVC 081053Z 23004KT 10SM OVC090 23/20 A2998 RMK AO2 SLP148 
    FIRST AUGMENTED OBS OF DAY T02280200=
METAR KTVL 081053Z AUTO 20003KT 10SM CLR 09/06 A3015 RMK AO2 SLP154 
    T00940056=
METAR KTVR 081053Z AUTO 00000KT 1SM BR CLR 22/21 A3005 RMK AO2 
    SLP180 T02220211 $=
METAR KTYR 081053Z AUTO 00000KT 10SM CLR 25/23 A3003 RMK AO2 SLP163 
    T02500233=
METAR KUTS 081053Z AUTO 00000KT 6SM BR OVC004 24/23 A2997 RMK AO2 
    CIG 002V006 SLP145 T02390228=
METAR KVCB 081053Z AUTO 26006KT 10SM CLR 17/10 A2983 RMK AO2 SLP099 
    T01670100=
METAR KVPC 081053Z AUTO 00000KT 4SM BR CLR 19/19 A3007 RMK AO2 
    SLP168 T01940189=
METAR KVPZ 081053Z AUTO 18003KT 3SM VCTS BR SCT047 BKN070 OVC085 
    23/22 A3006 RMK AO2 LTG DSNT SW TSB41RAE26 SLP171 P0000 
    T02330222=
METAR KWVI 081053Z AUTO 24003KT 10SM OVC009 13/11 A2992 RMK AO2 
    SLP131 T01280106=
METAR KXNA 081053Z 15004KT 10SM OVC023 22/22 A3007 RMK AO2 SLP168 
    T02220217=
####018002946####
SAUS20 KNKA 081054
METAR KGLR 081053Z AUTO 23006KT 10SM OVC090 22/19 A3001 RMK AO2 
    SLP152 T02220194=
METAR KGMU 081053Z 00000KT 10SM CLR 26/18 A3005 RMK AO2 SLP162 
    T02560183=
METAR KGPT 081053Z 00000KT 6SM BR CLR 26/24 A3002 RMK AO2 SLP164 
    T02560239=
METAR KGRB 081053Z 00000KT 5SM BR OVC004 22/21 A3000 RMK AO2 
    RAB40E49 SLP155 P0000 T02170206=
METAR KGRI 081053Z AUTO 31005KT 10SM BKN120 16/14 A3021 RMK AO2 
    SLP221 T01560139=
METAR KGRR 081053Z 24003KT 2 1/2SM BR SCT120 BKN200 24/22 A3004 RMK 
    AO2 SLP165 T02390222=
METAR KGSH 081053Z AUTO 31005KT 3SM BR SCT055 22/20 A3006 RMK AO2 
    SLP170 T02170200=
METAR KGSP 081053Z 00000KT 10SM CLR 22/19 A3003 RMK AO2 SLP153 
    T02220189=
METAR KGUP 081053Z AUTO 15006G14KT 10SM CLR 19/08 A3025 RMK AO2 
    SLP046 T01890078=
METAR KGVL 081053Z AUTO 33004KT 10SM CLR 23/19 A3008 RMK AO2 SLP167 
    T02330189=
METAR KGWO 081053Z AUTO 00000KT 10SM CLR 22/22 A3005 RMK AO2 SLP175 
    T02220217=
METAR KHBG 081053Z AUTO 00000KT 10SM CLR 23/22 A3004 RMK AO2 SLP169 
    T02280222=
METAR KHDE 081050Z AUTO 34003KT 10SM SCT050 SCT120 16/14 A3023 
     RMK AO2 T01550141=
METAR KHEI 081053Z AUTO 00000KT 10SM CLR 09/07 A3019 RMK AO2 SLP218 
    T00890072=
METAR KHGR 081053Z AUTO 00000KT 4SM HZ CLR 24/17 A3004 RMK AO2 
    SLP173 T02390172=
METAR KHIB 081053Z AUTO 00000KT 1/2SM FG CLR 09/08 A3004 RMK AO2 
    SLP177 T00890083=
METAR KHJH 081050Z AUTO 02004KT 10SM OVC029 19/18 A3017 RMK AO2 
     T01930177=
METAR KHJO 081053Z AUTO 31007KT 10SM CLR 19/12 A2982 RMK AO2 SLP096 
    T01890122=
METAR KHKA 081053Z AUTO 19003KT 5SM BR CLR 24/22 A3007 RMK AO2 
    SLP178 T02440222=
METAR KHKS 081053Z AUTO 00000KT 9SM CLR 24/23 A3006 RMK AO2 SLP170 
    T02390228=
METAR KHKY 081053Z 32003KT 10SM CLR 23/17 A3005 RMK AO2 RAB0959E34 
    SLP151 T02280167 PNO $=
METAR KHLG 081053Z 00000KT 2 1/2SM BR CLR 21/19 A3010 RMK AO2 SLP185 
    T02110194=
METAR KHOT 081053Z AUTO 00000KT 10SM OVC008 24/23 A3007 RMK AO2 
    SLP176 T02440233=
METAR KHOU 081053Z 09005KT 10SM FEW029 SCT042 BKN130 28/24 A2991 RMK 
    AO2 SLP132 T02780239=
METAR KHRL 081052Z 35009KT 10SM -RA FEW006 BKN031 OVC050 26/26 A2977 
    RMK AO2 RAB38 SLP082 P0000 T02560256=
METAR KHRO 081053Z AUTO 00000KT 10SM CLR 22/21 A3008 RMK AO2 SLP171 
    T02220206=
METAR KHSI 081053Z AUTO 34005KT 10SM CLR 16/14 A3020 RMK AO2 SLP217 
    T01560144=
METAR KHSV 081053Z 00000KT 8SM FEW250 23/22 A3007 RMK AO2 SLP174 
    T02330222=
METAR KHYR 081053Z AUTO 00000KT 10SM OVC050 17/16 A3007 RMK AO2 
    SLP177 T01670156=
METAR KIBM 081050Z AUTO 21003KT 10SM SCT011 BKN022 OVC075 13/12 
     A3033 RMK AO2 T01260116=
METAR KICR 081053Z AUTO 26004KT 10SM CLR 17/12 A3021 RMK AO2 SLP219 
    T01670122 TSNO=
METAR KJBR 081053Z AUTO 18004KT 10SM CLR 24/23 A3006 RMK AO2 SLP176 
    T02440228 $=
####018002978####
SAUS20 KNKA 081054
METAR KJYR 081050Z AUTO 35003KT 10SM CLR 15/15 A3018 RMK AO2=
METAR KLCG 081050Z AUTO 27003KT 10SM CLR 15/14 A3018 RMK AO2 
     T01520140=
METAR KLBX 081053Z AUTO 12009KT 10SM -RA FEW040 BKN070 26/24 A2989 
    RMK AO2 TSE08 SLP122 P0018 T02560239=
METAR KLCH 081053Z AUTO 06006KT 9SM BKN011 OVC024 25/23 A2997 RMK 
    AO2 SLP157 T02500233=
METAR KLFK 081053Z AUTO 09005KT 10SM CLR 24/23 A3000 RMK AO2 SLP153 
    T02440228=
METAR KLFT 081053Z 08003KT 10SM SCT004 25/23 A3000 RMK AO2 SLP157 
    T02500233=
METAR KLHM 081051Z AUTO 14006KT 10SM CLR 16/11 A2982 RMK AO1 
     T01630110=
METAR KLIT 081053Z 00000KT 7SM BKN150 BKN250 24/23 A3006 RMK AO2 
    SLP180 T02440228 $=
METAR KLLQ 081053Z AUTO 00000KT 7SM CLR 23/22 A3007 RMK AO2 SLP180 
    T02280222=
METAR KLMT 081053Z AUTO 35004KT 10SM FEW090 17/11 A3005 RMK AO2 
    SLP126 T01720111=
METAR KLSE 081053Z 35006KT 7SM FEW011 21/20 A3003 RMK AO2 SLP161 
    T02060200=
METAR KLVJ 081053Z AUTO 09008KT 9SM CLR 28/23 A2992 RMK AO2 SLP130 
    T02780233=
METAR KLVK 081053Z AUTO 30008KT 10SM OVC010 13/11 A2990 RMK AO2 
    SLP122 T01280111=
METAR KLVS 081053Z AUTO 05007KT 10SM SCT110 11/09 A3037 RMK AO2 
    SLP210 T01060089 TSNO=
METAR KLXN 081050Z AUTO 00000KT 10SM OVC080 17/16 A3024 RMK AO2 
     T01680160=
METAR KLZU 081050Z 00000KT 10SM SKC 21/18 A3005=
METAR KMAE 081053Z AUTO 29004KT 10SM CLR 16/11 A2982 RMK AO2 SLP095 
    T01610111=
METAR KMCB 081053Z AUTO 00000KT 8SM CLR 23/22 A3004 RMK AO2 SLP167 
    P0001 T02330222=
METAR KMCE 081053Z AUTO 32006KT 10SM CLR 17/09 A2982 RMK AO2 SLP096 
    T01670089=
METAR KMEM 081053Z 00000KT 10SM FEW150 SCT250 24/22 A3007 RMK AO2 
    SLP178 T02440222=
METAR KMFE 081053Z 33006KT 10SM OVC006 26/24 A2980 RMK AO2 SLP090 
    T02560244=
METAR KMIC 081053Z 00000KT 10SM CLR 17/16 A3008 RMK AO2 SLP182 
    T01720156=
METAR KMIW 081053Z AUTO 32005KT 7SM CLR 19/18 A3007 RMK AO2 SLP178 
    T01890183=
METAR KMKL 081053Z AUTO 00000KT 10SM CLR 22/21 A3008 RMK AO2 SLP182 
    T02170206=
METAR KMLE 081050Z AUTO 32004KT 10SM SCT028 SCT032 20/17 A3014 
     RMK AO2 T01960168=
METAR KMMH 081050Z AUTO 00000KT 10SM CLR 08/01 A3021 RMK AO1=
METAR KMMV 081053Z AUTO 27005KT 10SM CLR 14/11 A2989 RMK AO2 SLP120 
    T01390111=
METAR KMOD 081053Z AUTO 35005KT 10SM CLR 16/11 A2984 RMK AO2 SLP103 
    T01610106=
METAR KMRB 081053Z AUTO 00000KT 3SM HZ CLR 22/19 A3004 RMK AO2 
    SLP165 T02170189=
METAR KMSL 081053Z AUTO 00000KT 9SM SCT065 23/22 A3009 RMK AO2 
    SLP180 T02330217=
METAR KMSP 081053Z 31003KT 10SM FEW090 18/16 A3009 RMK AO2 SLP187 
    T01780161=
METAR KMSY 081053Z 00000KT 9SM FEW016 SCT250 26/23 A3001 RMK AO2 
    SLP165 T02610233=
METAR KMYV 081053Z AUTO 15005KT 10SM CLR 16/11 A2983 RMK AO2 SLP103 
    T01610111=
METAR KNEW 081053Z AUTO 11004KT 10SM CLR 27/25 A3002 RMK AO2 SLP158 
    T02670250 TSNO=
####018000081####
SPUS81 KWBC 081054
SPECI
KIRK 081051Z AUTO 32003KT 4SM BR CLR 19/19 A3007=
####018000091####
SPUS81 KWBC 081054
SPECI
KNEL 081051Z AUTO 00000KT 2SM BR BKN005 OVC100 24/22 A3003=
####018000090####
SPUS81 KWBC 081054
SPECI
KPIA 081051Z 20003KT 1 3/4SM BR SCT005 OVC010 23/22 A3003=
####018000219####
SAXN17 KAWN 081000 RRK
METAR MMAN 081043Z 28008KT 10SM SCT040 24/23 A2990 RMK 8/500=
METAR MMIO 081040Z 00000KT 8SM BKN040 18/15 A3010 RMK 8/500 HZY=
METAR MMMY 081043Z 32008KT 15SM SKC 24/22 A2986 RMK ISOL AC=
####018000532####
SARS18 KAWN 081100
METAR EETN 081050Z 32009KT CAVOK 24/18 Q1014 NOSIG=
METAR EETU 081050Z 31003KT 250V040 9999 FEW026TCU SCT033 26/19 Q1013=
METAR EFHK 081050Z VRB03KT 9999 BKN040 28/17 Q1014 NOSIG=
METAR EVLA 081050Z 31006KT 240V020 CAVOK 22/15 Q1018=
METAR EVRA 081050Z 32010KT 280V350 9999 SCT010 OVC023 19/15 Q1016 NOSIG=
METAR EYKA 081050Z 28008KT 220V320 9999 BKN027 OVC034 17/14 Q1016=
METAR EYPA 081050Z 32006KT CAVOK 21/16 Q1018 NOSIG=
METAR EYVI 081050Z 29011KT 250V320 2600 RA OVC005 15/14 Q1015 NOSIG=
####018001255####
SAXN17 KAWN 081100
METAR MGGT 081100Z 20003KT 9999 FEW015 BKN090 16/14 Q1022 A3018 NOSIG=
METAR MMAA 081046Z 00000KT 8SM SCT020TCU SCT090 BKN300 26/22 A2976
      RMK 8/232=
METAR MMDO 081048Z 03008KT 6SM SCT015 OVC020 18/17 A3012 RMK 8/8//
      RTS=
METAR MMMX 081049Z 00000KT 2SM -RA FEW008 OVC020 15/14 A3018 NOSIG
      RMK 60075 8/4//=
METAR MMPB 081048Z 09003KT 2SM RA VV004 14/14 A3021 RMK 6//// 8////
      RTS=
METAR MMQT 081045Z 06010KT 5SM BKN015 BKN120 OVC250 17/15 A3014 RMK
      8/532 LWR ST=
METAR MMRX 081047Z 32006KT 5SM BKN006 BKN008 26/25 A2981 RMK 8/700
      OCNL DROPS BR HZ RTS=
METAR MMTO 081045Z 00000KT 3SM HZ SCT015 OVC070 13/11 A3024 RMK 8/47/
      OCNL DROPS=
METAR MMVR 081045Z 00000KT 7SM -RA SCT012CB OVC080 25/25 A2980 RMK
      60055 8/36/ INTMT -RA VRB COND=
METAR MROC 081100Z 00000KT 9999 BR SCT005 SCT100 19/19 A3001 RMK VIS
      5000 NE S=
METAR NSTU 081050Z 09011KT 10SM SCT016 SCT045 28/26 A2990 RMK SLP125
      T02780262 403000260=
PAEH SA 1055 AWOS CLR BLO 120 10 48/-20/0000/999=
PATC SA 1055 AWOS CLR BLO 120 10 46/43/0209/015=
METAR PTYA 081050Z 10012KT 12SM SCT016CB SCT030 BKN130 OVC300 27/23
      A2987 RMK SHRAB30E38 CB VC NE-SE SLP117 T02700231=
####018001603####
SAZZ40 KAWN 081100
METAR BGBW 081050Z 27005KT 9999 FEW030 12/04 Q1008 RMK 1SC=
METAR BGGH 081050Z 24004KT 200V280 9999 OVC004 05/03 Q1010=
METAR BGJN 081050Z 32004KT 280V360 9999 VCFG FEW100 07/05 Q1009 RMK
      1AC=
METAR BGKK 081050Z 05009KT 9999 SCT120 07/04 Q1009=
METAR BGSF 081050Z 06008KT 9999 BKN070 13/02 Q1008=
METAR EFKU 081050Z AUTO 31009KT CAVOK 23/18 Q1015=
METAR EFOU 081050Z VRB02KT 9999 FEW025 SCT200 21/12 Q1015=
METAR KBLV 081055Z AUTO 25003KT 10SM FEW050 SCT170 24/24 A3004 RMK
      AO2 SLP170 T02430242=
METAR KLRF 081055Z AUTO 00000KT 10SM BKN170 23/22 A3006 RMK AO2 SLP177
      T02300224=
METAR KRDR 081055Z AUTO 24007KT 10SM CLR 14/13 A3005 RMK AO2 SLP184
      T01390128 $=
METAR LLBG 081050Z 28008KT CAVOK 31/17 Q1009 NOSIG=
METAR LLET 081050Z 03015KT CAVOK 39/12 Q1005=
METAR LLOV 081050Z 33005KT CAVOK 35/09 Q1010=
METAR LQTZ 081100Z VRB02KT 9999 FEW040 21/// Q1023=
METAR MGGT 081100Z 20003KT 9999 FEW015 BKN090 16/14 Q1022 A3018 NOSIG=
METAR MROC 081100Z 00000KT 9999 BR SCT005 SCT100 19/19 A3001 RMK VIS
      5000 NE S=
METAR NSTU 081050Z 09011KT 10SM SCT016 SCT045 28/26 A2990 RMK SLP125
      T02780262 403000260=
METAR OAFZ 081050Z 10004KT 9999 SKC 39/M01 Q1014 BLU/=
METAR OAKB 081050Z VRB02KT 9999 SCT070 34/08 Q1014 NOSIG RMK BLU BLU=
METAR OAMS 081050Z 01005KT 9999 SKC 42/M00 Q1006 BLU/BLU/=
METAR OKBK 081100Z 34020KT 7000 -BLDU SKC 48/M09 Q0999 NOSIG=
METAR OSAP 081100Z 29017KT CAVOK 33/17 Q1006=
METAR OSDI 081100Z 20016KT CAVOK 38/01 Q1009=
METAR OSLK 081100Z 23012KT 9999 SCT030 28/20 Q1009=
####018000522####
SAXX70 KAWN 081100 RRC
METAR KQEL 081050Z AUTO 03002KT 6SM BR OVC050 24/21 A2972 RMK A02=
METAR KQEW 081050Z AUTO 16001KT 7SM CLR 26/21 A2982 RMK A02=
METAR KQFB 081050Z AUTO 08001KT 4SM BR FEW028 24/21 A2992 RMK A02=
METAR KQFS 081055Z AUTO 18003KT 6000 -SHRA FEW020 BKN046 24/21 A2980
      RMK AO2 SLP089 P0000 T02370209 $=
METAR KQTX 081055Z 30006G16KT 9999 CLR 43/M04 A2966 RMK SLP016=
METAR KQTZ 081055Z 31010G18KT 9000 HZ CLR 45/04 A2962 RMK SLP024 QNH1002MB
      ALSTG/SLP ESTMD WND DATA ESTMD=
####018000070####
SALY31 HLLS 081100
METAR HLLS 081050Z VRBO8KT  CAVOK 36/10 Q1O17=
####018001744####
SAEW KAWN 081100 RRA
METAR EDDB 081050Z VRB02KT CAVOK 26/07 Q1021 NOSIG=
METAR EDDC 081050Z VRB03KT CAVOK 25/09 Q1022 NOSIG=
METAR EDDE 081050Z 11004KT 010V140 CAVOK 27/09 Q1022 NOSIG=
METAR EDDF 081050Z 16005KT 080V210 CAVOK 28/10 Q1021 NOSIG=
METAR EDDG 081050Z 26004KT 170V280 CAVOK 29/09 Q1019 NOSIG=
METAR EDDH 081050Z 17006KT 150V230 CAVOK 28/12 Q1019 NOSIG=
METAR EDDK 081050Z 21005KT 180V260 CAVOK 29/08 Q1019 NOSIG=
METAR EDDL 081050Z 27008KT CAVOK 30/09 Q1019 NOSIG=
METAR EDDM 081050Z 08008KT CAVOK 23/08 Q1023 NOSIG=
METAR EDDN 081050Z 15005KT 120V180 CAVOK 26/08 Q1022 NOSIG=
METAR EDDP 081050Z 20004KT 150V210 CAVOK 26/09 Q1021 NOSIG=
METAR EDDR 081050Z VRB01KT CAVOK 28/12 Q1021 NOSIG=
METAR EDDS 081050Z VRB03KT CAVOK 26/08 Q1022 NOSIG=
METAR EDDT 081050Z 16004KT 070V200 CAVOK 26/06 Q1021 NOSIG=
METAR EDDV 081050Z 27006KT 160V280 CAVOK 29/10 Q1020 NOSIG=
METAR EDDW 081050Z 20007KT CAVOK 29/08 Q1019 NOSIG=
METAR EKAH 081050Z AUTO 20004KT 150V250 9999NDV -SHRA BKN053/// 21/15
      Q1019=
METAR EKBI 081050Z 24008KT 200V260 9999 -SHRA FEW023 BKN080 22/15 Q1019=
METAR EKEB 081050Z AUTO 24009KT 9999NDV BKN089/// 20/15 Q1018=
METAR EKKA 081050Z 19005KT 160V220 3500 SHRA SCT018CB BKN030 17/15
      Q1018 TEMPO 6000 -SHRA=
METAR EKOD 081050Z 19011KT CAVOK 25/11 Q1019=
METAR EKRK 081050Z AUTO 19011KT 9999NDV FEW050/// BKN070/// 25/11 Q1020=
METAR EKRN 081050Z AUTO 22004KT 180V250 9999NDV NCD 20/16 Q1022=
METAR EKSN 081050Z 19011KT 9999 SCT023 BKN047 21/15 Q1017=
METAR EKSP 081050Z 22014KT CAVOK 26/09 Q1018 NOSIG RMK FEW097 SCT120
      BKN250=
METAR EKVD 081050Z 23016KT CAVOK 26/12 Q1018=
METAR EKVJ 081050Z 20008KT 5000 RA FEW010 BKN018 BKN020 20/17 Q1018=
####018001723####
SAEU KAWN 081100 RRA
METAR EDDB 081050Z VRB02KT CAVOK 26/07 Q1021 NOSIG=
METAR EDDC 081050Z VRB03KT CAVOK 25/09 Q1022 NOSIG=
METAR EDDE 081050Z 11004KT 010V140 CAVOK 27/09 Q1022 NOSIG=
METAR EDDF 081050Z 16005KT 080V210 CAVOK 28/10 Q1021 NOSIG=
METAR EDDG 081050Z 26004KT 170V280 CAVOK 29/09 Q1019 NOSIG=
METAR EDDH 081050Z 17006KT 150V230 CAVOK 28/12 Q1019 NOSIG=
METAR EDDK 081050Z 21005KT 180V260 CAVOK 29/08 Q1019 NOSIG=
METAR EDDL 081050Z 27008KT CAVOK 30/09 Q1019 NOSIG=
METAR EDDM 081050Z 08008KT CAVOK 23/08 Q1023 NOSIG=
METAR EDDN 081050Z 15005KT 120V180 CAVOK 26/08 Q1022 NOSIG=
METAR EDDP 081050Z 20004KT 150V210 CAVOK 26/09 Q1021 NOSIG=
METAR EDDR 081050Z VRB01KT CAVOK 28/12 Q1021 NOSIG=
METAR EDDS 081050Z VRB03KT CAVOK 26/08 Q1022 NOSIG=
METAR EDDT 081050Z 16004KT 070V200 CAVOK 26/06 Q1021 NOSIG=
METAR EDDV 081050Z 27006KT 160V280 CAVOK 29/10 Q1020 NOSIG=
METAR EDDW 081050Z 20007KT CAVOK 29/08 Q1019 NOSIG=
METAR EKAH 081050Z AUTO 20004KT 150V250 9999NDV -SHRA BKN053/// 21/15
      Q1019=
METAR EKBI 081050Z 24008KT 200V260 9999 -SHRA FEW023 BKN080 22/15 Q1019=
METAR EKEB 081050Z AUTO 24009KT 9999NDV BKN089/// 20/15 Q1018=
METAR EKKA 081050Z 19005KT 160V220 3500 SHRA SCT018CB BKN030 17/15
      Q1018 TEMPO 6000 -SHRA=
METAR EKOD 081050Z 19011KT CAVOK 25/11 Q1019=
METAR EKRN 081050Z AUTO 22004KT 180V250 9999NDV NCD 20/16 Q1022=
METAR EKSN 081050Z 19011KT 9999 SCT023 BKN047 21/15 Q1017=
METAR EKSP 081050Z 22014KT CAVOK 26/09 Q1018 NOSIG RMK FEW097 SCT120
      BKN250=
METAR EKVD 081050Z 23016KT CAVOK 26/12 Q1018=
METAR EKVJ 081050Z 20008KT 5000 RA FEW010 BKN018 BKN020 20/17 Q1018=
METAR LXGB 081050Z 09014KT CAVOK 26/16 Q1016 NOSIG=
####018000200####
SAAK41 KNKA 081054
METAR PATA 081052Z AUTO 00000KT 10SM CLR 12/06 A3005 RMK AO2 SLP176 
    T01220061 TSNO=
METAR PHJR 081053Z 00000KT 10SM FEW045 22/18 A3004 RMK AO2 SLP179 
    T02220178=
####018000111####
SAUS46 KLOX 081054
MTRLAX
METAR KLAX 081053Z 24003KT 10SM OVC012 16/12 A2990 RMK AO2 SLP123 
T01610122
####018000118####
SAUS45 KABQ 081054
MTRCQC
METAR KCQC 081053Z AUTO 09008KT 10SM CLR 11/08 A3036 RMK AO2 SLP221 
T01060083 TSNO
####018000113####
SAUS45 KRIW 081054
MTRLND
METAR KLND 081053Z AUTO 26007KT 10SM CLR 10/03 A3033 RMK AO2 SLP226 
T01000028
####018000079####
SADL41 EGRR 081050
METAR ETUO 081050Z 19004KT CAVOK 30/10 Q1019 BLU NOSIG=
####018000115####
SAUS44 KMAF 081054
MTR6R6
METAR K6R6 081053Z AUTO 03005KT 23/21 A3001 RMK AO2 SLP127 T02280211 
PWINO TSNO
####018000128####
SAUS45 KABQ 081054
MTRRTN
METAR KRTN 081053Z AUTO 06005KT 10SM BKN060 BKN110 14/11 A3036 RMK 
AO2 SLP205 T01390106 TSNO
####018000118####
SAUS45 KGJT 081054
MTRRIL
METAR KRIL 081053Z AUTO 00000KT 10SM CLR 12/07 A3025 RMK AO2 SLP177 
T01220072 TSNO
####018000108####
SAUS43 KFGF 081054
MTRFAR
METAR KFAR 081053Z 20003KT 10SM CLR 14/12 A3008 RMK AO2 SLP183 
T01440117
####018000118####
SPCN46 CWAO 081054
SPECI CYQA 081054Z AUTO 00000KT 5SM BR SCT043 21/21 A3003 RMK SLP170
 DENSITY ALT 1700FT=

####018000118####
SAUS46 KPQR 081054
MTRBNO
METAR KBNO 081053Z AUTO 26007KT 10SM CLR 09/01 A3011 RMK AO2 SLP165 
T00940006 TSNO
####018000115####
SAUS44 KSHV 081054
MTRDNK
METAR KDNK 081053Z AUTO 08004KT 7SM BKN014 24/22 A3002 RMK AO2 
SLP160 T02390217
####018000117####
SAUS42 KTAE 081054
MTRCTY
METAR KCTY 081053Z AUTO 00000KT 19/19 A3001 RMK AO2 SLP160 T01940189 
PWINO TSNO $
####018000111####
SAUS44 KHGX 081054
MTRSGR
METAR KSGR 081053Z 05006KT 10SM FEW055 26/24 A2990 RMK AO2 SLP134 
T02610239
####018000118####
SAUS46 KSEW 081054
MTRUIL
METAR KUIL 081053Z AUTO 09005KT 10SM CLR 16/10 A2994 RMK AO2 SLP135 
T01610100 TSNO
####018000108####
SAUS44 KMRX 081054
MTRCHA
METAR KCHA 081053Z 00000KT 10SM CLR 22/19 A3007 RMK AO2 SLP174 
T02170189
####018000115####
SAUS44 KLCH 081054
MTRP92
METAR KP92 081053Z AUTO 00000KT 26/25 A2998 RMK AO2 SLP151 T02560250 
PWINO TSNO
####018000113####
SAUS42 KTAE 081054
MTRTLH
METAR KTLH 081053Z 00000KT 10SM BCFG CLR 22/21 A3002 RMK AO2 SLP165 
T02170206
####018000115####
SAUS42 KTAE 081054
MTR40J
METAR K40J 081053Z AUTO 00000KT 20/19 A3000 RMK AO2 SLP159 T02000194 
PWINO TSNO
####018000129####
SAUS45 KABQ 081054
MTRTCS
METAR KTCS 081053Z AUTO 36008KT 10SM BKN120 18/14 A3020 RMK AO2 
RAE0954 SLP157 T01830139 TSNO
####018003698####
SAUS99 KWBC 081055
METAR
KTAN 081052Z AUTO 16004KT 10SM OVC008 22/21 A3008 RMK AO2 CIG
     005V010 SLP184 T02170206=
KTEX 081051Z AUTO 09003KT 10SM BKN110 12/04 A3046 RMK AO2=
KTMK 081053Z AUTO 14003KT 7SM OVC006 12/12 A2996 RMK AO2=
KTOL 081052Z 25003KT 7SM CLR 23/18 A3005 RMK AO2 SLP169
     T02330183=
KTQH 081055Z AUTO 00000KT 10SM BKN022 BKN033 23/23 A3004 RMK
     AO2=
KTRM 081052Z AUTO 32004KT 10SM CLR 24/12 A2968 RMK AO2 SLP055
     T02390122=
KTXK 081053Z 00000KT 1SM BR VV001 23/23 A3005 RMK AO2 SLP171
     T02330233=
KUDG 081055Z 30005KT 10SM CLR 24/18 A2997 RMK AO1=
KUGN 081052Z AUTO 18006KT 4SM -RA BR FEW050 BKN060 OVC080 23/21
     A3001 RMK AO2 RAB23 SLP151 P0001 T02280211=
KVTN 081052Z AUTO 23006KT 10SM SCT120 15/14 A3024 RMK AO2 SLP229
     T01500139=
KWDG 081050Z AUTO 00000KT 10SM SCT095 21/21 A3008 RMK AO2 LTG DSNT
     E=
KWWR 081049Z AUTO 35005KT 10SM DZ SCT041 SCT050 BKN110 22/21 A3015
     RMK AO2 T02170207=
KMKE 081052Z 27004KT 6SM -RA BR FEW007 SCT080 OVC110 23/22 A3001
     RMK AO2 RAE15B39 SLP157 P0000 T02280217=
KMKO 081053Z AUTO 19004KT 10SM BKN023 OVC028 23/23 A3004 RMK AO2
     LTG DSNT N AND NW TSE0955B35E50 SLP163 T02330228=
KMLI 081052Z 23005KT 10SM OVC007 23/22 A3003 RMK AO2 SLP166
     T02280217 $=
KMWH 081052Z AUTO 36005KT 10SM CLR 15/07 A3001 RMK AO2 SLP156
     T01500072=
KMWL 081053Z AUTO 13003KT 10SM FEW019 23/22 A3000 RMK AO2 SLP146
     T02280217=
KOAJ 081055Z AUTO 00000KT 7SM CLR 23/21 A2994 RMK AO1=
KOCF 081055Z AUTO 00000KT 7SM OVC002 20/20 A3001 RMK AO1=
KOJA 081050Z AUTO 35005KT 10SM SCT007 OVC011 22/22 A3008 RMK
     AO2=
KOKB 081052Z AUTO 30003KT 8SM OVC018 17/14 A2989 RMK AO2 SLP120
     T01720139=
KOKC 081052Z 01005KT 10SM FEW021 BKN080 OVC130 23/22 A3005 RMK AO2
     SLP161 T02330222=
KOMA 081052Z 34005KT 10SM FEW029 SCT250 19/18 A3014 RMK AO2 SLP199
     T01940183=
KONP 081050Z AUTO 19007KT 10SM OVC004 11/09 A2999 RMK AO1=
KORE 081052Z AUTO 17005KT 7SM SCT013 BKN080 BKN100 24/22 A3008 RMK
     AO2 SLP181 T02390217=
KORS 081050Z AUTO 00000KT 10SM CLR 15/12 A2995 RMK AO2=
KOUN 081052Z AUTO 00000KT 10SM SCT011 BKN020 BKN026 25/23 A3005
     RMK AO2 LTG DSNT NE=
KPIA 081052Z 20003KT 1 3/4SM BR SCT005 OVC010 23/22 A3003 RMK AO2
     CIG 008V013 SLP166 T02280217=
KPLU 081050Z AUTO 00000KT 10SM CLR 13/13 A2994 RMK AO2=
KPPF 081052Z AUTO 00000KT 10SM FEW100 22/21 A3005 RMK AO2 SLP166
     T02170206=
KPTS 081050Z AUTO 13006KT 10SM VCTS SCT028 SCT037 SCT044 22/22
     A3005 RMK AO2 LTG DSNT SE THRU SW T02200221=
KPVJ 081047Z AUTO 00000KT 7SM CLR 24/23 A3003 RMK AO2=
KPWA 081053Z 35006KT 8SM OVC004 23/21 A3005 RMK AO2 SLP162
     T02280211=
KPWK 081052Z 16004KT 3SM BR FEW049 BKN055 OVC095 23/22 A3003 RMK
     AO2 RAB32E42 SLP163 P0000 T02330222=
KPYM 081052Z AUTO 15006KT 10SM BKN008 OVC080 24/21 A3010 RMK AO2
     SLP191 T02390206=
KRAP 081052Z AUTO 30008KT 10SM CLR 11/08 A3025 RMK AO2 SLP235
     T01060083=
KRKR 081052Z AUTO 00000KT 10SM BKN029 BKN034 27/24 A3003 RMK AO2
     LTG DSNT NW=
KSGF 081052Z 00000KT 8SM FEW055 23/22 A3006 RMK AO2 LTG DSNT NW
     SLP165 T02280222=
KSNL 081052Z AUTO 36005KT 7SM BKN005 OVC010 24/23 A3006 RMK AO2
     LTG DSNT NE=
KSOP 081055Z AUTO 00000KT 10SM CLR 23/18 A2997 RMK AO1=
KSPI 081052Z 00000KT 7SM -RA FEW008 SCT025 BKN045 23/23 A3004 RMK
     AO2 RAB34 SLP167 P0010 T02330228=
KSPS 081052Z 10004KT 10SM CLR 23/22 A3003 RMK AO2 SLP154
     T02280217=
KSRE 081050Z AUTO 00000KT 5SM BR CLR 24/24 A3004 RMK AO2 LTG DSNT
     NE=
KSUX 081052Z 31004KT 6SM BR CLR 16/15 A3016 RMK AO2 SLP208
     T01610150=
####018003705####
SAUS99 KWBC 081055 RRB
METAR
KASX 081053Z AUTO 26003KT 10SM SCT065 16/16 A3004 RMK AO2 SLP172
     T01560156=
KATY 081053Z AUTO 24006KT 10SM CLR 15/13 A3015 RMK AO2 SLP205
     T01500133=
KAUS 081053Z 06005KT 10SM SCT014 26/24 A2995 RMK AO2 SLP127
     T02560239=
KAWM 081053Z AUTO 00000KT 10SM CLR 23/22 A3006 RMK AO2 SLP173
     T02330222=
KAXN 081053Z AUTO 24006KT 10SM CLR 15/14 A3012 RMK AO2 SLP199
     P0001 T01500139=
KAZO 081053Z 00000KT 2 1/2SM BR CLR 22/21 A3005 RMK AO2 SLP169
     T02220206 $=
KBCT 081047Z AUTO 08005KT 10SM -RA FEW021 SCT048 BKN060 28/24
     A2995=
KBDE 081053Z AUTO 00000KT 10SM CLR 14/12 A3001 RMK AO2 SLP161
     T01390117=
KBEH 081053Z AUTO 00000KT 4SM BR CLR 23/22 A3004 RMK AO2 SLP165
     T02280222 $=
KBFD 081053Z AUTO 00000KT 4SM BR CLR 18/16 A3016 RMK AO2 SLP193
     T01780161=
KBFM 081053Z 00000KT 7SM CLR 23/22 A3004 RMK AO2 SLP173
     T02280217=
KBHM 081053Z 00000KT 7SM CLR 24/22 A3008 RMK AO2 SLP175
     T02390217=
KBIE 081050Z AUTO 35003KT 10SM SCT017 18/17 A3015 RMK AO2
     T01810170=
KBIV 081053Z AUTO 00000KT 7SM CLR 24/22 A3004 RMK AO2 SLP166
     T02390217=
KBMQ 081053Z AUTO 09003KT 10SM SCT011 BKN023 23/22 A3001 RMK AO2
     SLP142 T02330217 $=
KBNA 081053Z 00000KT 10SM FEW080 SCT200 24/22 A3008 RMK AO2 SLP178
     T02440217=
KBPK 081053Z AUTO 00000KT 8SM OVC070 22/22 A3006 RMK AO2 SLP168
     T02220217=
KBPT 081053Z 08008KT 10SM FEW009 26/24 A2995 RMK AO2 RAB35E46
     SLP142 P0000 T02560244 $=
KBRD 081053Z AUTO 22005KT 10SM CLR 16/13 A3008 RMK AO2 SLP184
     T01560128=
KBRO 081053Z 34003KT 10SM FEW016 26/25 A2977 RMK AO2 RAE0959
     SLP079 P0000 T02610250=
KBTA 081050Z AUTO 35004KT 10SM CLR 19/17 A3014 RMK AO2
     T01850170=
KBTL 081053Z 00000KT 7SM CLR 23/21 A3006 RMK AO2 SLP172
     T02280206=
KBVN 081050Z AUTO 00000KT 10SM OVC090 17/15 A3020 RMK AO2
     T01650152=
KOAK 081053Z 29008KT 10SM OVC007 15/11 A2993 RMK AO2 SLP133
     T01500111=
KODX 081053Z AUTO 34003KT 10SM OVC085 16/16 A3021 RMK AO2 SLP225
     T01610156=
KOGA 081050Z AUTO 00000KT 7SM OVC095 15/14 A3027 RMK AO2
     T01500140=
KONL 081050Z AUTO 28004KT 10SM SCT110 17/15 A3022 RMK AO2
     T01660150=
KOSH 081053Z 00000KT 9SM FEW014 22/20 A2999 RMK AO2 SLP143
     T02170200=
KOVE 081053Z AUTO 16007KT 10SM CLR 19/12 A2984 RMK AO2 SLP105
     T01890122 TSNO=
KOXB 081053Z AUTO 07005KT 9SM FEW085 24/24 A3002 RMK AO2 SLP165
     T02440239 $=
KPAH 081053Z AUTO 00000KT 10SM CLR 24/22 A3005 RMK AO2 SLP170
     T02390217=
KPBF 081053Z AUTO 00000KT 7SM CLR 24/22 A3006 RMK AO2 SLP177
     T02390222=
KPDK 081053Z 00000KT 10SM CLR 22/19 A3005 RMK AO2 SLP155
     T02170189=
KPIL 081053Z AUTO 01005KT 10SM FEW023 28/26 A2977 RMK AO2 RAE11
     SLP079 P0007 T02780256 $=
KPIR 081053Z AUTO 23006KT 10SM CLR 14/12 A3017 RMK AO2 SLP207
     T01390122=
KPKD 081053Z AUTO 00000KT 7SM CLR 13/13 A3008 RMK AO2 SLP186
     T01330128=
KPNA 081050Z AUTO 29005KT 10SM CLR 04/01 A3039 RMK AO2
     T00400010=
KPQL 081053Z AUTO 00000KT 1/2SM FG VV001 23/23 A3003 RMK AO2
     SLP169 T02330233=
KPRB 081053Z AUTO 27003KT 10SM OVC007 12/11 A2990 RMK AO2 SLP121
     T01220106=
KPSX 081053Z AUTO 10010KT 10SM CLR 27/25 A2986 RMK AO2 SLP111
     T02720250=
KPTT 081050Z AUTO 02010KT 5SM BR OVC004 20/20 A3015 RMK AO2=
KRAC 081053Z AUTO 18005KT 3SM BR SCT002 OVC095 23/22 A3002 RMK AO2
     RAE0955B41E51 SLP161 P0000 T02280217=
KRBD 081053Z 11005KT 10SM BKN009 OVC016 25/23 A3001 RMK AO2 CIG
     006V011 SLP151 T02500233=
KRDD 081053Z AUTO 00000KT 10SM CLR 22/15 A2982 RMK AO2 SLP091
     T02220150=
####018003704####
SAUS99 KWBC 081055 RRA
METAR
KSVC 081050Z AUTO 06008KT 10SM OVC100 18/14 A3022 RMK AO2=
KBWG 081053Z AUTO 00000KT 6SM BR CLR 23/21 A3007 RMK AO2 SLP177
     T02280211=
KCCR 081053Z AUTO 25004KT 10SM BKN013 13/10 A2990 RMK AO2 SLP111
     T01280100=
KCDS 081053Z AUTO 00000KT 10SM BKN034 23/21 A3010 RMK AO2 SLP167
     T02280211=
KCHO 081053Z 00000KT 4SM HZ CLR 23/21 A3002 RMK AO2 SLP156
     T02330206=
KCLL 081053Z AUTO 07007KT 10SM CLR 25/23 A2995 RMK AO2 SLP138
     T02500228=
KCMI 081053Z 18003KT 5SM BR CLR 23/22 A3004 RMK AO2 SLP165
     T02280217=
KCOT 081053Z AUTO 03006KT 10SM SCT017 BKN044 OVC060 25/23 A2990
     RMK AO2 RAE03B22E32 SLP115 P0000 T02500228=
KCSV 081053Z AUTO 00000KT 6SM HZ CLR 21/17 A3015 RMK AO2 SLP185
     T02060167=
KCXO 081053Z VRB03KT 7SM FEW005 24/23 A2995 RMK AO2 SLP138
     T02390233=
KDAN 081053Z AUTO 00000KT 4SM HZ FEW110 25/19 A3002 RMK AO2 SLP152
     T02500189=
KDBQ 081053Z 00000KT 7SM OVC018 21/20 A3006 RMK AO2 SLP173
     T02060200=
KDCU 081053Z AUTO 00000KT 9SM CLR 22/21 A3007 RMK AO2 SLP176
     T02220206=
KDMN 081053Z AUTO 03013KT 10SM CLR 21/13 A3013 RMK AO2 RAB0958E16
     SLP116 P0000 T02110133=
KDNL 081053Z AUTO 30007KT 10SM CLR 27/18 A3001 RMK AO2 SLP157
     T02720178=
KDRT 081053Z AUTO 00000KT 10SM SCT065 24/22 A2994 RMK AO2 SLP122
     T02440222=
KDVO 081050Z AUTO 00000KT 10SM BKN014 12/11 A2992 RMK AO2=
KDWH 081053Z 06006KT 7SM BKN005 24/24 A2994 RMK AO2 SLP135
     T02440239=
KEET 081053Z AUTO 00000KT 5SM BR CLR 23/22 A3006 RMK AO2 SLP169
     T02330217=
KENW 081053Z AUTO VRB03KT 6SM BR FEW031 OVC080 22/22 A3001 RMK AO2
     RAB14E51 SLP160 P0002 T02220217 $=
KEQY 081053Z AUTO 34003KT 10SM CLR 25/17 A3000 RMK AO2 SLP154
     T02500172=
KESF 081053Z AUTO 00000KT 5SM BR SCT015 22/22 A3003 RMK AO2 SLP166
     T02220217=
KFAT 081053Z 33004KT 10SM CLR 21/08 A2982 RMK AO2 SLP093
     T02060083=
KFAY 081053Z AUTO 35006KT 8SM CLR 26/18 A2994 RMK AO2 SLP132
     T02560183=
KFCM 081053Z AUTO 30003KT 10SM CLR 18/16 A3009 RMK AO2 SLP185
     T01780156=
KFFC 081053Z AUTO 00000KT 6SM BR CLR 20/18 A3005 RMK AO2 SLP168
     T02000183=
KFLD 081053Z AUTO 00000KT 6SM BR CLR 21/20 A3001 RMK AO2 SLP159
     T02110200=
KFMN 081053Z AUTO 07009KT 10SM CLR 19/06 A3021 RMK AO2 SLP159
     T01890056=
KFSM 081053Z 00000KT 10SM BKN032 24/22 A3003 RMK AO2 SLP164
     T02440222=
KFTY 081053Z 00000KT 7SM CLR 20/18 A3005 RMK AO2 SLP163
     T02000183=
KFYV 081053Z 00000KT 10SM OVC027 22/21 A3007 RMK AO2 SLP169
     T02170211=
KGEG 081053Z 07004KT 10SM CLR 17/08 A3007 RMK AO2 SLP165
     T01720078=
KGFK 081053Z 22005KT 10SM FEW080 14/12 A3004 RMK AO2 SLP172
     T01440122=
KGLH 081053Z AUTO 00000KT 7SM CLR 22/22 A3005 RMK AO2 SLP182
     T02220222=
KPMV 081050Z AUTO 00000KT 7SM CLR 19/18 A3014 RMK AO2
     T01900182=
KABR 081053Z AUTO 23003KT 6SM BR CLR 14/13 A3013 RMK AO2 SLP199
     T01390128=
KACV 081053Z AUTO 00000KT 4SM BR OVC001 10/09 A2996 RMK AO2 SLP152
     T01000094=
KAGS 081053Z 00000KT 10SM CLR 22/20 A2999 RMK AO2 SLP154
     T02170200=
KALI 081053Z AUTO 04007KT 10SM -RA SCT006 SCT029 25/24 A2983 RMK
     AO2 RAE21B50 SLP099 P0000 T02500244=
KAMW 081053Z AUTO 34007KT 5SM BR FEW090 19/18 A3010 RMK AO2 SLP185
     T01940183=
KANB 081053Z AUTO 00000KT 8SM CLR 21/19 A3005 RMK AO2 SLP165
     T02110194=
KAOO 081053Z AUTO 00000KT 2 1/2SM HZ CLR 20/17 A3011 RMK AO2
     SLP183 T02000172=
KARA 081053Z AUTO 09003KT 6SM BR CLR 24/24 A3000 RMK AO2 SLP157
     T02440239=
KASD 081053Z AUTO 00000KT 10SM CLR 24/23 A3001 RMK AO2 SLP163
     T02390228=
####018001504####
SAUS99 KWBC 081055 RRE
METAR
KHJO 081053Z AUTO 31007KT 10SM CLR 19/12 A2982 RMK AO2 SLP096
     T01890122=
KHKA 081053Z AUTO 19003KT 5SM BR CLR 24/22 A3007 RMK AO2 SLP178
     T02440222=
KHKS 081053Z AUTO 00000KT 9SM CLR 24/23 A3006 RMK AO2 SLP170
     T02390228=
KHKY 081053Z 32003KT 10SM CLR 23/17 A3005 RMK AO2 RAB0959E34
     SLP151 T02280167 PNO $=
KHLG 081053Z 00000KT 2 1/2SM BR CLR 21/19 A3010 RMK AO2 SLP185
     T02110194=
KHOT 081053Z AUTO 00000KT 10SM OVC008 24/23 A3007 RMK AO2 SLP176
     T02440233=
KHOU 081053Z 09005KT 10SM FEW029 SCT042 BKN130 28/24 A2991 RMK AO2
     SLP132 T02780239=
KHRL 081052Z 35009KT 10SM -RA FEW006 BKN031 OVC050 26/26 A2977 RMK
     AO2 RAB38 SLP082 P0000 T02560256=
KHRO 081053Z AUTO 00000KT 10SM CLR 22/21 A3008 RMK AO2 SLP171
     T02220206=
KHSI 081053Z AUTO 34005KT 10SM CLR 16/14 A3020 RMK AO2 SLP217
     T01560144=
KHSV 081053Z 00000KT 8SM FEW250 23/22 A3007 RMK AO2 SLP174
     T02330222=
KHYR 081053Z AUTO 00000KT 10SM OVC050 17/16 A3007 RMK AO2 SLP177
     T01670156=
KIBM 081050Z AUTO 21003KT 10SM SCT011 BKN022 OVC075 13/12 A3033
     RMK AO2 T01260116=
KICR 081053Z AUTO 26004KT 10SM CLR 17/12 A3021 RMK AO2 SLP219
     T01670122 TSNO=
KJBR 081053Z AUTO 18004KT 10SM CLR 24/23 A3006 RMK AO2 SLP176
     T02440228 $=
PATA 081052Z AUTO 00000KT 10SM CLR 12/06 A3005 RMK AO2 SLP176
     T01220061 TSNO=
PHJR 081053Z 00000KT 10SM FEW045 22/18 A3004 RMK AO2 SLP179
     T02220178=
####018003678####
SAUS99 KWBC 081055 RRC
METAR
KRKP 081053Z AUTO 09006KT 10SM FEW028 SCT050 BKN090 26/25 A2983
     RMK AO2 LTG DSNT W AND NW RAE45 SLP102 P0005 T02610250=
KRNT 081053Z AUTO 00000KT 10SM CLR 16/14 A2994 RMK AO2 SLP144
     T01610139=
KRUE 081053Z AUTO 00000KT 10SM CLR 24/23 A3006 RMK AO2 SLP170
     T02390228=
KRWF 081053Z AUTO 30006KT 10SM CLR 15/14 A3012 RMK AO2 SLP197
     T01500139=
KRWI 081053Z AUTO 03004KT 4SM HZ CLR 24/21 A2996 RMK AO2 SLP145
     T02440206=
KSAC 081053Z 18006KT 10SM CLR 14/10 A2984 RMK AO2 SLP103
     T01390100=
KSAN 081051Z 31005KT 10SM SCT014 OVC017 17/13 A2991 RMK AO2 SLP126
     T01670133=
KSAT 081053Z 05005KT 7SM BKN011 OVC050 25/23 A2994 RMK AO2 RAE10
     SLP120 P0000 T02500233=
KSBM 081053Z AUTO 00000KT 8SM FEW070 22/21 A3000 RMK AO2 RAB19E45
     SLP155 P0001 T02170211 $=
KSDL 081053Z 27004KT 10SM CLR 31/04 A2980 RMK AO2 SLP060
     T03060039=
KSIY 081053Z AUTO 07004KT 10SM CLR 18/08 A2996 RMK AO2 SLP127
     T01780078 $=
KJYR 081050Z AUTO 35003KT 10SM CLR 15/15 A3018 RMK AO2=
KLCG 081050Z AUTO 27003KT 10SM CLR 15/14 A3018 RMK AO2
     T01520140=
KLBX 081053Z AUTO 12009KT 10SM -RA FEW040 BKN070 26/24 A2989 RMK
     AO2 TSE08 SLP122 P0018 T02560239=
KLCH 081053Z AUTO 06006KT 9SM BKN011 OVC024 25/23 A2997 RMK AO2
     SLP157 T02500233=
KLFK 081053Z AUTO 09005KT 10SM CLR 24/23 A3000 RMK AO2 SLP153
     T02440228=
KLFT 081053Z 08003KT 10SM SCT004 25/23 A3000 RMK AO2 SLP157
     T02500233=
KLHM 081051Z AUTO 14006KT 10SM CLR 16/11 A2982 RMK AO1
     T01630110=
KLIT 081053Z 00000KT 7SM BKN150 BKN250 24/23 A3006 RMK AO2 SLP180
     T02440228 $=
KLLQ 081053Z AUTO 00000KT 7SM CLR 23/22 A3007 RMK AO2 SLP180
     T02280222=
KLMT 081053Z AUTO 35004KT 10SM FEW090 17/11 A3005 RMK AO2 SLP126
     T01720111=
KLSE 081053Z 35006KT 7SM FEW011 21/20 A3003 RMK AO2 SLP161
     T02060200=
KLVJ 081053Z AUTO 09008KT 9SM CLR 28/23 A2992 RMK AO2 SLP130
     T02780233=
KLVK 081053Z AUTO 30008KT 10SM OVC010 13/11 A2990 RMK AO2 SLP122
     T01280111=
KLVS 081053Z AUTO 05007KT 10SM SCT110 11/09 A3037 RMK AO2 SLP210
     T01060089 TSNO=
KLXN 081050Z AUTO 00000KT 10SM OVC080 17/16 A3024 RMK AO2
     T01680160=
KLZU 081050Z 00000KT 10SM SKC 21/18 A3005=
KMAE 081053Z AUTO 29004KT 10SM CLR 16/11 A2982 RMK AO2 SLP095
     T01610111=
KMCB 081053Z AUTO 00000KT 8SM CLR 23/22 A3004 RMK AO2 SLP167 P0001
     T02330222=
KMCE 081053Z AUTO 32006KT 10SM CLR 17/09 A2982 RMK AO2 SLP096
     T01670089=
KMEM 081053Z 00000KT 10SM FEW150 SCT250 24/22 A3007 RMK AO2 SLP178
     T02440222=
KMFE 081053Z 33006KT 10SM OVC006 26/24 A2980 RMK AO2 SLP090
     T02560244=
KMIC 081053Z 00000KT 10SM CLR 17/16 A3008 RMK AO2 SLP182
     T01720156=
KMIW 081053Z AUTO 32005KT 7SM CLR 19/18 A3007 RMK AO2 SLP178
     T01890183=
KMKL 081053Z AUTO 00000KT 10SM CLR 22/21 A3008 RMK AO2 SLP182
     T02170206=
KMLE 081050Z AUTO 32004KT 10SM SCT028 SCT032 20/17 A3014 RMK AO2
     T01960168=
KMMH 081050Z AUTO 00000KT 10SM CLR 08/01 A3021 RMK AO1=
KMMV 081053Z AUTO 27005KT 10SM CLR 14/11 A2989 RMK AO2 SLP120
     T01390111=
KMOD 081053Z AUTO 35005KT 10SM CLR 16/11 A2984 RMK AO2 SLP103
     T01610106=
KMRB 081053Z AUTO 00000KT 3SM HZ CLR 22/19 A3004 RMK AO2 SLP165
     T02170189=
KMSL 081053Z AUTO 00000KT 9SM SCT065 23/22 A3009 RMK AO2 SLP180
     T02330217=
KMSP 081053Z 31003KT 10SM FEW090 18/16 A3009 RMK AO2 SLP187
     T01780161=
KMSY 081053Z 00000KT 9SM FEW016 SCT250 26/23 A3001 RMK AO2 SLP165
     T02610233=
KMYV 081053Z AUTO 15005KT 10SM CLR 16/11 A2983 RMK AO2 SLP103
     T01610111=
####018000488####
SAUK31 EGGY 081050
METAR EGBB 081050Z 25008KT 9999 FEW033 21/10 Q1018=
METAR EGCC 081050Z 24009KT 190V270 9999 SCT036 SCT048 19/10
    Q1017=
METAR EGKK 081050Z 21006KT 150V290 9999 SCT024 23/15 Q1018=
METAR EGLL 081050Z 25006KT 180V280 9999 BKN019 21/14 Q1019=
METAR EGPF 081050Z 22018KT 9999 FEW025 SCT030 17/10 Q1013=
METAR EGPH 081050Z 22014KT 9999 FEW030 17/09 Q1013=
METAR EGPK 081050Z 23015KT 9999 FEW024 17/09 Q1014=
METAR EGSS 081050Z 23007KT 9999 SCT018 20/15 Q1018=
####018000124####
SAKA31 PTKR 081100
METAR PTKR 081052Z 06004KT 15SM FEW018CB SCT120 OVC300 27/24 A2985
RMK CB DSNT NE SLP109 T02720240=
####018003669####
SAUS99 KWBC 081055 RRD
METAR
KNEW 081053Z AUTO 11004KT 10SM CLR 27/25 A3002 RMK AO2 SLP158
     T02670250 TSNO=
KSJC 081053Z AUTO VRB03KT 9SM OVC013 15/12 A2991 RMK AO2 SLP129
     T01500117=
KSMF 081053Z 18008KT 10SM CLR 14/11 A2982 RMK AO2 SLP096
     T01440106=
KSOW 081050Z AUTO 00000KT 10SM SCT110 21/03 A3024 RMK AO2=
KSPW 081053Z AUTO 31005KT 5SM BR CLR 15/14 A3015 RMK AO2 SLP205
     T01500139=
KSSF 081053Z AUTO 03005KT 10SM SCT013 BKN036 BKN045 26/23 A2992
     RMK AO2 SLP118 T02610233=
KSTC 081053Z AUTO 00000KT 4SM BR CLR 13/12 A3009 RMK AO2 SLP197
     T01330122=
KSTP 081053Z 32005KT 10SM CLR 18/16 A3009 RMK AO2 SLP185
     T01780161=
KSTS 081053Z AUTO 12004KT 10SM OVC006 12/10 A2991 RMK AO2 SLP120
     T01220100=
KSUN 081051Z AUTO 31010G15KT 10SM CLR 10/01 A3023 RMK AO2=
KSZT 081050Z AUTO 28003KT 10SM CLR 09/08 A3011 RMK AO2=
KTCL 081053Z AUTO 00000KT 7SM CLR 24/22 A3005 RMK AO2 SLP173
     T02390217=
KTIW 081053Z AUTO 04004KT 10SM FEW090 21/11 A2995 RMK AO2 SLP136
     T02060111=
KTOI 081053Z AUTO 00000KT 7SM CLR 22/21 A3004 RMK AO2 SLP166
     T02170211=
KTRL 081053Z AUTO 11004KT 10SM SCT043 27/22 A3002 RMK AO2 RAB42E51
     SLP159 P0000 T02670222=
KTUS 081053Z 00000KT 10SM CLR 29/05 A2990 RMK AO2 SLP066
     T02890050=
KTVC 081053Z 23004KT 10SM OVC090 23/20 A2998 RMK AO2 SLP148 FIRST
     AUGMENTED OBS OF DAY T02280200=
KTVL 081053Z AUTO 20003KT 10SM CLR 09/06 A3015 RMK AO2 SLP154
     T00940056=
KTVR 081053Z AUTO 00000KT 1SM BR CLR 22/21 A3005 RMK AO2 SLP180
     T02220211 $=
KTYR 081053Z AUTO 00000KT 10SM CLR 25/23 A3003 RMK AO2 SLP163
     T02500233=
KUTS 081053Z AUTO 00000KT 6SM BR OVC004 24/23 A2997 RMK AO2 CIG
     002V006 SLP145 T02390228=
KVCB 081053Z AUTO 26006KT 10SM CLR 17/10 A2983 RMK AO2 SLP099
     T01670100=
KVPC 081053Z AUTO 00000KT 4SM BR CLR 19/19 A3007 RMK AO2 SLP168
     T01940189=
KVPZ 081053Z AUTO 18003KT 3SM VCTS BR SCT047 BKN070 OVC085 23/22
     A3006 RMK AO2 LTG DSNT SW TSB41RAE26 SLP171 P0000
     T02330222=
KWVI 081053Z AUTO 24003KT 10SM OVC009 13/11 A2992 RMK AO2 SLP131
     T01280106=
KXNA 081053Z 15004KT 10SM OVC023 22/22 A3007 RMK AO2 SLP168
     T02220217=
KGLR 081053Z AUTO 23006KT 10SM OVC090 22/19 A3001 RMK AO2 SLP152
     T02220194=
KGMU 081053Z 00000KT 10SM CLR 26/18 A3005 RMK AO2 SLP162
     T02560183=
KGPT 081053Z 00000KT 6SM BR CLR 26/24 A3002 RMK AO2 SLP164
     T02560239=
KGRB 081053Z 00000KT 5SM BR OVC004 22/21 A3000 RMK AO2 RAB40E49
     SLP155 P0000 T02170206=
KGRI 081053Z AUTO 31005KT 10SM BKN120 16/14 A3021 RMK AO2 SLP221
     T01560139=
KGRR 081053Z 24003KT 2 1/2SM BR SCT120 BKN200 24/22 A3004 RMK AO2
     SLP165 T02390222=
KGSH 081053Z AUTO 31005KT 3SM BR SCT055 22/20 A3006 RMK AO2 SLP170
     T02170200=
KGSP 081053Z 00000KT 10SM CLR 22/19 A3003 RMK AO2 SLP153
     T02220189=
KGUP 081053Z AUTO 15006G14KT 10SM CLR 19/08 A3025 RMK AO2 SLP046
     T01890078=
KGVL 081053Z AUTO 33004KT 10SM CLR 23/19 A3008 RMK AO2 SLP167
     T02330189=
KGWO 081053Z AUTO 00000KT 10SM CLR 22/22 A3005 RMK AO2 SLP175
     T02220217=
KHBG 081053Z AUTO 00000KT 10SM CLR 23/22 A3004 RMK AO2 SLP169
     T02280222=
KHDE 081050Z AUTO 34003KT 10SM SCT050 SCT120 16/14 A3023 RMK AO2
     T01550141=
KHEI 081053Z AUTO 00000KT 10SM CLR 09/07 A3019 RMK AO2 SLP218
     T00890072=
KHGR 081053Z AUTO 00000KT 4SM HZ CLR 24/17 A3004 RMK AO2 SLP173
     T02390172=
KHIB 081053Z AUTO 00000KT 1/2SM FG CLR 09/08 A3004 RMK AO2 SLP177
     T00890083=
KHJH 081050Z AUTO 02004KT 10SM OVC029 19/18 A3017 RMK AO2
     T01930177=
####018000599####
SAMX44 MMMD 081053
METAR MMCE 081046Z 14008KT 6SM BKN050 27/25 A2979 RMK 8/400=
METAR MMCZ 081045Z 09005KT 6SM  BKN100 26/24 A2985 RMK 8/070 SC HZY=
METAR MMMD 081046Z 10006KT 6SM  BKN070 19/19 A2985 RMK 8/070 HZY=
METAR MMMT 081045Z 24010KT 10SM BKN030 BKN050 OVC080 23/18 A2979
      RMK 8/57/=
METAR MMTG 081047Z 00000KT 3SM BCFG  SCT004 BKN070 OVC300 23/23 A2991 
      RMK 8/672 BCFG ARND ST OMTNS VRBL COND=
METAR MMTP 081040Z 00000KT 10SM BKN020 BKN100 24/22 A2988
      RMK 8/170=
METAR MMUN 081042Z 13004KT 6SM  SCT015 BKN090 BKN300 27/24 A2988 
      RMK 8/538 HZY=
####018000514####
SASN33 ESWI 081050
METAR ESNG 081050Z NIL=
METAR ESNK 081050Z AUTO 16009KT 9999NDV FEW100/// 23/12 Q1012=
METAR ESNN 081050Z 14012KT 9999 FEW044 SCT053 21/14 Q1013=
METAR ESNO 081050Z AUTO 16010KT 9999NDV FEW040/// 20/12 Q1014=
METAR ESNQ 081050Z 18010KT CAVOK 18/09 Q1013=
METAR ESNS 081050Z AUTO 17011KT 130V200 9999NDV ////// 22/08 Q1014=
METAR ESNU 081050Z 14008KT CAVOK 20/12 Q1015=
METAR ESNZ 081050Z 19011KT 9999 FEW044 19/11 Q1012=
METAR ESUT 081050Z AUTO 15009KT 9999NDV OVC074/// 18/10 Q1010=
####018000081####
SABZ20 SBBE 081100
METAR SBBE 081100Z 11006KT 9999 FEW017 BKN080 26/23 Q1013=
####018000263####
SASW32 LSSW 081050
METAR LSGC 081050Z NIL=
METAR LSGS 081050Z 24008KT 200V310 9999 FEW100 28/14 Q1021=
METAR LSZG 081050Z NIL=
METAR LSZR 081050Z 28004KT CAVOK 23/16 Q1022 NOSIG RMK H=
METAR LSZS 081050Z 23007KT CAVOK 23/11 Q1026=
METAR LSZC 081050Z NIL=
####018000078####
SADN34 EKCH 081050 RRA
METAR EKGF 081050Z 22010KT 9999 FEW047 16/16 Q1017=
####018000107####
SAAH10 OAKN 081100
METAR OAKN 081050Z 28007KT 9999 FEW150 41/05 Q1007 BLU NOSIG RMK
    A2974
DA7100=
####018000481####
SASN32 ESWI 081050
METAR ESKN 081050Z 27010KT 230V300 9999 FEW047 24/12 Q1018=
METAR ESOE 081050Z NIL=
METAR ESOK 081050Z 22009KT 9999 BKN022 18/13 Q1017=
METAR ESOW 081050Z 23012KT CAVOK 23/13 Q1017=
METAR ESSA 081050Z 24011KT CAVOK 24/13 Q1017 NOSIG=
METAR ESSB 081050Z 25007KT 210V280 CAVOK 24/11 Q1017=
METAR ESSD 081050Z AUTO 25009KT 9999NDV BKN027/// 20/13 Q1016=
METAR ESSP 081050Z 25014KT 220V280 CAVOK 24/12 Q1018=
METAR ESSV 081050Z 28007KT CAVOK 21/13 Q1020=
####018000079####
SPAL31 KWBC 081055
SPECI
DAUA 081024Z 03026KT 4000 DRSA NSC 41/07 Q1014=
####018000503####
SASN35 ESWI 081050
METAR ESGL 081050Z AUTO 22010KT 180V260 9999NDV FEW033/// SCT038/// 
BKN049/// 22/15 Q1017=
METAR ESGR 081050Z AUTO 22013KT 9999NDV SCT043/// BKN057/// 23/13
Q1018=
METAR ESKM 081050Z NIL=
METAR ESNL 081050Z 14009KT 9999 FEW040 20/11 Q1013=
METAR ESNX 081050Z AUTO 19006KT 8000NDV RA SCT012/// BKN030///
BKN040/// 15/13 Q1014 RESHRA=
METAR ESNY 081050Z AUTO 27012KT 9999 SCT040 BKN050 24/16 Q1014=
METAR ESSF 081050Z NIL=
METAR ESSK 081050Z NIL=
METAR ESUD 081050Z NIL=
####018000088####
SAUK34 EGGY 081050 CCA
METAR COR EGHK 081050Z 15006KT 9999 FEW022 17/15 Q1018 NOSIG=
####018000462####
SAUK35 EGGY 081050
METAR EGHH 081050Z VRB03KT 9999 SCT029 20/16 Q1019=
METAR EGKA 081050Z 21008KT 9999 FEW017 20/16 Q1019=
METAR EGKB 081050Z 30003KT 9999 BKN025 22/15 Q1019 =
METAR EGLF 081050Z VRB03KT 9999 FEW013 SCT017 19/15 Q1019=
METAR EGMC 081050Z 30003KT 9999 FEW026 23/16 Q1018=
METAR EGMD 081050Z 21007KT 9999 FEW018 22/16 Q1019=
METAR EGMH 081050Z 23005KT 160V300 9999 FEW016 24/17 Q1019 =
METAR EGTC 081050Z 23006KT 9999 FEW020 19/12 Q1018=
####018000112####
SPKO31 RKSI 081045
SPECI RKTN 081045Z 31002KT 8000 -RA FEW025CB BKN040 OVC200 25/23
           Q1008 NOSIG=
####018000077####
SPAK31 KWBC 081055
SPECI
PASI 081051Z 25003KT 10SM BKN002 13/12 A3018=
####018000393####
SAFI32 EFHK 081050
EFHA 081050Z VRB01KT 9999 FEW030TCU SCT200 23/16 Q1015=
EFHF 081050Z 31005KT 260V360 9999 FEW042 BKN050 28/17 Q1014=
EFKA 081050Z 24005KT 110V290 9999 FEW040 BKN200 24/12 Q1015=
EFKK 081050Z VRB04KT 9999 SCT048 24/11 Q1015=
EFMA 081050Z 19008KT 150V220 CAVOK 21/13 Q1016=
EFPO 081050Z 28005KT 230V320 CAVOK 24/13 Q1016=
EFSI 081050Z AUTO 21003KT CAVOK 24/12 Q1015=
####018000080####
SAQB31 LQBK 081100
METAR LQBK 081100Z 28002KT 9999 FEW040 23/11 Q1022 NOSIG=
####018000507####
SAUK34 EGGY 081050
METAR EGHD 081050Z 19005KT 9999 FEW022 20/12 Q1019=
METAR EGHE 081050Z NIL=
METAR EGHK 081050Z 15006KT 9999 FEW022 17/15 Q1018=
METAR EGHQ 081050Z 28006KT 240V300 9999 FEW025 17/12 Q1019=
METAR EGJA 081050Z 28005KT 9999 FEW003 SCT006 19/16 Q1019=
METAR EGJB 081050Z VRB03KT 9999 FEW012 20/17 Q1019=
METAR EGJJ 081050Z 32006KT 290V070 9999 FEW015 21/17 Q1019 NOSIG=
METAR EGTE 081050Z 20007KT 150V230 9999 FEW030 21/13 Q1018=
METAR EGTG 081050Z 27005KT 9999 FEW025 20/12 Q1018=
####018000074####
SAGI32 EGRR 081050
METAR LXGB 081050Z 09014KT CAVOK 26/16 Q1016 NOSIG=
####018000119####
SAFK41 EGYP 081050
METAR EGYP 081050Z 02024KT 2500 RADZ FEW005 BKN015 OVC045 05/04 Q0994
 YLO1 TEMPO 5000 -RA WHT=
####018000184####
SASN34 ESWI 081050
METAR ESDF 081050Z 22009KT 190V250 CAVOK 23/11 Q1021=
METAR ESPA 081050Z 14011KT CAVOK 18/14 Q1016=
METAR ESSL 081050Z 24008KT 200V310 9999 SCT045 23/12 Q1018=
####018000086####
SPCN47 CWAO 081052
SPECI CYAM 081052Z 00000KT 5SM BR BKN003 OVC009 RMK SF6SF2=

####018000124####
SPJP31 KWBC 081055
SPECI
RJCH 081045Z VRB01KT 9999 FEW004 BKN009 BKN011 20/19 Q1009 RMK
1ST004 5ST009 7ST011 A2982=
####018000102####
SPJP41 KWBC 081055
SPECI
RJCK 081043Z 21006KT 0200 R35/0550N +DZ VV001 16/15 Q1010 RMK
A2985=
####018000093####
SAFJ31 NFNA 081100
METAR NFNA 081100Z 00000KT 40KM FEW024 21/20 Q1014 RMK RR NIL DEW HVY
####018000144####
SPXX62 KWBC 081055
SPECI
RKJK 081049Z 09004KT 9999 FEW007 SCT090 24/22 A2978 RMK AO2A
RAE1019B1034E1046DZB1019E1021B1046E1049 SLP085 $=
####018000111####
SAUS42 KCHS 081054
MTRSAV
METAR KSAV 081053Z 22003KT 10SM FEW250 21/19 A3000 RMK AO2 SLP156 
T02110194
####018000117####
SAUS44 KLIX 081054
MTRMSY
METAR KMSY 081053Z 00000KT 9SM FEW016 SCT250 26/23 A3001 RMK AO2 
SLP165 T02610233
####018000118####
SAUS44 KLZK 081054
MTRMWT
METAR KMWT 081053Z AUTO 00000KT 10SM CLR 23/22 A3005 RMK AO2 SLP163 
T02280222 TSNO
####018000120####
SAUS44 KMRX 081054
MTROQT
METAR KOQT 081053Z AUTO 00000KT 5SM BR CLR 22/19 A3010 RMK AO2 
SLP172 T02170194 TSNO
####018000124####
SPUS41 KWBC 081055
SPECI
KWRI 081051Z AUTO 00000KT 1 1/4SM R18/5000VP6000FT
R24/4500VP6000FT BR SCT001 24/24 A3001=
####018000072####
SAYE20 OYSY 081100
METAR OYSY 081100Z VRB03KT 6000 NSC 43/07 Q1001=
####018000072####
SAYE20 OYAS 081100
METAR OYAS 081100Z 35005KT 5000 NSC 34/25 Q1005=
####018000076####
SAYE20 OYMB 081100
METAR OYMB 081100Z 06016KT 6000 FEW030 41/M05 Q1004=
####018000117####
SAUS43 KMKX 081055
MTRMSN
METAR KMSN 081053Z 00000KT 9SM FEW006 OVC015 21/20 A3002 RMK AO2 
SLP159 T02110200
####018000123####
SAUS46 KSGX 081054
MTRRNM
METAR KRNM 081053Z AUTO 00000KT 4SM BR OVC004 14/13 A2990 RMK AO2 
SLP112 T01390128 TSNO
####018000119####
SAUS41 KAKQ 081055
MTRNUI
METAR KNUI 081053Z AUTO 00000KT 2 1/2SM BR CLR 25/24 A2999 RMK AO2 
SLP155 T02500239
####018000503####
SAHW31 KMSC 081054
METAR PHNL 081053Z 06009KT 10SM FEW032 SCT049 24/18 A3003 RMK AO2 
    SLP168 T02440178=
METAR PHTO 081053Z 25005KT 10SM FEW027 BKN060 22/19 A3003 RMK AO2 
    SLP168 T02170189=
METAR PHKO 081053Z AUTO 10007KT 10SM CLR 24/19 A2998 RMK AO2 SLP154 
    T02390189 TSNO=
METAR PHLI 081053Z 07014KT 10SM SCT024 BKN031 OVC048 24/19 A3005 RMK 
    AO2 RAB11E34 SLP174 P0002 T02370193 $=
METAR PHJR 081053Z 00000KT 10SM FEW045 22/18 A3004 RMK AO2 SLP179 
    T02220178=
####018002969####
SAUS20 KNKA 081054
METAR KFLO 081053Z 31006KT 10SM CLR 26/18 A2994 RMK AO2 SLP137 
    T02560183=
METAR KFMY 081053Z AUTO 06003KT 10SM CLR 24/22 A2995 RMK AO2 SLP145 
    T02390222=
METAR KFNB 081053Z AUTO 34006KT 10SM BKN017 21/20 A3009 RMK AO2 
    SLP181 T02110200=
METAR KFNT 081053Z AUTO 27005KT 8SM FEW055 24/21 A3005 RMK AO2 
    SLP168 T02390206=
METAR KFOE 081053Z 35005KT 10SM CLR 21/20 A3007 RMK AO2 SLP172 
    T02110200=
METAR KFOK 081053Z AUTO 12007KT 7SM BKN004 OVC012 24/21 A3007 RMK 
    AO2 SLP183 T02390211 TSNO=
METAR KFPR 081053Z AUTO 00000KT 6SM BR CLR 22/21 A2996 RMK AO2 
    SLP146 T02170211=
METAR KFRG 081053Z 16006KT 7SM OVC004 24/23 A3005 RMK AO2 RAB15E29 
    CIG 002V006 SLP174 P0000 T02440233=
METAR KFST 081053Z AUTO 13003KT 10SM CLR 22/19 A3007 RMK AO2 SLP132 
    T02170189=
METAR KFTW 081053Z 10004KT 10SM SCT010 25/23 A3000 RMK AO2 SLP149 
    T02500233=
METAR KFUL 081053Z 00000KT 10SM OVC017 17/12 A2989 RMK AO2 SLP119 
    T01720122=
METAR KFVE 081053Z AUTO 18004KT M1/4SM FG VV001 22/22 A3001 RMK AO2 
    SLP156 T02220222=
METAR KFWN 081053Z AUTO 00000KT 2 1/2SM BR CLR 21/21 A3005 RMK AO2 
    SLP173 T02110206=
METAR KFXE 081053Z 00000KT 10SM CLR 27/24 A2993 RMK AO2 SLP139 
    T02720239 $=
METAR KGAG 081053Z AUTO 01004KT 10SM -RA BKN110 21/19 A3014 RMK AO2 
    LTG DSNT W RAB02 SLP178 P0000 T02060194=
METAR KGCC 081053Z AUTO 00000KT 10SM CLR 11/07 A3028 RMK AO2 SLP224 
    T01060067=
METAR KGEY 081053Z AUTO 13004KT 10SM CLR 11/03 A3026 RMK AO2 SLP222 
    T01060033=
METAR KGEZ 081053Z AUTO 13005KT 4SM BR SCT090 OVC110 23/21 A3005 RMK 
    AO2 SLP167 T02280206=
METAR KGFL 081053Z AUTO 00000KT 2SM BR CLR 23/22 A3003 RMK AO2 
    SLP166 T02280222=
METAR KGGG 081053Z 08005KT 10SM CLR 24/24 A3003 RMK AO2 SLP161 
    T02390239=
METAR KGGW 081053Z AUTO 34003KT 10SM CLR 11/09 A3014 RMK AO2 SLP204 
    T01110089 TSNO=
METAR KGIF 081053Z AUTO 03004KT 10SM CLR 22/21 A3001 RMK AO2 SLP158 
    T02220206 TSNO=
METAR KGJT 081053Z AUTO 10007KT 10SM CLR 19/07 A3018 RMK AO2 SLP142 
    T01940067=
METAR KGKJ 081053Z AUTO 00000KT 6SM HZ CLR 21/18 A3012 RMK AO2 
    SLP185 T02060178=
METAR KGLD 081053Z AUTO 00000KT 10SM BKN039 17/16 A3028 RMK AO2 
    SLP222 T01670161=
METAR KGNV 081053Z 00000KT 6SM BR CLR 19/18 A3001 RMK AO2 SLP159 
    T01890183=
METAR KGOK 081053Z AUTO 00000KT 9SM CLR 23/21 A3004 RMK AO2 SLP163 
    T02280211=
METAR KGTF 081053Z 21004KT 10SM CLR 08/05 A3023 RMK AO2 SLP223 
    T00780050 $=
METAR KGUY 081053Z AUTO 33005KT 10SM -RA OVC100 18/17 A3021 RMK AO2 
    SLP188 P0012 T01830172=
METAR KGZH 081053Z AUTO 00000KT 6SM BR CLR 22/21 A3005 RMK AO2 
    SLP170 T02170211=
METAR KHAO 081053Z AUTO 00000KT 1 1/2SM BR CLR 21/20 A3009 RMK AO2 
    SLP184 T02110200=
METAR KHBR 081053Z AUTO 06005KT 6SM VCTS BR FEW004 BKN065 23/22 
    A3007 RMK AO2 TSB39 SLP167 T02280222=
####018002966####
SAUS20 KNKA 081054
METAR KABY 081053Z 00000KT 10SM CLR 21/19 A3004 RMK AO2 SLP169 
    T02110194=
METAR KACK 081053Z 11007KT 10SM CLR 20/19 A3010 RMK AO2 SLP191 
    T02000194=
METAR KADG 081053Z AUTO 00000KT 4SM HZ CLR 22/19 A3006 RMK AO2 
    SLP174 T02220194=
METAR KAFW 081053Z 00000KT 10SM CLR 26/23 A3001 RMK AO2 SLP144 
    T02560228=
METAR KAGC 081053Z 00000KT 3SM HZ CLR 22/19 A3010 RMK AO2 SLP185 
    T02220194=
METAR KAIA 081053Z AUTO 35004KT 10SM FEW085 14/13 A3028 RMK AO2 
    SLP229 T01390128 $=
METAR KAKO 081053Z AUTO 12005KT 5SM BR BKN003 OVC031 14/14 A3032 RMK 
    AO2 SLP230 T01440139 TSNO=
METAR KALW 081053Z AUTO 14003KT 10SM CLR 17/08 A2998 RMK AO2 SLP142 
    T01720078=
METAR KAMA 081053Z 36008KT 1SM OVC005 17/17 A3020 RMK AO2 SFC VIS 8 
    RAE39 SLP175 P0002 T01720167 $=
METAR KAMG 081053Z AUTO 00000KT 10SM CLR 22/19 A3001 RMK AO2 SLP159 
    T02170194=
METAR KAOH 081053Z AUTO 18004KT 4SM BR 22/19 A3008 RMK AO2 SLP178 
    T02170194 $=
METAR KAPA 081053Z 20003KT 6SM BR FEW007 BKN027 BKN120 13/12 A3033 
    RMK AO2 SLP227 T01330122 $=
METAR KAPF 081053Z 05005KT 10SM CLR 24/23 A2996 RMK AO2 SLP144 
    T02440228=
METAR KARB 081053Z AUTO 00000KT 1/4SM FG VV001 20/19 A3004 RMK AO2 
    SLP167 T02000189=
METAR KASE 081053Z 13010KT 10SM FEW100 10/06 A3037 RMK AO2 WSHFT 
    0940 SLP194 T01000056=
METAR KASG 081048Z 16005KT 10SM BKN028 22/21 A3008=
METAR KAUG 081053Z AUTO 17007KT 3SM BR OVC005 21/20 A3009 RMK AO2 
    SLP188 T02060200=
METAR KBAF 081053Z 14003KT 6SM HZ SCT100 24/21 A3006 RMK AO2 SLP174 
    T02440211=
METAR KBBW 081053Z AUTO 00000KT 10SM BKN070 OVC085 17/16 A3024 RMK 
    AO2 SLP224 T01720161=
METAR KBCE 081053Z AUTO 30012KT 10SM BKN075 OVC110 11/02 A3031 RMK 
    AO2 SLP150 T01060017 TSNO=
METAR KBFF 081053Z AUTO 00000KT 10SM BKN065 OVC090 15/13 A3030 RMK 
    AO2 SLP231 T01500128=
METAR KBFI 081053Z 00000KT 10SM CLR 20/12 A2994 RMK AO2 SLP139 
    T02000117=
METAR KBGM 081053Z 00000KT 2 1/2SM HZ CLR 22/19 A3013 RMK AO2 SLP187 
    T02170189=
METAR KBGR 081053Z 18010KT 3SM BR OVC005 21/20 A3009 RMK AO2 SLP185 
    T02110200=
METAR KBHK 081053Z AUTO 24007KT 10SM CLR 13/08 A3021 RMK AO2 SLP214 
    T01280083=
METAR KBIL 081053Z 24009KT 10SM FEW120 12/06 A3024 RMK AO2 SLP220 
    T01220056=
METAR KBKE 081053Z AUTO 00000KT 10SM CLR 05/05 A3011 RMK AO2 SLP182 
    T00500050=
METAR KBKL 081053Z 15004KT 5SM HZ CLR 25/18 A3005 RMK AO2 SLP170 
    T02500183=
METAR KBLI 081053Z AUTO 00000KT 10SM CLR 15/13 A2997 RMK AO2 SLP152 
    T01500133=
METAR KBMG 081053Z 00000KT 2SM BR CLR 21/21 A3006 RMK AO2 SLP168 
    T02110206=
METAR KBOI 081053Z 12005KT 10SM CLR 19/06 A3005 RMK AO2 SLP146 
    T01890056=
METAR KBPI 081053Z AUTO 34006KT 10SM FEW100 06/01 A3039 RMK AO2 
    SLP215 T00560006=
METAR KBRL 081053Z AUTO 8SM OVC002 22/21 A3005 RMK AO2 SLP168 
    T02220211 $=
####018002933####
SAUS20 KNKA 081054
METAR KDET 081053Z 25003KT 6SM HZ CLR 25/22 A3004 RMK AO2 SLP166 
    T02500217 $=
METAR KDEW 081053Z AUTO 00000KT 10SM CLR 14/07 A3008 RMK AO2 SLP172 
    T01390072=
METAR KDFI 081053Z AUTO 00000KT 4SM BR CLR 22/19 A3006 RMK AO2 
    SLP173 T02170194=
METAR KDFW 081053Z 13003KT 10SM -RA OVC012 26/23 A3001 RMK AO2 RAB52 
    SLP152 P0000 T02560228=
METAR KDGW 081053Z AUTO 00000KT 9SM CLR 06/05 A3034 RMK AO2 SLP251 
    T00560050 $=
METAR KDHN 081053Z 00000KT 9SM CLR 23/22 A3007 RMK AO2 SLP176 
    T02280222=
METAR KDHT 081053Z AUTO 01009KT 10SM OVC080 16/15 A3025 RMK AO2 
    RAE49 SLP192 P0000 T01610150=
METAR KDKK 081053Z AUTO 00000KT 8SM CLR 21/18 A3006 RMK AO2 SLP175 
    T02110183=
METAR KDLN 081053Z AUTO 20010KT 10SM CLR 06/03 A3029 RMK AO2 SLP225 
    T00560028=
METAR KDLS 081053Z AUTO 13005KT 10SM CLR 14/05 A2995 RMK AO2 SLP140 
    T01440050=
METAR KDMO 081053Z AUTO 06003KT 6SM BR FEW001 23/22 A3005 RMK AO2 
    SLP167 T02330217=
METAR KDRO 081053Z AUTO 00000KT 10SM CLR 12/06 A3031 RMK AO2 SLP177 
    T01220056=
METAR KDTS 081053Z AUTO 00000KT 5SM BR FEW001 24/23 A3002 RMK AO2 
    SLP163 T02440233=
METAR KDTW 081053Z 22003KT 4SM HZ FEW040 SCT150 24/21 A3004 RMK AO2 
    SLP167 T02390206=
METAR KDVT 081053Z 11004KT 10SM CLR 27/01 A2978 RMK AO2 SLP056 
    T02670011=
METAR KDXR 081053Z AUTO 15003KT 1/4SM FG OVC001 22/22 A3007 RMK AO2 
    SLP179 T02220222=
METAR KECP 081053Z 29003KT 5SM BR CLR 23/23 A3002 RMK AO2 SLP174 
    T02280228=
METAR KEEO 081053Z AUTO 10SM FEW110 09/06 A3029 RMK AO2 SLP179 
    T00890056 PNO $=
METAR KELD 081053Z AUTO 00000KT 2 1/2SM BR SCT001 BKN080 23/23 A3004 
    RMK AO2 SLP170 T02280228=
METAR KELM 081053Z 00000KT 2SM BR CLR 19/18 A3009 RMK AO2 SLP181 
    T01890178=
METAR KELN 081053Z AUTO 11004KT 10SM CLR 14/07 A3005 RMK AO2 SLPNO 
    T01390067 $=
METAR KEMP 081053Z AUTO 34004KT 4SM BR SCT004 BKN022 BKN110 22/20 
    A3007 RMK AO2 SLP175 T02170200=
METAR KEPH 081053Z AUTO 33009KT 10SM CLR 21/04 A3000 RMK AO2 SLP149 
    T02060044=
METAR KEVW 081053Z AUTO 09013KT 10SM CLR 10/03 A3032 RMK AO2 SLP182 
    T01000028 TSNO=
METAR KEWB 081053Z 13005KT 6SM BR OVC002 23/21 A3008 RMK AO2 SLP185 
    T02280211=
METAR KEYE 081053Z AUTO 00000KT 6SM HZ CLR 24/21 A3005 RMK AO2 
    SLP168 T02390211=
METAR KEYW 081053Z 07003KT 10SM FEW080 27/24 A2994 RMK AO2 RAB29E44 
    SLP137 P0000 T02720244=
METAR KFDR 081053Z AUTO 07004KT 10SM 23/22 A3002 RMK AO2 SLP152 
    T02330222=
METAR KFDY 081053Z AUTO 00000KT 5SM HZ CLR 22/19 A3006 RMK AO2 
    SLP169 T02170189=
METAR KFFT 081053Z AUTO 00000KT 2 1/2SM BR CLR 21/19 A3008 RMK AO2 
    SLP176 T02060194=
METAR KFHR 081053Z AUTO 00000KT 10SM CLR 13/10 A2998 RMK AO2 SLP150 
    T01280100=
METAR KFLL 081053Z 07007KT 10SM FEW022 28/24 A2993 RMK AO2 SLP135 
    T02780244=
####018000118####
SAUS45 KPUB 081055
MTRLXV
METAR KLXV 081053Z AUTO 18006KT 10SM CLR 06/05 A3051 RMK AO2 SLP212 
T00560050 TSNO
####018002960####
SAUS20 KNKA 081054
METAR KBTM 081053Z AUTO 12005KT 10SM CLR 05/01 A3032 RMK AO2 SLP234 
    T00500006=
METAR KBUR 081053Z 00000KT 7SM OVC007 16/13 A2989 RMK AO2 SLP111 
    T01560133=
METAR KBVO 081053Z AUTO 00000KT 10SM BKN040 OVC046 23/22 A3005 RMK 
    AO2 SLP163 T02280217=
METAR KBVY 081053Z 16006KT 8SM FEW007 22/20 A3009 RMK AO2 SLP182 
    T02170200 PNO=
METAR KBYG 081053Z AUTO 25008KT 10SM CLR 09/02 A3030 RMK AO2 SLP228 
    T00890022=
METAR KBYI 081053Z AUTO 05003KT 10SM CLR 10/04 A3013 RMK AO2 SLP168 
    T01000044=
METAR KCAG 081053Z AUTO 00000KT 10SM CLR 10/07 A3030 RMK AO2 SLP197 
    T01000067=
METAR KCAK 081051Z 00000KT 4SM BR CLR 21/19 A3010 RMK AO2 SLP182
     T02110189=
METAR KCDC 081053Z AUTO 00000KT 10SM CLR 12/02 A3015 RMK AO2 SLP131 
    T01220017 $=
METAR KCDR 081053Z AUTO 20003KT 10SM CLR 09/08 A3029 RMK AO2 SLP252 
    T00940078=
METAR KCDW 081053Z 00000KT 4SM HZ CLR 24/22 A3004 RMK AO2 SLP176 
    T02440217=
METAR KCEZ 081053Z AUTO VRB03KT 10SM CLR 17/07 A3023 RMK AO2 SLP150 
    T01670067=
METAR KCGI 081053Z AUTO 00000KT 10SM CLR 24/23 A3004 RMK AO2 SLP168 
    T02390228 TSNO=
METAR KCKB 081053Z 00000KT 1 3/4SM BR CLR 19/18 A3010 RMK AO2 SLP176 
    T01940183=
METAR KCLM 081053Z AUTO A2997 RMK AO2 SLPNO PWINO FZRANO $=
METAR KCMX 081053Z AUTO 31004KT 10SM FEW070 OVC085 18/17 A2999 RMK 
    AO2 SLP152 T01830172=
METAR KCNO 081053Z 00000KT 5SM BR OVC011 15/13 A2991 RMK AO2 SLP122 
    T01500128=
METAR KCNY 081053Z AUTO 20004KT 10SM CLR 18/04 A3011 RMK AO2 SLP133 
    T01830044=
METAR KCPR 081053Z 00000KT 8SM CLR 04/03 A3034 RMK AO2 SLP243 
    T00390033 $=
METAR KCPS 081053Z 17003KT 10SM BKN047 24/22 A3004 RMK AO2 SLP166 
    T02390222=
METAR KCRE 081053Z 35004KT 10SM CLR 26/20 A2992 RMK AO2 SLP132 
    T02560200=
METAR KCRG 081053Z 00000KT 7SM CLR 19/18 A3000 RMK AO2 SLP159 
    T01940183 $=
METAR KCRP 081051Z 35007KT 10SM FEW010 SCT025 BKN048 26/25 A2983
     RMK AO2 RAE0953B19E30 SLP099 P0000 T02560250=
METAR KCRQ 081053Z AUTO 00000KT 10SM OVC011 17/13 A2988 RMK AO2 
    SLP118 T01720133=
METAR KCRS 081053Z AUTO 09003KT 10SM SCT012 25/24 A2999 RMK AO2 
    SLP152 T02500239=
METAR KCSM 081053Z AUTO 01005KT 8SM FEW012 SCT060 23/21 A3010 RMK 
    AO2 LTG DSNT S RAB05E47 SLP168 P0000 T02280211=
METAR KCUB 081053Z AUTO 00000KT 10SM CLR 24/19 A2999 RMK AO2 SLP153 
    T02390189=
METAR KCYS 081053Z AUTO 16005KT 8SM SCT004 BKN010 OVC014 12/12 A3037 
    RMK AO2 CIG 007V012 SLP236 T01170117 TSNO=
METAR KDAG 081053Z AUTO 26010KT 10SM CLR 22/02 A2986 RMK AO2 SLP080 
    T02220017 TSNO $=
METAR KDAL 081053Z 13007KT 10SM FEW016 BKN027 OVC037 26/23 A3001 RMK 
    AO2 SLP154 T02610233=
METAR KDEN 081053Z 26005KT 6SM BR FEW018 BKN025 14/13 A3031 RMK AO2 
    SLP211 T01440133 $=
METAR KDEQ 081053Z AUTO 06003KT 10SM FEW005 BKN034 24/23 A3003 RMK 
    AO2 SLP164 T02390233=
####018000121####
SAGM31 PGUM 081055
MTRGUM
METAR PGUM 081054Z 08014G17KT 10SM SCT026 SCT048 28/24 A2991 RMK AO2 
SLP119 T02830244
####018000116####
SAUS43 KAPX 081055
MTRHTL
METAR KHTL 081053Z AUTO 23004KT 10SM OVC090 23/21 A3003 RMK AO2 
SLP161 T02280206
####018000118####
SAUS43 KUNR 081055
MTRCUT
METAR KCUT 081053Z AUTO 32005KT 10SM CLR 07/06 A3035 RMK AO2 SLP245 
T00670056 TSNO
####018000082####
SPUS52 KWBC 081055
SPECI
KMWL 081051Z AUTO 13003KT 10SM SCT019 23/22 A3000=
####018001795####
SAEU KAWN 081100 RRB
METAR EGAA 081050Z 23012KT 9999 FEW044 16/10 Q1014=
METAR EGAC 081050Z 21013KT 9999 FEW022 SCT033 18/08 Q1014=
METAR EGBB 081050Z 25008KT 9999 FEW033 21/10 Q1018=
METAR EGCC 081050Z 24009KT 190V270 9999 SCT036 SCT048 19/10 Q1017=
METAR EGFF 081050Z 23006KT 190V280 9999 FEW025 20/10 Q1018=
METAR EGGD 081050Z 26007KT 9999 FEW031 20/11 Q1019=
METAR EGGP 081050Z 23008KT 180V260 9999 SCT030 SCT045 19/10 Q1017=
METAR EGGW 081050Z 21005KT 160V250 9999 BKN023 20/13 Q1019=
METAR EGHD 081050Z 19005KT 9999 FEW022 20/12 Q1019=
METAR EGHI 081050Z 22003KT 9999 BKN018 20/14 Q1019=
METAR EGJB 081050Z VRB03KT 9999 FEW012 20/17 Q1019=
METAR EGKK 081050Z 21006KT 150V290 9999 SCT024 23/15 Q1018=
METAR EGLC 081050Z VRB03KT 9999 FEW030 21/14 Q1018=
METAR EGLL 081050Z 25006KT 180V280 9999 BKN019 21/14 Q1019=
METAR EGNM 081050Z 22011KT 180V270 9999 SCT025 19/09 Q1016=
METAR EGNT 081050Z 25011KT 210V280 9999 SCT038 18/09 Q1015=
METAR EGNV 081050Z 22013KT 9999 SCT033 19/11 Q1016=
METAR EGNX 081050Z 23012KT 200V270 9999 FEW045 20/08 Q1018=
METAR EGPB 081050Z 20014KT 9999 FEW012 15/11 Q1007=
METAR EGPD 081050Z 22014KT CAVOK 18/08 Q1010 NOSIG=
METAR EGPF 081050Z 22018KT 9999 FEW025 SCT030 17/10 Q1013=
METAR EGPH 081050Z 22014KT 9999 FEW030 17/09 Q1013=
METAR EGPK 081050Z 23015KT 9999 FEW024 17/09 Q1014=
METAR EGSS 081050Z 23007KT 9999 SCT018 20/15 Q1018=
METAR EGTE 081050Z 20007KT 150V230 9999 FEW030 21/13 Q1018=
METAR EGTG 081050Z 27005KT 9999 FEW025 20/12 Q1018=
METAR EKCH 081050Z 17012KT CAVOK 22/14 Q1020 NOSIG=
METAR EKRK 081050Z AUTO 19011KT 9999NDV FEW050/// BKN070/// 25/11 Q1020=
METAR EKSB 081050Z 21007KT 170V230 CAVOK 25/13 Q1018=
METAR EKYT 081050Z 20009KT 160V220 9999 FEW025 BKN028 20/15 Q1018 NOSIG=
####018000121####
SAUS46 KSGX 081055
MTRSDM
METAR KSDM 081053Z AUTO 25003KT 10SM OVC012 16/14 A2989 RMK AO2 
SLP120 T01610139 TSNO
####018001775####
SAUK KAWN 081100
METAR EGAA 081050Z 23012KT 9999 FEW044 16/10 Q1014=
METAR EGAC 081050Z 21013KT 9999 FEW022 SCT033 18/08 Q1014=
METAR EGBB 081050Z 25008KT 9999 FEW033 21/10 Q1018=
METAR EGCC 081050Z 24009KT 190V270 9999 SCT036 SCT048 19/10 Q1017=
METAR EGFF 081050Z 23006KT 190V280 9999 FEW025 20/10 Q1018=
METAR EGGD 081050Z 26007KT 9999 FEW031 20/11 Q1019=
METAR EGGP 081050Z 23008KT 180V260 9999 SCT030 SCT045 19/10 Q1017=
METAR EGGW 081050Z 21005KT 160V250 9999 BKN023 20/13 Q1019=
METAR EGHD 081050Z 19005KT 9999 FEW022 20/12 Q1019=
METAR EGHH 081050Z VRB03KT 9999 SCT029 20/16 Q1019=
METAR EGHI 081050Z 22003KT 9999 BKN018 20/14 Q1019=
METAR EGJA 081050Z 28005KT 9999 FEW003 SCT006 19/16 Q1019=
METAR EGJB 081050Z VRB03KT 9999 FEW012 20/17 Q1019=
METAR EGJJ 081050Z 32006KT 290V070 9999 FEW015 21/17 Q1019 NOSIG=
METAR EGKK 081050Z 21006KT 150V290 9999 SCT024 23/15 Q1018=
METAR EGLC 081050Z VRB03KT 9999 FEW030 21/14 Q1018=
METAR EGLF 081050Z VRB03KT 9999 FEW013 SCT017 19/15 Q1019=
METAR EGLL 081050Z 25006KT 180V280 9999 BKN019 21/14 Q1019=
METAR EGNM 081050Z 22011KT 180V270 9999 SCT025 19/09 Q1016=
METAR EGNT 081050Z 25011KT 210V280 9999 SCT038 18/09 Q1015=
METAR EGNV 081050Z 22013KT 9999 SCT033 19/11 Q1016=
METAR EGNX 081050Z 23012KT 200V270 9999 FEW045 20/08 Q1018=
METAR EGPB 081050Z 20014KT 9999 FEW012 15/11 Q1007=
METAR EGPD 081050Z 22014KT CAVOK 18/08 Q1010 NOSIG=
METAR EGPF 081050Z 22018KT 9999 FEW025 SCT030 17/10 Q1013=
METAR EGPH 081050Z 22014KT 9999 FEW030 17/09 Q1013=
METAR EGPK 081050Z 23015KT 9999 FEW024 17/09 Q1014=
METAR EGSS 081050Z 23007KT 9999 SCT018 20/15 Q1018=
METAR EGTE 081050Z 20007KT 150V230 9999 FEW030 21/13 Q1018=
METAR EGTG 081050Z 27005KT 9999 FEW025 20/12 Q1018=
####018000120####
SAKA31 PTTP 081100
METAR PTTP 081050Z 13003KT 15SM SCT018TCU BKN300 
24/23 A2989 RMK TCU E-S SLP121 T02440228=
####018002925####
SAUS20 KNKA 081054
METAR KPDT 081053Z AUTO 10006KT 10SM CLR 14/07 A2997 RMK AO2 SLP133 
    T01440067=
METAR KPDX 081053Z 00000KT 10SM CLR 18/15 A2989 RMK AO2 SLP120 
    T01830150=
METAR KPEO 081053Z AUTO 23005KT 3SM BR CLR 22/21 A3008 RMK AO2 
    SLP178 T02220206=
METAR KPGA 081053Z AUTO 00000KT 10SM CLR 24/02 A3004 RMK AO2 SLP097 
    T02390022=
METAR KPGD 081053Z AUTO 00000KT 10SM CLR 22/22 A3000 RMK AO2 SLP157 
    T02220217 TSNO=
METAR KPHD 081053Z AUTO 00000KT 2 1/2SM BR CLR 19/17 A3010 RMK AO2 
    SLP185 T01890172=
METAR KPIE 081053Z 00000KT 10SM CLR 23/21 A2998 RMK AO2 SLP153 
    T02280211=
METAR KPIH 081053Z AUTO 30003KT 10SM CLR 08/02 A3017 RMK AO2 SLP181 
    T00780017=
METAR KPKB 081053Z AUTO 00000KT 1/2SM FG OVC001 20/19 A3011 RMK AO2 
    SLP188 T02000194 TSNO RVRNO=
METAR KPMD 081053Z AUTO 20006KT 10SM CLR 17/02 A2990 RMK AO2 SLP093 
    T01720017 TSNO $=
METAR KPMP 081053Z AUTO 07005KT 10SM CLR 27/25 A2994 RMK AO2 SLP139 
    T02720250=
METAR KPNC 081053Z AUTO 02003KT 9SM CLR 22/21 A3005 RMK AO2 SLP165 
    T02220211=
METAR KPNS 081053Z 00000KT 6SM BR CLR 24/23 A3002 RMK AO2 SLP167 
    T02390233=
METAR KPOF 081053Z AUTO 00000KT 7SM CLR 24/23 A3005 RMK AO2 SLP168 
    T02440233 $=
METAR KPOU 081053Z 00000KT 5SM HZ BKN100 24/22 A3003 RMK AO2 SLP163 
    T02440217=
METAR KPRC 081053Z AUTO 21006KT 10SM CLR 18/00 A3009 RMK AO2 SLP096 
    T01830000=
METAR KPSC 081053Z AUTO 00000KT 10SM CLR 14/11 A2995 RMK AO2 SLP140 
    T01390106=
METAR KPSP 081053Z 15003KT 10SM CLR 23/12 A2973 RMK AO2 SLP062 
    T02330122=
METAR KPTK 081053Z 25003KT 8SM FEW140 SCT250 24/22 A3004 RMK AO2 
    SLP163 T02440217=
METAR KPUB 081053Z AUTO 27003KT 10SM OVC065 14/13 A3032 RMK AO2 
    SLP220 T01440133=
METAR KPUC 081053Z AUTO 35003KT 10SM CLR 14/02 A3022 RMK AO2 SLP163 
    T01390017 TSNO=
METAR KPUW 081053Z AUTO 00000KT 10SM CLR 10/06 A3007 RMK AO2 SLP171 
    T01000061=
METAR KRAL 081053Z AUTO VRB03KT 5SM BR OVC009 15/13 A2989 RMK AO2 
    SLP109 T01500128=
METAR KRBG 081053Z AUTO 01004KT 10SM CLR 18/12 A2992 RMK AO2 SLP128 
    T01780122=
METAR KRHI 081053Z AUTO 33003KT 9SM BKN003 BKN010 18/18 A3004 RMK 
    AO2 SLP168 T01830183=
METAR KRIW 081053Z AUTO 25005KT 10SM CLR 09/04 A3034 RMK AO2 SLP229 
    T00940039=
METAR KRME 081053Z AUTO 10005KT 5SM BR 21/20 A3008 RMK AO2 SLP181 
    T02110200 $=
METAR KRMG 081053Z AUTO 00000KT 7SM CLR 19/18 A3005 RMK AO2 SLP165 
    T01940183=
METAR KRSL 081053Z AUTO 35009KT 10SM BKN015 OVC029 18/18 A3016 RMK 
    AO2 SLP202 T01830178=
METAR KRSW 081053Z 00000KT 10SM CLR 24/22 A2996 RMK AO2 SLP143 
    T02390222=
METAR KRVS 081053Z 00000KT 10SM FEW004 BKN080 23/22 A3003 RMK AO2 
    LTG DSNT E TSE14RAE43 SLP171 P0006 T02280222=
METAR KRWL 081053Z AUTO 06008KT 5SM BR OVC001 08/08 A3038 RMK AO2 
    SLP220 T00830078=
####018002974####
SAUS20 KNKA 081054
METAR KMLC 081053Z AUTO 00000KT 10SM FEW070 24/23 A3004 RMK AO2 
    SLP162 T02390228=
METAR KMLP 081053Z AUTO 12009G16KT 10SM CLR 13/02 A3026 RMK AO2 
    SLP156 T01280017 TSNO=
METAR KMLS 081053Z AUTO 15005KT 10SM CLR 12/10 A3019 RMK AO2 SLP213 
    T01170100=
METAR KMLT 081053Z AUTO 16003KT 4SM BR OVC007 21/19 A3007 RMK AO2 
    SLP185 T02060194=
METAR KMLU 081053Z 00000KT 7SM CLR 24/23 A3005 RMK AO2 SLP175 
    T02440228=
METAR KMMK 081053Z AUTO 16004KT 1 3/4SM BR OVC008 25/23 A3006 RMK 
    AO2 SLP175 T02500228=
METAR KMNN 081053Z AUTO 00000KT 6SM BR CLR 20/18 A3009 RMK AO2 
    SLP183 T02000183=
METAR KMPO 081053Z AUTO 00000KT 5SM BR FEW095 20/18 A3011 RMK AO2 
    SLP181 T02000178=
METAR KMSO 081053Z AUTO 00000KT 10SM CLR 11/06 A3020 RMK AO2 SLP211 
    T01060056 $=
METAR KMSS 081053Z AUTO 23005KT 5SM HZ FEW060 24/21 A3002 RMK AO2 
    SLP162 T02390211=
METAR KMTH 081053Z AUTO 09007KT 4SM -RA SCT019 BKN024 OVC046 27/24 
    A2993 RMK AO2 LTG DSNT NE RAB52 SLP133 P0005 T02670239 $=
METAR KMTJ 081053Z AUTO 14006KT 10SM CLR 16/04 A3027 RMK AO2 SLP176 
    T01560044=
METAR KMVY 081053Z 13004KT 10SM CLR 22/20 A3009 RMK AO2 SLP188 
    T02170200=
METAR KMYF 081053Z AUTO 34005KT 10SM OVC013 16/13 A2990 RMK AO2 
    SLP121 T01610133 TSNO=
METAR KODO 081053Z AUTO 04007KT 8SM FEW120 21/19 A3008 RMK AO2 
    SLP144 T02060194=
METAR KOGB 081053Z AUTO 31006KT 10SM CLR 23/19 A2998 RMK AO2 SLP148 
    T02330189=
METAR KOGD 081053Z 18005KT 10SM CLR 17/07 A3010 RMK AO2 SLP138 
    T01670067=
METAR KOJC 081053Z AUTO 02003KT 6SM BR CLR 22/21 A3004 RMK AO2 
    SLP160 T02170211=
METAR KOLF 081053Z AUTO 00000KT 10SM BKN090 10/08 A3015 RMK AO2 
    SLP206 T01000083=
METAR KOMK 081053Z AUTO 32004KT 10SM CLR 14/08 A3006 RMK AO2 SLP172 
    T01440078=
METAR KONO 081053Z AUTO 20005KT 10SM CLR 12/06 A3005 RMK AO2 SLP164 
    T01170056=
METAR KONT 081053Z 21004KT 5SM BR OVC010 15/13 A2989 RMK AO2 SLP111 
    T01500128=
METAR KOPF 081053Z 00000KT 10SM CLR 26/24 A2994 RMK AO2 SLP139 
    T02610239=
METAR KORF 081051Z 11007KT 10SM BKN010 BKN110 26/23 A2997 RMK AO2
     SLP149 T02560233=
METAR KORL 081053Z 00000KT 10SM CLR 23/21 A3000 RMK AO2 SLP159 
    T02280211=
METAR KOSU 081053Z AUTO 00000KT 5SM BR CLR 21/19 A3009 RMK AO2 
    SLP180 T02110189=
METAR KOTM 081053Z AUTO 33003KT 7SM CLR 20/19 A3006 RMK AO2 SLP175 
    T02000194=
METAR KOVS 081053Z AUTO 00000KT 5SM BR FEW008 21/20 A3003 RMK AO2 
    SLP167 T02110200=
METAR KOWD 081053Z 15006KT 10SM BKN018 23/19 A3009 RMK AO2 SLP188 
    T02280189=
METAR KPAE 081053Z AUTO 00000KT 10SM CLR 19/12 A2997 RMK AO2 SLP145 
    T01890117=
METAR KPBG 081053Z AUTO 00000KT 6SM HZ CLR 24/22 A3001 RMK AO2 
    SLP160 T02440217=
METAR KPBI 081053Z 04005KT 10SM SCT023CB SCT150 BKN250 27/24 A2994 
    RMK AO2 SLP137 CB NE-S MOV SW CB DSNT SE VCSH NE-E S T02720239=
####018001278####
SAUS20 KNKA 081054
METAR KUAO 081053Z AUTO 00000KT 10SM CLR 18/12 A2988 RMK AO2 SLP118 
    T01780122=
METAR KUNO 081053Z AUTO 18003KT 10SM CLR 23/21 A3008 RMK AO2 SLP171 
    T02280211 TSNO=
METAR KUUU 081053Z AUTO 12003KT 1/4SM FG VV001 21/21 A3010 RMK AO2 
    SLP189 T02060206=
METAR KVEL 081053Z AUTO 27003KT 10SM CLR 16/06 A3022 RMK AO2 SLP170 
    T01610056=
METAR KVGT 081053Z AUTO 33005KT 10SM CLR 26/M04 A2984 RMK AO2 SLP066 
    T02561039 TSNO=
METAR KVIH 081053Z AUTO 00000KT 8SM FEW018 SCT100 23/22 A3005 RMK 
    AO2 SLP163 T02280217=
METAR KVLD 081053Z 00000KT 10SM CLR 19/18 A3002 RMK AO2 SLP172 
    T01940183=
METAR KVRB 081053Z 00000KT 10SM CLR 22/21 A2996 RMK AO2 SLP145 
    T02170211=
METAR KVUO 081053Z AUTO 00000KT 10SM CLR 16/13 A2988 RMK AO2 SLP119 
    T01610128=
METAR KWRL 081053Z AUTO 16009KT 10SM CLR 12/04 A3027 RMK AO2 SLP221 
    T01220039=
METAR KWST 081053Z AUTO 07004KT 10SM FEW004 OVC018 23/21 A3009 RMK 
    AO2 SLP187 T02280206=
METAR KYIP 081053Z 00000KT 6SM BR CLR 23/21 A3005 RMK AO2 SLP167 
    T02330211=
METAR KYKM 081053Z AUTO 26003KT 10SM CLR 12/07 A3002 RMK AO2 SLP158 
    T01170067=
METAR KZZV 081053Z AUTO 00000KT 3SM BR CLR 20/19 A3009 RMK AO2 
    SLP182 T02000189=
####018002953####
SAUS20 KNKA 081054
METAR KHFD 081053Z 14003KT 2 1/2SM BR OVC008 25/23 A3005 RMK AO2 
    SLP175 T02500228=
METAR KHHR 081053Z AUTO 23003KT 10SM OVC012 17/13 A2990 RMK AO2 
    SLP123 T01670128=
METAR KHIO 081053Z AUTO 00000KT 10SM CLR 15/12 A2989 RMK AO2 SLP116 
    T01500117=
METAR KHLC 081053Z AUTO 01008KT 10SM OVC022 18/16 A3021 RMK AO2 
    SLP213 T01780161=
METAR KHLN 081053Z AUTO 00000KT 10SM CLR 11/04 A3025 RMK AO2 SLP238 
    T01060039=
METAR KHQM 081053Z AUTO 26008KT 10SM 14/13 A2994 RMK AO2 SLP143 
    T01440128 $=
METAR KHRI 081053Z AUTO 00000KT 10SM CLR 14/08 A2994 RMK AO2 SLP133 
    T01390078=
METAR KHUF 081053Z 00000KT 4SM BR CLR 23/22 A3005 RMK AO2 SLP168 
    T02330217 $=
METAR KHUL 081053Z AUTO 21006KT 4SM BR SCT009 21/19 A3004 RMK AO2 
    SLP168 T02110189=
METAR KHVN 081053Z 12005KT 3SM BR OVC004 24/23 A3005 RMK AO2 CIG 
    002V008 SLP177 T02440228=
METAR KHVR 081053Z AUTO 23006KT 10SM CLR 08/07 A3019 RMK AO2 SLP218 
    T00830072=
METAR KHWO 081053Z AUTO 00000KT 10SM CLR 25/24 A2995 RMK AO2 SLP143 
    T02500239=
METAR KHZY 081053Z AUTO 00000KT 4SM BR CLR 21/19 A3010 RMK AO2 
    SLP182 T02060194=
METAR KIAG 081053Z AUTO 20004KT 5SM HZ CLR 24/21 A3005 RMK AO2 
    SLP166 T02390206=
METAR KICT 081053Z 34006KT 10SM BKN080 OVC200 22/21 A3009 RMK AO2 
    SLP175 T02220206 $=
METAR KIDA 081053Z AUTO 35006KT 10SM CLR 08/05 A3020 RMK AO2 SLP196 
    T00830050=
METAR KILM 081053Z 00000KT 9SM CLR 24/20 A2992 RMK AO2 SLP131 
    T02440200=
METAR KIML 081053Z AUTO 00000KT 10SM SCT075 16/14 A3026 RMK AO2 
    SLP232 T01560144=
METAR KINK 081053Z AUTO 36006KT 10SM SCT017 21/19 A3007 RMK AO2 
    SLP139 T02110194 TSNO=
METAR KIPL 081053Z AUTO 14005KT 10SM CLR 26/16 A2969 RMK AO2 SLP056 
    T02560161=
METAR KITR 081053Z AUTO 00000KT 8SM BKN005 BKN010 OVC055 16/15 A3030 
    RMK AO2 SLP221 T01610150=
METAR KIWI 081053Z AUTO 18005KT 10SM OVC003 20/19 A3011 RMK AO2 
    SLP195 T02000189=
METAR KIXD 081053Z 36003KT 3SM BR BKN002 22/21 A3005 RMK AO2 SLP165 
    T02170206=
METAR KJCT 081051Z AUTO 00000KT 8SM FEW014 22/21 A3001 RMK AO2
     SLP122 T02220211 TSNO=
METAR KJEF 081053Z 10004KT 10SM BKN005 BKN065 OVC095 24/23 A3003 RMK 
    AO2 CIG 003V009 SLP155 P0001 T02390228=
METAR KJER 081053Z AUTO 05011KT 10SM CLR 13/M02 A3012 RMK AO2 SLP165 
    T01281017=
METAR KJKL 081053Z AUTO 00000KT 4SM HZ CLR 23/20 A3012 RMK AO2 
    SLP182 T02280200=
METAR KJLN 081053Z 00000KT 10SM VCTS FEW013 BKN070 OVC095 23/22 
    A3006 RMK AO2 LTG DSNT N AND SW RAE0957B30E47 SLP167 P0000 
    T02280217=
METAR KLAA 081053Z AUTO 10005KT 10SM FEW016 OVC100 17/16 A3025 RMK 
    AO2 RAB08E52 SLP203 P0001 T01670161=
METAR KLAN 081053Z 00000KT 5SM BR FEW050 SCT130 SCT150 23/21 A3005 
    RMK AO2 SLP169 T02280211 $=
METAR KLAR 081053Z AUTO 35003KT 7SM BKN020 07/07 A3040 RMK AO2 
    SLP227 T00720067=
####018002992####
SAUS20 KNKA 081054
METAR KRXE 081053Z AUTO 05003KT 10SM CLR 09/06 A3022 RMK AO2 SLP200 
    T00890056=
METAR KSAF 081053Z AUTO 09003KT 10SM FEW110 14/11 A3032 RMK AO2 
    SLP180 T01390106=
METAR KSBA 081053Z 21004KT 10SM OVC013 14/12 A2990 RMK AO2 SLP123 
    T01440122 $=
METAR KSEA 081053Z 01008KT 10SM CLR 21/11 A2996 RMK AO2 SLP148 
    T02060111 $=
METAR KSEG 081053Z AUTO 00000KT 4SM HZ CLR 23/18 A3005 RMK AO2 
    SLP170 T02280178=
METAR KSFF 081053Z AUTO 00000KT 10SM CLR 13/11 A3006 RMK AO2 SLP167 
    T01280106=
METAR KSHN 081053Z AUTO 00000KT 10SM CLR 12/10 A2993 RMK AO2 SLP133 
    T01170100=
METAR KSHR 081053Z AUTO 00000KT 10SM CLR 07/04 A3026 RMK AO2 SLP234 
    T00670044=
METAR KSLC 081053Z 16007KT 10SM FEW130 18/07 A3009 RMK AO2 SLP136 
    T01830067=
METAR KSLN 081053Z AUTO 36005KT 5SM BR OVC006 21/19 A3012 RMK AO2 
    CIG 003V009 SLP188 T02060194=
METAR KSMQ 081053Z AUTO 00000KT 3SM BR CLR 23/21 A3002 RMK AO2 
    SLP163 T02280211=
METAR KSNA 081053Z 00000KT 8SM OVC015 18/12 A2989 RMK AO2 SLP121 
    T01830122=
METAR KSNS 081053Z AUTO 28005KT 9SM OVC009 13/11 A2991 RMK AO2 
    SLP139 T01280106=
METAR KSNY 081053Z AUTO 00000KT 10SM SCT065 16/14 A3031 RMK AO2 
    SLP231 T01610144 $=
METAR KSPB 081053Z AUTO 00000KT 10SM CLR 16/12 A2988 RMK AO2 SLP119 
    T01610117 $=
METAR KSPG 081053Z AUTO 09005KT 10SM CLR 26/22 A2997 RMK AO2 SLP148 
    T02610217=
METAR KSRQ 081053Z 05003KT 10SM CLR 23/22 A2996 RMK AO2 SLP146 
    T02330217=
METAR KSSI 081053Z AUTO 27005KT 10SM CLR 23/21 A3000 RMK AO2 SLP159 
    T02280211=
METAR KSTJ 081053Z AUTO 34009KT 7SM BKN005 23/21 A3006 RMK AO2 
    RAE0954B17E36 SLP172 P0001 T02280211=
METAR KSWO 081053Z AUTO 06003KT 8SM SCT080 23/21 A3004 RMK AO2 
    SLP159 T02280211=
METAR KTCC 081053Z AUTO 04006KT 10SM FEW009 BKN014 OVC100 18/16 
    A3023 RMK AO2 SLP176 T01780156=
METAR KTDZ 081053Z AUTO 00000KT 8SM CLR 23/19 A3006 RMK AO2 SLP171 
    T02330189=
METAR KTHV 081053Z AUTO 00000KT 4SM BR CLR 23/21 A3003 RMK AO2 
    SLP166 T02330211=
METAR KTKI 081053Z AUTO 00000KT 10SM BKN012 OVC018 25/23 A3002 RMK 
    AO2 RAB0957E23 SLP161 P0000 T02500233=
METAR KTMB 081053Z 35004KT 10SM CLR 27/25 A2994 RMK AO2 SLP137 
    T02670250=
METAR KTOP 081053Z AUTO 32006KT 10SM CLR 22/20 A3007 RMK AO2 SLP173 
    T02170200=
METAR KTOR 081053Z AUTO 30003KT 10SM BKN055 11/09 A3031 RMK AO2 
    SLP240 T01060094=
METAR KTPA 081053Z 00000KT 10SM SCT200 24/22 A2999 RMK AO2 SLP153 
    T02390217 $=
METAR KTTD 081053Z AUTO 00000KT 10SM FEW085 18/14 A2987 RMK AO2 
    SLP115 T01780144=
METAR KTTN 081053Z 00000KT 2 1/2SM BR FEW005 24/22 A3003 RMK AO2 
    SLP162 T02390217=
METAR KTUL 081053Z 00000KT 10SM -TSRA FEW007 BKN055 BKN080 23/22 
    A3002 RMK AO2 SLP157 OCNL LTGIC NE-E TS NE-E MOV N P0028 
    T02280222=
METAR KTWF 081053Z AUTO 12008KT 10SM CLR 10/01 A3012 RMK AO2 SLP152 
    T01000011=
####018000190####
SACA01 KMSC 081054
METAR TISX 081053Z 08009KT 10SM FEW023 28/24 A2999 RMK AO2 SLP155 
    T02780239=
METAR TIST 081053Z 08005KT 10SM CLR 28/24 A2999 RMK AO2 SLP157 
    T02830244=
####018002931####
SAUS20 KNKA 081054
METAR KLAW 081053Z AUTO 06003KT 10SM CLR 23/22 A3005 RMK AO2 SLP162 
    T02280217=
METAR KLBB 081053Z 02007KT 10SM FEW040 BKN120 BKN150 19/16 A3014 RMK 
    AO2 RAE05 SLP160 VCSH P0000 T01890161=
METAR KLBF 081053Z AUTO 00000KT 10SM SCT085 16/15 A3025 RMK AO2 
    SLP229 T01560150=
METAR KLEB 081053Z 00000KT 2 1/2SM BR SCT001 23/21 A3006 RMK AO2 
    SLP167 T02330211=
METAR KLEE 081053Z AUTO 04003KT 10SM CLR 22/22 A3001 RMK AO2 SLP160 
    T02220217=
METAR KLGB 081053Z 31004KT 10SM OVC015 17/13 A2989 RMK AO2 SLP122 
    T01670133=
METAR KLHX 081053Z AUTO 00000KT 10SM OVC095 16/14 A3029 RMK AO2 
    RAE0958 SLP208 T01610144 PNO $=
METAR KLNS 081053Z 00000KT 2 1/2SM HZ CLR 24/21 A3003 RMK AO2 SLP165 
    T02390211=
METAR KLOL 081053Z AUTO 36004KT 10SM CLR 21/M04 A3000 RMK AO2 SLP108 
    T02061039=
METAR KLOU 081053Z 00000KT 5SM HZ CLR 25/21 A3007 RMK AO2 SLP174 
    T02500211=
METAR KLOZ 081053Z AUTO 00000KT 2 1/2SM BR CLR 20/19 A3011 RMK AO2 
    SLP183 T02000189=
METAR KLPR 081053Z AUTO 00000KT 4SM HZ CLR 22/19 A3007 RMK AO2 
    SLP176 T02220189=
METAR KLUK 081053Z 00000KT 1 1/2SM R21L/3500V4500FT BCFG CLR 22/21 
    A3008 RMK AO2 SLP182 T02170211=
METAR KLVM 081053Z AUTO 31005KT 10SM CLR 04/02 A3029 RMK AO2 SLP236 
    T00390022=
METAR KLWD 081053Z AUTO 01007KT 9SM OVC017 21/21 A3009 RMK AO2 
    SLP181 T02110206=
METAR KLWV 081053Z AUTO 18003KT 2 1/2SM BR CLR 24/22 A3004 RMK AO2 
    SLP167 T02390217=
METAR KLXT 081053Z AUTO 02003KT 6SM BR CLR 22/21 A3005 RMK AO2 
    SLP168 T02170206=
METAR KMAF 081053Z 02005KT 10SM CLR 21/20 A3007 RMK AO2 SLP137 
    T02110200=
METAR KMAI 081053Z AUTO 00000KT 1/4SM FG BKN001 OVC008 23/22 A3002 
    RMK AO2 SLP163 T02330222=
METAR KMBS 081053Z 26007KT 7SM -RA SCT110 23/22 A3003 RMK AO2 RAB22 
    SLP165 P0000 T02330217=
METAR KMCI 081053Z 00000KT 10SM OVC095 22/21 A3006 RMK AO2 SLP168 
    T02170206 $=
METAR KMCK 081053Z AUTO 00000KT 10SM FEW049 BKN070 OVC085 16/16 
    A3024 RMK AO2 SLP227 T01610161=
METAR KMCO 081053Z 35004KT 10SM MIFG FEW015 FEW250 22/21 A2999 RMK 
    AO2 SLP155 T02170206=
METAR KMCW 081053Z AUTO 32006KT 7SM CLR 17/17 A3013 RMK AO2 SLP192 
    T01720167 $=
METAR KMFR 081053Z AUTO 20003KT 10SM CLR 23/12 A2989 RMK AO2 SLP106 
    T02280122=
METAR KMGW 081053Z 00000KT 5SM BR CLR 21/18 A3012 RMK AO2 SLP185 
    T02060183=
METAR KMGY 081053Z AUTO 00000KT 4SM HZ CLR 23/20 A3009 RMK AO2 
    SLP178 T02280200=
METAR KMHE 081053Z AUTO 00000KT 10SM CLR 18/14 A3017 RMK AO2 SLP209 
    T01780144 TSNO=
METAR KMHT 081053Z 19006KT 3SM BR OVC010 23/21 A3007 RMK AO2 SFC VIS 
    3 SLP189 T02330211=
METAR KMIA 081053Z 01003KT 10SM FEW025TCU SCT100 BKN250 27/24 A2994 
    RMK AO2 SLP139 TCU E MOV SW T02720244=
METAR KMIE 081053Z AUTO 00000KT 8SM BKN100 23/20 A3007 RMK AO2 
    SLP169 T02280200=
####018000110####
SAUS44 KJAN 081055
MTRJAN
METAR KJAN 081054Z 00000KT 10SM CLR 23/22 A3005 RMK AO2 SLP172 
T02330222 $
####018000116####
SAUS45 KLKN 081055
MTRELY
METAR KELY 081053Z AUTO 17009KT 10SM CLR 07/M04 A3022 RMK AO2 SLP140 
T00721039 $
####018000108####
SAUS44 KMRX 081055
MTRNIP
METAR KNIP 081053Z 25003KT 10SM CLR 22/21 A3001 RMK AO2 SLP158 
T02220206
####018000134####
SAUS42 KKEY 081055
MTRNQX
METAR KNQX 081053Z 06004KT 10SM SCT022 SCT080 BKN200 28/25 A2993 RMK 
AO2 SLP135 T2 SET T02830250 $
####018000110####
SAUS41 KBTV 081055
MTRBTV
METAR KBTV 081054Z 00000KT 5SM HZ CLR 24/22 A3002 RMK AO2 SLP162 
T02440217
####018000077####
SPUS75 KWBC 081055
SPECI
PASI 081051Z 25003KT 10SM BKN002 13/12 A3018=
####018000093####
SABE31 TXKF 081050
METAR TXKF 081055Z 15012KT 9999 FEW013 SCT180 BKN300 26/23
Q1019
####018000099####
SABA31 MYGF 081049
METAR MYGF 081100Z 05003KT 9999 FEW020TCU SCT150 24/23 A2996 RMK
TCU S
####018000189####
SADL35 EDZO 081050
METAR EDMO 081050Z 08005KT 330V120 CAVOK 24/08 Q1023=
METAR EDOP 081050Z 20011KT 150V220 CAVOK 28/09 Q1020=
METAR EDTD 081050Z 14004KT 340V210 CAVOK 25/11 Q1023=
####018000341####
SADL33 EDZO 081050
METAR EDFE 081050Z 20003KT CAVOK 28/11 Q1020=
METAR EDFH 081050Z 11006KT 060V170 CAVOK 27/11 Q1022=
METAR EDFM 081050Z VRB05KT 140V140 CAVOK 29/09 Q1020=
METAR EDLV 081050Z 18007KT 120V270 CAVOK 30/11 Q1019=
METAR EDTL 081050Z VRB03KT CAVOK 29/13 Q1020=
METAR EDVK 081050Z 21008KT 170V250 CAVOK 26/10 Q1021=
####018000757####
SADL34 EDZO 081050
METAR EDAC 081050Z VRB03KT 200V200 CAVOK 26/11 Q1022=
METAR EDAH 081050Z VRB02KT CAVOK 24/09 Q1022=
METAR EDGS 081050Z 15006KT 040V210 CAVOK 25/10 Q1022=
METAR EDHL 081050Z 16007KT 120V200 CAVOK 28/13 Q1019=
METAR EDJA 081050Z VRB03KT CAVOK 25/12 Q1023=
METAR EDLN 081050Z 21005KT 140V280 CAVOK 30/11 Q1019=
METAR EDLP 081050Z VRB04KT CAVOK 29/11 Q1020=
METAR EDLW 081050Z 20006KT 140V250 CAVOK 30/09 Q1020=
METAR EDMA 081050Z 10006KT 020V160 CAVOK 24/09 Q1022=
METAR EDNY 081050Z 19006KT CAVOK 25/15 Q1022=
METAR EDQM 081050Z VRB04KT CAVOK 24/10 Q1023=
METAR EDRZ 081050Z 13004KT 050V220 CAVOK 29/12 Q1021=
METAR EDSB 081050Z 35005KT 310V050 CAVOK 28/13 Q1020=
METAR EDXW 081050Z 22012KT CAVOK 23/12 Q1019=
####018000492####
SAUK32 EGGY 081050
METAR EGAA 081050Z 23012KT 9999 FEW044 16/10 Q1014=
METAR EGAC 081050Z 21013KT 9999 FEW022 SCT033 18/08 Q1014=
METAR EGFF 081050Z 23006KT 190V280 9999 FEW025 20/10 Q1018=
METAR EGGW 081050Z 21005KT 160V250 9999 BKN023 20/13 Q1019=
METAR EGLC 081050Z VRB03KT 9999 FEW030 21/14 Q1018=
METAR EGNM 081050Z 22011KT 180V270 9999 SCT025 19/09 Q1016=
METAR EGNX 081050Z 23012KT 200V270 9999 FEW045 20/08 Q1018=
METAR EGPD 081050Z 22014KT CAVOK 18/08 Q1010 NOSIG=
####018000401####
SAUK33 EGGY 081050
METAR EGGD 081050Z 26007KT 9999 FEW031 20/11 Q1019=
METAR EGGP 081050Z 23008KT 180V260 9999 SCT030 SCT045 19/10
    Q1017=
METAR EGHI 081050Z 22003KT 9999 BKN018 20/14 Q1019 =
METAR EGNS 081050Z NIL=
METAR EGNT 081050Z 25011KT 210V280 9999 SCT038 18/09 Q1015=
METAR EGNV 081050Z 22013KT 9999 SCT033 19/11 Q1016=
METAR EGPB 081050Z 20014KT 9999 FEW012 15/11 Q1007=
####018000490####
SASN32 ESWI 081050
METAR ESKN 081050Z 27010KT 230V300 9999 FEW047 24/12 Q1018=
METAR ESOE 081050Z NIL=
METAR ESOK 081050Z 22009KT 9999 BKN022 18/13 Q1017=
METAR ESOW 081050Z 23012KT CAVOK 23/13 Q1017=
METAR ESSA 081050Z 24011KT CAVOK 24/13 Q1017 NOSIG=
METAR ESSB 081050Z 25007KT 210V280 CAVOK 24/11 Q1017=
METAR ESSD 081050Z AUTO 25009KT 9999NDV BKN027/// 20/13 Q1016=
METAR ESSP 081050Z 25014KT 220V280 CAVOK 24/12 Q1018=
METAR ESSV 081050Z 28007KT CAVOK 21/13 Q1020=
####018000515####
SASN35 ESWI 081050
METAR ESGL 081050Z AUTO 22010KT 180V260 9999NDV FEW033/// SCT038/// 
BKN049/// 22/15 Q1017=
METAR ESGR 081050Z AUTO 22013KT 9999NDV SCT043/// BKN057/// 23/13
Q1018=
METAR ESKM 081050Z NIL=
METAR ESNL 081050Z 14009KT 9999 FEW040 20/11 Q1013=
METAR ESNX 081050Z AUTO 19006KT 8000NDV RA SCT012/// BKN030///
BKN040/// 15/13 Q1014 RESHRA=
METAR ESNY 081050Z AUTO 27012KT 9999 SCT040 BKN050 24/16 Q1014=
METAR ESSF 081050Z NIL=
METAR ESSK 081050Z NIL=
METAR ESUD 081050Z NIL=
####018000079####
SADN34 EKCH 081050 RRA
METAR EKGF 081050Z 22010KT 9999 FEW047 16/16 Q1017=
####018000470####
SAUK35 EGGY 081050
METAR EGHH 081050Z VRB03KT 9999 SCT029 20/16 Q1019=
METAR EGKA 081050Z 21008KT 9999 FEW017 20/16 Q1019=
METAR EGKB 081050Z 30003KT 9999 BKN025 22/15 Q1019 =
METAR EGLF 081050Z VRB03KT 9999 FEW013 SCT017 19/15 Q1019=
METAR EGMC 081050Z 30003KT 9999 FEW026 23/16 Q1018=
METAR EGMD 081050Z 21007KT 9999 FEW018 22/16 Q1019=
METAR EGMH 081050Z 23005KT 160V300 9999 FEW016 24/17 Q1019 =
METAR EGTC 081050Z 23006KT 9999 FEW020 19/12 Q1018=
####018000187####
SASN34 ESWI 081050
METAR ESDF 081050Z 22009KT 190V250 CAVOK 23/11 Q1021=
METAR ESPA 081050Z 14011KT CAVOK 18/14 Q1016=
METAR ESSL 081050Z 24008KT 200V310 9999 SCT045 23/12 Q1018=
####018000400####
SAFI32 EFHK 081050
EFHA 081050Z VRB01KT 9999 FEW030TCU SCT200 23/16 Q1015=
EFHF 081050Z 31005KT 260V360 9999 FEW042 BKN050 28/17 Q1014=
EFKA 081050Z 24005KT 110V290 9999 FEW040 BKN200 24/12 Q1015=
EFKK 081050Z VRB04KT 9999 SCT048 24/11 Q1015=
EFMA 081050Z 19008KT 150V220 CAVOK 21/13 Q1016=
EFPO 081050Z 28005KT 230V320 CAVOK 24/13 Q1016=
EFSI 081050Z AUTO 21003KT CAVOK 24/12 Q1015=
####018000089####
SAUK34 EGGY 081050 CCA
METAR COR EGHK 081050Z 15006KT 9999 FEW022 17/15 Q1018 NOSIG=
####018000497####
SAUK31 EGGY 081050
METAR EGBB 081050Z 25008KT 9999 FEW033 21/10 Q1018=
METAR EGCC 081050Z 24009KT 190V270 9999 SCT036 SCT048 19/10
    Q1017=
METAR EGKK 081050Z 21006KT 150V290 9999 SCT024 23/15 Q1018=
METAR EGLL 081050Z 25006KT 180V280 9999 BKN019 21/14 Q1019=
METAR EGPF 081050Z 22018KT 9999 FEW025 SCT030 17/10 Q1013=
METAR EGPH 081050Z 22014KT 9999 FEW030 17/09 Q1013=
METAR EGPK 081050Z 23015KT 9999 FEW024 17/09 Q1014=
METAR EGSS 081050Z 23007KT 9999 SCT018 20/15 Q1018=
####018000523####
SASN33 ESWI 081050
METAR ESNG 081050Z NIL=
METAR ESNK 081050Z AUTO 16009KT 9999NDV FEW100/// 23/12 Q1012=
METAR ESNN 081050Z 14012KT 9999 FEW044 SCT053 21/14 Q1013=
METAR ESNO 081050Z AUTO 16010KT 9999NDV FEW040/// 20/12 Q1014=
METAR ESNQ 081050Z 18010KT CAVOK 18/09 Q1013=
METAR ESNS 081050Z AUTO 17011KT 130V200 9999NDV ////// 22/08 Q1014=
METAR ESNU 081050Z 14008KT CAVOK 20/12 Q1015=
METAR ESNZ 081050Z 19011KT 9999 FEW044 19/11 Q1012=
METAR ESUT 081050Z AUTO 15009KT 9999NDV OVC074/// 18/10 Q1010=
####018000516####
SAUK34 EGGY 081050
METAR EGHD 081050Z 19005KT 9999 FEW022 20/12 Q1019=
METAR EGHE 081050Z NIL=
METAR EGHK 081050Z 15006KT 9999 FEW022 17/15 Q1018=
METAR EGHQ 081050Z 28006KT 240V300 9999 FEW025 17/12 Q1019=
METAR EGJA 081050Z 28005KT 9999 FEW003 SCT006 19/16 Q1019=
METAR EGJB 081050Z VRB03KT 9999 FEW012 20/17 Q1019=
METAR EGJJ 081050Z 32006KT 290V070 9999 FEW015 21/17 Q1019 NOSIG=
METAR EGTE 081050Z 20007KT 150V230 9999 FEW030 21/13 Q1018=
METAR EGTG 081050Z 27005KT 9999 FEW025 20/12 Q1018=
####018000639####
SPNA14 KAWN 081055 RRI
SPECI KEGI 081049Z AUTO 00000KT 1SM R18/2400VP6000FT BR CLR 21/21 A3003
      RMK AO2 SLP167 $=
SPECI KEGI 081051Z AUTO 00000KT 1 1/4SM R18/2400VP6000FT BR CLR 21/21
      A3003 RMK AO2 SLP168 $=
SPECI KEGI 081052Z AUTO 00000KT 1 3/4SM R18/2400VP6000FT BR CLR 21/21
      A3003 RMK AO2 SLP168 $=
SPECI KNEL 081051Z AUTO 00000KT 2SM BR BKN005 OVC100 24/22 A3003 RMK
      AO2 $=
SPECI KSKF 081051Z 04007KT 9SM -RA BKN013 BKN021 25/ A2992 RMK AO2A
      RAB1051 SLP123 $=
SPECI KWRI 081051Z AUTO 00000KT 1 1/4SM R18/5000VP6000FT R24/4500VP6000FT
      BR SCT001 24/24 A3001 RMK AO2 SLP162 $=
####018000094####
SAXX70 KAWN 081000 RRX
METAR KQEJ 081040Z AUTO 16002KT 7SM DZ SCT045 24/19 A2992 RMK A02=
####018000170####
SAAK17 KAWN 081100 RRA
PACZ SA 1055 AWOS MM 10 50/48/0306/005=
PAEH SA 1055 AWOS CLR BLO 120 10 48/-20/0000/999=
PAIM SA 1055 AWOS CLR BLO 120 10 51/45/3105/008=
####018000089####
SAZA42 FAJS 081100
METAR FAJS 081100Z 06007KT 020V080 9999 SCT039 14/04 Q1035 NOSIG=
####018000408####
SANO37 ENMI 081050
METAR ENNO 081050Z 14010KT 9999 FEW020 SCT025 BKN050 19/14 Q1014=
METAR ENOV 081050Z VRB05KT 9999 VCSH BKN055 18/06 Q1010 =
METAR ENSD 081050Z NIL=
METAR ENSG 081050Z 24008KT 170V280 9999 SCT055 17/07 Q1012=
METAR ENSN 081050Z 16007KT 9999 BKN013 16/14 Q1016=
METAR ENSR 081050Z 36006KT 9999 FEW050 SCT070 19/10 Q1011=
METAR ENSS 081050Z 12006KT 9999 BKN022 09//08 Q1018 =
####018000406####
SANO35 ENMI 081050
METAR ENMS 081050Z VRB06KT 9999 FEW050 SCT060 22/08 Q1009 =
METAR ENRM 081050Z 03005KT 360V070 CAVOK 18/10 Q1010=
METAR ENRS 081050Z 13005KT 100V160 9999 -SHRA NSC 11/10 Q1010=
METAR ENSK 081050Z 14002KT CAVOK 19/09 Q1010=
METAR ENSO 081050Z 19012KT 9999 SCT025 18/11 Q1013=
METAR ENST 081050Z VRB02 CAVOK 17/11 Q1010=
METAR ENVD 081050Z 12007KT 9999 BKN020 12/08 Q1018=
####018000319####
SANO34 ENMI 081050
METAR ENBN 081050Z 35009KT CAVOK 17/10 Q1010=
METAR ENBV 081050Z NIL=
METAR ENDI 081050Z NIL=
METAR ENFG 081050Z NIL=
METAR ENHF 081050Z 20009KT CAVOK 18/09 Q1012 =
METAR ENRA 081050Z VRB01KT 9999 SCT050TCU 22/09 Q1008=
METAR ENSH 081050Z 15002KT 9999 VCSH FEW040 BKN060 17/08 Q1010=
