####018000102####
SPUS41 KWBC 081035
SPECI
KLUK 081031Z AUTO 00000KT 1/2SM R21L/1000V5500FT FG CLR 21/21
A3008=
####018000512####
SAFR36 LFPW 081030
METAR LFGJ 081030Z AUTO 19006KT 150V240 9999NDV NSC 28/14 Q1020=
METAR LFMD 081030Z AUTO 14008KT 100V180 9999NDV NSC 30/20 Q1020=
METAR LFOT 081030Z AUTO 12004KT 040V190 9999NDV NSC 30/12 Q1018=
METAR LFRC 081030Z AUTO 34005KT 280V060 9999NDV NSC 20/15 Q1019=
METAR LFRG 081030Z AUTO 04003KT 310V120 9999NDV NSC 25/13 Q1019=
METAR LFBA 081030Z NIL=
METAR LFBE 081030Z NIL=
METAR LFJR 081030Z NIL=
METAR LFMH 081030Z NIL=
METAR LFPN 081030Z NIL=
METAR LFRK 081030Z NIL=
####018000466####
SAFR37 LFPW 081030
METAR LFAQ 081030Z AUTO 24004KT 160V300 9999NDV NSC 28/12 Q1019=
METAR LFBU 081030Z AUTO 11006KT 060V230 9999NDV NSC 31/13 Q1018=
METAR LFLN 081030Z AUTO VRB03KT 9999NDV NSC 30/13 Q1020=
METAR LFPM 081030Z VRB02KT CAVOK 30/15 Q1019=
METAR LFSD 081030Z AUTO VRB03KT 9999NDV NSC 28/14 Q1020=
METAR LFTW 081030Z AUTO 12004KT 050V190 9999NDV NSC 31/14 Q1020=
METAR LFRH 081030Z NIL=
METAR LFRQ 081030Z NIL=
METAR LFRT 081030Z NIL=
####018000075####
SACN50 CWAO 081015
VOC SA 1015 AUTO8 M M M M/12/09/0000/M/M M 98MM=

####018000394####
SARO31 LROM 081030
METAR LRBS 081030Z 31003KT 280V350 9999 FEW020 SCT049 21/14 Q1017
NOSIG=
METAR LRCK 081030Z 01010KT 320V050 9999 FEW035 24/15 Q1015 NOSIG=
METAR LROP 081030Z 29003KT 240V350 9999 FEW040CB FEW049 21/14 Q1016
880///95 NOSIG=
METAR LRSB 081030Z 04004KT 360V090 9999 FEW017 SCT028 OVC086 16/12
Q1020=
METAR LRTR 081030Z 01007KT 320V050 9999 SCT030 22/15 Q1020=
####018000365####
SAFR31 LFPW 081030
METAR LFLL 081030Z VRB03KT CAVOK 29/14 Q1020 NOSIG=
METAR LFMN 081030Z 10008KT 9999 FEW023 29/21 Q1020 NOSIG=
METAR LFPG 081030Z 16008KT 120V200 CAVOK 29/09 Q1019 NOSIG=
METAR LFPO 081030Z 14004KT 080V190 CAVOK 29/10 Q1019 NOSIG=
METAR LFQQ 081030Z VRB04KT CAVOK 28/13 Q1019 NOSIG=
METAR LFRB 081030Z NIL=
METAR LFRS 081030Z NIL=
####018000569####
SAFR35 LFPW 081030
METAR LFMI 081030Z AUTO 24006KT 180V310 9999NDV NSC 32/16 Q1020=
METAR LFMK 081030Z AUTO 09014KT 9999NDV NSC 31/15 Q1019=
METAR LFRD 081030Z AUTO 02006KT 340V110 9999NDV NSC 21/15 Q1019=
METAR LFRN 081030Z AUTO VRB04KT 9999NDV NSC 26/15 Q1018=
METAR LFRO 081030Z AUTO 01004KT 320V050 9999NDV BKN019 BKN190
20/16 Q1019=
METAR LFRZ 081030Z AUTO 01004KT 290V090 9999NDV NSC 29/13 Q1018=
METAR LFSB 081030Z 25003KT 170V320 CAVOK 29/11 Q1021 NOSIG=
METAR LFST 081030Z 15004KT 080V230 CAVOK 28/11 Q1020 NOSIG=
METAR LFTH 081030Z NIL=
####018000438####
SAFR32 LFPW 081030
METAR LFBD 081030Z 08011KT CAVOK 31/12 Q1017 NOSIG=
METAR LFBH 081030Z AUTO 33006KT 9999NDV NSC 29/15 Q1017=
METAR LFBO 081030Z 12010KT 080V160 CAVOK 32/12 Q1018 NOSIG=
METAR LFML 081030Z 27006KT 9999 FEW050 31/17 Q1020 NOSIG=
METAR LFBI 081030Z NIL=
METAR LFBL 081030Z NIL=
METAR LFBP 081030Z NIL=
METAR LFBT 081030Z NIL=
METAR LFBZ 081030Z NIL=
METAR LFLB 081030Z NIL=
METAR LFLX 081030Z NIL=
####018000641####
SAFR34 LFPW 081030
METAR LFCR 081030Z AUTO VRB04KT 9999NDV NSC 31/06 Q1022=
METAR LFJL 081030Z AUTO 29005KT 270V340 9999NDV NSC 28/09 Q1021=
METAR LFLP 081030Z AUTO VRB02KT 9999NDV R01/0800VP2000D FG NSC
28/13 Q1022=
METAR LFMU 081030Z AUTO 13007KT 090V170 9999NDV NSC 30/12 Q1020=
METAR LFOH 081030Z AUTO 35014KT //// R23///// NSC 21/13 Q1019=
METAR LFOK 081030Z AUTO VRB02KT 9999NDV NSC 29/10 Q1020=
METAR LFPB 081030Z AUTO 21004KT 150V280 9999NDV NSC 30/10 Q1019=
METAR LFLS 081030Z NIL=
METAR LFLY 081030Z NIL=
METAR LFMT 081030Z NIL=
METAR LFOB 081030Z NIL=
METAR LFOP 081030Z NIL=
METAR LFSN 081030Z NIL=
####018000085####
SAYG31 LYBM 081030 RRA
METAR LYTV 081030Z 34006KT 9999 FEW053 28/09 Q1017 NOSIG=
####018000169####
SACY31 LCLK 081030
METAR LCLK 081030Z 18016KT 9999 FEW025 29/23 Q1008 NOSIG=
METAR LCPH 081030Z 24008KT 210V280 9999 FEW030 29/22 Q1009=
METAR LCNC 081030Z NIL=
####018000337####
SAFR33 LFPW 081030
METAR LFKJ 081030Z 23010KT 9999 FEW026 28/23 Q1019 NOSIG=
METAR LFMV 081030Z AUTO VRB04KT 9999NDV NSC 32/15 Q1020=
METAR LFSL 081030Z AUTO 13005KT 070V170 9999NDV NSC 29/14 Q1020=
METAR LFKB 081030Z NIL=
METAR LFKC 081030Z NIL=
METAR LFKF 081030Z NIL=
METAR LFLC 081030Z NIL=
METAR LFMP 081030Z NIL=
####018000110####
SAUK36 EGGY 081020 CCA
METAR COR EGSH 081020Z 24008KT 210V280 9999 SCT012 SCT019 21/16
    Q1018 NOSIG=
####018000088####
SAKO31 RKSI 081030
METAR RKSI 081030Z 15005KT 9999 FEW040 OVC110 24/18 Q1008 NOSIG=
####018000075####
SACN50 CWAO 081030
VOC SA 1030 AUTO8 M M M M/12/09/0000/M/M M 88MM=

####018000082####
SPCN48 CWAO 081033
SPECI CYGV 081033Z AUTO 08004KT 9SM OVC004 14/12 A3004=

####018000237####
SATS40 DTTA 081030
METAR DTMB 081030Z 03008KT CAVOK 28/17 Q1019 NOSIG=
METAR DTNZ 081030Z AUTO 10011KT CAVOK 29/16 Q1019=
METAR DTTA 081030Z 05004KT CAVOK 30/18 Q1019  NOSIG=
METAR DTTJ 081030Z 07008KT CAVOK 30/21 Q1019 NOSIG=
####018000092####
SAMC31 GMMC 081030 RRA
METAR GMME 081030Z 36006KT 6000 SCT010 BKN015 24/19 Q1016 NOSIG=
####018000370####
SAEW33 LEMM 081030
METAR GCLP 081030Z 02024KT 350V050 9999 FEW020 25/18 Q1017 NOSIG=
METAR COR GCXO 081030Z 28013KT 250V310 9999 R12/1000VP2000U VCFG
FEW001 SCT003 18/17 Q1020 NOSIG=
METAR GCTS 081030Z 07014KT 9999 FEW015 24/18 Q1018 NOSIG=
METAR GCRR 081030Z 36014G26KT 320V040 9999 FEW020 25/18 Q1017=
METAR GCFV 081030Z 06011KT 9999 FEW018 23/18 Q1017=
####018000314####
SABN31 OBBI 081000
METAR OBBI 081000Z 36010KT 7000 NSC 37/25 Q1000 BECMG 8000=
METAR OEDF 081000Z 01016KT CAVOK 45/04 Q0999 OOSIG=
METAR OEDR 081000Z 04812KT 8000 SKC 44/09 Q0998 NOSIG=
METAR OTBD 081000Z 03008KT 360V070 6000 NSC 37/25 Q0999 NOSIG=
METAR OKBK 081000Z 35018KT CAVOK 47/M10 Q1000 NOSIG=
####018000763####
SAEW32 LEMM 081030
METAR LEAS 081030Z 34004KT 290V020 9999 SCT003 OVC014 20/19 Q1019
NOSIG=
METAR LEBB 081030Z 29010KT 8000 NSC 27/21 Q1015 NOSIG=
METAR LECO 081030Z 00000KT 9999 FEW010 24/21 Q1014=
METAR LEGE 081030Z 10001KT CAVOK 33/15 Q1019=
METAR LEST 081030Z 12009KT 080V140 CAVOK 22/19 Q1015 NOSIG=
METAR LEZG 081030Z 09009KT 060V120 CAVOK 33/16 Q1018=
METAR LESO 081030Z 03006KT 340V060 CAVOK 25/20 Q1015=
METAR LEVT 081030Z 09001KT CAVOK 32/15 Q1018=
METAR LERS 081030Z 21007KT 150V260 CAVOK 28/17 Q1019=
METAR LEMH 081030Z VRB03KT CAVOK 29/20 Q1021=
METAR LEAM 081030Z 07010KT 020V100 CAVOK 37/04 Q1016=
METAR LEGR 081030Z 17013KT 140V200 9999 FEW060 38/07 Q1018=
METAR LERL 081030Z 06008KT 340V100 9999 FEW050 32/10 Q1019=
####018000077####
SPCN51 CWAO 081033
SPECI CZBF 081033Z 00000KT 3/8SM FG VV002 RMK FG8=

####018000372####
SAPO31 LPMG 081030
METAR LPFR 081030Z 25008KT 210V290 9999 SCT011 BKN012 24/20 Q1016=
METAR LPMA 081030Z 22005KT 9999 FEW016 24/16 Q1020 RS17005KT 
0519004KT 2302013KT=
METAR LPPR 081030Z 22010KT 5000 BR FEW003 SCT006 BKN250 22/18 Q1014=
METAR LPPS 081030Z 01011KT 340V040 9999 FEW016 22/15 Q1020=
METAR LPPT 081030Z 24006KT 200V270 CAVOK 27/19 Q1015 NOSIG=
####018000087####
SAUZ31 UTTW 081030
METAR UTNU 081030Z VRB01MPS CAVOK 42/07 Q1007 R13/CLRD60 NOSIG=
####018000088####
SPUS72 KWBC 081035
SPECI
KTXK 081032Z AUTO 00000KT 1 1/4SM BR OVC001 23/23 A3005=
####018000370####
SAUS20 KNKA 081035
METAR KDUC 081036Z AUTO 03003KT 10SM CLR 22/22 A3004 RMK AO2=
METAR KL35 081033Z AUTO 00000KT 10SM CLR 06/M05 A3017 RMK AO2=
SPECI KMAI 081033Z AUTO 00000KT 3SM BR SCT001 23/22 A3002 RMK AO2=
METAR KPVJ 081030Z AUTO 00000KT 7SM CLR 24/23 A3003 RMK AO2=
SPECI KSSF 081034Z AUTO 04006KT 10SM SCT015 BKN020 OVC045 26/23 
    A2992 RMK AO2=
####018000093####
SASA KAWN 081000 RRH
METAR SKBO 081029Z VRB02KT 5000 BR SCT012 SCT070 11/11 A3029 NOSIG=
####018001836####
SAEU KAWN 081000 RRX
METAR LEPP 081030Z 19003KT 9999 FEW060 34/15 Q1019=
METAR LFBC 081030Z AUTO 09011KT 9999NDV NSC 33/11 Q1016=
METAR LFBF 081030Z AUTO 11009KT 080V160 9999NDV // NSC 31/15 Q1018=
METAR LFBG 081030Z AUTO 12008KT 070V150 9999NDV NSC 31/15 Q1017=
METAR LFBM 081030Z AUTO 11009KT 070V140 9999NDV NSC 33/17 Q1016=
METAR LFKS 081030Z AUTO 10005KT 040V160 9999NDV NSC 30/20 Q1020=
METAR LFMI 081030Z AUTO 24006KT 180V310 9999NDV NSC 32/16 Q1020=
METAR LFMY 081030Z 21005KT 160V280 CAVOK 32/15 Q1020=
METAR LFOA 081030Z AUTO 10004KT 020V160 9999NDV NSC 29/13 Q1019=
METAR LFOC 081030Z AUTO VRB04KT 9999NDV NSC 30/10 Q1019=
METAR LFOJ 081030Z 17004KT 120V210 CAVOK 30/13 Q1019=
METAR LFPC 081030Z 21005KT 140V290 CAVOK 29/11 Q1019=
METAR LFPO 081030Z 14004KT 080V190 CAVOK 29/10 Q1019 NOSIG=
METAR LFPV 081030Z AUTO 18003KT 140V240 9999NDV NSC 28/10 Q1019=
METAR LFQI 081030Z 23006KT 180V280 CAVOK 29/11 Q1019=
METAR LFQQ 081030Z VRB04KT CAVOK 28/13 Q1019 NOSIG=
METAR LFSD 081030Z AUTO VRB03KT 9999NDV NSC 28/14 Q1020=
METAR LFSF 081030Z AUTO 31003KT 260V360 9999NDV NSC 29/10 Q1020=
METAR LFSI 081030Z AUTO 31003KT 220V360 9999NDV NSC 30/10 Q1020=
METAR LFSO 081030Z AUTO 23004KT 150V300 9999NDV NSC 29/11 Q1021=
METAR LFSR 081030Z AUTO VRB03KT 9999NDV NSC 29/10 Q1019=
METAR LFSX 081030Z AUTO 14006KT 090V210 9999NDV NSC 29/13 Q1021=
METAR LRBS 081030Z 31003KT 280V350 9999 FEW020 SCT049 21/14 Q1017 NOSIG=
METAR LRCK 081030Z 01010KT 320V050 9999 FEW035 24/15 Q1015 NOSIG=
METAR LROP 081030Z 29003KT 240V350 9999 FEW040CB FEW049 21/14 Q1016
      880///95 NOSIG=
METAR LRSB 081030Z 04004KT 360V090 9999 FEW017 SCT028 OVC086 16/12
      Q1020=
METAR LRTR 081030Z 01007KT 320V050 9999 SCT030 22/15 Q1020=
METAR LYTV 081030Z 34006KT 9999 FEW053 28/09 Q1017 NOSIG=
####018000701####
SARS18 KAWN 081000 RRH
METAR BIKF 081030Z 03024KT 9999 FEW015 SCT032 BKN070 10/05 Q0993=
METAR LUKK 081030Z 33008KT 270V360 9999 SCT026 23/16 Q1015 26CLRD65
      NOSIG=
METAR UBBB 081030Z 35020KT CAVOK 33/23 Q1010 NOSIG RMK R88CLRD70=
METAR UKBB 081030Z 27004MPS 250V310 9999 BKN030 25/18 Q1014 88CLRD95
      NOSIG=
METAR UKFF 081030Z 00000MPS 9999 SCT040 29/17 Q1013 01010070 NOSIG=
METAR UKLL 081030Z 32004MPS 260V010 9999 BKN046 18/11 Q1021 31210365
      NOSIG=
METAR UKOO 081030Z 35004MPS 330V040 CAVOK 26/15 Q1014 34090070 NOSIG=
METAR UTSS 081030Z 08005MPS 9999 NSC 36/13 Q1010 R88/70D NOSIG=
METAR UTTT 081030Z 36003MPS 280V360 CAVOK 38/05 Q1010 R08R/CLRD70 NOSIG=
####018001898####
SAEW KAWN 081000 RRM
METAR ETGY 081020Z 22004KT 9999 FEW120 BKN250 29/10 Q1019 BLU/=
METAR LFBC 081030Z AUTO 09011KT 9999NDV NSC 33/11 Q1016=
METAR LFBF 081030Z AUTO 11009KT 080V160 9999NDV // NSC 31/15 Q1018=
METAR LFBG 081030Z AUTO 12008KT 070V150 9999NDV NSC 31/15 Q1017=
METAR LFBM 081030Z AUTO 11009KT 070V140 9999NDV NSC 33/17 Q1016=
METAR LFCR 081030Z AUTO VRB04KT 9999NDV NSC 31/06 Q1022=
METAR LFJL 081030Z AUTO 29005KT 270V340 9999NDV NSC 28/09 Q1021=
METAR LFKS 081030Z AUTO 10005KT 040V160 9999NDV NSC 30/20 Q1020=
METAR LFLL 081030Z VRB03KT CAVOK 29/14 Q1020 NOSIG=
METAR LFMI 081030Z AUTO 24006KT 180V310 9999NDV NSC 32/16 Q1020=
METAR LFMK 081030Z AUTO 09014KT 9999NDV NSC 31/15 Q1019=
METAR LFMN 081030Z 10008KT 9999 FEW023 29/21 Q1020 NOSIG=
METAR LFMU 081030Z AUTO 13007KT 090V170 9999NDV NSC 30/12 Q1020=
METAR LFMY 081030Z 21005KT 160V280 CAVOK 32/15 Q1020=
METAR LFOA 081030Z AUTO 10004KT 020V160 9999NDV NSC 29/13 Q1019=
METAR LFOC 081030Z AUTO VRB04KT 9999NDV NSC 30/10 Q1019=
METAR LFOH 081030Z AUTO 35014KT //// R23///// NSC 21/13 Q1019=
METAR LFOJ 081030Z 17004KT 120V210 CAVOK 30/13 Q1019=
METAR LFPC 081030Z 21005KT 140V290 CAVOK 29/11 Q1019=
METAR LFPG 081030Z 16008KT 120V200 CAVOK 29/09 Q1019 NOSIG=
METAR LFPO 081030Z 14004KT 080V190 CAVOK 29/10 Q1019 NOSIG=
METAR LFPV 081030Z AUTO 18003KT 140V240 9999NDV NSC 28/10 Q1019=
METAR LFQI 081030Z 23006KT 180V280 CAVOK 29/11 Q1019=
METAR LFQQ 081030Z VRB04KT CAVOK 28/13 Q1019 NOSIG=
METAR LFSD 081030Z AUTO VRB03KT 9999NDV NSC 28/14 Q1020=
METAR LFSF 081030Z AUTO 31003KT 260V360 9999NDV NSC 29/10 Q1020=
METAR LFSI 081030Z AUTO 31003KT 220V360 9999NDV NSC 30/10 Q1020=
METAR LFSO 081030Z AUTO 23004KT 150V300 9999NDV NSC 29/11 Q1021=
METAR LFSR 081030Z AUTO VRB03KT 9999NDV NSC 29/10 Q1019=
METAR LFSX 081030Z AUTO 14006KT 090V210 9999NDV NSC 29/13 Q1021=
####018000978####
SPNA14 KAWN 081035 RRE
SPECI KEGI 081030Z AUTO 00000KT 2SM R18/2600VP6000FT BR CLR 21/21 A3002
      RMK AO2 VIS 1 1/2V5 SLP167 $=
SPECI KEGI 081032Z AUTO 00000KT 2 1/2SM R18/2600VP6000FT BR CLR 21/21
      A3003 RMK AO2 VIS 1 1/2V5 SLP167 $=
SPECI KEGI 081033Z AUTO 00000KT 2SM R18/2600VP6000FT BR CLR 21/21 A3003
      RMK AO2 SLP167 $=
SPECI KOZR 081029Z 00000KT 3/4SM R06/0900V1000FT BR FEW002 22/22 A3003
      RMK AO2A SLP164=
SPECI KSGH 081031Z AUTO 00000KT 2SM BR CLR 20/20 A3011 RMK AO2=
SPECI KVOK 081029Z 27004KT 1 1/4SM R27/3500VP6000FT BR CLR 18/18 A3002
      RMK AO2A SLP162=
SPECI KVOK 081030Z 27004KT 1 1/2SM R27/3500VP6000FT BR CLR 18/18 A3002
      RMK AO2A SLP162=
SPECI KVOK 081031Z 27005KT 1 3/4SM R27/4000VP6000FT BR CLR 18/18 A3002
      RMK AO2A SLP162=
SPECI KVOK 081032Z 26005KT 2SM R27/4500VP6000FT BR CLR 18/18 A3002
      RMK AO2A SLP162=
SPECI KVOK 081033Z 26005KT 2 1/2SM BR CLR 18/18 A3002 RMK AO2A SLP162=
####018000097####
SPUS90 KWBC 081036
SPECI KAQV 081033Z AUTO 08003KT 10SM SCT018 23/23 A3001 RMK AO2
     $=
####018001559####
SPZZ40 KAWN 081035 RRI
SPECI CYGL 081032Z 16005KT 15SM -SHRA FEW030 OVC055 RMK SC1SC7=
SPECI CYKF 081032Z AUTO 07002KT 1 1/2SM BR CLR 19/19 A3006 RMK SLP177
      DENSITY ALT 1600FT=
SPECI KEGI 081032Z AUTO 00000KT 2 1/2SM R18/2600VP6000FT BR CLR 21/21
      A3003 RMK AO2 VIS 1 1/2V5 SLP167 $=
SPECI KEGI 081033Z AUTO 00000KT 2SM R18/2600VP6000FT BR CLR 21/21 A3003
      RMK AO2 SLP167 $=
SPECI KEGI 081034Z AUTO 00000KT 1 3/4SM R18/2600VP6000FT BR CLR 21/21
      A3002 RMK AO2 SLP167 $=
SPECI KNRS 081029Z AUTO 29007KT 10SM SCT007 OVC016 16/14 A2990 RMK
      AO2 TSNO $=
SPECI KVOK 081031Z 27005KT 1 3/4SM R27/4000VP6000FT BR CLR 18/18 A3002
      RMK AO2A SLP162=
SPECI KVOK 081032Z 26005KT 2SM R27/4500VP6000FT BR CLR 18/18 A3002
      RMK AO2A SLP162=
SPECI KVOK 081033Z 26005KT 2 1/2SM BR CLR 18/18 A3002 RMK AO2A SLP162=
SPECI KVOK 081034Z 26005KT 3SM BR CLR 18/18 A3002 RMK AO2A SLP162=
PACZ SP 1035 AWOS MM 10 50/49/0407/006=
PAEH SP 1035 AWOS CLR BLO 120 10 47/-20/0000/000=
PAIM SP 1035 AWOS CLR BLO 120 10 51/45/0704/008=
SPECI PGUA 081032Z AUTO 09014KT 10SM R06L/5500VP6000FT -RA BKN018 27/
      A2990 RMK AO2 RAB1032 SLP107 VISNO RWY24L $=
SPECI SKBO 081030Z VRB02KT 5000 BR SCT012 SCT070 11/11 A3029 NOSIG=
SPECI SPZO 081030Z 00000KT 9999 FEW030 04/01 Q1032=
SPECI YBCS 081030Z 18008KT 9999 FEW024 BKN045 23/19 Q1016 RMK FU=
SPECI YSSY 081030Z 20010KT 9999 -SHRA FEW008 SCT020 BKN040 12/11 Q1027
      FM1030 22010KT 9999 -SHRA SCT025 BKN040 INTER 1030/1330 5000
      SHRA BKN010=
####018002961####
SAUS20 KNKA 081035
METAR KGPZ 081035Z AUTO 24004KT 10SM CLR 15/13 A3005 RMK AO1=
METAR KGTR 081035Z 31003KT 10SM CLR 23/22 A3006 RMK AO1=
METAR KGTU 081035Z 09004KT 10SM FEW006 SCT033 OVC045 24/22 A3001 RMK 
    AO1=
METAR KGUC 081035Z AUTO 36005KT 10SM SCT110 08/03 A3044 RMK AO1=
METAR KGXY 081035Z AUTO 08004KT 10SM FEW038 OVC047 15/12 A3032 RMK 
    AO1=
METAR KHDN 081035Z 12006KT 10SM CLR 09/05 A3032 RMK AO1=
METAR KHEF 081035Z AUTO 00000KT 5SM FEW100 23/19 A3001 RMK AO1=
METAR KHEZ 081035Z AUTO 00000KT 8SM CLR 22/21 A3004 RMK AO1=
METAR KHNB 081035Z AUTO 00000KT 7SM CLR 23/22 A3006 RMK AO1=
METAR KHYI 081035Z AUTO 03006KT 9SM BKN013 OVC020 25/24 A2994 RMK 
    AO1=
METAR KHYS 081035Z AUTO 36009KT 10SM OVC024 18/17 A3019 RMK AO1=
METAR KILE 081035Z 10005KT 10SM SCT011 BKN020 OVC044 24/22 A2997 RMK 
    AO1=
METAR KIWD 081035Z AUTO 29003KT 10SM FEW060 16/14 A3001 RMK AO1=
METAR KJAC 081035Z AUTO 00000KT 10SM CLR 08/M01 A3036 RMK AO1=
METAR KJHW 081035Z AUTO 18004KT 1 1/2SM CLR 19/18 A3012 RMK AO1=
METAR KKLS 081035Z AUTO 00000KT 10SM CLR 16/13 A2992 RMK AO1=
METAR KLBL 081035Z 05006KT 10SM FEW033 SCT049 BKN060 19/17 A3022 RMK 
    AO1=
METAR KLCI 081035Z AUTO 00000KT 10SM BKN100 BKN120 23/20 A3006 RMK 
    AO1=
METAR KLEW 081035Z 16005KT 1/2SM OVC002 20/19 A3010 RMK AO1=
METAR KLGD 081035Z AUTO 00000KT 10SM CLR 11/05 A3005 RMK AO1=
METAR KLKV 081035Z AUTO 33008KT 10SM CLR 10/01 A3012 RMK AO1=
METAR KLPC 081035Z AUTO 28003KT 10SM OVC010 13/11 A2992 RMK AO1 PNO=
METAR KLUX 081035Z AUTO 26003KT 10SM CLR 21/21 A3002 RMK AO2=
METAR KMBL 081035Z AUTO 00000KT 9SM BKN065 BKN080 OVC110 22/19 A3000 
    RMK AO1=
METAR KMER 081035Z AUTO 32007KT 10SM CLR 17/11 A2983 RMK AO1 =
METAR KMJX 081035Z AUTO 00000KT 1 1/4SM BKN003 OVC009 23/22 A3002 
    RMK AO1=
METAR KMKT 081035Z 29004KT 5SM CLR 16/15 A3011 RMK AO1=
METAR KMML 081035Z AUTO 27006KT 10SM CLR 15/12 A3014 RMK AO1=
METAR KMNI 081035Z AUTO 30003KT 10SM CLR 24/22 A2996 RMK AO2=
METAR KMNM 081035Z AUTO 24003KT 3SM OVC009 21/19 A2998 RMK AO1=
SPECI KMPV 081034Z AUTO 00000KT 3SM BR CLR 22/20 A3012 RMK AO2=
METAR KMRF 081035Z AUTO 02007KT 10SM BKN095 16/14 A3018 RMK AO1=
METAR KMSV 081035Z AUTO 00000KT 5SM CLR 21/18 A3010 RMK AO1=
METAR KMTW 081035Z 00000KT 7SM BKN006 OVC120 22/21 A3001 RMK AO1=
METAR KMVN 081035Z AUTO 00000KT 1 1/2SM OVC049 22/21 A3005 RMK AO1=
METAR KOCH 081035Z AUTO 08006KT 10SM CLR 24/19 A3001 RMK AO1=
METAR KOKK 081035Z AUTO 00000KT 5SM BKN110 22/17 A3005 RMK AO1=
METAR KOLU 081035Z AUTO 00000KT 7SM SCT120 16/14 A3018 RMK AO1=
METAR KOTG 081035Z AUTO 27006KT 10SM CLR 14/13 A3015 RMK AO1=
METAR KOTH 081035Z 28004KT 10SM OVC008 10/08 A3000 RMK AO1=
METAR KPIB 081035Z AUTO 00000KT 7SM CLR 23/21 A3004 RMK AO1=
METAR KPQI 081035Z AUTO 15007KT 9SM CLR 21/18 A3000 RMK AO1=
METAR KPRX 081035Z 11004KT 5SM SCT004 BKN011 OVC023 24/22 A3003 RMK 
    AO1=
####018001974####
SAUS20 KNKA 081035
METAR KPTN 081035Z AUTO 09004KT 10SM CLR 24/M08 A3001 RMK AO1=
METAR KPTV 081035Z AUTO 18005KT 10SM CLR 18/12 A2984 RMK AO1=
METAR KPVC 081035Z 17007KT 10SM OVC005 22/20 A3010 RMK AO1=
METAR KPVU 081035Z 03003KT 10SM CLR 15/10 A3013 RMK AO1=
METAR KPWG 081035Z AUTO 09004KT 10SM FEW015 SCT036 OVC110 25/22 
    A2999 RMK AO1 LTG DSNT NE=
METAR KPWT 081035Z AUTO 04006KT 10SM CLR 22/06 A2998 RMK AO1=
METAR KRCE 081035Z AUTO 36004KT 1 1/4SM BR OVC002 22/22 A3007 RMK 
     AO2 =
METAR KRKD 081035Z AUTO 20006KT 1/4SM OVC002 18/17 A3011 RMK AO1=
METAR KRUT 081035Z AUTO 17006KT 5SM CLR 22/19 A3006 RMK AO1=
METAR KSDY 081035Z AUTO 19004KT 10SM CLR 11/08 A3015 RMK AO1=
METAR KSFM 081035Z 00000KT 3SM OVC004 22/19 A3009 RMK AO1=
METAR KSFZ 081035Z AUTO 00000KT 10SM BKN008 OVC011 22/21 A3008 RMK 
    AO1=
METAR KSGT 081035Z 00000KT 10SM CLR 23/22 A3006 RMK AO1=
METAR KSGU 081035Z AUTO 13003KT 10SM CLR 25/02 A2995 RMK AO1=
METAR KSKX 081035Z AUTO 35005KT 10SM CLR 10/04 A3038 RMK AO1=
METAR KSLG 081035Z AUTO 17005KT 10SM OVC021 22/21 A3007 RMK AO1=
METAR KSMN 081035Z AUTO 00000KT 10SM CLR 07/01 A3025 RMK AO1=
METAR KSPA 081035Z AUTO 00000KT 10SM CLR 21/21 A3002 RMK AO2=
METAR KSQI 081035Z 25003KT 5SM BKN004 OVC014 22/22 A3004 RMK AO1=
METAR KSUE 081035Z AUTO 27003KT 5SM FEW026 21/19 A3000 RMK AO1=
METAR KTPL 081035Z 08005KT 10SM BKN007 OVC014 24/23 A2998 RMK AO1 
     =
METAR KTVF 081035Z AUTO 24006KT 10SM CLR 13/11 A3004 RMK AO1=
METAR KUTA 081035Z AUTO 00000KT 10SM CLR 23/22 A3007 RMK AO2=
METAR KVBT 081035Z AUTO 00000KT 10SM OVC024 23/21 A3004 RMK AO1=
METAR KVIS 081035Z AUTO 29003KT 10SM CLR 19/12 A2981 RMK AO1=
METAR KWVL 081035Z AUTO 19004KT 5SM OVC004 21/19 A3005 RMK AO1=
METAR KWWD 081035Z AUTO 7SM CLR 23/23 A3003 RMK AO1=
METAR KX40 081035Z AUTO 00000KT 4SM BR CLR 22/21 A3000 RMK AO2 
     T02170211=
METAR KYKN 081035Z AUTO 24003KT 10SM CLR 17/14 A3018 RMK AO1=
####018002983####
SAUS20 KNKA 081035
METAR KAEG 081035Z AUTO 00000KT 10SM CLR 16/08 A3028 RMK AO1  =
METAR KAFJ 081035Z AUTO 00000KT 1/4SM BKN060 17/17 A3011 RMK AO1=
METAR KAIZ 081035Z AUTO 00000KT 10SM BKN060 BKN080 22/21 A3005 RMK 
    AO1 LTG DSNT SW=
METAR KARG 081035Z AUTO 18004KT 10SM CLR 24/22 A3006 RMK AO1=
METAR KAUO 081035Z AUTO 00000KT 10SM CLR 24/21 A3003 RMK AO1=
METAR KAWO 081035Z AUTO 00000KT 10SM CLR 14/13 A2997 RMK AO1=
METAR KBHB 081035Z AUTO 20008KT 1SM OVC002 18/17 A3011 RMK AO1=
METAR KBID 081035Z AUTO 12004KT 1/4SM OVC002 21/21 A3007 RMK AO1=
METAR KBKX 081035Z AUTO 00000KT 10SM CLR 13/12 A3017 RMK AO1=
METAR KBLM 081035Z AUTO 13004KT 1 3/4SM OVC002 24/21 A3006 RMK AO1=
METAR KBOW 081035Z AUTO 00000KT 10SM CLR 21/21 A3000 RMK AO2 =
METAR KBTP 081035Z AUTO 00000KT 1 1/2SM CLR 18/17 A3011 RMK AO1=
METAR KBVX 081035Z AUTO 17004KT 10SM CLR 23/22 A3006 RMK AO1=
METAR KCGC 081035Z AUTO 00000KT 9SM CLR 21/20 A2999 RMK=
METAR KCGZ 081035Z AUTO 00000KT 10SM CLR 28/01 A2980 RMK AO1=
METAR KCIU 081035Z AUTO 25005KT 8SM SCT008 BKN022 OVC070 19/18 A2996 
    RMK AO1=
SPECI KCNK 081034Z AUTO 02008KT 10SM OVC031 20/18 A3016 RMK AO2=
METAR KCOD 081035Z 14007KT 10SM CLR 11/02 A3032 RMK AO1=
METAR KCOE 081035Z AUTO 08008KT 10SM CLR 14/08 A3009 RMK AO1=
METAR KCVN 081035Z AUTO 05003KT 10SM FEW120 17/14 A3021 RMK AO1=
METAR KCVO 081035Z AUTO 28008KT 10SM CLR 13/09 A2992 RMK AO1=
METAR KCWI 081035Z 00000KT 3SM OVC004 A3004 RMK AO1=
SPECI KDAL 081034Z 13007KT 10SM SCT014 SCT020 SCT037 26/23 A3000 RMK 
    AO2=
METAR KDVL 081035Z AUTO 26006KT 10SM CLR 14/12 A3007 RMK AO1=
METAR KDYB 081035Z AUTO 00000KT 10SM CLR 21/20 A2996 RMK AO1=
METAR KDYR 081035Z AUTO 00000KT 10SM CLR 24/19 A3007 RMK AO1=
METAR KEAR 081035Z AUTO 00000KT 10SM CLR 15/13 A3025 RMK AO1=
METAR KEEN 081035Z AUTO 00000KT 5SM OVC085 22/21 A3007 RMK AO1=
METAR KEGE 081035Z 25004KT 10SM CLR 10/08 A3036 RMK AO1=
METAR KEHR 081035Z AUTO 00000KT 5SM CLR 22/18 A3006 RMK AO1=
METAR KENV 081035Z 00000KT 10SM CLR 18/M01 A3009 RMK AO1=
METAR KESC 081035Z AUTO 00000KT 5SM SCT021 19/16 A2997 RMK AO1=
METAR KEUL 081035Z AUTO 07004KT 10SM CLR 11/06 A3006 RMK AO1=
METAR KEWK 081035Z AUTO 36008KT 10SM OVC008 21/19 A3006 RMK AO1=
METAR KFAM 081035Z AUTO 18003KT 10SM CLR 23/22 A3009 RMK AO1=
METAR KFKL 081035Z 00000KT 1 3/4SM CLR 18/17 A3014 RMK AO1=
METAR KFLP 081035Z AUTO 00000KT 9SM SCT070 23/21 A3005 RMK AO1=
METAR KFNL 081035Z AUTO 00000KT 5SM OVC004 14/13 A3032 RMK AO1=
METAR KFOD 081035Z AUTO 31004KT 10SM CLR 17/16 A3012 RMK AO1=
METAR KFRM 081035Z AUTO 10SM CLR 16/14 A3014 RMK AO1=
METAR KGAD 081035Z AUTO 00000KT 10SM CLR 21/19 A3005 RMK AO1=
METAR KGAI 081035Z 00000KT 5SM BKN110 25/22 A3005 RMK AO1 
     =
METAR KGBD 081035Z AUTO 35007KT 9SM OVC008 19/18 A3016 RMK AO1=
METAR KGDV 081035Z AUTO 31003KT 10SM CLR 11/07 A3017 RMK AO1=
METAR KGGE 081035Z AUTO 28005KT 10SM SCT090 23/22 A2994 RMK AO2=
####018000111####
SAAK41 KNKA 081035
SPECI PAKI 081031Z AUTO 36004KT 1 3/4SM BR CLR 08/08 A3002 RMK AO2 
    PWINO TSNO $=
####018001821####
SAEU KAWN 081000 RRX
METAR LFBD 081030Z 08011KT CAVOK 31/12 Q1017 NOSIG=
METAR LFBO 081030Z 12010KT 080V160 CAVOK 32/12 Q1018 NOSIG=
METAR LFCR 081030Z AUTO VRB04KT 9999NDV NSC 31/06 Q1022=
METAR LFGJ 081030Z AUTO 19006KT 150V240 9999NDV NSC 28/14 Q1020=
METAR LFJL 081030Z AUTO 29005KT 270V340 9999NDV NSC 28/09 Q1021=
METAR LFKJ 081030Z 23010KT 9999 FEW026 28/23 Q1019 NOSIG=
METAR LFLL 081030Z VRB03KT CAVOK 29/14 Q1020 NOSIG=
METAR LFLN 081030Z AUTO VRB03KT 9999NDV NSC 30/13 Q1020=
METAR LFMD 081030Z AUTO 14008KT 100V180 9999NDV NSC 30/20 Q1020=
METAR LFMK 081030Z AUTO 09014KT 9999NDV NSC 31/15 Q1019=
METAR LFML 081030Z 27006KT 9999 FEW050 31/17 Q1020 NOSIG=
METAR LFMN 081030Z 10008KT 9999 FEW023 29/21 Q1020 NOSIG=
METAR LFMU 081030Z AUTO 13007KT 090V170 9999NDV NSC 30/12 Q1020=
METAR LFOH 081030Z AUTO 35014KT //// R23///// NSC 21/13 Q1019=
METAR LFOT 081030Z AUTO 12004KT 040V190 9999NDV NSC 30/12 Q1018=
METAR LFPB 081030Z AUTO 21004KT 150V280 9999NDV NSC 30/10 Q1019=
METAR LFPG 081030Z 16008KT 120V200 CAVOK 29/09 Q1019 NOSIG=
METAR LFPM 081030Z VRB02KT CAVOK 30/15 Q1019=
METAR LFRC 081030Z AUTO 34005KT 280V060 9999NDV NSC 20/15 Q1019=
METAR LFRD 081030Z AUTO 02006KT 340V110 9999NDV NSC 21/15 Q1019=
METAR LFRJ 081030Z AUTO 01004KT 280V060 9999NDV BKN020/// BKN180///
      21/16 Q1019=
METAR LFRN 081030Z AUTO VRB04KT 9999NDV NSC 26/15 Q1018=
METAR LFRO 081030Z AUTO 01004KT 320V050 9999NDV BKN019 BKN190 20/16
      Q1019=
METAR LFRZ 081030Z AUTO 01004KT 290V090 9999NDV NSC 29/13 Q1018=
METAR LFSB 081030Z 25003KT 170V320 CAVOK 29/11 Q1021 NOSIG=
METAR LFSL 081030Z AUTO 13005KT 070V170 9999NDV NSC 29/14 Q1020=
METAR LFST 081030Z 15004KT 080V230 CAVOK 28/11 Q1020 NOSIG=
METAR LFTW 081030Z AUTO 12004KT 050V190 9999NDV NSC 31/14 Q1020=
####018003737####
SAUS99 KWBC 081036
METAR
KDUC 081036Z AUTO 03003KT 10SM CLR 22/22 A3004 RMK AO2=
KL35 081033Z AUTO 00000KT 10SM CLR 06/M05 A3017 RMK AO2=
KPVJ 081030Z AUTO 00000KT 7SM CLR 24/23 A3003 RMK AO2=
KGPZ 081035Z AUTO 24004KT 10SM CLR 15/13 A3005 RMK AO1=
KGTR 081035Z 31003KT 10SM CLR 23/22 A3006 RMK AO1=
KGTU 081035Z 09004KT 10SM FEW006 SCT033 OVC045 24/22 A3001 RMK
     AO1=
KGUC 081035Z AUTO 36005KT 10SM SCT110 08/03 A3044 RMK AO1=
KGXY 081035Z AUTO 08004KT 10SM FEW038 OVC047 15/12 A3032 RMK
     AO1=
KHDN 081035Z 12006KT 10SM CLR 09/05 A3032 RMK AO1=
KHEF 081035Z AUTO 00000KT 5SM FEW100 23/19 A3001 RMK AO1=
KHEZ 081035Z AUTO 00000KT 8SM CLR 22/21 A3004 RMK AO1=
KHNB 081035Z AUTO 00000KT 7SM CLR 23/22 A3006 RMK AO1=
KHYI 081035Z AUTO 03006KT 9SM BKN013 OVC020 25/24 A2994 RMK
     AO1=
KHYS 081035Z AUTO 36009KT 10SM OVC024 18/17 A3019 RMK AO1=
KILE 081035Z 10005KT 10SM SCT011 BKN020 OVC044 24/22 A2997 RMK
     AO1=
KIWD 081035Z AUTO 29003KT 10SM FEW060 16/14 A3001 RMK AO1=
KJAC 081035Z AUTO 00000KT 10SM CLR 08/M01 A3036 RMK AO1=
KJHW 081035Z AUTO 18004KT 1 1/2SM CLR 19/18 A3012 RMK AO1=
KKLS 081035Z AUTO 00000KT 10SM CLR 16/13 A2992 RMK AO1=
KLBL 081035Z 05006KT 10SM FEW033 SCT049 BKN060 19/17 A3022 RMK
     AO1=
KLCI 081035Z AUTO 00000KT 10SM BKN100 BKN120 23/20 A3006 RMK
     AO1=
KLEW 081035Z 16005KT 1/2SM OVC002 20/19 A3010 RMK AO1=
KLGD 081035Z AUTO 00000KT 10SM CLR 11/05 A3005 RMK AO1=
KLKV 081035Z AUTO 33008KT 10SM CLR 10/01 A3012 RMK AO1=
KLPC 081035Z AUTO 28003KT 10SM OVC010 13/11 A2992 RMK AO1 PNO=
KLUX 081035Z AUTO 26003KT 10SM CLR 21/21 A3002 RMK AO2=
KMBL 081035Z AUTO 00000KT 9SM BKN065 BKN080 OVC110 22/19 A3000 RMK
     AO1=
KMER 081035Z AUTO 32007KT 10SM CLR 17/11 A2983 RMK AO1=
KMJX 081035Z AUTO 00000KT 1 1/4SM BKN003 OVC009 23/22 A3002 RMK
     AO1=
KMKT 081035Z 29004KT 5SM CLR 16/15 A3011 RMK AO1=
KMML 081035Z AUTO 27006KT 10SM CLR 15/12 A3014 RMK AO1=
KMNI 081035Z AUTO 30003KT 10SM CLR 24/22 A2996 RMK AO2=
KMNM 081035Z AUTO 24003KT 3SM OVC009 21/19 A2998 RMK AO1=
KMRF 081035Z AUTO 02007KT 10SM BKN095 16/14 A3018 RMK AO1=
KMSV 081035Z AUTO 00000KT 5SM CLR 21/18 A3010 RMK AO1=
KMTW 081035Z 00000KT 7SM BKN006 OVC120 22/21 A3001 RMK AO1=
KMVN 081035Z AUTO 00000KT 1 1/2SM OVC049 22/21 A3005 RMK AO1=
KOCH 081035Z AUTO 08006KT 10SM CLR 24/19 A3001 RMK AO1=
KOKK 081035Z AUTO 00000KT 5SM BKN110 22/17 A3005 RMK AO1=
KOLU 081035Z AUTO 00000KT 7SM SCT120 16/14 A3018 RMK AO1=
KOTG 081035Z AUTO 27006KT 10SM CLR 14/13 A3015 RMK AO1=
KOTH 081035Z 28004KT 10SM OVC008 10/08 A3000 RMK AO1=
KPIB 081035Z AUTO 00000KT 7SM CLR 23/21 A3004 RMK AO1=
KPQI 081035Z AUTO 15007KT 9SM CLR 21/18 A3000 RMK AO1=
KPRX 081035Z 11004KT 5SM SCT004 BKN011 OVC023 24/22 A3003 RMK
     AO1=
KAEG 081035Z AUTO 00000KT 10SM CLR 16/08 A3028 RMK AO1=
KAFJ 081035Z AUTO 00000KT 1/4SM BKN060 17/17 A3011 RMK AO1=
KAIZ 081035Z AUTO 00000KT 10SM BKN060 BKN080 22/21 A3005 RMK AO1
     LTG DSNT SW=
KARG 081035Z AUTO 18004KT 10SM CLR 24/22 A3006 RMK AO1=
KAUO 081035Z AUTO 00000KT 10SM CLR 24/21 A3003 RMK AO1=
KAWO 081035Z AUTO 00000KT 10SM CLR 14/13 A2997 RMK AO1=
KBHB 081035Z AUTO 20008KT 1SM OVC002 18/17 A3011 RMK AO1=
KBID 081035Z AUTO 12004KT 1/4SM OVC002 21/21 A3007 RMK AO1=
KBKX 081035Z AUTO 00000KT 10SM CLR 13/12 A3017 RMK AO1=
KBLM 081035Z AUTO 13004KT 1 3/4SM OVC002 24/21 A3006 RMK AO1=
KBOW 081035Z AUTO 00000KT 10SM CLR 21/21 A3000 RMK AO2=
KBTP 081035Z AUTO 00000KT 1 1/2SM CLR 18/17 A3011 RMK AO1=
KBVX 081035Z AUTO 17004KT 10SM CLR 23/22 A3006 RMK AO1=
KCGC 081035Z AUTO 00000KT 9SM CLR 21/20 A2999 RMK=
KCGZ 081035Z AUTO 00000KT 10SM CLR 28/01 A2980 RMK AO1=
####018000456####
SPUS99 KWBC 081036
SPECI
KMAI 081033Z AUTO 00000KT 3SM BR SCT001 23/22 A3002 RMK AO2=
KSSF 081034Z AUTO 04006KT 10SM SCT015 BKN020 OVC045 26/23 A2992
     RMK AO2=
KMPV 081034Z AUTO 00000KT 3SM BR CLR 22/20 A3012 RMK AO2=
KCNK 081034Z AUTO 02008KT 10SM OVC031 20/18 A3016 RMK AO2=
KDAL 081034Z 13007KT 10SM SCT014 SCT020 SCT037 26/23 A3000 RMK
     AO2=
PAKI 081031Z AUTO 36004KT 1 3/4SM BR CLR 08/08 A3002 RMK AO2 PWINO
     TSNO $=
####018003431####
SAUS99 KWBC 081036 RRA
METAR
KCIU 081035Z AUTO 25005KT 8SM SCT008 BKN022 OVC070 19/18 A2996 RMK
     AO1=
KCOD 081035Z 14007KT 10SM CLR 11/02 A3032 RMK AO1=
KCOE 081035Z AUTO 08008KT 10SM CLR 14/08 A3009 RMK AO1=
KCVN 081035Z AUTO 05003KT 10SM FEW120 17/14 A3021 RMK AO1=
KCVO 081035Z AUTO 28008KT 10SM CLR 13/09 A2992 RMK AO1=
KCWI 081035Z 00000KT 3SM OVC004 A3004 RMK AO1=
KDVL 081035Z AUTO 26006KT 10SM CLR 14/12 A3007 RMK AO1=
KDYB 081035Z AUTO 00000KT 10SM CLR 21/20 A2996 RMK AO1=
KDYR 081035Z AUTO 00000KT 10SM CLR 24/19 A3007 RMK AO1=
KEAR 081035Z AUTO 00000KT 10SM CLR 15/13 A3025 RMK AO1=
KEEN 081035Z AUTO 00000KT 5SM OVC085 22/21 A3007 RMK AO1=
KEGE 081035Z 25004KT 10SM CLR 10/08 A3036 RMK AO1=
KEHR 081035Z AUTO 00000KT 5SM CLR 22/18 A3006 RMK AO1=
KENV 081035Z 00000KT 10SM CLR 18/M01 A3009 RMK AO1=
KESC 081035Z AUTO 00000KT 5SM SCT021 19/16 A2997 RMK AO1=
KEUL 081035Z AUTO 07004KT 10SM CLR 11/06 A3006 RMK AO1=
KEWK 081035Z AUTO 36008KT 10SM OVC008 21/19 A3006 RMK AO1=
KFAM 081035Z AUTO 18003KT 10SM CLR 23/22 A3009 RMK AO1=
KFKL 081035Z 00000KT 1 3/4SM CLR 18/17 A3014 RMK AO1=
KFLP 081035Z AUTO 00000KT 9SM SCT070 23/21 A3005 RMK AO1=
KFNL 081035Z AUTO 00000KT 5SM OVC004 14/13 A3032 RMK AO1=
KFOD 081035Z AUTO 31004KT 10SM CLR 17/16 A3012 RMK AO1=
KFRM 081035Z AUTO 10SM CLR 16/14 A3014 RMK AO1=
KGAD 081035Z AUTO 00000KT 10SM CLR 21/19 A3005 RMK AO1=
KGAI 081035Z 00000KT 5SM BKN110 25/22 A3005 RMK AO1=
KGBD 081035Z AUTO 35007KT 9SM OVC008 19/18 A3016 RMK AO1=
KGDV 081035Z AUTO 31003KT 10SM CLR 11/07 A3017 RMK AO1=
KGGE 081035Z AUTO 28005KT 10SM SCT090 23/22 A2994 RMK AO2=
KPTN 081035Z AUTO 09004KT 10SM CLR 24/M08 A3001 RMK AO1=
KPTV 081035Z AUTO 18005KT 10SM CLR 18/12 A2984 RMK AO1=
KPVC 081035Z 17007KT 10SM OVC005 22/20 A3010 RMK AO1=
KPVU 081035Z 03003KT 10SM CLR 15/10 A3013 RMK AO1=
KPWG 081035Z AUTO 09004KT 10SM FEW015 SCT036 OVC110 25/22 A2999
     RMK AO1 LTG DSNT NE=
KPWT 081035Z AUTO 04006KT 10SM CLR 22/06 A2998 RMK AO1=
KRCE 081035Z AUTO 36004KT 1 1/4SM BR OVC002 22/22 A3007 RMK
     AO2=
KRKD 081035Z AUTO 20006KT 1/4SM OVC002 18/17 A3011 RMK AO1=
KRUT 081035Z AUTO 17006KT 5SM CLR 22/19 A3006 RMK AO1=
KSDY 081035Z AUTO 19004KT 10SM CLR 11/08 A3015 RMK AO1=
KSFM 081035Z 00000KT 3SM OVC004 22/19 A3009 RMK AO1=
KSFZ 081035Z AUTO 00000KT 10SM BKN008 OVC011 22/21 A3008 RMK
     AO1=
KSGT 081035Z 00000KT 10SM CLR 23/22 A3006 RMK AO1=
KSGU 081035Z AUTO 13003KT 10SM CLR 25/02 A2995 RMK AO1=
KSKX 081035Z AUTO 35005KT 10SM CLR 10/04 A3038 RMK AO1=
KSLG 081035Z AUTO 17005KT 10SM OVC021 22/21 A3007 RMK AO1=
KSMN 081035Z AUTO 00000KT 10SM CLR 07/01 A3025 RMK AO1=
KSPA 081035Z AUTO 00000KT 10SM CLR 21/21 A3002 RMK AO2=
KSQI 081035Z 25003KT 5SM BKN004 OVC014 22/22 A3004 RMK AO1=
KSUE 081035Z AUTO 27003KT 5SM FEW026 21/19 A3000 RMK AO1=
KTPL 081035Z 08005KT 10SM BKN007 OVC014 24/23 A2998 RMK AO1=
KTVF 081035Z AUTO 24006KT 10SM CLR 13/11 A3004 RMK AO1=
KUTA 081035Z AUTO 00000KT 10SM CLR 23/22 A3007 RMK AO2=
KVBT 081035Z AUTO 00000KT 10SM OVC024 23/21 A3004 RMK AO1=
KVIS 081035Z AUTO 29003KT 10SM CLR 19/12 A2981 RMK AO1=
KWVL 081035Z AUTO 19004KT 5SM OVC004 21/19 A3005 RMK AO1=
KWWD 081035Z AUTO 7SM CLR 23/23 A3003 RMK AO1=
KX40 081035Z AUTO 00000KT 4SM BR CLR 22/21 A3000 RMK AO2
     T02170211=
KYKN 081035Z AUTO 24003KT 10SM CLR 17/14 A3018 RMK AO1=
####018000317####
SARO33 LROM 081030
METAR LRBC 081030Z 35016KT 9999 BKN027 23/16 Q1017=
METAR LRCV 081030Z VRB04KT 9999 FEW031 23/14 Q1017=
METAR LRIA 081030Z 30010KT 260V340 9999 FEW020 SCT033 23/18 Q1017=
METAR LRSV 081030Z 33013KT 9999 SCT010 BKN026 17/14 Q1019=
METAR LRTC 081030Z 35010KT 9999 FEW030CB BKN040 23/17 Q1014=
####018000415####
SARO32 LROM 081030
METAR LRAR 081030Z 01008KT 330V070 9999 SCT033 22/15 Q1020=
METAR LRBM 081030Z 24004KT 200V270 9999 SCT010 18/17 Q1019=
METAR LRCL 081030Z 29008KT 270V330 9999 FEW015 BKN026 17/13 Q1021
0821//95=
METAR LROD 081030Z 02008KT 330V050 9999 SCT045 23/13 Q1021=
METAR LRSM 081030Z 06006KT 020V080 9999 SCT040 22/13 Q1020=
METAR LRTM 081030Z 24006KT 9999 -RA FEW013 SCT026 BKN030 16/14
Q1020=
####018000088####
SAMG20 FMMI 081030
METAR FMMI 081030Z 13007KT 080V180 9999 BKN020 19/13 Q1025 NOSIG=
####018000101####
SPAU32 YBBN 081035
SPECI YBCG 081035Z AUTO 20010KT 9999NDV // SCT015 BKN034 OVC060 15/13
Q1021=
####018000091####
SAMC31 GMMC 081030 RRA
METAR GMME 081030Z 36006KT 6000 SCT010 BKN015 24/19 Q1016 NOSIG=
####018000086####
SAUZ31 UTTW 081030
METAR UTNU 081030Z VRB01MPS CAVOK 42/07 Q1007 R13/CLRD60 NOSIG=
####018000159####
SAAY31 RUMS 081030
METAR UDYZ 081030Z VRB02MPS 9999 FEW050 36/13 Q1009 09010070 NOSIG=
METAR UDSG 081030Z 07008G13MPS 9999 NSC 31/14 Q1015 02CLRD70 NOSIG=
####018000215####
SATR31 RUMS 081030
METAR UTAA 081030Z 10005MPS 060V130 9999 SKC 44/03 Q1007 NOSIG=
METAR UTAK 081030Z NIL=
METAR UTAM 081030Z 01006MPS CAVOK 41/06 Q1006 NOSIG=
METAR UTAT 081030Z NIL=
METAR UTAV 081030Z NIL=
####018000801####
SPUS70 KWBC 081036
SPECI
KBOK 081034Z AUTO 00000KT 3/4SM BR OVC002 09/09 A2996 RMK AO2
     $=
KDAW 081033Z AUTO 00000KT 1 1/4SM BR 22/21 A3008 RMK AO2 $=
KDDC 081033Z AUTO 01008KT 5SM BR OVC003 18/17 A3018 RMK AO2=
KESF 081033Z AUTO 00000KT 3SM BR CLR 22/22 A3003 RMK AO2=
KHUL 081033Z AUTO 20007KT 4SM BR FEW009 21/19 A3003 RMK AO2=
KHYA 081033Z 12003KT 10SM SCT001 BKN006 OVC016 21/21 A3009 RMK
     AO2=
KLAR 081033Z AUTO 28003KT 1SM BR SCT002 BKN007 BKN019 06/06 A3039
     RMK AO2=
KMAI 081033Z AUTO 00000KT 3SM BR SCT001 23/22 A3002 RMK AO2=
KSSF 081034Z AUTO 04006KT 10SM SCT015 BKN020 OVC045 26/23 A2992
     RMK AO2=
KMPV 081034Z AUTO 00000KT 3SM BR CLR 22/20 A3012 RMK AO2=
PAKI 081031Z AUTO 36004KT 1 3/4SM BR CLR 08/08 A3002 RMK AO2 PWINO
     TSNO $=
####018003696####
SAUS70 KWBC 081036 RRA
METAR
KMTW 081035Z 00000KT 7SM BKN006 OVC120 22/21 A3001 RMK AO1=
KMVN 081035Z AUTO 00000KT 1 1/2SM OVC049 22/21 A3005 RMK AO1=
KOCH 081035Z AUTO 08006KT 10SM CLR 24/19 A3001 RMK AO1=
KOKK 081035Z AUTO 00000KT 5SM BKN110 22/17 A3005 RMK AO1=
KOLU 081035Z AUTO 00000KT 7SM SCT120 16/14 A3018 RMK AO1=
KOTG 081035Z AUTO 27006KT 10SM CLR 14/13 A3015 RMK AO1=
KOTH 081035Z 28004KT 10SM OVC008 10/08 A3000 RMK AO1=
KPIB 081035Z AUTO 00000KT 7SM CLR 23/21 A3004 RMK AO1=
KPQI 081035Z AUTO 15007KT 9SM CLR 21/18 A3000 RMK AO1=
KPRX 081035Z 11004KT 5SM SCT004 BKN011 OVC023 24/22 A3003 RMK
     AO1=
KAEG 081035Z AUTO 00000KT 10SM CLR 16/08 A3028 RMK AO1=
KAFJ 081035Z AUTO 00000KT 1/4SM BKN060 17/17 A3011 RMK AO1=
KAIZ 081035Z AUTO 00000KT 10SM BKN060 BKN080 22/21 A3005 RMK AO1
     LTG DSNT SW=
KARG 081035Z AUTO 18004KT 10SM CLR 24/22 A3006 RMK AO1=
KAUO 081035Z AUTO 00000KT 10SM CLR 24/21 A3003 RMK AO1=
KAWO 081035Z AUTO 00000KT 10SM CLR 14/13 A2997 RMK AO1=
KBHB 081035Z AUTO 20008KT 1SM OVC002 18/17 A3011 RMK AO1=
KBID 081035Z AUTO 12004KT 1/4SM OVC002 21/21 A3007 RMK AO1=
KBKX 081035Z AUTO 00000KT 10SM CLR 13/12 A3017 RMK AO1=
KBLM 081035Z AUTO 13004KT 1 3/4SM OVC002 24/21 A3006 RMK AO1=
KBOW 081035Z AUTO 00000KT 10SM CLR 21/21 A3000 RMK AO2=
KBTP 081035Z AUTO 00000KT 1 1/2SM CLR 18/17 A3011 RMK AO1=
KBVX 081035Z AUTO 17004KT 10SM CLR 23/22 A3006 RMK AO1=
KCGC 081035Z AUTO 00000KT 9SM CLR 21/20 A2999 RMK=
KCGZ 081035Z AUTO 00000KT 10SM CLR 28/01 A2980 RMK AO1=
KCIU 081035Z AUTO 25005KT 8SM SCT008 BKN022 OVC070 19/18 A2996 RMK
     AO1=
KCOD 081035Z 14007KT 10SM CLR 11/02 A3032 RMK AO1=
KCOE 081035Z AUTO 08008KT 10SM CLR 14/08 A3009 RMK AO1=
KCVN 081035Z AUTO 05003KT 10SM FEW120 17/14 A3021 RMK AO1=
KCVO 081035Z AUTO 28008KT 10SM CLR 13/09 A2992 RMK AO1=
KCWI 081035Z 00000KT 3SM OVC004 A3004 RMK AO1=
KDYB 081035Z AUTO 00000KT 10SM CLR 21/20 A2996 RMK AO1=
KDYR 081035Z AUTO 00000KT 10SM CLR 24/19 A3007 RMK AO1=
KEEN 081035Z AUTO 00000KT 5SM OVC085 22/21 A3007 RMK AO1=
KEGE 081035Z 25004KT 10SM CLR 10/08 A3036 RMK AO1=
KEHR 081035Z AUTO 00000KT 5SM CLR 22/18 A3006 RMK AO1=
KENV 081035Z 00000KT 10SM CLR 18/M01 A3009 RMK AO1=
KESC 081035Z AUTO 00000KT 5SM SCT021 19/16 A2997 RMK AO1=
KEUL 081035Z AUTO 07004KT 10SM CLR 11/06 A3006 RMK AO1=
KEWK 081035Z AUTO 36008KT 10SM OVC008 21/19 A3006 RMK AO1=
KFAM 081035Z AUTO 18003KT 10SM CLR 23/22 A3009 RMK AO1=
KFKL 081035Z 00000KT 1 3/4SM CLR 18/17 A3014 RMK AO1=
KFLP 081035Z AUTO 00000KT 9SM SCT070 23/21 A3005 RMK AO1=
KFNL 081035Z AUTO 00000KT 5SM OVC004 14/13 A3032 RMK AO1=
KFOD 081035Z AUTO 31004KT 10SM CLR 17/16 A3012 RMK AO1=
KFRM 081035Z AUTO 10SM CLR 16/14 A3014 RMK AO1=
KGAD 081035Z AUTO 00000KT 10SM CLR 21/19 A3005 RMK AO1=
KGAI 081035Z 00000KT 5SM BKN110 25/22 A3005 RMK AO1=
KGBD 081035Z AUTO 35007KT 9SM OVC008 19/18 A3016 RMK AO1=
KGDV 081035Z AUTO 31003KT 10SM CLR 11/07 A3017 RMK AO1=
KGGE 081035Z AUTO 28005KT 10SM SCT090 23/22 A2994 RMK AO2=
KPTN 081035Z AUTO 09004KT 10SM CLR 24/M08 A3001 RMK AO1=
KPTV 081035Z AUTO 18005KT 10SM CLR 18/12 A2984 RMK AO1=
KPVC 081035Z 17007KT 10SM OVC005 22/20 A3010 RMK AO1=
KPVU 081035Z 03003KT 10SM CLR 15/10 A3013 RMK AO1=
KPWG 081035Z AUTO 09004KT 10SM FEW015 SCT036 OVC110 25/22 A2999
     RMK AO1 LTG DSNT NE=
KPWT 081035Z AUTO 04006KT 10SM CLR 22/06 A2998 RMK AO1=
KRCE 081035Z AUTO 36004KT 1 1/4SM BR OVC002 22/22 A3007 RMK
     AO2=
KRKD 081035Z AUTO 20006KT 1/4SM OVC002 18/17 A3011 RMK AO1=
KRUT 081035Z AUTO 17006KT 5SM CLR 22/19 A3006 RMK AO1=
KSDY 081035Z AUTO 19004KT 10SM CLR 11/08 A3015 RMK AO1=
####018000752####
SPXX60 KWBC 081036
SPECI
KAQV 081033Z AUTO 08003KT 10SM SCT018 23/23 A3001 RMK AO2 $=
KNRS 081029Z AUTO 29007KT 10SM SCT007 OVC016 16/14 A2990 RMK AO2
     TSNO $=
KVOK 081031Z 27005KT 1 3/4SM R27/4000VP6000FT BR CLR 18/18 A3002
     RMK AO2A SLP162=
KVOK 081032Z 26005KT 2SM R27/4500VP6000FT BR CLR 18/18 A3002 RMK
     AO2A SLP162=
KVOK 081033Z 26005KT 2 1/2SM BR CLR 18/18 A3002 RMK AO2A
     SLP162=
KVOK 081034Z 26005KT 3SM BR CLR 18/18 A3002 RMK AO2A SLP162=
PACZ SP 1035 AWOS MM 10 50/49/0407/006=
PAEH SP 1035 AWOS CLR BLO 120 10 47/-20/0000/000=
PAIM SP 1035 AWOS CLR BLO 120 10 51/45/0704/008=
PGUA 081032Z AUTO 09014KT 10SM R06L/5500VP6000FT -RA BKN018 27/
     A2990 RMK AO2 RAB1032 SLP107 VISNO RWY24L $=
####018000264####
SAUS80 KWBC 081036
METAR
KSOW 081030Z AUTO 12003KT 10SM SCT110 21/03 A3025 RMK AO2=
KGPZ 081035Z AUTO 24004KT 10SM CLR 15/13 A3005 RMK AO1=
KDVL 081035Z AUTO 26006KT 10SM CLR 14/12 A3007 RMK AO1=
KEAR 081035Z AUTO 00000KT 10SM CLR 15/13 A3025 RMK AO1=
####018001173####
SAUS70 KWBC 081036 RRB
METAR
KSFM 081035Z 00000KT 3SM OVC004 22/19 A3009 RMK AO1=
KSFZ 081035Z AUTO 00000KT 10SM BKN008 OVC011 22/21 A3008 RMK
     AO1=
KSGT 081035Z 00000KT 10SM CLR 23/22 A3006 RMK AO1=
KSGU 081035Z AUTO 13003KT 10SM CLR 25/02 A2995 RMK AO1=
KSKX 081035Z AUTO 35005KT 10SM CLR 10/04 A3038 RMK AO1=
KSLG 081035Z AUTO 17005KT 10SM OVC021 22/21 A3007 RMK AO1=
KSMN 081035Z AUTO 00000KT 10SM CLR 07/01 A3025 RMK AO1=
KSPA 081035Z AUTO 00000KT 10SM CLR 21/21 A3002 RMK AO2=
KSQI 081035Z 25003KT 5SM BKN004 OVC014 22/22 A3004 RMK AO1=
KSUE 081035Z AUTO 27003KT 5SM FEW026 21/19 A3000 RMK AO1=
KTPL 081035Z 08005KT 10SM BKN007 OVC014 24/23 A2998 RMK AO1=
KTVF 081035Z AUTO 24006KT 10SM CLR 13/11 A3004 RMK AO1=
KUTA 081035Z AUTO 00000KT 10SM CLR 23/22 A3007 RMK AO2=
KVBT 081035Z AUTO 00000KT 10SM OVC024 23/21 A3004 RMK AO1=
KVIS 081035Z AUTO 29003KT 10SM CLR 19/12 A2981 RMK AO1=
KWVL 081035Z AUTO 19004KT 5SM OVC004 21/19 A3005 RMK AO1=
KWWD 081035Z AUTO 7SM CLR 23/23 A3003 RMK AO1=
KX40 081035Z AUTO 00000KT 4SM BR CLR 22/21 A3000 RMK AO2
     T02170211=
KYKN 081035Z AUTO 24003KT 10SM CLR 17/14 A3018 RMK AO1=
####018000121####
SAAF34 KWBC 081000 RRC
METAR
FYWB 081030Z 07024KT 9999 R09/M0050VP1500D R27/M0050VP1500D VV///
     32/03 Q1016=
####018003743####
SAUS70 KWBC 081036
METAR
KPMV 081030Z AUTO 33003KT 7SM CLR 19/19 A3013 RMK AO2
     T01920185=
KAIK 081035Z AUTO 28005KT 10SM CLR 22/22 A3004 RMK AO2 PNO=
KARW 081035Z AUTO 26004KT 10SM CLR 24/19 A2998 RMK AO2=
KBDN 081035Z AUTO 00000KT 10SM CLR 13/03 A3011 RMK AO2=
KFTN 081035Z AUTO 05003KT 10SM OVC019 25/23 A2991 RMK AO1=
KGLY 081035Z AUTO 00000KT 5SM BR FEW110 22/22 A3004 RMK AO2 LTG
     DSNT SE=
KJYR 081030Z AUTO 00000KT 10SM CLR 15/15 A3018 RMK AO2=
KLCG 081030Z AUTO 00000KT 10SM CLR 15/14 A3018 RMK AO2
     T01510140=
KLHM 081031Z AUTO 14009KT 10SM CLR 17/11 A2982 RMK AO1
     T01660109=
KLXN 081030Z AUTO 00000KT 10SM OVC080 17/16 A3023 RMK AO2
     T01660157=
KMEZ 081035Z AUTO 19003KT 7SM SCT013 SCT018 OVC039 25/23 A3008 RMK
     AO2=
KMLE 081030Z AUTO 00000KT 10SM BKN028 20/17 A3014 RMK AO2
     T02000170=
KMMH 081030Z AUTO 00000KT 10SM CLR 09/01 A3021 RMK AO1=
KOGA 081030Z AUTO 00000KT 10SM BKN095 15/14 A3027 RMK AO2
     T01500140=
KONL 081030Z AUTO 29005KT 10SM BKN110 17/15 A3022 RMK AO2
     T01660148=
KPNA 081030Z AUTO 30006KT 10SM CLR 04/01 A3039 RMK AO2
     T00390010=
KPSO 081035Z AUTO 00000KT 10SM CLR 08/05 A3039 RMK AO2=
KPTT 081030Z AUTO 01007KT 5SM BR BKN004 BKN008 20/19 A3014 RMK
     AO2=
KSPL 081035Z AUTO 03007KT 28/25 A2975 RMK AO2 PWINO PNO=
KSUN 081031Z AUTO 32011G14KT 10SM CLR 11/01 A3023 RMK AO2=
KSZT 081030Z AUTO 00000KT 10SM CLR 09/07 A3011 RMK AO2=
KTIF 081030Z AUTO 00000KT 10SM SCT085 OVC095 15/14 A3026 RMK AO2
     T01540141=
KTRK 081030Z AUTO 00000KT 10SM CLR 09/08 A3015 RMK AO2=
KDUC 081036Z AUTO 03003KT 10SM CLR 22/22 A3004 RMK AO2=
KL35 081033Z AUTO 00000KT 10SM CLR 06/M05 A3017 RMK AO2=
KPVJ 081030Z AUTO 00000KT 7SM CLR 24/23 A3003 RMK AO2=
KGTR 081035Z 31003KT 10SM CLR 23/22 A3006 RMK AO1=
KGTU 081035Z 09004KT 10SM FEW006 SCT033 OVC045 24/22 A3001 RMK
     AO1=
KGUC 081035Z AUTO 36005KT 10SM SCT110 08/03 A3044 RMK AO1=
KGXY 081035Z AUTO 08004KT 10SM FEW038 OVC047 15/12 A3032 RMK
     AO1=
KHDN 081035Z 12006KT 10SM CLR 09/05 A3032 RMK AO1=
KHEF 081035Z AUTO 00000KT 5SM FEW100 23/19 A3001 RMK AO1=
KHEZ 081035Z AUTO 00000KT 8SM CLR 22/21 A3004 RMK AO1=
KHNB 081035Z AUTO 00000KT 7SM CLR 23/22 A3006 RMK AO1=
KHYI 081035Z AUTO 03006KT 9SM BKN013 OVC020 25/24 A2994 RMK
     AO1=
KHYS 081035Z AUTO 36009KT 10SM OVC024 18/17 A3019 RMK AO1=
KILE 081035Z 10005KT 10SM SCT011 BKN020 OVC044 24/22 A2997 RMK
     AO1=
KIWD 081035Z AUTO 29003KT 10SM FEW060 16/14 A3001 RMK AO1=
KJAC 081035Z AUTO 00000KT 10SM CLR 08/M01 A3036 RMK AO1=
KJHW 081035Z AUTO 18004KT 1 1/2SM CLR 19/18 A3012 RMK AO1=
KKLS 081035Z AUTO 00000KT 10SM CLR 16/13 A2992 RMK AO1=
KLBL 081035Z 05006KT 10SM FEW033 SCT049 BKN060 19/17 A3022 RMK
     AO1=
KLCI 081035Z AUTO 00000KT 10SM BKN100 BKN120 23/20 A3006 RMK
     AO1=
KLEW 081035Z 16005KT 1/2SM OVC002 20/19 A3010 RMK AO1=
KLGD 081035Z AUTO 00000KT 10SM CLR 11/05 A3005 RMK AO1=
KLKV 081035Z AUTO 33008KT 10SM CLR 10/01 A3012 RMK AO1=
KLPC 081035Z AUTO 28003KT 10SM OVC010 13/11 A2992 RMK AO1 PNO=
KLUX 081035Z AUTO 26003KT 10SM CLR 21/21 A3002 RMK AO2=
KMBL 081035Z AUTO 00000KT 9SM BKN065 BKN080 OVC110 22/19 A3000 RMK
     AO1=
KMER 081035Z AUTO 32007KT 10SM CLR 17/11 A2983 RMK AO1=
KMJX 081035Z AUTO 00000KT 1 1/4SM BKN003 OVC009 23/22 A3002 RMK
     AO1=
KMKT 081035Z 29004KT 5SM CLR 16/15 A3011 RMK AO1=
KMML 081035Z AUTO 27006KT 10SM CLR 15/12 A3014 RMK AO1=
KMNI 081035Z AUTO 30003KT 10SM CLR 24/22 A2996 RMK AO2=
KMNM 081035Z AUTO 24003KT 3SM OVC009 21/19 A2998 RMK AO1=
KMRF 081035Z AUTO 02007KT 10SM BKN095 16/14 A3018 RMK AO1=
KMSV 081035Z AUTO 00000KT 5SM CLR 21/18 A3010 RMK AO1=
####018000081####
SPAK32 KWBC 081036
SPECI
PAEH SP 1035 AWOS CLR BLO 120 10 47/-20/0000/000=
####018000071####
SPAK32 KWBC 081036
SPECI
PACZ SP 1035 AWOS MM 10 50/49/0407/006=
####018000080####
SPAK32 KWBC 081036
SPECI
PAIM SP 1035 AWOS CLR BLO 120 10 51/45/0704/008=
####018000292####
SPUS80 KWBC 081036
SPECI
KORF 081024Z 08005KT 10SM BKN010 BKN110 26/24 A2997 RMK AO2=
KRFD 081025Z 25004KT 8SM BKN006 OVC011 22/21 A3004 RMK AO2=
KCNK 081034Z AUTO 02008KT 10SM OVC031 20/18 A3016 RMK AO2=
KDAL 081034Z 13007KT 10SM SCT014 SCT020 SCT037 26/23 A3000 RMK
     AO2=
####018000028####
SAAS31 KWBC 081030
NIL=
####018000104####
SPPA41 KWBC 081036
SPECI
PGUA 081032Z AUTO 09014KT 10SM R06L/5500VP6000FT -RA BKN018 27/
A2990=
####018000872####
SAAO31 KWBC 081030
METAR
GCFV 081030Z 06011KT 9999 FEW018 23/18 Q1017=
GCHI NIL=
GCLA 081030Z 01013KT 340V040 9999 BKN020 24/17 Q1019=
GCLP 081030Z 02024KT 350V050 9999 FEW020 25/18 Q1017 NOSIG=
GCRR 081030Z 36014G26KT 320V040 9999 FEW020 25/18 Q1017=
GCTS 081030Z 07014KT 9999 FEW015 24/18 Q1018 NOSIG=
GCXO 081030Z 28013KT 250V310 9999 R12/1000VP2000U VCFG FEW001
     SCT003 18/17 Q1020 NOSIG=
GEML 081030Z 07008KT 020V120 9999 FEW012 26/21 Q1017=
GMAA NIL=
GMAT NIL=
GMFF 081030Z NIL=
GMFO NIL=
GMME 081030Z 36006KT 6000 SCT010 BKN015 24/19 Q1016 NOSIG=
GMME 081030Z NIL=
GMMN 081030Z 36010KT 320V050 9999 SCT010 BKN023 26/19 Q1017
     NOSIG=
GMMX 081030Z 32005KT 270V020 7000 FEW026 30/17 Q1017 NOSIG=
GMOY NIL=
GMTA NIL=
GMTN NIL=
GMTT 081030Z 27004KT 210V300 8000 SCT016 SCT100 26/20 Q1016
     NOSIG=
GSAI NIL=
####018000091####
SPAU31 KWBC 081036
SPECI
YBCS 081030Z 18008KT 9999 FEW024 BKN045 23/19 Q1016 RMK FU=
####018000241####
SAAS32 KWBC 081030
METAR
RKPC NIL=
RKPK NIL=
RKSS NIL=
VHHH 081030Z 20010KT 160V230 9999 FEW020 SCT030 31/25 Q1006
     NOSIG=
VMMC 081030Z 19013KT 180V260 9999 FEW025 SCT090 30/27 Q1006
     NOSIG=
ZJSY NIL=
ZKPY NIL=
####018000405####
SAAS33 KWBC 081030
METAR
VBRR NIL=
VDPP NIL=
VDSR NIL=
VLVT NIL=
VTBA NIL=
VTBD NIL=
VTBU NIL=
VTCC NIL=
VTSP NIL=
VTSS NIL=
VVDN NIL=
VVGL NIL=
VVNB NIL=
VVTS NIL=
WBGG NIL=
WBKK NIL=
WMAM NIL=
WMKJ NIL=
WMKK NIL=
WMKP NIL=
WMSA NIL=
WPDL NIL=
WPEC NIL=
WSAP NIL=
WSSL NIL=
WSSS 081030Z 21004KT 170V250 9999 FEW016 BKN280 29/25 Q1009
     NOSIG=
####018000076####
SPCN31 KWBC 081036
SPECI
CZBF 081033Z 00000KT 3/8SM FG VV002 RMK FG8=
####018000028####
SAAW31 KWBC 081030
NIL=
####018000852####
SAAW32 KWBC 081030
METAR
OEDF NIL=
OEDR NIL=
OEJN NIL=
OEMA NIL=
OERK NIL=
OIAA NIL=
OIAW 081030Z NIL=
OIBB NIL=
OIBK NIL=
OICC NIL=
OICK NIL=
OICS NIL=
OIFM 081030Z NIL=
OIFP NIL=
OIGG NIL=
OIHH NIL=
OIII 081030Z 14010KT CAVOK 39/M03 Q1013 A2994 878.9=
OIIM NIL=
OIIP NIL=
OIIX NIL=
OIKB 081030Z NIL=
OIKK 081030Z NIL=
OIMM 081030Z 03008KT CAVOK 39/M02 Q1014 A2995=
OINN NIL=
OINR NIL=
OINZ NIL=
OISM NIL=
OISS 081030Z NIL=
OITL NIL=
OITR NIL=
OITT 081030Z 06006KT CAVOK 37/03 Q1014 A2995=
OIYY NIL=
OIZH 081030Z 32006KT 9999 FEW045 38/M02 Q1012 A2991=
OKBK 081030Z 35019KT 8000 -BLDU SKC 47/M11 Q1000 NOSIG=
ORBI NIL=
ORBS NIL=
ORMM NIL=
OSAP NIL=
OSDI NIL=
OSLK NIL=
OTBD 081030Z 05007KT 350V080 6000 HZ NSC 37/29 Q0999 NOSIG=
OTBH NIL=
OTMA NIL=
OTMS NIL=
####018000028####
SAAW33 KWBC 081030
NIL=
####018000089####
SAAW33 KWBC 081000 RRD
METAR
OBBI 081000Z 36010KT 7000 NSC 37/25 Q1000 BECMG 8000=
####018000096####
SAAW34 KWBC 081015 RRC
METAR
UTSS 081030Z 08005MPS 9999 NSC 36/13 Q1010 R88/CLRD70 NOSIG=
####018000089####
SAAW42 KWBC 081000 RRB
METAR
OBBI 081000Z 36010KT 7000 NSC 37/25 Q1000 BECMG 8000=
####018000629####
SAEE31 KWBC 081030
METAR
EPGD 081030Z VRB05KT CAVOK 24/10 Q1021=
EPKK 081030Z 34005KT 290V020 9999 FEW053 22/08 Q1022=
EPKT 081030Z 28005KT CAVOK 21/08 Q1023=
EPPO 081030Z VRB05KT CAVOK 23/08 Q1022=
EPQT NIL=
EPRZ 081030Z 31009KT 9999 SCT040 21/11 Q1021=
EPSC NIL=
EPWA 081030Z 30010KT 250V340 9999 FEW046 22/11 Q1021 NOSIG=
EYSA NIL=
UKBB 081030Z 27004MPS 250V310 9999 BKN030 25/18 Q1014 88CLRD95
     NOSIG=
UKKK NIL=
UKLL 081030Z 32004MPS 260V010 9999 BKN046 18/11 Q1021 31210365
     NOSIG=
UKOO 081030Z 35004MPS 330V040 CAVOK 26/15 Q1014 34090070 NOSIG=
UMII NIL=
UMMM NIL=
UMMS NIL=
####018000707####
SAEE32 KWBC 081030
METAR
LBBG 081030Z 32005MPS 270V360 9999 BKN025 BKN035 19/14 Q1015
     NOSIG=
LBPD 081030Z 26006MPS 9999 SCT050 BKN075 16/14 Q1017 NOSIG=
LBSF 081030Z 28006MPS 9999 BKN033 18/12 Q1018 NOSIG=
LBWN 081030Z 27006MPS 240V300 9999 BKN025 19/15 Q1014 NOSIG=
LHBP 081030Z 24007KT 180V290 CAVOK 23/11 Q1021 NOSIG=
LHTA NIL=
LRAR NIL=
LRBS 081030Z 31003KT 280V350 9999 FEW020 SCT049 21/14 Q1017
     NOSIG=
LRCK 081030Z 01010KT 320V050 9999 FEW035 24/15 Q1015 NOSIG=
LROP 081030Z 29003KT 240V350 9999 FEW040CB FEW049 21/14 Q1016
     880///95 NOSIG=
LRTC NIL=
LRTM NIL=
LRTR 081030Z 01007KT 320V050 9999 SCT030 22/15 Q1020=
LUCC NIL=
LUKK NIL=
LURN NIL=
####018001687####
SAEM31 KWBC 081030
METAR
KQLA NIL=
KQLH NIL=
KQLX NIL=
LATI 081030Z 05008KT 9999 FEW040 27/12 Q1016 NOSIG=
LDDU 081030Z VRB08G18KT 9999 FEW043 26/06 Q1019 NOSIG=
LDDV NIL=
LDKT NIL=
LDOS 081030Z 32004KT 9999 FEW033 23/08 Q1022 NOSIG=
LDPL 081030Z 08004KT 330V170 CAVOK 26/11 Q1022 NOSIG=
LDRI 081030Z 27006KT 210V300 9999 FEW047 24/10 Q1022 NOSIG=
LDSP 081030Z 20009KT 130V260 CAVOK 28/06 Q1020 NOSIG=
LDZA 081030Z 02004KT 310V080 CAVOK 25/09 Q1022 NOSIG=
LDZD 081030Z VRB06KT CAVOK 27/04 Q1021 NOSIG=
LJLJ NIL=
LJMB NIL=
LJPZ NIL=
LKIB NIL=
LKMT 081030Z 06005KT 340V120 CAVOK 21/10 Q1023 NOSIG=
LKPR 081030Z 28005KT 210V360 CAVOK 23/10 Q1024 NOSIG=
LKTB 081030Z VRB05KT CAVOK 23/08 Q1023 NOSIG=
LKTT NIL=
LOAV NIL=
LOIH NIL=
LOIJ NIL=
LOLW NIL=
LOWG NIL=
LOWH NIL=
LOWI NIL=
LOWK NIL=
LOWL NIL=
LOWS NIL=
LOWW NIL=
LOWZ NIL=
LQSA 081030Z 31006KT 270V070 9999 FEW045 SCT055 BKN065 21/11 Q1023
     NOSIG=
LWOH 081030Z VRB03KT 9999 FEW035 BKN045 19/09 Q1019=
LWSK 081030Z 34006KT 9999 BKN040 18/11 Q1020 NOSIG=
LYBE 081030Z 34011KT 9999 SCT040 21/12 Q1022 NOSIG=
LYDU NIL=
LYLJ NIL=
LYMB NIL=
LYNI 081030Z 32011KT 9999 SCT023 BKN030 18/13 Q1021 NOSIG=
LYOH NIL=
LYOS NIL=
LYPG 081030Z 02016KT 360V060 9999 FEW040 27/08 Q1018 NOSIG=
LYPL NIL=
LYPR 081030Z NIL=
LYPZ NIL=
LYRI NIL=
LYSA NIL=
LYSK NIL=
LYSP NIL=
LYTI NIL=
LYTV 081030Z 34006KT 9999 FEW053 28/09 Q1017 NOSIG=
LYTV 081030Z NIL=
LYZA NIL=
LYZD NIL=
LZIB 081030Z 33009KT 280V030 CAVOK 23/07 Q1022=
LZKZ 081030Z 01010KT 340V090 CAVOK 23/08 Q1021 NOSIG=
LZTT 081030Z VRB02KT 9999 FEW040 21/08 Q1022 NOSIG=
####018000142####
SPPA31 KWBC 081036
SPECI
PGUA 081032Z AUTO 09014KT 10SM R06L/5500VP6000FT -RA BKN018 27/
A2990 RMK AO2 RAB1032 SLP107 VISNO RWY24L $=
####018000084####
SPUS41 KWBC 081036
SPECI
KHUL 081033Z AUTO 20007KT 4SM BR FEW009 21/19 A3003=
####018000317####
SAEW31 KWBC 081030
METAR
LPAZ NIL=
LPFR 081030Z 25008KT 210V290 9999 SCT011 BKN012 24/20 Q1016=
LPFU NIL=
LPPD NIL=
LPPR 081030Z 22010KT 5000 BR FEW003 SCT006 BKN250 22/18 Q1014=
LPPS 081030Z 01011KT 340V040 9999 FEW016 22/15 Q1020=
LPPT 081030Z 24006KT 200V270 CAVOK 27/19 Q1015 NOSIG=
LXGB NIL=
####018000646####
SAFR31 KWBC 081030
METAR
LFAC NIL=
LFAT NIL=
LFBD 081030Z 08011KT CAVOK 31/12 Q1017 NOSIG=
LFBH 081030Z AUTO 33006KT 9999NDV NSC 29/15 Q1017=
LFBI 081030Z NIL=
LFBO 081030Z 12010KT 080V160 CAVOK 32/12 Q1018 NOSIG=
LFBP 081030Z NIL=
LFBT 081030Z NIL=
LFBZ 081030Z NIL=
LFGJ 081030Z AUTO 19006KT 150V240 9999NDV NSC 28/14 Q1020=
LFKB 081030Z NIL=
LFKC 081030Z NIL=
LFKJ 081030Z 23010KT 9999 FEW026 28/23 Q1019 NOSIG=
LFLB 081030Z NIL=
LFLC 081030Z NIL=
LFLL 081030Z VRB03KT CAVOK 29/14 Q1020 NOSIG=
LFLS 081030Z NIL=
LFLY 081030Z NIL=
LFMD 081030Z AUTO 14008KT 100V180 9999NDV NSC 30/20 Q1020=
LFMH NIL=
####018001271####
SAFR32 KWBC 081030
METAR
LFML 081030Z 27006KT 9999 FEW050 31/17 Q1020 NOSIG=
LFMN 081030Z 10008KT 9999 FEW023 29/21 Q1020 NOSIG=
LFMP 081030Z NIL=
LFMT 081030Z NIL=
LFOB 081030Z NIL=
LFOH 081030Z AUTO 35014KT //// R23///// NSC 21/13 Q1019=
LFOT 081030Z AUTO 12004KT 040V190 9999NDV NSC 30/12 Q1018=
LFPB 081030Z AUTO 21004KT 150V280 9999NDV NSC 30/10 Q1019=
LFPG 081030Z 16008KT 120V200 CAVOK 29/09 Q1019 NOSIG=
LFPN NIL=
LFPO 081030Z 14004KT 080V190 CAVOK 29/10 Q1019 NOSIG=
LFQQ 081030Z VRB04KT CAVOK 28/13 Q1019 NOSIG=
LFRB 081030Z NIL=
LFRC 081030Z AUTO 34005KT 280V060 9999NDV NSC 20/15 Q1019=
LFRD 081030Z AUTO 02006KT 340V110 9999NDV NSC 21/15 Q1019=
LFRG NIL=
LFRK NIL=
LFRN 081030Z AUTO VRB04KT 9999NDV NSC 26/15 Q1018=
LFRO 081030Z AUTO 01004KT 320V050 9999NDV BKN019 BKN190 20/16
     Q1019=
LFRQ NIL=
LFRS 081030Z NIL=
LFRT NIL=
LFRZ 081030Z AUTO 01004KT 290V090 9999NDV NSC 29/13 Q1018=
LFSB 081030Z 25003KT 170V320 CAVOK 29/11 Q1021 NOSIG=
LFSF 081030Z AUTO 31003KT 260V360 9999NDV NSC 29/10 Q1020=
LFSN 081030Z NIL=
LFSR 081030Z AUTO VRB03KT 9999NDV NSC 29/10 Q1019=
LFST 081030Z 15004KT 080V230 CAVOK 28/11 Q1020 NOSIG=
LFTW 081030Z AUTO 12004KT 050V190 9999NDV NSC 31/14 Q1020=
LFVP NIL=
####018000854####
SAFR41 KWBC 081030
METAR
LFAF NIL=
LFBA NIL=
LFBC 081030Z AUTO 09011KT 9999NDV NSC 33/11 Q1016=
LFBL 081030Z NIL=
LFBM 081030Z AUTO 11009KT 070V140 9999NDV NSC 33/17 Q1016=
LFKF 081030Z NIL=
LFLD NIL=
LFLV NIL=
LFOE NIL=
LFOP 081030Z NIL=
LFPB 081030Z AUTO 21004KT 150V280 9999NDV NSC 30/10 Q1019=
LFPG 081030Z 16008KT 120V200 CAVOK 29/09 Q1019 NOSIG=
LFPV 081030Z AUTO 18003KT 140V240 9999NDV NSC 28/10 Q1019=
LFQB NIL=
LFQQ 081030Z VRB04KT CAVOK 28/13 Q1019 NOSIG=
LFRH NIL=
LFRM NIL=
LFSC NIL=
LFSD 081030Z AUTO VRB03KT 9999NDV NSC 28/14 Q1020=
LFSI 081030Z AUTO 31003KT 220V360 9999NDV NSC 30/10 Q1020=
LFSL 081030Z AUTO 13005KT 070V170 9999NDV NSC 29/14 Q1020=
LFSO 081030Z AUTO 23004KT 150V300 9999NDV NSC 29/11 Q1021=
LFSX 081030Z AUTO 14006KT 090V210 9999NDV NSC 29/13 Q1021=
LFTH 081030Z NIL=
####018000345####
SAIE31 KWBC 081030
METAR
EICK 081030Z 21010KT 9999 -RA BKN012 BKN060 15/13 Q1016 NOSIG=
EIDB NIL=
EIDW 081030Z 22013KT 9999 FEW026 SCT050 BKN130 17/10 Q1015
     NOSIG=
EIKN 081030Z 22013KT 180V270 9999 -SHRA FEW015 BKN045 BKN120 14/10
     Q1013 NOSIG=
EINN 081030Z 19009KT 9999 FEW016 SCT050 BKN070 16/12 Q1015
     NOSIG=
####018000028####
SAHA31 KWBC 081030
NIL=
####018000095####
SAIO31 KWBC 081000 RRG
METAR
FMMI 081030Z 13007KT 080V180 9999 BKN020 19/13 Q1025 NOSIG=
####018000028####
SAIQ31 KWBC 081030
NIL=
####018000028####
SAIQ32 KWBC 081030
NIL=
####018000028####
SAJP31 KWBC 081030
NIL=
####018000028####
SAJP41 KWBC 081030
NIL=
####018000028####
SAJP42 KWBC 081030
NIL=
####018000028####
SAJP43 KWBC 081030
NIL=
####018000028####
SAJP44 KWBC 081030
NIL=
####018000028####
SAJP45 KWBC 081030
NIL=
####018000094####
SAKO31 KWBC 081000 RRA
METAR
RKSI 081030Z 15005KT 9999 FEW040 OVC110 24/18 Q1008 NOSIG=
####018000195####
SAMM31 KWBC 081030
METAR
LCEN NIL=
LCLK 081030Z 18016KT 9999 FEW025 29/23 Q1008 NOSIG=
LCNC 081030Z NIL=
LCPH 081030Z 24008KT 210V280 9999 FEW030 29/22 Q1009=
LCRA NIL=
LMML NIL=
####018000095####
SANT31 KWBC 081000 RRC
METAR
BIKF 081030Z 03024KT 9999 FEW015 SCT032 BKN070 10/05 Q0993=
####018000358####
SAPO31 KWBC 081000 RRC
METAR
LPFR 081030Z 25008KT 210V290 9999 SCT011 BKN012 24/20 Q1016=
LPMA 081030Z 22005KT 9999 FEW016 24/16 Q1020 RS17005KT 0519004KT
     2302013KT=
LPPR 081030Z 22010KT 5000 BR FEW003 SCT006 BKN250 22/18 Q1014=
LPPS 081030Z 01011KT 340V040 9999 FEW016 22/15 Q1020=
LPPT 081030Z 24006KT 200V270 CAVOK 27/19 Q1015 NOSIG=
####018000231####
SARA31 KWBC 081000 RRH
METAR
UTNN 081030Z 25004MPS 220V280 CAVOK 43/06 Q1007 R15/CLRD70
     NOSIG=
UTNU 081030Z VRB01MPS CAVOK 42/07 Q1007 R13/CLRD60 NOSIG=
UTSS 081030Z 08005MPS 9999 NSC 36/13 Q1010 R88/CLRD70 NOSIG=
####018000075####
SASA31 KWBC 080500 RRG
METAR
SKLT 080500Z 00000KT CAVOK 25/24 A2986=
####018000238####
SASA31 KWBC 080600 RRF
METAR
SKBO 080600Z 00000KT 9999 BKN012 12/11 A3032=
SKCG 080600Z VRB02KT 9999 SCT012 BKN070 28/26 A2988=
SKLT 080600Z 00000KT CAVOK 25/24 A2985=
SKRG 080600Z 00000KT 3500 BCFG BKN006 BKN080 14/14 A3030=
####018000136####
SASA31 KWBC 080700 RRE
METAR
SKBO 080700Z 00000KT 9999 BKN012 12/11 A3030=
SKCL 080700Z VRB02KT 9999 FEW025 BKN100 21/19 A3000=
####018001440####
SASP31 KWBC 081030
METAR
LEAL 081030Z 08010KT CAVOK 31/14 Q1019 NOSIG=
LEAM 081030Z 07010KT 020V100 CAVOK 37/04 Q1016=
LEAS 081030Z 34004KT 290V020 9999 SCT003 OVC014 20/19 Q1019
     NOSIG=
LEBB 081030Z 29010KT 8000 NSC 27/21 Q1015 NOSIG=
LEBL 081030Z 20015KT CAVOK 27/21 Q1019 NOSIG=
LECO 081030Z 00000KT 9999 FEW010 24/21 Q1014=
LEGE 081030Z 10001KT CAVOK 33/15 Q1019=
LEGR 081030Z 17013KT 140V200 9999 FEW060 38/07 Q1018=
LEIB 081030Z 08010KT 050V150 CAVOK 29/21 Q1019 NOSIG=
LEJR 081030Z 24003KT 170V290 CAVOK 28/18 Q1016=
LELC 081030Z NIL=
LELL 081030Z 14002KT CAVOK 31/14 Q1019=
LEMD 081030Z 18002KT CAVOK 33/12 Q1019 NOSIG=
LEMG 081030Z 18010KT 140V240 9999 FEW030 30/15 Q1017 NOSIG=
LEMH 081030Z VRB03KT CAVOK 29/20 Q1021=
LEPA 081030Z 22006KT 190V260 CAVOK 31/13 Q1020 NOSIG=
LEPP 081030Z 19003KT 9999 FEW060 34/15 Q1019=
LERS 081030Z 21007KT 150V260 CAVOK 28/17 Q1019=
LESO 081030Z 03006KT 340V060 CAVOK 25/20 Q1015=
LEST 081030Z 12009KT 080V140 CAVOK 22/19 Q1015 NOSIG=
LETO NIL=
LEVC 081030Z VRB03KT CAVOK 32/19 Q1019 NOSIG=
LEVD 081030Z 22003KT 160V300 CAVOK 32/10 Q1020=
LEVS 081030Z 09004KT 030V150 CAVOK 30/13 Q1020=
LEVT 081030Z 09001KT CAVOK 32/15 Q1018=
LEVX 081030Z 27008KT CAVOK 27/22 Q1013=
LEXJ 081030Z 29008KT 260V340 9999 SCT018 24/19 Q1016=
LEZG 081030Z 09009KT 060V120 CAVOK 33/16 Q1018=
LEZL 081030Z 29005KT 200V350 9999 SCT020 30/17 Q1016 NOSIG=
####018000281####
SATS31 KWBC 081030
METAR
DTMB 081030Z 03008KT CAVOK 28/17 Q1019 NOSIG=
DTTA 081030Z 05004KT CAVOK 30/18 Q1019 NOSIG=
DTTB NIL=
DTTD NIL=
DTTG NIL=
DTTJ 081030Z 07008KT CAVOK 30/21 Q1019 NOSIG=
DTTK NIL=
DTTL NIL=
DTTN NIL=
DTTR NIL=
DTTX NIL=
DTTZ NIL=
####018000109####
SAUK32 KWBC 081020 CCA
METAR
EGSH 081020Z 24008KT 210V280 9999 SCT012 SCT019 21/16 Q1018
     NOSIG=
####018000856####
SAXX99 KWBC 081000 RRX
METAR
EPWR 081030Z VRB03KT CAVOK 24/10 Q1023=
ETGY 081020Z 22004KT 9999 FEW120 BKN250 29/10 Q1019 BLU/=
LESA 081030Z VRB02KT CAVOK 33/14 Q1019=
LFBG 081030Z AUTO 12008KT 070V150 9999NDV NSC 31/15 Q1017=
LFCR 081030Z AUTO VRB04KT 9999NDV NSC 31/06 Q1022=
LFJL 081030Z AUTO 29005KT 270V340 9999NDV NSC 28/09 Q1021=
LFLX 081030Z NIL=
LFMI 081030Z AUTO 24006KT 180V310 9999NDV NSC 32/16 Q1020=
LFMK 081030Z AUTO 09014KT 9999NDV NSC 31/15 Q1019=
LFMU 081030Z AUTO 13007KT 090V170 9999NDV NSC 30/12 Q1020=
LFMV 081030Z AUTO VRB04KT 9999NDV NSC 32/15 Q1020=
LFOA 081030Z AUTO 10004KT 020V160 9999NDV NSC 29/13 Q1019=
LFOJ 081030Z 17004KT 120V210 CAVOK 30/13 Q1019=
LFOK 081030Z AUTO VRB02KT 9999NDV NSC 29/10 Q1020=
LFQI 081030Z 23006KT 180V280 CAVOK 29/11 Q1019=
LKKV 081030Z VRB02KT CAVOK 22/09 Q1024=
####018000081####
SPUS52 KWBC 081036
SPECI
KESF 081033Z AUTO 00000KT 3SM BR CLR 22/22 A3003=
####018000084####
SPUS53 KWBC 081036
SPECI
KDDC 081033Z AUTO 01008KT 5SM BR OVC003 18/17 A3018=
####018000077####
SALJ32 LJLJ 081030
METAR LJCE 081030Z VRB02KT CAVOK 25/09 Q1023 RMK BLU=
####018000322####
SARO33 LROM 081030
METAR LRBC 081030Z 35016KT 9999 BKN027 23/16 Q1017=
METAR LRCV 081030Z VRB04KT 9999 FEW031 23/14 Q1017=
METAR LRIA 081030Z 30010KT 260V340 9999 FEW020 SCT033 23/18 Q1017=
METAR LRSV 081030Z 33013KT 9999 SCT010 BKN026 17/14 Q1019=
METAR LRTC 081030Z 35010KT 9999 FEW030CB BKN040 23/17 Q1014=
####018000220####
SATR31 RUMS 081030
METAR UTAA 081030Z 10005MPS 060V130 9999 SKC 44/03 Q1007 NOSIG=
METAR UTAK 081030Z NIL=
METAR UTAM 081030Z 01006MPS CAVOK 41/06 Q1006 NOSIG=
METAR UTAT 081030Z NIL=
METAR UTAV 081030Z NIL=
####018000191####
SALJ31 LJLJ 081030
METAR LJLJ 081030Z 13004KT 070V210 9999 FEW040 23/12 Q1023 NOSIG=
METAR LJMB 081030Z VRB03KT 9999 FEW040 24/09 Q1023=
METAR LJPZ 081030Z 30007KT CAVOK 24/12 Q1022=
####018000715####
SAKZ31 RUMS 081030
METAR UAAA 081030Z 17003MPS 9999 SCT050CB BKN100 27/13 Q1014 88CLRD65
TEMPO TS=
METAR UACC 081030Z 31003MPS 270V360 CAVOK 25/02 Q1009 220/0070 NOSIG
RMK QFE725/0967=
METAR UAKK 081030Z 07002MPS 020V120 9999 BKN050CB BKN/// 24/03 Q1009
230///70 NOSIG RMK QFE710/0947=
METAR UAOO 081030Z NIL=
METAR UARR 081030Z NIL=
METAR UATE 081030Z 02005G10MPS CAVOK 39/07 Q1010 300///70 NOSIG RMK
QFE756/1008=
METAR UATG 081030Z 34007G12MPS 300V360 CAVOK 39/09 Q1008 32CLRD70
NOSIG RMK QFE758/1011 =
METAR UATT 081030Z 07007MPS 040V100 9999 NSC 33/02 Q1010 13CLRD70
NOSIG RMK QFE738/0985=
METAR UAUU 081030Z 34006MPS 300V360 CAVOK 26/M03 Q1012 33CLRD70 NOSIG
RMK QFE744/0992=
####018000161####
SAAY31 RUMS 081030
METAR UDYZ 081030Z VRB02MPS 9999 FEW050 36/13 Q1009 09010070 NOSIG=
METAR UDSG 081030Z 07008G13MPS 9999 NSC 31/14 Q1015 02CLRD70 NOSIG=
####018000102####
SPAU32 YBBN 081035
SPECI YBCG 081035Z AUTO 20010KT 9999NDV // SCT015 BKN034 OVC060 15/13
Q1021=
####018000371####
SAPO31 LPMG 081030
METAR LPFR 081030Z 25008KT 210V290 9999 SCT011 BKN012 24/20 Q1016=
METAR LPMA 081030Z 22005KT 9999 FEW016 24/16 Q1020 RS17005KT
0519004KT 2302013KT=
METAR LPPR 081030Z 22010KT 5000 BR FEW003 SCT006 BKN250 22/18 Q1014=
METAR LPPS 081030Z 01011KT 340V040 9999 FEW016 22/15 Q1020=
METAR LPPT 081030Z 24006KT 200V270 CAVOK 27/19 Q1015 NOSIG=
####018000423####
SARO32 LROM 081030
METAR LRAR 081030Z 01008KT 330V070 9999 SCT033 22/15 Q1020=
METAR LRBM 081030Z 24004KT 200V270 9999 SCT010 18/17 Q1019=
METAR LRCL 081030Z 29008KT 270V330 9999 FEW015 BKN026 17/13 Q1021
0821//95=
METAR LROD 081030Z 02008KT 330V050 9999 SCT045 23/13 Q1021=
METAR LRSM 081030Z 06006KT 020V080 9999 SCT040 22/13 Q1020=
METAR LRTM 081030Z 24006KT 9999 -RA FEW013 SCT026 BKN030 16/14
Q1020=
####018000276####
SAPO32 LPMG 081030
METAR LPAZ 081030Z 24004KT 9999 BKN016 BKN030 20/19 Q1025=
METAR LPFL 081030Z 21007G17KT 180V250 9999 FEW023 SCT045 23/17 Q1022=
METAR LPHR 081030Z 24007KT 9999 FEW014 SCT035 22/18 Q1023=
METAR LPPD 081030Z VRB02KT 9999 FEW017 BKN030 20/16 Q1024=
####018000082####
SAUS44 KWBC 081000 RRF
METAR
KOLV 081035Z AUTO 00000KT 8SM CLR 23/23 A3008=
####018000081####
SPUS72 KWBC 081036
SPECI
KESF 081033Z AUTO 00000KT 3SM BR CLR 22/22 A3003=
####018000084####
SPUS73 KWBC 081036
SPECI
KDDC 081033Z AUTO 01008KT 5SM BR OVC003 18/17 A3018=
####018000117####
SPCN44 CWAO 081034
SPECI CYEK 081034Z AUTO 09004KT 2 1/8SM OVC001 OVC047 07/07 A2959 RMK
VSBY VRBL 0.6V9.+=

####018000077####
SASD20 OEJD 081000 RRA
METAR OEKJ 081000Z 35020KT 7000 SKC 44/M03 Q1005=
####018000027####
SAKY31 RUMS 081030
NIL
####018000211####
SATA31 RUMS 081030
METAR UTDD 081030Z 16002MPS 110V260 9999 FEW066 37/04 Q1009 09CLRD70
NOSIG RMK QFE689/0919=
METAR UTDL 081030Z 23003MPS 210V280 9999 FEW056TCU 39/09 Q1007 NOSIG
RMK QFE718 8809//70=
####018000098####
SPUS73 KWBC 081036
SPECI
KLAR 081033Z AUTO 28003KT 1SM BR SCT002 BKN007 BKN019 06/06 A3039=
####018000237####
SAUS53 KWBC 081000 RRI
METAR
KANW 081030Z AUTO 00000KT 10SM SCT110 17/15 A3024=
KBIE 081030Z AUTO 34004KT 10SM SCT017 18/17 A3015=
KONL 081030Z AUTO 29005KT 10SM BKN110 17/15 A3022=
KUDG 081035Z 31005KT 10SM CLR 23/18 A2998=
####018000189####
SAUS54 KWBC 081000 RRE
METAR
KIZA 081029Z AUTO 00000KT 10SM OVC009 13/11 A2991=
KSOW 081030Z AUTO 12003KT 10SM SCT110 21/03 A3025=
KTRK 081030Z AUTO 00000KT 10SM CLR 09/08 A3015=
####018000718####
SACI31 ZBBB 081030
METAR ZBAA 081030Z 19006MPS CAVOK 35/10 Q1003 NOSIG=
ZBSJ NIL=
METAR ZBTJ 081030Z 17006MPS CAVOK 29/16 Q1004 NOSIG=
METAR ZBYN 081030Z 10005MPS CAVOK 30/14 Q1007 NOSIG=
METAR ZGGG 081030Z 14005MPS 9999 FEW050TCU SCT050 34/26 Q1004 NOSIG=
METAR ZSHC 081030Z VRB01MPS 9999 -SHRA SCT020 FEW033CB 26/23 Q1005
 TEMPO -TSRA
 FEW033CB=
METAR ZSPD 081030Z 12008MPS 9999 BKN011 27/24 Q1006 NOSIG=
METAR ZSSS 081030Z 11004MPS 9999 BKN020 28/23 Q1005 BECMG BKN011
 OVC040=
ZWSH NIL=
METAR ZWWW 081030Z 30003MPS 9999 FEW040CB 31/09 Q1011 NOSIG=
METAR ZYTL 081030Z 22003MPS 180V250 9999 SCT033 27/18 Q1006 NOSIG=
METAR ZYTX 081030Z 02002MPS 340V040 9999 SCT030 23/19 Q1006 NOSIG=
####018000107####
SAUS72 KWBC 081000 RRG
METAR
KLRU 081031Z AUTO 02004KT 10SM SCT070 SCT080 SCT090 21/14
     A3016=
####018000545####
SAZZ40 KAWN 081000 RRT
METAR BIKF 081030Z 03024KT 9999 FEW015 SCT032 BKN070 10/05 Q0993=
METAR KWRB 080955Z COR 34003KT 10SM CLR 20/20 A3001 RMK AO2A SLP161
      T02050205 COR 1032=
METAR LKKV 081030Z VRB02KT CAVOK 22/09 Q1024=
METAR OIII 081030Z 14010KT CAVOK 39/M03 Q1013 A2994 878/9=
METAR OIMM 081030Z 03008KT CAVOK 39/M02 Q1014 A2995=
METAR OITT 081030Z 06006KT CAVOK 37/03 Q1014 A2995=
METAR OIZH 081030Z 32006KT 9999 FEW045 38/M02 Q1012 A2991=
METAR WSSS 081030Z 21004KT 170V250 9999 FEW016 BKN280 29/25 Q1009 NOSIG=
####018000207####
SANA14 KAWN 081000 RRF
METAR KOSC 081014Z AUTO 28004KT 3SM BR SCT050 SCT060 21/19 A3001 RMK
      AO2=
METAR KWRB 080955Z COR 34003KT 10SM CLR 20/20 A3001 RMK AO2A SLP161
      T02050205 COR 1032=
####018000157####
SAXX70 KAWN 081000 RRS
METAR KQFW 081020Z AUTO 17001KT 7SM CLR 26/19 A2988 RMK A02=
METAR KQEX 081030Z AUTO 19004KT 3SM BR BKN075 27/20 A2974 RMK A02=
####018000100####
SPCN51 CWAO 081035
SPECI CZCP 081035Z AUTO 23011KT 5SM -RA BKN004 BKN016 OVC021 06/
A2985=

####018000080####
SACN88 CWAO 081031
WDA SA 1031 AUTO8 M M M 200/08/08/1007/M/M 5006 33MM=

####018000075####
SACN95 CWAO 081031
WTM SA 1031 AUTO8 M M M M/10/08/1807/M/M M 74MM=

####018000123####
SAAK41 KNKA 081036
SPECI PAWD 081034Z AUTO 00000KT 1/2SM FG BKN005 OVC065 10/09 A2995 
    RMK AO2 CIG 003V010 TSNO=
####018002367####
SAUS20 KNKA 081036
METAR K04W 081034Z AUTO 00000KT 10SM CLR 15/15 A3008 RMK AO2 
     T01540150=
METAR K0A9 081035Z AUTO 00000KT 6SM BR CLR 19/18 A3012 RMK=
METAR K4BM 081033Z AUTO 22006KT 1/2SM SN 05/04 A3063 RMK AO2=
METAR K5SM 081033Z AUTO 00000KT 10SM CLR 08/00 A3055 RMK AO2=
METAR K7BM 081036Z AUTO 00000KT 10SM BKN100 BKN110 09/05 A3055 RMK
     AO2=
METAR KBBG 081035Z AUTO 00000KT 7SM FEW080 22/22 A3008 RMK AO2 =
METAR KBBP 081035Z AUTO 29005KT 10SM CLR 22/19 A2995 RMK AO2=
METAR KBDU 081037Z AUTO 27006KT 10SM CLR 14/12 A3032 RMK AO2=
METAR KBJC 081037Z AUTO 34007KT 10SM CLR 12/11 A3033 RMK AO2=
METAR KBKN 081035Z AUTO 35006KT 10SM CLR 22/21 A3003 RMK AO2 =
METAR KC29 081035Z AUTO 29003KT 10SM BKN014 21/20 A3003 RMK AO2 
     T02110196=
METAR KCCU 081036Z AUTO 17024G28KT 10SM SCT003 SCT011 05/02 A3062
     RMK AO2=
METAR KCIC 081035Z AUTO 12004KT 10SM CLR 21/13 A2983 RMK AO1 =
METAR KCMR 081035Z AUTO 16006KT 10SM SCT110 18/02 A3025 RMK AO1 =
METAR KD39 081034Z AUTO 00000KT 10SM CLR 16/15 A3011 RMK AO2 
     T01590146=
SPECI KDTS 081035Z AUTO 00000KT 1/2SM FG VV001 24/23 A3001 RMK AO2=
METAR KE80 081035Z AUTO 00000KT 10SM CLR 18/11 A3024 RMK AO2 
     T01820113=
METAR KEIK 081035Z AUTO 00000KT 7SM SCT004 SCT011 SCT038 11/11 
     A3032 RMK AO2=
METAR KFMH 081035Z AUTO 16006KT 10SM FEW004 FEW009 OVC015 22/20 
     A3011 RMK AO2 =
METAR KHVS 081035Z AUTO 00000KT 10SM CLR 23/18 A2998 RMK AO2=
METAR KIFP 081035Z AUTO 00000KT 10SM CLR 28/00 A2974 RMK AO2 =
SPECI KLNR 081035Z AUTO 00000KT 1 3/4SM BR OVC002 21/19 A3003 RMK 
    AO2=
METAR KMAN 081035Z AUTO 00000KT 10SM CLR 13/07 A3004 RMK AO1 =
METAR KMAO 081035Z AUTO 33003KT 10SM CLR 24/19 A2993 RMK AO2=
METAR KMYP 080936Z AUTO 06004KT M1/4SM SN OVC001 03/02 A3075 RMK
     AO2=
METAR KNQA 081035Z COR 00000KT 10SM FEW250 23/23 A3007 RMK=
METAR KRBW 081035Z AUTO 28003KT 10SM CLR 22/20 A2998 RMK AO2=
METAR KSMS 081035Z AUTO 00000KT 10SM CLR 22/19 A2998 RMK AO2 =
METAR KSRR 081035Z AUTO 24003KT 10SM BKN110 13/12 A3034 RMK AO2 =
METAR KVQQ 081035Z AUTO 00000KT 5SM BR CLR 17/17 A3001 RMK AO2 =
METAR KVTP 081040Z AUTO 05005KT M1/4SM OVC001 05/05 A3055 RMK AO2=
METAR KWYS 081030Z AUTO 00000KT 10SM CLR 00/M02 A3036 RMK AO2=
METAR KY51 081035Z AUTO 29003KT 3SM CLR 19/19 A3005 RMK AO1 
     T01900188=
####018002018####
SAUS99 KWBC 081037
METAR
K04W 081034Z AUTO 00000KT 10SM CLR 15/15 A3008 RMK AO2
     T01540150=
K0A9 081035Z AUTO 00000KT 6SM BR CLR 19/18 A3012 RMK=
K4BM 081033Z AUTO 22006KT 1/2SM SN 05/04 A3063 RMK AO2=
K5SM 081033Z AUTO 00000KT 10SM CLR 08/00 A3055 RMK AO2=
K7BM 081036Z AUTO 00000KT 10SM BKN100 BKN110 09/05 A3055 RMK
     AO2=
KBBG 081035Z AUTO 00000KT 7SM FEW080 22/22 A3008 RMK AO2=
KBBP 081035Z AUTO 29005KT 10SM CLR 22/19 A2995 RMK AO2=
KBDU 081037Z AUTO 27006KT 10SM CLR 14/12 A3032 RMK AO2=
KBJC 081037Z AUTO 34007KT 10SM CLR 12/11 A3033 RMK AO2=
KBKN 081035Z AUTO 35006KT 10SM CLR 22/21 A3003 RMK AO2=
KC29 081035Z AUTO 29003KT 10SM BKN014 21/20 A3003 RMK AO2
     T02110196=
KCCU 081036Z AUTO 17024G28KT 10SM SCT003 SCT011 05/02 A3062 RMK
     AO2=
KCIC 081035Z AUTO 12004KT 10SM CLR 21/13 A2983 RMK AO1=
KCMR 081035Z AUTO 16006KT 10SM SCT110 18/02 A3025 RMK AO1=
KD39 081034Z AUTO 00000KT 10SM CLR 16/15 A3011 RMK AO2
     T01590146=
KE80 081035Z AUTO 00000KT 10SM CLR 18/11 A3024 RMK AO2
     T01820113=
KEIK 081035Z AUTO 00000KT 7SM SCT004 SCT011 SCT038 11/11 A3032 RMK
     AO2=
KFMH 081035Z AUTO 16006KT 10SM FEW004 FEW009 OVC015 22/20 A3011
     RMK AO2=
KHVS 081035Z AUTO 00000KT 10SM CLR 23/18 A2998 RMK AO2=
KIFP 081035Z AUTO 00000KT 10SM CLR 28/00 A2974 RMK AO2=
KMAN 081035Z AUTO 00000KT 10SM CLR 13/07 A3004 RMK AO1=
KMAO 081035Z AUTO 33003KT 10SM CLR 24/19 A2993 RMK AO2=
KMYP 080936Z AUTO 06004KT M1/4SM SN OVC001 03/02 A3075 RMK AO2=
KNQA 081035Z COR 00000KT 10SM FEW250 23/23 A3007 RMK=
KRBW 081035Z AUTO 28003KT 10SM CLR 22/20 A2998 RMK AO2=
KSMS 081035Z AUTO 00000KT 10SM CLR 22/19 A2998 RMK AO2=
KSRR 081035Z AUTO 24003KT 10SM BKN110 13/12 A3034 RMK AO2=
KVQQ 081035Z AUTO 00000KT 5SM BR CLR 17/17 A3001 RMK AO2=
KVTP 081040Z AUTO 05005KT M1/4SM OVC001 05/05 A3055 RMK AO2=
KWYS 081030Z AUTO 00000KT 10SM CLR 00/M02 A3036 RMK AO2=
KY51 081035Z AUTO 29003KT 3SM CLR 19/19 A3005 RMK AO1
     T01900188=
####018000263####
SPUS99 KWBC 081037
SPECI
PAWD 081034Z AUTO 00000KT 1/2SM FG BKN005 OVC065 10/09 A2995 RMK
     AO2 CIG 003V010 TSNO=
KDTS 081035Z AUTO 00000KT 1/2SM FG VV001 24/23 A3001 RMK AO2=
KLNR 081035Z AUTO 00000KT 1 3/4SM BR OVC002 21/19 A3003 RMK
     AO2=
####018000699####
SAKZ31 RUMS 081030
METAR UAAA 081030Z 17003MPS 9999 SCT050CB BKN100 27/13 Q1014 88CLRD65
TEMPO TS=
METAR UACC 081030Z 31003MPS 270V360 CAVOK 25/02 Q1009 220/0070 NOSIG
RMK QFE725/0967=
METAR UAKK 081030Z 07002MPS 020V120 9999 BKN050CB BKN/// 24/03 Q1009
230///70 NOSIG RMK QFE710/0947=
METAR UAOO 081030Z NIL=
METAR UARR 081030Z NIL=
METAR UATE 081030Z 02005G10MPS CAVOK 39/07 Q1010 300///70 NOSIG RMK
QFE756/1008=
METAR UATG 081030Z 34007G12MPS 300V360 CAVOK 39/09 Q1008 32CLRD70
NOSIG RMK QFE758/1011 =
METAR UATT 081030Z 07007MPS 040V100 9999 NSC 33/02 Q1010 13CLRD70
NOSIG RMK QFE738/0985=
METAR UAUU 081030Z 34006MPS 300V360 CAVOK 26/M03 Q1012 33CLRD70 NOSIG
RMK QFE744/0992=
####018000026####
SAKY31 RUMS 081030
NIL
####018000764####
SAUR31 UKMS 081030
METAR UKLR 081030Z 32006MPS 270V350 9999 BKN023
         BKN100  21/15 Q1018 30090070 NOSIG=
METAR UKLI 081030Z 30003MPS 240V340 9999 SCT020CB
         BKN027 17/14 Q1020 28290565 NOSIG=
METAR UKON 081030Z 32003MPS 290V360 9999 FEW033
         OVC200  27/17 Q1013 05090075 NOSIG=
METAR UKCM 081030Z 14003MPS 110V200 CAVOK 28/18 Q1014
          02010065 NOSIG=
METAR UKCW 081030Z VRB02MPS 9999 BKN040 30/16 Q1015
         2709//70 NOSIG=
METAR UKLU NIL=
METAR UKKK 081030Z 24004MPS 220V280 9999 BKN025 24/18
         Q1015  26CLRD70 NOSIG=
METAR UKKM 081030Z 33003MPS 300V010 9999 BKN030 23/17
         Q1015  33CLRD70 NOSIG=
METAR UKLN 081030Z 29005MPS 260V330 9999 -SHRA BKN010
          BKN033CB 15/14 Q1020 3319//65 NOSIG=
####018000086####
SANL33 EHDB 081025 RRB
METAR EHSC 081025Z AUTO 27008G08KT 9999 17/15 Q1020 W///S2=
####018000358####
SAAL31 DAAA 081030
METAR DAAG 081030Z 02008KT CAVOK 32/17 Q1019=
METAR DAAT 081030Z 12014KT 080V150 CAVOK 32/02 Q1022=
METAR DABB 081030Z 01012KT CAVOK 28/14 Q1019=
METAR DABC 081030Z 33008KT CAVOK 31/06 Q1023=
METAR DAON 081030Z 36008KT CAVOK 34/21 Q1017=
METAR DAOO 081030Z 01010KT CAVOK 28/21 Q1016=
METAR DAUH 081030Z 09014KT CAVOK 38/20 Q1018=
####018000086####
SANL33 EHDB 081025 RRC
METAR EHSA 081025Z AUTO 25008G08KT 9999 16/15 Q1019 W16/S2=
####018000365####
SAPO31 LPMG 081030
METAR LPFR 081030Z 25008KT 210V290 9999 SCT011 BKN012 24/20 Q1016=
METAR LPMA 081030Z 22005KT 9999 FEW016 24/16 Q1020 RS17005KT
0519004KT 2302013KT=
METAR LPPR 081030Z 22010KT 5000 BR FEW003 SCT006 BKN250 22/18 Q1014=
METAR LPPS 081030Z 01011KT 340V040 9999 FEW016 22/15 Q1020=
METAR LPPT 081030Z 24006KT 200V270 CAVOK 27/19 Q1015 NOSIG=
####018000397####
SAPL31 EPWA 081030
METAR EPWA 081030Z 30010KT 250V340 9999 FEW046 22/11 Q1021
      NOSIG=
METAR EPGD 081030Z VRB05KT CAVOK 24/10 Q1021=
METAR EPKK 081030Z 34005KT 290V020 9999 FEW053 22/08 Q1022=
METAR EPPO 081030Z VRB05KT CAVOK 23/08 Q1022=
METAR EPRZ 081030Z 31009KT 9999 SCT040 21/11 Q1021=
METAR EPBY 081030Z VRB02KT CAVOK 23/09 Q1022=
METAR EPZG 081030Z VRB06KT CAVOK 24/07 Q1022=
####018000303####
SAPL32 EPWA 081030
METAR EPKT 081030Z 28005KT CAVOK 21/08 Q1023=
METAR EPLL 081030Z 36008KT CAVOK 22/06 Q1022=
METAR EPSC 081030Z 07002KT CAVOK 23/10 Q1022=
METAR EPWR 081030Z VRB03KT CAVOK 24/10 Q1023=
METAR EPBY 081030Z VRB02KT CAVOK 23/09 Q1022=
METAR EPZG 081030Z VRB06KT CAVOK 24/07 Q1022=
####018000086####
SANL33 EHDB 081025 RRA
METAR EHJR 081025Z AUTO 27012G13KT //// 16/15 Q1018 W15/S3=
####018000272####
SAPO32 LPMG 081030
METAR LPAZ 081030Z 24004KT 9999 BKN016 BKN030 20/19 Q1025=
METAR LPFL 081030Z 21007G17KT 180V250 9999 FEW023 SCT045 23/17 Q1022=
METAR LPHR 081030Z 24007KT 9999 FEW014 SCT035 22/18 Q1023=
METAR LPPD 081030Z VRB02KT 9999 FEW017 BKN030 20/16 Q1024=
####018000703####
SACI31 ZBBB 081030
METAR ZBAA 081030Z 19006MPS CAVOK 35/10 Q1003 NOSIG=
ZBSJ NIL=
METAR ZBTJ 081030Z 17006MPS CAVOK 29/16 Q1004 NOSIG=
METAR ZBYN 081030Z 10005MPS CAVOK 30/14 Q1007 NOSIG=
METAR ZGGG 081030Z 14005MPS 9999 FEW050TCU SCT050 34/26 Q1004 NOSIG=
METAR ZSHC 081030Z VRB01MPS 9999 -SHRA SCT020 FEW033CB 26/23 Q1005
 TEMPO -TSRA
 FEW033CB=
METAR ZSPD 081030Z 12008MPS 9999 BKN011 27/24 Q1006 NOSIG=
METAR ZSSS 081030Z 11004MPS 9999 BKN020 28/23 Q1005 BECMG BKN011
 OVC040=
ZWSH NIL=
METAR ZWWW 081030Z 30003MPS 9999 FEW040CB 31/09 Q1011 NOSIG=
METAR ZYTL 081030Z 22003MPS 180V250 9999 SCT033 27/18 Q1006 NOSIG=
METAR ZYTX 081030Z 02002MPS 340V040 9999 SCT030 23/19 Q1006 NOSIG=
####018000091####
SPUS42 KWBC 081037
SPECI
KDAL 081034Z 13007KT 10SM SCT014 SCT020 SCT037 26/23 A3000=
####018000081####
SPUS51 KWBC 081037
SPECI
KMPV 081034Z AUTO 00000KT 3SM BR CLR 22/20 A3012=
####018000083####
SACN89 CWAO 081000 RRE
WBM SA 1000 AUTO8 M M M 173/15/08/0304/M/ 3001 28MM=

####018000189####
SACN95 CWAO 081000 RRC
WTM SA 1000 AUTO8 M M M 226/09/08/1810/M/M 1006 32MM=
WTX SA 1000 AUTO8 M M M 148/16/14/2506/M/ 5001 45MM=
WWO SA 1000 AUTO8 M M M M/04/03/0000/M/ M 24MM=

####018000078####
SACN98 CWAO 081000 RRF
XCD SA 1000 AUTO8 M M M M/11/10/3501/M/ M 27MM=

####018000188####
SACN88 CWAO 081000 RRE
ABT SA 1000 AUTO8 M M M M/20/18/2310/M/ M 21MM=
AQY SA 1000 AUTO8 M M M 194/19/17/2208/M/ 0003 81MM=
WDA SA 1000 AUTO8 M M M 200/08/08/1106/M/ 8003 99MM=

####018000378####
SACN59 CWAO 081000 RRF
PAH SA 1000 AUTO8 M M M M/12/10/MMMM/M/ M 04MM=
PBV SA 1000 AUTO8 M M M M/11/09/MMMM/M/ M 56MM=
PGL SA 1000 AUTO8 M M M M/10/08/0000/M/ M 53MM=
PTH SA 1000 AUTO8 M M M M/13/10/MMMM/M/ M 23MM=
PVA SA 1000 AUTO8 M M M M/11/10/MMMM/M/ M 42MM=
XHP SA 1000 AUTO8 M M M M/14/11/2705/M/ M 57MM=
XMG SA 1000 AUTO8 M M M M/14/12/2408/M/ M 45MM=

####018000101####
SACN97 CWAO 080900 RRI
XNM SA 0900 AUTO7 M M M M/19/15/2412+18/M/ PK WND 2518 0857Z M
65MM=

####018001170####
SACN60 CWAO 081000 RRB
PAF SA 1000 AUTO8 M M M M/16/11/MMMM/M/ M 87MM=
PBB SA 1000 AUTO8 M M M M/13/10/MMMM/M/ M 91MM=
PBN SA 1000 AUTO8 M M M M/14/12/0303/M/0008 M 77MM=
PDB SA 1000 AUTO8 M M M M/14/12/MMMM/M/0007 PCPN 0.7MM PAST HR M
00MM=
PEL SA 1000 AUTO8 M M M M/17/12/0303/M/0013 M 54MM=
PFA SA 1000 AUTO8 M M M M/11/09/MMMM/M/ M 73MM=
PFB SA 1000 AUTO8 M M M M/13/10/MMMM/M/ M 85MM=
PGC SA 1000 AUTO8 M M M M/14/10/2002/M/ M 24MM=
PHA SA 1000 AUTO8 M M M M/10/09/MMMM/M/0007 M 36MM=
PHW SA 1000 AUTO8 M M M M/15/09/2303/M/ M 51MM=
PJT SA 1000 AUTO8 M M M M/17/10/3506/M/0004 M 54MM=
PLC SA 1000 AUTO8 M M M M/13/12/1903/M/ M 42MM=
PLG SA 1000 AUTO8 M M M M/14/10/0104/M/M M 35MM=
PNS SA 1000 AUTO8 M M M M/13/10/MMMM/M/ M 11MM=
PRF SA 1000 AUTO8 M M M M/13/10/2103/M/ M 59MM=
PRW SA 1000 AUTO8 M M M M/13/11/MMMM/M/ M 83MM=
PSH SA 1000 AUTO8 M M M M/12/10/MMMM/M/ M 64MM=
PSW SA 1000 AUTO8 M M M M/12/09/3601/M/ M 63MM=
PTA SA 1000 AUTO8 M M M M/15/11/MMMM/M/ M 77MM=
PTC SA 1000 AUTO8 M M M M/16/11/MMMM/M/ M 56MM=
PVI SA 1000 AUTO8 M M M M/12/11/MMMM/M/ M 97MM=
PWT SA 1000 AUTO8 M M M M/11/10/MMMM/M/ M 07MM=

####018000083####
SACN63 CWAO 081000 RRB
ZFS SA 1000 AUTO8 M M M 156/13/13/0000/M/ 0000 32MM=

####018000083####
SACN93 CWAO 081000 RRD
WOI SA 1000 AUTO8 M M M 182/08/06/3102/M/ 1005 87MM=

####018000087####
SACN78 CWAO 081000 RRF
WKK SA 1000 AUTO8 M M M 144/17/16/2106/M/0009 6007 69MM=

####018000083####
SACN91 CWAO 081000 RRD
WIJ SA 1000 AUTO8 M M M 144/07/06/3004/M/ 1003 42MM=

####018000101####
SACN97 CWAO 081000 RRE
XNM SA 1000 AUTO7 M M M M/20/14/2613+19/M/ PK WND 2619 0955Z M
62MM=

####018000082####
SPUS53 KWBC 081037
SPECI
KCNK 081034Z AUTO 02008KT 10SM OVC031 20/18 A3016=
####018000091####
SPUS72 KWBC 081037
SPECI
KDAL 081034Z 13007KT 10SM SCT014 SCT020 SCT037 26/23 A3000=
####018000082####
SPUS81 KWBC 081037
SPECI
KCNK 081034Z AUTO 02008KT 10SM OVC031 20/18 A3016=
####018000087####
SANL33 EHDB 081025 RRC
METAR EHSA 081025Z AUTO 25008G08KT 9999 16/15 Q1019 W16/S2=
####018000405####
SAPL31 EPWA 081030
METAR EPWA 081030Z 30010KT 250V340 9999 FEW046 22/11 Q1021
      NOSIG=
METAR EPGD 081030Z VRB05KT CAVOK 24/10 Q1021=
METAR EPKK 081030Z 34005KT 290V020 9999 FEW053 22/08 Q1022=
METAR EPPO 081030Z VRB05KT CAVOK 23/08 Q1022=
METAR EPRZ 081030Z 31009KT 9999 SCT040 21/11 Q1021=
METAR EPBY 081030Z VRB02KT CAVOK 23/09 Q1022=
METAR EPZG 081030Z VRB06KT CAVOK 24/07 Q1022=
####018000365####
SAAL31 DAAA 081030
METAR DAAG 081030Z 02008KT CAVOK 32/17 Q1019=
METAR DAAT 081030Z 12014KT 080V150 CAVOK 32/02 Q1022=
METAR DABB 081030Z 01012KT CAVOK 28/14 Q1019=
METAR DABC 081030Z 33008KT CAVOK 31/06 Q1023=
METAR DAON 081030Z 36008KT CAVOK 34/21 Q1017=
METAR DAOO 081030Z 01010KT CAVOK 28/21 Q1016=
METAR DAUH 081030Z 09014KT CAVOK 38/20 Q1018=
####018000087####
SANL33 EHDB 081025 RRA
METAR EHJR 081025Z AUTO 27012G13KT //// 16/15 Q1018 W15/S3=
####018000087####
SANL33 EHDB 081025 RRB
METAR EHSC 081025Z AUTO 27008G08KT 9999 17/15 Q1020 W///S2=
####018000091####
SPUS81 KWBC 081037
SPECI
KDAL 081034Z 13007KT 10SM SCT014 SCT020 SCT037 26/23 A3000=
####018000781####
SAUR31 UKMS 081030
METAR UKLR 081030Z 32006MPS 270V350 9999 BKN023
         BKN100  21/15 Q1018 30090070 NOSIG=
METAR UKLI 081030Z 30003MPS 240V340 9999 SCT020CB
         BKN027 17/14 Q1020 28290565 NOSIG=
METAR UKON 081030Z 32003MPS 290V360 9999 FEW033
         OVC200  27/17 Q1013 05090075 NOSIG=
METAR UKCM 081030Z 14003MPS 110V200 CAVOK 28/18 Q1014
          02010065 NOSIG=
METAR UKCW 081030Z VRB02MPS 9999 BKN040 30/16 Q1015
         2709//70 NOSIG=
METAR UKLU NIL=
METAR UKKK 081030Z 24004MPS 220V280 9999 BKN025 24/18
         Q1015  26CLRD70 NOSIG=
METAR UKKM 081030Z 33003MPS 300V010 9999 BKN030 23/17
         Q1015  33CLRD70 NOSIG=
METAR UKLN 081030Z 29005MPS 260V330 9999 -SHRA BKN010
          BKN033CB 15/14 Q1020 3319//65 NOSIG=
####018000121####
SAUS44 KEWX 081037
MTRATT
SPECI KATT 081035Z AUTO 00000KT 9SM BKN010 OVC017 25/23 A2996 RMK 
AO2 RAE0956 P0000 $
####018000100####
SPCN31 CWAO 081036
SPECI CYYT 081036Z 18005KT 15SM BKN006 OVC018 09/ RMK SF6SC2 VIS LWR
S=

####018000998####
SAAE31 VTBB 081030
METAR VTBS 081030Z 10004KT 080V170 9999 FEW020 SCT035 BKN300 29/22 
           Q1006 NOSIG=
METAR VTBD 081030Z 15007KT 9999 FEW020 SCT120 BKN300 32/23 Q1005
           NOSIG=
METAR VTCC 081030Z 21007KT 9999 FEW025CB BKN300 34/20 Q1007 A2973
           A2972 CB N,NE,S,W=
METAR VTBU 081030Z 00000KT 9999 FEW020 BKN300 34/25 Q1006 A2973=
METAR VTSS 081030Z 20005KT 9999 FEW016CB SCT020 BKN300 26/20 Q1008
           A2978 CB S=
METAR VTSP 081030Z 28011KT 9000 FEW018 SCT120 BKN300 29/24 Q1009
           A2980=
METAR VLVT 081030Z NIL=
METAR VYYY 081030Z NIL=
METAR VVTS 081030Z NIL=
METAR VVNB 081030Z 10014KT 9999 FEW026CB BKN300 35/28 Q1000 NOSIG=
METAR VDPP 081030Z 24008KT 9999 SCT015 FEW017CB 30/22 Q1005 CB:NE
           NW E=
METAR VVDN 081030Z 22012KT 190V260 9999 FEW017CB SCT300 28/19 Q1007
           NOSIG=
METAR VYMD 081030Z NIL=
METAR VDSR 081030Z NIL=
METAR VVPB 081030Z 19012G22KT 9999 SCT020 BKN300 30/21 Q1006 NOSIG=
####018000100####
SPCN51 CWAO 081036
SPECI CZCP 081036Z AUTO 23012KT 4SM -RA BKN002 BKN016 OVC021 06/
A2985=

####018000362####
SAUS20 KNKA 081037
SPECI KBAZ 081036Z AUTO 04006KT 10SM FEW008 BKN015 BKN055 25/24 
    A2992 RMK AO2 RAB09E31 P0001=
SPECI KPWA 081036Z 01005KT 7SM BKN004 23/21 A3005 RMK AO2=
METAR PAAK 081036Z AUTO 07018G25KT 9SM BKN013 OVC120 07/04 A2959 RMK 
    AO1 PNO=
METAR PAHP 081036Z AUTO 33010KT 10SM FEW075 BKN080 10/07 A3005 RMK 
    AO1 PNO TSNO=
####018000491####
SAJP51 RJTD 081030
METAR RJAA 081030Z 17003KT 9999 FEW020 BKN/// 24/21 Q1010 NOSIG=
METAR RJBB 081030Z 25008KT 9999 FEW060 BKN/// 26/23 Q1008 NOSIG=
METAR RJCC 081030Z 17005KT 140V290 3100 -DZ BR BKN002 18/17 Q1010=
METAR RJFF 081030Z 28004KT 5000 BR FEW025 SCT030 BKN/// 25/21 Q1009=
METAR RJGG 081030Z 14008KT 9999 FEW010 BKN/// 25/23 Q1009 NOSIG=
METAR RJTT 081030Z 18013KT 9999 FEW016 BKN/// 25/22 Q1010=
METAR ROAH 081030Z 19012KT 9999 FEW010 SCT080 BKN120 29/26 Q1009=
####018000117####
SPUS90 KWBC 081038
SPECI KATT 081035Z AUTO 00000KT 9SM BKN010 OVC017 25/23 A2996 RMK
     AO2 RAE0956 P0000 $=
####018000107####
SAAE31 VTBB 081030 RRA
METAR VVTS 081030Z 00000KT 9999 FEW015CB SCT017 29/24 Q1006 NO
          SIG=
####018000997####
SAAE31 VTBB 081030
METAR VTBS 081030Z 10004KT 080V170 9999 FEW020 SCT035 BKN300 29/22
           Q1006 NOSIG=
METAR VTBD 081030Z 15007KT 9999 FEW020 SCT120 BKN300 32/23 Q1005
           NOSIG=
METAR VTCC 081030Z 21007KT 9999 FEW025CB BKN300 34/20 Q1007 A2973
           A2972 CB N,NE,S,W=
METAR VTBU 081030Z 00000KT 9999 FEW020 BKN300 34/25 Q1006 A2973=
METAR VTSS 081030Z 20005KT 9999 FEW016CB SCT020 BKN300 26/20 Q1008
           A2978 CB S=
METAR VTSP 081030Z 28011KT 9000 FEW018 SCT120 BKN300 29/24 Q1009
           A2980=
METAR VLVT 081030Z NIL=
METAR VYYY 081030Z NIL=
METAR VVTS 081030Z NIL=
METAR VVNB 081030Z 10014KT 9999 FEW026CB BKN300 35/28 Q1000 NOSIG=
METAR VDPP 081030Z 24008KT 9999 SCT015 FEW017CB 30/22 Q1005 CB:NE
           NW E=
METAR VVDN 081030Z 22012KT 190V260 9999 FEW017CB SCT300 28/19 Q1007
           NOSIG=
METAR VYMD 081030Z NIL=
METAR VDSR 081030Z NIL=
METAR VVPB 081030Z 19012G22KT 9999 SCT020 BKN300 30/21 Q1006 NOSIG=
####018000139####
SPCN47 CWAO 081037
SPECI CYZE 081037Z AUTO 17006KT 4SM BR FEW002 SCT008 BKN130 BKN160
 20/20 A2997 RMK SLP150 DENSITY ALT 1300FT=

####018000085####
SAIR31 OIII 081030 RRA
METAR OIKB 081030Z 20010KT 4500 HZ NSC 37/26 Q1000 A2954=
####018000319####
SAUS20 KNKA 081037
SPECI KLAR 081036Z AUTO 00000KT 2SM BR FEW002 SCT007 06/06 A3039 RMK 
    AO2=
SPECI KOZR 081029Z 00000KT 3/4SM R06/0900V1000FT BR FEW002 22/22 A3003
      RMK AO2A SLP164=
SPECI KRVS 081036Z 00000KT 10SM -RA SCT004 BKN060 OVC080 23/22 A3002 
    RMK AO2 LTG DSNT NE AND E TSE14 P0006=
####018002700####
SAAK41 KNKA 081037
METAR PAAK 081036Z AUTO 07018G25KT 9SM BKN013 OVC120 07/04 A2959 RMK 
    AO1 PNO=
METAR PABL 081036Z AUTO 32006KT 10SM CLR 09/06 A3016 RMK AO1 PNO=
METAR PABV 081036Z AUTO 00000KT 10SM CLR 11/07 RMK AO1 PNO=
METAR PADK 081036Z 05013KT 8SM SCT023 OVC031 07/06 A2955 RMK AO1 PNO=
METAR PADL 081036Z 32006KT 10SM BKN065 OVC070 11/08 A2998 RMK AO1 
    PNO TSNO=
METAR PAEM 081036Z AUTO 34003KT 10SM BKN070 OVC085 11/08 A3004 RMK 
    AO1 PNO=
METAR PAFE 081036Z AUTO 07005KT 10SM CLR 11/09 A3018 RMK AO1 PNO=
METAR PAFM 081036Z AUTO 34003KT 10SM CLR 15/08 A3010 RMK AO1 PNO=
METAR PAGL 081036Z AUTO 10SM CLR 14/07 RMK AO1 PNO=
METAR PAGS 081036Z AUTO 00000KT 10SM CLR 09/08 A3019 RMK AO1 PNO=
METAR PAHP 081036Z AUTO 33010KT 10SM FEW075 BKN080 10/07 A3005 RMK 
    AO1 PNO TSNO=
METAR PAHY 081036Z AUTO 00000KT 10SM CLR 16/10 A3012 RMK AO1 PNO=
METAR PAII 081036Z AUTO 02004KT 10SM OVC042 10/08 A2997 RMK AO1 PNO=
METAR PAIN 081036Z AUTO 00000KT 10SM CLR 09/06 A3008 RMK AO1 PNO=
METAR PAJC 081036Z AUTO 00000KT 10SM OVC017 08/04 A2994 RMK AO1 PNO=
METAR PAKK 081036Z AUTO 01012G16KT 10SM CLR 13/07 A3005 RMK AO1 PNO=
METAR PAKP 081036Z AUTO 05005KT 10SM BKN035 11/03 A3012 RMK AO1=
METAR PAMD 081036Z AUTO 10016G23KT 8SM FEW005 SCT010 BKN014 09/08 
    A3002 RMK AO1 PNO=
METAR PAMH 081036Z 00000KT 10SM CLR 14/05 A2999 RMK AO1 PNO=
METAR PAMM 081036Z AUTO 00000KT 10SM CLR 18/11 A3009 RMK AO1 PNO=
METAR PAMY 081036Z 27008KT 3/4SM OVC002 04/03 A3006 RMK AO1=
METAR PANI 081036Z AUTO 00000KT 2 1/2SM BKN090 10/08 A3001 RMK AO1 
    PNO=
METAR PANV 081036Z AUTO 27005KT 10SM BKN085 OVC090 13/08 A2998 RMK 
    AO1 PNO=
METAR PAPG 081036Z 03004KT 10SM CLR 12/09 A3014 RMK AO1 
      PNO=
METAR PAPH 081036Z AUTO 00000KT 1 1/4SM CLR 05/04 A2996 RMK AO1 PNO=
METAR PARC 081036Z AUTO 06005KT 10SM CLR 10/02 A3005 RMK AO1 PNO=
METAR PASA 081036Z AUTO 00000KT 10SM CLR 04/02 A3019 RMK AO1 PNO=
METAR PASD 081036Z AUTO 00000KT 10SM CLR 06/05 A2994 RMK AO1 PNO=
METAR PASH 081036Z AUTO 19003KT 10SM CLR 07/06 A3018 RMK AO1 PNO=
METAR PASK 081036Z 25008KT 10SM CLR 12/08 A3011 RMK AO1 PNO=
METAR PASM 081036Z AUTO 04006KT 10SM BKN070 BKN080 OVC110 09/08 
    A3004 RMK AO1 PNO=
METAR PAUN 081036Z AUTO 11006KT 10SM CLR 12/04 A3002 RMK AO1 PNO=
METAR PAVD 081036Z 00000KT 10SM OVC080 11/08 A3008 RMK AO1 
      PNO=
METAR PAWG 081036Z AUTO 33003KT 10SM CLR 13/10 A3013 RMK AO1 PNO=
METAR PAWN 081036Z AUTO 24004KT 10SM CLR 08/04 A3016 RMK AO1 PNO=
METAR PAWS 081036Z AUTO 06003KT 10SM CLR 11/08 A2998 RMK AO1 PNO=
METAR PAZK 081036Z AUTO 08010KT 10SM FEW060 BKN120 11/03 A3009 RMK 
    AO1 PNO=
####018000460####
SPUS99 KWBC 081038
SPECI
KBAZ 081036Z AUTO 04006KT 10SM FEW008 BKN015 BKN055 25/24 A2992
     RMK AO2 RAB09E31 P0001=
KPWA 081036Z 01005KT 7SM BKN004 23/21 A3005 RMK AO2=
KLAR 081036Z AUTO 00000KT 2SM BR FEW002 SCT007 06/06 A3039 RMK
     AO2=
KOZR 081029Z 00000KT 3/4SM R06/0900V1000FT BR FEW002 22/22 A3003
     RMK AO2A SLP164=
KRVS 081036Z 00000KT 10SM -RA SCT004 BKN060 OVC080 23/22 A3002 RMK
     AO2 LTG DSNT NE AND E TSE14 P0006=
####018000185####
SACN97 KWBC 081038
METAR CXNM 081000Z AUTO 26013G19KT 20/14 RMK AO1 PK WND 26019/0955
T01960142=
METAR CXNM 080900Z AUTO 24012G18KT 19/15 RMK AO1 PK WND 25018/0857
T01860145=
####018000465####
SACN88 KWBC 081038
METAR CWDA 081031Z AUTO 10007KT 08/08 RMK AO1 SLP200 T00830083
55006=
METAR CWDA 081000Z AUTO 11006KT 08/08 RMK AO1 SLP200 T00790079
58003=
METAR CWDA 081000Z AUTO 11006KT 08/08 RMK AO1 SLP200 T00790079
58003=
METAR CWDA 081000Z AUTO 11006KT 08/08 RMK AO1 SLP200 T00790079
58003=
METAR CWDA 081000Z AUTO 11006KT 08/08 RMK AO1 SLP200 T00790079
58003=
METAR CWDA 081000Z AUTO 11006KT 08/08 RMK AO1 SLP200 T00790079
58003=
####018002633####
SAUS99 KWBC 081038
METAR
PAAK 081036Z AUTO 07018G25KT 9SM BKN013 OVC120 07/04 A2959 RMK AO1
     PNO=
PAHP 081036Z AUTO 33010KT 10SM FEW075 BKN080 10/07 A3005 RMK AO1
     PNO TSNO=
PAAK 081036Z AUTO 07018G25KT 9SM BKN013 OVC120 07/04 A2959 RMK AO1
     PNO=
PABL 081036Z AUTO 32006KT 10SM CLR 09/06 A3016 RMK AO1 PNO=
PABV 081036Z AUTO 00000KT 10SM CLR 11/07 RMK AO1 PNO=
PADK 081036Z 05013KT 8SM SCT023 OVC031 07/06 A2955 RMK AO1 PNO=
PADL 081036Z 32006KT 10SM BKN065 OVC070 11/08 A2998 RMK AO1 PNO
     TSNO=
PAEM 081036Z AUTO 34003KT 10SM BKN070 OVC085 11/08 A3004 RMK AO1
     PNO=
PAFE 081036Z AUTO 07005KT 10SM CLR 11/09 A3018 RMK AO1 PNO=
PAFM 081036Z AUTO 34003KT 10SM CLR 15/08 A3010 RMK AO1 PNO=
PAGL 081036Z AUTO 10SM CLR 14/07 RMK AO1 PNO=
PAGS 081036Z AUTO 00000KT 10SM CLR 09/08 A3019 RMK AO1 PNO=
PAHP 081036Z AUTO 33010KT 10SM FEW075 BKN080 10/07 A3005 RMK AO1
     PNO TSNO=
PAHY 081036Z AUTO 00000KT 10SM CLR 16/10 A3012 RMK AO1 PNO=
PAII 081036Z AUTO 02004KT 10SM OVC042 10/08 A2997 RMK AO1 PNO=
PAIN 081036Z AUTO 00000KT 10SM CLR 09/06 A3008 RMK AO1 PNO=
PAJC 081036Z AUTO 00000KT 10SM OVC017 08/04 A2994 RMK AO1 PNO=
PAKK 081036Z AUTO 01012G16KT 10SM CLR 13/07 A3005 RMK AO1 PNO=
PAKP 081036Z AUTO 05005KT 10SM BKN035 11/03 A3012 RMK AO1=
PAMD 081036Z AUTO 10016G23KT 8SM FEW005 SCT010 BKN014 09/08 A3002
     RMK AO1 PNO=
PAMH 081036Z 00000KT 10SM CLR 14/05 A2999 RMK AO1 PNO=
PAMM 081036Z AUTO 00000KT 10SM CLR 18/11 A3009 RMK AO1 PNO=
PAMY 081036Z 27008KT 3/4SM OVC002 04/03 A3006 RMK AO1=
PANI 081036Z AUTO 00000KT 2 1/2SM BKN090 10/08 A3001 RMK AO1
     PNO=
PANV 081036Z AUTO 27005KT 10SM BKN085 OVC090 13/08 A2998 RMK AO1
     PNO=
PAPG 081036Z 03004KT 10SM CLR 12/09 A3014 RMK AO1 PNO=
PAPH 081036Z AUTO 00000KT 1 1/4SM CLR 05/04 A2996 RMK AO1 PNO=
PARC 081036Z AUTO 06005KT 10SM CLR 10/02 A3005 RMK AO1 PNO=
PASA 081036Z AUTO 00000KT 10SM CLR 04/02 A3019 RMK AO1 PNO=
PASD 081036Z AUTO 00000KT 10SM CLR 06/05 A2994 RMK AO1 PNO=
PASH 081036Z AUTO 19003KT 10SM CLR 07/06 A3018 RMK AO1 PNO=
PASK 081036Z 25008KT 10SM CLR 12/08 A3011 RMK AO1 PNO=
PASM 081036Z AUTO 04006KT 10SM BKN070 BKN080 OVC110 09/08 A3004
     RMK AO1 PNO=
PAUN 081036Z AUTO 11006KT 10SM CLR 12/04 A3002 RMK AO1 PNO=
PAVD 081036Z 00000KT 10SM OVC080 11/08 A3008 RMK AO1 PNO=
PAWG 081036Z AUTO 33003KT 10SM CLR 13/10 A3013 RMK AO1 PNO=
PAWN 081036Z AUTO 24004KT 10SM CLR 08/04 A3016 RMK AO1 PNO=
PAWS 081036Z AUTO 06003KT 10SM CLR 11/08 A2998 RMK AO1 PNO=
PAZK 081036Z AUTO 08010KT 10SM FEW060 BKN120 11/03 A3009 RMK AO1
     PNO=
####018000095####
SACN91 KWBC 081038
METAR CWIJ 081000Z AUTO 30004KT 07/06 RMK AO1 SLP144 T00740062
51003=
####018000100####
SACN78 KWBC 081038
METAR CWKK 081000Z AUTO 21006KT 17/16 RMK AO1 6007 SLP144
T01660159 50009=
####018000208####
SANM40 FYWW 081030
METAR FYWB 081030Z 07024KT 9999 R09/M0050VP1500D R27/M0050VP1500D
     VV/// 32/03 Q1016 =
METAR FYWB 081030Z 07024KT 9999 R09/M0050VP1500D R27/M0050VP1500D
     VV/// 32/03 Q1016 =
####018000184####
SPXX60 KWBC 081038
SPECI
KDTS 081035Z AUTO 00000KT 1/2SM FG VV001 24/23 A3001 RMK AO2=
KOZR 081029Z 00000KT 3/4SM R06/0900V1000FT BR FEW002 22/22 A3003
     RMK AO2A SLP164=
####018000162####
SAMX54 MMMD 081000
METAR MMTG 081015Z RTD 00000KT 3SM BCFG  SCT004 BKN070 OVC300 23/23 
      A2991 RMK 60321 8/672 BCFG ARND VRBL COND RTS=





TX_OPMET
####018000539####
SPUS70 KWBC 081038
SPECI
PAWD 081034Z AUTO 00000KT 1/2SM FG BKN005 OVC065 10/09 A2995 RMK
     AO2 CIG 003V010 TSNO=
KLNR 081035Z AUTO 00000KT 1 3/4SM BR OVC002 21/19 A3003 RMK
     AO2=
KBAZ 081036Z AUTO 04006KT 10SM FEW008 BKN015 BKN055 25/24 A2992
     RMK AO2 RAB09E31 P0001=
KPWA 081036Z 01005KT 7SM BKN004 23/21 A3005 RMK AO2=
KLAR 081036Z AUTO 00000KT 2SM BR FEW002 SCT007 06/06 A3039 RMK
     AO2=
KRVS 081036Z 00000KT 10SM -RA SCT004 BKN060 OVC080 23/22 A3002 RMK
     AO2 LTG DSNT NE AND E TSE14 P0006=
####018000076####
SASD20 OEJD 081000 RRA
METAR OEKJ 081000Z 35020KT 7000 SKC 44/M03 Q1005=
####018000211####
SAUS80 KWBC 081038
METAR
K4BM 081033Z AUTO 22006KT 1/2SM SN 05/04 A3063 RMK AO2=
KSMS 081035Z AUTO 00000KT 10SM CLR 22/19 A2998 RMK AO2=
PADK 081036Z 05013KT 8SM SCT023 OVC031 07/06 A2955 RMK AO1 PNO=
####018003739####
SAUS70 KWBC 081038
METAR
KOSC 081014Z AUTO 28004KT 3SM BR SCT050 SCT060 21/19 A3001 RMK
     AO2=
K04W 081034Z AUTO 00000KT 10SM CLR 15/15 A3008 RMK AO2
     T01540150=
K0A9 081035Z AUTO 00000KT 6SM BR CLR 19/18 A3012 RMK=
K5SM 081033Z AUTO 00000KT 10SM CLR 08/00 A3055 RMK AO2=
K7BM 081036Z AUTO 00000KT 10SM BKN100 BKN110 09/05 A3055 RMK
     AO2=
KBBG 081035Z AUTO 00000KT 7SM FEW080 22/22 A3008 RMK AO2=
KBBP 081035Z AUTO 29005KT 10SM CLR 22/19 A2995 RMK AO2=
KBDU 081037Z AUTO 27006KT 10SM CLR 14/12 A3032 RMK AO2=
KBJC 081037Z AUTO 34007KT 10SM CLR 12/11 A3033 RMK AO2=
KBKN 081035Z AUTO 35006KT 10SM CLR 22/21 A3003 RMK AO2=
KC29 081035Z AUTO 29003KT 10SM BKN014 21/20 A3003 RMK AO2
     T02110196=
KCCU 081036Z AUTO 17024G28KT 10SM SCT003 SCT011 05/02 A3062 RMK
     AO2=
KCIC 081035Z AUTO 12004KT 10SM CLR 21/13 A2983 RMK AO1=
KCMR 081035Z AUTO 16006KT 10SM SCT110 18/02 A3025 RMK AO1=
KD39 081034Z AUTO 00000KT 10SM CLR 16/15 A3011 RMK AO2
     T01590146=
KE80 081035Z AUTO 00000KT 10SM CLR 18/11 A3024 RMK AO2
     T01820113=
KEIK 081035Z AUTO 00000KT 7SM SCT004 SCT011 SCT038 11/11 A3032 RMK
     AO2=
KFMH 081035Z AUTO 16006KT 10SM FEW004 FEW009 OVC015 22/20 A3011
     RMK AO2=
KHVS 081035Z AUTO 00000KT 10SM CLR 23/18 A2998 RMK AO2=
KIFP 081035Z AUTO 00000KT 10SM CLR 28/00 A2974 RMK AO2=
KMAN 081035Z AUTO 00000KT 10SM CLR 13/07 A3004 RMK AO1=
KMAO 081035Z AUTO 33003KT 10SM CLR 24/19 A2993 RMK AO2=
KMYP 080936Z AUTO 06004KT M1/4SM SN OVC001 03/02 A3075 RMK AO2=
KNQA 081035Z COR 00000KT 10SM FEW250 23/23 A3007 RMK=
KRBW 081035Z AUTO 28003KT 10SM CLR 22/20 A2998 RMK AO2=
KSRR 081035Z AUTO 24003KT 10SM BKN110 13/12 A3034 RMK AO2=
KVQQ 081035Z AUTO 00000KT 5SM BR CLR 17/17 A3001 RMK AO2=
KVTP 081040Z AUTO 05005KT M1/4SM OVC001 05/05 A3055 RMK AO2=
KWYS 081030Z AUTO 00000KT 10SM CLR 00/M02 A3036 RMK AO2=
KY51 081035Z AUTO 29003KT 3SM CLR 19/19 A3005 RMK AO1
     T01900188=
PAAK 081036Z AUTO 07018G25KT 9SM BKN013 OVC120 07/04 A2959 RMK AO1
     PNO=
PAHP 081036Z AUTO 33010KT 10SM FEW075 BKN080 10/07 A3005 RMK AO1
     PNO TSNO=
PAAK 081036Z AUTO 07018G25KT 9SM BKN013 OVC120 07/04 A2959 RMK AO1
     PNO=
PABL 081036Z AUTO 32006KT 10SM CLR 09/06 A3016 RMK AO1 PNO=
PABV 081036Z AUTO 00000KT 10SM CLR 11/07 RMK AO1 PNO=
PADL 081036Z 32006KT 10SM BKN065 OVC070 11/08 A2998 RMK AO1 PNO
     TSNO=
PAEM 081036Z AUTO 34003KT 10SM BKN070 OVC085 11/08 A3004 RMK AO1
     PNO=
PAFE 081036Z AUTO 07005KT 10SM CLR 11/09 A3018 RMK AO1 PNO=
PAFM 081036Z AUTO 34003KT 10SM CLR 15/08 A3010 RMK AO1 PNO=
PAGL 081036Z AUTO 10SM CLR 14/07 RMK AO1 PNO=
PAGS 081036Z AUTO 00000KT 10SM CLR 09/08 A3019 RMK AO1 PNO=
PAHP 081036Z AUTO 33010KT 10SM FEW075 BKN080 10/07 A3005 RMK AO1
     PNO TSNO=
PAHY 081036Z AUTO 00000KT 10SM CLR 16/10 A3012 RMK AO1 PNO=
PAII 081036Z AUTO 02004KT 10SM OVC042 10/08 A2997 RMK AO1 PNO=
PAIN 081036Z AUTO 00000KT 10SM CLR 09/06 A3008 RMK AO1 PNO=
PAJC 081036Z AUTO 00000KT 10SM OVC017 08/04 A2994 RMK AO1 PNO=
PAKK 081036Z AUTO 01012G16KT 10SM CLR 13/07 A3005 RMK AO1 PNO=
PAKP 081036Z AUTO 05005KT 10SM BKN035 11/03 A3012 RMK AO1=
PAMD 081036Z AUTO 10016G23KT 8SM FEW005 SCT010 BKN014 09/08 A3002
     RMK AO1 PNO=
PAMH 081036Z 00000KT 10SM CLR 14/05 A2999 RMK AO1 PNO=
PAMM 081036Z AUTO 00000KT 10SM CLR 18/11 A3009 RMK AO1 PNO=
PAMY 081036Z 27008KT 3/4SM OVC002 04/03 A3006 RMK AO1=
PANI 081036Z AUTO 00000KT 2 1/2SM BKN090 10/08 A3001 RMK AO1
     PNO=
PANV 081036Z AUTO 27005KT 10SM BKN085 OVC090 13/08 A2998 RMK AO1
     PNO=
PAPG 081036Z 03004KT 10SM CLR 12/09 A3014 RMK AO1 PNO=
PAPH 081036Z AUTO 00000KT 1 1/4SM CLR 05/04 A2996 RMK AO1 PNO=
####018000119####
SPUS80 KWBC 081038
SPECI
KATT 081035Z AUTO 00000KT 9SM BKN010 OVC017 25/23 A2996 RMK AO2
     RAE0956 P0000 $=
####018000328####
SABY31 UMMN 081030
METAR UMBB 081030Z 30005G08MPS 8000 SCT033 23/12 Q1019 NOSIG=
METAR UMGG 081030Z 24005MPS 9999 BKN023CB BKN100 27/17 Q1013
R28/190055 NOSIG=
METAR UMMM 081030Z 28005MPS 9999 OVC019 19/16 Q1014 R30/CLRD//
NOSIG RMK QFE741=
METAR UMMS 081030Z 28003MPS 250V320 9999 BKN022 20/16 Q1015
R31/CLRD// NOSIG=
####018000215####
SAXX60 KWBC 081000 RRJ
METAR
KWRB 080955Z COR 34003KT 10SM CLR 20/20 A3001 RMK AO2A SLP161
     T02050205 COR 1032=
KWRB 080955Z COR 34003KT 10SM CLR 20/20 A3001 RMK AO2A SLP161
     T02050205 COR 1032=
####018000811####
SAUS70 KWBC 081038 RRA
METAR
PARC 081036Z AUTO 06005KT 10SM CLR 10/02 A3005 RMK AO1 PNO=
PASA 081036Z AUTO 00000KT 10SM CLR 04/02 A3019 RMK AO1 PNO=
PASD 081036Z AUTO 00000KT 10SM CLR 06/05 A2994 RMK AO1 PNO=
PASH 081036Z AUTO 19003KT 10SM CLR 07/06 A3018 RMK AO1 PNO=
PASK 081036Z 25008KT 10SM CLR 12/08 A3011 RMK AO1 PNO=
PASM 081036Z AUTO 04006KT 10SM BKN070 BKN080 OVC110 09/08 A3004
     RMK AO1 PNO=
PAUN 081036Z AUTO 11006KT 10SM CLR 12/04 A3002 RMK AO1 PNO=
PAVD 081036Z 00000KT 10SM OVC080 11/08 A3008 RMK AO1 PNO=
PAWG 081036Z AUTO 33003KT 10SM CLR 13/10 A3013 RMK AO1 PNO=
PAWN 081036Z AUTO 24004KT 10SM CLR 08/04 A3016 RMK AO1 PNO=
PAWS 081036Z AUTO 06003KT 10SM CLR 11/08 A2998 RMK AO1 PNO=
PAZK 081036Z AUTO 08010KT 10SM FEW060 BKN120 11/03 A3009 RMK AO1
     PNO=
####018000095####
SAUZ31 UTTW 081030
METAR UTST 081030Z 14002MPS 070V200 CAVOK 41/01 Q1006 R88/CLRD70
NOSIG=
####018000335####
SAAL31 KWBC 081000 RRB
METAR
DAAG 081030Z 02008KT CAVOK 32/17 Q1019=
DAAT 081030Z 12014KT 080V150 CAVOK 32/02 Q1022=
DABB 081030Z 01012KT CAVOK 28/14 Q1019=
DABC 081030Z 33008KT CAVOK 31/06 Q1023=
DAON 081030Z 36008KT CAVOK 34/21 Q1017=
DAOO 081030Z 01010KT CAVOK 28/21 Q1016=
DAUH 081030Z 09014KT CAVOK 38/20 Q1018=
####018000116####
SAAS31 KWBC 081030 RRA
METAR
VTBS 081030Z 10004KT 080V170 9999 FEW020 SCT035 BKN300 29/22 Q1006
     NOSIG=
####018000754####
SAAS33 KWBC 081030 RRA
METAR
VDPP 081030Z 24008KT 9999 SCT015 FEW017CB 30/22 Q1005 CB:NE NW
     E=
VDSR 081030Z NIL=
VLVT 081030Z NIL=
VTBD 081030Z 15007KT 9999 FEW020 SCT120 BKN300 32/23 Q1005
     NOSIG=
VTBU 081030Z 00000KT 9999 FEW020 BKN300 34/25 Q1006 A2973=
VTCC 081030Z 21007KT 9999 FEW025CB BKN300 34/20 Q1007 A2973 A2972
     CB N,NE,S,W=
VTSP 081030Z 28011KT 9000 FEW018 SCT120 BKN300 29/24 Q1009
     A2980=
VTSS 081030Z 20005KT 9999 FEW016CB SCT020 BKN300 26/20 Q1008 A2978
     CB S=
VVDN 081030Z 22012KT 190V260 9999 FEW017CB SCT300 28/19 Q1007
     NOSIG=
VVNB 081030Z 10014KT 9999 FEW026CB BKN300 35/28 Q1000 NOSIG=
VVTS 081030Z 00000KT 9999 FEW015CB SCT017 29/24 Q1006 NO SIG=
VVTS 081030Z NIL=
####018000142####
SAAW32 KWBC 081030 RRA
METAR
OIII 081030Z 14010KT CAVOK 39/M03 Q1013 A2994 878/9=
OIKB 081030Z 20010KT 4500 HZ NSC 37/26 Q1000 A2954=
####018000802####
SAAW34 KWBC 081015 RRD
METAR
UAAA 081030Z 17003MPS 9999 SCT050CB BKN100 27/13 Q1014 88CLRD65
     TEMPO TS=
UACC 081030Z 31003MPS 270V360 CAVOK 25/02 Q1009 220/0070 NOSIG RMK
     QFE725/0967=
UAKK 081030Z 07002MPS 020V120 9999 BKN050CB BKN/// 24/03 Q1009
     230///70 NOSIG RMK QFE710/0947=
UAOO 081030Z NIL=
UARR 081030Z NIL=
UATE 081030Z 02005G10MPS CAVOK 39/07 Q1010 300///70 NOSIG RMK
     QFE756/1008=
UATG 081030Z 34007G12MPS 300V360 CAVOK 39/09 Q1008 32CLRD70 NOSIG
     RMK QFE758/1011=
UATT 081030Z 07007MPS 040V100 9999 NSC 33/02 Q1010 13CLRD70 NOSIG
     RMK QFE738/0985=
UAUU 081030Z 34006MPS 300V360 CAVOK 26/M03 Q1012 33CLRD70 NOSIG
     RMK QFE744/0992=
UTDD 081030Z 16002MPS 110V260 9999 FEW066 37/04 Q1009 09CLRD70
     NOSIG RMK QFE689/0919=
####018000097####
SPCN31 KWBC 081038
SPECI
CYYT 081036Z 18005KT 15SM BKN006 OVC018 09/ RMK SF6SC2 VIS LWR S=
####018000588####
SACI32 KWBC 081000 RRD
METAR
ZBAA 081030Z 19006MPS CAVOK 35/10 Q1003 NOSIG=
ZBTJ 081030Z 17006MPS CAVOK 29/16 Q1004 NOSIG=
ZBYN 081030Z 10005MPS CAVOK 30/14 Q1007 NOSIG=
ZGGG 081030Z 14005MPS 9999 FEW050TCU SCT050 34/26 Q1004 NOSIG=
ZSHC 081030Z VRB01MPS 9999 -SHRA SCT020 FEW033CB 26/23 Q1005 TEMPO
     -TSRA FEW033CB=
ZSPD 081030Z 12008MPS 9999 BKN011 27/24 Q1006 NOSIG=
ZSSS 081030Z 11004MPS 9999 BKN020 28/23 Q1005 BECMG BKN011
     OVC040=
ZWWW 081030Z 30003MPS 9999 FEW040CB 31/09 Q1011 NOSIG=
ZYTL 081030Z 22003MPS 180V250 9999 SCT033 27/18 Q1006 NOSIG=
####018000154####
SAEE31 KWBC 081030 RRA
METAR
EPSC 081030Z 07002KT CAVOK 23/10 Q1022=
UKKK 081030Z 24004MPS 220V280 9999 BKN025 24/18 Q1015 26CLRD70
     NOSIG=
####018000185####
SAEM31 KWBC 081030 RRA
METAR
LJLJ 081030Z 13004KT 070V210 9999 FEW040 23/12 Q1023 NOSIG=
LJMB 081030Z VRB03KT 9999 FEW040 24/09 Q1023=
LJPZ 081030Z 30007KT CAVOK 24/12 Q1022=
####018000143####
SAEW31 KWBC 081030 RRA
METAR
LPAZ 081030Z 24004KT 9999 BKN016 BKN030 20/19 Q1025=
LPPD 081030Z VRB02KT 9999 FEW017 BKN030 20/16 Q1024=
####018000073####
SAIO31 KWBC 081000 RRH
METAR
VYMD 081030Z NIL=
VYYY 081030Z NIL=
####018000212####
SAJP31 KWBC 081030 RRA
METAR
RJAA 081030Z 17003KT 9999 FEW020 BKN/// 24/21 Q1010 NOSIG=
RJCC 081030Z 17005KT 140V290 3100 -DZ BR BKN002 18/17 Q1010=
RJTT 081030Z 18013KT 9999 FEW016 BKN/// 25/22 Q1010=
####018000086####
SPCN31 CWAO 081036
SPECI CYBG 081036Z 05008KT 3SM BR BKN080 RMK AC6 AC FLOCUS=

####018000264####
SAPO31 KWBC 081000 RRD
METAR
LPAZ 081030Z 24004KT 9999 BKN016 BKN030 20/19 Q1025=
LPFL 081030Z 21007G17KT 180V250 9999 FEW023 SCT045 23/17 Q1022=
LPHR 081030Z 24007KT 9999 FEW014 SCT035 22/18 Q1023=
LPPD 081030Z VRB02KT 9999 FEW017 BKN030 20/16 Q1024=
####018000082####
SARS31 KWBC 081000 RRC
METAR
UTAM 081030Z 01006MPS CAVOK 41/06 Q1006 NOSIG=
####018000821####
SARA31 KWBC 081000 RRI
METAR
UAAA 081030Z 17003MPS 9999 SCT050CB BKN100 27/13 Q1014 88CLRD65
     TEMPO TS=
UACC 081030Z 31003MPS 270V360 CAVOK 25/02 Q1009 220/0070 NOSIG RMK
     QFE725/0967=
UAOO 081030Z NIL=
UARR 081030Z NIL=
UATE 081030Z 02005G10MPS CAVOK 39/07 Q1010 300///70 NOSIG RMK
     QFE756/1008=
UATG 081030Z 34007G12MPS 300V360 CAVOK 39/09 Q1008 32CLRD70 NOSIG
     RMK QFE758/1011=
UATT 081030Z 07007MPS 040V100 9999 NSC 33/02 Q1010 13CLRD70 NOSIG
     RMK QFE738/0985=
UTAA 081030Z 10005MPS 060V130 9999 SKC 44/03 Q1007 NOSIG=
UTAK 081030Z NIL=
UTAT 081030Z NIL=
UTAV 081030Z NIL=
UTDD 081030Z 16002MPS 110V260 9999 FEW066 37/04 Q1009 09CLRD70
     NOSIG RMK QFE689/0919=
UTDL 081030Z 23003MPS 210V280 9999 FEW056TCU 39/09 Q1007 NOSIG RMK
     QFE718 8809//70=
####018000609####
SAUR31 KWBC 080950 RRB
METAR
UKCW 081030Z VRB02MPS 9999 BKN040 30/16 Q1015 2709//70 NOSIG=
UKKK 081030Z 24004MPS 220V280 9999 BKN025 24/18 Q1015 26CLRD70
     NOSIG=
UKKM 081030Z 33003MPS 300V010 9999 BKN030 23/17 Q1015 33CLRD70
     NOSIG=
UKLI 081030Z 30003MPS 240V340 9999 SCT020CB BKN027 17/14 Q1020
     28290565 NOSIG=
UKLN 081030Z 29005MPS 260V330 9999 -SHRA BKN010 BKN033CB 15/14
     Q1020 3319//65 NOSIG=
UKLR 081030Z 32006MPS 270V350 9999 BKN023 BKN100 21/15 Q1018
     30090070 NOSIG=
UKON 081030Z 32003MPS 290V360 9999 FEW033 OVC200 27/17 Q1013
     05090075 NOSIG=
####018000370####
SAXX99 KWBC 081000 RRX
METAR
EPLL 081030Z 36008KT CAVOK 22/06 Q1022=
OEKJ 081000Z 35020KT 7000 SKC 44/M03 Q1005=
RJBB 081030Z 25008KT 9999 FEW060 BKN/// 26/23 Q1008 NOSIG=
RJGG 081030Z 14008KT 9999 FEW010 BKN/// 25/23 Q1009 NOSIG=
UDYZ 081030Z VRB02MPS 9999 FEW050 36/13 Q1009 09010070 NOSIG=
ZYTX 081030Z 02002MPS 340V040 9999 SCT030 23/19 Q1006 NOSIG=
####018000117####
SPCN44 CWAO 081036
SPECI CYEK 081036Z AUTO 09003KT 1 1/8SM OVC001 OVC047 07/07 A2959 RMK
VSBY VRBL 0.4V9.+=

####018000439####
SAAL40 DAMM 081030
METAR DAAG 081030Z 02008KT CAVOK 32/17 Q1019=
METAR DAAT 081030Z 12014KT 080V150 CAVOK 32/02 Q1022=
METAR DABB 081030Z 01012KT CAVOK 28/14 Q1019=
METAR DABC 081030Z 33008KT CAVOK 31/06 Q1023=
METAR DABS 081030Z 30010KT CAVOK 32/10 Q1023=
METAR DAON 081030Z 36008KT CAVOK 34/21 Q1017=
METAR DAOO 081030Z 01010KT CAVOK 28/21 Q1016=
METAR DAUH 081030Z 09014KT CAVOK 38/20 Q1018=
METAR DAUZ 081030Z NIL=
####018000335####
SABY31 UMMN 081030
METAR UMBB 081030Z 30005G08MPS 8000 SCT033 23/12 Q1019 NOSIG=
METAR UMGG 081030Z 24005MPS 9999 BKN023CB BKN100 27/17 Q1013
R28/190055 NOSIG=
METAR UMMM 081030Z 28005MPS 9999 OVC019 19/16 Q1014 R30/CLRD//
NOSIG RMK QFE741=
METAR UMMS 081030Z 28003MPS 250V320 9999 BKN022 20/16 Q1015
R31/CLRD// NOSIG=
####018000097####
SAUZ31 UTTW 081030
METAR UTST 081030Z 14002MPS 070V200 CAVOK 41/01 Q1006 R88/CLRD70
NOSIG=
####018000309####
SAPL32 EPWA 081030
METAR EPKT 081030Z 28005KT CAVOK 21/08 Q1023=
METAR EPLL 081030Z 36008KT CAVOK 22/06 Q1022=
METAR EPSC 081030Z 07002KT CAVOK 23/10 Q1022=
METAR EPWR 081030Z VRB03KT CAVOK 24/10 Q1023=
METAR EPBY 081030Z VRB02KT CAVOK 23/09 Q1022=
METAR EPZG 081030Z VRB06KT CAVOK 24/07 Q1022=
####018001619####
SPZZ40 KAWN 081038 RRJ
SPECI BGTL 081034Z AUTO 00000KT 3200 BR OVC002 04/04 A2984 RMK AO2
      VIS 1600V8000 SLP109=
SPECI BGTL 081036Z AUTO 00000KT 4000 BR OVC002 04/04 A2984 RMK AO2
      VIS 2400V8000 SLP109=
SPECI CYEK 081034Z AUTO 09004KT 2 1/8SM OVC001 OVC047 07/07 A2959 RMK
      VSBY VRBL 0.6V9.+=
SPECI CYGV 081033Z AUTO 08004KT 9SM OVC004 14/12 A3004=
SPECI CYYT 081036Z 18005KT 15SM BKN006 OVC018 09/ RMK SF6SC2 VIS LWR
      S=
SPECI CYZE 081037Z AUTO 17006KT 4SM BR FEW002 SCT008 BKN130 BKN160
      20/20 A2997 RMK SLP150 DENSITY ALT 1300FT=
SPECI CZBF 081033Z 00000KT 3/8SM FG VV002 RMK FG8=
SPECI KDTS 081035Z AUTO 00000KT 1/2SM FG VV001 24/23 A3001 RMK AO2=
SPECI KEGI 081036Z AUTO 00000KT 1 1/4SM R18/2400VP6000FT BR CLR 21/21
      A3003 RMK AO2 SLP167 $=
SPECI KWRI 081036Z AUTO 15003KT 3/4SM R18/2800V4000FT R24/2000V2400FT
      BR VV001 23/23 A3001 RMK AO2 SLP162 $=
PALU SP 1035 AWOS CLR BLO 120 10 54/35/2211/010=
PASV SP 1035 AWOS 37 SCT 47 SCT M60 OVC 10 48/46/0000/996=
PATL SP 1035 AWOS CLR BLO 120 10 59/44/0205/999=
SPECI RJOH 081030Z 04006KT 6000 TS FEW010 SCT015 FEW025CB BKN035 25/21
      Q1009 RMK 1CU010 4CU015 2CB025 7SC035 A2981 FBL TS 20KM S
      MOV NE FCST AMD 1016 TEMPO 1012 3000 TSRA SCT010CU BKN015CU
      BKN025CB BECMG 1212 6000 -SHRA FEW010CU SCT015CU BKN025CU/
      TS AFT 12Z=
SPECI RKJK 081034Z 09004KT 9000 -TSRA BR FEW031CB BKN050 24/22 A2978
      RMK AO2A RAE1019B1034DZB1019E1021 SLP085 $=
SPECI RKSG 081033Z 00000KT 8000 -DZ FEW029 SCT060 BKN080 25/25 A2978
      RMK AO2A DZE0959B1033 SLP087 $=
####018000088####
SPUS81 KWBC 081038
SPECI
KATT 081035Z AUTO 00000KT 9SM BKN010 OVC017 25/23 A2996=
####018000098####
SAUZ31 UTTW 081030
METAR UTST 081030Z 14002MPS 070V200 CAVOK 41/01 Q1006 R88/CLRD70 
NOSIG=
####018000095####
SPAU31 AMMC 081038
SPECI YBCS 081030Z 18008KT 9999 FEW024 BKN045 23/19 Q1016
     NOSIG=
####018000101####
SPAU31 AMMC 081038
SPECI YBCS 081030Z 18008KT 9999 FEW024 BKN045 23/19 Q1016
     NOSIG=


####018000091####
SAGL KAWN 081000 RRB
METAR BIKF 081030Z 03024KT 9999 FEW015 SCT032 BKN070 10/05 Q0993=
####018002608####
SAUS20 KNKA 081038
METAR K1A6 081035Z AUTO 00000KT 3SM BR CLR 21/21 A3011 RMK AO2=
METAR K1P1 081035Z AUTO 00000KT 2SM BR OVC003 22/21 A3007 RMK AO2 
     T02210210=
METAR K21D 081038Z AUTO 00000KT 10SM CLR 17/16 A3008 RMK AO2=
METAR KAIG 081035Z AUTO 33007KT 1/2SM FG OVC001 18/17 A3002 RMK 
     AO2=
METAR KARV 081032Z AUTO 00000KT 10SM CLR 17/15 A3004 RMK AO2 
     T01660152=
METAR KBJI 081034Z AUTO 24005KT 10SM CLR 14/13 A3005 RMK AO2=
METAR KBUU 081034Z AUTO 00000KT 4SM BR SCT011 BKN025 BKN070 21/21 
     A3001 RMK AO2=
METAR KBVU 081035Z AUTO 06003KT 10SM CLR 24/04 A2986 RMK AO2 =
METAR KBWP 081031Z AUTO 26003KT 10SM CLR 14/13 A3009 RMK AO1 
     T01410128=
METAR KCLI 081035Z AUTO 00000KT 4SM BR OVC005 22/21 A3000 RMK AO2=
METAR KCMY 081035Z AUTO 00000KT 10SM CLR 19/18 A3004 RMK AO2 
     T01860178=
METAR KCWA 081035Z AUTO 33004KT 10SM OVC003 19/19 A3003 RMK AO2 
     T01920193=
METAR KDLL 081035Z AUTO 23004KT 2SM BR OVC002 21/21 A3003 RMK AO2=
SPECI KDMO 081037Z AUTO 06003KT 1 1/2SM BR FEW050 23/22 A3004 RMK 
    AO2=
METAR KDVK 081037Z AUTO 00000KT 5SM 20/19 A3010 RMK AO1=
SPECI KECG 081037Z AUTO 08007KT 10SM BKN009 BKN014 BKN110 26/24 
    A2996 RMK AO2=
METAR KEDC 081035Z AUTO 06004KT BKN008 BKN025 24/24 A2996 RMK AO2 
     =
METAR KEOE 081035Z AUTO 00000KT 10SM CLR 21/20 A3003 RMK AO2=
SPECI KFYV 081037Z AUTO 00000KT 10SM BKN027 22/21 A3007 RMK AO2=
METAR KLCK 081035Z AUTO 00000KT 2 1/2SM BR CLR 21/20 A3008 RMK 
     AO2 T02120202=
SPECI KMFI 081037Z AUTO 32008KT 3SM BR BKN003 19/18 A3002 RMK AO2=
METAR KMWO 081035Z AUTO 00000KT 1 1/2SM BR VV007 20/20 A3009 RMK 
     AO2=
METAR KPVB 081033Z AUTO 27003KT 3/4SM OVC001 21/20 A3005 RMK AO1 
     T02050198=
METAR KPVF 081035Z AUTO 03004KT 10SM BKN042 21/12 A2993 RMK AO1 =
METAR KRCM 081035Z AUTO 34003KT 2 1/2SM BR OVC002 22/22 A3004 RMK 
     AO2=
METAR KRZN 081034Z AUTO 00000KT 10SM CLR 16/15 A3008 RMK AO2 
     T01550148=
METAR KSME 081035Z AUTO 00000KT 2 1/2SM BR 20/19 A3010 RMK AO2=
METAR KSNC 081035Z AUTO 15006KT 1/2SM  FG OVC001 22/ A3008 RMK AO2 
     P0005 =
METAR KTME 081035Z AUTO 03008KT 5SM 25/25 A2993 RMK AO1 =
METAR KTZR 081036Z AUTO 00000KT 4SM BR CLR 21/19 A3009 RMK AO2=
METAR KUNI 081035Z AUTO 00000KT 2 1/2SM HZ CLR 21/17 A3008 RMK 
     AO2 T02130168=
METAR KUOX 081035Z AUTO 00000KT 10SM CLR 22/20 A3009 RMK AO2 =
METAR KVES 081034Z AUTO 13003KT 2 1/2SM BR CLR 20/19 A3009 RMK 
     AO2 T01950188=
METAR KWRB 080955Z COR 34003KT 10SM CLR 20/20 A3001 RMK AO2A SLP161
      T02050205 COR 1032=
####018000080####
SACN88 CWAO 081031
WNS SA 1031 AUTO8 M M M 201/19/18/MMMM/M/M 1005 12MM=

####018000090####
SPCN46 CWAO 081037
SPECI CYBC 081037Z AUTO 08004KT 050V130 4SM OVC002 13/13 A3002=

####018000104####
SPCN51 CWAO 081037
SPECI CZCP 081037Z AUTO 25014KT 2 3/4SM -RA BKN002 BKN016 OVC021 06/
A2984=

####018001499####
SARS18 KAWN 081000 RRI
METAR UAAA 081030Z 17003MPS 9999 SCT050CB BKN100 27/13 Q1014 88CLRD65
      TEMPO TS=
METAR UACC 081030Z 31003MPS 270V360 CAVOK 25/02 Q1009 220/0070 NOSIG
      RMK QFE725/0967=
METAR UATE 081030Z 02005G10MPS CAVOK 39/07 Q1010 300///70 NOSIG RMK
      QFE756/1008=
METAR UATT 081030Z 07007MPS 040V100 9999 NSC 33/02 Q1010 13CLRD70 NOSIG
      RMK QFE738/0985=
METAR UKKK 081030Z 24004MPS 220V280 9999 BKN025 24/18 Q1015 26CLRD70
      NOSIG=
METAR ULLI 081030Z 15002MPS 110V200 9999 SCT040 BKN200 31/16 Q1013
      NOSIG=
METAR UMGG 081030Z 24005MPS 9999 BKN023CB BKN100 27/17 Q1013 R28/190055
      NOSIG=
METAR UMMM 081030Z 28005MPS 9999 OVC019 19/16 Q1014 R30/D NOSIG RMK
      QFE741=
METAR UMMS 081030Z 28003MPS 250V320 9999 BKN022 20/16 Q1015 R31/D NOSIG=
METAR URKA 081030Z 04005MPS 9999 SCT026 29/19 Q1012 NOSIG RMK 065=
METAR URSS 081030Z 28003MPS 9999 FEW040 28/20 Q1010 NOSIG RMK / QFE756
      06CLRD70=
METAR UTAA 081030Z 10005MPS 060V130 9999 SKC 44/03 Q1007 NOSIG=
METAR UTDD 081030Z 16002MPS 110V260 9999 FEW066 37/04 Q1009 09CLRD70
      NOSIG RMK QFE689/0919=
METAR UUDD 081030Z 14005MPS 110V180 9999 SCT043 BKN200 28/16 Q1015
      WS RWY14R NOSIG=
METAR UUEE 081030Z 13005MPS 9999 SCT050TCU BKN200 29/14 Q1015 WS RWY07L
      NOSIG=
METAR UUWW 081030Z 14002MPS 110V180 9999 SCT040 BKN100 26/17 Q1015
      06000070 NOSIG=
METAR VTBD 081030Z 15007KT 9999 FEW020 SCT120 BKN300 32/23 Q1005 NOSIG=
####018000075####
SALY31 HLLB 081030
METAR HLLB 081025Z 32008KT 9999 FEW025 30/18 Q1016=
####018003691####
SAUS99 KWBC 081039
METAR
KPQN 081033Z AUTO 32007KT 10SM CLR 17/14 A3017 RMK AO2=
KFGN 081034Z AUTO 26010KT 1/4SM -DZ VV002 16/13 A2997 RMK AO2=
KPNM 081033Z AUTO 00000KT 3SM BR CLR 13/12 A3009 RMK AO2=
KPWC 081033Z AUTO 00000KT 1SM BR VV007 09/09 A3008 RMK AO2=
KFFM 081033Z AUTO 22003KT 10SM CLR 14/14 A3009 RMK AO2=
KGDB 081032Z AUTO 25006KT 10SM CLR 13/13 A3014 RMK AO2
     T01340130=
KAIT 081033Z AUTO 00000KT 1/2SM FG BKN001 12/11 A3006 RMK AO2=
KGHW 081033Z AUTO 25005KT 10SM CLR 14/13 A3014 RMK AO2=
KMWM 081033Z AUTO 25003KT 7SM CLR 14/13 A3014 RMK AO2=
KULM 081035Z AUTO 26004KT 10SM CLR 14/13 A3013 RMK AO2=
KBBB 081033Z AUTO 00000KT 10SM CLR 14/14 A3011 RMK AO2=
KTWM 081033Z AUTO 30005KT 10SM CLR 16/13 A3002 RMK AO2=
KMGG 081035Z AUTO 28005KT 10SM CLR 16/15 A3010 RMK AO2
     T01600148=
KMOX 081030Z AUTO 26004KT 10SM CLR 15/14 A3008 RMK AO2=
KTEW 081033Z AUTO 00000KT 5SM BR CLR 21/19 A3005 RMK AO2=
KCVH 081030Z AUTO 00000KT 10SM OVC008 13/11 A2992 RMK AO1=
KDYT 081034Z AUTO 19006KT 10SM CLR 17/15 A3004 RMK AO2=
KFSO 081038Z AUTO 00000KT 5SM BR SCT065 SCT075 23/22 A3001 RMK
     AO2=
KFBL 081034Z AUTO 00000KT 10SM CLR 17/15 A3010 RMK AO2=
KLYV 081038Z AUTO 00000KT 10SM CLR 13/12 A3017 RMK AO2=
KEFK 081036Z AUTO 21005KT 3SM BR CLR 20/19 A3006 RMK AO2=
KRRT 081034Z AUTO 23006KT 10SM CLR 13/11 A3001 RMK AO2=
KTOB 081034Z AUTO 00000KT 10SM CLR 17/16 A3010 RMK AO2=
KLXL 081034Z AUTO 00000KT 3SM BR 12/12 A3008 RMK AO2 SKY
     OBSCURED=
KEVM 081032Z AUTO 27003KT 4SM BR CLR 13/12 A3002 RMK AO1=
KELO 081033Z AUTO 20004KT 10SM CLR 13/13 A3002 RMK AO2=
KANE 081035Z AUTO 00000KT 10SM 17/16 A3009 RMK AO2=
KROX 081034Z AUTO 23005KT 10SM CLR 14/12 A3001 RMK AO2=
KSYN 081050Z AUTO 00000KT 10SM CLR 17/16 A3008 RMK AO2
     T01700159=
KVVV 081036Z AUTO 29004KT 10SM CLR 17/14 A3011 RMK AO2=
KROS 081035Z AUTO 29003KT 10SM CLR 15/14 A3008 RMK AO2
     T01470140=
KHCD 081032Z AUTO 27004KT 4SM BR CLR 13/12 A3011 RMK AO2
     T01250115=
KSGS 081033Z AUTO 00000KT 10SM CLR 18/16 A3008 RMK AO2
     T01790160=
KMJQ 081032Z AUTO 29003KT 5SM BR CLR 14/13 A3015 RMK AO2=
KHCO 081034Z AUTO 16003KT 10SM CLR 12/12 A3005 RMK AO2=
KLVN 081028Z AUTO 28004KT 10SM CLR 16/16 A3009 RMK AO2=
KPEX 081033Z AUTO 26004KT 7SM CLR 12/12 A3011 RMK AO2
     T01190116=
KJMR 081038Z AUTO 00000KT 10SM CLR 15/13 A3010 RMK AO2=
KJKJ 081034Z AUTO 26003KT 10SM CLR 16/14 A3007 RMK AO2=
KMVE 081034Z AUTO 29003KT 10SM CLR 16/14 A3011 RMK AO2=
KTKC 081033Z AUTO 27004KT 10SM CLR 16/13 A3014 RMK AO2
     T01550127=
KGYL 081035Z AUTO 00000KT 10SM CLR 15/14 A3010 RMK AO2
     T01490141=
KDXX 081034Z AUTO 00000KT 10SM CLR 14/14 A3011 RMK AO2=
KHZX 081031Z AUTO 00000KT 10SM CLR 13/13 A3007 RMK AO2=
KSAZ 081034Z AUTO 23004KT 10SM CLR 15/15 A3009 RMK AO2=
KONA 081031Z AUTO 32005KT 10SM CLR 20/18 A3004 RMK AO2=
KOVL 081034Z AUTO 00000KT 7SM CLR 13/12 A3012 RMK AO2
     T01280115=
KLJF 081032Z AUTO 28004KT 10SM CLR 17/16 A3012 RMK AO2=
KAEL 081031Z AUTO 00000KT 7SM CLR 17/17 A3010 RMK AO2=
K29G 081034Z AUTO 00000KT 4SM CLR 19/18 A3010 RMK AO2 T01930184
     PWINO=
KMRT 081033Z AUTO 00000KT 2 1/2SM CLR 20/19 A3012 RMK AO2
     T02020188=
KIKW 081033Z AUTO 23004KT 10SM RA BKN050 BKN070 OVC090 23/21 A3002
     RMK AO2 T02320211=
KMDS 081025Z AUTO 31005KT 10SM CLR 14/14 A3017 RMK AO2=
KFPK 081036Z AUTO 29003KT 5SM BR CLR 22/20 A3004 RMK AO2=
KMOP 081035Z AUTO 18004KT 10SM BKN085 BKN100 OVC120 23/22 A3002
     RMK AO2=
KCAD 081034Z AUTO 22006KT 10SM BKN075 OVC100 22/20 A3003 RMK
     AO2=
KMGN 081035Z AUTO 28003KT 7SM SCT120 22/20 A2996 RMK AO2=
####018003740####
SAUS99 KWBC 081039 RRA
METAR
KHAI 081035Z AUTO 00000KT 4SM BR CLR 21/20 A3005 RMK AO2=
KLWA 081036Z AUTO 00000KT 5SM BR CLR 22/21 A3004 RMK AO2=
KDRM 081036Z AUTO 16004KT 1 1/4SM BR OVC002 20/20 A2996 RMK
     AO2=
KVLL 081034Z AUTO 24003KT 10SM CLR 25/21 A3006 RMK AO2=
KCFS 081035Z AUTO 00000KT 4SM BR CLR 20/20 A3002 RMK AO2=
KOZW 081035Z AUTO 24004KT 7SM CLR 23/20 A3005 RMK AO2=
KRNP 081035Z AUTO 29004KT 7SM CLR 23/21 A3004 RMK AO2=
KDUH 081035Z AUTO 00000KT 7SM SCT080 22/18 A3005 RMK AO2=
KJYM 081035Z AUTO 00000KT 4SM BR CLR 20/19 A3007 RMK AO2=
KBAX 081035Z AUTO 00000KT 3SM BR CLR 21/20 A3001 RMK AO2=
KIRS 081035Z AUTO 32013G16KT 4SM BR SCT060 21/19 A3005 RMK AO2=
KACB 081035Z AUTO 00000KT 10SM -RA OVC100 23/21 A2997 RMK AO2=
KRQB 081035Z AUTO 22003KT 10SM -RA SCT023 OVC100 22/21 A3004 RMK
     AO2=
KOEB 081035Z AUTO 00000KT 4SM BR CLR 21/19 A3006 RMK AO2=
K4I3 081036Z AUTO 00000KT 5SM BR SCT060 19/18 A3010 RMK AO2=
KAUM 081035Z AUTO 00000KT 7SM CLR 17/16 A3009 RMK AO2=
KFFX 081035Z AUTO 20003KT 3SM -RA BKN065 OVC075 22/22 A3002 RMK
     AO2=
KCNB 081037Z AUTO 25006KT 10SM CLR 16/13 A3014 RMK AO2
     T01640131=
KCKN 081035Z AUTO 21004KT 10SM CLR 13/11 A3005 RMK AO2=
KCFE 081035Z AUTO 00000KT 10SM CLR 17/16 A3011 RMK AO2
     T01720155=
KCQM 081037Z AUTO 00000KT 10SM CLR 14/13 A3003 RMK AO2=
KDTL 081035Z AUTO 00000KT 10SM CLR 15/11 A3010 RMK AO2=
KBDH 081035Z AUTO 27003KT 7SM CLR 14/14 A3013 RMK AO2=
KCBG 081035Z AUTO 00000KT 10SM CLR 16/14 A3008 RMK AO2=
KADC 081037Z AUTO 23005KT 10SM CLR 13/12 A3009 RMK AO2=
KHAF 081030Z AUTO 00000KT 10SM OVC006 12/10 A2993 RMK AO2=
KCKC 081035Z AUTO 29006KT 10SM CLR 15/13 A3004 RMK AO2=
KJYG 081035Z AUTO 00000KT 10SM CLR 16/16 A3014 RMK AO2=
KCOQ 081036Z AUTO 28005KT 10SM CLR 14/14 A3006 RMK AO2=
KACQ 081039Z AUTO 27004KT 1/4SM FG VV002 15/15 A3012 RMK AO2=
KRGK 081035Z AUTO 00000KT 10SM CLR 18/17 A3006 RMK AO2=
KFSE 081034Z AUTO 20003KT 10SM CLR 11/11 A3006 RMK AO2=
KY70 081035Z AUTO 00000KT 2SM BR BKN065 OVC120 23/22 A3003 RMK AO2
     T02250216=
KUKT 081030Z AUTO 00000KT 3SM CLR 21/20 A3005 RMK AO1=
KFKA 081043Z AUTO 32006KT 10SM CLR 18/18 A3008 RMK AO2
     T01830176=
K1A6 081035Z AUTO 00000KT 3SM BR CLR 21/21 A3011 RMK AO2=
K1P1 081035Z AUTO 00000KT 2SM BR OVC003 22/21 A3007 RMK AO2
     T02210210=
K21D 081038Z AUTO 00000KT 10SM CLR 17/16 A3008 RMK AO2=
KAIG 081035Z AUTO 33007KT 1/2SM FG OVC001 18/17 A3002 RMK AO2=
KARV 081032Z AUTO 00000KT 10SM CLR 17/15 A3004 RMK AO2
     T01660152=
KBJI 081034Z AUTO 24005KT 10SM CLR 14/13 A3005 RMK AO2=
KBUU 081034Z AUTO 00000KT 4SM BR SCT011 BKN025 BKN070 21/21 A3001
     RMK AO2=
KBVU 081035Z AUTO 06003KT 10SM CLR 24/04 A2986 RMK AO2=
KBWP 081031Z AUTO 26003KT 10SM CLR 14/13 A3009 RMK AO1
     T01410128=
KCLI 081035Z AUTO 00000KT 4SM BR OVC005 22/21 A3000 RMK AO2=
KCMY 081035Z AUTO 00000KT 10SM CLR 19/18 A3004 RMK AO2
     T01860178=
KCWA 081035Z AUTO 33004KT 10SM OVC003 19/19 A3003 RMK AO2
     T01920193=
KDLL 081035Z AUTO 23004KT 2SM BR OVC002 21/21 A3003 RMK AO2=
KDVK 081037Z AUTO 00000KT 5SM 20/19 A3010 RMK AO1=
KEDC 081035Z AUTO 06004KT BKN008 BKN025 24/24 A2996 RMK AO2=
KEOE 081035Z AUTO 00000KT 10SM CLR 21/20 A3003 RMK AO2=
KLCK 081035Z AUTO 00000KT 2 1/2SM BR CLR 21/20 A3008 RMK AO2
     T02120202=
KMWO 081035Z AUTO 00000KT 1 1/2SM BR VV007 20/20 A3009 RMK AO2=
KPVB 081033Z AUTO 27003KT 3/4SM OVC001 21/20 A3005 RMK AO1
     T02050198=
KPVF 081035Z AUTO 03004KT 10SM BKN042 21/12 A2993 RMK AO1=
KRCM 081035Z AUTO 34003KT 2 1/2SM BR OVC002 22/22 A3004 RMK
     AO2=
KRZN 081034Z AUTO 00000KT 10SM CLR 16/15 A3008 RMK AO2
     T01550148=
####018000593####
SAUS99 KWBC 081039 RRB
METAR
KSME 081035Z AUTO 00000KT 2 1/2SM BR 20/19 A3010 RMK AO2=
KSNC 081035Z AUTO 15006KT 1/2SM FG OVC001 22/ A3008 RMK AO2
     P0005=
KTME 081035Z AUTO 03008KT 5SM 25/25 A2993 RMK AO1=
KTZR 081036Z AUTO 00000KT 4SM BR CLR 21/19 A3009 RMK AO2=
KUNI 081035Z AUTO 00000KT 2 1/2SM HZ CLR 21/17 A3008 RMK AO2
     T02130168=
KUOX 081035Z AUTO 00000KT 10SM CLR 22/20 A3009 RMK AO2=
KVES 081034Z AUTO 13003KT 2 1/2SM BR CLR 20/19 A3009 RMK AO2
     T01950188=
KWRB 080955Z COR 34003KT 10SM CLR 20/20 A3001 RMK AO2A SLP161
     T02050205 COR 1032=
####018000309####
SPUS99 KWBC 081039
SPECI
KDMO 081037Z AUTO 06003KT 1 1/2SM BR FEW050 23/22 A3004 RMK
     AO2=
KECG 081037Z AUTO 08007KT 10SM BKN009 BKN014 BKN110 26/24 A2996
     RMK AO2=
KFYV 081037Z AUTO 00000KT 10SM BKN027 22/21 A3007 RMK AO2=
KMFI 081037Z AUTO 32008KT 3SM BR BKN003 19/18 A3002 RMK AO2=
####018000430####
SAAL40 DAMM 081030
METAR DAAG 081030Z 02008KT CAVOK 32/17 Q1019=
METAR DAAT 081030Z 12014KT 080V150 CAVOK 32/02 Q1022=
METAR DABB 081030Z 01012KT CAVOK 28/14 Q1019=
METAR DABC 081030Z 33008KT CAVOK 31/06 Q1023=
METAR DABS 081030Z 30010KT CAVOK 32/10 Q1023=
METAR DAON 081030Z 36008KT CAVOK 34/21 Q1017=
METAR DAOO 081030Z 01010KT CAVOK 28/21 Q1016=
METAR DAUH 081030Z 09014KT CAVOK 38/20 Q1018=
METAR DAUZ 081030Z NIL=
####018000489####
SARA31 RUMS 081030
METAR UEEE 081030Z 11002MPS 9999 BKN050CB BKN100 22/13 Q1007 NOSIG
RMK QFE747 2309//60=
METAR UELL 081030Z VRB01MPS 9999 -SHRA VCFG BKN026CB OVC200 13/12
Q1012 TEMPO SCT006 RMK QFE684 08CLRD70=
METAR UERP 081030Z 36005MPS 9999 SCT033CB BKN100 16/06 Q1014 NOSIG
RMK QFE717 35090065=
METAR UERR 081030Z 34003MPS 9999 BKN020CB OVC200 15/14 Q1012 NOSIG
RMK QFE727 24290255=
METAR UESO 081030Z NIL=
METAR UEST 081030Z 10002MPS CAVOK 06/03 Q1017 NOSIG RMK QFE762=
####018000379####
SARA33 RUMS 081030
METAR UIAA 081030Z 36005MPS 9999 VCTS BKN043CB OVC100 24/10 Q1006
NOSIG RMK     QFE696 29CLRD70=
METAR UIBB 081030Z 06004MPS 9999 FEW033 BKN200 27/12 Q1005 NOSIG RMK
QFE711/0948 30CLRD60=
METAR UIII 081030Z 18002MPS CAVOK 20/12 Q1006 NOSIG RMK QFE712/0950
12CLRD60=
METAR UIUU 081030Z 00000MPS 9999 SCT033CB OVC100 22/13 Q1007 NOSIG
RMK QFE711/0948=
####018000451####
SARS33 RUMS 081030
METAR ULLI 081030Z 15002MPS 110V200 9999 SCT040 BKN200 31/16 Q1013
NOSIG=
METAR UUDD 081030Z 14005MPS 110V180 9999 SCT043 BKN200 28/16 Q1015 WS
RWY14R NOSIG=
METAR UUEE 081030Z 13005MPS 9999 SCT050TCU BKN200 29/14 Q1015 WS
RWY07L NOSIG=
METAR UUEM 081030Z NIL=
METAR UUWW 081030Z 14002MPS 110V180 9999 SCT040 BKN100 26/17 Q1015
06000070 NOSIG=
METAR UUMO 081030Z VRB02MPS CAVOK 26/16 Q1015 NOSIG RMK QFE747/0995
SC060=
####018000722####
SARA36 RUMS 081030
METAR UWUU 081030Z 02005MPS 020V080 CAVOK 28/10 Q1015 82010060 NOSIG
RMK QFE750/1000=
METAR USCC 081030Z 34007G14MPS 9999 FEW040 FEW200 25/01 Q1014 NOSIG
RMK QFE740 27000070=
METAR USDD 081030Z 03008G11MPS CAVOK 17/M00 Q1016 NOSIG RMK
QFE756/1008 SC060=
METAR USMU 081030Z 03006MPS 9999 SCT026CB OVC066 15/11 Q1006 NOSIG
RMK QFE749 09250345=
METAR USNN 081030Z 16006MPS P6000 SCT026 BKN200 18/09 Q1003 NOSIG RMK
QFE747 SC065=
METAR USRK 081030Z 33004MPS 6000 BKN019 OVC066 14/10 Q1003 NOSIG RMK
QFE746 351///55=
METAR USRR 081030Z 35003G06MPS 7000 OVC010 12/10 Q1004 TEMPO BKN007
RMK QFE748 25////60=
METAR USSS 081030Z 33004G07MPS 280V360 CAVOK 25/03 Q1014 NOSIG RMK
QFE740 260///70=
####018000273####
SARA35 RUMS 081030
METAR ULDD 081030Z NIL=
METAR UOHH 081030Z NIL=
METAR UOII 081030Z 16002MPS 9999 SCT033CB BKN040 26/17 Q1006 TEMPO
-TSRA RMK QFE752 30////60=
METAR UOOO 081030Z NIL=
METAR USCM 081030Z VRB02MPS 9999 FEW050 26/01 Q1015 NOSIG 01090065
RMK QFE723=
####018000827####
SARS32 RUMS 081030
METAR URKA 081030Z 04005MPS 9999 SCT026 29/19 Q1012 NOSIG RMK  065=
METAR URKK 081030Z 07005G08MPS 9999 SCT030 BKN300 30/19 Q1012 NOSIG
RMK QFE756 SC070=
METAR URKM 081030Z NIL=
METAR URML 081030Z 03007MPS 9999 SKC 32/21 Q1013 NOSIG RMK QFE759 /
07=
METAR URMM 081030Z 10005G07MPS 9999 BKN043 30/18 Q1013 NOSIG RMK /
SC070=
METAR URMN 081030Z 10003MPS 9999 BKN033CB BKN110 28/19 Q1014 NOSIG
RMK / QFE723 SC07=
METAR URMT 081030Z 05005G08MPS 9999 BKN020 OVC100 27/17 Q1015 NOSIG
RMK QFE721 SC07=
METAR URRR 081030Z NIL=
METAR URSS 081030Z 28003MPS 9999 FEW040 28/20 Q1010 NOSIG RMK /
QFE756 06CLRD70=
METAR URWA 081030Z 34003MPS CAVOK 37/12 Q1011 NOSIG RMK SC07=
METAR URWI 081030Z 07002MPS CAVOK 30/16 Q1013 NOSIG RMK SC065=
METAR URWW 081030Z 36004MPS CAVOK 30/15 Q1014 NOSIG RMK SC070=
####018000846####
SARS35 RUMS 081030
METAR USPP 081030Z 31003G06MPS 220V360 CAVOK 28/09 Q1016 NOSIG RMK
QFE751/1001 21090060=
METAR UWKD 081030Z 23002MPS 9999 SCT033CB BKN070 30/11 Q1015 TEMPO
VRB15MPS 3000 TSRA RMK QFE752/1002 112/0350=
METAR UWKE 081030Z 04003MPS 9999 FEW040 31/10 Q1016 NOSIG RMK
QFE745/0993 22090070=
METAR UWKS 081030Z 34002MPS 9999 BKN033CB 31/13 Q1016 NOSIG RMK
QFE748 SC0.60=
METAR UWLL 081030Z 06004MPS 9999 SCT050TCU 31/10 Q1015 NOSIG RMK
QFE749/0999 SC065=
METAR UWLW 081030Z NIL=
METAR UWOR 081030Z NIL=
METAR UWOO 081030Z NIL=
METAR UWPP 081030Z 13004MPS 9999 SCT033 BKN100 31/10 Q1014 NOSIG RMK
QFE746 11090060=
METAR UWSS 081030Z 07006MPS 9999 FEW050TCU BKN066 31/11 Q1014 NOSIG
RMK QFE749 120///60=
METAR UWWW 081030Z 02006G11MPS 010V070 9999 FEW033 SCT200 31/09 Q1015
NOSIG RMK QFE748/0998 05CLRD60 15//99//=
####018000468####
SARA32 RUMS 081030
METAR UHHH 081030Z 02004MPS 9999 SCT032CB OVC100 17/14 Q1010 NOSIG
RMK QFE751/1002 55090060=
METAR UHMA 081030Z NIL=
METAR UHMM 081030Z NIL=
METAR UHMP 081030Z NIL=
METAR UHNN 081030Z NIL=
METAR UHPP 081030Z NIL=
METAR UHSH 081030Z NIL=
METAR UHSS 081030Z 14001MPS 9999 BKN016 13/12 Q1011 NOSIG RMK MT OBSC
QFE757/1009 19CLRD70=
METAR UHWW 081030Z 19003MPS 160V220 9999 SCT013 BKN023 OVC090 17/14
Q1010 NOSIG RMK QFE757/1009 75CLRD70=
####018000512####
SAGR32 LGAT 081020
METAR LGAL 081020Z 04008KT 9999 FEW008 FEW020TCU BKN025 19/17 Q1015=
METAR LGEL 081020Z 36012G22KT 9999 FEW025 27/13 Q1012=
METAR LGKV 081020Z 17007KT 9999 SCT020TCU 22/17 Q1013=
METAR LGMT 081020Z 36011KT 9999 FEW025 SCT100 24/17 Q1011=
METAR LGPZ 081020Z 27015KT 9999 FEW025 28/19 Q1013 NOSIG=
METAR LGRX 081020Z 28011KT 9999 FEW025 27/18 Q1012 NOSIG=
METAR LGSK 081020Z NIL=
METAR LGSR 081020Z 35018KT 9999 FEW020 28/19 Q1010 NOSIG=
METAR LGZA 081020Z 33014KT CAVOK 30/07 Q1013=
####018000090####
SPAU31 KWBC 081039
SPECI
YBCS 081030Z 18008KT 9999 FEW024 BKN045 23/19 Q1016 NOSIG=
####018000265####
SARS34 RUMS 081030
METAR UUYH 081030Z 00000MPS CAVOK 26/08 Q1017 NOSIG RMK QFE 751
18CLRD60=
METAR UUYS 081030Z 16003MPS CAVOK 21/06 Q1016 NOSIG RMK QFE755
14CLRD60=
METAR UUYY 081030Z VRB02MPS 9999 FEW030 BKN200 30/14 Q1016 NOSIG
01CLRD61 RMK QFE753/1004=
####018000299####
SAGR33 LGAT 081020
METAR LGHI 081020Z NIL=
METAR LGKC 081020Z NIL=
METAR LGKF 081020Z NIL=
METAR LGKP 081020Z 32028KT CAVOK 29/17 Q1009=
METAR LGKZ 081020Z NIL=
METAR LGMK 081020Z 01022G32KT 9999 FEW012 25/18 Q1012=
METAR LGNX 081020Z NIL=
METAR LGPA 081020Z NIL=
METAR LGSO 081020Z NIL=
####018000072####
SAGR31 LGAT 081020 RRA
METAR LGSM 081020Z 35011KT CAVOK 31/14 Q1010=
####018000539####
SAGR31 LGAT 081020
METAR LGAD 081020Z 31012KT 9999 FEW020 27/17 Q1014=
METAR LGAV 081020Z 02019KT 9999 FEW020 BKN030 26/12 Q1013 NOSIG=
METAR LGIR 081020Z 01006KT 9999 FEW020 29/23 Q1011 NOSIG=
METAR LGKL 081020Z NIL=
METAR LGKO 081020Z 31014KT CAVOK 29/17 Q1010=
METAR LGKR 081020Z 31015KT CAVOK 28/13 Q1013 NOSIG=
METAR LGLM 081020Z NIL=
METAR LGRP 081020Z 24015KT CAVOK 30/19 Q1008 NOSIG=
METAR LGSA 081020Z 30010KT 9999 FEW020 33/15 Q1011=
METAR LGSM 081020Z NIL=
METAR LGTS 081020Z 34022KT 9999 SCT025 23/11 Q1016 NOSIG=
####018000837####
SARA34 RUMS 081030
METAR UNAA 081030Z 05002MPS 9999 SCT030CB BKN100 19/12 Q1011 RMK
QFE736 202///55=
METAR UNBB 081030Z 23007MPS 9999 -SHRA BKN027CB 19/06 Q1009 NOSIG RMK
QFE735=
METAR UNEE 081030Z 21005MPS 9999 SCT026 BKN200 19/11 Q1008 NOSIG RMK
QFE734 23CLRD60=
METAR UNKL 081030Z VRB02MPS 9999 SCT023CB OVC083 17/13 Q1009 NOSIG
RMK QFE731 29////55=
METAR UNNT 081030Z 22005MPS 190V250 9999 BKN060CB BKN100 21/02 Q1007
NOSIG RMK QFE745/0993 25090070=
METAR UNOO 081030Z 33004MPS 9999 BKN023CB 13/10 Q1008 NOSIG 25CLRD06
RMK QFE748=
METAR UNWW 081030Z 24006G11MPS 9999 VCTS -SHRA BKN026CB OVC100 17/10
Q1010 NOSIG RMK QFE731 1929//60=
METAR USTR 081030Z 33007G10MPS 9999 SCT046 19/04 Q1012 NOSIG RMK
QFE749/0999 30CLRD65=
METAR USHH 081030Z VRB02G07MPS 7000 -SHRA SCT017CB OVC080 11/09 Q1009
NOSIG RMK QFE753 SC06=
####018000131####
SAAK31 KWBC 081000 RRB
METAR
PAVD 081036Z 00000KT 10SM OVC080 11/08 A3008=
PAWG 081036Z AUTO 33003KT 10SM CLR 13/10 A3013=
####018000687####
SARS31 RUMS 081030
METAR ULAA 081030Z 32003MPS 270V010 9999 FEW030CB 27/17 Q1015 TEMPO
TSRA RMK QFE760/1013 SC070=
METAR ULKK 081030Z NIL=
METAR ULMM 081030Z 01001MPS 9999 BKN020 15/08 Q1018 NOSIG RMK QFE756
32190060=
METAR ULOL 081030Z NIL=
METAR ULOO 081030Z VRB02MPS P6000 SCT035 BKN200 28/18 Q1012 NOSIG RMK
QFE755=
METAR ULWW 081030Z NIL=
METAR UMKK 081030Z 30006MPS P8000 FEW030 BKN200 22/13 Q1020 NOSIG RMK
QFE 764 SC07=
METAR UUBP 081030Z NIL=
METAR UUOB 081030Z NIL=
METAR UUOK 081030Z NIL=
METAR UUOO 081030Z 15002MPS 100V190 9999 SCT033 29/14 Q1014 NOSIG RMK
13090070=
METAR UWGG 081030Z 15002MPS 020V290 8000 FEW033 33/09 Q1016 NOSIG RMK
QFE755 18090070=
####018000085####
SAGR31 LGAT 081020 RRB
METAR LGLM 081020Z 06013KT 9999 FEW008 BKN020 21/17 Q1013=
####018000098####
SPAU31 YBBN 081038
SPECI YBCS 081030Z 18008KT 9999 FEW024 BKN045 23/19 Q1016
RMK FU
NOSIG=
####018000080####
SPAK32 KWBC 081039
SPECI
PALU SP 1035 AWOS CLR BLO 120 10 54/35/2211/010=
####018000090####
SPAK32 KWBC 081039
SPECI
PASV SP 1035 AWOS 37 SCT 47 SCT M60 OVC 10 48/46/0000/996=
####018000142####
SAAK32 KWBC 081000 RRB
METAR
PADK 081036Z 05013KT 8SM SCT023 OVC031 07/06 A2955=
PADL 081036Z 32006KT 10SM BKN065 OVC070 11/08 A2998=
####018000080####
SPAK32 KWBC 081039
SPECI
PATL SP 1035 AWOS CLR BLO 120 10 59/44/0205/999=
####018000085####
SPCN31 KWBC 081039
SPECI
CYBG 081036Z 05008KT 3SM BR BKN080 RMK AC6 AC FLOCUS=
####018000291####
SPJP43 KWBC 081039
SPECI
RJOH 081030Z 04006KT 6000 TS FEW010 SCT015 FEW025CB BKN035 25/21
Q1009 RMK 1CU010 4CU015 2CB025 7SC035 A2981 FBL TS 20KM S MOV NE
FCST AMD 1016 TEMPO 1012 3000 TSRA SCT010CU BKN015CU BKN025CB
BECMG 1212 6000 -SHRA FEW010CU SCT015CU BKN025CU/ TS AFT 12Z=
####018000116####
SPNT31 KWBC 081039
SPECI
BGTL 081036Z AUTO 00000KT 4000 BR OVC002 04/04 A2984 RMK AO2 VIS
2400V8000 SLP109=
####018000116####
SPNT31 KWBC 081039
SPECI
BGTL 081034Z AUTO 00000KT 3200 BR OVC002 04/04 A2984 RMK AO2 VIS
1600V8000 SLP109=
####018000128####
SPXX62 KWBC 081039
SPECI
RKSG 081033Z 00000KT 8000 -DZ FEW029 SCT060 BKN080 25/25 A2978 RMK
AO2A DZE0959B1033 SLP087 $=
####018000140####
SPXX62 KWBC 081039
SPECI
RKJK 081034Z 09004KT 9000 -TSRA BR FEW031CB BKN050 24/22 A2978 RMK
AO2A RAE1019B1034DZB1019E1021 SLP085 $=
####018000119####
SPUS41 KWBC 081039
SPECI
KWRI 081036Z AUTO 15003KT 3/4SM R18/2800V4000FT R24/2000V2400FT BR
VV001 23/23 A3001=
####018000082####
SAUS41 KWBC 081000 RRF
METAR
KPQI 081035Z AUTO 15007KT 9SM CLR 21/18 A3000=
####018000149####
SAUS43 KWBC 081000 RRH
METAR
KCIU 081035Z AUTO 25005KT 8SM SCT008 BKN022 OVC070 19/18 A2996=
KELO 081033Z AUTO 20004KT 10SM CLR 13/13 A3002=
####018000083####
SAUS44 KWBC 081000 RRG
METAR
KGDV 081035Z AUTO 31003KT 10SM CLR 11/07 A3017=
####018000397####
SARA33 RUMS 081030
METAR UIAA 081030Z 36005MPS 9999 VCTS BKN043CB OVC100 24/10 Q1006
NOSIG RMK     QFE696 29CLRD70=
METAR UIBB 081030Z 06004MPS 9999 FEW033 BKN200 27/12 Q1005 NOSIG RMK
QFE711/0948 30CLRD60=
METAR UIII 081030Z 18002MPS CAVOK 20/12 Q1006 NOSIG RMK QFE712/0950
12CLRD60=
METAR UIUU 081030Z 00000MPS 9999 SCT033CB OVC100 22/13 Q1007 NOSIG
RMK QFE711/0948=
####018000738####
SARA36 RUMS 081030
METAR UWUU 081030Z 02005MPS 020V080 CAVOK 28/10 Q1015 82010060 NOSIG
RMK QFE750/1000=
METAR USCC 081030Z 34007G14MPS 9999 FEW040 FEW200 25/01 Q1014 NOSIG
RMK QFE740 27000070=
METAR USDD 081030Z 03008G11MPS CAVOK 17/M00 Q1016 NOSIG RMK
QFE756/1008 SC060=
METAR USMU 081030Z 03006MPS 9999 SCT026CB OVC066 15/11 Q1006 NOSIG
RMK QFE749 09250345=
METAR USNN 081030Z 16006MPS P6000 SCT026 BKN200 18/09 Q1003 NOSIG RMK
QFE747 SC065=
METAR USRK 081030Z 33004MPS 6000 BKN019 OVC066 14/10 Q1003 NOSIG RMK
QFE746 351///55=
METAR USRR 081030Z 35003G06MPS 7000 OVC010 12/10 Q1004 TEMPO BKN007
RMK QFE748 25////60=
METAR USSS 081030Z 33004G07MPS 280V360 CAVOK 25/03 Q1014 NOSIG RMK
QFE740 260///70=
####018000857####
SARS32 RUMS 081030
METAR URKA 081030Z 04005MPS 9999 SCT026 29/19 Q1012 NOSIG RMK  065=
METAR URKK 081030Z 07005G08MPS 9999 SCT030 BKN300 30/19 Q1012 NOSIG
RMK QFE756 SC070=
METAR URKM 081030Z NIL=
METAR URML 081030Z 03007MPS 9999 SKC 32/21 Q1013 NOSIG RMK QFE759 /
07=
METAR URMM 081030Z 10005G07MPS 9999 BKN043 30/18 Q1013 NOSIG RMK /
SC070=
METAR URMN 081030Z 10003MPS 9999 BKN033CB BKN110 28/19 Q1014 NOSIG
RMK / QFE723 SC07=
METAR URMT 081030Z 05005G08MPS 9999 BKN020 OVC100 27/17 Q1015 NOSIG
RMK QFE721 SC07=
METAR URRR 081030Z NIL=
METAR URSS 081030Z 28003MPS 9999 FEW040 28/20 Q1010 NOSIG RMK /
QFE756 06CLRD70=
METAR URWA 081030Z 34003MPS CAVOK 37/12 Q1011 NOSIG RMK SC07=
METAR URWI 081030Z 07002MPS CAVOK 30/16 Q1013 NOSIG RMK SC065=
METAR URWW 081030Z 36004MPS CAVOK 30/15 Q1014 NOSIG RMK SC070=
####018000462####
SARS33 RUMS 081030
METAR ULLI 081030Z 15002MPS 110V200 9999 SCT040 BKN200 31/16 Q1013
NOSIG=
METAR UUDD 081030Z 14005MPS 110V180 9999 SCT043 BKN200 28/16 Q1015 WS
RWY14R NOSIG=
METAR UUEE 081030Z 13005MPS 9999 SCT050TCU BKN200 29/14 Q1015 WS
RWY07L NOSIG=
METAR UUEM 081030Z NIL=
METAR UUWW 081030Z 14002MPS 110V180 9999 SCT040 BKN100 26/17 Q1015
06000070 NOSIG=
METAR UUMO 081030Z VRB02MPS CAVOK 26/16 Q1015 NOSIG RMK QFE747/0995
SC060=
####018000865####
SARS35 RUMS 081030
METAR USPP 081030Z 31003G06MPS 220V360 CAVOK 28/09 Q1016 NOSIG RMK
QFE751/1001 21090060=
METAR UWKD 081030Z 23002MPS 9999 SCT033CB BKN070 30/11 Q1015 TEMPO
VRB15MPS 3000 TSRA RMK QFE752/1002 112/0350=
METAR UWKE 081030Z 04003MPS 9999 FEW040 31/10 Q1016 NOSIG RMK
QFE745/0993 22090070=
METAR UWKS 081030Z 34002MPS 9999 BKN033CB 31/13 Q1016 NOSIG RMK
QFE748 SC0.60=
METAR UWLL 081030Z 06004MPS 9999 SCT050TCU 31/10 Q1015 NOSIG RMK
QFE749/0999 SC065=
METAR UWLW 081030Z NIL=
METAR UWOR 081030Z NIL=
METAR UWOO 081030Z NIL=
METAR UWPP 081030Z 13004MPS 9999 SCT033 BKN100 31/10 Q1014 NOSIG RMK
QFE746 11090060=
METAR UWSS 081030Z 07006MPS 9999 FEW050TCU BKN066 31/11 Q1014 NOSIG
RMK QFE749 120///60=
METAR UWWW 081030Z 02006G11MPS 010V070 9999 FEW033 SCT200 31/09 Q1015
NOSIG RMK QFE748/0998 05CLRD60 15//99//=
####018000480####
SARA32 RUMS 081030
METAR UHHH 081030Z 02004MPS 9999 SCT032CB OVC100 17/14 Q1010 NOSIG
RMK QFE751/1002 55090060=
METAR UHMA 081030Z NIL=
METAR UHMM 081030Z NIL=
METAR UHMP 081030Z NIL=
METAR UHNN 081030Z NIL=
METAR UHPP 081030Z NIL=
METAR UHSH 081030Z NIL=
METAR UHSS 081030Z 14001MPS 9999 BKN016 13/12 Q1011 NOSIG RMK MT OBSC
QFE757/1009 19CLRD70=
METAR UHWW 081030Z 19003MPS 160V220 9999 SCT013 BKN023 OVC090 17/14
Q1010 NOSIG RMK QFE757/1009 75CLRD70=
####018000280####
SARA35 RUMS 081030
METAR ULDD 081030Z NIL=
METAR UOHH 081030Z NIL=
METAR UOII 081030Z 16002MPS 9999 SCT033CB BKN040 26/17 Q1006 TEMPO
-TSRA RMK QFE752 30////60=
METAR UOOO 081030Z NIL=
METAR USCM 081030Z VRB02MPS 9999 FEW050 26/01 Q1015 NOSIG 01090065
RMK QFE723=
####018000499####
SARA31 RUMS 081030
METAR UEEE 081030Z 11002MPS 9999 BKN050CB BKN100 22/13 Q1007 NOSIG
RMK QFE747 2309//60=
METAR UELL 081030Z VRB01MPS 9999 -SHRA VCFG BKN026CB OVC200 13/12
Q1012 TEMPO SCT006 RMK QFE684 08CLRD70=
METAR UERP 081030Z 36005MPS 9999 SCT033CB BKN100 16/06 Q1014 NOSIG
RMK QFE717 35090065=
METAR UERR 081030Z 34003MPS 9999 BKN020CB OVC200 15/14 Q1012 NOSIG
RMK QFE727 24290255=
METAR UESO 081030Z NIL=
METAR UEST 081030Z 10002MPS CAVOK 06/03 Q1017 NOSIG RMK QFE762=
####018000855####
SARA34 RUMS 081030
METAR UNAA 081030Z 05002MPS 9999 SCT030CB BKN100 19/12 Q1011 RMK
QFE736 202///55=
METAR UNBB 081030Z 23007MPS 9999 -SHRA BKN027CB 19/06 Q1009 NOSIG RMK
QFE735=
METAR UNEE 081030Z 21005MPS 9999 SCT026 BKN200 19/11 Q1008 NOSIG RMK
QFE734 23CLRD60=
METAR UNKL 081030Z VRB02MPS 9999 SCT023CB OVC083 17/13 Q1009 NOSIG
RMK QFE731 29////55=
METAR UNNT 081030Z 22005MPS 190V250 9999 BKN060CB BKN100 21/02 Q1007
NOSIG RMK QFE745/0993 25090070=
METAR UNOO 081030Z 33004MPS 9999 BKN023CB 13/10 Q1008 NOSIG 25CLRD06
RMK QFE748=
METAR UNWW 081030Z 24006G11MPS 9999 VCTS -SHRA BKN026CB OVC100 17/10
Q1010 NOSIG RMK QFE731 1929//60=
METAR USTR 081030Z 33007G10MPS 9999 SCT046 19/04 Q1012 NOSIG RMK
QFE749/0999 30CLRD65=
METAR USHH 081030Z VRB02G07MPS 7000 -SHRA SCT017CB OVC080 11/09 Q1009
NOSIG RMK QFE753 SC06=
####018000271####
SARS34 RUMS 081030
METAR UUYH 081030Z 00000MPS CAVOK 26/08 Q1017 NOSIG RMK QFE 751
18CLRD60=
METAR UUYS 081030Z 16003MPS CAVOK 21/06 Q1016 NOSIG RMK QFE755
14CLRD60=
METAR UUYY 081030Z VRB02MPS 9999 FEW030 BKN200 30/14 Q1016 NOSIG
01CLRD61 RMK QFE753/1004=
####018000705####
SARS31 RUMS 081030
METAR ULAA 081030Z 32003MPS 270V010 9999 FEW030CB 27/17 Q1015 TEMPO
TSRA RMK QFE760/1013 SC070=
METAR ULKK 081030Z NIL=
METAR ULMM 081030Z 01001MPS 9999 BKN020 15/08 Q1018 NOSIG RMK QFE756
32190060=
METAR ULOL 081030Z NIL=
METAR ULOO 081030Z VRB02MPS P6000 SCT035 BKN200 28/18 Q1012 NOSIG RMK
QFE755=
METAR ULWW 081030Z NIL=
METAR UMKK 081030Z 30006MPS P8000 FEW030 BKN200 22/13 Q1020 NOSIG RMK
QFE 764 SC07=
METAR UUBP 081030Z NIL=
METAR UUOB 081030Z NIL=
METAR UUOK 081030Z NIL=
METAR UUOO 081030Z 15002MPS 100V190 9999 SCT033 29/14 Q1014 NOSIG RMK
13090070=
METAR UWGG 081030Z 15002MPS 020V290 8000 FEW033 33/09 Q1016 NOSIG RMK
QFE755 18090070=
####018000076####
SPUS52 KWBC 081039
SPECI
KPWA 081036Z 01005KT 7SM BKN004 23/21 A3005=
####018000082####
SAUS52 KWBC 081000 RRE
METAR
KWRB 080955Z COR 34003KT 10SM CLR 20/20 A3001=
####018000234####
SAUS53 KWBC 081000 RRJ
METAR
KDVL 081035Z AUTO 26006KT 10SM CLR 14/12 A3007=
KEAR 081035Z AUTO 00000KT 10SM CLR 15/13 A3025=
KGPZ 081035Z AUTO 24004KT 10SM CLR 15/13 A3005=
KJAC 081035Z AUTO 00000KT 10SM CLR 08/M01 A3036=
####018000113####
SPCN44 CWAO 081037
SPECI CYEK 081037Z AUTO 09003KT 1SM OVC001 OVC047 07/07 A2959 RMK
VSBY VRBL 0.3V9.+=

####018000845####
SARS32 RUMS 081030
METAR URKA 081030Z 04005MPS 9999 SCT026 29/19 Q1012 NOSIG RMK  065=
METAR URKK 081030Z 07005G08MPS 9999 SCT030 BKN300 30/19 Q1012 NOSIG
RMK QFE756 SC070=
METAR URKM 081030Z NIL=
METAR URML 081030Z 03007MPS 9999 SKC 32/21 Q1013 NOSIG RMK QFE759 /
07=
METAR URMM 081030Z 10005G07MPS 9999 BKN043 30/18 Q1013 NOSIG RMK /
SC070=
METAR URMN 081030Z 10003MPS 9999 BKN033CB BKN110 28/19 Q1014 NOSIG
RMK / QFE723 SC07=
METAR URMT 081030Z 05005G08MPS 9999 BKN020 OVC100 27/17 Q1015 NOSIG
RMK QFE721 SC07=
METAR URRR 081030Z NIL=
METAR URSS 081030Z 28003MPS 9999 FEW040 28/20 Q1010 NOSIG RMK /
QFE756 06CLRD70=
METAR URWA 081030Z 34003MPS CAVOK 37/12 Q1011 NOSIG RMK SC07=
METAR URWI 081030Z 07002MPS CAVOK 30/16 Q1013 NOSIG RMK SC065=
METAR URWW 081030Z 36004MPS CAVOK 30/15 Q1014 NOSIG RMK SC070=
####018000387####
SARA33 RUMS 081030
METAR UIAA 081030Z 36005MPS 9999 VCTS BKN043CB OVC100 24/10 Q1006
NOSIG RMK     QFE696 29CLRD70=
METAR UIBB 081030Z 06004MPS 9999 FEW033 BKN200 27/12 Q1005 NOSIG RMK
QFE711/0948 30CLRD60=
METAR UIII 081030Z 18002MPS CAVOK 20/12 Q1006 NOSIG RMK QFE712/0950
12CLRD60=
METAR UIUU 081030Z 00000MPS 9999 SCT033CB OVC100 22/13 Q1007 NOSIG
RMK QFE711/0948=
####018000521####
SAGR32 LGAT 081020
METAR LGAL 081020Z 04008KT 9999 FEW008 FEW020TCU BKN025 19/17 Q1015=
METAR LGEL 081020Z 36012G22KT 9999 FEW025 27/13 Q1012=
METAR LGKV 081020Z 17007KT 9999 SCT020TCU 22/17 Q1013=
METAR LGMT 081020Z 36011KT 9999 FEW025 SCT100 24/17 Q1011=
METAR LGPZ 081020Z 27015KT 9999 FEW025 28/19 Q1013 NOSIG=
METAR LGRX 081020Z 28011KT 9999 FEW025 27/18 Q1012 NOSIG=
METAR LGSK 081020Z NIL=
METAR LGSR 081020Z 35018KT 9999 FEW020 28/19 Q1010 NOSIG=
METAR LGZA 081020Z 33014KT CAVOK 30/07 Q1013=
####018000550####
SAGR31 LGAT 081020
METAR LGAD 081020Z 31012KT 9999 FEW020 27/17 Q1014=
METAR LGAV 081020Z 02019KT 9999 FEW020 BKN030 26/12 Q1013 NOSIG=
METAR LGIR 081020Z 01006KT 9999 FEW020 29/23 Q1011 NOSIG=
METAR LGKL 081020Z NIL=
METAR LGKO 081020Z 31014KT CAVOK 29/17 Q1010=
METAR LGKR 081020Z 31015KT CAVOK 28/13 Q1013 NOSIG=
METAR LGLM 081020Z NIL=
METAR LGRP 081020Z 24015KT CAVOK 30/19 Q1008 NOSIG=
METAR LGSA 081020Z 30010KT 9999 FEW020 33/15 Q1011=
METAR LGSM 081020Z NIL=
METAR LGTS 081020Z 34022KT 9999 SCT025 23/11 Q1016 NOSIG=
####018000483####
SAUS20 KNKA 081038
SPECI KELD 081038Z AUTO 00000KT 2 1/2SM BR FEW001 BKN080 23/23 A3005 
    RMK AO2=
SPECI KHTS 081037Z AUTO 00000KT 3/4SM BR CLR 21/20 A3009 RMK AO2 
    TSNO=
SPECI KMAI 081036Z AUTO 00000KT 1 1/2SM BR BKN001 23/22 A3002 RMK 
    AO2=
SPECI KORH 081037Z 16004KT 3SM BR OVC002 22/22 A3011 RMK AO2=
SPECI KPYM 081037Z AUTO 15004KT 10SM BKN008 BKN080 23/21 A3010 RMK 
    AO2=
SPECI KUCP 081038Z AUTO 00000KT 3/4SM BR CLR 18/18 A3011 RMK AO2 $=
####018000566####
SAAO32 GOOY 081030
METAR GABS 081030Z 23007KT 210V270 9999 FEW030 30/22 Q1016 NOSIG=
METAR GGOV 081030Z NIL=
METAR GOOY 081030Z 18007KT 140V220 9999 SCT013 SCT230 30/25 Q1012
NOSIG=
METAR DIAP 081030Z 21007KT 180V240 7000 R21//////N SCT012 BKN080
28/24 Q1015 TEMPO BKN012 BKN070=
METAR GQNN 081030Z 18008KT 150V210 6000 SCT020 30/23 Q1013 NOSIG=
METAR GQPP 081030Z NIL=
METAR GUCY 081030Z NIL=
METAR GVAC 081030Z NIL=
METAR GFLL 081030Z NIL=
METAR GBYD 081030Z NIL=
METAR GLRB 081030Z 20003KT 9999 BKN018 FEW026CB 29/26 Q1015 CB-S/SW=

####018000114####
SPCN51 CWAO 081038
SPECI CZCP 081038Z AUTO 26018G23KT 1 3/8SM -RA BKN002 OVC010 OVC016
OVC021 06/ A2984=

####018000091####
SPUS73 KWBC 081039
SPECI
KLAR 081036Z AUTO 00000KT 2SM BR FEW002 SCT007 06/06 A3039=
####018000425####
SAUK KAWN 081000 RRI
METAR COR EGSH 081020Z 24008KT 210V280 9999 SCT012 SCT019 21/16 Q1018
      NOSIG=
METAR EICK 081030Z 21010KT 9999 -RA BKN012 BKN060 15/13 Q1016 NOSIG=
METAR EIDW 081030Z 22013KT 9999 FEW026 SCT050 BKN130 17/10 Q1015 NOSIG=
METAR EIKN 081030Z 22013KT 180V270 9999 -SHRA FEW015 BKN045 BKN120
      14/10 Q1013 NOSIG=
METAR EINN 081030Z 19009KT 9999 FEW016 SCT050 BKN070 16/12 Q1015 NOSIG=
####018000702####
SAXN17 KAWN 081000 RRI
METAR MMTG 081015Z RTD 00000KT 3SM BCFG SCT004 BKN070 OVC300 23/23
      A2991 RMK 60321 8/672 BCFG ARND VRBL COND RTS=
METAR RJAA 081030Z 17003KT 9999 FEW020 BKN/// 24/21 Q1010 NOSIG RMK
      1CU020 A2985=
METAR RJCC 081030Z 17005KT 140V290 3100 -DZ BR BKN002 18/17 Q1010 RMK
      7ST002 A2984=
METAR RJFF 081030Z 28004KT 5000 BR FEW025 SCT030 BKN/// 25/21 Q1009
      RMK 1CU025 3CU030 A2979=
METAR RJTT 081030Z 18013KT 9999 FEW016 BKN/// 25/22 Q1010 RMK 1CU016
      A2982=
METAR ROAH 081030Z 19012KT 9999 FEW010 SCT080 BKN120 29/26 Q1009 RMK
      1CU010 3AC080 6AC120 A2982=
METAR ZGGG 081030Z 14005MPS 9999 FEW050TCU SCT050 34/26 Q1004 NOSIG=
####018000111####
SAXX60 KAWN 081000 RRD
METAR RJTT 081030Z 18013KT 9999 FEW016 BKN/// 25/22 Q1010 RMK 1CU016
      A2982=
####018000357####
SAUS73 KWBC 081000 RRH
METAR
KBJC 081037Z AUTO 34007KT 10SM CLR 12/11 A3033=
KCIU 081035Z AUTO 25005KT 8SM SCT008 BKN022 OVC070 19/18 A2996=
KEGE 081035Z 25004KT 10SM CLR 10/08 A3036=
KELO 081033Z AUTO 20004KT 10SM CLR 13/13 A3002=
KJAC 081035Z AUTO 00000KT 10SM CLR 08/M01 A3036=
KLBL 081035Z 05006KT 10SM FEW033 SCT049 BKN060 19/17 A3022=
####018000081####
SAUS74 KWBC 081000 RRE
METAR
KOTH 081035Z 28004KT 10SM OVC008 10/08 A3000=
####018000186####
SAUS75 KWBC 081000 RRB
METAR
PADL 081036Z 32006KT 10SM BKN065 OVC070 11/08 A2998=
PAUN 081036Z AUTO 11006KT 10SM CLR 12/04 A3002=
PAVD 081036Z 00000KT 10SM OVC080 11/08 A3008=
####018000563####
SAAO32 GOOY 081030
METAR GABS 081030Z 23007KT 210V270 9999 FEW030 30/22 Q1016 NOSIG=
METAR GGOV 081030Z NIL=
METAR GOOY 081030Z 18007KT 140V220 9999 SCT013 SCT230 30/25 Q1012
NOSIG=
METAR DIAP 081030Z 21007KT 180V240 7000 R21//////N SCT012 BKN080
28/24 Q1015 TEMPO BKN012 BKN070=
METAR GQNN 081030Z 18008KT 150V210 6000 SCT020 30/23 Q1013 NOSIG=
METAR GQPP 081030Z NIL=
METAR GUCY 081030Z NIL=
METAR GVAC 081030Z NIL=
METAR GFLL 081030Z NIL=
METAR GBYD 081030Z NIL=
METAR GLRB 081030Z 20003KT 9999 BKN018 FEW026CB 29/26 Q1015 CB-S/SW=
####018001825####
SAEU KAWN 081000 RRX
METAR LELO 081030Z 08011KT 020V120 CAVOK 30/18 Q1018=
METAR LGSM 081020Z 35011KT CAVOK 31/14 Q1010=
METAR LJLJ 081030Z 13004KT 070V210 9999 FEW040 23/12 Q1023 NOSIG=
METAR LJMB 081030Z VRB03KT 9999 FEW040 24/09 Q1023=
METAR LJPZ 081030Z 30007KT CAVOK 24/12 Q1022=
METAR LKKV 081030Z VRB02KT CAVOK 22/09 Q1024 RMK REG QNH 1021=
METAR LKMT 081030Z 06005KT 340V120 CAVOK 21/10 Q1023 NOSIG RMK REG
      QNH 1021=
METAR LKPR 081030Z 28005KT 210V360 CAVOK 23/10 Q1024 NOSIG RMK REG
      QNH 1021=
METAR LKTB 081030Z VRB05KT CAVOK 23/08 Q1023 NOSIG RMK REG QNH 1021=
METAR LPAZ 081030Z 24004KT 9999 BKN016 BKN030 20/19 Q1025=
METAR LPFL 081030Z 21007G17KT 180V250 9999 FEW023 SCT045 23/17 Q1022=
METAR LPFR 081030Z 25008KT 210V290 9999 SCT011 BKN012 24/20 Q1016=
METAR LPHR 081030Z 24007KT 9999 FEW014 SCT035 22/18 Q1023=
METAR LPPD 081030Z VRB02KT 9999 FEW017 BKN030 20/16 Q1024=
METAR LPPR 081030Z 22010KT 5000 BR FEW003 SCT006 BKN250 22/18 Q1014=
METAR LPPS 081030Z 01011KT 340V040 9999 FEW016 22/15 Q1020=
METAR LPPT 081030Z 24006KT 200V270 CAVOK 27/19 Q1015 NOSIG=
METAR LRAR 081030Z 01008KT 330V070 9999 SCT033 22/15 Q1020=
METAR LRBC 081030Z 35016KT 9999 BKN027 23/16 Q1017=
METAR LRBM 081030Z 24004KT 200V270 9999 SCT010 18/17 Q1019=
METAR LRCL 081030Z 29008KT 270V330 9999 FEW015 BKN026 17/13 Q1021 0821//95=
METAR LRCV 081030Z VRB04KT 9999 FEW031 23/14 Q1017=
METAR LRIA 081030Z 30010KT 260V340 9999 FEW020 SCT033 23/18 Q1017=
METAR LROD 081030Z 02008KT 330V050 9999 SCT045 23/13 Q1021=
METAR LRSM 081030Z 06006KT 020V080 9999 SCT040 22/13 Q1020=
METAR LRSV 081030Z 33013KT 9999 SCT010 BKN026 17/14 Q1019=
METAR LRTC 081030Z 35010KT 9999 FEW030CB BKN040 23/17 Q1014=
METAR LRTM 081030Z 24006KT 9999 -RA FEW013 SCT026 BKN030 16/14 Q1020=
####018000102####
SAUS90 KWBC 081100
METAR KSYN 081050Z AUTO 00000KT 10SM CLR 17/16 A3008 RMK AO2
     T01700159=
####018000133####
SPUS90 KWBC 081040
SPECI KGDP 081038Z AUTO 06019KT 3/4SM BR SCT005 BKN011 OVC016
     16/16 A3022 RMK AO2 RAB01E33 P0000 TSNO=
####018003737####
SAUS90 KWBC 081040
METAR KPQN 081033Z AUTO 32007KT 10SM CLR 17/14 A3017 RMK AO2=
METAR KFGN 081034Z AUTO 26010KT 1/4SM -DZ VV002 16/13 A2997 RMK
     AO2=
METAR KPNM 081033Z AUTO 00000KT 3SM BR CLR 13/12 A3009 RMK AO2=
METAR KPWC 081033Z AUTO 00000KT 1SM BR VV007 09/09 A3008 RMK
     AO2=
METAR KFFM 081033Z AUTO 22003KT 10SM CLR 14/14 A3009 RMK AO2=
METAR KGDB 081032Z AUTO 25006KT 10SM CLR 13/13 A3014 RMK AO2
     T01340130=
METAR KAIT 081033Z AUTO 00000KT 1/2SM FG BKN001 12/11 A3006 RMK
     AO2=
METAR KGHW 081033Z AUTO 25005KT 10SM CLR 14/13 A3014 RMK AO2=
METAR KMWM 081033Z AUTO 25003KT 7SM CLR 14/13 A3014 RMK AO2=
METAR KULM 081035Z AUTO 26004KT 10SM CLR 14/13 A3013 RMK AO2=
METAR KBBB 081033Z AUTO 00000KT 10SM CLR 14/14 A3011 RMK AO2=
METAR KTWM 081033Z AUTO 30005KT 10SM CLR 16/13 A3002 RMK AO2=
METAR KMGG 081035Z AUTO 28005KT 10SM CLR 16/15 A3010 RMK AO2
     T01600148=
METAR KMOX 081030Z AUTO 26004KT 10SM CLR 15/14 A3008 RMK AO2=
METAR KTEW 081033Z AUTO 00000KT 5SM BR CLR 21/19 A3005 RMK AO2=
METAR KCVH 081030Z AUTO 00000KT 10SM OVC008 13/11 A2992 RMK
     AO1=
METAR KDYT 081034Z AUTO 19006KT 10SM CLR 17/15 A3004 RMK AO2=
METAR KFSO 081038Z AUTO 00000KT 5SM BR SCT065 SCT075 23/22 A3001
     RMK AO2=
METAR KFBL 081034Z AUTO 00000KT 10SM CLR 17/15 A3010 RMK AO2=
METAR KLYV 081038Z AUTO 00000KT 10SM CLR 13/12 A3017 RMK AO2=
METAR KEFK 081036Z AUTO 21005KT 3SM BR CLR 20/19 A3006 RMK AO2=
METAR KRRT 081034Z AUTO 23006KT 10SM CLR 13/11 A3001 RMK AO2=
METAR KTOB 081034Z AUTO 00000KT 10SM CLR 17/16 A3010 RMK AO2=
METAR KLXL 081034Z AUTO 00000KT 3SM BR 12/12 A3008 RMK AO2 SKY
     OBSCURED=
METAR KEVM 081032Z AUTO 27003KT 4SM BR CLR 13/12 A3002 RMK AO1=
METAR KELO 081033Z AUTO 20004KT 10SM CLR 13/13 A3002 RMK AO2=
METAR KANE 081035Z AUTO 00000KT 10SM 17/16 A3009 RMK AO2=
METAR KROX 081034Z AUTO 23005KT 10SM CLR 14/12 A3001 RMK AO2=
METAR KVVV 081036Z AUTO 29004KT 10SM CLR 17/14 A3011 RMK AO2=
METAR KROS 081035Z AUTO 29003KT 10SM CLR 15/14 A3008 RMK AO2
     T01470140=
METAR KHCD 081032Z AUTO 27004KT 4SM BR CLR 13/12 A3011 RMK AO2
     T01250115=
METAR KSGS 081033Z AUTO 00000KT 10SM CLR 18/16 A3008 RMK AO2
     T01790160=
METAR KMJQ 081032Z AUTO 29003KT 5SM BR CLR 14/13 A3015 RMK AO2=
METAR KHCO 081034Z AUTO 16003KT 10SM CLR 12/12 A3005 RMK AO2=
METAR KLVN 081028Z AUTO 28004KT 10SM CLR 16/16 A3009 RMK AO2=
METAR KPEX 081033Z AUTO 26004KT 7SM CLR 12/12 A3011 RMK AO2
     T01190116=
METAR KJMR 081038Z AUTO 00000KT 10SM CLR 15/13 A3010 RMK AO2=
METAR KJKJ 081034Z AUTO 26003KT 10SM CLR 16/14 A3007 RMK AO2=
METAR KMVE 081034Z AUTO 29003KT 10SM CLR 16/14 A3011 RMK AO2=
METAR KTKC 081033Z AUTO 27004KT 10SM CLR 16/13 A3014 RMK AO2
     T01550127=
METAR KGYL 081035Z AUTO 00000KT 10SM CLR 15/14 A3010 RMK AO2
     T01490141=
METAR KDXX 081034Z AUTO 00000KT 10SM CLR 14/14 A3011 RMK AO2=
METAR KHZX 081031Z AUTO 00000KT 10SM CLR 13/13 A3007 RMK AO2=
METAR KSAZ 081034Z AUTO 23004KT 10SM CLR 15/15 A3009 RMK AO2=
METAR KONA 081031Z AUTO 32005KT 10SM CLR 20/18 A3004 RMK AO2=
METAR KOVL 081034Z AUTO 00000KT 7SM CLR 13/12 A3012 RMK AO2
     T01280115=
METAR KLJF 081032Z AUTO 28004KT 10SM CLR 17/16 A3012 RMK AO2=
METAR KAEL 081031Z AUTO 00000KT 7SM CLR 17/17 A3010 RMK AO2=
METAR K29G 081034Z AUTO 00000KT 4SM CLR 19/18 A3010 RMK AO2
     T01930184 PWINO=
METAR KMRT 081033Z AUTO 00000KT 2 1/2SM CLR 20/19 A3012 RMK AO2
     T02020188=
METAR KIKW 081033Z AUTO 23004KT 10SM RA BKN050 BKN070 OVC090 23/21
     A3002 RMK AO2 T02320211=
METAR KMDS 081025Z AUTO 31005KT 10SM CLR 14/14 A3017 RMK AO2=
METAR KFPK 081036Z AUTO 29003KT 5SM BR CLR 22/20 A3004 RMK AO2=
####018002710####
SAUS90 KWBC 081040 RRA
METAR KMOP 081035Z AUTO 18004KT 10SM BKN085 BKN100 OVC120 23/22
     A3002 RMK AO2=
METAR KCAD 081034Z AUTO 22006KT 10SM BKN075 OVC100 22/20 A3003 RMK
     AO2=
METAR KMGN 081035Z AUTO 28003KT 7SM SCT120 22/20 A2996 RMK AO2=
METAR KHAI 081035Z AUTO 00000KT 4SM BR CLR 21/20 A3005 RMK AO2=
METAR KLWA 081036Z AUTO 00000KT 5SM BR CLR 22/21 A3004 RMK AO2=
METAR KDRM 081036Z AUTO 16004KT 1 1/4SM BR OVC002 20/20 A2996 RMK
     AO2=
METAR KVLL 081034Z AUTO 24003KT 10SM CLR 25/21 A3006 RMK AO2=
METAR KCFS 081035Z AUTO 00000KT 4SM BR CLR 20/20 A3002 RMK AO2=
METAR KOZW 081035Z AUTO 24004KT 7SM CLR 23/20 A3005 RMK AO2=
METAR KRNP 081035Z AUTO 29004KT 7SM CLR 23/21 A3004 RMK AO2=
METAR KDUH 081035Z AUTO 00000KT 7SM SCT080 22/18 A3005 RMK AO2=
METAR KJYM 081035Z AUTO 00000KT 4SM BR CLR 20/19 A3007 RMK AO2=
METAR KBAX 081035Z AUTO 00000KT 3SM BR CLR 21/20 A3001 RMK AO2=
METAR KIRS 081035Z AUTO 32013G16KT 4SM BR SCT060 21/19 A3005 RMK
     AO2=
METAR KACB 081035Z AUTO 00000KT 10SM -RA OVC100 23/21 A2997 RMK
     AO2=
METAR KRQB 081035Z AUTO 22003KT 10SM -RA SCT023 OVC100 22/21 A3004
     RMK AO2=
METAR KOEB 081035Z AUTO 00000KT 4SM BR CLR 21/19 A3006 RMK AO2=
METAR K4I3 081036Z AUTO 00000KT 5SM BR SCT060 19/18 A3010 RMK
     AO2=
METAR KAUM 081035Z AUTO 00000KT 7SM CLR 17/16 A3009 RMK AO2=
METAR KFFX 081035Z AUTO 20003KT 3SM -RA BKN065 OVC075 22/22 A3002
     RMK AO2=
METAR KCNB 081037Z AUTO 25006KT 10SM CLR 16/13 A3014 RMK AO2
     T01640131=
METAR KCKN 081035Z AUTO 21004KT 10SM CLR 13/11 A3005 RMK AO2=
METAR KCFE 081035Z AUTO 00000KT 10SM CLR 17/16 A3011 RMK AO2
     T01720155=
METAR KCQM 081037Z AUTO 00000KT 10SM CLR 14/13 A3003 RMK AO2=
METAR KDTL 081035Z AUTO 00000KT 10SM CLR 15/11 A3010 RMK AO2=
METAR KBDH 081035Z AUTO 27003KT 7SM CLR 14/14 A3013 RMK AO2=
METAR KCBG 081035Z AUTO 00000KT 10SM CLR 16/14 A3008 RMK AO2=
METAR KADC 081037Z AUTO 23005KT 10SM CLR 13/12 A3009 RMK AO2=
METAR KHAF 081030Z AUTO 00000KT 10SM OVC006 12/10 A2993 RMK
     AO2=
METAR KCKC 081035Z AUTO 29006KT 10SM CLR 15/13 A3004 RMK AO2=
METAR KJYG 081035Z AUTO 00000KT 10SM CLR 16/16 A3014 RMK AO2=
METAR KCOQ 081036Z AUTO 28005KT 10SM CLR 14/14 A3006 RMK AO2=
METAR KACQ 081039Z AUTO 27004KT 1/4SM FG VV002 15/15 A3012 RMK
     AO2=
METAR KRGK 081035Z AUTO 00000KT 10SM CLR 18/17 A3006 RMK AO2=
METAR KFSE 081034Z AUTO 20003KT 10SM CLR 11/11 A3006 RMK AO2=
METAR KY70 081035Z AUTO 00000KT 2SM BR BKN065 OVC120 23/22 A3003
     RMK AO2 T02250216=
METAR KUKT 081030Z AUTO 00000KT 3SM CLR 21/20 A3005 RMK AO1=
METAR KFKA 081043Z AUTO 32006KT 10SM CLR 18/18 A3008 RMK AO2
     T01830176=
####018002978####
SAUS20 KNKA 081039
METAR K14Y 081038Z AUTO 20005KT 7SM CLR 15/14 A3010 RMK AO2 
     T01480144=
METAR K4M9 081035Z AUTO 21004KT 7SM CLR 24/24 A3005 RMK AO2 =
METAR KAEJ 081035Z AUTO 00000KT 10SM SCT090 BKN110 09/08 A3047 RMK 
     AO2=
METAR KBBF 081135Z AUTO 13021KT 9SM FEW024 SCT035 BKN044 29/26
     A2980 RMK A01=
METAR KBQX 081035Z AUTO 12022G28KT 5SM HZ SCT024 BKN039 OVC065
     28/25 A2983 RMK A01=
METAR KDCM 081035Z AUTO 00000KT 7SM CLR 21/21 A3002 RMK AO2=
METAR KDLP 081035Z AUTO 10011KT 10SM BKN016 BKN020 28/25 A2999 RMK
     A01=
METAR KEDU 081035Z AUTO 16005KT 10SM CLR 14/10 A2982 RMK AO1=
METAR KEFT 081035Z AUTO 25006KT 10SM SCT120 21/19 A3004 RMK AO2 
     T02050190=
METAR KEGV 081032Z AUTO 35006KT 10SM CLR 18/17 A3003 RMK AO2 
     T01770174=
METAR KEHC 081035Z AUTO 12021G27KT 7SM FEW025 FEW034 29/25 A2992
     RMK A01=
METAR KEIR 081035Z AUTO VRB06G14KT 070V190 10SM SCT014 28/25 A2996
     RMK A01=
METAR KEMK 081035Z AUTO 14017G25KT 8SM FEW055 SCT060 BKN090 28/25
     A2987 RMK A01=
METAR KETB 081032Z AUTO 00000KT 3SM BR SCT015 OVC120 21/21 A3001 
     RMK AO2 T02130205=
METAR KEZS 081035Z AUTO 00000KT 5SM BR OVC005 23/22 A2999 RMK AO2 
     T02250217=
SPECI KFIG 081038Z AUTO 00000KT 3SM BR CLR 18/17 A3012 RMK AO2=
METAR KGBK 081035Z AUTO 09015G22KT 10SM FEW019 29/25 A2990 RMK A01=
METAR KGLW 081033Z AUTO 00000KT 3SM BR CLR 20/19 A3008 RMK AO2 
     T01970188=
METAR KGVX 081035Z AUTO 12026KT 9SM M40/ A2989 RMK A01=
METAR KGYH 081035Z AUTO 00000KT 10SM CLR 23/19 A3004 RMK AO2=
METAR KHFJ 081035Z AUTO 00000KT 10SM BKN050 BKN080 OVC090 23/22 
     A3004 RMK AO1=
METAR KHQI 081035Z AUTO 10026KT 8SM FEW060 FEW065 SCT090 29/26
     A2988 RMK A01=
METAR KHXD 081035Z AUTO 24006KT 10SM CLR 23/21 A2999 RMK AO2 P0000 
     =
METAR KHYW 081035Z AUTO 00000KT 7SM SCT100 23/22 A2993 RMK AO2=
METAR KIPN 081035Z AUTO 09013KT 10SM FEW022 /56 A2999 RMK A01=
METAR KIWA 081037Z AUTO 00000KT 10SM CLR 31/02 A2980 RMK AO2=
METAR KJZI 081035Z AUTO 28006KT 10SM CLR 23/23 A2996 RMK A02 P000 
     =
SPECI KLIC 081038Z AUTO 15004KT 6SM BR SCT005 BKN120 13/13 A3033 RMK 
    AO2=
METAR KLNL 081035Z AUTO 34004KT 10SM SCT019 BKN027 17/15 A3005 
     RMK AO2 T01700150=
METAR KLUM 081035Z AUTO 29005KT 10SM CLR 18/17 A3006 RMK AO2=
METAR KMCJ 081035Z AUTO 05007KT 6SM FEW050 25/24 A2989 RMK AO1 =
METAR KMDJ 081035Z AUTO 12012KT 10SM SCT020 BKN070 29/24 A3000 RMK
     A01=
METAR KMDZ 081035Z AUTO 34003KT 3/4SM BR OVC002 19/18 A3004 RMK 
     AO2=
METAR KMHR 081035Z AUTO 17006KT 10SM CLR 13/10 A2985 RMK AO1=
METAR KMIU 081035Z AUTO 13016KT 10SM SCT034 BKN050 BKN060 28/25
     A2981 RMK A01=
METAR KMRJ 081035Z AUTO 27003KT 2SM BR OVC003 21/19 A3005 RMK AO2 
     T02100193=
METAR KMWC 081035Z AUTO 00000KT 5SM -RA BKN009 BKN017 OVC090 
     21/20 A3001 RMK AO2 P0001=
METAR KMYT 081035Z AUTO 14010KT 9SM FEW016 28/25 A2996 RMK A01=
####018001041####
SAUS20 KNKA 081039
METAR KMZG 081035Z AUTO 00000KT 8SM FEW018 SCT023 BKN044 29/25
     A2981 RMK A01=
METAR KOEO 081035Z AUTO 00000KT 10SM CLR 16/15 A3010 RMK AO2=
METAR KPBH 081035Z AUTO 31004KT 10SM CLR 19/18 A3005 RMK AO2=
METAR KPCZ 081035Z AUTO 25004KT 5SM BR BKN012 OVC016 22/21 A3000 
     RMK AO2 T02230210=
METAR KPDC 081033Z AUTO 30006KT 10SM CLR 22/21 A3003 RMK AO2 
     T02170205=
METAR KRCX 081035Z AUTO 32005KT 10SM CLR 18/16 A3006 RMK AO2 
     T01760161=
METAR KRNH 081036Z AUTO 29003KT 10SM CLR 17/16 A3008 RMK AO2 
     T01660160=
METAR KSCF 081040Z AUTO 14018KT 7SM FEW016 FEW022 29/26 A2990 RMK
     A01=
METAR KSPF 081035Z AUTO 00000KT 10SM CLR 11/08 A3028 RMK AO2 =
METAR KVBS 081035Z AUTO 12022G29KT 10SM SCT021 SCT026 SCT034 29/25
     A2992 RMK A01=
METAR KVNP 081035Z AUTO VRB06KT 8SM 28/25 A2996 RMK A01=
METAR KY63 081040Z AUTO 21003KT 10SM CLR 14/14 A3010 RMK AO2 
     T01430137=
SPECI PACM 081037Z AUTO 28007KT 10SM SCT028 OVC060 11/10 A3008 RMK 
    AO2 TSNO $=
####018000109####
SAAK41 KNKA 081039
SPECI PACM 081037Z AUTO 28007KT 10SM SCT028 OVC060 11/10 A3008 RMK 
    AO2 TSNO $=
####018000137####
SAUS44 KMAF 081039
MTRGDP
SPECI KGDP 081038Z AUTO 06019KT 3/4SM BR SCT005 BKN011 OVC016 16/16 
A3022 RMK AO2 RAB01E33 P0000 TSNO
####018000756####
SPUS99 KWBC 081040
SPECI
KELD 081038Z AUTO 00000KT 2 1/2SM BR FEW001 BKN080 23/23 A3005 RMK
     AO2=
KHTS 081037Z AUTO 00000KT 3/4SM BR CLR 21/20 A3009 RMK AO2
     TSNO=
KMAI 081036Z AUTO 00000KT 1 1/2SM BR BKN001 23/22 A3002 RMK
     AO2=
KORH 081037Z 16004KT 3SM BR OVC002 22/22 A3011 RMK AO2=
KPYM 081037Z AUTO 15004KT 10SM BKN008 BKN080 23/21 A3010 RMK
     AO2=
KUCP 081038Z AUTO 00000KT 3/4SM BR CLR 18/18 A3011 RMK AO2 $=
PACM 081037Z AUTO 28007KT 10SM SCT028 OVC060 11/10 A3008 RMK AO2
     TSNO $=
PACM 081037Z AUTO 28007KT 10SM SCT028 OVC060 11/10 A3008 RMK AO2
     TSNO $=
KFIG 081038Z AUTO 00000KT 3SM BR CLR 18/17 A3012 RMK AO2=
KLIC 081038Z AUTO 15004KT 6SM BR SCT005 BKN120 13/13 A3033 RMK
     AO2=
####018003439####
SAUS99 KWBC 081040
METAR
KMZG 081035Z AUTO 00000KT 8SM FEW018 SCT023 BKN044 29/25 A2981 RMK
     A01=
KOEO 081035Z AUTO 00000KT 10SM CLR 16/15 A3010 RMK AO2=
KPBH 081035Z AUTO 31004KT 10SM CLR 19/18 A3005 RMK AO2=
KPCZ 081035Z AUTO 25004KT 5SM BR BKN012 OVC016 22/21 A3000 RMK AO2
     T02230210=
KPDC 081033Z AUTO 30006KT 10SM CLR 22/21 A3003 RMK AO2
     T02170205=
KRCX 081035Z AUTO 32005KT 10SM CLR 18/16 A3006 RMK AO2
     T01760161=
KRNH 081036Z AUTO 29003KT 10SM CLR 17/16 A3008 RMK AO2
     T01660160=
KSCF 081040Z AUTO 14018KT 7SM FEW016 FEW022 29/26 A2990 RMK
     A01=
KSPF 081035Z AUTO 00000KT 10SM CLR 11/08 A3028 RMK AO2=
KVBS 081035Z AUTO 12022G29KT 10SM SCT021 SCT026 SCT034 29/25 A2992
     RMK A01=
KVNP 081035Z AUTO VRB06KT 8SM 28/25 A2996 RMK A01=
KY63 081040Z AUTO 21003KT 10SM CLR 14/14 A3010 RMK AO2
     T01430137=
K14Y 081038Z AUTO 20005KT 7SM CLR 15/14 A3010 RMK AO2
     T01480144=
K4M9 081035Z AUTO 21004KT 7SM CLR 24/24 A3005 RMK AO2=
KAEJ 081035Z AUTO 00000KT 10SM SCT090 BKN110 09/08 A3047 RMK
     AO2=
KBBF 081135Z AUTO 13021KT 9SM FEW024 SCT035 BKN044 29/26 A2980 RMK
     A01=
KBQX 081035Z AUTO 12022G28KT 5SM HZ SCT024 BKN039 OVC065 28/25
     A2983 RMK A01=
KDCM 081035Z AUTO 00000KT 7SM CLR 21/21 A3002 RMK AO2=
KDLP 081035Z AUTO 10011KT 10SM BKN016 BKN020 28/25 A2999 RMK
     A01=
KEDU 081035Z AUTO 16005KT 10SM CLR 14/10 A2982 RMK AO1=
KEFT 081035Z AUTO 25006KT 10SM SCT120 21/19 A3004 RMK AO2
     T02050190=
KEGV 081032Z AUTO 35006KT 10SM CLR 18/17 A3003 RMK AO2
     T01770174=
KEHC 081035Z AUTO 12021G27KT 7SM FEW025 FEW034 29/25 A2992 RMK
     A01=
KEIR 081035Z AUTO VRB06G14KT 070V190 10SM SCT014 28/25 A2996 RMK
     A01=
KEMK 081035Z AUTO 14017G25KT 8SM FEW055 SCT060 BKN090 28/25 A2987
     RMK A01=
KETB 081032Z AUTO 00000KT 3SM BR SCT015 OVC120 21/21 A3001 RMK AO2
     T02130205=
KEZS 081035Z AUTO 00000KT 5SM BR OVC005 23/22 A2999 RMK AO2
     T02250217=
KGBK 081035Z AUTO 09015G22KT 10SM FEW019 29/25 A2990 RMK A01=
KGLW 081033Z AUTO 00000KT 3SM BR CLR 20/19 A3008 RMK AO2
     T01970188=
KGVX 081035Z AUTO 12026KT 9SM M40/ A2989 RMK A01=
KGYH 081035Z AUTO 00000KT 10SM CLR 23/19 A3004 RMK AO2=
KHFJ 081035Z AUTO 00000KT 10SM BKN050 BKN080 OVC090 23/22 A3004
     RMK AO1=
KHQI 081035Z AUTO 10026KT 8SM FEW060 FEW065 SCT090 29/26 A2988 RMK
     A01=
KHXD 081035Z AUTO 24006KT 10SM CLR 23/21 A2999 RMK AO2 P0000=
KHYW 081035Z AUTO 00000KT 7SM SCT100 23/22 A2993 RMK AO2=
KIPN 081035Z AUTO 09013KT 10SM FEW022 /56 A2999 RMK A01=
KIWA 081037Z AUTO 00000KT 10SM CLR 31/02 A2980 RMK AO2=
KJZI 081035Z AUTO 28006KT 10SM CLR 23/23 A2996 RMK A02 P000=
KLNL 081035Z AUTO 34004KT 10SM SCT019 BKN027 17/15 A3005 RMK AO2
     T01700150=
KLUM 081035Z AUTO 29005KT 10SM CLR 18/17 A3006 RMK AO2=
KMCJ 081035Z AUTO 05007KT 6SM FEW050 25/24 A2989 RMK AO1=
KMDJ 081035Z AUTO 12012KT 10SM SCT020 BKN070 29/24 A3000 RMK
     A01=
KMDZ 081035Z AUTO 34003KT 3/4SM BR OVC002 19/18 A3004 RMK AO2=
KMHR 081035Z AUTO 17006KT 10SM CLR 13/10 A2985 RMK AO1=
KMIU 081035Z AUTO 13016KT 10SM SCT034 BKN050 BKN060 28/25 A2981
     RMK A01=
KMRJ 081035Z AUTO 27003KT 2SM BR OVC003 21/19 A3005 RMK AO2
     T02100193=
KMWC 081035Z AUTO 00000KT 5SM -RA BKN009 BKN017 OVC090 21/20 A3001
     RMK AO2 P0001=
KMYT 081035Z AUTO 14010KT 9SM FEW016 28/25 A2996 RMK A01=
####018000091####
SAFR36 LFPW 081030 RRA
METAR LFJR 081030Z AUTO 15005KT 090V240 9999NDV NCD 31/12 Q1018=
####018000089####
SAGR31 LGAT 081020 RRC
METAR LGKL 081020Z 32008KT 9999 FEW030 33/12 Q1011 RMK FEW080=
####018000450####
SPXX60 KWBC 081040
SPECI
KDTS 081035Z AUTO 00000KT 1/2SM FG VV001 24/23 A3001 RMK AO2=
KWRI 081036Z AUTO 15003KT 3/4SM R18/2800V4000FT R24/2000V2400FT BR
     VV001 23/23 A3001 RMK AO2 SLP162 $=
PALU SP 1035 AWOS CLR BLO 120 10 54/35/2211/010=
PASV SP 1035 AWOS 37 SCT 47 SCT M60 OVC 10 48/46/0000/996=
PATL SP 1035 AWOS CLR BLO 120 10 59/44/0205/999=
KECG 081037Z AUTO 08007KT 10SM BKN009 BKN014 BKN110 26/24 A2996
     RMK AO2=
####018000124####
SAXX60 KWBC 081000 RRK
METAR
KWRB 080955Z COR 34003KT 10SM CLR 20/20 A3001 RMK AO2A SLP161
     T02050205 COR 1032=
####018003731####
SAUS70 KWBC 081040
METAR
K1A6 081035Z AUTO 00000KT 3SM BR CLR 21/21 A3011 RMK AO2=
K1P1 081035Z AUTO 00000KT 2SM BR OVC003 22/21 A3007 RMK AO2
     T02210210=
K21D 081038Z AUTO 00000KT 10SM CLR 17/16 A3008 RMK AO2=
KAIG 081035Z AUTO 33007KT 1/2SM FG OVC001 18/17 A3002 RMK AO2=
KARV 081032Z AUTO 00000KT 10SM CLR 17/15 A3004 RMK AO2
     T01660152=
KBJI 081034Z AUTO 24005KT 10SM CLR 14/13 A3005 RMK AO2=
KBUU 081034Z AUTO 00000KT 4SM BR SCT011 BKN025 BKN070 21/21 A3001
     RMK AO2=
KBVU 081035Z AUTO 06003KT 10SM CLR 24/04 A2986 RMK AO2=
KBWP 081031Z AUTO 26003KT 10SM CLR 14/13 A3009 RMK AO1
     T01410128=
KCMY 081035Z AUTO 00000KT 10SM CLR 19/18 A3004 RMK AO2
     T01860178=
KCWA 081035Z AUTO 33004KT 10SM OVC003 19/19 A3003 RMK AO2
     T01920193=
KDLL 081035Z AUTO 23004KT 2SM BR OVC002 21/21 A3003 RMK AO2=
KEDC 081035Z AUTO 06004KT BKN008 BKN025 24/24 A2996 RMK AO2=
KEOE 081035Z AUTO 00000KT 10SM CLR 21/20 A3003 RMK AO2=
KLCK 081035Z AUTO 00000KT 2 1/2SM BR CLR 21/20 A3008 RMK AO2
     T02120202=
KMWO 081035Z AUTO 00000KT 1 1/2SM BR VV007 20/20 A3009 RMK AO2=
KPVB 081033Z AUTO 27003KT 3/4SM OVC001 21/20 A3005 RMK AO1
     T02050198=
KPVF 081035Z AUTO 03004KT 10SM BKN042 21/12 A2993 RMK AO1=
KRCM 081035Z AUTO 34003KT 2 1/2SM BR OVC002 22/22 A3004 RMK
     AO2=
KRZN 081034Z AUTO 00000KT 10SM CLR 16/15 A3008 RMK AO2
     T01550148=
KSME 081035Z AUTO 00000KT 2 1/2SM BR 20/19 A3010 RMK AO2=
KTME 081035Z AUTO 03008KT 5SM 25/25 A2993 RMK AO1=
KTZR 081036Z AUTO 00000KT 4SM BR CLR 21/19 A3009 RMK AO2=
KUNI 081035Z AUTO 00000KT 2 1/2SM HZ CLR 21/17 A3008 RMK AO2
     T02130168=
KUOX 081035Z AUTO 00000KT 10SM CLR 22/20 A3009 RMK AO2=
KVES 081034Z AUTO 13003KT 2 1/2SM BR CLR 20/19 A3009 RMK AO2
     T01950188=
KMZG 081035Z AUTO 00000KT 8SM FEW018 SCT023 BKN044 29/25 A2981 RMK
     A01=
KOEO 081035Z AUTO 00000KT 10SM CLR 16/15 A3010 RMK AO2=
KPBH 081035Z AUTO 31004KT 10SM CLR 19/18 A3005 RMK AO2=
KPCZ 081035Z AUTO 25004KT 5SM BR BKN012 OVC016 22/21 A3000 RMK AO2
     T02230210=
KPDC 081033Z AUTO 30006KT 10SM CLR 22/21 A3003 RMK AO2
     T02170205=
KRCX 081035Z AUTO 32005KT 10SM CLR 18/16 A3006 RMK AO2
     T01760161=
KRNH 081036Z AUTO 29003KT 10SM CLR 17/16 A3008 RMK AO2
     T01660160=
KSPF 081035Z AUTO 00000KT 10SM CLR 11/08 A3028 RMK AO2=
KVBS 081035Z AUTO 12022G29KT 10SM SCT021 SCT026 SCT034 29/25 A2992
     RMK A01=
KVNP 081035Z AUTO VRB06KT 8SM 28/25 A2996 RMK A01=
KY63 081040Z AUTO 21003KT 10SM CLR 14/14 A3010 RMK AO2
     T01430137=
K14Y 081038Z AUTO 20005KT 7SM CLR 15/14 A3010 RMK AO2
     T01480144=
K4M9 081035Z AUTO 21004KT 7SM CLR 24/24 A3005 RMK AO2=
KAEJ 081035Z AUTO 00000KT 10SM SCT090 BKN110 09/08 A3047 RMK
     AO2=
KBBF 081135Z AUTO 13021KT 9SM FEW024 SCT035 BKN044 29/26 A2980 RMK
     A01=
KBQX 081035Z AUTO 12022G28KT 5SM HZ SCT024 BKN039 OVC065 28/25
     A2983 RMK A01=
KDCM 081035Z AUTO 00000KT 7SM CLR 21/21 A3002 RMK AO2=
KDLP 081035Z AUTO 10011KT 10SM BKN016 BKN020 28/25 A2999 RMK
     A01=
KEFT 081035Z AUTO 25006KT 10SM SCT120 21/19 A3004 RMK AO2
     T02050190=
KEGV 081032Z AUTO 35006KT 10SM CLR 18/17 A3003 RMK AO2
     T01770174=
KEHC 081035Z AUTO 12021G27KT 7SM FEW025 FEW034 29/25 A2992 RMK
     A01=
KEIR 081035Z AUTO VRB06G14KT 070V190 10SM SCT014 28/25 A2996 RMK
     A01=
KEMK 081035Z AUTO 14017G25KT 8SM FEW055 SCT060 BKN090 28/25 A2987
     RMK A01=
KETB 081032Z AUTO 00000KT 3SM BR SCT015 OVC120 21/21 A3001 RMK AO2
     T02130205=
KEZS 081035Z AUTO 00000KT 5SM BR OVC005 23/22 A2999 RMK AO2
     T02250217=
KGLW 081033Z AUTO 00000KT 3SM BR CLR 20/19 A3008 RMK AO2
     T01970188=
####018000344####
SPUS80 KWBC 081040
SPECI
KHTS 081037Z AUTO 00000KT 3/4SM BR CLR 21/20 A3009 RMK AO2
     TSNO=
KORH 081037Z 16004KT 3SM BR OVC002 22/22 A3011 RMK AO2=
KLIC 081038Z AUTO 15004KT 6SM BR SCT005 BKN120 13/13 A3033 RMK
     AO2=
KGDP 081038Z AUTO 06019KT 3/4SM BR SCT005 BKN011 OVC016 16/16
     A3022 RMK AO2 RAB01E33 P0000 TSNO=
####018000550####
SAAO32 GOOY 081030
METAR GABS 081030Z 23007KT 210V270 9999 FEW030 30/22 Q1016 NOSIG=
METAR GGOV 081030Z NIL=
METAR GOOY 081030Z 18007KT 140V220 9999 SCT013 SCT230 30/25 Q1012
NOSIG=
METAR DIAP 081030Z 21007KT 180V240 7000 R21//////N SCT012 BKN080
28/24 Q1015 TEMPO BKN012 BKN070=
METAR GQNN 081030Z 18008KT 150V210 6000 SCT020 30/23 Q1013 NOSIG=
METAR GQPP 081030Z NIL=
METAR GUCY 081030Z NIL=
METAR GVAC 081030Z NIL=
METAR GFLL 081030Z NIL=
METAR GBYD 081030Z NIL=
METAR GLRB 081030Z 20003KT 9999 BKN018 FEW026CB 29/26 Q1015 CB-S/SW=
####018000355####
SAUS80 KWBC 081040
METAR
KCLI 081035Z AUTO 00000KT 4SM BR OVC005 22/21 A3000 RMK AO2=
KDVK 081037Z AUTO 00000KT 5SM 20/19 A3010 RMK AO1=
KSNC 081035Z AUTO 15006KT 1/2SM FG OVC001 22/ A3008 RMK AO2
     P0005=
KSCF 081040Z AUTO 14018KT 7SM FEW016 FEW022 29/26 A2990 RMK
     A01=
KMYT 081035Z AUTO 14010KT 9SM FEW016 28/25 A2996 RMK A01=
####018000085####
SACO20 SKBO 081038 RRT
METAR SKCL 081030Z VRB02KT 9999 SCT020 BKN080 21/19 A3000=
####018000151####
SAXX60 KWBC 081040
METAR
KGBK 081035Z AUTO 09015G22KT 10SM FEW019 29/25 A2990 RMK A01=
KMHR 081035Z AUTO 17006KT 10SM CLR 13/10 A2985 RMK AO1=
####018000745####
SPUS70 KWBC 081040
SPECI
KDMO 081037Z AUTO 06003KT 1 1/2SM BR FEW050 23/22 A3004 RMK
     AO2=
KFYV 081037Z AUTO 00000KT 10SM BKN027 22/21 A3007 RMK AO2=
KMFI 081037Z AUTO 32008KT 3SM BR BKN003 19/18 A3002 RMK AO2=
KELD 081038Z AUTO 00000KT 2 1/2SM BR FEW001 BKN080 23/23 A3005 RMK
     AO2=
KMAI 081036Z AUTO 00000KT 1 1/2SM BR BKN001 23/22 A3002 RMK
     AO2=
KPYM 081037Z AUTO 15004KT 10SM BKN008 BKN080 23/21 A3010 RMK
     AO2=
KUCP 081038Z AUTO 00000KT 3/4SM BR CLR 18/18 A3011 RMK AO2 $=
PACM 081037Z AUTO 28007KT 10SM SCT028 OVC060 11/10 A3008 RMK AO2
     TSNO $=
PACM 081037Z AUTO 28007KT 10SM SCT028 OVC060 11/10 A3008 RMK AO2
     TSNO $=
KFIG 081038Z AUTO 00000KT 3SM BR CLR 18/17 A3012 RMK AO2=
####018001206####
SAUS70 KWBC 081040 RRA
METAR
KGVX 081035Z AUTO 12026KT 9SM M40/ A2989 RMK A01=
KGYH 081035Z AUTO 00000KT 10SM CLR 23/19 A3004 RMK AO2=
KHFJ 081035Z AUTO 00000KT 10SM BKN050 BKN080 OVC090 23/22 A3004
     RMK AO1=
KHQI 081035Z AUTO 10026KT 8SM FEW060 FEW065 SCT090 29/26 A2988 RMK
     A01=
KHXD 081035Z AUTO 24006KT 10SM CLR 23/21 A2999 RMK AO2 P0000=
KHYW 081035Z AUTO 00000KT 7SM SCT100 23/22 A2993 RMK AO2=
KIPN 081035Z AUTO 09013KT 10SM FEW022 /56 A2999 RMK A01=
KIWA 081037Z AUTO 00000KT 10SM CLR 31/02 A2980 RMK AO2=
KJZI 081035Z AUTO 28006KT 10SM CLR 23/23 A2996 RMK A02 P000=
KLNL 081035Z AUTO 34004KT 10SM SCT019 BKN027 17/15 A3005 RMK AO2
     T01700150=
KLUM 081035Z AUTO 29005KT 10SM CLR 18/17 A3006 RMK AO2=
KMCJ 081035Z AUTO 05007KT 6SM FEW050 25/24 A2989 RMK AO1=
KMDJ 081035Z AUTO 12012KT 10SM SCT020 BKN070 29/24 A3000 RMK
     A01=
KMDZ 081035Z AUTO 34003KT 3/4SM BR OVC002 19/18 A3004 RMK AO2=
KMIU 081035Z AUTO 13016KT 10SM SCT034 BKN050 BKN060 28/25 A2981
     RMK A01=
KMRJ 081035Z AUTO 27003KT 2SM BR OVC003 21/19 A3005 RMK AO2
     T02100193=
KMWC 081035Z AUTO 00000KT 5SM -RA BKN009 BKN017 OVC090 21/20 A3001
     RMK AO2 P0001=
####018000081####
SAAF35 KWBC 081000 RRF
METAR
HLLB 081025Z 32008KT 9999 FEW025 30/18 Q1016=
####018000095####
SAAL31 KWBC 081000 RRC
METAR
DABS 081030Z 30010KT CAVOK 32/10 Q1023=
DAUZ 081030Z NIL=
####018000090####
SPCN47 CWAO 081039
SPECI CYAM 081039Z 16002KT 5SM -RA BR BKN003 OVC010 RMK SF6SC2=

####018000115####
SAAO32 KWBC 081000 RRD
METAR
GABS 081030Z 23007KT 210V270 9999 FEW030 30/22 Q1016 NOSIG=
GQPP 081030Z NIL=
####018000178####
SAAO33 KWBC 081000 RRD
METAR
GBYD 081030Z NIL=
GFLL 081030Z NIL=
GGOV 081030Z NIL=
GLRB 081030Z 20003KT 9999 BKN018 FEW026CB 29/26 Q1015 CB-S/SW=
GUCY 081030Z NIL=
####018000198####
SAEE31 KWBC 081030 RRB
METAR
UMMM 081030Z 28005MPS 9999 OVC019 19/16 Q1014 R30/CLRD// NOSIG RMK
     QFE741=
UMMS 081030Z 28003MPS 250V320 9999 BKN022 20/16 Q1015 R31/CLRD//
     NOSIG=
####018000212####
SAEE32 KWBC 081030 RRA
METAR
LRAR 081030Z 01008KT 330V070 9999 SCT033 22/15 Q1020=
LRTC 081030Z 35010KT 9999 FEW030CB BKN040 23/17 Q1014=
LRTM 081030Z 24006KT 9999 -RA FEW013 SCT026 BKN030 16/14 Q1020=
####018000258####
SAEM31 KWBC 081030 RRB
METAR
LKMT 081030Z 06005KT 340V120 CAVOK 21/10 Q1023 NOSIG RMK REG QNH
     1021=
LKPR 081030Z 28005KT 210V360 CAVOK 23/10 Q1024 NOSIG RMK REG QNH
     1021=
LKTB 081030Z VRB05KT CAVOK 23/08 Q1023 NOSIG RMK REG QNH 1021=
####018000889####
SAGR31 KWBC 081020 RRA
METAR
LGAD 081020Z 31012KT 9999 FEW020 27/17 Q1014=
LGAL 081020Z 04008KT 9999 FEW008 FEW020TCU BKN025 19/17 Q1015=
LGAV 081020Z 02019KT 9999 FEW020 BKN030 26/12 Q1013 NOSIG=
LGEL 081020Z 36012G22KT 9999 FEW025 27/13 Q1012=
LGIR 081020Z 01006KT 9999 FEW020 29/23 Q1011 NOSIG=
LGKF 081020Z NIL=
LGKL 081020Z NIL=
LGKO 081020Z 31014KT CAVOK 29/17 Q1010=
LGKR 081020Z 31015KT CAVOK 28/13 Q1013 NOSIG=
LGKV 081020Z 17007KT 9999 SCT020TCU 22/17 Q1013=
LGLM 081020Z 06013KT 9999 FEW008 BKN020 21/17 Q1013=
LGLM 081020Z NIL=
LGMT 081020Z 36011KT 9999 FEW025 SCT100 24/17 Q1011=
LGRP 081020Z 24015KT CAVOK 30/19 Q1008 NOSIG=
LGSA 081020Z 30010KT 9999 FEW020 33/15 Q1011=
LGSM 081020Z NIL=
LGSM 081020Z 35011KT CAVOK 31/14 Q1010=
LGSR 081020Z 35018KT 9999 FEW020 28/19 Q1010 NOSIG=
LGTS 081020Z 34022KT 9999 SCT025 23/11 Q1016 NOSIG=
####018000316####
SAGR41 KWBC 081020 RRA
METAR
LGKP 081020Z 32028KT CAVOK 29/17 Q1009=
LGKZ 081020Z NIL=
LGMK 081020Z 01022G32KT 9999 FEW012 25/18 Q1012=
LGPZ 081020Z 27015KT 9999 FEW025 28/19 Q1013 NOSIG=
LGRX 081020Z 28011KT 9999 FEW025 27/18 Q1012 NOSIG=
LGSK 081020Z NIL=
LGZA 081020Z 33014KT CAVOK 30/07 Q1013=
####018000284####
SAJP31 KWBC 081030 RRB
METAR
RJAA 081030Z 17003KT 9999 FEW020 BKN/// 24/21 Q1010 NOSIG RMK
     1CU020 A2985=
RJCC 081030Z 17005KT 140V290 3100 -DZ BR BKN002 18/17 Q1010 RMK
     7ST002 A2984=
RJTT 081030Z 18013KT 9999 FEW016 BKN/// 25/22 Q1010 RMK 1CU016
     A2982=
####018000053####
SANT31 KWBC 081000 RRD
METAR
GVAC 081030Z NIL=
####018001809####
SARA31 KWBC 081000 RRJ
METAR
UEEE 081030Z 11002MPS 9999 BKN050CB BKN100 22/13 Q1007 NOSIG RMK
     QFE747 2309//60=
UHHH 081030Z 02004MPS 9999 SCT032CB OVC100 17/14 Q1010 NOSIG RMK
     QFE751/1002 55090060=
UHMA 081030Z NIL=
UHMM 081030Z NIL=
UHMP 081030Z NIL=
UHPP 081030Z NIL=
UHSS 081030Z 14001MPS 9999 BKN016 13/12 Q1011 NOSIG RMK MT OBSC
     QFE757/1009 19CLRD70=
UHWW 081030Z 19003MPS 160V220 9999 SCT013 BKN023 OVC090 17/14
     Q1010 NOSIG RMK QFE757/1009 75CLRD70=
UIAA 081030Z 36005MPS 9999 VCTS BKN043CB OVC100 24/10 Q1006 NOSIG
     RMK     QFE696 29CLRD70=
UIAA 081030Z 36005MPS 9999 VCTS BKN043CB OVC100 24/10 Q1006 NOSIG
     RMK QFE696 29CLRD70=
UIBB 081030Z 06004MPS 9999 FEW033 BKN200 27/12 Q1005 NOSIG RMK
     QFE711/0948 30CLRD60=
UIII 081030Z 18002MPS CAVOK 20/12 Q1006 NOSIG RMK QFE712/0950
     12CLRD60=
UIUU 081030Z 00000MPS 9999 SCT033CB OVC100 22/13 Q1007 NOSIG RMK
     QFE711/0948=
ULAA 081030Z 32003MPS 270V010 9999 FEW030CB 27/17 Q1015 TEMPO TSRA
     RMK QFE760/1013 SC070=
UMBB 081030Z 30005G08MPS 8000 SCT033 23/12 Q1019 NOSIG=
UMGG 081030Z 24005MPS 9999 BKN023CB BKN100 27/17 Q1013 R28/190055
     NOSIG=
UMMM 081030Z 28005MPS 9999 OVC019 19/16 Q1014 R30/CLRD// NOSIG RMK
     QFE741=
UMMS 081030Z 28003MPS 250V320 9999 BKN022 20/16 Q1015 R31/CLRD//
     NOSIG=
UNAA 081030Z 05002MPS 9999 SCT030CB BKN100 19/12 Q1011 RMK QFE736
     202///55=
UNNT 081030Z 22005MPS 190V250 9999 BKN060CB BKN100 21/02 Q1007
     NOSIG RMK QFE745/0993 25090070=
USNN 081030Z 16006MPS P6000 SCT026 BKN200 18/09 Q1003 NOSIG RMK
     QFE747 SC065=
UTST 081030Z 14002MPS 070V200 CAVOK 41/01 Q1006 R88/CLRD70
     NOSIG=
UUEE 081030Z 13005MPS 9999 SCT050TCU BKN200 29/14 Q1015 WS RWY07L
     NOSIG=
####018000676####
SARS31 KWBC 081000 RRD
METAR
UELL 081030Z VRB01MPS 9999 -SHRA VCFG BKN026CB OVC200 13/12 Q1012
     TEMPO SCT006 RMK QFE684 08CLRD70=
UEST 081030Z 10002MPS CAVOK 06/03 Q1017 NOSIG RMK QFE762=
ULLI 081030Z 15002MPS 110V200 9999 SCT040 BKN200 31/16 Q1013
     NOSIG=
ULMM 081030Z 01001MPS 9999 BKN020 15/08 Q1018 NOSIG RMK QFE756
     32190060=
UOHH 081030Z NIL=
UOOO 081030Z NIL=
UUDD 081030Z 14005MPS 110V180 9999 SCT043 BKN200 28/16 Q1015 WS
     RWY14R NOSIG=
UUEE 081030Z 13005MPS 9999 SCT050TCU BKN200 29/14 Q1015 WS RWY07L
     NOSIG=
UUEM 081030Z NIL=
UUWW 081030Z 14002MPS 110V180 9999 SCT040 BKN100 26/17 Q1015
     06000070 NOSIG=
####018001061####
SARS32 KWBC 081000 RRC
METAR
URKA 081030Z 04005MPS 9999 SCT026 29/19 Q1012 NOSIG RMK  065=
URKA 081030Z 04005MPS 9999 SCT026 29/19 Q1012 NOSIG RMK 065=
URKK 081030Z 07005G08MPS 9999 SCT030 BKN300 30/19 Q1012 NOSIG RMK
     QFE756 SC070=
URKM 081030Z NIL=
URMM 081030Z 10005G07MPS 9999 BKN043 30/18 Q1013 NOSIG RMK /
     SC070=
URMM 081030Z 10005G07MPS 9999 BKN043 30/18 Q1013 NOSIG RMK /
     SC070=
URMN 081030Z 10003MPS 9999 BKN033CB BKN110 28/19 Q1014 NOSIG RMK
     / QFE723 SC07=
URMN 081030Z 10003MPS 9999 BKN033CB BKN110 28/19 Q1014 NOSIG RMK /
     QFE723 SC07=
URMT 081030Z 05005G08MPS 9999 BKN020 OVC100 27/17 Q1015 NOSIG RMK
     QFE721 SC07=
URRR 081030Z NIL=
URSS 081030Z 28003MPS 9999 FEW040 28/20 Q1010 NOSIG RMK / QFE756
     06CLRD70=
URSS 081030Z 28003MPS 9999 FEW040 28/20 Q1010 NOSIG RMK / QFE756
     06CLRD70=
URWA 081030Z 34003MPS CAVOK 37/12 Q1011 NOSIG RMK SC07=
URWI 081030Z 07002MPS CAVOK 30/16 Q1013 NOSIG RMK SC065=
URWW 081030Z 36004MPS CAVOK 30/15 Q1014 NOSIG RMK SC070=
####018000835####
SARS33 KWBC 081000 RRB
METAR
USCC 081030Z 34007G14MPS 9999 FEW040 FEW200 25/01 Q1014 NOSIG RMK
     QFE740 27000070=
USDD 081030Z 03008G11MPS CAVOK 17/M00 Q1016 NOSIG RMK QFE756/1008
     SC060=
USMU 081030Z 03006MPS 9999 SCT026CB OVC066 15/11 Q1006 NOSIG RMK
     QFE749 09250345=
USNN 081030Z 16006MPS P6000 SCT026 BKN200 18/09 Q1003 NOSIG RMK
     QFE747 SC065=
USPP 081030Z 31003G06MPS 220V360 CAVOK 28/09 Q1016 NOSIG RMK
     QFE751/1001 21090060=
USRK 081030Z 33004MPS 6000 BKN019 OVC066 14/10 Q1003 NOSIG RMK
     QFE746 351///55=
USRR 081030Z 35003G06MPS 7000 OVC010 12/10 Q1004 TEMPO BKN007 RMK
     QFE748 25////60=
USSS 081030Z 33004G07MPS 280V360 CAVOK 25/03 Q1014 NOSIG RMK
     QFE740 260///70=
USTR 081030Z 33007G10MPS 9999 SCT046 19/04 Q1012 NOSIG RMK
     QFE749/0999 30CLRD65=
####018001287####
SARS41 KWBC 081000 RRB
METAR
UUBP 081030Z NIL=
UUEE 081030Z 13005MPS 9999 SCT050TCU BKN200 29/14 Q1015 WS RWY07L
     NOSIG=
UUEM 081030Z NIL=
UUOO 081030Z 15002MPS 100V190 9999 SCT033 29/14 Q1014 NOSIG RMK
     13090070=
UUWW 081030Z 14002MPS 110V180 9999 SCT040 BKN100 26/17 Q1015
     06000070 NOSIG=
UUYH 081030Z 00000MPS CAVOK 26/08 Q1017 NOSIG RMK QFE 751
     18CLRD60=
UUYS 081030Z 16003MPS CAVOK 21/06 Q1016 NOSIG RMK QFE755
     14CLRD60=
UUYY 081030Z VRB02MPS 9999 FEW030 BKN200 30/14 Q1016 NOSIG
     01CLRD61 RMK QFE753/1004=
UWGG 081030Z 15002MPS 020V290 8000 FEW033 33/09 Q1016 NOSIG RMK
     QFE755 18090070=
UWKD 081030Z 23002MPS 9999 SCT033CB BKN070 30/11 Q1015 TEMPO
     VRB15MPS 3000 TSRA RMK QFE752/1002 112/0350=
UWKE 081030Z 04003MPS 9999 FEW040 31/10 Q1016 NOSIG RMK
     QFE745/0993 22090070=
UWLW 081030Z NIL=
UWOO 081030Z NIL=
UWPP 081030Z 13004MPS 9999 SCT033 BKN100 31/10 Q1014 NOSIG RMK
     QFE746 11090060=
UWSS 081030Z 07006MPS 9999 FEW050TCU BKN066 31/11 Q1014 NOSIG RMK
     QFE749 120///60=
UWUU 081030Z 02005MPS 020V080 CAVOK 28/10 Q1015 82010060 NOSIG RMK
     QFE750/1000=
UWWW 081030Z 02006G11MPS 010V070 9999 FEW033 SCT200 31/09 Q1015
     NOSIG RMK QFE748/0998 05CLRD60 15//99//=
####018001673####
SAXX99 KWBC 081000 RRX
METAR
CZFS 081000Z AUTO 00000KT 13/13 RMK AO1 SLP156 T01330132 50000=
LGHI 081020Z NIL=
LGKC 081020Z NIL=
LGNX 081020Z NIL=
LGPA 081020Z NIL=
LGSO 081020Z NIL=
LKKV 081030Z VRB02KT CAVOK 22/09 Q1024 RMK REG QNH 1021=
MMTG 081015Z RTD 00000KT 3SM BCFG SCT004 BKN070 OVC300 23/23 A2991
     RMK 60321 8/672 BCFG ARND VRBL COND RTS=
UERP 081030Z 36005MPS 9999 SCT033CB BKN100 16/06 Q1014 NOSIG RMK
     QFE717 35090065=
UERR 081030Z 34003MPS 9999 BKN020CB OVC200 15/14 Q1012 NOSIG RMK
     QFE727 24290255=
UESO 081030Z NIL=
UHNN 081030Z NIL=
UHSH 081030Z NIL=
ULDD 081030Z NIL=
ULKK 081030Z NIL=
ULOL 081030Z NIL=
ULOO 081030Z VRB02MPS P6000 SCT035 BKN200 28/18 Q1012 NOSIG RMK
     QFE755=
ULWW 081030Z NIL=
UMKK 081030Z 30006MPS P8000 FEW030 BKN200 22/13 Q1020 NOSIG RMK
     QFE 764 SC07=
UNBB 081030Z 23007MPS 9999 -SHRA BKN027CB 19/06 Q1009 NOSIG RMK
     QFE735=
UNEE 081030Z 21005MPS 9999 SCT026 BKN200 19/11 Q1008 NOSIG RMK
     QFE734 23CLRD60=
UNKL 081030Z VRB02MPS 9999 SCT023CB OVC083 17/13 Q1009 NOSIG RMK
     QFE731 29////55=
UNOO 081030Z 33004MPS 9999 BKN023CB 13/10 Q1008 NOSIG 25CLRD06 RMK
     QFE748=
UNWW 081030Z 24006G11MPS 9999 VCTS -SHRA BKN026CB OVC100 17/10
     Q1010 NOSIG RMK QFE731 1929//60=
UOII 081030Z 16002MPS 9999 SCT033CB BKN040 26/17 Q1006 TEMPO -TSRA
     RMK QFE752 30////60=
URML 081030Z 03007MPS 9999 SKC 32/21 Q1013 NOSIG RMK QFE759 /
     07=
URML 081030Z 03007MPS 9999 SKC 32/21 Q1013 NOSIG RMK QFE759 /
     07=
UWLL 081030Z 06004MPS 9999 SCT050TCU 31/10 Q1015 NOSIG RMK
     QFE749/0999 SC065=
UWOR 081030Z NIL=
####018000102####
SPUS52 KWBC 081040
SPECI
KGDP 081038Z AUTO 06019KT 3/4SM BR SCT005 BKN011 OVC016 16/16
A3022=
####018000082####
SPUS52 KWBC 081040
SPECI
KFYV 081037Z AUTO 00000KT 10SM BKN027 22/21 A3007=
####018000092####
SAFR36 LFPW 081030 RRA
METAR LFJR 081030Z AUTO 15005KT 090V240 9999NDV NCD 31/12 Q1018=
####018000308####
SAGR33 LGAT 081020
METAR LGHI 081020Z NIL=
METAR LGKC 081020Z NIL=
METAR LGKF 081020Z NIL=
METAR LGKP 081020Z 32028KT CAVOK 29/17 Q1009=
METAR LGKZ 081020Z NIL=
METAR LGMK 081020Z 01022G32KT 9999 FEW012 25/18 Q1012=
METAR LGNX 081020Z NIL=
METAR LGPA 081020Z NIL=
METAR LGSO 081020Z NIL=
####018000300####
SAGR33 LGAT 081020
METAR LGHI 081020Z NIL=
METAR LGKC 081020Z NIL=
METAR LGKF 081020Z NIL=
METAR LGKP 081020Z 32028KT CAVOK 29/17 Q1009=
METAR LGKZ 081020Z NIL=
METAR LGMK 081020Z 01022G32KT 9999 FEW012 25/18 Q1012=
METAR LGNX 081020Z NIL=
METAR LGPA 081020Z NIL=
METAR LGSO 081020Z NIL=
####018000081####
SAMP31 LMMM 081030 RRB
METAR HLLB 081025Z
32008KT 9999 FEW025 30/18 Q1016=
####018000081####
SAMP31 LMMM 081030 RRB
METAR HLLB 081025Z 
32008KT 9999 FEW025 30/18 Q1016=
####018000077####
SALY31 HLLB 081030
METAR HLLB 081025Z 
32008KT 9999 FEW025 30/18 Q1016=
####018000073####
SAGR31 LGAT 081020 RRA
METAR LGSM 081020Z 35011KT CAVOK 31/14 Q1010=
####018000513####
SAGR32 LGAT 081020
METAR LGAL 081020Z 04008KT 9999 FEW008 FEW020TCU BKN025 19/17 Q1015=
METAR LGEL 081020Z 36012G22KT 9999 FEW025 27/13 Q1012=
METAR LGKV 081020Z 17007KT 9999 SCT020TCU 22/17 Q1013=
METAR LGMT 081020Z 36011KT 9999 FEW025 SCT100 24/17 Q1011=
METAR LGPZ 081020Z 27015KT 9999 FEW025 28/19 Q1013 NOSIG=
METAR LGRX 081020Z 28011KT 9999 FEW025 27/18 Q1012 NOSIG=
METAR LGSK 081020Z NIL=
METAR LGSR 081020Z 35018KT 9999 FEW020 28/19 Q1010 NOSIG=
METAR LGZA 081020Z 33014KT CAVOK 30/07 Q1013=
####018000086####
SAGR31 LGAT 081020 RRB
METAR LGLM 081020Z 06013KT 9999 FEW008 BKN020 21/17 Q1013=
####018000090####
SAGR31 LGAT 081020 RRC
METAR LGKL 081020Z 32008KT 9999 FEW030 33/12 Q1011 RMK FEW080=
####018000107####
SPCN44 CWAO 081038
SPECI CYEK 081038Z AUTO 08003KT 5/8SM VV001 07/07 A2959 RMK VSBY VRBL
0.3V8.0=

####018000080####
SAMP31 LMMM 081030 RRB
METAR HLLB 081025Z
32008KT 9999 FEW025 30/18 Q1016=
####018000088####
SAUS20 KNKA 081039
SPECI KGKY 081039Z AUTO 13005KT 10SM BKN013 25/23 A3001 RMK AO2=
####018000102####
SPUS81 KWBC 081040
SPECI
KGDP 081038Z AUTO 06019KT 3/4SM BR SCT005 BKN011 OVC016 16/16
A3022=
####018001328####
SAEW KAWN 081000 RRN
METAR LFBD 081030Z 08011KT CAVOK 31/12 Q1017 NOSIG=
METAR LFBO 081030Z 12010KT 080V160 CAVOK 32/12 Q1018 NOSIG=
METAR LFGJ 081030Z AUTO 19006KT 150V240 9999NDV NSC 28/14 Q1020=
METAR LFKJ 081030Z 23010KT 9999 FEW026 28/23 Q1019 NOSIG=
METAR LFLN 081030Z AUTO VRB03KT 9999NDV NSC 30/13 Q1020=
METAR LFMD 081030Z AUTO 14008KT 100V180 9999NDV NSC 30/20 Q1020=
METAR LFML 081030Z 27006KT 9999 FEW050 31/17 Q1020 NOSIG=
METAR LFOT 081030Z AUTO 12004KT 040V190 9999NDV NSC 30/12 Q1018=
METAR LFPB 081030Z AUTO 21004KT 150V280 9999NDV NSC 30/10 Q1019=
METAR LFPM 081030Z VRB02KT CAVOK 30/15 Q1019=
METAR LFRC 081030Z AUTO 34005KT 280V060 9999NDV NSC 20/15 Q1019=
METAR LFRD 081030Z AUTO 02006KT 340V110 9999NDV NSC 21/15 Q1019=
METAR LFRJ 081030Z AUTO 01004KT 280V060 9999NDV BKN020/// BKN180///
      21/16 Q1019=
METAR LFRN 081030Z AUTO VRB04KT 9999NDV NSC 26/15 Q1018=
METAR LFRO 081030Z AUTO 01004KT 320V050 9999NDV BKN019 BKN190 20/16
      Q1019=
METAR LFRZ 081030Z AUTO 01004KT 290V090 9999NDV NSC 29/13 Q1018=
METAR LFSB 081030Z 25003KT 170V320 CAVOK 29/11 Q1021 NOSIG=
METAR LFSL 081030Z AUTO 13005KT 070V170 9999NDV NSC 29/14 Q1020=
METAR LFST 081030Z 15004KT 080V230 CAVOK 28/11 Q1020 NOSIG=
METAR LFTW 081030Z AUTO 12004KT 050V190 9999NDV NSC 31/14 Q1020=
####018000134####
SAXN17 KAWN 080600 RRN
METAR SKCG 080600Z VRB02KT 9999 SCT012 BKN070 28/26 A2988=
METAR SKLT 080600Z 00000KT CAVOK 25/24 A2985=
####018000086####
SANA35 KAWN 080600 RRG
METAR SKCG 080600Z VRB02KT 9999 SCT012 BKN070 28/26 A2988=
####018000071####
SASA KAWN 080500 RRI
METAR SKLT 080500Z 00000KT CAVOK 25/24 A2986=
####018000091####
SANA14 KAWN 080600 RRI
METAR SKRG 080600Z 00000KT 3500 BCFG BKN006 BKN080 14/14 A3030=
####018000713####
SPNA14 KAWN 081040 RRF
SPECI KEGI 081034Z AUTO 00000KT 1 3/4SM R18/2600VP6000FT BR CLR 21/21
      A3002 RMK AO2 SLP167 $=
SPECI KEGI 081036Z AUTO 00000KT 1 1/4SM R18/2400VP6000FT BR CLR 21/21
      A3003 RMK AO2 SLP167 $=
SPECI KEGI 081037Z AUTO 00000KT 1SM R18/1600VP6000FT BR CLR 21/21 A3002
      RMK AO2 SLP167 $=
SPECI KEGI 081038Z AUTO 00000KT 3/4SM R18/1200VP6000FT BR CLR 21/21
      A3002 RMK AO2 SLP167 $=
SPECI KSKF 081039Z 05007KT 10SM BKN013 25/ A2992 RMK AO2A CIG 012V017
      SLP123 $=
SPECI KVOK 081034Z 26005KT 3SM BR CLR 18/18 A3002 RMK AO2A SLP162=
SPECI KWRI 081036Z AUTO 15003KT 3/4SM R18/2800V4000FT R24/2000V2400FT
      BR VV001 23/23 A3001 RMK AO2 SLP162 $=
####018000073####
SAXN17 KAWN 080500 RRL
METAR SKLT 080500Z 00000KT CAVOK 25/24 A2986=
####018000198####
SASA KAWN 080600 RRK
METAR SKCG 080600Z VRB02KT 9999 SCT012 BKN070 28/26 A2988=
METAR SKLT 080600Z 00000KT CAVOK 25/24 A2985=
METAR SKRG 080600Z 00000KT 3500 BCFG BKN006 BKN080 14/14 A3030=
