####018000098####
SPUS72 KWBC 081250
SPECI
KIAH 081243Z 07008KT 2SM -TSRA FEW008 BKN025CB OVC060 26/24 A2997=
####018000086####
SPUS73 KWBC 081250
SPECI
KORD 081247Z 24003KT 5SM BR FEW006 OVC022 23/22 A3003=
####018000073####
SAUS81 KWBC 081248
&EHA SA 1248  AMOS 63/62/3606/M PK WND 10 003

####018000086####
SAXX98 KWBC 081250
METAR MYEG 081259Z AUTO 16005KT 10SM CLR 29/24 A2997 RMK AO2
####018000083####
SPCN45 CWAO 081245
SPECI CYXN 081245Z 00000KT 3SM -RA BR OVC003 RMK FG3ST5=

####018000085####
SAMD90 KWBC 081250
METAR K2G4 081250Z AUTO 00000KT 10SM CLR 24/14 A3020 RMK AO1=
####018001382####
SPZZ40 KAWN 081250 RRJ
SPECI CWZZ 081245Z AUTO ///// 9SM SCT041 BKN061 OVC089 14/ A2974=
SPECI CYSB 081243Z 19010KT 10SM OVC004 RMK SF8 CIG RAG=
SPECI CYYD 081248Z AUTO 00000KT 3SM BR CLR 10/09 A3011 RMK SLP200=
SPECI EGVA 081246Z AUTO 24008KT 9999 -RA FEW150 SCT180 SCT210 22/09
      A3006 RMK AO2 RAB1246 SLP180=
SPECI EKKA 081244Z 20007KT 150V230 7000 -SHRA FEW009 FEW018TCU BKN030
      18/17 Q1018 TEMPO 4000 SHRA SCT020CB=
SPECI KHST 081244Z AUTO VRB04KT 10SM SCT018 BKN027 28/26 A2996 RMK
      AO2 BKN V SCT SLP146 $=
SPECI KIAB 081249Z AUTO 02007KT 10SM BKN008 22/21 A3011 RMK AO2 RAB1208E1223DZB1221E1222
      BKN V SCT SLP184=
SPECI KSZL 081240Z 00000KT 3SM BR OVC004 23/22 A3008 RMK AO2A CIG 002V007
      SLP181 $=
SPECI MMMX 081246Z 18003KT 2 1/2SM -RA HZ SCT008 BKN010 OVC020 15/14
      A3020 NOSIG RMK 8/7// VSBY TWR=
SPECI PAED 081246Z AUTO 00000KT 10SM -RA FEW003 BKN075 BKN095 12/10
      A2998 RMK AO2 RAB1208E1209B1239DZB1209E1219B1238E1239 SLP152 $=
SPECI PASY 081243Z AUTO 02017KT 9SM OVC002 A2974 RMK AO2 TSNO PNO=
SPECI RJNY 081234Z 02002KT 9999 FEW010 SCT015 BKN035 24/23 Q1010 RMK
      1CU010 3CU015 5SC035 A2984 LIGHTNING SE=
SPECI SARI 081245Z 20006KT 2000 BR BKN002 SCT100 17/17 Q1019=
SPECI TXKF 081241Z 16019G30KT 120V180 4000 SHRA FEW009 SCT015TCU SCT180
      BKN300 25/22 Q1020 RMK TCU S MOV N=
####018000564####
SPNA35 KAWN 081250 RRF
SPECI KACY 081243Z 10006KT 5SM -RA BKN013 BKN018 25/22 A3006 RMK AO2
      RAB37 P0001=
SPECI KHST 081244Z AUTO VRB04KT 10SM SCT018 BKN027 28/26 A2996 RMK
      AO2 BKN V SCT SLP146 $=
SPECI KJFK 081244Z 15006KT 10SM FEW009 BKN014 BKN030 OVC130 26/21 A3007
      RMK AO2 RAB1159E10 P0000 $=
SPECI KPBI 081244Z 00000KT 10SM FEW012 BKN022CB BKN055 26/26 A2996
      RMK AO2 RAE44 CB OHD-E-S MOV SW P0016 $=
SPECI TXKF 081241Z 16019G30KT 120V180 4000 SHRA FEW009 SCT015TCU SCT180
      BKN300 25/22 Q1020 RMK TCU S MOV N=
####018000354####
SAXN17 KAWN 081200 RRL
METAR MMCN 081243Z 00000KT 10SM BKN100 BKN200 27/20 A2973 RMK 8/055
      RTS=
METAR MMIO 081240Z 00000KT 8SM BKN012 OVC030 19/18 A3013 RMK 8/5//
      BINOVC=
METAR MMSD 081242Z 28005KT 12SM SKC 22/14 A2976 RMK RTS=
METAR MMZH 081242Z RTD 00000KT 7SM SCT040 BKN100 OVC250 25/20 A2978
      SLP098 5//// 913 8/367=
####018000120####
SAUS20 KNKA 081250
METAR KXBP 081245Z AUTO 00000KT 10SM SCT012 BKN024 OVC100 24/23 
     A3005 RMK AO2 T02390227=
####018002958####
SAUS20 KNKA 081250
SPECI KBMQ 081249Z AUTO 08003KT 8SM SCT010 BKN016 OVC038 24/22 A3003 
    RMK AO2 RAB00E09 P0000 $=
METAR KBVI 081247Z 00000KT 4SM HZ SCT060 26/21 A3013=
METAR KC75 081245Z AUTO 25003KT 10SM SCT008 SCT012 BKN020 24/23 
     A3004 RMK AO2=
METAR KCCA 081255Z AUTO 00000KT 7SM OVC006 24/23 A3009 RMK AO2 =
METAR KCDN 081255Z AUTO 29004KT 10SM CLR 28/21 A3000 RMK A02 P000 
     =
METAR KCKI 081255Z AUTO 30004KT 10SM CLR 27/20 A2996 RMK AO2=
SPECI KCYS 081249Z 00000KT 10SM OVC016 13/11 A3037 RMK AO2=
SPECI KDVN 081249Z AUTO 32007KT 5SM BR BKN006 OVC010 23/21 A3006 RMK 
    AO2 CIG 003V009=
METAR KLRO 081255Z AUTO 30006KT 7SM CLR 26/20 A2996 RMK AO2 =
METAR KLZU 081250Z 30004KT 10SM SKC 27/19 A3006=
METAR KMKS 081255Z AUTO 00000KT 10SM CLR 26/21 A2997 RMK AO2 TSNO=
METAR KPEZ 081245Z AUTO 02005KT 7SM SCT013 OVC018 25/24 A2993 RMK 
     AO2 T02510235=
METAR KPKV 081246Z AUTO 04013G16KT 7SM SCT017 OVC022 25/23 A2987 
     RMK AO2 T02500231=
METAR KPPA 081245Z AUTO 36006KT 5SM BR OVC003 18/17 A3021 RMK AO2=
METAR KPSN 081245Z AUTO 08006KT 7SM 25/24 A3004 RMK AO2 T02450235=
METAR KPYX 081250Z AUTO 36008KT 5SM OVC004 19/18 A3019 RMK AO2 
     T01880180=
METAR KRAS 081245Z AUTO 10006KT 6SM  BR FEW042 SCT060 28/26 A2987 
     RMK AO2 P0001=
METAR KRBO 081245Z AUTO 04005KT 10SM SCT004 BKN033 OVC043 26/25 
     A2985 RMK AO2 P0006 T02620253=
METAR KRFI 081245Z AUTO 10004KT 5SM BR CLR 25/23 A3004 RMK AO2 
     T02450232=
METAR KRPH 081245Z AUTO 00000KT 10SM CLR 23/21 A3003 RMK AO2 
     T02330214=
METAR KRWV 081240Z AUTO 06005KT 5SM  BR OVC006 24/24 A3000 RMK AO2=
METAR KRYW 081245Z AUTO 07006KT 1 1/4SM BR OVC003 24/23 A3001 RMK 
     AO2=
METAR KSAR 081245Z AUTO 20004KT 7SM SCT095 26/23 A3006 RMK AO2=
SPECI KSBN 081246Z 14003KT 4SM -RA BR FEW015 SCT035 OVC050 23/22
     A3006 RMK AO2 TSB25E45RAB1155 OCNL LTGIC DSNT SW CB DSNT SW
     P0015=
METAR KSEP 081245Z AUTO 08003KT 5SM SCT002 BKN015 OVC036 23/22 
     A3005 RMK AO1=
METAR KSLO 081243Z AUTO 21006KT 10SM SCT046 27/23 A3007 RMK AO2 
     T02720225=
METAR KSLR 081242Z AUTO 13006KT 5SM BR SCT006 OVC060 26/24 A3007 
     RMK AO2 T02580237=
METAR KSNK 081246Z AUTO 05007KT 7SM OVC005 21/20 A3011 RMK AO2 
     T02080197=
METAR KSOA 081240Z AUTO 04004KT 6SM  BR 22/22 A3009 RMK AO2=
METAR KSWW 081245Z AUTO 01004KT 4SM OVC002 22/21 A3012 RMK AO1 
     T02160212=
METAR KT65 081245Z AUTO 01007KT 10SM SCT006 OVC060 26/25 A2978 
     RMK AO2 LTG DSNT S T02600248=
METAR KT82 081245Z AUTO 08005KT 23/22 A3003 RMK AO1 T02280220=
METAR KTAZ 081245Z AUTO 00000KT 10SM CLR 25/24 A3004 RMK AO2=
METAR KTFP 081245Z AUTO 00000KT 10SM -DZ SCT041 BKN050 OVC060 
     26/25 A2984 RMK AO2 P0002 T02630250=
METAR KTIP 081245Z AUTO 00000KT 7SM SCT090 26/24 A3006 RMK AO2 
     T02550238=
METAR KUVA 081245Z AUTO 06005KT 10SM CLR 24/23 A2996 RMK AO2 
     T02410230=
####018000084####
SAMD90 KWBC 081250
METAR KCBE 081249Z AUTO 00000KT 7SM CLR 25/18 A3011 RMK AO1=
####018000087####
SAMD90 KWBC 081250
METAR K2W6 081249Z AUTO 10008KT 7SM SCT013 27/23 A3003 RMK AO1=
####018000085####
SAMD90 KWBC 081250
METAR KCGE 081247Z AUTO 11009KT 10SM CLR 27/23 A3003 RMK AO1=
####018000087####
SAMD90 KWBC 081250
METAR KFDK 081248Z AUTO 00000KT 5SM HZ CLR 31/21 A3005 RMK AO2=
####018000084####
SAMD90 KWBC 081250
METAR KCGS 081255Z AUTO 00000KT 5SM CLR 28/24 A3002 RMK AO1=
####018000084####
SAMD90 KWBC 081250
METAR KDMW 081249Z AUTO 13004KT 7SM CLR 29/22 A3005 RMK AO2=
####018000081####
SRPR30 KWAL 081250
CE2D864E 189125036bB1r@II@II@II@IJ@IJ@IK@IK@ILJ 43+0NN 161E####018000084####
SAMD90 KWBC 081250
METAR KFME 081251Z AUTO 09003KT 5SM CLR 26/22 A3004 RMK AO1=
####018000084####
SAMD90 KWBC 081250
METAR KW29 081249Z AUTO 10005KT 7SM CLR 27/23 A3002 RMK AO1=
####018002491####
SAUS99 KWBC 081251
METAR
KGYR 081247Z VRB03KT 20SM SCT120 SCT180 29/03 A2979 RMK FIRST=
KXBP 081245Z AUTO 00000KT 10SM SCT012 BKN024 OVC100 24/23 A3005
     RMK AO2 T02390227=
KBVI 081247Z 00000KT 4SM HZ SCT060 26/21 A3013=
KC75 081245Z AUTO 25003KT 10SM SCT008 SCT012 BKN020 24/23 A3004
     RMK AO2=
KCCA 081255Z AUTO 00000KT 7SM OVC006 24/23 A3009 RMK AO2=
KCDN 081255Z AUTO 29004KT 10SM CLR 28/21 A3000 RMK A02 P000=
KCKI 081255Z AUTO 30004KT 10SM CLR 27/20 A2996 RMK AO2=
KLRO 081255Z AUTO 30006KT 7SM CLR 26/20 A2996 RMK AO2=
KLZU 081250Z 30004KT 10SM SKC 27/19 A3006=
KMKS 081255Z AUTO 00000KT 10SM CLR 26/21 A2997 RMK AO2 TSNO=
KPEZ 081245Z AUTO 02005KT 7SM SCT013 OVC018 25/24 A2993 RMK AO2
     T02510235=
KPKV 081246Z AUTO 04013G16KT 7SM SCT017 OVC022 25/23 A2987 RMK AO2
     T02500231=
KPPA 081245Z AUTO 36006KT 5SM BR OVC003 18/17 A3021 RMK AO2=
KPSN 081245Z AUTO 08006KT 7SM 25/24 A3004 RMK AO2 T02450235=
KPYX 081250Z AUTO 36008KT 5SM OVC004 19/18 A3019 RMK AO2
     T01880180=
KRAS 081245Z AUTO 10006KT 6SM BR FEW042 SCT060 28/26 A2987 RMK AO2
     P0001=
KRBO 081245Z AUTO 04005KT 10SM SCT004 BKN033 OVC043 26/25 A2985
     RMK AO2 P0006 T02620253=
KRFI 081245Z AUTO 10004KT 5SM BR CLR 25/23 A3004 RMK AO2
     T02450232=
KRPH 081245Z AUTO 00000KT 10SM CLR 23/21 A3003 RMK AO2
     T02330214=
KRWV 081240Z AUTO 06005KT 5SM BR OVC006 24/24 A3000 RMK AO2=
KRYW 081245Z AUTO 07006KT 1 1/4SM BR OVC003 24/23 A3001 RMK
     AO2=
KSAR 081245Z AUTO 20004KT 7SM SCT095 26/23 A3006 RMK AO2=
KSEP 081245Z AUTO 08003KT 5SM SCT002 BKN015 OVC036 23/22 A3005 RMK
     AO1=
KSLO 081243Z AUTO 21006KT 10SM SCT046 27/23 A3007 RMK AO2
     T02720225=
KSLR 081242Z AUTO 13006KT 5SM BR SCT006 OVC060 26/24 A3007 RMK AO2
     T02580237=
KSNK 081246Z AUTO 05007KT 7SM OVC005 21/20 A3011 RMK AO2
     T02080197=
KSOA 081240Z AUTO 04004KT 6SM BR 22/22 A3009 RMK AO2=
KSWW 081245Z AUTO 01004KT 4SM OVC002 22/21 A3012 RMK AO1
     T02160212=
KT65 081245Z AUTO 01007KT 10SM SCT006 OVC060 26/25 A2978 RMK AO2
     LTG DSNT S T02600248=
KT82 081245Z AUTO 08005KT 23/22 A3003 RMK AO1 T02280220=
KTAZ 081245Z AUTO 00000KT 10SM CLR 25/24 A3004 RMK AO2=
KTFP 081245Z AUTO 00000KT 10SM -DZ SCT041 BKN050 OVC060 26/25
     A2984 RMK AO2 P0002 T02630250=
KTIP 081245Z AUTO 00000KT 7SM SCT090 26/24 A3006 RMK AO2
     T02550238=
KUVA 081245Z AUTO 06005KT 10SM CLR 24/23 A2996 RMK AO2
     T02410230=
####018000581####
SPUS99 KWBC 081251
SPECI
KDFW 081248Z 15005KT 5SM -RA BR BKN012 BKN024 OVC070 26/23 A3003
     RMK AO2 RAE08B46 VIS S 2 P0000=
KTOR 081248Z AUTO 00000KT 10SM BKN026 11/09 A3032 RMK AO2=
KBMQ 081249Z AUTO 08003KT 8SM SCT010 BKN016 OVC038 24/22 A3003 RMK
     AO2 RAB00E09 P0000 $=
KCYS 081249Z 00000KT 10SM OVC016 13/11 A3037 RMK AO2=
KDVN 081249Z AUTO 32007KT 5SM BR BKN006 OVC010 23/21 A3006 RMK AO2
     CIG 003V009=
KSBN 081246Z 14003KT 4SM -RA BR FEW015 SCT035 OVC050 23/22 A3006
     RMK AO2 TSB25E45RAB1155 OCNL LTGIC DSNT SW CB DSNT SW
     P0015=
####018000074####
SAQB31 LQMO 081300
METAR LQMO 081300Z 35010KT 9999 FEW045 28/10 Q1017=
####018000074####
SAEO31 EETN 081250
METAR EETN 081250Z 31008KT CAVOK 25/18 Q1014 NOSIG=
####018000088####
SALV31 EVRA 081250
METAR EVRA 081250Z 31010KT 280V360 9999 OVC021 20/15 Q1015 NOSIG=
####018000074####
SALT34 EYVI 081250
METAR EYSA 081250Z 32011KT 9999 OVC034 18/14 Q1017=
####018000092####
SAAU31 YBBN 081230 RRA
METAR YBTL 081230Z 13007KT 9999 FEW015 SCT027 BKN040 22/20 Q1017=
####018000082####
SALT32 EYVI 081250
METAR EYKA 081250Z 28010KT 250V340 9999 OVC033 17/14 Q1016=
####018000101####
SALT31 EYVI 081250
METAR EYVI 081250Z 28009KT 4000 -SHRA BKN005 OVC014CB 15/14 Q1015
     NOSIG=
####018000102####
SPAK31 KWBC 081251
SPECI
PAED 081246Z AUTO 00000KT 10SM -RA FEW003 BKN075 BKN095 12/10
A2998=
####018000075####
SPAK32 KWBC 081251
SPECI
PASY 081243Z AUTO 02017KT 9SM OVC002 A2974=
####018000135####
SPDN31 KWBC 081251
SPECI
EKKA 081244Z 20007KT 150V230 7000 -SHRA FEW009 FEW018TCU BKN030
18/17 Q1018 TEMPO 4000 SHRA SCT020CB=
####018000137####
SPJP43 KWBC 081251
SPECI
RJNY 081234Z 02002KT 9999 FEW010 SCT015 BKN035 24/23 Q1010 RMK
1CU010 3CU015 5SC035 A2984 LIGHTNING SE=
####018000128####
SPMX31 KWBC 081251
SPECI
MMMX 081246Z 18003KT 2 1/2SM -RA HZ SCT008 BKN010 OVC020 15/14
A3020 NOSIG RMK 8/7// VSBY TWR=
####018000093####
SPUS31 KWBC 081251
SPECI
KLGA 081248Z 11009KT 5SM HZ BKN010 BKN036 OVC130 27/23 A3005=
####018000125####
SPXX61 KWBC 081251
SPECI
EGVA 081246Z AUTO 24008KT 9999 -RA FEW150 SCT180 SCT210 22/09
A3006 RMK AO2 RAB1246 SLP180=
####018000135####
SAUS41 KWBC 081200 RRI
METAR
KFDK 081248Z AUTO 00000KT 5SM HZ CLR 31/21 A3005=
KMMU 081245Z 14005KT 4SM HZ BKN015 27/23 A3006=
####018000085####
SAKW35 OKBK 081300
METAR OKBK 081300Z 34020KT 6000 -BLDU SKC 47/M05 Q0999 NOSIG=
####018000093####
SAUS42 KWBC 081200 RRG
METAR
KGLE 081244Z AUTO 14004KT 10SM BKN070 BKN080 26/23 A3006=
####018001173####
SAUS43 KWBC 081200 RRL
METAR
K1H2 081245Z AUTO 22005KT 10SM BKN043 27/24 A3005=
KAAA 081243Z AUTO 00000KT 7SM RA SCT044 BKN050 OVC060 24/22
     A3005=
KC09 081244Z AUTO 00000KT 2SM BR OVC024 22/22 A3004=
KDKB 081241Z AUTO 26007KT 5SM BR SCT006 BKN011 OVC019 22/21
     A3005=
KDNV 081245Z AUTO 15003KT 7SM CLR 25/22 A3002=
KENL 081244Z AUTO 21007KT 10SM SCT047 BKN065 27/19 A3005=
KFEP 081245Z AUTO 29004KT 10SM BKN008 24/22 A3005=
KFOA 081245Z AUTO 00000KT 10SM CLR 28/26 A3005=
KFWC 081245Z AUTO 21003KT 10SM CLR 26/24 A3006=
KGBG 081245Z AUTO 32004KT 7SM OVC004 23/22 A3005=
KHSB 081245Z AUTO 20003KT 10SM CLR 26/22 A3006=
KIJX 081245Z AUTO 00000KT 10SM CLR 24/23 A3006=
KIKK 081245Z AUTO 00000KT 5SM HZ SCT004 SCT090 26/23 A3004=
KJOT 081247Z AUTO 00000KT 2 1/2SM BR 24/22 A3003=
KLOT 081242Z AUTO 00000KT 4SM BR BKN023 OVC039 23/22 A3003=
KMQB 081245Z AUTO 28004KT 10SM OVC006 23/22 A3008=
KOLY 081243Z AUTO 00000KT 10SM SCT048 SCT060 28/24 A3005=
KPNT 081245Z AUTO 15003KT 10SM SCT027 BKN039 OVC085 23/23
     A3004=
KPPQ 081246Z AUTO 00000KT 10SM SCT001 23/23 A3008=
KPRG 081245Z AUTO 24005KT 10SM CLR 26/23 A3006=
####018000221####
SAUS44 KWBC 081200 RRG
METAR
K11R 081244Z AUTO 06006KT 5SM BR OVC006 25/24 A2997=
KBPG 081245Z AUTO 02007KT 7SM SCT004 OVC012 22/21 A3012=
KBYY 081246Z AUTO 00000KT 10SM SCT018 SCT024 BKN030 27/26
     A2989=
####018000084####
SPUS53 KWBC 081251
SPECI
KDDC 081248Z AUTO 01008KT 3SM BR OVC003 18/17 A3020=
####018000082####
SAUS51 KWBC 081200 RRE
METAR
KCBE 081249Z AUTO 00000KT 7SM CLR 25/18 A3011=
####018000105####
SAAK27 PADN 081252
METAR PAWI 081249Z 22015KT 10SM CLR 08/04 A3000 RMK ASOS VIA PHONE=
$$



####018000146####
SAUS53 KWBC 081200 RRN
METAR
KAID 081247Z 17003KT 7SM SCT070 SCT080 25/21 A3007=
KLNC 081245Z AUTO 09003KT 7SM SCT005 OVC055 25/24 A3004=
####018000083####
SAAK41 KNKA 081250
METAR PALP 081250Z 25013KT 10SM FEW110 BKN240 08/04 A3004 =
####018000188####
SAUS20 KNKA 081251
METAR KJVL 081245Z 29006KT 10SM BKN024 OVC034 23/19 A3005=
METAR KMYR 081247Z 34010KT 10SM SCT150 28/19 A2997 =
METAR KRYY 081248Z 00000KT 10SM SKC 26/21 A3008=
####018000125####
SAUS54 KWBC 081200 RRH
METAR
KIGM 081248Z AUTO 11008KT 10SM CLR 20/M02 A2997=
KJDN 081248Z AUTO 00000KT 13/08 A3020=
####018000089####
SALV31 EVRA 081250
METAR EVRA 081250Z 31010KT 280V360 9999 OVC021 20/15 Q1015 NOSIG=
####018000083####
SALT32 EYVI 081250
METAR EYKA 081250Z 28010KT 250V340 9999 OVC033 17/14 Q1016=
####018000075####
SAQB31 LQMO 081300
METAR LQMO 081300Z 35010KT 9999 FEW045 28/10 Q1017=
####018000126####
SAMP31 LMMM 081300
METAR HLLT NIL=
METAR HLLB NIL=
METAR LMML 081245Z 09009KT 040V120 9999 SCT017 30/21 Q1018 NOSIG =
####018000075####
SAEO31 EETN 081250
METAR EETN 081250Z 31008KT CAVOK 25/18 Q1014 NOSIG=
####018000337####
SAIS31 LLBG 081250
METAR LLBG 081250Z 28011KT CAVOK 30/20 Q1009 NOSIG=
METAR LLOV 081250Z 02007KT CAVOK 37/09 Q1009=
METAR LLET 081250Z 02018G28KT CAVOK 40/11 Q1004=
METAR LLHA 081250Z 29009KT 9999 FEW025 SCT030 29/20 Q1009=
METAR LLIB 081250Z 35008KT CAVOK 34/14 Q1009=
METAR LLSD 081250Z 29010KT 9999 FEW025 29/21 Q1009=
####018000103####
SALT31 EYVI 081250
METAR EYVI 081250Z 28009KT 4000 -SHRA BKN005 OVC014CB 15/14 Q1015
     NOSIG=
####018000110####
SAEO32 EETN 081250
METAR EETU 081250Z AUTO 28005KT 240V310 5000NDV -RA FEW003///
BKN039/// 21/18 Q1013=
####018000093####
SAAU31 YBBN 081230 RRA
METAR YBTL 081230Z 13007KT 9999 FEW015 SCT027 BKN040 22/20 Q1017=
####018000084####
SPUS73 KWBC 081251
SPECI
KDDC 081248Z AUTO 01008KT 3SM BR OVC003 18/17 A3020=
####018000152####
SAUS73 KWBC 081200 RRH
METAR
KGYY 081245Z VRB06KT 5SM BR BKN055 OVC070 25/23 A3002=
KIKK 081245Z AUTO 00000KT 5SM HZ SCT004 SCT090 26/23 A3004=
####018000089####
SPUS81 KWBC 081251
SPECI
KEMP 081248Z AUTO 36005KT 10SM FEW009 BKN027 22/20 A3010=
####018000127####
SAIN32 VIDP 081230 RRA
METAR VILK 081230Z 25004KT 5000 HZ SCT020 SCT025 FEW030CB BKN090
    34/25 Q1001 TEMPO TSRA SHRA=
####018000119####
SPNA14 KAWN 081251 RRH
SPECI KSZL 081240Z 00000KT 3SM BR OVC004 23/22 A3008 RMK AO2A CIG 002V007
      SLP181 $=
####018000243####
SPUS17 KAWN 081251 RRG
SPECI KHST 081244Z AUTO VRB04KT 10SM SCT018 BKN027 28/26 A2996 RMK
      AO2 BKN V SCT SLP146 $=
SPECI KIAB 081249Z AUTO 02007KT 10SM BKN008 22/21 A3011 RMK AO2 RAB1208E1223DZB1221E1222
      BKN V SCT SLP184=
####018000909####
SAXX70 KAWN 081300 RRA
METAR KQEI 081250Z AUTO 00000KT 4SM -RA OVC030 22/20 A2996 RMK A02=
METAR KQEN 081250Z AUTO 23004KT 7SM SCT075 SCT110 19/16 A3042 RMK A02=
METAR KQEP 081250Z AUTO 29001KT 3SM -SHRA OVC045 22/19 A2990 RMK A02=
METAR KQER 081250Z AUTO 15001KT 2SM BR FEW085 21/19 A2992 RMK A02=
METAR KQES 081250Z AUTO 31011KT 2SM -RA BR BKN050 19/17 A2989 RMK A02=
METAR KQEY 081250Z AUTO 00000KT 7SM FEW080 SCT100 25/18 A2963 RMK A02=
METAR KQFV 081250Z AUTO 34001KT 4SM -SHRA FEW001 BKN031 21/19 A3005
      RMK A02=
METAR KQHT 081255Z 25009G15KT 9999 FEW150 BKN200 32/02 A2993 RMK SLP099
      WND DATA ESTMD ALSTG/SLP ESTMD=
METAR KQSL 081255Z 31014G19KT 9999 CLR 45/02 A2964 RMK SLP025 Q1003MB=
METAR KQSR 081255Z 04010G14KT 9999 SCT080 SCT140 30/M01 A3005 RMK AO2A
      SLP058 WND DATA/ALSTG ESTMD=
METAR KQEV 081300Z AUTO 09001KT 7SM -RA OVC075 23/19 A2983 RMK A02=
####018000131####
SAZA42 FAJS 081300 RRB
METAR FAWK 081300Z NIL=
METAR FASK 081300Z 36010KT 9999 FEW030 17/// Q1031=
METAR FALM 081300Z NIL=
####018000118####
SAUS41 KGYX 081251
MTRMWN
METAR KMWN 081248Z 15006KT 8SM SCT/// BKN002 16/15
RMK BBLO SCT N-NE HZ VC ALQDS

####018000983####
SAUS90 KWBC 081300
METAR KIGM 081248Z AUTO 11008KT 10SM CLR 20/M02 A2997 RMK AO2
     SLP074 T02001022 TSNO=
METAR MYEG 081259Z AUTO 16005KT 10SM CLR 29/24 A2997 RMK AO2=
METAR K2G4 081250Z AUTO 00000KT 10SM CLR 24/14 A3020 RMK AO1=
METAR KCGE 081247Z AUTO 11009KT 10SM CLR 27/23 A3003 RMK AO1=
METAR KCBE 081249Z AUTO 00000KT 7SM CLR 25/18 A3011 RMK AO1=
METAR KFDK 081248Z AUTO 00000KT 5SM HZ CLR 31/21 A3005 RMK AO2=
METAR K2W6 081249Z AUTO 10008KT 7SM SCT013 27/23 A3003 RMK AO1=
METAR KCGS 081255Z AUTO 00000KT 5SM CLR 28/24 A3002 RMK AO1=
METAR KDMW 081249Z AUTO 13004KT 7SM CLR 29/22 A3005 RMK AO2=
METAR KW29 081249Z AUTO 10005KT 7SM CLR 27/23 A3002 RMK AO1=
METAR KFME 081251Z AUTO 09003KT 5SM CLR 26/22 A3004 RMK AO1=
METAR KFDK 081248Z AUTO 00000KT 5SM HZ CLR 31/21 A3005=
METAR KMWN 081248Z 15006KT 8SM SCT/// BKN002 16/15 RMK BBLO SCT
     N-NE HZ VC ALQDS=
METAR KEHA 081248Z AUTO 36006KT 17/17 RMK AO1 PK WND 10 003
     T01720167=
####018001025####
SAUS20 KNKA 081251
METAR KBNL 081255Z AUTO 32005KT 10SM CLR 28/19 A3000 RMK AO2 =
SPECI KBRO 081250Z 33007KT 10SM BKN005 BKN014 BKN029 26/26 A2976 RMK 
    AO2 RAB09E45 CIG 005V010 P0000=
METAR KCGF 081245Z 00000KT 7SM FEW075  30/20 A3008=
METAR KCQW 081255Z AUTO 33004KT 5SM  HZ CLR 28/18 A2998 RMK AO2 =
SPECI KFIT 081250Z AUTO 14006KT 8SM BKN018 27/22 A3010 RMK AO2=
METAR KGYH 081247Z 00000KT 10SM CLR 29/21 A3005=
METAR KIGQ 081240Z AUTO 00000KT 5SM -RA SCT041 SCT050 BKN090 
     24/22 A3003 RMK AO2 LTG DSNT E=
SPECI KIMT 081250Z AUTO 33004KT 10SM SCT009 21/19 A3001 RMK AO2=
METAR KLAL 081251Z 06004KT 15SM SKC 26/21 A3001=
METAR KLKR 081255Z AUTO 00000KT 7SM CLR 24/23 A3001 RMK AO2 =
METAR KRYN 081250Z 08013KT 10SM CLR 29/11 A2990=
SPECI KTVC 081250Z 00000KT 7SM BKN014 OVC028 22/21 A3000 RMK AO2 
    RAB07E50 P0001=
METAR KTYQ 081245Z AUTO 21005KT 7SM CLR 26/22 A3007 RMK AO2=
METAR KVYS 081245Z AUTO 28003KT 4SM BR SCT005 BKN008 OVC014 24/22 
     A3005 RMK AO2 T02350220=
####018000087####
SACA01 KMSC 081251
METAR TJPS 081250Z 09008KT 8SM FEW030 31/24 A2998 RMK HZ ALQDS=
####018000110####
SPCN48 CWAO 081250
SPECI CYPH 081250Z AUTO 24012KT 2 1/8SM OVC002 08/08 A2981 RMK VSBY
VRBL 0.9V9.+=

####018000098####
SAZS31 NSTU 081300
METAR NSTU 081250Z 07012KT 10SM FEW016 28/26 A2988 RMK SLP119 
T02780259=
####018000096####
SAUS98 KWBC 081252
METAR KEHA 081248Z AUTO 36006KT 17/17 RMK AO1 PK WND 10 003
T01720167=
####018000130####
SAZA42 FAJS 081300 RRB
METAR FAWK 081300Z NIL=
METAR FASK 081300Z 36010KT 9999 FEW030 17/// Q1031=
METAR FALM 081300Z NIL=
####018000338####
SPUS99 KWBC 081252
SPECI
KBRO 081250Z 33007KT 10SM BKN005 BKN014 BKN029 26/26 A2976 RMK AO2
     RAB09E45 CIG 005V010 P0000=
KFIT 081250Z AUTO 14006KT 8SM BKN018 27/22 A3010 RMK AO2=
KIMT 081250Z AUTO 33004KT 10SM SCT009 21/19 A3001 RMK AO2=
KTVC 081250Z 00000KT 7SM BKN014 OVC028 22/21 A3000 RMK AO2
     RAB07E50 P0001=
####018000836####
SAUS99 KWBC 081252
METAR
PALP 081250Z 25013KT 10SM FEW110 BKN240 08/04 A3004=
KJVL 081245Z 29006KT 10SM BKN024 OVC034 23/19 A3005=
KMYR 081247Z 34010KT 10SM SCT150 28/19 A2997=
KRYY 081248Z 00000KT 10SM SKC 26/21 A3008=
KBNL 081255Z AUTO 32005KT 10SM CLR 28/19 A3000 RMK AO2=
KCGF 081245Z 00000KT 7SM FEW075 30/20 A3008=
KCQW 081255Z AUTO 33004KT 5SM HZ CLR 28/18 A2998 RMK AO2=
KGYH 081247Z 00000KT 10SM CLR 29/21 A3005=
KIGQ 081240Z AUTO 00000KT 5SM -RA SCT041 SCT050 BKN090 24/22 A3003
     RMK AO2 LTG DSNT E=
KLAL 081251Z 06004KT 15SM SKC 26/21 A3001=
KLKR 081255Z AUTO 00000KT 7SM CLR 24/23 A3001 RMK AO2=
KRYN 081250Z 08013KT 10SM CLR 29/11 A2990=
KTYQ 081245Z AUTO 21005KT 7SM CLR 26/22 A3007 RMK AO2=
KVYS 081245Z AUTO 28003KT 4SM BR SCT005 BKN008 OVC014 24/22 A3005
     RMK AO2 T02350220=
####018000112####
SAKA31 PTYA 081300
METAR PTYA 081250Z 10009KT 12SM SCT016 BKN130 OVC300 28/24 A2990 RMK
 SLP125 T02780238=
####018000125####
SAIN32 VIDP 081230 RRA
METAR VILK 081230Z 25004KT 5000 HZ SCT020 SCT025 FEW030CB BKN090
    34/25 Q1001 TEMPO TSRA SHRA=
####018000167####
SAFA31 EKCH 081250
METAR EKVG 081251Z 19009KT 9999 -SHRA SCT006 BKN010 BKN017 11/10
Q0994 RMK/RWY 13/31 CLOSED DUE WIP. SEE NOTAM E0050/10 WIND
850FT VRB09G36KT=
####018000119####
SAPQ50 KWBC 081300
METAR
PTYA 081250Z 10009KT 12SM SCT016 BKN130 OVC300 28/24 A2990 RMK
     SLP125 T02780238=
####018000525####
SPXX60 KWBC 081252
SPECI
KHST 081244Z AUTO VRB04KT 10SM SCT018 BKN027 28/26 A2996 RMK AO2
     BKN V SCT SLP146 $=
KIAB 081249Z AUTO 02007KT 10SM BKN008 22/21 A3011 RMK AO2
     RAB1208E1223DZB1221E1222 BKN V SCT SLP184=
KSZL 081240Z 00000KT 3SM BR OVC004 23/22 A3008 RMK AO2A CIG
     002V007 SLP181 $=
PAED 081246Z AUTO 00000KT 10SM -RA FEW003 BKN075 BKN095 12/10
     A2998 RMK AO2 RAB1208E1209B1239DZB1209E1219B1238E1239 SLP152
     $=
PASY 081243Z AUTO 02017KT 9SM OVC002 A2974 RMK AO2 TSNO PNO=
####018002989####
SAUS70 KWBC 081300
METAR
KGYR 081247Z VRB03KT 20SM SCT120 SCT180 29/03 A2979 RMK FIRST=
K2G4 081250Z AUTO 00000KT 10SM CLR 24/14 A3020 RMK AO1=
KXBP 081245Z AUTO 00000KT 10SM SCT012 BKN024 OVC100 24/23 A3005
     RMK AO2 T02390227=
KBVI 081247Z 00000KT 4SM HZ SCT060 26/21 A3013=
KC75 081245Z AUTO 25003KT 10SM SCT008 SCT012 BKN020 24/23 A3004
     RMK AO2=
KCCA 081255Z AUTO 00000KT 7SM OVC006 24/23 A3009 RMK AO2=
KCDN 081255Z AUTO 29004KT 10SM CLR 28/21 A3000 RMK A02 P000=
KCKI 081255Z AUTO 30004KT 10SM CLR 27/20 A2996 RMK AO2=
KLRO 081255Z AUTO 30006KT 7SM CLR 26/20 A2996 RMK AO2=
KLZU 081250Z 30004KT 10SM SKC 27/19 A3006=
KMKS 081255Z AUTO 00000KT 10SM CLR 26/21 A2997 RMK AO2 TSNO=
KPEZ 081245Z AUTO 02005KT 7SM SCT013 OVC018 25/24 A2993 RMK AO2
     T02510235=
KPKV 081246Z AUTO 04013G16KT 7SM SCT017 OVC022 25/23 A2987 RMK AO2
     T02500231=
KPPA 081245Z AUTO 36006KT 5SM BR OVC003 18/17 A3021 RMK AO2=
KPYX 081250Z AUTO 36008KT 5SM OVC004 19/18 A3019 RMK AO2
     T01880180=
KRAS 081245Z AUTO 10006KT 6SM BR FEW042 SCT060 28/26 A2987 RMK AO2
     P0001=
KRBO 081245Z AUTO 04005KT 10SM SCT004 BKN033 OVC043 26/25 A2985
     RMK AO2 P0006 T02620253=
KRPH 081245Z AUTO 00000KT 10SM CLR 23/21 A3003 RMK AO2
     T02330214=
KRYW 081245Z AUTO 07006KT 1 1/4SM BR OVC003 24/23 A3001 RMK
     AO2=
KSAR 081245Z AUTO 20004KT 7SM SCT095 26/23 A3006 RMK AO2=
KSNK 081246Z AUTO 05007KT 7SM OVC005 21/20 A3011 RMK AO2
     T02080197=
KSWW 081245Z AUTO 01004KT 4SM OVC002 22/21 A3012 RMK AO1
     T02160212=
KT65 081245Z AUTO 01007KT 10SM SCT006 OVC060 26/25 A2978 RMK AO2
     LTG DSNT S T02600248=
KT82 081245Z AUTO 08005KT 23/22 A3003 RMK AO1 T02280220=
KTAZ 081245Z AUTO 00000KT 10SM CLR 25/24 A3004 RMK AO2=
KTFP 081245Z AUTO 00000KT 10SM -DZ SCT041 BKN050 OVC060 26/25
     A2984 RMK AO2 P0002 T02630250=
KTIP 081245Z AUTO 00000KT 7SM SCT090 26/24 A3006 RMK AO2
     T02550238=
KUVA 081245Z AUTO 06005KT 10SM CLR 24/23 A2996 RMK AO2
     T02410230=
KFDK 081248Z AUTO 00000KT 5SM HZ CLR 31/21 A3005 RMK AO2=
K2W6 081249Z AUTO 10008KT 7SM SCT013 27/23 A3003 RMK AO1=
KCGS 081255Z AUTO 00000KT 5SM CLR 28/24 A3002 RMK AO1=
KW29 081249Z AUTO 10005KT 7SM CLR 27/23 A3002 RMK AO1=
PALP 081250Z 25013KT 10SM FEW110 BKN240 08/04 A3004=
KJVL 081245Z 29006KT 10SM BKN024 OVC034 23/19 A3005=
KMYR 081247Z 34010KT 10SM SCT150 28/19 A2997=
KRYY 081248Z 00000KT 10SM SKC 26/21 A3008=
KBNL 081255Z AUTO 32005KT 10SM CLR 28/19 A3000 RMK AO2=
KCGF 081245Z 00000KT 7SM FEW075 30/20 A3008=
KCQW 081255Z AUTO 33004KT 5SM HZ CLR 28/18 A2998 RMK AO2=
KGYH 081247Z 00000KT 10SM CLR 29/21 A3005=
KLAL 081251Z 06004KT 15SM SKC 26/21 A3001=
KLKR 081255Z AUTO 00000KT 7SM CLR 24/23 A3001 RMK AO2=
KRYN 081250Z 08013KT 10SM CLR 29/11 A2990=
KTYQ 081245Z AUTO 21005KT 7SM CLR 26/22 A3007 RMK AO2=
KVYS 081245Z AUTO 28003KT 4SM BR SCT005 BKN008 OVC014 24/22 A3005
     RMK AO2 T02350220=
####018000085####
SAUS80 KWBC 081252
METAR
KSOA 081240Z AUTO 04004KT 6SM BR 22/22 A3009 RMK AO2=
####018000353####
SAUS70 KWBC 081252
METAR
KRWV 081240Z AUTO 06005KT 5SM BR OVC006 24/24 A3000 RMK AO2=
KSLO 081243Z AUTO 21006KT 10SM SCT046 27/23 A3007 RMK AO2
     T02720225=
KSLR 081242Z AUTO 13006KT 5SM BR SCT006 OVC060 26/24 A3007 RMK AO2
     T02580237=
KIGQ 081240Z AUTO 00000KT 5SM -RA SCT041 SCT050 BKN090 24/22 A3003
     RMK AO2 LTG DSNT E=
####018000171####
SPUS80 KWBC 081252
SPECI
KSBN 081246Z 14003KT 4SM -RA BR FEW015 SCT035 OVC050 23/22 A3006
     RMK AO2 TSB25E45RAB1155 OCNL LTGIC DSNT SW CB DSNT SW
     P0015=
####018000748####
SPUS70 KWBC 081252
SPECI
KDFW 081248Z 15005KT 5SM -RA BR BKN012 BKN024 OVC070 26/23 A3003
     RMK AO2 RAE08B46 VIS S 2 P0000=
KTOR 081248Z AUTO 00000KT 10SM BKN026 11/09 A3032 RMK AO2=
KBMQ 081249Z AUTO 08003KT 8SM SCT010 BKN016 OVC038 24/22 A3003 RMK
     AO2 RAB00E09 P0000 $=
KCYS 081249Z 00000KT 10SM OVC016 13/11 A3037 RMK AO2=
KDVN 081249Z AUTO 32007KT 5SM BR BKN006 OVC010 23/21 A3006 RMK AO2
     CIG 003V009=
KBRO 081250Z 33007KT 10SM BKN005 BKN014 BKN029 26/26 A2976 RMK AO2
     RAB09E45 CIG 005V010 P0000=
KFIT 081250Z AUTO 14006KT 8SM BKN018 27/22 A3010 RMK AO2=
KIMT 081250Z AUTO 33004KT 10SM SCT009 21/19 A3001 RMK AO2=
KTVC 081250Z 00000KT 7SM BKN014 OVC028 22/21 A3000 RMK AO2
     RAB07E50 P0001=
####018000554####
SAUS80 KWBC 081300
METAR
KIGM 081248Z AUTO 11008KT 10SM CLR 20/M02 A2997 RMK AO2 SLP074
     T02001022 TSNO=
KPSN 081245Z AUTO 08006KT 7SM 25/24 A3004 RMK AO2 T02450235=
KRFI 081245Z AUTO 10004KT 5SM BR CLR 25/23 A3004 RMK AO2
     T02450232=
KSEP 081245Z AUTO 08003KT 5SM SCT002 BKN015 OVC036 23/22 A3005 RMK
     AO1=
KCBE 081249Z AUTO 00000KT 7SM CLR 25/18 A3011 RMK AO1=
KMWN 081248Z 15006KT 8SM SCT/// BKN002 16/15 RMK BBLO SCT N-NE HZ
     VC ALQDS=
KEHA 081248Z AUTO 36006KT 17/17 RMK AO1 PK WND 10 003
     T01720167=
####018000095####
SAAU31 KWBC 081200 RRE
METAR
YBTL 081230Z 13007KT 9999 FEW015 SCT027 BKN040 22/20 Q1017=
####018000168####
SAAW31 KWBC 081230 RRA
METAR
LLBG 081250Z 28011KT CAVOK 30/20 Q1009 NOSIG=
LLET 081250Z 02018G28KT CAVOK 40/11 Q1004=
LLOV 081250Z 02007KT CAVOK 37/09 Q1009=
####018000081####
SAEE31 KWBC 081230 RRC
METAR
EYSA 081250Z 32011KT 9999 OVC034 18/14 Q1017=
####018000097####
SPUS31 KWBC 081252
SPECI
KDFW 081248Z 15005KT 5SM -RA BR BKN012 BKN024 OVC070 26/23 A3003=
####018000095####
SAMM31 KWBC 081230 RRA
METAR
LMML 081245Z 09009KT 040V120 9999 SCT017 30/21 Q1018 NOSIG=
####018000187####
SAXX99 KWBC 081200 RRX
METAR
KCBE 081249Z AUTO 00000KT 7SM CLR 25/18 A3011 RMK AO1=
VILK 081230Z 25004KT 5000 HZ SCT020 SCT025 FEW030CB BKN090 34/25
     Q1001 TEMPO TSRA SHRA=
####018000178####
SACN60 CWAO 081200 RRC
PHE SA 1200 AUTO8 M M M M/09/09/MMMM/M/ M 37MM=
PRD SA 1200 AUTO8 M M M M/10/07/2205/M/ M 78MM=
PSA SA 1200 AUTO8 M M M M/09/09/MMMM/M/ M 27MM=

####018000083####
SACN94 CWAO 081200 RRF
WSQ SA 1200 AUTO8 M M M 101/06/04/2607/M/ 3004 54MM=

####018000083####
SACN88 CWAO 081200 RRG
WZN SA 1200 AUTO8 M M M 216/12/M/1109/M/M 3006 4MMM=

####018000390####
SACN59 CWAO 081200 RRH
NLB SA 1200 AUTO8 M M M M/13/11/2407/M/0009 M 24MM=
NLD SA 1200 AUTO8 M M M M/08/07/3201/M/0004 M 90MM=
NNR SA 1200 AUTO8 M M M M/09/07/2605/M/ M 49MM=
NTK SA 1200 AUTO8 M M M M/11/10/2103/M/ M 39MM=
PCM SA 1200 AUTO8 M M M M/09/08/MMMM/M/0004 M 20MM=
PQU SA 1200 AUTO8 M M M M/11/09/1702/M/ M 98MM=
PTR SA 1200 AUTO8 M M M M/13/10/MMMM/M/ M 20MM=

####018000083####
SACN96 CWAO 081200 RRG
XND SA 1200 AUTO8 M M M 224/07/06/MM03/M/ 6001 82MM=

####018000083####
SACN97 CWAO 081200 RRG
XLL SA 1200 AUTO8 M M M 158/10/10/0000/M/ 5005 33MM=

####018000132####
SACN48 CWAO 081200 RRE
METAR CYMU 081200Z 10005KT 15SM FEW008 SCT035 BKN045 10/10 A2988 RMK
SF2SC2SC3 VIA CYQB FIC SLP124=

####018000084####
SACN89 CWAO 081200 RRE
WDT SA 1200 AUTO7 M M M 165/22/20/1202/M/M 0000 12MM=

####018000110####
SAUS46 KSGX 081252
MTRSAN
METAR KSAN 081251Z 32004KT 8SM OVC015 16/14 A2993 RMK AO2 SLP133 
T01610139
####018000077####
SPUS53 KWBC 081252
SPECI
KCYS 081249Z 00000KT 10SM OVC016 13/11 A3037=
####018000069####
SAEO32 EETN 081250
METAR EEKE 081250Z 33012KT CAVOK 24/12 Q1016=
####018000124####
SAMP31 LMMM 081300
METAR HLLT NIL=
METAR HLLB NIL=
METAR LMML 081245Z 09009KT 040V120 9999 SCT017 30/21 Q1018 NOSIG =
####018000097####
SPUS72 KWBC 081252
SPECI
KDFW 081248Z 15005KT 5SM -RA BR BKN012 BKN024 OVC070 26/23 A3003=
####018000077####
SPUS73 KWBC 081252
SPECI
KCYS 081249Z 00000KT 10SM OVC016 13/11 A3037=
####018000091####
SAAK41 KNKA 081251
METAR PAWI 081249Z 22015KT 10SM CLR 08/04 A3000 RMK ASOS VIA PHONE=
####018000078####
SAMZ40 FQMA 081300
METAR FQBR 081300Z 19008KT 9999 FEW020 24/18 Q1024=

####018000072####
SAAK17 KAWN 081300
PATC SA 1255 AWOS CLR BLO 120 10 46/43/0209/013=
####018000091####
SAXX70 KAWN 081200 RRW
METAR KQFU 081230Z AUTO 11002KT 7SM OVC065 23/18 A2993 RMK A02=
####018000586####
SAUS20 KNKA 081252
METAR KAEG 081250Z 00000KT 10SM SKC 15/08 A3031=
METAR KBAZ 081251Z AUTO 06007KT 5SM -RA BR OVC009 25/24 A2994 RMK 
    AO2 RAB27 CIG 006V013 SLP131 P0001 T02500239=
SPECI KCRS 081250Z AUTO 07005KT 10SM FEW013 BKN023 BKN080 26/24 
    A3002 RMK AO2=
METAR KHDO 081251Z AUTO 01006KT 10SM CLR 25/23 A2997 RMK AO2 SLP130 
    T02500228=
METAR KLBE 081250Z 00000KT 5SM BR SCT060 24/20 A3011=
METAR KOLV 081250Z 00000KT 7SM FEW250 27/26 A3009=
METAR KOQU 081250Z 14004KT 4SM BR OVC005 23/ A3014=
METAR KUES 081245Z 27004KT 10SM OVC014 21/19 A3005=
####018000087####
SAEW32 LEMM 081230 RRB
METAR LEGR 081230Z 18016KT 140V210 9999 FEW060 39/06 Q1017=
####018000130####
SAUS44 KSJT 081252
MTRJCT
METAR KJCT 081251Z AUTO 00000KT 6SM BR FEW004 BKN026 23/22 A3003 RMK 
AO2 SLP131 T02280217 TSNO
####018000130####
SAUS44 KCRP 081252
MTRVCT
METAR KVCT 081251Z 28003KT 10SM BKN020 OVC029 24/24 A2990 RMK AO2 
RAE49 SLP122 P0026 T02440244
####018000146####
SAUS44 KMAF 081252
MTRGDP
METAR KGDP 081251Z AUTO 05020KT 10SM FEW042 OVC110 17/16 A3024 RMK 
AO2 PK WND 05026/1156 SLP168 T01670161 TSNO
####018002268####
SAUS20 KNKA 081252
METAR KLGA 081251Z 12008KT 5SM HZ BKN010 BKN036 OVC130 28/23 A3005 
    RMK AO2 SLP175 T02780233=
METAR KLGU 081251Z AUTO 00000KT 10SM CLR 12/07 A3018 RMK AO2 SLP176 
    T01170067=
SPECI KMAF 081251Z 02008KT 10SM BKN005 OVC015 21/20 A3012 RMK AO2 
    CIG 004V008=
METAR KMDW 081251Z 00000KT 4SM -RA BR FEW007 BKN039 OVC050 24/22 
    A3003 RMK AO2 SLP159 P0003 T02390222=
METAR KMPV 081251Z AUTO 00000KT 5SM HZ CLR 26/22 A3011 RMK AO2 
    SLP189 T02610217=
METAR KMYL 081251Z AUTO 00000KT 10SM CLR 09/04 A3020 RMK AO2 SLP192 
    T00890044=
METAR KONM 081247Z AUTO 34004KT 10SM OVC080 18/14 A3024 RMK AO2 
     T01800144=
METAR KORD 081251Z 26004KT 5SM BR FEW006 BKN022 OVC055 23/22 A3003 
    RMK AO2 RAB05E26 SLP165 P0001 T02330222=
METAR KOXR 081251Z AUTO 27006KT 10SM OVC009 14/13 A2991 RMK AO2 
    SLP128 T01440128 $=
METAR KPHX 081251Z 00000KT 10SM SCT170 31/03 A2979 RMK AO2 SLP066 
    T03060033 $=
METAR KPIT 081251Z 00000KT 6SM HZ FEW055 26/19 A3010 RMK AO2 SLP186 
    T02610194=
METAR KPWM 081251Z 19009KT 7SM OVC004 22/20 A3010 RMK AO2 SLP194 
    T02170200=
METAR KRDU 081251Z 36004KT 5SM HZ BKN080 BKN250 29/19 A3000 RMK AO2 
    SLP152 T02890189=
METAR KROW 081251Z 36007KT 10SM SCT039 OVC050 20/16 A3019 RMK AO2 
    SLP167 T02000161=
METAR KSAW 081250Z 31003KT 10SM SCT015 20/18 A2999=
METAR KSJT 081251Z 04005KT 10SM OVC008 23/21 A3006 RMK AO2 SLP154 
    T02280211=
METAR KSLK 081251Z AUTO 22004KT 8SM CLR 26/21 A3009 RMK AO2 SLP176 
    T02610206=
SPECI KSLN 081251Z 35010KT 5SM BR OVC006 21/19 A3014 RMK AO2 CIG 
    004V008=
METAR KSMO 081251Z AUTO 00000KT 9SM OVC009 16/13 A2991 RMK AO2 
    SLP127 T01610128=
METAR KSPS 081252Z 04006KT 10SM CLR 24/22 A3004 RMK AO2 SLP160 
    T02390222=
METAR KSTL 081251Z 24004KT 10SM BKN025TCU BKN080 BKN150 BKN250 26/23 
    A3007 RMK AO2 SLP168 TCU W-NE VCSH W-N T02610233=
METAR KTEB 081251Z 18007KT 4SM HZ OVC017 27/23 A3004 RMK AO2 SLP171 
    T02720228=
METAR KVNY 081251Z 17003KT 3SM BR OVC008 15/13 A2990 RMK AO2 SLP120 
    T01500128=
METAR KW29 081249Z AUTO 10005KT 7SM CLR 27/23 A3002 RMK AO1=
METAR KYNG 081251Z 14005KT 7SM FEW060 26/18 A3009 RMK AO2 SLP179 
    T02610183=
####018002923####
SAUS20 KNKA 081252
METAR K2G4 081250Z AUTO 00000KT 10SM CLR 24/14 A3020 RMK AO1=
METAR K2W6 081249Z AUTO 10008KT 7SM SCT013 27/23 A3003 RMK AO1=
METAR K36U 081255Z AUTO 00000KT 10SM CLR 10/06 A3024 RMK AO2=
METAR KACT 081251Z 04005KT 9SM FEW010 BKN016 OVC021 26/24 A3001 RMK 
    AO2 SLP155 T02560239=
METAR KAHN 081251Z 31003KT 7SM CLR 26/21 A3005 RMK AO2 SLP165 
    T02610206 $=
METAR KALB 081251Z 00000KT 7SM FEW080 28/20 A3004 RMK AO2 SLP171 
    T02780200=
METAR KASH 081251Z VRB04KT 6SM HZ OVC016 27/22 A3009 RMK AO2 
    T02660216 OVC V BKN SLP191=
METAR KAVX 081251Z AUTO 27005KT M1/4SM FG VV001 12/12 A2993 RMK AO2 
    SLP129 T01170117 TSNO=
METAR KBDL 081251Z 17007KT 3SM HZ OVC008 25/22 A3008 RMK AO2 SLP183 
    T02500222=
METAR KBGD 081251Z AUTO 03006KT 10SM SCT045 BKN055 OVC120 19/17 
    A3020 RMK AO2 SLP196 T01890172=
METAR KBKW 081251Z AUTO 00000KT 5SM HZ CLR 24/19 A3018 RMK AO2 
    SLP179 T02440189 VISNO RWY19 $=
METAR KCAK 081251Z 23003KT 7SM CLR 26/18 A3009 RMK AO2 SLP179 
    T02610183=
METAR KCBE 081249Z AUTO 00000KT 7SM CLR 25/18 A3011 RMK AO1=
METAR KCGE 081247Z AUTO 11009KT 10SM CLR 27/23 A3003 RMK AO1=
METAR KCGS 081255Z AUTO 00000KT 5SM CLR 28/24 A3002 RMK AO1=
METAR KCHD 081247Z 00000KT 30SM SCT100 SCT170 27/08 A2980=
METAR KCLE 081251Z 20005KT 10SM FEW060 SCT100 27/19 A3008 RMK AO2 
    SLP179 T02670189 $=
METAR KCMH 081251Z 00000KT 6SM HZ FEW070 26/21 A3008 RMK AO2 SLP179 
    T02610206=
SPECI KCRQ 081251Z AUTO 00000KT 5SM HZ FEW007 OVC013 17/14 A2990 RMK 
    AO2=
METAR KCSG 081251Z 00000KT 10SM CLR 27/20 A3004 RMK AO2 SLP167 
    T02720200=
METAR KDAW 081251Z AUTO VRB04KT 4SM HZ OVC011 24/21 A3009 RMK AO2 
    SLP186 T02440211=
SPECI KDBQ 081251Z 00000KT 5SM BR SCT005 SCT021 22/21 A3007 RMK AO2=
METAR KFDK 081248Z AUTO 00000KT 5SM HZ CLR 31/21 A3005 RMK AO2=
METAR KDMW 081249Z AUTO 13004KT 7SM CLR 29/22 A3005 RMK AO2=
METAR KDUC 081252Z AUTO 02006KT 10SM CLR 23/23 A3006 RMK AO2=
METAR KEKM 081250Z 32003KT 5SM RA BKN060 BKN075  25/22 A3006 RMK
    AO2=
METAR KEKN 081251Z AUTO 00000KT 4SM HZ CLR 22/18 A3017 RMK AO2 
    SLP205 T02220183 TSNO=
METAR KELP 081251Z 04009KT 10SM FEW035 SCT060 SCT110 22/15 A3014 RMK 
    AO2 SLP133 T02220150=
METAR KERI 081251Z 16007KT 9SM CLR 27/19 A3006 RMK AO2 SLP174 
    T02720189=
METAR KEWR 081251Z VRB03KT 2SM BR BKN004 OVC007 26/25 A3005 RMK AO2 
    SFC VIS 3 SLP177 T02610250=
METAR KFME 081251Z AUTO 09003KT 5SM CLR 26/22 A3004 RMK AO1=
METAR KHTS 081251Z 00000KT 3SM HZ CLR 26/22 A3010 RMK AO2 SLP182 
    T02560217=
METAR KHXD 081250Z 24008KT 10SM SKC 27/21 A3000=
METAR KILG 081251Z 14005KT 3/4SM R01/5500VP6000FT BR OVC003 25/23 
    A3004 RMK AO2 SFC VIS 1 1/2 SLP171 T02500233=
METAR KJFK 081251Z 15007KT 10SM FEW009 BKN014 BKN030 OVC130 26/21 
    A3006 RMK AO2 RAB1159E10 SLP180 P0000 T02560211 $=
####018000110####
SAAK41 KNKA 081252
METAR PAWR 081250Z 06009G23KT 3SM -RA BR OVC008 12/11 A3007 RMK
     SLP183 NOSPECI=
####018000123####
SAUS45 KPIH 081252
MTRSNT
METAR KSNT 081251Z AUTO 00000KT 00/M01 A3035 RMK AO2 SLP207 
T00001011 PWINO FZRANO TSNO
####018000115####
SAUS43 KMQT 081252
MTRP59
METAR KP59 081251Z AUTO 36006KT 19/16 A2998 RMK AO2 SLP147 T01940156 
PWINO TSNO
####018000118####
SAUS41 KGYX 081252
MTRCON
METAR KCON 081251Z AUTO 14004KT 4SM HZ OVC010 24/22 A3009 RMK AO2 
SLP186 T02440217
####018000141####
SAUS41 KAKQ 081252
MTRORF
METAR KORF 081251Z 07006KT 10SM -RA FEW016 BKN080 BKN100 27/21 A2999 
RMK AO2 RAB38 SLP156 P0000 T02670211
####018000412####
SPUS99 KWBC 081253
SPECI
KCRS 081250Z AUTO 07005KT 10SM FEW013 BKN023 BKN080 26/24 A3002
     RMK AO2=
KCRQ 081251Z AUTO 00000KT 5SM HZ FEW007 OVC013 17/14 A2990 RMK
     AO2=
KDBQ 081251Z 00000KT 5SM BR SCT005 SCT021 22/21 A3007 RMK AO2=
KMAF 081251Z 02008KT 10SM BKN005 OVC015 21/20 A3012 RMK AO2 CIG
     004V008=
KSLN 081251Z 35010KT 5SM BR OVC006 21/19 A3014 RMK AO2 CIG
     004V008=
####018000183####
SAES20 MSLP 081300
METAR MSLP 081250Z 00000KT 9999 FEW020 BKN250 24/23 Q1011 A2986 FEW110 DSTN CB TO SW=

METAR MSSS 081250Z 35002KT 9999 FEW020 SCT120 BKN300 21/20 Q1015 A2998=
####018000127####
SAPR01 SPIM 081300
METAR
SPIM 081300Z 18004KT 6000 SCT015 OVC023 16/14 Q1014 NOSIG
         RMK BIRD HAZARD RWY 15 PP000=
####018000273####
SASW39 LSSW 081250
METAR LSMA 081250Z 04009KT CAVOK 28/16 Q1021 RMK BLU=
METAR LSMD 081250Z NIL=
METAR LSME 081250Z VRB02KT 9999 FEW075 29/14 Q1021 RMK BLU=
METAR LSMM 081250Z NIL=
METAR LSMP 081250Z NIL=
METAR LSMS 081250Z 24010KT 210V290 9999 FEW120 31/13 Q1019=
####018003710####
SAUS99 KWBC 081253
METAR
PAWI 081249Z 22015KT 10SM CLR 08/04 A3000 RMK ASOS VIA PHONE=
KAEG 081250Z 00000KT 10SM SKC 15/08 A3031=
KBAZ 081251Z AUTO 06007KT 5SM -RA BR OVC009 25/24 A2994 RMK AO2
     RAB27 CIG 006V013 SLP131 P0001 T02500239=
KHDO 081251Z AUTO 01006KT 10SM CLR 25/23 A2997 RMK AO2 SLP130
     T02500228=
KLBE 081250Z 00000KT 5SM BR SCT060 24/20 A3011=
KOLV 081250Z 00000KT 7SM FEW250 27/26 A3009=
KOQU 081250Z 14004KT 4SM BR OVC005 23/ A3014=
KUES 081245Z 27004KT 10SM OVC014 21/19 A3005=
K2G4 081250Z AUTO 00000KT 10SM CLR 24/14 A3020 RMK AO1=
K2W6 081249Z AUTO 10008KT 7SM SCT013 27/23 A3003 RMK AO1=
K36U 081255Z AUTO 00000KT 10SM CLR 10/06 A3024 RMK AO2=
KACT 081251Z 04005KT 9SM FEW010 BKN016 OVC021 26/24 A3001 RMK AO2
     SLP155 T02560239=
KAHN 081251Z 31003KT 7SM CLR 26/21 A3005 RMK AO2 SLP165 T02610206
     $=
KALB 081251Z 00000KT 7SM FEW080 28/20 A3004 RMK AO2 SLP171
     T02780200=
KASH 081251Z VRB04KT 6SM HZ OVC016 27/22 A3009 RMK AO2 T02660216
     OVC V BKN SLP191=
KAVX 081251Z AUTO 27005KT M1/4SM FG VV001 12/12 A2993 RMK AO2
     SLP129 T01170117 TSNO=
KBDL 081251Z 17007KT 3SM HZ OVC008 25/22 A3008 RMK AO2 SLP183
     T02500222=
KBGD 081251Z AUTO 03006KT 10SM SCT045 BKN055 OVC120 19/17 A3020
     RMK AO2 SLP196 T01890172=
KBKW 081251Z AUTO 00000KT 5SM HZ CLR 24/19 A3018 RMK AO2 SLP179
     T02440189 VISNO RWY19 $=
KCAK 081251Z 23003KT 7SM CLR 26/18 A3009 RMK AO2 SLP179
     T02610183=
KCBE 081249Z AUTO 00000KT 7SM CLR 25/18 A3011 RMK AO1=
KCGE 081247Z AUTO 11009KT 10SM CLR 27/23 A3003 RMK AO1=
KCGS 081255Z AUTO 00000KT 5SM CLR 28/24 A3002 RMK AO1=
KCHD 081247Z 00000KT 30SM SCT100 SCT170 27/08 A2980=
KCLE 081251Z 20005KT 10SM FEW060 SCT100 27/19 A3008 RMK AO2 SLP179
     T02670189 $=
KCMH 081251Z 00000KT 6SM HZ FEW070 26/21 A3008 RMK AO2 SLP179
     T02610206=
KCSG 081251Z 00000KT 10SM CLR 27/20 A3004 RMK AO2 SLP167
     T02720200=
KDAW 081251Z AUTO VRB04KT 4SM HZ OVC011 24/21 A3009 RMK AO2 SLP186
     T02440211=
KFDK 081248Z AUTO 00000KT 5SM HZ CLR 31/21 A3005 RMK AO2=
KDMW 081249Z AUTO 13004KT 7SM CLR 29/22 A3005 RMK AO2=
KDUC 081252Z AUTO 02006KT 10SM CLR 23/23 A3006 RMK AO2=
KEKM 081250Z 32003KT 5SM RA BKN060 BKN075 25/22 A3006 RMK AO2=
KEKN 081251Z AUTO 00000KT 4SM HZ CLR 22/18 A3017 RMK AO2 SLP205
     T02220183 TSNO=
KELP 081251Z 04009KT 10SM FEW035 SCT060 SCT110 22/15 A3014 RMK AO2
     SLP133 T02220150=
KERI 081251Z 16007KT 9SM CLR 27/19 A3006 RMK AO2 SLP174
     T02720189=
KEWR 081251Z VRB03KT 2SM BR BKN004 OVC007 26/25 A3005 RMK AO2 SFC
     VIS 3 SLP177 T02610250=
KFME 081251Z AUTO 09003KT 5SM CLR 26/22 A3004 RMK AO1=
KHTS 081251Z 00000KT 3SM HZ CLR 26/22 A3010 RMK AO2 SLP182
     T02560217=
KHXD 081250Z 24008KT 10SM SKC 27/21 A3000=
KILG 081251Z 14005KT 3/4SM R01/5500VP6000FT BR OVC003 25/23 A3004
     RMK AO2 SFC VIS 1 1/2 SLP171 T02500233=
KJFK 081251Z 15007KT 10SM FEW009 BKN014 BKN030 OVC130 26/21 A3006
     RMK AO2 RAB1159E10 SLP180 P0000 T02560211 $=
KLGA 081251Z 12008KT 5SM HZ BKN010 BKN036 OVC130 28/23 A3005 RMK
     AO2 SLP175 T02780233=
KLGU 081251Z AUTO 00000KT 10SM CLR 12/07 A3018 RMK AO2 SLP176
     T01170067=
KMDW 081251Z 00000KT 4SM -RA BR FEW007 BKN039 OVC050 24/22 A3003
     RMK AO2 SLP159 P0003 T02390222=
KMPV 081251Z AUTO 00000KT 5SM HZ CLR 26/22 A3011 RMK AO2 SLP189
     T02610217=
KMYL 081251Z AUTO 00000KT 10SM CLR 09/04 A3020 RMK AO2 SLP192
     T00890044=
KONM 081247Z AUTO 34004KT 10SM OVC080 18/14 A3024 RMK AO2
     T01800144=
KORD 081251Z 26004KT 5SM BR FEW006 BKN022 OVC055 23/22 A3003 RMK
     AO2 RAB05E26 SLP165 P0001 T02330222=
####018000080####
SALI20 GLRB 081300
METAR GLRB 081300Z 25005KT 9999 BKN018 30/25 Q1013 NOSIG=
####018000487####
SADR31 MDSD 081300
METAR
MDPP 081300Z 00000KT 8000 DU FEW018 29/26 Q1016 DU/ALL QDS=
MDST 081300Z 11004KT 5000 BR SCT018 25/24 Q1016 BR/ALL QDS=
MDCY 081300Z 00000KT 9999 FEW020 28/26 Q1015=
MDPC 081300Z 09004KT 9999 FEW018 27/24 Q1013=
MDJB 081300Z 03006KT 5000 BR SCT018 SCT300 28/25 Q1015 BR/W/NW=
MDLR 081300Z 10008KT 9999 FEW018 SCT280 28/25 Q1016 
MDBH 081300Z 09006KT 9999 FEW017CB FEW018 SCT300 30/27 Q1016 CB/SW=
MDSD 081300Z 06004KT 9999 FEW020 27/23 Q1015=
####018001414####
SAUS99 KWBC 081253 RRA
METAR
KOXR 081251Z AUTO 27006KT 10SM OVC009 14/13 A2991 RMK AO2 SLP128
     T01440128 $=
KPHX 081251Z 00000KT 10SM SCT170 31/03 A2979 RMK AO2 SLP066
     T03060033 $=
KPIT 081251Z 00000KT 6SM HZ FEW055 26/19 A3010 RMK AO2 SLP186
     T02610194=
KPWM 081251Z 19009KT 7SM OVC004 22/20 A3010 RMK AO2 SLP194
     T02170200=
KRDU 081251Z 36004KT 5SM HZ BKN080 BKN250 29/19 A3000 RMK AO2
     SLP152 T02890189=
KROW 081251Z 36007KT 10SM SCT039 OVC050 20/16 A3019 RMK AO2 SLP167
     T02000161=
KSAW 081250Z 31003KT 10SM SCT015 20/18 A2999=
KSJT 081251Z 04005KT 10SM OVC008 23/21 A3006 RMK AO2 SLP154
     T02280211=
KSLK 081251Z AUTO 22004KT 8SM CLR 26/21 A3009 RMK AO2 SLP176
     T02610206=
KSMO 081251Z AUTO 00000KT 9SM OVC009 16/13 A2991 RMK AO2 SLP127
     T01610128=
KSPS 081252Z 04006KT 10SM CLR 24/22 A3004 RMK AO2 SLP160
     T02390222=
KSTL 081251Z 24004KT 10SM BKN025TCU BKN080 BKN150 BKN250 26/23
     A3007 RMK AO2 SLP168 TCU W-NE VCSH W-N T02610233=
KTEB 081251Z 18007KT 4SM HZ OVC017 27/23 A3004 RMK AO2 SLP171
     T02720228=
KVNY 081251Z 17003KT 3SM BR OVC008 15/13 A2990 RMK AO2 SLP120
     T01500128=
KW29 081249Z AUTO 10005KT 7SM CLR 27/23 A3002 RMK AO1=
KYNG 081251Z 14005KT 7SM FEW060 26/18 A3009 RMK AO2 SLP179
     T02610183=
PAWR 081250Z 06009G23KT 3SM -RA BR OVC008 12/11 A3007 RMK SLP183
     NOSPECI=
####018000136####
SALV32 EVRA 081250
METAR EVLA 081250Z 33006KT 270V040 CAVOK 22/16 Q1019=
METAR EVVA 081250Z AUTO 32009KT 300V010 CAVOK 22/17 Q1018=
####018000265####
SASW31 LSSW 081250
METAR LSZH 081250Z VRB03KT CAVOK 29/12 Q1021 NOSIG=
METAR LSGG 081250Z 21008KT 170V260 9999 FEW060 SCT300 32/11 Q1021
    NOSIG=
METAR LSZB 081250Z 29006KT CAVOK 30/12 Q1021 NOSIG=
METAR LSZA 081250Z 18005KT 9999 FEW055 29/15 Q1021 NOSIG=
####018000111####
SAMO31 ZMUB 081300
METAR ZMUB 081300Z 15011MPS 9999 SCT030CB SCT033 16/11 Q1007 NOSIG 
 RMK QFE648.8 74=
####018000079####
SAAI41 FHAW 081250
METAR FHAW 081250Z 12014KT 9999 FEW030 29/18 Q1016 BLU=
####018000127####
SAUS46 KLOX 081252
MTRSMX
METAR KSMX 081251Z 30005KT 3SM BR OVC005 12/11 A2993 RMK AO2 CIG 
002V007 SLP138 T01170111 $
####018000091####
SPUS42 KWBC 081253
SPECI
KBRO 081250Z 33007KT 10SM BKN005 BKN014 BKN029 26/26 A2976=
####018000132####
SAUS41 KOKX 081253
MTRNYC
METAR KNYC 081251Z AUTO VRB04KT 5SM HZ BKN011 BKN020 26/23 A3008 RMK 
AO2 SLP176 T02610233 TSNO $
####018000118####
SAUS45 KTWC 081252
MTRSAD
METAR KSAD 081251Z AUTO 14010KT 10SM CLR 24/12 A3003 RMK AO2 SLP119 
T02390122 TSNO
####018000123####
SAUS41 KPHI 081253
MTRACY
SPECI KACY 081251Z 10007KT 7SM -RA SCT013 BKN018 BKN031 24/22 A3006 
RMK AO2 RAB37 P0001
####018000115####
SAUS43 KDTX 081253
MTRP58
METAR KP58 081251Z AUTO 26004KT 26/23 A3000 RMK AO2 SLP147 T02610228 
PWINO TSNO
####018000110####
SAUS41 KPHI 081253
MTRABE
METAR KABE 081251Z 00000KT 5SM HZ CLR 27/22 A3005 RMK AO2 SLP172 
T02720217
####018000091####
SPUS72 KWBC 081253
SPECI
KBRO 081250Z 33007KT 10SM BKN005 BKN014 BKN029 26/26 A2976=
####018000083####
SPCN47 CWAO 081250
SPECI CYKO 081250Z 23008KT 2SM -DZ BR OVC002 RMK FG1ST7=

####018000083####
SPUS73 KWBC 081253
SPECI
KTVC 081250Z 00000KT 7SM BKN014 OVC028 22/21 A3000=
####018000568####
SAIN31 VABB 081240
METAR VABB 081240Z 18007KT 3100 HZ SCT012 SCT018 FEW025TCU BKN100
     28/25 Q1006 TEMPO 1500 SHRA=
METAR VANP 081240Z 26004KT 3000 HZ SCT018 SCT025 FEW030CB BKN100
    28/27 Q1005 TEMPO 1500 IN RA/TSRA=
METAR VOHS 081240Z 25005KT 5000 HZ SCT010 SCT015 BKN080 25/23 Q1010
    NOSIG=
METAR VOHY 081240Z 25005KT 5000 HZ SCT010 SCT015 BKN080 25/19 Q1010
    NOSIG=
METAR VOMM 081240Z 12006KT 4000 HZ SCT015 SCT100 OVC200 28/26 Q1008
     NOSIG=
METAR VOTV 081240Z 32005KT 5000 HZ FEW015 FEW025CB BKN200 27/24
    Q1009 NOSIG=
####018000081####
SALI20 GLRB 081300
METAR GLRB 081300Z 25005KT 9999 BKN018 30/25 Q1013 NOSIG=
####018000170####
SAFA31 EKCH 081250
METAR EKVG 081251Z 19009KT 9999 -SHRA SCT006 BKN010 BKN017 11/10
Q0994 RMK/RWY 13/31 CLOSED DUE WIP. SEE NOTAM E0050/10 WIND
850FT VRB09G36KT=
####018000270####
SASW31 LSSW 081250
METAR LSZH 081250Z VRB03KT CAVOK 29/12 Q1021 NOSIG=
METAR LSGG 081250Z 21008KT 170V260 9999 FEW060 SCT300 32/11 Q1021
    NOSIG=
METAR LSZB 081250Z 29006KT CAVOK 30/12 Q1021 NOSIG=
METAR LSZA 081250Z 18005KT 9999 FEW055 29/15 Q1021 NOSIG=
####018000138####
SALV32 EVRA 081250
METAR EVLA 081250Z 33006KT 270V040 CAVOK 22/16 Q1019=
METAR EVVA 081250Z AUTO 32009KT 300V010 CAVOK 22/17 Q1018=
####018000121####
SAUS42 KMHX 081253
MTRHSE
METAR KHSE 081251Z AUTO 05010G14KT 10SM CLR 27/23 A2994 RMK AO2 
SLP137 T02670233 TSNO
####018000166####
SAUS44 KCRP 081253
MTRCRP
METAR KCRP 081251Z 04008KT 5SM RA BR SCT022CB BKN040 BKN049 26/25 
A2985 RMK AO2 TSE18 SLP106 TS MOV W CB N MOV W P0002 T02610250 $
####018000279####
SASW39 LSSW 081250
METAR LSMA 081250Z 04009KT CAVOK 28/16 Q1021 RMK BLU=
METAR LSMD 081250Z NIL=
METAR LSME 081250Z VRB02KT 9999 FEW075 29/14 Q1021 RMK BLU=
METAR LSMM 081250Z NIL=
METAR LSMP 081250Z NIL=
METAR LSMS 081250Z 24010KT 210V290 9999 FEW120 31/13 Q1019=
####018000131####
SAUS44 KEWX 081253
MTRATT
METAR KATT 081251Z AUTO VRB03KT 8SM SCT007 BKN018 OVC031 26/23 A2998 
RMK AO2 SLP140 T02560233 $
####018000344####
SAEU KAWN 081200 RRX
METAR EBBL 081225Z 30004KT 9999 FEW050 32/10 Q1019 BLU BLU=
METAR EBLB 081225Z 22004KT 9999 FEW055 27/09 Q1022 BLU BLU=
METAR LEGR 081230Z 18016KT 140V210 9999 FEW060 39/06 Q1017=
METAR LPFL 081200Z 21007KT 170V270 9999 FEW024TCU SCT035 23/17 Q1022
      RMK WIND RWY36 21008KT 180V240 POS MID 21009KT 170V250=
####018000666####
SAEU KAWN 081300
METAR EKVG 081251Z 19009KT 9999 -SHRA SCT006 BKN010 BKN017 11/10 Q0994
      RMK/RWY 13/31 CLOSED DUE WIP/ SEE NOTAM E0050/10 WIND 850FT
      VRB09G36KT=
METAR ETNG 081250Z 26007KT CAVOK 31/11 Q1019 NOSIG=
METAR LMML 081245Z 09009KT 040V120 9999 SCT017 30/21 Q1018 NOSIG=
METAR LPLA 081300Z 17007KT 9999 -SHRA SCT013 BKN028 21/19 Q1024=
METAR LQMO 081300Z 35010KT 9999 FEW045 28/10 Q1017=
METAR LSGG 081250Z 21008KT 170V260 9999 FEW060 SCT300 32/11 Q1021 NOSIG=
METAR LSZA 081250Z 18005KT 9999 FEW055 29/15 Q1021 NOSIG=
METAR LSZB 081250Z 29006KT CAVOK 30/12 Q1021 NOSIG=
METAR LSZH 081250Z VRB03KT CAVOK 29/12 Q1021 NOSIG=
####018000147####
SAEW KAWN 081200 RRO
METAR EBBL 081225Z 30004KT 9999 FEW050 32/10 Q1019 BLU BLU=
METAR EBLB 081225Z 22004KT 9999 FEW055 27/09 Q1022 BLU BLU=
####018000683####
SAZZ40 KAWN 081300
METAR KBLV 081255Z AUTO 26004KT 10SM FEW060 26/25 A3005 RMK AO2 RAB1151E1203
      SLP172 P0003 T02610251=
METAR LLBG 081250Z 28011KT CAVOK 30/20 Q1009 NOSIG=
METAR LLET 081250Z 02018G28KT CAVOK 40/11 Q1004=
METAR LLOV 081250Z 02007KT CAVOK 37/09 Q1009=
METAR LPLA 081300Z 17007KT 9999 -SHRA SCT013 BKN028 21/19 Q1024=
METAR NSTU 081250Z 07012KT 10SM FEW016 28/26 A2988 RMK SLP119 T02780259=
METAR OAFZ 081250Z AUTO 02006KT ////// 38/01 Q1013=
METAR OAKB 081250Z 34011KT 9999 FEW070 33/02 Q1013 NOSIG RMK BLU BLU=
METAR OKBK 081300Z 34020KT 6000 -BLDU SKC 47/M05 Q0999 NOSIG=
METAR TJPS 081250Z 09008KT 8SM FEW030 31/24 A2998 RMK HZ ALQDS=
####018001833####
SAUS20 KNKA 081253
METAR KJWG 081250Z AUTO 03005KT 10SM CLR 23/23 A3011 RMK AO2=
METAR KLAM 081250Z AUTO 03003KT 10SM CLR 15/08 A3040 RMK AO2=
METAR KLRU 081251Z AUTO 01007KT 10SM CLR 21/14 A3018 RMK AO2=
METAR KMEB 081252Z AUTO 03006KT 9SM CLR 28/19 A2997 RMK AO2 SLP146 
    T02830194=
METAR KMKE 081252Z 26006KT 10SM BKN019 OVC080 23/21 A3002 RMK AO2 
    SLP161 T02330211=
METAR KMLI 081252Z 30006KT 9SM BKN011 24/22 A3004 RMK AO2 SLP170 
    T02390217=
METAR KOJA 081250Z AUTO 05005KT 7SM SCT007 SCT016 SCT022 22/22 
     A3010 RMK AO2=
METAR KOKM 081251Z AUTO 00000KT 7SM OVC007 25/25 A3005 RMK AO1 
     LTG DSNT NE=
METAR KONP 081250Z AUTO 00000KT 2SM BR OVC002 11/10 A2999 RMK AO1=
METAR KORS 081250Z AUTO 00000KT 10SM CLR 14/12 A2997 RMK AO2=
METAR KPLU 081250Z AUTO 00000KT 10SM CLR 12/12 A2995 RMK AO2=
METAR KPTS 081250Z AUTO 00000KT 4SM VCTSRA BKN013 OVC017 22/22 
     A3006 RMK AO2 LTG DSNT SE THRU SW P0010 T02200221=
METAR KPVJ 081247Z AUTO 00000KT 7SM BKN005 24/23 A3005 RMK AO2=
METAR KPWK 081252Z 24004KT 6SM BR BKN019 OVC027 24/22 A3004 RMK AO2 
    SLP169 T02390222=
METAR KSNL 081252Z AUTO 02003KT 10SM OVC005 24/23 A3006 RMK AO2 
     LTG DSNT NE=
METAR KSRE 081250Z AUTO 00000KT 5SM BR CLR 24/24 A3005 RMK AO2 
     LTG DSNT NE=
METAR KSVC 081250Z AUTO 05004KT 10SM BKN100 18/14 A3023 RMK AO2=
METAR KTEX 081251Z AUTO 11003KT 10SM CLR 12/04 A3047 RMK AO2=
METAR KTMK 081253Z AUTO 00000KT 4SM BR OVC004 12/12 A2997 RMK AO2=
METAR KTQH 081254Z AUTO 00000KT 2 1/2SM BR BKN008 OVC013 23/23 
     A3007 RMK AO2 P0001=
METAR KUGN 081252Z 23004KT 5SM BR FEW006 OVC018 23/21 A3003 RMK AO2 
    SLP158 T02280211=
METAR KVQQ 081250Z 00000KT 10SM CLR 25/23 A3002 =
METAR KWWR 081249Z AUTO 35008KT 10SM OVC007 21/20 A3017 RMK AO2 
     T02130202=
####018002965####
SAUS20 KNKA 081253
METAR K4O4 081248Z AUTO 13005KT 24/23 A3007 RMK AO2=
METAR KADH 081250Z AUTO 00000KT 10SM SCT029 23/22 A3005 RMK AO2=
METAR KADS 081247Z 14006KT 5SM -RA OVC015 25/24 A3004=
METAR KAFK 081250Z AUTO 01005KT 7SM CLR 21/19 A3014 RMK AO2 
     T02050193=
METAR KALM 081250Z AUTO 03005KT 10SM CLR 17/14 A3017 RMK AO2=
METAR KANW 081250Z AUTO 29004KT 10SM CLR 17/14 A3025 RMK AO2 
     T01700144=
METAR KARR 081252Z 29004KT 2 1/2SM BR FEW016 BKN024 OVC033 23/22 
    A3005 RMK AO2 SLP169 T02280222 $=
METAR KATL 081252Z 33006KT 10SM CLR 27/19 A3006 RMK AO2 SLP165 
    T02720194=
METAR KATS 081250Z AUTO 35010KT 10SM -RA FEW036 18/18 A3018 RMK 
     AO2 P0001=
METAR KAUH 081250Z AUTO 36004KT 10SM CLR 17/16 A3020 RMK AO2 
     T01700155=
METAR KAXS 081250Z AUTO 04003KT 10SM SCT043 SCT060 BKN070 23/22 
     A3009 RMK AO2 LTG DSNT NW P0002 T02300216=
METAR KAXX 081250Z AUTO 00000KT 10SM SCT120 06/05 A3049 RMK AO2=
METAR KBVS 081250Z AUTO 03007KT 9SM CLR 18/12 A2999 RMK A01 P000=
METAR KCHK 081251Z AUTO 35009KT 2SM BR OVC002 22/22 A3006 RMK AO2=
METAR KCID 081252Z 33008KT 9SM BKN005 21/19 A3007 RMK AO2 SLP178 
    T02110194=
METAR KCKV 081252Z AUTO 00000KT 10SM CLR 27/22 A3008 RMK AO2 SLP180 
    T02720222=
METAR KCLK 081253Z AUTO 01004KT 10SM SCT080 SCT110 22/20 A3010 
     RMK AO2=
METAR KCLT 081252Z 33006KT 8SM CLR 28/18 A3003 RMK AO2 SLP158 
    T02780178=
METAR KCUH 081250Z AUTO 00000KT 7SM SCT011 BKN100 24/23 A3005 RMK 
     AO2=
METAR KDCA 081252Z 07003KT 4SM HZ FEW060 SCT110 SCT250 29/22 A3002 
    RMK AO2 SLP165 T02940222=
METAR KDPA 081252Z 26005KT 3SM BR FEW005 OVC018 23/22 A3004 RMK AO2 
    SLP167 T02330222=
METAR KDUA 081257Z AUTO 15006KT 10SM SCT004 SCT033 SCT090 25/24 
     A3005 RMK AO2=
METAR KDVN 081252Z AUTO 33007KT 5SM BR BKN006 OVC010 23/21 A3006 RMK 
    AO2 CIG 003V009 SLP174 T02280211=
METAR KFET 081251Z AUTO 33003KT 10SM CLR 19/17 A3018 RMK AO2=
METAR KGCD 081250Z AUTO 12010KT 10SM CLR 12/03 A3013 RMK AO2 
     T01230025=
METAR KGCM 081255Z AUTO 00000KT 10SM VCTS SCT007 SCT017 SCT080 
     23/23 A3008 RMK AO2 LTG DSNT NE=
METAR KGEU 081247Z 27006KT 20SM SCT120 27/04 A2980 RMK FIRST=
METAR KGLS 081252Z 10012KT 10SM -RA FEW026 SCT095 26/23 A2994 RMK 
    AO2 RAB1159 SLP137 P0001 T02610228=
METAR KGMJ 081254Z AUTO 00000KT 25/24 A3008 RMK AO2 P0024 PWINO=
METAR KHRL 081252Z 35011KT 10SM FEW021 BKN031 BKN040 26/26 A2977 RMK 
    AO2 RAB14E44 SLP082 P0000 T02610261=
METAR KIAD 081252Z 00000KT 5SM HZ FEW060 29/23 A3002 RMK AO2 SLP162 
    T02940228=
METAR KIDP 081250Z AUTO 07003KT 10SM VCTS OVC110 22/21 A3007 RMK 
     AO2 LTG DSNT E AND SE=
METAR KIOW 081252Z AUTO 35007KT 10SM CLR 23/20 A3006 RMK AO2 SLP176 
    T02280200=
METAR KIZA 081249Z AUTO 00000KT 10SM OVC007 13/11 A2992 RMK AO2=
METAR KJSV 081250Z AUTO 00000KT 10SM SCT034 OVC046 24/23 A3006 
     RMK AO2 LTG DSNT N=
####018000431####
SADL32 EDZO 081250
METAR EDDB 081250Z 16003KT CAVOK 28/05 Q1020 NOSIG=
METAR EDDC 081250Z 27006KT 250V310 CAVOK 26/10 Q1022 NOSIG=
METAR EDDE 081250Z 35003KT CAVOK 27/09 Q1021 NOSIG=
METAR EDDG 081250Z 22006KT 160V260 CAVOK 30/09 Q1019 NOSIG=
METAR EDDP 081250Z VRB04KT CAVOK 28/11 Q1021 NOSIG=
METAR EDDR 081250Z 19004KT 160V230 CAVOK 29/10 Q1020 NOSIG=
METAR EDDW 081250Z 25011KT 180V250 CAVOK 31/06 Q1018 NOSIG=
####018000534####
SADL31 EDZO 081250
METAR EDDF 081250Z 35002KT CAVOK 30/11 Q1020 NOSIG=
METAR EDDH 081250Z 23009KT CAVOK 29/10 Q1019 NOSIG=
METAR EDDK 081250Z 22005KT 180V300 CAVOK 31/10 Q1019 NOSIG=
METAR EDDL 081250Z 26006KT CAVOK 31/08 Q1019 NOSIG=
METAR EDDM 081250Z VRB03KT CAVOK 25/11 Q1022 NOSIG=
METAR EDDN 081250Z 24004KT CAVOK 28/07 Q1021 NOSIG=
METAR EDDS 081250Z VRB03KT CAVOK 28/09 Q1021 NOSIG=
METAR EDDT 081250Z 04005KT 360V060 CAVOK 28/07 Q1020 NOSIG=
METAR EDDV 081250Z 22005G15KT 170V300 CAVOK 30/10 Q1019 NOSIG=
####018000075####
SPCN44 CWAO 081252
SPECI CYUS 081252Z AUTO ///// 9SM CLR 13/ A2979=

####018000075####
SAGI32 EGRR 081250
METAR LXGB 081250Z 09008KT CAVOK 27/16 Q1016 NOSIG=
####018000119####
SPUS90 KWBC 081254
SPECI KACY 081251Z 10007KT 7SM -RA SCT013 BKN018 BKN031 24/22
     A3006 RMK AO2 RAB37 P0001=
####018002114####
SAUS90 KWBC 081300
METAR KSAN 081251Z 32004KT 8SM OVC015 16/14 A2993 RMK AO2 SLP133
     T01610139=
METAR KJCT 081251Z AUTO 00000KT 6SM BR FEW004 BKN026 23/22 A3003
     RMK AO2 SLP131 T02280217 TSNO=
METAR KGDP 081251Z AUTO 05020KT 10SM FEW042 OVC110 17/16 A3024 RMK
     AO2 PK WND 05026/1156 SLP168 T01670161 TSNO=
METAR KVCT 081251Z 28003KT 10SM BKN020 OVC029 24/24 A2990 RMK AO2
     RAE49 SLP122 P0026 T02440244=
METAR KP59 081251Z AUTO 36006KT 19/16 A2998 RMK AO2 SLP147
     T01940156 PWINO TSNO=
METAR KORF 081251Z 07006KT 10SM -RA FEW016 BKN080 BKN100 27/21
     A2999 RMK AO2 RAB38 SLP156 P0000 T02670211=
METAR KSNT 081251Z AUTO 00000KT 00/M01 A3035 RMK AO2 SLP207
     T00001011 PWINO FZRANO TSNO=
METAR KCON 081251Z AUTO 14004KT 4SM HZ OVC010 24/22 A3009 RMK AO2
     SLP186 T02440217=
METAR KSMX 081251Z 30005KT 3SM BR OVC005 12/11 A2993 RMK AO2 CIG
     002V007 SLP138 T01170111 $=
METAR KABE 081251Z 00000KT 5SM HZ CLR 27/22 A3005 RMK AO2 SLP172
     T02720217=
METAR KNYC 081251Z AUTO VRB04KT 5SM HZ BKN011 BKN020 26/23 A3008
     RMK AO2 SLP176 T02610233 TSNO $=
METAR KP58 081251Z AUTO 26004KT 26/23 A3000 RMK AO2 SLP147
     T02610228 PWINO TSNO=
METAR KSAD 081251Z AUTO 14010KT 10SM CLR 24/12 A3003 RMK AO2
     SLP119 T02390122 TSNO=
METAR KHSE 081251Z AUTO 05010G14KT 10SM CLR 27/23 A2994 RMK AO2
     SLP137 T02670233 TSNO=
METAR KCRP 081251Z 04008KT 5SM RA BR SCT022CB BKN040 BKN049 26/25
     A2985 RMK AO2 TSE18 SLP106 TS MOV W CB N MOV W P0002
     T02610250 $=
METAR KATT 081251Z AUTO VRB03KT 8SM SCT007 BKN018 OVC031 26/23
     A2998 RMK AO2 SLP140 T02560233 $=
METAR KREO 081252Z AUTO 00000KT 09/M03 A3012 RMK AO2 SLP167
     T00941033 PWINO TSNO=
METAR KMLF 081252Z AUTO 20004KT 10SM CLR 12/02 A3014 RMK AO2
     SLP152 T01170017 TSNO=
METAR KN60 081252Z AUTO 00000KT 16/12 A3013 RMK AO1 SLP202
     T01560122=
METAR KABI 081252Z 12003KT 7SM OVC008 22/21 A3008 RMK AO2 CIG
     005V011 SLP164 T02220211=
METAR KBLU 081252Z AUTO 00000KT 10SM CLR 21/03 A3009 RMK AO2
     SLP084 T02060033 TSNO=
####018000082####
SPCN46 CWAO 081252
SPECI CYBC 081252Z AUTO 10004KT 8SM OVC003 13/13 A3003=

####018000126####
SAFK41 EGYP 081250
METAR EGYP 081250Z 01035G48KT 3500 -DZ FEW006 BKN008 OVC012 05/04
 Q0991 YLO1 TEMPO 5000 BKN008 GRN=
####018000116####
SAUS46 KPQR 081253
MTRREO
METAR KREO 081252Z AUTO 00000KT 09/M03 A3012 RMK AO2 SLP167 
T00941033 PWINO TSNO
####018000118####
SAUS45 KSLC 081253
MTRMLF
METAR KMLF 081252Z AUTO 20004KT 10SM CLR 12/02 A3014 RMK AO2 SLP152 
T01170017 TSNO
####018000129####
SAYE20 OYAA 081300
METAR OYAA 081300Z 22009KT 6000 NSC 36/18 Q1000=
METAR OYSQ 081300Z 23040G57KT 9999 FEW018 32/23 Q1005=
####018000101####
SAUS43 KBIS 081253
MTRN60
METAR KN60 081252Z AUTO 00000KT 16/12 A3013 RMK AO1 SLP202 T01560122
####018002947####
SAUS20 KNKA 081253
METAR KAFN 081252Z AUTO 20005KT 6SM BR BKN032 OVC080 23/21 A3013 RMK 
    AO2 SLP201 T02280211=
METAR KAIK 081255Z AUTO 30006KT 10SM CLR 28/24 A3005 RMK AO2 PNO=
METAR KALS 081252Z AUTO 00000KT 10SM CLR 10/08 A3042 RMK AO2 SLP233 
    T01000078=
METAR KAQW 081252Z AUTO 13004KT 6SM HZ CLR 26/21 A3006 RMK AO2 
    SLP175 T02610206=
METAR KARW 081255Z AUTO 29006KT 10SM CLR 28/18 A2999 RMK AO2=
METAR KBCT 081252Z AUTO 07008KT 10SM SCT021 30/24 A2997 =
METAR KBDR 081252Z 10006KT 6SM BR OVC022 25/23 A3007 RMK AO2 SLP181 
    T02500228=
METAR KBIS 081252Z 27003KT 10SM CLR 16/11 A3016 RMK AO2 SLP207 
    T01610111=
METAR KBLF 081252Z AUTO 25004KT 5SM HZ CLR 24/18 A3021 RMK AO2 
    SLP185 T02390178=
METAR KBLH 081252Z AUTO 35004KT 10SM CLR 25/02 A2974 RMK AO2 SLP064 
    T02500017=
METAR KBML 081252Z AUTO 00000KT 5SM HZ CLR 25/22 A3010 RMK AO2 
    SLP186 T02500217=
METAR KCDS 081253Z AUTO 04006KT 10SM CLR 23/21 A3011 RMK AO2 SLP172 
    T02330206=
METAR KCFV 081252Z AUTO 00000KT 10SM SCT012 SCT035 OVC110 23/22 
    A3007 RMK AO2 LTG DSNT SE SLP176 T02330222=
METAR KCNU 081252Z AUTO 11006KT 1 1/4SM BR OVC001 23/22 A3007 RMK 
    AO2 SLP174 P0001 T02280217=
METAR KCQX 081252Z AUTO 15006KT 10SM FEW005 24/21 A3013 RMK AO2 
    SLP203 T02390206=
METAR KCVG 081252Z 17004KT 6SM HZ CLR 27/21 A3009 RMK AO2 SLP176 
    T02720211=
METAR KCWA 081250Z 35005KT 10SM OVC005 21/20 A3005=
METAR KDAL 081253Z 13006KT 8SM -RA FEW009 SCT016 OVC024 26/24 A3003 
    RMK AO2 RAE1158B40 SLP162 P0001 T02610239=
METAR KDDC 081252Z AUTO 01008KT 3SM BR OVC003 18/17 A3020 RMK AO2 
    SLP202 T01830172=
METAR KDTN 081253Z 13005KT 10SM SCT090 26/23 A3005 RMK AO2 SLP173 
    T02560233=
METAR KELD 081253Z AUTO 00000KT 7SM CLR 24/24 A3006 RMK AO2 SLP176 
    T02440239=
METAR KEST 081252Z AUTO 32005KT 10SM CLR 18/16 A3017 RMK AO2 SLP209 
    T01830156=
METAR KFDR 081253Z AUTO 03007KT 10SM 24/23 A3004 RMK AO2 SLP156 
    T02390228=
METAR KFDW 081255Z AUTO 31003KT 10SM CLR 27/18 A3002 RMK AO1=
METAR KFIT 081252Z AUTO 15006KT 9SM SCT015 BKN020 27/22 A3010 RMK 
    AO2 SLP190 T02720217=
METAR KFTW 081253Z 13004KT 10SM BKN011 OVC016 25/23 A3002 RMK AO2 
    RAB1158E19 SLP156 P0000 T02500233=
METAR KGGG 081253Z 10004KT 10SM FEW005 25/24 A3005 RMK AO2 SLP170 
    T02500244=
METAR KGLY 081255Z AUTO 00000KT 8SM BKN003 BKN008 23/23 A3008 RMK 
     AO2 LTG DSNT SW =
METAR KGPM 081250Z 12004KT 7SM SCT015 BKN025  26/23 A3004=
METAR KHUT 081252Z 01008KT 2 1/2SM BR OVC004 21/21 A3014 RMK AO2 
    SLP183 T02110206=
METAR KIEN 081252Z AUTO 00000KT 10SM CLR 11/09 A3029 RMK AO2 SLP244 
    T01110094=
METAR KIJD 081252Z AUTO 17006KT 6SM BR OVC008 24/22 A3010 RMK AO2 
    SLP189 T02390217=
METAR KJAC 081251Z 00000KT 10SM SKC 07/00 A3038=
METAR KLAW 081253Z 35003KT 10SM SCT090 23/22 A3006 RMK AO2 SLP167 
    T02330222=
####018002760####
SAUS20 KNKA 081253
METAR KLWC 081252Z AUTO 35004KT 7SM OVC006 23/22 A3009 RMK AO2 
    SLP181 T02280217=
METAR KMDH 081252Z 20004KT 10SM SCT080 SCT100 27/23 A3007 RMK AO2 
    SLP176 T02670233=
METAR KMEZ 081255Z AUTO 00000KT 5SM -DZ BKN017 BKN028 OVC033 25/23 
     A3010 RMK AO2 P0001 LTG DSNT N=
METAR KMFD 081252Z 22004KT 5SM HZ CLR 26/19 A3010 RMK AO2 SLP181 
    T02610189=
SPECI KMFI 081252Z AUTO 32005KT 2SM BR OVC003 19/19 A3005 RMK AO2=
METAR KMHK 081252Z 02007KT 5SM BR OVC010 22/21 A3011 RMK AO2 SLP188 
    T02220206=
METAR KMKO 081253Z AUTO 00000KT 7SM BKN007 OVC011 23/23 A3006 RMK 
    AO2 RAB23E32 CIG 002V010 SLP171 P0000 T02330228=
METAR KMWH 081252Z AUTO 01005KT 10SM CLR 14/07 A3003 RMK AO2 SLP162 
    T01440067=
METAR KOAJ 081255Z AUTO 05009KT 5SM CLR 27/24 A2996 RMK AO1=
METAR KOKB 081252Z AUTO 9SM FEW012 OVC018 17/14 A2990 RMK AO2 SLP125 
    T01720144 $=
METAR KOKC 081252Z 33004KT 10SM FEW028 SCT080 BKN200 23/22 A3006 RMK 
    AO2 SLP165 T02330222=
METAR KOMA 081252Z 35007KT 10SM FEW005 SCT022 BKN250 20/19 A3016 RMK 
    AO2 SLP206 T02000189=
METAR KORE 081252Z AUTO 14005KT 7SM OVC012 24/22 A3010 RMK AO2 
    SLP190 T02390217=
METAR KPPF 081252Z AUTO VRB03KT 10SM OVC005 23/22 A3009 RMK AO2 
    SLP179 T02280217=
METAR KPWA 081253Z 34004KT 7SM CLR 23/21 A3007 RMK AO2 SLP168 
    T02330211=
METAR KPYM 081252Z AUTO 14007KT 10SM FEW018 27/20 A3011 RMK AO2 
    SLP195 T02670200=
METAR KRAP 081252Z 29005KT 10SM CLR 15/11 A3026 RMK AO2 SLP233 
    T01500106=
METAR KSGF 081252Z 17003KT 9SM OVC007 23/23 A3008 RMK AO2 SLP174 
    T02330228=
METAR KSOP 081255Z AUTO 04005KT 7SM CLR 29/20 A2999 RMK AO1=
METAR KSPI 081252Z 00000KT 10SM SCT030 25/23 A3005 RMK AO2 SLP171 
    T02500233=
METAR KSSI 081253Z AUTO 25005KT 10SM CLR 26/21 A3001 RMK AO2 SLP162 
    T02560211=
METAR KSUX 081252Z 33005KT 10SM CLR 18/17 A3018 RMK AO2 SLP214 
    T01830167=
METAR KTAN 081252Z AUTO 11004KT 10SM BKN014 BKN018 25/21 A3009 RMK 
    AO2 SLP189 T02500211=
METAR KTKI 081253Z 00000KT 3SM -RA BR FEW006 SCT019 BKN024 24/24 
    A3005 RMK AO2 SLP168 P0011 T02440239=
METAR KTOL 081252Z 23005KT 8SM CLR 27/20 A3005 RMK AO2 SLP169 
    T02670200=
METAR KTRL 081253Z AUTO 09004KT 10SM OVC060 27/23 A3005 RMK AO2 
    SLP167 T02670228=
METAR KTRM 081252Z AUTO 34005KT 10SM CLR 23/13 A2972 RMK AO2 SLP067 
    T02330128=
METAR KTXK 081253Z 00000KT 8SM OVC003 24/24 A3007 RMK AO2 CIG 
    001V006 SLP177 T02390239=
METAR KTYR 081253Z 12005KT 10SM CLR 26/23 A3006 RMK AO2 SLP170 
    T02560233=
METAR KUDG 081255Z 33006KT 10SM CLR 28/19 A2999 RMK AO1=
METAR KVTN 081252Z AUTO 22004KT 10SM CLR 16/15 A3026 RMK AO2 SLP236 
    T01610150=
####018000123####
SAUS41 KLWX 081253
MTRNHK
METAR KNHK 081252Z 11011G15KT 5SM HZ SCT012 SCT020 28/23 A3001 RMK 
AO2 SLP163 T02780233
####018000118####
SAUS46 KSTO 081253
MTRBLU
METAR KBLU 081252Z AUTO 00000KT 10SM CLR 21/03 A3009 RMK AO2 SLP084 
T02060033 TSNO
####018000122####
SAUS44 KSJT 081253
MTRABI
METAR KABI 081252Z 12003KT 7SM OVC008 22/21 A3008 RMK AO2 CIG 
005V011 SLP164 T02220211
####018003715####
SAUS99 KWBC 081254 RRA
METAR
KGLS 081252Z 10012KT 10SM -RA FEW026 SCT095 26/23 A2994 RMK AO2
     RAB1159 SLP137 P0001 T02610228=
KGMJ 081254Z AUTO 00000KT 25/24 A3008 RMK AO2 P0024 PWINO=
KHRL 081252Z 35011KT 10SM FEW021 BKN031 BKN040 26/26 A2977 RMK AO2
     RAB14E44 SLP082 P0000 T02610261=
KIAD 081252Z 00000KT 5SM HZ FEW060 29/23 A3002 RMK AO2 SLP162
     T02940228=
KIDP 081250Z AUTO 07003KT 10SM VCTS OVC110 22/21 A3007 RMK AO2 LTG
     DSNT E AND SE=
KIOW 081252Z AUTO 35007KT 10SM CLR 23/20 A3006 RMK AO2 SLP176
     T02280200=
KIZA 081249Z AUTO 00000KT 10SM OVC007 13/11 A2992 RMK AO2=
KJSV 081250Z AUTO 00000KT 10SM SCT034 OVC046 24/23 A3006 RMK AO2
     LTG DSNT N=
KLWC 081252Z AUTO 35004KT 7SM OVC006 23/22 A3009 RMK AO2 SLP181
     T02280217=
KMDH 081252Z 20004KT 10SM SCT080 SCT100 27/23 A3007 RMK AO2 SLP176
     T02670233=
KMEZ 081255Z AUTO 00000KT 5SM -DZ BKN017 BKN028 OVC033 25/23 A3010
     RMK AO2 P0001 LTG DSNT N=
KMFD 081252Z 22004KT 5SM HZ CLR 26/19 A3010 RMK AO2 SLP181
     T02610189=
KMHK 081252Z 02007KT 5SM BR OVC010 22/21 A3011 RMK AO2 SLP188
     T02220206=
KMKO 081253Z AUTO 00000KT 7SM BKN007 OVC011 23/23 A3006 RMK AO2
     RAB23E32 CIG 002V010 SLP171 P0000 T02330228=
KMWH 081252Z AUTO 01005KT 10SM CLR 14/07 A3003 RMK AO2 SLP162
     T01440067=
KOAJ 081255Z AUTO 05009KT 5SM CLR 27/24 A2996 RMK AO1=
KOKB 081252Z AUTO 9SM FEW012 OVC018 17/14 A2990 RMK AO2 SLP125
     T01720144 $=
KOKC 081252Z 33004KT 10SM FEW028 SCT080 BKN200 23/22 A3006 RMK AO2
     SLP165 T02330222=
KOMA 081252Z 35007KT 10SM FEW005 SCT022 BKN250 20/19 A3016 RMK AO2
     SLP206 T02000189=
KORE 081252Z AUTO 14005KT 7SM OVC012 24/22 A3010 RMK AO2 SLP190
     T02390217=
KPPF 081252Z AUTO VRB03KT 10SM OVC005 23/22 A3009 RMK AO2 SLP179
     T02280217=
KPWA 081253Z 34004KT 7SM CLR 23/21 A3007 RMK AO2 SLP168
     T02330211=
KPYM 081252Z AUTO 14007KT 10SM FEW018 27/20 A3011 RMK AO2 SLP195
     T02670200=
KRAP 081252Z 29005KT 10SM CLR 15/11 A3026 RMK AO2 SLP233
     T01500106=
KSGF 081252Z 17003KT 9SM OVC007 23/23 A3008 RMK AO2 SLP174
     T02330228=
KSOP 081255Z AUTO 04005KT 7SM CLR 29/20 A2999 RMK AO1=
KSPI 081252Z 00000KT 10SM SCT030 25/23 A3005 RMK AO2 SLP171
     T02500233=
KSSI 081253Z AUTO 25005KT 10SM CLR 26/21 A3001 RMK AO2 SLP162
     T02560211=
KSUX 081252Z 33005KT 10SM CLR 18/17 A3018 RMK AO2 SLP214
     T01830167=
KTAN 081252Z AUTO 11004KT 10SM BKN014 BKN018 25/21 A3009 RMK AO2
     SLP189 T02500211=
KTKI 081253Z 00000KT 3SM -RA BR FEW006 SCT019 BKN024 24/24 A3005
     RMK AO2 SLP168 P0011 T02440239=
KTOL 081252Z 23005KT 8SM CLR 27/20 A3005 RMK AO2 SLP169
     T02670200=
KTRL 081253Z AUTO 09004KT 10SM OVC060 27/23 A3005 RMK AO2 SLP167
     T02670228=
KTRM 081252Z AUTO 34005KT 10SM CLR 23/13 A2972 RMK AO2 SLP067
     T02330128=
KTXK 081253Z 00000KT 8SM OVC003 24/24 A3007 RMK AO2 CIG 001V006
     SLP177 T02390239=
KTYR 081253Z 12005KT 10SM CLR 26/23 A3006 RMK AO2 SLP170
     T02560233=
KUDG 081255Z 33006KT 10SM CLR 28/19 A2999 RMK AO1=
KVTN 081252Z AUTO 22004KT 10SM CLR 16/15 A3026 RMK AO2 SLP236
     T01610150=
KAFN 081252Z AUTO 20005KT 6SM BR BKN032 OVC080 23/21 A3013 RMK AO2
     SLP201 T02280211=
KAIK 081255Z AUTO 30006KT 10SM CLR 28/24 A3005 RMK AO2 PNO=
KALS 081252Z AUTO 00000KT 10SM CLR 10/08 A3042 RMK AO2 SLP233
     T01000078=
KAQW 081252Z AUTO 13004KT 6SM HZ CLR 26/21 A3006 RMK AO2 SLP175
     T02610206=
KARW 081255Z AUTO 29006KT 10SM CLR 28/18 A2999 RMK AO2=
KBCT 081252Z AUTO 07008KT 10SM SCT021 30/24 A2997=
KBDR 081252Z 10006KT 6SM BR OVC022 25/23 A3007 RMK AO2 SLP181
     T02500228=
####018002237####
SAUS99 KWBC 081254 RRB
METAR
KBIS 081252Z 27003KT 10SM CLR 16/11 A3016 RMK AO2 SLP207
     T01610111=
KBLF 081252Z AUTO 25004KT 5SM HZ CLR 24/18 A3021 RMK AO2 SLP185
     T02390178=
KBLH 081252Z AUTO 35004KT 10SM CLR 25/02 A2974 RMK AO2 SLP064
     T02500017=
KBML 081252Z AUTO 00000KT 5SM HZ CLR 25/22 A3010 RMK AO2 SLP186
     T02500217=
KCDS 081253Z AUTO 04006KT 10SM CLR 23/21 A3011 RMK AO2 SLP172
     T02330206=
KCFV 081252Z AUTO 00000KT 10SM SCT012 SCT035 OVC110 23/22 A3007
     RMK AO2 LTG DSNT SE SLP176 T02330222=
KCNU 081252Z AUTO 11006KT 1 1/4SM BR OVC001 23/22 A3007 RMK AO2
     SLP174 P0001 T02280217=
KCQX 081252Z AUTO 15006KT 10SM FEW005 24/21 A3013 RMK AO2 SLP203
     T02390206=
KCVG 081252Z 17004KT 6SM HZ CLR 27/21 A3009 RMK AO2 SLP176
     T02720211=
KCWA 081250Z 35005KT 10SM OVC005 21/20 A3005=
KDAL 081253Z 13006KT 8SM -RA FEW009 SCT016 OVC024 26/24 A3003 RMK
     AO2 RAE1158B40 SLP162 P0001 T02610239=
KDDC 081252Z AUTO 01008KT 3SM BR OVC003 18/17 A3020 RMK AO2 SLP202
     T01830172=
KDTN 081253Z 13005KT 10SM SCT090 26/23 A3005 RMK AO2 SLP173
     T02560233=
KELD 081253Z AUTO 00000KT 7SM CLR 24/24 A3006 RMK AO2 SLP176
     T02440239=
KEST 081252Z AUTO 32005KT 10SM CLR 18/16 A3017 RMK AO2 SLP209
     T01830156=
KFDR 081253Z AUTO 03007KT 10SM 24/23 A3004 RMK AO2 SLP156
     T02390228=
KFDW 081255Z AUTO 31003KT 10SM CLR 27/18 A3002 RMK AO1=
KFIT 081252Z AUTO 15006KT 9SM SCT015 BKN020 27/22 A3010 RMK AO2
     SLP190 T02720217=
KFTW 081253Z 13004KT 10SM BKN011 OVC016 25/23 A3002 RMK AO2
     RAB1158E19 SLP156 P0000 T02500233=
KGGG 081253Z 10004KT 10SM FEW005 25/24 A3005 RMK AO2 SLP170
     T02500244=
KGLY 081255Z AUTO 00000KT 8SM BKN003 BKN008 23/23 A3008 RMK AO2
     LTG DSNT SW=
KGPM 081250Z 12004KT 7SM SCT015 BKN025 26/23 A3004=
KHUT 081252Z 01008KT 2 1/2SM BR OVC004 21/21 A3014 RMK AO2 SLP183
     T02110206=
KIEN 081252Z AUTO 00000KT 10SM CLR 11/09 A3029 RMK AO2 SLP244
     T01110094=
KIJD 081252Z AUTO 17006KT 6SM BR OVC008 24/22 A3010 RMK AO2 SLP189
     T02390217=
KJAC 081251Z 00000KT 10SM SKC 07/00 A3038=
KLAW 081253Z 35003KT 10SM SCT090 23/22 A3006 RMK AO2 SLP167
     T02330222=
####018000092####
SPUS99 KWBC 081254
SPECI
KMFI 081252Z AUTO 32005KT 2SM BR OVC003 19/19 A3005 RMK AO2=
####018003740####
SAUS99 KWBC 081254
METAR
KJWG 081250Z AUTO 03005KT 10SM CLR 23/23 A3011 RMK AO2=
KLAM 081250Z AUTO 03003KT 10SM CLR 15/08 A3040 RMK AO2=
KLRU 081251Z AUTO 01007KT 10SM CLR 21/14 A3018 RMK AO2=
KMEB 081252Z AUTO 03006KT 9SM CLR 28/19 A2997 RMK AO2 SLP146
     T02830194=
KMKE 081252Z 26006KT 10SM BKN019 OVC080 23/21 A3002 RMK AO2 SLP161
     T02330211=
KMLI 081252Z 30006KT 9SM BKN011 24/22 A3004 RMK AO2 SLP170
     T02390217=
KOJA 081250Z AUTO 05005KT 7SM SCT007 SCT016 SCT022 22/22 A3010 RMK
     AO2=
KOKM 081251Z AUTO 00000KT 7SM OVC007 25/25 A3005 RMK AO1 LTG DSNT
     NE=
KONP 081250Z AUTO 00000KT 2SM BR OVC002 11/10 A2999 RMK AO1=
KORS 081250Z AUTO 00000KT 10SM CLR 14/12 A2997 RMK AO2=
KPLU 081250Z AUTO 00000KT 10SM CLR 12/12 A2995 RMK AO2=
KPTS 081250Z AUTO 00000KT 4SM VCTSRA BKN013 OVC017 22/22 A3006 RMK
     AO2 LTG DSNT SE THRU SW P0010 T02200221=
KPVJ 081247Z AUTO 00000KT 7SM BKN005 24/23 A3005 RMK AO2=
KPWK 081252Z 24004KT 6SM BR BKN019 OVC027 24/22 A3004 RMK AO2
     SLP169 T02390222=
KSNL 081252Z AUTO 02003KT 10SM OVC005 24/23 A3006 RMK AO2 LTG DSNT
     NE=
KSRE 081250Z AUTO 00000KT 5SM BR CLR 24/24 A3005 RMK AO2 LTG DSNT
     NE=
KSVC 081250Z AUTO 05004KT 10SM BKN100 18/14 A3023 RMK AO2=
KTEX 081251Z AUTO 11003KT 10SM CLR 12/04 A3047 RMK AO2=
KTMK 081253Z AUTO 00000KT 4SM BR OVC004 12/12 A2997 RMK AO2=
KTQH 081254Z AUTO 00000KT 2 1/2SM BR BKN008 OVC013 23/23 A3007 RMK
     AO2 P0001=
KUGN 081252Z 23004KT 5SM BR FEW006 OVC018 23/21 A3003 RMK AO2
     SLP158 T02280211=
KVQQ 081250Z 00000KT 10SM CLR 25/23 A3002=
KWWR 081249Z AUTO 35008KT 10SM OVC007 21/20 A3017 RMK AO2
     T02130202=
K4O4 081248Z AUTO 13005KT 24/23 A3007 RMK AO2=
KADH 081250Z AUTO 00000KT 10SM SCT029 23/22 A3005 RMK AO2=
KADS 081247Z 14006KT 5SM -RA OVC015 25/24 A3004=
KAFK 081250Z AUTO 01005KT 7SM CLR 21/19 A3014 RMK AO2
     T02050193=
KALM 081250Z AUTO 03005KT 10SM CLR 17/14 A3017 RMK AO2=
KANW 081250Z AUTO 29004KT 10SM CLR 17/14 A3025 RMK AO2
     T01700144=
KARR 081252Z 29004KT 2 1/2SM BR FEW016 BKN024 OVC033 23/22 A3005
     RMK AO2 SLP169 T02280222 $=
KATL 081252Z 33006KT 10SM CLR 27/19 A3006 RMK AO2 SLP165
     T02720194=
KATS 081250Z AUTO 35010KT 10SM -RA FEW036 18/18 A3018 RMK AO2
     P0001=
KAUH 081250Z AUTO 36004KT 10SM CLR 17/16 A3020 RMK AO2
     T01700155=
KAXS 081250Z AUTO 04003KT 10SM SCT043 SCT060 BKN070 23/22 A3009
     RMK AO2 LTG DSNT NW P0002 T02300216=
KAXX 081250Z AUTO 00000KT 10SM SCT120 06/05 A3049 RMK AO2=
KBVS 081250Z AUTO 03007KT 9SM CLR 18/12 A2999 RMK A01 P000=
KCHK 081251Z AUTO 35009KT 2SM BR OVC002 22/22 A3006 RMK AO2=
KCID 081252Z 33008KT 9SM BKN005 21/19 A3007 RMK AO2 SLP178
     T02110194=
KCKV 081252Z AUTO 00000KT 10SM CLR 27/22 A3008 RMK AO2 SLP180
     T02720222=
KCLK 081253Z AUTO 01004KT 10SM SCT080 SCT110 22/20 A3010 RMK
     AO2=
KCLT 081252Z 33006KT 8SM CLR 28/18 A3003 RMK AO2 SLP158
     T02780178=
KCUH 081250Z AUTO 00000KT 7SM SCT011 BKN100 24/23 A3005 RMK
     AO2=
KDCA 081252Z 07003KT 4SM HZ FEW060 SCT110 SCT250 29/22 A3002 RMK
     AO2 SLP165 T02940222=
KDPA 081252Z 26005KT 3SM BR FEW005 OVC018 23/22 A3004 RMK AO2
     SLP167 T02330222=
KDUA 081257Z AUTO 15006KT 10SM SCT004 SCT033 SCT090 25/24 A3005
     RMK AO2=
KDVN 081252Z AUTO 33007KT 5SM BR BKN006 OVC010 23/21 A3006 RMK AO2
     CIG 003V009 SLP174 T02280211=
KFET 081251Z AUTO 33003KT 10SM CLR 19/17 A3018 RMK AO2=
KGCD 081250Z AUTO 12010KT 10SM CLR 12/03 A3013 RMK AO2
     T01230025=
KGCM 081255Z AUTO 00000KT 10SM VCTS SCT007 SCT017 SCT080 23/23
     A3008 RMK AO2 LTG DSNT NE=
KGEU 081247Z 27006KT 20SM SCT120 27/04 A2980 RMK FIRST=
####018000264####
SAGL31 BGSF 081250
METAR BGSF 081250Z 08005KT 040V120 9999 FEW070 15/01 Q1007=
METAR BGBW 081250Z 26006KT 230V290 9999 FEW040 14/05 Q1008 RMK 
1SC =
METAR BGGH 081253Z NIL=
METAR BGJN 081253Z NIL=
METAR BGKK 081250Z 26004KT 9999 FEW080 SCT120 08/04 Q1009=
####018000611####
SASN31 ESWI 081250
METAR ESGG 081250Z 20009KT 9999 FEW005 BKN032 17/15 Q1019 RERA=
METAR ESGJ 081250Z AUTO 22013KT 9999NDV BKN049/// BKN069/// 23/10
Q1019=
METAR ESGP 081250Z 17009KT 9999 FEW009 OVC029 17/15 Q1018=
METAR ESGT 081250Z NIL=
METAR ESMK 081250Z 21010KT 170V240 CAVOK 26/11 Q1020=
METAR ESMQ 081250Z 17012KT CAVOK 24/14 Q1019=
METAR ESMS 081250Z 19010KT CAVOK 24/10 Q1021=
METAR ESMT 081250Z 19011KT CAVOK 23/14 Q1020=
METAR ESMX 081250Z 21010KT CAVOK 25/11 Q1020=
METAR ESTA 081250Z 17010KT CAVOK 23/15 Q1020=
METAR ESTL 081250Z AUTO 20010KT 9999NDV SCT053/// BKN064/// 24/11
Q1020=
####018000095####
SACN89 KWBC 081254
METAR CWDT 081200Z AUTO 12002KT 22/20 RMK AO1 SLP165 T02210202
50000=
####018000087####
SACN88 KWBC 081254
METAR CWZN 081200Z AUTO 11009KT 12/ RMK AO1 SLP216 T0124 53006=
####018000095####
SACN97 KWBC 081254
METAR CXLL 081200Z AUTO 00000KT 10/10 RMK AO1 SLP158 T01030103
55005=
####018000125####
SAVN23 SVBC 081300
METAR SVBC 081300Z 00000KT 9999 FEW010 29/24 Q1013=
METAR SVMT 081300Z NIL= 
METAR SVHG 081300Z NIL=
####018000424####
SADL32 EDZO 081250
METAR EDDB 081250Z 16003KT CAVOK 28/05 Q1020 NOSIG=
METAR EDDC 081250Z 27006KT 250V310 CAVOK 26/10 Q1022 NOSIG=
METAR EDDE 081250Z 35003KT CAVOK 27/09 Q1021 NOSIG=
METAR EDDG 081250Z 22006KT 160V260 CAVOK 30/09 Q1019 NOSIG=
METAR EDDP 081250Z VRB04KT CAVOK 28/11 Q1021 NOSIG=
METAR EDDR 081250Z 19004KT 160V230 CAVOK 29/10 Q1020 NOSIG=
METAR EDDW 081250Z 25011KT 180V250 CAVOK 31/06 Q1018 NOSIG=
####018000525####
SADL31 EDZO 081250
METAR EDDF 081250Z 35002KT CAVOK 30/11 Q1020 NOSIG=
METAR EDDH 081250Z 23009KT CAVOK 29/10 Q1019 NOSIG=
METAR EDDK 081250Z 22005KT 180V300 CAVOK 31/10 Q1019 NOSIG=
METAR EDDL 081250Z 26006KT CAVOK 31/08 Q1019 NOSIG=
METAR EDDM 081250Z VRB03KT CAVOK 25/11 Q1022 NOSIG=
METAR EDDN 081250Z 24004KT CAVOK 28/07 Q1021 NOSIG=
METAR EDDS 081250Z VRB03KT CAVOK 28/09 Q1021 NOSIG=
METAR EDDT 081250Z 04005KT 360V060 CAVOK 28/07 Q1020 NOSIG=
METAR EDDV 081250Z 22005G15KT 170V300 CAVOK 30/10 Q1019 NOSIG=
####018000485####
SAFI31 EFHK 081250
METAR EFHK 081250Z 33008KT 9999 FEW039 SCT050 28/18 Q1013 NOSIG=
EFJY 081250Z 12003KT 9999 SCT030 SCT080 25/17 Q1015=
METAR EFKU 081250Z AUTO 34004KT CAVOK 23/17 Q1015=
EFOU 081250Z VRB01KT 9999 FEW040 BKN200 23/11 Q1015=
METAR EFRO 081250Z AUTO 19005KT 160V240 CAVOK 21/08
 Q1015=
EFTP 081250Z 27006KT 220V320 9999 FEW045 SCT200 26/14 Q1015=
METAR EFTU 081250Z AUTO 29011KT CAVOK 25/12 Q1015=
EFVA 081250Z 28006KT 240V320 9999 FEW030 SCT200 24/14 Q1014=
####018000876####
SAMX45 MMMY 081300
METAR MMMY 081245Z 30006KT 15SM  FEW030 SCT070 24/22 A2988 
      RMK 8/570 ISOL CI=
METAR MMAN 081242Z 30008KT 15SM  SCT040 SCT080 25/21 A2990 RMK 8/570=
METAR MMMA 081245Z 32008KT 5SM  BKN010 BKN065 26/25 A2980 RMK 8/45/ BR=
METAR MMIO 081240Z 00000KT 8SM BKN012 OVC030 19/18 A3013 RMK
      8/5// BINOVC=
METAR MMRX 081242Z 33006KT 7SM  BKN010 OVC015 26/24 A2982 
      RMK 8/8// HZY=
METAR MMNL 081240Z 04006KT 8SM  FEW007 SCT020 SCT100 BKN250 26/24 
      A2988 RMK 8/572=
METAR MMCV 081245Z 00000KT 12SM  SCT090 BKN220 23/23 A2986 RMK 8/036=
METAR MMMV 081240Z 25005KT 8SM HZ BKN050 23/18 A2998 RMK 8/200 =
METAR MMCU 081240Z 07008KT 10SM OVC030 22/13 A3012 RMK 8/5// BINOV/NW=
METAR MMPG 081244 03005KT 8SM BKN020 26/22 A2999
      RMK 8/500 HZY=
METAR MMTC 081245Z 00000KT 10SM BKN030 21/17 A3003
      RMK 8/500=
####018000257####
SADN32 EKCH 081250
METAR EKVJ 081250Z 20006KT 5000 -SHRA SCT006 BKN010 BKN020 20/17
Q1018=
METAR EKSB 081250Z NIL=
METAR EKSN 081250Z 27009KT 9999 -RA  SCT018 BKN027 17/14 Q1018=
METAR EKVD 081250Z NIL=
METAR EKOD 081250Z 18008KT CAVOK 25/13 Q1019=
####018000225####
SAXX60 KWBC 081300
METAR
KBLV 081255Z AUTO 26004KT 10SM FEW060 26/25 A3005 RMK AO2
     RAB1151E1203 SLP172 P0003 T02610251=
KNHK 081252Z 11011G15KT 5SM HZ SCT012 SCT020 28/23 A3001 RMK AO2
     SLP163 T02780233=
####018001506####
SAUS70 KWBC 081300 RRC
METAR
KCQX 081252Z AUTO 15006KT 10SM FEW005 24/21 A3013 RMK AO2 SLP203
     T02390206=
KCVG 081252Z 17004KT 6SM HZ CLR 27/21 A3009 RMK AO2 SLP176
     T02720211=
KCWA 081250Z 35005KT 10SM OVC005 21/20 A3005=
KDDC 081252Z AUTO 01008KT 3SM BR OVC003 18/17 A3020 RMK AO2 SLP202
     T01830172=
KDTN 081253Z 13005KT 10SM SCT090 26/23 A3005 RMK AO2 SLP173
     T02560233=
KELD 081253Z AUTO 00000KT 7SM CLR 24/24 A3006 RMK AO2 SLP176
     T02440239=
KEST 081252Z AUTO 32005KT 10SM CLR 18/16 A3017 RMK AO2 SLP209
     T01830156=
KFDR 081253Z AUTO 03007KT 10SM 24/23 A3004 RMK AO2 SLP156
     T02390228=
KFDW 081255Z AUTO 31003KT 10SM CLR 27/18 A3002 RMK AO1=
KFIT 081252Z AUTO 15006KT 9SM SCT015 BKN020 27/22 A3010 RMK AO2
     SLP190 T02720217=
KFTW 081253Z 13004KT 10SM BKN011 OVC016 25/23 A3002 RMK AO2
     RAB1158E19 SLP156 P0000 T02500233=
KGGG 081253Z 10004KT 10SM FEW005 25/24 A3005 RMK AO2 SLP170
     T02500244=
KGLY 081255Z AUTO 00000KT 8SM BKN003 BKN008 23/23 A3008 RMK AO2
     LTG DSNT SW=
KGPM 081250Z 12004KT 7SM SCT015 BKN025 26/23 A3004=
KHUT 081252Z 01008KT 2 1/2SM BR OVC004 21/21 A3014 RMK AO2 SLP183
     T02110206=
KIEN 081252Z AUTO 00000KT 10SM CLR 11/09 A3029 RMK AO2 SLP244
     T01110094=
KIJD 081252Z AUTO 17006KT 6SM BR OVC008 24/22 A3010 RMK AO2 SLP189
     T02390217=
KJAC 081251Z 00000KT 10SM SKC 07/00 A3038=
KLAW 081253Z 35003KT 10SM SCT090 23/22 A3006 RMK AO2 SLP167
     T02330222=
####018003691####
SAUS70 KWBC 081300 RRB
METAR
KGLS 081252Z 10012KT 10SM -RA FEW026 SCT095 26/23 A2994 RMK AO2
     RAB1159 SLP137 P0001 T02610228=
KGMJ 081254Z AUTO 00000KT 25/24 A3008 RMK AO2 P0024 PWINO=
KHRL 081252Z 35011KT 10SM FEW021 BKN031 BKN040 26/26 A2977 RMK AO2
     RAB14E44 SLP082 P0000 T02610261=
KIAD 081252Z 00000KT 5SM HZ FEW060 29/23 A3002 RMK AO2 SLP162
     T02940228=
KIDP 081250Z AUTO 07003KT 10SM VCTS OVC110 22/21 A3007 RMK AO2 LTG
     DSNT E AND SE=
KIOW 081252Z AUTO 35007KT 10SM CLR 23/20 A3006 RMK AO2 SLP176
     T02280200=
KJSV 081250Z AUTO 00000KT 10SM SCT034 OVC046 24/23 A3006 RMK AO2
     LTG DSNT N=
KLWC 081252Z AUTO 35004KT 7SM OVC006 23/22 A3009 RMK AO2 SLP181
     T02280217=
KMDH 081252Z 20004KT 10SM SCT080 SCT100 27/23 A3007 RMK AO2 SLP176
     T02670233=
KMEZ 081255Z AUTO 00000KT 5SM -DZ BKN017 BKN028 OVC033 25/23 A3010
     RMK AO2 P0001 LTG DSNT N=
KMKO 081253Z AUTO 00000KT 7SM BKN007 OVC011 23/23 A3006 RMK AO2
     RAB23E32 CIG 002V010 SLP171 P0000 T02330228=
KMWH 081252Z AUTO 01005KT 10SM CLR 14/07 A3003 RMK AO2 SLP162
     T01440067=
KOAJ 081255Z AUTO 05009KT 5SM CLR 27/24 A2996 RMK AO1=
KOKB 081252Z AUTO 9SM FEW012 OVC018 17/14 A2990 RMK AO2 SLP125
     T01720144 $=
KOKC 081252Z 33004KT 10SM FEW028 SCT080 BKN200 23/22 A3006 RMK AO2
     SLP165 T02330222=
KOMA 081252Z 35007KT 10SM FEW005 SCT022 BKN250 20/19 A3016 RMK AO2
     SLP206 T02000189=
KORE 081252Z AUTO 14005KT 7SM OVC012 24/22 A3010 RMK AO2 SLP190
     T02390217=
KPPF 081252Z AUTO VRB03KT 10SM OVC005 23/22 A3009 RMK AO2 SLP179
     T02280217=
KPWA 081253Z 34004KT 7SM CLR 23/21 A3007 RMK AO2 SLP168
     T02330211=
KPYM 081252Z AUTO 14007KT 10SM FEW018 27/20 A3011 RMK AO2 SLP195
     T02670200=
KRAP 081252Z 29005KT 10SM CLR 15/11 A3026 RMK AO2 SLP233
     T01500106=
KSGF 081252Z 17003KT 9SM OVC007 23/23 A3008 RMK AO2 SLP174
     T02330228=
KSOP 081255Z AUTO 04005KT 7SM CLR 29/20 A2999 RMK AO1=
KSPI 081252Z 00000KT 10SM SCT030 25/23 A3005 RMK AO2 SLP171
     T02500233=
KSSI 081253Z AUTO 25005KT 10SM CLR 26/21 A3001 RMK AO2 SLP162
     T02560211=
KSUX 081252Z 33005KT 10SM CLR 18/17 A3018 RMK AO2 SLP214
     T01830167=
KTAN 081252Z AUTO 11004KT 10SM BKN014 BKN018 25/21 A3009 RMK AO2
     SLP189 T02500211=
KTKI 081253Z 00000KT 3SM -RA BR FEW006 SCT019 BKN024 24/24 A3005
     RMK AO2 SLP168 P0011 T02440239=
KTRL 081253Z AUTO 09004KT 10SM OVC060 27/23 A3005 RMK AO2 SLP167
     T02670228=
KTRM 081252Z AUTO 34005KT 10SM CLR 23/13 A2972 RMK AO2 SLP067
     T02330128=
KTXK 081253Z 00000KT 8SM OVC003 24/24 A3007 RMK AO2 CIG 001V006
     SLP177 T02390239=
KTYR 081253Z 12005KT 10SM CLR 26/23 A3006 RMK AO2 SLP170
     T02560233=
KUDG 081255Z 33006KT 10SM CLR 28/19 A2999 RMK AO1=
KAFN 081252Z AUTO 20005KT 6SM BR BKN032 OVC080 23/21 A3013 RMK AO2
     SLP201 T02280211=
KAIK 081255Z AUTO 30006KT 10SM CLR 28/24 A3005 RMK AO2 PNO=
KAQW 081252Z AUTO 13004KT 6SM HZ CLR 26/21 A3006 RMK AO2 SLP175
     T02610206=
KARW 081255Z AUTO 29006KT 10SM CLR 28/18 A2999 RMK AO2=
KBCT 081252Z AUTO 07008KT 10SM SCT021 30/24 A2997=
KBIS 081252Z 27003KT 10SM CLR 16/11 A3016 RMK AO2 SLP207
     T01610111=
KBLF 081252Z AUTO 25004KT 5SM HZ CLR 24/18 A3021 RMK AO2 SLP185
     T02390178=
KBLH 081252Z AUTO 35004KT 10SM CLR 25/02 A2974 RMK AO2 SLP064
     T02500017=
KBML 081252Z AUTO 00000KT 5SM HZ CLR 25/22 A3010 RMK AO2 SLP186
     T02500217=
KCDS 081253Z AUTO 04006KT 10SM CLR 23/21 A3011 RMK AO2 SLP172
     T02330206=
KCFV 081252Z AUTO 00000KT 10SM SCT012 SCT035 OVC110 23/22 A3007
     RMK AO2 LTG DSNT SE SLP176 T02330222=
####018000201####
SADN33 EKCH 081250
METAR EKKA 081250Z 20006KT 160V230 5000 -SHRA FEW009 FEW018TCU
BKN030 18/17 Q1018 TEMPO 4000 SHRA SCT020CB=
METAR EKSP 081250Z 23011KT CAVOK 25/12 Q1019 TEMPO SHRA RMK
BKN100=
####018000263####
SPUS80 KWBC 081254
SPECI
KCRQ 081251Z AUTO 00000KT 5SM HZ FEW007 OVC013 17/14 A2990 RMK
     AO2=
KDBQ 081251Z 00000KT 5SM BR SCT005 SCT021 22/21 A3007 RMK AO2=
KACY 081251Z 10007KT 7SM -RA SCT013 BKN018 BKN031 24/22 A3006 RMK
     AO2 RAB37 P0001=
####018003730####
SAUS70 KWBC 081300
METAR
PAWI 081249Z 22015KT 10SM CLR 08/04 A3000 RMK ASOS VIA PHONE=
KAEG 081250Z 00000KT 10SM SKC 15/08 A3031=
KBAZ 081251Z AUTO 06007KT 5SM -RA BR OVC009 25/24 A2994 RMK AO2
     RAB27 CIG 006V013 SLP131 P0001 T02500239=
KHDO 081251Z AUTO 01006KT 10SM CLR 25/23 A2997 RMK AO2 SLP130
     T02500228=
KLBE 081250Z 00000KT 5SM BR SCT060 24/20 A3011=
KOLV 081250Z 00000KT 7SM FEW250 27/26 A3009=
KOQU 081250Z 14004KT 4SM BR OVC005 23/ A3014=
KUES 081245Z 27004KT 10SM OVC014 21/19 A3005=
KJCT 081251Z AUTO 00000KT 6SM BR FEW004 BKN026 23/22 A3003 RMK AO2
     SLP131 T02280217 TSNO=
K2G4 081250Z AUTO 00000KT 10SM CLR 24/14 A3020 RMK AO1=
K2W6 081249Z AUTO 10008KT 7SM SCT013 27/23 A3003 RMK AO1=
K36U 081255Z AUTO 00000KT 10SM CLR 10/06 A3024 RMK AO2=
KACT 081251Z 04005KT 9SM FEW010 BKN016 OVC021 26/24 A3001 RMK AO2
     SLP155 T02560239=
KAHN 081251Z 31003KT 7SM CLR 26/21 A3005 RMK AO2 SLP165 T02610206
     $=
KASH 081251Z VRB04KT 6SM HZ OVC016 27/22 A3009 RMK AO2 T02660216
     OVC V BKN SLP191=
KAVX 081251Z AUTO 27005KT M1/4SM FG VV001 12/12 A2993 RMK AO2
     SLP129 T01170117 TSNO=
KBGD 081251Z AUTO 03006KT 10SM SCT045 BKN055 OVC120 19/17 A3020
     RMK AO2 SLP196 T01890172=
KCGS 081255Z AUTO 00000KT 5SM CLR 28/24 A3002 RMK AO1=
KCHD 081247Z 00000KT 30SM SCT100 SCT170 27/08 A2980=
KCLE 081251Z 20005KT 10SM FEW060 SCT100 27/19 A3008 RMK AO2 SLP179
     T02670189 $=
KCMH 081251Z 00000KT 6SM HZ FEW070 26/21 A3008 RMK AO2 SLP179
     T02610206=
KCSG 081251Z 00000KT 10SM CLR 27/20 A3004 RMK AO2 SLP167
     T02720200=
KDAW 081251Z AUTO VRB04KT 4SM HZ OVC011 24/21 A3009 RMK AO2 SLP186
     T02440211=
KFDK 081248Z AUTO 00000KT 5SM HZ CLR 31/21 A3005 RMK AO2=
KDUC 081252Z AUTO 02006KT 10SM CLR 23/23 A3006 RMK AO2=
KEKM 081250Z 32003KT 5SM RA BKN060 BKN075 25/22 A3006 RMK AO2=
KERI 081251Z 16007KT 9SM CLR 27/19 A3006 RMK AO2 SLP174
     T02720189=
KEWR 081251Z VRB03KT 2SM BR BKN004 OVC007 26/25 A3005 RMK AO2 SFC
     VIS 3 SLP177 T02610250=
KHXD 081250Z 24008KT 10SM SKC 27/21 A3000=
KILG 081251Z 14005KT 3/4SM R01/5500VP6000FT BR OVC003 25/23 A3004
     RMK AO2 SFC VIS 1 1/2 SLP171 T02500233=
KJFK 081251Z 15007KT 10SM FEW009 BKN014 BKN030 OVC130 26/21 A3006
     RMK AO2 RAB1159E10 SLP180 P0000 T02560211 $=
KLGA 081251Z 12008KT 5SM HZ BKN010 BKN036 OVC130 28/23 A3005 RMK
     AO2 SLP175 T02780233=
KLGU 081251Z AUTO 00000KT 10SM CLR 12/07 A3018 RMK AO2 SLP176
     T01170067=
KMDW 081251Z 00000KT 4SM -RA BR FEW007 BKN039 OVC050 24/22 A3003
     RMK AO2 SLP159 P0003 T02390222=
KMPV 081251Z AUTO 00000KT 5SM HZ CLR 26/22 A3011 RMK AO2 SLP189
     T02610217=
KONM 081247Z AUTO 34004KT 10SM OVC080 18/14 A3024 RMK AO2
     T01800144=
KORD 081251Z 26004KT 5SM BR FEW006 BKN022 OVC055 23/22 A3003 RMK
     AO2 RAB05E26 SLP165 P0001 T02330222=
KPHX 081251Z 00000KT 10SM SCT170 31/03 A2979 RMK AO2 SLP066
     T03060033 $=
KPIT 081251Z 00000KT 6SM HZ FEW055 26/19 A3010 RMK AO2 SLP186
     T02610194=
KPWM 081251Z 19009KT 7SM OVC004 22/20 A3010 RMK AO2 SLP194
     T02170200=
KRDU 081251Z 36004KT 5SM HZ BKN080 BKN250 29/19 A3000 RMK AO2
     SLP152 T02890189=
KSAW 081250Z 31003KT 10SM SCT015 20/18 A2999=
KSJT 081251Z 04005KT 10SM OVC008 23/21 A3006 RMK AO2 SLP154
     T02280211=
KSLK 081251Z AUTO 22004KT 8SM CLR 26/21 A3009 RMK AO2 SLP176
     T02610206=
KSMO 081251Z AUTO 00000KT 9SM OVC009 16/13 A2991 RMK AO2 SLP127
     T01610128=
KSTL 081251Z 24004KT 10SM BKN025TCU BKN080 BKN150 BKN250 26/23
     A3007 RMK AO2 SLP168 TCU W-NE VCSH W-N T02610233=
KVNY 081251Z 17003KT 3SM BR OVC008 15/13 A2990 RMK AO2 SLP120
     T01500128=
####018000099####
SAAW34 KWBC 081245 RRA
METAR
OAKB 081250Z 34011KT 9999 FEW070 33/02 Q1013 NOSIG RMK BLU BLU=
####018000127####
SAYE20 OYAA 081300
METAR OYAA 081300Z 22009KT 6000 NSC 36/18 Q1000=
METAR OYSQ 081300Z 23040G57KT 9999 FEW018 32/23 Q1005=
####018000078####
SAAI41 FHAW 081250
METAR FHAW 081250Z 12014KT 9999 FEW030 29/18 Q1016 BLU=
####018000537####
SADN31 EKCH 081250
METAR EKCH 081250Z 16014KT CAVOK 23/14 Q1020 NOSIG=
METAR COR EKBI 081250Z 25006KT 200V280 9999 FEW022 BKN070 BKN095
21/16 Q1019=
METAR EKYT 081250Z 20008KT 9999 -RA FEW012 BKN023 18/17 Q1018
TEMPO 7000 BKN012=
METAR EKRK 081250Z AUTO 22012KT 190V250 9999NDV BKN050/// 26/10
Q1019=
METAR EKAH 081250Z AUTO 21004KT 170V270 9999NDV -SHRA  FEW013///
BKN070/// 20/16 Q1019=
METAR EKEB 081250Z AUTO 19007KT 3700NDV SHRA  OVC024/// 18/16
Q1019=
METAR EKRN 081250Z AUTO 20004KT 160V240 9999NDV NCD 20/14 Q1022=
####018000238####
SADN34 EKCH 081250
METAR EKGF 081250Z 20010KT CAVOK 16/16 Q1017=
METAR EKHN 081250Z AUTO 19010KT 9999NDV FEW028/// SCT048///
SCT076/// 17/14 Q1020=
METAR EKHR 081250Z AUTO 19009KT 9000NDV FEW003/// BKN007///
BKN080/// 17/17 Q1018=
####018000333####
SPUS70 KWBC 081254
SPECI
KCRS 081250Z AUTO 07005KT 10SM FEW013 BKN023 BKN080 26/24 A3002
     RMK AO2=
KMAF 081251Z 02008KT 10SM BKN005 OVC015 21/20 A3012 RMK AO2 CIG
     004V008=
KSLN 081251Z 35010KT 5SM BR OVC006 21/19 A3014 RMK AO2 CIG
     004V008=
KMFI 081252Z AUTO 32005KT 2SM BR OVC003 19/19 A3005 RMK AO2=
####018000325####
SAUS80 KWBC 081300 RRA
METAR
KDAL 081253Z 13006KT 8SM -RA FEW009 SCT016 OVC024 26/24 A3003 RMK
     AO2 RAE1158B40 SLP162 P0001 T02610239=
KABI 081252Z 12003KT 7SM OVC008 22/21 A3008 RMK AO2 CIG 005V011
     SLP164 T02220211=
KBLU 081252Z AUTO 00000KT 10SM CLR 21/03 A3009 RMK AO2 SLP084
     T02060033 TSNO=
####018003697####
SAUS80 KWBC 081300
METAR
KSAN 081251Z 32004KT 8SM OVC015 16/14 A2993 RMK AO2 SLP133
     T01610139=
KGDP 081251Z AUTO 05020KT 10SM FEW042 OVC110 17/16 A3024 RMK AO2
     PK WND 05026/1156 SLP168 T01670161 TSNO=
KVCT 081251Z 28003KT 10SM BKN020 OVC029 24/24 A2990 RMK AO2 RAE49
     SLP122 P0026 T02440244=
KALB 081251Z 00000KT 7SM FEW080 28/20 A3004 RMK AO2 SLP171
     T02780200=
KBDL 081251Z 17007KT 3SM HZ OVC008 25/22 A3008 RMK AO2 SLP183
     T02500222=
KBKW 081251Z AUTO 00000KT 5SM HZ CLR 24/19 A3018 RMK AO2 SLP179
     T02440189 VISNO RWY19 $=
KCAK 081251Z 23003KT 7SM CLR 26/18 A3009 RMK AO2 SLP179
     T02610183=
KCBE 081249Z AUTO 00000KT 7SM CLR 25/18 A3011 RMK AO1=
KEKN 081251Z AUTO 00000KT 4SM HZ CLR 22/18 A3017 RMK AO2 SLP205
     T02220183 TSNO=
KELP 081251Z 04009KT 10SM FEW035 SCT060 SCT110 22/15 A3014 RMK AO2
     SLP133 T02220150=
KHTS 081251Z 00000KT 3SM HZ CLR 26/22 A3010 RMK AO2 SLP182
     T02560217=
KMYL 081251Z AUTO 00000KT 10SM CLR 09/04 A3020 RMK AO2 SLP192
     T00890044=
KOXR 081251Z AUTO 27006KT 10SM OVC009 14/13 A2991 RMK AO2 SLP128
     T01440128 $=
KROW 081251Z 36007KT 10SM SCT039 OVC050 20/16 A3019 RMK AO2 SLP167
     T02000161=
KSPS 081252Z 04006KT 10SM CLR 24/22 A3004 RMK AO2 SLP160
     T02390222=
KTEB 081251Z 18007KT 4SM HZ OVC017 27/23 A3004 RMK AO2 SLP171
     T02720228=
KYNG 081251Z 14005KT 7SM FEW060 26/18 A3009 RMK AO2 SLP179
     T02610183=
KP59 081251Z AUTO 36006KT 19/16 A2998 RMK AO2 SLP147 T01940156
     PWINO TSNO=
KORF 081251Z 07006KT 10SM -RA FEW016 BKN080 BKN100 27/21 A2999 RMK
     AO2 RAB38 SLP156 P0000 T02670211=
KSNT 081251Z AUTO 00000KT 00/M01 A3035 RMK AO2 SLP207 T00001011
     PWINO FZRANO TSNO=
KCON 081251Z AUTO 14004KT 4SM HZ OVC010 24/22 A3009 RMK AO2 SLP186
     T02440217=
KSMX 081251Z 30005KT 3SM BR OVC005 12/11 A2993 RMK AO2 CIG 002V007
     SLP138 T01170111 $=
KABE 081251Z 00000KT 5SM HZ CLR 27/22 A3005 RMK AO2 SLP172
     T02720217=
KNYC 081251Z AUTO VRB04KT 5SM HZ BKN011 BKN020 26/23 A3008 RMK AO2
     SLP176 T02610233 TSNO $=
KP58 081251Z AUTO 26004KT 26/23 A3000 RMK AO2 SLP147 T02610228
     PWINO TSNO=
KSAD 081251Z AUTO 14010KT 10SM CLR 24/12 A3003 RMK AO2 SLP119
     T02390122 TSNO=
KHSE 081251Z AUTO 05010G14KT 10SM CLR 27/23 A2994 RMK AO2 SLP137
     T02670233 TSNO=
KCRP 081251Z 04008KT 5SM RA BR SCT022CB BKN040 BKN049 26/25 A2985
     RMK AO2 TSE18 SLP106 TS MOV W CB N MOV W P0002 T02610250
     $=
KATT 081251Z AUTO VRB03KT 8SM SCT007 BKN018 OVC031 26/23 A2998 RMK
     AO2 SLP140 T02560233 $=
KPTS 081250Z AUTO 00000KT 4SM VCTSRA BKN013 OVC017 22/22 A3006 RMK
     AO2 LTG DSNT SE THRU SW P0010 T02200221=
KCID 081252Z 33008KT 9SM BKN005 21/19 A3007 RMK AO2 SLP178
     T02110194=
KIZA 081249Z AUTO 00000KT 10SM OVC007 13/11 A2992 RMK AO2=
KREO 081252Z AUTO 00000KT 09/M03 A3012 RMK AO2 SLP167 T00941033
     PWINO TSNO=
KMLF 081252Z AUTO 20004KT 10SM CLR 12/02 A3014 RMK AO2 SLP152
     T01170017 TSNO=
KN60 081252Z AUTO 00000KT 16/12 A3013 RMK AO1 SLP202 T01560122=
KMFD 081252Z 22004KT 5SM HZ CLR 26/19 A3010 RMK AO2 SLP181
     T02610189=
KMHK 081252Z 02007KT 5SM BR OVC010 22/21 A3011 RMK AO2 SLP188
     T02220206=
KTOL 081252Z 23005KT 8SM CLR 27/20 A3005 RMK AO2 SLP169
     T02670200=
KVTN 081252Z AUTO 22004KT 10SM CLR 16/15 A3026 RMK AO2 SLP236
     T01610150=
KALS 081252Z AUTO 00000KT 10SM CLR 10/08 A3042 RMK AO2 SLP233
     T01000078=
KBDR 081252Z 10006KT 6SM BR OVC022 25/23 A3007 RMK AO2 SLP181
     T02500228=
KCNU 081252Z AUTO 11006KT 1 1/4SM BR OVC001 23/22 A3007 RMK AO2
     SLP174 P0001 T02280217=
####018000145####
SABX31 KWBC 081220 RRC
METAR
EBBL 081225Z 30004KT 9999 FEW050 32/10 Q1019 BLU BLU=
EBLB 081225Z 22004KT 9999 FEW055 27/09 Q1022 BLU BLU=
####018003748####
SAUS70 KWBC 081300 RRA
METAR
KW29 081249Z AUTO 10005KT 7SM CLR 27/23 A3002 RMK AO1=
PAWR 081250Z 06009G23KT 3SM -RA BR OVC008 12/11 A3007 RMK SLP183
     NOSPECI=
TJPS 081250Z 09008KT 8SM FEW030 31/24 A2998 RMK HZ ALQDS=
KJWG 081250Z AUTO 03005KT 10SM CLR 23/23 A3011 RMK AO2=
KLAM 081250Z AUTO 03003KT 10SM CLR 15/08 A3040 RMK AO2=
KLRU 081251Z AUTO 01007KT 10SM CLR 21/14 A3018 RMK AO2=
KMEB 081252Z AUTO 03006KT 9SM CLR 28/19 A2997 RMK AO2 SLP146
     T02830194=
KMKE 081252Z 26006KT 10SM BKN019 OVC080 23/21 A3002 RMK AO2 SLP161
     T02330211=
KMLI 081252Z 30006KT 9SM BKN011 24/22 A3004 RMK AO2 SLP170
     T02390217=
KOJA 081250Z AUTO 05005KT 7SM SCT007 SCT016 SCT022 22/22 A3010 RMK
     AO2=
KOKM 081251Z AUTO 00000KT 7SM OVC007 25/25 A3005 RMK AO1 LTG DSNT
     NE=
KONP 081250Z AUTO 00000KT 2SM BR OVC002 11/10 A2999 RMK AO1=
KORS 081250Z AUTO 00000KT 10SM CLR 14/12 A2997 RMK AO2=
KPLU 081250Z AUTO 00000KT 10SM CLR 12/12 A2995 RMK AO2=
KPVJ 081247Z AUTO 00000KT 7SM BKN005 24/23 A3005 RMK AO2=
KPWK 081252Z 24004KT 6SM BR BKN019 OVC027 24/22 A3004 RMK AO2
     SLP169 T02390222=
KSNL 081252Z AUTO 02003KT 10SM OVC005 24/23 A3006 RMK AO2 LTG DSNT
     NE=
KSRE 081250Z AUTO 00000KT 5SM BR CLR 24/24 A3005 RMK AO2 LTG DSNT
     NE=
KSVC 081250Z AUTO 05004KT 10SM BKN100 18/14 A3023 RMK AO2=
KTEX 081251Z AUTO 11003KT 10SM CLR 12/04 A3047 RMK AO2=
KTMK 081253Z AUTO 00000KT 4SM BR OVC004 12/12 A2997 RMK AO2=
KTQH 081254Z AUTO 00000KT 2 1/2SM BR BKN008 OVC013 23/23 A3007 RMK
     AO2 P0001=
KUGN 081252Z 23004KT 5SM BR FEW006 OVC018 23/21 A3003 RMK AO2
     SLP158 T02280211=
KVQQ 081250Z 00000KT 10SM CLR 25/23 A3002=
KWWR 081249Z AUTO 35008KT 10SM OVC007 21/20 A3017 RMK AO2
     T02130202=
K4O4 081248Z AUTO 13005KT 24/23 A3007 RMK AO2=
KADH 081250Z AUTO 00000KT 10SM SCT029 23/22 A3005 RMK AO2=
KADS 081247Z 14006KT 5SM -RA OVC015 25/24 A3004=
KAFK 081250Z AUTO 01005KT 7SM CLR 21/19 A3014 RMK AO2
     T02050193=
KALM 081250Z AUTO 03005KT 10SM CLR 17/14 A3017 RMK AO2=
KANW 081250Z AUTO 29004KT 10SM CLR 17/14 A3025 RMK AO2
     T01700144=
KARR 081252Z 29004KT 2 1/2SM BR FEW016 BKN024 OVC033 23/22 A3005
     RMK AO2 SLP169 T02280222 $=
KATL 081252Z 33006KT 10SM CLR 27/19 A3006 RMK AO2 SLP165
     T02720194=
KATS 081250Z AUTO 35010KT 10SM -RA FEW036 18/18 A3018 RMK AO2
     P0001=
KAUH 081250Z AUTO 36004KT 10SM CLR 17/16 A3020 RMK AO2
     T01700155=
KAXS 081250Z AUTO 04003KT 10SM SCT043 SCT060 BKN070 23/22 A3009
     RMK AO2 LTG DSNT NW P0002 T02300216=
KAXX 081250Z AUTO 00000KT 10SM SCT120 06/05 A3049 RMK AO2=
KBVS 081250Z AUTO 03007KT 9SM CLR 18/12 A2999 RMK A01 P000=
KCHK 081251Z AUTO 35009KT 2SM BR OVC002 22/22 A3006 RMK AO2=
KCKV 081252Z AUTO 00000KT 10SM CLR 27/22 A3008 RMK AO2 SLP180
     T02720222=
KCLK 081253Z AUTO 01004KT 10SM SCT080 SCT110 22/20 A3010 RMK
     AO2=
KCLT 081252Z 33006KT 8SM CLR 28/18 A3003 RMK AO2 SLP158
     T02780178=
KCUH 081250Z AUTO 00000KT 7SM SCT011 BKN100 24/23 A3005 RMK
     AO2=
KDCA 081252Z 07003KT 4SM HZ FEW060 SCT110 SCT250 29/22 A3002 RMK
     AO2 SLP165 T02940222=
KDPA 081252Z 26005KT 3SM BR FEW005 OVC018 23/22 A3004 RMK AO2
     SLP167 T02330222=
KDUA 081257Z AUTO 15006KT 10SM SCT004 SCT033 SCT090 25/24 A3005
     RMK AO2=
KDVN 081252Z AUTO 33007KT 5SM BR BKN006 OVC010 23/21 A3006 RMK AO2
     CIG 003V009 SLP174 T02280211=
KFET 081251Z AUTO 33003KT 10SM CLR 19/17 A3018 RMK AO2=
KGCD 081250Z AUTO 12010KT 10SM CLR 12/03 A3013 RMK AO2
     T01230025=
KGCM 081255Z AUTO 00000KT 10SM VCTS SCT007 SCT017 SCT080 23/23
     A3008 RMK AO2 LTG DSNT NE=
KGEU 081247Z 27006KT 20SM SCT120 27/04 A2980 RMK FIRST=
####018000470####
SAAS31 KWBC 081230 RRC
METAR
VABB 081240Z 18007KT 3100 HZ SCT012 SCT018 FEW025TCU BKN100 28/25
     Q1006 TEMPO 1500 SHRA=
VANP 081240Z 26004KT 3000 HZ SCT018 SCT025 FEW030CB BKN100 28/27
     Q1005 TEMPO 1500 IN RA/TSRA=
VOHY 081240Z 25005KT 5000 HZ SCT010 SCT015 BKN080 25/19 Q1010
     NOSIG=
VOMM 081240Z 12006KT 4000 HZ SCT015 SCT100 OVC200 28/26 Q1008
     NOSIG=
VOTV 081240Z 32005KT 5000 HZ FEW015 FEW025CB BKN200 27/24 Q1009
     NOSIG=
####018000468####
SADL33 KWBC 081245 RRA
METAR
EDDB 081250Z 16003KT CAVOK 28/05 Q1020 NOSIG=
EDDC 081250Z 27006KT 250V310 CAVOK 26/10 Q1022 NOSIG=
EDDG 081250Z 22006KT 160V260 CAVOK 30/09 Q1019 NOSIG=
EDDP 081250Z VRB04KT CAVOK 28/11 Q1021 NOSIG=
EDDR 081250Z 19004KT 160V230 CAVOK 29/10 Q1020 NOSIG=
EDDT 081250Z 04005KT 360V060 CAVOK 28/07 Q1020 NOSIG=
EDDV 081250Z 22005G15KT 170V300 CAVOK 30/10 Q1019 NOSIG=
EDDW 081250Z 25011KT 180V250 CAVOK 31/06 Q1018 NOSIG=
####018000081####
SAEW31 KWBC 081230 RRB
METAR
LXGB 081250Z 09008KT CAVOK 27/16 Q1016 NOSIG=
####018000080####
SALY31 HLLT 081300
METAR HLLT 081250Z 35007KT 310V040 8000 SKC 31/18 Q1018=
####018000117####
SAUS45 KMSO 081253
MTRP69
METAR KP69 081252Z AUTO 00000KT 11/10 A3014 RMK AO2 SLP193 T01060100 
PWINO TSNO $
####018000101####
SAUS44 KFWD 081254
MTRHLR
SPECI KHLR 081252Z AUTO 09003KT 9SM OVC007 26/ A3001 RMK AO2 T0256 $
####018000161####
SAPO31 KWBC 081200 RRE
METAR
LPFL 081200Z 21007KT 170V270 9999 FEW024TCU SCT035 23/17 Q1022 RMK
     WIND RWY36 21008KT 180V240 POS MID 21009KT 170V250=
####018000089####
SASP31 KWBC 081230 RRB
METAR
LEGR 081230Z 18016KT 140V210 9999 FEW060 39/06 Q1017=
####018000181####
SAXX99 KWBC 081200 RRX
METAR
CYMU 081200Z 10005KT 15SM FEW008 SCT035 BKN045 10/10 A2988 RMK
     SF2SC2SC3 VIA CYQB FIC SLP124=
KGYH 081247Z 00000KT 10SM CLR 29/21 A3005=
####018000091####
SPUS41 KWBC 081254
SPECI
KCRQ 081251Z AUTO 00000KT 5SM HZ FEW007 OVC013 17/14 A2990=
####018000084####
SPUS42 KWBC 081254
SPECI
KMAF 081251Z 02008KT 10SM BKN005 OVC015 21/20 A3012=
####018000346####
SASW32 LSSW 081250
METAR LSGC 081250Z 13005KT 060V180 CAVOK 26/13 Q1024=
METAR LSGS 081250Z 24010KT 210V290 9999 FEW120 31/13 Q1019=
METAR LSZG 081250Z NIL=
METAR LSZR 081250Z 29003KT CAVOK 26/16 Q1021 NOSIG RMK J=
METAR LSZS 081250Z 30011G22KT 240V010 9999 FEW070 26/07 Q1026=
METAR LSZC 081250Z 08004KT 030V130 CAVOK 28/15 Q1021=
####018000467####
SAUS43 KWBC 081200 RRM
METAR
KC75 081245Z AUTO 25003KT 10SM SCT008 SCT012 BKN020 24/23
     A3004=
KIGQ 081240Z AUTO 00000KT 5SM -RA SCT041 SCT050 BKN090 24/22
     A3003=
KSAR 081245Z AUTO 20004KT 7SM SCT095 26/23 A3006=
KSLO 081243Z AUTO 21006KT 10SM SCT046 27/23 A3007=
KTAZ 081245Z AUTO 00000KT 10SM CLR 25/24 A3004=
KTIP 081245Z AUTO 00000KT 7SM SCT090 26/24 A3006=
KVYS 081245Z AUTO 28003KT 4SM BR SCT005 BKN008 OVC014 24/22
     A3005=
####018000094####
SPUS51 KWBC 081254
SPECI
KACY 081251Z 10007KT 7SM -RA SCT013 BKN018 BKN031 24/22 A3006=
####018000129####
SAUS51 KWBC 081200 RRF
METAR
KMWN 081248Z 15006KT 8SM SCT/// BKN002 16/15=
KMYR 081247Z 34010KT 10SM SCT150 28/19 A2997=
####018000086####
SPUS53 KWBC 081254
SPECI
KDBQ 081251Z 00000KT 5SM BR SCT005 SCT021 22/21 A3007=
####018000099####
SAUS52 KWBC 081200 RRG
METAR
KSEP 081245Z AUTO 08003KT 5SM SCT002 BKN015 OVC036 23/22 A3005=
####018000079####
SPUS53 KWBC 081254
SPECI
KSLN 081251Z 35010KT 5SM BR OVC006 21/19 A3014=
####018000270####
SAGL31 BGSF 081250
METAR BGSF 081250Z 08005KT 040V120 9999 FEW070 15/01 Q1007=
METAR BGBW 081250Z 26006KT 230V290 9999 FEW040 14/05 Q1008 RMK 
1SC =
METAR BGGH 081253Z NIL=
METAR BGJN 081253Z NIL=
METAR BGKK 081250Z 26004KT 9999 FEW080 SCT120 08/04 Q1009=
####018000494####
SAFI31 EFHK 081250
METAR EFHK 081250Z 33008KT 9999 FEW039 SCT050 28/18 Q1013 NOSIG=
EFJY 081250Z 12003KT 9999 SCT030 SCT080 25/17 Q1015=
METAR EFKU 081250Z AUTO 34004KT CAVOK 23/17 Q1015=
EFOU 081250Z VRB01KT 9999 FEW040 BKN200 23/11 Q1015=
METAR EFRO 081250Z AUTO 19005KT 160V240 CAVOK 21/08
 Q1015=
EFTP 081250Z 27006KT 220V320 9999 FEW045 SCT200 26/14 Q1015=
METAR EFTU 081250Z AUTO 29011KT CAVOK 25/12 Q1015=
EFVA 081250Z 28006KT 240V320 9999 FEW030 SCT200 24/14 Q1014=
####018000106####
SAEU31 BKPR 081300
METAR BKPR 081300Z 01006KT 340V040 9999 SCT030 BKN070 17/11 Q1021
NOSIG RMK BLU=
####018000130####
SAUS44 KMAF 081254
MTRNFW
METAR KNFW 081252Z 11006KT 10SM SCT012 BKN024 26/22 A3007 RMK AO2 
SLP166 RAB47 P0000 T02610222
####018000115####
SAUS43 KFSD 081254
MTR9V9
METAR K9V9 081252Z AUTO 27009KT 17/13 A3020 RMK AO2 SLP217 T01670133 
PWINO TSNO
####018000549####
SADN31 EKCH 081250
METAR EKCH 081250Z 16014KT CAVOK 23/14 Q1020 NOSIG=
METAR COR EKBI 081250Z 25006KT 200V280 9999 FEW022 BKN070 BKN095
21/16 Q1019=
METAR EKYT 081250Z 20008KT 9999 -RA FEW012 BKN023 18/17 Q1018
TEMPO 7000 BKN012=
METAR EKRK 081250Z AUTO 22012KT 190V250 9999NDV BKN050/// 26/10
Q1019=
METAR EKAH 081250Z AUTO 21004KT 170V270 9999NDV -SHRA  FEW013///
BKN070/// 20/16 Q1019=
METAR EKEB 081250Z AUTO 19007KT 3700NDV SHRA  OVC024/// 18/16
Q1019=
METAR EKRN 081250Z AUTO 20004KT 160V240 9999NDV NCD 20/14 Q1022=
####018000135####
SAUS46 KLOX 081254
MTRNZY
METAR KNZY 081252Z 35008KT 7SM -DZ SCT008 OVC013 18/14 A2991 RMK AO2 
DZB22 SLP126 P0000 T01780139 $
####018000068####
SAUS53 KWBC 081200 RRO
METAR
KEHA 081248Z AUTO 36006KT 17/17=
####018000263####
SADN32 EKCH 081250
METAR EKVJ 081250Z 20006KT 5000 -SHRA SCT006 BKN010 BKN020 20/17
Q1018=
METAR EKSB 081250Z NIL=
METAR EKSN 081250Z 27009KT 9999 -RA  SCT018 BKN027 17/14 Q1018=
METAR EKVD 081250Z NIL=
METAR EKOD 081250Z 18008KT CAVOK 25/13 Q1019=
####018000624####
SASN31 ESWI 081250
METAR ESGG 081250Z 20009KT 9999 FEW005 BKN032 17/15 Q1019 RERA=
METAR ESGJ 081250Z AUTO 22013KT 9999NDV BKN049/// BKN069/// 23/10
Q1019=
METAR ESGP 081250Z 17009KT 9999 FEW009 OVC029 17/15 Q1018=
METAR ESGT 081250Z NIL=
METAR ESMK 081250Z 21010KT 170V240 CAVOK 26/11 Q1020=
METAR ESMQ 081250Z 17012KT CAVOK 24/14 Q1019=
METAR ESMS 081250Z 19010KT CAVOK 24/10 Q1021=
METAR ESMT 081250Z 19011KT CAVOK 23/14 Q1020=
METAR ESMX 081250Z 21010KT CAVOK 25/11 Q1020=
METAR ESTA 081250Z 17010KT CAVOK 23/15 Q1020=
METAR ESTL 081250Z AUTO 20010KT 9999NDV SCT053/// BKN064/// 24/11
Q1020=
####018000084####
SPUS72 KWBC 081254
SPECI
KMAF 081251Z 02008KT 10SM BKN005 OVC015 21/20 A3012=
####018000108####
SAUS42 KJAX 081254
MTRNRB
METAR KNRB 081252Z 28004KT 10SM CLR 27/20 A3002 RMK AO2 SLP163 
T02670200
####018000079####
SPUS73 KWBC 081254
SPECI
KSLN 081251Z 35010KT 5SM BR OVC006 21/19 A3014=
####018000085####
SAMZ40 FQMA 081300
METAR FQMA 081300Z 10007KT  9999 FEW020 24/16 Q1027 NOSIG=

####018000121####
SAUS46 KLOX 081254
MTRSDB
METAR KSDB 081252Z AUTO 29004KT 10SM CLR 21/M01 A3003 RMK AO2 SLP110 
T02061006 TSNO $
####018000094####
SPUS81 KWBC 081254
SPECI
KACY 081251Z 10007KT 7SM -RA SCT013 BKN018 BKN031 24/22 A3006=
####018000091####
SPUS81 KWBC 081254
SPECI
KCRQ 081251Z AUTO 00000KT 5SM HZ FEW007 OVC013 17/14 A2990=
####018000086####
SPUS81 KWBC 081254
SPECI
KDBQ 081251Z 00000KT 5SM BR SCT005 SCT021 22/21 A3007=
####018000073####
SADL41 EGRR 081250
METAR ETUO 081250Z 25005KT CAVOK 31/10 Q1019 BLU=
####018000472####
SAXX70 KAWN 081300 RRB
METAR KQEL 081250Z AUTO 06001KT 3SM BR SCT006 22/20 A2976 RMK A02=
METAR KQEW 081250Z AUTO 15001KT 7SM FEW090 FEW100 25/21 A2985 RMK A02=
METAR KQFB 081250Z AUTO 17007KT 2SM BR FEW031 24/19 A2995 RMK A02=
METAR KQFS 081255Z AUTO 14002KT 6000 BR FEW020 SCT029 BKN150 24/21
      A2984 RMK AO2 SLP101 T02360212 $=
METAR KQTO 081255Z 29015KT 9999 CLR 45/04 A2959 RMK SLP018=
METAR KQTU 081255Z VRB02KT 9999 CLR 45/M03 A2961 RMK SLP006=
####018000554####
SARS18 KAWN 081300
METAR EETN 081250Z 31008KT CAVOK 25/18 Q1014 NOSIG=
METAR EETU 081250Z AUTO 28005KT 240V310 5000NDV -RA FEW003/// BKN039///
      21/18 Q1013=
METAR EFHK 081250Z 33008KT 9999 FEW039 SCT050 28/18 Q1013 NOSIG=
METAR EVLA 081250Z 33006KT 270V040 CAVOK 22/16 Q1019=
METAR EVRA 081250Z 31010KT 280V360 9999 OVC021 20/15 Q1015 NOSIG=
METAR EYKA 081250Z 28010KT 250V340 9999 OVC033 17/14 Q1016=
METAR EYPA 081250Z 32007KT 270V060 CAVOK 21/16 Q1019=
METAR EYVI 081250Z 28009KT 4000 -SHRA BKN005 OVC014CB 15/14 Q1015 NOSIG=
####018002952####
SAUS20 KNKA 081254
METAR KBMQ 081253Z AUTO 07004KT 8SM FEW008 BKN024 OVC038 24/22 A3003 
    RMK AO2 RAB00E09 SLP150 P0000 T02440222 $=
METAR KBNA 081253Z 00000KT 10SM FEW038 SCT180 SCT250 28/22 A3009 RMK 
    AO2 SLP182 T02830217=
METAR KBPK 081253Z AUTO 00000KT 8SM OVC070 23/22 A3008 RMK AO2 
    SLP176 T02330222=
METAR KBPT 081253Z 08008KT 9SM BKN009 OVC015 27/25 A2998 RMK AO2 CIG 
    007V012 SLP151 T02670250=
METAR KBRD 081253Z AUTO 25006KT 10SM CLR 19/14 A3008 RMK AO2 SLP183 
    T01890139=
METAR KBRL 081253Z AUTO 7SM OVC004 23/22 A3005 RMK AO2 SLP172 
    T02330217=
METAR KBRO 081253Z 32007KT 10SM SCT005 BKN011 BKN026 26/25 A2977 RMK 
    AO2 RAB09E45 SLP078 P0000 T02610250=
METAR KBTA 081250Z AUTO 36006KT 10SM SCT020 20/17 A3016 RMK AO2 
     T01950173=
METAR KBTL 081253Z 00000KT 10SM CLR 26/21 A3006 RMK AO2 SLP170 
    T02610211=
METAR KBUR 081253Z 35005KT 6SM HZ OVC007 16/13 A2990 RMK AO2 SLP115 
    T01560128=
METAR KBVN 081250Z AUTO 31003KT 10SM BKN110 17/16 A3021 RMK AO2 
     T01730156=
METAR KBVO 081253Z 00000KT 10SM FEW030 OVC060 23/22 A3007 RMK AO2 
    SLP172 T02330217=
METAR KBWG 081253Z AUTO 00000KT 10SM CLR 27/22 A3009 RMK AO2 SLP182 
    T02720222=
METAR KCCR 081253Z AUTO 24005KT 10SM FEW012 12/09 A2991 RMK AO2 
    SLP114 T01220094=
METAR KCHO 081253Z 00000KT 4SM HZ CLR 30/20 A3003 RMK AO2 SLP159 
    T03000200=
METAR KCLL 081253Z 06008KT 7SM OVC007 26/23 A2997 RMK AO2 SLP145 
    T02560228=
METAR KCLM 081253Z AUTO A2999 RMK AO2 SLPNO PWINO FZRANO $=
METAR KCMI 081253Z 25005KT 10SM CLR 26/23 A3005 RMK AO2 SLP170 
    T02610228=
METAR KCMX 081253Z AUTO 30003KT 10SM SCT110 21/16 A3000 RMK AO2 
    SLP157 T02060161=
METAR KCNM 081253Z AUTO 33009KT 9SM -RA OVC013 19/18 A3015 RMK AO2 
    SLP160 P0007 T01940183=
METAR KCNO 081253Z AUTO 23004KT 4SM BR OVC011 15/13 A2992 RMK AO2 
    SLP128 T01500128=
METAR KCOT 081253Z AUTO 03005KT 10SM -RA FEW017 BKN034 OVC060 25/23 
    A2990 RMK AO2 RAB38 SLP118 P0001 T02500233=
METAR KCPS 081253Z 00000KT 10SM BKN041 25/23 A3005 RMK AO2 RAB12E23 
    SLP173 P0000 T02500228=
METAR KCRP 081251Z 04008KT 5SM RA BR SCT022CB BKN040 BKN049 26/25
     A2985 RMK AO2 TSE18 SLP106 TS MOV W CB N MOV W P0002
     T02610250 $=
METAR KCRQ 081253Z AUTO 00000KT 5SM HZ FEW007 OVC013 17/14 A2990 RMK 
    AO2 SLP124 T01670139=
METAR KCXO 081253Z VRB03KT 9SM CLR 24/23 A2998 RMK AO2 LTG DSNT S 
    SLP149 T02440233=
METAR KDAG 081253Z AUTO 26008KT 10SM CLR 22/02 A2988 RMK AO2 SLP089 
    T02170017 TSNO $=
METAR KDAN 081253Z AUTO 03006KT 4SM HZ CLR 31/19 A3002 RMK AO2 
    SLP153 T03060194=
METAR KDBQ 081253Z 00000KT 6SM BR SCT005 SCT021 22/21 A3007 RMK AO2 
    SLP178 T02170206=
METAR KDCU 081253Z AUTO 01003KT 10SM CLR 28/22 A3009 RMK AO2 SLP181 
    T02830217=
METAR KDEW 081253Z AUTO 02006KT 10SM CLR 15/08 A3008 RMK AO2 SLP174 
    T01500078=
####018002942####
SAUS20 KNKA 081254
METAR KDHT 081253Z AUTO 36010KT 10SM OVC007 18/17 A3025 RMK AO2 
    SLP191 T01780167=
METAR KDLS 081253Z AUTO 00000KT 10SM CLR 14/06 A2998 RMK AO2 SLP149 
    T01440061=
METAR KDMN 081253Z AUTO 05009KT 10SM CLR 22/13 A3014 RMK AO2 SLP124 
    T02170128=
METAR KDMO 081253Z AUTO 00000KT 10SM FEW002 OVC008 24/22 A3009 RMK 
    AO2 SLP181 T02390222=
METAR KDRT 081253Z AUTO 00000KT 8SM OVC015 24/23 A2997 RMK AO2 
    SLP133 T02440228=
METAR KDVO 081250Z AUTO 32006KT 10SM OVC012 12/12 A2993 RMK AO2=
METAR KDVT 081253Z 00000KT 10SM CLR 27/00 A2981 RMK AO2 SLP067 
    T02720000=
METAR KDWH 081253Z 06007KT 8SM FEW007 BKN070 BKN090 25/24 RMK AO2 
    LTG DSNT SE AND S SLPNO T02500239 $=
METAR KEET 081253Z AUTO 35003KT 8SM CLR 28/22 A3006 RMK AO2 SLP171 
    T02780222=
METAR KEGE 081250Z 00000KT 10SM SKC 09/08 A3040=
METAR KELN 081253Z AUTO 06004KT 10SM CLR 12/07 A3006 RMK AO2 SLP166 
    T01220067 $=
METAR KEMP 081253Z AUTO 01005KT 10SM FEW009 BKN029 22/20 A3010 RMK 
    AO2 SLP185 T02220200=
METAR KENW 081253Z 26005KT 10SM SCT010 BKN029 BKN040 23/22 A3003 RMK 
    AO2 SLP166 T02330217 $=
METAR KEPH 081253Z AUTO 34005KT 10SM CLR 21/04 A3002 RMK AO2 SLP154 
    T02060044=
METAR KESF 081253Z AUTO 08003KT 10SM CLR 26/24 A3005 RMK AO2 SLP174 
    T02560239=
METAR KFAT 081253Z 31009KT 10SM CLR 19/09 A2984 RMK AO2 SLP099 
    T01890094=
METAR KFAY 081253Z AUTO 02007KT 7SM CLR 29/20 A2996 RMK AO2 SLP138 
    T02890200=
METAR KFCM 081253Z 28005KT 10SM CLR 21/16 A3011 RMK AO2 SLP192 
    T02060156=
METAR KFFC 081253Z AUTO 00000KT 10SM CLR 26/19 A3006 RMK AO2 SLP171 
    T02560194=
METAR KFHR 081253Z AUTO 00000KT 10SM CLR 14/11 A2999 RMK AO2 SLP153 
    T01390106=
METAR KFMN 081253Z 09005KT 10SM CLR 18/06 A3026 RMK AO2 SLP179 
    T01780056=
METAR KFNB 081253Z AUTO 36007KT 10SM BKN009 22/19 A3011 RMK AO2 CIG 
    007V012 SLP187 T02170194=
METAR KFOE 081253Z 36007KT 7SM OVC005 22/21 A3010 RMK AO2 SLP182 
    T02220206 $=
METAR KFSM 081253Z 09003KT 10SM CLR 26/23 A3005 RMK AO2 SLP171 
    T02560228=
METAR KFST 081253Z AUTO 14003KT 10SM BKN095 OVC110 22/19 A3009 RMK 
    AO2 SLP141 T02170194=
METAR KFTY 081253Z 00000KT 8SM CLR 27/19 A3006 RMK AO2 SLP166 
    T02670194=
METAR KFUL 081253Z 00000KT 9SM OVC017 17/12 A2990 RMK AO2 SLP124 
    T01720122=
METAR KFYV 081253Z 00000KT 10SM BKN018 OVC024 23/22 A3009 RMK AO2 
    SLP175 T02330217=
METAR KGAG 081253Z AUTO 36007KT 10SM -RA OVC009 21/19 A3016 RMK AO2 
    RAB27 SLP187 P0000 T02060194=
METAR KGEG 081253Z 04006KT 10SM CLR 16/08 A3008 RMK AO2 SLP168 
    T01610083=
METAR KGFK 081253Z 31006KT 10SM FEW080 18/14 A3006 RMK AO2 SLP179 
    T01780144=
METAR KGLD 081253Z AUTO 08003KT 10SM SCT003 OVC016 17/16 A3032 RMK 
    AO2 SLP235 T01670161=
METAR KGLH 081253Z 00000KT 10SM CLR 26/24 A3007 RMK AO2 SLP186 
    T02610239=
####018002994####
SAUS20 KNKA 081254
METAR K1F0 081249Z AUTO 00000KT 24/24 A3002 RMK AO2 PWINO=
METAR KPMV 081250Z AUTO 34004KT 10SM CLR 21/20 A3015 RMK AO2 
     T02070196=
METAR KABI 081252Z 12003KT 7SM OVC008 22/21 A3008 RMK AO2 CIG
     005V011 SLP164 T02220211=
METAR KABR 081253Z AUTO 27003KT 10SM CLR 19/15 A3014 RMK AO2 SLP199 
    T01940150=
METAR KACV 081253Z AUTO 00000KT 10SM OVC003 10/09 A2996 RMK AO2 
    SLP151 T01000094=
METAR KAEX 081253Z AUTO 00000KT 10SM FEW006 26/24 A3004 RMK AO2 
    SLP173 T02560239=
METAR KAGS 081253Z 31004KT 10SM CLR 31/20 A3000 RMK AO2 SLP156 
    T03060200=
METAR KALI 081253Z AUTO 03008KT 10SM -RA BKN006 BKN015 OVC027 25/24 
    A2985 RMK AO2 RAB48 CIG 004V009 SLP105 P0000 T02500244=
METAR KALW 081253Z AUTO 13004KT 10SM CLR 17/07 A3000 RMK AO2 SLP149 
    T01670072=
METAR KAMA 081253Z 01011KT 7SM BKN005 OVC010 18/17 A3022 RMK AO2 CIG 
    004V008 SLP185 T01780167 $=
METAR KAMW 081253Z AUTO 35009KT 9SM CLR 21/18 A3013 RMK AO2 SLP195 
    T02060183=
METAR KANB 081253Z AUTO 00000KT 9SM CLR 25/21 A3007 RMK AO2 SLP171 
    T02500206=
METAR KAOO 081253Z AUTO 00000KT 4SM HZ CLR 26/18 A3011 RMK AO2 
    SLP184 T02560178=
METAR KARA 081253Z 07006KT 4SM BR OVC003 26/25 A3003 RMK AO2 CIG 
    002V006 SLP167 T02560250=
METAR KASD 081253Z AUTO 00000KT 10SM FEW001 26/25 A3004 RMK AO2 
    SLP171 T02610250=
METAR KASX 081253Z AUTO 25005KT 10SM CLR 20/17 A3006 RMK AO2 SLP177 
    T02000167=
METAR KATY 081253Z AUTO 23003KT 10SM CLR 18/14 A3015 RMK AO2 SLP205 
    T01780144=
METAR KAUN 081250Z AUTO 00000KT 10SM CLR 21/14 A2988 RMK AO1=
METAR KAUS 081253Z 05008KT 8SM FEW008 BKN024 OVC043 26/24 A2997 RMK 
    AO2 SLP136 T02560239=
METAR KAWM 081253Z AUTO 00000KT 10SM CLR 27/22 A3007 RMK AO2 SLP177 
    T02720222=
METAR KAXN 081253Z AUTO 28007KT 10SM CLR 19/16 A3013 RMK AO2 SLP199 
    T01940156=
METAR KAZO 081253Z VRB03KT 5SM HZ CLR 26/21 A3004 RMK AO2 SLP166 
    T02610211=
METAR KBDE 081253Z AUTO 25004KT 10SM CLR 17/13 A3001 RMK AO2 SLP161 
    T01720128=
METAR KBEH 081253Z AUTO 13004KT 9SM FEW043 BKN065 OVC080 24/22 A3003 
    RMK AO2 LTG DSNT SE SLP164 T02390217 $=
METAR KBFD 081253Z AUTO 00000KT 8SM CLR 24/18 A3015 RMK AO2 SLP193 
    T02440183=
METAR KBFF 081253Z AUTO 00000KT 10SM FEW042 BKN055 15/13 A3031 RMK 
    AO2 SLP235 T01500128=
METAR KBFI 081253Z 00000KT 10SM CLR 18/12 A2995 RMK AO2 SLP143 
    T01830122=
METAR KBFM 081253Z 29003KT 10SM CLR 27/25 A3006 RMK AO2 SLP177 
    T02720250=
METAR KBHM 081253Z 00000KT 10SM CLR 28/22 A3008 RMK AO2 SLP177 
    T02780217=
METAR KBIE 081250Z AUTO 36008KT 10SM CLR 19/18 A3016 RMK AO2 
     T01920178=
METAR KBIV 081253Z AUTO 13005KT 4SM BR SCT001 SCT046 24/22 A3002 RMK 
    AO2 SLP161 T02440222=
METAR KBKE 081253Z AUTO 00000KT 10SM CLR 06/06 A3013 RMK AO2 SLP186 
    T00610056=
METAR KBLI 081253Z AUTO 00000KT 10SM CLR 14/13 A2997 RMK AO2 SLP155 
    T01440128=
####018001744####
SAEU KAWN 081300 RRA
METAR EDDB 081250Z 16003KT CAVOK 28/05 Q1020 NOSIG=
METAR EDDC 081250Z 27006KT 250V310 CAVOK 26/10 Q1022 NOSIG=
METAR EDDE 081250Z 35003KT CAVOK 27/09 Q1021 NOSIG=
METAR EDDF 081250Z 35002KT CAVOK 30/11 Q1020 NOSIG=
METAR EDDG 081250Z 22006KT 160V260 CAVOK 30/09 Q1019 NOSIG=
METAR EDDH 081250Z 23009KT CAVOK 29/10 Q1019 NOSIG=
METAR EDDK 081250Z 22005KT 180V300 CAVOK 31/10 Q1019 NOSIG=
METAR EDDL 081250Z 26006KT CAVOK 31/08 Q1019 NOSIG=
METAR EDDM 081250Z VRB03KT CAVOK 25/11 Q1022 NOSIG=
METAR EDDN 081250Z 24004KT CAVOK 28/07 Q1021 NOSIG=
METAR EDDP 081250Z VRB04KT CAVOK 28/11 Q1021 NOSIG=
METAR EDDR 081250Z 19004KT 160V230 CAVOK 29/10 Q1020 NOSIG=
METAR EDDS 081250Z VRB03KT CAVOK 28/09 Q1021 NOSIG=
METAR EDDT 081250Z 04005KT 360V060 CAVOK 28/07 Q1020 NOSIG=
METAR EDDV 081250Z 22005G15KT 170V300 CAVOK 30/10 Q1019 NOSIG=
METAR EDDW 081250Z 25011KT 180V250 CAVOK 31/06 Q1018 NOSIG=
METAR COR EKBI 081250Z 25006KT 200V280 9999 FEW022 BKN070 BKN095 21/16
      Q1019=
METAR EKCH 081250Z 16014KT CAVOK 23/14 Q1020 NOSIG=
METAR EKEB 081250Z AUTO 19007KT 3700NDV SHRA OVC024/// 18/16 Q1019=
METAR EKKA 081250Z 20006KT 160V230 5000 -SHRA FEW009 FEW018TCU BKN030
      18/17 Q1018 TEMPO 4000 SHRA SCT020CB=
METAR EKOD 081250Z 18008KT CAVOK 25/13 Q1019=
METAR EKRK 081250Z AUTO 22012KT 190V250 9999NDV BKN050/// 26/10 Q1019=
METAR EKRN 081250Z AUTO 20004KT 160V240 9999NDV NCD 20/14 Q1022=
METAR EKSN 081250Z 27009KT 9999 -RA SCT018 BKN027 17/14 Q1018=
METAR EKSP 081250Z 23011KT CAVOK 25/12 Q1019 TEMPO SHRA RMK BKN100=
METAR EKYT 081250Z 20008KT 9999 -RA FEW012 BKN023 18/17 Q1018 TEMPO
      7000 BKN012=
METAR LXGB 081250Z 09008KT CAVOK 27/16 Q1016 NOSIG=
####018001727####
SAEW KAWN 081300
METAR EDDB 081250Z 16003KT CAVOK 28/05 Q1020 NOSIG=
METAR EDDC 081250Z 27006KT 250V310 CAVOK 26/10 Q1022 NOSIG=
METAR EDDE 081250Z 35003KT CAVOK 27/09 Q1021 NOSIG=
METAR EDDF 081250Z 35002KT CAVOK 30/11 Q1020 NOSIG=
METAR EDDG 081250Z 22006KT 160V260 CAVOK 30/09 Q1019 NOSIG=
METAR EDDH 081250Z 23009KT CAVOK 29/10 Q1019 NOSIG=
METAR EDDK 081250Z 22005KT 180V300 CAVOK 31/10 Q1019 NOSIG=
METAR EDDL 081250Z 26006KT CAVOK 31/08 Q1019 NOSIG=
METAR EDDM 081250Z VRB03KT CAVOK 25/11 Q1022 NOSIG=
METAR EDDN 081250Z 24004KT CAVOK 28/07 Q1021 NOSIG=
METAR EDDP 081250Z VRB04KT CAVOK 28/11 Q1021 NOSIG=
METAR EDDR 081250Z 19004KT 160V230 CAVOK 29/10 Q1020 NOSIG=
METAR EDDS 081250Z VRB03KT CAVOK 28/09 Q1021 NOSIG=
METAR EDDT 081250Z 04005KT 360V060 CAVOK 28/07 Q1020 NOSIG=
METAR EDDV 081250Z 22005G15KT 170V300 CAVOK 30/10 Q1019 NOSIG=
METAR EDDW 081250Z 25011KT 180V250 CAVOK 31/06 Q1018 NOSIG=
METAR EKEB 081250Z AUTO 19007KT 3700NDV SHRA OVC024/// 18/16 Q1019=
METAR EKKA 081250Z 20006KT 160V230 5000 -SHRA FEW009 FEW018TCU BKN030
      18/17 Q1018 TEMPO 4000 SHRA SCT020CB=
METAR EKOD 081250Z 18008KT CAVOK 25/13 Q1019=
METAR EKVG 081251Z 19009KT 9999 -SHRA SCT006 BKN010 BKN017 11/10 Q0994
      RMK/RWY 13/31 CLOSED DUE WIP/ SEE NOTAM E0050/10 WIND 850FT
      VRB09G36KT=
METAR EKYT 081250Z 20008KT 9999 -RA FEW012 BKN023 18/17 Q1018 TEMPO
      7000 BKN012=
METAR ETNG 081250Z 26007KT CAVOK 31/11 Q1019 NOSIG=
METAR LSGG 081250Z 21008KT 170V260 9999 FEW060 SCT300 32/11 Q1021 NOSIG=
METAR LSZA 081250Z 18005KT 9999 FEW055 29/15 Q1021 NOSIG=
METAR LSZB 081250Z 29006KT CAVOK 30/12 Q1021 NOSIG=
METAR LSZH 081250Z VRB03KT CAVOK 29/12 Q1021 NOSIG=
####018002991####
SAUS20 KNKA 081254
METAR KRWF 081253Z AUTO 30005KT 10SM CLR 19/15 A3014 RMK AO2 SLP202 
    T01890150=
METAR KRWI 081253Z AUTO 03006KT 5SM HZ CLR 27/21 A2999 RMK AO2 
    SLP152 T02720211=
METAR KSAC 081253Z 18003KT 10SM CLR 13/10 A2985 RMK AO2 SLP108 
    T01330100=
METAR KSAF 081253Z AUTO 31003KT 10SM CLR 14/11 A3034 RMK AO2 SLP194 
    T01390111=
METAR KSAN 081251Z 32004KT 8SM OVC015 16/14 A2993 RMK AO2 SLP133
     T01610139=
METAR KSAT 081253Z 04006KT 8SM BKN013 BKN060 OVC250 26/24 A2995 RMK 
    AO2 RAE21 SLP124 P0000 T02560239=
METAR KSBA 081253Z 00000KT 9SM OVC011 14/12 A2991 RMK AO2 SLP127 
    T01440122 $=
METAR KSBM 081253Z AUTO 23004KT 10SM 23/21 A3001 RMK AO2 SLP159 
    T02280211 $=
METAR KSDL 081253Z 00000KT 10SM CLR 29/06 A2983 RMK AO2 SLP070 
    T02890061=
METAR KSEA 081253Z 35005KT 10SM CLR 18/12 A2997 RMK AO2 SLP151 
    T01780122 $=
METAR KSFF 081253Z 00000KT 10SM CLR 13/11 A3008 RMK AO2 SLP172 
    T01330106=
METAR KSIY 081253Z AUTO 00000KT 10SM CLR 15/07 A2999 RMK AO2 SLP138 
    T01500072 $=
METAR KSJC 081253Z 00000KT 7SM FEW008 BKN011 OVC013 15/12 A2992 RMK 
    AO2 SLP132 T01500117=
METAR KSLN 081253Z 35011KT 5SM BR OVC006 21/19 A3014 RMK AO2 CIG 
    004V008 SLP194 T02110194=
METAR KSMF 081253Z 15008KT 10SM CLR 13/11 A2984 RMK AO2 SLP103 
    T01330106=
METAR KSNA 081253Z 00000KT 8SM OVC015 18/13 A2991 RMK AO2 SLP126 
    T01830128=
METAR KSNS 081253Z 28003KT 8SM OVC009 13/11 A2993 RMK AO2 SLP144 
    T01280106=
METAR KSPB 081253Z AUTO 23003KT 9SM CLR 14/12 A2990 RMK AO2 SLP125 
    T01390117 $=
METAR KSPW 081253Z AUTO 30006KT 10SM CLR 19/16 A3017 RMK AO2 SLP211 
    T01890161=
METAR KSSF 081253Z 05007KT 10SM FEW010 SCT017 BKN028 27/23 A2993 RMK 
    AO2 SLP122 T02670233=
METAR KSTC 081253Z 26004KT 10SM CLR 19/16 A3010 RMK AO2 SLP198 
    T01940156=
METAR KSTJ 081253Z 01008KT 9SM OVC009 23/21 A3009 RMK AO2 CIG 
    006V013 SLP182 T02280206=
SPECI KSTL 081253Z 24003KT 10SM FEW009 BKN025TCU BKN075 BKN150 
    BKN250 26/23 A3006 RMK AO2 TCU W-NE VCSH W-N=
METAR KSTP 081253Z 31006KT 10SM CLR 21/16 A3011 RMK AO2 SLP191 
    T02110161=
METAR KSTS 081253Z AUTO VRB03KT 10SM OVC004 12/10 A2992 RMK AO2 
    SLP125 T01170100=
METAR KSWO 081253Z 32004KT 8SM FEW004 23/22 A3005 RMK AO2 SLP165 
    T02330217=
METAR KTCC 081253Z AUTO 05008KT 10SM FEW018 OVC075 18/16 A3025 RMK 
    AO2 SLP187 T01780156=
METAR KTCL 081253Z 00000KT 10SM CLR 28/23 A3005 RMK AO2 SLP175 
    T02830228=
METAR KTIW 081253Z AUTO 00000KT 10SM CLR 18/12 A2996 RMK AO2 SLP141 
    T01780117=
METAR KTOP 081253Z 36007KT 7SM OVC007 23/22 A3009 RMK AO2 SLP181 
    T02330217=
METAR KTTD 081253Z AUTO 27003KT 10SM CLR 17/14 A2989 RMK AO2 SLP123 
    T01670144=
METAR KTUL 081253Z 35005KT 10SM FEW015 SCT030 BKN080 23/23 A3003 RMK 
    AO2 SLP162 T02330228=
METAR KTUS 081253Z 15005KT 10SM CLR 28/10 A2993 RMK AO2 SLP078 
    T02830100=
####018001340####
SAUS20 KNKA 081254
METAR KTVC 081253Z 00000KT 7SM BKN014 OVC028 22/21 A3000 RMK AO2 
    RAB07E50 SLP155 P0001 T02220211=
METAR KTVR 081253Z AUTO 00000KT 10SM CLR 26/23 A3007 RMK AO2 SLP188 
    T02560228=
METAR KUAO 081253Z AUTO 00000KT 10SM CLR 17/12 A2992 RMK AO2 SLP131 
    T01670122=
METAR KUNO 081253Z AUTO 23006KT 10SM OVC080 24/22 A3011 RMK AO2 
    SLP180 T02440217 TSNO=
METAR KUTS 081253Z AUTO 09003KT 6SM BR BKN007 BKN100 24/23 A2999 RMK 
    AO2 CIG 005V009 SLP152 T02440233=
METAR KVCB 081253Z AUTO 23004KT 10SM CLR 15/10 A2984 RMK AO2 SLP102 
    T01500100=
METAR KVGT 081253Z 00000KT 10SM CLR 26/M04 A2987 RMK AO2 SLP077 
    T02561044=
METAR KVIH 081253Z AUTO 00000KT 8SM -RA OVC015 24/22 A3007 RMK AO2 
    RAB36 SLP171 P0001 T02390222=
METAR KVPC 081253Z AUTO 00000KT 8SM CLR 24/21 A3007 RMK AO2 SLP169 
    T02390206=
METAR KVPZ 081253Z AUTO 10005KT 3SM BR SCT050 OVC090 24/23 A3004 RMK 
    AO2 SLP167 T02390228=
METAR KVUO 081253Z AUTO 00000KT 10SM CLR 16/13 A2991 RMK AO2 SLP127 
    T01560133=
METAR KWVI 081253Z AUTO 00000KT 10SM OVC007 13/11 A2994 RMK AO2 
    SLP138 T01280111=
METAR KXNA 081253Z 17005KT 10SM OVC019 23/22 A3009 RMK AO2 RAB13E22 
    SLP174 P0000 T02330217=
METAR KYKM 081253Z 29006KT 10SM CLR 12/08 A3003 RMK AO2 SLP162 
    T01170078=
####018002967####
SAUS20 KNKA 081254
METAR KGLR 081253Z AUTO 25006KT 2SM -RA BR FEW007 BKN048 OVC060 
    21/21 A3003 RMK AO2 SLP164 P0004 T02110206=
METAR KGPT 081253Z 01004KT 10SM CLR 28/25 A3004 RMK AO2 SLP172 
    T02830250=
METAR KGRB 081253Z 30004KT 3SM BR OVC004 22/21 A3001 RMK AO2 CIG 
    003V007 SLP158 T02220211=
METAR KGRI 081253Z 36004KT 10SM CLR 17/15 A3022 RMK AO2 SLP222 
    T01720150=
METAR KGRR 081253Z 00000KT 2 1/2SM BR FEW006 SCT050 OVC130 24/22 
    A3004 RMK AO2 SLP165 T02440222=
METAR KGSH 081253Z AUTO 17005KT 5SM HZ CLR 26/21 A3005 RMK AO2 LTG 
    DSNT NW SLP168 T02610211=
METAR KGSP 081253Z 00000KT 10SM CLR 28/19 A3004 RMK AO2 SLP157 
    T02830189=
METAR KGUP 081253Z AUTO 00000KT 10SM CLR 17/07 A3028 RMK AO2 SLP076 
    T01720072=
METAR KGUY 081253Z AUTO 34004KT 10SM BKN017 BKN022 OVC110 18/17 
    A3022 RMK AO2 RAE48 SLP191 P0002 T01830172=
METAR KGVL 081253Z AUTO 31004KT 10SM CLR 27/19 A3009 RMK AO2 SLP170 
    T02720189=
METAR KGWO 081253Z AUTO 06003KT 10SM CLR 26/23 A3007 RMK AO2 SLP181 
    T02610228=
METAR KHBG 081253Z AUTO 00000KT 9SM CLR 26/24 A3006 RMK AO2 SLP176 
    T02610244=
METAR KHDE 081250Z AUTO 01004KT 10SM SCT085 17/15 A3023 RMK AO2 
     T01700150=
METAR KHEI 081253Z AUTO 00000KT 10SM CLR 14/11 A3021 RMK AO2 SLP220 
    T01390111=
METAR KHGR 081253Z 00000KT 5SM HZ CLR 28/18 A3005 RMK AO2 SLP176 
    T02830178=
METAR KHHR 081253Z 00000KT 10SM OVC012 17/13 A2991 RMK AO2 SLP128 
    T01670133=
METAR KHIB 081253Z AUTO 21005KT 10SM CLR 18/16 A3005 RMK AO2 SLP176 
    T01780156=
METAR KHIO 081253Z 00000KT 10SM CLR 14/11 A2990 RMK AO2 SLP123 
    T01390111=
METAR KHJH 081250Z AUTO 02003KT 10SM BKN029 OVC036 20/17 A3018 
     RMK AO2 T01950174=
METAR KHKA 081253Z AUTO 23003KT 6SM HZ CLR 28/23 A3008 RMK AO2 
    SLP183 T02780228=
METAR KHKS 081253Z 06003KT 10SM CLR 27/23 A3008 RMK AO2 SLP176 
    T02670228=
METAR KHKY 081253Z 31005KT 10SM CLR 27/18 A3006 RMK AO2 SLP155 
    T02670183 PNO=
METAR KHLC 081253Z AUTO 03003KT 10SM OVC029 19/15 A3023 RMK AO2 
    SLP221 T01890150=
METAR KHLG 081253Z 00000KT 4SM HZ CLR 25/21 A3010 RMK AO2 SLP184 
    T02500211=
METAR KHOT 081253Z AUTO 00000KT 9SM OVC012 25/23 A3009 RMK AO2 
    SLP183 T02500233=
METAR KHOU 081253Z 08006KT 9SM -RA FEW010 BKN090 OVC110 24/22 A2995 
    RMK AO2 RAB00 SLP148 OCNL LTGIC NW-N P0008 T02440222=
METAR KHQM 081253Z AUTO 27004KT 1/2SM FG 13/12 A2996 RMK AO2 SLP150 
    T01280122 $=
METAR KHRI 081253Z AUTO 17003KT 10SM CLR 11/07 A2997 RMK AO2 SLP144 
    T01110072=
METAR KHRO 081253Z AUTO 15003KT 10SM SCT046 BKN100 24/22 A3011 RMK 
    AO2 SLP179 T02390217=
METAR KHSI 081253Z AUTO 01004KT 10SM CLR 17/15 A3021 RMK AO2 SLP219 
    T01670150=
METAR KHSV 081253Z 04005KT 10SM FEW250 30/22 A3009 RMK AO2 SLP179 
    T03000222 $=
METAR KHYR 081253Z AUTO 00000KT 10SM CLR 20/16 A3009 RMK AO2 SLP184 
    T02000156=
####018002968####
SAUS20 KNKA 081254
METAR KMCB 081253Z AUTO 05004KT 10SM CLR 26/23 A3007 RMK AO2 SLP176 
    T02560233=
METAR KMCE 081253Z AUTO 32005KT 10SM CLR 16/10 A2983 RMK AO2 SLP101 
    T01610100=
METAR KMCI 081253Z 02005KT 3/4SM BR OVC002 23/22 A3009 RMK AO2 SFC 
    VIS 2 SLP181 T02280222=
METAR KMCW 081253Z AUTO 34008KT 10SM CLR 19/18 A3015 RMK AO2 SLP198 
    T01940178=
METAR KMEM 081253Z 00000KT 10SM FEW150 SCT250 28/22 A3008 RMK AO2 
    SLP181 T02830217=
METAR KMFE 081253Z 34009KT 10SM BKN008 BKN033 BKN041 26/24 A2980 RMK 
    AO2 CIG 007V012 SLP090 T02610244=
METAR KMFR 081253Z AUTO 00000KT 10SM CLR 20/12 A2992 RMK AO2 SLP117 
    T02000122=
METAR KMGW 081253Z 00000KT 5SM HZ CLR 25/20 A3012 RMK AO2 SLP187 
    T02500200=
METAR KMHE 081253Z AUTO 23004KT 10SM CLR 19/15 A3018 RMK AO2 SLP212 
    T01940150 TSNO=
METAR KMIC 081253Z 29004KT 10SM CLR 21/16 A3010 RMK AO2 SLP188 
    T02110161=
METAR KMIW 081253Z AUTO 35007KT 10SM CLR 21/19 A3010 RMK AO2 SLP188 
    T02060189=
METAR KMKL 081253Z 28003KT 10SM CLR 27/23 A3009 RMK AO2 SLP184 
    T02670233=
METAR KMLE 081250Z AUTO 35003KT 10SM BKN021 20/17 A3015 RMK AO2 
     T02010172=
METAR KMLP 081253Z AUTO 11009G17KT 10SM CLR 12/02 A3027 RMK AO2 
    SLP159 T01220017 TSNO=
METAR KMMH 081250Z AUTO 30007KT 10SM CLR 07/01 A3023 RMK AO1=
METAR KMMV 081253Z AUTO 25004KT 10SM CLR 13/10 A2993 RMK AO2 SLP132 
    T01280100=
METAR KMOD 081253Z AUTO 35004KT 10SM CLR 14/11 A2984 RMK AO2 SLP105 
    T01440106=
METAR KMRB 081253Z AUTO 00000KT 5SM HZ CLR 28/19 A3005 RMK AO2 
    SLP168 T02780189=
METAR KMSL 081253Z AUTO 31003KT 10SM CLR 26/23 A3010 RMK AO2 SLP186 
    T02610228=
METAR KMSP 081253Z 00000KT 10SM CLR 21/17 A3011 RMK AO2 SLP194 
    T02060167=
METAR KMSY 081253Z 11004KT 10SM FEW016 SCT250 28/24 A3003 RMK AO2 
    SLP172 T02830239=
METAR KMTO 081253Z AUTO 23003KT 10SM CLR 26/23 A3005 RMK AO2 SLP169 
    T02610233=
METAR KMYF 081253Z AUTO 31006KT 10SM OVC015 16/14 A2991 RMK AO2 
    SLP125 T01610139 TSNO=
METAR KMYV 081253Z AUTO 15003KT 10SM CLR 15/11 A2984 RMK AO2 SLP108 
    T01500106=
METAR KNEW 081253Z 07009KT 10SM SCT017 28/26 A3004 RMK AO2 SLP164 
    T02780256=
METAR KOAK 081253Z 31007KT 8SM OVC007 14/11 A2994 RMK AO2 SLP136 
    T01440111=
METAR KODX 081253Z AUTO 32003KT 10SM FEW090 17/16 A3022 RMK AO2 
    SLP229 T01720161=
METAR KOGA 081250Z AUTO 00000KT 10SM SCT080 OVC100 16/15 A3029 
     RMK AO2 T01590147=
METAR KOJC 081253Z 02006KT 10SM CLR 24/20 A3009 RMK AO2 SLP178 
    T02390200=
METAR KOMK 081253Z AUTO 33006KT 10SM CLR 14/08 A3006 RMK AO2 SLP173 
    T01440083=
METAR KONL 081250Z AUTO 00000KT 10SM CLR 18/16 A3022 RMK AO2 
     T01800156=
METAR KONT 081253Z 22004KT 3SM BR OVC010 15/13 A2991 RMK AO2 SLP117 
    T01500128=
METAR KORF 081251Z 07006KT 10SM -RA FEW016 BKN080 BKN100 27/21
     A2999 RMK AO2 RAB38 SLP156 P0000 T02670211=
####018000200####
SAAK41 KNKA 081254
METAR PATA 081252Z AUTO 35004KT 10SM CLR 07/04 A3005 RMK AO2 SLP177 
    T00670044 TSNO=
METAR PHJR 081253Z 00000KT 10SM SCT060 22/17 A3001 RMK AO2 SLP170 
    T02220172=
####018002997####
SAUS20 KNKA 081254
METAR KOSH 081253Z 26005KT 8SM SCT004 23/21 A3001 RMK AO2 SLP148 
    T02330206=
METAR KOTM 081253Z AUTO 35006KT 7SM CLR 21/20 A3008 RMK AO2 SLP182 
    T02110200=
METAR KOUN 081253Z AUTO 35004KT 10SM BKN028 26/23 A3007 RMK AO2=
METAR KOVE 081253Z AUTO 13008KT 10SM CLR 17/12 A2987 RMK AO2 SLP114 
    T01720117 TSNO=
METAR KOVS 081253Z AUTO 28004KT 10SM OVC009 22/20 A3006 RMK AO2 CIG 
    005V014 SLP177 T02220200=
METAR KPAE 081253Z AUTO 00000KT 10SM CLR 18/12 A2998 RMK AO2 SLP147 
    T01830117=
METAR KPAH 081253Z 24005KT 10SM CLR 27/23 A3006 RMK AO2 SLP175 
    T02720228=
METAR KPBF 081253Z AUTO 00000KT 10SM CLR 26/23 A3008 RMK AO2 SLP183 
    T02610228=
METAR KPDK 081253Z 02003KT 10SM CLR 28/18 A3006 RMK AO2 SLP156 
    T02830183=
METAR KPDT 081253Z 09004KT 10SM CLR 14/07 A2999 RMK AO2 SLP139 
    T01440072=
METAR KPDX 081253Z 28003KT 10SM FEW080 17/13 A2991 RMK AO2 SLP128 
    T01720128=
METAR KPGA 081253Z AUTO 27003KT 10SM CLR 23/02 A3008 RMK AO2 SLP111 
    T02330022=
METAR KPIR 081253Z AUTO 24006KT 10SM CLR 16/12 A3019 RMK AO2 SLP213 
    T01560122=
METAR KPKD 081253Z AUTO 27006KT 10SM CLR 17/14 A3009 RMK AO2 SLP188 
    T01720144=
METAR KPMD 081253Z 17003KT 10SM CLR 15/02 A2992 RMK AO2 SLP104 
    T01500022 $=
METAR KPNA 081250Z AUTO 30005KT 10SM BKN100 07/02 A3041 RMK AO2 
     T00680015=
METAR KPOF 081253Z AUTO 23005KT 10SM CLR 27/24 A3006 RMK AO2 SLP172 
    T02720239=
METAR KPQL 081253Z 36004KT 10SM BKN012 26/25 A3005 RMK AO2 SLP176 
    T02560250=
METAR KPRC 081253Z 00000KT 10SM SCT060 17/01 A3012 RMK AO2 SLP110 
    T01720006=
METAR KPSC 081253Z AUTO 00000KT 10SM CLR 16/11 A2998 RMK AO2 SLP151 
    T01560106=
METAR KPSP 081253Z 00000KT 10SM CLR 23/13 A2976 RMK AO2 SLP074 
    T02280133=
METAR KPSX 081253Z AUTO 10014G22KT 6SM RA BR CLR 26/24 A2988 RMK AO2 
    RAE15B51 SLP117 P0001 T02610239=
METAR KPTT 081250Z AUTO 36011KT 4SM BR BKN006 OVC010 20/19 A3016 
     RMK AO2=
METAR KPVD 081251Z 16006KT 10SM BKN100  24/20 A3011=
METAR KRAL 081253Z AUTO 22003KT 4SM BR OVC007 15/13 A2991 RMK AO2 
    SLP115 T01500128=
METAR KRBG 081253Z AUTO 00000KT 10SM CLR 16/12 A2994 RMK AO2 SLP135 
    T01610117=
METAR KRDD 081253Z AUTO 17004KT 10SM CLR 22/16 A2983 RMK AO2 SLP094 
    T02170156=
METAR KRHI 081253Z AUTO VRB03KT 10SM CLR 20/16 A3006 RMK AO2 SLP174 
    T02000161=
METAR KRKP 081253Z AUTO 04007KT 3/4SM +RA FEW010 BKN015 OVC021 A2985 
    RMK AO2 RAB17 SLP111 P0018 FZRANO $=
METAR KRMG 081253Z AUTO 00000KT 10SM CLR 26/19 A3006 RMK AO2 SLP169 
    T02560189=
METAR KRNT 081253Z AUTO 00000KT 9SM CLR 16/13 A2995 RMK AO2 SLP148 
    T01560133=
METAR KRSL 081253Z AUTO 35009KT 10SM OVC013 19/17 A3018 RMK AO2 
    SLP208 T01890172=
METAR KRUE 081253Z AUTO 17003KT 10SM SCT037 25/23 A3008 RMK AO2 
    SLP177 T02500233=
METAR KRVS 081253Z 00000KT 10SM OVC021 23/22 A3004 RMK AO2 SLP176 
    T02330222=
####018002934####
SAUS20 KNKA 081254
METAR KIBM 081250Z AUTO 00000KT 7SM SCT025 BKN060 OVC075 13/12 
     A3033 RMK AO2 T01270118=
METAR KICR 081253Z AUTO 25005KT 10SM CLR 18/12 A3022 RMK AO2 SLP224 
    T01830117 TSNO $=
METAR KICT 081253Z 36008KT 10SM BKN008 BKN080 BKN120 23/21 A3011 RMK 
    AO2 SLP181 T02280211 $=
METAR KILM 081253Z 05007KT 7SM CLR 28/22 A2994 RMK AO2 SLP137 
    T02830217=
METAR KIPL 081253Z AUTO 00000KT 9SM CLR 23/15 A2971 RMK AO2 SLP063 
    T02330150=
METAR KIWA 081247Z 09005KT 45SM FEW120 SCT200 29/06 A2983 RMK
    FIRST=
METAR KIXD 081253Z 36008KT 10SM CLR 23/20 A3010 RMK AO2 SLP180 
    T02330200=
METAR KJBR 081253Z AUTO 23005KT 10SM CLR 27/22 A3007 RMK AO2 SLP179 
    T02720222 $=
METAR KJCT 081251Z AUTO 00000KT 6SM BR FEW004 BKN026 23/22 A3003
     RMK AO2 SLP131 T02280217 TSNO=
METAR KJEF 081253Z 02003KT 2SM BR OVC003 24/23 A3006 RMK AO2 SLP166 
    T02390228=
METAR KJLN 081253Z 33005KT 1/2SM VCTS FG BKN004 BKN010 OVC070 22/22 
    A3008 RMK AO2 TSB22RAB15E22 SLP176 FRQ LTGCG VC P0037 T02170217=
METAR KJYR 081250Z AUTO 36003KT 10SM CLR 17/16 A3019 RMK AO2=
METAR KLBF 081253Z AUTO 31004KT 10SM CLR 17/16 A3027 RMK AO2 SLP233 
    T01670156=
METAR KLCG 081250Z AUTO 00000KT 10SM CLR 17/16 A3020 RMK AO2 
     T01710155=
METAR KLBX 081253Z AUTO 11013G28KT 2 1/2SM -RA BR SCT017 BKN029 
    BKN047 26/24 A2993 RMK AO2 PK WND 11028/1250 RAB52 SLP134 P0004 
    T02610239=
METAR KLCH 081253Z 07007KT 9SM BKN006 OVC021 26/24 A3000 RMK AO2 
    SLP166 T02610239=
METAR KLFK 081253Z AUTO 09007KT 10SM FEW010 27/24 A3002 RMK AO2 
    SLP160 T02670239=
METAR KLFT 081253Z 00000KT 10SM OVC004 26/24 A3003 RMK AO2 SLP168 
    T02560244=
METAR KLGB 081253Z 30004KT 9SM OVC013 17/13 A2991 RMK AO2 SLP128 
    T01670128=
METAR KLHM 081251Z AUTO 17003KT 10SM CLR 15/11 A2984 RMK AO1 
     T01450110=
METAR KLIT 081253Z 25003KT 10SM FEW008 BKN150 BKN250 25/23 A3009 RMK 
    AO2 SLP187 T02500233 $=
METAR KLLQ 081253Z AUTO 14003KT 10SM CLR 24/23 A3009 RMK AO2 SLP185 
    T02440233=
METAR KLMT 081253Z AUTO 00000KT 10SM CLR 16/09 A3007 RMK AO2 SLP132 
    T01610089=
METAR KLOL 081253Z AUTO 36007KT 10SM CLR 19/M04 A3002 RMK AO2 SLP116 
    T01941044=
METAR KLSE 081253Z 34009KT 10SM CLR 22/18 A3006 RMK AO2 SLP169 
    T02220183=
METAR KLVJ 081253Z AUTO 08007KT 8SM -RA FEW075 BKN095 25/23 A2996 
    RMK AO2 LTG DSNT N AND NW TSB00E25RAB1157 SLP143 P0010 T02500228=
METAR KLVK 081253Z AUTO 29007KT 10SM OVC008 13/11 A2991 RMK AO2 
    SLP125 T01330111=
METAR KLVS 081253Z AUTO 02006KT 10SM CLR 11/09 A3040 RMK AO2 SLP220 
    T01110089 TSNO=
METAR KLWD 081253Z AUTO 01007KT 10SM SCT007 21/20 A3011 RMK AO2 
    SLP189 T02110200=
METAR KLXN 081250Z AUTO 00000KT 10SM CLR 18/16 A3025 RMK AO2 
     T01760164=
METAR KLXT 081253Z AUTO 01009KT 10SM BKN075 23/21 A3010 RMK AO2 
    SLP183 T02280206=
####018000115####
SAUS46 KSGX 081254
MTRCZZ
METAR KCZZ 081252Z AUTO 00000KT 08/07 A2989 RMK AO2 SLP097 T00780072 
PWINO TSNO
####018000118####
SAUS46 KSEW 081254
MTRUIL
METAR KUIL 081253Z AUTO 00000KT 10SM CLR 14/10 A2995 RMK AO2 SLP142 
T01440100 TSNO
####018000115####
SAUS44 KMAF 081254
MTR6R6
METAR K6R6 081253Z AUTO 06006KT 22/19 A3004 RMK AO2 SLP136 T02220194 
PWINO TSNO
####018000116####
SAUS45 KRIW 081254
MTRLND
METAR KLND 081253Z AUTO 00000KT 10SM FEW120 10/04 A3035 RMK AO2 
SLP231 T01000044
####018000118####
SAUS45 KABQ 081254
MTRCQC
METAR KCQC 081253Z AUTO 08008KT 10SM CLR 11/09 A3038 RMK AO2 SLP229 
T01110094 TSNO
####018000119####
SAUS46 KPQR 081254
MTRBNO
METAR KBNO 081253Z AUTO 35003KT 10SM CLR 06/M01 A3015 RMK AO2 SLP181 
T00611006 TSNO
####018000118####
SAUS45 KABQ 081254
MTRRTN
METAR KRTN 081253Z AUTO 35004KT 10SM CLR 14/10 A3037 RMK AO2 SLP221 
T01390100 TSNO
####018000086####
SPCN48 CWAO 081253
SPECI CYPH 081253Z AUTO 24011KT 1 1/8SM OVC001 08/08 A2981=

####018000116####
SAUS45 KLKN 081254
MTRELY
METAR KELY 081253Z AUTO 17008KT 10SM CLR 06/M03 A3024 RMK AO2 SLP148 
T00611028 $
####018000115####
SAUS44 KSHV 081254
MTRDNK
METAR KDNK 081253Z AUTO 08005KT 7SM FEW005 25/23 A3004 RMK AO2 
SLP168 T02500228
####018000125####
SAUS43 KMKX 081254
MTRMSN
METAR KMSN 081253Z VRB03KT 6SM BR OVC006 22/21 A3004 RMK AO2 CIG 
004V009 SLP167 T02170206
####018000108####
SAUS44 KMRX 081254
MTRCHA
METAR KCHA 081253Z 00000KT 10SM CLR 27/19 A3009 RMK AO2 SLP180 
T02670194
####018000118####
SAUS44 KLZK 081254
MTRMWT
METAR KMWT 081253Z AUTO 00000KT 10SM CLR 25/23 A3007 RMK AO2 SLP171 
T02500233 TSNO
####018000148####
SAUS43 KAPX 081254
MTRHTL
METAR KHTL 081253Z AUTO 24005KT 4SM -RA BR FEW010 BKN019 OVC070 
22/21 A3005 RMK AO2 RAB14 SLP170 P0002 T02220211
####018000117####
SAUS42 KTAE 081254
MTRCTY
METAR KCTY 081253Z AUTO VRB03KT 25/23 A3002 RMK AO2 SLP166 T02500233 
PWINO TSNO $
####018000108####
SAUS44 KMRX 081254
MTRNIP
METAR KNIP 081253Z 26005KT 10SM CLR 26/21 A3002 RMK AO2 SLP162 
T02560211
####018000133####
SAUS44 KHGX 081254
MTRSGR
METAR KSGR 081253Z 07007KT 10SM FEW012 SCT080 25/23 A2995 RMK AO2 
RAB30E42 SLP148 P0000 T02500233
####018000110####
SAUS42 KCHS 081254
MTRSAV
METAR KSAV 081253Z 29007KT 10SM CLR 27/20 A3000 RMK AO2 SLP158 
T02670200 $
####018000115####
SAUS44 KLCH 081254
MTRP92
METAR KP92 081253Z AUTO VRB04KT 27/26 A3000 RMK AO2 SLP158 T02670256 
PWINO TSNO
####018000120####
SAUS44 KMRX 081254
MTROQT
METAR KOQT 081253Z AUTO 00000KT 5SM HZ CLR 26/21 A3011 RMK AO2 
SLP177 T02560211 TSNO
####018000115####
SAUS46 KLOX 081254
MTRLAX
METAR KLAX 081253Z 00000KT 7SM BCFG OVC012 16/13 A2991 RMK AO2 
SLP127 T01610128
####018003727####
SAUS99 KWBC 081255 RRA
METAR
KBVO 081253Z 00000KT 10SM FEW030 OVC060 23/22 A3007 RMK AO2 SLP172
     T02330217=
KBWG 081253Z AUTO 00000KT 10SM CLR 27/22 A3009 RMK AO2 SLP182
     T02720222=
KCCR 081253Z AUTO 24005KT 10SM FEW012 12/09 A2991 RMK AO2 SLP114
     T01220094=
KCHO 081253Z 00000KT 4SM HZ CLR 30/20 A3003 RMK AO2 SLP159
     T03000200=
KCLL 081253Z 06008KT 7SM OVC007 26/23 A2997 RMK AO2 SLP145
     T02560228=
KCLM 081253Z AUTO A2999 RMK AO2 SLPNO PWINO FZRANO $=
KCMI 081253Z 25005KT 10SM CLR 26/23 A3005 RMK AO2 SLP170
     T02610228=
KCMX 081253Z AUTO 30003KT 10SM SCT110 21/16 A3000 RMK AO2 SLP157
     T02060161=
KCNM 081253Z AUTO 33009KT 9SM -RA OVC013 19/18 A3015 RMK AO2
     SLP160 P0007 T01940183=
KCNO 081253Z AUTO 23004KT 4SM BR OVC011 15/13 A2992 RMK AO2 SLP128
     T01500128=
KCOT 081253Z AUTO 03005KT 10SM -RA FEW017 BKN034 OVC060 25/23
     A2990 RMK AO2 RAB38 SLP118 P0001 T02500233=
KCPS 081253Z 00000KT 10SM BKN041 25/23 A3005 RMK AO2 RAB12E23
     SLP173 P0000 T02500228=
KCRP 081251Z 04008KT 5SM RA BR SCT022CB BKN040 BKN049 26/25 A2985
     RMK AO2 TSE18 SLP106 TS MOV W CB N MOV W P0002 T02610250
     $=
KCRQ 081253Z AUTO 00000KT 5SM HZ FEW007 OVC013 17/14 A2990 RMK AO2
     SLP124 T01670139=
KCXO 081253Z VRB03KT 9SM CLR 24/23 A2998 RMK AO2 LTG DSNT S SLP149
     T02440233=
KDAG 081253Z AUTO 26008KT 10SM CLR 22/02 A2988 RMK AO2 SLP089
     T02170017 TSNO $=
KDAN 081253Z AUTO 03006KT 4SM HZ CLR 31/19 A3002 RMK AO2 SLP153
     T03060194=
KDBQ 081253Z 00000KT 6SM BR SCT005 SCT021 22/21 A3007 RMK AO2
     SLP178 T02170206=
KDCU 081253Z AUTO 01003KT 10SM CLR 28/22 A3009 RMK AO2 SLP181
     T02830217=
KDEW 081253Z AUTO 02006KT 10SM CLR 15/08 A3008 RMK AO2 SLP174
     T01500078=
K1F0 081249Z AUTO 00000KT 24/24 A3002 RMK AO2 PWINO=
KPMV 081250Z AUTO 34004KT 10SM CLR 21/20 A3015 RMK AO2
     T02070196=
KABI 081252Z 12003KT 7SM OVC008 22/21 A3008 RMK AO2 CIG 005V011
     SLP164 T02220211=
KABR 081253Z AUTO 27003KT 10SM CLR 19/15 A3014 RMK AO2 SLP199
     T01940150=
KACV 081253Z AUTO 00000KT 10SM OVC003 10/09 A2996 RMK AO2 SLP151
     T01000094=
KAEX 081253Z AUTO 00000KT 10SM FEW006 26/24 A3004 RMK AO2 SLP173
     T02560239=
KAGS 081253Z 31004KT 10SM CLR 31/20 A3000 RMK AO2 SLP156
     T03060200=
KALI 081253Z AUTO 03008KT 10SM -RA BKN006 BKN015 OVC027 25/24
     A2985 RMK AO2 RAB48 CIG 004V009 SLP105 P0000 T02500244=
KALW 081253Z AUTO 13004KT 10SM CLR 17/07 A3000 RMK AO2 SLP149
     T01670072=
KAMA 081253Z 01011KT 7SM BKN005 OVC010 18/17 A3022 RMK AO2 CIG
     004V008 SLP185 T01780167 $=
KAMW 081253Z AUTO 35009KT 9SM CLR 21/18 A3013 RMK AO2 SLP195
     T02060183=
KANB 081253Z AUTO 00000KT 9SM CLR 25/21 A3007 RMK AO2 SLP171
     T02500206=
KAOO 081253Z AUTO 00000KT 4SM HZ CLR 26/18 A3011 RMK AO2 SLP184
     T02560178=
KARA 081253Z 07006KT 4SM BR OVC003 26/25 A3003 RMK AO2 CIG 002V006
     SLP167 T02560250=
KASD 081253Z AUTO 00000KT 10SM FEW001 26/25 A3004 RMK AO2 SLP171
     T02610250=
KASX 081253Z AUTO 25005KT 10SM CLR 20/17 A3006 RMK AO2 SLP177
     T02000167=
KATY 081253Z AUTO 23003KT 10SM CLR 18/14 A3015 RMK AO2 SLP205
     T01780144=
KAUN 081250Z AUTO 00000KT 10SM CLR 21/14 A2988 RMK AO1=
KAUS 081253Z 05008KT 8SM FEW008 BKN024 OVC043 26/24 A2997 RMK AO2
     SLP136 T02560239=
KAWM 081253Z AUTO 00000KT 10SM CLR 27/22 A3007 RMK AO2 SLP177
     T02720222=
KAXN 081253Z AUTO 28007KT 10SM CLR 19/16 A3013 RMK AO2 SLP199
     T01940156=
KAZO 081253Z VRB03KT 5SM HZ CLR 26/21 A3004 RMK AO2 SLP166
     T02610211=
KBDE 081253Z AUTO 25004KT 10SM CLR 17/13 A3001 RMK AO2 SLP161
     T01720128=
####018003725####
SAUS99 KWBC 081255
METAR
KDHT 081253Z AUTO 36010KT 10SM OVC007 18/17 A3025 RMK AO2 SLP191
     T01780167=
KDLS 081253Z AUTO 00000KT 10SM CLR 14/06 A2998 RMK AO2 SLP149
     T01440061=
KDMN 081253Z AUTO 05009KT 10SM CLR 22/13 A3014 RMK AO2 SLP124
     T02170128=
KDMO 081253Z AUTO 00000KT 10SM FEW002 OVC008 24/22 A3009 RMK AO2
     SLP181 T02390222=
KDRT 081253Z AUTO 00000KT 8SM OVC015 24/23 A2997 RMK AO2 SLP133
     T02440228=
KDVO 081250Z AUTO 32006KT 10SM OVC012 12/12 A2993 RMK AO2=
KDVT 081253Z 00000KT 10SM CLR 27/00 A2981 RMK AO2 SLP067
     T02720000=
KDWH 081253Z 06007KT 8SM FEW007 BKN070 BKN090 25/24 RMK AO2 LTG
     DSNT SE AND S SLPNO T02500239 $=
KEET 081253Z AUTO 35003KT 8SM CLR 28/22 A3006 RMK AO2 SLP171
     T02780222=
KEGE 081250Z 00000KT 10SM SKC 09/08 A3040=
KELN 081253Z AUTO 06004KT 10SM CLR 12/07 A3006 RMK AO2 SLP166
     T01220067 $=
KEMP 081253Z AUTO 01005KT 10SM FEW009 BKN029 22/20 A3010 RMK AO2
     SLP185 T02220200=
KENW 081253Z 26005KT 10SM SCT010 BKN029 BKN040 23/22 A3003 RMK AO2
     SLP166 T02330217 $=
KEPH 081253Z AUTO 34005KT 10SM CLR 21/04 A3002 RMK AO2 SLP154
     T02060044=
KESF 081253Z AUTO 08003KT 10SM CLR 26/24 A3005 RMK AO2 SLP174
     T02560239=
KFAT 081253Z 31009KT 10SM CLR 19/09 A2984 RMK AO2 SLP099
     T01890094=
KFAY 081253Z AUTO 02007KT 7SM CLR 29/20 A2996 RMK AO2 SLP138
     T02890200=
KFCM 081253Z 28005KT 10SM CLR 21/16 A3011 RMK AO2 SLP192
     T02060156=
KFFC 081253Z AUTO 00000KT 10SM CLR 26/19 A3006 RMK AO2 SLP171
     T02560194=
KFHR 081253Z AUTO 00000KT 10SM CLR 14/11 A2999 RMK AO2 SLP153
     T01390106=
KFMN 081253Z 09005KT 10SM CLR 18/06 A3026 RMK AO2 SLP179
     T01780056=
KFNB 081253Z AUTO 36007KT 10SM BKN009 22/19 A3011 RMK AO2 CIG
     007V012 SLP187 T02170194=
KFOE 081253Z 36007KT 7SM OVC005 22/21 A3010 RMK AO2 SLP182
     T02220206 $=
KFSM 081253Z 09003KT 10SM CLR 26/23 A3005 RMK AO2 SLP171
     T02560228=
KFST 081253Z AUTO 14003KT 10SM BKN095 OVC110 22/19 A3009 RMK AO2
     SLP141 T02170194=
KFTY 081253Z 00000KT 8SM CLR 27/19 A3006 RMK AO2 SLP166
     T02670194=
KFUL 081253Z 00000KT 9SM OVC017 17/12 A2990 RMK AO2 SLP124
     T01720122=
KFYV 081253Z 00000KT 10SM BKN018 OVC024 23/22 A3009 RMK AO2 SLP175
     T02330217=
KGAG 081253Z AUTO 36007KT 10SM -RA OVC009 21/19 A3016 RMK AO2
     RAB27 SLP187 P0000 T02060194=
KGEG 081253Z 04006KT 10SM CLR 16/08 A3008 RMK AO2 SLP168
     T01610083=
KGFK 081253Z 31006KT 10SM FEW080 18/14 A3006 RMK AO2 SLP179
     T01780144=
KGLD 081253Z AUTO 08003KT 10SM SCT003 OVC016 17/16 A3032 RMK AO2
     SLP235 T01670161=
KGLH 081253Z 00000KT 10SM CLR 26/24 A3007 RMK AO2 SLP186
     T02610239=
KBMQ 081253Z AUTO 07004KT 8SM FEW008 BKN024 OVC038 24/22 A3003 RMK
     AO2 RAB00E09 SLP150 P0000 T02440222 $=
KBNA 081253Z 00000KT 10SM FEW038 SCT180 SCT250 28/22 A3009 RMK AO2
     SLP182 T02830217=
KBPK 081253Z AUTO 00000KT 8SM OVC070 23/22 A3008 RMK AO2 SLP176
     T02330222=
KBPT 081253Z 08008KT 9SM BKN009 OVC015 27/25 A2998 RMK AO2 CIG
     007V012 SLP151 T02670250=
KBRD 081253Z AUTO 25006KT 10SM CLR 19/14 A3008 RMK AO2 SLP183
     T01890139=
KBRL 081253Z AUTO 7SM OVC004 23/22 A3005 RMK AO2 SLP172
     T02330217=
KBRO 081253Z 32007KT 10SM SCT005 BKN011 BKN026 26/25 A2977 RMK AO2
     RAB09E45 SLP078 P0000 T02610250=
KBTA 081250Z AUTO 36006KT 10SM SCT020 20/17 A3016 RMK AO2
     T01950173=
KBTL 081253Z 00000KT 10SM CLR 26/21 A3006 RMK AO2 SLP170
     T02610211=
KBUR 081253Z 35005KT 6SM HZ OVC007 16/13 A2990 RMK AO2 SLP115
     T01560128=
KBVN 081250Z AUTO 31003KT 10SM BKN110 17/16 A3021 RMK AO2
     T01730156=
####018003713####
SAUS99 KWBC 081255 RRE
METAR
KJLN 081253Z 33005KT 1/2SM VCTS FG BKN004 BKN010 OVC070 22/22
     A3008 RMK AO2 TSB22RAB15E22 SLP176 FRQ LTGCG VC P0037
     T02170217=
KJYR 081250Z AUTO 36003KT 10SM CLR 17/16 A3019 RMK AO2=
KLBF 081253Z AUTO 31004KT 10SM CLR 17/16 A3027 RMK AO2 SLP233
     T01670156=
KLCG 081250Z AUTO 00000KT 10SM CLR 17/16 A3020 RMK AO2
     T01710155=
KLBX 081253Z AUTO 11013G28KT 2 1/2SM -RA BR SCT017 BKN029 BKN047
     26/24 A2993 RMK AO2 PK WND 11028/1250 RAB52 SLP134 P0004
     T02610239=
KLCH 081253Z 07007KT 9SM BKN006 OVC021 26/24 A3000 RMK AO2 SLP166
     T02610239=
KLFK 081253Z AUTO 09007KT 10SM FEW010 27/24 A3002 RMK AO2 SLP160
     T02670239=
KLFT 081253Z 00000KT 10SM OVC004 26/24 A3003 RMK AO2 SLP168
     T02560244=
KLGB 081253Z 30004KT 9SM OVC013 17/13 A2991 RMK AO2 SLP128
     T01670128=
KLHM 081251Z AUTO 17003KT 10SM CLR 15/11 A2984 RMK AO1
     T01450110=
KLIT 081253Z 25003KT 10SM FEW008 BKN150 BKN250 25/23 A3009 RMK AO2
     SLP187 T02500233 $=
KLLQ 081253Z AUTO 14003KT 10SM CLR 24/23 A3009 RMK AO2 SLP185
     T02440233=
KLMT 081253Z AUTO 00000KT 10SM CLR 16/09 A3007 RMK AO2 SLP132
     T01610089=
KLOL 081253Z AUTO 36007KT 10SM CLR 19/M04 A3002 RMK AO2 SLP116
     T01941044=
KLSE 081253Z 34009KT 10SM CLR 22/18 A3006 RMK AO2 SLP169
     T02220183=
KLVJ 081253Z AUTO 08007KT 8SM -RA FEW075 BKN095 25/23 A2996 RMK
     AO2 LTG DSNT N AND NW TSB00E25RAB1157 SLP143 P0010
     T02500228=
KLVK 081253Z AUTO 29007KT 10SM OVC008 13/11 A2991 RMK AO2 SLP125
     T01330111=
KLVS 081253Z AUTO 02006KT 10SM CLR 11/09 A3040 RMK AO2 SLP220
     T01110089 TSNO=
KLWD 081253Z AUTO 01007KT 10SM SCT007 21/20 A3011 RMK AO2 SLP189
     T02110200=
KLXN 081250Z AUTO 00000KT 10SM CLR 18/16 A3025 RMK AO2
     T01760164=
KLXT 081253Z AUTO 01009KT 10SM BKN075 23/21 A3010 RMK AO2 SLP183
     T02280206=
KOSH 081253Z 26005KT 8SM SCT004 23/21 A3001 RMK AO2 SLP148
     T02330206=
KOTM 081253Z AUTO 35006KT 7SM CLR 21/20 A3008 RMK AO2 SLP182
     T02110200=
KOUN 081253Z AUTO 35004KT 10SM BKN028 26/23 A3007 RMK AO2=
KOVE 081253Z AUTO 13008KT 10SM CLR 17/12 A2987 RMK AO2 SLP114
     T01720117 TSNO=
KOVS 081253Z AUTO 28004KT 10SM OVC009 22/20 A3006 RMK AO2 CIG
     005V014 SLP177 T02220200=
KPAE 081253Z AUTO 00000KT 10SM CLR 18/12 A2998 RMK AO2 SLP147
     T01830117=
KPAH 081253Z 24005KT 10SM CLR 27/23 A3006 RMK AO2 SLP175
     T02720228=
KPBF 081253Z AUTO 00000KT 10SM CLR 26/23 A3008 RMK AO2 SLP183
     T02610228=
KPDK 081253Z 02003KT 10SM CLR 28/18 A3006 RMK AO2 SLP156
     T02830183=
KPDT 081253Z 09004KT 10SM CLR 14/07 A2999 RMK AO2 SLP139
     T01440072=
KPDX 081253Z 28003KT 10SM FEW080 17/13 A2991 RMK AO2 SLP128
     T01720128=
KPGA 081253Z AUTO 27003KT 10SM CLR 23/02 A3008 RMK AO2 SLP111
     T02330022=
KPIR 081253Z AUTO 24006KT 10SM CLR 16/12 A3019 RMK AO2 SLP213
     T01560122=
KPKD 081253Z AUTO 27006KT 10SM CLR 17/14 A3009 RMK AO2 SLP188
     T01720144=
KPMD 081253Z 17003KT 10SM CLR 15/02 A2992 RMK AO2 SLP104 T01500022
     $=
KPNA 081250Z AUTO 30005KT 10SM BKN100 07/02 A3041 RMK AO2
     T00680015=
KPOF 081253Z AUTO 23005KT 10SM CLR 27/24 A3006 RMK AO2 SLP172
     T02720239=
KPQL 081253Z 36004KT 10SM BKN012 26/25 A3005 RMK AO2 SLP176
     T02560250=
KPRC 081253Z 00000KT 10SM SCT060 17/01 A3012 RMK AO2 SLP110
     T01720006=
KPSC 081253Z AUTO 00000KT 10SM CLR 16/11 A2998 RMK AO2 SLP151
     T01560106=
KPSP 081253Z 00000KT 10SM CLR 23/13 A2976 RMK AO2 SLP074
     T02280133=
KPSX 081253Z AUTO 10014G22KT 6SM RA BR CLR 26/24 A2988 RMK AO2
     RAE15B51 SLP117 P0001 T02610239=
####018003737####
SAUS99 KWBC 081255 RRC
METAR
KGPT 081253Z 01004KT 10SM CLR 28/25 A3004 RMK AO2 SLP172
     T02830250=
KGRB 081253Z 30004KT 3SM BR OVC004 22/21 A3001 RMK AO2 CIG 003V007
     SLP158 T02220211=
KGRI 081253Z 36004KT 10SM CLR 17/15 A3022 RMK AO2 SLP222
     T01720150=
KGRR 081253Z 00000KT 2 1/2SM BR FEW006 SCT050 OVC130 24/22 A3004
     RMK AO2 SLP165 T02440222=
KGSH 081253Z AUTO 17005KT 5SM HZ CLR 26/21 A3005 RMK AO2 LTG DSNT
     NW SLP168 T02610211=
KGSP 081253Z 00000KT 10SM CLR 28/19 A3004 RMK AO2 SLP157
     T02830189=
KGUP 081253Z AUTO 00000KT 10SM CLR 17/07 A3028 RMK AO2 SLP076
     T01720072=
KGUY 081253Z AUTO 34004KT 10SM BKN017 BKN022 OVC110 18/17 A3022
     RMK AO2 RAE48 SLP191 P0002 T01830172=
KGVL 081253Z AUTO 31004KT 10SM CLR 27/19 A3009 RMK AO2 SLP170
     T02720189=
KGWO 081253Z AUTO 06003KT 10SM CLR 26/23 A3007 RMK AO2 SLP181
     T02610228=
KHBG 081253Z AUTO 00000KT 9SM CLR 26/24 A3006 RMK AO2 SLP176
     T02610244=
KHDE 081250Z AUTO 01004KT 10SM SCT085 17/15 A3023 RMK AO2
     T01700150=
KHEI 081253Z AUTO 00000KT 10SM CLR 14/11 A3021 RMK AO2 SLP220
     T01390111=
KHGR 081253Z 00000KT 5SM HZ CLR 28/18 A3005 RMK AO2 SLP176
     T02830178=
KHHR 081253Z 00000KT 10SM OVC012 17/13 A2991 RMK AO2 SLP128
     T01670133=
KHIB 081253Z AUTO 21005KT 10SM CLR 18/16 A3005 RMK AO2 SLP176
     T01780156=
KHIO 081253Z 00000KT 10SM CLR 14/11 A2990 RMK AO2 SLP123
     T01390111=
KHJH 081250Z AUTO 02003KT 10SM BKN029 OVC036 20/17 A3018 RMK AO2
     T01950174=
KHKA 081253Z AUTO 23003KT 6SM HZ CLR 28/23 A3008 RMK AO2 SLP183
     T02780228=
KHKS 081253Z 06003KT 10SM CLR 27/23 A3008 RMK AO2 SLP176
     T02670228=
KHKY 081253Z 31005KT 10SM CLR 27/18 A3006 RMK AO2 SLP155 T02670183
     PNO=
KHLC 081253Z AUTO 03003KT 10SM OVC029 19/15 A3023 RMK AO2 SLP221
     T01890150=
KHLG 081253Z 00000KT 4SM HZ CLR 25/21 A3010 RMK AO2 SLP184
     T02500211=
KHOT 081253Z AUTO 00000KT 9SM OVC012 25/23 A3009 RMK AO2 SLP183
     T02500233=
KHOU 081253Z 08006KT 9SM -RA FEW010 BKN090 OVC110 24/22 A2995 RMK
     AO2 RAB00 SLP148 OCNL LTGIC NW-N P0008 T02440222=
KHQM 081253Z AUTO 27004KT 1/2SM FG 13/12 A2996 RMK AO2 SLP150
     T01280122 $=
KHRI 081253Z AUTO 17003KT 10SM CLR 11/07 A2997 RMK AO2 SLP144
     T01110072=
KHRO 081253Z AUTO 15003KT 10SM SCT046 BKN100 24/22 A3011 RMK AO2
     SLP179 T02390217=
KHSI 081253Z AUTO 01004KT 10SM CLR 17/15 A3021 RMK AO2 SLP219
     T01670150=
KHSV 081253Z 04005KT 10SM FEW250 30/22 A3009 RMK AO2 SLP179
     T03000222 $=
KHYR 081253Z AUTO 00000KT 10SM CLR 20/16 A3009 RMK AO2 SLP184
     T02000156=
KTVC 081253Z 00000KT 7SM BKN014 OVC028 22/21 A3000 RMK AO2
     RAB07E50 SLP155 P0001 T02220211=
KTVR 081253Z AUTO 00000KT 10SM CLR 26/23 A3007 RMK AO2 SLP188
     T02560228=
KUAO 081253Z AUTO 00000KT 10SM CLR 17/12 A2992 RMK AO2 SLP131
     T01670122=
KUNO 081253Z AUTO 23006KT 10SM OVC080 24/22 A3011 RMK AO2 SLP180
     T02440217 TSNO=
KUTS 081253Z AUTO 09003KT 6SM BR BKN007 BKN100 24/23 A2999 RMK AO2
     CIG 005V009 SLP152 T02440233=
KVCB 081253Z AUTO 23004KT 10SM CLR 15/10 A2984 RMK AO2 SLP102
     T01500100=
KVGT 081253Z 00000KT 10SM CLR 26/M04 A2987 RMK AO2 SLP077
     T02561044=
KVIH 081253Z AUTO 00000KT 8SM -RA OVC015 24/22 A3007 RMK AO2 RAB36
     SLP171 P0001 T02390222=
KVPC 081253Z AUTO 00000KT 8SM CLR 24/21 A3007 RMK AO2 SLP169
     T02390206=
KVPZ 081253Z AUTO 10005KT 3SM BR SCT050 OVC090 24/23 A3004 RMK AO2
     SLP167 T02390228=
KVUO 081253Z AUTO 00000KT 10SM CLR 16/13 A2991 RMK AO2 SLP127
     T01560133=
KWVI 081253Z AUTO 00000KT 10SM OVC007 13/11 A2994 RMK AO2 SLP138
     T01280111=
####018003739####
SAUS99 KWBC 081255 RRB
METAR
KBEH 081253Z AUTO 13004KT 9SM FEW043 BKN065 OVC080 24/22 A3003 RMK
     AO2 LTG DSNT SE SLP164 T02390217 $=
KBFD 081253Z AUTO 00000KT 8SM CLR 24/18 A3015 RMK AO2 SLP193
     T02440183=
KBFF 081253Z AUTO 00000KT 10SM FEW042 BKN055 15/13 A3031 RMK AO2
     SLP235 T01500128=
KBFI 081253Z 00000KT 10SM CLR 18/12 A2995 RMK AO2 SLP143
     T01830122=
KBFM 081253Z 29003KT 10SM CLR 27/25 A3006 RMK AO2 SLP177
     T02720250=
KBHM 081253Z 00000KT 10SM CLR 28/22 A3008 RMK AO2 SLP177
     T02780217=
KBIE 081250Z AUTO 36008KT 10SM CLR 19/18 A3016 RMK AO2
     T01920178=
KBIV 081253Z AUTO 13005KT 4SM BR SCT001 SCT046 24/22 A3002 RMK AO2
     SLP161 T02440222=
KBKE 081253Z AUTO 00000KT 10SM CLR 06/06 A3013 RMK AO2 SLP186
     T00610056=
KBLI 081253Z AUTO 00000KT 10SM CLR 14/13 A2997 RMK AO2 SLP155
     T01440128=
KMCB 081253Z AUTO 05004KT 10SM CLR 26/23 A3007 RMK AO2 SLP176
     T02560233=
KMCE 081253Z AUTO 32005KT 10SM CLR 16/10 A2983 RMK AO2 SLP101
     T01610100=
KMCI 081253Z 02005KT 3/4SM BR OVC002 23/22 A3009 RMK AO2 SFC VIS 2
     SLP181 T02280222=
KMCW 081253Z AUTO 34008KT 10SM CLR 19/18 A3015 RMK AO2 SLP198
     T01940178=
KMEM 081253Z 00000KT 10SM FEW150 SCT250 28/22 A3008 RMK AO2 SLP181
     T02830217=
KMFE 081253Z 34009KT 10SM BKN008 BKN033 BKN041 26/24 A2980 RMK AO2
     CIG 007V012 SLP090 T02610244=
KMFR 081253Z AUTO 00000KT 10SM CLR 20/12 A2992 RMK AO2 SLP117
     T02000122=
KMGW 081253Z 00000KT 5SM HZ CLR 25/20 A3012 RMK AO2 SLP187
     T02500200=
KMHE 081253Z AUTO 23004KT 10SM CLR 19/15 A3018 RMK AO2 SLP212
     T01940150 TSNO=
KMIC 081253Z 29004KT 10SM CLR 21/16 A3010 RMK AO2 SLP188
     T02110161=
KMIW 081253Z AUTO 35007KT 10SM CLR 21/19 A3010 RMK AO2 SLP188
     T02060189=
KMKL 081253Z 28003KT 10SM CLR 27/23 A3009 RMK AO2 SLP184
     T02670233=
KMLE 081250Z AUTO 35003KT 10SM BKN021 20/17 A3015 RMK AO2
     T02010172=
KMLP 081253Z AUTO 11009G17KT 10SM CLR 12/02 A3027 RMK AO2 SLP159
     T01220017 TSNO=
KMMH 081250Z AUTO 30007KT 10SM CLR 07/01 A3023 RMK AO1=
KMMV 081253Z AUTO 25004KT 10SM CLR 13/10 A2993 RMK AO2 SLP132
     T01280100=
KMOD 081253Z AUTO 35004KT 10SM CLR 14/11 A2984 RMK AO2 SLP105
     T01440106=
KMRB 081253Z AUTO 00000KT 5SM HZ CLR 28/19 A3005 RMK AO2 SLP168
     T02780189=
KMSL 081253Z AUTO 31003KT 10SM CLR 26/23 A3010 RMK AO2 SLP186
     T02610228=
KMSP 081253Z 00000KT 10SM CLR 21/17 A3011 RMK AO2 SLP194
     T02060167=
KMSY 081253Z 11004KT 10SM FEW016 SCT250 28/24 A3003 RMK AO2 SLP172
     T02830239=
KMTO 081253Z AUTO 23003KT 10SM CLR 26/23 A3005 RMK AO2 SLP169
     T02610233=
KMYF 081253Z AUTO 31006KT 10SM OVC015 16/14 A2991 RMK AO2 SLP125
     T01610139 TSNO=
KMYV 081253Z AUTO 15003KT 10SM CLR 15/11 A2984 RMK AO2 SLP108
     T01500106=
KNEW 081253Z 07009KT 10SM SCT017 28/26 A3004 RMK AO2 SLP164
     T02780256=
KOAK 081253Z 31007KT 8SM OVC007 14/11 A2994 RMK AO2 SLP136
     T01440111=
KODX 081253Z AUTO 32003KT 10SM FEW090 17/16 A3022 RMK AO2 SLP229
     T01720161=
KOGA 081250Z AUTO 00000KT 10SM SCT080 OVC100 16/15 A3029 RMK AO2
     T01590147=
KOJC 081253Z 02006KT 10SM CLR 24/20 A3009 RMK AO2 SLP178
     T02390200=
KOMK 081253Z AUTO 33006KT 10SM CLR 14/08 A3006 RMK AO2 SLP173
     T01440083=
KONL 081250Z AUTO 00000KT 10SM CLR 18/16 A3022 RMK AO2
     T01800156=
KONT 081253Z 22004KT 3SM BR OVC010 15/13 A2991 RMK AO2 SLP117
     T01500128=
KORF 081251Z 07006KT 10SM -RA FEW016 BKN080 BKN100 27/21 A2999 RMK
     AO2 RAB38 SLP156 P0000 T02670211=
KGLR 081253Z AUTO 25006KT 2SM -RA BR FEW007 BKN048 OVC060 21/21
     A3003 RMK AO2 SLP164 P0004 T02110206=
####018000141####
SPUS99 KWBC 081255
SPECI
KSTL 081253Z 24003KT 10SM FEW009 BKN025TCU BKN075 BKN150 BKN250
     26/23 A3006 RMK AO2 TCU W-NE VCSH W-N=
####018001180####
SAUS99 KWBC 081255 RRF
METAR
KPTT 081250Z AUTO 36011KT 4SM BR BKN006 OVC010 20/19 A3016 RMK
     AO2=
KPVD 081251Z 16006KT 10SM BKN100 24/20 A3011=
KRAL 081253Z AUTO 22003KT 4SM BR OVC007 15/13 A2991 RMK AO2 SLP115
     T01500128=
KRBG 081253Z AUTO 00000KT 10SM CLR 16/12 A2994 RMK AO2 SLP135
     T01610117=
KRDD 081253Z AUTO 17004KT 10SM CLR 22/16 A2983 RMK AO2 SLP094
     T02170156=
KRHI 081253Z AUTO VRB03KT 10SM CLR 20/16 A3006 RMK AO2 SLP174
     T02000161=
KRKP 081253Z AUTO 04007KT 3/4SM +RA FEW010 BKN015 OVC021 A2985 RMK
     AO2 RAB17 SLP111 P0018 FZRANO $=
KRMG 081253Z AUTO 00000KT 10SM CLR 26/19 A3006 RMK AO2 SLP169
     T02560189=
KRNT 081253Z AUTO 00000KT 9SM CLR 16/13 A2995 RMK AO2 SLP148
     T01560133=
KRSL 081253Z AUTO 35009KT 10SM OVC013 19/17 A3018 RMK AO2 SLP208
     T01890172=
KRUE 081253Z AUTO 17003KT 10SM SCT037 25/23 A3008 RMK AO2 SLP177
     T02500233=
KRVS 081253Z 00000KT 10SM OVC021 23/22 A3004 RMK AO2 SLP176
     T02330222=
PATA 081252Z AUTO 35004KT 10SM CLR 07/04 A3005 RMK AO2 SLP177
     T00670044 TSNO=
PHJR 081253Z 00000KT 10SM SCT060 22/17 A3001 RMK AO2 SLP170
     T02220172=
####018000081####
SAEW LEMO 081300
METAR LEMO 081300Z 26005KT 190V300 CAVOK 32/18
Q1016 NOSIG=
####018000449####
SAUK35 EGGY 081250
METAR EGHH 081250Z 19009KT 9999 7000S FEW026 21/15 Q1019=
METAR EGKA 081250Z 19008KT 9999 FEW020 21/17 Q1019=
METAR EGKB 081250Z 22008KT 170V260 9999 BKN035 25/14 Q1019 =
METAR EGLF 081250Z NIL=
METAR EGMC 081250Z 22005KT 180V260 9999 FEW037 25/16 Q1018=
METAR EGMD 081250Z 20010KT 9999 FEW020 21/16 Q1019=
METAR EGMH 081250Z 13010KT 9999 FEW020 21/17 Q1019 =
METAR EGTC 081250Z 21010KT 170V260 9999 FEW040 22/12 Q1018=
####018000469####
SAUK31 EGGY 081250
METAR EGBB 081250Z 23007KT 190V280 9999 FEW040 22/09 Q1018=
METAR EGCC 081250Z 19009KT 9999 SCT038 19/10 Q1017=
METAR EGKK 081250Z VRB08KT 9999 SCT044 26/13 Q1018=
METAR EGLL 081250Z 26008KT 200V310 9999 BKN035 24/14 Q1018=
METAR EGPF 081250Z 23019KT 9999 FEW030 18/10 Q1013=
METAR EGPH 081250Z 24015KT 9999 FEW035 18/07 Q1013=
METAR EGPK 081250Z 24017KT 9999 FEW024 19/09 Q1014=
METAR EGSS 081250Z 23009KT 200V270 9999 SCT028 23/15 Q1018=
####018000124####
SAFK41 EGYP 081250
METAR EGYP 081250Z 01035G48KT 3500 -DZ FEW006 BKN008 OVC012 05/04
 Q0991 YLO1 TEMPO 5000 BKN008 GRN=
####018003705####
SAUS99 KWBC 081255 RRD
METAR
KXNA 081253Z 17005KT 10SM OVC019 23/22 A3009 RMK AO2 RAB13E22
     SLP174 P0000 T02330217=
KYKM 081253Z 29006KT 10SM CLR 12/08 A3003 RMK AO2 SLP162
     T01170078=
KRWF 081253Z AUTO 30005KT 10SM CLR 19/15 A3014 RMK AO2 SLP202
     T01890150=
KRWI 081253Z AUTO 03006KT 5SM HZ CLR 27/21 A2999 RMK AO2 SLP152
     T02720211=
KSAC 081253Z 18003KT 10SM CLR 13/10 A2985 RMK AO2 SLP108
     T01330100=
KSAF 081253Z AUTO 31003KT 10SM CLR 14/11 A3034 RMK AO2 SLP194
     T01390111=
KSAN 081251Z 32004KT 8SM OVC015 16/14 A2993 RMK AO2 SLP133
     T01610139=
KSAT 081253Z 04006KT 8SM BKN013 BKN060 OVC250 26/24 A2995 RMK AO2
     RAE21 SLP124 P0000 T02560239=
KSBA 081253Z 00000KT 9SM OVC011 14/12 A2991 RMK AO2 SLP127
     T01440122 $=
KSBM 081253Z AUTO 23004KT 10SM 23/21 A3001 RMK AO2 SLP159
     T02280211 $=
KSDL 081253Z 00000KT 10SM CLR 29/06 A2983 RMK AO2 SLP070
     T02890061=
KSEA 081253Z 35005KT 10SM CLR 18/12 A2997 RMK AO2 SLP151 T01780122
     $=
KSFF 081253Z 00000KT 10SM CLR 13/11 A3008 RMK AO2 SLP172
     T01330106=
KSIY 081253Z AUTO 00000KT 10SM CLR 15/07 A2999 RMK AO2 SLP138
     T01500072 $=
KSJC 081253Z 00000KT 7SM FEW008 BKN011 OVC013 15/12 A2992 RMK AO2
     SLP132 T01500117=
KSLN 081253Z 35011KT 5SM BR OVC006 21/19 A3014 RMK AO2 CIG 004V008
     SLP194 T02110194=
KSMF 081253Z 15008KT 10SM CLR 13/11 A2984 RMK AO2 SLP103
     T01330106=
KSNA 081253Z 00000KT 8SM OVC015 18/13 A2991 RMK AO2 SLP126
     T01830128=
KSNS 081253Z 28003KT 8SM OVC009 13/11 A2993 RMK AO2 SLP144
     T01280106=
KSPB 081253Z AUTO 23003KT 9SM CLR 14/12 A2990 RMK AO2 SLP125
     T01390117 $=
KSPW 081253Z AUTO 30006KT 10SM CLR 19/16 A3017 RMK AO2 SLP211
     T01890161=
KSSF 081253Z 05007KT 10SM FEW010 SCT017 BKN028 27/23 A2993 RMK AO2
     SLP122 T02670233=
KSTC 081253Z 26004KT 10SM CLR 19/16 A3010 RMK AO2 SLP198
     T01940156=
KSTJ 081253Z 01008KT 9SM OVC009 23/21 A3009 RMK AO2 CIG 006V013
     SLP182 T02280206=
KSTP 081253Z 31006KT 10SM CLR 21/16 A3011 RMK AO2 SLP191
     T02110161=
KSTS 081253Z AUTO VRB03KT 10SM OVC004 12/10 A2992 RMK AO2 SLP125
     T01170100=
KSWO 081253Z 32004KT 8SM FEW004 23/22 A3005 RMK AO2 SLP165
     T02330217=
KTCC 081253Z AUTO 05008KT 10SM FEW018 OVC075 18/16 A3025 RMK AO2
     SLP187 T01780156=
KTCL 081253Z 00000KT 10SM CLR 28/23 A3005 RMK AO2 SLP175
     T02830228=
KTIW 081253Z AUTO 00000KT 10SM CLR 18/12 A2996 RMK AO2 SLP141
     T01780117=
KTOP 081253Z 36007KT 7SM OVC007 23/22 A3009 RMK AO2 SLP181
     T02330217=
KTTD 081253Z AUTO 27003KT 10SM CLR 17/14 A2989 RMK AO2 SLP123
     T01670144=
KTUL 081253Z 35005KT 10SM FEW015 SCT030 BKN080 23/23 A3003 RMK AO2
     SLP162 T02330228=
KTUS 081253Z 15005KT 10SM CLR 28/10 A2993 RMK AO2 SLP078
     T02830100=
KIBM 081250Z AUTO 00000KT 7SM SCT025 BKN060 OVC075 13/12 A3033 RMK
     AO2 T01270118=
KICR 081253Z AUTO 25005KT 10SM CLR 18/12 A3022 RMK AO2 SLP224
     T01830117 TSNO $=
KICT 081253Z 36008KT 10SM BKN008 BKN080 BKN120 23/21 A3011 RMK AO2
     SLP181 T02280211 $=
KILM 081253Z 05007KT 7SM CLR 28/22 A2994 RMK AO2 SLP137
     T02830217=
KIPL 081253Z AUTO 00000KT 9SM CLR 23/15 A2971 RMK AO2 SLP063
     T02330150=
KIWA 081247Z 09005KT 45SM FEW120 SCT200 29/06 A2983 RMK FIRST=
KIXD 081253Z 36008KT 10SM CLR 23/20 A3010 RMK AO2 SLP180
     T02330200=
KJBR 081253Z AUTO 23005KT 10SM CLR 27/22 A3007 RMK AO2 SLP179
     T02720222 $=
KJCT 081251Z AUTO 00000KT 6SM BR FEW004 BKN026 23/22 A3003 RMK AO2
     SLP131 T02280217 TSNO=
KJEF 081253Z 02003KT 2SM BR OVC003 24/23 A3006 RMK AO2 SLP166
     T02390228=
####018000154####
SASN34 ESWI 081250
METAR ESDF 081250Z NIL=
METAR ESPA 081250Z 15011KT CAVOK 19/14 Q1015=
METAR ESSL 081250Z 21009KT 130V240 9999 FEW046 25/12 Q1018=
####018000340####
SASW32 LSSW 081250
METAR LSGC 081250Z 13005KT 060V180 CAVOK 26/13 Q1024=
METAR LSGS 081250Z 24010KT 210V290 9999 FEW120 31/13 Q1019=
METAR LSZG 081250Z NIL=
METAR LSZR 081250Z 29003KT CAVOK 26/16 Q1021 NOSIG RMK J=
METAR LSZS 081250Z 30011G22KT 240V010 9999 FEW070 26/07 Q1026=
METAR LSZC 081250Z 08004KT 030V130 CAVOK 28/15 Q1021=
####018000074####
SAGI32 EGRR 081250
METAR LXGB 081250Z 09008KT CAVOK 27/16 Q1016 NOSIG=
####018000514####
SAUK34 EGGY 081250
METAR EGHD 081250Z 19007KT 150V240 9999 FEW020 20/14 Q1019=
METAR EGHE 081250Z 20011KT 9999 FEW022 18/14 Q1019=
METAR EGHK 081250Z NIL=
METAR EGHQ 081250Z 28008KT 9999 FEW025 17/13 Q1019=
METAR EGJA 081250Z 27007KT 240V320 CAVOK 19/16 Q1020=
METAR EGJB 081250Z 24007KT 200V290 9999 FEW006 SCT013 21/16
    Q1020=
METAR EGJJ 081250Z 29007KT 260V330 9999 FEW008 21/17 Q1019 NOSIG=
METAR EGTE 081250Z 17011KT 9999 FEW030 21/15 Q1018=
METAR EGTG 081250Z 28009KT 9999 FEW030 21/09 Q1018=
####018000479####
SASN35 ESWI 081250
METAR ESGL 081250Z AUTO 23013KT 9999NDV BKN036/// BKN081/// 21/15 
Q1018=
METAR ESGR 081250Z AUTO 23009KT 9999NDV OVC041/// 22/14 Q1018=
METAR ESKM 081250Z NIL=
METAR ESNL 081250Z AUTO 14013KT 9999NDV FEW050/// 21/10 Q1012=
METAR ESNX 081250Z AUTO 14004KT 9000NDV RA FEW009/// SCT017///
BKN038/// 15/14 Q1014=
METAR ESNY 081250Z AUTO 25009KT 220V290 9999 FEW037 24/15 Q1014=
METAR ESSF 081250Z NIL=
METAR ESSK 081250Z NIL=
METAR ESUD 081250Z NIL=
####018000399####
SAFI32 EFHK 081250
EFHA 081250Z VRB01KT 9999 FEW030TCU SCT035 BKN200 25/15 Q1015=
EFHF 081250Z 33008KT 300V010 9999 FEW042 SCT055 27/19 Q1013=
EFKA 081250Z 21005KT 150V240 CAVOK 25/11 Q1014=
EFKK 081250Z AUTO VRB05KT CAVOK 26/12 Q1014=
EFMA 081250Z 19007KT 160V220 CAVOK 22/13 Q1016=
EFPO 081250Z AUTO 27006KT 210V360 CAVOK 24/12 Q1015=
EFSI 081250Z AUTO 19004KT 130V290 CAVOK 25/11 Q1014=
####018000614####
SASN33 ESWI 081250
METAR ESNG 081250Z 22007KT 190V250 9000 RA BKN045 15/13 Q1014 REDZ=
METAR ESNK 081250Z AUTO 15011KT 9999NDV SCT041/// BKN052/// 21/13
Q1012=
METAR ESNN 081250Z AUTO 24006KT 200V280 9999NDV OVC042/// 22/13
Q1013=
METAR ESNO 081250Z AUTO 20011KT 170V230 9999NDV FEW045/// 21/10
Q1013=
METAR ESNQ 081250Z 15009KT 9999 BKN050 16/11 Q1013 RERA REDZ=
METAR ESNS 081250Z AUTO 12010KT 9999NDV ////// 22/10 Q1014=
METAR ESNU 081250Z 17009KT CAVOK 21/11 Q1014=
METAR ESNZ 081250Z 19008KT CAVOK 20/10 Q1011=
METAR ESUT 081250Z AUTO 15012KT 9999NDV SCT046/// BKN057///
BKN130/// 18/11 Q1009=
####018000085####
SADN34 EKCH 081250 RRA
METAR EKGF 081250Z 20011KT 9999 FEW030 SCT090 16/16 Q1018=
####018000130####
SACS31 MROC 081300
METAR
MROC 081300Z 01002KT 9999 4000S BR BKN120 21/21 A3004
     FOG BANK S SSW TEMPO 24006KT=





####018000473####
SASN32 ESWI 081250
METAR ESKN 081250Z 25012KT 9999 SCT049 25/13 Q1017=
METAR ESOE 081250Z NIL=
METAR ESOK 081250Z 22004KT 9999 BKN026 19/14 Q1017=
METAR ESOW 081250Z 25010KT CAVOK 24/14 Q1017=
METAR ESSA 081250Z 24014KT 9999 FEW045 24/13 Q1016 NOSIG=
METAR ESSB 081250Z 26010KT 9999 FEW035 SCT048 25/13 Q1016=
METAR ESSD 081250Z AUTO 26010KT 9999NDV FEW028/// BKN035/// 20/13
Q1016=
METAR ESSP 081250Z NIL=
METAR ESSV 081250Z 25006KT 220V280 CAVOK 22/11 Q1019=
####018000096####
SAGU31 MGGT 081300
METAR
MGGT 081300Z 00000KT CAVOK 17/14 Q1023 A3021 SCT080 BKN100 NOSIG =
####018000101####
SAUK31 EGGY 081250 CCA
METAR COR EGLL 081250Z 26008KT 200V310 9999 BKN035 24/14 Q1018
    NOSIG=
####018000101####
SAFJ31 NFNA 081300
METAR NFNA 081300Z 00000KT 40KM FEW024 SCT300 19/19 Q1014 RMK RR NIL
DEW HVY
####018000108####
SAUS44 KJAN 081254
MTRJAN
METAR KJAN 081254Z 00000KT 10SM CLR 26/23 A3007 RMK AO2 SLP178 
T02610233
####018000118####
SAUS44 KLIX 081254
MTRMSY
METAR KMSY 081253Z 11004KT 10SM FEW016 SCT250 28/24 A3003 RMK AO2 
SLP172 T02830239
####018002992####
SAUS20 KNKA 081254
METAR KCDW 081253Z 00000KT 4SM HZ BKN019 27/23 A3005 RMK AO2 SLP180 
    T02720228=
METAR KCEZ 081253Z AUTO VRB04KT 10SM CLR 15/06 A3026 RMK AO2 SLP169 
    T01500061=
METAR KCGC 081255Z AUTO 00000KT 10SM CLR 25/22 A3002 RMK=
METAR KCGI 081253Z 25003KT 10SM BKN100 27/24 A3005 RMK AO2 SLP173 
    T02720239=
METAR KCKB 081253Z 00000KT 4SM HZ CLR 24/19 A3011 RMK AO2 SLP179 
    T02440194=
METAR KCNY 081253Z AUTO 14003KT 10SM CLR 21/05 A3014 RMK AO2 SLP142 
    T02110050=
METAR KCPR 081253Z 33003KT 10SM CLR 07/06 A3035 RMK AO2 SLP242 
    T00720056 $=
METAR KCRE 081253Z 36009KT 9SM CLR 29/21 A2993 RMK AO2 SLP136 
    T02890206=
METAR KCRG 081253Z 30004KT 10SM CLR 27/21 A3002 RMK AO2 SLP164 
    T02670211=
METAR KCRS 081253Z AUTO 08005KT 10SM FEW010 BKN023 OVC080 26/24 
    A3002 RMK AO2 SLP161 T02560239=
METAR KCSM 081253Z AUTO 01004KT 8SM FEW025 23/21 A3013 RMK AO2 LTG 
    DSNT SW SLP180 T02280206=
METAR KCSV 081253Z AUTO 00000KT 7SM CLR 27/18 A3016 RMK AO2 SLP187 
    T02670183=
METAR KCUB 081253Z AUTO VRB03KT 10SM CLR 29/20 A3001 RMK AO2 SLP159 
    T02940200=
METAR KCYS 081253Z 00000KT 10SM OVC016 13/11 A3037 RMK AO2 SLP236 
    T01280111=
METAR KDEN 081253Z 05003KT 1/4SM R35L/2400V6000FT BR OVC003 14/14 
    A3033 RMK AO2 SFC VIS 1 1/4 SLP217 T01440139=
METAR KDEQ 081253Z AUTO VRB03KT 10SM BKN005 OVC050 24/23 A3005 RMK 
    AO2 SLP171 T02440233=
METAR KDET 081253Z AUTO 23004KT 10SM CLR 29/21 A3003 RMK AO2 SLP161 
    T02940211 TSNO $=
METAR KDFI 081253Z AUTO 18003KT 7SM CLR 27/21 A3006 RMK AO2 SLP171 
    T02670211=
METAR KDFW 081253Z 15004KT 4SM -RA BR BKN010 BKN026 OVC070 25/24 
    A3003 RMK AO2 RAE08B46 SLP159 P0001 T02500239=
METAR KDGW 081253Z AUTO 00000KT 2SM BR FEW001 07/06 A3036 RMK AO2 
    SLP257 T00670061 $=
METAR KDHN 081253Z 00000KT 10SM CLR 27/23 A3008 RMK AO2 SLP178 
    T02670228=
METAR KDKK 081253Z AUTO 21005KT 10SM CLR 29/19 A3006 RMK AO2 SLP173 
    T02890189=
METAR KDLN 081253Z AUTO 21008KT 10SM CLR 07/03 A3031 RMK AO2 SLP227 
    T00720033=
METAR KDNL 081253Z AUTO 31008KT 10SM CLR 31/17 A3002 RMK AO2 SLP160 
    T03060172=
METAR KDRO 081253Z AUTO 00000KT 10SM CLR 11/06 A3033 RMK AO2 SLP199 
    T01110056=
METAR KDTS 081253Z AUTO 35003KT 10SM CLR 28/24 A3003 RMK AO2 SLP167 
    T02780244=
METAR KDTW 081253Z 21003KT 6SM HZ FEW150 28/21 A3003 RMK AO2 SLP163 
    T02830211=
METAR KDXR 081253Z 00000KT 1 3/4SM -RA BR OVC003 24/23 A3009 RMK AO2 
    RAB35 SLP184 P0001 T02390233=
METAR KDYB 081255Z AUTO 00000KT 10SM CLR 26/21 A2997 RMK AO1=
METAR KEEO 081253Z AUTO 11003KT 10SM CLR 11/06 A3033 RMK AO2 SLP199 
    T01060056 $=
METAR KELM 081253Z 20004KT 6SM HZ CLR 24/20 A3008 RMK AO2 SLP179 
    T02390200=
METAR KEQY 081253Z AUTO 35004KT 8SM FEW090 29/19 A3001 RMK AO2 
    SLP157 T02890189=
METAR KEVW 081253Z AUTO 09011KT 10SM CLR 10/04 A3034 RMK AO2 SLP190 
    T01000039 TSNO=
####018002902####
SAUS20 KNKA 081254
METAR KEWB 081253Z 13007KT 10SM BKN006 OVC011 24/21 A3010 RMK AO2 
    SLP192 T02390211=
METAR KEYE 081253Z AUTO 21003KT 7SM CLR 27/21 A3006 RMK AO2 SLP169 
    T02720211=
METAR KEYW 081253Z 04005KT 10SM SCT085 29/24 A2996 RMK AO2 SLP146 
    T02890244=
METAR KFDY 081253Z AUTO 24004KT 6SM HZ CLR 27/21 A3006 RMK AO2 
    SLP168 T02670211=
METAR KFFT 081253Z AUTO 17003KT 4SM HZ CLR 27/21 A3009 RMK AO2 
    SLP178 T02720211=
METAR KFLD 081253Z AUTO 00000KT 10SM OVC007 23/21 A3002 RMK AO2 CIG 
    004V010 SLP162 T02280211=
METAR KFLL 081253Z 08008KT 10SM SCT021 29/24 A2995 RMK AO2 SLP142 
    T02940239=
METAR KFLO 081253Z 33005KT 10SM CLR 28/19 A2996 RMK AO2 SLP142 
    T02830194=
METAR KFMY 081253Z 05005KT 10SM CLR 27/23 A2998 RMK AO2 SLP154 
    T02720228=
METAR KFNT 081253Z AUTO 00000KT 9SM CLR 27/21 A3004 RMK AO2 SLP167 
    T02720211=
METAR KFOK 081253Z 11006KT 10SM SCT033 26/21 A3009 RMK AO2 SLP187 
    T02560206=
METAR KFPR 081253Z 06006KT 10SM SCT040 28/21 A2999 RMK AO2 SLP155 
    T02830211=
METAR KFRG 081253Z 16008KT 8SM BKN012 OVC019 25/23 A3007 RMK AO2 
    RAB1155E18 SLP182 P0001 T02500233=
METAR KFTN 081255Z AUTO 03006KT 10SM BKN008 BKN017 OVC025 25/23 
     A2993 RMK AO1 =
METAR KFVE 081253Z AUTO 16004KT 5SM HZ FEW060 26/23 A3001 RMK AO2 
    SLP155 T02560228=
METAR KFWN 081253Z AUTO 00000KT 4SM HZ CLR 27/23 A3006 RMK AO2 
    SLP176 T02720228=
METAR KFXE 081253Z 07008KT 10SM SCT023 29/23 A2996 RMK AO2 SLP147 
    T02940233=
METAR KGCC 081253Z AUTO 15004KT 10SM CLR 12/08 A3030 RMK AO2 SLP229 
    T01220083=
METAR KGEY 081253Z AUTO 00000KT 10SM CLR 11/03 A3028 RMK AO2 SLP231 
    T01060033=
METAR KGEZ 081253Z AUTO 19006KT 7SM BKN070 27/21 A3005 RMK AO2 
    SLP168 T02670206=
METAR KGFL 081253Z AUTO 18003KT 5SM HZ FEW090 27/22 A3004 RMK AO2 
    SLP168 T02670217=
METAR KGGW 081253Z AUTO 29004KT 10SM CLR 13/09 A3017 RMK AO2 SLP211 
    T01280094 TSNO $=
METAR KGIF 081253Z AUTO 07004KT 10SM CLR 26/22 A3003 RMK AO2 SLP167 
    T02610217 TSNO=
METAR KGJT 081253Z 09010KT 10SM CLR 20/07 A3020 RMK AO2 SLP154 
    T02000067=
METAR KGKJ 081253Z AUTO 00000KT 10SM CLR 27/19 A3011 RMK AO2 SLP183 
    T02720194=
METAR KGKY 081253Z 12004KT 10SM SCT010 OVC016 26/24 A3004 RMK AO2 
    RAB27E48 SLP161 P0000 T02560239=
METAR KGMU 081253Z 00000KT 9SM CLR 30/18 A3006 RMK AO2 SLP165 
    T03000178=
METAR KGNV 081253Z 00000KT 10SM CLR 26/22 A3002 RMK AO2 SLP163 
    T02560222=
METAR KGOK 081253Z AUTO 00000KT 6SM BR FEW003 BKN024 23/22 A3006 RMK 
    AO2 SLP170 T02280217=
METAR KGTF 081253Z 22004KT 10SM CLR 11/07 A3023 RMK AO2 SLP222 
    T01060067 $=
METAR KGZH 081253Z AUTO 00000KT 10SM CLR 26/23 A3006 RMK AO2 SLP174 
    T02610233=
METAR KHAO 081253Z AUTO 00000KT 3SM HZ CLR 27/22 A3009 RMK AO2 
    SLP183 T02670222=
####018000506####
SAHW31 KMSC 081254
METAR PHNL 081253Z 07005KT 10SM FEW039 SCT055 23/18 A3000 RMK AO2 
    SLP160 T02280183=
METAR PHTO 081253Z 22006KT 10SM RA FEW020 BKN026 OVC034 21/19 A3002 
    RMK AO2 RAB04 SLP164 P0011 T02110194=
METAR PHKO 081253Z AUTO 12006KT 10SM BKN065 23/18 A2996 RMK AO2 
    SLP144 T02330178 TSNO=
METAR PHLI 081253Z 06014KT 10SM FEW027 OVC060 24/18 A3004 RMK AO2 
    SLP168 T02410178 $=
METAR PHJR 081253Z 00000KT 10SM SCT060 22/17 A3001 RMK AO2 SLP170 
    T02220172=
####018002998####
SAUS20 KNKA 081254
METAR KHBR 081253Z AUTO 05005KT 3SM -RA BR OVC008 23/22 A3010 RMK 
    AO2 LTG DSNT W CIG 005V010 SLP176 P0026 T02280222=
METAR KHFD 081253Z 16006KT 5SM HZ BKN014 27/23 A3006 RMK AO2 SLP180 
    T02670228=
METAR KHJO 081253Z AUTO 33006KT 10SM CLR 17/12 A2984 RMK AO2 SLP105 
    T01720117=
METAR KHLN 081253Z 00000KT 10SM CLR 10/04 A3026 RMK AO2 SLP240 
    T01000039=
METAR KHUF 081253Z 25005KT 9SM CLR 28/23 A3006 RMK AO2 SLP172 
    T02780233 $=
METAR KHUL 081253Z AUTO 17007KT 110V190 5SM HZ CLR 24/20 A3004 RMK 
    AO2 SLP170 T02390200=
METAR KHVN 081253Z 11007KT 8SM BKN007 BKN015 OVC026 24/22 A3007 RMK 
    AO2 SLP184 T02440217=
METAR KHVR 081253Z AUTO 24003KT 10SM CLR 10/09 A3021 RMK AO2 SLP223 
    T01000089=
METAR KHWO 081253Z AUTO 08009KT 10SM FEW023 30/24 A2997 RMK AO2 
    SLP150 T03000239=
METAR KHZY 081253Z AUTO 19006KT 9SM CLR 26/20 A3009 RMK AO2 SLP181 
    T02560200=
METAR KIAG 081253Z 23006KT 8SM FEW100 27/21 A3005 RMK AO2 SLP166 
    T02670211=
METAR KIDA 081253Z 36008KT 10SM CLR 09/06 A3022 RMK AO2 SLP200 
    T00940056=
METAR KIML 081253Z AUTO 00000KT 10SM FEW027 BKN095 17/15 A3029 RMK 
    AO2 SLP239 T01720150=
METAR KINK 081253Z AUTO 02006KT 10SM OVC023 22/20 A3010 RMK AO2 
    SLP150 T02220200 TSNO=
METAR KITR 081253Z AUTO 00000KT 10SM FEW032 OVC045 17/15 A3031 RMK 
    AO2 RAE53 SLP225 P0000 T01670150=
METAR KIWI 081253Z AUTO VRB03KT 10SM BKN009 23/20 A3013 RMK AO2 CIG 
    007V012 SLP200 T02330200=
METAR KJER 081253Z AUTO 07011KT 10SM CLR 14/01 A3014 RMK AO2 SLP171 
    T01390011=
METAR KJKL 081253Z AUTO 00000KT 4SM HZ CLR 25/21 A3013 RMK AO2 
    SLP186 T02500211=
METAR KLAA 081253Z AUTO 10005KT 10SM -RA SCT016 OVC095 17/16 A3027 
    RMK AO2 SLP216 P0000 T01670156=
METAR KLAN 081253Z 21004KT 9SM FEW120 SCT200 26/21 A3005 RMK AO2 
    SLP168 T02560211 $=
METAR KLAR 081253Z AUTO 00000KT 6SM BR OVC004 08/08 A3041 RMK AO2 
    SLP232 T00780078=
METAR KLBB 081253Z 06006KT 10SM FEW040 SCT055 BKN110 BKN250 20/17 
    A3016 RMK AO2 SLP169 T02000172=
METAR KLEB 081253Z 24004KT 5SM HZ OVC013 27/22 A3007 RMK AO2 SLP168 
    T02670222=
METAR KLEE 081253Z 06004KT 10SM CLR 26/22 A3003 RMK AO2 SLP167 
    T02610217=
METAR KLHQ 081253Z AUTO 00000KT 5SM HZ CLR 26/21 A3010 RMK AO2 
    SLP183 T02610211=
METAR KLHX 081253Z AUTO 00000KT 10SM CLR 16/14 A3030 RMK AO2 SLP213 
    T01610144 PNO $=
METAR KLNS 081253Z VRB03KT 4SM HZ CLR 28/22 A3003 RMK AO2 SLP166 
    T02830217=
METAR KLOU 081253Z 18003KT 5SM HZ CLR 27/22 A3007 RMK AO2 SLP176 
    T02670217=
METAR KLOZ 081253Z AUTO 00000KT 3SM HZ CLR 24/21 A3012 RMK AO2 
    RAB10E22 SLP186 P0000 T02390206=
METAR KLPR 081253Z AUTO 20004KT 8SM CLR 27/20 A3007 RMK AO2 SLP175 
    T02720200=
METAR KLUK 081253Z 00000KT 2SM HZ CLR 26/23 A3008 RMK AO2 SLP182 
    T02560228=
METAR KLVM 081253Z AUTO 31004KT 10SM CLR 07/04 A3031 RMK AO2 SLP238 
    T00670039=
####018002949####
SAUS20 KNKA 081254
METAR KABY 081253Z 00000KT 10SM CLR 26/21 A3006 RMK AO2 SLP176 
    T02560206=
METAR KACK 081253Z 12010KT 10SM SCT029 22/19 A3011 RMK AO2 SLP195 
    T02170194=
METAR KADG 081253Z AUTO 00000KT 6SM HZ CLR 26/20 A3006 RMK AO2 
    SLP174 T02560200=
METAR KAFW 081253Z 13005KT 9SM FEW011 SCT070 BKN120 26/23 A3003 RMK 
    AO2 RAE1158 SLP153 P0000 T02560233=
METAR KAGC 081253Z 00000KT 3SM HZ CLR 27/19 A3010 RMK AO2 SLP184 VIS 
    E 2 T02670194=
METAR KAIA 081253Z AUTO 02003KT 10SM SCT034 OVC047 15/13 A3031 RMK 
    AO2 SLP238 T01500133 $=
METAR KAKO 081253Z AUTO 14009KT 5SM BR BKN005 OVC041 14/14 A3033 RMK 
    AO2 SLP237 T01440139 TSNO=
METAR KANE 081250Z 28004KT 12SM SKC 20/17 A3011=
METAR KAOH 081253Z AUTO 21003KT 7SM 26/21 A3008 RMK AO2 SLP177 
    T02610211 $=
METAR KAPA 081253Z 32005KT 10SM FEW030 SCT070 SCT120 14/11 A3034 RMK 
    AO2 SLP230 T01440111=
METAR KAPF 081253Z 05007KT 10SM CLR 28/23 A2998 RMK AO2 SLP152 
    T02780233=
METAR KARB 081253Z 27005KT 10SM CLR 27/21 A3005 RMK AO2 SLP166 
    T02720206=
METAR KASE 081253Z 00000KT 10SM FEW100 07/06 A3039 RMK AO2 SLP202 
    T00720056=
METAR KAUG 081253Z AUTO 19003KT 5SM BR OVC005 22/20 A3011 RMK AO2 
    SLP195 T02170200=
METAR KBAF 081253Z 16004KT 4SM HZ OVC011 24/22 A3008 RMK AO2 SLP183 
    T02440217=
METAR KBBW 081253Z AUTO 00000KT 10SM SCT090 SCT120 18/16 A3024 RMK 
    AO2 SLP227 T01780161=
METAR KBCE 081253Z AUTO 00000KT 10SM SCT120 11/02 A3034 RMK AO2 
    SLP158 T01110017 TSNO=
METAR KBDN 081255Z AUTO 21006KT 10SM CLR 12/03 A3012 RMK AO2 =
METAR KBGM 081253Z 00000KT 5SM HZ CLR 26/20 A3013 RMK AO2 SLP188 
    T02560200=
METAR KBGR 081253Z 19008KT 160V240 10SM BKN009 23/20 A3010 RMK AO2 
    CIG 006V012 SLP190 T02280200=
METAR KBHK 081253Z AUTO 25007KT 10SM CLR 16/09 A3022 RMK AO2 SLP219 
    T01560094=
METAR KBIL 081253Z 23005KT 10SM FEW120 13/06 A3026 RMK AO2 SLP227 
    T01280056=
METAR KBKL 081253Z 19006KT 6SM HZ FEW065 28/18 A3005 RMK AO2 SLP169 
    T02830183=
METAR KBMG 081253Z 24004KT 10SM CLR 27/23 A3006 RMK AO2 SLP171 
    T02670228=
METAR KBOI 081253Z 14004KT 10SM CLR 17/06 A3008 RMK AO2 SLP158 
    T01670061=
METAR KBPI 081253Z AUTO 00000KT 10SM BKN100 08/02 A3041 RMK AO2 
    SLP215 T00780017=
METAR KBTM 081253Z AUTO 00000KT 10SM CLR 06/01 A3033 RMK AO2 SLP240 
    T00560006=
METAR KBVY 081253Z 18009KT 10SM CLR 24/19 A3009 RMK AO2 SLP185 
    T02440194 PNO=
METAR KBYG 081253Z AUTO 25007KT 10SM CLR 14/03 A3031 RMK AO2 SLP223 
    T01390028=
METAR KBYI 081253Z AUTO VRB03KT 10SM CLR 11/05 A3015 RMK AO2 SLP175 
    T01060050=
METAR KCAG 081253Z AUTO 00000KT 10SM BKN110 09/07 A3034 RMK AO2 
    SLP225 T00940067=
METAR KCDC 081253Z AUTO 17003KT 10SM CLR 15/03 A3017 RMK AO2 SLP136 
    T01500028 $=
METAR KCDR 081253Z AUTO 24004KT 10SM CLR 12/10 A3030 RMK AO2 SLP252 
    T01220100=
####018001726####
SAUK KAWN 081300
METAR EGBB 081250Z 23007KT 190V280 9999 FEW040 22/09 Q1018=
METAR EGCC 081250Z 19009KT 9999 SCT038 19/10 Q1017=
METAR EGGD 081250Z 29008KT 250V330 9999 FEW034 20/10 Q1019=
METAR EGGP 081250Z 25012KT 9999 SCT048 20/09 Q1017=
METAR EGGW 081250Z 22006KT 140V260 9999 SCT029 23/13 Q1018=
METAR EGHD 081250Z 19007KT 150V240 9999 FEW020 20/14 Q1019=
METAR EGHE 081250Z 20011KT 9999 FEW022 18/14 Q1019=
METAR EGHH 081250Z 19009KT 9999 7000S FEW026 21/15 Q1019=
METAR EGHI 081250Z 20006KT 140V260 9999 FEW026 SCT032 BKN038 22/14
      Q1018=
METAR EGJA 081250Z 27007KT 240V320 CAVOK 19/16 Q1020=
METAR EGJB 081250Z 24007KT 200V290 9999 FEW006 SCT013 21/16 Q1020=
METAR EGJJ 081250Z 29007KT 260V330 9999 FEW008 21/17 Q1019 NOSIG=
METAR EGKB 081250Z 22008KT 170V260 9999 BKN035 25/14 Q1019=
METAR EGKK 081250Z VRB08KT 9999 SCT044 26/13 Q1018=
METAR EGLL 081250Z 26008KT 200V310 9999 BKN035 24/14 Q1018=
METAR EGMC 081250Z 22005KT 180V260 9999 FEW037 25/16 Q1018=
METAR EGMD 081250Z 20010KT 9999 FEW020 21/16 Q1019=
METAR EGMH 081250Z 13010KT 9999 FEW020 21/17 Q1019=
METAR EGNM 081250Z 26010KT 230V290 9999 SCT035 17/09 Q1017=
METAR EGNT 081250Z 25013KT 9999 FEW045 21/07 Q1015=
METAR EGNV 081250Z 24018KT 9999 SCT040 21/10 Q1016=
METAR EGPB 081250Z 20014KT CAVOK 15/11 Q1007=
METAR EGPF 081250Z 23019KT 9999 FEW030 18/10 Q1013=
METAR EGPH 081250Z 24015KT 9999 FEW035 18/07 Q1013=
METAR EGPK 081250Z 24017KT 9999 FEW024 19/09 Q1014=
METAR EGSS 081250Z 23009KT 200V270 9999 SCT028 23/15 Q1018=
METAR EGTC 081250Z 21010KT 170V260 9999 FEW040 22/12 Q1018=
METAR EGTE 081250Z 17011KT 9999 FEW030 21/15 Q1018=
METAR EGTG 081250Z 28009KT 9999 FEW030 21/09 Q1018=
####018000121####
SAUS45 KABQ 081255
MTRTCS
METAR KTCS 081253Z AUTO 36005KT 10SM SCT100 18/14 A3021 RMK AO2 
SLP162 T01830139 TSNO
####018000125####
SAUS41 KAKQ 081255
MTRNUI
METAR KNUI 081253Z AUTO 09008KT 6SM HZ SCT013 BKN019 27/24 A3001 RMK 
AO2 SLP161 T02720239
####018000107####
SAUS41 KBTV 081254
MTRBTV
METAR KBTV 081254Z 19004KT 7SM CLR 28/22 A3002 RMK AO2 SLP163 
T02830217
####018000113####
SAUS42 KTAE 081255
MTRTLH
METAR KTLH 081253Z 33006KT 10SM BCFG CLR 27/23 A3004 RMK AO2 SLP170 
T02670233
####018000121####
SAUS45 KPUB 081255
MTRLXV
METAR KLXV 081253Z AUTO 00000KT 10SM OVC004 06/05 A3052 RMK AO2 
SLP214 T00560050 TSNO
####018000118####
SAUS43 KUNR 081255
MTRCUT
METAR KCUT 081253Z AUTO 00000KT 10SM CLR 10/08 A3036 RMK AO2 SLP242 
T01000078 TSNO
####018000108####
SAGM31 PGUM 081255
MTRGUM
METAR PGUM 081254Z 11008KT 10SM CLR 27/24 A2992 RMK AO2 SLP123 
T02720244
####018000118####
SAUS45 KFGZ 081254
MTRRQE
METAR KRQE 081253Z AUTO 11003KT 10SM CLR 16/07 A3029 RMK AO2 SLP130 
T01610067 TSNO
####018001715####
SAEU KAWN 081300 RRB
METAR EGBB 081250Z 23007KT 190V280 9999 FEW040 22/09 Q1018=
METAR EGCC 081250Z 19009KT 9999 SCT038 19/10 Q1017=
METAR EGGD 081250Z 29008KT 250V330 9999 FEW034 20/10 Q1019=
METAR EGGP 081250Z 25012KT 9999 SCT048 20/09 Q1017=
METAR EGGW 081250Z 22006KT 140V260 9999 SCT029 23/13 Q1018=
METAR EGHD 081250Z 19007KT 150V240 9999 FEW020 20/14 Q1019=
METAR EGHE 081250Z 20011KT 9999 FEW022 18/14 Q1019=
METAR EGHI 081250Z 20006KT 140V260 9999 FEW026 SCT032 BKN038 22/14
      Q1018=
METAR EGJA 081250Z 27007KT 240V320 CAVOK 19/16 Q1020=
METAR EGJB 081250Z 24007KT 200V290 9999 FEW006 SCT013 21/16 Q1020=
METAR EGJJ 081250Z 29007KT 260V330 9999 FEW008 21/17 Q1019 NOSIG=
METAR EGKK 081250Z VRB08KT 9999 SCT044 26/13 Q1018=
METAR EGLL 081250Z 26008KT 200V310 9999 BKN035 24/14 Q1018=
METAR EGMC 081250Z 22005KT 180V260 9999 FEW037 25/16 Q1018=
METAR EGMD 081250Z 20010KT 9999 FEW020 21/16 Q1019=
METAR EGNM 081250Z 26010KT 230V290 9999 SCT035 17/09 Q1017=
METAR EGNT 081250Z 25013KT 9999 FEW045 21/07 Q1015=
METAR EGNV 081250Z 24018KT 9999 SCT040 21/10 Q1016=
METAR EGPB 081250Z 20014KT CAVOK 15/11 Q1007=
METAR EGPF 081250Z 23019KT 9999 FEW030 18/10 Q1013=
METAR EGPH 081250Z 24015KT 9999 FEW035 18/07 Q1013=
METAR EGPK 081250Z 24017KT 9999 FEW024 19/09 Q1014=
METAR EGSS 081250Z 23009KT 200V270 9999 SCT028 23/15 Q1018=
METAR EGTE 081250Z 17011KT 9999 FEW030 21/15 Q1018=
METAR EGTG 081250Z 28009KT 9999 FEW030 21/09 Q1018=
METAR EKAH 081250Z AUTO 21004KT 170V270 9999NDV -SHRA FEW013/// BKN070///
      20/16 Q1019=
METAR EKVJ 081250Z 20006KT 5000 -SHRA SCT006 BKN010 BKN020 20/17 Q1018=
METAR ETUO 081250Z 25005KT CAVOK 31/10 Q1019 BLU=
####018001655####
SAZZ40 KAWN 081300 RRA
METAR BGBW 081250Z 26006KT 230V290 9999 FEW040 14/05 Q1008 RMK 1SC=
METAR BGKK 081250Z 26004KT 9999 FEW080 SCT120 08/04 Q1009=
METAR BGSF 081250Z 08005KT 040V120 9999 FEW070 15/01 Q1007=
METAR EFKU 081250Z AUTO 34004KT CAVOK 23/17 Q1015=
METAR EFOU 081250Z VRB01KT 9999 FEW040 BKN200 23/11 Q1015=
METAR EGMH 081250Z 13010KT 9999 FEW020 21/17 Q1019=
METAR KEGI 081255Z AUTO 00000KT 10SM CLR 26/24 A3004 RMK AO2 SLP172
      T02630240 $=
METAR KHMN 081255Z 08003KT 10SM CLR 17/13 A3016 RMK AO2A SLP134 T01720135
      $=
METAR KLRF 081255Z AUTO 00000KT 10SM CLR 25/23 A3008 RMK AO2 SLP186
      T02470230=
METAR KNHK 081252Z 11011G15KT 5SM HZ SCT012 SCT020 28/23 A3001 RMK
      AO2 SLP163 T02780233=
METAR KNZY 081252Z 35008KT 7SM -DZ SCT008 OVC013 18/14 A2991 RMK AO2
      DZB22 SLP126 P0000 T01780139 $=
METAR KPOB 081255Z AUTO 00000KT 10SM CLR 28/21 A2997 RMK AO2 SLP149
      T02810213 $=
METAR KSAN 081251Z 32004KT 8SM OVC015 16/14 A2993 RMK AO2 SLP133 T01610139=
METAR MDPC 081300Z 09004KT 9999 FEW018 27/24 Q1013=
METAR MDPP 081300Z 00000KT 8000 DU FEW018 29/26 Q1016 DU/ALL QDS=
METAR MDSD 081300Z 06004KT 9999 FEW020 27/23 Q1015=
METAR MDST 081300Z 11004KT 5000 BR SCT018 25/24 Q1016 BR/ALL QDS=
METAR MSLP 081250Z 00000KT 9999 FEW020 BKN250 24/23 Q1011 A2986 FEW110
      DSTN CB TO SW=
METAR MSSS 081250Z 35002KT 9999 FEW020 SCT120 BKN300 21/20 Q1015 A2998=
METAR OAFZ 081250Z AUTO 02006KT //// ////// 38/01 Q1013=
METAR OSAP 081300Z 28016KT CAVOK 34/16 Q1006=
METAR OSDI 081300Z 21020KT CAVOK 38/06 Q1008=
METAR OSLK 081300Z 24006KT 9999 SCT030 28/19 Q1009=
####018000108####
SAUS43 KFGF 081255
MTRFAR
METAR KFAR 081253Z 23005KT 10SM CLR 18/13 A3008 RMK AO2 SLP185 
T01830133
####018000190####
SACA01 KMSC 081254
METAR TISX 081253Z 09011KT 10SM SCT022 29/24 A3000 RMK AO2 SLP158 
    T02940239=
METAR TIST 081253Z 09012KT 10SM CLR 30/24 A3000 RMK AO2 SLP160 
    T03000244=
####018002921####
SAUS20 KNKA 081254
METAR KLWV 081253Z AUTO 26003KT 7SM CLR 28/23 A3005 RMK AO2 SLP171 
    T02780233=
METAR KMAE 081253Z AUTO 30005KT 10SM CLR 16/10 A2984 RMK AO2 SLP100 
    T01560100=
METAR KMAF 081253Z 03008KT 10SM BKN005 OVC013 21/20 A3012 RMK AO2 
    SLP156 T02110200=
METAR KMBS 081253Z 26005KT 10SM SCT110 24/22 A3003 RMK AO2 SLP164 
    T02390217=
METAR KMCK 081253Z AUTO 00000KT 10SM CLR 17/16 A3026 RMK AO2 SLP232 
    T01720161=
METAR KMCO 081253Z VRB05KT 10SM FEW018 FEW250 27/21 A3001 RMK AO2 
    SLP162 T02670206=
METAR KMGY 081253Z AUTO 18003KT 5SM HZ CLR 27/22 A3009 RMK AO2 
    SLP177 T02670217=
METAR KMHT 081253Z 20005KT 5SM HZ BKN014 26/22 A3007 RMK AO2 SLP192 
    T02560217=
METAR KMIA 081253Z 05007KT 10SM SCT018TCU SCT130 SCT300 30/24 A2996 
    RMK AO2 SLP145 CB DSNT S TCU NE AND SE AND SW T03000244=
METAR KMIE 081253Z 20006KT 10SM FEW065 BKN080 27/19 A3007 RMK AO2 
    SLP170 T02720194=
METAR KMLC 081253Z AUTO 18003KT 10SM BKN009 BKN021 OVC031 24/23 
    A3005 RMK AO2 SLP168 T02440233=
METAR KMLS 081253Z AUTO 15003KT 10SM CLR 13/11 A3021 RMK AO2 SLP217 
    T01330106=
METAR KMLT 081253Z AUTO 17004KT 6SM HZ OVC011 23/20 A3008 RMK AO2 
    SLP187 T02330200=
METAR KMLU 081253Z 09004KT 10SM CLR 26/24 A3008 RMK AO2 SLP184 
    T02610239=
METAR KMMK 081253Z AUTO 15006KT 3SM HZ BKN014 OVC020 26/22 A3007 RMK 
    AO2 SLP182 T02560222=
METAR KMNI 081255Z AUTO 31006KT 10SM CLR 28/23 A2997 RMK AO2=
METAR KMNN 081253Z AUTO 17004KT 6SM HZ CLR 25/21 A3009 RMK AO2 
    SLP181 T02500211=
METAR KMPO 081253Z AUTO 03005KT 5SM HZ FEW090 28/19 A3012 RMK AO2 
    SLP182 T02780189=
METAR KMSO 081253Z 12004KT 10SM CLR 11/07 A3022 RMK AO2 SLP218 
    T01060072 $=
METAR KMSS 081253Z AUTO 25004KT 7SM CLR 27/23 A3002 RMK AO2 SLP163 
    T02720228=
METAR KMTH 081253Z AUTO 04006KT 10SM FEW090 A2995 RMK AO2 LTG DSNT 
    NE UPE27RAB18E28 SLP143 P0000 FZRANO $=
METAR KMTJ 081253Z AUTO 15003KT 10SM CLR 15/05 A3028 RMK AO2 SLP181 
    T01500050=
METAR KMVY 081253Z 16011KT 10SM CLR 26/21 A3010 RMK AO2 SLP192 
    T02560206=
METAR KMWA 081253Z 23005KT 15SM BKN070 BKN250 27/24 A3007=
METAR KMWL 081253Z AUTO 12006KT 10SM SCT022 BKN031 24/23 A3003 RMK 
    AO2 SLP154 T02440228 $=
METAR KODO 081253Z AUTO 03010G18KT 5SM BR OVC003 21/20 A3013 RMK AO2 
    CIG 003V008 SLP163 T02110200=
METAR KOGB 081253Z AUTO 33005KT 10SM CLR 27/20 A2999 RMK AO2 SLP153 
    T02720200=
METAR KOGD 081253Z 20004KT 10SM CLR 18/06 A3013 RMK AO2 SLP145 
    T01830061=
METAR KOLF 081253Z AUTO 00000KT 10SM CLR 13/09 A3017 RMK AO2 SLP213 
    T01330094=
METAR KONO 081253Z AUTO 27003KT 10SM CLR 11/06 A3008 RMK AO2 SLP174 
    T01110056=
METAR KOPF 081253Z 06009KT 10SM FEW023 29/24 A2996 RMK AO2 SLP146 
    T02890244=
METAR KORL 081253Z 02004KT 10SM CLR 26/21 A3002 RMK AO2 SLP166 
    T02610211=
####018002991####
SAUS20 KNKA 081254
METAR KOSU 081253Z 00000KT 5SM HZ CLR 27/21 A3009 RMK AO2 SLP181 
    T02720211=
METAR KOWD 081253Z 18007KT 10SM CLR 26/19 A3010 RMK AO2 SLP191 
    T02610189=
METAR KOXB 081253Z AUTO 07006KT 10SM FEW090 27/24 A3002 RMK AO2 
    SLP167 T02670244=
METAR KPBG 081253Z AUTO 12005KT 6SM HZ CLR 27/22 A3001 RMK AO2 
    SLP161 T02670222=
METAR KPBI 081253Z 00000KT 7SM -RA FEW012 BKN022CB BKN055 27/26 
    A2996 RMK AO2 SLP144 CB OHD-E-S MOV SW P0016 T02670261 $=
METAR KPEO 081253Z AUTO 23005KT 6SM HZ CLR 26/21 A3009 RMK AO2 
    SLP179 T02610211=
METAR KPGD 081253Z AUTO 07007KT 10SM CLR 26/23 A3002 RMK AO2 SLP165 
    T02610228 TSNO=
METAR KPHD 081253Z AUTO 00000KT 4SM HZ CLR 24/19 A3009 RMK AO2 
    SLP183 T02440194=
METAR KPIE 081253Z 06004KT 10SM FEW033 26/22 A3001 RMK AO2 SLP163 
    T02610222=
METAR KPIH 081253Z 00000KT 10SM CLR 07/03 A3019 RMK AO2 SLP189 
    T00720028=
METAR KPKB 081253Z 00000KT 4SM BCFG BR CLR 24/21 A3012 RMK AO2 
    SLP190 VIS N-E 1/2 T02390211=
METAR KPMP 081253Z 08008KT 10SM CLR 29/24 A2996 RMK AO2 SLP147 
    T02940239=
METAR KPNC 081253Z AUTO 00000KT 8SM OVC028 23/22 A3007 RMK AO2 
    SLP173 T02280217=
METAR KPOU 081253Z 11005KT 6SM HZ CLR 27/22 A3004 RMK AO2 SLP168 
    T02720222=
METAR KPRB 081253Z AUTO 34003KT 8SM OVC005 12/11 A2992 RMK AO2 
    SLP127 T01170106=
METAR KPSO 081255Z AUTO 00000KT 10SM BKN120 10/06 A3040 RMK AO2=
METAR KPTK 081253Z 30005KT 9SM FEW150 SCT240 28/21 A3004 RMK AO2 
    SLP164 T02780211=
METAR KPUB 081253Z 00000KT 10SM CLR 15/13 A3031 RMK AO2 SLP215 
    T01500133=
METAR KPUC 081253Z AUTO 33003KT 10SM CLR 13/02 A3025 RMK AO2 SLP182 
    T01330022 TSNO=
METAR KPUW 081253Z AUTO 06003KT 10SM CLR 14/07 A3008 RMK AO2 SLP172 
    T01390072=
METAR KRBD 081253Z 12003KT 10SM BKN008 OVC048 25/24 A3003 RMK AO2 
    RAB1156E19B39E52 SLP161 P0001 T02500239=
METAR KRIW 081253Z AUTO 00000KT 10SM CLR 11/06 A3035 RMK AO2 SLP230 
    T01110061=
METAR KRME 081253Z 30003KT 7SM CLR 26/22 A3008 RMK AO2 SLP179 
    T02610217 $=
METAR KRSW 081253Z 03006KT 10SM CLR 27/22 A2999 RMK AO2 SLP151 
    T02670222=
METAR KRWL 081253Z AUTO 06006KT 10SM OVC007 09/07 A3041 RMK AO2 
    SLP234 T00940072=
METAR KRXE 081253Z AUTO 04006KT 10SM CLR 09/05 A3024 RMK AO2 SLP207 
    T00890050=
METAR KSEG 081253Z AUTO 06003KT 6SM HZ CLR 29/18 A3005 RMK AO2 
    SLP173 T02940183=
METAR KSHN 081253Z AUTO 00000KT 10SM CLR 11/09 A2994 RMK AO2 SLP137 
    T01060089=
METAR KSHR 081253Z AUTO 00000KT 10SM CLR 09/07 A3027 RMK AO2 SLP235 
    T00940067=
METAR KSLC 081253Z 00000KT 10SM FEW090 BKN130 18/08 A3011 RMK AO2 
    SLP145 VIRGA DSNT W-NE T01830083=
METAR KSMQ 081253Z AUTO 00000KT 4SM HZ FEW014 26/23 A3003 RMK AO2 
    SLP168 T02610233=
METAR KSNY 081253Z AUTO 35003KT 10SM SCT090 16/14 A3033 RMK AO2 
    SLP237 T01610144 $=
METAR KSPA 081255Z AUTO 04004KT 10SM CLR 28/23 A3003 RMK AO2=
####018001812####
SAUS20 KNKA 081254
METAR KSPG 081253Z 08005KT 10SM CLR 27/22 A3000 RMK AO2 SLP159 
    T02720222=
METAR KSPL 081255Z AUTO 35007KT 28/25 A2976 RMK AO2 PWINO PNO =
METAR KSRQ 081253Z 08004KT 10SM CLR 27/23 A2999 RMK AO2 SLP156 
    T02670228=
METAR KTDZ 081253Z AUTO 24004KT 10SM FEW080 28/21 A3005 RMK AO2 
    SLP169 T02780206=
METAR KTHV 081253Z AUTO 10003KT 5SM HZ CLR 28/22 A3003 RMK AO2 
    SLP168 T02780217=
METAR KTMB 081253Z 05004KT 10SM CLR 29/25 A2996 RMK AO2 SLP144 
    T02940250=
METAR KTOI 081253Z 00000KT 9SM CLR 26/23 A3005 RMK AO2 SLP169 
    T02560233=
METAR KTOR 081253Z AUTO 00000KT 10SM BKN026 11/10 A3031 RMK AO2 
    SLP241 T01110100=
METAR KTPA 081253Z 00000KT 10SM FEW200 27/21 A3002 RMK AO2 SLP164 
    T02670211=
METAR KTTN 081253Z 18004KT 2SM HZ BKN011 27/23 A3004 RMK AO2 SLP166 
    T02670228=
METAR KTVL 081253Z AUTO 00000KT 10SM CLR 08/05 A3017 RMK AO2 SLP161 
    T00830050=
METAR KTWF 081253Z 10011KT 10SM CLR 16/01 A3014 RMK AO2 SLP152 
    T01610006=
METAR KUTA 081255Z AUTO 00000KT 10SM CLR 26/22 A3008 RMK AO2=
METAR KUUU 081253Z AUTO VRB03KT 10SM OVC003 22/21 A3011 RMK AO2 
    SLP196 T02220211=
METAR KVEL 081253Z AUTO 00000KT 10SM CLR 16/06 A3026 RMK AO2 SLP186 
    T01560061=
METAR KVLD 081253Z 00000KT 10SM CLR 27/21 A3003 RMK AO2 SLP175 
    T02670211=
METAR KVRB 081253Z 04007KT 10SM CLR 28/21 A2999 RMK AO2 SLP154 
    T02780206=
METAR KWRL 081253Z AUTO 24003KT 10SM CLR 11/05 A3029 RMK AO2 SLP228 
    T01110050=
METAR KWST 081253Z AUTO 09005KT 9SM BKN006 23/21 A3010 RMK AO2 CIG 
    003V008 SLP191 T02330211=
METAR KYIP 081253Z 24003KT 10SM CLR 28/21 A3005 RMK AO2 SLP165 
    T02830206 $=
METAR KZZV 081253Z AUTO 00000KT 6SM HZ SCT065 24/21 A3010 RMK AO2 
    SLP182 T02440211=
####018000205####
SADN33 EKCH 081250
METAR EKKA 081250Z 20006KT 160V230 5000 -SHRA FEW009 FEW018TCU
BKN030 18/17 Q1018 TEMPO 4000 SHRA SCT020CB=
METAR EKSP 081250Z 23011KT CAVOK 25/12 Q1019 TEMPO SHRA RMK
BKN100=
####018000477####
SAUK31 EGGY 081250
METAR EGBB 081250Z 23007KT 190V280 9999 FEW040 22/09 Q1018=
METAR EGCC 081250Z 19009KT 9999 SCT038 19/10 Q1017=
METAR EGKK 081250Z VRB08KT 9999 SCT044 26/13 Q1018=
METAR EGLL 081250Z 26008KT 200V310 9999 BKN035 24/14 Q1018=
METAR EGPF 081250Z 23019KT 9999 FEW030 18/10 Q1013=
METAR EGPH 081250Z 24015KT 9999 FEW035 18/07 Q1013=
METAR EGPK 081250Z 24017KT 9999 FEW024 19/09 Q1014=
METAR EGSS 081250Z 23009KT 200V270 9999 SCT028 23/15 Q1018=
####018000215####
SASY31 OSDI 081300
OSDI 081300Z 21020KT CAVOK 38/06 Q1008=
OSAP 081300Z 28016KT CAVOK 34/16 Q1006=
OSLK 081300Z 24006KT 9999 SCT030 28/19 Q1009=
OSDZ 081300Z NIL=
OSKL 081300Z 28012KT CAVOK 41/04 Q1004=
####018000157####
SASN34 ESWI 081250
METAR ESDF 081250Z NIL=
METAR ESPA 081250Z 15011KT CAVOK 19/14 Q1015=
METAR ESSL 081250Z 21009KT 130V240 9999 FEW046 25/12 Q1018=
####018000402####
SAUK33 EGGY 081250
METAR EGGD 081250Z 29008KT 250V330 9999 FEW034 20/10 Q1019=
METAR EGGP 081250Z 25012KT 9999 SCT048 20/09 Q1017=
METAR EGHI 081250Z 20006KT 140V260 9999 FEW026 SCT032 BKN038 22/14
    Q1018 =
METAR EGNS 081250Z NIL=
METAR EGNT 081250Z 25013KT 9999 FEW045 21/07 Q1015=
METAR EGNV 081250Z 24018KT 9999 SCT040 21/10 Q1016=
METAR EGPB 081250Z 20014KT CAVOK 15/11 Q1007=
####018000524####
SAUK34 EGGY 081250
METAR EGHD 081250Z 19007KT 150V240 9999 FEW020 20/14 Q1019=
METAR EGHE 081250Z 20011KT 9999 FEW022 18/14 Q1019=
METAR EGHK 081250Z NIL=
METAR EGHQ 081250Z 28008KT 9999 FEW025 17/13 Q1019=
METAR EGJA 081250Z 27007KT 240V320 CAVOK 19/16 Q1020=
METAR EGJB 081250Z 24007KT 200V290 9999 FEW006 SCT013 21/16
    Q1020=
METAR EGJJ 081250Z 29007KT 260V330 9999 FEW008 21/17 Q1019 NOSIG=
METAR EGTE 081250Z 17011KT 9999 FEW030 21/15 Q1018=
METAR EGTG 081250Z 28009KT 9999 FEW030 21/09 Q1018=
####018000243####
SADN34 EKCH 081250
METAR EKGF 081250Z 20010KT CAVOK 16/16 Q1017=
METAR EKHN 081250Z AUTO 19010KT 9999NDV FEW028/// SCT048///
SCT076/// 17/14 Q1020=
METAR EKHR 081250Z AUTO 19009KT 9000NDV FEW003/// BKN007///
BKN080/// 17/17 Q1018=
####018000627####
SASN33 ESWI 081250
METAR ESNG 081250Z 22007KT 190V250 9000 RA BKN045 15/13 Q1014 REDZ=
METAR ESNK 081250Z AUTO 15011KT 9999NDV SCT041/// BKN052/// 21/13
Q1012=
METAR ESNN 081250Z AUTO 24006KT 200V280 9999NDV OVC042/// 22/13
Q1013=
METAR ESNO 081250Z AUTO 20011KT 170V230 9999NDV FEW045/// 21/10
Q1013=
METAR ESNQ 081250Z 15009KT 9999 BKN050 16/11 Q1013 RERA REDZ=
METAR ESNS 081250Z AUTO 12010KT 9999NDV ////// 22/10 Q1014=
METAR ESNU 081250Z 17009KT CAVOK 21/11 Q1014=
METAR ESNZ 081250Z 19008KT CAVOK 20/10 Q1011=
METAR ESUT 081250Z AUTO 15012KT 9999NDV SCT046/// BKN057///
BKN130/// 18/11 Q1009=
####018000457####
SAUK35 EGGY 081250
METAR EGHH 081250Z 19009KT 9999 7000S FEW026 21/15 Q1019=
METAR EGKA 081250Z 19008KT 9999 FEW020 21/17 Q1019=
METAR EGKB 081250Z 22008KT 170V260 9999 BKN035 25/14 Q1019 =
METAR EGLF 081250Z NIL=
METAR EGMC 081250Z 22005KT 180V260 9999 FEW037 25/16 Q1018=
METAR EGMD 081250Z 20010KT 9999 FEW020 21/16 Q1019=
METAR EGMH 081250Z 13010KT 9999 FEW020 21/17 Q1019 =
METAR EGTC 081250Z 21010KT 170V260 9999 FEW040 22/12 Q1018=
####018000486####
SAUK32 EGGY 081250
METAR EGAA 081250Z 21011KT 9999 FEW032 16/09 Q1014=
METAR EGAC 081250Z 21012KT 190V250 9999 FEW024 SCT040 18/09
    Q1014=
METAR EGFF 081250Z NIL=
METAR EGGW 081250Z 22006KT 140V260 9999 SCT029 23/13 Q1018=
METAR EGLC 081250Z 27006KT 210V330 9999 SCT030 24/14 Q1018=
METAR EGNM 081250Z 26010KT 230V290 9999 SCT035 17/09 Q1017=
METAR EGNX 081250Z 26010KT 230V300 CAVOK 22/08 Q1018=
METAR EGPD 081250Z 23012KT 190V260 9999 FEW047 19/08 Q1011 NOSIG=
####018000103####
SAUK31 EGGY 081250 CCA
METAR COR EGLL 081250Z 26008KT 200V310 9999 BKN035 24/14 Q1018
    NOSIG=
####018000086####
SAMP31 LMMM 081300 RRA
METAR HLLT 081250Z
35007KT 310V040 8000 SKC 31/18 Q1018=
####018000490####
SASN35 ESWI 081250
METAR ESGL 081250Z AUTO 23013KT 9999NDV BKN036/// BKN081/// 21/15 
Q1018=
METAR ESGR 081250Z AUTO 23009KT 9999NDV OVC041/// 22/14 Q1018=
METAR ESKM 081250Z NIL=
METAR ESNL 081250Z AUTO 14013KT 9999NDV FEW050/// 21/10 Q1012=
METAR ESNX 081250Z AUTO 14004KT 9000NDV RA FEW009/// SCT017///
BKN038/// 15/14 Q1014=
METAR ESNY 081250Z AUTO 25009KT 220V290 9999 FEW037 24/15 Q1014=
METAR ESSF 081250Z NIL=
METAR ESSK 081250Z NIL=
METAR ESUD 081250Z NIL=
####018000483####
SASN32 ESWI 081250
METAR ESKN 081250Z 25012KT 9999 SCT049 25/13 Q1017=
METAR ESOE 081250Z NIL=
METAR ESOK 081250Z 22004KT 9999 BKN026 19/14 Q1017=
METAR ESOW 081250Z 25010KT CAVOK 24/14 Q1017=
METAR ESSA 081250Z 24014KT 9999 FEW045 24/13 Q1016 NOSIG=
METAR ESSB 081250Z 26010KT 9999 FEW035 SCT048 25/13 Q1016=
METAR ESSD 081250Z AUTO 26010KT 9999NDV FEW028/// BKN035/// 20/13
Q1016=
METAR ESSP 081250Z NIL=
METAR ESSV 081250Z 25006KT 220V280 CAVOK 22/11 Q1019=
####018000086####
SADN34 EKCH 081250 RRA
METAR EKGF 081250Z 20011KT 9999 FEW030 SCT090 16/16 Q1018=
####018000083####
SAUK33 EGGY 081250 CCA
METAR COR EGPB 081250Z 20014KT CAVOK 15/11 Q1007 NOSIG=
####018000406####
SAFI32 EFHK 081250
EFHA 081250Z VRB01KT 9999 FEW030TCU SCT035 BKN200 25/15 Q1015=
EFHF 081250Z 33008KT 300V010 9999 FEW042 SCT055 27/19 Q1013=
EFKA 081250Z 21005KT 150V240 CAVOK 25/11 Q1014=
EFKK 081250Z AUTO VRB05KT CAVOK 26/12 Q1014=
EFMA 081250Z 19007KT 160V220 CAVOK 22/13 Q1016=
EFPO 081250Z AUTO 27006KT 210V360 CAVOK 24/12 Q1015=
EFSI 081250Z AUTO 19004KT 130V290 CAVOK 25/11 Q1014=
####018000160####
SAUS42 KKEY 081255
MTRNQX
METAR KNQX 081253Z 05005KT 10SM SCT022CB SCT100 BKN200 29/25 A2996 
RMK AO2 SLP144 CB DSNT S TCU DSNT SE W T2 SET T02940250 $
####018000341####
SADL33 EDZO 081250
METAR EDFE 081250Z VRB03KT CAVOK 30/11 Q1019=
METAR EDFH 081250Z 16006KT 050V210 CAVOK 28/12 Q1021=
METAR EDFM 081250Z 08006KT 040V160 CAVOK 32/10 Q1019=
METAR EDLV 081250Z VRB06KT CAVOK 32/10 Q1019=
METAR EDTL 081250Z 26005KT 180V320 CAVOK 30/07 Q1019=
METAR EDVK 081250Z 22005KT 170V270 CAVOK 27/09 Q1021=
####018000245####
SADL35 EDZO 081250
METAR EDHI 081250Z 23009KT 190V270 CAVOK 30/11 Q1019=
METAR EDMO 081250Z 01006KT 320V040 CAVOK 25/09 Q1022=
METAR EDOP 081250Z 18008KT 120V230 CAVOK 30/09 Q1020=
METAR EDTD 081250Z 17005KT 080V250 CAVOK 27/12 Q1023=
####018000766####
SADL34 EDZO 081250
METAR EDAC 081250Z 22005KT 160V250 CAVOK 27/12 Q1021=
METAR EDAH 081250Z VRB03KT CAVOK 25/08 Q1021=
METAR EDGS 081250Z 21007KT 170V260 CAVOK 25/10 Q1022=
METAR EDHL 081250Z 22008KT 170V280 CAVOK 30/14 Q1019=
METAR EDJA 081250Z VRB03KT CAVOK 26/08 Q1022=
METAR EDLN 081250Z 26005KT 200V310 CAVOK 31/10 Q1019=
METAR EDLP 081250Z VRB04KT CAVOK 30/10 Q1020=
METAR EDLW 081250Z VRB05KT CAVOK 30/10 Q1020=
METAR EDMA 081250Z VRB02KT 170V170 CAVOK 26/09 Q1022=
METAR EDNY 081250Z 18005KT CAVOK 28/11 Q1021=
METAR EDQM 081250Z VRB03KT CAVOK 24/07 Q1023=
METAR EDRZ 081250Z 12005KT 070V200 CAVOK 30/12 Q1021=
METAR EDSB 081250Z 34006KT 260V060 CAVOK 31/12 Q1020=
METAR EDXW 081250Z 23008KT 4600 -RA FEW020 BKN070 18/16 Q1019=
####018000121####
SAUS46 KSGX 081255
MTRSDM
METAR KSDM 081253Z AUTO 00000KT 10SM OVC010 16/13 A2991 RMK AO2 
SLP125 T01610133 TSNO
####018000088####
SABA31 MYGF 081252
METAR MYGF 081300Z 08006KT 9999 FEW015CB 29/25 A2998 RMK CB S
####018000079####
SPUS81 KWBC 081255
SPECI
KHLR 081252Z AUTO 09003KT 9SM OVC007 26/ A3001=
####018000078####
SAMN31 TNCM 081300
METAR TNCM 081300Z 08013KT 9999 SCT021 30/23 Q1016=
####018000992####
SAXN17 KAWN 081300
METAR MDSD 081300Z 06004KT 9999 FEW020 27/23 Q1015=
METAR MMCV 081245Z 00000KT 12SM SCT090 BKN220 23/23 A2986 RMK 8/036=
METAR COR MMMA 081245Z 32008KT 5SM BKN010 BKN065 26/25 A2980 RMK 8/45/
      HZ ISOL CI=
METAR MMMA 081245Z 32008KT 5SM BKN010 BKN065 26/25 A2980 RMK 8/45/
      BR=
METAR MMMY 081245Z 30006KT 15SM FEW030 SCT070 24/22 A2988 RMK 8/570
      ISOL CI=
METAR MMTC 081245Z 00000KT 10SM BKN030 21/17 A3003 RMK 8/500=
METAR MSSS 081250Z 35002KT 9999 FEW020 SCT120 BKN300 21/20 Q1015 A2998=
METAR NSTU 081250Z 07012KT 10SM FEW016 28/26 A2988 RMK SLP119 T02780259=
PACZ SA 1255 AWOS MM 10 51/47/0508/003=
PAEH SA 1255 AWOS CLR BLO 120 10 49/-19/1404/997=
PAIM SA 1255 AWOS CLR BLO 120 10 50/45/3006/007=
PATC SA 1255 AWOS CLR BLO 120 10 46/43/0209/013=
METAR PHJR 081253Z 00000KT 10SM SCT060 22/17 A3001 RMK AO2 SLP170 T02220172=
METAR PTYA 081250Z 10009KT 12SM SCT016 BKN130 OVC300 28/24 A2990 RMK
      SLP125 T02780238=
####018000170####
SAAK17 KAWN 081300 RRA
PACZ SA 1255 AWOS MM 10 51/47/0508/003=
PAEH SA 1255 AWOS CLR BLO 120 10 49/-19/1404/997=
PAIM SA 1255 AWOS CLR BLO 120 10 50/45/3006/007=
####018000098####
SAXX70 KAWN 081200 RRX
METAR KQEJ 081240Z AUTO 08001KT 2SM -RA BR OVC040 22/20 A2995 RMK A02=
####018001146####
SPZZ40 KAWN 081255 RRK
SPECI CYBC 081252Z AUTO 10004KT 8SM OVC003 13/13 A3003=
SPECI CYPH 081250Z AUTO 24012KT 2 1/8SM OVC002 08/08 A2981 RMK VSBY
      VRBL 0.9V9.+=
SPECI CYUS 081252Z AUTO ///// 9SM CLR 13/ A2979=
SPECI CYXN 081245Z 00000KT 3SM -RA BR OVC003 RMK FG3ST5=
SPECI KCEF 081252Z 13002KT 6SM -RA BR OVC011 25/22 A3008 RMK AO2A SLP186
      $=
SPECI KGUS 081250Z AUTO 19006KT 10SM -RA FEW060 26/22 A3004 RMK AO2
      RAB1250 CLDS LWR RWY05 SLP167 $=
SPECI KLSF 081238Z COR 00000KT 10SM CLR 26/22 A3003 RMK AO2 SLP169
      COR 1242$=
SPECI PASY 081243Z AUTO 02017KT 9999 OVC002 A2974 RMK AO2 TSNO PNO=
SPECI PHHI 081254Z AUTO 01004KT 10SM BKN036 OVC044 20/18 A3002 RMK
      AO2 DZB1241E1254 SLP156=
SPECI RJCC 081244Z 14003KT 0800 R19R/0900VP1800D R01R/0900N DZ VV002
      17/17 Q1010 RMK A2984=
SPECI RJTT 081244Z 18017KT 9999 FEW007 BKN010 BKN150 25/22 Q1010 RMK
      1ST007 5CU010 7AC150 A2985=
SPECI RKSG 081250Z 00000KT 6000 -DZ SCT060 BKN100 24/24 A2983 RMK AO2A
      DZB1250 SLP101 $=
SPECI RKSO 081248Z AUTO 28005KT 9999 -DZ FEW120 23/23 A2981 RMK AO2
      DZB1248 SLP096 $=
####018000410####
SANO37 ENMI 081250
METAR ENNO 081250Z 14011G19KT 9999 SCT025 BKN075 20/14 Q1013=
METAR ENOV 081250Z 24005KT 210V300 9999 VCSH FEW040 SCT052 17/07
           Q1010 =
METAR ENSD 081250Z NIL=
METAR ENSG 081250Z 24010KT 200V270 9999 SCT055 17/06 Q1012=
METAR ENSN 081250Z 18010KT 120V210 7000 OVC007 16/15 Q1016=
METAR ENSR 081250Z 30005KT 9999 FEW050 SCT070 19/09 Q1011=
METAR ENSS 081250Z NIL=
####018000278####
SANO38 ENMI 081250
METAR ENDR 081250Z NIL=
METAR ENEK 081250Z 23012KT CAVOK 16/12 Q1016 W15/S3=
METAR ENGC 081250Z 19025KT CAVOK 13/11 Q1009=
METAR ENHE 081250Z 18021KT 9999 SCT040 15/11 Q1009=
METAR ENOA 081250Z NIL=
METAR ENSL 081250Z 22023KT CAVOK 14/11 Q1013=
####018000604####
SANO32 ENMI 081250
METAR ENAL 081250Z 24009KT 210V280 9999 VCSH FEW040TCU SCT060 16/11
           Q1010=
METAR ENCN 081250Z 19009KT 9999 FEW010 OVC040 17/15 Q1016=
METAR ENHD 081250Z 21012KT 9999 FEW035 SCT060 16/12 Q1015=
METAR ENRO 081250Z 17004KT 140V240 9999 FEW025 SCT045 BKN080 12/09
           Q1011=
METAR ENRY 081250Z 18011KT 9999 -RA SCT006 BKN008 17/15 Q1016 TEMPO
           SCT008 BKN015=
METAR ENSB 081250Z 27011KT 9999 FEW015 SCT025 BKN035 09/05 Q1009 =
METAR ENTC 081250Z 01005KT 9999 FEW065 SCT082 18/09 Q1010=
METAR ENTO 081250Z 19011KT 9999 BKN008 16/15 Q1016=
####018000115####
SAUS42 KTAE 081255
MTR40J
METAR K40J 081253Z AUTO 33003KT 24/22 A3003 RMK AO2 SLP167 T02440217 
PWINO TSNO
####018001853####
SAUS20 KNKA 081255
METAR KSTL 081251Z COR 24004KT 10SM FEW009 BKN025TCU BKN080 BKN150 
    BKN250 26/23 A3007 RMK AO2 SLP168 TCU W-NE VCSH W-N T02610233=
METAR KSUE 081255Z AUTO 29004KT 3SM OVC005 22/21 A3000 RMK AO1=
METAR KSUN 081253Z 29010G14KT 30SM SKC 10/01 A3025=
METAR KSUN 081251Z AUTO 31007KT 10SM CLR 10/00 A3026 RMK AO2=
METAR KSUS 081254Z 24003KT 10SM -RA OVC024 24/23 A3005 RMK AO2 
    SLP166 P0018 T02440233=
METAR KSWF 081254Z VRB04KT 4SM HZFT BKN100 27/22 A3008=
METAR KSYR 081254Z 00000KT 7SM CLR 28/21 A3005 RMK AO2 SLP170 
    T02830211=
METAR KSZT 081250Z AUTO 00000KT 10SM CLR 10/08 A3012 RMK AO2=
METAR KTAD 081254Z AUTO 30003KT 10SM CLR 14/13 A3035 RMK AO2 SLP226 
    T01440128=
METAR KTIF 081250Z AUTO 30003KT 10SM BKN120 17/15 A3028 RMK AO2 
     T01650147=
METAR KTQE 081254Z AUTO 36007KT 10SM CLR 20/17 A3017 RMK AO2 SLP204 
    T02000172=
METAR KTRK 081250Z AUTO 00000KT 10SM CLR 08/06 A3017 RMK AO2=
METAR KTVF 081255Z AUTO 26007KT 10SM CLR 17/13 A3006 RMK AO1=
METAR KUIN 081254Z AUTO 30006KT 10SM BKN005 OVC010 23/22 A3007 RMK 
    AO2 CIG 003V008 SLP177 T02280222=
METAR KUZA 081254Z AUTO 36004KT 8SM CLR 28/19 A3003 RMK AO2 SLP154 
    T02780194=
METAR KVBT 081255Z AUTO 16003KT 10SM OVC020 24/21 A3006 RMK AO1 
    LTG DSNT NW=
METAR KVIS 081255Z AUTO 00000KT 10SM CLR 18/11 A2983 RMK AO1=
METAR KVSF 081254Z AUTO 00000KT 5SM HZ OVC012 24/22 A3009 RMK AO2 
    SLP186 T02440217=
METAR KVTA 081254Z AUTO 00000KT 6SM HZ CLR 25/21 A3009 RMK AO2 
    SLP180 T02500206=
METAR KWLD 081254Z AUTO 03005KT 10SM CLR 23/21 A3010 RMK AO2 SLP182 
    T02280206=
METAR KWVL 081255Z AUTO 19003KT 4SM OVC004 21/19 A3007 RMK AO1=
METAR KWWD 081255Z AUTO 7SM FEW048 SCT060 OVC090 24/24 A3004 RMK AO1=
METAR KYKN 081255Z AUTO 25004KT 10SM CLR 19/16 A3020 RMK AO1=
####018002987####
SAUS20 KNKA 081255
METAR KIWD 081255Z AUTO 32005KT 10SM BKN060 19/16 A3003 RMK AO1=
METAR KIZG 081254Z AUTO 09004KT 6SM HZ OVC012 25/21 A3010 RMK AO2 
    SLP189 T02500206=
METAR KJAC 081255Z AUTO 36003KT 10SM CLR 07/00 A3038 RMK AO1=
METAR KJHW 081255Z AUTO 16003KT 10SM CLR 24/20 A3012 RMK AO1 54000=
METAR KKLS 081255Z AUTO 32003KT 10SM CLR 14/13 A2994 RMK AO1=
METAR KLAF 081254Z 24003KT 7SM CLR 26/22 A3004 RMK AO2 SLP166 
    T02610222=
METAR KLBL 081255Z 36014KT 5SM OVC005 19/17 A3023 RMK AO1 P0002=
METAR KLBT 081254Z AUTO 04005KT 7SM CLR 28/20 A2995 RMK AO2 SLP141 
    T02830200=
METAR KLCI 081255Z AUTO 23004KT 5SM BKN013 OVC025 25/21 A3008 RMK 
    AO1=
METAR KLEW 081255Z 17004KT 1 3/4SM OVC003 21/20 A3012 RMK AO1=
METAR KLEX 081254Z 17003KT 4SM HZ CLR 27/20 A3010 RMK AO2 SLP182 
    T02670200=
METAR KLGD 081255Z AUTO 33006KT 10SM CLR 09/06 A3007 RMK AO1=
METAR KLKV 081255Z AUTO 32005KT 10SM CLR 11/01 A3013 RMK AO1=
METAR KLNK 081254Z 36007KT 10SM CLR 19/17 A3017 RMK AO2 SLP209 
    T01940172=
METAR KLPC 081255Z AUTO 00000KT 7SM OVC008 13/11 A2993 RMK AO1 PNO=
METAR KLWM 081254Z VRB04KT 10SM FEW019 BKN044 27/21 A3011 RMK AO2 
    SLP194 T02670206=
METAR KLWT 081254Z AUTO 13004KT 10SM CLR 10/06 A3027 RMK AO2 SLP229 
    T01000061=
METAR KLYH 081254Z 36005KT 6SM HZ CLR 29/19 A3006 RMK AO2 SLP167 
    T02890189=
METAR KMBL 081255Z AUTO 28007KT 4SM OVC005 22/20 A3003 RMK AO1 P0004=
METAR KMFI 081254Z AUTO 33006KT 2SM BR OVC003 19/19 A3005 RMK AO2 
    SLP170 T01940189=
METAR KMGJ 081254Z AUTO 00000KT 7SM CLR 28/21 A3005 RMK AO2 SLP173 
    T02780211=
METAR KMIV 081254Z AUTO 11005KT 10SM FEW060 26/21 A3003 RMK AO2 
    SLP167 T02560211=
METAR KMJX 081255Z AUTO 10003KT FEW010 SCT060 BKN090 25/22 A3005 RMK 
    AO1=
METAR KMKC 081254Z 36003KT 10SM OVC008 23/21 A3009 RMK AO2 SLP180 
    T02330211=
METAR KMKT 081255Z 30004KT 10SM CLR 18/16 A3013 RMK AO1=
METAR KMML 081255Z AUTO 28009KT 10SM CLR 19/14 A3015 RMK AO1=
METAR KMNM 081255Z AUTO 34003KT 10SM FEW009 OVC015 22/19 A3001 RMK 
    AO1=
METAR KMOT 081254Z 23005KT 10SM FEW080 16/12 A3012 RMK AO2 SLP196 
    T01560117=
METAR KMRF 081255Z AUTO 01006KT 10SM CLR 17/15 A3020 RMK AO1=
METAR KMRY 081254Z 28004KT 10SM OVC006 13/10 A2994 RMK AO2 SLP150 
    T01280100=
METAR KMSV 081255Z AUTO 01003KT 10SM CLR 27/20 A3011 RMK AO1=
METAR KMTW 081255Z 23004KT 8SM BKN008 23/21 A3001 RMK AO1=
METAR KMVL 081254Z AUTO VRB04KT 6SM HZ FEW055 27/22 A3007 RMK AO2 
    SLP178 T02670222=
METAR KMVN 081255Z AUTO 21006KT 9SM OVC065 27/23 A3006 RMK AO1=
METAR KOFP 081254Z AUTO VRB03KT 5SM HZ CLR 29/22 A3002 RMK AO2 
    SLP163 T02940217=
METAR KOKK 081255Z AUTO 22004KT 5SM FEW060 SCT080 OVC090 26/19 A3005 
    RMK AO1 54000=
METAR KOLM 081254Z AUTO 00000KT 10SM CLR 12/10 A2996 RMK AO2 SLP144 
    T01170100=
METAR KOLS 081254Z AUTO VRB03KT 10SM CLR 24/09 A3000 RMK AO2 SLP080 
    T02390094=
####018002996####
SAUS20 KNKA 081255
METAR KAAO 081254Z AUTO 36008KT 9SM OVC004 22/21 A3010 RMK AO2 
    SLP182 T02170206=
METAR KAFJ 081255Z AUTO 00000KT 6SM OVC060 24/20 A3012 RMK AO1 52003=
METAR KAIZ 081255Z AUTO 00000KT 8SM OVC013 23/21 A3009 RMK AO1 P0001=
METAR KAKH 081254Z AUTO 35004KT 9SM CLR 29/18 A3003 RMK AO2 SLP159 
    T02940183=
METAR KALO 081254Z AUTO 34008KT 10SM CLR 21/19 A3009 RMK AO2 SLP184 
    T02110194=
METAR KAPC 081254Z AUTO 27009KT 10SM OVC006 12/11 A2991 RMK AO2 
    SLP120 T01170106=
METAR KARG 081255Z AUTO 23008KT 10SM SCT085 26/23 A3007 RMK AO1=
METAR KAUO 081255Z AUTO 33005KT 10SM CLR 28/22 A3005 RMK AO1=
METAR KAUW 081254Z AUTO 34005KT 9SM OVC004 20/19 A3003 RMK AO2 
    SLP167 T02000189=
METAR KAVL 081254Z 36004KT 7SM CLR 24/18 A3015 RMK AO2 SLP180 
    T02440183=
METAR KAWO 081255Z AUTO 00000KT 5SM CLR 13/13 A2998 RMK AO1=
METAR KBAK 081250Z 17004KT 7SM SCT065 BKN110 25/22 A3007=
METAR KBFL 081254Z AUTO 00000KT 10SM CLR 20/11 A2986 RMK AO2 SLP104 
    T02000111=
METAR KBHB 081255Z AUTO 20009KT 3/4SM OVC002 18/18 A3014 RMK AO1=
METAR KBID 081255Z AUTO 08004KT 1SM OVC002 22/22 A3009 RMK AO1=
METAR KBKX 081255Z AUTO 00000KT 10SM CLR 19/15 A3018 RMK AO1=
METAR KBLM 081255Z AUTO 14005KT 10SM BKN021 BKN090 25/20 A3008 RMK 
    AO1=
METAR KBOS 081254Z 14006KT 10SM SCT230 24/20 A3010 RMK AO2 SLP193 
    T02440200=
METAR KBTP 081255Z AUTO 00000KT 5SM CLR 24/21 A3011 RMK AO1 52003=
METAR KBUY 081254Z AUTO 00000KT 4SM HZ CLR 29/19 A3001 RMK AO2 
    SLP153 T02890194=
METAR KBVX 081255Z AUTO 17004KT 10SM CLR 25/22 A3009 RMK AO1=
METAR KBWI 081254Z 13005KT 5SM HZ FEW110 29/22 A3001 RMK AO2 SLP161 
    T02940217=
METAR KCEU 081254Z AUTO 00000KT 9SM CLR 28/21 A3005 RMK AO2 SLP164 
    T02780211=
METAR KCGZ 081255Z AUTO 00000KT 10SM CLR 27/01 A2982 RMK AO1=
METAR KCIU 081255Z AUTO 32006KT 9SM BKN005 OVC009 20/18 A2999 RMK 
    AO1=
METAR KCOD 081255Z 15004KT 10SM CLR 13/02 A3033 RMK AO1=
METAR KCOE 081255Z AUTO 07007KT 10SM CLR 14/09 A3010 RMK AO1=
METAR KCOS 081254Z 11004KT 10SM CLR 13/12 A3036 RMK AO2 SLP229 
    T01330117=
METAR KCRW 081254Z 00000KT 3SM HZ CLR 24/21 A3010 RMK AO2 SLP182 VIS 
    N 2 T02390206=
METAR KCVN 081255Z AUTO 01011KT 10SM FEW014 17/14 A3025 RMK AO1=
METAR KCVO 081255Z AUTO 27005KT 10SM CLR 12/09 A2994 RMK AO1=
METAR KCWI 081255Z 31006KT 2 1/2SM OVC004 A3007 RMK AO1=
METAR KDDH 081254Z AUTO 00000KT 5SM HZ CLR 26/21 A3007 RMK AO2 
    SLP175 T02610211=
METAR KDEC 081254Z 00000KT 7SM FEW007 SCT070 27/23 A3006 RMK AO2 
    SLP171 T02670233=
METAR KDSM 081254Z 34008KT 10SM FEW009 BKN250 22/19 A3011 RMK AO2 
    SLP190 T02220189=
METAR KDVL 081255Z AUTO 30007KT 10SM FEW085 17/12 A3010 RMK AO1=
METAR KDYL 081254Z AUTO 00000KT 6SM HZ CLR 26/22 A3005 RMK AO2 
    SLP167 T02610222 TSNO=
METAR KDYR 081255Z AUTO 00000KT 10SM CLR 28/22 A3008 RMK AO1=
METAR KEAR 081255Z AUTO 36006KT 10SM CLR 16/14 A3025 RMK AO1=
####018002867####
SAUS20 KNKA 081255
METAR KOLU 081255Z AUTO 00000KT 10SM FEW100 18/15 A3020 RMK AO1=
METAR KORH 081254Z 19005KT 10SM OVC011 24/21 A3013 RMK AO2 SLP195 
    T02390206=
METAR KOTG 081255Z AUTO 30006KT 10SM CLR 18/16 A3017 RMK AO1=
METAR KOTH 081255Z 23003KT 10SM OVC006 09/08 A3000 RMK AO1=
METAR KPHF 081254Z 11005KT 10SM CLR 27/23 A3001 RMK AO2 SLP160 
    T02670228=
METAR KPHL 081254Z 13004KT 4SM HZ SCT008 BKN110 BKN250 27/23 A3004 
    RMK AO2 SLP172 T02670228=
METAR KPIA 081254Z 30004KT 10SM OVC006 23/22 A3005 RMK AO2 CIG 
    004V009 SLP170 T02330217=
METAR KPIB 081255Z AUTO 01005KT 10SM CLR 27/22 A3007 RMK AO1=
METAR KPIL 081253Z AUTO 34005KT 10SM FEW042 28/26 A2976 RMK AO2 
    SLP078 T02780256=
METAR KPLN 081254Z AUTO 26004KT 6SM -RA BR OVC007 22/21 A3000 RMK 
    AO2 RAB05 CIG 005V011 SLP155 P0001 T02170206=
METAR KPQI 081255Z AUTO 14008KT 10SM CLR 24/20 A3000 RMK AO1=
METAR KPSF 081254Z AUTO 00000KT 5SM HZ CLR 25/21 A3009 RMK AO2 
    SLP157 T02500211=
METAR KPTN 081255Z AUTO 08006KT 10SM FEW006 26/M07 A3004 RMK AO1=
METAR KPTV 081255Z AUTO 17004KT 10SM CLR 17/11 A2986 RMK AO1=
METAR KPTW 081254Z AUTO VRB03KT 5SM HZ CLR 29/21 A3005 RMK AO2 
    SLP171 T02940211=
METAR KPVC 081255Z 17009KT 10SM FEW012 25/21 A3012 RMK AO1=
METAR KPVU 081255Z 17005KT 10SM CLR 18/07 A3016 RMK AO1=
METAR KPWT 081255Z AUTO 02008KT 10SM CLR 22/07 A2998 RMK AO1=
METAR KRBL 081254Z AUTO 18003KT 10SM CLR 21/14 A2985 RMK AO2 SLP103 
    T02060139=
METAR KRDG 081254Z 00000KT 7SM CLR 28/21 A3003 RMK AO2 SLP170 
    T02830211=
METAR KRKD 081255Z AUTO 22008KT 2SM OVC002 19/18 A3013 RMK AO1=
METAR KRKS 081254Z AUTO 05007KT 10SM FEW120 09/06 A3036 RMK AO2 
    SLP221 T00890061=
METAR KRST 081254Z 34010KT 10SM CLR 20/18 A3013 RMK AO2 SLP199 
    T02000178=
METAR KRUT 081255Z AUTO 00000KT 7SM CLR 26/21 A3006 RMK AO1=
METAR KSBY 081254Z 09007KT 10SM CLR 26/22 A3003 RMK AO2 SLP171 
    T02610217=
METAR KSDY 081255Z AUTO 18003KT 10SM SCT080 13/10 A3018 RMK AO1=
METAR KSET 081254Z AUTO 00000KT 7SM -RA OVC004 25/24 A3005 RMK AO2 
    TSB1156E11RAB1157E16B49 SLP169 P0000 T02500239=
METAR KSFM 081255Z 15006KT 5SM OVC008 24/19 A3011 RMK AO1=
METAR KSFZ 081255Z AUTO 13007KT 10SM OVC013 24/21 A3010 RMK AO1=
METAR KSGT 081255Z 00000KT 7SM CLR A3008 RMK AO1=
METAR KSGU 081255Z AUTO 03006KT 10SM CLR 22/03 A2999 RMK AO1=
METAR KSJN 081254Z AUTO 14006KT 10SM CLR 21/06 A3019 RMK AO2 SLP120 
    T02110061=
METAR KSKX 081255Z AUTO 36006KT 10SM CLR 12/06 A3040 RMK AO1=
METAR KSLG 081255Z AUTO 13003KT 10SM BKN017 OVC038 23/21 A3009 RMK 
    AO1 LTG DSNT N=
METAR KSMN 081255Z AUTO 00000KT 10SM CLR 07/02 A3028 RMK AO1=
METAR KSOW 081250Z AUTO 21003KT 10SM OVC110 19/04 A3026 RMK AO2=
METAR KSQI 081255Z 28004KT 8SM FEW006 OVC017 23/22 A3006 RMK AO1 
    P0001=
####018002955####
SAUS20 KNKA 081255
METAR KECG 081254Z 09009KT 10SM BKN110 28/22 A2998 RMK AO2 SLP151 
    T02780222=
METAR KEEN 081255Z AUTO 20010KT 10SM FEW016 SCT023 BKN110 26/22 
    A3009 RMK AO1=
METAR KEHR 081255Z AUTO 19003KT 10SM CLR 28/22 A3007 RMK AO1=
METAR KENV 081255Z 20004KT 10SM CLR 17/01 A3011 RMK AO1=
METAR KESC 081255Z AUTO 32005KT 10SM OVC004 20/17 A2999 RMK AO1=
METAR KEUG 081254Z 20006KT 10SM FEW150 SCT300 12/10 A2994 RMK AO2 
    SLP136 T01220100=
METAR KEUL 081255Z AUTO 17003KT 10SM CLR 12/05 A3009 RMK AO1=
METAR KEVV 081254Z 21003KT 10SM CLR 28/22 A3007 RMK AO2 SLP177 
    T02830222=
METAR KEWK 081255Z AUTO 01009KT 10SM OVC005 21/19 A3009 RMK AO1=
METAR KEWN 081254Z 05007KT 4SM BR FEW100 27/24 A2996 RMK AO2 SLP146 
    T02670244=
METAR KFAM 081255Z AUTO 23003KT 10SM OVC080 24/22 A3011 RMK AO1=
METAR KFKL 081255Z 10004KT 10SM CLR 26/19 A3014 RMK AO1 54000=
METAR KFLP 081255Z AUTO 00000KT 10SM BKN065 OVC080 23/22 A3008 RMK 
    AO1=
METAR KFNL 081255Z AUTO 35004KT 5SM SCT004 OVC016 14/14 A3032 RMK 
    AO1=
METAR KFOD 081255Z AUTO 35005KT 10SM CLR 19/17 A3015 RMK AO1=
METAR KFRM 081255Z AUTO 10SM CLR 19/16 A3017 RMK AO1=
METAR KFWS 081251Z 00000KT 5SM BR SCT005 OVC026 25/23 A3005=
METAR KFZY 081254Z AUTO 23003KT 8SM CLR 28/22 A3005 RMK AO2 SLP171 
    T02780217=
METAR KGAD 081255Z AUTO 36003KT 10SM CLR 25/20 A3007 RMK AO1=
METAR KGAI 081255Z 00000KT 5SM CLR 27/23 A3006 RMK AO1 
     =
METAR KGBD 081255Z AUTO 35010G14KT 10SM BKN008 OVC035 19/18 A3018 
    RMK AO1=
METAR KGCK 081254Z 01010KT 10SM SCT017 18/16 A3024 RMK AO2 SLP213 
    T01830161=
METAR KGDV 081255Z AUTO 18003KT 10SM CLR 14/09 A3018 RMK AO1=
METAR KGED 081254Z AUTO 12005KT 10SM FEW065 26/22 A3004 RMK AO2 
    SLP170 T02560217=
METAR KGPZ 081255Z AUTO 27006KT 10SM CLR 18/14 A3007 RMK AO1=
METAR KGUC 081255Z AUTO 01004KT 10SM CLR 07/03 A3046 RMK AO1=
METAR KGXY 081255Z AUTO 06005KT 6SM FEW007 SCT014 OVC045 16/13 A3032 
    RMK AO1=
METAR KHDN 081255Z 10006KT 10SM CLR 09/06 A3035 RMK AO1=
METAR KHEF 081255Z AUTO 00000KT 6SM CLR 28/22 A3003 RMK AO1=
METAR KHEZ 081255Z AUTO 00000KT 9SM CLR 24/23 A3007 RMK AO1=
METAR KHNB 081255Z AUTO 00000KT 10SM CLR 27/23 A3007 RMK AO1=
METAR KHWD 081254Z AUTO 32005KT 10SM OVC007 14/11 A2992 RMK AO2 
    SLP142 T01390111=
METAR KHYS 081255Z AUTO 01010KT 10SM OVC037 18/16 A3021 RMK AO1=
METAR KILN 081254Z AUTO 00000KT 4SM HZ CLR 26/22 A3010 RMK AO2 
    SLP180 T02560217=
METAR KIMT 081254Z AUTO 35003KT 10SM FEW009 22/19 A3001 RMK AO2 
    SLP158 T02170189=
METAR KIND 081254Z 22006KT 8SM FEW060 BKN210 27/21 A3004 RMK AO2 
    SLP165 T02720211=
METAR KINT 081254Z 02006KT 10SM CLR 28/18 A3005 RMK AO2 SLP162 
    T02830183=
METAR KIPT 081254Z 25004KT 7SM CLR 25/18 A3006 RMK AO2 SLP174 
    T02500183=
METAR KISW 081254Z AUTO 28003KT 10SM OVC007 21/19 A3006 RMK AO2 
    SLP173 T02060189 TSNO=
####018000528####
SANO33 ENMI 081250
METAR ENAT 081250Z 17006KT 140V240 9999 FEW045 BKN080 23/09 Q1011 =
METAR ENBL 081250Z NIL=
METAR ENEV 081250Z 10007KT 070V130 9999 FEW059 BKN078 21/09 Q1009 =
METAR ENFL 081250Z 20015KT 9999 FEW015 SCT050 17/12 Q1012=
METAR ENKB 081250Z 27015G25KT 9999 FEW045TCU FEW054 SCT064 18/09
           Q1010=
METAR ENKR 081250Z 19008KT 160V230 9999 FEW020 16/10 Q1017 =
METAR ENML 081250Z 27010KT 9999 VCSH FEW040 BKN060 20/07 Q1010=
METAR ENNA 081250Z 16016KT 9999 FEW045CB SCT070 22/09 Q1012 =
####018000440####
SANO34 ENMI 081250
METAR ENBN 081250Z 35006KT 320V060 9999 FEW040 SCT070 19/11 Q1010=
METAR ENBV 081250Z 09016KT 9999 FEW025 11/08 Q1015=
METAR ENDI 081250Z NIL=
METAR ENFG 081250Z 19015KT 9999 FEW020 BKN035 16/08 Q1013=
METAR ENHF 081250Z 24003KT 200V260 CAVOK 20/09 Q1012 =
METAR ENRA 081250Z VRB03KT 9999 TS SCT050CB SCT070 15/11 Q1010=
METAR ENSH 081250Z 34007KT 9999 VCSH FEW030 BKN050 14/12 Q1010
           RESHRA=
