####018000363####
SAPO31 LPMG 080830
METAR LPFR 080830Z 23004KT 200V260 9000 SCT008 BKN010 23/20 Q1016=
METAR LPMA 080830Z 23004KT 180V280 9999 FEW016 22/17 Q1020 RS17005KT 
0519004KT 2327004KT=
METAR LPPR 080830Z 00000KT 5000 BR SCT250 23/19 Q1014=
METAR LPPS 080830Z 01011KT 9999 FEW016 BKN030 20/15 Q1020=
METAR LPPT 080830Z VRB03KT 9999 FEW120 23/18 Q1015 NOSIG=
####018000081####
SPUS51 KWBC 080835
SPECI
KGFL 080832Z AUTO 00000KT 2SM BR CLR 21/21 A3002=
####018000082####
SPCN48 CWAO 080833
SPECI CYMH 080833Z AUTO 18005KT 9SM OVC003 07/06 A3011=

####018000507####
SAFR36 LFPW 080830
METAR LFGJ 080830Z AUTO 21004KT 160V260 9999NDV NSC 24/14 Q1021=
METAR LFMD 080830Z AUTO 18004KT 140V210 9999NDV NSC 29/22 Q1019=
METAR LFOT 080830Z AUTO VRB02KT 9999NDV NSC 27/12 Q1019=
METAR LFRC 080830Z AUTO 29004KT 260V340 9999NDV SCT012 19/16 Q1020=
METAR LFRG 080830Z AUTO 10003KT 020V160 9999NDV NSC 24/08 Q1020=
METAR LFBA 080830Z NIL=
METAR LFBE 080830Z NIL=
METAR LFJR 080830Z NIL=
METAR LFMH 080830Z NIL=
METAR LFPN 080830Z NIL=
METAR LFRK 080830Z NIL=
####018000392####
SARO31 LROM 080830
METAR LRBS 080830Z 34003KT 300V020 9999 FEW019 BKN042 20/15 Q1016
NOSIG=
METAR LRCK 080830Z 36012KT 330V040 9999 SCT035 23/15 Q1014 NOSIG=
METAR LROP 080830Z 29003KT 230V360 9999 FEW040CB SCT044 20/15 Q1016
880///95 NOSIG=
METAR LRSB 080830Z 35006KT 320V020 9999 BKN028 OVC083 15/11 Q1020=
METAR LRTR 080830Z 35008KT 320V030 9999 FEW023 SCT042 20/14 Q1020=
####018000083####
SALJ32 LJLJ 080830
METAR LJCE 080830Z VRB02KT 9999 FEW040 23/11 Q1023 RMK BLU=
####018000440####
SAFR32 LFPW 080830
METAR LFBD 080830Z 08009KT CAVOK 28/13 Q1017 NOSIG=
METAR LFBH 080830Z AUTO 12006KT 090V160 9999NDV NSC 29/13 Q1018=
METAR LFBO 080830Z 11005KT 070V150 CAVOK 26/13 Q1019 NOSIG=
METAR LFML 080830Z 29004KT CAVOK 28/18 Q1019 NOSIG=
METAR LFBI 080830Z NIL=
METAR LFBL 080830Z NIL=
METAR LFBP 080830Z NIL=
METAR LFBT 080830Z NIL=
METAR LFBZ 080830Z NIL=
METAR LFLB 080830Z NIL=
METAR LFLX 080830Z NIL=
####018000379####
SAFR33 LFPW 080830
METAR LFKB 080830Z 09003KT 030V130 9000 SCT020 29/22 Q1019 NOSIG=
METAR LFKJ 080830Z 24006KT 9999 FEW023 27/22 Q1019 NOSIG=
METAR LFMV 080830Z AUTO VRB02KT 9999NDV NSC 30/17 Q1020=
METAR LFSL 080830Z AUTO 12006KT 090V150 9999NDV NSC 25/15 Q1020=
METAR LFKC 080830Z NIL=
METAR LFKF 080830Z NIL=
METAR LFLC 080830Z NIL=
METAR LFMP 080830Z NIL=
####018000193####
SATS40 DTTA 080830
METAR DTMB 080830Z 34007KT 300V010 CAVOK 27/19 Q1019 NOSIG=
METAR DTNZ 080830Z 30003KT 200V350 CAVOK 29/12 Q1019=
METAR DTTJ 080830Z 06006KT CAVOK 29/22 Q1019 NOSIG=
####018000108####
SAGG31 UGTB 080830
METAR UGTB 080830Z 08002KT 9999 SCT050 BKN100 32/20 Q1014 NOSIG RMK
      31CLRD80=
####018000183####
SALJ31 LJLJ 080830
METAR LJLJ 080830Z VRB02KT 9999 FEW060 21/11 Q1024 NOSIG=
METAR LJMB 080830Z 04001KT 9999 FEW040 22/10 Q1023=
METAR LJPZ 080830Z VRB02KT CAVOK 24/09 Q1022=
####018000486####
SAFR35 LFPW 080830
METAR LFMI 080830Z AUTO VRB03KT 9999NDV NSC 30/13 Q1020=
METAR LFRD 080830Z AUTO 35005KT 280V020 9999NDV BKN011 19/15 Q1020=
METAR LFRN 080830Z AUTO 34005KT 290V010 9999NDV NSC 21/15 Q1018=
METAR LFRO 080830Z AUTO 00000KT 9999NDV OVC013 19/15 Q1019=
METAR LFRZ 080830Z AUTO 36004KT 320V050 9999NDV NSC 23/14 Q1018=
METAR LFSB 080830Z 08005KT 030V140 CAVOK 26/10 Q1021 NOSIG=
METAR LFMK 080830Z NIL=
METAR LFST 080830Z NIL=
METAR LFTH 080830Z NIL=
####018000105####
SAKO31 RKSI 080830
METAR RKSI 080830Z 31002KT 9000 FEW040 OVC120 24/19 Q1008 TEMPO
           -RA=
####018000815####
SAEW32 LEMM 080830
METAR LEAS 080830Z 04003KT 350V080 9999 4000S SCT002 SCT008
BKN013 19/18 Q1017 TEMPO 4000 TSRA SCT025CB=
METAR LEBB 080830Z VRB02KT 8000 NSC 26/20 Q1016 NOSIG=
METAR LECO 080830Z 18009KT 140V210 7000 FEW005 SCT008 20/19 Q1016
RERA=
METAR LEGE 080830Z 04003KT 350V120 CAVOK 29/20 Q1019=
METAR LEST 080830Z 09008KT 060V130 8000 FEW018 17/17 Q1016 NOSIG=
METAR LEZG 080830Z 08009KT 060V120 CAVOK 28/18 Q1019=
METAR LESO 080830Z 02004KT 340V060 CAVOK 24/19 Q1016=
METAR LEVT 080830Z VRB01KT 9999 FEW035 26/17 Q1019=
METAR LERS 080830Z VRB03KT CAVOK 27/19 Q1019=
METAR LEMH 080830Z 22005KT 160V260 CAVOK 27/21 Q1020=
METAR LEAM 080830Z 09012KT 060V120 CAVOK 34/10 Q1017=
METAR LEGR 080830Z VRB01KT 9999 SCT060 29/12 Q1018=
METAR LERL 080830Z 35001KT CAVOK 30/11 Q1019=
####018000415####
SAFR31 LFPW 080830
METAR LFLL 080830Z 13004KT 100V160 CAVOK 26/14 Q1021 NOSIG=
METAR LFMN 080830Z 11004KT 9999 FEW060 28/21 Q1020 NOSIG=
METAR LFPG 080830Z 18005KT 160V220 CAVOK 26/11 Q1019 NOSIG=
METAR LFPO 080830Z 22004KT 180V270 CAVOK 26/12 Q1019 NOSIG=
METAR LFQQ 080830Z VRB02KT CAVOK 25/13 Q1019 NOSIG=
METAR LFRB 080830Z 10004KT 050V160 9999 OVC009 17/15 Q1019 NOSIG=
METAR LFRS 080830Z NIL=
####018000072####
SALY31 HLLS 080830
METAR HLLS 080820Z 
09015KT CAVOK 33/10 Q1017 =
####018000350####
SAEW33 LEMM 080830
METAR GCLP 080830Z 01022KT 9999 BKN017 23/18 Q1017 NOSIG=
METAR GCXO 080830Z 29014KT 0100 R30/0200N R12/0125N FG OVC000
17/17 Q1020 NOSIG=
METAR GCTS 080830Z 06013KT 040V100 9999 OVC014 22/18 Q1017 NOSIG=
METAR GCRR 080830Z 01015KT 9999 SCT015 23/18 Q1017=
METAR GCFV 080830Z 04009KT 010V070 9999 BKN015 22/18 Q1017=
####018000098####
SAUZ31 UTTW 080830
METAR UTST 080830Z 19002MPS 120V250 CAVOK 41/04 Q1007 R88/CLRD70 
NOSIG=
####018000169####
SACY31 LCLK 080830
METAR LCLK 080830Z 20014KT 9999 FEW025 30/22 Q1008 NOSIG=
METAR LCPH 080830Z 21005KT 140V260 9999 FEW030 28/22 Q1009=
METAR LCNC 080830Z NIL=
####018000437####
SARO32 LROM 080830
METAR LRAR 080830Z 36008KT 330V050 9999 SCT024 19/15 Q1020=
METAR LRBM 080830Z VRB02KT 9999 FEW007 BKN011 16/16 Q1019 1019//95=
METAR LRCL 080830Z 27004KT 240V310 9999 SCT011 BKN015 OVC020 15/12
Q1020 0821//95=
METAR LROD 080830Z 03010KT 360V060 CAVOK 20/14 Q1020=
METAR LRSM 080830Z 02010KT 9999 SCT015 19/14 Q1020=
METAR LRTM 080830Z 24006KT 220V280 9999 SCT007 BKN016 BKN023 16/14
Q1020 0719//95=
####018000191####
SATS40 DTTA 080830
METAR DTMB 080830Z 34007KT 300V010 CAVOK 27/19 Q1019 NOSIG=
METAR DTNZ 080830Z 30003KT 200V350 CAVOK 29/12 Q1019=
METAR DTTJ 080830Z 06006KT CAVOK 29/22 Q1019 NOSIG=
####018000612####
SAFR34 LFPW 080830
METAR LFCR 080830Z AUTO 12005KT 090V180 9999NDV NSC 27/12 Q1022=
METAR LFJL 080830Z AUTO VRB02KT 9999NDV NSC 25/10 Q1020=
METAR LFLP 080830Z AUTO 00000KT 9999NDV FEW054 25/12 Q1022=
METAR LFMU 080830Z AUTO 08007KT 040V110 9999NDV NSC 29/14 Q1020=
METAR LFOH 080830Z AUTO 34008KT 9999NDV NSC 21/12 Q1019=
METAR LFOK 080830Z AUTO 19006KT 9999NDV NSC 26/14 Q1020=
METAR LFPB 080830Z 18004KT 130V220 CAVOK 27/11 Q1019 NOSIG=
METAR LFLS 080830Z NIL=
METAR LFLY 080830Z NIL=
METAR LFMT 080830Z NIL=
METAR LFOB 080830Z NIL=
METAR LFOP 080830Z NIL=
METAR LFSN 080830Z NIL=
####018000085####
SPUS73 KWBC 080835
SPECI
KHIB 080832Z AUTO 00000KT 3/4SM BR VV001 09/09 A3005=
####018000450####
SAFR37 LFPW 080830
METAR LFAQ 080830Z AUTO 21005KT 9999NDV NSC 24/12 Q1020=
METAR LFBU 080830Z AUTO 13004KT 070V220 9999NDV NSC 27/15 Q1018=
METAR LFLN 080830Z AUTO VRB02KT 9999NDV NSC 25/15 Q1020=
METAR LFPM 080830Z 00000KT CAVOK 26/13 Q1019=
METAR LFSD 080830Z AUTO VRB02KT 9999NDV NSC 25/13 Q1020=
METAR LFTW 080830Z AUTO VRB03KT 9999NDV NSC 27/14 Q1020=
METAR LFRH 080830Z NIL=
METAR LFRQ 080830Z NIL=
METAR LFRT 080830Z NIL=
####018000084####
SPUS81 KWBC 080835
SPECI
KBDR 080832Z AUTO 09007KT 1SM BR OVC002 24/23 A3003=
####018000857####
SAXN17 KAWN 080800 RRG
METAR NWWW 080830Z AUTO VRB01KT 9999NDV NCD 19/16 Q1016=
METAR RCKH 080830Z 24011KT 9999 FEW013 SCT020 BKN200 32/26 Q1008 NOSIG
      RMK 26011KT/RWY09=
METAR RCTP 080830Z 25018KT 9999 FEW025 BKN150 31/25 Q1007 NOSIG=
METAR RJAA 080830Z 21007KT 170V240 9999 FEW025 BKN/// 28/22 Q1009 NOSIG
      RMK 1CU025 A2982=
METAR RJCC 080830Z 16006KT 140V210 1700 -DZ BR BKN002 18/17 Q1009 RMK
      7ST002 A2981=
METAR RJFF 080830Z 30008KT 8000 NSC 27/20 Q1007 RMK 1AC130 A2976=
METAR RJTT 080830Z 18018KT 9999 FEW030 BKN/// 27/22 Q1009 RMK 1CU030
      A2979=
METAR ROAH 080830Z 20013KT 9999 FEW010 SCT100 BKN/// 29/26 Q1009 RMK
      1CU010 4AC100 A2979=
METAR TFFF 080830Z AUTO 07013KT 040V100 9999NDV FEW012/// SCT034///
      28/24 Q1013=
METAR VHHH 080830Z 21013KT 9999 FEW020 SCT030 33/25 Q1006 NOSIG=
####018000326####
SPNA35 KAWN 080835 RRC
SPECI KBOS 080828Z 16005KT 10SM OVC015 23/20 A3006 RMK AO2=
SPECI KWRI 080831Z AUTO 00000KT 1/4SM R18/0500V1800FT R24/0600V2200FT
      FG VV002 24/24 A2999 RMK AO2 SLP155 $=
SPECI KWRI 080832Z AUTO 00000KT M1/4SM R18/0500V1000FT R24/0600V2000FT
      FG VV001 24/24 A2999 RMK AO2 SLP155 $=
####018000757####
SAUS90 KWBC 080836
METAR K2G4 080835Z AUTO 00000KT 10SM SCT070 23/13 A3019 RMK
     AO1=
METAR KCBE 080835Z AUTO 00000KT 7SM CLR 21/18 A3010 RMK AO1=
METAR KCGS 080840Z AUTO 00000KT 7SM CLR 26/23 A2999 RMK AO1=
METAR K2W6 080834Z AUTO 00000KT 5SM CLR 24/23 A2999 RMK AO1=
METAR KCGE 080832Z AUTO 11003KT 3SM 25/24 A2999 RMK AO1 SKY
     OBSCURED=
METAR KFDK 080828Z AUTO 00000KT 5SM HZ SCT100 24/22 A3002 RMK
     AO2=
METAR KW29 080835Z AUTO 00000KT 5SM CLR 23/22 A2999 RMK AO1=
METAR KMTN 080836Z AUTO 00000KT 7SM CLR 26/23 A3000 RMK AO2=
METAR KDMW 080834Z AUTO 00000KT 7SM CLR 26/21 A3004 RMK AO2=
METAR KFME 080836Z AUTO 00000KT 4SM CLR 20/20 A3001 RMK AO1=
METAR KESN 080839Z AUTO 00000KT 3SM BR CLR 23/23 A3002 RMK AO2=
####018000088####
SAMD90 KWBC 080835
METAR K2G4 080835Z AUTO 00000KT 10SM SCT070 23/13 A3019 RMK AO1=
####018000084####
SAMD90 KWBC 080835
METAR KCBE 080835Z AUTO 00000KT 7SM CLR 21/18 A3010 RMK AO1=
####018000084####
SAMD90 KWBC 080835
METAR KCGS 080840Z AUTO 00000KT 7SM CLR 26/23 A2999 RMK AO1=
####018000084####
SAMD90 KWBC 080835
METAR K2W6 080834Z AUTO 00000KT 5SM CLR 24/23 A2999 RMK AO1=
####018000093####
SAMD90 KWBC 080835
METAR KCGE 080832Z AUTO 11003KT 3SM 25/24 A2999 RMK AO1 SKY OBSCURED=
####018002522####
SAUS20 KNKA 080835
METAR KOXC 080835Z 00000KT 3SM BKN070 OVC110 22/21 A3007 RMK AO1=
METAR KPIB 080835Z AUTO 00000KT 9SM CLR 23/21 A3003 RMK AO1=
METAR KPNA 080830Z AUTO 30003KT 10SM CLR 06/01 A3038 RMK AO2 
     T00620014=
METAR KPQI 080835Z AUTO 00000KT 10SM CLR 21/18 A2998 RMK AO1=
METAR KPTN 080835Z AUTO 08004KT 10SM CLR 24/M09 A3001 RMK AO1=
METAR KPTT 080830Z AUTO 01004KT 7SM SCT012 SCT100 SCT120 19/18 
     A3015 RMK AO2=
METAR KPTV 080835Z AUTO 00000KT 10SM CLR 22/13 A2984 RMK AO1=
METAR KPVC 080835Z 19005KT 1 1/4SM OVC002 21/19 A3008 RMK AO1=
METAR KPVU 080835Z 12003KT 10SM CLR 19/07 A3012 RMK AO1=
METAR KPWT 080835Z AUTO 04007KT 10SM CLR 24/06 A2997 RMK AO1=
METAR KRKD 080835Z AUTO 21003KT 1/4SM OVC002 18/17 A3009 RMK AO1=
METAR KRUT 080835Z AUTO 13006KT 6SM CLR 22/19 A3005 RMK AO1=
METAR KSDY 080835Z AUTO 23004KT 10SM FEW080 13/09 A3015 RMK AO1=
METAR KSFM 080835Z 00000KT 3/4SM OVC002 21/18 A3007 RMK AO1=
METAR KSFZ 080835Z AUTO 00000KT 10SM OVC010 22/21 A3005 RMK AO1=
METAR KSGT 080835Z 00000KT 10SM CLR 23/22 A3005 RMK AO1=
METAR KSGU 080835Z AUTO 08003KT 10SM CLR 28/01 A2994 RMK AO1=
METAR KSKX 080835Z AUTO 01003KT 10SM CLR 12/04 A3037 RMK AO1=
METAR KSLG 080835Z AUTO 17007KT 10SM FEW080 23/21 A3006 RMK AO1=
METAR KSMN 080835Z AUTO 00000KT 10SM CLR 10/02 A3022 RMK AO1=
METAR KSOW 080830Z AUTO 00000KT 10SM OVC100 21/03 A3024 RMK AO2=
METAR KSPA 080835Z AUTO 00000KT 10SM CLR 23/23 A3000 RMK AO2=
METAR KSPL 080835Z AUTO 05007KT FEW021 FEW080 SCT095 29/25 A2977 
     RMK AO2 PWINO PNO =
METAR KSQI 080835Z 00000KT 5SM OVC050 22/21 A3002 RMK AO1=
METAR KSUE 080835Z AUTO 00000KT 5SM BKN120 21/20 A2996 RMK AO1 P0002=
METAR KSUN 080831Z AUTO 31008KT 10SM CLR 12/02 A3023 RMK AO2=
METAR KSZT 080830Z AUTO 00000KT 10SM CLR 11/09 A3010 RMK AO2=
METAR KTIF 080830Z AUTO 00000KT 10SM OVC090 16/15 A3026 RMK AO2 
     T01580145=
METAR KTRK 080830Z AUTO 18003KT 10SM CLR 12/08 A3016 RMK AO2=
METAR KTVF 080835Z AUTO 25005KT 10SM CLR 14/11 A3003 RMK AO1=
METAR KUTA 080835Z AUTO 00000KT 10SM CLR 23/22 A3006 RMK AO2=
METAR KVBT 080835Z AUTO 00000KT 10SM FEW085 23/21 A3002 RMK AO1=
METAR KVIS 080835Z AUTO 33006KT 10SM CLR 23/12 A2980 RMK AO1=
METAR KWVL 080835Z AUTO 20004KT 7SM OVC005 21/19 A3003 RMK AO1=
METAR KWWD 080835Z AUTO 10SM OVC120 23/23 A3001 RMK AO1=
SPECI KY50 080832Z AUTO 26006KT 4SM BR OVC004 22/22 A2999 RMK AO2 
    CIG 002V007 $=
METAR KYKN 080835Z AUTO 30005KT 10SM CLR 17/14 A3017 RMK AO1=
####018002964####
SAUS20 KNKA 080835
METAR KPMV 080830Z AUTO 33005KT 10SM CLR 20/19 A3011 RMK AO2 
     T02000190=
METAR KAEG 080835Z AUTO 14010KT 10SM CLR 17/08 A3028 RMK AO1  =
METAR KAFJ 080835Z AUTO 00000KT 1/4SM BKN003 18/17 A3010 RMK AO1=
METAR KAIZ 080835Z AUTO 00000KT 10SM BKN040 22/21 A3006 RMK AO1=
METAR KARG 080835Z AUTO 17004KT 10SM CLR 24/22 A3004 RMK AO1=
METAR KAUO 080835Z AUTO 19003KT 10SM CLR 26/21 A3003 RMK AO1=
METAR KAWO 080835Z AUTO 00000KT 10SM CLR 15/13 A2997 RMK AO1=
METAR KBHB 080835Z AUTO 19007KT 4SM OVC002 18/18 A3010 RMK AO1=
METAR KBID 080835Z AUTO 13007KT 1/2SM OVC002 21/21 A3005 RMK AO1=
METAR KBKX 080835Z AUTO 00000KT 10SM CLR 14/13 A3017 RMK AO1=
METAR KBLM 080835Z AUTO 00000KT 4SM SCT075 OVC110 24/21 A3004 RMK 
    AO1=
METAR KBOW 080835Z AUTO 00000KT 10SM CLR 21/21 A2999 RMK AO2 =
METAR KBTP 080835Z AUTO 04003KT 1 3/4SM CLR 18/18 A3009 RMK AO1=
METAR KBVX 080835Z AUTO 14004KT 10SM CLR 24/22 A3006 RMK AO1=
METAR KCGC 080835Z AUTO 00000KT 10SM CLR 21/21 A2999 RMK=
METAR KCGZ 080835Z AUTO 29005KT 10SM CLR 32/01 A2978 RMK AO1=
METAR KCHK 080833Z AUTO 02004KT 10SM SCT100 23/23 A3004 RMK AO2=
METAR KCIU 080835Z AUTO 22004KT 5SM OVC110 19/17 A2995 RMK AO1=
METAR KCOD 080835Z 11005KT 10SM CLR 12/02 A3033 RMK AO1=
METAR KCOE 080835Z AUTO 05009KT 10SM CLR 16/09 A3009 RMK AO1=
METAR KCVN 080835Z AUTO 02008KT 10SM FEW065 17/14 A3022 RMK AO1=
METAR KCVO 080835Z AUTO 27016KT 10SM CLR 15/09 A2989 RMK AO1=
METAR KCWI 080835Z 00000KT 4SM BKN003 A3003 RMK AO1=
METAR KDVL 080835Z AUTO 26006KT 10SM CLR 15/12 A3006 RMK AO1=
METAR KDYB 080835Z AUTO 00000KT 10SM CLR 22/20 A2996 RMK AO1=
METAR KDYR 080835Z AUTO 23004KT 10SM CLR 24/20 A3006 RMK AO1=
METAR KEAR 080835Z AUTO 33006KT 10SM CLR 15/13 A3022 RMK AO1=
METAR KEEN 080835Z AUTO 00000KT 3SM CLR 22/21 A3005 RMK AO1=
METAR KEGE 080835Z 07004KT 10SM CLR 11/09 A3040 RMK AO1=
METAR KEHR 080835Z AUTO 00000KT 9SM BKN090 23/19 A3005 RMK AO1=
METAR KENV 080835Z 02010KT 10SM CLR 23/M02 A3009 RMK AO1=
METAR KESC 080835Z AUTO 00000KT 5SM FEW047 FEW095 SCT120 19/17 A2995 
    RMK AO1=
METAR KEUL 080835Z AUTO 00000KT 10SM CLR 16/08 A3004 RMK AO1=
METAR KEWK 080835Z AUTO 34003KT 10SM CLR 21/19 A3006 RMK AO1=
METAR KFAM 080835Z AUTO 00000KT 10SM FEW090 23/22 A3008 RMK AO1=
METAR KFKL 080835Z 00000KT 5SM CLR 19/18 A3013 RMK AO1=
METAR KFLP 080835Z AUTO 00000KT 10SM CLR 23/22 A3004 RMK AO1=
METAR KFNL 080835Z AUTO 06005KT 5SM FEW036 14/13 A3031 RMK AO1=
METAR KFOD 080835Z AUTO 33004KT 10SM CLR 18/18 A3011 RMK AO1=
METAR KFRM 080835Z AUTO 10SM CLR 17/15 A3013 RMK AO1=
METAR KFTN 080835Z AUTO 07005KT 10SM OVC019 25/23 A2991 RMK AO1 =
SPECI KFZY 080834Z AUTO 00000KT 2SM BR CLR 21/19 A3004 RMK AO2=
METAR KGAD 080835Z AUTO 00000KT 10SM CLR 22/20 A3004 RMK AO1=
METAR KGAI 080835Z 00000KT 8SM SCT090 24/22 A3003 RMK AO1 
     =
METAR KGBD 080835Z AUTO 01006KT 9SM OVC011 19/18 A3015 RMK AO1=
####018002972####
SAUS20 KNKA 080835
METAR KGDV 080835Z AUTO 23006KT 10SM CLR 12/07 A3016 RMK AO1=
METAR KGPZ 080835Z AUTO 19004KT 10SM CLR 14/12 A3006 RMK AO1=
METAR KGTR 080835Z 31004KT 10SM CLR 24/22 A3004 RMK AO1=
METAR KGUC 080835Z AUTO 35004KT 10SM CLR 09/03 A3043 RMK AO1=
METAR KGXY 080835Z AUTO 00000KT 10SM FEW009 SCT060 BKN085 15/12 
    A3031 RMK AO1=
SPECI KHAO 080834Z AUTO 00000KT 2SM BR CLR 21/19 A3007 RMK AO2=
METAR KHDN 080835Z 11011KT 10SM CLR 11/06 A3032 RMK AO1=
METAR KHEF 080835Z AUTO 00000KT 5SM CLR 22/19 A2999 RMK AO1=
METAR KHEZ 080835Z AUTO 00000KT 5SM CLR 23/22 A3002 RMK AO1=
METAR KHNB 080835Z AUTO 00000KT 10SM CLR 23/21 A3005 RMK AO1=
METAR KHYS 080835Z AUTO 34006KT 10SM OVC014 19/17 A3018 RMK AO1=
METAR KIWD 080835Z AUTO 15003KT 10SM FEW055 FEW120 17/16 A2999 RMK 
    AO1=
METAR KJAC 080835Z AUTO 35007KT 10SM CLR 09/00 A3033 RMK AO1=
METAR KJHW 080835Z AUTO 00000KT 5SM CLR 20/19 A3011 RMK AO1=
METAR KKLS 080835Z AUTO 00000KT 10SM CLR 17/13 A2990 RMK AO1=
METAR KLBL 080835Z 05008KT 10SM BKN035 BKN050 20/17 A3021 RMK AO1=
METAR KLCI 080835Z AUTO 00000KT 10SM FEW075 OVC095 23/20 A3005 RMK 
    AO1=
METAR KLEW 080835Z 16004KT 5SM OVC004 21/19 A3009 RMK AO1=
METAR KLGD 080835Z AUTO 00000KT 10SM CLR 13/06 A3005 RMK AO1=
METAR KLKV 080835Z AUTO 31005KT 10SM CLR 09/01 A3013 RMK AO1=
METAR KLPC 080835Z AUTO 36003KT 10SM OVC012 14/11 A2992 RMK AO1 PNO=
SPECI KLRD 080833Z AUTO 00000KT 10SM BKN012 26/25 A2989 RMK AO2 $=
METAR KLUX 080835Z AUTO 27003KT 10SM CLR 22/22 A3001 RMK AO2=
METAR KLXN 080830Z AUTO 31003KT 10SM BKN047 16/15 A3022 RMK AO2 
     T01580151=
METAR KMBL 080835Z AUTO 00000KT 10SM OVC090 22/19 A3000 RMK AO1=
METAR KMER 080835Z AUTO 31006KT 10SM CLR 18/11 A2983 RMK AO1 =
METAR KMJX 080835Z AUTO 00000KT 3SM FEW003 SCT080 BKN120 23/21 A3001 
    RMK AO1=
METAR KMKT 080835Z 31006KT 10SM CLR 18/16 A3009 RMK AO1=
METAR KMLE 080830Z AUTO 34004KT 10SM SCT022 20/17 A3011 RMK AO2 
     T02000167=
METAR KMMH 080830Z AUTO 27006KT 10SM CLR 12/02 A3021 RMK AO1=
METAR KMML 080835Z AUTO 27005KT 10SM CLR 14/12 A3013 RMK AO1=
METAR KMNI 080835Z AUTO 00000KT 10SM CLR 23/23 A2996 RMK AO2=
METAR KMNM 080835Z AUTO 00000KT 8SM BKN011 OVC120 21/19 A2996 RMK 
    AO1=
METAR KMRF 080835Z AUTO 01007KT 10SM FEW120 16/13 A3016 RMK AO1=
METAR KMSV 080835Z AUTO 01003KT 5SM CLR 20/18 A3009 RMK AO1=
METAR KMTW 080835Z 00000KT 10SM SCT090 OVC110 21/20 A2997 RMK AO1=
METAR KMVN 080835Z AUTO 00000KT 2 1/2SM CLR 22/21 A3005 RMK AO1=
METAR KOGA 080830Z AUTO 00000KT 7SM SCT070 16/15 A3027 RMK AO2 
     T01560145=
METAR KOKK 080835Z AUTO 00000KT 7SM CLR 22/16 A3005 RMK AO1=
METAR KOLU 080835Z AUTO 30003KT 10SM CLR 17/14 A3017 RMK AO1=
METAR KONL 080830Z AUTO 28003KT 10SM SCT090 OVC120 16/14 A3020 
     RMK AO2 T01570144=
METAR KOTG 080835Z AUTO 27006KT 10SM CLR 14/13 A3015 RMK AO1=
METAR KOTH 080835Z 19003KT 10SM OVC008 11/08 A3000 RMK AO1=
####018000082####
SPCN48 CWAO 080834
SPECI CYPH 080834Z AUTO 24017KT 4SM OVC002 05/05 A2978=

####018001788####
SAEU KAWN 080800 RRX
METAR LELO 080830Z 09009KT CAVOK 27/17 Q1018=
METAR LFGJ 080830Z AUTO 21004KT 160V260 9999NDV NSC 24/14 Q1021=
METAR LFLN 080830Z AUTO VRB02KT 9999NDV NSC 25/15 Q1020=
METAR LFMD 080830Z AUTO 18004KT 140V210 9999NDV NSC 29/22 Q1019=
METAR LFMN 080830Z 11004KT 9999 FEW060 28/21 Q1020 NOSIG=
METAR LFOT 080830Z AUTO VRB02KT 9999NDV NSC 27/12 Q1019=
METAR LFPG 080830Z 18005KT 160V220 CAVOK 26/11 Q1019 NOSIG=
METAR LFPM 080830Z 00000KT CAVOK 26/13 Q1019=
METAR LFPO 080830Z 22004KT 180V270 CAVOK 26/12 Q1019 NOSIG=
METAR LFQQ 080830Z VRB02KT CAVOK 25/13 Q1019 NOSIG=
METAR LFRB 080830Z 10004KT 050V160 9999 OVC009 17/15 Q1019 NOSIG=
METAR LFRC 080830Z AUTO 29004KT 260V340 9999NDV SCT012 19/16 Q1020=
METAR LFRD 080830Z AUTO 35005KT 280V020 9999NDV BKN011 19/15 Q1020=
METAR LFRN 080830Z AUTO 34005KT 290V010 9999NDV NSC 21/15 Q1018=
METAR LFRO 080830Z AUTO 00000KT 9999NDV OVC013 19/15 Q1019=
METAR LFRZ 080830Z AUTO 36004KT 320V050 9999NDV NSC 23/14 Q1018=
METAR LFSB 080830Z 08005KT 030V140 CAVOK 26/10 Q1021 NOSIG=
METAR LFTW 080830Z AUTO VRB03KT 9999NDV NSC 27/14 Q1020=
METAR LJLJ 080830Z VRB02KT 9999 FEW060 21/11 Q1024 NOSIG=
METAR LJMB 080830Z 04001KT 9999 FEW040 22/10 Q1023=
METAR LJPZ 080830Z VRB02KT CAVOK 24/09 Q1022=
METAR LKKV 080830Z VRB01KT CAVOK 20/11 Q1024 RMK REG QNH 1021=
METAR LKMT 080830Z 07003KT 010V170 9999 FEW040 19/10 Q1023 NOSIG RMK
      REG QNH 1021=
METAR LKPR 080830Z 18004KT 120V210 CAVOK 21/08 Q1024 NOSIG RMK REG
      QNH 1021=
METAR LPFR 080830Z 23004KT 200V260 9000 SCT008 BKN010 23/20 Q1016=
METAR LPPR 080830Z 00000KT 5000 BR SCT250 23/19 Q1014=
METAR LPPS 080830Z 01011KT 9999 FEW016 BKN030 20/15 Q1020=
METAR LPPT 080830Z VRB03KT 9999 FEW120 23/18 Q1015 NOSIG=
####018000084####
SAMD90 KWBC 080835
METAR KW29 080835Z AUTO 00000KT 5SM CLR 23/22 A2999 RMK AO1=
####018000090####
SAMD90 KWBC 080835
METAR KFDK 080828Z AUTO 00000KT 5SM HZ SCT100 24/22 A3002 RMK AO2=
####018000087####
SAMD90 KWBC 080835
METAR KESN 080839Z AUTO 00000KT 3SM BR CLR 23/23 A3002 RMK AO2=
####018000084####
SAMD90 KWBC 080835
METAR KDMW 080834Z AUTO 00000KT 7SM CLR 26/21 A3004 RMK AO2=
####018000084####
SAMD90 KWBC 080835
METAR KMTN 080836Z AUTO 00000KT 7SM CLR 26/23 A3000 RMK AO2=
####018000084####
SAMD90 KWBC 080835
METAR KFME 080836Z AUTO 00000KT 4SM CLR 20/20 A3001 RMK AO1=
####018003722####
SAUS99 KWBC 080836
METAR
KPMV 080830Z AUTO 33005KT 10SM CLR 20/19 A3011 RMK AO2
     T02000190=
KAEG 080835Z AUTO 14010KT 10SM CLR 17/08 A3028 RMK AO1=
KAFJ 080835Z AUTO 00000KT 1/4SM BKN003 18/17 A3010 RMK AO1=
KAIZ 080835Z AUTO 00000KT 10SM BKN040 22/21 A3006 RMK AO1=
KARG 080835Z AUTO 17004KT 10SM CLR 24/22 A3004 RMK AO1=
KAUO 080835Z AUTO 19003KT 10SM CLR 26/21 A3003 RMK AO1=
KAWO 080835Z AUTO 00000KT 10SM CLR 15/13 A2997 RMK AO1=
KBHB 080835Z AUTO 19007KT 4SM OVC002 18/18 A3010 RMK AO1=
KBID 080835Z AUTO 13007KT 1/2SM OVC002 21/21 A3005 RMK AO1=
KBKX 080835Z AUTO 00000KT 10SM CLR 14/13 A3017 RMK AO1=
KBLM 080835Z AUTO 00000KT 4SM SCT075 OVC110 24/21 A3004 RMK
     AO1=
KBOW 080835Z AUTO 00000KT 10SM CLR 21/21 A2999 RMK AO2=
KBTP 080835Z AUTO 04003KT 1 3/4SM CLR 18/18 A3009 RMK AO1=
KBVX 080835Z AUTO 14004KT 10SM CLR 24/22 A3006 RMK AO1=
KCGC 080835Z AUTO 00000KT 10SM CLR 21/21 A2999 RMK=
KCGZ 080835Z AUTO 29005KT 10SM CLR 32/01 A2978 RMK AO1=
KCHK 080833Z AUTO 02004KT 10SM SCT100 23/23 A3004 RMK AO2=
KCIU 080835Z AUTO 22004KT 5SM OVC110 19/17 A2995 RMK AO1=
KCOD 080835Z 11005KT 10SM CLR 12/02 A3033 RMK AO1=
KCOE 080835Z AUTO 05009KT 10SM CLR 16/09 A3009 RMK AO1=
KCVN 080835Z AUTO 02008KT 10SM FEW065 17/14 A3022 RMK AO1=
KCVO 080835Z AUTO 27016KT 10SM CLR 15/09 A2989 RMK AO1=
KCWI 080835Z 00000KT 4SM BKN003 A3003 RMK AO1=
KDVL 080835Z AUTO 26006KT 10SM CLR 15/12 A3006 RMK AO1=
KDYB 080835Z AUTO 00000KT 10SM CLR 22/20 A2996 RMK AO1=
KDYR 080835Z AUTO 23004KT 10SM CLR 24/20 A3006 RMK AO1=
KEAR 080835Z AUTO 33006KT 10SM CLR 15/13 A3022 RMK AO1=
KEEN 080835Z AUTO 00000KT 3SM CLR 22/21 A3005 RMK AO1=
KEGE 080835Z 07004KT 10SM CLR 11/09 A3040 RMK AO1=
KEHR 080835Z AUTO 00000KT 9SM BKN090 23/19 A3005 RMK AO1=
KENV 080835Z 02010KT 10SM CLR 23/M02 A3009 RMK AO1=
KESC 080835Z AUTO 00000KT 5SM FEW047 FEW095 SCT120 19/17 A2995 RMK
     AO1=
KEUL 080835Z AUTO 00000KT 10SM CLR 16/08 A3004 RMK AO1=
KEWK 080835Z AUTO 34003KT 10SM CLR 21/19 A3006 RMK AO1=
KFAM 080835Z AUTO 00000KT 10SM FEW090 23/22 A3008 RMK AO1=
KFKL 080835Z 00000KT 5SM CLR 19/18 A3013 RMK AO1=
KFLP 080835Z AUTO 00000KT 10SM CLR 23/22 A3004 RMK AO1=
KFNL 080835Z AUTO 06005KT 5SM FEW036 14/13 A3031 RMK AO1=
KFOD 080835Z AUTO 33004KT 10SM CLR 18/18 A3011 RMK AO1=
KFRM 080835Z AUTO 10SM CLR 17/15 A3013 RMK AO1=
KFTN 080835Z AUTO 07005KT 10SM OVC019 25/23 A2991 RMK AO1=
KGAD 080835Z AUTO 00000KT 10SM CLR 22/20 A3004 RMK AO1=
KGAI 080835Z 00000KT 8SM SCT090 24/22 A3003 RMK AO1=
KGBD 080835Z AUTO 01006KT 9SM OVC011 19/18 A3015 RMK AO1=
KGDV 080835Z AUTO 23006KT 10SM CLR 12/07 A3016 RMK AO1=
KGPZ 080835Z AUTO 19004KT 10SM CLR 14/12 A3006 RMK AO1=
KGTR 080835Z 31004KT 10SM CLR 24/22 A3004 RMK AO1=
KGUC 080835Z AUTO 35004KT 10SM CLR 09/03 A3043 RMK AO1=
KGXY 080835Z AUTO 00000KT 10SM FEW009 SCT060 BKN085 15/12 A3031
     RMK AO1=
KHDN 080835Z 11011KT 10SM CLR 11/06 A3032 RMK AO1=
KHEF 080835Z AUTO 00000KT 5SM CLR 22/19 A2999 RMK AO1=
KHEZ 080835Z AUTO 00000KT 5SM CLR 23/22 A3002 RMK AO1=
KHNB 080835Z AUTO 00000KT 10SM CLR 23/21 A3005 RMK AO1=
KHYS 080835Z AUTO 34006KT 10SM OVC014 19/17 A3018 RMK AO1=
KIWD 080835Z AUTO 15003KT 10SM FEW055 FEW120 17/16 A2999 RMK
     AO1=
KJAC 080835Z AUTO 35007KT 10SM CLR 09/00 A3033 RMK AO1=
KJHW 080835Z AUTO 00000KT 5SM CLR 20/19 A3011 RMK AO1=
KKLS 080835Z AUTO 00000KT 10SM CLR 17/13 A2990 RMK AO1=
KLBL 080835Z 05008KT 10SM BKN035 BKN050 20/17 A3021 RMK AO1=
KLCI 080835Z AUTO 00000KT 10SM FEW075 OVC095 23/20 A3005 RMK
     AO1=
KLEW 080835Z 16004KT 5SM OVC004 21/19 A3009 RMK AO1=
KLGD 080835Z AUTO 00000KT 10SM CLR 13/06 A3005 RMK AO1=
####018000296####
SPUS99 KWBC 080836
SPECI
KFZY 080834Z AUTO 00000KT 2SM BR CLR 21/19 A3004 RMK AO2=
KHAO 080834Z AUTO 00000KT 2SM BR CLR 21/19 A3007 RMK AO2=
KLRD 080833Z AUTO 00000KT 10SM BKN012 26/25 A2989 RMK AO2 $=
KY50 080832Z AUTO 26006KT 4SM BR OVC004 22/22 A2999 RMK AO2 CIG
     002V007 $=
####018003695####
SAUS99 KWBC 080836 RRA
METAR
KLKV 080835Z AUTO 31005KT 10SM CLR 09/01 A3013 RMK AO1=
KLPC 080835Z AUTO 36003KT 10SM OVC012 14/11 A2992 RMK AO1 PNO=
KLUX 080835Z AUTO 27003KT 10SM CLR 22/22 A3001 RMK AO2=
KLXN 080830Z AUTO 31003KT 10SM BKN047 16/15 A3022 RMK AO2
     T01580151=
KMBL 080835Z AUTO 00000KT 10SM OVC090 22/19 A3000 RMK AO1=
KMER 080835Z AUTO 31006KT 10SM CLR 18/11 A2983 RMK AO1=
KMJX 080835Z AUTO 00000KT 3SM FEW003 SCT080 BKN120 23/21 A3001 RMK
     AO1=
KMKT 080835Z 31006KT 10SM CLR 18/16 A3009 RMK AO1=
KMLE 080830Z AUTO 34004KT 10SM SCT022 20/17 A3011 RMK AO2
     T02000167=
KMMH 080830Z AUTO 27006KT 10SM CLR 12/02 A3021 RMK AO1=
KMML 080835Z AUTO 27005KT 10SM CLR 14/12 A3013 RMK AO1=
KMNI 080835Z AUTO 00000KT 10SM CLR 23/23 A2996 RMK AO2=
KMNM 080835Z AUTO 00000KT 8SM BKN011 OVC120 21/19 A2996 RMK
     AO1=
KMRF 080835Z AUTO 01007KT 10SM FEW120 16/13 A3016 RMK AO1=
KMSV 080835Z AUTO 01003KT 5SM CLR 20/18 A3009 RMK AO1=
KMTW 080835Z 00000KT 10SM SCT090 OVC110 21/20 A2997 RMK AO1=
KMVN 080835Z AUTO 00000KT 2 1/2SM CLR 22/21 A3005 RMK AO1=
KOGA 080830Z AUTO 00000KT 7SM SCT070 16/15 A3027 RMK AO2
     T01560145=
KOKK 080835Z AUTO 00000KT 7SM CLR 22/16 A3005 RMK AO1=
KOLU 080835Z AUTO 30003KT 10SM CLR 17/14 A3017 RMK AO1=
KONL 080830Z AUTO 28003KT 10SM SCT090 OVC120 16/14 A3020 RMK AO2
     T01570144=
KOTG 080835Z AUTO 27006KT 10SM CLR 14/13 A3015 RMK AO1=
KOTH 080835Z 19003KT 10SM OVC008 11/08 A3000 RMK AO1=
KOXC 080835Z 00000KT 3SM BKN070 OVC110 22/21 A3007 RMK AO1=
KPIB 080835Z AUTO 00000KT 9SM CLR 23/21 A3003 RMK AO1=
KPNA 080830Z AUTO 30003KT 10SM CLR 06/01 A3038 RMK AO2
     T00620014=
KPQI 080835Z AUTO 00000KT 10SM CLR 21/18 A2998 RMK AO1=
KPTN 080835Z AUTO 08004KT 10SM CLR 24/M09 A3001 RMK AO1=
KPTT 080830Z AUTO 01004KT 7SM SCT012 SCT100 SCT120 19/18 A3015 RMK
     AO2=
KPTV 080835Z AUTO 00000KT 10SM CLR 22/13 A2984 RMK AO1=
KPVC 080835Z 19005KT 1 1/4SM OVC002 21/19 A3008 RMK AO1=
KPVU 080835Z 12003KT 10SM CLR 19/07 A3012 RMK AO1=
KPWT 080835Z AUTO 04007KT 10SM CLR 24/06 A2997 RMK AO1=
KRKD 080835Z AUTO 21003KT 1/4SM OVC002 18/17 A3009 RMK AO1=
KRUT 080835Z AUTO 13006KT 6SM CLR 22/19 A3005 RMK AO1=
KSDY 080835Z AUTO 23004KT 10SM FEW080 13/09 A3015 RMK AO1=
KSFM 080835Z 00000KT 3/4SM OVC002 21/18 A3007 RMK AO1=
KSFZ 080835Z AUTO 00000KT 10SM OVC010 22/21 A3005 RMK AO1=
KSGT 080835Z 00000KT 10SM CLR 23/22 A3005 RMK AO1=
KSGU 080835Z AUTO 08003KT 10SM CLR 28/01 A2994 RMK AO1=
KSKX 080835Z AUTO 01003KT 10SM CLR 12/04 A3037 RMK AO1=
KSLG 080835Z AUTO 17007KT 10SM FEW080 23/21 A3006 RMK AO1=
KSMN 080835Z AUTO 00000KT 10SM CLR 10/02 A3022 RMK AO1=
KSOW 080830Z AUTO 00000KT 10SM OVC100 21/03 A3024 RMK AO2=
KSPA 080835Z AUTO 00000KT 10SM CLR 23/23 A3000 RMK AO2=
KSPL 080835Z AUTO 05007KT FEW021 FEW080 SCT095 29/25 A2977 RMK AO2
     PWINO PNO=
KSQI 080835Z 00000KT 5SM OVC050 22/21 A3002 RMK AO1=
KSUE 080835Z AUTO 00000KT 5SM BKN120 21/20 A2996 RMK AO1 P0002=
KSUN 080831Z AUTO 31008KT 10SM CLR 12/02 A3023 RMK AO2=
KSZT 080830Z AUTO 00000KT 10SM CLR 11/09 A3010 RMK AO2=
KTIF 080830Z AUTO 00000KT 10SM OVC090 16/15 A3026 RMK AO2
     T01580145=
KTRK 080830Z AUTO 18003KT 10SM CLR 12/08 A3016 RMK AO2=
KTVF 080835Z AUTO 25005KT 10SM CLR 14/11 A3003 RMK AO1=
KUTA 080835Z AUTO 00000KT 10SM CLR 23/22 A3006 RMK AO2=
KVBT 080835Z AUTO 00000KT 10SM FEW085 23/21 A3002 RMK AO1=
KVIS 080835Z AUTO 33006KT 10SM CLR 23/12 A2980 RMK AO1=
KWVL 080835Z AUTO 20004KT 7SM OVC005 21/19 A3003 RMK AO1=
KWWD 080835Z AUTO 10SM OVC120 23/23 A3001 RMK AO1=
KYKN 080835Z AUTO 30005KT 10SM CLR 17/14 A3017 RMK AO1=
####018000429####
SARO32 LROM 080830
METAR LRAR 080830Z 36008KT 330V050 9999 SCT024 19/15 Q1020=
METAR LRBM 080830Z VRB02KT 9999 FEW007 BKN011 16/16 Q1019 1019//95=
METAR LRCL 080830Z 27004KT 240V310 9999 SCT011 BKN015 OVC020 15/12
Q1020 0821//95=
METAR LROD 080830Z 03010KT 360V060 CAVOK 20/14 Q1020=
METAR LRSM 080830Z 02010KT 9999 SCT015 19/14 Q1020=
METAR LRTM 080830Z 24006KT 220V280 9999 SCT007 BKN016 BKN023 16/14
Q1020 0719//95=
####018000329####
SARO33 LROM 080830
METAR LRBC 080830Z 35010G25KT 330V030 9999 SCT031 22/15 Q1016=
METAR LRCV 080830Z 36004KT 9999 SCT038 19/14 Q1017=
METAR LRIA 080830Z 33006KT 280V010 9999 FEW016 SCT034 22/16 Q1017=
METAR LRSV 080830Z 32014KT 9999 BKN007 15/14 Q1018=
METAR LRTC 080830Z 35012KT 320V020 9999 FEW030CB BKN040 21/16 Q1014=
####018000096####
SAMG20 FMMI 080830
METAR FMMI 080830Z 16009KT 090V190 9999 BKN016 SCT020 18/13 Q1027
NOSIG=
####018000099####
SPUS70 KWBC 080836 CCA
SPECI
KNSE 080829Z AUTO 00000KT 1/2SM FG VV004 23/21 A3002 RMK AO2 $=
####018000381####
SAUS80 KWBC 080836
METAR
KCBE 080835Z AUTO 00000KT 7SM CLR 21/18 A3010 RMK AO1=
KDVL 080835Z AUTO 26006KT 10SM CLR 15/12 A3006 RMK AO1=
KEAR 080835Z AUTO 33006KT 10SM CLR 15/13 A3022 RMK AO1=
KGPZ 080835Z AUTO 19004KT 10SM CLR 14/12 A3006 RMK AO1=
KSOW 080830Z AUTO 00000KT 10SM OVC100 21/03 A3024 RMK AO2=
KESN 080839Z AUTO 00000KT 3SM BR CLR 23/23 A3002 RMK AO2=
####018000103####
SPUS80 KWBC 080836
SPECI
KFNB 080833Z AUTO 34003KT 7SM BKN021 OVC120 22/21 A3008 RMK
     AO2=
####018001778####
SAUS70 KWBC 080836 RRB
METAR
KPWT 080835Z AUTO 04007KT 10SM CLR 24/06 A2997 RMK AO1=
KRKD 080835Z AUTO 21003KT 1/4SM OVC002 18/17 A3009 RMK AO1=
KRUT 080835Z AUTO 13006KT 6SM CLR 22/19 A3005 RMK AO1=
KSDY 080835Z AUTO 23004KT 10SM FEW080 13/09 A3015 RMK AO1=
KSFM 080835Z 00000KT 3/4SM OVC002 21/18 A3007 RMK AO1=
KSFZ 080835Z AUTO 00000KT 10SM OVC010 22/21 A3005 RMK AO1=
KSGT 080835Z 00000KT 10SM CLR 23/22 A3005 RMK AO1=
KSGU 080835Z AUTO 08003KT 10SM CLR 28/01 A2994 RMK AO1=
KSKX 080835Z AUTO 01003KT 10SM CLR 12/04 A3037 RMK AO1=
KSLG 080835Z AUTO 17007KT 10SM FEW080 23/21 A3006 RMK AO1=
KSMN 080835Z AUTO 00000KT 10SM CLR 10/02 A3022 RMK AO1=
KSPA 080835Z AUTO 00000KT 10SM CLR 23/23 A3000 RMK AO2=
KSPL 080835Z AUTO 05007KT FEW021 FEW080 SCT095 29/25 A2977 RMK AO2
     PWINO PNO=
KSQI 080835Z 00000KT 5SM OVC050 22/21 A3002 RMK AO1=
KSUE 080835Z AUTO 00000KT 5SM BKN120 21/20 A2996 RMK AO1 P0002=
KSUN 080831Z AUTO 31008KT 10SM CLR 12/02 A3023 RMK AO2=
KSZT 080830Z AUTO 00000KT 10SM CLR 11/09 A3010 RMK AO2=
KTIF 080830Z AUTO 00000KT 10SM OVC090 16/15 A3026 RMK AO2
     T01580145=
KTRK 080830Z AUTO 18003KT 10SM CLR 12/08 A3016 RMK AO2=
KTVF 080835Z AUTO 25005KT 10SM CLR 14/11 A3003 RMK AO1=
KUTA 080835Z AUTO 00000KT 10SM CLR 23/22 A3006 RMK AO2=
KVBT 080835Z AUTO 00000KT 10SM FEW085 23/21 A3002 RMK AO1=
KVIS 080835Z AUTO 33006KT 10SM CLR 23/12 A2980 RMK AO1=
KWVL 080835Z AUTO 20004KT 7SM OVC005 21/19 A3003 RMK AO1=
KWWD 080835Z AUTO 10SM OVC120 23/23 A3001 RMK AO1=
KYKN 080835Z AUTO 30005KT 10SM CLR 17/14 A3017 RMK AO1=
KFDK 080828Z AUTO 00000KT 5SM HZ SCT100 24/22 A3002 RMK AO2=
KW29 080835Z AUTO 00000KT 5SM CLR 23/22 A2999 RMK AO1=
KMTN 080836Z AUTO 00000KT 7SM CLR 26/23 A3000 RMK AO2=
####018000639####
SPUS70 KWBC 080836
SPECI
KCEC 080833Z AUTO 23003KT 4SM BR OVC001 10/09 A2998 RMK AO2=
KDHT 080833Z AUTO 02014KT 10SM -RA FEW018 BKN030 OVC036 17/14
     A3026 RMK AO2 PK WND 01027/0810 WSHFT 0804 RAB27 P0000=
KFOK 080833Z AUTO 14005KT 4SM HZ SCT003 BKN012 BKN070 24/21 A3005
     RMK AO2 TSNO=
KLHQ 080833Z AUTO 00000KT 2 1/2SM BR CLR 19/18 A3008 RMK AO2=
KSLK 080833Z AUTO 00000KT 4SM BR CLR 18/17 A3008 RMK AO2=
KHAO 080834Z AUTO 00000KT 2SM BR CLR 21/19 A3007 RMK AO2=
KLRD 080833Z AUTO 00000KT 10SM BKN012 26/25 A2989 RMK AO2 $=
KY50 080832Z AUTO 26006KT 4SM BR OVC004 22/22 A2999 RMK AO2 CIG
     002V007 $=
####018003733####
SAUS70 KWBC 080836 RRA
METAR
KEWK 080835Z AUTO 34003KT 10SM CLR 21/19 A3006 RMK AO1=
KFAM 080835Z AUTO 00000KT 10SM FEW090 23/22 A3008 RMK AO1=
KFKL 080835Z 00000KT 5SM CLR 19/18 A3013 RMK AO1=
KFLP 080835Z AUTO 00000KT 10SM CLR 23/22 A3004 RMK AO1=
KFNL 080835Z AUTO 06005KT 5SM FEW036 14/13 A3031 RMK AO1=
KFOD 080835Z AUTO 33004KT 10SM CLR 18/18 A3011 RMK AO1=
KFRM 080835Z AUTO 10SM CLR 17/15 A3013 RMK AO1=
KFTN 080835Z AUTO 07005KT 10SM OVC019 25/23 A2991 RMK AO1=
KGAD 080835Z AUTO 00000KT 10SM CLR 22/20 A3004 RMK AO1=
KGAI 080835Z 00000KT 8SM SCT090 24/22 A3003 RMK AO1=
KGBD 080835Z AUTO 01006KT 9SM OVC011 19/18 A3015 RMK AO1=
KGDV 080835Z AUTO 23006KT 10SM CLR 12/07 A3016 RMK AO1=
KGTR 080835Z 31004KT 10SM CLR 24/22 A3004 RMK AO1=
KGUC 080835Z AUTO 35004KT 10SM CLR 09/03 A3043 RMK AO1=
KGXY 080835Z AUTO 00000KT 10SM FEW009 SCT060 BKN085 15/12 A3031
     RMK AO1=
KHDN 080835Z 11011KT 10SM CLR 11/06 A3032 RMK AO1=
KHEF 080835Z AUTO 00000KT 5SM CLR 22/19 A2999 RMK AO1=
KHEZ 080835Z AUTO 00000KT 5SM CLR 23/22 A3002 RMK AO1=
KHNB 080835Z AUTO 00000KT 10SM CLR 23/21 A3005 RMK AO1=
KHYS 080835Z AUTO 34006KT 10SM OVC014 19/17 A3018 RMK AO1=
KIWD 080835Z AUTO 15003KT 10SM FEW055 FEW120 17/16 A2999 RMK
     AO1=
KJAC 080835Z AUTO 35007KT 10SM CLR 09/00 A3033 RMK AO1=
KJHW 080835Z AUTO 00000KT 5SM CLR 20/19 A3011 RMK AO1=
KKLS 080835Z AUTO 00000KT 10SM CLR 17/13 A2990 RMK AO1=
KLBL 080835Z 05008KT 10SM BKN035 BKN050 20/17 A3021 RMK AO1=
KLCI 080835Z AUTO 00000KT 10SM FEW075 OVC095 23/20 A3005 RMK
     AO1=
KLEW 080835Z 16004KT 5SM OVC004 21/19 A3009 RMK AO1=
KLGD 080835Z AUTO 00000KT 10SM CLR 13/06 A3005 RMK AO1=
KLKV 080835Z AUTO 31005KT 10SM CLR 09/01 A3013 RMK AO1=
KLPC 080835Z AUTO 36003KT 10SM OVC012 14/11 A2992 RMK AO1 PNO=
KLUX 080835Z AUTO 27003KT 10SM CLR 22/22 A3001 RMK AO2=
KLXN 080830Z AUTO 31003KT 10SM BKN047 16/15 A3022 RMK AO2
     T01580151=
KMBL 080835Z AUTO 00000KT 10SM OVC090 22/19 A3000 RMK AO1=
KMER 080835Z AUTO 31006KT 10SM CLR 18/11 A2983 RMK AO1=
KMJX 080835Z AUTO 00000KT 3SM FEW003 SCT080 BKN120 23/21 A3001 RMK
     AO1=
KMKT 080835Z 31006KT 10SM CLR 18/16 A3009 RMK AO1=
KMLE 080830Z AUTO 34004KT 10SM SCT022 20/17 A3011 RMK AO2
     T02000167=
KMMH 080830Z AUTO 27006KT 10SM CLR 12/02 A3021 RMK AO1=
KMML 080835Z AUTO 27005KT 10SM CLR 14/12 A3013 RMK AO1=
KMNI 080835Z AUTO 00000KT 10SM CLR 23/23 A2996 RMK AO2=
KMNM 080835Z AUTO 00000KT 8SM BKN011 OVC120 21/19 A2996 RMK
     AO1=
KMRF 080835Z AUTO 01007KT 10SM FEW120 16/13 A3016 RMK AO1=
KMSV 080835Z AUTO 01003KT 5SM CLR 20/18 A3009 RMK AO1=
KMTW 080835Z 00000KT 10SM SCT090 OVC110 21/20 A2997 RMK AO1=
KMVN 080835Z AUTO 00000KT 2 1/2SM CLR 22/21 A3005 RMK AO1=
KOGA 080830Z AUTO 00000KT 7SM SCT070 16/15 A3027 RMK AO2
     T01560145=
KOKK 080835Z AUTO 00000KT 7SM CLR 22/16 A3005 RMK AO1=
KOLU 080835Z AUTO 30003KT 10SM CLR 17/14 A3017 RMK AO1=
KONL 080830Z AUTO 28003KT 10SM SCT090 OVC120 16/14 A3020 RMK AO2
     T01570144=
KOTG 080835Z AUTO 27006KT 10SM CLR 14/13 A3015 RMK AO1=
KOTH 080835Z 19003KT 10SM OVC008 11/08 A3000 RMK AO1=
KOXC 080835Z 00000KT 3SM BKN070 OVC110 22/21 A3007 RMK AO1=
KPIB 080835Z AUTO 00000KT 9SM CLR 23/21 A3003 RMK AO1=
KPNA 080830Z AUTO 30003KT 10SM CLR 06/01 A3038 RMK AO2
     T00620014=
KPQI 080835Z AUTO 00000KT 10SM CLR 21/18 A2998 RMK AO1=
KPTN 080835Z AUTO 08004KT 10SM CLR 24/M09 A3001 RMK AO1=
KPTT 080830Z AUTO 01004KT 7SM SCT012 SCT100 SCT120 19/18 A3015 RMK
     AO2=
KPTV 080835Z AUTO 00000KT 10SM CLR 22/13 A2984 RMK AO1=
KPVC 080835Z 19005KT 1 1/4SM OVC002 21/19 A3008 RMK AO1=
KPVU 080835Z 12003KT 10SM CLR 19/07 A3012 RMK AO1=
####018003712####
SAUS70 KWBC 080836
METAR
KAFK 080830Z AUTO 35006KT 5SM BR CLR 20/20 A3010 RMK AO2
     T02030195=
KANW 080830Z AUTO 28003KT 10SM OVC110 17/15 A3023 RMK AO2
     T01670151=
KAUH 080830Z AUTO 36003KT 10SM CLR 16/15 A3018 RMK AO2
     T01610150=
KAUN 080830Z AUTO 00000KT 10SM CLR 21/13 A2987 RMK AO1=
KBIE 080830Z AUTO 35004KT 10SM CLR 19/18 A3012 RMK AO2
     T01930180=
KBTA 080830Z AUTO 35008KT 10SM SCT023 20/17 A3012 RMK AO2
     T01950171=
KBVN 080830Z AUTO 32003KT 10SM BKN090 16/15 A3018 RMK AO2
     T01570146=
KDVO 080830Z AUTO 00000KT 10SM OVC010 13/11 A2994 RMK AO2=
KGMJ 080835Z AUTO 00000KT 26/26 A3004 RMK AO2 PWINO=
KHDE 080830Z AUTO 33006KT 10SM CLR 16/14 A3020 RMK AO2
     T01570142=
KHJH 080830Z AUTO 00000KT 10SM OVC021 19/18 A3015 RMK AO2
     T01920178=
KIBM 080830Z AUTO 13003KT 10SM OVC016 12/11 A3032 RMK AO2
     T01240113=
KJYR 080830Z AUTO 34004KT 10SM SCT024 16/15 A3016 RMK AO2=
KLCG 080830Z AUTO 00000KT 10SM CLR 16/15 A3016 RMK AO2
     T01570150=
KLHM 080831Z AUTO 16009KT 10SM CLR 18/11 A2981 RMK AO1
     T01840111=
KOJA 080830Z AUTO 00000KT 10SM SCT075 BKN085 22/21 A3008 RMK
     AO2=
KONP 080831Z AUTO 22008KT 10SM OVC004 11/10 A2999 RMK AO1=
KORS 080830Z AUTO 10SM CLR 17/12 A2994 RMK AO2=
KOUN 080833Z AUTO 35003KT 10SM BKN024 OVC045 25/23 A3004 RMK
     AO2=
KPLU 080830Z AUTO 00000KT 10SM FEW035 14/13 A2993 RMK AO2=
KSNL 080832Z AUTO 36003KT 10SM SCT007 BKN010 OVC060 24/23 A3004
     RMK AO2=
KSRE 080830Z AUTO 00000KT 3SM DZ 24/24 A3001 RMK AO2=
KTQH 080834Z AUTO 00000KT 10SM BKN022 23/23 A3004 RMK AO2=
KWDG 080830Z AUTO 03006KT 10SM CLR 22/22 A3007 RMK AO2=
K2G4 080835Z AUTO 00000KT 10SM SCT070 23/13 A3019 RMK AO1=
KCGS 080840Z AUTO 00000KT 7SM CLR 26/23 A2999 RMK AO1=
K2W6 080834Z AUTO 00000KT 5SM CLR 24/23 A2999 RMK AO1=
KPMV 080830Z AUTO 33005KT 10SM CLR 20/19 A3011 RMK AO2
     T02000190=
KAEG 080835Z AUTO 14010KT 10SM CLR 17/08 A3028 RMK AO1=
KAFJ 080835Z AUTO 00000KT 1/4SM BKN003 18/17 A3010 RMK AO1=
KAIZ 080835Z AUTO 00000KT 10SM BKN040 22/21 A3006 RMK AO1=
KARG 080835Z AUTO 17004KT 10SM CLR 24/22 A3004 RMK AO1=
KAUO 080835Z AUTO 19003KT 10SM CLR 26/21 A3003 RMK AO1=
KAWO 080835Z AUTO 00000KT 10SM CLR 15/13 A2997 RMK AO1=
KBHB 080835Z AUTO 19007KT 4SM OVC002 18/18 A3010 RMK AO1=
KBID 080835Z AUTO 13007KT 1/2SM OVC002 21/21 A3005 RMK AO1=
KBKX 080835Z AUTO 00000KT 10SM CLR 14/13 A3017 RMK AO1=
KBLM 080835Z AUTO 00000KT 4SM SCT075 OVC110 24/21 A3004 RMK
     AO1=
KBOW 080835Z AUTO 00000KT 10SM CLR 21/21 A2999 RMK AO2=
KBTP 080835Z AUTO 04003KT 1 3/4SM CLR 18/18 A3009 RMK AO1=
KBVX 080835Z AUTO 14004KT 10SM CLR 24/22 A3006 RMK AO1=
KCGC 080835Z AUTO 00000KT 10SM CLR 21/21 A2999 RMK=
KCGZ 080835Z AUTO 29005KT 10SM CLR 32/01 A2978 RMK AO1=
KCHK 080833Z AUTO 02004KT 10SM SCT100 23/23 A3004 RMK AO2=
KCIU 080835Z AUTO 22004KT 5SM OVC110 19/17 A2995 RMK AO1=
KCOD 080835Z 11005KT 10SM CLR 12/02 A3033 RMK AO1=
KCOE 080835Z AUTO 05009KT 10SM CLR 16/09 A3009 RMK AO1=
KCVN 080835Z AUTO 02008KT 10SM FEW065 17/14 A3022 RMK AO1=
KCVO 080835Z AUTO 27016KT 10SM CLR 15/09 A2989 RMK AO1=
KCWI 080835Z 00000KT 4SM BKN003 A3003 RMK AO1=
KDYB 080835Z AUTO 00000KT 10SM CLR 22/20 A2996 RMK AO1=
KDYR 080835Z AUTO 23004KT 10SM CLR 24/20 A3006 RMK AO1=
KEEN 080835Z AUTO 00000KT 3SM CLR 22/21 A3005 RMK AO1=
KEGE 080835Z 07004KT 10SM CLR 11/09 A3040 RMK AO1=
KEHR 080835Z AUTO 00000KT 9SM BKN090 23/19 A3005 RMK AO1=
KENV 080835Z 02010KT 10SM CLR 23/M02 A3009 RMK AO1=
KESC 080835Z AUTO 00000KT 5SM FEW047 FEW095 SCT120 19/17 A2995 RMK
     AO1=
KEUL 080835Z AUTO 00000KT 10SM CLR 16/08 A3004 RMK AO1=
####018000089####
SPXX60 KWBC 080836
SPECI
KFZY 080834Z AUTO 00000KT 2SM BR CLR 21/19 A3004 RMK AO2=
####018000081####
SAAF35 KWBC 080800 RRC
METAR
HECA 080830Z 32006KT CAVOK 30/19 Q1011 NOSIG=
####018000097####
SAAF34 KWBC 080800 RRD
METAR
FYWB 080830Z 09021KT 9999 R09/M0050VP1500U VV/// 29/04 Q1018=
####018000081####
SPCN31 KWBC 080836
SPECI
CYMH 080833Z AUTO 18005KT 9SM OVC003 07/06 A3011=
####018000831####
SAAO31 KWBC 080830
METAR
GCFV 080830Z 04009KT 010V070 9999 BKN015 22/18 Q1017=
GCHI NIL=
GCLA 080830Z 01011KT 350V050 9999 BKN020 22/17 Q1019=
GCLP 080830Z 01022KT 9999 BKN017 23/18 Q1017 NOSIG=
GCRR 080830Z 01015KT 9999 SCT015 23/18 Q1017=
GCTS 080830Z 06013KT 040V100 9999 OVC014 22/18 Q1017 NOSIG=
GCXO 080830Z 29014KT 0100 R30/0200N R12/0125N FG OVC000 17/17
     Q1020 NOSIG=
GEML 080830Z 06006KT 020V110 CAVOK 25/20 Q1017=
GMAA NIL=
GMAT NIL=
GMFF 080830Z NIL=
GMFO NIL=
GMME 080830Z 34005KT 310V010 6000 OVC010 22/19 Q1016 NOSIG=
GMMN 080830Z 33006KT 310V010 8000 SCT010 BKN026 22/19 Q1016
     NOSIG=
GMMX 080830Z 26003KT 180V340 6000 FEW026 25/19 Q1016 NOSIG=
GMOY NIL=
GMTA NIL=
GMTN NIL=
GMTT 080830Z 28006KT 250V310 8000 FEW010 SCT016 24/20 Q1016
     NOSIG=
GSAI NIL=
####018000356####
SAPO31 LPMG 080830
METAR LPFR 080830Z 23004KT 200V260 9000 SCT008 BKN010 23/20 Q1016=
METAR LPMA 080830Z 23004KT 180V280 9999 FEW016 22/17 Q1020 RS17005KT
0519004KT 2327004KT=
METAR LPPR 080830Z 00000KT 5000 BR SCT250 23/19 Q1014=
METAR LPPS 080830Z 01011KT 9999 FEW016 BKN030 20/15 Q1020=
METAR LPPT 080830Z VRB03KT 9999 FEW120 23/18 Q1015 NOSIG=
####018000028####
SAAS31 KWBC 080830
NIL=
####018000233####
SAAS32 KWBC 080830
METAR
RKPC NIL=
RKPK NIL=
RKSS NIL=
VHHH 080830Z 21013KT 9999 FEW020 SCT030 33/25 Q1006 NOSIG=
VMMC 080830Z 19013KT 180V260 9999 FEW015 SCT030 BKN090 31/27 Q1006
     NOSIG=
ZJSY NIL=
ZKPY NIL=
####018000412####
SAAS33 KWBC 080830
METAR
VBRR NIL=
VDPP NIL=
VDSR NIL=
VLVT NIL=
VTBA NIL=
VTBD NIL=
VTBU NIL=
VTCC NIL=
VTSP NIL=
VTSS NIL=
VVDN NIL=
VVGL NIL=
VVNB NIL=
VVTS NIL=
WBGG NIL=
WBKK NIL=
WMAM NIL=
WMKJ NIL=
WMKK NIL=
WMKP NIL=
WMSA NIL=
WPDL NIL=
WPEC NIL=
WSAP NIL=
WSSL NIL=
WSSS 080830Z 21003KT 170V260 9999 FEW017 SCT150 BKN270 29/25 Q1008
     NOSIG=
####018000028####
SAAW31 KWBC 080830
NIL=
####018000910####
SAAW32 KWBC 080830
METAR
OEDF NIL=
OEDR NIL=
OEJN NIL=
OEMA NIL=
OERK NIL=
OIAA NIL=
OIAW 080830Z NIL=
OIBB NIL=
OIBK NIL=
OICC NIL=
OICK NIL=
OICS NIL=
OIFM 080830Z NIL=
OIFM 080825Z 15010KT CAVOK 37/04 Q1017 A3005=
OIFP NIL=
OIGG NIL=
OIHH NIL=
OIII 080830Z 11010KT CAVOK 38/M03 Q1014 A2996 879.6=
OIIM NIL=
OIIP NIL=
OIIX NIL=
OIKB 080830Z NIL=
OIKK 080830Z NIL=
OIMM 080830Z 06012KT CAVOK 38/M02 Q1015 A2997=
OINN NIL=
OINR NIL=
OINZ NIL=
OISM NIL=
OISS 080830Z 06008KT CAVOK 37/07 Q1014 A2996=
OITL NIL=
OITR NIL=
OITT 080830Z 11014KT CAVOK 34/02 Q1015 A2999=
OIYY NIL=
OIZH 080830Z 34008KT CAVOK 36/M05 Q1013 A2994=
OKBK 080830Z 36017KT CAVOK 46/M08 Q1001 NOSIG=
ORBI NIL=
ORBS NIL=
ORMM NIL=
OSAP NIL=
OSDI NIL=
OSLK NIL=
OTBD 080830Z 03011KT 360V060 6000 NSC 36/29 Q1000 NOSIG=
OTBH NIL=
OTMA NIL=
OTMS NIL=
####018000028####
SAAW33 KWBC 080830
NIL=
####018000117####
SACA33 KWBC 080800 RRC
METAR
TFFF 080830Z AUTO 07013KT 040V100 9999NDV FEW012/// SCT034///
     28/24 Q1013=
####018000646####
SAEE31 KWBC 080830
METAR
EPGD 080830Z 31009KT 280V340 CAVOK 20/11 Q1021=
EPKK 080830Z 29010KT 260V320 9999 FEW046 20/08 Q1022=
EPKT 080830Z 31009KT CAVOK 19/09 Q1023=
EPPO 080830Z 32004KT CAVOK 21/09 Q1023=
EPQT NIL=
EPRZ 080830Z 32009KT 9999 FEW033 20/10 Q1021=
EPSC NIL=
EPWA 080830Z 29009KT 250V350 9999 FEW026 19/13 Q1021 NOSIG=
EYSA NIL=
UKBB 080830Z 30003MPS 270V340 9999 BKN018 23/19 Q1014 88CLRD95
     NOSIG=
UKKK NIL=
UKLL 080830Z 30004MPS 250V350 9999 SCT033CB BKN033 17/12 Q1020
     31210365 NOSIG=
UKOO 080830Z 35004MPS 300V020 CAVOK 24/17 Q1014 34090070 NOSIG=
UMII NIL=
UMMM NIL=
UMMS NIL=
####018000711####
SAEE32 KWBC 080830
METAR
LBBG 080830Z 26007MPS 9999 FEW048 BKN072 BKN110 17/15 Q1015
     NOSIG=
LBPD 080830Z 27004MPS 9999 SCT050 BKN060 16/12 Q1016 NOSIG=
LBSF 080830Z 27007MPS 9999 BKN042 17/12 Q1018 NOSIG=
LBWN 080830Z 27005MPS 240V310 9999 BKN023 20/15 Q1014 NOSIG=
LHBP 080830Z 17006KT 9999 FEW046 22/10 Q1021 NOSIG=
LHTA NIL=
LRAR NIL=
LRBS 080830Z 34003KT 300V020 9999 FEW019 BKN042 20/15 Q1016
     NOSIG=
LRCK 080830Z 36012KT 330V040 9999 SCT035 23/15 Q1014 NOSIG=
LROP 080830Z 29003KT 230V360 9999 FEW040CB SCT044 20/15 Q1016
     880///95 NOSIG=
LRTC NIL=
LRTM NIL=
LRTR 080830Z 35008KT 320V030 9999 FEW023 SCT042 20/14 Q1020=
LUCC NIL=
LUKK NIL=
LURN NIL=
####018001885####
SAEM31 KWBC 080830
METAR
KQLA NIL=
KQLH NIL=
KQLX NIL=
LATI 080830Z 34006KT 270V020 CAVOK 26/13 Q1016 NOSIG=
LDDU 080830Z VRB10KT 9999 FEW040 24/05 Q1019 NOSIG=
LDDV NIL=
LDKT NIL=
LDOS 080830Z VRB03KT CAVOK 22/11 Q1022 NOSIG=
LDPL 080830Z 07008KT 010V100 CAVOK 24/09 Q1022 NOSIG=
LDRI 080830Z 30004KT 240V010 CAVOK 24/10 Q1022 NOSIG=
LDSP 080830Z 14006KT 040V190 CAVOK 26/07 Q1020 NOSIG=
LDZA 080830Z VRB02KT 9999 FEW040 23/08 Q1023 NOSIG=
LDZD 080830Z VRB04KT CAVOK 26/05 Q1021 NOSIG=
LJLJ 080830Z VRB02KT 9999 FEW060 21/11 Q1024 NOSIG=
LJMB 080830Z 04001KT 9999 FEW040 22/10 Q1023=
LJPZ 080830Z VRB02KT CAVOK 24/09 Q1022=
LKIB NIL=
LKMT 080830Z 07003KT 010V170 9999 FEW040 19/10 Q1023 NOSIG RMK REG
     QNH 1021=
LKMT 080830Z 07003KT 010V170 9999 FEW040 19/10 Q1023 NOSIG=
LKPR 080830Z 18004KT 120V210 CAVOK 21/08 Q1024 NOSIG RMK REG QNH
     1021=
LKPR 080830Z 18004KT 120V210 CAVOK 21/08 Q1024 NOSIG=
LKTB 080830Z 33008KT 260V010 CAVOK 21/08 Q1023 NOSIG=
LKTT NIL=
LOAV NIL=
LOIH NIL=
LOIJ NIL=
LOLW NIL=
LOWG NIL=
LOWH NIL=
LOWI NIL=
LOWK NIL=
LOWL NIL=
LOWS NIL=
LOWW NIL=
LOWZ NIL=
LQSA 080830Z 01004KT 9999 FEW039 BKN050 18/10 Q1023 NOSIG=
LWOH 080830Z 02008KT 330V060 9999 FEW033 19/07 Q1019=
LWSK 080830Z 34009KT 9999 BKN050 17/11 Q1020 NOSIG=
LYBE 080830Z 29009KT CAVOK 18/15 Q1022 NOSIG=
LYDU NIL=
LYLJ NIL=
LYMB NIL=
LYNI 080830Z 33007KT 9999 SCT017 OVC033 15/13 Q1020 NOSIG=
LYOH NIL=
LYOS NIL=
LYPG 080830Z NIL=
LYPL NIL=
LYPR 080830Z NIL=
LYPZ NIL=
LYRI NIL=
LYSA NIL=
LYSK NIL=
LYSP NIL=
LYTI NIL=
LYTV 080830Z 31005KT 240V030 9999 FEW053 26/08 Q1018 NOSIG=
LYZA NIL=
LYZD NIL=
LZIB 080830Z 01010KT 340V050 CAVOK 23/05 Q1023=
LZKZ 080830Z 01010KT 340V040 9999 FEW043 20/11 Q1021 NOSIG=
LZTT 080830Z VRB01KT 9999 FEW040 19/08 Q1022 NOSIG=
####018000300####
SAEW31 KWBC 080830
METAR
LPAZ NIL=
LPFR 080830Z 23004KT 200V260 9000 SCT008 BKN010 23/20 Q1016=
LPFU NIL=
LPPD NIL=
LPPR 080830Z 00000KT 5000 BR SCT250 23/19 Q1014=
LPPS 080830Z 01011KT 9999 FEW016 BKN030 20/15 Q1020=
LPPT 080830Z VRB03KT 9999 FEW120 23/18 Q1015 NOSIG=
LXGB NIL=
####018000704####
SAFR31 KWBC 080830
METAR
LFAC NIL=
LFAT NIL=
LFBD 080830Z 08009KT CAVOK 28/13 Q1017 NOSIG=
LFBH 080830Z AUTO 12006KT 090V160 9999NDV NSC 29/13 Q1018=
LFBI 080830Z NIL=
LFBO 080830Z 11005KT 070V150 CAVOK 26/13 Q1019 NOSIG=
LFBP 080830Z NIL=
LFBT 080830Z NIL=
LFBZ 080830Z NIL=
LFGJ 080830Z AUTO 21004KT 160V260 9999NDV NSC 24/14 Q1021=
LFKB 080830Z 09003KT 030V130 9000 SCT020 29/22 Q1019 NOSIG=
LFKC 080830Z NIL=
LFKJ 080830Z 24006KT 9999 FEW023 27/22 Q1019 NOSIG=
LFLB 080830Z NIL=
LFLC 080830Z NIL=
LFLL 080830Z 13004KT 100V160 CAVOK 26/14 Q1021 NOSIG=
LFLS 080830Z NIL=
LFLY 080830Z NIL=
LFMD 080830Z AUTO 18004KT 140V210 9999NDV NSC 29/22 Q1019=
LFMH NIL=
####018001228####
SAFR32 KWBC 080830
METAR
LFML 080830Z 29004KT CAVOK 28/18 Q1019 NOSIG=
LFMN 080830Z 11004KT 9999 FEW060 28/21 Q1020 NOSIG=
LFMP 080830Z NIL=
LFMT 080830Z NIL=
LFOB 080830Z NIL=
LFOH 080830Z AUTO 34008KT 9999NDV NSC 21/12 Q1019=
LFOT 080830Z AUTO VRB02KT 9999NDV NSC 27/12 Q1019=
LFPB 080830Z 18004KT 130V220 CAVOK 27/11 Q1019 NOSIG=
LFPG 080830Z 18005KT 160V220 CAVOK 26/11 Q1019 NOSIG=
LFPN NIL=
LFPO 080830Z 22004KT 180V270 CAVOK 26/12 Q1019 NOSIG=
LFQQ 080830Z VRB02KT CAVOK 25/13 Q1019 NOSIG=
LFRB 080830Z 10004KT 050V160 9999 OVC009 17/15 Q1019 NOSIG=
LFRC 080830Z AUTO 29004KT 260V340 9999NDV SCT012 19/16 Q1020=
LFRD 080830Z AUTO 35005KT 280V020 9999NDV BKN011 19/15 Q1020=
LFRG NIL=
LFRK NIL=
LFRN 080830Z AUTO 34005KT 290V010 9999NDV NSC 21/15 Q1018=
LFRO 080830Z AUTO 00000KT 9999NDV OVC013 19/15 Q1019=
LFRQ NIL=
LFRS 080830Z NIL=
LFRT NIL=
LFRZ 080830Z AUTO 36004KT 320V050 9999NDV NSC 23/14 Q1018=
LFSB 080830Z 08005KT 030V140 CAVOK 26/10 Q1021 NOSIG=
LFSF 080830Z AUTO VRB03KT 9999NDV NSC 25/11 Q1020=
LFSN 080830Z NIL=
LFSR 080830Z AUTO 00000KT 9999NDV NSC 27/13 Q1019=
LFST 080830Z NIL=
LFTW 080830Z AUTO VRB03KT 9999NDV NSC 27/14 Q1020=
LFVP NIL=
####018000871####
SAFR41 KWBC 080830
METAR
LFAF NIL=
LFBA NIL=
LFBC 080830Z AUTO 09009KT 060V120 9999NDV NSC 29/12 Q1016=
LFBL 080830Z NIL=
LFBM 080830Z AUTO 11008KT 070V140 9999NDV NSC 28/16 Q1017=
LFKF 080830Z NIL=
LFLD NIL=
LFLV NIL=
LFOE 080830Z 19005KT 130V290 CAVOK 26/12 Q1019=
LFOP 080830Z NIL=
LFPB 080830Z 18004KT 130V220 CAVOK 27/11 Q1019 NOSIG=
LFPG 080830Z 18005KT 160V220 CAVOK 26/11 Q1019 NOSIG=
LFPV 080830Z AUTO /////KT 9999NDV NSC 25/13 Q1019=
LFQB NIL=
LFQQ 080830Z VRB02KT CAVOK 25/13 Q1019 NOSIG=
LFRH NIL=
LFRM NIL=
LFSC NIL=
LFSD 080830Z AUTO VRB02KT 9999NDV NSC 25/13 Q1020=
LFSI 080830Z AUTO VRB03KT 9999NDV NSC 26/13 Q1020=
LFSL 080830Z AUTO 12006KT 090V150 9999NDV NSC 25/15 Q1020=
LFSO 080830Z AUTO 27004KT 200V300 9999NDV NSC 26/12 Q1021=
LFSX 080830Z AUTO VRB02KT 9999NDV NSC 25/13 Q1021=
LFTH 080830Z NIL=
####018000028####
SAHA31 KWBC 080830
NIL=
####018000339####
SAIE31 KWBC 080830
METAR
EICK 080830Z 21010KT 9999 -RA FEW008 SCT015 BKN080 14/12 Q1016
     NOSIG=
EIDB NIL=
EIDW 080830Z 22014KT 9999 FEW023 BKN180 15/10 Q1015 NOSIG=
EIKN 080830Z 22009KT 170V250 9999 FEW010 SCT016 BKN050 13/09 Q1013
     NOSIG=
EINN 080830Z 18008KT 9999 FEW014 SCT033 BKN045 15/11 Q1015
     NOSIG=
####018000109####
SAIO31 KWBC 080800 RRD
METAR
FMMI 080830Z 16009KT 090V190 9999 BKN016 SCT020 18/13 Q1027
     NOSIG=
####018000028####
SAIQ31 KWBC 080830
NIL=
####018000028####
SAIQ32 KWBC 080830
NIL=
####018000396####
SAJP31 KWBC 080830
METAR
RJAA 080830Z 21007KT 170V240 9999 FEW025 BKN/// 28/22 Q1009 NOSIG
     RMK 1CU025 A2982=
RJAH NIL=
RJCC 080830Z 16006KT 140V210 1700 -DZ BR BKN002 18/17 Q1009 RMK
     7ST002 A2981=
RJCH NIL=
RJFK NIL=
RJFT NIL=
RJFU NIL=
RJNN NIL=
RJOO NIL=
RJSS NIL=
RJTT 080830Z 18018KT 9999 FEW030 BKN/// 27/22 Q1009 RMK 1CU030
     A2979=
RODN NIL=
####018000028####
SAJP41 KWBC 080830
NIL=
####018000028####
SAJP42 KWBC 080830
NIL=
####018000028####
SAJP43 KWBC 080830
NIL=
####018000028####
SAJP44 KWBC 080830
NIL=
####018000028####
SAJP45 KWBC 080830
NIL=
####018000098####
SAKO31 KWBC 080800 RRA
METAR
RKSI 080830Z 31002KT 9000 FEW040 OVC120 24/19 Q1008 TEMPO -RA=
####018000195####
SAMM31 KWBC 080830
METAR
LCEN NIL=
LCLK 080830Z 20014KT 9999 FEW025 30/22 Q1008 NOSIG=
LCNC 080830Z NIL=
LCPH 080830Z 21005KT 140V260 9999 FEW030 28/22 Q1009=
LCRA NIL=
LMML NIL=
####018000095####
SANT31 KWBC 080800 RRC
METAR
BIKF 080830Z 02023KT 9999 FEW017 SCT030 BKN080 09/04 Q0993=
####018000086####
SAPA32 KWBC 080800 RRA
METAR
NWWW 080830Z AUTO VRB01KT 9999NDV NCD 19/16 Q1016=
####018000349####
SAPO31 KWBC 080800 RRC
METAR
LPFR 080830Z 23004KT 200V260 9000 SCT008 BKN010 23/20 Q1016=
LPMA 080830Z 23004KT 180V280 9999 FEW016 22/17 Q1020 RS17005KT
     0519004KT 2327004KT=
LPPR 080830Z 00000KT 5000 BR SCT250 23/19 Q1014=
LPPS 080830Z 01011KT 9999 FEW016 BKN030 20/15 Q1020=
LPPT 080830Z VRB03KT 9999 FEW120 23/18 Q1015 NOSIG=
####018000108####
SARA31 KWBC 080800 RRF
METAR
UTST 080830Z 19002MPS 120V250 CAVOK 41/04 Q1007 R88/CLRD70
     NOSIG=
####018001534####
SASP31 KWBC 080830
METAR
LEAL 080830Z 09006KT 050V120 CAVOK 29/16 Q1019 NOSIG=
LEAM 080830Z 09012KT 060V120 CAVOK 34/10 Q1017=
LEAS 080830Z 04003KT 350V080 9999 4000S SCT002 SCT008 BKN013 19/18
     Q1017 TEMPO 4000 TSRA SCT025CB=
LEBB 080830Z VRB02KT 8000 NSC 26/20 Q1016 NOSIG=
LEBL 080830Z 22011KT CAVOK 27/19 Q1019 NOSIG=
LECO 080830Z 18009KT 140V210 7000 FEW005 SCT008 20/19 Q1016
     RERA=
LEGE 080830Z 04003KT 350V120 CAVOK 29/20 Q1019=
LEGR 080830Z VRB01KT 9999 SCT060 29/12 Q1018=
LEIB 080830Z 08009KT 050V110 CAVOK 28/22 Q1019 NOSIG=
LEJR 080830Z 25003KT 230V320 CAVOK 24/19 Q1016=
LELC 080830Z NIL=
LELL 080830Z 24004KT 200V290 CAVOK 27/14 Q1019=
LEMD 080830Z 02005KT 340V060 CAVOK 28/14 Q1019 NOSIG=
LEMG 080830Z 11004KT 070V150 9999 FEW035 29/16 Q1016 NOSIG=
LEMH 080830Z 22005KT 160V260 CAVOK 27/21 Q1020=
LEPA 080830Z VRB02KT CAVOK 30/09 Q1020 NOSIG=
LEPP 080830Z 00000KT 9999 FEW060 28/16 Q1019=
LERS 080830Z VRB03KT CAVOK 27/19 Q1019=
LESO 080830Z 02004KT 340V060 CAVOK 24/19 Q1016=
LEST 080830Z 09008KT 060V130 8000 FEW018 17/17 Q1016 NOSIG=
LETO NIL=
LEVC 080830Z VRB01KT CAVOK 29/19 Q1019 NOSIG=
LEVD 080830Z 14005KT 080V170 CAVOK 27/12 Q1019=
LEVS 080830Z 08004KT 030V130 CAVOK 27/12 Q1020=
LEVT 080830Z VRB01KT 9999 FEW035 26/17 Q1019=
LEVX 080830Z VRB01KT CAVOK 23/20 Q1014=
LEXJ 080830Z 27003KT 210V340 6000 SCT014 SCT020 23/19 Q1016=
LEZG 080830Z 08009KT 060V120 CAVOK 28/18 Q1019=
LEZL 080830Z 28005KT 220V330 9999 SCT020 28/18 Q1015 NOSIG=
####018000253####
SATS31 KWBC 080830
METAR
DTMB 080830Z 34007KT 300V010 CAVOK 27/19 Q1019 NOSIG=
DTTA NIL=
DTTB NIL=
DTTD NIL=
DTTG NIL=
DTTJ 080830Z 06006KT CAVOK 29/22 Q1019 NOSIG=
DTTK NIL=
DTTL NIL=
DTTN NIL=
DTTR NIL=
DTTX NIL=
DTTZ NIL=
####018000088####
SAUS41 KWBC 080800 RRG
METAR
KFDK 080828Z AUTO 00000KT 5SM HZ SCT100 24/22 A3002=
####018001122####
SAXX99 KWBC 080800 RRX
METAR
EPWR 080830Z 26004KT 210V020 9999 FEW046 22/11 Q1024=
K4O4 080828Z AUTO 07003KT 7SM SCT001 BKN012 23/22 A3004 RMK
     AO2=
KCBE 080835Z AUTO 00000KT 7SM CLR 21/18 A3010 RMK AO1=
KESN 080839Z AUTO 00000KT 3SM BR CLR 23/23 A3002 RMK AO2=
KFME 080836Z AUTO 00000KT 4SM CLR 20/20 A3001 RMK AO1=
LEGT 080800Z 06007KT CAVOK 27/12 Q1019=
LESA 080830Z 00000KT CAVOK 29/16 Q1019=
LFBG 080830Z AUTO 09003KT 040V130 9999NDV NSC 27/16 Q1018=
LFCR 080830Z AUTO 12005KT 090V180 9999NDV NSC 27/12 Q1022=
LFJL 080830Z AUTO VRB02KT 9999NDV NSC 25/10 Q1020=
LFLX 080830Z NIL=
LFMI 080830Z AUTO VRB03KT 9999NDV NSC 30/13 Q1020=
LFMK 080830Z NIL=
LFMO 080830Z VRB02KT CAVOK 28/17 Q1020=
LFMU 080830Z AUTO 08007KT 040V110 9999NDV NSC 29/14 Q1020=
LFMV 080830Z AUTO VRB02KT 9999NDV NSC 30/17 Q1020=
LFOA 080830Z AUTO 14006KT 090V190 9999NDV NSC 26/13 Q1019=
LFOK 080830Z AUTO 19006KT 9999NDV NSC 26/14 Q1020=
LFQI 080830Z 21005KT 180V240 CAVOK 25/13 Q1019=
LKKV 080830Z VRB01KT CAVOK 20/11 Q1024 RMK REG QNH 1021=
LQBK 080830Z 32004KT 9999 FEW033 21/11 Q1022 NOSIG=
####018000073####
SASW32 LSSW 080820 RRA
METAR LSZS 080820Z 22008KT CAVOK 19/11 Q1027=
####018000102####
SPUS52 KWBC 080836
SPECI
KDHT 080833Z AUTO 02014KT 10SM -RA FEW018 BKN030 OVC036 17/14
A3026=
####018000184####
SAUS51 KWBC 080800 RRE
METAR
KCBE 080835Z AUTO 00000KT 7SM CLR 21/18 A3010=
KESN 080839Z AUTO 00000KT 3SM BR CLR 23/23 A3002=
KMYR 080835Z AUTO 29008KT 10SM CLR 26/19 A2996=
####018000088####
SPUS53 KWBC 080836
SPECI
KFNB 080833Z AUTO 34003KT 7SM BKN021 OVC120 22/21 A3008=
####018000362####
SAPO31 LPMG 080830
METAR LPFR 080830Z 23004KT 200V260 9000 SCT008 BKN010 23/20 Q1016=
METAR LPMA 080830Z 23004KT 180V280 9999 FEW016 22/17 Q1020 RS17005KT
0519004KT 2327004KT=
METAR LPPR 080830Z 00000KT 5000 BR SCT250 23/19 Q1014=
METAR LPPS 080830Z 01011KT 9999 FEW016 BKN030 20/15 Q1020=
METAR LPPT 080830Z VRB03KT 9999 FEW120 23/18 Q1015 NOSIG=
####018000280####
SAPO32 LPMG 080830
METAR LPAZ 080830Z 28003KT 9999 FEW008 BKN016 BKN030 19/18 Q1024=
METAR LPFL 080830Z 21003KT 190V250 9999 SCT023 BKN045 22/17 Q1022=
METAR LPHR 080830Z 19003KT 9999 SCT015 SCT035 22/18 Q1023=
METAR LPPD 080830Z 27005KT 9999 FEW017 BKN027 20/15 Q1024=
####018000334####
SARO33 LROM 080830
METAR LRBC 080830Z 35010G25KT 330V030 9999 SCT031 22/15 Q1016=
METAR LRCV 080830Z 36004KT 9999 SCT038 19/14 Q1017=
METAR LRIA 080830Z 33006KT 280V010 9999 FEW016 SCT034 22/16 Q1017=
METAR LRSV 080830Z 32014KT 9999 BKN007 15/14 Q1018=
METAR LRTC 080830Z 35012KT 320V020 9999 FEW030CB BKN040 21/16 Q1014=
####018000175####
SAAY31 RUMS 080830
METAR UDYZ 080830Z 22003MPS 170V290 9999 SKC 33/14 Q1011 09010070
NOSIG=
METAR UDSG 080830Z 08003MPS 020V170 9999 NSC 29/13 Q1016 02CLRD70
NOSIG=
####018000200####
SATA31 RUMS 080830
METAR UTDD 080830Z 14002MPS 9999 FEW066 36/01 Q1010 09CLRD70 NOSIG
RMK QFE690/0920=
METAR UTDL 080830Z 05003MPS 010V100 9999 FEW046 36/08 Q1009 NOSIG RMK
QFE719 8809//70=
####018000079####
SAUK34 EGGY 080820 RRC
METAR EGHK 080820Z 14003KT 9999 FEW020 17/15 Q1018=
####018000184####
SAUS53 KWBC 080800 RRH
METAR
KANW 080830Z AUTO 28003KT 10SM OVC110 17/15 A3023=
KBIE 080830Z AUTO 35004KT 10SM CLR 19/18 A3012=
KUDG 080835Z 29003KT 10SM BKN090 26/18 A2997=
####018000086####
SAUS54 KWBC 080800 RRE
METAR
KIZA 080829Z AUTO 00000KT 10SM OVC009 13/11 A2991=
####018001290####
SAUS20 KNKA 080836
METAR K20V 080836Z AUTO 00000KT 10SM SCT021 08/05 A3042 RMK AO2=
METAR K4BM 080833Z AUTO 00000KT 10SM 05/03 A3064 RMK AO2=
METAR K5SM 080833Z AUTO 00000KT 10SM SCT050 SCT065 BKN085 08/03
     A3056 RMK AO2=
METAR K7BM 080836Z AUTO 00000KT 10SM OVC028 10/06 A3056 RMK AO2=
METAR KBDU 080837Z AUTO 20007KT 10SM CLR 16/12 A3030 RMK AO2=
METAR KBJC 080837Z AUTO 18003KT 4SM BR CLR 13/12 A3033 RMK AO2=
METAR KCCU 080836Z AUTO 18017KT 10SM BKN085 07/02 A3064 RMK AO2=
METAR KGTU 080835Z 06003KT 8SM BKN014 BKN020 OVC026 25/22 A3001 RMK 
    AO1=
METAR KHYI 080835Z AUTO 04005KT 10SM SCT011 OVC018 25/24 A2995 RMK 
    AO1=
METAR KILE 080835Z 10006KT 10SM SCT012 BKN028 OVC065 24/22 A2997 RMK 
    AO1=
METAR KMYP 080736Z AUTO 07010KT M1/4SM +SN OVC001 03/03 A3075 RMK
     AO2=
METAR KOCH 080835Z AUTO 10005KT 10SM CLR 24/19 A3000 RMK AO1=
METAR KPRX 080835Z 13005KT 8SM BKN015 24/22 A3002 RMK AO1=
METAR KPWG 080835Z AUTO 11003KT 10SM BKN013 OVC120 25/22 A2999 RMK 
    AO1=
METAR KTEX 080833Z AUTO 08003KT 10SM CLR 12/04 A3045 RMK AO2=
METAR KTPL 080835Z 10004KT 10SM OVC019 24/23 A2998 RMK AO1=
METAR KVTP 080840Z AUTO 08010KT 1/4SM OVC001 06/05 A3056 RMK AO2=
METAR KWYS 080830Z AUTO 00000KT 10SM CLR 03/00 A3035 RMK AO2=
####018001617####
SPZZ40 KAWN 080836 RRI
SPECI CWZZ 080832Z AUTO ///// 9SM OVC016 OVC069 11/ A2981=
SPECI CYMH 080833Z AUTO 18005KT 9SM OVC003 07/06 A3011=
SPECI CYQA 080834Z AUTO 00000KT 3SM BR CLR 19/19 A3003 RMK SLP170 DENSITY
      ALT 1400FT VIS VRB 1 3/4-3=
SPECI KAFF 080832Z AUTO 21004KT 10SM -DZ OVC024 13/13 A3040 RMK AO2
      DZB0832 SLP207=
SPECI KEGI 080834Z AUTO 00000KT 2SM R18/1600V5500FT BR CLR 22/21 A3002
      RMK AO2 SLP165 $=
SPECI KHST 080833Z AUTO 07006KT 8SM -RA FEW006 SCT016 BKN023 27/25
      A2993 RMK AO2 RAB0822 FEW V SCT SLP136 $=
SPECI KWRI 080832Z AUTO 00000KT M1/4SM R18/0500V1000FT R24/0600V2000FT
      FG VV001 24/24 A2999 RMK AO2 SLP155 $=
SPECI LBWN 080834Z 25005G11MPS 220V280 9999 BKN023 19/14 Q1014 NOSIG=
PACZ SP 0835 AWOS MM 7 50/48/0404/008=
PAEH SP 0835 AWOS 9 SCT M18 OVC 10 48/-20/0000/000=
PAIM SP 0835 AWOS CLR BLO 120 10 58/45/3203/009=
PALU SP 0835 AWOS CLR BLO 120 10 55/34/2220/010=
SPECI PASY 080833Z AUTO 02015KT 10SM OVC006 A2974 RMK AO2 CIG 003V008
      TSNO PNO=
PATL SP 0835 AWOS CLR BLO 120 10 61/43/0305/000=
SPECI PGUA 080833Z AUTO 08012KT 10SM SCT018 27/ A2988 RMK AO2 SCT V
      BKN SLP098 VISNO RWY24L $=
SPECI RJCO 080830Z 31006KT 9999 -SHRA FEW007 BKN011 19/18 Q1009 RMK
      1ST007 7ST011 A2982=
SPECI RKTN 080826Z 34005KT 9000 -TSRA FEW025CB BKN040 OVC200 27/22
      Q1008 NOSIG RMK OCNL LTG CC TS SW MOV NE=
SPECI YSSY 080830Z 21015KT 5000 SHRA FEW008 SCT020 BKN050 13/12 Q1026
      RMK VIS REDUCED TO EAST AND SOUTH FM0830 19015KT 9999 -SHRA
      SCT025 BKN040 INTER 0830/1130 5000 SHRA BKN010=
####018000084####
SPUS74 KWBC 080836
SPECI
KCEC 080833Z AUTO 23003KT 4SM BR OVC001 10/09 A2998=
####018000086####
SAUS72 KWBC 080800 RRF
METAR
KLRU 080831Z AUTO 04009KT 10SM SCT120 19/15 A3016=
####018000693####
SAKZ31 RUMS 080830
METAR UAAA 080830Z 36004MPS 9999 FEW050CB BKN100 30/09 Q1013 WS RWY05
88CLRD65 TEMPO TS=
METAR UACC 080830Z 30005MPS 250V360 CAVOK 23/03 Q1010 220/0070 NOSIG
RMK QFE726/0968=
METAR UAKK 080830Z 28003MPS 200V340 CAVOK 24/03 Q1011 230///70 NOSIG
RMK QFE711/0949=
METAR UAOO 080830Z NIL=
METAR UARR 080830Z NIL=
METAR UATE 080830Z 30005MPS 270V330 CAVOK 35/17 Q1010 300///70 NOSIG
RMK QFE756/1008=
METAR UATG 080830Z 34006G09MPS CAVOK 38/10 Q1009 32CLRD70 NOSIG RMK
QFE759/1012 =
METAR UATT 080830Z 06010MPS 9999 NSC 32/04 Q1010 13CLRD70 NOSIG RMK
QFE738/0984=
METAR UAUU 080830Z 34006G12MPS CAVOK 25/M01 Q1013 33CLRD70 NOSIG RMK
QFE744/0992=
####018000102####
SAKY31 RUMS 080830
METAR UAFM 080830Z 32003MPS CAVOK 34/06 Q1013 NOSIG=
METAR UAFO 080830Z NIL=
####018000191####
SATR31 RUMS 080830
METAR UTAA 080830Z 11005MPS 060V150 9999 SKC 44/02 Q1008 NOSIG=
METAR UTAK 080830Z NIL=
METAR UTAM 080830Z NIL=
METAR UTAT 080830Z NIL=
METAR UTAV 080830Z NIL=
####018000088####
SPUS81 KWBC 080836
SPECI
KFNB 080833Z AUTO 34003KT 7SM BKN021 OVC120 22/21 A3008=
####018000741####
SACI31 ZBBB 080830
METAR ZBAA 080830Z 14003MPS 080V190 CAVOK 36/11 Q1003 NOSIG=
ZBSJ NIL=
METAR ZBTJ 080830Z 15007MPS CAVOK 32/18 Q1004 NOSIG=
METAR ZBYN 080830Z 11004MPS 080V150 CAVOK 31/12 Q1007 NOSIG=
METAR ZGGG 080830Z 15005MPS 9999 FEW050TCU SCT050 36/26 Q1004 NOSIG=
METAR ZSHC 080830Z VRB01MPS 5000 -SHRA BR SCT023 FEW033CB 28/23
 Q1004 TEMPO
 TSRA SCT033CB=
METAR ZSPD 080830Z 11006MPS 9999 BKN016 27/24 Q1005 NOSIG=
METAR ZSSS 080830Z 11004MPS 070V130 9999 SCT026 29/22 Q1005 NOSIG=
ZWSH NIL=
METAR ZWWW 080830Z 02004MPS 340V060 9999 FEW050CB 32/06 Q1010 NOSIG=
METAR ZYTL 080830Z 31005MPS 270V330 9999 SCT033 28/19 Q1006 NOSIG=
METAR ZYTX 080830Z 35002MPS 310V120 9999 FEW030TCU 25/18 Q1005
 NOSIG=
####018000151####
SAXX70 KAWN 080800 RRS
METAR KQFW 080820Z AUTO 26004KT 7SM CLR 28/18 A2987 RMK A02=
METAR KQEX 080830Z AUTO 07001KT 7SM CLR 29/17 A2972 RMK A02=
####018000732####
SAZZ40 KAWN 080800 RRS
METAR BIKF 080830Z 02023KT 9999 FEW017 SCT030 BKN080 09/04 Q0993=
METAR LKKV 080830Z VRB01KT CAVOK 20/11 Q1024 RMK REG QNH 1021=
METAR LQBK 080830Z 32004KT 9999 FEW033 21/11 Q1022 NOSIG=
METAR OIFM 080825Z 15010KT CAVOK 37/04 Q1017 A3005=
METAR OIII 080830Z 11010KT CAVOK 38/M03 Q1014 A2996 879/6=
METAR OIMM 080830Z 06012KT CAVOK 38/M02 Q1015 A2997=
METAR OISS 080830Z 06008KT CAVOK 37/07 Q1014 A2996=
METAR OITT 080830Z 11014KT CAVOK 34/02 Q1015 A2999=
METAR OIZH 080830Z 34008KT CAVOK 36/M05 Q1013 A2994=
METAR TFFF 080830Z AUTO 07013KT 040V100 9999NDV FEW012/// SCT034///
      28/24 Q1013=
METAR WSSS 080830Z 21003KT 170V260 9999 FEW017 SCT150 BKN270 29/25
      Q1008 NOSIG=
####018000080####
SACN88 CWAO 080831
WDA SA 0831 AUTO8 M M M 201/07/07/1005/M/M 6009 22MM=

####018000075####
SACN95 CWAO 080831
WTM SA 0831 AUTO8 M M M M/10/09/1906/M/M M 86MM=

####018002045####
SAUS20 KNKA 080836
METAR K0A9 080835Z AUTO 00000KT 7SM BKN080 20/18 A3011 RMK=
METAR K2G4 080835Z AUTO 00000KT 10SM SCT070 23/13 A3019 RMK
     AO1=
METAR K2W6 080834Z AUTO 00000KT 5SM CLR 24/23 A2999 RMK AO1=
SPECI KARB 080835Z AUTO 00000KT 2 1/2SM BR CLR 21/19 A3003 RMK AO2=
METAR KBBG 080835Z AUTO 00000KT 3SM BR CLR 22/22 A3006 RMK AO2 =
METAR KBBP 080835Z AUTO 28003KT 10SM CLR 23/20 A2995 RMK AO2=
METAR KBKN 080835Z AUTO 09003KT 10SM SCT060 22/22 A3004 RMK AO2 =
METAR KCBE 080835Z AUTO 00000KT 7SM CLR 21/18 A3010 RMK AO1=
METAR KCGE 080832Z AUTO 11003KT 3SM 25/24 A2999 RMK AO1 SKY
     OBSCURED=
METAR KCGS 080840Z AUTO 00000KT 7SM CLR 26/23 A2999 RMK AO1=
METAR KCIC 080835Z AUTO 20006KT 10SM CLR 24/16 A2981 RMK AO1 =
METAR KCMR 080835Z AUTO 16006KT 10SM FEW100 16/01 A3025 RMK AO1 =
METAR KFDK 080828Z AUTO 00000KT 5SM HZ SCT100 24/22 A3002 RMK
     AO2=
METAR KDMW 080834Z AUTO 00000KT 7SM CLR 26/21 A3004 RMK AO2=
SPECI KELZ 080835Z AUTO 00000KT 1/2SM FG CLR 19/18 A3016 RMK AO2=
METAR KESN 080839Z AUTO 00000KT 3SM BR CLR 23/23 A3002 RMK AO2=
METAR KFME 080836Z AUTO 00000KT 4SM CLR 20/20 A3001 RMK AO1=
METAR KFMH 080835Z AUTO 16008KT 5SM BR OVC002 21/21 A3008 RMK AO2 
     =
METAR KGGE 080835Z AUTO 27006KT 10SM CLR 24/22 A2994 RMK AO2=
METAR KHVS 080835Z AUTO 00000KT 10SM CLR 25/19 A2997 RMK AO2=
METAR KIFP 080835Z AUTO 00000KT 10SM CLR 31/M02 A2972 RMK AO2 =
SPECI KIRK 080835Z AUTO 00000KT 1 3/4SM BR CLR 19/19 A3006 RMK AO2 
    VIS 1V5=
METAR KMAO 080835Z AUTO 28004KT 10SM CLR 25/19 A2993 RMK AO2=
METAR KMTN 080836Z AUTO 00000KT 7SM CLR 26/23 A3000 RMK AO2=
METAR KNQA 080835Z AUTO 00000KT 10SM CLR 24/23 A3006 RMK=
METAR KRCE 080835Z AUTO 36003KT 7SM FEW050 22/22 A3006 RMK AO2 =
METAR KSMS 080835Z AUTO 27003KT 10SM CLR 25/18 A2997 RMK AO2 =
METAR KVQQ 080835Z AUTO 00000KT 8SM CLR 18/18 A3000 RMK AO2 =
METAR KW29 080835Z AUTO 00000KT 5SM CLR 23/22 A2999 RMK AO1=
METAR KX40 080835Z AUTO 00000KT 7SM CLR 22/22 A3000 RMK AO2 
     T02230216=
####018000103####
SPBZ24 SBFI 080836
SPECI SBFI 080836Z 18004KT 3000 1000S R14/P2000 BR FEW020 SCT100
15/14 Q1015=
####018000234####
SPUS99 KWBC 080837
SPECI
KARB 080835Z AUTO 00000KT 2 1/2SM BR CLR 21/19 A3003 RMK AO2=
KELZ 080835Z AUTO 00000KT 1/2SM FG CLR 19/18 A3016 RMK AO2=
KIRK 080835Z AUTO 00000KT 1 3/4SM BR CLR 19/19 A3006 RMK AO2 VIS
     1V5=
####018002792####
SAUS99 KWBC 080837
METAR
K20V 080836Z AUTO 00000KT 10SM SCT021 08/05 A3042 RMK AO2=
K4BM 080833Z AUTO 00000KT 10SM 05/03 A3064 RMK AO2=
K5SM 080833Z AUTO 00000KT 10SM SCT050 SCT065 BKN085 08/03 A3056
     RMK AO2=
K7BM 080836Z AUTO 00000KT 10SM OVC028 10/06 A3056 RMK AO2=
KBDU 080837Z AUTO 20007KT 10SM CLR 16/12 A3030 RMK AO2=
KBJC 080837Z AUTO 18003KT 4SM BR CLR 13/12 A3033 RMK AO2=
KCCU 080836Z AUTO 18017KT 10SM BKN085 07/02 A3064 RMK AO2=
KGTU 080835Z 06003KT 8SM BKN014 BKN020 OVC026 25/22 A3001 RMK
     AO1=
KHYI 080835Z AUTO 04005KT 10SM SCT011 OVC018 25/24 A2995 RMK
     AO1=
KILE 080835Z 10006KT 10SM SCT012 BKN028 OVC065 24/22 A2997 RMK
     AO1=
KMYP 080736Z AUTO 07010KT M1/4SM +SN OVC001 03/03 A3075 RMK
     AO2=
KOCH 080835Z AUTO 10005KT 10SM CLR 24/19 A3000 RMK AO1=
KPRX 080835Z 13005KT 8SM BKN015 24/22 A3002 RMK AO1=
KPWG 080835Z AUTO 11003KT 10SM BKN013 OVC120 25/22 A2999 RMK
     AO1=
KTEX 080833Z AUTO 08003KT 10SM CLR 12/04 A3045 RMK AO2=
KTPL 080835Z 10004KT 10SM OVC019 24/23 A2998 RMK AO1=
KVTP 080840Z AUTO 08010KT 1/4SM OVC001 06/05 A3056 RMK AO2=
KWYS 080830Z AUTO 00000KT 10SM CLR 03/00 A3035 RMK AO2=
K0A9 080835Z AUTO 00000KT 7SM BKN080 20/18 A3011 RMK=
K2G4 080835Z AUTO 00000KT 10SM SCT070 23/13 A3019 RMK AO1=
K2W6 080834Z AUTO 00000KT 5SM CLR 24/23 A2999 RMK AO1=
KBBG 080835Z AUTO 00000KT 3SM BR CLR 22/22 A3006 RMK AO2=
KBBP 080835Z AUTO 28003KT 10SM CLR 23/20 A2995 RMK AO2=
KBKN 080835Z AUTO 09003KT 10SM SCT060 22/22 A3004 RMK AO2=
KCBE 080835Z AUTO 00000KT 7SM CLR 21/18 A3010 RMK AO1=
KCGE 080832Z AUTO 11003KT 3SM 25/24 A2999 RMK AO1 SKY OBSCURED=
KCGS 080840Z AUTO 00000KT 7SM CLR 26/23 A2999 RMK AO1=
KCIC 080835Z AUTO 20006KT 10SM CLR 24/16 A2981 RMK AO1=
KCMR 080835Z AUTO 16006KT 10SM FEW100 16/01 A3025 RMK AO1=
KFDK 080828Z AUTO 00000KT 5SM HZ SCT100 24/22 A3002 RMK AO2=
KDMW 080834Z AUTO 00000KT 7SM CLR 26/21 A3004 RMK AO2=
KESN 080839Z AUTO 00000KT 3SM BR CLR 23/23 A3002 RMK AO2=
KFME 080836Z AUTO 00000KT 4SM CLR 20/20 A3001 RMK AO1=
KFMH 080835Z AUTO 16008KT 5SM BR OVC002 21/21 A3008 RMK AO2=
KGGE 080835Z AUTO 27006KT 10SM CLR 24/22 A2994 RMK AO2=
KHVS 080835Z AUTO 00000KT 10SM CLR 25/19 A2997 RMK AO2=
KIFP 080835Z AUTO 00000KT 10SM CLR 31/M02 A2972 RMK AO2=
KMAO 080835Z AUTO 28004KT 10SM CLR 25/19 A2993 RMK AO2=
KMTN 080836Z AUTO 00000KT 7SM CLR 26/23 A3000 RMK AO2=
KNQA 080835Z AUTO 00000KT 10SM CLR 24/23 A3006 RMK=
KRCE 080835Z AUTO 36003KT 7SM FEW050 22/22 A3006 RMK AO2=
KSMS 080835Z AUTO 27003KT 10SM CLR 25/18 A2997 RMK AO2=
KVQQ 080835Z AUTO 00000KT 8SM CLR 18/18 A3000 RMK AO2=
KW29 080835Z AUTO 00000KT 5SM CLR 23/22 A2999 RMK AO1=
KX40 080835Z AUTO 00000KT 7SM CLR 22/22 A3000 RMK AO2
     T02230216=
####018000171####
SAAY31 RUMS 080830
METAR UDYZ 080830Z 22003MPS 170V290 9999 SKC 33/14 Q1011 09010070
NOSIG=
METAR UDSG 080830Z 08003MPS 020V170 9999 NSC 29/13 Q1016 02CLRD70
NOSIG=
####018000078####
SAUK34 EGGY 080820 RRC
METAR EGHK 080820Z 14003KT 9999 FEW020 17/15 Q1018=
####018000677####
SAKZ31 RUMS 080830
METAR UAAA 080830Z 36004MPS 9999 FEW050CB BKN100 30/09 Q1013 WS RWY05
88CLRD65 TEMPO TS=
METAR UACC 080830Z 30005MPS 250V360 CAVOK 23/03 Q1010 220/0070 NOSIG
RMK QFE726/0968=
METAR UAKK 080830Z 28003MPS 200V340 CAVOK 24/03 Q1011 230///70 NOSIG
RMK QFE711/0949=
METAR UAOO 080830Z NIL=
METAR UARR 080830Z NIL=
METAR UATE 080830Z 30005MPS 270V330 CAVOK 35/17 Q1010 300///70 NOSIG
RMK QFE756/1008=
METAR UATG 080830Z 34006G09MPS CAVOK 38/10 Q1009 32CLRD70 NOSIG RMK
QFE759/1012 =
METAR UATT 080830Z 06010MPS 9999 NSC 32/04 Q1010 13CLRD70 NOSIG RMK
QFE738/0984=
METAR UAUU 080830Z 34006G12MPS CAVOK 25/M01 Q1013 33CLRD70 NOSIG RMK
QFE744/0992=
####018000101####
SPBZ24 SBFI 080836
SPECI SBFI 080836Z 18004KT 3000 1000S R14/P2000 BR FEW020 SCT100
15/14 Q1015=
####018000086####
SANL33 EHDB 080825 RRA
METAR EHJR 080825Z AUTO 25017G18KT //// 16/15 Q1018 W15/S3=
####018000072####
SASW32 LSSW 080820 RRA
METAR LSZS 080820Z 22008KT CAVOK 19/11 Q1027=
####018000086####
SANL33 EHDB 080825 RRC
METAR EHSA 080825Z AUTO 24009G12KT 9999 16/15 Q1019 W16/S2=
####018000336####
SAAL31 DAAA 080830
METAR DAAG 080830Z 22003KT 190V290 CAVOK 30/17 Q1018=
METAR DAAT 080830Z NIL=
METAR DABB 080830Z 01003KT CAVOK 29/16 Q1019=
METAR DABC 080830Z 00000KT CAVOK 26/11 Q1023=
METAR DAON 080830Z 00000KT CAVOK 33/19 Q1017=
METAR DAOO 080830Z 36008KT CAVOK 29/21 Q1016=
METAR DAUH 080830Z 10012KT CAVOK 33/21 Q1018=
####018000100####
SAKY31 RUMS 080830
METAR UAFM 080830Z 32003MPS CAVOK 34/06 Q1013 NOSIG=
METAR UAFO 080830Z NIL=
####018000186####
SATR31 RUMS 080830
METAR UTAA 080830Z 11005MPS 060V150 9999 SKC 44/02 Q1008 NOSIG=
METAR UTAK 080830Z NIL=
METAR UTAM 080830Z NIL=
METAR UTAT 080830Z NIL=
METAR UTAV 080830Z NIL=
####018000756####
SAUR31 UKMS 080830
METAR UKLR 080830Z 31003MPS 270V340 9999 BKN024
         BKN100  19/15 Q1018 30090070 NOSIG=
METAR UKLI 080830Z 29002MPS 250V330 9999 -SHRA
         BKN010CB BKN020 15/14 Q1020 28290565 NOSIG=
METAR UKON 080830Z 34003MPS 300V030 9999 FEW033
         OVC200  26/19 Q1013 05090075 NOSIG=
METAR UKCM 080830Z 13004MPS 070V160 CAVOK 28/17 Q1014
          02010065 NOSIG=
METAR UKCW 080830Z 07002MPS 350V130 9999 BKN040 29/15
          Q1014 2709//70 NOSIG=
METAR UKLU NIL=
METAR UKKK 080830Z 29003MPS 9999 BKN015 22/18 Q1015
         26CLRD70  NOSIG=
METAR UKKM 080830Z 30002MPS 9000 BKN030 22/18 Q1014
         33CLRD70  NOSIG=
METAR UKLN 080830Z 30006MPS 240V330 9999 BKN012
         BKN033CB 16/14 Q1019 3309//70 NOSIG=
####018000086####
SANL33 EHDB 080825 RRB
METAR EHSC 080825Z AUTO 25010G10KT 9999 17/14 Q1019 W///S2=
####018000083####
SPAK32 KWBC 080837
SPECI
PAEH SP 0835 AWOS 9 SCT M18 OVC 10 48/-20/0000/000=
####018000070####
SPAK32 KWBC 080837
SPECI
PACZ SP 0835 AWOS MM 7 50/48/0404/008=
####018000207####
SPAU31 KWBC 080837
SPECI
YSSY 080830Z 21015KT 5000 SHRA FEW008 SCT020 BKN050 13/12 Q1026
RMK VIS REDUCED TO EAST AND SOUTH FM0830 19015KT 9999 -SHRA SCT025
BKN040 INTER 0830/1130 5000 SHRA BKN010=
####018000080####
SPAK32 KWBC 080837
SPECI
PALU SP 0835 AWOS CLR BLO 120 10 55/34/2220/010=
####018000080####
SPAK32 KWBC 080837
SPECI
PAIM SP 0835 AWOS CLR BLO 120 10 58/45/3203/009=
####018000076####
SPAK32 KWBC 080837
SPECI
PASY 080833Z AUTO 02015KT 10SM OVC006 A2974=
####018000080####
SPAK32 KWBC 080837
SPECI
PATL SP 0835 AWOS CLR BLO 120 10 61/43/0305/000=
####018000080####
SPPA41 KWBC 080837
SPECI
PGUA 080833Z AUTO 08012KT 10SM SCT018 27/ A2988=
####018000116####
SPJP41 KWBC 080837
SPECI
RJCO 080830Z 31006KT 9999 -SHRA FEW007 BKN011 19/18 Q1009 RMK
1ST007 7ST011 A2982=
####018000084####
SPCN52 CWAO 080829
SPECI CWSA 080829Z AUTO 23006KT 1/8SM BKN005 16/16 A3018=

####018000091####
SPCN52 CWAO 080832
SPECI CWSA 080832Z AUTO 22006KT 1/8SM BKN001 OVC005 16/16 A3018=

####018000122####
SPPA31 KWBC 080837
SPECI
PGUA 080833Z AUTO 08012KT 10SM SCT018 27/ A2988 RMK AO2 SCT V BKN
SLP098 VISNO RWY24L $=
####018000098####
SALI20 GLRB 080830
METAR GLRB 080830Z 04003KT 9999 SCT013 FEW024CB BKN100 25/23
 Q1015 CB-SW=
####018000276####
SAPO32 LPMG 080830
METAR LPAZ 080830Z 28003KT 9999 FEW008 BKN016 BKN030 19/18 Q1024=
METAR LPFL 080830Z 21003KT 190V250 9999 SCT023 BKN045 22/17 Q1022=
METAR LPHR 080830Z 19003KT 9999 SCT015 SCT035 22/18 Q1023=
METAR LPPD 080830Z 27005KT 9999 FEW017 BKN027 20/15 Q1024=
####018000726####
SACI31 ZBBB 080830
METAR ZBAA 080830Z 14003MPS 080V190 CAVOK 36/11 Q1003 NOSIG=
ZBSJ NIL=
METAR ZBTJ 080830Z 15007MPS CAVOK 32/18 Q1004 NOSIG=
METAR ZBYN 080830Z 11004MPS 080V150 CAVOK 31/12 Q1007 NOSIG=
METAR ZGGG 080830Z 15005MPS 9999 FEW050TCU SCT050 36/26 Q1004 NOSIG=
METAR ZSHC 080830Z VRB01MPS 5000 -SHRA BR SCT023 FEW033CB 28/23
 Q1004 TEMPO
 TSRA SCT033CB=
METAR ZSPD 080830Z 11006MPS 9999 BKN016 27/24 Q1005 NOSIG=
METAR ZSSS 080830Z 11004MPS 070V130 9999 SCT026 29/22 Q1005 NOSIG=
ZWSH NIL=
METAR ZWWW 080830Z 02004MPS 340V060 9999 FEW050CB 32/06 Q1010 NOSIG=
METAR ZYTL 080830Z 31005MPS 270V330 9999 SCT033 28/19 Q1006 NOSIG=
METAR ZYTX 080830Z 35002MPS 310V120 9999 FEW030TCU 25/18 Q1005
 NOSIG=
####018000115####
SAIY42 LIIB 080800 RRA
METAR LIRX 080755Z 09004KT CAVOK 23/10 Q1018 RMK SKC VIS MIN 9999E
      VIS MAR 20 KM=
####018000072####
SAAL31 DAAA 080830 RRA
METAR DAAT 080830Z 13017KT CAVOK 31/02 Q1022=
####018000161####
SANM40 FYWW 080830
METAR FYWB 080830Z 09021KT 9999 R09/M0050VP1500U VV/// 29/04 Q1018 =
METAR FYWB 080830Z 09021KT 9999 R09/M0050VP1500U VV/// 29/04 Q1018 =
####018000120####
SPUS41 KWBC 080837
SPECI
KWRI 080832Z AUTO 00000KT M1/4SM R18/0500V1000FT R24/0600V2000FT
FG VV001 24/24 A2999=
####018000082####
SPUS42 KWBC 080837
SPECI
KLRD 080833Z AUTO 00000KT 10SM BKN012 26/25 A2989=
####018000993####
SAAE31 VTBB 080830
METAR VTBS 080830Z 27010G21KT 7000 -TSRA FEW020CB SCT035 BKN120
           30/24 Q1006 TS OVER AD  BECMG FM0845 8000 RA=
METAR VTBD 080830Z 27007KT 9999 FEW020CB BKN300 35/22 Q1005 CB SE
           NOSIG=
METAR VTCC 080830Z 23010KT 9999 FEW025CB SCT300 34/21 Q1007 A2975
           CB NE,SW=
METAR VTBU 080830Z 34004KT 9999 FEW020CB BKN300 34/25 Q1007 A2974
           CB NW=
METAR VTSS 080830Z 19005KT 9999 FEW016CB SCT020 34/21 Q1007 A2975
           CB OVER AD=
METAR VTSP 080830Z NIL=
METAR VLVT 080830Z NIL=
METAR VYYY 080830Z NIL=
METAR VVTS 080830Z VRB03KT 9999 -SHRA FEW015TCU SCT017 33/24 Q1006
           TEMPO                 TL0900 5000 SHRA=
METAR VVNB 080830Z NIL=
METAR VDPP 080830Z 18008KT 9999 SCT015 FEW017CB 34/22 Q1005 CB:E NW
           SW=
METAR VVDN 080830Z NIL=
METAR VYMD 080830Z NIL=
METAR VDSR 080830Z 32004KT 270V010 9999 SCT015 FEW018CB SCT040
           34/23 Q1004 CB:E=
METAR VVPB 080830Z NIL=
####018000082####
SPUS72 KWBC 080837
SPECI
KLRD 080833Z AUTO 00000KT 10SM BKN012 26/25 A2989=
####018000773####
SAUR31 UKMS 080830
METAR UKLR 080830Z 31003MPS 270V340 9999 BKN024
         BKN100  19/15 Q1018 30090070 NOSIG=
METAR UKLI 080830Z 29002MPS 250V330 9999 -SHRA
         BKN010CB BKN020 15/14 Q1020 28290565 NOSIG=
METAR UKON 080830Z 34003MPS 300V030 9999 FEW033
         OVC200  26/19 Q1013 05090075 NOSIG=
METAR UKCM 080830Z 13004MPS 070V160 CAVOK 28/17 Q1014
          02010065 NOSIG=
METAR UKCW 080830Z 07002MPS 350V130 9999 BKN040 29/15
          Q1014 2709//70 NOSIG=
METAR UKLU NIL=
METAR UKKK 080830Z 29003MPS 9999 BKN015 22/18 Q1015
         26CLRD70  NOSIG=
METAR UKKM 080830Z 30002MPS 9000 BKN030 22/18 Q1014
         33CLRD70  NOSIG=
METAR UKLN 080830Z 30006MPS 240V330 9999 BKN012
         BKN033CB 16/14 Q1019 3309//70 NOSIG=
####018000117####
SAIY42 LIIB 080800 RRA
METAR LIRX 080755Z 09004KT CAVOK 23/10 Q1018 RMK SKC VIS MIN 9999E
      VIS MAR 20 KM=
####018000079####
SACN60 CWAO 080700 RRG
PLG SA 0700 AUTO8 M M M M/13/10/0303/M/M M 26MM=

####018000083####
SACN63 CWAO 080800 RRD
ZSM SA 0800 AUTO8 M M M 130/11/08/2302/M/ 6005 89MM=

####018000078####
SACN90 CWAO 080800 RRD
WGF SA 0800 AUTO8 M M M M/13/13/0000/M/ M 22MM=

####018000083####
SACN89 CWAO 080800 RRD
WDK SA 0800 AUTO8 M M M 228/09/07/0901/M/ 0002 22MM=

####018001169####
SACN60 CWAO 080800 RRB
PAF SA 0800 AUTO8 M M M M/16/10/MMMM/M/ M 79MM=
PBB SA 0800 AUTO8 M M M M/13/10/MMMM/M/ M 32MM=
PBN SA 0800 AUTO8 M M M M/16/12/2807/M/0008 PCPN 0.8MM PAST HR PK
WND 2918 0734Z M 25MM=
PDB SA 0800 AUTO8 M M M M/14/11/MMMM/M/ M 68MM=
PEL SA 0800 AUTO8 M M M M/18/11/3212/M/ PK WND 2920 0751Z M 69MM=
PFA SA 0800 AUTO8 M M M M/10/10/MMMM/M/ M 28MM=
PFB SA 0800 AUTO8 M M M M/12/10/MMMM/M/ M 87MM=
PGC SA 0800 AUTO8 M M M M/15/11/1803/M/ M 40MM=
PHA SA 0800 AUTO8 M M M M/11/10/MMMM/M/0007 PCPN 0.7MM PAST HR M
08MM=
PHW SA 0800 AUTO8 M M M M/16/11/2303/M/ M 72MM=
PJT SA 0800 AUTO8 M M M M/14/10/1102/M/0004 M 00MM=
PLC SA 0800 AUTO8 M M M M/15/14/3603/M/ M 28MM=
PLG SA 0800 AUTO8 M M M M/11/09/0303/M/M M 86MM=
PNS SA 0800 AUTO8 M M M M/12/10/MMMM/M/ M 78MM=
PRF SA 0800 AUTO8 M M M M/17/12/0306/M/ M 97MM=
PRW SA 0800 AUTO8 M M M M/13/11/MMMM/M/ M 57MM=
PSH SA 0800 AUTO8 M M M M/12/11/MMMM/M/ M 07MM=
PSW SA 0800 AUTO8 M M M M/14/10/2902/M/ M 18MM=
PTA SA 0800 AUTO8 M M M M/15/10/MMMM/M/ M 93MM=
PTC SA 0800 AUTO8 M M M M/13/10/MMMM/M/ M 02MM=
PWT SA 0800 AUTO8 M M M M/12/10/MMMM/M/ M 82MM=

####018000078####
SACN94 CWAO 080800 RRE
WQQ SA 0800 AUTO8 M M M M/11/10/1704/M/ M 23MM=

####018000083####
SACN91 CWAO 080800 RRD
WIJ SA 0800 AUTO8 M M M 143/09/07/3207/M/ 3003 24MM=

####018000328####
SACN59 CWAO 080800 RRF
PAH SA 0800 AUTO8 M M M M/11/10/MMMM/M/ M 32MM=
PBV SA 0800 AUTO8 M M M M/11/09/MMMM/M/ M 05MM=
PGL SA 0800 AUTO8 M M M M/11/10/2006/M/ M 28MM=
PTH SA 0800 AUTO8 M M M M/13/10/MMMM/M/ M 50MM=
PVA SA 0800 AUTO8 M M M M/12/12/MMMM/M/ M 45MM=
XHP SA 0800 AUTO8 M M M M/13/10/1604/M/ M 33MM=

####018000193####
SACN88 CWAO 080800 RRE
ABF SA 0800 AUTO8 M M M 212/12/12/1009/M/ 2004 85MM=
AQY SA 0800 AUTO8 M M M 193/17/16/2208/M/ 3001 65MM=
WDA SA 0800 AUTO8 M M M 204/07/07/1004/M/ 5005 11MM=

####018000083####
SACN93 CWAO 080800 RRE
WOI SA 0800 AUTO8 M M M 182/08/06/2202/M/ 3013 07MM=

####018000078####
SACN96 CWAO 080800 RRF
XFV SA 0800 AUTO8 M M M M/16/15/0000/M/ M 87MM=

####018000087####
SACN78 CWAO 080800 RRD
WKK SA 0800 AUTO8 M M M 145/17/16/2106/M/0009 8013 23MM=

####018000194####
SACN95 CWAO 080800 RRD
WTM SA 0800 AUTO8 M M M 223/10/09/1904/M/M 3006 86MM=
WTX SA 0800 AUTO8 M M M 145/18/14/2508/M/ 8002 87MM=
WXA SA 0800 AUTO8 M M M 233/05/04/0000/M/ 1001 07MM=

####018000078####
SACN98 CWAO 080800 RRF
XCD SA 0800 AUTO8 M M M M/14/11/0102/M/ M 63MM=

####018000088####
SAIN32 VIDP 080800 RRA
METAR VIJP 080800Z VRB04KT 3500 HZ SCT030 35/24 Q1006 NOSIG=
####018000116####
SAAE31 VTBB 080830 RRA
METAR VVDN 080830Z 11010KT 070V140 9999 FEW017TCU SCT300 34/21
           Q1006 NOSIG=
####018000087####
SANL33 EHDB 080825 RRC
METAR EHSA 080825Z AUTO 24009G12KT 9999 16/15 Q1019 W16/S2=
####018000100####
SALI20 GLRB 080830
METAR GLRB 080830Z 04003KT 9999 SCT013 FEW024CB BKN100 25/23
 Q1015 CB-SW=
####018000087####
SANL33 EHDB 080825 RRA
METAR EHJR 080825Z AUTO 25017G18KT //// 16/15 Q1018 W15/S3=
####018000087####
SANL33 EHDB 080825 RRB
METAR EHSC 080825Z AUTO 25010G10KT 9999 17/14 Q1019 W///S2=
####018000073####
SAAL31 DAAA 080830 RRA
METAR DAAT 080830Z 13017KT CAVOK 31/02 Q1022=
####018000079####
SAFR35 LFPW 080830 RRA
METAR LFST 080834Z VRB02KT CAVOK 25/12 Q1020 NOSIG=
####018000343####
SAAL31 DAAA 080830
METAR DAAG 080830Z 22003KT 190V290 CAVOK 30/17 Q1018=
METAR DAAT 080830Z NIL=
METAR DABB 080830Z 01003KT CAVOK 29/16 Q1019=
METAR DABC 080830Z 00000KT CAVOK 26/11 Q1023=
METAR DAON 080830Z 00000KT CAVOK 33/19 Q1017=
METAR DAOO 080830Z 36008KT CAVOK 29/21 Q1016=
METAR DAUH 080830Z 10012KT CAVOK 33/21 Q1018=
####018000492####
SAJP51 RJTD 080830
METAR RJAA 080830Z 21007KT 170V240 9999 FEW025 BKN/// 28/22 Q1009
           NOSIG=
METAR RJBB 080830Z 24010KT 9999 FEW025 BKN/// 28/23 Q1007 NOSIG=
METAR RJCC 080830Z 16006KT 140V210 1700 -DZ BR BKN002 18/17 Q1009=
METAR RJFF 080830Z 30008KT 8000 NSC 27/20 Q1007=
METAR RJGG 080830Z 17012KT 9999 FEW015 BKN/// 26/23 Q1008 NOSIG=
METAR RJTT 080830Z 18018KT 9999 FEW030 BKN/// 27/22 Q1009=
METAR ROAH 080830Z 20013KT 9999 FEW010 SCT100 BKN/// 29/26 Q1009=
####018000719####
SPNA14 KAWN 080837 RRD
SPECI KEGI 080831Z AUTO 00000KT 2 1/2SM R18/2400V5500FT BR CLR 22/22
      A3002 RMK AO2 SLP165 $=
SPECI KEGI 080834Z AUTO 00000KT 2SM R18/1600V5500FT BR CLR 22/21 A3002
      RMK AO2 SLP165 $=
SPECI KEGI 080835Z AUTO 00000KT 1 3/4SM R18/1600V5500FT BR CLR 22/22
      A3002 RMK AO2 SLP165 $=
SPECI KNSE 080823Z AUTO 00000KT 1/2SM FG CLR 23/21 A3002 RMK AO2 $=
SPECI KNSE 080829Z AUTO 00000KT 1/2SM FG VV004 23/21 A3002 RMK AO2
      $=
SPECI KWRI 080831Z AUTO 00000KT 1/4SM R18/0500V1800FT R24/0600V2200FT
      FG VV002 24/24 A2999 RMK AO2 SLP155 $=
SPECI KWRI 080832Z AUTO 00000KT M1/4SM R18/0500V1000FT R24/0600V2000FT
      FG VV001 24/24 A2999 RMK AO2 SLP155 $=
####018000116####
SANA35 KAWN 080800 RRH
METAR TFFF 080830Z AUTO 07013KT 040V100 9999NDV FEW012/// SCT034///
      28/24 Q1013=
####018002788####
SAAK41 KNKA 080837
METAR PAAK 080836Z AUTO 08020G25KT 10SM SCT011 BKN020 OVC075 07/04 
    A2963 RMK AO1 PNO=
METAR PABL 080836Z AUTO 32005KT 10SM CLR 11/07 A3016 RMK AO1 PNO=
METAR PABV 080836Z AUTO 00000KT 10SM SCT085 BKN120 13/08 RMK AO1 PNO=
METAR PADK 080836Z 07013KT 6SM BKN020 BKN028 OVC037 07/06 A2959 RMK 
    AO1 PNO=
METAR PADL 080836Z 32007KT 10SM SCT120 11/07 A2998 RMK AO1 PNO TSNO=
METAR PAEM 080836Z AUTO 36003KT 10SM BKN110 12/08 A3005 RMK AO1 PNO=
METAR PAFE 080836Z AUTO 06003KT 10SM CLR 11/09 A3018 RMK AO1 PNO=
METAR PAFM 080836Z AUTO 35004KT 10SM CLR 16/09 A3011 RMK AO1 PNO=
METAR PAGL 080836Z AUTO 10SM FEW075 RMK AO1 PNO=
METAR PAGS 080836Z AUTO 00000KT 10SM CLR 11/09 A3019 RMK AO1 PNO=
METAR PAHP 080836Z AUTO 02007KT 10SM FEW032 BKN075 OVC085 12/09 
    A3007 RMK AO1 PNO TSNO=
METAR PAHY 080836Z AUTO 03003KT 10SM CLR 17/11 A3011 RMK AO1 PNO=
METAR PAII 080836Z AUTO 36004KT 10SM OVC055 11/08 A2997 RMK AO1 PNO=
METAR PAIN 080836Z AUTO 00000KT 10SM CLR 11/07 A3008 RMK AO1 PNO=
METAR PAJC 080836Z AUTO 00000KT 10SM BKN017 OVC025 08/04 A2995 RMK 
    AO1 PNO=
METAR PAKK 080836Z AUTO 01012G16KT 10SM FEW085 15/08 A3005 RMK AO1 
    PNO=
METAR PAKP 080836Z AUTO 04004KT 10SM BKN037 OVC050 11/04 A3011 RMK 
    AO1=
METAR PAMD 080836Z AUTO 09021G27KT 8SM BKN014 OVC023 09/08 A3001 RMK 
    AO1 PNO=
METAR PAMH 080836Z 00000KT 10SM CLR 16/06 A3000 RMK AO1 PNO=
METAR PAMM 080836Z AUTO 00000KT 10SM CLR 19/11 A3009 RMK AO1 PNO=
METAR PAMY 080836Z 28006KT 1/2SM OVC001 06/04 A3007 RMK AO1=
METAR PANI 080836Z AUTO 00000KT 10SM BKN090 12/09 A3001 RMK AO1 PNO=
METAR PANV 080836Z AUTO 28005KT 10SM BKN075 OVC085 14/07 A3001 RMK 
    AO1 PNO=
METAR PAPG 080836Z 03004KT 10SM CLR 13/09 A3014 RMK AO1 
      PNO=
METAR PAPH 080836Z AUTO 05005KT 1SM CLR 05/04 A2997 RMK AO1 PNO=
METAR PARC 080836Z AUTO 14004KT 10SM CLR 11/02 A3003 RMK AO1 PNO=
METAR PASA 080836Z AUTO 07004KT 10SM CLR 07/04 A3020 RMK AO1 PNO=
METAR PASD 080836Z AUTO 00000KT 10SM OVC048 08/05 A2996 RMK AO1 PNO=
METAR PASH 080836Z AUTO 00000KT 10SM CLR 08/05 A3019 RMK AO1 PNO=
METAR PASK 080836Z 29005KT 10SM CLR 14/07 A3011 RMK AO1 PNO=
METAR PASL 080836Z AUTO 00000KT 10SM BKN110 14/07 A3001 RMK AO1 PNO=
METAR PASM 080836Z AUTO 00000KT 10SM OVC075 10/07 A3007 RMK AO1 PNO=
METAR PAUN 080836Z AUTO 08003KT 10SM CLR 13/06 A3002 RMK AO1 PNO=
METAR PAVD 080836Z 00000KT 10SM BKN090 OVC100 11/08 A3010 RMK AO1 
      PNO=
METAR PAWG 080836Z AUTO 25005KT 10SM CLR 13/11 A3013 RMK AO1 PNO=
METAR PAWN 080836Z AUTO 00000KT 10SM CLR 13/03 A3015 RMK AO1 PNO=
METAR PAWS 080836Z AUTO 00000KT 10SM BKN100 BKN120 13/09 A3000 RMK 
    AO1 PNO=
METAR PAZK 080836Z AUTO 04007KT 10SM FEW120 09/03 A3010 RMK AO1 PNO=
####018001102####
SAUS20 KNKA 080837
METAR K04W 080834Z AUTO 00000KT 10SM CLR 16/16 A3006 RMK AO2 
     T01640158=
SPECI KBIV 080836Z AUTO 00000KT 1 3/4SM +RA BR SCT001 BKN044 BKN055 
    24/22 A3004 RMK AO2 RAE04B32 P0007=
METAR KC29 080835Z AUTO 00000KT 10SM OVC006 22/20 A3001 RMK AO2 
     P0001 T02150200=
METAR KD39 080834Z AUTO 25003KT 10SM CLR 16/15 A3010 RMK AO2 
     T01620151=
METAR KDLL 080835Z AUTO 00000KT 10SM BKN004 BKN012 21/19 A2999 
     RMK AO2=
SPECI KGLH 080836Z AUTO 00000KT 2SM BR CLR 22/22 A3004 RMK AO2=
SPECI KLEB 080836Z AUTO 00000KT 1 1/2SM BR FEW001 21/19 A3005 RMK 
    AO2=
METAR KPVJ 080831Z AUTO 00000KT 10SM SCT010 SCT032 24/23 A3002 
     RMK AO2=
METAR KRKR 080836Z AUTO 00000KT 10SM OVC029 26/24 A3002 RMK AO2=
METAR KTZR 080836Z AUTO 00000KT 7SM CLR 21/19 A3008 RMK AO2=
METAR KY51 080835Z AUTO 28004KT 7SM CLR 20/20 A3004 RMK AO1 
     T02030200=
METAR PAAK 080836Z AUTO 08020G25KT 10SM SCT011 BKN020 OVC075 07/04 
    A2963 RMK AO1 PNO=
METAR PAHP 080836Z AUTO 02007KT 10SM FEW032 BKN075 OVC085 12/09 
    A3007 RMK AO1 PNO TSNO=
####018000110####
SPCN48 CWAO 080836
SPECI CYPH 080836Z AUTO 24016KT 2 1/8SM OVC001 05/05 A2978 RMK VSBY
VRBL 0.8V9.0=

####018003716####
SAUS90 KWBC 080838
METAR KFDK 080828Z AUTO 00000KT 5SM HZ SCT100 24/22 A3002=
METAR KFPK 080836Z AUTO 19003KT 7SM CLR 21/20 A3002 RMK AO2=
METAR KMOP 080834Z AUTO 27003KT 10SM SCT060 OVC120 23/23 A3001 RMK
     AO2=
METAR KCAD 080835Z AUTO 23007KT 10SM SCT100 22/20 A3003 RMK
     AO2=
METAR KMGN 080835Z AUTO 00000KT 10SM SCT120 21/20 A2997 RMK
     AO2=
METAR KHAI 080835Z AUTO 00000KT 5SM BR SCT060 BKN065 22/21 A3004
     RMK AO2=
METAR KLWA 080836Z AUTO 25004KT 10SM SCT037 BKN050 BKN080 23/21
     A3005 RMK AO2=
METAR KDRM 080836Z AUTO 16004KT 10SM OVC110 20/20 A2996 RMK
     AO2=
METAR KVLL 080834Z AUTO 00000KT 10SM CLR 26/20 A3005 RMK AO2=
METAR KCFS 080835Z AUTO 00000KT 1/2SM FG VV005 21/21 A3001 RMK
     AO2=
METAR KOZW 080835Z AUTO 00000KT 7SM CLR 22/21 A3004 RMK AO2=
METAR KRNP 080835Z AUTO 00000KT 10SM CLR 21/21 A3002 RMK AO2=
METAR KDUH 080835Z AUTO 00000KT 7SM CLR 22/18 A3004 RMK AO2=
METAR KJYM 080835Z AUTO 00000KT 7SM CLR 21/19 A3006 RMK AO2=
METAR KBAX 080835Z AUTO 00000KT 4SM BR CLR 21/21 A3000 RMK AO2=
METAR KIRS 080835Z AUTO 00000KT 7SM CLR 22/19 A3004 RMK AO2=
METAR KACB 080835Z AUTO 00000KT 10SM CLR 24/21 A2998 RMK AO2=
METAR KRQB 080835Z AUTO 25005KT 10SM BKN080 OVC085 23/21 A3003 RMK
     AO2=
METAR KOEB 080835Z AUTO 00000KT 7SM CLR 23/20 A3005 RMK AO2=
METAR K4I3 080836Z AUTO 00000KT 10SM SCT060 20/19 A3009 RMK
     AO2=
METAR KAUM 080835Z AUTO 31004KT 10SM CLR 18/17 A3007 RMK AO2=
METAR KFFX 080835Z AUTO 19005KT 5SM BR BKN065 OVC075 22/22 A3002
     RMK AO2=
METAR KCNB 080838Z AUTO 24004KT 10SM CLR 16/13 A3013 RMK AO2
     T01570130=
METAR KCKN 080835Z AUTO 27003KT 10SM CLR 14/12 A3004 RMK AO2=
METAR KCFE 080835Z AUTO 27003KT 10SM CLR 18/16 A3009 RMK AO2
     T01760162=
METAR KCQM 080837Z AUTO 00000KT 10SM CLR 14/14 A3004 RMK AO2=
METAR KDTL 080835Z AUTO 27006KT 10SM CLR 17/11 A3008 RMK AO2=
METAR KBDH 080835Z AUTO 27004KT 10SM CLR 15/14 A3012 RMK AO2=
METAR KCBG 080835Z AUTO 00000KT 10SM CLR 16/14 A3007 RMK AO2=
METAR KADC 080837Z AUTO 24005KT 10SM CLR 13/12 A3008 RMK AO2=
METAR KHAF 080830Z AUTO 00000KT 7SM OVC008 12/10 A2995 RMK AO2=
METAR KCKC 080835Z AUTO 30004KT 10SM CLR 16/13 A3003 RMK AO2=
METAR KJYG 080835Z AUTO 00000KT 10SM CLR 17/17 A3013 RMK AO2=
METAR KCOQ 080836Z AUTO 29004KT 10SM CLR 14/14 A3005 RMK AO2=
METAR KACQ 080839Z AUTO 33003KT 7SM CLR 17/16 A3011 RMK AO2=
METAR KRGK 080836Z AUTO 27003KT 10SM CLR 19/18 A3004 RMK AO2=
METAR KFSE 080834Z AUTO 00000KT 10SM CLR 12/12 A3004 RMK AO2=
METAR KY70 080835Z AUTO 29012G20KT 4SM RA SCT024 BKN049 OVC070
     23/22 A3004 RMK AO2 P0010 T02340218=
METAR KUKT 080830Z AUTO 00000KT 5SM CLR 21/20 A3003 RMK AO1=
METAR KPQN 080833Z AUTO 32004KT 10SM CLR 18/15 A3016 RMK AO2=
METAR KFGN 080834Z AUTO 26009KT 1SM DZ VV007 17/13 A2996 RMK
     AO2=
METAR KPNM 080833Z AUTO 28003KT 10SM CLR 15/14 A3008 RMK AO2=
METAR KPWC 080833Z AUTO 00000KT 1/2SM FG OVC001 11/10 A3008 RMK
     AO2=
METAR KFFM 080833Z AUTO 20004KT 10SM CLR 15/14 A3008 RMK AO2=
METAR KGDB 080833Z AUTO 24005KT 10SM CLR 15/14 A3013 RMK AO2
     T01450142=
METAR KAIT 080833Z AUTO 00000KT 3/4SM BR VV005 12/11 A3006 RMK
     AO2=
METAR KGHW 080833Z AUTO 22006KT 10SM CLR 14/13 A3013 RMK AO2=
METAR KMWM 080833Z AUTO 26004KT 10SM CLR 14/14 A3013 RMK AO2=
METAR KULM 080835Z AUTO 29005KT 10SM CLR 15/13 A3011 RMK AO2=
METAR KBBB 080833Z AUTO 00000KT 10SM CLR 14/14 A3011 RMK AO2=
METAR KTWM 080833Z AUTO 29003KT 10SM SCT060 17/14 A3000 RMK
     AO2=
METAR KMGG 080835Z AUTO 28004KT 10SM CLR 16/16 A3010 RMK AO2
     T01610155=
METAR KMOX 080830Z AUTO 25004KT 10SM CLR 16/14 A3007 RMK AO2=
####018000102####
SAUS90 KWBC 080900
METAR KSYN 080850Z AUTO 00000KT 10SM CLR 19/17 A3006 RMK AO2
     T01850167=
####018002655####
SAUS90 KWBC 080838 RRA
METAR KTEW 080832Z AUTO 00000KT 7SM CLR 21/20 A3003 RMK AO2=
METAR KCVH 080830Z AUTO 00000KT 10SM OVC012 12/11 A2993 RMK
     AO1=
METAR KDYT 080834Z AUTO 27007KT 10SM CLR 20/16 A3003 RMK AO2=
METAR KFSO 080838Z AUTO 00000KT 5SM BR CLR 23/22 A3000 RMK AO2=
METAR KFBL 080834Z AUTO 30004KT 10SM CLR 18/16 A3009 RMK AO2=
METAR KLYV 080838Z AUTO 00000KT 10SM CLR 14/13 A3016 RMK AO2=
METAR KEFK 080836Z AUTO 19003KT 4SM BR SCT055 SCT070 20/19 A3005
     RMK AO2=
METAR KRRT 080834Z AUTO 25005KT 10SM CLR 15/13 A3000 RMK AO2=
METAR KTOB 080835Z AUTO 00000KT 10SM CLR 18/17 A3007 RMK AO2=
METAR KLXL 080834Z AUTO 00000KT 4SM BR CLR 12/11 A3008 RMK AO2=
METAR KEVM 080832Z AUTO 27004KT 10SM CLR 15/13 A3002 RMK AO1=
METAR KELO 080833Z AUTO 00000KT 10SM CLR 13/13 A3002 RMK AO2=
METAR KANE 080835Z AUTO 00000KT 10SM 18/17 A3008 RMK AO2=
METAR KROX 080835Z AUTO 25005KT 10SM CLR 16/13 A3000 RMK AO2=
METAR KVVV 080836Z AUTO 27004KT 10SM CLR 16/14 A3011 RMK AO2=
METAR KROS 080835Z AUTO 28003KT 10SM CLR 16/15 A3007 RMK AO2
     T01560146=
METAR KHCD 080832Z AUTO 27004KT 7SM CLR 14/13 A3010 RMK AO2
     T01380128=
METAR KSGS 080833Z AUTO 32006KT 10SM CLR 20/17 A3006 RMK AO2
     T01970165=
METAR KMJQ 080832Z AUTO 28005KT 10SM CLR 15/14 A3014 RMK AO2=
METAR KHCO 080834Z AUTO 19004KT 10SM CLR 12/12 A3004 RMK AO2=
METAR KLVN 080829Z AUTO 30004KT 10SM CLR 18/17 A3007 RMK AO2=
METAR KPEX 080832Z AUTO 25004KT 7SM CLR 13/13 A3011 RMK AO2
     T01300129=
METAR KJMR 080838Z AUTO 31004KT 10SM CLR 15/13 A3008 RMK AO2=
METAR KJKJ 080834Z AUTO 23004KT 10SM CLR 16/15 A3006 RMK AO2=
METAR KMVE 080834Z AUTO 30005KT 10SM CLR 17/16 A3010 RMK AO2=
METAR KTKC 080833Z AUTO 24006KT 10SM CLR 15/14 A3014 RMK AO2
     T01540135=
METAR KGYL 080835Z AUTO 00000KT 10SM CLR 16/15 A3009 RMK AO2
     T01560146=
METAR KDXX 080834Z AUTO 00000KT 10SM CLR 14/14 A3011 RMK AO2=
METAR KHZX 080831Z AUTO 00000KT 5SM CLR 13/12 A3007 RMK AO2=
METAR KSAZ 080834Z AUTO 00000KT 10SM CLR 14/14 A3008 RMK AO2=
METAR KONA 080831Z AUTO 30003KT 7SM CLR 20/19 A3002 RMK AO2=
METAR KOVL 080834Z AUTO 00000KT 7SM CLR 13/12 A3010 RMK AO2
     T01300115=
METAR KLJF 080832Z AUTO 28004KT 10SM CLR 18/17 A3011 RMK AO2=
METAR KAEL 080831Z AUTO 32003KT 10SM CLR 18/17 A3008 RMK AO2=
METAR K29G 080834Z AUTO 00000KT 10SM BKN060 21/18 A3009 RMK AO2
     T02100184 PWINO=
METAR KMRT 080833Z AUTO 00000KT 5SM CLR 21/19 A3011 RMK AO2
     T02060189=
METAR KIKW 080834Z AUTO 3SM BR SCT065 22/21 A3000 RMK AO2
     T02160205=
METAR KMDS 080825Z AUTO 28005KT 10SM CLR 15/14 A3016 RMK AO2=
####018000085####
SPCN51 CWAO 080836
SPECI CWZZ 080836Z AUTO ///// 9SM OVC014 OVC069 11/ A2981=

####018000085####
SAAE31 VTBB 080830 RRB
METAR VVNB 080830Z 08007KT 9999 FEW027 37/26 Q1001 NOSIG=
####018003699####
SAUS99 KWBC 080838 RRA
METAR
KRRT 080834Z AUTO 25005KT 10SM CLR 15/13 A3000 RMK AO2=
KTOB 080835Z AUTO 00000KT 10SM CLR 18/17 A3007 RMK AO2=
KLXL 080834Z AUTO 00000KT 4SM BR CLR 12/11 A3008 RMK AO2=
KEVM 080832Z AUTO 27004KT 10SM CLR 15/13 A3002 RMK AO1=
KELO 080833Z AUTO 00000KT 10SM CLR 13/13 A3002 RMK AO2=
KANE 080835Z AUTO 00000KT 10SM 18/17 A3008 RMK AO2=
KROX 080835Z AUTO 25005KT 10SM CLR 16/13 A3000 RMK AO2=
KSYN 080850Z AUTO 00000KT 10SM CLR 19/17 A3006 RMK AO2
     T01850167=
KVVV 080836Z AUTO 27004KT 10SM CLR 16/14 A3011 RMK AO2=
KROS 080835Z AUTO 28003KT 10SM CLR 16/15 A3007 RMK AO2
     T01560146=
KHCD 080832Z AUTO 27004KT 7SM CLR 14/13 A3010 RMK AO2
     T01380128=
KSGS 080833Z AUTO 32006KT 10SM CLR 20/17 A3006 RMK AO2
     T01970165=
KMJQ 080832Z AUTO 28005KT 10SM CLR 15/14 A3014 RMK AO2=
KHCO 080834Z AUTO 19004KT 10SM CLR 12/12 A3004 RMK AO2=
KLVN 080829Z AUTO 30004KT 10SM CLR 18/17 A3007 RMK AO2=
KPEX 080832Z AUTO 25004KT 7SM CLR 13/13 A3011 RMK AO2
     T01300129=
KJMR 080838Z AUTO 31004KT 10SM CLR 15/13 A3008 RMK AO2=
KJKJ 080834Z AUTO 23004KT 10SM CLR 16/15 A3006 RMK AO2=
KMVE 080834Z AUTO 30005KT 10SM CLR 17/16 A3010 RMK AO2=
KTKC 080833Z AUTO 24006KT 10SM CLR 15/14 A3014 RMK AO2
     T01540135=
KGYL 080835Z AUTO 00000KT 10SM CLR 16/15 A3009 RMK AO2
     T01560146=
KDXX 080834Z AUTO 00000KT 10SM CLR 14/14 A3011 RMK AO2=
KHZX 080831Z AUTO 00000KT 5SM CLR 13/12 A3007 RMK AO2=
KSAZ 080834Z AUTO 00000KT 10SM CLR 14/14 A3008 RMK AO2=
KONA 080831Z AUTO 30003KT 7SM CLR 20/19 A3002 RMK AO2=
KOVL 080834Z AUTO 00000KT 7SM CLR 13/12 A3010 RMK AO2
     T01300115=
KLJF 080832Z AUTO 28004KT 10SM CLR 18/17 A3011 RMK AO2=
KAEL 080831Z AUTO 32003KT 10SM CLR 18/17 A3008 RMK AO2=
K29G 080834Z AUTO 00000KT 10SM BKN060 21/18 A3009 RMK AO2
     T02100184 PWINO=
KMRT 080833Z AUTO 00000KT 5SM CLR 21/19 A3011 RMK AO2
     T02060189=
KIKW 080834Z AUTO 3SM BR SCT065 22/21 A3000 RMK AO2 T02160205=
KMDS 080825Z AUTO 28005KT 10SM CLR 15/14 A3016 RMK AO2=
K04W 080834Z AUTO 00000KT 10SM CLR 16/16 A3006 RMK AO2
     T01640158=
KC29 080835Z AUTO 00000KT 10SM OVC006 22/20 A3001 RMK AO2 P0001
     T02150200=
KD39 080834Z AUTO 25003KT 10SM CLR 16/15 A3010 RMK AO2
     T01620151=
KDLL 080835Z AUTO 00000KT 10SM BKN004 BKN012 21/19 A2999 RMK
     AO2=
KPVJ 080831Z AUTO 00000KT 10SM SCT010 SCT032 24/23 A3002 RMK
     AO2=
KRKR 080836Z AUTO 00000KT 10SM OVC029 26/24 A3002 RMK AO2=
KTZR 080836Z AUTO 00000KT 7SM CLR 21/19 A3008 RMK AO2=
KY51 080835Z AUTO 28004KT 7SM CLR 20/20 A3004 RMK AO1
     T02030200=
PAAK 080836Z AUTO 08020G25KT 10SM SCT011 BKN020 OVC075 07/04 A2963
     RMK AO1 PNO=
PAHP 080836Z AUTO 02007KT 10SM FEW032 BKN075 OVC085 12/09 A3007
     RMK AO1 PNO TSNO=
PAAK 080836Z AUTO 08020G25KT 10SM SCT011 BKN020 OVC075 07/04 A2963
     RMK AO1 PNO=
PABL 080836Z AUTO 32005KT 10SM CLR 11/07 A3016 RMK AO1 PNO=
PABV 080836Z AUTO 00000KT 10SM SCT085 BKN120 13/08 RMK AO1 PNO=
PADK 080836Z 07013KT 6SM BKN020 BKN028 OVC037 07/06 A2959 RMK AO1
     PNO=
PADL 080836Z 32007KT 10SM SCT120 11/07 A2998 RMK AO1 PNO TSNO=
PAEM 080836Z AUTO 36003KT 10SM BKN110 12/08 A3005 RMK AO1 PNO=
PAFE 080836Z AUTO 06003KT 10SM CLR 11/09 A3018 RMK AO1 PNO=
PAFM 080836Z AUTO 35004KT 10SM CLR 16/09 A3011 RMK AO1 PNO=
PAGL 080836Z AUTO 10SM FEW075 RMK AO1 PNO=
PAGS 080836Z AUTO 00000KT 10SM CLR 11/09 A3019 RMK AO1 PNO=
PAHP 080836Z AUTO 02007KT 10SM FEW032 BKN075 OVC085 12/09 A3007
     RMK AO1 PNO TSNO=
PAHY 080836Z AUTO 03003KT 10SM CLR 17/11 A3011 RMK AO1 PNO=
PAII 080836Z AUTO 36004KT 10SM OVC055 11/08 A2997 RMK AO1 PNO=
####018001685####
SAUS99 KWBC 080838 RRB
METAR
PAIN 080836Z AUTO 00000KT 10SM CLR 11/07 A3008 RMK AO1 PNO=
PAJC 080836Z AUTO 00000KT 10SM BKN017 OVC025 08/04 A2995 RMK AO1
     PNO=
PAKK 080836Z AUTO 01012G16KT 10SM FEW085 15/08 A3005 RMK AO1
     PNO=
PAKP 080836Z AUTO 04004KT 10SM BKN037 OVC050 11/04 A3011 RMK
     AO1=
PAMD 080836Z AUTO 09021G27KT 8SM BKN014 OVC023 09/08 A3001 RMK AO1
     PNO=
PAMH 080836Z 00000KT 10SM CLR 16/06 A3000 RMK AO1 PNO=
PAMM 080836Z AUTO 00000KT 10SM CLR 19/11 A3009 RMK AO1 PNO=
PAMY 080836Z 28006KT 1/2SM OVC001 06/04 A3007 RMK AO1=
PANI 080836Z AUTO 00000KT 10SM BKN090 12/09 A3001 RMK AO1 PNO=
PANV 080836Z AUTO 28005KT 10SM BKN075 OVC085 14/07 A3001 RMK AO1
     PNO=
PAPG 080836Z 03004KT 10SM CLR 13/09 A3014 RMK AO1 PNO=
PAPH 080836Z AUTO 05005KT 1SM CLR 05/04 A2997 RMK AO1 PNO=
PARC 080836Z AUTO 14004KT 10SM CLR 11/02 A3003 RMK AO1 PNO=
PASA 080836Z AUTO 07004KT 10SM CLR 07/04 A3020 RMK AO1 PNO=
PASD 080836Z AUTO 00000KT 10SM OVC048 08/05 A2996 RMK AO1 PNO=
PASH 080836Z AUTO 00000KT 10SM CLR 08/05 A3019 RMK AO1 PNO=
PASK 080836Z 29005KT 10SM CLR 14/07 A3011 RMK AO1 PNO=
PASL 080836Z AUTO 00000KT 10SM BKN110 14/07 A3001 RMK AO1 PNO=
PASM 080836Z AUTO 00000KT 10SM OVC075 10/07 A3007 RMK AO1 PNO=
PAUN 080836Z AUTO 08003KT 10SM CLR 13/06 A3002 RMK AO1 PNO=
PAVD 080836Z 00000KT 10SM BKN090 OVC100 11/08 A3010 RMK AO1
     PNO=
PAWG 080836Z AUTO 25005KT 10SM CLR 13/11 A3013 RMK AO1 PNO=
PAWN 080836Z AUTO 00000KT 10SM CLR 13/03 A3015 RMK AO1 PNO=
PAWS 080836Z AUTO 00000KT 10SM BKN100 BKN120 13/09 A3000 RMK AO1
     PNO=
PAZK 080836Z AUTO 04007KT 10SM FEW120 09/03 A3010 RMK AO1 PNO=
####018003717####
SAUS99 KWBC 080838
METAR
KFPK 080836Z AUTO 19003KT 7SM CLR 21/20 A3002 RMK AO2=
KMOP 080834Z AUTO 27003KT 10SM SCT060 OVC120 23/23 A3001 RMK
     AO2=
KCAD 080835Z AUTO 23007KT 10SM SCT100 22/20 A3003 RMK AO2=
KMGN 080835Z AUTO 00000KT 10SM SCT120 21/20 A2997 RMK AO2=
KHAI 080835Z AUTO 00000KT 5SM BR SCT060 BKN065 22/21 A3004 RMK
     AO2=
KLWA 080836Z AUTO 25004KT 10SM SCT037 BKN050 BKN080 23/21 A3005
     RMK AO2=
KDRM 080836Z AUTO 16004KT 10SM OVC110 20/20 A2996 RMK AO2=
KVLL 080834Z AUTO 00000KT 10SM CLR 26/20 A3005 RMK AO2=
KCFS 080835Z AUTO 00000KT 1/2SM FG VV005 21/21 A3001 RMK AO2=
KOZW 080835Z AUTO 00000KT 7SM CLR 22/21 A3004 RMK AO2=
KRNP 080835Z AUTO 00000KT 10SM CLR 21/21 A3002 RMK AO2=
KDUH 080835Z AUTO 00000KT 7SM CLR 22/18 A3004 RMK AO2=
KJYM 080835Z AUTO 00000KT 7SM CLR 21/19 A3006 RMK AO2=
KBAX 080835Z AUTO 00000KT 4SM BR CLR 21/21 A3000 RMK AO2=
KIRS 080835Z AUTO 00000KT 7SM CLR 22/19 A3004 RMK AO2=
KACB 080835Z AUTO 00000KT 10SM CLR 24/21 A2998 RMK AO2=
KRQB 080835Z AUTO 25005KT 10SM BKN080 OVC085 23/21 A3003 RMK
     AO2=
KOEB 080835Z AUTO 00000KT 7SM CLR 23/20 A3005 RMK AO2=
K4I3 080836Z AUTO 00000KT 10SM SCT060 20/19 A3009 RMK AO2=
KAUM 080835Z AUTO 31004KT 10SM CLR 18/17 A3007 RMK AO2=
KFFX 080835Z AUTO 19005KT 5SM BR BKN065 OVC075 22/22 A3002 RMK
     AO2=
KCNB 080838Z AUTO 24004KT 10SM CLR 16/13 A3013 RMK AO2
     T01570130=
KCKN 080835Z AUTO 27003KT 10SM CLR 14/12 A3004 RMK AO2=
KCFE 080835Z AUTO 27003KT 10SM CLR 18/16 A3009 RMK AO2
     T01760162=
KCQM 080837Z AUTO 00000KT 10SM CLR 14/14 A3004 RMK AO2=
KDTL 080835Z AUTO 27006KT 10SM CLR 17/11 A3008 RMK AO2=
KBDH 080835Z AUTO 27004KT 10SM CLR 15/14 A3012 RMK AO2=
KCBG 080835Z AUTO 00000KT 10SM CLR 16/14 A3007 RMK AO2=
KADC 080837Z AUTO 24005KT 10SM CLR 13/12 A3008 RMK AO2=
KHAF 080830Z AUTO 00000KT 7SM OVC008 12/10 A2995 RMK AO2=
KCKC 080835Z AUTO 30004KT 10SM CLR 16/13 A3003 RMK AO2=
KJYG 080835Z AUTO 00000KT 10SM CLR 17/17 A3013 RMK AO2=
KCOQ 080836Z AUTO 29004KT 10SM CLR 14/14 A3005 RMK AO2=
KACQ 080839Z AUTO 33003KT 7SM CLR 17/16 A3011 RMK AO2=
KRGK 080836Z AUTO 27003KT 10SM CLR 19/18 A3004 RMK AO2=
KFSE 080834Z AUTO 00000KT 10SM CLR 12/12 A3004 RMK AO2=
KY70 080835Z AUTO 29012G20KT 4SM RA SCT024 BKN049 OVC070 23/22
     A3004 RMK AO2 P0010 T02340218=
KUKT 080830Z AUTO 00000KT 5SM CLR 21/20 A3003 RMK AO1=
KPQN 080833Z AUTO 32004KT 10SM CLR 18/15 A3016 RMK AO2=
KFGN 080834Z AUTO 26009KT 1SM DZ VV007 17/13 A2996 RMK AO2=
KPNM 080833Z AUTO 28003KT 10SM CLR 15/14 A3008 RMK AO2=
KPWC 080833Z AUTO 00000KT 1/2SM FG OVC001 11/10 A3008 RMK AO2=
KFFM 080833Z AUTO 20004KT 10SM CLR 15/14 A3008 RMK AO2=
KGDB 080833Z AUTO 24005KT 10SM CLR 15/14 A3013 RMK AO2
     T01450142=
KAIT 080833Z AUTO 00000KT 3/4SM BR VV005 12/11 A3006 RMK AO2=
KGHW 080833Z AUTO 22006KT 10SM CLR 14/13 A3013 RMK AO2=
KMWM 080833Z AUTO 26004KT 10SM CLR 14/14 A3013 RMK AO2=
KULM 080835Z AUTO 29005KT 10SM CLR 15/13 A3011 RMK AO2=
KBBB 080833Z AUTO 00000KT 10SM CLR 14/14 A3011 RMK AO2=
KTWM 080833Z AUTO 29003KT 10SM SCT060 17/14 A3000 RMK AO2=
KMGG 080835Z AUTO 28004KT 10SM CLR 16/16 A3010 RMK AO2
     T01610155=
KMOX 080830Z AUTO 25004KT 10SM CLR 16/14 A3007 RMK AO2=
KTEW 080832Z AUTO 00000KT 7SM CLR 21/20 A3003 RMK AO2=
KCVH 080830Z AUTO 00000KT 10SM OVC012 12/11 A2993 RMK AO1=
KDYT 080834Z AUTO 27007KT 10SM CLR 20/16 A3003 RMK AO2=
KFSO 080838Z AUTO 00000KT 5SM BR CLR 23/22 A3000 RMK AO2=
KFBL 080834Z AUTO 30004KT 10SM CLR 18/16 A3009 RMK AO2=
KLYV 080838Z AUTO 00000KT 10SM CLR 14/13 A3016 RMK AO2=
KEFK 080836Z AUTO 19003KT 4SM BR SCT055 SCT070 20/19 A3005 RMK
     AO2=
####018000391####
SACN88 KWBC 080838
METAR CWDA 080831Z AUTO 10005KT 07/07 RMK AO1 SLP201 T00720072
56009=
METAR CWDA 080800Z AUTO 10004KT 07/07 RMK AO1 SLP204 T00710071
55005=
METAR CWDA 080800Z AUTO 10004KT 07/07 RMK AO1 SLP204 T00710071
55005=
METAR CWDA 080800Z AUTO 10004KT 07/07 RMK AO1 SLP204 T00710071
55005=
METAR CWDA 080800Z AUTO 10004KT 07/07 RMK AO1 SLP204 T00710071
55005=
####018000419####
SAPL31 EPWA 080830
METAR EPWA 080830Z 29009KT 250V350 9999 FEW026 19/13 Q1021
      NOSIG=
METAR EPGD 080830Z 31009KT 280V340 CAVOK 20/11 Q1021=
METAR EPKK 080830Z 29010KT 260V320 9999 FEW046 20/08 Q1022=
METAR EPPO 080830Z 32004KT CAVOK 21/09 Q1023=
METAR EPRZ 080830Z 32009KT 9999 FEW033 20/10 Q1021=
METAR EPBY 080830Z 31006KT 240V350 9999 FEW039 21/10 Q1022=
METAR EPZG 080830Z 23004KT CAVOK 23/09 Q1023=
####018000087####
SAIN32 VIDP 080800 RRA
METAR VIJP 080800Z VRB04KT 3500 HZ SCT030 35/24 Q1006 NOSIG=
####018000270####
SPUS99 KWBC 080838
SPECI
KBIV 080836Z AUTO 00000KT 1 3/4SM +RA BR SCT001 BKN044 BKN055
     24/22 A3004 RMK AO2 RAE04B32 P0007=
KGLH 080836Z AUTO 00000KT 2SM BR CLR 22/22 A3004 RMK AO2=
KLEB 080836Z AUTO 00000KT 1 1/2SM BR FEW001 21/19 A3005 RMK
     AO2=
####018000345####
SAPL32 EPWA 080830
METAR EPKT 080830Z 31009KT CAVOK 19/09 Q1023=
METAR EPLL 080830Z 30006KT 270V330 9999 FEW043 19/08 Q1022=
METAR EPSC 080830Z 00000KT CAVOK 21/12 Q1022=
METAR EPWR 080830Z 26004KT 210V020 9999 FEW046 22/11 Q1024=
METAR EPBY 080830Z 31006KT 240V350 9999 FEW039 21/10 Q1022=
METAR EPZG 080830Z 23004KT CAVOK 23/09 Q1023=
####018000095####
SACN89 KWBC 080838
METAR CWDK 080800Z AUTO 09001KT 09/07 RMK AO1 SLP228 T00920072
50002=
####018000108####
SPUS80 KWBC 080838
SPECI
KIRK 080835Z AUTO 00000KT 1 3/4SM BR CLR 19/19 A3006 RMK AO2 VIS
     1V5=
####018000101####
SAKY31 RUMS 080830 RRA
METAR UAFO 080830Z 29004MPS 9999 FEW050TCU 34/20 Q1018 NOSIG RMK
QFEM685=
####018000095####
SACN95 KWBC 080838
METAR CWXA 080800Z AUTO 00000KT 05/04 RMK AO1 SLP233 T00500037
51001=
####018000355####
SAAL31 KWBC 080800 RRB
METAR
DAAG 080830Z 22003KT 190V290 CAVOK 30/17 Q1018=
DAAT 080830Z 13017KT CAVOK 31/02 Q1022=
DAAT 080830Z NIL=
DABB 080830Z 01003KT CAVOK 29/16 Q1019=
DABC 080830Z 00000KT CAVOK 26/11 Q1023=
DAON 080830Z 00000KT CAVOK 33/19 Q1017=
DAOO 080830Z 36008KT CAVOK 29/21 Q1016=
DAUH 080830Z 10012KT CAVOK 33/21 Q1018=
####018000338####
SAUS80 KWBC 080838
METAR
K4BM 080833Z AUTO 00000KT 10SM 05/03 A3064 RMK AO2=
KCBE 080835Z AUTO 00000KT 7SM CLR 21/18 A3010 RMK AO1=
KESN 080839Z AUTO 00000KT 3SM BR CLR 23/23 A3002 RMK AO2=
KSMS 080835Z AUTO 27003KT 10SM CLR 25/18 A2997 RMK AO2=
PADK 080836Z 07013KT 6SM BKN020 BKN028 OVC037 07/06 A2959 RMK AO1
     PNO=
####018003717####
SAUS70 KWBC 080838
METAR
K20V 080836Z AUTO 00000KT 10SM SCT021 08/05 A3042 RMK AO2=
K5SM 080833Z AUTO 00000KT 10SM SCT050 SCT065 BKN085 08/03 A3056
     RMK AO2=
K7BM 080836Z AUTO 00000KT 10SM OVC028 10/06 A3056 RMK AO2=
KBDU 080837Z AUTO 20007KT 10SM CLR 16/12 A3030 RMK AO2=
KBJC 080837Z AUTO 18003KT 4SM BR CLR 13/12 A3033 RMK AO2=
KCCU 080836Z AUTO 18017KT 10SM BKN085 07/02 A3064 RMK AO2=
KGTU 080835Z 06003KT 8SM BKN014 BKN020 OVC026 25/22 A3001 RMK
     AO1=
KHYI 080835Z AUTO 04005KT 10SM SCT011 OVC018 25/24 A2995 RMK
     AO1=
KILE 080835Z 10006KT 10SM SCT012 BKN028 OVC065 24/22 A2997 RMK
     AO1=
KMYP 080736Z AUTO 07010KT M1/4SM +SN OVC001 03/03 A3075 RMK
     AO2=
KOCH 080835Z AUTO 10005KT 10SM CLR 24/19 A3000 RMK AO1=
KPRX 080835Z 13005KT 8SM BKN015 24/22 A3002 RMK AO1=
KPWG 080835Z AUTO 11003KT 10SM BKN013 OVC120 25/22 A2999 RMK
     AO1=
KTEX 080833Z AUTO 08003KT 10SM CLR 12/04 A3045 RMK AO2=
KTPL 080835Z 10004KT 10SM OVC019 24/23 A2998 RMK AO1=
KVTP 080840Z AUTO 08010KT 1/4SM OVC001 06/05 A3056 RMK AO2=
KWYS 080830Z AUTO 00000KT 10SM CLR 03/00 A3035 RMK AO2=
K0A9 080835Z AUTO 00000KT 7SM BKN080 20/18 A3011 RMK=
K2G4 080835Z AUTO 00000KT 10SM SCT070 23/13 A3019 RMK AO1=
K2W6 080834Z AUTO 00000KT 5SM CLR 24/23 A2999 RMK AO1=
KBBG 080835Z AUTO 00000KT 3SM BR CLR 22/22 A3006 RMK AO2=
KBBP 080835Z AUTO 28003KT 10SM CLR 23/20 A2995 RMK AO2=
KBKN 080835Z AUTO 09003KT 10SM SCT060 22/22 A3004 RMK AO2=
KCGS 080840Z AUTO 00000KT 7SM CLR 26/23 A2999 RMK AO1=
KCIC 080835Z AUTO 20006KT 10SM CLR 24/16 A2981 RMK AO1=
KCMR 080835Z AUTO 16006KT 10SM FEW100 16/01 A3025 RMK AO1=
KFDK 080828Z AUTO 00000KT 5SM HZ SCT100 24/22 A3002 RMK AO2=
KFMH 080835Z AUTO 16008KT 5SM BR OVC002 21/21 A3008 RMK AO2=
KGGE 080835Z AUTO 27006KT 10SM CLR 24/22 A2994 RMK AO2=
KHVS 080835Z AUTO 00000KT 10SM CLR 25/19 A2997 RMK AO2=
KIFP 080835Z AUTO 00000KT 10SM CLR 31/M02 A2972 RMK AO2=
KMAO 080835Z AUTO 28004KT 10SM CLR 25/19 A2993 RMK AO2=
KMTN 080836Z AUTO 00000KT 7SM CLR 26/23 A3000 RMK AO2=
KNQA 080835Z AUTO 00000KT 10SM CLR 24/23 A3006 RMK=
KRCE 080835Z AUTO 36003KT 7SM FEW050 22/22 A3006 RMK AO2=
KVQQ 080835Z AUTO 00000KT 8SM CLR 18/18 A3000 RMK AO2=
KW29 080835Z AUTO 00000KT 5SM CLR 23/22 A2999 RMK AO1=
KX40 080835Z AUTO 00000KT 7SM CLR 22/22 A3000 RMK AO2
     T02230216=
K04W 080834Z AUTO 00000KT 10SM CLR 16/16 A3006 RMK AO2
     T01640158=
KC29 080835Z AUTO 00000KT 10SM OVC006 22/20 A3001 RMK AO2 P0001
     T02150200=
KD39 080834Z AUTO 25003KT 10SM CLR 16/15 A3010 RMK AO2
     T01620151=
KDLL 080835Z AUTO 00000KT 10SM BKN004 BKN012 21/19 A2999 RMK
     AO2=
KPVJ 080831Z AUTO 00000KT 10SM SCT010 SCT032 24/23 A3002 RMK
     AO2=
KRKR 080836Z AUTO 00000KT 10SM OVC029 26/24 A3002 RMK AO2=
KTZR 080836Z AUTO 00000KT 7SM CLR 21/19 A3008 RMK AO2=
KY51 080835Z AUTO 28004KT 7SM CLR 20/20 A3004 RMK AO1
     T02030200=
PAAK 080836Z AUTO 08020G25KT 10SM SCT011 BKN020 OVC075 07/04 A2963
     RMK AO1 PNO=
PAHP 080836Z AUTO 02007KT 10SM FEW032 BKN075 OVC085 12/09 A3007
     RMK AO1 PNO TSNO=
PAAK 080836Z AUTO 08020G25KT 10SM SCT011 BKN020 OVC075 07/04 A2963
     RMK AO1 PNO=
PABL 080836Z AUTO 32005KT 10SM CLR 11/07 A3016 RMK AO1 PNO=
PABV 080836Z AUTO 00000KT 10SM SCT085 BKN120 13/08 RMK AO1 PNO=
PADL 080836Z 32007KT 10SM SCT120 11/07 A2998 RMK AO1 PNO TSNO=
PAEM 080836Z AUTO 36003KT 10SM BKN110 12/08 A3005 RMK AO1 PNO=
PAFE 080836Z AUTO 06003KT 10SM CLR 11/09 A3018 RMK AO1 PNO=
PAFM 080836Z AUTO 35004KT 10SM CLR 16/09 A3011 RMK AO1 PNO=
PAGL 080836Z AUTO 10SM FEW075 RMK AO1 PNO=
PAGS 080836Z AUTO 00000KT 10SM CLR 11/09 A3019 RMK AO1 PNO=
####018000083####
SAKN64 HKMO 080800
METAR HKMO 080830Z 18014KT 9999 SCT024TCU 28/21 Q1019 NOSIG=
####018000770####
SPXX60 KWBC 080838
SPECI
KAFF 080832Z AUTO 21004KT 10SM -DZ OVC024 13/13 A3040 RMK AO2
     DZB0832 SLP207=
KHST 080833Z AUTO 07006KT 8SM -RA FEW006 SCT016 BKN023 27/25 A2993
     RMK AO2 RAB0822 FEW V SCT SLP136 $=
KWRI 080832Z AUTO 00000KT M1/4SM R18/0500V1000FT R24/0600V2000FT
     FG VV001 24/24 A2999 RMK AO2 SLP155 $=
PACZ SP 0835 AWOS MM 7 50/48/0404/008=
PAEH SP 0835 AWOS 9 SCT M18 OVC 10 48/-20/0000/000=
PAIM SP 0835 AWOS CLR BLO 120 10 58/45/3203/009=
PALU SP 0835 AWOS CLR BLO 120 10 55/34/2220/010=
PASY 080833Z AUTO 02015KT 10SM OVC006 A2974 RMK AO2 CIG 003V008
     TSNO PNO=
PATL SP 0835 AWOS CLR BLO 120 10 61/43/0305/000=
PGUA 080833Z AUTO 08012KT 10SM SCT018 27/ A2988 RMK AO2 SCT V BKN
     SLP098 VISNO RWY24L $=
####018001903####
SAUS70 KWBC 080838 RRA
METAR
PAHP 080836Z AUTO 02007KT 10SM FEW032 BKN075 OVC085 12/09 A3007
     RMK AO1 PNO TSNO=
PAHY 080836Z AUTO 03003KT 10SM CLR 17/11 A3011 RMK AO1 PNO=
PAII 080836Z AUTO 36004KT 10SM OVC055 11/08 A2997 RMK AO1 PNO=
PAIN 080836Z AUTO 00000KT 10SM CLR 11/07 A3008 RMK AO1 PNO=
PAJC 080836Z AUTO 00000KT 10SM BKN017 OVC025 08/04 A2995 RMK AO1
     PNO=
PAKK 080836Z AUTO 01012G16KT 10SM FEW085 15/08 A3005 RMK AO1
     PNO=
PAKP 080836Z AUTO 04004KT 10SM BKN037 OVC050 11/04 A3011 RMK
     AO1=
PAMD 080836Z AUTO 09021G27KT 8SM BKN014 OVC023 09/08 A3001 RMK AO1
     PNO=
PAMH 080836Z 00000KT 10SM CLR 16/06 A3000 RMK AO1 PNO=
PAMM 080836Z AUTO 00000KT 10SM CLR 19/11 A3009 RMK AO1 PNO=
PAMY 080836Z 28006KT 1/2SM OVC001 06/04 A3007 RMK AO1=
PANI 080836Z AUTO 00000KT 10SM BKN090 12/09 A3001 RMK AO1 PNO=
PANV 080836Z AUTO 28005KT 10SM BKN075 OVC085 14/07 A3001 RMK AO1
     PNO=
PAPG 080836Z 03004KT 10SM CLR 13/09 A3014 RMK AO1 PNO=
PAPH 080836Z AUTO 05005KT 1SM CLR 05/04 A2997 RMK AO1 PNO=
PARC 080836Z AUTO 14004KT 10SM CLR 11/02 A3003 RMK AO1 PNO=
PASA 080836Z AUTO 07004KT 10SM CLR 07/04 A3020 RMK AO1 PNO=
PASD 080836Z AUTO 00000KT 10SM OVC048 08/05 A2996 RMK AO1 PNO=
PASH 080836Z AUTO 00000KT 10SM CLR 08/05 A3019 RMK AO1 PNO=
PASK 080836Z 29005KT 10SM CLR 14/07 A3011 RMK AO1 PNO=
PASL 080836Z AUTO 00000KT 10SM BKN110 14/07 A3001 RMK AO1 PNO=
PASM 080836Z AUTO 00000KT 10SM OVC075 10/07 A3007 RMK AO1 PNO=
PAUN 080836Z AUTO 08003KT 10SM CLR 13/06 A3002 RMK AO1 PNO=
PAVD 080836Z 00000KT 10SM BKN090 OVC100 11/08 A3010 RMK AO1
     PNO=
PAWG 080836Z AUTO 25005KT 10SM CLR 13/11 A3013 RMK AO1 PNO=
PAWN 080836Z AUTO 00000KT 10SM CLR 13/03 A3015 RMK AO1 PNO=
PAWS 080836Z AUTO 00000KT 10SM BKN100 BKN120 13/09 A3000 RMK AO1
     PNO=
PAZK 080836Z AUTO 04007KT 10SM FEW120 09/03 A3010 RMK AO1 PNO=
####018000320####
SABY31 UMMN 080830
METAR UMBB 080830Z 28003MPS 8000 NSC 18/12 Q1018 NOSIG=
METAR UMGG 080830Z VRB02MPS 9999 SCT028 BKN100 24/18 Q1013
R28/190055 NOSIG=
METAR UMMM 080830Z 29005MPS 9999 OVC016 18/15 Q1014 R30/290050
NOSIG RMK QFE741=
METAR UMMS 080830Z 28004MPS 260V320 9999 BKN012 19/16 Q1014
R31/CLRD// NOSIG=
####018000396####
SPUS70 KWBC 080838
SPECI
KARB 080835Z AUTO 00000KT 2 1/2SM BR CLR 21/19 A3003 RMK AO2=
KELZ 080835Z AUTO 00000KT 1/2SM FG CLR 19/18 A3016 RMK AO2=
KBIV 080836Z AUTO 00000KT 1 3/4SM +RA BR SCT001 BKN044 BKN055
     24/22 A3004 RMK AO2 RAE04B32 P0007=
KGLH 080836Z AUTO 00000KT 2SM BR CLR 22/22 A3004 RMK AO2=
KLEB 080836Z AUTO 00000KT 1 1/2SM BR FEW001 21/19 A3005 RMK
     AO2=
####018000095####
SACN91 KWBC 080838
METAR CWIJ 080800Z AUTO 32007KT 09/07 RMK AO1 SLP143 T00920074
53003=
####018000100####
SACN78 KWBC 080838
METAR CWKK 080800Z AUTO 21006KT 17/16 RMK AO1 8013 SLP145
T01720163 50009=
####018000145####
SAAS31 KWBC 080830 RRA
METAR
VTBS 080830Z 27010G21KT 7000 -TSRA FEW020CB SCT035 BKN120 30/24
     Q1006 TS OVER AD BECMG FM0845 8000 RA=
####018000811####
SAAS33 KWBC 080830 RRA
METAR
VDPP 080830Z 18008KT 9999 SCT015 FEW017CB 34/22 Q1005 CB:E NW
     SW=
VDSR 080830Z 32004KT 270V010 9999 SCT015 FEW018CB SCT040 34/23
     Q1004 CB:E=
VLVT 080830Z NIL=
VTBD 080830Z 27007KT 9999 FEW020CB BKN300 35/22 Q1005 CB SE
     NOSIG=
VTBU 080830Z 34004KT 9999 FEW020CB BKN300 34/25 Q1007 A2974 CB
     NW=
VTCC 080830Z 23010KT 9999 FEW025CB SCT300 34/21 Q1007 A2975 CB
     NE,SW=
VTSP 080830Z NIL=
VTSS 080830Z 19005KT 9999 FEW016CB SCT020 34/21 Q1007 A2975 CB
     OVER AD=
VVDN 080830Z 11010KT 070V140 9999 FEW017TCU SCT300 34/21 Q1006
     NOSIG=
VVDN 080830Z NIL=
VVNB 080830Z 08007KT 9999 FEW027 37/26 Q1001 NOSIG=
VVNB 080830Z NIL=
VVTS 080830Z VRB03KT 9999 -SHRA FEW015TCU SCT017 33/24 Q1006 TEMPO
     TL0900 5000 SHRA=
####018000105####
SPBZ31 KWBC 080838
SPECI
SBFI 080836Z 18004KT 3000 1000S R14/P2000 BR FEW020 SCT100 15/14
Q1015=
####018000088####
SAAW32 KWBC 080830 RRA
METAR
OIII 080830Z 11010KT CAVOK 38/M03 Q1014 A2996 879/6=
####018000772####
SAAW34 KWBC 080815 RRC
METAR
UAAA 080830Z 36004MPS 9999 FEW050CB BKN100 30/09 Q1013 WS RWY05
     88CLRD65 TEMPO TS=
UACC 080830Z 30005MPS 250V360 CAVOK 23/03 Q1010 220/0070 NOSIG RMK
     QFE726/0968=
UAKK 080830Z 28003MPS 200V340 CAVOK 24/03 Q1011 230///70 NOSIG RMK
     QFE711/0949=
UAOO 080830Z NIL=
UARR 080830Z NIL=
UATE 080830Z 30005MPS 270V330 CAVOK 35/17 Q1010 300///70 NOSIG RMK
     QFE756/1008=
UATG 080830Z 34006G09MPS CAVOK 38/10 Q1009 32CLRD70 NOSIG RMK
     QFE759/1012=
UATT 080830Z 06010MPS 9999 NSC 32/04 Q1010 13CLRD70 NOSIG RMK
     QFE738/0984=
UAUU 080830Z 34006G12MPS CAVOK 25/M01 Q1013 33CLRD70 NOSIG RMK
     QFE744/0992=
UTDD 080830Z 14002MPS 9999 FEW066 36/01 Q1010 09CLRD70 NOSIG RMK
     QFE690/0920=
####018000601####
SACI32 KWBC 080800 RRC
METAR
ZBAA 080830Z 14003MPS 080V190 CAVOK 36/11 Q1003 NOSIG=
ZBTJ 080830Z 15007MPS CAVOK 32/18 Q1004 NOSIG=
ZBYN 080830Z 11004MPS 080V150 CAVOK 31/12 Q1007 NOSIG=
ZGGG 080830Z 15005MPS 9999 FEW050TCU SCT050 36/26 Q1004 NOSIG=
ZSHC 080830Z VRB01MPS 5000 -SHRA BR SCT023 FEW033CB 28/23 Q1004
     TEMPO TSRA SCT033CB=
ZSPD 080830Z 11006MPS 9999 BKN016 27/24 Q1005 NOSIG=
ZSSS 080830Z 11004MPS 070V130 9999 SCT026 29/22 Q1005 NOSIG=
ZWWW 080830Z 02004MPS 340V060 9999 FEW050CB 32/06 Q1010 NOSIG=
ZYTL 080830Z 31005MPS 270V330 9999 SCT033 28/19 Q1006 NOSIG=
####018000097####
SAEE31 KWBC 080830 RRA
METAR
UKKK 080830Z 29003MPS 9999 BKN015 22/18 Q1015 26CLRD70 NOSIG=
####018000150####
SAEW31 KWBC 080830 RRA
METAR
LPAZ 080830Z 28003KT 9999 FEW008 BKN016 BKN030 19/18 Q1024=
LPPD 080830Z 27005KT 9999 FEW017 BKN027 20/15 Q1024=
####018000081####
SAFR32 KWBC 080830 RRA
METAR
LFST 080834Z VRB02KT CAVOK 25/12 Q1020 NOSIG=
####018000073####
SAIO31 KWBC 080800 RRE
METAR
VYMD 080830Z NIL=
VYYY 080830Z NIL=
####018000118####
SAIY43 KWBC 080750 RRD
METAR
LIRX 080755Z 09004KT CAVOK 23/10 Q1018 RMK SKC VIS MIN 9999E VIS
     MAR 20 KM=
####018000227####
SAJP31 KWBC 080830 RRA
METAR
RJAA 080830Z 21007KT 170V240 9999 FEW025 BKN/// 28/22 Q1009
     NOSIG=
RJCC 080830Z 16006KT 140V210 1700 -DZ BR BKN002 18/17 Q1009=
RJTT 080830Z 18018KT 9999 FEW030 BKN/// 27/22 Q1009=
####018000268####
SAPO31 KWBC 080800 RRD
METAR
LPAZ 080830Z 28003KT 9999 FEW008 BKN016 BKN030 19/18 Q1024=
LPFL 080830Z 21003KT 190V250 9999 SCT023 BKN045 22/17 Q1022=
LPHR 080830Z 19003KT 9999 SCT015 SCT035 22/18 Q1023=
LPPD 080830Z 27005KT 9999 FEW017 BKN027 20/15 Q1024=
####018000877####
SARA31 KWBC 080800 RRG
METAR
UAAA 080830Z 36004MPS 9999 FEW050CB BKN100 30/09 Q1013 WS RWY05
     88CLRD65 TEMPO TS=
UACC 080830Z 30005MPS 250V360 CAVOK 23/03 Q1010 220/0070 NOSIG RMK
     QFE726/0968=
UAFM 080830Z 32003MPS CAVOK 34/06 Q1013 NOSIG=
UAFO 080830Z NIL=
UAOO 080830Z NIL=
UARR 080830Z NIL=
UATE 080830Z 30005MPS 270V330 CAVOK 35/17 Q1010 300///70 NOSIG RMK
     QFE756/1008=
UATG 080830Z 34006G09MPS CAVOK 38/10 Q1009 32CLRD70 NOSIG RMK
     QFE759/1012=
UATT 080830Z 06010MPS 9999 NSC 32/04 Q1010 13CLRD70 NOSIG RMK
     QFE738/0984=
UTAA 080830Z 11005MPS 060V150 9999 SKC 44/02 Q1008 NOSIG=
UTAK 080830Z NIL=
UTAT 080830Z NIL=
UTAV 080830Z NIL=
UTDD 080830Z 14002MPS 9999 FEW066 36/01 Q1010 09CLRD70 NOSIG RMK
     QFE690/0920=
UTDL 080830Z 05003MPS 010V100 9999 FEW046 36/08 Q1009 NOSIG RMK
     QFE719 8809//70=
####018000053####
SARS31 KWBC 080800 RRC
METAR
UTAM 080830Z NIL=
####018000075####
SASW31 KWBC 080820 RRA
METAR
LSZS 080820Z 22008KT CAVOK 19/11 Q1027=
####018000594####
SAUR31 KWBC 080750 RRB
METAR
UKCW 080830Z 07002MPS 350V130 9999 BKN040 29/15 Q1014 2709//70
     NOSIG=
UKKK 080830Z 29003MPS 9999 BKN015 22/18 Q1015 26CLRD70 NOSIG=
UKKM 080830Z 30002MPS 9000 BKN030 22/18 Q1014 33CLRD70 NOSIG=
UKLI 080830Z 29002MPS 250V330 9999 -SHRA BKN010CB BKN020 15/14
     Q1020 28290565 NOSIG=
UKLN 080830Z 30006MPS 240V330 9999 BKN012 BKN033CB 16/14 Q1019
     3309//70 NOSIG=
UKLR 080830Z 31003MPS 270V340 9999 BKN024 BKN100 19/15 Q1018
     30090070 NOSIG=
UKON 080830Z 34003MPS 300V030 9999 FEW033 OVC200 26/19 Q1013
     05090075 NOSIG=
####018000402####
SAXX99 KWBC 080800 RRX
METAR
EGHK 080820Z 14003KT 9999 FEW020 17/15 Q1018=
RJBB 080830Z 24010KT 9999 FEW025 BKN/// 28/23 Q1007 NOSIG=
RJGG 080830Z 17012KT 9999 FEW015 BKN/// 26/23 Q1008 NOSIG=
UDYZ 080830Z 22003MPS 170V290 9999 SKC 33/14 Q1011 09010070
     NOSIG=
VIJP 080800Z VRB04KT 3500 HZ SCT030 35/24 Q1006 NOSIG=
ZYTX 080830Z 35002MPS 310V120 9999 FEW030TCU 25/18 Q1005 NOSIG=
####018000085####
SPUS53 KWBC 080838
SPECI
KIRK 080835Z AUTO 00000KT 1 3/4SM BR CLR 19/19 A3006=
####018000085####
SPUS73 KWBC 080838
SPECI
KIRK 080835Z AUTO 00000KT 1 3/4SM BR CLR 19/19 A3006=
####018001104####
SAUS20 KNKA 080838
METAR K1P1 080835Z AUTO 00000KT 1/2SM FG VV005 22/21 A3005 RMK AO2 
     T02160205=
METAR KBVU 080835Z AUTO 34005KT 10SM CLR 25/01 A2985 RMK AO2 =
METAR KE80 080835Z AUTO 28006KT 10SM CLR 19/10 A3023 RMK AO2 
     T01910100=
METAR KEDC 080835Z AUTO 09004KT BKN012 OVC017 25/24 A2996 RMK AO2 
     =
METAR KEIK 080835Z AUTO 20005KT 10SM CLR 13/12 A3030 RMK AO2=
METAR KEOE 080835Z AUTO 21003KT 10SM CLR 22/21 A3003 RMK AO2=
METAR KMAN 080835Z AUTO 13003KT 10SM CLR 15/08 A3003 RMK AO1 =
SPECI KNSE 080829Z AUTO 00000KT 1/2SM FG VV004 23/21 A3002 RMK AO2
      $=
METAR KPVF 080835Z AUTO 00000KT 10SM CLR 22/12 A2994 RMK AO1 =
METAR KRBW 080835Z AUTO 27004KT 10SM CLR 23/20 A2997 RMK AO2=
METAR KRCM 080835Z AUTO 00000KT 7SM SCT001 SCT008 OVC060 22/22 
     A3004 RMK AO2=
METAR KSNC 080835Z AUTO 00000KT M1/4SM  FG OVC001 22/ A3006 RMK AO2
      VSBY M1/4V5 =
METAR KSRR 080835Z AUTO 22005KT 10SM FEW047 13/12 A3035 RMK AO2 =
METAR KTME 080835Z AUTO 04006KT 5SM 25/25 A2992 RMK AO1 =
METAR KUOX 080835Z AUTO 00000KT 10SM CLR 22/21 A3008 RMK AO2 =
####018000080####
SACN88 CWAO 080831
WNS SA 0831 AUTO8 M M M 201/16/16/MMMM/M/M 3002 41MM=

####018000085####
SPUS81 KWBC 080838
SPECI
KIRK 080835Z AUTO 00000KT 1 3/4SM BR CLR 19/19 A3006=
####018000439####
SAAL40 DAMM 080830
METAR DAAG 080830Z 22003KT 190V290 CAVOK 30/17 Q1018=
METAR DAAT 080830Z 13017KT CAVOK 31/02 Q1022=
METAR DABB 080830Z 01003KT CAVOK 29/16 Q1019=
METAR DABC 080830Z 00000KT CAVOK 26/11 Q1023=
METAR DABS 080830Z 32004KT CAVOK 27/13 Q1023=
METAR DAON 080830Z 00000KT CAVOK 33/19 Q1017=
METAR DAOO 080830Z 36008KT CAVOK 29/21 Q1016=
METAR DAUH 080830Z 10012KT CAVOK 33/21 Q1018=
METAR DAUZ 080830Z NIL=
####018000427####
SAPL31 EPWA 080830
METAR EPWA 080830Z 29009KT 250V350 9999 FEW026 19/13 Q1021
      NOSIG=
METAR EPGD 080830Z 31009KT 280V340 CAVOK 20/11 Q1021=
METAR EPKK 080830Z 29010KT 260V320 9999 FEW046 20/08 Q1022=
METAR EPPO 080830Z 32004KT CAVOK 21/09 Q1023=
METAR EPRZ 080830Z 32009KT 9999 FEW033 20/10 Q1021=
METAR EPBY 080830Z 31006KT 240V350 9999 FEW039 21/10 Q1022=
METAR EPZG 080830Z 23004KT CAVOK 23/09 Q1023=
####018000351####
SAPL32 EPWA 080830
METAR EPKT 080830Z 31009KT CAVOK 19/09 Q1023=
METAR EPLL 080830Z 30006KT 270V330 9999 FEW043 19/08 Q1022=
METAR EPSC 080830Z 00000KT CAVOK 21/12 Q1022=
METAR EPWR 080830Z 26004KT 210V020 9999 FEW046 22/11 Q1024=
METAR EPBY 080830Z 31006KT 240V350 9999 FEW039 21/10 Q1022=
METAR EPZG 080830Z 23004KT CAVOK 23/09 Q1023=
####018000103####
SAKY31 RUMS 080830 RRA
METAR UAFO 080830Z 29004MPS 9999 FEW050TCU 34/20 Q1018 NOSIG RMK
QFEM685=
####018000327####
SABY31 UMMN 080830
METAR UMBB 080830Z 28003MPS 8000 NSC 18/12 Q1018 NOSIG=
METAR UMGG 080830Z VRB02MPS 9999 SCT028 BKN100 24/18 Q1013
R28/190055 NOSIG=
METAR UMMM 080830Z 29005MPS 9999 OVC016 18/15 Q1014 R30/290050
NOSIG RMK QFE741=
METAR UMMS 080830Z 28004MPS 260V320 9999 BKN012 19/16 Q1014
R31/CLRD// NOSIG=
####018000116####
SAIY42 LIIB 080800 RRA
METAR LIRX 080755Z 09004KT CAVOK 23/10 Q1018 RMK SKC VIS MIN 9999E
      VIS MAR 20 KM=
####018000091####
SAGL KAWN 080800 RRC
METAR BIKF 080830Z 02023KT 9999 FEW017 SCT030 BKN080 09/04 Q0993=
####018000119####
SPCN46 CWAO 080838
SPECI CYQA 080838Z AUTO 14002KT 2 1/4SM BR CLR 19/19 A3003 RMK SLP170
 DENSITY ALT 1400FT=

####018002994####
SAUS20 KNKA 080838
METAR K1A6 080835Z AUTO 00000KT 4SM BR CLR 21/21 A3009 RMK AO2=
METAR K21D 080838Z AUTO 31004KT 10SM CLR 18/17 A3006 RMK AO2=
METAR K29G 080834Z AUTO 00000KT 10SM BKN060 21/18 A3009 RMK AO2
     T02100184 PWINO=
METAR K4I3 080836Z AUTO 00000KT 10SM SCT060 20/19 A3009 RMK
     AO2=
METAR KACB 080835Z AUTO 00000KT 10SM CLR 24/21 A2998 RMK AO2=
METAR KACQ 080839Z AUTO 33003KT 7SM CLR 17/16 A3011 RMK AO2=
METAR KADC 080837Z AUTO 24005KT 10SM CLR 13/12 A3008 RMK AO2=
METAR KAEL 080831Z AUTO 32003KT 10SM CLR 18/17 A3008 RMK AO2=
METAR KAIG 080835Z AUTO 30003KT 10SM SCT003 18/18 A2999 RMK AO2=
METAR KAIT 080833Z AUTO 00000KT 3/4SM BR VV005 12/11 A3006 RMK
     AO2=
METAR KANE 080835Z AUTO 00000KT 10SM 18/17 A3008 RMK AO2=
METAR KARV 080832Z AUTO 32003KT 10SM SCT028 BKN036 19/18 A3002 
     RMK AO2 T01870177=
METAR KATW 080835Z AUTO 22008KT 7SM CLR 22/21 A2997 RMK AO2=
METAR KAUM 080835Z AUTO 31004KT 10SM CLR 18/17 A3007 RMK AO2=
METAR KBAX 080835Z AUTO 00000KT 4SM BR CLR 21/21 A3000 RMK AO2=
METAR KBBB 080833Z AUTO 00000KT 10SM CLR 14/14 A3011 RMK AO2=
METAR KBDH 080835Z AUTO 27004KT 10SM CLR 15/14 A3012 RMK AO2=
METAR KBJI 080834Z AUTO 25008KT 10SM CLR 15/13 A3004 RMK AO2=
SPECI KBRO 080837Z 34003KT 10SM -RA BKN016 BKN022 27/26 A2978 RMK 
    AO2 RAB08 P0000=
METAR KBUU 080834Z AUTO 16003KT 7SM DZ OVC065 21/21 A3000 RMK AO2=
METAR KBWP 080831Z AUTO 00000KT 10SM CLR 15/14 A3009 RMK AO1 
     T01490135=
METAR KCAD 080835Z AUTO 23007KT 10SM SCT100 22/20 A3003 RMK
     AO2=
METAR KCBG 080835Z AUTO 00000KT 10SM CLR 16/14 A3007 RMK AO2=
METAR KCFE 080835Z AUTO 27003KT 10SM CLR 18/16 A3009 RMK AO2
     T01760162=
METAR KCFS 080835Z AUTO 00000KT 1/2SM FG VV005 21/21 A3001 RMK
     AO2=
METAR KCKC 080835Z AUTO 30004KT 10SM CLR 16/13 A3003 RMK AO2=
METAR KCKN 080835Z AUTO 27003KT 10SM CLR 14/12 A3004 RMK AO2=
METAR KCLI 080835Z AUTO 22005KT 7SM OVC005 22/21 A2997 RMK AO2=
METAR KCMY 080834Z AUTO 00000KT 10SM CLR 20/19 A3002 RMK AO2 
     T02000190=
METAR KCNB 080838Z AUTO 24004KT 10SM CLR 16/13 A3013 RMK AO2
     T01570130=
METAR KCOQ 080836Z AUTO 29004KT 10SM CLR 14/14 A3005 RMK AO2=
METAR KCQM 080837Z AUTO 00000KT 10SM CLR 14/14 A3004 RMK AO2=
METAR KCVH 080830Z AUTO 00000KT 10SM OVC012 12/11 A2993 RMK
     AO1=
METAR KCWA 080835Z AUTO 33005KT 10SM CLR 19/19 A3000 RMK AO2 
     T01920191=
METAR KDRM 080836Z AUTO 16004KT 10SM OVC110 20/20 A2996 RMK
     AO2=
METAR KDTL 080835Z AUTO 27006KT 10SM CLR 17/11 A3008 RMK AO2=
METAR KDUH 080835Z AUTO 00000KT 7SM CLR 22/18 A3004 RMK AO2=
METAR KDVK 080837Z AUTO 00000KT 5SM 21/19 A3008 RMK AO1=
METAR KDXX 080834Z AUTO 00000KT 10SM CLR 14/14 A3011 RMK AO2=
METAR KDYT 080834Z AUTO 27007KT 10SM CLR 20/16 A3003 RMK AO2=
METAR KEFK 080836Z AUTO 19003KT 4SM BR SCT055 SCT070 20/19 A3005
     RMK AO2=
METAR KEFT 080835Z AUTO 26005KT 10SM SCT070 OVC100 21/19 A3002 
     RMK AO2 T02080193=
####018000096####
SPBZ24 SBFI 080837
SPECI SBFI 080837Z 18004KT 1000 R14/1400 BR FEW020 SCT100 15/14
Q1015=
####018003520####
SAUS99 KWBC 080839
METAR
K1P1 080835Z AUTO 00000KT 1/2SM FG VV005 22/21 A3005 RMK AO2
     T02160205=
KBVU 080835Z AUTO 34005KT 10SM CLR 25/01 A2985 RMK AO2=
KE80 080835Z AUTO 28006KT 10SM CLR 19/10 A3023 RMK AO2
     T01910100=
KEDC 080835Z AUTO 09004KT BKN012 OVC017 25/24 A2996 RMK AO2=
KEIK 080835Z AUTO 20005KT 10SM CLR 13/12 A3030 RMK AO2=
KEOE 080835Z AUTO 21003KT 10SM CLR 22/21 A3003 RMK AO2=
KMAN 080835Z AUTO 13003KT 10SM CLR 15/08 A3003 RMK AO1=
KPVF 080835Z AUTO 00000KT 10SM CLR 22/12 A2994 RMK AO1=
KRBW 080835Z AUTO 27004KT 10SM CLR 23/20 A2997 RMK AO2=
KRCM 080835Z AUTO 00000KT 7SM SCT001 SCT008 OVC060 22/22 A3004 RMK
     AO2=
KSNC 080835Z AUTO 00000KT M1/4SM FG OVC001 22/ A3006 RMK AO2 VSBY
     M1/4V5=
KSRR 080835Z AUTO 22005KT 10SM FEW047 13/12 A3035 RMK AO2=
KTME 080835Z AUTO 04006KT 5SM 25/25 A2992 RMK AO1=
KUOX 080835Z AUTO 00000KT 10SM CLR 22/21 A3008 RMK AO2=
K1A6 080835Z AUTO 00000KT 4SM BR CLR 21/21 A3009 RMK AO2=
K21D 080838Z AUTO 31004KT 10SM CLR 18/17 A3006 RMK AO2=
K29G 080834Z AUTO 00000KT 10SM BKN060 21/18 A3009 RMK AO2
     T02100184 PWINO=
K4I3 080836Z AUTO 00000KT 10SM SCT060 20/19 A3009 RMK AO2=
KACB 080835Z AUTO 00000KT 10SM CLR 24/21 A2998 RMK AO2=
KACQ 080839Z AUTO 33003KT 7SM CLR 17/16 A3011 RMK AO2=
KADC 080837Z AUTO 24005KT 10SM CLR 13/12 A3008 RMK AO2=
KAEL 080831Z AUTO 32003KT 10SM CLR 18/17 A3008 RMK AO2=
KAIG 080835Z AUTO 30003KT 10SM SCT003 18/18 A2999 RMK AO2=
KAIT 080833Z AUTO 00000KT 3/4SM BR VV005 12/11 A3006 RMK AO2=
KANE 080835Z AUTO 00000KT 10SM 18/17 A3008 RMK AO2=
KARV 080832Z AUTO 32003KT 10SM SCT028 BKN036 19/18 A3002 RMK AO2
     T01870177=
KATW 080835Z AUTO 22008KT 7SM CLR 22/21 A2997 RMK AO2=
KAUM 080835Z AUTO 31004KT 10SM CLR 18/17 A3007 RMK AO2=
KBAX 080835Z AUTO 00000KT 4SM BR CLR 21/21 A3000 RMK AO2=
KBBB 080833Z AUTO 00000KT 10SM CLR 14/14 A3011 RMK AO2=
KBDH 080835Z AUTO 27004KT 10SM CLR 15/14 A3012 RMK AO2=
KBJI 080834Z AUTO 25008KT 10SM CLR 15/13 A3004 RMK AO2=
KBUU 080834Z AUTO 16003KT 7SM DZ OVC065 21/21 A3000 RMK AO2=
KBWP 080831Z AUTO 00000KT 10SM CLR 15/14 A3009 RMK AO1
     T01490135=
KCAD 080835Z AUTO 23007KT 10SM SCT100 22/20 A3003 RMK AO2=
KCBG 080835Z AUTO 00000KT 10SM CLR 16/14 A3007 RMK AO2=
KCFE 080835Z AUTO 27003KT 10SM CLR 18/16 A3009 RMK AO2
     T01760162=
KCFS 080835Z AUTO 00000KT 1/2SM FG VV005 21/21 A3001 RMK AO2=
KCKC 080835Z AUTO 30004KT 10SM CLR 16/13 A3003 RMK AO2=
KCKN 080835Z AUTO 27003KT 10SM CLR 14/12 A3004 RMK AO2=
KCLI 080835Z AUTO 22005KT 7SM OVC005 22/21 A2997 RMK AO2=
KCMY 080834Z AUTO 00000KT 10SM CLR 20/19 A3002 RMK AO2
     T02000190=
KCNB 080838Z AUTO 24004KT 10SM CLR 16/13 A3013 RMK AO2
     T01570130=
KCOQ 080836Z AUTO 29004KT 10SM CLR 14/14 A3005 RMK AO2=
KCQM 080837Z AUTO 00000KT 10SM CLR 14/14 A3004 RMK AO2=
KCVH 080830Z AUTO 00000KT 10SM OVC012 12/11 A2993 RMK AO1=
KCWA 080835Z AUTO 33005KT 10SM CLR 19/19 A3000 RMK AO2
     T01920191=
KDRM 080836Z AUTO 16004KT 10SM OVC110 20/20 A2996 RMK AO2=
KDTL 080835Z AUTO 27006KT 10SM CLR 17/11 A3008 RMK AO2=
KDUH 080835Z AUTO 00000KT 7SM CLR 22/18 A3004 RMK AO2=
KDVK 080837Z AUTO 00000KT 5SM 21/19 A3008 RMK AO1=
KDXX 080834Z AUTO 00000KT 10SM CLR 14/14 A3011 RMK AO2=
KDYT 080834Z AUTO 27007KT 10SM CLR 20/16 A3003 RMK AO2=
KEFK 080836Z AUTO 19003KT 4SM BR SCT055 SCT070 20/19 A3005 RMK
     AO2=
KEFT 080835Z AUTO 26005KT 10SM SCT070 OVC100 21/19 A3002 RMK AO2
     T02080193=
####018000181####
SPUS99 KWBC 080839
SPECI
KNSE 080829Z AUTO 00000KT 1/2SM FG VV004 23/21 A3002 RMK AO2 $=
KBRO 080837Z 34003KT 10SM -RA BKN016 BKN022 27/26 A2978 RMK AO2
     RAB08 P0000=
####018000094####
SPBZ24 SBFI 080837
SPECI SBFI 080837Z 18004KT 1000 R14/1400 BR FEW020 SCT100 15/14
Q1015=
####018000430####
SAAL40 DAMM 080830
METAR DAAG 080830Z 22003KT 190V290 CAVOK 30/17 Q1018=
METAR DAAT 080830Z 13017KT CAVOK 31/02 Q1022=
METAR DABB 080830Z 01003KT CAVOK 29/16 Q1019=
METAR DABC 080830Z 00000KT CAVOK 26/11 Q1023=
METAR DABS 080830Z 32004KT CAVOK 27/13 Q1023=
METAR DAON 080830Z 00000KT CAVOK 33/19 Q1017=
METAR DAOO 080830Z 36008KT CAVOK 29/21 Q1016=
METAR DAUH 080830Z 10012KT CAVOK 33/21 Q1018=
METAR DAUZ 080830Z NIL=
####018000138####
SAAK31 KWBC 080800 RRB
METAR
PAVD 080836Z 00000KT 10SM BKN090 OVC100 11/08 A3010=
PAWG 080836Z AUTO 25005KT 10SM CLR 13/11 A3013=
####018000096####
SPBZ31 KWBC 080839
SPECI
SBFI 080837Z 18004KT 1000 R14/1400 BR FEW020 SCT100 15/14 Q1015=
####018000142####
SAAK32 KWBC 080800 RRB
METAR
PADK 080836Z 07013KT 6SM BKN020 BKN028 OVC037 07/06 A2959=
PADL 080836Z 32007KT 10SM SCT120 11/07 A2998=
####018002934####
SAUS20 KNKA 080838
METAR KELO 080833Z AUTO 00000KT 10SM CLR 13/13 A3002 RMK AO2=
METAR KEVM 080832Z AUTO 27004KT 10SM CLR 15/13 A3002 RMK AO1=
METAR KFBL 080834Z AUTO 30004KT 10SM CLR 18/16 A3009 RMK AO2=
METAR KFFM 080833Z AUTO 20004KT 10SM CLR 15/14 A3008 RMK AO2=
METAR KFFX 080835Z AUTO 19005KT 5SM BR BKN065 OVC075 22/22 A3002
     RMK AO2=
METAR KFGN 080834Z AUTO 26009KT 1SM DZ VV007 17/13 A2996 RMK
     AO2=
METAR KFPK 080836Z AUTO 19003KT 7SM CLR 21/20 A3002 RMK AO2=
METAR KFSE 080834Z AUTO 00000KT 10SM CLR 12/12 A3004 RMK AO2=
METAR KFSO 080838Z AUTO 00000KT 5SM BR CLR 23/22 A3000 RMK AO2=
METAR KGDB 080833Z AUTO 24005KT 10SM CLR 15/14 A3013 RMK AO2
     T01450142=
METAR KGHW 080833Z AUTO 22006KT 10SM CLR 14/13 A3013 RMK AO2=
METAR KGYL 080835Z AUTO 00000KT 10SM CLR 16/15 A3009 RMK AO2
     T01560146=
METAR KHAF 080830Z AUTO 00000KT 7SM OVC008 12/10 A2995 RMK AO2=
METAR KHAI 080835Z AUTO 00000KT 5SM BR SCT060 BKN065 22/21 A3004
     RMK AO2=
METAR KHCD 080832Z AUTO 27004KT 7SM CLR 14/13 A3010 RMK AO2
     T01380128=
METAR KHCO 080834Z AUTO 19004KT 10SM CLR 12/12 A3004 RMK AO2=
METAR KHZX 080831Z AUTO 00000KT 5SM CLR 13/12 A3007 RMK AO2=
SPECI KIJD 080837Z AUTO 00000KT 1/4SM FG VV001 23/23 A3005 RMK AO2=
METAR KIKW 080834Z AUTO 3SM BR SCT065 22/21 A3000 RMK AO2
     T02160205=
METAR KIRS 080835Z AUTO 00000KT 7SM CLR 22/19 A3004 RMK AO2=
METAR KJKJ 080834Z AUTO 23004KT 10SM CLR 16/15 A3006 RMK AO2=
METAR KJMR 080838Z AUTO 31004KT 10SM CLR 15/13 A3008 RMK AO2=
METAR KJYG 080835Z AUTO 00000KT 10SM CLR 17/17 A3013 RMK AO2=
METAR KJYM 080835Z AUTO 00000KT 7SM CLR 21/19 A3006 RMK AO2=
METAR KLCK 080835Z AUTO 00000KT 5SM BR CLR 22/21 A3006 RMK AO2 
     T02240207=
METAR KLJF 080832Z AUTO 28004KT 10SM CLR 18/17 A3011 RMK AO2=
METAR KLVN 080829Z AUTO 30004KT 10SM CLR 18/17 A3007 RMK AO2=
METAR KLWA 080836Z AUTO 25004KT 10SM SCT037 BKN050 BKN080 23/21
     A3005 RMK AO2=
METAR KLXL 080834Z AUTO 00000KT 4SM BR CLR 12/11 A3008 RMK AO2=
METAR KLYV 080838Z AUTO 00000KT 10SM CLR 14/13 A3016 RMK AO2=
METAR KMDS 080825Z AUTO 28005KT 10SM CLR 15/14 A3016 RMK AO2=
METAR KMGG 080835Z AUTO 28004KT 10SM CLR 16/16 A3010 RMK AO2
     T01610155=
METAR KMGN 080835Z AUTO 00000KT 10SM SCT120 21/20 A2997 RMK
     AO2=
METAR KMJQ 080832Z AUTO 28005KT 10SM CLR 15/14 A3014 RMK AO2=
METAR KMOP 080834Z AUTO 27003KT 10SM SCT060 OVC120 23/23 A3001 RMK
     AO2=
METAR KMOX 080830Z AUTO 25004KT 10SM CLR 16/14 A3007 RMK AO2=
METAR KMRT 080833Z AUTO 00000KT 5SM CLR 21/19 A3011 RMK AO2
     T02060189=
METAR KMVE 080834Z AUTO 30005KT 10SM CLR 17/16 A3010 RMK AO2=
METAR KMWM 080833Z AUTO 26004KT 10SM CLR 14/14 A3013 RMK AO2=
METAR KMWO 080835Z AUTO 00000KT 3SM BR CLR 20/20 A3008 RMK AO2=
METAR KOEB 080835Z AUTO 00000KT 7SM CLR 23/20 A3005 RMK AO2=
METAR KONA 080831Z AUTO 30003KT 7SM CLR 20/19 A3002 RMK AO2=
####018002077####
SAUS20 KNKA 080838
METAR KOVL 080834Z AUTO 00000KT 7SM CLR 13/12 A3010 RMK AO2
     T01300115=
METAR KOZW 080835Z AUTO 00000KT 7SM CLR 22/21 A3004 RMK AO2=
METAR KPEX 080832Z AUTO 25004KT 7SM CLR 13/13 A3011 RMK AO2
     T01300129=
METAR KPNM 080833Z AUTO 28003KT 10SM CLR 15/14 A3008 RMK AO2=
METAR KPQN 080833Z AUTO 32004KT 10SM CLR 18/15 A3016 RMK AO2=
METAR KPVB 080833Z AUTO 00000KT 7SM BKN003 20/19 A3003 RMK AO1 
     T01990191=
METAR KPWC 080833Z AUTO 00000KT 1/2SM FG OVC001 11/10 A3008 RMK
     AO2=
METAR KRGK 080836Z AUTO 27003KT 10SM CLR 19/18 A3004 RMK AO2=
METAR KRNP 080835Z AUTO 00000KT 10SM CLR 21/21 A3002 RMK AO2=
METAR KROS 080835Z AUTO 28003KT 10SM CLR 16/15 A3007 RMK AO2
     T01560146=
METAR KROX 080835Z AUTO 25005KT 10SM CLR 16/13 A3000 RMK AO2=
METAR KRQB 080835Z AUTO 25005KT 10SM BKN080 OVC085 23/21 A3003 RMK
     AO2=
METAR KRRT 080834Z AUTO 25005KT 10SM CLR 15/13 A3000 RMK AO2=
METAR KRZN 080834Z AUTO 29004KT 10SM SCT047 18/16 A3005 RMK AO2 
     T01810160=
METAR KSAZ 080834Z AUTO 00000KT 10SM CLR 14/14 A3008 RMK AO2=
METAR KSGS 080833Z AUTO 32006KT 10SM CLR 20/17 A3006 RMK AO2
     T01970165=
METAR KSYN 080850Z AUTO 00000KT 10SM CLR 19/17 A3006 RMK AO2
     T01850167=
METAR KTEW 080832Z AUTO 00000KT 7SM CLR 21/20 A3003 RMK AO2=
METAR KTKC 080833Z AUTO 24006KT 10SM CLR 15/14 A3014 RMK AO2
     T01540135=
METAR KTOB 080835Z AUTO 00000KT 10SM CLR 18/17 A3007 RMK AO2=
METAR KTWM 080833Z AUTO 29003KT 10SM SCT060 17/14 A3000 RMK
     AO2=
METAR KUKT 080830Z AUTO 00000KT 5SM CLR 21/20 A3003 RMK AO1=
METAR KULM 080835Z AUTO 29005KT 10SM CLR 15/13 A3011 RMK AO2=
METAR KUNI 080835Z AUTO 00000KT 5SM HZ CLR 22/17 A3007 RMK AO2 
     T02170170=
METAR KVES 080834Z AUTO 00000KT 5SM BR CLR 20/19 A3007 RMK AO2 
     T02030192=
METAR KVLL 080834Z AUTO 00000KT 10SM CLR 26/20 A3005 RMK AO2=
METAR KVVV 080836Z AUTO 27004KT 10SM CLR 16/14 A3011 RMK AO2=
METAR KY70 080835Z AUTO 29012G20KT 4SM RA SCT024 BKN049 OVC070
     23/22 A3004 RMK AO2 P0010 T02340218=
####018000083####
SAUS41 KWBC 080800 RRH
METAR
KPQI 080835Z AUTO 00000KT 10SM CLR 21/18 A2998=
####018000135####
SAUS43 KWBC 080800 RRI
METAR
KCIU 080835Z AUTO 22004KT 5SM OVC110 19/17 A2995=
KELO 080833Z AUTO 00000KT 10SM CLR 13/13 A3002=
####018000083####
SAUS44 KWBC 080800 RRG
METAR
KGDV 080835Z AUTO 23006KT 10SM CLR 12/07 A3016=
####018000293####
SAUS53 KWBC 080800 RRI
METAR
KDVL 080835Z AUTO 26006KT 10SM CLR 15/12 A3006=
KEAR 080835Z AUTO 33006KT 10SM CLR 15/13 A3022=
KGPZ 080835Z AUTO 19004KT 10SM CLR 14/12 A3006=
KJAC 080835Z AUTO 35007KT 10SM CLR 09/00 A3033=
KONL 080830Z AUTO 28003KT 10SM SCT090 OVC120 16/14 A3020=
####018000136####
SAUS54 KWBC 080800 RRF
METAR
KSOW 080830Z AUTO 00000KT 10SM OVC100 21/03 A3024=
KTRK 080830Z AUTO 18003KT 10SM CLR 12/08 A3016=
####018000566####
SAAO32 GOOY 080830
METAR GABS 080830Z 23005KT CAVOK 27/23 Q1015 NOSIG=
METAR GGOV 080830Z NIL=
METAR GOOY 080830Z 16006KT 130V190 9999 SCT013 28/24 Q1012 NOSIG=
METAR DIAP 080830Z 27004KT 240V310 4000 -RA SCT005 BKN012 BKN080
25/24 Q1015 TEMPO 2000 RA BKN005 BKN012 OVC080=
METAR GQNN 080830Z 20009KT 180V240 6000 FEW010 27/23 Q1011 NOSIG=
METAR GQPP 080830Z NIL=
METAR GUCY 080830Z NIL=
METAR GVAC 080830Z NIL=
METAR GFLL 080830Z NIL=
METAR GBYD 080830Z NIL=
METAR GLRB 080830Z 04003KT 9999 SCT013 FEW024CB BKN100 25/23 Q1015
 CB-SW=

####018000692####
SARA36 RUMS 080830
METAR UWUU 080830Z 03003G08MPS 020V130 CAVOK 27/08 Q1016 82010060
NOSIG RMK QFE751/1001 MOD TURB 500-1600=
METAR USCC 080830Z 34007G11MPS 9999 SCT040 24/02 Q1014 NOSIG RMK
QFE740 27000070=
METAR USDD 080830Z 04009G12MPS CAVOK 17/02 Q1016 NOSIG RMK
QFE756/1008 SC060=
METAR USMU 080830Z 01006MPS 9999 -SHRA SCT022CB OVC066 11/10 Q1005
NOSIG RMK QFE748 09250345=
METAR USNN 080830Z 16005MPS P6000 SCT026 BKN200 18/11 Q1002 NOSIG RMK
QFE747 SC065=
METAR USRK 080830Z 34005MPS 6000 BKN013 OVC066 13/10 Q1002 NOSIG RMK
QFE746 351///55=
METAR USRR 080830Z 34004MPS 7000 OVC010 12/10 Q1003 TEMPO BKN005 RMK
QFE747 25////60=
METAR USSS 080830Z NIL=
####018000386####
SARA33 RUMS 080830
METAR UIAA 080830Z 15003MPS 9999 BKN050CB OVC200 29/08 Q1005 NOSIG
RMK QFE696 29CLRD70=
METAR UIBB 080830Z 06005MPS 9999 FEW033 BKN200 28/12 Q1005 NOSIG RMK
QFE711/0948 30CLRD60=
METAR UIII 080830Z 16004MPS CAVOK 21/13 Q1006 NOSIG RMK QFE712/0950
12CLRD60=
METAR UIUU 080830Z 21004MPS 160V280 9999 SCT040CB OVC100 23/13 Q1007
NOSIG RMK QFE711/0948=
####018000544####
SARA32 RUMS 080830
METAR UHHH 080830Z 03004MPS 9999 BKN030CB OVC100 18/15 Q1010 NOSIG
RMK QFE751/1001 55090060=
METAR UHMA 080830Z NIL=
METAR UHMM 080830Z 24003MPS 9999 BKN008 OVC027 13/11 Q1016 TEMPO
BKN010 RMK QFE747 88010070 MT OBSC=
METAR UHMP 080830Z NIL=
METAR UHNN 080830Z NIL=
METAR UHPP 080830Z NIL=
METAR UHSH 080830Z NIL=
METAR UHSS 080830Z 16003MPS 9999 BKN021 14/12 Q1010 NOSIG RMK MT OBSC
QFE756/1009 19CLRD70=
METAR UHWW 080830Z 24005MPS 9999 BKN021 OVC070 19/16 Q1009 NOSIG RMK
QFE756/1008 75CLRD70=
####018000494####
SARA31 RUMS 080830
METAR UEEE 080830Z 34002MPS 9999 SCT050CB BKN100 24/08 Q1007 NOSIG
RMK QFE747 2309//60=
METAR UELL 080830Z VRB02MPS 9999 VCTS BKN025CB OVC200 18/14 Q1010
NOSIG RMK QFE683 08CLRD70=
METAR UERP 080830Z 02005MPS 9999 SCT033CB BKN045 Q1014 NOSIG RMK
QFE716 35090065=
METAR UERR 080830Z 33004G07MPS 9999 FEW013 OVC018CB 14/14 Q1011 NOSIG
RMK QFE727 24290255=
METAR UESO 080830Z NIL=
METAR UEST 080830Z 12003MPS CAVOK 08/02 Q1016 NOSIG RMK QFE761
21000060=
####018000265####
SARS34 RUMS 080830
METAR UUYH 0080830Z 24002MPS CAVOK 24/07 Q1017 NOSIG RMK QFE 751
18CLRD60=
METAR UUYS 080830Z 16003MPS CAVOK 20/07 Q1017 NOSIG RMK QFE756
14CLRD60=
METAR UUYY 080830Z VRB01MPS 9999 SCT026 29/15 Q1016 NOSIG 19CLRD61
RMK QFE753/1004=
####018000914####
SARS32 RUMS 080830
METAR URKA 080830Z 05004MPS 9999 SCT026 27/18 Q1013 NOSIG RMK  065=
METAR URKK 080830Z 07005G10MPS 040V100 9999 SCT030 SCT100 28/18 Q1013
NOSIG RMK QFE756 SC070=
METAR URKM 080830Z NIL=
METAR URML 080830Z 01004G09MPS 9999 SKC 31/20 Q1013 NOSIG RMK QFE759
/ 07=
METAR URMM 080830Z 09004MPS 050V120 9999 SCT040 28/19 Q1013 NOSIG RMK
/ SC070=
METAR URMN 080830Z 05001MPS 9999 SCT026 BKN110 27/20 Q1014 NOSIG RMK
/ QFE724 SC07=
METAR URMT 080830Z 07007MPS 9999 SCT020 26/17 Q1015 NOSIG RMK QFE721
SC07=
METAR URRR 080830Z 13003MPS 9999 FEW026 29/17 Q1014 NOSIG RMK SC070=
METAR URSS 080830Z 28002MPS 240V310 9999 FEW040 27/21 Q1011 NOSIG RMK
/ QFE757 06CLRD70=
METAR URWA 080830Z 02004MPS CAVOK 35/13 Q1011 NOSIG RMK SC07=
METAR URWI 080830Z 33001MPS CAVOK 29/17 Q1014 NOSIG RMK SC065=
METAR URWW 080830Z 31004MPS CAVOK 28/17 Q1014 NOSIG RMK SC070=
####018000727####
SARS35 RUMS 080830
METAR USPP 080830Z 03003MPS 010V080 CAVOK 27/09 Q1016 NOSIG RMK
QFE751/1002 21090060=
METAR UWKD 080830Z NIL=
METAR UWKE 080830Z 00000MPS CAVOK 29/11 Q1016 NOSIG RMK QFE745/0993
22090070=
METAR UWKS 080830Z VRB02MPS CAVOK 33/11 Q1016 NOSIG RMK QFE747
SC0.60=
METAR UWLL 080830Z 09003MPS CAVOK 30/10 Q1016 NOSIG RMK QFE749/0999
SC065=
METAR UWLW 080830Z NIL=
METAR UWOR 080830Z NIL=
METAR UWOO 080830Z NIL=
METAR UWPP 080830Z 12004MPS 9999 SCT033CB BKN100 28/09 Q1014 NOSIG
RMK QFE746 11090060=
METAR UWSS 080830Z 03003MPS 9999 FEW050TCU BKN066 27/13 Q1015 NOSIG
RMK QFE749 120///60=
METAR UWWW 080830Z 04006MPS CAVOK 30/09 Q1016 NOSIG RMK QFE749/0998
05CLRD60 15//99//=
####018000423####
SARS33 RUMS 080830
METAR ULLI 080830Z 12002MPS 070V150 CAVOK 30/17 Q1013 NOSIG=
METAR UUDD 080830Z 15004G10MPS 120V200 9999 SCT040 BKN200 27/16 Q1015
NOSIG=
METAR UUEE 080830Z 17003MPS 100V230 9999 SCT050TCU BKN200 27/15 Q1015
NOSIG=
METAR UUEM 080830Z NIL=
METAR UUWW 080830Z 10002MPS 070V150 CAVOK 23/16 Q1015 06000070 NOSIG=
METAR UUMO 080830Z VRB02MPS CAVOK 25/16 Q1015 NOSIG RMK QFE746/0995
SC060=
####018000394####
SARA35 RUMS 080830
METAR ULDD 080830Z NIL=
METAR UOHH 080830Z 09002MPS 9999 FEW030 SCT/// 11/03 Q1023 NOSIG RMK
QFE761 06090060=
METAR UOII 080830Z 11005MPS 9999 BKN040TCU 28/16 Q1005 NOSIG RMK
QFE751 30////60=
METAR UOOO 080830Z 02007G08MPS CAVOK 23/09 Q1010 NOSIG RMK QFE743
010///60=
METAR USCM 080830Z 35003MPS 230V050 9999 FEW050 25/02 Q1015 NOSIG
01090065 RMK QFE723=
####018000881####
SARA34 RUMS 080830
METAR UNAA 080830Z 01008MPS 9999 TS SCT026CB BKN100 16/13 Q1010 TEMPO
34010G15MPS 2000 TSRA RMK QFE735 202///55=
METAR UNBB 080830Z 18007MPS 9999 BKN030CB 17/07 Q1009 NOSIG RMK
QFE734=
METAR UNEE 080830Z 26008MPS 9999 SCT026 BKN200 19/08 Q1008 NOSIG RMK
QFE733 23CLRD60=
METAR UNKL 080830Z VRB02MPS 9999 -SHRA SCT010 BKN020CB OVC083 17/14
Q1009 NOSIG RMK QFE731 29////55=
METAR UNNT 080830Z 21003MPS 190V260 9999 BKN050CB BKN100 20/04 Q1007
NOSIG RMK QFE745/0994 25090070=
METAR UNOO 080830Z 29005MPS 9999 BKN023CB 14/09 Q1007 NOSIG 25CLRD06
RMK QFE747=
METAR UNWW 080830Z 29006MPS 9999 BKN026CB OVC130 21/09 Q1009 NOSIG
RMK QFE730 19CLRD70=
METAR USTR 080830Z 33008G11MPS CAVOK 21/02 Q1011 NOSIG RMK
QFE749/0998 30CLRD65=
METAR USHH 080830Z 33003G08MPS 280V010 8000 -SHRA BKN019CB OVC080
11/09 Q1008 NOSIG RMK QFE752 SC06=
####018000703####
SARS31 RUMS 080830
METAR ULAA 080830Z 30003MPS 230V360 9999 FEW030TCU FEW/// 27/20 Q1015
NOSIG RMK QFE760/1013 SC070=
METAR ULKK 080830Z NIL=
METAR ULMM 080830Z 33004MPS 9999 BKN017CB 13/08 Q1017 NOSIG RMK
QFE756 32190060=
METAR ULOL 080830Z NIL=
METAR ULOO 080830Z VRB02MPS P6000 SCT033 BKN200 27/19 Q1012 NOSIG RMK
QFE755=
METAR ULWW 080830Z NIL=
METAR UMKK 080830Z 31005MPS P8000 SCT200 22/15 Q1019 NOSIG RMK QFE
763 SC07=
METAR UUBP 080830Z NIL=
METAR UUOB 080830Z NIL=
METAR UUOK 080830Z NIL=
METAR UUOO 080830Z 17002G05MPS 110V270 9999 SCT033 27/16 Q1014 NOSIG
RMK 13090070=
METAR UWGG 080830Z 09003MPS 060V140 8000 SKC 33/09 Q1016 NOSIG RMK
QFE755 18090070=
####018000093####
SAUZ31 UTTW 080830
METAR UTSS 080830Z 08003MPS 9999 NSC 35/10 Q1011 
R88/CLRD70 NOSIG=
####018000337####
SAUS73 KWBC 080800 RRI
METAR
KBJC 080837Z AUTO 18003KT 4SM BR CLR 13/12 A3033=
KCIU 080835Z AUTO 22004KT 5SM OVC110 19/17 A2995=
KEGE 080835Z 07004KT 10SM CLR 11/09 A3040=
KELO 080833Z AUTO 00000KT 10SM CLR 13/13 A3002=
KJAC 080835Z AUTO 35007KT 10SM CLR 09/00 A3033=
KLBL 080835Z 05008KT 10SM BKN035 BKN050 20/17 A3021=
####018000081####
SAUS74 KWBC 080800 RRE
METAR
KOTH 080835Z 19003KT 10SM OVC008 11/08 A3000=
####018000186####
SAUS75 KWBC 080800 RRB
METAR
PADL 080836Z 32007KT 10SM SCT120 11/07 A2998=
PAUN 080836Z AUTO 08003KT 10SM CLR 13/06 A3002=
PAVD 080836Z 00000KT 10SM BKN090 OVC100 11/08 A3010=
####018000563####
SAAO32 GOOY 080830
METAR GABS 080830Z 23005KT CAVOK 27/23 Q1015 NOSIG=
METAR GGOV 080830Z NIL=
METAR GOOY 080830Z 16006KT 130V190 9999 SCT013 28/24 Q1012 NOSIG=
METAR DIAP 080830Z 27004KT 240V310 4000 -RA SCT005 BKN012 BKN080
25/24 Q1015 TEMPO 2000 RA BKN005 BKN012 OVC080=
METAR GQNN 080830Z 20009KT 180V240 6000 FEW010 27/23 Q1011 NOSIG=
METAR GQPP 080830Z NIL=
METAR GUCY 080830Z NIL=
METAR GVAC 080830Z NIL=
METAR GFLL 080830Z NIL=
METAR GBYD 080830Z NIL=
METAR GLRB 080830Z 04003KT 9999 SCT013 FEW024CB BKN100 25/23 Q1015
 CB-SW=
####018001267####
SAEW KAWN 080800 RRN
METAR LFGJ 080830Z AUTO 21004KT 160V260 9999NDV NSC 24/14 Q1021=
METAR LFLL 080830Z 13004KT 100V160 CAVOK 26/14 Q1021 NOSIG=
METAR LFLN 080830Z AUTO VRB02KT 9999NDV NSC 25/15 Q1020=
METAR LFMD 080830Z AUTO 18004KT 140V210 9999NDV NSC 29/22 Q1019=
METAR LFMN 080830Z 11004KT 9999 FEW060 28/21 Q1020 NOSIG=
METAR LFOT 080830Z AUTO VRB02KT 9999NDV NSC 27/12 Q1019=
METAR LFPG 080830Z 18005KT 160V220 CAVOK 26/11 Q1019 NOSIG=
METAR LFPM 080830Z 00000KT CAVOK 26/13 Q1019=
METAR LFPO 080830Z 22004KT 180V270 CAVOK 26/12 Q1019 NOSIG=
METAR LFQQ 080830Z VRB02KT CAVOK 25/13 Q1019 NOSIG=
METAR LFRB 080830Z 10004KT 050V160 9999 OVC009 17/15 Q1019 NOSIG=
METAR LFRC 080830Z AUTO 29004KT 260V340 9999NDV SCT012 19/16 Q1020=
METAR LFRD 080830Z AUTO 35005KT 280V020 9999NDV BKN011 19/15 Q1020=
METAR LFRJ 080830Z AUTO VRB01KT 9999NDV OVC008/// 18/16 Q1019=
METAR LFRN 080830Z AUTO 34005KT 290V010 9999NDV NSC 21/15 Q1018=
METAR LFRO 080830Z AUTO 00000KT 9999NDV OVC013 19/15 Q1019=
METAR LFRZ 080830Z AUTO 36004KT 320V050 9999NDV NSC 23/14 Q1018=
METAR LFSB 080830Z 08005KT 030V140 CAVOK 26/10 Q1021 NOSIG=
METAR LFST 080834Z VRB02KT CAVOK 25/12 Q1020 NOSIG=
METAR LFTW 080830Z AUTO VRB03KT 9999NDV NSC 27/14 Q1020=
####018000340####
SAUK KAWN 080800 RRI
METAR EICK 080830Z 21010KT 9999 -RA FEW008 SCT015 BKN080 14/12 Q1016
      NOSIG=
METAR EIDW 080830Z 22014KT 9999 FEW023 BKN180 15/10 Q1015 NOSIG=
METAR EIKN 080830Z 22009KT 170V250 9999 FEW010 SCT016 BKN050 13/09
      Q1013 NOSIG=
METAR EINN 080830Z 18008KT 9999 FEW014 SCT033 BKN045 15/11 Q1015 NOSIG=
####018000111####
SAXX60 KAWN 080800 RRC
METAR RJTT 080830Z 18018KT 9999 FEW030 BKN/// 27/22 Q1009 RMK 1CU030
      A2979=
####018000109####
SAXX70 KAWN 080800 RRT
METAR KQFT 080830Z AUTO 18001KT 6SM BR SCT039 BKN043 28/20 A2981 RMK
      A02=
####018000151####
SPXX70 KAWN 080800 RRA
SPECI KQBS 080831Z 35012G21KT 5000 BLDU FEW000 SCT020 46/M01 A2949
      RMK DU FEW000 SCT020 WND/ALSTG/QNH ESTMD QNH998=
####018000085####
SPCN48 CWAO 080838
SPECI CYPH 080838Z AUTO 24017KT 1 3/8SM VV001 05/05 A2978=

