####018001181####
SAUS90 KWBC 081240 RRA
METAR KOSC 081234Z AUTO 20004KT 7SM SCT075 BKN090 23/21 A2999 RMK
     AO2=
METAR KTTF 081234Z AUTO 00000KT 10SM CLR 27/22 A3002 RMK AO2=
METAR KAMN 081236Z AUTO 00000KT 5SM BR SCT085 23/22 A3002 RMK
     AO2=
METAR KMCD 081236Z AUTO 25003KT 2SM HZ OVC003 21/18 A3000 RMK
     AO2=
METAR KERY 081235Z AUTO 34005KT 5SM BR OVC003 18/17 A3001 RMK
     AO2=
METAR KDVP 081236Z AUTO 28004KT 10SM CLR 18/14 A3018 RMK AO2
     T01760140=
METAR KCDD 081231Z AUTO 23003KT 10SM CLR 19/18 A3003 RMK AO2=
METAR KFOZ 081233Z AUTO 24004KT 10SM CLR 16/15 A3005 RMK AO2=
METAR KAQP 081234Z AUTO 26003KT 10SM CLR 17/17 A3011 RMK AO2=
METAR KETH 081234Z AUTO 24005KT 10SM CLR 19/16 A3010 RMK AO2=
METAR KXVG 081236Z AUTO 27003KT 10SM CLR 17/16 A3006 RMK AO2=
METAR KORB 081234Z AUTO 00000KT 10SM CLR 16/14 A3001 RMK AO2=
METAR KMZH 081231Z AUTO 27004KT 10SM CLR 17/16 A3006 RMK AO2=
METAR KBFW 081233Z AUTO 30003KT 10SM CLR 21/15 A3002 RMK AO2=
METAR KVWU 081231Z AUTO 27008KT 10SM CLR 19/14 A3004 RMK AO2=
METAR KOWA 081234Z AUTO 33004KT 10SM CLR 18/17 A3012 RMK AO2=
METAR KCDA 081235Z AUTO 00000KT 7SM CLR 25/20 A3010 RMK AO2=
####018003681####
SAUS90 KWBC 081240
METAR KFPK 081236Z AUTO 15003KT 7SM CLR 24/21 A3004 RMK AO2=
METAR KMOP 081234Z AUTO 26005KT 10SM OVC110 23/23 A3003 RMK
     AO2=
METAR KCAD 081234Z AUTO 24007KT 5SM -RA OVC080 22/21 A3005 RMK
     AO2=
METAR KMGN 081235Z AUTO 27005KT 4SM -RA OVC010 21/20 A3000 RMK
     AO2=
METAR KHAI 081235Z AUTO 00000KT 10SM CLR 25/22 A3005 RMK AO2=
METAR KLWA 081236Z AUTO 10003KT 10SM SCT048 SCT070 OVC085 23/21
     A3002 RMK AO2=
METAR KDRM 081236Z AUTO 21003KT 4SM -RA OVC010 21/21 A2998 RMK
     AO2=
METAR KVLL 081234Z AUTO 24004KT 10SM CLR 28/20 A3005 RMK AO2=
METAR KCFS 081235Z AUTO 00000KT 10SM CLR 25/22 A3002 RMK AO2=
METAR KOZW 081235Z AUTO 00000KT 10SM SCT050 SCT070 26/21 A3005 RMK
     AO2=
METAR KRNP 081235Z AUTO 17003KT 10SM CLR 26/21 A3003 RMK AO2=
METAR KDUH 081235Z AUTO 00000KT 10SM CLR 27/19 A3004 RMK AO2=
METAR KJYM 081235Z AUTO 00000KT 5SM HZ CLR 25/21 A3007 RMK AO2=
METAR KBAX 081235Z AUTO 25005KT 10SM CLR 26/23 A3001 RMK AO2=
METAR KIRS 081235Z AUTO 00000KT 10SM CLR 26/22 A3005 RMK AO2=
METAR KACB 081235Z AUTO 00000KT 7SM DZ BKN014 BKN030 OVC090 23/22
     A3000 RMK AO2=
METAR KRQB 081234Z AUTO 18003KT 4SM DZ SCT028 BKN040 OVC065 22/21
     A3004 RMK AO2=
METAR KOEB 081235Z AUTO 00000KT 7SM CLR 26/22 A3006 RMK AO2=
METAR K4I3 081236Z AUTO 00000KT 7SM CLR 24/20 A3010 RMK AO2=
METAR KAUM 081235Z AUTO 34008KT 10SM CLR 19/17 A3011 RMK AO2=
METAR KFFX 081235Z AUTO 00000KT 1 3/4SM BR OVC002 22/22 A3002 RMK
     AO2=
METAR KCNB 081238Z AUTO 25008KT 10SM CLR 19/14 A3014 RMK AO2
     T01900141=
METAR KCKN 081235Z AUTO 24003KT 10SM CLR 16/14 A3007 RMK AO2=
METAR KCFE 081235Z AUTO 25005KT 10SM CLR 19/16 A3012 RMK AO2
     T01910160=
METAR KCQM 081237Z AUTO 25005KT 10SM CLR 17/15 A3004 RMK AO2=
METAR KDTL 081235Z AUTO 00000KT 10SM CLR 18/13 A3011 RMK AO2=
METAR KBDH 081235Z AUTO 00000KT 10SM CLR 17/16 A3013 RMK AO2=
METAR KCBG 081235Z AUTO 26004KT 10SM CLR 18/16 A3010 RMK AO2=
METAR KADC 081237Z AUTO 26005KT 10SM CLR 16/14 A3010 RMK AO2=
METAR KHAF 081230Z AUTO 33004KT 7SM OVC006 12/10 A2993 RMK AO2=
METAR KCKC 081235Z AUTO 26003KT 10SM CLR 19/14 A3004 RMK AO2=
METAR KJYG 081235Z AUTO 26003KT 10SM CLR 19/19 A3016 RMK AO2=
METAR KCOQ 081236Z AUTO 27006KT 10SM CLR 18/18 A3007 RMK AO2=
METAR KACQ 081239Z AUTO 32006KT 10SM CLR 17/16 A3015 RMK AO2=
METAR KRGK 081235Z AUTO 28005KT 10SM CLR 20/17 A3010 RMK AO2=
METAR KFSE 081234Z AUTO 23003KT 10SM CLR 14/13 A3006 RMK AO2=
METAR KY70 081235Z AUTO 00000KT 5SM BR SCT005 24/22 A3003 RMK AO2
     T02410222=
METAR KUKT 081230Z AUTO 00000KT 7SM CLR 26/22 A3006 RMK AO1=
METAR KFKA 081243Z AUTO 35007KT 10SM CLR 19/18 A3011 RMK AO2
     T01930176=
METAR KCVX 081235Z AUTO 25008KT 5SM -RA SCT006 BKN010 OVC017 21/20
     A3002 RMK AO2=
METAR KFKS 081235Z AUTO 23004KT 3SM RA OVC004 21/20 A3001 RMK
     AO2=
METAR KSLH 081235Z AUTO 25006KT 5SM RA BKN009 OVC029 22/21 A2999
     RMK AO2=
METAR KSJX 081236Z AUTO 24007KT 1/4SM FG OVC002 19/18 A2999 RMK
     AO2=
METAR KLDM 081236Z AUTO 20003KT 4SM +RA OVC005 21/20 A3002 RMK AO2
     P0003=
METAR KGOV 081235Z AUTO 00000KT 7SM RA SCT030 BKN050 OVC070 22/22
     A3003 RMK AO2=
METAR KPZQ 081235Z AUTO 25004KT 10SM -RA OVC090 23/21 A3000 RMK
     AO2=
METAR KHYX 081235Z AUTO 00000KT 10SM SCT085 BKN120 25/21 A3001 RMK
     AO2=
METAR KPHN 081236Z AUTO 18004KT 10SM CLR 26/21 A3002 RMK AO2=
METAR KONZ 081237Z AUTO 00000KT 10SM CLR 28/22 A3002 RMK AO2=
METAR KISQ 081235Z AUTO 34004KT 10SM BKN004 OVC065 19/18 A2999 RMK
     AO2=
METAR KRMY 081235Z AUTO 00000KT 10SM CLR 24/21 A3005 RMK AO2=
####018002673####
SAUS20 KNKA 081239
METAR KBBF 081335Z AUTO 12011G20KT 070V150 6SM HZ FEW022 SCT035
     SCT055 29/27 A2982 RMK A01=
METAR KBQX 081235Z AUTO 12018G26KT 9SM FEW026 29/25 A2986 RMK A01=
SPECI KCFV 081238Z AUTO 00000KT 10SM FEW007 BKN012 OVC039 23/22 
    A3007 RMK AO2 LTG DSNT SE=
SPECI KDBQ 081238Z 00000KT 5SM BR BKN005 BKN021 22/21 A3007 RMK AO2 
    CIG 002V007=
METAR KDLP 081235Z AUTO 10013KT 9SM CLR 28/24 A3000 RMK A01=
METAR KEDU 081235Z AUTO 00000KT 10SM CLR 13/10 A2984 RMK AO1=
METAR KEGV 081233Z AUTO 36004KT 10SM CLR 19/17 A3005 RMK AO2 
     T01900169=
METAR KEHC 081235Z AUTO 12022KT 5SM HZ SCT017 SCT023 SCT028 29/25
     A2994 RMK A01=
METAR KEMK 081235Z AUTO 14024KT 8SM FEW027 FEW044 BKN080 29/25
     A2989 RMK A01=
METAR KGBK 081235Z AUTO 09013G23KT 10SM SCT018 BKN024 BKN035 29/25
     A2993 RMK A01=
SPECI KGUY 081238Z AUTO 33005KT 10SM -RA BKN017 OVC110 18/17 A3022 
    RMK AO2 P0002=
METAR KGVX 081235Z AUTO 12019KT 7SM FEW043 FEW065 SCT080 M40/
     A2991 RMK A01=
METAR KHQI 081235Z AUTO 11021KT 6SM HZ FEW018 FEW075 FEW085 29/26
     A2991 RMK A01=
METAR KIPN 081230Z AUTO 08015KT 10SM SCT022 59/53 A3000 RMK A01=
SPECI KITR 081238Z AUTO 00000KT 9SM -RA SCT014 BKN032 OVC042 17/15 
    A3031 RMK AO2 P0000=
SPECI KLRD 081237Z 03007KT 7SM FEW025 BKN031 BKN050 27/24 A2990 RMK 
    AO2 $=
METAR KMDJ 081235Z AUTO 11014KT 10SM FEW022 29/24 A3001 RMK A01=
METAR KMHR 081235Z AUTO 17005KT 10SM CLR 12/10 A2985 RMK AO1=
METAR KMIU 081235Z AUTO 12022KT 8SM FEW018 SCT022 BKN047 28/26
     A2981 RMK A01=
METAR KMYT 081235Z AUTO 10016KT 10SM SCT021 SCT029 SCT033 28/24
     A2998 RMK A01=
METAR KMZG 081235Z AUTO 00000KT 9SM FEW021 SCT032 BKN039 29/25
     A2983 RMK A01=
METAR KRPD 081234Z AUTO 32005KT 10SM CLR 19/17 A3010 RMK AO2 
     T01910168=
METAR KRRL 081235Z AUTO 00000KT 10SM SCT004 OVC010 19/18 A3005 
     RMK AO2 T01850180=
METAR KRYV 081235Z AUTO 27004KT 7SM OVC005 23/21 A3004 RMK AO2=
METAR KSCF 081240Z AUTO 13018KT 8SM 29/25 A2992 RMK A01=
SPECI KSRC 081238Z AUTO 21003KT 10SM FEW005 25/23 A3009 RMK AO2 TSNO 
    =
METAR KSTE 081235Z AUTO 34003KT 10SM OVC007 21/19 A3004 RMK AO2=
METAR KSUW 081235Z AUTO 23005KT 10SM CLR 18/15 A3003 RMK AO2=
SPECI KTCC 081238Z AUTO 04006KT 10SM FEW018 OVC075 18/16 A3025 RMK 
    AO2=
METAR KTKV 081235Z AUTO 33006KT 10SM CLR 18/17 A3006 RMK AO2 
     T01790172=
METAR KUNU 081232Z AUTO 26003KT 4SM BR OVC003 21/20 A3004 RMK AO2 
     T02120200=
METAR KVBS 081235Z AUTO 12021KT 10SM SCT020 SCT028 29/25 A2995 RMK
     A01=
METAR KVNP 081235Z AUTO 11013KT 7SM SCT017 28/25 A2999 RMK A01=
####018001511####
SARS18 KAWN 081200 RRJ
METAR COR UELL 081230Z VRB01MPS 9999 SCT006 BKN030CB OVC200 12/12 Q1012
      NOSIG RMK MT PT OBSC QFE685 08290050=
METAR UHHH 081230Z 04003MPS 9999 SCT033CB OVC100 17/15 Q1011 NOSIG
      RMK QFE752/1002 55090060=
METAR UHWW 081230Z 00000MPS 9999 SCT013 BKN023CB OVC100 16/14 Q1011
      NOSIG RMK QFE757/1010 75CLRD70=
METAR UIAA 081230Z 31004MPS 9999 VCTS BKN033CB OVC100 19/15 Q1009 NOSIG
      RMK QFE698 29CLRD70=
METAR UIBB 081230Z 04002MPS 9999 BKN200 24/14 Q1006 NOSIG RMK QFE711/0949
      30CLRD60=
METAR UIII 081230Z 18003MPS CAVOK 18/11 Q1006 NOSIG RMK QFE713/0950
      12CLRD60=
METAR UIUU 081230Z 26002MPS 9999 SCT033CB OVC100 21/14 Q1007 NOSIG
      RMK QFE711/0949 26CLRD60=
METAR ULLI 081230Z 13006MPS 9999 BKN040CB BKN066 BKN200 27/14 Q1013
      NOSIG=
METAR UMKK 081230Z 31007MPS P8000 FEW033 SCT200 22/15 Q1020 NOSIG RMK
      QFE 764 SC07=
METAR URKA 081230Z 05005MPS 9999 SCT026 29/20 Q1012 NOSIG RMK 065=
METAR URMM 081230Z 13005G09MPS 9999 BKN046 30/18 Q1012 NOSIG RMK /
      SC070=
METAR URSS 081230Z 29004G07MPS 9999 FEW040 28/22 Q1009 NOSIG RMK /
      QFE755 06CLRD70=
METAR UUDD 081230Z 15004MPS 110V190 9999 FEW050TCU BKN200 28/15 Q1015
      TEMPO VRB12MPS TSRA=
METAR UUEE 081230Z 13005MPS 9999 SCT050CB BKN200 28/13 Q1015 NOSIG=
METAR UUWW 081230Z 18004MPS 140V200 CAVOK 27/15 Q1015 24000070 NOSIG=
METAR UWPP 081230Z 14004MPS 9999 SCT033 BKN100 33/09 Q1013 NOSIG RMK
      QFE745 11090060=
####018000892####
SARS32 RUMS 081230
METAR URKA 081230Z 05005MPS 9999 SCT026 29/20 Q1012 NOSIG RMK  065=
METAR URKK 081230Z 05005G08MPS 9999 BKN043 30/20 Q1011 NOSIG RMK
QFE755 SC070=
METAR URKM 081230Z NIL=
METAR URML 081230Z 08005MPS 9999 FEW100 32/20 Q1012 NOSIG RMK QFE759
/ 07=
METAR URMM 081230Z 13005G09MPS 9999 BKN046 30/18 Q1012 NOSIG RMK /
SC070=
METAR URMN 081230Z 10003MPS 9999 BKN038CB BKN110 28/18 Q1013 NOSIG
RMK / QFE723 SC07=
METAR URMT 081230Z 04005G08MPS 9999 SCT020 BKN100 28/17 Q1014 NOSIG
RMK QFE720 SC07=
METAR URRR 081230Z VRB01MPS 9999 FEW036 31/14 Q1013 NOSIG RMK SC070=
METAR URSS 081230Z 29004G07MPS 9999 FEW040 28/22 Q1009 NOSIG RMK /
QFE755 06CLRD70=
METAR URWA 081230Z 00000MPS CAVOK 38/12 Q1011 NOSIG RMK SC07=
METAR URWI 081230Z 32002MPS CAVOK 31/16 Q1013 NOSIG RMK SC065=
METAR URWW 081230Z 32003G07MPS CAVOK 31/13 Q1014 NOSIG RMK SC070=
####018000389####
SARA33 RUMS 081230
METAR UIAA 081230Z 31004MPS 9999 VCTS BKN033CB OVC100 19/15 Q1009
NOSIG RMK     QFE698 29CLRD70=
METAR UIBB 081230Z 04002MPS 9999 BKN200 24/14 Q1006 NOSIG RMK
QFE711/0949 30CLRD60=
METAR UIII 081230Z 18003MPS CAVOK 18/11 Q1006 NOSIG RMK QFE713/0950
12CLRD60=
METAR UIUU 081230Z 26002MPS 9999 SCT033CB OVC100 21/14 Q1007 NOSIG
RMK QFE711/0949 26CLRD60=
####018000087####
SAUZ31 UTTW 081230
METAR UTNU 081230Z 02003MPS CAVOK 40/20 Q1006 R13/CLRD60 NOSIG=
####018003730####
SAUS99 KWBC 081240
METAR
KFPK 081236Z AUTO 15003KT 7SM CLR 24/21 A3004 RMK AO2=
KMOP 081234Z AUTO 26005KT 10SM OVC110 23/23 A3003 RMK AO2=
KCAD 081234Z AUTO 24007KT 5SM -RA OVC080 22/21 A3005 RMK AO2=
KMGN 081235Z AUTO 27005KT 4SM -RA OVC010 21/20 A3000 RMK AO2=
KHAI 081235Z AUTO 00000KT 10SM CLR 25/22 A3005 RMK AO2=
KLWA 081236Z AUTO 10003KT 10SM SCT048 SCT070 OVC085 23/21 A3002
     RMK AO2=
KDRM 081236Z AUTO 21003KT 4SM -RA OVC010 21/21 A2998 RMK AO2=
KVLL 081234Z AUTO 24004KT 10SM CLR 28/20 A3005 RMK AO2=
KCFS 081235Z AUTO 00000KT 10SM CLR 25/22 A3002 RMK AO2=
KOZW 081235Z AUTO 00000KT 10SM SCT050 SCT070 26/21 A3005 RMK
     AO2=
KRNP 081235Z AUTO 17003KT 10SM CLR 26/21 A3003 RMK AO2=
KDUH 081235Z AUTO 00000KT 10SM CLR 27/19 A3004 RMK AO2=
KJYM 081235Z AUTO 00000KT 5SM HZ CLR 25/21 A3007 RMK AO2=
KBAX 081235Z AUTO 25005KT 10SM CLR 26/23 A3001 RMK AO2=
KIRS 081235Z AUTO 00000KT 10SM CLR 26/22 A3005 RMK AO2=
KACB 081235Z AUTO 00000KT 7SM DZ BKN014 BKN030 OVC090 23/22 A3000
     RMK AO2=
KRQB 081234Z AUTO 18003KT 4SM DZ SCT028 BKN040 OVC065 22/21 A3004
     RMK AO2=
KOEB 081235Z AUTO 00000KT 7SM CLR 26/22 A3006 RMK AO2=
K4I3 081236Z AUTO 00000KT 7SM CLR 24/20 A3010 RMK AO2=
KAUM 081235Z AUTO 34008KT 10SM CLR 19/17 A3011 RMK AO2=
KFFX 081235Z AUTO 00000KT 1 3/4SM BR OVC002 22/22 A3002 RMK
     AO2=
KCNB 081238Z AUTO 25008KT 10SM CLR 19/14 A3014 RMK AO2
     T01900141=
KCKN 081235Z AUTO 24003KT 10SM CLR 16/14 A3007 RMK AO2=
KCFE 081235Z AUTO 25005KT 10SM CLR 19/16 A3012 RMK AO2
     T01910160=
KCQM 081237Z AUTO 25005KT 10SM CLR 17/15 A3004 RMK AO2=
KDTL 081235Z AUTO 00000KT 10SM CLR 18/13 A3011 RMK AO2=
KBDH 081235Z AUTO 00000KT 10SM CLR 17/16 A3013 RMK AO2=
KCBG 081235Z AUTO 26004KT 10SM CLR 18/16 A3010 RMK AO2=
KADC 081237Z AUTO 26005KT 10SM CLR 16/14 A3010 RMK AO2=
KHAF 081230Z AUTO 33004KT 7SM OVC006 12/10 A2993 RMK AO2=
KCKC 081235Z AUTO 26003KT 10SM CLR 19/14 A3004 RMK AO2=
KJYG 081235Z AUTO 26003KT 10SM CLR 19/19 A3016 RMK AO2=
KCOQ 081236Z AUTO 27006KT 10SM CLR 18/18 A3007 RMK AO2=
KACQ 081239Z AUTO 32006KT 10SM CLR 17/16 A3015 RMK AO2=
KRGK 081235Z AUTO 28005KT 10SM CLR 20/17 A3010 RMK AO2=
KFSE 081234Z AUTO 23003KT 10SM CLR 14/13 A3006 RMK AO2=
KY70 081235Z AUTO 00000KT 5SM BR SCT005 24/22 A3003 RMK AO2
     T02410222=
KUKT 081230Z AUTO 00000KT 7SM CLR 26/22 A3006 RMK AO1=
KFKA 081243Z AUTO 35007KT 10SM CLR 19/18 A3011 RMK AO2
     T01930176=
KCVX 081235Z AUTO 25008KT 5SM -RA SCT006 BKN010 OVC017 21/20 A3002
     RMK AO2=
KFKS 081235Z AUTO 23004KT 3SM RA OVC004 21/20 A3001 RMK AO2=
KSLH 081235Z AUTO 25006KT 5SM RA BKN009 OVC029 22/21 A2999 RMK
     AO2=
KSJX 081236Z AUTO 24007KT 1/4SM FG OVC002 19/18 A2999 RMK AO2=
KLDM 081236Z AUTO 20003KT 4SM +RA OVC005 21/20 A3002 RMK AO2
     P0003=
KGOV 081235Z AUTO 00000KT 7SM RA SCT030 BKN050 OVC070 22/22 A3003
     RMK AO2=
KPZQ 081235Z AUTO 25004KT 10SM -RA OVC090 23/21 A3000 RMK AO2=
KHYX 081235Z AUTO 00000KT 10SM SCT085 BKN120 25/21 A3001 RMK
     AO2=
KPHN 081236Z AUTO 18004KT 10SM CLR 26/21 A3002 RMK AO2=
KONZ 081237Z AUTO 00000KT 10SM CLR 28/22 A3002 RMK AO2=
KISQ 081235Z AUTO 34004KT 10SM BKN004 OVC065 19/18 A2999 RMK
     AO2=
KRMY 081235Z AUTO 00000KT 10SM CLR 24/21 A3005 RMK AO2=
KOSC 081234Z AUTO 20004KT 7SM SCT075 BKN090 23/21 A2999 RMK
     AO2=
KTTF 081234Z AUTO 00000KT 10SM CLR 27/22 A3002 RMK AO2=
KAMN 081236Z AUTO 00000KT 5SM BR SCT085 23/22 A3002 RMK AO2=
KMCD 081236Z AUTO 25003KT 2SM HZ OVC003 21/18 A3000 RMK AO2=
KERY 081235Z AUTO 34005KT 5SM BR OVC003 18/17 A3001 RMK AO2=
KDVP 081236Z AUTO 28004KT 10SM CLR 18/14 A3018 RMK AO2
     T01760140=
####018000602####
SPUS99 KWBC 081240
SPECI
KCFV 081238Z AUTO 00000KT 10SM FEW007 BKN012 OVC039 23/22 A3007
     RMK AO2 LTG DSNT SE=
KDBQ 081238Z 00000KT 5SM BR BKN005 BKN021 22/21 A3007 RMK AO2 CIG
     002V007=
KGUY 081238Z AUTO 33005KT 10SM -RA BKN017 OVC110 18/17 A3022 RMK
     AO2 P0002=
KITR 081238Z AUTO 00000KT 9SM -RA SCT014 BKN032 OVC042 17/15 A3031
     RMK AO2 P0000=
KLRD 081237Z 03007KT 7SM FEW025 BKN031 BKN050 27/24 A2990 RMK AO2
     $=
KSRC 081238Z AUTO 21003KT 10SM FEW005 25/23 A3009 RMK AO2 TSNO=
KTCC 081238Z AUTO 04006KT 10SM FEW018 OVC075 18/16 A3025 RMK
     AO2=
####018002538####
SAUS99 KWBC 081240 RRA
METAR
KCDD 081231Z AUTO 23003KT 10SM CLR 19/18 A3003 RMK AO2=
KFOZ 081233Z AUTO 24004KT 10SM CLR 16/15 A3005 RMK AO2=
KAQP 081234Z AUTO 26003KT 10SM CLR 17/17 A3011 RMK AO2=
KETH 081234Z AUTO 24005KT 10SM CLR 19/16 A3010 RMK AO2=
KXVG 081236Z AUTO 27003KT 10SM CLR 17/16 A3006 RMK AO2=
KORB 081234Z AUTO 00000KT 10SM CLR 16/14 A3001 RMK AO2=
KMZH 081231Z AUTO 27004KT 10SM CLR 17/16 A3006 RMK AO2=
KBFW 081233Z AUTO 30003KT 10SM CLR 21/15 A3002 RMK AO2=
KVWU 081231Z AUTO 27008KT 10SM CLR 19/14 A3004 RMK AO2=
KOWA 081234Z AUTO 33004KT 10SM CLR 18/17 A3012 RMK AO2=
KCDA 081235Z AUTO 00000KT 7SM CLR 25/20 A3010 RMK AO2=
KBBF 081335Z AUTO 12011G20KT 070V150 6SM HZ FEW022 SCT035 SCT055
     29/27 A2982 RMK A01=
KBQX 081235Z AUTO 12018G26KT 9SM FEW026 29/25 A2986 RMK A01=
KDLP 081235Z AUTO 10013KT 9SM CLR 28/24 A3000 RMK A01=
KEDU 081235Z AUTO 00000KT 10SM CLR 13/10 A2984 RMK AO1=
KEGV 081233Z AUTO 36004KT 10SM CLR 19/17 A3005 RMK AO2
     T01900169=
KEHC 081235Z AUTO 12022KT 5SM HZ SCT017 SCT023 SCT028 29/25 A2994
     RMK A01=
KEMK 081235Z AUTO 14024KT 8SM FEW027 FEW044 BKN080 29/25 A2989 RMK
     A01=
KGBK 081235Z AUTO 09013G23KT 10SM SCT018 BKN024 BKN035 29/25 A2993
     RMK A01=
KGVX 081235Z AUTO 12019KT 7SM FEW043 FEW065 SCT080 M40/ A2991 RMK
     A01=
KHQI 081235Z AUTO 11021KT 6SM HZ FEW018 FEW075 FEW085 29/26 A2991
     RMK A01=
KIPN 081230Z AUTO 08015KT 10SM SCT022 59/53 A3000 RMK A01=
KMDJ 081235Z AUTO 11014KT 10SM FEW022 29/24 A3001 RMK A01=
KMHR 081235Z AUTO 17005KT 10SM CLR 12/10 A2985 RMK AO1=
KMIU 081235Z AUTO 12022KT 8SM FEW018 SCT022 BKN047 28/26 A2981 RMK
     A01=
KMYT 081235Z AUTO 10016KT 10SM SCT021 SCT029 SCT033 28/24 A2998
     RMK A01=
KMZG 081235Z AUTO 00000KT 9SM FEW021 SCT032 BKN039 29/25 A2983 RMK
     A01=
KRPD 081234Z AUTO 32005KT 10SM CLR 19/17 A3010 RMK AO2
     T01910168=
KRRL 081235Z AUTO 00000KT 10SM SCT004 OVC010 19/18 A3005 RMK AO2
     T01850180=
KRYV 081235Z AUTO 27004KT 7SM OVC005 23/21 A3004 RMK AO2=
KSCF 081240Z AUTO 13018KT 8SM 29/25 A2992 RMK A01=
KSTE 081235Z AUTO 34003KT 10SM OVC007 21/19 A3004 RMK AO2=
KSUW 081235Z AUTO 23005KT 10SM CLR 18/15 A3003 RMK AO2=
KTKV 081235Z AUTO 33006KT 10SM CLR 18/17 A3006 RMK AO2
     T01790172=
KUNU 081232Z AUTO 26003KT 4SM BR OVC003 21/20 A3004 RMK AO2
     T02120200=
KVBS 081235Z AUTO 12021KT 10SM SCT020 SCT028 29/25 A2995 RMK
     A01=
KVNP 081235Z AUTO 11013KT 7SM SCT017 28/25 A2999 RMK A01=
####018000381####
SARA33 RUMS 081230
METAR UIAA 081230Z 31004MPS 9999 VCTS BKN033CB OVC100 19/15 Q1009
NOSIG RMK     QFE698 29CLRD70=
METAR UIBB 081230Z 04002MPS 9999 BKN200 24/14 Q1006 NOSIG RMK
QFE711/0949 30CLRD60=
METAR UIII 081230Z 18003MPS CAVOK 18/11 Q1006 NOSIG RMK QFE713/0950
12CLRD60=
METAR UIUU 081230Z 26002MPS 9999 SCT033CB OVC100 21/14 Q1007 NOSIG
RMK QFE711/0949 26CLRD60=
####018000401####
SARA31 RUMS 081230
METAR UEEE 081230Z 25005MPS 9999 -SHRA BKN040CB OVC100 18/13 Q1009
NOSIG RMK QFE748 23290150=
METAR COR UELL 081230Z VRB01MPS 9999 SCT006 BKN030CB OVC200 12/12
Q1012 NOSIG RMK MT PT OBSC QFE685 08290050=
METAR UERP 081230Z NIL=
METAR UERR 081230Z 34002MPS 9999 FEW020CB SCT100 OVC200 15/14 Q1012
NOSIG RMK QFE728 24CLRD60=
METAR UESO 081230Z NIL=
METAR UEST 081230Z NIL=
####018000874####
SARS32 RUMS 081230
METAR URKA 081230Z 05005MPS 9999 SCT026 29/20 Q1012 NOSIG RMK  065=
METAR URKK 081230Z 05005G08MPS 9999 BKN043 30/20 Q1011 NOSIG RMK
QFE755 SC070=
METAR URKM 081230Z NIL=
METAR URML 081230Z 08005MPS 9999 FEW100 32/20 Q1012 NOSIG RMK QFE759
/ 07=
METAR URMM 081230Z 13005G09MPS 9999 BKN046 30/18 Q1012 NOSIG RMK /
SC070=
METAR URMN 081230Z 10003MPS 9999 BKN038CB BKN110 28/18 Q1013 NOSIG
RMK / QFE723 SC07=
METAR URMT 081230Z 04005G08MPS 9999 SCT020 BKN100 28/17 Q1014 NOSIG
RMK QFE720 SC07=
METAR URRR 081230Z VRB01MPS 9999 FEW036 31/14 Q1013 NOSIG RMK SC070=
METAR URSS 081230Z 29004G07MPS 9999 FEW040 28/22 Q1009 NOSIG RMK /
QFE755 06CLRD70=
METAR URWA 081230Z 00000MPS CAVOK 38/12 Q1011 NOSIG RMK SC07=
METAR URWI 081230Z 32002MPS CAVOK 31/16 Q1013 NOSIG RMK SC065=
METAR URWW 081230Z 32003G07MPS CAVOK 31/13 Q1014 NOSIG RMK SC070=
####018000393####
SARA32 RUMS 081230
METAR UHHH 081230Z 04003MPS 9999 SCT033CB OVC100 17/15 Q1011 NOSIG
RMK QFE752/1002 55090060=
METAR UHMA 081230Z NIL=
METAR UHMM 081230Z NIL=
METAR UHMP 081230Z NIL=
METAR UHNN 081230Z NIL=
METAR UHPP 081230Z NIL=
METAR UHSH 081230Z NIL=
METAR UHSS 081230Z NIL=
METAR UHWW 081230Z 00000MPS 9999 SCT013 BKN023CB OVC100 16/14 Q1011
NOSIG RMK QFE757/1010 75CLRD70=
####018000083####
SAFR36 LFPW 081230 RRA
METAR LFJR 081230Z AUTO VRB04KT 9999NDV NCD 32/10 Q1017=
####018000699####
SARS31 RUMS 081230
METAR ULAA 081230Z 30004MPS 260V320 9999 FEW033 28/17 Q1015 TEMPO
TSRA RMK QFE760/1013 SC070=
METAR ULKK 081230Z NIL=
METAR ULMM 081230Z 34002MPS 300V020 9999 BKN026 16/08 Q1018 NOSIG RMK
QFE756 32190060=
METAR ULOL 081230Z NIL=
METAR ULOO 081230Z VRB02MPS P6000 TS SCT036CB BKN046 BKN200 29/18
Q1011 NOSIG RMK QFE755=
METAR ULWW 081230Z NIL=
METAR UMKK 081230Z 31007MPS P8000 FEW033 SCT200 22/15 Q1020 NOSIG RMK
QFE 764 SC07=
METAR UUBP 081230Z NIL=
METAR UUOB 081230Z NIL=
METAR UUOK 081230Z NIL=
METAR UUOO 081230Z 00000MPS 9999 BKN033CB 28/14 Q1014 NOSIG RMK
13090070=
METAR UWGG 081230Z 11002MPS 020V170 8000 FEW033 34/08 Q1015 NOSIG RMK
QFE754 18090070=
####018000273####
SARS34 RUMS 081230
METAR UUYH 081230Z 17002MPS CAVOK 27/11 Q1016 NOSIG RMK QFE 750
18CLRD60=
METAR UUYS 081230Z 17003MPS CAVOK 21/05 Q1015 NOSIG RMK QFE754
14CLRD60=
METAR UUYY 081230Z 22003MPS 180V250 9999 FEW033 OVC200 30/14 Q1015
NOSIG 19CLRD61 RMK QFE753/1004=
####018000815####
SARS35 RUMS 081230
METAR USPP 081230Z 01004MPS CAVOK 29/10 Q1015 NOSIG RMK QFE750/1001
21090060=
METAR UWKD 081230Z 30002MPS 9999 SCT050CB BKN070 31/13 Q1015 TEMPO
VRB15MPS 3000 TSRA RMK QFE750/1000 79CLRD70=
METAR UWKE 081230Z 02002MPS 9999 FEW040 31/09 Q1015 NOSIG RMK
QFE745/0993 22090070=
METAR UWKS 081230Z 03005MPS 9999 VCTS BKN033CB 28/16 Q1016 NOSIG RMK
QFE748 SC0.60=
METAR UWLL 081230Z 08003MPS 9999 SCT050CB 32/09 Q1015 NOSIG RMK
QFE749/0998 SC065=
METAR UWLW 081230Z NIL=
METAR UWOR 081230Z NIL=
METAR UWOO 081230Z NIL=
METAR UWPP 081230Z 14004MPS 9999 SCT033 BKN100 33/09 Q1013 NOSIG RMK
QFE745 11090060=
METAR UWSS 081230Z 07005MPS CAVOK 31/11 Q1014 NOSIG RMK QFE749
120///60=
METAR UWWW 081230Z 06005G08MPS 9999 FEW033 BKN200 32/07 Q1014 NOSIG
RMK QFE748/0997 05CLRD60 15//99//=
####018000433####
SARS33 RUMS 081230
METAR ULLI 081230Z 13006MPS 9999 BKN040CB BKN066 BKN200 27/14 Q1013
NOSIG=
METAR UUDD 081230Z 15004MPS 110V190 9999 FEW050TCU BKN200 28/15 Q1015
TEMPO VRB12MPS TSRA=
METAR UUEE 081230Z 13005MPS 9999 SCT050CB BKN200 28/13 Q1015 NOSIG=
METAR UUEM 081230Z NIL=
METAR UUWW 081230Z 18004MPS 140V200 CAVOK 27/15 Q1015 24000070 NOSIG=
METAR UUMO 081230Z VRB02MPS CAVOK 28/16 Q1015 NOSIG RMK QFE746/0995
SC060=
####018000725####
SARA36 RUMS 081230
METAR UWUU 081230Z 36004G07MPS 310V010 CAVOK 28/09 Q1014 82010060
NOSIG RMK QFE750/1000=
METAR USCC 081230Z 34006G12MPS 310V010 9999 FEW040 FEW200 25/02 Q1013
NOSIG RMK QFE740 27000070=
METAR USDD 081230Z 04009MPS CAVOK 17/M00 Q1015 NOSIG RMK QFE755/1007
SC060=
METAR USMU 081230Z 01004MPS 9999 -SHRA SCT030CB OVC066 14/13 Q1006
NOSIG RMK QFE749 09250345=
METAR USNN 081230Z 16003MPS P6000 FEW026 SCT200 18/10 Q1003 NOSIG RMK
QFE747 SC065=
METAR USRK 081230Z 34004MPS 6000 BKN022 OVC066 14/11 Q1004 NOSIG RMK
QFE747 351///55=
METAR USRR 081230Z 36003MPS 7000 OVC012 13/11 Q1005 TEMPO BKN007 RMK
QFE748 25////60=
METAR USSS 081230Z 01006G10MPS CAVOK 25/01 Q1014 NOSIG RMK QFE740
260///70=
####018000086####
SAUZ31 UTTW 081230
METAR UTNU 081230Z 02003MPS CAVOK 40/20 Q1006 R13/CLRD60 NOSIG=
####018000199####
SARA35 RUMS 081230
METAR ULDD 081230Z NIL=
METAR UOHH 081230Z NIL=
METAR UOII 081230Z NIL=
METAR UOOO 081230Z NIL=
METAR USCM 081230Z VRB02MPS 9999 SKC 27/01 Q1014 NOSIG 01090065 RMK
QFE722=
####018002207####
SAUS70 KWBC 081240 RRA
METAR
KPQN 081233Z AUTO 31003KT 10SM CLR 18/14 A3018 RMK AO2=
KPWC 081233Z AUTO 00000KT 10SM CLR 17/14 A3009 RMK AO2=
KRCM 081235Z AUTO 02003KT 7SM OVC006 22/22 A3007 RMK AO2=
KROX 081234Z AUTO 26004KT 10SM CLR 16/13 A3002 RMK AO2=
KRRT 081234Z AUTO 23005KT 10SM SCT080 15/13 A3001 RMK AO2=
KSAZ 081233Z AUTO 26005KT 10SM CLR 18/18 A3010 RMK AO2=
KSGS 081233Z AUTO 31005KT 10SM CLR 20/16 A3011 RMK AO2
     T02020162=
KTEW 081232Z AUTO 00000KT 7SM CLR 24/21 A3005 RMK AO2=
KTOB 081235Z AUTO 00000KT 10SM CLR 18/17 A3012 RMK AO2=
KTWM 081233Z AUTO 28004KT 10SM CLR 19/14 A3002 RMK AO2=
KULM 081235Z AUTO 29005KT 10SM CLR 17/15 A3013 RMK AO2=
KVVV 081235Z AUTO 26004KT 10SM CLR 19/14 A3012 RMK AO2=
KBBF 081335Z AUTO 12011G20KT 070V150 6SM HZ FEW022 SCT035 SCT055
     29/27 A2982 RMK A01=
KBQX 081235Z AUTO 12018G26KT 9SM FEW026 29/25 A2986 RMK A01=
KDLP 081235Z AUTO 10013KT 9SM CLR 28/24 A3000 RMK A01=
KEGV 081233Z AUTO 36004KT 10SM CLR 19/17 A3005 RMK AO2
     T01900169=
KEHC 081235Z AUTO 12022KT 5SM HZ SCT017 SCT023 SCT028 29/25 A2994
     RMK A01=
KEMK 081235Z AUTO 14024KT 8SM FEW027 FEW044 BKN080 29/25 A2989 RMK
     A01=
KGVX 081235Z AUTO 12019KT 7SM FEW043 FEW065 SCT080 M40/ A2991 RMK
     A01=
KHQI 081235Z AUTO 11021KT 6SM HZ FEW018 FEW075 FEW085 29/26 A2991
     RMK A01=
KIPN 081230Z AUTO 08015KT 10SM SCT022 59/53 A3000 RMK A01=
KMDJ 081235Z AUTO 11014KT 10SM FEW022 29/24 A3001 RMK A01=
KMIU 081235Z AUTO 12022KT 8SM FEW018 SCT022 BKN047 28/26 A2981 RMK
     A01=
KMZG 081235Z AUTO 00000KT 9SM FEW021 SCT032 BKN039 29/25 A2983 RMK
     A01=
KRPD 081234Z AUTO 32005KT 10SM CLR 19/17 A3010 RMK AO2
     T01910168=
KRRL 081235Z AUTO 00000KT 10SM SCT004 OVC010 19/18 A3005 RMK AO2
     T01850180=
KRYV 081235Z AUTO 27004KT 7SM OVC005 23/21 A3004 RMK AO2=
KSTE 081235Z AUTO 34003KT 10SM OVC007 21/19 A3004 RMK AO2=
KSUW 081235Z AUTO 23005KT 10SM CLR 18/15 A3003 RMK AO2=
KUNU 081232Z AUTO 26003KT 4SM BR OVC003 21/20 A3004 RMK AO2
     T02120200=
KVBS 081235Z AUTO 12021KT 10SM SCT020 SCT028 29/25 A2995 RMK
     A01=
KVNP 081235Z AUTO 11013KT 7SM SCT017 28/25 A2999 RMK A01=
####018001037####
SPUS70 KWBC 081240
SPECI
KBMQ 081237Z AUTO 07003KT 9SM BKN010 OVC022 24/22 A3003 RMK AO2
     RAB00E09 CIG 007V016 P0000 $=
KCNM 081237Z AUTO 32008KT 8SM -RA FEW009 OVC015 19/18 A3015 RMK
     AO2 P0006=
KESF 081237Z AUTO 00000KT 9SM SCT011 25/24 A3005 RMK AO2=
KOCF 081230Z 00000KT 6SM BR SKC 22/22 A3003=
KAUG 081237Z AUTO VRB05KT 5SM BR OVC005 22/20 A3011 RMK AO2=
KEKQ 081236Z AUTO 00000KT 3SM BR CLR 23/21 A3012 RMK AO2=
KRAC 081237Z AUTO 25005KT 5SM -RA BR FEW008 BKN022 OVC037 23/22
     A3004 RMK AO2 RAB1155 P0001=
KCFV 081238Z AUTO 00000KT 10SM FEW007 BKN012 OVC039 23/22 A3007
     RMK AO2 LTG DSNT SE=
KGUY 081238Z AUTO 33005KT 10SM -RA BKN017 OVC110 18/17 A3022 RMK
     AO2 P0002=
KITR 081238Z AUTO 00000KT 9SM -RA SCT014 BKN032 OVC042 17/15 A3031
     RMK AO2 P0000=
KLRD 081237Z 03007KT 7SM FEW025 BKN031 BKN050 27/24 A2990 RMK AO2
     $=
KSRC 081238Z AUTO 21003KT 10SM FEW005 25/23 A3009 RMK AO2 TSNO=
KTCC 081238Z AUTO 04006KT 10SM FEW018 OVC075 18/16 A3025 RMK
     AO2=
####018000246####
SAXX60 KWBC 081240
METAR
KMRT 081233Z AUTO 24003KT 7SM CLR 25/20 A3012 RMK AO2
     T02530200=
KGBK 081235Z AUTO 09013G23KT 10SM SCT018 BKN024 BKN035 29/25 A2993
     RMK A01=
KMHR 081235Z AUTO 17005KT 10SM CLR 12/10 A2985 RMK AO1=
####018000514####
SAAO32 GOOY 081230
METAR GABS 081230Z 23004KT 170V290 9999 FEW030 32/21 Q1015 NOSIG=
METAR GGOV 081230Z NIL=
METAR GOOY 081230Z 14010KT 110V180 9999 SCT013 31/24 Q1013 NOSIG=
METAR DIAP 081230Z 22005KT 180V290 7000 R21//////N SCT012 BKN070
29/25 Q1014 NOSIG=
METAR GQNN 081230Z 19012KT 160V220 6000 NSC 31/22 Q1013 NOSIG=
METAR GQPP 081230Z NIL=
METAR GUCY 081230Z NIL=
METAR GVAC 081230Z NIL=
METAR GFLL 081230Z NIL=
METAR GBYD 081230Z NIL=
METAR GLRB 081230Z 00000KT 9999 BKN018 30/24 Q1014 NOSIG=
####018000104####
SAUS80 KWBC 081300
METAR
KSYN 081250Z AUTO 30004KT 10SM CLR 19/17 A3011 RMK AO2
     T01920170=
####018003709####
SAUS70 KWBC 081240
METAR
K14Y 081239Z AUTO 23005KT 10SM CLR 18/16 A3011 RMK AO2
     T01810160=
KEFT 081235Z AUTO 31008KT 10SM SCT006 OVC015 22/20 A3006 RMK AO2
     T02180195=
KETB 081232Z AUTO 26006KT 10SM OVC009 23/21 A3003 RMK AO2
     T02250205=
KEZS 081235Z AUTO 32005KT 10SM SCT010 23/21 A3001 RMK AO2
     T02280206=
KGLW 081233Z AUTO 00000KT 7SM CLR 26/22 A3008 RMK AO2
     T02560215=
KHFJ 081235Z AUTO 00000KT 10SM SCT022 OVC029 23/22 A3006 RMK
     AO1=
KLNL 081235Z AUTO 34003KT 10SM CLR 18/15 A3007 RMK AO2
     T01810146=
KMDZ 081235Z AUTO 32007KT 10SM BKN006 19/18 A3006 RMK AO2=
KMRJ 081235Z AUTO 31003KT 3SM BR OVC003 22/20 A3006 RMK AO2
     T02180202=
KOEO 081235Z AUTO 00000KT 10SM CLR 18/17 A3011 RMK AO2=
KPBH 081235Z AUTO 00000KT 10SM BKN048 19/17 A3008 RMK AO2=
KPCZ 081235Z AUTO 31005KT 7SM SCT006 BKN011 23/20 A3002 RMK AO2
     T02250201=
KPDC 081233Z AUTO 30005KT 7SM OVC010 22/20 A3006 RMK AO2
     T02170201=
KRCX 081235Z AUTO 32007KT 10SM BKN050 19/17 A3009 RMK AO2
     T01930171=
KRNH 081236Z AUTO 31004KT 10SM CLR 19/17 A3011 RMK AO2
     T01850166=
KUNI 081235Z AUTO 00000KT 7SM BKN065 25/19 A3009 RMK AO2
     T02500186=
KVES 081234Z AUTO 15004KT 7SM CLR 24/21 A3009 RMK AO2
     T02410208=
KY63 081240Z AUTO 00000KT 10SM CLR 17/16 A3011 RMK AO2
     T01710160=
K4M9 081235Z AUTO 21007KT 8SM CLR 26/26 A3007 RMK AO2=
KAEJ 081235Z AUTO 00000KT 10SM SCT014 06/05 A3045 RMK AO2=
KAEL 081231Z AUTO 31003KT 10SM CLR 18/17 A3012 RMK AO2=
KAIT 081233Z AUTO 00000KT 10SM CLR 17/16 A3007 RMK AO2=
KBBB 081233Z AUTO 24003KT 10SM CLR 17/16 A3012 RMK AO2=
KBVU 081235Z AUTO 00000KT 10SM CLR 23/M01 A2988 RMK AO2=
KCVH 081230Z AUTO 00000KT 9SM OVC006 13/11 A2993 RMK AO1=
KDXX 081234Z AUTO 00000KT 10SM CLR 18/17 A3011 RMK AO2=
KEFK 081236Z AUTO 20004KT 7SM CLR 26/21 A3007 RMK AO2=
KELO 081233Z AUTO 23004KT 10SM CLR 17/15 A3003 RMK AO2=
KEVM 081232Z AUTO 27003KT 10SM CLR 16/15 A3002 RMK AO1=
KFBL 081234Z AUTO 00000KT 10SM CLR 18/16 A3013 RMK AO2=
KFFM 081233Z AUTO 00000KT 10SM CLR 17/15 A3009 RMK AO2=
KFGN 081234Z AUTO 26008KT 1/2SM -DZ OVC100 17/13 A2998 RMK AO2=
KFSO 081238Z AUTO 23003KT 7SM SCT060 27/23 A3002 RMK AO2=
KGDB 081233Z AUTO 24004KT 10SM CLR 17/15 A3015 RMK AO2
     T01670150=
KGHW 081233Z AUTO 26009KT 10SM CLR 18/14 A3014 RMK AO2=
KGYL 081234Z AUTO 27005KT 10SM CLR 18/16 A3012 RMK AO2
     T01750155=
KHCD 081232Z AUTO 27003KT 10SM CLR 16/15 A3013 RMK AO2
     T01550146=
KHCO 081234Z AUTO 29006KT 10SM CLR 17/15 A3007 RMK AO2=
KHYW 081235Z AUTO 00000KT 7SM CLR 27/23 A2994 RMK AO2=
KHZX 081231Z AUTO 25005KT 10SM CLR 17/15 A3008 RMK AO2=
KJKJ 081234Z AUTO 24003KT 10SM CLR 17/15 A3008 RMK AO2=
KJMR 081238Z AUTO 29004KT 10SM CLR 18/15 A3010 RMK AO2=
KLJF 081232Z AUTO 27006KT 10SM CLR 19/16 A3013 RMK AO2=
KLVN 081228Z AUTO 29004KT 10SM CLR 18/17 A3011 RMK AO2=
KLXL 081234Z AUTO 00000KT 10SM CLR 16/15 A3008 RMK AO2=
KMCJ 081235Z AUTO 07007KT 2SM SCT001 OVC010 24/23 A2994 RMK AO1
     P0019=
KMDS 081220Z AUTO 27003KT 10SM CLR 18/17 A3018 RMK AO2=
KMGG 081235Z AUTO 26005KT 10SM CLR 19/16 A3012 RMK AO2
     T01860162=
KMJQ 081232Z AUTO 30004KT 10SM CLR 17/15 A3016 RMK AO2=
KMOX 081230Z AUTO 27005KT 10SM CLR 18/16 A3008 RMK AO2=
KMVE 081234Z AUTO 29003KT 10SM CLR 18/16 A3011 RMK AO2=
KMWM 081233Z AUTO 28004KT 10SM CLR 18/16 A3015 RMK AO2=
KONA 081231Z AUTO 33006KT 7SM CLR 21/17 A3007 RMK AO2=
KOVL 081234Z AUTO 29004KT 10SM CLR 16/13 A3012 RMK AO2
     T01610132=
KPEX 081233Z AUTO 26005KT 10SM CLR 17/16 A3012 RMK AO2
     T01680158=
KPNM 081233Z AUTO 27005KT 10SM CLR 18/16 A3010 RMK AO2=
####018000069####
SAAF35 KWBC 081200 RRD
METAR
HSSS 081230Z 11006KT CAVOK Q1007=
####018000670####
SAUS80 KWBC 081240
METAR
K29G 081234Z AUTO 00000KT 7SM CLR 25/19 A3010 RMK AO2 T02510194
     PWINO=
KIKW 081234Z AUTO 00000KT 7SM BKN080 OVC090 23/21 A3002 RMK AO2
     T02320211=
KLYV 081238Z AUTO 00000KT 10SM CLR 16/14 A3018 RMK AO2=
KROS 081235Z AUTO 00000KT 10SM CLR 18/15 A3009 RMK AO2
     T01790154=
KSNC 081235Z AUTO 15004KT 10SM OVC005 23/ A3010 RMK AO2=
KTKC 081233Z AUTO 25004KT 10SM CLR 18/14 A3016 RMK AO2
     T01800140=
KMYT 081235Z AUTO 10016KT 10SM SCT021 SCT029 SCT033 28/24 A2998
     RMK A01=
KSCF 081240Z AUTO 13018KT 8SM 29/25 A2992 RMK A01=
KTKV 081235Z AUTO 33006KT 10SM CLR 18/17 A3006 RMK AO2
     T01790172=
####018000783####
SARA34 RUMS 081230
METAR UNAA 081230Z 05003MPS 9999 SCT030CB BKN100 19/11 Q1011 NOSIG
RMK QFE736 202///55=
METAR UNBB 081230Z NIL=
METAR UNEE 081230Z 00000MPS 9999 SCT026CB BKN066 19/08 Q1009 NOSIG
RMK QFE734 23CLRD60=
METAR UNKL 081230Z VRB02MPS 9999 BKN020CB OVC083 17/14 Q1010 TEMPO
2000 TSRA RMK QFE732 29////60=
METAR UNNT 081230Z 22003MPS 9999 BKN060CB BKN100 19/03 Q1007 NOSIG
RMK QFE745/0994 25090070=
METAR UNOO 081230Z 33003MPS 9999 BKN026CB 14/10 Q1008 NOSIG 25CLRD06
RMK QFE748=
METAR UNWW 081230Z 00000MPS 9999 BKN026CB OVC100 15/10 Q1010 NOSIG
RMK QFE731 1929//60=
METAR USTR 081230Z 04002MPS 9999 SCT046 18/06 Q1012 NOSIG RMK
QFE750/1000 30CLRD65=
METAR USHH 081230Z 34002G06MPS 300V010 9999 -SHRA SCT015CB OVC080
10/09 Q1009 NOSIG RMK QFE753 SC06=
####018000234####
SPUS80 KWBC 081240
SPECI
KJLN 081237Z 00000KT 1/2SM VCTS FG BKN004 BKN010 OVC070 22/22
     A3009 RMK AO2 TSB22RAB15E22 FRQ LTGIC OVHD P0013=
KDBQ 081238Z 00000KT 5SM BR BKN005 BKN021 22/21 A3007 RMK AO2 CIG
     002V007=
####018000115####
SAAO32 KWBC 081200 RRD
METAR
GABS 081230Z 23004KT 170V290 9999 FEW030 32/21 Q1015 NOSIG=
GQPP 081230Z NIL=
####018000095####
SAAL31 KWBC 081200 RRE
METAR
DABS 081230Z 04010KT CAVOK 34/06 Q1023=
DAUZ 081230Z NIL=
####018000167####
SAAO33 KWBC 081200 RRF
METAR
GBYD 081230Z NIL=
GFLL 081230Z NIL=
GGOV 081230Z NIL=
GLRB 081230Z 00000KT 9999 BKN018 30/24 Q1014 NOSIG=
GUCY 081230Z NIL=
####018000206####
SAEE31 KWBC 081230 RRB
METAR
UMMM 081230Z 28006G09MPS 9999 OVC015CB 20/15 Q1015 R30/CLRD//
     NOSIG RMK QFE742=
UMMS 081230Z 25004G07MPS 150V290 9999 OVC020 19/15 Q1015
     R31/CLRD// NOSIG=
####018000269####
SAFR41 KWBC 081230 RRB
METAR
LFBC 081230Z AUTO 11010KT 070V150 9999NDV NSC 37/10 Q1015=
LFBM 081230Z AUTO 10010KT 080V140 9999NDV NSC 36/18 Q1015=
LFPV 081230Z AUTO 18006KT 140V240 9999NDV NSC 30/10 Q1019=
LFSD 081230Z AUTO VRB04KT 9999NDV NSC 31/11 Q1020=
####018000217####
SAFR32 KWBC 081230 RRA
METAR
LFOT 081230Z AUTO VRB02KT 9999NDV NSC 32/11 Q1018=
LFRC 081230Z AUTO 01007KT 340V070 9999NDV SCT019 SCT027 21/16
     Q1020=
LFTW 081230Z AUTO VRB06KT 9999NDV NSC 32/15 Q1020=
####018000155####
SAFR31 KWBC 081230 RRA
METAR
LFGJ 081230Z AUTO 19006KT 120V240 9999NDV NSC 31/11 Q1020=
LFMD 081230Z AUTO 18006KT 120V210 9999NDV NSC 29/23 Q1020=
####018000130####
SAMX31 KWBC 081245 RRA
METAR
MMMX 081223Z 16004KT 2 1/2SM -RA HZ SCT008 OVC020 15/14 A3019
     NOSIG RMK 8/7// VSBY TWR=
####018000053####
SANT31 KWBC 081200 RRD
METAR
GVAC 081230Z NIL=
####018001706####
SARA31 KWBC 081200 RRJ
METAR
UEEE 081230Z 25005MPS 9999 -SHRA BKN040CB OVC100 18/13 Q1009 NOSIG
     RMK QFE748 23290150=
UHHH 081230Z 04003MPS 9999 SCT033CB OVC100 17/15 Q1011 NOSIG RMK
     QFE752/1002 55090060=
UHMA 081230Z NIL=
UHMM 081230Z NIL=
UHMP 081230Z NIL=
UHPP 081230Z NIL=
UHSS 081230Z NIL=
UHWW 081230Z 00000MPS 9999 SCT013 BKN023CB OVC100 16/14 Q1011
     NOSIG RMK QFE757/1010 75CLRD70=
UIAA 081230Z 31004MPS 9999 VCTS BKN033CB OVC100 19/15 Q1009 NOSIG
     RMK QFE698 29CLRD70=
UIAA 081230Z 31004MPS 9999 VCTS BKN033CB OVC100 19/15 Q1009 NOSIG
     RMK зъ аъ унеэ ч QFE698 29CLRD70=
UIBB 081230Z 04002MPS 9999 BKN200 24/14 Q1006 NOSIG RMK
     QFE711/0949 30CLRD60=
UIII 081230Z 18003MPS CAVOK 18/11 Q1006 NOSIG RMK QFE713/0950
     12CLRD60=
UIUU 081230Z 26002MPS 9999 SCT033CB OVC100 21/14 Q1007 NOSIG RMK
     QFE711/0949 26CLRD60=
ULAA 081230Z 30004MPS 260V320 9999 FEW033 28/17 Q1015 TEMPO TSRA
     RMK QFE760/1013 SC070=
UMBB 081230Z 30005G08MPS 8000 SCT030 24/12 Q1019 NOSIG=
UMGG 081230Z 24002MPS 9999 BKN043CB BKN100 24/21 Q1014 R28/290550
     NOSIG=
UMMM 081230Z 28006G09MPS 9999 OVC015CB 20/15 Q1015 R30/CLRD//
     NOSIG RMK QFE742=
UMMS 081230Z 25004G07MPS 150V290 9999 OVC020 19/15 Q1015
     R31/CLRD// NOSIG=
UNAA 081230Z 05003MPS 9999 SCT030CB BKN100 19/11 Q1011 NOSIG RMK
     QFE736 202///55=
UNNT 081230Z 22003MPS 9999 BKN060CB BKN100 19/03 Q1007 NOSIG RMK
     QFE745/0994 25090070=
USNN 081230Z 16003MPS P6000 FEW026 SCT200 18/10 Q1003 NOSIG RMK
     QFE747 SC065=
UTNU 081230Z 02003MPS CAVOK 40/20 Q1006 R13/CLRD60 NOSIG=
UUEE 081230Z 13005MPS 9999 SCT050CB BKN200 28/13 Q1015 NOSIG=
####018001108####
SARS32 KWBC 081200 RRC
METAR
URKA 081230Z 05005MPS 9999 SCT026 29/20 Q1012 NOSIG RMK 065=
URKA 081230Z 05005MPS 9999 SCT026 29/20 Q1012 NOSIG RMK уг 065=
URKK 081230Z 05005G08MPS 9999 BKN043 30/20 Q1011 NOSIG RMK QFE755
     SC070=
URKM 081230Z NIL=
URMM 081230Z 13005G09MPS 9999 BKN046 30/18 Q1012 NOSIG RMK /
     SC070=
URMM 081230Z 13005G09MPS 9999 BKN046 30/18 Q1012 NOSIG RMK з/п
     SC070=
URMN 081230Z 10003MPS 9999 BKN038CB BKN110 28/18 Q1013 NOSIG RMK /
     QFE723 SC07=
URMN 081230Z 10003MPS 9999 BKN038CB BKN110 28/18 Q1013 NOSIG RMK
     з/п QFE723 SC07=
URMT 081230Z 04005G08MPS 9999 SCT020 BKN100 28/17 Q1014 NOSIG RMK
     QFE720 SC07=
URRR 081230Z VRB01MPS 9999 FEW036 31/14 Q1013 NOSIG RMK SC070=
URSS 081230Z 29004G07MPS 9999 FEW040 28/22 Q1009 NOSIG RMK /
     QFE755 06CLRD70=
URSS 081230Z 29004G07MPS 9999 FEW040 28/22 Q1009 NOSIG RMK з/п
     QFE755 06CLRD70=
URWA 081230Z 00000MPS CAVOK 38/12 Q1011 NOSIG RMK SC07=
URWI 081230Z 32002MPS CAVOK 31/16 Q1013 NOSIG RMK SC065=
URWW 081230Z 32003G07MPS CAVOK 31/13 Q1014 NOSIG RMK SC070=
####018000614####
SARS31 KWBC 081200 RRC
METAR
UELL 081230Z VRB01MPS 9999 SCT006 BKN030CB OVC200 12/12 Q1012
     NOSIG RMK MT PT OBSC QFE685 08290050=
UEST 081230Z NIL=
ULLI 081230Z 13006MPS 9999 BKN040CB BKN066 BKN200 27/14 Q1013
     NOSIG=
ULMM 081230Z 34002MPS 300V020 9999 BKN026 16/08 Q1018 NOSIG RMK
     QFE756 32190060=
UOHH 081230Z NIL=
UOOO 081230Z NIL=
UUDD 081230Z 15004MPS 110V190 9999 FEW050TCU BKN200 28/15 Q1015
     TEMPO VRB12MPS TSRA=
UUEE 081230Z 13005MPS 9999 SCT050CB BKN200 28/13 Q1015 NOSIG=
UUEM 081230Z NIL=
UUWW 081230Z 18004MPS 140V200 CAVOK 27/15 Q1015 24000070 NOSIG=
####018000821####
SARS33 KWBC 081200 RRB
METAR
USCC 081230Z 34006G12MPS 310V010 9999 FEW040 FEW200 25/02 Q1013
     NOSIG RMK QFE740 27000070=
USDD 081230Z 04009MPS CAVOK 17/M00 Q1015 NOSIG RMK QFE755/1007
     SC060=
USMU 081230Z 01004MPS 9999 -SHRA SCT030CB OVC066 14/13 Q1006 NOSIG
     RMK QFE749 09250345=
USNN 081230Z 16003MPS P6000 FEW026 SCT200 18/10 Q1003 NOSIG RMK
     QFE747 SC065=
USPP 081230Z 01004MPS CAVOK 29/10 Q1015 NOSIG RMK QFE750/1001
     21090060=
USRK 081230Z 34004MPS 6000 BKN022 OVC066 14/11 Q1004 NOSIG RMK
     QFE747 351///55=
USRR 081230Z 36003MPS 7000 OVC012 13/11 Q1005 TEMPO BKN007 RMK
     QFE748 25////60=
USSS 081230Z 01006G10MPS CAVOK 25/01 Q1014 NOSIG RMK QFE740
     260///70=
USTR 081230Z 04002MPS 9999 SCT046 18/06 Q1012 NOSIG RMK
     QFE750/1000 30CLRD65=
####018001230####
SARS41 KWBC 081200 RRC
METAR
UUBP 081230Z NIL=
UUEE 081230Z 13005MPS 9999 SCT050CB BKN200 28/13 Q1015 NOSIG=
UUEM 081230Z NIL=
UUOO 081230Z 00000MPS 9999 BKN033CB 28/14 Q1014 NOSIG RMK
     13090070=
UUWW 081230Z 18004MPS 140V200 CAVOK 27/15 Q1015 24000070 NOSIG=
UUYH 081230Z 17002MPS CAVOK 27/11 Q1016 NOSIG RMK QFE 750
     18CLRD60=
UUYS 081230Z 17003MPS CAVOK 21/05 Q1015 NOSIG RMK QFE754
     14CLRD60=
UUYY 081230Z 22003MPS 180V250 9999 FEW033 OVC200 30/14 Q1015 NOSIG
     19CLRD61 RMK QFE753/1004=
UWGG 081230Z 11002MPS 020V170 8000 FEW033 34/08 Q1015 NOSIG RMK
     QFE754 18090070=
UWKD 081230Z 30002MPS 9999 SCT050CB BKN070 31/13 Q1015 TEMPO
     VRB15MPS 3000 TSRA RMK QFE750/1000 79CLRD70=
UWKE 081230Z 02002MPS 9999 FEW040 31/09 Q1015 NOSIG RMK
     QFE745/0993 22090070=
UWLW 081230Z NIL=
UWOO 081230Z NIL=
UWPP 081230Z 14004MPS 9999 SCT033 BKN100 33/09 Q1013 NOSIG RMK
     QFE745 11090060=
UWSS 081230Z 07005MPS CAVOK 31/11 Q1014 NOSIG RMK QFE749
     120///60=
UWUU 081230Z 36004G07MPS 310V010 CAVOK 28/09 Q1014 82010060 NOSIG
     RMK QFE750/1000=
UWWW 081230Z 06005G08MPS 9999 FEW033 BKN200 32/07 Q1014 NOSIG RMK
     QFE748/0997 05CLRD60 15//99//=
####018000110####
SAUK39 EGRR 081150 RRX
METAR EGDM 081150Z 20008KT 9999 SCT022 SCT250 20/15 Q1018 WHT BECMG
 SCT025 BLU=
####018000096####
SAUK39 EGRR 081150 RRX
METAR EGVN 081150Z 23005KT 9999 FEW032 BKN220 22/09 Q1018 BLU NOSIG=
####018000109####
SAUK41 KWBC 081050 RRI
METAR
EGDM 081050Z AUTO 21004KT 9999NDV FEW017/// BKN030/// 19/15
     Q1019=
####018000154####
SAXX99 KWBC 081100 RRX
METAR
EGVN 081050Z AUTO 24006KT 9999NDV FEW027/// 21/10 Q1018=
EGWU 081050Z AUTO 25003KT 9999NDV // BKN019/// 21/15 Q1018=
####018001401####
SAXX99 KWBC 081200 RRX
METAR
CWIK 081200Z AUTO 29003KT 12/11 RMK AO1 3PAST HR 3013 SLP200 P0001
     T01180107 50003=
LFBG 081230Z AUTO 16008KT 130V200 9999NDV NSC 34/11 Q1017=
LFOA 081230Z AUTO VRB01KT 9999NDV NSC 32/13 Q1019=
LFQI 081230Z 22008KT 180V270 CAVOK 30/12 Q1018=
UERP 081230Z NIL=
UERR 081230Z 34002MPS 9999 FEW020CB SCT100 OVC200 15/14 Q1012
     NOSIG RMK QFE728 24CLRD60=
UESO 081230Z NIL=
UHNN 081230Z NIL=
UHSH 081230Z NIL=
ULDD 081230Z NIL=
ULKK 081230Z NIL=
ULOL 081230Z NIL=
ULOO 081230Z VRB02MPS P6000 TS SCT036CB BKN046 BKN200 29/18 Q1011
     NOSIG RMK QFE755=
ULWW 081230Z NIL=
UMKK 081230Z 31007MPS P8000 FEW033 SCT200 22/15 Q1020 NOSIG RMK
     QFE 764 SC07=
UNBB 081230Z NIL=
UNEE 081230Z 00000MPS 9999 SCT026CB BKN066 19/08 Q1009 NOSIG RMK
     QFE734 23CLRD60=
UNKL 081230Z VRB02MPS 9999 BKN020CB OVC083 17/14 Q1010 TEMPO 2000
     TSRA RMK QFE732 29////60=
UNOO 081230Z 33003MPS 9999 BKN026CB 14/10 Q1008 NOSIG 25CLRD06 RMK
     QFE748=
UNWW 081230Z 00000MPS 9999 BKN026CB OVC100 15/10 Q1010 NOSIG RMK
     QFE731 1929//60=
UOII 081230Z NIL=
URML 081230Z 08005MPS 9999 FEW100 32/20 Q1012 NOSIG RMK QFE759 /
     07=
URML 081230Z 08005MPS 9999 FEW100 32/20 Q1012 NOSIG RMK QFE759 з/п
     уг07=
UWLL 081230Z 08003MPS 9999 SCT050CB 32/09 Q1015 NOSIG RMK
     QFE749/0998 SC065=
UWOR 081230Z NIL=
####018000084####
SAFR36 LFPW 081230 RRA
METAR LFJR 081230Z AUTO VRB04KT 9999NDV NCD 32/10 Q1017=
####018000084####
SPUS51 KWBC 081240
SPECI
KAUG 081237Z AUTO VRB05KT 5SM BR OVC005 22/20 A3011=
####018000092####
SPUS52 KWBC 081240
SPECI
KCNM 081237Z AUTO 32008KT 8SM -RA FEW009 OVC015 19/18 A3015=
####018000081####
SPUS52 KWBC 081240
SPECI
KESF 081237Z AUTO 00000KT 9SM SCT011 25/24 A3005=
####018000102####
SPUS53 KWBC 081240
SPECI
KJLN 081237Z 00000KT 1/2SM VCTS FG BKN004 BKN010 OVC070 22/22
A3009=
####018000081####
SPUS72 KWBC 081240
SPECI
KESF 081237Z AUTO 00000KT 9SM SCT011 25/24 A3005=
####018000092####
SPUS72 KWBC 081240
SPECI
KCNM 081237Z AUTO 32008KT 8SM -RA FEW009 OVC015 19/18 A3015=
####018000102####
SPUS73 KWBC 081240
SPECI
KJLN 081237Z 00000KT 1/2SM VCTS FG BKN004 BKN010 OVC070 22/22
A3009=
####018001119####
SPZZ40 KAWN 081240 RRH
SPECI CYPH 081237Z AUTO 24012KT 7SM OVC003 07/07 A2981=
SPECI DAUI 081145Z 07024KT 4000 DRSA NSC 45/07 Q1013=
SPECI KBKF 081237Z 36005KT 3/4SM BR BKN002 OVC004 13/13 A3033=
SPECI KIAB 081237Z AUTO 02008KT 10SM FEW007 22/22 A3010 RMK AO2 RAB1208E1223DZB1221E1222
      SLP182=
SPECI KLSF 081238Z AUTO 00000KT 10SM -DZ CLR 26/22 A3003 RMK AO2 DZB1238
      SLP169 $=
SPECI KTIK 081234Z AUTO 33004KT 10SM FEW006 SCT014 BKN030 23/23 A3006
      RMK AO2 FEW V SCT SLP167 $=
PASV SP 1235 AWOS CLR BLO 120 10 49/44/0000/995=
SPECI RJOF 081227Z 10005KT 9000 -SHRA FEW025 SCT040 BKN/// 25/22 Q1009
      RMK 1CU025 3CU040 A2980=
SPECI RJOF 081232Z 09005KT 9000 -SHRA FEW025 BKN040 BKN/// 25/22 Q1009
      RMK 1CU025 5CU040 A2980=
SPECI RJOH 081225Z 06004KT 8000 FEW015 BKN025 BKN100 24/22 Q1010 RMK
      1CU015 6CU025 7AC100 A2983=
SPECI RJSM 081224Z 10004KT 7000 FEW003 BKN040 18/17 Q1010 RMK 1ST003
      5SC040 A2984 WIND BY EQPT/10 VIS NW-N 5KM=
SPECI RKJK 081236Z 10006KT 3200 R36/0900V1000 HZ BKN110 24/22 A2979
      RMK AO2A DZE1156B1227E1236 SLP088 $=
####018000360####
SPUS17 KAWN 081240 RRF
SPECI KBKF 081237Z 36005KT 3/4SM BR BKN002 OVC004 13/13 A3033=
SPECI KFAF 081232Z 09005KT 10SM SCT019 27/26 A3000 RMK AO2A SLP160=
SPECI KIAB 081237Z AUTO 02008KT 10SM FEW007 22/22 A3010 RMK AO2 RAB1208E1223DZB1221E1222
      SLP182=
SPECI KLSF 081238Z AUTO 00000KT 10SM -DZ CLR 26/22 A3003 RMK AO2 DZB1238
      SLP169 $=
####018000115####
SAXX70 KAWN 081200 RRT
METAR KQFT 081230Z AUTO 15002KT 2SM -SHRA BR FEW031 BKN036 23/21 A2987
      RMK A02=
####018000176####
SAUS20 KNKA 081240
SPECI KUTS 081239Z AUTO 00000KT 6SM BR BKN007 24/23 A2999 RMK AO2 
    CIG 005V009=
METAR KVTI 081235Z AUTO 34003KT 10SM SCT005 21/20 A3008 RMK AO2=
####018002959####
SAUS20 KNKA 081240
METAR KAWG 081235Z AUTO 35008KT 10SM CLR 22/20 A3007 RMK AO2=
METAR KAXA 081235Z AUTO 34005KT 10SM CLR 19/17 A3014 RMK AO2=
METAR KBNW 081235Z AUTO 34009G17KT 10SM CLR 21/17 A3014 RMK AO2=
SPECI KBOK 081240Z AUTO 00000KT 1 1/4SM BR OVC002 09/09 A2997 RMK 
    AO2 $=
SPECI KBRO 081239Z 32007KT 10SM -RA SCT007 BKN014 BKN025 27/25 A2977 
    RMK AO2 RAB09 P0000=
METAR KBWD 081235Z AUTO 07003KT 10SM FEW120 24/23 A3004 RMK AO2 =
METAR KCAV 081235Z AUTO 34005KT 10SM CLR 20/18 A3013 RMK AO2=
METAR KCBF 081235Z AUTO 35006KT 10SM CLR 20/16 A3016 RMK AO2=
METAR KCCY 081235Z AUTO 35007KT 10SM CLR 20/17 A3011 RMK AO2=
METAR KCIN 081235Z AUTO 35004KT 10SM CLR 19/15 A3016 RMK AO2=
METAR KCNC 081235Z AUTO 01008KT 10SM CLR 21/18 A3010 RMK AO2=
METAR KCSQ 081235Z AUTO 02010KT 10SM CLR 22/20 A3013 RMK AO2=
METAR KDCM 081235Z AUTO 00000KT 4SM HZ CLR 26/23 A3003 RMK AO2 LTG 
     DSNT SE=
METAR KDEH 081235Z AUTO 34005KT 10SM CLR 22/18 A3011 RMK AO2=
METAR KDNS 081235Z AUTO 01003KT 10SM CLR 20/16 A3018 RMK AO2=
SPECI KDVN 081239Z AUTO 30006KT 5SM BR SCT006 OVC010 23/21 A3006 RMK 
    AO2 CIG 007V012=
METAR KEOK 081235Z AUTO 33003KT 7SM OVC005 23/19 A3006 RMK AO2=
METAR KFFL 081235Z AUTO 34007KT 10SM CLR 22/21 A3008 RMK AO2=
METAR KFSW 081235Z AUTO 32005KT 5SM OVC004 23/21 A3006 RMK AO2=
METAR KFXY 081235Z AUTO 32003KT 10SM CLR 18/16 A3013 RMK AO2=
METAR KGGI 081235Z AUTO 33004KT 10SM CLR 22/20 A3010 RMK AO2=
METAR KHNR 081235Z AUTO 36004KT 10SM CLR 18/17 A3018 RMK AO2=
METAR KI75 081235Z AUTO 35008KT 10SM CLR 20/18 A3010 RMK AO2=
METAR KICL 081235Z AUTO 01006KT 10SM CLR 21/18 A3012 RMK AO2=
METAR KIFA 081235Z AUTO 34008KT 10SM CLR 21/19 A3012 RMK AO2=
METAR KIIB 081235Z AUTO 33007KT 7SM CLR 20/20 A3008 RMK AO1=
METAR KIKV 081235Z AUTO 34004KT 10SM CLR 21/18 A3012 RMK AO2=
METAR KJZI 081235Z AUTO 29008KT 10SM CLR 27/24 A2997 RMK A02 P000 
     =
METAR KLRJ 081235Z AUTO 00000KT 10SM CLR 17/16 A3017 RMK AO2=
METAR KLUM 081236Z AUTO 31008KT 10SM CLR 20/16 A3008 RMK AO2=
SPECI KMHK 081239Z 01007KT 5SM BR BKN010 22/21 A3011 RMK AO2=
METAR KMPZ 081235Z AUTO 35005KT 10SM SCT006 OVC011 22/21 A3007 
     RMK AO2=
METAR KMUT 081235Z AUTO 34004KT 5SM SCT007 SCT012 23/22 A3005 RMK 
     AO2=
METAR KMXO 081235Z AUTO 00000KT 7SM SCT005 SCT019 21/20 A3006 RMK 
     AO2=
METAR KORC 081235Z AUTO 32004KT 10SM CLR 19/18 A3018 RMK AO2=
METAR KOXV 081235Z AUTO 36007KT 10SM CLR 22/20 A3010 RMK AO2=
METAR KPEA 081235Z AUTO 34006KT 10SM CLR 23/21 A3010 RMK AO2=
METAR KRDK 081235Z AUTO 00000KT 10SM CLR 22/18 A3013 RMK AO2=
SPECI KRVS 081239Z 00000KT 10SM BKN021 OVC075 23/22 A3004 RMK AO2=
METAR KSDA 081235Z AUTO 04005KT 10SM CLR 22/19 A3013 RMK AO2=
METAR KSHL 081235Z AUTO 00000KT 10SM CLR 17/17 A3019 RMK AO2=
METAR KSPF 081235Z AUTO 00000KT 10SM CLR 12/09 A3030 RMK AO2 =
METAR KTNU 081235Z AUTO 35005KT 10SM CLR 22/20 A3010 RMK AO2=
####018000102####
SPUS81 KWBC 081240
SPECI
KJLN 081237Z 00000KT 1/2SM VCTS FG BKN004 BKN010 OVC070 22/22
A3009=
####018000101####
SAUS46 KLOX 081240
MTR3A6
METAR K3A6 081330Z AUTO 36001KT 11/10 A2989 RMK AO1 SLP141 T01130103
####018000124####
SPCN47 CWAO 081240
SPECI CYTZ 081240Z AUTO 24003KT 6SM HZ CLR 22/20 A3002 RMK SLP165
 DENSITY ALT 1000FT RVR MISG=

####018000079####
SPCN44 CWAO 081239
SPECI CYED 081239Z AUTO 36012KT 9SM CLR 13/12 A3008=

####018000120####
SAUS44 KCRP 081240
MTRVCT
SPECI KVCT 081239Z 30003KT 6SM -RA BR FEW008 BKN031 OVC046 24/24 
A2989 RMK AO2 P0026
####018000120####
SAMH31 PKWA 081240
METAR PKWA 081240Z AUTO 15012KT 5SM RA BKN012 BKN016 OVC065 26/23 A2985 RMK AO2 P0002 T02590233=
####018002378####
SAUS99 KWBC 081241
METAR
KVTI 081235Z AUTO 34003KT 10SM SCT005 21/20 A3008 RMK AO2=
KAWG 081235Z AUTO 35008KT 10SM CLR 22/20 A3007 RMK AO2=
KAXA 081235Z AUTO 34005KT 10SM CLR 19/17 A3014 RMK AO2=
KBNW 081235Z AUTO 34009G17KT 10SM CLR 21/17 A3014 RMK AO2=
KBWD 081235Z AUTO 07003KT 10SM FEW120 24/23 A3004 RMK AO2=
KCAV 081235Z AUTO 34005KT 10SM CLR 20/18 A3013 RMK AO2=
KCBF 081235Z AUTO 35006KT 10SM CLR 20/16 A3016 RMK AO2=
KCCY 081235Z AUTO 35007KT 10SM CLR 20/17 A3011 RMK AO2=
KCIN 081235Z AUTO 35004KT 10SM CLR 19/15 A3016 RMK AO2=
KCNC 081235Z AUTO 01008KT 10SM CLR 21/18 A3010 RMK AO2=
KCSQ 081235Z AUTO 02010KT 10SM CLR 22/20 A3013 RMK AO2=
KDCM 081235Z AUTO 00000KT 4SM HZ CLR 26/23 A3003 RMK AO2 LTG DSNT
     SE=
KDEH 081235Z AUTO 34005KT 10SM CLR 22/18 A3011 RMK AO2=
KDNS 081235Z AUTO 01003KT 10SM CLR 20/16 A3018 RMK AO2=
KEOK 081235Z AUTO 33003KT 7SM OVC005 23/19 A3006 RMK AO2=
KFFL 081235Z AUTO 34007KT 10SM CLR 22/21 A3008 RMK AO2=
KFSW 081235Z AUTO 32005KT 5SM OVC004 23/21 A3006 RMK AO2=
KFXY 081235Z AUTO 32003KT 10SM CLR 18/16 A3013 RMK AO2=
KGGI 081235Z AUTO 33004KT 10SM CLR 22/20 A3010 RMK AO2=
KHNR 081235Z AUTO 36004KT 10SM CLR 18/17 A3018 RMK AO2=
KI75 081235Z AUTO 35008KT 10SM CLR 20/18 A3010 RMK AO2=
KICL 081235Z AUTO 01006KT 10SM CLR 21/18 A3012 RMK AO2=
KIFA 081235Z AUTO 34008KT 10SM CLR 21/19 A3012 RMK AO2=
KIIB 081235Z AUTO 33007KT 7SM CLR 20/20 A3008 RMK AO1=
KIKV 081235Z AUTO 34004KT 10SM CLR 21/18 A3012 RMK AO2=
KJZI 081235Z AUTO 29008KT 10SM CLR 27/24 A2997 RMK A02 P000=
KLRJ 081235Z AUTO 00000KT 10SM CLR 17/16 A3017 RMK AO2=
KLUM 081236Z AUTO 31008KT 10SM CLR 20/16 A3008 RMK AO2=
KMPZ 081235Z AUTO 35005KT 10SM SCT006 OVC011 22/21 A3007 RMK
     AO2=
KMUT 081235Z AUTO 34004KT 5SM SCT007 SCT012 23/22 A3005 RMK
     AO2=
KMXO 081235Z AUTO 00000KT 7SM SCT005 SCT019 21/20 A3006 RMK
     AO2=
KORC 081235Z AUTO 32004KT 10SM CLR 19/18 A3018 RMK AO2=
KOXV 081235Z AUTO 36007KT 10SM CLR 22/20 A3010 RMK AO2=
KPEA 081235Z AUTO 34006KT 10SM CLR 23/21 A3010 RMK AO2=
KRDK 081235Z AUTO 00000KT 10SM CLR 22/18 A3013 RMK AO2=
KSDA 081235Z AUTO 04005KT 10SM CLR 22/19 A3013 RMK AO2=
KSHL 081235Z AUTO 00000KT 10SM CLR 17/17 A3019 RMK AO2=
KSPF 081235Z AUTO 00000KT 10SM CLR 12/09 A3030 RMK AO2=
KTNU 081235Z AUTO 35005KT 10SM CLR 22/20 A3010 RMK AO2=
####018000490####
SPUS99 KWBC 081241
SPECI
KUTS 081239Z AUTO 00000KT 6SM BR BKN007 24/23 A2999 RMK AO2 CIG
     005V009=
KBOK 081240Z AUTO 00000KT 1 1/4SM BR OVC002 09/09 A2997 RMK AO2
     $=
KBRO 081239Z 32007KT 10SM -RA SCT007 BKN014 BKN025 27/25 A2977 RMK
     AO2 RAB09 P0000=
KDVN 081239Z AUTO 30006KT 5SM BR SCT006 OVC010 23/21 A3006 RMK AO2
     CIG 007V012=
KMHK 081239Z 01007KT 5SM BR BKN010 22/21 A3011 RMK AO2=
KRVS 081239Z 00000KT 10SM BKN021 OVC075 23/22 A3004 RMK AO2=
####018001162####
SAAU32 YBBN 081230
METAR YAMB 081230Z AUTO 19006KT 9999NDV // SCT100 13/10 Q1021=
METAR YMAV 081230Z AUTO 35004KT 9999NDV // OVC048 08/06 Q1028=
METAR YBRM 081230Z 09004KT 9999 SCT033 BKN069 23/22 Q1012=
METAR YCIN 081230Z AUTO 11007KT //// // ////// 23/18 Q1013=
METAR YSDU 081230Z AUTO 13006KT 9999NDV // ////// 07/04 Q1026=
METAR YFRT 081230Z NIL=
METAR YGEL 081230Z NIL=
METAR YPGV 081230Z 13007KT 9999 FEW013 BKN020 BKN350 24/22 Q1014=
METAR YBHM 081230Z NIL=
METAR YMHB 081230Z 31006KT CAVOK 03/01 Q1031=
METAR YPKG 081230Z AUTO 35011KT 9999NDV // BKN062 17/05 Q1004=
METAR YMLT 081230Z AUTO 21006KT 9000NDV // NCD 02/01 Q1031=
METAR YBMA 081230Z AUTO 00000KT 9999NDV // NCD 08/08 Q1020=
METAR YSNF 081230Z AUTO 11009KT 9999NDV // OVC033 15/10 Q1018=
METAR YPEA 081230Z NIL=
METAR YPPD 081230Z AUTO 03009KT 6000NDV // BKN013 BKN027 OVC041 21/21
Q1010=
METAR YSRI 081230Z AUTO 00000KT 9999NDV // BKN029 BKN044 OVC049 11/10
Q1028=
METAR YBRK 081230Z 22004KT 9999 FEW004 BKN028 13/12 Q1020=
METAR YWLM 081230Z AUTO 25007KT 9999NDV // ////// 11/10 Q1026=
METAR YPWR 081230Z AUTO 10004KT 9999NDV // NCD 07/01 Q1023=
####018001442####
SAAU31 YBBN 081230
METAR YPAD 081230Z 07004KT CAVOK 06/03 Q1026=
METAR YBAS 081230Z AUTO 06004KT 9999NDV // NCD 08/06 Q1020=
METAR YBBN 081230Z 20008KT 9999 FEW040 16/11 Q1021
NOSIG=
METAR YBCS 081230Z 16006KT 9999 FEW024 BKN040 23/19 Q1016=
METAR YSCB 081230Z AUTO 33002KT 9999NDV // SCT059 02/01 Q1028=
METAR YPXM 081230Z NIL=
METAR YPCC 081230Z AUTO 13011KT 9999NDV // SCT032 BKN038 OVC044 26/22
Q1014=
METAR YCFS 081230Z AUTO 23009KT 9999NDV // SCT036 BKN056 OVC077 14/10
Q1024=
METAR YPDN 081230Z 04007KT CAVOK 25/21 Q1013=
METAR YBCG 081230Z AUTO 19011KT 9999NDV // OVC100 14/12 Q1021=
METAR YHID 081230Z AUTO 15011KT 9999NDV // NCD 25/22 Q1013=
METAR YPJT 081230Z NIL=
METAR YPKU 081230Z AUTO 12007KT 9999NDV // NCD 23/15 Q1015=
METAR YPLM 081230Z AUTO 22007KT 9999NDV // BKN029 OVC056 21/16 Q1009=
METAR YMML 081230Z 35004KT 9999 FEW042 BKN240 04/04 Q1028
RMK HZ
FM1230 VRB03KT 5000 HZ SKC
FM1400 36005KT 2000 BR=
METAR YPPH 081230Z 36009KT 9000 -SHRA FEW012 SCT026 BKN062 14/13
Q0998
RMK WBD 0.5
INTER 1230/1530 27030G50KT 2000 TSGS BKN010 FEW030CB=
METAR YSSY 081230Z 24008KT 7000 -SHRA FEW008 SCT030 BKN045 11/11
Q1027
RMK VIS REDUCED TO EAST
FM1250 22010KT 9999 -SHRA SCT025 BKN040
INTER 1250/1530 5000 SHRA BKN010=
METAR YSTW 081230Z AUTO 13006KT 9999NDV // NCD 07/04 Q1024=
METAR YPTN 081230Z AUTO 14005KT 9999NDV // OVC051 23/17 Q1015=
METAR YBTL 081230Z NIL=
####018000106####
SAGB20 GBYD 081230

SPECI GBYD 081230Z 27003KT 9999 RETS SCT011 FEWCB018 BKN120 26/25
Q1013 CB S-NW=
####018000080####
SPAK32 KWBC 081241
SPECI
PASV SP 1235 AWOS CLR BLO 120 10 49/44/0000/995=
####018000363####
SAEE31 LOWM 081230
METAR UACK 081230Z 32005G08MPS CAVOK 19/01 Q1010 02010070 NOSIG RMK
QFE734=
METAR UACP 081230Z NIL=
METAR UAII 081230Z NIL=
METAR UADD 081230Z 03002MPS 020V120 9999 NSC 34/05 Q1012
NOSIG RMK QFE702/0937=
METAR UASK 081230Z 02002MPS 9999 FEW033 SCT100 23/11 Q1011
                   300/0060 NOSIG RMK QFE733=
METAR UASP 081230Z NIL=
####018000123####
SPJP43 KWBC 081241
SPECI
RJOF 081232Z 09005KT 9000 -SHRA FEW025 BKN040 BKN/// 25/22 Q1009
RMK 1CU025 5CU040 A2980=
####018000123####
SPJP43 KWBC 081241
SPECI
RJOF 081227Z 10005KT 9000 -SHRA FEW025 SCT040 BKN/// 25/22 Q1009
RMK 1CU025 3CU040 A2980=
####018000124####
SPJP43 KWBC 081241
SPECI
RJOH 081225Z 06004KT 8000 FEW015 BKN025 BKN100 24/22 Q1010 RMK
1CU015 6CU025 7AC100 A2983=
####018000139####
SPJP44 KWBC 081241
SPECI
RJSM 081224Z 10004KT 7000 FEW003 BKN040 18/17 Q1010 RMK 1ST003
5SC040 A2984 WIND BY EQPT/10 VIS NW-N 5KM=
####018000139####
SPXX62 KWBC 081241
SPECI
RJSM 081224Z 10004KT 7000 FEW003 BKN040 18/17 Q1010 RMK 1ST003
5SC040 A2984 WIND BY EQPT/10 VIS NW-N 5KM=
####018000132####
SPXX62 KWBC 081241
SPECI
RKJK 081236Z 10006KT 3200 R36/0900V1000 HZ BKN110 24/22 A2979 RMK
AO2A DZE1156B1227E1236 SLP088 $=
####018000090####
SPUS42 KWBC 081241
SPECI
KLRD 081237Z 03007KT 7SM FEW025 BKN031 BKN050 27/24 A2990=
####018000076####
SPCN31 CWAO 081239
SPECI CYZV 081239Z 00000KT 2SM BR OVC002 RMK ST8=

####018000097####
SPUS52 KWBC 081241
SPECI
KVCT 081239Z 30003KT 6SM -RA BR FEW008 BKN031 OVC046 24/24 A2989=
####018000086####
SPUS53 KWBC 081241
SPECI
KDBQ 081238Z 00000KT 5SM BR BKN005 BKN021 22/21 A3007=
####018001163####
SAAU32 YBBN 081230
METAR YAMB 081230Z AUTO 19006KT 9999NDV // SCT100 13/10 Q1021=
METAR YMAV 081230Z AUTO 35004KT 9999NDV // OVC048 08/06 Q1028=
METAR YBRM 081230Z 09004KT 9999 SCT033 BKN069 23/22 Q1012=
METAR YCIN 081230Z AUTO 11007KT //// // ////// 23/18 Q1013=
METAR YSDU 081230Z AUTO 13006KT 9999NDV // ////// 07/04 Q1026=
METAR YFRT 081230Z NIL=
METAR YGEL 081230Z NIL=
METAR YPGV 081230Z 13007KT 9999 FEW013 BKN020 BKN350 24/22 Q1014=
METAR YBHM 081230Z NIL=
METAR YMHB 081230Z 31006KT CAVOK 03/01 Q1031=
METAR YPKG 081230Z AUTO 35011KT 9999NDV // BKN062 17/05 Q1004=
METAR YMLT 081230Z AUTO 21006KT 9000NDV // NCD 02/01 Q1031=
METAR YBMA 081230Z AUTO 00000KT 9999NDV // NCD 08/08 Q1020=
METAR YSNF 081230Z AUTO 11009KT 9999NDV // OVC033 15/10 Q1018=
METAR YPEA 081230Z NIL=
METAR YPPD 081230Z AUTO 03009KT 6000NDV // BKN013 BKN027 OVC041 21/21
Q1010=
METAR YSRI 081230Z AUTO 00000KT 9999NDV // BKN029 BKN044 OVC049 11/10
Q1028=
METAR YBRK 081230Z 22004KT 9999 FEW004 BKN028 13/12 Q1020=
METAR YWLM 081230Z AUTO 25007KT 9999NDV // ////// 11/10 Q1026=
METAR YPWR 081230Z AUTO 10004KT 9999NDV // NCD 07/01 Q1023=
####018000372####
SAEE31 LOWM 081230
METAR UACK 081230Z 32005G08MPS CAVOK 19/01 Q1010 02010070 NOSIG RMK
QFE734=
METAR UACP 081230Z NIL=
METAR UAII 081230Z NIL=
METAR UADD 081230Z 03002MPS 020V120 9999 NSC 34/05 Q1012
NOSIG RMK QFE702/0937=
METAR UASK 081230Z 02002MPS 9999 FEW033 SCT100 23/11 Q1011
                   300/0060 NOSIG RMK QFE733=
METAR UASP 081230Z NIL=
####018001443####
SAAU31 YBBN 081230
METAR YPAD 081230Z 07004KT CAVOK 06/03 Q1026=
METAR YBAS 081230Z AUTO 06004KT 9999NDV // NCD 08/06 Q1020=
METAR YBBN 081230Z 20008KT 9999 FEW040 16/11 Q1021
NOSIG=
METAR YBCS 081230Z 16006KT 9999 FEW024 BKN040 23/19 Q1016=
METAR YSCB 081230Z AUTO 33002KT 9999NDV // SCT059 02/01 Q1028=
METAR YPXM 081230Z NIL=
METAR YPCC 081230Z AUTO 13011KT 9999NDV // SCT032 BKN038 OVC044 26/22
Q1014=
METAR YCFS 081230Z AUTO 23009KT 9999NDV // SCT036 BKN056 OVC077 14/10
Q1024=
METAR YPDN 081230Z 04007KT CAVOK 25/21 Q1013=
METAR YBCG 081230Z AUTO 19011KT 9999NDV // OVC100 14/12 Q1021=
METAR YHID 081230Z AUTO 15011KT 9999NDV // NCD 25/22 Q1013=
METAR YPJT 081230Z NIL=
METAR YPKU 081230Z AUTO 12007KT 9999NDV // NCD 23/15 Q1015=
METAR YPLM 081230Z AUTO 22007KT 9999NDV // BKN029 OVC056 21/16 Q1009=
METAR YMML 081230Z 35004KT 9999 FEW042 BKN240 04/04 Q1028
RMK HZ
FM1230 VRB03KT 5000 HZ SKC
FM1400 36005KT 2000 BR=
METAR YPPH 081230Z 36009KT 9000 -SHRA FEW012 SCT026 BKN062 14/13
Q0998
RMK WBD 0.5
INTER 1230/1530 27030G50KT 2000 TSGS BKN010 FEW030CB=
METAR YSSY 081230Z 24008KT 7000 -SHRA FEW008 SCT030 BKN045 11/11
Q1027
RMK VIS REDUCED TO EAST
FM1250 22010KT 9999 -SHRA SCT025 BKN040
INTER 1250/1530 5000 SHRA BKN010=
METAR YSTW 081230Z AUTO 13006KT 9999NDV // NCD 07/04 Q1024=
METAR YPTN 081230Z AUTO 14005KT 9999NDV // OVC051 23/17 Q1015=
METAR YBTL 081230Z NIL=
####018000306####
SAID32 WIII 081230
METAR WAMM 081230Z 17001KT 9999 FEW026 25/23 Q1011 NOSIG= 
METAR WIPT 081230Z 00000KT 7000 FEW020 27/24 Q1011= 
METAR WALL 081230Z 00000KT 8000 FEW020 26/24 Q1009 NOSIG= 
METAR WIBB NIL=
METAR WIKN NIL=
METAR WIOO NIL=
METAR WIPP NIL=
METAR WAOO NIL=
METAR WADA NIL=
####018000165####
SAID33 WIII 081230
METAR WABP NIL=
METAR WAJJ NIL=
METAR WAKK NIL=
METAR WAPP NIL=
METAR WARS NIL=
METAR WIAT NIL=
METAR WATT NIL=
METAR WALR NIL=
####018000427####
SAID31 WIII 081230
METAR WIMM 081230Z 05005KT 5000 FEW016CB SCT017 29/24 Q1009 NOSIG= 
METAR WARR 081230Z 28011KT 7000 FEW020CB SCT018 26/21 Q1010 NSG= 
METAR WIDD 081230Z 22004KT 9999 FEW017 27/24 Q1010= 
METAR WAAA 081230Z 13001KT 9999 FEW020 26/25 Q1011= 
METAR WIII 081230Z 24005KT 7000 SCT020 25/22 Q1011 NOSIG= 
METAR WADD 081230Z 00000KT 9999 FEW018 27/26 Q1010 NOSIG= 
METAR WIHH NIL=
METAR WABB NIL=
####018000090####
SPUS72 KWBC 081241
SPECI
KLRD 081237Z 03007KT 7SM FEW025 BKN031 BKN050 27/24 A2990=
####018000089####
SPUS72 KWBC 081241
SPECI
KTCC 081238Z AUTO 04006KT 10SM FEW018 OVC075 18/16 A3025=
####018000097####
SPUS72 KWBC 081241
SPECI
KVCT 081239Z 30003KT 6SM -RA BR FEW008 BKN031 OVC046 24/24 A2989=
####018000088####
SPUS73 KWBC 081241
SPECI
KBKF 081237Z 36005KT 3/4SM BR BKN002 OVC004 13/13 A3033=
####018000086####
SPUS81 KWBC 081241
SPECI
KDBQ 081238Z 00000KT 5SM BR BKN005 BKN021 22/21 A3007=
####018000097####
SPUS81 KWBC 081241
SPECI
KVCT 081239Z 30003KT 6SM -RA BR FEW008 BKN031 OVC046 24/24 A2989=
####018000075####
SPCN44 CWAO 081240
SPECI CYUS 081240Z AUTO ///// 9SM CLR 13/ A2979=

####018001754####
SAEW KAWN 081200 RRN
METAR EBLH 081225Z 26008KT 9999 FEW250 31/11 Q1020 BLU BLU=
METAR LFBC 081230Z AUTO 11010KT 070V150 9999NDV NSC 37/10 Q1015=
METAR LFBF 081230Z AUTO 13009KT 090V180 9999NDV // NSC 34/16 Q1018=
METAR LFBG 081230Z AUTO 16008KT 130V200 9999NDV NSC 34/11 Q1017=
METAR LFBM 081230Z AUTO 10010KT 080V140 9999NDV NSC 36/18 Q1015=
METAR LFGJ 081230Z AUTO 19006KT 120V240 9999NDV NSC 31/11 Q1020=
METAR LFKS 081230Z AUTO 11006KT 060V150 9999NDV NSC 30/22 Q1020=
METAR LFLN 081230Z AUTO 16005KT 090V210 9999NDV NSC 31/13 Q1019=
METAR LFMD 081230Z AUTO 18006KT 120V210 9999NDV NSC 29/23 Q1020=
METAR LFMO 081230Z AUTO 20006KT 160V260 9999NDV NSC 34/12 Q1019=
METAR LFMY 081230Z 20005KT 140V260 CAVOK 34/16 Q1020=
METAR LFOA 081230Z AUTO VRB01KT 9999NDV NSC 32/13 Q1019=
METAR LFOC 081230Z AUTO 19006KT 130V250 9999NDV NSC 32/09 Q1018=
METAR LFOT 081230Z AUTO VRB02KT 9999NDV NSC 32/11 Q1018=
METAR LFPC 081230Z 14008KT 070V190 CAVOK 30/11 Q1018=
METAR LFPM 081230Z VRB03KT CAVOK 31/11 Q1018=
METAR LFPV 081230Z AUTO 18006KT 140V240 9999NDV NSC 30/10 Q1019=
METAR LFQI 081230Z 22008KT 180V270 CAVOK 30/12 Q1018=
METAR LFRC 081230Z AUTO 01007KT 340V070 9999NDV SCT019 SCT027 21/16
      Q1020=
METAR LFRJ 081230Z AUTO 34006KT 290V020 9999NDV FEW029/// 23/17 Q1019=
METAR LFSD 081230Z AUTO VRB04KT 9999NDV NSC 31/11 Q1020=
METAR LFSF 081230Z AUTO VRB02KT 9999NDV NSC 31/10 Q1019=
METAR LFSI 081230Z AUTO 04003KT 310V100 9999NDV NSC 32/09 Q1019=
METAR LFSO 081230Z AUTO 24005KT 160V320 9999NDV NSC 31/11 Q1020=
METAR LFSR 081230Z AUTO VRB04KT 9999NDV NSC 32/11 Q1019=
METAR LFSX 081230Z AUTO 23003KT 150V300 9999NDV NSC 31/12 Q1020=
METAR LFTW 081230Z AUTO VRB06KT 9999NDV NSC 32/15 Q1020=
####018000182####
SPUS90 KWBC 081242
SPECI KVCT 081239Z 30003KT 6SM -RA BR FEW008 BKN031 OVC046 24/24
     A2989 RMK AO2 P0026=
SPECI KDNK 081240Z AUTO 08004KT 7SM FEW005 25/23 A3004 RMK AO2=
####018000100####
SAUS90 KWBC 081242
METAR K3A6 081330Z AUTO 36001KT 11/10 A2989 RMK AO1 SLP141
     T01130103=
####018002930####
SAUS20 KNKA 081241
METAR K4I3 081236Z AUTO 00000KT 7SM CLR 24/20 A3010 RMK AO2=
METAR KACB 081235Z AUTO 00000KT 7SM DZ BKN014 BKN030 OVC090 23/22
     A3000 RMK AO2=
METAR KACQ 081239Z AUTO 32006KT 10SM CLR 17/16 A3015 RMK AO2=
METAR KADC 081237Z AUTO 26005KT 10SM CLR 16/14 A3010 RMK AO2=
SPECI KALI 081240Z AUTO 02008KT 10SM SCT004 BKN015 25/25 A2985 RMK 
    AO2=
METAR KAMN 081236Z AUTO 00000KT 5SM BR SCT085 23/22 A3002 RMK
     AO2=
METAR KAQP 081234Z AUTO 26003KT 10SM CLR 17/17 A3011 RMK AO2=
SPECI KARR 081240Z 28003KT 2 1/2SM BR FEW016 BKN023 OVC040 23/22 
    A3005 RMK AO2 $=
METAR KAUM 081235Z AUTO 34008KT 10SM CLR 19/17 A3011 RMK AO2=
METAR KBAX 081235Z AUTO 25005KT 10SM CLR 26/23 A3001 RMK AO2=
METAR KBDH 081235Z AUTO 00000KT 10SM CLR 17/16 A3013 RMK AO2=
METAR KBFW 081233Z AUTO 30003KT 10SM CLR 21/15 A3002 RMK AO2=
METAR KCAD 081234Z AUTO 24007KT 5SM -RA OVC080 22/21 A3005 RMK
     AO2=
METAR KCBG 081235Z AUTO 26004KT 10SM CLR 18/16 A3010 RMK AO2=
METAR KCDA 081235Z AUTO 00000KT 7SM CLR 25/20 A3010 RMK AO2=
METAR KCDD 081231Z AUTO 23003KT 10SM CLR 19/18 A3003 RMK AO2=
METAR KCFE 081235Z AUTO 25005KT 10SM CLR 19/16 A3012 RMK AO2
     T01910160=
METAR KCFS 081235Z AUTO 00000KT 10SM CLR 25/22 A3002 RMK AO2=
METAR KCKC 081235Z AUTO 26003KT 10SM CLR 19/14 A3004 RMK AO2=
METAR KCKN 081235Z AUTO 24003KT 10SM CLR 16/14 A3007 RMK AO2=
METAR KCNB 081238Z AUTO 25008KT 10SM CLR 19/14 A3014 RMK AO2
     T01900141=
METAR KCOQ 081236Z AUTO 27006KT 10SM CLR 18/18 A3007 RMK AO2=
METAR KCQM 081237Z AUTO 25005KT 10SM CLR 17/15 A3004 RMK AO2=
METAR KCVX 081235Z AUTO 25008KT 5SM -RA SCT006 BKN010 OVC017 21/20
     A3002 RMK AO2=
METAR KDRM 081236Z AUTO 21003KT 4SM -RA OVC010 21/21 A2998 RMK
     AO2=
METAR KDTL 081235Z AUTO 00000KT 10SM CLR 18/13 A3011 RMK AO2=
METAR KDUH 081235Z AUTO 00000KT 10SM CLR 27/19 A3004 RMK AO2=
METAR KDVP 081236Z AUTO 28004KT 10SM CLR 18/14 A3018 RMK AO2
     T01760140=
METAR KERY 081235Z AUTO 34005KT 5SM BR OVC003 18/17 A3001 RMK
     AO2=
METAR KETH 081234Z AUTO 24005KT 10SM CLR 19/16 A3010 RMK AO2=
METAR KFFX 081235Z AUTO 00000KT 1 3/4SM BR OVC002 22/22 A3002 RMK
     AO2=
METAR KFKA 081243Z AUTO 35007KT 10SM CLR 19/18 A3011 RMK AO2
     T01930176=
METAR KFKS 081235Z AUTO 23004KT 3SM RA OVC004 21/20 A3001 RMK
     AO2=
METAR KFOZ 081233Z AUTO 24004KT 10SM CLR 16/15 A3005 RMK AO2=
METAR KFPK 081236Z AUTO 15003KT 7SM CLR 24/21 A3004 RMK AO2=
METAR KFSE 081234Z AUTO 23003KT 10SM CLR 14/13 A3006 RMK AO2=
METAR KGOV 081235Z AUTO 00000KT 7SM RA SCT030 BKN050 OVC070 22/22
     A3003 RMK AO2=
METAR KHAF 081230Z AUTO 33004KT 7SM OVC006 12/10 A2993 RMK AO2=
METAR KHAI 081235Z AUTO 00000KT 10SM CLR 25/22 A3005 RMK AO2=
METAR KHYX 081235Z AUTO 00000KT 10SM SCT085 BKN120 25/21 A3001 RMK
     AO2=
METAR KIRS 081235Z AUTO 00000KT 10SM CLR 26/22 A3005 RMK AO2=
####018002334####
SAUS20 KNKA 081241
METAR KISQ 081235Z AUTO 34004KT 10SM BKN004 OVC065 19/18 A2999 RMK
     AO2=
SPECI KISW 081240Z AUTO 30006KT 10SM BKN007 21/19 A3006 RMK AO2 TSNO=
METAR KJYG 081235Z AUTO 26003KT 10SM CLR 19/19 A3016 RMK AO2=
METAR KJYM 081235Z AUTO 00000KT 5SM HZ CLR 25/21 A3007 RMK AO2=
METAR KLDM 081236Z AUTO 20003KT 4SM +RA OVC005 21/20 A3002 RMK AO2
     P0003=
METAR KLWA 081236Z AUTO 10003KT 10SM SCT048 SCT070 OVC085 23/21
     A3002 RMK AO2=
METAR KMCD 081236Z AUTO 25003KT 2SM HZ OVC003 21/18 A3000 RMK
     AO2=
METAR KMGN 081235Z AUTO 27005KT 4SM -RA OVC010 21/20 A3000 RMK
     AO2=
METAR KMOP 081234Z AUTO 26005KT 10SM OVC110 23/23 A3003 RMK
     AO2=
METAR KMZH 081231Z AUTO 27004KT 10SM CLR 17/16 A3006 RMK AO2=
SPECI KNEW 081240Z AUTO 06010KT 10SM FEW006 28/26 A3004 RMK AO2 TSNO=
METAR KOEB 081235Z AUTO 00000KT 7SM CLR 26/22 A3006 RMK AO2=
METAR KONZ 081237Z AUTO 00000KT 10SM CLR 28/22 A3002 RMK AO2=
METAR KORB 081234Z AUTO 00000KT 10SM CLR 16/14 A3001 RMK AO2=
METAR KOSC 081234Z AUTO 20004KT 7SM SCT075 BKN090 23/21 A2999 RMK
     AO2=
METAR KOWA 081234Z AUTO 33004KT 10SM CLR 18/17 A3012 RMK AO2=
METAR KOZW 081235Z AUTO 00000KT 10SM SCT050 SCT070 26/21 A3005 RMK
     AO2=
METAR KPHN 081236Z AUTO 18004KT 10SM CLR 26/21 A3002 RMK AO2=
METAR KPZQ 081235Z AUTO 25004KT 10SM -RA OVC090 23/21 A3000 RMK
     AO2=
METAR KRGK 081235Z AUTO 28005KT 10SM CLR 20/17 A3010 RMK AO2=
METAR KRMY 081235Z AUTO 00000KT 10SM CLR 24/21 A3005 RMK AO2=
METAR KRNP 081235Z AUTO 17003KT 10SM CLR 26/21 A3003 RMK AO2=
METAR KRQB 081234Z AUTO 18003KT 4SM DZ SCT028 BKN040 OVC065 22/21
     A3004 RMK AO2=
METAR KSJX 081236Z AUTO 24007KT 1/4SM FG OVC002 19/18 A2999 RMK
     AO2=
METAR KSLH 081235Z AUTO 25006KT 5SM RA BKN009 OVC029 22/21 A2999
     RMK AO2=
METAR KTTF 081234Z AUTO 00000KT 10SM CLR 27/22 A3002 RMK AO2=
METAR KUKT 081230Z AUTO 00000KT 7SM CLR 26/22 A3006 RMK AO1=
METAR KVLL 081234Z AUTO 24004KT 10SM CLR 28/20 A3005 RMK AO2=
METAR KVWU 081231Z AUTO 27008KT 10SM CLR 19/14 A3004 RMK AO2=
METAR KXVG 081236Z AUTO 27003KT 10SM CLR 17/16 A3006 RMK AO2=
SPECI KY50 081238Z AUTO 32003KT 6SM BR OVC007 22/22 A3003 RMK AO2 
    CIG 004V011 $=
METAR KY70 081235Z AUTO 00000KT 5SM BR SCT005 24/22 A3003 RMK AO2
     T02410222=
####018000095####
SAUS44 KSHV 081241
MTRDNK
SPECI KDNK 081240Z AUTO 08004KT 7SM FEW005 25/23 A3004 RMK AO2
####018003721####
SAUS99 KWBC 081242
METAR
KISQ 081235Z AUTO 34004KT 10SM BKN004 OVC065 19/18 A2999 RMK
     AO2=
KJYG 081235Z AUTO 26003KT 10SM CLR 19/19 A3016 RMK AO2=
KJYM 081235Z AUTO 00000KT 5SM HZ CLR 25/21 A3007 RMK AO2=
KLDM 081236Z AUTO 20003KT 4SM +RA OVC005 21/20 A3002 RMK AO2
     P0003=
KLWA 081236Z AUTO 10003KT 10SM SCT048 SCT070 OVC085 23/21 A3002
     RMK AO2=
KMCD 081236Z AUTO 25003KT 2SM HZ OVC003 21/18 A3000 RMK AO2=
KMGN 081235Z AUTO 27005KT 4SM -RA OVC010 21/20 A3000 RMK AO2=
KMOP 081234Z AUTO 26005KT 10SM OVC110 23/23 A3003 RMK AO2=
KMZH 081231Z AUTO 27004KT 10SM CLR 17/16 A3006 RMK AO2=
KOEB 081235Z AUTO 00000KT 7SM CLR 26/22 A3006 RMK AO2=
KONZ 081237Z AUTO 00000KT 10SM CLR 28/22 A3002 RMK AO2=
KORB 081234Z AUTO 00000KT 10SM CLR 16/14 A3001 RMK AO2=
KOSC 081234Z AUTO 20004KT 7SM SCT075 BKN090 23/21 A2999 RMK
     AO2=
KOWA 081234Z AUTO 33004KT 10SM CLR 18/17 A3012 RMK AO2=
KOZW 081235Z AUTO 00000KT 10SM SCT050 SCT070 26/21 A3005 RMK
     AO2=
KPHN 081236Z AUTO 18004KT 10SM CLR 26/21 A3002 RMK AO2=
KPZQ 081235Z AUTO 25004KT 10SM -RA OVC090 23/21 A3000 RMK AO2=
KRGK 081235Z AUTO 28005KT 10SM CLR 20/17 A3010 RMK AO2=
KRMY 081235Z AUTO 00000KT 10SM CLR 24/21 A3005 RMK AO2=
KRNP 081235Z AUTO 17003KT 10SM CLR 26/21 A3003 RMK AO2=
KRQB 081234Z AUTO 18003KT 4SM DZ SCT028 BKN040 OVC065 22/21 A3004
     RMK AO2=
KSJX 081236Z AUTO 24007KT 1/4SM FG OVC002 19/18 A2999 RMK AO2=
KSLH 081235Z AUTO 25006KT 5SM RA BKN009 OVC029 22/21 A2999 RMK
     AO2=
KTTF 081234Z AUTO 00000KT 10SM CLR 27/22 A3002 RMK AO2=
KUKT 081230Z AUTO 00000KT 7SM CLR 26/22 A3006 RMK AO1=
KVLL 081234Z AUTO 24004KT 10SM CLR 28/20 A3005 RMK AO2=
KVWU 081231Z AUTO 27008KT 10SM CLR 19/14 A3004 RMK AO2=
KXVG 081236Z AUTO 27003KT 10SM CLR 17/16 A3006 RMK AO2=
KY70 081235Z AUTO 00000KT 5SM BR SCT005 24/22 A3003 RMK AO2
     T02410222=
K4I3 081236Z AUTO 00000KT 7SM CLR 24/20 A3010 RMK AO2=
KACB 081235Z AUTO 00000KT 7SM DZ BKN014 BKN030 OVC090 23/22 A3000
     RMK AO2=
KACQ 081239Z AUTO 32006KT 10SM CLR 17/16 A3015 RMK AO2=
KADC 081237Z AUTO 26005KT 10SM CLR 16/14 A3010 RMK AO2=
KAMN 081236Z AUTO 00000KT 5SM BR SCT085 23/22 A3002 RMK AO2=
KAQP 081234Z AUTO 26003KT 10SM CLR 17/17 A3011 RMK AO2=
KAUM 081235Z AUTO 34008KT 10SM CLR 19/17 A3011 RMK AO2=
KBAX 081235Z AUTO 25005KT 10SM CLR 26/23 A3001 RMK AO2=
KBDH 081235Z AUTO 00000KT 10SM CLR 17/16 A3013 RMK AO2=
KBFW 081233Z AUTO 30003KT 10SM CLR 21/15 A3002 RMK AO2=
KCAD 081234Z AUTO 24007KT 5SM -RA OVC080 22/21 A3005 RMK AO2=
KCBG 081235Z AUTO 26004KT 10SM CLR 18/16 A3010 RMK AO2=
KCDA 081235Z AUTO 00000KT 7SM CLR 25/20 A3010 RMK AO2=
KCDD 081231Z AUTO 23003KT 10SM CLR 19/18 A3003 RMK AO2=
KCFE 081235Z AUTO 25005KT 10SM CLR 19/16 A3012 RMK AO2
     T01910160=
KCFS 081235Z AUTO 00000KT 10SM CLR 25/22 A3002 RMK AO2=
KCKC 081235Z AUTO 26003KT 10SM CLR 19/14 A3004 RMK AO2=
KCKN 081235Z AUTO 24003KT 10SM CLR 16/14 A3007 RMK AO2=
KCNB 081238Z AUTO 25008KT 10SM CLR 19/14 A3014 RMK AO2
     T01900141=
KCOQ 081236Z AUTO 27006KT 10SM CLR 18/18 A3007 RMK AO2=
KCQM 081237Z AUTO 25005KT 10SM CLR 17/15 A3004 RMK AO2=
KCVX 081235Z AUTO 25008KT 5SM -RA SCT006 BKN010 OVC017 21/20 A3002
     RMK AO2=
KDRM 081236Z AUTO 21003KT 4SM -RA OVC010 21/21 A2998 RMK AO2=
KDTL 081235Z AUTO 00000KT 10SM CLR 18/13 A3011 RMK AO2=
KDUH 081235Z AUTO 00000KT 10SM CLR 27/19 A3004 RMK AO2=
KDVP 081236Z AUTO 28004KT 10SM CLR 18/14 A3018 RMK AO2
     T01760140=
KERY 081235Z AUTO 34005KT 5SM BR OVC003 18/17 A3001 RMK AO2=
KETH 081234Z AUTO 24005KT 10SM CLR 19/16 A3010 RMK AO2=
KFFX 081235Z AUTO 00000KT 1 3/4SM BR OVC002 22/22 A3002 RMK
     AO2=
####018000405####
SPUS99 KWBC 081242
SPECI
KISW 081240Z AUTO 30006KT 10SM BKN007 21/19 A3006 RMK AO2 TSNO=
KNEW 081240Z AUTO 06010KT 10SM FEW006 28/26 A3004 RMK AO2 TSNO=
KY50 081238Z AUTO 32003KT 6SM BR OVC007 22/22 A3003 RMK AO2 CIG
     004V011 $=
KALI 081240Z AUTO 02008KT 10SM SCT004 BKN015 25/25 A2985 RMK
     AO2=
KARR 081240Z 28003KT 2 1/2SM BR FEW016 BKN023 OVC040 23/22 A3005
     RMK AO2 $=
####018000679####
SAUS99 KWBC 081242 RRA
METAR
KFKA 081243Z AUTO 35007KT 10SM CLR 19/18 A3011 RMK AO2
     T01930176=
KFKS 081235Z AUTO 23004KT 3SM RA OVC004 21/20 A3001 RMK AO2=
KFOZ 081233Z AUTO 24004KT 10SM CLR 16/15 A3005 RMK AO2=
KFPK 081236Z AUTO 15003KT 7SM CLR 24/21 A3004 RMK AO2=
KFSE 081234Z AUTO 23003KT 10SM CLR 14/13 A3006 RMK AO2=
KGOV 081235Z AUTO 00000KT 7SM RA SCT030 BKN050 OVC070 22/22 A3003
     RMK AO2=
KHAF 081230Z AUTO 33004KT 7SM OVC006 12/10 A2993 RMK AO2=
KHAI 081235Z AUTO 00000KT 10SM CLR 25/22 A3005 RMK AO2=
KHYX 081235Z AUTO 00000KT 10SM SCT085 BKN120 25/21 A3001 RMK
     AO2=
KIRS 081235Z AUTO 00000KT 10SM CLR 26/22 A3005 RMK AO2=
####018000489####
SAPO61 LPAM 081200
METAR LPAR 081200Z /////KT CAVOK 29/19 Q1015 RMK ESTMD WND 18009KT=
METAR LPBJ 081200Z 25007KT 220V280 CAVOK 30/17 Q1016=
METAR LPMR 081200Z 27008KT 7000 BKN007 SCT016 20/18 Q1016=
METAR LPMT 081200Z 20010KT CAVOK 26/18 Q1016=
METAR LPOV 081200Z 25005KT 6000 SCT007 BKN016 21/19 Q1015=
METAR COR LPOV 081200Z 25005KT 6000 SCT007 BKN016 21/19 Q1015=
METAR LPST 081200Z 30008KT 9999 BKN009 21/18 Q1016=
METAR LPLA 081200Z 12007KT 9999 SCT013 BKN028 20/19 Q1024=
####018000105####
SARA34 RUMS 081200 RRA
METAR UNBB 081200Z 17002MPS 9999 -SHRA BKN035CB 14/10 Q1010 NOSIG RMK
QFE735=
####018000419####
SAID31 WIII 081230
METAR WIMM 081230Z 05005KT 5000 FEW016CB SCT017 29/24 Q1009 NOSIG= 
METAR WARR 081230Z 28011KT 7000 FEW020CB SCT018 26/21 Q1010 NSG= 
METAR WIDD 081230Z 22004KT 9999 FEW017 27/24 Q1010= 
METAR WAAA 081230Z 13001KT 9999 FEW020 26/25 Q1011= 
METAR WIII 081230Z 24005KT 7000 SCT020 25/22 Q1011 NOSIG= 
METAR WADD 081230Z 00000KT 9999 FEW018 27/26 Q1010 NOSIG= 
METAR WIHH NIL=
METAR WABB NIL=
####018000099####
SARA34 RUMS 081130 RRA
METAR UNBB 081130Z 13006MPS 9999 BKN020CB 15/08 Q1010 NOSIG RMK
QFE735=
####018000104####
SARA34 RUMS 081230 RRA
METAR UNBB 081230Z 15003MPS 9999 SCT100 BKN040 14/10 Q1010 NOSIG RMK
QFE735=
####018000808####
SPUS70 KWBC 081242
SPECI
KUTS 081239Z AUTO 00000KT 6SM BR BKN007 24/23 A2999 RMK AO2 CIG
     005V009=
KBOK 081240Z AUTO 00000KT 1 1/4SM BR OVC002 09/09 A2997 RMK AO2
     $=
KBRO 081239Z 32007KT 10SM -RA SCT007 BKN014 BKN025 27/25 A2977 RMK
     AO2 RAB09 P0000=
KDVN 081239Z AUTO 30006KT 5SM BR SCT006 OVC010 23/21 A3006 RMK AO2
     CIG 007V012=
KRVS 081239Z 00000KT 10SM BKN021 OVC075 23/22 A3004 RMK AO2=
KISW 081240Z AUTO 30006KT 10SM BKN007 21/19 A3006 RMK AO2 TSNO=
KNEW 081240Z AUTO 06010KT 10SM FEW006 28/26 A3004 RMK AO2 TSNO=
KY50 081238Z AUTO 32003KT 6SM BR OVC007 22/22 A3003 RMK AO2 CIG
     004V011 $=
KALI 081240Z AUTO 02008KT 10SM SCT004 BKN015 25/25 A2985 RMK
     AO2=
KARR 081240Z 28003KT 2 1/2SM BR FEW016 BKN023 OVC040 23/22 A3005
     RMK AO2 $=
####018000486####
SPXX60 KWBC 081242
SPECI
KBKF 081237Z 36005KT 3/4SM BR BKN002 OVC004 13/13 A3033=
KIAB 081237Z AUTO 02008KT 10SM FEW007 22/22 A3010 RMK AO2
     RAB1208E1223DZB1221E1222 SLP182=
KLSF 081238Z AUTO 00000KT 10SM -DZ CLR 26/22 A3003 RMK AO2 DZB1238
     SLP169 $=
KTIK 081234Z AUTO 33004KT 10SM FEW006 SCT014 BKN030 23/23 A3006
     RMK AO2 FEW V SCT SLP167 $=
PASV SP 1235 AWOS CLR BLO 120 10 49/44/0000/995=
KDNK 081240Z AUTO 08004KT 7SM FEW005 25/23 A3004 RMK AO2=
####018000176####
SPUS80 KWBC 081242
SPECI
KMHK 081239Z 01007KT 5SM BR BKN010 22/21 A3011 RMK AO2=
KVCT 081239Z 30003KT 6SM -RA BR FEW008 BKN031 OVC046 24/24 A2989
     RMK AO2 P0026=
####018003695####
SAUS70 KWBC 081242
METAR
KAWG 081235Z AUTO 35008KT 10SM CLR 22/20 A3007 RMK AO2=
KAXA 081235Z AUTO 34005KT 10SM CLR 19/17 A3014 RMK AO2=
KBNW 081235Z AUTO 34009G17KT 10SM CLR 21/17 A3014 RMK AO2=
KBWD 081235Z AUTO 07003KT 10SM FEW120 24/23 A3004 RMK AO2=
KCAV 081235Z AUTO 34005KT 10SM CLR 20/18 A3013 RMK AO2=
KCBF 081235Z AUTO 35006KT 10SM CLR 20/16 A3016 RMK AO2=
KCCY 081235Z AUTO 35007KT 10SM CLR 20/17 A3011 RMK AO2=
KCIN 081235Z AUTO 35004KT 10SM CLR 19/15 A3016 RMK AO2=
KCNC 081235Z AUTO 01008KT 10SM CLR 21/18 A3010 RMK AO2=
KCSQ 081235Z AUTO 02010KT 10SM CLR 22/20 A3013 RMK AO2=
KDCM 081235Z AUTO 00000KT 4SM HZ CLR 26/23 A3003 RMK AO2 LTG DSNT
     SE=
KDEH 081235Z AUTO 34005KT 10SM CLR 22/18 A3011 RMK AO2=
KDNS 081235Z AUTO 01003KT 10SM CLR 20/16 A3018 RMK AO2=
KEOK 081235Z AUTO 33003KT 7SM OVC005 23/19 A3006 RMK AO2=
KFFL 081235Z AUTO 34007KT 10SM CLR 22/21 A3008 RMK AO2=
KFSW 081235Z AUTO 32005KT 5SM OVC004 23/21 A3006 RMK AO2=
KFXY 081235Z AUTO 32003KT 10SM CLR 18/16 A3013 RMK AO2=
KGGI 081235Z AUTO 33004KT 10SM CLR 22/20 A3010 RMK AO2=
KHNR 081235Z AUTO 36004KT 10SM CLR 18/17 A3018 RMK AO2=
KICL 081235Z AUTO 01006KT 10SM CLR 21/18 A3012 RMK AO2=
KIFA 081235Z AUTO 34008KT 10SM CLR 21/19 A3012 RMK AO2=
KIIB 081235Z AUTO 33007KT 7SM CLR 20/20 A3008 RMK AO1=
KIKV 081235Z AUTO 34004KT 10SM CLR 21/18 A3012 RMK AO2=
KJZI 081235Z AUTO 29008KT 10SM CLR 27/24 A2997 RMK A02 P000=
KLRJ 081235Z AUTO 00000KT 10SM CLR 17/16 A3017 RMK AO2=
KLUM 081236Z AUTO 31008KT 10SM CLR 20/16 A3008 RMK AO2=
KMPZ 081235Z AUTO 35005KT 10SM SCT006 OVC011 22/21 A3007 RMK
     AO2=
KMUT 081235Z AUTO 34004KT 5SM SCT007 SCT012 23/22 A3005 RMK
     AO2=
KMXO 081235Z AUTO 00000KT 7SM SCT005 SCT019 21/20 A3006 RMK
     AO2=
KORC 081235Z AUTO 32004KT 10SM CLR 19/18 A3018 RMK AO2=
KOXV 081235Z AUTO 36007KT 10SM CLR 22/20 A3010 RMK AO2=
KPEA 081235Z AUTO 34006KT 10SM CLR 23/21 A3010 RMK AO2=
KRDK 081235Z AUTO 00000KT 10SM CLR 22/18 A3013 RMK AO2=
KSDA 081235Z AUTO 04005KT 10SM CLR 22/19 A3013 RMK AO2=
KSHL 081235Z AUTO 00000KT 10SM CLR 17/17 A3019 RMK AO2=
KSPF 081235Z AUTO 00000KT 10SM CLR 12/09 A3030 RMK AO2=
KTNU 081235Z AUTO 35005KT 10SM CLR 22/20 A3010 RMK AO2=
KISQ 081235Z AUTO 34004KT 10SM BKN004 OVC065 19/18 A2999 RMK
     AO2=
KJYG 081235Z AUTO 26003KT 10SM CLR 19/19 A3016 RMK AO2=
KJYM 081235Z AUTO 00000KT 5SM HZ CLR 25/21 A3007 RMK AO2=
KLDM 081236Z AUTO 20003KT 4SM +RA OVC005 21/20 A3002 RMK AO2
     P0003=
KLWA 081236Z AUTO 10003KT 10SM SCT048 SCT070 OVC085 23/21 A3002
     RMK AO2=
KMCD 081236Z AUTO 25003KT 2SM HZ OVC003 21/18 A3000 RMK AO2=
KMGN 081235Z AUTO 27005KT 4SM -RA OVC010 21/20 A3000 RMK AO2=
KMOP 081234Z AUTO 26005KT 10SM OVC110 23/23 A3003 RMK AO2=
KMZH 081231Z AUTO 27004KT 10SM CLR 17/16 A3006 RMK AO2=
KOEB 081235Z AUTO 00000KT 7SM CLR 26/22 A3006 RMK AO2=
KONZ 081237Z AUTO 00000KT 10SM CLR 28/22 A3002 RMK AO2=
KORB 081234Z AUTO 00000KT 10SM CLR 16/14 A3001 RMK AO2=
KOSC 081234Z AUTO 20004KT 7SM SCT075 BKN090 23/21 A2999 RMK
     AO2=
KOWA 081234Z AUTO 33004KT 10SM CLR 18/17 A3012 RMK AO2=
KOZW 081235Z AUTO 00000KT 10SM SCT050 SCT070 26/21 A3005 RMK
     AO2=
KPHN 081236Z AUTO 18004KT 10SM CLR 26/21 A3002 RMK AO2=
KRGK 081235Z AUTO 28005KT 10SM CLR 20/17 A3010 RMK AO2=
KRMY 081235Z AUTO 00000KT 10SM CLR 24/21 A3005 RMK AO2=
KRNP 081235Z AUTO 17003KT 10SM CLR 26/21 A3003 RMK AO2=
KRQB 081234Z AUTO 18003KT 4SM DZ SCT028 BKN040 OVC065 22/21 A3004
     RMK AO2=
KSJX 081236Z AUTO 24007KT 1/4SM FG OVC002 19/18 A2999 RMK AO2=
KSLH 081235Z AUTO 25006KT 5SM RA BKN009 OVC029 22/21 A2999 RMK
     AO2=
####018002870####
SAUS70 KWBC 081242 RRA
METAR
KTTF 081234Z AUTO 00000KT 10SM CLR 27/22 A3002 RMK AO2=
KUKT 081230Z AUTO 00000KT 7SM CLR 26/22 A3006 RMK AO1=
KVLL 081234Z AUTO 24004KT 10SM CLR 28/20 A3005 RMK AO2=
KVWU 081231Z AUTO 27008KT 10SM CLR 19/14 A3004 RMK AO2=
KXVG 081236Z AUTO 27003KT 10SM CLR 17/16 A3006 RMK AO2=
KY70 081235Z AUTO 00000KT 5SM BR SCT005 24/22 A3003 RMK AO2
     T02410222=
K4I3 081236Z AUTO 00000KT 7SM CLR 24/20 A3010 RMK AO2=
KACB 081235Z AUTO 00000KT 7SM DZ BKN014 BKN030 OVC090 23/22 A3000
     RMK AO2=
KACQ 081239Z AUTO 32006KT 10SM CLR 17/16 A3015 RMK AO2=
KADC 081237Z AUTO 26005KT 10SM CLR 16/14 A3010 RMK AO2=
KAMN 081236Z AUTO 00000KT 5SM BR SCT085 23/22 A3002 RMK AO2=
KAQP 081234Z AUTO 26003KT 10SM CLR 17/17 A3011 RMK AO2=
KAUM 081235Z AUTO 34008KT 10SM CLR 19/17 A3011 RMK AO2=
KBAX 081235Z AUTO 25005KT 10SM CLR 26/23 A3001 RMK AO2=
KBDH 081235Z AUTO 00000KT 10SM CLR 17/16 A3013 RMK AO2=
KBFW 081233Z AUTO 30003KT 10SM CLR 21/15 A3002 RMK AO2=
KCAD 081234Z AUTO 24007KT 5SM -RA OVC080 22/21 A3005 RMK AO2=
KCBG 081235Z AUTO 26004KT 10SM CLR 18/16 A3010 RMK AO2=
KCDA 081235Z AUTO 00000KT 7SM CLR 25/20 A3010 RMK AO2=
KCDD 081231Z AUTO 23003KT 10SM CLR 19/18 A3003 RMK AO2=
KCFE 081235Z AUTO 25005KT 10SM CLR 19/16 A3012 RMK AO2
     T01910160=
KCFS 081235Z AUTO 00000KT 10SM CLR 25/22 A3002 RMK AO2=
KCKC 081235Z AUTO 26003KT 10SM CLR 19/14 A3004 RMK AO2=
KCKN 081235Z AUTO 24003KT 10SM CLR 16/14 A3007 RMK AO2=
KCNB 081238Z AUTO 25008KT 10SM CLR 19/14 A3014 RMK AO2
     T01900141=
KCOQ 081236Z AUTO 27006KT 10SM CLR 18/18 A3007 RMK AO2=
KCQM 081237Z AUTO 25005KT 10SM CLR 17/15 A3004 RMK AO2=
KCVX 081235Z AUTO 25008KT 5SM -RA SCT006 BKN010 OVC017 21/20 A3002
     RMK AO2=
KDRM 081236Z AUTO 21003KT 4SM -RA OVC010 21/21 A2998 RMK AO2=
KDTL 081235Z AUTO 00000KT 10SM CLR 18/13 A3011 RMK AO2=
KDUH 081235Z AUTO 00000KT 10SM CLR 27/19 A3004 RMK AO2=
KDVP 081236Z AUTO 28004KT 10SM CLR 18/14 A3018 RMK AO2
     T01760140=
KERY 081235Z AUTO 34005KT 5SM BR OVC003 18/17 A3001 RMK AO2=
KETH 081234Z AUTO 24005KT 10SM CLR 19/16 A3010 RMK AO2=
KFFX 081235Z AUTO 00000KT 1 3/4SM BR OVC002 22/22 A3002 RMK
     AO2=
KFKA 081243Z AUTO 35007KT 10SM CLR 19/18 A3011 RMK AO2
     T01930176=
KFKS 081235Z AUTO 23004KT 3SM RA OVC004 21/20 A3001 RMK AO2=
KFOZ 081233Z AUTO 24004KT 10SM CLR 16/15 A3005 RMK AO2=
KFPK 081236Z AUTO 15003KT 7SM CLR 24/21 A3004 RMK AO2=
KFSE 081234Z AUTO 23003KT 10SM CLR 14/13 A3006 RMK AO2=
KGOV 081235Z AUTO 00000KT 7SM RA SCT030 BKN050 OVC070 22/22 A3003
     RMK AO2=
KHAF 081230Z AUTO 33004KT 7SM OVC006 12/10 A2993 RMK AO2=
KHAI 081235Z AUTO 00000KT 10SM CLR 25/22 A3005 RMK AO2=
KHYX 081235Z AUTO 00000KT 10SM SCT085 BKN120 25/21 A3001 RMK
     AO2=
KIRS 081235Z AUTO 00000KT 10SM CLR 26/22 A3005 RMK AO2=
####018000221####
SAUS80 KWBC 081242
METAR
KVTI 081235Z AUTO 34003KT 10SM SCT005 21/20 A3008 RMK AO2=
K3A6 081330Z AUTO 36001KT 11/10 A2989 RMK AO1 SLP141 T01130103=
KPZQ 081235Z AUTO 25004KT 10SM -RA OVC090 23/21 A3000 RMK AO2=
####018000117####
SAAO33 KWBC 081200 RRG
METAR
GBYD 081230Z 27003KT 9999 RETS SCT011 FEWCB018 BKN120 26/25 Q1013
     CB S-NW=
####018001596####
SAAU31 KWBC 081200 RRD
METAR
YBAS 081230Z AUTO 06004KT 9999NDV // NCD 08/06 Q1020=
YBBN 081230Z 20008KT 9999 FEW040 16/11 Q1021 NOSIG=
YBCG 081230Z AUTO 19011KT 9999NDV // OVC100 14/12 Q1021=
YBCS 081230Z 16006KT 9999 FEW024 BKN040 23/19 Q1016=
YBMA 081230Z AUTO 00000KT 9999NDV // NCD 08/08 Q1020=
YBRK 081230Z 22004KT 9999 FEW004 BKN028 13/12 Q1020=
YBRM 081230Z 09004KT 9999 SCT033 BKN069 23/22 Q1012=
YBTL 081230Z NIL=
YMHB 081230Z 31006KT CAVOK 03/01 Q1031=
YMML 081230Z 35004KT 9999 FEW042 BKN240 04/04 Q1028 RMK HZ FM1230
     VRB03KT 5000 HZ SKC FM1400 36005KT 2000 BR=
YPAD 081230Z 07004KT CAVOK 06/03 Q1026=
YPCC 081230Z AUTO 13011KT 9999NDV // SCT032 BKN038 OVC044 26/22
     Q1014=
YPDN 081230Z 04007KT CAVOK 25/21 Q1013=
YPEA 081230Z NIL=
YPLM 081230Z AUTO 22007KT 9999NDV // BKN029 OVC056 21/16 Q1009=
YPPD 081230Z AUTO 03009KT 6000NDV // BKN013 BKN027 OVC041 21/21
     Q1010=
YPPH 081230Z 36009KT 9000 -SHRA FEW012 SCT026 BKN062 14/13 Q0998
     RMK WBD 0.5 INTER 1230/1530 27030G50KT 2000 TSGS BKN010
     FEW030CB=
YPTN 081230Z AUTO 14005KT 9999NDV // OVC051 23/17 Q1015=
YPXM 081230Z NIL=
YSCB 081230Z AUTO 33002KT 9999NDV // SCT059 02/01 Q1028=
YSDU 081230Z AUTO 13006KT 9999NDV // ////// 07/04 Q1026=
YSNF 081230Z AUTO 11009KT 9999NDV // OVC033 15/10 Q1018=
YSRI 081230Z AUTO 00000KT 9999NDV // BKN029 BKN044 OVC049 11/10
     Q1028=
YSSY 081230Z 24008KT 7000 -SHRA FEW008 SCT030 BKN045 11/11 Q1027
     RMK VIS REDUCED TO EAST FM1250 22010KT 9999 -SHRA SCT025
     BKN040 INTER 1250/1530 5000 SHRA BKN010=
####018000176####
SAAW34 KWBC 081215 RRD
METAR
UACP 081230Z NIL=
UADD 081230Z 03002MPS 020V120 9999 NSC 34/05 Q1012 NOSIG RMK
     QFE702/0937=
UAII 081230Z NIL=
UASP 081230Z NIL=
####018000075####
SPCN31 KWBC 081242
SPECI
CYZV 081239Z 00000KT 2SM BR OVC002 RMK ST8=
####018000109####
SAPA41 KWBC 081200 RRB
METAR
PKWA 081240Z AUTO 15012KT 5SM RA BKN012 BKN016 OVC065 26/23
     A2985=
####018000139####
SAFR32 KWBC 081230 RRB
METAR
LFSF 081230Z AUTO VRB02KT 9999NDV NSC 31/10 Q1019=
LFSR 081230Z AUTO VRB04KT 9999NDV NSC 32/11 Q1019=
####018000216####
SAFR41 KWBC 081230 RRC
METAR
LFSI 081230Z AUTO 04003KT 310V100 9999NDV NSC 32/09 Q1019=
LFSO 081230Z AUTO 24005KT 160V320 9999NDV NSC 31/11 Q1020=
LFSX 081230Z AUTO 23003KT 150V300 9999NDV NSC 31/12 Q1020=
####018000109####
SAPQ31 KWBC 081200 RRC
METAR
PKWA 081240Z AUTO 15012KT 5SM RA BKN012 BKN016 OVC065 26/23
     A2985=
####018000198####
SAID31 KWBC 081200 RRB
METAR
WAAA 081230Z 13001KT 9999 FEW020 26/25 Q1011=
WIII 081230Z 24005KT 7000 SCT020 25/22 Q1011 NOSIG=
WIMM 081230Z 05005KT 5000 FEW016CB SCT017 29/24 Q1009 NOSIG=
####018000133####
SAPA31 KWBC 081200 RRD
METAR
PKWA 081240Z AUTO 15012KT 5SM RA BKN012 BKN016 OVC065 26/23 A2985
     RMK AO2 P0002 T02590233=
####018000095####
SPUS42 KWBC 081242
SPECI
KBRO 081239Z 32007KT 10SM -RA SCT007 BKN014 BKN025 27/25 A2977=
####018000133####
SAXX62 KWBC 081200 RRC
METAR
PKWA 081240Z AUTO 15012KT 5SM RA BKN012 BKN016 OVC065 26/23 A2985
     RMK AO2 P0002 T02590233=
####018000181####
SAUS44 KFWD 081242
MTRNQI
SPECI KNQI 081240Z 04007KT 10SM FEW010 SCT012CB BKN045 BKN140 BKN280 
27/25 A2984 RMK AO2 TSE34RAB16E39 OCNL LTGICCG W-NW TS W-NW MOV W 
P0002 $
####018000915####
SAXX99 KWBC 081200 RRX
METAR
EGVN 081150Z 23005KT 9999 FEW032 BKN220 22/09 Q1018 BLU NOSIG=
LFMO 081230Z AUTO 20006KT 160V260 9999NDV NSC 34/12 Q1019=
UACK 081230Z 32005G08MPS CAVOK 19/01 Q1010 02010070 NOSIG RMK
     QFE734=
WADD 081230Z 00000KT 9999 FEW018 27/26 Q1010 NOSIG=
WARR 081230Z 28011KT 7000 FEW020CB SCT018 26/21 Q1010 NSG=
YAMB 081230Z AUTO 19006KT 9999NDV // SCT100 13/10 Q1021=
YBHM 081230Z NIL=
YCIN 081230Z AUTO 11007KT //// // ////// 23/18 Q1013=
YFRT 081230Z NIL=
YMAV 081230Z AUTO 35004KT 9999NDV // OVC048 08/06 Q1028=
YMLT 081230Z AUTO 21006KT 9000NDV // NCD 02/01 Q1031=
YPGV 081230Z 13007KT 9999 FEW013 BKN020 BKN350 24/22 Q1014=
YPKG 081230Z AUTO 35011KT 9999NDV // BKN062 17/05 Q1004=
YPKU 081230Z AUTO 12007KT 9999NDV // NCD 23/15 Q1015=
YSTW 081230Z AUTO 13006KT 9999NDV // NCD 07/04 Q1024=
YWLM 081230Z AUTO 25007KT 9999NDV // ////// 11/10 Q1026=
####018000083####
SACN88 CWAO 081200 RRE
WNS SA 1200 AUTO8 M M M 202/24/19/MMMM/M/ 3001 76MM=

####018000096####
SPCN47 CWAO 081240
SPECI CYNA 081240Z AUTO 09013KT 9SM OVC005 OVC051 OVC083 14/12 A3003=

####018000083####
SAUS43 KWBC 081200 RRK
METAR
KPHN 081236Z AUTO 18004KT 10SM CLR 26/21 A3002=
####018000107####
SARA34 RUMS 081200 RRA
METAR UNBB 081200Z 17002MPS 9999 -SHRA BKN035CB 14/10 Q1010 NOSIG RMK
QFE735=
####018000106####
SARA34 RUMS 081230 RRA
METAR UNBB 081230Z 15003MPS 9999 SCT100 BKN040 14/10 Q1010 NOSIG RMK
QFE735=
####018000101####
SARA34 RUMS 081130 RRA
METAR UNBB 081130Z 13006MPS 9999 BKN020CB 15/08 Q1010 NOSIG RMK
QFE735=
####018000079####
SPUS53 KWBC 081242
SPECI
KMHK 081239Z 01007KT 5SM BR BKN010 22/21 A3011=
####018000095####
SPUS72 KWBC 081242
SPECI
KBRO 081239Z 32007KT 10SM -RA SCT007 BKN014 BKN025 27/25 A2977=
####018000079####
SPUS73 KWBC 081242
SPECI
KMHK 081239Z 01007KT 5SM BR BKN010 22/21 A3011=
####018000079####
SPUS81 KWBC 081242
SPECI
KMHK 081239Z 01007KT 5SM BR BKN010 22/21 A3011=
####018001126####
SAEU KAWN 081200 RRX
METAR EBLH 081225Z 26008KT 9999 FEW250 31/11 Q1020 BLU BLU=
METAR EGVN 081150Z 23005KT 9999 FEW032 BKN220 22/09 Q1018 BLU NOSIG=
METAR LELO 081230Z 09012KT 050V120 9999 FEW050 34/17 Q1017=
METAR LFKS 081230Z AUTO 11006KT 060V150 9999NDV NSC 30/22 Q1020=
METAR LFMO 081230Z AUTO 20006KT 160V260 9999NDV NSC 34/12 Q1019=
METAR LFMY 081230Z 20005KT 140V260 CAVOK 34/16 Q1020=
METAR LFRJ 081230Z AUTO 34006KT 290V020 9999NDV FEW029/// 23/17 Q1019=
METAR LFSF 081230Z AUTO VRB02KT 9999NDV NSC 31/10 Q1019=
METAR LFSI 081230Z AUTO 04003KT 310V100 9999NDV NSC 32/09 Q1019=
METAR LFSO 081230Z AUTO 24005KT 160V320 9999NDV NSC 31/11 Q1020=
METAR LFSR 081230Z AUTO VRB04KT 9999NDV NSC 32/11 Q1019=
METAR LFSX 081230Z AUTO 23003KT 150V300 9999NDV NSC 31/12 Q1020=
METAR LKKV 081230Z VRB03KT CAVOK 24/09 Q1023 RMK REG QNH 1020=
METAR LKMT 081230Z 02005KT 280V090 CAVOK 22/09 Q1023 NOSIG RMK REG
      QNH 1020=
METAR LKPR 081230Z 35004KT 290V050 CAVOK 24/11 Q1023 NOSIG RMK REG
      QNH 1020=
METAR LKTB 081230Z 33006KT 280V040 CAVOK 25/08 Q1022 NOSIG RMK REG
      QNH 1020=
####018000107####
SAUS17 KAWN 081200 RRH
METAR KFMH 081235Z AUTO 16008KT 10SM BKN012 BKN019 24/21 A3012 RMK
      AO2=
####018000296####
SAXN17 KAWN 081200 RRK
METAR MMMX 081223Z 16004KT 2 1/2SM -RA HZ SCT008 OVC020 15/14 A3019
      NOSIG RMK 8/7// VSBY TWR=
METAR PKWA 081240Z AUTO 15012KT 5SM RA BKN012 BKN016 OVC065 26/23 A2985
      RMK AO2 P0002 T02590233=
METAR YBBN 081230Z 20008KT 9999 FEW040 16/11 Q1021 NOSIG=
####018000281####
SAZZ40 KAWN 081200 RRV
METAR KFMH 081235Z AUTO 16008KT 10SM BKN012 BKN019 24/21 A3012 RMK
      AO2=
METAR LKKV 081230Z VRB03KT CAVOK 24/09 Q1023 RMK REG QNH 1020=
METAR UUYY 081230Z 22003MPS 180V250 9999 FEW033 OVC200 30/14 Q1015
      NOSIG 19CLRD61 RMK QFE753/1004=
####018000091####
SAXX70 KAWN 081300
METAR KQEV 081250Z AUTO 33001KT 7SM -RA OVC080 23/18 A2982 RMK A02=
####018000390####
SAXX70 KAWN 081200 RRU
METAR KQEN 081240Z AUTO 25003KT 7SM FEW075 SCT110 19/16 A3042 RMK A02=
METAR KQEP 081240Z AUTO 05002KT 4SM -SHRA BKN085 22/19 A2990 RMK A02=
METAR KQER 081240Z AUTO 11001KT 2SM BR SCT085 SCT100 21/19 A2992 RMK
      A02=
METAR KQES 081240Z AUTO 32006KT 4SM -RA OVC055 20/18 A2988 RMK A02=
METAR KQEY 081240Z AUTO 29003KT 7SM FEW100 25/18 A2963 RMK A02=
####018000892####
SAUS20 KNKA 081242
METAR K3J7 081239Z AUTO 00000KT 10SM CLR 27/22 A3001 RMK AO2=
METAR KASJ 081237Z AUTO 04003KT 4SM HZ CLR 27/23 A3000 RMK AO2=
METAR KCTZ 081240Z AUTO 03004KT 5SM HZ CLR 28/22 A2997 RMK AO2=
SPECI KDAL 081240Z 12005KT 8SM -RA SCT015 BKN024 OVC043 26/23 A3003 
    RMK AO2 RAE1158B40 P0000=
METAR KEBS 081235Z AUTO 35005KT 10SM CLR 19/17 A3013 RMK AO2=
SPECI KFAF 081232Z 09005KT 10SM SCT019 27/26 A3000 RMK AO2A SLP160=
METAR KFQD 081239Z AUTO 31005KT 10SM SCT100 26/19 A3006 RMK AO2=
SPECI KHOU 081241Z 09007KT 7SM -RA FEW012 BKN090 OVC110 25/23 A2995 
    RMK AO2 RAB00 OCNL LTGIC NW-N P0007=
METAR KO22 081235Z AUTO 00000KT 10SM CLR 15/12 A2991 RMK AO1 =
METAR KRHP 081242Z AUTO 00000KT 7SM CLR 21/18 A3014 RMK AO2=
METAR KSME 081240Z AUTO 00000KT 3SM HZ 24/21 A3011 RMK AO2=
METAR KTVK 081235Z AUTO 35004KT 10SM FEW005 20/20 A3010 RMK AO2=
####018000207####
SAAK41 KNKA 081242
SPECI PAHC 081240Z AUTO 00000KT 4SM BR CLR 08/08 A2998 RMK AO2 TSNO 
    $=
SPECI PAIL 081240Z AUTO 03004KT 1/2SM -RA FG SCT011 OVC070 08/08 
    A2994 RMK AO2 RAB34 P0000 TSNO=
####018000411####
SAID31 WIII 081230
METAR WIMM 08123FEW016CB SCT017 29/24 Q1009 NOSIG= 
METAR WARR 081230Z 28011KT 7000 FEW020CB SCT018 26/21 Q1010 NSG= 
METAR WIDD 081230Z 22004KT 9999 FEW017 27/24 Q1010= 
METAR WAAA 081230Z 13001KT 9999 FEW020 26/25 Q1011= 
METAR WIII 081230Z 24005KT 7000 SCT020 25/22 Q1011 NOSIG= 
METAR WADD 081230Z 00000KT 9999 FEW018 27/26 Q1010 NOSIG= 
METAR WIHH NIL=
METAR WABB NIL=
####018000558####
SAUS99 KWBC 081243
METAR
K3J7 081239Z AUTO 00000KT 10SM CLR 27/22 A3001 RMK AO2=
KASJ 081237Z AUTO 04003KT 4SM HZ CLR 27/23 A3000 RMK AO2=
KCTZ 081240Z AUTO 03004KT 5SM HZ CLR 28/22 A2997 RMK AO2=
KEBS 081235Z AUTO 35005KT 10SM CLR 19/17 A3013 RMK AO2=
KFQD 081239Z AUTO 31005KT 10SM SCT100 26/19 A3006 RMK AO2=
KO22 081235Z AUTO 00000KT 10SM CLR 15/12 A2991 RMK AO1=
KRHP 081242Z AUTO 00000KT 7SM CLR 21/18 A3014 RMK AO2=
KSME 081240Z AUTO 00000KT 3SM HZ 24/21 A3011 RMK AO2=
KTVK 081235Z AUTO 35004KT 10SM FEW005 20/20 A3010 RMK AO2=
####018000472####
SPUS99 KWBC 081243
SPECI
KDAL 081240Z 12005KT 8SM -RA SCT015 BKN024 OVC043 26/23 A3003 RMK
     AO2 RAE1158B40 P0000=
KFAF 081232Z 09005KT 10SM SCT019 27/26 A3000 RMK AO2A SLP160=
KHOU 081241Z 09007KT 7SM -RA FEW012 BKN090 OVC110 25/23 A2995 RMK
     AO2 RAB00 OCNL LTGIC NW-N P0007=
PAHC 081240Z AUTO 00000KT 4SM BR CLR 08/08 A2998 RMK AO2 TSNO
     $=
PAIL 081240Z AUTO 03004KT 1/2SM -RA FG SCT011 OVC070 08/08 A2994
     RMK AO2 RAB34 P0000 TSNO=
####018000091####
SAUK51 EGGY 081150 RRI
METAR EGVN 081150Z 23005KT 9999 FEW032 BKN220 22/09 Q1018 NOSIG=
####018000101####
SPAU32 YBBN 081242
SPECI YPPD 081242Z AUTO 02008KT 9999NDV // SCT013 BKN033 OVC105 21/21
Q1009=
####018000103####
SAUK39 EGRR 081150 CCF
METAR COR EGOV 081150Z 20015KT 9999 FEW016 BKN220 17/13 Q1017 BLU
 NOSIG=
####018000112####
SPUS31 KKCI 081233
SPECI
KH08 081233Z 09020KT 2SM HZ VCSH OVC080 27/23 A2994 RMK 1/2SM VIS WEST SEAS 4-6=
####018000267####
SAUS20 KNKA 081242
SPECI KAJO 081240Z AUTO 32003KT 6SM BR BKN011 15/13 A2991 RMK AO2 $=
SPECI KDXR 081241Z 15003KT 1 1/2SM RA BR OVC003 24/23 A3009 RMK AO2 
    RAB35 P0001=
SPECI KPNE 081241Z 12004KT 2 1/2SM BR OVC006 26/23 A3006 RMK AO2 SFC 
    VIS 4=
####018000082####
SPUS42 KWBC 081243
SPECI
KNEW 081240Z AUTO 06010KT 10SM FEW006 28/26 A3004=
####018000079####
SACN88 CWAO 081231
WXI SA 1231 AUTO8 M M M 174/10/M/0407/M/M 8014 2MMM=

####018000089####
SPUS52 KWBC 081243
SPECI
KALI 081240Z AUTO 02008KT 10SM SCT004 BKN015 25/25 A2985=
####018000096####
SPCN47 CWAO 081241
SPECI CYNA 081241Z AUTO 09013KT 9SM OVC004 OVC051 OVC083 14/12 A3003=

####018000102####
SPAU32 YBBN 081242
SPECI YPPD 081242Z AUTO 02008KT 9999NDV // SCT013 BKN033 OVC105 21/21
Q1009=
####018000089####
SPUS72 KWBC 081243
SPECI
KALI 081240Z AUTO 02008KT 10SM SCT004 BKN015 25/25 A2985=
####018000082####
SPUS72 KWBC 081243
SPECI
KNEW 081240Z AUTO 06010KT 10SM FEW006 28/26 A3004=
####018000078####
SACN96 CWAO 081240
WZQ SA 1240 AUTO8 M M M M/25/16/1910+16/M/M M 82MM=

####018000117####
SPUS90 KWBC 081244
SPECI KH08 081233Z 09020KT 2SM HZ VCSH OVC080 27/23 A2994 RMK
     1/2SM VIS WEST SEAS 4-6=
####018002959####
SAUS20 KNKA 081243
METAR K0R3 081239Z AUTO 07004KT 5SM BR OVC003 26/26 A3001 RMK AO2=
METAR K1A5 081240Z AUTO 00000KT 7SM CLR 19/18 A3017 RMK AO2 
     T01910180=
METAR K3I2 081240Z AUTO 00000KT 5SM BR CLR 23/21 A3010 RMK AO2=
METAR K47A 081240Z AUTO 00000KT 10SM CLR 25/17 A3008 RMK AO2 LTG 
     DSNT NE T02520168=
METAR KACP 081240Z AUTO 06003KT 5SM BR SCT004 25/25 A3003 RMK AO2=
METAR KAVC 081240Z AUTO 00000KT 5SM HZ CLR 29/21 A3004 RMK AO2=
METAR KAYS 081240Z AUTO 27004KT 10SM CLR 25/23 A3003 RMK AO1=
METAR KBCB 081240Z AUTO 00000KT 4SM HZ SCT060 26/22 A3017 RMK AO2=
METAR KBGE 081241Z AUTO 00000KT 2 1/2SM BR OVC001 23/22 A3004 RMK 
     AO2 VIS 1 1/2V5=
METAR KBIJ 081240Z AUTO 00000KT 10SM CLR 26/23 A3003 RMK AO2=
METAR KBQK 081237Z AUTO 27006KT 10SM CLR 25/22 A3001 RMK AO1 
     T02510224 PNO=
METAR KCCO 081240Z AUTO 00000KT 7SM CLR 23/22 A3006 RMK AO1=
METAR KCPK 081240Z AUTO 03004KT 10SM SCT100 26/24 A3000 RMK AO2=
SPECI KCRQ 081242Z AUTO 00000KT 6SM HZ OVC011 17/14 A2990 RMK AO2=
METAR KCTJ 081240Z AUTO 35004KT 10SM CLR 27/21 A3008 RMK AO2 
     T02740206=
METAR KCWV 081249Z AUTO 00000KT 10SM CLR 27/23 A3001 RMK AO2=
METAR KDPL 081240Z AUTO 05003KT 4SM HZ CLR 28/22 A2997 RMK AO2=
METAR KEDE 081236Z AUTO 05003KT 10SM CLR 27/23 A2998 RMK AO2=
METAR KEMV 081237Z AUTO 08003KT 4SM BR SCT090 26/23 A3000 RMK AO2=
METAR KEXX 081239Z AUTO 00000KT 7SM CLR 26/19 A3002 RMK AO2=
METAR KEZF 081238Z AUTO 00000KT 7SM CLR 29/27 A2999 RMK AO2 
     T02920265=
METAR KF24 081239Z AUTO 7SM CLR 25/23 A3009 RMK AO2 T02510234=
METAR KFKN 081240Z AUTO 00000KT 4SM CLR 27/24 A3000 RMK AO1=
SPECI KFLD 081242Z AUTO 26004KT 10SM BKN007 OVC010 23/21 A3002 RMK 
    AO2 CIG 004V009=
METAR KFYJ 081241Z AUTO 00000KT 5SM SCT075 28/25 A3002 RMK AO1=
METAR KGEV 081241Z AUTO 00000KT 10SM CLR 26/17 A3020 RMK AO2=
METAR KHBI 081241Z AUTO 00000KT 10SM CLR 26/19 A3004 RMK AO2=
METAR KHQU 081241Z AUTO 00000KT 10SM CLR 26/20 A3006 RMK AO1=
METAR KHRJ 081241Z AUTO 00000KT 7SM CLR 31/22 A2997 RMK AO2=
METAR KJNX 081239Z AUTO 34006KT 7SM CLR 28/21 A2997 RMK AO2=
METAR KJYL 081241Z AUTO 00000KT 10SM CLR 27/22 A3001 RMK AO2=
SPECI KLAR 081242Z AUTO 00000KT 8SM BKN004 OVC015 08/08 A3041 RMK 
    AO2 CIG 002V006=
METAR KLWB 081240Z AUTO 00000KT 5SM HZ SCT055 23/18 A3018 RMK AO2=
METAR KMQI 081236Z AUTO 05009KT 10SM SCT013 27/23 A2996 RMK AO2=
METAR KMWK 081242Z AUTO 00000KT 7SM CLR 28/20 A3007 RMK AO2=
METAR KOCW 081239Z AUTO 05011KT 7SM CLR 27/22 A2998 RMK AO2=
METAR KPGV 081240Z AUTO 03007KT 4SM HZ BKN120 26/23 A2999 RMK AO2=
METAR KTNB 081241Z AUTO 00000KT 7SM CLR 23/17 A3021 RMK AO2=
METAR KTSP 081235Z AUTO 00000KT 10SM CLR 09/04 A3003 RMK AO2 =
METAR KTVI 081240Z AUTO 34003KT 10SM CLR 26/22 A3005 RMK AO2=
METAR KUKF 081241Z AUTO 00000KT 7SM CLR 25/19 A3009 RMK AO1=
METAR KUNV 081240Z AUTO 00000KT 10SM CLR 24/19 A3011 RMK AO2 
     T02420192=
####018000087####
SAUS20 KNKA 081243
METAR KW99 081239Z AUTO 00000KT 7SM SCT080 26/17 A3010 RMK AO2=
####018000507####
SAMS31 WMKK 081230
METAR 081230Z
METAR WBGG 081230Z 26006KT 9999 FEW015CB SCT020 BKN150 24/23 Q1011 
RETS
     NOSIG=
METAR WBKK 081230Z 11005KT 9999 FEW014 SCT140 BKN270 25/23 Q1010 
NOSIG=
METAR WBSB 081230Z 19008KT 9999 FEW005 BKN140 25/24 Q1010 RERA NOSIG=
METAR WMKK 081230Z 17002KT 9999 FEW030 BKN280 27/25 Q1009 NOSIG=
METAR WMKP 081230Z 00000KT 9999 FEW025 BKN280 29/25 Q1009 NOSIG=
METAR WSSL NIL=
METAR WSSS 081230Z 22004KT 180V250 9999 FEW016 SCT190 28/24 Q1009 
NOSIG=
####018000074####
SPCN44 CWAO 081241
SPECI CYEK 081241Z 14002KT 15SM OVC002 RMK ST8=

####018000493####
SPUS99 KWBC 081244
SPECI
KAJO 081240Z AUTO 32003KT 6SM BR BKN011 15/13 A2991 RMK AO2 $=
KDXR 081241Z 15003KT 1 1/2SM RA BR OVC003 24/23 A3009 RMK AO2
     RAB35 P0001=
KPNE 081241Z 12004KT 2 1/2SM BR OVC006 26/23 A3006 RMK AO2 SFC VIS
     4=
KCRQ 081242Z AUTO 00000KT 6SM HZ OVC011 17/14 A2990 RMK AO2=
KFLD 081242Z AUTO 26004KT 10SM BKN007 OVC010 23/21 A3002 RMK AO2
     CIG 004V009=
KLAR 081242Z AUTO 00000KT 8SM BKN004 OVC015 08/08 A3041 RMK AO2
     CIG 002V006=
####018002531####
SAUS99 KWBC 081244
METAR
KW99 081239Z AUTO 00000KT 7SM SCT080 26/17 A3010 RMK AO2=
K0R3 081239Z AUTO 07004KT 5SM BR OVC003 26/26 A3001 RMK AO2=
K1A5 081240Z AUTO 00000KT 7SM CLR 19/18 A3017 RMK AO2
     T01910180=
K3I2 081240Z AUTO 00000KT 5SM BR CLR 23/21 A3010 RMK AO2=
K47A 081240Z AUTO 00000KT 10SM CLR 25/17 A3008 RMK AO2 LTG DSNT NE
     T02520168=
KACP 081240Z AUTO 06003KT 5SM BR SCT004 25/25 A3003 RMK AO2=
KAVC 081240Z AUTO 00000KT 5SM HZ CLR 29/21 A3004 RMK AO2=
KAYS 081240Z AUTO 27004KT 10SM CLR 25/23 A3003 RMK AO1=
KBCB 081240Z AUTO 00000KT 4SM HZ SCT060 26/22 A3017 RMK AO2=
KBGE 081241Z AUTO 00000KT 2 1/2SM BR OVC001 23/22 A3004 RMK AO2
     VIS 1 1/2V5=
KBIJ 081240Z AUTO 00000KT 10SM CLR 26/23 A3003 RMK AO2=
KBQK 081237Z AUTO 27006KT 10SM CLR 25/22 A3001 RMK AO1 T02510224
     PNO=
KCCO 081240Z AUTO 00000KT 7SM CLR 23/22 A3006 RMK AO1=
KCPK 081240Z AUTO 03004KT 10SM SCT100 26/24 A3000 RMK AO2=
KCTJ 081240Z AUTO 35004KT 10SM CLR 27/21 A3008 RMK AO2
     T02740206=
KCWV 081249Z AUTO 00000KT 10SM CLR 27/23 A3001 RMK AO2=
KDPL 081240Z AUTO 05003KT 4SM HZ CLR 28/22 A2997 RMK AO2=
KEDE 081236Z AUTO 05003KT 10SM CLR 27/23 A2998 RMK AO2=
KEMV 081237Z AUTO 08003KT 4SM BR SCT090 26/23 A3000 RMK AO2=
KEXX 081239Z AUTO 00000KT 7SM CLR 26/19 A3002 RMK AO2=
KEZF 081238Z AUTO 00000KT 7SM CLR 29/27 A2999 RMK AO2
     T02920265=
KF24 081239Z AUTO 7SM CLR 25/23 A3009 RMK AO2 T02510234=
KFKN 081240Z AUTO 00000KT 4SM CLR 27/24 A3000 RMK AO1=
KFYJ 081241Z AUTO 00000KT 5SM SCT075 28/25 A3002 RMK AO1=
KGEV 081241Z AUTO 00000KT 10SM CLR 26/17 A3020 RMK AO2=
KHBI 081241Z AUTO 00000KT 10SM CLR 26/19 A3004 RMK AO2=
KHQU 081241Z AUTO 00000KT 10SM CLR 26/20 A3006 RMK AO1=
KHRJ 081241Z AUTO 00000KT 7SM CLR 31/22 A2997 RMK AO2=
KJNX 081239Z AUTO 34006KT 7SM CLR 28/21 A2997 RMK AO2=
KJYL 081241Z AUTO 00000KT 10SM CLR 27/22 A3001 RMK AO2=
KLWB 081240Z AUTO 00000KT 5SM HZ SCT055 23/18 A3018 RMK AO2=
KMQI 081236Z AUTO 05009KT 10SM SCT013 27/23 A2996 RMK AO2=
KMWK 081242Z AUTO 00000KT 7SM CLR 28/20 A3007 RMK AO2=
KOCW 081239Z AUTO 05011KT 7SM CLR 27/22 A2998 RMK AO2=
KPGV 081240Z AUTO 03007KT 4SM HZ BKN120 26/23 A2999 RMK AO2=
KTNB 081241Z AUTO 00000KT 7SM CLR 23/17 A3021 RMK AO2=
KTSP 081235Z AUTO 00000KT 10SM CLR 09/04 A3003 RMK AO2=
KTVI 081240Z AUTO 34003KT 10SM CLR 26/22 A3005 RMK AO2=
KUKF 081241Z AUTO 00000KT 7SM CLR 25/19 A3009 RMK AO1=
KUNV 081240Z AUTO 00000KT 10SM CLR 24/19 A3011 RMK AO2
     T02420192=
####018000087####
SACN88 KWBC 081244
METAR CWXI 081231Z AUTO 04007KT 10/ RMK AO1 SLP174 T0102 58014=
####018000083####
SACN96 KWBC 081244
METAR CWZQ 081240Z AUTO 19010G16KT 25/16 RMK AO1 T02480162=
####018000111####
SAAG SAZS 081200 CCA
METAR SAZS 081200Z  32017KT 30005000SE 3000W RA
BKN007 SCT040  03/02 Q1006 R29210094=
####018000247####
SPXX60 KWBC 081244
SPECI
KNQI 081240Z 04007KT 10SM FEW010 SCT012CB BKN045 BKN140 BKN280
     27/25 A2984 RMK AO2 TSE34RAB16E39 OCNL LTGICCG W-NW TS W-NW
     MOV W P0002 $=
KFAF 081232Z 09005KT 10SM SCT019 27/26 A3000 RMK AO2A SLP160=
####018000087####
SAUS70 KWBC 081300
METAR
KCWV 081249Z AUTO 00000KT 10SM CLR 27/23 A3001 RMK AO2=
####018003037####
SAUS70 KWBC 081244
METAR
KFMH 081235Z AUTO 16008KT 10SM BKN012 BKN019 24/21 A3012 RMK
     AO2=
KFMH 081235Z AUTO 16008KT 10SM BKN012 BKN019 24/21 A3012 RMK
     AO2=
K3J7 081239Z AUTO 00000KT 10SM CLR 27/22 A3001 RMK AO2=
KASJ 081237Z AUTO 04003KT 4SM HZ CLR 27/23 A3000 RMK AO2=
KCTZ 081240Z AUTO 03004KT 5SM HZ CLR 28/22 A2997 RMK AO2=
KEBS 081235Z AUTO 35005KT 10SM CLR 19/17 A3013 RMK AO2=
KFQD 081239Z AUTO 31005KT 10SM SCT100 26/19 A3006 RMK AO2=
KO22 081235Z AUTO 00000KT 10SM CLR 15/12 A2991 RMK AO1=
KRHP 081242Z AUTO 00000KT 7SM CLR 21/18 A3014 RMK AO2=
KSME 081240Z AUTO 00000KT 3SM HZ 24/21 A3011 RMK AO2=
KTVK 081235Z AUTO 35004KT 10SM FEW005 20/20 A3010 RMK AO2=
KW99 081239Z AUTO 00000KT 7SM SCT080 26/17 A3010 RMK AO2=
K0R3 081239Z AUTO 07004KT 5SM BR OVC003 26/26 A3001 RMK AO2=
K1A5 081240Z AUTO 00000KT 7SM CLR 19/18 A3017 RMK AO2
     T01910180=
K3I2 081240Z AUTO 00000KT 5SM BR CLR 23/21 A3010 RMK AO2=
K47A 081240Z AUTO 00000KT 10SM CLR 25/17 A3008 RMK AO2 LTG DSNT NE
     T02520168=
KACP 081240Z AUTO 06003KT 5SM BR SCT004 25/25 A3003 RMK AO2=
KAVC 081240Z AUTO 00000KT 5SM HZ CLR 29/21 A3004 RMK AO2=
KBCB 081240Z AUTO 00000KT 4SM HZ SCT060 26/22 A3017 RMK AO2=
KBGE 081241Z AUTO 00000KT 2 1/2SM BR OVC001 23/22 A3004 RMK AO2
     VIS 1 1/2V5=
KBIJ 081240Z AUTO 00000KT 10SM CLR 26/23 A3003 RMK AO2=
KBQK 081237Z AUTO 27006KT 10SM CLR 25/22 A3001 RMK AO1 T02510224
     PNO=
KCCO 081240Z AUTO 00000KT 7SM CLR 23/22 A3006 RMK AO1=
KCPK 081240Z AUTO 03004KT 10SM SCT100 26/24 A3000 RMK AO2=
KCTJ 081240Z AUTO 35004KT 10SM CLR 27/21 A3008 RMK AO2
     T02740206=
KDPL 081240Z AUTO 05003KT 4SM HZ CLR 28/22 A2997 RMK AO2=
KEDE 081236Z AUTO 05003KT 10SM CLR 27/23 A2998 RMK AO2=
KEMV 081237Z AUTO 08003KT 4SM BR SCT090 26/23 A3000 RMK AO2=
KEXX 081239Z AUTO 00000KT 7SM CLR 26/19 A3002 RMK AO2=
KEZF 081238Z AUTO 00000KT 7SM CLR 29/27 A2999 RMK AO2
     T02920265=
KF24 081239Z AUTO 7SM CLR 25/23 A3009 RMK AO2 T02510234=
KFKN 081240Z AUTO 00000KT 4SM CLR 27/24 A3000 RMK AO1=
KFYJ 081241Z AUTO 00000KT 5SM SCT075 28/25 A3002 RMK AO1=
KGEV 081241Z AUTO 00000KT 10SM CLR 26/17 A3020 RMK AO2=
KHBI 081241Z AUTO 00000KT 10SM CLR 26/19 A3004 RMK AO2=
KHQU 081241Z AUTO 00000KT 10SM CLR 26/20 A3006 RMK AO1=
KHRJ 081241Z AUTO 00000KT 7SM CLR 31/22 A2997 RMK AO2=
KJYL 081241Z AUTO 00000KT 10SM CLR 27/22 A3001 RMK AO2=
KLWB 081240Z AUTO 00000KT 5SM HZ SCT055 23/18 A3018 RMK AO2=
KMQI 081236Z AUTO 05009KT 10SM SCT013 27/23 A2996 RMK AO2=
KMWK 081242Z AUTO 00000KT 7SM CLR 28/20 A3007 RMK AO2=
KOCW 081239Z AUTO 05011KT 7SM CLR 27/22 A2998 RMK AO2=
KPGV 081240Z AUTO 03007KT 4SM HZ BKN120 26/23 A2999 RMK AO2=
KTNB 081241Z AUTO 00000KT 7SM CLR 23/17 A3021 RMK AO2=
KTSP 081235Z AUTO 00000KT 10SM CLR 09/04 A3003 RMK AO2=
KTVI 081240Z AUTO 34003KT 10SM CLR 26/22 A3005 RMK AO2=
KUKF 081241Z AUTO 00000KT 7SM CLR 25/19 A3009 RMK AO1=
KUNV 081240Z AUTO 00000KT 10SM CLR 24/19 A3011 RMK AO2
     T02420192=
####018000712####
SPUS70 KWBC 081244
SPECI
KHOU 081241Z 09007KT 7SM -RA FEW012 BKN090 OVC110 25/23 A2995 RMK
     AO2 RAB00 OCNL LTGIC NW-N P0007=
PAHC 081240Z AUTO 00000KT 4SM BR CLR 08/08 A2998 RMK AO2 TSNO
     $=
PAIL 081240Z AUTO 03004KT 1/2SM -RA FG SCT011 OVC070 08/08 A2994
     RMK AO2 RAB34 P0000 TSNO=
KAJO 081240Z AUTO 32003KT 6SM BR BKN011 15/13 A2991 RMK AO2 $=
KDXR 081241Z 15003KT 1 1/2SM RA BR OVC003 24/23 A3009 RMK AO2
     RAB35 P0001=
KPNE 081241Z 12004KT 2 1/2SM BR OVC006 26/23 A3006 RMK AO2 SFC VIS
     4=
KFLD 081242Z AUTO 26004KT 10SM BKN007 OVC010 23/21 A3002 RMK AO2
     CIG 004V009=
KLAR 081242Z AUTO 00000KT 8SM BKN004 OVC015 08/08 A3041 RMK AO2
     CIG 002V006=
####018000279####
SPUS80 KWBC 081244
SPECI
KDAL 081240Z 12005KT 8SM -RA SCT015 BKN024 OVC043 26/23 A3003 RMK
     AO2 RAE1158B40 P0000=
KH08 081233Z 09020KT 2SM HZ VCSH OVC080 27/23 A2994 RMK 1/2SM VIS
     WEST SEAS 4-6=
KCRQ 081242Z AUTO 00000KT 6SM HZ OVC011 17/14 A2990 RMK AO2=
####018000144####
SAUS80 KWBC 081244
METAR
KAYS 081240Z AUTO 27004KT 10SM CLR 25/23 A3003 RMK AO1=
KJNX 081239Z AUTO 34006KT 7SM CLR 28/21 A2997 RMK AO2=
####018000312####
SAAS33 KWBC 081230 RRB
METAR
WBGG 081230Z 26006KT 9999 FEW015CB SCT020 BKN150 24/23 Q1011 RETS
     NOSIG=
WBKK 081230Z 11005KT 9999 FEW014 SCT140 BKN270 25/23 Q1010
     NOSIG=
WMKK 081230Z 17002KT 9999 FEW030 BKN280 27/25 Q1009 NOSIG=
WMKP 081230Z 00000KT 9999 FEW025 BKN280 29/25 Q1009 NOSIG=
####018000273####
SAEM31 KWBC 081230 RRA
METAR
LKMT 081230Z 02005KT 280V090 CAVOK 22/09 Q1023 NOSIG RMK REG QNH
     1020=
LKPR 081230Z 35004KT 290V050 CAVOK 24/11 Q1023 NOSIG RMK REG QNH
     1020=
LKTB 081230Z 33006KT 280V040 CAVOK 25/08 Q1022 NOSIG RMK REG QNH
     1020=
####018000256####
SAIO31 KWBC 081200 RRH
METAR
WBGG 081230Z 26006KT 9999 FEW015CB SCT020 BKN150 24/23 Q1011 RETS
     NOSIG=
WBKK 081230Z 11005KT 9999 FEW014 SCT140 BKN270 25/23 Q1010
     NOSIG=
WBSB 081230Z 19008KT 9999 FEW005 BKN140 25/24 Q1010 RERA NOSIG=
####018000080####
SAID31 KWBC 081200 RRC
METAR
WIMM 08123FEW016CB SCT017 29/24 Q1009 NOSIG=
####018000083####
SANT31 KWBC 081200 RRE
METAR
LPBJ 081200Z 25007KT 220V280 CAVOK 30/17 Q1016=
####018000283####
SAPO31 KWBC 081200 RRD
METAR
LPBJ 081200Z 25007KT 220V280 CAVOK 30/17 Q1016=
LPMR 081200Z 27008KT 7000 BKN007 SCT016 20/18 Q1016=
LPMT 081200Z 20010KT CAVOK 26/18 Q1016=
LPOV 081200Z 25005KT 6000 SCT007 BKN016 21/19 Q1015=
LPST 081200Z 30008KT 9999 BKN009 21/18 Q1016=
####018000098####
SAUK42 KWBC 081150 CCA
METAR
EGOV 081150Z 20015KT 9999 FEW016 BKN220 17/13 Q1017 BLU NOSIG=
####018000094####
SPUS42 KWBC 081244
SPECI
KDAL 081240Z 12005KT 8SM -RA SCT015 BKN024 OVC043 26/23 A3003=
####018000378####
SAXX99 KWBC 081200 RRX
METAR
EGVN 081150Z 23005KT 9999 FEW032 BKN220 22/09 Q1018 NOSIG=
LKKV 081230Z VRB03KT CAVOK 24/09 Q1023 RMK REG QNH 1020=
LPAR 081200Z /////KT CAVOK 29/19 Q1015 RMK ESTMD WND 18009KT=
UNBB 081230Z 15003MPS 9999 SCT100 BKN040 14/10 Q1010 NOSIG RMK
     QFE735=
UNBB 081200Z 17002MPS 9999 -SHRA BKN035CB 14/10 Q1010 NOSIG RMK
     QFE735=
####018000108####
SAXX99 KWBC 081100 RRX
METAR
UNBB 081130Z 13006MPS 9999 BKN020CB 15/08 Q1010 NOSIG RMK
     QFE735=
####018000094####
SPUS42 KWBC 081244
SPECI
KHOU 081241Z 09007KT 7SM -RA FEW012 BKN090 OVC110 25/23 A2995=
####018000094####
SPUS72 KWBC 081244
SPECI
KDAL 081240Z 12005KT 8SM -RA SCT015 BKN024 OVC043 26/23 A3003=
####018000094####
SPUS72 KWBC 081244
SPECI
KHOU 081241Z 09007KT 7SM -RA FEW012 BKN090 OVC110 25/23 A2995=
####018000097####
SPUS75 KWBC 081244
SPECI
PAIL 081240Z AUTO 03004KT 1/2SM -RA FG SCT011 OVC070 08/08 A2994=
####018000094####
SPUS81 KWBC 081244
SPECI
KDAL 081240Z 12005KT 8SM -RA SCT015 BKN024 OVC043 26/23 A3003=
####018000078####
SPCN47 CWAO 081243
SPECI CYRL 081243Z 30006KT 15SM -RA OVC010 RMK SC8=

####018000231####
SAEU KAWN 081100 RRX
METAR EGDM 081050Z AUTO 21004KT 9999NDV FEW017/// BKN030/// 19/15 Q1019=
METAR EGVN 081050Z AUTO 24006KT 9999NDV FEW027/// 21/10 Q1018=
METAR EGWU 081050Z AUTO 25003KT 9999NDV // BKN019/// 21/15 Q1018=
####018000244####
SARS18 KAWN 081200 RRK
METAR UWGG 081230Z 11002MPS 020V170 8000 FEW033 34/08 Q1015 NOSIG RMK
      QFE754 18090070=
METAR UWKD 081230Z 30002MPS 9999 SCT050CB BKN070 31/13 Q1015 TEMPO
      VRB15MPS 3000 TSRA RMK QFE750/1000 79CLRD70=
####018000231####
SAUK KAWN 081100 RRM
METAR EGDM 081050Z AUTO 21004KT 9999NDV FEW017/// BKN030/// 19/15 Q1019=
METAR EGVN 081050Z AUTO 24006KT 9999NDV FEW027/// 21/10 Q1018=
METAR EGWU 081050Z AUTO 25003KT 9999NDV // BKN019/// 21/15 Q1018=
####018000080####
SACN90 CWAO 081240
WEF SA 1240 AUTO8 M M M 182/13/12/1310/M/M 0002 03MM=

####018000111####
SAAK41 KNKA 081244
SPECI PAKI 081240Z AUTO 36005KT 1 3/4SM BR CLR 07/07 A3000 RMK AO2 
    PWINO TSNO $=
####018002984####
SAUS20 KNKA 081244
METAR K3A1 081240Z AUTO 02003KT 10SM CLR 26/23 A3012 RMK AO2 
     T02560229=
METAR K4A9 081240Z AUTO 00000KT 10SM CLR 24/20 A3009 RMK AO2 
     T02420199=
METAR K4R4 081240Z AUTO 00000KT 7SM CLR 27/26 A3004 RMK AO2 
     T02690260=
METAR K8A0 081239Z AUTO 01004KT 10SM CLR 26/21 A3009 RMK AO2=
METAR KAFP 081240Z AUTO 34005KT 10SM CLR 27/18 A2999 RMK AO2 
     T02690176=
METAR KALX 081240Z AUTO 00000KT 10SM CLR 26/22 A3006 RMK AO1=
SPECI KBML 081243Z AUTO 00000KT 5SM HZ SCT001 24/22 A3010 RMK AO2=
METAR KBQP 081249Z AUTO 00000KT 7SM CLR 26/26 A3008 RMK AO2=
METAR KCDH 081240Z AUTO 00000KT 5SM BR BKN003 BKN080 22/22 A3007 
     RMK AO2=
METAR KCPC 081240Z AUTO 00000KT 10SM CLR 27/21 A2995 RMK AO2 
     T02720208=
METAR KDBN 081240Z AUTO 31005KT 10SM CLR 28/19 A3001 RMK AO1=
METAR KDNN 081238Z AUTO 00000KT 10SM CLR 22/20 A3007 RMK AO2=
METAR KDQH 081240Z AUTO 30003KT 10SM CLR 27/19 A3003 RMK AO1=
METAR KDRI 081240Z AUTO 07003KT 7SM BKN008 BKN017 23/23 A3004 RMK 
     AO2=
METAR KEHO 081240Z AUTO 00000KT 10SM CLR 24/19 A3004 RMK AO2 
     T02440187=
METAR KEYF 081240Z AUTO RMK TEMPORAIRILY INOPERATIVE=
METAR KFFA 081238Z AUTO 07004KT 10SM CLR 27/23 A2997 RMK AO2 
     T02650225=
METAR KGHG 081240Z AUTO 15006KT 10SM SCT014 26/21 A3011 RMK AO2=
SPECI KGLR 081243Z AUTO 25006KT 4SM -RA BR FEW007 BKN055 OVC070 
    21/21 A3003 RMK AO2 P0003=
METAR KGWW 081240Z AUTO 04006KT 5SM HZ SCT080 SCT120 27/22 A2997 
     RMK AO2 T02670219=
SPECI KH08 081233Z 09020KT 2SM HZ VCSH OVC080 27/23 A2994 RMK
     1/2SM VIS WEST SEAS 4-6=
METAR KHLX 081241Z AUTO 00000KT 7SM CLR 24/22 A3019 RMK AO2=
METAR KHNZ 081240Z AUTO 00000KT 5SM HZ SCT110 28/20 A3001 RMK AO2 
     T02760203=
METAR KHOE 081239Z AUTO 30005KT 10SM CLR 24/25 A3004 RMK AO2 
     T02420247=
METAR KHSP 081240Z AUTO 07007KT 10SM SCT050 24/17 A3028 RMK AO2=
METAR KHWY 081240Z AUTO 03005KT 7SM CLR 28/20 A3002 RMK AO2=
METAR KIDI 081240Z AUTO 00000KT 7SM CLR 24/21 A3011 RMK AO2=
METAR KIPJ 081240Z AUTO 00000KT 10SM CLR 26/19 A3004 RMK AO2 
     T02600186=
METAR KIXA 081240Z AUTO 04004KT 7SM SCT075 SCT110 28/22 A2999 RMK 
     AO2 T02750221=
METAR KJES 081240Z AUTO 29003KT 10SM CLR 25/24 A3002 RMK AO2 
     T02470239=
METAR KJGG 081240Z AUTO 12007KT 10SM BKN013 BKN021 29/25 A3001 
     RMK AO1=
METAR KJKA 081240Z AUTO 00000KT 10SM CLR 29/27 A3004 RMK AO2 
     T02850265=
METAR KJYO 081240Z AUTO 08003KT 5SM HZ CLR 30/21 A3003 RMK AO2=
METAR KLDJ 081240Z AUTO 12003KT 4SM BR OVC004 25/24 A3005 RMK AO2 
     T02520235=
METAR KLGC 081235Z AUTO 00000KT 10SM CLR 26/26 A3005 RMK AO1=
METAR KLHZ 081240Z AUTO 01004KT 7SM SCT085 BKN120 29/20 A3000 RMK 
     AO2 T02870198=
METAR KLKU 081240Z AUTO 02004KT 7SM CLR 29/20 A3001 RMK AO2=
METAR KLNP 081238Z AUTO 00000KT 10SM CLR 25/19 A3020 RMK AO1=
METAR KLOM 081240Z AUTO 12004KT 7SM CLR 29/22 A3004 RMK AO1 
     T02850222=
####018001586####
SAUS20 KNKA 081244
METAR KMDQ 081240Z AUTO 00000KT 10SM CLR 26/22 A3009 RMK AO2 
     T02560219=
METAR KMFV 081242Z AUTO 09007KT 10SM CLR 27/22 A3001 RMK AO2=
METAR KMGR 081240Z AUTO 00000KT 10SM CLR 26/21 A3005 RMK AO2=
METAR KMKJ 081240Z AUTO 27003KT 7SM CLR 23/10 A3023 RMK AO1=
METAR KMQS 081240Z AUTO 16003KT 6SM  HZ CLR 27/22 A3007 RMK AO2=
METAR KMRN 081241Z AUTO 00000KT 10SM SCT085 25/17 A3013 RMK AO2=
METAR KMTV 081240Z AUTO 00000KT 7SM CLR 28/22 A3007 RMK AO2=
METAR KOBE 081241Z AUTO 05005KT 10SM CLR 27/23 A3000 RMK AO2=
METAR KONX 081240Z AUTO 07007KT 10SM BKN120 27/22 A2999 RMK AO2 
     T02700216=
METAR KOPN 081240Z AUTO 28004KT 10SM CLR 28/23 A3006 RMK AO1=
METAR KPCM 081240Z AUTO 06003KT 10SM CLR 26/23 A3004 RMK AO2=
METAR KPSK 081242Z AUTO 00000KT 7SM CLR 27/18 A3017 RMK AO2=
METAR KPTB 081242Z AUTO 13003KT 4SM HZ SCT090 28/24 A2999 RMK AO2=
METAR KRCZ 081240Z AUTO 34004KT 10SM CLR 27/20 A2998 RMK AO2 
     T02680195=
METAR KSIF 081240Z AUTO 36003KT 7SM CLR 29/22 A3003 RMK AO2=
METAR KSVH 081240Z AUTO 00000KT 7SM CLR 27/19 A3006 RMK AO2 
     T02660187=
METAR KTDF 081242Z AUTO 00000KT 5SM CLR 27/21 A3002 RMK AO1=
METAR KTPF 081240Z AUTO 05005KT 10SM CLR 26/23 A3002 RMK AO2=
METAR KVDI 081242Z AUTO 25004KT 10SM CLR 27/21 A3002 RMK AO1=
METAR KVJI 081243Z AUTO 00000KT 5SM HZ CLR 26/21 A3016 RMK AO2=
METAR KVUJ 081238Z AUTO 00000KT 10SM SCT090 28/21 A2999 RMK AO2=
METAR KVVG 081235Z AUTO 00000KT 25/22 A3002 RMK AO2=
METAR KW45 081240Z AUTO 00000KT 7SM CLR 27/20 A3006 RMK AO2 
     T02710197=
####018000116####
SAUS41 KPHI 081244
MTRACY
SPECI KACY 081243Z 10006KT 5SM -RA BKN013 BKN018 25/22 A3006 RMK AO2 
RAB37 P0001
####018003728####
SAUS99 KWBC 081245
METAR
K3A1 081240Z AUTO 02003KT 10SM CLR 26/23 A3012 RMK AO2
     T02560229=
K4A9 081240Z AUTO 00000KT 10SM CLR 24/20 A3009 RMK AO2
     T02420199=
K4R4 081240Z AUTO 00000KT 7SM CLR 27/26 A3004 RMK AO2
     T02690260=
K8A0 081239Z AUTO 01004KT 10SM CLR 26/21 A3009 RMK AO2=
KAFP 081240Z AUTO 34005KT 10SM CLR 27/18 A2999 RMK AO2
     T02690176=
KALX 081240Z AUTO 00000KT 10SM CLR 26/22 A3006 RMK AO1=
KBQP 081249Z AUTO 00000KT 7SM CLR 26/26 A3008 RMK AO2=
KCDH 081240Z AUTO 00000KT 5SM BR BKN003 BKN080 22/22 A3007 RMK
     AO2=
KCPC 081240Z AUTO 00000KT 10SM CLR 27/21 A2995 RMK AO2
     T02720208=
KDBN 081240Z AUTO 31005KT 10SM CLR 28/19 A3001 RMK AO1=
KDNN 081238Z AUTO 00000KT 10SM CLR 22/20 A3007 RMK AO2=
KDQH 081240Z AUTO 30003KT 10SM CLR 27/19 A3003 RMK AO1=
KDRI 081240Z AUTO 07003KT 7SM BKN008 BKN017 23/23 A3004 RMK
     AO2=
KEHO 081240Z AUTO 00000KT 10SM CLR 24/19 A3004 RMK AO2
     T02440187=
KEYF 081240Z AUTO RMK TEMPORAIRILY INOPERATIVE=
KFFA 081238Z AUTO 07004KT 10SM CLR 27/23 A2997 RMK AO2
     T02650225=
KGHG 081240Z AUTO 15006KT 10SM SCT014 26/21 A3011 RMK AO2=
KGWW 081240Z AUTO 04006KT 5SM HZ SCT080 SCT120 27/22 A2997 RMK AO2
     T02670219=
KHLX 081241Z AUTO 00000KT 7SM CLR 24/22 A3019 RMK AO2=
KHNZ 081240Z AUTO 00000KT 5SM HZ SCT110 28/20 A3001 RMK AO2
     T02760203=
KHOE 081239Z AUTO 30005KT 10SM CLR 24/25 A3004 RMK AO2
     T02420247=
KHSP 081240Z AUTO 07007KT 10SM SCT050 24/17 A3028 RMK AO2=
KHWY 081240Z AUTO 03005KT 7SM CLR 28/20 A3002 RMK AO2=
KIDI 081240Z AUTO 00000KT 7SM CLR 24/21 A3011 RMK AO2=
KIPJ 081240Z AUTO 00000KT 10SM CLR 26/19 A3004 RMK AO2
     T02600186=
KIXA 081240Z AUTO 04004KT 7SM SCT075 SCT110 28/22 A2999 RMK AO2
     T02750221=
KJES 081240Z AUTO 29003KT 10SM CLR 25/24 A3002 RMK AO2
     T02470239=
KJGG 081240Z AUTO 12007KT 10SM BKN013 BKN021 29/25 A3001 RMK
     AO1=
KJKA 081240Z AUTO 00000KT 10SM CLR 29/27 A3004 RMK AO2
     T02850265=
KJYO 081240Z AUTO 08003KT 5SM HZ CLR 30/21 A3003 RMK AO2=
KLDJ 081240Z AUTO 12003KT 4SM BR OVC004 25/24 A3005 RMK AO2
     T02520235=
KLGC 081235Z AUTO 00000KT 10SM CLR 26/26 A3005 RMK AO1=
KLHZ 081240Z AUTO 01004KT 7SM SCT085 BKN120 29/20 A3000 RMK AO2
     T02870198=
KLKU 081240Z AUTO 02004KT 7SM CLR 29/20 A3001 RMK AO2=
KLNP 081238Z AUTO 00000KT 10SM CLR 25/19 A3020 RMK AO1=
KLOM 081240Z AUTO 12004KT 7SM CLR 29/22 A3004 RMK AO1
     T02850222=
KMDQ 081240Z AUTO 00000KT 10SM CLR 26/22 A3009 RMK AO2
     T02560219=
KMFV 081242Z AUTO 09007KT 10SM CLR 27/22 A3001 RMK AO2=
KMGR 081240Z AUTO 00000KT 10SM CLR 26/21 A3005 RMK AO2=
KMKJ 081240Z AUTO 27003KT 7SM CLR 23/10 A3023 RMK AO1=
KMQS 081240Z AUTO 16003KT 6SM HZ CLR 27/22 A3007 RMK AO2=
KMRN 081241Z AUTO 00000KT 10SM SCT085 25/17 A3013 RMK AO2=
KMTV 081240Z AUTO 00000KT 7SM CLR 28/22 A3007 RMK AO2=
KOBE 081241Z AUTO 05005KT 10SM CLR 27/23 A3000 RMK AO2=
KONX 081240Z AUTO 07007KT 10SM BKN120 27/22 A2999 RMK AO2
     T02700216=
KOPN 081240Z AUTO 28004KT 10SM CLR 28/23 A3006 RMK AO1=
KPCM 081240Z AUTO 06003KT 10SM CLR 26/23 A3004 RMK AO2=
KPSK 081242Z AUTO 00000KT 7SM CLR 27/18 A3017 RMK AO2=
KPTB 081242Z AUTO 13003KT 4SM HZ SCT090 28/24 A2999 RMK AO2=
KRCZ 081240Z AUTO 34004KT 10SM CLR 27/20 A2998 RMK AO2
     T02680195=
KSIF 081240Z AUTO 36003KT 7SM CLR 29/22 A3003 RMK AO2=
KSVH 081240Z AUTO 00000KT 7SM CLR 27/19 A3006 RMK AO2
     T02660187=
KTDF 081242Z AUTO 00000KT 5SM CLR 27/21 A3002 RMK AO1=
KTPF 081240Z AUTO 05005KT 10SM CLR 26/23 A3002 RMK AO2=
KVDI 081242Z AUTO 25004KT 10SM CLR 27/21 A3002 RMK AO1=
KVJI 081243Z AUTO 00000KT 5SM HZ CLR 26/21 A3016 RMK AO2=
####018000360####
SPUS99 KWBC 081245
SPECI
PAKI 081240Z AUTO 36005KT 1 3/4SM BR CLR 07/07 A3000 RMK AO2 PWINO
     TSNO $=
KBML 081243Z AUTO 00000KT 5SM HZ SCT001 24/22 A3010 RMK AO2=
KGLR 081243Z AUTO 25006KT 4SM -RA BR FEW007 BKN055 OVC070 21/21
     A3003 RMK AO2 P0003=
KH08 081233Z 09020KT 2SM HZ VCSH OVC080 27/23 A2994 RMK 1/2SM VIS
     WEST SEAS 4-6=
####018000100####
SAMX55 MMIO 081300
METAR MMIO 081240Z 00000KT 8SM BKN012 OVC030 19/18 A3013 RMK
8/5// BINOVC= 
####018000096####
SAMX53 MMMZ 081300
METAR MMSD 081242Z 28005KT 12SM  SKC 22/14 A2976 RMK RTS=





TX_OPMET
####018000217####
SAUS99 KWBC 081245 RRA
METAR
KVUJ 081238Z AUTO 00000KT 10SM SCT090 28/21 A2999 RMK AO2=
KVVG 081235Z AUTO 00000KT 25/22 A3002 RMK AO2=
KW45 081240Z AUTO 00000KT 7SM CLR 27/20 A3006 RMK AO2
     T02710197=
####018000095####
SAUK51 EGGY 081150 CCB
METAR COR EGOV 081150Z 20015KT 9999 FEW016 BKN220 17/13 Q1017 NOSIG=
####018000121####
SAMX53 MMMZ 081300
METAR MMCN 081243Z 00000KT 10SM  BKN100 BKN200 27/20 A2973 
      RMK 8/055 RTS=





TX_OPMET
####018000117####
SAAG05 SABM 081200 CCA
METAR COR SAZS 081200Z  32017KT 30005000SE 3000W RA
BKN007 SCT040  03/02 Q1006 R29210094=
####018000119####
SAAG01 SABM 081200 CCA
METAR COR SAZS 081200Z  32017KT 30005000SE 3000W RA
BKN007 SCT040  03/02 Q1006 R29210094=
####018000084####
SPUS41 KWBC 081245
SPECI
KCRQ 081242Z AUTO 00000KT 6SM HZ OVC011 17/14 A2990=
####018000082####
SPCN46 CWAO 081243
SPECI CYSB 081243Z 19010KT 10SM OVC004 RMK SF8 CIG RAG=

####018000085####
SAUS41 KWBC 081200 RRG
METAR
KCTZ 081240Z AUTO 03004KT 5SM HZ CLR 28/22 A2997=
####018000083####
SAUS42 KWBC 081200 RRE
METAR
KBQK 081237Z AUTO 27006KT 10SM CLR 25/22 A3001=
####018000087####
SPUS51 KWBC 081245
SPECI
KACY 081243Z 10006KT 5SM -RA BKN013 BKN018 25/22 A3006=
####018000083####
SPUS51 KWBC 081245
SPECI
KPNE 081241Z 12004KT 2 1/2SM BR OVC006 26/23 A3006=
####018000083####
SAUS52 KWBC 081200 RRE
METAR
KAYS 081240Z AUTO 27004KT 10SM CLR 25/23 A3003=
