####018000073####
SAUS81 KWBC 080648
&EHA SA 0648  AMOS 62/57/3010/M PK WND 15 007

####018000143####
SAAK41 KNKA 080650
SPECI PACM 080648Z AUTO 15007KT 3/4SM +RA FEW007 SCT020 BKN029 13/09 
    A3009 RMK AO2 TSNO BKN V SCT RAB26 P0011 $=
####018000081####
SAAI41 FHAW 080650
METAR
FHAW 080650Z 12010KT 9999 BKN030 25/19 Q1015 BLU=
####018002977####
SAUS20 KNKA 080650
METAR K2G4 080645Z AUTO 02003KT 10SM SCT060 23/13 A3019 RMK
     AO1=
METAR K2W6 080647Z AUTO 00000KT 7SM CLR 23/22 A2999 RMK AO1=
METAR KCBE 080648Z AUTO 00000KT 7SM CLR 23/19 A3009 RMK AO1=
METAR KCCA 080655Z AUTO 00000KT 5SM  BR CLR 23/22 A3006 RMK AO2 =
METAR KCDN 080655Z AUTO 26004KT 10SM CLR A2999 RMK A02 P000 =
SPECI KCEC 080649Z AUTO 00000KT 2SM BR OVC001 11/09 A2998 RMK AO2=
METAR KCGE 080646Z AUTO 00000KT 7SM CLR 26/25 A2999 RMK AO1=
METAR KCGS 080650Z AUTO 00000KT 7SM CLR 26/23 A2999 RMK AO1=
METAR KCKI 080655Z AUTO 00000KT 10SM CLR 23/21 A2996 RMK AO2=
METAR KFDK 080645Z AUTO 00000KT 7SM CLR 25/21 A3003 RMK AO2=
METAR KDMW 080649Z AUTO 00000KT 7SM CLR 27/21 A3003 RMK AO2=
METAR KESN 080651Z AUTO 00000KT 5SM BR CLR 23/23 A3002 RMK AO2=
METAR KFME 080648Z AUTO 00000KT 4SM SCT110 21/21 A3001 RMK AO1=
METAR KIGQ 080640Z AUTO 00000KT 5SM BR CLR 24/22 A3003 RMK AO2 
     LTG DSNT SW=
SPECI KLEB 080649Z AUTO 00000KT 2 1/2SM BR CLR 22/21 A3004 RMK AO2=
METAR KLRO 080655Z AUTO 28004KT 10SM CLR 24/19 A2996 RMK AO2 =
METAR KMKS 080655Z AUTO 00000KT 10SM CLR 24/20 A2996 RMK AO2 TSNO=
METAR KMTN 080651Z AUTO 00000KT 7SM SCT080 27/24 A3000 RMK AO2=
METAR KRFI 080645Z AUTO 00000KT 7SM CLR 25/24 A3000 RMK AO2 P0001 
     T02450235=
METAR KRPH 080645Z AUTO 00000KT 10SM CLR 24/21 A2998 RMK AO2 
     T02380213=
METAR KRWV 080640Z AUTO 00000KT 10SM BKN008 24/24 A2999 RMK AO2=
METAR KRYW 080645Z AUTO 07003KT 10SM BKN012 BKN036 25/22 A3000 
     RMK AO2=
METAR KSAR 080645Z AUTO 00000KT 10SM CLR 25/23 A3005 RMK AO2=
METAR KSEP 080645Z AUTO 00000KT 10SM BKN026 BKN070 BKN090 23/20 
     A3002 RMK AO1=
METAR KSLO 080640Z AUTO 20004KT 10SM SCT120 25/22 A3005 RMK AO2 
     T02480217=
METAR KSLR 080642Z AUTO 00000KT 10SM CLR 26/23 A3003 RMK AO2 
     T02550230=
METAR KSNK 080646Z AUTO 10004KT 10SM CLR 21/20 A3007 RMK AO2 
     T02080197=
METAR KSOA 080640Z AUTO 20003KT 10SM VCTS 24/21 A3008 RMK AO2 LTG 
     DSNT SE AND S=
METAR KSWW 080645Z AUTO 13007KT 10SM CLR 22/21 A3007 RMK AO1 
     T02190210=
METAR KT65 080645Z AUTO 01003KT 10SM CLR 26/25 A2982 RMK AO2 
     T02630253=
METAR KT82 080645Z AUTO 00000KT BKN012 BKN017 OVC035 24/23 A3001 
     RMK AO1 T02410226=
METAR KTAZ 080645Z AUTO 00000KT 10SM CLR 24/23 A3003 RMK AO2 LTG 
     DSNT NE AND W=
METAR KTFP 080645Z AUTO 10003KT 10SM SCT021 SCT075 SCT080 26/25 
     A2984 RMK AO2 LTG DSNT N AND NE T02620247=
METAR KTIP 080645Z AUTO 29004KT 7SM -TSRA SCT050 BKN070 BKN095 
     24/23 A3006 RMK AO2 LTG DSNT N T02400228=
SPECI KTOP 080649Z AUTO 08005KT 2 1/2SM +RA BR FEW005 OVC011 22/21 
    A3009 RMK AO2 P0057=
METAR KTYQ 080645Z AUTO 00000KT 7SM CLR 21/20 A3008 RMK AO2 LTG 
     DSNT W=
METAR KUVA 080645Z AUTO 05003KT 10SM CLR 24/22 A2994 RMK AO2 
     T02410224=
METAR KVYS 080645Z AUTO 00000KT 7SM CLR 23/21 A3003 RMK AO2 LTG 
     DSNT SE P0001 T02300214=
####018000315####
SAUS20 KNKA 080650
METAR KW29 080648Z AUTO 00000KT 7SM SCT080 BKN120 25/22 A2998 RMK
     AO1=
METAR KXBP 080645Z AUTO 14003KT 10SM SCT041 SCT047 25/22 A3000 
     RMK AO2 T02480223=
SPECI PACM 080648Z AUTO 15007KT 3/4SM +RA FEW007 SCT020 BKN029 13/09 
    A3009 RMK AO2 TSNO BKN V SCT RAB26 P0011 $=
####018000081####
SRPR30 KWAL 080650
CE2D864E 189065036bB1r@IK@IL@IL@IM@IM@IN@IN@IOJ 44+0NN 161E####018000098####
SAUS44 KEWX 080650
MTRATT
SPECI KATT 080649Z AUTO VRB03KT 10SM OVC013 26/23 A2997 RMK AO2 $
####018000479####
SPUS99 KWBC 080651
SPECI
PACM 080648Z AUTO 15007KT 3/4SM +RA FEW007 SCT020 BKN029 13/09
     A3009 RMK AO2 TSNO BKN V SCT RAB26 P0011 $=
KCEC 080649Z AUTO 00000KT 2SM BR OVC001 11/09 A2998 RMK AO2=
KLEB 080649Z AUTO 00000KT 2 1/2SM BR CLR 22/21 A3004 RMK AO2=
KTOP 080649Z AUTO 08005KT 2 1/2SM +RA BR FEW005 OVC011 22/21 A3009
     RMK AO2 P0057=
PACM 080648Z AUTO 15007KT 3/4SM +RA FEW007 SCT020 BKN029 13/09
     A3009 RMK AO2 TSNO BKN V SCT RAB26 P0011 $=
####018002669####
SAUS99 KWBC 080651
METAR
K2G4 080645Z AUTO 02003KT 10SM SCT060 23/13 A3019 RMK AO1=
K2W6 080647Z AUTO 00000KT 7SM CLR 23/22 A2999 RMK AO1=
KCBE 080648Z AUTO 00000KT 7SM CLR 23/19 A3009 RMK AO1=
KCCA 080655Z AUTO 00000KT 5SM BR CLR 23/22 A3006 RMK AO2=
KCDN 080655Z AUTO 26004KT 10SM CLR A2999 RMK A02 P000=
KCGE 080646Z AUTO 00000KT 7SM CLR 26/25 A2999 RMK AO1=
KCGS 080650Z AUTO 00000KT 7SM CLR 26/23 A2999 RMK AO1=
KCKI 080655Z AUTO 00000KT 10SM CLR 23/21 A2996 RMK AO2=
KFDK 080645Z AUTO 00000KT 7SM CLR 25/21 A3003 RMK AO2=
KDMW 080649Z AUTO 00000KT 7SM CLR 27/21 A3003 RMK AO2=
KESN 080651Z AUTO 00000KT 5SM BR CLR 23/23 A3002 RMK AO2=
KFME 080648Z AUTO 00000KT 4SM SCT110 21/21 A3001 RMK AO1=
KIGQ 080640Z AUTO 00000KT 5SM BR CLR 24/22 A3003 RMK AO2 LTG DSNT
     SW=
KLRO 080655Z AUTO 28004KT 10SM CLR 24/19 A2996 RMK AO2=
KMKS 080655Z AUTO 00000KT 10SM CLR 24/20 A2996 RMK AO2 TSNO=
KMTN 080651Z AUTO 00000KT 7SM SCT080 27/24 A3000 RMK AO2=
KRFI 080645Z AUTO 00000KT 7SM CLR 25/24 A3000 RMK AO2 P0001
     T02450235=
KRPH 080645Z AUTO 00000KT 10SM CLR 24/21 A2998 RMK AO2
     T02380213=
KRWV 080640Z AUTO 00000KT 10SM BKN008 24/24 A2999 RMK AO2=
KRYW 080645Z AUTO 07003KT 10SM BKN012 BKN036 25/22 A3000 RMK
     AO2=
KSAR 080645Z AUTO 00000KT 10SM CLR 25/23 A3005 RMK AO2=
KSEP 080645Z AUTO 00000KT 10SM BKN026 BKN070 BKN090 23/20 A3002
     RMK AO1=
KSLO 080640Z AUTO 20004KT 10SM SCT120 25/22 A3005 RMK AO2
     T02480217=
KSLR 080642Z AUTO 00000KT 10SM CLR 26/23 A3003 RMK AO2
     T02550230=
KSNK 080646Z AUTO 10004KT 10SM CLR 21/20 A3007 RMK AO2
     T02080197=
KSOA 080640Z AUTO 20003KT 10SM VCTS 24/21 A3008 RMK AO2 LTG DSNT
     SE AND S=
KSWW 080645Z AUTO 13007KT 10SM CLR 22/21 A3007 RMK AO1
     T02190210=
KT65 080645Z AUTO 01003KT 10SM CLR 26/25 A2982 RMK AO2
     T02630253=
KT82 080645Z AUTO 00000KT BKN012 BKN017 OVC035 24/23 A3001 RMK AO1
     T02410226=
KTAZ 080645Z AUTO 00000KT 10SM CLR 24/23 A3003 RMK AO2 LTG DSNT NE
     AND W=
KTFP 080645Z AUTO 10003KT 10SM SCT021 SCT075 SCT080 26/25 A2984
     RMK AO2 LTG DSNT N AND NE T02620247=
KTIP 080645Z AUTO 29004KT 7SM -TSRA SCT050 BKN070 BKN095 24/23
     A3006 RMK AO2 LTG DSNT N T02400228=
KTYQ 080645Z AUTO 00000KT 7SM CLR 21/20 A3008 RMK AO2 LTG DSNT
     W=
KUVA 080645Z AUTO 05003KT 10SM CLR 24/22 A2994 RMK AO2
     T02410224=
KVYS 080645Z AUTO 00000KT 7SM CLR 23/21 A3003 RMK AO2 LTG DSNT SE
     P0001 T02300214=
KW29 080648Z AUTO 00000KT 7SM SCT080 BKN120 25/22 A2998 RMK
     AO1=
KXBP 080645Z AUTO 14003KT 10SM SCT041 SCT047 25/22 A3000 RMK AO2
     T02480223=
####018000088####
SALV31 EVRA 080650
METAR EVRA 080650Z 32010KT 280V340 9999 OVC005 17/17 Q1014 NOSIG=
####018000097####
SAEO31 EETN 080650
METAR EETN 080650Z 31007KT 280V340 9999 FEW007 SCT011 21/18 Q1014 
NOSIG=
####018000075####
SALT34 EYVI 080650
METAR EYSA 080650Z 31010KT 9999 -RA NSC 16/14 Q1015=
####018000083####
SALT32 EYVI 080650
METAR EYKA 080650Z 28007KT 250V330 9999 -RA NSC 17/15 Q1015=
####018000182####
SPAU31 YBBN 080650
SPECI YPPH 080648Z 35016KT 4000 SHRA SCT018 BKN065 FEW022CB 16/14
Q0999
FM0648 33018G28KT 9999 -SHRA BKN020
INTER 0648/0948 27025G35KT 3000 +SHRA BKN010=
####018000078####
SAUS31 KWBC 080600 RRD
METAR
KSWF 080645Z 00000KT 10SM SKC 25/22 A3006=
####018000088####
SAET20 HAAB 080700
METAR HAAB 080700Z 21004KT 9999 FEW005 SCT025 FEW080 17/13 Q1027=
####018000100####
SALT31 EYVI 080650
METAR EYVI 080650Z 27006KT 2600 SHRA BKN010CB OVC030 15/14 Q1014
     NOSIG=
####018000115####
SAKA31 PTRO 080700
METAR PTRO 080650Z 30003KT 15SM SCT009 SCT016CB BKN120 BKN300 28/25 
A2982 RMK CB VC ALQDS
####018000082####
SAUS41 KWBC 080600 RRI
METAR
KFDK 080645Z AUTO 00000KT 7SM CLR 25/21 A3003=
####018000083####
SAUS42 KWBC 080600 RRH
METAR
KGLE 080646Z AUTO 00000KT 10SM CLR 25/23 A3002=
####018000127####
SAUS43 KLSX 080650
MTRCOU
SPECI KCOU 080649Z AUTO 12004KT 10SM -RA FEW001 BKN030 23/22 A3005 
RMK AO2 RAB34 P0000 TSNO
####018000092####
SAET20 HAAB 080700
METAR HAAB 080700Z 21004KT 9999 FEW005 SCT025 FEW080 17/13 Q1027=

####018001383####
SAUS43 KWBC 080600 RRL
METAR
K1H2 080645Z AUTO 00000KT 7SM TS SCT120 25/24 A3004=
KAAA 080643Z AUTO 00000KT 4SM BR BKN070 BKN080 OVC100 23/22
     A3003=
KC09 080644Z AUTO 00000KT 4SM BR SCT095 BKN120 21/21 A3004=
KC75 080643Z AUTO 00000KT 5SM -DZ SCT080 SCT100 23/23 A3003=
KDKB 080641Z AUTO 00000KT 5SM -DZ BKN017 OVC090 22/21 A3005=
KDNV 080645Z AUTO 00000KT 7SM CLR 23/20 A3001=
KENL 080644Z AUTO 00000KT 10SM SCT100 24/16 A3005=
KFEP 080645Z AUTO 00000KT 4SM RA SCT012 BKN031 OVC039 24/22
     A3003=
KFOA 080645Z AUTO 00000KT 7SM CLR 26/26 A3005=
KFWC 080645Z AUTO 00000KT 7SM BKN110 24/23 A3005=
KGBG 080645Z AUTO 20005KT 10SM BKN008 OVC015 23/22 A3002=
KHSB 080645Z AUTO 00000KT 7SM CLR 23/21 A3005=
KIJX 080645Z AUTO 00000KT 5SM VCTS BR CLR 24/23 A3006=
KIKK 080645Z AUTO 00000KT 4SM VCTSHZ SCT060 26/23 A3004=
KJOT 080646Z AUTO 00000KT 7SM CLR 23/22 A3004=
KLOT 080642Z AUTO 29003KT 7SM SCT031 SCT043 SCT050 23/22 A3004=
KMQB 080645Z AUTO 22004KT 10SM OVC008 23/23 A3005=
KMWA 080645Z AUTO 00000KT 10SM CLR 25/24 A3006=
KOLY 080643Z AUTO 00000KT 7SM CLR 24/23 A3004=
KPNT 080645Z AUTO 00000KT 4SM BR SCT028 BKN040 OVC100 23/22
     A3004=
KPPQ 080645Z AUTO 13003KT 5SM BR SCT001 SCT032 BKN060 23/22
     A3005=
KPRG 080645Z AUTO 00000KT 5SM BR SCT110 22/21 A3005=
KSLO 080641Z AUTO 20004KT 10SM SCT120 24/22 A3005=
####018000199####
SAUS44 KWBC 080600 RRG
METAR
K11R 080644Z AUTO 07005KT 10SM CLR 25/24 A2995=
KBPG 080645Z AUTO 08008KT 10SM BKN120 22/20 A3009=
KBYY 080646Z AUTO 08006KT 7SM -RA SCT070 OVC080 27/26 A2989=
####018000082####
SAUS51 KWBC 080600 RRG
METAR
KCBE 080648Z AUTO 00000KT 7SM CLR 23/19 A3009=
####018000083####
SAUS53 KWBC 080600 RRM
METAR
KLNC 080645Z AUTO 00000KT 10SM CLR 24/24 A3000=
####018000089####
SAET20 HAAB 080700
METAR HAAB 080700Z 21004KT 9999 FEW005 SCT025 FEW080 17/13 Q1027=
####018000125####
SAUS54 KWBC 080600 RRH
METAR
KIGM 080648Z AUTO 13009KT 10SM CLR 23/M03 A2994=
KJDN 080648Z AUTO 28003KT 12/09 A3018=
####018000089####
SALV31 EVRA 080650
METAR EVRA 080650Z 32010KT 280V340 9999 OVC005 17/17 Q1014 NOSIG=
####018000084####
SALT32 EYVI 080650
METAR EYKA 080650Z 28007KT 250V330 9999 -RA NSC 17/15 Q1015=
####018000076####
SALT34 EYVI 080650
METAR EYSA 080650Z 31010KT 9999 -RA NSC 16/14 Q1015=
####018000099####
SAEO31 EETN 080650
METAR EETN 080650Z 31007KT 280V340 9999 FEW007 SCT011 21/18 Q1014 
NOSIG=
####018000075####
SAEO32 EETN 080650
METAR EETU 080650Z VRB02KT 9999 BKN012 23/20 Q1013=
####018000133####
SAMP31 LMMM 080700
METAR HLLT NIL=
METAR HLLB NIL=
METAR LMML 080645Z 34004KT 260V060 7000 FEW010 25/21 Q1018 BECMG 9999
=
####018000083####
SAEO32 EETN 080650
METAR EEPU 080650Z 32004KT 290V350 9999 FEW008 21/18 Q1014=
####018000082####
SPUS81 KWBC 080651
SPECI
KATT 080649Z AUTO VRB03KT 10SM OVC013 26/23 A2997=
####018000142####
SAUS73 KWBC 080600 RRK
METAR
KALN 080643Z AUTO 13003KT 10SM CLR 25/24 A3003=
KIKK 080645Z AUTO 00000KT 4SM VCTSHZ SCT060 26/23 A3004=
####018000075####
SACH01 SCFA 080700
METAR SCFA 080700Z 00000KT 9999 OVC015 13/10 Q1016=
####018000512####
SPNA14 KAWN 080651 RRG
SPECI KNEL 080643Z AUTO 00000KT 4SM HZ SCT004 OVC110 23/21 A3001 RMK
      AO2 $=
SPECI KNSE 080641Z AUTO 00000KT 1 3/4SM BR CLR 23/22 A3003 RMK AO2
      $=
SPECI KSLI 080647Z AUTO 00000KT 10SM BKN015 15/13 A2992 RMK AO2 BKN
      V SCT SLP132=
SPECI KVAD 080646Z AUTO 00000KT 8SM R18/5500VP6000FT CLR 23/20 A3003
      RMK AO2 SLP167 $=
SPECI KWRI 080647Z AUTO 13004KT 2 1/2SM R18/4500V5000FT R24/2600V3000FT
      BR BKN003 24/23 A2999 RMK AO2 BKN V SCT SLP157 $=
####018000462####
SPNA35 KAWN 080651 RRG
SPECI KDOV 080648Z AUTO 13004KT 4SM BR FEW003 SCT110 24/24 A2998 RMK
      AO2 SLP154=
SPECI KHST 080646Z AUTO 05006KT 10SM BKN020 BKN040 27/25 A2994 RMK
      AO2 DZB0629E0635 BKN020 V SCT SLP140 $=
SPECI KVAD 080646Z AUTO 00000KT 8SM R18/5500VP6000FT CLR 23/20 A3003
      RMK AO2 SLP167 $=
SPECI KWRI 080647Z AUTO 13004KT 2 1/2SM R18/4500V5000FT R24/2600V3000FT
      BR BKN003 24/23 A2999 RMK AO2 BKN V SCT SLP157 $=
####018000072####
SAAK17 KAWN 080700
PATC SA 0655 AWOS CLR BLO 120 10 54/44/0000/015=
####018000604####
SAXX70 KAWN 080700
METAR KQEI 080650Z AUTO 23003KT 7SM CLR 28/16 A2992 RMK A02=
METAR KQEN 080650Z AUTO 06005KT M1/4SM BR VV001 18/16 A3039 RMK A02=
METAR KQEP 080650Z AUTO 20001KT 7SM FEW050 29/16 A2985 RMK A02=
METAR KQER 080650Z AUTO 25002KT 7SM CLR 26/17 A2986 RMK A02=
METAR KQES 080650Z AUTO 30003KT 7SM CLR 22/17 A2984 RMK A02=
METAR KQEY 080650Z AUTO 33007KT 7SM CLR 28/16 A2958 RMK A02=
METAR KQFV 080650Z AUTO 19001KT 7SM FEW045 27/16 A2999 RMK A02=
METAR KQTU 080655Z 33009KT 9999 CLR 37/06 A2968 RMK SLP031=
METAR KQEV 080700Z AUTO 34001KT 7SM SCT090 29/18 A2977 RMK A02=
####018000089####
SPMC32 GMMC 080600 RRA
SPECI NR01
GMFM 080640Z 00000KT 3000 BR SKC 21/19 Q1017 M2=
####018000069####
SALY31 HLLS 080700
METAR HLLS 080650Z 09018KT CAVOK 29/09 Q1017=
####018000278####
SPUS90 KWBC 080652
SPECI KNFE 080648Z AUTO 00000KT 1/4SM HZ VV008 24/22 A2995 RMK AO2
     $=
SPECI KATT 080649Z AUTO VRB03KT 10SM OVC013 26/23 A2997 RMK AO2
     $=
SPECI KCOU 080649Z AUTO 12004KT 10SM -RA FEW001 BKN030 23/22 A3005
     RMK AO2 RAB34 P0000 TSNO=
####018000359####
SAUS90 KWBC 080700
METAR KIGM 080648Z AUTO 13009KT 10SM CLR 23/M03 A2994 RMK AO2
     SLP062 T02331028 403670178 TSNO=
METAR MYEG 080659Z AUTO 09004KT 10SM SCT024 SCT029 SCT037 25/23
     A2993 RMK AO2 LTG DSNT W=
METAR KFDK 080645Z AUTO 00000KT 7SM CLR 25/21 A3003=
METAR KEHA 080648Z AUTO 30010KT 17/14 RMK AO1 PK WND 15 007
     T01670139=
####018000194####
SAAK41 KNKA 080651
METAR PAHZ 080650Z 00000KT 10SM -RA BR OVC050 11/10 A3010 RMK LAST
     NOSPECI=
METAR PAWR 080651Z 07003KT 2SM -RA BR OVC007 12/12 A3009 RMK SLP189 
     NOSPECI =
####018000521####
SAUS20 KNKA 080651
SPECI KAKO 080650Z AUTO 12008KT 10SM BKN003 OVC008 14/14 A3031 RMK 
    AO2 CIG 002V007 401830128 TSNO=
METAR KBNL 080655Z AUTO 27005KT 10SM CLR 24/19 A3001 RMK AO2 =
METAR KCQW 080655Z AUTO 28004KT 7SM CLR 25/18 A2997 RMK AO2 =
SPECI KHIB 080650Z AUTO 00000KT 1/2SM FG CLR 11/10 A3006 RMK AO2=
METAR KLKR 080655Z AUTO 00000KT 9SM CLR 19/19 A3000 RMK AO2 =
METAR KOLV 080655Z AUTO 00000KT 9SM CLR 24/24 A3006 RMK A01 P000 =
METAR KONM 080647Z AUTO 20/14 RMK AO2 T02040136 PWINO TSNO=
####018000096####
SAUS98 KWBC 080652
METAR KEHA 080648Z AUTO 30010KT 17/14 RMK AO1 PK WND 15 007
T01670139=
####018000193####
SPUS99 KWBC 080652
SPECI
KAKO 080650Z AUTO 12008KT 10SM BKN003 OVC008 14/14 A3031 RMK AO2
     CIG 002V007 401830128 TSNO=
KHIB 080650Z AUTO 00000KT 1/2SM FG CLR 11/10 A3006 RMK AO2=
####018000478####
SAUS99 KWBC 080652
METAR
PAHZ 080650Z 00000KT 10SM -RA BR OVC050 11/10 A3010 RMK LAST
     NOSPECI=
PAWR 080651Z 07003KT 2SM -RA BR OVC007 12/12 A3009 RMK SLP189
     NOSPECI=
KBNL 080655Z AUTO 27005KT 10SM CLR 24/19 A3001 RMK AO2=
KCQW 080655Z AUTO 28004KT 7SM CLR 25/18 A2997 RMK AO2=
KLKR 080655Z AUTO 00000KT 9SM CLR 19/19 A3000 RMK AO2=
KOLV 080655Z AUTO 00000KT 9SM CLR 24/24 A3006 RMK A01 P000=
KONM 080647Z AUTO 20/14 RMK AO2 T02040136 PWINO TSNO=
####018000112####
SAKA31 PTYA 080700
METAR PTYA 080650Z 10010KT 12SM SCT017 SCT040 BKN300 31/24 A2981 RMK
 SLP095 T03130244=
####018000081####
SAAZ61 LPLA 080700
METAR LPLA 080700Z 17003KT 9999 FEW018 BKN028 19/18 Q1024=
####018000079####
SAAI41 FHAW 080650
METAR
FHAW 080650Z 12010KT 9999 BKN030 25/19 Q1015 BLU=
####018000074####
SABZ21 SBAR 080700
METAR SBAR 080700Z 25003KT 9999 SCT015 22/22 Q1015=
####018000098####
SAPR01 SPIM 080700
METAR
SPIM 080700Z 00000KT 7000 SCT010 OVC022 16/14 Q1014 NOSIG RMK PP000=
####018000213####
SAPQ50 KWBC 080700
METAR
PTRO 080650Z 30003KT 15SM SCT009 SCT016CB BKN120 BKN300 28/25
     A2982 RMK CB VC ALQDS=
PTYA 080650Z 10010KT 12SM SCT017 SCT040 BKN300 31/24 A2981 RMK
     SLP095 T03130244=
####018002288####
SAUS70 KWBC 080700
METAR
K2G4 080645Z AUTO 02003KT 10SM SCT060 23/13 A3019 RMK AO1=
K2W6 080647Z AUTO 00000KT 7SM CLR 23/22 A2999 RMK AO1=
KCCA 080655Z AUTO 00000KT 5SM BR CLR 23/22 A3006 RMK AO2=
KCDN 080655Z AUTO 26004KT 10SM CLR A2999 RMK A02 P000=
KCGS 080650Z AUTO 00000KT 7SM CLR 26/23 A2999 RMK AO1=
KCKI 080655Z AUTO 00000KT 10SM CLR 23/21 A2996 RMK AO2=
KFDK 080645Z AUTO 00000KT 7SM CLR 25/21 A3003 RMK AO2=
KLRO 080655Z AUTO 28004KT 10SM CLR 24/19 A2996 RMK AO2=
KMKS 080655Z AUTO 00000KT 10SM CLR 24/20 A2996 RMK AO2 TSNO=
KMTN 080651Z AUTO 00000KT 7SM SCT080 27/24 A3000 RMK AO2=
KRPH 080645Z AUTO 00000KT 10SM CLR 24/21 A2998 RMK AO2
     T02380213=
KRYW 080645Z AUTO 07003KT 10SM BKN012 BKN036 25/22 A3000 RMK
     AO2=
KSAR 080645Z AUTO 00000KT 10SM CLR 25/23 A3005 RMK AO2=
KSNK 080646Z AUTO 10004KT 10SM CLR 21/20 A3007 RMK AO2
     T02080197=
KSWW 080645Z AUTO 13007KT 10SM CLR 22/21 A3007 RMK AO1
     T02190210=
KT65 080645Z AUTO 01003KT 10SM CLR 26/25 A2982 RMK AO2
     T02630253=
KT82 080645Z AUTO 00000KT BKN012 BKN017 OVC035 24/23 A3001 RMK AO1
     T02410226=
KTAZ 080645Z AUTO 00000KT 10SM CLR 24/23 A3003 RMK AO2 LTG DSNT NE
     AND W=
KTFP 080645Z AUTO 10003KT 10SM SCT021 SCT075 SCT080 26/25 A2984
     RMK AO2 LTG DSNT N AND NE T02620247=
KTIP 080645Z AUTO 29004KT 7SM -TSRA SCT050 BKN070 BKN095 24/23
     A3006 RMK AO2 LTG DSNT N T02400228=
KTYQ 080645Z AUTO 00000KT 7SM CLR 21/20 A3008 RMK AO2 LTG DSNT
     W=
KUVA 080645Z AUTO 05003KT 10SM CLR 24/22 A2994 RMK AO2
     T02410224=
KVYS 080645Z AUTO 00000KT 7SM CLR 23/21 A3003 RMK AO2 LTG DSNT SE
     P0001 T02300214=
KW29 080648Z AUTO 00000KT 7SM SCT080 BKN120 25/22 A2998 RMK
     AO1=
KXBP 080645Z AUTO 14003KT 10SM SCT041 SCT047 25/22 A3000 RMK AO2
     T02480223=
PAHZ 080650Z 00000KT 10SM -RA BR OVC050 11/10 A3010 RMK LAST
     NOSPECI=
PAWR 080651Z 07003KT 2SM -RA BR OVC007 12/12 A3009 RMK SLP189
     NOSPECI=
KBNL 080655Z AUTO 27005KT 10SM CLR 24/19 A3001 RMK AO2=
KCQW 080655Z AUTO 28004KT 7SM CLR 25/18 A2997 RMK AO2=
KLKR 080655Z AUTO 00000KT 9SM CLR 19/19 A3000 RMK AO2=
KOLV 080655Z AUTO 00000KT 9SM CLR 24/24 A3006 RMK A01 P000=
KONM 080647Z AUTO 20/14 RMK AO2 T02040136 PWINO TSNO=
####018000709####
SPUS70 KWBC 080652
SPECI
KNFE 080648Z AUTO 00000KT 1/4SM HZ VV008 24/22 A2995 RMK AO2 $=
PACM 080648Z AUTO 15007KT 3/4SM +RA FEW007 SCT020 BKN029 13/09
     A3009 RMK AO2 TSNO BKN V SCT RAB26 P0011 $=
KCEC 080649Z AUTO 00000KT 2SM BR OVC001 11/09 A2998 RMK AO2=
KLEB 080649Z AUTO 00000KT 2 1/2SM BR CLR 22/21 A3004 RMK AO2=
KTOP 080649Z AUTO 08005KT 2 1/2SM +RA BR FEW005 OVC011 22/21 A3009
     RMK AO2 P0057=
PACM 080648Z AUTO 15007KT 3/4SM +RA FEW007 SCT020 BKN029 13/09
     A3009 RMK AO2 TSNO BKN V SCT RAB26 P0011 $=
KAKO 080650Z AUTO 12008KT 10SM BKN003 OVC008 14/14 A3031 RMK AO2
     CIG 002V007 401830128 TSNO=
KHIB 080650Z AUTO 00000KT 1/2SM FG CLR 11/10 A3006 RMK AO2=
####018000113####
SAUS80 KWBC 080652
METAR
KSOA 080640Z AUTO 20003KT 10SM VCTS 24/21 A3008 RMK AO2 LTG DSNT
     SE AND S=
####018000322####
SAUS70 KWBC 080652
METAR
KIGQ 080640Z AUTO 00000KT 5SM BR CLR 24/22 A3003 RMK AO2 LTG DSNT
     SW=
KRWV 080640Z AUTO 00000KT 10SM BKN008 24/24 A2999 RMK AO2=
KSLO 080640Z AUTO 20004KT 10SM SCT120 25/22 A3005 RMK AO2
     T02480217=
KSLR 080642Z AUTO 00000KT 10SM CLR 26/23 A3003 RMK AO2
     T02550230=
####018000480####
SAUS80 KWBC 080700
METAR
KIGM 080648Z AUTO 13009KT 10SM CLR 23/M03 A2994 RMK AO2 SLP062
     T02331028 403670178 TSNO=
KCBE 080648Z AUTO 00000KT 7SM CLR 23/19 A3009 RMK AO1=
KESN 080651Z AUTO 00000KT 5SM BR CLR 23/23 A3002 RMK AO2=
KRFI 080645Z AUTO 00000KT 7SM CLR 25/24 A3000 RMK AO2 P0001
     T02450235=
KSEP 080645Z AUTO 00000KT 10SM BKN026 BKN070 BKN090 23/20 A3002
     RMK AO1=
KEHA 080648Z AUTO 30010KT 17/14 RMK AO1 PK WND 15 007
     T01670139=
####018000188####
SPUS80 KWBC 080652
SPECI
KATT 080649Z AUTO VRB03KT 10SM OVC013 26/23 A2997 RMK AO2 $=
KCOU 080649Z AUTO 12004KT 10SM -RA FEW001 BKN030 23/22 A3005 RMK
     AO2 RAB34 P0000 TSNO=
####018000082####
SAEE31 KWBC 080630 RRB
METAR
EYSA 080650Z 31010KT 9999 -RA NSC 16/14 Q1015=
####018000083####
SACN97 CWAO 080600 RRF
XLL SA 0600 AUTO8 M M M 162/18/15/0305/M/ 3016 78MM=

####018000182####
SACN60 CWAO 080600 RRD
PHE SA 0600 AUTO8 M M M M/13/12/MMMM/M/0010 M 76MM=
PRD SA 0600 AUTO8 M M M M/15/09/1807/M/ M 82MM=
PSA SA 0600 AUTO8 M M M M/12/10/MMMM/M/ M 91MM=

####018000083####
SACN94 CWAO 080600 RRG
WSQ SA 0600 AUTO8 M M M 096/06/03/2508/M/ 1008 62MM=

####018000083####
SACN88 CWAO 080600 RRH
WZN SA 0600 AUTO8 M M M 205/13/M/0000/M/M 5000 5MMM=

####018000083####
SACN96 CWAO 080600 RRF
XND SA 0600 AUTO8 M M M 228/10/07/MM02/M/ 0000 64MM=

####018000382####
SACN59 CWAO 080600 RRH
NLB SA 0600 AUTO8 M M M M/12/10/2602/M/ M 11MM=
NLD SA 0600 AUTO8 M M M M/12/10/3006/M/0004 M 66MM=
NNR SA 0600 AUTO8 M M M M/09/07/2603/M/ M 38MM=
NTK SA 0600 AUTO8 M M M M/15/11/2001/M/ M 28MM=
PCM SA 0600 AUTO8 M M M M/11/09/MMMM/M/ M 84MM=
PQU SA 0600 AUTO8 M M M M/15/11/1802/M/ M 66MM=
PTR SA 0600 AUTO8 M M M M/14/11/MMMM/M/ M 80MM=

####018000084####
SACN89 CWAO 080600 RRE
WDT SA 0600 AUTO7 M M M 163/19/18/3203/M/M 3004 84MM=

####018000107####
SAMM31 KWBC 080630 RRA
METAR
LMML 080645Z 34004KT 260V060 7000 FEW010 25/21 Q1018 BECMG
     9999=
####018000089####
SAXX99 KWBC 080600 CCE
METAR
FYOA 080600Z AUTO 05005KT //// // ////// 11/03 Q1023=
####018000122####
SPUS41 KWBC 080652
SPECI
KWRI 080647Z AUTO 13004KT 2 1/2SM R18/4500V5000FT R24/2600V3000FT
BR BKN003 24/23 A2999=
####018000099####
SPUS52 KWBC 080652
SPECI
KTOP 080649Z AUTO 08005KT 2 1/2SM +RA BR FEW005 OVC011 22/21 A3009=
####018000093####
SPUS53 KWBC 080652
SPECI
KCOU 080649Z AUTO 12004KT 10SM -RA FEW001 BKN030 23/22 A3005=
####018000111####
SAUS46 KSGX 080652
MTRSAN
METAR KSAN 080651Z 31004KT 10SM OVC016 17/13 A2993 RMK AO2 SLP134 
T01720133
####018000365####
SAUS20 KNKA 080652
METAR KACT 080651Z 15005KT 10SM SCT020 BKN025 BKN032 27/23 A2998 RMK 
    AO2 SLP144 T02670228=
SPECI KNSE 080641Z AUTO 00000KT 1 3/4SM BR CLR 23/22 A3003 RMK AO2
      $=
SPECI KTXK 080651Z AUTO 00000KT 10SM SCT007 23/23 A3003 RMK AO2=
SPECI KVAD 080646Z AUTO 00000KT 8SM R18/5500VP6000FT CLR 23/20 A3003
      RMK AO2 SLP167 $=
####018000075####
SAGI32 EGRR 080650
METAR LXGB 080650Z 10015KT CAVOK 25/24 Q1015 NOSIG=
####018000131####
SAMP31 LMMM 080700
METAR HLLT NIL=
METAR HLLB NIL=
METAR LMML 080645Z 34004KT 260V060 7000 FEW010 25/21 Q1018 BECMG 9999
 =
####018000102####
SALT31 EYVI 080650
METAR EYVI 080650Z 27006KT 2600 SHRA BKN010CB OVC030 15/14 Q1014
     NOSIG=
####018000093####
SPUS73 KWBC 080652
SPECI
KCOU 080649Z AUTO 12004KT 10SM -RA FEW001 BKN030 23/22 A3005=
####018000084####
SPUS74 KWBC 080652
SPECI
KCEC 080649Z AUTO 00000KT 2SM BR OVC001 11/09 A2998=
####018000093####
SPUS81 KWBC 080652
SPECI
KCOU 080649Z AUTO 12004KT 10SM -RA FEW001 BKN030 23/22 A3005=
####018000080####
SPCN42 CWAO 080651
SPECI CYUA 080651Z AUTO 31017KT 9SM OVC005 05/ A3006=

####018000088####
SANA14 KAWN 080700
METAR MSLP 080650Z 02003KT 9999 FEW023 SCT050 25/23 Q1011 A2987=
####018000305####
SPUS17 KAWN 080652 RRE
SPECI KDOV 080648Z AUTO 13004KT 4SM BR FEW003 SCT110 24/24 A2998 RMK
      AO2 SLP154=
SPECI KHST 080646Z AUTO 05006KT 10SM BKN020 BKN040 27/25 A2994 RMK
      AO2 DZB0629E0635 BKN020 V SCT SLP140 $=
SPECI KNUQ 080645Z AUTO 02007KT 10SM OVC015 16/12 A2992 RMK AO2 TSNO=
####018000084####
SAXN17 KAWN 080600 RRK
METAR MMIO 080640Z 00000KT 10SM SKC 18/14 A3014 RMK HZY=
####018001519####
SPZZ40 KAWN 080652 RRK
SPECI CWZZ 080648Z AUTO ///// 9SM OVC024 10/ A2985=
SPECI CYMH 080647Z AUTO 21006KT 9SM OVC005 06/06 A3013=
SPECI CYPQ 080646Z AUTO ///// 1 1/8SM CLR 21/21 A3003 RMK VSBY VRBL
      0.3V7.0=
SPECI CYPQ 080647Z AUTO ///// 1SM CLR 21/21 A3003 RMK VSBY VRBL 0.3V7.0=
SPECI CYRT 080646Z 09013KT 3/8SM -RA FG VV001 RMK FG8=
SPECI CYVQ 080647Z 30002KT 30SM -SHRA BKN040 BKN080 BKN270 RMK SC6AC1CI1
      VIS W 3=
SPECI EGUN 080647Z AUTO 22009KT 9999 FEW006 BKN023 OVC028 17/17 A3006
      RMK AO2 RAE0607B0624E0647 SLP167=
SPECI KDOV 080648Z AUTO 13004KT 4SM BR FEW003 SCT110 24/24 A2998 RMK
      AO2 SLP154=
SPECI KHST 080646Z AUTO 05006KT 10SM BKN020 BKN040 27/25 A2994 RMK
      AO2 DZB0629E0635 BKN020 V SCT SLP140 $=
SPECI KNSE 080641Z AUTO 00000KT 1 3/4SM BR CLR 23/22 A3003 RMK AO2
      $=
SPECI KNUQ 080645Z AUTO 02007KT 10SM OVC015 16/12 A2992 RMK AO2 TSNO=
SPECI KSLI 080647Z AUTO 00000KT 10SM BKN015 15/13 A2992 RMK AO2 BKN
      V SCT SLP132=
SPECI KWRI 080647Z AUTO 13004KT 2 1/2SM R18/4500V5000FT R24/2600V3000FT
      BR BKN003 24/23 A2999 RMK AO2 BKN V SCT SLP157 $=
SPECI LECO 080648Z 26008KT 200V330 2000 TS SHRA FEW010 BKN012CB BKN016
      20/19 Q1018=
SPECI RJCC 080643Z 18008KT 8000 FEW003 BKN004 BKN005 19/17 Q1009 RMK
      2ST003 5ST004 7ST005 A2980=
SPECI YPPH 080648Z 35016KT 4000 SHRA SCT018 BKN065 FEW022CB 16/14 Q0999
      FM0648 33018G28KT 9999 -SHRA BKN020 INTER 0648/0948
      27025G35KT 3000 +SHRA BKN010=
####018000450####
SAZZ40 KAWN 080700 RRA
METAR KBLV 080655Z AUTO 00000KT 10SM FEW190 24/24 A3003 RMK AO2 SLP166
      T02430241=
METAR LLBG 080650Z 22004KT 9999 SCT030 28/20 Q1010 NOSIG=
METAR LLET 080650Z 02015KT CAVOK 33/11 Q1008=
METAR LLOV 080650Z 35004KT CAVOK 29/10 Q1011=
METAR LQTZ 080700Z VRB01KT 9999 FEW030 14/// Q1023=
METAR MPTO 080700Z 05005KT 9999 SCT018CB 26/24 Q1011=
METAR MSLP 080650Z 02003KT 9999 FEW023 SCT050 25/23 Q1011 A2987=
####018000088####
SAXX70 KAWN 080600 RRW
METAR KQFU 080630Z AUTO 09004KT 7SM CLR 27/17 A2989 RMK A02=
####018000100####
SAFK41 EGYP 080650
METAR EGYP 080650Z 01020KT 7000 -RA SCT010 BKN050 OVC090 04/03 Q0999
 GRN=
####018000104####
SAAK27 PADN 080650
METAR PAWI 080650Z 23013KT 10SM CLR 07/04 A3002 RMK VIA PHONE=
$$




####018000113####
SAUS44 KCRP 080652
MTRVCT
METAR KVCT 080651Z AUTO 04007KT 10SM CLR 26/25 A2989 RMK AO2 SLP120 
T02560250
####018000115####
SAUS43 KDTX 080652
MTRP58
METAR KP58 080651Z AUTO 22004KT 24/21 A3001 RMK AO2 SLP153 T02390211 
PWINO TSNO
####018000118####
SAUS41 KGYX 080652
MTRCON
METAR KCON 080651Z AUTO 00000KT 6SM BR BKN085 23/21 A3005 RMK AO2 
SLP175 T02280206
####018002960####
SAUS20 KNKA 080652
METAR KIDP 080650Z AUTO 36003KT 10SM SCT047 BKN060 21/20 A3005 
     RMK AO2=
METAR KILG 080651Z AUTO 12005KT 6SM HZ CLR 26/22 A3000 RMK AO2 
    SLP158 T02560222 $=
SPECI KITR 080651Z AUTO 03004KT 10SM FEW009 SCT015 OVC030 17/15 
    A3030 RMK AO2 402060139=
METAR KIZA 080649Z AUTO 00000KT 10SM OVC011 14/11 A2992 RMK AO2=
METAR KJFK 080651Z 00000KT 1/2SM R04R/P6000FT FG OVC003 24/23 A3002 
    RMK AO2 SLP166 T02440233 $=
METAR KJSV 080650Z AUTO 10003KT 10SM BKN070 23/23 A3003 RMK AO2 
     P0002=
METAR KLGA 080651Z 13005KT 6SM HZ FEW110 BKN250 27/23 A3001 RMK AO2 
    SLP162 T02670228=
METAR KLGU 080651Z AUTO 20004KT 10SM FEW110 16/07 A3012 RMK AO2 
    SLP153 T01610072 402780067=
METAR KLRU 080651Z AUTO 04008KT 10SM CLR 21/14 A3015 RMK AO2=
METAR KMDW 080651Z 26006KT 9SM FEW050 BKN095 OVC200 24/22 A3004 RMK 
    AO2 RAB00E35 SLP161 P0005 T02390217=
METAR KMPV 080651Z AUTO 00000KT 5SM BR CLR 21/19 A3010 RMK AO2 
    SLP186 T02110194=
SPECI KMVY 080651Z AUTO 15004KT 1/2SM R24/1800V5000FT FG VV001 21/19 
    A3006 RMK AO2=
METAR KMYL 080651Z AUTO 00000KT 10SM CLR 13/06 A3016 RMK AO2 SLP176 
    T01280061 402440050=
METAR KOKM 080651Z AUTO 06004KT 10SM BKN023 BKN049 BKN075 24/24 
     A3002 RMK AO1 LTG DSNT NE=
METAR KONP 080650Z AUTO 20009KT 2 1/2SM BR OVC002 11/10 A2998 RMK 
     AO1=
METAR KORD 080651Z 30004KT 10SM -TSRA BKN033CB OVC100 23/22 A3004 
    RMK AO2 TSB29 SLP166 OCNL LTGICCC OHD TS OHD MOV NE P0012 
    T02280217=
METAR KOXR 080651Z AUTO 32009G25KT 140V040 10SM OVC015 16/12 A2991 
    RMK AO2 SLP128 T01560122 $=
METAR KPHX 080651Z 00000KT 10SM FEW120 35/01 A2974 RMK AO2 SLP047 
    T03500011 404170283 $=
METAR KPIT 080651Z 00000KT 7SM CLR 23/18 A3008 RMK AO2 SLP183 
    T02280183=
METAR KPTS 080650Z AUTO 00000KT 10SM CLR 22/ A3004 RMK AO2 T0220=
SPECI KPUB 080651Z AUTO 00000KT 10SM BKN014 BKN065 15/14 A3032 RMK 
    AO2 402610139=
METAR KPWM 080651Z AUTO 00000KT 9SM OVC008 21/19 A3006 RMK AO2 
    SLP179 T02110194 $=
METAR KRDU 080651Z 00000KT 7SM FEW090 26/19 A2997 RMK AO2 SLP143 
    T02610189 $=
METAR KROW 080651Z AUTO 35007KT 10SM FEW038 BKN045 OVC100 20/15 
    A3018 RMK AO2 SLP156 T02000150 403110183 TSNO=
METAR KSJT 080651Z AUTO 05005KT 10SM -RA BKN035 22/19 A3003 RMK AO2 
    TSE17 SLP144 P0016 T02170194=
METAR KSLK 080651Z AUTO 00000KT 1 3/4SM BR CLR 18/17 A3009 RMK AO2 
    SLP176 T01830172=
METAR KSMO 080651Z AUTO 22003KT 10SM OVC011 17/13 A2991 RMK AO2 
    SLP129 T01670133=
METAR KSTL 080651Z 23004KT 10SM FEW027 SCT050TCU BKN075 BKN150 
    BKN250 27/23 A3004 RMK AO2 SLP157 TCU NW AND OHD T02720228=
METAR KTEB 080651Z 20004KT 5SM HZ CLR 26/22 A3000 RMK AO2 SLP158 
    T02560222=
METAR KVNY 080651Z AUTO 12003KT 8SM CLR 15/13 A2991 RMK AO2 SLP122 
    T01500128=
METAR KYNG 080651Z 00000KT 6SM BR HZ CLR 19/18 A3009 RMK AO2 SLP181 
    T01940178=
####018000083####
SAUS20 KNKA 080652
METAR PGWT 080651Z 08017KT 7SM FEW015 SCT100 30/25 A2984
=
####018002923####
SAUS20 KNKA 080652
METAR K1F0 080647Z AUTO 00000KT 10SM CLR 24/23 A2999 RMK AO2=
METAR K4O4 080648Z AUTO 09003KT 10SM SCT001 SCT006 SCT013 23/22 
     A3004 RMK AO2=
METAR KADH 080650Z AUTO 00000KT 7SM OVC004 23/22 A3002 RMK AO2=
METAR KADM 080650Z AUTO 00000KT 7SM SCT060 23/23 A3000 RMK AO2=
METAR KAHN 080651Z AUTO 29003KT 9SM CLR 22/19 A3004 RMK AO2 SLP163 
    T02220194 $=
METAR KALB 080651Z 00000KT 6SM HZ CLR 24/21 A3002 RMK AO2 SLP165 
    T02390206=
METAR KALM 080650Z AUTO 32005KT 10SM SCT100 21/14 A3016 RMK AO2=
METAR KASH 080651Z 00000KT 10SM CLR 25/22 A3005 RMK AO2 T02500216 
    SLP176=
METAR KATS 080650Z AUTO 36010G15KT 7SM -RA SCT027 BKN036 BKN075 
     20/17 A3016 RMK AO2=
METAR KAVX 080651Z AUTO 29003KT 1/2SM FG VV001 11/11 A2994 RMK AO2 
    SLP132 T01110111 TSNO=
METAR KAXX 080650Z AUTO 00000KT 10SM CLR 06/05 A3047 RMK AO2=
METAR KBAZ 080651Z AUTO 06006KT 10SM FEW015 BKN024 OVC039 26/23 
    A2994 RMK AO2 SLP129 T02560233=
METAR KBDL 080651Z 17007KT 7SM BKN110 25/21 A3003 RMK AO2 SLP166 
    T02500211=
METAR KBGD 080651Z AUTO 30005KT 9SM -RA BKN110 19/18 A3018 RMK AO2 
    LTG DSNT NE AND S SLP179 P0006 T01940183=
METAR KBKW 080651Z AUTO 00000KT 4SM BR CLR 21/18 A3017 RMK AO2 
    SLP173 T02060183 VISNO RWY19 $=
METAR KCHK 080651Z AUTO 00000KT 10SM BKN021 23/23 A3004 RMK AO2=
METAR KCLE 080651Z 00000KT 8SM CLR 23/18 A3008 RMK AO2 SLP179 
    T02330183 $=
METAR KCMH 080651Z 00000KT 9SM CLR 24/19 A3007 RMK AO2 SLP175 
    T02390189 $=
METAR KCQB 080650Z AUTO 03003KT 10SM 23/23 A3003 RMK AO2 TSNO=
METAR KCSG 080651Z 00000KT 10SM CLR 27/19 A3003 RMK AO2 SLP162 
    T02670194=
METAR KDAW 080651Z AUTO 00000KT 2 1/2SM BR OVC003 22/21 A3005 RMK 
    AO2 SLP172 T02170206 $=
METAR KDUA 080657Z AUTO 15006KT 10SM SCT065 BKN075 26/23 A3001 
     RMK AO2=
METAR KDUC 080652Z AUTO 03003KT 10SM CLR 23/22 A3003 RMK AO2=
METAR KEKN 080651Z AUTO 00000KT 3SM BR BKN080 18/17 A3016 RMK AO2 
    SLP198 T01780172 TSNO=
METAR KELP 080651Z 05009KT 10SM FEW060 SCT080 BKN110 26/14 A3010 RMK 
    AO2 SLP114 CB OCNL LTGIC DSNT N T02610139 403390211=
METAR KERI 080651Z 00000KT 9SM CLR 22/18 A3006 RMK AO2 SLP174 
    T02220183=
METAR KEWR 080651Z 00000KT 5SM BR SCT006 BKN090 BKN250 25/24 A3001 
    RMK AO2 SLP162 T02500244=
METAR KFET 080650Z AUTO 33004KT 10SM CLR 19/17 A3014 RMK AO2=
METAR KGCD 080650Z AUTO 14003KT 10SM CLR 20/05 A3010 RMK AO2 
     T02010046=
METAR KGCM 080655Z AUTO 22005KT 10SM VCTSRA SCT002 SCT022 22/22 
     A3006 RMK AO2 LTG DSNT SW P0003=
METAR KGMJ 080654Z AUTO 00000KT 26/26 A3003 RMK AO2 P0004 PWINO=
METAR KHDO 080651Z AUTO 07004KT 10SM CLR 25/23 A2996 RMK AO2 SLP127 
    T02500228=
METAR KHTS 080651Z 00000KT 2 1/2SM BR CLR 22/21 A3007 RMK AO2 SLP173 
    T02220206=
SPECI KICT 080651Z 01006KT 10SM BKN025 BKN070 BKN200 23/21 A3009 RMK 
    AO2 $=
####018000118####
SAUS44 KEWX 080652
MTRATT
METAR KATT 080651Z AUTO VRB03KT 10SM OVC013 26/23 A2997 RMK AO2 
SLP133 T02610228 $
####018000123####
SAUS46 KLOX 080652
MTRSMX
METAR KSMX 080651Z AUTO 33005KT 10SM OVC011 13/11 A2992 RMK AO2 
SLP135 T01280106 TSNO $
####018000110####
SAUS41 KAKQ 080652
MTRORF
METAR KORF 080651Z 10004KT 4SM BR CLR 26/24 A2995 RMK AO2 SLP142 
T02560239
####018003639####
SAUS99 KWBC 080653
METAR
KACT 080651Z 15005KT 10SM SCT020 BKN025 BKN032 27/23 A2998 RMK AO2
     SLP144 T02670228=
PGWT 080651Z 08017KT 7SM FEW015 SCT100 30/25 A2984=
KIDP 080650Z AUTO 36003KT 10SM SCT047 BKN060 21/20 A3005 RMK
     AO2=
KILG 080651Z AUTO 12005KT 6SM HZ CLR 26/22 A3000 RMK AO2 SLP158
     T02560222 $=
KIZA 080649Z AUTO 00000KT 10SM OVC011 14/11 A2992 RMK AO2=
KJFK 080651Z 00000KT 1/2SM R04R/P6000FT FG OVC003 24/23 A3002 RMK
     AO2 SLP166 T02440233 $=
KJSV 080650Z AUTO 10003KT 10SM BKN070 23/23 A3003 RMK AO2
     P0002=
KLGA 080651Z 13005KT 6SM HZ FEW110 BKN250 27/23 A3001 RMK AO2
     SLP162 T02670228=
KLGU 080651Z AUTO 20004KT 10SM FEW110 16/07 A3012 RMK AO2 SLP153
     T01610072 402780067=
KLRU 080651Z AUTO 04008KT 10SM CLR 21/14 A3015 RMK AO2=
KMDW 080651Z 26006KT 9SM FEW050 BKN095 OVC200 24/22 A3004 RMK AO2
     RAB00E35 SLP161 P0005 T02390217=
KMPV 080651Z AUTO 00000KT 5SM BR CLR 21/19 A3010 RMK AO2 SLP186
     T02110194=
KMYL 080651Z AUTO 00000KT 10SM CLR 13/06 A3016 RMK AO2 SLP176
     T01280061 402440050=
KOKM 080651Z AUTO 06004KT 10SM BKN023 BKN049 BKN075 24/24 A3002
     RMK AO1 LTG DSNT NE=
KONP 080650Z AUTO 20009KT 2 1/2SM BR OVC002 11/10 A2998 RMK
     AO1=
KORD 080651Z 30004KT 10SM -TSRA BKN033CB OVC100 23/22 A3004 RMK
     AO2 TSB29 SLP166 OCNL LTGICCC OHD TS OHD MOV NE P0012
     T02280217=
KOXR 080651Z AUTO 32009G25KT 140V040 10SM OVC015 16/12 A2991 RMK
     AO2 SLP128 T01560122 $=
KPHX 080651Z 00000KT 10SM FEW120 35/01 A2974 RMK AO2 SLP047
     T03500011 404170283 $=
KPIT 080651Z 00000KT 7SM CLR 23/18 A3008 RMK AO2 SLP183
     T02280183=
KPTS 080650Z AUTO 00000KT 10SM CLR 22/ A3004 RMK AO2 T0220=
KPWM 080651Z AUTO 00000KT 9SM OVC008 21/19 A3006 RMK AO2 SLP179
     T02110194 $=
KRDU 080651Z 00000KT 7SM FEW090 26/19 A2997 RMK AO2 SLP143
     T02610189 $=
KROW 080651Z AUTO 35007KT 10SM FEW038 BKN045 OVC100 20/15 A3018
     RMK AO2 SLP156 T02000150 403110183 TSNO=
KSJT 080651Z AUTO 05005KT 10SM -RA BKN035 22/19 A3003 RMK AO2
     TSE17 SLP144 P0016 T02170194=
KSLK 080651Z AUTO 00000KT 1 3/4SM BR CLR 18/17 A3009 RMK AO2
     SLP176 T01830172=
KSMO 080651Z AUTO 22003KT 10SM OVC011 17/13 A2991 RMK AO2 SLP129
     T01670133=
KSTL 080651Z 23004KT 10SM FEW027 SCT050TCU BKN075 BKN150 BKN250
     27/23 A3004 RMK AO2 SLP157 TCU NW AND OHD T02720228=
KTEB 080651Z 20004KT 5SM HZ CLR 26/22 A3000 RMK AO2 SLP158
     T02560222=
KVNY 080651Z AUTO 12003KT 8SM CLR 15/13 A2991 RMK AO2 SLP122
     T01500128=
KYNG 080651Z 00000KT 6SM BR HZ CLR 19/18 A3009 RMK AO2 SLP181
     T01940178=
K1F0 080647Z AUTO 00000KT 10SM CLR 24/23 A2999 RMK AO2=
K4O4 080648Z AUTO 09003KT 10SM SCT001 SCT006 SCT013 23/22 A3004
     RMK AO2=
KADH 080650Z AUTO 00000KT 7SM OVC004 23/22 A3002 RMK AO2=
KADM 080650Z AUTO 00000KT 7SM SCT060 23/23 A3000 RMK AO2=
KAHN 080651Z AUTO 29003KT 9SM CLR 22/19 A3004 RMK AO2 SLP163
     T02220194 $=
KALB 080651Z 00000KT 6SM HZ CLR 24/21 A3002 RMK AO2 SLP165
     T02390206=
KALM 080650Z AUTO 32005KT 10SM SCT100 21/14 A3016 RMK AO2=
KASH 080651Z 00000KT 10SM CLR 25/22 A3005 RMK AO2 T02500216
     SLP176=
KATS 080650Z AUTO 36010G15KT 7SM -RA SCT027 BKN036 BKN075 20/17
     A3016 RMK AO2=
KAVX 080651Z AUTO 29003KT 1/2SM FG VV001 11/11 A2994 RMK AO2
     SLP132 T01110111 TSNO=
KAXX 080650Z AUTO 00000KT 10SM CLR 06/05 A3047 RMK AO2=
KBAZ 080651Z AUTO 06006KT 10SM FEW015 BKN024 OVC039 26/23 A2994
     RMK AO2 SLP129 T02560233=
KBDL 080651Z 17007KT 7SM BKN110 25/21 A3003 RMK AO2 SLP166
     T02500211=
####018000589####
SPUS99 KWBC 080653
SPECI
KNSE 080641Z AUTO 00000KT 1 3/4SM BR CLR 23/22 A3003 RMK AO2 $=
KTXK 080651Z AUTO 00000KT 10SM SCT007 23/23 A3003 RMK AO2=
KVAD 080646Z AUTO 00000KT 8SM R18/5500VP6000FT CLR 23/20 A3003 RMK
     AO2 SLP167 $=
KITR 080651Z AUTO 03004KT 10SM FEW009 SCT015 OVC030 17/15 A3030
     RMK AO2 402060139=
KMVY 080651Z AUTO 15004KT 1/2SM R24/1800V5000FT FG VV001 21/19
     A3006 RMK AO2=
KPUB 080651Z AUTO 00000KT 10SM BKN014 BKN065 15/14 A3032 RMK AO2
     402610139=
KICT 080651Z 01006KT 10SM BKN025 BKN070 BKN200 23/21 A3009 RMK AO2
     $=
####018001670####
SAUS99 KWBC 080653 RRA
METAR
KBGD 080651Z AUTO 30005KT 9SM -RA BKN110 19/18 A3018 RMK AO2 LTG
     DSNT NE AND S SLP179 P0006 T01940183=
KBKW 080651Z AUTO 00000KT 4SM BR CLR 21/18 A3017 RMK AO2 SLP173
     T02060183 VISNO RWY19 $=
KCHK 080651Z AUTO 00000KT 10SM BKN021 23/23 A3004 RMK AO2=
KCLE 080651Z 00000KT 8SM CLR 23/18 A3008 RMK AO2 SLP179 T02330183
     $=
KCMH 080651Z 00000KT 9SM CLR 24/19 A3007 RMK AO2 SLP175 T02390189
     $=
KCQB 080650Z AUTO 03003KT 10SM 23/23 A3003 RMK AO2 TSNO=
KCSG 080651Z 00000KT 10SM CLR 27/19 A3003 RMK AO2 SLP162
     T02670194=
KDAW 080651Z AUTO 00000KT 2 1/2SM BR OVC003 22/21 A3005 RMK AO2
     SLP172 T02170206 $=
KDUA 080657Z AUTO 15006KT 10SM SCT065 BKN075 26/23 A3001 RMK
     AO2=
KDUC 080652Z AUTO 03003KT 10SM CLR 23/22 A3003 RMK AO2=
KEKN 080651Z AUTO 00000KT 3SM BR BKN080 18/17 A3016 RMK AO2 SLP198
     T01780172 TSNO=
KELP 080651Z 05009KT 10SM FEW060 SCT080 BKN110 26/14 A3010 RMK AO2
     SLP114 CB OCNL LTGIC DSNT N T02610139 403390211=
KERI 080651Z 00000KT 9SM CLR 22/18 A3006 RMK AO2 SLP174
     T02220183=
KEWR 080651Z 00000KT 5SM BR SCT006 BKN090 BKN250 25/24 A3001 RMK
     AO2 SLP162 T02500244=
KFET 080650Z AUTO 33004KT 10SM CLR 19/17 A3014 RMK AO2=
KGCD 080650Z AUTO 14003KT 10SM CLR 20/05 A3010 RMK AO2
     T02010046=
KGCM 080655Z AUTO 22005KT 10SM VCTSRA SCT002 SCT022 22/22 A3006
     RMK AO2 LTG DSNT SW P0003=
KGMJ 080654Z AUTO 00000KT 26/26 A3003 RMK AO2 P0004 PWINO=
KHDO 080651Z AUTO 07004KT 10SM CLR 25/23 A2996 RMK AO2 SLP127
     T02500228=
KHTS 080651Z 00000KT 2 1/2SM BR CLR 22/21 A3007 RMK AO2 SLP173
     T02220206=
####018000142####
SALV32 EVRA 080650
METAR EVLA 080650Z 32005KT 250V050 CAVOK 22/15 Q1017=
METAR EVVA 080650Z AUTO 33011KT 300V360 9999 FEW012 21/18 Q1017=
####018000166####
SAFA31 EKCH 080650
METAR EKVG 080652Z 17011KT 9999 FEW006 SCT008 BKN012 11/10 Q0992
RMK/RWY 13/31 CLOSED DUE WIP. SEE NOTAM E0050/10 WIND 850FT
15005KT 050V220=
####018000074####
SAGI32 EGRR 080650
METAR LXGB 080650Z 10015KT CAVOK 25/24 Q1015 NOSIG=
####018000247####
SASW31 LSSW 080650
METAR LSZH 080650Z 31004KT 280V340 CAVOK 19/12 Q1022 NOSIG=
METAR LSGG 080650Z 00000KT CAVOK 23/12 Q1022 NOSIG=
METAR LSZB 080650Z VRB01KT CAVOK 20/14 Q1022 NOSIG=
METAR LSZA 080650Z VRB02KT 9999 BKN048 23/13 Q1023 NOSIG=
####018000327####
SASW39 LSSW 080650
METAR LSMA 080650Z VRB02KT CAVOK 19/14 Q1021 RMK BLU=
METAR LSMD 080650Z 00000KT CAVOK 19/12 Q1022 RMK BLU=
METAR LSME 080650Z 00000KT CAVOK 20/13 Q1022 RMK BLU=
METAR LSMM 080650Z 12003KT 100V160 9999 FEW054 19/13 Q1022 RMK BLU=
METAR LSMP 080650Z NIL=
METAR LSMS 080650Z VRB03KT CAVOK 22/12 Q1022=
####018000183####
SPAU31 KWBC 080653
SPECI
YPPH 080648Z 35016KT 4000 SHRA SCT018 BKN065 FEW022CB 16/14 Q0999
FM0648 33018G28KT 9999 -SHRA BKN020 INTER 0648/0948 27025G35KT
3000 +SHRA BKN010=
####018000124####
SPJP31 KWBC 080653
SPECI
RJCC 080643Z 18008KT 8000 FEW003 BKN004 BKN005 19/17 Q1009 RMK
2ST003 5ST004 7ST005 A2980=
####018000115####
SAUS43 KMQT 080652
MTRP59
METAR KP59 080651Z AUTO 24007KT 19/18 A2995 RMK AO2 SLP134 T01890178 
PWINO TSNO
####018000126####
SAUS45 KPIH 080652
MTRSNT
METAR KSNT 080651Z AUTO 18003KT 07/M01 A3028 RMK AO2 SLP178 
T00671006 402391017 PWINO TSNO
####018000107####
SAUS41 KPHI 080652
MTRABE
METAR KABE 080651Z 33003KT 8SM CLR 23/20 A3002 RMK AO2 SLP161 
T02330200
####018000120####
SAUS41 KOKX 080652
MTRNYC
METAR KNYC 080651Z AUTO 00000KT 6SM HZ CLR 26/22 A3004 RMK AO2 
SLP163 T02560222 TSNO
####018000132####
SAUS44 KSJT 080652
MTRJCT
METAR KJCT 080651Z AUTO 00000KT 10SM CLR 23/22 A3001 RMK AO2 RAE0559 
SLP122 P0000 T02330217 TSNO
####018000199####
SAUS44 KCRP 080652
MTRCRP
METAR KCRP 080651Z 09005KT 9SM -RA FEW010 SCT070 BKN080 27/26 A2985 
RMK AO2 TSB15E44RAE0555B38 SLP106 OCNL LTG DSNT NE NW TS MOV W CB 
DSNT NE NW P0001 T02670256
####018000091####
SPUS41 KWBC 080653
SPECI
KDOV 080648Z AUTO 13004KT 4SM BR FEW003 SCT110 24/24 A2998=
####018000131####
SPXX61 KWBC 080653
SPECI
EGUN 080647Z AUTO 22009KT 9999 FEW006 BKN023 OVC028 17/17 A3006
RMK AO2 RAE0607B0624E0647 SLP167=
####018000123####
SAUS42 KMHX 080653
MTRHSE
METAR KHSE 080651Z AUTO 00000KT 4SM BR BKN110 25/25 A2992 RMK AO2 
SLP130 T02500250 TSNO
####018000102####
SAZA42 FAJS 080700
METAR FAJS 080700Z 09009KT 2700 BR BKN002 07/07 Q1037 BECMG 3000
    BKN008=
####018000083####
SAHW31 KMSC 080652
METAR PGWT 080651Z 08017KT 7SM FEW015 SCT100 30/25 A2984
=
####018000083####
SPUS73 KWBC 080653
SPECI
KHIB 080650Z AUTO 00000KT 1/2SM FG CLR 11/10 A3006=
####018000169####
SAFA31 EKCH 080650
METAR EKVG 080652Z 17011KT 9999 FEW006 SCT008 BKN012 11/10 Q0992
RMK/RWY 13/31 CLOSED DUE WIP. SEE NOTAM E0050/10 WIND 850FT
15005KT 050V220=
####018000080####
SAIS31 LLBG 080650 CCA
METAR COR LLIB 080650Z 20005KT 9000 SKC 27/16 Q1011=
####018000082####
SAAN40 FNLU 080700
METAR FNLU 080700Z VRB03KT 5000 BKN020 21/19 Q1015 NOSIG =
####018000425####
SAIN31 VABB 080640
METAR VABB 080640Z 14007KT 2000 VCSH SCT010 SCT015 FEW030CB OVC080
     26/25 Q1008 TEMPO 1500 +SHRA=
METAR VOHS 080640Z 24010KT 4000 HZ SCT010 SCT015 BKN080 26/23 Q1012
    RERA BECMG 5000 HZ=
METAR VOMM 080640Z 12004KT 2000 -DZ SCT018 OVC080 27/26 Q1010 NOSIG=
METAR VOTR 080640Z 26005KT 6000 SCT020 OVC100 31/23 Q1010=
METAR VOTV 080640Z 32007KT 4000 HZ FEW015 BKN200 28/24 Q1010 NOSIG=
####018000333####
SASW39 LSSW 080650
METAR LSMA 080650Z VRB02KT CAVOK 19/14 Q1021 RMK BLU=
METAR LSMD 080650Z 00000KT CAVOK 19/12 Q1022 RMK BLU=
METAR LSME 080650Z 00000KT CAVOK 20/13 Q1022 RMK BLU=
METAR LSMM 080650Z 12003KT 100V160 9999 FEW054 19/13 Q1022 RMK BLU=
METAR LSMP 080650Z NIL=
METAR LSMS 080650Z VRB03KT CAVOK 22/12 Q1022=
####018000332####
SAIS31 LLBG 080650
METAR LLBG 080650Z 22004KT 9999 SCT030 28/20 Q1010 NOSIG=
METAR LLOV 080650Z 35004KT CAVOK 29/10 Q1011=
METAR LLET 080650Z 02015KT CAVOK 33/11 Q1008=
METAR LLHA 080650Z 21005KT 9999 SCT030 28/19 Q1010=
METAR LLIB 080650Z 20005KT 9000 27/16 Q1011=
METAR LLSD 080650Z 23009KT 9999 SCT026 28/21 Q1009=
####018000144####
SALV32 EVRA 080650
METAR EVLA 080650Z 32005KT 250V050 CAVOK 22/15 Q1017=
METAR EVVA 080650Z AUTO 33011KT 300V360 9999 FEW012 21/18 Q1017=
####018000251####
SASW31 LSSW 080650
METAR LSZH 080650Z 31004KT 280V340 CAVOK 19/12 Q1022 NOSIG=
METAR LSGG 080650Z 00000KT CAVOK 23/12 Q1022 NOSIG=
METAR LSZB 080650Z VRB01KT CAVOK 20/14 Q1022 NOSIG=
METAR LSZA 080650Z VRB02KT 9999 BKN048 23/13 Q1023 NOSIG=
####018000128####
SAUS45 KTWC 080653
MTRSAD
METAR KSAD 080651Z AUTO 09010KT 10SM CLR 27/11 A2997 RMK AO2 SLP085 
T02720111 403890239 TSNO
####018000507####
SADL31 EDZO 080650
METAR EDDF 080650Z 01004KT CAVOK 21/12 Q1021 NOSIG=
METAR EDDH 080650Z 17008KT CAVOK 23/12 Q1019 NOSIG=
METAR EDDK 080650Z 14007KT CAVOK 23/12 Q1020 NOSIG=
METAR EDDL 080650Z 16006KT CAVOK 24/10 Q1019 NOSIG=
METAR EDDM 080650Z 06004KT CAVOK 18/11 Q1023 NOSIG=
METAR EDDN 080650Z 14005KT CAVOK 20/09 Q1022 NOSIG=
METAR EDDS 080650Z VRB02KT CAVOK 20/10 Q1022 NOSIG=
METAR EDDT 080650Z 15003KT CAVOK 21/09 Q1022 NOSIG=
METAR EDDV 080650Z 20005KT CAVOK 23/11 Q1020 NOSIG=
####018000399####
SADL32 EDZO 080650
METAR EDDB 080650Z 21002KT CAVOK 20/10 Q1022 NOSIG=
METAR EDDC 080650Z VRB02KT CAVOK 19/11 Q1023 NOSIG=
METAR EDDE 080650Z 18003KT CAVOK 19/11 Q1022 NOSIG=
METAR EDDG 080650Z VRB02KT CAVOK 21/13 Q1019 NOSIG=
METAR EDDP 080650Z 17005KT CAVOK 19/12 Q1022 NOSIG=
METAR EDDR 080650Z 07005KT CAVOK 21/11 Q1021 NOSIG=
METAR EDDW 080650Z 15004KT CAVOK 23/13 Q1019 NOSIG=
####018000075####
SPCN44 CWAO 080652
SPECI CYUS 080652Z AUTO ///// 9SM CLR 10/ A2981=

####018000545####
SAEU KAWN 080700
METAR ETNG 080650Z 18006KT CAVOK 25/11 Q1019 NOSIG=
METAR LMML 080645Z 34004KT 260V060 7000 FEW010 25/21 Q1018 BECMG 9999=
METAR LPLA 080700Z 17003KT 9999 FEW018 BKN028 19/18 Q1024=
METAR LQTZ 080700Z VRB01KT 9999 FEW030 14/// Q1023=
METAR LSGG 080650Z 00000KT CAVOK 23/12 Q1022 NOSIG=
METAR LSZA 080650Z VRB02KT 9999 BKN048 23/13 Q1023 NOSIG=
METAR LSZB 080650Z VRB01KT CAVOK 20/14 Q1022 NOSIG=
METAR LSZH 080650Z 31004KT 280V340 CAVOK 19/12 Q1022 NOSIG=
METAR LXGB 080650Z 10015KT CAVOK 25/24 Q1015 NOSIG=
####018000107####
SAUS41 KCLE 080653
MTRCAK
METAR KCAK 080651Z 00000KT 7SM CLR 22/18 A3009 RMK AO2 SLP178 
T02220183
####018000086####
SAAK41 KNKA 080653
METAR PAWI 080650Z 23013KT 10SM CLR 07/04 A3002 RMK VIA PHONE=
####018000089####
SPNI20 DNMM 080623
SPECI DNMM 080623Z 00000KT 5000 BR FEW007 23/23 Q1015 TEMPO 3000=
####018000115####
SAUS46 KSGX 080653
MTRCZZ
METAR KCZZ 080652Z AUTO 00000KT 11/09 A2990 RMK AO2 SLP097 T01060094 
PWINO TSNO
####018000076####
SAKW35 OKBK 080700
METAR OKBK 080700Z 34016KT CAVOK 44/M02 Q1002 NOSIG=
####018000613####
SABN32 OBBI 080600
METAR OMAA 080600Z 15011KT 130V200 9000 NSC 39/18 Q1000 A2955 NOSIG=
METAR OMAD 080600Z 15010KT CAVOK 39/18 Q1000 A2955=
METAR OMAL 080600Z 19005KT 100V280 6000 NSC 37/26 Q1003 A-963=
METAR OMDB 080600Z 11006KT 060V150 8000 NSC 39/23 Q1001 NOSIG=
METAR OMDW 080600Z 15006KT 120V180 CAVOK 39/20 Q1002 NOSIG=
METAR OMFJ 080600Z 08007KT 040V120 6000 FEW020 33/25 Q1002 A2960=
METAR OMRK 080600Z 34006KT CAVOK 41/27 Q1000 A2954=
METAR OMSJ 080600Z VRB05KT 6000 NSC 40/23 Q1001=
METAR OOMS 080600Z 35005KT 318V030 6000 SCT025 SCT120
BKN250 34/28 Q1002 NOSIG=
METAR OOSA NIL=
####018000078####
SABR31 TBPB 080700
METAR TBPB 080700Z 08015KT 9999 SCT018 28/24 Q1012 NOSIG=####018000275####
SABN31 OBBI 080600
METAR OBBI 080600Z 2:006KT 4000 HZ NSC 35/27 Q1001 BECMG 5000=
METAR OEDF 080600Z 31004KT 7000 NSC 39/13 Q1001 NOSIG=
METAR OEDR NIL=
METAR OTBD 08:600Z 01010KT 4500 HZ NSC 35/29 Q1001 NOSIG=
METAR OKBK 080600Z 33015KTCAVOK 42/M01 Q1002 NOSIG=
####018001862####
SAUS90 KWBC 080700
METAR KSAN 080651Z 31004KT 10SM OVC016 17/13 A2993 RMK AO2 SLP134
     T01720133=
METAR KCON 080651Z AUTO 00000KT 6SM BR BKN085 23/21 A3005 RMK AO2
     SLP175 T02280206=
METAR KVCT 080651Z AUTO 04007KT 10SM CLR 26/25 A2989 RMK AO2
     SLP120 T02560250=
METAR KP58 080651Z AUTO 22004KT 24/21 A3001 RMK AO2 SLP153
     T02390211 PWINO TSNO=
METAR KSMX 080651Z AUTO 33005KT 10SM OVC011 13/11 A2992 RMK AO2
     SLP135 T01280106 TSNO $=
METAR KORF 080651Z 10004KT 4SM BR CLR 26/24 A2995 RMK AO2 SLP142
     T02560239=
METAR KATT 080651Z AUTO VRB03KT 10SM OVC013 26/23 A2997 RMK AO2
     SLP133 T02610228 $=
METAR KNYC 080651Z AUTO 00000KT 6SM HZ CLR 26/22 A3004 RMK AO2
     SLP163 T02560222 TSNO=
METAR KP59 080651Z AUTO 24007KT 19/18 A2995 RMK AO2 SLP134
     T01890178 PWINO TSNO=
METAR KABE 080651Z 33003KT 8SM CLR 23/20 A3002 RMK AO2 SLP161
     T02330200=
METAR KJCT 080651Z AUTO 00000KT 10SM CLR 23/22 A3001 RMK AO2
     RAE0559 SLP122 P0000 T02330217 TSNO=
METAR KSNT 080651Z AUTO 18003KT 07/M01 A3028 RMK AO2 SLP178
     T00671006 402391017 PWINO TSNO=
METAR KCRP 080651Z 09005KT 9SM -RA FEW010 SCT070 BKN080 27/26
     A2985 RMK AO2 TSB15E44RAE0555B38 SLP106 OCNL LTG DSNT NE NW
     TS MOV W CB DSNT NE NW P0001 T02670256=
METAR KHSE 080651Z AUTO 00000KT 4SM BR BKN110 25/25 A2992 RMK AO2
     SLP130 T02500250 TSNO=
METAR KSAD 080651Z AUTO 09010KT 10SM CLR 27/11 A2997 RMK AO2
     SLP085 T02720111 403890239 TSNO=
METAR KCAK 080651Z 00000KT 7SM CLR 22/18 A3009 RMK AO2 SLP178
     T02220183=
METAR KCZZ 080652Z AUTO 00000KT 11/09 A2990 RMK AO2 SLP097
     T01060094 PWINO TSNO=
METAR KMLF 080652Z AUTO 02003KT 10SM CLR 14/01 A3008 RMK AO2
     SLP123 T01440006 403170100 TSNO=
METAR KN60 080652Z AUTO 28006KT 14/13 A3010 RMK AO1 SLP189
     T01390128=
####018000110####
SAUS41 KLWX 080653
MTRNHK
METAR KNHK 080652Z 10004KT 4SM HZ CLR 27/24 A2997 RMK AO2 SLP149 
T02720239
####018000101####
SAUS43 KBIS 080653
MTRN60
METAR KN60 080652Z AUTO 28006KT 14/13 A3010 RMK AO1 SLP189 T01390128
####018000128####
SAUS45 KSLC 080653
MTRMLF
METAR KMLF 080652Z AUTO 02003KT 10SM CLR 14/01 A3008 RMK AO2 SLP123 
T01440006 403170100 TSNO
####018000116####
SAUS44 KMAF 080653
MTRNFW
METAR KNFW 080652Z AUTO 16006KT 10SM FEW060 27/22 A3003 RMK AO2 
SLP153 T02670217
####018000113####
SAUS46 KLOX 080653
MTRNZY
METAR KNZY 080652Z 29006KT 10SM OVC017 18/13 A2991 RMK AO2 SLP127 
T01830128 $
####018002913####
SAUS20 KNKA 080653
METAR KCVG 080652Z 00000KT 8SM CLR 24/19 A3008 RMK AO2 SLP175 
    T02390189=
METAR KDCA 080652Z 11004KT 8SM FEW080 BKN250 29/21 A2998 RMK AO2 
    SLP150 T02940206=
METAR KDDC 080652Z AUTO 03006KT 7SM CLR 18/17 A3017 RMK AO2 SLP194 
    T01780167=
METAR KDPA 080652Z 00000KT 7SM -RA SCT026 SCT050 SCT110 23/22 A3004 
    RMK AO2 TSB0556E33RAB0558 SLP167 P0016 T02280217=
METAR KDVN 080652Z AUTO 00000KT 5SM BR BKN026 BKN032 22/21 A3002 RMK 
    AO2 RAE04 SLP161 P0000 T02220211=
METAR KDVO 080650Z AUTO 31005KT 10SM FEW012 13/12 A2993 RMK AO2=
METAR KEST 080652Z AUTO 30004KT 10SM CLR 17/16 A3012 RMK AO2 SLP193 
    T01670156=
METAR KFDW 080655Z AUTO 26003KT 10SM CLR 27/17 A3001 RMK AO1=
METAR KFIT 080652Z AUTO 15004KT 8SM SCT060 BKN075 25/22 A3006 RMK 
    AO2 SLP175 T02500222=
METAR KGLS 080652Z AUTO 11016KT 10SM FEW027 28/24 A2992 RMK AO2 
    SLP130 T02780239=
METAR KGLY 080655Z AUTO 00000KT 7SM FEW038 BKN065 23/23 A3005 RMK 
     AO2 =
METAR KHRL 080652Z AUTO 35003KT 10SM SCT024 26/26 A2981 RMK AO2 
    SLP093 T02610261=
METAR KHUT 080652Z AUTO 36003KT 10SM SCT110 22/20 A3011 RMK AO2 
    SLP173 T02170200=
METAR KIAD 080652Z 31004KT 7SM FEW110 28/19 A2999 RMK AO2 SLP150 
    T02780189=
METAR KIEN 080652Z AUTO 00000KT 10SM CLR 11/09 A3027 RMK AO2 SLP237 
    T01060094 402060106=
METAR KIJD 080652Z AUTO 00000KT 4SM BR OVC007 23/22 A3005 RMK AO2 
    CIG 006V011 SLP171 T02280217=
METAR KIOW 080652Z AUTO 30004KT 10SM FEW090 22/22 A3003 RMK AO2 
    SLP162 T02220217=
METAR KISN 080652Z 00000KT 10SM FEW080 OVC110 16/11 A3012 RMK AO2 
    SLP194 T01610111=
METAR KLAM 080650Z AUTO 00000KT 10SM SCT120 15/09 A3037 RMK AO2=
METAR KLWC 080652Z AUTO 32009KT 10SM OVC019 23/21 A3008 RMK AO2 
    SLP177 T02280211=
METAR KMAI 080653Z AUTO 00000KT 10SM CLR 23/21 A3002 RMK AO2 SLP165 
    T02330211=
METAR KMDH 080652Z AUTO 00000KT 10SM BKN110 24/22 A3004 RMK AO2 
    SLP169 T02440222=
METAR KMEB 080652Z AUTO 29003KT 10SM BKN090 25/18 A2996 RMK AO2 
    SLP141 T02500178=
METAR KMEZ 080655Z AUTO 00000KT 10SM SCT016 BKN024 25/23 A3006 RMK 
     AO2=
METAR KMFD 080652Z AUTO 00000KT 7SM CLR 22/18 A3010 RMK AO2 SLP181 
    T02170178=
METAR KMHK 080652Z AUTO 03004KT 10SM BKN100 BKN120 22/21 A3008 RMK 
    AO2 SLP178 T02220206=
METAR KMKE 080652Z 28009KT 10SM -RA SCT065 BKN085 OVC200 24/22 A3001 
    RMK AO2 RAB37 SLP158 P0000 T02390217=
METAR KMLI 080652Z 00000KT 9SM CLR 23/22 A3001 RMK AO2 RAE22 SLP158 
    P0001 T02280217 $=
METAR KMWH 080652Z AUTO 36004KT 10SM CLR 18/07 A3000 RMK AO2 SLP152 
    T01830072=
METAR KMYR 080655Z AUTO 28010KT 10SM CLR 26/21 A2997 RMK AO1=
METAR KOAJ 080655Z AUTO 00000KT 10SM CLR 23/21 A2992 RMK AO1=
METAR KOCF 080655Z AUTO 00000KT 10SM CLR 22/21 A3002 RMK AO1=
METAR KOJA 080650Z AUTO 36003KT 10SM CLR 22/22 A3007 RMK AO2=
####018002930####
SAUS20 KNKA 080653
METAR K36U 080656Z AUTO 17003KT 10SM CLR 13/05 A3018 RMK AO2=
METAR KAFK 080650Z AUTO 00000KT 7SM SCT120 21/19 A3009 RMK AO2 
     T02050192=
METAR KAFN 080652Z AUTO 00000KT 8SM CLR 24/21 A3008 RMK AO2 SLP183 
    T02390211 $=
METAR KAIK 080655Z AUTO 25005KT 10SM CLR 23/22 A3004 RMK AO2 PNO=
METAR KALS 080652Z AUTO 00000KT 10SM CLR 08/07 A3040 RMK AO2 SLP209 
    T00830072 402440083=
METAR KAMG 080653Z AUTO 00000KT 10SM CLR 21/19 A3002 RMK AO2 SLP163 
    T02110194=
METAR KANW 080650Z AUTO 00000KT 10SM OVC110 17/15 A3023 RMK AO2 
     T01670149=
METAR KAQW 080652Z AUTO 00000KT 3SM BR CLR 19/19 A3005 RMK AO2 
    SLP171 T01940189=
METAR KARR 080652Z AUTO 00000KT 6SM -RA BR BKN095 OVC120 22/22 A3004 
    RMK AO2 TSB0556E21 SLP166 P0017 T02220217 $=
METAR KARW 080655Z AUTO 26005KT 10SM CLR 25/18 A2998 RMK AO2=
METAR KATL 080652Z 23004KT 10SM CLR 26/20 A3005 RMK AO2 SLP162 
    T02610200=
METAR KAUH 080650Z AUTO 34003KT 10SM CLR 17/15 A3018 RMK AO2 
     T01650154=
METAR KAUN 080650Z AUTO 00000KT 10SM CLR 21/12 A2986 RMK AO1=
METAR KAXS 080650Z AUTO 00000KT 10SM CLR 24/22 A3005 RMK AO2 
     T02370221=
METAR KBDN 080655Z AUTO 29006KT 10SM CLR 20/04 A3009 RMK AO2 =
METAR KBDR 080652Z AUTO 05005KT 4SM BR FEW090 SCT110 24/22 A3003 RMK 
    AO2 SLP167 T02440222=
METAR KBIE 080650Z AUTO 35004KT 4SM BR CLR 20/19 A3011 RMK AO2 
     T01990190=
METAR KBIS 080652Z AUTO 27003KT 10SM CLR 15/11 A3013 RMK AO2 SLP197 
    T01500111=
METAR KBLF 080652Z AUTO 25004KT 6SM HZ CLR 22/18 A3019 RMK AO2 
    SLP174 T02170183=
METAR KBLH 080652Z AUTO 19008KT 10SM CLR 32/04 A2970 RMK AO2 SLP049 
    T03220044=
METAR KBML 080652Z AUTO 00000KT 1/4SM FG FEW001 SCT008 OVC050 19/18 
    A3008 RMK AO2 SLP180 T01890183 $=
METAR KBTA 080650Z AUTO 33006KT 10SM CLR 20/17 A3012 RMK AO2 
     T01970174=
METAR KBVN 080650Z AUTO 34003KT 10SM CLR 16/15 A3019 RMK AO2 
     T01570146=
METAR KBVS 080650Z AUTO 30003KT 10SM CLR 17/14 A2995 RMK A01 P000=
METAR KCEW 080653Z AUTO 00000KT 5SM BR CLR 22/22 A3004 RMK AO2 
    SLP169 T02220217=
METAR KCFV 080652Z AUTO 34004KT 10SM SCT055 BKN100 23/22 A3004 RMK 
    AO2 SLP166 T02280217=
METAR KCID 080652Z AUTO 33005KT 8SM FEW120 21/20 A3003 RMK AO2 
    SLP162 T02060200=
METAR KCKV 080652Z AUTO 00000KT 10SM FEW080 24/22 A3006 RMK AO2 
    SLP173 T02390222=
METAR KCLK 080653Z AUTO 36004KT 10SM CLR 22/20 A3006 RMK AO2=
METAR KCLT 080652Z 34004KT 10SM CLR 23/18 A3001 RMK AO2 SLP150 
    T02280178=
METAR KCNU 080652Z AUTO 00000KT 10SM FEW031 21/20 A3006 RMK AO2 
    RAE0553 SLP169 T02110200=
METAR KCQX 080652Z AUTO 00000KT 3/4SM BR VV001 19/19 A3008 RMK AO2 
    SLP187 T01940189=
METAR KCUB 080653Z AUTO 24003KT 10SM CLR 27/18 A3000 RMK AO2 SLP156 
    T02670178=
METAR KCUH 080650Z AUTO 00000KT 10SM SCT037 BKN044 OVC050 25/23 
     A3003 RMK AO2=
####018002896####
SAUS20 KNKA 080653
METAR KOKB 080652Z AUTO 00000KT 9SM OVC014 18/14 A2991 RMK AO2 
    SLP126 T01780139=
METAR KOMA 080652Z 34004KT 10SM SCT130 20/19 A3011 RMK AO2 SLP188 
    T02000189=
METAR KORE 080652Z AUTO 00000KT 9SM SCT075 OVC100 24/22 A3005 RMK 
    AO2 SLP172 T02440217=
METAR KORS 080650Z AUTO 00000KT 10SM CLR 18/12 A2992 RMK AO2=
METAR KOUN 080652Z AUTO 00000KT 10SM BKN019 OVC023 25/23 A3004 
     RMK AO2=
METAR KPLU 080650Z AUTO 00000KT 10SM FEW036 SCT047 SCT070 17/14 
     A2992 RMK AO2=
METAR KPPF 080652Z AUTO 36003KT 10SM SCT029 SCT045 BKN055 22/21 
    A3006 RMK AO2 SLP170 T02220211=
METAR KPSO 080655Z AUTO 30003KT 10SM SCT065 OVC090 14/05 A3039 RMK 
     AO2 LTG DSNT NW=
METAR KPVJ 080647Z AUTO 00000KT 10SM CLR 24/22 A3002 RMK AO2=
METAR KPWK 080652Z AUTO 28004KT 3SM -RA BR BKN007 BKN036 BKN095 
    23/21 A3006 RMK AO2 TSB29E51 SLP174 P0037 T02280211=
METAR KPYM 080652Z AUTO 15004KT 7SM CLR 21/18 A3007 RMK AO2 SLP181 
    T02060183=
METAR KRAP 080652Z AUTO 00000KT 10SM CLR 11/09 A3024 RMK AO2 SLP231 
    T01110094 402330078=
METAR KRKR 080652Z AUTO 00000KT 10SM SCT030 SCT085 28/24 A3003 
     RMK AO2=
METAR KSGF 080652Z 00000KT 10SM SCT120 23/22 A3005 RMK AO2 SLP162 
    T02330222=
METAR KSNL 080652Z AUTO 00000KT 10SM SCT007 BKN029 OVC047 25/24 
     A3004 RMK AO2=
METAR KSOP 080655Z AUTO 33004KT 10SM CLR 25/17 A2997 RMK AO1=
METAR KSPI 080652Z AUTO 00000KT 10SM -RA FEW060 BKN070 OVC090 24/23 
    A3004 RMK AO2 LTG DSNT SW RAB32 SLP166 P0000 T02440228=
METAR KSRE 080650Z AUTO 00000KT 7SM 24/24 A3002 RMK AO2=
METAR KSSI 080653Z AUTO 22005KT 10SM CLR 24/22 A3001 RMK AO2 SLP162 
    T02390217=
METAR KSUX 080652Z 31004KT 10SM CLR 18/17 A3014 RMK AO2 SLP201 
    T01780167=
METAR KSVC 080650Z AUTO 36014KT 7SM -RA FEW021 SCT033 OVC047 
     17/14 A3022 RMK AO2 P0003=
METAR KTAN 080652Z AUTO 00000KT 10SM OVC023 22/20 A3004 RMK AO2 
    SLP173 T02170200=
METAR KTMK 080653Z AUTO 14004KT 10SM BKN006 BKN011 13/12 A2994 
     RMK AO2=
METAR KTOL 080652Z 00000KT 10SM CLR 22/18 A3004 RMK AO2 SLP167 
    T02170183=
METAR KTQH 080654Z AUTO 00000KT 10SM SCT014 BKN026 24/24 A3004 
     RMK AO2 P0007=
METAR KTRM 080652Z AUTO 34008KT 10SM CLR 28/12 A2967 RMK AO2 SLP050 
    T02780122=
METAR KUDG 080655Z 27006KT 10SM BKN100 27/18 A2998 RMK AO1=
METAR KUGN 080652Z AUTO 00000KT 9SM -RA SCT045 SCT060 BKN090 23/21 
    A3003 RMK AO2 LTG DSNT NE TSB25E40RAB20 SLP156 P0029 T02330211=
METAR KVLD 080653Z AUTO 00000KT 10SM CLR 21/19 A3003 RMK AO2 SLP173 
    T02060194=
METAR KVTN 080652Z AUTO 00000KT 10SM BKN100 BKN120 17/14 A3023 RMK 
    AO2 SLP225 T01670144=
METAR KWDG 080650Z AUTO 03007KT 10SM SCT029 BKN047 OVC090 22/22 
     A3009 RMK AO2=
METAR KWWR 080649Z AUTO 01007KT 10SM -DZ SCT027 SCT050 BKN120 
     23/21 A3014 RMK AO2 T02250207=
####018003705####
SAUS99 KWBC 080654
METAR
PAWI 080650Z 23013KT 10SM CLR 07/04 A3002 RMK VIA PHONE=
K36U 080656Z AUTO 17003KT 10SM CLR 13/05 A3018 RMK AO2=
KAFK 080650Z AUTO 00000KT 7SM SCT120 21/19 A3009 RMK AO2
     T02050192=
KAFN 080652Z AUTO 00000KT 8SM CLR 24/21 A3008 RMK AO2 SLP183
     T02390211 $=
KAIK 080655Z AUTO 25005KT 10SM CLR 23/22 A3004 RMK AO2 PNO=
KALS 080652Z AUTO 00000KT 10SM CLR 08/07 A3040 RMK AO2 SLP209
     T00830072 402440083=
KAMG 080653Z AUTO 00000KT 10SM CLR 21/19 A3002 RMK AO2 SLP163
     T02110194=
KANW 080650Z AUTO 00000KT 10SM OVC110 17/15 A3023 RMK AO2
     T01670149=
KAQW 080652Z AUTO 00000KT 3SM BR CLR 19/19 A3005 RMK AO2 SLP171
     T01940189=
KARR 080652Z AUTO 00000KT 6SM -RA BR BKN095 OVC120 22/22 A3004 RMK
     AO2 TSB0556E21 SLP166 P0017 T02220217 $=
KARW 080655Z AUTO 26005KT 10SM CLR 25/18 A2998 RMK AO2=
KATL 080652Z 23004KT 10SM CLR 26/20 A3005 RMK AO2 SLP162
     T02610200=
KAUH 080650Z AUTO 34003KT 10SM CLR 17/15 A3018 RMK AO2
     T01650154=
KAUN 080650Z AUTO 00000KT 10SM CLR 21/12 A2986 RMK AO1=
KAXS 080650Z AUTO 00000KT 10SM CLR 24/22 A3005 RMK AO2
     T02370221=
KBDN 080655Z AUTO 29006KT 10SM CLR 20/04 A3009 RMK AO2=
KBDR 080652Z AUTO 05005KT 4SM BR FEW090 SCT110 24/22 A3003 RMK AO2
     SLP167 T02440222=
KBIE 080650Z AUTO 35004KT 4SM BR CLR 20/19 A3011 RMK AO2
     T01990190=
KBIS 080652Z AUTO 27003KT 10SM CLR 15/11 A3013 RMK AO2 SLP197
     T01500111=
KBLF 080652Z AUTO 25004KT 6SM HZ CLR 22/18 A3019 RMK AO2 SLP174
     T02170183=
KBLH 080652Z AUTO 19008KT 10SM CLR 32/04 A2970 RMK AO2 SLP049
     T03220044=
KBML 080652Z AUTO 00000KT 1/4SM FG FEW001 SCT008 OVC050 19/18
     A3008 RMK AO2 SLP180 T01890183 $=
KBTA 080650Z AUTO 33006KT 10SM CLR 20/17 A3012 RMK AO2
     T01970174=
KBVN 080650Z AUTO 34003KT 10SM CLR 16/15 A3019 RMK AO2
     T01570146=
KBVS 080650Z AUTO 30003KT 10SM CLR 17/14 A2995 RMK A01 P000=
KCEW 080653Z AUTO 00000KT 5SM BR CLR 22/22 A3004 RMK AO2 SLP169
     T02220217=
KCFV 080652Z AUTO 34004KT 10SM SCT055 BKN100 23/22 A3004 RMK AO2
     SLP166 T02280217=
KCID 080652Z AUTO 33005KT 8SM FEW120 21/20 A3003 RMK AO2 SLP162
     T02060200=
KCKV 080652Z AUTO 00000KT 10SM FEW080 24/22 A3006 RMK AO2 SLP173
     T02390222=
KCLK 080653Z AUTO 36004KT 10SM CLR 22/20 A3006 RMK AO2=
KCLT 080652Z 34004KT 10SM CLR 23/18 A3001 RMK AO2 SLP150
     T02280178=
KCNU 080652Z AUTO 00000KT 10SM FEW031 21/20 A3006 RMK AO2 RAE0553
     SLP169 T02110200=
KCQX 080652Z AUTO 00000KT 3/4SM BR VV001 19/19 A3008 RMK AO2
     SLP187 T01940189=
KCUB 080653Z AUTO 24003KT 10SM CLR 27/18 A3000 RMK AO2 SLP156
     T02670178=
KCUH 080650Z AUTO 00000KT 10SM SCT037 BKN044 OVC050 25/23 A3003
     RMK AO2=
KCVG 080652Z 00000KT 8SM CLR 24/19 A3008 RMK AO2 SLP175
     T02390189=
KDCA 080652Z 11004KT 8SM FEW080 BKN250 29/21 A2998 RMK AO2 SLP150
     T02940206=
KDDC 080652Z AUTO 03006KT 7SM CLR 18/17 A3017 RMK AO2 SLP194
     T01780167=
KDPA 080652Z 00000KT 7SM -RA SCT026 SCT050 SCT110 23/22 A3004 RMK
     AO2 TSB0556E33RAB0558 SLP167 P0016 T02280217=
KDVN 080652Z AUTO 00000KT 5SM BR BKN026 BKN032 22/21 A3002 RMK AO2
     RAE04 SLP161 P0000 T02220211=
KDVO 080650Z AUTO 31005KT 10SM FEW012 13/12 A2993 RMK AO2=
KEST 080652Z AUTO 30004KT 10SM CLR 17/16 A3012 RMK AO2 SLP193
     T01670156=
KFDW 080655Z AUTO 26003KT 10SM CLR 27/17 A3001 RMK AO1=
KFIT 080652Z AUTO 15004KT 8SM SCT060 BKN075 25/22 A3006 RMK AO2
     SLP175 T02500222=
KGLS 080652Z AUTO 11016KT 10SM FEW027 28/24 A2992 RMK AO2 SLP130
     T02780239=
KGLY 080655Z AUTO 00000KT 7SM FEW038 BKN065 23/23 A3005 RMK
     AO2=
####018003697####
SAUS99 KWBC 080654 RRA
METAR
KHRL 080652Z AUTO 35003KT 10SM SCT024 26/26 A2981 RMK AO2 SLP093
     T02610261=
KHUT 080652Z AUTO 36003KT 10SM SCT110 22/20 A3011 RMK AO2 SLP173
     T02170200=
KIAD 080652Z 31004KT 7SM FEW110 28/19 A2999 RMK AO2 SLP150
     T02780189=
KIEN 080652Z AUTO 00000KT 10SM CLR 11/09 A3027 RMK AO2 SLP237
     T01060094 402060106=
KIJD 080652Z AUTO 00000KT 4SM BR OVC007 23/22 A3005 RMK AO2 CIG
     006V011 SLP171 T02280217=
KIOW 080652Z AUTO 30004KT 10SM FEW090 22/22 A3003 RMK AO2 SLP162
     T02220217=
KISN 080652Z 00000KT 10SM FEW080 OVC110 16/11 A3012 RMK AO2 SLP194
     T01610111=
KLAM 080650Z AUTO 00000KT 10SM SCT120 15/09 A3037 RMK AO2=
KLWC 080652Z AUTO 32009KT 10SM OVC019 23/21 A3008 RMK AO2 SLP177
     T02280211=
KMAI 080653Z AUTO 00000KT 10SM CLR 23/21 A3002 RMK AO2 SLP165
     T02330211=
KMDH 080652Z AUTO 00000KT 10SM BKN110 24/22 A3004 RMK AO2 SLP169
     T02440222=
KMEB 080652Z AUTO 29003KT 10SM BKN090 25/18 A2996 RMK AO2 SLP141
     T02500178=
KMEZ 080655Z AUTO 00000KT 10SM SCT016 BKN024 25/23 A3006 RMK
     AO2=
KMFD 080652Z AUTO 00000KT 7SM CLR 22/18 A3010 RMK AO2 SLP181
     T02170178=
KMHK 080652Z AUTO 03004KT 10SM BKN100 BKN120 22/21 A3008 RMK AO2
     SLP178 T02220206=
KMKE 080652Z 28009KT 10SM -RA SCT065 BKN085 OVC200 24/22 A3001 RMK
     AO2 RAB37 SLP158 P0000 T02390217=
KMLI 080652Z 00000KT 9SM CLR 23/22 A3001 RMK AO2 RAE22 SLP158
     P0001 T02280217 $=
KMWH 080652Z AUTO 36004KT 10SM CLR 18/07 A3000 RMK AO2 SLP152
     T01830072=
KMYR 080655Z AUTO 28010KT 10SM CLR 26/21 A2997 RMK AO1=
KOAJ 080655Z AUTO 00000KT 10SM CLR 23/21 A2992 RMK AO1=
KOCF 080655Z AUTO 00000KT 10SM CLR 22/21 A3002 RMK AO1=
KOJA 080650Z AUTO 36003KT 10SM CLR 22/22 A3007 RMK AO2=
KOKB 080652Z AUTO 00000KT 9SM OVC014 18/14 A2991 RMK AO2 SLP126
     T01780139=
KOMA 080652Z 34004KT 10SM SCT130 20/19 A3011 RMK AO2 SLP188
     T02000189=
KORE 080652Z AUTO 00000KT 9SM SCT075 OVC100 24/22 A3005 RMK AO2
     SLP172 T02440217=
KORS 080650Z AUTO 00000KT 10SM CLR 18/12 A2992 RMK AO2=
KOUN 080652Z AUTO 00000KT 10SM BKN019 OVC023 25/23 A3004 RMK
     AO2=
KPLU 080650Z AUTO 00000KT 10SM FEW036 SCT047 SCT070 17/14 A2992
     RMK AO2=
KPPF 080652Z AUTO 36003KT 10SM SCT029 SCT045 BKN055 22/21 A3006
     RMK AO2 SLP170 T02220211=
KPSO 080655Z AUTO 30003KT 10SM SCT065 OVC090 14/05 A3039 RMK AO2
     LTG DSNT NW=
KPVJ 080647Z AUTO 00000KT 10SM CLR 24/22 A3002 RMK AO2=
KPWK 080652Z AUTO 28004KT 3SM -RA BR BKN007 BKN036 BKN095 23/21
     A3006 RMK AO2 TSB29E51 SLP174 P0037 T02280211=
KPYM 080652Z AUTO 15004KT 7SM CLR 21/18 A3007 RMK AO2 SLP181
     T02060183=
KRAP 080652Z AUTO 00000KT 10SM CLR 11/09 A3024 RMK AO2 SLP231
     T01110094 402330078=
KRKR 080652Z AUTO 00000KT 10SM SCT030 SCT085 28/24 A3003 RMK
     AO2=
KSGF 080652Z 00000KT 10SM SCT120 23/22 A3005 RMK AO2 SLP162
     T02330222=
KSNL 080652Z AUTO 00000KT 10SM SCT007 BKN029 OVC047 25/24 A3004
     RMK AO2=
KSOP 080655Z AUTO 33004KT 10SM CLR 25/17 A2997 RMK AO1=
KSPI 080652Z AUTO 00000KT 10SM -RA FEW060 BKN070 OVC090 24/23
     A3004 RMK AO2 LTG DSNT SW RAB32 SLP166 P0000 T02440228=
KSRE 080650Z AUTO 00000KT 7SM 24/24 A3002 RMK AO2=
KSSI 080653Z AUTO 22005KT 10SM CLR 24/22 A3001 RMK AO2 SLP162
     T02390217=
KSUX 080652Z 31004KT 10SM CLR 18/17 A3014 RMK AO2 SLP201
     T01780167=
KSVC 080650Z AUTO 36014KT 7SM -RA FEW021 SCT033 OVC047 17/14 A3022
     RMK AO2 P0003=
KTAN 080652Z AUTO 00000KT 10SM OVC023 22/20 A3004 RMK AO2 SLP173
     T02170200=
KTMK 080653Z AUTO 14004KT 10SM BKN006 BKN011 13/12 A2994 RMK
     AO2=
####018000815####
SAUS99 KWBC 080654 RRB
METAR
KTOL 080652Z 00000KT 10SM CLR 22/18 A3004 RMK AO2 SLP167
     T02170183=
KTQH 080654Z AUTO 00000KT 10SM SCT014 BKN026 24/24 A3004 RMK AO2
     P0007=
KTRM 080652Z AUTO 34008KT 10SM CLR 28/12 A2967 RMK AO2 SLP050
     T02780122=
KUDG 080655Z 27006KT 10SM BKN100 27/18 A2998 RMK AO1=
KUGN 080652Z AUTO 00000KT 9SM -RA SCT045 SCT060 BKN090 23/21 A3003
     RMK AO2 LTG DSNT NE TSB25E40RAB20 SLP156 P0029 T02330211=
KVLD 080653Z AUTO 00000KT 10SM CLR 21/19 A3003 RMK AO2 SLP173
     T02060194=
KVTN 080652Z AUTO 00000KT 10SM BKN100 BKN120 17/14 A3023 RMK AO2
     SLP225 T01670144=
KWDG 080650Z AUTO 03007KT 10SM SCT029 BKN047 OVC090 22/22 A3009
     RMK AO2=
KWWR 080649Z AUTO 01007KT 10SM -DZ SCT027 SCT050 BKN120 23/21
     A3014 RMK AO2 T02250207=
####018000101####
SAZA42 FAJS 080700
METAR FAJS 080700Z 09009KT 2700 BR BKN002 07/07 Q1037 BECMG 3000
    BKN008=
####018000095####
SACN97 KWBC 080654
METAR CXLL 080600Z AUTO 03005KT 18/15 RMK AO1 SLP162 T01770148
53016=
####018000095####
SACN89 KWBC 080654
METAR CWDT 080600Z AUTO 32003KT 19/18 RMK AO1 SLP163 T01880184
53004=
####018000472####
SAFI31 EFHK 080650
METAR EFHK 080650Z 32008KT 9999 FEW021 BKN200 24/19 Q1014 NOSIG=
EFJY 080650Z 09003KT 9999 BKN012 20/17 Q1015=
METAR EFKU 080650Z AUTO VRB02KT 9999NDV OVC013 
21/17 Q1015=
EFOU 080650Z VRB01KT 9999 FEW018 19/12 Q1016=
METAR EFRO 080650Z AUTO 23004KT CAVOK 16/13 Q1017=
EFTP 080650Z 35004KT 280V070 9999 FEW015 SCT200 22/17 Q1015=
METAR EFTU 080650Z AUTO 34005KT 290V010 CAVOK 21/13 Q1016=
EFVA 080650Z VRB01KT 9999 FEW020 BKN200 19/15 Q1016=
####018000087####
SACN88 KWBC 080654
METAR CWZN 080600Z AUTO 00000KT 13/ RMK AO1 SLP205 T0125 55000=
####018000098####
SAFK41 EGYP 080650
METAR EGYP 080650Z 01020KT 7000 -RA SCT010 BKN050 OVC090 04/03 Q0999
 GRN=
####018000580####
SASN31 ESWI 080650
METAR ESGG 080650Z 19009KT 9999 OVC040 19/13 Q1018=
METAR ESGJ 080650Z AUTO 20009KT 150V230 9999NDV ////// 19/11 Q1019=
METAR ESGP 080650Z 19017KT 9999 FEW033 OVC044 20/15 Q1017=
METAR ESGT 080650Z 18009KT 9999 OVC040 18/13 Q1017=
METAR ESMK 080650Z VRB01KT CAVOK 21/14 Q1021=
METAR ESMQ 080650Z VRB01KT CAVOK 21/13 Q1020=
METAR ESMS 080650Z 21010KT CAVOK 21/12 Q1021=
METAR ESMT 080650Z 17010KT CAVOK 19/14 Q1020=
METAR ESMX 080650Z NIL=
METAR ESTA 080650Z 17007KT CAVOK 19/14 Q1020=
METAR ESTL 080650Z AUTO 21010KT 9999NDV FEW073/// 21/14 Q1020=
####018000101####
SAHW31 PWAK 080653
METAR PWAK 080652Z 08015G18KT 8SM HZ FEW020 FEW030 28/24 A2996 
RMK AO2A
=
####018000069####
SABZ22 SBBR 080700
METAR SBBR 080700Z 12005KT CAVOK 17/08 Q1022 =
####018000392####
SADL32 EDZO 080650
METAR EDDB 080650Z 21002KT CAVOK 20/10 Q1022 NOSIG=
METAR EDDC 080650Z VRB02KT CAVOK 19/11 Q1023 NOSIG=
METAR EDDE 080650Z 18003KT CAVOK 19/11 Q1022 NOSIG=
METAR EDDG 080650Z VRB02KT CAVOK 21/13 Q1019 NOSIG=
METAR EDDP 080650Z 17005KT CAVOK 19/12 Q1022 NOSIG=
METAR EDDR 080650Z 07005KT CAVOK 21/11 Q1021 NOSIG=
METAR EDDW 080650Z 15004KT CAVOK 23/13 Q1019 NOSIG=
####018000091####
SPAF31 KWBC 080654
SPECI
DNMM 080623Z 00000KT 5000 BR FEW007 23/23 Q1015 TEMPO 3000=
####018000498####
SADL31 EDZO 080650
METAR EDDF 080650Z 01004KT CAVOK 21/12 Q1021 NOSIG=
METAR EDDH 080650Z 17008KT CAVOK 23/12 Q1019 NOSIG=
METAR EDDK 080650Z 14007KT CAVOK 23/12 Q1020 NOSIG=
METAR EDDL 080650Z 16006KT CAVOK 24/10 Q1019 NOSIG=
METAR EDDM 080650Z 06004KT CAVOK 18/11 Q1023 NOSIG=
METAR EDDN 080650Z 14005KT CAVOK 20/09 Q1022 NOSIG=
METAR EDDS 080650Z VRB02KT CAVOK 20/10 Q1022 NOSIG=
METAR EDDT 080650Z 15003KT CAVOK 21/09 Q1022 NOSIG=
METAR EDDV 080650Z 20005KT CAVOK 23/11 Q1020 NOSIG=
####018000417####
SADN31 EKCH 080650
METAR EKCH 080650Z 19010KT CAVOK 20/15 Q1020 NOSIG=
METAR EKBI 080650Z NIL=
METAR EKYT 080650Z 22012KT 9999 FEW027 BKN120 20/14 Q1017 NOSIG=
METAR EKRK 080650Z 18010KT CAVOK 21/13 Q1020=
METAR EKAH 080650Z AUTO 20008KT 130V260 9999NDV SCT035/// BKN140///
21/13 Q1018=
METAR EKEB 080650Z AUTO 19008KT 9999NDV OVC049/// 20/16 Q1017=
METAR EKRN 080650Z AUTO 19003KT 9999NDV NCD 18/15 Q1022=
####018000089####
SALI20 GLRB 080700
METAR GLRB 080700Z 00000KT 9999 BKN012 FEW024CB 24/23 Q1014 NOSIG=
####018000181####
SADN33 EKCH 080650
METAR EKKA 080650Z 20009KT 160V240 9999 FEW030 BKN060 21/14
Q1017 TEMPO 6000 SHRA SCT020CB=
METAR EKSP 080650Z 18007KT 9999 FEW045 BKN050 20/12 Q1018 NOSIG=
####018000222####
SADN34 EKCH 080650
METAR EKGF 080650Z 21014KT CAVOK 16/16 Q////=
METAR EKHN 080650Z AUTO 21006KT 120V280 7000NDV -RA   BKN050///
18/14 Q1018=
METAR EKHR 080650Z AUTO 19013KT 9999NDV FEW031/// OVC045///
19/14 Q1017=
####018000225####
SADN32 EKCH 080650
METAR EKVJ 080650Z NIL=
METAR EKSB 080650Z 19006KT CAVOK 20/13 Q1018=
METAR EKSN 080650Z 21009KT 9999 SCT023 BKN090 18/13 Q1017=
METAR EKVD 080650Z NIL=
METAR EKOD 080650Z 19007KT CAVOK 21/14 Q1019=
####018003702####
SAUS70 KWBC 080700
METAR
KACT 080651Z 15005KT 10SM SCT020 BKN025 BKN032 27/23 A2998 RMK AO2
     SLP144 T02670228=
KIDP 080650Z AUTO 36003KT 10SM SCT047 BKN060 21/20 A3005 RMK
     AO2=
KILG 080651Z AUTO 12005KT 6SM HZ CLR 26/22 A3000 RMK AO2 SLP158
     T02560222 $=
KJFK 080651Z 00000KT 1/2SM R04R/P6000FT FG OVC003 24/23 A3002 RMK
     AO2 SLP166 T02440233 $=
KJSV 080650Z AUTO 10003KT 10SM BKN070 23/23 A3003 RMK AO2
     P0002=
KLGA 080651Z 13005KT 6SM HZ FEW110 BKN250 27/23 A3001 RMK AO2
     SLP162 T02670228=
KLGU 080651Z AUTO 20004KT 10SM FEW110 16/07 A3012 RMK AO2 SLP153
     T01610072 402780067=
KLRU 080651Z AUTO 04008KT 10SM CLR 21/14 A3015 RMK AO2=
KMDW 080651Z 26006KT 9SM FEW050 BKN095 OVC200 24/22 A3004 RMK AO2
     RAB00E35 SLP161 P0005 T02390217=
KMPV 080651Z AUTO 00000KT 5SM BR CLR 21/19 A3010 RMK AO2 SLP186
     T02110194=
KOKM 080651Z AUTO 06004KT 10SM BKN023 BKN049 BKN075 24/24 A3002
     RMK AO1 LTG DSNT NE=
KONP 080650Z AUTO 20009KT 2 1/2SM BR OVC002 11/10 A2998 RMK
     AO1=
KORD 080651Z 30004KT 10SM -TSRA BKN033CB OVC100 23/22 A3004 RMK
     AO2 TSB29 SLP166 OCNL LTGICCC OHD TS OHD MOV NE P0012
     T02280217=
KPHX 080651Z 00000KT 10SM FEW120 35/01 A2974 RMK AO2 SLP047
     T03500011 404170283 $=
KPIT 080651Z 00000KT 7SM CLR 23/18 A3008 RMK AO2 SLP183
     T02280183=
KPWM 080651Z AUTO 00000KT 9SM OVC008 21/19 A3006 RMK AO2 SLP179
     T02110194 $=
KRDU 080651Z 00000KT 7SM FEW090 26/19 A2997 RMK AO2 SLP143
     T02610189 $=
KSJT 080651Z AUTO 05005KT 10SM -RA BKN035 22/19 A3003 RMK AO2
     TSE17 SLP144 P0016 T02170194=
KSLK 080651Z AUTO 00000KT 1 3/4SM BR CLR 18/17 A3009 RMK AO2
     SLP176 T01830172=
KSMO 080651Z AUTO 22003KT 10SM OVC011 17/13 A2991 RMK AO2 SLP129
     T01670133=
KSTL 080651Z 23004KT 10SM FEW027 SCT050TCU BKN075 BKN150 BKN250
     27/23 A3004 RMK AO2 SLP157 TCU NW AND OHD T02720228=
KVNY 080651Z AUTO 12003KT 8SM CLR 15/13 A2991 RMK AO2 SLP122
     T01500128=
K1F0 080647Z AUTO 00000KT 10SM CLR 24/23 A2999 RMK AO2=
K4O4 080648Z AUTO 09003KT 10SM SCT001 SCT006 SCT013 23/22 A3004
     RMK AO2=
KADH 080650Z AUTO 00000KT 7SM OVC004 23/22 A3002 RMK AO2=
KADM 080650Z AUTO 00000KT 7SM SCT060 23/23 A3000 RMK AO2=
KAHN 080651Z AUTO 29003KT 9SM CLR 22/19 A3004 RMK AO2 SLP163
     T02220194 $=
KALM 080650Z AUTO 32005KT 10SM SCT100 21/14 A3016 RMK AO2=
KASH 080651Z 00000KT 10SM CLR 25/22 A3005 RMK AO2 T02500216
     SLP176=
KATS 080650Z AUTO 36010G15KT 7SM -RA SCT027 BKN036 BKN075 20/17
     A3016 RMK AO2=
KAVX 080651Z AUTO 29003KT 1/2SM FG VV001 11/11 A2994 RMK AO2
     SLP132 T01110111 TSNO=
KAXX 080650Z AUTO 00000KT 10SM CLR 06/05 A3047 RMK AO2=
KBAZ 080651Z AUTO 06006KT 10SM FEW015 BKN024 OVC039 26/23 A2994
     RMK AO2 SLP129 T02560233=
KBGD 080651Z AUTO 30005KT 9SM -RA BKN110 19/18 A3018 RMK AO2 LTG
     DSNT NE AND S SLP179 P0006 T01940183=
KCHK 080651Z AUTO 00000KT 10SM BKN021 23/23 A3004 RMK AO2=
KCLE 080651Z 00000KT 8SM CLR 23/18 A3008 RMK AO2 SLP179 T02330183
     $=
KCMH 080651Z 00000KT 9SM CLR 24/19 A3007 RMK AO2 SLP175 T02390189
     $=
KCQB 080650Z AUTO 03003KT 10SM 23/23 A3003 RMK AO2 TSNO=
KCSG 080651Z 00000KT 10SM CLR 27/19 A3003 RMK AO2 SLP162
     T02670194=
KDAW 080651Z AUTO 00000KT 2 1/2SM BR OVC003 22/21 A3005 RMK AO2
     SLP172 T02170206 $=
KDUA 080657Z AUTO 15006KT 10SM SCT065 BKN075 26/23 A3001 RMK
     AO2=
KDUC 080652Z AUTO 03003KT 10SM CLR 23/22 A3003 RMK AO2=
KERI 080651Z 00000KT 9SM CLR 22/18 A3006 RMK AO2 SLP174
     T02220183=
KEWR 080651Z 00000KT 5SM BR SCT006 BKN090 BKN250 25/24 A3001 RMK
     AO2 SLP162 T02500244=
####018003749####
SAUS70 KWBC 080700 RRA
METAR
KFET 080650Z AUTO 33004KT 10SM CLR 19/17 A3014 RMK AO2=
KGCD 080650Z AUTO 14003KT 10SM CLR 20/05 A3010 RMK AO2
     T02010046=
KGCM 080655Z AUTO 22005KT 10SM VCTSRA SCT002 SCT022 22/22 A3006
     RMK AO2 LTG DSNT SW P0003=
KGMJ 080654Z AUTO 00000KT 26/26 A3003 RMK AO2 P0004 PWINO=
KHDO 080651Z AUTO 07004KT 10SM CLR 25/23 A2996 RMK AO2 SLP127
     T02500228=
KJCT 080651Z AUTO 00000KT 10SM CLR 23/22 A3001 RMK AO2 RAE0559
     SLP122 P0000 T02330217 TSNO=
PAWI 080650Z 23013KT 10SM CLR 07/04 A3002 RMK VIA PHONE=
K36U 080656Z AUTO 17003KT 10SM CLR 13/05 A3018 RMK AO2=
KAFK 080650Z AUTO 00000KT 7SM SCT120 21/19 A3009 RMK AO2
     T02050192=
KAFN 080652Z AUTO 00000KT 8SM CLR 24/21 A3008 RMK AO2 SLP183
     T02390211 $=
KAIK 080655Z AUTO 25005KT 10SM CLR 23/22 A3004 RMK AO2 PNO=
KAMG 080653Z AUTO 00000KT 10SM CLR 21/19 A3002 RMK AO2 SLP163
     T02110194=
KANW 080650Z AUTO 00000KT 10SM OVC110 17/15 A3023 RMK AO2
     T01670149=
KAQW 080652Z AUTO 00000KT 3SM BR CLR 19/19 A3005 RMK AO2 SLP171
     T01940189=
KARR 080652Z AUTO 00000KT 6SM -RA BR BKN095 OVC120 22/22 A3004 RMK
     AO2 TSB0556E21 SLP166 P0017 T02220217 $=
KARW 080655Z AUTO 26005KT 10SM CLR 25/18 A2998 RMK AO2=
KATL 080652Z 23004KT 10SM CLR 26/20 A3005 RMK AO2 SLP162
     T02610200=
KAUH 080650Z AUTO 34003KT 10SM CLR 17/15 A3018 RMK AO2
     T01650154=
KAUN 080650Z AUTO 00000KT 10SM CLR 21/12 A2986 RMK AO1=
KAXS 080650Z AUTO 00000KT 10SM CLR 24/22 A3005 RMK AO2
     T02370221=
KBDN 080655Z AUTO 29006KT 10SM CLR 20/04 A3009 RMK AO2=
KBIE 080650Z AUTO 35004KT 4SM BR CLR 20/19 A3011 RMK AO2
     T01990190=
KBIS 080652Z AUTO 27003KT 10SM CLR 15/11 A3013 RMK AO2 SLP197
     T01500111=
KBLF 080652Z AUTO 25004KT 6SM HZ CLR 22/18 A3019 RMK AO2 SLP174
     T02170183=
KBLH 080652Z AUTO 19008KT 10SM CLR 32/04 A2970 RMK AO2 SLP049
     T03220044=
KBML 080652Z AUTO 00000KT 1/4SM FG FEW001 SCT008 OVC050 19/18
     A3008 RMK AO2 SLP180 T01890183 $=
KBTA 080650Z AUTO 33006KT 10SM CLR 20/17 A3012 RMK AO2
     T01970174=
KBVN 080650Z AUTO 34003KT 10SM CLR 16/15 A3019 RMK AO2
     T01570146=
KBVS 080650Z AUTO 30003KT 10SM CLR 17/14 A2995 RMK A01 P000=
KCEW 080653Z AUTO 00000KT 5SM BR CLR 22/22 A3004 RMK AO2 SLP169
     T02220217=
KCFV 080652Z AUTO 34004KT 10SM SCT055 BKN100 23/22 A3004 RMK AO2
     SLP166 T02280217=
KCKV 080652Z AUTO 00000KT 10SM FEW080 24/22 A3006 RMK AO2 SLP173
     T02390222=
KCLK 080653Z AUTO 36004KT 10SM CLR 22/20 A3006 RMK AO2=
KCLT 080652Z 34004KT 10SM CLR 23/18 A3001 RMK AO2 SLP150
     T02280178=
KCQX 080652Z AUTO 00000KT 3/4SM BR VV001 19/19 A3008 RMK AO2
     SLP187 T01940189=
KCUB 080653Z AUTO 24003KT 10SM CLR 27/18 A3000 RMK AO2 SLP156
     T02670178=
KCUH 080650Z AUTO 00000KT 10SM SCT037 BKN044 OVC050 25/23 A3003
     RMK AO2=
KCVG 080652Z 00000KT 8SM CLR 24/19 A3008 RMK AO2 SLP175
     T02390189=
KDCA 080652Z 11004KT 8SM FEW080 BKN250 29/21 A2998 RMK AO2 SLP150
     T02940206=
KDDC 080652Z AUTO 03006KT 7SM CLR 18/17 A3017 RMK AO2 SLP194
     T01780167=
KDPA 080652Z 00000KT 7SM -RA SCT026 SCT050 SCT110 23/22 A3004 RMK
     AO2 TSB0556E33RAB0558 SLP167 P0016 T02280217=
KDVN 080652Z AUTO 00000KT 5SM BR BKN026 BKN032 22/21 A3002 RMK AO2
     RAE04 SLP161 P0000 T02220211=
KDVO 080650Z AUTO 31005KT 10SM FEW012 13/12 A2993 RMK AO2=
KEST 080652Z AUTO 30004KT 10SM CLR 17/16 A3012 RMK AO2 SLP193
     T01670156=
KFDW 080655Z AUTO 26003KT 10SM CLR 27/17 A3001 RMK AO1=
KFIT 080652Z AUTO 15004KT 8SM SCT060 BKN075 25/22 A3006 RMK AO2
     SLP175 T02500222=
KGLS 080652Z AUTO 11016KT 10SM FEW027 28/24 A2992 RMK AO2 SLP130
     T02780239=
####018000565####
SPUS70 KWBC 080654
SPECI
KNSE 080641Z AUTO 00000KT 1 3/4SM BR CLR 23/22 A3003 RMK AO2 $=
KTXK 080651Z AUTO 00000KT 10SM SCT007 23/23 A3003 RMK AO2=
KNSE 080641Z AUTO 00000KT 1 3/4SM BR CLR 23/22 A3003 RMK AO2 $=
KITR 080651Z AUTO 03004KT 10SM FEW009 SCT015 OVC030 17/15 A3030
     RMK AO2 402060139=
KMVY 080651Z AUTO 15004KT 1/2SM R24/1800V5000FT FG VV001 21/19
     A3006 RMK AO2=
KPUB 080651Z AUTO 00000KT 10SM BKN014 BKN065 15/14 A3032 RMK AO2
     402610139=
KICT 080651Z 01006KT 10SM BKN025 BKN070 BKN200 23/21 A3009 RMK AO2
     $=
####018000360####
SAXX60 KWBC 080700
METAR
KBLV 080655Z AUTO 00000KT 10SM FEW190 24/24 A3003 RMK AO2 SLP166
     T02430241=
KNHK 080652Z 10004KT 4SM HZ CLR 27/24 A2997 RMK AO2 SLP149
     T02720239=
KNZY 080652Z 29006KT 10SM OVC017 18/13 A2991 RMK AO2 SLP127
     T01830128 $=
KNFW 080652Z AUTO 16006KT 10SM FEW060 27/22 A3003 RMK AO2 SLP153
     T02670217=
####018000565####
SAUS70 KWBC 080700 RRC
METAR
KTRM 080652Z AUTO 34008KT 10SM CLR 28/12 A2967 RMK AO2 SLP050
     T02780122=
KUDG 080655Z 27006KT 10SM BKN100 27/18 A2998 RMK AO1=
KUGN 080652Z AUTO 00000KT 9SM -RA SCT045 SCT060 BKN090 23/21 A3003
     RMK AO2 LTG DSNT NE TSB25E40RAB20 SLP156 P0029 T02330211=
KVLD 080653Z AUTO 00000KT 10SM CLR 21/19 A3003 RMK AO2 SLP173
     T02060194=
KWDG 080650Z AUTO 03007KT 10SM SCT029 BKN047 OVC090 22/22 A3009
     RMK AO2=
KWWR 080649Z AUTO 01007KT 10SM -DZ SCT027 SCT050 BKN120 23/21
     A3014 RMK AO2 T02250207=
####018003497####
SAUS80 KWBC 080700
METAR
KSAN 080651Z 31004KT 10SM OVC016 17/13 A2993 RMK AO2 SLP134
     T01720133=
KCON 080651Z AUTO 00000KT 6SM BR BKN085 23/21 A3005 RMK AO2 SLP175
     T02280206=
KVCT 080651Z AUTO 04007KT 10SM CLR 26/25 A2989 RMK AO2 SLP120
     T02560250=
KP58 080651Z AUTO 22004KT 24/21 A3001 RMK AO2 SLP153 T02390211
     PWINO TSNO=
KIZA 080649Z AUTO 00000KT 10SM OVC011 14/11 A2992 RMK AO2=
KMYL 080651Z AUTO 00000KT 10SM CLR 13/06 A3016 RMK AO2 SLP176
     T01280061 402440050=
KOXR 080651Z AUTO 32009G25KT 140V040 10SM OVC015 16/12 A2991 RMK
     AO2 SLP128 T01560122 $=
KPTS 080650Z AUTO 00000KT 10SM CLR 22/ A3004 RMK AO2 T0220=
KROW 080651Z AUTO 35007KT 10SM FEW038 BKN045 OVC100 20/15 A3018
     RMK AO2 SLP156 T02000150 403110183 TSNO=
KTEB 080651Z 20004KT 5SM HZ CLR 26/22 A3000 RMK AO2 SLP158
     T02560222=
KYNG 080651Z 00000KT 6SM BR HZ CLR 19/18 A3009 RMK AO2 SLP181
     T01940178=
KALB 080651Z 00000KT 6SM HZ CLR 24/21 A3002 RMK AO2 SLP165
     T02390206=
KBDL 080651Z 17007KT 7SM BKN110 25/21 A3003 RMK AO2 SLP166
     T02500211=
KBKW 080651Z AUTO 00000KT 4SM BR CLR 21/18 A3017 RMK AO2 SLP173
     T02060183 VISNO RWY19 $=
KEKN 080651Z AUTO 00000KT 3SM BR BKN080 18/17 A3016 RMK AO2 SLP198
     T01780172 TSNO=
KELP 080651Z 05009KT 10SM FEW060 SCT080 BKN110 26/14 A3010 RMK AO2
     SLP114 CB OCNL LTGIC DSNT N T02610139 403390211=
KHTS 080651Z 00000KT 2 1/2SM BR CLR 22/21 A3007 RMK AO2 SLP173
     T02220206=
KSMX 080651Z AUTO 33005KT 10SM OVC011 13/11 A2992 RMK AO2 SLP135
     T01280106 TSNO $=
KORF 080651Z 10004KT 4SM BR CLR 26/24 A2995 RMK AO2 SLP142
     T02560239=
KATT 080651Z AUTO VRB03KT 10SM OVC013 26/23 A2997 RMK AO2 SLP133
     T02610228 $=
KNYC 080651Z AUTO 00000KT 6SM HZ CLR 26/22 A3004 RMK AO2 SLP163
     T02560222 TSNO=
KP59 080651Z AUTO 24007KT 19/18 A2995 RMK AO2 SLP134 T01890178
     PWINO TSNO=
KABE 080651Z 33003KT 8SM CLR 23/20 A3002 RMK AO2 SLP161
     T02330200=
KSNT 080651Z AUTO 18003KT 07/M01 A3028 RMK AO2 SLP178 T00671006
     402391017 PWINO TSNO=
KCRP 080651Z 09005KT 9SM -RA FEW010 SCT070 BKN080 27/26 A2985 RMK
     AO2 TSB15E44RAE0555B38 SLP106 OCNL LTG DSNT NE NW TS MOV W CB
     DSNT NE NW P0001 T02670256=
KHSE 080651Z AUTO 00000KT 4SM BR BKN110 25/25 A2992 RMK AO2 SLP130
     T02500250 TSNO=
KSAD 080651Z AUTO 09010KT 10SM CLR 27/11 A2997 RMK AO2 SLP085
     T02720111 403890239 TSNO=
KCAK 080651Z 00000KT 7SM CLR 22/18 A3009 RMK AO2 SLP178
     T02220183=
KCZZ 080652Z AUTO 00000KT 11/09 A2990 RMK AO2 SLP097 T01060094
     PWINO TSNO=
KMLF 080652Z AUTO 02003KT 10SM CLR 14/01 A3008 RMK AO2 SLP123
     T01440006 403170100 TSNO=
KN60 080652Z AUTO 28006KT 14/13 A3010 RMK AO1 SLP189 T01390128=
KALS 080652Z AUTO 00000KT 10SM CLR 08/07 A3040 RMK AO2 SLP209
     T00830072 402440083=
KBDR 080652Z AUTO 05005KT 4SM BR FEW090 SCT110 24/22 A3003 RMK AO2
     SLP167 T02440222=
KCID 080652Z AUTO 33005KT 8SM FEW120 21/20 A3003 RMK AO2 SLP162
     T02060200=
KCNU 080652Z AUTO 00000KT 10SM FEW031 21/20 A3006 RMK AO2 RAE0553
     SLP169 T02110200=
KMFD 080652Z AUTO 00000KT 7SM CLR 22/18 A3010 RMK AO2 SLP181
     T02170178=
KMHK 080652Z AUTO 03004KT 10SM BKN100 BKN120 22/21 A3008 RMK AO2
     SLP178 T02220206=
KTOL 080652Z 00000KT 10SM CLR 22/18 A3004 RMK AO2 SLP167
     T02170183=
KVTN 080652Z AUTO 00000KT 10SM BKN100 BKN120 17/14 A3023 RMK AO2
     SLP225 T01670144=
####018000137####
SAPQ50 KWBC 080700
METAR
PGWT 080651Z 08017KT 7SM FEW015 SCT100 30/25 A2984=
PGWT 080651Z 08017KT 7SM FEW015 SCT100 30/25 A2984=
####018000589####
SPXX60 KWBC 080654
SPECI
KVAD 080646Z AUTO 00000KT 8SM R18/5500VP6000FT CLR 23/20 A3003 RMK
     AO2 SLP167 $=
KDOV 080648Z AUTO 13004KT 4SM BR FEW003 SCT110 24/24 A2998 RMK AO2
     SLP154=
KHST 080646Z AUTO 05006KT 10SM BKN020 BKN040 27/25 A2994 RMK AO2
     DZB0629E0635 BKN020 V SCT SLP140 $=
KNUQ 080645Z AUTO 02007KT 10SM OVC015 16/12 A2992 RMK AO2 TSNO=
KSLI 080647Z AUTO 00000KT 10SM BKN015 15/13 A2992 RMK AO2 BKN V
     SCT SLP132=
KWRI 080647Z AUTO 13004KT 2 1/2SM R18/4500V5000FT R24/2600V3000FT
     BR BKN003 24/23 A2999 RMK AO2 BKN V SCT SLP157 $=
####018003679####
SAUS70 KWBC 080700 RRB
METAR
KGLY 080655Z AUTO 00000KT 7SM FEW038 BKN065 23/23 A3005 RMK
     AO2=
KHRL 080652Z AUTO 35003KT 10SM SCT024 26/26 A2981 RMK AO2 SLP093
     T02610261=
KHUT 080652Z AUTO 36003KT 10SM SCT110 22/20 A3011 RMK AO2 SLP173
     T02170200=
KIAD 080652Z 31004KT 7SM FEW110 28/19 A2999 RMK AO2 SLP150
     T02780189=
KIEN 080652Z AUTO 00000KT 10SM CLR 11/09 A3027 RMK AO2 SLP237
     T01060094 402060106=
KIJD 080652Z AUTO 00000KT 4SM BR OVC007 23/22 A3005 RMK AO2 CIG
     006V011 SLP171 T02280217=
KIOW 080652Z AUTO 30004KT 10SM FEW090 22/22 A3003 RMK AO2 SLP162
     T02220217=
KISN 080652Z 00000KT 10SM FEW080 OVC110 16/11 A3012 RMK AO2 SLP194
     T01610111=
KLAM 080650Z AUTO 00000KT 10SM SCT120 15/09 A3037 RMK AO2=
KLWC 080652Z AUTO 32009KT 10SM OVC019 23/21 A3008 RMK AO2 SLP177
     T02280211=
KMAI 080653Z AUTO 00000KT 10SM CLR 23/21 A3002 RMK AO2 SLP165
     T02330211=
KMDH 080652Z AUTO 00000KT 10SM BKN110 24/22 A3004 RMK AO2 SLP169
     T02440222=
KMEB 080652Z AUTO 29003KT 10SM BKN090 25/18 A2996 RMK AO2 SLP141
     T02500178=
KMEZ 080655Z AUTO 00000KT 10SM SCT016 BKN024 25/23 A3006 RMK
     AO2=
KMKE 080652Z 28009KT 10SM -RA SCT065 BKN085 OVC200 24/22 A3001 RMK
     AO2 RAB37 SLP158 P0000 T02390217=
KMLI 080652Z 00000KT 9SM CLR 23/22 A3001 RMK AO2 RAE22 SLP158
     P0001 T02280217 $=
KMWH 080652Z AUTO 36004KT 10SM CLR 18/07 A3000 RMK AO2 SLP152
     T01830072=
KMYR 080655Z AUTO 28010KT 10SM CLR 26/21 A2997 RMK AO1=
KOAJ 080655Z AUTO 00000KT 10SM CLR 23/21 A2992 RMK AO1=
KOCF 080655Z AUTO 00000KT 10SM CLR 22/21 A3002 RMK AO1=
KOJA 080650Z AUTO 36003KT 10SM CLR 22/22 A3007 RMK AO2=
KOKB 080652Z AUTO 00000KT 9SM OVC014 18/14 A2991 RMK AO2 SLP126
     T01780139=
KOMA 080652Z 34004KT 10SM SCT130 20/19 A3011 RMK AO2 SLP188
     T02000189=
KORE 080652Z AUTO 00000KT 9SM SCT075 OVC100 24/22 A3005 RMK AO2
     SLP172 T02440217=
KORS 080650Z AUTO 00000KT 10SM CLR 18/12 A2992 RMK AO2=
KOUN 080652Z AUTO 00000KT 10SM BKN019 OVC023 25/23 A3004 RMK
     AO2=
KPLU 080650Z AUTO 00000KT 10SM FEW036 SCT047 SCT070 17/14 A2992
     RMK AO2=
KPPF 080652Z AUTO 36003KT 10SM SCT029 SCT045 BKN055 22/21 A3006
     RMK AO2 SLP170 T02220211=
KPSO 080655Z AUTO 30003KT 10SM SCT065 OVC090 14/05 A3039 RMK AO2
     LTG DSNT NW=
KPVJ 080647Z AUTO 00000KT 10SM CLR 24/22 A3002 RMK AO2=
KPWK 080652Z AUTO 28004KT 3SM -RA BR BKN007 BKN036 BKN095 23/21
     A3006 RMK AO2 TSB29E51 SLP174 P0037 T02280211=
KPYM 080652Z AUTO 15004KT 7SM CLR 21/18 A3007 RMK AO2 SLP181
     T02060183=
KRAP 080652Z AUTO 00000KT 10SM CLR 11/09 A3024 RMK AO2 SLP231
     T01110094 402330078=
KRKR 080652Z AUTO 00000KT 10SM SCT030 SCT085 28/24 A3003 RMK
     AO2=
KSGF 080652Z 00000KT 10SM SCT120 23/22 A3005 RMK AO2 SLP162
     T02330222=
KSNL 080652Z AUTO 00000KT 10SM SCT007 BKN029 OVC047 25/24 A3004
     RMK AO2=
KSOP 080655Z AUTO 33004KT 10SM CLR 25/17 A2997 RMK AO1=
KSPI 080652Z AUTO 00000KT 10SM -RA FEW060 BKN070 OVC090 24/23
     A3004 RMK AO2 LTG DSNT SW RAB32 SLP166 P0000 T02440228=
KSRE 080650Z AUTO 00000KT 7SM 24/24 A3002 RMK AO2=
KSSI 080653Z AUTO 22005KT 10SM CLR 24/22 A3001 RMK AO2 SLP162
     T02390217=
KSUX 080652Z 31004KT 10SM CLR 18/17 A3014 RMK AO2 SLP201
     T01780167=
KSVC 080650Z AUTO 36014KT 7SM -RA FEW021 SCT033 OVC047 17/14 A3022
     RMK AO2 P0003=
KTAN 080652Z AUTO 00000KT 10SM OVC023 22/20 A3004 RMK AO2 SLP173
     T02170200=
KTMK 080653Z AUTO 14004KT 10SM BKN006 BKN011 13/12 A2994 RMK
     AO2=
KTQH 080654Z AUTO 00000KT 10SM SCT014 BKN026 24/24 A3004 RMK AO2
     P0007=
####018000118####
SAUS46 KSTO 080653
MTRBLU
METAR KBLU 080652Z AUTO 00000KT 10SM CLR 19/08 A3009 RMK AO2 SLP091 
T01940083 TSNO
####018000317####
SAAS31 KWBC 080630 RRC
METAR
VABB 080640Z 14007KT 2000 VCSH SCT010 SCT015 FEW030CB OVC080 26/25
     Q1008 TEMPO 1500 +SHRA=
VOMM 080640Z 12004KT 2000 -DZ SCT018 OVC080 27/26 Q1010 NOSIG=
VOTR 080640Z 26005KT 6000 SCT020 OVC100 31/23 Q1010=
VOTV 080640Z 32007KT 4000 HZ FEW015 BKN200 28/24 Q1010 NOSIG=
####018000171####
SAAW31 KWBC 080630 RRA
METAR
LLBG 080650Z 22004KT 9999 SCT030 28/20 Q1010 NOSIG=
LLET 080650Z 02015KT CAVOK 33/11 Q1008=
LLOV 080650Z 35004KT CAVOK 29/10 Q1011=
####018000070####
SABZ22 SBBR 080700
METAR SBBR 080700Z 12005KT CAVOK 17/08 Q1022 =
####018000135####
SAAW32 KWBC 080600 RRE
METAR
OKBK 080600Z 33015KTCAVOK 42/M01 Q1002 NOSIG=
OTBD 08:600Z 01010KT 4500 HZ NSC 35/29 Q1001 NOSIG=
####018000234####
SAAW33 KWBC 080600 RRE
METAR
OBBI 080600Z 2:006KT 4000 HZ NSC 35/27 Q1001 BECMG 5000=
OMAL 080600Z 19005KT 100V280 6000 NSC 37/26 Q1003 A-963=
OOMS 080600Z 35005KT 318V030 6000 SCT025 SCT120 BKN250 34/28 Q1002
     NOSIG=
####018000092####
SAAW42 KWBC 080600 RRD
METAR
OBBI 080600Z 2:006KT 4000 HZ NSC 35/27 Q1001 BECMG 5000=
####018000417####
SADL33 KWBC 080645 RRA
METAR
EDDB 080650Z 21002KT CAVOK 20/10 Q1022 NOSIG=
EDDC 080650Z VRB02KT CAVOK 19/11 Q1023 NOSIG=
EDDG 080650Z VRB02KT CAVOK 21/13 Q1019 NOSIG=
EDDP 080650Z 17005KT CAVOK 19/12 Q1022 NOSIG=
EDDR 080650Z 07005KT CAVOK 21/11 Q1021 NOSIG=
EDDT 080650Z 15003KT CAVOK 21/09 Q1022 NOSIG=
EDDV 080650Z 20005KT CAVOK 23/11 Q1020 NOSIG=
EDDW 080650Z 15004KT CAVOK 23/13 Q1019 NOSIG=
####018000081####
SAEW31 KWBC 080630 RRB
METAR
LXGB 080650Z 10015KT CAVOK 25/24 Q1015 NOSIG=
####018000095####
SAUZ31 UTTW 080630
METAR UTNU 080630Z 17004MPS 140V210 CAVOK 39/13 Q1009 R13/CLRD60
NOSIG=
####018000293####
SAGL31 BGSF 080650
METAR BGSF 080650Z 07006KT 9999 FEW070 07/02 Q1009=
METAR BGBW 080650Z 08002KT 9999 FEW068 09/04 Q1009 RMK 1AC =
METAR BGGH 080650Z AUTO 26003KT 9999NDV  OVC003/// 05/03 Q1010=
METAR BGJN 080650Z AUTO 26002KT 0350NDV  FG VV001/// 05/05 Q1010=
METAR BGKK 080653Z NIL=
####018000077####
SABZ18 SBSJ 080700
METAR SBSJ 080700Z 00000KT 5000 BR SCT010 12/11 Q1022=
####018000115####
SAXX99 KWBC 080600 RRX
METAR
K4O4 080648Z AUTO 09003KT 10SM SCT001 SCT006 SCT013 23/22 A3004
     RMK AO2=
####018000091####
SPUS43 KWBC 080654
SPECI
KICT 080651Z 01006KT 10SM BKN025 BKN070 BKN200 23/21 A3009=
####018000089####
SPUS43 KWBC 080654
SPECI
KPUB 080651Z AUTO 00000KT 10SM BKN014 BKN065 15/14 A3032=
####018000127####
SAUS44 KSJT 080653
MTRABI
METAR KABI 080652Z 17004KT 9SM CLR 22/21 A3003 RMK AO2 PK WND 
15034/0612 SLP139 T02170211 $
####018000115####
SAUS43 KFSD 080654
MTR9V9
METAR K9V9 080652Z AUTO 00000KT 17/14 A3018 RMK AO2 SLP212 T01720144 
PWINO TSNO
####018000305####
SASW32 LSSW 080650
METAR LSGC 080650Z NIL=
METAR LSGS 080650Z VRB03KT CAVOK 22/12 Q1022=
METAR LSZG 080650Z 06003KT CAVOK 19/11 Q1022 NOSIG=
METAR LSZR 080650Z VRB02KT CAVOK 19/13 Q1022 NOSIG RMK D=
METAR LSZS 080650Z VRB01KT CAVOK 11/09 Q1027=
METAR LSZC 080650Z 00000KT CAVOK 21/14 Q1022=
####018000366####
SAUS43 KWBC 080600 RRM
METAR
KIGQ 080640Z AUTO 00000KT 5SM BR CLR 24/22 A3003=
KSAR 080645Z AUTO 00000KT 10SM CLR 25/23 A3005=
KSLO 080640Z AUTO 20004KT 10SM SCT120 25/22 A3005=
KTAZ 080645Z AUTO 00000KT 10SM CLR 24/23 A3003=
KTIP 080645Z AUTO 29004KT 7SM -TSRA SCT050 BKN070 BKN095 24/23
     A3006=
KVYS 080645Z AUTO 00000KT 7SM CLR 23/21 A3003=
####018000107####
SAUS52 KWBC 080600 RRG
METAR
KSEP 080645Z AUTO 00000KT 10SM BKN026 BKN070 BKN090 23/20
     A3002=
####018000068####
SAUS53 KWBC 080600 RRN
METAR
KEHA 080648Z AUTO 30010KT 17/14=
####018000130####
SAUS46 KLOX 080654
MTRSDB
METAR KSDB 080652Z AUTO 33008KT 10SM CLR 19/03 A3004 RMK AO2 SLP116 
T01890028 402780167 TSNO $
####018000116####
SAUS46 KPQR 080654
MTRREO
METAR KREO 080652Z AUTO 14003KT 12/M04 A3008 RMK AO2 SLP155 
T01221044 PWINO TSNO
####018000103####
SPCN47 CWAO 080652
SPECI CYPQ 080652Z AUTO ///// 5/8SM CLR 21/21 A3003 RMK VSBY VRBL
0.3V5.0=

####018000086####
SAUS54 KWBC 080600 RRI
METAR
KIZA 080649Z AUTO 00000KT 10SM OVC011 14/11 A2992=
####018000082####
SPUS72 KWBC 080654
SPECI
KTXK 080651Z AUTO 00000KT 10SM SCT007 23/23 A3003=
####018000091####
SPUS73 KWBC 080654
SPECI
KICT 080651Z 01006KT 10SM BKN025 BKN070 BKN200 23/21 A3009=
####018000089####
SPUS73 KWBC 080654
SPECI
KPUB 080651Z AUTO 00000KT 10SM BKN014 BKN065 15/14 A3032=
####018000090####
SALI20 GLRB 080700
METAR GLRB 080700Z 00000KT 9999 BKN012 FEW024CB 24/23 Q1014 NOSIG=
####018000227####
SADN34 EKCH 080650
METAR EKGF 080650Z 21014KT CAVOK 16/16 Q////=
METAR EKHN 080650Z AUTO 21006KT 120V280 7000NDV -RA   BKN050///
18/14 Q1018=
METAR EKHR 080650Z AUTO 19013KT 9999NDV FEW031/// OVC045///
19/14 Q1017=
####018000481####
SAFI31 EFHK 080650
METAR EFHK 080650Z 32008KT 9999 FEW021 BKN200 24/19 Q1014 NOSIG=
EFJY 080650Z 09003KT 9999 BKN012 20/17 Q1015=
METAR EFKU 080650Z AUTO VRB02KT 9999NDV OVC013 
21/17 Q1015=
EFOU 080650Z VRB01KT 9999 FEW018 19/12 Q1016=
METAR EFRO 080650Z AUTO 23004KT CAVOK 16/13 Q1017=
EFTP 080650Z 35004KT 280V070 9999 FEW015 SCT200 22/17 Q1015=
METAR EFTU 080650Z AUTO 34005KT 290V010 CAVOK 21/13 Q1016=
EFVA 080650Z VRB01KT 9999 FEW020 BKN200 19/15 Q1016=
####018000184####
SADN33 EKCH 080650
METAR EKKA 080650Z 20009KT 160V240 9999 FEW030 BKN060 21/14
Q1017 TEMPO 6000 SHRA SCT020CB=
METAR EKSP 080650Z 18007KT 9999 FEW045 BKN050 20/12 Q1018 NOSIG=
####018000425####
SADN31 EKCH 080650
METAR EKCH 080650Z 19010KT CAVOK 20/15 Q1020 NOSIG=
METAR EKBI 080650Z NIL=
METAR EKYT 080650Z 22012KT 9999 FEW027 BKN120 20/14 Q1017 NOSIG=
METAR EKRK 080650Z 18010KT CAVOK 21/13 Q1020=
METAR EKAH 080650Z AUTO 20008KT 130V260 9999NDV SCT035/// BKN140///
21/13 Q1018=
METAR EKEB 080650Z AUTO 19008KT 9999NDV OVC049/// 20/16 Q1017=
METAR EKRN 080650Z AUTO 19003KT 9999NDV NCD 18/15 Q1022=
####018000081####
SACV20 GVAC 080700
METAR GVAC 080700Z 05012KT 9999 BKN017 23/19 Q1012 NOSIG=
####018000591####
SASN31 ESWI 080650
METAR ESGG 080650Z 19009KT 9999 OVC040 19/13 Q1018=
METAR ESGJ 080650Z AUTO 20009KT 150V230 9999NDV ////// 19/11 Q1019=
METAR ESGP 080650Z 19017KT 9999 FEW033 OVC044 20/15 Q1017=
METAR ESGT 080650Z 18009KT 9999 OVC040 18/13 Q1017=
METAR ESMK 080650Z VRB01KT CAVOK 21/14 Q1021=
METAR ESMQ 080650Z VRB01KT CAVOK 21/13 Q1020=
METAR ESMS 080650Z 21010KT CAVOK 21/12 Q1021=
METAR ESMT 080650Z 17010KT CAVOK 19/14 Q1020=
METAR ESMX 080650Z NIL=
METAR ESTA 080650Z 17007KT CAVOK 19/14 Q1020=
METAR ESTL 080650Z AUTO 21010KT 9999NDV FEW073/// 21/14 Q1020=
####018000230####
SADN32 EKCH 080650
METAR EKVJ 080650Z NIL=
METAR EKSB 080650Z 19006KT CAVOK 20/13 Q1018=
METAR EKSN 080650Z 21009KT 9999 SCT023 BKN090 18/13 Q1017=
METAR EKVD 080650Z NIL=
METAR EKOD 080650Z 19007KT CAVOK 21/14 Q1019=
####018000072####
SALY31 HLLS 080700
METAR HLLS 080650Z 
09018KT CAVOK 29/09 Q1017 =
####018000080####
SPCN42 CWAO 080653
SPECI CYUA 080653Z AUTO 31016KT 9SM OVC004 05/ A3006=

####018000090####
SAAH10 OAKB 080550
METAR OAKB 080650Z VRB05KT 8000 NSC 31/11 Q1017 NOSIG RMK BLU BLU=
####018000092####
SANI20 DNMM 080630
METAR DNMM 080630Z 00000KT 5000 BR FEW007 23/23 Q1015 TEMPO 3000=

####018000108####
SAUS42 KJAX 080654
MTRNRB
METAR KNRB 080652Z 22005KT 10SM CLR 22/19 A3001 RMK AO2 SLP160 
T02220194
####018000117####
SAUS45 KMSO 080654
MTRP69
METAR KP69 080652Z AUTO 31003KT 14/12 A3007 RMK AO2 SLP164 T01440117 
PWINO TSNO $
####018001646####
SAEW KAWN 080700
METAR EDDB 080650Z 21002KT CAVOK 20/10 Q1022 NOSIG=
METAR EDDC 080650Z VRB02KT CAVOK 19/11 Q1023 NOSIG=
METAR EDDE 080650Z 18003KT CAVOK 19/11 Q1022 NOSIG=
METAR EDDF 080650Z 01004KT CAVOK 21/12 Q1021 NOSIG=
METAR EDDG 080650Z VRB02KT CAVOK 21/13 Q1019 NOSIG=
METAR EDDH 080650Z 17008KT CAVOK 23/12 Q1019 NOSIG=
METAR EDDK 080650Z 14007KT CAVOK 23/12 Q1020 NOSIG=
METAR EDDL 080650Z 16006KT CAVOK 24/10 Q1019 NOSIG=
METAR EDDM 080650Z 06004KT CAVOK 18/11 Q1023 NOSIG=
METAR EDDN 080650Z 14005KT CAVOK 20/09 Q1022 NOSIG=
METAR EDDP 080650Z 17005KT CAVOK 19/12 Q1022 NOSIG=
METAR EDDR 080650Z 07005KT CAVOK 21/11 Q1021 NOSIG=
METAR EDDS 080650Z VRB02KT CAVOK 20/10 Q1022 NOSIG=
METAR EDDT 080650Z 15003KT CAVOK 21/09 Q1022 NOSIG=
METAR EDDV 080650Z 20005KT CAVOK 23/11 Q1020 NOSIG=
METAR EDDW 080650Z 15004KT CAVOK 23/13 Q1019 NOSIG=
METAR EKCH 080650Z 19010KT CAVOK 20/15 Q1020 NOSIG=
METAR EKKA 080650Z 20009KT 160V240 9999 FEW030 BKN060 21/14 Q1017 TEMPO
      6000 SHRA SCT020CB=
METAR EKOD 080650Z 19007KT CAVOK 21/14 Q1019=
METAR EKRK 080650Z 18010KT CAVOK 21/13 Q1020=
METAR EKSP 080650Z 18007KT 9999 FEW045 BKN050 20/12 Q1018 NOSIG=
METAR EKVG 080652Z 17011KT 9999 FEW006 SCT008 BKN012 11/10 Q0992 RMK/RWY
      13/31 CLOSED DUE WIP/ SEE NOTAM E0050/10 WIND 850FT 15005KT
      050V220=
METAR ETNG 080650Z 18006KT CAVOK 25/11 Q1019 NOSIG=
METAR LSGG 080650Z 00000KT CAVOK 23/12 Q1022 NOSIG=
METAR LSZA 080650Z VRB02KT 9999 BKN048 23/13 Q1023 NOSIG=
METAR LSZB 080650Z VRB01KT CAVOK 20/14 Q1022 NOSIG=
METAR LSZH 080650Z 31004KT 280V340 CAVOK 19/12 Q1022 NOSIG=
####018000540####
SARS18 KAWN 080700
METAR EETN 080650Z 31007KT 280V340 9999 FEW007 SCT011 21/18 Q1014 NOSIG=
METAR EETU 080650Z VRB02KT 9999 BKN012 23/20 Q1013=
METAR EFHK 080650Z 32008KT 9999 FEW021 BKN200 24/19 Q1014 NOSIG=
METAR EVLA 080650Z 32005KT 250V050 CAVOK 22/15 Q1017=
METAR EVRA 080650Z 32010KT 280V340 9999 OVC005 17/17 Q1014 NOSIG=
METAR EYKA 080650Z 28007KT 250V330 9999 -RA NSC 17/15 Q1015=
METAR EYPA 080650Z 33006KT 260V020 CAVOK 19/15 Q1017 NOSIG=
METAR EYVI 080650Z 27006KT 2600 SHRA BKN010CB OVC030 15/14 Q1014 NOSIG=
####018001631####
SAEU KAWN 080700 RRA
METAR EDDB 080650Z 21002KT CAVOK 20/10 Q1022 NOSIG=
METAR EDDC 080650Z VRB02KT CAVOK 19/11 Q1023 NOSIG=
METAR EDDE 080650Z 18003KT CAVOK 19/11 Q1022 NOSIG=
METAR EDDF 080650Z 01004KT CAVOK 21/12 Q1021 NOSIG=
METAR EDDG 080650Z VRB02KT CAVOK 21/13 Q1019 NOSIG=
METAR EDDH 080650Z 17008KT CAVOK 23/12 Q1019 NOSIG=
METAR EDDK 080650Z 14007KT CAVOK 23/12 Q1020 NOSIG=
METAR EDDL 080650Z 16006KT CAVOK 24/10 Q1019 NOSIG=
METAR EDDM 080650Z 06004KT CAVOK 18/11 Q1023 NOSIG=
METAR EDDN 080650Z 14005KT CAVOK 20/09 Q1022 NOSIG=
METAR EDDP 080650Z 17005KT CAVOK 19/12 Q1022 NOSIG=
METAR EDDR 080650Z 07005KT CAVOK 21/11 Q1021 NOSIG=
METAR EDDS 080650Z VRB02KT CAVOK 20/10 Q1022 NOSIG=
METAR EDDT 080650Z 15003KT CAVOK 21/09 Q1022 NOSIG=
METAR EDDV 080650Z 20005KT CAVOK 23/11 Q1020 NOSIG=
METAR EDDW 080650Z 15004KT CAVOK 23/13 Q1019 NOSIG=
METAR EKAH 080650Z AUTO 20008KT 130V260 9999NDV SCT035/// BKN140///
      21/13 Q1018=
METAR EKCH 080650Z 19010KT CAVOK 20/15 Q1020 NOSIG=
METAR EKEB 080650Z AUTO 19008KT 9999NDV OVC049/// 20/16 Q1017=
METAR EKKA 080650Z 20009KT 160V240 9999 FEW030 BKN060 21/14 Q1017 TEMPO
      6000 SHRA SCT020CB=
METAR EKOD 080650Z 19007KT CAVOK 21/14 Q1019=
METAR EKRK 080650Z 18010KT CAVOK 21/13 Q1020=
METAR EKSB 080650Z 19006KT CAVOK 20/13 Q1018=
METAR EKSN 080650Z 21009KT 9999 SCT023 BKN090 18/13 Q1017=
METAR EKSP 080650Z 18007KT 9999 FEW045 BKN050 20/12 Q1018 NOSIG=
METAR EKVG 080652Z 17011KT 9999 FEW006 SCT008 BKN012 11/10 Q0992 RMK/RWY
      13/31 CLOSED DUE WIP/ SEE NOTAM E0050/10 WIND 850FT 15005KT
      050V220=
####018000451####
SAXN17 KAWN 080700 RRA
METAR MPTO 080700Z 05005KT 9999 SCT018CB 26/24 Q1011=
PAEH SA 0655 AWOS 8 SCT M18 BKN 49 OVC 10 49/-19/0103/000=
PATC SA 0655 AWOS CLR BLO 120 10 54/44/0000/015=
METAR PTRO 080650Z 30003KT 15SM SCT009 SCT016CB BKN120 BKN300 28/25
      A2982 RMK CB VC ALQDS=
METAR PTYA 080650Z 10010KT 12SM SCT017 SCT040 BKN300 31/24 A2981 RMK
      SLP095 T03130244=
METAR TBPB 080700Z 08015KT 9999 SCT018 28/24 Q1012 NOSIG=
####018000337####
SAXX70 KAWN 080700 RRA
METAR KQEL 080650Z AUTO 17002KT 6SM BR CLR 28/19 A2970 RMK A02=
METAR KQEW 080650Z AUTO 35001KT 7SM CLR 27/19 A2981 RMK A02=
METAR KQFB 080650Z AUTO 11003KT 6SM BR BKN036 29/19 A2989 RMK A02=
METAR KQFS 080655Z AUTO 14006G14KT 9999 FEW043 SCT060 30/17 A2977 RMK
      AO2 SLP077 T02960171 PWINO PNO $=
####018002913####
SAUS20 KNKA 080654
METAR KPMV 080650Z AUTO 31005KT 5SM BR CLR 21/20 A3011 RMK AO2 
     T02050197=
METAR KACV 080653Z AUTO 00000KT 6SM BR OVC003 11/10 A2996 RMK AO2 
    SLP151 T01060100=
METAR KAGS 080653Z AUTO 00000KT 10SM CLR 23/20 A3000 RMK AO2 SLP156 
    T02280200 TSNO=
METAR KALI 080653Z AUTO 05006KT 10SM BKN080 26/25 A2986 RMK AO2 
    SLP109 T02610250=
METAR KANB 080653Z AUTO 00000KT 10SM CLR 23/21 A3005 RMK AO2 SLP164 
    T02280206=
METAR KAOO 080653Z AUTO 00000KT 4SM HZ CLR 19/17 A3010 RMK AO2 
    SLP179 T01940167=
METAR KARA 080653Z AUTO 09003KT 10SM CLR 25/24 A3000 RMK AO2 SLP158 
    T02500239=
METAR KASD 080653Z AUTO 05003KT 10SM CLR 25/24 A3001 RMK AO2 SLP161 
    T02500239=
METAR KAUS 080653Z 05005KT 10SM BKN014 OVC029 26/23 A2996 RMK AO2 
    SLP131 T02610233=
METAR KAWM 080653Z AUTO 00000KT 10SM CLR 24/23 A3004 RMK AO2 SLP166 
    T02440228=
METAR KBFM 080653Z AUTO 00000KT 10SM CLR 24/23 A3004 RMK AO2 SLP172 
    T02440233=
METAR KBMQ 080653Z AUTO 13006KT 10SM SCT015 BKN023 OVC040 25/22 
    A3001 RMK AO2 SLP143 T02500217 $=
METAR KBNA 080653Z 00000KT 10SM FEW095 27/21 A3007 RMK AO2 SLP174 
    T02720211=
METAR KBPK 080653Z AUTO 16003KT 9SM FEW023 24/22 A3005 RMK AO2 
    SLP165 T02390222=
METAR KBPT 080653Z 09010KT 10SM SCT026 27/24 A2995 RMK AO2 SLP141 
    T02670239 $=
METAR KBRO 080653Z 29003KT 10SM FEW050 27/25 A2981 RMK AO2 SLP093 
    T02670250=
METAR KBWG 080653Z AUTO 00000KT 10SM CLR 25/21 A3007 RMK AO2 SLP174 
    T02500206=
METAR KCAK 080651Z 00000KT 7SM CLR 22/18 A3009 RMK AO2 SLP178
     T02220183=
METAR KCCR 080653Z AUTO 25007KT 10SM CLR 13/10 A2991 RMK AO2 SLP113 
    T01330100=
METAR KCDS 080653Z AUTO 35003KT 10SM CLR 23/21 A3008 RMK AO2 SLP160 
    T02280211=
METAR KCHO 080653Z AUTO 00000KT 5SM HZ CLR 24/20 A3001 RMK AO2 
    SLP153 T02390200 TSNO=
METAR KCLL 080653Z 09005KT 10SM CLR 26/23 A2996 RMK AO2 SLP139 
    T02560228=
METAR KCNM 080653Z AUTO 06005KT 10SM BKN060 BKN090 OVC120 22/19 
    A3012 RMK AO2 SLP144 T02170194 403170194=
METAR KCOT 080653Z AUTO 05004KT 10SM BKN021 25/22 A2991 RMK AO2 
    SLP120 T02500222=
METAR KCRP 080651Z 09005KT 9SM -RA FEW010 SCT070 BKN080 27/26
     A2985 RMK AO2 TSB15E44RAE0555B38 SLP106 OCNL LTG DSNT NE NW
     TS MOV W CB DSNT NE NW P0001 T02670256=
METAR KCRS 080653Z AUTO 16005KT 10SM OVC013 26/24 A2998 RMK AO2 
    SLP146 T02560239=
METAR KCSV 080653Z AUTO 00000KT 10SM CLR 22/17 A3014 RMK AO2 SLP182 
    T02170172=
METAR KCXO 080653Z 00000KT 9SM FEW050 24/24 A2996 RMK AO2 SLP141 
    T02440239=
METAR KDAN 080653Z AUTO 00000KT 6SM HZ FEW095 23/20 A3000 RMK AO2 
    SLP145 T02330200=
METAR KDCU 080653Z AUTO 00000KT 10SM CLR 24/21 A3007 RMK AO2 SLP173 
    T02390211=
METAR KDEQ 080653Z AUTO 00000KT 10SM BKN007 OVC010 24/23 A3002 RMK 
    AO2 SLP160 T02440233=
####018002965####
SAUS20 KNKA 080654
METAR KDFW 080653Z 15006KT 10SM BKN016 OVC070 26/23 A2999 RMK AO2 
    SLP146 T02610233=
METAR KDHT 080653Z AUTO 17008KT 10SM FEW011 OVC050 19/16 A3024 RMK 
    AO2 SLP191 T01890161=
METAR KDMN 080653Z AUTO 06011G20KT 10SM CLR 22/13 A3011 RMK AO2 LTG 
    DSNT NW SLP113 T02170128 403440200=
METAR KDRT 080653Z AUTO 07006KT 10SM CLR 26/22 A2993 RMK AO2 SLP117 
    T02560222=
METAR KDTO 080653Z AUTO 17005KT 10SM FEW050 26/23 A3000 RMK AO2 
    SLP147 T02610228=
METAR KDWH 080653Z 05004KT 8SM CLR 25/24 A2994 RMK AO2 SLP137 
    T02500239=
METAR KEQY 080653Z AUTO 27004KT 10SM CLR 24/19 A3000 RMK AO2 SLP152 
    T02390189=
METAR KESF 080653Z AUTO 00000KT 10SM CLR 23/22 A3001 RMK AO2 SLP160 
    T02330222=
METAR KFAT 080653Z 31009KT 10SM CLR 25/10 A2982 RMK AO2 SLP092 
    T02500100=
METAR KFAY 080653Z AUTO 32006KT 10SM FEW100 29/17 A2993 RMK AO2 
    SLP128 T02890167=
METAR KFDR 080653Z AUTO 05005KT 10SM 24/23 A3000 RMK AO2 SLP141 
    T02390228=
METAR KFFC 080653Z AUTO 00000KT 8SM CLR 22/20 A3005 RMK AO2 SLP167 
    T02170200=
METAR KFMN 080653Z AUTO 10008KT 10SM CLR 22/06 A3019 RMK AO2 SLP149 
    T02170056 403280183=
METAR KFSM 080653Z AUTO 10003KT 10SM CLR 24/22 A3003 RMK AO2 SLP161 
    T02440222=
METAR KFST 080653Z AUTO 10006KT 10SM FEW050 BKN110 22/19 A3006 RMK 
    AO2 SLP131 T02220194=
METAR KFTY 080653Z 00000KT 10SM CLR 23/18 A3005 RMK AO2 SLP163 
    T02280183=
METAR KFYV 080653Z AUTO 00000KT 10SM CLR 23/22 A3006 RMK AO2 SLP163 
    T02280217=
METAR KGGG 080653Z AUTO 11003KT 10SM CLR 25/24 A3000 RMK AO2 SLP152 
    T02500244=
METAR KGLH 080653Z AUTO 00000KT 7SM CLR 23/23 A3004 RMK AO2 SLP177 
    T02280228=
METAR KGMU 080653Z AUTO 29003KT 10SM CLR 26/19 A3004 RMK AO2 SLP159 
    T02610189=
METAR KGOK 080653Z AUTO 00000KT 8SM FEW027 23/22 A3004 RMK AO2 
    SLP161 T02330222=
METAR KGPT 080653Z 05004KT 10SM CLR 27/25 A3001 RMK AO2 SLP161 
    T02720250=
METAR KGSP 080653Z AUTO 00000KT 10SM CLR 24/19 A3002 RMK AO2 SLP149 
    T02390189=
METAR KGUP 080653Z AUTO 15008KT 10SM CLR 21/06 A3023 RMK AO2 SLP033 
    T02110056 403220139=
METAR KGVL 080653Z AUTO 00000KT 10SM CLR 24/21 A3009 RMK AO2 SLP169 
    T02390206=
METAR KGWO 080653Z AUTO 00000KT 10SM CLR 23/23 A3005 RMK AO2 SLP173 
    T02280228=
METAR KHBG 080653Z AUTO 00000KT 10SM CLR 24/23 A3004 RMK AO2 SLP168 
    T02440233=
METAR KHDE 080650Z AUTO 35005KT 10SM CLR 16/15 A3020 RMK AO2 
     T01580146=
METAR KHGR 080653Z AUTO 10003KT 7SM CLR 26/17 A3003 RMK AO2 SLP169 
    T02560167=
METAR KHJH 080650Z AUTO 01006KT 10SM BKN021 20/19 A3013 RMK AO2 
     T02010185=
METAR KHJO 080653Z AUTO 34007KT 10SM CLR 24/13 A2981 RMK AO2 SLP093 
    T02440133=
METAR KHKA 080653Z AUTO 20004KT 7SM CLR 27/22 A3004 RMK AO2 SLP171 
    T02670222=
METAR KHKS 080653Z AUTO 00000KT 10SM CLR 24/23 A3005 RMK AO2 SLP168 
    T02440228=
####018000200####
SAAK41 KNKA 080654
METAR PATA 080652Z AUTO 00000KT 10SM CLR 21/07 A3004 RMK AO2 SLP175 
    T02110072 TSNO=
METAR PHJR 080653Z VRB03KT 10SM FEW060 24/18 A3003 RMK AO2 SLP176 
    T02390183=
####018002994####
SAUS20 KNKA 080654
METAR KMGW 080653Z AUTO 00000KT 5SM BR CLR 21/19 A3010 RMK AO2 
    SLP181 T02110189=
METAR KMKL 080653Z AUTO 00000KT 10SM CLR 23/21 A3006 RMK AO2 SLP173 
    T02280211=
METAR KMLE 080650Z AUTO 33004KT 10SM CLR 21/17 A3011 RMK AO2 
     T02100173=
METAR KMMH 080650Z AUTO 27007KT 10SM CLR 14/03 A3020 RMK AO1=
METAR KMRB 080653Z AUTO 00000KT 6SM HZ CLR 26/18 A3002 RMK AO2 
    SLP159 T02560183=
METAR KMSL 080653Z AUTO 00000KT 10SM CLR 24/22 A3007 RMK AO2 SLP176 
    T02390222=
METAR KMSY 080653Z 08003KT 10SM FEW250 27/23 A3000 RMK AO2 SLP162 
    T02670233=
METAR KMWL 080653Z AUTO 14005KT 10SM SCT031 SCT055 23/22 A2999 RMK 
    AO2 SLP141 T02330217=
METAR KMYV 080653Z AUTO 15007KT 10SM CLR 21/12 A2980 RMK AO2 SLP094 
    T02060122=
METAR KNEW 080653Z AUTO 10005KT 10SM CLR 27/24 A3001 RMK AO2 SLP156 
    T02720244 TSNO=
METAR KOAK 080653Z 29010KT 10SM BKN011 14/11 A2993 RMK AO2 SLP135 
    T01440106=
METAR KOGA 080650Z AUTO 25004KT 10SM OVC060 16/15 A3027 RMK AO2 
     T01610147 401950146=
METAR KOKC 080652Z 06003KT 10SM FEW023 SCT150 24/22 A3004 RMK AO2 
    SLP154 T02390222=
METAR KONL 080650Z AUTO 26003KT 10SM OVC110 16/14 A3021 RMK AO2 
     T01580142=
METAR KORF 080651Z 10004KT 4SM BR CLR 26/24 A2995 RMK AO2 SLP142
     T02560239=
METAR KOVE 080653Z AUTO 16008KT 10SM CLR 24/14 A2982 RMK AO2 SLP097 
    T02440139 TSNO=
METAR KPAH 080653Z AUTO 00000KT 10SM CLR 23/22 A3004 RMK AO2 SLP166 
    T02330222=
METAR KPBF 080653Z AUTO 12003KT 9SM CLR 23/22 A3005 RMK AO2 SLP171 
    T02330222=
METAR KPDK 080653Z AUTO 00000KT 10SM CLR 24/19 A3005 RMK AO2 SLP155 
    T02390189=
METAR KPNA 080650Z AUTO 00000KT 10SM SCT075 SCT090 12/00 A3036 
     RMK AO2 T01161002=
METAR KPQL 080653Z AUTO 00000KT 3SM BR CLR 24/24 A3002 RMK AO2 
    SLP166 T02440239=
METAR KPRB 080653Z AUTO 28003KT 10SM CLR 14/11 A2990 RMK AO2 SLP121 
    T01390106=
METAR KPSX 080653Z AUTO 05007KT 10SM CLR 27/25 A2987 RMK AO2 LTG 
    DSNT SW RAB02E12 SLP115 P0001 T02670250=
METAR KPTT 080650Z AUTO 01006KT 10SM CLR 20/18 A3013 RMK AO2=
METAR KRKP 080653Z AUTO 09012KT 10SM VCTS FEW017 SCT024 BKN110 28/26 
    A2985 RMK AO2 LTG DSNT NW TSB37RAB15E28 SLP108 P0002 T02780256=
METAR KRMG 080653Z AUTO 00000KT 10SM CLR 22/19 A3004 RMK AO2 SLP160 
    T02170194=
METAR KRUE 080653Z AUTO 00000KT 8SM CLR 24/23 A3005 RMK AO2 SLP168 
    T02390228=
METAR KRWI 080653Z AUTO 00000KT 7SM CLR 24/19 A2994 RMK AO2 SLP138 
    T02440194=
METAR KSAC 080653Z 19004KT 10SM CLR 16/11 A2983 RMK AO2 SLP102 
    T01610106=
METAR KSAF 080653Z AUTO 20005KT 10SM CLR 15/11 A3031 RMK AO2 SLP161 
    T01500111 402890144=
METAR KSAN 080651Z 31004KT 10SM OVC016 17/13 A2993 RMK AO2 SLP134
     T01720133=
METAR KSAT 080653Z 07006KT 10SM BKN016 BKN250 26/23 A2995 RMK AO2 
    SLP122 T02610228=
METAR KSDL 080653Z 00000KT 10SM CLR 32/06 A2979 RMK AO2 SLP056 
    T03170061 404060256=
####018002963####
SAUS20 KNKA 080654
METAR KHKY 080653Z AUTO 30003KT 10SM CLR 23/18 A3004 RMK AO2 SLP147 
    T02280178 $=
METAR KHLG 080653Z AUTO 00000KT 6SM HZ CLR 23/19 A3009 RMK AO2 
    SLP180 T02280194=
METAR KHOT 080653Z AUTO 00000KT 10SM BKN006 24/23 A3006 RMK AO2 CIG 
    005V010 SLP172 T02390228=
METAR KHOU 080653Z 11009KT 10SM FEW034 BKN130 BKN250 28/23 A2992 RMK 
    AO2 RAB08E17 SLP137 P0000 T02780233=
METAR KHRO 080653Z AUTO 00000KT 7SM FEW034 23/22 A3007 RMK AO2 
    SLP169 T02330222=
METAR KHSV 080653Z 00000KT 10SM CLR 26/23 A3006 RMK AO2 SLP169 
    T02560233=
METAR KIAH 080653Z 08006KT 10SM FEW020 BKN130 BKN250 26/24 A2994 RMK 
    AO2 SLP138 T02560244=
METAR KIBM 080650Z AUTO 13003KT 10SM OVC020 12/11 A3032 RMK AO2 
     T01220111 401370086=
METAR KINK 080653Z AUTO 10007KT 10SM FEW036 SCT050 BKN060 23/19 
    A3006 RMK AO2 RAB32E41 SLP133 P0000 T02330189 TSNO=
METAR KJBR 080653Z AUTO 23006KT 10SM CLR 26/23 A3004 RMK AO2 SLP170 
    T02610228 $=
METAR KJCT 080651Z AUTO 00000KT 10SM CLR 23/22 A3001 RMK AO2
     RAE0559 SLP122 P0000 T02330217 TSNO=
METAR KJWG 080652Z AUTO 01005KT 10SM BKN080 23/23 A3009 RMK AO2=
METAR KJYR 080650Z AUTO 36005KT 10SM CLR 17/16 A3016 RMK AO2=
METAR KLCG 080650Z AUTO 00000KT 10SM CLR 16/15 A3016 RMK AO2 
     T01600150=
METAR KLBX 080653Z AUTO 12005KT 10SM SCT025 BKN037 OVC060 27/25 
    A2990 RMK AO2 SLP125 T02720250=
METAR KLCH 080653Z AUTO 08006KT 10SM CLR 26/23 A2997 RMK AO2 SLP158 
    T02560233=
METAR KLFK 080653Z AUTO 11003KT 10SM CLR 24/23 A2999 RMK AO2 SLP150 
    T02440233=
METAR KLFT 080653Z AUTO 00000KT 10SM CLR 25/23 A3000 RMK AO2 SLP157 
    T02500233=
METAR KLHM 080651Z AUTO 18006KT 10SM CLR 20/12 A2980 RMK AO1 
     T02030118=
METAR KLIT 080653Z 00000KT 7SM SCT150 24/23 A3005 RMK AO2 SLP174 
    T02390228=
METAR KLLQ 080653Z AUTO 00000KT 8SM CLR 23/22 A3006 RMK AO2 SLP175 
    T02330222=
METAR KLOL 080653Z AUTO 18003KT 10SM CLR 23/M05 A2996 RMK AO2 SLP095 
    T02331050=
METAR KLVJ 080653Z AUTO 11007KT 10SM FEW028 28/23 A2993 RMK AO2 
    SLP136 T02780228=
METAR KLVK 080653Z AUTO 29010KT 10SM CLR 13/11 A2990 RMK AO2 SLP122 
    T01330106=
METAR KLVS 080653Z AUTO 02005KT 10SM CLR 12/09 A3037 RMK AO2 SLP188 
    T01170094 402390094 TSNO=
METAR KLXN 080650Z AUTO 32003KT 10SM CLR 15/15 A3022 RMK AO2 
     T01520145=
METAR KMAE 080653Z AUTO 31006KT 10SM CLR 22/12 A2982 RMK AO2 SLP095 
    T02170122=
METAR KMAF 080653Z AUTO 09003KT 10SM FEW047 BKN110 22/20 A3008 RMK 
    AO2 LTG DSNT NW SLP140 T02170200=
METAR KMCB 080653Z AUTO 00000KT 10SM CLR 23/22 A3004 RMK AO2 SLP165 
    T02280217=
METAR KMCE 080653Z AUTO 31005KT 10SM CLR 21/10 A2982 RMK AO2 SLP096 
    T02060100=
METAR KMEM 080653Z 00000KT 10SM SCT250 26/22 A3005 RMK AO2 SLP172 
    T02560222=
METAR KMFE 080653Z AUTO 36008KT 10SM FEW022 SCT028 BKN035 27/24 
    A2983 RMK AO2 SLP101 T02670244=
####018000117####
SAMO31 ZMUB 080700
METAR ZMUB 080700Z 20009MPS 9999 -SHRA SCT030CB SCT033 19/11 Q1009 
 NOSIG RMK QFE650.1 62=
####018001818####
SAUS20 KNKA 080654
METAR KSIY 080653Z AUTO 10008KT 10SM CLR 28/06 A2994 RMK AO2 TSE01 
    SLP116 T02780061 $=
METAR KSMF 080653Z 16008KT 10SM CLR 17/11 A2981 RMK AO2 SLP093 
    T01720106=
METAR KSNS 080653Z AUTO 32005KT 10SM OVC013 13/11 A2993 RMK AO2 
    SLP145 T01330106=
METAR KSOW 080650Z AUTO 17009KT 10SM SCT110 22/04 A3022 RMK AO2=
METAR KSPS 080652Z 07004KT 10SM CLR 24/22 A3001 RMK AO2 SLP146 
    T02390217=
METAR KSSF 080653Z AUTO 07006KT 10SM FEW015 26/23 A2993 RMK AO2 
    SLP122 T02610228=
METAR KSTS 080653Z AUTO 00000KT 10SM OVC008 12/10 A2992 RMK AO2 
    SLP125 T01220100=
METAR KSUN 080651Z AUTO 31007KT 10SM CLR 13/02 A3022 RMK AO2=
METAR KSZT 080650Z AUTO 00000KT 10SM CLR 12/10 A3008 RMK AO2=
METAR KTCL 080653Z AUTO 00000KT 7SM CLR 24/23 A3003 RMK AO2 SLP167 
    T02440228=
METAR KTIF 080650Z AUTO 00000KT 10SM OVC080 16/14 A3026 RMK AO2 
     T01570141=
METAR KTRK 080650Z AUTO 00000KT 10SM SCT120 14/08 A3015 RMK AO2=
METAR KTRL 080653Z AUTO 00000KT 10SM BKN017 BKN026 27/22 A3000 RMK 
    AO2 SLP151 T02670222=
METAR KTUS 080653Z 08003KT 10SM CLR 32/08 A2988 RMK AO2 SLP058 
    T03220078 404000233=
METAR KTVL 080653Z AUTO 19003KT 10SM CLR 14/07 A3016 RMK AO2 SLP145 
    T01390067=
METAR KTVR 080653Z AUTO 00000KT 1/2SM FG CLR 23/22 A3003 RMK AO2 
    SLP175 T02280217 $=
METAR KUTS 080653Z AUTO 00000KT 8SM CLR 24/23 A2998 RMK AO2 SLP145 
    T02440233=
METAR KVCB 080653Z AUTO 23005KT 10SM CLR 22/09 A2981 RMK AO2 SLP092 
    T02170094=
METAR KVPC 080653Z AUTO 00000KT 8SM CLR 21/19 A3005 RMK AO2 SLP163 
    T02060194=
METAR KWVI 080653Z AUTO 00000KT 10SM OVC011 13/11 A2994 RMK AO2 
    SLP138 T01330106=
METAR KXNA 080653Z 00000KT 10SM -RA BKN060 23/22 A3005 RMK AO2 RAB45 
    SLP161 P0001 T02330222=
####018000082####
SPCN48 CWAO 080652
SPECI CYMH 080652Z AUTO 20008KT 9SM OVC004 06/06 A3012=

####018000086####
SAIN32 VIDP 080630 RRA
METAR VIBN 080630Z 09006KT 7000 FEW020 SCT025 38/22 Q1004=
####018000118####
SAUS46 KSEW 080654
MTRUIL
METAR KUIL 080653Z AUTO 04004KT 10SM CLR 19/11 A2992 RMK AO2 SLP131 
T01890111 TSNO
####018000121####
SAUS46 KSGX 080654
MTRSDM
METAR KSDM 080653Z AUTO 00000KT 10SM OVC014 17/13 A2991 RMK AO2 
SLP127 T01670128 TSNO
####018000128####
SAUS45 KABQ 080654
MTRRTN
METAR KRTN 080653Z AUTO 35005KT 10SM CLR 14/11 A3034 RMK AO2 SLP185 
T01440106 402830122 TSNO
####018000118####
SAUS46 KLOX 080654
MTRLAX
METAR KLAX 080653Z 27008KT 10SM BKN012 OVC015 17/13 A2992 RMK AO2 
SLP129 T01670128
####018000115####
SAUS44 KMAF 080654
MTR6R6
METAR K6R6 080653Z AUTO 36006KT 23/20 A3000 RMK AO2 SLP123 T02330200 
PWINO TSNO
####018000123####
SAUS45 KRIW 080654
MTRLND
METAR KLND 080653Z AUTO 00000KT 10SM CLR 12/04 A3031 RMK AO2 SLP218 
T01220039 402220050
####018000131####
SAUS45 KABQ 080654
MTRCQC
METAR KCQC 080653Z AUTO 08007KT 10SM SCT100 11/10 A3036 RMK AO2 
SLP195 T01110100 402500089 TSNO
####018000083####
SAMJ41 LWOH 080700
METAR LWOH 080700Z 01006KT 320V080 9999 FEW033 18/07 Q1019=
####018000097####
SAUZ31 UTTW 080630
METAR UTNU 080630Z 17004MPS 140V210 CAVOK 39/13 Q1009 R13/CLRD60
NOSIG=
####018000100####
SPCN47 CWAO 080653
SPECI CYAM 080653Z 12004KT 12SM -RA FEW048 BKN079 OVC100 RMK
SC2AC4AC2=

####018001574####
SAZZ40 KAWN 080700 RRB
METAR EFKU 080650Z AUTO VRB02KT 9999NDV OVC013 21/17 Q1015=
METAR EFOU 080650Z VRB01KT 9999 FEW018 19/12 Q1016=
METAR KCEF 080655Z AUTO 00000KT 10SM BKN090 25/22 A3003 RMK AO2 SLP169
      T02490217 PWINO $=
METAR KEGI 080655Z AUTO 00000KT 10SM CLR 23/22 A3003 RMK AO2 SLP169
      T02300223 $=
METAR KHMN 080655Z 04006KT 10SM FEW120 OVC150 20/15 A3015 RMK AO2A
      SLP130 T02030148 403260171 $=
METAR KLRF 080655Z AUTO 00000KT 10SM SCT150 23/22 A3005 RMK AO2 SLP173
      T02340223=
METAR KMGE 080655Z AUTO 00000KT 10SM CLR 23/19 A3006 RMK AO2 SLP167
      T02330187 $=
METAR KNFW 080652Z AUTO 16006KT 10SM FEW060 27/22 A3003 RMK AO2 SLP153
      T02670217=
METAR KNHK 080652Z 10004KT 4SM HZ CLR 27/24 A2997 RMK AO2 SLP149 T02720239=
METAR KNZY 080652Z 29006KT 10SM OVC017 18/13 A2991 RMK AO2 SLP127 T01830128
      $=
METAR KPOB 080655Z AUTO 00000KT 10SM CLR 25/20 A2995 RMK AO2 SLP139
      T02520199 $=
METAR KRDR 080655Z AUTO 26006KT 10SM CLR 15/12 A3004 RMK AO2 SLP181
      T01510123 $=
METAR KSAN 080651Z 31004KT 10SM OVC016 17/13 A2993 RMK AO2 SLP134 T01720133=
METAR LPLA 080700Z 17003KT 9999 FEW018 BKN028 19/18 Q1024=
METAR OAFZ 080650Z 03003KT 9999 SKC 36/M04 Q1016 BLU/=
METAR OAMS 080650Z 35004KT 9000 SKC 39/02 Q1008 BLU/BLU/=
METAR OAUZ 080650Z 03004KT 9000 SKC 37/05 Q1009 BLU/=
METAR OKBK 080700Z 34016KT CAVOK 44/M02 Q1002 NOSIG=
METAR PWAK 080652Z 08015G18KT 8SM HZ FEW020 FEW030 28/24 A2996 RMK
      AO2A=
METAR TBPB 080700Z 08015KT 9999 SCT018 28/24 Q1012 NOSIG=
####018000118####
SAUS46 KPQR 080654
MTRBNO
METAR KBNO 080653Z AUTO 07006KT 10SM CLR 11/00 A3010 RMK AO2 SLP164 
T01110000 TSNO
####018000111####
SAUS42 KTAE 080654
MTRTLH
METAR KTLH 080653Z 00000KT 10SM FEW095 24/22 A3002 RMK AO2 SLP163 
T02390217
####018000131####
SAUS45 KABQ 080654
MTRTCS
METAR KTCS 080653Z AUTO 13007KT 10SM FEW110 19/14 A3019 RMK AO2 
SLP138 T01940144 403330183 TSNO
####018003676####
SAUS99 KWBC 080655 RRB
METAR
KRKP 080653Z AUTO 09012KT 10SM VCTS FEW017 SCT024 BKN110 28/26
     A2985 RMK AO2 LTG DSNT NW TSB37RAB15E28 SLP108 P0002
     T02780256=
KRMG 080653Z AUTO 00000KT 10SM CLR 22/19 A3004 RMK AO2 SLP160
     T02170194=
KRUE 080653Z AUTO 00000KT 8SM CLR 24/23 A3005 RMK AO2 SLP168
     T02390228=
KRWI 080653Z AUTO 00000KT 7SM CLR 24/19 A2994 RMK AO2 SLP138
     T02440194=
KSAC 080653Z 19004KT 10SM CLR 16/11 A2983 RMK AO2 SLP102
     T01610106=
KSAF 080653Z AUTO 20005KT 10SM CLR 15/11 A3031 RMK AO2 SLP161
     T01500111 402890144=
KSAN 080651Z 31004KT 10SM OVC016 17/13 A2993 RMK AO2 SLP134
     T01720133=
KSAT 080653Z 07006KT 10SM BKN016 BKN250 26/23 A2995 RMK AO2 SLP122
     T02610228=
KSDL 080653Z 00000KT 10SM CLR 32/06 A2979 RMK AO2 SLP056 T03170061
     404060256=
KHKY 080653Z AUTO 30003KT 10SM CLR 23/18 A3004 RMK AO2 SLP147
     T02280178 $=
KHLG 080653Z AUTO 00000KT 6SM HZ CLR 23/19 A3009 RMK AO2 SLP180
     T02280194=
KHOT 080653Z AUTO 00000KT 10SM BKN006 24/23 A3006 RMK AO2 CIG
     005V010 SLP172 T02390228=
KHOU 080653Z 11009KT 10SM FEW034 BKN130 BKN250 28/23 A2992 RMK AO2
     RAB08E17 SLP137 P0000 T02780233=
KHRO 080653Z AUTO 00000KT 7SM FEW034 23/22 A3007 RMK AO2 SLP169
     T02330222=
KHSV 080653Z 00000KT 10SM CLR 26/23 A3006 RMK AO2 SLP169
     T02560233=
KIAH 080653Z 08006KT 10SM FEW020 BKN130 BKN250 26/24 A2994 RMK AO2
     SLP138 T02560244=
KIBM 080650Z AUTO 13003KT 10SM OVC020 12/11 A3032 RMK AO2
     T01220111 401370086=
KINK 080653Z AUTO 10007KT 10SM FEW036 SCT050 BKN060 23/19 A3006
     RMK AO2 RAB32E41 SLP133 P0000 T02330189 TSNO=
KJBR 080653Z AUTO 23006KT 10SM CLR 26/23 A3004 RMK AO2 SLP170
     T02610228 $=
KJCT 080651Z AUTO 00000KT 10SM CLR 23/22 A3001 RMK AO2 RAE0559
     SLP122 P0000 T02330217 TSNO=
KJWG 080652Z AUTO 01005KT 10SM BKN080 23/23 A3009 RMK AO2=
KJYR 080650Z AUTO 36005KT 10SM CLR 17/16 A3016 RMK AO2=
KLCG 080650Z AUTO 00000KT 10SM CLR 16/15 A3016 RMK AO2
     T01600150=
KLBX 080653Z AUTO 12005KT 10SM SCT025 BKN037 OVC060 27/25 A2990
     RMK AO2 SLP125 T02720250=
KLCH 080653Z AUTO 08006KT 10SM CLR 26/23 A2997 RMK AO2 SLP158
     T02560233=
KLFK 080653Z AUTO 11003KT 10SM CLR 24/23 A2999 RMK AO2 SLP150
     T02440233=
KLFT 080653Z AUTO 00000KT 10SM CLR 25/23 A3000 RMK AO2 SLP157
     T02500233=
KLHM 080651Z AUTO 18006KT 10SM CLR 20/12 A2980 RMK AO1
     T02030118=
KLIT 080653Z 00000KT 7SM SCT150 24/23 A3005 RMK AO2 SLP174
     T02390228=
KLLQ 080653Z AUTO 00000KT 8SM CLR 23/22 A3006 RMK AO2 SLP175
     T02330222=
KLOL 080653Z AUTO 18003KT 10SM CLR 23/M05 A2996 RMK AO2 SLP095
     T02331050=
KLVJ 080653Z AUTO 11007KT 10SM FEW028 28/23 A2993 RMK AO2 SLP136
     T02780228=
KLVK 080653Z AUTO 29010KT 10SM CLR 13/11 A2990 RMK AO2 SLP122
     T01330106=
KLVS 080653Z AUTO 02005KT 10SM CLR 12/09 A3037 RMK AO2 SLP188
     T01170094 402390094 TSNO=
KLXN 080650Z AUTO 32003KT 10SM CLR 15/15 A3022 RMK AO2
     T01520145=
KMAE 080653Z AUTO 31006KT 10SM CLR 22/12 A2982 RMK AO2 SLP095
     T02170122=
KMAF 080653Z AUTO 09003KT 10SM FEW047 BKN110 22/20 A3008 RMK AO2
     LTG DSNT NW SLP140 T02170200=
KMCB 080653Z AUTO 00000KT 10SM CLR 23/22 A3004 RMK AO2 SLP165
     T02280217=
KMCE 080653Z AUTO 31005KT 10SM CLR 21/10 A2982 RMK AO2 SLP096
     T02060100=
KMEM 080653Z 00000KT 10SM SCT250 26/22 A3005 RMK AO2 SLP172
     T02560222=
KMFE 080653Z AUTO 36008KT 10SM FEW022 SCT028 BKN035 27/24 A2983
     RMK AO2 SLP101 T02670244=
PATA 080652Z AUTO 00000KT 10SM CLR 21/07 A3004 RMK AO2 SLP175
     T02110072 TSNO=
####018003748####
SAUS99 KWBC 080655
METAR
KPMV 080650Z AUTO 31005KT 5SM BR CLR 21/20 A3011 RMK AO2
     T02050197=
KACV 080653Z AUTO 00000KT 6SM BR OVC003 11/10 A2996 RMK AO2 SLP151
     T01060100=
KAGS 080653Z AUTO 00000KT 10SM CLR 23/20 A3000 RMK AO2 SLP156
     T02280200 TSNO=
KALI 080653Z AUTO 05006KT 10SM BKN080 26/25 A2986 RMK AO2 SLP109
     T02610250=
KANB 080653Z AUTO 00000KT 10SM CLR 23/21 A3005 RMK AO2 SLP164
     T02280206=
KAOO 080653Z AUTO 00000KT 4SM HZ CLR 19/17 A3010 RMK AO2 SLP179
     T01940167=
KARA 080653Z AUTO 09003KT 10SM CLR 25/24 A3000 RMK AO2 SLP158
     T02500239=
KASD 080653Z AUTO 05003KT 10SM CLR 25/24 A3001 RMK AO2 SLP161
     T02500239=
KAUS 080653Z 05005KT 10SM BKN014 OVC029 26/23 A2996 RMK AO2 SLP131
     T02610233=
KAWM 080653Z AUTO 00000KT 10SM CLR 24/23 A3004 RMK AO2 SLP166
     T02440228=
KBFM 080653Z AUTO 00000KT 10SM CLR 24/23 A3004 RMK AO2 SLP172
     T02440233=
KBMQ 080653Z AUTO 13006KT 10SM SCT015 BKN023 OVC040 25/22 A3001
     RMK AO2 SLP143 T02500217 $=
KBNA 080653Z 00000KT 10SM FEW095 27/21 A3007 RMK AO2 SLP174
     T02720211=
KBPK 080653Z AUTO 16003KT 9SM FEW023 24/22 A3005 RMK AO2 SLP165
     T02390222=
KBPT 080653Z 09010KT 10SM SCT026 27/24 A2995 RMK AO2 SLP141
     T02670239 $=
KBRO 080653Z 29003KT 10SM FEW050 27/25 A2981 RMK AO2 SLP093
     T02670250=
KBWG 080653Z AUTO 00000KT 10SM CLR 25/21 A3007 RMK AO2 SLP174
     T02500206=
KCAK 080651Z 00000KT 7SM CLR 22/18 A3009 RMK AO2 SLP178
     T02220183=
KCCR 080653Z AUTO 25007KT 10SM CLR 13/10 A2991 RMK AO2 SLP113
     T01330100=
KCDS 080653Z AUTO 35003KT 10SM CLR 23/21 A3008 RMK AO2 SLP160
     T02280211=
KCHO 080653Z AUTO 00000KT 5SM HZ CLR 24/20 A3001 RMK AO2 SLP153
     T02390200 TSNO=
KCLL 080653Z 09005KT 10SM CLR 26/23 A2996 RMK AO2 SLP139
     T02560228=
KCNM 080653Z AUTO 06005KT 10SM BKN060 BKN090 OVC120 22/19 A3012
     RMK AO2 SLP144 T02170194 403170194=
KCOT 080653Z AUTO 05004KT 10SM BKN021 25/22 A2991 RMK AO2 SLP120
     T02500222=
KCRP 080651Z 09005KT 9SM -RA FEW010 SCT070 BKN080 27/26 A2985 RMK
     AO2 TSB15E44RAE0555B38 SLP106 OCNL LTG DSNT NE NW TS MOV W CB
     DSNT NE NW P0001 T02670256=
KCRS 080653Z AUTO 16005KT 10SM OVC013 26/24 A2998 RMK AO2 SLP146
     T02560239=
KCSV 080653Z AUTO 00000KT 10SM CLR 22/17 A3014 RMK AO2 SLP182
     T02170172=
KCXO 080653Z 00000KT 9SM FEW050 24/24 A2996 RMK AO2 SLP141
     T02440239=
KDAN 080653Z AUTO 00000KT 6SM HZ FEW095 23/20 A3000 RMK AO2 SLP145
     T02330200=
KDCU 080653Z AUTO 00000KT 10SM CLR 24/21 A3007 RMK AO2 SLP173
     T02390211=
KDEQ 080653Z AUTO 00000KT 10SM BKN007 OVC010 24/23 A3002 RMK AO2
     SLP160 T02440233=
KDFW 080653Z 15006KT 10SM BKN016 OVC070 26/23 A2999 RMK AO2 SLP146
     T02610233=
KDHT 080653Z AUTO 17008KT 10SM FEW011 OVC050 19/16 A3024 RMK AO2
     SLP191 T01890161=
KDMN 080653Z AUTO 06011G20KT 10SM CLR 22/13 A3011 RMK AO2 LTG DSNT
     NW SLP113 T02170128 403440200=
KDRT 080653Z AUTO 07006KT 10SM CLR 26/22 A2993 RMK AO2 SLP117
     T02560222=
KDTO 080653Z AUTO 17005KT 10SM FEW050 26/23 A3000 RMK AO2 SLP147
     T02610228=
KDWH 080653Z 05004KT 8SM CLR 25/24 A2994 RMK AO2 SLP137
     T02500239=
KEQY 080653Z AUTO 27004KT 10SM CLR 24/19 A3000 RMK AO2 SLP152
     T02390189=
KESF 080653Z AUTO 00000KT 10SM CLR 23/22 A3001 RMK AO2 SLP160
     T02330222=
KFAT 080653Z 31009KT 10SM CLR 25/10 A2982 RMK AO2 SLP092
     T02500100=
KFAY 080653Z AUTO 32006KT 10SM FEW100 29/17 A2993 RMK AO2 SLP128
     T02890167=
KFDR 080653Z AUTO 05005KT 10SM 24/23 A3000 RMK AO2 SLP141
     T02390228=
KFFC 080653Z AUTO 00000KT 8SM CLR 22/20 A3005 RMK AO2 SLP167
     T02170200=
####018001783####
SAUS99 KWBC 080655 RRC
METAR
PHJR 080653Z VRB03KT 10SM FEW060 24/18 A3003 RMK AO2 SLP176
     T02390183=
KSIY 080653Z AUTO 10008KT 10SM CLR 28/06 A2994 RMK AO2 TSE01
     SLP116 T02780061 $=
KSMF 080653Z 16008KT 10SM CLR 17/11 A2981 RMK AO2 SLP093
     T01720106=
KSNS 080653Z AUTO 32005KT 10SM OVC013 13/11 A2993 RMK AO2 SLP145
     T01330106=
KSOW 080650Z AUTO 17009KT 10SM SCT110 22/04 A3022 RMK AO2=
KSPS 080652Z 07004KT 10SM CLR 24/22 A3001 RMK AO2 SLP146
     T02390217=
KSSF 080653Z AUTO 07006KT 10SM FEW015 26/23 A2993 RMK AO2 SLP122
     T02610228=
KSTS 080653Z AUTO 00000KT 10SM OVC008 12/10 A2992 RMK AO2 SLP125
     T01220100=
KSUN 080651Z AUTO 31007KT 10SM CLR 13/02 A3022 RMK AO2=
KSZT 080650Z AUTO 00000KT 10SM CLR 12/10 A3008 RMK AO2=
KTCL 080653Z AUTO 00000KT 7SM CLR 24/23 A3003 RMK AO2 SLP167
     T02440228=
KTIF 080650Z AUTO 00000KT 10SM OVC080 16/14 A3026 RMK AO2
     T01570141=
KTRK 080650Z AUTO 00000KT 10SM SCT120 14/08 A3015 RMK AO2=
KTRL 080653Z AUTO 00000KT 10SM BKN017 BKN026 27/22 A3000 RMK AO2
     SLP151 T02670222=
KTUS 080653Z 08003KT 10SM CLR 32/08 A2988 RMK AO2 SLP058 T03220078
     404000233=
KTVL 080653Z AUTO 19003KT 10SM CLR 14/07 A3016 RMK AO2 SLP145
     T01390067=
KTVR 080653Z AUTO 00000KT 1/2SM FG CLR 23/22 A3003 RMK AO2 SLP175
     T02280217 $=
KUTS 080653Z AUTO 00000KT 8SM CLR 24/23 A2998 RMK AO2 SLP145
     T02440233=
KVCB 080653Z AUTO 23005KT 10SM CLR 22/09 A2981 RMK AO2 SLP092
     T02170094=
KVPC 080653Z AUTO 00000KT 8SM CLR 21/19 A3005 RMK AO2 SLP163
     T02060194=
KWVI 080653Z AUTO 00000KT 10SM OVC011 13/11 A2994 RMK AO2 SLP138
     T01330106=
KXNA 080653Z 00000KT 10SM -RA BKN060 23/22 A3005 RMK AO2 RAB45
     SLP161 P0001 T02330222=
####018003731####
SAUS99 KWBC 080655 RRA
METAR
KFMN 080653Z AUTO 10008KT 10SM CLR 22/06 A3019 RMK AO2 SLP149
     T02170056 403280183=
KFSM 080653Z AUTO 10003KT 10SM CLR 24/22 A3003 RMK AO2 SLP161
     T02440222=
KFST 080653Z AUTO 10006KT 10SM FEW050 BKN110 22/19 A3006 RMK AO2
     SLP131 T02220194=
KFTY 080653Z 00000KT 10SM CLR 23/18 A3005 RMK AO2 SLP163
     T02280183=
KFYV 080653Z AUTO 00000KT 10SM CLR 23/22 A3006 RMK AO2 SLP163
     T02280217=
KGGG 080653Z AUTO 11003KT 10SM CLR 25/24 A3000 RMK AO2 SLP152
     T02500244=
KGLH 080653Z AUTO 00000KT 7SM CLR 23/23 A3004 RMK AO2 SLP177
     T02280228=
KGMU 080653Z AUTO 29003KT 10SM CLR 26/19 A3004 RMK AO2 SLP159
     T02610189=
KGOK 080653Z AUTO 00000KT 8SM FEW027 23/22 A3004 RMK AO2 SLP161
     T02330222=
KGPT 080653Z 05004KT 10SM CLR 27/25 A3001 RMK AO2 SLP161
     T02720250=
KGSP 080653Z AUTO 00000KT 10SM CLR 24/19 A3002 RMK AO2 SLP149
     T02390189=
KGUP 080653Z AUTO 15008KT 10SM CLR 21/06 A3023 RMK AO2 SLP033
     T02110056 403220139=
KGVL 080653Z AUTO 00000KT 10SM CLR 24/21 A3009 RMK AO2 SLP169
     T02390206=
KGWO 080653Z AUTO 00000KT 10SM CLR 23/23 A3005 RMK AO2 SLP173
     T02280228=
KHBG 080653Z AUTO 00000KT 10SM CLR 24/23 A3004 RMK AO2 SLP168
     T02440233=
KHDE 080650Z AUTO 35005KT 10SM CLR 16/15 A3020 RMK AO2
     T01580146=
KHGR 080653Z AUTO 10003KT 7SM CLR 26/17 A3003 RMK AO2 SLP169
     T02560167=
KHJH 080650Z AUTO 01006KT 10SM BKN021 20/19 A3013 RMK AO2
     T02010185=
KHJO 080653Z AUTO 34007KT 10SM CLR 24/13 A2981 RMK AO2 SLP093
     T02440133=
KHKA 080653Z AUTO 20004KT 7SM CLR 27/22 A3004 RMK AO2 SLP171
     T02670222=
KHKS 080653Z AUTO 00000KT 10SM CLR 24/23 A3005 RMK AO2 SLP168
     T02440228=
KMGW 080653Z AUTO 00000KT 5SM BR CLR 21/19 A3010 RMK AO2 SLP181
     T02110189=
KMKL 080653Z AUTO 00000KT 10SM CLR 23/21 A3006 RMK AO2 SLP173
     T02280211=
KMLE 080650Z AUTO 33004KT 10SM CLR 21/17 A3011 RMK AO2
     T02100173=
KMMH 080650Z AUTO 27007KT 10SM CLR 14/03 A3020 RMK AO1=
KMRB 080653Z AUTO 00000KT 6SM HZ CLR 26/18 A3002 RMK AO2 SLP159
     T02560183=
KMSL 080653Z AUTO 00000KT 10SM CLR 24/22 A3007 RMK AO2 SLP176
     T02390222=
KMSY 080653Z 08003KT 10SM FEW250 27/23 A3000 RMK AO2 SLP162
     T02670233=
KMWL 080653Z AUTO 14005KT 10SM SCT031 SCT055 23/22 A2999 RMK AO2
     SLP141 T02330217=
KMYV 080653Z AUTO 15007KT 10SM CLR 21/12 A2980 RMK AO2 SLP094
     T02060122=
KNEW 080653Z AUTO 10005KT 10SM CLR 27/24 A3001 RMK AO2 SLP156
     T02720244 TSNO=
KOAK 080653Z 29010KT 10SM BKN011 14/11 A2993 RMK AO2 SLP135
     T01440106=
KOGA 080650Z AUTO 25004KT 10SM OVC060 16/15 A3027 RMK AO2
     T01610147 401950146=
KOKC 080652Z 06003KT 10SM FEW023 SCT150 24/22 A3004 RMK AO2 SLP154
     T02390222=
KONL 080650Z AUTO 26003KT 10SM OVC110 16/14 A3021 RMK AO2
     T01580142=
KORF 080651Z 10004KT 4SM BR CLR 26/24 A2995 RMK AO2 SLP142
     T02560239=
KOVE 080653Z AUTO 16008KT 10SM CLR 24/14 A2982 RMK AO2 SLP097
     T02440139 TSNO=
KPAH 080653Z AUTO 00000KT 10SM CLR 23/22 A3004 RMK AO2 SLP166
     T02330222=
KPBF 080653Z AUTO 12003KT 9SM CLR 23/22 A3005 RMK AO2 SLP171
     T02330222=
KPDK 080653Z AUTO 00000KT 10SM CLR 24/19 A3005 RMK AO2 SLP155
     T02390189=
KPNA 080650Z AUTO 00000KT 10SM SCT075 SCT090 12/00 A3036 RMK AO2
     T01161002=
KPQL 080653Z AUTO 00000KT 3SM BR CLR 24/24 A3002 RMK AO2 SLP166
     T02440239=
KPRB 080653Z AUTO 28003KT 10SM CLR 14/11 A2990 RMK AO2 SLP121
     T01390106=
KPSX 080653Z AUTO 05007KT 10SM CLR 27/25 A2987 RMK AO2 LTG DSNT SW
     RAB02E12 SLP115 P0001 T02670250=
KPTT 080650Z AUTO 01006KT 10SM CLR 20/18 A3013 RMK AO2=
####018000432####
SAUK31 EGGY 080650
METAR EGBB 080650Z 23008KT CAVOK 15/10 Q1018=
METAR EGCC 080650Z 20008KT 9999 FEW027 14/12 Q1017=
METAR EGKK 080650Z 25008KT 9999 FEW008 BKN012 17/14 Q1019=
METAR EGLL 080650Z NIL=
METAR EGPF 080650Z 22013KT 9999 FEW030 SCT040 14/11 Q1012=
METAR EGPH 080650Z 22012KT 9999 FEW024 14/09 Q1012=
METAR EGPK 080650Z 21013KT 9999 FEW020 SCT048 14/10 Q1013=
METAR EGSS 080650Z 22007KT 9999 BKN010 18/15 Q1018=
####018000571####
SAUK34 EGGY 080650
METAR EGHD 080650Z 00000KT 9999 FEW025 16/13 Q1019=
METAR EGHE 080650Z 22002KT CAVOK 17/13 Q1019=
METAR EGHK 080650Z 00000KT 9999 FEW028 15/14 Q1018=
METAR EGHQ 080650Z NIL=
METAR EGJA 080650Z 24004KT 6000 1000SE R26/0900 VCFG FEW000
    SCT001 BKN015 16/16 Q1020=
METAR EGJB 080650Z 26006KT 9999 2800SE VCFG FEW002 SCT006 BKN010
    17/17 Q1020=
METAR EGJJ 080650Z 30005KT 9999 8000W VCFG FEW001 BKN005 17/17
    Q1019 BECMG SCT005=
METAR EGTE 080650Z 31004KT 9999 FEW025 17/14 Q1019=
METAR EGTG 080650Z 26004KT 9999 BKN014 16/13 Q1019=
####018000487####
SASN32 ESWI 080650
METAR ESKN 080650Z 26008KT 220V290 CAVOK 20/11 Q1018=
METAR ESOE 080650Z 22011KT 9999 FEW042 18/12 Q1018=
METAR ESOK 080650Z 21011KT 9999 BKN023 17/12 Q1017=
METAR ESOW 080650Z 24008KT CAVOK 20/11 Q1017=
METAR ESSA 080650Z 28009KT CAVOK 20/11 Q1017 NOSIG=
METAR ESSB 080650Z 25009KT CAVOK 20/12 Q1018=
METAR ESSD 080650Z AUTO 23008KT 9999NDV FEW026/// 18/11 Q1016=
METAR ESSP 080650Z 27008KT CAVOK 20/11 Q1018=
METAR ESSV 080650Z 31007KT CAVOK 18/12 Q1019=
####018000074####
SAQB31 LQMO 080700
METAR LQMO 080700Z 33006KT 9999 FEW045 23/08 Q1018=
####018000369####
SAUK35 EGGY 080650
METAR EGHH 080650Z NIL=
METAR EGKA 080650Z NIL=
METAR EGKB 080650Z 23007KT 200V260 9000 BKN008 17/14 Q1019 =
METAR EGLF 080650Z 23008KT 190V250 9000 VCSH BKN008 17/15 Q1019=
METAR EGMC 080650Z 23006KT 9999 FEW011 BKN014 18/16 Q1019=
METAR EGMD 080650Z NIL=
METAR EGMH 080650Z NIL=
METAR EGTC 080650Z 29005KT 9999 FEW012 SCT018 15/13 Q1018=
####018000080####
SACY42 EGRR 080650
METAR LCRA 080650Z 22008KT 9999 FEW020 27/20 Q1008 NOSIG=
####018000085####
SAIN32 VIDP 080630 RRA
METAR VIBN 080630Z 09006KT 7000 FEW020 SCT025 38/22 Q1004=
####018000089####
SAAH10 OAKB 080550
METAR OAKB 080650Z VRB05KT 8000 NSC 31/11 Q1017 NOSIG RMK BLU BLU=
####018000080####
SAQB31 LQSM 080700
METAR LQSA 080700Z VRB01KT 9999 SCT050 15/10 Q1024 NOSIG=
####018000078####
SAUK31 EGGY 080650 RRA
METAR EGLL 080650Z 23009KT 9999 BKN010 18/15 Q1019=
####018000478####
SASN33 ESWI 080650
METAR ESNG 080650Z NIL=
METAR ESNK 080650Z AUTO 15011KT 9999NDV NCD 18/13 Q1013=
METAR ESNN 080650Z AUTO 18006KT 9999NDV NCD 19/13 Q1013=
METAR ESNO 080650Z 15010KT CAVOK 19/11 Q1015=
METAR ESNQ 080650Z 18008KT CAVOK 16/08 Q1013=
METAR ESNS 080650Z 17006KT 140V230 CAVOK 20/11 Q1015=
METAR ESNU 080650Z 11006KT CAVOK 19/11 Q1015=
METAR ESNZ 080650Z 19009KT CAVOK 16/10 Q1011=
METAR ESUT 080650Z AUTO 17009KT 130V210 9999NDV BKN084/// 16/09
Q1010=
####018000170####
SASN34 ESWI 080650
METAR ESDF 080650Z 25003KT CAVOK 20/12 Q1021=
METAR ESPA 080650Z 17010KT CAVOK 18/13 Q1016=
METAR ESSL 080650Z 25007KT 220V290 CAVOK 20/11 Q1019=
####018000299####
SASW32 LSSW 080650
METAR LSGC 080650Z NIL=
METAR LSGS 080650Z VRB03KT CAVOK 22/12 Q1022=
METAR LSZG 080650Z 06003KT CAVOK 19/11 Q1022 NOSIG=
METAR LSZR 080650Z VRB02KT CAVOK 19/13 Q1022 NOSIG RMK D=
METAR LSZS 080650Z VRB01KT CAVOK 11/09 Q1027=
METAR LSZC 080650Z 00000KT CAVOK 21/14 Q1022=
####018000452####
SASN35 ESWI 080650
METAR ESGL 080650Z AUTO 20009KT 9999NDV SCT032/// BKN040/// 19/14 
Q1018=
METAR ESGR 080650Z AUTO 20010KT 9999NDV BKN044/// 19/13 Q1018=
METAR ESKM 080650Z NIL=
METAR ESNL 080650Z AUTO 14014KT 9999NDV SCT082/// 20/11 Q1013=
METAR ESNX 080650Z AUTO 14009KT 9999NDV BKN082/// 17/11 Q1014=
METAR ESNY 080650Z AUTO 23005KT 180V280 9999 SKC 20/14 Q1014=
METAR ESSF 080650Z NIL=
METAR ESSK 080650Z NIL=
METAR ESUD 080650Z NIL=
####018000355####
SAFI32 EFHK 080650
EFHA 080650Z 07004KT 020V110 9999 BKN007 BKN070 19/17 Q1015=
EFHF 080650Z 35006KT CAVOK 24/19 Q1014=
EFKA 080650Z 00000KT 9999 FEW007 SCT015 20/16 Q1016=
EFKK 080650Z VRB02KT CAVOK 20/14 Q1016=
EFMA 080650Z 34004KT 260V020 CAVOK 19/11 Q1016=
EFPO 080650Z 27002KT CAVOK 20/13 Q1016=
EFSI 080650Z AUTO VRB02KT CAVOK 21/15 Q1016=
####018000585####
SAHW31 KMSC 080654
METAR PHNL 080653Z 02007KT 10SM FEW029 SCT047 24/18 A3003 RMK AO2 
    RAB15E53 SLP167 P0000 T02440183=
METAR PHTO 080653Z 06003KT 10SM SCT029 SCT050 OVC065 24/18 A3003 RMK 
    AO2 SLP169 T02440183=
METAR PHKO 080653Z 09006KT 10SM CLR 25/16 A2999 RMK AO2 SLP155 
    T02500161=
METAR PHLI 080653Z 03009KT 10SM SCT023 BKN036 24/21 A3006 RMK AO2 
    RAE0557 SLP175 P0000 T02400206 $=
METAR PHJR 080653Z VRB03KT 10SM FEW060 24/18 A3003 RMK AO2 SLP176 
    T02390183=
METAR PWAK 080652Z 08015G18KT 8SM HZ FEW020 FEW030 28/24 A2996 
RMK AO2A=
####018000081####
SABZ20 SBBV 080700
METAR SBBV 080700Z 00000KT 9999 SCT025 SCT100 25/23 Q1011=
####018002943####
SAUS20 KNKA 080654
METAR KEMP 080653Z AUTO 01005KT 10SM CLR 22/19 A3008 RMK AO2 SLP175 
    T02170194=
METAR KENW 080653Z AUTO 19008KT 8SM -RA FEW014 BKN043 OVC085 23/22 
    A3005 RMK AO2 LTG DSNT E TSB25E40RAB44 SLP169 P0001 T02330217 $=
METAR KEPH 080653Z AUTO 32005KT 10SM CLR 23/06 A2999 RMK AO2 SLP146 
    T02280056=
METAR KEVW 080653Z AUTO 09016KT 10SM CLR 13/04 A3026 RMK AO2 SLP166 
    T01330039 402390078 TSNO=
METAR KEWB 080653Z AUTO 14004KT 10SM SCT008 OVC029 23/21 A3006 RMK 
    AO2 SLP177 T02280206=
METAR KEYE 080653Z AUTO 00000KT 9SM CLR 24/21 A3006 RMK AO2 SLP169 
    T02440206=
METAR KEYW 080653Z AUTO 08003KT 10SM CLR 28/25 A2993 RMK AO2 SLP136 
    T02830250=
METAR KFCM 080653Z AUTO 33006KT 10SM CLR 21/17 A3006 RMK AO2 SLP176 
    T02060167=
METAR KFDY 080653Z AUTO 19003KT 9SM CLR 22/18 A3006 RMK AO2 SLP168 
    T02170183=
METAR KFFT 080653Z AUTO 00000KT 5SM BR CLR 22/21 A3007 RMK AO2 
    SLP173 T02220206=
METAR KFHR 080653Z AUTO 00000KT 10SM CLR 14/11 A2995 RMK AO2 SLP141 
    T01440111=
METAR KFLD 080653Z AUTO 00000KT 7SM -RA FEW055 OVC080 22/21 A3002 
    RMK AO2 RAB13 SLP159 P0002 T02220206=
METAR KFLL 080653Z 07009KT 10SM FEW021 SCT029 SCT049 28/24 A2993 RMK 
    AO2 SLP135 T02830244=
METAR KFMY 080653Z AUTO 06005KT 10SM CLR 24/22 A2997 RMK AO2 SLP149 
    T02440222=
METAR KFNB 080653Z AUTO 31003KT 9SM FEW037 22/21 A3007 RMK AO2 
    SLP173 T02220206=
METAR KFNT 080653Z AUTO 00000KT 9SM CLR 24/22 A3004 RMK AO2 SLP166 
    T02390217=
METAR KFOE 080653Z AUTO 05010KT 5SM -RA BR FEW003 OVC020 22/21 A3008 
    RMK AO2 SLP174 P0031 T02170206=
METAR KFOK 080653Z AUTO 12004KT 3/4SM BR OVC001 24/22 A3005 RMK AO2 
    SLP175 T02390222 TSNO=
METAR KFPR 080653Z AUTO 08003KT 10SM CLR 26/22 A2997 RMK AO2 SLP148 
    T02610222=
METAR KFRG 080653Z AUTO 00000KT 5SM BR BKN095 BKN110 26/24 A3002 RMK 
    AO2 SLP165 T02560244=
METAR KFTW 080653Z 16008KT 10SM BKN018 BKN060 26/23 A2999 RMK AO2 
    SLP144 T02560228=
METAR KFUL 080653Z 00000KT 10SM OVC015 16/12 A2991 RMK AO2 SLP126 
    T01610122=
METAR KFVE 080653Z AUTO 03003KT 9SM CLR 23/22 A3000 RMK AO2 SLP149 
    T02280217=
METAR KFWN 080653Z AUTO 00000KT 4SM BR CLR 22/21 A3004 RMK AO2 
    SLP167 T02220211=
METAR KGAG 080653Z AUTO 04008KT 10SM SCT028 BKN034 23/19 A3012 RMK 
    AO2 SLP171 T02280194=
METAR KGCC 080653Z AUTO 00000KT 10SM CLR 09/07 A3029 RMK AO2 SLP232 
    T00940067 402280072=
METAR KGEG 080653Z 07005KT 10SM CLR 21/08 A3006 RMK AO2 SLP160 
    T02110083=
METAR KGEY 080653Z AUTO 11004KT 10SM CLR 15/03 A3024 RMK AO2 SLP215 
    T01500028 402560067=
METAR KGEZ 080653Z AUTO 00000KT 6SM BR CLR 22/20 A3005 RMK AO2 
    SLP169 T02170200=
METAR KGFK 080653Z 26006KT 10SM CLR 16/12 A3003 RMK AO2 SLP167 
    T01610122=
METAR KGFL 080653Z AUTO 00000KT 1 1/2SM BR CLR 22/21 A3001 RMK AO2 
    SLP159 T02170211=
####018000115####
SAUS43 KAPX 080654
MTRHTL
METAR KHTL 080653Z AUTO 00000KT 9SM BKN120 22/21 A3005 RMK AO2 
SLP170 T02170211
####018002949####
SAUS20 KNKA 080654
METAR KBGR 080653Z 19007KT 5SM BR OVC003 20/19 A3006 RMK AO2 SLP176 
    T02000189=
METAR KBHK 080653Z AUTO 00000KT 10SM CLR 11/09 A3021 RMK AO2 SLP221 
    T01060089 402440061=
METAR KBHM 080653Z 02003KT 8SM CLR 25/22 A3006 RMK AO2 SLP170 
    T02500222=
METAR KBIL 080653Z 19005KT 10SM CLR 18/05 A3023 RMK AO2 SLP213 
    T01830050 402500089=
METAR KBIV 080653Z AUTO 22006KT 4SM HZ FEW001 BKN046 OVC090 26/22 
    A3006 RMK AO2 RAE03B34E49 SLP173 P0001 T02560222=
METAR KBKE 080653Z AUTO 00000KT 10SM CLR 11/07 A3009 RMK AO2 SLP171 
    T01060067=
METAR KBKL 080653Z 16006KT 8SM CLR 27/19 A3005 RMK AO2 SLP169 
    T02670189=
METAR KBLI 080653Z AUTO 00000KT 10SM CLR 18/14 A2993 RMK AO2 SLP141 
    T01830144=
METAR KBMG 080653Z AUTO 00000KT 5SM BR FEW090 22/21 A3006 RMK AO2 
    SLP169 T02170211=
METAR KBOI 080653Z 12005KT 10SM CLR 21/07 A3002 RMK AO2 SLP139 
    T02060067 403170139=
METAR KBPI 080653Z AUTO 00000KT 10SM CLR 11/01 A3037 RMK AO2 SLP203 
    T01110006 402220000=
METAR KBRD 080653Z AUTO 18004KT 7SM CLR 15/13 A3007 RMK AO2 SLP182 
    T01500133=
METAR KBRL 080653Z AUTO 1 3/4SM BR CLR 23/22 A3002 RMK AO2 SLP160 
    T02330222 $=
METAR KBTL 080653Z AUTO 00000KT 10SM CLR 24/21 A3006 RMK AO2 SLP170 
    T02390206=
METAR KBTM 080653Z AUTO 00000KT 10SM CLR 11/01 A3030 RMK AO2 SLP220 
    T01060006 402220022=
METAR KBUR 080653Z AUTO 15004KT 10SM OVC011 16/13 A2991 RMK AO2 
    SLP119 T01610128 TSNO=
METAR KBVO 080653Z AUTO 00000KT 10SM BKN060 OVC090 23/22 A3005 RMK 
    AO2 SLP164 T02280222=
METAR KBVY 080653Z 16006KT 6SM BR OVC009 23/21 A3004 RMK AO2 SLP167 
    T02280211 PNO=
METAR KBYG 080653Z AUTO 24005KT 10SM CLR 11/04 A3032 RMK AO2 SLP231 
    T01060044 402000061=
METAR KBYI 080653Z AUTO 00000KT 10SM CLR 11/05 A3010 RMK AO2 SLP159 
    T01110050 402720089=
METAR KCAG 080653Z AUTO 08004KT 10SM CLR 12/07 A3030 RMK AO2 SLP200 
    T01220072 402830056=
METAR KCDC 080653Z AUTO 14003KT 10SM CLR 17/01 A3012 RMK AO2 SLP120 
    T01720006 403170100 $=
METAR KCDR 080653Z AUTO 00000KT 10SM CLR 12/10 A3027 RMK AO2 SLP244 
    T01170100 402110106 $=
METAR KCDW 080653Z AUTO 00000KT 7SM CLR 24/21 A3002 RMK AO2 SLP168 
    T02440211 TSNO=
METAR KCEZ 080653Z AUTO 13016G27KT 10SM CLR 21/06 A3019 RMK AO2 PK 
    WND 13031/0609 SLP129 T02110056 403170089=
METAR KCGI 080653Z AUTO 00000KT 8SM CLR 24/24 A3003 RMK AO2 SLP166 
    T02440239 TSNO=
METAR KCKB 080653Z AUTO 00000KT 4SM BR CLR 21/19 A3009 RMK AO2 
    SLP172 T02060189=
METAR KCLM 080653Z AUTO A2996 RMK AO2 SLPNO PWINO FZRANO $=
METAR KCMI 080653Z AUTO 00000KT 8SM FEW055 BKN070 OVC090 24/23 A3005 
    RMK AO2 LTG DSNT N RAE0559 SLP167 P0000 T02440228=
METAR KCMX 080653Z AUTO 00000KT 9SM OVC002 18/17 A2998 RMK AO2 
    SLP149 T01830172=
METAR KCNO 080653Z 28007KT 6SM HZ CLR 15/12 A2993 RMK AO2 SLP130 
    T01500122=
####018000117####
SAUS44 KMRX 080654
MTROQT
METAR KOQT 080653Z AUTO 00000KT 9SM CLR 23/20 A3009 RMK AO2 SLP169 
T02330200 TSNO
####018000096####
SAGU31 MGGT 080700
METAR
MGGT 080700Z  18006KT CAVOK 17/13 Q1023 A3021 SCT080 OVC100 NOSIG=
####018000108####
SAUS42 KCHS 080654
MTRSAV
METAR KSAV 080653Z 28003KT 10SM CLR 22/19 A3000 RMK AO2 SLP157 
T02170194
####018002990####
SAUS20 KNKA 080654
METAR KCNY 080653Z AUTO 07011KT 10SM CLR 24/04 A3006 RMK AO2 SLP109 
    T02390044 403440172=
METAR KCPR 080653Z AUTO 00000KT 10SM CLR 06/05 A3032 RMK AO2 SLP239 
    T00610050 402060039=
METAR KCPS 080653Z AUTO 15003KT 10SM CLR 24/22 A3003 RMK AO2 SLP163 
    T02440222=
METAR KCRE 080653Z AUTO 30004KT 10SM SCT110 27/21 A2993 RMK AO2 
    SLP135 T02720206=
METAR KCRQ 080653Z AUTO 27003KT 10SM OVC012 17/13 A2991 RMK AO2 
    SLP126 T01670133=
METAR KCSM 080653Z AUTO 02004KT 10SM CLR 23/20 A3010 RMK AO2 SLP166 
    T02280200=
METAR KCYS 080653Z AUTO 12005KT 1SM BR OVC002 12/12 A3036 RMK AO2 
    SLP235 T01170117 401220094 TSNO RVRNO=
METAR KDAG 080653Z AUTO 25009KT 10SM CLR 27/00 A2984 RMK AO2 SLP075 
    T02720000 TSNO $=
METAR KDAL 080653Z 16008KT 10SM BKN017 27/23 A2999 RMK AO2 SLP149 
    T02670233=
METAR KDBQ 080653Z AUTO 28003KT 10SM OVC110 21/20 A3003 RMK AO2 
    RAE22 SLP162 P0000 T02060200=
METAR KDEN 080653Z 00000KT 4SM BR OVC080 15/14 A3033 RMK AO2 SLP212 
    OCNL LTGICCC DSNT SE CB DSNT SE MOV NE T01500144 401940133 $=
METAR KDET 080653Z 00000KT 10SM CLR 26/21 A3004 RMK AO2 SLP164 
    T02610211 $=
METAR KDEW 080653Z AUTO 02004KT 10SM CLR 14/09 A3006 RMK AO2 SLP169 
    T01390089=
METAR KDFI 080653Z AUTO 00000KT 8SM CLR 22/19 A3005 RMK AO2 SLP171 
    T02220189=
METAR KDGW 080653Z AUTO 00000KT 10SM CLR 09/07 A3033 RMK AO2 SLP241 
    T00890072 402000072 $=
METAR KDKK 080653Z AUTO 00000KT 9SM BKN090 21/19 A3007 RMK AO2 
    SLP176 T02060189=
METAR KDLN 080653Z AUTO 24004KT 10SM CLR 08/04 A3026 RMK AO2 SLP214 
    T00830044 402280039=
METAR KDLS 080653Z AUTO 10005KT 10SM CLR 21/04 A2992 RMK AO2 SLP130 
    T02060044=
METAR KDMO 080653Z AUTO 18004KT 10SM -RA FEW016 BKN047 BKN055 24/22 
    A3005 RMK AO2 RAB05 SLP166 P0000 T02390222=
METAR KDNL 080653Z AUTO VRB03KT 10SM CLR 27/17 A3002 RMK AO2 SLP159 
    T02670172=
METAR KDRO 080653Z AUTO 08005KT 10SM CLR 16/05 A3030 RMK AO2 LTG 
    DSNT N AND NE RAB0554E06 SLP167 P0000 T01610050 403000122=
METAR KDTN 080653Z AUTO 00000KT 10SM CLR 25/24 A3000 RMK AO2 SLP156 
    T02500239=
METAR KDTW 080653Z 00000KT 6SM HZ SCT150 25/21 A3004 RMK AO2 SLP165 
    T02500211=
METAR KDVT 080653Z 00000KT 10SM CLR 31/01 A2977 RMK AO2 SLP051 
    T03110011 404060222=
METAR KDXR 080653Z AUTO 12003KT 7SM CLR 23/22 A3005 RMK AO2 SLP170 
    T02330217=
METAR KECP 080653Z AUTO 32003KT 6SM BR CLR 23/23 A3002 RMK AO2 
    SLP177 T02330228=
METAR KEEO 080653Z AUTO 10SM FEW110 13/08 A3030 RMK AO2 SLP180 
    T01280078 402720061 $=
METAR KEET 080653Z AUTO 00000KT 7SM OVC070 27/21 A3004 RMK AO2 
    SLP163 T02670211=
METAR KELD 080653Z AUTO 00000KT 5SM BR CLR 23/23 A3002 RMK AO2 
    SLP162 T02280228=
METAR KELM 080653Z AUTO 24003KT 4SM BR CLR 18/17 A3008 RMK AO2 
    SLP177 T01780167=
METAR KELN 080653Z AUTO 00000KT 10SM CLR 18/07 A3003 RMK AO2 SLPNO 
    T01830067 $=
####018000122####
SAUS43 KMKX 080654
MTRMSN
METAR KMSN 080653Z 00000KT 7SM OVC120 22/21 A3000 RMK AO2 RAE10 
SLP155 P0000 T02170206
####018000109####
SAUS44 KJAN 080654
MTRJAN
METAR KJAN 080654Z 00000KT 9SM CLR 24/23 A3005 RMK AO2 SLP169 
T02390228 $
####018000111####
SAUS44 KLIX 080654
MTRMSY
METAR KMSY 080653Z 08003KT 10SM FEW250 27/23 A3000 RMK AO2 SLP162 
T02670233
####018002958####
SAUS20 KNKA 080654
METAR KHYR 080653Z AUTO 00000KT 10SM OVC049 18/17 A3004 RMK AO2 
    RAB38E52 SLP166 P0000 T01830167=
METAR KHZY 080653Z AUTO 00000KT 4SM BR CLR 19/18 A3008 RMK AO2 
    SLP179 T01940183=
METAR KIAG 080653Z AUTO 21005KT 5SM BR CLR 24/22 A3005 RMK AO2 
    SLP166 T02390217=
METAR KICR 080653Z AUTO 24004KT 10SM BKN120 18/13 A3020 RMK AO2 
    SLPNO T01830133 TSNO=
METAR KICT 080653Z 01005KT 10SM BKN025 BKN070 BKN200 23/21 A3009 RMK 
    AO2 SLP175 T02280206 $=
METAR KIDA 080653Z AUTO 02006KT 10SM CLR 12/06 A3017 RMK AO2 SLP186 
    T01170061 402610056=
METAR KILM 080653Z AUTO 00000KT 10SM CLR 25/22 A2991 RMK AO2 SLP128 
    T02500217=
METAR KIML 080653Z AUTO 34003KT 10SM BKN025 OVC032 17/15 A3027 RMK 
    AO2 SLP231 T01720150 402170150=
METAR KIPL 080653Z AUTO 21005KT 10SM CLR 29/09 A2967 RMK AO2 SLP047 
    T02890089=
METAR KITR 080653Z AUTO 04004KT 10SM FEW009 BKN015 OVC030 17/15 
    A3030 RMK AO2 SLP224 T01670150 402060139=
METAR KIWI 080653Z AUTO 00000KT 7SM SCT003 OVC012 21/19 A3008 RMK 
    AO2 SLP186 T02060194=
METAR KIXD 080653Z AUTO 32004KT 10SM SCT080 23/21 A3008 RMK AO2 
    SLP173 T02280211=
METAR KJEF 080653Z AUTO 16005KT 10SM SCT047 BKN065 OVC085 24/23 
    A3004 RMK AO2 LTG DSNT SE RAB41E51 SLP159 P0000 T02390228=
METAR KJER 080653Z AUTO 08009KT 10SM CLR 18/M01 A3010 RMK AO2 SLP155 
    T01781011 402830100=
METAR KJKL 080653Z AUTO 00000KT 6SM HZ CLR 24/19 A3011 RMK AO2 
    SLP178 T02440194=
METAR KJLN 080653Z 35003KT 10SM SCT034 BKN041 OVC110 23/22 A3005 RMK 
    AO2 SLP165 T02280222=
METAR KLAA 080653Z AUTO 14006KT 10SM -RA OVC030 19/16 A3025 RMK AO2 
    LTG DSNT W RAB52 SLP205 P0000 T01890161 402670161=
METAR KLAN 080653Z 00000KT 6SM BR CLR 24/22 A3004 RMK AO2 SLP166 
    T02390217 $=
METAR KLAR 080653Z AUTO 18006KT 10SM CLR 09/09 A3037 RMK AO2 SLP206 
    T00890089 401560067=
METAR KLBF 080653Z AUTO 00000KT 10SM OVC048 16/16 A3025 RMK AO2 
    SLP230 T01610156=
METAR KLEB 080653Z AUTO 00000KT 2SM BR CLR 22/21 A3004 RMK AO2 
    SLP158 T02220206=
METAR KLEE 080653Z AUTO 00000KT 10SM CLR 23/21 A3002 RMK AO2 SLP164 
    T02280211=
METAR KLGB 080653Z 29004KT 10SM OVC017 17/13 A2991 RMK AO2 SLP129 
    T01720128=
METAR KLHQ 080653Z AUTO 00000KT 3SM BR CLR 19/18 A3008 RMK AO2 
    SLP179 T01940183=
METAR KLHX 080653Z AUTO 36010KT 7SM -RA FEW007 BKN029 OVC080 17/16 
    A3031 RMK AO2 LTG DSNT NE RAB17 SLP219 T01670156 402330167 PNO $=
METAR KLMT 080653Z AUTO 23008KT 10SM FEW090 21/09 A3005 RMK AO2 
    SLP124 T02110089=
METAR KLNS 080653Z AUTO 05003KT 6SM HZ CLR 26/21 A3001 RMK AO2 
    SLP159 T02610211=
METAR KLOU 080653Z AUTO 00000KT 7SM CLR 27/21 A3006 RMK AO2 SLP171 
    T02720211=
METAR KLOZ 080653Z AUTO 02003KT 4SM BR CLR 22/20 A3010 RMK AO2 
    SLP178 T02170200=
METAR KLPR 080653Z AUTO 00000KT 6SM HZ CLR 23/19 A3007 RMK AO2 
    SLP175 T02280189=
####018000125####
SAUS45 KABQ 080654
MTRGNT
METAR KGNT 080653Z AUTO 16013KT 19/08 A3027 RMK AO2 SLP146 T01890083 
403060161 PWINO TSNO
####018002998####
SAUS20 KNKA 080654
METAR KAAF 080653Z AUTO 02004KT 10SM CLR 23/22 A3001 RMK AO2 SLP162 
    T02330217=
METAR KABR 080653Z AUTO 23005KT 10SM CLR 16/14 A3012 RMK AO2 SLP195 
    T01560139=
METAR KABY 080653Z 00000KT 10SM CLR 22/20 A3005 RMK AO2 SLP172 
    T02220200=
METAR KACK 080653Z AUTO 12006KT 1/4SM R24/1800V3500FT FG VV001 19/19 
    A3007 RMK AO2 SLP181 T01890189 TSNO=
METAR KADG 080653Z AUTO 00000KT 8SM CLR 23/19 A3006 RMK AO2 SLP172 
    T02280194=
METAR KAFW 080653Z 16004KT 10SM FEW019 BKN050 OVC080 27/23 A2999 RMK 
    AO2 SLP139 T02670228=
METAR KAGC 080653Z 00000KT 6SM HZ CLR 24/18 A3008 RMK AO2 SLP180 
    T02440178=
METAR KAIA 080653Z AUTO 21003KT 10SM OVC085 16/14 A3028 RMK AO2 
    SLP230 T01560144 401940122 $=
METAR KAKO 080653Z AUTO 13009KT 10SM OVC006 14/14 A3031 RMK AO2 CIG 
    002V009 SLP229 T01440139 401830128 TSNO=
METAR KALW 080653Z AUTO 10006KT 10SM CLR 20/09 A2996 RMK AO2 SLP138 
    T02000089=
METAR KAMA 080653Z 04009KT 1SM RA BR SCT016 BKN025 OVC060 17/16 
    A3019 RMK AO2 SFC VIS 4 LTG DSNT E TSE11B13E49 SLP174 P0056 
    T01670156 $=
METAR KAMW 080653Z AUTO 34007KT 10SM CLR 21/19 A3008 RMK AO2 SLP177 
    T02110194=
METAR KAOH 080653Z AUTO 19003KT 9SM 23/19 A3007 RMK AO2 SLP174 
    T02330189 $=
METAR KAPA 080653Z 35006KT 10SM FEW010 OVC020 14/13 A3036 RMK AO2 
    LTG DSNT E SLP233 T01440128 401890117 $=
METAR KAPF 080653Z AUTO 06005KT 10SM CLR 25/22 A2997 RMK AO2 SLP147 
    T02500222=
METAR KARB 080653Z AUTO 00000KT 6SM BR CLR 21/19 A3004 RMK AO2 
    SLP165 T02110194=
METAR KASE 080653Z 20006KT 10SM SCT100 BKN120 08/06 A3040 RMK AO2 
    SLP187 T00780056 402330050=
METAR KASX 080653Z AUTO 00000KT 10SM BKN060 19/15 A3002 RMK AO2 
    SLP162 T01890150=
METAR KATY 080653Z AUTO 23004KT 10SM CLR 16/14 A3014 RMK AO2 SLP203 
    T01560139=
METAR KAUG 080653Z AUTO 16005KT 5SM BR OVC005 21/20 A3007 RMK AO2 
    SLP180 T02060200=
METAR KAXN 080653Z AUTO 24005KT 10SM CLR 15/14 A3011 RMK AO2 SLP195 
    T01500144=
METAR KAZO 080653Z AUTO 00000KT 5SM HZ CLR 23/20 A3005 RMK AO2 
    SLP168 T02330200 $=
METAR KBAF 080653Z 00000KT 9SM CLR 24/21 A3003 RMK AO2 SLP165 
    T02390211=
METAR KBBW 080653Z AUTO 32004KT 10SM OVC075 16/15 A3023 RMK AO2 
    SLP224 T01610150=
METAR KBCE 080653Z AUTO 29005KT 10SM SCT110 10/02 A3030 RMK AO2 
    SLP142 T01000022 402500044 TSNO=
METAR KBDE 080653Z AUTO 23005KT 10SM CLR 16/13 A2999 RMK AO2 SLP156 
    T01610133=
METAR KBEH 080653Z AUTO 08003KT 6SM BR SCT055 SCT070 OVC100 23/22 
    A3003 RMK AO2 SLP163 T02330222 $=
METAR KBFD 080653Z AUTO 00000KT 5SM BR CLR 17/16 A3015 RMK AO2 
    SLP191 T01720161=
METAR KBFF 080653Z AUTO 00000KT 10SM FEW049 OVC075 16/13 A3029 RMK 
    AO2 SLP229 T01610128 401890128=
METAR KBFI 080653Z 31003KT 10SM CLR 24/12 A2992 RMK AO2 SLP133 
    T02390117=
METAR KBGM 080653Z AUTO 00000KT 6SM HZ CLR 24/18 A3011 RMK AO2 
    SLP182 T02390178=
####018002933####
SAUS20 KNKA 080654
METAR KGGW 080653Z AUTO 00000KT 10SM CLR 14/09 A3014 RMK AO2 SLP200 
    T01390094 402610089 TSNO=
METAR KGIF 080653Z AUTO 00000KT 10SM CLR 23/21 A3002 RMK AO2 SLP162 
    T02330211 TSNO=
METAR KGJT 080653Z AUTO 07017G30KT 10SM CLR 22/06 A3014 RMK AO2 PK 
    WND 08030/0648 WSHFT 0542 SLP129 T02220061 403390178=
METAR KGKJ 080653Z AUTO 00000KT 8SM CLR 22/18 A3011 RMK AO2 SLP182 
    T02170178=
METAR KGKY 080653Z AUTO 17005KT 10SM SCT019 25/23 A3000 RMK AO2 
    SLP148 T02500228=
METAR KGLD 080653Z AUTO 00000KT 10SM OVC035 17/16 A3029 RMK AO2 
    SLP225 T01720161 402440144=
METAR KGLR 080653Z AUTO 22003KT 10SM SCT110 22/21 A3003 RMK AO2 
    SLP162 T02220211=
METAR KGNV 080653Z AUTO 00000KT 10SM CLR 21/19 A3002 RMK AO2 SLP163 
    T02060194=
METAR KGRB 080653Z AUTO 18007KT 9SM -RA BKN055 21/20 A2998 RMK AO2 
    SLP148 P0002 T02110200=
METAR KGRI 080653Z AUTO 34006KT 10SM CLR 17/14 A3019 RMK AO2 SLP213 
    T01670144=
METAR KGRR 080653Z AUTO 16003KT 7SM SCT050 SCT080 BKN120 25/22 A3004 
    RMK AO2 SLP163 T02500217=
METAR KGSH 080653Z AUTO 00000KT 6SM BR CLR 22/20 A3005 RMK AO2 
    SLP170 T02170200=
METAR KGTF 080653Z 24006KT 10SM CLR 10/06 A3022 RMK AO2 SLP222 
    T01000061 402500056 $=
METAR KGUY 080653Z AUTO 05009KT 10SM FEW024 21/17 A3017 RMK AO2 LTG 
    DSNT W SLP177 T02060172=
METAR KHAO 080653Z AUTO 00000KT 3SM BR CLR 21/20 A3008 RMK AO2 
    SLP179 T02110200=
METAR KHBR 080653Z AUTO 04004KT 10SM CLR 23/21 A3007 RMK AO2 SLP162 
    T02280211=
METAR KHEI 080653Z AUTO 00000KT 10SM CLR 11/08 A3019 RMK AO2 SLP216 
    T01060083 402440056=
METAR KHFD 080653Z AUTO 15003KT 6SM HZ CLR 25/22 A3003 RMK AO2 
    SLP167 T02500217=
METAR KHHR 080653Z AUTO 26005KT 10SM OVC014 17/13 A2992 RMK AO2 
    SLP129 T01720133=
METAR KHIB 080653Z AUTO 00000KT 1SM BR CLR 11/10 A3006 RMK AO2 
    SLP179 T01060100=
METAR KHIO 080653Z AUTO 00000KT 10SM CLR 18/13 A2986 RMK AO2 SLP108 
    T01830128=
METAR KHLC 080653Z AUTO 36005KT 10SM CLR 17/16 A3020 RMK AO2 SLP213 
    T01670156=
METAR KHLN 080653Z AUTO 00000KT 10SM CLR 14/05 A3023 RMK AO2 SLP230 
    T01390050 402560067=
METAR KHQM 080653Z AUTO 07005KT 10SM 19/13 A2990 RMK AO2 SLP127 
    T01940133 $=
METAR KHRI 080653Z AUTO 00000KT 10SM CLR 18/08 A2992 RMK AO2 SLP127 
    T01830083=
METAR KHSI 080653Z AUTO 36005KT 10SM CLR 17/15 A3018 RMK AO2 SLP210 
    T01670150=
METAR KHUF 080653Z 00000KT 6SM BR FEW090 23/21 A3005 RMK AO2 SLP168 
    T02330211 $=
METAR KHUL 080653Z AUTO 21005KT 7SM CLR 22/18 A3000 RMK AO2 SLP156 
    T02170183=
METAR KHVN 080653Z AUTO 00000KT 4SM HZ OVC008 24/22 A3003 RMK AO2 
    SLP170 T02440222=
METAR KHVR 080653Z AUTO 20003KT 10SM SCT100 SCT110 13/09 A3018 RMK 
    AO2 SLP210 T01330094 402610083=
METAR KHWO 080653Z AUTO 07004KT 10SM CLR 25/23 A2995 RMK AO2 SLP143 
    T02500233=
####018000081####
SPCN31 KWBC 080655
SPECI
CYMH 080652Z AUTO 20008KT 9SM OVC004 06/06 A3012=
####018000108####
SAUS44 KMRX 080654
MTRCHA
METAR KCHA 080653Z 00000KT 10SM CLR 24/18 A3006 RMK AO2 SLP169 
T02390183
####018000112####
SAUS44 KSHV 080654
MTRDNK
METAR KDNK 080653Z AUTO 00000KT 9SM CLR 24/22 A3000 RMK AO2 SLP154 
T02440222
####018000128####
SAUS43 KUNR 080655
MTRCUT
METAR KCUT 080653Z AUTO 31005KT 10SM CLR 08/06 A3034 RMK AO2 SLP243 
T00780061 401720056 TSNO
####018000115####
SAUS42 KTAE 080654
MTR40J
METAR K40J 080653Z AUTO 07003KT 23/21 A3001 RMK AO2 SLP163 T02280206 
PWINO TSNO
####018001630####
SAUK KAWN 080700
METAR EGAA 080650Z 22011KT 9999 SCT013 13/10 Q1013=
METAR EGAC 080650Z 20010KT 9999 FEW012 SCT024 14/10 Q1013=
METAR EGBB 080650Z 23008KT CAVOK 15/10 Q1018=
METAR EGCC 080650Z 20008KT 9999 FEW027 14/12 Q1017=
METAR EGFF 080650Z VRB03KT 9999 FEW022 15/13 Q1019=
METAR EGGD 080650Z VRB03KT 9000 FEW013 15/13 Q1019=
METAR EGGP 080650Z 21008KT 9999 FEW025 15/11 Q1016=
METAR EGGW 080650Z 28008KT 5000 RA OVC006 15/14 Q1019=
METAR EGHD 080650Z 00000KT 9999 FEW025 16/13 Q1019=
METAR EGHE 080650Z 22002KT CAVOK 17/13 Q1019=
METAR EGHI 080650Z 21007KT 170V240 9000 BKN007 16/15 Q1019=
METAR EGJA 080650Z 24004KT 6000 1000SE R26/0900 VCFG FEW000 SCT001
      BKN015 16/16 Q1020=
METAR EGJB 080650Z 26006KT 9999 2800SE VCFG FEW002 SCT006 BKN010 17/17
      Q1020=
METAR EGJJ 080650Z 30005KT 9999 8000W VCFG FEW001 BKN005 17/17 Q1019
      BECMG SCT005=
METAR EGKK 080650Z 25008KT 9999 FEW008 BKN012 17/14 Q1019=
METAR EGLC 080650Z 23007KT 9999 BKN014 18/14 Q1019=
METAR EGNM 080650Z 22006KT 200V270 9999 FEW035 14/10 Q1016=
METAR EGNV 080650Z 17008KT 9999 FEW030 14/12 Q1015=
METAR EGNX 080650Z 22011KT CAVOK 15/10 Q1018=
METAR EGPB 080650Z 20014KT 9999 FEW020 13/10 Q1005=
METAR EGPD 080650Z 22009KT 180V250 CAVOK 14/09 Q1010 NOSIG=
METAR EGPF 080650Z 22013KT 9999 FEW030 SCT040 14/11 Q1012=
METAR EGPH 080650Z 22012KT 9999 FEW024 14/09 Q1012=
METAR EGPK 080650Z 21013KT 9999 FEW020 SCT048 14/10 Q1013=
METAR EGSS 080650Z 22007KT 9999 BKN010 18/15 Q1018=
METAR EGTE 080650Z 31004KT 9999 FEW025 17/14 Q1019=
METAR EGTG 080650Z 26004KT 9999 BKN014 16/13 Q1019=
####018000115####
SAUS44 KLCH 080654
MTRP92
METAR KP92 080653Z AUTO 00000KT 26/24 A2998 RMK AO2 SLP152 T02560244 
PWINO TSNO
####018000118####
SAUS41 KAKQ 080655
MTRNUI
METAR KNUI 080653Z AUTO 00000KT 4SM BR FEW100 26/23 A2997 RMK AO2 
SLP146 T02560233
####018000117####
SAUS42 KTAE 080654
MTRCTY
METAR KCTY 080653Z AUTO 00000KT 22/21 A3002 RMK AO2 SLP163 T02170211 
PWINO TSNO $
####018000108####
SAUS44 KMRX 080654
MTRNIP
METAR KNIP 080653Z 26004KT 10SM CLR 24/21 A3002 RMK AO2 SLP162 
T02440211
####018000113####
SAUS41 KBTV 080655
MTRBTV
METAR KBTV 080654Z 00000KT 5SM BR OVC055 24/22 A3001 RMK AO2 SLP159 
T02390217
####018000138####
SAUS45 KPUB 080655
MTRLXV
METAR KLXV 080653Z AUTO 19003KT 10SM FEW030 OVC035 07/06 A3053 RMK 
AO2 SLP194 T00720061 401830039 TSNO
####018000117####
SAUS44 KHGX 080654
MTRSGR
METAR KSGR 080653Z AUTO 07003KT 8SM CLR 26/24 A2992 RMK AO2 SLP139 
T02560239 TSNO
####018000121####
SAGM31 PGUM 080655
MTRGUM
METAR PGUM 080654Z 09012G19KT 10SM FEW024 SCT031 30/24 A2985 RMK AO2 
SLP098 T03000239
####018001657####
SAEU KAWN 080700 RRB
METAR EGAA 080650Z 22011KT 9999 SCT013 13/10 Q1013=
METAR EGAC 080650Z 20010KT 9999 FEW012 SCT024 14/10 Q1013=
METAR EGCC 080650Z 20008KT 9999 FEW027 14/12 Q1017=
METAR EGFF 080650Z VRB03KT 9999 FEW022 15/13 Q1019=
METAR EGGD 080650Z VRB03KT 9000 FEW013 15/13 Q1019=
METAR EGGP 080650Z 21008KT 9999 FEW025 15/11 Q1016=
METAR EGGW 080650Z 28008KT 5000 RA OVC006 15/14 Q1019=
METAR EGHD 080650Z 00000KT 9999 FEW025 16/13 Q1019=
METAR EGHE 080650Z 22002KT CAVOK 17/13 Q1019=
METAR EGHI 080650Z 21007KT 170V240 9000 BKN007 16/15 Q1019=
METAR EGJA 080650Z 24004KT 6000 1000SE R26/0900 VCFG FEW000 SCT001
      BKN015 16/16 Q1020=
METAR EGJB 080650Z 26006KT 9999 2800SE VCFG FEW002 SCT006 BKN010 17/17
      Q1020=
METAR EGJJ 080650Z 30005KT 9999 8000W VCFG FEW001 BKN005 17/17 Q1019
      BECMG SCT005=
METAR EGKK 080650Z 25008KT 9999 FEW008 BKN012 17/14 Q1019=
METAR EGLC 080650Z 23007KT 9999 BKN014 18/14 Q1019=
METAR EGNM 080650Z 22006KT 200V270 9999 FEW035 14/10 Q1016=
METAR EGNV 080650Z 17008KT 9999 FEW030 14/12 Q1015=
METAR EGNX 080650Z 22011KT CAVOK 15/10 Q1018=
METAR EGPB 080650Z 20014KT 9999 FEW020 13/10 Q1005=
METAR EGPD 080650Z 22009KT 180V250 CAVOK 14/09 Q1010 NOSIG=
METAR EGPF 080650Z 22013KT 9999 FEW030 SCT040 14/11 Q1012=
METAR EGPH 080650Z 22012KT 9999 FEW024 14/09 Q1012=
METAR EGTE 080650Z 31004KT 9999 FEW025 17/14 Q1019=
METAR EGTG 080650Z 26004KT 9999 BKN014 16/13 Q1019=
METAR EKRN 080650Z AUTO 19003KT 9999NDV NCD 18/15 Q1022=
METAR EKYT 080650Z 22012KT 9999 FEW027 BKN120 20/14 Q1017 NOSIG=
METAR GVAC 080700Z 05012KT 9999 BKN017 23/19 Q1012 NOSIG=
####018002922####
SAUS20 KNKA 080654
METAR KMSS 080653Z AUTO 22004KT 7SM CLR 24/21 A3000 RMK AO2 SLP156 
    T02390206=
METAR KMTH 080653Z AUTO 04009KT 10SM FEW034 27/24 A2993 RMK AO2 
    SLP133 T02720239=
METAR KMTJ 080653Z AUTO 25003KT 10SM CLR 19/06 A3026 RMK AO2 PK WND 
    33026/0559 SLP155 T01890056 403000122=
METAR KMTO 080653Z AUTO 00000KT 6SM BR BKN075 23/23 A3004 RMK AO2 
    SLP164 T02330228=
METAR KMVY 080653Z AUTO 15004KT 1/2SM R24/1600V5000FT FG VV001 21/19 
    A3006 RMK AO2 SLP179 T02110194=
METAR KMYF 080653Z AUTO 34003KT 10SM OVC013 17/13 A2992 RMK AO2 
    SLP128 T01670133 TSNO=
METAR KODX 080653Z AUTO 33003KT 10SM SCT080 16/14 A3020 RMK AO2 
    SLP220 T01560144=
METAR KOGD 080653Z 18008KT 10SM CLR 21/07 A3007 RMK AO2 SLP126 
    T02110067 402890139=
METAR KOJC 080653Z AUTO 00000KT 10SM OVC065 23/22 A3006 RMK AO2 
    SLP168 T02330217=
METAR KOLF 080653Z AUTO 20003KT 10SM CLR 13/09 A3014 RMK AO2 SLP202 
    T01280094 402670067=
METAR KOMK 080653Z AUTO 30009KT 10SM CLR 20/08 A3003 RMK AO2 SLP161 
    T02000078=
METAR KONO 080653Z AUTO 23005KT 10SM CLR 16/07 A3002 RMK AO2 SLP153 
    T01560072 403220111=
METAR KONT 080653Z 25006KT 7SM SCT015 15/12 A2991 RMK AO2 SLP122 
    T01500122=
METAR KOPF 080653Z AUTO 05006KT 10SM FEW022 27/24 A2994 RMK AO2 
    SLP140 T02670244=
METAR KORL 080653Z AUTO 00000KT 10SM CLR 24/21 A3000 RMK AO2 SLP162 
    T02390211=
METAR KOSH 080653Z AUTO 18005KT 7SM -RA SCT070 OVC110 22/20 A3000 
    RMK AO2 SLP145 P0003 T02170200=
METAR KOSU 080653Z AUTO 00000KT 8SM CLR 23/18 A3008 RMK AO2 SLP177 
    T02330183=
METAR KOTM 080653Z AUTO 32004KT 4SM BR CLR 21/21 A3003 RMK AO2 
    SLP164 T02110206=
METAR KOVS 080653Z AUTO 00000KT 10SM CLR 21/20 A3001 RMK AO2 SLP160 
    T02110200=
METAR KOWD 080653Z AUTO 17003KT 5SM HZ OVC009 24/21 A3005 RMK AO2 
    SLP174 T02440211=
METAR KOXB 080653Z AUTO 09003KT 7SM BKN100 24/24 A2999 RMK AO2 
    RAB25E34 SLP155 P0000 T02440244 $=
METAR KPAE 080653Z AUTO 36003KT 10SM CLR 21/12 A2996 RMK AO2 SLP142 
    T02060117=
METAR KPBG 080653Z AUTO 00000KT 6SM BR BKN070 23/22 A2999 RMK AO2 
    SLP154 T02330217=
METAR KPBI 080653Z 05007KT 10SM SCT032 SCT250 28/23 A2994 RMK AO2 
    SLP137 T02780233=
METAR KPDT 080653Z AUTO 10006KT 10SM CLR 19/07 A2995 RMK AO2 SLP127 
    T01890072=
METAR KPDX 080653Z 30003KT 10SM CLR 22/16 A2987 RMK AO2 SLP112 
    T02170156=
METAR KPEO 080653Z AUTO 00000KT 5SM BR CLR 22/21 A3008 RMK AO2 
    SLP176 T02220211=
METAR KPGA 080653Z AUTO 05005KT 10SM CLR 30/M03 A3000 RMK AO2 SLP081 
    T03001028 403670206=
METAR KPGD 080653Z AUTO 08004KT 10SM CLR 24/22 A3000 RMK AO2 SLP161 
    T02390222 TSNO=
METAR KPHD 080653Z AUTO 00000KT 2SM BR CLR 20/18 A3009 RMK AO2 
    SLP180 T02000183=
METAR KPIE 080653Z AUTO 11007KT 10SM BKN055 26/21 A3000 RMK AO2 
    SLP160 T02560211 TSNO=
####018002971####
SAUS20 KNKA 080654
METAR KLSE 080653Z AUTO 32005KT 10SM CLR 22/19 A3001 RMK AO2 SLP153 
    T02220194=
METAR KLUK 080653Z AUTO 00000KT 2 1/2SM BR CLR 23/22 A3008 RMK AO2 
    SLP179 T02280217=
METAR KLVM 080653Z AUTO 00000KT 10SM CLR 09/04 A3027 RMK AO2 SLP225 
    T00940039 402390017=
METAR KLWD 080653Z AUTO 21003KT 10SM CLR 21/21 A3006 RMK AO2 SLP170 
    T02110206=
METAR KLWV 080653Z AUTO 00000KT 6SM HZ FEW085 26/22 A3003 RMK AO2 
    SLP165 T02560222=
METAR KLXT 080653Z AUTO 00000KT 10SM SCT080 BKN110 23/22 A3006 RMK 
    AO2 SLP169 T02330217=
METAR KMBS 080653Z 18004KT 10SM CLR 25/22 A3002 RMK AO2 SLP161 
    T02500222=
METAR KMCI 080653Z 32005KT 8SM SCT110 OVC130 22/22 A3007 RMK AO2 
    SLP173 T02220222 $=
METAR KMCK 080653Z AUTO 32005KT 10SM FEW120 16/16 A3023 RMK AO2 
    SLP224 T01610156=
METAR KMCO 080653Z 00000KT 10SM CLR 22/20 A3000 RMK AO2 SLP159 
    T02220200=
METAR KMCW 080653Z AUTO 32004KT 10SM CLR 19/18 A3009 RMK AO2 SLP180 
    T01890183 $=
METAR KMFR 080653Z AUTO 09003KT 10SM CLR 27/12 A2987 RMK AO2 SLP099 
    T02670117=
METAR KMGY 080653Z AUTO 00000KT 7SM CLR 24/19 A3008 RMK AO2 SLP175 
    T02440194=
METAR KMHE 080653Z AUTO 25004KT 10SM CLR 18/14 A3016 RMK AO2 SLP210 
    T01780144 TSNO=
METAR KMHT 080653Z 14004KT 7SM -RA BKN060 24/22 A3003 RMK AO2 RAB53 
    SLP175 P0000 T02440217=
METAR KMIA 080653Z 04004KT 10SM FEW030 SCT250 28/24 A2994 RMK AO2 
    SLP137 T02780244=
METAR KMIC 080653Z 31004KT 10SM CLR 20/17 A3005 RMK AO2 SLP172 
    T02000167=
METAR KMIE 080653Z AUTO 00000KT 10SM CLR 25/19 A3007 RMK AO2 SLP169 
    T02500194=
METAR KMIW 080653Z AUTO 32007KT 10SM CLR 20/19 A3005 RMK AO2 SLP171 
    T02000194=
METAR KMKO 080653Z AUTO 07003KT 10SM FEW009 BKN019 OVC055 23/23 
    A3003 RMK AO2 LTG DSNT N AND W TSE37RAE05 SLP162 P0000 T02330228=
METAR KMLB 080653Z AUTO 08003KT 10SM CLR 26/22 A2998 RMK AO2 SLP152 
    T02560217=
METAR KMLC 080653Z AUTO 00000KT 10SM CLR 24/23 A3002 RMK AO2 SLP158 
    T02390228=
METAR KMLP 080653Z AUTO 12005KT 10SM CLR 14/M01 A3027 RMK AO2 SLP158 
    T01441011 TSNO=
METAR KMLS 080653Z AUTO 00000KT 10SM FEW090 16/09 A3019 RMK AO2 
    SLP212 T01610094 402670094=
METAR KMLT 080653Z AUTO VRB03KT 7SM CLR 21/19 A3004 RMK AO2 SLP175 
    T02110189=
METAR KMMK 080653Z AUTO 00000KT 3SM BR FEW085 23/22 A3004 RMK AO2 
    SLP169 T02330217=
METAR KMMV 080653Z AUTO 35004KT 10SM CLR 22/12 A2985 RMK AO2 SLP107 
    T02220117=
METAR KMNN 080653Z AUTO 00000KT 9SM CLR 22/19 A3008 RMK AO2 SLP180 
    T02170189=
METAR KMOD 080653Z AUTO 36008KT 10SM CLR 19/10 A2982 RMK AO2 SLP097 
    T01940100=
METAR KMPO 080653Z AUTO 00000KT 6SM BR CLR 20/18 A3011 RMK AO2 
    SLP180 T02000178=
METAR KMSO 080653Z AUTO 35004KT 10SM CLR 14/06 A3017 RMK AO2 SLP200 
    T01440061 402830061 $=
METAR KMSP 080653Z 31006KT 10SM FEW090 21/17 A3006 RMK AO2 SLP176 
    T02060172=
####018002916####
SAUS20 KNKA 080654
METAR KPIH 080653Z AUTO 05004KT 10SM CLR 13/01 A3014 RMK AO2 SLP166 
    T01280011 402780061=
METAR KPIR 080653Z AUTO 24009KT 10SM CLR 16/13 A3015 RMK AO2 SLP202 
    T01610133=
METAR KPKB 080653Z AUTO 00000KT 3SM BR CLR 21/20 A3010 RMK AO2 
    SLP182 T02110200 TSNO=
METAR KPKD 080653Z AUTO 23003KT 10SM CLR 15/13 A3007 RMK AO2 SLP181 
    T01500133=
METAR KPMD 080653Z AUTO 18008KT 10SM CLR 21/07 A2990 RMK AO2 SLP094 
    T02110072 TSNO $=
METAR KPMP 080653Z AUTO 06007KT 10SM SCT023 SCT027 28/24 A2994 RMK 
    AO2 SLP139 T02780239=
METAR KPNC 080653Z AUTO 02005KT 10SM FEW065 22/21 A3006 RMK AO2 
    SLP168 T02220211=
METAR KPOF 080653Z AUTO 00000KT 7SM CLR 25/24 A3003 RMK AO2 SLP161 
    T02500239 $=
METAR KPOU 080653Z 00000KT 6SM BR CLR 24/22 A3001 RMK AO2 SLP156 
    T02390217=
METAR KPRC 080653Z AUTO 20005KT 10SM CLR 20/03 A3008 RMK AO2 SLP095 
    T02000033 403390139=
METAR KPSC 080653Z AUTO 23004KT 10SM CLR 18/09 A2993 RMK AO2 SLP134 
    T01830089=
METAR KPSP 080653Z 00000KT 10SM FEW095 28/10 A2971 RMK AO2 SLP057 
    T02830100=
METAR KPTK 080653Z 00000KT 10SM SCT250 26/22 A3004 RMK AO2 SLP164 
    T02560222=
METAR KPUB 080653Z AUTO 00000KT 10SM BKN012 BKN065 15/14 A3032 RMK 
    AO2 SLP218 T01500139 402610139=
METAR KPUC 080653Z AUTO 30005KT 10SM CLR 17/01 A3018 RMK AO2 SLP135 
    T01720006 403000144 TSNO=
METAR KPUW 080653Z AUTO 00000KT 10SM CLR 12/09 A3006 RMK AO2 SLP170 
    T01220089 $=
METAR KPWA 080653Z 04003KT 10SM CLR 24/22 A3004 RMK AO2 SLP155 
    T02390217=
METAR KRAC 080653Z AUTO 27006KT 10SM SCT065 BKN075 OVC110 24/22 
    A3003 RMK AO2 LTG DSNT SE SLP164 T02390217=
METAR KRAL 080653Z AUTO 27005KT 8SM CLR 16/12 A2991 RMK AO2 SLP118 
    T01560122=
METAR KRBG 080653Z AUTO 00000KT 10SM CLR 22/14 A2989 RMK AO2 SLP117 
    T02170139=
METAR KRDD 080653Z AUTO 00000KT 10SM CLR 26/15 A2981 RMK AO2 SLP087 
    T02560150=
METAR KRHI 080653Z AUTO 28004KT 3SM BR OVC001 19/18 A3003 RMK AO2 
    SLP160 T01940183=
METAR KRIW 080653Z AUTO 00000KT 10SM CLR 14/04 A3032 RMK AO2 SLP221 
    T01390039 402280044=
METAR KRNT 080653Z AUTO 30006KT 10SM CLR 23/13 A2992 RMK AO2 SLP135 
    T02330128=
METAR KRSL 080653Z AUTO 34005KT 9SM BKN012 19/18 A3015 RMK AO2 
    SLP197 T01890183=
METAR KRSW 080653Z 05005KT 10SM CLR 24/22 A2997 RMK AO2 SLP146 
    T02440222=
METAR KRVS 080653Z 06005KT 10SM -RA FEW028 OVC041 24/22 A3002 RMK 
    AO2 LTG DSNT E AND SE TSB11E26RAB32 SLP167 P0000 T02390222=
METAR KRWF 080653Z AUTO 28004KT 10SM CLR 16/15 A3010 RMK AO2 SLP191 
    T01610150=
METAR KRWL 080653Z AUTO 00000KT 10SM CLR 08/07 A3037 RMK AO2 SLP226 
    T00830067 402000083=
METAR KRXE 080653Z AUTO 06006KT 10SM CLR 12/07 A3019 RMK AO2 SLP191 
    T01170072=
METAR KSBA 080653Z 05003KT 10SM CLR 13/11 A2990 RMK AO2 SLP126 
    T01330106 $=
####018002989####
SAUS20 KNKA 080654
METAR KSBM 080653Z AUTO 26004KT 10SM BKN015 OVC090 23/22 A3001 RMK 
    AO2 SLP158 T02280217=
METAR KSEA 080653Z 35007KT 10SM CLR 23/12 A2994 RMK AO2 SLP141 
    T02280117 $=
METAR KSEG 080653Z AUTO 00000KT 5SM HZ CLR 23/18 A3003 RMK AO2 
    SLP165 T02280183=
METAR KSFF 080653Z AUTO 00000KT 10SM CLR 16/11 A3005 RMK AO2 SLP161 
    T01610106=
METAR KSHN 080653Z AUTO 00000KT 10SM CLR 17/12 A2991 RMK AO2 SLP127 
    T01670122=
METAR KSHR 080653Z AUTO 00000KT 10SM CLR 10/07 A3026 RMK AO2 SLP229 
    T01000072 402220056=
METAR KSJC 080653Z 32005KT 8SM FEW019 SCT140 15/11 A2992 RMK AO2 
    SLP130 T01500111=
METAR KSLC 080653Z 15005KT 10SM CLR 19/08 A3006 RMK AO2 SLP128 
    T01940078 402940144=
METAR KSLN 080653Z AUTO 34007KT 8SM FEW013 22/21 A3010 RMK AO2 
    SLP182 T02170206=
METAR KSMQ 080653Z AUTO 00000KT 4SM BR CLR 22/21 A3000 RMK AO2 
    SLP157 T02220211=
METAR KSNA 080653Z 27003KT 10SM OVC019 18/12 A2991 RMK AO2 SLP128 
    T01830122=
METAR KSNY 080653Z AUTO 00000KT 10SM BKN034 17/14 A3032 RMK AO2 
    SLP233 T01670144=
METAR KSPB 080653Z AUTO 28003KT 9SM CLR 22/13 A2986 RMK AO2 SLP110 
    T02170133=
METAR KSPG 080653Z 10007KT 10SM CLR 27/22 A2999 RMK AO2 SLP155 
    T02670217=
METAR KSPW 080653Z AUTO 31005KT 10SM CLR 16/16 A3013 RMK AO2 SLP196 
    T01610156=
METAR KSRQ 080653Z 07005KT 10SM CLR 24/22 A2998 RMK AO2 SLP152 
    T02440217=
METAR KSTC 080653Z AUTO 00000KT 4SM BR CLR 14/13 A3008 RMK AO2 
    SLP191 T01440133=
METAR KSTJ 080653Z AUTO 19005KT 6SM BR FEW016 OVC110 23/22 A3006 RMK 
    AO2 RAE37 SLP172 P0001 T02330222=
METAR KSTP 080653Z 33005KT 10SM CLR 21/18 A3006 RMK AO2 SLP172 
    T02060178=
METAR KSWO 080653Z AUTO 01008KT 10SM BKN029 OVC039 23/21 A3004 RMK 
    AO2 SLP158 T02330211=
METAR KTCC 080653Z AUTO 08005KT 10SM BKN100 18/16 A3021 RMK AO2 
    RAB17E44 SLP171 P0000 T01780156 403110167=
METAR KTDZ 080653Z AUTO 23003KT 10SM CLR 24/18 A3005 RMK AO2 SLP170 
    T02440183=
METAR KTHV 080653Z AUTO 00000KT 5SM HZ CLR 23/20 A3001 RMK AO2 
    SLP160 T02280200=
METAR KTIW 080653Z AUTO 35004KT 10SM FEW090 22/12 A2993 RMK AO2 
    SLP130 T02220117=
METAR KTMB 080653Z AUTO 04004KT 10SM CLR 28/25 A2994 RMK AO2 SLP137 
    T02780250=
METAR KTOI 080653Z AUTO 00000KT 9SM CLR 23/22 A3004 RMK AO2 SLP166 
    T02280222=
METAR KTOP 080653Z AUTO 09008KT 2 1/2SM +RA BR OVC013 22/21 A3009 
    RMK AO2 SLP179 P0060 T02220211=
METAR KTOR 080653Z AUTO 00000KT 10SM BKN065 14/12 A3029 RMK AO2 
    SLP229 T01440122 401780122=
METAR KTPA 080653Z 00000KT 10SM SCT250 26/21 A3001 RMK AO2 SLP161 
    T02560211 $=
METAR KTTD 080653Z AUTO 00000KT 10SM FEW085 21/12 A2985 RMK AO2 
    SLP106 T02110122=
METAR KTTN 080653Z AUTO 13005KT 6SM HZ FEW085 24/21 A3001 RMK AO2 
    SLP155 T02440211 PWINO=
METAR KTUL 080653Z 11009KT 10SM -RA BKN040 OVC055 23/22 A3001 RMK 
    AO2 RAB38 SLP154 P0000 T02330217=
####018001698####
SAUS20 KNKA 080654
METAR KTVC 080653Z AUTO 00000KT 10SM FEW110 23/21 A2999 RMK AO2 
    SLP153 T02330206=
METAR KTWF 080653Z AUTO 14007KT 10SM CLR 15/M01 A3010 RMK AO2 SLP140 
    T01501011 402940061=
METAR KTXK 080653Z AUTO 00000KT 10SM SCT007 23/23 A3003 RMK AO2 
    SLP162 T02330233=
METAR KTYR 080653Z AUTO 00000KT 10SM FEW006 24/24 A3002 RMK AO2 
    SLP156 T02440239=
METAR KUAO 080653Z AUTO 36007KT 10SM CLR 24/11 A2985 RMK AO2 SLP107 
    T02390106=
METAR KUNO 080653Z AUTO 00000KT 10SM CLR 24/21 A3007 RMK AO2 SLP169 
    T02440211 TSNO=
METAR KUUU 080653Z AUTO 13004KT 9SM SCT015 BKN029 22/21 A3007 RMK 
    AO2 SLP178 T02220211=
METAR KVEL 080653Z AUTO 34005KT 10SM CLR 17/04 A3020 RMK AO2 SLP166 
    T01720044 402830139=
METAR KVGT 080653Z AUTO 33004KT 10SM CLR 29/M06 A2982 RMK AO2 SLP059 
    T02941056 TSNO=
METAR KVIH 080653Z AUTO 00000KT 7SM FEW036 BKN049 OVC060 23/22 A3006 
    RMK AO2 LTG DSNT NW SLP164 T02330222=
METAR KVPZ 080653Z AUTO 00000KT 8SM CLR 23/22 A3004 RMK AO2 SLP165 
    T02330217=
METAR KVRB 080653Z AUTO 07003KT 10SM CLR 25/22 A2997 RMK AO2 SLP148 
    T02500217=
METAR KVUO 080653Z AUTO 00000KT 10SM CLR 21/15 A2985 RMK AO2 SLP109 
    T02110150=
METAR KWRL 080653Z AUTO 19005KT 10SM CLR 13/05 A3025 RMK AO2 SLP218 
    T01280050 402500050=
METAR KWST 080653Z AUTO 13003KT 10SM SCT013 OVC026 23/21 A3005 RMK 
    AO2 SLP176 T02280206=
METAR KYIP 080653Z 00000KT 8SM CLR 24/21 A3005 RMK AO2 SLP165 
    T02390206=
METAR KYKM 080653Z AUTO 25008KT 10SM CLR 19/06 A2999 RMK AO2 SLP147 
    T01940056=
METAR KZZV 080653Z AUTO 00000KT 4SM BR CLR 21/19 A3008 RMK AO2 
    SLP177 T02060194=
####018000200####
SACA01 KMSC 080654
METAR TISX 080653Z 11010KT 10SM FEW021 28/24 A2997 RMK AO2 SLP148 
    T02780239=
METAR TIST 080653Z AUTO 10006KT 10SM CLR 28/24 A2997 RMK AO2 SLP148 
    T02780244 TSNO=
####018000123####
SAUS46 KSGX 080655
MTRRNM
METAR KRNM 080653Z AUTO 00000KT 5SM BR OVC006 14/13 A2992 RMK AO2 
SLP122 T01440128 TSNO
####018000100####
SAFJ31 NFNA 080700
METAR NFNA 080700Z 00000KT 40KM SCT023 BKN050 OVC110 23/21 Q1013 RMK
RR NIL
####018000352####
SAUK33 EGGY 080650
METAR EGGD 080650Z VRB03KT 9000 FEW013 15/13 Q1019=
METAR EGGP 080650Z 21008KT 9999 FEW025 15/11 Q1016=
METAR EGHI 080650Z 21007KT 170V240 9000 BKN007 16/15 Q1019 =
METAR EGNS 080650Z NIL=
METAR EGNT 080650Z NIL=
METAR EGNV 080650Z 17008KT 9999 FEW030 14/12 Q1015=
METAR EGPB 080650Z 20014KT 9999 FEW020 13/10 Q1005=
####018000440####
SAUK31 EGGY 080650
METAR EGBB 080650Z 23008KT CAVOK 15/10 Q1018=
METAR EGCC 080650Z 20008KT 9999 FEW027 14/12 Q1017=
METAR EGKK 080650Z 25008KT 9999 FEW008 BKN012 17/14 Q1019=
METAR EGLL 080650Z NIL=
METAR EGPF 080650Z 22013KT 9999 FEW030 SCT040 14/11 Q1012=
METAR EGPH 080650Z 22012KT 9999 FEW024 14/09 Q1012=
METAR EGPK 080650Z 21013KT 9999 FEW020 SCT048 14/10 Q1013=
METAR EGSS 080650Z 22007KT 9999 BKN010 18/15 Q1018=
####018000377####
SAUK35 EGGY 080650
METAR EGHH 080650Z NIL=
METAR EGKA 080650Z NIL=
METAR EGKB 080650Z 23007KT 200V260 9000 BKN008 17/14 Q1019 =
METAR EGLF 080650Z 23008KT 190V250 9000 VCSH BKN008 17/15 Q1019=
METAR EGMC 080650Z 23006KT 9999 FEW011 BKN014 18/16 Q1019=
METAR EGMD 080650Z NIL=
METAR EGMH 080650Z NIL=
METAR EGTC 080650Z 29005KT 9999 FEW012 SCT018 15/13 Q1018=
####018000081####
SAQB31 LQSM 080700
METAR LQSA 080700Z VRB01KT 9999 SCT050 15/10 Q1024 NOSIG=
####018000488####
SASN33 ESWI 080650
METAR ESNG 080650Z NIL=
METAR ESNK 080650Z AUTO 15011KT 9999NDV NCD 18/13 Q1013=
METAR ESNN 080650Z AUTO 18006KT 9999NDV NCD 19/13 Q1013=
METAR ESNO 080650Z 15010KT CAVOK 19/11 Q1015=
METAR ESNQ 080650Z 18008KT CAVOK 16/08 Q1013=
METAR ESNS 080650Z 17006KT 140V230 CAVOK 20/11 Q1015=
METAR ESNU 080650Z 11006KT CAVOK 19/11 Q1015=
METAR ESNZ 080650Z 19009KT CAVOK 16/10 Q1011=
METAR ESUT 080650Z AUTO 17009KT 130V210 9999NDV BKN084/// 16/09
Q1010=
####018000362####
SAFI32 EFHK 080650
EFHA 080650Z 07004KT 020V110 9999 BKN007 BKN070 19/17 Q1015=
EFHF 080650Z 35006KT CAVOK 24/19 Q1014=
EFKA 080650Z 00000KT 9999 FEW007 SCT015 20/16 Q1016=
EFKK 080650Z VRB02KT CAVOK 20/14 Q1016=
EFMA 080650Z 34004KT 260V020 CAVOK 19/11 Q1016=
EFPO 080650Z 27002KT CAVOK 20/13 Q1016=
EFSI 080650Z AUTO VRB02KT CAVOK 21/15 Q1016=
####018000583####
SAUK34 EGGY 080650
METAR EGHD 080650Z 00000KT 9999 FEW025 16/13 Q1019=
METAR EGHE 080650Z 22002KT CAVOK 17/13 Q1019=
METAR EGHK 080650Z 00000KT 9999 FEW028 15/14 Q1018=
METAR EGHQ 080650Z NIL=
METAR EGJA 080650Z 24004KT 6000 1000SE R26/0900 VCFG FEW000
    SCT001 BKN015 16/16 Q1020=
METAR EGJB 080650Z 26006KT 9999 2800SE VCFG FEW002 SCT006 BKN010
    17/17 Q1020=
METAR EGJJ 080650Z 30005KT 9999 8000W VCFG FEW001 BKN005 17/17
    Q1019 BECMG SCT005=
METAR EGTE 080650Z 31004KT 9999 FEW025 17/14 Q1019=
METAR EGTG 080650Z 26004KT 9999 BKN014 16/13 Q1019=
####018000108####
SAUS43 KFGF 080655
MTRFAR
METAR KFAR 080653Z 24006KT 10SM CLR 17/13 A3005 RMK AO2 SLP176 
T01720128
####018000098####
SAUZ31 UTTW 080630
METAR UTNU 080630Z 17004MPS 140V210 CAVOK 39/13 Q1009 R13/CLRD60 
NOSIG=
####018000462####
SASN35 ESWI 080650
METAR ESGL 080650Z AUTO 20009KT 9999NDV SCT032/// BKN040/// 19/14 
Q1018=
METAR ESGR 080650Z AUTO 20010KT 9999NDV BKN044/// 19/13 Q1018=
METAR ESKM 080650Z NIL=
METAR ESNL 080650Z AUTO 14014KT 9999NDV SCT082/// 20/11 Q1013=
METAR ESNX 080650Z AUTO 14009KT 9999NDV BKN082/// 17/11 Q1014=
METAR ESNY 080650Z AUTO 23005KT 180V280 9999 SKC 20/14 Q1014=
METAR ESSF 080650Z NIL=
METAR ESSK 080650Z NIL=
METAR ESUD 080650Z NIL=
####018000473####
SAUK32 EGGY 080650
METAR EGAA 080650Z 22011KT 9999 SCT013 13/10 Q1013=
METAR EGAC 080650Z 20010KT 9999 FEW012 SCT024 14/10 Q1013=
METAR EGFF 080650Z VRB03KT 9999 FEW022 15/13 Q1019=
METAR EGGW 080650Z 28008KT 5000 RA OVC006 15/14 Q1019=
METAR EGLC 080650Z 23007KT 9999 BKN014 18/14 Q1019=
METAR EGNM 080650Z 22006KT 200V270 9999 FEW035 14/10 Q1016=
METAR EGNX 080650Z 22011KT CAVOK 15/10 Q1018=
METAR EGPD 080650Z 22009KT 180V250 CAVOK 14/09 Q1010 NOSIG=
####018000298####
SAGL31 BGSF 080650
METAR BGSF 080650Z 07006KT 9999 FEW070 07/02 Q1009=
METAR BGBW 080650Z 08002KT 9999 FEW068 09/04 Q1009 RMK 1AC =
METAR BGGH 080650Z AUTO 26003KT 9999NDV  OVC003/// 05/03 Q1010=
METAR BGJN 080650Z AUTO 26002KT 0350NDV  FG VV001/// 05/05 Q1010=
METAR BGKK 080653Z NIL=
####018000075####
SAQB31 LQMO 080700
METAR LQMO 080700Z 33006KT 9999 FEW045 23/08 Q1018=
####018000085####
SAUK33 EGGY 080650 RRA
METAR EGNS 080650Z 24009KT 9999 FEW018 15/11 Q1015 NOSIG=
####018000496####
SASN32 ESWI 080650
METAR ESKN 080650Z 26008KT 220V290 CAVOK 20/11 Q1018=
METAR ESOE 080650Z 22011KT 9999 FEW042 18/12 Q1018=
METAR ESOK 080650Z 21011KT 9999 BKN023 17/12 Q1017=
METAR ESOW 080650Z 24008KT CAVOK 20/11 Q1017=
METAR ESSA 080650Z 28009KT CAVOK 20/11 Q1017 NOSIG=
METAR ESSB 080650Z 25009KT CAVOK 20/12 Q1018=
METAR ESSD 080650Z AUTO 23008KT 9999NDV FEW026/// 18/11 Q1016=
METAR ESSP 080650Z 27008KT CAVOK 20/11 Q1018=
METAR ESSV 080650Z 31007KT CAVOK 18/12 Q1019=
####018000081####
SABR31 TBPB 080700
METAR TBPB 080700Z 08015KT 9999 SCT018 28/24 Q1012 NOSIG=
####018000079####
SAUK31 EGGY 080650 RRA
METAR EGLL 080650Z 23009KT 9999 BKN010 18/15 Q1019=
####018000173####
SASN34 ESWI 080650
METAR ESDF 080650Z 25003KT CAVOK 20/12 Q1021=
METAR ESPA 080650Z 17010KT CAVOK 18/13 Q1016=
METAR ESSL 080650Z 25007KT 220V290 CAVOK 20/11 Q1019=
####018000317####
SADL33 EDZO 080650
METAR EDFE 080650Z 10003KT CAVOK 22/12 Q1020=
METAR EDFH 080650Z 12006KT CAVOK 21/10 Q1022=
METAR EDFM 080650Z VRB02KT 080V080 CAVOK 25/12 Q1021=
METAR EDLV 080650Z VRB03KT CAVOK 23/12 Q1019=
METAR EDTL 080650Z VRB01KT CAVOK 21/14 Q1020=
METAR EDVK 080650Z 13005KT CAVOK 20/12 Q1021=
