####018000203####
SAUK32 KWBC 081050 RRB
METAR
EGPA 081050Z 21012KT 9999 -SHRA FEW020 SCT045 16/10 Q1007=
EGPC 081050Z 20016KT 9999 FEW020 16/11 Q1008=
EGSH 081050Z 24008KT 9999 SCT012 SCT019 22/15 Q1018 NOSIG=
####018000089####
SAUK41 KWBC 081050 RRB
METAR
EGBJ 081050Z 25006KT 190V290 9999 FEW035 21/10 Q1018=
####018000087####
SAUK32 KWBC 081050 CCA
METAR
EGPB 081050Z 20014KT 9999 FEW012 15/11 Q1007 NOSIG=
####018000369####
SAUK42 KWBC 081050 RRB
METAR
EGPC 081050Z 20016KT 9999 FEW020 16/11 Q1008=
EGPL 081050Z 22021KT 9999 VCSH FEW018 15/12 Q1007=
EGPM 081050Z 22024KT 9999 SCT030 16/10 Q1005 NOSIG=
EGPO 081050Z 20023G35KT 9999 VCSH FEW014CB SCT030 15/11 Q1006=
EGPU 081050Z 22018KT 9999 VCSH SCT020 16/13 Q1010=
EGSC 081050Z 22005KT 150V270 9999 FEW020 SCT030 20/15 Q1018=
####018000057####
SAXX99 KWBC 081000 RRX
METAR
K8S0 080955Z 26007KT=
####018000075####
SAMA20 FIMP 081100
METAR FIMP 081100Z 14018KT 9999 SCT016 25/17 Q1021=
####018000069####
SABZ24 SBFL 081100
METAR SBFL 081100Z 16009KT CAVOK 20/16 Q1017=
####018000122####
SAUS46 KSGX 081100 COR
MTRNJK
METAR KNJK 081056Z AUTO 13005KT 10SM CLR 23/12 A2969 RMK AO2 SLP070 
T02280122 TSNO
####018000427####
SAUK38 EGGY 081050
METAR EGEC 081050Z NIL=
METAR EGPA 081050Z 21012KT 9999 -SHRA FEW020 SCT045 16/10 Q1007=
METAR EGPC 081050Z 20016KT 9999 FEW020 16/11 Q1008=
METAR EGPL 081050Z 22021KT 9999 VCSH FEW018 15/12 Q1007=
METAR COR EGPM 081050Z 22024KT 9999 SCT030 16/10 Q1005 NOSIG=
METAR EGPO 081050Z 20023G35KT 9999 VCSH FEW014CB SCT030 15/11
    Q1006=
METAR EGPU 081050Z 22018KT 9999 VCSH SCT020 16/13 Q1010=
####018000512####
SAUK36 EGGY 081050
METAR EGBE 081050Z NIL=
METAR EGBJ 081050Z 25006KT 190V290 9999 FEW035 21/10 Q1018=
METAR EGCN 081050Z 24012KT 200V280 9999 SCT033 20/10 Q1018=
METAR EGDL 081050Z 23007KT 9999 FEW022 BKN250 19/11 Q1019 NOSIG=
METAR EGSC 081050Z 22005KT 150V270 9999 FEW020 SCT030 20/15 Q1018=
METAR COR EGSD 081050Z 24011KT 9999 -DZ BKN012 20/17 Q1019 BECMG
     SCT020=
METAR COR EGSH 081050Z 24008KT 9999 SCT012 SCT019 22/15 Q1018 NOSIG=
METAR EGVN 081050Z NIL=
METAR EGWU 081050Z NIL=
####018000476####
SAGR33 LGAT 081050
METAR LGHI 081050Z 02010KT 9999 FEW020 SCT080 27/19 Q1011=
METAR LGKC 081050Z 06011KT CAVOK 30/18 Q1013=
METAR LGKF 081050Z 33016KT 9999 FEW025 27/14 Q1014=
METAR LGKP 081050Z 33028KT CAVOK 29/16 Q1009=
METAR LGKZ 081050Z 31012KT 9999 FEW020 SCT070 21/07 Q1018=
METAR LGMK 081050Z 35021KT 9999 FEW012 24/17 Q1012=
METAR LGNX 081050Z 01017G27KT 9999 FEW020 26/19 Q1012=
METAR LGPA 081050Z NIL=
METAR LGSO 081050Z 36018KT 9999 FEW018 25/18 Q1012=
####018000694####
SANL33 EHDB 081055
METAR EHAK 081055Z AUTO 25009KT 9999NDV 16/13 Q1016=
METAR EHDV 081055Z NIL=
METAR EHFD 081055Z AUTO 20012KT 9999NDV FEW042/// 17/16 Q1018=
METAR EHFZ 081055Z AUTO 22008KT 9999NDV 16/15 Q1018=
METAR EHJA 081055Z AUTO 24015KT 9999NDV FEW025/// SCT037/// BKN042///
16/15 Q1018=
METAR EHJR 081055Z NIL=
METAR EHKV 081055Z AUTO 27013KT 9999NDV FEW013/// OVC018/// 16/15
Q1018=
METAR EHMA 081055Z AUTO 24011KT 9999NDV 20/17 Q1019=
METAR EHMG 081055Z AUTO 23012KT 9999NDV 17/15 Q1018=
METAR EHPG 081055Z AUTO 23011KT 9999NDV ///////// 16/15 Q1019=
METAR EHQE 081055Z AUTO 23012KT 9999NDV 16/15 Q1019=
METAR EHSA 081055Z NIL=
METAR EHSC 081055Z NIL=
####018000507####
SAPK31 OPKC 081100
METAR OPGD 081100Z NIL=
METAR OPKC 081100Z 18014KTS 8000 SCT020 SCT030 TCU 35/24 Q.1002 TEMPO
NE 30KTS TSRA FEW025 CB=
METAR OPLA 081055Z 12994KT 6000 SCT040 37/23 Q1003 NOSIG=
METAR OPNH 081100Z 36006KT 6000M SCT035 SCT100 38/25 Q.1002=
METAR OPPS 081055Z NE-12KT 6000 HZ FEW040 FEW100 40/25 Q1002.9=
METAR OPRN 081100Z 23016KT 9999 SCT040 39/18 Q1005.8=
METAR OPSK 081055Z 13004KTS 6000 HZ FEW040 BKN100 35/25 QNH 1001 R.H.
CHECK
TEXT
NEW ENDING ADDED VABBYFYX=
####018000463####
SAGR32 LGAT 081050
METAR LGAL 081050Z NIL=
METAR LGEL 081050Z 34013G23KT CAVOK 27/12 Q1011=
METAR LGKV 081050Z 16006KT 9999 FEW020CB SCT025TCU BKN100
      22/13 Q1013=
METAR LGMT 081050Z 36012KT 9999 FEW025 BKN120 26/19 Q1011=
METAR LGPZ 081050Z 25012KT 9999 FEW025 27/18 Q1013 NOSIG=
METAR LGRX 081050Z 27013KT 9999 FEW025 28/16 Q1012 NOSIG=
METAR LGSK 081050Z NIL=
METAR LGSR 081050Z 35017KT 9999 FEW020 27/19 Q1011 NOSIG=
METAR LGZA 081050Z NIL=
####018000474####
SAUK37 EGGY 081050
METAR EGAE 081050Z 21013KT 9999 FEW018 SCT040 17/11 Q1013=
METAR EGNC 081050Z 23016KT 200V270 9999 FEW020 SCT025 18/10 Q1015=
METAR EGNH 081050Z 23011KT 9999 SCT024 19/11 Q1017=
METAR EGNJ 081050Z 22012KT 9999 SCT035 20/11 Q1017=
METAR EGNR 081050Z 26010KT 230V300 9999 SCT030 20/10 Q1017=
METAR EGPE 081050Z 23017KT 9999 VCSH FEW012 SCT036 15/10 Q1009=
METAR EGPI 081050Z NIL=
METAR EGPN 081050Z 23015KT 9999 FEW028 SCT045 17/11 Q1012=
####018000078####
SAZB40 FLLS 081100
METAR FLLS 081100Z 05014KT 9999 BKN035 19/08 Q1027=

####018000108####
SPUS52 KWBC 081100
SPECI
KVCT 081057Z AUTO VRB04KT 1 3/4SM +RA BR FEW001 BKN013 OVC022
25/24 A2989=
####018000117####
SAUS41 KLWX 081100
MTRRYT
METAR KRYT 081053Z AUTO 00000KT 5SM HZ CLR 22/17 A3004 RMK AO2 
SLP155 T02220172 $
####018000108####
SPUS72 KWBC 081100
SPECI
KVCT 081057Z AUTO VRB04KT 1 3/4SM +RA BR FEW001 BKN013 OVC022
25/24 A2989=
####018000278####
SAUS20 KNKA 081100
SPECI KELD 081059Z AUTO 00000KT 3SM BR BKN001 BKN080 23/23 A3005 RMK 
    AO2=
METAR KHUM 081050Z 03008KT 4SM SCT100 24/24 A3000 =
SPECI KOKC 081059Z 36005KT 10SM BKN021 OVC080 23/22 A3005 RMK AO2=
METAR KSFB 081053Z 36003KT 10SM CLR 21/21 A2999=
####018000108####
SPUS81 KWBC 081100
SPECI
KVCT 081057Z AUTO VRB04KT 1 3/4SM +RA BR FEW001 BKN013 OVC022
25/24 A2989=
####018000105####
SAUK39 EGRR 081050 CCA
METAR EGYM 081050Z 25011KT 9999 FEW040 SCT110 BKN150 20/11 Q1018 BLU
NOSIG=
####018000098####
SAUZ31 UTTT 081100
METAR UTTT 081100Z 29004MPS 250V310 CAVOK 39/04 Q1010
R08R/CLRD70 NOSIG=
####018000556####
SAXX70 KAWN 081100 RRF
METAR KQFT 081050Z AUTO 16002KT 4SM -DZ OVC015 25/21 A2984 RMK A02=
METAR KQAY 081055Z AUTO 01016G29KT 2900 HZ CLR 48/ A2952 RMK AO2 SLP992
      P0002 T0479 $=
METAR KQPV 081055Z AUTO 27010G16KT 240V310 9999 FEW200 44/06 A2966
      RMK AO2 SLP038 T04430057=
METAR KQTO 081055Z 30015G22KT 9999 CLR 46/04 A2960 RMK SLP021=
METAR KQAJ 081056Z 27004G12KT 9999 CLR 43/05 A2970 RMK SLP043 WND DATA
      ESTMD ALSTG/SLP ESTMD=
METAR KQXF 081056Z AUTO 31011KT 9999 CLR 45/M02 A2961 RMK AO2 SLP013
      T04531025 $=
####018000060####
SAUS45 KTFX 081100
MTR8S0
METAR K8S0 080955Z 26007KT 
####018000079####
SANO34 ENMI 081050 RRA
METAR ENBV 081050Z 09016KT 9999 SCT025 12/09 Q1016=
####018000080####
SANO38 ENMI 081050 RRA
METAR ENEK 081050Z 23014KT CAVOK 15/13 Q1015 W15/S3=
####018000719####
SAXN17 KAWN 081000 RRL
METAR MMAS 081040Z 00000KT 8SM SCT020 BKN070 OVC200 17/14 A3006 RMK
      8/537 HZ OCNL DROPS=
METAR MMLO 081042Z 16003KT 7SM BKN025 OVC070 18/18 A3009 RMK 8/77/
      OCNL DROPS=
METAR MMSP 081042Z 00000KT 8SM SCT010 BKN015 BKN080 17/17 A3013 RMK
      8/530 HZY MSGTX MMZC=
METAR MMTJ 081043Z 00000KT 5SM OVC013 16/14 A2993 RMK 8/5// HZY=
METAR MMTP 081040Z 00000KT 10SM BKN020 BKN100 24/22 A2988 RMK 8/170=
METAR MMUN 081042Z 13004KT 6SM SCT015 BKN090 BKN300 27/24 A2988 RMK
      8/538 HZY=
METAR MMZC 081040Z 13005KT 8SM BKN030 BKN080 16/11 A3017 RMK 8/760
      OCNL DROPS=
METAR MUGM 080956Z 36007KT 9999 FEW040 SCT250 26/22 A2996 RMK SLP143
      T02560222=
####018000487####
SPNA14 KAWN 081100 RRJ
SPECI KEGI 081054Z AUTO 00000KT 4SM BR CLR 21/21 A3003 RMK AO2 SLP167
      $=
SPECI KNGP 081053Z 10012G16KT 4SM +RA BR FEW011 SCT015 BKN033 28/26
      A2982 RMK AO2 RAB49 P0008 $=
SPECI KNGU 081055Z 09006KT 5SM BR FEW008 SCT070 BKN120 26/23 A2999
      RMK AO2=
SPECI KSKF 081054Z 04009KT 9SM -RA SCT013 BKN021 25/ A2992 RMK AO2A
      RAB1051 SLP123 $=
SPECI KWRI 081058Z AUTO 00000KT 1 1/2SM BR FEW001 24/24 A3001 RMK AO2
      SLP162 $=
####018000308####
SPNA35 KAWN 081100 RRH
SPECI KNGP 081053Z 10012G16KT 4SM +RA BR FEW011 SCT015 BKN033 28/26
      A2982 RMK AO2 RAB49 P0008 $=
SPECI KNGU 081055Z 09006KT 5SM BR FEW008 SCT070 BKN120 26/23 A2999
      RMK AO2=
SPECI KWRI 081058Z AUTO 00000KT 1 1/2SM BR FEW001 24/24 A3001 RMK AO2
      SLP162 $=
####018002961####
SAUS20 KNKA 081100
METAR KETH 081054Z AUTO 25006KT 10SM CLR 17/14 A3011 RMK AO2=
METAR KFFL 081055Z AUTO 31003KT 10SM CLR 21/20 A3006 RMK AO2=
METAR KFFX 081055Z AUTO 00000KT 3SM BR SCT055 BKN085 OVC090 22/22
     A3001 RMK AO2=
METAR KFKA 081103Z AUTO 32007KT 7SM CLR 18/18 A3009 RMK AO2
     T01810175=
METAR KFKS 081055Z AUTO 26003KT 7SM -RA BKN065 OVC090 22/20 A3000
     RMK AO2=
METAR KFOZ 081053Z AUTO 00000KT 3/4SM BR VV005 12/11 A3005 RMK AO2
     VIS 1/4V5=
METAR KFPK 081056Z AUTO 00000KT 5SM BR CLR 22/20 A3003 RMK AO2=
METAR KFSD 081056Z 00000KT 10SM CLR 15/14 A3016 RMK AO2 SLP210 BKN
     ABV 120 T01500139 $=
METAR KFSE 081054Z AUTO 19004KT 10SM CLR 12/11 A3006 RMK AO2=
METAR KFSW 081055Z AUTO 29004KT 7SM OVC002 22/20 A3005 RMK AO2=
METAR KFXY 081055Z AUTO 00000KT 10SM CLR 16/15 A3012 RMK AO2=
METAR KGGI 081055Z AUTO 00000KT 4SM CLR 20/19 A3008 RMK AO2 P0001=
SPECI KGLH 081059Z AUTO 00000KT 3/4SM BR CLR 22/22 A3005 RMK AO2=
METAR KGOV 081055Z AUTO 20003KT 10SM OVC090 22/21 A3001 RMK
     AO2=
METAR KHAF 081050Z AUTO 00000KT 10SM OVC006 12/10 A2993 RMK
     AO2=
METAR KHAI 081055Z AUTO 00000KT 3SM BR CLR 21/21 A3005 RMK AO2=
METAR KHNR 081055Z AUTO 00000KT 4SM CLR 17/17 A3016 RMK AO2=
METAR KHYX 081055Z AUTO 26008KT 7SM -RA SCT055 SCT120 23/21 A3002
     RMK AO2=
METAR KI75 081055Z AUTO 34004KT 7SM CLR 20/18 A3009 RMK AO2=
METAR KICL 081055Z AUTO 01003KT 7SM CLR 21/18 A3011 RMK AO2=
METAR KIFA 081055Z AUTO 32005KT 10SM SCT120 20/18 A3010 RMK AO2=
METAR KIIB 081055Z AUTO 00000KT 5SM CLR 20/19 A3007 RMK AO1=
METAR KIKV 081055Z AUTO 34009KT 10SM CLR 20/18 A3010 RMK AO2=
METAR KIRS 081055Z AUTO 00000KT 3SM BR CLR 21/20 A3005 RMK AO2=
METAR KISQ 081055Z AUTO 30005KT 10SM -RA SCT004 19/18 A2998 RMK
     AO2=
METAR KJYG 081055Z AUTO 00000KT 10SM CLR 16/16 A3014 RMK AO2=
METAR KJYM 081055Z AUTO 00000KT 4SM BR CLR 21/19 A3006 RMK AO2=
METAR KLDM 081055Z AUTO 21005KT 7SM RA SCT029 SCT040 OVC090 22/21
     A3001 RMK AO2 P0003=
METAR KLRJ 081055Z AUTO 00000KT 7SM SCT005 15/14 A3016 RMK AO2=
METAR KLWA 081056Z AUTO 00000KT 4SM BR SCT046 SCT055 22/21 A3004
     RMK AO2=
METAR KMCD 081055Z AUTO 26004KT 7SM SCT013 BKN110 21/18 A2998 RMK
     AO2=
METAR KMGN 081055Z AUTO 00000KT 7SM -RA SCT021 SCT028 OVC110 22/20
     A2997 RMK AO2=
METAR KMOP 081054Z AUTO 22004KT 10SM OVC085 23/22 A3002 RMK
     AO2=
METAR KMPZ 081055Z AUTO 31003KT 4SM OVC002 22/21 A3006 RMK AO2=
METAR KMUT 081055Z AUTO 32005KT 7SM SCT006 OVC012 23/22 A3004 RMK 
     AO2=
METAR KMXO 081055Z AUTO 00000KT 5SM SCT005 SCT027 20/18 A3005 RMK 
     AO2=
METAR KMZH 081051Z AUTO 00000KT 10SM CLR 13/13 A3005 RMK AO2=
METAR KNTU 081056Z 11007KT 10SM SCT005 SCT015 BKN035 BKN130 25/23
     A2996 RMK AO2 SLP149 T02500233 $=
METAR KO22 081055Z AUTO 00000KT 10SM CLR 16/12 A2991 RMK AO1 =
METAR KOEB 081055Z AUTO 00000KT 4SM BR CLR 21/19 A3006 RMK AO2=
####018000878####
SAAK41 KNKA 081100
METAR PADM 081101Z AUTO 36003KT 10SM FEW032 SCT065 OVC100 11/09 
    A3005 RMK AO2 TSNO T01050088 RAB1035E1044 P0000 SLP164 $=
METAR PADU 081058Z AUTO 12014G20KT 10SM OVC020 09/05 A2981 RMK AO2 
    RAE34 SLP100 P0001 T00890050=
METAR PAGA 081058Z AUTO 01005KT 10SM CLR 13/07 A3007 RMK AO2 SLP226 
    T01330072=
METAR PAJZ 081056Z AUTO 31003KT 10SM FEW035 BKN049 OVC070 10/09 
    A3001 RMK AO2 PWINO TSNO T01000094 BKN V SCT SLP150 $=
METAR PAKI 081056Z AUTO 00000KT 3SM BR CLR 08/08 A3002 RMK AO2 PWINO 
    TSNO T00770077 SLP167 $=
METAR PALG 081056Z AUTO 00000KT 10SM BKN065 BKN100 09/09 A3001 RMK 
    AO2 TSNO T00940088 BKN V OVC SLP163=
METAR PARY 081056Z AUTO 35004KT 10SM CLR 15/06 A3006 RMK AO2 PWINO 
    TSNO T01500055 SLP182=
METAR PAWR 081058Z 07008G14KT 3SM -RA BR OVC010 12/12 A3008 RMK
     SLP186 NOSPECI=
####018002982####
SAUS20 KNKA 081100
METAR K4I3 081056Z AUTO 00000KT 4SM BR CLR 19/18 A3010 RMK AO2=
METAR KACB 081055Z AUTO 00000KT 7SM -RA OVC090 23/21 A2998 RMK
     AO2=
METAR KACQ 081059Z AUTO 29005KT 1SM BR VV007 15/13 A3013 RMK
     AO2=
METAR KADC 081057Z AUTO 25004KT 10SM CLR 13/12 A3009 RMK AO2=
METAR KAMN 081055Z AUTO 00000KT 5SM BR OVC090 22/22 A3002 RMK
     AO2=
METAR KAQP 081054Z AUTO 22004KT 10SM CLR 13/13 A3012 RMK AO2=
METAR KAUM 081055Z AUTO 32003KT 5SM BR CLR 17/16 A3009 RMK AO2=
METAR KAWG 081055Z AUTO 29003KT 5SM OVC013 21/20 A3006 RMK AO2=
METAR KAXA 081055Z AUTO 31003KT 10SM CLR 17/16 A3013 RMK AO2=
METAR KBAX 081055Z AUTO 00000KT 4SM BR CLR 22/21 A3001 RMK AO2=
METAR KBDH 081055Z AUTO 26003KT 5SM BR CLR 14/14 A3013 RMK AO2=
METAR KBFW 081053Z AUTO 00000KT 10SM CLR 14/13 A3001 RMK AO2=
METAR KBNW 081055Z AUTO 33006KT 10SM CLR 20/17 A3011 RMK AO2=
METAR KBTR 081053Z 00000KT 6SM BR MIFG SCT003 BKN200 23/23 A3001
     RMK AO2 SLP160 T02330228 $=
METAR KBWD 081055Z AUTO 07003KT 10SM FEW020 SCT025 OVC038 23/23 
     A3002 RMK AO2 =
METAR KCAD 081055Z AUTO 22006KT 10SM -RA BKN075 OVC110 22/20 A3003
     RMK AO2=
METAR KCAV 081055Z AUTO 32006KT 5SM CLR 18/17 A3011 RMK AO2=
METAR KCBF 081055Z AUTO 36005KT 10SM CLR 20/15 A3014 RMK AO2=
METAR KCBG 081055Z AUTO 00000KT 10SM CLR 16/14 A3008 RMK AO2=
METAR KCCY 081055Z AUTO 32007KT 10SM CLR 19/16 A3008 RMK AO2=
METAR KCDA 081055Z AUTO 00000KT 4SM HZ CLR 21/18 A3010 RMK AO2=
METAR KCDD 081051Z AUTO 19003KT 10SM CLR 17/16 A3002 RMK AO2=
METAR KCFE 081055Z AUTO 26004KT 10SM CLR 17/16 A3011 RMK AO2
     T01710155=
METAR KCFS 081055Z AUTO 24005KT 7SM SCT060 21/21 A3003 RMK AO2=
METAR KCIN 081055Z AUTO 32004KT 5SM HZ CLR 17/14 A3014 RMK AO2=
METAR KCKC 081055Z AUTO 29004KT 10SM CLR 16/13 A3004 RMK AO2=
METAR KCKN 081055Z AUTO 22003KT 10SM CLR 13/12 A3006 RMK AO2=
METAR KCNB 081058Z AUTO 24007KT 10SM CLR 17/13 A3014 RMK AO2
     T01650132=
METAR KCNC 081055Z AUTO 36007KT 10SM BKN045 20/18 A3008 RMK AO2=
METAR KCOQ 081056Z AUTO 27005KT 10SM CLR 14/14 A3006 RMK AO2=
METAR KCQM 081057Z AUTO 23003KT 10SM CLR 14/14 A3003 RMK AO2=
METAR KCSQ 081055Z AUTO 01009KT 10SM SCT015 20/18 A3011 RMK AO2=
METAR KCVX 081055Z AUTO 22004KT 10SM RA OVC100 21/20 A2999 RMK
     AO2=
METAR KDAB 081053Z 33003KT 10SM FEW026 SCT150 21/20 A3000 RMK AO2
     SLP158 T02110200 $=
METAR KDEH 081055Z AUTO 00000KT 2SM BKN006 20/18 A3008 RMK AO2=
METAR KDNS 081055Z AUTO 01003KT 10SM CLR 19/16 A3016 RMK AO2=
METAR KDRM 081056Z AUTO 16004KT 1 1/2SM -RA OVC002 20/20 A2995 RMK
     AO2=
METAR KDTL 081055Z AUTO 29003KT 10SM CLR 15/11 A3010 RMK AO2=
METAR KDUH 081055Z AUTO 00000KT 10SM CLR 23/18 A3005 RMK AO2=
METAR KDVP 081056Z AUTO 27004KT 10SM CLR 15/13 A3017 RMK AO2
     T01450126=
METAR KEOK 081055Z AUTO 00000KT 5SM HZ CLR 22/18 A3005 RMK AO2=
METAR KERY 081055Z AUTO 27003KT 1 1/2SM RA OVC003 20/19 A2998 RMK
     AO2=
####018000099####
SAHK31 VHHH 081100
METAR VHHH 081100Z 21009KT 140V230 9999 FEW015 SCT028 31/25 
Q1006 NOSIG=
####018000206####
SABO SLLP 081100
METAR SLLP 081100Z 06003KT 9999 NSC M04/M05 Q1037=
METAR SLCB 081100Z 27003KT 3000SE FU FEW027 SCT200 05/03 Q1026=
METAR SLVR 081100Z 15013KT 9999 FEW030 BKN070 BKN200 19/18 Q1015=
####018000208####
SABO59 SLLP 081100
METAR SLLP 081100Z 06003KT 9999 NSC M04/M05 Q1037=
METAR SLCB 081100Z 27003KT 3000SE FU FEW027 SCT200 05/03 Q1026=
METAR SLVR 081100Z 15013KT 9999 FEW030 BKN070 BKN200 19/18 Q1015=
####018000105####
SAUS43 KBIS 081100 COR
MTRN60
METAR KN60 081052Z AUTO 00000KT 12/11 A3011 RMK AO1 SLP193 T01170106
####018000120####
SAMH31 PKWA 081100
METAR PKWA 081100Z AUTO 06012KT 4SM RA BKN007 BKN017 OVC030 25/23 A2987 RMK AO2 P0035 T02520234=
####018000277####
SASQ51 LZIB 081100
METAR LZKC 081100Z 33010KT 300V360 9999 FEW043 22/11
Q1021=
METAR LZLU 081100Z 24004KT 160V310 9999 FEW050 24/12
Q1021=
METAR LZNI 081100Z 33012KT 290V020 9999 FEW060 24/07
Q1021=
METAR LZPE 081100Z 30004KT 200V010 9999 FEW053 24/09
Q1021=
####018001896####
SAUS20 KNKA 081100
METAR KONZ 081057Z AUTO 00000KT 10SM CLR 24/21 A3003 RMK AO2=
METAR KORB 081054Z AUTO 00000KT 10SM CLR 14/13 A3000 RMK AO2=
METAR KORC 081055Z AUTO 33003KT 10SM CLR 16/16 A3016 RMK AO2=
METAR KOSC 081054Z AUTO 00000KT 5SM BR CLR 22/21 A3000 RMK AO2=
METAR KOWA 081054Z AUTO 31003KT 7SM CLR 16/16 A3009 RMK AO2
     P0001=
METAR KOXV 081055Z AUTO 35005KT 10SM CLR 21/20 A3008 RMK AO2=
METAR KOZW 081055Z AUTO 25003KT 7SM CLR 23/21 A3005 RMK AO2=
METAR KPEA 081055Z AUTO 34005KT 7SM CLR 19/19 A3008 RMK AO2=
METAR KPHN 081055Z AUTO 00000KT 1 3/4SM BR VV007 20/20 A3003 RMK
     AO2=
METAR KPZQ 081055Z AUTO 22005KT 10SM BKN120 23/21 A2998 RMK
     AO2=
METAR KRDK 081055Z AUTO 01004KT 7SM SCT080 SCT100 20/17 A3012 RMK 
     AO2=
METAR KRGK 081054Z AUTO 00000KT 10SM CLR 18/17 A3007 RMK AO2=
METAR KRMY 081055Z AUTO 00000KT 5SM BR CLR 21/19 A3005 RMK AO2=
METAR KRNP 081055Z AUTO 28003KT 7SM CLR 24/21 A3004 RMK AO2=
METAR KRQB 081054Z AUTO 21005KT 7SM DZ SCT025 SCT075 BKN100 22/21
     A3004 RMK AO2=
METAR KSDA 081055Z AUTO 01004KT 5SM SCT005 21/19 A3012 RMK AO2=
METAR KSHL 081055Z AUTO 00000KT 1/4SM FG VV002 14/13 A3018 RMK AO2=
METAR KSJX 081055Z AUTO 25008KT 3SM BR OVC002 20/18 A2998 RMK
     AO2=
METAR KSLH 081055Z AUTO 22004KT 10SM OVC110 22/21 A2996 RMK
     AO2=
METAR KTNU 081055Z AUTO 33005KT 7SM CLR 21/18 A3009 RMK AO2=
METAR KTTF 081053Z AUTO 00000KT 7SM CLR 23/21 A3003 RMK AO2=
METAR KUKT 081055Z AUTO 00000KT 5SM CLR 22/21 A3005 RMK AO1=
METAR KVLL 081054Z AUTO 23003KT 10SM CLR 25/21 A3006 RMK AO2=
METAR KVTI 081055Z AUTO 00000KT 4SM CLR 20/20 A3007 RMK AO2=
METAR KVWU 081051Z AUTO 26008KT 10SM CLR 18/14 A3003 RMK AO2=
METAR KXVG 081056Z AUTO 24003KT 10SM CLR 16/14 A3005 RMK AO2=
METAR KY70 081055Z AUTO 00000KT 1 1/4SM BR SCT002 SCT065 BKN110
     22/22 A3003 RMK AO2 T02240216=
####018003726####
SAUS99 KWBC 081101
METAR
KHUM 081050Z 03008KT 4SM SCT100 24/24 A3000=
KSFB 081053Z 36003KT 10SM CLR 21/21 A2999=
PADM 081101Z AUTO 36003KT 10SM FEW032 SCT065 OVC100 11/09 A3005
     RMK AO2 TSNO T01050088 RAB1035E1044 P0000 SLP164 $=
PADU 081058Z AUTO 12014G20KT 10SM OVC020 09/05 A2981 RMK AO2 RAE34
     SLP100 P0001 T00890050=
PAGA 081058Z AUTO 01005KT 10SM CLR 13/07 A3007 RMK AO2 SLP226
     T01330072=
PAJZ 081056Z AUTO 31003KT 10SM FEW035 BKN049 OVC070 10/09 A3001
     RMK AO2 PWINO TSNO T01000094 BKN V SCT SLP150 $=
PAKI 081056Z AUTO 00000KT 3SM BR CLR 08/08 A3002 RMK AO2 PWINO
     TSNO T00770077 SLP167 $=
PALG 081056Z AUTO 00000KT 10SM BKN065 BKN100 09/09 A3001 RMK AO2
     TSNO T00940088 BKN V OVC SLP163=
PARY 081056Z AUTO 35004KT 10SM CLR 15/06 A3006 RMK AO2 PWINO TSNO
     T01500055 SLP182=
PAWR 081058Z 07008G14KT 3SM -RA BR OVC010 12/12 A3008 RMK SLP186
     NOSPECI=
K4I3 081056Z AUTO 00000KT 4SM BR CLR 19/18 A3010 RMK AO2=
KACB 081055Z AUTO 00000KT 7SM -RA OVC090 23/21 A2998 RMK AO2=
KACQ 081059Z AUTO 29005KT 1SM BR VV007 15/13 A3013 RMK AO2=
KADC 081057Z AUTO 25004KT 10SM CLR 13/12 A3009 RMK AO2=
KAMN 081055Z AUTO 00000KT 5SM BR OVC090 22/22 A3002 RMK AO2=
KAQP 081054Z AUTO 22004KT 10SM CLR 13/13 A3012 RMK AO2=
KAUM 081055Z AUTO 32003KT 5SM BR CLR 17/16 A3009 RMK AO2=
KAWG 081055Z AUTO 29003KT 5SM OVC013 21/20 A3006 RMK AO2=
KAXA 081055Z AUTO 31003KT 10SM CLR 17/16 A3013 RMK AO2=
KBAX 081055Z AUTO 00000KT 4SM BR CLR 22/21 A3001 RMK AO2=
KBDH 081055Z AUTO 26003KT 5SM BR CLR 14/14 A3013 RMK AO2=
KBFW 081053Z AUTO 00000KT 10SM CLR 14/13 A3001 RMK AO2=
KBNW 081055Z AUTO 33006KT 10SM CLR 20/17 A3011 RMK AO2=
KBTR 081053Z 00000KT 6SM BR MIFG SCT003 BKN200 23/23 A3001 RMK AO2
     SLP160 T02330228 $=
KBWD 081055Z AUTO 07003KT 10SM FEW020 SCT025 OVC038 23/23 A3002
     RMK AO2=
KCAD 081055Z AUTO 22006KT 10SM -RA BKN075 OVC110 22/20 A3003 RMK
     AO2=
KCAV 081055Z AUTO 32006KT 5SM CLR 18/17 A3011 RMK AO2=
KCBF 081055Z AUTO 36005KT 10SM CLR 20/15 A3014 RMK AO2=
KCBG 081055Z AUTO 00000KT 10SM CLR 16/14 A3008 RMK AO2=
KCCY 081055Z AUTO 32007KT 10SM CLR 19/16 A3008 RMK AO2=
KCDA 081055Z AUTO 00000KT 4SM HZ CLR 21/18 A3010 RMK AO2=
KCDD 081051Z AUTO 19003KT 10SM CLR 17/16 A3002 RMK AO2=
KCFE 081055Z AUTO 26004KT 10SM CLR 17/16 A3011 RMK AO2
     T01710155=
KCFS 081055Z AUTO 24005KT 7SM SCT060 21/21 A3003 RMK AO2=
KCIN 081055Z AUTO 32004KT 5SM HZ CLR 17/14 A3014 RMK AO2=
KCKC 081055Z AUTO 29004KT 10SM CLR 16/13 A3004 RMK AO2=
KCKN 081055Z AUTO 22003KT 10SM CLR 13/12 A3006 RMK AO2=
KCNB 081058Z AUTO 24007KT 10SM CLR 17/13 A3014 RMK AO2
     T01650132=
KCNC 081055Z AUTO 36007KT 10SM BKN045 20/18 A3008 RMK AO2=
KCOQ 081056Z AUTO 27005KT 10SM CLR 14/14 A3006 RMK AO2=
KCQM 081057Z AUTO 23003KT 10SM CLR 14/14 A3003 RMK AO2=
KCSQ 081055Z AUTO 01009KT 10SM SCT015 20/18 A3011 RMK AO2=
KCVX 081055Z AUTO 22004KT 10SM RA OVC100 21/20 A2999 RMK AO2=
KDAB 081053Z 33003KT 10SM FEW026 SCT150 21/20 A3000 RMK AO2 SLP158
     T02110200 $=
KDEH 081055Z AUTO 00000KT 2SM BKN006 20/18 A3008 RMK AO2=
KDNS 081055Z AUTO 01003KT 10SM CLR 19/16 A3016 RMK AO2=
KDRM 081056Z AUTO 16004KT 1 1/2SM -RA OVC002 20/20 A2995 RMK
     AO2=
KDTL 081055Z AUTO 29003KT 10SM CLR 15/11 A3010 RMK AO2=
KDUH 081055Z AUTO 00000KT 10SM CLR 23/18 A3005 RMK AO2=
KDVP 081056Z AUTO 27004KT 10SM CLR 15/13 A3017 RMK AO2
     T01450126=
KEOK 081055Z AUTO 00000KT 5SM HZ CLR 22/18 A3005 RMK AO2=
KERY 081055Z AUTO 27003KT 1 1/2SM RA OVC003 20/19 A2998 RMK
     AO2=
KETH 081054Z AUTO 25006KT 10SM CLR 17/14 A3011 RMK AO2=
KFFL 081055Z AUTO 31003KT 10SM CLR 21/20 A3006 RMK AO2=
####018003701####
SAUS99 KWBC 081101 RRA
METAR
KFFX 081055Z AUTO 00000KT 3SM BR SCT055 BKN085 OVC090 22/22 A3001
     RMK AO2=
KFKA 081103Z AUTO 32007KT 7SM CLR 18/18 A3009 RMK AO2
     T01810175=
KFKS 081055Z AUTO 26003KT 7SM -RA BKN065 OVC090 22/20 A3000 RMK
     AO2=
KFOZ 081053Z AUTO 00000KT 3/4SM BR VV005 12/11 A3005 RMK AO2 VIS
     1/4V5=
KFPK 081056Z AUTO 00000KT 5SM BR CLR 22/20 A3003 RMK AO2=
KFSD 081056Z 00000KT 10SM CLR 15/14 A3016 RMK AO2 SLP210 BKN ABV
     120 T01500139 $=
KFSE 081054Z AUTO 19004KT 10SM CLR 12/11 A3006 RMK AO2=
KFSW 081055Z AUTO 29004KT 7SM OVC002 22/20 A3005 RMK AO2=
KFXY 081055Z AUTO 00000KT 10SM CLR 16/15 A3012 RMK AO2=
KGGI 081055Z AUTO 00000KT 4SM CLR 20/19 A3008 RMK AO2 P0001=
KGOV 081055Z AUTO 20003KT 10SM OVC090 22/21 A3001 RMK AO2=
KHAF 081050Z AUTO 00000KT 10SM OVC006 12/10 A2993 RMK AO2=
KHAI 081055Z AUTO 00000KT 3SM BR CLR 21/21 A3005 RMK AO2=
KHNR 081055Z AUTO 00000KT 4SM CLR 17/17 A3016 RMK AO2=
KHYX 081055Z AUTO 26008KT 7SM -RA SCT055 SCT120 23/21 A3002 RMK
     AO2=
KI75 081055Z AUTO 34004KT 7SM CLR 20/18 A3009 RMK AO2=
KICL 081055Z AUTO 01003KT 7SM CLR 21/18 A3011 RMK AO2=
KIFA 081055Z AUTO 32005KT 10SM SCT120 20/18 A3010 RMK AO2=
KIIB 081055Z AUTO 00000KT 5SM CLR 20/19 A3007 RMK AO1=
KIKV 081055Z AUTO 34009KT 10SM CLR 20/18 A3010 RMK AO2=
KIRS 081055Z AUTO 00000KT 3SM BR CLR 21/20 A3005 RMK AO2=
KISQ 081055Z AUTO 30005KT 10SM -RA SCT004 19/18 A2998 RMK AO2=
KJYG 081055Z AUTO 00000KT 10SM CLR 16/16 A3014 RMK AO2=
KJYM 081055Z AUTO 00000KT 4SM BR CLR 21/19 A3006 RMK AO2=
KLDM 081055Z AUTO 21005KT 7SM RA SCT029 SCT040 OVC090 22/21 A3001
     RMK AO2 P0003=
KLRJ 081055Z AUTO 00000KT 7SM SCT005 15/14 A3016 RMK AO2=
KLWA 081056Z AUTO 00000KT 4SM BR SCT046 SCT055 22/21 A3004 RMK
     AO2=
KMCD 081055Z AUTO 26004KT 7SM SCT013 BKN110 21/18 A2998 RMK
     AO2=
KMGN 081055Z AUTO 00000KT 7SM -RA SCT021 SCT028 OVC110 22/20 A2997
     RMK AO2=
KMOP 081054Z AUTO 22004KT 10SM OVC085 23/22 A3002 RMK AO2=
KMPZ 081055Z AUTO 31003KT 4SM OVC002 22/21 A3006 RMK AO2=
KMUT 081055Z AUTO 32005KT 7SM SCT006 OVC012 23/22 A3004 RMK
     AO2=
KMXO 081055Z AUTO 00000KT 5SM SCT005 SCT027 20/18 A3005 RMK
     AO2=
KMZH 081051Z AUTO 00000KT 10SM CLR 13/13 A3005 RMK AO2=
KNTU 081056Z 11007KT 10SM SCT005 SCT015 BKN035 BKN130 25/23 A2996
     RMK AO2 SLP149 T02500233 $=
KO22 081055Z AUTO 00000KT 10SM CLR 16/12 A2991 RMK AO1=
KOEB 081055Z AUTO 00000KT 4SM BR CLR 21/19 A3006 RMK AO2=
KONZ 081057Z AUTO 00000KT 10SM CLR 24/21 A3003 RMK AO2=
KORB 081054Z AUTO 00000KT 10SM CLR 14/13 A3000 RMK AO2=
KORC 081055Z AUTO 33003KT 10SM CLR 16/16 A3016 RMK AO2=
KOSC 081054Z AUTO 00000KT 5SM BR CLR 22/21 A3000 RMK AO2=
KOWA 081054Z AUTO 31003KT 7SM CLR 16/16 A3009 RMK AO2 P0001=
KOXV 081055Z AUTO 35005KT 10SM CLR 21/20 A3008 RMK AO2=
KOZW 081055Z AUTO 25003KT 7SM CLR 23/21 A3005 RMK AO2=
KPEA 081055Z AUTO 34005KT 7SM CLR 19/19 A3008 RMK AO2=
KPHN 081055Z AUTO 00000KT 1 3/4SM BR VV007 20/20 A3003 RMK AO2=
KPZQ 081055Z AUTO 22005KT 10SM BKN120 23/21 A2998 RMK AO2=
KRDK 081055Z AUTO 01004KT 7SM SCT080 SCT100 20/17 A3012 RMK
     AO2=
KRGK 081054Z AUTO 00000KT 10SM CLR 18/17 A3007 RMK AO2=
KRMY 081055Z AUTO 00000KT 5SM BR CLR 21/19 A3005 RMK AO2=
KRNP 081055Z AUTO 28003KT 7SM CLR 24/21 A3004 RMK AO2=
KRQB 081054Z AUTO 21005KT 7SM DZ SCT025 SCT075 BKN100 22/21 A3004
     RMK AO2=
KSDA 081055Z AUTO 01004KT 5SM SCT005 21/19 A3012 RMK AO2=
KSHL 081055Z AUTO 00000KT 1/4SM FG VV002 14/13 A3018 RMK AO2=
KSJX 081055Z AUTO 25008KT 3SM BR OVC002 20/18 A2998 RMK AO2=
KSLH 081055Z AUTO 22004KT 10SM OVC110 22/21 A2996 RMK AO2=
####018000231####
SPUS99 KWBC 081101
SPECI
KELD 081059Z AUTO 00000KT 3SM BR BKN001 BKN080 23/23 A3005 RMK
     AO2=
KOKC 081059Z 36005KT 10SM BKN021 OVC080 23/22 A3005 RMK AO2=
KGLH 081059Z AUTO 00000KT 3/4SM BR CLR 22/22 A3005 RMK AO2=
####018000533####
SAUS99 KWBC 081101 RRB
METAR
KTNU 081055Z AUTO 33005KT 7SM CLR 21/18 A3009 RMK AO2=
KTTF 081053Z AUTO 00000KT 7SM CLR 23/21 A3003 RMK AO2=
KUKT 081055Z AUTO 00000KT 5SM CLR 22/21 A3005 RMK AO1=
KVLL 081054Z AUTO 23003KT 10SM CLR 25/21 A3006 RMK AO2=
KVTI 081055Z AUTO 00000KT 4SM CLR 20/20 A3007 RMK AO2=
KVWU 081051Z AUTO 26008KT 10SM CLR 18/14 A3003 RMK AO2=
KXVG 081056Z AUTO 24003KT 10SM CLR 16/14 A3005 RMK AO2=
KY70 081055Z AUTO 00000KT 1 1/4SM BR SCT002 SCT065 BKN110 22/22
     A3003 RMK AO2 T02240216=
####018000068####
SABZ20 SBRB 081100
METAR SBRB 081100Z 00000KT CAVOK 23/22 Q1012=
####018000068####
SABZ23 SBCP 081100
METAR SBCP 081100Z 34004KT CAVOK 20/20 Q1020=
####018000074####
SABZ19 SBMQ 081100
METAR SBMQ 081100Z 01002KT 9999 FEW017 27/26 Q1013=
####018000069####
SABZ22 SBGO 081100
METAR SBGO 081100Z 00000KT CAVOK 16/12 Q1021 =
####018000068####
SABZ22 SBCY 081100
METAR SBCY 081100Z 02007KT CAVOK 21/14 Q1015=
####018000069####
SABZ24 SBUG 081100
METAR SBUG 081100Z 10004KT CAVOK 05/05 Q1020 =
####018000074####
SABZ19 SBSN 081100
METAR SBSN 081100Z 11001KT 9999 FEW018 26/22 Q1012=
####018000074####
SABZ21 SBPL 081100
METAR SBPL 081100Z 14008KT 9999 FEW020 23/19 Q1019=
####018000068####
SABZ18 SBRP 081100
METAR SBRP 081100Z 10004KT CAVOK 13/09 Q1021=
####018000071####
SABZ18 SBKP 081100
METAR SBKP 081100Z 04002KT 6000 NSC 13/10 Q1021=
####018000068####
SABZ23 SBVT 081100
METAR SBVT 081100Z 29004KT CAVOK 20/17 Q1021=
####018000130####
SPUS17 KAWN 081100 RRG
SPECI KFRI 081054Z AUTO 04003KT 9SM FEW006 SCT016 BKN160 21/21 A3010
      RMK AO2 FEW V SCT SLP183=
####018000478####
SPZZ40 KAWN 081100 RRP
SPECI CYGV 081057Z AUTO 11003KT 9SM OVC002 14/12 A3003=
SPECI CYKF 081058Z AUTO 14003KT 3SM BR CLR 21/21 A3006 RMK SLP175 DENSITY
      ALT 1800FT VIS VRB 1 3/4-3=
SPECI KNGP 081053Z 10012G16KT 4SM +RA BR FEW011 SCT015 BKN033 28/26
      A2982 RMK AO2 RAB49 P0008 $=
SPECI KNGU 081055Z 09006KT 5SM BR FEW008 SCT070 BKN120 26/23 A2999
      RMK AO2=
SPECI KWRI 081058Z AUTO 00000KT 1 1/2SM BR FEW001 24/24 A3001 RMK AO2
      SLP162 $=
####018000107####
SATU33 LTAA 081050
METAR LCEN 081050Z 15015KT 9999 SCT025 33/18 Q1007 NOSIG=
METAR LCGK 081050Z NIL=
####018000089####
SASG20 GOOY 081100
METAR GOOY 081100Z 18007KT 150V210 9999 SCT013 30/24 Q1012 NOSIG=
####018000088####
SPUS41 KWBC 081101
SPECI
KWRI 081058Z AUTO 00000KT 1 1/2SM BR FEW001 24/24 A3001=
####018000088####
SPUS42 KWBC 081101
SPECI
KAUS 081056Z COR 06005KT 10SM FEW007 SCT012 26/24 A2995=
####018000088####
SPUS52 KWBC 081101
SPECI
KAUS 081056Z COR 06005KT 10SM FEW007 SCT012 26/24 A2995=
####018000079####
SALC31 TLPL 081100
METAR TLPL 081100Z 08018KT 9999 SCT026 BKN300 29/23 Q1014=####018000365####
SATU32 LTAA 081050
METAR LTAN 081050Z 07005KT 9999 SCT040 31/13 Q1011 NOSIG=
METAR LTAU 081050Z VRB02KT 9999 FEW040 33/12 Q1011 NOSIG=
METAR LTBR 081050Z 33016KT 9999 SCT035 BKN100 28/17 Q1011 TEMPO 
FM1200 -TSRA=
METAR LTBU 081050Z 30011KT 9999 SCT030 BKN100 20/13 Q1014=
METAR LTCC 081050Z 16008KT CAVOK 40/02 Q1006 NOSIG=
METAR LTCE 081050Z NIL=
####018000965####
SATU31 LTAA 081050
METAR LTAC 081050Z 06012KT 030V090 9999 SCT040 29/15 Q1012 NOSIG=
METAR LTAF 081050Z /////KT 9999 SCT035 BKN100 31/20 Q1008 NOSIG=
METAR LTAI 081050Z 17009KT 130V210 9999 SCT030 29/22 Q1008 NOSIG=
METAR LTAJ 081050Z 24009KT 180V280 CAVOK 37/11 Q1007 NOSIG=
METAR LTAZ 081050Z VRB04KT 9999 FEW040 33/13 Q1010=
METAR LTBA 081050Z 35021KT 9999 BKN035 24/15 Q1012 TEMPO TL1200 4000 
-TSRA=
METAR LTBJ 081050Z 34017KT 310V020 CAVOK 30/15 Q1010 NOSIG=
METAR LTBS 081050Z 19012KT 9999 FEW030 29/21 Q1008 NOSIG=
METAR LTCF 081050Z 10012KT 9999 SCT035 30/08 Q1018=
METAR LTCG 081050Z 08006KT 9999 SCT035 27/22 Q1011 NOSIG=
METAR LTCI 081050Z 25007KT CAVOK 26/18 Q1016 NOSIG=
METAR LTCS 081050Z 13010KT 100V180 CAVOK 37/01 Q1009=
METAR LTFE 081050Z 27019KT 9999 FEW035 33/14 Q1008 NOSIG=
METAR LTFH 081050Z 04009KT 360V060 9999 SCT036 BKN100 27/23 Q1010 
NOSIG=
METAR LTFJ 081050Z 01018KT 9999 BKN030 23/17 Q1011 NOSIG=
####018000392####
SABU31 LBSM 081100
METAR LBSF 081100Z 28005MPS 250V310 9999 BKN036 18/12 Q1018
 NOSIG=
METAR LBWN 081100Z 27006MPS 240V300 9999 FEW024 BKN027 19/15
 Q1014 NOSIG=
METAR LBBG 081100Z 32005MPS 9999 BKN026 BKN035 19/15 Q1015
 NOSIG=
METAR LBPD 081100Z 26005MPS 9999 -RA SCT040 OVC060 17/13 Q1017
 NOSIG=
METAR LBGO 081100Z VRB01MPS 8000 RA BKN020 OVC060 15/14 Q1017
 NOSIG=
####018000446####
SARH31 LDZM 081100
METAR LDSP 081100Z 23010KT 200V260 CAVOK 28/06 Q1020 NOSIG =
METAR LDPL 081100Z 07004KT 350V130 CAVOK 27/09 Q1022 NOSIG =
METAR LDDU 081100Z VRB07KT 9999 FEW043 28/07 Q1018 NOSIG =
METAR LDZA 081100Z VRB06KT CAVOK 25/08 Q1022 NOSIG =
METAR LDZD 081100Z VRB09KT CAVOK 27/04 Q1021 NOSIG =
METAR LDRI 081100Z 28005KT 240V320 9999 FEW047 25/10 Q1022 NOSIG=
METAR LDOS 081100Z 34004KT 9999 FEW033 24/08 Q1022 NOSIG=
####018000100####
SARM31 LUKK 081100
METAR LUKK 081100Z 32008KT 280V350 9999 SCT031 24/16 Q1015
26CLRD65 NOSIG=
####018000117####
SARH32 LDZM 081100
METAR LDLO 081100Z 03010KT CAVOK 28/08 Q1022=
METAR LDSB 081100Z 03013KT CAVOK 23/11 Q1021=
####018000086####
SAUK37 EGGY 081050 RRA
METAR EGPI 081050Z 21017KT 9999 FEW024 SCT035 16/10 Q1012=
####018000088####
SAIV20 DIAP 081100
METAR DIAP 081100Z 21008KT 7000 SCT012 BKN070 28/24 Q1015 NOSIG=
####018000104####
SAGR32 LGAT 081050 RRA
METAR LGAL 081050Z 03007KT 9999 FEW008 FEW020TCU BKN025 20/18
      Q1015=
####018000127####
SAUS41 KAKQ 081101
MTRNGU
METAR KNGU 081059Z 11004KT 5SM BR FEW008 SCT070 BKN120 26/23 A2998 
RMK AO2 SLP153 T02610233
####018001407####
SAUS17 KAWN 081100 RRC
METAR KDMA 081055Z AUTO 04009KT 10SM CLR 30/10 A2988 RMK AO2 SLP039
      T02980098 $=
METAR KFAF 081055Z 00000KT 10SM FEW130 26/26 A2997 RMK AO2A SLP151
      T02620262=
METAR KFFO 081055Z 00000KT 3SM BR CLR 21/20 A3009 RMK AO2A VIS SE-SW
      1 1/2 SLP183=
METAR KFMH 081055Z AUTO 16006KT 10SM FEW009 BKN019 22/20 A3011 RMK
      AO2=
METAR KFRI 081055Z AUTO 04003KT 9SM FEW006 SCT016 BKN160 21/21 A3010
      RMK AO2 FEW V SCT SLP183 T02120212=
METAR KGRK 081055Z 08005KT 7SM FEW009 BKN024 OVC030 26/24 A2998 RMK
      SLP128=
METAR KHLR 081056Z AUTO 08004KT 10SM SCT009 BKN015 OVC023 25/ A2999
      RMK AO2 SLP146 T0250 $=
METAR KHOP 081055Z AUTO 00000KT 10SM BKN100 24/22 A3008 RMK AO2 SLP180
      T02360220=
METAR KNBG 081055Z AUTO 05003KT 6SM HZ CLR A3002 RMK AO2 SLP166 PWINO
      FZRANO $=
METAR KNCA 081056Z AUTO 00000KT 5SM BR CLR 23/22 A2993 RMK AO2 SLP136
      T02330217=
METAR KNJK 081056Z AUTO 13005KT 10SM CLR 23/12 A2969 RMK AO2 SLP070
      T02280122 TSNO=
METAR KNJK 081056Z AUTO 13005KT 10SM CLR 23/12 A2969 RMK AO2 SLP070
      T02280122 TSNO=
METAR KNRS 081056Z AUTO 31005KT 10SM FEW007 OVC016 17/14 A2990 RMK
      AO2 SLP123 T01670144 TSNO $=
METAR KSVN 081055Z 24004KT 10SM SKC 21/20 A2998 RMK SLP155=
METAR PPIZ 081056Z AUTO 21010KT 10SM CLR 06/02 A3009 RMK AO2 TSNO T00610016
      SLP192 $=
####018001427####
SANA14 KAWN 081100 RRB
METAR KNFG 081056Z AUTO 00000KT 10SM OVC010 16/14 A2989 RMK AO2 SLP121
      T01560139 TSNO=
METAR KNFL 081056Z AUTO 00000KT 10SM CLR 18/M01 A2998 RMK AO2 SLP124
      T01831006 TSNO=
METAR KNGP 081056Z 09011KT 4SM +RA BR SCT013 BKN019 BKN033 28/27 A2982
      RMK AO2 RAB49 SLP096 P0009 T02780267 $=
METAR KNKX 081055Z 33003KT 10SM OVC014 16/13 A2989 RMK AO2 SLP118 T01610133=
METAR KNTD 081056Z AUTO 28006KT 9SM OVC011 15/13 A2989 RMK AO2 SLP123
      T01500128 TSNO PNO VISNO N $=
METAR KNXP 081056Z AUTO 29005KT CLR 23/00 A2991 RMK AO2 SLP089 T02330000
      $=
METAR KNXX 081056Z 00000KT 3SM HZ CLR 24/21 A3005 RMK AO2 SLP177 T02390206
      $=
METAR KNYL 081055Z AUTO 16003KT 10SM CLR 27/04 A2971 RMK AO2 SLP056
      T02670039=
METAR KPOE 081055Z AUTO 07005KT 10SM FEW015 24/23 A3001 RMK AO2 SLP164
      T02390228=
METAR KPOE 081055Z AUTO 07005KT 10SM FEW015 24/23 A3001 RMK AO2 SLP164
      T02390228=
METAR KPSM 081055Z 15006KT 7SM FEW012 SCT040 OVC075 23/21 A3007 RMK
      AO2A SLP185 T02280210=
METAR KSGH 081056Z 00000KT 3SM BR CLR 21/21 A3011 RMK AO2 T02050205
      SLP187=
METAR KSZL 081055Z 10003KT 10SM SCT005 BKN030 22/22 A3004 RMK AO2A
      SLP168 T02230220 $=
METAR KVBG 081055Z AUTO 34003KT 10SM OVC004 12/11 A2993 RMK AO2 SLP125
      T01220111 TSNO $=
METAR SPIM 081100Z VRB02KT 6000 OVC022 16/13 Q1013 NOSIG RMK PP000=
####018001542####
SAZZ40 KAWN 081100 RRI
METAR KDMA 081055Z AUTO 04009KT 10SM CLR 30/10 A2988 RMK AO2 SLP039
      T02980098 $=
METAR KFAF 081055Z 00000KT 10SM FEW130 26/26 A2997 RMK AO2A SLP151
      T02620262=
METAR KFFO 081055Z 00000KT 3SM BR CLR 21/20 A3009 RMK AO2A VIS SE-SW
      1 1/2 SLP183=
METAR KFMH 081055Z AUTO 16006KT 10SM FEW009 BKN019 22/20 A3011 RMK
      AO2=
METAR KHOP 081055Z AUTO 00000KT 10SM BKN100 24/22 A3008 RMK AO2 SLP180
      T02360220=
METAR KNRS 081056Z AUTO 31005KT 10SM FEW007 OVC016 17/14 A2990 RMK
      AO2 SLP123 T01670144 TSNO $=
METAR KPSM 081055Z 15006KT 7SM FEW012 SCT040 OVC075 23/21 A3007 RMK
      AO2A SLP185 T02280210=
METAR KSVN 081055Z 24004KT 10SM SKC 21/20 A2998 RMK SLP155=
METAR KSZL 081055Z 10003KT 10SM SCT005 BKN030 22/22 A3004 RMK AO2A
      SLP168 T02230220 $=
METAR LEMO 081100Z VRB03KT CAVOK 29/19 Q1016 NOSIG=
METAR MDPC 081100Z 00000KT 9999 FEW018 25/23 Q1013 RESH=
METAR MDSD 081100Z 06004KT 9999 FEW018 24/23 Q1015=
METAR MDST 081100Z 00000KT 4000 BR BKN016 23/23 Q1015 BR/NE/NW/N=
METAR MWCR 081100Z 14006KT 9999 FEW018 BKN250 28/25 Q1012 NOSIG=
METAR MYGF 081100Z 05003KT 9999 FEW020TCU SCT150 24/23 A2996 RMK TCU
      S /=
METAR PASY 081056Z AUTO 02017KT 10SM OVC006 A2974 RMK AO2 SLPNO TSNO
      PNO=
METAR PMDY 081056Z AUTO 00000KT 10SM FEW029 25/20 A3011 RMK AO2 TSNO
      T02500200 402940233 SLP503=
METAR TUPJ 081100Z 12008KT 9999 FEW022 28/24 A3000 RMK=
METAR TXKF 081055Z 15012KT 9999 FEW013 SCT180 BKN300 26/23 Q1019 /=
####018000088####
SPUS72 KWBC 081101
SPECI
KAUS 081056Z COR 06005KT 10SM FEW007 SCT012 26/24 A2995=
####018000091####
SAUZ31 UTTW 081000 CCA
METAR UTST 081100Z VRB01MPS CAVOK 41/04 Q1005 R88/CLRD70 NOSIG=
####018000092####
SASG20 GOOY 081100
METAR GOOY 081100Z 18007KT 150V210 9999 SCT013 30/24 Q1012 NOSIG=

####018000109####
SAGC31 MWCR 081100
METAR MWCR 081100Z 14006KT 9999 FEW018 BKN250 28/25 Q1012 NOSIG=

METAR MWCB NIL=
####018000124####
SAUS41 KAKQ 081101 COR
MTRRIC
METAR KRIC 081054Z 10006KT 4SM HZ SCT150 BKN250 26/21 A2999 RMK AO2 
SLP156 T02560211
####018000124####
SAUS44 KMOB 081101 COR
MTR79J
METAR K79J 081056Z AUTO 00000KT 10SM CLR 23/21 A3003 RMK AO2 SLP163 
T02330206 TSNO $
####018000072####
SABZ18 SBKP 081100
METAR SBKP 081100Z 04002KT 6000 NSC 13/10 Q1021=
####018000080####
SANC01 NWWW 081100
METAR NWWW 081100Z AUTO 00000KT 9999NDV NCD 18/15 Q1017=
####018000095####
SAEU KAWN 081000 RRX
METAR ENGM 081041Z 19010KT 9999 -RA FEW009 SCT045 BKN067 16/14 Q1015=
####018000079####
SALC31 TLPL 081100
METAR TLPC 081100Z 09008KT 9999 SCT023 SCT270 29/26 Q1014=####018000092####
SAPF20 NTAA 081100
METAR NTAA 081100Z 05004KT 9999 FEW023 25/22 Q1015 WS ALL RWY NOSIG=
####018000123####
SAUS90 KWBC 081100 RRB
METAR PASV 081055Z AUTO 00000KT 10SM SCT037 SCT047 SCT070 09/07
     A2996 RMK AO1 T00890073=
####018000199####
SAUS90 KWBC 081100 CCB
METAR KN60 081052Z AUTO 00000KT 12/11 A3011 RMK AO1 SLP193
     T01170106=
METAR KRIC 081054Z 10006KT 4SM HZ SCT150 BKN250 26/21 A2999 RMK
     AO2 SLP156 T02560211=
####018000055####
SAUS90 KWBC 081000 RRG
METAR K8S0 080955Z 26007KT=
####018001617####
SASA KAWN 081100 RRA
METAR SAWH 081100Z 05006KT 9999 FEW035 BKN100 01/M01 Q0984=
METAR SBAR 081100Z 23006KT CAVOK 24/22 Q1017=
METAR SBBV 081100Z 23002KT 9999 FEW020 SCT030 26/24 Q1012=
METAR SBCF 081100Z 13003KT CAVOK 13/09 Q1024=
METAR SBCR 081100Z 14007KT CAVOK 25/10 Q1013=
METAR SBCY 081100Z 02007KT CAVOK 21/14 Q1015=
METAR SBFL 081100Z 16009KT CAVOK 20/16 Q1017=
METAR SBGL 081100Z 06003KT 8000 NSC 18/16 Q1018=
METAR SBGO 081100Z 00000KT CAVOK 16/12 Q1021=
METAR SBGR 081100Z 10001KT 8000 NSC 12/10 Q1021=
METAR SBMQ 081100Z 01002KT 9999 FEW017 27/26 Q1013=
METAR SBNT 081100Z 19006KT 9999 FEW023 BKN100 24/22 Q1015=
METAR SBPA 081100Z 23004KT 9999 BKN020 OVC045 16/13 Q1019=
METAR SBRB 081100Z 00000KT CAVOK 23/22 Q1012=
METAR SBRF 081100Z 23004KT 9999 FEW020 BKN070 24/22 Q1016=
METAR SBRJ 081100Z 01005KT CAVOK 21/16 Q1018=
METAR SBRP 081100Z 10004KT CAVOK 13/09 Q1021=
METAR SBSL 081100Z 09004KT 9999 FEW015 BKN100 27/25 Q1014=
METAR SBSP 081100Z 31003KT CAVOK 16/09 Q1022=
METAR SBSV 081100Z 24007KT 5000 BR SCT011 SCT017 24/21 Q1018=
METAR SBUG 081100Z 10004KT CAVOK 05/05 Q1020=
METAR SBVT 081100Z 29004KT CAVOK 20/17 Q1021=
METAR SLCB 081100Z 27003KT 3000SE FU FEW027 SCT200 05/03 Q1026=
METAR SLLP 081100Z 06003KT 9999 NSC M04/M05 Q1037=
METAR SLVR 081100Z 15013KT 9999 FEW030 BKN070 BKN200 19/18 Q1015=
METAR SPIM 081100Z VRB02KT 6000 OVC022 16/13 Q1013 NOSIG RMK PP000=
METAR SVMC 081100Z 36003KT 9999 SCT010 24/23 Q1011=
METAR SVMI 081100Z 00000KT 9999 FEW016 BKN090 25/24 Q1014 RETS=
METAR SVSA 081100Z 00000KT 9999 BKN020 21/20 Q1015=
####018000117####
SAUS42 KRAH 081101
MTRNJM
METAR KNJM 081057Z AUTO 01004KT 5SM HZ CLR 26/22 A2993 RMK AO2 
SLP137 T02560222 $
####018000115####
SARA31 UHHH 081100
METAR 081100Z
METAR METAR UHHH 081100Z 02004MPS 9999 SCT033CB OVC100 17/15 Q1010
NOSIG=
####018000101####
SAAJ31 UBBB 081100
UBBN 081100Z 12010KT 9999 NSC 37/08 Q1008 R14R/CLRD60 NOSIG
RMK G/O QFE682=
####018000089####
SATG20 DXXX 081100
METAR DXXX 081100Z 20010KT 180V250 9999 SCT016 29/24 Q1015 NOSIG=
####018001207####
SAUS20 KNKA 081101
SPECI KAMA 081100Z 36010KT 1SM OVC003 17/17 A3020 RMK AO2 SFC VIS 7 
    $=
METAR KASJ 081057Z AUTO 34003KT 2SM HZ BKN110 24/22 A2997 RMK AO2=
SPECI KAUG 081100Z AUTO VRB03KT 3SM BR OVC003 21/20 A3009 RMK AO2=
METAR KDMA 081055Z AUTO 04009KT 10SM CLR 30/10 A2988 RMK AO2 SLP039
      T02980098 $=
METAR KEBS 081055Z AUTO 33004KT 10SM CLR 18/17 A3011 RMK AO2=
METAR KFAF 081055Z 00000KT 10SM FEW130 26/26 A2997 RMK AO2A SLP151
      T02620262=
SPECI KFFT 081100Z AUTO 00000KT 3SM BR CLR 21/20 A3008 RMK AO2=
SPECI KIAG 081100Z 21003KT 7SM FEW080 24/21 A3005 RMK AO2=
METAR KIWA 081059Z AUTO 00000KT 10SM CLR 31/02 A2980 RMK AO2=
METAR KNBG 081055Z AUTO 05003KT 6SM HZ CLR A3002 RMK AO2 SLP166 PWINO
      FZRANO $=
METAR KNCA 081056Z AUTO 00000KT 5SM BR CLR 23/22 A2993 RMK AO2 SLP136
      T02330217=
METAR KNFG 081056Z AUTO 00000KT 10SM OVC010 16/14 A2989 RMK AO2 SLP121
      T01560139 TSNO=
METAR KNXX 081056Z 00000KT 3SM HZ CLR 24/21 A3005 RMK AO2 SLP177 T02390206
      $=
METAR KPSM 081055Z 15006KT 7SM FEW012 SCT040 OVC075 23/21 A3007 RMK
      AO2A SLP185 T02280210=
METAR KTVK 081055Z AUTO 34006KT 10SM FEW009 20/20 A3008 RMK AO2=
####018000080####
SANC01 NWWM 081100
METAR NWWM 081100Z AUTO 34004KT 9999NDV NCD 18/16 Q1016=
####018000080####
SANC01 NWWL 081100
METAR NWWL 081100Z AUTO 00000KT 9999NDV NCD 15/14 Q1016=
####018000080####
SANC01 NWWU 081100
METAR NWWU 081100Z AUTO VRB02KT 9999NDV NCD 19/17 Q1016=
####018000114####
SAUS98 KWBC 081102
METAR PASV 081055Z AUTO 00000KT 10SM SCT037 SCT047 SCT070 09/07
A2996 RMK AO1 T00890073=
####018000321####
SAPR94 SPIM 081100
METAR
SPHO 081100Z 00000KT CAVOK 09/04 Q1025 RMK PP000=
SPHY 081100Z /////KT 9999 SCT030 00/M03 Q1021 RMK PP000
             SC BAJOS CDTE N/NE=
METAR SPJL 081100Z NIL=
METAR SPME 081100Z NIL=
METAR
SPTU 081100Z 00000KT 7000 OVC015 23/23 Q1011 RMK RA AT NIGHT PP013=
METAR SPYL 081100Z NIL=
####018000866####
SAUS99 KWBC 081102
METAR
KASJ 081057Z AUTO 34003KT 2SM HZ BKN110 24/22 A2997 RMK AO2=
KDMA 081055Z AUTO 04009KT 10SM CLR 30/10 A2988 RMK AO2 SLP039
     T02980098 $=
KEBS 081055Z AUTO 33004KT 10SM CLR 18/17 A3011 RMK AO2=
KFAF 081055Z 00000KT 10SM FEW130 26/26 A2997 RMK AO2A SLP151
     T02620262=
KIWA 081059Z AUTO 00000KT 10SM CLR 31/02 A2980 RMK AO2=
KNBG 081055Z AUTO 05003KT 6SM HZ CLR A3002 RMK AO2 SLP166 PWINO
     FZRANO $=
KNCA 081056Z AUTO 00000KT 5SM BR CLR 23/22 A2993 RMK AO2 SLP136
     T02330217=
KNFG 081056Z AUTO 00000KT 10SM OVC010 16/14 A2989 RMK AO2 SLP121
     T01560139 TSNO=
KNXX 081056Z 00000KT 3SM HZ CLR 24/21 A3005 RMK AO2 SLP177
     T02390206 $=
KPSM 081055Z 15006KT 7SM FEW012 SCT040 OVC075 23/21 A3007 RMK AO2A
     SLP185 T02280210=
KTVK 081055Z AUTO 34006KT 10SM FEW009 20/20 A3008 RMK AO2=
####018000071####
SABZ19 SBMA 081100
METAR SBMA 081100Z 17002KT 7000 NSC ///// Q1014=
####018000281####
SPUS99 KWBC 081102
SPECI
KAMA 081100Z 36010KT 1SM OVC003 17/17 A3020 RMK AO2 SFC VIS 7
     $=
KAUG 081100Z AUTO VRB03KT 3SM BR OVC003 21/20 A3009 RMK AO2=
KFFT 081100Z AUTO 00000KT 3SM BR CLR 21/20 A3008 RMK AO2=
KIAG 081100Z 21003KT 7SM FEW080 24/21 A3005 RMK AO2=
####018000085####
SAUK37 EGGY 081050 RRA
METAR EGPI 081050Z 21017KT 9999 FEW024 SCT035 16/10 Q1012=
####018000119####
SAVN23 SVBC 081100
METAR SVBC 081100Z 00000KT CAVOK 25/22 Q1013=
METAR SVMT 081100Z NIL= 
METAR SVHG 081100Z NIL=
####018000068####
SABZ24 SBLO 081100
METAR SBLO 081100Z 23002KT CAVOK 15/13 Q1020=
####018000068####
SABZ24 SBNF 081100
METAR SBNF 081100Z 00000KT CAVOK 19/18 Q1016=
####018000074####
SABZ24 SBPK 081100
METAR SBPK 081100Z 28006KT 9999 FEW020 09/07 Q1020=
####018000118####
SAVN31 SVVA 081100
METAR
METAR SVVA 081100Z 20002KT 9999 REDZ SCT016 OVC100 23/22 Q1014=
METAR SVPC 081100Z NIL=
####018000081####
SABZ20 SBEG 081100
METAR SBEG 081100Z 00000KT 9999 FEW010 SCT100 24/22 Q1012=
####018000068####
SABZ18 SBSJ 081100
METAR SBSJ 081100Z 00000KT CAVOK 12/11 Q1022=
####018000421####
SAAW41 KWBC 081050 RRD
METAR
LTAJ 081050Z 24009KT 180V280 CAVOK 37/11 Q1007 NOSIG=
LTAN 081050Z 07005KT 9999 SCT040 31/13 Q1011 NOSIG=
LTAU 081050Z VRB02KT 9999 FEW040 33/12 Q1011 NOSIG=
LTCC 081050Z 16008KT CAVOK 40/02 Q1006 NOSIG=
LTCE 081050Z NIL=
LTCG 081050Z 08006KT 9999 SCT035 27/22 Q1011 NOSIG=
LTCI 081050Z 25007KT CAVOK 26/18 Q1016 NOSIG=
LTFE 081050Z 27019KT 9999 FEW035 33/14 Q1008 NOSIG=
####018000407####
SAAW31 KWBC 081030 RRB
METAR
LTAC 081050Z 06012KT 030V090 9999 SCT040 29/15 Q1012 NOSIG=
LTAF 081050Z /////KT 9999 SCT035 BKN100 31/20 Q1008 NOSIG=
LTAI 081050Z 17009KT 130V210 9999 SCT030 29/22 Q1008 NOSIG=
LTBA 081050Z 35021KT 9999 BKN035 24/15 Q1012 TEMPO TL1200 4000
     -TSRA=
LTBJ 081050Z 34017KT 310V020 CAVOK 30/15 Q1010 NOSIG=
LTBS 081050Z 19012KT 9999 FEW030 29/21 Q1008 NOSIG=
####018003684####
SAUS70 KWBC 081100 RRE
METAR
KFSE 081054Z AUTO 19004KT 10SM CLR 12/11 A3006 RMK AO2=
KFSW 081055Z AUTO 29004KT 7SM OVC002 22/20 A3005 RMK AO2=
KFXY 081055Z AUTO 00000KT 10SM CLR 16/15 A3012 RMK AO2=
KGGI 081055Z AUTO 00000KT 4SM CLR 20/19 A3008 RMK AO2 P0001=
KGOV 081055Z AUTO 20003KT 10SM OVC090 22/21 A3001 RMK AO2=
KHAF 081050Z AUTO 00000KT 10SM OVC006 12/10 A2993 RMK AO2=
KHAI 081055Z AUTO 00000KT 3SM BR CLR 21/21 A3005 RMK AO2=
KHNR 081055Z AUTO 00000KT 4SM CLR 17/17 A3016 RMK AO2=
KHYX 081055Z AUTO 26008KT 7SM -RA SCT055 SCT120 23/21 A3002 RMK
     AO2=
KICL 081055Z AUTO 01003KT 7SM CLR 21/18 A3011 RMK AO2=
KIFA 081055Z AUTO 32005KT 10SM SCT120 20/18 A3010 RMK AO2=
KIIB 081055Z AUTO 00000KT 5SM CLR 20/19 A3007 RMK AO1=
KIKV 081055Z AUTO 34009KT 10SM CLR 20/18 A3010 RMK AO2=
KIRS 081055Z AUTO 00000KT 3SM BR CLR 21/20 A3005 RMK AO2=
KISQ 081055Z AUTO 30005KT 10SM -RA SCT004 19/18 A2998 RMK AO2=
KJYG 081055Z AUTO 00000KT 10SM CLR 16/16 A3014 RMK AO2=
KJYM 081055Z AUTO 00000KT 4SM BR CLR 21/19 A3006 RMK AO2=
KLDM 081055Z AUTO 21005KT 7SM RA SCT029 SCT040 OVC090 22/21 A3001
     RMK AO2 P0003=
KLRJ 081055Z AUTO 00000KT 7SM SCT005 15/14 A3016 RMK AO2=
KLWA 081056Z AUTO 00000KT 4SM BR SCT046 SCT055 22/21 A3004 RMK
     AO2=
KMCD 081055Z AUTO 26004KT 7SM SCT013 BKN110 21/18 A2998 RMK
     AO2=
KMGN 081055Z AUTO 00000KT 7SM -RA SCT021 SCT028 OVC110 22/20 A2997
     RMK AO2=
KMOP 081054Z AUTO 22004KT 10SM OVC085 23/22 A3002 RMK AO2=
KMPZ 081055Z AUTO 31003KT 4SM OVC002 22/21 A3006 RMK AO2=
KMUT 081055Z AUTO 32005KT 7SM SCT006 OVC012 23/22 A3004 RMK
     AO2=
KMXO 081055Z AUTO 00000KT 5SM SCT005 SCT027 20/18 A3005 RMK
     AO2=
KMZH 081051Z AUTO 00000KT 10SM CLR 13/13 A3005 RMK AO2=
KO22 081055Z AUTO 00000KT 10SM CLR 16/12 A2991 RMK AO1=
KOEB 081055Z AUTO 00000KT 4SM BR CLR 21/19 A3006 RMK AO2=
KONZ 081057Z AUTO 00000KT 10SM CLR 24/21 A3003 RMK AO2=
KORB 081054Z AUTO 00000KT 10SM CLR 14/13 A3000 RMK AO2=
KORC 081055Z AUTO 33003KT 10SM CLR 16/16 A3016 RMK AO2=
KOSC 081054Z AUTO 00000KT 5SM BR CLR 22/21 A3000 RMK AO2=
KOWA 081054Z AUTO 31003KT 7SM CLR 16/16 A3009 RMK AO2 P0001=
KOXV 081055Z AUTO 35005KT 10SM CLR 21/20 A3008 RMK AO2=
KOZW 081055Z AUTO 25003KT 7SM CLR 23/21 A3005 RMK AO2=
KPEA 081055Z AUTO 34005KT 7SM CLR 19/19 A3008 RMK AO2=
KPHN 081055Z AUTO 00000KT 1 3/4SM BR VV007 20/20 A3003 RMK AO2=
KRDK 081055Z AUTO 01004KT 7SM SCT080 SCT100 20/17 A3012 RMK
     AO2=
KRGK 081054Z AUTO 00000KT 10SM CLR 18/17 A3007 RMK AO2=
KRMY 081055Z AUTO 00000KT 5SM BR CLR 21/19 A3005 RMK AO2=
KRNP 081055Z AUTO 28003KT 7SM CLR 24/21 A3004 RMK AO2=
KRQB 081054Z AUTO 21005KT 7SM DZ SCT025 SCT075 BKN100 22/21 A3004
     RMK AO2=
KSDA 081055Z AUTO 01004KT 5SM SCT005 21/19 A3012 RMK AO2=
KSHL 081055Z AUTO 00000KT 1/4SM FG VV002 14/13 A3018 RMK AO2=
KSJX 081055Z AUTO 25008KT 3SM BR OVC002 20/18 A2998 RMK AO2=
KSLH 081055Z AUTO 22004KT 10SM OVC110 22/21 A2996 RMK AO2=
KTNU 081055Z AUTO 33005KT 7SM CLR 21/18 A3009 RMK AO2=
KTTF 081053Z AUTO 00000KT 7SM CLR 23/21 A3003 RMK AO2=
KUKT 081055Z AUTO 00000KT 5SM CLR 22/21 A3005 RMK AO1=
KVLL 081054Z AUTO 23003KT 10SM CLR 25/21 A3006 RMK AO2=
KVWU 081051Z AUTO 26008KT 10SM CLR 18/14 A3003 RMK AO2=
KXVG 081056Z AUTO 24003KT 10SM CLR 16/14 A3005 RMK AO2=
KY70 081055Z AUTO 00000KT 1 1/4SM BR SCT002 SCT065 BKN110 22/22
     A3003 RMK AO2 T02240216=
KFMH 081055Z AUTO 16006KT 10SM FEW009 BKN019 22/20 A3011 RMK
     AO2=
KSGH 081056Z 00000KT 3SM BR CLR 21/21 A3011 RMK AO2 T02050205
     SLP187=
KFMH 081055Z AUTO 16006KT 10SM FEW009 BKN019 22/20 A3011 RMK
     AO2=
####018000516####
SAUS80 KWBC 081100 RRA
METAR
PHNY 081056Z AUTO 00000KT 10SM CLR 19/17 A3008 RMK AO2 TSNO
     T01880166 SLP166 $=
KBTR 081053Z 00000KT 6SM BR MIFG SCT003 BKN200 23/23 A3001 RMK AO2
     SLP160 T02330228 $=
KDAB 081053Z 33003KT 10SM FEW026 SCT150 21/20 A3000 RMK AO2 SLP158
     T02110200 $=
KFSD 081056Z 00000KT 10SM CLR 15/14 A3016 RMK AO2 SLP210 BKN ABV
     120 T01500139 $=
KPZQ 081055Z AUTO 22005KT 10SM BKN120 23/21 A2998 RMK AO2=
KVTI 081055Z AUTO 00000KT 4SM CLR 20/20 A3007 RMK AO2=
####018000557####
SAXX60 KWBC 081100 RRD
METAR
KNBG 081055Z AUTO 05003KT 6SM HZ CLR A3002 RMK AO2 SLP166 PWINO
     FZRANO $=
KNCA 081056Z AUTO 00000KT 5SM BR CLR 23/22 A2993 RMK AO2 SLP136
     T02330217=
KNFG 081056Z AUTO 00000KT 10SM OVC010 16/14 A2989 RMK AO2 SLP121
     T01560139 TSNO=
KNXX 081056Z 00000KT 3SM HZ CLR 24/21 A3005 RMK AO2 SLP177
     T02390206 $=
KPSM 081055Z 15006KT 7SM FEW012 SCT040 OVC075 23/21 A3007 RMK AO2A
     SLP185 T02280210=
PASV 081055Z AUTO 00000KT 10SM SCT037 SCT047 SCT070 09/07 A2996
     RMK AO1 T00890073=
####018000428####
SPUS70 KWBC 081102
SPECI
KELD 081059Z AUTO 00000KT 3SM BR BKN001 BKN080 23/23 A3005 RMK
     AO2=
KOKC 081059Z 36005KT 10SM BKN021 OVC080 23/22 A3005 RMK AO2=
KGLH 081059Z AUTO 00000KT 3/4SM BR CLR 22/22 A3005 RMK AO2=
KAMA 081100Z 36010KT 1SM OVC003 17/17 A3020 RMK AO2 SFC VIS 7
     $=
KAUG 081100Z AUTO VRB03KT 3SM BR OVC003 21/20 A3009 RMK AO2=
KFFT 081100Z AUTO 00000KT 3SM BR CLR 21/20 A3008 RMK AO2=
####018000493####
SACU31 MUHA 081100
METAR
MUHA 081055Z 04002KT 8000 FEW018 24/23 Q1013=
MUVR 081052Z 00000KT 8000 FEW020TCU 24/22 Q1014=
MUCL 081056Z 12003KT 9000 FEW015 27/26 Q1014=
MUCF 081052Z 07003KT 9999 FEW025 SCT200 23/22 Q1012=
MUSC 081052Z VRB02KT 9000 SCT080 23/21 Q1013=
MUCC 081052Z 00000KT 9000 FEW020 27/22 Q1013=
MUCM 081052Z 00000KT 9000 FEW020 BKN090 24/22 Q1014=
MUMZ  NIL=
MUHG 081051Z 18004KT 140V230 9000 FEW020 24/22 Q1015=
MUCU 081054Z 36002KT 9000 TS FEW018CB 24/23 Q1015=
####018000082####
SABZ21 SBJP 081100
METAR SBJP 081100Z 21005KT 9999 FEW020 SCT070 24/22 Q1016 =
####018000362####
SAUS70 KWBC 081100 RRF
METAR
PPIZ 081056Z AUTO 21010KT 10SM CLR 06/02 A3009 RMK AO2 TSNO
     T00610016 SLP192 $=
KASJ 081057Z AUTO 34003KT 2SM HZ BKN110 24/22 A2997 RMK AO2=
KEBS 081055Z AUTO 33004KT 10SM CLR 18/17 A3011 RMK AO2=
KIWA 081059Z AUTO 00000KT 10SM CLR 31/02 A2980 RMK AO2=
KTVK 081055Z AUTO 34006KT 10SM FEW009 20/20 A3008 RMK AO2=
####018000081####
SABZ20 SBCZ 081100
METAR SBCZ 081100Z 00000KT 8000 SCT030 SCT100 23/23 Q1012=
####018000346####
SPXX60 KWBC 081102
SPECI
KNGP 081053Z 10012G16KT 4SM +RA BR FEW011 SCT015 BKN033 28/26
     A2982 RMK AO2 RAB49 P0008 $=
KNGU 081055Z 09006KT 5SM BR FEW008 SCT070 BKN120 26/23 A2999 RMK
     AO2=
KWRI 081058Z AUTO 00000KT 1 1/2SM BR FEW001 24/24 A3001 RMK AO2
     SLP162 $=
KIAG 081100Z 21003KT 7SM FEW080 24/21 A3005 RMK AO2=
####018000401####
SAAW34 KWBC 081045 RRD
METAR
OPGD 081100Z NIL=
OPLA 081055Z 12994KT 6000 SCT040 37/23 Q1003 NOSIG=
OPNH 081100Z 36006KT 6000M SCT035 SCT100 38/25 Q.1002=
OPRN 081100Z 23016KT 9999 SCT040 39/18 Q1005.8=
OPSK 081055Z 13004KTS 6000 HZ FEW040 BKN100 35/25 QNH 1001 R.H.
     CHECK TEXT NEW ENDING ADDED VABBYFYX=
UTTT 081100Z 29004MPS 250V310 CAVOK 39/04 Q1010 R08R/CLRD70
     NOSIG=
####018000209####
SAXX60 KWBC 081100 CCB
METAR
KNJK 081056Z AUTO 13005KT 10SM CLR 23/12 A2969 RMK AO2 SLP070
     T02280122 TSNO=
K79J 081056Z AUTO 00000KT 10SM CLR 23/21 A3003 RMK AO2 SLP163
     T02330206 TSNO $=
####018000116####
SACA41 KWBC 081000 RRC
METAR
MUGM 080956Z 36007KT 9999 FEW040 SCT250 26/22 A2996 RMK SLP143
     T02560222=
####018003723####
SAUS70 KWBC 081100 RRD
METAR
KHUM 081050Z 03008KT 4SM SCT100 24/24 A3000=
KSFB 081053Z 36003KT 10SM CLR 21/21 A2999=
PADU 081058Z AUTO 12014G20KT 10SM OVC020 09/05 A2981 RMK AO2 RAE34
     SLP100 P0001 T00890050=
PAGA 081058Z AUTO 01005KT 10SM CLR 13/07 A3007 RMK AO2 SLP226
     T01330072=
PAJZ 081056Z AUTO 31003KT 10SM FEW035 BKN049 OVC070 10/09 A3001
     RMK AO2 PWINO TSNO T01000094 BKN V SCT SLP150 $=
PAKI 081056Z AUTO 00000KT 3SM BR CLR 08/08 A3002 RMK AO2 PWINO
     TSNO T00770077 SLP167 $=
PALG 081056Z AUTO 00000KT 10SM BKN065 BKN100 09/09 A3001 RMK AO2
     TSNO T00940088 BKN V OVC SLP163=
PARY 081056Z AUTO 35004KT 10SM CLR 15/06 A3006 RMK AO2 PWINO TSNO
     T01500055 SLP182=
PAWR 081058Z 07008G14KT 3SM -RA BR OVC010 12/12 A3008 RMK SLP186
     NOSPECI=
K4I3 081056Z AUTO 00000KT 4SM BR CLR 19/18 A3010 RMK AO2=
KACB 081055Z AUTO 00000KT 7SM -RA OVC090 23/21 A2998 RMK AO2=
KACQ 081059Z AUTO 29005KT 1SM BR VV007 15/13 A3013 RMK AO2=
KADC 081057Z AUTO 25004KT 10SM CLR 13/12 A3009 RMK AO2=
KAMN 081055Z AUTO 00000KT 5SM BR OVC090 22/22 A3002 RMK AO2=
KAQP 081054Z AUTO 22004KT 10SM CLR 13/13 A3012 RMK AO2=
KAUM 081055Z AUTO 32003KT 5SM BR CLR 17/16 A3009 RMK AO2=
KAWG 081055Z AUTO 29003KT 5SM OVC013 21/20 A3006 RMK AO2=
KAXA 081055Z AUTO 31003KT 10SM CLR 17/16 A3013 RMK AO2=
KBAX 081055Z AUTO 00000KT 4SM BR CLR 22/21 A3001 RMK AO2=
KBDH 081055Z AUTO 26003KT 5SM BR CLR 14/14 A3013 RMK AO2=
KBFW 081053Z AUTO 00000KT 10SM CLR 14/13 A3001 RMK AO2=
KBNW 081055Z AUTO 33006KT 10SM CLR 20/17 A3011 RMK AO2=
KBWD 081055Z AUTO 07003KT 10SM FEW020 SCT025 OVC038 23/23 A3002
     RMK AO2=
KCAD 081055Z AUTO 22006KT 10SM -RA BKN075 OVC110 22/20 A3003 RMK
     AO2=
KCAV 081055Z AUTO 32006KT 5SM CLR 18/17 A3011 RMK AO2=
KCBF 081055Z AUTO 36005KT 10SM CLR 20/15 A3014 RMK AO2=
KCBG 081055Z AUTO 00000KT 10SM CLR 16/14 A3008 RMK AO2=
KCCY 081055Z AUTO 32007KT 10SM CLR 19/16 A3008 RMK AO2=
KCDA 081055Z AUTO 00000KT 4SM HZ CLR 21/18 A3010 RMK AO2=
KCDD 081051Z AUTO 19003KT 10SM CLR 17/16 A3002 RMK AO2=
KCFE 081055Z AUTO 26004KT 10SM CLR 17/16 A3011 RMK AO2
     T01710155=
KCFS 081055Z AUTO 24005KT 7SM SCT060 21/21 A3003 RMK AO2=
KCIN 081055Z AUTO 32004KT 5SM HZ CLR 17/14 A3014 RMK AO2=
KCKC 081055Z AUTO 29004KT 10SM CLR 16/13 A3004 RMK AO2=
KCKN 081055Z AUTO 22003KT 10SM CLR 13/12 A3006 RMK AO2=
KCNB 081058Z AUTO 24007KT 10SM CLR 17/13 A3014 RMK AO2
     T01650132=
KCNC 081055Z AUTO 36007KT 10SM BKN045 20/18 A3008 RMK AO2=
KCOQ 081056Z AUTO 27005KT 10SM CLR 14/14 A3006 RMK AO2=
KCQM 081057Z AUTO 23003KT 10SM CLR 14/14 A3003 RMK AO2=
KCSQ 081055Z AUTO 01009KT 10SM SCT015 20/18 A3011 RMK AO2=
KCVX 081055Z AUTO 22004KT 10SM RA OVC100 21/20 A2999 RMK AO2=
KDEH 081055Z AUTO 00000KT 2SM BKN006 20/18 A3008 RMK AO2=
KDNS 081055Z AUTO 01003KT 10SM CLR 19/16 A3016 RMK AO2=
KDRM 081056Z AUTO 16004KT 1 1/2SM -RA OVC002 20/20 A2995 RMK
     AO2=
KDTL 081055Z AUTO 29003KT 10SM CLR 15/11 A3010 RMK AO2=
KDUH 081055Z AUTO 00000KT 10SM CLR 23/18 A3005 RMK AO2=
KDVP 081056Z AUTO 27004KT 10SM CLR 15/13 A3017 RMK AO2
     T01450126=
KEOK 081055Z AUTO 00000KT 5SM HZ CLR 22/18 A3005 RMK AO2=
KERY 081055Z AUTO 27003KT 1 1/2SM RA OVC003 20/19 A2998 RMK
     AO2=
KETH 081054Z AUTO 25006KT 10SM CLR 17/14 A3011 RMK AO2=
KFFL 081055Z AUTO 31003KT 10SM CLR 21/20 A3006 RMK AO2=
KFFX 081055Z AUTO 00000KT 3SM BR SCT055 BKN085 OVC090 22/22 A3001
     RMK AO2=
KFKS 081055Z AUTO 26003KT 7SM -RA BKN065 OVC090 22/20 A3000 RMK
     AO2=
KFOZ 081053Z AUTO 00000KT 3/4SM BR VV005 12/11 A3005 RMK AO2 VIS
     1/4V5=
KFPK 081056Z AUTO 00000KT 5SM BR CLR 22/20 A3003 RMK AO2=
####018000087####
SAIV20 DIAP 081100
METAR DIAP 081100Z 21008KT 7000 SCT012 BKN070 28/24 Q1015 NOSIG=
####018000188####
SAUS80 KWBC 081100 CCB
METAR
KN60 081052Z AUTO 00000KT 12/11 A3011 RMK AO1 SLP193 T01170106=
KRIC 081054Z 10006KT 4SM HZ SCT150 BKN250 26/21 A2999 RMK AO2
     SLP156 T02560211=
####018003698####
SAXX60 KWBC 081100 RRC
METAR
KRYT 081053Z AUTO 00000KT 5SM HZ CLR 22/17 A3004 RMK AO2 SLP155
     T02220172 $=
KNTU 081056Z 11007KT 10SM SCT005 SCT015 BKN035 BKN130 25/23 A2996
     RMK AO2 SLP149 T02500233 $=
KNGU 081059Z 11004KT 5SM BR FEW008 SCT070 BKN120 26/23 A2998 RMK
     AO2 SLP153 T02610233=
KDMA 081055Z AUTO 04009KT 10SM CLR 30/10 A2988 RMK AO2 SLP039
     T02980098 $=
KFAF 081055Z 00000KT 10SM FEW130 26/26 A2997 RMK AO2A SLP151
     T02620262=
KFFO 081055Z 00000KT 3SM BR CLR 21/20 A3009 RMK AO2A VIS SE-SW 1
     1/2 SLP183=
KHOP 081055Z AUTO 00000KT 10SM BKN100 24/22 A3008 RMK AO2 SLP180
     T02360220=
KNRS 081056Z AUTO 31005KT 10SM FEW007 OVC016 17/14 A2990 RMK AO2
     SLP123 T01670144 TSNO $=
KPSM 081055Z 15006KT 7SM FEW012 SCT040 OVC075 23/21 A3007 RMK AO2A
     SLP185 T02280210=
KSVN 081055Z 24004KT 10SM SKC 21/20 A2998 RMK SLP155=
KSZL 081055Z 10003KT 10SM SCT005 BKN030 22/22 A3004 RMK AO2A
     SLP168 T02230220 $=
PASY 081056Z AUTO 02017KT 10SM OVC006 A2974 RMK AO2 SLPNO TSNO
     PNO=
PMDY 081056Z AUTO 00000KT 10SM FEW029 25/20 A3011 RMK AO2 TSNO
     T02500200 402940233 SLP503=
KNFG 081056Z AUTO 00000KT 10SM OVC010 16/14 A2989 RMK AO2 SLP121
     T01560139 TSNO=
KNFL 081056Z AUTO 00000KT 10SM CLR 18/M01 A2998 RMK AO2 SLP124
     T01831006 TSNO=
KNGP 081056Z 09011KT 4SM +RA BR SCT013 BKN019 BKN033 28/27 A2982
     RMK AO2 RAB49 SLP096 P0009 T02780267 $=
KNKX 081055Z 33003KT 10SM OVC014 16/13 A2989 RMK AO2 SLP118
     T01610133=
KNTD 081056Z AUTO 28006KT 9SM OVC011 15/13 A2989 RMK AO2 SLP123
     T01500128 TSNO PNO VISNO N $=
KNXP 081056Z AUTO 29005KT CLR 23/00 A2991 RMK AO2 SLP089 T02330000
     $=
KNXX 081056Z 00000KT 3SM HZ CLR 24/21 A3005 RMK AO2 SLP177
     T02390206 $=
KNYL 081055Z AUTO 16003KT 10SM CLR 27/04 A2971 RMK AO2 SLP056
     T02670039=
KPOE 081055Z AUTO 07005KT 10SM FEW015 24/23 A3001 RMK AO2 SLP164
     T02390228=
KPOE 081055Z AUTO 07005KT 10SM FEW015 24/23 A3001 RMK AO2 SLP164
     T02390228=
KPSM 081055Z 15006KT 7SM FEW012 SCT040 OVC075 23/21 A3007 RMK AO2A
     SLP185 T02280210=
KSZL 081055Z 10003KT 10SM SCT005 BKN030 22/22 A3004 RMK AO2A
     SLP168 T02230220 $=
KVBG 081055Z AUTO 34003KT 10SM OVC004 12/11 A2993 RMK AO2 SLP125
     T01220111 TSNO $=
KDMA 081055Z AUTO 04009KT 10SM CLR 30/10 A2988 RMK AO2 SLP039
     T02980098 $=
KFAF 081055Z 00000KT 10SM FEW130 26/26 A2997 RMK AO2A SLP151
     T02620262=
KFFO 081055Z 00000KT 3SM BR CLR 21/20 A3009 RMK AO2A VIS SE-SW 1
     1/2 SLP183=
KFRI 081055Z AUTO 04003KT 9SM FEW006 SCT016 BKN160 21/21 A3010 RMK
     AO2 FEW V SCT SLP183 T02120212=
KGRK 081055Z 08005KT 7SM FEW009 BKN024 OVC030 26/24 A2998 RMK
     SLP128=
KHLR 081056Z AUTO 08004KT 10SM SCT009 BKN015 OVC023 25/ A2999 RMK
     AO2 SLP146 T0250 $=
KHOP 081055Z AUTO 00000KT 10SM BKN100 24/22 A3008 RMK AO2 SLP180
     T02360220=
KNBG 081055Z AUTO 05003KT 6SM HZ CLR A3002 RMK AO2 SLP166 PWINO
     FZRANO $=
KNCA 081056Z AUTO 00000KT 5SM BR CLR 23/22 A2993 RMK AO2 SLP136
     T02330217=
KNJK 081056Z AUTO 13005KT 10SM CLR 23/12 A2969 RMK AO2 SLP070
     T02280122 TSNO=
KNJK 081056Z AUTO 13005KT 10SM CLR 23/12 A2969 RMK AO2 SLP070
     T02280122 TSNO=
KNRS 081056Z AUTO 31005KT 10SM FEW007 OVC016 17/14 A2990 RMK AO2
     SLP123 T01670144 TSNO $=
KSVN 081055Z 24004KT 10SM SKC 21/20 A2998 RMK SLP155=
KNJM 081057Z AUTO 01004KT 5SM HZ CLR 26/22 A2993 RMK AO2 SLP137
     T02560222 $=
KDMA 081055Z AUTO 04009KT 10SM CLR 30/10 A2988 RMK AO2 SLP039
     T02980098 $=
KFAF 081055Z 00000KT 10SM FEW130 26/26 A2997 RMK AO2A SLP151
     T02620262=
####018000228####
SAUS70 KWBC 081102
METAR
PADM 081101Z AUTO 36003KT 10SM FEW032 SCT065 OVC100 11/09 A3005
     RMK AO2 TSNO T01050088 RAB1035E1044 P0000 SLP164 $=
KFKA 081103Z AUTO 32007KT 7SM CLR 18/18 A3009 RMK AO2
     T01810175=
####018000098####
SAGR31 KWBC 081050 RRB
METAR
LGAL 081050Z 03007KT 9999 FEW008 FEW020TCU BKN025 20/18 Q1015=
####018000084####
SPUS31 KWBC 081102
SPECI
KOKC 081059Z 36005KT 10SM BKN021 OVC080 23/22 A3005=
####018000087####
SAMM31 KWBC 081030 RRB
METAR
LCEN 081050Z 15015KT 9999 SCT025 33/18 Q1007 NOSIG=
####018000125####
SAMX41 KWBC 081045 RRE
METAR
MMAS 081040Z 00000KT 8SM SCT020 BKN070 OVC200 17/14 A3006 RMK
     8/537 HZ OCNL DROPS=
####018000208####
SAMX42 KWBC 081045 RRC
METAR
MMSP 081042Z 00000KT 8SM SCT010 BKN015 BKN080 17/17 A3013 RMK
     8/530 HZY MSGTX MMZC=
MMZC 081040Z 13005KT 8SM BKN030 BKN080 16/11 A3017 RMK 8/760 OCNL
     DROPS=
####018000130####
SANO41 KWBC 081050 RRA
METAR
ENBV 081050Z 09016KT 9999 SCT025 12/09 Q1016=
ENEK 081050Z 23014KT CAVOK 15/13 Q1015 W15/S3=
####018000978####
SAUK39 EGRR 081050 RRA
METAR EGOP 081050Z 22008KT 9999 FEW020 BKN100 18/13 Q1018 BLU=
METAR EGOV 081050Z 21013KT 9999 FEW014 BKN090 17/13 Q1017 BLU NOSIG=
METAR EGQA 081050Z 18019KT 9999 VCSH FEW018 SCT050 15/// Q1009 BLU=
METAR EGQL 081050Z 24020KT 9999 FEW030 SCT060 18/08 Q1012 BLU NOSIG=
METAR EGQS 081050Z 23019KT 9999 FEW035 SCT050 18/08 Q1009 BLU NOSIG=
METAR EGUB 081050Z 22006KT 9999 BKN026 SCT120 21/16 Q1018 BLU NOSIG=
METAR EGUY 081050Z 25008KT 9999 FEW050 SCT120 BKN150 20/10 Q1018
BLU=
METAR EGXC 081050Z 21013KT 9999 FEW030 BKN250 20/10 Q1017 BLU NOSIG=
METAR EGXE 22012KT 9999 FEW035 SCT060 BKN180 19/12 Q1016 BLU NOSIG=
METAR EGXJ 081050Z 23011KT 9999 FEW030 SCT250 19/07 Q1017 BLU=
METAR EGXU 081050Z 23011 9999 FEW039 SCT150 19/09 Q1016 BLU NOSIG=
METAR EGXX 081050Z AUTO 22009KT 9999NDV // NCD ///// Q////=
METAR EGXZ 081050Z 25011KT 9999 FEW040 SCT050 19/09 Q1016 BLU=
METAR EGYH 081050Z 24010KT 9999 FEW040 20/// Q1018 BLU=
####018000129####
SAUK31 KWBC 081050 RRA
METAR
EGNH 081050Z 23011KT 9999 SCT024 19/11 Q1017=
EGNJ 081050Z 22012KT 9999 SCT035 20/11 Q1017=
####018000272####
SAUK41 KWBC 081050 RRC
METAR
EGAE 081050Z 21013KT 9999 FEW018 SCT040 17/11 Q1013=
EGBE 081050Z NIL=
EGDL 081050Z 23007KT 9999 FEW022 BKN250 19/11 Q1019 NOSIG=
EGDM 081050Z NIL=
EGDY 081050Z NIL=
EGNC 081050Z 23016KT 200V270 9999 FEW020 SCT025 18/10 Q1015=
####018000168####
SAUK42 KWBC 081050 RRC
METAR
EGOV 081050Z NIL=
EGPE 081050Z 23017KT 9999 VCSH FEW012 SCT036 15/10 Q1009=
EGPN 081050Z 23015KT 9999 FEW028 SCT045 17/11 Q1012=
####018000115####
SAXX99 KWBC 081000 RRX
METAR
MMLO 081042Z 16003KT 7SM BKN025 OVC070 18/18 A3009 RMK 8/77/ OCNL
     DROPS=
####018000124####
SAUS41 KPHI 081102
MTRNEL
METAR KNEL 081100Z AUTO 11006KT 2 1/2SM HZ OVC005 25/22 A3003 RMK 
AO2 SLP168 T02500222 $
####018000091####
SPUS52 KWBC 081102
SPECI
KELD 081059Z AUTO 00000KT 3SM BR BKN001 BKN080 23/23 A3005=
####018000362####
SATU32 LTAA 081050
METAR LTAN 081050Z 07005KT 9999 SCT040 31/13 Q1011 NOSIG=
METAR LTAU 081050Z VRB02KT 9999 FEW040 33/12 Q1011 NOSIG=
METAR LTBR 081050Z 33016KT 9999 SCT035 BKN100 28/17 Q1011 TEMPO FM1200 -TSRA=
METAR LTBU 081050Z 30011KT 9999 SCT030 BKN100 20/13 Q1014=
METAR LTCC 081050Z 16008KT CAVOK 40/02 Q1006 NOSIG=
METAR LTCE 081050Z NIL=
####018000959####
SATU31 LTAA 081050
METAR LTAC 081050Z 06012KT 030V090 9999 SCT040 29/15 Q1012 NOSIG=
METAR LTAF 081050Z /////KT 9999 SCT035 BKN100 31/20 Q1008 NOSIG=
METAR LTAI 081050Z 17009KT 130V210 9999 SCT030 29/22 Q1008 NOSIG=
METAR LTAJ 081050Z 24009KT 180V280 CAVOK 37/11 Q1007 NOSIG=
METAR LTAZ 081050Z VRB04KT 9999 FEW040 33/13 Q1010=
METAR LTBA 081050Z 35021KT 9999 BKN035 24/15 Q1012 TEMPO TL1200 4000 -TSRA=
METAR LTBJ 081050Z 34017KT 310V020 CAVOK 30/15 Q1010 NOSIG=
METAR LTBS 081050Z 19012KT 9999 FEW030 29/21 Q1008 NOSIG=
METAR LTCF 081050Z 10012KT 9999 SCT035 30/08 Q1018=
METAR LTCG 081050Z 08006KT 9999 SCT035 27/22 Q1011 NOSIG=
METAR LTCI 081050Z 25007KT CAVOK 26/18 Q1016 NOSIG=
METAR LTCS 081050Z 13010KT 100V180 CAVOK 37/01 Q1009=
METAR LTFE 081050Z 27019KT 9999 FEW035 33/14 Q1008 NOSIG=
METAR LTFH 081050Z 04009KT 360V060 9999 SCT036 BKN100 27/23 Q1010 NOSIG=
METAR LTFJ 081050Z 01018KT 9999 BKN030 23/17 Q1011 NOSIG=
####018000092####
SASR31 WSAP 081100
METAR WSAP 081100Z 21004KT 9999 
FEW016 SCT150 BKN300 30/24 Q1008=
####018000428####
SACN60 CWAO 081000 RRF
PCC SA 1000 AUTO8 M M M M/13/11/0902/M/ M 95MM=
PDA SA 1000 AUTO8 M M M M/12/10/MMMM/M/ M 25MM=
PDU SA 1000 AUTO8 M M M M/13/11/MMMM/M/ M 20MM=
PEB SA 1000 AUTO8 M M M M/11/09/MMMM/M/ M 69MM=
PGI SA 1000 AUTO8 M M M M/11/10/2103/M/ M 34MM=
PHR SA 1000 AUTO8 M M M M/08/07/0000/M/ M 02MM=
PLF SA 1000 AUTO8 M M M M/15/11/MMMM/M/ M 34MM=
PSL SA 1000 AUTO8 M M M M/14/12/MMMM/M/ M 86MM=

####018000084####
SACN95 CWAO 081000 RRE
WTD SA 1000 AUTO8 M M M 118/07/07/0107/M/M M002 00MM=

####018000278####
SACN59 CWAO 081000 RRJ
PEA SA 1000 AUTO8 M M M M/13/11/MMMM/M/ M 73MM=
PSD SA 1000 AUTO8 M M M M/12/09/MMMM/M/ M 74MM=
PSP SA 1000 AUTO8 M M M M/10/08/MMMM/M/ M 52MM=
PTU SA 1000 AUTO8 M M M M/11/10/MMMM/M/ M 42MM=
PWB SA 1000 AUTO8 M M M M/11/08/MMMM/M/ M 31MM=

####018000082####
SACN91 CWAO 081000 RRE
WHI SA 1000 AUTO8 M M M M/12/09/2209/M/0007 M 93MM=

####018000104####
SACN90 CWAO 081000 RRG
WFX SA 1000 AUTO8 M M M 139/09/07/3214/M/M PK WND 3221 0919Z 1015
40MM=

####018000078####
SACN98 CWAO 081000 RRG
XBW SA 1000 AUTO8 M M M M/11/10/2303/M/ M 88MM=

####018000084####
SACN92 CWAO 081000 RRG
WLG SA 1000 AUTO8 M M M 186/10/08/2904/M/M 2016 14MM=

####018000097####
SACN47 CWAO 081000 RRB
METAR CYRJ 081000Z 26003KT 12SM FEW045 22/19 A2998 RMK SC2 SLP150=

####018000078####
SACN93 CWAO 081000 RRG
WOV SA 1000 AUTO8 M M M M/13/10/1404/M/ M 97MM=

####018000119####
SACN48 CWAO 081000 RRA
METAR CYMT 081000Z 08004KT 15SM FEW045 FEW070 SCT200 18/17 A3001 RMK
CU1AC2CI0 SLP161=

####018001615####
SAZZ40 KAWN 081100 RRJ
METAR KCVS 081055Z 01007KT 10SM BKN120 16/15 A3020 RMK AO2A SLP184
      T01600150 $=
METAR KNBC 081056Z 25003KT 7SM CLR 24/19 A2998 RMK AO2 SLP152 T02390194=
METAR KNID 081056Z AUTO 18007KT FEW090 22/04 A2985 RMK AO2 SLP083 T02170039
      TSNO $=
METAR KNLC 081056Z AUTO 30007KT 10SM CLR 17/11 A2982 RMK AO2 SLP095
      T01720106 TSNO $=
METAR KNTU 081056Z 11007KT 10SM SCT005 SCT015 BKN035 BKN130 25/23 A2996
      RMK AO2 SLP149 T02500233 $=
METAR KNUQ 081056Z AUTO 01005KT 10SM OVC011 15/12 A2992 RMK AO2 SLP135
      T01500117 TSNO=
METAR KNUW 081056Z 00000KT 10SM CLR 13/11 A2997 RMK AO2 SLP152 T01330106
      $=
METAR KNYL 081055Z AUTO 16003KT 10SM CLR 27/04 A2971 RMK AO2 SLP056
      T02670039=
METAR MUCF 081052Z 07003KT 9999 FEW025 SCT200 23/22 Q1012=
METAR MUCL 081056Z 12003KT 9000 FEW015 27/26 Q1014=
METAR MUCM 081052Z 00000KT 9000 FEW020 BKN090 24/22 Q1014=
METAR MUCU 081054Z 36002KT 9000 TS FEW018CB 24/23 Q1015=
METAR MUHA 081055Z 04002KT 8000 FEW018 24/23 Q1013=
METAR MUHG 081051Z 18004KT 140V230 9000 FEW020 24/22 Q1015=
METAR MUVR 081052Z 00000KT 8000 FEW020TCU 24/22 Q1014=
METAR OLBA 081100Z 24008KT 210V290 8000 FEW080 29/20 Q1011 NOSIG=
METAR PAGA 081058Z AUTO 01005KT 10SM CLR 13/07 A3007 RMK AO2 SLP226
      T01330072=
METAR PHBK 081056Z AUTO 00000KT 10SM BKN050 BKN080 24/18 A3002 RMK
      AO2 SLP168 T02440178 TSNO $=
METAR TBPB 081100Z 08021KT 9999 BKN014 29/24 Q1013 NOSIG=
METAR TLPC 081100Z 09008KT 9999 SCT023 SCT270 29/26 Q1014=
METAR TLPL 081100Z 08018KT 9999 SCT026 BKN300 29/23 Q1014=
####018000158####
SAJD20 OJAM 081100
METAR OJAI 081100Z 28009KT CAVOK 32/02 Q1012 NOSIG=
METAR OJAM 081100Z 23006KT 6000 NSC 32/01 Q1012 NOSIG=
METAR OJAQ 081100Z NIL=
####018000158####
SAJD31 OJAI 081100
METAR OJAI 081100Z 28009KT CAVOK 32/02 Q1012 NOSIG=
METAR OJAM 081100Z 23006KT 6000 NSC 32/01 Q1012 NOSIG=
METAR OJAQ 081100Z NIL=
####018000199####
SASQ31 LZIB 081100
METAR LZIB 081100Z 01008KT 290V070 CAVOK 24/07 Q1022=
METAR LZKZ 081100Z 36009KT 310V030 CAVOK 23/09 Q1021 NOSIG=
METAR LZTT 081100Z VRB02KT 9999 FEW040 21/08 Q1022 NOSIG=
####018000181####
SASQ41 LZIB 081100
METAR LZPP 081100Z 33007KT 270V020 CAVOK 23/11 Q1022=
METAR LZSL 081100Z 07005KT 020V120 CAVOK 24/09 Q1021=
METAR LZZI 081100Z 33003KT CAVOK 22/06 Q1022=
####018000083####
SAHU31 LHBM 081100
METAR LHBP 081100Z 22009KT 180V270 CAVOK 23/10 Q1021 NOSIG=
####018000096####
SAFG20 SOCA 081100
METAR SOCA 081100Z 00000KT 6000 -SHRA FEW003 SCT016 25/24 Q1013
NOSIG=
####018000081####
SABR31 TBPB 081100
METAR TBPB 081100Z 08021KT 9999 BKN014 29/24 Q1013 NOSIG=
####018000084####
SPUS72 KWBC 081102
SPECI
KOKC 081059Z 36005KT 10SM BKN021 OVC080 23/22 A3005=
####018000481####
SACH72 SCSC 081100
METAR
SCEL 081100Z 04005KT 020V090 4000 BR SCT130 02/01 Q1021 NOSIG=
SCIE 081100Z 29012KT 5000 -SHRA BKN006 OVC007 13/11 Q1019=
SCTC 081100Z 27007KT 9999 BKN012 OVC025 10/09 Q1014 RESHRA=
SCTE 081100Z 27004KT 6000 VCSH BKN025 08/07 Q1010 NOSIG=
SCMK NIL=
SCON NIL=
SCFT 081100Z AUTO 27003KT 200V290 9999 RA ///019 02/01 Q1004=
SCBA 081100Z AUTO 28012KT CAVOK M02/M04 Q1001=
SCCI 081100Z 36012KT 9999 SCT025 M03/M05 Q0987 NOSIG=
SCRM NIL=
####018000101####
SPAU31 AMMC 081102
SPECI YBRM 081100Z 36004KT 3600 -SHRA SCT017 SCT025 OVC031 23/23 Q1012=


####018000095####
SPAU31 AMMC 081102
SPECI YBRM 081100Z 36004KT 3600 -SHRA SCT017 SCT025 OVC031 23/23 Q1012=
####018000101####
SASR31 WSSL 081100
METAR WSSL 081100Z 24004KT 9999 FEW018 BKN280 29/23 Q1009 RMK 1030Z
Q1008 =
####018000080####
SAMZ40 FQMA 081100
METAR
FQLC 081100Z 12005KT 9999 SCT014 19/09 Q1026=

####018000080####
SAMZ40 FQMA 081100
METAR
FQCH 081100Z /////KT 9999 BKN017 20/10 Q1029=

####018000078####
SAMZ40 FQMA 081100
METAR FQQL 081100Z 15010KT 9999 SCT020 26/19 Q1023=

####018000115####
SANA35 KAWN 081000 RRF
METAR MUGM 080956Z 36007KT 9999 FEW040 SCT250 26/22 A2996 RMK SLP143
      T02560222=
####018000800####
SAXX70 KAWN 081100 RRG
METAR KQA7 081055Z AUTO 16007KT 9000 DU HZ FEW180 40/M02 A2991 RMK
      AO2 SLP006 T03991018=
METAR KQAE 081055Z 33009G17KT 9000 HZ CLR 44/08 A2963 RMK SLP030=
METAR KQBR 081055Z AUTO 23003KT 12SM FEW050 SCT140 27/13 A2999 RMK
      AO2 SLP055 T02650131=
METAR KQBS 081055Z 32015G20KT 6000 BLDU FEW000 SCT020 49/M01 A2946
      RMK DU FEW000 SCT020 SLP983 WND/ALSTG/SLP/QNH ESTMD QNH997=
METAR KQIR 081055Z 03006KT 8000 HZ CLR 41/26 A2950 RMK AO2A SLP987
      T04120257=
METAR KQRY 081055Z AUTO 35008G14KT 9999 CLR 30/02 A3011 RMK AO2 SLP060
      T03040020 PWINO $=
METAR KQSR 081055Z 32010G17KT 9999 FEW100 SCT160 30/M03 A3014 RMK AO2A
      SLP070 WND DATA/ALSTG ESTMD=
METAR KQW3 081055Z AUTO VRB03KT 9999 SCT150 35/15 A2978 RMK AO2 SLP990=
####018000115####
SAZZ40 KAWN 081000 RRW
METAR MUGM 080956Z 36007KT 9999 FEW040 SCT250 26/22 A2996 RMK SLP143
      T02560222=
####018000075####
SAAT31 TKPN 081100
METAR TKPN 081100Z 10012KT 9999 BKN016 29/25 Q1015=
####018000191####
SARW20 HRYR 081100
METAR
HRYR 081100Z 16008KT 9999 BKN030 25/12 Q1021 NOSIG=
HRZA 081100Z 15016KT 9999 SCT024 24/11 Q1022 NOSIG=
HRYG 081100Z 18010KT 9999 SCT025 24/12 Q1021 NOSIG=
####018000110####
SPXX70 KAWN 081000 RRB
SPECI KQAY 081054Z AUTO 01015G29KT 2900 HZ CLR 48/ A2953 RMK AO2 SLP994
      $=
####018000581####
SAMC32 GMMC 081100
METAR GMFF 081100Z 32004KT 8000 FEW033 SCT100 30/19 Q1018 NOSIG=
METAR GMFM 081100Z 30004KT 6000 SKC 28/19 Q1018=
METAR GMFO 081100Z 20012KT CAVOK 42/10 Q1018 NOSIG=
METAR GMMC 081100Z 02003KT 5000 SCT016 BKN026 24/19 Q1013=
METAR GMMH 081100Z 02019KT 6000 BKN010 22/17 Q1014=
METAR GMML 081100Z 03017KT 9999 SCT020 BKN200 25/17 Q1016=
METAR GMMW 081100Z 06013KT CAVOK 30/19 Q1017=
METAR GMMZ 081100Z 12013KT 9999 FEW040 FEW050TCU 38/01 Q1024=
METAR GMTA 081100Z 36008KT CAVOK 25/19 Q1016=
METAR GMFK 081100Z NIL=
METAR GMTN 081100Z NIL=
####018000439####
SAMC31 GMMC 081100
METAR GMAD 081100Z 27008KT 8000 SCT020 28/18 Q1014 NOSIG=
METAR GMFF 081100Z 32004KT 8000 FEW033 SCT100 30/19 Q1018 NOSIG=
METAR GMME 081100Z 35007KT 320V020 6000 SCT010 BKN015 24/19 Q1016
NOSIG=
METAR GMMN 081100Z 35009KT 310V020 9999 SCT016 BKN023 27/19 Q1017
NOSIG=
METAR GMMX 081100Z 33007KT 7000 FEW026 32/15 Q1016 NOSIG=
METAR GMTT 081100Z 28008KT 240V310 8000 SCT016 SCT100 25/20 Q1016
NOSIG=
####018001787####
SAEU KAWN 081100 RRJ
METAR EGAE 081050Z 21013KT 9999 FEW018 SCT040 17/11 Q1013=
METAR EGNC 081050Z 23016KT 200V270 9999 FEW020 SCT025 18/10 Q1015=
METAR EGNH 081050Z 23011KT 9999 SCT024 19/11 Q1017=
METAR EGNJ 081050Z 22012KT 9999 SCT035 20/11 Q1017=
METAR EGOP 081050Z 22008KT 9999 FEW020 BKN100 18/13 Q1018 BLU=
METAR EGPE 081050Z 23017KT 9999 VCSH FEW012 SCT036 15/10 Q1009=
METAR EGPN 081050Z 23015KT 9999 FEW028 SCT045 17/11 Q1012=
METAR EGQA 081050Z 18019KT 9999 VCSH FEW018 SCT050 15/// Q1009 BLU=
METAR EGXU 081050Z 23011 9999 FEW039 SCT150 19/09 Q1016 BLU NOSIG=
METAR EGYM 081050Z 25011KT 9999 FEW040 SCT110 BKN150 20/11 Q1018 BLU
      NOSIG=
METAR ENBV 081050Z 09016KT 9999 SCT025 12/09 Q1016=
METAR ENEK 081050Z 23014KT CAVOK 15/13 Q1015 W15/S3=
METAR LBBG 081100Z 32005MPS 9999 BKN026 BKN035 19/15 Q1015 NOSIG=
METAR LBGO 081100Z VRB01MPS 8000 RA BKN020 OVC060 15/14 Q1017 NOSIG=
METAR LBPD 081100Z 26005MPS 9999 -RA SCT040 OVC060 17/13 Q1017 NOSIG=
METAR LBSF 081100Z 28005MPS 250V310 9999 BKN036 18/12 Q1018 NOSIG=
METAR LBWN 081100Z 27006MPS 240V300 9999 FEW024 BKN027 19/15 Q1014
      NOSIG=
METAR LDDU 081100Z VRB07KT 9999 FEW043 28/07 Q1018 NOSIG=
METAR LDPL 081100Z 07004KT 350V130 CAVOK 27/09 Q1022 NOSIG=
METAR LDRI 081100Z 28005KT 240V320 9999 FEW047 25/10 Q1022 NOSIG=
METAR LDSP 081100Z 23010KT 200V260 CAVOK 28/06 Q1020 NOSIG=
METAR LDZA 081100Z VRB06KT CAVOK 25/08 Q1022 NOSIG=
METAR LDZD 081100Z VRB09KT CAVOK 27/04 Q1021 NOSIG=
METAR LGAL 081050Z 03007KT 9999 FEW008 FEW020TCU BKN025 20/18 Q1015=
METAR LIYW 081055Z AUTO 21011KT 9999 CLR 25/15 A3020 RMK AO2 SLP224
      T02530146=
METAR LZIB 081100Z 01008KT 290V070 CAVOK 24/07 Q1022=
METAR LZTT 081100Z VRB02KT 9999 FEW040 21/08 Q1022 NOSIG=
####018001880####
SAUK KAWN 081100 RRB
METAR EGAE 081050Z 21013KT 9999 FEW018 SCT040 17/11 Q1013=
METAR EGBJ 081050Z 25006KT 190V290 9999 FEW035 21/10 Q1018=
METAR EGNC 081050Z 23016KT 200V270 9999 FEW020 SCT025 18/10 Q1015=
METAR EGNH 081050Z 23011KT 9999 SCT024 19/11 Q1017=
METAR EGNJ 081050Z 22012KT 9999 SCT035 20/11 Q1017=
METAR EGOP 081050Z 22008KT 9999 FEW020 BKN100 18/13 Q1018 BLU=
METAR EGOV 081050Z 21013KT 9999 FEW014 BKN090 17/13 Q1017 BLU NOSIG=
METAR EGPA 081050Z 21012KT 9999 -SHRA FEW020 SCT045 16/10 Q1007=
METAR COR EGPB 081050Z 20014KT 9999 FEW012 15/11 Q1007 NOSIG=
METAR EGPC 081050Z 20016KT 9999 FEW020 16/11 Q1008=
METAR EGPE 081050Z 23017KT 9999 VCSH FEW012 SCT036 15/10 Q1009=
METAR EGPL 081050Z 22021KT 9999 VCSH FEW018 15/12 Q1007=
METAR COR EGPM 081050Z 22024KT 9999 SCT030 16/10 Q1005 NOSIG=
METAR EGPN 081050Z 23015KT 9999 FEW028 SCT045 17/11 Q1012=
METAR EGPO 081050Z 20023G35KT 9999 VCSH FEW014CB SCT030 15/11 Q1006=
METAR EGPU 081050Z 22018KT 9999 VCSH SCT020 16/13 Q1010=
METAR EGQA 081050Z 18019KT 9999 VCSH FEW018 SCT050 15/// Q1009 BLU=
METAR EGQS 081050Z 23019KT 9999 FEW035 SCT050 18/08 Q1009 BLU NOSIG=
METAR EGSC 081050Z 22005KT 150V270 9999 FEW020 SCT030 20/15 Q1018=
METAR COR EGSH 081050Z 24008KT 9999 SCT012 SCT019 22/15 Q1018 NOSIG=
METAR EGUB 081050Z 22006KT 9999 BKN026 SCT120 21/16 Q1018 BLU NOSIG=
METAR EGXC 081050Z 21013KT 9999 FEW030 BKN250 20/10 Q1017 BLU NOSIG=
METAR EGXE 081050Z 22012KT 9999 FEW035 SCT060 BKN180 19/12 Q1016 BLU
      NOSIG=
METAR EGXJ 081050Z 23011KT 9999 FEW030 SCT250 19/07 Q1017 BLU=
METAR EGXU 081050Z 23011 9999 FEW039 SCT150 19/09 Q1016 BLU NOSIG=
METAR EGXX 081050Z AUTO 22009KT 9999NDV // NCD ///// Q////=
METAR EGXZ 081050Z 25011KT 9999 FEW040 SCT050 19/09 Q1016 BLU=
METAR EGYM 081050Z 25011KT 9999 FEW040 SCT110 BKN150 20/11 Q1018 BLU
      NOSIG=
####018002504####
SAUS20 KNKA 081102
METAR KRIC 081054Z 10006KT 4SM HZ SCT150 BKN250 26/21 A2999 RMK
     AO2 SLP156 T02560211=
METAR K0R3 081059Z AUTO 07003KT 7SM BKN005 25/25 A2999 RMK AO2=
METAR K1A5 081100Z AUTO 00000KT M1/4SM FG OVC001 16/15 A3016 RMK 
     AO2 T01630151=
METAR K3I2 081100Z AUTO 00000KT 1 1/2SM BR OVC001 18/18 A3009 RMK 
     AO2=
METAR K3J7 081059Z AUTO 00000KT 7SM CLR 22/21 A3000 RMK AO2=
METAR K47A 081100Z AUTO 00000KT 5SM BR CLR 19/17 A3007 RMK AO2 
     LTG DSNT SW T01930173=
METAR KACP 081059Z AUTO 00000KT 5SM BR CLR 24/24 A3001 RMK AO2=
METAR KAVC 081100Z AUTO 00000KT 4SM HZ CLR 25/20 A3004 RMK AO2=
SPECI KAZO 081101Z 00000KT 3SM BR CLR 22/21 A3005 RMK AO2 $=
METAR KBCB 081100Z AUTO 00000KT 4SM BR SCT070 OVC085 23/22 A3015 
     RMK AO2=
METAR KBIJ 081100Z AUTO 00000KT 10SM CLR 19/ A3003 RMK AO2=
METAR KBQP 081107Z AUTO 00000KT 3SM BR CLR 24/24 A3005 RMK AO2=
METAR KCPK 081100Z AUTO 05003KT 5SM HZ SCT110 25/22 A2998 RMK AO2=
METAR KCTZ 081100Z AUTO 00000KT 5SM HZ CLR 24/21 A2994 RMK AO2=
METAR KDPL 081100Z AUTO 00000KT 7SM CLR 24/22 A2994 RMK AO2=
METAR KEDE 081056Z AUTO 05003KT 1 1/2SM BR 24/23 A2996 RMK AO2=
METAR KFQD 081059Z AUTO 00000KT 10SM CLR 21/17 A3005 RMK AO2=
METAR KHBI 081101Z AUTO 00000KT 10SM SCT100 23/17 A3003 RMK AO2=
SPECI KHFD 081101Z 14003KT 3SM BR OVC008 25/23 A3005 RMK AO2=
METAR KHRJ 081101Z AUTO 00000KT 5SM HZ SCT120 25/21 A2996 RMK AO2=
SPECI KHUL 081101Z AUTO 20006KT 4SM BR BKN009 21/19 A3003 RMK AO2=
METAR KJNX 081059Z AUTO 00000KT 4SM CLR 22/22 A2995 RMK AO2=
METAR KJYL 081101Z AUTO 00000KT 10SM CLR 23/21 A3000 RMK AO2=
METAR KLWB 081100Z AUTO 00000KT 3SM BR 20/18 A3017 RMK AO2=
SPECI KMGJ 081101Z AUTO 00000KT 3SM BR BKN100 23/21 A3005 RMK AO2=
METAR KMQI 081056Z AUTO 07010KT 10SM SCT011 26/24 A2996 RMK AO2=
SPECI KMTH 081101Z AUTO 00000KT 2 1/2SM -RA BR BKN021 BKN039 OVC060 
    26/24 A2993 RMK AO2 LTG DSNT NE P0001 $=
METAR KMWK 081102Z AUTO 00000KT 5SM HZ CLR 24/19 A3006 RMK AO2=
SPECI KOWD 081101Z 16005KT 10SM FEW009 BKN018 23/19 A3009 RMK AO2=
METAR KPGV 081100Z AUTO 03004KT 3SM BR CLR 23/22 A2997 RMK AO2=
METAR KTNB 081101Z AUTO 00000KT 7SM CLR 16/14 A3021 RMK AO2=
SPECI KTXK 081102Z 00000KT 3/4SM BR VV001 23/23 A3005 RMK AO2=
METAR KUKF 081101Z AUTO 00000KT 7SM CLR 21/18 A3008 RMK AO1=
METAR KUNV 081100Z AUTO 00000KT 5SM BR CLR 20/19 A3010 RMK AO2 
     T02020185=
METAR KW99 081059Z AUTO 00000KT 4SM HZ SCT080 21/17 A3010 RMK AO2=
####018000118####
SAAK41 KNKA 081102
METAR PAVC 081056Z AUTO 00000KT 10SM 04/04 A2994 RMK AO2 PWINO TSNO 
    T00440044 SLP141 $=
####018000075####
SACN50 CWAO 081045
VOM SA 1045 AUTO8 M M M M/20/10/2601/M/M M 48MM=

####018000075####
SACN50 CWAO 081045
VOK SA 1045 AUTO8 M M M M/15/06/0701/M/M M 73MM=

####018000074####
SACN50 CWAO 081045
VOJ SA 1045 AUTO8 M M M M/17/M/0504/M/M M 9MMM=

####018000075####
SACN50 CWAO 081015
VOM SA 1015 AUTO8 M M M M/21/09/3101/M/M M 83MM=

####018000075####
SACN50 CWAO 081030
VOM SA 1030 AUTO8 M M M M/21/09/2302/M/M M 92MM=

####018000108####
SASR31 WSSS 081100
METAR WSSS 081100Z 21004KT 160V250 9999 FEW016 FEW018TCU BKN280 29/25
Q1009 NOSIG=
####018000399####
SASD31 OEJD 081100
METAR OEDF 081100Z 36016KT CAVOK 45/03 Q0999 NOSIG=
METAR OEDR 081100Z 02011KT 8000 SKC 43/09 Q0998 NOSIG=
METAR OEJN 081100Z 33010KT CAVOK 38/25 Q1001 NOSIG=
METAR OEMA 081100Z 06012KT 9999 FEW045 46/M01 Q1005 NOSIG=
METAR OERK 081100Z 36017G29KT 5000 BLDU SKC 43/M03 Q1006 NOSIG=
METAR OERY 081100Z 03018KT 3000 SA SKC 44/00 Q1007 NOSIG=
METAR OYSN 081100Z NIL=
####018000091####
SAAJ31 UBBB 081100
METAR UBBL 081100Z 14006KT 9999 NSC 34/16 Q1010 NOSIG RMK G/O SC07=
####018000540####
SAER32 OMAE 081100
METAR OMAA 081100Z 03006KT 290V100 CAVOK 43/15 Q0998 A2948 NOSIG=
METAR OMAD 081100Z 27004KT CAVOK 44/18 Q0998 A2949=
METAR OMAL 081100Z 27004KT 210V350 7000 TS FEW045CB 42/25 Q1001
                   A2956=
METAR OMDB 081100Z 33015KT 280V350 7000 NSC 40/24 Q0999 NOSIG=
METAR OMDW 081100Z 32015KT 8000 NSC 43/20 Q0999 NOSIG=
METAR OMFJ 081100Z 11009KT 040V140 7000 FEW020 35/27 Q1001 A2956=
METAR OMRK 081100Z 34010KT CAVOK 42/32 Q0998 A2948=
METAR OMSJ 081100Z 33012KT 290V360 6000 NSC 41/25 Q0999=
####018000075####
SABZ24 SBPK 081100
METAR SBPK 081100Z 28006KT 9999 FEW020 09/07 Q1020=
####018001913####
SAUS99 KWBC 081103
METAR
PAVC 081056Z AUTO 00000KT 10SM 04/04 A2994 RMK AO2 PWINO TSNO
     T00440044 SLP141 $=
KRIC 081054Z 10006KT 4SM HZ SCT150 BKN250 26/21 A2999 RMK AO2
     SLP156 T02560211=
K0R3 081059Z AUTO 07003KT 7SM BKN005 25/25 A2999 RMK AO2=
K1A5 081100Z AUTO 00000KT M1/4SM FG OVC001 16/15 A3016 RMK AO2
     T01630151=
K3I2 081100Z AUTO 00000KT 1 1/2SM BR OVC001 18/18 A3009 RMK
     AO2=
K3J7 081059Z AUTO 00000KT 7SM CLR 22/21 A3000 RMK AO2=
K47A 081100Z AUTO 00000KT 5SM BR CLR 19/17 A3007 RMK AO2 LTG DSNT
     SW T01930173=
KACP 081059Z AUTO 00000KT 5SM BR CLR 24/24 A3001 RMK AO2=
KAVC 081100Z AUTO 00000KT 4SM HZ CLR 25/20 A3004 RMK AO2=
KBCB 081100Z AUTO 00000KT 4SM BR SCT070 OVC085 23/22 A3015 RMK
     AO2=
KBIJ 081100Z AUTO 00000KT 10SM CLR 19/ A3003 RMK AO2=
KBQP 081107Z AUTO 00000KT 3SM BR CLR 24/24 A3005 RMK AO2=
KCPK 081100Z AUTO 05003KT 5SM HZ SCT110 25/22 A2998 RMK AO2=
KCTZ 081100Z AUTO 00000KT 5SM HZ CLR 24/21 A2994 RMK AO2=
KDPL 081100Z AUTO 00000KT 7SM CLR 24/22 A2994 RMK AO2=
KEDE 081056Z AUTO 05003KT 1 1/2SM BR 24/23 A2996 RMK AO2=
KFQD 081059Z AUTO 00000KT 10SM CLR 21/17 A3005 RMK AO2=
KHBI 081101Z AUTO 00000KT 10SM SCT100 23/17 A3003 RMK AO2=
KHRJ 081101Z AUTO 00000KT 5SM HZ SCT120 25/21 A2996 RMK AO2=
KJNX 081059Z AUTO 00000KT 4SM CLR 22/22 A2995 RMK AO2=
KJYL 081101Z AUTO 00000KT 10SM CLR 23/21 A3000 RMK AO2=
KLWB 081100Z AUTO 00000KT 3SM BR 20/18 A3017 RMK AO2=
KMQI 081056Z AUTO 07010KT 10SM SCT011 26/24 A2996 RMK AO2=
KMWK 081102Z AUTO 00000KT 5SM HZ CLR 24/19 A3006 RMK AO2=
KPGV 081100Z AUTO 03004KT 3SM BR CLR 23/22 A2997 RMK AO2=
KTNB 081101Z AUTO 00000KT 7SM CLR 16/14 A3021 RMK AO2=
KUKF 081101Z AUTO 00000KT 7SM CLR 21/18 A3008 RMK AO1=
KUNV 081100Z AUTO 00000KT 5SM BR CLR 20/19 A3010 RMK AO2
     T02020185=
KW99 081059Z AUTO 00000KT 4SM HZ SCT080 21/17 A3010 RMK AO2=
####018000504####
SPUS99 KWBC 081103
SPECI
KAZO 081101Z 00000KT 3SM BR CLR 22/21 A3005 RMK AO2 $=
KHFD 081101Z 14003KT 3SM BR OVC008 25/23 A3005 RMK AO2=
KHUL 081101Z AUTO 20006KT 4SM BR BKN009 21/19 A3003 RMK AO2=
KMGJ 081101Z AUTO 00000KT 3SM BR BKN100 23/21 A3005 RMK AO2=
KMTH 081101Z AUTO 00000KT 2 1/2SM -RA BR BKN021 BKN039 OVC060
     26/24 A2993 RMK AO2 LTG DSNT NE P0001 $=
KOWD 081101Z 16005KT 10SM FEW009 BKN018 23/19 A3009 RMK AO2=
KTXK 081102Z 00000KT 3/4SM BR VV001 23/23 A3005 RMK AO2=
####018000068####
SABZ24 SBCT 081100
METAR SBCT 081100Z 04003KT CAVOK 13/11 Q1021=
####018000078####
SANO34 ENMI 081050 RRA
METAR ENBV 081050Z 09016KT 9999 SCT025 12/09 Q1016=
####018000089####
SASM20 SMJP 081100
METAR SMJP 081100Z 11003KT 8000 FEW008 FEW020CB 25/24 Q1013 NOSIG=
####018000079####
SANO38 ENMI 081050 RRA
METAR ENEK 081050Z 23014KT CAVOK 15/13 Q1015 W15/S3=
####018000382####
SABU31 LBSM 081100
METAR LBSF 081100Z 28005MPS 250V310 9999 BKN036 18/12 Q1018
 NOSIG=
METAR LBWN 081100Z 27006MPS 240V300 9999 FEW024 BKN027 19/15
 Q1014 NOSIG=
METAR LBBG 081100Z 32005MPS 9999 BKN026 BKN035 19/15 Q1015
 NOSIG=
METAR LBPD 081100Z 26005MPS 9999 -RA SCT040 OVC060 17/13 Q1017
 NOSIG=
METAR LBGO 081100Z VRB01MPS 8000 RA BKN020 OVC060 15/14 Q1017
 NOSIG=
####018000068####
SABZ21 SBTE 081100
METAR SBTE 081100Z 19005KT CAVOK 26/24 Q1014=
####018000101####
SABZ21 SBPS 081100
METAR SBPS 081100Z 28007KT 9999 8000SW VCSH FEW005 BKN050 BKN090
18/18 Q1020=
####018000098####
SARM31 LUKK 081100
METAR LUKK 081100Z 32008KT 280V350 9999 SCT031 24/16 Q1015
26CLRD65 NOSIG=
####018000091####
SAPF20 NTAA 081100
METAR NTAA 081100Z 05004KT 9999 FEW023 25/22 Q1015 WS ALL RWY NOSIG=
####018000081####
SABZ21 SBPB 081100
METAR SBPB 081100Z 08008KT 9999 SCT020 BKN100 30/23 Q1014=
####018000102####
SAGR32 LGAT 081050 RRA
METAR LGAL 081050Z 03007KT 9999 FEW008 FEW020TCU BKN025 20/18
      Q1015=
####018000100####
SAMX53 MMMZ 081100
METAR MMLM 081100Z RTD 00000KT 10SM  SKC 26/17 A//// RMK RTS=





TX_OPMET
####018000097####
SPAU31 KWBC 081103
SPECI
YBRM 081100Z 36004KT 3600 -SHRA SCT017 SCT025 OVC031 23/23 Q1012=
####018000094####
SABZ21 SBMO 081100
METAR SBMO 081100Z 30003KT 6000 FEW006 SCT020 BKN100 21/21 Q1017
REDZ=
####018000118####
SANK31 MNMG 081100
METAR
METAR MNMG 081100Z 02006KT 6000 RA FEW020CB BKN020 24/23 Q1010 A2984
CB/N/NW/W/NW/S/FL=
####018000112####
SANK31 MNMG 081100
METAR
MNMG 081100Z 02006KT 6000 RA FEW020CB BKN020 24/23 Q1010 A2984
CB/N/NW/W/NW/S/FL=
####018000094####
SAFG20 SOCA 081100
METAR SOCA 081100Z 00000KT 6000 -SHRA FEW003 SCT016 25/24 Q1013
NOSIG=
####018000082####
SAHU31 LHBM 081100
METAR LHBP 081100Z 22009KT 180V270 CAVOK 23/10 Q1021 NOSIG=
####018000083####
SAUS31 KWBC 081000 RRD
METAR
KSWF 081045Z 00000KT 5SM HZ BKN100 25/22 A3007=
####018000641####
SACH71 SCSC 081100
METAR
SCAR 081100Z VRB01KT 9999 OVC021 15/09 Q1016=
SCDA 081100Z 36008KT 9999 OVC026 14/08 Q1017=
SCCF 081100Z 10027KT CAVOK M01/M16 Q1025=
SCFA 081100Z 00000KT 9999 OVC017 12/07 Q1016=
SCIP 081100Z 10003KT 9999 FEW012 BKN020 18/17 Q1023 TEMPO 5000
-SHRA=
SCAT 081100Z AUTO 02005KT 0500 NDV R17/0900VP2000D
    RMID/0500V0750N // VV001 07/06 Q1017=
SCSE 081100Z 12003KT CAVOK 08/05 Q1017 NEFO PLAYA SKC=
SCER NIL=
SCVM 081100Z VRB03KT CAVOK SKC 06/06 Q1020=
SCEL 081100Z 04005KT 020V090 4000 BR SCT130 02/01 Q1021 NOSIG=
SCRG NIL=
SCIE 081100Z 29012KT 5000 -SHRA BKN006 OVC007 13/11 Q1019=
####018000076####
SPUS41 KWBC 081103
SPECI
KIAG 081100Z 21003KT 7SM FEW080 24/21 A3005=
####018000076####
SPUS42 KWBC 081103
SPECI
KAMA 081100Z 36010KT 1SM OVC003 17/17 A3020=
####018000797####
SACH10 SCSC 081100
METAR
SCAR 081100Z VRB01KT 9999 OVC021 15/09 Q1016=
SCDA 081100Z 36008KT 9999 OVC026 14/08 Q1017=
SCFA 081100Z 00000KT 9999 OVC017 12/07 Q1016=
SCCF 081100Z 10027KT CAVOK M01/M16 Q1025=
SCAT 081100Z AUTO 02005KT 0500 NDV R17/0900VP2000D
    RMID/0500V0750N // VV001 07/06 Q1017=
SCIP 081100Z 10003KT 9999 FEW012 BKN020 18/17 Q1023 TEMPO 5000
-SHRA=
SCSE 081100Z 12003KT CAVOK 08/05 Q1017 NEFO PLAYA SKC=
SCEL 081100Z 04005KT 020V090 4000 BR SCT130 02/01 Q1021 NOSIG=
SCIE 081100Z 29012KT 5000 -SHRA BKN006 OVC007 13/11 Q1019=
SCTC 081100Z 27007KT 9999 BKN012 OVC025 10/09 Q1014 RESHRA=
SCTE 081100Z 27004KT 6000 VCSH BKN025 08/07 Q1010 NOSIG=
SCBA 081100Z AUTO 28012KT CAVOK M02/M04 Q1001=
SCCI 081100Z 36012KT 9999 SCT025 M03/M05 Q0987 NOSIG=
####018000084####
SPUS51 KWBC 081103
SPECI
KAUG 081100Z AUTO VRB03KT 3SM BR OVC003 21/20 A3009=
####018001641####
SANA35 KAWN 081100 RRB
METAR KDAB 081053Z 33003KT 10SM FEW026 SCT150 21/20 A3000 RMK AO2 SLP158
      T02110200 $=
METAR KDAB 081053Z 33003KT 10SM FEW026 SCT150 21/20 A3000 RMK AO2 SLP158
      T02110200 $=
METAR KNBC 081056Z 25003KT 7SM CLR 24/19 A2998 RMK AO2 SLP152 T02390194=
METAR KNBG 081055Z AUTO 05003KT 6SM HZ CLR A3002 RMK AO2 SLP166 PWINO
      FZRANO $=
METAR KNGP 081056Z 09011KT 4SM +RA BR SCT013 BKN019 BKN033 28/27 A2982
      RMK AO2 RAB49 SLP096 P0009 T02780267 $=
METAR KNGU 081059Z 11004KT 5SM BR FEW008 SCT070 BKN120 26/23 A2998
      RMK AO2 SLP153 T02610233=
METAR KNJM 081057Z AUTO 01004KT 5SM HZ CLR 26/22 A2993 RMK AO2 SLP137
      T02560222 $=
METAR KNTU 081056Z 11007KT 10SM SCT005 SCT015 BKN035 BKN130 25/23 A2996
      RMK AO2 SLP149 T02500233 $=
METAR KVPS 081055Z 03001KT 5SM BR FEW010 23/23 A3003 RMK AO2A VIS NE
      2 AND W 2 SLP169 T02310231=
METAR MDSD 081100Z 06004KT 9999 FEW018 24/23 Q1015=
METAR MWCR 081100Z 14006KT 9999 FEW018 BKN250 28/25 Q1012 NOSIG=
METAR MYGF 081100Z 05003KT 9999 FEW020TCU SCT150 24/23 A2996 RMK TCU
      S /=
METAR SAWH 081100Z 05006KT 9999 FEW035 BKN100 01/M01 Q0984=
METAR SCBA 081100Z AUTO 28012KT CAVOK M02/M04 Q1001=
METAR SCEL 081100Z 04005KT 020V090 4000 BR SCT130 02/01 Q1021 NOSIG=
METAR SCIE 081100Z 29012KT 5000 -SHRA BKN006 OVC007 13/11 Q1019=
METAR SCTE 081100Z 27004KT 6000 VCSH BKN025 08/07 Q1010 NOSIG=
METAR SPIM 081100Z VRB02KT 6000 OVC022 16/13 Q1013 NOSIG RMK PP000=
METAR TBPB 081100Z 08021KT 9999 BKN014 29/24 Q1013 NOSIG=
METAR TXKF 081055Z 15012KT 9999 FEW013 SCT180 BKN300 26/23 Q1019 /=
####018000073####
SAGR32 LGAT 081050 RRB
METAR LGZA 081050Z 33014KT CAVOK 30/07 Q1013=
####018000081####
SAMT20 GQNN 081100
METAR GQNN 081100Z 18012KT 6000 SCT020 30/23 Q1013 NOSIG=
####018000097####
SPAU32 YBBN 081102
SPECI YBRM 081100Z 36004KT 3600 -SHRA SCT017 SCT025 OVC031 23/23
Q1012=
####018000089####
SAAB31 LATI 081100
METAR LATI 081100Z 01018KT 350V070 9999 FEW040 27/12 Q1016 NOSIG=
####018000076####
SPUS72 KWBC 081103
SPECI
KAMA 081100Z 36010KT 1SM OVC003 17/17 A3020=
####018000269####
SABO59 SLLP 081100
METAR SLLP 081100Z 06003KT 9999 NSC M04/M05 Q1037=
METAR SLVR 081100Z 15013KT 9999 FEW030 BKN070 BKN200 19/18 Q1015=
METAR SLCB 081100Z 27003KT 3000SE FU FEW027 SCT200 05/03 Q1026=
METAR SLTJ 081100Z 00000KT 9999 FEW030 SCT200 06/04 Q1022=
####018000133####
SAPY SGAS 081100
METAR SGAS 081100Z  14008KT 7000  BKN008 OVC015
17/15 Q1015=
METAR SGES 081100Z 16004KT CAVOK 17/15  Q1015=
####018000267####
SABO SLLP 081100
METAR SLLP 081100Z 06003KT 9999 NSC M04/M05 Q1037=
METAR SLVR 081100Z 15013KT 9999 FEW030 BKN070 BKN200 19/18 Q1015=
METAR SLCB 081100Z 27003KT 3000SE FU FEW027 SCT200 05/03 Q1026=
METAR SLTJ 081100Z 00000KT 9999 FEW030 SCT200 06/04 Q1022=
####018000135####
SAPY59 SGAS 081100
METAR SGAS 081100Z  14008KT 7000  BKN008 OVC015
17/15 Q1015=
METAR SGES 081100Z 16004KT CAVOK 17/15  Q1015=
####018000085####
SAEW KAWN 081100 RRD
METAR ETOR 081055Z 15005KT 9999 FEW200 32/08 A3014 RMK BLU=
####018000680####
SAXX60 KAWN 081100 RRA
METAR KHLR 081056Z AUTO 08004KT 10SM SCT009 BKN015 OVC023 25/ A2999
      RMK AO2 SLP146 T0250 $=
METAR PHBK 081056Z AUTO 00000KT 10SM BKN050 BKN080 24/18 A3002 RMK
      AO2 SLP168 T02440178 TSNO $=
METAR PHNY 081056Z AUTO 00000KT 10SM CLR 19/17 A3008 RMK AO2 TSNO T01880166
      SLP166 $=
METAR PWAK 081056Z 07012KT 6SM BR FEW024 27/25 A2999 RMK AO2A=
METAR RJSM 081100Z 08003KT 040V100 3000 BR FEW003 SCT040 BKN080 19/17
      Q1009 RMK 2ST003 3SC040 5AC080 A2982 WIND BY EQPT/10 FCST
      1117 BECMG 1112 5000 BR TEMPO 1215 3000 BR SCT001ST BKN003ST
      BECMG 1516 3000 BR SCT001ST BKN003ST TEMPO 1617 0600 FG
      VV000=
####018000091####
SABE31 TXKF 081050
METAR TXKF 081055Z 15012KT 9999 FEW013 SCT180 BKN300 26/23
Q1019=
####018002970####
SAUS20 KNKA 081103
METAR K3A1 081100Z AUTO 34003KT 7SM CLR 22/22 A3011 RMK AO2 
     T02170218=
METAR K4A9 081100Z AUTO 00000KT 5SM BR CLR 20/18 A3007 RMK AO2 
     T01970181=
METAR K4R4 081100Z AUTO 00000KT M1/4SM FG OVC005 23/22 A3003 RMK 
     AO2 T02290222=
METAR K8A0 081059Z AUTO 00000KT 7SM CLR 23/22 A3007 RMK AO2=
METAR KAFP 081100Z AUTO 00000KT 10SM BKN100 21/18 A2997 RMK AO2 
     T02110181=
METAR KALX 081100Z AUTO 00000KT 7SM CLR 22/21 A3005 RMK AO1=
METAR KAYS 081100Z AUTO 00000KT 2 1/2SM CLR 21/21 A3002 RMK AO1 
     VIS 1V5=
METAR KBGE 081100Z AUTO 00000KT 7SM OVC001 20/19 A3003 RMK AO2=
METAR KBQK 081057Z AUTO 29004KT 10SM CLR 21/21 A3001 RMK AO1 
     T02110207 PNO=
METAR KCCO 081100Z AUTO 00000KT 2 1/2SM CLR 20/19 A3006 RMK AO1=
METAR KCDH 081100Z AUTO 00000KT 7SM BKN001 22/22 A3005 RMK AO2=
METAR KCPC 081100Z AUTO 00000KT 10SM CLR 25/19 A2993 RMK AO2 
     T02520191=
METAR KCTJ 081100Z AUTO 00000KT 10SM CLR 20/19 A3007 RMK AO2 
     T02030191=
METAR KDBN 081100Z AUTO 31005KT 10SM CLR 24/17 A3000 RMK AO1=
METAR KDNN 081058Z AUTO 00000KT 10SM CLR 20/20 A3006 RMK AO2=
METAR KDQH 081100Z AUTO 00000KT 10SM CLR 23/19 A3002 RMK AO1=
METAR KDRI 081100Z AUTO 05003KT 10SM BKN013 BKN017 OVC024 23/23 
     A3002 RMK AO2=
METAR KEHO 081100Z AUTO 00000KT 10SM CLR 20/18 A3004 RMK AO2 
     T02000181=
SPECI KEMP 081102Z AUTO 34007KT 4SM BR BKN004 BKN009 OVC110 22/20 
    A3007 RMK AO2 CIG 003V007=
METAR KEMV 081057Z AUTO 01003KT 4SM BR CLR 24/22 A2998 RMK AO2=
METAR KEYF 081100Z AUTO 00000KT 7SM CLR 25/19 A2994 RMK AO2 
     T02500193=
METAR KEZF 081058Z AUTO 00000KT 7SM SCT080 27/25 A2998 RMK AO2 
     T02660247=
METAR KF24 081059Z AUTO 5SM BR CLR 24/23 A3008 RMK AO2 T02400230=
METAR KFFA 081058Z AUTO 07007KT 10SM SCT008 25/23 A2996 RMK AO2 
     T02500227=
METAR KFKN 081100Z AUTO 02003KT 1 1/2SM CLR 25/24 A2998 RMK AO1=
METAR KGHG 081100Z AUTO 14004KT 10SM OVC006 22/21 A3011 RMK AO2=
METAR KGWW 081100Z AUTO 05003KT 5SM HZ CLR 25/21 A2995 RMK AO2 
     T02450210=
METAR KHDC 081102Z AUTO 05003KT 10SM SCT014 25/25 A3003 RMK AO2=
METAR KHLX 081101Z AUTO 00000KT 7SM CLR 24/21 A3018 RMK AO2=
METAR KHNZ 081100Z AUTO 00000KT 4SM HZ SCT100 SCT120 24/20 A3000 
     RMK AO2 T02350196=
METAR KHOE 081059Z AUTO 00000KT 10SM CLR 21/ A3002 RMK AO2 T0206=
METAR KHQU 081101Z AUTO 00000KT 7SM CLR 20/18 A3006 RMK AO1=
METAR KHSP 081100Z AUTO 05005KT 10SM BKN049 BKN060 23/16 A3027 
     RMK AO2=
METAR KHWY 081100Z AUTO 03003KT 5SM HZ CLR 23/20 A3000 RMK AO2=
METAR KIDI 081100Z AUTO 00000KT 3SM CLR 18/18 A3012 RMK AO2=
METAR KIPJ 081100Z AUTO 00000KT 10SM SCT090 21/17 A3003 RMK AO2 
     T02080174=
SPECI KIZG 081102Z AUTO 00000KT 5SM HZ FEW006 BKN100 23/20 A3009 RMK 
    AO2=
METAR KJES 081100Z AUTO 26003KT 5SM BR CLR 18/18 A3000 RMK AO2 
     T01830184=
METAR KJGG 081100Z AUTO 00000KT 5SM SCT012 27/25 A3000 RMK AO1=
####018002156####
SAUS20 KNKA 081103
METAR KJKA 081100Z AUTO 00000KT 2SM BR CLR 26/25 A3003 RMK AO2 
     T02550246=
SPECI KJLN 081102Z 00000KT 10SM FEW045 SCT070 BKN090 23/22 A3006 RMK 
    AO2 TSE1056 LTG DSNT N=
METAR KJYO 081100Z AUTO 00000KT 7SM BKN110 28/20 A3002 RMK AO2=
METAR KLGC 081055Z AUTO 9SM CLR 21/ A3004 RMK AO1=
METAR KLKU 081100Z AUTO 00000KT 4SM HZ CLR 23/20 A3000 RMK AO2=
METAR KLNP 081058Z AUTO 00000KT 5SM CLR 21/18 A3019 RMK AO1=
METAR KLOM 081100Z AUTO 00000KT 4SM CLR 24/22 A3003 RMK AO1 
     T02360218=
METAR KMFV 081102Z AUTO 08005KT 7SM SCT006 SCT090 25/23 A3000 RMK 
     AO2=
METAR KMGR 081100Z AUTO 00000KT 10SM CLR 21/20 A3004 RMK AO2=
METAR KMQS 081100Z AUTO 00000KT 4SM CLR 24/22 A3006 RMK AO2 PWINO 
     PNO=
METAR KMRN 081100Z AUTO 00000KT 10SM SCT100 19/18 A3011 RMK AO2=
SPECI KMYF 081102Z AUTO 32005KT 10SM OVC015 16/13 A2990 RMK AO2 TSNO=
METAR KOBE 081101Z AUTO 03004KT 7SM CLR 23/22 A2997 RMK AO2=
METAR KONX 081100Z AUTO 06004KT 10SM SCT010 OVC110 26/23 A2997 
     RMK AO2 T02600227=
METAR KOPN 081100Z AUTO 00000KT 10SM CLR 24/22 A3005 RMK AO1=
METAR KPSK 081102Z AUTO 00000KT 4SM HZ CLR 22/18 A3015 RMK AO2=
METAR KPTB 081102Z AUTO 00000KT 4SM BR CLR 24/22 A2999 RMK AO2=
SPECI KRHI 081102Z AUTO 00000KT 10SM SCT003 SCT010 18/18 A3004 RMK 
    AO2=
METAR KRHP 081103Z AUTO 00000KT 2 1/2SM BR CLR 17/17 A3013 RMK AO2=
METAR KRUQ 081101Z AUTO 00000KT 10SM SCT100 23/19 A3002 RMK AO2=
METAR KRYY 081050Z 00000KT 10SM SKC 22/19 A3007=
METAR KSIF 081100Z AUTO 00000KT 4SM BR CLR 22/21 A3002 RMK AO2=
METAR KSVH 081100Z AUTO 00000KT 10SM SCT095 22/18 A3005 RMK AO2 
     T02210175=
METAR KTDF 081102Z AUTO 00000KT 3SM SCT120 21/20 A3001 RMK AO1=
METAR KTPF 081100Z AUTO 03003KT 7SM CLR 23/23 A2998 RMK AO2=
METAR KTSP 081055Z AUTO 00000KT 10SM CLR 10/05 A3002 RMK AO2 =
METAR KTVI 081100Z AUTO 00000KT 10SM CLR 22/21 A3003 RMK AO2 
     T02150208=
METAR KVDI 081103Z AUTO 24003KT 10SM 22/21 A3002 RMK AO1=
METAR KVJI 081103Z AUTO 00000KT 4SM BR CLR 21/19 A3015 RMK AO2=
METAR KVUJ 081059Z AUTO 00000KT 10SM SCT080 BKN090 22/19 A2998 
     RMK AO2=
####018000125####
SAUS41 KAKQ 081103 COR
MTRWAL
METAR KWAL 081054Z AUTO 12005KT 10SM BKN095 25/22 A3001 RMK AO2 
SLP158 T02500222 TSNO
####018000078####
SACN92 CWAO 061000 RRZ
WKH SA 1000 AUTO8 M M M M/12/M/MMMM/M/M M 3MMM=

####018000476####
SAMS32 WMKK 081100
METAR 081100Z
METAR WBGG 081100Z 26004KT 9999 TS FEW015CB SCT020 BKN150 25/23 Q1011
 NOSIG=
METAR WBKK 081100Z 11005KT 9999 FEW014 SCT140 BKN270 25/24 Q1009 
NOSIG=
METAR WMKJ 081100Z 20004KT 9999 FEW022 SCT140 BKN300 28/25 Q1009=
METAR WMKK 081100Z 19003KT 9999 FEW018 SCT140 BKN280 28/26 Q1008 
NOSIG=
METAR WMKP 081100Z 25005KT 9999 FEW020 BKN280 30/25 Q1008 NOSIG=
METAR WMSA 081100Z 28005KT 9999 FEW020 SCT140 BKN280 32/25 Q1008=
####018000124####
SAUS90 KWBC 081100 RRC
METAR KNEL 081100Z AUTO 11006KT 2 1/2SM HZ OVC005 25/22 A3003 RMK
     AO2 SLP168 T02500222 $=
####018000214####
SAUS90 KWBC 081100 CCC
METAR KWAL 081054Z AUTO 12005KT 10SM BKN095 25/22 A3001 RMK AO2
     SLP158 T02500222 TSNO=
METAR KMBG 081055Z AUTO 00000KT 10SM CLR 11/09 A3014 RMK AO2
     SLP204 T01060089 TSNO=
####018001655####
SAZZ40 KAWN 081100 RRK
METAR K79J 081056Z AUTO 00000KT 10SM CLR 23/21 A3003 RMK AO2 SLP163
      T02330206 TSNO $=
METAR KHUA 081055Z AUTO RMK AO2 SLPNO $=
METAR KNGU 081059Z 11004KT 5SM BR FEW008 SCT070 BKN120 26/23 A2998
      RMK AO2 SLP153 T02610233=
METAR KRCA 081055Z 00000KT 8SM CLR 11/08 A3025 RMK AO2A SLP235 T01120081
      $=
METAR KTBN 081055Z COR 15003KT 9SM FEW020 BKN070 BKN085 23/22 A3006
      RMK SLP162 T0225 COR 1102 $=
METAR KVPS 081055Z 03001KT 5SM BR FEW010 23/23 A3003 RMK AO2A VIS NE
      2 AND W 2 SLP169 T02310231=
METAR MNMG 081100Z 02006KT 6000 RA FEW020CB BKN020 24/23 Q1010 A2984
      CB/N/NW/W/NW/S/FL=
METAR NTAA 081100Z 05004KT 9999 FEW023 25/22 Q1015 WS ALL RWY NOSIG=
METAR OEDR 081100Z 02011KT 8000 SKC 43/09 Q0998 NOSIG=
METAR OEMA 081100Z 06012KT 9999 FEW045 46/M01 Q1005 NOSIG=
METAR OERK 081100Z 36017G29KT 5000 BLDU SKC 43/M03 Q1006 NOSIG=
METAR OERY 081100Z 03018KT 3000 SA SKC 44/00 Q1007 NOSIG=
METAR OJAI 081100Z 28009KT CAVOK 32/02 Q1012 NOSIG=
METAR OJAM 081100Z 23006KT 6000 NSC 32/01 Q1012 NOSIG=
METAR RJSM 081100Z 08003KT 040V100 3000 BR FEW003 SCT040 BKN080 19/17
      Q1009 RMK 2ST003 3SC040 5AC080 A2982 WIND BY EQPT/10 FCST
      1117 BECMG 1112 5000 BR TEMPO 1215 3000 BR SCT001ST BKN003ST
      BECMG 1516 3000 BR SCT001ST BKN003ST TEMPO 1617 0600 FG
      VV000=
METAR SCSE 081100Z 12003KT CAVOK 08/05 Q1017 NEFO PLAYA SKC=
METAR TKPN 081100Z 10012KT 9999 BKN016 29/25 Q1015=
METAR WSAP 081100Z 21004KT 9999 FEW016 SCT150 BKN300 30/24 Q1008=
METAR WSSS 081100Z 21004KT 160V250 9999 FEW016 FEW018TCU BKN280 29/25
      Q1009 NOSIG=
####018000094####
SAGY31 SYCJ 081100
METAR SYCJ 081100Z 09002KT 9000 SCT015 FEW016CB 26/25 Q1012 CB W
NOSIG=####018000122####
SAUS43 KABR 081103 COR
MTRMBG
METAR KMBG 081055Z AUTO 00000KT 10SM CLR 11/09 A3014 RMK AO2 SLP204 
T01060089 TSNO
####018000497####
SAAK41 KNKA 081103
METAR PABA 081101Z AUTO 17004KT 10SM OVC041 07/06 A3002 RMK AO2 
    SLP166 T00670061=
METAR PAIK 081101Z AUTO 00000KT 10SM CLR 12/09 A3013 RMK AO2 SLP244 
    T01220094=
METAR PAKF 081101Z AUTO 19005KT 10SM OVC019 08/06 A2991 RMK AO2 
    SLP224 T00830056=
METAR PANW 081056Z AUTO 35007KT FEW036 BKN046 OVC055 10/09 A2997 RMK 
    AO2 PWINO TSNO T01000088 BKN V SCT SLP128 $=
SPECI PASC 081101Z 25010KT 10SM SCT024 SCT080 OVC210 10/07 A3002 RMK 
    AO2=
####018000069####
SABZ24 SBCG 081100
METAR SBCG 081100Z 08009KT CAVOK 19/08 Q1017=
####018000075####
SACN50 CWAO 081030
VOP SA 1030 AUTO8 M M M M/15/11/0701/M/M M 14MM=

####018000075####
SACN50 CWAO 081030
WGP SA 1030 AUTO8 M M M M/12/11/MMMM/M/M M 87MM=

####018000075####
SACN50 CWAO 081015
VOP SA 1015 AUTO8 M M M M/15/11/0702/M/M M 80MM=

####018000075####
SACN50 CWAO 081015
WGP SA 1015 AUTO8 M M M M/12/11/MMMM/M/M M 10MM=

####018000075####
SACN50 CWAO 081045
WGP SA 1045 AUTO8 M M M M/12/11/MMMM/M/M M 76MM=

####018000066####
SACN92 KWBC 081104
METAR CWKH 081000Z AUTO 12/ RMK AO1 T0123=
####018000086####
SACN91 KWBC 081104
METAR CWHI 081000Z AUTO 22009KT 12/09 RMK AO1 T01190093 50007=
####018003736####
SAUS99 KWBC 081104
METAR
KJKA 081100Z AUTO 00000KT 2SM BR CLR 26/25 A3003 RMK AO2
     T02550246=
KJYO 081100Z AUTO 00000KT 7SM BKN110 28/20 A3002 RMK AO2=
KLGC 081055Z AUTO 9SM CLR 21/ A3004 RMK AO1=
KLKU 081100Z AUTO 00000KT 4SM HZ CLR 23/20 A3000 RMK AO2=
KLNP 081058Z AUTO 00000KT 5SM CLR 21/18 A3019 RMK AO1=
KLOM 081100Z AUTO 00000KT 4SM CLR 24/22 A3003 RMK AO1
     T02360218=
KMFV 081102Z AUTO 08005KT 7SM SCT006 SCT090 25/23 A3000 RMK
     AO2=
KMGR 081100Z AUTO 00000KT 10SM CLR 21/20 A3004 RMK AO2=
KMQS 081100Z AUTO 00000KT 4SM CLR 24/22 A3006 RMK AO2 PWINO
     PNO=
KMRN 081100Z AUTO 00000KT 10SM SCT100 19/18 A3011 RMK AO2=
KOBE 081101Z AUTO 03004KT 7SM CLR 23/22 A2997 RMK AO2=
KONX 081100Z AUTO 06004KT 10SM SCT010 OVC110 26/23 A2997 RMK AO2
     T02600227=
KOPN 081100Z AUTO 00000KT 10SM CLR 24/22 A3005 RMK AO1=
KPSK 081102Z AUTO 00000KT 4SM HZ CLR 22/18 A3015 RMK AO2=
KPTB 081102Z AUTO 00000KT 4SM BR CLR 24/22 A2999 RMK AO2=
KRHP 081103Z AUTO 00000KT 2 1/2SM BR CLR 17/17 A3013 RMK AO2=
KRUQ 081101Z AUTO 00000KT 10SM SCT100 23/19 A3002 RMK AO2=
KRYY 081050Z 00000KT 10SM SKC 22/19 A3007=
KSIF 081100Z AUTO 00000KT 4SM BR CLR 22/21 A3002 RMK AO2=
KSVH 081100Z AUTO 00000KT 10SM SCT095 22/18 A3005 RMK AO2
     T02210175=
KTDF 081102Z AUTO 00000KT 3SM SCT120 21/20 A3001 RMK AO1=
KTPF 081100Z AUTO 03003KT 7SM CLR 23/23 A2998 RMK AO2=
KTSP 081055Z AUTO 00000KT 10SM CLR 10/05 A3002 RMK AO2=
KTVI 081100Z AUTO 00000KT 10SM CLR 22/21 A3003 RMK AO2
     T02150208=
KVDI 081103Z AUTO 24003KT 10SM 22/21 A3002 RMK AO1=
KVJI 081103Z AUTO 00000KT 4SM BR CLR 21/19 A3015 RMK AO2=
KVUJ 081059Z AUTO 00000KT 10SM SCT080 BKN090 22/19 A2998 RMK
     AO2=
K3A1 081100Z AUTO 34003KT 7SM CLR 22/22 A3011 RMK AO2
     T02170218=
K4A9 081100Z AUTO 00000KT 5SM BR CLR 20/18 A3007 RMK AO2
     T01970181=
K4R4 081100Z AUTO 00000KT M1/4SM FG OVC005 23/22 A3003 RMK AO2
     T02290222=
K8A0 081059Z AUTO 00000KT 7SM CLR 23/22 A3007 RMK AO2=
KAFP 081100Z AUTO 00000KT 10SM BKN100 21/18 A2997 RMK AO2
     T02110181=
KALX 081100Z AUTO 00000KT 7SM CLR 22/21 A3005 RMK AO1=
KAYS 081100Z AUTO 00000KT 2 1/2SM CLR 21/21 A3002 RMK AO1 VIS
     1V5=
KBGE 081100Z AUTO 00000KT 7SM OVC001 20/19 A3003 RMK AO2=
KBQK 081057Z AUTO 29004KT 10SM CLR 21/21 A3001 RMK AO1 T02110207
     PNO=
KCCO 081100Z AUTO 00000KT 2 1/2SM CLR 20/19 A3006 RMK AO1=
KCDH 081100Z AUTO 00000KT 7SM BKN001 22/22 A3005 RMK AO2=
KCPC 081100Z AUTO 00000KT 10SM CLR 25/19 A2993 RMK AO2
     T02520191=
KCTJ 081100Z AUTO 00000KT 10SM CLR 20/19 A3007 RMK AO2
     T02030191=
KDBN 081100Z AUTO 31005KT 10SM CLR 24/17 A3000 RMK AO1=
KDNN 081058Z AUTO 00000KT 10SM CLR 20/20 A3006 RMK AO2=
KDQH 081100Z AUTO 00000KT 10SM CLR 23/19 A3002 RMK AO1=
KDRI 081100Z AUTO 05003KT 10SM BKN013 BKN017 OVC024 23/23 A3002
     RMK AO2=
KEHO 081100Z AUTO 00000KT 10SM CLR 20/18 A3004 RMK AO2
     T02000181=
KEMV 081057Z AUTO 01003KT 4SM BR CLR 24/22 A2998 RMK AO2=
KEYF 081100Z AUTO 00000KT 7SM CLR 25/19 A2994 RMK AO2
     T02500193=
KEZF 081058Z AUTO 00000KT 7SM SCT080 27/25 A2998 RMK AO2
     T02660247=
KF24 081059Z AUTO 5SM BR CLR 24/23 A3008 RMK AO2 T02400230=
KFFA 081058Z AUTO 07007KT 10SM SCT008 25/23 A2996 RMK AO2
     T02500227=
KFKN 081100Z AUTO 02003KT 1 1/2SM CLR 25/24 A2998 RMK AO1=
KGHG 081100Z AUTO 14004KT 10SM OVC006 22/21 A3011 RMK AO2=
KGWW 081100Z AUTO 05003KT 5SM HZ CLR 25/21 A2995 RMK AO2
     T02450210=
KHDC 081102Z AUTO 05003KT 10SM SCT014 25/25 A3003 RMK AO2=
KHLX 081101Z AUTO 00000KT 7SM CLR 24/21 A3018 RMK AO2=
KHNZ 081100Z AUTO 00000KT 4SM HZ SCT100 SCT120 24/20 A3000 RMK AO2
     T02350196=
####018000079####
SANC01 NWWW 081100
METAR NWWW 081100Z AUTO 00000KT 9999NDV NCD 18/15 Q1017=
####018000928####
SAUS99 KWBC 081104 RRA
METAR
KHOE 081059Z AUTO 00000KT 10SM CLR 21/ A3002 RMK AO2 T0206=
KHQU 081101Z AUTO 00000KT 7SM CLR 20/18 A3006 RMK AO1=
KHSP 081100Z AUTO 05005KT 10SM BKN049 BKN060 23/16 A3027 RMK
     AO2=
KHWY 081100Z AUTO 03003KT 5SM HZ CLR 23/20 A3000 RMK AO2=
KIDI 081100Z AUTO 00000KT 3SM CLR 18/18 A3012 RMK AO2=
KIPJ 081100Z AUTO 00000KT 10SM SCT090 21/17 A3003 RMK AO2
     T02080174=
KJES 081100Z AUTO 26003KT 5SM BR CLR 18/18 A3000 RMK AO2
     T01830184=
KJGG 081100Z AUTO 00000KT 5SM SCT012 27/25 A3000 RMK AO1=
PABA 081101Z AUTO 17004KT 10SM OVC041 07/06 A3002 RMK AO2 SLP166
     T00670061=
PAIK 081101Z AUTO 00000KT 10SM CLR 12/09 A3013 RMK AO2 SLP244
     T01220094=
PAKF 081101Z AUTO 19005KT 10SM OVC019 08/06 A2991 RMK AO2 SLP224
     T00830056=
PANW 081056Z AUTO 35007KT FEW036 BKN046 OVC055 10/09 A2997 RMK AO2
     PWINO TSNO T01000088 BKN V SCT SLP128 $=
####018000516####
SPUS99 KWBC 081104
SPECI
KJLN 081102Z 00000KT 10SM FEW045 SCT070 BKN090 23/22 A3006 RMK AO2
     TSE1056 LTG DSNT N=
KMYF 081102Z AUTO 32005KT 10SM OVC015 16/13 A2990 RMK AO2 TSNO=
KRHI 081102Z AUTO 00000KT 10SM SCT003 SCT010 18/18 A3004 RMK
     AO2=
KEMP 081102Z AUTO 34007KT 4SM BR BKN004 BKN009 OVC110 22/20 A3007
     RMK AO2 CIG 003V007=
KIZG 081102Z AUTO 00000KT 5SM HZ FEW006 BKN100 23/20 A3009 RMK
     AO2=
PASC 081101Z 25010KT 10SM SCT024 SCT080 OVC210 10/07 A3002 RMK
     AO2=
####018000281####
SAPH RPLL 081100
METAR RPLL 081100Z 10002KT 9999 FEW025TCU BKN300 31/25 Q1009 NOSIG 
           RMK TCU S A2980=
METAR RPVM 081100Z 16004KT 9999 FEW018CB BKN250 30/26 Q1010 A2982
           CB W W/ OCNL LTNG=
METAR RPLB 081100Z 21006KT 9999 FEW020 BKN280 30/25 Q1009 NOSIG=
####018000066####
SAAG SAEZ 081100
METAR SAEZ 081100Z 27001KT CAVOK 03/00 Q1019=
####018000118####
SAMX41 MMMX 081101
METAR MMPA 081100Z RTD 32003KT 5SM SCT280 26/25 A2984
      RMK 8/008 HZY DSNT CB, TCU E RTS=
####018000099####
SAAJ31 UBBB 081100
UBBN 081100Z 12010KT 9999 NSC 37/08 Q1008 R14R/CLRD60 NOSIG
RMK G/O QFE682=
####018000067####
SAAG SASJ 081100
METAR SASJ 081100Z  00000KT CAVOK 10/08 Q1018=
####018000090####
SAAJ31 UBBB 081100
METAR UBBL 081100Z 14006KT 9999 NSC 34/16 Q1010 NOSIG RMK G/O SC07=
####018000430####
SAMC31 GMMC 081100
METAR GMAD 081100Z 27008KT 8000 SCT020 28/18 Q1014 NOSIG=
METAR GMFF 081100Z 32004KT 8000 FEW033 SCT100 30/19 Q1018 NOSIG=
METAR GMME 081100Z 35007KT 320V020 6000 SCT010 BKN015 24/19 Q1016
NOSIG=
METAR GMMN 081100Z 35009KT 310V020 9999 SCT016 BKN023 27/19 Q1017
NOSIG=
METAR GMMX 081100Z 33007KT 7000 FEW026 32/15 Q1016 NOSIG=
METAR GMTT 081100Z 28008KT 240V310 8000 SCT016 SCT100 25/20 Q1016
NOSIG=
####018000090####
SAUZ31 UTTW 081000 CCA
METAR UTST 081100Z VRB01MPS CAVOK 41/04 Q1005 R88/CLRD70 NOSIG=
####018000210####
SAUS80 KWBC 081100 CCC
METAR
KWAL 081054Z AUTO 12005KT 10SM BKN095 25/22 A3001 RMK AO2 SLP158
     T02500222 TSNO=
KMBG 081055Z AUTO 00000KT 10SM CLR 11/09 A3014 RMK AO2 SLP204
     T01060089 TSNO=
####018000799####
SPUS70 KWBC 081104
SPECI
KAZO 081101Z 00000KT 3SM BR CLR 22/21 A3005 RMK AO2 $=
KHFD 081101Z 14003KT 3SM BR OVC008 25/23 A3005 RMK AO2=
KHUL 081101Z AUTO 20006KT 4SM BR BKN009 21/19 A3003 RMK AO2=
KMGJ 081101Z AUTO 00000KT 3SM BR BKN100 23/21 A3005 RMK AO2=
KMTH 081101Z AUTO 00000KT 2 1/2SM -RA BR BKN021 BKN039 OVC060
     26/24 A2993 RMK AO2 LTG DSNT NE P0001 $=
KOWD 081101Z 16005KT 10SM FEW009 BKN018 23/19 A3009 RMK AO2=
KTXK 081102Z 00000KT 3/4SM BR VV001 23/23 A3005 RMK AO2=
KMYF 081102Z AUTO 32005KT 10SM OVC015 16/13 A2990 RMK AO2 TSNO=
KRHI 081102Z AUTO 00000KT 10SM SCT003 SCT010 18/18 A3004 RMK
     AO2=
KIZG 081102Z AUTO 00000KT 5SM HZ FEW006 BKN100 23/20 A3009 RMK
     AO2=
PASC 081101Z 25010KT 10SM SCT024 SCT080 OVC210 10/07 A3002 RMK
     AO2=
####018001337####
SAUS70 KWBC 081104
METAR
KBQP 081107Z AUTO 00000KT 3SM BR CLR 24/24 A3005 RMK AO2=
KHBI 081101Z AUTO 00000KT 10SM SCT100 23/17 A3003 RMK AO2=
KHRJ 081101Z AUTO 00000KT 5SM HZ SCT120 25/21 A2996 RMK AO2=
KJYL 081101Z AUTO 00000KT 10SM CLR 23/21 A3000 RMK AO2=
KMWK 081102Z AUTO 00000KT 5SM HZ CLR 24/19 A3006 RMK AO2=
KTNB 081101Z AUTO 00000KT 7SM CLR 16/14 A3021 RMK AO2=
KUKF 081101Z AUTO 00000KT 7SM CLR 21/18 A3008 RMK AO1=
KMFV 081102Z AUTO 08005KT 7SM SCT006 SCT090 25/23 A3000 RMK
     AO2=
KOBE 081101Z AUTO 03004KT 7SM CLR 23/22 A2997 RMK AO2=
KPSK 081102Z AUTO 00000KT 4SM HZ CLR 22/18 A3015 RMK AO2=
KPTB 081102Z AUTO 00000KT 4SM BR CLR 24/22 A2999 RMK AO2=
KRHP 081103Z AUTO 00000KT 2 1/2SM BR CLR 17/17 A3013 RMK AO2=
KRUQ 081101Z AUTO 00000KT 10SM SCT100 23/19 A3002 RMK AO2=
KTDF 081102Z AUTO 00000KT 3SM SCT120 21/20 A3001 RMK AO1=
KVDI 081103Z AUTO 24003KT 10SM 22/21 A3002 RMK AO1=
KVJI 081103Z AUTO 00000KT 4SM BR CLR 21/19 A3015 RMK AO2=
KHDC 081102Z AUTO 05003KT 10SM SCT014 25/25 A3003 RMK AO2=
KHLX 081101Z AUTO 00000KT 7SM CLR 24/21 A3018 RMK AO2=
KHQU 081101Z AUTO 00000KT 7SM CLR 20/18 A3006 RMK AO1=
PABA 081101Z AUTO 17004KT 10SM OVC041 07/06 A3002 RMK AO2 SLP166
     T00670061=
PAIK 081101Z AUTO 00000KT 10SM CLR 12/09 A3013 RMK AO2 SLP244
     T01220094=
####018000068####
SAAG SACO 081100
METAR SACO 081100Z  34010KT CAVOK 09/M08 Q1020=
####018003748####
SAUS70 KWBC 081100 RRG
METAR
PAGA 081058Z AUTO 01005KT 10SM CLR 13/07 A3007 RMK AO2 SLP226
     T01330072=
K0R3 081059Z AUTO 07003KT 7SM BKN005 25/25 A2999 RMK AO2=
K1A5 081100Z AUTO 00000KT M1/4SM FG OVC001 16/15 A3016 RMK AO2
     T01630151=
K3I2 081100Z AUTO 00000KT 1 1/2SM BR OVC001 18/18 A3009 RMK
     AO2=
K3J7 081059Z AUTO 00000KT 7SM CLR 22/21 A3000 RMK AO2=
K47A 081100Z AUTO 00000KT 5SM BR CLR 19/17 A3007 RMK AO2 LTG DSNT
     SW T01930173=
KACP 081059Z AUTO 00000KT 5SM BR CLR 24/24 A3001 RMK AO2=
KAVC 081100Z AUTO 00000KT 4SM HZ CLR 25/20 A3004 RMK AO2=
KBCB 081100Z AUTO 00000KT 4SM BR SCT070 OVC085 23/22 A3015 RMK
     AO2=
KBIJ 081100Z AUTO 00000KT 10SM CLR 19/ A3003 RMK AO2=
KCPK 081100Z AUTO 05003KT 5SM HZ SCT110 25/22 A2998 RMK AO2=
KCTZ 081100Z AUTO 00000KT 5SM HZ CLR 24/21 A2994 RMK AO2=
KDPL 081100Z AUTO 00000KT 7SM CLR 24/22 A2994 RMK AO2=
KEDE 081056Z AUTO 05003KT 1 1/2SM BR 24/23 A2996 RMK AO2=
KFQD 081059Z AUTO 00000KT 10SM CLR 21/17 A3005 RMK AO2=
KLWB 081100Z AUTO 00000KT 3SM BR 20/18 A3017 RMK AO2=
KMQI 081056Z AUTO 07010KT 10SM SCT011 26/24 A2996 RMK AO2=
KPGV 081100Z AUTO 03004KT 3SM BR CLR 23/22 A2997 RMK AO2=
KUNV 081100Z AUTO 00000KT 5SM BR CLR 20/19 A3010 RMK AO2
     T02020185=
KW99 081059Z AUTO 00000KT 4SM HZ SCT080 21/17 A3010 RMK AO2=
KJKA 081100Z AUTO 00000KT 2SM BR CLR 26/25 A3003 RMK AO2
     T02550246=
KJYO 081100Z AUTO 00000KT 7SM BKN110 28/20 A3002 RMK AO2=
KLGC 081055Z AUTO 9SM CLR 21/ A3004 RMK AO1=
KLKU 081100Z AUTO 00000KT 4SM HZ CLR 23/20 A3000 RMK AO2=
KLNP 081058Z AUTO 00000KT 5SM CLR 21/18 A3019 RMK AO1=
KLOM 081100Z AUTO 00000KT 4SM CLR 24/22 A3003 RMK AO1
     T02360218=
KMGR 081100Z AUTO 00000KT 10SM CLR 21/20 A3004 RMK AO2=
KMQS 081100Z AUTO 00000KT 4SM CLR 24/22 A3006 RMK AO2 PWINO
     PNO=
KMRN 081100Z AUTO 00000KT 10SM SCT100 19/18 A3011 RMK AO2=
KONX 081100Z AUTO 06004KT 10SM SCT010 OVC110 26/23 A2997 RMK AO2
     T02600227=
KOPN 081100Z AUTO 00000KT 10SM CLR 24/22 A3005 RMK AO1=
KRYY 081050Z 00000KT 10SM SKC 22/19 A3007=
KSIF 081100Z AUTO 00000KT 4SM BR CLR 22/21 A3002 RMK AO2=
KSVH 081100Z AUTO 00000KT 10SM SCT095 22/18 A3005 RMK AO2
     T02210175=
KTPF 081100Z AUTO 03003KT 7SM CLR 23/23 A2998 RMK AO2=
KTSP 081055Z AUTO 00000KT 10SM CLR 10/05 A3002 RMK AO2=
KTVI 081100Z AUTO 00000KT 10SM CLR 22/21 A3003 RMK AO2
     T02150208=
KVUJ 081059Z AUTO 00000KT 10SM SCT080 BKN090 22/19 A2998 RMK
     AO2=
K3A1 081100Z AUTO 34003KT 7SM CLR 22/22 A3011 RMK AO2
     T02170218=
K4A9 081100Z AUTO 00000KT 5SM BR CLR 20/18 A3007 RMK AO2
     T01970181=
K4R4 081100Z AUTO 00000KT M1/4SM FG OVC005 23/22 A3003 RMK AO2
     T02290222=
K8A0 081059Z AUTO 00000KT 7SM CLR 23/22 A3007 RMK AO2=
KAFP 081100Z AUTO 00000KT 10SM BKN100 21/18 A2997 RMK AO2
     T02110181=
KALX 081100Z AUTO 00000KT 7SM CLR 22/21 A3005 RMK AO1=
KBGE 081100Z AUTO 00000KT 7SM OVC001 20/19 A3003 RMK AO2=
KBQK 081057Z AUTO 29004KT 10SM CLR 21/21 A3001 RMK AO1 T02110207
     PNO=
KCCO 081100Z AUTO 00000KT 2 1/2SM CLR 20/19 A3006 RMK AO1=
KCDH 081100Z AUTO 00000KT 7SM BKN001 22/22 A3005 RMK AO2=
KCPC 081100Z AUTO 00000KT 10SM CLR 25/19 A2993 RMK AO2
     T02520191=
KCTJ 081100Z AUTO 00000KT 10SM CLR 20/19 A3007 RMK AO2
     T02030191=
KDNN 081058Z AUTO 00000KT 10SM CLR 20/20 A3006 RMK AO2=
KDQH 081100Z AUTO 00000KT 10SM CLR 23/19 A3002 RMK AO1=
KDRI 081100Z AUTO 05003KT 10SM BKN013 BKN017 OVC024 23/23 A3002
     RMK AO2=
KEHO 081100Z AUTO 00000KT 10SM CLR 20/18 A3004 RMK AO2
     T02000181=
KEMV 081057Z AUTO 01003KT 4SM BR CLR 24/22 A2998 RMK AO2=
KEYF 081100Z AUTO 00000KT 7SM CLR 25/19 A2994 RMK AO2
     T02500193=
####018000080####
SAMF20 TFFR 081100
METAR TFFR 081100Z VRB02KT 9999 FEW021 28/24 Q1015 NOSIG=
####018000072####
SAGR32 LGAT 081050 RRB
METAR LGZA 081050Z 33014KT CAVOK 30/07 Q1013=
####018000130####
SAPY SGAS 081100
METAR SGAS 081100Z  14008KT 7000  BKN008 OVC015
17/15 Q1015=
METAR SGES 081100Z 16004KT CAVOK 17/15  Q1015=
####018000082####
SAAG SARP 081100
METAR SARP 081100Z  07007KT 9999  SCT005 OVC015
15/13 Q1018=
####018000068####
SAAG SABE 081100
METAR SABE 081100Z  27009KT CAVOK 09/M01 Q1019=
####018000074####
SABZ21 SBFN 081100
METAR SBFN 081100Z 17008KT 9999 SCT017 26/23 Q1015=
####018000068####
SABZ24 SBCG 081100
METAR SBCG 081100Z 08009KT CAVOK 19/08 Q1017=
####018000570####
SAMC32 GMMC 081100
METAR GMFF 081100Z 32004KT 8000 FEW033 SCT100 30/19 Q1018 NOSIG=
METAR GMFM 081100Z 30004KT 6000 SKC 28/19 Q1018=
METAR GMFO 081100Z 20012KT CAVOK 42/10 Q1018 NOSIG=
METAR GMMC 081100Z 02003KT 5000 SCT016 BKN026 24/19 Q1013=
METAR GMMH 081100Z 02019KT 6000 BKN010 22/17 Q1014=
METAR GMML 081100Z 03017KT 9999 SCT020 BKN200 25/17 Q1016=
METAR GMMW 081100Z 06013KT CAVOK 30/19 Q1017=
METAR GMMZ 081100Z 12013KT 9999 FEW040 FEW050TCU 38/01 Q1024=
METAR GMTA 081100Z 36008KT CAVOK 25/19 Q1016=
METAR GMFK 081100Z NIL=
METAR GMTN 081100Z NIL=
####018000327####
SAVN27 SVBM 081100
METAR SVBM 081100Z 09006KT 9999 BKN013 22/22 Q//// REDZ=
METAR SVBI 081100Z 00000KT 6000 -RA OVC030 XX/XX Q1013=
METAR SVVL 081100Z 00000KT 9999 SCT060 22/20 Q1021=
METAR SVAC 081100Z 00000KT 9999 SCT023 SCT080 23/22 Q1013=
METAR SVSP 081100Z NIL=
METAR SVSO 081100Z NIL=
METAR SVGU 081100Z NIL=
 
####018000096####
SPAU32 YBBN 081102
SPECI YBRM 081100Z 36004KT 3600 -SHRA SCT017 SCT025 OVC031 23/23
Q1012=
####018000221####
SPUS80 KWBC 081104
SPECI
KJLN 081102Z 00000KT 10SM FEW045 SCT070 BKN090 23/22 A3006 RMK AO2
     TSE1056 LTG DSNT N=
KEMP 081102Z AUTO 34007KT 4SM BR BKN004 BKN009 OVC110 22/20 A3007
     RMK AO2 CIG 003V007=
####018002326####
SAXX60 KWBC 081100 RRE
METAR
KNEL 081100Z AUTO 11006KT 2 1/2SM HZ OVC005 25/22 A3003 RMK AO2
     SLP168 T02500222 $=
KCVS 081055Z 01007KT 10SM BKN120 16/15 A3020 RMK AO2A SLP184
     T01600150 $=
KNBC 081056Z 25003KT 7SM CLR 24/19 A2998 RMK AO2 SLP152
     T02390194=
KNID 081056Z AUTO 18007KT FEW090 22/04 A2985 RMK AO2 SLP083
     T02170039 TSNO $=
KNLC 081056Z AUTO 30007KT 10SM CLR 17/11 A2982 RMK AO2 SLP095
     T01720106 TSNO $=
KNTU 081056Z 11007KT 10SM SCT005 SCT015 BKN035 BKN130 25/23 A2996
     RMK AO2 SLP149 T02500233 $=
KNUQ 081056Z AUTO 01005KT 10SM OVC011 15/12 A2992 RMK AO2 SLP135
     T01500117 TSNO=
KNUW 081056Z 00000KT 10SM CLR 13/11 A2997 RMK AO2 SLP152 T01330106
     $=
KNYL 081055Z AUTO 16003KT 10SM CLR 27/04 A2971 RMK AO2 SLP056
     T02670039=
PHBK 081056Z AUTO 00000KT 10SM BKN050 BKN080 24/18 A3002 RMK AO2
     SLP168 T02440178 TSNO $=
KNBC 081056Z 25003KT 7SM CLR 24/19 A2998 RMK AO2 SLP152
     T02390194=
KNBG 081055Z AUTO 05003KT 6SM HZ CLR A3002 RMK AO2 SLP166 PWINO
     FZRANO $=
KNGP 081056Z 09011KT 4SM +RA BR SCT013 BKN019 BKN033 28/27 A2982
     RMK AO2 RAB49 SLP096 P0009 T02780267 $=
KNGU 081059Z 11004KT 5SM BR FEW008 SCT070 BKN120 26/23 A2998 RMK
     AO2 SLP153 T02610233=
KNJM 081057Z AUTO 01004KT 5SM HZ CLR 26/22 A2993 RMK AO2 SLP137
     T02560222 $=
KNTU 081056Z 11007KT 10SM SCT005 SCT015 BKN035 BKN130 25/23 A2996
     RMK AO2 SLP149 T02500233 $=
KVPS 081055Z 03001KT 5SM BR FEW010 23/23 A3003 RMK AO2A VIS NE 2
     AND W 2 SLP169 T02310231=
KHLR 081056Z AUTO 08004KT 10SM SCT009 BKN015 OVC023 25/ A2999 RMK
     AO2 SLP146 T0250 $=
PHBK 081056Z AUTO 00000KT 10SM BKN050 BKN080 24/18 A3002 RMK AO2
     SLP168 T02440178 TSNO $=
PWAK 081056Z 07012KT 6SM BR FEW024 27/25 A2999 RMK AO2A=
K79J 081056Z AUTO 00000KT 10SM CLR 23/21 A3003 RMK AO2 SLP163
     T02330206 TSNO $=
KHUA 081055Z AUTO RMK AO2 SLPNO $=
KNGU 081059Z 11004KT 5SM BR FEW008 SCT070 BKN120 26/23 A2998 RMK
     AO2 SLP153 T02610233=
KRCA 081055Z 00000KT 8SM CLR 11/08 A3025 RMK AO2A SLP235 T01120081
     $=
KTBN 081055Z COR 15003KT 9SM FEW020 BKN070 BKN085 23/22 A3006 RMK
     SLP162 T0225 COR 1102 $=
KVPS 081055Z 03001KT 5SM BR FEW010 23/23 A3003 RMK AO2A VIS NE 2
     AND W 2 SLP169 T02310231=
####018001122####
SAUS70 KWBC 081100 RRH
METAR
KEZF 081058Z AUTO 00000KT 7SM SCT080 27/25 A2998 RMK AO2
     T02660247=
KF24 081059Z AUTO 5SM BR CLR 24/23 A3008 RMK AO2 T02400230=
KFFA 081058Z AUTO 07007KT 10SM SCT008 25/23 A2996 RMK AO2
     T02500227=
KFKN 081100Z AUTO 02003KT 1 1/2SM CLR 25/24 A2998 RMK AO1=
KGHG 081100Z AUTO 14004KT 10SM OVC006 22/21 A3011 RMK AO2=
KGWW 081100Z AUTO 05003KT 5SM HZ CLR 25/21 A2995 RMK AO2
     T02450210=
KHNZ 081100Z AUTO 00000KT 4SM HZ SCT100 SCT120 24/20 A3000 RMK AO2
     T02350196=
KHOE 081059Z AUTO 00000KT 10SM CLR 21/ A3002 RMK AO2 T0206=
KHSP 081100Z AUTO 05005KT 10SM BKN049 BKN060 23/16 A3027 RMK
     AO2=
KHWY 081100Z AUTO 03003KT 5SM HZ CLR 23/20 A3000 RMK AO2=
KIDI 081100Z AUTO 00000KT 3SM CLR 18/18 A3012 RMK AO2=
KIPJ 081100Z AUTO 00000KT 10SM SCT090 21/17 A3003 RMK AO2
     T02080174=
KJES 081100Z AUTO 26003KT 5SM BR CLR 18/18 A3000 RMK AO2
     T01830184=
KJGG 081100Z AUTO 00000KT 5SM SCT012 27/25 A3000 RMK AO1=
PANW 081056Z AUTO 35007KT FEW036 BKN046 OVC055 10/09 A2997 RMK AO2
     PWINO TSNO T01000088 BKN V SCT SLP128 $=
####018000580####
SAUS80 KWBC 081100 RRB
METAR
KRIC 081054Z 10006KT 4SM HZ SCT150 BKN250 26/21 A2999 RMK AO2
     SLP156 T02560211=
KJNX 081059Z AUTO 00000KT 4SM CLR 22/22 A2995 RMK AO2=
KDAB 081053Z 33003KT 10SM FEW026 SCT150 21/20 A3000 RMK AO2 SLP158
     T02110200 $=
KDAB 081053Z 33003KT 10SM FEW026 SCT150 21/20 A3000 RMK AO2 SLP158
     T02110200 $=
PHNY 081056Z AUTO 00000KT 10SM CLR 19/17 A3008 RMK AO2 TSNO
     T01880166 SLP166 $=
KAYS 081100Z AUTO 00000KT 2 1/2SM CLR 21/21 A3002 RMK AO1 VIS
     1V5=
KDBN 081100Z AUTO 31005KT 10SM CLR 24/17 A3000 RMK AO1=
####018001767####
SASA KAWN 081100 RRB
METAR SBCT 081100Z 04003KT CAVOK 13/11 Q1021=
METAR SBCZ 081100Z 00000KT 8000 SCT030 SCT100 23/23 Q1012=
METAR SBEG 081100Z 00000KT 9999 FEW010 SCT100 24/22 Q1012=
METAR SBJP 081100Z 21005KT 9999 FEW020 SCT070 24/22 Q1016=
METAR SBKP 081100Z 04002KT 6000 NSC 13/10 Q1021=
METAR SBLO 081100Z 23002KT CAVOK 15/13 Q1020=
METAR SBMA 081100Z 17002KT 7000 NSC ///// Q1014=
METAR SBMO 081100Z 30003KT 6000 FEW006 SCT020 BKN100 21/21 Q1017 REDZ=
METAR SBPB 081100Z 08008KT 9999 SCT020 BKN100 30/23 Q1014=
METAR SBPK 081100Z 28006KT 9999 FEW020 09/07 Q1020=
METAR SBPL 081100Z 14008KT 9999 FEW020 23/19 Q1019=
METAR SBSJ 081100Z 00000KT CAVOK 12/11 Q1022=
METAR SBSN 081100Z 11001KT 9999 FEW018 26/22 Q1012=
METAR SBTE 081100Z 19005KT CAVOK 26/24 Q1014=
METAR SCAR 081100Z VRB01KT 9999 OVC021 15/09 Q1016=
METAR SCBA 081100Z AUTO 28012KT CAVOK M02/M04 Q1001=
METAR SCCI 081100Z 36012KT 9999 SCT025 M03/M05 Q0987 NOSIG=
METAR SCDA 081100Z 36008KT 9999 OVC026 14/08 Q1017=
METAR SCEL 081100Z 04005KT 020V090 4000 BR SCT130 02/01 Q1021 NOSIG=
METAR SCFA 081100Z 00000KT 9999 OVC017 12/07 Q1016=
METAR SCIE 081100Z 29012KT 5000 -SHRA BKN006 OVC007 13/11 Q1019=
METAR SCSE 081100Z 12003KT CAVOK 08/05 Q1017 NEFO PLAYA SKC=
METAR SCTE 081100Z 27004KT 6000 VCSH BKN025 08/07 Q1010 NOSIG=
METAR SGAS 081100Z 14008KT 7000 BKN008 OVC015 17/15 Q1015=
METAR SGES 081100Z 16004KT CAVOK 17/15 Q1015=
METAR SLTJ 081100Z 00000KT 9999 FEW030 SCT200 06/04 Q1022=
METAR SMJP 081100Z 11003KT 8000 FEW008 FEW020CB 25/24 Q1013 NOSIG=
METAR SOCA 081100Z 00000KT 6000 -SHRA FEW003 SCT016 25/24 Q1013 NOSIG=
METAR SVBC 081100Z 00000KT CAVOK 25/22 Q1013=
METAR SVVA 081100Z 20002KT 9999 REDZ SCT016 OVC100 23/22 Q1014=
####018000075####
SAGR41 KWBC 081050 RRB
METAR
LGZA 081050Z 33014KT CAVOK 30/07 Q1013=
####018000120####
SAMX31 KWBC 081145
METAR
MNMG 081100Z 02006KT 6000 RA FEW020CB BKN020 24/23 Q1010 A2984
     CB/N/NW/W/NW/S/FL=
####018000228####
SAUK42 KWBC 081050 RRD
METAR
EGOV 081050Z 21013KT 9999 FEW014 BKN090 17/13 Q1017 BLU NOSIG=
EGQL 081050Z 24020KT 9999 FEW030 SCT060 18/08 Q1012 BLU NOSIG=
EGQS 081050Z 23019KT 9999 FEW035 SCT050 18/08 Q1009 BLU NOSIG=
####018000186####
SAXX99 KWBC 081000 RRX
METAR
CYMT 081000Z 08004KT 15SM FEW045 FEW070 SCT200 18/17 A3001 RMK
     CU1AC2CI0 SLP161=
CYRJ 081000Z 26003KT 12SM FEW045 22/19 A2998 RMK SC2 SLP150=
####018000084####
SPUS41 KWBC 081104
SPECI
KHUL 081101Z AUTO 20006KT 4SM BR BKN009 21/19 A3003=
####018000076####
SPUS43 KWBC 081104
SPECI
KAZO 081101Z 00000KT 3SM BR CLR 22/21 A3005=
####018000606####
SAMS31 WMKK 081100
METAR 081100Z
METAR WBGG 081100Z 26004KT 9999 TS FEW015CB SCT020 BKN150 25/23 Q1011
 NOSIG=
METAR WBKK 081100Z 11005KT 9999 FEW014 SCT140 BKN270 25/24 Q1009 
NOSIG=
METAR WBSB 081100Z 14003KT 8000 -SHRA FEW014 FEW016CB BKN140 25/25 
Q1009
     RETS
     TEMPO -SHRA=
METAR WMKK 081100Z 19003KT 9999 FEW018 SCT140 BKN280 28/26 Q1008 
NOSIG=
METAR WMKP 081100Z 25005KT 9999 FEW020 BKN280 30/25 Q1008 NOSIG=
METAR WSSL 081100Z 24004KT 9999 FEW018 BKN280 29/23 Q1009=
METAR WSSS 081100Z 21004KT 160V250 9999 FEW016 FEW018TCU BKN280 29/25
 Q1009
     NOSIG=
####018000486####
SAHU41 LHBM 081100
METAR LHDC 081045Z 02012KT 9999 FEW040 22/12 Q1021 NOSIG=
METAR LHKE 081045Z 32002MPS CAVOK 24/10 Q1021 NOSIG RMK BLU=
METAR LHPA 081045Z 34004MPS CAVOK 23/10 Q1023 NOSIG RMK BLU=
METAR LHPP 081045Z 03006KT 9999 SCT043 23/12 Q1023 NOSIG=
METAR LHPR 081045Z 33010KT CAVOK 24/09 Q1022=
METAR LHSM 081045Z 33007KT CAVOK 24/12 Q1023 NOSIG=
METAR LHSN 081045Z 31002MPS CAVOK 24/12 Q1021 NOSIG RMK BLU=
METAR LHUD 081045Z 34004KT 9999 FEW040 24/13 Q1022=
####018000100####
SAAJ31 UBBB 081100
METAR UBBG 081100Z 07014KT 9999 SCT083 35/17 Q1010 NOSIG RMK
R12L/CLRD70 =
####018000274####
SAIL31 BICC 081100
METAR BIAR 081100Z 36020KT 9999 BKN020 08/06 Q0995=
METAR BIEG 081100Z 36014KT 7000 -SHRA VV007 08/08 Q0990=
METAR BIKF 081100Z 02019KT 9999 FEW018 BKN032 BKN100 10/05 Q0994=
METAR BIRK 081100Z 01020G30KT 280V030 9999 FEW020 SCT060 10/06 Q0993=
####018000075####
SAEG31 HECA 081100
METAR HECA 081100Z 33008KT CAVOK 33/17 Q1010 NOSIG=
####018000595####
SAEW31 LEMM 081100
METAR LEMD 081100Z 18006KT 120V260 CAVOK 33/11 Q1020 NOSIG=
METAR LEBL 081100Z 20015KT CAVOK 27/21 Q1019 NOSIG=
METAR LEPA 081100Z 23007KT 200V260 CAVOK 30/11 Q1020 NOSIG=
METAR LEZL 081100Z 30006KT 260V350 9999 SCT025 30/17 Q1015 NOSIG=
METAR LEMG 081100Z 15011KT 100V200 9999 FEW030 31/13 Q1017 NOSIG=
METAR LEVC 081100Z 08004KT 340V150 CAVOK 32/20 Q1019 NOSIG=
METAR LEAL 081100Z 08009KT 050V110 CAVOK 31/13 Q1019 NOSIG=
METAR LEIB 081100Z 08010KT 050V120 CAVOK 29/21 Q1019 NOSIG=
METAR LELC 081100Z NIL=
METAR LEVX 081100Z 26010KT CAVOK 26/22 Q1014=
####018000082####
SALC31 TLPL 081100
METAR TLPL 081100Z 08018KT 9999 SCT026 BKN300 29/23 Q1014=
####018000561####
SAYG31 LYBM 081100
METAR LYBE 081100Z 35013KT 9999 SCT040 22/12 Q1022 NOSIG=
METAR LYBT 081100Z 32013KT 270V340 CAVOK 23/13 Q1021 NOSIG=
METAR LYKV 081100Z 32007KT 280V350 9999 SCT035 20/16 Q1022 NOSIG=
METAR LYNI 081100Z 32010KT 9999 SCT020 BKN026 18/13 Q1021 NOSIG=
METAR LYPG 081100Z 02015KT 350V070 9999 FEW040 27/08 Q1018 NOSIG=
METAR LYPR 081100Z NIL=
METAR LYTV 081100Z 33006KT 9999 FEW053 28/09 Q1017 NOSIG=
METAR LYUZ 081100Z 31007KT 260V350 9999 BKN020 14/10 Q1024 NOSIG=
METAR LYVR 081100Z VRB06KT 9999 FEW030 BKN040 21/14 Q1020=
####018000247####
SACZ31 LKPW 081100
METAR LKKV 081100Z VRB03KT CAVOK 23/10 Q1024=
METAR LKMT 081100Z 05007KT 350V120 CAVOK 21/10 Q1023 NOSIG=
METAR LKPR 081100Z 34004KT 290V030 CAVOK 23/09 Q1023 NOSIG=
METAR LKTB 081100Z VRB06KT CAVOK 23/07 Q1023 NOSIG=
####018000831####
SAUR31 UKMS 081100
METAR UKLR 081100Z 31006MPS 9999 BKN023 BKN100 21/15
         Q1018 30090070 NOSIG=
METAR UKLI 081100Z 30003MPS 9999 SCT023CB BKN030
         17/14  Q1020 28290565 NOSIG=
METAR UKON 081100Z 32003MPS 270V360 9999 FEW033TCU
         OVC200 28/17 Q1013 05090075 NOSIG=
METAR UKCM 081100Z 12003MPS 060V200 CAVOK 28/18 Q1014
          02010065 NOSIG=
METAR UKCW 081100Z 02002MPS 280V070 9999 BKN040 29/15
          Q1015 2709//70 NOSIG=
METAR UKLU 081100Z 35005MPS 9999 SCT040 23/10 Q1021
         10090070 NOSIG=
METAR UKKK 081100Z 26003MPS 9999 BKN033 25/18 Q1015
         26CLRD70  NOSIG=
METAR UKKM 081100Z 32005MPS 280V340 9999 SCT030
         BKN100 24/18  Q1015 33CLRD70 NOSIG=
METAR UKLN 081100Z 30006MPS 260V340 9999 BKN011
         BKN033CB 15/14 Q1020 3319//65 NOSIG=
####018000148####
SAUS20 KNKA 081103
SPECI KARB 081102Z AUTO 00000KT 2SM BR CLR 21/19 A3004 RMK AO2=
SPECI KGGG 081102Z 09004KT 9SM FEW002 24/24 A3003 RMK AO2=
####018000523####
SAAU69 AMMC 081100
METAR YSTW 081100Z AUTO 14008KT 9999NDV // NCD 08/04 Q1024=
METAR YSWG 081100Z AUTO 03003KT 9999NDV // NCD 05/03 Q1027=
METAR YTEF 081100Z AUTO 02006KT //// // ////// 21/16 Q1012=
METAR YTNK 081100Z AUTO 08006KT 9999NDV // NCD 15/12 Q1019=
METAR YTRE 081100Z AUTO 29005KT //// // ////// 12/12 Q1025=
METAR YWGT 081100Z AUTO 20003KT //// // ////// 03/03 Q1028=
METAR YWHA 081100Z AUTO 33004KT 9999NDV // NCD 05/02 Q1024=
METAR YWLM 081100Z AUTO 31003KT 9999NDV // ////// 10/10 Q1026=

####018000082####
SALC31 TLPL 081100
METAR TLPC 081100Z 09008KT 9999 SCT023 SCT270 29/26 Q1014=
####018000733####
SAMS33 WMKK 081100
METAR 081100Z
METAR WMAU 081100Z 11005KT 090V170 9999 FEW020 SCT140 BKN270 29/25
Q////
     QFF1008=
METAR WMBA 081100Z 29003KT 9999 FEW032 BKN280 30/25 Q1008=
METAR WMKA 081100Z 25005KT 9999 FEW020 SCT300 29/26 Q1008=
METAR WMKB 081100Z 30008KT 9999 FEW020 BKN280 30/25 Q1008 NOSIG=
METAR WMKC 081100Z 05004KT 9999 FEW017CB SCT140 BKN240 31/24 Q1008=
METAR WMKD 081100Z 10005KT 9999 FEW017CB BKN280 30/27 Q1008 NOSIG=
METAR WMKI 081100Z 15002KT 9999 FEW020 BKN150 BKN280 30/25 Q1008=
METAR WMKL 081100Z 26004KT 160V330 9999 FEW020 BKN300 30/25 Q1009=
METAR WMKM 081100Z 25003KT 9999 FEW023 BKN140 BKN280 30/24 Q1009=
METAR WMKN 081100Z 18005KT 9999 FEW017CB SCT020 BKN250 28/22 Q1008=
####018000349####
SAIE31 EIDB 081100
METAR EIDW 081100Z 22014KT 9999 FEW026 SCT050 BKN130 18/09 Q1015
     NOSIG=
METAR EINN 081100Z 20008KT 160V220 9999 -RA FEW017 SCT025 BKN045
     16/12 Q1015 NOSIG=
METAR EICK 081100Z 21011KT 9999 -RA BKN012 BKN045 15/12 Q1016 NOSIG=
METAR EIKN 081100Z 23009KT 9999 FEW018CB SCT025 BKN045 14/10 Q1013
     NOSIG=
####018000080####
SPUS72 KWBC 081104
SPECI
KTXK 081102Z 00000KT 3/4SM BR VV001 23/23 A3005=
####018000076####
SPUS73 KWBC 081104
SPECI
KAZO 081101Z 00000KT 3SM BR CLR 22/21 A3005=
####018000125####
SAUS41 KAKQ 081104 COR
MTRWAL
METAR KWAL 081054Z AUTO 12005KT 10SM BKN095 25/22 A3001 RMK AO2 
SLP158 T02500222 TSNO
####018000150####
SAMS31 WMKK 081100 CCA
METAR 081100Z
METAR WBSB 081100Z 14003KT 8000 -SHRA FEW014 FEW016CB BKN140 25/25 
Q1009
     RETS
     TEMPO SHRA=
####018000214####
SAEW36 LEMM 081100
METAR GCHI 081100Z 01011KT 330V040 9999 SCT013 OVC019 21/18 Q1018=
METAR GCLA 081100Z 02012KT 330V050 9999 BKN020 24/17 Q1019=
METAR GEML 081100Z 08008KT 050V120 9999 FEW013 26/21 Q1017=
####018000788####
SAEW32 LEMM 081100
METAR LEAS 081100Z 04004KT 300V090 9999 BCFG SCT006 BKN014 20/19 
Q1018 NOSIG TEMPO 4000 BR=
METAR LEBB 081100Z 28011KT 8000 FEW020 26/21 Q1016 NOSIG=
METAR LECO 081100Z 02006KT CAVOK 24/21 Q1014=
METAR LEGE 081100Z 15003KT CAVOK 34/15 Q1019=
METAR LEST 081100Z 11010KT 080V140 CAVOK 23/19 Q1015 NOSIG=
METAR LEZG 081100Z 09009KT 050V120 CAVOK 34/14 Q1018=
METAR LESO 081100Z 03006KT 340V050 CAVOK 25/20 Q1015=
METAR LEVT 081100Z 00000KT CAVOK 33/17 Q1018=
METAR LERS 081100Z 19008KT 140V250 CAVOK 29/16 Q1019=
METAR LEMH 081100Z 17005KT 120V260 CAVOK 29/20 Q1021=
METAR LEAM 081100Z 08013KT 050V110 CAVOK 37/07 Q1016=
METAR LEGR 081100Z 16013KT 130V200 9999 FEW060 38/05 Q1018=
METAR LERL 081100Z 03009KT 360V060 9999 FEW050 32/10 Q1018=
####018000377####
SAEW35 LEMM 081100
METAR LEAB 081100Z 16014KT CAVOK 33/04 Q1021 NOSIG=
METAR LEBZ 081100Z 12008KT 080V160 CAVOK 34/13 Q1015=
METAR LELN 081100Z 17003KT CAVOK 30/10 Q1020=
METAR LESA 081100Z VRB02KT CAVOK 33/15 Q1019=
METAR LETO 081100Z VRB02KT CAVOK 32/11 Q1020 NOSIG=
METAR LEVD 081100Z 19001KT CAVOK 33/09 Q1020=
METAR LEVS 081100Z VRB01KT CAVOK 31/13 Q1020=
####018000317####
SAEW33 LEMM 081100
METAR GCLP 081100Z 01026KT 9999 FEW020 25/18 Q1017 NOSIG=
METAR GCXO 081100Z 29012KT 9999 SCT004 20/17 Q1020 NOSIG=
METAR GCTS 081100Z 08014KT 9999 FEW015 25/17 Q1017 NOSIG=
METAR GCRR 081100Z 36015KT 320V020 9999 FEW020 25/18 Q1017=
METAR GCFV 081100Z 05012KT 9999 FEW018 23/18 Q1017=
####018000128####
SAUS44 KLIX 081104 COR
MTRBTR
SPECI KBTR 081059Z 06003KT 2 1/2SM BR MIFG SCT003 BKN200 23/23 A3001 
RMK AO2 SFC VIS 3 $
####018000337####
SARS18 KAWN 081100 RRB
METAR LUKK 081100Z 32008KT 280V350 9999 SCT031 24/16 Q1015 26CLRD65
      NOSIG=
METAR UBBB 081100Z 35020KT CAVOK 33/23 Q1010 NOSIG RMK R88CLRD70=
METAR UHHH 081100Z METAR 02004MPS 9999 SCT033CB OVC100 17/15 Q1010
      NOSIG=
METAR UTTT 081100Z 29004MPS 250V310 CAVOK 39/04 Q1010 R08R/CLRD70 NOSIG=
####018001163####
SAXN17 KAWN 081100 RRC
METAR MMLM 081100Z RTD 00000KT 10SM SKC 26/17 A//// RMK RTS=
METAR MNMG 081100Z 02006KT 6000 RA FEW020CB BKN020 24/23 Q1010 A2984
      CB/N/NW/W/NW/S/FL=
METAR MUHA 081055Z 04002KT 8000 FEW018 24/23 Q1013=
METAR NTAA 081100Z 05004KT 9999 FEW023 25/22 Q1015 WS ALL RWY NOSIG=
METAR NWWW 081100Z AUTO 00000KT 9999NDV NCD 18/15 Q1017=
METAR PAGA 081058Z AUTO 01005KT 10SM CLR 13/07 A3007 RMK AO2 SLP226
      T01330072=
METAR PASV 081055Z AUTO 00000KT 10SM SCT037 SCT047 SCT070 09/07 A2996
      RMK AO1 T00890073=
METAR PKWA 081100Z AUTO 06012KT 4SM RA BKN007 BKN017 OVC030 25/23 A2987
      RMK AO2 P0035 T02520234=
METAR RJOI 081100Z 12006KT 9000 HZ SCT120 OVC230 27/23 A2981 RMK SLP094
      T02670233=
METAR SOCA 081100Z 00000KT 6000 -SHRA FEW003 SCT016 25/24 Q1013 NOSIG=
METAR SVMI 081100Z 00000KT 9999 FEW016 BKN090 25/24 Q1014 RETS=
METAR TBPB 081100Z 08021KT 9999 BKN014 29/24 Q1013 NOSIG=
METAR TLPL 081100Z 08018KT 9999 SCT026 BKN300 29/23 Q1014=
METAR TXKF 081055Z 15012KT 9999 FEW013 SCT180 BKN300 26/23 Q1019 /=
METAR VHHH 081100Z 21009KT 140V230 9999 FEW015 SCT028 31/25 Q1006 NOSIG=
####018000909####
SAXX70 KAWN 081100 RRH
METAR KQEJ 081050Z AUTO 14002KT 7SM -SHRA FEW041 24/19 A2992 RMK A02=
METAR KQD9 081055Z 08005KT 9999 FEW060 BKN160 33/15 A2987 RMK SLP032
      WND DATA ESTMD ALSTG/SLP ESTMD=
METAR KQGV 081055Z 32028G43KT 5000 BLDU CLR 47/M08 A2956 RMK SLP997=
METAR KQLT 081055Z AUTO 27003KT 9999 38/02 A2988 RMK AO2 SLP988 T03800017
      $=
METAR KQQS 081055Z AUTO 01010G24KT 9000 CLR 30/05 A3012 RMK AO2 WSHFT
      1012 SLP063 T02950052 $=
METAR KQQY 081055Z AUTO 00000KT 9999 SCT130 BKN140 22/21 A2998 RMK
      AO2 SLP137 T02240205 $=
METAR KQEL 081100Z AUTO 03002KT 6SM BR OVC045 23/20 A2972 RMK A02=
METAR KQEN 081100Z AUTO 26006KT 7SM BKN075 20/16 A3040 RMK A02=
METAR KQEP 081100Z AUTO 08003KT 5SM -RA OVC060 25/19 A2987 RMK A02=
METAR KQEY 081100Z AUTO 28002KT 7SM BKN100 26/18 A2959 RMK A02=
METAR KQFB 081100Z AUTO 27003KT 6SM BR CLR 24/21 A2992 RMK A02=
####018000329####
SATS41 DTTA 081100
METAR DTTB 081100Z 31010KT 9999 FEW020 29/16 Q1019=
METAR DTTD 081100Z 11006KT 050V170 CAVOK 30/14 Q1020=
METAR DTTG 081100Z 08010KT CAVOK 32/12 Q1018 NOSIG=
METAR DTTK 081100Z 13002KT CAVOK 34/11 Q1018=
METAR DTTL 081100Z 28006KT CAVOK 30/19 Q1019=
METAR DTTN 081100Z 32006KT CAVOK 33/16 Q1018=
####018000364####
SAEW34 LEMM 081100
METAR LEBA 081100Z 27003KT 210V340 9999 BKN050TCU 31/14 Q1015=
METAR LEDA 081100Z 12005KT 070V170 CAVOK 34/13 Q1019=
METAR LEJR 081100Z VRB02KT CAVOK 30/18 Q1016=
METAR LELL 081100Z 12007KT 080V160 CAVOK 31/16 Q1019=
METAR LEPP 081100Z 16005KT 110V210 CAVOK 36/14 Q1018=
METAR LEXJ 081100Z 28010KT 250V310 9999 SCT018 25/19 Q1016=
####018000083####
SAUK39 EGRR 081050 RRB
METAR EGUO 081050Z 21008KT 9999 FEW010 20/08 Q1019 BLU=
####018000105####
SAUK39 EGRR 081050 RRD
METAR EGYD 081050Z 23012KT 9999 FEW040 SCT120 BKN250 20/09 Q1017 BLU
NOSIG=
####018000089####
SAUK39 EGRR 081050 RRC
METAR EGOS 081050Z 24010KT 9999 SCT032 18/09 Q1018 BLU NOSIG=
####018000122####
SAUS46 KPDT 081104
MTRHMS
METAR KHMS 081050Z 31010KT 15SM SKC 20/07 A2995 RMK SLP140 T02010068
     RSNK 20/03011
####018000100####
SAMD90 KWBC 081104
METAR K2W6 081103Z AUTO 00000KT 2 1/2SM 24/24 A3001 RMK AO1 SKY 
OBSCURED=
####018000089####
SAMD90 KWBC 081104
METAR KCGE 081101Z AUTO 00000KT 3/4SM OVC002 25/25 A3002 RMK AO1=
####018000084####
SAMD90 KWBC 081104
METAR KCBE 081103Z AUTO 00000KT 5SM CLR 21/19 A3011 RMK AO1=
####018000088####
SAMD90 KWBC 081104
METAR K2G4 081100Z AUTO 00000KT 10SM SCT065 23/13 A3019 RMK AO1=
####018000515####
SAAT31 TAPA 081104
METAR TAPA 081100Z 08011KT 9999  FEW020 28/24 Q1015=015=MPO 0812/0912 SHRA BKN015=

TAF TRPG 081000Z 0812/0912 08013KT 9999 SCT022 PROB40 TEMPO 0812/0912 SHRA BKN015= 

TAF TKPN 081000Z 0812/0912 08013KT 9999 SCT022 PROB40 TEMPO 0812/0912 SHRA BKN015=

TAF TQPF 081000Z 0812/0912 09014KT 9999 SCT022 PROB30 TEMPO 0812/0912 SHRA=

TAF TUPJ 081000Z 0812/0912 09014KT 9999 SCT023 PROB30 TEMPO 0812/0912 SHRA=        0700/0724 5000 SHRA FEW013CB BKN015 BKN080 PROB30 TEMPO 0700/0708 TSRA SCT012CB==####018000758####
SPZZ40 KAWN 081104
SPECI KCEF 081102Z AUTO 16005KT 10SM BKN009 24/22 A3006 RMK AO2 CIG
      009V011 SLP180 PWINO $=
SPECI KFRI 081058Z AUTO 03003KT 9SM SCT006 BKN016 BKN160 21/21 A3010
      RMK AO2 BKN016 V SCT SLP182=
SPECI KLTS 081059Z AUTO 05004KT 10SM SCT022 BKN029 23/23 A3006 RMK
      AO2 BKN V SCT CIG 020 RWY35L SLP166 $=
SPECI KNMM 081057Z 00000KT 7SM FEW250 22/21 A3006 RMK AO2 $=
SPECI KRND 081103Z AUTO 04005KT 10SM BKN007 BKN060 25/23 A2994 RMK
      AO2 SLP129=
SPECI PASC 081101Z 25010KT 10SM SCT024 SCT080 OVC210 10/07 A3002 RMK
      AO2=
SPECI RODN 081059Z AUTO 18011KT 9999 BKN017 BKN190 29/26 A2984 RMK
      AO2 CIG 015V019 SLP105=
SPECI YBRM 081100Z 36004KT 3600 -SHRA SCT017 SCT025 OVC031 23/23 Q1012=
####018000084####
SAMD90 KWBC 081104
METAR KCGS 081105Z AUTO 00000KT 5SM CLR 26/24 A3001 RMK AO1=
####018000084####
SAMD90 KWBC 081104
METAR KFME 081106Z AUTO 07003KT 4SM CLR 22/22 A3003 RMK AO1=
####018000087####
SAMD90 KWBC 081104
METAR KDMW 081104Z AUTO 09003KT 5SM HZ CLR 26/22 A3005 RMK AO2=
####018000088####
SAMD90 KWBC 081104
METAR KW29 081103Z AUTO 11003KT 2 1/2SM CLR 25/23 A3001 RMK AO1=
####018000084####
SABC40 FBSK 081100
METAR FBSK 081100Z 06008KT 9999 BKN020 19/08 Q1031 NOSIG=

####018000403####
SAIR31 OIII 081100
METAR OIAW 081100Z 21006KT CAVOK 47/08 Q0997 A2946=
METAR OIFM 081100Z 11004KT CAVOK 39/08 Q1016 A3001=
METAR OIII 081100Z NIL=
METAR OIKB 081100Z 21008KT 4500 HZ NSC 37/26 Q1000 A2954=
METAR OIKK 081100Z 27006KT CAVOK 36/M00 Q1016 A3001=
METAR OIMM 081100Z 05016KT CAVOK 39/M01 Q1014 A2995=
METAR OISS 081100Z NIL=
METAR OITT 081100Z NIL=
METAR OIZH 081100Z NIL=
####018000110####
SAUS41 KAKQ 081104
MTRAKQ
SPECI KAKQ 081103Z AUTO 00000KT 1 3/4SM BR FEW015 24/22 A2999 RMK 
AO2 TSNO
####018000464####
SAUS20 KNKA 081104
METAR KVVG 081055Z AUTO 00000KT 21/20 A3000 RMK AO2=
METAR KW22 081100Z AUTO 00000KT 1 3/4SM  BR CLR 19/19 A3013 RMK 
     AO2=
METAR KW45 081100Z AUTO 00000KT 7SM CLR 24/20 A3006 RMK AO2 
     T02360197=
METAR KWDR 081100Z AUTO 32003KT 10SM CLR 22/20 A3007 RMK AO1=
METAR KXLL 081100Z AUTO 06003KT 5SM BR CLR 25/23 A3004 RMK AO2 
     T02480227=
METAR KXSA 081100Z AUTO 00000KT 3SM SCT120 25/24 A2999 RMK AO2 
     PWINO=
####018002980####
SAUS20 KNKA 081104
METAR KUXL 081100Z AUTO 06008KT 10SM SCT009 26/25 A2998 RMK AO2=
SPECI KAUW 081103Z AUTO 31005KT 9SM OVC006 19/18 A3002 RMK AO2 CIG 
    004V009 $=
SPECI KCCR 081103Z AUTO 24004KT 10SM SCT013 13/10 A2990 RMK AO2=
METAR KCWV 081111Z AUTO 27004KT 10SM CLR 22/22 A3001 RMK AO2=
SPECI KDGW 081103Z AUTO 00000KT 1 3/4SM BR CLR 06/05 A3035 RMK AO2 
    VIS 1V4 $=
SPECI KESF 081103Z AUTO 00000KT 5SM BR BKN013 23/22 A3003 RMK AO2=
METAR KEXX 081100Z AUTO 00000KT 7SM CLR 22/19 A3002 RMK AO2=
METAR KFYJ 081103Z AUTO 00000KT 3SM CLR 26/25 A3000 RMK AO1=
METAR KGAO 081100Z AUTO 07003KT 10SM SCT017 26/25 A3000 RMK AO2=
METAR KGEV 081103Z AUTO 00000KT 7SM CLR 25/16 A3020 RMK AO2=
SPECI KGON 081103Z 08004KT 3SM BR BKN002 OVC013 23/21 A3007 RMK AO2=
METAR KIER 081100Z AUTO 00000KT 5SM SCT017 23/23 A3003 RMK AO2 
     PWINO=
SPECI KITR 081103Z AUTO 18003KT 8SM FEW005 BKN010 OVC055 16/15 A3030 
    RMK AO2 CIG 007V012=
METAR KIXA 081100Z AUTO 02003KT 5SM HZ CLR 24/21 A2996 RMK AO2 
     T02350205=
METAR KJFZ 081100Z AUTO 00000KT 3SM CLR 20/20 A3017 RMK=
SPECI KLAF 081103Z 00000KT 3SM BR BKN060 23/22 A3004 RMK AO2=
SPECI KLAR 081103Z AUTO 00000KT 10SM SCT006 OVC020 08/07 A3040 RMK 
    AO2=
METAR KLDJ 081100Z AUTO 13004KT 2SM BR OVC002 25/23 A3004 RMK AO2 
     T02450231=
SPECI KLEX 081103Z 00000KT 3SM HZ CLR 22/19 A3010 RMK AO2=
METAR KLHZ 081100Z AUTO 00000KT 5SM HZ SCT120 24/20 A2999 RMK AO2 
     T02390201=
SPECI KLVJ 081103Z AUTO 14013G26KT 1 3/4SM +RA FEW019 SCT035 SCT047 
    27/23 A2994 RMK AO2 PK WND 13026/1101 RAB02 PRESRR P0009=
METAR KMDQ 081100Z AUTO 00000KT 7SM CLR 22/21 A3008 RMK AO2 
     T02200212=
METAR KMKJ 081100Z AUTO 00000KT 2 1/2SM CLR 18/07 A3022 RMK AO1 
     VIS 2V3=
METAR KMLJ 081104Z AUTO 00000KT 4SM BR CLR 21/21 A3002 RMK AO2=
SPECI KMMK 081103Z AUTO 16006KT 2SM BR OVC008 25/23 A3006 RMK AO2=
SPECI KMTH 081103Z AUTO 00000KT 4SM -RA BR SCT021 BKN039 OVC060 
    26/24 A2993 RMK AO2 LTG DSNT NE P0001 $=
METAR KMTV 081100Z AUTO 00000KT 4SM BR CLR 22/21 A3006 RMK AO2=
METAR KOKV 081100Z AUTO 00000KT 4SM HZ SCT080 SCT095 23/20 A3005 
     RMK AO2 T02280196=
METAR KOMH 081100Z AUTO 00000KT 7SM CLR 25/21 A3003 RMK AO2 
     T02480206=
METAR KPCM 081100Z AUTO 02003KT 7SM CLR 22/22 A3001 RMK AO2=
SPECI KPKB 081103Z 00000KT 1/4SM R03/0600FT FG CLR 20/19 A3012 RMK 
    AO2=
METAR KRCZ 081100Z AUTO 00000KT 10SM CLR 24/19 A2997 RMK AO2 
     T02370188=
METAR KRMN 081100Z AUTO 00000KT 4SM BR CLR 23/23 A3003 RMK AO2=
METAR KSFQ 081100Z AUTO 07003KT 2 1/2SM BR SCT090 26/24 A2998 RMK 
     AO2=
METAR KSHD 081100Z AUTO 00000KT 4SM HZ CLR 22/18 A3009 RMK AO2=
METAR KTBR 081100Z AUTO 26004KT 10SM CLR 23/20 A3000 RMK AO2 
     T02330204=
METAR KVDF 081056Z AUTO 00000KT 5SM BR CLR 22/21 A2999 RMK AO2=
SPECI KVPZ 081103Z AUTO 15004KT 1 3/4SM TSRA BR FEW029 BKN048 OVC080 
    23/22 A3005 RMK AO2 RAB1054 P0004=
####018000091####
SAUS44 KMAF 081104
MTRNFW
SPECI KNFW 081103Z 11004KT 10SM BKN012 26/22 A3005 RMK AO2
####018000110####
SPCN48 CWAO 081103
SPECI CYPH 081103Z AUTO 23014KT 1 3/8SM OVC003 06/06 A2980 RMK VSBY
VRBL 0.6V9.+=

####018001850####
SAEU KAWN 081100 RRK
METAR EGOV 081050Z 21013KT 9999 FEW014 BKN090 17/13 Q1017 BLU NOSIG=
METAR EGQL 081050Z 24020KT 9999 FEW030 SCT060 18/08 Q1012 BLU NOSIG=
METAR EGQS 081050Z 23019KT 9999 FEW035 SCT050 18/08 Q1009 BLU NOSIG=
METAR EGUB 081050Z 22006KT 9999 BKN026 SCT120 21/16 Q1018 BLU NOSIG=
METAR EGXC 081050Z 21013KT 9999 FEW030 BKN250 20/10 Q1017 BLU NOSIG=
METAR EGXE 081050Z 22012KT 9999 FEW035 SCT060 BKN180 19/12 Q1016 BLU
      NOSIG=
METAR EGXJ 081050Z 23011KT 9999 FEW030 SCT250 19/07 Q1017 BLU=
METAR EGXX 081050Z AUTO 22009KT 9999NDV // NCD ///// Q////=
METAR EGXZ 081050Z 25011KT 9999 FEW040 SCT050 19/09 Q1016 BLU=
METAR EGYH 081050Z 24010KT 9999 FEW040 20/// Q1018 BLU=
METAR EPGD 081100Z VRB05KT CAVOK 24/09 Q1021=
METAR EPKK 081100Z 33005KT 290V010 9999 FEW053 23/08 Q1022=
METAR EPKT 081100Z 31007KT CAVOK 22/09 Q1023=
METAR EPPO 081100Z 30008KT 250V350 CAVOK 24/08 Q1022=
METAR EPRZ 081100Z 33007KT 290V030 9999 SCT043 21/11 Q1021=
METAR EPWA 081100Z 31010KT 280V350 9999 SCT046 22/12 Q1021 NOSIG=
METAR EPWR 081100Z VRB04KT CAVOK 24/09 Q1023=
METAR LATI 081100Z 01018KT 350V070 9999 FEW040 27/12 Q1016 NOSIG=
METAR LEAL 081100Z 08009KT 050V110 CAVOK 31/13 Q1019 NOSIG=
METAR LGZA 081050Z 33014KT CAVOK 30/07 Q1013=
METAR LHBP 081100Z 22009KT 180V270 CAVOK 23/10 Q1021 NOSIG=
METAR LHDC 081045Z 02012KT 9999 FEW040 22/12 Q1021 NOSIG=
METAR LHKE 081045Z 32002MPS CAVOK 24/10 Q1021 NOSIG RMK BLU=
METAR LHPA 081045Z 34004MPS CAVOK 23/10 Q1023 NOSIG RMK BLU=
METAR LHSN 081045Z 31002MPS CAVOK 24/12 Q1021 NOSIG RMK BLU=
METAR LYBE 081100Z 35013KT 9999 SCT040 22/12 Q1022 NOSIG=
METAR LYNI 081100Z 32010KT 9999 SCT020 BKN026 18/13 Q1021 NOSIG=
METAR LYPG 081100Z 02015KT 350V070 9999 FEW040 27/08 Q1018 NOSIG=
METAR LYTV 081100Z 33006KT 9999 FEW053 28/09 Q1017 NOSIG=
####018001258####
SPUS99 KWBC 081105
SPECI
KARB 081102Z AUTO 00000KT 2SM BR CLR 21/19 A3004 RMK AO2=
KGGG 081102Z 09004KT 9SM FEW002 24/24 A3003 RMK AO2=
KAUW 081103Z AUTO 31005KT 9SM OVC006 19/18 A3002 RMK AO2 CIG
     004V009 $=
KCCR 081103Z AUTO 24004KT 10SM SCT013 13/10 A2990 RMK AO2=
KDGW 081103Z AUTO 00000KT 1 3/4SM BR CLR 06/05 A3035 RMK AO2 VIS
     1V4 $=
KESF 081103Z AUTO 00000KT 5SM BR BKN013 23/22 A3003 RMK AO2=
KGON 081103Z 08004KT 3SM BR BKN002 OVC013 23/21 A3007 RMK AO2=
KITR 081103Z AUTO 18003KT 8SM FEW005 BKN010 OVC055 16/15 A3030 RMK
     AO2 CIG 007V012=
KLAF 081103Z 00000KT 3SM BR BKN060 23/22 A3004 RMK AO2=
KLAR 081103Z AUTO 00000KT 10SM SCT006 OVC020 08/07 A3040 RMK
     AO2=
KLEX 081103Z 00000KT 3SM HZ CLR 22/19 A3010 RMK AO2=
KLVJ 081103Z AUTO 14013G26KT 1 3/4SM +RA FEW019 SCT035 SCT047
     27/23 A2994 RMK AO2 PK WND 13026/1101 RAB02 PRESRR P0009=
KMMK 081103Z AUTO 16006KT 2SM BR OVC008 25/23 A3006 RMK AO2=
KMTH 081103Z AUTO 00000KT 4SM -RA BR SCT021 BKN039 OVC060 26/24
     A2993 RMK AO2 LTG DSNT NE P0001 $=
KPKB 081103Z 00000KT 1/4SM R03/0600FT FG CLR 20/19 A3012 RMK
     AO2=
KVPZ 081103Z AUTO 15004KT 1 3/4SM TSRA BR FEW029 BKN048 OVC080
     23/22 A3005 RMK AO2 RAB1054 P0004=
####018000082####
SAJM31 MKJS 081100
METAR MKJS 081100Z  17003KT 9999 FEW024 BKN200 25/22 Q1012=
####018002016####
SAUS99 KWBC 081105
METAR
KVVG 081055Z AUTO 00000KT 21/20 A3000 RMK AO2=
KW22 081100Z AUTO 00000KT 1 3/4SM BR CLR 19/19 A3013 RMK AO2=
KW45 081100Z AUTO 00000KT 7SM CLR 24/20 A3006 RMK AO2
     T02360197=
KWDR 081100Z AUTO 32003KT 10SM CLR 22/20 A3007 RMK AO1=
KXLL 081100Z AUTO 06003KT 5SM BR CLR 25/23 A3004 RMK AO2
     T02480227=
KXSA 081100Z AUTO 00000KT 3SM SCT120 25/24 A2999 RMK AO2 PWINO=
KUXL 081100Z AUTO 06008KT 10SM SCT009 26/25 A2998 RMK AO2=
KCWV 081111Z AUTO 27004KT 10SM CLR 22/22 A3001 RMK AO2=
KEXX 081100Z AUTO 00000KT 7SM CLR 22/19 A3002 RMK AO2=
KFYJ 081103Z AUTO 00000KT 3SM CLR 26/25 A3000 RMK AO1=
KGAO 081100Z AUTO 07003KT 10SM SCT017 26/25 A3000 RMK AO2=
KGEV 081103Z AUTO 00000KT 7SM CLR 25/16 A3020 RMK AO2=
KIER 081100Z AUTO 00000KT 5SM SCT017 23/23 A3003 RMK AO2 PWINO=
KIXA 081100Z AUTO 02003KT 5SM HZ CLR 24/21 A2996 RMK AO2
     T02350205=
KJFZ 081100Z AUTO 00000KT 3SM CLR 20/20 A3017 RMK=
KLDJ 081100Z AUTO 13004KT 2SM BR OVC002 25/23 A3004 RMK AO2
     T02450231=
KLHZ 081100Z AUTO 00000KT 5SM HZ SCT120 24/20 A2999 RMK AO2
     T02390201=
KMDQ 081100Z AUTO 00000KT 7SM CLR 22/21 A3008 RMK AO2
     T02200212=
KMKJ 081100Z AUTO 00000KT 2 1/2SM CLR 18/07 A3022 RMK AO1 VIS
     2V3=
KMLJ 081104Z AUTO 00000KT 4SM BR CLR 21/21 A3002 RMK AO2=
KMTV 081100Z AUTO 00000KT 4SM BR CLR 22/21 A3006 RMK AO2=
KOKV 081100Z AUTO 00000KT 4SM HZ SCT080 SCT095 23/20 A3005 RMK AO2
     T02280196=
KOMH 081100Z AUTO 00000KT 7SM CLR 25/21 A3003 RMK AO2
     T02480206=
KPCM 081100Z AUTO 02003KT 7SM CLR 22/22 A3001 RMK AO2=
KRCZ 081100Z AUTO 00000KT 10SM CLR 24/19 A2997 RMK AO2
     T02370188=
KRMN 081100Z AUTO 00000KT 4SM BR CLR 23/23 A3003 RMK AO2=
KSFQ 081100Z AUTO 07003KT 2 1/2SM BR SCT090 26/24 A2998 RMK
     AO2=
KSHD 081100Z AUTO 00000KT 4SM HZ CLR 22/18 A3009 RMK AO2=
KTBR 081100Z AUTO 26004KT 10SM CLR 23/20 A3000 RMK AO2
     T02330204=
KVDF 081056Z AUTO 00000KT 5SM BR CLR 22/21 A2999 RMK AO2=
####018000081####
SAJM31 MKJS 081100
METAR MKJS 081100Z 17003KT 9999 FEW024 BKN200 25/22 Q1012=
####018000682####
SAFR36 LFPW 081100
METAR LFBA 081100Z 09010KT CAVOK 31/17 Q1017 NOSIG=
METAR LFBE 081100Z 07008KT CAVOK 31/19 Q1017 NOSIG=
METAR LFGJ 081100Z AUTO 25005KT 220V330 9999NDV NSC 29/12 Q1020=
METAR LFJR 081100Z AUTO 13005KT 060V210 9999NDV NCD 31/12 Q1018=
METAR LFMD 081100Z AUTO 16009KT 9999NDV NSC 30/22 Q1020=
METAR LFMH 081100Z 13006KT 090V200 CAVOK 30/12 Q1021 NOSIG=
METAR LFOT 081100Z AUTO VRB04KT 9999NDV NSC 30/12 Q1018=
METAR LFPN 081100Z VRB03KT CAVOK 30/10 Q1019 NOSIG=
METAR LFRC 081100Z AUTO 01007KT 310V050 9999NDV NSC 21/16 Q1019=
METAR LFRG 081100Z AUTO 05004KT 350V100 9999NDV NSC 26/14 Q1019=
METAR LFRK 081100Z 36007KT 310V050 CAVOK 24/13 Q1019 NOSIG=
####018000392####
SASD31 OEJD 081100
METAR OEDF 081100Z 36016KT CAVOK 45/03 Q0999 NOSIG=
METAR OEDR 081100Z 02011KT 8000 SKC 43/09 Q0998 NOSIG=
METAR OEJN 081100Z 33010KT CAVOK 38/25 Q1001 NOSIG=
METAR OEMA 081100Z 06012KT 9999 FEW045 46/M01 Q1005 NOSIG=
METAR OERK 081100Z 36017G29KT 5000 BLDU SKC 43/M03 Q1006 NOSIG=
METAR OERY 081100Z 03018KT 3000 SA SKC 44/00 Q1007 NOSIG=
METAR OYSN 081100Z NIL=
####018000382####
SARO31 LROM 081100
METAR LRBS 081100Z 31004KT 270V360 9999 FEW020 21/15 Q1017 NOSIG=
METAR LRCK 081100Z 01011KT 340V050 9999 FEW035 24/15 Q1015 NOSIG=
METAR LROP 081100Z 27004KT 230V310 9999 FEW040CB FEW045 21/14 Q1016
880///95 NOSIG=
METAR COR LRSB 081100Z 04004KT 360V100 9999 FEW017 SCT026 OVC086
17/12 Q1020=
METAR LRTR 081100Z 35008KT 320V040 9999 SCT032 23/15 Q1020=
####018000550####
SAFR37 LFPW 081100
METAR LFAQ 081100Z AUTO 19004KT 130V270 9999NDV NSC 29/11 Q1019=
METAR LFBU 081100Z AUTO 11005KT 070V180 9999NDV NSC 32/12 Q1018=
METAR LFLN 081100Z AUTO VRB02KT 9999NDV NSC 30/14 Q1020=
METAR LFPM 081100Z VRB02KT CAVOK 30/13 Q1019=
METAR LFRH 081100Z VRB03KT CAVOK 26/07 Q1018=
METAR LFRQ 081100Z VRB02KT CAVOK 25/12 Q1019 NOSIG=
METAR LFRT 081053Z 06005KT 360V110 9999 FEW020 SCT250 21/16 Q1019=
METAR LFSD 081100Z AUTO VRB03KT 9999NDV NSC 29/13 Q1020=
METAR LFTW 081100Z AUTO 19004KT 090V260 9999NDV NSC 31/14 Q1020=
####018000166####
SACY31 LCLK 081100
METAR LCLK 081100Z 19017KT 9999 FEW025 30/22 Q1008 NOSIG=
METAR LCPH 081100Z 24008KT 190V270 9999 FEW030 29/23 Q1008=
METAR LCNC 081100Z NIL=
####018000098####
SAAJ31 UBBB 081100
METAR UBBG 081100Z 07014KT 9999 SCT083 35/17 Q1010 NOSIG RMK
R12L/CLRD70 =
####018000084####
SAAG SAZS 081100
METAR SAZS 081100Z  32008KT 4000 RA BKN007 OVC040
01/00 Q1005=
####018000091####
SPAK31 KWBC 081105
SPECI
PASC 081101Z 25010KT 10SM SCT024 SCT080 OVC210 10/07 A3002=
####018000342####
SAIE31 EIDB 081100
METAR EIDW 081100Z 22014KT 9999 FEW026 SCT050 BKN130 18/09 Q1015
     NOSIG=
METAR EINN 081100Z 20008KT 160V220 9999 -RA FEW017 SCT025 BKN045
     16/12 Q1015 NOSIG=
METAR EICK 081100Z 21011KT 9999 -RA BKN012 BKN045 15/12 Q1016 NOSIG=
METAR EIKN 081100Z 23009KT 9999 FEW018CB SCT025 BKN045 14/10 Q1013
     NOSIG=
####018000478####
SAHU41 LHBM 081100
METAR LHDC 081045Z 02012KT 9999 FEW040 22/12 Q1021 NOSIG=
METAR LHKE 081045Z 32002MPS CAVOK 24/10 Q1021 NOSIG RMK BLU=
METAR LHPA 081045Z 34004MPS CAVOK 23/10 Q1023 NOSIG RMK BLU=
METAR LHPP 081045Z 03006KT 9999 SCT043 23/12 Q1023 NOSIG=
METAR LHPR 081045Z 33010KT CAVOK 24/09 Q1022=
METAR LHSM 081045Z 33007KT CAVOK 24/12 Q1023 NOSIG=
METAR LHSN 081045Z 31002MPS CAVOK 24/12 Q1021 NOSIG RMK BLU=
METAR LHUD 081045Z 34004KT 9999 FEW040 24/13 Q1022=
####018000142####
SAGY31 SYCJ 081100
METAR SYCJ 081100Z 09002KT 9000 SCT015 FEW016CB 26/25 Q1012 CB-W= 
METAR SYGO 081100Z 08006KT 9999 SCT016 28/24 Q1012=
####018000223####
SAUK51 EGGY 081050 RRA
METAR EGOV 081050Z 21013KT 9999 FEW014 BKN090 17/13 Q1017 NOSIG=
METAR EGUB 081050Z 22006KT 9999 BKN026 SCT120 21/16 Q1018 NOSIG=
METAR EGXC 081050Z 21013KT 9999 FEW030 BKN250 20/10 Q1017 NOSIG=
####018000080####
SAGL41 BGSF 081050 RRA
METAR BGUQ 081050Z 08008KT 9999 VCFG SKC 09/09 Q1009=
####018000618####
SAPR82 SPIM 081100
METAR
SPHI 081100Z 17007KT 9999 SCT012 15/13 Q1014 RMK PP000=
METAR COR
SPIM 081100Z VRB02KT OVC022 16/13 Q1013 NOSIG RMK PP000=
METAR
SPQT 081100Z /////KT 9999 FEW008 SCT100 24/23 Q1011 NOSIG
             RMK BIRD HAZARD RWY 06/24 PP000=
METAR
SPQU 081100Z 34005KT CAVOK 06/M09 Q1024 RMK PP000=
METAR
SPRU 081100Z 16005KT 7000 OVC015 16/13 Q1013 RMK BIRD HAZARD RWY20
PP000=
METAR
SPSO 081100Z 14003KT 8000 SKC 12/10 Q1013 RMK PP000=
METAR
SPTN 081100Z 15004KT 8000 SCT007 OVC012 11/09 Q1013 RMK PP000=
METAR
SPZO 081100Z 00000KT 9999 FEW030 03/00 Q1032 TEMPO SCT036 RMK PP000=
####018000106####
SASR31 WSSS 081100
METAR WSSS 081100Z 21004KT 160V250 9999 FEW016 FEW018TCU BKN280 29/25
Q1009 NOSIG=
####018000243####
SACZ31 LKPW 081100
METAR LKKV 081100Z VRB03KT CAVOK 23/10 Q1024=
METAR LKMT 081100Z 05007KT 350V120 CAVOK 21/10 Q1023 NOSIG=
METAR LKPR 081100Z 34004KT 290V030 CAVOK 23/09 Q1023 NOSIG=
METAR LKTB 081100Z VRB06KT CAVOK 23/07 Q1023 NOSIG=
####018000475####
SAIR32 OIII 081100
METAR OIAA 081100Z 33012KT CAVOK 48/04 Q0998=
METAR OIBK 081100Z 16010KT 5000 HZ SKC 37/23 Q0999 A2952=
METAR OICC 081100Z 21018KT CAVOK 42/M05 Q1012 A2989
863.9=
METAR OIGG 081100Z 36004KT CAVOK 32/21 Q1010 A2985=
METAR OIIE 081100Z 11010KT CAVOK 41/M07 Q1010 A2983 
897.3 05:=
METAR OITR 081100Z 05004KT CAVOK 34/13 Q1013 A2993=
METAR OIYY 081100Z 09008KT CAVOK 41/M09 Q1013 A2993=
METAR OAKN 081100Z NIL=
METAR OAKB 081100Z NIL=
####018000452####
SAFR31 LFPW 081100
METAR LFLL 081100Z VRB04KT CAVOK 30/15 Q1020 NOSIG=
METAR LFMN 081100Z 10008KT 9999 FEW023 29/22 Q1020 NOSIG=
METAR LFPG 081100Z 17008KT 100V220 CAVOK 30/09 Q1019 NOSIG=
METAR LFPO 081100Z 22005KT 190V270 CAVOK 30/09 Q1019 NOSIG=
METAR LFQQ 081100Z 24004KT 180V300 CAVOK 29/13 Q1019 NOSIG=
METAR LFRB 081100Z 30003KT 210V360 9999 SCT020 SCT250 22/16 Q1019
NOSIG=
METAR LFRS 081100Z 25004KT 210V290 CAVOK 30/14 Q1017 NOSIG=
####018000082####
SAVG31 TVSV 081100
METAR
TVSV 081100Z 11013KT 9999 SCT021 BKN280 29/24 Q1014=
####018001711####
SAEU KAWN 081100 RRL
METAR EGYD 081050Z 23012KT 9999 FEW040 SCT120 BKN250 20/09 Q1017 BLU
      NOSIG=
METAR EIDW 081100Z 22014KT 9999 FEW026 SCT050 BKN130 18/09 Q1015 NOSIG=
METAR LEAM 081100Z 08013KT 050V110 CAVOK 37/07 Q1016=
METAR LEAS 081100Z 04004KT 300V090 9999 BCFG SCT006 BKN014 20/19 Q1018
      NOSIG TEMPO 4000 BR=
METAR LEBB 081100Z 28011KT 8000 FEW020 26/21 Q1016 NOSIG=
METAR LEBL 081100Z 20015KT CAVOK 27/21 Q1019 NOSIG=
METAR LEGE 081100Z 15003KT CAVOK 34/15 Q1019=
METAR LEGR 081100Z 16013KT 130V200 9999 FEW060 38/05 Q1018=
METAR LEIB 081100Z 08010KT 050V120 CAVOK 29/21 Q1019 NOSIG=
METAR LELN 081100Z 17003KT CAVOK 30/10 Q1020=
METAR LEMD 081100Z 18006KT 120V260 CAVOK 33/11 Q1020 NOSIG=
METAR LEMG 081100Z 15011KT 100V200 9999 FEW030 31/13 Q1017 NOSIG=
METAR LEPA 081100Z 23007KT 200V260 CAVOK 30/11 Q1020 NOSIG=
METAR LERS 081100Z 19008KT 140V250 CAVOK 29/16 Q1019=
METAR LESA 081100Z VRB02KT CAVOK 33/15 Q1019=
METAR LESO 081100Z 03006KT 340V050 CAVOK 25/20 Q1015=
METAR LEST 081100Z 11010KT 080V140 CAVOK 23/19 Q1015 NOSIG=
METAR LEVC 081100Z 08004KT 340V150 CAVOK 32/20 Q1019 NOSIG=
METAR LEVT 081100Z 00000KT CAVOK 33/17 Q1018=
METAR LEVX 081100Z 26010KT CAVOK 26/22 Q1014=
METAR LEZG 081100Z 09009KT 050V120 CAVOK 34/14 Q1018=
METAR LEZL 081100Z 30006KT 260V350 9999 SCT025 30/17 Q1015 NOSIG=
METAR LHPP 081045Z 03006KT 9999 SCT043 23/12 Q1023 NOSIG=
METAR LHUD 081045Z 34004KT 9999 FEW040 24/13 Q1022=
METAR LKKV 081100Z VRB03KT CAVOK 23/10 Q1024=
METAR LKMT 081100Z 05007KT 350V120 CAVOK 21/10 Q1023 NOSIG=
METAR LKPR 081100Z 34004KT 290V030 CAVOK 23/09 Q1023 NOSIG=
METAR LKTB 081100Z VRB06KT CAVOK 23/07 Q1023 NOSIG=
####018000813####
SAUR31 UKMS 081100
METAR UKLR 081100Z 31006MPS 9999 BKN023 BKN100 21/15
         Q1018 30090070 NOSIG=
METAR UKLI 081100Z 30003MPS 9999 SCT023CB BKN030
         17/14  Q1020 28290565 NOSIG=
METAR UKON 081100Z 32003MPS 270V360 9999 FEW033TCU
         OVC200 28/17 Q1013 05090075 NOSIG=
METAR UKCM 081100Z 12003MPS 060V200 CAVOK 28/18 Q1014
          02010065 NOSIG=
METAR UKCW 081100Z 02002MPS 280V070 9999 BKN040 29/15
          Q1015 2709//70 NOSIG=
METAR UKLU 081100Z 35005MPS 9999 SCT040 23/10 Q1021
         10090070 NOSIG=
METAR UKKK 081100Z 26003MPS 9999 BKN033 25/18 Q1015
         26CLRD70  NOSIG=
METAR UKKM 081100Z 32005MPS 280V340 9999 SCT030
         BKN100 24/18  Q1015 33CLRD70 NOSIG=
METAR UKLN 081100Z 30006MPS 260V340 9999 BKN011
         BKN033CB 15/14 Q1020 3319//65 NOSIG=
####018000998####
SAAG01 SABM 081100
METAR SAAR 081100Z  00000KT 9000  NSC  00/M00
Q1018=
METAR SABE 081100Z  27009KT CAVOK 09/M01 Q1019=
METAR SACO 081100Z  34010KT CAVOK 09/M08 Q1020=
METAR SADD 081100Z NIL=
METAR SADF 081100Z NIL=
METAR SAEZ 081100Z 27001KT CAVOK 03/00 Q1019=
METAR SAME 081100Z 00000KT CAVOK 03/M04 Q1015=
METAR SANT 081100Z NIL=
METAR SARE 081100Z 14007KT 9999 BKN006 SCT100 10/09 Q1019=
METAR SARF 081100Z  18008KT 9999  BKN006 SCT018
14/12 Q1017=
METAR SARI 081100Z  20004KT 7000  NSC  16/16 Q1019=
METAR SARP 081100Z  07007KT 9999  SCT005 OVC015
15/13 Q1018=
METAR SASA 081100Z NIL=
METAR SASJ 081100Z  00000KT CAVOK 10/08 Q1018=
METAR SAVC 081100Z NIL=
METAR SAWE 081100Z NIL=
METAR SAWG 081100Z  29016KT 9999  SCT025 SCT100
03/M06 Q0991=
METAR SAWH 081100Z  05006KT 9999  FEW035 BKN100
01/M01 Q0984=
METAR SAZM 081100Z NIL=
METAR SAZN 081100Z 27010KT CAVOK 07/01 Q1009=
METAR SAZS 081100Z  32008KT 4000 RA BKN007 OVC040
01/00 Q1005=
####018000093####
SAGB20 GBYD 081100

METAR GBYD 081100Z 22004KT 9999 SCT011 FEW020CB 32/26 Q1013  CB E-W=
####018000197####
SAPM31 MPTO 081100
METAR
MPMG 081100Z 00000KT 9999 FEW016 25/23 Q1011 RWY DAMP NOSIG=
MPDA 081100Z 00000KT 9999 FEW008TCU SCT035 BKN200  Q1011=
MPCH 081100Z 00000KT 9999 SCT025 OVC080 Q1012=
####018000391####
SANM40 FYWW 081100
METAR FYAN 081100Z AUTO 03008KT //// // ////// 21/02 Q1028=
METAR FYKX 081100Z AUTO 13014KT //// // ////// ///// Q1024=
METAR FYWB 081100Z 07022KT 9999 R09/M0050VP1500N VV/// 32/03 Q1016 =
METAR FYWB 081100Z 07022KT 9999 R09/M0050VP1500N VV/// 32/03 Q1016 =
METAR FYWH 081100Z 01010G25KT CAVOK 19/M01 Q1029=
METAR FYWW 081100Z 03011KT CAVOK 19/M02 Q1027=

####018000072####
SABC40 FBSK 081100
METAR FBMN 081100Z 09012KT CAVOK 23/06 Q1027=

####018000260####
SAZW40 FVHA 081100
METAR FVBU 081100Z NIL=
METAR FVCZ 081100Z NIL=
METAR FVFA 081100Z NIL=
METAR FVHA 081100Z 12012KT CAVOK 17/05 Q1029 NOSIG=
METAR FVKB 081100Z NIL=
METAR FVMV 081100Z NIL=
METAR FVTL 081100Z NIL=
METAR FVWN 081100Z NIL=

####018000788####
SAZA31 FAPR 081100
METAR FABL 081100Z 34010KT 9999 FEW045 18/06 Q1032 NOSIG=
METAR FACT 081100Z VRB02KT CAVOK 21/03 Q1019 NOSIG=
METAR FAEL 081100Z 05010KT 020V080 9999 FEW040 22/11 Q1025=
METAR FAGG 081100Z VRB02KT CAVOK 17/07 Q1021=
METAR FAJS 081100Z 06007KT 020V080 9999 SCT039 14/04 Q1035 NOSIG=
METAR FAKN 081100Z 15006KT 9999 BKN025 17/11 Q1032 NOSIG=
METAR FALA 081100Z 02008KT 340V050 9999 SCT035 18/04 Q1033 NOSIG=
METAR FALE 081100Z 06012KT CAVOK 23/14 Q1028 NOSIG=
METAR FAMM 081100Z 02010KT 9999 FEW040 18/04 Q1031 NOSIG=
METAR FAPE 081100Z 04013KT CAVOK 17/10 Q1023 NOSIG=
METAR FAPN 081100Z AUTO 08003KT //// // ////// 20/06 Q1031=
METAR FAPP 081100Z 08008KT 9999 BKN035 15/07 Q1031 NOSIG=
METAR FAUP 081100Z 35021KT CAVOK 22/02 Q1026 NOSIG=

####018000118####
SPJP31 KWBC 081105
SPECI
RODN 081059Z AUTO 18011KT 9999 BKN017 BKN190 29/26 A2984 RMK AO2
CIG 015V019 SLP105=
####018001369####
SAJP51 RJTD 081100 RRA
METAR RJGG 081100Z 12009KT 9999 FEW010 BKN/// 25/23 Q1009 NOSIG=
METAR RJNT 081100Z 02002KT 9999 FEW020 SCT030 BKN/// 26/21 Q1010=
METAR RJOA 081100Z VRB01KT CAVOK 25/20 Q1011=
METAR RJOB 081100Z 04001KT CAVOK 25/21 Q1010=
METAR RJOC 081100Z VRB01KT 8000 TS FEW010 SCT020 BKN025 FEW025CB
           25/21 Q1010=
METAR RJOH 081100Z 07006KT 6000 TS FEW010 SCT015 SCT025CB BKN035
           25/22 Q1009=
METAR RJOK 081100Z 21004KT 160V240 9999 FEW035 SCT045 BKN/// 26/23
           Q1009=
METAR RJOM 081100Z 00000KT 9000 FEW015 SCT040 BKN/// 25/23 Q1009=
METAR RJOO 081100Z 21004KT 160V250 9999 FEW030 BKN/// 27/21 Q1009=
METAR RJOR 081100Z 36003KT 6000 FEW025 BKN030 BKN/// 25/23 Q1009=
METAR RJOT 081100Z VRB02KT 9999 FEW025 SCT080 BKN/// 25/22 Q1010=
METAR RJSA 081100Z 11003KT 8000 FEW010 SCT030 BKN080 21/20 Q1011=
METAR RJSK 081100Z VRB02KT CAVOK 23/21 Q1011=
METAR RJSN 081100Z 04004KT 360V080 7000 FEW015 BKN/// 24/23 Q1010=
METAR RJSS 081100Z 10004KT 9999 FEW010 BKN/// 24/22 Q1010=
METAR RJSY 081100Z VRB01KT 9999 FEW030 SCT/// 24/21 Q1011=
METAR RJTT 081100Z 18016KT 9999 FEW009 SCT014 BKN/// 25/22 Q1010=
METAR ROAH 081100Z 19012KT 9999 SCT012 SCT080 BKN150 29/27 Q1010=
METAR ROIG 081100Z 21010KT 9999 FEW015 BKN/// 30/26 Q1009=
METAR ROMY 081100Z 22010KT 9999 SCT014 BKN/// 29/27 Q1010=
####018001406####
SAJP51 RJTD 081100
METAR RJAA 081100Z 16004KT 9999 FEW020 BKN/// 23/21 Q1011 NOSIG=
METAR RJBB 081100Z 25010KT 9999 FEW060 BKN/// 26/23 Q1009 NOSIG=
METAR RJBE 081100Z 21017KT 9999 FEW025 BKN/// 26/23 Q1009=
METAR RJBH 081100Z 21007KT CAVOK 25/20 Q1008=
METAR RJCB 081100Z 16004KT 7000 FEW004 SCT005 BKN007 17/16 Q1010=
METAR RJCC 081100Z 21006KT 2500 -DZ BR BKN002 18/16 Q1010=
METAR RJCH 081100Z 18003KT 9999 FEW004 SCT009 BKN011 20/19 Q1010=
METAR RJCK 081100Z 21006KT 0300 R17/0900N +DZ VV001 16/15 Q1010=
METAR RJCM 081100Z 01007KT 9999 FEW003 BKN012 BKN027 16/14 Q1010=
METAR RJDC 081100Z 06005KT 6000 FEW030 SCT050 BKN/// 25/22 Q1009=
METAR RJDT 081100Z 05004KT 010V120 9999 FEW008 BKN015 BKN/// 22/21
           Q1009=
METAR RJEC 081100Z 31006KT 9999 FEW015 BKN020 19/18 Q1010=
METAR RJFS 081100Z 28007KT 9999 FEW030 BKN/// 26/22 Q1008=
METAR RJFF 081100Z 30006KT 260V330 6000 FEW025 BKN030 BKN/// 25/21
           Q1009=
METAR RJFK 081100Z 15004KT 9999 FEW030 BKN/// 24/20 Q1010=
METAR RJFM 081100Z 34003KT 290V010 6000 FEW020 BKN/// 26/22 Q1008=
METAR RJFO 081100Z VRB02KT 6000 -SHRA FEW020 SCT035 BKN080 25/23
           Q1009=
METAR RJFR 081100Z 13004KT 9000 FEW030 SCT050 BKN/// 26/22 Q1009=
METAR RJFT 081100Z 20003KT 140V230 9999 FEW020 BKN030 BKN/// 25/21
           Q1010=
METAR RJFU 081100Z 27004KT 9999 FEW025 SCT150 BKN/// 25/23 Q1009=
####018000473####
SAMS32 WMKK 081100
METAR 081100Z
METAR WBGG 081100Z 26004KT 9999 TS FEW015CB SCT020 BKN150 25/23 Q1011
NOSIG=
METAR WBKK 081100Z 11005KT 9999 FEW014 SCT140 BKN270 25/24 Q1009
NOSIG=
METAR WMKJ 081100Z 20004KT 9999 FEW022 SCT140 BKN300 28/25 Q1009=
METAR WMKK 081100Z 19003KT 9999 FEW018 SCT140 BKN280 28/26 Q1008
NOSIG=
METAR WMKP 081100Z 25005KT 9999 FEW020 BKN280 30/25 Q1008 NOSIG=
METAR WMSA 081100Z 28005KT 9999 FEW020 SCT140 BKN280 32/25 Q1008=
####018000118####
SPXX62 KWBC 081105
SPECI
RODN 081059Z AUTO 18011KT 9999 BKN017 BKN190 29/26 A2984 RMK AO2
CIG 015V019 SLP105=
####018000075####
SAYE20 OYAG 081100
METAR OYAG 081100Z 08015KT 9999 SCT030 30/24 Q1002=
####018000523####
SATS40 DTTA 081100
METAR DTKA 081100Z 30010KT 270V330 9999 FEW023 27/21 Q1020 NOSIG=
METAR DTMB 081100Z 03008KT CAVOK 29/15 Q1019 NOSIG=
METAR DTNZ 081100Z AUTO 10012KT CAVOK 29/16 Q1018=
METAR DTTA 081100Z 05008KT 010V080 CAVOK 30/19 Q1019  NOSIG=
METAR DTTF 081100Z 22006KT CAVOK 33/14 Q1017 NOSIG=
METAR DTTJ 081100Z 07010KT CAVOK 29/21 Q1019 NOSIG=
METAR DTTR 081100Z 10006KT CAVOK 34/11 Q1019=
METAR DTTX 081100Z 15008KT CAVOK 30/19 Q1019 NOSIG=
METAR DTTZ 081100Z 10010KT CAVOK 34/22 Q1018 NOSIG=
####018000586####
SAFR35 LFPW 081100
METAR LFMI 081100Z AUTO VRB05KT 9999NDV NSC 33/15 Q1020=
METAR LFMK 081100Z AUTO 09014KT 060V140 9999NDV NSC 32/15 Q1019=
METAR LFRD 081100Z AUTO VRB06KT 9999NDV NSC 21/15 Q1019=
METAR LFRN 081100Z AUTO VRB03KT 9999NDV NSC 27/13 Q1018=
METAR LFRO 081100Z AUTO 36005KT 310V100 9999NDV BKN019 21/16 Q1019=
METAR LFRZ 081100Z AUTO 18005KT 140V250 9999NDV NSC 30/12 Q1018=
METAR LFSB 081100Z VRB03KT CAVOK 29/10 Q1021 NOSIG=
METAR LFST 081100Z 17003KT 110V250 CAVOK 29/10 Q1020 NOSIG=
METAR LFTH 081100Z 18005KT 140V260 9999 FEW026 29/23 Q1020 NOSIG=
####018000495####
SAFR33 LFPW 081100
METAR LFKC 081100Z 35010KT 9000 FEW013 29/23 Q1020 NOSIG=
METAR LFKF 081100Z 22007KT 180V260 9999 FEW032TCU 31/23 Q1019 NOSIG=
METAR LFKJ 081100Z 22009KT 9999 FEW026 28/23 Q1019 NOSIG=
METAR LFLC 081100Z VRB03KT CAVOK 31/15 Q1020 NOSIG=
METAR LFMP 081100Z 07009KT 040V100 9999 FEW043 SCT260 29/18 Q1020
NOSIG=
METAR LFMV 081100Z AUTO VRB03KT 9999NDV NSC 33/14 Q1020=
METAR LFSL 081100Z AUTO 14005KT 090V190 9999NDV NSC 30/13 Q1020=
METAR LFKB 081100Z NIL=
####018000673####
SAFR32 LFPW 081100
METAR LFBD 081100Z 10010KT 060V130 CAVOK 32/12 Q1017 NOSIG=
METAR LFBH 081100Z AUTO 30006KT 9999NDV NSC 30/14 Q1017=
METAR LFBI 081100Z 21005KT 140V300 CAVOK 30/13 Q1018 NOSIG=
METAR COR LFBL 081100Z 15007KT 100V170 CAVOK 28/13 Q1020 NOSIG=
METAR LFBO 081100Z 10010KT 080V140 CAVOK 33/12 Q1018 NOSIG=
METAR LFBP 081100Z 08006KT 050V120 CAVOK 34/17 Q1016 NOSIG=
METAR LFBZ 081100Z 05006KT 010V090 CAVOK 30/23 Q1015 NOSIG=
METAR LFLB 081100Z 35005KT 320V020 9999 FEW070 SCT260 27/17 Q1021
NOSIG=
METAR LFLX 081100Z VRB03KT CAVOK 30/12 Q1018 NOSIG=
METAR LFML 081100Z 27008KT 9999 FEW050 32/18 Q1020 NOSIG=
METAR LFBT 081100Z NIL=
####018000460####
SAFR31 LFPW 081100
METAR LFLL 081100Z VRB04KT CAVOK 30/15 Q1020 NOSIG=
METAR LFMN 081100Z 10008KT 9999 FEW023 29/22 Q1020 NOSIG=
METAR LFPG 081100Z 17008KT 100V220 CAVOK 30/09 Q1019 NOSIG=
METAR LFPO 081100Z 22005KT 190V270 CAVOK 30/09 Q1019 NOSIG=
METAR LFQQ 081100Z 24004KT 180V300 CAVOK 29/13 Q1019 NOSIG=
METAR LFRB 081100Z 30003KT 210V360 9999 SCT020 SCT250 22/16 Q1019
NOSIG=
METAR LFRS 081100Z 25004KT 210V290 CAVOK 30/14 Q1017 NOSIG=
####018000082####
SPUS41 KWBC 081105
SPECI
KCEF 081102Z AUTO 16005KT 10SM BKN009 24/22 A3006=
####018000169####
SACY31 LCLK 081100
METAR LCLK 081100Z 19017KT 9999 FEW025 30/22 Q1008 NOSIG=
METAR LCPH 081100Z 24008KT 190V270 9999 FEW030 29/23 Q1008=
METAR LCNC 081100Z NIL=
####018000693####
SAFR36 LFPW 081100
METAR LFBA 081100Z 09010KT CAVOK 31/17 Q1017 NOSIG=
METAR LFBE 081100Z 07008KT CAVOK 31/19 Q1017 NOSIG=
METAR LFGJ 081100Z AUTO 25005KT 220V330 9999NDV NSC 29/12 Q1020=
METAR LFJR 081100Z AUTO 13005KT 060V210 9999NDV NCD 31/12 Q1018=
METAR LFMD 081100Z AUTO 16009KT 9999NDV NSC 30/22 Q1020=
METAR LFMH 081100Z 13006KT 090V200 CAVOK 30/12 Q1021 NOSIG=
METAR LFOT 081100Z AUTO VRB04KT 9999NDV NSC 30/12 Q1018=
METAR LFPN 081100Z VRB03KT CAVOK 30/10 Q1019 NOSIG=
METAR LFRC 081100Z AUTO 01007KT 310V050 9999NDV NSC 21/16 Q1019=
METAR LFRG 081100Z AUTO 05004KT 350V100 9999NDV NSC 26/14 Q1019=
METAR LFRK 081100Z 36007KT 310V050 CAVOK 24/13 Q1019 NOSIG=
####018000559####
SAFR37 LFPW 081100
METAR LFAQ 081100Z AUTO 19004KT 130V270 9999NDV NSC 29/11 Q1019=
METAR LFBU 081100Z AUTO 11005KT 070V180 9999NDV NSC 32/12 Q1018=
METAR LFLN 081100Z AUTO VRB02KT 9999NDV NSC 30/14 Q1020=
METAR LFPM 081100Z VRB02KT CAVOK 30/13 Q1019=
METAR LFRH 081100Z VRB03KT CAVOK 26/07 Q1018=
METAR LFRQ 081100Z VRB02KT CAVOK 25/12 Q1019 NOSIG=
METAR LFRT 081053Z 06005KT 360V110 9999 FEW020 SCT250 21/16 Q1019=
METAR LFSD 081100Z AUTO VRB03KT 9999NDV NSC 29/13 Q1020=
METAR LFTW 081100Z AUTO 19004KT 090V260 9999NDV NSC 31/14 Q1020=
####018000389####
SARO31 LROM 081100
METAR LRBS 081100Z 31004KT 270V360 9999 FEW020 21/15 Q1017 NOSIG=
METAR LRCK 081100Z 01011KT 340V050 9999 FEW035 24/15 Q1015 NOSIG=
METAR LROP 081100Z 27004KT 230V310 9999 FEW040CB FEW045 21/14 Q1016
880///95 NOSIG=
METAR COR LRSB 081100Z 04004KT 360V100 9999 FEW017 SCT026 OVC086
17/12 Q1020=
METAR LRTR 081100Z 35008KT 320V040 9999 SCT032 23/15 Q1020=
####018000529####
SATS32 DTTA 081100
METAR DTKA 081100Z 30010KT 270V330 9999 FEW023 27/21 Q1020 NOSIG=
METAR DTMB 081100Z 03008KT CAVOK 29/15 Q1019 NOSIG=
METAR DTNZ 081100Z AUTO 10012KT CAVOK 29/16 Q1018=
METAR DTTA 081100Z 05008KT 010V080 CAVOK 30/19 Q1019  NOSIG=
METAR DTTF 081100Z 22006KT CAVOK 33/14 Q1017 NOSIG=
METAR DTTG 081100Z 08010KT CAVOK 32/12 Q1018 NOSIG=
METAR DTTJ 081100Z 07010KT CAVOK 29/21 Q1019 NOSIG=
METAR DTTX 081100Z 15008KT CAVOK 30/19 Q1019 NOSIG=
METAR DTTZ 081100Z 10010KT CAVOK 34/22 Q1018 NOSIG=
####018000670####
SAKO31 RKSI 081100
METAR RKSI 081100Z 28002KT 9000 -RA FEW040 OVC110 24/19 Q1008
           NOSIG=
METAR RKSS 081100Z 18005KT 9999 -RA SCT030 OVC110 25/15 Q1008 
           NOSIG =
METAR RKPC 081100Z 09009KT 4500 BR SCT030 OVC120 25/20 Q1007 NOSIG =
METAR RKPK 081100Z 14004KT 9999 FEW030 BKN200 24/17 Q1009 NOSIG =
METAR RKTU 081100Z 31005KT 9000 SCT030 SCT100 OVC200 26/19 Q1009 
           TEMPO 4500 -RA =
METAR RKTN 081100Z 33003KT 8000 -RA FEW025CB BKN040 OVC200 25/23
           Q1008 NOSIG=
METAR RKJB 081100Z 09002KT 8000 FEW025 BKN150 25/18 Q1008 TEMPO 
           4200 RA =
METAR RKNY 081100Z AUTO 13003KT3000NDV NCD 20/18 Q1008 =
####018000099####
SAAJ31 UBBB 081100
METAR UBBY 081100Z 15007KT 9999 NSC 34/16 Q1014 NOSIG
RMK R33/CLRD70 G/O=
####018000186####
SATD31 TTPP 081100
METAR
TTPP 081100Z 00000KT 9000 FEW006 FEW010CB BKN036 BKN080 25/24 Q1011
NOSIG=
TTCP 081100Z 08013KT 9000 -SHRA FEW010CB SCT014 BKN038 24/23 Q1013
NOSIG=
####018000323####
SATS42 DTTA 081100
METAR DTTB 081100Z 31010KT 9999 FEW020 29/16 Q1019=
METAR DTTD 081100Z 11006KT 050V170 CAVOK 30/14 Q1020=
METAR DTTK 081100Z 13002KT CAVOK 34/11 Q1018=
METAR DTTL 081100Z 28006KT CAVOK 30/19 Q1019=
METAR DTTN 081100Z 32006KT CAVOK 33/16 Q1018=
METAR DTTR 081100Z 10006KT CAVOK 34/11 Q1019=
####018000099####
SPUS42 KWBC 081105 CCA
SPECI
KBTR 081059Z 06003KT 2 1/2SM BR MIFG SCT003 BKN200 23/23 A3001=
####018000813####
SAFR34 LFPW 081100
METAR LFCR 081100Z AUTO VRB06KT 9999NDV NSC 31/05 Q1022=
METAR LFJL 081100Z AUTO VRB02KT 9999NDV NSC 29/08 Q1021=
METAR LFLP 081100Z AUTO VRB04KT 9999NDV NSC 29/14 Q1022=
METAR LFLS 081100Z 25007KT 180V290 9999 FEW050 30/14 Q1021 NOSIG=
METAR LFLY 081100Z VRB05KT CAVOK 30/14 Q1020 NOSIG=
METAR LFMT 081100Z 16005KT CAVOK 30/17 Q1020 NOSIG=
METAR LFMU 081100Z AUTO 16008KT 110V200 9999NDV NSC 30/12 Q1020=
METAR LFOB 081100Z 21006KT 180V340 CAVOK 30/11 Q1019 NOSIG=
METAR LFOH 081100Z AUTO 35014KT //// R23///// NSC 22/12 Q1019=
METAR LFOK 081100Z AUTO 25004KT 170V310 9999NDV NSC 30/10 Q1020=
METAR LFOP 081100Z 17004KT 110V260 CAVOK 29/13 Q1019 NOSIG=
METAR LFPB 081100Z 06003KT 310V100 CAVOK 30/10 Q1018 NOSIG=
METAR LFSN 081100Z VRB03KT CAVOK 30/14 Q1020 NOSIG=
####018000125####
SAUS41 KAKQ 081105 COR
MTRWAL
METAR KWAL 08054Z AUTO 1&ZQ10SM BKN095 25&&
001 RMK AO2 
SLP158 T02%00222 TS5
####018000112####
SAJP51 RJTD 081100 RRB
METAR RJAH 081100Z 21003KT 9999 FEW030 BKN/// 25/23 Q1010=
METAR RORS 081100Z NIL=
####018000401####
SAIR33 OIII 081100
METAR OIBB 081100Z 26012KT CAVOK 35/28 Q0999 A2951=
METAR OIBL 081100Z NIL=
METAR OIBP 081100Z 20012KT 5000 HZ SKC 39/22 Q0999 A2951=
METAR OICK 081100Z NIL=
METAR OICS 081100Z 21012KT CAVOK 41/01 Q1011 A2988=
METAR OIHH 081100Z NIL=
METAR OINZ 081100Z 30010KT CAVOK 34/22 Q1010 A2984=
METAR OITL 081100Z 08020KT CAVOK 26/12 Q1018 A3007=
METAR OIZC 081100Z NIL=
####018000081####
SAMF20 TFFR 081100
METAR TFFR 081100Z VRB02KT 9999 FEW021 28/24 Q1015 NOSIG=
####018000075####
SAAT31 TKPK 081100
METAR TKPK 081100Z 06013KT 9999 FEW019 28/24 Q1015=
####018000091####
SPUS53 KWBC 081105
SPECI
KJLN 081102Z 00000KT 10SM FEW045 SCT070 BKN090 23/22 A3006=
####018000173####
SPNA14 KAWN 081105
SPECI KNMM 081057Z 00000KT 7SM FEW250 22/21 A3006 RMK AO2 $=
SPECI KRND 081103Z AUTO 04005KT 10SM BKN007 BKN060 25/23 A2994 RMK
      AO2 SLP129=
####018000333####
SAEW37 LEMM 081100
METAR LEBR 081100Z NIL=
METAR LEGA 081100Z 20019G31KT 150V260 9999 FEW060 37/13 Q1019=
METAR LEGT 081100Z 18004KT CAVOK 31/13 Q1020=
METAR LEMO 081100Z VRB03KT CAVOK 29/19 
Q1016 NOSIG=
METAR LERI 081100Z 09007KT CAVOK 34/22 Q1018 NOSIG=
METAR LERT 081100Z 27005KT 240V330 CAVOK 26/20 Q1016 NOSIG=
####018000795####
SAUS17 KAWN 081100 RRD
METAR K79J 081056Z AUTO 00000KT 10SM CLR 23/21 A3003 RMK AO2 SLP163
      T02330206 TSNO $=
METAR K79J 081056Z AUTO 00000KT 10SM CLR 23/21 A3003 RMK AO2 SLP163
      T02330206 TSNO $=
METAR KCVS 081055Z 01007KT 10SM BKN120 16/15 A3020 RMK AO2A SLP184
      T01600150 $=
METAR KEFD 081050Z 10010KT 8SM FEW020 SCT045 BKN130 28/25 A2993=
METAR KIWA 081059Z AUTO 00000KT 10SM CLR 31/02 A2980 RMK AO2=
METAR KNBC 081056Z 25003KT 7SM CLR 24/19 A2998 RMK AO2 SLP152 T02390194=
METAR KNJM 081057Z AUTO 01004KT 5SM HZ CLR 26/22 A2993 RMK AO2 SLP137
      T02560222 $=
METAR KNUQ 081056Z AUTO 01005KT 10SM OVC011 15/12 A2992 RMK AO2 SLP135
      T01500117 TSNO=
METAR PABA 081101Z AUTO 17004KT 10SM OVC041 07/06 A3002 RMK AO2 SLP166
      T00670061=
####018000980####
SANA14 KAWN 081100 RRC
METAR KNEL 081100Z AUTO 11006KT 2 1/2SM HZ OVC005 25/22 A3003 RMK AO2
      SLP168 T02500222 $=
METAR KNGU 081059Z 11004KT 5SM BR FEW008 SCT070 BKN120 26/23 A2998
      RMK AO2 SLP153 T02610233=
METAR KNID 081056Z AUTO 18007KT FEW090 22/04 A2985 RMK AO2 SLP083 T02170039
      TSNO $=
METAR KNLC 081056Z AUTO 30007KT 10SM CLR 17/11 A2982 RMK AO2 SLP095
      T01720106 TSNO $=
METAR KNTU 081056Z 11007KT 10SM SCT005 SCT015 BKN035 BKN130 25/23 A2996
      RMK AO2 SLP149 T02500233 $=
METAR KNUW 081056Z 00000KT 10SM CLR 13/11 A2997 RMK AO2 SLP152 T01330106
      $=
METAR KOSC 081054Z AUTO 00000KT 5SM BR CLR 22/21 A3000 RMK AO2=
METAR KRCA 081055Z 00000KT 8SM CLR 11/08 A3025 RMK AO2A SLP235 T01120081
      $=
METAR KTBN 081055Z COR 15003KT 9SM FEW020 BKN070 BKN085 23/22 A3006
      RMK SLP162 T0225 COR 1102 $=
METAR KVPS 081055Z 03001KT 5SM BR FEW010 23/23 A3003 RMK AO2A VIS NE
      2 AND W 2 SLP169 T02310231=
####018000084####
SADO31 TDPD 081100
METAR TDPD 081100Z 10006KT 9999 -SHRA SCT016 28/24 Q1015=
####018000347####
SPUS17 KAWN 081105
SPECI KCEF 081102Z AUTO 16005KT 10SM BKN009 24/22 A3006 RMK AO2 CIG
      009V011 SLP180 PWINO $=
SPECI KFRI 081058Z AUTO 03003KT 9SM SCT006 BKN016 BKN160 21/21 A3010
      RMK AO2 BKN016 V SCT SLP182=
SPECI KLTS 081059Z AUTO 05004KT 10SM SCT022 BKN029 23/23 A3006 RMK
      AO2 BKN V SCT CIG 020 RWY35L SLP166 $=
####018000099####
SPUS72 KWBC 081105 CCA
SPECI
KBTR 081059Z 06003KT 2 1/2SM BR MIFG SCT003 BKN200 23/23 A3001=
####018000083####
SPCN52 CWAO 081031
SPECI CWSA 081031Z AUTO 23009KT 1/8SM VV001 17/17 A3021=

####018000083####
SPCN52 CWAO 081025
SPECI CWSA 081025Z AUTO 23009KT 3/8SM VV001 17/17 A3021=

####018000091####
SPUS73 KWBC 081105
SPECI
KJLN 081102Z 00000KT 10SM FEW045 SCT070 BKN090 23/22 A3006=
####018000091####
SPUS75 KWBC 081105
SPECI
PASC 081101Z 25010KT 10SM SCT024 SCT080 OVC210 10/07 A3002=
####018000088####
SPUS81 KWBC 081105
SPECI
KAKQ 081103Z AUTO 00000KT 1 3/4SM BR FEW015 24/22 A2999=
####018000099####
SPUS81 KWBC 081105 CCA
SPECI
KBTR 081059Z 06003KT 2 1/2SM BR MIFG SCT003 BKN200 23/23 A3001=
####018000496####
SAIR34 OIII 081100
METAR OIAG 081100Z 15010KT CAVOK 45/17 Q0999 A2951=
METAR OIAM 081100Z 19006KT CAVOK 44/12 Q0998 A2947=
METAR OICI 081100Z 27014KT CAVOK 39/M04 Q1012 A2991 863.6=
METAR OIKQ 081100Z 09014KT 6000 NSC 37/27 Q1000 A2953=
METAR OINN 081100Z 33010KT 9999 FEW035 31/25 Q1010 A2983=
METAR OINR 081100Z 36012KT 9999 FEW030TCU 31/22 Q1009 A2982=
METAR OISL 081100Z 00000KT 5000 DU FEW035CB SCT040 42/19 Q1003
A2965=
METAR OISY 081100Z NIL=
METAR OITZ 081100Z NIL=
####018000098####
SPUS81 KWBC 081105
SPECI
KEMP 081102Z AUTO 34007KT 4SM BR BKN004 BKN009 OVC110 22/20 A3007=
####018000104####
SAGD31 TGPY 081100
METAR TGPY 081100Z 07008KT 9000 SCT020 SCT280 FEW///CB 28/25 Q1013
CB-SSE,SSW/HZ=####018001862####
SAEU KAWN 081100 RRN
METAR ETIH 081055Z AUTO VRB06KT 9999 CLR 24/09 A3023 RMK AO2 SLP227
      T02350091=
METAR LFBD 081100Z 10010KT 060V130 CAVOK 32/12 Q1017 NOSIG=
METAR LFBI 081100Z 21005KT 140V300 CAVOK 30/13 Q1018 NOSIG=
METAR LFBO 081100Z 10010KT 080V140 CAVOK 33/12 Q1018 NOSIG=
METAR LFBP 081100Z 08006KT 050V120 CAVOK 34/17 Q1016 NOSIG=
METAR LFKC 081100Z 35010KT 9000 FEW013 29/23 Q1020 NOSIG=
METAR LFKF 081100Z 22007KT 180V260 9999 FEW032TCU 31/23 Q1019 NOSIG=
METAR LFKJ 081100Z 22009KT 9999 FEW026 28/23 Q1019 NOSIG=
METAR LFLB 081100Z 35005KT 320V020 9999 FEW070 SCT260 27/17 Q1021 NOSIG=
METAR LFLC 081100Z VRB03KT CAVOK 31/15 Q1020 NOSIG=
METAR LFLX 081100Z VRB03KT CAVOK 30/12 Q1018 NOSIG=
METAR LFMI 081100Z AUTO VRB05KT 9999NDV NSC 33/15 Q1020=
METAR LFMK 081100Z AUTO 09014KT 060V140 9999NDV NSC 32/15 Q1019=
METAR LFML 081100Z 27008KT 9999 FEW050 32/18 Q1020 NOSIG=
METAR LFMP 081100Z 07009KT 040V100 9999 FEW043 SCT260 29/18 Q1020 NOSIG=
METAR LFRB 081100Z 30003KT 210V360 9999 SCT020 SCT250 22/16 Q1019 NOSIG=
METAR LFRD 081100Z AUTO VRB06KT 9999NDV NSC 21/15 Q1019=
METAR LFRN 081100Z AUTO VRB03KT 9999NDV NSC 27/13 Q1018=
METAR LFRO 081100Z AUTO 36005KT 310V100 9999NDV BKN019 21/16 Q1019=
METAR LFRS 081100Z 25004KT 210V290 CAVOK 30/14 Q1017 NOSIG=
METAR LFRZ 081100Z AUTO 18005KT 140V250 9999NDV NSC 30/12 Q1018=
METAR LFSB 081100Z VRB03KT CAVOK 29/10 Q1021 NOSIG=
METAR LFSL 081100Z AUTO 14005KT 090V190 9999NDV NSC 30/13 Q1020=
METAR LFST 081100Z 17003KT 110V250 CAVOK 29/10 Q1020 NOSIG=
METAR LFTH 081100Z 18005KT 140V260 9999 FEW026 29/23 Q1020 NOSIG=
METAR LRCK 081100Z 01011KT 340V050 9999 FEW035 24/15 Q1015 NOSIG=
METAR LROP 081100Z 27004KT 230V310 9999 FEW040CB FEW045 21/14 Q1016
      880///95 NOSIG=
METAR LRTR 081100Z 35008KT 320V040 9999 SCT032 23/15 Q1020=
####018001694####
SAEU KAWN 081100 RRM
METAR EGOS 081050Z 24010KT 9999 SCT032 18/09 Q1018 BLU NOSIG=
METAR EGUO 081050Z 21008KT 9999 FEW010 20/08 Q1019 BLU=
METAR EICK 081100Z 21011KT 9999 -RA BKN012 BKN045 15/12 Q1016 NOSIG=
METAR EIKN 081100Z 23009KT 9999 FEW018CB SCT025 BKN045 14/10 Q1013
      NOSIG=
METAR EINN 081100Z 20008KT 160V220 9999 -RA FEW017 SCT025 BKN045 16/12
      Q1015 NOSIG=
METAR LEAB 081100Z 16014KT CAVOK 33/04 Q1021 NOSIG=
METAR LEBA 081100Z 27003KT 210V340 9999 BKN050TCU 31/14 Q1015=
METAR LEBZ 081100Z 12008KT 080V160 CAVOK 34/13 Q1015=
METAR LECO 081100Z 02006KT CAVOK 24/21 Q1014=
METAR LEMH 081100Z 17005KT 120V260 CAVOK 29/20 Q1021=
METAR LEPP 081100Z 16005KT 110V210 CAVOK 36/14 Q1018=
METAR LETO 081100Z VRB02KT CAVOK 32/11 Q1020 NOSIG=
METAR LEVD 081100Z 19001KT CAVOK 33/09 Q1020=
METAR LEVS 081100Z VRB01KT CAVOK 31/13 Q1020=
METAR LEXJ 081100Z 28010KT 250V310 9999 SCT018 25/19 Q1016=
METAR LFLL 081100Z VRB04KT CAVOK 30/15 Q1020 NOSIG=
METAR LFMN 081100Z 10008KT 9999 FEW023 29/22 Q1020 NOSIG=
METAR LFPG 081100Z 17008KT 100V220 CAVOK 30/09 Q1019 NOSIG=
METAR LFPO 081100Z 22005KT 190V270 CAVOK 30/09 Q1019 NOSIG=
METAR LFQQ 081100Z 24004KT 180V300 CAVOK 29/13 Q1019 NOSIG=
METAR LKCV 081100Z VRB03KT CAVOK 23/08 Q1023 NOSIG RMK BLU+ BLU+=
METAR LKNA 081100Z 36005KT CAVOK 21/09 Q1024 NOSIG RMK BLU+ BLU+=
METAR LKPD 081100Z VRB04KT 9999 FEW045 SCT100 24/07 Q1023 NOSIG RMK
      BLU+ BLU+=
METAR COR LKPO 081100Z 34003KT CAVOK 22/11 Q1023 NOSIG RMK BLU+ BLU+=
METAR LRBS 081100Z 31004KT 270V360 9999 FEW020 21/15 Q1017 NOSIG=
METAR COR LRSB 081100Z 04004KT 360V100 9999 FEW017 SCT026 OVC086 17/12
      Q1020=
####018001876####
SAEW KAWN 081100 RRE
METAR ETIH 081055Z AUTO VRB06KT 9999 CLR 24/09 A3023 RMK AO2 SLP227
      T02350091=
METAR LFBD 081100Z 10010KT 060V130 CAVOK 32/12 Q1017 NOSIG=
METAR LFBI 081100Z 21005KT 140V300 CAVOK 30/13 Q1018 NOSIG=
METAR LFBP 081100Z 08006KT 050V120 CAVOK 34/17 Q1016 NOSIG=
METAR LFKC 081100Z 35010KT 9000 FEW013 29/23 Q1020 NOSIG=
METAR LFKF 081100Z 22007KT 180V260 9999 FEW032TCU 31/23 Q1019 NOSIG=
METAR LFKJ 081100Z 22009KT 9999 FEW026 28/23 Q1019 NOSIG=
METAR LFLB 081100Z 35005KT 320V020 9999 FEW070 SCT260 27/17 Q1021 NOSIG=
METAR LFLC 081100Z VRB03KT CAVOK 31/15 Q1020 NOSIG=
METAR LFLL 081100Z VRB04KT CAVOK 30/15 Q1020 NOSIG=
METAR LFLX 081100Z VRB03KT CAVOK 30/12 Q1018 NOSIG=
METAR LFMI 081100Z AUTO VRB05KT 9999NDV NSC 33/15 Q1020=
METAR LFMK 081100Z AUTO 09014KT 060V140 9999NDV NSC 32/15 Q1019=
METAR LFML 081100Z 27008KT 9999 FEW050 32/18 Q1020 NOSIG=
METAR LFMN 081100Z 10008KT 9999 FEW023 29/22 Q1020 NOSIG=
METAR LFMP 081100Z 07009KT 040V100 9999 FEW043 SCT260 29/18 Q1020 NOSIG=
METAR LFPG 081100Z 17008KT 100V220 CAVOK 30/09 Q1019 NOSIG=
METAR LFPO 081100Z 22005KT 190V270 CAVOK 30/09 Q1019 NOSIG=
METAR LFQQ 081100Z 24004KT 180V300 CAVOK 29/13 Q1019 NOSIG=
METAR LFRB 081100Z 30003KT 210V360 9999 SCT020 SCT250 22/16 Q1019 NOSIG=
METAR LFRD 081100Z AUTO VRB06KT 9999NDV NSC 21/15 Q1019=
METAR LFRN 081100Z AUTO VRB03KT 9999NDV NSC 27/13 Q1018=
METAR LFRO 081100Z AUTO 36005KT 310V100 9999NDV BKN019 21/16 Q1019=
METAR LFRS 081100Z 25004KT 210V290 CAVOK 30/14 Q1017 NOSIG=
METAR LFRZ 081100Z AUTO 18005KT 140V250 9999NDV NSC 30/12 Q1018=
METAR LFSB 081100Z VRB03KT CAVOK 29/10 Q1021 NOSIG=
METAR LFSL 081100Z AUTO 14005KT 090V190 9999NDV NSC 30/13 Q1020=
METAR LFST 081100Z 17003KT 110V250 CAVOK 29/10 Q1020 NOSIG=
METAR LFTH 081100Z 18005KT 140V260 9999 FEW026 29/23 Q1020 NOSIG=
####018000091####
SPUS81 KWBC 081105
SPECI
KJLN 081102Z 00000KT 10SM FEW045 SCT070 BKN090 23/22 A3006=
####018000291####
SAIN33 VECC 081050
METAR VECC 081050Z 23012KT 4500 HZ SCT018 FEW030CB 33/25 Q1004 NOSIG=
METAR VEPT 081050Z 09003KT 5000 HZ SCT020 SCT025 37/23
    Q1001 NOSIG=
METAR VGEG 081050Z NIL=
METAR VGZR 081050Z 20008KT 5000 HZ SCT012 BKN100 31/26 Q1004 NOSIG=
METAR VNKT 081050Z NIL=
