####018000112####
SAEU KAWN 080600 RRX
METAR ENGM 080644Z 19008KT 9999 FEW008 SCT015 BKN020 15/13 Q1015 TEMPO
      BKN014=
####018000537####
SPZZ40 KAWN 080700 RRM
SPECI CWZZ 080657Z AUTO ///// 9SM BKN027 10/ A2984=
SPECI CYFC 080657Z AUTO 21006KT 8SM SCT010 20/19 A3004 RMK SLP173 DENSITY
      ALT 500FT RVR MISG=
SPECI CYPH 080657Z AUTO 23017G22KT 3/8SM VV001 06/06 A2976=
SPECI CYQT 080652Z 25005KT 15SM -SHRA BKN069 OVC150 18/16 RMK AC6AC2
      CVCTV CLD EMBD=
SPECI KHST 080656Z AUTO 04006KT 10SM -DZ SCT020 SCT029 BKN038 27/25
      A2994 RMK AO2 DZB0656 SLP139 $=
SPECI YSRI 080657Z AUTO 00000KT 9999NDV // SCT028 BKN037 OVC052 13/11
      Q1026=
####018000123####
SPXX70 KAWN 080600 RRA
SPECI KQQY 080653Z 00000KT 9999 SCT050 BKN065 23/21 A2997 RMK AO2A
      LTG DSNT W SLP130 $=
####018000743####
SAXX70 KAWN 080700 RRD
METAR KQFT 080650Z AUTO 17004KT 5SM BR FEW013 SCT021 29/17 A2981 RMK
      A02=
METAR KQAY 080655Z AUTO 35014G20KT 9999 CLR 45/M02 A2959 RMK AO2 SLP014
      T04451022 $=
METAR KQBS 080655Z 30014G22KT 9999 CLR 42/02 A2951 RMK SLP000 WND/ALSTG/SLP/QNH
      ESTMD QNH999=
METAR KQPV 080655Z AUTO 26010G18KT 9999 FEW230 38/07 A2970 RMK AO2
      SLP050 T03760073=
METAR KQSL 080655Z 33010KT 9999 CLR 39/05 A2968 RMK SLP039 Q1005MB=
METAR KQTO 080655Z 30011KT 9999 CLR 39/08 A2963 RMK SLP032=
METAR KQTZ 080655Z 01009G15KT 9000 HZ CLR 40/07 A2963 RMK SLP027 QNH1003MB
      ALSTG/SLP ESTMD WND DATA ESTMD=
METAR KQXF 080655Z AUTO 02010KT 9999 CLR 41/01 A2963 RMK AO2 SLP021
      T04060012 $=
####018000135####
SPUS17 KAWN 080700 RRF
SPECI KHST 080656Z AUTO 04006KT 10SM -DZ SCT020 SCT029 BKN038 27/25
      A2994 RMK AO2 DZB0656 SLP139 $=
####018000135####
SPNA35 KAWN 080700 RRH
SPECI KHST 080656Z AUTO 04006KT 10SM -DZ SCT020 SCT029 BKN038 27/25
      A2994 RMK AO2 DZB0656 SLP139 $=
####018000094####
SPUS81 KWBC 080700
SPECI
PADQ 080656Z 31003KT 1 1/2SM -RA BR BKN006 OVC010 10/09 A2981=
####018000060####
SAUS45 KTFX 080700
MTR8S0
METAR K8S0 080555Z 26006KT 
####018000104####
SAAH10 OAKN 080700
METAR OAKN 080650Z 00000KT 9000 HZ SKC 39/10 Q1010 BLU NOSIG RMK A2984
DA6800=
####018000124####
SAUS44 KBMX 080700 COR
MTRLOR
METAR KLOR 080653Z AUTO 00000KT 10SM CLR 22/20 A3002 RMK AO2 SLP163 
T02170200 TSNO $
####018000117####
SAUS41 KLWX 080700
MTRRYT
METAR KRYT 080653Z AUTO 00000KT 7SM SCT075 24/17 A3003 RMK AO2 
SLP150 T02390172 $
####018001705####
SAUS20 KNKA 080700
METAR KRIC 080654Z 08003KT 8SM SCT120 27/20 A2997 RMK AO2 SLP151
     T02670200=
METAR K4M9 080655Z AUTO 18006KT 9SM FEW041 25/25 A3004 RMK AO2 =
METAR KBTR 080653Z 06005KT 10SM SCT200 24/23 A2999 RMK AO2 SLP155
     T02440233 $=
METAR KBWD 080655Z AUTO 00000KT 10SM BKN023 OVC029 24/22 A3001 RMK 
     AO2 =
METAR KCMY 080655Z AUTO 00000KT 10SM CLR 22/21 A3002 RMK AO2 
     T02150206=
METAR KDAB 080653Z 00000KT 10SM FEW026 21/20 A3000 RMK AO2 SLP158
     T02110200 $=
METAR KFSD 080656Z 28003KT 10SM CLR 16/14 A3016 RMK AO2 SLP209
     T01560144=
SPECI KMVY 080659Z AUTO 16005KT 1/4SM R24/1400V2000FT FG VV001 21/19 
    A3006 RMK AO2=
METAR KPDC 080653Z AUTO 00000KT 5SM BR OVC006 22/21 A3002 RMK AO2 
     T02200207=
METAR KRCX 080655Z AUTO 26004KT 10SM CLR 20/19 A3004 RMK AO2 
     T01960190=
METAR KRNH 080656Z AUTO 31004KT 10SM CLR 19/18 A3005 RMK AO2 
     T01870175=
METAR KROA 080654Z 32003KT 7SM BKN090 26/19 A3007 RMK AO2 SLP165
     T02610194=
METAR KRPD 080654Z AUTO 00000KT 10SM CLR 20/18 A3004 RMK AO2 
     T01950177=
METAR KRRL 080655Z AUTO 32003KT 2 1/2SM BR OVC001 19/18 A3002 RMK 
     AO2 T01880184=
METAR KRYV 080655Z AUTO 00000KT 10SM -RA SCT090 23/20 A3002 RMK 
     AO2=
METAR KSTE 080655Z AUTO 00000KT 7SM BKN005 OVC024 22/21 A3000 RMK 
     AO2=
METAR KSUW 080655Z AUTO 30003KT 10SM SCT050 20/16 A3002 RMK AO2=
SPECI KUCP 080700Z AUTO 00000KT 1 1/2SM BR CLR 19/19 A3010 RMK AO2 $=
METAR KUES 080655Z AUTO 00000KT 10SM SCT033 SCT041 OVC090 21/20 
     A3003 RMK AO2 T02130197=
METAR KUNU 080652Z AUTO 19003KT 10SM -RA SCT050 BKN070 BKN080 
     21/20 A3002 RMK AO2 P0001 T02100195=
####018000744####
SAAK41 KNKA 080700
METAR PADM 080701Z AUTO 00000KT 10SM FEW080 12/09 A3007 RMK AO2 TSNO 
    T01160094 RAB0603E0613 P0000 SLP170 $=
METAR PADU 080658Z AUTO 11013KT 10SM OVC021 09/06 A2985 RMK AO2 
    SLP113 T00940056=
METAR PAGA 080658Z AUTO 02004KT 10SM CLR 21/06 A3006 RMK AO2 SLP222 
    T02060056=
METAR PAJZ 080656Z AUTO 00000KT 10SM FEW009 SCT043 BKN060 11/11 
    A3001 RMK AO2 PWINO TSNO T01110105 BKN V SCT SLP150 $=
METAR PAKI 080656Z AUTO 36007KT 10SM FEW055 12/10 A3001 RMK AO2 
    PWINO TSNO T01160100 SLP165 $=
METAR PALG 080656Z AUTO 00000KT 10SM SCT110 13/11 A3001 RMK AO2 TSNO 
    T01270105 SLP164=
METAR PARY 080656Z AUTO 00000KT 10SM CLR 18/06 A3006 RMK AO2 PWINO 
    TSNO T01830055 SLP180=
####018000078####
SABC40 FBSK 080700
METAR FBSK 080700Z 10012KT CAVOK 13/09 Q1033 NOSIG=

####018000094####
SANO37 ENMI 080650 RRA
METAR ENNO 080650Z 11007KT 070V130 9999 FEW020 BKN030 16/14 Q1014=
####018001167####
SAAM20 FCBB 080600
METAR FCBB 080600Z 00000KT 3000 BR NSC 20/20 Q1015 TEMPO 2500=
METAR FCPP 080600Z 16004KT 0100 R35/0050 FG VV010 21/20 Q1014=
METAR FKKD 080600Z 00000KT 9999 TS BKN013 FEW016CB BKN120 25/24 Q1014
           TEMPO 4000 TSRA=
METAR FKYS 080600Z 22002KT 8000 FEW003 BKN006 21/20 Q1018 NOSIG=
METAR FKKR 080600Z 00000KT 6000 -TSRA BKN016 SCT020CB OVC100 Q1014
           NOSIG=
METAR FKKN NIL=
METAR FKKL NIL=
METAR FEFT NIL=
METAR FEFG NIL=
METAR FEFF 080600Z VRB03KT 9999 SCT010 BKN150  23/22 Q1014 NOSIG=
METAR FOOL 080600Z 14007KT 110V170 8000 SCT010 OVC030 24/21 Q1014
           NOSIG=
METAR FOOG 080600Z /////KT 8000 SCT008 23/22 Q1015=
METAR FOON 080600Z 16002KT 6000 SCT008 BKN100 21/21 Q1017=
METAR FGBT 080600Z 17004KT 7000 BKN013 OVC130 25/24 Q1013 NOSIG=
METAR FGSL 080600Z 00000KT 9999 TS SCT013 FEW020CB BKN130 24/24
           Q1014 NOSIG=
METAR FZRF NIL=
METAR FZOS NIL=
METAR FZAA 080600Z 00000KT 3000 BR BKN300 20/19 Q1015 NOSIG=
METAR FZIC NIL=
METAR FZFK NIL=
METAR FZQA NIL=
METAR FNHU NIL=
METAR FNLU NIL=
METAR FPST 080600Z 20006KT 9999 FEW020 SCT110 23/20 Q1013 NOSIG=
####018000165####
SAUS45 KGJT 080700 COR
MTRRIL
METAR KRIL 080653Z AUTO 17003KT 10SM -RA FEW065 BKN080 OVC110 17/09 
A3028 RMK AO2 RAB39 SLP182 P0000 T01720089 403280100 TSNO
####018000120####
SAMH31 PKWA 080700
METAR PKWA 080700Z AUTO 08015KT 3SM RA BKN007 BKN021 OVC044 26/23 A2983 RMK AO2 P0028 T02550234=
####018001466####
SAUS17 KAWN 080700 RRC
METAR KCVS 080655Z 01006KT 10SM BKN120 17/15 A3020 RMK AO2A SLP188
      T01730150 402840161 $=
METAR KDMA 080655Z AUTO 05005KT 10SM CLR 31/09 A2986 RMK AO2 SLP035
      T03130088 403920235 $=
METAR KFAF 080655Z 00000KT 9SM FEW080 SCT110 26/26 A2995 RMK AO2A SLP143
      T02640264=
METAR KFFO 080658Z 00000KT 10SM CLR 22/20 A3008 RMK AO2A SLP178=
METAR KFMH 080655Z AUTO 16006KT 1SM BR OVC002 21/20 A3007 RMK AO2=
METAR KHLR 080656Z AUTO 11005KT 10SM BKN015 BKN055 26/26 A2999 RMK
      AO2 SLP146 T02610261 $=
METAR KHOP 080655Z AUTO 00000KT 10SM CLR 25/22 A3007 RMK AO2 SLP176
      T02520223=
METAR KHRT 080655Z AUTO 00000KT 10SM CLR 24/24 A3002 RMK AO2 SLP167
      T02450245 $=
METAR KNBG 080655Z AUTO 04003KT 10SM CLR 26/24 A3001 RMK AO2 SLP162
      T02560239 PWINO $=
METAR KNCA 080656Z AUTO 01004KT 10SM CLR 26/22 A2991 RMK AO2 SLP128
      T02560217=
METAR KNJK 080656Z AUTO 26008KT 10SM CLR 28/09 A2967 RMK AO2 SLP06LJ
      T02830089 TSNO=
METAR KNJK 080656Z AUTO 26008KT 10SM CLR 28/09 A2967 RMK AO2 SLP061
      T02830089 TSNO=
METAR KNRS 080656Z AUTO 30006KT 10SM OVC018 17/13 A2992 RMK AO2 SLP130
      T01720128 TSNO $=
METAR KNUQ 080656Z AUTO 02007KT 10SM OVC015 16/12 A2992 RMK AO2 SLP135
      T01610122 TSNO=
METAR KSVN 080655Z 23003KT 10SM SKC 23/21 A2998 RMK SLP155=
METAR PPIZ 080656Z AUTO 21010KT 10SM CLR 07/03 A3011 RMK AO2 TSNO T00660027
      SLP198 $=
####018001472####
SAZZ40 KAWN 080700 RRJ
METAR KFFO 080658Z 00000KT 10SM CLR 22/20 A3008 RMK AO2A SLP178=
METAR KHRT 080655Z AUTO 00000KT 10SM CLR 24/24 A3002 RMK AO2 SLP167
      T02450245 $=
METAR KNFL 080656Z AUTO 01003KT 10SM CLR 24/02 A2995 RMK AO2 SLP114
      T02440017 TSNO=
METAR KNLC 080656Z 33008KT 10SM CLR 21/12 A2981 RMK AO2 SLP092 RH/52
      T02110117 $=
METAR KNMM 080656Z AUTO 00000KT 10SM CLR 24/22 A3004 RMK AO2 SLP180
      T02390217=
METAR KNRS 080656Z AUTO 30006KT 10SM OVC018 17/13 A2992 RMK AO2 SLP130
      T01720128 TSNO $=
METAR KNTD 080656Z AUTO 30005KT 10SM OVC017 16/13 A2990 RMK AO2 SLP127
      T01560128 TSNO PNO VISNO N $=
METAR KNUQ 080656Z AUTO 02007KT 10SM OVC015 16/12 A2992 RMK AO2 SLP135
      T01610122 TSNO=
METAR KNUW 080656Z 00000KT 10SM CLR 15/11 A2995 RMK AO2 SLP145 T01500111
      $=
METAR KNXP 080656Z AUTO 31004KT CLR 28/02 A2989 RMK AO2 SLP079 T02780022
      $=
METAR KNXP 080656Z AUTO 31004KT CLR 28/02 A2989 RMK AO2 SLP079 T02780022
      $=
METAR KNXX 080656Z AUTO 00000KT 7SM CLR 24/19 A3002 RMK AO2 SLP170
      T02440194 $=
METAR KSKF 080655Z 06009KT 10SM FEW015 26/24 A2993 RMK AO2A SLP125
      T02590237 $=
METAR ORER 080700Z VRB03KT 6000 SKC 38/03 Q1005=
METAR PASY 080656Z AUTO 02017KT 10SM OVC006 A2973 RMK AO2 SLPNO TSNO
      PNO=
METAR TTCP 080700Z 07006KT 9999 FEW016 SCT280 25/23 Q1012 NOSIG=
METAR TTPP 080700Z 11007KT 9999 FEW016 BKN280 26/25 Q1011 NOSIG=
####018001410####
SANA14 KAWN 080700 RRC
METAR KNFL 080656Z AUTO 01003KT 10SM CLR 24/02 A2995 RMK AO2 SLP114
      T02440017 TSNO=
METAR KNGP 080656Z AUTO 08005KT 10SM FEW055 28/26 A2983 RMK AO2 TSE0559
      SLP101 T02830261 $=
METAR KNLC 080656Z 33008KT 10SM CLR 21/12 A2981 RMK AO2 SLP092 RH/52
      T02110117 $=
METAR KNMM 080656Z AUTO 00000KT 10SM CLR 24/22 A3004 RMK AO2 SLP180
      T02390217=
METAR KNQI 080656Z AUTO 36003KT 10SM CLR 27/24 A2985 RMK AO2 SLP104
      T02670244 $=
METAR KNTD 080656Z AUTO 30005KT 10SM OVC017 16/13 A2990 RMK AO2 SLP127
      T01560128 TSNO PNO VISNO N $=
METAR KNTU 080656Z 11005KT 4SM BR CLR 26/24 A2994 RMK AO2 SLP142 T02560244
      $=
METAR KNUW 080656Z 00000KT 10SM CLR 15/11 A2995 RMK AO2 SLP145 T01500111
      $=
METAR KNXP 080656Z AUTO 31004KT CLR 28/02 A2989 RMK AO2 SLP079 T02780022
      $=
METAR KNXP 080656Z AUTO 31004KT CLR 28/02 A2989 RMK AO2 SLP079 T02780022
      $=
METAR KNXX 080656Z AUTO 00000KT 7SM CLR 24/19 A3002 RMK AO2 SLP170
      T02440194 $=
METAR KNYL 080655Z 00000KT 10SM CLR 30/06 A2971 RMK AO2 SLP055 T03000056
      404060239=
METAR KPOE 080655Z AUTO 11005KT 10SM CLR 24/23 A3000 RMK AO2 SLP158
      T02440228=
METAR KPSM 080655Z 11003KT 2SM BR BKN003 OVC006 21/21 A3004 RMK AO2A
      SLP174 T02130207=
METAR KSKF 080655Z 06009KT 10SM FEW015 26/24 A2993 RMK AO2A SLP125
      T02590237 $=
####018003730####
SAUS99 KWBC 080701
METAR
KCVX 080655Z AUTO 00000KT 7SM BKN100 21/20 A3000 RMK AO2=
KFKS 080655Z AUTO 21005KT 10SM CLR 23/18 A3000 RMK AO2=
KSLH 080655Z AUTO 00000KT 7SM SCT070 BKN110 21/20 A2998 RMK
     AO2=
KSJX 080655Z AUTO 00000KT 5SM -RA SCT033 SCT050 BKN090 21/19 A2996
     RMK AO2=
KLDM 080655Z AUTO 23011KT 10SM BKN090 BKN120 24/20 A3003 RMK
     AO2=
KSAW 080659Z AUTO 00000KT 10SM OVC003 18/17 A2997 RMK AO2=
KGOV 080655Z AUTO 00000KT 5SM BR BKN090 BKN120 21/21 A3004 RMK
     AO2=
KPZQ 080655Z AUTO 19006KT 5SM BR CLR 22/22 A3001 RMK AO2=
KHYX 080655Z AUTO 17004KT 10SM CLR 23/21 A3001 RMK AO2=
KPHN 080655Z AUTO 00000KT 2 1/2SM BR CLR 20/19 A3003 RMK AO2=
KONZ 080657Z AUTO 21003KT 10SM CLR 26/21 A3002 RMK AO2=
KISQ 080655Z AUTO 00000KT 10SM BKN020 19/17 A2997 RMK AO2=
KRMY 080655Z AUTO 00000KT 10SM CLR 22/20 A3005 RMK AO2=
KOSC 080654Z AUTO 00000KT 10SM CLR 20/18 A3002 RMK AO2=
KTTF 080654Z AUTO 00000KT 7SM CLR 23/23 A3003 RMK AO2=
KAMN 080655Z AUTO 00000KT 5SM BR CLR 22/21 A3002 RMK AO2=
KMCD 080656Z AUTO 00000KT 10SM BKN110 21/18 A3000 RMK AO2=
KERY 080655Z AUTO 00000KT 10SM -RA SCT024 BKN040 OVC060 20/19
     A2999 RMK AO2=
KDVP 080656Z AUTO 00000KT 10SM CLR 15/13 A3016 RMK AO2
     T01500132=
KCDD 080651Z AUTO 00000KT 10SM CLR 14/14 A3004 RMK AO2=
KFOZ 080653Z AUTO 00000KT 1/2SM FG VV005 13/12 A3005 RMK AO2=
KAQP 080654Z AUTO 21004KT 10SM CLR 15/15 A3010 RMK AO2=
KETH 080654Z AUTO 21004KT 10SM CLR 15/14 A3010 RMK AO2=
KXVG 080656Z AUTO 00000KT 7SM SCT001 11/11 A3005 RMK AO2=
KORB 080654Z AUTO 00000KT 10SM CLR 14/13 A3002 RMK AO2=
KMZH 080651Z AUTO 00000KT 10SM CLR 15/14 A3004 RMK AO2=
KBFW 080653Z AUTO 00000KT 10SM SCT065 SCT110 18/16 A3001 RMK
     AO2=
KVWU 080651Z AUTO 00000KT 10SM CLR 16/14 A3002 RMK AO2=
KOWA 080654Z AUTO 29005KT 10SM CLR 18/18 A3007 RMK AO2=
KCDA 080655Z AUTO 00000KT 5SM HZ CLR 21/18 A3009 RMK AO2=
KFKA 080703Z AUTO 32006KT 7SM CLR 20/19 A3006 RMK AO2
     T01960190=
KFPK 080656Z AUTO 00000KT 3SM BR CLR 21/20 A3003 RMK AO2=
KMOP 080654Z AUTO 00000KT 2 1/2SM BR CLR 22/22 A3002 RMK AO2 VIS 1
     1/4V5=
KCAD 080654Z AUTO 00000KT 10SM BKN100 BKN110 22/21 A3004 RMK
     AO2=
KMGN 080655Z AUTO 00000KT 7SM BKN110 21/20 A2999 RMK AO2=
KHAI 080655Z AUTO 00000KT 7SM CLR 22/21 A3005 RMK AO2=
KLWA 080656Z AUTO 31003KT 10SM SCT050 BKN070 BKN110 23/21 A3004
     RMK AO2=
KDRM 080656Z AUTO 00000KT 1 1/4SM BR OVC001 19/19 A2999 RMK
     AO2=
KVLL 080654Z AUTO 00000KT 10SM CLR 27/21 A3006 RMK AO2=
KCFS 080655Z AUTO 00000KT 2 1/2SM BR CLR 21/21 A3003 RMK AO2=
KOZW 080655Z AUTO 00000KT 10SM CLR 23/21 A3005 RMK AO2=
KRNP 080655Z AUTO 00000KT 7SM CLR 22/21 A3003 RMK AO2=
KDUH 080654Z AUTO 00000KT 7SM CLR 22/18 A3005 RMK AO2=
KJYM 080655Z AUTO 00000KT 7SM CLR 21/20 A3007 RMK AO2=
KBAX 080655Z AUTO 00000KT 5SM BR SCT110 22/21 A3002 RMK AO2=
KIRS 080655Z AUTO 00000KT 10SM CLR 23/19 A3005 RMK AO2=
KACB 080655Z AUTO 00000KT 10SM BKN110 23/21 A2999 RMK AO2=
KRQB 080655Z AUTO 19003KT 7SM RA SCT045 BKN065 OVC090 23/22 A3005
     RMK AO2=
KOEB 080655Z AUTO 00000KT 10SM CLR 23/20 A3006 RMK AO2=
K4I3 080656Z AUTO 00000KT 10SM CLR 21/19 A3010 RMK AO2=
KAUM 080655Z AUTO 31005KT 10SM CLR 19/18 A3006 RMK AO2=
KFFX 080654Z AUTO 25003KT 7SM -DZ SCT032 SCT048 OVC090 23/21 A3004
     RMK AO2=
KCNB 080657Z AUTO 25004KT 10SM CLR 15/13 A3013 RMK AO2
     T01520127=
KCKN 080655Z AUTO 27006KT 10SM CLR 15/12 A3004 RMK AO2=
KCFE 080655Z AUTO 00000KT 10SM CLR 19/17 A3009 RMK AO2
     T01860165=
KCQM 080657Z AUTO 00000KT 1 3/4SM BR VV007 13/13 A3005 RMK AO2 VIS
     3/4V5=
KDTL 080655Z AUTO 24005KT 10SM CLR 18/13 A3008 RMK AO2=
####018002829####
SAUS99 KWBC 080701 RRA
METAR
KBDH 080655Z AUTO 00000KT 10SM CLR 16/14 A3011 RMK AO2=
KCBG 080655Z AUTO 00000KT 10SM CLR 18/16 A3006 RMK AO2=
KADC 080656Z AUTO 22004KT 10SM CLR 14/13 A3008 RMK AO2=
KHAF 080650Z AUTO 26005KT 9SM OVC010 12/10 A2994 RMK AO2=
KCKC 080655Z AUTO 00000KT 7SM CLR 15/13 A3004 RMK AO2=
KJYG 080655Z AUTO 00000KT 10SM CLR 18/18 A3012 RMK AO2=
KCOQ 080656Z AUTO 28004KT 10SM CLR 16/16 A3006 RMK AO2=
KACQ 080659Z AUTO 30005KT 10SM CLR 17/17 A3010 RMK AO2=
KRGK 080655Z AUTO 29004KT 10SM CLR 21/19 A3004 RMK AO2=
KFSE 080654Z AUTO 21005KT 10SM CLR 14/13 A3004 RMK AO2=
KY70 080655Z AUTO 21004KT 10SM SCT065 OVC120 25/21 A3002 RMK AO2
     T02470212=
KUKT 080655Z AUTO 00000KT 6SM CLR 22/20 A3003 RMK AO1=
KRIC 080654Z 08003KT 8SM SCT120 27/20 A2997 RMK AO2 SLP151
     T02670200=
K4M9 080655Z AUTO 18006KT 9SM FEW041 25/25 A3004 RMK AO2=
KBTR 080653Z 06005KT 10SM SCT200 24/23 A2999 RMK AO2 SLP155
     T02440233 $=
KBWD 080655Z AUTO 00000KT 10SM BKN023 OVC029 24/22 A3001 RMK
     AO2=
KCMY 080655Z AUTO 00000KT 10SM CLR 22/21 A3002 RMK AO2
     T02150206=
KDAB 080653Z 00000KT 10SM FEW026 21/20 A3000 RMK AO2 SLP158
     T02110200 $=
KFSD 080656Z 28003KT 10SM CLR 16/14 A3016 RMK AO2 SLP209
     T01560144=
KPDC 080653Z AUTO 00000KT 5SM BR OVC006 22/21 A3002 RMK AO2
     T02200207=
KRCX 080655Z AUTO 26004KT 10SM CLR 20/19 A3004 RMK AO2
     T01960190=
KRNH 080656Z AUTO 31004KT 10SM CLR 19/18 A3005 RMK AO2
     T01870175=
KROA 080654Z 32003KT 7SM BKN090 26/19 A3007 RMK AO2 SLP165
     T02610194=
KRPD 080654Z AUTO 00000KT 10SM CLR 20/18 A3004 RMK AO2
     T01950177=
KRRL 080655Z AUTO 32003KT 2 1/2SM BR OVC001 19/18 A3002 RMK AO2
     T01880184=
KRYV 080655Z AUTO 00000KT 10SM -RA SCT090 23/20 A3002 RMK AO2=
KSTE 080655Z AUTO 00000KT 7SM BKN005 OVC024 22/21 A3000 RMK
     AO2=
KSUW 080655Z AUTO 30003KT 10SM SCT050 20/16 A3002 RMK AO2=
KUES 080655Z AUTO 00000KT 10SM SCT033 SCT041 OVC090 21/20 A3003
     RMK AO2 T02130197=
KUNU 080652Z AUTO 19003KT 10SM -RA SCT050 BKN070 BKN080 21/20
     A3002 RMK AO2 P0001 T02100195=
PADM 080701Z AUTO 00000KT 10SM FEW080 12/09 A3007 RMK AO2 TSNO
     T01160094 RAB0603E0613 P0000 SLP170 $=
PADU 080658Z AUTO 11013KT 10SM OVC021 09/06 A2985 RMK AO2 SLP113
     T00940056=
PAGA 080658Z AUTO 02004KT 10SM CLR 21/06 A3006 RMK AO2 SLP222
     T02060056=
PAJZ 080656Z AUTO 00000KT 10SM FEW009 SCT043 BKN060 11/11 A3001
     RMK AO2 PWINO TSNO T01110105 BKN V SCT SLP150 $=
PAKI 080656Z AUTO 36007KT 10SM FEW055 12/10 A3001 RMK AO2 PWINO
     TSNO T01160100 SLP165 $=
PALG 080656Z AUTO 00000KT 10SM SCT110 13/11 A3001 RMK AO2 TSNO
     T01270105 SLP164=
PARY 080656Z AUTO 00000KT 10SM CLR 18/06 A3006 RMK AO2 PWINO TSNO
     T01830055 SLP180=
####018000182####
SPUS99 KWBC 080701
SPECI
KMVY 080659Z AUTO 16005KT 1/4SM R24/1400V2000FT FG VV001 21/19
     A3006 RMK AO2=
KUCP 080700Z AUTO 00000KT 1 1/2SM BR CLR 19/19 A3010 RMK AO2 $=
####018000068####
SABZ18 SBKP 080700
METAR SBKP 080700Z 10008KT CAVOK 12/09 Q1020=
####018000068####
SABZ23 SBCF 080700
METAR SBCF 080700Z 00000KT CAVOK 10/07 Q1022=
####018000068####
SABZ20 SBRB 080700
METAR SBRB 080700Z 00000KT CAVOK 23/23 Q1012=
####018000068####
SABZ20 SBPV 080700
METAR SBPV 080700Z 00000KT CAVOK 24/23 Q1011=
####018000081####
SABZ21 SBFZ 080700
METAR SBFZ 080700Z 12006KT 9999 SCT017 SCT100 25/22 Q1013=
####018000068####
SABZ23 SBGL 080700
METAR SBGL 080700Z 00000KT CAVOK 15/13 Q1019=
####018000068####
SABZ18 SBGR 080700
METAR SBGR 080700Z 07006KT CAVOK 11/10 Q1021=
####018000081####
SABZ20 SBMN 080700
METAR SBMN 080700Z 02005KT 9999 FEW010 BKN100 26/24 Q1011=
####018000074####
SABZ23 SBVT 080700
METAR SBVT 080700Z 30002KT 9999 FEW020 17/16 Q1020=
####018000074####
SABZ21 SBSV 080700
METAR SBSV 080700Z 05003KT 9999 SCT017 22/21 Q1016=
####018000068####
SABZ24 SBCT 080700
METAR SBCT 080700Z 05001KT CAVOK 12/11 Q1020=
####018000074####
SABZ20 SBBE 080700
METAR SBBE 080700Z 11006KT 9999 FEW017 26/22 Q1012=
####018000093####
SPAK32 KWBC 080701
SPECI
PABA 080657Z AUTO 27006KT 10SM -RA BKN005 OVC012 02/02 A3005=
####018000069####
SABZ24 SBCG 080700
METAR SBCG 080700Z 18004KT CAVOK 17/09 Q1016=
####018000069####
SABZ24 SBFL 080700
METAR SBFL 080700Z 31009KT CAVOK 20/18 Q1013=
####018000082####
SANO34 ENMI 080650 RRA
METAR ENHF 080700Z 19011KT 140V220 CAVOK 16/07 Q1013 =
####018000128####
SAPY SGAS 080700
METAR SGAS 080700Z 16012KT 9999 BKN010 OVC017 18/16 Q1015=
METAR SGES 080700Z 00000KT CAVOK 17/14 Q1015=
####018000130####
SAPY59 SGAS 080700
METAR SGAS 080700Z 16012KT 9999 BKN010 OVC017 18/16 Q1015=
METAR SGES 080700Z 00000KT CAVOK 17/14 Q1015=
####018000346####
SABU31 LBSM 080700
METAR LBSF NIL=
METAR LBWN 080700Z 26004MPS 230V290 9999 SCT028 19/13 Q1014
 BECMG RA=
METAR LBBG 080700Z 25005MPS 9999 FEW048 BKN066 BKN120 18/14
 Q1014 NOSIG=
METAR LBPD 080700Z 26005MPS 230V290 9999 -RA SCT050 OVC070 16/13
 Q1016 NOSIG=
METAR LBGO 080700Z VRB01MPS 9999 SCT033 OVC070 16/14 Q1016
 NOSIG=
####018000330####
SATU32 LTAA 080650
METAR LTAN 080650Z 36010KT CAVOK 26/14 Q1013 NOSIG=
METAR LTAU 080650Z 00000KT 9999 FEW040 26/15 Q1013 NOSIG=
METAR LTBR 080650Z NIL=
METAR LTBU 080650Z 36015KT 9999 SCT030 BKN100 22/10 Q1013=
METAR LTCC 080650Z VRB03KT CAVOK 34/06 Q1007 NOSIG=
METAR LTCE 080650Z 07010KT CAVOK 25/11 Q1019 NOSIG=
####018000420####
SARH31 LDZM 080700
METAR LDSP 080700Z 03006KT 320V100 CAVOK 24/05 Q1020 NOSIG =
METAR LDPL 080700Z 08010KT 030V110 CAVOK 22/10 Q1022 NOSIG =
METAR LDDU 080700Z VRB07KT CAVOK 23/05 Q1018 NOSIG =
METAR LDZA 080700Z VRB01KT CAVOK 20/11 Q1023 NOSIG =
METAR LDZD 080700Z VRB03KT CAVOK 25/05 Q1021 NOSIG =
METAR LDRI 080700Z VRB02KT CAVOK 23/09 Q1022 NOSIG=
METAR LDOS 080700Z 34004KT CAVOK 19/10 Q1022 NOSIG=
####018000101####
SAAJ31 UBBB 080700
UBBN 080700Z 08002KT 9999 NSC 33/11 Q1011 R14R/CLRD60 NOSIG
RMK G/O QFE684=
####018000093####
SAUZ31 UTTT 080700
METAR UTTT 080700Z 23002MPS 7000 NSC 37/11 Q1011 R08R/CLRD70
NOSIG=
####018000091####
SAUZ31 UTTW 080600 CCA
METAR UTST 080700Z VRB01MPS CAVOK 38/08 Q1008 R88/CLRD70 NOSIG=
####018000085####
SACV20 GVNP 080700
METAR GVNP 080700Z 04012KT 9999 -DZ BKN020 24/21 Q1012 NOSIG=
####018001496####
SATU20 LTAA 080650
METAR LTAB 080650Z 04010KT 360V080 9999 FEW040 25/15 Q1013 NOSIG RMK
RWY06 04009KT 360V090=
METAR LTAD 080650Z 04011KT 9999 FEW040 SCT100 26/16 Q1013 NOSIG RMK 
RWY29 04009KT 340V070=
METAR LTAE 080650Z 26004KT CAVOK 26/16 Q1013 NOSIG RMK RWY21 36006KT=
METAR LTAG 080650Z 21007KT 9999 BKN035 28/22 Q1008 NOSIG=
METAR LTAH 080650Z 09004KT 010V130 9999 FEW040 24/12 Q1013  RMK RWY13
10007KT 080V140=
METAR LTAN 080650Z 36010KT CAVOK 26/14 Q1013 NOSIG RMK RWY19 02012KT=
METAR LTAP 080650Z 04011KT 360V070 9999 FEW040 SCT100 26/18 Q1012 
NOSIG RMK RWY23 03013KT 360V060=
METAR LTAT 080650Z VRB02KT CAVOK 32/09 Q1010 NOSIG RMK RWY03 09003KT=
METAR LTAU 080650Z 00000KT 9999 FEW040 26/15 Q1013 NOSIG RMK RWY07 
VRB03KT=
METAR LTBF 080650Z 01012KT 9999 FEW035 26/15 Q1011 NOSIG RMK RWY18 
01014KT=
METAR LTBG 080650Z 02024KT 9999 FEW035 SCT100 25/15 Q1011 NOSIG RMK 
RWY18 02025G35KT=
METAR LTBI 080650Z 00000KT 9999 FEW035 SCT100 23/10 Q1013 NOSIG RMK 
RWY09 VRB01KT=
METAR LTBL 080650Z VRB02KT 9999 FEW040 28/11 Q1009 NOSIG RMK RWY17 
31004KT 250V020=
METAR LTBQ 080650Z 08003KT 010V140 9999 SCT034 25/19 Q1011 NOSIG RMK 
RWY09 08006KT 030V120=
METAR LTBR 080650Z NIL=
METAR LTBU 080650Z 36015KT 9999 SCT030 BKN100 22/10 Q1013 RMK RWY23 
35017KT=
METAR LTCC 080650Z VRB03KT CAVOK 34/06 Q1007 NOSIG RMK RWY16 VRB04KT=
METAR LTCE 080650Z 07010KT CAVOK 25/11 Q1019 NOSIG RMK RWY08R 04011KT
RWY26R 07012KT RWY08L 07011KT=
####018000151####
SATD31 TTPP 080700
METAR
TTPP 080700Z 11007KT 9999 FEW016 BKN280 26/25 Q1011 NOSIG=
TTCP 080700Z 07006KT 9999 FEW016 SCT280 25/23 Q1012 NOSIG=
####018000123####
SARH32 LDZM 080700
METAR LDLO 080700Z 03011KT 9999 SCT050 24/09 Q1022=
METAR LDSB 080700Z 01020KT CAVOK 19/07 Q1020=
####018000967####
SATU31 LTAA 080650
METAR LTAC 080650Z 04014KT 9999 SCT040 23/15 Q1014 NOSIG=
METAR LTAF 080650Z /////KT 5000 2000S BR SCT035 BKN100 28/21 Q1008 
BECMG TL0750 9999 NSW=
METAR LTAI 080650Z 15004KT 110V200 7000 SCT020 27/22 Q1008 NOSIG=
METAR LTAJ 080650Z 00000KT CAVOK 33/15 Q1008 NOSIG=
METAR LTAZ 080650Z VRB02KT 9999 FEW040 SCT100 26/14 Q1013=
METAR LTBA 080650Z 36020KT 9999 SCT035 24/15 Q1012 NOSIG=
METAR LTBJ 080650Z 01011KT CAVOK 28/11 Q1009 NOSIG=
METAR LTBS 080650Z 04004KT 310V100 CAVOK 30/19 Q1008 BECMG TL0800 
22012KT=
METAR LTCF 080650Z 03009KT 360V070 CAVOK 24/13 Q1020=
METAR LTCG 080650Z VRB03KT 9999 SCT035 BKN100 27/21 Q1012 NOSIG=
METAR LTCI 080650Z 27005KT CAVOK 24/15 Q1017 NOSIG=
METAR LTCS 080650Z 20005KT 180V250 CAVOK 32/13 Q1010=
METAR LTFE 080650Z VRB03KT CAVOK 30/16 Q1008 NOSIG=
METAR LTFH 080650Z 28009KT 9999 SCT036 BKN100 25/22 Q1012 NOSIG=
METAR LTFJ 080650Z 02015KT 9999 SCT035 24/17 Q1011 NOSIG=
####018000092####
SARM31 LUKK 080700
METAR LUKK 080700Z 34006KT 9999 SCT015 19/14 Q1015 26CLRD65
NOSIG=
####018000076####
SAAT31 TAPA 080656
METAR TAPA 080700Z 07010KT 9999  FEW020 28/24 Q1014=
####018000087####
SAUK37 EGGY 080650 RRA
METAR EGPI 080650Z AUTO 21014KT 9999NDV // NSC 14/10 Q1011=
####018000097####
SAIV20 DIAP 080700
METAR DIAP 080700Z 00000KT 6000 SCT012 SCT080 BKN260 25/24 Q1014
NOSIG=
####018000352####
SASD31 OEJD 080700
METAR OEDF 080700Z 01008KT 8000 NSC 41/09 Q1001 NOSIG=
METAR OEDR 080700Z NIL=
METAR OEJN 080700Z 32012KT CAVOK 35/26 Q1002 NOSIG=
METAR OEMA 080700Z 22003KT CAVOK 42/01 Q1007 NOSIG=
METAR OERK 080700Z 04013KT CAVOK 40/02 Q1009 NOSIG=
METAR OERY 080700Z 07012KT 4000 DU SKC 41/02 Q1009 NOSIG=
METAR OYSN 080700Z NIL=
####018000082####
SAYE20 OYAG 080700
METAR OYAG 080700Z 12010KT 9999 SCT020 BKN070 29/25 Q1004=
####018000092####
SAPF20 NTAA 080700
METAR NTAA 080700Z 10003KT 9999 FEW020 25/22 Q1015 WS ALL RWY NOSIG=
####018000088####
SAHK31 VHHH 080700
METAR VHHH 080700Z 24014KT 9999 FEW020 SCT030 34/24 Q1007 NOSIG=
####018000114####
SAUS46 KLOX 080701 COR
MTRNXP
METAR KNXP 080656Z AUTO 31004KT CLR 28/02 A2989 RMK AO2 SLP079 
T02780022 $
####018000079####
SPCN47 CWAO 080659
SPECI CYPQ 080659Z AUTO ///// 3/8SM CLR 21/21 A3003=

####018000249####
SASQ51 LZIB 080700
METAR LZKC 080700Z 01006KT 330V070 9999 FEW033 19/11
Q1020=
METAR LZLU 080700Z 27002KT 9999 FEW033 19/13 Q1021=
METAR LZNI 080700Z 34011KT 300V020 CAVOK 20/09 Q1022=
METAR LZPE 080700Z 35002KT 9999 FEW033 20/11 Q1022=
####018000107####
SATU33 LTAA 080650
METAR LCEN 080650Z 10005KT 9999 FEW025 29/19 Q1008 NOSIG=
METAR LCGK 080650Z NIL=
####018000080####
SANC01 NWWW 080700
METAR NWWW 080700Z AUTO 18002KT 9999NDV NCD 20/16 Q1015=
####018000422####
SAXN17 KAWN 080600 RRL
METAR MMHO 080644Z 00000KT 10SM FEW080 29/04 A2979 RMK 8/030 HZY=
METAR MMMD 080644Z 10005KT 7SM OVC070 22/22 A2986 RMK 8/06/=
METAR MMMY 080644Z 31005KT 15SM BKN045 24/22 A2990 RMK 8/500=
METAR MMMZ 080644Z 05004KT 10SM SCT220 26/22 A2978 RMK 8/002=
METAR MMTJ 080640Z 00000KT 6SM OVC017 16/14 A2995 RMK 8/5// HZY=
METAR MMTP 080640Z 00000KT 10SM BKN020 BKN100 25/34 A2992 RMK 8/170=
####018001340####
SAXN17 KAWN 080700 RRC
METAR MMCZ 080646Z 08010KT 6SM SCT080 BKN200 26/24 A2987 RMK 8/058
      SC HZY=
METAR MMML 080648Z 15006KT 10SM SKC 26/15 A2966=
METAR MMUN 080651Z 12009KT 6SM FEW015 SCT090 SCT300 28/24 A2988 RMK
      8/538 HZY=
METAR MUGM 080656Z 34003KT 9999 FEW035 SCT095 26/22 A2996 RMK SLP143
      T02560222=
METAR NFFN 080700Z 16005KT 40KM SCT028 SCT048 24/19 Q1013 NOSIG RMK
      RR NIL=
METAR PACZ 080655Z AUTO 03008KT 10SM 12/12 A3006 RMK AO1 T01220117=
METAR PAGA 080658Z AUTO 02004KT 10SM CLR 21/06 A3006 RMK AO2 SLP222
      T02060056=
METAR PALU 080655Z AUTO 22023G28KT 10SM CLR 13/01 A3009 RMK AO1 T01280012=
METAR PASY 080656Z AUTO 02017KT 10SM OVC006 A2973 RMK AO2 SLPNO TSNO
      PNO=
METAR PLCH 080700Z 11018KT 20KM FEW030 26/24 Q1010=
METAR RJOI 080700Z 16006KT 9000 HZ FEW030 SCT150 BKN200 28/22 A2977
      RMK SLP082 T02780222=
METAR RJTY 080655Z AUTO 18009KT 9999 CLR 29/22 A2984 RMK AO2 SLP098
      T02890224 $=
METAR RKSO 080655Z AUTO 26007KT 9999 FEW100 27/23 A2977 RMK AO2 SLP084
      T02720227 $=
METAR SVMI 080700Z 11001KT 9999 FEW016 SCT100 25/24 Q1013 NOSIG=
METAR TAPA 080700Z 07010KT 9999 FEW020 28/24 Q1014=
METAR TTCP 080700Z 07006KT 9999 FEW016 SCT280 25/23 Q1012 NOSIG=
METAR TTPP 080700Z 11007KT 9999 FEW016 BKN280 26/25 Q1011 NOSIG=
####018000081####
SATG20 DXXX 080700
METAR DXXX 080700Z VRB03KT 7000 SCT010 25/24 Q1014 NOSIG=
####018000158####
SAUS41 KGYX 080701
MTRMWN
METAR KMWN 080656Z 31009KT 15SM FEW/// FEW/// FEW025 15/14
RMK TPS LWR FEW044 BBLO FEW N HZ DSNT ALQDS PTCHY VLY FG NW-N

####018000085####
SASR31 WSAP 080700
METAR WSAP 080700Z 00000KT 9999 
FEW018 BKN270 31/24 Q1009=
####018000086####
SANC01 NWWL 080700
METAR NWWL 080700Z AUTO 19003KT 9999NDV BKN035/// 21/17 Q1014=
####018000081####
SANC01 NWWM 080700
METAR NWWM 080700Z 26002KT 9999 FEW028 21/16 Q1015 NOSIG=
####018000086####
SANC01 NWWU 080700
METAR NWWU 080700Z AUTO VRB03KT 9999NDV OVC035/// 21/18 Q1014=
####018000124####
SAUS44 KMOB 080701 COR
MTR79J
METAR K79J 080656Z AUTO 00000KT 10SM CLR 25/22 A3003 RMK AO2 SLP163 
T02500222 TSNO $
####018001603####
SAZZ40 KAWN 080700 RRK
METAR KLUF 080655Z AUTO 01003KT 10SM CLR 30/08 A2974 RMK AO2 SLP038
      T03030076 404130241 $=
METAR KNBC 080656Z AUTO 26005KT 10SM CLR 24/19 A2998 RMK AO2 SLP151
      T02440189=
METAR KNID 080656Z AUTO 19007KT FEW090 27/03 A2982 RMK AO2 SLP071 T02720033
      TSNO $=
METAR KNJK 080656Z AUTO 26008KT 10SM CLR 28/09 A2967 RMK AO2 SLP06LJ
      T02830089 TSNO=
METAR KSZL 080655Z 18003KT 3SM -RA BKN021 BKN030 23/22 A3004 RMK AO2A
      DZB0559E0609 SLP165 P0013 T02290224 $=
METAR MHLC 080700Z 00000KT 9999 FEW026 SCT200 26/24 Q1009 A2980 NOSIG=
METAR MHLM 080700Z 21005KT 9999 FEW020CB BKN080 27/25 Q1010 A2983 NOSIG=
METAR MHTG 080700Z 10003KT 7000 -DZ BKN025 BKN080 19/19 Q1017 A3003
      NOSIG=
METAR MUCM 080649Z 00000KT 9000 FEW020 24/22 Q1014=
METAR MUCU 080652Z 05004KT 9000 FEW020 26/24 Q1015=
METAR MUHG 080650Z 18004KT 140V210 CAVOK 24/22 Q1015=
METAR MUVR 080652Z 00000KT 8000 FEW018CB FEW020 BKN200 25/23 Q1015=
METAR OAKN 080650Z 00000KT 9000 HZ SKC 39/10 Q1010 BLU NOSIG RMK A2984
      DA6800=
METAR OEMA 080700Z 22003KT CAVOK 42/01 Q1007 NOSIG=
METAR OERK 080700Z 04013KT CAVOK 40/02 Q1009 NOSIG=
METAR OERY 080700Z 07012KT 4000 DU SKC 41/02 Q1009 NOSIG=
METAR OLBA 080700Z 24007KT 210V270 8000 FEW080 27/18 Q1011 NOSIG=
METAR PAGA 080658Z AUTO 02004KT 10SM CLR 21/06 A3006 RMK AO2 SLP222
      T02060056=
METAR PHBK 080656Z AUTO 27005KT 10SM SCT080 27/19 A3001 RMK AO2 SLP164
      T02720194 TSNO $=
METAR ROTM 080658Z 21014G22KT 9999 BKN020 BKN100 BKN180 27/26 A2983
      RMK SLP086 T02670261=
####018000073####
SAUY SUMU 080700
METAR SUMU 080700Z 34005KT CAVOK 04/03 Q1017 NOSIG=
####018000075####
SAUY59 SUMU 080700
METAR SUMU 080700Z 34005KT CAVOK 04/03 Q1017 NOSIG=
####018000082####
SABZ24 SBPA 080700
METAR SBPA 080700Z 21004KT 9999 BKN023 OVC045 18/14 Q1016=
####018000125####
SAUS44 KMOB 080701 COR
MTRNSE
METAR KNSE 080656Z AUTO 00000KT 1 1/2SM BR CLR 24/22 A3003 RMK AO2 
SLP153 T02390217 $
####018000115####
SARA31 UHHH 080700
METAR 080700Z
METAR METAR UHHH 080700Z 03007MPS 9999 BKN029CB OVC100 18/13 Q1010
NOSIG=
####018000083####
SPCN46 CWAO 080701
SPECI CYBN 080701Z AUTO 00000KT 2 3/8SM CLR 21/19 A3003=

####018003668####
SAUS90 KWBC 080700 RRA
METAR KEUF 080658Z AUTO 00000KT 10SM CLR 22/19 A3002 RMK AO2
     SLP160 T02170189 PNO $=
METAR KCVX 080655Z AUTO 00000KT 7SM BKN100 21/20 A3000 RMK AO2=
METAR KFKS 080655Z AUTO 21005KT 10SM CLR 23/18 A3000 RMK AO2=
METAR KSLH 080655Z AUTO 00000KT 7SM SCT070 BKN110 21/20 A2998 RMK
     AO2=
METAR KSJX 080655Z AUTO 00000KT 5SM -RA SCT033 SCT050 BKN090 21/19
     A2996 RMK AO2=
METAR KLDM 080655Z AUTO 23011KT 10SM BKN090 BKN120 24/20 A3003 RMK
     AO2=
METAR KSAW 080659Z AUTO 00000KT 10SM OVC003 18/17 A2997 RMK
     AO2=
METAR KGOV 080655Z AUTO 00000KT 5SM BR BKN090 BKN120 21/21 A3004
     RMK AO2=
METAR KPZQ 080655Z AUTO 19006KT 5SM BR CLR 22/22 A3001 RMK AO2=
METAR KHYX 080655Z AUTO 17004KT 10SM CLR 23/21 A3001 RMK AO2=
METAR KPHN 080655Z AUTO 00000KT 2 1/2SM BR CLR 20/19 A3003 RMK
     AO2=
METAR KONZ 080657Z AUTO 21003KT 10SM CLR 26/21 A3002 RMK AO2=
METAR KISQ 080655Z AUTO 00000KT 10SM BKN020 19/17 A2997 RMK
     AO2=
METAR KRMY 080655Z AUTO 00000KT 10SM CLR 22/20 A3005 RMK AO2=
METAR KOSC 080654Z AUTO 00000KT 10SM CLR 20/18 A3002 RMK AO2=
METAR KTTF 080654Z AUTO 00000KT 7SM CLR 23/23 A3003 RMK AO2=
METAR KAMN 080655Z AUTO 00000KT 5SM BR CLR 22/21 A3002 RMK AO2=
METAR KMCD 080656Z AUTO 00000KT 10SM BKN110 21/18 A3000 RMK
     AO2=
METAR KERY 080655Z AUTO 00000KT 10SM -RA SCT024 BKN040 OVC060
     20/19 A2999 RMK AO2=
METAR KDVP 080656Z AUTO 00000KT 10SM CLR 15/13 A3016 RMK AO2
     T01500132=
METAR KCDD 080651Z AUTO 00000KT 10SM CLR 14/14 A3004 RMK AO2=
METAR KFOZ 080653Z AUTO 00000KT 1/2SM FG VV005 13/12 A3005 RMK
     AO2=
METAR KAQP 080654Z AUTO 21004KT 10SM CLR 15/15 A3010 RMK AO2=
METAR KETH 080654Z AUTO 21004KT 10SM CLR 15/14 A3010 RMK AO2=
METAR KXVG 080656Z AUTO 00000KT 7SM SCT001 11/11 A3005 RMK AO2=
METAR KORB 080654Z AUTO 00000KT 10SM CLR 14/13 A3002 RMK AO2=
METAR KMZH 080651Z AUTO 00000KT 10SM CLR 15/14 A3004 RMK AO2=
METAR KBFW 080653Z AUTO 00000KT 10SM SCT065 SCT110 18/16 A3001 RMK
     AO2=
METAR KVWU 080651Z AUTO 00000KT 10SM CLR 16/14 A3002 RMK AO2=
METAR KOWA 080654Z AUTO 29005KT 10SM CLR 18/18 A3007 RMK AO2=
METAR KCDA 080655Z AUTO 00000KT 5SM HZ CLR 21/18 A3009 RMK AO2=
METAR KFPK 080656Z AUTO 00000KT 3SM BR CLR 21/20 A3003 RMK AO2=
METAR KMOP 080654Z AUTO 00000KT 2 1/2SM BR CLR 22/22 A3002 RMK AO2
     VIS 1 1/4V5=
METAR KCAD 080654Z AUTO 00000KT 10SM BKN100 BKN110 22/21 A3004 RMK
     AO2=
METAR KMGN 080655Z AUTO 00000KT 7SM BKN110 21/20 A2999 RMK AO2=
METAR KHAI 080655Z AUTO 00000KT 7SM CLR 22/21 A3005 RMK AO2=
METAR KLWA 080656Z AUTO 31003KT 10SM SCT050 BKN070 BKN110 23/21
     A3004 RMK AO2=
METAR KDRM 080656Z AUTO 00000KT 1 1/4SM BR OVC001 19/19 A2999 RMK
     AO2=
METAR KVLL 080654Z AUTO 00000KT 10SM CLR 27/21 A3006 RMK AO2=
METAR KCFS 080655Z AUTO 00000KT 2 1/2SM BR CLR 21/21 A3003 RMK
     AO2=
METAR KOZW 080655Z AUTO 00000KT 10SM CLR 23/21 A3005 RMK AO2=
METAR KRNP 080655Z AUTO 00000KT 7SM CLR 22/21 A3003 RMK AO2=
METAR KDUH 080654Z AUTO 00000KT 7SM CLR 22/18 A3005 RMK AO2=
METAR KJYM 080655Z AUTO 00000KT 7SM CLR 21/20 A3007 RMK AO2=
METAR KBAX 080655Z AUTO 00000KT 5SM BR SCT110 22/21 A3002 RMK
     AO2=
METAR KIRS 080655Z AUTO 00000KT 10SM CLR 23/19 A3005 RMK AO2=
METAR KACB 080655Z AUTO 00000KT 10SM BKN110 23/21 A2999 RMK
     AO2=
METAR KRQB 080655Z AUTO 19003KT 7SM RA SCT045 BKN065 OVC090 23/22
     A3005 RMK AO2=
METAR KOEB 080655Z AUTO 00000KT 10SM CLR 23/20 A3006 RMK AO2=
METAR K4I3 080656Z AUTO 00000KT 10SM CLR 21/19 A3010 RMK AO2=
METAR KAUM 080655Z AUTO 31005KT 10SM CLR 19/18 A3006 RMK AO2=
####018000055####
SAUS90 KWBC 080600 RRI
METAR K8S0 080555Z 26006KT=
####018001421####
SAUS90 KWBC 080700 RRB
METAR KFFX 080654Z AUTO 25003KT 7SM -DZ SCT032 SCT048 OVC090 23/21
     A3004 RMK AO2=
METAR KCNB 080657Z AUTO 25004KT 10SM CLR 15/13 A3013 RMK AO2
     T01520127=
METAR KCKN 080655Z AUTO 27006KT 10SM CLR 15/12 A3004 RMK AO2=
METAR KCFE 080655Z AUTO 00000KT 10SM CLR 19/17 A3009 RMK AO2
     T01860165=
METAR KCQM 080657Z AUTO 00000KT 1 3/4SM BR VV007 13/13 A3005 RMK
     AO2 VIS 3/4V5=
METAR KDTL 080655Z AUTO 24005KT 10SM CLR 18/13 A3008 RMK AO2=
METAR KBDH 080655Z AUTO 00000KT 10SM CLR 16/14 A3011 RMK AO2=
METAR KCBG 080655Z AUTO 00000KT 10SM CLR 18/16 A3006 RMK AO2=
METAR KADC 080656Z AUTO 22004KT 10SM CLR 14/13 A3008 RMK AO2=
METAR KHAF 080650Z AUTO 26005KT 9SM OVC010 12/10 A2994 RMK AO2=
METAR KCKC 080655Z AUTO 00000KT 7SM CLR 15/13 A3004 RMK AO2=
METAR KJYG 080655Z AUTO 00000KT 10SM CLR 18/18 A3012 RMK AO2=
METAR KCOQ 080656Z AUTO 28004KT 10SM CLR 16/16 A3006 RMK AO2=
METAR KACQ 080659Z AUTO 30005KT 10SM CLR 17/17 A3010 RMK AO2=
METAR KRGK 080655Z AUTO 29004KT 10SM CLR 21/19 A3004 RMK AO2=
METAR KFSE 080654Z AUTO 21005KT 10SM CLR 14/13 A3004 RMK AO2=
METAR KY70 080655Z AUTO 21004KT 10SM SCT065 OVC120 25/21 A3002 RMK
     AO2 T02470212=
METAR KUKT 080655Z AUTO 00000KT 6SM CLR 22/20 A3003 RMK AO1=
METAR KMWN 080656Z 31009KT 15SM FEW/// FEW/// FEW025 15/14 RMK TPS
     LWR FEW044 BBLO FEW N HZ DSNT ALQDS PTCHY VLY FG NW-N=
####018000348####
SAUS90 KWBC 080700 CCB
METAR KLOR 080653Z AUTO 00000KT 10SM CLR 22/20 A3002 RMK AO2
     SLP163 T02170200 TSNO $=
METAR KRIL 080653Z AUTO 17003KT 10SM -RA FEW065 BKN080 OVC110
     17/09 A3028 RMK AO2 RAB39 SLP182 P0000 T01720089 403280100
     TSNO=
METAR KNXP 080656Z AUTO 31004KT CLR 28/02 A2989 RMK AO2 SLP079
     T02780022 $=
####018000101####
SAUS90 KWBC 080702
METAR KFKA 080703Z AUTO 32006KT 7SM CLR 20/19 A3006 RMK AO2
     T01960190=
####018000559####
SAUS20 KNKA 080701
SPECI KPWK 080700Z AUTO 30007KT 5SM -RA BR BKN016 BKN065 BKN100 
    23/21 A3006 RMK AO2 LTG DSNT N P0000=
METAR KRDK 080655Z AUTO 00000KT 10SM SCT060 22/19 A3008 RMK AO2=
METAR KSDA 080655Z AUTO 01004KT 10SM SCT075 22/20 A3009 RMK AO2=
METAR KSHL 080655Z AUTO 00000KT 3/4SM BKN001 16/15 A3016 RMK AO2=
METAR KTKV 080655Z AUTO 00000KT 5SM BR SCT001 OVC008 18/17 A3003 
     RMK AO2 T01800172=
METAR KTNU 080655Z AUTO 35008KT 10SM CLR 22/20 A3006 RMK AO2=
METAR KVTI 080655Z AUTO 00000KT 10SM SCT011 21/21 A3005 RMK AO2=
####018002919####
SAUS20 KNKA 080701
METAR KAWG 080655Z AUTO 00000KT 7SM CLR 22/20 A3002 RMK AO2=
METAR KAXA 080655Z AUTO 33004KT 10SM CLR 19/18 A3009 RMK AO2=
METAR KBNW 080655Z AUTO 34004KT 10SM CLR 21/18 A3009 RMK AO2=
METAR KCAV 080655Z AUTO 33006KT 10SM BKN025 22/20 A3009 RMK AO2=
METAR KCBF 080655Z AUTO 34006KT 10SM CLR 21/16 A3011 RMK AO2=
METAR KCCY 080655Z AUTO 00000KT 10SM BKN025 20/17 A3007 RMK AO2=
METAR KCIN 080655Z AUTO 35005KT 10SM CLR 20/17 A3011 RMK AO2=
METAR KCNC 080655Z AUTO 00000KT 10SM CLR 21/18 A3005 RMK AO2=
METAR KCSQ 080655Z AUTO 31003KT 7SM CLR 21/20 A3008 RMK AO2=
METAR KDEH 080655Z AUTO 00000KT 10SM CLR 22/19 A3007 RMK AO2=
METAR KDMA 080655Z AUTO 05005KT 10SM CLR 31/09 A2986 RMK AO2 SLP035
      T03130088 403920235 $=
METAR KDNS 080655Z AUTO 00000KT 7SM OVC025 21/18 A3014 RMK AO2=
METAR KEOK 080655Z AUTO 00000KT 10SM SCT055 BKN110 23/20 A3003 
     RMK AO2=
METAR KFAF 080655Z 00000KT 9SM FEW080 SCT110 26/26 A2995 RMK AO2A SLP143
      T02640264=
METAR KFFL 080655Z AUTO 25003KT 5SM CLR 22/20 A3003 RMK AO2=
METAR KFSW 080655Z AUTO 18003KT 7SM CLR 23/21 A3003 RMK AO2=
METAR KFXY 080655Z AUTO 31004KT 10SM CLR 19/17 A3009 RMK AO2=
METAR KGGI 080655Z AUTO 33004KT 10SM CLR 22/20 A3006 RMK AO2=
METAR KHNR 080655Z AUTO 35003KT 5SM CLR 18/18 A3013 RMK AO2=
METAR KHRT 080655Z AUTO 00000KT 10SM CLR 24/24 A3002 RMK AO2 SLP167
      T02450245 $=
METAR KI75 080655Z AUTO 35003KT 5SM CLR 21/20 A3005 RMK AO2=
METAR KICL 080655Z AUTO 36003KT 10SM CLR 23/19 A3007 RMK AO2=
METAR KIFA 080655Z AUTO 00000KT 10SM SCT085 SCT110 20/20 A3009 
     RMK AO2=
METAR KIIB 080655Z AUTO 00000KT 4SM CLR 20/19 A3004 RMK AO1=
METAR KIKV 080655Z AUTO 36005KT 10SM CLR 22/20 A3007 RMK AO2=
METAR KLRJ 080655Z AUTO 00000KT 7SM CLR 17/16 A3014 RMK AO2=
SPECI KMCI 080700Z 33005KT 8SM BKN008 BKN110 23/22 A3008 RMK AO2 $=
SPECI KMMK 080700Z AUTO 00000KT 2 1/2SM BR FEW085 SCT110 23/22 A3004 
    RMK AO2=
METAR KMPZ 080655Z AUTO 28004KT 7SM SCT120 22/21 A3002 RMK AO2=
METAR KMUT 080655Z AUTO 00000KT 7SM -RA SCT043 SCT080 BKN090 
     24/22 A3001 RMK AO2 P0001=
METAR KMXO 080655Z AUTO 00000KT 5SM CLR 21/20 A3003 RMK AO2=
METAR KNBG 080655Z AUTO 04003KT 10SM CLR 26/24 A3001 RMK AO2 SLP162
      T02560239 PWINO $=
METAR KNCA 080656Z AUTO 01004KT 10SM CLR 26/22 A2991 RMK AO2 SLP128
      T02560217=
METAR KNMM 080656Z AUTO 00000KT 10SM CLR 24/22 A3004 RMK AO2 SLP180
      T02390217=
METAR KNXX 080656Z AUTO 00000KT 7SM CLR 24/19 A3002 RMK AO2 SLP170
      T02440194 $=
METAR KO22 080655Z AUTO 01003KT 10SM CLR 17/11 A2991 RMK AO1 =
METAR KORC 080655Z AUTO 35004KT 10SM SCT030 19/18 A3014 RMK AO2=
METAR KOXV 080655Z AUTO 00000KT 7SM CLR 21/20 A3005 RMK AO2=
METAR KPEA 080655Z AUTO 00000KT 5SM CLR 22/22 A3005 RMK AO2=
METAR KPSM 080655Z 11003KT 2SM BR BKN003 OVC006 21/21 A3004 RMK AO2A
      SLP174 T02130207=
####018000100####
SASR31 WSSS 080700
METAR WSSS 080700Z 20005KT 9999 FEW016 FEW018TCU BKN150 30/25 Q1009
NOSIG=
####018000115####
SAUS42 KRAH 080701
MTRNJM
METAR KNJM 080657Z AUTO 35004KT 10SM CLR 26/19 A2990 RMK AO2 SLP130 
T02610194 $
####018002920####
SAUS99 KWBC 080702
METAR
KRDK 080655Z AUTO 00000KT 10SM SCT060 22/19 A3008 RMK AO2=
KSDA 080655Z AUTO 01004KT 10SM SCT075 22/20 A3009 RMK AO2=
KSHL 080655Z AUTO 00000KT 3/4SM BKN001 16/15 A3016 RMK AO2=
KTKV 080655Z AUTO 00000KT 5SM BR SCT001 OVC008 18/17 A3003 RMK AO2
     T01800172=
KTNU 080655Z AUTO 35008KT 10SM CLR 22/20 A3006 RMK AO2=
KVTI 080655Z AUTO 00000KT 10SM SCT011 21/21 A3005 RMK AO2=
KAWG 080655Z AUTO 00000KT 7SM CLR 22/20 A3002 RMK AO2=
KAXA 080655Z AUTO 33004KT 10SM CLR 19/18 A3009 RMK AO2=
KBNW 080655Z AUTO 34004KT 10SM CLR 21/18 A3009 RMK AO2=
KCAV 080655Z AUTO 33006KT 10SM BKN025 22/20 A3009 RMK AO2=
KCBF 080655Z AUTO 34006KT 10SM CLR 21/16 A3011 RMK AO2=
KCCY 080655Z AUTO 00000KT 10SM BKN025 20/17 A3007 RMK AO2=
KCIN 080655Z AUTO 35005KT 10SM CLR 20/17 A3011 RMK AO2=
KCNC 080655Z AUTO 00000KT 10SM CLR 21/18 A3005 RMK AO2=
KCSQ 080655Z AUTO 31003KT 7SM CLR 21/20 A3008 RMK AO2=
KDEH 080655Z AUTO 00000KT 10SM CLR 22/19 A3007 RMK AO2=
KDMA 080655Z AUTO 05005KT 10SM CLR 31/09 A2986 RMK AO2 SLP035
     T03130088 403920235 $=
KDNS 080655Z AUTO 00000KT 7SM OVC025 21/18 A3014 RMK AO2=
KEOK 080655Z AUTO 00000KT 10SM SCT055 BKN110 23/20 A3003 RMK
     AO2=
KFAF 080655Z 00000KT 9SM FEW080 SCT110 26/26 A2995 RMK AO2A SLP143
     T02640264=
KFFL 080655Z AUTO 25003KT 5SM CLR 22/20 A3003 RMK AO2=
KFSW 080655Z AUTO 18003KT 7SM CLR 23/21 A3003 RMK AO2=
KFXY 080655Z AUTO 31004KT 10SM CLR 19/17 A3009 RMK AO2=
KGGI 080655Z AUTO 33004KT 10SM CLR 22/20 A3006 RMK AO2=
KHNR 080655Z AUTO 35003KT 5SM CLR 18/18 A3013 RMK AO2=
KHRT 080655Z AUTO 00000KT 10SM CLR 24/24 A3002 RMK AO2 SLP167
     T02450245 $=
KI75 080655Z AUTO 35003KT 5SM CLR 21/20 A3005 RMK AO2=
KICL 080655Z AUTO 36003KT 10SM CLR 23/19 A3007 RMK AO2=
KIFA 080655Z AUTO 00000KT 10SM SCT085 SCT110 20/20 A3009 RMK
     AO2=
KIIB 080655Z AUTO 00000KT 4SM CLR 20/19 A3004 RMK AO1=
KIKV 080655Z AUTO 36005KT 10SM CLR 22/20 A3007 RMK AO2=
KLRJ 080655Z AUTO 00000KT 7SM CLR 17/16 A3014 RMK AO2=
KMPZ 080655Z AUTO 28004KT 7SM SCT120 22/21 A3002 RMK AO2=
KMUT 080655Z AUTO 00000KT 7SM -RA SCT043 SCT080 BKN090 24/22 A3001
     RMK AO2 P0001=
KMXO 080655Z AUTO 00000KT 5SM CLR 21/20 A3003 RMK AO2=
KNBG 080655Z AUTO 04003KT 10SM CLR 26/24 A3001 RMK AO2 SLP162
     T02560239 PWINO $=
KNCA 080656Z AUTO 01004KT 10SM CLR 26/22 A2991 RMK AO2 SLP128
     T02560217=
KNMM 080656Z AUTO 00000KT 10SM CLR 24/22 A3004 RMK AO2 SLP180
     T02390217=
KNXX 080656Z AUTO 00000KT 7SM CLR 24/19 A3002 RMK AO2 SLP170
     T02440194 $=
KO22 080655Z AUTO 01003KT 10SM CLR 17/11 A2991 RMK AO1=
KORC 080655Z AUTO 35004KT 10SM SCT030 19/18 A3014 RMK AO2=
KOXV 080655Z AUTO 00000KT 7SM CLR 21/20 A3005 RMK AO2=
KPEA 080655Z AUTO 00000KT 5SM CLR 22/22 A3005 RMK AO2=
KPSM 080655Z 11003KT 2SM BR BKN003 OVC006 21/21 A3004 RMK AO2A
     SLP174 T02130207=
####018000279####
SPUS99 KWBC 080702
SPECI
KPWK 080700Z AUTO 30007KT 5SM -RA BR BKN016 BKN065 BKN100 23/21
     A3006 RMK AO2 LTG DSNT N P0000=
KMCI 080700Z 33005KT 8SM BKN008 BKN110 23/22 A3008 RMK AO2 $=
KMMK 080700Z AUTO 00000KT 2 1/2SM BR FEW085 SCT110 23/22 A3004 RMK
     AO2=
####018000068####
SABZ24 SBFL 080700
METAR SBFL 080700Z 31009KT CAVOK 20/18 Q1013=
####018000068####
SABZ18 SBRP 080700
METAR SBRP 080700Z 13005KT CAVOK 13/09 Q1019=
####018000069####
SABZ24 SBLO 080700
METAR SBLO 080700Z 24001KT CAVOK 17/13 Q1018 =
####018000068####
SABZ24 SBCG 080700
METAR SBCG 080700Z 18004KT CAVOK 17/09 Q1016=
####018000068####
SABZ19 SBSN 080700
METAR SBSN 080700Z 16003KT CAVOK 24/22 Q1011=
####018000068####
SABZ22 SBGO 080700
METAR SBGO 080700Z 34002KT CAVOK 14/11 Q1019=
####018000081####
SABZ20 SBCZ 080700
METAR SBCZ 080700Z 00000KT 8000 FEW003 SCT020 24/24 Q1011=
####018000068####
SABZ19 SBMQ 080700
METAR SBMQ 080700Z 36002KT CAVOK 25/25 Q1012=
####018000081####
SABZ21 SBNT 080700
METAR SBNT 080700Z 19004KT 9999 SCT018 SCT070 22/21 Q1014=
####018000068####
SABZ19 SBMA 080700
METAR SBMA 080700Z 27004KT CAVOK ///// Q1012=
####018000185####
SAEO32 EGGY 080650
METAR EEKA 080650Z NIL=
METAR EEKE 080650Z NIL=
METAR EEPU 080650Z 32004KT 290V350 9999 FEW008 21/18 Q1014=
METAR EETU 080650Z VRB02KT 9999 BKN012 23/20 Q1013=
####018000068####
SABZ18 SBSP 080700
METAR SBSP 080700Z 06005KT CAVOK 17/10 Q1020=
####018000081####
SABZ24 SBPA 080700
METAR SBPA 080700Z 21004KT 9999 BKN023 OVC045 18/14 Q1016=
####018000091####
SASW39 LSSW 080650 RRA
METAR LSMP 080650Z AUTO 00000KT 9999NDV NCD 20/13 Q1022 RMK BLU=
####018000082####
SABZ21 SBJP 080700
METAR SBJP 080700Z 23004KT 9999 FEW020 BKN070 22/21 Q1014 =
####018000287####
SANL31 EHDB 080655
METAR EHAM 080655Z 26006KT 220V290 CAVOK 21/13 Q1018 NOSIG=
METAR EHBK 080655Z AUTO 20006KT 170V240 9999NDV NCD 23/13 Q1019
NOSIG=
METAR EHGG 080655Z AUTO 21008KT 180V240 9999NDV NSC 22/12 Q1018
NOSIG=
METAR EHRD 080655Z 25006KT 9999 FEW036 21/13 Q1019 NOSIG=
####018000116####
SAPQ50 KWBC 080700 RRA
METAR
PTTP 080655Z 12003KT 15SM SCT018 BKN300 28/24 A2982 RMK SLP098
     T02830237=
####018001592####
SAAW41 KWBC 080650 RRC
METAR
LTAD 080650Z 04011KT 9999 FEW040 SCT100 26/16 Q1013 NOSIG RMK
     RWY29 04009KT 340V070=
LTAG 080650Z 21007KT 9999 BKN035 28/22 Q1008 NOSIG=
LTAH 080650Z 09004KT 010V130 9999 FEW040 24/12 Q1013 RMK RWY13
     10007KT 080V140=
LTAJ 080650Z 00000KT CAVOK 33/15 Q1008 NOSIG=
LTAN 080650Z 36010KT CAVOK 26/14 Q1013 NOSIG RMK RWY19 02012KT=
LTAN 080650Z 36010KT CAVOK 26/14 Q1013 NOSIG=
LTAP 080650Z 04011KT 360V070 9999 FEW040 SCT100 26/18 Q1012 NOSIG
     RMK RWY23 03013KT 360V060=
LTAT 080650Z VRB02KT CAVOK 32/09 Q1010 NOSIG RMK RWY03 09003KT=
LTAU 080650Z 00000KT 9999 FEW040 26/15 Q1013 NOSIG RMK RWY07
     VRB03KT=
LTAU 080650Z 00000KT 9999 FEW040 26/15 Q1013 NOSIG=
LTBF 080650Z 01012KT 9999 FEW035 26/15 Q1011 NOSIG RMK RWY18
     01014KT=
LTBG 080650Z 02024KT 9999 FEW035 SCT100 25/15 Q1011 NOSIG RMK
     RWY18 02025G35KT=
LTBI 080650Z 00000KT 9999 FEW035 SCT100 23/10 Q1013 NOSIG RMK
     RWY09 VRB01KT=
LTBL 080650Z VRB02KT 9999 FEW040 28/11 Q1009 NOSIG RMK RWY17
     31004KT 250V020=
LTBQ 080650Z 08003KT 010V140 9999 SCT034 25/19 Q1011 NOSIG RMK
     RWY09 08006KT 030V120=
LTCC 080650Z VRB03KT CAVOK 34/06 Q1007 NOSIG RMK RWY16 VRB04KT=
LTCC 080650Z VRB03KT CAVOK 34/06 Q1007 NOSIG=
LTCE 080650Z 07010KT CAVOK 25/11 Q1019 NOSIG=
LTCE 080650Z 07010KT CAVOK 25/11 Q1019 NOSIG RMK RWY08R 04011KT
     RWY26R 07012KT RWY08L 07011KT=
LTCG 080650Z VRB03KT 9999 SCT035 BKN100 27/21 Q1012 NOSIG=
LTCI 080650Z 27005KT CAVOK 24/15 Q1017 NOSIG=
LTFE 080650Z VRB03KT CAVOK 30/16 Q1008 NOSIG=
####018000422####
SAAW31 KWBC 080630 RRB
METAR
LTAC 080650Z 04014KT 9999 SCT040 23/15 Q1014 NOSIG=
LTAF 080650Z /////KT 5000 2000S BR SCT035 BKN100 28/21 Q1008 BECMG
     TL0750 9999 NSW=
LTAI 080650Z 15004KT 110V200 7000 SCT020 27/22 Q1008 NOSIG=
LTBA 080650Z 36020KT 9999 SCT035 24/15 Q1012 NOSIG=
LTBJ 080650Z 01011KT CAVOK 28/11 Q1009 NOSIG=
LTBS 080650Z 04004KT 310V100 CAVOK 30/19 Q1008 BECMG TL0800
     22012KT=
####018000088####
SAUK34 EGGY 080650 CCA
METAR COR EGHK 080650Z 00000KT 9999 FEW028 15/14 Q1018 NOSIG=
####018000066####
SAEW LEJR 080700
METAR LEJR 080700Z VRB02KT CAVOK 22/19 Q1015=
####018000132####
SPXX60 KWBC 080702
SPECI
KHST 080656Z AUTO 04006KT 10SM -DZ SCT020 SCT029 BKN038 27/25
     A2994 RMK AO2 DZB0656 SLP139 $=
####018000377####
SAXX60 KWBC 080700 CCB
METAR
KNJK 080656Z AUTO 26008KT 10SM CLR 28/09 A2967 RMK AO2 SLP061
     T02830089 TSNO=
KLOR 080653Z AUTO 00000KT 10SM CLR 22/20 A3002 RMK AO2 SLP163
     T02170200 TSNO $=
KNXP 080656Z AUTO 31004KT CLR 28/02 A2989 RMK AO2 SLP079 T02780022
     $=
K79J 080656Z AUTO 00000KT 10SM CLR 25/22 A3003 RMK AO2 SLP163
     T02500222 TSNO $=
####018003672####
SAXX60 KWBC 080700 RRC
METAR
KEUF 080658Z AUTO 00000KT 10SM CLR 22/19 A3002 RMK AO2 SLP160
     T02170189 PNO $=
KRYT 080653Z AUTO 00000KT 7SM SCT075 24/17 A3003 RMK AO2 SLP150
     T02390172 $=
KNFL 080656Z AUTO 01003KT 10SM CLR 24/02 A2995 RMK AO2 SLP114
     T02440017 TSNO=
KNGP 080656Z AUTO 08005KT 10SM FEW055 28/26 A2983 RMK AO2 TSE0559
     SLP101 T02830261 $=
KNLC 080656Z 33008KT 10SM CLR 21/12 A2981 RMK AO2 SLP092 RH/52
     T02110117 $=
KNMM 080656Z AUTO 00000KT 10SM CLR 24/22 A3004 RMK AO2 SLP180
     T02390217=
KNQI 080656Z AUTO 36003KT 10SM CLR 27/24 A2985 RMK AO2 SLP104
     T02670244 $=
KNTD 080656Z AUTO 30005KT 10SM OVC017 16/13 A2990 RMK AO2 SLP127
     T01560128 TSNO PNO VISNO N $=
KNTU 080656Z 11005KT 4SM BR CLR 26/24 A2994 RMK AO2 SLP142
     T02560244 $=
KNUW 080656Z 00000KT 10SM CLR 15/11 A2995 RMK AO2 SLP145 T01500111
     $=
KNXP 080656Z AUTO 31004KT CLR 28/02 A2989 RMK AO2 SLP079 T02780022
     $=
KNXP 080656Z AUTO 31004KT CLR 28/02 A2989 RMK AO2 SLP079 T02780022
     $=
KNXX 080656Z AUTO 00000KT 7SM CLR 24/19 A3002 RMK AO2 SLP170
     T02440194 $=
KNYL 080655Z 00000KT 10SM CLR 30/06 A2971 RMK AO2 SLP055 T03000056
     404060239=
KPOE 080655Z AUTO 11005KT 10SM CLR 24/23 A3000 RMK AO2 SLP158
     T02440228=
KPSM 080655Z 11003KT 2SM BR BKN003 OVC006 21/21 A3004 RMK AO2A
     SLP174 T02130207=
KSKF 080655Z 06009KT 10SM FEW015 26/24 A2993 RMK AO2A SLP125
     T02590237 $=
KCVS 080655Z 01006KT 10SM BKN120 17/15 A3020 RMK AO2A SLP188
     T01730150 402840161 $=
KDMA 080655Z AUTO 05005KT 10SM CLR 31/09 A2986 RMK AO2 SLP035
     T03130088 403920235 $=
KFAF 080655Z 00000KT 9SM FEW080 SCT110 26/26 A2995 RMK AO2A SLP143
     T02640264=
KFFO 080658Z 00000KT 10SM CLR 22/20 A3008 RMK AO2A SLP178=
KHLR 080656Z AUTO 11005KT 10SM BKN015 BKN055 26/26 A2999 RMK AO2
     SLP146 T02610261 $=
KHOP 080655Z AUTO 00000KT 10SM CLR 25/22 A3007 RMK AO2 SLP176
     T02520223=
KHRT 080655Z AUTO 00000KT 10SM CLR 24/24 A3002 RMK AO2 SLP167
     T02450245 $=
KNBG 080655Z AUTO 04003KT 10SM CLR 26/24 A3001 RMK AO2 SLP162
     T02560239 PWINO $=
KNCA 080656Z AUTO 01004KT 10SM CLR 26/22 A2991 RMK AO2 SLP128
     T02560217=
KNJK 080656Z AUTO 26008KT 10SM CLR 28/09 A2967 RMK AO2 SLP06LJ
     T02830089 TSNO=
KNJK 080656Z AUTO 26008KT 10SM CLR 28/09 A2967 RMK AO2 SLP061
     T02830089 TSNO=
KNRS 080656Z AUTO 30006KT 10SM OVC018 17/13 A2992 RMK AO2 SLP130
     T01720128 TSNO $=
KNUQ 080656Z AUTO 02007KT 10SM OVC015 16/12 A2992 RMK AO2 SLP135
     T01610122 TSNO=
KSVN 080655Z 23003KT 10SM SKC 23/21 A2998 RMK SLP155=
KFFO 080658Z 00000KT 10SM CLR 22/20 A3008 RMK AO2A SLP178=
KHRT 080655Z AUTO 00000KT 10SM CLR 24/24 A3002 RMK AO2 SLP167
     T02450245 $=
KNFL 080656Z AUTO 01003KT 10SM CLR 24/02 A2995 RMK AO2 SLP114
     T02440017 TSNO=
KNLC 080656Z 33008KT 10SM CLR 21/12 A2981 RMK AO2 SLP092 RH/52
     T02110117 $=
KNMM 080656Z AUTO 00000KT 10SM CLR 24/22 A3004 RMK AO2 SLP180
     T02390217=
KNRS 080656Z AUTO 30006KT 10SM OVC018 17/13 A2992 RMK AO2 SLP130
     T01720128 TSNO $=
KNTD 080656Z AUTO 30005KT 10SM OVC017 16/13 A2990 RMK AO2 SLP127
     T01560128 TSNO PNO VISNO N $=
KNUQ 080656Z AUTO 02007KT 10SM OVC015 16/12 A2992 RMK AO2 SLP135
     T01610122 TSNO=
KNUW 080656Z 00000KT 10SM CLR 15/11 A2995 RMK AO2 SLP145 T01500111
     $=
KNXP 080656Z AUTO 31004KT CLR 28/02 A2989 RMK AO2 SLP079 T02780022
     $=
KNXP 080656Z AUTO 31004KT CLR 28/02 A2989 RMK AO2 SLP079 T02780022
     $=
KNXX 080656Z AUTO 00000KT 7SM CLR 24/19 A3002 RMK AO2 SLP170
     T02440194 $=
####018000104####
SAPH31 RPLC 080700
METAR RPLC 080700Z
VRB02KT 9999 FEW020 SCT036 BKN270 31/22 Q1009 A2979 RMK NOSIG
####018000253####
SAUS70 KWBC 080700 CCA
METAR
KRIL 080653Z AUTO 17003KT 10SM -RA FEW065 BKN080 OVC110 17/09
     A3028 RMK AO2 RAB39 SLP182 P0000 T01720089 403280100 TSNO=
KNSE 080656Z AUTO 00000KT 1 1/2SM BR CLR 24/22 A3003 RMK AO2
     SLP153 T02390217 $=
####018000705####
SAUS80 KWBC 080700 RRB
METAR
KRIC 080654Z 08003KT 8SM SCT120 27/20 A2997 RMK AO2 SLP151
     T02670200=
KBTR 080653Z 06005KT 10SM SCT200 24/23 A2999 RMK AO2 SLP155
     T02440233 $=
KDAB 080653Z 00000KT 10SM FEW026 21/20 A3000 RMK AO2 SLP158
     T02110200 $=
KFSD 080656Z 28003KT 10SM CLR 16/14 A3016 RMK AO2 SLP209
     T01560144=
KROA 080654Z 32003KT 7SM BKN090 26/19 A3007 RMK AO2 SLP165
     T02610194=
KMWN 080656Z 31009KT 15SM FEW/// FEW/// FEW025 15/14 RMK TPS LWR
     FEW044 BBLO FEW N HZ DSNT ALQDS PTCHY VLY FG NW-N=
KTKV 080655Z AUTO 00000KT 5SM BR SCT001 OVC008 18/17 A3003 RMK AO2
     T01800172=
KVTI 080655Z AUTO 00000KT 10SM SCT011 21/21 A3005 RMK AO2=
####018000460####
SAAW34 KWBC 080645 RRB
METAR
OAKN 080650Z 00000KT 9000 HZ SKC 39/10 Q1010 BLU NOSIG RMK A2984
     DA6800=
OPGD 080700Z NIL=
OPLA 080655Z 10003KT 6000 SCT040 37/23 Q1006 NOSIG=
OPNH 080700Z 09004KT 6000M SCT035 37/24 Q.1004=
OPRN 080700Z 18008KT 9999 FEW040 36/21 1008.1=
OPSK 080655Z 060006KTS 6000 HZ SCT200 38/25 QNH 1003 R.H. 47 CHECK
     TEXT NEW ENDING ADDED VABBYFYX=
UTTT 080700Z 23002MPS 7000 NSC 37/11 Q1011 R08R/CLRD70 NOSIG=
####018000140####
SAUS70 KWBC 080702
METAR
PADM 080701Z AUTO 00000KT 10SM FEW080 12/09 A3007 RMK AO2 TSNO
     T01160094 RAB0603E0613 P0000 SLP170 $=
####018003710####
SAUS70 KWBC 080700 RRD
METAR
K4M9 080655Z AUTO 18006KT 9SM FEW041 25/25 A3004 RMK AO2=
KBWD 080655Z AUTO 00000KT 10SM BKN023 OVC029 24/22 A3001 RMK
     AO2=
KCMY 080655Z AUTO 00000KT 10SM CLR 22/21 A3002 RMK AO2
     T02150206=
KPDC 080653Z AUTO 00000KT 5SM BR OVC006 22/21 A3002 RMK AO2
     T02200207=
KRCX 080655Z AUTO 26004KT 10SM CLR 20/19 A3004 RMK AO2
     T01960190=
KRNH 080656Z AUTO 31004KT 10SM CLR 19/18 A3005 RMK AO2
     T01870175=
KRPD 080654Z AUTO 00000KT 10SM CLR 20/18 A3004 RMK AO2
     T01950177=
KRRL 080655Z AUTO 32003KT 2 1/2SM BR OVC001 19/18 A3002 RMK AO2
     T01880184=
KRYV 080655Z AUTO 00000KT 10SM -RA SCT090 23/20 A3002 RMK AO2=
KSTE 080655Z AUTO 00000KT 7SM BKN005 OVC024 22/21 A3000 RMK
     AO2=
KSUW 080655Z AUTO 30003KT 10SM SCT050 20/16 A3002 RMK AO2=
KUES 080655Z AUTO 00000KT 10SM SCT033 SCT041 OVC090 21/20 A3003
     RMK AO2 T02130197=
KUNU 080652Z AUTO 19003KT 10SM -RA SCT050 BKN070 BKN080 21/20
     A3002 RMK AO2 P0001 T02100195=
PADU 080658Z AUTO 11013KT 10SM OVC021 09/06 A2985 RMK AO2 SLP113
     T00940056=
PAGA 080658Z AUTO 02004KT 10SM CLR 21/06 A3006 RMK AO2 SLP222
     T02060056=
PAJZ 080656Z AUTO 00000KT 10SM FEW009 SCT043 BKN060 11/11 A3001
     RMK AO2 PWINO TSNO T01110105 BKN V SCT SLP150 $=
PAKI 080656Z AUTO 36007KT 10SM FEW055 12/10 A3001 RMK AO2 PWINO
     TSNO T01160100 SLP165 $=
PALG 080656Z AUTO 00000KT 10SM SCT110 13/11 A3001 RMK AO2 TSNO
     T01270105 SLP164=
PARY 080656Z AUTO 00000KT 10SM CLR 18/06 A3006 RMK AO2 PWINO TSNO
     T01830055 SLP180=
KFMH 080655Z AUTO 16006KT 1SM BR OVC002 21/20 A3007 RMK AO2=
PPIZ 080656Z AUTO 21010KT 10SM CLR 07/03 A3011 RMK AO2 TSNO
     T00660027 SLP198 $=
PAGA 080658Z AUTO 02004KT 10SM CLR 21/06 A3006 RMK AO2 SLP222
     T02060056=
KRDK 080655Z AUTO 00000KT 10SM SCT060 22/19 A3008 RMK AO2=
KSDA 080655Z AUTO 01004KT 10SM SCT075 22/20 A3009 RMK AO2=
KSHL 080655Z AUTO 00000KT 3/4SM BKN001 16/15 A3016 RMK AO2=
KTNU 080655Z AUTO 35008KT 10SM CLR 22/20 A3006 RMK AO2=
KAWG 080655Z AUTO 00000KT 7SM CLR 22/20 A3002 RMK AO2=
KAXA 080655Z AUTO 33004KT 10SM CLR 19/18 A3009 RMK AO2=
KBNW 080655Z AUTO 34004KT 10SM CLR 21/18 A3009 RMK AO2=
KCAV 080655Z AUTO 33006KT 10SM BKN025 22/20 A3009 RMK AO2=
KCBF 080655Z AUTO 34006KT 10SM CLR 21/16 A3011 RMK AO2=
KCCY 080655Z AUTO 00000KT 10SM BKN025 20/17 A3007 RMK AO2=
KCIN 080655Z AUTO 35005KT 10SM CLR 20/17 A3011 RMK AO2=
KCNC 080655Z AUTO 00000KT 10SM CLR 21/18 A3005 RMK AO2=
KCSQ 080655Z AUTO 31003KT 7SM CLR 21/20 A3008 RMK AO2=
KDEH 080655Z AUTO 00000KT 10SM CLR 22/19 A3007 RMK AO2=
KDNS 080655Z AUTO 00000KT 7SM OVC025 21/18 A3014 RMK AO2=
KEOK 080655Z AUTO 00000KT 10SM SCT055 BKN110 23/20 A3003 RMK
     AO2=
KFFL 080655Z AUTO 25003KT 5SM CLR 22/20 A3003 RMK AO2=
KFSW 080655Z AUTO 18003KT 7SM CLR 23/21 A3003 RMK AO2=
KFXY 080655Z AUTO 31004KT 10SM CLR 19/17 A3009 RMK AO2=
KGGI 080655Z AUTO 33004KT 10SM CLR 22/20 A3006 RMK AO2=
KHNR 080655Z AUTO 35003KT 5SM CLR 18/18 A3013 RMK AO2=
KICL 080655Z AUTO 36003KT 10SM CLR 23/19 A3007 RMK AO2=
KIFA 080655Z AUTO 00000KT 10SM SCT085 SCT110 20/20 A3009 RMK
     AO2=
KIIB 080655Z AUTO 00000KT 4SM CLR 20/19 A3004 RMK AO1=
KIKV 080655Z AUTO 36005KT 10SM CLR 22/20 A3007 RMK AO2=
KLRJ 080655Z AUTO 00000KT 7SM CLR 17/16 A3014 RMK AO2=
KMPZ 080655Z AUTO 28004KT 7SM SCT120 22/21 A3002 RMK AO2=
KMUT 080655Z AUTO 00000KT 7SM -RA SCT043 SCT080 BKN090 24/22 A3001
     RMK AO2 P0001=
KMXO 080655Z AUTO 00000KT 5SM CLR 21/20 A3003 RMK AO2=
KO22 080655Z AUTO 01003KT 10SM CLR 17/11 A2991 RMK AO1=
KORC 080655Z AUTO 35004KT 10SM SCT030 19/18 A3014 RMK AO2=
####018000432####
SPUS70 KWBC 080702
SPECI
KMVY 080659Z AUTO 16005KT 1/4SM R24/1400V2000FT FG VV001 21/19
     A3006 RMK AO2=
KUCP 080700Z AUTO 00000KT 1 1/2SM BR CLR 19/19 A3010 RMK AO2 $=
KPWK 080700Z AUTO 30007KT 5SM -RA BR BKN016 BKN065 BKN100 23/21
     A3006 RMK AO2 LTG DSNT N P0000=
KMCI 080700Z 33005KT 8SM BKN008 BKN110 23/22 A3008 RMK AO2 $=
KMMK 080700Z AUTO 00000KT 2 1/2SM BR FEW085 SCT110 23/22 A3004 RMK
     AO2=
####018000401####
SAGU31 MGGT 080700
METAR
METAR MGTK 080700Z  00000KT 9999 BKN014 BKN090 23/23 Q1012 A2989=
METAR MGHT 080700Z  00000KT 9999 OVC012 17/16 QFE 816.8=
METAR MGPB 080700Z  278004KT 9999 -TSRA SCT016 FEW025CB OVC080 24/24
Q1009 A2980 CB/TS/LTNG E/ESE=
METAR MGGT 080700Z  18006KT CAVOK 17/13 Q1023 A3021 SCT080 OVC100
NOSI
G=
METAR MGSJ 080700Z  07004KT 9999 -DZ SCT018 OVC090 2423 Q1012 A2988=
####018000147####
SAUS70 KWBC 080700 RRE
METAR
KOXV 080655Z AUTO 00000KT 7SM CLR 21/20 A3005 RMK AO2=
KPEA 080655Z AUTO 00000KT 5SM CLR 22/22 A3005 RMK AO2=
####018000081####
SACA31 KWBC 080600 RRA
METAR
MUCM 080649Z 00000KT 9000 FEW020 24/22 Q1014=
####018000171####
SAAF32 KWBC 080600 RRF
METAR
FGBT 080600Z 17004KT 7000 BKN013 OVC130 25/24 Q1013 NOSIG=
FKKR 080600Z 00000KT 6000 -TSRA BKN016 SCT020CB OVC100 Q1014
     NOSIG=
####018001585####
SAXX60 KWBC 080700 RRD
METAR
KSKF 080655Z 06009KT 10SM FEW015 26/24 A2993 RMK AO2A SLP125
     T02590237 $=
PASY 080656Z AUTO 02017KT 10SM OVC006 A2973 RMK AO2 SLPNO TSNO
     PNO=
TTPP 080700Z 11007KT 9999 FEW016 BKN280 26/25 Q1011 NOSIG=
KLUF 080655Z AUTO 01003KT 10SM CLR 30/08 A2974 RMK AO2 SLP038
     T03030076 404130241 $=
KNBC 080656Z AUTO 26005KT 10SM CLR 24/19 A2998 RMK AO2 SLP151
     T02440189=
KNID 080656Z AUTO 19007KT FEW090 27/03 A2982 RMK AO2 SLP071
     T02720033 TSNO $=
KNJK 080656Z AUTO 26008KT 10SM CLR 28/09 A2967 RMK AO2 SLP06LJ
     T02830089 TSNO=
KSZL 080655Z 18003KT 3SM -RA BKN021 BKN030 23/22 A3004 RMK AO2A
     DZB0559E0609 SLP165 P0013 T02290224 $=
PHBK 080656Z AUTO 27005KT 10SM SCT080 27/19 A3001 RMK AO2 SLP164
     T02720194 TSNO $=
KDMA 080655Z AUTO 05005KT 10SM CLR 31/09 A2986 RMK AO2 SLP035
     T03130088 403920235 $=
KFAF 080655Z 00000KT 9SM FEW080 SCT110 26/26 A2995 RMK AO2A SLP143
     T02640264=
KHRT 080655Z AUTO 00000KT 10SM CLR 24/24 A3002 RMK AO2 SLP167
     T02450245 $=
KNBG 080655Z AUTO 04003KT 10SM CLR 26/24 A3001 RMK AO2 SLP162
     T02560239 PWINO $=
KNCA 080656Z AUTO 01004KT 10SM CLR 26/22 A2991 RMK AO2 SLP128
     T02560217=
KNMM 080656Z AUTO 00000KT 10SM CLR 24/22 A3004 RMK AO2 SLP180
     T02390217=
KNXX 080656Z AUTO 00000KT 7SM CLR 24/19 A3002 RMK AO2 SLP170
     T02440194 $=
KPSM 080655Z 11003KT 2SM BR BKN003 OVC006 21/21 A3004 RMK AO2A
     SLP174 T02130207=
KNJM 080657Z AUTO 35004KT 10SM CLR 26/19 A2990 RMK AO2 SLP130
     T02610194 $=
####018000081####
SACA41 KWBC 080600 RRA
METAR
MUCM 080649Z 00000KT 9000 FEW020 24/22 Q1014=
####018000101####
SPAU32 YBBN 080658
SPECI YSRI 080657Z AUTO 00000KT 9999NDV // SCT028 BKN037 OVC052 13/11
Q1026=
####018000081####
SADL31 KWBC 080650 RRA
METAR
EDHL 080650Z 16007KT CAVOK 20/15 Q1020 RMK F=
####018000161####
SADL32 KWBC 080650 RRB
METAR
EDLP 080650Z 19008KT CAVOK 24/11 Q1020 RMK RWY24 TRL60 RU ATIS
     J=
EDLW 080650Z 18007KT CAVOK 24/10 Q1020 RMK ATIS H=
####018000086####
SADL33 KWBC 080645 RRD
METAR
EDNY 080650Z VRB04KT CAVOK 20/12 Q1022 RMK ATIS H=
####018000247####
SAGR31 KWBC 080650 RRB
METAR
LGAL 080650Z 04004KT 5000 RA SCT006 SCT020TCU BKN025 15/14
     Q1015=
LGSA 080650Z 30008KT CAVOK 31/15 Q1011=
LGSM 080650Z 34007G17KT CAVOK 28/15 Q1010=
LGSR 080650Z 29007KT CAVOK 29/15 Q1009 NOSIG BLU=
####018000167####
SAGR41 KWBC 080650 RRB
METAR
LGPZ 080650Z 27008KT 9999 FEW025 28/19 Q1013 NOSIG BLU=
LGRX 080650Z 26004KT 9999 FEW025 27/21 Q1012 NOSIG RMK FEW080
     BLU=
####018000119####
SPCN46 CWAO 080701
SPECI CYKF 080701Z AUTO 00000KT 2 1/2SM BR CLR 20/19 A3006 RMK SLP177
 DENSITY ALT 1700FT=

####018000127####
SPCN47 CWAO 080701
SPECI CYTZ 080701Z AUTO 19003KT 5SM BR OVC100 22/20 A3001 RMK SLP163
 DENSITY ALT 1000FT RVR MISG=

####018000247####
SAUK39 EGRR 080650 RRA
METAR EGOM 080650Z AUTO 23011KT 9999NDV // BKN011/// BKN016/// 12/10
Q1014=
METAR EGOP 080650Z AUTO 23004KT 9999NDV // FEW018/// SCT090/// 16/13
Q1018=
METAR EGXX 080650Z AUTO 22007KT 9999NDV // NCD ///// Q////=
####018000091####
SAMX31 KWBC 080645 RRC
METAR
MMMY 080644Z 31005KT 15SM BKN045 24/22 A2990 RMK 8/500=
####018000087####
SAMM31 KWBC 080630 RRC
METAR
LCEN 080650Z 10005KT 9999 FEW025 29/19 Q1008 NOSIG=
####018000096####
SANO42 KWBC 080650 RRA
METAR
ENNO 080650Z 11007KT 070V130 9999 FEW020 BKN030 16/14 Q1014=
####018000083####
SANO41 KWBC 080650 RRA
METAR
ENHF 080700Z 19011KT 140V220 CAVOK 16/07 Q1013=
####018000120####
SAUS41 KPHI 080701
MTRNEL
METAR KNEL 080700Z AUTO 00000KT 3SM BR OVC110 23/21 A3001 RMK AO2 
SLP160 T02330211 $
####018000213####
SAUK32 KWBC 080650 RRB
METAR
EGPA 080650Z 19015KT 9999 FEW030 15/11 Q1005=
EGPC 080650Z 19013KT 160V220 9999 FEW025 14/11 Q1007=
EGSH 080650Z 24007KT 220V280 9999 FEW009 BKN027 19/16 Q1018
     NOSIG=
####018000094####
SAUK31 KWBC 080650 CCB
METAR
EGLL 080650Z 23009KT 9999 BKN010 18/15 Q1019 BECMG SCT010=
####018000251####
SAUK41 KWBC 080650 RRB
METAR
EGAE 080650Z 22011KT 9999 FEW014 SCT023 14/10 Q1011=
EGBE 080650Z NIL=
EGBJ 080650Z 24003KT 9999 FEW017 16/12 Q1019=
EGDL 080650Z 22004KT 9999 FEW012 SCT035 BKN120 16/13 Q1019
     NOSIG=
EGNC 080650Z NIL=
####018000454####
SAUK42 KWBC 080650 RRB
METAR
EGPC 080650Z 19013KT 160V220 9999 FEW025 14/11 Q1007=
EGPE 080650Z 22020KT 9999 FEW025 SCT048 15/09 Q1007=
EGPL 080650Z 22019KT 9999 VCSH FEW015TCU SCT020 14/10 Q1006=
EGPM 080650Z 21019KT 9999 FEW012 SCT045 14/10 Q1004=
EGPN 080650Z 22016KT 9999 FEW022 SCT048 15/11 Q1011=
EGPO 080650Z 22022KT 9999 FEW018 BKN040 13/10 Q1004=
EGPU 080650Z NIL=
EGSC 080650Z 26009KT 220V280 3800 -SHRA BKN003 16/15 Q1018=
####018000136####
SAUK31 KWBC 080650 RRA
METAR
EGNH 080650Z 22009KT 9999 FEW022 SCT040 16/11 Q1016=
EGNJ 080650Z 22008KT 9999 FEW030 16/11 Q1017=
####018000619####
SAMX41 MMMX 080656
METAR MMMX 080644Z 00000KT 5SM -RA BKN025 OVC080 15/14 A3022
      NOSIG RMK 8/46/ -RA B37 LWR SC=
METAR MMAA 080644Z 34005KT 8SM SCT020TCU BKN300 27/23 A2979
      RMK 8/202=
METAR MMPB 080642Z 20005KT 6SM  SCT025 SCT120 BKN220 15/14 A3022 
      RMK 8/472 HZY=
METAR MMQT 080645Z 07010KT 4SM-RA BKN020 BKN100 OVC120 17/14 A3016 RMK
      6/0105 8/4633 -RA CONT=
METAR MMTO 080645Z 00000KT 3SM RA BKN010CB OVC070 13/11 A3028
      RMK 8/96/ -TS E36=
METAR MMVR 080645Z 27010KT 7SM TS  BKN012CB OVC080 25/24 A2980 
      RMK 60085 8/96/ INTMT -RA TS B40 OCNL LTGIC 1-2 QUAD=
####018000155####
SAZA42 FAJS 080700 RRB
METAR FAWK 080700Z 14010KT 4000 BR NSC 10/// Q1038=
METAR FASK 080700Z 18005KT 7000 NSC 09/// Q1035=
METAR FALM 080700Z NIL=
####018000163####
SANL32 EHDB 080655
METAR EHEH 080655Z AUTO 18004KT 9999NDV NCD 24/13 Q1019 
BLU BLU=
METAR EHKD 080655Z AUTO 23009KT 9999NDV SCT120/// 19/15 Q1018 
BLU BLU=
####018000074####
SAZB40 FLLS 080700
METAR FLLS 080700Z 08012KT 9999 BKN015 14/10 Q1029=
####018000082####
SABZ24 SBFI 080700
METAR SBFI 080700Z 18002KT 9999 FEW020 SCT100 16/14 Q1015 =
####018000082####
SAVN24 SVMG 080700

METAR SVMG 080700Z 09007KT 9999 FEW010 26/25 Q1013 NOSIG=
####018000190####
SADR31 MDSD 080700
METAR
MDST 080700Z 09004KT 9999 SCT016 22/21 Q1014=
MDPC 080700Z 00000KT 9999 -RS FEW018CB FEW018 25/22 Q1013 CB/SW 
MDSD 080700Z 05004KT 9999 FEW018 24/23 Q1014
=
####018000104####
SPBY31 UMMN 080700
SPECI UMII 080700Z 17003MPS  P6000  BKN007CB  18/16  Q1012
R23/CLRD//  NOSIG   =
####018000089####
SAAJ31 UBBB 080700
METAR UBBB 080700Z 34024KT CAVOK 32/24 Q1011 NOSIG RMK
R88CLRD70=
####018000088####
SAUK31 EGGY 080650 CCA
METAR COR EGCC 080650Z 20008KT 9999 FEW027 14/12 Q1017 NOSIG=
####018000537####
SACN60 CWAO 080600 RRF
PCC SA 0600 AUTO8 M M M M/13/10/1504/M/ M 13MM=
PDA SA 0600 AUTO8 M M M M/12/10/MMMM/M/ M 20MM=
PDU SA 0600 AUTO8 M M M M/12/10/MMMM/M/ M 22MM=
PEB SA 0600 AUTO8 M M M M/13/10/MMMM/M/ M 89MM=
PGI SA 0600 AUTO8 M M M M/14/11/1701/M/ M 51MM=
PHR SA 0600 AUTO8 M M M M/10/09/2302/M/0004 M 28MM=
PKI SA 0600 AUTO8 M M M M/13/11/MMMM/M/ M 61MM=
PLF SA 0600 AUTO8 M M M M/13/10/MMMM/M/M M 22MM=
PMN SA 0600 AUTO8 M M M M/12/10/MMMM/M/0004 M 63MM=
PSL SA 0600 AUTO8 M M M M/15/11/MMMM/M/ M 79MM=

####018000084####
SACN90 CWAO 080600 RRF
WFX SA 0600 AUTO8 M M M 126/12/10/1604/M/M 6011 56MM=

####018000079####
SACN91 CWAO 080600 RRF
WHI SA 0600 AUTO8 M M M M/14/10/1810/M/M M 50MM=

####018000078####
SACN93 CWAO 080600 RRG
WOV SA 0600 AUTO8 M M M M/15/10/1405/M/ M 94MM=

####018000108####
SACN95 CWAO 080600 RRF
WTD SA 0600 AUTO8 M M M 114/07/07/0112/M/0034 PCPN 0.2MM PAST HR
2004 99MM=

####018000087####
SACN92 CWAO 080600 RRF
WLG SA 0600 AUTO8 M M M 166/12/08/3407+15/M/M 2021 34MM=

####018000282####
SACN59 CWAO 080600 RRJ
PEA SA 0600 AUTO8 M M M M/14/13/MMMM/M/ M 99MM=
PSD SA 0600 AUTO8 M M M M/13/10/MMMM/M/ M 29MM=
PSP SA 0600 AUTO8 M M M M/11/10/MMMM/M/0020 M 16MM=
PTU SA 0600 AUTO8 M M M M/12/09/MMMM/M/ M 04MM=
PWB SA 0600 AUTO8 M M M M/12/09/MMMM/M/ M 78MM=

####018000079####
SACN98 CWAO 080600 RRG
XBW SA 0600 AUTO8 M M M M/13/11/2003/M/M M 08MM=

####018000113####
SAUS41 KAKQ 080702
MTRNGU
METAR KNGU 080659Z 00000KT 5SM BR FEW085 26/23 A2996 RMK AO2 SLP147 
T02560233
####018000079####
SATU32 LTAA 080650 RRA
METAR LTBR 080650Z 26004KT CAVOK 25/15 Q1011 NOSIG=
####018000108####
SAMR20 TFFF 080700
METAR TFFF 080700Z AUTO 06009KT 9999NDV SCT011/// BKN023///
BKN034/// 28/24 Q1013=
####018000161####
SAJD31 OJAI 080700
METAR OJAI 080700Z 32005KT CAVOK 27/09 Q1012 NOSIG=
METAR OJAM 080700Z 27008KT 5000 HZ NSC 28/09 Q1013 NOSIG=
METAR OJAQ 080700Z NIL=
####018000097####
SATU20 LTAA 080650 RRA
METAR LTBR 080650Z 26004KT CAVOK 25/15 Q1011 NOSIG RMK RWY07 31002KT=
####018000191####
SASQ31 LZIB 080700
METAR LZIB 080700Z 01008KT CAVOK 22/06 Q1022=
METAR LZKZ 080700Z 02010KT 330V070 CAVOK 19/11 Q1021 NOSIG=
METAR LZTT 080700Z VRB03KT 9999 FEW043 17/09 Q1022 NOSIG=
####018000069####
SAEO32 EETN 080650
METAR EEKA 080650Z 31009KT CAVOK 20/14 Q1016=
####018000477####
SAER32 OMAE 080700
METAR OMAA 080700Z 17010KT 130V250 CAVOK 40/17 Q1000 A2954 NOSIG=
METAR OMAD 080700Z NIL=
METAR OMAL 080700Z 21007KT 160V250 7000 NSC 38/26 Q1003 A2963=
METAR OMDB 080700Z VRB04KT CAVOK 41/22 Q1000 NOSIG=
METAR OMDW 080700Z 18005KT 120V250 CAVOK 40/21 Q1001 NOSIG=
METAR OMFJ 080700Z 08009KT 040V120 6000 FEW020 34/26 Q1002 A2960=
METAR OMRK 080700Z 34004KT CAVOK 41/28 Q0999 A2952=
METAR OMSJ 080700Z 36003KT 260V070 6000 NSC 41/20 Q1001=
####018000106####
SPBY31 UMMN 080700
SPECI UMII 080700Z 17003MPS  P6000  BKN007CB  18/16  Q1012
R23/CLRD//  NOSIG   =
####018000161####
SAJD20 OJAM 080700
METAR OJAI 080700Z 32005KT CAVOK 27/09 Q1012 NOSIG=
METAR OJAM 080700Z 27008KT 5000 HZ NSC 28/09 Q1013 NOSIG=
METAR OJAQ 080700Z NIL=
####018000083####
SAHU31 LHBM 080700
METAR LHBP 080700Z 23004KT 180V270 CAVOK 20/11 Q1021 NOSIG=
####018000187####
SASQ41 LZIB 080700
METAR LZPP 080700Z 01007KT 330V050 CAVOK 19/11 Q1023=
METAR LZSL 080700Z 23004KT 160V260 CAVOK 19/12 Q1021=
METAR LZZI 080700Z 19001KT 9999 FEW040 18/10 Q1023=
####018000102####
SAFG20 SOCA 080700
METAR SOCA 080700Z 00000KT 9999 VCTS BKN020 BKN026 BKN033 25/24
Q1012 NOSIG=
####018000124####
SAUS44 KMOB 080702 COR
MTR79J
METAR K79J 080656Z AUTO 00000KT 10SM CLR 25/22 A3003 RMK AO2 SLP163 
T02500222 TSNO $
####018000078####
SAMZ40 FQMA 080700
METAR FQQL 080700Z 20004KT 9999 FEW020 23/21 Q1026=

####018000101####
SASR31 WSSL 080700
METAR WSSL 080700Z 26005KT 9999 FEW020 BKN250 30/24 Q1009 RMK 0630Z
Q1009 =
####018001463####
SATU20 LTAA 080650
METAR LTAB 080650Z 04010KT 360V080 9999 FEW040 25/15 Q1013 NOSIG RMK RWY06 04009KT 360V090=
METAR LTAD 080650Z 04011KT 9999 FEW040 SCT100 26/16 Q1013 NOSIG RMK RWY29 04009KT 340V070=
METAR LTAE 080650Z 26004KT CAVOK 26/16 Q1013 NOSIG RMK RWY21 36006KT=
METAR LTAG 080650Z 21007KT 9999 BKN035 28/22 Q1008 NOSIG=
METAR LTAH 080650Z 09004KT 010V130 9999 FEW040 24/12 Q1013  RMK RWY13 10007KT 080V140=
METAR LTAN 080650Z 36010KT CAVOK 26/14 Q1013 NOSIG RMK RWY19 02012KT=
METAR LTAP 080650Z 04011KT 360V070 9999 FEW040 SCT100 26/18 Q1012 NOSIG RMK RWY23 03013KT 360V060=
METAR LTAT 080650Z VRB02KT CAVOK 32/09 Q1010 NOSIG RMK RWY03 09003KT=
METAR LTAU 080650Z 00000KT 9999 FEW040 26/15 Q1013 NOSIG RMK RWY07 VRB03KT=
METAR LTBF 080650Z 01012KT 9999 FEW035 26/15 Q1011 NOSIG RMK RWY18 01014KT=
METAR LTBG 080650Z 02024KT 9999 FEW035 SCT100 25/15 Q1011 NOSIG RMK RWY18 02025G35KT=
METAR LTBI 080650Z 00000KT 9999 FEW035 SCT100 23/10 Q1013 NOSIG RMK RWY09 VRB01KT=
METAR LTBL 080650Z VRB02KT 9999 FEW040 28/11 Q1009 NOSIG RMK RWY17 31004KT 250V020=
METAR LTBQ 080650Z 08003KT 010V140 9999 SCT034 25/19 Q1011 NOSIG RMK RWY09 08006KT 030V120=
METAR LTBR 080650Z NIL=
METAR LTBU 080650Z 36015KT 9999 SCT030 BKN100 22/10 Q1013 RMK RWY23 35017KT=
METAR LTCC 080650Z VRB03KT CAVOK 34/06 Q1007 NOSIG RMK RWY16 VRB04KT=
METAR LTCE 080650Z 07010KT CAVOK 25/11 Q1019 NOSIG RMK RWY08R 04011KT RWY26R 07012KT RWY08L 07011KT=
####018000106####
SATU33 LTAA 080650
METAR LCEN 080650Z 10005KT 9999 FEW025 29/19 Q1008 NOSIG=
METAR LCGK 080650Z NIL=
####018000325####
SATU32 LTAA 080650
METAR LTAN 080650Z 36010KT CAVOK 26/14 Q1013 NOSIG=
METAR LTAU 080650Z 00000KT 9999 FEW040 26/15 Q1013 NOSIG=
METAR LTBR 080650Z NIL=
METAR LTBU 080650Z 36015KT 9999 SCT030 BKN100 22/10 Q1013=
METAR LTCC 080650Z VRB03KT CAVOK 34/06 Q1007 NOSIG=
METAR LTCE 080650Z 07010KT CAVOK 25/11 Q1019 NOSIG=
####018000949####
SATU31 LTAA 080650
METAR LTAC 080650Z 04014KT 9999 SCT040 23/15 Q1014 NOSIG=
METAR LTAF 080650Z /////KT 5000 2000S BR SCT035 BKN100 28/21 Q1008
BECMG TL0750 9999 NSW=
METAR LTAI 080650Z 15004KT 110V200 7000 SCT020 27/22 Q1008 NOSIG=
METAR LTAJ 080650Z 00000KT CAVOK 33/15 Q1008 NOSIG=
METAR LTAZ 080650Z VRB02KT 9999 FEW040 SCT100 26/14 Q1013=
METAR LTBA 080650Z 36020KT 9999 SCT035 24/15 Q1012 NOSIG=
METAR LTBJ 080650Z 01011KT CAVOK 28/11 Q1009 NOSIG=
METAR LTBS 080650Z 04004KT 310V100 CAVOK 30/19 Q1008 BECMG TL0800
22012KT=
METAR LTCF 080650Z 03009KT 360V070 CAVOK 24/13 Q1020=
METAR LTCG 080650Z VRB03KT 9999 SCT035 BKN100 27/21 Q1012 NOSIG=
METAR LTCI 080650Z 27005KT CAVOK 24/15 Q1017 NOSIG=
METAR LTCS 080650Z 20005KT 180V250 CAVOK 32/13 Q1010=
METAR LTFE 080650Z VRB03KT CAVOK 30/16 Q1008 NOSIG=
METAR LTFH 080650Z 28009KT 9999 SCT036 BKN100 25/22 Q1012 NOSIG=
METAR LTFJ 080650Z 02015KT 9999 SCT035 24/17 Q1011 NOSIG=
####018000109####
SPBY31 UMMN 080700
SPECI  UMII  080700Z  17003MPS  P6000  BKN007CB  18/16  Q1012
R23/CLRD//  NOSIG   =
####018000079####
SAMP31 LMMM 080700 RRA
METAR HLLT 080650Z VRB02KT 7000 BKN016 25/19 Q1019=
####018000094####
SABA31 MYNN 080701
METAR MYNN 080700Z 00000KT 9999 FEW015 27/27 A2994=


NNNN


####018000552####
SACH71 SCSC 080700
METAR
SCAR 080700Z 26002KT 9999 OVC023 15/09 Q1017=
SCDA 080700Z 01009KT 9999 OVC026 15/08 Q1017=
SCFA 080700Z 00000KT 9999 OVC015 13/09 Q1016=
SCIP 080700Z 06005KT 8000 -SHRA SCT012 BKN020 18/17 Q1025 TEMPO
 5000 -SHRA=
SCAT 080700Z AUTO 06003KT 9999 // NCD 06/04 Q1017=
SCSE 080700Z 14003KT CAVOK 07/06 Q1017 NEFO PLAYA SKC=
SCER NIL=
SCVM 080700Z 13006KT CAVOK SKC 07/07 Q1021=
SCEL 080700Z 01002KT 5000 BR BKN130 04/02 Q1022 NOSIG=
SCRG NIL=
SCIE 080700Z 30012KT 4000 -SHRA BKN005 OVC006 12/11 Q1019=
####018000098####
SASG20 GOOY 080700
METAR GOOY 080700Z 16005KT 130V190 9999 FEW013 SCT230 27/24 Q1011
NOSIG=
####018000505####
SACH72 SCSC 080700
METAR
SCEL 080700Z 01002KT 5000 BR BKN130 04/02 Q1022 NOSIG=
SCIE 080700Z 30012KT 4000 -SHRA BKN005 OVC006 12/11 Q1019=
SCTC 080700Z VRB01KT 7000 BKN015 OVC025 09/09 Q1015 RMK BR=
SCTE 080700Z 34012KT 5000 SHRA SCT030 BKN050 07/07 Q1008 NOSIG=
SCMK NIL=
SCON NIL=
SCFT 080700Z AUTO 00000KT 9999 +RA ///015 03/02 Q1004=
SCBA 080700Z AUTO 31014KT 9999 -SHSN FEW083 BKN088 BKN100
    00/M02 Q0998=
SCCI 080700Z 32013KT 9999 FEW025 M02/M04 Q0988  NOSIG=
SCRM NIL=
####018001543####
SASA KAWN 080700 RRA
METAR SBBE 080700Z 11006KT 9999 FEW017 26/22 Q1012=
METAR SBCF 080700Z 00000KT CAVOK 10/07 Q1022=
METAR SBCG 080700Z 18004KT CAVOK 17/09 Q1016=
METAR SBCT 080700Z 05001KT CAVOK 12/11 Q1020=
METAR SBCZ 080700Z 00000KT 8000 FEW003 SCT020 24/24 Q1011=
METAR SBFI 080700Z 18002KT 9999 FEW020 SCT100 16/14 Q1015=
METAR SBFL 080700Z 31009KT CAVOK 20/18 Q1013=
METAR SBFZ 080700Z 12006KT 9999 SCT017 SCT100 25/22 Q1013=
METAR SBGL 080700Z 00000KT CAVOK 15/13 Q1019=
METAR SBGO 080700Z 34002KT CAVOK 14/11 Q1019=
METAR SBGR 080700Z 07006KT CAVOK 11/10 Q1021=
METAR SBJP 080700Z 23004KT 9999 FEW020 BKN070 22/21 Q1014=
METAR SBKP 080700Z 10008KT CAVOK 12/09 Q1020=
METAR SBLO 080700Z 24001KT CAVOK 17/13 Q1018=
METAR SBMA 080700Z 27004KT CAVOK ///// Q1012=
METAR SBMN 080700Z 02005KT 9999 FEW010 BKN100 26/24 Q1011=
METAR SBMQ 080700Z 36002KT CAVOK 25/25 Q1012=
METAR SBNT 080700Z 19004KT 9999 SCT018 SCT070 22/21 Q1014=
METAR SBPA 080700Z 21004KT 9999 BKN023 OVC045 18/14 Q1016=
METAR SBPV 080700Z 00000KT CAVOK 24/23 Q1011=
METAR SBRB 080700Z 00000KT CAVOK 23/23 Q1012=
METAR SBRP 080700Z 13005KT CAVOK 13/09 Q1019=
METAR SBSN 080700Z 16003KT CAVOK 24/22 Q1011=
METAR SBSP 080700Z 06005KT CAVOK 17/10 Q1020=
METAR SBSV 080700Z 05003KT 9999 SCT017 22/21 Q1016=
METAR SBVT 080700Z 30002KT 9999 FEW020 17/16 Q1020=
METAR SGAS 080700Z 16012KT 9999 BKN010 OVC017 18/16 Q1015=
METAR SGES 080700Z 00000KT CAVOK 17/14 Q1015=
METAR SUMU 080700Z 34005KT CAVOK 04/03 Q1017 NOSIG=
####018000842####
SAXX70 KAWN 080700 RRE
METAR KQAE 080655Z 32007KT 9000 HZ CLR 40/07 A2965 RMK SLP038=
METAR KQIR 080655Z 05004KT 8000 HZ CLR 39/25 A2956 RMK AO2A SLP008
      T03900255=
METAR KQQY 080655Z AUTO 00000KT 9999 23/21 A2997 RMK AO2 LTG DSNT W
      SLP130 T02250214 $=
METAR KQRY 080655Z AUTO VRB03KT 9999 CLR 29/06 A3018 RMK AO2 SLP085
      T02880062 PWINO $=
METAR KQW3 080655Z AUTO VRB06KT 9999 FEW230 36/15 A2986 RMK AO2 SLP027=
METAR KQEN 080700Z AUTO 08005KT M1/4SM FG VV001 18/16 A3039 RMK A02=
METAR KQEP 080700Z AUTO 27004KT 7SM FEW050 29/17 A2985 RMK A02=
METAR KQER 080700Z AUTO 23003KT 7SM FEW095 26/17 A2987 RMK A02=
METAR KQES 080700Z AUTO 30008KT 7SM CLR 22/17 A2984 RMK A02=
METAR KQEY 080700Z AUTO 26001KT 7SM CLR 28/16 A2958 RMK A02=
METAR KQEV 080710Z AUTO 35002KT 7SM FEW095 29/18 A2978 RMK A02=
####018000118####
SAAK41 KNKA 080702
METAR PAVC 080656Z AUTO 05003KT 10SM 07/06 A2996 RMK AO2 PWINO TSNO 
    T00660061 SLP148 $=
####018000747####
SACH10 SCSC 080700
METAR
SCAR 080700Z 26002KT 9999 OVC023 15/09 Q1017=
SCDA 080700Z 01009KT 9999 OVC026 15/08 Q1017=
SCFA 080700Z 00000KT 9999 OVC015 13/09 Q1016=
SCAT 080700Z AUTO 06003KT 9999 // NCD 06/04 Q1017=
SCIP 080700Z 06005KT 8000 -SHRA SCT012 BKN020 18/17 Q1025 TEMPO
 5000 -SHRA=
SCSE 080700Z 14003KT CAVOK 07/06 Q1017 NEFO PLAYA SKC=
SCEL 080700Z 01002KT 5000 BR BKN130 04/02 Q1022 NOSIG=
SCIE 080700Z 30012KT 4000 -SHRA BKN005 OVC006 12/11 Q1019=
SCTC 080700Z VRB01KT 7000 BKN015 OVC025 09/09 Q1015 RMK BR=
SCTE 080700Z 34012KT 5000 SHRA SCT030 BKN050 07/07 Q1008 NOSIG=
SCBA 080700Z AUTO 31014KT 9999 -SHSN FEW083 BKN088 BKN100
    00/M02 Q0998=
SCCI 080700Z 32013KT 9999 FEW025 M02/M04 Q0988  NOSIG=
####018000075####
SABC40 FBSK 080700
METAR FBSK 080700Z 10012KT CAVOK 13/09 Q1033 NOSIG=
####018000078####
SAMT20 GQNN 080700
METAR GQNN 080700Z 19005KT 6000 NSC 26/23 Q1011 NOSIG=
####018000405####
SAMC31 GMMC 080700
METAR GMAD 080700Z 06005KT 8000 SCT020 20/17 Q1013 NOSIG=
METAR GMFF 080700Z 31002KT 8000 FEW033 21/19 Q1017 NOSIG=
METAR GMME 080700Z 00000KT 5000 BKN010 22/19 Q1015 NOSIG=
METAR GMMN 080700Z 05005KT 010V080 7000 SCT002 SCT005 21/19 Q1015
NOSIG=
METAR GMMX 080700Z 25007KT 6000 FEW100 22/18 Q1016 NOSIG=
METAR GMTT 080700Z 00000KT 8000 FEW010 SCT016 22/20 Q1015 NOSIG=
####018000492####
SAMC32 GMMC 080700
METAR GMFF 080700Z 31002KT 8000 FEW033 21/19 Q1017 NOSIG=
METAR GMFM 080700Z 00000KT 1500 BR SKC 21/19 Q1017=
METAR GMFO 080700Z 23002KT 9999 FEW030 SCT100 29/15 Q1018 NOSIG=
METAR GMMW 080700Z 06008KT CAVOK 23/20 Q1016=
METAR GMMZ 080700Z 00000KT 6000 NSC 29/00 Q1023=
METAR GMTA 080700Z 04002KT 9999 FEW016 SCT026 23/20 Q1016=
METAR GMFK 080700Z NIL=
METAR GMMC 080700Z NIL=
METAR GMMH 080700Z NIL=
METAR GMML 080700Z NIL=
METAR GMTN 080700Z NIL=
####018000124####
SAZS31 NSTU 080700
METAR NSTU 080659Z 34003KT 10SM SCT014 BKN040 BKN130 27/26 A2986 RMK 
 SHRAB20E45 SLP113 T02710261=
####018000101####
SASG20 GOOY 080700
METAR GOOY 080700Z 16005KT 130V190 9999 FEW013 SCT230 27/24 Q1011
NOSIG=

####018000082####
SAIR33 OIII 080500 RRD
METAR OICS 080500Z 00000KT 9000 SKC 27/05 Q1014 A2997=
####018000139####
SARW20 HRYR 080700
METAR
HRYR 080700Z 16009KT 9999 FEW026  21/13 Q1024 NOSIG=
HRYG 080700Z 18004KT 8000 FEW023  20/15 Q1023 NOSIG=
####018001723####
SAEU KAWN 080700 RRK
METAR COR EGLL 080650Z 23009KT 9999 BKN010 18/15 Q1019 BECMG SCT010=
METAR EGOM 080650Z AUTO 23011KT 9999NDV // BKN011/// BKN016/// 12/10
      Q1014=
METAR EGPO 080650Z 22022KT 9999 FEW018 BKN040 13/10 Q1004=
METAR EGWU 080657Z 24007KT 7000 -RADZ FEW008 OVC010 17/16 Q1019 GRN
      TEMPO 4000 GRN=
METAR EGXX 080650Z AUTO 22007KT 9999NDV // NCD ///// Q////=
METAR ENHF 080700Z 19011KT 140V220 CAVOK 16/07 Q1013=
METAR ENNO 080650Z 11007KT 070V130 9999 FEW020 BKN030 16/14 Q1014=
METAR LBBG 080700Z 25005MPS 9999 FEW048 BKN066 BKN120 18/14 Q1014 NOSIG=
METAR LBGO 080700Z VRB01MPS 9999 SCT033 OVC070 16/14 Q1016 NOSIG=
METAR LBPD 080700Z 26005MPS 230V290 9999 -RA SCT050 OVC070 16/13 Q1016
      NOSIG=
METAR LBWN 080700Z 26004MPS 230V290 9999 SCT028 19/13 Q1014 BECMG RA=
METAR LDDU 080700Z VRB07KT CAVOK 23/05 Q1018 NOSIG=
METAR LDPL 080700Z 08010KT 030V110 CAVOK 22/10 Q1022 NOSIG=
METAR LDRI 080700Z VRB02KT CAVOK 23/09 Q1022 NOSIG=
METAR LDSP 080700Z 03006KT 320V100 CAVOK 24/05 Q1020 NOSIG=
METAR LDZA 080700Z VRB01KT CAVOK 20/11 Q1023 NOSIG=
METAR LDZD 080700Z VRB03KT CAVOK 25/05 Q1021 NOSIG=
METAR LEJR 080700Z VRB02KT CAVOK 22/19 Q1015=
METAR LGAL 080650Z 04004KT 5000 RA SCT006 SCT020TCU BKN025 15/14 Q1015=
METAR LGSA 080650Z 30008KT CAVOK 31/15 Q1011=
METAR LGSM 080650Z 34007G17KT CAVOK 28/15 Q1010=
METAR LHBP 080700Z 23004KT 180V270 CAVOK 20/11 Q1021 NOSIG=
METAR LIYW 080655Z AUTO 00000KT 9999 SCT050 BKN065 23/13 A3020 RMK
      AO2 CIG 050 RWY23 SLP226 T02260125=
METAR LQBK 080700Z 28003KT CAVOK 20/12 Q1022 NOSIG=
METAR LZIB 080700Z 01008KT CAVOK 22/06 Q1022=
METAR LZTT 080700Z VRB03KT 9999 FEW043 17/09 Q1022 NOSIG=
####018000134####
SAIN90 VECC 080650
METAR VECC 080650Z 20013KT 4000 -RA SCT018 SCT025 FEW030CB BKN090
     34/25
Q1007 TEMPO FM0720 1500 TSRA=
####018000075####
SACN50 CWAO 080630
VOM SA 0630 AUTO8 M M M M/23/10/3402/M/M M 80MM=

####018000075####
SACN50 CWAO 080645
VOM SA 0645 AUTO8 M M M M/22/10/3202/M/M M 45MM=

####018000075####
SACN50 CWAO 080615
VOM SA 0615 AUTO8 M M M M/23/10/2401/M/M M 26MM=

####018001596####
SANA35 KAWN 080700 RRB
METAR KACY 080654Z 00000KT 8SM CLR 25/23 A3001 RMK AO2 SLP162 T02500228=
METAR KCHS 080656Z 29007KT 10SM CLR 25/20 A2997 RMK AO2 SLP148 T02500200=
METAR KDAB 080653Z 00000KT 10SM FEW026 21/20 A3000 RMK AO2 SLP158 T02110200
      $=
METAR KDAB 080653Z 00000KT 10SM FEW026 21/20 A3000 RMK AO2 SLP158 T02110200
      $=
METAR KNBC 080656Z AUTO 26005KT 10SM CLR 24/19 A2998 RMK AO2 SLP151
      T02440189=
METAR KNBG 080655Z AUTO 04003KT 10SM CLR 26/24 A3001 RMK AO2 SLP162
      T02560239 PWINO $=
METAR KNCA 080656Z AUTO 01004KT 10SM CLR 26/22 A2991 RMK AO2 SLP128
      T02560217=
METAR KNGP 080656Z AUTO 08005KT 10SM FEW055 28/26 A2983 RMK AO2 TSE0559
      SLP101 T02830261 $=
METAR KNJM 080657Z AUTO 35004KT 10SM CLR 26/19 A2990 RMK AO2 SLP130
      T02610194 $=
METAR KNTU 080656Z 11005KT 4SM BR CLR 26/24 A2994 RMK AO2 SLP142 T02560244
      $=
METAR MDSD 080700Z 05004KT 9999 FEW018 24/23 Q1014=
METAR MMVR 080645Z 27010KT 7SM TS BKN012CB OVC080 25/24 A2980 RMK 60085
      8/96/ INTMT -RA TS B40 OCNL LTGIC 1-2 QUAD=
METAR MYNN 080700Z 00000KT 9999 FEW015 27/27 A2994=
METAR SCAR 080700Z 26002KT 9999 OVC023 15/09 Q1017=
METAR SCDA 080700Z 01009KT 9999 OVC026 15/08 Q1017=
METAR SCEL 080700Z 01002KT 5000 BR BKN130 04/02 Q1022 NOSIG=
METAR SCFA 080700Z 00000KT 9999 OVC015 13/09 Q1016=
METAR SCIE 080700Z 30012KT 4000 -SHRA BKN005 OVC006 12/11 Q1019=
METAR TFFF 080700Z AUTO 06009KT 9999NDV SCT011/// BKN023/// BKN034///
      28/24 Q1013=
METAR TTPP 080700Z 11007KT 9999 FEW016 BKN280 26/25 Q1011 NOSIG=
####018001595####
SAZZ40 KAWN 080700 RRL
METAR K79J 080656Z AUTO 00000KT 10SM CLR 25/22 A3003 RMK AO2 SLP163
      T02500222 TSNO $=
METAR KLTS 080655Z AUTO 32004KT 10SM CLR 24/22 A3004 RMK AO2 SLP155
      T02360222 $=
METAR KNJK 080656Z AUTO 26008KT 10SM CLR 28/09 A2967 RMK AO2 SLP06LJ
      T02830089 TSNO=
METAR KNSE 080656Z AUTO 00000KT 1 1/2SM BR CLR 24/22 A3003 RMK AO2
      SLP153 T02390217 $=
METAR KRCA 080655Z 00000KT 9SM CLR 12/09 A3024 RMK AO2A SLP229 T01240091
      402230084 $=
METAR LQBK 080700Z 28003KT CAVOK 20/12 Q1022 NOSIG=
METAR MDPC 080700Z 00000KT 9999 -RS FEW018CB FEW018 25/22 Q1013 CB/SW=
METAR MDSD 080700Z 05004KT 9999 FEW018 24/23 Q1014=
METAR MDST 080700Z 09004KT 9999 SCT016 22/21 Q1014=
METAR MGGT 080700Z 18006KT CAVOK 17/13 Q1023 A3021 SCT080 OVC100 NOSI
      G=
METAR MGHT 080700Z 00000KT 9999 OVC012 17/16 QFE 816/8=
METAR MGPB 080700Z 278004KT 9999 -TSRA SCT016 FEW025CB OVC080 24/24
      Q1009 A2980 CB/TS/LTNG E/ESE=
METAR MGSJ 080700Z 07004KT 9999 -DZ SCT018 OVC090 2423 Q1012 A2988=
METAR MUHA 080655Z 07002KT 8000 BKN020 25/24 Q1014=
METAR NTAA 080700Z 10003KT 9999 FEW020 25/22 Q1015 WS ALL RWY NOSIG=
METAR OJAI 080700Z 32005KT CAVOK 27/09 Q1012 NOSIG=
METAR OJAM 080700Z 27008KT 5000 HZ NSC 28/09 Q1013 NOSIG=
METAR SCSE 080700Z 14003KT CAVOK 07/06 Q1017 NEFO PLAYA SKC=
METAR TFFF 080700Z AUTO 06009KT 9999NDV SCT011/// BKN023/// BKN034///
      28/24 Q1013=
METAR WSAP 080700Z 00000KT 9999 FEW018 BKN270 31/24 Q1009=
METAR WSSS 080700Z 20005KT 9999 FEW016 FEW018TCU BKN150 30/25 Q1009
      NOSIG=
####018002959####
SAUS20 KNKA 080702
METAR K4I3 080656Z AUTO 00000KT 10SM CLR 21/19 A3010 RMK AO2=
METAR KACB 080655Z AUTO 00000KT 10SM BKN110 23/21 A2999 RMK
     AO2=
SPECI KACK 080701Z AUTO 12007KT 3/4SM R24/3000VP6000FT BR VV001 
    19/19 A3006 RMK AO2 TSNO=
METAR KACQ 080659Z AUTO 30005KT 10SM CLR 17/17 A3010 RMK AO2=
METAR KADC 080656Z AUTO 22004KT 10SM CLR 14/13 A3008 RMK AO2=
METAR KAMN 080655Z AUTO 00000KT 5SM BR CLR 22/21 A3002 RMK AO2=
METAR KAQP 080654Z AUTO 21004KT 10SM CLR 15/15 A3010 RMK AO2=
METAR KASJ 080657Z AUTO 00000KT 5SM HZ CLR 24/21 A2995 RMK AO2=
METAR KAUM 080655Z AUTO 31005KT 10SM CLR 19/18 A3006 RMK AO2=
METAR KBAX 080655Z AUTO 00000KT 5SM BR SCT110 22/21 A3002 RMK
     AO2=
METAR KBDH 080655Z AUTO 00000KT 10SM CLR 16/14 A3011 RMK AO2=
METAR KBFW 080653Z AUTO 00000KT 10SM SCT065 SCT110 18/16 A3001 RMK
     AO2=
METAR KBQP 080707Z AUTO 07003KT 3SM BR SCT001 25/25 A3003 RMK AO2=
METAR KCAD 080654Z AUTO 00000KT 10SM BKN100 BKN110 22/21 A3004 RMK
     AO2=
METAR KCBG 080655Z AUTO 00000KT 10SM CLR 18/16 A3006 RMK AO2=
METAR KCDA 080655Z AUTO 00000KT 5SM HZ CLR 21/18 A3009 RMK AO2=
METAR KCDD 080651Z AUTO 00000KT 10SM CLR 14/14 A3004 RMK AO2=
METAR KCFE 080655Z AUTO 00000KT 10SM CLR 19/17 A3009 RMK AO2
     T01860165=
METAR KCFS 080655Z AUTO 00000KT 2 1/2SM BR CLR 21/21 A3003 RMK
     AO2=
METAR KCKC 080655Z AUTO 00000KT 7SM CLR 15/13 A3004 RMK AO2=
METAR KCKN 080655Z AUTO 27006KT 10SM CLR 15/12 A3004 RMK AO2=
METAR KCNB 080657Z AUTO 25004KT 10SM CLR 15/13 A3013 RMK AO2
     T01520127=
METAR KCOQ 080656Z AUTO 28004KT 10SM CLR 16/16 A3006 RMK AO2=
METAR KCQM 080657Z AUTO 00000KT 1 3/4SM BR VV007 13/13 A3005 RMK
     AO2 VIS 3/4V5=
METAR KCTZ 080700Z AUTO 00000KT 7SM CLR 24/22 A2993 RMK AO2=
METAR KCVX 080655Z AUTO 00000KT 7SM BKN100 21/20 A3000 RMK AO2=
METAR KDRM 080656Z AUTO 00000KT 1 1/4SM BR OVC001 19/19 A2999 RMK
     AO2=
METAR KDTL 080655Z AUTO 24005KT 10SM CLR 18/13 A3008 RMK AO2=
METAR KDUH 080654Z AUTO 00000KT 7SM CLR 22/18 A3005 RMK AO2=
METAR KDVP 080656Z AUTO 00000KT 10SM CLR 15/13 A3016 RMK AO2
     T01500132=
METAR KEBS 080655Z AUTO 33004KT 10SM OVC022 21/19 A3009 RMK AO2=
METAR KERY 080655Z AUTO 00000KT 10SM -RA SCT024 BKN040 OVC060
     20/19 A2999 RMK AO2=
METAR KETH 080654Z AUTO 21004KT 10SM CLR 15/14 A3010 RMK AO2=
METAR KFFX 080654Z AUTO 25003KT 7SM -DZ SCT032 SCT048 OVC090 23/21
     A3004 RMK AO2=
METAR KFKA 080703Z AUTO 32006KT 7SM CLR 20/19 A3006 RMK AO2
     T01960190=
METAR KFKS 080655Z AUTO 21005KT 10SM CLR 23/18 A3000 RMK AO2=
METAR KFOZ 080653Z AUTO 00000KT 1/2SM FG VV005 13/12 A3005 RMK
     AO2=
METAR KFPK 080656Z AUTO 00000KT 3SM BR CLR 21/20 A3003 RMK AO2=
METAR KFQD 080659Z AUTO 33003KT 10SM CLR 22/18 A3004 RMK AO2=
METAR KFSE 080654Z AUTO 21005KT 10SM CLR 14/13 A3004 RMK AO2=
METAR KGOV 080655Z AUTO 00000KT 5SM BR BKN090 BKN120 21/21 A3004
     RMK AO2=
####018000075####
SAMY20 FMCZ 080700
METAR FMCZ 080700Z 14014KT 9999 BKN025 26/18 Q1019=
####018000122####
SPUS99 KWBC 080703
SPECI
KACK 080701Z AUTO 12007KT 3/4SM R24/3000VP6000FT BR VV001 19/19
     A3006 RMK AO2 TSNO=
####018002691####
SAUS99 KWBC 080703
METAR
PAVC 080656Z AUTO 05003KT 10SM 07/06 A2996 RMK AO2 PWINO TSNO
     T00660061 SLP148 $=
K4I3 080656Z AUTO 00000KT 10SM CLR 21/19 A3010 RMK AO2=
KACB 080655Z AUTO 00000KT 10SM BKN110 23/21 A2999 RMK AO2=
KACQ 080659Z AUTO 30005KT 10SM CLR 17/17 A3010 RMK AO2=
KADC 080656Z AUTO 22004KT 10SM CLR 14/13 A3008 RMK AO2=
KAMN 080655Z AUTO 00000KT 5SM BR CLR 22/21 A3002 RMK AO2=
KAQP 080654Z AUTO 21004KT 10SM CLR 15/15 A3010 RMK AO2=
KASJ 080657Z AUTO 00000KT 5SM HZ CLR 24/21 A2995 RMK AO2=
KAUM 080655Z AUTO 31005KT 10SM CLR 19/18 A3006 RMK AO2=
KBAX 080655Z AUTO 00000KT 5SM BR SCT110 22/21 A3002 RMK AO2=
KBDH 080655Z AUTO 00000KT 10SM CLR 16/14 A3011 RMK AO2=
KBFW 080653Z AUTO 00000KT 10SM SCT065 SCT110 18/16 A3001 RMK
     AO2=
KBQP 080707Z AUTO 07003KT 3SM BR SCT001 25/25 A3003 RMK AO2=
KCAD 080654Z AUTO 00000KT 10SM BKN100 BKN110 22/21 A3004 RMK
     AO2=
KCBG 080655Z AUTO 00000KT 10SM CLR 18/16 A3006 RMK AO2=
KCDA 080655Z AUTO 00000KT 5SM HZ CLR 21/18 A3009 RMK AO2=
KCDD 080651Z AUTO 00000KT 10SM CLR 14/14 A3004 RMK AO2=
KCFE 080655Z AUTO 00000KT 10SM CLR 19/17 A3009 RMK AO2
     T01860165=
KCFS 080655Z AUTO 00000KT 2 1/2SM BR CLR 21/21 A3003 RMK AO2=
KCKC 080655Z AUTO 00000KT 7SM CLR 15/13 A3004 RMK AO2=
KCKN 080655Z AUTO 27006KT 10SM CLR 15/12 A3004 RMK AO2=
KCNB 080657Z AUTO 25004KT 10SM CLR 15/13 A3013 RMK AO2
     T01520127=
KCOQ 080656Z AUTO 28004KT 10SM CLR 16/16 A3006 RMK AO2=
KCQM 080657Z AUTO 00000KT 1 3/4SM BR VV007 13/13 A3005 RMK AO2 VIS
     3/4V5=
KCTZ 080700Z AUTO 00000KT 7SM CLR 24/22 A2993 RMK AO2=
KCVX 080655Z AUTO 00000KT 7SM BKN100 21/20 A3000 RMK AO2=
KDRM 080656Z AUTO 00000KT 1 1/4SM BR OVC001 19/19 A2999 RMK
     AO2=
KDTL 080655Z AUTO 24005KT 10SM CLR 18/13 A3008 RMK AO2=
KDUH 080654Z AUTO 00000KT 7SM CLR 22/18 A3005 RMK AO2=
KDVP 080656Z AUTO 00000KT 10SM CLR 15/13 A3016 RMK AO2
     T01500132=
KEBS 080655Z AUTO 33004KT 10SM OVC022 21/19 A3009 RMK AO2=
KERY 080655Z AUTO 00000KT 10SM -RA SCT024 BKN040 OVC060 20/19
     A2999 RMK AO2=
KETH 080654Z AUTO 21004KT 10SM CLR 15/14 A3010 RMK AO2=
KFFX 080654Z AUTO 25003KT 7SM -DZ SCT032 SCT048 OVC090 23/21 A3004
     RMK AO2=
KFKA 080703Z AUTO 32006KT 7SM CLR 20/19 A3006 RMK AO2
     T01960190=
KFKS 080655Z AUTO 21005KT 10SM CLR 23/18 A3000 RMK AO2=
KFOZ 080653Z AUTO 00000KT 1/2SM FG VV005 13/12 A3005 RMK AO2=
KFPK 080656Z AUTO 00000KT 3SM BR CLR 21/20 A3003 RMK AO2=
KFQD 080659Z AUTO 33003KT 10SM CLR 22/18 A3004 RMK AO2=
KFSE 080654Z AUTO 21005KT 10SM CLR 14/13 A3004 RMK AO2=
KGOV 080655Z AUTO 00000KT 5SM BR BKN090 BKN120 21/21 A3004 RMK
     AO2=
####018000081####
SABZ21 SBMO 080700
METAR SBMO 080700Z 00000KT 9999 FEW020 BKN100 21/20 Q1015=
####018000604####
SAUK36 EGGY 080650
METAR EGBE 080650Z NIL=
METAR EGBJ 080650Z 24003KT 9999 FEW017 16/12 Q1019=
METAR EGCN 080650Z 23008KT CAVOK 16/11 Q1017=
METAR EGDL 080650Z 22004KT 9999 FEW012 SCT035 BKN120 16/13 Q1019
    NOSIG=
METAR EGSC 080650Z 26009KT 220V280 3800 -SHRA BKN003 16/15 Q1018=
METAR COR EGSD 080650Z 24010KT 9999 FEW010 BKN030 20/17 Q1018 NOSIG=
METAR COR EGSH 080650Z 24007KT 220V280 9999 FEW009 BKN027 19/16
    Q1018 NOSIG=
METAR EGVN 080650Z 26005KT 9999 SCT030 SCT140 BKN200 16/11 Q1019
    NOSIG=
METAR EGWU 080650Z 23007KT 9999 -RADZ FEW008 OVC010 18/15 Q1019
    TEMPO 6000=
####018000417####
SAUK37 EGGY 080650
METAR EGAE 080650Z 22011KT 9999 FEW014 SCT023 14/10 Q1011=
METAR EGNC 080650Z NIL=
METAR EGNH 080650Z 22009KT 9999 FEW022 SCT040 16/11 Q1016=
METAR EGNJ 080650Z 22008KT 9999 FEW030 16/11 Q1017=
METAR EGNR 080650Z 21007KT 9999 FEW025 15/11 Q1017=
METAR EGPE 080650Z 22020KT 9999 FEW025 SCT048 15/09 Q1007=
METAR EGPI 080650Z NIL=
METAR EGPN 080650Z 22016KT 9999 FEW022 SCT048 15/11 Q1011=
####018000712####
SANL33 EHDB 080655
METAR EHAK 080655Z AUTO 19011KT 9999NDV 16/15 Q1015=
METAR EHDV 080655Z NIL=
METAR EHFD 080655Z AUTO 24011KT 210V290 9999NDV FEW025/// 16/15
Q1017=
METAR EHFZ 080655Z AUTO 22013KT 9999NDV SCT023/// BKN027/// BKN044///
17/15 Q1017=
METAR EHJA 080655Z AUTO 23017KT 9999NDV -DZ SCT023/// BKN028///
BKN033/// 16/15 Q1017=
METAR EHJR 080655Z NIL=
METAR EHKV 080655Z AUTO 25018KT 9999NDV 16/14 Q1017=
METAR EHMA 080655Z AUTO 22008KT 9999NDV 20/16 Q1018=
METAR EHMG 080655Z AUTO 23018KT 9999NDV OVC041/// 17/15 Q1017=
METAR EHPG 080655Z AUTO 23016KT 9999NDV ///////// 16/14 Q1018=
METAR EHQE 080655Z AUTO 23015KT 9999NDV 16/14 Q1017=
METAR EHSA 080655Z NIL=
METAR EHSC 080655Z NIL=
####018000081####
SABZ21 SBTE 080700
METAR SBTE 080700Z 22001KT 9999 FEW020 BKN100 25/23 Q1012=
####018000072####
SAGR31 LGAT 080650 RRA
METAR LGSA 080650Z 30008KT CAVOK 31/15 Q1011=
####018000439####
SAPK31 OPKC 080700
METAR OPGD 080700Z NIL=
METAR OPKC 080700Z 08008KTS 9000 BKN030 35/25 Q.1004 NOSIG=
METAR OPLA 080655Z 10003KT 6000 SCT040 37/23 Q1006 NOSIG=
METAR OPNH 080700Z 09004KT 6000M SCT035 37/24 Q.1004=
METAR OPPS 080700Z NE-10KT 5000 HZ FEW040 37/24 Q1007.0=
METAR OPRN 080700Z 18008KT 9999 FEW040 36/21 1008.1=
METAR OPSK 080655Z 060006KTS 6000 HZ SCT200 38/25 QNH 1003 R.H. 47
CHECK
TEXT
NEW ENDING ADDED VABBYFYX
####018000434####
SAUK51 EGGY 080650
METAR EGDL 080650Z 22004KT 9999 FEW012 SCT035 BKN120 16/13 Q1019
    NOSIG=
METAR EGDM 080650Z NIL=
METAR EGDY 080650Z NIL=
METAR EGOV 080650Z NIL=
METAR EGUB 080650Z NIL=
METAR EGVN 080650Z 26005KT 9999 SCT030 SCT140 BKN200 16/11 Q1019
    NOSIG=
METAR EGWU 080650Z 23007KT 9999 -RADZ FEW008 OVC010 18/15 Q1019
    TEMPO 6000=
METAR EGXC 080650Z NIL=
METAR EGXT 080650Z NIL=
METAR EGYD 080650Z NIL=
####018000378####
SAUK38 EGGY 080650
METAR EGEC 080650Z NIL=
METAR EGPA 080650Z 19015KT 9999 FEW030 15/11 Q1005=
METAR EGPC 080650Z 19013KT 160V220 9999 FEW025 14/11 Q1007=
METAR EGPL 080650Z 22019KT 9999 VCSH FEW015TCU SCT020 14/10
    Q1006=
METAR EGPM 080650Z 21019KT 9999 FEW012 SCT045 14/10 Q1004=
METAR EGPO 080650Z 22022KT 9999 FEW018 BKN040 13/10 Q1004=
METAR EGPU 080650Z NIL=
####018000075####
SAGR31 LGAT 080650 RRB
METAR LGSM 080650Z 34007G17KT CAVOK 28/15 Q1010=
####018000105####
SAGR32 LGAT 080650 RRA
METAR LGAL 080650Z 04004KT 5000 RA SCT006 SCT020TCU BKN025 15/14
      Q1015=
####018000452####
SAUK51 EGGY 080650 RRA
METAR EGDY 080650Z 28003KT 9999 FEW010 BKN140 17/14 Q1019 NOSIG=
METAR EGOV 080650Z 21013KT 9999 FEW018 SCT060 BKN200 15/12 Q1016
    NOSIG=
METAR EGUB 080650Z 23003KT 9999 FEW008 SCT015 OVC025 16/15 Q1019
    BECMG BKN025=
METAR EGXC 080650Z 25007KT 9999 FEW030 SCT090 OVC110 16/11 Q1017
    NOSIG=
METAR EGXT 080650Z 23007KT 9999 FEW020 BKN120 BKN150 16/10 Q1017=
METAR EGYD 080650Z 24009KT CAVOK 16/10 Q1017 NOSIG=
####018000095####
SAUK31 EGGY 080650 CCB
METAR COR EGLL 080650Z 23009KT 9999 BKN010 18/15 Q1019 BECMG SCT010=
####018000091####
SAUZ31 UTTT 080700
METAR UTTT 080700Z 23002MPS 7000 NSC 37/11 Q1011 R08R/CLRD70
NOSIG=
####018000182####
SPAU31 YBBN 080659
SPECI YPPH 080657Z 36014KT 2000 SHRA SCT018 BKN060 FEW022CB 15/14
Q1000
FM0657 33018G28KT 9999 -SHRA BKN020
INTER 0657/0957 27025G35KT 3000 +SHRA BKN010=
####018000089####
SAGB20 GBYD 080700

METAR GBYD 080700Z 18007KT 9999 -RA BKN011 FEW016CB 25/25 Q1012=
####018000151####
SATD31 TTPP 080700
METAR
TTPP 080700Z 11007KT 9999 FEW016 BKN280 26/25 Q1011 NOSIG=
TTCP 080700Z 07006KT 9999 FEW016 SCT280 25/23 Q1012 NOSIG=
 
####018000074####
SACO20 SKBO 080658
METAR SKBQ 080700Z 00000KT 9999 SCT006 25/25 A2989=
####018000403####
SACO20 SKBO 080658
METAR SKBO 080700Z 00000KT 9999 BKN012 12/11 A3030 NOSIG=
METAR SKBQ 080700Z 00000KT 9999 SCT006 25/25 A2989=
METAR SKCL 080600Z 35003KT 9999 FEW025 BKN100 20/18 A3001=
METAR SKCG 080700Z 11004KT 9999 FEW012 SCT070 28/26 A2988=
METAR SKCC NIL=
METAR SKLT NIL=
METAR SKRG 080700Z 00000KT 5000 BCFG BKN006 BKN080 14/14 A3028=
METAR SKSP NIL=
METAR SKBG NIL=
METAR SKPE NIL=
####018000046####
SAVN26 SVMC 080700
METAR SVMC 080700Z NIL=
####018002803####
SAUS20 KNKA 080702
METAR KHAF 080650Z AUTO 26005KT 9SM OVC010 12/10 A2994 RMK AO2=
METAR KHAI 080655Z AUTO 00000KT 7SM CLR 22/21 A3005 RMK AO2=
METAR KHQU 080700Z AUTO 00000KT 10SM CLR 22/19 A3006 RMK AO1=
METAR KHYX 080655Z AUTO 17004KT 10SM CLR 23/21 A3001 RMK AO2=
METAR KIRS 080655Z AUTO 00000KT 10SM CLR 23/19 A3005 RMK AO2=
METAR KISQ 080655Z AUTO 00000KT 10SM BKN020 19/17 A2997 RMK
     AO2=
METAR KJYG 080655Z AUTO 00000KT 10SM CLR 18/18 A3012 RMK AO2=
METAR KJYM 080655Z AUTO 00000KT 7SM CLR 21/20 A3007 RMK AO2=
METAR KLDM 080655Z AUTO 23011KT 10SM BKN090 BKN120 24/20 A3003 RMK
     AO2=
METAR KLWA 080656Z AUTO 31003KT 10SM SCT050 BKN070 BKN110 23/21
     A3004 RMK AO2=
METAR KMCD 080656Z AUTO 00000KT 10SM BKN110 21/18 A3000 RMK
     AO2=
METAR KMGN 080655Z AUTO 00000KT 7SM BKN110 21/20 A2999 RMK AO2=
METAR KMOP 080654Z AUTO 00000KT 2 1/2SM BR CLR 22/22 A3002 RMK AO2
     VIS 1 1/4V5=
METAR KMZH 080651Z AUTO 00000KT 10SM CLR 15/14 A3004 RMK AO2=
METAR KOEB 080655Z AUTO 00000KT 10SM CLR 23/20 A3006 RMK AO2=
METAR KONZ 080657Z AUTO 21003KT 10SM CLR 26/21 A3002 RMK AO2=
METAR KORB 080654Z AUTO 00000KT 10SM CLR 14/13 A3002 RMK AO2=
METAR KOSC 080654Z AUTO 00000KT 10SM CLR 20/18 A3002 RMK AO2=
METAR KOWA 080654Z AUTO 29005KT 10SM CLR 18/18 A3007 RMK AO2=
METAR KOZW 080655Z AUTO 00000KT 10SM CLR 23/21 A3005 RMK AO2=
METAR KPHN 080655Z AUTO 00000KT 2 1/2SM BR CLR 20/19 A3003 RMK
     AO2=
METAR KPZQ 080655Z AUTO 19006KT 5SM BR CLR 22/22 A3001 RMK AO2=
METAR KRGK 080655Z AUTO 29004KT 10SM CLR 21/19 A3004 RMK AO2=
METAR KRIL 080653Z AUTO 17003KT 10SM -RA FEW065 BKN080 OVC110
     17/09 A3028 RMK AO2 RAB39 SLP182 P0000 T01720089 403280100
     TSNO=
METAR KRMY 080655Z AUTO 00000KT 10SM CLR 22/20 A3005 RMK AO2=
METAR KRNP 080655Z AUTO 00000KT 7SM CLR 22/21 A3003 RMK AO2=
METAR KRQB 080655Z AUTO 19003KT 7SM RA SCT045 BKN065 OVC090 23/22
     A3005 RMK AO2=
METAR KSAW 080659Z AUTO 00000KT 10SM OVC003 18/17 A2997 RMK
     AO2=
METAR KSJX 080655Z AUTO 00000KT 5SM -RA SCT033 SCT050 BKN090 21/19
     A2996 RMK AO2=
METAR KSLH 080655Z AUTO 00000KT 7SM SCT070 BKN110 21/20 A2998 RMK
     AO2=
METAR KSME 080700Z AUTO 00000KT 5SM BR 21/20 A3008 RMK AO2=
SPECI KSTC 080701Z AUTO 00000KT 2SM BR CLR 14/13 A3008 RMK AO2=
METAR KTTF 080654Z AUTO 00000KT 7SM CLR 23/23 A3003 RMK AO2=
METAR KTVK 080655Z AUTO 00000KT 6SM CLR 20/20 A3007 RMK AO2=
METAR KUKT 080655Z AUTO 00000KT 6SM CLR 22/20 A3003 RMK AO1=
METAR KVLL 080654Z AUTO 00000KT 10SM CLR 27/21 A3006 RMK AO2=
METAR KVWU 080651Z AUTO 00000KT 10SM CLR 16/14 A3002 RMK AO2=
METAR KXVG 080656Z AUTO 00000KT 7SM SCT001 11/11 A3005 RMK AO2=
METAR KY70 080655Z AUTO 21004KT 10SM SCT065 OVC120 25/21 A3002 RMK
     AO2 T02470212=
####018000106####
SAUK39 EGRR 080650 RRB
METAR EGXJ 080650Z AUTO 24009KT 9999NDV // BKN110/// SCT170/// 16/10
 Q1017=
####018000111####
SAUK39 EGRR 080650 RRC
METAR EGDM 080650Z AUTO 30006KT 8000NDV BR FEW003/// OVC013/// 15/14
 Q1019 RERA=
####018000098####
SPEE31 KWBC 080703
SPECI
UMII 080700Z 17003MPS P6000 BKN007CB 18/16 Q1012 R23/CLRD// NOSIG=
####018000083####
SPUS31 KWBC 080703
SPECI
KMCI 080700Z 33005KT 8SM BKN008 BKN110 23/22 A3008=
####018000081####
SAMF20 TFFR 080700
METAR TFFR 080700Z VRB01KT 9999 FEW021 26/24 Q1014 NOSIG=
####018000098####
SPRA31 KWBC 080703
SPECI
UMII 080700Z 17003MPS P6000 BKN007CB 18/16 Q1012 R23/CLRD// NOSIG=
####018000074####
SAEW LEMO 080700
METAR LEMO 080700Z VRB02KT CAVOK 23/19 
Q1015 NOSIG=
####018000337####
SABU31 LBSM 080700
METAR LBSF NIL=
METAR LBWN 080700Z 26004MPS 230V290 9999 SCT028 19/13 Q1014
 BECMG RA=
METAR LBBG 080700Z 25005MPS 9999 FEW048 BKN066 BKN120 18/14
 Q1014 NOSIG=
METAR LBPD 080700Z 26005MPS 230V290 9999 -RA SCT050 OVC070 16/13
 Q1016 NOSIG=
METAR LBGO 080700Z VRB01MPS 9999 SCT033 OVC070 16/14 Q1016
 NOSIG=
####018000090####
SARM31 LUKK 080700
METAR LUKK 080700Z 34006KT 9999 SCT015 19/14 Q1015 26CLRD65
NOSIG=
####018000411####
SACU31 MUHA 080700
METAR
MUHA 080655Z 07002KT 8000 BKN020 25/24 Q1014=
MUVR 080652Z 00000KT 8000 FEW018CB FEW020 BKN200 25/23 Q1015=
MUCL  NIL=
MUCF  NIL=
MUSC 080653Z VRB02KT 9000 SCT022 25/22 Q1014=
MUCC 080654Z 00000KT 9000 FEW020 26/22 Q1014=
MUCM 080649Z 00000KT 9000 FEW020 24/22 Q1014=
MUMZ  NIL=
MUHG 080650Z 18004KT 140V210 CAVOK 24/22 Q1015=
MUCU 080652Z 05004KT 9000 FEW020 26/24 Q1015=
####018000099####
SAAJ31 UBBB 080700
UBBN 080700Z 08002KT 9999 NSC 33/11 Q1011 R14R/CLRD60 NOSIG
RMK G/O QFE684=
####018000126####
SAPY SGAS 080700
METAR SGAS 080700Z 16012KT 9999 BKN010 OVC017 18/16 Q1015=
METAR SGES 080700Z 00000KT CAVOK 17/14 Q1015=
####018000095####
SAIV20 DIAP 080700
METAR DIAP 080700Z 00000KT 6000 SCT012 SCT080 BKN260 25/24 Q1014
NOSIG=
####018000200####
SABO SLLP 080700
METAR SLLP 080700Z 10003KT 2000E VCFG FEW003 M04/M04 Q1036=
METAR SLVR 080700Z 15007KT 9999 SCT010 BKN017 OVC070 21/20 Q1014=
METAR SLCB 080700Z 00000KT 9999 NSC 08/01 Q1025=
####018000202####
SABO59 SLLP 080700
METAR SLLP 080700Z 10003KT 2000E VCFG FEW003 M04/M04 Q1036=
METAR SLVR 080700Z 15007KT 9999 SCT010 BKN017 OVC070 21/20 Q1014=
METAR SLCB 080700Z 00000KT 9999 NSC 08/01 Q1025=
####018000191####
SPAU31 AMMC 080703
SPECI YPPH 080700Z 36013KT 1800 SHRA SCT018 OVC050 FEW022CB 15/14 Q1000
     FM0700 33018G28KT 9999 -SHRA BKN020
     INTER 0700/1000 27025G35KT 3000 +SHRA BKN010=
####018000197####
SPAU31 AMMC 080703
SPECI YPPH 080700Z 36013KT 1800 SHRA SCT018 OVC050 FEW022CB 15/14 Q1000
     FM0700 33018G28KT 9999 -SHRA BKN020
     INTER 0700/1000 27025G35KT 3000 +SHRA BKN010=


####018000093####
SAUK38 EGGY 080650 RRA
METAR EGPU 080650Z AUTO 23018KT 9999NDV // FEW021/// 13/11 Q1008=
####018000785####
SAUR30 UKMS 080700
METAR UKBB 080700Z 31003MPS 270V340 9999 SCT014 23/19
         Q1013 88CLRD95    NOSIG=
METAR UKHH 080700Z VRB01MPS 9999 FEW046 SCT200 26/18
         Q1014 080///65 NOSIG=
METAR UKOO 080700Z 35005MPS CAVOK 22/17 Q1014
         34090070 NOSIG=
METAR UKDE 080700Z 25003MPS 210V290 9999 BKN050TCU
         26/21 Q1014 20CLRD70 NOSIG=
METAR UKDD 080700Z VRB02MPS CAVOK 26/19 Q1014
         08090070 NOSIG=
METAR UKFF 080700Z VRB02MPS 9999 FEW033 26/18 Q1013
         19010070 NOSIG=
METAR UKLL 080700Z 32003MPS 260V030 9999 SCT024CB
         BKN024 16/12 Q1020 31210365 NOSIG=
METAR UKCC 080700Z 00000MPS CAVOK 26/18 Q1015
         08090070 NOSIG=
METAR UKDR 080700Z 25004MPS 9999 SCT033 OVC200 26/20
         Q1013 1809//70 NOSIG=
####018000091####
SAAJ31 UBBB 080700
METAR UBBL 080700Z 11006KT 9999 NSC 34/15 Q1012 NOSIG RMK G/O SC07=
####018000082####
SAIR33 OIII 080600 RRD
METAR OICS 080600Z 35002KT 9000 SKC 30/04 Q1014 A2995=
####018000102####
SAAJ31 UBBB 080700
METAR UBBY 080700Z 15006KT 9999 FEW100 29/17 Q1016 NOSIG
RMK R33/CLRD70 G/O=
####018000083####
SPUS73 KWBC 080703
SPECI
KMCI 080700Z 33005KT 8SM BKN008 BKN110 23/22 A3008=
####018000277####
SAEW KAWN 080700 RRC
METAR EDHL 080650Z 16007KT CAVOK 20/15 Q1020 RMK F=
METAR EDLP 080650Z 19008KT CAVOK 24/11 Q1020 RMK RWY24 TRL60 RU ATIS
      J=
METAR EDLW 080650Z 18007KT CAVOK 24/10 Q1020 RMK ATIS H=
METAR EDNY 080650Z VRB04KT CAVOK 20/12 Q1022 RMK ATIS H=
####018000460####
SAAK41 KNKA 080703
METAR PABA 080701Z AUTO 29006KT 10SM UP BKN005 OVC012 02/02 A3005 
    RMK AO2 RAB0650E00UPB00 SLP177 P0000 T00220017 FZRANO=
METAR PAIK 080701Z AUTO 25008KT 10SM CLR 17/08 A3012 RMK AO2 SLP240 
    T01670078=
METAR PAKF 080701Z AUTO 16004KT 10SM FEW010 OVC015 08/07 A2993 RMK 
    AO2 SLP231 T00830067=
METAR PANW 080656Z AUTO 36006KT FEW035 SCT045 OVC060 11/09 A2997 RMK 
    AO2 PWINO TSNO T01050094 OVC V BKN SLP128 $=
####018002788####
SAUS20 KNKA 080703
METAR K0R3 080659Z AUTO 00000KT 7SM CLR 25/25 A2999 RMK AO2=
METAR K1A5 080700Z AUTO 00000KT 5SM BR CLR 18/17 A3015 RMK AO2 
     T01800165=
METAR K3I2 080700Z AUTO 00000KT 5SM BR CLR 20/19 A3008 RMK AO2=
METAR K47A 080700Z AUTO 00000KT 10SM CLR 22/19 A3007 RMK AO2 
     T02150185=
METAR KACP 080659Z AUTO 00000KT 7SM CLR 23/23 A2999 RMK AO2=
METAR KAVC 080700Z AUTO 34003KT 7SM BKN090 27/19 A3002 RMK AO2=
METAR KAYS 080700Z AUTO 00000KT 10SM CLR 23/21 A3002 RMK AO1=
METAR KBCB 080700Z AUTO 00000KT 5SM BR CLR 22/21 A3014 RMK AO2=
METAR KBGE 080700Z AUTO 25004KT 10SM CLR 21/20 A3003 RMK AO2=
SPECI KBML 080702Z AUTO 00000KT 1/2SM FG BKN003 BKN007 OVC050 19/19 
    A3008 RMK AO2 $=
METAR KBQK 080657Z AUTO 00000KT 5SM CLR 22/22 A3002 RMK AO1 
     T02210216 PNO=
METAR KCCO 080700Z AUTO 00000KT 5SM CLR 21/21 A3005 RMK AO1=
METAR KCTJ 080700Z AUTO 00000KT 10SM CLR 21/20 A3006 RMK AO2 
     T02140197=
METAR KCWV 080705Z AUTO 00000KT 10SM CLR 21/21 A3001 RMK AO2 
     T02130214=
METAR KDPL 080700Z AUTO 00000KT 7SM CLR 23/22 A2992 RMK AO2=
METAR KEDE 080656Z AUTO 00000KT 4SM BR SCT120 24/22 A2995 RMK AO2=
METAR KEMV 080657Z AUTO 00000KT 7SM CLR 23/21 A2996 RMK AO2=
METAR KEXX 080659Z AUTO 00000KT 10SM CLR 22/17 A2999 RMK AO2=
METAR KEZF 080658Z AUTO 00000KT 7SM CLR 26/24 A2997 RMK AO2 
     T02610244=
METAR KF24 080659Z AUTO 10SM CLR 25/24 A3004 RMK AO2 T02470235=
METAR KGEV 080701Z AUTO 00000KT 10SM CLR 24/17 A3019 RMK AO2=
METAR KHDC 080701Z AUTO 09004KT 10SM CLR 26/26 A3002 RMK AO2=
METAR KHRJ 080701Z AUTO 00000KT 7SM CLR 27/21 A2994 RMK AO2=
SPECI KICT 080702Z 04005KT 10SM SCT025 SCT070 BKN200 23/21 A3009 RMK 
    AO2 $=
METAR KJNX 080659Z AUTO 00000KT 4SM CLR 22/22 A2994 RMK AO2=
METAR KJYL 080701Z AUTO 00000KT 10SM CLR 23/21 A3001 RMK AO2=
SPECI KLEB 080702Z AUTO 00000KT 1 1/4SM BR CLR 22/21 A3004 RMK AO2=
METAR KMLJ 080702Z AUTO 00000KT 10SM CLR 23/23 A3002 RMK AO2=
METAR KMQI 080656Z AUTO 07007KT 10SM SCT120 26/25 A2994 RMK AO2=
METAR KMRN 080659Z AUTO 00000KT 10SM CLR 19/17 A3010 RMK AO2=
METAR KMWK 080702Z AUTO 00000KT 10SM CLR 24/18 A3004 RMK AO2=
METAR KOCW 080659Z AUTO 02005KT 5SM HZ CLR 26/21 A2993 RMK AO2=
METAR KPGV 080700Z AUTO 00000KT 5SM HZ CLR 23/20 A2994 RMK AO2=
METAR KRHP 080703Z AUTO 00000KT 7SM CLR 19/18 A3012 RMK AO2=
METAR KSIF 080700Z AUTO 00000KT 7SM OVC090 23/21 A3001 RMK AO2=
METAR KTSP 080655Z AUTO 00000KT 10SM CLR 15/07 A3003 RMK AO2 =
SPECI KTVR 080702Z AUTO 00000KT 3SM BR CLR 23/22 A3003 RMK AO2 $=
METAR KUKF 080701Z AUTO 00000KT 10SM CLR 22/17 A3006 RMK AO1=
METAR KUNV 080700Z AUTO 00000KT 7SM CLR 21/18 A3008 RMK AO2 
     T02100184=
METAR KW99 080659Z AUTO 00000KT 7SM SCT085 21/16 A3009 RMK AO2=
####018000090####
SAUK39 EGRR 080650 RRD
METAR EGDX 080650Z AUTO 27001KT //// // OVC100/// 16/12 Q1018=
####018000075####
SACN50 CWAO 080645
VOP SA 0645 AUTO8 M M M M/18/12/0601/M/M M 78MM=

####018000074####
SACN50 CWAO 080645
WPN SA 0645 AUTO8 M M M M/17/M/1001/M/M M 5MMM=

####018000078####
SACN92 CWAO 060600 RRZ
WKH SA 0600 AUTO8 M M M M/14/M/MMMM/M/M M 0MMM=

####018000075####
SACN50 CWAO 080615
VOP SA 0615 AUTO8 M M M M/19/11/1101/M/M M 12MM=

####018000120####
SAUS90 KWBC 080700 RRC
METAR KNEL 080700Z AUTO 00000KT 3SM BR OVC110 23/21 A3001 RMK AO2
     SLP160 T02330211 $=
####018000078####
SACN92 CWAO 060500 RRZ
WKH SA 0500 AUTO8 M M M M/14/M/MMMM/M/M M 3MMM=

####018000075####
SACN50 CWAO 080630
WGP SA 0630 AUTO8 M M M M/16/13/MMMM/M/M M 74MM=

####018000075####
SACN50 CWAO 080630
VOP SA 0630 AUTO8 M M M M/19/11/1201/M/M M 71MM=

####018000075####
SACN50 CWAO 080615
WGP SA 0615 AUTO8 M M M M/16/14/MMMM/M/M M 08MM=

####018000075####
SACN50 CWAO 080645
WGP SA 0645 AUTO8 M M M M/15/13/MMMM/M/M M 31MM=

####018000122####
SPCN47 CWAO 080703
SPECI CYZE 080703Z AUTO 17004KT 1 1/4SM BR OVC002 20/20 A3000 RMK
 SLP159 DENSITY ALT 1200FT=

####018003698####
SAUS99 KWBC 080704
METAR
KHAF 080650Z AUTO 26005KT 9SM OVC010 12/10 A2994 RMK AO2=
KHAI 080655Z AUTO 00000KT 7SM CLR 22/21 A3005 RMK AO2=
KHQU 080700Z AUTO 00000KT 10SM CLR 22/19 A3006 RMK AO1=
KHYX 080655Z AUTO 17004KT 10SM CLR 23/21 A3001 RMK AO2=
KIRS 080655Z AUTO 00000KT 10SM CLR 23/19 A3005 RMK AO2=
KISQ 080655Z AUTO 00000KT 10SM BKN020 19/17 A2997 RMK AO2=
KJYG 080655Z AUTO 00000KT 10SM CLR 18/18 A3012 RMK AO2=
KJYM 080655Z AUTO 00000KT 7SM CLR 21/20 A3007 RMK AO2=
KLDM 080655Z AUTO 23011KT 10SM BKN090 BKN120 24/20 A3003 RMK
     AO2=
KLWA 080656Z AUTO 31003KT 10SM SCT050 BKN070 BKN110 23/21 A3004
     RMK AO2=
KMCD 080656Z AUTO 00000KT 10SM BKN110 21/18 A3000 RMK AO2=
KMGN 080655Z AUTO 00000KT 7SM BKN110 21/20 A2999 RMK AO2=
KMOP 080654Z AUTO 00000KT 2 1/2SM BR CLR 22/22 A3002 RMK AO2 VIS 1
     1/4V5=
KMZH 080651Z AUTO 00000KT 10SM CLR 15/14 A3004 RMK AO2=
KOEB 080655Z AUTO 00000KT 10SM CLR 23/20 A3006 RMK AO2=
KONZ 080657Z AUTO 21003KT 10SM CLR 26/21 A3002 RMK AO2=
KORB 080654Z AUTO 00000KT 10SM CLR 14/13 A3002 RMK AO2=
KOSC 080654Z AUTO 00000KT 10SM CLR 20/18 A3002 RMK AO2=
KOWA 080654Z AUTO 29005KT 10SM CLR 18/18 A3007 RMK AO2=
KOZW 080655Z AUTO 00000KT 10SM CLR 23/21 A3005 RMK AO2=
KPHN 080655Z AUTO 00000KT 2 1/2SM BR CLR 20/19 A3003 RMK AO2=
KPZQ 080655Z AUTO 19006KT 5SM BR CLR 22/22 A3001 RMK AO2=
KRGK 080655Z AUTO 29004KT 10SM CLR 21/19 A3004 RMK AO2=
KRIL 080653Z AUTO 17003KT 10SM -RA FEW065 BKN080 OVC110 17/09
     A3028 RMK AO2 RAB39 SLP182 P0000 T01720089 403280100 TSNO=
KRMY 080655Z AUTO 00000KT 10SM CLR 22/20 A3005 RMK AO2=
KRNP 080655Z AUTO 00000KT 7SM CLR 22/21 A3003 RMK AO2=
KRQB 080655Z AUTO 19003KT 7SM RA SCT045 BKN065 OVC090 23/22 A3005
     RMK AO2=
KSAW 080659Z AUTO 00000KT 10SM OVC003 18/17 A2997 RMK AO2=
KSJX 080655Z AUTO 00000KT 5SM -RA SCT033 SCT050 BKN090 21/19 A2996
     RMK AO2=
KSLH 080655Z AUTO 00000KT 7SM SCT070 BKN110 21/20 A2998 RMK
     AO2=
KSME 080700Z AUTO 00000KT 5SM BR 21/20 A3008 RMK AO2=
KTTF 080654Z AUTO 00000KT 7SM CLR 23/23 A3003 RMK AO2=
KTVK 080655Z AUTO 00000KT 6SM CLR 20/20 A3007 RMK AO2=
KUKT 080655Z AUTO 00000KT 6SM CLR 22/20 A3003 RMK AO1=
KVLL 080654Z AUTO 00000KT 10SM CLR 27/21 A3006 RMK AO2=
KVWU 080651Z AUTO 00000KT 10SM CLR 16/14 A3002 RMK AO2=
KXVG 080656Z AUTO 00000KT 7SM SCT001 11/11 A3005 RMK AO2=
KY70 080655Z AUTO 21004KT 10SM SCT065 OVC120 25/21 A3002 RMK AO2
     T02470212=
K0R3 080659Z AUTO 00000KT 7SM CLR 25/25 A2999 RMK AO2=
K1A5 080700Z AUTO 00000KT 5SM BR CLR 18/17 A3015 RMK AO2
     T01800165=
K3I2 080700Z AUTO 00000KT 5SM BR CLR 20/19 A3008 RMK AO2=
K47A 080700Z AUTO 00000KT 10SM CLR 22/19 A3007 RMK AO2
     T02150185=
KACP 080659Z AUTO 00000KT 7SM CLR 23/23 A2999 RMK AO2=
KAVC 080700Z AUTO 34003KT 7SM BKN090 27/19 A3002 RMK AO2=
KAYS 080700Z AUTO 00000KT 10SM CLR 23/21 A3002 RMK AO1=
KBCB 080700Z AUTO 00000KT 5SM BR CLR 22/21 A3014 RMK AO2=
KBGE 080700Z AUTO 25004KT 10SM CLR 21/20 A3003 RMK AO2=
KBQK 080657Z AUTO 00000KT 5SM CLR 22/22 A3002 RMK AO1 T02210216
     PNO=
KCCO 080700Z AUTO 00000KT 5SM CLR 21/21 A3005 RMK AO1=
KCTJ 080700Z AUTO 00000KT 10SM CLR 21/20 A3006 RMK AO2
     T02140197=
KCWV 080705Z AUTO 00000KT 10SM CLR 21/21 A3001 RMK AO2
     T02130214=
KDPL 080700Z AUTO 00000KT 7SM CLR 23/22 A2992 RMK AO2=
KEDE 080656Z AUTO 00000KT 4SM BR SCT120 24/22 A2995 RMK AO2=
KEMV 080657Z AUTO 00000KT 7SM CLR 23/21 A2996 RMK AO2=
KEXX 080659Z AUTO 00000KT 10SM CLR 22/17 A2999 RMK AO2=
KEZF 080658Z AUTO 00000KT 7SM CLR 26/24 A2997 RMK AO2
     T02610244=
KF24 080659Z AUTO 10SM CLR 25/24 A3004 RMK AO2 T02470235=
####018001458####
SAUS99 KWBC 080704 RRA
METAR
KGEV 080701Z AUTO 00000KT 10SM CLR 24/17 A3019 RMK AO2=
KHDC 080701Z AUTO 09004KT 10SM CLR 26/26 A3002 RMK AO2=
KHRJ 080701Z AUTO 00000KT 7SM CLR 27/21 A2994 RMK AO2=
KJNX 080659Z AUTO 00000KT 4SM CLR 22/22 A2994 RMK AO2=
KJYL 080701Z AUTO 00000KT 10SM CLR 23/21 A3001 RMK AO2=
KMLJ 080702Z AUTO 00000KT 10SM CLR 23/23 A3002 RMK AO2=
KMQI 080656Z AUTO 07007KT 10SM SCT120 26/25 A2994 RMK AO2=
KMRN 080659Z AUTO 00000KT 10SM CLR 19/17 A3010 RMK AO2=
KMWK 080702Z AUTO 00000KT 10SM CLR 24/18 A3004 RMK AO2=
KOCW 080659Z AUTO 02005KT 5SM HZ CLR 26/21 A2993 RMK AO2=
KPGV 080700Z AUTO 00000KT 5SM HZ CLR 23/20 A2994 RMK AO2=
KRHP 080703Z AUTO 00000KT 7SM CLR 19/18 A3012 RMK AO2=
KSIF 080700Z AUTO 00000KT 7SM OVC090 23/21 A3001 RMK AO2=
KTSP 080655Z AUTO 00000KT 10SM CLR 15/07 A3003 RMK AO2=
KUKF 080701Z AUTO 00000KT 10SM CLR 22/17 A3006 RMK AO1=
KUNV 080700Z AUTO 00000KT 7SM CLR 21/18 A3008 RMK AO2
     T02100184=
KW99 080659Z AUTO 00000KT 7SM SCT085 21/16 A3009 RMK AO2=
PABA 080701Z AUTO 29006KT 10SM UP BKN005 OVC012 02/02 A3005 RMK
     AO2 RAB0650E00UPB00 SLP177 P0000 T00220017 FZRANO=
PAIK 080701Z AUTO 25008KT 10SM CLR 17/08 A3012 RMK AO2 SLP240
     T01670078=
PAKF 080701Z AUTO 16004KT 10SM FEW010 OVC015 08/07 A2993 RMK AO2
     SLP231 T00830067=
PANW 080656Z AUTO 36006KT FEW035 SCT045 OVC060 11/09 A2997 RMK AO2
     PWINO TSNO T01050094 OVC V BKN SLP128 $=
####018000382####
SPUS99 KWBC 080704
SPECI
KSTC 080701Z AUTO 00000KT 2SM BR CLR 14/13 A3008 RMK AO2=
KBML 080702Z AUTO 00000KT 1/2SM FG BKN003 BKN007 OVC050 19/19
     A3008 RMK AO2 $=
KICT 080702Z 04005KT 10SM SCT025 SCT070 BKN200 23/21 A3009 RMK AO2
     $=
KLEB 080702Z AUTO 00000KT 1 1/4SM BR CLR 22/21 A3004 RMK AO2=
KTVR 080702Z AUTO 00000KT 3SM BR CLR 23/22 A3003 RMK AO2 $=
####018000345####
SASD31 OEJD 080700
METAR OEDF 080700Z 01008KT 8000 NSC 41/09 Q1001 NOSIG=
METAR OEDR 080700Z NIL=
METAR OEJN 080700Z 32012KT CAVOK 35/26 Q1002 NOSIG=
METAR OEMA 080700Z 22003KT CAVOK 42/01 Q1007 NOSIG=
METAR OERK 080700Z 04013KT CAVOK 40/02 Q1009 NOSIG=
METAR OERY 080700Z 07012KT 4000 DU SKC 41/02 Q1009 NOSIG=
METAR OYSN 080700Z NIL=
####018000080####
SACN91 KWBC 080704
METAR CWHI 080600Z AUTO 18010KT 14/10 RMK AO1 T01350100=
####018000111####
SACN92 KWBC 080704
METAR CWKH 080500Z AUTO 14/ RMK AO1 T0143=
METAR CWKH 080600Z AUTO 14/ RMK AO1 T0140=
####018000093####
SANO37 ENMI 080650 RRA
METAR ENNO 080650Z 11007KT 070V130 9999 FEW020 BKN030 16/14 Q1014=
####018000557####
SAPR82 SPIM 080700
METAR
SPHI 080700Z 17009KT CAVOK 15/14 Q1014 RMK PP000=
METAR
SPIM 080700Z 00000KT 7000 SCT010 OVC022 16/14 Q1014 NOSIG RMK PP000=
METAR
SPQT 080700Z ///// CAVOK 24/23 Q1011 NOSIG RMK PP000=
METAR
SPQU 080700Z 32005KT CAVOK 09/M07 Q1025 RMK PP000=
METAR
SPRU 080700Z 16009KT 6000 OVC016 16/13 Q1013 RMK BIRD HAZARD RWY20
PP000=
METAR COR
SPSO 080700Z VRB02KT 8000 SKC 13/11 Q1014 RMK PP000=
METAR
SPTN 080700Z 20004KT 9999 SCT007 OVC012 11/09 Q1014 RMK PP000=
METAR
SPZO 080700Z 00000KT 9999 SKC 05/02 Q1032 RMK PP000=
####018000078####
SAAG SAZS 080700
METAR SAZS 080700Z  32017KT 8000 DZ BKN012  03/02
Q1006=
####018000081####
SABZ21 SBRF 080700
METAR SBRF 080700Z 24004KT 9999 SCT016 BKN070 22/21 Q1014=
####018001139####
SAAM20 FCBB 080600
METAR FCBB 080600Z 00000KT 3000 BR NSC 20/20 Q1015 TEMPO 2500=
METAR FCPP 080600Z 16004KT 0100 R35/0050 FG VV010 21/20 Q1014=
METAR FKKD 080600Z 00000KT 9999 TS BKN013 FEW016CB BKN120 25/24 Q1014
           TEMPO 4000 TSRA=
METAR FKYS 080600Z 22002KT 8000 FEW003 BKN006 21/20 Q1018 NOSIG=
METAR FKKR 080600Z 00000KT 6000 -TSRA BKN016 SCT020CB OVC100 Q1014
           NOSIG=
METAR FKKN NIL=
METAR FKKL NIL=
METAR FEFT NIL=
METAR FEFG NIL=
METAR FEFF 080600Z VRB03KT 9999 SCT010 BKN150  23/22 Q1014 NOSIG=
METAR FOOL 080600Z 14007KT 110V170 8000 SCT010 OVC030 24/21 Q1014
           NOSIG=
METAR FOOG 080600Z /////KT 8000 SCT008 23/22 Q1015=
METAR FOON 080600Z 16002KT 6000 SCT008 BKN100 21/21 Q1017=
METAR FGBT 080600Z 17004KT 7000 BKN013 OVC130 25/24 Q1013 NOSIG=
METAR FGSL 080600Z 00000KT 9999 TS SCT013 FEW020CB BKN130 24/24
           Q1014 NOSIG=
METAR FZRF NIL=
METAR FZOS NIL=
METAR FZAA 080600Z 00000KT 3000 BR BKN300 20/19 Q1015 NOSIG=
METAR FZIC NIL=
METAR FZFK NIL=
METAR FZQA NIL=
METAR FNHU NIL=
METAR FNLU NIL=
METAR FPST 080600Z 20006KT 9999 FEW020 SCT110 23/20 Q1013 NOSIG=
####018000084####
SAAG SAWG 080700
METAR SAWG 080700Z  29008KT 9999  SCT020 OVC070
M02/M03 Q0990=
####018000074####
SAQB31 LQBK 080700
METAR LQBK 080700Z 28003KT CAVOK 20/12 Q1022 NOSIG=
####018000116####
SAKA31 PTKK 080700
METAR PTKK 080657Z VRB03KT 14SM -RA FEW012 BKN120 OVC280 25/23 A2981
 RMK SLP098 T02520230=
####018000107####
SAAH10 OAKN 080700
METAR OAKN 080650Z 00000KT 9000 HZ SKC 39/10 Q1010 BLU NOSIG RMK
    A2984
DA6800=
####018000341####
SAMX34 MMMX 080700
METAR MMMD 080644Z 10005KT 7SM  OVC070 22/22 A2986 RMK 8/06/=
METAR MMCZ 080646Z 08010KT 6SM  SCT080 BKN200 26/24 A2987 
      RMK 8/058 SC HZY=
METAR MMTP 080640Z 00000KT 10SM BKN020 BKN100 25/34 A2992
      RMK 8/170=
METAR MMUN 080651Z 12009KT 6SM  FEW015 SCT090 SCT300 28/24 A2988 
      RMK 8/538 HZY=
####018000091####
SAPF20 NTAA 080700
METAR NTAA 080700Z 10003KT 9999 FEW020 25/22 Q1015 WS ALL RWY NOSIG=
####018000071####
SAPR94 SPIM 080700
METAR SPJL 080700Z NIL=
METAR SPME 080700Z NIL=
####018000079####
SANC01 NWWW 080700
METAR NWWW 080700Z AUTO 18002KT 9999NDV NCD 20/16 Q1015=
####018000086####
SAUK37 EGGY 080650 RRA
METAR EGPI 080650Z AUTO 21014KT 9999NDV // NSC 14/10 Q1011=
####018000081####
SANO34 ENMI 080650 RRA
METAR ENHF 080700Z 19011KT 140V220 CAVOK 16/07 Q1013 =
####018000072####
SAUY SUMU 080700
METAR SUMU 080700Z 34005KT CAVOK 04/03 Q1017 NOSIG=
####018000122####
SAXX60 KWBC 080700 CCC
METAR
K79J 080656Z AUTO 00000KT 10SM CLR 25/22 A3003 RMK AO2 SLP163
     T02500222 TSNO $=
####018000127####
SAPQ50 KWBC 080700 RRB
METAR
PTKK 080657Z VRB03KT 14SM -RA FEW012 BKN120 OVC280 25/23 A2981 RMK
     SLP098 T02520230=
####018000090####
SAUZ31 UTTW 080600 CCA
METAR UTST 080700Z VRB01MPS CAVOK 38/08 Q1008 R88/CLRD70 NOSIG=
####018000100####
SAFG20 SOCA 080700
METAR SOCA 080700Z 00000KT 9999 VCTS BKN020 BKN026 BKN033 25/24
Q1012 NOSIG=
####018000082####
SAHU31 LHBM 080700
METAR LHBP 080700Z 23004KT 180V270 CAVOK 20/11 Q1021 NOSIG=
####018000183####
SPAU31 KWBC 080704
SPECI
YPPH 080700Z 36013KT 1800 SHRA SCT018 OVC050 FEW022CB 15/14 Q1000
FM0700 33018G28KT 9999 -SHRA BKN020 INTER 0700/1000 27025G35KT
3000 +SHRA BKN010=
####018000091####
SAAF27 LFPW 080600 RRC
METAR FGBT 080600Z 17004KT 7000 BKN013 OVC130 25/24 Q1013 NOSIG=
####018002941####
SAUS70 KWBC 080700 RRG
METAR
KOZW 080655Z AUTO 00000KT 10SM CLR 23/21 A3005 RMK AO2=
KPHN 080655Z AUTO 00000KT 2 1/2SM BR CLR 20/19 A3003 RMK AO2=
KRGK 080655Z AUTO 29004KT 10SM CLR 21/19 A3004 RMK AO2=
KRIL 080653Z AUTO 17003KT 10SM -RA FEW065 BKN080 OVC110 17/09
     A3028 RMK AO2 RAB39 SLP182 P0000 T01720089 403280100 TSNO=
KRMY 080655Z AUTO 00000KT 10SM CLR 22/20 A3005 RMK AO2=
KRNP 080655Z AUTO 00000KT 7SM CLR 22/21 A3003 RMK AO2=
KRQB 080655Z AUTO 19003KT 7SM RA SCT045 BKN065 OVC090 23/22 A3005
     RMK AO2=
KSAW 080659Z AUTO 00000KT 10SM OVC003 18/17 A2997 RMK AO2=
KSJX 080655Z AUTO 00000KT 5SM -RA SCT033 SCT050 BKN090 21/19 A2996
     RMK AO2=
KSLH 080655Z AUTO 00000KT 7SM SCT070 BKN110 21/20 A2998 RMK
     AO2=
KSME 080700Z AUTO 00000KT 5SM BR 21/20 A3008 RMK AO2=
KTTF 080654Z AUTO 00000KT 7SM CLR 23/23 A3003 RMK AO2=
KTVK 080655Z AUTO 00000KT 6SM CLR 20/20 A3007 RMK AO2=
KUKT 080655Z AUTO 00000KT 6SM CLR 22/20 A3003 RMK AO1=
KVLL 080654Z AUTO 00000KT 10SM CLR 27/21 A3006 RMK AO2=
KVWU 080651Z AUTO 00000KT 10SM CLR 16/14 A3002 RMK AO2=
KXVG 080656Z AUTO 00000KT 7SM SCT001 11/11 A3005 RMK AO2=
KY70 080655Z AUTO 21004KT 10SM SCT065 OVC120 25/21 A3002 RMK AO2
     T02470212=
K0R3 080659Z AUTO 00000KT 7SM CLR 25/25 A2999 RMK AO2=
K1A5 080700Z AUTO 00000KT 5SM BR CLR 18/17 A3015 RMK AO2
     T01800165=
K3I2 080700Z AUTO 00000KT 5SM BR CLR 20/19 A3008 RMK AO2=
K47A 080700Z AUTO 00000KT 10SM CLR 22/19 A3007 RMK AO2
     T02150185=
KACP 080659Z AUTO 00000KT 7SM CLR 23/23 A2999 RMK AO2=
KAVC 080700Z AUTO 34003KT 7SM BKN090 27/19 A3002 RMK AO2=
KBCB 080700Z AUTO 00000KT 5SM BR CLR 22/21 A3014 RMK AO2=
KBGE 080700Z AUTO 25004KT 10SM CLR 21/20 A3003 RMK AO2=
KBQK 080657Z AUTO 00000KT 5SM CLR 22/22 A3002 RMK AO1 T02210216
     PNO=
KCCO 080700Z AUTO 00000KT 5SM CLR 21/21 A3005 RMK AO1=
KCTJ 080700Z AUTO 00000KT 10SM CLR 21/20 A3006 RMK AO2
     T02140197=
KDPL 080700Z AUTO 00000KT 7SM CLR 23/22 A2992 RMK AO2=
KEDE 080656Z AUTO 00000KT 4SM BR SCT120 24/22 A2995 RMK AO2=
KEMV 080657Z AUTO 00000KT 7SM CLR 23/21 A2996 RMK AO2=
KEXX 080659Z AUTO 00000KT 10SM CLR 22/17 A2999 RMK AO2=
KEZF 080658Z AUTO 00000KT 7SM CLR 26/24 A2997 RMK AO2
     T02610244=
KF24 080659Z AUTO 10SM CLR 25/24 A3004 RMK AO2 T02470235=
KMQI 080656Z AUTO 07007KT 10SM SCT120 26/25 A2994 RMK AO2=
KMRN 080659Z AUTO 00000KT 10SM CLR 19/17 A3010 RMK AO2=
KOCW 080659Z AUTO 02005KT 5SM HZ CLR 26/21 A2993 RMK AO2=
KPGV 080700Z AUTO 00000KT 5SM HZ CLR 23/20 A2994 RMK AO2=
KSIF 080700Z AUTO 00000KT 7SM OVC090 23/21 A3001 RMK AO2=
KTSP 080655Z AUTO 00000KT 10SM CLR 15/07 A3003 RMK AO2=
KUNV 080700Z AUTO 00000KT 7SM CLR 21/18 A3008 RMK AO2
     T02100184=
KW99 080659Z AUTO 00000KT 7SM SCT085 21/16 A3009 RMK AO2=
PANW 080656Z AUTO 36006KT FEW035 SCT045 OVC060 11/09 A2997 RMK AO2
     PWINO TSNO T01050094 OVC V BKN SLP128 $=
####018000089####
SPUS80 KWBC 080704
SPECI
KSTC 080701Z AUTO 00000KT 2SM BR CLR 14/13 A3008 RMK AO2=
####018000525####
SAUS80 KWBC 080700 RRC
METAR
KACY 080654Z 00000KT 8SM CLR 25/23 A3001 RMK AO2 SLP162
     T02500228=
KCHS 080656Z 29007KT 10SM CLR 25/20 A2997 RMK AO2 SLP148
     T02500200=
KDAB 080653Z 00000KT 10SM FEW026 21/20 A3000 RMK AO2 SLP158
     T02110200 $=
KDAB 080653Z 00000KT 10SM FEW026 21/20 A3000 RMK AO2 SLP158
     T02110200 $=
KPZQ 080655Z AUTO 19006KT 5SM BR CLR 22/22 A3001 RMK AO2=
KAYS 080700Z AUTO 00000KT 10SM CLR 23/21 A3002 RMK AO1=
KJNX 080659Z AUTO 00000KT 4SM CLR 22/22 A2994 RMK AO2=
####018001129####
SAXX60 KWBC 080700 RRE
METAR
KNEL 080700Z AUTO 00000KT 3SM BR OVC110 23/21 A3001 RMK AO2 SLP160
     T02330211 $=
KNGU 080659Z 00000KT 5SM BR FEW085 26/23 A2996 RMK AO2 SLP147
     T02560233=
KNBC 080656Z AUTO 26005KT 10SM CLR 24/19 A2998 RMK AO2 SLP151
     T02440189=
KNBG 080655Z AUTO 04003KT 10SM CLR 26/24 A3001 RMK AO2 SLP162
     T02560239 PWINO $=
KNCA 080656Z AUTO 01004KT 10SM CLR 26/22 A2991 RMK AO2 SLP128
     T02560217=
KNGP 080656Z AUTO 08005KT 10SM FEW055 28/26 A2983 RMK AO2 TSE0559
     SLP101 T02830261 $=
KNJM 080657Z AUTO 35004KT 10SM CLR 26/19 A2990 RMK AO2 SLP130
     T02610194 $=
KNTU 080656Z 11005KT 4SM BR CLR 26/24 A2994 RMK AO2 SLP142
     T02560244 $=
TTPP 080700Z 11007KT 9999 FEW016 BKN280 26/25 Q1011 NOSIG=
K79J 080656Z AUTO 00000KT 10SM CLR 25/22 A3003 RMK AO2 SLP163
     T02500222 TSNO $=
KLTS 080655Z AUTO 32004KT 10SM CLR 24/22 A3004 RMK AO2 SLP155
     T02360222 $=
KNJK 080656Z AUTO 26008KT 10SM CLR 28/09 A2967 RMK AO2 SLP06LJ
     T02830089 TSNO=
KRCA 080655Z 00000KT 9SM CLR 12/09 A3024 RMK AO2A SLP229 T01240091
     402230084 $=
####018000084####
SAAW32 KWBC 080500 RRD
METAR
OICS 080500Z 00000KT 9000 SKC 27/05 Q1014 A2997=
####018000084####
SAAW32 KWBC 080600 RRF
METAR
OICS 080600Z 35002KT 9000 SKC 30/04 Q1014 A2995=
####018000066####
SAAG SARE 080700
METAR SARE 080700Z  16004KT 9999 09/09 Q1019=
####018003733####
SAUS70 KWBC 080700 RRF
METAR
KNSE 080656Z AUTO 00000KT 1 1/2SM BR CLR 24/22 A3003 RMK AO2
     SLP153 T02390217 $=
K4I3 080656Z AUTO 00000KT 10SM CLR 21/19 A3010 RMK AO2=
KACB 080655Z AUTO 00000KT 10SM BKN110 23/21 A2999 RMK AO2=
KACQ 080659Z AUTO 30005KT 10SM CLR 17/17 A3010 RMK AO2=
KADC 080656Z AUTO 22004KT 10SM CLR 14/13 A3008 RMK AO2=
KAMN 080655Z AUTO 00000KT 5SM BR CLR 22/21 A3002 RMK AO2=
KAQP 080654Z AUTO 21004KT 10SM CLR 15/15 A3010 RMK AO2=
KASJ 080657Z AUTO 00000KT 5SM HZ CLR 24/21 A2995 RMK AO2=
KAUM 080655Z AUTO 31005KT 10SM CLR 19/18 A3006 RMK AO2=
KBAX 080655Z AUTO 00000KT 5SM BR SCT110 22/21 A3002 RMK AO2=
KBDH 080655Z AUTO 00000KT 10SM CLR 16/14 A3011 RMK AO2=
KBFW 080653Z AUTO 00000KT 10SM SCT065 SCT110 18/16 A3001 RMK
     AO2=
KCAD 080654Z AUTO 00000KT 10SM BKN100 BKN110 22/21 A3004 RMK
     AO2=
KCBG 080655Z AUTO 00000KT 10SM CLR 18/16 A3006 RMK AO2=
KCDA 080655Z AUTO 00000KT 5SM HZ CLR 21/18 A3009 RMK AO2=
KCDD 080651Z AUTO 00000KT 10SM CLR 14/14 A3004 RMK AO2=
KCFE 080655Z AUTO 00000KT 10SM CLR 19/17 A3009 RMK AO2
     T01860165=
KCFS 080655Z AUTO 00000KT 2 1/2SM BR CLR 21/21 A3003 RMK AO2=
KCKC 080655Z AUTO 00000KT 7SM CLR 15/13 A3004 RMK AO2=
KCKN 080655Z AUTO 27006KT 10SM CLR 15/12 A3004 RMK AO2=
KCNB 080657Z AUTO 25004KT 10SM CLR 15/13 A3013 RMK AO2
     T01520127=
KCOQ 080656Z AUTO 28004KT 10SM CLR 16/16 A3006 RMK AO2=
KCQM 080657Z AUTO 00000KT 1 3/4SM BR VV007 13/13 A3005 RMK AO2 VIS
     3/4V5=
KCTZ 080700Z AUTO 00000KT 7SM CLR 24/22 A2993 RMK AO2=
KCVX 080655Z AUTO 00000KT 7SM BKN100 21/20 A3000 RMK AO2=
KDRM 080656Z AUTO 00000KT 1 1/4SM BR OVC001 19/19 A2999 RMK
     AO2=
KDTL 080655Z AUTO 24005KT 10SM CLR 18/13 A3008 RMK AO2=
KDUH 080654Z AUTO 00000KT 7SM CLR 22/18 A3005 RMK AO2=
KDVP 080656Z AUTO 00000KT 10SM CLR 15/13 A3016 RMK AO2
     T01500132=
KEBS 080655Z AUTO 33004KT 10SM OVC022 21/19 A3009 RMK AO2=
KERY 080655Z AUTO 00000KT 10SM -RA SCT024 BKN040 OVC060 20/19
     A2999 RMK AO2=
KETH 080654Z AUTO 21004KT 10SM CLR 15/14 A3010 RMK AO2=
KFFX 080654Z AUTO 25003KT 7SM -DZ SCT032 SCT048 OVC090 23/21 A3004
     RMK AO2=
KFKS 080655Z AUTO 21005KT 10SM CLR 23/18 A3000 RMK AO2=
KFOZ 080653Z AUTO 00000KT 1/2SM FG VV005 13/12 A3005 RMK AO2=
KFPK 080656Z AUTO 00000KT 3SM BR CLR 21/20 A3003 RMK AO2=
KFQD 080659Z AUTO 33003KT 10SM CLR 22/18 A3004 RMK AO2=
KFSE 080654Z AUTO 21005KT 10SM CLR 14/13 A3004 RMK AO2=
KGOV 080655Z AUTO 00000KT 5SM BR BKN090 BKN120 21/21 A3004 RMK
     AO2=
KHAF 080650Z AUTO 26005KT 9SM OVC010 12/10 A2994 RMK AO2=
KHAI 080655Z AUTO 00000KT 7SM CLR 22/21 A3005 RMK AO2=
KHQU 080700Z AUTO 00000KT 10SM CLR 22/19 A3006 RMK AO1=
KHYX 080655Z AUTO 17004KT 10SM CLR 23/21 A3001 RMK AO2=
KIRS 080655Z AUTO 00000KT 10SM CLR 23/19 A3005 RMK AO2=
KISQ 080655Z AUTO 00000KT 10SM BKN020 19/17 A2997 RMK AO2=
KJYG 080655Z AUTO 00000KT 10SM CLR 18/18 A3012 RMK AO2=
KJYM 080655Z AUTO 00000KT 7SM CLR 21/20 A3007 RMK AO2=
KLDM 080655Z AUTO 23011KT 10SM BKN090 BKN120 24/20 A3003 RMK
     AO2=
KLWA 080656Z AUTO 31003KT 10SM SCT050 BKN070 BKN110 23/21 A3004
     RMK AO2=
KMCD 080656Z AUTO 00000KT 10SM BKN110 21/18 A3000 RMK AO2=
KMGN 080655Z AUTO 00000KT 7SM BKN110 21/20 A2999 RMK AO2=
KMOP 080654Z AUTO 00000KT 2 1/2SM BR CLR 22/22 A3002 RMK AO2 VIS 1
     1/4V5=
KMZH 080651Z AUTO 00000KT 10SM CLR 15/14 A3004 RMK AO2=
KOEB 080655Z AUTO 00000KT 10SM CLR 23/20 A3006 RMK AO2=
KONZ 080657Z AUTO 21003KT 10SM CLR 26/21 A3002 RMK AO2=
KORB 080654Z AUTO 00000KT 10SM CLR 14/13 A3002 RMK AO2=
KOSC 080654Z AUTO 00000KT 10SM CLR 20/18 A3002 RMK AO2=
KOWA 080654Z AUTO 29005KT 10SM CLR 18/18 A3007 RMK AO2=
####018000415####
SPUS70 KWBC 080704
SPECI
KACK 080701Z AUTO 12007KT 3/4SM R24/3000VP6000FT BR VV001 19/19
     A3006 RMK AO2 TSNO=
KBML 080702Z AUTO 00000KT 1/2SM FG BKN003 BKN007 OVC050 19/19
     A3008 RMK AO2 $=
KICT 080702Z 04005KT 10SM SCT025 SCT070 BKN200 23/21 A3009 RMK AO2
     $=
KLEB 080702Z AUTO 00000KT 1 1/4SM BR CLR 22/21 A3004 RMK AO2=
KTVR 080702Z AUTO 00000KT 3SM BR CLR 23/22 A3003 RMK AO2 $=
####018000909####
SAUS70 KWBC 080704
METAR
KBQP 080707Z AUTO 07003KT 3SM BR SCT001 25/25 A3003 RMK AO2=
KFKA 080703Z AUTO 32006KT 7SM CLR 20/19 A3006 RMK AO2
     T01960190=
KCWV 080705Z AUTO 00000KT 10SM CLR 21/21 A3001 RMK AO2
     T02130214=
KGEV 080701Z AUTO 00000KT 10SM CLR 24/17 A3019 RMK AO2=
KHDC 080701Z AUTO 09004KT 10SM CLR 26/26 A3002 RMK AO2=
KHRJ 080701Z AUTO 00000KT 7SM CLR 27/21 A2994 RMK AO2=
KJYL 080701Z AUTO 00000KT 10SM CLR 23/21 A3001 RMK AO2=
KMLJ 080702Z AUTO 00000KT 10SM CLR 23/23 A3002 RMK AO2=
KMWK 080702Z AUTO 00000KT 10SM CLR 24/18 A3004 RMK AO2=
KRHP 080703Z AUTO 00000KT 7SM CLR 19/18 A3012 RMK AO2=
KUKF 080701Z AUTO 00000KT 10SM CLR 22/17 A3006 RMK AO1=
PABA 080701Z AUTO 29006KT 10SM UP BKN005 OVC012 02/02 A3005 RMK
     AO2 RAB0650E00UPB00 SLP177 P0000 T00220017 FZRANO=
PAIK 080701Z AUTO 25008KT 10SM CLR 17/08 A3012 RMK AO2 SLP240
     T01670078=
####018000112####
SAAF11 LFPW 080600 RRD
METAR FKKR 080600Z 00000KT 6000 -TSRA BKN016 SCT020CB OVC100 Q1014
           NOSIG=
####018000322####
SAMX31 KWBC 080645 RRD
METAR
MMAA 080644Z 34005KT 8SM SCT020TCU BKN300 27/23 A2979 RMK
     8/202=
MMMX 080644Z 00000KT 5SM -RA BKN025 OVC080 15/14 A3022 NOSIG RMK
     8/46/ -RA B37 LWR SC=
MMVR 080645Z 27010KT 7SM TS BKN012CB OVC080 25/24 A2980 RMK 60085
     8/96/ INTMT -RA TS B40 OCNL LTGIC 1-2 QUAD=
####018000117####
SAMX42 KWBC 080645 RRB
METAR
MMTO 080645Z 00000KT 3SM RA BKN010CB OVC070 13/11 A3028 RMK 8/96/
     -TS E36=
####018000088####
SASA31 KWBC 080600 RRD
METAR
SKCL 080600Z 35003KT 9999 FEW025 BKN100 20/18 A3001=
####018000218####
SAUK41 KWBC 080650 RRC
METAR
EGDM 080650Z AUTO 30006KT 8000NDV BR FEW003/// OVC013/// 15/14
     Q1019 RERA=
EGDM 080650Z NIL=
EGDY 080650Z 28003KT 9999 FEW010 BKN140 17/14 Q1019 NOSIG=
EGDY 080650Z NIL=
####018000190####
SAUK42 KWBC 080650 RRC
METAR
EGOV 080650Z 21013KT 9999 FEW018 SCT060 BKN200 15/12 Q1016
     NOSIG=
EGOV 080650Z NIL=
EGPU 080650Z AUTO 23018KT 9999NDV // FEW021/// 13/11 Q1008=
####018000213####
SAXX99 KWBC 080600 RRX
METAR
MMPB 080642Z 20005KT 6SM SCT025 SCT120 BKN220 15/14 A3022 RMK
     8/472 HZY=
MMQT 080645Z 07010KT 4SM-RA BKN020 BKN100 OVC120 17/14 A3016 RMK
     6/0105 8/4633 -RA CONT=
####018000566####
SAAU69 AMMC 080700
METAR YSTW 080700Z AUTO 13012KT 9999NDV // SCT049 BKN058 15/05 Q1022=
METAR YSWG 080700Z 00000KT 9999 FEW035 12/04 Q1026=
METAR YTEF 080700Z AUTO 05007KT //// // ////// 21/15 Q1012=
METAR YTNK 080700Z AUTO 10007KT 9999NDV // NCD 19/12 Q1017=
METAR YTRE 080700Z AUTO 22003KT //// // ////// 13/12 Q1023=
METAR YWGT 080700Z AUTO 00000KT //// // ////// 12/07 Q1026=
METAR YWHA 080700Z AUTO 11008KT 9999NDV // NCD 14/03 Q1023=
METAR YWLM 080700Z 26006KT 9999 VCSH SCT020 BKN040 13/12 Q1024
     INTER 0700/1000 4000 SHRA BKN010=

####018000069####
SAEO32 EETN 080650
METAR EEKE 080650Z 35008KT CAVOK 20/12 Q1016=
####018000557####
SAYG31 LYBM 080700
METAR LYBE 080700Z 28006KT 9999 SCT043 16/14 Q1021 NOSIG=
METAR LYBT 080700Z 28005KT 9999 SCT040 16/16 Q1021 NOSIG=
METAR LYKV 080700Z 34007KT 9999 SCT035 16/16 Q1022 NOSIG=
METAR LYNI 080700Z 34010KT 9999 -RA FEW013 OVC033 14/12 Q1020 NOSIG=
METAR LYPG 080700Z 02016KT 350V060 9999 FEW040 24/07 Q1017 NOSIG=
METAR LYPR 080700Z NIL=
METAR LYTV 080700Z 33008KT 280V030 CAVOK 25/07 Q1017 NOSIG=
METAR LYUZ 080700Z 30009KT 9999 BKN020 11/09 Q1023 NOSIG=
METAR LYVR 080700Z 34005KT 280V040 9999 FEW020 BKN040 17/13 Q1020=
####018000289####
SAIL31 BICC 080700
METAR BIAR 080700Z 35019KT 9999 -RA BKN026 09/06 Q0993=
METAR BIEG 080700Z 36013KT 1500 VCSH BR VV002 08/08 Q0989=
METAR BIKF 080700Z 02018KT 9999 FEW014 SCT019 BKN026 09/05 Q0992=
METAR BIRK 080700Z 01023G34KT 250V110 9999 FEW015 SCT035 BKN060 09/06
Q0991=
####018000251####
SACZ31 LKPW 080700
METAR LKKV 080700Z 00000KT CAVOK 16/10 Q1024=
METAR LKMT 080700Z VRB02KT 9999 FEW030 17/12 Q1023 NOSIG=
METAR LKPR 080700Z 14004KT 090V190 CAVOK 19/10 Q1023 NOSIG=
METAR LKTB 080700Z VRB02KT 9999 FEW031 19/11 Q1023 NOSIG=
####018000086####
SABU31 LBSM 080700 RRA
METAR LBSF 080700Z 28006MPS 9999 BKN033 14/10 Q1018 NOSIG=
####018000790####
SAUR30 UKMS 080700
METAR UKBB 080700Z 31003MPS 270V340 9999 SCT014 23/19
         Q1013 88CLRD95    NOSIG=
METAR UKHH 080700Z VRB01MPS 9999 FEW046 SCT200 26/18 
         Q1014 080///65 NOSIG=
METAR UKOO 080700Z 35005MPS CAVOK 22/17 Q1014
         34090070 NOSIG=
METAR UKDE 080700Z 25003MPS 210V290 9999 BKN050TCU 
         26/21 Q1014 20CLRD70 NOSIG=
METAR UKDD 080700Z VRB02MPS CAVOK 26/19 Q1014
         08090070 NOSIG=
METAR UKFF 080700Z VRB02MPS 9999 FEW033 26/18 Q1013 
         19010070 NOSIG=
METAR UKLL 080700Z 32003MPS 260V030 9999 SCT024CB 
         BKN024 16/12 Q1020 31210365 NOSIG=
METAR UKCC 080700Z 00000MPS CAVOK 26/18 Q1015
         08090070 NOSIG=
METAR UKDR 080700Z 25004MPS 9999 SCT033 OVC200 26/20 
         Q1013 1809//70 NOSIG=
####018000828####
SAUR31 UKMS 080700
METAR UKLR 080700Z 31004MPS 250V340 9999 BKN017
         OVC100  18/14 Q1017 30090070 NOSIG=
METAR UKLI 080700Z 26005MPS 3000 -SHRA BKN008
         BKN017CB  14/13 Q1019 28290565 NOSIG=
METAR UKON 080700Z 33003MPS 280V020 CAVOK 24/19 Q1013
          05090075 NOSIG=
METAR UKCM 080700Z 12003MPS 080V160 9999 SCT040 28/18
          Q1014 02010065 NOSIG=
METAR UKCW 080700Z VRB01MPS 9999 BKN040 28/15 Q1015
         2709//70 NOSIG=
METAR UKLU 080700Z 36007MPS 9999 FEW040 SCT200 19/10
         Q1020 10290060  NOSIG=
METAR UKKK 080700Z 30002MPS 9999 BKN012 21/18 Q1014
         08CLRD70  NOSIG=
METAR UKKM 080700Z 30002MPS 8000 SCT010 OVC016 21/18
         Q1014  33CLRD70 NOSIG=
METAR UKLN 080700Z 29005MPS 260V330 9999 BKN010
         BKN033CB 16/15 Q1018 3309//70 NOSIG=
####018000075####
SAAB31 LATI 080700
METAR LATI 080700Z 07006KT CAVOK 25/11 Q1015 NOSIG=
####018000353####
SAIE31 EIDB 080700
METAR EIDW 080700Z 23012KT 190V250 9999 FEW023 SCT110 BKN180 14/10
     Q1015 NOSIG=
METAR EINN 080700Z 18008KT 9999 FEW030 SCT050 BKN170 14/10 Q1015
     NOSIG=
METAR EICK 080700Z 21006KT 9999 FEW018 SCT050 BKN080 13/12 Q1016
     NOSIG=
METAR EIKN 080700Z 18004KT 9999 FEW015 SCT045 BKN200 11/10 Q1013
     NOSIG=
####018000100####
SAAJ31 UBBB 080700
METAR UBBG 080700Z 33008KT 9999 FEW100 32/18 Q1012 NOSIG RMK
R30R/CLRD70 =
####018000139####
SAIY42 LIIB 080600 RRC
METAR LIRM 080555Z 06012KT 020V100 9999 FEW035 25/20 Q1018 RMK SCT
      VIS MIN 9999 WIND THR06 05012KT BLU=
####018000341####
SATS41 DTTA 080700
METAR DTTB 080700Z 32008KT 9999 SCT020 26/19 Q1020=
METAR DTTD 080700Z 09004KT 040V150 8000 SCT020 23/17 Q1021=
METAR DTTG 080700Z 10010KT 9999 FEW020 25/20 Q1019 NOSIG=
METAR DTTK 080700Z 00000KT CAVOK 27/19 Q1019=
METAR DTTL 080700Z 29006KT CAVOK 25/20 Q1018=
METAR DTTN 080700Z 23006KT CAVOK 24/15 Q1019=
####018000440####
SAHU41 LHBM 080700
METAR LHDC 080645Z 02010KT CAVOK 19/12 Q1020 NOSIG=
METAR LHKE 080645Z 07005MPS CAVOK 22/10 Q1020 NOSIG RMK BLU=
METAR LHPA 080645Z 32003MPS CAVOK 19/12 Q1023 NOSIG RMK BLU=
METAR LHPP 080645Z 33005KT CAVOK 19/11 Q1023 NOSIG=
METAR LHPR 080645Z 33009KT CAVOK 20/11 Q1023=
METAR LHSM 080700Z NIL=
METAR LHSN 080645Z 04002MPS CAVOK 21/12 Q1021 NOSIG RMK BLU=
METAR LHUD 080645Z 32005KT CAVOK 17/15 Q1022=
####018001539####
SPZZ40 KAWN 080704
SPECI BGTL 080659Z AUTO 00000KT 4000 BR OVC002 05/05 A2985 RMK AO2
      SLP112=
SPECI BGTL 080700Z AUTO 00000KT 2800 BR OVC002 05/05 A2985 RMK AO2
      SLP112=
SPECI BGTL 080702Z AUTO 00000KT 1600 BR OVC002 05/05 A2985 RMK AO2
      SLP112=
SPECI CYKF 080701Z AUTO 00000KT 2 1/2SM BR CLR 20/19 A3006 RMK SLP177
      DENSITY ALT 1700FT=
SPECI CYPQ 080659Z AUTO ///// 3/8SM CLR 21/21 A3003=
SPECI CYTZ 080701Z AUTO 19003KT 5SM BR OVC100 22/20 A3001 RMK SLP163
      DENSITY ALT 1000FT RVR MISG=
SPECI EGUL 080702Z AUTO 21011KT 9999 BKN027 OVC033 18/16 A3005 RMK
      AO2 CIG 021V030 SLP177=
SPECI PABA 080657Z AUTO 27006KT 10SM -RA BKN005 OVC012 02/02 A3005
      RMK AO2 RAB50 P0000 FZRANO=
SPECI PGUA 080701Z AUTO 08013KT 10SM SCT018 SCT025 28/ A2986 RMK AO2
      SLP092 VISNO RWY24L $=
SPECI RODN 080700Z AUTO 19012KT 9999 SCT022 30/26 A2982 RMK AO2 SCT
      V BKN SLP096=
SPECI RODN 080701Z AUTO 18013KT 9999 BKN022 30/26 A2982 RMK AO2 CIG
      020V026 SLP097=
SPECI RODN 080703Z AUTO 19014KT 9999 SCT021 30/26 A2982 RMK AO2 SCT
      V BKN SLP097=
SPECI UMII 080700Z 17003MPS P6000 BKN007CB 18/16 Q1012 R23/D NOSIG=
SPECI YPPH 080657Z 36014KT 2000 SHRA SCT018 BKN060 FEW022CB 15/14 Q1000
      FM0657 33018G28KT 9999 -SHRA BKN020 INTER 0657/0957
      27025G35KT 3000 +SHRA BKN010=
SPECI YPPH 080700Z 36013KT 1800 SHRA SCT018 OVC050 FEW022CB 15/14 Q1000
      FM0700 33018G28KT 9999 -SHRA BKN020 INTER 0700/1000
      27025G35KT 3000 +SHRA BKN010=
####018000077####
SARE03 FMEE 080700
METAR
FMEP 080700Z 11024KT 9999 FEW025 24/15 Q1023=
####018001652####
SAEU KAWN 080700 RRL
METAR EGDM 080650Z AUTO 30006KT 8000NDV BR FEW003/// OVC013/// 15/14
      Q1019 RERA=
METAR EGOP 080650Z AUTO 23004KT 9999NDV // FEW018/// SCT090/// 16/13
      Q1018=
METAR EGPU 080650Z AUTO 23018KT 9999NDV // FEW021/// 13/11 Q1008=
METAR EGXJ 080650Z AUTO 24009KT 9999NDV // BKN110/// SCT170/// 16/10
      Q1017=
METAR EPGD 080700Z 30011KT CAVOK 20/11 Q1021=
METAR EPKK 080700Z 22005KT CAVOK 17/12 Q1022=
METAR EPKT 080700Z 33005KT CAVOK 18/08 Q1023=
METAR EPPO 080700Z 25004KT 180V290 CAVOK 19/07 Q1023=
METAR EPRZ 080700Z 33006KT 9999 FEW026 18/11 Q1021=
METAR EPWA 080700Z 29009KT 260V330 CAVOK 15/12 Q1021 NOSIG=
METAR EPWR 080700Z 18004KT 140V230 CAVOK 20/11 Q1024=
METAR LEMO 080700Z VRB02KT CAVOK 23/19 Q1015 NOSIG=
METAR LHDC 080645Z 02010KT CAVOK 19/12 Q1020 NOSIG=
METAR LHKE 080645Z 07005MPS CAVOK 22/10 Q1020 NOSIG RMK BLU=
METAR LHPA 080645Z 32003MPS CAVOK 19/12 Q1023 NOSIG RMK BLU=
METAR LHPP 080645Z 33005KT CAVOK 19/11 Q1023 NOSIG=
METAR LHSN 080645Z 04002MPS CAVOK 21/12 Q1021 NOSIG RMK BLU=
METAR LHUD 080645Z 32005KT CAVOK 17/15 Q1022=
METAR LKKV 080700Z 00000KT CAVOK 16/10 Q1024=
METAR LKMT 080700Z VRB02KT 9999 FEW030 17/12 Q1023 NOSIG=
METAR LKNA 080700Z 36005KT 320V100 9999 FEW032 17/09 Q1024 NOSIG RMK
      BLU+ BLU+=
METAR LKPD 080700Z VRB02KT CAVOK 17/10 Q1024 NOSIG RMK BLU+ BLU+=
METAR LKPR 080700Z 14004KT 090V190 CAVOK 19/10 Q1023 NOSIG=
METAR LKTB 080700Z VRB02KT 9999 FEW031 19/11 Q1023 NOSIG=
METAR LYNI 080700Z 34010KT 9999 -RA FEW013 OVC033 14/12 Q1020 NOSIG=
METAR LYPG 080700Z 02016KT 350V060 9999 FEW040 24/07 Q1017 NOSIG=
####018000091####
SAER32 OMAE 080700 CCA
METAR COR OMDB 080700Z VRB04KT CAVOK 41/22 Q1001 BECMG 34010KT=
####018000092####
SANI20 DNMM 080700
METAR DNMM 080700Z 00000KT 5000 BR FEW007 24/24 Q1015 TEMPO 3000=

####018000791####
SAEW32 LEMM 080700
METAR LEAS 080700Z 06006KT 010V110 9999 4000S SCT010 SCT025TCU 
19/18 Q1017 TEMPO 4000 TSRA SCT025CB=
METAR LEBB 080700Z VRB02KT 7000 FEW015 22/19 Q1016 NOSIG=
METAR LECO 080700Z 34009KT 300V010 8000 TS -RA FEW010 SCT012CB 
BKN016 20/19 Q1016=
METAR LEGE 080700Z 00000KT 9000 NSC 25/20 Q1019=
METAR LEST 080700Z VRB06KT 6000 VCTS SCT005 SCT024CB 16/16 Q1014 
NOSIG=
METAR LEZG 080700Z 09008KT CAVOK 26/17 Q1019=
METAR LESO 080700Z 00000KT CAVOK 22/18 Q1016=
METAR LEVT 080700Z 00000KT 9999 FEW035 21/18 Q1019=
METAR LERS 080700Z 05003KT 360V080 9999 FEW045 24/20 Q1019=
METAR LEMH 080700Z 00000KT CAVOK 27/20 Q1020=
METAR LEAM 080700Z VRB02KT CAVOK 30/10 Q1017=
METAR LEGR 080700Z VRB02KT 9999 SCT060 25/12 Q1018=
METAR LERL 080700Z NIL=
####018000343####
SAEW33 LEMM 080700
METAR GCLP 080700Z 01021KT 9999 BKN016 22/18 Q1016 NOSIG=
METAR GCXO 080700Z 30017KT 0100 R30/0300N R12/0175N FG OVC000 
16/16 Q1019 NOSIG=
METAR GCTS 080700Z 08009KT 9999 BKN018 21/18 Q1016 NOSIG=
METAR GCRR 080700Z 02012KT 9000 SCT015 21/18 Q1016=
METAR GCFV 080700Z 02009KT 350V050 9999 BKN018 21/18 Q1016=
####018000647####
SAXX60 KAWN 080700 RRA
METAR NSTU 080659Z 34003KT 10SM SCT014 BKN040 BKN130 27/26 A2986 RMK
      SHRAB20E45 SLP113 T02710261=
METAR PHBK 080656Z AUTO 27005KT 10SM SCT080 27/19 A3001 RMK AO2 SLP164
      T02720194 TSNO $=
METAR PHNY 080656Z AUTO 06017KT 10SM CLR 22/17 A3006 RMK AO2 TSNO T02160166
      PK WND 05029/0642 SLP160 $=
METAR RJSM 080700Z 12010KT 9999 SCT003 BKN006 BKN080 20/18 Q1008 RMK
      3ST003 5ST006 6AC080 A2979 WIND BY EQPT/10 VIS NE-E 3500M
      FCST 0713 TEMPO 0709 3000 -SHRA BR SCT001ST BKN003ST TEMPO
      0912 1500 BR SCT000ST BKN001ST BECMG 1213 3000 BR SCT000ST
      BKN001ST/ ST AFT 09Z=
####018000699####
SARS18 KAWN 080700 RRB
METAR BIKF 080700Z 02018KT 9999 FEW014 SCT019 BKN026 09/05 Q0992=
METAR LUKK 080700Z 34006KT 9999 SCT015 19/14 Q1015 26CLRD65 NOSIG=
METAR UBBB 080700Z 34024KT CAVOK 32/24 Q1011 NOSIG RMK R88CLRD70=
METAR UHHH 080700Z METAR 03007MPS 9999 BKN029CB OVC100 18/13 Q1010
      NOSIG=
METAR UKBB 080700Z 31003MPS 270V340 9999 SCT014 23/19 Q1013 88CLRD95
      NOSIG=
METAR UKFF 080700Z VRB02MPS 9999 FEW033 26/18 Q1013 19010070 NOSIG=
METAR UKLL 080700Z 32003MPS 260V030 9999 SCT024CB BKN024 16/12 Q1020
      31210365 NOSIG=
METAR UKOO 080700Z 35005MPS CAVOK 22/17 Q1014 34090070 NOSIG=
METAR UTTT 080700Z 23002MPS 7000 NSC 37/11 Q1011 R08R/CLRD70 NOSIG=
####018000126####
SPUS17 KAWN 080704
SPECI PABA 080657Z AUTO 27006KT 10SM -RA BKN005 OVC012 02/02 A3005
      RMK AO2 RAB50 P0000 FZRANO=
####018000752####
SAXX70 KAWN 080700 RRF
METAR KQEJ 080650Z AUTO 22003KT 7SM FEW075 28/18 A2989 RMK A02=
METAR KQAQ 080655Z 36009G16KT 8000 HZ CLR 40/08 A2966 RMK SLP040 PA
      +363 DA +3258=
METAR KQLT 080655Z AUTO VRB03KT 9999 34/09 A2997 RMK AO2 PK WND 07027/0639
      SLP018 T03400088 $=
METAR KQQS 080655Z AUTO VRB03KT 9999 CLR 27/07 A3020 RMK AO2 SLP091
      T02730073 $=
METAR KQSR 080655Z 31004KT 9999 FEW085 27/07 A3020 RMK AO2A SLP095
      WND DATA/ALSTG ESTMD=
METAR KQEL 080700Z AUTO 21004KT 7SM CLR 28/19 A2970 RMK A02=
METAR KQEQ 080700Z AUTO 23004KT 7SM CLR 26/18 A2980 RMK A02=
METAR KQEW 080700Z AUTO 00002KT 7SM CLR 27/19 A2981 RMK A02=
METAR KQFB 080700Z AUTO 31005KT 6SM BR BKN034 BKN046 29/19 A2990 RMK
      A02=
####018000920####
SAUK KAWN 080700 RRC
METAR EGDM 080650Z AUTO 30006KT 8000NDV BR FEW003/// OVC013/// 15/14
      Q1019 RERA=
METAR COR EGLL 080650Z 23009KT 9999 BKN010 18/15 Q1019 BECMG SCT010=
METAR EGOM 080650Z AUTO 23011KT 9999NDV // BKN011/// BKN016/// 12/10
      Q1014=
METAR EGOP 080650Z AUTO 23004KT 9999NDV // FEW018/// SCT090/// 16/13
      Q1018=
METAR EGPC 080650Z 19013KT 160V220 9999 FEW025 14/11 Q1007=
METAR EGPL 080650Z 22019KT 9999 VCSH FEW015TCU SCT020 14/10 Q1006=
METAR EGPM 080650Z 21019KT 9999 FEW012 SCT045 14/10 Q1004=
METAR EGPO 080650Z 22022KT 9999 FEW018 BKN040 13/10 Q1004=
METAR EGPU 080650Z AUTO 23018KT 9999NDV // FEW021/// 13/11 Q1008=
METAR EGWU 080657Z 24007KT 7000 -RADZ FEW008 OVC010 17/16 Q1019 GRN
      TEMPO 4000 GRN=
METAR EGXJ 080650Z AUTO 24009KT 9999NDV // BKN110/// SCT170/// 16/10
      Q1017=
METAR EGXX 080650Z AUTO 22007KT 9999NDV // NCD ///// Q////=
####018000109####
SACN99 CQCM 080700
METAR CQCM 080700Z  27005KT 8SM  SKC 42/19 A2957 RMK
WND/ALTM ESTD T04190189=


####018000648####
SAEW31 LEMM 080700
METAR LEMD 080700Z 34005KT 310V010 CAVOK 25/14 Q1019 NOSIG=
METAR LEBL 080700Z 30004KT 250V360 CAVOK 26/19 Q1019 NOSIG=
METAR LEPA 080700Z 00000KT CAVOK 26/18 Q1020 BECMG 22010KT=
METAR LEZL 080700Z 28007KT 9999 FEW040 25/19 Q1015 NOSIG=
METAR LEMG 080700Z 17005KT 140V210 9999 FEW040 27/16 Q1016 NOSIG=
METAR LEVC 080700Z 28003KT 240V320 CAVOK 25/20 Q1019 NOSIG=
METAR LEAL 080700Z 05005KT 020V080 CAVOK 27/16 Q1018 NOSIG=
METAR LEIB 080700Z 07003KT CAVOK 26/21 Q1019 NOSIG=
METAR LELC 080700Z 00000KT CAVOK 23/15 Q1018 NOSIG=
METAR LEVX 080700Z VRB02KT 9999 0800N R20/0500VP2000U PRFG NSC 
19/18 Q1014=
####018000192####
SAEW36 LEMM 080700
METAR GCHI 080700Z 35019KT 9999 BKN014 OVC022 21/18 Q1017=
METAR GCLA 080700Z 01013KT 9999 BKN020 21/18 Q1018=
METAR GEML 080700Z 08003KT 050V120 CAVOK 24/20 Q1016=
####018000409####
SAEW35 LEMM 080700
METAR LEAB 080700Z 17004KT 140V200 CAVOK 24/10 Q1021 NOSIG=
METAR LEBZ 080700Z 10002KT CAVOK 23/18 Q1015=
METAR LELN 080700Z 02004KT 350V050 CAVOK 24/13 Q1019=
METAR LESA 080700Z 00000KT CAVOK 24/16 Q1018=
METAR LETO 080700Z 05004KT 020V080 CAVOK 25/13 Q1019 NOSIG=
METAR LEVD 080700Z 09006KT 060V120 CAVOK 23/13 Q1019=
METAR LEVS 080700Z 36004KT 300V050 CAVOK 25/12 Q1020=
####018000328####
SAEW34 LEMM 080700
METAR LEBA 080700Z VRB01KT 9999 FEW050 24/14 Q1015=
METAR LEDA 080700Z 08010KT CAVOK 26/18 Q1020=
METAR LEJR 080700Z VRB02KT CAVOK 22/19 Q1015=
METAR LELL 080700Z 27007KT CAVOK 24/16 Q1019=
METAR LEPP 080700Z 00000KT CAVOK 23/16 Q1020=
METAR LEXJ 080700Z VRB01KT 8000 FEW012 BKN017 21/19 Q1016=
####018000427####
SAIR31 OIII 080700
METAR OIAW 080700Z 19006KT 7000 SKC 41/08 Q0999 A2950=
METAR OIFM 080700Z 00000KT CAVOK 35/07 Q1017 A3006=
METAR OIII 080700Z NIL=
METAR OIKB 080700Z NIL=
METAR OIKK 080700Z 36004KT CAVOK 32/03 Q1019 A3011=
METAR OIMM 080700Z 07006KT CAVOK 37/M01 Q1015 A2998=
METAR OISS 080700Z 07004KT CAVOK 37/07 Q1014 A2997=
METAR OITT 080700Z 09012KT CAVOK 32/04 Q1016 A3001=
METAR OIZH 080700Z NIL=
####018000122####
SAUS46 KPDT 080704
MTRHMS
METAR KHMS 080650Z 27004KT 15SM SKC 21/06 A2994 RMK SLP135 T02080063
     RSNK 21/04024
####018001622####
SAXN17 KAWN 080700 RRD
METAR MDSD 080700Z 05004KT 9999 FEW018 24/23 Q1014=
METAR MGGT 080700Z 18006KT CAVOK 17/13 Q1023 A3021 SCT080 OVC100 NOSI
      G=
METAR MGSJ 080700Z 07004KT 9999 -DZ SCT018 OVC090 2423 Q1012 A2988=
METAR MHLC 080700Z 00000KT 9999 FEW026 SCT200 26/24 Q1009 A2980 NOSIG=
METAR MMQT 080645Z 07010KT 4SM-RA BKN020 BKN100 OVC120 17/14 A3016
      RMK 6/0105 8/4633 -RA CONT=
METAR MMTO 080645Z 00000KT 3SM RA BKN010CB OVC070 13/11 A3028 RMK 8/96/
      -TS E36=
METAR MMVR 080645Z 27010KT 7SM TS BKN012CB OVC080 25/24 A2980 RMK 60085
      8/96/ INTMT -RA TS B40 OCNL LTGIC 1-2 QUAD=
METAR MUHA 080655Z 07002KT 8000 BKN020 25/24 Q1014=
METAR MYNN 080700Z 00000KT 9999 FEW015 27/27 A2994=
METAR NSTU 080659Z 34003KT 10SM SCT014 BKN040 BKN130 27/26 A2986 RMK
      SHRAB20E45 SLP113 T02710261=
METAR NTAA 080700Z 10003KT 9999 FEW020 25/22 Q1015 WS ALL RWY NOSIG=
METAR NWWW 080700Z AUTO 18002KT 9999NDV NCD 20/16 Q1015=
METAR PKWA 080700Z AUTO 08015KT 3SM RA BKN007 BKN021 OVC044 26/23 A2983
      RMK AO2 P0028 T02550234=
METAR SKBO 080700Z 00000KT 9999 BKN012 12/11 A3030 NOSIG=
METAR SKBQ 080700Z 00000KT 9999 SCT006 25/25 A2989=
METAR SKCG 080700Z 11004KT 9999 FEW012 SCT070 28/26 A2988=
METAR SOCA 080700Z 00000KT 9999 VCTS BKN020 BKN026 BKN033 25/24 Q1012
      NOSIG=
METAR SVMG 080700Z 09007KT 9999 FEW010 26/25 Q1013 NOSIG=
METAR TFFF 080700Z AUTO 06009KT 9999NDV SCT011/// BKN023/// BKN034///
      28/24 Q1013=
METAR TFFR 080700Z VRB01KT 9999 FEW021 26/24 Q1014 NOSIG=
METAR VHHH 080700Z 24014KT 9999 FEW020 SCT030 34/24 Q1007 NOSIG=
####018001751####
SASA KAWN 080700 RRB
METAR SAZS 080700Z 32017KT 8000 DZ BKN012 03/02 Q1006=
METAR SBMO 080700Z 00000KT 9999 FEW020 BKN100 21/20 Q1015=
METAR SBRF 080700Z 24004KT 9999 SCT016 BKN070 22/21 Q1014=
METAR SBTE 080700Z 22001KT 9999 FEW020 BKN100 25/23 Q1012=
METAR SCAR 080700Z 26002KT 9999 OVC023 15/09 Q1017=
METAR SCBA 080700Z AUTO 31014KT 9999 -SHSN FEW083 BKN088 BKN100 00/M02
      Q0998=
METAR SCCI 080700Z 32013KT 9999 FEW025 M02/M04 Q0988 NOSIG=
METAR SCDA 080700Z 01009KT 9999 OVC026 15/08 Q1017=
METAR SCEL 080700Z 01002KT 5000 BR BKN130 04/02 Q1022 NOSIG=
METAR SCFA 080700Z 00000KT 9999 OVC015 13/09 Q1016=
METAR SCIE 080700Z 30012KT 4000 -SHRA BKN005 OVC006 12/11 Q1019=
METAR SCSE 080700Z 14003KT CAVOK 07/06 Q1017 NEFO PLAYA SKC=
METAR SCTE 080700Z 34012KT 5000 SHRA SCT030 BKN050 07/07 Q1008 NOSIG=
METAR SKBO 080700Z 00000KT 9999 BKN012 12/11 A3030 NOSIG=
METAR SKBQ 080700Z 00000KT 9999 SCT006 25/25 A2989=
METAR SKCG 080700Z 11004KT 9999 FEW012 SCT070 28/26 A2988=
METAR SKRG 080700Z 00000KT 5000 BCFG BKN006 BKN080 14/14 A3028=
METAR SLCB 080700Z 00000KT 9999 NSC 08/01 Q1025=
METAR SLLP 080700Z 10003KT 2000E VCFG FEW003 M04/M04 Q1036=
METAR SLVR 080700Z 15007KT 9999 SCT010 BKN017 OVC070 21/20 Q1014=
METAR SOCA 080700Z 00000KT 9999 VCTS BKN020 BKN026 BKN033 25/24 Q1012
      NOSIG=
METAR SPHI 080700Z 17009KT CAVOK 15/14 Q1014 RMK PP000=
METAR SPQT 080700Z ///// CAVOK 24/23 Q1011 NOSIG RMK PP000=
METAR SPRU 080700Z 16009KT 6000 OVC016 16/13 Q1013 RMK BIRD HAZARD
      RWY20 PP000=
METAR SPTN 080700Z 20004KT 9999 SCT007 OVC012 11/09 Q1014 RMK PP000=
METAR SPZO 080700Z 00000KT 9999 SKC 05/02 Q1032 RMK PP000=
METAR SVMG 080700Z 09007KT 9999 FEW010 26/25 Q1013 NOSIG=
####018001064####
SAAU31 AMMC 080700
METAR YBAS 080700Z 12009KT 9999 FEW034 16/06 Q1019=
METAR YBBN 080700Z 17010KT 9999 FEW030 SCT040 BKN105 18/10 Q1018
     NOSIG=
METAR YBCS 080700Z 13008KT 9999 FEW026 BKN040 25/19 Q1014=
METAR YBTL 080700Z 06008KT 9999 FEW030 SCT045 BKN080 23/19 Q1015=
METAR YMML 080700Z 18005KT 9999 FEW031 BKN042 11/04 Q1027
     NOSIG=
METAR YPAD 080700Z 19003KT 9999 FEW045 SCT060 13/09 Q1025
     NOSIG=
METAR YPCC 080700Z 13009KT 9999 FEW021 28/22 Q1012=
METAR YPDN 080700Z 36011KT 9999 SCT049 BKN400 30/20 Q1011
     NOSIG=
METAR YPKU 080700Z 15006KT CAVOK 27/14 Q1012=
METAR YPLM 080700Z 07006KT 9999 FEW010 BKN080 BKN200 21/16 Q1008=
METAR YPPH 080700Z 36013KT 1800 SHRA SCT018 OVC050 FEW022CB 15/14 Q1000
     FM0700 33018G28KT 9999 -SHRA BKN020
     INTER 0700/1000 27025G35KT 3000 +SHRA BKN010=
METAR YPTN 080700Z 12009KT CAVOK 29/14 Q1012=
METAR YPXM 080700Z AUTO 16007KT 9999NDV // SCT018 26/22 Q1012=
METAR YSSY 080700Z 21015KT 9999 SCT035 BKN080 12/12 Q1025
     INTER 0715/1000 5000 SHRA BKN015=

####018002968####
SAUS20 KNKA 080704
METAR K3A1 080700Z AUTO 00000KT 10SM CLR 22/22 A3009 RMK AO2 
     T02170217=
METAR K3J7 080701Z AUTO 00000KT 10SM CLR 23/21 A3000 RMK AO2=
METAR K4A9 080700Z AUTO 00000KT 10SM CLR 21/19 A3006 RMK AO2 
     T02110187=
METAR K4R4 080700Z AUTO 00000KT M1/4SM FG OVC010 24/23 A3002 RMK 
     AO2 T02390231=
METAR K8A0 080659Z AUTO 00000KT 10SM CLR 25/21 A3006 RMK AO2=
METAR KAFP 080700Z AUTO 00000KT 10SM CLR 23/17 A2997 RMK AO2 
     T02280172=
METAR KALX 080700Z AUTO 00000KT 7SM CLR 24/22 A3004 RMK AO1=
METAR KBIJ 080701Z AUTO 00000KT 10SM CLR 20/ A3003 RMK AO2=
METAR KCPC 080700Z AUTO 25004KT 10SM CLR 28/19 A2993 RMK AO2 
     T02760190=
METAR KCWF 080700Z AUTO 08005KT 7SM CLR 24/24 A2999 RMK AO2=
METAR KDBN 080700Z AUTO 00000KT 10SM CLR 23/21 A3001 RMK AO1=
METAR KDNN 080658Z AUTO 00000KT 10SM CLR 21/21 A3005 RMK AO2=
METAR KDQH 080700Z AUTO 00000KT 10SM CLR 23/20 A3003 RMK AO1=
METAR KDRI 080700Z AUTO 10003KT 10SM SCT013 SCT019 SCT027 23/23 
     A3001 RMK AO2=
METAR KEHO 080700Z AUTO 00000KT 10SM CLR 21/19 A3002 RMK AO2 
     T02100185=
METAR KEYF 080700Z AUTO 28004KT 10SM SCT100 27/19 A2993 RMK AO2 
     T02730190=
METAR KFFA 080658Z AUTO 09004KT 10SM CLR 25/24 A2994 RMK AO2 
     T02500236=
METAR KFKN 080700Z AUTO 00000KT 7SM 24/21 A2995 RMK AO1=
SPECI KFOK 080703Z AUTO 12003KT 1 1/4SM BR OVC001 24/22 A3005 RMK 
    AO2 TSNO=
METAR KGHG 080700Z AUTO 00000KT 10SM FEW015 OVC027 22/20 A3007 
     RMK AO2=
METAR KGWW 080700Z AUTO 00000KT 10SM CLR 25/21 A2993 RMK AO2 
     T02450205=
METAR KHNZ 080700Z AUTO 00000KT 7SM CLR 24/18 A2998 RMK AO2 
     T02400183=
METAR KHOE 080659Z AUTO 00000KT 10SM CLR 22/ A3003 RMK AO2 T0223=
METAR KHSP 080700Z AUTO 08005KT 10SM CLR 23/15 A3027 RMK AO2=
METAR KHUM 080700Z AUTO 3SM BR SCT016 25/25 A2999 RMK AO2=
METAR KHWY 080700Z AUTO 00000KT 7SM CLR 23/20 A2999 RMK AO2=
METAR KIDI 080700Z AUTO 00000KT 5SM CLR 19/19 A3011 RMK AO2=
METAR KIPJ 080700Z AUTO 00000KT 10SM CLR 20/18 A3002 RMK AO2 
     T02000175=
METAR KISO 080700Z AUTO 00000KT 10SM CLR 24/20 A2993 RMK AO2 
     T02390196=
METAR KIXA 080700Z AUTO 00000KT 7SM CLR 23/19 A2994 RMK AO2 
     T02280189=
METAR KJES 080700Z AUTO 28003KT 10SM CLR 22/22 A3001 RMK AO2 
     T02150216=
METAR KJGG 080700Z AUTO 00000KT 7SM BKN120 27/24 A2997 RMK AO1=
METAR KJKA 080700Z AUTO 00000KT 1 1/4SM BR VV007 27/26 A3002 RMK 
     AO2 T02650255=
METAR KJQF 080700Z AUTO 36005KT 10SM CLR 24/17 A3000 RMK AO2 
     T02370165=
METAR KJYO 080700Z AUTO 33005KT 7SM SCT110 28/19 A3000 RMK AO2=
METAR KLGC 080655Z AUTO 00000KT 10SM CLR 22/ A3003 RMK AO1=
METAR KLKU 080700Z AUTO 00000KT 5SM HZ SCT075 24/21 A2999 RMK AO2=
METAR KLNP 080658Z AUTO 00000KT 7SM CLR 22/18 A3019 RMK AO1=
METAR KLOM 080700Z AUTO 00000KT 5SM CLR 23/21 A3000 RMK AO1 
     T02250208=
METAR KLWB 080701Z AUTO 00000KT 5SM HZ SCT065 21/18 A3016 RMK AO2=
